CYGK;2015-01-01 00:00;CYGK 010000Z 27009KT 8SM -SHSN SCT014 BKN065 M08/M11 A3007 RMK CU3SC2 SLP188

CYGK;2015-01-01 01:00;CYGK 010100Z 27007KT 15SM FEW020 SCT064 BKN160 M08/M14 A3004 RMK CU2SC2AC3 SLP179

CYGK;2015-01-01 02:00;CYGK 010200Z 27009KT 15SM FEW050 BKN059 BKN160 M08/M15 A3001 RMK CU1SC5AC1 OCNL -SHSN SLP169

CYGK;2015-01-01 03:00;CYGK 010300Z 26010G19KT 8SM -SHSN FEW014 BKN030 BKN070 BKN140 M08/M11 A2997 RMK CF2CU3AC1AC1 PRESFR SLP156

CYGK;2015-01-01 04:00;CYGK 010400Z 24013G18KT 10SM -SHSN SCT025 BKN060 BKN130 M06/M10 A2995 RMK CU3SC3AC1 LAST STFD OBS/NEXT 011100 UTC SLP146

CYGK;2015-01-01 11:00;CYGK 011100Z 24020G28KT 15SM SCT054 M04/M10 A2989 RMK SC4 SLP128

CYGK;2015-01-01 12:00;CYGK 011200Z 23024G32KT 15SM FEW030 OVC043 M04/M10 A2988 RMK CF1SC7 SLP124

CYGK;2015-01-01 12:35;CYGK 011235Z 25020G26KT 12SM -SHSN BKN028 OVC035 M04/M10 A2988 RMK CU6SC2 SLP122

CYGK;2015-01-01 13:00;CYGK 011300Z 25020G28KT 12SM -SHSN SCT022 OVC035 M04/M08 A2987 RMK CU4SC4 SLP121

CYGK;2015-01-01 14:00;CYGK 011400Z 25018G32KT 10SM -SHSN BKN021 OVC035 M03/M08 A2987 RMK CU5SC3 SLP121

CYGK;2015-01-01 14:46;CYGK 011446Z 24021G33KT 2 1/2SM -SHSN OVC022TCU M03/M07 A2986 RMK TCU8 SLP117

CYGK;2015-01-01 15:00;CYGK 011500Z 24019G31KT 2 1/2SM -SHSN OVC019TCU M03/M07 A2986 RMK TCU8 SLP117

CYGK;2015-01-01 15:10;CYGK 011510Z 23019G28KT 1SM -SHSN DRSN SCT011 OVC018TCU M03/M06 A2986 RMK SN2SF2TCU4 SLP118

CYGK;2015-01-01 15:49;CYGK 011549Z 22021G27KT 3/4SM -SHSN DRSN SCT008 OVC018TCU M03/M05 A2984 RMK SN2SF2TCU4 SLP109

CYGK;2015-01-01 16:00;CYGK 011600Z 22019G28KT 1/2SM SHSN DRSN VV006 M03/M05 A2982 RMK SN8 PRESFR SLP104

CYGK;2015-01-01 16:48;CYGK 011648Z 22025G32KT 1/4SM SHSN BLSN VV005 M03/M05 A2979 RMK SN8 SLP094

CYGK;2015-01-01 17:00;CYGK 011700Z 22024G31KT 1/4SM SHSN BLSN VV004 M03/M05 A2979 RMK SN8 SLP092

CYGK;2015-01-01 17:08;CYGK 011708Z 22022G31KT 1SM -SHSN BLSN OVC015TCU M03/M05 A2978 RMK SN4TCU4 PRESFR SLP089

CYGK;2015-01-01 17:43;CYGK 011743Z 22022G32KT 1 1/2SM -SHSN BLSN OVC015TCU M03/M05 A2977 RMK SN2TCU6 VIS VRB 3/4-2 SLP087

CYGK;2015-01-01 18:00;CYGK 011800Z 23024G32KT 1 1/2SM -SHSN BLSN OVC015TCU M03/M06 A2977 RMK SN2TCU6 VIS VRB 3/4-2 SLP087

CYGK;2015-01-01 18:25;CYGK 011825Z 22024G34KT 5/8SM -SHSN BLSN VV010 M03/M05 A2977 RMK SN8 SLP085

CYGK;2015-01-01 19:00;CYGK 011900Z 22020G26KT 5/8SM -SHSN BLSN VV009 M03/M04 A2976 RMK SN8 SLP082

CYGK;2015-01-01 19:37;CYGK 011937Z 23021G27KT 1/4SM -SHSN BLSN VV005 M03/M04 A2975 RMK SN8 SLP079

CYGK;2015-01-01 19:50;CYGK 011950Z 23017G26KT 3/4SM -SHSN BLSN VV008 M03/M04 A2975 RMK SN8 SLP079

CYGK;2015-01-01 20:00;CYGK 012000Z 25012G23KT 1SM -SHSN BLSN VV008 M03/M04 A2975 RMK SN8 SLP079

CYGK;2015-01-01 20:15;CYGK 012015Z 27012KT 1 1/2SM -SHSN DRSN OVC012TCU M03/M05 A2975 RMK SN2TCU6 SLP080

CYGK;2015-01-01 20:23;CYGK 012023Z 26013KT 2 1/2SM -SHSN DRSN OVC018TCU M03/M05 A2975 RMK TCU8 SLP080

CYGK;2015-01-01 20:32;CYGK 012032Z 26013G19KT 3SM -SHSN DRSN OVC018TCU M03/M05 A2975 RMK TCU8 VIS S 1 1/2 SLP080

CYGK;2015-01-01 21:00;CYGK 012100Z 25014G19KT 6SM -SHSN DRSN SCT018 OVC021TCU M03/M06 A2976 RMK SF4TCU4 VIS LWR S SLP083

CYGK;2015-01-01 21:50;CYGK 012150Z 25017G25KT 1 1/2SM -SHSN DRSN VV012 M03/M05 A2976 RMK SN8 OCNL BLSN SLP084

CYGK;2015-01-01 22:00;CYGK 012200Z 26013G23KT 1 1/2SM -SHSN DRSN VV015 M03/M05 A2977 RMK SN8 OCNL BLSN /S04/ SLP086

CYGK;2015-01-01 22:19;CYGK 012219Z 26013G23KT 4SM -SHSN DRSN OVC017 M03/M06 A2977 RMK SC8 OCNL BLSN SLP086

CYGK;2015-01-01 23:00;CYGK 012300Z 26015G23KT 10SM VCSH DRSN FEW017 BKN030 M03/M07 A2979 RMK SC2SC5 SLP091

CYGK;2015-01-02 00:00;CYGK 020000Z 25015G22KT 15SM DRSN FEW030 SCT070 BKN180 M03/M07 A2980 RMK SC1AC3AC3 SLP095

CYGK;2015-01-02 01:00;CYGK 020100Z 24017G23KT 15SM -SN DRSN SCT030 OVC110 M02/M07 A2980 RMK SC3AC5 SLP097

CYGK;2015-01-02 02:00;CYGK 020200Z 25016G27KT 12SM -SN DRSN FEW022 BKN098 M01/M06 A2981 RMK CF1AC6 OCNL BLSN SLP100

CYGK;2015-01-02 02:25;CYGK 020225Z 25021G27KT 15SM DRSN FEW022 OVC090 M01/M06 A2982 RMK CF1AC7 OCNL BLSN SLP103

CYGK;2015-01-02 03:00;CYGK 020300Z 25017G28KT 15SM FEW030 OVC092 M01/M06 A2983 RMK CF1AC7 SLP106

CYGK;2015-01-02 04:00;CYGK 020400Z 26015G25KT 15SM FEW030 BKN083 M01/M07 A2984 RMK CF1AC6 LAST STFD OBS/NEXT 021100UTC SLP110

CYGK;2015-01-02 11:00;CYGK 021100Z 28005KT 15SM SCT040 OVC065 M04/M07 A3001 RMK CU3SC5 SLP167

CYGK;2015-01-02 12:00;CYGK 021200Z 33006KT 15SM SCT025 OVC045 M05/M09 A3005 RMK SF3SC5 SLP180

CYGK;2015-01-02 13:00;CYGK 021300Z 31007KT 15SM FEW025 BKN045 M06/M10 A3011 RMK CU2SC4 PRESRR SLP200

CYGK;2015-01-02 14:00;CYGK 021400Z 32008KT 15SM FEW025 SCT060 M06/M11 A3015 RMK CU1SC3 CU TR SLP216

CYGK;2015-01-02 15:00;CYGK 021500Z 32009KT 15SM FEW030 SCT055 M06/M14 A3018 RMK CU2SC2 SLP223

CYGK;2015-01-02 16:00;CYGK 021600Z 33011KT 15SM FEW030 FEW042 M05/M14 A3019 RMK CF1SC2 CF TR SLP229

CYGK;2015-01-02 17:00;CYGK 021700Z 31009KT 15SM SCT032 BKN040 BKN100 M05/M13 A3019 RMK CU3SC3AC1 AC TR SLP228

CYGK;2015-01-02 18:00;CYGK 021800Z 29009G15KT 15SM FEW035 FEW060 FEW100 M05/M13 A3020 RMK CU1SC1AC1 AC TR SLP232

CYGK;2015-01-02 19:00;CYGK 021900Z 29011G17KT 15SM FEW040 BKN100 M04/M13 A3023 RMK CU2AC3 SLP242

CYGK;2015-01-02 20:00;CYGK 022000Z 30010KT 15SM FEW040 BKN130 M04/M13 A3025 RMK CU2AC3 SLP249

CYGK;2015-01-02 21:00;CYGK 022100Z 26008KT 15SM FEW040 FEW100 FEW130 M05/M13 A3027 RMK CF1AC1AC1 CF TR SLP256

CYGK;2015-01-02 22:00;CYGK 022200Z 33006KT 15SM FEW040 FEW130 M07/M14 A3031 RMK CF1AC1 CF TR SLP269

CYGK;2015-01-02 23:00;CYGK 022300Z 29002KT 15SM FEW045 SCT130 M07/M15 A3034 RMK SC2AC1 SLP280

CYGK;2015-01-03 00:00;CYGK 030000Z 33005KT 15SM FEW045 SCT110 M08/M14 A3038 RMK SC1AC3 SLP292

CYGK;2015-01-03 01:00;CYGK 030100Z 34005KT 15SM FEW045 FEW110 M10/M15 A3039 RMK SC1AC2 SC TR SLP298

CYGK;2015-01-03 02:00;CYGK 030200Z 31002KT 15SM FEW045 FEW110 M10/M15 A3042 RMK SC1AC1 SC TR SLP309

CYGK;2015-01-03 03:00;CYGK 030300Z 33004KT 15SM BKN045 BKN110 M10/M15 A3045 RMK SC6AC1 SLP317

CYGK;2015-01-03 04:00;CYGK 030400Z 03002KT 15SM BKN040 BKN110 M11/M15 A3047 RMK SC5AC1 LAST STFD OBS/NEXT 031100UTC SLP324

CYGK;2015-01-03 11:00;CYGK 031100Z 06007KT 15SM FEW040 BKN240 M11/M16 A3050 RMK SC2CI3 SLP337

CYGK;2015-01-03 12:00;CYGK 031200Z 05007KT 15SM FEW040 OVC220 M11/M15 A3049 RMK SC2CI6 SLP331

CYGK;2015-01-03 13:00;CYGK 031300Z 05007KT 15SM OVC200 M10/M14 A3046 RMK CS8 SLP322

CYGK;2015-01-03 14:00;CYGK 031400Z 06008KT 15SM BKN120 OVC190 M09/M13 A3048 RMK AC6AC2 SLP328

CYGK;2015-01-03 15:00;CYGK 031500Z 05009KT 15SM BKN085 OVC150 M08/M12 A3048 RMK AC5AS3 SLP327

CYGK;2015-01-03 15:54;CYGK 031554Z 05008KT 15SM -SHGS OVC070 M07/M11 A3046 RMK AC8 SLP320

CYGK;2015-01-03 16:00;CYGK 031600Z 05009KT 15SM -SHGS OVC070 M07/M11 A3046 RMK AC8 SLP320

CYGK;2015-01-03 16:23;CYGK 031623Z 04009KT 15SM OVC070 M07/M11 A3044 RMK AS8 SLP314

CYGK;2015-01-03 17:00;CYGK 031700Z 05009G15KT 15SM BKN070 OVC110 M06/M11 A3040 RMK AC5AS3 SLP302

CYGK;2015-01-03 18:00;CYGK 031800Z 05013KT 10SM -SN DRSN BKN060 OVC110 M06/M11 A3035 RMK SC5AC3 PRESFR SLP283

CYGK;2015-01-03 19:00;CYGK 031900Z 08012KT 10SM -SN BKN035 OVC090 M05/M09 A3031 RMK SC5AC3 SLP270

CYGK;2015-01-03 19:34;CYGK 031934Z 08012KT 2SM -SN VV016 M04/M07 A3029 RMK SN8 SLP264

CYGK;2015-01-03 19:43;CYGK 031943Z 09012KT 1SM -SN DRSN VV010 M04/M07 A3028 RMK SN8 SLP262

CYGK;2015-01-03 19:48;CYGK 031948Z 09013G19KT 3/4SM -SN DRSN VV008 M04/M07 A3028 RMK SN8 SLP260

CYGK;2015-01-03 20:00;CYGK 032000Z 10012KT 1 1/2SM -SN DRSN VV011 M04/M06 A3027 RMK SN8 PRESFR SLP255

CYGK;2015-01-03 20:08;CYGK 032008Z 10014KT 1SM -SN DRSN VV010 M04/M06 A3026 RMK SN8 PRESFR SLP252

CYGK;2015-01-03 20:18;CYGK 032018Z 09014KT 5/8SM -SN DRSN VV006 M04/M06 A3024 RMK SN8 PRESFR SLP246

CYGK;2015-01-03 20:30;CYGK 032030Z 09013KT 3/8SM -SN DRSN VV005 M04/M05 A3022 RMK SN8 PRESFR SLP241

CYGK;2015-01-03 21:00;CYGK 032100Z 11010G15KT 1/2SM SN DRSN VV006 M03/M04 A3020 RMK SN8 /S02/ PRESFR SLP232

CYGK;2015-01-03 21:36;CYGK 032136Z 12015KT 3/4SM -SN DRSN OVC004 M02/M03 A3017 RMK SN6SF2 SLP222

CYGK;2015-01-03 22:00;CYGK 032200Z 12014G20KT 3/4SM -SN DRSN OVC004 M02/M03 A3014 RMK SN7SF1 /S03/ SLP213

CYGK;2015-01-03 22:09;CYGK 032209Z 12015G20KT 1SM -SN DRSN VV007 M02/M03 A3014 RMK SN8 SLP211

CYGK;2015-01-03 22:36;CYGK 032236Z 11011G17KT 1 1/2SM -SN DRSN OVC010 M02/M03 A3013 RMK SN6SF2 SLP208

CYGK;2015-01-03 23:00;CYGK 032300Z 11010KT 1SM -SN DRSN OVC004 M02/M03 A3012 RMK SN7SF1 /S04/ SLP205

CYGK;2015-01-03 23:14;CYGK 032314Z 10011KT 1 1/2SM -SN DRSN OVC004 M02/M03 A3010 RMK SN4SF4 PRESFR SLP200

CYGK;2015-01-03 23:27;CYGK 032327Z 09009KT 2 1/2SM -SN OVC006 M02/M02 A3009 RMK SF8 SLP196

CYGK;2015-01-04 00:00;CYGK 040000Z 10009KT 3SM -PLSN OVC006 M02/M02 A3007 RMK SF8 CIG VRB 4-8 SLP189

CYGK;2015-01-04 00:21;CYGK 040021Z 10011KT 5SM -FZRA -PLSN OVC006 M01/M02 A3004 RMK SF8 CIG VRB 4-8 PRESFR SLP180

CYGK;2015-01-04 00:40;CYGK 040040Z 10008KT 5SM -FZRA BR OVC006 M01/M02 A3004 RMK SF8 CIG VRB 4-8 SLP177

CYGK;2015-01-04 01:00;CYGK 040100Z 10008KT 5SM -FZRA BR OVC006 M01/M01 A3003 RMK SF8 CIG VRB 4-8 SLP175

CYGK;2015-01-04 01:48;CYGK 040148Z 13010KT 090V160 5SM -RA BR SCT004 OVC009 00/M00 A2999 RMK SF3SF5 SLP162

CYGK;2015-01-04 02:00;CYGK 040200Z 14018G23KT 5SM -RA BR SCT004 OVC008 01/00 A2998 RMK SF3SF5 PRESFR SLP157

CYGK;2015-01-04 03:00;CYGK 040300Z 14015KT 4SM -RA BR FEW004 OVC008 02/01 A2996 RMK SF2SF6 SLP149

CYGK;2015-01-04 03:42;CYGK 040342Z 14012KT 4SM -RA BR OVC005 02/01 A2993 RMK SF8 SLP138

CYGK;2015-01-04 04:00;CYGK 040400Z 14015KT 4SM -RA BR FEW003 OVC006 02/01 A2992 RMK SF2SF6 LAST STFD OBS/NEXT 041100UTC SLP135

CYGK;2015-01-04 11:00;CYGK 041100Z 06008KT 1 1/4SM -FZRA BR OVC003 M01/M01 A2965 RMK SF8 PRESFR SLP046

CYGK;2015-01-04 11:23;CYGK 041123Z 04005KT 1 3/4SM -FZRA BR OVC003 M01/M01 A2966 RMK SF8 PRESFR SLP047

CYGK;2015-01-04 11:49;CYGK 041149Z 06006KT 1 3/4SM -FZDZ BR BKN003 OVC008 M01/M01 A2964 RMK SF7SF1 PRESFR SLP042

CYGK;2015-01-04 12:00;CYGK 041200Z 01006KT 2SM -FZDZ BR BKN003 OVC008 M01/M01 A2965 RMK SF7SF1 SLP043

CYGK;2015-01-04 12:34;CYGK 041234Z 03005KT 3SM -FZDZ BR OVC004 M00/M00 A2964 RMK SF8 SLP040

CYGK;2015-01-04 12:54;CYGK 041254Z 06004KT 1 3/4SM -FZDZ BR OVC004 M00/M01 A2963 RMK SF8 SLP037

CYGK;2015-01-04 13:00;CYGK 041300Z 06007KT 1 1/4SM -FZRA BR BKN004 OVC012 M00/M01 A2962 RMK SF7SC1 PRESFR SLP035

CYGK;2015-01-04 13:32;CYGK 041332Z 07004KT 1 1/4SM -RA BR OVC004 00/M00 A2960 RMK SF8 SLP028

CYGK;2015-01-04 14:00;CYGK 041400Z 36006KT 1 1/4SM -RA BR OVC003 00/M00 A2962 RMK ST8 SLP032

CYGK;2015-01-04 14:21;CYGK 041421Z 05004KT 1 1/4SM -DZ BR OVC003 00/00 A2960 RMK SF8 SLP027

CYGK;2015-01-04 15:00;CYGK 041500Z 10007KT 1 3/4SM -DZ BR BKN003 OVC038 01/01 A2956 RMK SF6SC2 SLP013

CYGK;2015-01-04 15:18;CYGK 041518Z 12010KT 1 1/2SM -DZ BR SCT003 BKN012 OVC040 03/03 A2954 RMK SF3ST4SC1 PRESFR SLP006

CYGK;2015-01-04 15:49;CYGK 041549Z 13010KT 1 1/4SM -RA BR SCT005 OVC009 03/03 A2952 RMK SF3NS5 SLP999

CYGK;2015-01-04 16:00;CYGK 041600Z 13011KT 1 1/4SM -RA BR OVC003 03/03 A2951 RMK FG6SF2 PRESFR SLP995

CYGK;2015-01-04 16:14;CYGK 041614Z 13008KT 3/4SM -RA BR VV002 03/03 A2949 RMK FG8 PRESFR SLP989

CYGK;2015-01-04 17:00;CYGK 041700Z 14009KT 1/2SM -RA BR VV002 04/04 A2947 RMK FG8 SLP982

CYGK;2015-01-04 17:16;CYGK 041716Z 18003KT 110V190 3/8SM -RA BR VV002 04/04 A2947 RMK FG8 PRESRR SLP983

CYGK;2015-01-04 18:00;CYGK 041800Z 22007KT 1/4SM -RA FG VV004 05/05 A2948 RMK FG8 SLP984

CYGK;2015-01-04 18:15;CYGK 041815Z 19005KT 1/8SM -RA FG VV004 05/05 A2945 RMK FG8 PRESFR SLP977

CYGK;2015-01-04 18:47;CYGK 041847Z 20008KT 1/8SM FG VV004 04/04 A2943 RMK FG8 SLP969

CYGK;2015-01-04 19:00;CYGK 041900Z 20017G23KT 1/8SM FG VV004 06/06 A2944 RMK FG8 PRESRR SLP973

CYGK;2015-01-04 19:13;CYGK 041913Z 21019G24KT 1SM BR BKN003 OVC006 06/06 A2945 RMK SF6SF2 SLP976

CYGK;2015-01-04 19:22;CYGK 041922Z 23021G29KT 2SM -RA BR OVC004 06/06 A2946 RMK SF8 PRESRR SLP980

CYGK;2015-01-04 19:50;CYGK 041950Z 24025G35KT 4SM -RA BR BKN004 OVC012 06/06 A2948 RMK SF5NS3 SLP985

CYGK;2015-01-04 20:00;CYGK 042000Z 23022G33KT 3SM -RA BR SCT004 OVC008 05/05 A2948 RMK SF3NS5 SLP987

CYGK;2015-01-04 20:32;CYGK 042032Z 24022G34KT 15SM OVC013 05/04 A2950 RMK SC8 SLP992

CYGK;2015-01-04 21:00;CYGK 042100Z 24021G34KT 15SM OVC013 05/03 A2952 RMK SC8 SLP998

CYGK;2015-01-04 22:00;CYGK 042200Z 24018G25KT 15SM BKN018 OVC025 04/02 A2956 RMK SC6SC2 SLP015

CYGK;2015-01-04 23:00;CYGK 042300Z 24018G25KT 15SM FEW020 OVC025 04/01 A2959 RMK SC2SC6 SLP025

CYGK;2015-01-04 23:42;CYGK 042342Z 24019G25KT 12SM -RA FEW020 OVC025 03/01 A2960 RMK SC1SC7 SLP026

CYGK;2015-01-05 00:00;CYGK 050000Z 24017G27KT 12SM -RA FEW010 BKN025 OVC038 03/01 A2962 RMK SF1SC6SC2 SF TR PRESRR SLP032

CYGK;2015-01-05 00:09;CYGK 050009Z 25013G24KT 10SM -SHRAPL SCT010TCU OVC025 02/01 A2962 RMK TCU3SC5 PRESRR SLP035

CYGK;2015-01-05 00:34;CYGK 050034Z 27012G20KT 5SM -SN BKN008 OVC015 01/00 A2965 RMK SF5SC3 SLP043

CYGK;2015-01-05 01:00;CYGK 050100Z 27016G24KT 8SM -SN BKN008 OVC020 01/M01 A2966 RMK SF5SC3 SLP048

CYGK;2015-01-05 01:14;CYGK 050114Z 27021G30KT 12SM -SN FEW008 OVC027 00/M02 A2967 RMK SF2SC6 PRESRR SLP053

CYGK;2015-01-05 02:00;CYGK 050200Z 27019G28KT 15SM FEW020 OVC042 M01/M05 A2970 RMK SC2SC6 SLP063

CYGK;2015-01-05 03:00;CYGK 050300Z 27018G24KT 15SM -SN FEW020 BKN050 OVC086 M02/M06 A2973 RMK SC2SC3AC3 SLP071

CYGK;2015-01-05 03:21;CYGK 050321Z 27012G25KT 15SM FEW020 OVC095 M02/M06 A2974 RMK SC1AC7 SLP075

CYGK;2015-01-05 04:00;CYGK 050400Z 26011KT 15SM FEW025 SCT075 BKN190 M02/M06 A2976 RMK SC1AC3AC3 LAST STFD OBS/NEXT 051100 UTC PRESRR SLP083

CYGK;2015-01-05 11:00;CYGK 051100Z 29020G32KT 15SM FEW048 FEW120 M09/M15 A3002 RMK SC1AC1 PRESRR SLP170

CYGK;2015-01-05 12:00;CYGK 051200Z 29014G29KT 15SM FEW050 FEW120 M10/M16 A3006 RMK SC2AC1 AC TR PRESRR SLP185

CYGK;2015-01-05 13:00;CYGK 051300Z 30020KT 15SM FEW050 FEW120 M11/M18 A3011 RMK SC2AC1 AC TR SLP203

CYGK;2015-01-05 14:00;CYGK 051400Z 31013KT 15SM FEW020 BKN050 BKN120 M12/M19 A3016 RMK CF1SC5AC1 CF TR SLP220

CYGK;2015-01-05 15:00;CYGK 051500Z 31015G24KT 15SM FEW025 SCT050 BKN120 M12/M20 A3020 RMK CF1SC4AC1 CF TR PRESRR SLP232

CYGK;2015-01-05 16:00;CYGK 051600Z 30020G25KT 260V320 15SM FEW025 SCT055 SCT120 M12/M22 A3022 RMK CF1SC4AC1 CF TR AC TR SLP238

CYGK;2015-01-05 17:00;CYGK 051700Z 27019G27KT 15SM FEW025 FEW055 FEW150 M11/M21 A3022 RMK CF1SC1AC1 CF TR AC TR SLP238

CYGK;2015-01-05 18:00;CYGK 051800Z 29017G29KT 15SM FEW025 SCT055 M11/M21 A3023 RMK CF1SC3 SLP243

CYGK;2015-01-05 19:00;CYGK 051900Z 29018G26KT 15SM FEW025 FEW055 FEW230 M11/M21 A3025 RMK CF1SC2CI1 CF TR CI TR SLP250

CYGK;2015-01-05 20:00;CYGK 052000Z 29013G24KT 15SM FEW045 FEW100 M11/M21 A3028 RMK CF1AC1 SLP261

CYGK;2015-01-05 21:00;CYGK 052100Z 27010G19KT 15SM FEW045 SCT100 M12/M20 A3031 RMK CF2AC1 SLP271

CYGK;2015-01-05 22:00;CYGK 052200Z 29006KT 15SM FEW040 FEW100 M13/M20 A3033 RMK CF1AC1 CF TR SLP279

CYGK;2015-01-05 23:00;CYGK 052300Z 29008KT 15SM BKN050 M13/M20 A3036 RMK SC6 SLP290

CYGK;2015-01-06 00:00;CYGK 060000Z 31004KT 15SM BKN055 M13/M19 A3038 RMK SC7 SLP294

CYGK;2015-01-06 01:00;CYGK 060100Z 30005KT 15SM BKN050 M13/M18 A3036 RMK SC5 SLP290

CYGK;2015-01-06 02:00;CYGK 060200Z 28008KT 15SM SKC M13/M18 A3035 RMK SLP285

CYGK;2015-01-06 03:00;CYGK 060300Z 28007KT 15SM SKC M13/M18 A3035 RMK PRESRR SLP284

CYGK;2015-01-06 04:00;CYGK 060400Z 29008KT 15SM SKC M14/M18 A3033 RMK LAST STFD OBS/NEXT 061100 UTC SLP280

CYGK;2015-01-06 11:00;CYGK 061100Z 32007KT 15SM FEW055 OVC160 M13/M17 A3025 RMK SC2AS6 MOON DMLY VISBL SLP250

CYGK;2015-01-06 12:00;CYGK 061200Z 34003KT 290V010 15SM FEW020 OVC140 M12/M17 A3022 RMK CF1AS7 SLP242

CYGK;2015-01-06 13:00;CYGK 061300Z 32003KT 15SM FEW035 OVC110 M12/M16 A3022 RMK CF2AS6 SLP240

CYGK;2015-01-06 14:00;CYGK 061400Z 12004KT 15SM FEW020 FEW035 OVC080 M12/M16 A3021 RMK CF1SC1AS7 CF TR SHWRS S SLP236

CYGK;2015-01-06 14:29;CYGK 061429Z 09003KT 15SM -SHSN FEW020 FEW035 OVC070 M11/M16 A3019 RMK CF1SC1AS6 SLP231

CYGK;2015-01-06 15:00;CYGK 061500Z VRB02KT 2 1/2SM -SHSN FEW020 OVC035 M10/M14 A3018 RMK SN2SF1CU6 SF TR SLP228

CYGK;2015-01-06 16:00;CYGK 061600Z VRB02KT 2SM -SHSN VV018 M10/M12 A3014 RMK SN8 SLP214

CYGK;2015-01-06 16:20;CYGK 061620Z 10003KT 340V150 3SM -SHSN OVC022 M10/M13 A3013 RMK CU8 SLP210

CYGK;2015-01-06 17:00;CYGK 061700Z 25004KT 220V280 3SM -SHSN BKN022 M09/M12 A3010 RMK CU7 SLP201

CYGK;2015-01-06 17:24;CYGK 061724Z 26007KT 2SM -SHSN VV013 M09/M13 A3009 RMK SN8 SLP195

CYGK;2015-01-06 17:31;CYGK 061731Z 26007KT 1SM -SHSN VV010 M09/M12 A3008 RMK SN8 SLP194

CYGK;2015-01-06 18:00;CYGK 061800Z 26004KT 1SM -SHSN BKN015 M09/M11 A3006 RMK SN6CU1 SLP187

CYGK;2015-01-06 18:21;CYGK 061821Z 27004KT 230V300 2SM -SHSN OVC012 M09/M11 A3005 RMK SN2CU6 SLP183

CYGK;2015-01-06 18:35;CYGK 061835Z 26005KT 220V290 3SM -SHSN BKN012 OVC024 M08/M11 A3004 RMK CU6SC2 VIS LWR N SLP179

CYGK;2015-01-06 18:49;CYGK 061849Z 24008KT 2SM -SHSN OVC012 M08/M11 A3004 RMK CU8 SLP178

CYGK;2015-01-06 19:00;CYGK 061900Z 28007KT 1SM -SHSN OVC012 M08/M11 A3003 RMK SN2CU6 SLP177

CYGK;2015-01-06 19:08;CYGK 061908Z 24007KT 3/4SM -SHSN OVC010 M08/M10 A3003 RMK SN4CU4 SLP176

CYGK;2015-01-06 20:00;CYGK 062000Z 24010KT 3/4SM -SN BKN009 OVC014 M08/M10 A3002 RMK SN3SC4SC1 SLP173

CYGK;2015-01-06 20:18;CYGK 062018Z 27008KT 1/2SM SN VV004 M08/M10 A3002 RMK SN8 SLP173

CYGK;2015-01-06 20:33;CYGK 062033Z 25011KT 3/8SM SN VV004 M08/M10 A3001 RMK SN8 SLP170

CYGK;2015-01-06 20:50;CYGK 062050Z 27010KT 1/2SM SN VV005 M08/M10 A3001 RMK SN8 SLP169

CYGK;2015-01-06 21:00;CYGK 062100Z 27009KT 3/4SM -SN OVC011 M08/M10 A3001 RMK SN6SC2 /S02/ SLP168

CYGK;2015-01-06 21:20;CYGK 062120Z 26007KT 2SM -SN BKN011 OVC040 M08/M10 A3000 RMK SC7SC1 SLP166

CYGK;2015-01-06 21:51;CYGK 062151Z 26011KT 2SM -SN SCT011 BKN017 OVC041 M08/M11 A2999 RMK SC3SC4SC1 SLP162

CYGK;2015-01-06 22:00;CYGK 062200Z 26008KT 2 1/2SM -SN FEW010 BKN017 OVC040 M08/M11 A2998 RMK SC2SC5SC1 SLP160

CYGK;2015-01-06 22:16;CYGK 062216Z 25009KT 4SM -SN FEW010 BKN015 OVC038 M08/M11 A2998 RMK SC1SC5SC2 SLP159

CYGK;2015-01-06 23:00;CYGK 062300Z 27007KT 12SM -SN SCT017 OVC053 M08/M12 A2996 RMK SC4SC4 SLP152

CYGK;2015-01-06 23:18;CYGK 062318Z 26006KT 15SM FEW022 OVC048 M08/M12 A2995 RMK SC2SC6 SLP150

CYGK;2015-01-07 00:00;CYGK 070000Z 26008KT 15SM FEW023 BKN058 OVC120 M08/M13 A2994 RMK SC1SC5AC2 SLP147

CYGK;2015-01-07 01:00;CYGK 070100Z 27008G15KT 15SM BKN060 OVC120 M08/M13 A2993 RMK SC6AC2 SLP141

CYGK;2015-01-07 02:00;CYGK 070200Z 27007KT 15SM SCT047 OVC073 M09/M13 A2991 RMK SC3AC5 SLP136

CYGK;2015-01-07 03:00;CYGK 070300Z 26009KT 15SM FEW045 SCT077 OVC100 M09/M14 A2989 RMK SC2AC2AC4 SLP127

CYGK;2015-01-07 04:00;CYGK 070400Z 26012KT 230V290 15SM OVC065 M08/M15 A2985 RMK SC8 LAST STFD OBS/NEXT 071100 UTC SLP113

CYGK;2015-01-07 11:00;CYGK 071100Z 30014KT 15SM DRSN FEW025 BKN090 M10/M14 A2978 RMK SC2AC5 SLP089

CYGK;2015-01-07 12:00;CYGK 071200Z 31016G25KT 15SM DRSN FEW025 BKN100 M12/M17 A2983 RMK SC1AC6 PRESRR SLP109

CYGK;2015-01-07 13:00;CYGK 071300Z 33016G22KT 15SM FEW020 BKN120 M15/M20 A2989 RMK CF1AC7 CF TR PRESRR SLP129

CYGK;2015-01-07 14:00;CYGK 071400Z 34020G27KT 15SM DRSN FEW020 FEW100 SCT140 BKN200 M17/M23 A2994 RMK CF1AC1AC2CI2 PRESRR SLP147

CYGK;2015-01-07 15:00;CYGK 071500Z 33015G26KT 15SM DRSN FEW020 FEW100 M17/M24 A2999 RMK CU1AC1 AC TR PRESRR SLP165

CYGK;2015-01-07 16:00;CYGK 071600Z 33018G24KT 15SM BKN030 BKN100 M18/M25 A3004 RMK CU5AC1 AC TR SLP180

CYGK;2015-01-07 17:00;CYGK 071700Z 32015KT 15SM BKN032 BKN100 M18/M25 A3008 RMK CU5AC1 SH DIST S OVR LK SLP194

CYGK;2015-01-07 18:00;CYGK 071800Z 31011G20KT 15SM VCSH BKN030 M18/M25 A3011 RMK CU6 SLP202

CYGK;2015-01-07 19:00;CYGK 071900Z 32014G20KT 15SM BKN035 M18/M26 A3014 RMK CU5 SH DIST S SLP212

CYGK;2015-01-07 20:00;CYGK 072000Z 33011G19KT 15SM SCT030 M18/M26 A3017 RMK CU4 SLP225

CYGK;2015-01-07 21:00;CYGK 072100Z 30014G19KT 15SM FEW030 M19/M27 A3021 RMK CU2 SLP238

CYGK;2015-01-07 22:00;CYGK 072200Z 32012G17KT 15SM FEW030 M20/M27 A3024 RMK CU1 SLP249

CYGK;2015-01-07 23:00;CYGK 072300Z 33015KT 15SM FEW030 M21/M28 A3028 RMK CU1 SLP262

CYGK;2015-01-08 00:00;CYGK 080000Z 32010G17KT 15SM SKC M21/M28 A3031 RMK SLP274

CYGK;2015-01-08 01:00;CYGK 080100Z 31010KT 15SM SKC M22/M28 A3033 RMK SLP280

CYGK;2015-01-08 02:00;CYGK 080200Z 33009KT 15SM SKC M22/M28 A3034 RMK SLP284

CYGK;2015-01-08 03:00;CYGK 080300Z 33007KT 15SM SKC M23/M29 A3035 RMK SLP289

CYGK;2015-01-08 04:00;CYGK 080400Z 34003KT 15SM SKC M23/M29 A3034 RMK LAST STFD OBS/NEXT 081100 UTC SLP285

CYGK;2015-01-08 11:00;CYGK 081100Z 00000KT 8SM -SN BKN006 OVC040 M17/M19 A3018 RMK SF6SC2 SLP228

CYGK;2015-01-08 11:27;CYGK 081127Z 25009KT 200V270 15SM -SN FEW005 OVC040 M14/M17 A3017 RMK SF2SC6 SLP225

CYGK;2015-01-08 12:00;CYGK 081200Z 27010G17KT 15SM BKN040 OVC080 M14/M18 A3017 RMK SC5AC3 SLP224

CYGK;2015-01-08 13:00;CYGK 081300Z 25009KT 15SM FEW025 OVC080 M14/M18 A3017 RMK SC1AC7 SLP225

CYGK;2015-01-08 14:00;CYGK 081400Z 26015G21KT 15SM DRSN FEW025 BKN076 M11/M16 A3016 RMK CU1AC7 CU TR SLP223

CYGK;2015-01-08 14:33;CYGK 081433Z 26017G26KT 10SM -SN DRSN SCT040 OVC070 M09/M14 A3016 RMK SC3AC5 SLP220

CYGK;2015-01-08 15:00;CYGK 081500Z 25014G25KT 6SM -SN DRSN OVC040 M09/M13 A3015 RMK SC8 SLP218

CYGK;2015-01-08 16:00;CYGK 081600Z 26016G22KT 5SM -SN DRSN OVC019 M08/M11 A3014 RMK SC8 VIS N 2 SLP214

CYGK;2015-01-08 16:23;CYGK 081623Z 27010G17KT 240V300 2SM -SHSN DRSN OVC018TCU M08/M11 A3013 RMK SN2TCU6 SLP212

CYGK;2015-01-08 16:36;CYGK 081636Z 24018G31KT 4SM -SHSN DRSN BKN018TCU OVC055 M07/M11 A3012 RMK TCU7SC1 VIS N 2 OCNL BLSN SLP208

CYGK;2015-01-08 17:00;CYGK 081700Z 24019G29KT 10SM -SHSN DRSN BKN018TCU OVC055 M07/M12 A3011 RMK TCU6SC2 VIS LWR N SLP204

CYGK;2015-01-08 17:28;CYGK 081728Z 24020G25KT 2 1/2SM -SHSN DRSN OVC018TCU M07/M11 A3009 RMK TCU8 SLP198

CYGK;2015-01-08 18:00;CYGK 081800Z 25018G26KT 2SM -SHSN DRSN OVC013TCU M07/M11 A3007 RMK TCU8 SLP191

CYGK;2015-01-08 18:05;CYGK 081805Z 26014G23KT 1SM -SHSN DRSN OVC010TCU M08/M10 A3007 RMK SN6TCU2 SLP190

CYGK;2015-01-08 18:40;CYGK 081840Z 26012G18KT 3/4SM -SHSN DRSN VV009 M08/M11 A3006 RMK SN8 SLP188

CYGK;2015-01-08 19:00;CYGK 081900Z 26012G19KT 3/4SM -SHSN DRSN VV007 M08/M10 A3006 RMK SN8 /S02/ SLP187

CYGK;2015-01-08 19:19;CYGK 081919Z 26009G15KT 1 1/2SM -SHSN DRSN BKN010TCU OVC019 M08/M10 A3006 RMK TCU7SC1 SLP187

CYGK;2015-01-08 19:52;CYGK 081952Z 24015G24KT 3/4SM -SHSN DRSN OVC010TCU M07/M09 A3005 RMK SN4TCU4 SLP185

CYGK;2015-01-08 20:00;CYGK 082000Z 23019G25KT 210V270 5/8SM -SHSN DRSN OVC010TCU M07/M09 A3005 RMK SN4TCU4 OCNL BLSN SLP183

CYGK;2015-01-08 20:42;CYGK 082042Z 23020G28KT 3/4SM -SHSN BLSN OVC016TCU M07/M09 A3005 RMK SN3TCU5 OCNL DRSN SLP183

CYGK;2015-01-08 21:00;CYGK 082100Z 23020G28KT 1 1/4SM -SHSN BLSN OVC016TCU M07/M09 A3004 RMK SN3TCU5 SLP180

CYGK;2015-01-08 21:07;CYGK 082107Z 23019G26KT 5/8SM -SHSN BLSN VV008 M07/M09 A3004 RMK SN8 SLP179

CYGK;2015-01-08 21:12;CYGK 082112Z 22022G27KT 1SM -SHSN BLSN BKN016TCU M07/M09 A3004 RMK SN2TCU5 SLP179

CYGK;2015-01-08 21:23;CYGK 082123Z 23021G28KT 5/8SM -SHSN BLSN OVC012TCU M07/M09 A3003 RMK SN4TCU4 SLP177

CYGK;2015-01-08 21:37;CYGK 082137Z 22026G33KT 1/2SM SHSN BLSN OVC010TCU M07/M09 A3002 RMK SN6TCU2 SLP175

CYGK;2015-01-08 22:00;CYGK 082200Z 22026G34KT 3/4SM -SHSN BLSN OVC011TCU M07/M09 A3002 RMK SN4TCU4 SLP174

CYGK;2015-01-08 22:25;CYGK 082225Z 21026G35KT 3SM -SHSN BLSN SCT012 BKN020TCU OVC040 M07/M10 A3002 RMK CF3TCU3SC2 SLP174

CYGK;2015-01-08 23:00;CYGK 082300Z 22028G36KT 5SM -SHSN BLSN FEW015 OVC037 M07/M12 A3002 RMK CF2SC6 SLP171

CYGK;2015-01-09 00:00;CYGK 090000Z 22019G28KT 15SM -SHSN FEW015 OVC038 M07/M13 A3001 RMK CF1SC7 SLP170

CYGK;2015-01-09 01:00;CYGK 090100Z 22020G27KT 15SM -SHSN BKN040 OVC140 M07/M14 A2997 RMK SC6AC2 PRESFR SLP156

CYGK;2015-01-09 01:45;CYGK 090145Z 22022G28KT 15SM SCT040 OVC090 M07/M15 A2995 RMK SC3AC5 SLP148

CYGK;2015-01-09 02:00;CYGK 090200Z 23022G28KT 15SM FEW040 OVC090 M07/M15 A2993 RMK SC2AC6 SLP143

CYGK;2015-01-09 03:00;CYGK 090300Z 22019G24KT 15SM FEW015 FEW040 OVC080 M07/M15 A2988 RMK CF1SC2AC6 CF TR PRESFR SLP123

CYGK;2015-01-09 03:22;CYGK 090322Z 22020G28KT 10SM -SHSN FEW015 BKN040 OVC080 M07/M14 A2986 RMK CF1CU5AC3 CF TR PRESFR SLP117

CYGK;2015-01-09 04:00;CYGK 090400Z 21023G30KT 5SM -SHSN BKN020 OVC040 M07/M11 A2984 RMK CU6SC2 LAST STFD OBS/NEXT 091100 UTC SLP111

CYGK;2015-01-09 11:00;CYGK 091100Z 27012KT 1/2SM -SN VV002 M08/M10 A2967 RMK SN8 SLP052

CYGK;2015-01-09 11:35;CYGK 091135Z 27010KT 1SM -SN VV004 M09/M10 A2968 RMK SN8 SLP055

CYGK;2015-01-09 11:44;CYGK 091144Z 26009KT 1/2SM SN VV002 M09/M10 A2968 RMK SN8 SLP056

CYGK;2015-01-09 12:00;CYGK 091200Z 26009KT 230V300 3/4SM -SN VV003 M09/M11 A2968 RMK SN8 VIS VRB 1/2-1 SLP058

CYGK;2015-01-09 12:17;CYGK 091217Z 26008KT 3/8SM SN VV002 M09/M11 A2969 RMK SN8 SLP059

CYGK;2015-01-09 12:53;CYGK 091253Z 26008KT 1SM -SN VV005 M09/M11 A2969 RMK SN8 SLP061

CYGK;2015-01-09 13:00;CYGK 091300Z 25009KT 1SM -SN VV006 M09/M11 A2970 RMK SN8 SLP063

CYGK;2015-01-09 13:23;CYGK 091323Z 26008KT 2SM SN VV010 M09/M11 A2971 RMK SN8 SLP066

CYGK;2015-01-09 13:31;CYGK 091331Z 27008KT 3SM -SN FEW010 OVC020 M08/M11 A2971 RMK CU2SC6 SLP067

CYGK;2015-01-09 14:00;CYGK 091400Z 26009KT 12SM FEW010 OVC055 M08/M11 A2972 RMK CF1SC8 CF TR SLP071

CYGK;2015-01-09 15:00;CYGK 091500Z 27013G20KT 15SM FEW010 BKN055 BKN250 M08/M14 A2976 RMK CU1SC4CI1 SLP082

CYGK;2015-01-09 16:00;CYGK 091600Z 25015G24KT 15SM DRSN FEW025 M07/M14 A2979 RMK CF1 SLP093

CYGK;2015-01-09 17:00;CYGK 091700Z 25015G22KT 15SM DRSN FEW025 M07/M14 A2980 RMK CU2 OCNL BLSN SLP097

CYGK;2015-01-09 18:00;CYGK 091800Z 25014G22KT 15SM DRSN FEW030 FEW050 M07/M14 A2981 RMK CU1SC1 OCNL BLSN SLP101

CYGK;2015-01-09 19:00;CYGK 091900Z 26012G20KT 15SM DRSN FEW030 FEW060 M06/M14 A2983 RMK CU1SC1 SLP107

CYGK;2015-01-09 20:00;CYGK 092000Z 26020G25KT 15SM DRSN SCT035 SCT120 M05/M12 A2985 RMK CU3AC1 SH DIST N OCNL BLSN SLP115

CYGK;2015-01-09 20:23;CYGK 092023Z 26014G22KT 15SM -SHSN DRSN SCT035TCU BKN070 M05/M13 A2987 RMK TCU3AC2 OCNL BLSN SLP119

CYGK;2015-01-09 21:00;CYGK 092100Z 27010G21KT 15SM -SHSN DRSN FEW030TCU SCT080 BKN250 M06/M12 A2989 RMK TCU1AC3CI1 SLP127

CYGK;2015-01-09 21:28;CYGK 092128Z 28014G20KT 15SM FEW030TCU BKN095 M07/M13 A2991 RMK TCU1AC7 TCU TR SLP134

CYGK;2015-01-09 22:00;CYGK 092200Z 27011G17KT 15SM FEW030 BKN100 BKN160 M07/M14 A2993 RMK CU1AC4AS1 SLP143

CYGK;2015-01-09 23:00;CYGK 092300Z 28008KT 15SM FEW030 SCT100 BKN160 M09/M16 A2996 RMK CU1AC2AS4 SLP153

CYGK;2015-01-10 00:00;CYGK 100000Z 28004KT 15SM FEW030 SCT160 M10/M16 A3000 RMK CU1AC3 SLP167

CYGK;2015-01-10 01:00;CYGK 100100Z 28005KT 15SM BKN060 BKN160 M11/M18 A3003 RMK SC5AC2 SLP177

CYGK;2015-01-10 02:00;CYGK 100200Z 27006KT 15SM FEW035 SCT055 BKN160 M11/M18 A3006 RMK SC2SC2AC1 SLP187

CYGK;2015-01-10 03:00;CYGK 100300Z 28006KT 15SM FEW035 SCT100 M12/M17 A3007 RMK SC1AC3 SLP190

CYGK;2015-01-10 04:00;CYGK 100400Z 27008KT 15SM SCT065 M11/M16 A3008 RMK SC4 LAST STFD OBS/NEXT 101100 UTC SLP193

CYGK;2015-01-10 11:00;CYGK 101100Z 26012KT 15SM SKC M13/M18 A3019 RMK SLP232

CYGK;2015-01-10 12:00;CYGK 101200Z 26011G16KT 15SM FEW025 M13/M19 A3022 RMK CU1 SLP240

CYGK;2015-01-10 13:00;CYGK 101300Z 26011G17KT 15SM FEW020 FEW040 M13/M19 A3025 RMK CF1CU1 CF TR SLP249

CYGK;2015-01-10 14:00;CYGK 101400Z 26013G22KT 15SM FEW025 FEW040 M12/M19 A3028 RMK CF1SC1 CF TR SC TR SLP260

CYGK;2015-01-10 15:00;CYGK 101500Z 26015G22KT 15SM FEW030 M11/M18 A3030 RMK CU1 CU TR SLP269

CYGK;2015-01-10 16:00;CYGK 101600Z 26013G20KT 15SM FEW030 M09/M17 A3031 RMK CU1 SLP271

CYGK;2015-01-10 17:00;CYGK 101700Z 27013G23KT 230V290 15SM DRSN FEW025 FEW250 M09/M16 A3030 RMK CU1CI1 SHWRS S SLP266

CYGK;2015-01-10 18:00;CYGK 101800Z 26012G20KT 15SM VCSH DRSN SCT030 BKN250 M09/M16 A3029 RMK CU3CI2 SLP264

CYGK;2015-01-10 19:00;CYGK 101900Z 25010G21KT 15SM DRSN VCSH SCT030 BKN250 M07/M14 A3027 RMK CU3CI3 SLP258

CYGK;2015-01-10 19:10;CYGK 101910Z 26013G22KT 15SM -SHSN SCT025 BKN250 M07/M13 A3027 RMK CU3CI4 SLP257

CYGK;2015-01-10 19:22;CYGK 101922Z 24019G28KT 15SM VCSH BLSN SCT025 BKN250 M08/M12 A3027 RMK CU3CI3 SLP256

CYGK;2015-01-10 20:00;CYGK 102000Z 24018G26KT 15SM VCSH DRSN SCT020 BKN250 M08/M13 A3027 RMK CU3CI3 SLP256

CYGK;2015-01-10 20:09;CYGK 102009Z 23020G25KT 12SM -SHSN DRSN SCT020TCU BKN045 BKN250 M08/M12 A3027 RMK TCU4SC1CI1 VIS SW 4 SLP256

CYGK;2015-01-10 20:53;CYGK 102053Z 25014G19KT 1 1/2SM -SHSN DRSN OVC015TCU M08/M11 A3028 RMK TCU8 SLP260

CYGK;2015-01-10 21:00;CYGK 102100Z 26012G20KT 1 1/2SM -SHSN DRSN BKN015TCU M09/M11 A3028 RMK TCU7 SLP260

CYGK;2015-01-10 21:14;CYGK 102114Z 26010G16KT 3/4SM -SHSN DRSN VV008 M09/M11 A3029 RMK SN8 SLP263

CYGK;2015-01-10 21:38;CYGK 102138Z 27008G15KT 1 1/2SM -SHSN DRSN BKN010TCU M09/M11 A3029 RMK TCU7 SLP263

CYGK;2015-01-10 22:00;CYGK 102200Z 27008KT 1SM -SHSN DRSN OVC010TCU M09/M11 A3029 RMK SN4TCU4 SLP264

CYGK;2015-01-10 22:15;CYGK 102215Z 26009KT 2 1/2SM -SHSN BKN018TCU M09/M11 A3029 RMK TCU7 SLP263

CYGK;2015-01-10 22:22;CYGK 102222Z 26008KT 4SM -SHSN FEW010 BKN018TCU M09/M11 A3029 RMK SF1TCU6 SLP264

CYGK;2015-01-10 23:00;CYGK 102300Z 26012G18KT 3SM -SHSN DRSN OVC016TCU M08/M11 A3030 RMK TCU8 SLP266

CYGK;2015-01-10 23:35;CYGK 102335Z 29006KT 2SM -SHSN OVC016TCU M09/M11 A3030 RMK SN2TCU6 SLP266

CYGK;2015-01-10 23:42;CYGK 102342Z 28007KT 1SM -SHSN VV006 M09/M11 A3030 RMK SN8 SLP267

CYGK;2015-01-11 00:00;CYGK 110000Z 29009KT 1/2SM SHSN VV005 M09/M11 A3031 RMK SN8 PRESRR SLP272

CYGK;2015-01-11 00:42;CYGK 110042Z 28009KT 3/4SM -SHSN VV005 M10/M11 A3032 RMK SN8 SLP275

CYGK;2015-01-11 01:00;CYGK 110100Z 28011KT 3/4SM -SHSN VV005 M10/M12 A3033 RMK SN8 SLP277

CYGK;2015-01-11 01:26;CYGK 110126Z 27012G18KT 1 1/2SM -SHSN OVC018TCU M10/M12 A3034 RMK SN2TCU6 SLP281

CYGK;2015-01-11 01:46;CYGK 110146Z 27011G17KT 3SM -SHSN OVC020TCU M10/M13 A3035 RMK TCU8 SLP284

CYGK;2015-01-11 02:00;CYGK 110200Z 26012KT 10SM -SHSN BKN020TCU OVC045 M10/M13 A3034 RMK TCU5SC3 SLP281

CYGK;2015-01-11 02:37;CYGK 110237Z 26013G21KT 15SM DRSN FEW020TCU SCT038 OVC250 M09/M13 A3035 RMK TCU2SC2CI4 OCNL BLSN SLP284

CYGK;2015-01-11 03:00;CYGK 110300Z 26013G19KT 15SM DRSN FEW020TCU FEW040 M10/M14 A3036 RMK TCU1SC1 SLP288

CYGK;2015-01-11 04:00;CYGK 110400Z 26009G17KT 15SM FEW020TCU M10/M13 A3038 RMK TCU1 LAST STFD OBS/NEXT 111100 UTC SLP294

CYGK;2015-01-11 11:00;CYGK 111100Z 26004KT 15SM -SN OVC030 M08/M12 A3042 RMK SC8 SLP309

CYGK;2015-01-11 12:00;CYGK 111200Z 22005KT 180V260 15SM -SN OVC031 M07/M10 A3041 RMK SC8 SLP304

CYGK;2015-01-11 13:00;CYGK 111300Z 22005KT 15SM -SN BKN026 OVC078 M07/M09 A3040 RMK SC7AC1 SLP301

CYGK;2015-01-11 14:00;CYGK 111400Z 22014G20KT 15SM DRSN BKN025 OVC035 M05/M10 A3041 RMK SC5SC3 SLP306

CYGK;2015-01-11 14:43;CYGK 111443Z 21016KT 12SM -SN SCT018 OVC025 M05/M08 A3041 RMK SC3SC5 SLP305

CYGK;2015-01-11 15:00;CYGK 111500Z 21015KT 8SM -SN DRSN SCT018 OVC024 M04/M07 A3041 RMK SC3SC5 SLP304

CYGK;2015-01-11 16:00;CYGK 111600Z 21015KT 15SM -SN DRSN FEW018 BKN028 OVC055 M04/M09 A3041 RMK CU1SC6SC2 CU TR SLP302

CYGK;2015-01-11 16:30;CYGK 111630Z 21018KT 15SM DRSN FEW020 FEW028 OVC055 M03/M09 A3038 RMK CF1SC1SC6 SLP295

CYGK;2015-01-11 17:00;CYGK 111700Z 21017G24KT 15SM DRSN FEW028 OVC055 M03/M10 A3036 RMK SC1SC7 SLP288

CYGK;2015-01-11 18:00;CYGK 111800Z 21012G20KT 15SM DRSN FEW028 OVC055 M03/M09 A3035 RMK SC1SC8 SC TR SLP282

CYGK;2015-01-11 19:00;CYGK 111900Z 22014KT 15SM FEW030 OVC050 M02/M09 A3034 RMK SC1SC8 SC TR SLP280

CYGK;2015-01-11 20:00;CYGK 112000Z 21013KT 15SM FEW035 OVC055 M02/M09 A3035 RMK SC2SC6 SLP284

CYGK;2015-01-11 21:00;CYGK 112100Z 21015KT 15SM BKN035 OVC060 M02/M08 A3035 RMK SC5SC3 SLP284

CYGK;2015-01-11 22:00;CYGK 112200Z 21012KT 15SM FEW035 BKN074 BKN160 M02/M09 A3035 RMK SC2AC3AC2 SLP283

CYGK;2015-01-11 23:00;CYGK 112300Z 22008KT 15SM BKN070 OVC140 M02/M08 A3036 RMK AC7AC1 SLP285

CYGK;2015-01-12 00:00;CYGK 120000Z 21010KT 15SM BKN063 OVC078 M01/M07 A3036 RMK SC6AC2 SLP285

CYGK;2015-01-12 01:00;CYGK 120100Z 20010KT 15SM OVC070 M01/M07 A3034 RMK AC8 SLP279

CYGK;2015-01-12 02:00;CYGK 120200Z 19012KT 15SM BKN067 OVC078 00/M04 A3032 RMK AC6AC2 SLP274

CYGK;2015-01-12 03:00;CYGK 120300Z 20011KT 15SM OVC070 00/M04 A3032 RMK AC8 SLP271

CYGK;2015-01-12 04:00;CYGK 120400Z 20010KT 15SM OVC070 00/M05 A3029 RMK AC8 LAST STFD OBS/NEXT 121100UTC SLP262

CYGK;2015-01-12 11:00;CYGK 121100Z 26007KT 8SM -SN OVC009 M01/M02 A3019 RMK SF8 SLP227

CYGK;2015-01-12 11:39;CYGK 121139Z 28006KT 6SM -SN SCT009 BKN040 OVC060 M01/M03 A3019 RMK SF3NS4SC1 SLP227

CYGK;2015-01-12 12:00;CYGK 121200Z 28006KT 4SM -SN SCT009 OVC038 M02/M03 A3019 RMK SF4NS4 SLP228

CYGK;2015-01-12 12:35;CYGK 121235Z 28005KT 2 1/2SM -SN SCT007 OVC030 M02/M03 A3019 RMK SF3NS5 SLP227

CYGK;2015-01-12 12:51;CYGK 121251Z 29005KT 1 3/4SM -SN SCT006 OVC030 M02/M04 A3019 RMK SN2SF2NS4 SLP227

CYGK;2015-01-12 13:00;CYGK 121300Z 31005KT 1 1/2SM -SN BKN007 OVC028 M02/M04 A3018 RMK SN3SF2NS3 SLP225

CYGK;2015-01-12 13:22;CYGK 121322Z 29003KT 2SM -SN SCT006 OVC025 M02/M04 A3019 RMK SN3SF1NS4 SLP228

CYGK;2015-01-12 14:00;CYGK 121400Z 26004KT 1 1/4SM -SN VV015 M02/M03 A3020 RMK SN8 SLP230

CYGK;2015-01-12 14:28;CYGK 121428Z 24004KT 1 3/4SM -SN SCT006 VV022 M02/M03 A3020 RMK SF3SN5 SLP232

CYGK;2015-01-12 15:00;CYGK 121500Z 25004KT 2SM -SN SCT006 VV017 M02/M03 A3020 RMK SF3SN5 SLP232

CYGK;2015-01-12 15:17;CYGK 121517Z 24006KT 1SM -SN BKN004 VV015 M02/M03 A3021 RMK SF6SN2 SLP233

CYGK;2015-01-12 15:38;CYGK 121538Z 26006KT 3/4SM -SN SCT004 VV015 M02/M03 A3021 RMK SF3SN5 SLP234

CYGK;2015-01-12 15:49;CYGK 121549Z 25005KT 3/4SM -SN BKN004 VV015 M02/M03 A3021 RMK SF5SN3 SLP234

CYGK;2015-01-12 16:00;CYGK 121600Z 24005KT 3/4SM -SN OVC004 M02/M03 A3021 RMK SN3SF5 SLP234

CYGK;2015-01-12 17:00;CYGK 121700Z 25005KT 2SM -SN OVC004 M02/M02 A3019 RMK SF8 CIG RAG SLP227

CYGK;2015-01-12 17:27;CYGK 121727Z 27006KT 2 1/4SM M01/M03 A3018 RMK SN2 CIG RAG SLP224

CYGK;2015-01-12 18:00;CYGK 121800Z 26007KT 4SM -SN BKN008 OVC014 M01/M03 A3018 RMK SF5NS3 CIG RAG SLP223

CYGK;2015-01-12 18:11;CYGK 121811Z 26007KT 5SM -SN FEW008 OVC010 M01/M03 A3017 RMK SF2SC6 SLP220

CYGK;2015-01-12 18:33;CYGK 121833Z 26005KT 5SM -SN SCT010 OVC056 M01/M03 A3017 RMK SC4SC4 SLP221

CYGK;2015-01-12 19:00;CYGK 121900Z 25004KT 6SM -SN SCT010 OVC043 M01/M03 A3016 RMK SC4SC4 SLP219

CYGK;2015-01-12 19:30;CYGK 121930Z 27005KT 1 1/4SM -SN SCT010 VV025 M01/M03 A3017 RMK SF4SN4 SLP221

CYGK;2015-01-12 20:00;CYGK 122000Z 28004KT 1SM -SN SCT010 OVC015 M01/M02 A3018 RMK SN3SF1SC4 SLP225

CYGK;2015-01-12 21:00;CYGK 122100Z 32006KT 2SM -SN BKN010 OVC050 M01/M02 A3020 RMK CU5SC3 SLP232

CYGK;2015-01-12 21:10;CYGK 122110Z 32007KT 4SM -SN SCT010 BKN053 OVC088 M01/M03 A3021 RMK CU4SC2AC2 SLP234

CYGK;2015-01-12 21:39;CYGK 122139Z 01017G25KT 5SM -SN SCT010 BKN018 OVC040 M03/M06 A3024 RMK CU3SC3SC2 WSHFT 2127 PRESRR SLP243

CYGK;2015-01-12 22:00;CYGK 122200Z 35013G18KT 8SM -SN BKN015 BKN020 OVC040 M04/M06 A3026 RMK SC5SC2SC1 PRESRR SLP251

CYGK;2015-01-12 23:00;CYGK 122300Z 36015G20KT 10SM -SN FEW018 OVC029 M05/M09 A3031 RMK SC2SC6 SLP269

CYGK;2015-01-13 00:00;CYGK 130000Z 36014KT 12SM -SN SCT029 OVC051 M06/M11 A3034 RMK SC4SC4 SLP280

CYGK;2015-01-13 01:00;CYGK 130100Z 35016G25KT 15SM BKN047 BKN070 M09/M15 A3040 RMK SC5AC1 SLP299

CYGK;2015-01-13 01:17;CYGK 130117Z 35013G19KT 15SM SCT042 M10/M15 A3041 RMK SC4 PRESRR SLP305

CYGK;2015-01-13 02:00;CYGK 130200Z 35016KT 15SM FEW041 M11/M17 A3044 RMK SC2 SLP314

CYGK;2015-01-13 03:00;CYGK 130300Z 02010KT 15SM FEW040 M13/M18 A3048 RMK SC2 SLP329

CYGK;2015-01-13 04:00;CYGK 130400Z 36015G22KT 15SM FEW040 M15/M21 A3053 RMK SC1 LAST STFD OBS/NEXT 131100 UTC SLP343

CYGK;2015-01-13 11:00;CYGK 131100Z 36006KT 15SM SKC M22/M27 A3075 RMK SLP420

CYGK;2015-01-13 12:00;CYGK 131200Z 35006KT 15SM FEW015 M23/M27 A3078 RMK CF1 CF TR SLP432

CYGK;2015-01-13 13:00;CYGK 131300Z 35004KT 15SM FEW015 M23/M27 A3080 RMK CF1 CF TR SLP440

CYGK;2015-01-13 14:00;CYGK 131400Z 01007KT 15SM FEW015 M22/M27 A3083 RMK CF1 CF TR S SLP449

CYGK;2015-01-13 15:00;CYGK 131500Z 01005KT 15SM FEW015 M21/M26 A3084 RMK CF1 CF TR S SLP453

CYGK;2015-01-13 16:00;CYGK 131600Z 02006KT 350V060 15SM FEW020 M19/M26 A3083 RMK CF1 CF TR S SLP448

CYGK;2015-01-13 17:00;CYGK 131700Z 09004KT 040V120 15SM FEW020 M18/M25 A3080 RMK CF1 CF TR S SLP440

CYGK;2015-01-13 18:00;CYGK 131800Z 00000KT 15SM FEW025 M17/M25 A3078 RMK CF1 CF TR S SLP433

CYGK;2015-01-13 19:00;CYGK 131900Z 36005KT 15SM FEW025 M16/M25 A3076 RMK CF1 CF TR DIST S SLP427

CYGK;2015-01-13 20:00;CYGK 132000Z VRB02KT 15SM FEW025 M15/M25 A3075 RMK SC1 SC TR SLP423

CYGK;2015-01-13 21:00;CYGK 132100Z 09004KT 15SM FEW030 M15/M24 A3074 RMK SC1 SC TR SLP419

CYGK;2015-01-13 22:00;CYGK 132200Z 09005KT 15SM FEW030 M16/M24 A3073 RMK SC1 SC TR SLP418

CYGK;2015-01-13 23:00;CYGK 132300Z 07004KT 15SM FEW030 M17/M24 A3073 RMK SC1 SC TR SLP418

CYGK;2015-01-14 00:00;CYGK 140000Z 05005KT 15SM SKC M17/M24 A3073 RMK SLP415

CYGK;2015-01-14 01:00;CYGK 140100Z 03003KT 15SM SKC M19/M23 A3070 RMK SLP408

CYGK;2015-01-14 02:00;CYGK 140200Z 03004KT 15SM SKC M20/M24 A3069 RMK SLP402

CYGK;2015-01-14 03:00;CYGK 140300Z 02005KT 15SM SKC M21/M24 A3067 RMK SLP397

CYGK;2015-01-14 04:00;CYGK 140400Z 02004KT 15SM SKC M23/M26 A3066 RMK LAST STFD OBS/NEXT 141100 UTC SLP393

CYGK;2015-01-14 11:00;CYGK 141100Z 03004KT 15SM FEW010 M22/M24 A3047 RMK SC1 SLP327

CYGK;2015-01-14 11:35;CYGK 141135Z 03005KT 15SM BKN012 M22/M24 A3046 RMK SC5 SLP325

CYGK;2015-01-14 11:49;CYGK 141149Z 03006KT 15SM -SHSN BKN012 M21/M23 A3045 RMK CU6 SLP322

CYGK;2015-01-14 12:00;CYGK 141200Z 03005KT 15SM -SHSN BKN013 BKN250 M20/M23 A3045 RMK CU6CI1 SLP321

CYGK;2015-01-14 12:16;CYGK 141216Z 06007KT 15SM -SHSN SCT014 SCT250 M21/M23 A3045 RMK CU4CI1 CI TR SLP319

CYGK;2015-01-14 12:42;CYGK 141242Z 06006KT 15SM SCT014 SCT250 M22/M24 A3044 RMK CU3CI1 CI TR SLP319

CYGK;2015-01-14 13:00;CYGK 141300Z 05008KT 15SM SCT012 BKN250 M22/M24 A3044 RMK CU4CI1 SLP317

CYGK;2015-01-14 14:00;CYGK 141400Z 03005KT 15SM FEW015 SCT250 M20/M23 A3041 RMK SC1CI2 SLP309

CYGK;2015-01-14 15:00;CYGK 141500Z 06006KT 15SM FEW015 FEW250 M18/M22 A3040 RMK SC1CI1 SC TR CI TR SLP303

CYGK;2015-01-14 16:00;CYGK 141600Z 06005KT 15SM FEW020 FEW250 M14/M19 A3037 RMK SC1CI1 SC TR SLP295

CYGK;2015-01-14 17:00;CYGK 141700Z 12006KT 15SM BKN018 M11/M16 A3033 RMK SC5 PRESFR SLP278

CYGK;2015-01-14 18:00;CYGK 141800Z 06004KT 010V130 15SM BKN019 M10/M14 A3029 RMK SC7 SLP266

CYGK;2015-01-14 18:15;CYGK 141815Z 19011KT 080V200 15SM BKN019 M07/M11 A3028 RMK SC7 WSHFT 1807 SLP264

CYGK;2015-01-14 19:00;CYGK 141900Z 22007KT 15SM BKN018 M07/M11 A3028 RMK SC7 SLP262

CYGK;2015-01-14 20:00;CYGK 142000Z 20008KT 15SM BKN019 M07/M11 A3026 RMK SC6 SLP255

CYGK;2015-01-14 21:00;CYGK 142100Z 18009KT 15SM BKN021 BKN200 M06/M10 A3025 RMK SC7CI1 CI TR SLP253

CYGK;2015-01-14 22:00;CYGK 142200Z 24003KT 15SM FEW021 SCT200 M08/M11 A3025 RMK SC2CI1 SLP250

CYGK;2015-01-14 23:00;CYGK 142300Z 00000KT 15SM FEW021 FEW200 M10/M12 A3025 RMK SC1CI1 SC TR CI TR SLP251

CYGK;2015-01-15 00:00;CYGK 150000Z 32003KT 260V330 15SM FEW200 M11/M12 A3025 RMK CI1 CI TR SLP250

CYGK;2015-01-15 01:00;CYGK 150100Z 34005KT 15SM SKC M12/M13 A3024 RMK SLP248

CYGK;2015-01-15 02:00;CYGK 150200Z 34006KT 15SM SKC M14/M15 A3024 RMK SLP250

CYGK;2015-01-15 03:00;CYGK 150300Z 01004KT 15SM SCT022 M15/M16 A3024 RMK SC3 SLP248

CYGK;2015-01-15 04:00;CYGK 150400Z 36003KT 15SM FEW022 M16/M18 A3024 RMK SC2 LAST STFD OBS/NEXT 151100 UTC SLP248

CYGK;2015-01-15 11:00;CYGK 151100Z 36005KT 15SM -SHSN OVC019 M13/M15 A3014 RMK CU8 SLP214

CYGK;2015-01-15 12:00;CYGK 151200Z 03002KT 12SM -SHSN OVC024 M12/M14 A3012 RMK CU8 SLP208

CYGK;2015-01-15 13:00;CYGK 151300Z 06003KT 12SM -SHSN BKN018 M12/M13 A3011 RMK CU7 SLP204

CYGK;2015-01-15 13:12;CYGK 151312Z 00000KT 15SM BKN018 BKN080 M11/M13 A3011 RMK CU5AC2 SLP204

CYGK;2015-01-15 14:00;CYGK 151400Z 21012KT 160V240 15SM BKN024 OVC110 M07/M10 A3010 RMK SC7AC1 CU ASOCTD SLP199

CYGK;2015-01-15 15:00;CYGK 151500Z 21015KT 15SM BKN022 BKN070 M06/M11 A3009 RMK CU6AC1 SLP197

CYGK;2015-01-15 16:00;CYGK 151600Z 22012G19KT 10SM OVC025 M05/M08 A3006 RMK SC8 SLP186

CYGK;2015-01-15 16:40;CYGK 151640Z 23015KT 6SM -SHSN SCT016 OVC022 M05/M08 A3003 RMK SF4CU4 SLP176

CYGK;2015-01-15 17:00;CYGK 151700Z 21014KT 6SM -SHSN FEW016 BKN024 OVC070 M05/M08 A3002 RMK SF2CU5AC1 VIS S 3 SLP172

CYGK;2015-01-15 17:45;CYGK 151745Z 21014KT 2 1/2SM -SN OVC010 M05/M07 A2999 RMK SN4SC4 SLP164

CYGK;2015-01-15 18:00;CYGK 151800Z 21014KT 3SM -SHSN BKN010 OVC029 M05/M07 A2998 RMK SF5SC3 SLP160

CYGK;2015-01-15 18:17;CYGK 151817Z 21014KT 5SM -SHSN SCT010 OVC026 M05/M08 A2998 RMK SF3CU5 SLP158

CYGK;2015-01-15 19:00;CYGK 151900Z 22015G24KT 3SM -SHSN DRSN SCT015 OVC027 M05/M08 A2995 RMK SF4CU4 SLP150

CYGK;2015-01-15 20:00;CYGK 152000Z 22014KT 4SM -SHSN DRSN FEW015 OVC021 M05/M08 A2994 RMK SF2CU6 SLP143

CYGK;2015-01-15 20:50;CYGK 152050Z 21014KT 15SM BKN019 OVC056 M05/M08 A2991 RMK SC7SC1 SLP134

CYGK;2015-01-15 21:00;CYGK 152100Z 21015KT 15SM DRSN BKN020 OVC056 M05/M08 A2990 RMK SC7SC1 SLP132

CYGK;2015-01-15 22:00;CYGK 152200Z 21018KT 15SM DRSN BKN028 BKN120 M04/M09 A2988 RMK SC5AC2 SLP126

CYGK;2015-01-15 23:00;CYGK 152300Z 22015G22KT 15SM FEW030 SCT180 M04/M09 A2986 RMK SC1AC2 SLP119

CYGK;2015-01-16 00:00;CYGK 160000Z 21015KT 15SM DRSN SCT095 BKN180 M04/M09 A2984 RMK AC3AC3 PRESFR SLP109

CYGK;2015-01-16 01:00;CYGK 160100Z 22017G26KT 15SM DRSN BKN032 BKN050 OVC095 M03/M08 A2981 RMK SC5SC2AC1 SLP099

CYGK;2015-01-16 01:07;CYGK 160107Z 22017G26KT 15SM -SN DRSN BKN033 OVC053 M03/M08 A2980 RMK SC5SC3 SLP097

CYGK;2015-01-16 02:00;CYGK 160200Z 22018G23KT 12SM -SN DRSN OVC027 M03/M07 A2977 RMK SC8 SLP087

CYGK;2015-01-16 03:00;CYGK 160300Z 23018G26KT 7SM -SN DRSN BKN022 OVC040 M02/M05 A2975 RMK SC5SC3 SLP078

CYGK;2015-01-16 03:44;CYGK 160344Z 23015G21KT 2 1/2SM -SN DRSN OVC019 M02/M04 A2973 RMK SC8 SLP074

CYGK;2015-01-16 03:51;CYGK 160351Z 23014G22KT 1 1/2SM -SN DRSN OVC016 M02/M04 A2973 RMK SC8 SLP073

CYGK;2015-01-16 04:00;CYGK 160400Z 23014G19KT 1 1/2SM -SN DRSN OVC017 M02/M04 A2973 RMK SC8 LAST STFD OBS/NEXT 161100 UTC SLP072

CYGK;2015-01-16 11:00;CYGK 161100Z 27018KT 15SM FEW030 BKN070 M03/M10 A2970 RMK SC2AC3 SLP062

CYGK;2015-01-16 12:00;CYGK 161200Z 28014G20KT 15SM DRSN FEW030 SCT070 M04/M12 A2974 RMK SC2AC2 SLP077

CYGK;2015-01-16 13:00;CYGK 161300Z 30013G20KT 15SM DRSN BKN035 M06/M12 A2980 RMK CU5 PRESRR SLP097

CYGK;2015-01-16 13:28;CYGK 161328Z 34014KT 15SM -SHSN DRSN BKN025 M07/M10 A2983 RMK CU7 PRESRR SLP108

CYGK;2015-01-16 14:00;CYGK 161400Z 32015G25KT 15SM -SHSN DRSN BKN025 M08/M12 A2987 RMK CU5 PRESRR SLP119

CYGK;2015-01-16 14:25;CYGK 161425Z 32016G26KT 15SM DRSN SCT030 M08/M15 A2988 RMK CU3 SLP125

CYGK;2015-01-16 15:00;CYGK 161500Z 34018G24KT 15SM DRSN FEW012 SCT030 M09/M14 A2992 RMK CF1CU3 CF TR SLP137

CYGK;2015-01-16 16:00;CYGK 161600Z 35016KT 15SM DRSN FEW030 M10/M17 A2996 RMK CU1 SLP151

CYGK;2015-01-16 17:00;CYGK 161700Z 32013G20KT 15SM DRSN FEW030 M10/M18 A2999 RMK CU1 SLP160

CYGK;2015-01-16 18:00;CYGK 161800Z 31014G22KT 15SM FEW030 M10/M19 A3000 RMK CU1 SLP163

CYGK;2015-01-16 19:00;CYGK 161900Z 32017KT 15SM DRSN FEW030 M10/M20 A3002 RMK CF1 CF TR SLP173

CYGK;2015-01-16 20:00;CYGK 162000Z 31013G19KT 15SM DRSN FEW030 M10/M20 A3006 RMK CU1 CU TR SLP184

CYGK;2015-01-16 21:00;CYGK 162100Z 32012G17KT 15SM DRSN FEW030 M10/M21 A3010 RMK CU1 CU TR SLP197

CYGK;2015-01-16 22:00;CYGK 162200Z 31009KT 15SM FEW030 M11/M21 A3013 RMK CU1 CU TR SLP209

CYGK;2015-01-16 23:00;CYGK 162300Z 30007KT 15SM FEW030 M12/M22 A3016 RMK CU1 CU TR SLP221

CYGK;2015-01-17 00:00;CYGK 170000Z 29006KT 15SM FEW030 M13/M22 A3020 RMK CU1 CU TR SLP232

CYGK;2015-01-17 01:00;CYGK 170100Z 32005KT 15SM SKC M14/M22 A3024 RMK SLP246

CYGK;2015-01-17 02:00;CYGK 170200Z 32007KT 15SM SKC M16/M23 A3026 RMK SLP254

CYGK;2015-01-17 03:00;CYGK 170300Z 31007KT 15SM SKC M16/M23 A3029 RMK SLP265

CYGK;2015-01-17 04:00;CYGK 170400Z 35006KT 15SM SKC M18/M23 A3030 RMK LAST STFD OBS/NEXT 171100 UTC SLP269

CYGK;2015-01-17 11:00;CYGK 171100Z 05005KT 15SM FEW160 M21/M25 A3038 RMK AC2 SLP295

CYGK;2015-01-17 12:00;CYGK 171200Z 06005KT 15SM FEW160 M21/M26 A3038 RMK AC1 SLP297

CYGK;2015-01-17 13:00;CYGK 171300Z 05004KT 15SM FEW030 FEW140 BKN190 M21/M25 A3038 RMK CF1AC2AC3 CF TR SLP297

CYGK;2015-01-17 14:00;CYGK 171400Z 07007KT 15SM FEW040 BKN180 M19/M24 A3036 RMK SC1AC7 SC TR SLP290

CYGK;2015-01-17 15:00;CYGK 171500Z 07008KT 15SM FEW040 BKN190 M18/M23 A3036 RMK SC2AC5 SLP290

CYGK;2015-01-17 16:00;CYGK 171600Z 08008KT 15SM FEW040 BKN070 BKN190 M16/M22 A3031 RMK SC1AC6AC1 SC TR PRESFR SLP274

CYGK;2015-01-17 17:00;CYGK 171700Z 10009KT 15SM FEW020 BKN060 M15/M19 A3025 RMK SC1SC6 PRESFR SLP254

CYGK;2015-01-17 18:00;CYGK 171800Z 10010KT 15SM FEW020 BKN070 M13/M18 A3020 RMK SC2AC4 PRESFR SLP237

CYGK;2015-01-17 19:00;CYGK 171900Z 09009KT 15SM FEW020 BKN095 M12/M17 A3014 RMK SC1AC7 SC TR PRESFR SLP216

CYGK;2015-01-17 20:00;CYGK 172000Z 08011KT 15SM VCSH FEW020 BKN090 M11/M17 A3009 RMK SC1AC7 SC TR SLP198

CYGK;2015-01-17 21:00;CYGK 172100Z 09009KT 15SM FEW090 FEW110 SCT160 OVC250 M10/M17 A3006 RMK AC1AC1AC2CS4 SLP188

CYGK;2015-01-17 22:00;CYGK 172200Z 07008KT 15SM FEW050 BKN140 BKN220 M10/M17 A3003 RMK SC2AS4CI1 SLP177

CYGK;2015-01-17 23:00;CYGK 172300Z 09008KT 15SM FEW035 SCT140 BKN210 M09/M16 A2998 RMK SC1AS3CI3 PRESFR SLP161

CYGK;2015-01-18 00:00;CYGK 180000Z 10007KT 15SM BKN230 M09/M15 A2993 RMK CI7 SLP143

CYGK;2015-01-18 01:00;CYGK 180100Z 15018G24KT 15SM DRSN BKN240 M05/M09 A2988 RMK CI5 PRESFR SLP125

CYGK;2015-01-18 02:00;CYGK 180200Z 17024G31KT 15SM BKN240 M03/M07 A2986 RMK CI6 SLP118

CYGK;2015-01-18 03:00;CYGK 180300Z 17023G30KT 15SM BKN240 M03/M07 A2985 RMK CI7 SLP116

CYGK;2015-01-18 04:00;CYGK 180400Z 17022G29KT 15SM BKN240 M03/M06 A2983 RMK CI7 LAST STFD OBS/NEXT 181100 UTC SLP109

CYGK;2015-01-18 11:00;CYGK 181100Z 17020KT 15SM OVC055 M00/M03 A2973 RMK SC8 SLP072

CYGK;2015-01-18 12:00;CYGK 181200Z 17022KT 15SM OVC050 00/M03 A2973 RMK SC8 SLP071

CYGK;2015-01-18 13:00;CYGK 181300Z 18023G32KT 15SM OVC055 00/M02 A2972 RMK SC8 SLP067

CYGK;2015-01-18 14:00;CYGK 181400Z 17021G27KT 15SM OVC045 01/M02 A2973 RMK SC8 SLP073

CYGK;2015-01-18 15:00;CYGK 181500Z 17020G26KT 15SM OVC044 01/M02 A2973 RMK SC8 SLP070

CYGK;2015-01-18 16:00;CYGK 181600Z 18013G19KT 15SM BKN045 OVC065 01/M01 A2972 RMK SC5SC3 SLP067

CYGK;2015-01-18 17:00;CYGK 181700Z 17017KT 15SM SCT045 OVC110 02/M01 A2970 RMK SC4AS4 SLP062

CYGK;2015-01-18 18:00;CYGK 181800Z 17012KT 15SM SCT030 OVC045 02/M01 A2971 RMK SC4SC4 SLP064

CYGK;2015-01-18 19:00;CYGK 181900Z 17008KT 12SM -RA OVC020 01/M00 A2969 RMK SC8 SLP057

CYGK;2015-01-18 20:00;CYGK 182000Z 18009KT 5SM -RA BR OVC020 01/M00 A2971 RMK SC8 SLP066

CYGK;2015-01-18 20:10;CYGK 182010Z 18008KT 5SM -RASN OVC020 01/M00 A2971 RMK SC8 CIG RAG SLP066

CYGK;2015-01-18 21:00;CYGK 182100Z 17012KT 6SM -RASN OVC018 02/00 A2971 RMK SC8 CIG RAG SLP066

CYGK;2015-01-18 21:36;CYGK 182136Z 18011KT 5SM -RA BR OVC012 02/00 A2972 RMK SC8 CIG RAG SLP067

CYGK;2015-01-18 21:49;CYGK 182149Z 18008KT 6SM -RA BR BKN015 OVC030 01/00 A2971 RMK SC5SC3 SLP065

CYGK;2015-01-18 22:00;CYGK 182200Z 19007KT 8SM -RA FEW008 BKN015 OVC030 01/00 A2970 RMK SF1SC7SC1 SF TR CIG RAG SLP063

CYGK;2015-01-18 22:37;CYGK 182237Z 20006KT 8SM FEW008 SCT030 BKN090 01/00 A2970 RMK SF1SC3AC4 SF TR SLP062

CYGK;2015-01-18 23:00;CYGK 182300Z 17003KT 8SM SCT030 BKN110 01/00 A2971 RMK SC3AC4 SLP064

CYGK;2015-01-18 23:41;CYGK 182341Z 18003KT 8SM FEW005 BKN017 OVC100 01/00 A2971 RMK SF1SC5AC2 SLP066

CYGK;2015-01-19 00:00;CYGK 190000Z 14005KT 8SM FEW005 SCT017 OVC097 01/00 A2971 RMK SF1SC4AC4 SF TR SLP065

CYGK;2015-01-19 01:00;CYGK 190100Z 19004KT 8SM OVC017 01/00 A2972 RMK SC8 CIG RAG SLP068

CYGK;2015-01-19 02:00;CYGK 190200Z 22007KT 10SM -RA SCT013 OVC060 01/01 A2970 RMK SC3SC5 SLP061

CYGK;2015-01-19 02:19;CYGK 190219Z 23008KT 12SM SCT013 BKN040 02/01 A2970 RMK SC3SC4 SLP060

CYGK;2015-01-19 03:00;CYGK 190300Z 23008KT 15SM FEW013 OVC025 01/01 A2969 RMK SC2SC6 SLP057

CYGK;2015-01-19 03:17;CYGK 190317Z 23005KT 15SM BKN010 OVC025 01/01 A2969 RMK ST6SC2 SLP057

CYGK;2015-01-19 03:32;CYGK 190332Z 24006KT 15SM OVC009 01/00 A2969 RMK ST8 SLP056

CYGK;2015-01-19 04:00;CYGK 190400Z 23006KT 12SM OVC009 01/01 A2968 RMK ST8 LAST STFD OBS/NEXT 191100UTC SLP054

CYGK;2015-01-19 11:00;CYGK 191100Z 26011G18KT 15SM OVC028 00/M03 A2972 RMK SC8 SLP069

CYGK;2015-01-19 12:00;CYGK 191200Z 27011KT 15SM OVC026 00/M02 A2974 RMK SC8 SLP075

CYGK;2015-01-19 13:00;CYGK 191300Z 27009G16KT 15SM BKN021 OVC045 00/M02 A2975 RMK SC7SC1 SLP077

CYGK;2015-01-19 14:00;CYGK 191400Z 26010G15KT 12SM FEW012 OVC021 M00/M02 A2976 RMK SF1SC8 SF TR SLP080

CYGK;2015-01-19 15:00;CYGK 191500Z 27010G17KT 15SM BKN017 BKN022 OVC100 M00/M03 A2977 RMK SC6SC1AC1 SLP086

CYGK;2015-01-19 15:40;CYGK 191540Z 29009G15KT 15SM OVC013 M00/M03 A2978 RMK SC8 SLP089

CYGK;2015-01-19 16:00;CYGK 191600Z 32011KT 15SM OVC014 M01/M04 A2979 RMK SC8 CIG RAG SLP091

CYGK;2015-01-19 16:11;CYGK 191611Z 32011G16KT 15SM -SN SCT014 OVC018 M01/M04 A2979 RMK SC4SC4 SLP091

CYGK;2015-01-19 16:46;CYGK 191646Z 31013G18KT 15SM OVC023 M01/M06 A2979 RMK SC8 SLP092

CYGK;2015-01-19 17:00;CYGK 191700Z 31010G20KT 15SM OVC023 M01/M06 A2979 RMK SC8 SLP091

CYGK;2015-01-19 18:00;CYGK 191800Z 30012KT 15SM BKN024 BKN080 M02/M07 A2980 RMK SC6AC1 SLP095

CYGK;2015-01-19 19:00;CYGK 191900Z 29009KT 230V320 15SM BKN026 OVC080 M02/M07 A2980 RMK SC7AC1 SLP096

CYGK;2015-01-19 20:00;CYGK 192000Z 30011KT 14SM BKN025 OVC070 M02/M07 A2981 RMK SC5AC3 SLP099

CYGK;2015-01-19 21:00;CYGK 192100Z 31009KT 15SM FEW025 SCT070 BKN110 BKN250 M03/M08 A2983 RMK SC1AC2AC2CI1 SLP105

CYGK;2015-01-19 22:00;CYGK 192200Z 29008KT 15SM SCT025 BKN070 BKN150 M04/M09 A2985 RMK SC3AC2AC1 SLP114

CYGK;2015-01-19 23:00;CYGK 192300Z 29007KT 15SM SCT025 SCT070 BKN150 M05/M10 A2987 RMK SC3AC1AC1 SLP121

CYGK;2015-01-20 00:00;CYGK 200000Z 31007KT 15SM SCT027 BKN150 M06/M10 A2989 RMK SC3AC2 SLP125

CYGK;2015-01-20 01:00;CYGK 200100Z 31010KT 15SM BKN028 M06/M11 A2990 RMK SC5 SLP128

CYGK;2015-01-20 02:00;CYGK 200200Z 30007KT 15SM SCT023 M08/M12 A2990 RMK SC4 SLP132

CYGK;2015-01-20 03:00;CYGK 200300Z 29007KT 15SM BKN025 M08/M13 A2993 RMK SC6 SLP139

CYGK;2015-01-20 04:00;CYGK 200400Z 32007KT 15SM SCT020 M10/M14 A2993 RMK SC4 LAST STFD OBS/NEXT 201100 UTC SLP142

CYGK;2015-01-20 11:00;CYGK 201100Z 34004KT 15SM SKC M17/M20 A2997 RMK SLP156

CYGK;2015-01-20 12:00;CYGK 201200Z 30005KT 15SM FEW100 M18/M20 A2999 RMK AC1 AC TR SLP161

CYGK;2015-01-20 13:00;CYGK 201300Z 32005KT 15SM FEW120 M18/M20 A3001 RMK AC1 AC TR SLP168

CYGK;2015-01-20 14:00;CYGK 201400Z 30003KT 270V340 15SM FEW120 M17/M21 A3002 RMK AC1 AC TR SLP173

CYGK;2015-01-20 15:00;CYGK 201500Z 34006KT 15SM FEW120 M15/M20 A3002 RMK AC1 AC TR SLP171

CYGK;2015-01-20 16:00;CYGK 201600Z 34003KT 260V030 15SM FEW120 M14/M19 A3002 RMK AC1 AC TR SLP171

CYGK;2015-01-20 17:00;CYGK 201700Z VRB03KT 15SM FEW120 M12/M19 A3001 RMK AC1 AC TR SLP168

CYGK;2015-01-20 18:00;CYGK 201800Z 21004KT 150V230 15SM FEW120 FEW250 M11/M18 A3000 RMK AC1CI1 AC TR CI TR SLP166

CYGK;2015-01-20 19:00;CYGK 201900Z 17004KT 130V210 15SM FEW120 FEW250 M10/M16 A3001 RMK AC1CC1 AC TR CC TR SLP168

CYGK;2015-01-20 20:00;CYGK 202000Z 15006KT 100V170 15SM FEW120 FEW250 M09/M16 A3002 RMK AC1CI1 AC TR CI TR SLP172

CYGK;2015-01-20 21:00;CYGK 202100Z 21005KT 15SM FEW120 FEW250 M09/M16 A3003 RMK AC1CI1 AC TR CI TR SLP176

CYGK;2015-01-20 22:00;CYGK 202200Z 23006KT 15SM FEW120 FEW250 M09/M16 A3005 RMK AC1CI1 AC TR CI TR SLP184

CYGK;2015-01-20 23:00;CYGK 202300Z 23004KT 15SM FEW250 M10/M16 A3007 RMK CI1 CI TR SLP189

CYGK;2015-01-21 00:00;CYGK 210000Z 25003KT 15SM SKC M10/M15 A3008 RMK SLP194

CYGK;2015-01-21 01:00;CYGK 210100Z 27003KT 15SM SKC M12/M17 A3009 RMK SLP198

CYGK;2015-01-21 02:00;CYGK 210200Z 00000KT 15SM SKC M13/M16 A3010 RMK SLP201

CYGK;2015-01-21 03:00;CYGK 210300Z 35002KT 15SM SKC M15/M17 A3011 RMK SLP206

CYGK;2015-01-21 04:00;CYGK 210400Z VRB02KT 15SM SKC M16/M18 A3012 RMK LAST STFD OBS/NEXT 211100 UTC SLP208

CYGK;2015-01-21 11:00;CYGK 211100Z 05006KT 15SM SKC M16/M19 A3018 RMK SLP228

CYGK;2015-01-21 12:00;CYGK 211200Z 03006KT 15SM FEW250 M16/M20 A3020 RMK CI1 SLP233

CYGK;2015-01-21 13:00;CYGK 211300Z 04008KT 15SM FEW050 FEW250 M16/M20 A3020 RMK SC1CI1 SC TR SLP236

CYGK;2015-01-21 14:00;CYGK 211400Z 04007KT 15SM FEW050 FEW250 M15/M19 A3021 RMK SC1CI1 SC TR SLP239

CYGK;2015-01-21 15:00;CYGK 211500Z 05005KT 15SM FEW050 FEW250 M13/M18 A3021 RMK SC1CI2 SC TR SLP239

CYGK;2015-01-21 16:00;CYGK 211600Z 06006KT 15SM FEW020 BKN250 M12/M16 A3020 RMK CU1CI5 CU TR DIST S SLP236

CYGK;2015-01-21 17:00;CYGK 211700Z 07004KT 15SM FEW020 BKN250 M10/M15 A3019 RMK CU1CI6 CU TR SLP230

CYGK;2015-01-21 18:00;CYGK 211800Z 07007KT 15SM FEW170 BKN250 M08/M14 A3016 RMK AC1CI6 SLP221

CYGK;2015-01-21 19:00;CYGK 211900Z 05005KT 15SM M08/M14 A3016 RMK SLP222

CYGK;2015-01-21 20:00;CYGK 212000Z 05006KT 15SM FEW170 BKN250 M08/M14 A3016 RMK AC1CI6 SLP221

CYGK;2015-01-21 21:00;CYGK 212100Z 03006KT 15SM SCT170 BKN250 M08/M15 A3015 RMK AC3CI4 SLP217

CYGK;2015-01-21 22:00;CYGK 212200Z 04007KT 15SM FEW170 BKN230 M08/M15 A3015 RMK AC2CI4 SLP218

CYGK;2015-01-21 23:00;CYGK 212300Z 04010KT 15SM BKN220 M09/M16 A3016 RMK CI6 SLP219

CYGK;2015-01-22 00:00;CYGK 220000Z 04008KT 15SM BKN220 M10/M16 A3015 RMK CI6 SLP218

CYGK;2015-01-22 01:00;CYGK 220100Z 04007KT 15SM BKN210 M11/M16 A3015 RMK CI6 SLP218

CYGK;2015-01-22 02:00;CYGK 220200Z 03008KT 15SM SCT210 M11/M17 A3015 RMK CI3 SLP218

CYGK;2015-01-22 03:00;CYGK 220300Z 03008KT 15SM BKN210 M12/M17 A3016 RMK CI5 SLP219

CYGK;2015-01-22 04:00;CYGK 220400Z 03007KT 15SM SCT210 M12/M17 A3016 RMK CI4 LAST STFD OBS/NEXT 221100 UTC SLP221

CYGK;2015-01-22 11:00;CYGK 221100Z 02008KT 15SM BKN096 M15/M18 A3021 RMK AC7 SLP236

CYGK;2015-01-22 12:00;CYGK 221200Z 02008KT 15SM FEW020 SCT098 M15/M18 A3023 RMK SC1AC3 SC TR SLP243

CYGK;2015-01-22 13:00;CYGK 221300Z 36004KT 15SM FEW020 FEW095 FEW200 M15/M19 A3027 RMK SC1AC1CI1 SC TR PRESRR SLP258

CYGK;2015-01-22 14:00;CYGK 221400Z 02006KT 15SM FEW095 FEW200 M14/M18 A3030 RMK AC1CI2 AC TR SLP267

CYGK;2015-01-22 15:00;CYGK 221500Z 03005KT 350V070 15SM FEW095 SCT250 M12/M17 A3030 RMK AC1CI3 AC TR SLP270

CYGK;2015-01-22 16:00;CYGK 221600Z 33003KT 270V340 15SM FEW095 SCT250 M11/M16 A3030 RMK AC1CI3 AC TR SLP267

CYGK;2015-01-22 17:00;CYGK 221700Z 20005KT 15SM FEW095 SCT250 M10/M15 A3029 RMK AC1CI3 AC TR SLP265

CYGK;2015-01-22 18:00;CYGK 221800Z 20007KT 15SM FEW095 FEW250 M09/M15 A3030 RMK AC1CI2 AC TR SLP266

CYGK;2015-01-22 19:00;CYGK 221900Z 19008KT 15SM FEW095 FEW250 M08/M13 A3030 RMK AC1CI1 CI TR SLP268

CYGK;2015-01-22 20:00;CYGK 222000Z 18009KT 15SM FEW100 FEW250 M08/M12 A3031 RMK AC1CI1 CI TR SLP270

CYGK;2015-01-22 21:00;CYGK 222100Z 20008KT 15SM BKN095 M08/M12 A3031 RMK AC5 SLP272

CYGK;2015-01-22 22:00;CYGK 222200Z 18007KT 15SM BKN087 BKN100 M07/M10 A3032 RMK AC5AC1 AC TR SLP275

CYGK;2015-01-22 23:00;CYGK 222300Z 17004KT 15SM FEW086 M08/M10 A3033 RMK AC2 SLP277

CYGK;2015-01-23 00:00;CYGK 230000Z 21005KT 15SM FEW085 M07/M11 A3033 RMK AC1 SLP279

CYGK;2015-01-23 01:00;CYGK 230100Z 22003KT 15SM FEW085 M10/M13 A3034 RMK AC1 AC TR SLP283

CYGK;2015-01-23 02:00;CYGK 230200Z 26006KT 15SM BKN055 M08/M11 A3034 RMK SC5 SLP281

CYGK;2015-01-23 03:00;CYGK 230300Z 26004KT 15SM SCT048 M08/M11 A3032 RMK SC3 SLP273

CYGK;2015-01-23 04:00;CYGK 230400Z 00000KT 15SM BKN051 M09/M12 A3029 RMK SC5 LAST STFD OBS/NEXT 231100 UTC SLP265

CYGK;2015-01-23 11:00;CYGK 231100Z 24010G16KT 15SM BKN040 M03/M08 A3021 RMK SC6 SLP234

CYGK;2015-01-23 12:00;CYGK 231200Z 22012KT 15SM BKN040 M03/M08 A3019 RMK SC7 SLP230

CYGK;2015-01-23 13:00;CYGK 231300Z 24008KT 15SM FEW015 BKN035 M03/M07 A3020 RMK CF1SC7 CF TR SLP232

CYGK;2015-01-23 14:00;CYGK 231400Z 23006KT 15SM FEW020 BKN035 BKN080 M03/M07 A3018 RMK CU1SC5AC1 SH DIST S SLP226

CYGK;2015-01-23 15:00;CYGK 231500Z 23011KT 15SM BKN030 BKN160 M01/M06 A3015 RMK SC6AC1 SLP215

CYGK;2015-01-23 16:00;CYGK 231600Z 23017KT 15SM BKN020 BKN030 BKN160 M01/M06 A3013 RMK CU5SC1AC1 SLP209

CYGK;2015-01-23 17:00;CYGK 231700Z 22019G25KT 15SM BKN022 M01/M05 A3009 RMK SC7 SLP196

CYGK;2015-01-23 18:00;CYGK 231800Z 22018G24KT 15SM OVC019 M02/M05 A3006 RMK SC8 SLP184

CYGK;2015-01-23 19:00;CYGK 231900Z 22018G25KT 15SM OVC019 M02/M05 A3003 RMK SC8 SLP173

CYGK;2015-01-23 20:00;CYGK 232000Z 21017G22KT 15SM OVC020 M01/M04 A3001 RMK SC8 SLP166

CYGK;2015-01-23 21:00;CYGK 232100Z 21019G25KT 15SM OVC020 M01/M05 A2997 RMK SC8 SLP152

CYGK;2015-01-23 22:00;CYGK 232200Z 22017G24KT 15SM OVC023 OVC230 M01/M05 A2997 RMK SC8CI1 CI TR SLP152

CYGK;2015-01-23 23:00;CYGK 232300Z 22011G17KT 15SM OVC026 M02/M05 A2995 RMK SC8 SLP146

CYGK;2015-01-24 00:00;CYGK 240000Z 22011KT 15SM SCT030 BKN180 M02/M05 A2993 RMK SC4AC3 SLP141

CYGK;2015-01-24 01:00;CYGK 240100Z 22009KT 15SM FEW030 SCT180 M03/M05 A2991 RMK SC1AC2 SLP134

CYGK;2015-01-24 02:00;CYGK 240200Z 21008KT 15SM FEW180 M03/M06 A2988 RMK AC1 SLP122

CYGK;2015-01-24 03:00;CYGK 240300Z 21010KT 15SM FEW030 FEW180 M03/M05 A2985 RMK SC1AC1 AC TR SLP114

CYGK;2015-01-24 04:00;CYGK 240400Z 21009KT 15SM BKN018 M02/M04 A2984 RMK SC6 LAST STFD OBS/NEXT 241100 UTC SLP110

CYGK;2015-01-24 11:00;CYGK 241100Z 23010KT 15SM OVC018 M01/M04 A2966 RMK SC8 SLP048

CYGK;2015-01-24 12:00;CYGK 241200Z 22009KT 15SM OVC016 M01/M04 A2964 RMK SC8 SLP041

CYGK;2015-01-24 13:00;CYGK 241300Z 24005KT 10SM OVC015 M02/M04 A2962 RMK SC8 SLP034

CYGK;2015-01-24 13:20;CYGK 241320Z 24006KT 10SM OVC014 M02/M04 A2961 RMK SC8 SLP032

CYGK;2015-01-24 14:00;CYGK 241400Z 24010KT 10SM OVC014 M02/M05 A2960 RMK SC8 SLP027

CYGK;2015-01-24 15:00;CYGK 241500Z 24010KT 10SM OVC014 M02/M04 A2957 RMK SC8 SLP019

CYGK;2015-01-24 16:00;CYGK 241600Z 25009G16KT 6SM BR OVC013 M02/M05 A2956 RMK SC8 SLP016

CYGK;2015-01-24 17:00;CYGK 241700Z 26008KT 230V300 6SM BR OVC015 M02/M05 A2953 RMK SC8 SLP003

CYGK;2015-01-24 18:00;CYGK 241800Z 25008KT 6SM BR OVC012 M02/M04 A2949 RMK SC8 SLP990

CYGK;2015-01-24 19:00;CYGK 241900Z 25005KT 6SM BR OVC010 M02/M04 A2945 RMK SC8 SLP977

CYGK;2015-01-24 19:09;CYGK 241909Z 26007KT 5SM BR OVC009 M02/M04 A2945 RMK ST8 SLP976

CYGK;2015-01-24 19:24;CYGK 241924Z 24005KT 5SM -SG OVC010 M02/M04 A2944 RMK ST8 SLP974

CYGK;2015-01-24 19:32;CYGK 241932Z 24008KT 3SM -FZDZ -SG BR OVC010 M02/M03 A2944 RMK ST8 SLP973

CYGK;2015-01-24 19:43;CYGK 241943Z 24008KT 2SM -FZDZ BR FEW005 OVC009 M02/M03 A2944 RMK SF1SF7 SLP973

CYGK;2015-01-24 20:00;CYGK 242000Z 23009KT 2SM -FZDZ -SG BR FEW005 BKN008 OVC012 M02/M03 A2944 RMK SF2SF5ST1 SLP972

CYGK;2015-01-24 20:20;CYGK 242020Z 24008KT 2 1/2SM -FZDZ BKN004 OVC008 M02/M03 A2944 RMK SF6ST2 SLP972

CYGK;2015-01-24 21:00;CYGK 242100Z 23006KT 2 1/2SM -FZDZ BR BKN004 OVC008 M02/M03 A2943 RMK SF6ST2 SLP971

CYGK;2015-01-24 22:00;CYGK 242200Z 23006KT 2 1/2SM -FZDZ BR OVC006 M02/M02 A2942 RMK ST8 SLP967

CYGK;2015-01-24 23:00;CYGK 242300Z 24007KT 2 1/2SM -FZDZ BR OVC006 M02/M02 A2943 RMK ST8 SLP969

CYGK;2015-01-24 23:10;CYGK 242310Z 25007KT 3SM -FZDZ -SN BR OVC006 M02/M02 A2943 RMK ST8 SLP969

CYGK;2015-01-24 23:48;CYGK 242348Z 25006KT 3SM -SN OVC006 M02/M02 A2943 RMK NS8 SLP970

CYGK;2015-01-24 23:52;CYGK 242352Z 25006KT 1SM -SN OVC006 M02/M02 A2943 RMK SN2NS6 SLP971

CYGK;2015-01-25 00:00;CYGK 250000Z 25007KT 1 1/2SM -SN OVC006 M02/M02 A2943 RMK SN2NS6 SLP970

CYGK;2015-01-25 00:18;CYGK 250018Z 25008KT 3SM -SN BKN006 OVC040 M02/M02 A2943 RMK SF7SC1 SLP970

CYGK;2015-01-25 00:47;CYGK 250047Z 25008KT 4SM -SN BR SCT006 OVC047 M02/M02 A2942 RMK SF4SC4 SLP966

CYGK;2015-01-25 01:00;CYGK 250100Z 25008KT 4SM -SN BR SCT006 OVC047 M02/M02 A2942 RMK SF3SC5 SLP965

CYGK;2015-01-25 01:42;CYGK 250142Z 25008KT 4SM -SN BR FEW008 BKN012 OVC050 M02/M03 A2940 RMK SF2SC4SC2 SLP961

CYGK;2015-01-25 02:00;CYGK 250200Z 25008KT 4SM -SN BR BKN009 OVC050 M02/M02 A2941 RMK SF6SC2 SLP962

CYGK;2015-01-25 03:00;CYGK 250300Z 26010KT 6SM -SN SCT008 BKN012 OVC070 M01/M02 A2940 RMK SF3SC4AC1 SLP960

CYGK;2015-01-25 04:00;CYGK 250400Z 27010G16KT 8SM BKN010 OVC075 M01/M02 A2940 RMK SC6AC2 LAST STFD OBS/NEXT 251100 UTC SLP960

CYGK;2015-01-25 11:00;CYGK 251100Z 32011G18KT 15SM FEW030 M12/M18 A2973 RMK SC1 PRESRR SLP074

CYGK;2015-01-25 12:00;CYGK 251200Z 34014KT 15SM SKC M14/M19 A2979 RMK SLP093

CYGK;2015-01-25 13:00;CYGK 251300Z 34013KT 15SM SKC M14/M20 A2984 RMK SLP110

CYGK;2015-01-25 14:00;CYGK 251400Z 33009KT 15SM SKC M14/M20 A2987 RMK SLP121

CYGK;2015-01-25 15:00;CYGK 251500Z 33009KT 15SM SKC M13/M19 A2990 RMK SLP129

CYGK;2015-01-25 16:00;CYGK 251600Z 35009KT 15SM SKC M12/M19 A2992 RMK SLP136

CYGK;2015-01-25 17:00;CYGK 251700Z 36005KT 310V020 15SM SKC M12/M20 A2992 RMK SLP136

CYGK;2015-01-25 18:00;CYGK 251800Z 33004KT 15SM FEW030 FEW250 M10/M19 A2992 RMK CU1CI1 CU TR CI TR SLP137

CYGK;2015-01-25 19:00;CYGK 251900Z 34006KT 290V010 15SM FEW250 M09/M19 A2992 RMK CI1 CI TR SLP138

CYGK;2015-01-25 20:00;CYGK 252000Z 30003KT 290V360 15SM FEW120 FEW250 M09/M20 A2995 RMK AC1CI1 AC TR SLP148

CYGK;2015-01-25 21:00;CYGK 252100Z 19007KT 15SM FEW250 M09/M17 A2998 RMK CI1 SLP159

CYGK;2015-01-25 22:00;CYGK 252200Z 13003KT 15SM FEW250 M10/M16 A3000 RMK CI2 SLP165

CYGK;2015-01-25 23:00;CYGK 252300Z 16002KT 15SM FEW250 M11/M16 A3003 RMK CI1 CI TR SLP176

CYGK;2015-01-26 00:00;CYGK 260000Z 34003KT 15SM SCT240 M12/M17 A3006 RMK CI3 SLP186

CYGK;2015-01-26 01:00;CYGK 260100Z 02005KT 15SM SCT240 M13/M18 A3008 RMK CI4 SLP195

CYGK;2015-01-26 02:00;CYGK 260200Z 04008KT 15SM SCT230 M13/M20 A3011 RMK CI3 SLP202

CYGK;2015-01-26 03:00;CYGK 260300Z 04009KT 15SM BKN210 M14/M21 A3010 RMK CI5 SLP201

CYGK;2015-01-26 04:00;CYGK 260400Z 04007KT 15SM SCT210 M15/M21 A3011 RMK CI3 LAST STFD OBS/NEXT 261100UTC SLP203

CYGK;2015-01-26 11:00;CYGK 261100Z 05007KT 15SM SCT200 M17/M22 A3011 RMK CI3 SLP203

CYGK;2015-01-26 12:00;CYGK 261200Z 04011KT 15SM BKN180 M17/M22 A3010 RMK AC5 SLP201

CYGK;2015-01-26 13:00;CYGK 261300Z 04010KT 15SM BKN150 BKN250 M18/M22 A3011 RMK AC5CI1 SLP203

CYGK;2015-01-26 14:00;CYGK 261400Z 05015KT 15SM FEW180 BKN250 M17/M22 A3011 RMK AC1CI7 AC TR SLP204

CYGK;2015-01-26 15:00;CYGK 261500Z 03013G20KT 15SM SCT160 BKN250 M16/M22 A3012 RMK AC3CI4 SLP207

CYGK;2015-01-26 16:00;CYGK 261600Z 04013G20KT 15SM SCT140 BKN250 M14/M20 A3011 RMK AC4CI3 SLP203

CYGK;2015-01-26 17:00;CYGK 261700Z 04014G21KT 15SM SCT090 OVC250 M13/M20 A3008 RMK AC4CI4 SLP194

CYGK;2015-01-26 18:00;CYGK 261800Z 04016KT 15SM BKN080 OVC250 M12/M21 A3005 RMK AC7CI1 SLP182

CYGK;2015-01-26 19:00;CYGK 261900Z 03015KT 15SM BKN075 OVC250 M11/M21 A3003 RMK AC7CI1 SLP178

CYGK;2015-01-26 20:00;CYGK 262000Z 03016G25KT 15SM VCSH BKN060 OVC080 M12/M21 A3002 RMK SC6AC2 SLP175

CYGK;2015-01-26 21:00;CYGK 262100Z 03016G27KT 15SM OVC060 M12/M21 A3004 RMK SC8 SLP179

CYGK;2015-01-26 22:00;CYGK 262200Z 04017G26KT 15SM SCT040 OVC067 M13/M21 A3003 RMK SC4AC4 SLP177

CYGK;2015-01-26 23:00;CYGK 262300Z 04015G21KT 15SM -SN OVC042 M13/M20 A3006 RMK SC8 SLP188

CYGK;2015-01-27 00:00;CYGK 270000Z 04016G23KT 15SM -SN OVC035 M14/M20 A3006 RMK SC8 SLP189

CYGK;2015-01-27 01:00;CYGK 270100Z 03016G26KT 8SM -SN SCT035 BKN070 M14/M19 A3007 RMK SC4AC3 SLP191

CYGK;2015-01-27 02:00;CYGK 270200Z 03015G24KT 8SM -SN SCT035 BKN070 M14/M20 A3005 RMK SC3AC4 SLP185

CYGK;2015-01-27 03:00;CYGK 270300Z 02018G24KT 6SM -SN OVC030 M15/M20 A3004 RMK SC8 PRESFR SLP179

CYGK;2015-01-27 04:00;CYGK 270400Z 04013G20KT 6SM -SN OVC030 M15/M20 A3005 RMK SC8 LAST STFD OBS/NEXT 271100UTC SLP183

CYGK;2015-01-27 11:00;CYGK 271100Z 02014G20KT 15SM SCT100 M15/M21 A3001 RMK AC4 SLP171

CYGK;2015-01-27 12:00;CYGK 271200Z 03013G20KT 15SM SCT084 BKN100 M15/M21 A3002 RMK AC3AC4 SLP174

CYGK;2015-01-27 13:00;CYGK 271300Z 03017G24KT 15SM FEW084 BKN100 BKN230 M14/M21 A3003 RMK AC2AC4CI1 SLP178

CYGK;2015-01-27 14:00;CYGK 271400Z 02019G26KT 15SM BKN100 BKN250 M14/M21 A3004 RMK AC5CI1 SLP181

CYGK;2015-01-27 15:00;CYGK 271500Z 02015G23KT 15SM FEW100 BKN250 M13/M21 A3004 RMK AC1CI4 SLP180

CYGK;2015-01-27 16:00;CYGK 271600Z 01016G25KT 15SM FEW100 SCT250 M13/M21 A3004 RMK AC1CI3 SLP180

CYGK;2015-01-27 17:00;CYGK 271700Z 02017G24KT 15SM FEW015 FEW100 BKN250 M12/M21 A3003 RMK CF1AC1CI5 CF TR SLP176

CYGK;2015-01-27 18:00;CYGK 271800Z 01013G23KT 15SM FEW015 FEW100 BKN250 M11/M21 A3002 RMK CU1AC1CI5 CU TR AC TR SLP172

CYGK;2015-01-27 19:00;CYGK 271900Z 02020G25KT 15SM BKN250 M10/M21 A3002 RMK CI5 SLP172

CYGK;2015-01-27 20:00;CYGK 272000Z 36016KT 15SM BKN250 M10/M21 A3003 RMK CI7 SLP177

CYGK;2015-01-27 21:00;CYGK 272100Z 36018KT 15SM BKN250 M10/M21 A3004 RMK CI6 SLP181

CYGK;2015-01-27 22:00;CYGK 272200Z 02012G20KT 15SM BKN250 M10/M22 A3007 RMK CI6 SLP190

CYGK;2015-01-27 23:00;CYGK 272300Z 35006KT 15SM BKN250 M11/M21 A3008 RMK CI5 SLP194

CYGK;2015-01-28 00:00;CYGK 280000Z 33007KT 15SM BKN250 M12/M21 A3009 RMK CI5 SLP196

CYGK;2015-01-28 01:00;CYGK 280100Z 36008KT 15SM BKN250 M12/M21 A3008 RMK CI5 SLP195

CYGK;2015-01-28 02:00;CYGK 280200Z 33007KT 15SM BKN250 M12/M21 A3007 RMK CI7 SLP190

CYGK;2015-01-28 03:00;CYGK 280300Z 32006KT 15SM OVC250 M13/M21 A3005 RMK CI8 SLP185

CYGK;2015-01-28 04:00;CYGK 280400Z 30004KT 15SM OVC230 M13/M21 A3006 RMK CI8 LAST STFD OBS/NEXT 281100 UTC SLP187

CYGK;2015-01-28 11:00;CYGK 281100Z 30005KT 15SM SKC M16/M21 A3015 RMK SLP218

CYGK;2015-01-28 12:00;CYGK 281200Z 00000KT 15SM FEW140 M17/M21 A3019 RMK AC1 AC TR SLP231

CYGK;2015-01-28 13:00;CYGK 281300Z 30004KT 15SM FEW140 M17/M22 A3022 RMK AC1 AC TR SLP242

CYGK;2015-01-28 14:00;CYGK 281400Z 31005KT 15SM FEW140 M14/M21 A3024 RMK AC1 AC TR SLP247

CYGK;2015-01-28 15:00;CYGK 281500Z 36005KT 15SM FEW140 M12/M23 A3025 RMK AC1 AC TR SLP250

CYGK;2015-01-28 16:00;CYGK 281600Z 33004KT 310V010 15SM FEW140 M10/M23 A3026 RMK AC1 AC TR SLP255

CYGK;2015-01-28 17:00;CYGK 281700Z 36008KT 15SM SKC M08/M22 A3026 RMK SLP254

CYGK;2015-01-28 18:00;CYGK 281800Z 36004KT 300V020 15SM FEW250 M06/M22 A3024 RMK CI1 CI TR SLP249

CYGK;2015-01-28 19:00;CYGK 281900Z 27005KT 250V360 15SM FEW250 M04/M22 A3024 RMK CI1 CI TR SLP248

CYGK;2015-01-28 20:00;CYGK 282000Z 19005KT 15SM FEW250 M05/M16 A3026 RMK CI1 CI TR SLP253

CYGK;2015-01-28 21:00;CYGK 282100Z VRB04KT 15SM FEW250 M04/M20 A3027 RMK CI1 CI TR SLP257

CYGK;2015-01-28 22:00;CYGK 282200Z 23007KT 15SM FEW250 M05/M16 A3028 RMK CI1 CI TR SLP262

CYGK;2015-01-28 23:00;CYGK 282300Z 23005KT 15SM FEW250 M06/M15 A3029 RMK CI1 SLP264

CYGK;2015-01-29 00:00;CYGK 290000Z 23004KT 15SM FEW250 M08/M17 A3029 RMK CI1 SLP264

CYGK;2015-01-29 01:00;CYGK 290100Z 25005KT 15SM SKC M07/M16 A3030 RMK SLP268

CYGK;2015-01-29 02:00;CYGK 290200Z 24002KT 15SM SKC M11/M16 A3030 RMK SLP270

CYGK;2015-01-29 03:00;CYGK 290300Z 00000KT 15SM SKC M12/M16 A3030 RMK SLP269

CYGK;2015-01-29 04:00;CYGK 290400Z 09002KT 15SM SKC M14/M17 A3030 RMK LAST STFD OBS/NEXT 291100 UTC SLP268

CYGK;2015-01-29 11:00;CYGK 291100Z 16012KT 15SM FEW170 BKN230 M07/M08 A3023 RMK AS2CI4 SLP243

CYGK;2015-01-29 12:00;CYGK 291200Z 16010KT 15SM FEW170 BKN220 M07/M09 A3021 RMK AC1CI6 SLP236

CYGK;2015-01-29 13:00;CYGK 291300Z 15009KT 15SM SCT160 BKN200 M07/M09 A3019 RMK AS4CI3 SLP229

CYGK;2015-01-29 14:00;CYGK 291400Z 14011KT 15SM BKN140 OVC200 M06/M10 A3016 RMK AS7CI1 PRESFR SLP218

CYGK;2015-01-29 15:00;CYGK 291500Z 14009KT 15SM OVC080 M06/M10 A3011 RMK AS8 SLP203

CYGK;2015-01-29 16:00;CYGK 291600Z 16010KT 15SM OVC070 M05/M10 A3006 RMK AS8 SLP186

CYGK;2015-01-29 17:00;CYGK 291700Z 11010KT 15SM OVC050 M05/M11 A2999 RMK NS8 PRESFR SLP162

CYGK;2015-01-29 18:00;CYGK 291800Z 17003KT 140V250 15SM FEW035 OVC060 M04/M10 A2991 RMK SC1NS7 PRESFR SLP136

CYGK;2015-01-29 18:39;CYGK 291839Z 15020G25KT 5SM -SN OVC024 M02/M07 A2989 RMK NS8 PRESFR SLP127

CYGK;2015-01-29 19:00;CYGK 291900Z 14024G29KT 15SM SCT025 OVC080 M02/M06 A2984 RMK SC3AC5 PRESFR SLP110

CYGK;2015-01-29 20:00;CYGK 292000Z 17019KT 15SM FEW022 BKN038 OVC080 M01/M08 A2983 RMK SC1SC5AC2 SLP108

CYGK;2015-01-29 20:42;CYGK 292042Z 18020G33KT 4SM -SN OVC024 M01/M08 A2982 RMK SC8 SLP103

CYGK;2015-01-29 20:49;CYGK 292049Z 18028G40KT 1 1/2SM -SN OVC020 M02/M05 A2982 RMK SC8 SLP103

CYGK;2015-01-29 21:00;CYGK 292100Z 19027G36KT 4SM -SHSN SCT020TCU OVC030 M01/M06 A2982 RMK TCU4SC4 VIS NW 2 SLP103

CYGK;2015-01-29 21:12;CYGK 292112Z 19026G37KT 1 1/4SM -SHSN BKN018TCU OVC030 M02/M05 A2982 RMK TCU5SC3 SLP105

CYGK;2015-01-29 21:32;CYGK 292132Z 18016G28KT 4SM -SHSN OVC018TCU M02/M04 A2981 RMK TCU8 SLP101

CYGK;2015-01-29 21:46;CYGK 292146Z 19023G32KT 1SM -SHSN DRSN OVC017TCU M01/M06 A2981 RMK TCU8 SLP099

CYGK;2015-01-29 22:00;CYGK 292200Z 18022G32KT 3/4SM -SHSN DRSN OVC017TCU M02/M05 A2981 RMK SN3TCU5 SLP100

CYGK;2015-01-29 22:09;CYGK 292209Z 20021G29KT 5/8SM -SN DRSN OVC016 M02/M04 A2981 RMK SN5SC3 SLP099

CYGK;2015-01-29 22:30;CYGK 292230Z 18015G21KT 1SM -SN DRSN BKN008 OVC018 M02/M03 A2980 RMK SN2SF3SC3 SLP097

CYGK;2015-01-29 23:00;CYGK 292300Z 18018G25KT 1 1/2SM -SN DRSN BKN009 BKN020 OVC040 M02/M03 A2980 RMK SF5SC2SC1 SLP095

CYGK;2015-01-29 23:11;CYGK 292311Z 18020G26KT 1SM M02/M03 A2979 RMK SLP093

CYGK;2015-01-29 23:42;CYGK 292342Z 18021KT 5/8SM -SN DRSN OVC009 M02/M03 A2979 RMK SN3SF5 SLP093

CYGK;2015-01-29 23:52;CYGK 292352Z 18019G26KT 3/4SM -SN DRSN OVC008 M02/M03 A2979 RMK SN3SF5 SLP092

CYGK;2015-01-30 00:00;CYGK 300000Z 18020G26KT 3/4SM -SN DRSN OVC008 M02/M02 A2979 RMK SN4SF4 SLP091

CYGK;2015-01-30 00:16;CYGK 300016Z 17020G27KT 1 1/4SM -SN OVC006 M02/M02 A2978 RMK SF8 SLP090

CYGK;2015-01-30 00:50;CYGK 300050Z 18021KT 1 3/4SM -SN OVC005 M02/M02 A2977 RMK SF8 SLP087

CYGK;2015-01-30 01:00;CYGK 300100Z 17021G27KT 2SM -SN OVC007 M02/M02 A2977 RMK SF8 SLP086

CYGK;2015-01-30 01:20;CYGK 300120Z 17019G26KT 1 1/4SM -SN OVC006 M01/M02 A2977 RMK SF8 SLP085

CYGK;2015-01-30 01:43;CYGK 300143Z 18020G26KT 3/4SM -SN OVC005 M01/M02 A2976 RMK SF8 SLP083

CYGK;2015-01-30 02:00;CYGK 300200Z 18017G23KT 3/4SM -SN OVC006 M01/M02 A2976 RMK SF8 SLP082

CYGK;2015-01-30 02:29;CYGK 300229Z 18018KT 1 1/4SM -SN OVC008 M01/M02 A2976 RMK SF8 SLP081

CYGK;2015-01-30 02:43;CYGK 300243Z 18019G26KT 2SM -SN OVC012 M01/M02 A2975 RMK SF8 SLP080

CYGK;2015-01-30 03:00;CYGK 300300Z 18017G24KT 2SM -SN OVC011 M01/M02 A2975 RMK SC8 SLP080

CYGK;2015-01-30 03:23;CYGK 300323Z 18018KT 1SM -SN OVC007 M01/M02 A2975 RMK SF8 SLP080

CYGK;2015-01-30 03:36;CYGK 300336Z 18017KT 1/2SM SN OVC005 M01/M02 A2975 RMK SF8 SLP078

CYGK;2015-01-30 04:00;CYGK 300400Z 19017G24KT 1/2SM SN OVC005 M01/M02 A2975 RMK SF8 LAST STFD OBS/NEXT 301100 UTC SLP078

CYGK;2015-01-30 11:00;CYGK 301100Z 34009KT 12SM -SN FEW018 OVC085 M05/M08 A2989 RMK CF2AC6 /S10 AFT 00UTC/ SLP127

CYGK;2015-01-30 12:00;CYGK 301200Z 33011KT 15SM -SN SCT018 OVC085 M05/M09 A2992 RMK CU3AC5 SLP137

CYGK;2015-01-30 12:14;CYGK 301214Z 32012KT 15SM -SN BKN019 OVC085 M05/M09 A2993 RMK SC6AC2 PRESRR SLP142

CYGK;2015-01-30 12:33;CYGK 301233Z 32014G20KT 15SM BKN019 OVC085 M06/M10 A2995 RMK SC5AC3 SLP148

CYGK;2015-01-30 13:00;CYGK 301300Z 34017G24KT 15SM DRSN SCT020 OVC090 M07/M11 A2997 RMK SC3AC5 SLP153

CYGK;2015-01-30 14:00;CYGK 301400Z 33023KT 15SM DRSN FEW020 OVC090 M09/M14 A2999 RMK SC1AC7 SLP162

CYGK;2015-01-30 15:00;CYGK 301500Z 36013G19KT 15SM DRSN FEW020 BKN100 M10/M15 A3005 RMK SC1AC6 PRESRR SLP183

CYGK;2015-01-30 16:00;CYGK 301600Z 33018KT 15SM DRSN FEW020 FEW050 BKN100 M11/M16 A3007 RMK SC1SC2AC5 SC TR SLP188

CYGK;2015-01-30 17:00;CYGK 301700Z 33013G19KT 15SM DRSN FEW020 SCT060 BKN095 M10/M16 A3008 RMK SC1SC4AC1 SC TR SLP193

CYGK;2015-01-30 18:00;CYGK 301800Z 34013G20KT 15SM FEW020 FEW090 M11/M17 A3009 RMK SC1AC1 SC TR SLP195

CYGK;2015-01-30 19:00;CYGK 301900Z 34015KT 15SM DRSN FEW020 FEW090 M10/M17 A3010 RMK SC1AC1 SC TR AC TR SLP199

CYGK;2015-01-30 20:00;CYGK 302000Z 35015KT 300V360 15SM FEW025 M10/M17 A3012 RMK CU1 CU TR SLP206

CYGK;2015-01-30 21:00;CYGK 302100Z 34012KT 15SM FEW025 M10/M18 A3015 RMK SC1 SC TR SLP215

CYGK;2015-01-30 22:00;CYGK 302200Z 34009KT 15SM FEW025 M11/M19 A3018 RMK SC1 SC TR SLP227

CYGK;2015-01-30 23:00;CYGK 302300Z 31006KT 15SM FEW025 M13/M20 A3022 RMK SC1 SC TR SLP239

CYGK;2015-01-31 00:00;CYGK 310000Z 32009KT 15SM FEW025 M14/M20 A3024 RMK SC1 SC TR SLP246

CYGK;2015-01-31 01:00;CYGK 310100Z 33012KT 15SM SKC M14/M21 A3027 RMK SLP256

CYGK;2015-01-31 02:00;CYGK 310200Z 33009G15KT 15SM SKC M15/M22 A3028 RMK SLP262

CYGK;2015-01-31 03:00;CYGK 310300Z 32007KT 15SM SKC M17/M22 A3030 RMK SLP267

CYGK;2015-01-31 04:00;CYGK 310400Z 31007KT 15SM SKC M18/M23 A3031 RMK LAST STFD OBS/NEXT 311100 UTC SLP270

CYGK;2015-01-31 11:00;CYGK 311100Z 32002KT 15SM SKC M22/M26 A3033 RMK SLP278

CYGK;2015-01-31 12:00;CYGK 311200Z 34004KT 15SM FEW020 M23/M27 A3032 RMK CU1 CU TR DIST S SLP275

CYGK;2015-01-31 13:00;CYGK 311300Z 31004KT 15SM FEW020 M23/M27 A3033 RMK CU1 CU TR DIST S SLP280

CYGK;2015-01-31 14:00;CYGK 311400Z 27006KT 15SM FEW020 FEW100 M21/M26 A3036 RMK SC1AC1 SC TR AC TR SLP289

CYGK;2015-01-31 15:00;CYGK 311500Z 28006KT 15SM FEW020 FEW100 M19/M25 A3035 RMK SC1AC1 SC TR AC TR SLP288

CYGK;2015-01-31 16:00;CYGK 311600Z 02003KT 330V040 15SM FEW020 FEW035 BKN100 M18/M24 A3035 RMK CF1SC1AC5 CF TR SLP285

CYGK;2015-01-31 17:00;CYGK 311700Z 18004KT 15SM FEW020 BKN035 BKN100 M17/M23 A3032 RMK CF1SC6AC1 CF TR SLP275

CYGK;2015-01-31 18:00;CYGK 311800Z 21006KT 15SM FEW020 BKN039 BKN100 M16/M23 A3029 RMK CF1SC7AC1 CF TR AC TR SLP266

CYGK;2015-01-31 19:00;CYGK 311900Z 20007KT 15SM BKN040 M15/M22 A3027 RMK SC6 SLP258

CYGK;2015-01-31 20:00;CYGK 312000Z 22005KT 15SM BKN035 M15/M21 A3025 RMK SC7 SLP251

CYGK;2015-01-31 20:40;CYGK 312040Z 21005KT 15SM -SHSN OVC036 M14/M20 A3025 RMK SC8 SLP251

CYGK;2015-01-31 21:00;CYGK 312100Z 24006KT 15SM -SHSN OVC037 M14/M20 A3024 RMK SC8 SLP250

CYGK;2015-01-31 22:00;CYGK 312200Z 22003KT 15SM -SHSN BKN036 M14/M19 A3022 RMK SC7 SLP241

CYGK;2015-01-31 23:00;CYGK 312300Z 00000KT 15SM -SHSN BKN036 BKN100 M14/M18 A3021 RMK SC5AC1 SLP240

CYGK;2015-02-01 00:00;CYGK 010000Z 05002KT 15SM -SN SCT040 BKN063 BKN100 M15/M18 A3022 RMK SC3SC3AC1 SLP241

CYGK;2015-02-01 01:00;CYGK 010100Z 04002KT 8SM -SN SCT043 OVC074 M13/M16 A3020 RMK SC4AC4 SLP234

CYGK;2015-02-01 02:00;CYGK 010200Z 06003KT 10SM -SN SCT025 OVC077 M12/M15 A3017 RMK SC3AC5 SLP223

CYGK;2015-02-01 02:50;CYGK 010250Z 00000KT 10SM -SN BKN011 OVC038 M12/M14 A3015 RMK SC5SC3 SLP217

CYGK;2015-02-01 03:00;CYGK 010300Z 00000KT 8SM -SN BKN010 OVC036 M12/M13 A3014 RMK SC5SC3 SLP216

CYGK;2015-02-01 03:15;CYGK 010315Z 00000KT 6SM -SN BKN009 OVC023 M11/M13 A3014 RMK SF5SC3 SLP215

CYGK;2015-02-01 04:00;CYGK 010400Z 17007KT 8SM -SN BKN009 OVC014 M07/M08 A3013 RMK SF6SC2 LAST STFD OBS/NEXT 011100Z SLP211

CYGK;2015-02-01 11:00;CYGK 011100Z 01009KT 15SM FEW050 FEW200 M13/M16 A3024 RMK SC1CI1 SLP247

CYGK;2015-02-01 12:00;CYGK 011200Z 02006KT 15SM FEW050 FEW200 M14/M17 A3028 RMK SC1CI1 SC TR SLP261

CYGK;2015-02-01 13:00;CYGK 011300Z 01014KT 15SM FEW050 FEW200 M15/M20 A3031 RMK SC1CI1 SLP270

CYGK;2015-02-01 14:00;CYGK 011400Z 01011G17KT 15SM DRSN FEW020 SCT200 M16/M21 A3033 RMK CU1CI4 CU TR SLP277

CYGK;2015-02-01 15:00;CYGK 011500Z 02012KT 15SM BKN220 M16/M22 A3033 RMK CI5 SLP277

CYGK;2015-02-01 16:00;CYGK 011600Z 05010G15KT 15SM FEW020 SCT220 M16/M22 A3032 RMK CU1CI4 CU TR SLP275

CYGK;2015-02-01 17:00;CYGK 011700Z 05012KT 010V070 15SM SCT220 M15/M23 A3030 RMK CI4 SLP268

CYGK;2015-02-01 18:00;CYGK 011800Z 02007KT 15SM SCT150 BKN200 M15/M23 A3029 RMK AS4CS3 SLP264

CYGK;2015-02-01 19:00;CYGK 011900Z 01011KT 15SM OVC120 M15/M23 A3026 RMK AS8 SLP254

CYGK;2015-02-01 20:00;CYGK 012000Z 04008KT 15SM OVC120 M15/M24 A3028 RMK AS8 SLP260

CYGK;2015-02-01 21:00;CYGK 012100Z 05011KT 15SM OVC100 M15/M25 A3025 RMK AS8 SLP252

CYGK;2015-02-01 22:00;CYGK 012200Z 03009KT 15SM DRSN OVC090 M16/M24 A3024 RMK AS8 SLP249

CYGK;2015-02-01 23:00;CYGK 012300Z 03012G18KT 15SM DRSN OVC110 M17/M24 A3022 RMK AS8 SLP240

CYGK;2015-02-02 00:00;CYGK 020000Z 03012KT 15SM OVC100 M17/M24 A3020 RMK AS8 SLP234

CYGK;2015-02-02 01:00;CYGK 020100Z 04012G17KT 15SM OVC090 M18/M25 A3018 RMK AS8 SLP228

CYGK;2015-02-02 02:00;CYGK 020200Z 03017G22KT 15SM OVC075 M18/M25 A3014 RMK AS8 SLP213

CYGK;2015-02-02 03:00;CYGK 020300Z 04014G22KT 15SM OVC090 M18/M25 A3010 RMK AS8 SLP201

CYGK;2015-02-02 04:00;CYGK 020400Z 04017G22KT 15SM OVC080 M18/M25 A3008 RMK AS8 LAST STFD OBS/NEXT 021100 UTC SLP194

CYGK;2015-02-02 11:00;CYGK 021100Z 02021G30KT 1SM -SN BLSN VV007 M18/M21 A2973 RMK SN8 SLP077

CYGK;2015-02-02 11:39;CYGK 021139Z 03022G29KT 3/4SM -SN BLSN VV005 M18/M21 A2972 RMK SN8 SLP072

CYGK;2015-02-02 12:00;CYGK 021200Z 03024G31KT 3/4SM -SN BLSN VV005 M18/M21 A2971 RMK SN8 SLP069

CYGK;2015-02-02 13:00;CYGK 021300Z 03024G31KT 3/4SM -SN DRSN VV005 M19/M22 A2970 RMK SN8 SLP067

CYGK;2015-02-02 14:00;CYGK 021400Z 03022G29KT 3/4SM -SN BLSN VV008 M19/M22 A2970 RMK SN8 SLP065

CYGK;2015-02-02 15:00;CYGK 021500Z 02022G30KT 1SM -SN BLSN VV010 M19/M23 A2970 RMK SN8 SLP065

CYGK;2015-02-02 15:09;CYGK 021509Z 03023G34KT 1SM -SN BLSN OVC050 M19/M23 A2970 RMK SN4SC4 SLP066

CYGK;2015-02-02 16:00;CYGK 021600Z 03019G31KT 1SM -SN BLSN OVC030 M19/M22 A2972 RMK SN5SC3 SLP072

CYGK;2015-02-02 16:29;CYGK 021629Z 03019G30KT 1SM -SN BLSN VV009 M18/M22 A2972 RMK SN8 VIS VRB 1/2-11/2 SLP074

CYGK;2015-02-02 17:00;CYGK 021700Z 02016G30KT 1SM -SN BLSN VV009 M18/M22 A2972 RMK SN8 VIS VRB 1/2-11/2 SLP072

CYGK;2015-02-02 18:00;CYGK 021800Z 02018G27KT 1SM -SN BLSN OVC022 M17/M21 A2973 RMK SN7SC1 VIS VRB 1/2-11/2 SLP076

CYGK;2015-02-02 18:10;CYGK 021810Z 02020G27KT 1SM -SN BLSN VV009 M17/M21 A2973 RMK SN8 VIS VRB 1/2-11/2 SLP075

CYGK;2015-02-02 18:31;CYGK 021831Z 02019G31KT 1SM -SN BLSN OVC022 M17/M20 A2974 RMK SN6SC2 VIS VRB 1/2-11/2 SLP078

CYGK;2015-02-02 19:00;CYGK 021900Z 02021G26KT 1 1/4SM -SN BLSN OVC030 M16/M20 A2974 RMK SN6SC2 VIS VRB 3/4-2 SLP081

CYGK;2015-02-02 19:07;CYGK 021907Z 01023G31KT 3SM -SN BLSN BKN030 M16/M20 A2975 RMK SN2NS5 SLP083

CYGK;2015-02-02 20:00;CYGK 022000Z 02013G22KT 4SM -SN BLSN BKN020 BKN250 M15/M19 A2979 RMK SC5CI2 SLP095

CYGK;2015-02-02 21:00;CYGK 022100Z 35015KT 12SM DRSN FEW020 FEW042 SCT250 M15/M20 A2985 RMK SC1SC1CI4 SC TR SC TR PRESRR SLP115

CYGK;2015-02-02 22:00;CYGK 022200Z 35011KT 15SM DRSN FEW020 FEW040 FEW250 M15/M20 A2989 RMK SC1SC1CI1 SC TR SC TR SLP130

CYGK;2015-02-02 23:00;CYGK 022300Z 35006KT 15SM FEW040 FEW250 M16/M21 A2994 RMK SC1CI1 SC TR CI TR SLP146

CYGK;2015-02-03 00:00;CYGK 030000Z 33004KT 15SM SKC M17/M22 A2998 RMK SLP161

CYGK;2015-02-03 01:00;CYGK 030100Z 31004KT 15SM SKC M17/M21 A3000 RMK SLP166

CYGK;2015-02-03 02:00;CYGK 030200Z 30004KT 15SM SKC M19/M22 A3003 RMK SLP179

CYGK;2015-02-03 03:00;CYGK 030300Z 25005KT 15SM SKC M18/M21 A3005 RMK SLP186

CYGK;2015-02-03 04:00;CYGK 030400Z 30003KT 15SM SKC M21/M24 A3006 RMK LAST STFD OBS/NEXT 031100 UTC SLP190

CYGK;2015-02-03 11:00;CYGK 031100Z 28004KT 15SM SCT090 M22/M24 A3012 RMK AC4 SLP209

CYGK;2015-02-03 12:00;CYGK 031200Z VRB02KT 15SM SCT040 OVC090 M22/M25 A3012 RMK SC4AC4 SLP208

CYGK;2015-02-03 12:16;CYGK 031216Z 07004KT 15SM -SN SCT038 BKN090 M22/M25 A3011 RMK SC4AC3 SLP207

CYGK;2015-02-03 13:00;CYGK 031300Z 05003KT 15SM SCT040 BKN090 BKN250 M22/M25 A3012 RMK SC3AC2CI2 SLP210

CYGK;2015-02-03 14:00;CYGK 031400Z 13006KT 12SM FEW015 BKN040 BKN090 BKN250 M18/M21 A3014 RMK CF1SC5AC1CI1 CF TR S SLP214

CYGK;2015-02-03 14:33;CYGK 031433Z 14002KT 8SM -SN BKN040 OVC090 M17/M21 A3014 RMK SC5AS3 SLP214

CYGK;2015-02-03 14:45;CYGK 031445Z VRB02KT 3SM -SN OVC035 M17/M20 A3014 RMK SC8 SLP214

CYGK;2015-02-03 15:00;CYGK 031500Z 09002KT 3SM -SN VV030 M16/M20 A3014 RMK SN8 SLP213

CYGK;2015-02-03 15:29;CYGK 031529Z 05002KT 1SM -SN VV009 M15/M17 A3014 RMK SN8 SLP215

CYGK;2015-02-03 16:00;CYGK 031600Z 00000KT 1SM -SN VV006 M14/M16 A3014 RMK SN8 VIS VRB 1/2-11/2 SLP214

CYGK;2015-02-03 16:33;CYGK 031633Z 11003KT 2SM -SN VV020 M12/M14 A3013 RMK SN8 SLP210

CYGK;2015-02-03 17:00;CYGK 031700Z 15006KT 4SM -SN VV025 M11/M13 A3011 RMK SN8 SLP206

CYGK;2015-02-03 17:41;CYGK 031741Z 16004KT 12SM FEW025 BKN040 M10/M12 A3010 RMK SC2SC3 SLP202

CYGK;2015-02-03 17:52;CYGK 031752Z 16005KT 5SM -SN BKN025 M09/M12 A3010 RMK SN3SC4 SLP201

CYGK;2015-02-03 18:00;CYGK 031800Z 15006KT 4SM -SN BKN022 M10/M12 A3010 RMK SN5SC2 SLP200

CYGK;2015-02-03 19:00;CYGK 031900Z 19007KT 4SM -SN OVC025 M08/M10 A3008 RMK SN4SC4 SLP194

CYGK;2015-02-03 20:00;CYGK 032000Z 25016G23KT 12SM VCSH FEW025 SCT057 M05/M10 A3008 RMK CU2SC1 SLP194

CYGK;2015-02-03 21:00;CYGK 032100Z 24014G20KT 12SM DRSN VCSH SCT030 BKN065 BKN250 M05/M10 A3010 RMK CU3SC2CI1 SLP200

CYGK;2015-02-03 22:00;CYGK 032200Z 23015KT 12SM DRSN VCSH SCT025 BKN057 M06/M08 A3011 RMK CU4SC2 VIS S 3 SLP202

CYGK;2015-02-03 22:07;CYGK 032207Z 23014G20KT 10SM -SHSN DRSN BKN025 BKN055 M06/M08 A3011 RMK CU5SC2 VIS SW 3 SLP202

CYGK;2015-02-03 23:00;CYGK 032300Z 22012KT 6SM -SHSN DRSN BKN022 M06/M08 A3012 RMK CF7 SLP206

CYGK;2015-02-04 00:00;CYGK 040000Z 22014KT 6SM -SHSN DRSA BKN022 OVC036 M06/M08 A3013 RMK CU5SC3 SLP212

CYGK;2015-02-04 01:00;CYGK 040100Z 23015KT 6SM -SHSN DRSN BKN020 OVC035 M06/M09 A3014 RMK CU5SC3 SLP213

CYGK;2015-02-04 02:00;CYGK 040200Z 23014KT 8SM -SHSN DRSN SCT025 BKN085 M06/M09 A3015 RMK CU4AC3 SLP216

CYGK;2015-02-04 02:35;CYGK 040235Z 22012G18KT 10SM FEW025 SCT040 BKN082 M06/M09 A3014 RMK CU1SC3AC3 SLP215

CYGK;2015-02-04 03:00;CYGK 040300Z 23010KT 15SM FEW025 SCT042 BKN080 M06/M09 A3014 RMK CU1SC2AC4 SHWRS N SLP213

CYGK;2015-02-04 04:00;CYGK 040400Z 25007KT 6SM -SHSN SCT025 OVC040 M06/M08 A3013 RMK CU4SC4 LAST STFD OBS/NEXT 041100UTC SLP211

CYGK;2015-02-04 11:00;CYGK 041100Z 09004KT 1/2SM SN VV003 M07/M08 A3002 RMK SN8 /S03/ AFT 00 UTC SLP171

CYGK;2015-02-04 11:09;CYGK 041109Z 09005KT 3/4SM -SN OVC014 M07/M08 A3002 RMK SN6SC2 SLP170

CYGK;2015-02-04 11:24;CYGK 041124Z 07005KT 1 1/4SM -SN OVC011 M07/M08 A3001 RMK SN3SC5 SLP168

CYGK;2015-02-04 11:45;CYGK 041145Z 04003KT 360V080 1 1/2SM -SN OVC009 M07/M07 A3001 RMK SN2SF6 SLP167

CYGK;2015-02-04 12:00;CYGK 041200Z 08004KT 300V110 1 3/4SM -SN OVC008 M06/M07 A3000 RMK SF8 /S04/ SLP166

CYGK;2015-02-04 12:15;CYGK 041215Z 21007KT 130V220 1 1/4SM -SN OVC006 M04/M05 A3000 RMK SF8 SLP164

CYGK;2015-02-04 12:35;CYGK 041235Z 19014KT 5/8SM -SN OVC006 M03/M04 A2999 RMK SN4SF4 SLP161

CYGK;2015-02-04 12:44;CYGK 041244Z 20015G21KT 1SM -SN OVC007 M03/M04 A2999 RMK SF8 SLP160

CYGK;2015-02-04 13:00;CYGK 041300Z 20017KT 1 1/4SM -SN OVC008 M03/M04 A2999 RMK SN3SF5 SLP161

CYGK;2015-02-04 14:00;CYGK 041400Z 20013G19KT 1SM -SN OVC007 M03/M03 A2999 RMK SN3SF5 SLP159

CYGK;2015-02-04 15:00;CYGK 041500Z 20016G21KT 1 1/4SM -SN OVC006 M02/M03 A2997 RMK SF8 SLP155

CYGK;2015-02-04 16:00;CYGK 041600Z 20018KT 1SM -SN OVC006 M02/M03 A2996 RMK SF8 VIS VRB 3/4-11/4 SLP149

CYGK;2015-02-04 16:36;CYGK 041636Z 20018G24KT 1 1/2SM -SN OVC007 M02/M03 A2993 RMK SF8 CIG RAG SLP142

CYGK;2015-02-04 16:49;CYGK 041649Z 20017G23KT 3SM -SN OVC008 M02/M03 A2993 RMK SF8 SLP140

CYGK;2015-02-04 17:00;CYGK 041700Z 20017G22KT 3SM -SN BKN008 OVC012 M02/M03 A2992 RMK SF7SC1 SLP138

CYGK;2015-02-04 18:00;CYGK 041800Z 20015G21KT 4SM -SN BKN008 OVC012 M01/M03 A2989 RMK SF5SC3 SLP128

CYGK;2015-02-04 19:00;CYGK 041900Z 21015G23KT 4SM -SN SCT008 OVC013 M01/M02 A2986 RMK SF3SC5 SLP116

CYGK;2015-02-04 19:53;CYGK 041953Z 21017G24KT 2 1/2SM -SN FEW010 OVC015 M00/M02 A2985 RMK SF2SC6 SLP113

CYGK;2015-02-04 20:00;CYGK 042000Z 21016G22KT 2SM -SN DRSN FEW009 OVC014 M00/M02 A2985 RMK SF2SC6 CIG RAG SLP114

CYGK;2015-02-04 20:07;CYGK 042007Z 21018KT 1SM -SN DRSN BKN008 OVC014 M00/M02 A2985 RMK SN3SF3SC2 SLP114

CYGK;2015-02-04 20:31;CYGK 042031Z 27010G19KT 210V280 3/4SM -SN DRSN BKN005 OVC015 M01/M02 A2986 RMK SN5SF2SC1 WSHFT 2022 SLP115

CYGK;2015-02-04 21:00;CYGK 042100Z 28007KT 3/4SM -SN DRSN BKN005 OVC020 M02/M02 A2986 RMK SN5SF1SC2 SLP117

CYGK;2015-02-04 22:00;CYGK 042200Z 27006KT 1SM -SN VV010 M02/M03 A2986 RMK SN8 SLP117

CYGK;2015-02-04 22:24;CYGK 042224Z 27005KT 3/4SM -SN VV006 M02/M03 A2987 RMK SN8 SLP121

CYGK;2015-02-04 23:00;CYGK 042300Z 27006KT 1SM -SN VV008 M03/M04 A2989 RMK SN8 SLP126

CYGK;2015-02-04 23:36;CYGK 042336Z 28009KT 1 3/4SM -SN VV012 M03/M04 A2990 RMK SN8 SLP129

CYGK;2015-02-05 00:00;CYGK 050000Z 28010G15KT 2 1/2SM -SN BKN008 OVC015 M03/M05 A2991 RMK SF6CU2 SLP133

CYGK;2015-02-05 01:00;CYGK 050100Z 30008KT 270V330 2 1/2SM -SN BKN010 OVC020 M03/M05 A2992 RMK CU5SC3 SLP136

CYGK;2015-02-05 01:43;CYGK 050143Z 31010G16KT 6SM -SN SCT010 OVC020 M04/M07 A2993 RMK CU3SC5 SLP141

CYGK;2015-02-05 02:00;CYGK 050200Z 31012KT 6SM -SN FEW010 OVC022 M04/M08 A2994 RMK CU2SC6 SLP143

CYGK;2015-02-05 03:00;CYGK 050300Z 31004KT 15SM -SN SCT020 OVC060 M04/M08 A2996 RMK CU3SC5 SLP149

CYGK;2015-02-05 03:18;CYGK 050318Z 31004KT 15SM FEW020 OVC055 M05/M08 A2996 RMK CU2SC6 SLP149

CYGK;2015-02-05 04:00;CYGK 050400Z 31008KT 15SM SCT020 OVC055 M05/M09 A2997 RMK CU3SC5 LAST STFD OBS/NEXT 051100 UTC SLP153

CYGK;2015-02-05 11:00;CYGK 051100Z 35007KT 15SM FEW058 M16/M18 A3014 RMK SC1 SC TR SLP213

CYGK;2015-02-05 12:00;CYGK 051200Z 32005KT 15SM SCT055 M17/M19 A3019 RMK SC3 PRESRR SLP228

CYGK;2015-02-05 13:00;CYGK 051300Z 33006KT 15SM SCT053 SCT100 M18/M20 A3022 RMK SC3AC1 AC TR SLP241

CYGK;2015-02-05 14:00;CYGK 051400Z 34007KT 15SM BKN050 M16/M20 A3025 RMK SC5 SLP252

CYGK;2015-02-05 15:00;CYGK 051500Z 34012KT 15SM BKN053 M15/M20 A3028 RMK SC6 SLP259

CYGK;2015-02-05 16:00;CYGK 051600Z 35006KT 15SM FEW055 M14/M20 A3029 RMK SC2 SLP264

CYGK;2015-02-05 17:00;CYGK 051700Z 36007KT 15SM FEW025 M13/M20 A3028 RMK CF1 CF TR SLP262

CYGK;2015-02-05 18:00;CYGK 051800Z 33008KT 15SM FEW030 M12/M20 A3027 RMK CF1 SLP256

CYGK;2015-02-05 19:00;CYGK 051900Z 30007KT 15SM FEW035 M11/M20 A3025 RMK CF2 SLP251

CYGK;2015-02-05 20:00;CYGK 052000Z 29009KT 230V350 15SM FEW035 M11/M22 A3024 RMK CU1 SLP246

CYGK;2015-02-05 21:00;CYGK 052100Z 29006KT 15SM FEW040 M11/M22 A3024 RMK CF1 CF TR SLP246

CYGK;2015-02-05 22:00;CYGK 052200Z 27004KT 15SM FEW040 M12/M21 A3024 RMK CU1 SLP248

CYGK;2015-02-05 23:00;CYGK 052300Z 26006KT 15SM FEW040 M14/M21 A3024 RMK CU1 CU TR SLP249

CYGK;2015-02-06 00:00;CYGK 060000Z 26008KT 15SM SKC M14/M22 A3025 RMK SLP250

CYGK;2015-02-06 01:00;CYGK 060100Z 27007KT 15SM SKC M15/M23 A3025 RMK SLP253

CYGK;2015-02-06 02:00;CYGK 060200Z 24004KT 15SM SKC M17/M24 A3025 RMK SLP254

CYGK;2015-02-06 03:00;CYGK 060300Z VRB02KT 15SM SKC M19/M23 A3023 RMK SLP247

CYGK;2015-02-06 04:00;CYGK 060400Z 32002KT 15SM SKC M18/M23 A3021 RMK LAST STFD OBS/NEXT 061100 UTC SLP238

CYGK;2015-02-06 11:00;CYGK 061100Z 21015G20KT 2 1/2SM -SN SCT018 OVC025 M10/M11 A3002 RMK SN2SF1NS5 SLP172

CYGK;2015-02-06 11:32;CYGK 061132Z 21016G21KT 1SM -SN VV006 M10/M11 A3001 RMK SN8 SLP169

CYGK;2015-02-06 12:00;CYGK 061200Z 21013KT 3/4SM -SN VV005 M09/M11 A3000 RMK SN8 SLP166

CYGK;2015-02-06 12:35;CYGK 061235Z 23012KT 1SM -SN OVC023 M09/M10 A3000 RMK SN4NS4 SLP165

CYGK;2015-02-06 13:00;CYGK 061300Z 22010KT 1SM -SN VV009 M08/M10 A2999 RMK SN8 SLP163

CYGK;2015-02-06 13:30;CYGK 061330Z 25008KT 2SM -SN OVC025 M08/M10 A2999 RMK SN2NS6 SLP162

CYGK;2015-02-06 14:00;CYGK 061400Z 25011G16KT 2SM -SN OVC025 M09/M12 A2999 RMK SN7NS1 SLP162

CYGK;2015-02-06 14:12;CYGK 061412Z 25010G15KT 6SM -SN FEW015 SCT030 BKN075 M09/M12 A2998 RMK CF1SC3AC3 SLP160

CYGK;2015-02-06 15:00;CYGK 061500Z 24009KT 15SM -SN FEW015 FEW030 BKN075 M09/M13 A2999 RMK CF1SC1AC6 CF TR SLP163

CYGK;2015-02-06 16:00;CYGK 061600Z 24010G17KT 15SM FEW020 FEW055 BKN080 BKN250 M08/M13 A2998 RMK CF1SC2AC3CI2 CF TR SLP160

CYGK;2015-02-06 17:00;CYGK 061700Z 25009KT 15SM FEW020 BKN075 BKN250 M07/M12 A2997 RMK CF1AC5CI2 CF TR SLP157

CYGK;2015-02-06 18:00;CYGK 061800Z 24012KT 15SM FEW025 FEW048 BKN073 BKN250 M06/M11 A2996 RMK CF1SC2AC3CI1 CF TR SLP153

CYGK;2015-02-06 19:00;CYGK 061900Z 23013KT 15SM SCT029 SCT060 BKN250 M05/M10 A2995 RMK CU3SC1CI2 SLP149

CYGK;2015-02-06 20:00;CYGK 062000Z 24015KT 15SM FEW028 BKN041 BKN250 M05/M10 A2996 RMK CU1SC5CI1 SLP153

CYGK;2015-02-06 21:00;CYGK 062100Z 23013G19KT 12SM FEW030 FEW040 M05/M09 A2995 RMK CU1SC1 SLP149

CYGK;2015-02-06 22:00;CYGK 062200Z 24009KT 15SM FEW030 BKN065 BKN250 M05/M09 A2996 RMK CU1SC5CI1 CU TR SLP151

CYGK;2015-02-06 23:00;CYGK 062300Z 25010KT 15SM BKN056 BKN250 M06/M10 A2998 RMK SC5CI1 SLP159

CYGK;2015-02-07 00:00;CYGK 070000Z 25006KT 15SM FEW042 BKN060 M06/M09 A3001 RMK SC2SC5 SLP167

CYGK;2015-02-07 01:00;CYGK 070100Z 25006KT 15SM OVC056 M05/M10 A3001 RMK SC8 SLP167

CYGK;2015-02-07 02:00;CYGK 070200Z 26010G16KT 15SM BKN039 OVC140 M04/M10 A2999 RMK SC6AC2 SLP162

CYGK;2015-02-07 02:28;CYGK 070228Z 26013G19KT 15SM -SN SCT033 OVC043 M04/M09 A3000 RMK SC3SC5 SLP164

CYGK;2015-02-07 03:00;CYGK 070300Z 26016G23KT 15SM -SN BKN034 OVC043 M04/M09 A3000 RMK SC5SC3 SLP166

CYGK;2015-02-07 04:00;CYGK 070400Z 26011G20KT 15SM -SN OVC032 M04/M09 A3001 RMK SC8 LAST STFD OBS/NEXT 071100 UTC SLP167

CYGK;2015-02-07 11:00;CYGK 071100Z 03007KT 1SM -SN VV006 M09/M11 A3006 RMK SN8 SLP184

CYGK;2015-02-07 12:00;CYGK 071200Z 05010KT 3/4SM -SN VV006 M10/M12 A3007 RMK SN8 /S02/ SLP187

CYGK;2015-02-07 12:33;CYGK 071233Z 04010KT 1 1/2SM -SN VV012 M10/M12 A3006 RMK SN8 SLP186

CYGK;2015-02-07 13:00;CYGK 071300Z 04006KT 1 1/2SM -SN VV011 M10/M12 A3006 RMK SN8 SLP186

CYGK;2015-02-07 13:36;CYGK 071336Z 06007KT 1SM -SN VV009 M10/M12 A3005 RMK SN8 SLP183

CYGK;2015-02-07 13:47;CYGK 071347Z 06009KT 3/4SM -SN VV008 M10/M12 A3006 RMK SN8 SLP184

CYGK;2015-02-07 14:00;CYGK 071400Z 06006KT 3/4SM -SN VV008 M10/M12 A3005 RMK SN8 /S01/ SLP183

CYGK;2015-02-07 14:24;CYGK 071424Z 05007KT 1SM -SN VV010 M10/M13 A3004 RMK SN8 SLP179

CYGK;2015-02-07 14:40;CYGK 071440Z 06008KT 1 1/2SM -SN BKN025 M10/M13 A3004 RMK SN6SC1 SLP179

CYGK;2015-02-07 14:51;CYGK 071451Z 06007KT 2 1/2SM -SN BKN035 M10/M12 A3004 RMK SN5SC2 SLP177

CYGK;2015-02-07 15:00;CYGK 071500Z 06009KT 1 1/2SM -SN OVC030 M10/M13 A3004 RMK SN7SC1 SLP177

CYGK;2015-02-07 15:21;CYGK 071521Z 04009KT 3SM -SN OVC039 M10/M13 A3004 RMK SC8 SLP177

CYGK;2015-02-07 16:00;CYGK 071600Z 04009KT 6SM -SN OVC036 M11/M13 A3004 RMK SC8 SLP177

CYGK;2015-02-07 17:00;CYGK 071700Z 04008KT 4SM -SN OVC032 M10/M13 A3002 RMK SC8 /S02/ SLP170

CYGK;2015-02-07 18:00;CYGK 071800Z 04008KT 4SM -SN OVC027 M10/M13 A3000 RMK NS8 SLP164

CYGK;2015-02-07 19:00;CYGK 071900Z 04012KT 4SM -SN OVC025 M10/M13 A2998 RMK NS8 SLP159

CYGK;2015-02-07 20:00;CYGK 072000Z 04012KT 5SM -SN OVC023 M10/M13 A2999 RMK NS8 SLP160

CYGK;2015-02-07 21:00;CYGK 072100Z 04011G17KT 5SM -SN DRSN OVC023 M10/M14 A3000 RMK NS8 SLP166

CYGK;2015-02-07 22:00;CYGK 072200Z 05012KT 3SM -SN DRSN OVC024 M11/M14 A3001 RMK SC8 SLP169

CYGK;2015-02-07 22:33;CYGK 072233Z 04012KT 1 1/2SM -SN OVC023 M11/M14 A3002 RMK SC8 SLP174

CYGK;2015-02-07 23:00;CYGK 072300Z 05008KT 1 1/2SM -SN OVC022 M11/M14 A3003 RMK SN3SC5 SLP175

CYGK;2015-02-07 23:16;CYGK 072316Z 04011KT 2SM -SN OVC022 M11/M14 A3003 RMK SC8 SLP175

CYGK;2015-02-08 00:00;CYGK 080000Z 05010G16KT 2SM -SN OVC020 M12/M14 A3003 RMK SC8 SLP177

CYGK;2015-02-08 01:00;CYGK 080100Z 05014G20KT 1 1/4SM -SN OVC017 M12/M14 A3004 RMK SN3SC5 SLP179

CYGK;2015-02-08 02:00;CYGK 080200Z 04016G23KT 1 1/4SM -SN OVC020 M13/M15 A3004 RMK SC8 /S01/ SLP180

CYGK;2015-02-08 03:00;CYGK 080300Z 04014G21KT 1SM -SN DRSN OVC018 M13/M15 A3005 RMK SN4SC4 SLP182

CYGK;2015-02-08 03:20;CYGK 080320Z 04016G23KT 3/4SM -SN DRSN VV006 M13/M15 A3005 RMK SN8 SLP184

CYGK;2015-02-08 03:41;CYGK 080341Z 04013G22KT 1SM -SN DRSN VV008 M13/M15 A3004 RMK SN8 SLP180

CYGK;2015-02-08 04:00;CYGK 080400Z 04015G22KT 1 1/4SM -SN DRSN VV010 M13/M15 A3003 RMK SN8 /S02/LAST STFD OBS/NEXT 081100 UTC SLP175

CYGK;2015-02-08 11:00;CYGK 081100Z 04019G26KT 6SM -SN DRSN OVC027 M13/M16 A2993 RMK SC8 SLP143

CYGK;2015-02-08 12:00;CYGK 081200Z 03019G26KT 3SM -SN DRSN OVC024 M14/M17 A2994 RMK SC8 SLP145

CYGK;2015-02-08 13:00;CYGK 081300Z 04020G27KT 8SM -SN DRSN OVC022 M15/M18 A2994 RMK SC8 OCNL BLSN SLP146

CYGK;2015-02-08 14:00;CYGK 081400Z 04021G31KT 6SM -SN BLSN OVC018 M15/M18 A2991 RMK SC8 PRESFR SLP135

CYGK;2015-02-08 15:00;CYGK 081500Z 04019G28KT 2 1/2SM -FZRA -SN BLSN OVC018 M15/M18 A2993 RMK SC8 SLP144

CYGK;2015-02-08 15:38;CYGK 081538Z 03019G29KT 1 1/2SM -FZDZ -SN BLSN OVC018 M15/M17 A2992 RMK SC8 SLP140

CYGK;2015-02-08 16:00;CYGK 081600Z 05020KT 1 1/2SM -FZDZ -SN BLSN FEW012 OVC019 M15/M17 A2992 RMK SF2SC6 WND ESTD SLP140

CYGK;2015-02-08 17:00;CYGK 081700Z 05020G//KT 1 1/2SM -SN BLSN OVC018 M15/M17 A2990 RMK SN2SC6 WND ESTD SLP133

CYGK;2015-02-08 17:22;CYGK 081722Z 05025KT 1 1/2SM -FZDZ -SN BLSN SCT014 OVC018 M15/M18 A2990 RMK SN2SF1SC5 WND ESTD SLP133

CYGK;2015-02-08 18:00;CYGK 081800Z 05020G//KT 2SM -FZDZ -SN BLSN FEW012 OVC019 M15/M17 A2990 RMK SF1SC7 WND ESTD SLP132

CYGK;2015-02-08 19:00;CYGK 081900Z 05020KT 1 1/2SM -FZDZ -SN BLSN FEW011 SCT016 OVC023 M15/M18 A2989 RMK SF1SC2SC5 WND ESTD SLP130

CYGK;2015-02-08 20:00;CYGK 082000Z CCA 05020KT 1 1/2SM -SN DRSN FEW012 OVC021 M15/M17 A2991 RMK SF1SC7 WND ESTD SLP135

CYGK;2015-02-08 20:29;CYGK 082029Z 05020KT 1 1/2SM -FZDZ -SN DRSN FEW012 OVC022 M15/M17 A2991 RMK SF1SC7 WND ESTD SLP138

CYGK;2015-02-08 21:00;CYGK 082100Z 05020KT 2SM -FZDZ -SN DRSN FEW012 OVC021 M15/M17 A2991 RMK SF2SC6 WND ESTD SLP138

CYGK;2015-02-08 22:00;CYGK 082200Z 05025KT 2SM -FZDZ -SN DRSN FEW012 OVC023 M15/M17 A2994 RMK SF2SC6 WND ESTD SLP145

CYGK;2015-02-08 22:45;CYGK 082245Z 05025KT 2 1/2SM -FZDZ -SN DRSN FEW012 OVC025 M15/M17 A2995 RMK SF2SC6 WND ESTD SLP151

CYGK;2015-02-08 23:00;CYGK 082300Z 05025KT 2 1/2SM -FZDZ -SN DRSN FEW012 OVC022 M15/M17 A2997 RMK SF2SC6 WND ESTD PRESRR SLP157

CYGK;2015-02-08 23:43;CYGK 082343Z 05025KT 3SM -SN DRSN FEW013 OVC023 M15/M17 A2999 RMK SF2SC6 WND ESTD SLP163

CYGK;2015-02-09 00:00;CYGK 090000Z 05025KT 6SM -SN DRSN FEW015 OVC025 M15/M18 A3000 RMK SC2SC6 WND ESTD SLP165

CYGK;2015-02-09 01:00;CYGK 090100Z 05025KT 6SM -SN DRSN OVC024 M15/M18 A3000 RMK SC8 WND ESTD SLP168

CYGK;2015-02-09 02:00;CYGK 090200Z 05025KT 8SM -SN DRSN OVC025 M15/M18 A3002 RMK SC8 WND ESTD SLP174

CYGK;2015-02-09 03:00;CYGK 090300Z 05020KT 8SM -SN DRSN OVC027 M14/M17 A3002 RMK SC8 WND ESTD SLP173

CYGK;2015-02-09 04:00;CYGK 090400Z 05020KT 8SM -SN DRSN OVC030 M14/M17 A3002 RMK SC8 LAST STFD OBS/NEXT 091100 UTC WND ESTD SLP174

CYGK;2015-02-09 11:00;CYGK 091100Z 04017G27KT 12SM SCT015 OVC025 M14/M17 A3005 RMK CU4SC4 SLP183

CYGK;2015-02-09 11:25;CYGK 091125Z 02015G25KT 10SM -FZDZ SCT015 OVC025 M14/M17 A3006 RMK ST4SC4 SLP186

CYGK;2015-02-09 12:00;CYGK 091200Z 02016G22KT 8SM -FZDZ BKN015 OVC025 M15/M17 A3008 RMK ST5SC3 SLP193

CYGK;2015-02-09 12:33;CYGK 091233Z 04019G25KT 8SM SCT015 OVC023 M15/M17 A3008 RMK SF3SC5 SLP195

CYGK;2015-02-09 14:00;CYGK 091400Z 03017G22KT 6SM BR FEW015 OVC025 M15/M17 A3011 RMK SF2SC6 SLP204

CYGK;2015-02-09 15:00;CYGK 091500Z 04016G24KT 6SM BR OVC023 M14/M17 A3011 RMK SC8 SLP203

CYGK;2015-02-09 16:00;CYGK 091600Z 03016G23KT 8SM OVC028 M14/M17 A3012 RMK SC8 BR SLP206

CYGK;2015-02-09 17:00;CYGK 091700Z 03014KT 8SM OVC031 M14/M16 A3012 RMK SC8 BR SLP208

CYGK;2015-02-09 18:00;CYGK 091800Z 02013G19KT 8SM FEW010 OVC028 M13/M16 A3011 RMK SF1SC7 SLP202

CYGK;2015-02-09 19:00;CYGK 091900Z 03012G20KT 8SM FEW012 OVC026 M13/M16 A3011 RMK SF1SC7 SLP203

CYGK;2015-02-09 20:00;CYGK 092000Z 02012KT 10SM FEW012 OVC024 M13/M16 A3011 RMK SF1SC7 SLP205

CYGK;2015-02-09 20:24;CYGK 092024Z 03010G16KT 11SM -SN FEW012 OVC023 M13/M15 A3011 RMK SF1SC7 SLP205

CYGK;2015-02-09 21:00;CYGK 092100Z 03012KT 8SM -SN FEW012 OVC024 M13/M15 A3012 RMK SF1SC7 SLP208

CYGK;2015-02-09 22:00;CYGK 092200Z 02013G18KT 5SM -SN FEW010 OVC023 M13/M16 A3014 RMK SF2SC6 SLP215

CYGK;2015-02-09 23:00;CYGK 092300Z 03010G16KT 6SM -SN FEW010 FEW016 OVC022 M13/M15 A3015 RMK SF1SF1SC6 SLP216

CYGK;2015-02-10 00:00;CYGK 100000Z 02011KT 12SM FEW014 OVC023 M13/M15 A3016 RMK SF1SC7 SLP220

CYGK;2015-02-10 01:00;CYGK 100100Z 02011KT 15SM -SN FEW014 SCT021 OVC029 M13/M16 A3016 RMK SF1SC2SC5 SLP223

CYGK;2015-02-10 02:00;CYGK 100200Z 03011KT 15SM -SN OVC029 M13/M16 A3017 RMK SC8 SLP226

CYGK;2015-02-10 03:00;CYGK 100300Z 02010KT 15SM -SN BKN028 OVC033 M13/M15 A3018 RMK SC5SC3 SLP227

CYGK;2015-02-10 04:00;CYGK 100400Z 02011G18KT 15SM -SN OVC029 M13/M15 A3019 RMK SC8 LAST STFD OBS/NEXT 101100 UTC SLP231

CYGK;2015-02-10 11:00;CYGK 101100Z 01008KT 15SM BKN012 OVC030 M12/M14 A3022 RMK SC6SC2 SLP239

CYGK;2015-02-10 12:00;CYGK 101200Z 01006KT 15SM BKN014 OVC029 M12/M14 A3023 RMK SC6SC2 SLP244

CYGK;2015-02-10 13:00;CYGK 101300Z 02005KT 15SM OVC013 M11/M14 A3025 RMK SC8 PRESRR SLP251

CYGK;2015-02-10 13:35;CYGK 101335Z 02006KT 6SM -SN BKN010 OVC015 M11/M13 A3026 RMK ST5SC3 SLP255

CYGK;2015-02-10 14:00;CYGK 101400Z 01010KT 8SM -SN BKN010 OVC015 M11/M13 A3027 RMK SF6SC2 SLP257

CYGK;2015-02-10 15:00;CYGK 101500Z 03006KT 8SM -SN OVC010 M10/M12 A3028 RMK SF8 SLP262

CYGK;2015-02-10 16:00;CYGK 101600Z 02011KT 8SM -SN FEW013 BKN018 OVC025 M09/M12 A3028 RMK SF2SC5SC1 SLP260

CYGK;2015-02-10 17:00;CYGK 101700Z 02007KT 15SM -SN FEW015 OVC027 M08/M11 A3027 RMK SF2SC6 SLP257

CYGK;2015-02-10 18:00;CYGK 101800Z 03008KT 15SM -SN FEW015 OVC025 M07/M11 A3025 RMK SF1SC7 SLP251

CYGK;2015-02-10 19:00;CYGK 101900Z 05006KT 15SM FEW015 BKN024 M07/M11 A3025 RMK SF1SC6 SLP250

CYGK;2015-02-10 20:00;CYGK 102000Z 36003KT 320V060 15SM SCT024 M06/M11 A3024 RMK SC4 SLP247

CYGK;2015-02-10 21:00;CYGK 102100Z 00000KT 15SM FEW025 M06/M11 A3024 RMK SC1 SC TR SLP247

CYGK;2015-02-10 22:00;CYGK 102200Z 14006KT 15SM FEW025 FEW250 M07/M11 A3025 RMK SC1CI1 SC TR CI TR SLP251

CYGK;2015-02-10 23:00;CYGK 102300Z 15003KT 15SM FEW250 M11/M14 A3025 RMK CI1 CI TR SLP252

CYGK;2015-02-11 00:00;CYGK 110000Z 00000KT 15SM SKC M10/M12 A3026 RMK SLP254

CYGK;2015-02-11 01:00;CYGK 110100Z 35005KT 15SM SKC M11/M12 A3028 RMK SLP259

CYGK;2015-02-11 02:00;CYGK 110200Z 34006KT 15SM SKC M12/M14 A3028 RMK SLP261

CYGK;2015-02-11 03:00;CYGK 110300Z 35004KT 15SM SKC M13/M14 A3027 RMK SLP256

CYGK;2015-02-11 04:00;CYGK 110400Z 35003KT 15SM FEW240 M15/M16 A3025 RMK CI2 LAST STFD OBS/NEXT 111100 UTC SLP252

CYGK;2015-02-11 11:00;CYGK 111100Z 04006KT 15SM BKN250 M14/M18 A3016 RMK CI5 SLP220

CYGK;2015-02-11 12:00;CYGK 111200Z 06008KT 15SM FEW180 BKN220 M14/M17 A3015 RMK AC2CI5 SLP217

CYGK;2015-02-11 13:00;CYGK 111300Z 05008KT 15SM OVC180 M14/M17 A3016 RMK AS8 SLP220

CYGK;2015-02-11 14:00;CYGK 111400Z 05008KT 15SM FEW140 BKN180 OVC220 M13/M17 A3014 RMK AC2AC4CI2 SLP212

CYGK;2015-02-11 15:00;CYGK 111500Z 05010KT 15SM BKN140 BKN220 M12/M16 A3011 RMK AC5CI2 PRESFR SLP203

CYGK;2015-02-11 15:44;CYGK 111544Z 06007KT 15SM BKN007 OVC200 M11/M15 A3008 RMK SF5CI3 SLP194

CYGK;2015-02-11 16:00;CYGK 111600Z 06009KT 12SM BKN006 OVC200 M11/M15 A3006 RMK SF5CI3 PRESFR SLP188

CYGK;2015-02-11 17:00;CYGK 111700Z 07004KT 12SM BKN006 OVC180 M10/M12 A3004 RMK SF5AC3 SLP181

CYGK;2015-02-11 17:25;CYGK 111725Z 10006KT 12SM SCT005 BKN120 OVC200 M10/M12 A3001 RMK SF4AC2CI2 PRESFR SLP171

CYGK;2015-02-11 18:00;CYGK 111800Z 07003KT 030V100 12SM SCT005 BKN150 BKN200 M08/M11 A2999 RMK SF3AC3CI1 SLP162

CYGK;2015-02-11 19:00;CYGK 111900Z 14007KT 090V170 15SM FEW012 BKN150 BKN200 M07/M10 A2994 RMK CU2AC3CI2 SLP147

CYGK;2015-02-11 20:00;CYGK 112000Z 11008KT 15SM FEW012 BKN110 BKN200 M07/M11 A2991 RMK CU1AC4CI2 SLP134

CYGK;2015-02-11 21:00;CYGK 112100Z 10005KT 15SM SCT080 M07/M11 A2989 RMK AC3 SLP127

CYGK;2015-02-11 22:00;CYGK 112200Z 07005KT 15SM OVC060 M07/M10 A2988 RMK SC8 SLP125

CYGK;2015-02-11 22:22;CYGK 112222Z 09004KT 10SM -SN BKN035 OVC060 M07/M10 A2987 RMK SC7SC1 PRESFR SLP121

CYGK;2015-02-11 23:00;CYGK 112300Z 10003KT 6SM -SN VV018 M06/M10 A2987 RMK SN8 SLP121

CYGK;2015-02-11 23:13;CYGK 112313Z 08003KT 1 1/2SM -SN VV010 M06/M09 A2986 RMK SN8 SLP119

CYGK;2015-02-11 23:27;CYGK 112327Z 10004KT 1SM -SN VV009 M07/M09 A2985 RMK SN8 SLP116

CYGK;2015-02-11 23:50;CYGK 112350Z 10004KT 3/4SM -SN VV006 M07/M08 A2985 RMK SN8 SLP114

CYGK;2015-02-12 00:00;CYGK 120000Z 09004KT 3/4SM -SN VV006 M07/M08 A2985 RMK SN8 /S01/ SLP114

CYGK;2015-02-12 00:15;CYGK 120015Z 10006KT 1SM -SN VV009 M07/M08 A2984 RMK SN8 SLP111

CYGK;2015-02-12 00:21;CYGK 120021Z 10005KT 1 1/2SM -SN VV010 M07/M08 A2984 RMK SN8 SLP111

CYGK;2015-02-12 00:30;CYGK 120030Z 09005KT 1SM -SN VV006 M07/M08 A2984 RMK SN8 SLP110

CYGK;2015-02-12 00:50;CYGK 120050Z 10006KT 1 1/2SM -SN VV007 M07/M08 A2982 RMK SN8 SLP106

CYGK;2015-02-12 01:00;CYGK 120100Z 10005KT 1 1/2SM -SN VV009 M07/M08 A2982 RMK SN8 SLP106

CYGK;2015-02-12 02:00;CYGK 120200Z 11005KT 3SM -SN OVC006 M07/M08 A2981 RMK SF8 /S03/ SLP100

CYGK;2015-02-12 02:10;CYGK 120210Z 11005KT 5SM -SN OVC004 M07/M08 A2980 RMK SF8 SLP099

CYGK;2015-02-12 02:39;CYGK 120239Z 08003KT 1 1/2SM -SN OVC006 M06/M07 A2979 RMK SN6SF2 SLP095

CYGK;2015-02-12 03:00;CYGK 120300Z 05002KT 4SM -SN OVC004 M06/M07 A2978 RMK SF8 SLP092

CYGK;2015-02-12 03:24;CYGK 120324Z 09002KT 5SM -SN OVC003 M06/M06 A2976 RMK SF8 SLP085

CYGK;2015-02-12 04:00;CYGK 120400Z 19009KT 140V200 5SM -SN OVC002 M02/M03 A2975 RMK SF8 LAST STFD OBS/NEXT 121100UTC SLP081

CYGK;2015-02-12 11:00;CYGK 121100Z 28009KT 8SM -SN SCT012 OVC080 M04/M06 A2974 RMK SC4AC4 /SO5/ AFT 00 UTC SLP076

CYGK;2015-02-12 12:00;CYGK 121200Z 29011G16KT 10SM SCT014 OVC090 M05/M07 A2976 RMK SC3AC5 PRESRR SLP083

CYGK;2015-02-12 13:00;CYGK 121300Z 28009KT 15SM -SN FEW014 BKN090 M06/M10 A2978 RMK SC1AC7 SC TR PCPN VRY LGT SLP089

CYGK;2015-02-12 13:29;CYGK 121329Z 29008KT 15SM FEW015 BKN090 BKN240 M06/M10 A2978 RMK SC1AC5CI1 SC TR SLP091

CYGK;2015-02-12 14:00;CYGK 121400Z 27007KT 15SM FEW015 SCT085 M05/M10 A2979 RMK CU1AC2 VIRGA SE SLP092

CYGK;2015-02-12 15:03;CYGK 121503Z 35012KT 15SM -SHSN BKN014 BKN090 M08/M12 A2981 RMK CU6AC1 WSHFT 1450 SLP099

CYGK;2015-02-12 15:24;CYGK 121524Z 36010KT 6SM -SHSN SCT014 OVC028 M09/M12 A2981 RMK CF3CU5 SLP100

CYGK;2015-02-12 16:00;CYGK 121600Z 35011KT 10SM -SHSN FEW014 OVC025 M09/M12 A2982 RMK CF2CU6 SLP105

CYGK;2015-02-12 17:00;CYGK 121700Z 35009G15KT 12SM FEW018 BKN027 BKN050 M08/M12 A2982 RMK CU1SC5SC1 SLP102

CYGK;2015-02-12 18:00;CYGK 121800Z 34012KT 4SM -SN FEW020 OVC040 M08/M12 A2982 RMK CU2SC6 SLP104

CYGK;2015-02-12 18:18;CYGK 121818Z 33013G18KT 1SM -SHSN DRSN OVC018 M09/M12 A2982 RMK CU8 SLP105

CYGK;2015-02-12 19:00;CYGK 121900Z 33014G19KT 1 1/4SM -SHSN DRSN OVC013 M10/M14 A2984 RMK SN5CU3 VIS VRB 3/4-13/4 SLP110

CYGK;2015-02-12 19:19;CYGK 121919Z 35014KT 8SM SCT013 BKN240 M11/M15 A2985 RMK CU3CI4 SLP113

CYGK;2015-02-12 20:00;CYGK 122000Z 34012KT 9SM DRSN FEW015 SCT040 OVC270 M11/M15 A2987 RMK CU1SC3CI4 SLP119

CYGK;2015-02-12 20:04;CYGK 122004Z 35015KT 8SM -SHSN DRSN SCT020 BKN040 BKN100 M11/M15 A2987 RMK CU3SC2AC2 SLP120

CYGK;2015-02-12 21:00;CYGK 122100Z 33013KT 12SM -SN DRSN FEW020 BKN025 BKN100 M11/M16 A2990 RMK CF1SC5AC2 CF TR SLP133

CYGK;2015-02-12 22:00;CYGK 122200Z 33016KT 6SM -SN DRSN BKN024 OVC060 M13/M18 A2994 RMK SC5SC3 SLP146

CYGK;2015-02-12 23:00;CYGK 122300Z 34013KT 4SM -SN DRSN SCT024 OVC040 M14/M19 A2999 RMK SC4SC4 SLP162

CYGK;2015-02-13 00:00;CYGK 130000Z 32017KT 10SM -SN DRSN FEW024 SCT040 OVC075 M15/M20 A3003 RMK SC1SC2AC5 SLP176

CYGK;2015-02-13 01:00;CYGK 130100Z 32013G20KT 10SM -SN DRSN FEW024 BKN032 OVC055 M17/M22 A3008 RMK SC1SC4SC3 SLP191

CYGK;2015-02-13 02:00;CYGK 130200Z 32011G16KT 12SM -SN DRSN FEW026 BKN038 OVC070 M17/M23 A3010 RMK SC1SC4AC3 SLP201

CYGK;2015-02-13 03:00;CYGK 130300Z 33009KT 10SM -SN DRSN FEW016 BKN024 OVC070 M19/M23 A3011 RMK SF1SC5AC2 SLP204

CYGK;2015-02-13 04:00;CYGK 130400Z 33009KT 15SM -SN FEW024 BKN075 M19/M25 A3013 RMK SC2AC4 LAST STFD OBS/NEXT 121100 UTC SLP209

CYGK;2015-02-13 11:00;CYGK 131100Z 31005KT 15SM SKC M25/M29 A3022 RMK SLP242

CYGK;2015-02-13 12:00;CYGK 131200Z 28005KT 15SM FEW080 M25/M29 A3024 RMK AC1 AC TR PRESRR SLP251

CYGK;2015-02-13 13:00;CYGK 131300Z 24004KT 15SM SKC M25/M29 A3026 RMK SLP258

CYGK;2015-02-13 14:00;CYGK 131400Z 30004KT 270V350 15SM SKC M24/M29 A3028 RMK SLP262

CYGK;2015-02-13 15:00;CYGK 131500Z 33003KT 280V360 15SM SKC M23/M29 A3028 RMK SLP263

CYGK;2015-02-13 16:00;CYGK 131600Z 21008KT 15SM FEW250 M22/M28 A3027 RMK CI1 CI TR SLP261

CYGK;2015-02-13 17:00;CYGK 131700Z 21008KT 15SM FEW250 M21/M27 A3025 RMK CI1 CI TR SLP253

CYGK;2015-02-13 18:00;CYGK 131800Z 22008KT 15SM FEW250 M20/M28 A3022 RMK CI1 SLP243

CYGK;2015-02-13 19:00;CYGK 131900Z 22007KT 15SM FEW250 M19/M27 A3020 RMK CI2 SLP235

CYGK;2015-02-13 20:00;CYGK 132000Z 23007KT 15SM FEW250 M18/M27 A3018 RMK CI2 SLP229

CYGK;2015-02-13 21:00;CYGK 132100Z 23006KT 15SM FEW250 M18/M27 A3016 RMK CI1 SLP224

CYGK;2015-02-13 22:00;CYGK 132200Z 21005KT 15SM SCT130 BKN200 M18/M27 A3014 RMK AC3CI4 SLP217

CYGK;2015-02-13 23:00;CYGK 132300Z 23003KT 15SM SCT060 OVC180 M18/M26 A3012 RMK SC3AC5 SLP211

CYGK;2015-02-14 00:00;CYGK 140000Z 21002KT 15SM FEW060 BKN180 OVC180 M18/M26 A3011 RMK SC2AC3AC3 SLP208

CYGK;2015-02-14 02:00;CYGK 140200Z 10005KT 15SM FEW030 SCT060 OVC120 M19/M25 A3006 RMK SC2SC2AC4 SLP189

CYGK;2015-02-14 03:00;CYGK 140300Z 11007KT 15SM SCT035 OVC080 M17/M22 A3003 RMK SC3AC5 SLP179

CYGK;2015-02-14 03:23;CYGK 140323Z 11006KT 10SM -SN SCT030 OVC060 M17/M21 A3001 RMK SC4SC4 SLP173

CYGK;2015-02-14 03:38;CYGK 140338Z 12007KT 6SM -SN SCT010 OVC035 M17/M20 A3000 RMK CU3SC5 SLP170

CYGK;2015-02-14 04:00;CYGK 140400Z 12007KT 6SM -SN FEW010 OVC025 M16/M18 A2999 RMK CU2SC6 LAST STFD OBS/NEXT 141115Z SLP165

CYGK;2015-02-14 11:00;CYGK 141100Z 15020G26KT 3/8SM SN BLSN OVC012 M10/M12 A2965 RMK SN6NS2 /S06 AFT 00UTC/ SLP048

CYGK;2015-02-14 12:00;CYGK 141200Z 16020KT 1/4SM SN BLSN VV004 M10/M11 A2961 RMK SN8 SLP035

CYGK;2015-02-14 12:08;CYGK 141208Z 19021KT 1/2SM SN BLSN OVC008 M07/M07 A2962 RMK SN6NS2 SLP036

CYGK;2015-02-14 12:47;CYGK 141247Z 19020G26KT 1/4SM +SN BLSN VV004 M06/M07 A2960 RMK SN8 SLP031

CYGK;2015-02-14 13:00;CYGK 141300Z 20020G26KT 1/8SM +SN BLSN VV003 M06/M07 A2960 RMK SN8 SLP029

CYGK;2015-02-14 13:07;CYGK 141307Z 25011G25KT 190V260 1/4SM +SN BLSN VV004 M07/M08 A2960 RMK SN8 SLP032

CYGK;2015-02-14 13:18;CYGK 141318Z 25005KT 1/8SM +SN VV002 M07/M08 A2960 RMK SN8 SLP031

CYGK;2015-02-14 13:32;CYGK 141332Z 25003KT 3/8SM SN VV005 M07/M08 A2960 RMK SN8 SLP029

CYGK;2015-02-14 14:00;CYGK 141400Z 25004KT 3/8SM SN VV005 M07/M08 A2959 RMK SN8 /S03/ SLP027

CYGK;2015-02-14 14:32;CYGK 141432Z 24004KT 1/2SM SN VV006 M07/M08 A2957 RMK SN8 SLP022

CYGK;2015-02-14 14:45;CYGK 141445Z 23005KT 3/4SM -SN VV007 M07/M08 A2957 RMK SN8 SLP020

CYGK;2015-02-14 15:00;CYGK 141500Z 21004KT 3/4SM -SN VV008 M07/M08 A2957 RMK SN8 SLP018

CYGK;2015-02-14 16:00;CYGK 141600Z 17005KT 2 1/4SM -SN OVC030 M07/M08 A2956 RMK SN2NS6 /S04/ SLP015

CYGK;2015-02-14 16:27;CYGK 141627Z 15006KT 3SM -SN OVC030 M07/M08 A2955 RMK NS8 SLP013

CYGK;2015-02-14 17:00;CYGK 141700Z 16006KT 4SM -SN OVC028 M07/M08 A2954 RMK NS8 SLP009

CYGK;2015-02-14 18:00;CYGK 141800Z 16007KT 5SM -SHSN SCT028TCU OVC058 M07/M08 A2952 RMK TCU3SC5 SLP002

CYGK;2015-02-14 19:00;CYGK 141900Z 15004KT 3SM -SHSN BKN025TCU OVC042 M07/M08 A2951 RMK TCU6SC2 VIS LWR N SLP998

CYGK;2015-02-14 19:18;CYGK 141918Z 16004KT 2 1/2SM -SHSN OVC020TCU M07/M08 A2951 RMK TCU8 VIS S 4 SLP997

CYGK;2015-02-14 20:00;CYGK 142000Z 20003KT 3SM -SHSN SCT020 OVC040 M07/M08 A2951 RMK CU4SC4 SLP999

CYGK;2015-02-14 20:32;CYGK 142032Z 20003KT 2SM -SHSN OVC020 M07/M08 A2952 RMK SN3CU5 VIS N 1 S 4 SLP002

CYGK;2015-02-14 20:42;CYGK 142042Z 22002KT 1SM -SHSN BKN006 OVC020TCU M07/M08 A2952 RMK SN4SF3TCU1 SLP003

CYGK;2015-02-14 21:00;CYGK 142100Z 24002KT 3/4SM -SHSN OVC014TCU M07/M08 A2953 RMK SN6TCU2 /S02/ SLP005

CYGK;2015-02-14 21:05;CYGK 142105Z VRB02KT 1SM -SHSN OVC013TCU M07/M08 A2953 RMK SN4TCU4 SLP007

CYGK;2015-02-14 21:21;CYGK 142121Z 02011KT 250V040 3/4SM -SHSN OVC012TCU M07/M09 A2953 RMK SN6TCU2 SLP007

CYGK;2015-02-14 21:33;CYGK 142133Z 36013KT 1SM -SHSN OVC011TCU M08/M10 A2954 RMK SN4TCU4 VIS VRB 3/4-11/4 SLP008

CYGK;2015-02-14 22:00;CYGK 142200Z 36020G26KT 1 1/2SM -SHSN BKN012 OVC030 M09/M12 A2955 RMK CU6SC2 SLP013

CYGK;2015-02-14 22:12;CYGK 142212Z 01016G23KT 3SM -SHSN SCT012 OVC028 M09/M12 A2956 RMK CU4SC4 SLP016

CYGK;2015-02-14 23:00;CYGK 142300Z 01011KT 6SM -SN FEW012 BKN028 OVC050 M10/M13 A2960 RMK CU2SC4SC2 SLP029

CYGK;2015-02-15 00:00;CYGK 150000Z 36012KT 8SM -SN FEW031 OVC050 M11/M14 A2963 RMK SC2SC6 SLP040

CYGK;2015-02-15 01:00;CYGK 150100Z 01013KT 4SM -SN SCT021 OVC046 M12/M15 A2967 RMK SC4SC4 SLP053

CYGK;2015-02-15 02:00;CYGK 150200Z 34014KT 6SM -SN FEW019 OVC055 M13/M16 A2971 RMK SC2SC6 PRESRR SLP068

CYGK;2015-02-15 03:00;CYGK 150300Z 36012KT 8SM -SN OVC059 M14/M17 A2975 RMK SC8 SLP081

CYGK;2015-02-15 03:26;CYGK 150326Z 36010G15KT 1 1/2SM -SN SCT020 OVC060 M14/M16 A2975 RMK SC4SC4 SLP081

CYGK;2015-02-15 04:00;CYGK 150400Z 35010KT 1 1/2SM -SN BKN017 OVC055 M13/M16 A2976 RMK SC6SC2 LAST STFD OBS/NEXT 151100 UTC SLP085

CYGK;2015-02-15 11:00;CYGK 151100Z 34020G27KT 15SM BLSN BKN130 M21/M26 A3002 RMK AC7 SLP176

CYGK;2015-02-15 12:00;CYGK 151200Z 34016G25KT 15SM BLSN SCT050 BKN130 M22/M27 A3008 RMK SC4AC3 SLP193

CYGK;2015-02-15 13:00;CYGK 151300Z 36017G22KT 15SM BLSN FEW050 SCT130 M23/M28 A3012 RMK SC1AC2 SLP208

CYGK;2015-02-15 14:00;CYGK 151400Z 35012KT 15SM DRSN BKN050 BKN130 BKN250 M23/M29 A3015 RMK SC5AC1CI1 SLP220

CYGK;2015-02-15 15:00;CYGK 151500Z 35018G23KT 15SM DRSN FEW060 SCT240 M23/M29 A3018 RMK SC1CI2 SLP229

CYGK;2015-02-15 16:00;CYGK 151600Z 35014G19KT 15SM DRSN FEW020 M22/M29 A3020 RMK CF1 CF TR SLP235

CYGK;2015-02-15 17:00;CYGK 151700Z 34012G18KT 15SM FEW020 M20/M28 A3020 RMK CF1 CF TR SLP235

CYGK;2015-02-15 18:00;CYGK 151800Z 33011G17KT 15SM FEW020 M19/M28 A3020 RMK CF1 CF TR SLP234

CYGK;2015-02-15 19:00;CYGK 151900Z 31010G18KT 15SM FEW020 M18/M27 A3019 RMK CF1 CF TR SLP232

CYGK;2015-02-15 20:00;CYGK 152000Z 32012G20KT 15SM FEW020 M17/M26 A3017 RMK CF1 CF TR SLP227

CYGK;2015-02-15 21:00;CYGK 152100Z 32014KT 15SM DRSN FEW020 M17/M26 A3017 RMK CF1 CF TR SLP226

CYGK;2015-02-15 22:00;CYGK 152200Z 33018G24KT 15SM FEW020 FEW030 M18/M26 A3019 RMK CF1SC2 CF TR SLP231

CYGK;2015-02-15 23:00;CYGK 152300Z 32012G19KT 15SM DRSN FEW020 FEW035 M19/M26 A3022 RMK CF1SC1 CF TR SC TR SLP243

CYGK;2015-02-16 00:00;CYGK 160000Z 32009KT 15SM FEW038 M20/M27 A3025 RMK SC1 SC TR SLP254

CYGK;2015-02-16 01:00;CYGK 160100Z 33014G21KT 15SM SKC M20/M28 A3027 RMK SLP261

CYGK;2015-02-16 02:00;CYGK 160200Z 32010KT 15SM SKC M21/M28 A3028 RMK SLP266

CYGK;2015-02-16 03:00;CYGK 160300Z 31008KT 15SM SKC M22/M28 A3030 RMK SLP270

CYGK;2015-02-16 04:00;CYGK 160400Z 31010KT 15SM SKC M22/M28 A3029 RMK LAST STFD OBS/NEXT 161100 UTC SLP268

CYGK;2015-02-16 11:00;CYGK 161100Z 28004KT 15SM SKC M26/M31 A3031 RMK SLP276

CYGK;2015-02-16 12:00;CYGK 161200Z 28003KT 15SM SKC M26/M31 A3032 RMK SLP279

CYGK;2015-02-16 13:00;CYGK 161300Z 31004KT 15SM FEW100 M27/M32 A3032 RMK AC1 AC TR SLP279

CYGK;2015-02-16 14:00;CYGK 161400Z VRB02KT 15SM FEW100 FEW250 M25/M31 A3032 RMK AC1CI1 AC TR CI TR SLP279

CYGK;2015-02-16 15:00;CYGK 161500Z 32004KT 15SM FEW100 FEW250 M22/M31 A3034 RMK AC1CI2 AC TR SLP283

CYGK;2015-02-16 15:28;CYGK 161528Z 21008KT 15SM FEW100 FEW250 M22/M29 A3033 RMK AC1CI1 AC TR WSHFT 1514 SLP282

CYGK;2015-02-16 16:00;CYGK 161600Z 22006KT 15SM FEW250 M22/M28 A3032 RMK CI2 SLP278

CYGK;2015-02-16 17:00;CYGK 161700Z 21007KT 15SM FEW160 SCT250 M20/M28 A3029 RMK AC2CI2 SLP268

CYGK;2015-02-16 18:00;CYGK 161800Z 20007KT 15SM FEW160 FEW250 M19/M28 A3026 RMK AC1CI1 SLP259

CYGK;2015-02-16 19:00;CYGK 161900Z 19008KT 15SM FEW160 FEW250 M18/M27 A3025 RMK AC1CI1 SLP252

CYGK;2015-02-16 20:00;CYGK 162000Z 22008KT 15SM FEW250 M17/M26 A3022 RMK CI1 SLP243

CYGK;2015-02-16 21:00;CYGK 162100Z 19008KT 15SM FEW250 M18/M24 A3020 RMK CI1 SLP237

CYGK;2015-02-16 22:00;CYGK 162200Z 15006KT 15SM FEW250 M19/M25 A3018 RMK CI1 SLP231

CYGK;2015-02-16 23:00;CYGK 162300Z 15006KT 15SM FEW140 FEW250 M21/M25 A3016 RMK AC1CI1 AC TR SLP224

CYGK;2015-02-17 00:00;CYGK 170000Z 14007KT 15SM FEW250 M21/M25 A3015 RMK CI1 SLP221

CYGK;2015-02-17 01:00;CYGK 170100Z 09002KT 15SM FEW030 FEW250 M22/M25 A3014 RMK SC1CI1 SLP216

CYGK;2015-02-17 02:00;CYGK 170200Z 00000KT 15SM FEW015 FEW030 SCT250 M22/M24 A3012 RMK CF1SC1CI3 CF TR SLP212

CYGK;2015-02-17 03:00;CYGK 170300Z VRB02KT 15SM FEW015 SCT120 BKN250 M24/M26 A3011 RMK CF1AC4CI1 CF TR SLP207

CYGK;2015-02-17 04:00;CYGK 170400Z 03002KT 15SM FEW015 BKN120 BKN250 M24/M27 A3010 RMK CF1AC6CI1 CF TR LAST STFD OBS/NEXT 171100 UTC SLP202

CYGK;2015-02-17 11:00;CYGK 171100Z 06004KT 15SM BKN110 M23/M25 A2997 RMK AC7 SLP158

CYGK;2015-02-17 12:00;CYGK 171200Z 05004KT 15SM OVC110 M21/M24 A2996 RMK AC8 SLP156

CYGK;2015-02-17 13:00;CYGK 171300Z 05004KT 15SM OVC110 M20/M23 A2996 RMK AC8 SLP155

CYGK;2015-02-17 14:00;CYGK 171400Z 05003KT 15SM FEW025 BKN110 M18/M22 A2996 RMK CF1AC7 CF TR SLP155

CYGK;2015-02-17 15:00;CYGK 171500Z 07002KT 15SM OVC110 M15/M22 A2996 RMK AC8 SLP153

CYGK;2015-02-17 16:00;CYGK 171600Z 17004KT 15SM VCSH BKN065 BKN110 M14/M19 A2994 RMK SC6AC1 SLP148

CYGK;2015-02-17 17:00;CYGK 171700Z 16004KT 15SM OVC068 M14/M21 A2992 RMK AC8 SLP140

CYGK;2015-02-17 18:00;CYGK 171800Z 16005KT 15SM BKN058 BKN100 M13/M25 A2990 RMK SC5AC2 SLP134

CYGK;2015-02-17 19:00;CYGK 171900Z 16005KT 15SM FEW030 BKN055 OVC100 M13/M24 A2990 RMK CU1SC5AC3 CU TR SLP133

CYGK;2015-02-17 20:00;CYGK 172000Z 16005KT 15SM FEW030 FEW100 BKN230 M13/M24 A2989 RMK CU1AC1CI4 CU TR SLP130

CYGK;2015-02-17 21:00;CYGK 172100Z 18004KT 15SM FEW030 SCT093 BKN230 M13/M22 A2989 RMK CU1AC4CI3 CU TR SLP130

CYGK;2015-02-17 22:00;CYGK 172200Z 14004KT 15SM SCT090 BKN110 BKN230 M14/M22 A2988 RMK AC3AC2CI2 SLP129

CYGK;2015-02-17 23:00;CYGK 172300Z 12004KT 15SM BKN075 BKN110 M14/M21 A2989 RMK AC5AC2 SLP131

CYGK;2015-02-18 00:00;CYGK 180000Z 13004KT 15SM BKN075 OVC110 M14/M19 A2990 RMK AC6AC2 SLP134

CYGK;2015-02-18 01:00;CYGK 180100Z 11003KT 15SM OVC075 M14/M19 A2989 RMK AC8 SLP131

CYGK;2015-02-18 02:00;CYGK 180200Z 07003KT 060V130 15SM OVC078 M14/M19 A2990 RMK AC8 SLP132

CYGK;2015-02-18 03:00;CYGK 180300Z 09002KT 15SM BKN078 M15/M19 A2990 RMK AC7 SLP132

CYGK;2015-02-18 04:00;CYGK 180400Z 12004KT 15SM SCT045 BKN063 M15/M19 A2989 RMK SC4SC3 LAST STFD OBS/NEXT 181100 UTC SLP131

CYGK;2015-02-18 11:00;CYGK 181100Z 15012KT 2 1/2SM -SN VV012 M12/M13 A2983 RMK SN8 SLP108

CYGK;2015-02-18 12:00;CYGK 181200Z 13005KT 2 1/2SM -SN VV013 M12/M13 A2982 RMK SN8 SLP105

CYGK;2015-02-18 12:31;CYGK 181231Z 16013KT 1SM -SN VV007 M12/M13 A2982 RMK SN8 SLP104

CYGK;2015-02-18 13:00;CYGK 181300Z 14011KT 12SM -SN FEW015 BKN040 M12/M15 A2982 RMK CU2SC5 SLP104

CYGK;2015-02-18 13:14;CYGK 181314Z 14009KT 15SM VCSH SCT020 BKN040 M13/M16 A2982 RMK CU3SC4 SLP106

CYGK;2015-02-18 14:00;CYGK 181400Z 13010KT 15SM FEW020 BKN045 OVC250 M12/M16 A2981 RMK CU2SC4CI2 SLP103

CYGK;2015-02-18 15:00;CYGK 181500Z 14010KT 15SM SCT025 OVC040 M10/M14 A2979 RMK CU3SC5 SLP096

CYGK;2015-02-18 15:31;CYGK 181531Z 15011KT 10SM -SHSN BKN025 OVC050 M10/M13 A2978 RMK CU6SC2 VIS W 5 VIS NE 15 SLP093

CYGK;2015-02-18 16:00;CYGK 181600Z 16012KT 10SM -SHSN BKN023 OVC052 M10/M13 A2978 RMK CU5SC3 SLP091

CYGK;2015-02-18 16:43;CYGK 181643Z 16014KT 1 1/4SM -SHSN VV013 M09/M11 A2977 RMK SN8 VIS NE 3 SLP086

CYGK;2015-02-18 17:00;CYGK 181700Z 16014KT 4SM -SHSN SCT018 OVC040 M08/M11 A2976 RMK CU4SC4 SLP083

CYGK;2015-02-18 18:00;CYGK 181800Z 16011KT 12SM -SHSN BKN018 M07/M10 A2972 RMK CU7 SLP071

CYGK;2015-02-18 19:00;CYGK 181900Z 20013KT 12SM -SHSN FEW025 BKN060 BKN120 M06/M12 A2970 RMK CU2SC4AC1 SLP065

CYGK;2015-02-18 19:41;CYGK 181941Z 20014KT 12SM FEW025 OVC045 M06/M12 A2970 RMK CU1SC7 SLP064

CYGK;2015-02-18 19:51;CYGK 181951Z 24014KT 10SM -SHSN SCT025 OVC043 M07/M10 A2970 RMK CU4SC4 SLP064

CYGK;2015-02-18 20:00;CYGK 182000Z 24011G18KT 10SM -SHSN DRSN SCT025 OVC043 M07/M10 A2970 RMK CU4SC4 VIS N 3 SLP064

CYGK;2015-02-18 21:00;CYGK 182100Z 24008KT 10SM -SHSN FEW025 BKN036 OVC070 M07/M11 A2970 RMK CU2SC4AC2 VIS LWR N SLP063

CYGK;2015-02-18 21:06;CYGK 182106Z 22007KT 3SM -SHSN VV013 M07/M10 A2970 RMK SN8 SLP063

CYGK;2015-02-18 21:25;CYGK 182125Z 22008KT 5SM -SHSN VV023 M07/M10 A2970 RMK SN8 SLP065

CYGK;2015-02-18 22:00;CYGK 182200Z 22005KT 8SM -SHSN OVC040 M07/M11 A2971 RMK SC8 SLP066

CYGK;2015-02-18 23:00;CYGK 182300Z 22002KT 12SM -SHSN OVC043 M07/M11 A2973 RMK SC8 SLP074

CYGK;2015-02-19 00:00;CYGK 190000Z 24004KT 190V280 6SM -SHSN BKN030 OVC039 M07/M11 A2976 RMK CU5SC3 SLP083

CYGK;2015-02-19 01:00;CYGK 190100Z 31007KT 10SM -SHSN BKN030 OVC050 M08/M13 A2976 RMK CU5SC3 SLP084

CYGK;2015-02-19 01:44;CYGK 190144Z 32005KT 15SM SCT030 OVC070 M08/M15 A2976 RMK CU3AC5 SLP083

CYGK;2015-02-19 02:00;CYGK 190200Z 33005KT 15SM FEW030 OVC058 M08/M15 A2975 RMK CU2SC6 SLP081

CYGK;2015-02-19 03:00;CYGK 190300Z 33006KT 15SM OVC062 M09/M17 A2974 RMK SC8 SLP076

CYGK;2015-02-19 04:00;CYGK 190400Z 32006KT 15SM OVC070 M10/M16 A2974 RMK AC8 LAST STFD OBS/NEXT 191100 UTC SLP076

CYGK;2015-02-19 11:00;CYGK 191100Z 30009KT 15SM OVC100 M14/M18 A2979 RMK AC8 SLP096

CYGK;2015-02-19 12:00;CYGK 191200Z 31009KT 15SM BKN100 OVC220 M16/M19 A2982 RMK AC7CI1 SLP103

CYGK;2015-02-19 13:00;CYGK 191300Z 30011G18KT 15SM BKN110 BKN220 M16/M21 A2984 RMK AC5CI2 SLP111

CYGK;2015-02-19 14:00;CYGK 191400Z 31016G21KT 15SM BKN100 BKN220 M17/M22 A2985 RMK AC5CI2 SLP116

CYGK;2015-02-19 15:00;CYGK 191500Z 30012G17KT 15SM BKN110 OVC220 M17/M22 A2985 RMK AC6CI2 SLP117

CYGK;2015-02-19 16:00;CYGK 191600Z 29011KT 15SM SCT110 BKN220 M16/M23 A2986 RMK AC3CI2 SLP120

CYGK;2015-02-19 17:00;CYGK 191700Z 29010G15KT 15SM DRSN FEW220 M15/M23 A2987 RMK CI1 SLP121

CYGK;2015-02-19 18:00;CYGK 191800Z 28011G17KT 250V320 15SM DRSN FEW250 M14/M23 A2986 RMK CI1 SLP118

CYGK;2015-02-19 19:00;CYGK 191900Z CCA 29009G16KT 15SM DRSN FEW120 M13/M22 A2985 RMK AC1 AC TR SLP117

CYGK;2015-02-19 20:00;CYGK 192000Z 27014G19KT 15SM DRSN FEW230 M13/M22 A2986 RMK CI1 SLP118

CYGK;2015-02-19 21:00;CYGK 192100Z 25014G20KT 15SM DRSN FEW030 SCT230 M14/M22 A2988 RMK CU1CI3 CU TR SLP124

CYGK;2015-02-19 22:00;CYGK 192200Z 26012G19KT 15SM DRSN FEW030 FEW060 SCT230 M15/M23 A2990 RMK CU1SC1CI2 CU TR SLP131

CYGK;2015-02-19 23:00;CYGK 192300Z 26013G19KT 15SM BKN230 M16/M24 A2993 RMK CI5 SLP142

CYGK;2015-02-20 00:00;CYGK 200000Z 27014G19KT 15SM DRSN SCT070 M17/M24 A2995 RMK AC4 SLP152

CYGK;2015-02-20 01:00;CYGK 200100Z 27011G18KT 15SM SCT065 M18/M25 A2997 RMK SC4 SLP158

CYGK;2015-02-20 02:00;CYGK 200200Z 27009G15KT 15SM BKN065 M19/M26 A3000 RMK SC5 SLP167

CYGK;2015-02-20 03:00;CYGK 200300Z 27008KT 15SM FEW062 SCT100 M21/M27 A3001 RMK SC2AC2 SLP172

CYGK;2015-02-20 04:00;CYGK 200400Z 25006KT 15SM SCT090 M22/M28 A3001 RMK AC3 LAST STFD OBS/NEXT 201100UTC SLP173

CYGK;2015-02-20 11:00;CYGK 201100Z 27008KT 8SM -SN SCT020 OVC035 M22/M27 A3010 RMK CU3SC5 SLP203

CYGK;2015-02-20 11:16;CYGK 201116Z 27008KT 15SM OVC030 M22/M27 A3011 RMK SC8 SLP206

CYGK;2015-02-20 12:00;CYGK 201200Z 25006KT 15SM FEW030 SCT050 BKN250 M23/M28 A3014 RMK SC1SC2CI3 PRESRR SLP218

CYGK;2015-02-20 13:00;CYGK 201300Z 26007KT 15SM FEW050 FEW250 M23/M28 A3018 RMK SC1CI2 SC TR SLP230

CYGK;2015-02-20 14:00;CYGK 201400Z 28009KT 15SM FEW050 FEW250 M22/M27 A3020 RMK SC1CI1 SC TR SLP238

CYGK;2015-02-20 15:00;CYGK 201500Z 30011KT 250V320 15SM FEW250 M20/M26 A3023 RMK CI1 SLP247

CYGK;2015-02-20 16:00;CYGK 201600Z 28011KT 15SM FEW025 M18/M25 A3025 RMK CF1 CF TR SLP255

CYGK;2015-02-20 17:00;CYGK 201700Z 22005KT 210V320 15SM SKC M16/M24 A3025 RMK SLP255

CYGK;2015-02-20 18:00;CYGK 201800Z 23012KT 15SM FEW030 M17/M23 A3027 RMK CF1 CF TR SLP260

CYGK;2015-02-20 19:00;CYGK 201900Z 24012KT 15SM FEW030 M16/M24 A3028 RMK CU1 CU TR SLP264

CYGK;2015-02-20 20:00;CYGK 202000Z 25008KT 15SM FEW030 M15/M22 A3028 RMK CU1 CU TR SLP264

CYGK;2015-02-20 21:00;CYGK 202100Z 24011KT 15SM FEW040 FEW250 M14/M23 A3028 RMK CU1CI1 CU TR CI TR SLP263

CYGK;2015-02-20 22:00;CYGK 202200Z 24008KT 15SM FEW040 FEW250 M15/M23 A3029 RMK SC1CI1 SC TR CI TR SLP267

CYGK;2015-02-20 23:00;CYGK 202300Z 27006KT 15SM FEW040 FEW250 M16/M24 A3030 RMK SC1CI1 SC TR CI TR SLP269

CYGK;2015-02-21 00:00;CYGK 210000Z 23006KT 15SM SCT036 M17/M23 A3032 RMK SC4 SLP277

CYGK;2015-02-21 00:23;CYGK 210023Z 23006KT 15SM -SN BKN030 M17/M22 A3032 RMK SC6 SLP277

CYGK;2015-02-21 01:00;CYGK 210100Z 24007KT 12SM -SN FEW012 BKN031 M16/M19 A3032 RMK SC1SC5 SLP278

CYGK;2015-02-21 02:00;CYGK 210200Z 22004KT 15SM -SN SCT027 M16/M18 A3032 RMK SC3 SLP278

CYGK;2015-02-21 02:11;CYGK 210211Z 21005KT 15SM FEW025 M16/M18 A3032 RMK SC2 SLP278

CYGK;2015-02-21 03:00;CYGK 210300Z 22006KT 15SM FEW025 FEW200 M16/M20 A3032 RMK SC1CI1 CI TR SLP275

CYGK;2015-02-21 04:00;CYGK 210400Z 23008KT 15SM FEW025 M15/M21 A3031 RMK SC1 LAST STFD OBS/NEXT 211100 UTC SLP271

CYGK;2015-02-21 11:00;CYGK 211100Z 15013KT 15SM SCT070 OVC110 M14/M18 A3019 RMK AC3AC5 SLP232

CYGK;2015-02-21 12:00;CYGK 211200Z 16014KT 15SM SCT050 OVC100 M13/M17 A3019 RMK SC4AC4 SLP233

CYGK;2015-02-21 13:00;CYGK 211300Z 16016G22KT 15SM OVC060 M12/M16 A3017 RMK SC8 SLP225

CYGK;2015-02-21 14:00;CYGK 211400Z 15011KT 15SM BKN055 OVC090 M11/M16 A3014 RMK SC6AC2 SLP212

CYGK;2015-02-21 15:00;CYGK 211500Z 17014G19KT 15SM OVC045 M11/M16 A3011 RMK SC8 SLP203

CYGK;2015-02-21 16:00;CYGK 211600Z 17012KT 15SM OVC044 M10/M15 A3011 RMK SC8 PRESRR SLP204

CYGK;2015-02-21 16:48;CYGK 211648Z 17013KT 8SM -SN OVC030 M09/M14 A3011 RMK SC8 SLP204

CYGK;2015-02-21 17:00;CYGK 211700Z 16014KT 2SM -SN DRSN VV018 M09/M14 A3010 RMK SN8 SLP202

CYGK;2015-02-21 17:24;CYGK 211724Z 17015KT 3/4SM -SN DRSN VV012 M09/M10 A3009 RMK SN8 SLP198

CYGK;2015-02-21 17:45;CYGK 211745Z 16017KT 3/4SM -SN DRSN VV008 M08/M10 A3008 RMK SN8 VIS VRB 1/2-1 PRESFR SLP191

CYGK;2015-02-21 18:00;CYGK 211800Z 15015G21KT 3/4SM -SN DRSN VV007 M08/M10 A3007 RMK SN8 VIS 1/2-1 SLP189

CYGK;2015-02-21 19:00;CYGK 211900Z 15016KT 2SM -SN DRSN VV020 M08/M10 A3004 RMK SN8 SLP179

CYGK;2015-02-21 20:00;CYGK 212000Z 15012G17KT 2SM -SN DRSN VV015 M07/M09 A3002 RMK SN8 SLP173

CYGK;2015-02-21 20:32;CYGK 212032Z 14013G21KT 1 1/2SM -SN DRSN VV010 M07/M09 A3001 RMK SN8 VIS VRB 1-2 SLP169

CYGK;2015-02-21 21:00;CYGK 212100Z 14015KT 1 1/2SM -SN DRSN VV012 M07/M08 A3000 RMK SN8 VIS VRB 1-2 SLP165

CYGK;2015-02-21 21:31;CYGK 212131Z 15015KT 3/4SM -SN DRSN VV006 M07/M08 A3001 RMK SN8 SLP168

CYGK;2015-02-21 22:00;CYGK 212200Z 15014KT 3/4SM -SN DRSN VV006 M07/M08 A2999 RMK SN8 VIS VRB 1/2-1 SLP163

CYGK;2015-02-21 22:51;CYGK 212251Z 17012KT 1SM -SN DRSN OVC012 M07/M08 A2999 RMK SN4SC4 SLP163

CYGK;2015-02-21 23:00;CYGK 212300Z 17016KT 1 1/4SM -SN DRSN OVC013 M06/M07 A2999 RMK SN4SC4 SLP163

CYGK;2015-02-22 00:00;CYGK 220000Z 17014KT 1 1/4SM -SN DRSN OVC012 M06/M07 A3001 RMK SN4SC4 SLP168

CYGK;2015-02-22 00:06;CYGK 220006Z 17014KT 1 1/2SM -SN DRSN OVC013 M06/M07 A3001 RMK SN4SC4 SLP168

CYGK;2015-02-22 01:00;CYGK 220100Z 17013KT 1 3/4SM -SN DRSN OVC009 M06/M07 A3002 RMK SN2SF6 SLP171

CYGK;2015-02-22 01:09;CYGK 220109Z 17012KT 3SM -SN DRSN OVC008 M06/M07 A3002 RMK SF8 SLP171

CYGK;2015-02-22 01:34;CYGK 220134Z 19012G19KT 2SM -SN DRSN BKN008 OVC012 M05/M06 A3002 RMK SF5SC3 SLP173

CYGK;2015-02-22 01:48;CYGK 220148Z 19015KT 3SM -SN DRSN OVC010 M05/M06 A3002 RMK SC8 SLP173

CYGK;2015-02-22 02:00;CYGK 220200Z 19013G19KT 3SM -SN DRSN OVC009 M05/M06 A3003 RMK SF8 SLP174

CYGK;2015-02-22 02:27;CYGK 220227Z 20010KT 2 1/4SM -SN DRSN OVC009 M05/M06 A3004 RMK SF8 SLP177

CYGK;2015-02-22 02:48;CYGK 220248Z 21011KT 5SM -SN OVC012 M04/M06 A3004 RMK SC8 SLP178

CYGK;2015-02-22 03:00;CYGK 220300Z 21011KT 7SM -SN BKN011 OVC018 M04/M06 A3005 RMK SC6SC2 SLP181

CYGK;2015-02-22 03:16;CYGK 220316Z 21010KT 10SM -SN SCT012 BKN019 OVC031 M04/M06 A3005 RMK SC4SC3SC1 SLP182

CYGK;2015-02-22 04:00;CYGK 220400Z 21011KT 12SM -SN FEW012 OVC020 M04/M06 A3005 RMK SC2SC6 LAST STFD OBS/NEXT 221100 UTC SLP182

CYGK;2015-02-22 11:00;CYGK 221100Z 27004KT 15SM FEW005 SCT027 BKN120 M10/M11 A3014 RMK SF1SC2AC4 VIS LWR SW SLP214

CYGK;2015-02-22 12:00;CYGK 221200Z 24008KT 5SM BR FEW005 FEW030 BKN120 M11/M12 A3016 RMK SF1SC1AC4 SLP219

CYGK;2015-02-22 13:00;CYGK 221300Z 25006KT 15SM FEW030 BKN097 M11/M12 A3019 RMK SC1AC6 SLP230

CYGK;2015-02-22 14:00;CYGK 221400Z 25008KT 15SM FEW030 BKN092 M10/M12 A3020 RMK SC1AC7 SC TR SLP233

CYGK;2015-02-22 15:00;CYGK 221500Z 24006KT 15SM BKN088 M09/M12 A3020 RMK AC7 SLP234

CYGK;2015-02-22 16:00;CYGK 221600Z 22007KT 15SM BKN083 M07/M11 A3022 RMK AC6 SLP238

CYGK;2015-02-22 17:00;CYGK 221700Z 22007KT 12SM FEW025 BKN080 BKN250 M05/M10 A3020 RMK CF1AC5CI1 CF TR SLP233

CYGK;2015-02-22 18:00;CYGK 221800Z 18006KT 15SM FEW025 SCT060 OVC077 M05/M09 A3019 RMK CF1SC3AC4 SLP230

CYGK;2015-02-22 18:48;CYGK 221848Z 18009KT 10SM -SN BKN027 OVC075 M05/M08 A3018 RMK SC6AC2 SLP226

CYGK;2015-02-22 19:00;CYGK 221900Z 17010KT 10SM -SN BKN028 OVC075 M05/M07 A3018 RMK SC7AC1 SLP225

CYGK;2015-02-22 20:00;CYGK 222000Z 17010KT 4SM -SN FEW012 OVC031 M05/M06 A3016 RMK SC2SC6 SLP220

CYGK;2015-02-22 20:50;CYGK 222050Z 23009KT 10SM -SN FEW015 BKN024 OVC065 M04/M07 A3017 RMK SF2SC5SC1 WSHFT 2035 SLP221

CYGK;2015-02-22 21:00;CYGK 222100Z 23010KT 10SM -SN FEW015 BKN022 OVC065 M04/M07 A3017 RMK SF2SC4SC2 SLP221

CYGK;2015-02-22 22:00;CYGK 222200Z 22009KT 8SM -SN BKN022 OVC065 M04/M07 A3016 RMK SC6SC2 SLP220

CYGK;2015-02-22 22:29;CYGK 222229Z 21010KT 2 1/2SM -SN OVC018 M04/M07 A3016 RMK SC8 SLP218

CYGK;2015-02-22 22:35;CYGK 222235Z 22010KT 1 1/4SM -SN OVC015 M04/M06 A3016 RMK SN5SC3 SLP218

CYGK;2015-02-22 23:00;CYGK 222300Z 23010KT 1 1/4SM -SN OVC016 M05/M06 A3016 RMK SN4SC4 SLP221

CYGK;2015-02-23 00:00;CYGK 230000Z 25008KT 1SM -SN OVC012 M04/M05 A3018 RMK SN6SC2 VIS VRB 1/2-11/2 SLP226

CYGK;2015-02-23 00:15;CYGK 230015Z 25009KT 4SM -SN FEW009 BKN015 OVC055 M05/M05 A3018 RMK SF2SC5SC1 SLP226

CYGK;2015-02-23 01:00;CYGK 230100Z 28010KT 8SM -SN FEW009 SCT017 OVC061 M05/M09 A3019 RMK SF1SC3SC4 SLP231

CYGK;2015-02-23 02:00;CYGK 230200Z 28012KT 10SM -SN SCT023 OVC058 M07/M11 A3021 RMK SC3SC5 SLP237

CYGK;2015-02-23 03:00;CYGK 230300Z 28017G22KT 15SM -SN FEW022 SCT052 M11/M17 A3025 RMK SC2SC2 SLP251

CYGK;2015-02-23 03:33;CYGK 230333Z 28011G17KT 15SM FEW052 M12/M19 A3028 RMK SC2 SLP259

CYGK;2015-02-23 04:00;CYGK 230400Z 27008KT 15SM FEW050 M12/M19 A3028 RMK SC1 LAST STFD OBS/NEXT 231100 UTC SLP262

CYGK;2015-02-23 11:00;CYGK 231100Z 32006KT 10SM -SN FEW012 BKN038 M19/M22 A3041 RMK SC2SC5 SLP306

CYGK;2015-02-23 12:00;CYGK 231200Z 33007KT 10SM FEW012 BKN043 M19/M25 A3044 RMK SC1SC7 SC TR SLP314

CYGK;2015-02-23 13:00;CYGK 231300Z 35011KT 15SM FEW012 SCT030 M20/M27 A3047 RMK CF1SC3 SLP325

CYGK;2015-02-23 14:00;CYGK 231400Z 35010KT 15SM FEW027 SCT045 BKN250 M20/M27 A3049 RMK SC1SC3CI2 SLP332

CYGK;2015-02-23 15:00;CYGK 231500Z 32013KT 15SM FEW040 M19/M28 A3049 RMK SC1 SLP332

CYGK;2015-02-23 16:00;CYGK 231600Z 30011KT 260V330 15SM FEW025 M18/M27 A3047 RMK CF1 CF TR SLP328

CYGK;2015-02-23 17:00;CYGK 231700Z 28012KT 240V320 15SM FEW025 M17/M28 A3046 RMK CF1 SLP324

CYGK;2015-02-23 18:00;CYGK 231800Z 28011KT 15SM FEW045 SCT200 M17/M27 A3043 RMK CF2CI1 SLP314

CYGK;2015-02-23 19:00;CYGK 231900Z 25010G16KT 210V280 15SM FEW045 FEW250 M17/M26 A3042 RMK CF1CI1 SLP309

CYGK;2015-02-23 20:00;CYGK 232000Z 25011G18KT 15SM FEW040 FEW210 M16/M26 A3041 RMK CF1CI1 CF TR SLP305

CYGK;2015-02-23 21:00;CYGK 232100Z 23011G16KT 15SM DRSN FEW040 M17/M25 A3040 RMK CF1 CF TR SLP302

CYGK;2015-02-23 22:00;CYGK 232200Z 25011G18KT 15SM FEW040 FEW240 M17/M26 A3039 RMK CF1CI1 CF TR CI TR SLP300

CYGK;2015-02-23 23:00;CYGK 232300Z 25009KT 15SM FEW040 M18/M25 A3038 RMK SC1 SC TR SLP297

CYGK;2015-02-24 00:00;CYGK 240000Z 25012KT 15SM DRSN FEW040 M19/M25 A3039 RMK SC1 SC TR SLP299

CYGK;2015-02-24 01:00;CYGK 240100Z 27009KT 15SM SKC M19/M25 A3038 RMK SLP298

CYGK;2015-02-24 02:00;CYGK 240200Z 25004KT 15SM SKC M20/M26 A3038 RMK SLP299

CYGK;2015-02-24 03:00;CYGK 240300Z 31005KT 15SM SKC M20/M26 A3036 RMK SLP292

CYGK;2015-02-24 04:00;CYGK 240400Z 30005KT 15SM SKC M20/M26 A3034 RMK LAST STFD OBS/NEXT 241100 UTC SLP282

CYGK;2015-02-24 11:00;CYGK 241100Z 21014KT 8SM -SN DRSN FEW013 BKN022 OVC040 M14/M16 A3014 RMK SC1SC6SC1 SLP214

CYGK;2015-02-24 12:00;CYGK 241200Z 21015G20KT 4SM -SN DRSN FEW011 BKN018 M14/M17 A3011 RMK SC2SC5 SLP206

CYGK;2015-02-24 13:00;CYGK 241300Z 20013KT 4SM -SN DRSN FEW010 OVC020 M13/M17 A3009 RMK SC1SC7 SLP198

CYGK;2015-02-24 13:21;CYGK 241321Z 19017G23KT 2SM -SN DRSN FEW012 OVC020 M13/M16 A3008 RMK SC1SC7 SLP194

CYGK;2015-02-24 13:47;CYGK 241347Z 18018KT 1SM -SN DRSN OVC018 M14/M17 A3007 RMK SN4SC4 SLP191

CYGK;2015-02-24 14:00;CYGK 241400Z 16019KT 1 1/4SM -SN DRSN OVC019 M17/M19 A3006 RMK SN4SC4 SLP190

CYGK;2015-02-24 15:00;CYGK 241500Z 16021G26KT 1SM -SN DRSN OVC018 M17/M19 A3004 RMK SN4SC4 OCNL BLSN SLP183

CYGK;2015-02-24 15:44;CYGK 241544Z 16020G27KT 2SM -SN DRSN OVC022 M16/M19 A3001 RMK SN2SC6 VIS LWR N SLP170

CYGK;2015-02-24 16:00;CYGK 241600Z 16020G26KT 2 1/2SM -SN DRSN BKN023 OVC250 M16/M19 A3000 RMK SC7CI1 SLP166

CYGK;2015-02-24 16:05;CYGK 241605Z 16021G28KT 3SM -SN BLSN BKN023 BKN250 M16/M19 A2999 RMK SC5CI2 SLP165

CYGK;2015-02-24 17:00;CYGK 241700Z 17018G26KT 6SM VCSH DRSN FEW020 BKN110 BKN250 M15/M18 A2995 RMK SC2AC3CI2 OCNL BLSN PRESFR SLP150

CYGK;2015-02-24 18:00;CYGK 241800Z 16018G23KT 15SM DRSN FEW020 SCT110 BKN250 M13/M18 A2990 RMK CU1AC2CI2 PRESFR SLP135

CYGK;2015-02-24 19:00;CYGK 241900Z 16017G22KT 15SM DRSN FEW060 BKN120 OVC250 M12/M17 A2984 RMK SC1AC5CI2 PRESFR SLP113

CYGK;2015-02-24 20:00;CYGK 242000Z 17015G20KT 15SM BKN120 M11/M16 A2979 RMK AC7 PRESFR SLP097

CYGK;2015-02-24 21:00;CYGK 242100Z 17010KT 15SM FEW030 OVC120 M10/M15 A2975 RMK SC1AC7 SLP083

CYGK;2015-02-24 22:00;CYGK 242200Z 16011KT 15SM OVC100 M09/M15 A2970 RMK AC8 PRESFR SLP065

CYGK;2015-02-24 23:00;CYGK 242300Z 18011KT 15SM OVC090 M09/M13 A2967 RMK AC8 SLP055

CYGK;2015-02-25 00:00;CYGK 250000Z 17012KT 15SM FEW060 SCT120 BKN200 M09/M14 A2965 RMK SC1AC2CI2 SLP049

CYGK;2015-02-25 01:00;CYGK 250100Z 19014KT 15SM FEW030 SCT090 BKN200 M09/M13 A2965 RMK CF1AC3CI2 SLP047

CYGK;2015-02-25 02:00;CYGK 250200Z 24012G18KT 15SM FEW050 OVC080 M07/M14 A2966 RMK SC1AC7 SLP052

CYGK;2015-02-25 02:34;CYGK 250234Z 24016G22KT 15SM -SHSN FEW038 OVC073 M07/M11 A2966 RMK CU1AC7 SLP052

CYGK;2015-02-25 03:00;CYGK 250300Z 25012G17KT 15SM -SHSN FEW038 OVC071 M08/M11 A2966 RMK CU1AC7 SLP050

CYGK;2015-02-25 04:00;CYGK 250400Z 22017KT 15SM FEW040 OVC067 M07/M11 A2965 RMK CU1AC7 OCNL -SHSN LAST STFD OBS/NEXT 251100 UTC SLP048

CYGK;2015-02-25 11:00;CYGK 251100Z 21016G23KT 3SM -SN VV012 M06/M07 A2959 RMK SN8 SLP027

CYGK;2015-02-25 12:00;CYGK 251200Z 27011KT 3SM -SN VV020 M07/M09 A2962 RMK SN8 SLP037

CYGK;2015-02-25 12:43;CYGK 251243Z 27012G19KT 8SM -SN SCT018 BKN035 M08/M10 A2966 RMK CU4SC3 SLP049

CYGK;2015-02-25 13:00;CYGK 251300Z 28016G26KT 12SM VCSH SCT018 BKN080 M08/M12 A2967 RMK CU4AC2 PRESRR SLP054

CYGK;2015-02-25 14:00;CYGK 251400Z 26010G21KT 15SM DRSN FEW018 FEW053 M09/M15 A2972 RMK CU1SC1 SLP070

CYGK;2015-02-25 15:00;CYGK 251500Z 27016G23KT 15SM FEW020 SCT050 M10/M16 A2976 RMK CU2SC2 OCNL BLSN SLP083

CYGK;2015-02-25 16:00;CYGK 251600Z 28013G21KT 15SM DRSN FEW025 M10/M16 A2979 RMK SC1 SLP094

CYGK;2015-02-25 17:00;CYGK 251700Z 26013G20KT 15SM DRSN FEW030 M09/M16 A2981 RMK SC1 SLP100

CYGK;2015-02-25 18:00;CYGK 251800Z 24013KT 15SM DRSN FEW030 M08/M16 A2982 RMK CU1 SLP105

CYGK;2015-02-25 19:00;CYGK 251900Z 24014KT 15SM SCT030 M08/M15 A2985 RMK SC3 SLP113

CYGK;2015-02-25 20:00;CYGK 252000Z 25015KT 15SM DRSN FEW025 FEW038 M09/M16 A2988 RMK CU1SC2 CU TR SLP125

CYGK;2015-02-25 21:00;CYGK 252100Z 24015G22KT 15SM DRSN FEW025 FEW044 M10/M17 A2993 RMK CU1SC1 CU TR SLP140

CYGK;2015-02-25 22:00;CYGK 252200Z 25013G22KT 15SM DRSN FEW040 M11/M19 A2996 RMK SC1 PRESRR SLP151

CYGK;2015-02-25 23:00;CYGK 252300Z 26011G16KT 15SM DRSN FEW040 FEW250 M13/M21 A2998 RMK SC1CI1 SC TR CI TR SLP159

CYGK;2015-02-26 00:00;CYGK 260000Z 28013KT 15SM DRSN SKC M13/M21 A3001 RMK SLP168

CYGK;2015-02-26 01:00;CYGK 260100Z 28011KT 15SM DRSN SKC M14/M22 A3003 RMK SLP177

CYGK;2015-02-26 02:00;CYGK 260200Z 29011KT 15SM SKC M15/M22 A3007 RMK SLP188

CYGK;2015-02-26 03:00;CYGK 260300Z 32009KT 15SM FEW250 M15/M23 A3008 RMK CI1 SLP194

CYGK;2015-02-26 04:00;CYGK 260400Z 33006KT 15SM SKC M16/M23 A3009 RMK LAST STFD OBS/NEXT 261100 UTC SLP196

CYGK;2015-02-26 11:00;CYGK 261100Z 03008KT 15SM SCT100 OVC180 M18/M25 A3011 RMK AC4AC4 SLP206

CYGK;2015-02-26 12:00;CYGK 261200Z 02007KT 15SM SCT140 OVC180 M18/M24 A3013 RMK AC3AC5 SLP210

CYGK;2015-02-26 13:00;CYGK 261300Z 01008KT 15SM OVC150 M18/M24 A3015 RMK AS8 SLP219

CYGK;2015-02-26 14:00;CYGK 261400Z 03007KT 15SM SCT110 OVC180 M17/M24 A3016 RMK AC3AS5 SLP222

CYGK;2015-02-26 15:00;CYGK 261500Z 04009KT 15SM BKN100 OVC180 M15/M23 A3016 RMK AC5AC3 SLP223

CYGK;2015-02-26 16:00;CYGK 261600Z 06009KT 15SM SCT100 OVC150 M14/M23 A3016 RMK AC4AS4 SLP222

CYGK;2015-02-26 17:00;CYGK 261700Z 02007KT 360V070 15SM OVC100 M13/M23 A3016 RMK AC8 SLP220

CYGK;2015-02-26 18:00;CYGK 261800Z 04008KT 350V070 15SM OVC100 M12/M23 A3014 RMK AC8 SLP216

CYGK;2015-02-26 19:00;CYGK 261900Z 06006KT 010V080 15SM OVC090 M12/M21 A3012 RMK AC8 SLP208

CYGK;2015-02-26 20:00;CYGK 262000Z 02009KT 15SM BKN080 OVC240 M12/M22 A3011 RMK AC5CI3 SLP206

CYGK;2015-02-26 21:00;CYGK 262100Z 04006KT 350V060 15SM BKN110 OVC240 M12/M22 A3013 RMK AC6CI2 SLP210

CYGK;2015-02-26 22:00;CYGK 262200Z 02003KT 15SM BKN090 BKN240 M12/M22 A3014 RMK AS5CS2 SLP216

CYGK;2015-02-26 23:00;CYGK 262300Z 09004KT 15SM BKN090 M12/M21 A3015 RMK AS7 SLP219

CYGK;2015-02-27 00:00;CYGK 270000Z 08003KT 15SM OVC100 M13/M21 A3017 RMK AS8 SLP226

CYGK;2015-02-27 01:00;CYGK 270100Z 09002KT 15SM BKN090 M13/M21 A3019 RMK AS6 SLP232

CYGK;2015-02-27 02:00;CYGK 270200Z 00000KT 15SM SCT080 M15/M22 A3021 RMK AC3 SLP240

CYGK;2015-02-27 03:00;CYGK 270300Z 35002KT 15SM SCT130 M16/M22 A3023 RMK AC3 SLP244

CYGK;2015-02-27 04:00;CYGK 270400Z 36003KT 15SM BKN100 M18/M23 A3024 RMK AC5 LAST STFD OBS/NEXT 271100 UTC SLP248

CYGK;2015-02-27 11:00;CYGK 271100Z 35005KT 15SM FEW080 M24/M27 A3034 RMK AC1 AC TR SLP284

CYGK;2015-02-27 12:00;CYGK 271200Z 35009KT 15SM FEW060 M25/M28 A3036 RMK SC1 SC TR SLP292

CYGK;2015-02-27 13:00;CYGK 271300Z 35007KT 15SM FEW060 M22/M26 A3039 RMK SC1 SC TR SLP302

CYGK;2015-02-27 14:00;CYGK 271400Z 35005KT 15SM FEW070 M19/M25 A3043 RMK AC1 AC TR SLP313

CYGK;2015-02-27 15:00;CYGK 271500Z 35002KT 15SM FEW070 M14/M23 A3044 RMK AC1 SLP315

CYGK;2015-02-27 16:00;CYGK 271600Z 21005KT 15SM FEW070 FEW250 M13/M22 A3044 RMK AC1CI1 AC TR SLP317

CYGK;2015-02-27 17:00;CYGK 271700Z 22010KT 15SM FEW070 FEW250 M12/M21 A3046 RMK AC1CI1 AC TR SLP322

CYGK;2015-02-27 18:00;CYGK 271800Z 22011KT 15SM FEW070 FEW250 M11/M20 A3045 RMK AC1CI1 AC TR SLP322

CYGK;2015-02-27 19:00;CYGK 271900Z 24009G16KT 15SM FEW050 FEW250 M10/M19 A3045 RMK SC1CI1 SC TR SLP320

CYGK;2015-02-27 20:00;CYGK 272000Z 22011KT 15SM FEW030 M10/M18 A3046 RMK SC1 SLP322

CYGK;2015-02-27 21:00;CYGK 272100Z 23010G15KT 15SM FEW030 M10/M18 A3047 RMK CU1 CU TR SLP327

CYGK;2015-02-27 22:00;CYGK 272200Z 23010KT 15SM FEW025 M11/M18 A3048 RMK CU1 CU TR SLP330

CYGK;2015-02-27 23:00;CYGK 272300Z 24007KT 15SM FEW025 M12/M18 A3050 RMK CU1 CU TR SLP336

CYGK;2015-02-28 00:00;CYGK 280000Z 26006KT 15SM FEW025 M12/M20 A3052 RMK CU1 CU TR SLP345

CYGK;2015-02-28 01:00;CYGK 280100Z 26011KT 15SM SKC M12/M20 A3054 RMK SLP351

CYGK;2015-02-28 02:00;CYGK 280200Z 28007KT 15SM SKC M13/M19 A3056 RMK SLP356

CYGK;2015-02-28 03:00;CYGK 280300Z 25005KT 15SM SKC M15/M20 A3058 RMK SLP365

CYGK;2015-02-28 04:00;CYGK 280400Z 24005KT 15SM SKC M16/M21 A3060 RMK LAST STFD OBS/NEXT 281100UTC SLP371

CYGK;2015-02-28 11:00;CYGK 281100Z 08002KT 15SM FEW020 M22/M24 A3071 RMK SC1 SC TR SLP410

CYGK;2015-02-28 12:00;CYGK 281200Z VRB02KT 15SM FEW025 FEW250 M23/M25 A3072 RMK CU1CI1 CU TR CI TR SLP413

CYGK;2015-02-28 13:00;CYGK 281300Z 13003KT 15SM FEW025 M20/M23 A3074 RMK CU1 CU TR SLP420

CYGK;2015-02-28 14:00;CYGK 281400Z 16004KT 15SM FEW025 FEW100 M15/M17 A3076 RMK CU1AC1 CU TR AC TR SLP425

CYGK;2015-02-28 15:00;CYGK 281500Z 19003KT 15SM FEW100 M13/M16 A3076 RMK AC1 AC TR SLP425

CYGK;2015-02-28 16:00;CYGK 281600Z 17007KT 15SM FEW100 FEW240 M11/M17 A3077 RMK AC1CI1 AC TR CI TR SLP427

CYGK;2015-02-28 17:00;CYGK 281700Z 17008KT 15SM FEW100 M09/M13 A3076 RMK AC1 SLP424

CYGK;2015-02-28 18:00;CYGK 281800Z 18006KT 15SM FEW030 FEW140 M08/M12 A3073 RMK CF1AC1 CF TR SLP415

CYGK;2015-02-28 19:00;CYGK 281900Z 19012KT 15SM FEW020 FEW100 M07/M10 A3072 RMK CU1AC1 SLP409

CYGK;2015-02-28 19:26;CYGK 281926Z 20013KT 10SM -SHSN FEW008 BKN025 M06/M09 A3071 RMK CU2SC3 SLP408

CYGK;2015-02-28 20:00;CYGK 282000Z 21015KT 12SM -SHSN FEW015 BKN030 M06/M09 A3071 RMK CU1SC4 VIS S 6 SLP406

CYGK;2015-02-28 21:00;CYGK 282100Z 21012G18KT 12SM -SHSN FEW015 BKN030 M07/M10 A3070 RMK CU2SC3 SLP405

CYGK;2015-02-28 22:00;CYGK 282200Z 21014KT 15SM FEW015 BKN030 M07/M10 A3070 RMK CU2SC4 SLP405

CYGK;2015-02-28 23:00;CYGK 282300Z 20009KT 15SM FEW030 M09/M13 A3070 RMK SC2 SLP404

CYGK;2015-03-01 00:00;CYGK 010000Z 22010KT 15SM FEW030 M09/M14 A3070 RMK SC1 SLP405

CYGK;2015-03-01 01:00;CYGK 010100Z 22007KT 15SM SKC M10/M14 A3069 RMK SLP401

CYGK;2015-03-01 02:00;CYGK 010200Z 22004KT 15SM SKC M11/M15 A3069 RMK SLP402

CYGK;2015-03-01 03:00;CYGK 010300Z 20004KT 15SM SKC M13/M16 A3069 RMK SLP400

CYGK;2015-03-01 04:00;CYGK 010400Z 18006KT 15SM SKC M13/M15 A3067 RMK LAST STFD OBS/NEXT 011100 UTC SLP393

CYGK;2015-03-01 11:00;CYGK 011100Z 04005KT 15SM OVC100 M13/M17 A3055 RMK AC8 SLP351

CYGK;2015-03-01 12:00;CYGK 011200Z 06002KT 15SM BKN065 OVC100 M13/M16 A3050 RMK SC5AC3 SLP337

CYGK;2015-03-01 13:00;CYGK 011300Z 07004KT 15SM OVC058 M12/M16 A3048 RMK SC8 SLP329

CYGK;2015-03-01 14:00;CYGK 011400Z 13005KT 15SM FEW040 BKN060 OVC120 M10/M15 A3047 RMK SC1SC5AC2 SLP325

CYGK;2015-03-01 14:28;CYGK 011428Z 16005KT 15SM BKN012 OVC060 M09/M13 A3046 RMK NS5SC3 SLP321

CYGK;2015-03-01 15:00;CYGK 011500Z 18008KT 15SM BKN013 OVC060 M08/M12 A3044 RMK SC6SC2 SLP317

CYGK;2015-03-01 15:31;CYGK 011531Z 17010KT 12SM -SHSN BKN010 OVC058 M08/M10 A3043 RMK SC7SC1 SLP312

CYGK;2015-03-01 16:00;CYGK 011600Z 18011KT 12SM -SHSN BKN010 OVC058 M08/M10 A3041 RMK SC7SC1 SLP306

CYGK;2015-03-01 16:13;CYGK 011613Z 17010KT 10SM -SHSN OVC009 M07/M09 A3041 RMK SC8 CIG RAG SLP304

CYGK;2015-03-01 17:00;CYGK 011700Z 18009KT 8SM -SN OVC009 M07/M09 A3038 RMK SC8 CIG RAG SLP295

CYGK;2015-03-01 18:00;CYGK 011800Z 17011KT 5SM -SN BKN010 OVC016 M06/M08 A3032 RMK SC6SC2 PRESFR SLP275

CYGK;2015-03-01 18:12;CYGK 011812Z 17012KT 6SM -SN SCT010 BKN016 OVC025 M06/M08 A3032 RMK SC4SC3SC1 SLP273

CYGK;2015-03-01 18:35;CYGK 011835Z 18012KT 6SM -SN SCT008 BKN013 OVC024 M06/M08 A3030 RMK SC3SC4SC1 SLP268

CYGK;2015-03-01 19:00;CYGK 011900Z 18010KT 8SM -SN FEW008 SCT012 OVC025 M05/M07 A3030 RMK SF2SC2SC4 SLP267

CYGK;2015-03-01 20:00;CYGK 012000Z 17009KT 5SM -SN BKN013 OVC022 M05/M07 A3027 RMK SC5SC3 SLP256

CYGK;2015-03-01 21:00;CYGK 012100Z 20011KT 6SM -SN BKN008 OVC015 M05/M06 A3023 RMK SC6SC2 SLP244

CYGK;2015-03-01 22:00;CYGK 012200Z 20009KT 8SM -SN OVC010 M04/M06 A3022 RMK SC8 SLP238

CYGK;2015-03-01 22:50;CYGK 012250Z 21009KT 10SM SCT010 OVC040 M04/M06 A3019 RMK SC4SC4 SLP230

CYGK;2015-03-01 23:00;CYGK 012300Z 21009KT 10SM FEW010 OVC043 M04/M06 A3019 RMK SC2SC6 SLP228

CYGK;2015-03-01 23:30;CYGK 012330Z 22010KT 8SM -SN OVC027 M05/M06 A3018 RMK SC8 SLP227

CYGK;2015-03-02 00:00;CYGK 020000Z 23008KT 8SM -SN OVC015 M05/M06 A3017 RMK SC8 SLP224

CYGK;2015-03-02 01:00;CYGK 020100Z 23007KT 8SM -SN OVC018 M05/M06 A3016 RMK SC8 SLP219

CYGK;2015-03-02 01:16;CYGK 020116Z 23007KT 10SM -SN SCT018 OVC140 M05/M06 A3015 RMK SC3AC5 SLP216

CYGK;2015-03-02 01:28;CYGK 020128Z 23006KT 12SM SCT018 OVC130 M05/M07 A3014 RMK SC3AC5 SLP214

CYGK;2015-03-02 02:00;CYGK 020200Z 23005KT 12SM BKN020 OVC130 M05/M06 A3013 RMK SC6AC2 SLP210

CYGK;2015-03-02 02:15;CYGK 020215Z 24004KT 10SM FEW005 OVC018 M05/M06 A3013 RMK SF1SC7 SLP211

CYGK;2015-03-02 03:00;CYGK 020300Z 24007KT 12SM OVC010 M05/M06 A3012 RMK SC8 SLP206

CYGK;2015-03-02 03:21;CYGK 020321Z 24007KT 10SM OVC007 M05/M06 A3012 RMK SF8 SLP205

CYGK;2015-03-02 04:00;CYGK 020400Z 24004KT 10SM SCT008 OVC012 M05/M06 A3011 RMK SF4SC4 LAST STFD OBS/NEXT 021100 UTC SLP201

CYGK;2015-03-02 11:00;CYGK 021100Z 24006KT 4SM -SN SCT025 OVC040 M08/M09 A3008 RMK SC3SC5 SLP192

CYGK;2015-03-02 11:18;CYGK 021118Z 23007KT 2SM -SN BKN024 OVC038 M08/M09 A3008 RMK SN2SC4SC2 SLP193

CYGK;2015-03-02 11:33;CYGK 021133Z 24009KT 4SM -SN SCT025 BKN037 OVC095 M07/M08 A3009 RMK SC3SC3AC2 SLP194

CYGK;2015-03-02 12:00;CYGK 021200Z 25008KT 8SM -SN FEW025 OVC055 M08/M09 A3008 RMK SC2SC6 SLP193

CYGK;2015-03-02 12:27;CYGK 021227Z 24008KT 2 1/2SM -SN SCT025 OVC042 M07/M09 A3009 RMK SN2SC1SC5 SLP196

CYGK;2015-03-02 13:00;CYGK 021300Z 25010KT 2SM -SN BKN026 OVC040 M07/M08 A3011 RMK SN2SC4SC2 SLP202

CYGK;2015-03-02 13:13;CYGK 021313Z 25009KT 1SM -SN OVC023 M06/M08 A3011 RMK SN4CU4 SLP203

CYGK;2015-03-02 13:31;CYGK 021331Z 25009KT 2SM -SN BKN022 OVC038 M06/M08 A3011 RMK SN2CU4SC2 SLP203

CYGK;2015-03-02 13:41;CYGK 021341Z 26010KT 4SM -SN FEW012 FEW040 BKN067 OVC100 M06/M08 A3012 RMK CF1CU1AC5AC1 SLP205

CYGK;2015-03-02 14:00;CYGK 021400Z 26013KT 5SM -SN FEW013 SCT038 OVC080 M06/M08 A3013 RMK CF2CU1AC5 SLP207

CYGK;2015-03-02 14:27;CYGK 021427Z 27010G17KT 10SM FEW013 SCT080 BKN250 M05/M08 A3013 RMK CF1AC2CI3 SLP207

CYGK;2015-03-02 14:43;CYGK 021443Z 28013G18KT 10SM -SHSN FEW020 BKN075 BKN250 M05/M08 A3013 RMK CU2AC3CI2 SLP207

CYGK;2015-03-02 15:00;CYGK 021500Z 28015G21KT 10SM -SHSN SCT016 SCT050 BKN075 BKN250 M04/M08 A3013 RMK CU3SC1AC2CI1 SLP207

CYGK;2015-03-02 15:16;CYGK 021516Z 27011G18KT 15SM FEW020 SCT076 M04/M08 A3012 RMK CU2AC1 SLP205

CYGK;2015-03-02 16:00;CYGK 021600Z 28017G23KT 12SM DRSN BKN028 M03/M09 A3013 RMK CU7 OCNL BLSN SLP207

CYGK;2015-03-02 16:12;CYGK 021612Z 26016G23KT 12SM -SHSN DRSN OVC028 M03/M09 A3013 RMK CU8 OCNL BLSN SLP208

CYGK;2015-03-02 17:00;CYGK 021700Z 29016G23KT 15SM -SHSN DRSN BKN030 M02/M09 A3013 RMK CU6 SLP210

CYGK;2015-03-02 18:00;CYGK 021800Z 26018G25KT 15SM -SHSN DRSN BKN041 M02/M10 A3014 RMK CU6 SLP211

CYGK;2015-03-02 19:00;CYGK 021900Z 27017G28KT 8SM -SHSN DRSN BKN029 M03/M08 A3016 RMK CU7 SLP218

CYGK;2015-03-02 20:00;CYGK 022000Z 26017G24KT 10SM -SHSN DRSN BKN034 BKN050 M03/M10 A3018 RMK CU6SC1 SLP226

CYGK;2015-03-02 21:00;CYGK 022100Z 26015G28KT 15SM BKN040 M03/M11 A3022 RMK CU7 OCNL -SHSN SLP238

CYGK;2015-03-02 22:00;CYGK 022200Z 25014G20KT 15SM DRSN BKN047 BKN070 M04/M12 A3025 RMK CU5AC1 OCNL -SHSN SLP250

CYGK;2015-03-02 22:49;CYGK 022249Z 26011KT 15SM SCT046 M04/M13 A3029 RMK CU3 SLP262

CYGK;2015-03-02 23:00;CYGK 022300Z 26011G19KT 15SM FEW046 M05/M13 A3029 RMK CU2 SLP264

CYGK;2015-03-03 00:00;CYGK 030000Z 26010G16KT 15SM FEW047 M06/M14 A3032 RMK CU1 SLP274

CYGK;2015-03-03 01:00;CYGK 030100Z 27011KT 15SM SKC M07/M15 A3034 RMK SLP280

CYGK;2015-03-03 02:00;CYGK 030200Z 27009KT 15SM SKC M08/M15 A3035 RMK SLP284

CYGK;2015-03-03 03:00;CYGK 030300Z 27007KT 15SM SKC M09/M15 A3037 RMK SLP290

CYGK;2015-03-03 04:00;CYGK 030400Z 30007KT 15SM SKC M09/M16 A3037 RMK LAST STFD OBS/NEXT 031100 UTC SLP290

CYGK;2015-03-03 11:00;CYGK 031100Z 00000KT 15SM FEW120 FEW250 M18/M19 A3037 RMK AC1CI2 AC TR SLP292

CYGK;2015-03-03 12:00;CYGK 031200Z 06002KT 15SM FEW030 FEW120 BKN250 M19/M21 A3036 RMK SC1AC1CI5 SC TR SLP289

CYGK;2015-03-03 13:00;CYGK 031300Z 07004KT 15SM FEW030 FEW080 BKN250 M17/M19 A3033 RMK SC1AC1CI6 SC TR SLP280

CYGK;2015-03-03 14:00;CYGK 031400Z 14005KT 15SM FEW020 SCT080 BKN220 M14/M16 A3032 RMK SC1AS2CS4 SLP273

CYGK;2015-03-03 15:00;CYGK 031500Z 13005KT 15SM FEW010 FEW020 BKN180 M11/M14 A3030 RMK CU1SC1AS6 CU TR SLP268

CYGK;2015-03-03 16:00;CYGK 031600Z 13009KT 15SM FEW010 FEW030 BKN140 BKN220 M10/M13 A3025 RMK CU1SC1AS4CS2 CU TR PRESFR SLP251

CYGK;2015-03-03 17:00;CYGK 031700Z 15007KT 15SM FEW010 BKN100 OVC200 M08/M11 A3021 RMK CU1AS6CS2 CU TR PRESFR SLP236

CYGK;2015-03-03 18:00;CYGK 031800Z 15008KT 15SM FEW010 OVC080 M08/M11 A3013 RMK CU1AS8 CU TR PRESFR SLP208

CYGK;2015-03-03 19:00;CYGK 031900Z 16009KT 15SM FEW010 OVC043 M07/M10 A3005 RMK CU1NS8 CU TR PRESFR SLP184

CYGK;2015-03-03 19:36;CYGK 031936Z 14009KT 3SM -SN OVC030 M07/M10 A3000 RMK SC8 PRESFR SLP167

CYGK;2015-03-03 19:41;CYGK 031941Z 14010KT 2SM -SN OVC030 M06/M10 A3000 RMK SN4SC4 PRESFR SLP167

CYGK;2015-03-03 19:49;CYGK 031949Z 14013KT 1SM -SN DRSN OVC025 M07/M09 A2999 RMK SN6SC2 PRESFR SLP164

CYGK;2015-03-03 20:00;CYGK 032000Z 16013KT 1 1/4SM -SN DRSN OVC020 M07/M08 A2999 RMK SN5SC3 PRESFR SLP162

CYGK;2015-03-03 20:40;CYGK 032040Z 14013KT 1SM -SN DRSN OVC008 M06/M07 A2993 RMK SN4NS4 PRESFR SLP141

CYGK;2015-03-03 21:00;CYGK 032100Z 14015KT 1 1/4SM -SN DRSN BKN008 OVC021 M06/M07 A2990 RMK SN4SF2NS2 PRESFR SLP132

CYGK;2015-03-03 21:50;CYGK 032150Z 14012KT 3/4SM -SN DRSN OVC016 M06/M07 A2983 RMK SN6SC2 PRESFR SLP108

CYGK;2015-03-03 22:00;CYGK 032200Z 13012G17KT 3/4SM -SN DRSN OVC016 M06/M07 A2981 RMK SN6SC2 PRESFR SLP102

CYGK;2015-03-03 22:41;CYGK 032241Z 13014G19KT 1SM -SN DRSN OVC012 M06/M07 A2974 RMK SN4SC4 PRESFR SLP078

CYGK;2015-03-03 23:00;CYGK 032300Z 15014G20KT 3/4SM -SN DRSN OVC010 M05/M06 A2973 RMK SN6SC2 PRESFR SLP074

CYGK;2015-03-03 23:49;CYGK 032349Z 16020G25KT 1SM -SN DRSN VV008 M05/M06 A2965 RMK SN8 PRESFR SLP048

CYGK;2015-03-04 00:00;CYGK 040000Z 16018G27KT 1 1/4SM -PLSN DRSN OVC010 M05/M06 A2966 RMK SN5SC3 PRESFR SLP050

CYGK;2015-03-04 00:21;CYGK 040021Z 17015G23KT 1 1/2SM -PLSN DRSN OVC009 M05/M05 A2964 RMK SN3SC5 PRESRR SLP043

CYGK;2015-03-04 00:47;CYGK 040047Z 17015G24KT 1 1/2SM -FZDZ -SN DRSN OVC009 M04/M05 A2963 RMK SF8 SLP042

CYGK;2015-03-04 01:00;CYGK 040100Z 17013KT 1 1/2SM -PLSN DRSN OVC008 M04/M05 A2961 RMK SF8 PRESFR SLP033

CYGK;2015-03-04 01:31;CYGK 040131Z 18019G24KT 2SM -FZRA -SN OVC008 M03/M04 A2958 RMK SF8 PRESFR SLP022

CYGK;2015-03-04 02:00;CYGK 040200Z 18018G26KT 2SM -FZRA -SN OVC011 M03/M04 A2956 RMK SC8 PRESFR SLP015

CYGK;2015-03-04 02:26;CYGK 040226Z 18019G26KT 2 1/2SM -FZDZ -SN OVC012 M03/M04 A2954 RMK ST8 SLP008

CYGK;2015-03-04 03:00;CYGK 040300Z 19021G26KT 2 1/2SM -FZDZ -SN OVC010 M02/M03 A2954 RMK ST8 SLP010

CYGK;2015-03-04 03:20;CYGK 040320Z 21018G25KT 2SM -FZDZ OVC008 M02/M02 A2955 RMK ST8 SLP013

CYGK;2015-03-04 04:00;CYGK 040400Z 21015G23KT 2SM -FZDZ OVC005 M01/M01 A2956 RMK ST8 LAST STFD OBS/NEXT 041100 UTC SLP014

CYGK;2015-03-04 11:00;CYGK 041100Z 25005KT 15SM OVC034 M01/M05 A2973 RMK SC8 SLP072

CYGK;2015-03-04 12:00;CYGK 041200Z 25008KT 15SM OVC030 M01/M04 A2976 RMK SC8 SLP081

CYGK;2015-03-04 13:00;CYGK 041300Z 25006KT 15SM OVC029 M01/M04 A2976 RMK SC8 SLP084

CYGK;2015-03-04 14:00;CYGK 041400Z 26011KT 15SM BKN029 M01/M05 A2980 RMK SC7 SLP095

CYGK;2015-03-04 15:00;CYGK 041500Z 26011G18KT 15SM BKN037 M00/M06 A2981 RMK SC6 SLP098

CYGK;2015-03-04 16:00;CYGK 041600Z 26014G19KT 15SM BKN037 00/M07 A2982 RMK SC6 SLP102

CYGK;2015-03-04 17:00;CYGK 041700Z 24016G23KT 15SM BKN040 01/M07 A2981 RMK SC6 SLP100

CYGK;2015-03-04 18:00;CYGK 041800Z 26015G21KT 15SM BKN038 01/M07 A2981 RMK SC6 SLP097

CYGK;2015-03-04 19:00;CYGK 041900Z 24015KT 15SM BKN038 BKN250 01/M05 A2980 RMK SC7CI1 CI TR SLP094

CYGK;2015-03-04 20:00;CYGK 042000Z 24016G22KT 15SM BKN028 00/M04 A2982 RMK SC7 SLP101

CYGK;2015-03-04 21:00;CYGK 042100Z 27014G21KT 15SM BKN032 BKN170 00/M07 A2982 RMK SC5AC2 SLP101

CYGK;2015-03-04 22:00;CYGK 042200Z 27012KT 15SM FEW040 SCT100 BKN170 M01/M08 A2984 RMK SC2AC2AC3 SLP107

CYGK;2015-03-05 00:00;CYGK 050000Z 27016G22KT 15SM BKN100 M03/M10 A2991 RMK AC6 PRESRR SLP132

CYGK;2015-03-05 01:00;CYGK 050100Z 30016G22KT 15SM BKN100 BKN220 M03/M11 A2991 RMK AC6CI1 SLP132

CYGK;2015-03-05 02:00;CYGK 050200Z 30012KT 15SM SCT100 BKN190 M04/M13 A2993 RMK AC3CI4 SLP141

CYGK;2015-03-05 03:00;CYGK 050300Z 29011G17KT 15SM SCT055 SCT100 BKN200 M05/M13 A2998 RMK SC3AC1CI3 PRESRR SLP156

CYGK;2015-03-05 04:00;CYGK 050400Z 30008G15KT 15SM SCT062 OVC200 M06/M13 A2996 RMK SC3CI5 LAST STFD OBS/NEXT 051100 UTC SLP150

CYGK;2015-03-05 11:00;CYGK 051100Z 31007KT 15SM SCT070 SCT250 M13/M19 A3020 RMK AC3CI1 PRESRR SLP234

CYGK;2015-03-05 12:00;CYGK 051200Z 32009KT 15SM FEW070 BKN250 M13/M18 A3023 RMK AC1CI5 PRESRR SLP243

CYGK;2015-03-05 13:00;CYGK 051300Z 34012KT 15SM FEW090 BKN250 M13/M20 A3026 RMK AC1CI6 AC TR PRESRR SLP254

CYGK;2015-03-05 14:00;CYGK 051400Z 35009KT 15SM BKN240 M13/M19 A3029 RMK CI7 PRESRR SLP265

CYGK;2015-03-05 15:00;CYGK 051500Z 34006KT 330V040 15SM BKN230 M13/M20 A3030 RMK CI7 PRESRR SLP267

CYGK;2015-03-05 16:00;CYGK 051600Z VRB02KT 15SM BKN220 M12/M20 A3029 RMK CC7 PRESRR SLP262

CYGK;2015-03-05 17:00;CYGK 051700Z 36007KT 15SM BKN230 M11/M21 A3029 RMK CI7 PRESFR SLP264

CYGK;2015-03-05 18:00;CYGK 051800Z VRB03KT 15SM BKN240 M10/M20 A3029 RMK CI7 PRESRR SLP265

CYGK;2015-03-05 19:00;CYGK 051900Z 18007KT 15SM BKN240 M10/M19 A3028 RMK CI5 SLP260

CYGK;2015-03-05 20:00;CYGK 052000Z 17008KT 15SM SCT240 M10/M18 A3029 RMK CI3 SLP265

CYGK;2015-03-05 21:00;CYGK 052100Z 17007KT 15SM FEW035 FEW250 M10/M17 A3028 RMK SC1CI1 SC TR SLP260

CYGK;2015-03-05 22:00;CYGK 052200Z 19008KT 15SM FEW035 FEW250 M11/M16 A3030 RMK SC1CI1 SC TR SLP267

CYGK;2015-03-05 23:00;CYGK 052300Z 21006KT 15SM FEW030 M11/M18 A3032 RMK SC1 SC TR SLP274

CYGK;2015-03-06 00:00;CYGK 060000Z 24005KT 15SM FEW030 M12/M20 A3034 RMK SC1 SC TR SLP281

CYGK;2015-03-06 01:00;CYGK 060100Z 25005KT 15SM SKC M14/M21 A3036 RMK SLP288

CYGK;2015-03-06 02:00;CYGK 060200Z 23008KT 15SM SKC M14/M21 A3038 RMK SLP294

CYGK;2015-03-06 03:00;CYGK 060300Z 24006KT 15SM SKC M15/M22 A3041 RMK SLP307

CYGK;2015-03-06 04:00;CYGK 060400Z 27006KT 15SM SKC M16/M22 A3043 RMK LAST STFD OBS/NEXT 061100UTC SLP314

CYGK;2015-03-06 11:00;CYGK 061100Z 24005KT 15SM FEW260 M20/M24 A3050 RMK CI1 SLP335

CYGK;2015-03-06 12:00;CYGK 061200Z 28003KT 15SM SKC M22/M25 A3050 RMK SLP337

CYGK;2015-03-06 13:00;CYGK 061300Z VRB02KT 15SM FEW260 M19/M23 A3051 RMK CI1 CI TR SLP341

CYGK;2015-03-06 14:00;CYGK 061400Z 19003KT 15SM FEW260 M17/M21 A3051 RMK CI1 CI TR SLP340

CYGK;2015-03-06 15:00;CYGK 061500Z 15009KT 15SM FEW260 M15/M19 A3050 RMK CI1 CC ASOCTD SLP336

CYGK;2015-03-06 16:00;CYGK 061600Z 18014KT 15SM VCSH FEW010 SCT020 BKN200 M12/M15 A3048 RMK CU2SC2CI1 SLP329

CYGK;2015-03-06 17:00;CYGK 061700Z 17016G21KT 10SM VCSH FEW010 OVC025 M11/M14 A3047 RMK CU1SC7 SLP325

CYGK;2015-03-06 17:04;CYGK 061704Z 18016G21KT 8SM -SN FEW010 BKN030 M11/M14 A3046 RMK CU1SC6 SLP324

CYGK;2015-03-06 17:09;CYGK 061709Z 18017KT 2SM -SN BKN030 M11/M14 A3046 RMK SC7 SLP323

CYGK;2015-03-06 17:29;CYGK 061729Z 17014G19KT 1 1/2SM -SN BKN020 M10/M13 A3045 RMK SN2SC5 VIS VRB 3/4-21/4 SLP319

CYGK;2015-03-06 17:44;CYGK 061744Z 18014KT 4SM -SN FEW015 SCT030 BKN250 M10/M12 A3043 RMK CF1SC2CI2 VIS N 2 PRESFR SLP314

CYGK;2015-03-06 18:00;CYGK 061800Z 19011KT 8SM -SN FEW015 BKN030 M08/M11 A3042 RMK CU1SC6 VIS NW 3 SLP308

CYGK;2015-03-06 19:00;CYGK 061900Z 22015G20KT 12SM VCSH BKN030 M07/M13 A3038 RMK CU7 SLP295

CYGK;2015-03-06 20:00;CYGK 062000Z 21017G23KT 12SM -SHSN BKN030 M08/M12 A3036 RMK CU7 SLP289

CYGK;2015-03-06 21:00;CYGK 062100Z 22020KT 15SM BKN030 BKN250 M08/M14 A3033 RMK SC5CI2 SLP280

CYGK;2015-03-06 22:00;CYGK 062200Z 22012G19KT 15SM SCT035 BKN250 M08/M14 A3030 RMK SC3CI4 SLP270

CYGK;2015-03-06 23:00;CYGK 062300Z 19010KT 15SM FEW030 BKN200 M09/M13 A3028 RMK SC1CI6 SLP263

CYGK;2015-03-07 00:00;CYGK 070000Z 19011KT 15SM FEW030 BKN220 M10/M14 A3027 RMK SC1CI5 SC TR SLP260

CYGK;2015-03-07 01:00;CYGK 070100Z 18009KT 15SM FEW035 BKN210 M11/M14 A3026 RMK SC1CI6 SLP254

CYGK;2015-03-07 02:00;CYGK 070200Z 18011KT 15SM FEW035 BKN220 M10/M14 A3023 RMK SC1CI7 SC TR SLP245

CYGK;2015-03-07 03:00;CYGK 070300Z 19011KT 15SM M10/M14 A3021 RMK SLP238

CYGK;2015-03-07 04:00;CYGK 070400Z 20011KT 15SM FEW150 BKN220 M10/M14 A3019 RMK AC2CI3 LAST STFD OBS/NEXT 071100UTC SLP231

CYGK;2015-03-07 11:00;CYGK 071100Z 23010G16KT 12SM -SN BKN022 OVC100 M05/M08 A3008 RMK SC5AC3 SLP192

CYGK;2015-03-07 11:46;CYGK 071146Z 23008KT 2 1/2SM -SN BKN022 OVC040 M05/M07 A3008 RMK SC6SC2 SLP192

CYGK;2015-03-07 12:00;CYGK 071200Z 23008KT 2SM -SN OVC023 M05/M07 A3008 RMK SC8 SLP191

CYGK;2015-03-07 12:25;CYGK 071225Z 23007KT 1SM -SN OVC021 M05/M07 A3008 RMK SN5SC3 SLP190

CYGK;2015-03-07 13:00;CYGK 071300Z 23006KT 1SM -SN OVC018 M05/M06 A3008 RMK SN6SC2 SLP190

CYGK;2015-03-07 13:26;CYGK 071326Z 24006KT 1 1/2SM -SN OVC020 M05/M06 A3008 RMK SN4SC4 SLP190

CYGK;2015-03-07 13:41;CYGK 071341Z 23007KT 2SM -SN OVC022 M05/M06 A3008 RMK SC8 SLP190

CYGK;2015-03-07 14:00;CYGK 071400Z 24007KT 2 1/2SM -SN VV025 M05/M07 A3007 RMK SN8 SLP189

CYGK;2015-03-07 14:28;CYGK 071428Z 23007KT 3SM -SN OVC034 M05/M07 A3006 RMK SC8 SLP186

CYGK;2015-03-07 15:00;CYGK 071500Z 23008KT 3SM -SN OVC034 M05/M07 A3005 RMK SC8 SLP182

CYGK;2015-03-07 16:00;CYGK 071600Z 21008KT 4SM -SN FEW015 SCT035 OVC160 M04/M07 A3004 RMK CU1SC4AS4 CU TR SLP178

CYGK;2015-03-07 17:00;CYGK 071700Z 20011KT 5SM -SN FEW015 SCT035 OVC140 M04/M07 A3003 RMK CU1SC3AC5 CU TR PCPN VRY LGT SLP176

CYGK;2015-03-07 18:00;CYGK 071800Z 20011KT 4SM -SN BKN035 OVC160 M04/M06 A3001 RMK SC6AS2 SLP168

CYGK;2015-03-07 19:00;CYGK 071900Z 21013KT 3SM -SN FEW009 BKN032 OVC160 M03/M05 A2999 RMK SF1SC6AS1 SLP159

CYGK;2015-03-07 19:07;CYGK 071907Z 21014KT 2SM -SN BKN008 OVC032 M03/M05 A2999 RMK SN2SF4SC2 SLP159

CYGK;2015-03-07 20:00;CYGK 072000Z 22017KT 3SM -SN BKN009 OVC018 M03/M05 A2998 RMK SF7SC1 SLP158

CYGK;2015-03-07 20:44;CYGK 072044Z 22016KT 3SM -SN SCT009 OVC025 M03/M05 A2998 RMK SF3SC5 SLP157

CYGK;2015-03-07 21:00;CYGK 072100Z 22012KT 5SM -SN FEW009 OVC025 M03/M05 A2998 RMK SF2SC6 SLP157

CYGK;2015-03-07 22:00;CYGK 072200Z 23009KT 6SM -SN FEW009 SCT030 BKN068 M03/M06 A2996 RMK SF1SC3AC3 INTMT -SN SLP152

CYGK;2015-03-07 23:00;CYGK 072300Z 21011KT 6SM BKN023 OVC060 M03/M05 A2997 RMK SC7SC1 INTMT -SN SLP154

CYGK;2015-03-08 00:00;CYGK 080000Z 22009KT 8SM -SN OVC022 M03/M05 A2998 RMK SC8 SLP156

CYGK;2015-03-08 01:00;CYGK 080100Z 22006KT 8SM BKN028 M04/M05 A2999 RMK SC6 SLP159

CYGK;2015-03-08 02:00;CYGK 080200Z 23006KT 8SM SCT050 BKN150 M04/M06 A3000 RMK SC3AC2 SLP163

CYGK;2015-03-08 03:00;CYGK 080300Z 20003KT 8SM FEW150 M08/M08 A3000 RMK AC2 SLP166

CYGK;2015-03-08 03:44;CYGK 080344Z 19005KT 6SM BR VCFG FEW002 M09/M10 A3000 RMK ST1 VIS SE -SW 1/2 SLP165

CYGK;2015-03-08 04:00;CYGK 080400Z 21006KT 6SM BR PRFG FEW002 SCT030 M07/M07 A3001 RMK SF1SC2 VIS SE-SW 1/2 LAST STFD OBS/NEXT 081000UTC SLP166

CYGK;2015-03-08 10:00;CYGK 081000Z 00000KT 1/2SM FZFG VV002 M11/M12 A2999 RMK FG8 SLP160

CYGK;2015-03-08 10:31;CYGK 081031Z VRB02KT 3/8SM FZFG VV002 M10/M11 A2999 RMK FG8 SLP163

CYGK;2015-03-08 11:00;CYGK 081100Z 36003KT 1/4SM FZFG OVC022 M10/M11 A2999 RMK FG6SC2 SLP162

CYGK;2015-03-08 11:05;CYGK 081105Z 01003KT 5/8SM -SN BR OVC024 M10/M11 A2999 RMK FG4SC4 SLP161

CYGK;2015-03-08 11:20;CYGK 081120Z 00000KT 1SM -SN BR BKN024 OVC080 M10/M11 A2999 RMK FG2SC5AC1 SLP160

CYGK;2015-03-08 12:00;CYGK 081200Z VRB02KT 1 1/4SM -SN BR SCT025 BKN040 OVC078 M09/M10 A2999 RMK FG2SC2SC2AC2 SLP161

CYGK;2015-03-08 13:00;CYGK 081300Z 31003KT 2 1/4SM -SN BR BKN032 OVC078 M09/M10 A2999 RMK SC5AC3 SLP161

CYGK;2015-03-08 13:17;CYGK 081317Z 24004KT 1 1/4SM -SN SCT015 BKN032 OVC078 M07/M08 A2999 RMK SC3SC3AC2 SLP161

CYGK;2015-03-08 13:24;CYGK 081324Z 24004KT 3/4SM -SN SCT013 OVC032 M07/M07 A2999 RMK SN3SC1SC4 SLP161

CYGK;2015-03-08 13:49;CYGK 081349Z 26003KT 5/8SM -SN BKN010 OVC032 M07/M07 A3000 RMK SC6SC2 SLP163

CYGK;2015-03-08 14:00;CYGK 081400Z 23003KT 3/4SM -SN OVC012 M06/M07 A3000 RMK SN3SC5 SLP163

CYGK;2015-03-08 14:31;CYGK 081431Z 22007KT 2SM -SN SCT012 OVC030 M06/M06 A3001 RMK SC3NS5 SLP166

CYGK;2015-03-08 14:50;CYGK 081450Z 25006KT 4SM -SN FEW012 BKN030 BKN066 M04/M05 A3000 RMK SC1SC4AC2 SLP165

CYGK;2015-03-08 15:00;CYGK 081500Z 25007KT 5SM -SN FEW030 BKN065 M04/M05 A3001 RMK SC1SC6 SLP168

CYGK;2015-03-08 15:22;CYGK 081522Z 26011G19KT 10SM FEW030 BKN063 M03/M03 A3001 RMK CU1SC6 SLP167

CYGK;2015-03-08 16:00;CYGK 081600Z 27014G23KT 15SM FEW025 BKN058 M03/M03 A3000 RMK CU2SC3 SLP165

CYGK;2015-03-08 16:36;CYGK 081636Z 27017G25KT 15SM -SN FEW025 BKN042 M01/M06 A3001 RMK CU2SC5 SLP168

CYGK;2015-03-08 17:00;CYGK 081700Z 26015G24KT 15SM -SN FEW028 OVC042 M01/M06 A3002 RMK CU2SC6 SLP171

CYGK;2015-03-08 17:41;CYGK 081741Z 26015G23KT 15SM SCT032 OVC045 M00/M07 A3002 RMK CU3SC5 SLP172

CYGK;2015-03-08 18:00;CYGK 081800Z 27015G23KT 15SM FEW034 BKN043 M00/M07 A3003 RMK CU2SC5 SLP175

CYGK;2015-03-08 19:00;CYGK 081900Z 27016G22KT 15SM BKN035 M00/M08 A3003 RMK SC6 SLP174

CYGK;2015-03-08 20:00;CYGK 082000Z 25013KT 15SM FEW040 M00/M08 A3004 RMK SC2 SLP179

CYGK;2015-03-08 21:00;CYGK 082100Z 24013G18KT 15SM FEW040 FEW250 M01/M08 A3004 RMK SC1CI1 SLP180

CYGK;2015-03-08 22:00;CYGK 082200Z 26013KT 15SM FEW040 FEW250 M01/M12 A3005 RMK SC1CI2 SC TR SLP181

CYGK;2015-03-08 23:00;CYGK 082300Z 24008KT 15SM FEW120 FEW250 M02/M13 A3005 RMK AC1CI2 AC TR SLP183

CYGK;2015-03-09 00:00;CYGK 090000Z 25004KT 15SM SCT100 BKN250 M04/M12 A3005 RMK AC4CI1 SLP183

CYGK;2015-03-09 01:00;CYGK 090100Z 23004KT 15SM BKN060 OVC080 M05/M10 A3005 RMK SC7AC1 SLP182

CYGK;2015-03-09 02:00;CYGK 090200Z 00000KT 15SM SCT060 OVC095 M05/M09 A3004 RMK SC4AC4 SLP180

CYGK;2015-03-09 03:00;CYGK 090300Z 00000KT 15SM OVC070 M04/M08 A3004 RMK AC8 LAST STFD OBS/NEXT 091000 UTC SLP179

CYGK;2015-03-09 10:00;CYGK 091000Z 27007KT 15SM FEW020 BKN100 M01/M04 A3001 RMK SC2AC5 SLP166

CYGK;2015-03-09 11:00;CYGK 091100Z 27006KT 15SM BKN025 BKN100 M01/M05 A3004 RMK SC5AC2 SLP178

CYGK;2015-03-09 12:00;CYGK 091200Z 24005KT 15SM FEW027 FEW100 M03/M06 A3007 RMK SC2AC1 AC TR SLP188

CYGK;2015-03-09 13:00;CYGK 091300Z 24006KT 15SM FEW030 M02/M05 A3010 RMK SC1 SLP198

CYGK;2015-03-09 14:00;CYGK 091400Z 22008KT 15SM FEW030 M01/M05 A3011 RMK CU1 CU TR SLP202

CYGK;2015-03-09 15:00;CYGK 091500Z 20006KT 15SM FEW030 FEW200 M01/M04 A3012 RMK SC1CI1 SC TR SLP205

CYGK;2015-03-09 16:00;CYGK 091600Z 22010KT 15SM FEW030 FEW190 01/M04 A3013 RMK SC1CI1 SC TR CI TR SLP207

CYGK;2015-03-09 17:00;CYGK 091700Z 21009KT 15SM FEW030 FEW200 02/M04 A3014 RMK SC1CI1 SC TR CI TR SLP212

CYGK;2015-03-09 18:00;CYGK 091800Z 22009KT 15SM FEW030 FEW200 02/M04 A3014 RMK SC1CI1 SC TR CI TR SLP210

CYGK;2015-03-09 19:00;CYGK 091900Z 23016G21KT 15SM FEW030 FEW250 02/M03 A3013 RMK CF1CI1 CF TR SLP207

CYGK;2015-03-09 20:00;CYGK 092000Z 24015G21KT 15SM FEW030 FEW250 02/M03 A3012 RMK CF1CI1 CF TR SLP205

CYGK;2015-03-09 21:00;CYGK 092100Z 23013KT 15SM FEW030 FEW250 03/M03 A3012 RMK SC1CI2 SC TR SLP204

CYGK;2015-03-09 22:00;CYGK 092200Z 23014KT 15SM FEW030 SCT170 BKN210 02/M04 A3013 RMK SC1AC4CI3 SC TR SLP206

CYGK;2015-03-09 23:00;CYGK 092300Z 24013G18KT 15SM BKN170 02/M03 A3015 RMK AC7 SLP212

CYGK;2015-03-10 00:00;CYGK 100000Z 24009KT 15SM BKN150 01/M03 A3016 RMK AC7 SLP218

CYGK;2015-03-10 01:00;CYGK 100100Z 24009KT 15SM FEW160 01/M03 A3017 RMK AC2 SLP222

CYGK;2015-03-10 02:00;CYGK 100200Z 24007KT 15SM FEW160 00/M04 A3018 RMK AC1 SLP224

CYGK;2015-03-10 03:00;CYGK 100300Z 21005KT 15SM SKC M01/M04 A3019 RMK LAST STFD OBS/NEXT 101000 UTC SLP228

CYGK;2015-03-10 10:00;CYGK 101000Z 17009KT 10SM BKN130 M03/M05 A3019 RMK AC7 SLP229

CYGK;2015-03-10 11:00;CYGK 101100Z 16009KT 12SM BKN130 BKN260 M04/M06 A3019 RMK AC6CI1 SLP229

CYGK;2015-03-10 12:00;CYGK 101200Z 18005KT 15SM SCT130 BKN260 M04/M07 A3019 RMK AC3CI4 SLP228

CYGK;2015-03-10 13:00;CYGK 101300Z 18005KT 15SM FEW120 BKN250 M03/M06 A3018 RMK AC1CI4 SLP226

CYGK;2015-03-10 14:00;CYGK 101400Z 20007KT 15SM FEW120 OVC260 M02/M06 A3017 RMK AC1CI7 SLP222

CYGK;2015-03-10 15:00;CYGK 101500Z 20007KT 15SM FEW120 BKN250 M01/M05 A3016 RMK AC1CI6 SLP217

CYGK;2015-03-10 16:00;CYGK 101600Z 21006KT 15SM FEW120 BKN260 00/M05 A3014 RMK AC1CS6 HALO SLP210

CYGK;2015-03-10 17:00;CYGK 101700Z 20009KT 15SM BKN240 01/M05 A3011 RMK CS7 SLP200

CYGK;2015-03-10 18:00;CYGK 101800Z 19003KT 15SM BKN240 02/M03 A3008 RMK CS7 SLP189

CYGK;2015-03-10 19:00;CYGK 101900Z 19005KT 15SM BKN078 BKN230 02/M03 A3004 RMK AC5CI2 SLP178

CYGK;2015-03-10 20:00;CYGK 102000Z 22004KT 15SM BKN038 OVC078 03/M03 A3001 RMK SC6AC2 SLP167

CYGK;2015-03-10 21:00;CYGK 102100Z 22005KT 15SM OVC034 04/M03 A2999 RMK SC8 SLP160

CYGK;2015-03-10 22:00;CYGK 102200Z 18004KT 15SM OVC027 02/M02 A2997 RMK SC8 SLP153

CYGK;2015-03-10 23:00;CYGK 102300Z 21004KT 15SM SCT033 OVC043 03/M02 A2994 RMK NS4SC4 SLP144

CYGK;2015-03-11 00:00;CYGK 110000Z 17005KT 15SM SCT035 OVC052 02/M02 A2993 RMK SC3SC5 SLP139

CYGK;2015-03-11 01:00;CYGK 110100Z 20005KT 15SM BKN047 OVC220 02/M01 A2991 RMK SC7CI1 SLP134

CYGK;2015-03-11 02:00;CYGK 110200Z 22006KT 15SM BKN041 OVC220 03/M00 A2990 RMK SC6CI2 SLP128

CYGK;2015-03-11 03:00;CYGK 110300Z 22008KT 15SM FEW040 BKN230 03/M00 A2989 RMK NS2CI4 LAST STFD OBS/NEXT 111000 UTC SLP126

CYGK;2015-03-11 10:00;CYGK 111000Z 24008KT 6SM BR BKN005 02/01 A2987 RMK SF7 SLP119

CYGK;2015-03-11 11:00;CYGK 111100Z 25005KT 2 1/2SM BR BKN005 OVC012 02/01 A2991 RMK SF5SC3 PRESRR SLP132

CYGK;2015-03-11 11:23;CYGK 111123Z 25005KT 3SM BR SCT005 BKN010 02/01 A2992 RMK SF3SC2 SLP134

CYGK;2015-03-11 12:00;CYGK 111200Z 23007KT 2 1/2SM BR FEW005 SCT250 02/01 A2993 RMK SF2CI1 SLP140

CYGK;2015-03-11 12:31;CYGK 111231Z 23007KT 1 1/2SM BR FEW005 FEW250 01/01 A2995 RMK SF1CI1 SLP145

CYGK;2015-03-11 12:43;CYGK 111243Z 24008KT 3/4SM BR OVC002 01/01 A2996 RMK SF8 VIS N 1/2 PRESRR SLP148

CYGK;2015-03-11 12:50;CYGK 111250Z 24010KT 1/4SM FG VV001 01/00 A2996 RMK FG8 SLP150

CYGK;2015-03-11 13:00;CYGK 111300Z 24011KT 1/8SM FG VV001 01/00 A2997 RMK FG8 SLP153

CYGK;2015-03-11 13:40;CYGK 111340Z 24009KT 1/2SM FG SKC 01/01 A2998 RMK FG6 SLP158

CYGK;2015-03-11 13:46;CYGK 111346Z 24009KT 3/4SM BR SKC 01/01 A2998 RMK FG2 SLP158

CYGK;2015-03-11 14:00;CYGK 111400Z 25009KT 3SM BR FEW015 02/01 A2998 RMK SC1 SLP157

CYGK;2015-03-11 15:00;CYGK 111500Z 25007KT 8SM FEW015 FEW260 05/01 A3000 RMK SF1CI1 SLP162

CYGK;2015-03-11 16:00;CYGK 111600Z 25010KT 15SM FEW025 FEW120 06/M00 A3001 RMK SC1AC1 AC TR SLP164

CYGK;2015-03-11 17:00;CYGK 111700Z 24012KT 15SM FEW030 BKN041 06/M00 A3003 RMK CU2SC4 SLP171

CYGK;2015-03-11 18:00;CYGK 111800Z 23013KT 15SM FEW030 SCT043 05/M00 A3002 RMK CF1SC2 VIA CYXU SLP169

CYGK;2015-03-11 19:00;CYGK 111900Z 22013KT 15SM FEW030 FEW200 05/M00 A3002 RMK CF1CI1 CF TR CI TR SLP168

CYGK;2015-03-11 20:00;CYGK 112000Z 23012G18KT 15SM SKC 05/M01 A3001 RMK SLP165

CYGK;2015-03-11 21:00;CYGK 112100Z 24013G21KT 15SM SKC 05/M01 A3000 RMK SLP163

CYGK;2015-03-11 22:00;CYGK 112200Z 24013G20KT 15SM SKC 04/M01 A3001 RMK SLP164

CYGK;2015-03-11 23:00;CYGK 112300Z 24012KT 15SM SKC 04/M02 A3002 RMK SLP168

CYGK;2015-03-12 00:00;CYGK 120000Z 24012G18KT 15SM SKC 03/M02 A3004 RMK SLP176

CYGK;2015-03-12 01:00;CYGK 120100Z 26015G22KT 15SM SKC 04/M03 A3006 RMK SLP183

CYGK;2015-03-12 02:00;CYGK 120200Z 26012G17KT 15SM SKC 04/M03 A3007 RMK SLP188

CYGK;2015-03-12 03:00;CYGK 120300Z 28010G18KT 15SM SKC 03/M03 A3011 RMK LAST STFD OBS/NEXT 121000 UTC SLP199

CYGK;2015-03-12 10:00;CYGK 121000Z 33013G20KT 15SM SKC M03/M12 A3043 RMK SLP307

CYGK;2015-03-12 11:00;CYGK 121100Z 33014KT 15SM SKC M03/M17 A3047 RMK SLP322

CYGK;2015-03-12 12:00;CYGK 121200Z 33015G23KT 15SM SKC M04/M17 A3051 RMK SLP336

CYGK;2015-03-12 13:00;CYGK 121300Z 33015G21KT 15SM SKC M04/M18 A3055 RMK SLP349

CYGK;2015-03-12 14:00;CYGK 121400Z 34015G22KT 15SM SKC M04/M18 A3058 RMK SLP360

CYGK;2015-03-12 15:00;CYGK 121500Z 34014KT 15SM FEW048 FEW260 M03/M16 A3060 RMK CU1CI1 CU TR CI TR SLP367

CYGK;2015-03-12 16:00;CYGK 121600Z 35009G15KT 300V360 15SM SKC M03/M16 A3061 RMK SLP370

CYGK;2015-03-12 17:00;CYGK 121700Z 36008KT 310V020 15SM SKC M02/M15 A3061 RMK SLP370

CYGK;2015-03-12 18:00;CYGK 121800Z 35012KT 15SM SKC M02/M16 A3060 RMK SLP367

CYGK;2015-03-12 19:00;CYGK 121900Z 01009KT 320V020 15SM FEW250 M01/M16 A3059 RMK CI1 CI TR SLP364

CYGK;2015-03-12 20:00;CYGK 122000Z VRB02KT 15SM FEW260 M00/M15 A3059 RMK CI1 CI TR SLP365

CYGK;2015-03-12 21:00;CYGK 122100Z 30007KT 280V360 15SM SCT250 00/M16 A3060 RMK CI4 SLP367

CYGK;2015-03-12 22:00;CYGK 122200Z 19010KT 15SM BKN250 M02/M09 A3061 RMK CI6 SLP370

CYGK;2015-03-12 23:00;CYGK 122300Z 20008KT 15SM BKN250 M03/M08 A3062 RMK CI6 SLP374

CYGK;2015-03-13 00:00;CYGK 130000Z 20006KT 15SM FEW250 M04/M08 A3064 RMK CI2 SLP380

CYGK;2015-03-13 01:00;CYGK 130100Z 19004KT 15SM FEW250 M04/M07 A3064 RMK CI1 SLP381

CYGK;2015-03-13 02:00;CYGK 130200Z 18003KT 15SM SKC M06/M08 A3062 RMK SLP376

CYGK;2015-03-13 03:00;CYGK 130300Z 15002KT 15SM SKC M06/M08 A3061 RMK LAST STFD OBS/NEXT 131000 UTC SLP370

CYGK;2015-03-13 10:00;CYGK 131000Z 10003KT 15SM OVC060 M06/M07 A3059 RMK SC8 SLP364

CYGK;2015-03-13 11:00;CYGK 131100Z 07004KT 15SM OVC055 M05/M07 A3057 RMK SC8 SLP357

CYGK;2015-03-13 11:48;CYGK 131148Z 07003KT 15SM -SN OVC040 M05/M08 A3057 RMK SC8 SLP356

CYGK;2015-03-13 12:00;CYGK 131200Z 09004KT 15SM -SN OVC040 M05/M07 A3057 RMK SC8 SLP356

CYGK;2015-03-13 12:11;CYGK 131211Z 13004KT 080V140 15SM SCT035 BKN080 M05/M08 A3056 RMK SC3AC4 SLP355

CYGK;2015-03-13 13:00;CYGK 131300Z 13004KT 15SM FEW035 SCT080 BKN120 OVC250 M04/M08 A3055 RMK SC1AC2AS4CS1 SLP351

CYGK;2015-03-13 14:00;CYGK 131400Z 13005KT 15SM FEW080 SCT120 OVC250 M03/M09 A3055 RMK AC2AS2CS4 SLP350

CYGK;2015-03-13 15:00;CYGK 131500Z 12007KT 15SM FEW080 SCT170 OVC250 M02/M10 A3052 RMK AC1AS2CS5 SLP340

CYGK;2015-03-13 16:00;CYGK 131600Z 12008KT 15SM FEW080 SCT170 OVC250 M01/M10 A3049 RMK AC1AS2CI5 PRESFR SLP330

CYGK;2015-03-13 17:00;CYGK 131700Z 01008KT 15SM BKN170 OVC250 01/M12 A3045 RMK AS5CS3 WND ESTD SLP317

CYGK;2015-03-13 18:00;CYGK 131800Z 05009KT 15SM OVC150 02/M12 A3041 RMK AC8 PRESFR SLP303

CYGK;2015-03-13 19:00;CYGK 131900Z 06008KT 15SM FEW080 OVC150 02/M09 A3037 RMK AC1AS7 SLP290

CYGK;2015-03-13 20:00;CYGK 132000Z 07009KT 15SM FEW160 OVC250 03/M09 A3035 RMK AC2CI6 SLP281

CYGK;2015-03-13 21:00;CYGK 132100Z 07010KT 15SM FEW160 BKN250 04/M10 A3030 RMK AC2CI5 SLP265

CYGK;2015-03-13 22:00;CYGK 132200Z 06009KT 15SM BKN140 OVC250 04/M08 A3028 RMK AC5CI3 SLP258

CYGK;2015-03-13 23:00;CYGK 132300Z 05008KT 15SM BKN140 OVC250 02/M08 A3026 RMK AC5CI3 SLP251

CYGK;2015-03-14 00:00;CYGK 140000Z 06011KT 15SM BKN130 OVC250 02/M08 A3025 RMK AC6CI2 SLP247

CYGK;2015-03-14 01:00;CYGK 140100Z 05009G15KT 15SM BKN130 OVC250 01/M08 A3023 RMK AC7CI1 SLP241

CYGK;2015-03-14 02:00;CYGK 140200Z 05005KT 15SM BKN130 BKN250 M00/M07 A3020 RMK AC6CI1 SLP232

CYGK;2015-03-14 03:00;CYGK 140300Z 06009KT 15SM BKN140 OVC250 M01/M06 A3018 RMK AC7CI1 LAST STFD OBS/NXT 141000Z SLP225

CYGK;2015-03-14 10:00;CYGK 141000Z 15010KT 15SM OVC028 02/M03 A3002 RMK SC8 SLP169

CYGK;2015-03-14 10:13;CYGK 141013Z 14006KT 12SM -RA OVC027 01/M02 A3002 RMK SC8 SLP169

CYGK;2015-03-14 11:00;CYGK 141100Z 16007KT 15SM -RA OVC030 02/M01 A3001 RMK SC8 SLP166

CYGK;2015-03-14 12:00;CYGK 141200Z 15010KT 4SM -RA BR OVC028 01/M01 A2999 RMK SC8 SLP160

CYGK;2015-03-14 13:00;CYGK 141300Z 13006KT 6SM -RA BR OVC020 01/M00 A2997 RMK NS8 SLP152

CYGK;2015-03-14 14:00;CYGK 141400Z 13008KT 6SM -RA BR OVC020 02/00 A2995 RMK NS8 SLP145

CYGK;2015-03-14 14:40;CYGK 141440Z 13009KT 3SM -RA BR OVC012 02/00 A2993 RMK NS8 SLP138

CYGK;2015-03-14 15:00;CYGK 141500Z 12007KT 3SM -RA BR OVC012 02/01 A2992 RMK NS8 SLP136

CYGK;2015-03-14 16:00;CYGK 141600Z 11006KT 4SM -SHRA BR OVC013 02/01 A2987 RMK NS8 PRESFR SLP119

CYGK;2015-03-14 16:39;CYGK 141639Z 11007KT 4SM -SHRA BR FEW010 OVC018 02/01 A2984 RMK SF1NS7 SLP109

CYGK;2015-03-14 17:00;CYGK 141700Z 12007KT 4SM -SHRA BR FEW014 OVC018 02/01 A2983 RMK SF1NS7 SLP105

CYGK;2015-03-14 17:39;CYGK 141739Z 12007KT 5SM BR OVC015 03/01 A2980 RMK SC8 SLP096

CYGK;2015-03-14 18:00;CYGK 141800Z 11005KT 6SM BR OVC015 03/01 A2979 RMK SC8 SLP092

CYGK;2015-03-14 19:00;CYGK 141900Z 12006KT 5SM BR OVC014 03/01 A2975 RMK SC8 SLP077

CYGK;2015-03-14 19:37;CYGK 141937Z 13006KT 2SM BR OVC009 03/02 A2973 RMK SF8 SLP071

CYGK;2015-03-14 20:00;CYGK 142000Z 13006KT 2SM BR OVC005 02/02 A2972 RMK SF8 SLP067

CYGK;2015-03-14 20:07;CYGK 142007Z 12007KT 2SM -SHRA BR OVC007 02/02 A2972 RMK SF8 CIG VRB 5-10 SLP066

CYGK;2015-03-14 20:24;CYGK 142024Z 12006KT 4SM -SHRA BR OVC010 02/02 A2971 RMK SF8 CIG VRG 6-14 SLP064

CYGK;2015-03-14 21:00;CYGK 142100Z CCA 14005KT 6SM -SHRA BR OVC010 02/02 A2971 RMK SC8 CIG VRB 6-14 SLP064

CYGK;2015-03-14 21:27;CYGK 142127Z 14007KT 2SM -SHRA BR OVC010 02/01 A2969 RMK SF8 CIG VRB 6-14 SLP058

CYGK;2015-03-14 22:00;CYGK 142200Z 12005KT 1SM -SHRA BR OVC008 02/01 A2968 RMK ST8 CIG VRB 4-12 SLP055

CYGK;2015-03-14 22:09;CYGK 142209Z 14004KT 3/4SM BR OVC002 02/02 A2969 RMK ST8 SLP057

CYGK;2015-03-14 23:05;CYGK 142305Z 16002KT 1SM -SHRA BR OVC002 02/01 A2969 RMK ST8 VIS NW-NE 3/4 SLP056

CYGK;2015-03-14 23:26;CYGK 142326Z 15003KT 3/4SM -SHRA OVC002 02/02 A2968 RMK ST8 SLP055

CYGK;2015-03-14 23:40;CYGK 142340Z VRB02KT 1/2SM FG OVC002 02/01 A2969 RMK ST8 SLP057

CYGK;2015-03-15 00:00;CYGK 150000Z 25004KT 1/4SM FG VV001 02/01 A2969 RMK FG8 SLP058

CYGK;2015-03-15 00:53;CYGK 150053Z 25009G15KT 1SM BR OVC001 02/02 A2970 RMK ST8 SLP062

CYGK;2015-03-15 01:00;CYGK 150100Z 26012KT 3SM BR OVC005 02/02 A2971 RMK SF8 SLP063

CYGK;2015-03-15 01:09;CYGK 150109Z 26012KT 4SM BR OVC010 02/02 A2971 RMK SC8 SLP064

CYGK;2015-03-15 01:46;CYGK 150146Z 27009G17KT 10SM SCT010 OVC046 02/00 A2972 RMK SC4SC4 SLP067

CYGK;2015-03-15 02:00;CYGK 150200Z 26008KT 15SM SCT010 OVC055 02/00 A2972 RMK SC3SC5 SLP067

CYGK;2015-03-15 03:00;CYGK 150300Z 26010KT 15SM BKN050 BKN140 02/M01 A2973 RMK SC6AC1 LAST STFD OBS/NXT 151000Z SLP069

CYGK;2015-03-15 10:00;CYGK 151000Z 28010KT 15SM -SN FEW008 BKN018 OVC032 01/00 A2972 RMK SF2SC4SC2 SLP067

CYGK;2015-03-15 10:27;CYGK 151027Z 29008KT 12SM -RASN BKN012 OVC032 01/00 A2973 RMK SC6SC2 SLP071

CYGK;2015-03-15 11:00;CYGK 151100Z 31008KT 12SM -RASN BKN012 BKN025 OVC070 01/00 A2975 RMK SC5SC2AC1 SLP078

CYGK;2015-03-15 11:26;CYGK 151126Z 32012G19KT 15SM SCT012 OVC028 01/M01 A2977 RMK SC4SC4 SLP084

CYGK;2015-03-15 11:44;CYGK 151144Z 33012G21KT 12SM -SN FEW010 BKN032 OVC052 01/M02 A2978 RMK SC1SC5SC2 SLP087

CYGK;2015-03-15 12:00;CYGK 151200Z 33010KT 3SM -SN BKN020 OVC053 01/M01 A2979 RMK SC6SC2 PRESRR SLP091

CYGK;2015-03-15 12:21;CYGK 151221Z 33006KT 2SM -SN BKN009 OVC030 00/M01 A2980 RMK SF5SC3 SLP094

CYGK;2015-03-15 12:40;CYGK 151240Z 32008KT 10SM -SN SCT009 OVC024 01/M01 A2980 RMK SF4SC4 SLP096

CYGK;2015-03-15 13:00;CYGK 151300Z 33017G22KT 12SM -RA FEW009 OVC020 01/M03 A2981 RMK SF1SC7 SLP099

CYGK;2015-03-15 13:41;CYGK 151341Z 34017G23KT 10SM -SN BKN023 OVC060 00/M03 A2984 RMK SC6SC2 SLP110

CYGK;2015-03-15 14:00;CYGK 151400Z 34016G27KT 12SM -SN BKN027 BKN060 00/M03 A2986 RMK SC6SC1 SLP114

CYGK;2015-03-15 14:09;CYGK 151409Z 34015G23KT 15SM BKN020 BKN060 00/M03 A2986 RMK CU5SC2 SLP116

CYGK;2015-03-15 15:00;CYGK 151500Z 34017G27KT 15SM OVC020 01/M04 A2989 RMK SC8 SLP125

CYGK;2015-03-15 18:00;CYGK 151800Z 32013G20KT 15SM BKN030 01/M03 A2996 RMK SC7 SLP151

CYGK;2015-03-15 19:00;CYGK 151900Z 35015KT 15SM BKN030 02/M04 A2998 RMK SC7 SLP156

CYGK;2015-03-15 20:00;CYGK 152000Z 35015KT 15SM BKN030 02/M04 A3001 RMK SC7 SLP165

CYGK;2015-03-15 21:00;CYGK 152100Z 35013KT 15SM OVC033 02/M04 A3003 RMK SC8 SLP174

CYGK;2015-03-15 22:00;CYGK 152200Z 35009KT 15SM SCT030 02/M04 A3004 RMK SC3 SLP176

CYGK;2015-03-15 23:00;CYGK 152300Z 04004KT 15SM BKN026 BKN250 02/M03 A3007 RMK SC6CI1 SLP187

CYGK;2015-03-16 00:00;CYGK 160000Z 09003KT 15SM BKN030 02/M03 A3009 RMK SC7 SLP192

CYGK;2015-03-16 01:00;CYGK 160100Z 00000KT 15SM OVC029 01/M03 A3011 RMK SC8 SLP199

CYGK;2015-03-16 02:00;CYGK 160200Z 20003KT 15SM FEW030 M00/M03 A3010 RMK SC1 SLP196

CYGK;2015-03-16 03:00;CYGK 160300Z 23005KT 15SM FEW030 M01/M03 A3009 RMK SC1 SC TR LAST STFD OBS/NEXT 161000UTC SLP192

CYGK;2015-03-16 10:00;CYGK 161000Z 16005KT 3/4SM BR VV002 M03/M03 A2998 RMK FG8 SLP156

CYGK;2015-03-16 10:11;CYGK 161011Z 15005KT 2SM BR SKC M03/M03 A2997 RMK FG6 SLP154

CYGK;2015-03-16 10:35;CYGK 161035Z 15005KT 2 1/2SM BR OVC003 M03/M03 A2996 RMK FG6SF2 SLP150

CYGK;2015-03-16 11:00;CYGK 161100Z 17005KT 2 1/2SM BR OVC003 M02/M03 A2997 RMK FG3SF5 SLP153

CYGK;2015-03-16 11:14;CYGK 161114Z 14005KT 2SM BR OVC002 M02/M03 A2996 RMK FG2SF6 SLP151

CYGK;2015-03-16 12:00;CYGK 161200Z 15008KT 2 1/4SM BR OVC002 M02/M02 A2993 RMK FG2SF6 PRESFR SLP141

CYGK;2015-03-16 12:52;CYGK 161252Z 16008KT 4SM BR SCT002 BKN050 OVC150 M02/M02 A2994 RMK SF4SC1AS3 SLP142

CYGK;2015-03-16 13:00;CYGK 161300Z 18008KT 5SM BR SCT002 SCT050 OVC160 M02/M02 A2994 RMK SF3SC1AS4 SLP142

CYGK;2015-03-16 14:00;CYGK 161400Z 18009KT 6SM BR FEW008 FEW050 BKN160 OVC200 M01/M02 A2992 RMK CF1SC1AS4CI2 SLP136

CYGK;2015-03-16 15:00;CYGK 161500Z 18007KT 6SM BR FEW055 SCT110 OVC190 M00/M01 A2992 RMK SC1AC2AS5 SLP135

CYGK;2015-03-16 16:00;CYGK 161600Z 16008KT 10SM FEW056 FEW110 SCT160 OVC210 00/M01 A2988 RMK SC1AC1AS2CS4 PRESFR SLP124

CYGK;2015-03-16 17:00;CYGK 161700Z 16008KT 10SM FEW110 OVC190 01/M01 A2984 RMK AC1CS7 PRESFR SLP111

CYGK;2015-03-16 18:00;CYGK 161800Z 19006KT 10SM FEW180 OVC240 01/M01 A2983 RMK AC1CS7 SLP106

CYGK;2015-03-16 19:00;CYGK 161900Z 18004KT 10SM BKN160 OVC240 02/M01 A2982 RMK AC5CS3 SLP103

CYGK;2015-03-16 20:00;CYGK 162000Z 18004KT 12SM BKN170 OVC220 02/M01 A2980 RMK AC5CS3 SLP096

CYGK;2015-03-16 21:00;CYGK 162100Z 18005KT 10SM SCT160 OVC220 02/M01 A2980 RMK AC3CS5 SLP096

CYGK;2015-03-16 22:00;CYGK 162200Z 19006KT 10SM OVC140 01/M01 A2978 RMK AC8 SLP089

CYGK;2015-03-16 23:00;CYGK 162300Z 21004KT 10SM BKN130 OVC220 01/M01 A2975 RMK AC6CI2 SLP079

CYGK;2015-03-17 00:00;CYGK 170000Z 25007KT 10SM OVC120 02/M00 A2978 RMK AC8 SLP087

CYGK;2015-03-17 01:00;CYGK 170100Z 22003KT 12SM OVC120 02/M00 A2977 RMK AC8 SLP084

CYGK;2015-03-17 02:00;CYGK 170200Z 15003KT 15SM OVC110 01/M00 A2975 RMK AC8 SLP077

CYGK;2015-03-17 03:00;CYGK 170300Z 18005KT 15SM BKN085 OVC100 01/M00 A2972 RMK AC5AC3 LAST STFD OBS/NEXT 171000 UTC SLP069

CYGK;2015-03-17 10:00;CYGK 171000Z 25005KT 2 1/2SM -RA BR OVC031 02/02 A2959 RMK NS8 VIS LWR SE-SW SLP023

CYGK;2015-03-17 10:31;CYGK 171031Z 24006KT 1 1/4SM BR FEW003 OVC040 02/02 A2959 RMK SF1NS7 SLP022

CYGK;2015-03-17 10:51;CYGK 171051Z 27006KT 2SM BR BKN003 OVC025 02/02 A2960 RMK SF5SC3 SLP027

CYGK;2015-03-17 11:00;CYGK 171100Z 27005KT 2 1/4SM BR BKN003 OVC026 02/02 A2960 RMK SF5SC3 SLP026

CYGK;2015-03-17 11:25;CYGK 171125Z 28006KT 2 1/2SM BR SCT004 OVC028 03/02 A2960 RMK SF3SC5 SLP028

CYGK;2015-03-17 12:00;CYGK 171200Z 28007KT 5SM BR FEW004 OVC020 03/02 A2961 RMK SF1SC7 SLP031

CYGK;2015-03-17 13:00;CYGK 171300Z 27007KT 12SM FEW005 BKN016 OVC035 03/02 A2964 RMK SF1SC5SC3 SF TR SLP039

CYGK;2015-03-17 13:27;CYGK 171327Z 29008KT 10SM -SHRA BKN014 OVC035 03/02 A2965 RMK CU6SC2 SLP043

CYGK;2015-03-17 13:33;CYGK 171333Z 32013G22KT 280V350 10SM -SHRA FEW007 BKN020 OVC035 03/02 A2966 RMK CF2CU3SC3 PRESRR SLP047

CYGK;2015-03-17 13:50;CYGK 171350Z 34020G26KT 15SM FEW007 FEW020 OVC030 02/M02 A2967 RMK CF1CU1SC6 SLP050

CYGK;2015-03-17 14:00;CYGK 171400Z 34020G27KT 15SM FEW007 FEW020 OVC035 02/M02 A2968 RMK CF1CU1SC6 PRESRR SLP053

CYGK;2015-03-17 15:00;CYGK 171500Z 33018G29KT 15SM -SN SCT025 BKN045 OVC075 01/M03 A2973 RMK SC4SC2AC2 SLP070

CYGK;2015-03-17 15:33;CYGK 171533Z 33025G36KT 15SM SCT030 BKN070 M00/M06 A2976 RMK SC4AC3 PRESRR SLP082

CYGK;2015-03-17 16:00;CYGK 171600Z 34024G31KT 15SM FEW030 SCT065 BKN084 M01/M07 A2979 RMK CU2SC2AC2 PRESRR SLP091

CYGK;2015-03-17 17:00;CYGK 171700Z 34024G32KT 15SM 00/M09 A2983 RMK SLP104

CYGK;2015-03-17 18:00;CYGK 171800Z 35017G29KT 15SM FEW035 00/M13 A2986 RMK CF1 CF TR SLP114

CYGK;2015-03-17 19:00;CYGK 171900Z 33017G29KT 15SM FEW040 FEW070 FEW240 01/M13 A2987 RMK CF1AC1CI1 CF TR AC TR CI TR SLP117

CYGK;2015-03-17 20:00;CYGK 172000Z 31020G30KT 15SM FEW040 FEW080 01/M14 A2988 RMK CF1AC1 CF TR AC TR SLP121

CYGK;2015-03-17 21:00;CYGK 172100Z 33017G22KT 15SM FEW080 01/M13 A2988 RMK AC2 SLP123

CYGK;2015-03-17 22:00;CYGK 172200Z 30011KT 15SM BKN080 01/M13 A2990 RMK AC5 SLP127

CYGK;2015-03-17 23:00;CYGK 172300Z 31012G18KT 15SM BKN075 00/M13 A2991 RMK AC5 SLP132

CYGK;2015-03-18 00:00;CYGK 180000Z 31012G22KT 15SM BKN078 BKN100 M00/M12 A2993 RMK AC5AC1 SLP139

CYGK;2015-03-18 01:00;CYGK 180100Z 32013G19KT 15SM SCT078 M01/M12 A2996 RMK AC4 SLP151

CYGK;2015-03-18 02:00;CYGK 180200Z 34012KT 15SM SCT068 M02/M10 A2999 RMK AC4 SLP161

CYGK;2015-03-18 03:00;CYGK 180300Z 33009KT 15SM FEW080 FEW110 M03/M10 A3000 RMK AC1AC1 LAST STFD OBS/NEXT 181000 UTC SLP164

CYGK;2015-03-18 10:00;CYGK 181000Z 32005KT 15SM SKC M08/M13 A3009 RMK SLP193

CYGK;2015-03-18 11:00;CYGK 181100Z 32006KT 15SM FEW050 SCT090 BKN250 M08/M14 A3011 RMK CF1AC3CI3 CF TR SLP200

CYGK;2015-03-18 12:00;CYGK 181200Z 34009KT 15SM FEW050 FEW090 SCT250 M08/M14 A3013 RMK CF1AC2CI2 CF TR SLP210

CYGK;2015-03-18 13:00;CYGK 181300Z 35010KT 15SM FEW050 BKN080 BKN250 M07/M14 A3015 RMK SC1AC5CI1 SLP214

CYGK;2015-03-18 14:00;CYGK 181400Z 33010G16KT 15SM FEW050 BKN074 BKN250 M06/M15 A3016 RMK CU1AC5CI2 CU TR SLP218

CYGK;2015-03-18 15:00;CYGK 181500Z 31011KT 280V350 15SM FEW050 BKN076 BKN250 M05/M16 A3016 RMK CU1AC5CI2 CU TR SLP218

CYGK;2015-03-18 16:00;CYGK 181600Z 34011G18KT 270V030 15SM FEW050 SCT070 BKN250 M04/M15 A3015 RMK CU1AC3CI3 SLP213

CYGK;2015-03-18 17:00;CYGK 181700Z 32013G19KT 280V350 15SM FEW050 BKN073 OVC250 M03/M16 A3014 RMK SC1AC6CI1 SLP212

CYGK;2015-03-18 18:00;CYGK 181800Z 29011G18KT 280V350 15SM FEW040 BKN060 M03/M15 A3013 RMK CF1CU7 CF TR VIRGA ALQDS SLP210

CYGK;2015-03-18 19:00;CYGK 181900Z 31010KT 15SM VCSH BKN043 BKN060 M03/M14 A3012 RMK CU5SC2 SLP206

CYGK;2015-03-18 20:00;CYGK 182000Z 19003KT 170V240 15SM VCSH SCT043 BKN065 BKN098 M03/M14 A3011 RMK CU3SC2AC1 SLP201

CYGK;2015-03-18 21:00;CYGK 182100Z 26012KT 240V340 15SM SCT034 BKN050 BKN250 M02/M12 A3010 RMK CU3SC2CI2 VIRGA SLP200

CYGK;2015-03-18 22:00;CYGK 182200Z 27012KT 15SM FEW034 BKN062 M03/M12 A3010 RMK CU2SC3 SLP200

CYGK;2015-03-18 23:00;CYGK 182300Z 27007KT 15SM FEW042 SCT065 M03/M13 A3011 RMK CU1SC2 SLP202

CYGK;2015-03-19 00:00;CYGK 190000Z 20007KT 15SM FEW065 FEW080 M04/M09 A3013 RMK SC1AC1 SLP209

CYGK;2015-03-19 01:00;CYGK 190100Z 20007KT 15SM FEW068 M05/M08 A3015 RMK AC2 SLP216

CYGK;2015-03-19 02:00;CYGK 190200Z 06004KT 15SM FEW072 M06/M09 A3018 RMK AC1 SLP224

CYGK;2015-03-19 03:00;CYGK 190300Z 06003KT 360V070 15SM SKC M06/M15 A3019 RMK LAST STFD OBS/NEXT 191000 UTC SLP228

CYGK;2015-03-19 10:00;CYGK 191000Z 33006KT 15SM SKC M11/M17 A3030 RMK SLP266

CYGK;2015-03-19 11:00;CYGK 191100Z 33006KT 15SM FEW100 M12/M17 A3033 RMK AC1 AC TR SLP276

CYGK;2015-03-19 12:00;CYGK 191200Z 34006KT 15SM FEW100 M11/M16 A3036 RMK AC1 AC TR SLP287

CYGK;2015-03-19 13:00;CYGK 191300Z 35006KT 15SM FEW140 M08/M16 A3037 RMK AC1 AC TR SLP291

CYGK;2015-03-19 14:00;CYGK 191400Z 35007KT 15SM FEW250 M05/M17 A3038 RMK CI1 CI TR SLP295

CYGK;2015-03-19 15:00;CYGK 191500Z 35009G15KT 15SM FEW250 M03/M18 A3039 RMK CI1 CI TR SLP296

CYGK;2015-03-19 16:00;CYGK 191600Z 32006KT 300V010 15SM FEW250 M02/M16 A3039 RMK CI1 CI TR SLP297

CYGK;2015-03-19 17:00;CYGK 191700Z VRB06KT 15SM FEW250 M02/M18 A3038 RMK CI1 CI TR SLP295

CYGK;2015-03-19 17:34;CYGK 191734Z 19013KT 140V200 15SM FEW250 M02/M12 A3038 RMK CI1 CI TR WSHFT 1723 SLP293

CYGK;2015-03-19 18:00;CYGK 191800Z 17010KT 15SM FEW250 M03/M13 A3037 RMK CI1 SLP291

CYGK;2015-03-19 19:00;CYGK 191900Z 17010KT 15SM FEW250 M02/M11 A3035 RMK CI1 SLP283

CYGK;2015-03-19 20:00;CYGK 192000Z 18012KT 15SM FEW250 M02/M11 A3034 RMK CI2 SLP280

CYGK;2015-03-19 21:00;CYGK 192100Z 19011KT 15SM SCT250 M02/M10 A3034 RMK CI3 SLP279

CYGK;2015-03-19 22:00;CYGK 192200Z 20011KT 15SM SCT250 M03/M11 A3033 RMK CI3 SLP277

CYGK;2015-03-19 23:00;CYGK 192300Z 19008KT 15SM FEW150 BKN250 M04/M09 A3033 RMK AC1CI5 AC TR SLP279

CYGK;2015-03-20 00:00;CYGK 200000Z 19008KT 15SM FEW150 BKN210 M05/M09 A3034 RMK AC1CI6 AC TR SLP279

CYGK;2015-03-20 01:00;CYGK 200100Z 22005KT 15SM BKN180 M05/M09 A3035 RMK CI6 SLP282

CYGK;2015-03-20 02:00;CYGK 200200Z 21005KT 15SM BKN180 M05/M08 A3035 RMK CI7 SLP282

CYGK;2015-03-20 03:00;CYGK 200300Z 20002KT 15SM OVC200 M05/M08 A3034 RMK CI8 LAST STFD OBS/NEXT 201000 UTC SLP280

CYGK;2015-03-20 10:00;CYGK 201000Z 10003KT 15SM BKN140 OVC240 M05/M13 A3024 RMK AC7CI1 SLP244

CYGK;2015-03-20 11:00;CYGK 201100Z 11004KT 15SM BKN130 M05/M11 A3022 RMK AC7 SLP239

CYGK;2015-03-20 12:00;CYGK 201200Z 08003KT 15SM FEW090 BKN130 M05/M10 A3020 RMK AC2AC5 SLP233

CYGK;2015-03-20 13:00;CYGK 201300Z 00000KT 15SM SCT045 BKN090 OVC130 M04/M13 A3020 RMK SC4AC2AC2 SLP231

CYGK;2015-03-20 14:00;CYGK 201400Z 09004KT 050V110 15SM VCSH SCT040 OVC070 M03/M11 A3018 RMK SC3AC5 SLP227

CYGK;2015-03-20 15:00;CYGK 201500Z 15005KT 15SM VCSH FEW040 OVC069 M02/M12 A3018 RMK SC2AC6 SLP227

CYGK;2015-03-20 16:00;CYGK 201600Z 15007KT 15SM FEW030 OVC065 M02/M09 A3018 RMK SC1SC7 SLP223

CYGK;2015-03-20 16:38;CYGK 201638Z 15013KT 15SM BKN014 BKN070 BKN250 M00/M08 A3017 RMK SC5AC1CI1 SLP220

CYGK;2015-03-20 17:00;CYGK 201700Z 16012KT 15SM BKN014 OVC065 M00/M06 A3016 RMK SC5SC3 SLP217

CYGK;2015-03-20 17:43;CYGK 201743Z 18014KT 15SM OVC009 M00/M02 A3015 RMK SC8 SLP215

CYGK;2015-03-20 18:00;CYGK 201800Z 16013KT 12SM OVC007 M01/M03 A3014 RMK SC8 SLP212

CYGK;2015-03-20 18:41;CYGK 201841Z 16013KT 12SM OVC004 M01/M02 A3013 RMK ST8 SLP206

CYGK;2015-03-20 19:00;CYGK 201900Z 17012KT 12SM OVC004 M01/M02 A3012 RMK ST8 SLP203

CYGK;2015-03-20 20:00;CYGK 202000Z 17012G19KT 10SM OVC006 M00/M01 A3012 RMK ST8 SLP203

CYGK;2015-03-20 20:54;CYGK 202054Z 16013G19KT 10SM FEW006 BKN009 OVC014 M00/M01 A3010 RMK SF2SF4SC2 SLP196

CYGK;2015-03-20 21:00;CYGK 202100Z 17014G19KT 10SM BKN009 OVC014 M00/M01 A3010 RMK SF6SC2 SLP196

CYGK;2015-03-20 22:00;CYGK 202200Z 17013KT 10SM BKN009 OVC019 M00/M01 A3009 RMK SF5SC3 SLP195

CYGK;2015-03-20 22:09;CYGK 202209Z 17012KT 12SM SCT008 OVC020 M00/M01 A3009 RMK SF3SC5 SLP195

CYGK;2015-03-20 23:00;CYGK 202300Z 16013KT 15SM FEW009 OVC020 M00/M02 A3008 RMK SF1SC7 SLP191

CYGK;2015-03-21 00:00;CYGK 210000Z 16011KT 15SM FEW009 OVC021 M00/M02 A3008 RMK SF1SC8 SF TR SLP190

CYGK;2015-03-21 01:00;CYGK 210100Z 16014G19KT 15SM BKN026 OVC035 M00/M02 A3006 RMK SC6SC2 SLP184

CYGK;2015-03-21 02:00;CYGK 210200Z 17014G19KT 15SM OVC034 M01/M02 A3005 RMK SC8 SLP182

CYGK;2015-03-21 03:00;CYGK 210300Z 17015KT 15SM OVC034 M01/M02 A3004 RMK SC8 CIG RAG LAST STFD OBS/NEXT 211000 UTC SLP176

CYGK;2015-03-21 10:00;CYGK 211000Z 17011KT 4SM -SN BKN006 OVC020 M01/M02 A2993 RMK SF5SC3 SLP141

CYGK;2015-03-21 10:40;CYGK 211040Z 17012KT 4SM -SN OVC004 M01/M02 A2993 RMK SF8 WSHFT 1020 SLP138

CYGK;2015-03-21 11:00;CYGK 211100Z 17012KT 3SM -SN OVC005 M01/M02 A2992 RMK SF8 SLP137

CYGK;2015-03-21 11:32;CYGK 211132Z 17013KT 3SM -SN OVC003 M01/M01 A2991 RMK SF8 SLP134

CYGK;2015-03-21 12:00;CYGK 211200Z 17014KT 2SM -SN OVC002 M01/M01 A2990 RMK SF8 SLP130

CYGK;2015-03-21 13:00;CYGK 211300Z 17015KT 1SM -SN OVC002 M01/M01 A2987 RMK SF8 SLP120

CYGK;2015-03-21 14:00;CYGK 211400Z 18014G21KT 1 1/2SM -SN OVC002 M01/M01 A2985 RMK ST8 SLP113

CYGK;2015-03-21 14:39;CYGK 211439Z 17013KT 1 1/2SM -SN OVC004 M00/M01 A2984 RMK SF8 CIG VRB 2-6 VIS VRB 1-2 SLP110

CYGK;2015-03-21 15:00;CYGK 211500Z 17014KT 2SM -SN SCT002 OVC006 00/M00 A2983 RMK SF3ST5 SLP105

CYGK;2015-03-21 15:39;CYGK 211539Z 20014KT 2SM -RA SCT002 OVC008 01/00 A2981 RMK SF4ST4 SLP100

CYGK;2015-03-21 16:00;CYGK 211600Z 20014KT 2 1/2SM -RASN SCT002 OVC008 01/00 A2980 RMK SF4ST4 SLP096

CYGK;2015-03-21 16:48;CYGK 211648Z 20015G21KT 2SM -RA OVC003 01/01 A2979 RMK SF8 SLP090

CYGK;2015-03-21 17:00;CYGK 211700Z 20013KT 2SM -RA BR OVC003 01/00 A2978 RMK SF8 CIG VRB 2-4 VIS N 1 SLP089

CYGK;2015-03-21 18:00;CYGK 211800Z 23012KT 2SM -RA BR FEW002 OVC005 02/02 A2976 RMK SF2ST6 SLP081

CYGK;2015-03-21 18:30;CYGK 211830Z 23013G19KT 2SM -RA BR FEW002 OVC008 03/02 A2974 RMK SF2SF6 SLP076

CYGK;2015-03-21 18:41;CYGK 211841Z 23012G20KT 2SM -RA BR FEW002 OVC010 03/02 A2974 RMK SF2SC6 CIG RGD SLP074

CYGK;2015-03-21 19:00;CYGK 211900Z 24013G20KT 2 1/2SM -RA BR FEW002 OVC012 03/02 A2973 RMK SF2SC6 CI G RGD SLP073

CYGK;2015-03-21 19:28;CYGK 211928Z 25010G17KT 5SM BR BKN010 BKN030 04/02 A2973 RMK SC6SC1 SLP073

CYGK;2015-03-21 19:46;CYGK 211946Z 26014G22KT 8SM SCT010 BKN030 04/02 A2973 RMK SC3SC4 SLP072

CYGK;2015-03-21 20:00;CYGK 212000Z 27014G19KT 15SM FEW010 BKN030 05/02 A2973 RMK SC1SC5 SLP072

CYGK;2015-03-21 21:00;CYGK 212100Z 31015G24KT 15SM SCT025 04/M01 A2978 RMK SC4 PRESRR SLP087

CYGK;2015-03-21 22:00;CYGK 212200Z 32016G24KT 15SM FEW030 SCT045 02/M03 A2983 RMK SC2SC1 PRESRR SLP106

CYGK;2015-03-21 23:00;CYGK 212300Z 33012KT 15SM FEW030 BKN045 01/M05 A2988 RMK SC2SC3 PRESRR SLP123

CYGK;2015-03-22 00:00;CYGK 220000Z 34014G20KT 15SM VCSH FEW020 BKN035 M01/M06 A2993 RMK CF1SC6 PRESRR SLP140

CYGK;2015-03-22 00:10;CYGK 220010Z 34017KT 15SM -SN BKN032 M01/M06 A2994 RMK SC7 SLP142

CYGK;2015-03-22 01:00;CYGK 220100Z 34012KT 15SM -SN BKN032 M02/M07 A2998 RMK SC7 SLP158

CYGK;2015-03-22 02:00;CYGK 220200Z 34012G18KT 15SM -SN BKN040 M02/M10 A3001 RMK SC7 SLP166

CYGK;2015-03-22 03:00;CYGK 220300Z 35011KT 15SM SCT037 SCT060 M03/M09 A3003 RMK SC3SC1 LAST STFD OBS/NEXT 221000UTC SLP175

CYGK;2015-03-22 10:00;CYGK 221000Z 36011G17KT 15SM FEW020 BKN065 M11/M17 A3017 RMK SC1SC4 SLP223

CYGK;2015-03-22 11:00;CYGK 221100Z 35015KT 15SM FEW065 M12/M18 A3020 RMK SC2 SLP231

CYGK;2015-03-22 12:00;CYGK 221200Z 35013KT 15SM SKC M12/M19 A3022 RMK SLP239

CYGK;2015-03-22 13:00;CYGK 221300Z 35012KT 15SM SKC M12/M21 A3024 RMK SLP248

CYGK;2015-03-22 14:00;CYGK 221400Z 32013KT 15SM SKC M11/M20 A3025 RMK SLP251

CYGK;2015-03-22 15:00;CYGK 221500Z 35013KT 15SM SKC M10/M20 A3024 RMK SLP248

CYGK;2015-03-22 16:00;CYGK 221600Z 35009G16KT 15SM SKC M10/M20 A3023 RMK SLP244

CYGK;2015-03-22 17:00;CYGK 221700Z 31007KT 250V040 15SM SKC M09/M19 A3022 RMK SLP238

CYGK;2015-03-22 18:00;CYGK 221800Z VRB03KT 15SM FEW040 M08/M20 A3019 RMK CF1 CF TR SLP229

CYGK;2015-03-22 19:00;CYGK 221900Z 25004KT 180V270 15SM FEW060 M07/M18 A3016 RMK CF2 SLP218

CYGK;2015-03-22 20:00;CYGK 222000Z 27013G19KT 250V310 15SM BKN060 M06/M18 A3014 RMK CF5 SLP213

CYGK;2015-03-22 21:00;CYGK 222100Z 26012G19KT 15SM VCSH BKN055 M06/M16 A3013 RMK CU6 SH W-NE SLP209

CYGK;2015-03-22 21:16;CYGK 222116Z 27016G22KT 15SM -SHSN BKN050 M06/M17 A3013 RMK CU7 SLP211

CYGK;2015-03-22 22:00;CYGK 222200Z 27012G23KT 15SM -SHSN BKN050 M06/M16 A3013 RMK CU7 SLP211

CYGK;2015-03-22 23:00;CYGK 222300Z 28015G21KT 15SM -SHSN FEW025 BKN050 M07/M15 A3014 RMK CF1CU6 SLP213

CYGK;2015-03-23 00:00;CYGK 230000Z 27009KT 15SM VCSH SCT040 M07/M14 A3016 RMK CU4 SLP220

CYGK;2015-03-23 01:00;CYGK 230100Z 28009KT 15SM FEW040 M08/M16 A3018 RMK CF1 SLP226

CYGK;2015-03-23 02:00;CYGK 230200Z 28006KT 15SM SKC M09/M16 A3019 RMK SLP229

CYGK;2015-03-23 03:00;CYGK 230300Z 28006KT 15SM SKC M09/M16 A3020 RMK LAST STFD OBS/NEXT 231000UTC SLP232

CYGK;2015-03-23 10:00;CYGK 231000Z 32007KT 15SM SKC M14/M20 A3031 RMK SLP270

CYGK;2015-03-23 11:00;CYGK 231100Z 28004KT 15SM SKC M15/M21 A3033 RMK SLP278

CYGK;2015-03-23 12:00;CYGK 231200Z 33008KT 15SM FEW020 M14/M20 A3036 RMK CF1 CF TR SLP286

CYGK;2015-03-23 13:00;CYGK 231300Z 35013KT 15SM FEW025 M13/M21 A3036 RMK CF1 CF TR SLP288

CYGK;2015-03-23 14:00;CYGK 231400Z 34012KT 15SM FEW025 M13/M21 A3037 RMK SC1 SC TR SLP292

CYGK;2015-03-23 15:00;CYGK 231500Z 36010KT 15SM SKC M12/M21 A3037 RMK SLP292

CYGK;2015-03-23 16:00;CYGK 231600Z 32006G17KT 250V350 15SM SKC M10/M20 A3036 RMK SLP289

CYGK;2015-03-23 17:00;CYGK 231700Z 31007KT 250V350 15SM FEW120 M09/M20 A3035 RMK AC1 AC TR SLP285

CYGK;2015-03-23 18:00;CYGK 231800Z 26007KT 230V010 15SM FEW120 M08/M20 A3035 RMK AC1 AC TR SLP283

CYGK;2015-03-23 19:00;CYGK 231900Z 21009KT 15SM FEW120 M07/M16 A3033 RMK AC1 AC TR SLP278

CYGK;2015-03-23 20:00;CYGK 232000Z 22008G16KT 190V250 15SM FEW270 M06/M16 A3032 RMK CI1 SLP274

CYGK;2015-03-23 21:00;CYGK 232100Z 22007KT 15SM FEW270 M06/M15 A3031 RMK CI1 SLP272

CYGK;2015-03-23 22:00;CYGK 232200Z 23008KT 15SM FEW270 M05/M15 A3031 RMK CI2 SLP272

CYGK;2015-03-23 23:00;CYGK 232300Z 21007KT 15SM SCT270 M06/M14 A3033 RMK CI3 SLP276

CYGK;2015-03-24 00:00;CYGK 240000Z 21007KT 15SM FEW270 M07/M12 A3033 RMK CI2 SLP278

CYGK;2015-03-24 01:00;CYGK 240100Z 22006KT 15SM FEW270 M07/M12 A3034 RMK CI1 SLP281

CYGK;2015-03-24 02:00;CYGK 240200Z 23004KT 15SM FEW270 M08/M12 A3035 RMK CI1 SLP284

CYGK;2015-03-24 03:00;CYGK 240300Z 04004KT 15SM SKC M09/M12 A3036 RMK LAST STFD OBS / NEXT 241000 UTC SLP286

CYGK;2015-03-24 10:00;CYGK 241000Z 34006KT 15SM SKC M13/M14 A3036 RMK SLP287

CYGK;2015-03-24 11:00;CYGK 241100Z 03002KT 15SM FEW200 M13/M15 A3037 RMK CI2 SLP291

CYGK;2015-03-24 12:00;CYGK 241200Z 00000KT 15SM FEW015 FEW220 M12/M13 A3039 RMK CF1CI2 CF TR SLP298

CYGK;2015-03-24 13:00;CYGK 241300Z 09003KT 15SM FEW015 FEW220 M08/M11 A3040 RMK CU1CI2 CU TR SLP302

CYGK;2015-03-24 14:00;CYGK 241400Z 15005KT 15SM FEW030 FEW220 M07/M10 A3042 RMK CF1CI2 CF TR SLP307

CYGK;2015-03-24 15:00;CYGK 241500Z 16007KT 15SM FEW030 FEW220 M07/M10 A3042 RMK CF1CI2 CF TR SLP307

CYGK;2015-03-24 16:00;CYGK 241600Z 15006KT 15SM FEW030 FEW220 M06/M09 A3041 RMK CF1CI2 CF TR SLP304

CYGK;2015-03-24 17:00;CYGK 241700Z 17007KT 15SM FEW030 FEW220 M05/M09 A3041 RMK CF1CI1 CF TR SLP304

CYGK;2015-03-24 18:00;CYGK 241800Z 18008KT 15SM FEW030 M03/M09 A3040 RMK CF1 CF TR SLP299

CYGK;2015-03-24 19:00;CYGK 241900Z 17009KT 15SM SKC M03/M08 A3038 RMK SLP295

CYGK;2015-03-24 20:00;CYGK 242000Z 17008KT 15SM SKC M03/M09 A3037 RMK SLP291

CYGK;2015-03-24 21:00;CYGK 242100Z 19009KT 15SM SKC M02/M08 A3037 RMK SLP292

CYGK;2015-03-24 22:00;CYGK 242200Z 19008KT 15SM SKC M02/M08 A3036 RMK SLP289

CYGK;2015-03-24 23:00;CYGK 242300Z 18006KT 15SM SKC M03/M07 A3037 RMK SLP290

CYGK;2015-03-25 00:00;CYGK 250000Z 19006KT 15SM SKC M04/M07 A3037 RMK SLP292

CYGK;2015-03-25 01:00;CYGK 250100Z 20003KT 15SM SKC M04/M06 A3038 RMK SLP295

CYGK;2015-03-25 02:00;CYGK 250200Z 18004KT 15SM SKC M04/M06 A3038 RMK SLP293

CYGK;2015-03-25 03:00;CYGK 250300Z 19004KT 15SM SKC M05/M07 A3037 RMK LAST STFD OBS/NEXT 251000 UTC SLP291

CYGK;2015-03-25 10:00;CYGK 251000Z 06003KT 15SM SKC M09/M10 A3030 RMK SLP268

CYGK;2015-03-25 11:00;CYGK 251100Z 04004KT 15SM BKN250 M10/M11 A3028 RMK CI6 SLP261

CYGK;2015-03-25 12:00;CYGK 251200Z 04004KT 15SM BKN250 M08/M09 A3028 RMK CI7 SLP260

CYGK;2015-03-25 13:00;CYGK 251300Z 08004KT 15SM BKN250 M04/M08 A3028 RMK CI7 SLP258

CYGK;2015-03-25 14:00;CYGK 251400Z 11009KT 15SM OVC250 M01/M08 A3024 RMK CI8 SLP245

CYGK;2015-03-25 15:00;CYGK 251500Z 11010KT 15SM OVC250 02/M07 A3019 RMK CI8 SLP229

CYGK;2015-03-25 16:00;CYGK 251600Z 13009KT 15SM OVC250 03/M06 A3014 RMK CI8 SLP210

CYGK;2015-03-25 17:00;CYGK 251700Z 14008KT 15SM FEW120 OVC250 06/M05 A3008 RMK AC1CI8 AC TR PRESFR SLP189

CYGK;2015-03-25 18:00;CYGK 251800Z 14013KT 15SM FEW120 SCT180 OVC250 05/M05 A3004 RMK AC1AS4CI4 AC TR SLP175

CYGK;2015-03-25 18:52;CYGK 251852Z 14012KT 12SM -RA BKN050 OVC150 05/M05 A3001 RMK SC5AC3 SLP166

CYGK;2015-03-25 19:00;CYGK 251900Z 15010KT 12SM -RA BKN045 OVC140 04/M04 A3001 RMK SC7AC1 VIS SW 4 SLP168

CYGK;2015-03-25 20:00;CYGK 252000Z 14009KT 5SM -RA BR BKN031 OVC060 02/M00 A2996 RMK SC6SC2 SLP152

CYGK;2015-03-25 21:00;CYGK 252100Z 16011G17KT 5SM -RA BR FEW012 OVC023 02/01 A2995 RMK SF1SC7 CIG RAG SLP147

CYGK;2015-03-25 21:46;CYGK 252146Z 16014G20KT 2 1/2SM -RA BR OVC015 02/01 A2993 RMK SC8 SLP142

CYGK;2015-03-25 22:00;CYGK 252200Z 17014G20KT 3SM -RA BR OVC016 01/01 A2993 RMK SC8 SLP139

CYGK;2015-03-25 22:48;CYGK 252248Z 17017KT 4SM BR OVC016 01/01 A2990 RMK NS8 SLP130

CYGK;2015-03-25 23:00;CYGK 252300Z 17016G24KT 4SM BR OVC016 01/01 A2990 RMK SC8 SLP129

CYGK;2015-03-25 23:29;CYGK 252329Z 18018KT 4SM BR OVC013 02/01 A2989 RMK SC8 SLP127

CYGK;2015-03-25 23:40;CYGK 252340Z 18020G27KT 3SM -RA BR OVC011 02/01 A2988 RMK SC8 SLP125

CYGK;2015-03-26 00:00;CYGK 260000Z 17022G32KT 4SM -RA BR OVC012 02/01 A2988 RMK SC8 SLP124

CYGK;2015-03-26 00:40;CYGK 260040Z 19024G31KT 2 1/2SM -RA BR OVC010 02/01 A2990 RMK SC8 SLP128

CYGK;2015-03-26 01:00;CYGK 260100Z 19019G26KT 2 1/2SM -RA BR OVC012 02/01 A2990 RMK SC8 SLP129

CYGK;2015-03-26 01:16;CYGK 260116Z 19020G26KT 4SM -RA BR OVC014 02/01 A2990 RMK SC8 SLP131

CYGK;2015-03-26 01:35;CYGK 260135Z 19020G28KT 7SM OVC015 02/01 A2990 RMK SC8 SLP131

CYGK;2015-03-26 02:00;CYGK 260200Z 19018G27KT 8SM OVC015 02/01 A2991 RMK SC8 SLP133

CYGK;2015-03-26 03:00;CYGK 260300Z 21015KT 8SM OVC014 03/01 A2992 RMK SC8 LAST STFD OBS/NEXT 261000 UTC SLP134

CYGK;2015-03-26 10:00;CYGK 261000Z 19010KT 4SM BR BKN039 OVC130 01/01 A2989 RMK SC6AC2 SLP125

CYGK;2015-03-26 11:00;CYGK 261100Z 19012KT 3SM BR BKN038 OVC130 01/01 A2990 RMK SC7AC1 SLP127

CYGK;2015-03-26 12:00;CYGK 261200Z 19009KT 3SM BR SCT038 BKN110 BKN220 01/00 A2988 RMK SC4AC2CI1 SLP121

CYGK;2015-03-26 13:00;CYGK 261300Z 19005KT 3SM BR FEW038 BKN080 OVC220 02/01 A2987 RMK SC2AC5CI1 SLP120

CYGK;2015-03-26 14:00;CYGK 261400Z 23006KT 4SM BR SCT042 OVC075 02/01 A2987 RMK SC3AS5 SLP119

CYGK;2015-03-26 15:00;CYGK 261500Z 24003KT 5SM BR BKN041 OVC075 02/01 A2985 RMK SC6AS2 SLP112

CYGK;2015-03-26 15:14;CYGK 261514Z 21004KT 4SM -RA BR OVC030 02/01 A2984 RMK NS8 PRESFR SLP109

CYGK;2015-03-26 16:00;CYGK 261600Z 20007KT 3SM -RA BR OVC011 02/01 A2982 RMK NS8 SLP103

CYGK;2015-03-26 16:08;CYGK 261608Z 20008KT 3SM -RASN BR OVC010 02/01 A2983 RMK NS8 SLP105

CYGK;2015-03-26 16:15;CYGK 261615Z 21007KT 2SM -RASN BR OVC009 01/01 A2983 RMK NS8 SLP105

CYGK;2015-03-26 16:21;CYGK 261621Z 21007KT 1 1/2SM -SN BR OVC008 01/00 A2983 RMK NS8 SLP105

CYGK;2015-03-26 16:34;CYGK 261634Z 21006KT 1SM -SN BR OVC007 01/00 A2982 RMK NS8 SLP103

CYGK;2015-03-26 16:41;CYGK 261641Z 21005KT 3/4SM -SN OVC006 01/00 A2982 RMK NS8 SLP103

CYGK;2015-03-26 17:00;CYGK 261700Z 20004KT 1/2SM SN OVC004 00/M00 A2981 RMK NS8 SLP100

CYGK;2015-03-26 17:28;CYGK 261728Z 23002KT 5/8SM -SN OVC004 00/M00 A2981 RMK SN2NS6 SLP097

CYGK;2015-03-26 17:42;CYGK 261742Z 25004KT 3/4SM -SN OVC004 00/00 A2980 RMK SN4NS4 SLP095

CYGK;2015-03-26 18:00;CYGK 261800Z 24003KT 3/4SM -SN VV007 00/00 A2979 RMK SN8 SLP091

CYGK;2015-03-26 19:00;CYGK 261900Z 23004KT 3/4SM -SN OVC006 00/00 A2977 RMK SN6NS2 SLP086

CYGK;2015-03-26 19:31;CYGK 261931Z 24004KT 3/4SM -SN OVC004 00/00 A2977 RMK SN3NS5 SLP086

CYGK;2015-03-26 20:00;CYGK 262000Z 23003KT 1SM -SN OVC004 01/00 A2976 RMK SN2NS6 SLP082

CYGK;2015-03-26 21:00;CYGK 262100Z 20004KT 3/4SM -SN BR OVC003 01/01 A2975 RMK NS8 SLP078

CYGK;2015-03-26 21:13;CYGK 262113Z 22003KT 3/4SM BR OVC004 01/01 A2976 RMK NS8 SLP081

CYGK;2015-03-26 21:41;CYGK 262141Z 23004KT 1SM BR OVC005 01/01 A2976 RMK NS8 SLP080

CYGK;2015-03-26 22:00;CYGK 262200Z 25005KT 1 1/4SM BR OVC005 01/01 A2976 RMK SC8 SLP083

CYGK;2015-03-26 22:27;CYGK 262227Z 23004KT 1 3/4SM BR OVC004 01/01 A2977 RMK SF8 VIS SE 3/4 SLP085

CYGK;2015-03-26 23:00;CYGK 262300Z 24005KT 2SM BR BKN004 OVC010 01/01 A2978 RMK SF6SC2 SLP088

CYGK;2015-03-26 23:43;CYGK 262343Z 20007KT 2SM BR OVC006 01/00 A2978 RMK SF8 SLP088

CYGK;2015-03-27 00:00;CYGK 270000Z 20008KT 3SM BR OVC006 00/00 A2978 RMK SF8 VIS SE 2 SLP088

CYGK;2015-03-27 00:24;CYGK 270024Z 19007KT 1 3/4SM BR BKN005 OVC050 00/00 A2978 RMK SF7SC1 SLP089

CYGK;2015-03-27 01:00;CYGK 270100Z 20004KT 1 1/2SM BR BKN006 BKN055 00/00 A2978 RMK SF5SC2 SLP088

CYGK;2015-03-27 02:00;CYGK 270200Z 24008KT 2SM BR OVC005 01/00 A2979 RMK SF8 SLP091

CYGK;2015-03-27 03:00;CYGK 270300Z 23005KT 1 3/4SM BR OVC005 00/00 A2978 RMK SF8 LAST STFD OBS/NEXT 271000 UTC SLP088

CYGK;2015-03-27 10:00;CYGK 271000Z 26005KT 15SM FEW050 BKN077 00/M01 A2976 RMK SC2AC4 SLP083

CYGK;2015-03-27 10:06;CYGK 271006Z 27007KT 15SM -SN SCT050 BKN077 00/M01 A2977 RMK SC3AC3 SLP084

CYGK;2015-03-27 11:00;CYGK 271100Z 27005KT 15SM VCSH BKN025 BKN077 00/M01 A2979 RMK SC5AC2 SLP092

CYGK;2015-03-27 12:00;CYGK 271200Z 26005KT 15SM VCSH FEW008 BKN030 OVC080 01/M01 A2979 RMK SF1SC7AC1 SF TR SLP091

CYGK;2015-03-27 12:16;CYGK 271216Z 27007KT 15SM -SN FEW008 BKN033 01/M01 A2979 RMK SF1SC6 VIS W 2 SLP091

CYGK;2015-03-27 13:00;CYGK 271300Z 29005KT 15SM FEW008 BKN029 OVC038 01/M00 A2979 RMK SF2SC5SC1 INTMT -SN SLP090

CYGK;2015-03-27 13:18;CYGK 271318Z 28005KT 15SM BKN009 OVC025 01/M00 A2979 RMK SF6SC2 VIS N 5 SLP091

CYGK;2015-03-27 13:43;CYGK 271343Z 03007KT 300V040 2SM -SN BKN008 OVC015 00/M01 A2980 RMK SF6SC2 VIS S 5 SLP094

CYGK;2015-03-27 14:00;CYGK 271400Z 02006KT 2 1/2SM -SN FEW008 OVC021 00/M01 A2980 RMK SF2SC6 SLP094

CYGK;2015-03-27 14:08;CYGK 271408Z 01006KT 3SM -SN SCT009 OVC018 00/M01 A2980 RMK SF3SC5 SLP094

CYGK;2015-03-27 14:21;CYGK 271421Z 01011KT 4SM -SN SCT008 OVC013 M00/M02 A2980 RMK SF3SC5 VIS LWR NE-E SLP095

CYGK;2015-03-27 15:00;CYGK 271500Z 02012KT 8SM -SN FEW008 OVC011 M01/M03 A2981 RMK SF2SC6 SLP099

CYGK;2015-03-27 15:40;CYGK 271540Z 02011KT 10SM -SN FEW002 OVC016 M01/M04 A2982 RMK SF2SC6 SLP102

CYGK;2015-03-27 16:00;CYGK 271600Z 36012KT 15SM OVC016 M02/M04 A2983 RMK SC8 SLP104

CYGK;2015-03-27 16:25;CYGK 271625Z 34014KT 15SM OVC018 M02/M05 A2983 RMK SC8 SLP105

CYGK;2015-03-27 17:00;CYGK 271700Z 34014KT 15SM OVC020 M03/M06 A2984 RMK SC8 SLP109

CYGK;2015-03-27 18:00;CYGK 271800Z 01012KT 15SM OVC019 M03/M07 A2984 RMK SC8 SLP110

CYGK;2015-03-27 19:00;CYGK 271900Z 34012KT 15SM OVC021 M04/M08 A2986 RMK SC8 SLP115

CYGK;2015-03-27 19:49;CYGK 271949Z 35012KT 15SM -SN OVC020 M05/M09 A2986 RMK SC8 SLP117

CYGK;2015-03-27 20:00;CYGK 272000Z 36012KT 12SM -SN OVC020 M05/M09 A2987 RMK SC8 SLP118

CYGK;2015-03-27 21:00;CYGK 272100Z 35009KT 5SM -SN OVC016 M06/M08 A2989 RMK SC8 SLP125

CYGK;2015-03-27 22:00;CYGK 272200Z 35009KT 3SM -SN OVC017 M06/M09 A2991 RMK SC8 SLP134

CYGK;2015-03-27 22:32;CYGK 272232Z 36008KT 2 1/2SM -SN BKN018 OVC040 M06/M09 A2993 RMK SC6SC2 SLP138

CYGK;2015-03-27 23:00;CYGK 272300Z 35007KT 3SM -SN BKN020 OVC060 M06/M09 A2993 RMK SC6SC2 SLP141

CYGK;2015-03-28 00:00;CYGK 280000Z 36010KT 3SM -SN SCT022 BKN062 OVC088 M06/M09 A2995 RMK SC3SC4AC1 SLP145

CYGK;2015-03-28 01:00;CYGK 280100Z 35007KT 10SM -SN FEW020 SCT060 OVC092 M06/M09 A2996 RMK SC2SC2AC4 SLP152

CYGK;2015-03-28 01:38;CYGK 280138Z 35005KT 15SM FEW060 OVC092 M06/M10 A2998 RMK SC2AC6 SLP156

CYGK;2015-03-28 02:00;CYGK 280200Z 35006KT 15SM FEW038 OVC093 M06/M11 A2998 RMK SC1AC7 SLP157

CYGK;2015-03-28 03:00;CYGK 280300Z 34006KT 15SM SCT041 OVC092 M07/M12 A2999 RMK SC4AC4 LAST STFD OBS/NEXT 281000 UTC SLP159

CYGK;2015-03-28 10:00;CYGK 281000Z 34013KT 15SM SCT085 M11/M17 A3004 RMK AC3 SLP180

CYGK;2015-03-28 11:00;CYGK 281100Z 35010KT 15SM SCT093 M12/M18 A3006 RMK AC3 SLP187

CYGK;2015-03-28 12:00;CYGK 281200Z 36011KT 15SM FEW093 M11/M17 A3008 RMK AC1 SLP194

CYGK;2015-03-28 13:00;CYGK 281300Z 36012KT 15SM FEW090 FEW250 M11/M17 A3010 RMK AC1CI1 SLP198

CYGK;2015-03-28 14:00;CYGK 281400Z 01010G17KT 15SM FEW090 M09/M17 A3011 RMK AC1 AC TR SLP203

CYGK;2015-03-28 15:00;CYGK 281500Z 01011G18KT 15SM FEW090 M08/M17 A3011 RMK AC1 AC TR SLP203

CYGK;2015-03-28 16:00;CYGK 281600Z 34014KT 15SM FEW090 M06/M15 A3010 RMK AC1 AC TR SLP200

CYGK;2015-03-28 17:00;CYGK 281700Z 01012G18KT 310V030 15SM FEW090 M05/M17 A3010 RMK AC1 AC TR SLP199

CYGK;2015-03-28 18:00;CYGK 281800Z 34013G18KT 15SM FEW025 FEW090 M04/M18 A3009 RMK CF1AC1 CF TR AC TR SLP195

CYGK;2015-03-28 19:00;CYGK 281900Z 01008G16KT 330V030 15SM FEW025 M03/M17 A3008 RMK CF1 CF TR SLP192

CYGK;2015-03-28 20:00;CYGK 282000Z 35012KT 310V030 15SM FEW025 M02/M16 A3008 RMK CF1 CF TR SLP191

CYGK;2015-03-28 21:00;CYGK 282100Z 34006G15KT 15SM FEW025 M02/M17 A3008 RMK CF1 CF TR SLP192

CYGK;2015-03-28 22:00;CYGK 282200Z 35010KT 320V040 15SM FEW025 FEW250 M02/M16 A3009 RMK CF1CI1 CF TR CI TR SLP194

CYGK;2015-03-28 23:00;CYGK 282300Z 35006KT 15SM FEW025 FEW250 M02/M16 A3011 RMK CF1CI1 CF TR SLP202

CYGK;2015-03-29 00:00;CYGK 290000Z 00000KT 15SM SKC M03/M17 A3013 RMK SLP210

CYGK;2015-03-29 01:00;CYGK 290100Z 16004KT 15SM SKC M04/M15 A3016 RMK SLP218

CYGK;2015-03-29 02:00;CYGK 290200Z 19005KT 15SM SKC M06/M11 A3017 RMK SLP223

CYGK;2015-03-29 03:00;CYGK 290300Z 22004KT 15SM SKC M06/M12 A3019 RMK LAST STFD OBS/NEXT 291000 UTC SLP229

CYGK;2015-03-29 10:00;CYGK 291000Z 29006KT 15SM SKC M09/M15 A3022 RMK SLP239

CYGK;2015-03-29 11:00;CYGK 291100Z 29006KT 15SM SKC M10/M14 A3024 RMK SLP245

CYGK;2015-03-29 12:00;CYGK 291200Z 28006KT 15SM SKC M08/M12 A3025 RMK SLP250

CYGK;2015-03-29 13:00;CYGK 291300Z 28008KT 15SM SKC M05/M10 A3027 RMK SLP254

CYGK;2015-03-29 14:00;CYGK 291400Z 26006KT 15SM SKC M04/M09 A3027 RMK SLP255

CYGK;2015-03-29 15:00;CYGK 291500Z 24010KT 15SM FEW030 FEW250 M02/M08 A3026 RMK CU1CI1 CU TR CI TR SLP253

CYGK;2015-03-29 16:00;CYGK 291600Z 23009KT 15SM FEW030 FEW250 00/M07 A3025 RMK CU1CI1 CU TR SLP249

CYGK;2015-03-29 17:00;CYGK 291700Z 20016G21KT 15SM FEW030 FEW250 00/M06 A3021 RMK CU1CI2 CU TR SLP236

CYGK;2015-03-29 18:00;CYGK 291800Z 19017KT 15SM FEW250 M00/M06 A3018 RMK CI2 SLP226

CYGK;2015-03-29 19:00;CYGK 291900Z 19017G23KT 15SM FEW160 FEW250 M00/M06 A3014 RMK AC1CI2 AC TR SLP213

CYGK;2015-03-29 20:00;CYGK 292000Z 20016G21KT 15SM FEW160 FEW250 00/M06 A3013 RMK AC1CI1 AC TR SLP207

CYGK;2015-03-29 21:00;CYGK 292100Z 18013KT 15SM FEW160 SCT250 M00/M05 A3008 RMK AC1CI3 SLP192

CYGK;2015-03-29 22:00;CYGK 292200Z 18010KT 15SM FEW160 BKN250 00/M06 A3004 RMK AC2CI3 SLP176

CYGK;2015-03-29 23:00;CYGK 292300Z 18008KT 15SM FEW120 SCT160 BKN250 M01/M05 A3001 RMK AC1AS2CI4 SLP166

CYGK;2015-03-30 00:00;CYGK 300000Z 16011KT 15SM SCT140 BKN210 M01/M06 A2996 RMK AS3CI4 SLP150

CYGK;2015-03-30 01:00;CYGK 300100Z 16013KT 15SM OVC140 00/M05 A2992 RMK AS8 PRESFR SLP137

CYGK;2015-03-30 02:00;CYGK 300200Z 15014KT 15SM BKN140 OVC200 00/M06 A2988 RMK AS7CI1 PRESFR SLP122

CYGK;2015-03-30 03:00;CYGK 300300Z 17018G25KT 15SM OVC095 01/M06 A2984 RMK AS8 LAST STFD OBS/NEXT 301000UTC SLP110

CYGK;2015-03-30 10:00;CYGK 301000Z 18021G28KT 4SM -SN OVC013 01/M01 A2959 RMK CU8 SLP023

CYGK;2015-03-30 10:39;CYGK 301039Z 18019G24KT 2 1/2SM -SN OVC008 00/M00 A2957 RMK SN2CU6 SLP018

CYGK;2015-03-30 11:00;CYGK 301100Z 18019G25KT 3SM -SN BKN008 OVC013 00/M00 A2957 RMK CU5SC3 SLP016

CYGK;2015-03-30 11:35;CYGK 301135Z 19019G25KT 4SM -RASN BR BKN003 OVC010 01/00 A2956 RMK ST5SC3 SLP014

CYGK;2015-03-30 12:00;CYGK 301200Z 21017KT 8SM -RA BKN005 OVC013 02/01 A2956 RMK SF5CU3 SLP012

CYGK;2015-03-30 12:49;CYGK 301249Z 22014G21KT 10SM -RA FEW008 SCT030 OVC050 02/01 A2956 RMK SF2SC2SC4 SLP014

CYGK;2015-03-30 13:00;CYGK 301300Z 22015G21KT 12SM FEW010 SCT030 OVC050 02/01 A2956 RMK SF1SC2SC5 SLP015

CYGK;2015-03-30 14:00;CYGK 301400Z 23014G19KT 15SM FEW010 SCT030 OVC040 02/M00 A2959 RMK SF1SF3SC4 SLP023

CYGK;2015-03-30 15:00;CYGK 301500Z 24015G20KT 15SM BKN025 OVC042 03/M01 A2961 RMK SC6SC2 SLP031

CYGK;2015-03-30 16:00;CYGK 301600Z 25016G27KT 15SM OVC035 03/M01 A2962 RMK SC8 SLP034

CYGK;2015-03-30 17:00;CYGK 301700Z 25019G27KT 15SM BKN033 BKN040 04/M02 A2963 RMK SC5SC2 SLP038

CYGK;2015-03-30 18:00;CYGK 301800Z 26018G31KT 15SM VCSH BKN040 BKN065 05/M02 A2964 RMK SC5SC2 SLP041

CYGK;2015-03-30 19:00;CYGK 301900Z 27013G27KT 240V300 15SM VCSH FEW025 BKN040 BKN065 06/M02 A2965 RMK CF1SC5SC1 SLP045

CYGK;2015-03-30 19:43;CYGK 301943Z 26016G24KT 15SM -SHRA BKN038 BKN070 05/M02 A2967 RMK SC6AC1 SLP050

CYGK;2015-03-30 20:00;CYGK 302000Z 26016G24KT 15SM -SHRA BKN038 BKN080 BKN250 05/M02 A2967 RMK SC5AC1CI1 SLP051

CYGK;2015-03-30 20:21;CYGK 302021Z 27012G24KT 15SM VCSH BKN040 BKN080 BKN250 05/M02 A2967 RMK SC5AC1CI1 SLP052

CYGK;2015-03-30 21:00;CYGK 302100Z 27015G29KT 15SM SCT040 BKN060 BKN230 06/M03 A2968 RMK SC3SC2CI1 SHWRS N-SE SLP053

CYGK;2015-03-30 22:00;CYGK 302200Z 26015G22KT 15SM FEW035 BKN057 BKN120 06/M03 A2969 RMK SC2SC3AC2 SHWRS N-E SLP058

CYGK;2015-03-30 23:00;CYGK 302300Z 26010G17KT 15SM BKN055 BKN120 BKN230 05/M03 A2971 RMK SC5AC1CI1 SHWRS NW-E SLP065

CYGK;2015-03-31 00:00;CYGK 310000Z 27009G16KT 15SM SCT048 BKN160 BKN230 04/M03 A2973 RMK SC4AC1CI1 SHWRS N-NE SLP072

CYGK;2015-03-31 01:00;CYGK 310100Z 28009KT 15SM BKN043 03/M03 A2976 RMK SC5 SLP082

CYGK;2015-03-31 01:39;CYGK 310139Z 29005KT 15SM -SN BKN040 03/M03 A2979 RMK SC7 SLP090

CYGK;2015-03-31 02:00;CYGK 310200Z 29009KT 15SM -SN BKN035 BKN160 03/M02 A2979 RMK SC6AC1 SLP090

CYGK;2015-03-31 02:14;CYGK 310214Z 29010KT 15SM BKN040 03/M02 A2979 RMK SC7 SLP090

CYGK;2015-03-31 03:00;CYGK 310300Z 28007KT 15SM BKN050 02/M01 A2980 RMK SC7 LAST STFD OBS/NEXT 311000UTC SLP095

CYGK;2015-03-31 10:00;CYGK 311000Z 32003KT 15SM FEW038 M02/M04 A2984 RMK SC2 SLP110

CYGK;2015-03-31 11:00;CYGK 311100Z 02004KT 15SM FEW038 FEW120 FEW240 M03/M05 A2986 RMK SC1AC1CI1 AC TR SLP114

CYGK;2015-03-31 12:00;CYGK 311200Z 02006KT 15SM FEW030 FEW120 SCT240 M02/M08 A2986 RMK SC1AC1CI4 SC TR AC TR SLP115

CYGK;2015-03-31 13:00;CYGK 311300Z 02005KT 350V050 15SM FEW120 SCT250 M01/M08 A2986 RMK AC2CI2 SLP116

CYGK;2015-03-31 14:00;CYGK 311400Z 35004KT 330V070 15SM SCT180 BKN250 M01/M08 A2986 RMK AC3CI3 SLP115

CYGK;2015-03-31 15:00;CYGK 311500Z 36003KT 340V090 15SM BKN180 BKN250 00/M07 A2984 RMK AC5CI2 SLP109

CYGK;2015-03-31 16:00;CYGK 311600Z 15008KT 15SM BKN160 OVC250 01/M06 A2983 RMK AC6CI2 SLP105

CYGK;2015-03-31 17:00;CYGK 311700Z 15006KT 15SM BKN170 BKN250 00/M07 A2982 RMK AC5CI2 SLP101

CYGK;2015-03-31 18:00;CYGK 311800Z 16008KT 15SM SCT160 BKN220 01/M06 A2981 RMK AC3CI3 SLP098

CYGK;2015-03-31 19:00;CYGK 311900Z 16008KT 15SM FEW045 BKN230 01/M05 A2981 RMK SC1CI5 SC TR SLP099

CYGK;2015-03-31 20:00;CYGK 312000Z 19010KT 15SM FEW040 SCT250 01/M05 A2982 RMK CU1CI3 CU TR SLP101

CYGK;2015-03-31 21:00;CYGK 312100Z 19009KT 15SM FEW040 FEW240 01/M05 A2982 RMK CF1CI1 CF TR SLP103

CYGK;2015-03-31 22:00;CYGK 312200Z 20006KT 15SM SCT240 01/M07 A2984 RMK CI4 SLP108

CYGK;2015-03-31 23:00;CYGK 312300Z 23006KT 15SM FEW240 00/M06 A2985 RMK CI1 SLP113

CYGK;2015-04-01 00:00;CYGK 010000Z 23005KT 15SM FEW240 M01/M06 A2987 RMK CI1 SLP121

CYGK;2015-04-01 01:00;CYGK 010100Z 00000KT 15SM FEW240 M02/M07 A2990 RMK CI1 SLP129

CYGK;2015-04-01 02:00;CYGK 010200Z 35002KT 15SM SKC M02/M08 A2991 RMK SLP133

CYGK;2015-04-01 03:00;CYGK 010300Z 01003KT 15SM FEW240 M03/M07 A2992 RMK CI2 LAST STFD OBS/NEXT 011000 UTC SLP137

CYGK;2015-04-01 10:00;CYGK 011000Z 35007KT 15SM FEW150 M06/M13 A3004 RMK AC1 AC TR PRESRR SLP176

CYGK;2015-04-01 11:00;CYGK 011100Z 34007KT 15SM FEW150 FEW220 M06/M13 A3008 RMK AC1CI1 CI TR SLP191

CYGK;2015-04-01 12:00;CYGK 011200Z 35006KT 15SM SCT180 BKN230 M05/M13 A3010 RMK AC3CI2 SLP198

CYGK;2015-04-01 13:00;CYGK 011300Z 35007KT 15SM SCT180 BKN230 M03/M14 A3012 RMK CI4CI2 SLP204

CYGK;2015-04-01 14:00;CYGK 011400Z 35009KT 15SM FEW180 SCT250 M01/M15 A3015 RMK AC1CI2 SLP214

CYGK;2015-04-01 15:00;CYGK 011500Z 36006KT 15SM FEW250 M00/M13 A3017 RMK CI2 SLP221

CYGK;2015-04-01 16:00;CYGK 011600Z 36006KT 310V020 15SM FEW230 00/M14 A3017 RMK CI1 CI TR SLP222

CYGK;2015-04-01 17:00;CYGK 011700Z 32008KT 15SM SKC 01/M14 A3017 RMK SLP221

CYGK;2015-04-01 18:00;CYGK 011800Z 02004KT 310V070 15SM SKC 02/M14 A3016 RMK SLP218

CYGK;2015-04-01 19:00;CYGK 011900Z 19012KT 15SM FEW240 01/M09 A3018 RMK CI1 CI TR SLP223

CYGK;2015-04-01 20:00;CYGK 012000Z 19014KT 15SM FEW240 01/M07 A3018 RMK CI1 CI TR SLP226

CYGK;2015-04-01 21:00;CYGK 012100Z 19015KT 15SM SKC 00/M07 A3019 RMK SLP227

CYGK;2015-04-01 22:00;CYGK 012200Z 19011KT 15SM FEW240 M00/M06 A3019 RMK CI1 CI TR SLP229

CYGK;2015-04-01 23:00;CYGK 012300Z 18010KT 15SM FEW250 M01/M05 A3018 RMK CI1 SLP225

CYGK;2015-04-02 00:00;CYGK 020000Z 18009KT 15SM FEW250 M02/M06 A3016 RMK CI1 SLP220

CYGK;2015-04-02 01:00;CYGK 020100Z 18006KT 15SM FEW250 M03/M06 A3016 RMK CI1 SLP218

CYGK;2015-04-02 02:00;CYGK 020200Z 18006KT 15SM FEW250 M03/M06 A3014 RMK CI1 PRESFR SLP211

CYGK;2015-04-02 03:00;CYGK 020300Z 17005KT 15SM BKN250 M03/M06 A3014 RMK CI6 LAST STFD OBS/NEXT 021000 UTC SLP212

CYGK;2015-04-02 10:00;CYGK 021000Z 12012KT 10SM -RA OVC037 00/M05 A3002 RMK SC8 PRESFR SLP170

CYGK;2015-04-02 10:32;CYGK 021032Z 12009KT 12SM BKN037 OVC075 01/M04 A3004 RMK SC6AC2 SLP177

CYGK;2015-04-02 11:00;CYGK 021100Z 13004KT 15SM SCT035 BKN075 OVC110 01/M04 A3006 RMK SC3AC3AC2 SLP183

CYGK;2015-04-02 12:00;CYGK 021200Z 14008KT 15SM 01/M03 A3004 RMK SLP175

CYGK;2015-04-02 13:00;CYGK 021300Z 17006KT 15SM FEW080 OVC150 01/M02 A3001 RMK AC2AC6 SLP167

CYGK;2015-04-02 14:00;CYGK 021400Z 16009KT 15SM FEW090 BKN180 03/M02 A2998 RMK AS2AC3 SLP155

CYGK;2015-04-02 15:00;CYGK 021500Z 17009KT 15SM FEW090 BKN200 05/M01 A2995 RMK AS1CI5 SLP147

CYGK;2015-04-02 16:00;CYGK 021600Z 19009G15KT 15SM SCT200 05/M00 A2989 RMK CI4 PRESFR SLP126

CYGK;2015-04-02 17:00;CYGK 021700Z 21007KT 15SM SCT200 07/01 A2984 RMK CI3 SLP108

CYGK;2015-04-02 18:00;CYGK 021800Z 17007KT 160V220 15SM FEW160 SCT200 08/00 A2981 RMK AC1CI3 SLP096

CYGK;2015-04-02 19:00;CYGK 021900Z 17011KT 15SM FEW150 BKN240 07/01 A2976 RMK AC1CI5 SLP079

CYGK;2015-04-02 20:00;CYGK 022000Z 18013KT 15SM SCT080 BKN150 BKN200 07/01 A2972 RMK AC4AC2CI1 ACC SW SLP068

CYGK;2015-04-02 21:00;CYGK 022100Z 17010KT 15SM SCT043 BKN082 OVC200 06/M00 A2970 RMK SC3AC3CI2 SLP059

CYGK;2015-04-02 21:53;CYGK 022153Z 19009G15KT 12SM -SHRA OVC055 06/01 A2968 RMK SC8 VIS W 5 SLP053

CYGK;2015-04-02 22:00;CYGK 022200Z 19007KT 12SM -SHRA OVC050 05/01 A2967 RMK SC8 SLP051

CYGK;2015-04-02 23:00;CYGK 022300Z 23006KT 180V250 12SM -SHRA OVC045 05/01 A2966 RMK SC8 SLP046

CYGK;2015-04-03 00:00;CYGK 030000Z 19013KT 12SM -SHRA BKN025 OVC040 05/03 A2966 RMK SC5SC3 SLP047

CYGK;2015-04-03 01:00;CYGK 030100Z 19005KT 12SM -RA OVC025 04/03 A2965 RMK SC8 SLP045

CYGK;2015-04-03 02:00;CYGK 030200Z 27003KT 220V280 4SM -RA BR FEW006 OVC020 04/04 A2968 RMK SF2SC6 SLP053

CYGK;2015-04-03 02:30;CYGK 030230Z 19005KT 2SM -RA BR FEW006 OVC015 05/05 A2967 RMK SF2SC6 SLP051

CYGK;2015-04-03 02:38;CYGK 030238Z 16005KT 3/8SM -RA BR FEW002 VV005 05/05 A2967 RMK SF1FG7 SLP051

CYGK;2015-04-03 03:00;CYGK 030300Z 18004KT 1/2SM -RA BR OVC008 04/03 A2967 RMK FG5SF3 LAST STFD OBS/NEXT 031000 UTC SLP050

CYGK;2015-04-03 10:00;CYGK 031000Z 25008KT 4SM BR PRFG FEW001 BKN200 04/03 A2978 RMK SF1CI6 VIS S-SW 1/2 SLP086

CYGK;2015-04-03 10:36;CYGK 031036Z 23006KT 1SM BR PRFG BKN180 03/03 A2977 RMK FG2AC4 SLP083

CYGK;2015-04-03 11:00;CYGK 031100Z 22003KT 170V240 3SM BR BCFG FEW120 SCT180 BKN220 02/02 A2979 RMK AC1AC3CI1 VIS N 11/2 PRESRR SLP090

CYGK;2015-04-03 12:00;CYGK 031200Z 00000KT 4SM BR BCFG FEW180 SCT220 03/02 A2980 RMK AC1CI3 PRESRR SLP094

CYGK;2015-04-03 13:00;CYGK 031300Z 23005KT 6SM BR FEW180 BKN260 05/04 A2980 RMK AC1CI6 SLP095

CYGK;2015-04-03 13:34;CYGK 031334Z 25006KT 12SM FEW005 FEW180 BKN260 06/04 A2980 RMK SF1AC2CI5 SF TR SLP093

CYGK;2015-04-03 14:00;CYGK 031400Z 16007KT 150V210 12SM FEW005 BKN210 05/03 A2980 RMK SF1CI7 SF TR VIS S 5 SLP093

CYGK;2015-04-03 15:00;CYGK 031500Z 22007KT 200V270 12SM FEW005 SCT240 08/06 A2983 RMK SF1CI4 SF TR VIS S 6 SLP104

CYGK;2015-04-03 15:43;CYGK 031543Z 16008KT 1SM BR BKN001 BKN250 06/05 A2982 RMK SF5CI1 VIS SE 1/2 SLP101

CYGK;2015-04-03 15:46;CYGK 031546Z 16009KT 1/2SM FG BKN260 05/04 A2982 RMK FG6CI1 SLP102

CYGK;2015-04-03 15:50;CYGK 031550Z 16011KT 1/4SM FG VV001 04/03 A2983 RMK FG8 SLP103

CYGK;2015-04-03 16:00;CYGK 031600Z 17011KT 1/8SM FG VV001 03/02 A2984 RMK FG8 SLP106

CYGK;2015-04-03 17:00;CYGK 031700Z 16010KT 1/4SM FG SKC 03/02 A2982 RMK FG7 SLP102

CYGK;2015-04-03 18:00;CYGK 031800Z 18006KT 1/8SM FG VV001 03/03 A2982 RMK FG8 SLP100

CYGK;2015-04-03 19:00;CYGK 031900Z 15007KT 1/4SM FG VV001 03/02 A2979 RMK FG8 SLP091

CYGK;2015-04-03 20:00;CYGK 032000Z 15010KT 1/4SM FG VV001 02/02 A2976 RMK FG8 SLP080

CYGK;2015-04-03 20:40;CYGK 032040Z 15005KT 1/2SM FG OVC250 03/02 A2974 RMK FG5CI3 VIS N 3 SW 1/4 SLP075

CYGK;2015-04-03 21:00;CYGK 032100Z 14006KT 3/4SM BR BKN250 02/02 A2973 RMK FG3CI4 VIS N 2 SW-W 1/4 SLP072

CYGK;2015-04-03 21:13;CYGK 032113Z 14007KT 1/2SM FG VV001 02/02 A2973 RMK FG8 SLP072

CYGK;2015-04-03 21:18;CYGK 032118Z 15007KT 3/8SM FG VV001 02/02 A2974 RMK FG8 SLP075

CYGK;2015-04-03 21:48;CYGK 032148Z 14006KT 3/4SM BR VV002 02/02 A2976 RMK FG8 SLP081

CYGK;2015-04-03 22:00;CYGK 032200Z 15005KT 3/4SM BR VV002 02/01 A2977 RMK FG8 SLP083

CYGK;2015-04-03 22:10;CYGK 032210Z 17003KT 130V200 1SM BR OVC250 02/02 A2977 RMK FG6CI2 SLP084

CYGK;2015-04-03 22:30;CYGK 032230Z 00000KT 1 1/2SM BR BKN090 BKN250 02/02 A2975 RMK FG3AC2CI2 VIS S 1/2 PRESFR SLP077

CYGK;2015-04-03 22:49;CYGK 032249Z VRB03KT 3SM BR SCT086 BKN240 02/02 A2974 RMK AC4CI3 PRESFR SLP074

CYGK;2015-04-03 23:00;CYGK 032300Z 13002KT 3SM BR SCT085 BKN160 BKN240 02/02 A2974 RMK AC3AC2CI2 VIS S 1/2 SLP075

CYGK;2015-04-03 23:09;CYGK 032309Z 18005KT 110V190 1 1/4SM BR BKN085 BKN240 02/01 A2975 RMK FG3AC3CI1 VIS N 3 SLP078

CYGK;2015-04-03 23:12;CYGK 032312Z 19005KT 110V200 3/4SM BR OVC085 01/01 A2976 RMK FG4AC4 VIS S 1/4 PRESRR SLP080

CYGK;2015-04-03 23:27;CYGK 032327Z 17005KT 120V200 1/2SM FG OVC085 01/01 A2976 RMK FG5AC3 SLP082

CYGK;2015-04-03 23:31;CYGK 032331Z 17006KT 1/4SM FG OVC085 01/01 A2976 RMK FG6AC2 SLP082

CYGK;2015-04-03 23:45;CYGK 032345Z 16004KT 1/2SM FG OVC095 01/01 A2975 RMK FG5AC3 SLP078

CYGK;2015-04-04 00:00;CYGK 040000Z 10003KT 3/4SM BR OVC100 01/01 A2974 RMK FG3AC5 SLP073

CYGK;2015-04-04 00:07;CYGK 040007Z 14005KT 090V150 1SM BR OVC090 01/01 A2974 RMK FG3AC5 SLP074

CYGK;2015-04-04 00:34;CYGK 040034Z 13002KT 2SM BR OVC085 01/01 A2975 RMK FG2AC6 SLP076

CYGK;2015-04-04 01:00;CYGK 040100Z 21002KT 2 1/2SM BR OVC065 01/01 A2976 RMK FG2SC6 SLP081

CYGK;2015-04-04 01:10;CYGK 040110Z 20003KT 170V260 3SM BR OVC058 02/01 A2976 RMK SC8 SLP079

CYGK;2015-04-04 01:21;CYGK 040121Z VRB02KT 8SM -RA OVC045 02/01 A2975 RMK SC8 SLP077

CYGK;2015-04-04 02:00;CYGK 040200Z 34009KT 12SM -RA BKN038 OVC120 05/04 A2974 RMK SC5AC3 SLP074

CYGK;2015-04-04 02:15;CYGK 040215Z 34012KT 15SM SCT038 OVC085 05/03 A2973 RMK SC4AC4 SLP072

CYGK;2015-04-04 02:47;CYGK 040247Z 33009KT 15SM -RA FEW038 OVC061 05/03 A2976 RMK SC2SC6 SLP079

CYGK;2015-04-04 03:00;CYGK 040300Z 33008KT 15SM -RA OVC057 05/03 A2975 RMK SC8 LAST STFD OBS/NEXT 041000 UTC SLP077

CYGK;2015-04-04 10:00;CYGK 041000Z 34015G24KT 5SM -SN SCT008 OVC020 M00/M02 A2978 RMK SF4SC4 SLP089

CYGK;2015-04-04 11:00;CYGK 041100Z 34010KT 1 1/2SM -SN VV010 M01/M02 A2984 RMK SN8 PRESRR SLP109

CYGK;2015-04-04 11:12;CYGK 041112Z 33011KT 3SM -SN SCT005 BKN012 M01/M02 A2985 RMK SF3SC4 SLP112

CYGK;2015-04-04 11:36;CYGK 041136Z 33013KT 15SM SCT005 SCT025 BKN085 M01/M03 A2988 RMK SF3SC1AC3 PRESRR SLP122

CYGK;2015-04-04 12:00;CYGK 041200Z 32012KT 15SM FEW005 FEW025 SCT085 M01/M04 A2990 RMK SF1SC1AC1 PRESRR SLP130

CYGK;2015-04-04 13:00;CYGK 041300Z 34010G19KT 300V360 15SM FEW005 SCT025 SCT085 M00/M05 A2993 RMK SF1SC3AC1 AC TR SLP141

CYGK;2015-04-04 14:00;CYGK 041400Z 34011G19KT 15SM FEW030 00/M06 A2996 RMK SC1 SLP149

CYGK;2015-04-04 15:00;CYGK 041500Z 34010KT 290V360 15SM FEW037 00/M07 A2999 RMK SC1 SLP160

CYGK;2015-04-04 16:00;CYGK 041600Z 33012KT 280V360 15SM FEW037 01/M06 A3002 RMK SC1 SLP168

CYGK;2015-04-04 17:00;CYGK 041700Z 31009KT 280V340 15SM FEW050 02/M10 A3002 RMK CU1 SLP168

CYGK;2015-04-04 18:00;CYGK 041800Z 28008G17KT 15SM FEW055 03/M10 A3001 RMK SC1 SLP167

CYGK;2015-04-04 19:00;CYGK 041900Z 28013G18KT 260V320 15SM FEW060 FEW100 04/M11 A3000 RMK SC1AC1 AC TR SLP163

CYGK;2015-04-04 20:00;CYGK 042000Z 26011G20KT 250V310 15SM FEW077 BKN120 BKN240 05/M12 A3000 RMK AC2AC3CI1 CI TR SLP161

CYGK;2015-04-04 21:00;CYGK 042100Z 27014G21KT 15SM FEW070 FEW120 BKN240 04/M10 A3000 RMK AC1AC1CI3 SLP162

CYGK;2015-04-04 22:00;CYGK 042200Z 26015G28KT 15SM FEW070 SCT100 SCT240 03/M11 A3001 RMK AC1AC2CI1 CI TR SLP166

CYGK;2015-04-04 23:00;CYGK 042300Z 28016G24KT 15SM FEW075 FEW100 02/M12 A3002 RMK AC1AC1 AC TR AC TR SLP169

CYGK;2015-04-05 00:00;CYGK 050000Z 27010KT 15SM FEW075 FEW100 01/M10 A3003 RMK AC1AC1 AC TR AC TR SLP172

CYGK;2015-04-05 01:00;CYGK 050100Z 26007KT 15SM FEW100 00/M08 A3005 RMK AC1 AC TR SLP181

CYGK;2015-04-05 02:00;CYGK 050200Z 27009G16KT 15SM FEW100 00/M09 A3006 RMK AC1 AC TR SLP184

CYGK;2015-04-05 03:00;CYGK 050300Z 23006KT 15SM SKC M00/M07 A3004 RMK LAST STFD OBS/NEXT 051000 UTC SLP178

CYGK;2015-04-05 10:00;CYGK 051000Z 25008KT 15SM SKC M04/M09 A3011 RMK SLP199

CYGK;2015-04-05 11:00;CYGK 051100Z 25007KT 15SM FEW100 FEW250 M04/M10 A3014 RMK AC1CI2 AC TR PRESRR SLP210

CYGK;2015-04-05 12:00;CYGK 051200Z 25009KT 15SM SCT170 SCT250 M02/M09 A3016 RMK AC3CI1 SLP219

CYGK;2015-04-05 13:00;CYGK 051300Z 25009G16KT 15SM FEW070 SCT110 BKN170 M01/M10 A3016 RMK AC1AC2AC4 SLP219

CYGK;2015-04-05 14:00;CYGK 051400Z 27013G19KT 15SM SCT070 BKN110 BKN250 00/M10 A3015 RMK AC3AC2CI1 SLP216

CYGK;2015-04-05 15:00;CYGK 051500Z 26012G19KT 15SM FEW035 BKN080 BKN170 01/M10 A3015 RMK CU1AC4AC2 SLP212

CYGK;2015-04-05 16:00;CYGK 051600Z 24014KT 210V270 15SM FEW050 BKN080 BKN100 02/M09 A3014 RMK CU1AC4AC2 SLP210

CYGK;2015-04-05 17:00;CYGK 051700Z 24011KT 15SM FEW055 SCT075 BKN240 03/M07 A3013 RMK CU1AC2CI2 SLP207

CYGK;2015-04-05 18:00;CYGK 051800Z 22013KT 15SM BKN055 BKN250 04/M07 A3012 RMK CU5CI2 SLP203

CYGK;2015-04-05 19:00;CYGK 051900Z 21016KT 15SM BKN060 BKN250 04/M04 A3011 RMK SC6CI1 SLP200

CYGK;2015-04-05 20:00;CYGK 052000Z 22017G27KT 15SM FEW055 SCT075 03/M02 A3010 RMK CU2AC1 SLP197

CYGK;2015-04-05 21:00;CYGK 052100Z 22012G19KT 15SM FEW055 SCT075 SCT250 03/M03 A3011 RMK SC2AC1CI1 SLP200

CYGK;2015-04-05 22:00;CYGK 052200Z 22014KT 15SM FEW055 SCT075 SCT250 02/M03 A3013 RMK SC2AC1CI1 SLP207

CYGK;2015-04-05 23:00;CYGK 052300Z 23009G16KT 15SM FEW055 BKN250 01/M03 A3015 RMK SC2CI3 SLP213

CYGK;2015-04-06 00:00;CYGK 060000Z 24011KT 15SM FEW057 BKN250 00/M04 A3017 RMK SC2CI3 SLP220

CYGK;2015-04-06 01:00;CYGK 060100Z 23009G15KT 15SM FEW055 BKN240 M00/M04 A3019 RMK SC1CI4 SLP228

CYGK;2015-04-06 02:00;CYGK 060200Z 24009KT 15SM BKN240 M01/M03 A3021 RMK CI5 SLP234

CYGK;2015-04-06 03:00;CYGK 060300Z 24010KT 15SM BKN230 M01/M02 A3022 RMK CI5 LAST STFD OBS/NXT 061000Z SLP238

CYGK;2015-04-06 10:00;CYGK 061000Z 07002KT 8SM BKN002 OVC060 M02/M03 A3026 RMK ST5SC3 SLP252

CYGK;2015-04-06 10:21;CYGK 061021Z 14004KT 090V150 3/4SM BR VV002 M01/M02 A3027 RMK FG8 SLP254

CYGK;2015-04-06 10:28;CYGK 061028Z 15004KT 3/8SM BR VV002 M01/M02 A3027 RMK FG8 SLP254

CYGK;2015-04-06 10:53;CYGK 061053Z 13006KT 1SM BR VV002 M01/M01 A3026 RMK FG8 SLP251

CYGK;2015-04-06 11:00;CYGK 061100Z 14006KT 1 1/2SM BR OVC002 M01/M01 A3026 RMK FG4ST4 VIS S 6 SLP252

CYGK;2015-04-06 11:09;CYGK 061109Z 13005KT 2 1/2SM BR OVC004 M01/M01 A3027 RMK FG3SF5 SLP253

CYGK;2015-04-06 11:19;CYGK 061119Z 13005KT 4SM BR OVC005 M01/M01 A3026 RMK SF8 SLP252

CYGK;2015-04-06 11:30;CYGK 061130Z 14004KT 6SM BR SCT006 OVC075 M01/M01 A3027 RMK SF4AC4 SLP254

CYGK;2015-04-06 12:00;CYGK 061200Z 11005KT 6SM BR SCT007 OVC075 M01/M01 A3027 RMK SF3AC5 SLP253

CYGK;2015-04-06 13:00;CYGK 061300Z 13003KT 8SM FEW008 FEW050 OVC070 00/M01 A3028 RMK SF1SC2AC6 SF TR SLP259

CYGK;2015-04-06 14:00;CYGK 061400Z 13004KT 090V160 8SM FEW010 OVC060 02/M01 A3027 RMK CF1SC8 CF TR SLP254

CYGK;2015-04-06 15:00;CYGK 061500Z 15004KT 12SM FEW018 OVC045 02/M01 A3026 RMK SC1SC7 SLP252

CYGK;2015-04-06 15:29;CYGK 061529Z 15005KT 100V170 6SM -SN BKN023 OVC040 02/M02 A3026 RMK SC5SC3 SLP251

CYGK;2015-04-06 15:48;CYGK 061548Z 14005KT 090V170 2SM -SN BKN010 OVC023 01/M01 A3025 RMK SC6SC2 SLP249

CYGK;2015-04-06 16:00;CYGK 061600Z 11004KT 090V160 1 1/2SM -SN VV012 01/M00 A3025 RMK SN8 SLP247

CYGK;2015-04-06 16:23;CYGK 061623Z 05006KT 6SM -SN FEW008 SCT012 OVC042 02/01 A3024 RMK SF1SC3SC4 SLP244

CYGK;2015-04-06 16:42;CYGK 061642Z 04009KT 7SM BKN006 OVC045 02/01 A3023 RMK SF5SC3 SLP240

CYGK;2015-04-06 17:00;CYGK 061700Z 03008KT 8SM BKN006 OVC080 03/01 A3022 RMK SF6AC2 SLP237

CYGK;2015-04-06 17:42;CYGK 061742Z 02009KT 360V060 10SM OVC010 03/01 A3021 RMK SC8 SLP233

CYGK;2015-04-06 18:00;CYGK 061800Z 02010KT 10SM OVC013 03/M00 A3020 RMK SC8 SLP231

CYGK;2015-04-06 19:00;CYGK 061900Z 03013KT 15SM BKN015 BKN040 04/M00 A3020 RMK SC6SC1 SLP232

CYGK;2015-04-06 20:00;CYGK 062000Z 04011KT 15SM SCT015 BKN035 OVC120 04/00 A3019 RMK SC4SC3AC1 SLP228

CYGK;2015-04-06 21:00;CYGK 062100Z 03010KT 15SM FEW015 BKN035 BKN090 03/M01 A3018 RMK SC2SC3AC2 SLP223

CYGK;2015-04-06 22:00;CYGK 062200Z 03011G17KT 15SM 02/M01 A3018 RMK SLP225

CYGK;2015-04-06 23:00;CYGK 062300Z 03010G16KT 15SM FEW035 BKN088 02/M02 A3020 RMK SC1AC6 SLP231

CYGK;2015-04-07 00:00;CYGK 070000Z 02008KT 15SM SCT085 BKN120 BKN210 01/M02 A3020 RMK AC4AC2CI1 SLP231

CYGK;2015-04-07 01:00;CYGK 070100Z 04004KT 15SM 01/M01 A3022 RMK SLP239

CYGK;2015-04-07 02:00;CYGK 070200Z 02009KT 15SM BKN110 01/M01 A3023 RMK AC6 SLP240

CYGK;2015-04-07 03:00;CYGK 070300Z 03008KT 15SM BKN110 01/M01 A3024 RMK AC7 LAST STFD OBS/NEXT 071000 UTC SLP242

CYGK;2015-04-07 10:00;CYGK 071000Z 03009KT 15SM FEW070 OVC110 01/M02 A3029 RMK AC2AC6 SLP261

CYGK;2015-04-07 11:00;CYGK 071100Z 04010KT 15SM FEW070 BKN110 00/M02 A3030 RMK AC2AC5 SLP263

CYGK;2015-04-07 12:00;CYGK 071200Z 06009G18KT 15SM BKN120 OVC250 01/M02 A3032 RMK AC5CI3 SLP272

CYGK;2015-04-07 13:00;CYGK 071300Z 02013KT 15SM BKN110 OVC250 01/M03 A3034 RMK AC6CI2 SLP277

CYGK;2015-04-07 14:00;CYGK 071400Z 04015G20KT 15SM FEW060 SCT110 BKN140 03/M03 A3035 RMK SC1AC3AC2 SLP282

CYGK;2015-04-07 15:00;CYGK 071500Z 05017G23KT 15SM FEW060 FEW120 SCT250 05/M07 A3035 RMK SC1AC1CI2 SLP283

CYGK;2015-04-07 16:00;CYGK 071600Z 05013G31KT 15SM FEW110 SCT250 06/M05 A3036 RMK AC2CI2 SLP285

CYGK;2015-04-07 17:00;CYGK 071700Z 03016G22KT 15SM SCT120 06/M07 A3037 RMK AC3 SLP287

CYGK;2015-04-07 18:00;CYGK 071800Z 06015KT 010V080 15SM SCT110 07/M06 A3036 RMK AC4 SLP283

CYGK;2015-04-07 19:00;CYGK 071900Z 03014G20KT 360V080 15SM SCT120 BKN250 07/M08 A3036 RMK AC3CI2 WSHFT 1851 SLP283

CYGK;2015-04-07 20:00;CYGK 072000Z 04014KT 010V080 15SM FEW180 SCT250 07/M07 A3034 RMK AC2CI2 SLP278

CYGK;2015-04-07 21:00;CYGK 072100Z 03011G18KT 15SM SCT100 SCT180 BKN250 07/M09 A3036 RMK AC3AC1CI1 SLP284

CYGK;2015-04-07 22:00;CYGK 072200Z 05011G17KT 15SM FEW100 BKN150 06/M07 A3036 RMK AC1AC4 SLP284

CYGK;2015-04-07 23:00;CYGK 072300Z 06010G16KT 15SM FEW100 BKN150 05/M06 A3035 RMK AC2AC3 SLP283

CYGK;2015-04-08 00:00;CYGK 080000Z 04006KT 15SM FEW150 04/M07 A3037 RMK AC2 SLP287

CYGK;2015-04-08 01:00;CYGK 080100Z 05007KT 15SM FEW150 03/M09 A3037 RMK AC1 SLP289

CYGK;2015-04-08 02:00;CYGK 080200Z 06007KT 15SM SKC 01/M08 A3037 RMK SLP287

CYGK;2015-04-08 03:00;CYGK 080300Z 05007KT 15SM SKC 01/M08 A3036 RMK LAST STFD OBS/NEXT 081000UTC SLP285

CYGK;2015-04-08 10:00;CYGK 081000Z 05012G17KT 15SM SCT240 00/M11 A3033 RMK CI3 SLP274

CYGK;2015-04-08 11:00;CYGK 081100Z 05012G17KT 15SM FEW120 BKN230 M00/M11 A3035 RMK AC2CI4 SLP280

CYGK;2015-04-08 12:00;CYGK 081200Z 05013G23KT 15SM FEW090 BKN140 BKN230 01/M10 A3035 RMK AC1AC4CI2 PRESRR SLP280

CYGK;2015-04-08 13:00;CYGK 081300Z 05015G21KT 15SM BKN090 OVC140 01/M10 A3034 RMK AC7AC1 SLP278

CYGK;2015-04-08 14:00;CYGK 081400Z 05015G20KT 15SM BKN088 OVC120 02/M09 A3034 RMK AC6AC2 SLP277

CYGK;2015-04-08 15:00;CYGK 081500Z 06014KT 14SM FEW045 SCT070 OVC110 04/M09 A3032 RMK SC1AC4AC4 SC TR SLP270

CYGK;2015-04-08 16:00;CYGK 081600Z 06014KT 15SM BKN055 OVC067 05/M08 A3030 RMK SC6AC2 SLP262

CYGK;2015-04-08 18:00;CYGK 081800Z 06013KT 12SM -SN SCT033 OVC040 04/M07 A3023 RMK SC4SC4 SLP239

CYGK;2015-04-08 18:24;CYGK 081824Z 05011KT 5SM -PL OVC030 03/M06 A3023 RMK SC8 SLP239

CYGK;2015-04-08 19:05;CYGK 081905Z 05012G19KT 3SM -SNPL OVC032 02/M03 A3023 RMK SC8 SLP241

CYGK;2015-04-08 19:34;CYGK 081934Z 05011KT 2SM -SNPL FEW020 OVC032 01/M01 A3023 RMK SC2SC6 SLP240

CYGK;2015-04-08 20:00;CYGK 082000Z 05012G18KT 1 1/2SM -SN FEW016 OVC032 01/M01 A3022 RMK SC2SC6 SLP239

CYGK;2015-04-08 20:17;CYGK 082017Z 05015KT 1 1/2SM -SN FEW005 SCT015 OVC030 00/M00 A3020 RMK SF2SC2SC4 PRESFR SLP231

CYGK;2015-04-08 20:29;CYGK 082029Z 05013G21KT 3SM -SNPL SCT005 BKN018 OVC030 00/M01 A3020 RMK SF3SC2SC3 VIS N-E 11/2 SLP231

CYGK;2015-04-08 21:00;CYGK 082100Z 06012G20KT 4SM -PLSN BR SCT005 BKN016 OVC028 00/M00 A3020 RMK SF3SC4SC1 SLP232

CYGK;2015-04-08 22:00;CYGK 082200Z 05014KT 4SM -SN BR BKN006 OVC015 01/00 A3021 RMK SF5CU3 CIG RAG SLP234

CYGK;2015-04-08 22:35;CYGK 082235Z 05011G20KT 4SM -RAPL BR OVC006 01/00 A3020 RMK SF8 SLP231

CYGK;2015-04-08 23:00;CYGK 082300Z 05014G19KT 4SM -RA BR OVC006 01/00 A3019 RMK SF8 SLP229

CYGK;2015-04-09 00:00;CYGK 090000Z 06014G19KT 4SM -RA BR BKN006 OVC020 01/00 A3019 RMK SF5SC3 SLP228

CYGK;2015-04-09 01:00;CYGK 090100Z 05014KT 4SM -RA BR OVC005 01/00 A3021 RMK SF8 SLP232

CYGK;2015-04-09 02:00;CYGK 090200Z 05014G20KT 4SM -RA BR OVC006 01/00 A3020 RMK SF8 CIG RAG SLP229

CYGK;2015-04-09 03:00;CYGK 090300Z 05013G18KT 4SM -RA BR BKN005 OVC022 01/00 A3021 RMK SF7SC1 SLP232

CYGK;2015-04-09 10:00;CYGK 091000Z 05010KT 6SM -DZ BR SCT005 OVC016 01/00 A3018 RMK ST4SC4 SLP222

CYGK;2015-04-09 10:45;CYGK 091045Z 06011KT 4SM BR SCT004 OVC015 01/00 A3018 RMK SF4SC4 SLP225

CYGK;2015-04-09 11:00;CYGK 091100Z 06009G15KT 4SM BR SCT004 OVC014 01/00 A3019 RMK SF4SC4 SLP228

CYGK;2015-04-09 12:00;CYGK 091200Z 06009KT 4SM BR SCT004 OVC017 01/01 A3018 RMK SF4SC4 SLP224

CYGK;2015-04-09 13:00;CYGK 091300Z 08009KT 15SM FEW005 OVC018 02/01 A3019 RMK SF1SC7 SLP227

CYGK;2015-04-09 14:00;CYGK 091400Z 08009KT 15SM FEW005 OVC017 03/02 A3020 RMK SF1SC7 SLP230

CYGK;2015-04-09 15:00;CYGK 091500Z 10006KT 15SM FEW006 OVC015 04/03 A3019 RMK SF1SC8 SF TR SLP227

CYGK;2015-04-09 16:00;CYGK 091600Z 10006KT 15SM FEW006 OVC014 05/03 A3018 RMK SF1SC8 SF TR SLP224

CYGK;2015-04-09 17:00;CYGK 091700Z 10009KT 15SM OVC018 06/03 A3014 RMK SC8 SLP211

CYGK;2015-04-09 18:00;CYGK 091800Z 11009KT 15SM OVC019 06/03 A3010 RMK SC8 PRESFR SLP198

CYGK;2015-04-09 19:00;CYGK 091900Z 09006KT 15SM OVC020 06/03 A3010 RMK SC8 SLP194

CYGK;2015-04-09 20:00;CYGK 092000Z 10005KT 15SM OVC022 06/03 A3007 RMK SC8 SLP187

CYGK;2015-04-09 21:00;CYGK 092100Z 10006KT 15SM OVC022 06/03 A3003 RMK SC8 PRESFR SLP172

CYGK;2015-04-09 22:00;CYGK 092200Z 14010KT 15SM OVC025 06/03 A3002 RMK SC8 SLP168

CYGK;2015-04-09 22:44;CYGK 092244Z 15005KT 12SM -RA OVC025 04/02 A3001 RMK SC8 SLP167

CYGK;2015-04-09 23:00;CYGK 092300Z 14008KT 12SM -RA OVC025 05/03 A3000 RMK SC8 SLP163

CYGK;2015-04-10 00:00;CYGK 100000Z 15008KT 12SM -RA OVC022 04/03 A2998 RMK SC8 SLP155

CYGK;2015-04-10 01:00;CYGK 100100Z 15014G20KT 10SM -RA OVC020 03/02 A2994 RMK SC8 SLP141

CYGK;2015-04-10 02:00;CYGK 100200Z 15014G22KT 8SM FEW012 OVC018 03/02 A2991 RMK CU2SC6 SLP132

CYGK;2015-04-10 02:23;CYGK 100223Z 15010G15KT 10SM -RA BKN010 OVC018 03/02 A2990 RMK SC5SC3 SLP127

CYGK;2015-04-10 03:00;CYGK 100300Z 16017KT 15SM -RA BKN010 OVC020 03/02 A2988 RMK SC5SC3 LAST STFD OBS/NEXT 101000 UTC SLP121

CYGK;2015-04-10 10:00;CYGK 101000Z 16009G16KT 15SM FEW018 BKN038 04/03 A2971 RMK SC2SC5 PRESFR SLP063

CYGK;2015-04-10 11:00;CYGK 101100Z 17007KT 15SM FEW010 SCT040 SCT110 BKN250 04/03 A2968 RMK SF1SC3AC1CI3 AC TR SLP055

CYGK;2015-04-10 12:00;CYGK 101200Z 15009G15KT 15SM FEW015 BKN055 OVC250 04/03 A2963 RMK SF1SC6CI2 SF TR PRESFR SLP037

CYGK;2015-04-10 12:23;CYGK 101223Z 16010KT 15SM -SHRA FEW015 SCT040TCU BKN055 OVC250 05/03 A2962 RMK SF1TCU3SC4CI1 SF TR PRESFR SLP031

CYGK;2015-04-10 12:45;CYGK 101245Z 17009KT 12SM -TSRA FEW015 OVC030 04/03 A2962 RMK SF1SC7 OCNL LTGCG E SLP032

CYGK;2015-04-10 13:00;CYGK 101300Z 17009G15KT 15SM -TSRA FEW015 BKN027 OVC060 04/04 A2961 RMK SF1SC6SC1 SLP030

CYGK;2015-04-10 13:18;CYGK 101318Z 17003KT 150V210 6SM -SHRA BR FEW015 BKN021TCU OVC060 04/03 A2960 RMK SF1TCU7SC1 SF TR PRESFR SLP026

CYGK;2015-04-10 14:00;CYGK 101400Z 18007KT 15SM FEW015 SCT020TCU BKN036 OVC080 05/04 A2959 RMK SF1TCU4SC2AC2 SF TR OCNL -SHRA PRESRR SLP022

CYGK;2015-04-10 14:22;CYGK 101422Z 17007KT 15SM -SHRA FEW008 FEW020TCU OVC035 05/04 A2958 WS RWY19 RMK SF1TCU1SC6 PRESFR SLP018

CYGK;2015-04-10 14:41;CYGK 101441Z 20007KT 15SM FEW008 SCT040 BKN110 OVC200 05/04 A2957 RMK SF1SC3AC3CS1 SLP016

CYGK;2015-04-10 15:00;CYGK 101500Z 16020G26KT 15SM FEW008 FEW030 BKN050 OVC200 06/05 A2954 RMK SF1SC1SC4CS2 PRESFR SLP006

CYGK;2015-04-10 16:00;CYGK 101600Z 16014KT 15SM FEW008 BKN044 BKN100 OVC200 06/05 A2950 RMK SF1SC5AC2CI1 SF TR SLP994

CYGK;2015-04-10 16:46;CYGK 101646Z 18013G22KT 15SM SCT004 BKN033 OVC090 05/05 A2950 RMK SF3SC3AC2 SLP991

CYGK;2015-04-10 17:00;CYGK 101700Z 18015KT 15SM SCT004 BKN032 OVC090 05/05 A2949 RMK SF4SC3AC1 SLP990

CYGK;2015-04-10 17:10;CYGK 101710Z 19018G25KT 15SM BKN002 OVC030 05/05 A2951 RMK SF7SC1 PRESRR SLP995

CYGK;2015-04-10 17:30;CYGK 101730Z 21016G26KT 15SM SCT002 OVC020 06/06 A2953 RMK SF3SC5 SLP002

CYGK;2015-04-10 17:44;CYGK 101744Z 20018G24KT 4SM -RA BR FEW002 OVC025 07/06 A2953 RMK SF2SC6 SLP002

CYGK;2015-04-10 18:00;CYGK 101800Z 20020G29KT 3SM -RA BR SCT003 BKN020 OVC035 06/06 A2953 RMK SF4SC2SC2 SLP003

CYGK;2015-04-10 18:27;CYGK 101827Z 20018KT 12SM FEW003 BKN041 06/05 A2953 RMK SF1SC6 SLP001

CYGK;2015-04-10 19:00;CYGK 101900Z 21022G29KT 15SM FEW003 BKN040 BKN200 09/07 A2952 RMK SF1SC6CI1 SF TR SLP997

CYGK;2015-04-10 20:00;CYGK 102000Z 23023G36KT 15SM FEW015 BKN048 09/05 A2953 RMK CF1SC7 CF TR SLP002

CYGK;2015-04-10 21:00;CYGK 102100Z 23024G34KT 15SM SCT032 BKN050 08/03 A2958 RMK SC4SC3 SLP018

CYGK;2015-04-10 22:00;CYGK 102200Z 23021G29KT 15SM FEW030 BKN045 07/03 A2961 RMK SC1SC6 SLP030

CYGK;2015-04-10 23:00;CYGK 102300Z 22019G28KT 15SM BKN049 06/02 A2964 RMK SC7 SLP038

CYGK;2015-04-11 00:00;CYGK 110000Z 23018G27KT 15SM OVC046 06/02 A2966 RMK SC8 SLP047

CYGK;2015-04-11 01:00;CYGK 110100Z 24013G25KT 15SM OVC035 05/01 A2970 RMK SC8 SLP058

CYGK;2015-04-11 02:00;CYGK 110200Z 25014G21KT 15SM OVC043 06/00 A2970 RMK NS8 SLP061

CYGK;2015-04-11 03:00;CYGK 110300Z 24012G19KT 15SM OVC042 05/00 A2972 RMK SC8 LAST STFD OBS/NEXT 111000 UTC SLP067

CYGK;2015-04-11 10:00;CYGK 111000Z 26013G19KT 15SM SCT030 BKN120 03/M01 A2987 RMK SC4AC2 SLP116

CYGK;2015-04-11 11:00;CYGK 111100Z 28010G22KT 15SM FEW030 BKN130 BKN200 03/M02 A2990 RMK SC2AC4CI1 SLP127

CYGK;2015-04-11 12:00;CYGK 111200Z 27013G20KT 15SM FEW030 BKN130 03/M02 A2993 RMK SC1AC6 SLP138

CYGK;2015-04-11 13:00;CYGK 111300Z 28015KT 15SM BKN028 BKN120 04/M01 A2997 RMK SC6AC1 SLP152

CYGK;2015-04-11 14:00;CYGK 111400Z 28012G18KT 15SM BKN030 05/M01 A3000 RMK SC7 SLP161

CYGK;2015-04-11 15:00;CYGK 111500Z 27013KT 15SM BKN032 05/M02 A3002 RMK SC7 SLP169

CYGK;2015-04-11 16:00;CYGK 111600Z 28012G20KT 260V320 15SM BKN038 06/M02 A3003 RMK SC6 SLP173

CYGK;2015-04-11 17:00;CYGK 111700Z 30011G20KT 250V310 15SM FEW042 SCT250 07/M02 A3004 RMK SC2CI1 SLP176

CYGK;2015-04-11 18:00;CYGK 111800Z 25016G22KT 15SM FEW045 SCT250 08/M01 A3004 RMK SC2CI1 SLP177

CYGK;2015-04-11 19:00;CYGK 111900Z 27011KT 240V310 15SM FEW055 FEW250 09/M02 A3005 RMK SC1CI1 SLP178

CYGK;2015-04-11 20:00;CYGK 112000Z 29012KT 240V300 15SM FEW055 FEW250 10/M01 A3004 RMK SC1CI1 CI TR SLP176

CYGK;2015-04-11 21:00;CYGK 112100Z 24013KT 15SM FEW055 08/M01 A3005 RMK SC1 SLP179

CYGK;2015-04-11 22:00;CYGK 112200Z 22013G19KT 15SM FEW060 FEW250 07/01 A3007 RMK SC1CI1 SC TR SLP185

CYGK;2015-04-11 23:00;CYGK 112300Z 24015G21KT 15SM FEW250 06/M01 A3008 RMK CI1 CI TR SLP190

CYGK;2015-04-12 00:00;CYGK 120000Z 23012G19KT 15SM FEW250 05/M01 A3010 RMK CI1 CI TR SLP196

CYGK;2015-04-12 01:00;CYGK 120100Z 25011KT 15SM FEW250 03/M01 A3013 RMK CI1 CI TR SLP207

CYGK;2015-04-12 02:00;CYGK 120200Z 23007KT 15SM FEW250 03/M01 A3015 RMK CI1 CI TR SLP212

CYGK;2015-04-12 03:00;CYGK 120300Z 23006KT 15SM SKC 02/M01 A3015 RMK LAST STFD OBS/NXT 121000Z SLP214

CYGK;2015-04-12 10:00;CYGK 121000Z 21004KT 15SM SKC M00/M01 A3022 RMK SLP237

CYGK;2015-04-12 11:00;CYGK 121100Z 22005KT 15SM FEW270 M00/M01 A3024 RMK CI1 CI TR SLP245

CYGK;2015-04-12 12:00;CYGK 121200Z 21006KT 15SM FEW270 02/01 A3027 RMK CI1 CI TR SLP253

CYGK;2015-04-12 13:00;CYGK 121300Z 21005KT 15SM BKN270 04/02 A3028 RMK CI7 SLP257

CYGK;2015-04-12 14:00;CYGK 121400Z 19010KT 15SM BKN270 04/01 A3028 RMK CI7 SLP257

CYGK;2015-04-12 15:00;CYGK 121500Z 17008KT 15SM BKN270 04/02 A3028 RMK CI5 SLP256

CYGK;2015-04-12 16:00;CYGK 121600Z 16009KT 15SM SCT070 04/02 A3027 RMK CI4 SLP254

CYGK;2015-04-12 17:00;CYGK 121700Z 17009KT 15SM BKN270 05/02 A3026 RMK CI6 SLP251

CYGK;2015-04-12 18:00;CYGK 121800Z 18009KT 15SM BKN270 05/02 A3024 RMK CI5 SLP245

CYGK;2015-04-12 19:00;CYGK 121900Z 17011G16KT 15SM FEW270 06/02 A3024 RMK CI1 CI TR SLP243

CYGK;2015-04-12 20:00;CYGK 122000Z 18009KT 15SM SKC 07/02 A3022 RMK SLP238

CYGK;2015-04-12 21:00;CYGK 122100Z 17008KT 15SM SKC 06/02 A3021 RMK SLP234

CYGK;2015-04-12 22:00;CYGK 122200Z 18006KT 15SM FEW270 06/02 A3021 RMK CI1 CI TR SLP234

CYGK;2015-04-12 23:00;CYGK 122300Z 21004KT 15SM FEW270 08/02 A3021 RMK CI1 CI TR SLP233

CYGK;2015-04-13 00:00;CYGK 130000Z 26002KT 15SM FEW250 06/00 A3021 RMK CI1 CI TR SLP233

CYGK;2015-04-13 01:00;CYGK 130100Z 00000KT 15SM SKC 06/00 A3021 RMK SLP235

CYGK;2015-04-13 02:00;CYGK 130200Z 18004KT 15SM SKC 04/M00 A3021 RMK SLP233

CYGK;2015-04-13 03:00;CYGK 130300Z 20002KT 15SM SKC 04/M00 A3020 RMK LAST STFD OBS/NEXT 131000 UTC SLP229

CYGK;2015-04-13 10:00;CYGK 131000Z 15007KT 15SM FEW250 04/M00 A3017 RMK CI2 SLP218

CYGK;2015-04-13 11:00;CYGK 131100Z 13002KT 15SM FEW250 03/M01 A3018 RMK CI1 SLP221

CYGK;2015-04-13 12:00;CYGK 131200Z 17003KT 15SM FEW250 07/01 A3017 RMK CI1 SLP218

CYGK;2015-04-13 13:00;CYGK 131300Z 16007KT 15SM FEW110 FEW250 08/01 A3014 RMK AC1CI1 AC TR SLP209

CYGK;2015-04-13 14:00;CYGK 131400Z 16009KT 15SM FEW110 08/02 A3013 RMK AC1 SLP205

CYGK;2015-04-13 15:00;CYGK 131500Z 17010KT 15SM FEW120 09/02 A3012 RMK AC2 SLP202

CYGK;2015-04-13 16:00;CYGK 131600Z 16010KT 15SM FEW120 SCT250 09/03 A3008 RMK AC2CI1 PRESFR SLP190

CYGK;2015-04-13 17:00;CYGK 131700Z 15011KT 15SM FEW120 BKN250 14/04 A3004 RMK AC1CI6 SLP174

CYGK;2015-04-13 18:00;CYGK 131800Z 16009KT 15SM FEW120 OVC250 15/04 A2999 RMK AC2CS6 SLP159

CYGK;2015-04-13 19:00;CYGK 131900Z 19009KT 15SM FEW120 OVC220 14/04 A2997 RMK AC2CS6 SLP150

CYGK;2015-04-13 20:00;CYGK 132000Z 17008KT 15SM FEW120 SCT160 BKN200 14/04 A2991 RMK AC2AC2CS3 SLP131

CYGK;2015-04-13 21:00;CYGK 132100Z 16008KT 15SM FEW040 SCT120 BKN160 BKN200 11/03 A2986 RMK SC1AC3AC1CS2 ACC ASOCTD SLP112

CYGK;2015-04-13 22:00;CYGK 132200Z 17011G17KT 15SM FEW040 SCT120 BKN160 BKN220 11/04 A2981 RMK SC1AC2AC2CS2 SLP097

CYGK;2015-04-13 23:00;CYGK 132300Z 18009KT 15SM SCT100 BKN160 BKN200 09/04 A2978 RMK AC4AC2CS1 SLP088

CYGK;2015-04-14 00:00;CYGK 140000Z 22013G19KT 15SM BKN090 OVC200 14/06 A2977 RMK AC7CS1 SH DIST SW-N SLP083 DENSITY ALT 400FT

CYGK;2015-04-14 00:10;CYGK 140010Z 22019KT 12SM -RA SCT075 OVC090 16/07 A2978 RMK AC4AC4 SLP085 DENSITY ALT 600FT

CYGK;2015-04-14 00:21;CYGK 140021Z 26015G25KT 220V280 12SM -RA BKN075 OVC090 13/07 A2983 RMK AC6AC2 WSHFT 0009 PRESRR SLP102

CYGK;2015-04-14 01:00;CYGK 140100Z 24014G21KT 10SM -RA SCT040 OVC070 13/11 A2985 RMK SC3AC5 PRESRR SLP109

CYGK;2015-04-14 01:22;CYGK 140122Z 24013G20KT 8SM -RA BKN014 BKN040 OVC070 13/12 A2986 RMK SF5SC1AC2 SLP114

CYGK;2015-04-14 02:00;CYGK 140200Z 27015G28KT 8SM -RA BKN010 OVC040 13/12 A2990 RMK SF5SC3 PRESRR SLP125

CYGK;2015-04-14 02:36;CYGK 140236Z 28015G23KT 15SM SCT010 OVC050 11/08 A2993 RMK SF3SC5 SLP136

CYGK;2015-04-14 03:00;CYGK 140300Z 29012G18KT 15SM FEW010 OVC060 11/08 A2994 RMK SF2SC6 LAST STFD OBS/NEXT 141000 UTC SLP141

CYGK;2015-04-14 10:00;CYGK 141000Z 21005KT 15SM FEW150 02/02 A3013 RMK AC2 SLP206

CYGK;2015-04-14 11:00;CYGK 141100Z 23004KT 15SM FEW090 BKN120 03/02 A3016 RMK AC2AC4 SLP215

CYGK;2015-04-14 12:00;CYGK 141200Z 33002KT 15SM FEW080 OVC120 04/03 A3019 RMK AC2AC6 SLP225

CYGK;2015-04-14 13:00;CYGK 141300Z 18005KT 15SM BKN075 BKN110 05/04 A3020 RMK AC5AC1 SLP230

CYGK;2015-04-14 14:00;CYGK 141400Z 18011KT 15SM SCT080 04/03 A3020 RMK AC4 SLP228

CYGK;2015-04-14 15:00;CYGK 141500Z 18011KT 15SM FEW010 FEW070 FEW250 05/03 A3021 RMK CF1AC1CI1 CF TR AC TR CI TR SLP232

CYGK;2015-04-14 16:00;CYGK 141600Z 17013KT 15SM FEW020 FEW250 05/03 A3019 RMK CU1CI1 CU TR SLP227

CYGK;2015-04-14 17:00;CYGK 141700Z 19013KT 15SM FEW030 FEW250 05/03 A3018 RMK CU1CI1 CU TR SLP224

CYGK;2015-04-14 18:00;CYGK 141800Z 18010KT 15SM FEW030 FEW250 08/04 A3016 RMK CU1CI1 CU TR SLP217

CYGK;2015-04-14 19:00;CYGK 141900Z 19010KT 15SM FEW030 FEW230 13/04 A3014 RMK CU1CI1 CU TR SLP207

CYGK;2015-04-14 20:00;CYGK 142000Z 23009G17KT 170V240 15SM BKN250 13/M00 A3011 RMK CI5 SLP199

CYGK;2015-04-14 21:00;CYGK 142100Z 19009KT 15SM BKN210 12/02 A3010 RMK CI5 SLP197

CYGK;2015-04-14 22:00;CYGK 142200Z 23013KT 15SM BKN210 13/00 A3010 RMK CI5 SLP194

CYGK;2015-04-14 23:00;CYGK 142300Z 23011KT 15SM SCT210 10/M01 A3011 RMK CI4 SLP198

CYGK;2015-04-15 00:00;CYGK 150000Z 24013KT 15SM FEW210 08/M01 A3012 RMK CI2 SLP203

CYGK;2015-04-15 01:00;CYGK 150100Z 25006KT 15SM FEW200 08/M02 A3015 RMK CI1 SLP212

CYGK;2015-04-15 02:00;CYGK 150200Z 24008KT 15SM SKC 05/M01 A3017 RMK SLP218

CYGK;2015-04-15 03:00;CYGK 150300Z 28007KT 15SM SKC 07/M04 A3017 RMK LAST STFD OBS/NEXT 151000UTC SLP219

CYGK;2015-04-15 10:00;CYGK 151000Z 35008KT 15SM SKC 02/M05 A3021 RMK SLP233

CYGK;2015-04-15 11:00;CYGK 151100Z 35011KT 15SM SKC 04/M05 A3025 RMK SLP246

CYGK;2015-04-15 12:00;CYGK 151200Z 01010G16KT 15SM SKC 07/M04 A3028 RMK SLP257

CYGK;2015-04-15 13:00;CYGK 151300Z 35012G18KT 15SM FEW250 09/M02 A3030 RMK CI1 CI TR SLP264

CYGK;2015-04-15 14:00;CYGK 151400Z 35012KT 15SM FEW250 11/M02 A3031 RMK CI1 CI TR SLP266

CYGK;2015-04-15 15:00;CYGK 151500Z 35009G16KT 15SM FEW250 12/M03 A3033 RMK CI1 SLP272

CYGK;2015-04-15 16:00;CYGK 151600Z 31010G18KT 290V020 15SM FEW250 13/M02 A3033 RMK CI1 SLP273

CYGK;2015-04-15 17:00;CYGK 151700Z 30014G20KT 280V010 15SM FEW040 FEW250 14/M03 A3034 RMK CF1CI1 CF TR SLP276

CYGK;2015-04-15 18:00;CYGK 151800Z 35010G16KT 330V060 15SM FEW040 FEW250 15/M03 A3034 RMK CF1CI1 CF TR SLP277

CYGK;2015-04-15 19:00;CYGK 151900Z 20013G18KT 15SM FEW040 FEW250 11/M00 A3035 RMK CF1CI1 CF TR SLP279

CYGK;2015-04-15 20:00;CYGK 152000Z 19011KT 15SM FEW250 10/01 A3035 RMK CI1 SLP280

CYGK;2015-04-15 21:00;CYGK 152100Z 20008KT 15SM FEW250 09/02 A3035 RMK CI1 SLP282

CYGK;2015-04-15 22:00;CYGK 152200Z 19010KT 15SM FEW250 07/01 A3036 RMK CI1 SLP285

CYGK;2015-04-15 23:00;CYGK 152300Z 14004KT 15SM FEW250 06/01 A3037 RMK CI1 SLP287

CYGK;2015-04-16 00:00;CYGK 160000Z 00000KT 15SM FEW250 04/00 A3038 RMK CI1 SLP292

CYGK;2015-04-16 01:00;CYGK 160100Z 08004KT 15SM FEW250 03/M01 A3041 RMK CI1 SLP300

CYGK;2015-04-16 02:00;CYGK 160200Z 07004KT 15SM 03/M00 A3041 RMK SLP302

CYGK;2015-04-16 03:00;CYGK 160300Z 36003KT 15SM SKC 04/M00 A3042 RMK LAST STFD OBS/NEXT 161000UTC SLP305

CYGK;2015-04-16 10:00;CYGK 161000Z 05004KT 15SM FEW260 M01/M03 A3042 RMK CI1 SLP305

CYGK;2015-04-16 11:00;CYGK 161100Z 06003KT 15SM SCT260 00/M03 A3042 RMK CI3 SLP306

CYGK;2015-04-16 12:00;CYGK 161200Z 14002KT 15SM SCT260 03/M01 A3043 RMK CI4 SLP308

CYGK;2015-04-16 13:00;CYGK 161300Z 15003KT 15SM BKN250 04/M01 A3042 RMK CI6 SLP306

CYGK;2015-04-16 14:00;CYGK 161400Z 16005KT 15SM BKN260 08/M03 A3041 RMK CI5 SLP299

CYGK;2015-04-16 15:00;CYGK 161500Z 14005KT 15SM BKN250 10/M04 A3038 RMK CI6 SLP290

CYGK;2015-04-16 16:00;CYGK 161600Z 18005KT 15SM BKN250 11/M04 A3036 RMK CI6 SLP283

CYGK;2015-04-16 17:00;CYGK 161700Z 16007KT 15SM BKN240 12/M05 A3032 RMK CI5 SLP270

CYGK;2015-04-16 18:00;CYGK 161800Z 16006KT 15SM BKN250 14/M04 A3029 RMK CI7 SLP258

CYGK;2015-04-16 19:00;CYGK 161900Z 16007KT 15SM BKN250 15/M05 A3024 RMK CI7 SLP241

CYGK;2015-04-16 20:00;CYGK 162000Z 18004KT 15SM SCT220 BKN240 15/M05 A3019 RMK CC3CI3 SLP227

CYGK;2015-04-16 21:00;CYGK 162100Z 23005KT 15SM SCT200 BKN240 17/M02 A3017 RMK CC3CI4 SLP218

CYGK;2015-04-16 23:00;CYGK 162300Z 00000KT 15SM SCT170 BKN240 17/M02 A3010 RMK AC4CI3 SLP196

CYGK;2015-04-17 00:00;CYGK 170000Z 00000KT 15SM BKN130 OVC250 16/M03 A3010 RMK AC5CI3 SLP194

CYGK;2015-04-17 01:00;CYGK 170100Z 14004KT 15SM BKN110 OVC250 12/M02 A3010 RMK AC6CI2 SLP193

CYGK;2015-04-17 02:00;CYGK 170200Z 24010G18KT 15SM OVC080 10/01 A3010 RMK AC8 SLP194

CYGK;2015-04-17 02:15;CYGK 170215Z 21009KT 190V260 15SM -RA OVC075 10/02 A3010 RMK AC8 SLP196

CYGK;2015-04-17 03:00;CYGK 170300Z 20009KT 15SM -RA OVC077 07/02 A3009 RMK AC8 LAST STFD OBS/NEXT 171000 UTC PRESFR SLP191

CYGK;2015-04-17 10:00;CYGK 171000Z 00000KT 3/4SM -RA BR OVC002 03/03 A3000 RMK ST8 SLP160

CYGK;2015-04-17 10:25;CYGK 171025Z 16003KT 1/2SM -RA FG VV002 03/03 A3000 RMK FG8 SLP160

CYGK;2015-04-17 11:00;CYGK 171100Z 17002KT 3/8SM FG VV002 04/04 A2999 RMK FG8 SLP157

CYGK;2015-04-17 12:00;CYGK 171200Z 18003KT 100V220 1/4SM FG VV002 05/05 A3001 RMK FG8 SLP163

CYGK;2015-04-17 12:39;CYGK 171239Z 25003KT 140V260 1/4SM FG OVC006 07/07 A2999 RMK FG6ST2 SLP158

CYGK;2015-04-17 13:00;CYGK 171300Z 18003KT 150V280 1/4SM FG OVC005 06/06 A2999 RMK FG6SF2 SLP158

CYGK;2015-04-17 13:42;CYGK 171342Z 16004KT 1/4SM FG OVC007 05/05 A2999 RMK FG6ST2 SLP158

CYGK;2015-04-17 14:00;CYGK 171400Z 18005KT 5/8SM BR OVC007 05/05 A2999 RMK FG5SF3 SLP158

CYGK;2015-04-17 14:11;CYGK 171411Z 17003KT 1SM BR OVC007 06/06 A2999 RMK FG4ST4 SLP157

CYGK;2015-04-17 14:32;CYGK 171432Z 15004KT 140V200 4SM BR SCT007 OVC010 07/07 A2999 RMK SF3SC5 VIS S 1 SLP158

CYGK;2015-04-17 15:00;CYGK 171500Z 18005KT 6SM BR FEW007 BKN011 BKN100 08/08 A2999 RMK SF1SC5AC1 VIS S 3/4 SLP157

CYGK;2015-04-17 15:09;CYGK 171509Z 19005KT 6SM -SHRA BR FEW007 BKN012 BKN100 09/09 A2998 RMK SF1SC5AC1 VIS S 1 SLP155

CYGK;2015-04-17 15:32;CYGK 171532Z 18008KT 6SM BR FEW007 BKN012 BKN100 08/07 A2998 RMK SF2SC4AC1 VIS E-S 1/2 SLP153

CYGK;2015-04-17 15:40;CYGK 171540Z 19009KT 2SM BR FEW007 BKN014 BKN065 09/08 A2998 RMK SF2SC4SC1 VIS NE-S 1/2 SLP153

CYGK;2015-04-17 15:50;CYGK 171550Z 19010KT 1/2SM FG SCT002 BKN012 08/06 A2998 RMK SF4SC3 VIS W-N 4 SLP153

CYGK;2015-04-17 16:00;CYGK 171600Z 18010KT 1/2SM FG BKN002 BKN012 07/07 A2997 RMK SF6SC1 VIS W-N 3 CU EMBD SLP152

CYGK;2015-04-17 16:23;CYGK 171623Z 19010KT 1/2SM FG FEW015 SCT078 OVC230 09/09 A2997 RMK FG2SC1AC1CI5 SC TR SLP151

CYGK;2015-04-17 16:42;CYGK 171642Z 19012KT 3/8SM FG BKN067 09/08 A2997 RMK FG5AC2 VIS N 1 SLP150

CYGK;2015-04-17 17:00;CYGK 171700Z 19012KT 3/8SM FG BKN067 08/07 A2996 RMK FG5AC2 VIS NW-NE 11/4 SLP148

CYGK;2015-04-17 17:28;CYGK 171728Z 19013KT 1SM BR SCT008 BKN070 BKN250 08/07 A2996 RMK FG3CF1AC1CI1 SLP147

CYGK;2015-04-17 17:48;CYGK 171748Z 19013KT 8SM FEW017 FEW070 SCT250 09/08 A2995 RMK SC1AC1CI1 VIS 1/2 SLP145

CYGK;2015-04-17 18:00;CYGK 171800Z 19013KT 1SM BR SCT017 BKN250 09/07 A2996 RMK FG3SC1CI2 VIS NW 6 SLP147

CYGK;2015-04-17 18:17;CYGK 171817Z 18012KT 10SM FEW017 FEW095 BKN250 09/07 A2996 RMK SC1AC1CI3 VIS SE-S 11/2 SLP147

CYGK;2015-04-17 19:00;CYGK 171900Z 18012KT 12SM FEW020 FEW100 SCT250 08/06 A2994 RMK SC1AC1CI2 SLP141

CYGK;2015-04-17 20:00;CYGK 172000Z 19013KT 12SM FEW020 11/07 A2991 RMK CU2 SLP132

CYGK;2015-04-17 21:00;CYGK 172100Z 19013KT 10SM FEW020 12/08 A2990 RMK CU2 SLP127

CYGK;2015-04-17 22:00;CYGK 172200Z 20009KT 10SM FEW020 SCT250 14/09 A2990 RMK CU1CI3 CU TR SLP127

CYGK;2015-04-17 23:00;CYGK 172300Z 22011KT 10SM FEW025 13/08 A2990 RMK CU2 SLP127

CYGK;2015-04-18 00:00;CYGK 180000Z 21004KT 10SM FEW030 SCT250 08/06 A2990 RMK CF1CI2 SLP129

CYGK;2015-04-18 01:00;CYGK 180100Z 25007KT 15SM FEW250 09/06 A2993 RMK CI2 SLP138

CYGK;2015-04-18 02:00;CYGK 180200Z 25007KT 15SM FEW150 09/05 A2995 RMK AC1 SLP143

CYGK;2015-04-18 03:00;CYGK 180300Z 25007KT 15SM SKC 09/04 A2995 RMK LAST STFD OBS/NEXT 181000 UTC SLP145

CYGK;2015-04-18 10:00;CYGK 181000Z 05005KT 15SM FEW070 03/02 A2993 RMK AC1 AC TR SLP138

CYGK;2015-04-18 11:00;CYGK 181100Z 21002KT 15SM FEW065 04/02 A2994 RMK SC1 SLP140

CYGK;2015-04-18 12:00;CYGK 181200Z 00000KT 15SM FEW010 FEW065 BKN095 06/03 A2995 RMK CF1SC1AC6 SC TR SLP145

CYGK;2015-04-18 13:00;CYGK 181300Z 16004KT 15SM SCT065 BKN095 06/03 A2993 RMK SC3AC4 PRESFR SLP137

CYGK;2015-04-18 14:00;CYGK 181400Z 17004KT 15SM FEW065 BKN085 07/04 A2992 RMK SC1AC5 SLP136

CYGK;2015-04-18 15:00;CYGK 181500Z 18009KT 15SM FEW065 FEW085 07/04 A2993 RMK SC1AC1 VIS S 6 HZ SLP137

CYGK;2015-04-18 16:00;CYGK 181600Z 17011KT 15SM FEW065 FEW090 06/04 A2992 RMK SC1AC1 VIS S 4 FG SLP136

CYGK;2015-04-18 17:00;CYGK 181700Z 15008KT 15SM FEW078 08/06 A2992 RMK AC2 VIS S 5 SLP134

CYGK;2015-04-18 17:40;CYGK 181740Z VRB19G27KT 15SM FEW080 19/M01 A2993 RMK AC2 SLP135 DENSITY ALT 800FT

CYGK;2015-04-18 18:00;CYGK 181800Z 32018G28KT 15SM FEW076 19/M01 A2993 RMK AC2 SLP137 DENSITY ALT 700FT

CYGK;2015-04-18 19:00;CYGK 181900Z 33014G28KT 290V360 15SM FEW081 19/M01 A2996 RMK AC1 SLP147 DENSITY ALT 700FT

CYGK;2015-04-18 20:00;CYGK 182000Z 34015G21KT 15SM FEW080 18/M03 A2998 RMK AC1 AC TR SLP154 DENSITY ALT 600FT

CYGK;2015-04-18 21:00;CYGK 182100Z 35009G17KT 15SM FEW080 FEW250 17/M04 A3001 RMK CF1CI1 CF TR CI TR SLP165 DENSITY ALT 500FT

CYGK;2015-04-18 22:00;CYGK 182200Z 35012G20KT 15SM FEW080 16/M04 A3006 RMK CF1 CF TR PRESRR SLP181

CYGK;2015-04-18 23:00;CYGK 182300Z 35013G18KT 15SM FEW080 14/M04 A3010 RMK CF1 CF TR SLP193

CYGK;2015-04-19 00:00;CYGK 190000Z 36009KT 15SM SKC 12/M04 A3013 RMK SLP205

CYGK;2015-04-19 01:00;CYGK 190100Z 01011KT 15SM SKC 10/M03 A3016 RMK SLP217

CYGK;2015-04-19 02:00;CYGK 190200Z 01007KT 15SM SKC 09/M03 A3019 RMK SLP226

CYGK;2015-04-19 03:00;CYGK 190300Z 01012KT 15SM SKC 08/M02 A3020 RMK LAST STFD OBS/NEXT 191000 UTC SLP230

CYGK;2015-04-19 10:00;CYGK 191000Z 03010KT 15SM FEW270 02/M03 A3028 RMK CI1 CI TR SLP255

CYGK;2015-04-19 11:00;CYGK 191100Z 04010KT 15SM FEW270 03/M03 A3029 RMK CI1 SLP258

CYGK;2015-04-19 12:00;CYGK 191200Z 06014KT 15SM FEW270 04/M03 A3030 RMK CI1 SLP263

CYGK;2015-04-19 13:00;CYGK 191300Z 07014KT 15SM SCT270 06/M03 A3032 RMK CI3 SLP268

CYGK;2015-04-19 14:00;CYGK 191400Z 06013KT 15SM SCT270 07/M03 A3030 RMK CI4 SLP262

CYGK;2015-04-19 15:00;CYGK 191500Z 07011G17KT 15SM BKN270 08/M02 A3030 RMK CI6 SLP262

CYGK;2015-04-19 16:00;CYGK 191600Z 10016KT 15SM BKN270 09/M02 A3028 RMK CI7 SLP257

CYGK;2015-04-19 17:00;CYGK 191700Z 08014G19KT 15SM BKN250 10/M01 A3024 RMK CI6 PRESFR SLP243

CYGK;2015-04-19 18:00;CYGK 191800Z 08010G16KT 15SM BKN260 12/M01 A3022 RMK CI7 PRESFR SLP236

CYGK;2015-04-19 19:00;CYGK 191900Z 09010KT 040V100 15SM BKN240 13/M02 A3018 RMK CI6 SLP221

CYGK;2015-04-19 20:00;CYGK 192000Z 06012G19KT 15SM BKN240 14/M02 A3012 RMK CI6 SLP201

CYGK;2015-04-19 21:00;CYGK 192100Z 07009G17KT 15SM FEW100 BKN230 15/M01 A3009 RMK AC1CI7 AC TR SLP192

CYGK;2015-04-19 22:00;CYGK 192200Z 05013G18KT 15SM FEW100 BKN240 14/M02 A3007 RMK AC1CI6 SLP184

CYGK;2015-04-19 23:00;CYGK 192300Z 05013G19KT 15SM FEW100 BKN230 13/M01 A3004 RMK AC2CI5 SLP175

CYGK;2015-04-20 00:00;CYGK 200000Z 05014G20KT 15SM FEW100 BKN220 12/M01 A3003 RMK AC2CI5 SLP171

CYGK;2015-04-20 01:00;CYGK 200100Z 06014G22KT 15SM FEW100 BKN240 11/M01 A3001 RMK AC2CI5 SLP166

CYGK;2015-04-20 02:00;CYGK 200200Z 07012G18KT 15SM BKN240 09/M01 A2999 RMK CI7 SLP157

CYGK;2015-04-20 03:00;CYGK 200300Z 06013KT 15SM OVC230 09/M01 A2994 RMK CI8 LAST STFD OBS/NEXT 201000 UTC SLP141

CYGK;2015-04-20 10:00;CYGK 201000Z 11014G21KT 6SM -RA BR SCT040 OVC085 07/06 A2977 RMK SC4AC4 SLP082

CYGK;2015-04-20 11:00;CYGK 201100Z 10017G26KT 5SM -RA BR FEW010 BKN055 OVC075 07/05 A2974 RMK SF1SC6AC2 SF TR PRESFR SLP071

CYGK;2015-04-20 12:00;CYGK 201200Z 09015G22KT 6SM -RA BR FEW010 BKN041 OVC075 06/04 A2970 RMK SF1SC7AC1 SF TR SLP060

CYGK;2015-04-20 13:00;CYGK 201300Z 09011KT 5SM -RA BR FEW012 BKN040 OVC075 06/05 A2970 RMK SF1SC6AC1 SLP060

CYGK;2015-04-20 13:34;CYGK 201334Z 11008KT 15SM -RA FEW006 BKN038 OVC075 06/05 A2970 RMK SF1SC7AC1 SF TR SLP059

CYGK;2015-04-20 13:52;CYGK 201352Z 11004KT 15SM VCSH FEW006 BKN039 06/05 A2969 RMK SF1SC7 SF TR SLP057

CYGK;2015-04-20 14:00;CYGK 201400Z 09005KT 060V120 15SM VCSH FEW006 BKN039 06/05 A2969 RMK SF1SC7 SF TR SLP055

CYGK;2015-04-20 14:22;CYGK 201422Z 10006KT 15SM -SHRA FEW006 OVC036 06/05 A2968 RMK SF1SC7 SLP052

CYGK;2015-04-20 15:00;CYGK 201500Z 13011G16KT 5SM -SHRA BR FEW006 OVC031 07/03 A2966 RMK SF2SC6 SLP046

CYGK;2015-04-20 16:00;CYGK 201600Z 12008KT 15SM VCSH FEW010 BKN028 07/05 A2963 RMK CF1SC7 CF TR SLP034

CYGK;2015-04-20 17:00;CYGK 201700Z 14014G20KT 15SM VCSH FEW010 SCT025 BKN032 08/05 A2961 RMK CF1SC2SC4 SLP028

CYGK;2015-04-20 18:00;CYGK 201800Z 15011G16KT 15SM FEW010 SCT030 SCT090 SCT270 09/07 A2958 RMK CF1SC2AC1CI1 CI TR PRESFR SLP018

CYGK;2015-04-20 19:00;CYGK 201900Z 15010G17KT 15SM FEW010 FEW030 FEW090 SCT250 10/08 A2955 RMK CF1SC1AC1CI1 CF TR SLP008

CYGK;2015-04-20 20:00;CYGK 202000Z 15007KT 15SM FEW010 FEW035 FEW100 BKN260 10/07 A2953 RMK CF1SC1AC1CI3 CF TR SLP001

CYGK;2015-04-20 21:00;CYGK 202100Z 15009KT 15SM FEW010 FEW035 BKN090 BKN250 11/08 A2950 RMK CF1SC1AC5CI1 CF TR SLP993

CYGK;2015-04-20 22:00;CYGK 202200Z 11004KT 080V150 15SM FEW035 BKN080 OVC250 11/08 A2949 RMK SC2AC5CI1 SH DIST SW-N VIRGA E SLP988 DENSITY ALT 400FT

CYGK;2015-04-20 22:18;CYGK 202218Z 14005KT 090V170 15SM TS FEW030CB OVC075 12/08 A2950 RMK CB1AC7 SH DIST SW-N SLP992 DENSITY ALT 400FT

CYGK;2015-04-20 22:38;CYGK 202238Z 12006KT 15SM -TSRA SCT030CB OVC065 11/08 A2950 RMK CB3SC5 CB SW OCNL LTGICCG SW-W SLP990 DENSITY ALT 400FT

CYGK;2015-04-20 22:47;CYGK 202247Z 19006KT 120V220 2SM TSRA SCT025CB OVC060 11/08 A2952 RMK CB4SC4 CB SW OCNL LTGICCG SW-W VIS E 10 PRESRR SLP998

CYGK;2015-04-20 23:00;CYGK 202300Z 19008G15KT 3SM -TSRA BKN030CB OVC060 10/08 A2953 RMK CB5SC3 OCNL LTGICCG W VIS SE 6 SLP002

CYGK;2015-04-20 23:07;CYGK 202307Z 19008KT 4SM -SHRA BR BKN032TCU OVC060 09/08 A2953 RMK TCU6SC2 SLP002

CYGK;2015-04-21 00:00;CYGK 210000Z 12012G27KT 12SM -SHRA SCT030TCU SCT040 BKN080 BKN250 10/08 A2949 RMK TCU3SC1AC2CI1 PRESFR SLP988

CYGK;2015-04-21 00:26;CYGK 210026Z 15007KT 15SM BKN029 OVC070 08/06 A2951 RMK SC6AC2 SLP994

CYGK;2015-04-21 01:00;CYGK 210100Z 00000KT 15SM BKN030 OVC045 08/07 A2952 RMK SC5SC3 SLP997

CYGK;2015-04-21 01:10;CYGK 210110Z 16003KT 080V190 10SM -SHRA BKN030TCU OVC050 08/07 A2952 RMK TCU5SC3 SLP997

CYGK;2015-04-21 02:00;CYGK 210200Z 16010KT 12SM -SHRA FEW005 SCT030TCU OVC070 07/07 A2952 RMK SF1TCU4AC4 SF TR SLP998

CYGK;2015-04-21 03:00;CYGK 210300Z 18013KT 12SM -SHRA SCT015 BKN030TCU OVC060 08/07 A2952 RMK SF3TCU3SC2 LAST STFD OBS/NEXT 211000 UTC SLP998

CYGK;2015-04-21 10:00;CYGK 211000Z 20009KT 15SM VCSH FEW040 BKN080 OVC250 06/04 A2954 RMK CU1AC4CI3 SLP005

CYGK;2015-04-21 11:00;CYGK 211100Z 21007KT 15SM FEW030 SCT070 BKN120 05/04 A2956 RMK CU1AC3AC3 SLP011

CYGK;2015-04-21 12:00;CYGK 211200Z 24008KT 15SM FEW030 OVC120 05/03 A2957 RMK CU1AC7 SLP015

CYGK;2015-04-21 13:00;CYGK 211300Z 18009KT 15SM VCSH FEW012 BKN028 BKN075 04/04 A2958 RMK SC1SC5AC1 SLP020

CYGK;2015-04-21 14:00;CYGK 211400Z 22009KT 10SM -SHRA BKN018 OVC040 06/05 A2959 RMK CU5SC3 SLP021

CYGK;2015-04-21 15:00;CYGK 211500Z 24009KT 190V260 15SM BKN018 BKN078 07/05 A2959 RMK CU5AC2 INTMT -RA SLP022

CYGK;2015-04-21 15:15;CYGK 211515Z 23012G20KT 15SM SCT020 BKN080 07/04 A2959 RMK CU3AC3 SLP021

CYGK;2015-04-21 16:00;CYGK 211600Z 23018KT 15SM BKN030 BKN080 09/04 A2959 RMK CU5AC1 SLP022

CYGK;2015-04-21 17:00;CYGK 211700Z 24019G26KT 15SM FEW030 SCT110 10/02 A2959 RMK CU2AC1 SLP021

CYGK;2015-04-21 18:00;CYGK 211800Z 23016KT 15SM SCT040 BKN100 10/02 A2959 RMK CU3AC2 SLP023

CYGK;2015-04-21 19:00;CYGK 211900Z 18014G19KT 15SM SCT040 SCT100 07/03 A2959 RMK CU3AC1 SLP020

CYGK;2015-04-21 20:00;CYGK 212000Z 19017G23KT 15SM FEW040 SCT100 07/03 A2959 RMK CU2AC1 SLP023

CYGK;2015-04-21 21:00;CYGK 212100Z 19015G21KT 15SM FEW040 FEW070 07/02 A2959 RMK CU1AC1 SLP023

CYGK;2015-04-21 22:00;CYGK 212200Z 23017G26KT 15SM FEW040 FEW070 10/01 A2960 RMK CU1AC1 SLP025

CYGK;2015-04-21 23:00;CYGK 212300Z 21008KT 15SM FEW040 FEW070 08/02 A2961 RMK CU1AC1 AC TR SLP030

CYGK;2015-04-22 00:00;CYGK 220000Z 21010KT 15SM FEW080 FEW250 07/01 A2963 RMK AC1CI1 SLP035

CYGK;2015-04-22 01:00;CYGK 220100Z 21010KT 15SM FEW080 05/02 A2964 RMK AC1 SLP041

CYGK;2015-04-22 02:00;CYGK 220200Z 19009KT 15SM BKN080 04/01 A2964 RMK AC5 SLP041

CYGK;2015-04-22 03:00;CYGK 220300Z 20006KT 180V250 15SM BKN070 05/01 A2965 RMK AC5 LAST STFD OBS/NEXT 221000 UTC SLP044

CYGK;2015-04-22 10:00;CYGK 221000Z 23010G17KT 15SM VCSH FEW020 SCT030 BKN100 04/02 A2960 RMK CU1SC3AC3 PRESFR SLP025

CYGK;2015-04-22 11:00;CYGK 221100Z 20015G21KT 15SM SCT030 OVC080 05/02 A2959 RMK CU4AC4 SLP024

CYGK;2015-04-22 12:00;CYGK 221200Z 20015G20KT 15SM VCSH FEW030 BKN060 OVC250 05/02 A2959 RMK CU2SC4CI2 SLP023

CYGK;2015-04-22 13:00;CYGK 221300Z 21016KT 15SM FEW020 BKN055 BKN070 OVC250 07/03 A2959 RMK CU1SC4AC2CI1 SLP022

CYGK;2015-04-22 14:00;CYGK 221400Z 22012G17KT 15SM SCT025 BKN070 OVC250 06/02 A2959 RMK CU3AC2CI3 SLP024

CYGK;2015-04-22 15:00;CYGK 221500Z 23012G19KT 15SM SCT025 BKN065 OVC150 07/01 A2959 RMK CU3SC2AC3 SLP024

CYGK;2015-04-22 16:00;CYGK 221600Z 23011G18KT 15SM SCT030 OVC065 07/01 A2958 RMK CU3SC5 SLP020

CYGK;2015-04-22 17:00;CYGK 221700Z 23011G17KT 15SM FEW030 BKN065 OVC120 08/01 A2958 RMK CU2SC3AS3 SLP018

CYGK;2015-04-22 18:00;CYGK 221800Z 23013KT 15SM FEW035 BKN080 BKN220 08/M01 A2957 RMK CU2AC3CI2 SLP016

CYGK;2015-04-22 19:00;CYGK 221900Z 18013KT 15SM FEW040 SCT100 BKN180 06/02 A2957 RMK CU2AC1AC3 SLP015

CYGK;2015-04-22 20:00;CYGK 222000Z 18012G18KT 15SM VCSH SCT045 BKN093 BKN180 05/01 A2956 RMK CU3AC2AC2 SLP014

CYGK;2015-04-22 21:00;CYGK 222100Z 19015KT 15SM SCT050 BKN100 BKN180 BKN220 06/02 A2957 RMK CU3AC2AC1CI1 SLP017

CYGK;2015-04-22 22:00;CYGK 222200Z 22012KT 15SM FEW050 BKN065 BKN100 06/00 A2958 RMK CU1SC4AC2 SLP019

CYGK;2015-04-22 23:00;CYGK 222300Z 23012KT 15SM VCSH SCT050 BKN095 06/M01 A2958 RMK CU3AC4 SH N SLP020

CYGK;2015-04-23 00:00;CYGK 230000Z 25009G15KT 15SM SCT040 SCT080 BKN100 05/00 A2959 RMK CU3AC1AC3 SH DIST NW-N SLP024

CYGK;2015-04-23 01:00;CYGK 230100Z 26007KT 15SM SCT050 BKN070 OVC100 05/00 A2961 RMK SC3AC2AC3 SLP029

CYGK;2015-04-23 01:34;CYGK 230134Z 24008KT 15SM -SHRA BKN023 OVC050 05/01 A2962 RMK CU5SC3 SLP032

CYGK;2015-04-23 02:00;CYGK 230200Z 26010G16KT 12SM -SHSN OVC021 04/01 A2962 RMK CU8 SLP032

CYGK;2015-04-23 03:00;CYGK 230300Z 27008KT 15SM SCT015 OVC035 03/01 A2963 RMK SF3SC5 LAST STFD OBS/NEXT 231000 UTC SLP035

CYGK;2015-04-23 10:00;CYGK 231000Z 26009KT 15SM FEW020 BKN075 OVC220 M00/M04 A2967 RMK CU1AC4CI3 SLP050

CYGK;2015-04-23 11:00;CYGK 231100Z 26009KT 15SM FEW020 SCT075 OVC100 M00/M04 A2967 RMK CU1AC3AC4 SLP052

CYGK;2015-04-23 12:00;CYGK 231200Z 28010G15KT 15SM FEW020 BKN075 OVC100 00/M04 A2969 RMK CU1AC4AC3 SLP056

CYGK;2015-04-23 13:00;CYGK 231300Z 27013KT 15SM FEW025 SCT060 BKN075 01/M05 A2968 RMK CU1SC2AC4 SLP055

CYGK;2015-04-23 14:00;CYGK 231400Z 26014KT 15SM BKN035 OVC100 01/M07 A2968 RMK CU6AC2 SLP054

CYGK;2015-04-23 15:00;CYGK 231500Z 26015G22KT 15SM -SHSN BKN030 BKN050 02/M04 A2968 RMK CU6SC1 VIS W 4 SLP055

CYGK;2015-04-23 16:00;CYGK 231600Z 26013G21KT 15SM -SHSN OVC030 02/M04 A2969 RMK CU8 SLP056

CYGK;2015-04-23 17:00;CYGK 231700Z 25015KT 15SM -SHSN BKN020 OVC045 03/M02 A2969 RMK CU7SC1 SLP056

CYGK;2015-04-23 18:00;CYGK 231800Z 27011KT 15SM -SHSN OVC027 04/M02 A2969 RMK CU8 SLP057

CYGK;2015-04-23 19:00;CYGK 231900Z 28013G19KT 10SM -SHSN OVC030 03/M02 A2970 RMK CU8 SLP060

CYGK;2015-04-23 19:42;CYGK 231942Z 27014G23KT 15SM BKN037 OVC045 04/M03 A2970 RMK CU7SC1 SLP060

CYGK;2015-04-23 20:00;CYGK 232000Z 28013G22KT 15SM BKN038 OVC045 05/M03 A2970 RMK CU7SC1 SLP061

CYGK;2015-04-23 21:00;CYGK 232100Z 27015G23KT 15SM VCSH BKN038 04/M02 A2972 RMK CU7 SLP067

CYGK;2015-04-23 22:00;CYGK 232200Z 26016G22KT 15SM SCT040 BKN054 04/M03 A2974 RMK CU4SC3 SLP075

CYGK;2015-04-23 23:00;CYGK 232300Z 28014KT 15SM SCT035 BKN053 03/M03 A2976 RMK CU4SC3 SLP082

CYGK;2015-04-24 00:00;CYGK 240000Z 27015G22KT 15SM FEW030 BKN048 BKN070 02/M04 A2979 RMK CU1SC5AC1 SLP091

CYGK;2015-04-24 01:00;CYGK 240100Z 26013G19KT 15SM OVC040 02/M04 A2981 RMK SC8 SLP098

CYGK;2015-04-24 02:00;CYGK 240200Z 27013G18KT 15SM OVC048 01/M05 A2982 RMK SC8 SLP103

CYGK;2015-04-24 03:00;CYGK 240300Z 27011G16KT 15SM BKN049 01/M05 A2983 RMK SC7 LAST STFD OBS/NEXT 241000UTC SLP104

CYGK;2015-04-24 10:00;CYGK 241000Z 28008KT 15SM BKN072 BKN110 M00/M05 A2987 RMK AC5AC2 SLP118

CYGK;2015-04-24 11:00;CYGK 241100Z 29005G15KT 15SM VCSH SCT020 BKN067 BKN110 M00/M05 A2988 RMK CF3AC2AC2 VIS NW-N 4 SLP122

CYGK;2015-04-24 11:09;CYGK 241109Z 29011KT 15SM -SHSN SCT020 BKN067 BKN110 M00/M04 A2989 RMK CU3AC2AC2 VIS NW-N 3 SLP124

CYGK;2015-04-24 12:00;CYGK 241200Z 29007G17KT 6SM -SHSN BKN026 OVC070 M00/M03 A2990 RMK CU6AC2 VIS NW-N 4 SLP127

CYGK;2015-04-24 13:00;CYGK 241300Z 30010G17KT 15SM -SHRA SCT025 SCT045 BKN070 01/M05 A2990 RMK CU3SC1AC3 SLP128

CYGK;2015-04-24 13:52;CYGK 241352Z 31012G18KT 15SM VCSH SCT025 BKN065 02/M06 A2990 RMK CU4SC3 SLP129

CYGK;2015-04-24 14:00;CYGK 241400Z 33014G20KT 15SM VCSH BKN034 BKN065 02/M05 A2990 RMK CU5SC2 SLP129

CYGK;2015-04-24 15:00;CYGK 241500Z 30010KT 250V320 15SM BKN040 BKN250 03/M06 A2990 RMK CU5CI2 SLP129

CYGK;2015-04-24 16:00;CYGK 241600Z 30010G15KT 15SM BKN046 BKN250 03/M07 A2991 RMK CU6CI1 SLP131

CYGK;2015-04-24 17:00;CYGK 241700Z 30009G15KT 260V320 15SM OVC050 04/M07 A2991 RMK SC8 SLP131

CYGK;2015-04-24 18:00;CYGK 241800Z 26012G18KT 220V320 15SM FEW034 BKN050 05/M07 A2991 RMK CU1SC6 SLP131

CYGK;2015-04-24 19:00;CYGK 241900Z 27012G17KT 15SM FEW040 BKN050 05/M06 A2990 RMK CU1SC7 CU TR S SLP128

CYGK;2015-04-24 20:00;CYGK 242000Z 32009G15KT 230V330 15SM BKN055 06/M06 A2989 RMK SC5 SLP125

CYGK;2015-04-24 21:00;CYGK 242100Z 27010G16KT 250V330 15SM BKN058 06/M07 A2989 RMK SC6 SLP125

CYGK;2015-04-24 22:00;CYGK 242200Z 29010G16KT 250V320 15SM BKN059 06/M06 A2989 RMK SC7 SLP125

CYGK;2015-04-24 23:00;CYGK 242300Z 28011G16KT 15SM BKN060 06/M06 A2990 RMK SC7 SLP127

CYGK;2015-04-25 00:00;CYGK 250000Z 28009KT 15SM BKN065 06/M06 A2991 RMK SC7 SLP132

CYGK;2015-04-25 01:00;CYGK 250100Z 27010G16KT 15SM BKN060 04/M05 A2993 RMK SC7 SLP139

CYGK;2015-04-25 02:00;CYGK 250200Z 30008KT 15SM BKN060 04/M05 A2994 RMK SC7 SLP142

CYGK;2015-04-25 03:00;CYGK 250300Z 27006KT 15SM BKN065 03/M04 A2994 RMK SC7 LAST STFD OBS/NEXT 251000 UTC SLP143

CYGK;2015-04-25 10:00;CYGK 251000Z 27005KT 15SM FEW020 FEW260 M02/M05 A2995 RMK CF1CI1 CF TR SLP145

CYGK;2015-04-25 11:00;CYGK 251100Z 28007KT 15SM FEW020 FEW260 M01/M05 A2995 RMK CF1CI1 CF TR SLP146

CYGK;2015-04-25 12:00;CYGK 251200Z 26004KT 15SM FEW020 FEW260 01/M04 A2995 RMK CF1CI1 CF TR SLP145

CYGK;2015-04-25 13:00;CYGK 251300Z 30008KT 240V360 15SM FEW030 FEW250 03/M05 A2993 RMK CU1CI1 CU TR SLP137

CYGK;2015-04-25 14:00;CYGK 251400Z 36003KT 280V030 15SM FEW030 FEW100 FEW250 04/M03 A2992 RMK CU1AC1CI1 CU TR AC TR SLP133

CYGK;2015-04-25 15:00;CYGK 251500Z 15011KT 150V210 15SM FEW035 05/M02 A2991 RMK CU1 CU TR SLP132

CYGK;2015-04-25 16:00;CYGK 251600Z 18014KT 15SM FEW040 FEW150 05/M02 A2991 RMK CU1AC1 SLP131

CYGK;2015-04-25 17:00;CYGK 251700Z 19016KT 15SM FEW040 SCT170 05/00 A2990 RMK CU2AC1 SLP127

CYGK;2015-04-25 18:00;CYGK 251800Z 19015KT 15SM SCT040 SCT200 07/00 A2986 RMK SC3CI1 SLP115

CYGK;2015-04-25 19:00;CYGK 251900Z 19014KT 15SM SCT060 SCT150 06/01 A2983 RMK SC3AC1 SLP106

CYGK;2015-04-25 20:00;CYGK 252000Z 19014KT 15SM BKN070 06/01 A2981 RMK AC5 SLP098

CYGK;2015-04-25 21:00;CYGK 252100Z 20012KT 15SM BKN065 06/01 A2980 RMK SC6 SLP095

CYGK;2015-04-25 22:00;CYGK 252200Z 22008KT 15SM FEW065 08/M00 A2979 RMK SC2 SLP092

CYGK;2015-04-25 23:00;CYGK 252300Z 15007KT 150V250 15SM SCT065 05/01 A2979 RMK SC3 SLP091

CYGK;2015-04-26 00:00;CYGK 260000Z 21007KT 15SM BKN070 04/01 A2979 RMK AC5 SLP089

CYGK;2015-04-26 01:00;CYGK 260100Z 14005KT 120V180 15SM FEW058 BKN070 04/02 A2980 RMK SC2AC4 SLP095

CYGK;2015-04-26 02:00;CYGK 260200Z 23003KT 15SM SCT050 BKN060 04/02 A2980 RMK SC4SC3 SLP095

CYGK;2015-04-26 03:00;CYGK 260300Z 23002KT 15SM FEW050 BKN070 03/01 A2980 RMK SC2AC3 LAST STFD OBS/NEXT 261000 UTC SLP094

CYGK;2015-04-26 10:00;CYGK 261000Z 36006KT 15SM BKN073 03/M01 A2979 RMK AC7 SLP089

CYGK;2015-04-26 11:00;CYGK 261100Z 35005KT 15SM BKN072 03/00 A2980 RMK AC7 SLP094

CYGK;2015-04-26 12:00;CYGK 261200Z 01008KT 15SM FEW050 BKN070 05/01 A2980 RMK SC1AC5 SLP095

CYGK;2015-04-26 13:00;CYGK 261300Z 35007KT 15SM FEW040 SCT070 06/01 A2981 RMK CU1AC3 SLP096

CYGK;2015-04-26 14:00;CYGK 261400Z 01005KT 15SM SCT028 BKN055 07/01 A2980 RMK CU4SC3 SLP093

CYGK;2015-04-26 15:00;CYGK 261500Z 35006KT 280V020 15SM FEW028 BKN055 08/01 A2979 RMK CU2SC5 SLP092

CYGK;2015-04-26 16:00;CYGK 261600Z 30005KT 280V360 15SM SCT025 BKN052 09/02 A2979 RMK CU4SC3 SLP090

CYGK;2015-04-26 17:00;CYGK 261700Z 36007KT 15SM BKN035 BKN050 09/02 A2978 RMK CU6SC1 SLP086

CYGK;2015-04-26 18:00;CYGK 261800Z 19013KT 15SM FEW025 BKN048 08/02 A2978 RMK CU2CU5 SLP086

CYGK;2015-04-26 19:00;CYGK 261900Z 19010KT 15SM FEW040 OVC050 08/02 A2977 RMK CU2SC6 SLP084

CYGK;2015-04-26 20:00;CYGK 262000Z 19010KT 15SM BKN045 07/03 A2977 RMK SC7 CIG RAG VIRGA NW SLP083

CYGK;2015-04-26 20:54;CYGK 262054Z 17004KT 150V280 15SM -SHRA SCT038 OVC050 08/04 A2976 RMK CU3SC5 SLP082

CYGK;2015-04-26 21:00;CYGK 262100Z 18007KT 150V280 15SM -SHRA SCT038 BKN055 07/04 A2976 RMK CU3SC4 SLP081

CYGK;2015-04-26 22:00;CYGK 262200Z 23009KT 15SM VCSH SCT045 BKN060 08/02 A2975 RMK CU3SC4 SLP078

CYGK;2015-04-26 23:00;CYGK 262300Z 22004KT 170V260 15SM VCSH SCT040 BKN065 08/03 A2975 RMK CU3SC4 SLP077

CYGK;2015-04-26 23:43;CYGK 262343Z 23005KT 15SM -SHRA OVC045 07/03 A2976 RMK SC8 CIG RAG SLP081

CYGK;2015-04-27 00:00;CYGK 270000Z 00000KT 15SM -SHRA FEW038 OVC055 07/03 A2976 RMK CU2SC6 SLP081

CYGK;2015-04-27 01:00;CYGK 270100Z 21002KT 15SM SCT045 BKN065 06/03 A2976 RMK SC3SC4 SLP080

CYGK;2015-04-27 02:00;CYGK 270200Z 24004KT 15SM OVC065 06/03 A2975 RMK SC8 SLP077

CYGK;2015-04-27 03:00;CYGK 270300Z 27004KT 15SM BKN050 OVC065 06/03 A2974 RMK SC6SC2 LAST STFD OBS/NEXT 271000 UTC SLP073

CYGK;2015-04-27 10:00;CYGK 271000Z 34004KT 15SM BKN015 BKN070 04/02 A2976 RMK SC5AC2 SLP079

CYGK;2015-04-27 11:00;CYGK 271100Z 33006KT 15SM VCSH BKN015 04/02 A2977 RMK SC7 SLP084

CYGK;2015-04-27 12:00;CYGK 271200Z 34008KT 15SM FEW008 BKN017 BKN089 05/02 A2978 RMK ST1SC5AC2 ST TR SHWRS SE-S SLP087

CYGK;2015-04-27 13:00;CYGK 271300Z 35008G16KT 15SM VCSH FEW008 BKN018 06/03 A2979 RMK SF1SC7 SF TR SHWRS SE SLP089

CYGK;2015-04-27 14:00;CYGK 271400Z 01009KT 15SM BKN020 07/03 A2979 RMK SC7 SLP091

CYGK;2015-04-27 15:00;CYGK 271500Z 36007KT 320V050 15SM BKN020 08/03 A2980 RMK SC7 SLP093

CYGK;2015-04-27 16:00;CYGK 271600Z 34007KT 320V030 15SM BKN028 09/04 A2981 RMK SC7 SLP096

CYGK;2015-04-27 17:00;CYGK 271700Z 05006KT 340V060 15SM BKN035 11/03 A2981 RMK CU7 SLP097

CYGK;2015-04-27 18:00;CYGK 271800Z 19012KT 15SM BKN047 08/03 A2982 RMK CU7 SLP099

CYGK;2015-04-27 19:00;CYGK 271900Z 23005KT 15SM BKN042 BKN075 08/04 A2982 RMK CU7AC1 AC TR SLP099

CYGK;2015-04-27 20:00;CYGK 272000Z 25007KT 15SM BKN040 BKN075 09/04 A2981 RMK CU6AC1 SLP098

CYGK;2015-04-27 21:00;CYGK 272100Z 24005KT 15SM OVC053 10/04 A2982 RMK SC8 SLP099

CYGK;2015-04-27 22:00;CYGK 272200Z 31007KT 15SM BKN045 13/04 A2982 RMK SC7 SLP101

CYGK;2015-04-27 23:00;CYGK 272300Z 33008KT 15SM BKN050 13/04 A2984 RMK SC7 SLP106

CYGK;2015-04-28 00:00;CYGK 280000Z 33007KT 15SM BKN050 12/04 A2985 RMK SC7 VIRGA SLP111

CYGK;2015-04-28 01:00;CYGK 280100Z 33011KT 15SM FEW060 SCT090 11/04 A2986 RMK SC2AC2 SLP112

CYGK;2015-04-28 02:00;CYGK 280200Z 33012KT 15SM SCT085 11/04 A2986 RMK AC3 SLP114

CYGK;2015-04-28 03:00;CYGK 280300Z 34015G22KT 15SM SCT085 10/04 A2987 RMK AC3 LAST STFD OBS/NEXT 281000 UTC SLP118

CYGK;2015-04-28 10:00;CYGK 281000Z 35007KT 15SM FEW050 BKN073 BKN160 07/04 A2991 RMK SC2AC3AC1 SLP131

CYGK;2015-04-28 11:00;CYGK 281100Z 34007KT 15SM FEW070 FEW150 08/05 A2992 RMK AC1AC1 SLP134

CYGK;2015-04-28 12:00;CYGK 281200Z 36009KT 15SM FEW140 10/05 A2993 RMK AC1 SLP138

CYGK;2015-04-28 13:00;CYGK 281300Z 01010KT 15SM FEW130 12/06 A2994 RMK AC1 SLP141

CYGK;2015-04-28 14:00;CYGK 281400Z 01006KT 340V080 15SM FEW120 13/06 A2994 RMK AC2 SLP140

CYGK;2015-04-28 15:00;CYGK 281500Z 15007KT 15SM FEW035 SCT120 13/07 A2994 RMK CU1AC3 SLP141

CYGK;2015-04-28 16:00;CYGK 281600Z 17009KT 15SM FEW044 SCT110 12/06 A2994 RMK CU2AC2 SLP139

CYGK;2015-04-28 17:00;CYGK 281700Z 20011KT 15SM SCT050 SCT110 13/06 A2992 RMK CU4AC1 AC TR SLP135

CYGK;2015-04-28 18:00;CYGK 281800Z 20014KT 15SM FEW050 FEW100 13/06 A2991 RMK CU2AC1 AC TR SLP129

CYGK;2015-04-28 19:00;CYGK 281900Z 19013G20KT 15SM BKN062 13/06 A2989 RMK CU5 SLP123

CYGK;2015-04-28 20:00;CYGK 282000Z 20008KT 15SM BKN065 12/06 A2987 RMK CU6 SLP115

CYGK;2015-04-28 21:00;CYGK 282100Z 22007KT 15SM FEW070 SCT077 SCT220 15/07 A2986 RMK CU2AC1CI1 SLP112 DENSITY ALT 400FT

CYGK;2015-04-28 22:00;CYGK 282200Z 16005KT 15SM SCT080 SCT250 10/06 A2984 RMK AC3CI1 SLP108

CYGK;2015-04-28 23:00;CYGK 282300Z 16003KT 15SM FEW080 FEW250 09/05 A2983 RMK AC1CI1 SLP102

CYGK;2015-04-29 00:00;CYGK 290000Z 17004KT 15SM FEW080 FEW250 07/04 A2982 RMK AC1CI1 SLP100

CYGK;2015-04-29 01:00;CYGK 290100Z 00000KT 15SM FEW080 FEW250 06/04 A2981 RMK AC1CI1 SLP097

CYGK;2015-04-29 02:00;CYGK 290200Z 17003KT 15SM FEW080 05/03 A2981 RMK AC1 SLP098

CYGK;2015-04-29 03:00;CYGK 290300Z 22003KT 080V220 15SM FEW070 05/03 A2980 RMK AC2 LAST STFD OBS/NEXT 291000 UTC SLP092

CYGK;2015-04-29 10:00;CYGK 291000Z 35005KT 15SM OVC072 10/06 A2977 RMK AC8 SLP082

CYGK;2015-04-29 11:00;CYGK 291100Z VRB02KT 15SM BKN070 10/06 A2978 RMK AC7 SLP087

CYGK;2015-04-29 12:00;CYGK 291200Z 34005KT 15SM BKN070 13/07 A2979 RMK AC5 SLP090

CYGK;2015-04-29 13:00;CYGK 291300Z 15007KT 15SM FEW070 07/05 A2979 RMK AC2 SLP091

CYGK;2015-04-29 14:00;CYGK 291400Z 15008KT 15SM FEW070 09/05 A2978 RMK AC1 SLP088

CYGK;2015-04-29 15:00;CYGK 291500Z 14008KT 15SM FEW070 07/05 A2978 RMK AC1 SLP088

CYGK;2015-04-29 16:00;CYGK 291600Z 16006KT 15SM FEW040 10/06 A2977 RMK CU2 SLP083

CYGK;2015-04-29 17:00;CYGK 291700Z 19009KT 15SM FEW040 FEW170 10/06 A2976 RMK CU1AC1 AC TR SLP080

CYGK;2015-04-29 18:00;CYGK 291800Z 18007KT 15SM FEW050 FEW250 13/06 A2975 RMK CU1CI1 SLP074

CYGK;2015-04-29 19:00;CYGK 291900Z 20011KT 15SM FEW050 FEW250 16/05 A2973 RMK CU1CI1 SLP070 DENSITY ALT 600FT

CYGK;2015-04-29 20:00;CYGK 292000Z 17007KT 15SM FEW050 FEW270 13/06 A2972 RMK CU1CI1 SLP066 DENSITY ALT 400FT

CYGK;2015-04-29 21:00;CYGK 292100Z 19008KT 15SM FEW050 FEW270 15/06 A2972 RMK CU1CI2 CU TR SLP064 DENSITY ALT 500FT

CYGK;2015-04-29 22:00;CYGK 292200Z 18007KT 15SM FEW045 SCT270 11/06 A2972 RMK SC1CI3 SC TR SLP065

CYGK;2015-04-29 23:00;CYGK 292300Z 18007KT 15SM FEW040 SCT270 09/05 A2973 RMK SC1CI4 SC TR SLP067

CYGK;2015-04-30 00:00;CYGK 300000Z 19005KT 15SM FEW040 BKN270 07/04 A2972 RMK SC1CI5 SC TR SLP066

CYGK;2015-04-30 01:00;CYGK 300100Z 13002KT 15SM FEW040 SCT270 06/04 A2973 RMK SC1CI3 SC TR SLP069

CYGK;2015-04-30 02:00;CYGK 300200Z 00000KT 15SM FEW270 06/04 A2973 RMK CI1 SLP070

CYGK;2015-04-30 03:00;CYGK 300300Z 13005KT 15SM FEW270 05/04 A2973 RMK CI1 LAST STFD OBS/NEXT 301000UTC SLP070

CYGK;2015-04-30 10:00;CYGK 301000Z 05008KT 15SM FEW100 SCT250 07/04 A2978 RMK AC1CI3 SLP085

CYGK;2015-04-30 11:00;CYGK 301100Z 06009KT 15SM FEW100 SCT250 08/04 A2979 RMK AC1CI3 SLP091

CYGK;2015-04-30 12:00;CYGK 301200Z 06014KT 15SM FEW100 BKN250 09/04 A2981 RMK AC1CI4 SLP097

CYGK;2015-04-30 13:00;CYGK 301300Z 05013KT 15SM FEW100 BKN250 12/05 A2983 RMK AC1CI6 SLP102

CYGK;2015-04-30 14:00;CYGK 301400Z 04009G15KT 15SM FEW080 BKN250 14/06 A2984 RMK AC1CI5 AC TR SLP106

CYGK;2015-04-30 15:00;CYGK 301500Z 06010KT 15SM FEW080 SCT250 15/05 A2984 RMK AC1CI4 AC TR SLP106 DENSITY ALT 400FT

CYGK;2015-04-30 16:00;CYGK 301600Z 06010G15KT 15SM FEW040 BKN250 17/04 A2984 RMK CU1CI5 CU TR SLP105 DENSITY ALT 700FT

CYGK;2015-04-30 17:00;CYGK 301700Z 01010G17KT 15SM FEW045 BKN250 17/05 A2984 RMK CU1CI6 CU TR SLP105 DENSITY ALT 700FT

CYGK;2015-04-30 18:00;CYGK 301800Z 04013KT 340V060 15SM FEW045 BKN250 18/05 A2983 RMK CU1CI6 CU TR SLP102 DENSITY ALT 700FT

CYGK;2015-04-30 19:00;CYGK 301900Z 03013G19KT 360V080 15SM FEW050 BKN250 18/05 A2983 RMK CU1CI5 SLP101 DENSITY ALT 800FT

CYGK;2015-04-30 20:00;CYGK 302000Z 03012G21KT 350V060 15SM FEW055 BKN250 18/05 A2982 RMK CU2CI5 SLP100 DENSITY ALT 800FT

CYGK;2015-04-30 21:00;CYGK 302100Z 01014G21KT 15SM SCT058 BKN250 18/05 A2983 RMK CU3CI3 SLP103 DENSITY ALT 700FT

CYGK;2015-04-30 22:00;CYGK 302200Z 36016G23KT 350V060 15SM FEW058 BKN250 18/05 A2984 RMK SC1CI4 SLP106 DENSITY ALT 700FT

CYGK;2015-04-30 23:00;CYGK 302300Z 02010G21KT 15SM FEW035 FEW055 BKN250 17/05 A2985 RMK CF1SC1CI5 CF TR SLP110 DENSITY ALT 600FT

CYGK;2015-05-01 00:00;CYGK 010000Z 01009KT 15SM FEW055 BKN250 15/05 A2987 RMK SC1CI5 SLP116 DENSITY ALT 400FT

CYGK;2015-05-01 01:00;CYGK 010100Z 01008KT 15SM FEW050 SCT250 14/05 A2989 RMK SC1CI3 SC TR SLP123

CYGK;2015-05-01 02:00;CYGK 010200Z 03007KT 15SM FEW067 SCT250 14/05 A2990 RMK AC2CI1 SLP127

CYGK;2015-05-01 03:00;CYGK 010300Z 04009KT 15SM FEW068 FEW250 13/05 A2991 RMK AC1CI1 LAST STFD OBS/NEXT 011000UTC SLP130

CYGK;2015-05-01 10:00;CYGK 011000Z 01008KT 15SM FEW100 FEW240 08/04 A2994 RMK AC1CI1 CI TR SLP141

CYGK;2015-05-01 11:00;CYGK 011100Z 02006KT 15SM SCT080 SCT240 10/05 A2996 RMK AC3CI1 CI TR SLP147

CYGK;2015-05-01 12:00;CYGK 011200Z 04006KT 15SM BKN096 BKN240 12/06 A2998 RMK AC7CI1 CI TR SLP153

CYGK;2015-05-01 13:00;CYGK 011300Z 03009KT 15SM BKN100 13/06 A2999 RMK AC7 SLP156

CYGK;2015-05-01 14:00;CYGK 011400Z 04008KT 15SM FEW030 BKN100 BKN240 14/06 A2999 RMK CU1AC7CI1 CU TR CI TR SLP157

CYGK;2015-05-01 15:00;CYGK 011500Z 03011KT 020V080 15SM FEW050 BKN110 17/05 A2998 RMK CU1AC6 CU TR SLP154 DENSITY ALT 500FT

CYGK;2015-05-01 16:00;CYGK 011600Z 01008KT 350V100 15SM FEW050 BKN110 18/06 A2998 RMK CU1AC5 CU TR SLP152 DENSITY ALT 600FT

CYGK;2015-05-01 17:00;CYGK 011700Z 03005KT 350V080 15SM FEW055 BKN110 19/07 A2997 RMK CU2AC3 SLP149 DENSITY ALT 800FT

CYGK;2015-05-01 18:00;CYGK 011800Z 15008KT 120V190 15SM SCT060 BKN085 BKN110 18/06 A2996 RMK CU4AC2AC1 SLP147 DENSITY ALT 600FT

CYGK;2015-05-01 19:00;CYGK 011900Z 18008KT 15SM SCT060 BKN110 17/06 A2996 RMK CU4AC2 SLP146 DENSITY ALT 500FT

CYGK;2015-05-01 20:00;CYGK 012000Z 21010KT 15SM SCT065 BKN110 19/07 A2995 RMK CU4AC2 SLP141 DENSITY ALT 800FT

CYGK;2015-05-01 21:00;CYGK 012100Z 21009KT 15SM SCT070 BKN110 19/06 A2993 RMK CU3AC3 SLP138 DENSITY ALT 800FT

CYGK;2015-05-01 22:00;CYGK 012200Z 22007KT 15SM FEW065 BKN110 16/07 A2993 RMK CU2AC3 SLP138 DENSITY ALT 500FT

CYGK;2015-05-01 23:00;CYGK 012300Z 24008KT 15SM VCSH FEW060 SCT080 17/07 A2994 RMK CU2AC1 SLP138 DENSITY ALT 500FT

CYGK;2015-05-02 00:00;CYGK 020000Z 26009KT 15SM SCT078 BKN092 15/06 A2995 RMK AC4AC2 SLP143

CYGK;2015-05-02 01:00;CYGK 020100Z 24006KT 15SM VCSH SCT075 BKN095 13/06 A2995 RMK AC3AC3 SLP145

CYGK;2015-05-02 02:00;CYGK 020200Z 25009KT 15SM FEW075 BKN110 13/06 A2997 RMK AC1AC5 SLP149

CYGK;2015-05-02 03:00;CYGK 020300Z 23006KT 15SM FEW075 FEW110 10/06 A2997 RMK AC1AC1 LAST STFD OBS/NEXT 021000UTC SLP148

CYGK;2015-05-02 10:00;CYGK 021000Z 10002KT 15SM FEW100 FEW240 04/04 A2997 RMK AC1CI1 AC TR SLP151

CYGK;2015-05-02 11:00;CYGK 021100Z 00000KT 15SM FEW100 FEW240 05/05 A2999 RMK AC1CI2 AC TR SLP156

CYGK;2015-05-02 12:00;CYGK 021200Z 25004KT 15SM FEW100 SCT240 09/06 A3001 RMK AC1CI3 AC TR SLP162

CYGK;2015-05-02 13:00;CYGK 021300Z 17004KT 120V190 15SM FEW050 FEW100 BKN240 13/07 A3001 RMK CU1AC1CI6 CU TR AC TR SLP162

CYGK;2015-05-02 14:00;CYGK 021400Z 18006KT 15SM FEW050 FEW100 BKN240 09/06 A3000 RMK CU1AC1CI6 CU TR AC TR SLP161

CYGK;2015-05-02 15:00;CYGK 021500Z 17010KT 15SM FEW050 FEW100 BKN220 09/06 A3000 RMK CU1AC1CI6 CU TR AC TR SLP162

CYGK;2015-05-02 16:00;CYGK 021600Z 17009KT 15SM FEW050 BKN220 10/05 A3000 RMK CU1CI6 SLP161

CYGK;2015-05-02 17:00;CYGK 021700Z 19010KT 15SM FEW060 BKN240 09/06 A2999 RMK CU2CI5 SLP159

CYGK;2015-05-02 18:00;CYGK 021800Z 19010KT 15SM FEW070 FEW120 BKN230 11/05 A2998 RMK CU1AC1CI6 AC TR SLP154

CYGK;2015-05-02 19:00;CYGK 021900Z 18010KT 15SM FEW080 BKN240 11/06 A2996 RMK AC1CI6 SLP147

CYGK;2015-05-02 20:00;CYGK 022000Z 19011KT 15SM FEW080 BKN240 16/06 A2994 RMK AC2CI5 SLP139 DENSITY ALT 400FT

CYGK;2015-05-02 21:00;CYGK 022100Z 20008KT 15SM FEW090 BKN250 16/06 A2992 RMK AC2CI4 SLP133 DENSITY ALT 400FT

CYGK;2015-05-02 22:00;CYGK 022200Z 23013G18KT 15SM FEW100 BKN240 17/05 A2992 RMK AC1CI5 SLP133 DENSITY ALT 600FT

CYGK;2015-05-02 23:00;CYGK 022300Z 17007KT 140V210 15SM FEW100 SCT250 12/05 A2992 RMK AC1CI3 SLP134

CYGK;2015-05-03 00:00;CYGK 030000Z 24008KT 15SM SCT250 14/05 A2992 RMK CI3 SLP135

CYGK;2015-05-03 01:00;CYGK 030100Z 24008KT 15SM SCT250 14/04 A2993 RMK CI3 SLP137

CYGK;2015-05-03 02:00;CYGK 030200Z 27012G18KT 15SM SCT250 17/03 A2995 RMK CI3 SLP143 DENSITY ALT 500FT

CYGK;2015-05-03 03:00;CYGK 030300Z 28010G15KT 15SM FEW250 16/03 A2995 RMK CI1 LAST STFD OBS/NEXT 031000 UTC SLP145 DENSITY ALT 400FT

CYGK;2015-05-03 10:00;CYGK 031000Z 16004KT 15SM FEW150 FEW240 06/04 A3000 RMK AC1CI1 AC TR SLP159

CYGK;2015-05-03 11:00;CYGK 031100Z 16004KT 15SM FEW150 FEW240 06/04 A3002 RMK AC1CI2 AC TR SLP168

CYGK;2015-05-03 12:00;CYGK 031200Z 00000KT 15SM FEW240 09/05 A3005 RMK CI2 SLP176

CYGK;2015-05-03 13:00;CYGK 031300Z 15006KT 15SM FEW160 SCT230 08/05 A3005 RMK AC1CI2 SLP177

CYGK;2015-05-03 14:00;CYGK 031400Z 15007KT 15SM FEW160 SCT230 08/04 A3005 RMK AC1CI2 ACC ASOCTD SLP178

CYGK;2015-05-03 15:00;CYGK 031500Z 15007KT 15SM BKN120 BKN230 09/05 A3006 RMK AC5CI1 SLP181

CYGK;2015-05-03 16:00;CYGK 031600Z 16006KT 15SM FEW100 FEW120 SCT230 09/04 A3007 RMK AC1AC2CI2 AC TR SLP184

CYGK;2015-05-03 17:00;CYGK 031700Z 16007KT 15SM FEW095 FEW250 10/05 A3007 RMK ACC1CI1 SLP183

CYGK;2015-05-03 18:00;CYGK 031800Z 17008KT 15SM FEW040 FEW095 FEW240 11/05 A3006 RMK CU1AC1CI1 CU TR SLP180

CYGK;2015-05-03 19:00;CYGK 031900Z 17008KT 15SM FEW040 FEW095 FEW250 12/05 A3005 RMK CU1AC1CI1 CU TR AC TR CI TR SLP176

CYGK;2015-05-03 20:00;CYGK 032000Z 18005KT 15SM FEW095 FEW200 12/05 A3004 RMK AC1CI1 SLP173

CYGK;2015-05-03 21:00;CYGK 032100Z 18004KT 140V200 15SM FEW120 SCT250 12/05 A3003 RMK AC2CI1 SLP170

CYGK;2015-05-03 22:00;CYGK 032200Z 18006KT 15SM FEW120 BKN250 13/05 A3002 RMK AC2CI4 SLP169

CYGK;2015-05-03 23:00;CYGK 032300Z 15005KT 15SM FEW120 BKN250 11/04 A3002 RMK AC2CI3 SLP169

CYGK;2015-05-04 00:00;CYGK 040000Z 17004KT 15SM FEW120 BKN250 09/04 A3003 RMK AC1CI4 SLP171

CYGK;2015-05-04 01:00;CYGK 040100Z 19002KT 15SM FEW120 SCT250 10/04 A3004 RMK AC1CI3 AC TR SLP175

CYGK;2015-05-04 02:00;CYGK 040200Z VRB02KT 15SM FEW120 FEW250 09/04 A3005 RMK AC1CI2 AC TR SLP179

CYGK;2015-05-04 03:00;CYGK 040300Z 15003KT 15SM FEW250 09/04 A3005 RMK CI2 LAST OBS/NEXT 041000 UTC SLP179

CYGK;2015-05-04 10:00;CYGK 041000Z 16007KT 15SM FEW070 FEW250 09/05 A3007 RMK AC1CI1 SLP186

CYGK;2015-05-04 11:00;CYGK 041100Z 15006KT 15SM SCT090 BKN250 09/05 A3008 RMK AC3CI2 SLP188

CYGK;2015-05-04 12:00;CYGK 041200Z 18006KT 15SM FEW085 SCT250 10/06 A3009 RMK AC2CI2 SLP191

CYGK;2015-05-04 13:00;CYGK 041300Z 15004KT 15SM FEW090 BKN250 11/06 A3009 RMK AC1CI5 AC TR SLP191

CYGK;2015-05-04 14:00;CYGK 041400Z 19011KT 15SM FEW250 14/07 A3008 RMK CI1 SLP187

CYGK;2015-05-04 15:00;CYGK 041500Z 18008KT 15SM FEW250 13/07 A3007 RMK CI2 SLP186

CYGK;2015-05-04 16:00;CYGK 041600Z 18009KT 15SM FEW250 15/07 A3006 RMK CI2 SLP179

CYGK;2015-05-04 17:00;CYGK 041700Z 19011KT 15SM FEW035 FEW130 BKN240 18/09 A3004 RMK CU1AC1CI4 CU TR SLP174 DENSITY ALT 500FT

CYGK;2015-05-04 18:00;CYGK 041800Z 19012KT 15SM FEW040 BKN140 BKN240 17/08 A3003 RMK CU1AC5CI1 CU TR SLP170 DENSITY ALT 500FT

CYGK;2015-05-04 19:00;CYGK 041900Z 22003KT 15SM FEW084 BKN110 OVC230 18/09 A3002 RMK AC1AC6CI2 AC TR SLP167 DENSITY ALT 600FT

CYGK;2015-05-04 19:36;CYGK 041936Z 25012G19KT 15SM -SHRA FEW080 BKN100 OVC230 20/09 A3003 RMK CU1AC6CI1 SLP169 DENSITY ALT 700FT

CYGK;2015-05-04 20:00;CYGK 042000Z 25009G16KT 15SM -SHRA BKN090 OVC250 20/10 A3002 RMK AC6CI2 SLP166 DENSITY ALT 800FT

CYGK;2015-05-04 21:00;CYGK 042100Z 27004KT 15SM -SHRA BKN088 OVC230 20/12 A3001 RMK AC7CI1 SLP162 DENSITY ALT 800FT

CYGK;2015-05-04 22:00;CYGK 042200Z 23004KT 15SM -SHRA OVC098 17/12 A3001 RMK AC8 SLP162 DENSITY ALT 500FT

CYGK;2015-05-04 23:00;CYGK 042300Z 26011G19KT 15SM -SHRA SCT076 OVC095 18/12 A3002 RMK AC4AC4 SLP168 DENSITY ALT 600FT

CYGK;2015-05-05 00:00;CYGK 050000Z 26006KT 15SM -SHRA FEW044 BKN085 OVC110 17/13 A3004 RMK CU1AC5AC3 CU TR SLP172 DENSITY ALT 400FT

CYGK;2015-05-05 00:43;CYGK 050043Z 25005KT 15SM BKN082 OVC230 15/12 A3005 RMK AC7CI1 SLP177

CYGK;2015-05-05 01:00;CYGK 050100Z 28005KT 15SM BKN091 BKN230 16/13 A3006 RMK AC7CI1 CI TR SLP181

CYGK;2015-05-05 02:00;CYGK 050200Z 30008KT 15SM BKN110 BKN230 16/14 A3010 RMK AC5CI2 SLP193

CYGK;2015-05-05 03:00;CYGK 050300Z 29007KT 15SM SCT110 BKN230 15/13 A3011 RMK AC3CI3 LAST STFD OBS/NEXT 051000 UTC SLP196

CYGK;2015-05-05 10:00;CYGK 051000Z 36004KT 1/8SM FG FEW030 BKN270 07/07 A3026 RMK FG1SC1CI4 SC TR VIS SE-SW 2 SLP248

CYGK;2015-05-05 10:10;CYGK 051010Z 01005KT 4SM BR MIFG FEW030 BKN270 08/08 A3026 RMK SC1CI5 SLP250

CYGK;2015-05-05 11:00;CYGK 051100Z 02004KT 15SM FEW030 FEW070 BKN270 09/09 A3028 RMK SC1AC1CI7 SC TR AC TR SLP254

CYGK;2015-05-05 12:00;CYGK 051200Z 05006KT 15SM FEW070 FEW220 BKN270 13/10 A3030 RMK AC1CI1CI5 FG BANK S OVR LK SLP262

CYGK;2015-05-05 13:00;CYGK 051300Z 05009KT 15SM FEW012 FEW060 FEW100 FEW220 BKN250 15/07 A3031 RMK CF1CU1AC1CC1CI6 CF TR CU TR AC TR SLP265

CYGK;2015-05-05 14:00;CYGK 051400Z 05008G15KT 15SM FEW050 FEW140 BKN270 16/04 A3031 RMK CU1AC1CI6 CU TR SLP264

CYGK;2015-05-05 15:00;CYGK 051500Z 11007KT 060V130 15SM FEW050 FEW140 BKN220 16/07 A3032 RMK CU1AC1CS6 CU TR SLP267

CYGK;2015-05-05 16:00;CYGK 051600Z 14005KT 15SM FEW050 BKN220 16/05 A3032 RMK CU1CI6 SLP270

CYGK;2015-05-05 18:00;CYGK 051800Z 16007KT 15SM FEW070 FEW140 BKN200 17/05 A3029 RMK CU1AC1CI6 CU TR SLP259

CYGK;2015-05-05 19:00;CYGK 051900Z 19008KT 15SM FEW070 BKN170 BKN220 17/05 A3029 RMK CU1AC5CI2 CU TR SLP257

CYGK;2015-05-05 20:00;CYGK 052000Z 19008KT 15SM FEW070 SCT160 OVC220 17/04 A3027 RMK CU1AC4CI4 CU TR SLP253

CYGK;2015-05-05 21:00;CYGK 052100Z 19007KT 15SM FEW070 SCT160 BKN220 17/03 A3026 RMK CU1AC4CI3 CU TR SLP248

CYGK;2015-05-05 22:00;CYGK 052200Z 19004KT 15SM FEW070 SCT150 BKN220 17/04 A3024 RMK CU1AC3CI4 CU TR SLP243

CYGK;2015-05-05 23:00;CYGK 052300Z 18004KT 15SM SCT170 OVC220 15/04 A3024 RMK AC4CI4 SLP242

CYGK;2015-05-06 00:00;CYGK 060000Z 23003KT 15SM FEW170 BKN200 14/04 A3024 RMK AC2CI5 SLP242

CYGK;2015-05-06 01:00;CYGK 060100Z 21002KT 15SM BKN200 12/04 A3025 RMK CI6 SLP245

CYGK;2015-05-06 02:00;CYGK 060200Z 26006KT 15SM BKN200 14/02 A3027 RMK CI6 SLP250

CYGK;2015-05-06 03:00;CYGK 060300Z 29004KT 15SM SCT200 13/02 A3027 RMK CI3 LAST STFD OBS/NEXT 061000 UTC SLP252

CYGK;2015-05-06 10:00;CYGK 061000Z 09003KT 15SM FEW270 06/05 A3029 RMK CI1 SLP258

CYGK;2015-05-06 11:00;CYGK 061100Z 00000KT 15SM FEW270 07/04 A3031 RMK CI1 CI TR SLP264

CYGK;2015-05-06 12:00;CYGK 061200Z 00000KT 15SM FEW270 10/05 A3032 RMK CI1 CI TR SLP269

CYGK;2015-05-06 13:00;CYGK 061300Z 16005KT 15SM FEW270 12/06 A3033 RMK CI1 CI TR SLP272

CYGK;2015-05-06 14:00;CYGK 061400Z 16006KT 15SM FEW120 FEW270 11/06 A3032 RMK AC1CI1 AC TR CI TR SLP270

CYGK;2015-05-06 15:00;CYGK 061500Z 14004KT 15SM FEW270 14/06 A3032 RMK CI1 CI TR SLP268

CYGK;2015-05-06 16:00;CYGK 061600Z 18004KT 15SM FEW120 FEW270 15/05 A3031 RMK AC1CI1 AC TR CI TR SLP264

CYGK;2015-05-06 17:00;CYGK 061700Z 18004KT 15SM FEW270 18/06 A3029 RMK CI1 CI TR SLP257

CYGK;2015-05-06 18:00;CYGK 061800Z 23006KT 15SM FEW270 21/04 A3027 RMK CI1 CI TR SLP251 DENSITY ALT 600FT

CYGK;2015-05-06 19:00;CYGK 061900Z 20004KT 15SM FEW270 22/02 A3025 RMK CI1 CI TR SLP245 DENSITY ALT 700FT

CYGK;2015-05-06 20:00;CYGK 062000Z 17005KT 15SM FEW270 21/03 A3023 RMK CI1 CI TR SLP239 DENSITY ALT 600FT

CYGK;2015-05-06 21:00;CYGK 062100Z 19004KT 160V230 15SM FEW250 21/04 A3021 RMK CI1 CI TR SLP232 DENSITY ALT 700FT

CYGK;2015-05-06 22:00;CYGK 062200Z 17003KT 150V220 15SM FEW250 21/04 A3020 RMK CI1 CI TR SLP228 DENSITY ALT 700FT

CYGK;2015-05-06 23:00;CYGK 062300Z 19003KT 15SM FEW250 19/02 A3019 RMK CI1 CI TR SLP223 DENSITY ALT 500FT

CYGK;2015-05-07 00:00;CYGK 070000Z 17003KT 15SM FEW250 18/M02 A3019 RMK CI1 SLP223 DENSITY ALT 400FT

CYGK;2015-05-07 01:00;CYGK 070100Z 19004KT 15SM FEW250 15/M01 A3019 RMK CI1 SLP223

CYGK;2015-05-07 02:00;CYGK 070200Z 12003KT 15SM SKC 13/01 A3019 RMK SLP226

CYGK;2015-05-07 03:00;CYGK 070300Z 18002KT 15SM SKC 12/03 A3018 RMK LAST STFD OBS/NEXT 071000 UTC SLP222

CYGK;2015-05-07 10:00;CYGK 071000Z 00000KT 15SM FEW250 09/03 A3020 RMK CI2 SLP226

CYGK;2015-05-07 11:00;CYGK 071100Z 00000KT 15SM FEW250 08/06 A3020 RMK CI1 SLP226

CYGK;2015-05-07 12:00;CYGK 071200Z 15003KT 15SM FEW250 11/07 A3021 RMK CI1 SLP230

CYGK;2015-05-07 13:00;CYGK 071300Z 17006KT 15SM FEW250 13/08 A3021 RMK CI1 SLP232

CYGK;2015-05-07 14:00;CYGK 071400Z 18006KT 15SM FEW250 14/09 A3021 RMK CI1 SLP231

CYGK;2015-05-07 15:00;CYGK 071500Z 18007KT 15SM BKN250 14/09 A3021 RMK CI7 SLP233

CYGK;2015-05-07 16:00;CYGK 071600Z 17008KT 15SM SCT250 15/11 A3020 RMK CI4 SLP229

CYGK;2015-05-07 17:00;CYGK 071700Z 18007KT 12SM FEW020 BKN250 16/13 A3019 RMK CF1CI7 CF TR SLP223

CYGK;2015-05-07 18:00;CYGK 071800Z 18008KT 15SM FEW040 BKN250 18/13 A3017 RMK CF1CI6 CF TR SLP216 DENSITY ALT 400FT

CYGK;2015-05-07 19:00;CYGK 071900Z 18006KT 15SM FEW040 BKN250 20/13 A3014 RMK CU1CI6 CU TR SLP208 DENSITY ALT 700FT

CYGK;2015-05-07 20:00;CYGK 072000Z 21006KT 15SM BKN250 22/10 A3012 RMK CI7 SLP200 DENSITY ALT 900FT

CYGK;2015-05-07 21:00;CYGK 072100Z 19004KT 150V240 15SM BKN250 23/07 A3009 RMK CI7 SLP192 DENSITY ALT 1100FT

CYGK;2015-05-07 22:00;CYGK 072200Z 18005KT 15SM BKN250 21/10 A3009 RMK CI6 SLP190 DENSITY ALT 900FT

CYGK;2015-05-07 23:00;CYGK 072300Z 18004KT 15SM BKN250 19/11 A3007 RMK CI6 SLP185 DENSITY ALT 600FT

CYGK;2015-05-08 00:00;CYGK 080000Z 18004KT 15SM BKN250 16/12 A3007 RMK CI5 SLP184

CYGK;2015-05-08 01:00;CYGK 080100Z 19004KT 15SM FEW250 14/12 A3006 RMK CI2 SLP182

CYGK;2015-05-08 02:00;CYGK 080200Z 17003KT 15SM FEW250 12/11 A3007 RMK CI1 SLP184

CYGK;2015-05-08 03:00;CYGK 080300Z 17003KT 15SM SKC 12/11 A3006 RMK FG DVLPG SE OVR RIVER LAST STFD OBS/NEXT 081000UTC SLP180

CYGK;2015-05-08 10:00;CYGK 081000Z 11002KT 6SM BR BKN250 08/08 A3009 RMK CI5 FOG BANK E-SW SLP192

CYGK;2015-05-08 10:18;CYGK 081018Z 15002KT 3SM BR FEW002 BKN250 09/08 A3010 RMK ST2CI4 FOG BANK MOVING IN SLP193

CYGK;2015-05-08 10:52;CYGK 081052Z 19002KT 3SM BR BKN002 BKN250 10/10 A3010 RMK ST5CI1 SLP194

CYGK;2015-05-08 11:00;CYGK 081100Z 00000KT 3SM BR SCT002 BKN250 10/10 A3010 RMK ST4CI1 SLP195

CYGK;2015-05-08 11:20;CYGK 081120Z VRB02KT 4SM BR FEW002 BKN250 11/11 A3010 RMK ST2CI3 SLP195

CYGK;2015-05-08 12:00;CYGK 081200Z 17004KT 6SM BR SCT250 13/12 A3011 RMK CI4 SLP196

CYGK;2015-05-08 13:00;CYGK 081300Z 15004KT 8SM BKN250 15/12 A3011 RMK CI5 SLP196

CYGK;2015-05-08 14:00;CYGK 081400Z 17007KT 15SM SCT250 15/12 A3011 RMK CI4 SLP196

CYGK;2015-05-08 15:00;CYGK 081500Z 17007KT 8SM BKN250 16/13 A3011 RMK CI7 SLP197

CYGK;2015-05-08 16:00;CYGK 081600Z 18005KT 15SM BKN250 18/14 A3011 RMK CI5 SLP197 DENSITY ALT 500FT

CYGK;2015-05-08 17:00;CYGK 081700Z 16003KT 130V210 10SM BKN250 21/14 A3010 RMK CI6 SLP194 DENSITY ALT 800FT

CYGK;2015-05-08 18:00;CYGK 081800Z 17005KT 10SM FEW040 BKN250 23/12 A3008 RMK CU1CI6 CU TR SLP186 DENSITY ALT 1000FT

CYGK;2015-05-08 19:00;CYGK 081900Z 18005KT 15SM FEW040 BKN240 24/12 A3007 RMK CU1CI6 CU TR SLP182 DENSITY ALT 1200FT

CYGK;2015-05-08 20:00;CYGK 082000Z 17005KT 12SM FEW040 FEW130 BKN250 24/12 A3005 RMK CU1AC1CI6 CU TR SLP175 DENSITY ALT 1300FT

CYGK;2015-05-08 21:00;CYGK 082100Z 17004KT 15SM FEW040 BKN250 24/12 A3003 RMK CU1CI6 CU TR SLP168 DENSITY ALT 1300FT

CYGK;2015-05-08 22:00;CYGK 082200Z 14003KT 15SM FEW040 FEW140 BKN250 25/11 A3002 RMK CU1AC1CI6 CU TR SLP166 DENSITY ALT 1300FT

CYGK;2015-05-08 23:00;CYGK 082300Z 15004KT 15SM FEW160 BKN250 23/12 A3001 RMK AC1CI6 SLP163 DENSITY ALT 1200FT

CYGK;2015-05-09 00:00;CYGK 090000Z 17002KT 15SM FEW160 BKN250 21/13 A3001 RMK AC1CI6 SLP162 DENSITY ALT 900FT

CYGK;2015-05-09 01:00;CYGK 090100Z 15003KT 15SM FEW160 BKN250 19/13 A3001 RMK AC1CI4 SLP164 DENSITY ALT 700FT

CYGK;2015-05-09 02:00;CYGK 090200Z VRB02KT 15SM FEW250 19/12 A3002 RMK CI2 SLP167 DENSITY ALT 600FT

CYGK;2015-05-09 03:00;CYGK 090300Z 21002KT 15SM FEW250 17/12 A3002 RMK CI1 LAST STFD OBS/NEXT 091000UTC SLP167 DENSITY ALT 500FT

CYGK;2015-05-09 10:00;CYGK 091000Z 16005KT 12SM VCSH SCT080 BKN150 BKN250 14/11 A3007 RMK AC3AC2CI2 SLP183

CYGK;2015-05-09 11:00;CYGK 091100Z 17006KT 12SM SCT080 BKN160 BKN250 15/11 A3009 RMK AC3AC2CI2 SLP189

CYGK;2015-05-09 12:00;CYGK 091200Z 18009KT 12SM FEW090 SCT160 BKN250 15/12 A3011 RMK AC2AC2CI3 SLP195

CYGK;2015-05-09 13:00;CYGK 091300Z 18009KT 12SM FEW090 SCT160 OVC250 15/12 A3012 RMK AC1AC2CI5 SLP199

CYGK;2015-05-09 14:00;CYGK 091400Z 17006KT 12SM FEW160 OVC250 16/12 A3012 RMK AC1CI7 SLP201

CYGK;2015-05-09 15:00;CYGK 091500Z 20007KT 8SM BKN250 17/13 A3013 RMK CI6 SLP203

CYGK;2015-05-09 16:00;CYGK 091600Z 19007KT 8SM BKN250 18/14 A3012 RMK CI6 SLP201 DENSITY ALT 500FT

CYGK;2015-05-09 17:00;CYGK 091700Z 17009KT 8SM FEW080 OVC250 17/14 A3010 RMK AC1CI7 SLP194 DENSITY ALT 400FT

CYGK;2015-05-09 18:00;CYGK 091800Z 16013KT 7SM FEW080 BKN200 19/15 A3009 RMK AC1CI6 SLP190 DENSITY ALT 600FT

CYGK;2015-05-09 19:00;CYGK 091900Z 15008KT 8SM FEW080 BKN240 20/15 A3007 RMK AC1CI6 AC TR SLP184 DENSITY ALT 700FT

CYGK;2015-05-09 20:00;CYGK 092000Z 16007KT 8SM BKN250 21/15 A3005 RMK CI7 SLP177 DENSITY ALT 900FT

CYGK;2015-05-09 21:00;CYGK 092100Z 16006KT 8SM BKN250 22/15 A3003 RMK CI5 SLP169 DENSITY ALT 1000FT

CYGK;2015-05-09 22:00;CYGK 092200Z 15005KT 10SM FEW100 SCT250 24/15 A3002 RMK AC1CI2 SLP165 DENSITY ALT 1300FT

CYGK;2015-05-09 23:00;CYGK 092300Z 27002KT 10SM FEW085TCU BKN140 BKN250 23/15 A3002 RMK TCU2AC3CI1 SLP167 DENSITY ALT 1100FT

CYGK;2015-05-10 00:00;CYGK 100000Z VRB02KT 12SM FEW080TCU BKN140 BKN230 22/15 A3002 RMK TCU1AC4CI2 SLP165 DENSITY ALT 1000FT

CYGK;2015-05-10 01:00;CYGK 100100Z 14004KT 15SM SCT085TCU BKN170 21/14 A3002 RMK TCU3AC4 SLP167 DENSITY ALT 900FT

CYGK;2015-05-10 01:39;CYGK 100139Z 17004KT 150V260 12SM -SHRA OVC080TCU 20/14 A3004 RMK TCU8 PRESRR SLP174 DENSITY ALT 800FT

CYGK;2015-05-10 02:00;CYGK 100200Z 20007KT 150V210 15SM SCT080TCU OVC160 20/13 A3005 RMK TCU4AC4 PRESRR SLP176 DENSITY ALT 700FT

CYGK;2015-05-10 03:00;CYGK 100300Z 14009KT 15SM BKN090 OVC150 19/12 A3003 RMK AC5AC3 LAST STFD OBS/NEXT 101000UTC SLP171 DENSITY ALT 600FT

CYGK;2015-05-10 10:00;CYGK 101000Z 16008KT 8SM SCT070 OVC130 13/13 A3006 RMK AC4AC4 SLP178

CYGK;2015-05-10 10:49;CYGK 101049Z 19003KT 8SM -SHRA SCT080 OVC120 13/12 A3007 RMK AC3AC5 PRESRR SLP183

CYGK;2015-05-10 11:00;CYGK 101100Z 17003KT 8SM -SHRA SCT080 OVC120 13/12 A3007 RMK AC3AC5 SLP183

CYGK;2015-05-10 12:00;CYGK 101200Z VRB02KT 8SM SCT080 OVC120 15/14 A3008 RMK AC3AC5 SLP187

CYGK;2015-05-10 13:00;CYGK 101300Z 18003KT 8SM FEW070 BKN120 OVC180 16/15 A3009 RMK AC2AC4AC2 SLP189

CYGK;2015-05-10 14:00;CYGK 101400Z 16006KT 8SM FEW080 BKN140 BKN250 17/15 A3009 RMK AC2AC3CI2 SLP189

CYGK;2015-05-10 15:00;CYGK 101500Z 17007KT 8SM SCT084 BKN140 OVC210 18/16 A3009 RMK AC3AC4CC1 SLP191 DENSITY ALT 500FT

CYGK;2015-05-10 16:00;CYGK 101600Z 17007KT 10SM SCT060 BKN140 BKN250 18/15 A3009 RMK CU3AC2CI2 SLP190 DENSITY ALT 400FT

CYGK;2015-05-10 17:00;CYGK 101700Z 18008KT 8SM FEW062 FEW100 SCT170 BKN230 17/15 A3009 RMK CU1AC1AC3CI2 CU TR SLP188 DENSITY ALT 400FT

CYGK;2015-05-10 18:00;CYGK 101800Z 18009KT 8SM FEW030 SCT060 BKN090 BKN250 18/15 A3008 RMK CU1CU3AC2CI2 CU TR SLP187 DENSITY ALT 500FT

CYGK;2015-05-10 19:00;CYGK 101900Z 16004KT 8SM FEW020 FEW090 BKN140 BKN250 18/15 A3007 RMK CU1AC2AC5CI1 CU TR CI TR SLP182 DENSITY ALT 500FT

CYGK;2015-05-10 20:00;CYGK 102000Z 09003KT 070V180 8SM FEW030 BKN090 OVC240 19/16 A3006 RMK CU1AC7CI1 CU TR SLP179 DENSITY ALT 600FT

CYGK;2015-05-10 21:00;CYGK 102100Z 16007KT 7SM SCT080 OVC110 18/16 A3006 RMK AC3AC5 SLP180 DENSITY ALT 500FT

CYGK;2015-05-10 22:00;CYGK 102200Z 06011KT 8SM BKN035 BKN150 OVC250 21/17 A3008 RMK SC6AC1CI1 SLP186 DENSITY ALT 800FT

CYGK;2015-05-10 23:00;CYGK 102300Z 04009KT 12SM SCT035 BKN090 BKN120 19/15 A3009 RMK SC4AC2AC1 SLP192 DENSITY ALT 600FT

CYGK;2015-05-11 00:00;CYGK 110000Z 02011KT 15SM BKN017 OVC035 17/14 A3011 RMK SC7SC1 SLP196 DENSITY ALT 400FT

CYGK;2015-05-11 01:00;CYGK 110100Z 03010G18KT 15SM FEW020 SCT140 16/13 A3009 RMK SC1AC3 SLP188

CYGK;2015-05-11 02:00;CYGK 110200Z 03010G16KT 15SM OVC140 15/12 A3011 RMK AC8 SLP198

CYGK;2015-05-11 03:00;CYGK 110300Z 02011KT 15SM FEW120 BKN160 BKN220 14/12 A3010 RMK AC1AC4CI2 LAST STFD OBS/NEXT 111000 UTC SLP193

CYGK;2015-05-11 10:00;CYGK 111000Z 05008KT 15SM BKN010 OVC070 14/12 A3003 RMK SC7AC1 SLP169

CYGK;2015-05-11 10:41;CYGK 111041Z 05009KT 15SM OVC009 14/12 A3003 RMK SC8 SLP170

CYGK;2015-05-11 11:00;CYGK 111100Z 04008KT 15SM OVC009 14/12 A3004 RMK SC8 SLP172

CYGK;2015-05-11 12:00;CYGK 111200Z 04010G16KT 15SM OVC008 14/12 A3004 RMK SC8 SLP173

CYGK;2015-05-11 12:24;CYGK 111224Z 04013KT 15SM OVC006 14/12 A3003 RMK SC8 SLP169

CYGK;2015-05-11 13:00;CYGK 111300Z 04014G21KT 12SM OVC005 13/12 A3003 RMK SF8 SLP168

CYGK;2015-05-11 14:00;CYGK 111400Z 05014G19KT 12SM OVC005 14/13 A3000 RMK SC8 SLP160

CYGK;2015-05-11 15:00;CYGK 111500Z 04010KT 12SM OVC006 14/13 A3003 RMK SF8 SLP169

CYGK;2015-05-11 15:45;CYGK 111545Z 03012KT 12SM SCT007 OVC011 14/12 A3002 RMK SF4SC4 SLP168

CYGK;2015-05-11 16:00;CYGK 111600Z 04010KT 12SM SCT007 OVC011 14/12 A3003 RMK SF3SC5 SLP170

CYGK;2015-05-11 17:00;CYGK 111700Z 06007KT 15SM FEW007 OVC010 16/13 A3001 RMK SF1SC7 SLP161 DENSITY ALT 400FT

CYGK;2015-05-11 17:40;CYGK 111740Z 03007KT 010V070 12SM SCT010 BKN160 17/14 A2999 RMK SC4AC3 SLP157 DENSITY ALT 500FT

CYGK;2015-05-11 18:00;CYGK 111800Z 02005KT 350V050 12SM FEW010 BKN160 18/14 A2999 RMK SC1AC5 SLP155 DENSITY ALT 600FT

CYGK;2015-05-11 19:00;CYGK 111900Z 02008KT 12SM FEW170 BKN250 19/14 A2997 RMK AC2CI3 SLP149 DENSITY ALT 800FT

CYGK;2015-05-11 20:00;CYGK 112000Z 02005KT 15SM FEW170 BKN250 21/16 A2992 RMK AC1CI4 CB TOPS DIST S SLP133 DENSITY ALT 1000FT

CYGK;2015-05-11 21:00;CYGK 112100Z 03008KT 350V050 15SM FEW070 FEW090 FEW170 BKN250 21/15 A2992 RMK AC1AC1AC1CI3 AC TR SLP130 DENSITY ALT 1100FT

CYGK;2015-05-11 22:00;CYGK 112200Z 05008KT 12SM SCT060 BKN090 BKN250 20/15 A2990 RMK SC3AC2CI2 SLP125 DENSITY ALT 900FT

CYGK;2015-05-11 23:00;CYGK 112300Z 06009KT 15SM FEW040TCU BKN054 BKN090 BKN250 19/14 A2991 RMK TCU1SC4AC1CI1 SLP129 DENSITY ALT 800FT

CYGK;2015-05-12 00:00;CYGK 120000Z 04008KT 12SM FEW050 SCT090 BKN250 17/13 A2988 RMK SC1AC2CI2 SLP120 DENSITY ALT 600FT

CYGK;2015-05-12 01:00;CYGK 120100Z 06009KT 15SM SCT050 SCT080 BKN250 16/13 A2988 RMK SC3AC1CI2 SLP119 DENSITY ALT 500FT

CYGK;2015-05-12 02:00;CYGK 120200Z 06009KT 15SM FEW140 OVC180 16/13 A2985 RMK AC2AC6 SLP110 DENSITY ALT 500FT

CYGK;2015-05-12 03:00;CYGK 120300Z 05008KT 15SM OVC150 15/12 A2982 RMK AC8 LAST STFD OBS/NEXT 121000 UTC SLP100 DENSITY ALT 400FT

CYGK;2015-05-12 10:00;CYGK 121000Z 22006KT 5SM BR FEW005 OVC012 14/14 A2973 RMK SF2SC6 SLP069 DENSITY ALT 400FT

CYGK;2015-05-12 10:38;CYGK 121038Z 22009KT 5SM BR OVC007 15/14 A2975 RMK SC8 SLP073 DENSITY ALT 500FT

CYGK;2015-05-12 11:00;CYGK 121100Z 23012G18KT 5SM BR OVC008 15/15 A2976 RMK SC8 SLP077 DENSITY ALT 500FT

CYGK;2015-05-12 12:00;CYGK 121200Z 24010G16KT 5SM BR BKN008 OVC030 14/14 A2977 RMK SC7SC1 SLP080 DENSITY ALT 400FT

CYGK;2015-05-12 12:25;CYGK 121225Z 23013G19KT 5SM BR SCT008 BKN045 15/14 A2976 RMK SF4SC3 SLP079 DENSITY ALT 500FT

CYGK;2015-05-12 12:37;CYGK 121237Z 23012G19KT 8SM SCT008 BKN045 16/15 A2976 RMK SF3CU4 VIS S 5 BR SLP079 DENSITY ALT 600FT

CYGK;2015-05-12 13:00;CYGK 121300Z 23012G18KT 12SM FEW008 SCT013 BKN060 BKN120 16/15 A2976 RMK SF1SF3SC3AC1 SF TR VIS S 8 SLP077 DENSITY ALT 600FT

CYGK;2015-05-12 13:24;CYGK 121324Z 23014G20KT 12SM BKN014 BKN036 OVC065 17/15 A2975 RMK CU5SC2SC1 SLP076 DENSITY ALT 800FT

CYGK;2015-05-12 13:49;CYGK 121349Z 24016G26KT 12SM BKN014 BKN035 BKN055 17/15 A2975 RMK CU5SC1SC1 VIS S 6 SLP075 DENSITY ALT 800FT

CYGK;2015-05-12 14:00;CYGK 121400Z 24013G22KT 12SM SCT013 BKN040 17/15 A2975 RMK CU4SC2 VIS S 6 SLP075 DENSITY ALT 800FT

CYGK;2015-05-12 15:00;CYGK 121500Z 23018G25KT 15SM FEW015 SCT038 SCT060 SCT230 18/15 A2975 RMK CF1CU2SC1CI1 SC TR SLP073 DENSITY ALT 900FT

CYGK;2015-05-12 16:00;CYGK 121600Z 24020G26KT 15SM FEW025 FEW220 19/12 A2974 RMK CU1CI1 SLP072 DENSITY ALT 1000FT

CYGK;2015-05-12 17:00;CYGK 121700Z 24021G31KT 15SM FEW028 FEW270 18/09 A2975 RMK CU2CI1 CI TR SLP073 DENSITY ALT 900FT

CYGK;2015-05-12 18:00;CYGK 121800Z 24020G33KT 15SM FEW045 FEW220 17/08 A2974 RMK CU2CI1 CI TR SLP072 DENSITY ALT 800FT

CYGK;2015-05-12 19:00;CYGK 121900Z 26026G36KT 15SM SCT060 SCT200 17/06 A2976 RMK CU4CI1 CI TR SLP079 DENSITY ALT 800FT

CYGK;2015-05-12 20:00;CYGK 122000Z 27012G27KT 15SM SCT056 BKN072 16/06 A2981 RMK CU4AC3 SLP094 DENSITY ALT 500FT

CYGK;2015-05-12 21:00;CYGK 122100Z 26015G24KT 15SM FEW048 OVC077 16/06 A2982 RMK CU2AC6 SLP099 DENSITY ALT 500FT

CYGK;2015-05-12 22:00;CYGK 122200Z 27012G26KT 15SM VCSH SCT042 BKN080 15/06 A2984 RMK CU3AC4 SLP106 DENSITY ALT 400FT

CYGK;2015-05-12 22:13;CYGK 122213Z 27015G21KT 15SM -RA BKN038 OVC080 14/06 A2985 RMK SC5AC3 SLP108

CYGK;2015-05-12 22:38;CYGK 122238Z 26012G22KT 15SM FEW030 BKN070 13/08 A2986 RMK SC2AC5 SLP113

CYGK;2015-05-12 23:00;CYGK 122300Z 26013G19KT 15SM FEW030 SCT068 OVC090 13/07 A2986 RMK SC2AC2AC4 SLP113

CYGK;2015-05-13 00:00;CYGK 130000Z 26011G17KT 15SM BKN040 BKN095 13/07 A2988 RMK SC5AC2 SLP119

CYGK;2015-05-13 01:00;CYGK 130100Z 26012G19KT 15SM OVC039 13/06 A2990 RMK SC8 SLP127

CYGK;2015-05-13 02:00;CYGK 130200Z 26012G26KT 15SM BKN038 OVC063 12/06 A2992 RMK SC5SC3 SLP131

CYGK;2015-05-13 03:00;CYGK 130300Z 25009G17KT 15SM SCT037 OVC071 11/07 A2992 RMK SC4AC4 LAST STFD OBS/NEXT 131000 UTC SLP131

CYGK;2015-05-13 10:00;CYGK 131000Z 33010G15KT 15SM BKN014 OVC058 08/06 A3005 RMK SC6SC2 PRESRR SLP177

CYGK;2015-05-13 10:37;CYGK 131037Z 34009KT 15SM BKN017 BKN058 08/05 A3008 RMK SC6SC1 SLP186

CYGK;2015-05-13 11:00;CYGK 131100Z 34014KT 15SM SCT021 BKN060 08/04 A3010 RMK SC3SC4 SLP193

CYGK;2015-05-13 12:00;CYGK 131200Z 35012KT 15SM BKN026 BKN090 08/03 A3013 RMK SC6AC1 SLP205

CYGK;2015-05-13 13:00;CYGK 131300Z 35013G18KT 15SM BKN028 BKN150 09/04 A3016 RMK SC7AC1 AC TR SLP215

CYGK;2015-05-13 14:00;CYGK 131400Z 36014G20KT 320V020 15SM BKN033 10/03 A3018 RMK SC5 SLP223

CYGK;2015-05-13 15:00;CYGK 131500Z 35007G17KT 320V050 15SM SCT038 11/03 A3021 RMK SC4 SLP230

CYGK;2015-05-13 16:00;CYGK 131600Z 36010G20KT 280V040 15SM SCT048 12/01 A3021 RMK CU4 SLP232

CYGK;2015-05-13 17:00;CYGK 131700Z 36008KT 340V060 15SM SCT062 13/M00 A3021 RMK CU4 SLP232

CYGK;2015-05-13 18:00;CYGK 131800Z 36009G18KT 310V040 15SM BKN070 BKN270 14/M00 A3021 RMK CU5CI1 CI TR SLP231

CYGK;2015-05-13 19:00;CYGK 131900Z 19013G21KT 15SM BKN075 BKN250 12/04 A3022 RMK CU6CI1 CI TR SLP236

CYGK;2015-05-13 20:00;CYGK 132000Z 20014KT 15SM BKN077 BKN230 12/03 A3023 RMK CU5CI1 SLP239

CYGK;2015-05-13 21:00;CYGK 132100Z 20011KT 15SM SCT078 BKN230 12/06 A3024 RMK CU3CI3 SLP240

CYGK;2015-05-13 22:00;CYGK 132200Z 21010KT 15SM FEW078 BKN220 13/05 A3024 RMK CU2CI4 SLP242

CYGK;2015-05-13 23:00;CYGK 132300Z 23006KT 15SM FEW075 SCT220 13/05 A3024 RMK CU1CI3 CU TR SLP241

CYGK;2015-05-14 00:00;CYGK 140000Z 24009KT 15SM FEW220 11/05 A3025 RMK CI2 SLP245

CYGK;2015-05-14 01:00;CYGK 140100Z 24006KT 15SM FEW220 10/06 A3026 RMK CI1 SLP251

CYGK;2015-05-14 02:00;CYGK 140200Z 28002KT 15SM SKC 08/05 A3029 RMK SLP261

CYGK;2015-05-14 03:00;CYGK 140300Z 32003KT 15SM SKC 07/04 A3031 RMK LAST STFD OBS/NEXT 141000 UTC SLP267

CYGK;2015-05-14 10:00;CYGK 141000Z 35006KT 15SM SKC 02/00 A3041 RMK SLP302

CYGK;2015-05-14 11:00;CYGK 141100Z 33005KT 15SM SKC 05/03 A3044 RMK SLP310

CYGK;2015-05-14 12:00;CYGK 141200Z 35006KT 15SM SKC 09/04 A3045 RMK SLP313

CYGK;2015-05-14 13:00;CYGK 141300Z VRB03KT 15SM FEW250 13/01 A3046 RMK CI2 SLP317

CYGK;2015-05-14 14:00;CYGK 141400Z 17007KT 15SM SCT250 12/05 A3046 RMK CI3 SLP316

CYGK;2015-05-14 15:00;CYGK 141500Z 17009KT 15SM FEW025 BKN250 12/04 A3046 RMK CF1CI5 CF TR SLP317

CYGK;2015-05-14 16:00;CYGK 141600Z 19012KT 15SM SCT250 10/04 A3046 RMK CI4 SLP316

CYGK;2015-05-14 17:00;CYGK 141700Z 19013KT 15SM BKN250 11/05 A3044 RMK CI6 SLP309

CYGK;2015-05-14 18:00;CYGK 141800Z 19012KT 15SM BKN250 12/05 A3042 RMK CI6 SLP305

CYGK;2015-05-14 19:00;CYGK 141900Z 19012KT 15SM SCT250 13/03 A3040 RMK CI4 SLP295

CYGK;2015-05-14 20:00;CYGK 142000Z 19013KT 15SM FEW110 FEW250 12/03 A3037 RMK AC1CI2 AC TR SLP286

CYGK;2015-05-14 21:00;CYGK 142100Z 19012KT 15SM FEW110 FEW250 12/02 A3035 RMK AC1CI2 AC TR SLP280

CYGK;2015-05-14 22:00;CYGK 142200Z 19012KT 15SM FEW110 FEW240 12/02 A3034 RMK AC1CI2 AC TR SLP277

CYGK;2015-05-14 23:00;CYGK 142300Z 20009KT 15SM FEW230 11/02 A3033 RMK CI2 SLP272

CYGK;2015-05-15 00:00;CYGK 150000Z 19006KT 15SM SCT230 09/04 A3032 RMK CI3 SLP268

CYGK;2015-05-15 01:00;CYGK 150100Z 20004KT 15SM SCT230 08/04 A3030 RMK CI3 SLP264

CYGK;2015-05-15 02:00;CYGK 150200Z 25007KT 15SM FEW230 09/03 A3031 RMK CI2 SLP266

CYGK;2015-05-15 03:00;CYGK 150300Z 15003KT 15SM FEW230 06/04 A3030 RMK CI2 LAST STFD OBS/NEXT 151000 UTC SLP262

CYGK;2015-05-15 10:00;CYGK 151000Z VRB02KT 15SM FEW150 OVC240 05/04 A3027 RMK AC1CI7 SLP254

CYGK;2015-05-15 11:00;CYGK 151100Z 01003KT 15SM OVC180 06/06 A3027 RMK AS8 SLP253

CYGK;2015-05-15 12:00;CYGK 151200Z 07003KT 15SM OVC180 09/05 A3026 RMK AS8 SLP251

CYGK;2015-05-15 13:00;CYGK 151300Z 06004KT 15SM FEW120 SCT180 OVC240 11/06 A3026 RMK AC2AC2CI4 SLP247

CYGK;2015-05-15 14:00;CYGK 151400Z 09006KT 15SM BKN200 OVC250 15/03 A3023 RMK CS6CI2 SLP238

CYGK;2015-05-15 15:00;CYGK 151500Z 13006KT 15SM FEW140 SCT200 OVC250 16/04 A3022 RMK AC2CS2CI4 SLP235

CYGK;2015-05-15 16:00;CYGK 151600Z 12004KT 090V170 15SM SCT140 OVC200 17/05 A3021 RMK AC3CS5 SLP232

CYGK;2015-05-15 17:00;CYGK 151700Z 16005KT 15SM SCT120 OVC160 17/04 A3020 RMK AC3AC5 SLP227

CYGK;2015-05-15 18:00;CYGK 151800Z 14006KT 15SM FEW050 BKN120 OVC220 18/03 A3017 RMK SC1AC6CS1 SLP218 DENSITY ALT 400FT

CYGK;2015-05-15 19:00;CYGK 151900Z 14004KT 15SM FEW050 BKN100 OVC220 18/04 A3014 RMK SC1AC5CS2 SLP208 DENSITY ALT 500FT

CYGK;2015-05-15 20:00;CYGK 152000Z 13005KT 15SM FEW050 BKN130 OVC250 19/05 A3012 RMK SC1AC6CI1 SLP200 DENSITY ALT 600FT

CYGK;2015-05-15 21:00;CYGK 152100Z 14008KT 15SM OVC110 20/06 A3009 RMK AC8 SLP191 DENSITY ALT 700FT

CYGK;2015-05-15 22:00;CYGK 152200Z 16007KT 15SM OVC095 17/07 A3009 RMK AC8 VIRGA SLP189 DENSITY ALT 400FT

CYGK;2015-05-15 22:32;CYGK 152232Z 19006KT 15SM -SHRA FEW065 OVC080 16/07 A3008 RMK SC2AC6 SLP189

CYGK;2015-05-15 23:00;CYGK 152300Z VRB02KT 15SM -SHRA FEW065 BKN075 OVC090 15/08 A3007 RMK SC1AC5AC2 SLP186

CYGK;2015-05-16 00:00;CYGK 160000Z 17006KT 12SM -SHRA OVC065 14/09 A3007 RMK SC8 SLP183

CYGK;2015-05-16 01:00;CYGK 160100Z VRB02KT 12SM -SHRA BKN050 OVC080 13/11 A3007 RMK SC5AC3 SLP184

CYGK;2015-05-16 02:00;CYGK 160200Z 00000KT 12SM -SHRA OVC045 13/12 A3009 RMK SC8 SLP189

CYGK;2015-05-16 03:00;CYGK 160300Z 06004KT 15SM -SHRA OVC042 13/12 A3007 RMK SC8 LAST STFD OBS/NEXT 161000 UTC SLP185

CYGK;2015-05-16 10:00;CYGK 161000Z 17002KT 1SM BR VV002 12/11 A3003 RMK FG8 SLP170

CYGK;2015-05-16 11:00;CYGK 161100Z 15004KT 130V200 1/4SM FG VV001 12/11 A3004 RMK FG8 SLP172

CYGK;2015-05-16 11:44;CYGK 161144Z 20004KT 3/4SM BR VV002 12/12 A3005 RMK FG8 SLP176

CYGK;2015-05-16 12:00;CYGK 161200Z VRB02KT 1 1/4SM BR VV003 12/12 A3005 RMK FG8 SLP178

CYGK;2015-05-16 13:00;CYGK 161300Z 22006KT 1/2SM FG VV002 12/12 A3006 RMK FG8 SLP182

CYGK;2015-05-16 13:14;CYGK 161314Z 23006KT 1 1/2SM BR VV002 12/12 A3008 RMK FG8 SLP186

CYGK;2015-05-16 14:05;CYGK 161405Z 16003KT 2SM BR BKN002 OVC045 13/12 A3007 RMK FG4SF2SC2 SLP183

CYGK;2015-05-16 14:18;CYGK 161418Z 15005KT 1SM BR VV002 12/12 A3006 RMK FG8 SLP182

CYGK;2015-05-16 14:37;CYGK 161437Z 17005KT 1 1/2SM BR OVC050 13/12 A3007 RMK FG7SC1 SLP183

CYGK;2015-05-16 15:00;CYGK 161500Z 16003KT 130V200 2 1/2SM BR OVC050 13/12 A3006 RMK FG4SC4 VIS S 1 SLP182

CYGK;2015-05-16 16:00;CYGK 161600Z 16006KT 2SM BR SCT002 BKN030 OVC050 13/12 A3006 RMK SF3CU2SC3 SLP179

CYGK;2015-05-16 16:34;CYGK 161634Z 17007KT 3/4SM BR VV002 13/12 A3005 RMK FG8 SLP178

CYGK;2015-05-16 16:37;CYGK 161637Z 17007KT 1/2SM FG VV001 13/12 A3005 RMK FG8 SLP178

CYGK;2015-05-16 17:00;CYGK 161700Z 17007KT 1/2SM FG VV001 13/12 A3005 RMK FG8 SLP177

CYGK;2015-05-16 17:30;CYGK 161730Z 18006KT 1SM BR VV002 12/11 A3005 RMK FG8 SLP178

CYGK;2015-05-16 17:45;CYGK 161745Z 18005KT 2SM BR SCT002 OVC027 12/11 A3005 RMK FG2SF2SC4 SLP178

CYGK;2015-05-16 18:00;CYGK 161800Z 18005KT 3SM BR FEW002 OVC030 12/12 A3005 RMK SF2SC6 VIS S 1 SLP178

CYGK;2015-05-16 19:00;CYGK 161900Z 16002KT 8SM FEW002 BKN028 OVC045 14/12 A3004 RMK SF1SC5SC3 SF TR VIS S 2 SLP174

CYGK;2015-05-16 20:00;CYGK 162000Z 17005KT 8SM FEW030 FEW100 OVC230 15/12 A3003 RMK CU1AC1CI6 SLP171

CYGK;2015-05-16 21:00;CYGK 162100Z 18010KT 8SM SCT035 BKN190 BKN250 15/13 A3003 RMK CU3AC3CI1 SLP170

CYGK;2015-05-16 22:00;CYGK 162200Z 19004KT 8SM BKN035 BKN190 BKN250 15/13 A3003 RMK CU5AC1CI1 VIS S 3 SLP171

CYGK;2015-05-16 23:00;CYGK 162300Z 24006KT 8SM 19/15 A3004 RMK SLP175 DENSITY ALT 600FT

CYGK;2015-05-17 00:00;CYGK 170000Z 24006KT 10SM SCT045 SCT250 17/14 A3006 RMK SC3CI1 SLP182 DENSITY ALT 400FT

CYGK;2015-05-17 01:00;CYGK 170100Z 15007KT 6SM BR FEW045 10/09 A3009 RMK SC2 SLP191

CYGK;2015-05-17 02:00;CYGK 170200Z 14004KT 8SM BKN050 09/08 A3012 RMK SC6 SLP201

CYGK;2015-05-17 03:00;CYGK 170300Z VRB02KT 10SM BKN039 10/09 A3012 RMK SC7 LAST STFD OBS/NEXT 171000 UTC SLP203

CYGK;2015-05-17 10:00;CYGK 171000Z 35007KT 10SM FEW012 FEW100 BKN250 09/09 A3015 RMK SC1AC1CI6 SC TR AC TR VIS LWR S SLP213

CYGK;2015-05-17 11:00;CYGK 171100Z 35006KT 15SM FEW100 BKN250 12/11 A3018 RMK AC1CI5 AC TR SLP221

CYGK;2015-05-17 12:00;CYGK 171200Z 03007KT 15SM FEW035 16/12 A3018 RMK SC1 SC TR SLP221

CYGK;2015-05-17 13:00;CYGK 171300Z 05008KT 15SM FEW035 BKN250 18/13 A3019 RMK SC2CI5 SLP224 DENSITY ALT 400FT

CYGK;2015-05-17 14:00;CYGK 171400Z 07006KT 360V090 15SM FEW020 SCT038 BKN230 19/13 A3020 RMK CF1SC3CI3 CF TR SLP228 DENSITY ALT 500FT

CYGK;2015-05-17 15:00;CYGK 171500Z 16008KT 12SM FEW030 BKN250 14/11 A3020 RMK CU2CI4 SLP227

CYGK;2015-05-17 16:00;CYGK 171600Z 18009KT 15SM FEW036 SCT240 15/12 A3019 RMK SC1CI2 VIS LWR S SLP225

CYGK;2015-05-17 17:00;CYGK 171700Z 18008KT 15SM FEW035 SCT250 16/12 A3019 RMK SC1CI2 SLP225

CYGK;2015-05-17 18:00;CYGK 171800Z 18007KT 15SM FEW035 FEW250 19/14 A3018 RMK SC1CI1 SLP220 DENSITY ALT 500FT

CYGK;2015-05-17 19:00;CYGK 171900Z 21008KT 15SM FEW035 FEW250 21/13 A3017 RMK CU1CI1 CU TR CI TR SLP217 DENSITY ALT 700FT

CYGK;2015-05-17 20:00;CYGK 172000Z 19008KT 15SM FEW040 FEW250 21/12 A3014 RMK CF1CI1 CF TR CI TR SLP207 DENSITY ALT 800FT

CYGK;2015-05-17 21:00;CYGK 172100Z 18005KT 15SM FEW250 22/12 A3014 RMK CI1 CI TR SLP207 DENSITY ALT 900FT

CYGK;2015-05-17 22:00;CYGK 172200Z 21007KT 15SM FEW250 21/14 A3012 RMK CI1 CI TR SLP201 DENSITY ALT 800FT

CYGK;2015-05-17 23:00;CYGK 172300Z 25004KT 15SM SCT250 19/14 A3012 RMK CI3 SLP200 DENSITY ALT 500FT

CYGK;2015-05-18 00:00;CYGK 180000Z 24002KT 15SM BKN250 17/13 A3013 RMK CI7 SLP204

CYGK;2015-05-18 01:00;CYGK 180100Z 36003KT 310V010 15SM SCT250 15/13 A3012 RMK CI4 SLP200

CYGK;2015-05-18 02:00;CYGK 180200Z 13003KT 15SM FEW250 14/12 A3012 RMK CI2 SLP199

CYGK;2015-05-18 03:00;CYGK 180300Z 17006KT 15SM SKC 13/12 A3012 RMK LAST STFD OBS / NEXT 181000 UTC SLP199

CYGK;2015-05-18 10:00;CYGK 181000Z 11004KT 15SM FEW050 SCT078 BKN250 13/12 A3006 RMK SC1AC2CI4 SLP178

CYGK;2015-05-18 11:00;CYGK 181100Z 13005KT 15SM FEW080 OVC250 16/13 A3005 RMK AC1CI7 SLP176

CYGK;2015-05-18 12:00;CYGK 181200Z 20006KT 15SM FEW080 OVC250 16/13 A3006 RMK AC1CI8 AC TR SLP180

CYGK;2015-05-18 13:00;CYGK 181300Z 18006KT 15SM FEW020 FEW080 OVC250 16/13 A3005 RMK CF1AC1CI7 CF TR SLP177

CYGK;2015-05-18 14:00;CYGK 181400Z 19006KT 160V220 15SM FEW075 SCT100 OVC220 17/13 A3004 RMK AC1AC2CI5 SLP174 DENSITY ALT 400FT

CYGK;2015-05-18 15:00;CYGK 181500Z 19006KT 15SM FEW030 FEW050 SCT070 OVC250 17/14 A3004 RMK CF1SC1AC3CI4 CF TR SLP175 DENSITY ALT 500FT

CYGK;2015-05-18 16:00;CYGK 181600Z 17006KT 150V210 15SM FEW030 BKN038 OVC250 17/14 A3004 RMK CF2CU5CI1 SLP174 DENSITY ALT 500FT

CYGK;2015-05-18 17:00;CYGK 181700Z 18008KT 15SM FEW025 OVC085 18/16 A3003 RMK SC2AC6 SLP168 DENSITY ALT 600FT

CYGK;2015-05-18 17:09;CYGK 181709Z 18008KT 12SM FEW002 FEW025 BKN082 18/16 A3002 RMK SF1CU1AC5 SLP167 DENSITY ALT 600FT

CYGK;2015-05-18 17:42;CYGK 181742Z 17007KT 12SM SCT001 SCT025 BKN080 BKN250 18/16 A3000 RMK SF3CU1AC2CI1 VIS E-S 3 SLP160 DENSITY ALT 600FT

CYGK;2015-05-18 18:00;CYGK 181800Z 15007KT 4SM BR BKN001 BKN080 18/16 A2999 RMK SF5AC2 VIS NW-NE 12 SLP156 DENSITY ALT 600FT

CYGK;2015-05-18 18:14;CYGK 181814Z 16005KT 1SM BR BKN080 17/15 A2999 RMK FG3AC3 VIS E-SW 1/2 N 10 SLP157 DENSITY ALT 500FT

CYGK;2015-05-18 18:43;CYGK 181843Z 17007KT 5SM BR BKN080 18/17 A2999 RMK FG1AC5 SLP157 DENSITY ALT 600FT

CYGK;2015-05-18 19:00;CYGK 181900Z 19007KT 3SM BR BKN082 18/17 A2999 RMK FG2AC5 VIS S-SW 1 SLP155 DENSITY ALT 600FT

CYGK;2015-05-18 20:00;CYGK 182000Z 18007KT 6SM BR SCT080 BKN250 20/18 A2996 RMK AC3CI3 VIS S 2 SLP147 DENSITY ALT 900FT

CYGK;2015-05-18 21:00;CYGK 182100Z 18011KT 6SM BR FEW080 SCT250 20/18 A2994 RMK FG1AC1CI2 SLP139 DENSITY ALT 800FT

CYGK;2015-05-18 22:00;CYGK 182200Z 19010G15KT 6SM BR FEW030 FEW080 SCT230 21/19 A2992 RMK CU1AC1CI2 SLP133 DENSITY ALT 1000FT

CYGK;2015-05-18 22:16;CYGK 182216Z 18011KT 2SM BR SCT080 BKN230 19/17 A2992 RMK FG4AC1CI2 AC TR SLP133 DENSITY ALT 700FT

CYGK;2015-05-18 22:31;CYGK 182231Z 17007KT 5SM BR SCT080 BKN230 17/16 A2992 RMK FG3AC1CI2 SLP132 DENSITY ALT 500FT

CYGK;2015-05-18 23:02;CYGK 182302Z 21005KT 150V230 1SM BR VV003 16/15 A2992 RMK FG8 SLP132 DENSITY ALT 400FT

CYGK;2015-05-18 23:14;CYGK 182314Z 20008KT 5/8SM BR VV002 17/16 A2992 RMK FG8 SLP132 DENSITY ALT 500FT

CYGK;2015-05-19 00:00;CYGK 190000Z 20008KT 5/8SM BR VV002 17/17 A2992 RMK FG8 SLP134 DENSITY ALT 600FT

CYGK;2015-05-19 00:12;CYGK 190012Z 21008KT 2SM BR SCT080 BKN140 BKN230 17/17 A2993 RMK FG2AC2AC1CI2 VIS S 1 SLP135 DENSITY ALT 600FT

CYGK;2015-05-19 00:53;CYGK 190053Z 20009KT 1/2SM FG BKN140 18/18 A2992 RMK FG5AC2 VIS N 2 SLP133 DENSITY ALT 700FT

CYGK;2015-05-19 01:00;CYGK 190100Z 20009KT 1/2SM FG OVC140 18/17 A2992 RMK FG3AC5 SLP133 DENSITY ALT 700FT

CYGK;2015-05-19 01:23;CYGK 190123Z 20010KT 4SM BR BKN150 17/17 A2992 RMK FG3AC4 VIS S 1 SLP134 DENSITY ALT 600FT

CYGK;2015-05-19 02:00;CYGK 190200Z 19007KT 5SM BR BKN150 17/17 A2991 RMK FG2AC5 SLP130 DENSITY ALT 600FT

CYGK;2015-05-19 03:00;CYGK 190300Z 20007KT 8SM OVC140 17/17 A2992 RMK FG3AC5 LAST STFD OBS/NEXT 191000 UTC SLP132 DENSITY ALT 600FT

CYGK;2015-05-19 10:00;CYGK 191000Z 19008KT 1/4SM FG VV004 13/13 A2983 RMK FG8 SLP101

CYGK;2015-05-19 10:35;CYGK 191035Z 19011KT 3/8SM FG OVC008 13/13 A2984 RMK FG6SF2 SLP103

CYGK;2015-05-19 10:42;CYGK 191042Z 19011KT 1/2SM FG OVC008 13/13 A2984 RMK FG5SF3 SLP104

CYGK;2015-05-19 11:00;CYGK 191100Z 19011KT 1/2SM FG OVC008 13/13 A2984 RMK FG6SF2 SLP105

CYGK;2015-05-19 11:29;CYGK 191129Z 18008KT 3/4SM BR OVC004 13/13 A2983 RMK FG5SF3 SLP103

CYGK;2015-05-19 11:48;CYGK 191148Z 17004KT 1 1/2SM BR OVC004 13/13 A2983 RMK FG2SF6 VIS SE-SW 3/4 SLP103

CYGK;2015-05-19 12:00;CYGK 191200Z 16003KT 1 1/2SM BR OVC004 13/13 A2983 RMK FG2SF6 VIS SE-SW 3/4 SLP103

CYGK;2015-05-19 12:11;CYGK 191211Z 17005KT 2 1/2SM BR OVC003 14/14 A2983 RMK FG1SF7 VIS SE-S 3/4 SLP103

CYGK;2015-05-19 13:00;CYGK 191300Z 15005KT 5SM BR SCT004 SCT250 16/14 A2983 RMK SF3CI1 VIS S 3/4 SLP101 DENSITY ALT 500FT

CYGK;2015-05-19 14:00;CYGK 191400Z 22007KT 170V240 15SM FEW004 FEW015 BKN049 19/17 A2983 RMK SF1CF1SC6 SF TR CF TR VIS E-S 5 SLP100 DENSITY ALT 900FT

CYGK;2015-05-19 15:00;CYGK 191500Z 23013G19KT 15SM FEW020 SCT050 21/14 A2983 RMK CF1SC3 CF TR SLP100 DENSITY ALT 1100FT

CYGK;2015-05-19 16:00;CYGK 191600Z 19016KT 15SM FEW020 20/14 A2982 RMK CF1 SLP099 DENSITY ALT 1000FT

CYGK;2015-05-19 17:00;CYGK 191700Z 20016G23KT 15SM FEW035 20/12 A2981 RMK CF1 CF TR SLP096 DENSITY ALT 1000FT

CYGK;2015-05-19 18:00;CYGK 191800Z 22017G23KT 15SM FEW035 20/11 A2982 RMK CU1 CU TR SLP097 DENSITY ALT 1100FT

CYGK;2015-05-19 19:00;CYGK 191900Z 24019G25KT 15SM FEW035 19/11 A2981 RMK CU1 SLP095 DENSITY ALT 900FT

CYGK;2015-05-19 20:00;CYGK 192000Z 24016G29KT 15SM SCT045 18/10 A2982 RMK SC3 SLP097 DENSITY ALT 800FT

CYGK;2015-05-19 21:00;CYGK 192100Z 26016G28KT 15SM BKN053 17/07 A2984 RMK SC5 SLP106 DENSITY ALT 600FT

CYGK;2015-05-19 22:00;CYGK 192200Z 25017G26KT 230V290 15SM FEW050 FEW230 17/06 A2985 RMK SC2CI1 CI TR SLP108 DENSITY ALT 700FT

CYGK;2015-05-19 23:00;CYGK 192300Z 26015G27KT 15SM FEW051 FEW230 16/06 A2988 RMK SC2CC1 CC TR SLP118 DENSITY ALT 500FT

CYGK;2015-05-20 00:00;CYGK 200000Z 27014G24KT 15SM FEW050 SCT070 14/05 A2988 RMK SC1AC2 SLP119

CYGK;2015-05-20 01:00;CYGK 200100Z 27018G27KT 15SM BKN067 13/05 A2989 RMK AC6 SLP124

CYGK;2015-05-20 02:00;CYGK 200200Z 27012G20KT 15SM SCT062 11/04 A2991 RMK SC4 SLP130

CYGK;2015-05-20 03:00;CYGK 200300Z 29010G16KT 15SM FEW049 SCT063 10/04 A2992 RMK SC2SC2 LAST STFD OBS/NEXT 201000 UTC SLP132

CYGK;2015-05-20 10:00;CYGK 201000Z 25009KT 15SM BKN029 BKN058 06/02 A2995 RMK SC5SC1 SLP142

CYGK;2015-05-20 11:00;CYGK 201100Z 28010G19KT 15SM SCT030 BKN053 06/03 A2997 RMK SC4SC3 SLP149

CYGK;2015-05-20 11:20;CYGK 201120Z 31011G18KT 15SM RA BKN014 BKN050 06/03 A2997 RMK SC6SC1 SLP151

CYGK;2015-05-20 11:47;CYGK 201147Z 30009KT 15SM BKN020 BKN100 06/03 A2999 RMK SC5AC1 SLP156

CYGK;2015-05-20 12:00;CYGK 201200Z 31014G19KT 15SM SCT020 BKN100 07/02 A2999 RMK SC4AC1 SLP156

CYGK;2015-05-20 13:00;CYGK 201300Z 32015KT 15SM FEW027 FEW100 SCT250 07/M00 A2999 RMK CU1AC1CI2 AC TR SLP158

CYGK;2015-05-20 14:00;CYGK 201400Z 33012KT 270V360 15SM SCT030 SCT270 09/01 A3000 RMK CU3CI1 SLP159

CYGK;2015-05-20 15:00;CYGK 201500Z 32009G20KT 300V010 15SM SCT040 SCT270 10/01 A3001 RMK SC3CI1 SLP163

CYGK;2015-05-20 16:00;CYGK 201600Z 31013G19KT 270V340 15SM FEW048 SCT250 11/M01 A3001 RMK CU2CI1 SLP165

CYGK;2015-05-20 17:00;CYGK 201700Z 29007G18KT 260V340 15SM FEW057 SCT270 13/00 A3001 RMK CU2CI1 SLP162

CYGK;2015-05-20 18:00;CYGK 201800Z 27008G17KT 230V340 15SM FEW065 FEW100 FEW230 14/M01 A2999 RMK CU1AC1CI1 AC TR WSHFT 1750 SLP157

CYGK;2015-05-20 19:00;CYGK 201900Z 35005G16KT 300V020 15SM FEW065 FEW230 14/01 A2997 RMK CU1CI1 SLP151

CYGK;2015-05-20 20:00;CYGK 202000Z 23016G22KT 15SM FEW078 FEW250 14/04 A2998 RMK CU1CI1 CU TR SLP153

CYGK;2015-05-20 21:00;CYGK 202100Z 23017G24KT 15SM SCT230 13/04 A2997 RMK CI3 SLP152

CYGK;2015-05-20 22:00;CYGK 202200Z 23016G22KT 15SM SCT230 12/03 A2997 RMK CI3 SLP152

CYGK;2015-05-20 23:00;CYGK 202300Z 23016KT 15SM FEW090 SCT230 12/02 A2997 RMK AC1CI4 AC TR SLP150

CYGK;2015-05-21 00:00;CYGK 210000Z 23015KT 15SM FEW090 BKN230 11/02 A2997 RMK AC1CI4 SLP150

CYGK;2015-05-21 01:00;CYGK 210100Z 24008KT 15SM BKN230 10/03 A2996 RMK CI5 SLP148

CYGK;2015-05-21 02:00;CYGK 210200Z 27009KT 15SM SCT230 10/M02 A2998 RMK CI4 SLP152

CYGK;2015-05-21 03:00;CYGK 210300Z 25006KT 15SM SCT230 09/M02 A2998 RMK CI4 LAST STFD OBS/NEXT 211000 UTC SLP153

CYGK;2015-05-21 10:00;CYGK 211000Z 20009KT 15SM SCT065 OVC120 08/02 A2997 RMK SC3AC5 SLP150

CYGK;2015-05-21 11:00;CYGK 211100Z 22007KT 15SM FEW065 BKN140 08/02 A2996 RMK SC1AC6 SLP146

CYGK;2015-05-21 12:00;CYGK 211200Z 24008KT 15SM FEW065 BKN120 09/02 A2995 RMK SC1AC4 SLP144

CYGK;2015-05-21 13:00;CYGK 211300Z 22010KT 15SM SCT110 SCT240 11/03 A2995 RMK AC3CI1 SLP142

CYGK;2015-05-21 14:00;CYGK 211400Z 21010KT 15SM FEW130 FEW250 12/03 A2993 RMK AC1CI1 CI TR SLP137

CYGK;2015-05-21 15:00;CYGK 211500Z 22010KT 15SM FEW100 FEW220 14/04 A2992 RMK AC1CI1 CI TR SLP132

CYGK;2015-05-21 16:00;CYGK 211600Z 19015KT 15SM FEW025 FEW100 11/06 A2991 RMK CF1AC1 CF TR AC TR SLP130

CYGK;2015-05-21 17:00;CYGK 211700Z 19017KT 15SM FEW040 FEW100 12/06 A2990 RMK CU1AC1 CU TR AC TR SLP125

CYGK;2015-05-21 18:00;CYGK 211800Z 20016G21KT 15SM FEW040 FEW100 14/03 A2988 RMK CF1AC1 CF TR AC TR SLP119

CYGK;2015-05-21 19:00;CYGK 211900Z 19014G20KT 15SM FEW040 FEW200 15/05 A2987 RMK CF1CI1 CF TR SLP115

CYGK;2015-05-21 20:00;CYGK 212000Z 19015G21KT 15SM FEW040 FEW200 13/04 A2985 RMK CU1CI1 CU TR CI TR SLP110

CYGK;2015-05-21 21:00;CYGK 212100Z 19014KT 15SM FEW040 SCT200 12/04 A2984 RMK CU1CI3 CU TR SLP105

CYGK;2015-05-21 22:00;CYGK 212200Z 19013KT 15SM FEW040 SCT230 12/04 A2983 RMK CU1CI4 CU TR SLP102

CYGK;2015-05-21 23:00;CYGK 212300Z 19011KT 15SM FEW040 SCT180 BKN210 11/04 A2982 RMK CU1AC3CI2 CU TR SLP101

CYGK;2015-05-22 00:00;CYGK 220000Z 20004KT 15SM SCT180 BKN210 10/05 A2982 RMK AC4CI3 SLP101

CYGK;2015-05-22 01:00;CYGK 220100Z 23007KT 15SM FEW160 BKN200 10/04 A2984 RMK AC2CI5 SLP105

CYGK;2015-05-22 02:00;CYGK 220200Z 24011KT 15SM FEW180 BKN210 12/04 A2984 RMK AC2CI4 SLP107

CYGK;2015-05-22 03:00;CYGK 220300Z 24008KT 15SM SCT130 BKN180 11/04 A2984 RMK AC3AC4 LAST STFD OBS/NEXT 221000 UTC SLP105

CYGK;2015-05-22 10:00;CYGK 221000Z 34004KT 15SM FEW030 06/03 A2989 RMK SC2 SLP123

CYGK;2015-05-22 11:00;CYGK 221100Z 34009KT 15SM FEW080 08/02 A2993 RMK AC2 SLP136

CYGK;2015-05-22 12:00;CYGK 221200Z 36007KT 15SM SCT090 09/02 A2995 RMK AC4 SLP144

CYGK;2015-05-22 13:00;CYGK 221300Z 35005KT 15SM FEW025 SCT087 10/02 A2997 RMK CF1AC3 CF TR SLP151

CYGK;2015-05-22 14:00;CYGK 221400Z VRB03KT 15SM FEW030 SCT090 11/M00 A2999 RMK CU1AC2 SLP157

CYGK;2015-05-22 15:00;CYGK 221500Z 29008KT 270V350 15SM FEW052 FEW085 13/01 A2999 RMK CU1AC1 SLP157

CYGK;2015-05-22 16:00;CYGK 221600Z 30010G17KT 260V330 15SM BKN060 14/01 A3000 RMK CU6 SLP160

CYGK;2015-05-22 16:27;CYGK 221627Z 31013G19KT 260V320 15SM -SHRA BKN060 BKN090 13/00 A3000 RMK CU7AC1 AC TR SLP160

CYGK;2015-05-22 16:47;CYGK 221647Z 27009G19KT 250V320 15SM VCSH BKN060 BKN100 13/01 A3001 RMK CU7AC1 AC TR SH ALQDS SLP162

CYGK;2015-05-22 17:00;CYGK 221700Z 27008G17KT 250V320 15SM VCSH BKN060 BKN100 15/02 A3000 RMK CU6AC1 SH ALQDS SLP161

CYGK;2015-05-22 17:12;CYGK 221712Z 25010G16KT 220V290 15SM -SHRA BKN060 BKN100 13/01 A3001 RMK CU6AC1 SLP162

CYGK;2015-05-22 18:00;CYGK 221800Z 22009KT 15SM VCSH BKN055 BKN100 12/02 A3001 RMK CU5AC2 SLP165

CYGK;2015-05-22 19:00;CYGK 221900Z 18010G17KT 150V210 15SM VCSH BKN068 BKN100 11/04 A3002 RMK CU6AC1 SLP167

CYGK;2015-05-22 20:00;CYGK 222000Z 31011KT 240V320 15SM VCSH BKN080 13/M03 A3001 RMK CU7 SLP165

CYGK;2015-05-22 21:00;CYGK 222100Z 35016KT 15SM -SHRA FEW063 BKN080 12/00 A3004 RMK CF1CU6 SLP175

CYGK;2015-05-22 21:22;CYGK 222122Z 36009G15KT 15SM VCSH FEW060 BKN080 BKN100 12/01 A3006 RMK CF1CU6AC1 CF TR SLP180

CYGK;2015-05-22 22:00;CYGK 222200Z 01010G17KT 15SM VCSH BKN075 BKN100 11/M01 A3007 RMK CU5AC2 SLP186

CYGK;2015-05-22 23:00;CYGK 222300Z 34011KT 15SM VCSH SCT070 BKN095 11/M01 A3010 RMK CU4AC2 SLP194

CYGK;2015-05-23 00:00;CYGK 230000Z 32013G18KT 15SM FEW070 SCT090 09/M03 A3013 RMK AC1AC2 SHWRS SE SLP206

CYGK;2015-05-23 01:00;CYGK 230100Z 34011G17KT 15SM FEW070 07/M04 A3018 RMK AC2 SLP222

CYGK;2015-05-23 02:00;CYGK 230200Z 33007KT 15SM FEW070 05/M04 A3023 RMK AC1 SLP240

CYGK;2015-05-23 03:00;CYGK 230300Z 33008KT 15SM FEW040 04/M03 A3027 RMK SC1 SC TR LAST STFD OBS/NEXT 231000UTC SLP252

CYGK;2015-05-23 10:00;CYGK 231000Z 32003KT 15SM SKC M01/M03 A3036 RMK SLP284

CYGK;2015-05-23 11:00;CYGK 231100Z 25004KT 15SM SKC 02/M04 A3038 RMK SLP291

CYGK;2015-05-23 12:00;CYGK 231200Z 26005KT 15SM SKC 06/M04 A3040 RMK SLP297

CYGK;2015-05-23 13:00;CYGK 231300Z 23006KT 15SM SKC 08/M05 A3041 RMK SLP299

CYGK;2015-05-23 14:00;CYGK 231400Z 20012G17KT 15SM SKC 10/M01 A3041 RMK SLP302

CYGK;2015-05-23 15:00;CYGK 231500Z 19018KT 15SM SKC 09/M01 A3041 RMK SLP301

CYGK;2015-05-23 16:00;CYGK 231600Z 18015G20KT 15SM FEW250 09/03 A3040 RMK CI1 CI TR SLP297

CYGK;2015-05-23 17:00;CYGK 231700Z 19017G23KT 15SM FEW250 10/03 A3038 RMK CI1 CI TR SLP291

CYGK;2015-05-23 18:00;CYGK 231800Z 19015G23KT 15SM FEW200 11/03 A3036 RMK CI1 SLP285

CYGK;2015-05-23 19:00;CYGK 231900Z 19017KT 15SM FEW100 FEW250 10/03 A3035 RMK AC1CI1 SLP282

CYGK;2015-05-23 20:00;CYGK 232000Z 19014G22KT 15SM FEW100 SCT200 11/04 A3033 RMK AC2CI1 SLP275

CYGK;2015-05-23 21:00;CYGK 232100Z 19015KT 15SM FEW110 11/03 A3031 RMK AC2 SLP266

CYGK;2015-05-23 22:00;CYGK 232200Z 18013KT 15SM FEW110 10/03 A3028 RMK AC1 SLP256

CYGK;2015-05-23 23:00;CYGK 232300Z 19015KT 15SM SCT150 SCT250 10/02 A3025 RMK AC3CI1 SLP247

CYGK;2015-05-24 00:00;CYGK 240000Z 19009KT 15SM FEW150 FEW250 09/04 A3024 RMK AC1CI1 SLP244

CYGK;2015-05-24 01:00;CYGK 240100Z 21006KT 15SM FEW250 08/02 A3023 RMK CI1 SLP238

CYGK;2015-05-24 02:00;CYGK 240200Z 22008KT 15SM FEW250 08/02 A3022 RMK CI1 SLP237

CYGK;2015-05-24 03:00;CYGK 240300Z 21007KT 15SM SKC 09/02 A3021 RMK LAST STFD OBS/NEXT 241000UTC SLP233

CYGK;2015-05-24 10:00;CYGK 241000Z 19006KT 15SM FEW130 SCT250 09/03 A3021 RMK AC1CI2 SLP232

CYGK;2015-05-24 11:00;CYGK 241100Z 19005KT 15SM SCT120 10/04 A3023 RMK AC3 SLP237

CYGK;2015-05-24 12:00;CYGK 241200Z 19006KT 15SM SCT110 SCT250 13/05 A3024 RMK AC3CI1 SLP241

CYGK;2015-05-24 13:00;CYGK 241300Z 16006KT 15SM SCT120 BKN150 BKN250 13/06 A3024 RMK AC3AC3CI1 SLP242

CYGK;2015-05-24 14:00;CYGK 241400Z 15006KT 15SM FEW120 SCT150 BKN250 14/07 A3023 RMK AC2AC2CI2 SLP237

CYGK;2015-05-24 15:00;CYGK 241500Z 19007KT 15SM FEW150 BKN250 18/08 A3020 RMK AC1CI4 SLP230

CYGK;2015-05-24 16:00;CYGK 241600Z 20008KT 15SM BKN220 19/08 A3020 RMK CI6 SLP226 DENSITY ALT 500FT

CYGK;2015-05-24 17:00;CYGK 241700Z 19010KT 15SM BKN250 21/09 A3019 RMK CI7 SLP223 DENSITY ALT 700FT

CYGK;2015-05-24 18:00;CYGK 241800Z 22014G20KT 15SM FEW110 OVC240 23/08 A3018 RMK AC1CI8 AC TR SLP221 DENSITY ALT 1000FT

CYGK;2015-05-24 19:00;CYGK 241900Z 23015G24KT 15SM FEW060 BKN220 23/07 A3018 RMK CF1CI7 CF TR SLP219 DENSITY ALT 900FT

CYGK;2015-05-24 20:00;CYGK 242000Z 22013G20KT 15SM FEW060 BKN250 24/09 A3016 RMK CU1CI7 CU TR SLP213 DENSITY ALT 1100FT

CYGK;2015-05-24 21:00;CYGK 242100Z 19009KT 15SM FEW060 FEW120 BKN220 20/10 A3015 RMK CU1AC1CI6 CU TR SLP210 DENSITY ALT 600FT

CYGK;2015-05-24 22:00;CYGK 242200Z 19008KT 15SM FEW120 BKN220 15/08 A3014 RMK AC1CI6 SLP207

CYGK;2015-05-24 23:00;CYGK 242300Z 19007KT 15SM FEW120 BKN200 OVC270 14/08 A3013 RMK AC2CI4CI2 SLP204

CYGK;2015-05-25 00:00;CYGK 250000Z 18004KT 15SM SCT200 BKN270 13/08 A3014 RMK CI4CI3 SLP206

CYGK;2015-05-25 01:00;CYGK 250100Z 18003KT 15SM OVC240 12/08 A3014 RMK CI8 SLP206

CYGK;2015-05-25 02:00;CYGK 250200Z 22004KT 15SM BKN230 13/07 A3014 RMK CI7 SLP208

CYGK;2015-05-25 03:00;CYGK 250300Z VRB02KT 15SM OVC220 11/09 A3013 RMK CI8 LAST STFD OBS/NEXT 251000UTC SLP205

CYGK;2015-05-25 10:00;CYGK 251000Z 25007KT 15SM -SHRA FEW045 OVC073 16/11 A3017 RMK CU2AC6 SLP218

CYGK;2015-05-25 11:00;CYGK 251100Z 20004KT 15SM -RA FEW060 OVC100 16/13 A3016 RMK SC2AC6 SLP214

CYGK;2015-05-25 12:00;CYGK 251200Z VRB02KT 15SM -RA BKN090 OVC110 15/14 A3017 RMK AC5AC3 SLP216

CYGK;2015-05-25 13:00;CYGK 251300Z 16006KT 12SM -RA OVC090 12/10 A3016 RMK AC8 SLP216

CYGK;2015-05-25 14:00;CYGK 251400Z 11007KT 15SM -RA FEW040 BKN070 OVC100 14/12 A3014 RMK SC2AC3AC3 SLP206

CYGK;2015-05-25 14:24;CYGK 251424Z 12004KT 15SM FEW075 OVC100 15/13 A3013 RMK AC1AC7 SLP204

CYGK;2015-05-25 15:00;CYGK 251500Z 11003KT 040V130 15SM BKN082 OVC100 17/14 A3012 RMK AC5AC3 SLP199

CYGK;2015-05-25 16:00;CYGK 251600Z 22005KT 170V250 15SM SCT080 BKN180 OVC250 17/14 A3010 RMK AC3AS4CI1 SLP193 DENSITY ALT 400FT

CYGK;2015-05-25 17:00;CYGK 251700Z 16006KT 15SM FEW080 SCT160 OVC220 19/15 A3006 RMK AC1AC2CI5 SLP181 DENSITY ALT 600FT

CYGK;2015-05-25 18:00;CYGK 251800Z 17009KT 15SM BKN160 BKN250 20/13 A3004 RMK AC5CI2 SLP172 DENSITY ALT 700FT

CYGK;2015-05-25 19:00;CYGK 251900Z 19005KT 15SM SCT100 BKN160 OVC250 18/12 A3003 RMK AC3AC3CI2 SLP168 DENSITY ALT 600FT

CYGK;2015-05-25 19:12;CYGK 251912Z 22003KT 170V240 15SM -RA BKN090 OVC120 18/13 A3002 RMK AC6AC2 SLP168 DENSITY ALT 600FT

CYGK;2015-05-25 20:00;CYGK 252000Z 19006KT 15SM BKN063 OVC080 18/13 A3001 RMK SC7AC1 SLP162 DENSITY ALT 600FT

CYGK;2015-05-25 21:00;CYGK 252100Z 18004KT 15SM SCT060 BKN080 OVC120 18/13 A3000 RMK SC3AC2AC3 SLP160 DENSITY ALT 500FT

CYGK;2015-05-25 22:00;CYGK 252200Z 16005KT 15SM SCT055 BKN070 OVC120 16/12 A2999 RMK SC3AC3AC2 SLP156

CYGK;2015-05-25 23:00;CYGK 252300Z 15003KT 110V200 15SM SCT060 BKN100 OVC250 16/12 A2998 RMK SC3AC3CI2 SLP154

CYGK;2015-05-26 00:00;CYGK 260000Z 12003KT 15SM SCT060 BKN100 OVC250 16/12 A2997 RMK SC3AC3CI2 SLP150

CYGK;2015-05-26 01:00;CYGK 260100Z 15006KT 12SM VCSH BKN065 OVC130 14/13 A2996 RMK SC5AC3 PRESFR SLP148

CYGK;2015-05-26 02:00;CYGK 260200Z 19007KT 150V210 15SM BKN060 BKN100 OVC150 14/13 A2998 RMK SC5AC1AC2 SLP153

CYGK;2015-05-26 02:22;CYGK 260222Z 22005KT 140V250 10SM -SHRA BKN055 OVC100 13/13 A2998 RMK SC5AC3 SLP153

CYGK;2015-05-26 02:41;CYGK 260241Z 19007KT 12SM SCT055 BKN100 14/13 A2997 RMK SC4AC2 SLP148

CYGK;2015-05-26 03:00;CYGK 260300Z 19010KT 12SM FEW055 SCT100 BKN250 15/14 A2997 RMK SC1AC2CI2 LAST OBS/NEXT 261000 UTC SLP150

CYGK;2015-05-26 10:00;CYGK 261000Z 18006KT 10SM FEW050 SCT100 OVC250 13/13 A3003 RMK SC1AC2CI5 SLP168

CYGK;2015-05-26 11:00;CYGK 261100Z 20005KT 12SM FEW100 BKN250 14/13 A3005 RMK AC1CI6 VIS S 5 SLP178

CYGK;2015-05-26 12:00;CYGK 261200Z 21004KT 160V230 15SM FEW100 BKN250 15/14 A3006 RMK AC1CI7 AC TR SLP182

CYGK;2015-05-26 13:00;CYGK 261300Z 24010KT 15SM OVC250 19/16 A3007 RMK CI8 SLP182 DENSITY ALT 700FT

CYGK;2015-05-26 14:00;CYGK 261400Z 22010KT 160V240 15SM FEW020 FEW100 OVC250 21/18 A3007 RMK CF1AC1CI8 CF TR AC TR SLP183 DENSITY ALT 900FT

CYGK;2015-05-26 15:00;CYGK 261500Z 19009KT 15SM FEW025 SCT250 19/16 A3007 RMK CF1CI4 CF TR VIS S 7 SLP184 DENSITY ALT 600FT

CYGK;2015-05-26 16:00;CYGK 261600Z 19015KT 15SM FEW025 BKN250 16/12 A3008 RMK CU1CI5 CU TR VIS S 7 SLP186

CYGK;2015-05-26 17:00;CYGK 261700Z 20011KT 15SM FEW030 OVC250 22/17 A3007 RMK CU1CI7 SLP182 DENSITY ALT 900FT

CYGK;2015-05-26 18:00;CYGK 261800Z 19010G15KT 15SM FEW035 BKN250 24/18 A3008 RMK CU1CI5 SLP185 DENSITY ALT 1200FT

CYGK;2015-05-26 19:00;CYGK 261900Z 19009KT 15SM FEW035 BKN250 24/18 A3006 RMK CU1CI7 CU TR SLP180 DENSITY ALT 1200FT

CYGK;2015-05-26 20:00;CYGK 262000Z 19008KT 15SM FEW040 BKN250 20/16 A3005 RMK CU1CI7 CU TR SLP177 DENSITY ALT 800FT

CYGK;2015-05-26 21:00;CYGK 262100Z 21008KT 15SM FEW045 FEW100 OVC250 24/19 A3004 RMK CU1AC1CI7 AC TR SLP174 DENSITY ALT 1200FT

CYGK;2015-05-26 22:00;CYGK 262200Z 19007KT 15SM FEW045 FEW140 BKN270 20/16 A3003 RMK CU1AC1CI6 AC TR TCU TOPS S SLP169 DENSITY ALT 700FT

CYGK;2015-05-26 23:00;CYGK 262300Z 17006KT 15SM FEW045 SCT140 BKN270 16/15 A3002 RMK CU1AC3CI4 CU TR SLP167 DENSITY ALT 400FT

CYGK;2015-05-27 00:00;CYGK 270000Z 18003KT 15SM SCT160 BKN270 17/15 A3001 RMK AC3CI4 SLP161 DENSITY ALT 400FT

CYGK;2015-05-27 01:00;CYGK 270100Z VRB02KT 15SM FEW090 SCT150 BKN270 16/15 A3000 RMK AC1AC2CI3 SLP160 DENSITY ALT 400FT

CYGK;2015-05-27 02:00;CYGK 270200Z 00000KT 15SM SCT060 BKN150 BKN270 17/16 A3001 RMK SC4AC2CI1 SLP161 DENSITY ALT 500FT

CYGK;2015-05-27 03:00;CYGK 270300Z VRB02KT 15SM SCT050 BKN140 BKN270 17/16 A3001 RMK SC3AC2CI1 SLP162 DENSITY ALT 500FT

CYGK;2015-05-27 10:00;CYGK 271000Z 26004KT 190V280 6SM BR BKN042 OVC100 16/15 A2997 RMK SC7AC1 VIS E 21/2 SLP149 DENSITY ALT 400FT

CYGK;2015-05-27 10:07;CYGK 271007Z 24005KT 210V280 6SM BR FEW005 BKN041 OVC100 16/16 A2997 RMK SF1SC7AC1 SF TR VIS E 21/2 SLP150 DENSITY ALT 400FT

CYGK;2015-05-27 11:00;CYGK 271100Z 18006KT 10SM BKN037 BKN100 16/15 A2998 RMK SC6AC1 VIS E-S 5 SLP153 DENSITY ALT 400FT

CYGK;2015-05-27 11:06;CYGK 271106Z 18006KT 10SM -SHRA BKN035 OVC095 16/16 A2998 RMK SC7AC1 CU EMBD VIS S 6 SLP153 DENSITY ALT 400FT

CYGK;2015-05-27 11:35;CYGK 271135Z 18007KT 10SM BKN033 OVC120 16/15 A2998 RMK SC7AC1 CU ASOCTD VIS S 5 SLP154 DENSITY ALT 400FT

CYGK;2015-05-27 12:00;CYGK 271200Z 20003KT 10SM -SHRA BKN040 OVC120 17/16 A2999 RMK SC7AC1 VIS SE 5 SLP155 DENSITY ALT 500FT

CYGK;2015-05-27 13:00;CYGK 271300Z 19006KT 8SM -SHRA FEW010 SCT027 BKN090 OVC120 15/14 A3000 RMK SF1SC4AC3AC1 SF TR SLP159

CYGK;2015-05-27 14:00;CYGK 271400Z 19012KT 130V200 8SM FEW030 BKN078 OVC100 16/16 A2999 RMK SC1AC5AC2 OCNL -SHRA SLP157 DENSITY ALT 400FT

CYGK;2015-05-27 15:00;CYGK 271500Z 22008KT 10SM FEW025 SCT035 BKN085 BKN160 20/18 A3000 RMK CU1SC2AC2AC1 SLP158 DENSITY ALT 800FT

CYGK;2015-05-27 16:00;CYGK 271600Z 19011KT 12SM FEW022 FEW042 BKN090 BKN170 19/16 A3001 RMK CU1SC1AC3AC2 SLP163 DENSITY ALT 700FT

CYGK;2015-05-27 17:00;CYGK 271700Z 18012KT 12SM FEW020 SCT055 BKN250 20/16 A3001 RMK CU1SC2CI3 VIS S 3 SLP163 DENSITY ALT 800FT

CYGK;2015-05-27 18:00;CYGK 271800Z CCA 19009KT 15SM FEW030 SCT090 BKN250 21/18 A2999 RMK CU1AC2CI4 VIS S 6 SLP156 DENSITY ALT 1000FT

CYGK;2015-05-27 19:00;CYGK 271900Z 18011KT 15SM FEW030 FEW160 BKN250 18/15 A2998 RMK CU1ACC1CI7 CU TR ACC TR VIS S 5 SLP152 DENSITY ALT 600FT

CYGK;2015-05-27 20:00;CYGK 272000Z 19011KT 15SM FEW030 FEW160 SCT240 19/15 A2995 RMK CU1AC1CI4 CU TR AC TR VIS S 6 SLP142 DENSITY ALT 800FT

CYGK;2015-05-27 21:00;CYGK 272100Z 19009KT 15SM FEW030 FEW160 FEW240 20/16 A2995 RMK CU1AC1CI2 CU TR AC TR SLP140 DENSITY ALT 900FT

CYGK;2015-05-27 22:00;CYGK 272200Z 18010KT 15SM FEW030 FEW240 19/15 A2995 RMK CU1CI2 CU TR SLP141 DENSITY ALT 800FT

CYGK;2015-05-27 23:00;CYGK 272300Z 17008KT 15SM FEW030 SCT240 16/13 A2996 RMK CU1CI3 CU TR SLP145 DENSITY ALT 400FT

CYGK;2015-05-28 00:00;CYGK 280000Z 18008KT 15SM FEW030 FEW100 SCT240 15/13 A2997 RMK CU1AC1CI2 SLP148

CYGK;2015-05-28 01:00;CYGK 280100Z 19006KT 15SM FEW030 FEW100 FEW240 14/12 A2996 RMK CU1AC1CI1 CU TR SLP147

CYGK;2015-05-28 02:00;CYGK 280200Z 23006KT 15SM SCT120 16/12 A2998 RMK AC3 SLP154 DENSITY ALT 400FT

CYGK;2015-05-28 03:00;CYGK 280300Z 23006KT 15SM FEW110 BKN180 17/13 A2998 RMK AC2AC3 LAST STFD OBS/NEXT 281000 UTC SLP153 DENSITY ALT 500FT

CYGK;2015-05-28 10:00;CYGK 281000Z 23013KT 15SM BKN011 OVC070 16/14 A3002 RMK SC6AC2 SLP167

CYGK;2015-05-28 10:21;CYGK 281021Z 23010KT 15SM SCT011 BKN070 16/14 A3003 RMK SC4AC3 SLP168

CYGK;2015-05-28 11:00;CYGK 281100Z 20006KT 8SM FEW010 SCT020 BKN090 15/13 A3004 RMK SC1SC3AC3 SLP172

CYGK;2015-05-28 12:00;CYGK 281200Z 25010KT 7SM SCT010 BKN019 BKN030 15/13 A3006 RMK CF3SC2SC2 SLP180

CYGK;2015-05-28 13:00;CYGK 281300Z 24010KT 15SM VCSH SCT022 BKN040 BKN080 16/13 A3007 RMK CU4SC3AC1 AC TR SH W-NW VIS LWR SLP185

CYGK;2015-05-28 13:08;CYGK 281308Z 25009KT 10SM -RA BKN019 BKN040 15/13 A3008 RMK SC5SC2 VIS W 3 SLP187

CYGK;2015-05-28 13:42;CYGK 281342Z 28008KT 240V310 15SM VCSH SCT009 BKN027 OVC080 15/14 A3009 RMK CF3CU4AC1 VIS LWR SE-S SLP191

CYGK;2015-05-28 14:00;CYGK 281400Z 27007KT 240V310 15SM VCSH FEW009 SCT027 BKN044 BKN250 17/15 A3009 RMK CF2CU2SC2CI1 SLP189

CYGK;2015-05-28 15:00;CYGK 281500Z 31013KT 15SM BKN026 BKN080 19/13 A3011 RMK CU7AC1 AC TR SLP195 DENSITY ALT 600FT

CYGK;2015-05-28 16:00;CYGK 281600Z 31012G18KT 15SM BKN030 20/13 A3014 RMK CU7 SLP207 DENSITY ALT 600FT

CYGK;2015-05-28 17:00;CYGK 281700Z 33013G22KT 15SM BKN035 BKN250 21/14 A3016 RMK CU6CI1 SLP214 DENSITY ALT 800FT

CYGK;2015-05-28 18:00;CYGK 281800Z 31013G21KT 15SM SCT045 SCT250 23/12 A3018 RMK CU4CI1 CI TR SLP220 DENSITY ALT 1000FT

CYGK;2015-05-28 19:00;CYGK 281900Z 32010KT 15SM BKN052 BKN240 24/12 A3020 RMK CU5CI1 SLP225 DENSITY ALT 1100FT

CYGK;2015-05-28 20:00;CYGK 282000Z 30007G15KT 270V340 15SM SCT057 BKN250 25/13 A3020 RMK CU4CI1 SLP227 DENSITY ALT 1100FT

CYGK;2015-05-28 21:00;CYGK 282100Z 22007KT 15SM SCT060 BKN250 20/15 A3020 RMK CU4CI1 SLP228 DENSITY ALT 600FT

CYGK;2015-05-28 22:00;CYGK 282200Z 19008KT 15SM FEW060 SCT250 16/12 A3020 RMK CU2CI2 SLP228

CYGK;2015-05-28 23:00;CYGK 282300Z 18007KT 15SM FEW060 SCT240 15/12 A3021 RMK CU1CI2 SLP230

CYGK;2015-05-29 00:00;CYGK 290000Z 15003KT 15SM FEW060 FEW240 14/11 A3022 RMK CU1CI2 CU TR SLP235

CYGK;2015-05-29 01:00;CYGK 290100Z 14005KT 15SM FEW060 FEW240 13/11 A3024 RMK CU1CI2 CU TR SLP241

CYGK;2015-05-29 02:00;CYGK 290200Z 14006KT 15SM FEW240 12/10 A3026 RMK CI2 SLP250

CYGK;2015-05-29 03:00;CYGK 290300Z 15005KT 15SM SKC 12/10 A3027 RMK LAST STFD OBS/NEXT 291000UTC SLP251

CYGK;2015-05-29 10:00;CYGK 291000Z 10002KT 15SM MIFG SCT270 10/10 A3028 RMK CI4 SLP255

CYGK;2015-05-29 11:00;CYGK 291100Z 15005KT 12SM BKN270 13/12 A3028 RMK CI5 SLP255

CYGK;2015-05-29 12:00;CYGK 291200Z 17005KT 15SM SCT270 14/12 A3029 RMK CI4 SLP257

CYGK;2015-05-29 13:00;CYGK 291300Z 18006KT 15SM BKN270 15/13 A3029 RMK CI6 SLP259

CYGK;2015-05-29 14:00;CYGK 291400Z 20006KT 15SM BKN270 17/13 A3029 RMK CI6 SLP257

CYGK;2015-05-29 15:00;CYGK 291500Z 18006KT 15SM BKN270 17/13 A3027 RMK CI7 SLP251

CYGK;2015-05-29 16:00;CYGK 291600Z 17005KT 15SM FEW030 SCT200 BKN270 18/14 A3026 RMK CU1CI4CI3 CU TR SLP249

CYGK;2015-05-29 17:00;CYGK 291700Z 16004KT 130V200 15SM FEW025 OVC240 20/14 A3025 RMK CU1CI8 CU TR SLP244 DENSITY ALT 600FT

CYGK;2015-05-29 18:00;CYGK 291800Z 20005KT 12SM FEW025 SCT180 BKN240 22/14 A3023 RMK CU1AC4CI3 CU TR SLP239 DENSITY ALT 700FT

CYGK;2015-05-29 19:00;CYGK 291900Z 19003KT 170V230 15SM FEW140 BKN220 23/14 A3021 RMK AC1CI6 SLP232 DENSITY ALT 900FT

CYGK;2015-05-29 20:00;CYGK 292000Z 18007KT 15SM BKN220 24/12 A3019 RMK CI7 SLP225 DENSITY ALT 1100FT

CYGK;2015-05-29 21:00;CYGK 292100Z 16005KT 15SM BKN200 24/12 A3016 RMK CI7 SLP213 DENSITY ALT 1100FT

CYGK;2015-05-29 22:00;CYGK 292200Z 18005KT 15SM BKN200 24/12 A3014 RMK CI6 SLP205 DENSITY ALT 1100FT

CYGK;2015-05-29 23:00;CYGK 292300Z 15005KT 15SM BKN200 23/11 A3011 RMK CI6 SLP196 DENSITY ALT 1100FT

CYGK;2015-05-30 00:00;CYGK 300000Z 12003KT 15SM FEW150 BKN210 23/12 A3009 RMK AC1CI6 SLP191 DENSITY ALT 1000FT

CYGK;2015-05-30 01:00;CYGK 300100Z 12004KT 15SM FEW150 BKN210 21/12 A3008 RMK AC1CI5 SLP187 DENSITY ALT 800FT

CYGK;2015-05-30 02:00;CYGK 300200Z 12005KT 15SM FEW140 SCT210 21/13 A3007 RMK AC2CI2 SLP184 DENSITY ALT 900FT

CYGK;2015-05-30 03:00;CYGK 300300Z 14008KT 15SM SCT140 SCT210 22/13 A3005 RMK AC3CI1 LAST STFD OBS/NEXT 301000 UTC SLP176 DENSITY ALT 1000FT

CYGK;2015-05-30 10:00;CYGK 301000Z 19007KT 12SM FEW025TCU FEW050 SCT140 BKN250 15/14 A2999 RMK TCU1SC1AC1CI3 SLP154

CYGK;2015-05-30 11:00;CYGK 301100Z 19008KT 12SM FEW040 FEW140 BKN250 16/14 A2999 RMK SC1AC1CI4 SC TR ACC ASOCTD SLP155 DENSITY ALT 400FT

CYGK;2015-05-30 12:00;CYGK 301200Z 20007KT 12SM FEW140 SCT250 17/14 A2999 RMK AC1CI3 SLP156 DENSITY ALT 500FT

CYGK;2015-05-30 13:00;CYGK 301300Z 20008KT 8SM FEW140 SCT250 19/16 A2999 RMK AC1CI3 SLP155 DENSITY ALT 700FT

CYGK;2015-05-30 14:00;CYGK 301400Z 20011G16KT 12SM FEW044 SCT120 BKN160 BKN250 21/17 A2998 RMK CU1AC3AC2CI1 CU TR ACC ASOCTD SLP153 DENSITY ALT 900FT

CYGK;2015-05-30 15:00;CYGK 301500Z 20010G16KT 10SM FEW040 BKN120 BKN250 21/17 A2998 RMK CU1AC4CI2 SLP153 DENSITY ALT 1000FT

CYGK;2015-05-30 16:00;CYGK 301600Z 19010G15KT 12SM FEW044 SCT120 BKN220 20/17 A2998 RMK CU1AC3CI4 CU TR SLP150 DENSITY ALT 900FT

CYGK;2015-05-30 17:00;CYGK 301700Z 17005KT 12SM FEW040 BKN071 BKN220 22/17 A2996 RMK CU1AC5CI1 SLP144 DENSITY ALT 1100FT

CYGK;2015-05-30 18:00;CYGK 301800Z 18010KT 15SM FEW070CB BKN220 21/16 A2994 RMK CB2CI5 CB DIST S SLP137 DENSITY ALT 1000FT

CYGK;2015-05-30 19:00;CYGK 301900Z 20012G19KT 15SM FEW030 FEW070 BKN220 23/18 A2992 RMK CU1AC1CI5 CB TOPS DIST N AND SE SLP133 DENSITY ALT 1200FT

CYGK;2015-05-30 20:00;CYGK 302000Z 19008KT 15SM FEW030CB SCT140 BKN220 23/18 A2990 RMK CB2AC1CI2 SLP126 DENSITY ALT 1200FT

CYGK;2015-05-30 21:00;CYGK 302100Z 20007KT 15SM FEW030TCU FEW140 SCT220 22/17 A2990 RMK TCU1AC1CI2 CB TOPS DIST SE SLP124 DENSITY ALT 1100FT

CYGK;2015-05-30 22:00;CYGK 302200Z 19006KT 170V230 15SM BKN040TCU BKN100 BKN250 21/16 A2989 RMK TCU5AC1CI1 CB TOPS DIST SE-S SH DIST W-NE SLP121 DENSITY ALT 1100FT

CYGK;2015-05-30 22:17;CYGK 302217Z 30016KT 220V330 15SM -SHRA FEW020 BKN038TCU BKN100 24/19 A2990 RMK SF1TCU5AC1 PRESRR SLP126 DENSITY ALT 1400FT

CYGK;2015-05-30 22:31;CYGK 302231Z 30013G22KT 15SM FEW020 SCT038TCU BKN090 BKN250 24/20 A2991 RMK SF1TCU3AC2CI1 CB TOPS DIST N-S SLP129 DENSITY ALT 1400FT

CYGK;2015-05-30 23:00;CYGK 302300Z 30010G17KT 15SM FEW020 BKN040TCU BKN090 23/19 A2991 RMK SF1TCU5AC2 SF TR SLP128 DENSITY ALT 1200FT

CYGK;2015-05-31 00:00;CYGK 310000Z 31005KT 270V340 15SM FEW020 SCT040TCU BKN090 BKN250 22/19 A2991 RMK SF1TCU4AC2CI1 SF TR SH DIST N SLP127 DENSITY ALT 1100FT

CYGK;2015-05-31 01:00;CYGK 310100Z 22003KT 15SM FEW020 FEW040TCU BKN110 BKN250 19/18 A2994 RMK SF1TCU2AC3CI1 SF TR SLP139 DENSITY ALT 800FT

CYGK;2015-05-31 02:00;CYGK 310200Z 20004KT 140V210 15SM FEW014 BKN050 BKN075 17/16 A2997 RMK SF1SC4AC2 SLP148 DENSITY ALT 500FT

CYGK;2015-05-31 02:21;CYGK 310221Z 26004KT 190V280 12SM -SHRA SCT010 BKN025TCU OVC050 17/16 A2998 RMK SF4TCU2SC2 SLP151 DENSITY ALT 500FT

CYGK;2015-05-31 03:00;CYGK 310300Z 36012KT 10SM -SHRA BKN011 OVC024TCU 16/15 A3000 RMK SF5TCU3 LAST STFD OBS/NEXT 311000 UTC SLP157 DENSITY ALT 400FT

CYGK;2015-05-31 10:00;CYGK 311000Z 04010G18KT 6SM -RA BR SCT018 OVC055 08/07 A3017 RMK SF4NS4 SLP216

CYGK;2015-05-31 11:00;CYGK 311100Z 02014G24KT 8SM -RA FEW018 OVC065 08/06 A3020 RMK SF2NS6 SLP226

CYGK;2015-05-31 12:00;CYGK 311200Z 04015G20KT 12SM FEW020 BKN065 OVC087 08/05 A3020 RMK SF1NS5AC3 SF TR INTMT -RA SLP227

CYGK;2015-05-31 12:45;CYGK 311245Z 03013G21KT 15SM FEW020 OVC085 08/05 A3021 RMK CU1AC7 SLP232

CYGK;2015-05-31 13:00;CYGK 311300Z 03015KT 15SM FEW020 OVC090 09/05 A3021 RMK CF1AC7 SLP230

CYGK;2015-05-31 13:36;CYGK 311336Z 02012G23KT 15SM -RA FEW020 OVC095 09/05 A3022 RMK CF1AS7 SLP234

CYGK;2015-05-31 14:00;CYGK 311400Z 03017G26KT 15SM FEW022 OVC095 09/04 A3023 RMK CF2AS6 SLP237

CYGK;2015-05-31 14:23;CYGK 311423Z 03015G21KT 15SM -RA SCT022 OVC095 09/05 A3024 RMK SC3AC5 SLP242

CYGK;2015-05-31 15:00;CYGK 311500Z 01010G25KT 15SM -RA BKN020 OVC100 09/06 A3026 RMK SC6AC2 SLP247

CYGK;2015-05-31 16:00;CYGK 311600Z 03010G18KT 15SM -RA BKN016 OVC090 09/06 A3026 RMK CU5AS3 SLP249

CYGK;2015-05-31 17:00;CYGK 311700Z 03015G24KT 15SM -RA SCT016 OVC050 08/06 A3025 RMK SC4SC4 SLP245

CYGK;2015-05-31 18:00;CYGK 311800Z 02012G22KT 15SM -RA SCT013 BKN020 OVC050 09/07 A3026 RMK SF3SC3SC2 SLP248

CYGK;2015-05-31 19:00;CYGK 311900Z 04013G23KT 15SM -RA SCT013 BKN020 OVC100 09/06 A3026 RMK SF3SC2AC3 PRESFR SLP248

CYGK;2015-05-31 20:00;CYGK 312000Z 04012G19KT 15SM -RA FEW018 OVC040 10/07 A3023 RMK CF1SC7 SLP238

CYGK;2015-05-31 21:00;CYGK 312100Z 04014G20KT 15SM FEW018 SCT030 OVC100 11/05 A3022 RMK CF1SC3AC4 SLP234

CYGK;2015-05-31 22:00;CYGK 312200Z 04013G19KT 15SM -RA FEW015 SCT030 OVC095 11/05 A3021 RMK CF1SC3AC5 CF TR SLP230

CYGK;2015-05-31 23:00;CYGK 312300Z 03010G15KT 15SM FEW015 FEW030 BKN095 10/06 A3021 RMK CF1SC1AC6 CF TR INTMT -RA SLP231

CYGK;2015-06-01 00:00;CYGK 010000Z 04014KT 15SM -RA OVC095 10/06 A3020 RMK AC8 SLP230

CYGK;2015-06-01 01:00;CYGK 010100Z 04012KT 5SM -RA BR BKN050 OVC075 09/07 A3022 RMK SC6AC2 SLP235

CYGK;2015-06-01 02:00;CYGK 010200Z 04012KT 8SM -RA OVC095 09/07 A3021 RMK AC8 SLP233

CYGK;2015-06-01 03:00;CYGK 010300Z 05010G16KT 8SM -RA SCT055 OVC095 09/07 A3021 RMK SC3AC5 LAST STFD OBS/NEXT 011000UTC SLP233

CYGK;2015-06-01 10:00;CYGK 011000Z 04012G21KT 8SM -RA SCT010 OVC023 09/08 A3013 RMK SF4SC4 SLP206

CYGK;2015-06-01 11:00;CYGK 011100Z 04010G19KT 6SM -RA SCT011 OVC022 09/08 A3015 RMK SF3SC5 VIS S 4 BR SLP212

CYGK;2015-06-01 11:12;CYGK 011112Z 04015KT 4SM -RA BR SCT012 OVC021 09/08 A3015 RMK SF4SC4 SLP213

CYGK;2015-06-01 11:47;CYGK 011147Z 04012G20KT 5SM -RA BR BKN009 OVC023 09/08 A3017 RMK SF6SC2 SLP217

CYGK;2015-06-01 12:00;CYGK 011200Z 04014G23KT 5SM -RA BR BKN009 OVC024 09/08 A3017 RMK SF5SC3 SLP217

CYGK;2015-06-01 12:41;CYGK 011241Z 05012G21KT 8SM 10/09 A3017 RMK SLP217

CYGK;2015-06-01 13:00;CYGK 011300Z 04012G21KT 15SM -RA BKN009 OVC024 10/09 A3017 RMK SF6SC2 SLP218

CYGK;2015-06-01 13:24;CYGK 011324Z 04011G20KT 15SM OVC010 10/09 A3017 RMK SC8 SLP219

CYGK;2015-06-01 14:00;CYGK 011400Z 04016KT 11SM OVC012 11/09 A3017 RMK SC8 SLP218

CYGK;2015-06-01 14:25;CYGK 011425Z 05014G21KT 3SM -DZ BR OVC010 11/09 A3017 RMK ST8 SLP219

CYGK;2015-06-01 15:00;CYGK 011500Z 05013G23KT 5SM -DZ BR OVC010 12/09 A3018 RMK ST8 SLP221

CYGK;2015-06-01 16:00;CYGK 011600Z 04016G21KT 8SM -DZ OVC014 12/10 A3018 RMK ST8 CIG RAG SLP221

CYGK;2015-06-01 16:45;CYGK 011645Z 03011G18KT 3SM -DZ BR OVC009 12/10 A3019 RMK ST8 CIG RAG SLP224

CYGK;2015-06-01 17:00;CYGK 011700Z 05013G19KT 4SM -DZ BR OVC012 12/10 A3019 RMK ST8 CIG RAG SLP225

CYGK;2015-06-01 17:50;CYGK 011750Z 03009G19KT 5SM -RA BR OVC012 12/11 A3018 RMK SC8 CIG RAG SLP222

CYGK;2015-06-01 18:00;CYGK 011800Z 04012G18KT 5SM -RA BR OVC014 12/11 A3018 RMK SC8 CIG RAG SLP222

CYGK;2015-06-01 18:42;CYGK 011842Z 04012G21KT 10SM BKN015 OVC025 13/10 A3018 RMK SC7SC1 VIS N-NE 2 INTMT -RA SLP221

CYGK;2015-06-01 19:00;CYGK 011900Z 03013G18KT 4SM -RA BR SCT010 BKN016 OVC025 12/11 A3018 RMK SF3SC4SC1 SLP221

CYGK;2015-06-01 19:36;CYGK 011936Z 05014G21KT 15SM SCT013 OVC020 13/10 A3017 RMK SC4SC4 SLP219

CYGK;2015-06-01 20:00;CYGK 012000Z 04013G19KT 15SM BKN015 OVC020 13/10 A3017 RMK SC5SC3 SLP217

CYGK;2015-06-01 21:00;CYGK 012100Z 02012G18KT 15SM BKN019 OVC035 13/09 A3016 RMK SC7SC1 SLP216

CYGK;2015-06-01 22:00;CYGK 012200Z 03009G16KT 15SM VCSH BKN023 OVC035 14/09 A3017 RMK SC7SC1 SLP217

CYGK;2015-06-01 23:00;CYGK 012300Z 04010G16KT 15SM VCSH BKN023 OVC035 13/09 A3018 RMK SC6SC2 SLP221

CYGK;2015-06-02 00:00;CYGK 020000Z 04012KT 15SM SCT015 OVC055 13/09 A3018 RMK SC4SC4 SLP222

CYGK;2015-06-02 01:00;CYGK 020100Z 04007KT 010V070 15SM BKN018 BKN052 12/09 A3019 RMK SC5SC2 SLP224

CYGK;2015-06-02 02:00;CYGK 020200Z 02008KT 15SM SCT017 BKN053 12/09 A3019 RMK SC3SC4 SLP226

CYGK;2015-06-02 03:00;CYGK 020300Z 04011KT 15SM BKN017 BKN075 12/09 A3018 RMK SC5AC2 LAST STFD OBS/NEXT 021000UTC SLP223

CYGK;2015-06-02 10:00;CYGK 021000Z 36008KT 8SM -DZ BKN004 OVC015 10/10 A3018 RMK ST7SC1 SLP220

CYGK;2015-06-02 10:19;CYGK 021019Z 36007KT 10SM SCT004 BKN015 OVC035 10/10 A3018 RMK ST3SC3SC2 SLP222

CYGK;2015-06-02 10:50;CYGK 021050Z 01009KT 10SM BKN006 BKN016 OVC032 11/10 A3018 RMK SF5SC1SC2 SLP223

CYGK;2015-06-02 11:00;CYGK 021100Z 01008KT 10SM BKN007 BKN018 OVC030 11/10 A3018 RMK SF5SC1SC2 SLP223

CYGK;2015-06-02 12:00;CYGK 021200Z 01010KT 15SM SCT008 BKN016 BKN030 11/09 A3019 RMK SF3SC3SC1 SLP225

CYGK;2015-06-02 12:26;CYGK 021226Z 02009KT 15SM FEW008 BKN012 BKN030 12/09 A3019 RMK SF1SC4SC2 SLP226

CYGK;2015-06-02 13:00;CYGK 021300Z 35009KT 15SM OVC013 12/09 A3021 RMK SC8 SLP230

CYGK;2015-06-02 13:55;CYGK 021355Z 02008G15KT 15SM BKN018 12/09 A3021 RMK SC7 SLP232

CYGK;2015-06-02 14:00;CYGK 021400Z 01012KT 15SM BKN019 13/08 A3021 RMK SC7 SLP232

CYGK;2015-06-02 15:00;CYGK 021500Z 36010KT 15SM BKN025 14/09 A3020 RMK SC7 SLP227

CYGK;2015-06-02 16:00;CYGK 021600Z 01010G18KT 350V060 15SM BKN031 15/08 A3020 RMK SC7 SLP228

CYGK;2015-06-02 17:00;CYGK 021700Z 04009KT 15SM SCT025 BKN037 15/09 A3021 RMK CU4SC3 SLP231

CYGK;2015-06-02 18:00;CYGK 021800Z 05006KT 15SM SCT025 BKN036 BKN230 16/08 A3019 RMK CU3SC3CI1 CI TR SLP225

CYGK;2015-06-02 19:00;CYGK 021900Z 06011KT 040V110 15SM BKN037 BKN270 17/09 A3019 RMK CU5CI2 SLP224

CYGK;2015-06-02 20:00;CYGK 022000Z 10010KT 060V120 15SM BKN038 BKN270 17/10 A3018 RMK CU5CI1 SLP221

CYGK;2015-06-02 21:00;CYGK 022100Z 10012KT 15SM SCT042 BKN270 15/09 A3018 RMK CU3CI2 SLP219

CYGK;2015-06-02 22:00;CYGK 022200Z 08012KT 15SM FEW041 SCT270 16/09 A3017 RMK SC2CI2 SLP218

CYGK;2015-06-02 23:00;CYGK 022300Z 06010G17KT 15SM FEW040 SCT270 16/08 A3018 RMK SC2CI2 SLP219

CYGK;2015-06-03 00:00;CYGK 030000Z 09008KT 15SM FEW040 SCT270 14/09 A3019 RMK SC1CI2 SLP226

CYGK;2015-06-03 01:00;CYGK 030100Z 09005KT 15SM FEW040 FEW270 12/08 A3021 RMK SC1CI2 SC TR SLP232

CYGK;2015-06-03 02:00;CYGK 030200Z 06004KT 15SM FEW270 12/08 A3022 RMK CI2 SLP234

CYGK;2015-06-03 03:00;CYGK 030300Z 01003KT 15SM FEW270 09/08 A3023 RMK CI2 LAST STAFFED OBS/NEXT 031000 UTC SLP237

CYGK;2015-06-03 10:00;CYGK 031000Z 02005KT 15SM SCT250 05/05 A3025 RMK CI4 SLP244

CYGK;2015-06-03 11:00;CYGK 031100Z VRB02KT 15SM FEW010 SCT250 10/09 A3026 RMK SF1CI4 SF TR SLP249

CYGK;2015-06-03 12:00;CYGK 031200Z 09005KT 15SM BKN250 12/09 A3027 RMK CI5 SLP252

CYGK;2015-06-03 13:00;CYGK 031300Z 10007KT 15SM SCT250 14/09 A3027 RMK CI3 SLP253

CYGK;2015-06-03 14:00;CYGK 031400Z 12008KT 15SM FEW025 FEW250 15/07 A3027 RMK CF1CI2 CF TR SLP253

CYGK;2015-06-03 15:00;CYGK 031500Z 15008KT 15SM FEW035 FEW250 16/06 A3027 RMK CF1CI2 CF TR SLP252

CYGK;2015-06-03 16:00;CYGK 031600Z 13005KT 110V180 15SM FEW035 FEW250 17/08 A3026 RMK CF1CI2 CF TR SLP250

CYGK;2015-06-03 17:00;CYGK 031700Z 20006KT 15SM FEW035 BKN250 16/08 A3025 RMK CF1CI5 CF TR SLP246

CYGK;2015-06-03 18:00;CYGK 031800Z 18004KT 160V230 15SM FEW035 BKN250 17/09 A3023 RMK CF1CI5 CF TR SLP239

CYGK;2015-06-03 19:00;CYGK 031900Z 19006KT 15SM FEW040 BKN250 18/09 A3022 RMK CF1CI6 CF TR SLP234 DENSITY ALT 400FT

CYGK;2015-06-03 20:00;CYGK 032000Z 16006KT 15SM FEW040 SCT250 19/09 A3020 RMK CF1CI4 CF TR SLP229 DENSITY ALT 400FT

CYGK;2015-06-03 21:00;CYGK 032100Z 15004KT 15SM FEW040 SCT250 20/09 A3018 RMK CF1CI4 CF TR SLP223 DENSITY ALT 600FT

CYGK;2015-06-03 22:00;CYGK 032200Z 18006KT 15SM SCT250 20/09 A3016 RMK CI3 SLP216 DENSITY ALT 600FT

CYGK;2015-06-03 23:00;CYGK 032300Z VRB03KT 15SM SCT250 19/10 A3015 RMK CI4 SLP211 DENSITY ALT 600FT

CYGK;2015-06-04 00:00;CYGK 040000Z 19002KT 15SM BKN250 18/11 A3015 RMK CI5 SLP211 DENSITY ALT 400FT

CYGK;2015-06-04 01:00;CYGK 040100Z 00000KT 15SM SCT250 15/10 A3016 RMK CI3 SLP213

CYGK;2015-06-04 02:00;CYGK 040200Z 03002KT 15SM FEW250 14/10 A3017 RMK CI2 SLP217

CYGK;2015-06-04 03:00;CYGK 040300Z 06005KT 15SM SCT250 14/09 A3018 RMK CI3 LAST STFD OBS / NEXT 041000 UTC SLP219

CYGK;2015-06-04 10:00;CYGK 041000Z 07005KT 15SM BKN250 09/08 A3017 RMK CI5 SLP217

CYGK;2015-06-04 11:00;CYGK 041100Z 07002KT 15SM BKN250 13/10 A3018 RMK CI6 SLP222

CYGK;2015-06-04 12:00;CYGK 041200Z 15003KT 130V190 15SM BKN250 14/09 A3019 RMK CI6 SLP225

CYGK;2015-06-04 13:00;CYGK 041300Z 18005KT 140V220 15SM FEW080 BKN250 15/10 A3021 RMK AC1CI7 AC TR SLP230

CYGK;2015-06-04 14:00;CYGK 041400Z 15006KT 120V210 15SM FEW080 BKN250 16/10 A3020 RMK AC1CI7 AC TR SLP229

CYGK;2015-06-04 15:00;CYGK 041500Z 16006KT 15SM FEW030 FEW080 BKN250 17/12 A3020 RMK CF1AC1CI7 CF TR AC TR SLP228

CYGK;2015-06-04 16:00;CYGK 041600Z 16005KT 15SM FEW025 FEW080 BKN250 19/12 A3019 RMK CU1AC1CI5 CU TR AC TR SLP224 DENSITY ALT 400FT

CYGK;2015-06-04 17:00;CYGK 041700Z 16007KT 15SM FEW030 FEW080 BKN250 20/12 A3018 RMK CF1AC1CI6 CF TR AC TR SLP220 DENSITY ALT 600FT

CYGK;2015-06-04 18:00;CYGK 041800Z 20006KT 150V220 15SM FEW035 FEW100 BKN250 21/13 A3015 RMK CU1AC1CI5 CU TR SLP211 DENSITY ALT 700FT

CYGK;2015-06-04 19:00;CYGK 041900Z 19006KT 15SM FEW035 FEW100 BKN220 22/13 A3014 RMK CU1AC1CI5 CU TR SLP206 DENSITY ALT 900FT

CYGK;2015-06-04 20:00;CYGK 042000Z 19007KT 15SM FEW040 FEW100 BKN220 22/14 A3011 RMK CU1AC1CI5 CU TR AC TR SLP198 DENSITY ALT 900FT

CYGK;2015-06-04 21:00;CYGK 042100Z 21007KT 15SM FEW040 FEW100 SCT220 22/15 A3011 RMK CU1AC1CI4 CU TR AC TR SLP196 DENSITY ALT 1000FT

CYGK;2015-06-04 22:00;CYGK 042200Z 19006KT 15SM FEW040 FEW120 SCT240 22/15 A3010 RMK CU1AC1CI4 CU TR AC TR SLP193 DENSITY ALT 1000FT

CYGK;2015-06-04 23:00;CYGK 042300Z 22006KT 15SM FEW120 SCT240 21/15 A3009 RMK AC1CI3 SLP189 DENSITY ALT 900FT

CYGK;2015-06-05 00:00;CYGK 050000Z 23004KT 15SM BKN045 BKN120 BKN240 21/15 A3009 RMK SC5AC2CI1 CI TR SLP188 DENSITY ALT 800FT

CYGK;2015-06-05 01:00;CYGK 050100Z 18002KT 15SM BKN046 BKN120 20/15 A3007 RMK SC6AC1 SLP184 DENSITY ALT 700FT

CYGK;2015-06-05 02:00;CYGK 050200Z 00000KT 15SM OVC050 19/15 A3007 RMK SC8 SLP183 DENSITY ALT 600FT

CYGK;2015-06-05 03:00;CYGK 050300Z 00000KT 15SM OVC047 19/15 A3006 RMK SC8 LAST STFD OBS/NEXT 051000 UTC SLP181 DENSITY ALT 600FT

CYGK;2015-06-05 10:00;CYGK 051000Z 20007KT 15SM FEW040 FEW078 BKN250 14/13 A3003 RMK CU1AC1CI3 SLP168

CYGK;2015-06-05 11:00;CYGK 051100Z 17007KT 15SM FEW040 FEW080 SCT250 14/13 A3003 RMK CU1AC2CI2 CU TR SLP169

CYGK;2015-06-05 12:00;CYGK 051200Z 20006KT 15SM SCT010 BKN080 BKN250 14/13 A3003 RMK CF3AC3CI1 SLP171

CYGK;2015-06-05 12:11;CYGK 051211Z 19007KT 15SM SCT003 BKN010 BKN080 14/13 A3004 RMK SF3CF3AC1 VIS SE-S 8 SLP172

CYGK;2015-06-05 12:29;CYGK 051229Z 19006KT 15SM FEW005 SCT080 BKN250 15/13 A3003 RMK CF1AC2CI3 VIS SE 8 SLP171

CYGK;2015-06-05 13:00;CYGK 051300Z 19007KT 8SM FEW008 FEW080 BKN280 15/14 A3004 RMK CF1AC2CI5 CF TR SLP172

CYGK;2015-06-05 14:00;CYGK 051400Z 19009KT 15SM FEW010 SCT077 BKN210 16/13 A3003 RMK CF1AC3CI4 CF TR SLP169

CYGK;2015-06-05 15:00;CYGK 051500Z 18008KT 10SM FEW015 SCT077 BKN200 16/14 A3003 RMK CU1AC4CI3 CU TR SLP168

CYGK;2015-06-05 16:00;CYGK 051600Z 18011KT 15SM FEW020TCU SCT077 BKN160 OVC220 17/14 A3001 RMK TCU1AC2AC2CI3 TCU N SLP163 DENSITY ALT 500FT

CYGK;2015-06-05 17:00;CYGK 051700Z 17011KT 15SM FEW025TCU SCT100 BKN140 BKN220 16/14 A2999 RMK TCU1AC3AC2CI1 SLP156 DENSITY ALT 400FT

CYGK;2015-06-05 18:00;CYGK 051800Z 17008KT 15SM FEW025 BKN100 BKN140 16/14 A2998 RMK CU1AC4AC2 SLP153 DENSITY ALT 400FT

CYGK;2015-06-05 19:00;CYGK 051900Z 18006KT 15SM FEW025 BKN110 OVC200 17/15 A2995 RMK CU1AC6CI2 CU TR SLP144 DENSITY ALT 500FT

CYGK;2015-06-05 20:00;CYGK 052000Z 19008KT 15SM FEW025TCU SCT110 BKN250 18/15 A2993 RMK TCU1AC2CI4 SLP135 DENSITY ALT 600FT

CYGK;2015-06-05 21:00;CYGK 052100Z 18006KT 15SM FEW030TCU SCT110 BKN250 19/15 A2992 RMK TCU1AC2CI4 SLP132 DENSITY ALT 800FT

CYGK;2015-06-05 22:00;CYGK 052200Z 23004KT 15SM VCSH SCT040 BKN110 19/16 A2992 RMK SC4AC3 SLP134 DENSITY ALT 800FT

CYGK;2015-06-05 22:21;CYGK 052221Z 30014G20KT 220V340 10SM -SHRA FEW023TCU SCT040 OVC110 20/16 A2994 RMK TCU2SC2AC4 VIS W 3 PRESRR SLP139 DENSITY ALT 900FT

CYGK;2015-06-05 22:26;CYGK 052226Z 31014G20KT 270V340 2SM SHRA BKN021TCU OVC040 19/16 A2994 RMK TCU5SC3 SLP138 DENSITY ALT 700FT

CYGK;2015-06-05 22:36;CYGK 052236Z 35008G15KT 3SM -SHRA BR SCT022TCU OVC045 17/16 A2993 RMK TCU3SC5 SLP137 DENSITY ALT 600FT

CYGK;2015-06-05 23:00;CYGK 052300Z VRB02KT 5SM -RA BR FEW015 OVC046 17/16 A2994 RMK SC1SC7 SLP138 DENSITY ALT 600FT

CYGK;2015-06-05 23:34;CYGK 052334Z 32007KT 7SM -RA FEW009 BKN040 OVC100 17/17 A2994 RMK SF2SC5AC1 SLP140 DENSITY ALT 500FT

CYGK;2015-06-06 00:00;CYGK 060000Z 36009KT 10SM -RA FEW009 SCT020 BKN040 OVC074 17/16 A2994 RMK SF1SC3SC2AC2 SLP139 DENSITY ALT 600FT

CYGK;2015-06-06 00:11;CYGK 060011Z 35007KT 12SM FEW008 SCT023 BKN072 BKN120 17/16 A2994 RMK SF1SC3AC2AC2 SF TR SLP139 DENSITY ALT 500FT

CYGK;2015-06-06 01:00;CYGK 060100Z 36012KT 12SM FEW009 SCT025 BKN120 BKN240 17/16 A2995 RMK SF1SC3AC2CI1 SLP142 DENSITY ALT 500FT

CYGK;2015-06-06 02:00;CYGK 060200Z 36009KT 12SM FEW035 BKN080 BKN240 16/15 A2997 RMK SC2AC3CI2 SLP148 DENSITY ALT 400FT

CYGK;2015-06-06 03:00;CYGK 060300Z 36013KT 15SM BKN069 OVC240 16/15 A2998 RMK AC5CI3 LAST STFD OBS/NEXT 061000 UTC SLP151 DENSITY ALT 400FT

CYGK;2015-06-06 10:00;CYGK 061000Z 02016G24KT 15SM FEW120 FEW250 10/05 A3009 RMK AC1CI1 AC TR SLP191

CYGK;2015-06-06 11:00;CYGK 061100Z 02015G27KT 15SM FEW120 FEW250 10/04 A3011 RMK AC1CI1 AC TR SLP198

CYGK;2015-06-06 12:00;CYGK 061200Z 02016G22KT 15SM FEW120 FEW250 11/04 A3014 RMK AC1CI1 AC TR CI TR SLP206

CYGK;2015-06-06 13:00;CYGK 061300Z 04012G24KT 15SM FEW030 FEW250 13/05 A3016 RMK CU1CI1 CU TR CI TR SLP213

CYGK;2015-06-06 14:00;CYGK 061400Z 04016KT 15SM FEW250 13/04 A3017 RMK CI1 CI TR SLP217

CYGK;2015-06-06 15:00;CYGK 061500Z 36013G20KT 15SM FEW250 14/05 A3018 RMK CI1 CI TR SLP221

CYGK;2015-06-06 16:00;CYGK 061600Z 01011KT 310V060 15SM SKC 16/04 A3018 RMK SLP222

CYGK;2015-06-06 17:00;CYGK 061700Z 03009G21KT 360V070 15SM FEW280 17/05 A3017 RMK CI1 SLP218

CYGK;2015-06-06 18:00;CYGK 061800Z 02010G18KT 330V070 15SM FEW280 18/03 A3016 RMK CI1 CI TR SLP213 DENSITY ALT 400FT

CYGK;2015-06-06 19:00;CYGK 061900Z 01013G20KT 15SM FEW250 19/02 A3015 RMK CI2 SLP210 DENSITY ALT 500FT

CYGK;2015-06-06 20:00;CYGK 062000Z 02009G15KT 330V040 15SM FEW250 19/02 A3014 RMK CI2 SLP207 DENSITY ALT 500FT

CYGK;2015-06-06 21:00;CYGK 062100Z 35009KT 15SM SCT250 19/02 A3014 RMK CI3 SLP206 DENSITY ALT 500FT

CYGK;2015-06-06 22:00;CYGK 062200Z 36008KT 330V060 15SM BKN250 19/02 A3013 RMK CC5 SLP203 DENSITY ALT 600FT

CYGK;2015-06-06 23:00;CYGK 062300Z 03006KT 350V060 15SM BKN250 18/02 A3013 RMK CI5 SLP204 DENSITY ALT 500FT

CYGK;2015-06-07 00:00;CYGK 070000Z 04005KT 15SM BKN250 17/01 A3014 RMK CI6 SLP206

CYGK;2015-06-07 01:00;CYGK 070100Z 08002KT 15SM SCT250 15/01 A3013 RMK CI3 SLP205

CYGK;2015-06-07 02:00;CYGK 070200Z 25006KT 15SM SCT250 12/06 A3015 RMK CI3 SLP210

CYGK;2015-06-07 03:00;CYGK 070300Z 30004KT 15SM SCT250 11/07 A3015 RMK CI3 LAST STFD OBS/NEXT 071000 UTC SLP210

CYGK;2015-06-07 10:00;CYGK 071000Z 05002KT 15SM FEW270 04/04 A3013 RMK CI2 SLP203

CYGK;2015-06-07 11:00;CYGK 071100Z 14005KT 15SM SCT250 10/09 A3013 RMK CI3 SLP205

CYGK;2015-06-07 12:00;CYGK 071200Z 17008KT 15SM SCT250 12/08 A3014 RMK CI4 SLP206

CYGK;2015-06-07 13:00;CYGK 071300Z 17011KT 15SM FEW150 SCT250 12/09 A3013 RMK AC1CI4 AC TR SLP203

CYGK;2015-06-07 14:00;CYGK 071400Z 17007KT 15SM FEW150 BKN250 13/09 A3010 RMK AC1CI6 AC TR SLP195

CYGK;2015-06-07 15:00;CYGK 071500Z 15004KT 130V220 15SM FEW150 FEW200 BKN250 14/07 A3009 RMK AC1CI1CI5 AC TR SLP189

CYGK;2015-06-07 16:00;CYGK 071600Z 16006KT 15SM FEW150 SCT220 17/08 A3005 RMK AC1CI4 AC TR SLP177 DENSITY ALT 400FT

CYGK;2015-06-07 17:00;CYGK 071700Z 16006KT 15SM FEW150 BKN250 18/09 A3004 RMK AC1CI5 SLP173 DENSITY ALT 500FT

CYGK;2015-06-07 18:00;CYGK 071800Z 15007KT 15SM FEW170 BKN230 19/09 A3000 RMK AC1CI6 AC TR SLP161 DENSITY ALT 700FT

CYGK;2015-06-07 19:00;CYGK 071900Z 19007KT 15SM FEW150 BKN240 20/11 A2999 RMK AC1CI5 SLP156 DENSITY ALT 800FT

CYGK;2015-06-07 20:00;CYGK 072000Z 17007KT 15SM FEW150 BKN240 20/11 A2996 RMK AC1CI5 SLP146 DENSITY ALT 900FT

CYGK;2015-06-07 21:00;CYGK 072100Z 15007KT 15SM FEW040 FEW160 BKN230 21/11 A2992 RMK CF1AC1CI6 CF TR SLP133 DENSITY ALT 1000FT

CYGK;2015-06-07 22:00;CYGK 072200Z 12008KT 15SM FEW150 BKN160 OVC210 21/11 A2987 RMK AC1AS4CI3 SLP117 DENSITY ALT 1100FT

CYGK;2015-06-07 23:00;CYGK 072300Z 12009KT 15SM FEW110 BKN190 OVC210 22/11 A2984 RMK AC2AS3CI3 SLP104 DENSITY ALT 1200FT

CYGK;2015-06-08 00:00;CYGK 080000Z 15010G16KT 15SM FEW110 FEW190 BKN210 20/13 A2981 RMK AC1AS1CI5 SLP095 DENSITY ALT 1000FT

CYGK;2015-06-08 01:00;CYGK 080100Z 17012KT 15SM FEW080 SCT160 OVC220 18/13 A2980 RMK AC1AC3CI4 SLP092 DENSITY ALT 800FT

CYGK;2015-06-08 01:39;CYGK 080139Z 17016G21KT 15SM -SHRA FEW078 BKN160 OVC220 17/14 A2978 RMK AC2AC5CI1 SLP087 DENSITY ALT 700FT

CYGK;2015-06-08 02:00;CYGK 080200Z 17016G22KT 15SM -SHRA FEW078 BKN160 OVC220 17/13 A2978 RMK AC2AC5CI1 SLP083 DENSITY ALT 700FT

CYGK;2015-06-08 02:41;CYGK 080241Z 17014G22KT 15SM BKN070 OVC160 16/13 A2977 RMK AC5AC3 SLP082 DENSITY ALT 600FT

CYGK;2015-06-08 03:00;CYGK 080300Z 17015G21KT 15SM FEW070 OVC094 16/13 A2976 RMK AC2AC6 LAST STFD OBS/NEXT 081000 UTC SLP077 DENSITY ALT 600FT

CYGK;2015-06-08 10:00;CYGK 081000Z 17013G21KT 3/4SM -RA BR SCT002 OVC013 14/14 A2967 RMK ST3ST5 SLP045 DENSITY ALT 500FT

CYGK;2015-06-08 10:34;CYGK 081034Z 20009KT 3/8SM -RA FG OVC003 14/14 A2967 RMK FG4ST4 SLP047 DENSITY ALT 500FT

CYGK;2015-06-08 10:45;CYGK 081045Z 19012KT 1/2SM -TSRA FG OVC003 14/14 A2968 RMK FG3ST5 CB EMBD S SLP049 DENSITY ALT 500FT

CYGK;2015-06-08 11:00;CYGK 081100Z 18015G21KT 3/4SM -TSRA BR SCT004 OVC011 15/15 A2967 RMK SF4ST4 CB EMBD SLP046 DENSITY ALT 600FT

CYGK;2015-06-08 11:17;CYGK 081117Z 17011G18KT 1 1/2SM -RA BR BKN005 OVC011 15/15 A2966 RMK SF6ST2 SLP044 DENSITY ALT 600FT

CYGK;2015-06-08 11:32;CYGK 081132Z 19017KT 4SM -RA BR FEW005 OVC013 15/15 A2966 RMK SF2SC6 SLP044 DENSITY ALT 600FT

CYGK;2015-06-08 12:00;CYGK 081200Z 19014KT 5SM BR FEW005 BKN015 OVC030 14/14 A2965 RMK SF1SC6SC1 SLP041 DENSITY ALT 500FT

CYGK;2015-06-08 12:41;CYGK 081241Z 19012KT 5SM -SHRA BR SCT005 OVC027 14/14 A2964 RMK SF3SC5 SLP035 DENSITY ALT 600FT

CYGK;2015-06-08 13:00;CYGK 081300Z 20013G20KT 3SM -SHRA BR OVC027 14/14 A2963 RMK SC8 VIS VRB 1-5 CIG RAG SLP033 DENSITY ALT 600FT

CYGK;2015-06-08 13:27;CYGK 081327Z 19019G25KT 11SM FEW005 BKN036 OVC100 16/15 A2963 RMK SF1SC6AC1 SLP034 DENSITY ALT 800FT

CYGK;2015-06-08 14:00;CYGK 081400Z 19018G24KT 11SM FEW005 BKN030 OVC048 16/15 A2962 RMK SF1SC5SC3 SF TR SLP032 DENSITY ALT 700FT

CYGK;2015-06-08 15:00;CYGK 081500Z 22020G26KT 5SM -SHRA BR BKN018TCU OVC035 16/16 A2963 RMK TCU5SC3 PRESRR SLP035 DENSITY ALT 800FT

CYGK;2015-06-08 15:36;CYGK 081536Z 22014G24KT 11SM SCT018 BKN078 OVC130 19/17 A2964 RMK SC3AC4AC1 SLP035 DENSITY ALT 1100FT

CYGK;2015-06-08 16:00;CYGK 081600Z 22011KT 11SM FEW015 OVC070 19/18 A2963 RMK SC1AC7 SLP032 DENSITY ALT 1200FT

CYGK;2015-06-08 17:00;CYGK 081700Z 19006KT 10SM FEW015 BKN095 OVC140 15/14 A2961 RMK CF1AC7AC1 CF TR SLP028 DENSITY ALT 600FT

CYGK;2015-06-08 18:35;CYGK 081835Z 22006KT 170V230 8SM -RA SCT015 OVC100 17/16 A2964 RMK CF3AC5 SLP038 DENSITY ALT 900FT

CYGK;2015-06-08 19:00;CYGK 081900Z 23010KT 15SM -RA FEW015 BKN090 OVC250 19/17 A2963 RMK CF1AC6CI1 SLP032 DENSITY ALT 1100FT

CYGK;2015-06-08 19:39;CYGK 081939Z 18009KT 12SM BKN002 BKN015 OVC110 15/14 A2962 RMK ST7CU1AC1 CU TR VIS S-SE 2 SLP032 DENSITY ALT 700FT

CYGK;2015-06-08 20:00;CYGK 082000Z 19010KT 12SM SCT002 SCT015 OVC110 14/13 A2965 RMK SF4CU1AC4 CU TR VIS S 5 PRESRR SLP040 DENSITY ALT 500FT

CYGK;2015-06-08 21:00;CYGK 082100Z 23012KT 15SM FEW015 SCT090 BKN200 19/17 A2964 RMK CU1AC2CI4 SLP037 DENSITY ALT 1100FT

CYGK;2015-06-08 22:00;CYGK 082200Z 24010KT 15SM FEW015 SCT090 BKN160 BKN220 20/17 A2963 RMK CU1AC2AC2CI2 SLP034 DENSITY ALT 1200FT

CYGK;2015-06-08 23:00;CYGK 082300Z 23007KT 15SM FEW015 BKN090 BKN150 19/16 A2964 RMK CU1AC4AC2 SLP036 DENSITY ALT 1200FT

CYGK;2015-06-09 00:00;CYGK 090000Z 18011KT 15SM FEW015 FEW090 BKN140 BKN240 14/13 A2965 RMK CF1AC1AC5CI1 CF TR SLP042 DENSITY ALT 500FT

CYGK;2015-06-09 01:00;CYGK 090100Z 16004KT 15SM FEW015 BKN170 BKN240 13/12 A2965 RMK SC1AC5CI2 SC TR SLP042 DENSITY ALT 400FT

CYGK;2015-06-09 02:00;CYGK 090200Z 17006KT 15SM BKN190 13/12 A2966 RMK AC7 SLP043

CYGK;2015-06-09 02:49;CYGK 090249Z 30002KT 15SM SCT002 OVC190 12/12 A2966 RMK ST4AC4 VIS S 3 SLP043

CYGK;2015-06-09 03:00;CYGK 090300Z 17003KT 130V300 8SM BKN001 OVC190 13/12 A2966 RMK ST7AC1 VIS S 3 LAST STFD OBS/NEXT 091000UTC SLP043

CYGK;2015-06-09 10:00;CYGK 091000Z 10002KT 6SM BR FEW016 SCT080 BKN110 BKN200 15/14 A2959 RMK SC2AC2AC2CI1 SLP021 DENSITY ALT 700FT

CYGK;2015-06-09 10:13;CYGK 091013Z 31003KT 300V080 6SM BR BKN014 BKN080 15/14 A2959 RMK ST5AC2 SLP021 DENSITY ALT 700FT

CYGK;2015-06-09 11:00;CYGK 091100Z 13003KT 5SM BR FEW005 BKN013 OVC080 15/14 A2960 RMK SF2ST5AC1 SLP022 DENSITY ALT 700FT

CYGK;2015-06-09 11:51;CYGK 091151Z 10003KT 050V120 6SM -SHRA BR BKN014 OVC080 16/16 A2960 RMK SC7AC1 SLP024 DENSITY ALT 800FT

CYGK;2015-06-09 12:04;CYGK 091204Z VRB02KT 6SM -SHRA BR BKN003 OVC014 16/16 A2960 RMK SC6SC2 SLP025 DENSITY ALT 800FT

CYGK;2015-06-09 12:41;CYGK 091241Z 17003KT 1/8SM FG VV001 16/15 A2961 RMK FG8 SLP027 DENSITY ALT 800FT

CYGK;2015-06-09 13:00;CYGK 091300Z 20002KT 1/8SM FG VV001 16/15 A2960 RMK FG8 SLP025 DENSITY ALT 800FT

CYGK;2015-06-09 13:22;CYGK 091322Z 14003KT 120V190 3/8SM FG VV001 15/15 A2960 RMK FG8 SLP023 DENSITY ALT 700FT

CYGK;2015-06-09 14:00;CYGK 091400Z 18007KT 3/8SM FG VV001 14/14 A2960 RMK FG8 SLP023 DENSITY ALT 600FT

CYGK;2015-06-09 14:07;CYGK 091407Z 20005KT 3/4SM BR OVC002 14/14 A2959 RMK FG4ST4 SLP022 DENSITY ALT 600FT

CYGK;2015-06-09 14:19;CYGK 091419Z 23005KT 2SM BR OVC002 15/15 A2959 RMK FG3SF5 VIS VAR 1/2-4 SLP021 DENSITY ALT 700FT

CYGK;2015-06-09 14:54;CYGK 091454Z 26005KT 3/4SM BR OVC002 16/16 A2959 RMK FG6SF2 VIS VAR 1/4-11/2 SLP021 DENSITY ALT 800FT

CYGK;2015-06-09 15:00;CYGK 091500Z 26006KT 3/4SM BR OVC002 15/15 A2959 RMK FG6SF2 VIS VAR 1/4-11/2 SLP022 DENSITY ALT 700FT

CYGK;2015-06-09 15:11;CYGK 091511Z 25005KT 3/8SM FG VV001 16/15 A2960 RMK FG8 SLP023 DENSITY ALT 800FT

CYGK;2015-06-09 15:27;CYGK 091527Z 25004KT 1SM BR SCT002 OVC010 16/16 A2959 RMK FG2SF2SC4 SLP022 DENSITY ALT 800FT

CYGK;2015-06-09 15:48;CYGK 091548Z 28004KT 1SM -RA BR BKN004 BKN010 OVC030 16/16 A2959 RMK FG2SF3SC1SC2 SLP022 DENSITY ALT 800FT

CYGK;2015-06-09 16:00;CYGK 091600Z 31005KT 250V330 1 1/2SM -RA BR SCT003 BKN010 OVC045 17/17 A2959 RMK FG1SF2SC4SC1 SLP021 DENSITY ALT 900FT

CYGK;2015-06-09 16:08;CYGK 091608Z 31007KT 4SM -RA SCT003 BKN010 OVC090 17/17 A2959 RMK SF3SC3AC2 SLP020 DENSITY ALT 1000FT

CYGK;2015-06-09 16:21;CYGK 091621Z 34010KT 5SM -RA BR BKN004 OVC090 17/17 A2959 RMK SF6AC2 SLP021 DENSITY ALT 1000FT

CYGK;2015-06-09 16:33;CYGK 091633Z 34012KT 10SM SCT004 BKN012 OVC090 17/17 A2959 RMK SF4SC3AC1 INTMT -RA SLP022 DENSITY ALT 1000FT

CYGK;2015-06-09 16:48;CYGK 091648Z 35012KT 15SM FEW004 SCT015 OVC090 17/16 A2959 RMK SF1SC3AC4 SLP022 DENSITY ALT 1000FT

CYGK;2015-06-09 17:00;CYGK 091700Z 36011KT 15SM -RA FEW005 FEW015 SCT042 OVC090 17/16 A2960 RMK SF1SC1SC2AC4 SLP023 DENSITY ALT 900FT

CYGK;2015-06-09 17:42;CYGK 091742Z 35009KT 15SM -RA BKN005 BKN050 OVC090 17/16 A2962 RMK SF5SC1AC2 SLP030 DENSITY ALT 900FT

CYGK;2015-06-09 18:00;CYGK 091800Z 33008KT 15SM -RA BKN006 BKN063 OVC095 17/16 A2962 RMK SF5SC2AC1 SLP030 DENSITY ALT 1000FT

CYGK;2015-06-09 18:24;CYGK 091824Z 33010G15KT 15SM -RA FEW006 BKN060 OVC095 17/16 A2962 RMK SF2SC5AC1 SLP031 DENSITY ALT 1000FT

CYGK;2015-06-09 19:00;CYGK 091900Z 31008KT 10SM -RA BKN008 OVC043 18/17 A2963 RMK SF5SC3 SLP035 DENSITY ALT 1000FT

CYGK;2015-06-09 19:22;CYGK 091922Z 30010KT 10SM -RA SCT008 OVC055 17/16 A2964 RMK SF3SC5 SLP038 DENSITY ALT 900FT

CYGK;2015-06-09 20:00;CYGK 092000Z 32003KT 10SM -RA FEW008 BKN050 OVC100 16/15 A2965 RMK SF1SC6AC1 VIS S 5 SLP041 DENSITY ALT 800FT

CYGK;2015-06-09 21:00;CYGK 092100Z 24005KT 15SM -RA FEW006 SCT040 BKN096 17/15 A2967 RMK SF1SC3AC3 SLP049 DENSITY ALT 800FT

CYGK;2015-06-09 22:00;CYGK 092200Z 23006KT 15SM VCSH FEW006 SCT040 BKN078 BKN140 17/15 A2969 RMK SF1SC2AC3AC1 SLP053 DENSITY ALT 800FT

CYGK;2015-06-09 23:00;CYGK 092300Z 19006KT 15SM FEW004 FEW025TCU BKN085 BKN150 14/14 A2969 RMK SF1TCU1AC4AC2 SF TR SLP055 DENSITY ALT 500FT

CYGK;2015-06-10 00:00;CYGK 100000Z 19007KT 12SM FEW004 FEW025TCU SCT085 BKN200 14/14 A2970 RMK SF1TCU1AC2CI4 SF TR SLP056 DENSITY ALT 500FT

CYGK;2015-06-10 01:00;CYGK 100100Z 06003KT 12SM FEW025TCU SCT085 BKN220 15/14 A2971 RMK TCU1AC3CI3 SLP060 DENSITY ALT 500FT

CYGK;2015-06-10 02:00;CYGK 100200Z 07005KT 060V200 15SM FEW085 SCT240 13/12 A2972 RMK AC2CI2 SLP066

CYGK;2015-06-10 03:00;CYGK 100300Z 08003KT 10SM MIFG SKC 12/12 A2973 RMK LAST STFD OBS/NEXT 101000UTC SLP068

CYGK;2015-06-10 10:00;CYGK 101000Z 20003KT 9SM FEW120 SCT270 12/12 A2978 RMK AC1CI2 SLP087

CYGK;2015-06-10 10:50;CYGK 101050Z 20006KT 5SM BR FEW120 FEW270 13/13 A2979 RMK AC1CI1 SLP088

CYGK;2015-06-10 11:00;CYGK 101100Z 22006KT 4SM BR FEW120 FEW270 13/13 A2980 RMK AC1CI1 SLP091

CYGK;2015-06-10 12:00;CYGK 101200Z 18006KT 3SM BR SCT270 14/13 A2981 RMK FG3CI1 SLP095

CYGK;2015-06-10 12:42;CYGK 101242Z 17010KT 1SM BR VV002 13/12 A2981 RMK FG8 VIS N 3 SLP095

CYGK;2015-06-10 12:50;CYGK 101250Z 17010KT 1/4SM FG VV001 12/12 A2981 RMK FG8 SLP095

CYGK;2015-06-10 13:00;CYGK 101300Z 17009KT 3/8SM FG VV001 13/12 A2981 RMK FG8 SLP095

CYGK;2015-06-10 13:12;CYGK 101312Z 17011KT 1/2SM FG VV002 13/12 A2981 RMK FG8 SLP094

CYGK;2015-06-10 13:37;CYGK 101337Z 17011KT 1/4SM FG VV001 13/12 A2981 RMK FG8 SLP096

CYGK;2015-06-10 14:00;CYGK 101400Z 18009KT 1/4SM FG VV001 13/12 A2981 RMK FG8 SLP096

CYGK;2015-06-10 14:22;CYGK 101422Z 19008KT 1/2SM FG VV002 13/12 A2981 RMK FG8 VIS VAR 1/4-3/4 SLP095

CYGK;2015-06-10 14:38;CYGK 101438Z 18006KT 3SM BR VV002 13/13 A2980 RMK FG8 VIS S 1/2 SLP093

CYGK;2015-06-10 15:00;CYGK 101500Z 15007KT 6SM BR OVC250 14/12 A2978 RMK CI8 SLP087

CYGK;2015-06-10 15:47;CYGK 101547Z 18006KT 9SM BKN250 16/14 A2979 RMK CI7 SLP088 DENSITY ALT 500FT

CYGK;2015-06-10 16:00;CYGK 101600Z 19008KT 9SM BKN250 16/15 A2979 RMK CI7 SLP088 DENSITY ALT 600FT

CYGK;2015-06-10 17:00;CYGK 101700Z 17006KT 140V200 10SM FEW015 SCT170 OVC250 17/15 A2979 RMK CF1AC4CI4 CF TR SLP088 DENSITY ALT 700FT

CYGK;2015-06-10 17:39;CYGK 101739Z 16010KT 150V260 8SM -RA BKN050 OVC100 17/16 A2978 RMK SC5AC3 PRESFR SLP085 DENSITY ALT 700FT

CYGK;2015-06-10 18:00;CYGK 101800Z 15010KT 4SM -RA BR BKN050 OVC100 16/15 A2974 RMK SC7AC1 PRESFR SLP072 DENSITY ALT 700FT

CYGK;2015-06-10 18:17;CYGK 101817Z 14020KT 6SM -RA BR SCT045 BKN120 16/15 A2967 RMK SC3AC4 CB TOP DIST NW PRESFR SLP046 DENSITY ALT 800FT

CYGK;2015-06-10 18:29;CYGK 101829Z 16014G20KT 9SM FEW040 BKN120 16/15 A2969 RMK SC2AC5 CB TOP DIST NW PRESRR SLP053 DENSITY ALT 700FT

CYGK;2015-06-10 19:00;CYGK 101900Z 16012G19KT 10SM SCT040 BKN100 OVC250 17/15 A2969 RMK CU4AC2CI2 SLP055 DENSITY ALT 800FT

CYGK;2015-06-10 19:22;CYGK 101922Z 16011G16KT 12SM -SHRA BKN100 BKN250 18/16 A2968 RMK ACC6CI1 PRESFR SLP051 DENSITY ALT 900FT

CYGK;2015-06-10 20:00;CYGK 102000Z 17013KT 12SM BKN075 BKN120 17/15 A2965 RMK ACC5AC2 CB TOP N MOVG E SLP040 DENSITY ALT 900FT

CYGK;2015-06-10 20:22;CYGK 102022Z 19011KT 12SM -TSRA BKN060CB OVC100 17/14 A2967 RMK CB6AC2 PRESRR SLP047 DENSITY ALT 800FT

CYGK;2015-06-10 20:29;CYGK 102029Z 19013KT 12SM -TSRAGR BKN060CB OVC100 17/15 A2966 RMK CB5AC3 PRESFR SLP043 DENSITY ALT 800FT

CYGK;2015-06-10 20:31;CYGK 102031Z 19012KT 12SM -TSRA BKN065CB OVC100 17/15 A2966 RMK CB5AC3 SLP044 DENSITY ALT 800FT

CYGK;2015-06-10 20:51;CYGK 102051Z 18011KT 10SM -SHRA BKN060TCU OVC100 16/14 A2966 RMK TCU5AC3 SLP045 DENSITY ALT 800FT

CYGK;2015-06-10 21:00;CYGK 102100Z 17009G15KT 8SM -SHRA OVC060TCU 16/14 A2967 RMK TCU8 SLP046 DENSITY ALT 700FT

CYGK;2015-06-10 22:00;CYGK 102200Z 16008KT 8SM VCSH OVC058 15/15 A2963 RMK CU8 SLP034 DENSITY ALT 700FT

CYGK;2015-06-10 23:00;CYGK 102300Z 22008KT 170V240 10SM BKN060 OVC250 17/16 A2963 RMK CU6CI2 SLP034 DENSITY ALT 900FT

CYGK;2015-06-11 00:00;CYGK 110000Z 19006KT 8SM 17/15 A2963 RMK SLP034 DENSITY ALT 900FT

CYGK;2015-06-11 00:30;CYGK 110030Z 22009G15KT 180V250 8SM -SHRA BKN055TCU OVC250 18/16 A2963 RMK TCU6CI2 SLP033 DENSITY ALT 1000FT

CYGK;2015-06-11 00:47;CYGK 110047Z 20007KT 8SM TS SCT055CB OVC120 18/16 A2962 RMK CB4AC4 PRESFR SLP032 DENSITY ALT 1000FT

CYGK;2015-06-11 01:00;CYGK 110100Z 19005KT 180V240 10SM VCSH SCT055TCU BKN110 18/16 A2961 RMK TCU4AC3 CB SE PRESFR SLP029 DENSITY ALT 1000FT

CYGK;2015-06-11 02:00;CYGK 110200Z 26007KT 10SM SCT060 BKN100 18/17 A2963 RMK CU4AC2 SLP035 DENSITY ALT 1000FT

CYGK;2015-06-11 03:00;CYGK 110300Z 26006KT 12SM BKN065 18/16 A2966 RMK CU5 LAST STFD OBS/NEXT 111000 UTC SLP044 DENSITY ALT 900FT

CYGK;2015-06-11 10:00;CYGK 111000Z 24008KT 15SM FEW040 SCT250 14/12 A2981 RMK SC1CI3 SC TR SLP095

CYGK;2015-06-11 11:00;CYGK 111100Z 25008G15KT 15SM FEW040 FEW250 14/12 A2984 RMK SC1CI2 SC TR SLP103

CYGK;2015-06-11 12:00;CYGK 111200Z 25010G16KT 15SM FEW020 SCT250 16/12 A2986 RMK SC2CI2 SLP111 DENSITY ALT 500FT

CYGK;2015-06-11 13:00;CYGK 111300Z 26012G17KT 240V300 15SM FEW020 SCT250 17/12 A2987 RMK SC1CI2 SLP113 DENSITY ALT 600FT

CYGK;2015-06-11 14:00;CYGK 111400Z 25007KT 15SM FEW020 FEW250 19/15 A2987 RMK SC1CI2 SC TR SLP113 DENSITY ALT 800FT

CYGK;2015-06-11 15:00;CYGK 111500Z 23011KT 15SM FEW025 BKN250 19/14 A2988 RMK SC1CI6 SLP118 DENSITY ALT 800FT

CYGK;2015-06-11 16:00;CYGK 111600Z 23011KT 15SM FEW030 BKN250 20/15 A2989 RMK CU1CI6 SLP120 DENSITY ALT 900FT

CYGK;2015-06-11 17:00;CYGK 111700Z 23013KT 15SM SCT030 BKN250 19/14 A2989 RMK CU3CI4 SLP121 DENSITY ALT 900FT

CYGK;2015-06-11 18:00;CYGK 111800Z 24008KT 15SM SCT028 BKN250 22/16 A2989 RMK CU4CI3 SLP121 DENSITY ALT 1100FT

CYGK;2015-06-11 19:00;CYGK 111900Z 22010KT 15SM 22/15 A2989 RMK SLP123 DENSITY ALT 1100FT

CYGK;2015-06-11 20:00;CYGK 112000Z 20011G16KT 15SM SCT040 OVC250 21/15 A2990 RMK CU4CI4 SLP127 DENSITY ALT 1000FT

CYGK;2015-06-11 21:00;CYGK 112100Z 22010KT 15SM SCT045 SCT180 OVC250 20/15 A2991 RMK CU3AC1CI4 SLP128 DENSITY ALT 1000FT

CYGK;2015-06-11 22:00;CYGK 112200Z 21010KT 15SM SCT045 OVC250 20/15 A2992 RMK CU3CI5 SLP131 DENSITY ALT 900FT

CYGK;2015-06-11 23:00;CYGK 112300Z 22008KT 15SM FEW150 OVC250 20/14 A2992 RMK AC2CI6 SLP133 DENSITY ALT 900FT

CYGK;2015-06-12 00:00;CYGK 120000Z 23004KT 15SM FEW180 OVC250 18/14 A2993 RMK AC2CI6 PRESFR SLP135 DENSITY ALT 700FT

CYGK;2015-06-12 01:00;CYGK 120100Z 25006KT 15SM SCT180 OVC250 17/14 A2995 RMK AC3CI5 SLP143 DENSITY ALT 500FT

CYGK;2015-06-12 02:00;CYGK 120200Z 25004KT 15SM SCT140 BKN200 BKN250 16/14 A2996 RMK AC3CI3CI1 SLP147 DENSITY ALT 400FT

CYGK;2015-06-12 03:00;CYGK 120300Z 26003KT 15SM BKN130 OVC250 17/14 A2995 RMK AC5CI3 LAST STFD OBS/NEXT 121000 UTC SLP143 DENSITY ALT 500FT

CYGK;2015-06-12 10:00;CYGK 121000Z 17003KT 15SM BKN100 BKN170 OVC230 13/12 A2999 RMK AC6AC1CI1 SLP155

CYGK;2015-06-12 11:00;CYGK 121100Z 09002KT 15SM FEW080 BKN100 OVC220 14/12 A2998 RMK AC1AC5CI2 ACC ASOCTD SLP152

CYGK;2015-06-12 12:00;CYGK 121200Z 22003KT 110V250 15SM BKN072 BKN130 OVC210 15/14 A3000 RMK AC5AC2CI1 PRESRR SLP158

CYGK;2015-06-12 12:35;CYGK 121235Z 17004KT 12SM -SHRA BKN080 OVC130 14/13 A3000 RMK AC5AC3 SLP159

CYGK;2015-06-12 13:00;CYGK 121300Z 08004KT 12SM -SHRA FEW020 BKN075 OVC120 15/14 A2997 RMK CF1AC5AC3 CF TR PRESFR SLP150

CYGK;2015-06-12 14:00;CYGK 121400Z 10004KT 090V160 12SM -RA FEW040 OVC090 15/14 A2995 RMK SC2AC6 PRESFR SLP144

CYGK;2015-06-12 15:00;CYGK 121500Z 10004KT 070V140 10SM -RA FEW015 BKN058 OVC100 16/15 A2996 RMK CF1SC6AC2 CF TR SLP146 DENSITY ALT 400FT

CYGK;2015-06-12 16:00;CYGK 121600Z 04005KT 360V070 8SM -RA FEW012 BKN042 OVC090 17/16 A2994 RMK CF1SC6AC2 CF TR SLP139 DENSITY ALT 600FT

CYGK;2015-06-12 16:18;CYGK 121618Z 06009KT 12SM FEW015 BKN040 OVC080 18/16 A2993 RMK CF1SC7AC1 CF TR SLP136 DENSITY ALT 600FT

CYGK;2015-06-12 17:51;CYGK 121751Z 06010KT 010V070 15SM -RA FEW010 BKN050 OVC070 18/16 A2988 RMK CF1SC5AC3 CF TR WSHFT 1742 PRESFR SLP120 DENSITY ALT 800FT

CYGK;2015-06-12 18:00;CYGK 121800Z 05011KT 15SM -RA FEW010 BKN049 OVC070 19/16 A2988 RMK CF1SC5AC3 CF TR PRESFR SLP118 DENSITY ALT 800FT

CYGK;2015-06-12 18:52;CYGK 121852Z 03009KT 10SM -SHRA +SS FEW010 BKN045 OVC070 19/16 A2985 RMK CF1SC5AC3 CF TR CB EMBD SLP108 DENSITY ALT 800FT

CYGK;2015-06-12 19:00;CYGK 121900Z 01010G15KT 10SM -TSRA BKN039 OVC070 18/16 A2986 RMK SC6AC2 CB EMBD VIS LWR N SLP111 DENSITY ALT 800FT

CYGK;2015-06-12 19:47;CYGK 121947Z 03011G17KT 340V050 2 1/2SM -TSRA OVC040 17/16 A2986 RMK SC8 CB EMBDD PRESRR SLP111 DENSITY ALT 600FT

CYGK;2015-06-12 20:00;CYGK 122000Z 03012G18KT 5SM -TSRA BR FEW005 FEW030CB OVC050 16/16 A2982 RMK SF1CB1SC7 SF TR CB SE MOVG E PRESFR SLP099 DENSITY ALT 600FT

CYGK;2015-06-12 20:25;CYGK 122025Z 05011G19KT 6SM -SHRA BR FEW005 OVC048 16/15 A2981 RMK SF1SC8 SF TR SLP096 DENSITY ALT 600FT

CYGK;2015-06-12 21:00;CYGK 122100Z 01014G20KT 360V070 3SM -SHRA BR SCT005 OVC039 15/15 A2981 RMK SF3SC5 CVCTV CLD EMBD PRESRR SLP097 DENSITY ALT 500FT

CYGK;2015-06-12 21:19;CYGK 122119Z 07012KT 3SM -SHRA BR SCT005 OVC032 15/14 A2981 RMK SF3SC5 CVCTV CLD EMBD VIS N 1 1/2 SLP094 DENSITY ALT 500FT

CYGK;2015-06-12 21:47;CYGK 122147Z 06009KT 1 1/2SM SHRA BR SCT005 OVC022 15/14 A2980 RMK SF4SC4 CVCTV CLD EMBD SLP093 DENSITY ALT 400FT

CYGK;2015-06-12 22:00;CYGK 122200Z 05008KT 5SM -SHRA BR BKN005 OVC020 15/14 A2979 RMK SF7SC1 CVCTV CLD EMBDD PRESFR SLP088 DENSITY ALT 500FT

CYGK;2015-06-12 23:00;CYGK 122300Z 34012G18KT 320V050 3SM -SHRA BR BKN005 OVC022 15/15 A2978 RMK SF7SC1 VIS SW - W 1 CVCTV CLD EMBD PRESRR SLP086 DENSITY ALT 500FT

CYGK;2015-06-12 23:26;CYGK 122326Z 35011KT 1 1/2SM -SHRA BR BKN004 OVC022 15/15 A2981 RMK FG4SF3SC1 CVCTV CLD EMBD PRESRR SLP097 DENSITY ALT 400FT

CYGK;2015-06-12 23:40;CYGK 122340Z 36009G16KT 2SM -SHRA BR SCT004 OVC023 15/14 A2981 RMK SF3SC5 CVCTV CLD EMBD SLP097 DENSITY ALT 400FT

CYGK;2015-06-13 00:00;CYGK 130000Z 35012KT 2SM -SHRA BR SCT004 OVC032 15/14 A2982 RMK SF3SC5 CVCTV CLD EMBD SLP099 DENSITY ALT 400FT

CYGK;2015-06-13 00:45;CYGK 130045Z 01012G18KT 8SM FEW004 BKN026 BKN080 15/14 A2982 RMK SF2SC4AC1 SLP100 DENSITY ALT 400FT

CYGK;2015-06-13 01:00;CYGK 130100Z 01011G16KT 11SM FEW004 BKN030 BKN045 15/14 A2983 RMK SF1SC4SC2 SLP103 DENSITY ALT 400FT

CYGK;2015-06-13 02:00;CYGK 130200Z 35006KT 15SM SCT010 SCT041 BKN097 15/14 A2986 RMK SF3SC1AC3 PRESRR SLP112 DENSITY ALT 400FT

CYGK;2015-06-13 03:00;CYGK 130300Z 01008KT 15SM BKN015 OVC095 15/15 A2989 RMK SF6AC2 LAST STFD OBS/NEXT 131000 UTC SLP121 DENSITY ALT 400FT

CYGK;2015-06-13 10:00;CYGK 131000Z 00000KT 15SM MIFG SCT008 SCT250 13/13 A3001 RMK SF3CI1 SLP165

CYGK;2015-06-13 11:00;CYGK 131100Z 22003KT 15SM FEW008 FEW250 15/14 A3003 RMK SF1CI1 SLP168

CYGK;2015-06-13 12:00;CYGK 131200Z 25005KT 15SM BKN009 BKN250 16/15 A3005 RMK SC5CI1 SLP177

CYGK;2015-06-13 13:00;CYGK 131300Z 23007KT 15SM BKN010 16/15 A3007 RMK SC6 SLP183

CYGK;2015-06-13 13:14;CYGK 131314Z 23008KT 15SM SCT010 SCT250 17/15 A3006 RMK SC3CI1 SLP181 DENSITY ALT 400FT

CYGK;2015-06-13 14:00;CYGK 131400Z 24004KT 190V320 15SM FEW012 SCT250 18/15 A3006 RMK CF1CI3 SLP181 DENSITY ALT 500FT

CYGK;2015-06-13 15:00;CYGK 131500Z 20006KT 15SM FEW015 SCT250 19/16 A3008 RMK CF1CI3 CF TR SLP185 DENSITY ALT 600FT

CYGK;2015-06-13 16:00;CYGK 131600Z 18011KT 15SM FEW015 SCT250 18/15 A3007 RMK CU1CI3 SLP183 DENSITY ALT 400FT

CYGK;2015-06-13 17:00;CYGK 131700Z 19011KT 15SM FEW020 BKN240 18/15 A3007 RMK CU1CI4 SLP182 DENSITY ALT 500FT

CYGK;2015-06-13 18:00;CYGK 131800Z 19013KT 15SM FEW025 BKN250 19/16 A3006 RMK CU1CI4 SLP181 DENSITY ALT 600FT

CYGK;2015-06-13 19:00;CYGK 131900Z 19011KT 15SM FEW025 BKN240 20/16 A3006 RMK CU1CI4 SLP178 DENSITY ALT 700FT

CYGK;2015-06-13 20:00;CYGK 132000Z 19013KT 15SM FEW025 SCT240 20/16 A3005 RMK CU1CI3 SLP177 DENSITY ALT 800FT

CYGK;2015-06-13 21:00;CYGK 132100Z 19008KT 15SM FEW025 BKN230 21/16 A3003 RMK CU1CI5 SLP171 DENSITY ALT 900FT

CYGK;2015-06-13 22:00;CYGK 132200Z 19005KT 15SM FEW035 BKN240 20/16 A3002 RMK CU1CI4 SLP167 DENSITY ALT 800FT

CYGK;2015-06-13 23:00;CYGK 132300Z 17005KT 15SM FEW040 FEW060 BKN240 19/15 A3003 RMK CU1SC1CI5 CU TR SC TR SLP169 DENSITY ALT 700FT

CYGK;2015-06-14 00:00;CYGK 140000Z 21004KT 15SM FEW060 FEW200 BKN240 17/15 A3003 RMK SC1CC1CI6 SC TR SLP169 DENSITY ALT 400FT

CYGK;2015-06-14 01:00;CYGK 140100Z 25003KT 15SM FEW080 FEW200 BKN250 16/14 A3003 RMK AC1CC1CI6 AC TR SLP171

CYGK;2015-06-14 02:00;CYGK 140200Z VRB02KT 15SM BKN250 16/14 A3005 RMK CI7 SLP177

CYGK;2015-06-14 03:00;CYGK 140300Z VRB02KT 15SM BKN250 15/14 A3006 RMK CI5 LAST STFD OBS/NEXT 141000 UTC SLP180

CYGK;2015-06-14 10:00;CYGK 141000Z 13002KT 15SM FEW120 BKN160 14/13 A3008 RMK AC2AC5 SLP186

CYGK;2015-06-14 11:00;CYGK 141100Z 21004KT 15SM FEW055 BKN140 BKN220 15/13 A3008 RMK SC2AC3CI2 SLP187

CYGK;2015-06-14 12:00;CYGK 141200Z VRB02KT 15SM FEW055 BKN140 BKN240 17/14 A3009 RMK SC1AC4CI2 SLP188 DENSITY ALT 400FT

CYGK;2015-06-14 13:00;CYGK 141300Z 16002KT 15SM FEW060 BKN140 BKN210 17/14 A3009 RMK SC1AC4CI2 ACC ASOCTD NW SLP188 DENSITY ALT 400FT

CYGK;2015-06-14 14:00;CYGK 141400Z 16004KT 15SM FEW060 BKN130 BKN210 18/13 A3008 RMK SC1AC5CI1 SLP187 DENSITY ALT 500FT

CYGK;2015-06-14 15:00;CYGK 141500Z VRB02KT 15SM SCT140 BKN210 19/15 A3008 RMK AC4CI3 ACC ASOCTD E SLP187 DENSITY ALT 600FT

CYGK;2015-06-14 16:00;CYGK 141600Z 15005KT 15SM FEW030 SCT140 BKN210 21/15 A3006 RMK CU1AC4CI3 CU TR SLP181 DENSITY ALT 900FT

CYGK;2015-06-14 17:00;CYGK 141700Z 15005KT 15SM FEW030 SCT130 BKN200 23/14 A3006 RMK CU1AC4CI3 CU TR SLP180 DENSITY ALT 1100FT

CYGK;2015-06-14 18:00;CYGK 141800Z 13005KT 15SM FEW030 BKN130 BKN200 24/16 A3004 RMK CU1AC5CI2 CU TR SLP173 DENSITY ALT 1200FT

CYGK;2015-06-14 19:00;CYGK 141900Z 13004KT 15SM FEW030 FEW100 BKN140 OVC200 24/14 A3002 RMK CU1AC1AC5CI2 CU TR SLP165 DENSITY ALT 1300FT

CYGK;2015-06-14 20:00;CYGK 142000Z 14004KT 15SM FEW030 BKN100 OVC150 24/16 A3000 RMK CU1AC5AC3 CU TR SLP160 DENSITY ALT 1300FT

CYGK;2015-06-14 20:34;CYGK 142034Z 14005KT 15SM -SHRA FEW058 BKN090 OVC110 24/16 A3000 RMK SC2AC3AC3 SLP158 DENSITY ALT 1200FT

CYGK;2015-06-14 21:00;CYGK 142100Z 10004KT 12SM -SHRA SCT050 BKN090 OVC120 23/18 A2999 RMK SC3AC3AC2 SLP155 DENSITY ALT 1100FT

CYGK;2015-06-14 22:00;CYGK 142200Z 10004KT 12SM -RA BKN050 OVC090 22/18 A2997 RMK SC5AC3 SLP149 DENSITY ALT 1100FT

CYGK;2015-06-14 23:00;CYGK 142300Z 06004KT 15SM -RA SCT050 OVC100 21/18 A2997 RMK SC3AC5 SLP148 DENSITY ALT 900FT

CYGK;2015-06-15 00:00;CYGK 150000Z 06010KT 15SM FEW060 BKN086 OVC250 20/18 A2996 RMK SC1AC6CI1 SLP145 DENSITY ALT 900FT

CYGK;2015-06-15 01:00;CYGK 150100Z 09009KT 8SM -RA FEW050 BKN060 OVC080 19/16 A2996 RMK SC2NS5AC1 SLP146 DENSITY ALT 700FT

CYGK;2015-06-15 02:00;CYGK 150200Z 07009KT 8SM FEW045 BKN060 OVC100 17/16 A2994 RMK SC2NS5AC1 SLP138 DENSITY ALT 600FT

CYGK;2015-06-15 03:00;CYGK 150300Z 07010KT 8SM -RA BKN030 OVC055 17/17 A2993 RMK SC6NS2 LAST STFD OBS/NEXT 151000 UTC SLP135 DENSITY ALT 600FT

CYGK;2015-06-15 10:00;CYGK 151000Z 32006KT 2SM BR BKN002 OVC007 17/17 A2989 RMK SF5ST3 SLP120 DENSITY ALT 600FT

CYGK;2015-06-15 10:33;CYGK 151033Z 34006KT 2SM BR OVC003 17/17 A2989 RMK ST8 SLP121 DENSITY ALT 600FT

CYGK;2015-06-15 11:00;CYGK 151100Z 36005KT 3SM BR OVC003 17/17 A2989 RMK SF8 CIG RAG SLP122 DENSITY ALT 600FT

CYGK;2015-06-15 12:00;CYGK 151200Z 01004KT 6SM BR OVC004 18/17 A2990 RMK ST8 SLP125 DENSITY ALT 700FT

CYGK;2015-06-15 13:00;CYGK 151300Z 30007KT 3SM BR OVC003 18/17 A2992 RMK ST8 SLP131 DENSITY ALT 600FT

CYGK;2015-06-15 13:14;CYGK 151314Z 30006KT 4SM BR SCT003 OVC007 18/18 A2992 RMK SF4ST4 SLP132 DENSITY ALT 700FT

CYGK;2015-06-15 13:25;CYGK 151325Z 31006KT 4SM BR OVC004 18/18 A2992 RMK ST8 CIG RAG SLP131 DENSITY ALT 700FT

CYGK;2015-06-15 13:51;CYGK 151351Z 36007KT 8SM OVC005 19/18 A2992 RMK SF8 SLP130 DENSITY ALT 800FT

CYGK;2015-06-15 14:00;CYGK 151400Z 35007KT 8SM OVC007 19/18 A2992 RMK SC8 SLP131 DENSITY ALT 800FT

CYGK;2015-06-15 15:00;CYGK 151500Z 32003KT 290V060 15SM BKN010 BKN270 20/18 A2992 RMK SC7CI1 CI TR SLP131 DENSITY ALT 900FT

CYGK;2015-06-15 16:00;CYGK 151600Z 16007KT 12SM FEW008 OVC013 20/18 A2993 RMK SF1SC7 SLP135 DENSITY ALT 900FT

CYGK;2015-06-15 16:14;CYGK 151614Z 19007KT 12SM VCFG FEW008 OVC014 19/18 A2994 RMK SF1SC7 VIS S 3 SLP137 DENSITY ALT 800FT

CYGK;2015-06-15 17:00;CYGK 151700Z 19008KT 8SM VCFG OVC014 19/18 A2994 RMK SC8 SLP137 DENSITY ALT 800FT

CYGK;2015-06-15 17:25;CYGK 151725Z 19009KT 8SM VCFG OVC009 19/18 A2994 RMK SC8 VIS S 4 SLP137 DENSITY ALT 700FT

CYGK;2015-06-15 18:00;CYGK 151800Z 19009KT 6SM BR VCFG SCT010 BKN020 19/18 A2993 RMK SC4SC3 VIS S 3 SLP136 DENSITY ALT 800FT

CYGK;2015-06-15 19:00;CYGK 151900Z 19010KT 8SM VCFG FEW012 SCT028 BKN095 20/18 A2993 RMK SF2SC2AC2 FG BNK S OVR LK SLP135 DENSITY ALT 900FT

CYGK;2015-06-15 19:31;CYGK 151931Z 19009KT 5SM BR VCFG FEW002 SCT012 BKN090 BKN250 18/17 A2993 RMK SF2SC1AC3CI1 FG BANK SE-S OVER LK SLP134 DENSITY ALT 700FT

CYGK;2015-06-15 20:00;CYGK 152000Z 19008KT 6SM BR VCFG FEW002 FEW012 SCT088 BKN200 18/17 A2992 RMK SF1CU1AC2CI2 FG BANK SE-S OVR LK VIS S 2 SLP133 DENSITY ALT 700FT

CYGK;2015-06-15 21:00;CYGK 152100Z 18007KT 6SM BR VCFG BKN002 BKN015 BKN090 17/16 A2992 RMK SF6CU1AC1 CU TR FG BNK SE-SW VIS S 2 SLP131 DENSITY ALT 600FT

CYGK;2015-06-15 21:13;CYGK 152113Z 18007KT 6SM BR VCFG SCT002 BKN007 BKN090 18/17 A2992 RMK SF4SC1AC2 FG BNK SE-S VIS SE-S 1 SLP131 DENSITY ALT 600FT

CYGK;2015-06-15 21:39;CYGK 152139Z 19008KT 6SM BR VCFG FEW002 SCT007 SCT090 BKN250 18/17 A2991 RMK SF2SF2AC1CI2 AC TR VIS NE 3 VIS E-SW 1/2 VIS W -NE 10 SLP128 DENSITY ALT 700FT

CYGK;2015-06-15 22:00;CYGK 152200Z 18007KT 6SM BR VCFG FEW002 SCT007 BKN250 17/16 A2991 RMK FG1SF1SF2CI2 VIS E-SW 1/2 VIS N 15 SLP127 DENSITY ALT 600FT

CYGK;2015-06-15 22:22;CYGK 152222Z 17007KT 5SM BR VCFG BKN002 BKN250 16/15 A2990 RMK FG1SF4CI2 VIS E-SW 1/2 SLP127 DENSITY ALT 500FT

CYGK;2015-06-15 22:39;CYGK 152239Z 15004KT 2SM BR BKN002 BKN250 16/16 A2990 RMK FG4SF2CI1 VIS E-SW 1/2 SLP125 DENSITY ALT 500FT

CYGK;2015-06-15 22:48;CYGK 152248Z 16005KT 3/4SM BR BKN002 OVC250 16/15 A2989 RMK FG4SF3CI1 VIS N 3 VIS S 1/2 SLP123 DENSITY ALT 500FT

CYGK;2015-06-15 23:00;CYGK 152300Z 16006KT 1/4SM FG OVC002 16/15 A2989 RMK FG6SF2 SLP123 DENSITY ALT 400FT

CYGK;2015-06-15 23:17;CYGK 152317Z 14004KT 1/8SM FG VV001 16/15 A2989 RMK FG8 SLP123 DENSITY ALT 400FT

CYGK;2015-06-16 00:00;CYGK 160000Z 18003KT 1/2SM FG VV002 16/15 A2989 RMK FG8 SLP123 DENSITY ALT 400FT

CYGK;2015-06-16 00:12;CYGK 160012Z 18005KT 3/4SM BR BKN002 BKN250 15/15 A2989 RMK FG4SF2CI1 VIS S 1/2 SLP123 DENSITY ALT 400FT

CYGK;2015-06-16 00:38;CYGK 160038Z 00000KT 3SM BR SCT002 BKN250 15/15 A2989 RMK SF4CI3 VIS S 1/2 SLP123 DENSITY ALT 400FT

CYGK;2015-06-16 01:00;CYGK 160100Z 08002KT 8SM FEW002 FEW100 BKN250 15/15 A2989 RMK SF1AC1CI5 SLP122 DENSITY ALT 400FT

CYGK;2015-06-16 02:00;CYGK 160200Z 18003KT 12SM FEW100 BKN250 15/15 A2990 RMK AC1CI6 SLP124 DENSITY ALT 400FT

CYGK;2015-06-16 03:00;CYGK 160300Z 12002KT 12SM SCT080 OVC250 15/15 A2989 RMK AC3CI5 LAST STFD OBS/NEXT 161000 UTC SLP122 DENSITY ALT 400FT

CYGK;2015-06-16 10:00;CYGK 161000Z 17003KT 2SM BR FEW002 OVC009 16/16 A2980 RMK SF2ST6 SLP092 DENSITY ALT 600FT

CYGK;2015-06-16 10:12;CYGK 161012Z 17002KT 2SM BR FEW002 OVC005 16/16 A2980 RMK SF2ST6 SLP092 DENSITY ALT 600FT

CYGK;2015-06-16 10:24;CYGK 161024Z 18003KT 2SM BR OVC003 16/16 A2981 RMK ST8 SLP094 DENSITY ALT 600FT

CYGK;2015-06-16 10:33;CYGK 161033Z 17003KT 2SM BR OVC002 16/16 A2980 RMK ST8 SLP092 DENSITY ALT 600FT

CYGK;2015-06-16 11:00;CYGK 161100Z 17003KT 1SM BR OVC002 16/16 A2980 RMK FG4ST4 SLP092 DENSITY ALT 600FT

CYGK;2015-06-16 11:11;CYGK 161111Z 15003KT 1/2SM FG VV002 16/16 A2980 RMK FG8 SLP091 DENSITY ALT 500FT

CYGK;2015-06-16 11:22;CYGK 161122Z 17003KT 1/2SM -RA FG VV002 16/16 A2980 RMK FG8 SLP092 DENSITY ALT 500FT

CYGK;2015-06-16 11:37;CYGK 161137Z 19003KT 140V200 3/8SM -RA FG VV001 16/16 A2981 RMK FG8 SLP094 DENSITY ALT 500FT

CYGK;2015-06-16 12:00;CYGK 161200Z VRB02KT 1/2SM -RA FG VV002 16/16 A2981 RMK FG8 SLP096 DENSITY ALT 600FT

CYGK;2015-06-16 12:12;CYGK 161212Z 23002KT 1 1/4SM -RA BR OVC003 16/16 A2982 RMK FG3ST5 SLP098 DENSITY ALT 600FT

CYGK;2015-06-16 12:52;CYGK 161252Z VRB02KT 3SM -RA BR FEW003 OVC060 17/17 A2982 RMK SF2SC6 SLP098 DENSITY ALT 700FT

CYGK;2015-06-16 13:00;CYGK 161300Z 23002KT 3SM -RA BR FEW003 OVC060 18/18 A2982 RMK SF1SC7 VIS SW-SE 1 SLP097 DENSITY ALT 700FT

CYGK;2015-06-16 14:00;CYGK 161400Z 32006KT 250V360 4SM -RA BR SCT010 OVC060 19/19 A2982 RMK CU4SC4 SLP097 DENSITY ALT 900FT

CYGK;2015-06-16 14:10;CYGK 161410Z 35006KT 300V010 12SM -RA FEW004 SCT010 BKN070 18/18 A2981 RMK CF2SC1AC4 PRESFR SLP094 DENSITY ALT 800FT

CYGK;2015-06-16 14:23;CYGK 161423Z 31008KT 300V010 15SM FEW005 SCT010 BKN070 OVC110 19/18 A2980 RMK SF2SC1AC2AC3 SLP092 DENSITY ALT 900FT

CYGK;2015-06-16 15:00;CYGK 161500Z 36006KT 15SM FEW010 FEW070 BKN130 19/17 A2981 RMK SC1AC1AC5 SLP096 DENSITY ALT 900FT

CYGK;2015-06-16 16:00;CYGK 161600Z 26005KT 250V340 15SM FEW020 SCT150 22/17 A2984 RMK CU1AC4 CU TR SLP103 DENSITY ALT 1200FT

CYGK;2015-06-16 17:00;CYGK 161700Z 24006KT 15SM FEW030 FEW180 FEW250 24/17 A2985 RMK CU1AC1CI1 CI TR SLP107 DENSITY ALT 1400FT

CYGK;2015-06-16 18:00;CYGK 161800Z 28006G15KT 15SM BKN038 25/18 A2985 RMK CU5 SLP108 DENSITY ALT 1500FT

CYGK;2015-06-16 19:00;CYGK 161900Z 17008KT 15SM BKN036TCU 20/17 A2986 RMK TCU7 SLP110 DENSITY ALT 1000FT

CYGK;2015-06-16 19:48;CYGK 161948Z 15003KT 070V160 15SM -SHRA BKN040TCU BKN070 22/19 A2986 RMK TCU5AC2 SLP112 DENSITY ALT 1200FT

CYGK;2015-06-16 20:00;CYGK 162000Z VRB02KT 15SM BKN040TCU BKN080 26/21 A2986 RMK TCU5AC1 SLP109 DENSITY ALT 1600FT

CYGK;2015-06-16 21:04;CYGK 162104Z 35008KT 330V090 15SM -SHRA BKN036TCU 24/19 A2987 RMK TCU7 SLP115 DENSITY ALT 1400FT

CYGK;2015-06-16 21:22;CYGK 162122Z 34004KT 15SM VCSH SCT035TCU BKN070 22/19 A2987 RMK TCU4AC3 SLP115 DENSITY ALT 1200FT

CYGK;2015-06-16 22:00;CYGK 162200Z 02006KT 350V070 15SM FEW015 SCT032TCU BKN070 22/20 A2990 RMK CF1TCU3AC3 SHWRS SE-SW SLP124 DENSITY ALT 1200FT

CYGK;2015-06-16 23:00;CYGK 162300Z 02011G16KT 15SM SCT030 SCT060 BKN090 23/16 A2992 RMK SC3SC1AC1 SHWRS SW SLP132 DENSITY ALT 1300FT

CYGK;2015-06-17 00:00;CYGK 170000Z 01012G19KT 15SM SCT070 22/14 A2995 RMK AC3 SLP143 DENSITY ALT 1100FT

CYGK;2015-06-17 01:00;CYGK 170100Z 01008KT 15SM FEW040 FEW070 20/14 A2999 RMK SC1AC1 SLP156 DENSITY ALT 800FT

CYGK;2015-06-17 02:00;CYGK 170200Z 01006KT 15SM FEW040 20/13 A3003 RMK SC1 SLP171 DENSITY ALT 700FT

CYGK;2015-06-17 03:00;CYGK 170300Z 36004KT 15SM FEW040 17/12 A3006 RMK SC1 SC TR LAST STFD OBS/NEXT 171000UTC SLP181 DENSITY ALT 400FT

CYGK;2015-06-17 10:00;CYGK 171000Z 01005KT 15SM FEW150 FEW250 12/08 A3016 RMK AC1CI1 SLP215

CYGK;2015-06-17 11:00;CYGK 171100Z 03005KT 15SM BKN250 14/09 A3018 RMK CI5 SLP219

CYGK;2015-06-17 12:00;CYGK 171200Z 06008KT 15SM BKN250 17/09 A3020 RMK CI5 SLP225

CYGK;2015-06-17 13:00;CYGK 171300Z 09007KT 060V130 15SM FEW180 SCT250 18/08 A3020 RMK AC1CI3 SLP227 DENSITY ALT 400FT

CYGK;2015-06-17 14:00;CYGK 171400Z 12009KT 15SM FEW180 SCT250 19/08 A3022 RMK AC1CI2 SLP232 DENSITY ALT 400FT

CYGK;2015-06-17 15:00;CYGK 171500Z 10007KT 060V120 15SM FEW180 BKN250 20/09 A3021 RMK AC1CI6 SLP231 DENSITY ALT 500FT

CYGK;2015-06-17 16:00;CYGK 171600Z 13007KT 050V170 15SM FEW180 BKN250 20/10 A3021 RMK AC1CI4 SLP231 DENSITY ALT 600FT

CYGK;2015-06-17 17:00;CYGK 171700Z 16009KT 15SM 20/10 A3020 RMK SLP227 DENSITY ALT 600FT

CYGK;2015-06-17 18:00;CYGK 171800Z 12007KT 100V170 15SM FEW040 FEW180 BKN250 21/10 A3017 RMK CU1AC1CI4 TR CU SLP216 DENSITY ALT 700FT

CYGK;2015-06-17 19:00;CYGK 171900Z 15009KT 15SM FEW040 FEW160 BKN240 21/09 A3014 RMK CU1AC2CI4 CU TR SLP205 DENSITY ALT 800FT

CYGK;2015-06-17 20:00;CYGK 172000Z 19003KT 140V220 15SM FEW160 SCT210 BKN300 21/09 A3013 RMK AC1CC3CI3 SLP202 DENSITY ALT 800FT

CYGK;2015-06-17 21:00;CYGK 172100Z 15003KT 110V180 15SM FEW040 SCT170 BKN300 21/10 A3010 RMK CU1AC3CI4 CU TR SLP193 DENSITY ALT 900FT

CYGK;2015-06-17 22:00;CYGK 172200Z 17003KT 140V220 15SM FEW040 FEW170 SCT300 21/10 A3008 RMK CU1AC2CI2 CU TR SLP187 DENSITY ALT 900FT

CYGK;2015-06-17 23:00;CYGK 172300Z 15004KT 15SM FEW040 SCT170 BKN300 20/09 A3008 RMK CU1AC3CI3 CU TR SLP185 DENSITY ALT 700FT

CYGK;2015-06-18 00:00;CYGK 180000Z 17004KT 15SM FEW170 BKN300 20/10 A3006 RMK AC2CI4 SLP180 DENSITY ALT 700FT

CYGK;2015-06-18 01:00;CYGK 180100Z 17003KT 15SM FEW170 SCT300 17/10 A3006 RMK AC1CI3 SLP178 DENSITY ALT 400FT

CYGK;2015-06-18 02:00;CYGK 180200Z 00000KT 15SM SCT150 BKN250 16/10 A3006 RMK AC3CI4 SLP179

CYGK;2015-06-18 03:00;CYGK 180300Z 02002KT 15SM FEW050 OVC150 16/12 A3005 RMK SC2AC6 LAST STFD OBS/NEXT 181000UTC SLP176

CYGK;2015-06-18 10:00;CYGK 181000Z VRB02KT 15SM BKN130 BKN250 15/13 A2997 RMK AC6CI1 SLP148

CYGK;2015-06-18 11:00;CYGK 181100Z 18003KT 15SM SCT120 BKN250 17/15 A2997 RMK AC4CI3 SLP148 DENSITY ALT 500FT

CYGK;2015-06-18 12:00;CYGK 181200Z 17008KT 15SM SCT045 BKN120 BKN250 17/15 A2997 RMK SC3AC2CI2 SLP149 DENSITY ALT 500FT

CYGK;2015-06-18 13:00;CYGK 181300Z 17005KT 15SM FEW020 FEW045 SCT110 BKN250 18/15 A2998 RMK CF1SC1AC3CI2 CF TR SLP151 DENSITY ALT 600FT

CYGK;2015-06-18 14:00;CYGK 181400Z 18008KT 15SM FEW045 SCT110 BKN250 19/16 A2996 RMK SC1AC2CI3 SLP147 DENSITY ALT 700FT

CYGK;2015-06-18 15:00;CYGK 181500Z 15008KT 15SM FEW020 SCT100 SCT180 18/15 A2995 RMK CU1AC3AC1 AC TR SLP144 DENSITY ALT 700FT

CYGK;2015-06-18 16:00;CYGK 181600Z 16009KT 12SM FEW025 FEW170 SCT250 18/16 A2994 RMK CU1AC1CI2 CU TR SLP140 DENSITY ALT 700FT

CYGK;2015-06-18 17:00;CYGK 181700Z 17008KT 10SM FEW035 FEW100 SCT250 19/16 A2993 RMK CU1AC1CI1 SLP134 DENSITY ALT 800FT

CYGK;2015-06-18 18:00;CYGK 181800Z 19011KT 12SM FEW040 FEW170 FEW250 19/17 A2990 RMK CU1AC1CI2 CU TR AC TR SLP127 DENSITY ALT 800FT

CYGK;2015-06-18 19:00;CYGK 181900Z 19011KT 12SM FEW040 SCT250 20/17 A2989 RMK CU1CI3 CU TR SLP120 DENSITY ALT 1000FT

CYGK;2015-06-18 20:00;CYGK 182000Z 19011KT 12SM FEW045 BKN250 22/17 A2986 RMK CU1CI5 CU TR SLP111 DENSITY ALT 1200FT

CYGK;2015-06-18 21:00;CYGK 182100Z 19010KT 15SM FEW040 BKN250 22/18 A2984 RMK CU1CI5 CU TR SLP104 DENSITY ALT 1200FT

CYGK;2015-06-18 22:00;CYGK 182200Z 19009KT 15SM FEW050 SCT250 23/17 A2982 RMK CU1CI4 CU TR SLP098 DENSITY ALT 1300FT

CYGK;2015-06-18 23:00;CYGK 182300Z 21005KT 15SM BKN090 BKN250 22/17 A2981 RMK AC5CI2 SLP095 DENSITY ALT 1200FT

CYGK;2015-06-19 00:00;CYGK 190000Z 21005KT 15SM SCT040 OVC085 21/17 A2981 RMK CU4AC4 SLP096 DENSITY ALT 1200FT

CYGK;2015-06-19 01:00;CYGK 190100Z 22005KT 190V250 15SM FEW035 BKN085 OVC250 21/17 A2981 RMK CU2AC4CI2 SLP093 DENSITY ALT 1100FT

CYGK;2015-06-19 02:00;CYGK 190200Z 25006KT 15SM FEW040 BKN065 OVC250 21/17 A2982 RMK CU2CU3CI3 SLP098 DENSITY ALT 1100FT

CYGK;2015-06-19 03:00;CYGK 190300Z 29005KT 15SM FEW020 BKN045 OVC200 21/17 A2983 RMK CU2SC3CI3 LAST STFD OBS/NEXT 191000 UTC SLP100 DENSITY ALT 1200FT

CYGK;2015-06-19 10:00;CYGK 191000Z 01017G24KT 15SM BKN018 BKN070 13/10 A2997 RMK SC6AC1 SLP148

CYGK;2015-06-19 11:00;CYGK 191100Z 36013G20KT 15SM OVC016 13/10 A3000 RMK SC8 SLP160

CYGK;2015-06-19 12:00;CYGK 191200Z 04011KT 15SM FEW019 FEW040 SCT070 SCT220 14/09 A3003 RMK SC1SC1AC1CI1 SLP169

CYGK;2015-06-19 13:00;CYGK 191300Z 02010G17KT 350V050 15SM FEW020 FEW040 FEW080 SCT250 14/09 A3005 RMK SC1SC1AC2CI1 SC TR SC TR SLP177

CYGK;2015-06-19 14:00;CYGK 191400Z 02010KT 340V050 15SM FEW020 FEW070 FEW250 16/08 A3006 RMK SC1AC1CI1 SC TR ACC ASOCTD SW SLP180

CYGK;2015-06-19 15:00;CYGK 191500Z 36010G18KT 340V040 15SM FEW025 FEW070 FEW250 16/08 A3006 RMK SC1AC1CI1 SC TR AC TR SLP181

CYGK;2015-06-19 16:00;CYGK 191600Z 03011G17KT 330V060 15SM FEW025 FEW080 SCT250 17/07 A3006 RMK SC1AC1CI3 SC TR AC TR SLP180 DENSITY ALT 400FT

CYGK;2015-06-19 17:00;CYGK 191700Z 05007G16KT 350V070 15SM FEW035 BKN250 18/08 A3008 RMK CU1CI5 CU TR SLP186 DENSITY ALT 500FT

CYGK;2015-06-19 18:00;CYGK 191800Z 01011KT 15SM FEW035 BKN230 19/06 A3007 RMK CU1CI6 CU TR SLP184 DENSITY ALT 600FT

CYGK;2015-06-19 19:00;CYGK 191900Z 05008KT 340V080 15SM FEW035 BKN250 20/07 A3007 RMK CU1CI5 CU TR SLP183 DENSITY ALT 800FT

CYGK;2015-06-19 20:00;CYGK 192000Z 36005KT 330V030 15SM FEW040 BKN250 20/08 A3006 RMK CU1CI6 CU TR SLP181 DENSITY ALT 800FT

CYGK;2015-06-19 21:00;CYGK 192100Z 01007KT 340V080 15SM SCT250 21/07 A3007 RMK CI4 SLP183 DENSITY ALT 800FT

CYGK;2015-06-19 22:00;CYGK 192200Z VRB04KT 15SM SCT250 20/06 A3007 RMK CI3 SLP182 DENSITY ALT 800FT

CYGK;2015-06-19 23:00;CYGK 192300Z 22005KT 15SM FEW250 18/10 A3006 RMK CI2 SLP179 DENSITY ALT 600FT

CYGK;2015-06-20 00:00;CYGK 200000Z 20004KT 15SM FEW250 17/10 A3006 RMK CI1 SLP182 DENSITY ALT 400FT

CYGK;2015-06-20 01:00;CYGK 200100Z 25002KT 15SM FEW250 14/10 A3007 RMK CI2 SLP183

CYGK;2015-06-20 02:00;CYGK 200200Z 29002KT 15SM FEW250 15/10 A3008 RMK CI2 SLP187

CYGK;2015-06-20 03:00;CYGK 200300Z 35005KT 15SM FEW250 12/10 A3008 RMK CI1 LAST STFD OBS/NEXT 201000 UTC SLP188

CYGK;2015-06-20 10:00;CYGK 201000Z 04002KT 15SM FEW250 08/07 A3008 RMK CI1 CI TR SLP187

CYGK;2015-06-20 11:00;CYGK 201100Z 07003KT 360V080 15SM FEW010 FEW250 13/11 A3008 RMK SC1CI1 SC TR SLP187

CYGK;2015-06-20 12:00;CYGK 201200Z 13004KT 070V150 15SM FEW010 FEW250 15/11 A3007 RMK SF1CI1 SF TR SLP184

CYGK;2015-06-20 13:00;CYGK 201300Z 14006KT 15SM FEW030 SCT250 16/12 A3006 RMK SC1CI3 SC TR SLP180

CYGK;2015-06-20 14:00;CYGK 201400Z 13003KT 110V170 15SM SCT250 17/11 A3004 RMK CI3 SLP174 DENSITY ALT 400FT

CYGK;2015-06-20 15:00;CYGK 201500Z 15003KT 100V220 15SM FEW120 BKN200 19/11 A3004 RMK AC1CI7 AC TR SLP172 DENSITY ALT 600FT

CYGK;2015-06-20 16:00;CYGK 201600Z 15004KT 130V210 15SM FEW120 BKN230 20/10 A3001 RMK ACC1CI7 ACC TR DIST S SLP163 DENSITY ALT 800FT

CYGK;2015-06-20 17:00;CYGK 201700Z 17005KT 120V190 15SM FEW050 FEW140 BKN230 21/12 A3000 RMK CF1AC1CI6 CF TR ACC ASOCTD S SLP160 DENSITY ALT 900FT

CYGK;2015-06-20 18:00;CYGK 201800Z 16004KT 100V190 15SM FEW045 FEW140 BKN230 22/12 A2997 RMK CU1AC1CI5 SLP148 DENSITY ALT 1000FT

CYGK;2015-06-20 19:00;CYGK 201900Z 16006KT 140V200 15SM BKN040 OVC250 23/14 A2995 RMK SC5CI3 SLP142 DENSITY ALT 1200FT

CYGK;2015-06-20 20:00;CYGK 202000Z 15004KT 130V190 15SM FEW042 FEW160 BKN200 23/14 A2993 RMK SC1AC1CI6 AC TR SLP136 DENSITY ALT 1300FT

CYGK;2015-06-20 21:00;CYGK 202100Z 20004KT 15SM FEW040 BKN250 24/16 A2990 RMK SC1CI5 SLP125 DENSITY ALT 1300FT

CYGK;2015-06-20 22:00;CYGK 202200Z 24003KT 210V310 15SM FEW040 BKN250 24/17 A2987 RMK CU1CI5 SLP116 DENSITY ALT 1400FT

CYGK;2015-06-20 23:00;CYGK 202300Z VRB02KT 15SM FEW040 BKN250 24/17 A2984 RMK CU1CI5 SLP105 DENSITY ALT 1500FT

CYGK;2015-06-21 00:00;CYGK 210000Z 19009KT 15SM FEW035 BKN250 22/17 A2984 RMK CU2CI4 SLP105 DENSITY ALT 1200FT

CYGK;2015-06-21 01:00;CYGK 210100Z 18003KT 15SM FEW035 BKN065 OVC250 21/17 A2985 RMK CU2SC4CI2 SLP108 DENSITY ALT 1100FT

CYGK;2015-06-21 02:00;CYGK 210200Z 17006KT 15SM SCT017 BKN060 OVC100 20/17 A2984 RMK CU4SC2AC2 SLP105 DENSITY ALT 1000FT

CYGK;2015-06-21 03:00;CYGK 210300Z 16005KT 15SM SCT017 OVC040 19/18 A2984 RMK CU4SC4 LAST STFD OBS/NEXT 211000 UTC SLP103 DENSITY ALT 900FT

CYGK;2015-06-21 10:00;CYGK 211000Z 17004KT 8SM BKN010 OVC019 18/17 A2974 RMK SC5SC3 SLP071 DENSITY ALT 800FT

CYGK;2015-06-21 10:26;CYGK 211026Z 25002KT 10SM BKN009 OVC019 18/17 A2975 RMK ST7SC1 SLP072 DENSITY ALT 900FT

CYGK;2015-06-21 11:00;CYGK 211100Z 19002KT 8SM BKN007 OVC011 18/17 A2974 RMK SF7SC1 SLP071 DENSITY ALT 900FT

CYGK;2015-06-21 11:20;CYGK 211120Z 19003KT 8SM OVC005 18/17 A2975 RMK SF8 SLP073 DENSITY ALT 900FT

CYGK;2015-06-21 12:00;CYGK 211200Z 17005KT 6SM BR OVC004 18/18 A2974 RMK SF8 SLP071 DENSITY ALT 900FT

CYGK;2015-06-21 12:50;CYGK 211250Z 15003KT 4SM BR SCT002 OVC003 19/18 A2974 RMK FG2SF1ST5 VIS SE-SW 1/2 SLP070 DENSITY ALT 1000FT

CYGK;2015-06-21 13:04;CYGK 211304Z 15005KT 1/4SM FG VV002 18/18 A2973 RMK FG8 SLP068 DENSITY ALT 900FT

CYGK;2015-06-21 14:00;CYGK 211400Z 16004KT 1/4SM FG VV001 19/18 A2973 RMK FG8 VIS N 1/2 SLP068 DENSITY ALT 1000FT

CYGK;2015-06-21 14:46;CYGK 211446Z 17005KT 1/2SM FG VV001 19/18 A2972 RMK FG8 VIS N 1 SLP064 DENSITY ALT 1000FT

CYGK;2015-06-21 15:00;CYGK 211500Z 18003KT 140V210 1SM BR BKN002 OVC020 19/18 A2973 RMK FG2SF5SC1 VIS N 2 VIS S 1/2 SLP066 DENSITY ALT 1000FT

CYGK;2015-06-21 15:04;CYGK 211504Z 16004KT 130V210 2SM BR PRFG SCT002 BKN019 19/18 A2972 RMK FG1SF3SC3 VIS SE-SW 1/2 SLP065 DENSITY ALT 1000FT

CYGK;2015-06-21 15:21;CYGK 211521Z VRB02KT 6SM BR FEW002 SCT019 SCT035 BKN100 20/18 A2972 RMK SF1CU2SC1AC2 VIS SE-SW 1 SLP064 DENSITY ALT 1100FT

CYGK;2015-06-21 16:00;CYGK 211600Z 16008KT 6SM BR FEW020TCU SCT050 BKN080 BKN210 19/17 A2972 RMK TCU2SC2AC1CI2 SLP064 DENSITY ALT 1000FT

CYGK;2015-06-21 17:00;CYGK 211700Z 16007KT 6SM BR FEW020 BKN060 BKN080 BKN210 20/18 A2972 RMK CU2SC3AC1CI1 SLP062 DENSITY ALT 1100FT

CYGK;2015-06-21 17:20;CYGK 211720Z 15007KT 5SM BR PRFG SCT002 SCT020TCU BKN060 BKN080 20/18 A2971 RMK FG1SF2TCU1SC2AC1 SLP060 DENSITY ALT 1200FT

CYGK;2015-06-21 18:00;CYGK 211800Z 17007KT 5SM BR FEW002 FEW020TCU BKN060 BKN220 19/17 A2972 RMK SF1TCU1SC5CI1 SF TR SLP065 DENSITY ALT 1000FT

CYGK;2015-06-21 18:27;CYGK 211827Z 18004KT 140V210 5SM -SHRA BR FEW020TCU BKN055 OVC220 21/19 A2971 RMK TCU2SC4CI2 SLP060 DENSITY ALT 1300FT

CYGK;2015-06-21 19:00;CYGK 211900Z 21008KT 8SM SCT035TCU BKN060 OVC090 25/21 A2971 RMK TCU3SC3AC2 OCNL -SHRA TCU NW-NE SLP060 DENSITY ALT 1700FT

CYGK;2015-06-21 19:23;CYGK 211923Z 23007KT 8SM FEW035TCU BKN060 BKN170 25/21 A2970 RMK TCU2SC3AC1 SLP057 DENSITY ALT 1700FT

CYGK;2015-06-21 20:00;CYGK 212000Z 20009KT 8SM FEW035CB SCT070 24/21 A2970 RMK CB1AC3 CB N SLP055 DENSITY ALT 1600FT

CYGK;2015-06-21 20:20;CYGK 212020Z 19010KT 8SM TS FEW035CB SCT060 BKN160 23/20 A2969 RMK CB2SC2AC1 CB NW-NE SLP054 DENSITY ALT 1600FT

CYGK;2015-06-21 21:00;CYGK 212100Z 19011KT 8SM TS VCSH SCT040CB BKN070 BKN110 24/20 A2968 RMK CB3AC2AC1 CB NW-NE OCNL LTGCG N VIS NW-NE 3 SLP051 DENSITY ALT 1600FT

CYGK;2015-06-21 21:17;CYGK 212117Z 25009KT 190V280 5SM +TSRA FEW022 BKN040CB BKN110 23/20 A2970 RMK CF1CB6AC1 AC TR FRQ LTGCG N-NE SLP055 DENSITY ALT 1500FT

CYGK;2015-06-21 21:22;CYGK 212122Z 34021KT 200V340 2SM TSRA BR FEW020 BKN038CB OVC110 21/19 A2970 RMK CF1CB6AC1 VIS N-NE 1 S 5 PRESRR SLP058 DENSITY ALT 1300FT

CYGK;2015-06-21 21:31;CYGK 212131Z 35003G24KT 8SM -TSRA FEW008 FEW018 BKN030CB BKN120 20/19 A2970 RMK CF1CF1CB5AC1 CF TR CB W N-E OCNL LTGCG W SLP058 DENSITY ALT 1200FT

CYGK;2015-06-21 21:42;CYGK 212142Z 35005KT 330V030 1 1/2SM +TSRA BR FEW008 BKN022CB OVC110 20/19 A2971 RMK CF1CB5AC2 CB W MOVG E SLP061 DENSITY ALT 1200FT

CYGK;2015-06-21 22:00;CYGK 212200Z 24007KT 170V260 5SM +TSRA BR FEW008 BKN022CB OVC100 20/19 A2972 RMK CF1CB6AC1 CB W MOVG E OCNL LTGCG W-N SLP062 DENSITY ALT 1200FT

CYGK;2015-06-21 22:07;CYGK 212207Z 23008KT 190V260 10SM -TSRA FEW022 BKN050CB BKN110 21/20 A2970 RMK CF2CB3AC2 CB N S MOVG E VIS SE 5 SLP058 DENSITY ALT 1300FT

CYGK;2015-06-21 22:12;CYGK 212212Z 22008KT 190V260 12SM VCSH FEW008 BKN038CB BKN100 21/20 A2970 RMK CF1CB6AC1 CF TR VIS SE 5 SLP058 DENSITY ALT 1300FT

CYGK;2015-06-21 23:00;CYGK 212300Z 27003KT 250V320 12SM FEW010 SCT030TCU BKN090 22/20 A2972 RMK CF1TCU3AC2 CF TR TCU ALQDS SLP063 DENSITY ALT 1400FT

CYGK;2015-06-22 00:00;CYGK 220000Z 20008KT 12SM FEW044TCU FEW250 21/19 A2973 RMK TCU2CI1 CI TR SLP066 DENSITY ALT 1200FT

CYGK;2015-06-22 01:00;CYGK 220100Z 29006KT 15SM BKN040TCU BKN250 21/20 A2975 RMK TCU5CI1 TCU NW E SLP074 DENSITY ALT 1300FT

CYGK;2015-06-22 02:00;CYGK 220200Z 31002KT 15SM SCT060 21/19 A2979 RMK CU3 SLP086 DENSITY ALT 1100FT

CYGK;2015-06-22 03:00;CYGK 220300Z 30003KT 15SM BKN060 20/18 A2982 RMK SC6 LAST STFD OBS/NEXT 221000 UTC SLP097 DENSITY ALT 1000FT

CYGK;2015-06-22 10:00;CYGK 221000Z 30006KT 15SM FEW070 FEW270 15/14 A2993 RMK AC1CI1 SLP136

CYGK;2015-06-22 11:00;CYGK 221100Z 31007KT 15SM FEW070 FEW270 17/15 A2995 RMK AC1CI1 AC TR SLP142 DENSITY ALT 500FT

CYGK;2015-06-22 12:00;CYGK 221200Z 31005KT 15SM FEW070 FEW270 19/16 A2997 RMK AC1CI1 AC TR SLP147 DENSITY ALT 800FT

CYGK;2015-06-22 13:00;CYGK 221300Z 30004KT 250V320 15SM FEW030 FEW270 22/17 A2999 RMK CU1CI1 CU TR SLP155 DENSITY ALT 1000FT

CYGK;2015-06-22 14:00;CYGK 221400Z 17007KT 15SM FEW030 FEW270 21/17 A2998 RMK CF1CI1 CF TR CI TR SLP150 DENSITY ALT 1000FT

CYGK;2015-06-22 15:00;CYGK 221500Z 18010KT 15SM SCT033 20/17 A2996 RMK SF3 SLP145 DENSITY ALT 900FT

CYGK;2015-06-22 16:00;CYGK 221600Z 18008KT 15SM FEW035 SCT270 19/17 A2996 RMK CU2CI1 SLP146 DENSITY ALT 800FT

CYGK;2015-06-22 17:00;CYGK 221700Z 19013KT 15SM FEW035 SCT065 20/17 A2999 RMK CU1SC2 SLP156 DENSITY ALT 900FT

CYGK;2015-06-22 18:00;CYGK 221800Z 19012G18KT 15SM FEW035 FEW070 FEW270 22/16 A3000 RMK CU1AC1CI1 AC TR SLP157 DENSITY ALT 1100FT

CYGK;2015-06-22 19:00;CYGK 221900Z 19012KT 15SM FEW040 FEW080 SCT270 21/16 A3000 RMK CU1AC1CI2 AC TR SLP157 DENSITY ALT 900FT

CYGK;2015-06-22 20:00;CYGK 222000Z 18011KT 15SM FEW040 FEW270 20/17 A2997 RMK CU1CI1 SLP149 DENSITY ALT 900FT

CYGK;2015-06-22 21:00;CYGK 222100Z 18009KT 15SM FEW040 SCT250 21/16 A2995 RMK CU1CI4 CU TR SLP142 DENSITY ALT 1000FT

CYGK;2015-06-22 22:00;CYGK 222200Z 17008KT 15SM FEW040 FEW120 BKN250 20/16 A2992 RMK CU1AC1CI6 CU TR AC TR SLP133 DENSITY ALT 900FT

CYGK;2015-06-22 23:00;CYGK 222300Z 15008KT 15SM FEW140 BKN250 18/15 A2991 RMK AC1CS7 AC TR SLP129 DENSITY ALT 700FT

CYGK;2015-06-23 00:00;CYGK 230000Z 17003KT 15SM FEW140 OVC250 18/15 A2992 RMK AC1CS7 SLP131 DENSITY ALT 700FT

CYGK;2015-06-23 01:00;CYGK 230100Z 22005KT 15SM BKN180 OVC240 18/14 A2991 RMK AC6CS2 SLP129 DENSITY ALT 700FT

CYGK;2015-06-23 02:00;CYGK 230200Z 12007KT 15SM BKN140 OVC240 19/15 A2986 RMK AC6CI2 PRESFR SLP110 DENSITY ALT 800FT

CYGK;2015-06-23 03:00;CYGK 230300Z 13006KT 15SM -SHRA SCT065 OVC100 20/15 A2984 RMK CU3AC5 LAST STFD OBS/NEXT 231000 UTC PRESFR SLP105 DENSITY ALT 1000FT

CYGK;2015-06-23 10:00;CYGK 231000Z 19013G19KT 1 1/2SM -TSRA BR SCT003 OVC012CB 18/18 A2967 RMK SF4CB4 OCNL LTNG E PRESFR SLP045 DENSITY ALT 1000FT

CYGK;2015-06-23 10:10;CYGK 231010Z 20015KT 12SM -TSRA FEW003 BKN012 OVC095 19/19 A2967 RMK SF2SC4AC2 CB EMBDD E SLP045 DENSITY ALT 1100FT

CYGK;2015-06-23 10:22;CYGK 231022Z 21013G20KT 15SM -SHRA FEW003 SCT012 BKN020 OVC090 20/19 A2965 RMK SF1SC2SC4AC1 PRESFR SLP041 DENSITY ALT 1200FT

CYGK;2015-06-23 10:39;CYGK 231039Z 20011G16KT 15SM FEW003 SCT014 BKN020 OVC100 20/20 A2967 RMK SF1SC3SC2AC3 SF TR SLP045 DENSITY ALT 1200FT

CYGK;2015-06-23 11:00;CYGK 231100Z 21010G16KT 15SM FEW003 SCT014 BKN070 OVC100 20/19 A2966 RMK SF1SC3AC4AC1 SF TR SLP043 DENSITY ALT 1200FT

CYGK;2015-06-23 11:35;CYGK 231135Z 18010KT 6SM -SHRA BR BKN002 OVC018 18/18 A2964 RMK SF5SC3 SLP037 DENSITY ALT 1000FT

CYGK;2015-06-23 11:48;CYGK 231148Z 16010KT 10SM FEW002 SCT018 BKN032 OVC070 18/18 A2964 RMK SF2SC2SC3AC1 SLP036 DENSITY ALT 1000FT

CYGK;2015-06-23 12:00;CYGK 231200Z 17011KT 8SM FEW002 BKN030 OVC070 18/18 A2964 RMK SF1SC6AC1 SLP035 DENSITY ALT 1000FT

CYGK;2015-06-23 13:00;CYGK 231300Z 22007KT 10SM FEW005 OVC007 18/18 A2964 RMK SF1SC7 SLP038 DENSITY ALT 1000FT

CYGK;2015-06-23 14:00;CYGK 231400Z 24017G23KT 12SM BKN013 OVC070 21/19 A2964 RMK SC6AC2 SLP036 DENSITY ALT 1400FT

CYGK;2015-06-23 14:44;CYGK 231444Z 23016G21KT 12SM BKN018 BKN060 22/19 A2964 RMK SC5SC2 SLP035 DENSITY ALT 1500FT

CYGK;2015-06-23 15:00;CYGK 231500Z 24018KT 12SM BKN018 OVC250 22/20 A2963 RMK SC5CI3 SLP032 DENSITY ALT 1500FT

CYGK;2015-06-23 16:00;CYGK 231600Z 23017G28KT 15SM FEW010 BKN020 BKN250 24/20 A2963 RMK SF1SC6CI1 SF TR SHWRS DIST W-N SLP033 DENSITY ALT 1700FT

CYGK;2015-06-23 16:21;CYGK 231621Z 26015G25KT 10SM -SHRA BKN017 OVC070 22/19 A2964 RMK CU6AC2 SLP037 DENSITY ALT 1400FT

CYGK;2015-06-23 17:00;CYGK 231700Z 24012G20KT 12SM VCSH SCT018 BKN040 OVC250 23/20 A2966 RMK CU4SC2CI2 SLP042 DENSITY ALT 1500FT

CYGK;2015-06-23 18:00;CYGK 231800Z 26018G32KT 15SM SCT030 SCT220 25/17 A2968 RMK CU3CI1 SLP049 DENSITY ALT 1700FT

CYGK;2015-06-23 19:00;CYGK 231900Z 28017G30KT 15SM FEW040 SCT250 24/15 A2970 RMK CU2CI1 SLP056 DENSITY ALT 1700FT

CYGK;2015-06-23 20:00;CYGK 232000Z 28016G29KT 15SM SCT040 BKN250 24/15 A2973 RMK CU4CI1 SLP068 DENSITY ALT 1600FT

CYGK;2015-06-23 21:00;CYGK 232100Z 28014G21KT 15SM SCT040 SCT250 23/15 A2976 RMK CU3CI1 CI TR SLP078 DENSITY ALT 1400FT

CYGK;2015-06-23 22:00;CYGK 232200Z 28013G20KT 15SM FEW040 FEW270 23/15 A2978 RMK CU1CI1 CB TOP DIST SE SLP085 DENSITY ALT 1400FT

CYGK;2015-06-23 23:00;CYGK 232300Z 26010G18KT 15SM FEW040 FEW270 22/16 A2981 RMK CU1CI1 SLP092 DENSITY ALT 1300FT

CYGK;2015-06-24 00:00;CYGK 240000Z 25010G17KT 15SM FEW040 FEW270 21/15 A2984 RMK CU1CI1 CU TR SLP104 DENSITY ALT 1100FT

CYGK;2015-06-24 01:00;CYGK 240100Z 26009KT 15SM FEW040 20/15 A2985 RMK CU1 CU TR SLP108 DENSITY ALT 1000FT

CYGK;2015-06-24 02:00;CYGK 240200Z 26009KT 15SM SKC 20/15 A2988 RMK SLP119 DENSITY ALT 900FT

CYGK;2015-06-24 03:00;CYGK 240300Z 25008KT 15SM SKC 18/16 A2992 RMK LAST STFD OBS/NEXT 231000 UTC SLP132 DENSITY ALT 700FT

CYGK;2015-06-24 10:00;CYGK 241000Z 34005KT 15SM FEW025 14/13 A3001 RMK CU1 CU TR SLP161

CYGK;2015-06-24 11:00;CYGK 241100Z 01005KT 15SM FEW025 15/13 A3003 RMK CU1 SLP170

CYGK;2015-06-24 12:00;CYGK 241200Z 35007KT 15SM FEW030 16/11 A3005 RMK CU1 CU TR SLP176

CYGK;2015-06-24 13:00;CYGK 241300Z 00000KT 15SM FEW030 17/11 A3006 RMK CU1 SLP179 DENSITY ALT 400FT

CYGK;2015-06-24 14:00;CYGK 241400Z 23007KT 210V310 15SM FEW035 18/11 A3007 RMK CU1 SLP182 DENSITY ALT 500FT

CYGK;2015-06-24 15:00;CYGK 241500Z 18009KT 15SM FEW040 FEW250 18/14 A3007 RMK CU1CI1 CU TR CI TR SLP182 DENSITY ALT 500FT

CYGK;2015-06-24 16:00;CYGK 241600Z /////KT 15SM FEW040 FEW250 18/14 A3007 RMK CU1CI2 CU TR SLP183 DENSITY ALT 500FT

CYGK;2015-06-24 17:00;CYGK 241700Z 19016KT 15SM FEW040 FEW250 18/14 A3007 RMK CU1CI2 CU TR SLP184 DENSITY ALT 500FT

CYGK;2015-06-24 18:00;CYGK 241800Z 18013KT 15SM FEW040 SCT250 18/15 A3004 RMK CU1CI3 CU TR PRESFR SLP174 DENSITY ALT 500FT

CYGK;2015-06-24 19:00;CYGK 241900Z 19015KT 15SM FEW040 BKN200 19/15 A3005 RMK CU1CI5 SLP175 DENSITY ALT 700FT

CYGK;2015-06-24 20:00;CYGK 242000Z 19012KT 15SM FEW040 BKN250 19/15 A3004 RMK SC2CI5 SLP173 DENSITY ALT 600FT

CYGK;2015-06-24 21:00;CYGK 242100Z 21009KT 15SM FEW040 BKN200 20/16 A3005 RMK CU2CI5 SLP176 DENSITY ALT 800FT

CYGK;2015-06-24 22:00;CYGK 242200Z 19007KT 15SM FEW040 SCT100 SCT200 20/15 A3003 RMK CU1AC2CI1 SLP170 DENSITY ALT 800FT

CYGK;2015-06-24 23:00;CYGK 242300Z 22010KT 15SM FEW040 FEW100 FEW200 21/14 A3003 RMK CU1AC1CI1 CI TR SLP168 DENSITY ALT 900FT

CYGK;2015-06-25 00:00;CYGK 250000Z 25010KT 15SM FEW040 FEW100 FEW200 19/13 A3002 RMK CU1AC1CI1 CU TR CI TR SLP167 DENSITY ALT 700FT

CYGK;2015-06-25 01:00;CYGK 250100Z 24006KT 15SM FEW035 FEW200 18/13 A3003 RMK CU1CI1 CI TR SLP168 DENSITY ALT 500FT

CYGK;2015-06-25 02:00;CYGK 250200Z 25003KT 15SM FEW035 FEW200 18/12 A3003 RMK SC1CI1 SC TR CI TR SLP170 DENSITY ALT 600FT

CYGK;2015-06-25 03:00;CYGK 250300Z 24004KT 15SM FEW065 18/12 A3003 RMK SC2 LAST STFD OBS/NEXT 251000UTC SLP170 DENSITY ALT 500FT

CYGK;2015-06-25 10:00;CYGK 251000Z 04004KT 15SM FEW040 FEW120 BKN250 15/13 A3005 RMK SC1AC1CI3 SLP176

CYGK;2015-06-25 11:00;CYGK 251100Z 04007KT 15SM FEW040 FEW120 SCT250 16/14 A3006 RMK SC1AC1CI2 SC TR SLP180

CYGK;2015-06-25 12:00;CYGK 251200Z 06010KT 15SM FEW120 BKN250 18/13 A3006 RMK AC1CI6 AC TR SLP180 DENSITY ALT 500FT

CYGK;2015-06-25 13:00;CYGK 251300Z 05008KT 15SM FEW120 BKN250 19/14 A3007 RMK AC2CI5 SLP182 DENSITY ALT 600FT

CYGK;2015-06-25 14:00;CYGK 251400Z 06006KT 15SM FEW100 OVC220 19/14 A3006 RMK AC1CI7 SLP181 DENSITY ALT 700FT

CYGK;2015-06-25 15:00;CYGK 251500Z 13007KT 15SM FEW040 SCT180 OVC250 20/15 A3007 RMK CU1AC3CI5 CU TR SLP182 DENSITY ALT 800FT

CYGK;2015-06-25 16:00;CYGK 251600Z 15007KT 15SM FEW040 SCT150 OVC250 21/15 A3006 RMK CU1AC2CI5 SLP179 DENSITY ALT 900FT

CYGK;2015-06-25 17:00;CYGK 251700Z 13006KT 15SM FEW040 SCT170 BKN250 21/15 A3004 RMK CU1AC3CI4 CU TR SLP174 DENSITY ALT 900FT

CYGK;2015-06-25 18:00;CYGK 251800Z 13006KT 15SM FEW040 BKN100 OVC250 20/14 A3003 RMK CU1AC5CI2 SLP171 DENSITY ALT 800FT

CYGK;2015-06-25 18:36;CYGK 251836Z 14003KT 15SM -RA FEW040 BKN100 19/15 A3003 RMK CU1AC6 SLP168 DENSITY ALT 600FT

CYGK;2015-06-25 19:00;CYGK 251900Z 12003KT 100V160 15SM -RA FEW040 BKN095 19/15 A3002 RMK CU1AC7 CU TR SLP167 DENSITY ALT 700FT

CYGK;2015-06-25 19:51;CYGK 251951Z 25004KT 15SM FEW040 OVC095 18/16 A3003 RMK CU1AC8 CU TR SLP170 DENSITY ALT 600FT

CYGK;2015-06-25 20:00;CYGK 252000Z 25004KT 15SM FEW040 BKN095 OVC150 18/15 A3003 RMK CU1AC7AC1 CU TR SLP169 DENSITY ALT 600FT

CYGK;2015-06-25 20:10;CYGK 252010Z 25004KT 15SM -RA FEW040 BKN095 OVC150 18/16 A3003 RMK CU1AC7AC1 CU TR SLP168 DENSITY ALT 600FT

CYGK;2015-06-25 21:00;CYGK 252100Z 27004KT 260V340 15SM -RA FEW040 OVC095 20/17 A3002 RMK CU2AC6 SLP166 DENSITY ALT 700FT

CYGK;2015-06-25 22:00;CYGK 252200Z 28003KT 15SM -RA FEW040 OVC098 18/17 A3001 RMK CU1AC7 SLP163 DENSITY ALT 600FT

CYGK;2015-06-25 23:00;CYGK 252300Z 29004KT 15SM -RA FEW040 OVC095 18/17 A3001 RMK CU1AC7 SLP163 DENSITY ALT 600FT

CYGK;2015-06-26 00:00;CYGK 260000Z 35006KT 15SM -RA OVC100 17/16 A3001 RMK AC8 SLP162 DENSITY ALT 500FT

CYGK;2015-06-26 01:00;CYGK 260100Z 01006KT 15SM -RA FEW025 BKN088 17/16 A3001 RMK CU1AC7 CU TR SLP162 DENSITY ALT 500FT

CYGK;2015-06-26 02:00;CYGK 260200Z 36003KT 15SM -RA BKN085 17/16 A3003 RMK AC7 SLP168 DENSITY ALT 400FT

CYGK;2015-06-26 03:00;CYGK 260300Z 36004KT 15SM -RA OVC110 17/16 A3002 RMK AC8 LAST STFD OBS/NEXT 261000UTC SLP165 DENSITY ALT 400FT

CYGK;2015-06-26 10:00;CYGK 261000Z 36007KT 15SM FEW065 SCT240 13/12 A3003 RMK SC2CI1 SLP170

CYGK;2015-06-26 11:00;CYGK 261100Z 35004KT 15SM SCT069 15/14 A3005 RMK AC3 SLP175

CYGK;2015-06-26 12:00;CYGK 261200Z 02004KT 350V090 15SM SCT075 SCT240 18/15 A3006 RMK AC3CI1 CI TR SLP180 DENSITY ALT 500FT

CYGK;2015-06-26 13:00;CYGK 261300Z 04006KT 15SM FEW070 FEW250 20/13 A3007 RMK AC1CI1 AC TR SLP184 DENSITY ALT 700FT

CYGK;2015-06-26 14:00;CYGK 261400Z 01005KT 15SM FEW070 FEW250 21/11 A3008 RMK AC1CI1 AC TR SLP185 DENSITY ALT 800FT

CYGK;2015-06-26 15:00;CYGK 261500Z 02007KT 15SM FEW030 FEW250 22/11 A3007 RMK CU1CI1 CU TR SLP182 DENSITY ALT 1000FT

CYGK;2015-06-26 16:00;CYGK 261600Z 01009G16KT 340V050 15SM FEW050 SCT250 22/11 A3007 RMK CU2CI2 SLP183 DENSITY ALT 1000FT

CYGK;2015-06-26 17:00;CYGK 261700Z 07005KT 030V100 15SM SCT062 BKN250 23/09 A3007 RMK CU4CI1 SLP184 DENSITY ALT 1100FT

CYGK;2015-06-26 18:00;CYGK 261800Z 03007KT 350V050 15SM BKN065 BKN250 22/11 A3006 RMK CU5CI1 SLP180 DENSITY ALT 1000FT

CYGK;2015-06-26 19:00;CYGK 261900Z 05003KT 350V140 15SM SCT065 BKN250 24/11 A3007 RMK CU4CI2 SLP182 DENSITY ALT 1200FT

CYGK;2015-06-26 20:00;CYGK 262000Z 16005KT 15SM SCT065 BKN250 23/12 A3007 RMK CU4CI2 SLP182 DENSITY ALT 1000FT

CYGK;2015-06-26 21:00;CYGK 262100Z 16006KT 15SM SCT065 BKN250 22/11 A3007 RMK CU4CI2 SLP182 DENSITY ALT 1000FT

CYGK;2015-06-26 22:00;CYGK 262200Z 25003KT 210V340 15SM FEW070 SCT250 23/10 A3006 RMK AC1CI2 SLP181 DENSITY ALT 1100FT

CYGK;2015-06-26 23:00;CYGK 262300Z 15005KT 15SM FEW070 BKN250 22/10 A3008 RMK AC1CI4 SLP185 DENSITY ALT 1000FT

CYGK;2015-06-27 00:00;CYGK 270000Z 14003KT 15SM FEW070 BKN250 21/12 A3008 RMK AC1CI6 AC TR SLP186 DENSITY ALT 800FT

CYGK;2015-06-27 01:00;CYGK 270100Z 03002KT 15SM BKN250 18/12 A3008 RMK CI6 SLP185 DENSITY ALT 500FT

CYGK;2015-06-27 02:00;CYGK 270200Z 33003KT 15SM BKN250 16/11 A3009 RMK CI6 SLP191

CYGK;2015-06-27 03:00;CYGK 270300Z 35006KT 15SM BKN250 15/12 A3011 RMK CI6 LAST STFD OBS/NEXT 271000 UTC SLP195

CYGK;2015-06-27 10:00;CYGK 271000Z 03005KT 360V120 15SM FEW150 BKN250 13/11 A3009 RMK AC1CI6 SLP190

CYGK;2015-06-27 11:00;CYGK 271100Z 05004KT 15SM FEW150 BKN250 16/12 A3010 RMK AC1CI6 SLP192

CYGK;2015-06-27 12:00;CYGK 271200Z 06006KT 15SM BKN240 18/13 A3010 RMK CI7 SLP193 DENSITY ALT 500FT

CYGK;2015-06-27 13:00;CYGK 271300Z 10008KT 15SM OVC240 21/11 A3010 RMK CI8 SLP194 DENSITY ALT 800FT

CYGK;2015-06-27 14:00;CYGK 271400Z 07008KT 15SM OVC220 20/13 A3008 RMK CI8 SLP187 DENSITY ALT 700FT

CYGK;2015-06-27 15:00;CYGK 271500Z 07008KT 15SM FEW030 OVC250 21/12 A3007 RMK CU1CI7 SLP182 DENSITY ALT 900FT

CYGK;2015-06-27 16:00;CYGK 271600Z 10009KT 15SM FEW045 FEW076 OVC220 21/13 A3007 RMK CU1AC1CI7 CU TR SLP183 DENSITY ALT 800FT

CYGK;2015-06-27 17:00;CYGK 271700Z 07009KT 15SM FEW045 SCT080 OVC250 21/13 A3005 RMK CU1AC2CI5 SLP177 DENSITY ALT 900FT

CYGK;2015-06-27 18:00;CYGK 271800Z 08008KT 15SM FEW055 SCT080 OVC180 21/13 A3004 RMK CU1AC2CI5 SLP174 DENSITY ALT 900FT

CYGK;2015-06-27 19:00;CYGK 271900Z 08009KT 15SM SCT038 OVC170 21/13 A3002 RMK SC3AS5 SLP166 DENSITY ALT 900FT

CYGK;2015-06-27 20:00;CYGK 272000Z 06009KT 15SM SCT045 OVC150 21/14 A3001 RMK SC4AS4 SLP162 DENSITY ALT 1000FT

CYGK;2015-06-27 21:00;CYGK 272100Z 06008KT 15SM SCT050 SCT080 OVC140 21/14 A2999 RMK SC3ACC1AS4 SLP155 DENSITY ALT 900FT

CYGK;2015-06-27 22:00;CYGK 272200Z 18012G19KT 15SM VCSH FEW022 BKN050 BKN080 OVC140 18/16 A2998 RMK CU1SC5ACC1AS1 SLP153 DENSITY ALT 700FT

CYGK;2015-06-27 22:22;CYGK 272222Z 18007KT 15SM -SHRA FEW022 BKN050 OVC110 18/16 A2998 RMK CU1SC6AS2 CU TR SLP151 DENSITY ALT 600FT

CYGK;2015-06-27 23:00;CYGK 272300Z 20005KT 15SM -RA BKN036 OVC090 17/16 A2998 RMK SC5AS3 SLP153 DENSITY ALT 500FT

CYGK;2015-06-28 00:00;CYGK 280000Z 20007KT 12SM -RA SCT008 BKN040 OVC080 16/15 A3000 RMK SC4SC3AS1 SLP159

CYGK;2015-06-28 01:00;CYGK 280100Z 14010KT 12SM -RA FEW010 SCT023 OVC085 17/16 A2999 RMK CF1SC4AC4 CF TR SLP154 DENSITY ALT 400FT

CYGK;2015-06-28 02:00;CYGK 280200Z 11013KT 12SM -RA FEW025 SCT050 OVC080 16/13 A2998 RMK SC1SC2AC5 SLP153 DENSITY ALT 400FT

CYGK;2015-06-28 03:00;CYGK 280300Z 12012KT 12SM -RA OVC080 16/12 A2996 RMK AC8 LAST STFD OBS/NEXT 281000 UTC SLP146

CYGK;2015-06-28 10:00;CYGK 281000Z 05008KT 3SM -RA BR SCT005 OVC022 13/13 A2981 RMK SF4NS4 SLP093

CYGK;2015-06-28 10:11;CYGK 281011Z 05010G15KT 3SM -RA BR BKN006 OVC023 13/13 A2980 RMK SF5NS3 SLP092

CYGK;2015-06-28 10:46;CYGK 281046Z 06012G20KT 10SM SCT006 OVC025 13/12 A2979 RMK SF3NS5 SLP087

CYGK;2015-06-28 10:52;CYGK 281052Z 06015KT 8SM -RA SCT006 OVC025 13/12 A2979 RMK SF3NS5 SLP087

CYGK;2015-06-28 11:00;CYGK 281100Z 06012G19KT 6SM -RA BR FEW006 OVC025 13/12 A2978 RMK SF2NS6 VIS SW-NW 3 SLP086

CYGK;2015-06-28 11:11;CYGK 281111Z 05011KT 2 1/2SM -RADZ BR FEW006 OVC020 13/12 A2978 RMK SF2NS6 SLP086

CYGK;2015-06-28 12:00;CYGK 281200Z 06011G18KT 2SM -RADZ BR BKN005 OVC020 13/13 A2978 RMK SF5NS3 SLP086

CYGK;2015-06-28 12:42;CYGK 281242Z 06010KT 6SM -RADZ BR BKN005 OVC020 13/13 A2977 RMK SF6NS2 SLP082

CYGK;2015-06-28 13:00;CYGK 281300Z 05010KT 15SM SCT004 OVC028 14/13 A2977 RMK SF4SC4 SLP081

CYGK;2015-06-28 13:52;CYGK 281352Z 05012KT 12SM -SHRA FEW005 SCT020 OVC030 14/13 A2975 RMK SF1SC3SC4 VIS LWR E SLP075 DENSITY ALT 400FT

CYGK;2015-06-28 14:00;CYGK 281400Z 05012G18KT 12SM -SHRA FEW005 SCT020 OVC031 14/13 A2975 RMK SF1CU3SC4 VIS NE 3 SLP073 DENSITY ALT 400FT

CYGK;2015-06-28 15:00;CYGK 281500Z 05010G15KT 15SM -SHRA FEW005 SCT020 OVC028 15/14 A2974 RMK SF2CU1SC5 SLP070 DENSITY ALT 500FT

CYGK;2015-06-28 16:00;CYGK 281600Z 05011KT 10SM -DZ FEW008 BKN017 OVC028 15/14 A2974 RMK SF2SC4SC2 SLP070 DENSITY ALT 600FT

CYGK;2015-06-28 16:15;CYGK 281615Z 06011KT 3SM -DZ BR BKN007 OVC022 15/14 A2973 RMK SF6SC2 SLP069 DENSITY ALT 500FT

CYGK;2015-06-28 16:29;CYGK 281629Z 06012KT 3SM -RA BR BKN007 OVC020 15/14 A2973 RMK SF5SC3 SLP068 DENSITY ALT 500FT

CYGK;2015-06-28 17:00;CYGK 281700Z 05013KT 5SM -DZ BR BKN005 BKN029 15/14 A2973 RMK SF5SC2 SLP067 DENSITY ALT 600FT

CYGK;2015-06-28 17:06;CYGK 281706Z 06011KT 4SM -SHRA BR FEW005 BKN013TCU OVC030 15/15 A2972 RMK SF2TCU3SC3 SLP066 DENSITY ALT 600FT

CYGK;2015-06-28 17:46;CYGK 281746Z 06011G16KT 3SM BR BKN005 OVC030 16/15 A2971 RMK SF6SC2 SLP062 DENSITY ALT 600FT

CYGK;2015-06-28 18:00;CYGK 281800Z 05009KT 3SM -DZ BR OVC005 16/15 A2971 RMK SF8 SLP062 DENSITY ALT 600FT

CYGK;2015-06-28 18:43;CYGK 281843Z 07012KT 2SM -DZ BR OVC006 16/15 A2971 RMK SF8 SLP060 DENSITY ALT 700FT

CYGK;2015-06-28 19:00;CYGK 281900Z 07011KT 2SM -DZ BR OVC006 16/15 A2971 RMK SF8 SLP060 DENSITY ALT 700FT

CYGK;2015-06-28 19:44;CYGK 281944Z 06009G15KT 2 1/2SM -DZ BR OVC005 16/15 A2970 RMK SF8 SLP058 DENSITY ALT 700FT

CYGK;2015-06-28 20:00;CYGK 282000Z 05010G16KT 2 1/2SM -DZ BR OVC005 16/15 A2970 RMK SF8 VIS VRB 2-3 SLP058 DENSITY ALT 600FT

CYGK;2015-06-28 21:00;CYGK 282100Z 04009KT 3SM -DZ BR BKN005 OVC019 15/15 A2970 RMK SF7SC1 SLP057 DENSITY ALT 600FT

CYGK;2015-06-28 22:00;CYGK 282200Z 05009KT 2 1/2SM -DZ BR BKN005 OVC018 15/15 A2969 RMK SF7SC1 SLP055 DENSITY ALT 600FT

CYGK;2015-06-28 23:00;CYGK 282300Z 04008KT 2 1/2SM -DZ BR BKN006 OVC018 15/15 A2971 RMK SF5SC3 SLP060 DENSITY ALT 600FT

CYGK;2015-06-28 23:12;CYGK 282312Z 04008KT 3SM -DZ BR BKN006 OVC018 15/15 A2971 RMK SF6SC2 SLP061 DENSITY ALT 600FT

CYGK;2015-06-29 00:00;CYGK 290000Z 03007KT 4SM -DZ BR BKN006 OVC037 15/15 A2972 RMK SF5SC3 SLP064 DENSITY ALT 600FT

CYGK;2015-06-29 00:09;CYGK 290009Z 04007KT 4SM BR BKN007 OVC037 15/15 A2972 RMK SF5SC3 SLP065 DENSITY ALT 600FT

CYGK;2015-06-29 01:00;CYGK 290100Z 02006KT 7SM BKN008 OVC040 15/14 A2972 RMK SF5SC3 SLP064 DENSITY ALT 500FT

CYGK;2015-06-29 01:49;CYGK 290149Z 02005KT 8SM BKN010 OVC032 15/14 A2973 RMK SF5SC3 SLP067 DENSITY ALT 500FT

CYGK;2015-06-29 02:00;CYGK 290200Z 02004KT 8SM SCT010 OVC032 15/14 A2973 RMK SF4SC4 SLP068 DENSITY ALT 500FT

CYGK;2015-06-29 02:51;CYGK 290251Z 34005KT 3SM -DZ BR BKN010 OVC030 15/14 A2974 RMK SC6SC2 SLP072 DENSITY ALT 500FT

CYGK;2015-06-29 03:00;CYGK 290300Z 35004KT 3SM -DZ BR BKN010 OVC030 15/14 A2974 RMK SC7SC1 LAST STFD OBS/NEXT 291000 UTC SLP072 DENSITY ALT 500FT

CYGK;2015-06-29 10:00;CYGK 291000Z 24004KT 15SM BKN012 OVC059 14/13 A2981 RMK SC5SC3 SHWRS S SLP097

CYGK;2015-06-29 11:00;CYGK 291100Z 31005KT 15SM VCSH FEW012 BKN023 BKN120 14/14 A2983 RMK SF2SC4AC1 SHWRS N - NE SLP102

CYGK;2015-06-29 12:00;CYGK 291200Z 31005KT 15SM FEW011 BKN019 BKN062 15/14 A2984 RMK SF2SC3SC2 SLP105 DENSITY ALT 400FT

CYGK;2015-06-29 13:00;CYGK 291300Z 34006KT 15SM SCT013 BKN030 BKN066 16/14 A2985 RMK CF3SC2SC2 SLP108 DENSITY ALT 600FT

CYGK;2015-06-29 14:00;CYGK 291400Z 32008KT 280V360 15SM SCT015 BKN032 BKN061 17/13 A2985 RMK CU3SC2SC2 SLP109 DENSITY ALT 700FT

CYGK;2015-06-29 15:00;CYGK 291500Z 23005KT 200V290 15SM BKN020 BKN061 17/13 A2986 RMK CU6SC1 SHWRS NW-N SLP112 DENSITY ALT 600FT

CYGK;2015-06-29 15:22;CYGK 291522Z 22006KT 15SM -SHRA BKN023 OVC060 17/13 A2986 RMK CU6SC2 SLP113 DENSITY ALT 600FT

CYGK;2015-06-29 15:49;CYGK 291549Z 29006KT 15SM BKN022 OVC051 17/14 A2987 RMK CU7SC1 SLP115 DENSITY ALT 700FT

CYGK;2015-06-29 16:00;CYGK 291600Z 30006KT 260V320 15SM BKN021 OVC056 18/14 A2987 RMK CU5SC3 SLP115 DENSITY ALT 700FT

CYGK;2015-06-29 17:00;CYGK 291700Z 21007KT 15SM BKN025 BKN065 18/14 A2987 RMK CU5SC2 SHWRS E SLP115 DENSITY ALT 700FT

CYGK;2015-06-29 18:00;CYGK 291800Z 18010KT 15SM BKN023 BKN080 18/16 A2987 RMK CU5AC1 SLP113 DENSITY ALT 800FT

CYGK;2015-06-29 19:00;CYGK 291900Z 19013KT 15SM FEW025 BKN038 BKN240 18/15 A2987 RMK CU1SC4CI1 SLP116 DENSITY ALT 700FT

CYGK;2015-06-29 20:00;CYGK 292000Z 18010KT 15SM SCT030 SCT160 BKN220 19/16 A2987 RMK CU3AC1CI1 SLP113 DENSITY ALT 800FT

CYGK;2015-06-29 21:00;CYGK 292100Z 19010KT 15SM FEW030 SCT160 BKN220 20/17 A2986 RMK CU2AC2CI1 SLP112 DENSITY ALT 900FT

CYGK;2015-06-29 22:00;CYGK 292200Z 19011KT 15SM FEW030 SCT220 20/16 A2987 RMK CU2CI2 SLP114 DENSITY ALT 1000FT

CYGK;2015-06-29 23:00;CYGK 292300Z 19010KT 15SM FEW030 SCT220 19/16 A2987 RMK CU1CI4 CU TR SLP116 DENSITY ALT 800FT

CYGK;2015-06-30 00:00;CYGK 300000Z 18007KT 15SM FEW030 BKN220 18/15 A2988 RMK CU1CI5 CU TR SLP118 DENSITY ALT 700FT

CYGK;2015-06-30 01:00;CYGK 300100Z 20004KT 15SM FEW030 BKN220 16/15 A2988 RMK CU1CI6 CU TR SLP120 DENSITY ALT 500FT

CYGK;2015-06-30 02:00;CYGK 300200Z 17009KT 15SM BKN220 16/15 A2991 RMK CI6 SLP130 DENSITY ALT 500FT

CYGK;2015-06-30 03:00;CYGK 300300Z 18007KT 15SM SCT220 16/14 A2992 RMK CI4 LAST STFD OBS/NEXT 301000 UTC SLP133 DENSITY ALT 400FT

CYGK;2015-06-30 10:00;CYGK 301000Z 17006KT 15SM FEW150 15/14 A2991 RMK AC2 SLP128 DENSITY ALT 400FT

CYGK;2015-06-30 11:00;CYGK 301100Z VRB02KT 15SM SCT140 16/15 A2992 RMK AC3 SLP130 DENSITY ALT 500FT

CYGK;2015-06-30 12:00;CYGK 301200Z VRB02KT 15SM BKN130 BKN170 18/14 A2992 RMK AC5AC1 SLP131 DENSITY ALT 600FT

CYGK;2015-06-30 13:04;CYGK 301304Z 13005KT 15SM -SHRA BKN120 BKN170 18/14 A2992 RMK AC6AC1 SLP134 DENSITY ALT 600FT

CYGK;2015-06-30 14:00;CYGK 301400Z 13006KT 15SM -SHRA BKN110 18/14 A2992 RMK AC7 SLP131 DENSITY ALT 700FT

CYGK;2015-06-30 15:00;CYGK 301500Z 11005KT 15SM BKN080 19/14 A2990 RMK AC7 OCNL -SHRA SLP126 DENSITY ALT 800FT

CYGK;2015-06-30 16:00;CYGK 301600Z 10006KT 15SM -SHRA FEW020 OVC075 19/14 A2990 RMK SF1AC8 SF TR SLP124 DENSITY ALT 800FT

CYGK;2015-06-30 16:18;CYGK 301618Z 10006KT 15SM VCSH FEW020 OVC074 19/14 A2989 RMK SF1AC8 SF TR SLP123 DENSITY ALT 900FT

CYGK;2015-06-30 17:00;CYGK 301700Z 11007KT 15SM VCSH FEW030 OVC067 19/14 A2989 RMK SC1AC7 SLP122 DENSITY ALT 800FT

CYGK;2015-06-30 18:00;CYGK 301800Z 12010KT 15SM VCSH BKN030 OVC060 19/15 A2987 RMK CU5SC3 SLP116 DENSITY ALT 800FT

CYGK;2015-06-30 18:05;CYGK 301805Z 11009G15KT 5SM -SHRA BR SCT024 OVC060 19/15 A2987 RMK CU4SC4 VIS NW-NE 12 SLP116 DENSITY ALT 800FT

CYGK;2015-06-30 18:39;CYGK 301839Z 07011KT 10SM VCSH SCT024 OVC060 17/15 A2986 RMK CU3SC5 SLP113 DENSITY ALT 600FT

CYGK;2015-06-30 19:00;CYGK 301900Z 07008KT 10SM VCSH FEW022 BKN029 OVC060 17/16 A2986 RMK CU2SC4SC2 SLP112 DENSITY ALT 600FT

CYGK;2015-06-30 19:27;CYGK 301927Z 06007KT 8SM -SHRA BKN021 OVC030 17/16 A2985 RMK CU5SC3 VIS W 4 SLP110 DENSITY ALT 600FT

CYGK;2015-06-30 20:00;CYGK 302000Z 07011KT 4SM -SHRA BR FEW009 BKN021 OVC030 16/15 A2984 RMK SF1CU6SC1 SLP107 DENSITY ALT 600FT

CYGK;2015-06-30 20:27;CYGK 302027Z 07009KT 2 1/2SM -SHRA BR FEW009 BKN020 OVC038 16/15 A2984 RMK SF1SC6SC2 SF TR SLP103 DENSITY ALT 600FT

CYGK;2015-06-30 20:36;CYGK 302036Z 07011KT 7SM -SHRA FEW009 BKN022 OVC062 16/16 A2983 RMK SF1CU5SC2 SLP102 DENSITY ALT 600FT

CYGK;2015-06-30 20:52;CYGK 302052Z 07010G17KT 10SM VCSH FEW007 BKN021 OVC062 17/16 A2982 RMK SF1SC6SC1 SLP098 DENSITY ALT 600FT

CYGK;2015-06-30 21:00;CYGK 302100Z 07009G16KT 10SM VCSH FEW007 BKN021 OVC062 17/16 A2981 RMK SF1SC6SC1 SLP096 DENSITY ALT 700FT

CYGK;2015-06-30 22:00;CYGK 302200Z 06008KT 15SM FEW010 OVC021 17/16 A2980 RMK SF1SC7 SLP091 DENSITY ALT 700FT

CYGK;2015-06-30 23:00;CYGK 302300Z 05007KT 15SM FEW010 OVC023 17/16 A2980 RMK SF1SC7 SLP090 DENSITY ALT 700FT

CYGK;2015-07-01 02:00;CYGK 010200Z 06006KT 15SM SCT024 BKN170 17/16 A2978 RMK SC3AC2 VIA CYXU SLP083 DENSITY ALT 700FT

CYGK;2015-07-01 03:00;CYGK 010300Z 05004KT 15SM FEW025 FEW100 SCT180 17/16 A2978 RMK SC1AC1AC2 LAST STFD OBS/NEXT 011000 UTC VIA CYXU SLP083 DENSITY ALT 700FT

CYGK;2015-07-01 10:00;CYGK 011000Z 00000KT 2SM BR OVC003 17/17 A2970 RMK FG2SF6 VIA CYXU SLP056 DENSITY ALT 900FT

CYGK;2015-07-01 11:00;CYGK 011100Z 02003KT 2SM BR BKN003 OVC025 17/17 A2969 RMK SF5SC3 VIA CYXU SLP053 DENSITY ALT 900FT

CYGK;2015-07-01 12:00;CYGK 011200Z 24005KT 2 1/2SM OVC003 18/17 A2968 RMK SF8 CIG RAG VIA CYXU SLP049 DENSITY ALT 1000FT

CYGK;2015-07-01 13:00;CYGK 011300Z 24007KT 2 1/2SM OVC004 18/17 A2969 RMK SF8 VIA CYXU SLP052 DENSITY ALT 900FT

CYGK;2015-07-01 13:25;CYGK 011325Z 24006KT 3SM OVC006 18/17 A2968 RMK SF8 VIA CYXU SLP050 DENSITY ALT 900FT

CYGK;2015-07-01 14:00;CYGK 011400Z 24009KT 4SM BR SCT003 OVC006 18/17 A2968 RMK SF3SF5 CIG AND VIS LWR SE VIA CYXU SLP049 DENSITY ALT 1000FT

CYGK;2015-07-01 14:35;CYGK 011435Z 25008KT 4SM BR FEW002 SCT006 BKN017 19/17 A2967 RMK SF1SF3SC3 VIA CYXU SLP048 DENSITY ALT 1100FT

CYGK;2015-07-01 15:00;CYGK 011500Z 24010KT 4SM BR FEW002 FEW006 SCT018 BKN250 19/17 A2967 RMK SF1SF1CU1CI2 VIA CYXU SLP048 DENSITY ALT 1100FT

CYGK;2015-07-01 16:00;CYGK 011600Z 22010KT 8SM FEW008 BKN013 BKN250 20/16 A2968 RMK SF1CU4CI2 VIA CYXU SLP049 DENSITY ALT 1100FT

CYGK;2015-07-01 16:45;CYGK 011645Z 25009KT 6SM BR FEW006 SCT013TCU SCT052 20/17 A2967 RMK SF1TCU2SC1 VIA CYXU SLP045 DENSITY ALT 1200FT

CYGK;2015-07-01 17:00;CYGK 011700Z 25011KT 8SM FEW008 FEW015CB SCT052 BKN250 21/17 A2967 RMK SF1CB1SC3CI1 SF TR VIA CYXU SLP045 DENSITY ALT 1300FT

CYGK;2015-07-01 17:37;CYGK 011737Z 20012KT 8SM FEW004 BKN017TCU OVC250 19/16 A2966 RMK SF1TCU5CI2 VIA CYXU SLP043 DENSITY ALT 1100FT

CYGK;2015-07-01 18:00;CYGK 011800Z 02012KT 8SM FEW005 SCT015TCU BKN040 OVC250 22/17 A2966 RMK SF1TCU4SC2CI2 SF TR VIA CYXU SLP043 DENSITY ALT 1400FT

CYGK;2015-07-01 19:00;CYGK 011900Z 24014G20KT 15SM BKN020TCU BKN050 22/17 A2966 RMK TCU5SC2 SH DIST W-NE VIA CYXU SLP043 DENSITY ALT 1500FT

CYGK;2015-07-01 19:28;CYGK 011928Z 30009G17KT 8SM -SHRA FEW008 BKN022CB BKN055 22/16 A2967 RMK SF1CB4SC2 VIA CYXU SLP047 DENSITY ALT 1400FT

CYGK;2015-07-01 19:43;CYGK 011943Z 28007KT 15SM VCSH FEW008 SCT020CB BKN055 BKN074 21/17 A2968 RMK SF1CB3SC2AC2 SF TR VIS SE 4 VIA CYXU SLP051 DENSITY ALT 1300FT

CYGK;2015-07-01 20:00;CYGK 012000Z 28010KT 15SM FEW008 FEW020CB SCT055 BKN074 22/15 A2969 RMK SF1CB2SC1AC2 SF TR SHWRS SE VIA CYXU SLP052 DENSITY ALT 1400FT

CYGK;2015-07-01 20:15;CYGK 012015Z 30010KT 15SM -SHRA SCT017 BKN050 BKN250 21/18 A2969 RMK CU4SC2CI1 SLP054 DENSITY ALT 1200FT

CYGK;2015-07-01 20:35;CYGK 012035Z 29008KT 15SM FEW015 BKN025TCU BKN070 BKN250 21/17 A2970 RMK SF1TCU5AC1CI1 SF TR SH DIST SW AND NW SLP056 DENSITY ALT 1300FT

CYGK;2015-07-01 20:52;CYGK 012052Z 29007KT 15SM -SHRA BKN025TCU BKN050 BKN070 21/17 A2970 RMK TCU5SC1AC1 SLP058 DENSITY ALT 1200FT

CYGK;2015-07-01 21:00;CYGK 012100Z 31008KT 12SM -SHRA BKN025TCU BKN050 20/18 A2971 RMK TCU6SC1 VIS LWR SW PRESRR SLP061 DENSITY ALT 1100FT

CYGK;2015-07-01 21:13;CYGK 012113Z 27012G18KT 15SM VCSH SCT025TCU BKN050 BKN070 20/16 A2972 RMK TCU4SC1AC2 SH SE-SW SLP063 DENSITY ALT 1100FT

CYGK;2015-07-01 21:20;CYGK 012120Z 27009G18KT 15SM -SHRA SCT025TCU BKN070 20/17 A2972 RMK TCU3AC3 SLP063 DENSITY ALT 1100FT

CYGK;2015-07-01 21:35;CYGK 012135Z 28012KT 15SM SCT025TCU BKN070 21/16 A2972 RMK TCU3AC2 SH DIST ALQDS SLP062 DENSITY ALT 1200FT

CYGK;2015-07-01 22:00;CYGK 012200Z 29013G20KT 15SM FEW025TCU BKN070 21/15 A2972 RMK TCU2AC3 SH DIST E AND S SLP064 DENSITY ALT 1300FT

CYGK;2015-07-01 23:00;CYGK 012300Z 28010G17KT 15SM FEW025TCU FEW070 21/15 A2974 RMK TCU1AC1 SLP070 DENSITY ALT 1300FT

CYGK;2015-07-02 00:00;CYGK 020000Z 30008KT 15SM FEW025TCU FEW070 20/14 A2977 RMK TCU1AC1 SLP080 DENSITY ALT 1100FT

CYGK;2015-07-02 01:00;CYGK 020100Z 28005KT 15SM BKN036 BKN062 BKN250 19/15 A2978 RMK SC5SC1CI1 SLP086 DENSITY ALT 900FT

CYGK;2015-07-02 02:00;CYGK 020200Z 31008KT 15SM FEW036 SCT250 18/13 A2982 RMK SC1CI2 SLP098 DENSITY ALT 700FT

CYGK;2015-07-02 03:00;CYGK 020300Z 30006KT 15SM SKC 16/13 A2984 RMK LAST STFD OBS / NEXT 021000 UTC SLP105 DENSITY ALT 500FT

CYGK;2015-07-02 10:00;CYGK 021000Z 32007KT 15SM FEW080 SCT250 11/11 A2991 RMK AC2CI1 SLP129

CYGK;2015-07-02 11:00;CYGK 021100Z 32004KT 15SM FEW080 BKN220 13/11 A2992 RMK AC1CI4 SLP133

CYGK;2015-07-02 12:00;CYGK 021200Z 33006KT 15SM FEW030 SCT220 15/12 A2993 RMK CU1CI4 CU TR SLP137

CYGK;2015-07-02 13:00;CYGK 021300Z 32007KT 15SM FEW030 FEW220 17/11 A2994 RMK CU1CI1 CU TR SLP137 DENSITY ALT 500FT

CYGK;2015-07-02 14:00;CYGK 021400Z 29005KT 250V360 15SM FEW030 18/11 A2994 RMK CU1 SLP138 DENSITY ALT 700FT

CYGK;2015-07-02 15:00;CYGK 021500Z 25006KT 190V270 15SM SCT052 18/10 A2995 RMK CU4 SLP141 DENSITY ALT 600FT

CYGK;2015-07-02 16:00;CYGK 021600Z 21009KT 15SM BKN055 19/10 A2995 RMK CU5 SLP142 DENSITY ALT 700FT

CYGK;2015-07-02 17:00;CYGK 021700Z 19015KT 15SM SCT063 18/13 A2995 RMK CU4 SLP143 DENSITY ALT 600FT

CYGK;2015-07-02 18:00;CYGK 021800Z 20014G19KT 15SM SCT065 19/13 A2995 RMK CU4 SLP142 DENSITY ALT 700FT

CYGK;2015-07-02 19:00;CYGK 021900Z 20013G20KT 15SM FEW065 SCT250 19/13 A2995 RMK CU2CI1 SLP141 DENSITY ALT 800FT

CYGK;2015-07-02 20:00;CYGK 022000Z 20012G17KT 15SM FEW065 19/13 A2994 RMK CU1 SLP138 DENSITY ALT 800FT

CYGK;2015-07-02 21:00;CYGK 022100Z 18013KT 15SM FEW070 FEW250 18/14 A2993 RMK CU1CI1 SLP136 DENSITY ALT 700FT

CYGK;2015-07-02 22:00;CYGK 022200Z 20009G15KT 15SM FEW040 FEW070 FEW250 19/14 A2993 RMK CF1AC1CI1 CF TR SLP135 DENSITY ALT 800FT

CYGK;2015-07-02 23:00;CYGK 022300Z 21009KT 15SM FEW040 FEW070 FEW250 19/12 A2993 RMK CF1AC1CI1 CF TR AC TR SLP135 DENSITY ALT 800FT

CYGK;2015-07-03 00:00;CYGK 030000Z 23006KT 15SM FEW070 FEW250 18/12 A2994 RMK AC1CI1 AC TR SLP138 DENSITY ALT 600FT

CYGK;2015-07-03 01:00;CYGK 030100Z 22005KT 15SM FEW070 FEW250 16/11 A2995 RMK AC1CI1 AC TR SLP142 DENSITY ALT 500FT

CYGK;2015-07-03 02:00;CYGK 030200Z 22003KT 15SM FEW250 15/11 A2996 RMK CI1 SLP145

CYGK;2015-07-03 03:00;CYGK 030300Z 27003KT 15SM FEW200 13/09 A2996 RMK CI1 CI TR LAST STFD OBS/NEXT 031000 UTC SLP145

CYGK;2015-07-03 10:00;CYGK 031000Z 34004KT 15SM FEW240 08/08 A2998 RMK CI1 SLP154

CYGK;2015-07-03 11:00;CYGK 031100Z 00000KT 15SM FEW240 12/11 A3000 RMK CI1 SLP159

CYGK;2015-07-03 12:00;CYGK 031200Z VRB02KT 15SM FEW240 17/12 A3001 RMK CI1 SLP163 DENSITY ALT 400FT

CYGK;2015-07-03 13:00;CYGK 031300Z 18004KT 120V200 15SM FEW030 FEW240 18/14 A3001 RMK CF1CI1 CF TR SLP163 DENSITY ALT 500FT

CYGK;2015-07-03 14:00;CYGK 031400Z 16007KT 15SM FEW030 FEW240 18/14 A3001 RMK CF1CI2 CF TR SLP162 DENSITY ALT 500FT

CYGK;2015-07-03 15:00;CYGK 031500Z 16008KT 15SM FEW030 SCT240 18/15 A3002 RMK CU1CI3 SLP165 DENSITY ALT 500FT

CYGK;2015-07-03 16:00;CYGK 031600Z 17009KT 15SM FEW035 17/15 A3002 RMK CU1 SLP167 DENSITY ALT 500FT

CYGK;2015-07-03 17:00;CYGK 031700Z 18007KT 15SM FEW035 SCT240 18/16 A3001 RMK CU1CI3 SLP163 DENSITY ALT 600FT

CYGK;2015-07-03 18:00;CYGK 031800Z 19008KT 15SM FEW035 BKN240 18/15 A3000 RMK CU1CI5 CU TR SLP160 DENSITY ALT 600FT

CYGK;2015-07-03 19:00;CYGK 031900Z 18009KT 15SM FEW035 FEW220 BKN300 19/15 A3000 RMK CU1CI2CS3 CU TR SLP158 DENSITY ALT 700FT

CYGK;2015-07-03 20:00;CYGK 032000Z 18006KT 15SM FEW035 BKN230 20/14 A2998 RMK CU1CI5 CU TR SLP154 DENSITY ALT 800FT

CYGK;2015-07-03 21:00;CYGK 032100Z 20007KT 15SM FEW035 SCT220 BKN300 20/14 A2998 RMK CU1CI3CI3 CU TR SLP153 DENSITY ALT 900FT

CYGK;2015-07-03 22:00;CYGK 032200Z 20006KT 15SM SCT210 BKN300 20/12 A2997 RMK CI3CI2 SLP149 DENSITY ALT 900FT

CYGK;2015-07-03 23:00;CYGK 032300Z 20005KT 15SM SCT220 BKN300 20/11 A2995 RMK CI3CI4 SLP143 DENSITY ALT 900FT

CYGK;2015-07-04 00:00;CYGK 040000Z 24003KT 15SM SCT220 BKN300 18/12 A2996 RMK CI4CI3 SLP145 DENSITY ALT 600FT

CYGK;2015-07-04 01:00;CYGK 040100Z 05002KT 15SM SCT220 SCT300 16/10 A2994 RMK CI3CI1 SLP140 DENSITY ALT 400FT

CYGK;2015-07-04 02:00;CYGK 040200Z 00000KT 15SM SCT220 BKN300 15/11 A2995 RMK CI3CI3 SLP143

CYGK;2015-07-04 03:00;CYGK 040300Z 36002KT 15SM BKN240 14/12 A2995 RMK CI7 LAST STFD OBS/NEXT 041000UTC SLP143

CYGK;2015-07-04 10:00;CYGK 041000Z 03004KT 15SM SCT080 BKN230 14/11 A2991 RMK AC4CI1 SLP128

CYGK;2015-07-04 11:00;CYGK 041100Z 03005KT 15SM SCT066 BKN230 14/12 A2991 RMK AC3CI3 SLP130

CYGK;2015-07-04 12:00;CYGK 041200Z 06004KT 15SM SCT072 SCT120 BKN230 16/13 A2993 RMK AC4AC1CI2 AC TR SLP135 DENSITY ALT 500FT

CYGK;2015-07-04 13:00;CYGK 041300Z 06006KT 15SM BKN080 BKN250 18/13 A2994 RMK AC5CI1 SLP138 DENSITY ALT 700FT

CYGK;2015-07-04 14:00;CYGK 041400Z 06007KT 15SM SCT078 BKN250 20/13 A2993 RMK AC3CI3 SLP135 DENSITY ALT 900FT

CYGK;2015-07-04 15:00;CYGK 041500Z 15007KT 15SM FEW035 BKN070 OVC250 21/12 A2994 RMK CU2AC4CI2 SLP138 DENSITY ALT 1000FT

CYGK;2015-07-04 16:00;CYGK 041600Z 16006KT 15SM FEW035 FEW073 BKN220 21/14 A2994 RMK CU1AC1CI5 SLP138 DENSITY ALT 1000FT

CYGK;2015-07-04 17:00;CYGK 041700Z 18006KT 15SM FEW035 BKN075 BKN250 21/15 A2993 RMK CU1AC4CI2 SLP135 DENSITY ALT 1000FT

CYGK;2015-07-04 18:00;CYGK 041800Z 18005KT 15SM FEW038 SCT077 OVC220 20/16 A2993 RMK CU1AC3CI4 SLP137 DENSITY ALT 900FT

CYGK;2015-07-04 19:00;CYGK 041900Z 16006KT 15SM FEW035 SCT075 BKN220 21/16 A2992 RMK CU1AC2CI4 SLP134 DENSITY ALT 1000FT

CYGK;2015-07-04 20:00;CYGK 042000Z 17008KT 15SM FEW040 OVC220 21/17 A2992 RMK CU1CI7 SLP133 DENSITY ALT 1000FT

CYGK;2015-07-04 21:00;CYGK 042100Z 18007KT 15SM FEW040 BKN220 21/18 A2992 RMK CU1CI5 CU TR SLP134 DENSITY ALT 1100FT

CYGK;2015-07-04 22:00;CYGK 042200Z 17006KT 15SM FEW040 FEW130 BKN220 21/18 A2992 RMK CU1AC2CI3 CU TR SLP132 DENSITY ALT 1000FT

CYGK;2015-07-04 23:00;CYGK 042300Z 21008KT 15SM FEW040 FEW130 SCT220 20/18 A2992 RMK CF1AC1CI4 CF TR AC TR SLP130 DENSITY ALT 1000FT

CYGK;2015-07-05 00:00;CYGK 050000Z 18003KT 15SM FEW040 SCT220 20/18 A2992 RMK CF1CI3 CF TR SLP132 DENSITY ALT 900FT

CYGK;2015-07-05 01:00;CYGK 050100Z 22003KT 15SM FEW220 19/17 A2993 RMK CI2 SLP135 DENSITY ALT 800FT

CYGK;2015-07-05 02:00;CYGK 050200Z 24006KT 15SM FEW220 19/15 A2995 RMK CI1 SLP143 DENSITY ALT 800FT

CYGK;2015-07-05 03:00;CYGK 050300Z 26006KT 15SM SKC 18/13 A2997 RMK LAST STFD OBS/NEXT 051000 UTC SLP148 DENSITY ALT 700FT

CYGK;2015-07-05 10:00;CYGK 051000Z 28006KT 15SM FEW067 BKN240 16/14 A3004 RMK AC1CI5 AC TR SLP174

CYGK;2015-07-05 11:00;CYGK 051100Z 29003KT 15SM SCT240 16/14 A3008 RMK CI3 SLP186

CYGK;2015-07-05 12:00;CYGK 051200Z VRB02KT 15SM FEW240 18/15 A3009 RMK CI2 SLP190 DENSITY ALT 500FT

CYGK;2015-07-05 13:00;CYGK 051300Z 20003KT 180V270 15SM FEW220 19/16 A3009 RMK CI1 CI TR SLP191 DENSITY ALT 600FT

CYGK;2015-07-05 14:00;CYGK 051400Z 19008KT 15SM FEW220 19/16 A3010 RMK CI2 SLP192 DENSITY ALT 600FT

CYGK;2015-07-05 15:00;CYGK 051500Z 18008KT 15SM FEW040 FEW220 20/17 A3011 RMK CU1CI1 CU TR SLP196 DENSITY ALT 700FT

CYGK;2015-07-05 16:00;CYGK 051600Z 19010KT 12SM FEW040 FEW220 21/17 A3012 RMK CU1CI1 CU TR SLP199 DENSITY ALT 800FT

CYGK;2015-07-05 18:00;CYGK 051800Z 18008KT 12SM FEW040 SCT240 21/17 A3012 RMK CU2CC2 SLP200 DENSITY ALT 800FT

CYGK;2015-07-05 19:00;CYGK 051900Z 19012KT 12SM FEW058 BKN250 21/16 A3011 RMK CU2CI3 SLP196 DENSITY ALT 800FT

CYGK;2015-07-05 20:00;CYGK 052000Z 19011KT 15SM SCT060 BKN250 21/17 A3011 RMK CU3CI3 SLP197 DENSITY ALT 900FT

CYGK;2015-07-05 21:00;CYGK 052100Z 19007KT 12SM FEW070 BKN250 22/18 A3010 RMK CU1CI6 SLP194 DENSITY ALT 900FT

CYGK;2015-07-05 22:00;CYGK 052200Z 20008KT 12SM FEW070 BKN270 22/18 A3009 RMK CU1CI6 SLP190 DENSITY ALT 900FT

CYGK;2015-07-05 23:00;CYGK 052300Z 19006KT 12SM BKN270 21/17 A3009 RMK CI7 SLP191 DENSITY ALT 800FT

CYGK;2015-07-06 00:00;CYGK 060000Z 18007KT 12SM BKN270 19/17 A3010 RMK CI7 SLP193 DENSITY ALT 600FT

CYGK;2015-07-06 01:00;CYGK 060100Z 18004KT 12SM BKN270 18/16 A3011 RMK CI7 SLP196 DENSITY ALT 500FT

CYGK;2015-07-06 02:00;CYGK 060200Z 17004KT 12SM BKN270 18/16 A3013 RMK CI6 SLP202 DENSITY ALT 400FT

CYGK;2015-07-06 03:00;CYGK 060300Z 19005KT 12SM SCT270 18/17 A3012 RMK CI4 LAST STFD OBS / NEXT 061000 UTC SLP201 DENSITY ALT 400FT

CYGK;2015-07-06 10:00;CYGK 061000Z CCA 18003KT 10SM MIFG FEW160 BKN270 16/16 A3012 RMK AC1CI5 SLP199

CYGK;2015-07-06 11:00;CYGK 061100Z 17009KT 10SM FEW055 FEW270 18/17 A3012 RMK SC1CI1 SLP200 DENSITY ALT 500FT

CYGK;2015-07-06 12:00;CYGK 061200Z 19006KT 12SM SCT055 BKN240 19/17 A3014 RMK SC3CI2 SLP207 DENSITY ALT 500FT

CYGK;2015-07-06 13:00;CYGK 061300Z 17005KT 12SM BKN058 BKN240 19/16 A3015 RMK SC5CI2 SLP209 DENSITY ALT 500FT

CYGK;2015-07-06 14:00;CYGK 061400Z 18006KT 12SM FEW058 FEW220 20/16 A3013 RMK SC1CI1 SLP204 DENSITY ALT 700FT

CYGK;2015-07-06 15:00;CYGK 061500Z 14003KT 110V170 12SM FEW058 SCT220 21/16 A3015 RMK SC1CI2 SLP209 DENSITY ALT 800FT

CYGK;2015-07-06 16:00;CYGK 061600Z 16007KT 8SM SKC 22/16 A3014 RMK SLP205 DENSITY ALT 900FT

CYGK;2015-07-06 17:00;CYGK 061700Z 17007KT 8SM SKC 23/17 A3012 RMK SLP201 DENSITY ALT 1000FT

CYGK;2015-07-06 18:00;CYGK 061800Z 15005KT 120V190 8SM SKC 25/17 A3010 RMK SLP194 DENSITY ALT 1200FT

CYGK;2015-07-06 19:00;CYGK 061900Z 14003KT 100V210 10SM FEW020 BKN250 26/16 A3007 RMK CU1CI6 CU TR SLP182 DENSITY ALT 1400FT

CYGK;2015-07-06 20:00;CYGK 062000Z 14005KT 10SM BKN250 27/16 A3005 RMK CI6 SLP175 DENSITY ALT 1500FT

CYGK;2015-07-06 21:00;CYGK 062100Z 16006KT 10SM SKC 26/17 A3003 RMK HZ SLP167 DENSITY ALT 1500FT

CYGK;2015-07-06 22:00;CYGK 062200Z 19004KT 10SM SKC 26/17 A3002 RMK HZ SLP165 DENSITY ALT 1500FT

CYGK;2015-07-06 23:00;CYGK 062300Z 15004KT 10SM SKC 25/18 A3001 RMK HZ SLP160 DENSITY ALT 1400FT

CYGK;2015-07-07 00:00;CYGK 070000Z 20004KT 160V230 10SM FEW150 23/19 A3001 RMK AC1 HZ SLP161 DENSITY ALT 1200FT

CYGK;2015-07-07 01:00;CYGK 070100Z 15004KT 10SM FEW270 22/19 A2999 RMK CI2 HZ SLP154 DENSITY ALT 1100FT

CYGK;2015-07-07 02:00;CYGK 070200Z 15002KT 10SM FEW270 22/20 A2998 RMK CI2 HZ SLP153 DENSITY ALT 1100FT

CYGK;2015-07-07 03:00;CYGK 070300Z 17005KT 10SM SKC 22/20 A2997 RMK LAST STFD OBS/NEXT 071000 UTC SLP149 DENSITY ALT 1000FT

CYGK;2015-07-07 10:00;CYGK 071000Z 17009KT 10SM SCT027 BKN045 20/19 A2992 RMK SC4SC3 SLP132 DENSITY ALT 900FT

CYGK;2015-07-07 11:00;CYGK 071100Z 17012KT 8SM SCT027 SCT068 21/19 A2992 RMK SC3AC1 SLP132 DENSITY ALT 1000FT

CYGK;2015-07-07 12:00;CYGK 071200Z 19010KT 8SM FEW009 BKN020 OVC068 20/19 A2994 RMK SF1SC6AC1 SLP137 DENSITY ALT 900FT

CYGK;2015-07-07 13:00;CYGK 071300Z 18007KT 8SM FEW021 SCT070 BKN240 21/20 A2992 RMK SC2AC2CI3 SLP131 DENSITY ALT 1100FT

CYGK;2015-07-07 14:00;CYGK 071400Z 20010KT 8SM FEW017 BKN250 22/20 A2992 RMK CU1CI6 SLP129 DENSITY ALT 1100FT

CYGK;2015-07-07 15:00;CYGK 071500Z 19011KT 8SM FEW019 BKN250 22/20 A2991 RMK CU1CI6 SLP128 DENSITY ALT 1200FT

CYGK;2015-07-07 16:00;CYGK 071600Z 20011KT 8SM FEW020 BKN220 22/20 A2990 RMK CU1CI5 SLP124 DENSITY ALT 1200FT

CYGK;2015-07-07 17:00;CYGK 071700Z 19010KT 8SM FEW020 BKN220 24/21 A2988 RMK CU1CI6 SLP117 DENSITY ALT 1400FT

CYGK;2015-07-07 18:00;CYGK 071800Z 19013KT 8SM FEW020 BKN220 24/21 A2986 RMK CU1CI6 SLP110 DENSITY ALT 1400FT

CYGK;2015-07-07 19:00;CYGK 071900Z 19010KT 9SM BKN270 24/21 A2984 RMK CI7 SLP105 DENSITY ALT 1400FT

CYGK;2015-07-07 20:00;CYGK 072000Z 17008KT 9SM BKN270 24/21 A2983 RMK CI6 HZ SLP101 DENSITY ALT 1500FT

CYGK;2015-07-07 21:00;CYGK 072100Z 18006KT 9SM BKN270 24/21 A2982 RMK CI6 HZ SLP097 DENSITY ALT 1400FT

CYGK;2015-07-07 22:00;CYGK 072200Z 17007KT 9SM SCT050 BKN080 OVC270 23/20 A2980 RMK CU3AC2CI3 HZ SLP091 DENSITY ALT 1400FT

CYGK;2015-07-07 22:42;CYGK 072242Z 22010KT 2SM -TSRA OVC042 23/20 A2981 RMK CU8 PRESRR SLP092 DENSITY ALT 1300FT

CYGK;2015-07-07 23:00;CYGK 072300Z 24008KT 9SM TS BKN045 OVC080 22/20 A2981 RMK CU5AC3 CB EMBD SLP092 DENSITY ALT 1300FT

CYGK;2015-07-07 23:18;CYGK 072318Z 23007KT 9SM -TSRA BKN031 OVC078 22/21 A2981 RMK CU6AC2 CB EMBD VIS W 3 SLP093 DENSITY ALT 1300FT

CYGK;2015-07-07 23:25;CYGK 072325Z 24010KT 1 1/2SM -SHRA OVC022TCU 22/21 A2983 RMK TCU8 PRESRR SLP100 DENSITY ALT 1200FT

CYGK;2015-07-07 23:34;CYGK 072334Z 24011G17KT 4SM -SHRA FEW017 BKN025TCU OVC080 22/21 A2981 RMK CF2TCU3AC3 PRESFR SLP095 DENSITY ALT 1200FT

CYGK;2015-07-08 00:00;CYGK 080000Z 23008KT 6SM -SHRA FEW021TCU OVC039 22/21 A2981 RMK TCU2SC6 SLP094 DENSITY ALT 1300FT

CYGK;2015-07-08 01:00;CYGK 080100Z 19006KT 6SM -SHRA FEW019TCU BKN038 OVC120 22/21 A2981 RMK TCU2SC4AC2 SLP095 DENSITY ALT 1200FT

CYGK;2015-07-08 02:00;CYGK 080200Z 22009KT 6SM -SHRA FEW020 SCT062 OVC120 21/21 A2983 RMK CU2SC2AC4 SLP100 DENSITY ALT 1200FT

CYGK;2015-07-08 02:14;CYGK 080214Z 22008KT 8SM FEW010 SCT060 OVC120 21/20 A2983 RMK CU2SC1AC5 BR SLP101 DENSITY ALT 1100FT

CYGK;2015-07-08 03:00;CYGK 080300Z 22009KT 9SM BKN010 OVC130 21/21 A2983 RMK SC5AC3 LAST STFD OBS/NEXT 081000 UTC SLP101 DENSITY ALT 1200FT

CYGK;2015-07-08 10:00;CYGK 081000Z 36005KT 15SM FEW015 SCT060 13/12 A3003 RMK CU1SC2 SLP168

CYGK;2015-07-08 11:00;CYGK 081100Z 36006KT 15SM FEW015 FEW100 14/12 A3004 RMK CU1AC1 SLP174

CYGK;2015-07-08 12:00;CYGK 081200Z 36007KT 15SM FEW015 FEW250 15/13 A3006 RMK CF1CI2 CF TR SLP181

CYGK;2015-07-08 13:00;CYGK 081300Z 02012KT 15SM FEW020 SCT250 17/12 A3007 RMK CU1CI3 SLP184 DENSITY ALT 400FT

CYGK;2015-07-08 14:00;CYGK 081400Z 05011KT 340V060 15SM FEW020 BKN250 18/12 A3008 RMK CU2CI3 SLP186 DENSITY ALT 500FT

CYGK;2015-07-08 15:00;CYGK 081500Z 02007G15KT 15SM FEW025 BKN200 19/13 A3008 RMK CU1CI5 SLP186 DENSITY ALT 600FT

CYGK;2015-07-08 16:00;CYGK 081600Z VRB02KT 15SM FEW030 BKN250 20/13 A3008 RMK CU2CI4 SLP185 DENSITY ALT 700FT

CYGK;2015-07-08 17:00;CYGK 081700Z VRB11KT 15SM FEW035 SCT200 21/12 A3007 RMK CU1CI2 SLP182 DENSITY ALT 900FT

CYGK;2015-07-08 18:00;CYGK 081800Z 33006KT 320V100 15SM FEW040 SCT200 22/12 A3007 RMK CF1CI4 CF TR SLP182 DENSITY ALT 900FT

CYGK;2015-07-08 19:00;CYGK 081900Z 02008KT 350V070 15SM FEW040 BKN270 23/12 A3006 RMK CU1CI5 CU TR SLP179 DENSITY ALT 1100FT

CYGK;2015-07-08 20:00;CYGK 082000Z 05007KT 330V090 15SM SCT230 23/12 A3005 RMK CI4 SLP175 DENSITY ALT 1100FT

CYGK;2015-07-08 21:00;CYGK 082100Z 20007KT 15SM BKN270 21/14 A3005 RMK CI7 SLP175 DENSITY ALT 900FT

CYGK;2015-07-08 22:00;CYGK 082200Z 22007KT 15SM BKN270 20/15 A3004 RMK CI7 SLP174 DENSITY ALT 800FT

CYGK;2015-07-08 23:00;CYGK 082300Z 21004KT 15SM BKN270 20/14 A3004 RMK CI7 SLP172 DENSITY ALT 800FT

CYGK;2015-07-09 00:00;CYGK 090000Z 24004KT 15SM BKN270 19/16 A3003 RMK CS7 SLP171 DENSITY ALT 600FT

CYGK;2015-07-09 01:00;CYGK 090100Z 24003KT 15SM BKN270 18/15 A3004 RMK CS7 SLP172 DENSITY ALT 500FT

CYGK;2015-07-09 02:00;CYGK 090200Z 26005KT 15SM OVC270 18/15 A3006 RMK CS8 SLP179 DENSITY ALT 500FT

CYGK;2015-07-09 03:00;CYGK 090300Z 26005KT 15SM BKN270 17/15 A3006 RMK CS7 SLP178 DENSITY ALT 400FT

CYGK;2015-07-09 10:00;CYGK 091000Z 25003KT 12SM OVC200 15/14 A3001 RMK CI8 SLP164

CYGK;2015-07-09 11:00;CYGK 091100Z 00000KT 15SM OVC200 15/15 A3001 RMK CI8 SLP163

CYGK;2015-07-09 12:00;CYGK 091200Z 22002KT 15SM OVC180 17/16 A3000 RMK AC8 SLP160 DENSITY ALT 500FT

CYGK;2015-07-09 13:00;CYGK 091300Z 18006KT 15SM OVC160 18/16 A2999 RMK AC8 SLP157 DENSITY ALT 600FT

CYGK;2015-07-09 14:00;CYGK 091400Z 20004KT 15SM FEW030 OVC150 18/16 A2998 RMK SC2AC6 SLP153 DENSITY ALT 600FT

CYGK;2015-07-09 14:11;CYGK 091411Z 18005KT 15SM SCT007 OVC150 18/16 A2998 RMK SC3AC5 SLP153 DENSITY ALT 600FT

CYGK;2015-07-09 15:00;CYGK 091500Z 18006KT 15SM SCT007 SCT040 OVC140 18/16 A2997 RMK CF3SC1AC4 SLP148 DENSITY ALT 600FT

CYGK;2015-07-09 16:00;CYGK 091600Z 17007KT 15SM FEW010 SCT040 OVC130 18/15 A2995 RMK CU1SC2AC5 SLP141 DENSITY ALT 600FT

CYGK;2015-07-09 17:00;CYGK 091700Z 17006KT 15SM FEW015 BKN075 OVC110 18/16 A2994 RMK CU1AC4AC3 SLP140 DENSITY ALT 600FT

CYGK;2015-07-09 18:00;CYGK 091800Z 15006KT 15SM FEW010 OVC065 18/15 A2992 RMK CU1SC7 SLP132 DENSITY ALT 700FT

CYGK;2015-07-09 19:00;CYGK 091900Z 18005KT 15SM VCSH FEW015 OVC059 18/15 A2990 RMK CU1SC7 SLP125 DENSITY ALT 700FT

CYGK;2015-07-09 20:00;CYGK 092000Z VRB02KT 15SM FEW015 BKN050 BKN110 BKN250 19/14 A2988 RMK CU1SC5AC1CI1 CU TR SLP119 DENSITY ALT 800FT

CYGK;2015-07-09 21:00;CYGK 092100Z 18003KT 140V200 15SM FEW020 SCT050 BKN070 BKN250 20/15 A2988 RMK CU1SC4AC2CI1 CU TR SLP117 DENSITY ALT 900FT

CYGK;2015-07-09 22:00;CYGK 092200Z 00000KT 15SM FEW020 SCT049 BKN070 BKN250 20/15 A2988 RMK CU1SC4AC1CI2 CU TR SLP117 DENSITY ALT 1000FT

CYGK;2015-07-09 23:00;CYGK 092300Z 17004KT 15SM FEW048 FEW070 SCT220 20/15 A2987 RMK SC1AC1CI2 SLP113 DENSITY ALT 1000FT

CYGK;2015-07-10 00:00;CYGK 100000Z 21004KT 15SM FEW040 FEW120 FEW220 19/16 A2988 RMK SC1AC1CI2 SC TR AC TR SLP117 DENSITY ALT 800FT

CYGK;2015-07-10 01:00;CYGK 100100Z 25004KT 15SM FEW030 FEW120 FEW220 16/15 A2989 RMK SC1AC1CI1 SC TR AC TR SLP122 DENSITY ALT 500FT

CYGK;2015-07-10 02:00;CYGK 100200Z 25006KT 15SM FEW220 17/16 A2991 RMK CI1 SLP129 DENSITY ALT 600FT

CYGK;2015-07-10 03:00;CYGK 100300Z 25003KT 15SM FEW220 17/16 A2992 RMK CI1 LAST STFD OBS/NEXT 101000UTC SLP131 DENSITY ALT 600FT

CYGK;2015-07-10 10:00;CYGK 101000Z 34006KT 15SM FEW080 FEW250 13/13 A2998 RMK AC1CI2 AC TR SLP153

CYGK;2015-07-10 11:00;CYGK 101100Z 34005KT 15SM FEW080 FEW250 16/14 A3000 RMK AC1CI2 AC TR SLP160

CYGK;2015-07-10 12:00;CYGK 101200Z 36006KT 15SM FEW250 18/15 A3001 RMK CI2 SLP164 DENSITY ALT 600FT

CYGK;2015-07-10 13:00;CYGK 101300Z 32003KT 15SM FEW250 21/15 A3003 RMK CI2 SLP169 DENSITY ALT 800FT

CYGK;2015-07-10 14:00;CYGK 101400Z 35003KT 290V030 15SM SCT250 23/14 A3003 RMK CI3 SLP169 DENSITY ALT 1100FT

CYGK;2015-07-10 15:00;CYGK 101500Z 17010KT 15SM FEW250 20/17 A3004 RMK CI2 SLP172 DENSITY ALT 800FT

CYGK;2015-07-10 16:00;CYGK 101600Z 17011KT 15SM FEW040 FEW250 21/16 A3005 RMK CU1CI2 CU TR SLP176 DENSITY ALT 900FT

CYGK;2015-07-10 17:00;CYGK 101700Z 19011KT 15SM FEW040 FEW250 21/16 A3004 RMK CU1CI1 SLP174 DENSITY ALT 800FT

CYGK;2015-07-10 18:00;CYGK 101800Z 19011KT 14SM FEW040 SCT250 21/17 A3004 RMK CU2CI2 SLP172 DENSITY ALT 900FT

CYGK;2015-07-10 19:00;CYGK 101900Z 19011KT 15SM SCT050 SCT250 22/18 A3003 RMK CU3CI1 SLP169 DENSITY ALT 1000FT

CYGK;2015-07-10 20:00;CYGK 102000Z 20009KT 15SM FEW050 FEW075 SCT250 23/18 A3003 RMK CU1AC1CI1 SLP168 DENSITY ALT 1100FT

CYGK;2015-07-10 21:00;CYGK 102100Z 19007KT 15SM FEW050 FEW250 23/19 A3002 RMK CU1CI1 SLP166 DENSITY ALT 1100FT

CYGK;2015-07-10 22:00;CYGK 102200Z 20008KT 15SM FEW050 FEW250 24/17 A3002 RMK CU1CI1 SLP165 DENSITY ALT 1300FT

CYGK;2015-07-10 23:00;CYGK 102300Z 23008KT 15SM FEW050 FEW250 24/17 A3002 RMK SC1CI1 SC TR SLP165 DENSITY ALT 1200FT

CYGK;2015-07-11 00:00;CYGK 110000Z 20006KT 15SM FEW050 FEW250 22/16 A3002 RMK SC1CI1 SC TR SLP165 DENSITY ALT 1000FT

CYGK;2015-07-11 01:00;CYGK 110100Z 21006KT 15SM FEW050 FEW250 21/14 A3003 RMK SC1CI1 SC TR SLP168 DENSITY ALT 900FT

CYGK;2015-07-11 02:00;CYGK 110200Z 23006KT 15SM FEW050 19/14 A3004 RMK SC1 SC TR SLP171 DENSITY ALT 700FT

CYGK;2015-07-11 03:00;CYGK 110300Z 24006KT 15SM SKC 20/14 A3004 RMK LAST STFD OBS/NEXT 111000UTC SLP172 DENSITY ALT 800FT

CYGK;2015-07-11 10:00;CYGK 111000Z 28006KT 15SM SKC 16/14 A3008 RMK SLP185

CYGK;2015-07-11 11:00;CYGK 111100Z 28003KT 250V320 15SM SKC 17/14 A3009 RMK SLP191

CYGK;2015-07-11 12:00;CYGK 111200Z VRB02KT 15SM SKC 19/15 A3010 RMK SLP193 DENSITY ALT 600FT

CYGK;2015-07-11 13:00;CYGK 111300Z 22004KT 15SM SKC 20/16 A3011 RMK SLP197 DENSITY ALT 700FT

CYGK;2015-07-11 14:00;CYGK 111400Z 21006KT 15SM SKC 22/17 A3011 RMK SLP195 DENSITY ALT 900FT

CYGK;2015-07-11 15:00;CYGK 111500Z 19008KT 15SM SKC 22/18 A3011 RMK SLP197 DENSITY ALT 900FT

CYGK;2015-07-11 16:00;CYGK 111600Z 19011KT 15SM SKC 22/18 A3011 RMK SLP196 DENSITY ALT 900FT

CYGK;2015-07-11 17:00;CYGK 111700Z 19011KT 15SM SKC 23/19 A3010 RMK SLP194 DENSITY ALT 1000FT

CYGK;2015-07-11 18:00;CYGK 111800Z 19010KT 14SM FEW035 23/19 A3009 RMK CU1 CU TR SLP191 DENSITY ALT 1100FT

CYGK;2015-07-11 19:00;CYGK 111900Z 19011KT 15SM FEW035 25/19 A3008 RMK CU1 CU TR SLP186 DENSITY ALT 1300FT

CYGK;2015-07-11 20:00;CYGK 112000Z 23010KT 15SM FEW040 26/18 A3007 RMK CU1 TR CU SLP183 DENSITY ALT 1400FT

CYGK;2015-07-11 21:00;CYGK 112100Z 23013KT 15SM SKC 26/18 A3006 RMK SLP179 DENSITY ALT 1400FT

CYGK;2015-07-11 22:00;CYGK 112200Z 24013KT 15SM FEW170 25/16 A3005 RMK AC1 SLP175 DENSITY ALT 1300FT

CYGK;2015-07-11 23:00;CYGK 112300Z 23012G17KT 15SM FEW170 25/16 A3004 RMK AC1 SLP172 DENSITY ALT 1300FT

CYGK;2015-07-12 00:00;CYGK 120000Z 24010KT 15SM FEW170 FEW270 24/16 A3003 RMK AC1CI1 AC TR SLP168 DENSITY ALT 1200FT

CYGK;2015-07-12 01:00;CYGK 120100Z 24008KT 15SM FEW170 FEW270 22/16 A3003 RMK AC1CI1 AC TR SLP170 DENSITY ALT 1000FT

CYGK;2015-07-12 02:00;CYGK 120200Z 24008KT 15SM FEW270 22/16 A3005 RMK CI1 SLP176 DENSITY ALT 1000FT

CYGK;2015-07-12 03:00;CYGK 120300Z 23007KT 15SM SKC 20/15 A3005 RMK LAST STFD OBS/NEXT 121000UTC SLP176 DENSITY ALT 800FT

CYGK;2015-07-12 10:00;CYGK 121000Z 25004KT 15SM BKN240 18/16 A3004 RMK CI6 SLP171 DENSITY ALT 600FT

CYGK;2015-07-12 11:00;CYGK 121100Z 24004KT 15SM BKN240 19/17 A3005 RMK CI7 SLP174 DENSITY ALT 600FT

CYGK;2015-07-12 12:00;CYGK 121200Z 21003KT 190V250 15SM BKN240 20/17 A3006 RMK CI7 SLP178 DENSITY ALT 800FT

CYGK;2015-07-12 13:00;CYGK 121300Z 23006KT 15SM BKN250 21/17 A3005 RMK CI6 SLP175 DENSITY ALT 900FT

CYGK;2015-07-12 14:00;CYGK 121400Z 23008KT 15SM BKN240 23/18 A3004 RMK CI6 SLP173 DENSITY ALT 1100FT

CYGK;2015-07-12 15:00;CYGK 121500Z 22009KT 15SM BKN240 24/18 A3004 RMK CI6 SLP171 DENSITY ALT 1200FT

CYGK;2015-07-12 16:00;CYGK 121600Z 19008KT 15SM BKN240 23/20 A3004 RMK CI7 SLP172 DENSITY ALT 1200FT

CYGK;2015-07-12 17:00;CYGK 121700Z 20009G15KT 15SM OVC250 24/20 A3003 RMK CI8 SLP169 DENSITY ALT 1200FT

CYGK;2015-07-12 18:00;CYGK 121800Z 19010KT 15SM OVC250 24/20 A3001 RMK CI8 SLP163 DENSITY ALT 1300FT

CYGK;2015-07-12 19:00;CYGK 121900Z 19010KT 15SM BKN250 24/20 A3000 RMK CI7 SLP157 DENSITY ALT 1300FT

CYGK;2015-07-12 20:00;CYGK 122000Z 19012KT 15SM OVC250 24/18 A2999 RMK CI8 SLP154 DENSITY ALT 1200FT

CYGK;2015-07-12 21:00;CYGK 122100Z 20009KT 15SM BKN250 24/19 A2998 RMK CI7 SLP150 DENSITY ALT 1300FT

CYGK;2015-07-12 22:00;CYGK 122200Z 19006KT 15SM BKN250 23/19 A2997 RMK CI6 SLP147 DENSITY ALT 1200FT

CYGK;2015-07-12 23:00;CYGK 122300Z 21007KT 15SM BKN250 23/17 A2996 RMK CI6 SLP145 DENSITY ALT 1200FT

CYGK;2015-07-13 00:00;CYGK 130000Z 21005KT 15SM BKN250 22/18 A2997 RMK CI6 SLP147 DENSITY ALT 1000FT

CYGK;2015-07-13 01:00;CYGK 130100Z 16002KT 15SM BKN250 21/17 A2996 RMK CI7 SLP145 DENSITY ALT 900FT

CYGK;2015-07-13 02:00;CYGK 130200Z 19007KT 15SM BKN250 20/18 A2996 RMK CI7 SLP145 DENSITY ALT 800FT

CYGK;2015-07-13 03:00;CYGK 130300Z 18004KT 15SM BKN250 19/18 A2996 RMK CI6 LAST STFD OBS/NEXT 131000 UTC SLP145 DENSITY ALT 800FT

CYGK;2015-07-13 10:00;CYGK 131000Z 00000KT 9SM MIFG SCT270 15/15 A2992 RMK CI3 SLP130 DENSITY ALT 400FT

CYGK;2015-07-13 11:00;CYGK 131100Z 35002KT 10SM MIFG FEW270 17/17 A2992 RMK CI2 SLP131 DENSITY ALT 600FT

CYGK;2015-07-13 12:00;CYGK 131200Z 15003KT 15SM FEW270 21/18 A2991 RMK CI1 HZ SLP128 DENSITY ALT 1000FT

CYGK;2015-07-13 13:00;CYGK 131300Z 15004KT 12SM SKC 22/18 A2991 RMK SLP127 DENSITY ALT 1100FT

CYGK;2015-07-13 14:00;CYGK 131400Z 19005KT 12SM FEW270 22/18 A2991 RMK CI1 CI TR SLP128 DENSITY ALT 1200FT

CYGK;2015-07-13 15:00;CYGK 131500Z 20006KT 12SM FEW270 24/18 A2991 RMK CI1 SLP128 DENSITY ALT 1400FT

CYGK;2015-07-13 16:00;CYGK 131600Z 16005KT 12SM FEW035 25/18 A2989 RMK CU1 CU TR SLP121 DENSITY ALT 1500FT

CYGK;2015-07-13 17:00;CYGK 131700Z 15007KT 12SM FEW035 26/18 A2986 RMK CU1 CU TR SLP109 DENSITY ALT 1700FT

CYGK;2015-07-13 18:00;CYGK 131800Z 17006KT 15SM FEW040 27/19 A2984 RMK CU1 CU TR SLP102 DENSITY ALT 1800FT

CYGK;2015-07-13 19:00;CYGK 131900Z 15006KT 130V190 15SM FEW040 26/18 A2981 RMK CU1 CU TR SLP092 DENSITY ALT 1700FT

CYGK;2015-07-13 20:00;CYGK 132000Z 17005KT 15SM FEW040 FEW250 27/19 A2978 RMK CU1CI1 CU TR CI TR SLP085 DENSITY ALT 1900FT

CYGK;2015-07-13 21:00;CYGK 132100Z 19004KT 15SM FEW040 FEW250 28/18 A2977 RMK SF1CI1 SF TR SLP080 DENSITY ALT 1900FT

CYGK;2015-07-13 22:00;CYGK 132200Z 19003KT 150V220 15SM FEW250 28/18 A2975 RMK CI1 SLP075 DENSITY ALT 2000FT

CYGK;2015-07-13 23:00;CYGK 132300Z 00000KT 15SM FEW070 SCT250 27/18 A2975 RMK AC1CI2 SLP073 DENSITY ALT 1900FT

CYGK;2015-07-14 00:00;CYGK 140000Z 13002KT 15SM FEW060TCU BKN250 26/18 A2973 RMK TCU1CI5 SLP066 DENSITY ALT 1800FT

CYGK;2015-07-14 01:00;CYGK 140100Z 11005KT 15SM FEW080 BKN250 25/18 A2970 RMK AC1CI5 SLP056 DENSITY ALT 1700FT

CYGK;2015-07-14 02:00;CYGK 140200Z 11006KT 15SM FEW080 BKN250 24/19 A2970 RMK AC1CI5 SLP054 DENSITY ALT 1600FT

CYGK;2015-07-14 03:00;CYGK 140300Z 11006KT 15SM SCT250 23/19 A2969 RMK CI4 LAST STFD OBS/NEXT 141000 UTC SLP053 DENSITY ALT 1500FT

CYGK;2015-07-14 10:00;CYGK 141000Z 16012G18KT 15SM FEW038TCU SCT050 BKN250 21/19 A2960 RMK TCU1SC3CI3 SLP022 DENSITY ALT 1400FT

CYGK;2015-07-14 11:00;CYGK 141100Z 16012KT 15SM BKN034 BKN120 21/19 A2960 RMK SC6AC1 SLP022 DENSITY ALT 1400FT

CYGK;2015-07-14 12:00;CYGK 141200Z 16015KT 15SM VCSH BKN040 BKN130 22/19 A2959 RMK SC6AC1 SLP018 DENSITY ALT 1500FT

CYGK;2015-07-14 12:05;CYGK 141205Z 16013G19KT 15SM -SHRA BKN040 OVC130 21/19 A2959 RMK SC7AC1 SLP019 DENSITY ALT 1400FT

CYGK;2015-07-14 13:00;CYGK 141300Z 16013KT 5SM -SHRA BR BKN025 OVC040 20/19 A2959 RMK SC6SC2 SLP018 DENSITY ALT 1200FT

CYGK;2015-07-14 13:12;CYGK 141312Z 16014G19KT 6SM -SHRA BR FEW008 BKN025 OVC040 20/19 A2959 RMK SF1SC7SC1 SF TR SLP018 DENSITY ALT 1300FT

CYGK;2015-07-14 14:00;CYGK 141400Z 15011KT 6SM -SHRA BR FEW008 BKN025 BKN040 20/19 A2958 RMK SF1SC6SC1 SF TR SLP015 DENSITY ALT 1300FT

CYGK;2015-07-14 14:19;CYGK 141419Z 16011KT 8SM FEW008 BKN026 OVC040 20/20 A2958 RMK SF1SC6SC2 SF TR SLP015 DENSITY ALT 1300FT

CYGK;2015-07-14 15:00;CYGK 141500Z 17009G15KT 10SM FEW008 BKN022 OVC040 21/19 A2957 RMK SF1SC6SC2 SF TR SLP013 DENSITY ALT 1400FT

CYGK;2015-07-14 16:00;CYGK 141600Z 15009KT 10SM FEW008 BKN019 OVC040 21/20 A2957 RMK SF1SC7SC1 SF TR SLP013 DENSITY ALT 1400FT

CYGK;2015-07-14 17:00;CYGK 141700Z 16010KT 10SM FEW008 BKN021 OVC040 21/20 A2957 RMK SF1SC7SC1 SF TR SLP012 DENSITY ALT 1500FT

CYGK;2015-07-14 17:32;CYGK 141732Z 17011KT 10SM FEW008 BKN024 OVC045 22/20 A2956 RMK SF1SC7SC1 SF TR SLP010 DENSITY ALT 1500FT

CYGK;2015-07-14 18:00;CYGK 141800Z 17010KT 10SM VCSH FEW008 BKN023 OVC040 22/20 A2955 RMK SF1SC6SC2 SF TR SLP007 DENSITY ALT 1500FT

CYGK;2015-07-14 19:00;CYGK 141900Z 17009KT 10SM FEW023 SCT040 BKN080 BKN250 23/20 A2954 RMK CU1SC2AC2CI2 SLP003 DENSITY ALT 1700FT

CYGK;2015-07-14 20:00;CYGK 142000Z 17010G15KT 10SM FEW023 SCT040 BKN080 BKN160 BKN250 24/21 A2953 RMK CU1SC2AC2AC1CI2 AC TR SLP000 DENSITY ALT 1800FT

CYGK;2015-07-14 21:00;CYGK 142100Z 20008KT 10SM FEW025 BKN160 BKN250 23/20 A2953 RMK CU1AC4CI2 SLP999 DENSITY ALT 1700FT

CYGK;2015-07-14 22:00;CYGK 142200Z 16008KT 8SM FEW025 BKN150 BKN250 22/20 A2952 RMK CU1AC5CI2 CU TR SLP997 DENSITY ALT 1500FT

CYGK;2015-07-14 22:11;CYGK 142211Z 17007KT 6SM BR FEW005 SCT025 BKN170 BKN250 22/20 A2953 RMK SF2CU1AC2CI2 VIS N 10 SLP998 DENSITY ALT 1500FT

CYGK;2015-07-14 23:00;CYGK 142300Z 16007KT 6SM BR FEW005 FEW025 SCT170 BKN250 22/21 A2954 RMK SF1CU1AC3CI3 SF TR CU TR SLP001 DENSITY ALT 1500FT

CYGK;2015-07-15 00:00;CYGK 150000Z 16004KT 6SM BR FEW025 SCT050 BKN140 BKN250 21/20 A2955 RMK SC1SC2AC3CI1 SLP007 DENSITY ALT 1400FT

CYGK;2015-07-15 01:00;CYGK 150100Z 23003KT 4SM BR FEW050 BKN065 BKN140 BKN250 20/20 A2957 RMK SC1SC4AC1CI1 SLP013 DENSITY ALT 1400FT

CYGK;2015-07-15 01:09;CYGK 150109Z 22002KT 3SM BR SCT004 BKN065 OVC140 21/20 A2958 RMK SF3SC3AC2 SLP015 DENSITY ALT 1400FT

CYGK;2015-07-15 01:31;CYGK 150131Z 00000KT 3SM -SHRA BR FEW004 SCT065 BKN080 OVC140 20/20 A2958 RMK SF1SC3AC2AC2 SLP017 DENSITY ALT 1300FT

CYGK;2015-07-15 02:00;CYGK 150200Z 18002KT 3SM -SHRA BR FEW060 SCT080 OVC140 21/20 A2958 RMK SC2AC2AC4 SLP018 DENSITY ALT 1400FT

CYGK;2015-07-15 03:00;CYGK 150300Z 36011G17KT 10SM -SHRA SCT012 OVC024 21/19 A2961 RMK SF4CU4 SLP028 DENSITY ALT 1300FT

CYGK;2015-07-15 10:00;CYGK 151000Z 02014G24KT 15SM FEW007 BKN048 12/09 A2978 RMK SF1SC7 SF TR SLP086

CYGK;2015-07-15 11:00;CYGK 151100Z 02016G24KT 15SM FEW008 FEW060 12/08 A2981 RMK SF1SC1 SF TR SLP096

CYGK;2015-07-15 12:00;CYGK 151200Z 01019G27KT 15SM FEW015 SCT025 SCT060 13/08 A2985 RMK CF1SC2SC1 SLP108

CYGK;2015-07-15 13:00;CYGK 151300Z 03015G22KT 15SM BKN025 14/08 A2988 RMK SC6 SLP117

CYGK;2015-07-15 14:00;CYGK 151400Z 03013G20KT 15SM BKN027 14/08 A2990 RMK SC7 SLP125

CYGK;2015-07-15 15:00;CYGK 151500Z 36014G19KT 330V040 15SM SCT030 16/09 A2992 RMK SC4 SLP131 DENSITY ALT 400FT

CYGK;2015-07-15 16:00;CYGK 151600Z 01012G18KT 15SM FEW030 17/10 A2992 RMK CU1 SLP133 DENSITY ALT 600FT

CYGK;2015-07-15 17:00;CYGK 151700Z 36014KT 330V030 15SM FEW030 FEW240 18/09 A2992 RMK CU1CI1 CI TR SLP134 DENSITY ALT 700FT

CYGK;2015-07-15 18:00;CYGK 151800Z 03011G20KT 330V040 15SM FEW035 FEW240 19/09 A2993 RMK CU1CI1 CU TR SLP135 DENSITY ALT 800FT

CYGK;2015-07-15 19:00;CYGK 151900Z 33010KT 15SM FEW035 SCT250 21/10 A2994 RMK CF1CI3 CF TR SLP139 DENSITY ALT 1000FT

CYGK;2015-07-15 20:00;CYGK 152000Z 34013KT 15SM FEW035 SCT250 21/10 A2993 RMK CF1CI4 CF TR SLP137 DENSITY ALT 1000FT

CYGK;2015-07-15 21:00;CYGK 152100Z 35011G19KT 15SM FEW250 21/10 A2994 RMK CI2 SLP138 DENSITY ALT 1000FT

CYGK;2015-07-15 22:00;CYGK 152200Z 02013KT 15SM FEW040 SCT250 21/10 A2995 RMK CU1CI3 CU TR SLP141 DENSITY ALT 1000FT

CYGK;2015-07-15 23:00;CYGK 152300Z 35009KT 15SM FEW040 SCT250 20/10 A2995 RMK SC1CI3 SC TR SLP144 DENSITY ALT 900FT

CYGK;2015-07-16 00:00;CYGK 160000Z 36010KT 15SM FEW040 SCT250 19/10 A2997 RMK SC1CI4 SC TR SLP149 DENSITY ALT 700FT

CYGK;2015-07-16 01:00;CYGK 160100Z 36004KT 15SM SCT250 17/10 A2999 RMK CI3 SLP157 DENSITY ALT 500FT

CYGK;2015-07-16 02:00;CYGK 160200Z 34004KT 15SM SKC 15/10 A3002 RMK SLP167

CYGK;2015-07-16 03:00;CYGK 160300Z 33005KT 15SM SKC 14/11 A3003 RMK LAST STFD OBS/NEXT 161000 UTC SLP170

CYGK;2015-07-16 10:00;CYGK 161000Z 35007KT 15SM FEW250 09/09 A3012 RMK CI1 SLP199

CYGK;2015-07-16 11:00;CYGK 161100Z 34005KT 15SM FEW250 12/11 A3013 RMK CI1 SLP203

CYGK;2015-07-16 12:00;CYGK 161200Z 03005KT 15SM FEW250 16/11 A3013 RMK CI1 SLP203

CYGK;2015-07-16 13:00;CYGK 161300Z VRB02KT 15SM FEW250 17/11 A3015 RMK CI1 SLP209

CYGK;2015-07-16 14:00;CYGK 161400Z 07005KT 030V120 15SM FEW030 SCT250 19/11 A3015 RMK CF1CI3 CF TR SLP210 DENSITY ALT 500FT

CYGK;2015-07-16 15:00;CYGK 161500Z 10006KT 060V120 15SM FEW035 SCT250 20/10 A3014 RMK CF1CI4 CF TR SLP206 DENSITY ALT 600FT

CYGK;2015-07-16 16:00;CYGK 161600Z 05006KT 310V090 15SM FEW040 BKN250 21/10 A3014 RMK CU1CI5 CU TR SLP206 DENSITY ALT 700FT

CYGK;2015-07-16 17:00;CYGK 161700Z 17010KT 15SM FEW040 FEW250 20/11 A3012 RMK CU1CI2 CU TR SLP201 DENSITY ALT 700FT

CYGK;2015-07-16 18:00;CYGK 161800Z 20008KT 15SM FEW040 SCT250 20/12 A3011 RMK CF1CI4 CF TR PRESFR SLP197 DENSITY ALT 700FT

CYGK;2015-07-16 19:00;CYGK 161900Z 19008KT 15SM FEW040 FEW250 21/13 A3010 RMK CU1CI2 CU TR SLP195 DENSITY ALT 800FT

CYGK;2015-07-16 20:00;CYGK 162000Z 19009KT 15SM FEW040 FEW250 21/12 A3009 RMK CU1CI2 CU TR SLP191 DENSITY ALT 800FT

CYGK;2015-07-16 21:00;CYGK 162100Z 19009KT 15SM FEW040 FEW250 21/13 A3009 RMK CU1CI2 CU TR SLP190 DENSITY ALT 800FT

CYGK;2015-07-16 22:00;CYGK 162200Z 18006KT 15SM FEW040 FEW250 21/12 A3008 RMK CU1CI2 CU TR SLP188 DENSITY ALT 800FT

CYGK;2015-07-16 23:00;CYGK 162300Z 18005KT 15SM SCT250 21/13 A3007 RMK CI4 SLP182 DENSITY ALT 800FT

CYGK;2015-07-17 00:00;CYGK 170000Z 22003KT 15SM BKN250 19/12 A3006 RMK CI6 SLP180 DENSITY ALT 700FT

CYGK;2015-07-17 01:00;CYGK 170100Z 00000KT 15SM BKN240 17/13 A3005 RMK CC5 SLP177 DENSITY ALT 400FT

CYGK;2015-07-17 02:00;CYGK 170200Z 28002KT 15SM BKN240 15/12 A3007 RMK CI5 SLP182

CYGK;2015-07-17 03:00;CYGK 170300Z 34003KT 15SM SCT240 14/12 A3007 RMK CC4 LAST STFD OBS/NEXT 171000 UTC SLP182

CYGK;2015-07-17 10:00;CYGK 171000Z 07006KT 15SM FEW150 BKN250 12/12 A3003 RMK AC2CI4 SLP169

CYGK;2015-07-17 11:00;CYGK 171100Z 16008KT 15SM SCT200 BKN250 16/15 A3003 RMK CI4CI3 SLP170

CYGK;2015-07-17 12:00;CYGK 171200Z 13007KT 090V170 15SM BKN220 BKN250 18/15 A3002 RMK CI5CI2 SLP167 DENSITY ALT 500FT

CYGK;2015-07-17 13:00;CYGK 171300Z 13008KT 15SM BKN170 BKN220 18/15 A3001 RMK AC5CI2 SLP162 DENSITY ALT 600FT

CYGK;2015-07-17 14:00;CYGK 171400Z 14009KT 15SM BKN160 OVC220 20/15 A3000 RMK AC5CI3 SLP158 DENSITY ALT 800FT

CYGK;2015-07-17 15:00;CYGK 171500Z 15009KT 15SM BKN120 OVC220 20/16 A2999 RMK AC7CI1 SLP156 DENSITY ALT 800FT

CYGK;2015-07-17 16:00;CYGK 171600Z 16006KT 15SM OVC100 20/16 A2998 RMK AC8 SLP152 DENSITY ALT 900FT

CYGK;2015-07-17 17:00;CYGK 171700Z 16009KT 15SM BKN100 OVC160 21/17 A2997 RMK AC5AC3 SLP148 DENSITY ALT 1000FT

CYGK;2015-07-17 18:00;CYGK 171800Z 15007KT 15SM BKN100 OVC140 21/17 A2995 RMK AC5AC3 SLP143 DENSITY ALT 1000FT

CYGK;2015-07-17 18:47;CYGK 171847Z 16007KT 15SM -SHRA BKN100 OVC140 21/18 A2994 RMK AC7AC1 SLP140 DENSITY ALT 1000FT

CYGK;2015-07-17 19:00;CYGK 171900Z 14010KT 15SM -SHRA BKN097 OVC140 21/17 A2993 RMK AC7AC1 SLP136 DENSITY ALT 1000FT

CYGK;2015-07-17 20:00;CYGK 172000Z 17008KT 12SM -SHRA BKN085 OVC140 20/18 A2992 RMK AC6AC2 SLP134 DENSITY ALT 900FT

CYGK;2015-07-17 21:00;CYGK 172100Z 20010KT 12SM -SHRA FEW035 OVC063 20/18 A2992 RMK CF2SC6 SLP133 DENSITY ALT 900FT

CYGK;2015-07-17 22:00;CYGK 172200Z 20005KT 8SM -SHRA SCT032 OVC060 19/18 A2990 RMK SC4SC4 SLP125 DENSITY ALT 800FT

CYGK;2015-07-17 22:38;CYGK 172238Z 19009KT 2SM -SHRA BR BKN023 OVC040 19/18 A2989 RMK SC5SC3 SLP121 DENSITY ALT 800FT

CYGK;2015-07-17 22:49;CYGK 172249Z 18016KT 6SM -SHRA BR BKN023 OVC050 18/17 A2988 RMK SC5SC3 SLP119 DENSITY ALT 700FT

CYGK;2015-07-17 23:00;CYGK 172300Z 18013G19KT 6SM -SHRA BR SCT023 OVC054 18/16 A2988 RMK SC4SC4 SLP118 DENSITY ALT 700FT

CYGK;2015-07-18 00:00;CYGK 180000Z 14006KT 10SM -SHRA FEW025 OVC042 17/15 A2987 RMK SC1SC7 SLP113 DENSITY ALT 600FT

CYGK;2015-07-18 01:00;CYGK 180100Z 08003KT 12SM FEW025 OVC040 17/16 A2984 RMK SC1SC7 OCNL -SHRA SLP106 DENSITY ALT 600FT

CYGK;2015-07-18 01:34;CYGK 180134Z 13007KT 6SM -SHRA BR OVC024 18/17 A2984 RMK SC8 SLP106 DENSITY ALT 700FT

CYGK;2015-07-18 02:00;CYGK 180200Z 13005KT 10SM -SHRA OVC025 19/17 A2984 RMK SC8 SLP103 DENSITY ALT 900FT

CYGK;2015-07-18 02:10;CYGK 180210Z 14006KT 2SM -SHRA BR FEW008 OVC022 19/18 A2984 RMK SF2SC6 SLP105 DENSITY ALT 900FT

CYGK;2015-07-18 02:24;CYGK 180224Z 14007KT 5SM -SHRA BR FEW008 OVC029 19/18 A2984 RMK SF1SC7 SLP103 DENSITY ALT 900FT

CYGK;2015-07-18 03:00;CYGK 180300Z 19004KT 130V220 10SM -SHRA FEW008 OVC027 20/19 A2983 RMK SF1SC7 LATY STFD OBS / NEXT 181000 UTC SLP101 DENSITY ALT 1000FT

CYGK;2015-07-18 10:00;CYGK 181000Z 19007KT 6SM BR FEW007 BKN010 OVC015 20/19 A2982 RMK SF1SC4SC3 PRESRR SLP099 DENSITY ALT 1000FT

CYGK;2015-07-18 10:08;CYGK 181008Z 21004KT 5SM BR BKN009 OVC015 20/19 A2982 RMK SF5SC3 SLP099 DENSITY ALT 1000FT

CYGK;2015-07-18 10:44;CYGK 181044Z VRB02KT 6SM BR FEW007 BKN013 BKN049 20/20 A2981 RMK SF1SC4SC2 SLP096 DENSITY ALT 1100FT

CYGK;2015-07-18 11:00;CYGK 181100Z 32002KT 6SM BR FEW007 FEW013 SCT048 20/20 A2982 RMK SF1SC1SC1 SLP097 DENSITY ALT 1100FT

CYGK;2015-07-18 11:48;CYGK 181148Z 23004KT 6SM BR FEW007 BKN012 OVC030 21/20 A2983 RMK SF1SC5SC2 SLP102 DENSITY ALT 1100FT

CYGK;2015-07-18 12:00;CYGK 181200Z 23002KT 5SM BR FEW007 BKN012 21/20 A2984 RMK SF1SC6 SLP104 DENSITY ALT 1100FT

CYGK;2015-07-18 13:00;CYGK 181300Z 28004KT 5SM BR OVC008 22/21 A2985 RMK SF8 CIG RAG SLP107 DENSITY ALT 1200FT

CYGK;2015-07-18 14:00;CYGK 181400Z 28004KT 260V330 5SM BR OVC007 22/21 A2985 RMK SF8 CIG RAG SLP108 DENSITY ALT 1200FT

CYGK;2015-07-18 14:41;CYGK 181441Z 22007KT 6SM BR SCT008 OVC013 22/20 A2985 RMK SF4SC4 SLP108 DENSITY ALT 1200FT

CYGK;2015-07-18 15:00;CYGK 181500Z 22005KT 180V250 8SM BKN012 22/21 A2985 RMK SC7 CIG RAG SLP107 DENSITY ALT 1300FT

CYGK;2015-07-18 16:00;CYGK 181600Z 20007KT 10SM BKN015 24/20 A2986 RMK SC7 SLP111 DENSITY ALT 1400FT

CYGK;2015-07-18 17:00;CYGK 181700Z 18009KT 10SM FEW020 24/21 A2986 RMK CU2 SLP111 DENSITY ALT 1400FT

CYGK;2015-07-18 18:00;CYGK 181800Z 19012KT 10SM SCT020 SCT250 24/21 A2986 RMK CU3CI1 SLP109 DENSITY ALT 1400FT

CYGK;2015-07-18 19:00;CYGK 181900Z 18010KT 10SM FEW020TCU SCT250 23/21 A2986 RMK TCU1CI2 VIS S 5 SLP109 DENSITY ALT 1400FT

CYGK;2015-07-18 20:00;CYGK 182000Z 18008KT 8SM SCT030TCU BKN250 23/21 A2985 RMK TCU3CI2 SLP108 DENSITY ALT 1300FT

CYGK;2015-07-18 21:00;CYGK 182100Z 16005KT 10SM FEW030TCU SCT090 BKN250 23/21 A2985 RMK TCU2AC2CI2 SLP108 DENSITY ALT 1300FT

CYGK;2015-07-18 22:00;CYGK 182200Z 17004KT 12SM FEW030 BKN250 24/21 A2983 RMK CU1CI4 SLP100 DENSITY ALT 1500FT

CYGK;2015-07-18 23:00;CYGK 182300Z 20007KT 12SM FEW030 SCT250 23/21 A2980 RMK CU1CI4 CU TR SLP089 DENSITY ALT 1400FT

CYGK;2015-07-19 00:00;CYGK 190000Z 16005KT 12SM FEW030 BKN250 21/20 A2981 RMK CU1CI5 SLP094 DENSITY ALT 1200FT

CYGK;2015-07-19 01:00;CYGK 190100Z 18007KT 6SM BR FEW030 BKN250 20/19 A2982 RMK CU1CI5 CU TR SLP097 DENSITY ALT 1000FT

CYGK;2015-07-19 02:00;CYGK 190200Z 17007KT 5SM BR BKN250 20/19 A2984 RMK CI5 SLP102 DENSITY ALT 1000FT

CYGK;2015-07-19 03:00;CYGK 190300Z 20006KT 6SM BR BKN250 20/20 A2984 RMK CI6 LAST STFD OBS / NEXT 191000 UTC SLP103 DENSITY ALT 1000FT

CYGK;2015-07-19 10:00;CYGK 191000Z 17007KT 8SM SCT095 BKN180 20/20 A2977 RMK AC3AC3 SLP081 DENSITY ALT 1100FT

CYGK;2015-07-19 11:00;CYGK 191100Z 21004KT 170V240 10SM FEW100 SCT180 21/21 A2977 RMK AC2AC2 SLP080 DENSITY ALT 1200FT

CYGK;2015-07-19 12:00;CYGK 191200Z 23007KT 10SM BKN120 BKN200 23/21 A2977 RMK AC5CI1 SLP080 DENSITY ALT 1400FT

CYGK;2015-07-19 13:00;CYGK 191300Z 23004KT 12SM SCT120 25/22 A2976 RMK AC3 SLP076 DENSITY ALT 1700FT

CYGK;2015-07-19 14:00;CYGK 191400Z 19008KT 12SM FEW030 SCT130 26/22 A2975 RMK CU1AC3 CU TR SLP073 DENSITY ALT 1700FT

CYGK;2015-07-19 15:00;CYGK 191500Z 18012KT 12SM FEW025 BKN140 24/21 A2975 RMK CU2AC4 SLP074 DENSITY ALT 1600FT

CYGK;2015-07-19 16:00;CYGK 191600Z 23012KT 15SM FEW025 SCT140 BKN240 27/23 A2975 RMK CU1AC3CI1 SLP075 DENSITY ALT 1900FT

CYGK;2015-07-19 17:00;CYGK 191700Z 23011G16KT 15SM FEW030 FEW140 SCT250 28/23 A2974 RMK CU1AC1CI2 SLP070 DENSITY ALT 2000FT

CYGK;2015-07-19 18:00;CYGK 191800Z 23015G21KT 15SM FEW030 FEW140 SCT240 28/22 A2974 RMK CU1AC1CI3 CU TR AC TR SLP069 DENSITY ALT 2000FT

CYGK;2015-07-19 19:00;CYGK 191900Z 24015G25KT 15SM FEW035TCU SCT250 28/22 A2973 RMK TCU2CI2 SLP065 DENSITY ALT 2100FT

CYGK;2015-07-19 20:00;CYGK 192000Z 24018G25KT 15SM SCT035TCU BKN250 28/22 A2970 RMK TCU3CI2 SLP055 DENSITY ALT 2100FT

CYGK;2015-07-19 21:00;CYGK 192100Z 23014G21KT 15SM FEW030CB SCT100 BKN250 26/21 A2968 RMK CB1AC2CI4 SLP049 DENSITY ALT 1900FT

CYGK;2015-07-19 22:00;CYGK 192200Z 24011KT 15SM FEW030CB FEW060 SCT100 BKN240 26/22 A2968 RMK CB1SC1AC2CI3 PRESRR SLP048 DENSITY ALT 1900FT

CYGK;2015-07-19 22:41;CYGK 192241Z 25006KT 14SM TS FEW030CB BKN140 BKN240 26/22 A2968 RMK CB1AC4CI2 SHWRS NW-N SLP050 DENSITY ALT 1900FT

CYGK;2015-07-19 22:49;CYGK 192249Z 25009KT 15SM FEW030CB BKN140 BKN240 26/22 A2970 RMK CB1AC5CI1 PRESRR SLP055 DENSITY ALT 1900FT

CYGK;2015-07-19 23:00;CYGK 192300Z 26009KT 15SM -TSRA FEW007 FEW030CB BKN120 BKN240 26/22 A2970 RMK SF1CB2AC4CI1 SF TR OCNL LTNG PRESRR SLP056 DENSITY ALT 1800FT

CYGK;2015-07-19 23:25;CYGK 192325Z 25009G17KT 15SM VCSH FEW030CB SCT070 BKN120 BKN220 25/23 A2968 RMK CB1AC2AC2CI2 SLP048 DENSITY ALT 1800FT

CYGK;2015-07-20 00:00;CYGK 200000Z 24005KT 15SM FEW030TCU SCT100 BKN200 24/23 A2968 RMK TCU1AC3CI3 SLP048 DENSITY ALT 1600FT

CYGK;2015-07-20 01:00;CYGK 200100Z 25007KT 15SM FEW025CB SCT100 BKN220 23/21 A2967 RMK CB1AC2CI4 CB SHWRS NW SLP046 DENSITY ALT 1500FT

CYGK;2015-07-20 02:00;CYGK 200200Z 28006KT 15SM FEW015 SCT040 BKN240 23/21 A2968 RMK SC1SC2CI4 SLP050 DENSITY ALT 1500FT

CYGK;2015-07-20 03:00;CYGK 200300Z 24004KT 15SM FEW050 FEW240 22/21 A2970 RMK SC1CI1 LAST STFD OBS/NEXT 201000UTC SLP055 DENSITY ALT 1400FT

CYGK;2015-07-20 10:00;CYGK 201000Z 26004KT 15SM FEW030 17/15 A2973 RMK SC1 SC TR SLP067 DENSITY ALT 700FT

CYGK;2015-07-20 11:00;CYGK 201100Z 27005KT 15SM SKC 18/15 A2975 RMK SLP072 DENSITY ALT 900FT

CYGK;2015-07-20 12:00;CYGK 201200Z 27007KT 15SM SKC 20/16 A2975 RMK SLP075 DENSITY ALT 1100FT

CYGK;2015-07-20 13:00;CYGK 201300Z 25004KT 15SM SKC 22/18 A2976 RMK SLP077 DENSITY ALT 1300FT

CYGK;2015-07-20 14:00;CYGK 201400Z 24007KT 15SM FEW025 FEW150 23/17 A2975 RMK CF1AC1 CF TR AC TR SLP074 DENSITY ALT 1400FT

CYGK;2015-07-20 15:00;CYGK 201500Z 24007KT 15SM FEW025 FEW150 24/18 A2975 RMK CF1AC1 CF TR AC TR SLP072 DENSITY ALT 1500FT

CYGK;2015-07-20 16:00;CYGK 201600Z 18008KT 15SM FEW025 FEW250 24/20 A2973 RMK CF1CI1 CF TR CI TR SLP067 DENSITY ALT 1600FT

CYGK;2015-07-20 17:00;CYGK 201700Z 19014KT 15SM FEW025 FEW160 FEW250 24/18 A2972 RMK CF1AC1CI1 AC TR CI TR SLP063 DENSITY ALT 1600FT

CYGK;2015-07-20 18:00;CYGK 201800Z 19013KT 15SM FEW025 SCT240 25/18 A2972 RMK CU1CI2 SLP063 DENSITY ALT 1700FT

CYGK;2015-07-20 19:00;CYGK 201900Z 23014KT 15SM FEW035 BKN250 26/16 A2972 RMK CU2CI3 SLP063 DENSITY ALT 1800FT

CYGK;2015-07-20 20:00;CYGK 202000Z 22009G18KT 15SM FEW035 BKN250 26/18 A2971 RMK CU1CI5 SLP061 DENSITY ALT 1800FT

CYGK;2015-07-20 21:00;CYGK 202100Z 24008KT 15SM FEW035 BKN250 25/17 A2970 RMK CU1CI6 SLP055 DENSITY ALT 1700FT

CYGK;2015-07-20 22:00;CYGK 202200Z 24007KT 15SM BKN250 24/17 A2969 RMK CI7 SLP054 DENSITY ALT 1700FT

CYGK;2015-07-20 23:00;CYGK 202300Z 19007KT 15SM BKN250 22/19 A2968 RMK CI7 SLP049 DENSITY ALT 1500FT

CYGK;2015-07-21 00:00;CYGK 210000Z 20007KT 15SM BKN250 21/18 A2967 RMK CI7 SLP046 DENSITY ALT 1300FT

CYGK;2015-07-21 01:00;CYGK 210100Z 20006KT 15SM BKN250 21/17 A2966 RMK CI7 SLP043 DENSITY ALT 1300FT

CYGK;2015-07-21 02:00;CYGK 210200Z 22005KT 15SM BKN250 20/17 A2967 RMK CI6 SLP046 DENSITY ALT 1200FT

CYGK;2015-07-21 03:00;CYGK 210300Z 21005KT 15SM BKN250 20/18 A2966 RMK CI5 LAST STFD OBS/NEXT 211000 UTC SLP043 DENSITY ALT 1200FT

CYGK;2015-07-21 10:00;CYGK 211000Z 22010KT 15SM SCT030 BKN120 OVC200 20/18 A2961 RMK SC3AC4CI1 ACC ASOCTD SLP026 DENSITY ALT 1300FT

CYGK;2015-07-21 10:43;CYGK 211043Z 20005KT 15SM -SHRA FEW030 SCT055TCU BKN110 20/18 A2959 RMK SC2TCU1AC4 TCU S ACC ASOCTD SLP020 DENSITY ALT 1300FT

CYGK;2015-07-21 11:00;CYGK 211100Z 20007KT 15SM FEW010 FEW030 SCT055TCU BKN120 20/18 A2960 RMK CF1SC1TCU2AC4 CF TR TCU E S ACC ASOCTD SLP021 DENSITY ALT 1300FT

CYGK;2015-07-21 12:00;CYGK 211200Z 22004KT 15SM BKN060TCU OVC140 20/18 A2959 RMK TCU5AC3 TCU W ACC ASOCTD SLP021 DENSITY ALT 1300FT

CYGK;2015-07-21 12:47;CYGK 211247Z 24005KT 12SM -SHRA SCT030 BKN060 OVC140 20/19 A2960 RMK CU3SC3AC2 SLP023 DENSITY ALT 1300FT

CYGK;2015-07-21 13:00;CYGK 211300Z 25006KT 15SM SCT028 BKN060 OVC140 20/19 A2960 RMK SC4SC2AC2 OCNL -SHRA SLP023 DENSITY ALT 1300FT

CYGK;2015-07-21 14:00;CYGK 211400Z 25006KT 15SM VCSH FEW015 FEW025 SCT050TCU BKN110 20/19 A2960 RMK CF1SC1TCU2AC4 CF TR TCU E-S MOVG E SLP022 DENSITY ALT 1300FT

CYGK;2015-07-21 14:31;CYGK 211431Z 24007KT 15SM -SHRA FEW012 SCT025 BKN120 21/20 A2960 RMK CF1SC2AC4 SLP022 DENSITY ALT 1400FT

CYGK;2015-07-21 14:52;CYGK 211452Z 24009KT 15SM SCT018 BKN130 21/19 A2959 RMK SC3AC4 SLP021 DENSITY ALT 1400FT

CYGK;2015-07-21 15:00;CYGK 211500Z 25008KT 15SM SCT015 BKN130 21/20 A2959 RMK SC3AC4 SLP021 DENSITY ALT 1400FT

CYGK;2015-07-21 16:00;CYGK 211600Z 26007G16KT 230V290 15SM FEW020 FEW140 24/18 A2960 RMK CU1AC1 SLP022 DENSITY ALT 1700FT

CYGK;2015-07-21 17:00;CYGK 211700Z 27012G19KT 220V290 15SM FEW020 SCT038 SCT140 24/16 A2960 RMK CU1CU4AC1 CU TR AC TR SLP023 DENSITY ALT 1800FT

CYGK;2015-07-21 18:00;CYGK 211800Z 29009G21KT 240V320 15SM FEW043 FEW140 SCT220 24/16 A2961 RMK CU2AC1CI1 AC TR SLP025 DENSITY ALT 1700FT

CYGK;2015-07-21 19:00;CYGK 211900Z 28014G20KT 230V300 14SM SCT045 25/14 A2960 RMK CU4 WSHFT 1851 SLP023 DENSITY ALT 1900FT

CYGK;2015-07-21 20:00;CYGK 212000Z 25011KT 220V280 15SM SCT052 26/14 A2961 RMK CU4 SLP025 DENSITY ALT 1900FT

CYGK;2015-07-21 21:00;CYGK 212100Z 23009KT 15SM BKN050 BKN080 24/15 A2961 RMK CU5AC1 SLP027 DENSITY ALT 1700FT

CYGK;2015-07-21 22:00;CYGK 212200Z 26010G15KT 15SM BKN055 24/15 A2961 RMK CU5 SLP027 DENSITY ALT 1800FT

CYGK;2015-07-21 23:00;CYGK 212300Z 28011KT 15SM SCT060 25/15 A2962 RMK CU4 SLP029 DENSITY ALT 1800FT

CYGK;2015-07-22 00:00;CYGK 220000Z 26009KT 15SM VCSH SCT060 24/15 A2963 RMK CU3 SLP033 DENSITY ALT 1600FT

CYGK;2015-07-22 01:00;CYGK 220100Z 27011KT 15SM VCSH SCT065 22/15 A2966 RMK CU3 SLP042 DENSITY ALT 1400FT

CYGK;2015-07-22 02:00;CYGK 220200Z 28008G15KT 15SM SCT065 21/14 A2969 RMK CU3 SLP052 DENSITY ALT 1200FT

CYGK;2015-07-22 03:00;CYGK 220300Z 29007KT 15SM BKN085 20/14 A2970 RMK AC5 LAST STFD OBS/NEXT 221000 UTC SLP055 DENSITY ALT 1100FT

CYGK;2015-07-22 10:00;CYGK 221000Z 28005KT 15SM FEW100 15/13 A2973 RMK ACC2 SLP066 DENSITY ALT 500FT

CYGK;2015-07-22 11:00;CYGK 221100Z 28008KT 15SM FEW100 16/13 A2974 RMK AC1 SLP070 DENSITY ALT 700FT

CYGK;2015-07-22 12:00;CYGK 221200Z 31008KT 15SM FEW030 FEW100 17/14 A2975 RMK CU1AC1 CU TR SLP072 DENSITY ALT 800FT

CYGK;2015-07-22 13:00;CYGK 221300Z 33006KT 15SM FEW030 FEW080 19/15 A2976 RMK CU1AC2 CU TR SLP076 DENSITY ALT 1000FT

CYGK;2015-07-22 14:00;CYGK 221400Z 35004KT 300V010 15SM FEW030 FEW062 SCT080 SCT250 20/15 A2976 RMK CU1SC1AC2CI1 CU TR SLP078 DENSITY ALT 1100FT

CYGK;2015-07-22 15:00;CYGK 221500Z 19008KT 15SM FEW030 FEW090 21/16 A2978 RMK CU1AC1 SLP082 DENSITY ALT 1200FT

CYGK;2015-07-22 16:00;CYGK 221600Z 18010KT 15SM SCT042 21/17 A2978 RMK CU4 SLP084 DENSITY ALT 1200FT

CYGK;2015-07-22 17:00;CYGK 221700Z 19014KT 15SM BKN053 BKN250 21/17 A2978 RMK CU5CI1 CI TR SLP085 DENSITY ALT 1200FT

CYGK;2015-07-22 18:00;CYGK 221800Z 26010G16KT 15SM BKN055 BKN080 23/13 A2978 RMK CU5AC2 SLP084 DENSITY ALT 1400FT

CYGK;2015-07-22 19:00;CYGK 221900Z 27009G18KT 15SM SCT058 BKN080 24/13 A2978 RMK CU3AC4 SLP085 DENSITY ALT 1500FT

CYGK;2015-07-22 20:00;CYGK 222000Z 29011KT 15SM FEW055 BKN078 24/13 A2979 RMK CU2AC5 SLP086 DENSITY ALT 1500FT

CYGK;2015-07-22 21:00;CYGK 222100Z 27010KT 15SM FEW055 BKN084 24/12 A2979 RMK CU1AC5 SLP088 DENSITY ALT 1500FT

CYGK;2015-07-22 22:00;CYGK 222200Z 28007KT 230V300 15SM FEW055 BKN085 23/13 A2980 RMK CU1AC5 SLP091 DENSITY ALT 1400FT

CYGK;2015-07-22 23:00;CYGK 222300Z 27007KT 15SM FEW060 BKN095 22/13 A2981 RMK SC1AC6 SLP096 DENSITY ALT 1300FT

CYGK;2015-07-23 00:00;CYGK 230000Z 25006KT 15SM SCT060 BKN097 21/15 A2983 RMK SC3AC3 SLP100 DENSITY ALT 1100FT

CYGK;2015-07-23 01:00;CYGK 230100Z 29004KT 15SM FEW065 BKN100 20/14 A2984 RMK SC2AC4 SLP104 DENSITY ALT 1100FT

CYGK;2015-07-23 02:00;CYGK 230200Z 23005KT 15SM BKN100 19/16 A2985 RMK AC6 SLP109 DENSITY ALT 800FT

CYGK;2015-07-23 03:00;CYGK 230300Z 28006KT 15SM BKN100 19/13 A2986 RMK AC7 LAST STFD OBS/NEXT 231000UTC SLP113 DENSITY ALT 800FT

CYGK;2015-07-23 10:00;CYGK 231000Z 28006KT 15SM BKN100 14/12 A2991 RMK AC5 ACC ASOCTD DIST E SLP127

CYGK;2015-07-23 11:00;CYGK 231100Z 26006KT 15SM BKN100 15/12 A2991 RMK AC6 SLP129

CYGK;2015-07-23 12:00;CYGK 231200Z 28006KT 15SM SCT100 SCT250 16/13 A2992 RMK AC4CI1 CI TR SLP131 DENSITY ALT 400FT

CYGK;2015-07-23 13:00;CYGK 231300Z 22006KT 200V300 15SM FEW090 BKN200 19/14 A2992 RMK ACC1CI4 ACC E SLP133 DENSITY ALT 700FT

CYGK;2015-07-23 14:00;CYGK 231400Z 24010KT 15SM FEW025 FEW090 SCT250 20/15 A2993 RMK CU1AC1CI2 CU TR SLP134 DENSITY ALT 800FT

CYGK;2015-07-23 15:00;CYGK 231500Z 20009KT 15SM FEW030 SCT090 SCT140 BKN250 21/15 A2993 RMK CU1AC2AC1CI2 AC TR SLP135 DENSITY ALT 1000FT

CYGK;2015-07-23 16:00;CYGK 231600Z 22008KT 15SM FEW030 BKN090 BKN250 22/16 A2992 RMK CU2AC3CI1 CI TR SLP131 DENSITY ALT 1100FT

CYGK;2015-07-23 17:00;CYGK 231700Z 19013KT 15SM FEW030 SCT080 SCT250 22/17 A2991 RMK CU2AC1CI1 CI TR SLP127 DENSITY ALT 1200FT

CYGK;2015-07-23 18:00;CYGK 231800Z 19012G18KT 15SM SCT040 BKN095 21/17 A2989 RMK CU3AC3 SLP123 DENSITY ALT 1100FT

CYGK;2015-07-23 19:00;CYGK 231900Z 22011KT 15SM SCT058 BKN100 24/15 A2989 RMK CU3AC3 SLP123 DENSITY ALT 1400FT

CYGK;2015-07-23 20:00;CYGK 232000Z 24008KT 200V260 15SM SCT055 BKN100 23/15 A2989 RMK CU3AC3 SLP123 DENSITY ALT 1200FT

CYGK;2015-07-23 21:00;CYGK 232100Z 22009KT 15SM FEW060 BKN100 22/14 A2989 RMK CU2AC3 SLP122 DENSITY ALT 1200FT

CYGK;2015-07-23 22:00;CYGK 232200Z 21006KT 15SM FEW060 SCT095 23/15 A2989 RMK CU1AC2 SLP120 DENSITY ALT 1200FT

CYGK;2015-07-23 23:00;CYGK 232300Z 25009KT 15SM FEW065 FEW110 22/15 A2989 RMK CU1AC1 SLP121 DENSITY ALT 1200FT

CYGK;2015-07-24 00:00;CYGK 240000Z 25006KT 15SM FEW065 FEW110 FEW240 21/14 A2989 RMK CU1AC1CI1 CU TR AC TR CI TR SLP123 DENSITY ALT 1100FT

CYGK;2015-07-24 01:00;CYGK 240100Z 27003KT 15SM FEW060 FEW110 FEW240 20/14 A2991 RMK CU1AC1CI1 CU TR CI TR SLP127 DENSITY ALT 900FT

CYGK;2015-07-24 02:00;CYGK 240200Z 27007KT 15SM FEW110 19/14 A2992 RMK AC1 SLP131 DENSITY ALT 800FT

CYGK;2015-07-24 03:00;CYGK 240300Z 27005KT 15SM FEW110 18/13 A2992 RMK AC1 LAST STFD OBS/NEXT 241000 UTC SLP132 DENSITY ALT 700FT

CYGK;2015-07-24 10:00;CYGK 241000Z 25002KT 15SM BKN100 16/11 A2995 RMK AC6 SLP140 DENSITY ALT 400FT

CYGK;2015-07-24 11:00;CYGK 241100Z 27003KT 15SM BKN100 17/12 A2995 RMK AC7 SLP142 DENSITY ALT 500FT

CYGK;2015-07-24 12:00;CYGK 241200Z 25006KT 210V270 15SM BKN110 17/13 A2996 RMK AC7 SLP144 DENSITY ALT 500FT

CYGK;2015-07-24 13:00;CYGK 241300Z 23006KT 15SM BKN110 19/14 A2996 RMK AC5 SLP145 DENSITY ALT 800FT

CYGK;2015-07-24 14:00;CYGK 241400Z 23006KT 15SM SCT090 BKN110 21/14 A2996 RMK AC4AC3 SLP144 DENSITY ALT 900FT

CYGK;2015-07-24 15:00;CYGK 241500Z 23008KT 15SM SCT085 SCT100 21/14 A2996 RMK AC3AC1 SLP144 DENSITY ALT 1000FT

CYGK;2015-07-24 16:00;CYGK 241600Z 17008KT 15SM FEW030 FEW100 22/15 A2995 RMK SF1AC1 SF TR SLP141 DENSITY ALT 1100FT

CYGK;2015-07-24 17:00;CYGK 241700Z 18010KT 15SM FEW030 23/17 A2994 RMK CU1 SLP139 DENSITY ALT 1300FT

CYGK;2015-07-24 18:00;CYGK 241800Z 19012KT 15SM FEW040 22/17 A2994 RMK CU2 SLP137 DENSITY ALT 1200FT

CYGK;2015-07-24 19:00;CYGK 241900Z 19011KT 15SM BKN064 BKN110 22/16 A2993 RMK CU5AC1 SLP134 DENSITY ALT 1200FT

CYGK;2015-07-24 20:00;CYGK 242000Z 18010KT 15SM SCT060 BKN100 23/17 A2992 RMK CU4AC2 SLP133 DENSITY ALT 1200FT

CYGK;2015-07-24 21:00;CYGK 242100Z 19008KT 15SM FEW065 BKN130 24/15 A2992 RMK CU2AC5 SLP132 DENSITY ALT 1300FT

CYGK;2015-07-24 22:00;CYGK 242200Z 21007KT 15SM FEW070TCU BKN120 25/15 A2992 RMK TCU2AC3 TCU E SLP130 DENSITY ALT 1400FT

CYGK;2015-07-24 23:00;CYGK 242300Z 17004KT 15SM FEW070TCU FEW120 BKN250 24/17 A2992 RMK TCU1AC1CI3 TCU NE SLP131 DENSITY ALT 1300FT

CYGK;2015-07-25 00:00;CYGK 250000Z VRB02KT 15SM FEW080 FEW120 BKN250 21/17 A2992 RMK CU1AC1CI3 SLP132 DENSITY ALT 1100FT

CYGK;2015-07-25 01:00;CYGK 250100Z 15004KT 15SM FEW080 SCT250 19/17 A2992 RMK CU1CI2 SLP132 DENSITY ALT 800FT

CYGK;2015-07-25 02:00;CYGK 250200Z 15006KT 070V160 15SM FEW080 SCT100 20/16 A2993 RMK CU1AC3 SLP134 DENSITY ALT 900FT

CYGK;2015-07-25 03:00;CYGK 250300Z 00000KT 15SM FEW100 FEW250 19/16 A2993 RMK AC1CI1 LAST STFD OBS/NEXT 251000 UTC SLP135 DENSITY ALT 700FT

CYGK;2015-07-25 10:00;CYGK 251000Z 20005KT 15SM FEW100 SCT250 17/16 A2995 RMK AC2CI2 SLP142 DENSITY ALT 500FT

CYGK;2015-07-25 11:00;CYGK 251100Z 19007KT 15SM FEW050 SCT180 SCT250 20/18 A2995 RMK CU1AC3CI1 CU TR SLP141 DENSITY ALT 800FT

CYGK;2015-07-25 12:00;CYGK 251200Z 19010KT 15SM FEW050 SCT180 BKN250 20/18 A2996 RMK CU1AC2CI2 SLP144 DENSITY ALT 900FT

CYGK;2015-07-25 13:00;CYGK 251300Z 17009KT 15SM FEW068 SCT140 BKN230 20/18 A2996 RMK AC1AC3CI3 SLP144 DENSITY ALT 900FT

CYGK;2015-07-25 14:00;CYGK 251400Z 19010KT 15SM SCT050 BKN100 OVC250 20/17 A2996 RMK CU3AC3CI2 SLP144 DENSITY ALT 900FT

CYGK;2015-07-25 15:00;CYGK 251500Z 19012KT 15SM FEW043 SCT084 OVC140 20/17 A2995 RMK SC2AC2AC4 SLP143 DENSITY ALT 900FT

CYGK;2015-07-25 16:00;CYGK 251600Z 20007KT 15SM VCSH BKN040 OVC140 21/17 A2996 RMK CU5AC3 SLP145 DENSITY ALT 1000FT

CYGK;2015-07-25 16:27;CYGK 251627Z 18011KT 10SM -SHRA BKN042 OVC090 20/18 A2995 RMK CU5AC3 SLP141 DENSITY ALT 800FT

CYGK;2015-07-25 17:00;CYGK 251700Z 20009KT 10SM -SHRA FEW008 BKN040 OVC090 19/19 A2995 RMK SF2CU4AC2 SLP142 DENSITY ALT 800FT

CYGK;2015-07-25 18:00;CYGK 251800Z 20008KT 15SM SCT005 SCT040 OVC140 20/18 A2995 RMK SF3CU1AC4 SLP141 DENSITY ALT 900FT

CYGK;2015-07-25 19:00;CYGK 251900Z 16010KT 15SM FEW005 FEW050 BKN160 BKN220 20/19 A2992 RMK CF1SC1AC5CI1 CF TR ACC ASOCTD SLP132 DENSITY ALT 900FT

CYGK;2015-07-25 20:00;CYGK 252000Z 17010KT 15SM FEW005 SCT140 BKN220 22/19 A2991 RMK CF1AC3CI4 CF TR SLP128 DENSITY ALT 1100FT

CYGK;2015-07-25 21:00;CYGK 252100Z 18007KT 15SM FEW008 BKN130 BKN160 BKN220 21/19 A2989 RMK CF1AC5AC1CI1 CF TR SLP123 DENSITY ALT 1000FT

CYGK;2015-07-25 21:44;CYGK 252144Z 17006KT 15SM -SHRA FEW038 BKN150 OVC220 21/19 A2989 RMK CU1AC5CI2 SLP123 DENSITY ALT 1000FT

CYGK;2015-07-25 22:00;CYGK 252200Z 16004KT 15SM VCSH FEW038 BKN140 OVC220 21/18 A2989 RMK CU1AC6CI1 SH NW MOVG E SLP121 DENSITY ALT 1000FT

CYGK;2015-07-25 22:04;CYGK 252204Z 16005KT 12SM -SHRA FEW038TCU BKN140 OVC220 21/18 A2989 RMK TCU2AC5CI1 TCU NW MOVG E SLP120 DENSITY ALT 1000FT

CYGK;2015-07-25 22:46;CYGK 252246Z 13006KT 15SM FEW060 SCT100 BKN160 OVC220 21/19 A2987 RMK CU1AC2AC4CI1 SLP116 DENSITY ALT 1000FT

CYGK;2015-07-25 23:00;CYGK 252300Z 12007KT 15SM SCT090 BKN140 OVC220 21/19 A2986 RMK AC4AC3CI1 SLP113 DENSITY ALT 1100FT

CYGK;2015-07-25 23:57;CYGK 252357Z 15009KT 15SM TS BKN060CB OVC100 22/19 A2986 RMK CB5AC3 OCNL LTGCB SW NW SLP111 DENSITY ALT 1200FT

CYGK;2015-07-26 00:00;CYGK 260000Z 16010KT 15SM -TSRA FEW050 BKN060CB OVC100 22/19 A2986 RMK CF1CB4AC3 OCNL LTGCG SW NW SLP111 DENSITY ALT 1200FT

CYGK;2015-07-26 00:39;CYGK 260039Z 15011KT 12SM -SHRA FEW045 BKN070CB OVC120 21/19 A2986 RMK CF2CB4AC2 CB N-E OCNL LTGCG DIST NE SLP110 DENSITY ALT 1100FT

CYGK;2015-07-26 01:02;CYGK 260102Z 14011G18KT 12SM -TSRA FEW042 BKN070CB BKN120 OVC220 21/19 A2986 RMK CF1CB4AC2CI1 OCNL LTGCG SW-NE SLP109 DENSITY ALT 1100FT

CYGK;2015-07-26 01:32;CYGK 260132Z 17015KT 15SM TS FEW055 BKN075CB OVC090 22/19 A2986 RMK CF2CB3AC3 FQT LTGCG N-E SLP110 DENSITY ALT 1200FT

CYGK;2015-07-26 01:45;CYGK 260145Z 22008G16KT 160V250 15SM -SHRA SCT050 BKN080CB OVC120 21/19 A2987 RMK CF4CB2AC2 OCNL LTGCG DIST NE PRESRR SLP115 DENSITY ALT 1100FT

CYGK;2015-07-26 02:00;CYGK 260200Z 26007KT 240V310 15SM BKN045 OVC100 21/19 A2989 RMK SC6AC2 OCNL -SHRA PRESRR SLP121 DENSITY ALT 1100FT

CYGK;2015-07-26 02:29;CYGK 260229Z 25004KT 10SM +SHRA BKN040CB OVC100 21/19 A2989 RMK CB5AC3 OCNL LTNG DIST W SLP120 DENSITY ALT 1100FT

CYGK;2015-07-26 02:33;CYGK 260233Z 21003KT 200V270 10SM -SHRA BKN038CB OVC100 21/19 A2988 RMK CB5AC3 OCNL LTNG DIST W SLP119 DENSITY ALT 1100FT

CYGK;2015-07-26 02:36;CYGK 260236Z 21004KT 200V270 10SM -TSRA BKN038CB OVC100 21/19 A2988 RMK CB5AC3 OCNL LTNG SW-W SLP118 DENSITY ALT 1000FT

CYGK;2015-07-26 03:00;CYGK 260300Z 21004KT 8SM +TSRA BKN032CB OVC100 21/20 A2989 RMK CB6AC2 OCNL LTNG NW LAST STFD OBS/NEXT 261000 UTC SLP120 DENSITY ALT 1000FT

CYGK;2015-07-26 10:00;CYGK 261000Z 22003KT 4SM BR OVC008 19/19 A2988 RMK SF8 SLP117 DENSITY ALT 800FT

CYGK;2015-07-26 10:29;CYGK 261029Z 23003KT 4SM BR OVC005 19/19 A2988 RMK SF8 SLP119 DENSITY ALT 900FT

CYGK;2015-07-26 11:00;CYGK 261100Z 25002KT 3SM BR OVC005 19/19 A2989 RMK SF8 SLP122 DENSITY ALT 900FT

CYGK;2015-07-26 11:24;CYGK 261124Z 30003KT 3SM BR OVC003 20/19 A2990 RMK SF8 SLP124 DENSITY ALT 900FT

CYGK;2015-07-26 11:49;CYGK 261149Z 35005KT 3SM BR SCT003 OVC006 20/20 A2990 RMK SF4SF4 SLP126 DENSITY ALT 900FT

CYGK;2015-07-26 12:00;CYGK 261200Z 36003KT 3SM BR SCT002 OVC005 20/20 A2991 RMK SF3SF5 SLP127 DENSITY ALT 900FT

CYGK;2015-07-26 12:18;CYGK 261218Z VRB02KT 4SM BR BKN003 BKN230 21/20 A2990 RMK SF7CI1 CI TR SLP125 DENSITY ALT 1000FT

CYGK;2015-07-26 12:41;CYGK 261241Z VRB02KT 3SM BR OVC005 21/20 A2991 RMK SF8 SLP128 DENSITY ALT 1000FT

CYGK;2015-07-26 13:00;CYGK 261300Z 29004KT 3SM +BLSA OVC005 21/20 A2992 RMK SF8 SLP130 DENSITY ALT 1000FT

CYGK;2015-07-26 13:23;CYGK 261323Z 30003KT 280V350 3SM BR OVC003 21/20 A2992 RMK SF8 SLP132 DENSITY ALT 1000FT

CYGK;2015-07-26 14:00;CYGK 261400Z 34003KT 280V360 3SM BR OVC003 21/20 A2992 RMK SF8 CIG VRBL 3-5 SLP133 DENSITY ALT 1000FT

CYGK;2015-07-26 14:19;CYGK 261419Z 00000KT 4SM BR OVC006 21/19 A2992 RMK SF8 CIG RAG SLP133 DENSITY ALT 1000FT

CYGK;2015-07-26 14:31;CYGK 261431Z 27003KT 240V020 4SM BR SCT006 OVC010 22/20 A2992 RMK SF4SC4 SLP133 DENSITY ALT 1100FT

CYGK;2015-07-26 15:00;CYGK 261500Z 02004KT 310V040 4SM BR SCT010 BKN013 23/20 A2992 RMK SC4SC3 SLP133 DENSITY ALT 1200FT

CYGK;2015-07-26 15:46;CYGK 261546Z 16006KT 6SM BR OVC017 22/20 A2994 RMK CU8 SLP137 DENSITY ALT 1200FT

CYGK;2015-07-26 17:00;CYGK 261700Z 17007KT 7SM BKN020 23/21 A2994 RMK CU5 SLP139 DENSITY ALT 1200FT

CYGK;2015-07-26 18:00;CYGK 261800Z 17008KT 8SM SCT030 23/21 A2994 RMK CU4 VIS LWR S SLP137 DENSITY ALT 1200FT

CYGK;2015-07-26 19:00;CYGK 261900Z 18011KT 8SM SCT030 23/21 A2994 RMK CU3 HZ SLP138 DENSITY ALT 1200FT

CYGK;2015-07-26 20:00;CYGK 262000Z 19011KT 8SM FEW035 23/21 A2994 RMK CU2 SLP137 DENSITY ALT 1200FT

CYGK;2015-07-26 21:00;CYGK 262100Z 20007KT 8SM FEW035 23/21 A2993 RMK CU2 HZ SLP136 DENSITY ALT 1300FT

CYGK;2015-07-26 22:00;CYGK 262200Z 18007KT 8SM FEW035 FEW270 23/21 A2992 RMK CU1CI1 HZ SLP130 DENSITY ALT 1300FT

CYGK;2015-07-26 23:00;CYGK 262300Z 20005KT 10SM FEW035 FEW270 24/21 A2993 RMK CU1CI1 SLP134 DENSITY ALT 1400FT

CYGK;2015-07-27 00:00;CYGK 270000Z 22003KT 11SM FEW270 23/20 A2994 RMK CI2 TCU TOP DIST N SLP139 DENSITY ALT 1200FT

CYGK;2015-07-27 01:00;CYGK 270100Z 21005KT 11SM FEW270 21/20 A2995 RMK CI2 TCU TOP DIST N SLP141 DENSITY ALT 1000FT

CYGK;2015-07-27 02:00;CYGK 270200Z 00000KT 11SM FEW270 20/19 A2996 RMK CI2 SLP146 DENSITY ALT 800FT

CYGK;2015-07-27 03:00;CYGK 270300Z 30003KT 12SM FEW270 19/19 A2996 RMK CI2 LAST STFD OBS/NEXT 271000 UTC SLP144 DENSITY ALT 800FT

CYGK;2015-07-27 10:00;CYGK 271000Z 22004KT 8SM SCT120 19/19 A2998 RMK AC4 VIS LWR S SLP151 DENSITY ALT 800FT

CYGK;2015-07-27 10:52;CYGK 271052Z 23005KT 6SM BR FEW003 SCT120 20/20 A2999 RMK SF1AC3 SLP154 DENSITY ALT 800FT

CYGK;2015-07-27 11:00;CYGK 271100Z 21005KT 4SM BR SCT002 BKN120 20/20 A2999 RMK SF3AC2 SLP154 DENSITY ALT 800FT

CYGK;2015-07-27 11:34;CYGK 271134Z 24004KT 8SM FEW002 SCT250 21/20 A2999 RMK SF1CI2 SLP155 DENSITY ALT 900FT

CYGK;2015-07-27 12:00;CYGK 271200Z 25005KT 10SM FEW002 FEW250 21/20 A3000 RMK SF1CI2 SF TR SLP158 DENSITY ALT 900FT

CYGK;2015-07-27 13:00;CYGK 271300Z 23004KT 15SM SCT250 22/20 A3000 RMK CI3 SLP159 DENSITY ALT 1100FT

CYGK;2015-07-27 14:00;CYGK 271400Z 23004KT 15SM SCT250 24/20 A3001 RMK CI3 SLP161 DENSITY ALT 1200FT

CYGK;2015-07-27 15:00;CYGK 271500Z 18008KT 15SM SCT250 24/20 A3001 RMK CI3 SLP161 DENSITY ALT 1300FT

CYGK;2015-07-27 16:00;CYGK 271600Z 18008KT 15SM FEW250 25/20 A3001 RMK CI2 SLP161 DENSITY ALT 1400FT

CYGK;2015-07-27 17:00;CYGK 271700Z 19012KT 15SM SCT250 24/20 A3000 RMK CI3 SLP157 DENSITY ALT 1300FT

CYGK;2015-07-27 18:00;CYGK 271800Z 18011KT 15SM FEW030 SCT250 25/19 A2999 RMK CU1CI3 CU TR SLP155 DENSITY ALT 1400FT

CYGK;2015-07-27 19:00;CYGK 271900Z 18010KT 15SM FEW030 FEW270 24/20 A2999 RMK CU1CI1 CB TOP DIST S SLP154 DENSITY ALT 1300FT

CYGK;2015-07-27 20:00;CYGK 272000Z 18011KT 15SM FEW030TCU SCT270 24/20 A2998 RMK TCU1CI3 TCU TR SLP151 DENSITY ALT 1300FT

CYGK;2015-07-27 21:00;CYGK 272100Z 20010KT 15SM FEW030TCU FEW270 26/19 A2996 RMK TCU1CI1 SLP143 DENSITY ALT 1600FT

CYGK;2015-07-27 22:00;CYGK 272200Z 19007KT 15SM FEW080 FEW270 26/20 A2995 RMK AC1CI1 SLP141 DENSITY ALT 1500FT

CYGK;2015-07-27 23:00;CYGK 272300Z 20005KT 15SM FEW120 SCT270 24/20 A2995 RMK AC2CI1 CB TOPS N - NE SLP141 DENSITY ALT 1300FT

CYGK;2015-07-28 00:00;CYGK 280000Z 16007KT 15SM SCT080 SCT270 22/20 A2996 RMK ACC3CI1 SLP144 DENSITY ALT 1100FT

CYGK;2015-07-28 01:00;CYGK 280100Z 23003KT 15SM SCT085 SCT270 22/19 A2997 RMK ACC3CI1 SLP147 DENSITY ALT 1000FT

CYGK;2015-07-28 02:00;CYGK 280200Z 08004KT 040V140 15SM SCT090 20/19 A2997 RMK AC3 SLP149 DENSITY ALT 900FT

CYGK;2015-07-28 03:00;CYGK 280300Z 11004KT 15SM FEW090 20/19 A2998 RMK AC1 LAST STFD OBS/NEXT 281000 UTC SLP150 DENSITY ALT 900FT

CYGK;2015-07-28 10:00;CYGK 281000Z 00000KT 15SM BKN250 17/17 A2999 RMK CI5 SLP156 DENSITY ALT 500FT

CYGK;2015-07-28 11:00;CYGK 281100Z 00000KT 15SM BKN250 18/18 A3000 RMK CI5 SLP158 DENSITY ALT 600FT

CYGK;2015-07-28 12:00;CYGK 281200Z 00000KT 15SM BKN250 22/19 A3001 RMK CI5 SLP161 DENSITY ALT 1000FT

CYGK;2015-07-28 13:00;CYGK 281300Z 20004KT 160V230 15SM BKN250 22/19 A3001 RMK CI5 SLP163 DENSITY ALT 1100FT

CYGK;2015-07-28 14:00;CYGK 281400Z VRB02KT 15SM BKN250 24/20 A3001 RMK CI6 SLP160 DENSITY ALT 1300FT

CYGK;2015-07-28 15:00;CYGK 281500Z 18004KT 150V230 15SM BKN250 25/21 A3000 RMK CI5 SLP159 DENSITY ALT 1400FT

CYGK;2015-07-28 16:00;CYGK 281600Z 17006KT 15SM BKN250 25/20 A3001 RMK CI6 SLP161 DENSITY ALT 1400FT

CYGK;2015-07-28 17:00;CYGK 281700Z 18010KT 15SM FEW030 BKN250 25/21 A2999 RMK CF1CI6 CF TR SLP155 DENSITY ALT 1400FT

CYGK;2015-07-28 18:00;CYGK 281800Z 19011KT 15SM FEW030 BKN250 26/21 A2999 RMK CU1CI5 SLP154 DENSITY ALT 1500FT

CYGK;2015-07-28 19:00;CYGK 281900Z 19009KT 15SM FEW030 SCT270 27/22 A2998 RMK CU1CI3 SLP151 DENSITY ALT 1600FT

CYGK;2015-07-28 20:00;CYGK 282000Z 19010KT 15SM FEW035 SCT270 27/22 A2997 RMK CU1CI3 CU TR SLP149 DENSITY ALT 1600FT

CYGK;2015-07-28 21:00;CYGK 282100Z 20009KT 15SM FEW035 BKN270 28/22 A2996 RMK CU1CI5 CU TR CB TOP E SLP145 DENSITY ALT 1800FT

CYGK;2015-07-28 22:00;CYGK 282200Z 20009KT 15SM BKN270 28/21 A2996 RMK CI6 CB TOP E SLP145 DENSITY ALT 1800FT

CYGK;2015-07-28 23:00;CYGK 282300Z 21005KT 15SM BKN270 27/21 A2996 RMK CI7 SLP143 DENSITY ALT 1600FT

CYGK;2015-07-29 00:00;CYGK 290000Z 22005KT 15SM BKN270 24/21 A2995 RMK CI7 SLP141 DENSITY ALT 1300FT

CYGK;2015-07-29 01:00;CYGK 290100Z 24006KT 15SM FEW030 FEW270 24/19 A2995 RMK CU1CI1 CU TR SLP142 DENSITY ALT 1300FT

CYGK;2015-07-29 02:00;CYGK 290200Z 14004KT 130V230 15SM BKN270 23/18 A2997 RMK CI7 SLP147 DENSITY ALT 1200FT

CYGK;2015-07-29 03:00;CYGK 290300Z 16006KT 15SM BKN270 22/20 A2998 RMK CI7 LAST STFD OBS/NEXT 291000 UTC SLP152 DENSITY ALT 1000FT

CYGK;2015-07-29 10:00;CYGK 291000Z 15003KT 140V200 15SM SCT100 BKN270 19/18 A2996 RMK AC3CI4 SLP145 DENSITY ALT 700FT

CYGK;2015-07-29 11:00;CYGK 291100Z 20005KT 15SM FEW120 BKN270 21/20 A2997 RMK AC2CI5 SLP146 DENSITY ALT 1000FT

CYGK;2015-07-29 12:00;CYGK 291200Z 19007KT 15SM FEW150 BKN270 22/21 A2998 RMK AC2CI5 SLP150 DENSITY ALT 1100FT

CYGK;2015-07-29 13:00;CYGK 291300Z 18007KT 15SM FEW150 BKN270 23/21 A2998 RMK AC1CI6 AC TR SLP150 DENSITY ALT 1200FT

CYGK;2015-07-29 14:00;CYGK 291400Z 18008KT 15SM FEW150 BKN270 24/21 A2998 RMK AC2CI5 SLP149 DENSITY ALT 1300FT

CYGK;2015-07-29 15:00;CYGK 291500Z 19010KT 15SM FEW120 BKN270 24/22 A2998 RMK AC2CI4 SLP151 DENSITY ALT 1300FT

CYGK;2015-07-29 16:00;CYGK 291600Z 18010KT 15SM FEW150 OVC270 24/22 A2997 RMK AC2CI6 SLP148 DENSITY ALT 1400FT

CYGK;2015-07-29 17:00;CYGK 291700Z 17008KT 15SM FEW030 FEW140 BKN270 25/22 A2996 RMK CU1AC2CI5 CU TR SLP145 DENSITY ALT 1400FT

CYGK;2015-07-29 18:00;CYGK 291800Z 16008KT 15SM FEW030 SCT140 BKN270 25/22 A2995 RMK CU1AC3CI4 CU TR SLP140 DENSITY ALT 1500FT

CYGK;2015-07-29 19:00;CYGK 291900Z 17007KT 15SM FEW030 SCT270 25/22 A2993 RMK CU1CI3 CU TR SLP135 DENSITY ALT 1500FT

CYGK;2015-07-29 20:00;CYGK 292000Z 18008KT 15SM FEW030 SCT270 26/22 A2991 RMK CU1CI3 CU TR SLP127 DENSITY ALT 1600FT

CYGK;2015-07-29 21:00;CYGK 292100Z 19009KT 15SM FEW035 BKN250 27/21 A2989 RMK CU1CI5 CU TR SLP122 DENSITY ALT 1700FT

CYGK;2015-07-29 22:00;CYGK 292200Z 19006KT 15SM FEW040TCU BKN250 26/21 A2988 RMK TCU1CI6 TCU TR SLP117 DENSITY ALT 1700FT

CYGK;2015-07-29 23:00;CYGK 292300Z 18004KT 15SM BKN250 26/20 A2987 RMK CI5 SLP113 DENSITY ALT 1600FT

CYGK;2015-07-30 00:00;CYGK 300000Z 16003KT 15SM SCT250 24/21 A2986 RMK CI3 SLP109 DENSITY ALT 1400FT

CYGK;2015-07-30 01:00;CYGK 300100Z VRB02KT 15SM FEW160 FEW250 23/20 A2985 RMK AC1CI2 AC TR SLP106 DENSITY ALT 1300FT

CYGK;2015-07-30 02:00;CYGK 300200Z 18002KT 15SM FEW250 23/21 A2986 RMK CI2 SLP109 DENSITY ALT 1300FT

CYGK;2015-07-30 03:00;CYGK 300300Z 00000KT 15SM SCT250 22/20 A2984 RMK CI3 LAST STFD OBS/NEXT 301000 UTC SLP102 DENSITY ALT 1200FT

CYGK;2015-07-30 10:00;CYGK 301000Z 22005KT 10SM VCSH FEW020TCU SCT050 BKN100 BKN250 23/21 A2976 RMK TCU1SC2AC3CI1 SLP077 DENSITY ALT 1400FT

CYGK;2015-07-30 10:42;CYGK 301042Z 22006KT 8SM -SHRA BKN056 OVC095 23/21 A2976 RMK SC7AC1 SLP077 DENSITY ALT 1400FT

CYGK;2015-07-30 11:00;CYGK 301100Z 22006KT 8SM -SHRA BKN057 OVC095 23/21 A2976 RMK SC6AC2 SLP077 DENSITY ALT 1400FT

CYGK;2015-07-30 11:12;CYGK 301112Z 25005KT 6SM TS FEW014 BKN050 OVC090 23/21 A2977 RMK SF2SC5AC1 OCNL -SHRA SLP078 DENSITY ALT 1400FT

CYGK;2015-07-30 11:21;CYGK 301121Z 24010KT 3SM TSRA BKN012CB OVC050 23/22 A2978 RMK CB6SC2 OCNL LTNG PRESRR SLP083 DENSITY ALT 1400FT

CYGK;2015-07-30 11:27;CYGK 301127Z 25009KT 1SM TSRA OVC014CB 22/22 A2978 RMK CB8 OCNL LTNG SLP083 DENSITY ALT 1300FT

CYGK;2015-07-30 11:37;CYGK 301137Z 27008KT 3SM -TSRA SCT004 BKN014CB OVC030 22/22 A2978 RMK SF4CB3SC1 SLP083 DENSITY ALT 1300FT

CYGK;2015-07-30 11:47;CYGK 301147Z 29006KT 240V310 12SM VCSH FEW004 OVC031 22/22 A2978 RMK SF2SC6 SLP083 DENSITY ALT 1300FT

CYGK;2015-07-30 12:00;CYGK 301200Z 33008KT 280V350 15SM VCSH FEW004 BKN030 OVC056 22/20 A2978 RMK SF1SC4SC3 SLP082 DENSITY ALT 1300FT

CYGK;2015-07-30 12:35;CYGK 301235Z 34005KT 15SM BKN042 BKN100 21/19 A2978 RMK SC5AC1 SLP084 DENSITY ALT 1200FT

CYGK;2015-07-30 13:00;CYGK 301300Z 28004KT 15SM FEW010 SCT050 BKN100 BKN220 22/20 A2979 RMK SF1SC4AC2CC1 SF TR SLP086 DENSITY ALT 1200FT

CYGK;2015-07-30 14:00;CYGK 301400Z 23008KT 15SM FEW050 FEW140 SCT220 24/20 A2979 RMK SC1AC1CI2 SC TR SLP086 DENSITY ALT 1500FT

CYGK;2015-07-30 15:00;CYGK 301500Z 24009KT 15SM FEW020 FEW140 FEW220 26/20 A2979 RMK CF1AC1CI1 CF TR SLP086 DENSITY ALT 1700FT

CYGK;2015-07-30 16:00;CYGK 301600Z 23013KT 15SM FEW030 FEW220 27/19 A2979 RMK CU1CI1 CU TR SLP086 DENSITY ALT 1800FT

CYGK;2015-07-30 17:00;CYGK 301700Z 23011KT 15SM FEW035 FEW140 SCT250 28/19 A2978 RMK CU2AC1CI1 AC TR SLP083 DENSITY ALT 2000FT

CYGK;2015-07-30 18:00;CYGK 301800Z 21015KT 15SM SCT050 BKN075 BKN250 28/18 A2977 RMK CU4AC1CI1 CI TR SLP079 DENSITY ALT 2000FT

CYGK;2015-07-30 19:00;CYGK 301900Z 22015G20KT 15SM FEW058 BKN083 BKN250 27/19 A2976 RMK CU2AC3CI1 SLP075 DENSITY ALT 1900FT

CYGK;2015-07-30 20:00;CYGK 302000Z 23015G22KT 15SM FEW050 FEW085 FEW250 27/19 A2975 RMK CU1AC1CI1 CI TR SLP074 DENSITY ALT 1900FT

CYGK;2015-07-30 21:00;CYGK 302100Z 23015G20KT 15SM FEW050 FEW085 FEW250 27/17 A2975 RMK CU1AC1CI1 CI TR SLP073 DENSITY ALT 1900FT

CYGK;2015-07-30 22:00;CYGK 302200Z 24011G19KT 15SM FEW050 FEW085 FEW250 27/18 A2975 RMK CU1AC1CC1 AC TR CC TR SLP073 DENSITY ALT 1900FT

CYGK;2015-07-30 23:00;CYGK 302300Z 24012G18KT 15SM FEW055 FEW085 FEW250 26/17 A2975 RMK CU1AC1CI1 AC TR CI TR SLP072 DENSITY ALT 1800FT

CYGK;2015-07-31 00:00;CYGK 310000Z 25009KT 15SM FEW060 FEW240 25/17 A2976 RMK CU1CI1 CU TR CI TR SLP076 DENSITY ALT 1700FT

CYGK;2015-07-31 01:00;CYGK 310100Z 27005KT 15SM FEW060 24/14 A2978 RMK CU1 CU TR SLP083 DENSITY ALT 1500FT

CYGK;2015-07-31 02:00;CYGK 310200Z 24005KT 15SM FEW060 22/16 A2979 RMK SC1 SC TR SLP088 DENSITY ALT 1300FT

CYGK;2015-07-31 03:00;CYGK 310300Z 25006KT 15SM FEW060 FEW083 22/19 A2980 RMK SC1AC1 SC TR LAST STFD OBS/NEXT 311000 UTC SLP090 DENSITY ALT 1300FT

CYGK;2015-07-31 10:00;CYGK 311000Z 27008KT 15SM FEW050 17/14 A2982 RMK SC1 SC TR SLP096 DENSITY ALT 700FT

CYGK;2015-07-31 11:00;CYGK 311100Z 27006KT 15SM FEW025 18/14 A2983 RMK CF1 CF TR SLP100 DENSITY ALT 800FT

CYGK;2015-07-31 12:00;CYGK 311200Z 29009KT 15SM FEW025 19/15 A2985 RMK CF1 CF TR SLP108 DENSITY ALT 900FT

CYGK;2015-07-31 13:00;CYGK 311300Z 29007KT 15SM SKC 21/15 A2985 RMK SLP107 DENSITY ALT 1100FT

CYGK;2015-07-31 14:00;CYGK 311400Z 24006KT 220V300 15SM FEW030 22/16 A2985 RMK CF1 CF TR SLP106 DENSITY ALT 1300FT

CYGK;2015-07-31 15:00;CYGK 311500Z 22008KT 15SM FEW030 24/17 A2984 RMK SF1 SF TR SLP105 DENSITY ALT 1400FT

CYGK;2015-07-31 16:00;CYGK 311600Z 18013KT 15SM FEW035 23/18 A2984 RMK CU1 CU TR SLP104 DENSITY ALT 1300FT

CYGK;2015-07-31 17:00;CYGK 311700Z 18011KT 15SM FEW040 24/19 A2982 RMK CU2 SLP097 DENSITY ALT 1500FT

CYGK;2015-07-31 18:00;CYGK 311800Z 20019KT 15SM FEW040 23/18 A2981 RMK CU1 SLP095 DENSITY ALT 1400FT

CYGK;2015-07-31 19:00;CYGK 311900Z 19016KT 15SM FEW040 FEW100 24/18 A2980 RMK CU1AC1 AC TR SLP089 DENSITY ALT 1500FT

CYGK;2015-07-31 20:00;CYGK 312000Z 19014KT 15SM FEW040 24/17 A2977 RMK CU2 SLP079 DENSITY ALT 1500FT

CYGK;2015-07-31 21:00;CYGK 312100Z 18012G17KT 15SM FEW040 24/18 A2974 RMK CU2 CB TOPS DIST NW-N SLP071 DENSITY ALT 1500FT

CYGK;2015-07-31 22:00;CYGK 312200Z 20012KT 15SM FEW045 FEW100 SCT240 24/16 A2974 RMK CU2AC1CC1 AC TR CB TOPS DIST NW-NE SLP070 DENSITY ALT 1600FT

CYGK;2015-07-31 23:00;CYGK 312300Z 30011G17KT 210V320 15SM VCSH FEW050 SCT080 BKN110 23/16 A2975 RMK CU2AC2AC2 PRESRR SLP075 DENSITY ALT 1400FT

CYGK;2015-07-31 23:43;CYGK 312343Z 31007KT 10SM -SHRA SCT045 BKN080 21/16 A2977 RMK CU4AC3 SLP080 DENSITY ALT 1100FT

CYGK;2015-08-01 00:00;CYGK 010000Z 32005KT 8SM -SHRA FEW020 SCT045TCU BKN085 19/17 A2975 RMK SF1TCU3AC4 SF TR PRESFR SLP074 DENSITY ALT 1000FT

CYGK;2015-08-01 00:46;CYGK 010046Z 16004KT 12SM FEW045TCU SCT062 BKN100 19/17 A2974 RMK TCU2SC2AC2 SLP071 DENSITY ALT 1000FT

CYGK;2015-08-01 00:54;CYGK 010054Z 17005KT 12SM VCSH SCT045CB SCT062 BKN100 19/18 A2974 RMK CB3SC1AC2 SLP071 DENSITY ALT 1000FT

CYGK;2015-08-01 01:00;CYGK 010100Z 17005KT 10SM SCT045CB SCT062 BKN100 20/18 A2974 RMK CB3SC1AC2 SLP070 DENSITY ALT 1100FT

CYGK;2015-08-01 01:28;CYGK 010128Z 19008KT 12SM TS SCT045CB BKN060 20/17 A2975 RMK CB3SC3 OCNL LTGICCG S SLP074 DENSITY ALT 1100FT

CYGK;2015-08-01 01:36;CYGK 010136Z 21004KT 12SM -TSRA SCT045CB BKN060 20/18 A2975 RMK CB3NS3 SLP072 DENSITY ALT 1100FT

CYGK;2015-08-01 02:00;CYGK 010200Z 23003KT 15SM -SHRA FEW045CB BKN060 BKN110 20/17 A2975 RMK CB2SC3AC1 OCNL LTGIC SE SLP073 DENSITY ALT 1100FT

CYGK;2015-08-01 02:19;CYGK 010219Z 22005KT 15SM SCT060 BKN110 20/18 A2975 RMK SC4AC1 CB DIST SE OCNL LTGIC SE SLP073 DENSITY ALT 1000FT

CYGK;2015-08-01 03:00;CYGK 010300Z 21009KT 15SM FEW060 BKN120 19/17 A2975 RMK SC2AC4 LAST STFD OBS/NEXT 011000 UTC SLP074 DENSITY ALT 1000FT

CYGK;2015-08-01 10:00;CYGK 011000Z 27008KT 15SM FEW030 BKN120 18/16 A2975 RMK CU1AC4 SLP073 DENSITY ALT 900FT

CYGK;2015-08-01 11:00;CYGK 011100Z 25007KT 15SM FEW030 SCT120 18/16 A2976 RMK CU1AC2 SLP077 DENSITY ALT 900FT

CYGK;2015-08-01 12:00;CYGK 011200Z 29007KT 250V320 15SM FEW030 FEW120 19/16 A2978 RMK CU1AC2 CU TR SLP083 DENSITY ALT 1000FT

CYGK;2015-08-01 13:00;CYGK 011300Z 30007KT 15SM FEW030 FEW250 20/16 A2978 RMK CU1CI1 CU TR SLP085 DENSITY ALT 1100FT

CYGK;2015-08-01 14:00;CYGK 011400Z 23005KT 210V310 15SM FEW035 FEW250 21/16 A2979 RMK CU1CI1 CU TR SLP086 DENSITY ALT 1200FT

CYGK;2015-08-01 15:00;CYGK 011500Z 22009KT 15SM FEW035 FEW250 22/17 A2979 RMK CU1CI1 CI TR SLP087 DENSITY ALT 1300FT

CYGK;2015-08-01 16:00;CYGK 011600Z 22009KT 15SM SCT040 23/16 A2979 RMK CU4 SLP088 DENSITY ALT 1400FT

CYGK;2015-08-01 17:00;CYGK 011700Z 19013KT 15SM SCT040 22/18 A2979 RMK CU4 SLP087 DENSITY ALT 1300FT

CYGK;2015-08-01 18:00;CYGK 011800Z 22014G19KT 15SM SCT040TCU BKN090 24/17 A2978 RMK TCU4AC1 SLP084 DENSITY ALT 1500FT

CYGK;2015-08-01 18:27;CYGK 011827Z 24012G18KT 15SM -SHRA BKN047TCU BKN100 22/17 A2979 RMK TCU5AC1 SLP086 DENSITY ALT 1300FT

CYGK;2015-08-01 19:00;CYGK 011900Z 25011G19KT 15SM -SHRA FEW025 SCT045TCU BKN095 22/18 A2979 RMK CF1TCU4AC2 CF TR SLP086 DENSITY ALT 1200FT

CYGK;2015-08-01 19:05;CYGK 011905Z 24015G20KT 15SM VCSH FEW025 FEW045TCU SCT095 BKN250 22/17 A2978 RMK CF1TCU2AC2CI2 CF TR SLP085 DENSITY ALT 1200FT

CYGK;2015-08-01 20:00;CYGK 012000Z 24012G18KT 15SM VCSH FEW035CB SCT090 BKN200 22/17 A2978 RMK CB2AC1CI4 SLP084 DENSITY ALT 1200FT

CYGK;2015-08-01 21:00;CYGK 012100Z 24012G18KT 15SM FEW040TCU FEW090 SCT220 23/17 A2978 RMK TCU2AC1CI2 AC TR CB DIST NE-E SLP082 DENSITY ALT 1400FT

CYGK;2015-08-01 22:00;CYGK 012200Z 24012G18KT 15SM FEW040TCU FEW090 SCT220 23/16 A2977 RMK TCU1AC1CI2 CB TOP DIST NE SLP081 DENSITY ALT 1400FT

CYGK;2015-08-01 23:00;CYGK 012300Z 24013G20KT 15SM FEW045TCU FEW090 BKN220 23/15 A2978 RMK TCU1AC1CI3 SLP083 DENSITY ALT 1400FT

CYGK;2015-08-02 00:00;CYGK 020000Z 25008KT 15SM FEW045TCU FEW100 BKN230 22/15 A2979 RMK TCU1AC1CI3 CB DIST N-NE SLP086 DENSITY ALT 1300FT

CYGK;2015-08-02 01:00;CYGK 020100Z 25007KT 15SM FEW045TCU FEW120 SCT230 21/15 A2981 RMK TCU1AC1CI3 AC TR CB TOP DIST E. OCNL LTGIC DIST E SLP092 DENSITY ALT 1100FT

CYGK;2015-08-02 02:00;CYGK 020200Z 26007KT 15SM FEW045 SCT230 20/14 A2982 RMK CU2CI1 OCNL LTGIC DIST E SLP096 DENSITY ALT 1000FT

CYGK;2015-08-02 03:00;CYGK 020300Z 25006KT 15SM FEW045 19/14 A2983 RMK CU1 LAST STFD OBS/NEXT 021000 UTC SLP099 DENSITY ALT 900FT

CYGK;2015-08-02 10:00;CYGK 021000Z VRB02KT 15SM MIFG FEW010 FEW140 FEW220 13/13 A2983 RMK CF1AC1CI2 CF TR AC TR SLP101

CYGK;2015-08-02 11:00;CYGK 021100Z 24003KT 210V270 15SM FEW012 FEW140 SCT250 17/17 A2984 RMK CF1AC1CI4 CF TR AC TR SLP104 DENSITY ALT 600FT

CYGK;2015-08-02 12:00;CYGK 021200Z 00000KT 15SM FEW015 FEW140 BKN250 20/18 A2984 RMK CU1AC1CI6 CU TR AC TR SLP105 DENSITY ALT 1000FT

CYGK;2015-08-02 13:00;CYGK 021300Z 18006KT 15SM FEW025 BKN250 21/19 A2984 RMK CU1CI5 SLP104 DENSITY ALT 1100FT

CYGK;2015-08-02 14:00;CYGK 021400Z 19012KT 15SM FEW025 BKN250 22/19 A2984 RMK CF1CI6 CF TR SLP102 DENSITY ALT 1200FT

CYGK;2015-08-02 15:00;CYGK 021500Z 18012KT 15SM FEW025 BKN250 22/19 A2983 RMK CU1CI5 SLP101 DENSITY ALT 1300FT

CYGK;2015-08-02 16:00;CYGK 021600Z 19013KT 15SM FEW009 SCT250 23/20 A2983 RMK CU2CI1 SLP099 DENSITY ALT 1400FT

CYGK;2015-08-02 16:32;CYGK 021632Z 18013KT 15SM FEW015 SCT250 23/19 A2983 RMK CU2CI2 SLP099 DENSITY ALT 1300FT

CYGK;2015-08-02 17:00;CYGK 021700Z 19014G19KT 15SM FEW020 SCT250 23/19 A2984 RMK CU2CI2 SLP102 DENSITY ALT 1400FT

CYGK;2015-08-02 18:00;CYGK 021800Z 19012G18KT 15SM FEW025TCU SCT250 24/20 A2982 RMK TCU1CI3 SLP097 DENSITY ALT 1500FT

CYGK;2015-08-02 19:00;CYGK 021900Z 19015G21KT 15SM FEW025 BKN250 24/19 A2980 RMK CU1CI4 TCU TOP DIST E SLP090 DENSITY ALT 1500FT

CYGK;2015-08-02 20:00;CYGK 022000Z 18012KT 15SM FEW025 BKN250 24/20 A2978 RMK CU1CI6 CU TR SLP083 DENSITY ALT 1500FT

CYGK;2015-08-02 21:00;CYGK 022100Z 19011KT 15SM FEW025 FEW100 BKN250 24/19 A2978 RMK CU1AC1CI6 CU TR SLP085 DENSITY ALT 1500FT

CYGK;2015-08-02 22:00;CYGK 022200Z 19010KT 15SM FEW025 SCT130 BKN270 23/19 A2977 RMK CU1AC3CI4 CU TR SLP080 DENSITY ALT 1400FT

CYGK;2015-08-02 23:00;CYGK 022300Z 19006KT 15SM BKN130 BKN270 22/19 A2977 RMK AC5CI2 SLP079 DENSITY ALT 1300FT

CYGK;2015-08-02 23:43;CYGK 022343Z 24012G19KT 15SM -SHRA SCT065 BKN130 OVC270 23/17 A2980 RMK SC3AC4CI1 VIS LWR NW - N SLP092 DENSITY ALT 1300FT

CYGK;2015-08-03 00:00;CYGK 030000Z 24009G23KT 15SM -SHRA SCT065 BKN100 OVC270 21/17 A2977 RMK SC3AC4CI1 PRESFR SLP081 DENSITY ALT 1200FT

CYGK;2015-08-03 01:00;CYGK 030100Z 20009KT 15SM FEW065 BKN110 OVC240 21/17 A2969 RMK SC2AC5CI1 PRESFR SLP053 DENSITY ALT 1300FT

CYGK;2015-08-03 02:00;CYGK 030200Z 20011KT 15SM SCT110 BKN270 21/17 A2970 RMK AC4CI2 SLP058 DENSITY ALT 1300FT

CYGK;2015-08-03 03:00;CYGK 030300Z 16011KT 15SM SCT110 OVC270 22/19 A2966 RMK AC4CI4 LAST STFD OBS/NEXT 031000 UTC SLP043 DENSITY ALT 1400FT

CYGK;2015-08-03 10:00;CYGK 031000Z 24011G16KT 15SM SCT020 SCT050 BKN150 BKN250 20/18 A2964 RMK CU3SC1AC2CI1 SLP038 DENSITY ALT 1300FT

CYGK;2015-08-03 10:11;CYGK 031011Z 24012G18KT 15SM BKN013 BKN150 20/18 A2965 RMK CU5AC1 SLP041 DENSITY ALT 1200FT

CYGK;2015-08-03 11:00;CYGK 031100Z 25012G19KT 15SM FEW013 BKN100 BKN150 BKN250 20/18 A2968 RMK CU2AC3AC1CI1 PRESRR SLP049 DENSITY ALT 1200FT

CYGK;2015-08-03 12:00;CYGK 031200Z 25008G15KT 15SM FEW015 FEW060 BKN100 BKN250 20/17 A2969 RMK CU1SC1AC3CI2 SLP052 DENSITY ALT 1200FT

CYGK;2015-08-03 13:00;CYGK 031300Z 23009KT 15SM FEW015 SCT070 BKN120 BKN250 20/17 A2970 RMK CU1AC2AC2CI2 SLP056 DENSITY ALT 1200FT

CYGK;2015-08-03 14:00;CYGK 031400Z 24011G17KT 15SM FEW015 FEW060 BKN140 BKN250 20/17 A2972 RMK CU1SC2AC4CI1 CU TR SLP062 DENSITY ALT 1200FT

CYGK;2015-08-03 15:00;CYGK 031500Z 23010KT 15SM FEW015 SCT050 BKN090 OVC250 20/16 A2972 RMK CU1SC2AC3CI2 SLP064 DENSITY ALT 1100FT

CYGK;2015-08-03 15:10;CYGK 031510Z 22011KT 15SM -SHRA FEW015 SCT050 BKN090 OVC250 20/17 A2972 RMK CU1SC3AC3CI1 SLP065 DENSITY ALT 1100FT

CYGK;2015-08-03 16:00;CYGK 031600Z 22009KT 15SM BKN025 BKN060 BKN090 OVC250 21/17 A2973 RMK CU5SC1AC1CI1 OCNL -SHRA SLP066 DENSITY ALT 1200FT

CYGK;2015-08-03 17:00;CYGK 031700Z 22013G19KT 15SM BKN020 OVC060 21/18 A2972 RMK CU6SC2 SLP065 DENSITY ALT 1300FT

CYGK;2015-08-03 18:00;CYGK 031800Z 20010KT 15SM FEW015 BKN020TCU BKN250 21/19 A2973 RMK SF1TCU4CI2 SLP066 DENSITY ALT 1300FT

CYGK;2015-08-03 19:00;CYGK 031900Z 19015G20KT 15SM SCT025TCU BKN250 23/20 A2971 RMK TCU3CI3 SLP061 DENSITY ALT 1500FT

CYGK;2015-08-03 20:00;CYGK 032000Z 20015G23KT 15SM FEW025TCU SCT250 23/18 A2970 RMK TCU2CI2 SLP058 DENSITY ALT 1500FT

CYGK;2015-08-03 21:00;CYGK 032100Z 19016KT 15SM FEW025TCU FEW250 23/19 A2971 RMK TCU1CI1 SLP061 DENSITY ALT 1500FT

CYGK;2015-08-03 22:00;CYGK 032200Z 23014G20KT 15SM FEW025TCU FEW250 24/16 A2971 RMK TCU2CI1 CI TR SLP060 DENSITY ALT 1600FT

CYGK;2015-08-03 23:00;CYGK 032300Z 20007KT 180V240 15SM FEW025TCU FEW070 23/18 A2971 RMK TCU1AC1 TCU TR AC TR SLP061 DENSITY ALT 1500FT

CYGK;2015-08-04 00:00;CYGK 040000Z 22008KT 15SM FEW025TCU SCT110 SCT250 22/16 A2972 RMK TCU1AC3CI1 TCU TR CI TR SLP063 DENSITY ALT 1400FT

CYGK;2015-08-04 01:00;CYGK 040100Z 24008KT 15SM FEW025TCU FEW110 FEW250 21/16 A2973 RMK TCU1AC1CI1 TCU TR SLP068 DENSITY ALT 1300FT

CYGK;2015-08-04 02:00;CYGK 040200Z 26005KT 15SM FEW110 20/15 A2975 RMK AC1 SLP075 DENSITY ALT 1100FT

CYGK;2015-08-04 03:00;CYGK 040300Z 26002KT 15SM FEW100 19/15 A2976 RMK AC1 LAST STFD OBS/NEXT 041000UTC SLP076 DENSITY ALT 1000FT

CYGK;2015-08-04 10:00;CYGK 041000Z 26003KT 15SM FEW020 SCT045 17/14 A2981 RMK CF1SC3 CF TR SLP094 DENSITY ALT 700FT

CYGK;2015-08-04 11:00;CYGK 041100Z 27006KT 15SM FEW015 SCT095 BKN120 17/15 A2983 RMK CF1AC3AC3 CF TR SLP101 DENSITY ALT 700FT

CYGK;2015-08-04 12:00;CYGK 041200Z 29007KT 15SM SCT082 BKN130 19/16 A2984 RMK AC4AC2 SLP103 DENSITY ALT 800FT

CYGK;2015-08-04 13:00;CYGK 041300Z 28007KT 250V310 15SM FEW020 SCT057 BKN120 BKN250 20/15 A2984 RMK CU1SC3AC2CI1 CU TR CI TR SLP104 DENSITY ALT 1000FT

CYGK;2015-08-04 14:00;CYGK 041400Z 23008KT 210V290 15SM FEW020TCU FEW057 BKN080 BKN120 21/15 A2985 RMK TCU1SC2AC3AC2 TCU TR SLP108 DENSITY ALT 1000FT

CYGK;2015-08-04 15:00;CYGK 041500Z 23009KT 210V300 15SM FEW032TCU FEW100 SCT120 22/15 A2986 RMK TCU1AC1AC2 SLP110 DENSITY ALT 1200FT

CYGK;2015-08-04 16:00;CYGK 041600Z 22012G17KT 15SM SCT038 BKN120 BKN270 23/15 A2985 RMK CU4AC1CI1 CI TR TCU TOP DIST S SLP108 DENSITY ALT 1300FT

CYGK;2015-08-04 17:00;CYGK 041700Z 23011KT 15SM SCT040TCU SCT120 24/15 A2985 RMK TCU3AC1 TCU DIST S SLP107 DENSITY ALT 1400FT

CYGK;2015-08-04 18:00;CYGK 041800Z 19015KT 15SM SCT050TCU SCT120 23/16 A2984 RMK TCU4AC1 AC TR CB TOP DIST S SLP106 DENSITY ALT 1300FT

CYGK;2015-08-04 19:00;CYGK 041900Z 23010G15KT 15SM SCT045TCU BKN100 24/15 A2984 RMK TCU4AC2 CB TOP DIST S SLP102 DENSITY ALT 1400FT

CYGK;2015-08-04 20:00;CYGK 042000Z 23010G16KT 15SM SCT060CB BKN100 23/16 A2984 RMK CB3AC2 CB DIST S-W SLP103 DENSITY ALT 1400FT

CYGK;2015-08-04 21:00;CYGK 042100Z 24010KT 15SM VCSH SCT050TCU BKN100 BKN250 23/16 A2984 RMK TCU3AC2CI1 SLP105 DENSITY ALT 1400FT

CYGK;2015-08-04 22:00;CYGK 042200Z 23012KT 15SM SCT050TCU BKN100 23/16 A2984 RMK TCU3AC2 CB NE SLP103 DENSITY ALT 1400FT

CYGK;2015-08-04 23:00;CYGK 042300Z 23009KT 15SM FEW050 BKN080 BKN120 22/16 A2985 RMK CU2AC4AC1 SLP109 DENSITY ALT 1200FT

CYGK;2015-08-04 23:20;CYGK 042320Z 22010KT 15SM -SHRA FEW025 BKN080 BKN120 21/16 A2986 RMK CU2AC4AC1 SLP111 DENSITY ALT 1100FT

CYGK;2015-08-05 00:00;CYGK 050000Z 23014G21KT 15SM -SHRA FEW025 BKN085 BKN120 19/17 A2987 RMK CU2AC4AC1 SLP115 DENSITY ALT 900FT

CYGK;2015-08-05 00:23;CYGK 050023Z 23012G20KT 15SM VCSH FEW025 BKN090 19/17 A2987 RMK CU2AC5 SLP116 DENSITY ALT 800FT

CYGK;2015-08-05 01:00;CYGK 050100Z 23011KT 15SM FEW025 BKN085 19/16 A2988 RMK CU1AC6 SLP118 DENSITY ALT 800FT

CYGK;2015-08-05 02:00;CYGK 050200Z 23008KT 15SM FEW025 BKN080 BKN120 19/16 A2987 RMK CU1AC4AC2 SLP115 DENSITY ALT 800FT

CYGK;2015-08-05 03:00;CYGK 050300Z 26008KT 15SM BKN090 18/16 A2986 RMK AC6 LAST STFD OBS/NEXT 051000 UTC SLP111 DENSITY ALT 800FT

CYGK;2015-08-05 10:00;CYGK 051000Z 29007KT 15SM FEW005 FEW020TCU FEW100 15/14 A2989 RMK CF1TCU1AC1 CF TR TCU TR SLP122 DENSITY ALT 400FT

CYGK;2015-08-05 11:00;CYGK 051100Z 28006KT 15SM FEW005 FEW020TCU FEW100 FEW220 16/14 A2991 RMK SF1TCU1AC1CI1 SF TR TCU TR CI TR SLP128 DENSITY ALT 400FT

CYGK;2015-08-05 12:00;CYGK 051200Z 30009KT 15SM FEW020 FEW100 FEW270 17/14 A2992 RMK CU1AC1CI1 CU TR AC TR SLP130 DENSITY ALT 500FT

CYGK;2015-08-05 13:00;CYGK 051300Z 32009KT 15SM FEW025 FEW270 19/14 A2992 RMK CU1CI1 CU TR SLP130 DENSITY ALT 800FT

CYGK;2015-08-05 14:00;CYGK 051400Z 29008KT 250V320 15SM FEW025 FEW270 21/13 A2991 RMK CU1CI1 CU TR SLP129 DENSITY ALT 1000FT

CYGK;2015-08-05 15:00;CYGK 051500Z 25008KT 220V320 15SM SCT035 SCT270 22/13 A2992 RMK CU3CI1 SLP132 DENSITY ALT 1100FT

CYGK;2015-08-05 16:00;CYGK 051600Z 23010KT 15SM SCT040 SCT160 BKN270 22/14 A2991 RMK CU4AC1CI3 AC TR SLP129 DENSITY ALT 1100FT

CYGK;2015-08-05 16:47;CYGK 051647Z 19013KT 15SM -SHRA BKN038TCU BKN160 BKN270 20/16 A2992 RMK TCU6AC1CI1 AC TR TCU NW MOVG E SLP131 DENSITY ALT 900FT

CYGK;2015-08-05 17:00;CYGK 051700Z 19012KT 15SM -SHRA BKN035 BKN250 19/17 A2991 RMK CU6CI1 VIS NE-E 6 SLP129 DENSITY ALT 800FT

CYGK;2015-08-05 18:00;CYGK 051800Z 20011G17KT 15SM VCSH SCT030CB BKN090 BKN250 20/18 A2991 RMK CB4AC1CI1 CB N  SE SLP127 DENSITY ALT 1000FT

CYGK;2015-08-05 19:02;CYGK 051902Z 24014G23KT 15SM -SHRA BKN040CB BKN080 21/16 A2991 RMK CB5AC1 CB W AND E SLP127 DENSITY ALT 1000FT

CYGK;2015-08-05 19:28;CYGK 051928Z 23016KT 15SM TS SCT040CB BKN090 22/17 A2990 RMK CB4AC2 CB N  E AND SW SLP125 DENSITY ALT 1200FT

CYGK;2015-08-05 20:00;CYGK 052000Z 24011G20KT 15SM SCT040CB BKN090 22/16 A2991 WS RWY19 RMK CB4AC2 CB N-SE LLWS +/- 10 KT ON APCH SLP127 DENSITY ALT 1100FT

CYGK;2015-08-05 21:00;CYGK 052100Z 23015KT 15SM SCT035TCU BKN090 22/16 A2991 RMK TCU4AC1 SLP127 DENSITY ALT 1100FT

CYGK;2015-08-05 22:00;CYGK 052200Z 25011KT 15SM SCT035TCU BKN090 22/15 A2990 RMK TCU3AC2 SLP125 DENSITY ALT 1100FT

CYGK;2015-08-05 23:00;CYGK 052300Z 24010G17KT 15SM SCT040TCU BKN090 21/16 A2991 RMK TCU3AC2 SLP127 DENSITY ALT 1100FT

CYGK;2015-08-06 00:00;CYGK 060000Z 25008KT 15SM SCT055 BKN090 21/15 A2992 RMK CU3AC2 SLP132 DENSITY ALT 1000FT

CYGK;2015-08-06 01:00;CYGK 060100Z 26007KT 15SM FEW050 SCT090 19/14 A2993 RMK CU2AC1 SLP136 DENSITY ALT 800FT

CYGK;2015-08-06 02:00;CYGK 060200Z 28006KT 15SM FEW050 SCT090 18/13 A2995 RMK CU1AC2 SLP142 DENSITY ALT 600FT

CYGK;2015-08-06 03:00;CYGK 060300Z 28006KT 15SM FEW050 SCT090CB 17/12 A2996 RMK CU2CB1 LAST STFD OBS/NEXT 061000 UTC SLP145 DENSITY ALT 500FT

CYGK;2015-08-06 10:00;CYGK 061000Z 28006KT 15SM FEW025 SCT080 14/12 A2997 RMK SC1AC4 SC TR SLP148

CYGK;2015-08-06 11:00;CYGK 061100Z 29005KT 15SM FEW025 FEW072 15/13 A2998 RMK SC1AC2 SC TR SLP153

CYGK;2015-08-06 12:00;CYGK 061200Z 31005KT 15SM FEW025 FEW075 FEW270 16/13 A2999 RMK CU1AC1CI1 CU TR SLP156

CYGK;2015-08-06 13:00;CYGK 061300Z 34004KT 15SM FEW025 FEW270 19/14 A3000 RMK CU1CI2 CU TR SLP158 DENSITY ALT 700FT

CYGK;2015-08-06 14:00;CYGK 061400Z 35004KT 260V020 15SM FEW030 FEW075 FEW270 20/13 A3000 RMK CU1AC1CI1 AC TR SLP160 DENSITY ALT 800FT

CYGK;2015-08-06 15:00;CYGK 061500Z 32007KT 270V340 15SM FEW040 SCT270 22/13 A2999 RMK CU2CI2 SLP156 DENSITY ALT 1000FT

CYGK;2015-08-06 16:00;CYGK 061600Z 32010KT 260V350 15SM SCT045 BKN270 23/12 A2999 RMK CU3CI3 SLP154 DENSITY ALT 1200FT

CYGK;2015-08-06 17:00;CYGK 061700Z 21012KT 200V300 15SM BKN050 BKN270 22/16 A2997 RMK CU5CI2 SLP149 DENSITY ALT 1100FT

CYGK;2015-08-06 18:00;CYGK 061800Z 19013KT 15SM BKN058 BKN220 22/17 A2997 RMK CU5CI2 SLP149 DENSITY ALT 1000FT

CYGK;2015-08-06 19:00;CYGK 061900Z 20013G19KT 15SM SCT058 SCT160 BKN200 22/17 A2996 RMK CU3AC1CI4 AC TR SLP146 DENSITY ALT 1000FT

CYGK;2015-08-06 20:00;CYGK 062000Z 19012KT 15SM FEW062 BKN220 21/17 A2995 RMK CU2CI4 SLP141 DENSITY ALT 1000FT

CYGK;2015-08-06 21:00;CYGK 062100Z 20013KT 15SM SCT050 BKN250 23/17 A2994 RMK CU4CI3 SLP138 DENSITY ALT 1200FT

CYGK;2015-08-06 22:00;CYGK 062200Z 21012KT 15SM BKN060 BKN250 21/16 A2995 RMK CU5CI1 SLP141 DENSITY ALT 1000FT

CYGK;2015-08-06 23:00;CYGK 062300Z 22008KT 15SM FEW058 SCT170 SCT250 22/17 A2993 RMK CU2AC1CI1 SLP136 DENSITY ALT 1100FT

CYGK;2015-08-07 00:00;CYGK 070000Z 24006KT 15SM FEW058 BKN075 BKN170 BKN250 21/17 A2994 RMK CU2AC3AC1CI1 CI TR SLP138 DENSITY ALT 1000FT

CYGK;2015-08-07 01:00;CYGK 070100Z 28006KT 15SM FEW058 SCT170 19/15 A2995 RMK SC2AC1 SLP140 DENSITY ALT 800FT

CYGK;2015-08-07 02:00;CYGK 070200Z 30004KT 15SM FEW060 17/14 A2996 RMK SC2 SLP145 DENSITY ALT 500FT

CYGK;2015-08-07 03:00;CYGK 070300Z 32003KT 300V010 15SM FEW060 17/15 A2997 RMK SC1 LAST STFD OBS/NEXT 071000 UTC SLP147 DENSITY ALT 500FT

CYGK;2015-08-07 10:00;CYGK 071000Z 36006KT 15SM FEW160 SCT250 12/12 A2998 RMK AC2CI1 SLP152

CYGK;2015-08-07 11:00;CYGK 071100Z 03005KT 15SM FEW020 BKN160 BKN250 15/13 A2999 RMK CF1AC5CI1 CF TR SLP157

CYGK;2015-08-07 12:00;CYGK 071200Z 03004KT 15SM FEW020 SCT160 BKN250 16/14 A3001 RMK CU1AC4CI1 CU TR SLP161

CYGK;2015-08-07 13:00;CYGK 071300Z 04009KT 15SM FEW020 FEW160 SCT250 19/15 A3001 RMK CU1AC1CI2 CU TR SLP163 DENSITY ALT 600FT

CYGK;2015-08-07 14:00;CYGK 071400Z 05006KT 15SM FEW025 FEW160 SCT250 20/14 A3001 RMK CU1AC1CI4 CU TR AC TR SLP163 DENSITY ALT 800FT

CYGK;2015-08-07 15:00;CYGK 071500Z 04007KT 340V070 15SM FEW040 FEW160 SCT250 22/13 A3001 RMK CU1AC1CI3 AC TR SLP162 DENSITY ALT 1000FT

CYGK;2015-08-07 16:00;CYGK 071600Z VRB04KT 15SM SCT038 BKN270 22/14 A3001 RMK CU4CI2 SLP164 DENSITY ALT 1000FT

CYGK;2015-08-07 17:00;CYGK 071700Z 13006KT 090V180 15SM SCT040 BKN270 22/14 A3000 RMK CU4CI2 SLP158 DENSITY ALT 1000FT

CYGK;2015-08-07 18:00;CYGK 071800Z 13006KT 090V200 15SM SCT050 BKN270 23/14 A2999 RMK CU4CI1 SLP157 DENSITY ALT 1200FT

CYGK;2015-08-07 19:00;CYGK 071900Z 15009KT 15SM FEW054 SCT220 23/14 A2999 RMK CU2CI2 SLP156 DENSITY ALT 1200FT

CYGK;2015-08-07 20:00;CYGK 072000Z 16006KT 15SM BKN050 BKN075 BKN250 23/12 A2998 RMK CU5AC1CI1 CI TR SLP154 DENSITY ALT 1100FT

CYGK;2015-08-07 21:00;CYGK 072100Z 20005KT 15SM FEW050 SCT080 SCT260 22/14 A2999 RMK CU1AC2CI1 SLP155 DENSITY ALT 1000FT

CYGK;2015-08-07 22:00;CYGK 072200Z 18003KT 140V220 15SM FEW050 FEW080 FEW260 23/14 A2997 RMK CU1AC1CI1 AC TR SLP150 DENSITY ALT 1200FT

CYGK;2015-08-07 23:00;CYGK 072300Z 02008KT 010V070 15SM FEW052 FEW080 FEW260 23/12 A2997 RMK CU1AC1CI1 CU TR SLP149 DENSITY ALT 1200FT

CYGK;2015-08-08 00:00;CYGK 080000Z 06005KT 15SM FEW050 FEW080 FEW250 21/13 A2998 RMK CF1AC1CI2 CF TR AC TR SLP151 DENSITY ALT 900FT

CYGK;2015-08-08 01:00;CYGK 080100Z 07002KT 15SM FEW080 FEW250 19/14 A2999 RMK AC1CI1 AC TR SLP154 DENSITY ALT 700FT

CYGK;2015-08-08 02:00;CYGK 080200Z 04004KT 15SM SKC 18/13 A3000 RMK SLP157 DENSITY ALT 600FT

CYGK;2015-08-08 03:00;CYGK 080300Z 04004KT 15SM SKC 15/13 A3000 RMK LAST STFD OBS/NEXT 081000 UTC SLP160

CYGK;2015-08-08 10:00;CYGK 081000Z 02005KT 15SM FEW100 SCT210 13/12 A3003 RMK AC1CI3 SLP169

CYGK;2015-08-08 11:00;CYGK 081100Z 01005KT 15SM FEW100 BKN210 BKN280 15/14 A3005 RMK AC1CI4CI2 SLP176

CYGK;2015-08-08 12:00;CYGK 081200Z 04007KT 15SM FEW030 BKN210 BKN280 16/14 A3005 RMK CF1CI5CI2 CF TR SLP175

CYGK;2015-08-08 13:00;CYGK 081300Z 04005KT 15SM FEW120 SCT210 BKN280 18/15 A3006 RMK AC2CI2CI3 SLP179 DENSITY ALT 500FT

CYGK;2015-08-08 14:00;CYGK 081400Z 04006KT 15SM FEW020 FEW120 BKN180 BKN210 19/14 A3007 RMK CF1AC1AC5CI1 CF TR SLP183 DENSITY ALT 600FT

CYGK;2015-08-08 15:00;CYGK 081500Z 06007KT 15SM FEW020 BKN170 BKN210 19/14 A3008 RMK CU1AC5CI2 CU TR SLP187 DENSITY ALT 700FT

CYGK;2015-08-08 16:00;CYGK 081600Z 01008KT 15SM FEW025 SCT140 BKN180 20/14 A3008 RMK CU1AC2AC4 SLP186 DENSITY ALT 700FT

CYGK;2015-08-08 17:00;CYGK 081700Z 05008KT 15SM FEW030 BKN120 BKN210 21/14 A3008 RMK CU1AC5CI1 SLP185 DENSITY ALT 800FT

CYGK;2015-08-08 18:00;CYGK 081800Z 01004KT 15SM FEW032 BKN110 21/14 A3007 RMK CU1AC6 SLP184 DENSITY ALT 900FT

CYGK;2015-08-08 19:00;CYGK 081900Z 36008KT 340V060 15SM FEW036 OVC140 OVC240 21/14 A3006 RMK CU1AS7CS1 CS TR SLP181 DENSITY ALT 900FT

CYGK;2015-08-08 20:00;CYGK 082000Z 02009KT 15SM FEW035 BKN150 BKN240 21/14 A3005 RMK CU1AS5CS1 SLP177 DENSITY ALT 900FT

CYGK;2015-08-08 21:00;CYGK 082100Z 02007KT 15SM FEW038 BKN130 OVC240 21/14 A3005 RMK CU1AC6CS2 CU TR SLP177 DENSITY ALT 900FT

CYGK;2015-08-08 22:00;CYGK 082200Z 05006KT 15SM FEW038 BKN120 BKN240 21/14 A3005 RMK CU1AC7CI1 CU TR CI TR SLP177 DENSITY ALT 900FT

CYGK;2015-08-08 23:00;CYGK 082300Z 36004KT 15SM FEW038 BKN100 BKN240 20/13 A3006 RMK CU1AC7CI1 CU TR CI TR SLP180 DENSITY ALT 700FT

CYGK;2015-08-09 00:00;CYGK 090000Z 35003KT 15SM FEW038 BKN100 BKN240 19/14 A3006 RMK CF1AC6CI1 CF TR SLP181 DENSITY ALT 600FT

CYGK;2015-08-09 01:00;CYGK 090100Z 34004KT 15SM BKN110 BKN230 17/15 A3006 RMK AC6CI1 SLP181 DENSITY ALT 400FT

CYGK;2015-08-09 02:00;CYGK 090200Z 35006KT 15SM SCT110 BKN130 17/15 A3007 RMK AC4AC2 SLP182 DENSITY ALT 400FT

CYGK;2015-08-09 03:00;CYGK 090300Z 36004KT 15SM BKN110 17/15 A3006 RMK AC5 LAST STFD OBS/NEXT 091000 UTC SLP180 DENSITY ALT 400FT

CYGK;2015-08-09 10:00;CYGK 091000Z 02007KT 15SM FEW057 15/13 A3006 RMK SC1 SLP180

CYGK;2015-08-09 11:00;CYGK 091100Z 03006KT 15SM FEW055 16/14 A3007 RMK SC1 SLP184

CYGK;2015-08-09 12:00;CYGK 091200Z 04008KT 15SM FEW055 18/14 A3008 RMK SC1 SLP185 DENSITY ALT 500FT

CYGK;2015-08-09 13:00;CYGK 091300Z 04007KT 15SM FEW055 FEW250 20/15 A3008 RMK SC1CI1 SC TR CI TR SLP186 DENSITY ALT 800FT

CYGK;2015-08-09 14:00;CYGK 091400Z 06008KT 020V080 15SM FEW250 22/15 A3007 RMK CI1 CI TR SLP183 DENSITY ALT 1000FT

CYGK;2015-08-09 15:00;CYGK 091500Z 07005KT 360V090 15SM FEW035 FEW250 23/15 A3006 RMK CU1CI1 CI TR SLP180 DENSITY ALT 1100FT

CYGK;2015-08-09 16:00;CYGK 091600Z 08010KT 040V100 15SM SCT045 SCT250 25/13 A3005 RMK CU3CI1 CI TR SLP176 DENSITY ALT 1300FT

CYGK;2015-08-09 17:00;CYGK 091700Z 11008KT 050V130 15SM SCT045 26/15 A3004 RMK CU3 SLP171 DENSITY ALT 1400FT

CYGK;2015-08-09 18:00;CYGK 091800Z 13011KT 050V150 15SM SCT050 26/11 A3004 RMK CU3 SLP172 DENSITY ALT 1400FT

CYGK;2015-08-09 19:00;CYGK 091900Z 14009KT 15SM FEW055 25/13 A3003 RMK CU2 SLP171 DENSITY ALT 1400FT

CYGK;2015-08-09 20:00;CYGK 092000Z 15008KT 15SM FEW055 26/12 A3002 RMK CU1 SLP164 DENSITY ALT 1500FT

CYGK;2015-08-09 21:00;CYGK 092100Z 18004KT 15SM FEW055 26/12 A3002 RMK CU1 SLP166 DENSITY ALT 1500FT

CYGK;2015-08-09 22:00;CYGK 092200Z 19003KT 15SM FEW055 FEW260 26/10 A3001 RMK CU1CI1 CI TR SLP162 DENSITY ALT 1400FT

CYGK;2015-08-09 23:00;CYGK 092300Z 21003KT 15SM FEW055 FEW270 25/12 A3001 RMK CU1CI1 CU TR SLP161 DENSITY ALT 1400FT

CYGK;2015-08-10 00:00;CYGK 100000Z 22002KT 15SM FEW250 23/11 A3000 RMK CI1 SLP158 DENSITY ALT 1100FT

CYGK;2015-08-10 01:00;CYGK 100100Z 00000KT 15SM FEW250 20/12 A3001 RMK CI1 SLP160 DENSITY ALT 800FT

CYGK;2015-08-10 02:00;CYGK 100200Z 00000KT 15SM FEW250 18/13 A3001 RMK CI1 CI TR SLP162 DENSITY ALT 500FT

CYGK;2015-08-10 03:00;CYGK 100300Z 03002KT 15SM FEW250 17/14 A3001 RMK CI1 CI TR LAST STFD OBS/NEXT 101000 UTC SLP161 DENSITY ALT 500FT

CYGK;2015-08-10 10:00;CYGK 101000Z 02004KT 15SM SCT060 SCT150 BKN270 13/12 A2996 RMK SC3AC1CI3 SLP144

CYGK;2015-08-10 11:00;CYGK 101100Z 02004KT 15SM FEW064 SCT150 BKN270 14/13 A2996 RMK SC1AC2CI4 SLP145

CYGK;2015-08-10 12:00;CYGK 101200Z 06007KT 15SM FEW150 BKN270 19/17 A2995 RMK AC1CI4 SLP143 DENSITY ALT 700FT

CYGK;2015-08-10 13:00;CYGK 101300Z 12006KT 090V150 15SM FEW150 SCT270 21/17 A2995 RMK AC1CI4 AC TR SLP142 DENSITY ALT 1000FT

CYGK;2015-08-10 14:00;CYGK 101400Z 13006KT 15SM FEW150 BKN210 22/17 A2995 RMK AC1CI4 SLP140 DENSITY ALT 1100FT

CYGK;2015-08-10 15:00;CYGK 101500Z 14004KT 110V180 15SM FEW150 BKN210 22/18 A2994 RMK AC1CC5 SLP139 DENSITY ALT 1200FT

CYGK;2015-08-10 16:00;CYGK 101600Z 16007KT 15SM FEW020 SCT150 BKN210 23/19 A2992 RMK CU1AC3CI3 CU TR SLP133 DENSITY ALT 1300FT

CYGK;2015-08-10 17:00;CYGK 101700Z 18008KT 15SM FEW035 FEW150 BKN210 24/19 A2992 RMK CU1AC2CC4 CU TR SLP130 DENSITY ALT 1300FT

CYGK;2015-08-10 18:00;CYGK 101800Z 15006KT 15SM FEW035 SCT150 BKN210 24/19 A2990 RMK CU1AC3CI3 SLP124 DENSITY ALT 1400FT

CYGK;2015-08-10 19:00;CYGK 101900Z 20005KT 140V230 15SM FEW035TCU SCT075 BKN150 BKN210 25/18 A2987 RMK TCU1AC2AC2CI2 SLP116 DENSITY ALT 1500FT

CYGK;2015-08-10 20:00;CYGK 102000Z 20003KT 150V230 15SM FEW035 BKN080 BKN150 OVC230 26/20 A2985 RMK CU1AC4AC1CI2 CB TOPS DIST SE AND SW SLP109 DENSITY ALT 1600FT

CYGK;2015-08-10 21:00;CYGK 102100Z CCA 19005KT 15SM TS FEW020CB SCT075 BKN170 BKN230 26/20 A2984 RMK CB1AC3AC2CI1 CB SW MOVG NE SLP103 DENSITY ALT 1600FT

CYGK;2015-08-10 22:00;CYGK 102200Z 23002KT 12SM TS VCSH SCT030CB BKN068 BKN150 23/20 A2982 RMK CB3AC2AC2 SLP099 DENSITY ALT 1300FT

CYGK;2015-08-10 22:21;CYGK 102221Z 34002KT 12SM -SHRA FEW003CB BKN060 BKN150 23/19 A2982 RMK CB2SC3AC2 VIS N 5 SLP099 DENSITY ALT 1300FT

CYGK;2015-08-10 23:00;CYGK 102300Z 28003KT 10SM VCSH SCT033TCU BKN070 OVC120 22/20 A2982 RMK TCU3AC3AC2 SLP099 DENSITY ALT 1300FT

CYGK;2015-08-10 23:07;CYGK 102307Z 28004KT 10SM -SHRA SCT033TCU BKN070 BKN120 OVC230 22/20 A2982 RMK TCU3AC3AC1CI1 SLP099 DENSITY ALT 1300FT

CYGK;2015-08-11 00:00;CYGK 110000Z VRB02KT 6SM -SHRA BR FEW005 BKN019TCU OVC070 21/20 A2981 RMK SF1TCU4AC3 CB EMBDD NW VIS W 3 SLP094 DENSITY ALT 1200FT

CYGK;2015-08-11 00:28;CYGK 110028Z 16010KT 080V210 8SM FC FEW005 BKN015TCU OVC070 22/21 A2981 RMK ST1TCU7AC1 ST TR OCNL -SHRA SLP093 DENSITY ALT 1300FT

CYGK;2015-08-11 00:45;CYGK 110045Z 18015G20KT 10SM -TSRA FEW005 BKN018CB OVC070 22/20 A2982 RMK SF1CB6AC1 LTNG NNE MOVG NE SLP096 DENSITY ALT 1300FT

CYGK;2015-08-11 01:00;CYGK 110100Z 17013G22KT 8SM -SHRA FEW005 BKN018TCU OVC095 22/20 A2982 RMK SF1TCU7AC1 SF TR CB EMBDD N SLP098 DENSITY ALT 1300FT

CYGK;2015-08-11 01:42;CYGK 110142Z 18012KT 8SM -SHRA BKN013 OVC020 22/21 A2983 RMK SC6SC2 TCU EMBDD SLP100 DENSITY ALT 1200FT

CYGK;2015-08-11 02:00;CYGK 110200Z 18012G17KT 8SM -SHRA BKN013 OVC020 22/20 A2983 RMK SC6SC2 TCU EMBDD SLP099 DENSITY ALT 1200FT

CYGK;2015-08-11 03:00;CYGK 110300Z 16015KT 8SM -SHRA FEW008 OVC013 21/20 A2981 RMK SF1SC7 TCU EMBDD LAST STFD OBS/NEXT 111000UTC SLP093 DENSITY ALT 1200FT

CYGK;2015-08-11 10:00;CYGK 111000Z 22008KT 12SM BKN005 OVC012 21/20 A2967 RMK SF5NS3 SLP047 DENSITY ALT 1300FT

CYGK;2015-08-11 10:21;CYGK 111021Z 22009KT 12SM -SHRA SCT005 BKN017 BKN090 21/20 A2967 RMK SF4SC2AC1 SLP047 DENSITY ALT 1300FT

CYGK;2015-08-11 10:45;CYGK 111045Z 23011KT 12SM BKN004 BKN015 BKN120 20/20 A2968 RMK SF5SC1AC1 SLP049 DENSITY ALT 1200FT

CYGK;2015-08-11 11:00;CYGK 111100Z 24011KT 15SM BKN005 BKN015 OVC120 20/19 A2968 RMK SF7SC1AC1 SC TR SLP050 DENSITY ALT 1200FT

CYGK;2015-08-11 12:00;CYGK 111200Z CCA 27008KT 15SM OVC006 19/19 A2969 RMK SC8 SLP054 DENSITY ALT 1100FT

CYGK;2015-08-11 13:00;CYGK 111300Z 26006KT 12SM VCSH BKN008 OVC014 20/19 A2970 RMK SF6SC2 SLP058 DENSITY ALT 1200FT

CYGK;2015-08-11 13:13;CYGK 111313Z 25010KT 10SM -DZ OVC007 20/19 A2970 RMK SF8 VIS N 3 SLP058 DENSITY ALT 1100FT

CYGK;2015-08-11 14:00;CYGK 111400Z 29006KT 10SM -DZ BKN005 OVC017 21/20 A2970 RMK SF6SC2 SLP058 DENSITY ALT 1200FT

CYGK;2015-08-11 15:00;CYGK 111500Z 29009KT 12SM SCT006 OVC014 22/19 A2971 RMK SF4SC4 SLP060 DENSITY ALT 1400FT

CYGK;2015-08-11 15:23;CYGK 111523Z 32012KT 15SM SCT014 BKN022 22/19 A2972 RMK SC4SC3 SLP062 DENSITY ALT 1400FT

CYGK;2015-08-11 16:00;CYGK 111600Z 33008KT 15SM SCT017 BKN025 23/19 A2972 RMK SC3SC4 SLP064 DENSITY ALT 1400FT

CYGK;2015-08-11 16:25;CYGK 111625Z 31012G18KT 15SM FEW018 BKN027 23/19 A2973 RMK SC2SC5 SLP066 DENSITY ALT 1500FT

CYGK;2015-08-11 17:00;CYGK 111700Z 34010G15KT 15SM FEW018 BKN025 25/19 A2973 RMK SF1CU5 SLP068 DENSITY ALT 1700FT

CYGK;2015-08-11 18:00;CYGK 111800Z 34014G20KT 15SM BKN030 BKN230 26/17 A2973 RMK SC6CI1 CI TR SLP066 DENSITY ALT 1800FT

CYGK;2015-08-11 19:00;CYGK 111900Z 31006KT 15SM SCT040 SCT120 27/18 A2972 RMK CU3AC1 SLP063 DENSITY ALT 1900FT

CYGK;2015-08-11 20:00;CYGK 112000Z 30008KT 15SM SCT042 SCT120 27/17 A2972 RMK CU3AC1 SLP062 DENSITY ALT 1900FT

CYGK;2015-08-11 21:00;CYGK 112100Z 27009KT 15SM FEW040TCU SCT110 27/17 A2972 RMK TCU2AC1 SLP063 DENSITY ALT 2000FT

CYGK;2015-08-11 22:00;CYGK 112200Z 25008KT 15SM TS FEW008 SCT025CB BKN075 26/18 A2973 RMK SF1CB3AC3 SF TR OCNL LTNG SW-NE MOVG E SHWRS NW-N SLP067 DENSITY ALT 1800FT

CYGK;2015-08-11 22:17;CYGK 112217Z 31018G26KT 260V330 15SM -TSRA FEW008 BKN040CB BKN075 21/17 A2974 RMK SF1CB6AC1 SF TR LTNG N-NE MOVG E SLP071 DENSITY ALT 1300FT

CYGK;2015-08-11 22:27;CYGK 112227Z 35011G25KT 310V010 15SM TS VCSH FEW003 SCT040CB BKN075 20/16 A2976 RMK SF1CB3AC3 SF TR VIS SE 3 PRESRR SLP076 DENSITY ALT 1100FT

CYGK;2015-08-11 23:00;CYGK 112300Z 34006KT 15SM FEW015 FEW040CB FEW090 SCT280 21/18 A2973 RMK SC1CB1AC1CI1 SC TR SLP067 DENSITY ALT 1300FT

CYGK;2015-08-12 00:00;CYGK 120000Z 30009KT 15SM FEW040 FEW280 21/18 A2977 RMK SC1CI1 CB DIST E SLP080 DENSITY ALT 1200FT

CYGK;2015-08-12 01:00;CYGK 120100Z 32004KT 15SM FEW040 FEW250 19/18 A2980 RMK SC1CI1 CI TR SLP089 DENSITY ALT 1000FT

CYGK;2015-08-12 02:00;CYGK 120200Z 27005KT 15SM SKC 18/17 A2981 RMK SLP093 DENSITY ALT 900FT

CYGK;2015-08-12 03:00;CYGK 120300Z 32004KT 15SM FEW040 18/17 A2982 RMK SC1 SC TR LAST STFD OBS/NEXT 121000UTC SLP097 DENSITY ALT 700FT

CYGK;2015-08-12 10:00;CYGK 121000Z 32005KT 15SM FEW015 FEW080 15/14 A2986 RMK CF1AC1 CF TR SLP110 DENSITY ALT 400FT

CYGK;2015-08-12 11:00;CYGK 121100Z 31007KT 15SM FEW015TCU FEW080 16/15 A2987 RMK TCU1AC1 TCU TR DIST SW SLP114 DENSITY ALT 500FT

CYGK;2015-08-12 12:00;CYGK 121200Z 31007KT 15SM FEW010 FEW020TCU FEW080 18/16 A2988 RMK CF1TCU1AC2 CF TR TCU TR ACC EMBD SLP118 DENSITY ALT 700FT

CYGK;2015-08-12 13:00;CYGK 121300Z 34010KT 15SM FEW012 FEW020TCU SCT067 20/16 A2989 RMK CF1TCU1AC3 CF TR TCU TR SLP120 DENSITY ALT 900FT

CYGK;2015-08-12 14:00;CYGK 121400Z 33008KT 15SM SCT020TCU SCT090 21/16 A2990 RMK TCU4AC1 AC TR TCU TR EMBD DIST S SLP124 DENSITY ALT 1000FT

CYGK;2015-08-12 15:00;CYGK 121500Z 31005KT 280V340 15SM BKN021TCU BKN090 21/16 A2990 RMK TCU6AC1 AC TR SLP126 DENSITY ALT 1000FT

CYGK;2015-08-12 15:20;CYGK 121520Z 30012KT 260V330 15SM -SHRA BKN025TCU BKN090 21/16 A2990 RMK TCU6AC1 SLP126 DENSITY ALT 1000FT

CYGK;2015-08-12 15:49;CYGK 121549Z 32007KT 300V360 15SM VCSH BKN029TCU BKN090 21/15 A2990 RMK TCU7AC1 AC TR SH SE SLP126 DENSITY ALT 1000FT

CYGK;2015-08-12 16:00;CYGK 121600Z 30009KT 15SM VCSH BKN029TCU BKN090 21/15 A2991 RMK TCU6AC1 SH SE SLP127 DENSITY ALT 1000FT

CYGK;2015-08-12 17:00;CYGK 121700Z 30007KT 250V340 15SM BKN032TCU BKN085 23/15 A2990 RMK TCU5AC1 SH ALL QUADS SLP124 DENSITY ALT 1200FT

CYGK;2015-08-12 17:45;CYGK 121745Z 32015KT 290V350 15SM -SHRA BKN033TCU BKN070 21/15 A2990 RMK TCU5AC2 SLP124 DENSITY ALT 1000FT

CYGK;2015-08-12 18:00;CYGK 121800Z 33013KT 15SM -SHRA SCT035TCU BKN073 20/15 A2990 RMK TCU4AC3 SLP124 DENSITY ALT 900FT

CYGK;2015-08-12 18:11;CYGK 121811Z 32010G17KT 15SM VCSH SCT035TCU BKN071 20/15 A2990 RMK TCU3AC4 SLP124 DENSITY ALT 1000FT

CYGK;2015-08-12 19:00;CYGK 121900Z 34010G15KT 15SM SCT035 BKN069 22/14 A2989 RMK CU3AC4 SLP123 DENSITY ALT 1200FT

CYGK;2015-08-12 20:00;CYGK 122000Z 31010KT 15SM BKN040 BKN068 21/14 A2990 RMK CU5AC2 SLP125 DENSITY ALT 1000FT

CYGK;2015-08-12 20:24;CYGK 122024Z 33005KT 300V360 15SM SCT040 BKN070 22/14 A2989 RMK CU3AC3 SLP123 DENSITY ALT 1200FT

CYGK;2015-08-12 21:00;CYGK 122100Z 32010KT 280V360 15SM FEW035 SCT070 23/14 A2989 RMK CU2AC2 SLP122 DENSITY ALT 1300FT

CYGK;2015-08-12 22:00;CYGK 122200Z 31009KT 15SM FEW035 BKN073 22/14 A2990 RMK CU1AC6 SLP125 DENSITY ALT 1100FT

CYGK;2015-08-12 23:00;CYGK 122300Z 32005KT 15SM FEW035 BKN080 21/14 A2992 RMK CU1AC6 SLP130 DENSITY ALT 1100FT

CYGK;2015-08-13 00:00;CYGK 130000Z 32003KT 15SM VCSH FEW012 FEW035 SCT060 BKN085 20/15 A2994 RMK SC1CU1SC3AC3 SC TR SLP137 DENSITY ALT 900FT

CYGK;2015-08-13 01:00;CYGK 130100Z 33004KT 15SM FEW040 BKN085 20/15 A2995 RMK SC2AC5 SLP142 DENSITY ALT 800FT

CYGK;2015-08-13 02:00;CYGK 130200Z 36003KT 15SM FEW040 BKN072 19/15 A2996 RMK SC1AC6 SLP145 DENSITY ALT 700FT

CYGK;2015-08-13 03:00;CYGK 130300Z 00000KT 15SM BKN080 18/15 A2996 RMK AC7 LAST STFD OBS/NEXT 131000UTC SLP146 DENSITY ALT 700FT

CYGK;2015-08-13 10:00;CYGK 131000Z 28002KT 15SM FEW020 BKN065 BKN100 16/13 A2999 RMK CU1SC5AC2 CU TR SLP155 DENSITY ALT 400FT

CYGK;2015-08-13 11:00;CYGK 131100Z 28004KT 15SM FEW020TCU BKN070 BKN100 17/14 A3000 RMK TCU1AC5AC1 TCU TR SLP158 DENSITY ALT 500FT

CYGK;2015-08-13 12:00;CYGK 131200Z 27004KT 15SM FEW020TCU SCT072 BKN180 17/14 A3002 RMK TCU1AC4AC1 TCU TR SLP165 DENSITY ALT 500FT

CYGK;2015-08-13 13:00;CYGK 131300Z 23007KT 15SM FEW020TCU SCT072 BKN160 19/15 A3003 RMK TCU1AC2AC3 DIST S SLP167 DENSITY ALT 700FT

CYGK;2015-08-13 14:00;CYGK 131400Z 26008KT 15SM FEW020TCU SCT072 BKN150 20/15 A3004 RMK TCU1AC3AC2 TCU TR SLP173 DENSITY ALT 800FT

CYGK;2015-08-13 15:00;CYGK 131500Z 25007KT 220V300 15SM FEW020CB FEW150 21/17 A3005 RMK CB1AC1 SLP174 DENSITY ALT 900FT

CYGK;2015-08-13 16:00;CYGK 131600Z 23010KT 15SM FEW025TCU FEW150 22/16 A3005 RMK TCU1AC1 TCU TR SE SLP174 DENSITY ALT 1000FT

CYGK;2015-08-13 17:00;CYGK 131700Z 23010KT 15SM FEW035TCU SCT130 24/14 A3003 RMK TCU1AC2 VIA CYXU SLP169 DENSITY ALT 1200FT

CYGK;2015-08-13 18:00;CYGK 131800Z 19014KT 15SM FEW035TCU SCT150 24/17 A3003 RMK TCU2AC1 TCU DIST SE SLP168 DENSITY ALT 1200FT

CYGK;2015-08-13 19:00;CYGK 131900Z 21014G20KT 15SM BKN035 BKN150 22/16 A3002 RMK CU6AC1 AC TR SLP166 DENSITY ALT 1000FT

CYGK;2015-08-13 20:00;CYGK 132000Z 21015KT 15SM FEW035 SCT075 24/15 A3001 RMK CU1AC3 SLP162 DENSITY ALT 1300FT

CYGK;2015-08-13 21:00;CYGK 132100Z 22013KT 15SM FEW035 FEW075 24/14 A3001 RMK CU1AC1 AC TR SLP161 DENSITY ALT 1200FT

CYGK;2015-08-13 22:00;CYGK 132200Z 24010G15KT 15SM FEW040 FEW075 23/13 A3001 RMK CU1AC1 CU TR AC TR SLP161 DENSITY ALT 1200FT

CYGK;2015-08-13 23:00;CYGK 132300Z 20007KT 15SM FEW080 FEW250 22/15 A3001 RMK AC1CI1 AC TR CI TR SLP162 DENSITY ALT 1100FT

CYGK;2015-08-14 00:00;CYGK 140000Z 22006KT 15SM FEW120 FEW250 21/15 A3001 RMK AC1CI1 AC TR SLP162 DENSITY ALT 900FT

CYGK;2015-08-14 01:00;CYGK 140100Z 21005KT 15SM SCT075 20/16 A3002 RMK AC3 SLP166 DENSITY ALT 800FT

CYGK;2015-08-14 02:00;CYGK 140200Z 19007KT 15SM SCT075 21/16 A3003 RMK AC4 SLP168 DENSITY ALT 900FT

CYGK;2015-08-14 03:00;CYGK 140300Z 18009KT 15SM BKN060 21/17 A3003 RMK SC6 LAST STFD OBS / NEXT 141000 UTC SLP167 DENSITY ALT 1000FT

CYGK;2015-08-14 10:00;CYGK 141000Z 20008KT 15SM FEW020TCU FEW062 FEW100 20/19 A3000 RMK TCU1SC1AC1 TCU TR SC TR SLP157 DENSITY ALT 900FT

CYGK;2015-08-14 11:00;CYGK 141100Z 21009KT 15SM FEW020 FEW140 21/19 A3001 RMK CU1AC2 CU TR SLP161 DENSITY ALT 900FT

CYGK;2015-08-14 12:00;CYGK 141200Z 21011KT 15SM FEW020 SCT042 BKN120 22/19 A3002 RMK CU1SC4AC1 CU TR SLP165 DENSITY ALT 1100FT

CYGK;2015-08-14 13:00;CYGK 141300Z 22011KT 15SM FEW020 BKN036 OVC130 22/20 A3003 RMK CU1SC7AC1 CU TR SLP170 DENSITY ALT 1000FT

CYGK;2015-08-14 14:00;CYGK 141400Z 21009KT 15SM FEW025 FEW050 BKN120 24/21 A3003 RMK CU1SC2AC4 CU TR SLP169 DENSITY ALT 1200FT

CYGK;2015-08-14 15:00;CYGK 141500Z 23012G19KT 15SM SCT020 BKN110 24/21 A3004 RMK CU3AC4 SLP171 DENSITY ALT 1300FT

CYGK;2015-08-14 15:29;CYGK 141529Z 23011G20KT 15SM -SHRA FEW020 BKN110 BKN200 24/21 A3004 RMK CU2AC5CI1 CI TR SLP171 DENSITY ALT 1200FT

CYGK;2015-08-14 16:00;CYGK 141600Z 24011G16KT 15SM FEW025 FEW055 BKN110 BKN200 24/21 A3004 RMK CU2SC1AC4CI1 SC TR SLP173 DENSITY ALT 1300FT

CYGK;2015-08-14 17:00;CYGK 141700Z 23013G19KT 15SM SCT022 SCT110 BKN160 25/21 A3004 RMK CU3AC1AC3 ACC ASOCTD SLP171 DENSITY ALT 1400FT

CYGK;2015-08-14 17:30;CYGK 141730Z 24013KT 12SM -SHRA FEW025 SCT060 BKN110 24/20 A3004 RMK CU2SC2AC3 SLP173 DENSITY ALT 1200FT

CYGK;2015-08-14 17:53;CYGK 141753Z 26007KT 15SM FEW025 BKN032 OVC110 23/20 A3004 RMK CU2SC4AC2 SLP173 DENSITY ALT 1100FT

CYGK;2015-08-14 18:00;CYGK 141800Z 25006KT 15SM FEW020 BKN031 OVC110 23/20 A3004 RMK CU1SC5AC2 SLP173 DENSITY ALT 1100FT

CYGK;2015-08-14 18:11;CYGK 141811Z 24007KT 15SM SCT020 BKN032 OVC110 23/20 A3005 RMK CU3SC3AC2 SLP174 DENSITY ALT 1100FT

CYGK;2015-08-14 19:00;CYGK 141900Z 23011KT 15SM FEW018 BKN031 OVC110 23/20 A3005 RMK CU1SC6AC1 OCNL -SHRA SLP174 DENSITY ALT 1100FT

CYGK;2015-08-14 20:00;CYGK 142000Z 22012KT 15SM VCSH BKN018TCU OVC110 22/20 A3004 RMK TCU7AC1 SLP173 DENSITY ALT 1000FT

CYGK;2015-08-14 21:00;CYGK 142100Z 23010KT 15SM SCT018 BKN130 21/19 A3004 RMK SC4AC3 SLP172 DENSITY ALT 900FT

CYGK;2015-08-14 22:00;CYGK 142200Z 22006KT 15SM FEW022 BKN046 OVC140 21/19 A3005 RMK SC2SC5AC1 SLP174 DENSITY ALT 900FT

CYGK;2015-08-14 23:00;CYGK 142300Z 20006KT 15SM FEW020 BKN031 OVC140 21/19 A3003 RMK CF1SC6AC2 CF TR SLP167 DENSITY ALT 900FT

CYGK;2015-08-15 00:00;CYGK 150000Z 20006KT 15SM OVC032 21/19 A3003 RMK SC8 SLP169 DENSITY ALT 900FT

CYGK;2015-08-15 01:00;CYGK 150100Z 18004KT 15SM OVC038 21/20 A3004 RMK SC8 SLP173 DENSITY ALT 900FT

CYGK;2015-08-15 02:00;CYGK 150200Z 17006KT 15SM FEW018 OVC026 21/20 A3005 RMK CF1SC7 SLP174 DENSITY ALT 900FT

CYGK;2015-08-15 03:00;CYGK 150300Z 20007KT 15SM SCT018 BKN038 22/21 A3005 RMK SC4SC3 LAST STFD OBS/NEXT 15 1000UTC SLP176 DENSITY ALT 1000FT

CYGK;2015-08-15 10:00;CYGK 151000Z 19009KT 15SM FEW010 BKN015 OVC100 21/20 A3006 RMK CF1SC7AC1 CF TR SLP178 DENSITY ALT 900FT

CYGK;2015-08-15 11:00;CYGK 151100Z 18007KT 15SM BKN018 OVC100 21/20 A3008 RMK SC7AC1 SLP184 DENSITY ALT 900FT

CYGK;2015-08-15 12:00;CYGK 151200Z 19008KT 12SM FEW012 BKN018 OVC100 22/21 A3008 RMK CF1SC7AC1 CF TR SLP186 DENSITY ALT 900FT

CYGK;2015-08-15 12:43;CYGK 151243Z 23004KT 12SM SCT006 BKN018 22/21 A3008 RMK SF3SC4 SLP186 DENSITY ALT 900FT

CYGK;2015-08-15 13:00;CYGK 151300Z 21004KT 200V260 15SM SCT006 BKN020 BKN160 22/21 A3008 RMK CU4SC2AC1 SLP186 DENSITY ALT 1000FT

CYGK;2015-08-15 14:00;CYGK 151400Z 18009KT 15SM FEW006 BKN021 BKN160 23/21 A3009 RMK CF1SC4AC1 SLP188 DENSITY ALT 1000FT

CYGK;2015-08-15 15:00;CYGK 151500Z 18010KT 15SM SCT020 SCT170 23/21 A3010 RMK CU3AC1 SLP192 DENSITY ALT 1000FT

CYGK;2015-08-15 16:00;CYGK 151600Z 17008KT 15SM FEW018 SCT170 SCT240 23/20 A3010 RMK CU2AC1CI1 SLP191 DENSITY ALT 1100FT

CYGK;2015-08-15 17:00;CYGK 151700Z 16010KT 15SM BKN022 BKN150 BKN240 24/21 A3010 RMK CU5AC1CI1 CI TR SLP192 DENSITY ALT 1200FT

CYGK;2015-08-15 18:00;CYGK 151800Z 17009KT 15SM FEW022TCU BKN140 BKN240 23/21 A3009 RMK TCU2AC3CI1 CI TR SLP190 DENSITY ALT 1000FT

CYGK;2015-08-15 19:00;CYGK 151900Z 19008KT 15SM SCT020TCU BKN140 25/21 A3009 RMK TCU4AC2 CB TOP SE SLP189 DENSITY ALT 1300FT

CYGK;2015-08-15 20:00;CYGK 152000Z 23007KT 15SM FEW020CB SCT080 SCT140 SCT240 24/20 A3007 RMK CB1AC2AC1CI1 CI TR CB DIST E SLP183 DENSITY ALT 1200FT

CYGK;2015-08-15 21:00;CYGK 152100Z 19009KT 15SM FEW020TCU SCT067 24/21 A3007 RMK TCU2AC1 CB DIST SE SLP181 DENSITY ALT 1200FT

CYGK;2015-08-15 22:00;CYGK 152200Z 19008KT 15SM FEW020 FEW067 FEW270 24/21 A3007 RMK CU1AC1CI1 CI TR CB TOP DIST SE SLP183 DENSITY ALT 1200FT

CYGK;2015-08-15 23:00;CYGK 152300Z 18006KT 15SM FEW020TCU FEW070 24/21 A3007 RMK TCU1AC1 CB TOP DIST SE SLP182 DENSITY ALT 1100FT

CYGK;2015-08-16 00:00;CYGK 160000Z 17005KT 15SM FEW020TCU FEW070 FEW270 22/21 A3008 RMK TCU1AC1CI1 TCU TR AC TR SLP185 DENSITY ALT 1000FT

CYGK;2015-08-16 01:00;CYGK 160100Z 13003KT 15SM FEW270 22/21 A3009 RMK CI1 SLP189 DENSITY ALT 900FT

CYGK;2015-08-16 02:00;CYGK 160200Z 14007KT 15SM SKC 21/21 A3010 RMK SLP192 DENSITY ALT 800FT

CYGK;2015-08-16 03:00;CYGK 160300Z 17004KT 15SM SKC 21/20 A3010 RMK LAST STFD OBS/NEXT 161000 UTC SLP193 DENSITY ALT 800FT

CYGK;2015-08-16 10:00;CYGK 161000Z 00000KT 6SM BR BCFG FEW250 17/17 A3009 RMK CI1 CI TR FG BNK AT N END OF AD SLP191

CYGK;2015-08-16 10:06;CYGK 161006Z VRB02KT 6SM BR BCFG SCT004 SCT250 17/17 A3010 RMK SF3CI1 FG BNK AT N END OF AD SLP192 DENSITY ALT 400FT

CYGK;2015-08-16 11:00;CYGK 161100Z VRB02KT 6SM BCFG FEW004 FEW250 18/18 A3011 RMK SF1CI1 FG BNK AT N END OF AD SLP196 DENSITY ALT 400FT

CYGK;2015-08-16 12:00;CYGK 161200Z 22003KT 15SM FEW005 SCT250 21/21 A3011 RMK CF1CI3 CF TR SLP196 DENSITY ALT 800FT

CYGK;2015-08-16 13:00;CYGK 161300Z 25004KT 15SM FEW006 BKN200 23/21 A3012 RMK CF1CI7 CF TR SLP197 DENSITY ALT 1000FT

CYGK;2015-08-16 14:00;CYGK 161400Z 23005KT 15SM FEW020 BKN240 24/20 A3012 RMK CF1CI6 CF TR SLP200 DENSITY ALT 1200FT

CYGK;2015-08-16 15:00;CYGK 161500Z 18007KT 10SM FEW020 SCT240 23/21 A3013 RMK CF1CI4 CF TR SLP202 DENSITY ALT 1100FT

CYGK;2015-08-16 16:00;CYGK 161600Z 17010KT 10SM FEW020 BKN240 24/22 A3014 RMK CU1CI5 SLP204 DENSITY ALT 1100FT

CYGK;2015-08-16 17:00;CYGK 161700Z 17011KT 10SM FEW020 BKN240 24/22 A3012 RMK CU1CI4 SLP199 DENSITY ALT 1200FT

CYGK;2015-08-16 18:00;CYGK 161800Z 18010KT 12SM FEW020 FEW240 25/22 A3011 RMK CU1CI1 SLP195 DENSITY ALT 1200FT

CYGK;2015-08-16 19:00;CYGK 161900Z 18011KT 12SM FEW025TCU FEW240 25/22 A3009 RMK TCU1CI1 SLP187 DENSITY ALT 1300FT

CYGK;2015-08-16 20:00;CYGK 162000Z 18012KT 12SM FEW025 SCT240 25/22 A3007 RMK CU1CI4 CU TR SLP181 DENSITY ALT 1300FT

CYGK;2015-08-16 21:00;CYGK 162100Z 19013KT 12SM FEW025 SCT240 24/22 A3006 RMK CU1CI3 CU TR SLP177 DENSITY ALT 1300FT

CYGK;2015-08-16 22:00;CYGK 162200Z 18009KT 12SM SCT220 25/21 A3005 RMK CI4 SLP175 DENSITY ALT 1300FT

CYGK;2015-08-16 23:00;CYGK 162300Z 19007KT 12SM BKN220 24/22 A3005 RMK CI5 SLP175 DENSITY ALT 1200FT

CYGK;2015-08-17 00:00;CYGK 170000Z 21004KT 15SM BKN220 23/21 A3004 RMK CI5 SLP173 DENSITY ALT 1100FT

CYGK;2015-08-17 01:00;CYGK 170100Z 21004KT 15SM BKN220 22/21 A3004 RMK CI5 SLP172 DENSITY ALT 1000FT

CYGK;2015-08-17 02:00;CYGK 170200Z 23005KT 15SM SCT220 22/21 A3005 RMK CI3 SLP174 DENSITY ALT 1000FT

CYGK;2015-08-17 03:00;CYGK 170300Z 24004KT 15SM SCT220 22/20 A3005 RMK CI3 LAST STFD OBS/NEXT 171000 UTC SLP174 DENSITY ALT 1000FT

CYGK;2015-08-17 10:00;CYGK 171000Z 20005KT 10SM FEW250 20/20 A3004 RMK CI1 CI TR SLP173 DENSITY ALT 800FT

CYGK;2015-08-17 11:00;CYGK 171100Z 21005KT 8SM FEW010 SCT250 21/20 A3005 RMK CF1CI3 CF TR SLP176 DENSITY ALT 900FT

CYGK;2015-08-17 12:00;CYGK 171200Z 18007KT 10SM FEW040 SCT250 22/21 A3006 RMK CU1CI2 SLP179 DENSITY ALT 1000FT

CYGK;2015-08-17 13:00;CYGK 171300Z 18008KT 12SM SCT040TCU BKN250 23/22 A3006 RMK TCU4CI1 SLP180 DENSITY ALT 1100FT

CYGK;2015-08-17 14:00;CYGK 171400Z 18009KT 12SM FEW040 BKN070 BKN250 23/21 A3005 RMK CU2AC3CI1 SLP176 DENSITY ALT 1100FT

CYGK;2015-08-17 15:00;CYGK 171500Z 19010KT 12SM FEW045 SCT250 25/22 A3005 RMK CU2CI1 SLP175 DENSITY ALT 1300FT

CYGK;2015-08-17 16:00;CYGK 171600Z 18010KT 12SM FEW045 FEW070 FEW250 25/22 A3004 RMK CU1AC1CI2 CU TR AC TR SLP173 DENSITY ALT 1400FT

CYGK;2015-08-17 17:00;CYGK 171700Z 18011KT 12SM FEW045 SCT250 25/22 A3003 RMK CU1CI2 SLP169 DENSITY ALT 1400FT

CYGK;2015-08-17 18:00;CYGK 171800Z 19011KT 12SM FEW045 SCT250 26/22 A3003 RMK CU1CI2 SLP167 DENSITY ALT 1500FT

CYGK;2015-08-17 19:00;CYGK 171900Z 19010KT 12SM FEW045 SCT250 27/23 A3001 RMK CU1CI2 SLP163 DENSITY ALT 1500FT

CYGK;2015-08-17 20:00;CYGK 172000Z 19010KT 180V240 12SM FEW045 SCT250 27/23 A3001 RMK CU2CI1 SLP161 DENSITY ALT 1600FT

CYGK;2015-08-17 21:00;CYGK 172100Z 19011KT 15SM FEW045 SCT240 26/23 A3000 RMK CF1CI4 CF TR SLP157 DENSITY ALT 1500FT

CYGK;2015-08-17 22:00;CYGK 172200Z 19011KT 15SM BKN240 26/22 A2999 RMK CI5 SLP155 DENSITY ALT 1500FT

CYGK;2015-08-17 23:00;CYGK 172300Z 20009KT 15SM SCT250 25/22 A2998 RMK CI3 SLP150 DENSITY ALT 1500FT

CYGK;2015-08-18 00:00;CYGK 180000Z 20008KT 15SM BKN250 24/21 A2998 RMK CI5 SLP150 DENSITY ALT 1300FT

CYGK;2015-08-18 01:00;CYGK 180100Z 22004KT 15SM SCT250 24/21 A2998 RMK CI3 SLP152 DENSITY ALT 1300FT

CYGK;2015-08-18 02:00;CYGK 180200Z 22003KT 15SM FEW250 24/22 A3000 RMK CI2 SLP157 DENSITY ALT 1200FT

CYGK;2015-08-18 03:00;CYGK 180300Z 19002KT 15SM FEW250 22/21 A2999 RMK CI1 LAST STFD OBS/NEXT 181000 UTC SLP156 DENSITY ALT 1100FT

CYGK;2015-08-18 10:00;CYGK 181000Z 20005KT 8SM BKN250 22/21 A2998 RMK CI5 SLP151 DENSITY ALT 1000FT

CYGK;2015-08-18 11:00;CYGK 181100Z 18006KT 8SM BKN250 22/22 A2998 RMK CI5 SLP152 DENSITY ALT 1100FT

CYGK;2015-08-18 12:00;CYGK 181200Z 17007KT 10SM BKN250 23/23 A2999 RMK CI5 SLP153 DENSITY ALT 1200FT

CYGK;2015-08-18 13:00;CYGK 181300Z 17007KT 10SM BKN250 24/23 A3000 RMK CI7 SLP157 DENSITY ALT 1300FT

CYGK;2015-08-18 14:00;CYGK 181400Z 17009KT 10SM SCT055 BKN250 25/23 A3000 RMK CU3CI3 SLP157 DENSITY ALT 1400FT

CYGK;2015-08-18 15:00;CYGK 181500Z 16006KT 8SM FEW058 BKN090 OVC220 24/23 A2999 RMK CU1AC4CI3 SLP155 DENSITY ALT 1300FT

CYGK;2015-08-18 16:00;CYGK 181600Z 18005KT 8SM FEW055 BKN090 BKN250 26/23 A2998 RMK CU2AC3CI2 SLP149 DENSITY ALT 1500FT

CYGK;2015-08-18 17:00;CYGK 181700Z 16005KT 8SM FEW030 FEW090 BKN200 26/22 A2996 RMK CU1AC2CI5 CU TR SLP144 DENSITY ALT 1500FT

CYGK;2015-08-18 18:00;CYGK 181800Z 18005KT 8SM FEW035 BKN220 26/22 A2995 RMK CU1CI6 SLP141 DENSITY ALT 1600FT

CYGK;2015-08-18 19:00;CYGK 181900Z 17004KT 10SM FEW035TCU BKN270 27/22 A2993 RMK TCU1CI6 TCU N AND SE CB TOP DIST SE SLP133 DENSITY ALT 1700FT

CYGK;2015-08-18 20:00;CYGK 182000Z 17005KT 10SM FEW035TCU FEW160 OVC250 28/22 A2991 RMK TCU1AC1CI6 TCU DIST NW-SE SLP127 DENSITY ALT 1800FT

CYGK;2015-08-18 21:00;CYGK 182100Z 17006KT 15SM SCT170 BKN270 28/21 A2990 RMK AC3CI4 CB TOP DIST SE AND N SLP125 DENSITY ALT 1800FT

CYGK;2015-08-18 22:00;CYGK 182200Z 18005KT 15SM SCT150 BKN270 26/22 A2991 RMK AC3CI4 CB TOP DIST S SLP127 DENSITY ALT 1600FT

CYGK;2015-08-18 23:00;CYGK 182300Z 18011KT 9SM FEW070 BKN120 OVC270 25/22 A2992 RMK AC1AC5CI2 SLP132 DENSITY ALT 1500FT

CYGK;2015-08-18 23:41;CYGK 182341Z 23008KT 9SM -SHRA FEW020TCU BKN100 OVC270 25/22 A2994 RMK TCU1AC5CI2 SLP137 DENSITY ALT 1400FT

CYGK;2015-08-19 00:00;CYGK 190000Z 24009G17KT 9SM -SHRA FEW050 BKN096 BKN130 OVC270 23/21 A2994 RMK SC1AC4AC1CI2 SLP137 DENSITY ALT 1300FT

CYGK;2015-08-19 00:50;CYGK 190050Z 32003KT 310V010 10SM FEW050 OVC130 22/21 A2993 RMK SC2AC6 SLP134 DENSITY ALT 1100FT

CYGK;2015-08-19 01:00;CYGK 190100Z 34002KT 10SM OVC130 22/21 A2993 RMK AC8 SLP135 DENSITY ALT 1100FT

CYGK;2015-08-19 02:00;CYGK 190200Z 15006KT 10SM BKN140 23/22 A2996 RMK AC7 SLP143 DENSITY ALT 1200FT

CYGK;2015-08-19 03:00;CYGK 190300Z 16006KT 10SM SCT064 BKN130 23/22 A2995 RMK SC3AC3 LAST STFD OBS/NEXT 191000 UTC SLP139 DENSITY ALT 1200FT

CYGK;2015-08-19 10:00;CYGK 191000Z VRB02KT 12SM FEW035 SCT060 BKN120 21/21 A2992 RMK CU2SC1AC4 SLP132 DENSITY ALT 1100FT

CYGK;2015-08-19 11:00;CYGK 191100Z 18011KT 10SM BKN033 OVC120 23/22 A2994 RMK CU5AC3 SLP136 DENSITY ALT 1300FT

CYGK;2015-08-19 12:00;CYGK 191200Z 17010KT 12SM FEW020 SCT035 OVC120 23/22 A2994 RMK CU1CU2AC5 SLP136 DENSITY ALT 1200FT

CYGK;2015-08-19 12:09;CYGK 191209Z 17011KT 12SM -SHRA FEW006 BKN025 OVC120 23/22 A2994 RMK SF2CU3AC3 SLP137 DENSITY ALT 1200FT

CYGK;2015-08-19 12:28;CYGK 191228Z 16009KT 12SM -SHRA BKN006 OVC030 23/22 A2995 RMK SF5SC3 SLP139 DENSITY ALT 1200FT

CYGK;2015-08-19 13:00;CYGK 191300Z 15012KT 12SM -SHRA SCT006 BKN032 23/22 A2994 RMK SF3SC3 SLP138 DENSITY ALT 1200FT

CYGK;2015-08-19 13:27;CYGK 191327Z 15012G17KT 12SM FEW008 SCT030 BKN120 24/22 A2994 RMK SF1CU2AC3 SLP137 DENSITY ALT 1400FT

CYGK;2015-08-19 14:00;CYGK 191400Z 16012KT 12SM FEW010 SCT030 SCT055 BKN120 25/22 A2994 RMK CF1SC2SC1AC3 SLP137 DENSITY ALT 1500FT

CYGK;2015-08-19 15:00;CYGK 191500Z 17014KT 12SM FEW010 SCT045 BKN130 25/22 A2993 RMK CF1SC3AC2 CF TR SLP135 DENSITY ALT 1500FT

CYGK;2015-08-19 16:00;CYGK 191600Z 17013KT 12SM FEW020 SCT050 BKN250 26/22 A2993 RMK CU1SC3CI1 SLP135 DENSITY ALT 1600FT

CYGK;2015-08-19 17:00;CYGK 191700Z 16010KT 12SM FEW027 BKN060 26/23 A2994 RMK CU1NS7 CU TR SLP136 DENSITY ALT 1500FT

CYGK;2015-08-19 18:00;CYGK 191800Z 16010KT 12SM FEW030 BKN050 OVC250 26/23 A2993 RMK CU1SC4CI3 SLP133 DENSITY ALT 1600FT

CYGK;2015-08-19 19:00;CYGK 191900Z 17010KT 15SM FEW020 SCT047 BKN150 27/23 A2992 RMK CU2SC2AC1 SLP130 DENSITY ALT 1700FT

CYGK;2015-08-19 20:00;CYGK 192000Z 16007KT 12SM FEW025 FEW150 SCT240 27/22 A2990 RMK CU1AC1CI2 AC TR SLP124 DENSITY ALT 1800FT

CYGK;2015-08-19 21:00;CYGK 192100Z 16009KT 15SM FEW025TCU FEW050 SCT270 27/23 A2989 RMK TCU1SC1CI1 SLP119 DENSITY ALT 1800FT

CYGK;2015-08-19 22:00;CYGK 192200Z 15005KT 12SM FEW025TCU SCT050 BKN270 27/23 A2988 RMK TCU1SC2CI2 SLP116 DENSITY ALT 1800FT

CYGK;2015-08-19 23:00;CYGK 192300Z 15007KT 12SM FEW060 BKN270 26/23 A2988 RMK SC2CI4 SLP116 DENSITY ALT 1600FT

CYGK;2015-08-20 00:00;CYGK 200000Z 15007KT 11SM BKN270 26/23 A2988 RMK CI7 CB TOP DIST W SLP116 DENSITY ALT 1600FT

CYGK;2015-08-20 01:00;CYGK 200100Z 14008KT 12SM BKN270 26/23 A2988 RMK CI5 SLP117 DENSITY ALT 1600FT

CYGK;2015-08-20 02:00;CYGK 200200Z 13010KT 12SM BKN080 BKN270 26/23 A2988 RMK AC5CI1 SLP116 DENSITY ALT 1700FT

CYGK;2015-08-20 03:00;CYGK 200300Z 14012KT 12SM SCT060 BKN090 26/23 A2988 RMK SC4AC1 LAST STFD OBS/NEXT 211000 UTC SLP116 DENSITY ALT 1600FT

CYGK;2015-08-20 10:00;CYGK 201000Z 15019G25KT 15SM BKN065 OVC250 24/22 A2984 RMK SC6CI2 SLP103 DENSITY ALT 1400FT

CYGK;2015-08-20 11:00;CYGK 201100Z 16022G30KT 15SM BKN070 OVC250 24/21 A2984 RMK SC6CI2 SLP104 DENSITY ALT 1400FT

CYGK;2015-08-20 12:00;CYGK 201200Z 16022G30KT 15SM BKN080 OVC250 24/21 A2984 RMK AC5CI3 SLP102 DENSITY ALT 1500FT

CYGK;2015-08-20 13:00;CYGK 201300Z 15021G29KT 15SM SCT083 BKN110 BKN250 24/21 A2984 RMK AC4AC1CI1 SLP105 DENSITY ALT 1500FT

CYGK;2015-08-20 14:00;CYGK 201400Z 15021G28KT 15SM FEW020 SCT080 BKN110 BKN250 25/21 A2984 RMK CU1AC2AC2CI1 SLP103 DENSITY ALT 1500FT

CYGK;2015-08-20 15:00;CYGK 201500Z 16022G27KT 15SM FEW025 SCT085 SCT110 BKN250 26/21 A2983 RMK CU1AC2AC1CI1 SLP101 DENSITY ALT 1700FT

CYGK;2015-08-20 15:50;CYGK 201550Z 16022G28KT 15SM -SHRA FEW025 BKN080 OVC250 25/21 A2982 RMK CU1AC4CI3 SLP098 DENSITY ALT 1600FT

CYGK;2015-08-20 16:00;CYGK 201600Z 16020G27KT 10SM -SHRA FEW020 BKN070 OVC250 24/22 A2983 RMK CU1AC5CI2 SLP099 DENSITY ALT 1500FT

CYGK;2015-08-20 16:30;CYGK 201630Z 16021G28KT 15SM FEW012 BKN070 BKN110 25/22 A2981 RMK CU1AC4AC2 SLP095 DENSITY ALT 1600FT

CYGK;2015-08-20 17:00;CYGK 201700Z 16019G27KT 15SM FEW017 BKN075 BKN100 BKN250 26/22 A2981 RMK CU1AC5AC1CI1 CU TR SLP092 DENSITY ALT 1700FT

CYGK;2015-08-20 18:00;CYGK 201800Z 17016KT 15SM FEW025 SCT055 BKN080 OVC250 26/22 A2980 RMK CU1SC2AC2CI3 SLP088 DENSITY ALT 1700FT

CYGK;2015-08-20 19:00;CYGK 201900Z 16016G23KT 15SM FEW020 BKN065 BKN120 BKN240 26/22 A2978 RMK CU1SC5AC1CI1 CU TR SLP082 DENSITY ALT 1800FT

CYGK;2015-08-20 19:40;CYGK 201940Z 16014G19KT 15SM -SHRA FEW020 BKN040 BKN100 OVC240 25/22 A2977 RMK CU1SC5AC2CI1 CU TR CVCTV CLD EMBD SLP080 DENSITY ALT 1700FT

CYGK;2015-08-20 20:00;CYGK 202000Z 17014G19KT 10SM -SHRA FEW025 BKN036 OVC100 25/22 A2977 RMK CU1SC6AC2 CU TR SLP081 DENSITY ALT 1600FT

CYGK;2015-08-20 20:15;CYGK 202015Z 19016G24KT 1 1/2SM -SHSN FEW020 BKN036 BKN100 24/23 A2978 RMK SF2SC4AC1 CNCTV CLD EMBD VIS S - SE 8 SLP084 DENSITY ALT 1500FT

CYGK;2015-08-20 20:45;CYGK 202045Z 21022G29KT 3/4SM SHRA BKN009 OVC022 23/23 A2980 RMK SF5SC3 PRESRR SLP090 DENSITY ALT 1400FT

CYGK;2015-08-20 21:00;CYGK 202100Z 24014G24KT 1 1/2SM SHRA OVC006 22/21 A2980 RMK SF8 CVCTV CLD DMBD SLP090 DENSITY ALT 1200FT

CYGK;2015-08-20 22:00;CYGK 202200Z 22010G18KT 2SM -SHRA OVC005 21/21 A2984 RMK SF8 CVCTV CLD EMBD PRESRR SLP102 DENSITY ALT 1100FT

CYGK;2015-08-20 22:15;CYGK 202215Z 23010G18KT 2SM -SHRA SCT006 OVC025 21/20 A2983 RMK SF3SC5 CVCTV CLD EMBD SLP101 DENSITY ALT 1100FT

CYGK;2015-08-20 23:00;CYGK 202300Z 21009KT 3SM -SHRA BR BKN005 OVC018 21/21 A2984 RMK SF6SC2 CVCTV CLD EMBD SLP105 DENSITY ALT 1100FT

CYGK;2015-08-20 23:40;CYGK 202340Z 23012G18KT 5SM -SHRA SCT007 BKN060 OVC100 21/20 A2984 RMK SF3SC4AC1 SLP105 DENSITY ALT 1100FT

CYGK;2015-08-21 00:00;CYGK 210000Z CCA 22010G16KT 7SM -SHRA FEW007 BKN060 BKN120 BKN240 20/20 A2984 RMK SF1SC5AC1CI1 CI TR VIS W 11 SLP105 DENSITY ALT 1000FT

CYGK;2015-08-21 00:25;CYGK 210025Z 24009KT 11SM FEW007 BKN070 BKN120 BKN240 21/19 A2983 RMK SF1AC6AC1CI1 SF TR CI TR SLP101 DENSITY ALT 1100FT

CYGK;2015-08-21 01:00;CYGK 210100Z 21008KT 12SM BKN090 BKN240 21/19 A2986 RMK AC6CI1 SLP109 DENSITY ALT 1100FT

CYGK;2015-08-21 02:00;CYGK 210200Z 21010KT 15SM BKN090 BKN160 BKN240 21/19 A2989 RMK AC5AC2CI1 CI TR SLP119 DENSITY ALT 1100FT

CYGK;2015-08-21 03:00;CYGK 210300Z 23010KT 15SM SCT160 SCT240 21/18 A2990 RMK AC4CI1 CI TR LAST STFD OBS/NEXT 211000 UTC SLP123 DENSITY ALT 1000FT

CYGK;2015-08-21 10:00;CYGK 211000Z 25004KT 15SM FEW025 SCT110 18/16 A2998 RMK CU1AC2 SLP150 DENSITY ALT 600FT

CYGK;2015-08-21 11:00;CYGK 211100Z 24005KT 15SM FEW025 SCT110 18/15 A2999 RMK CU1AC2 SLP156 DENSITY ALT 600FT

CYGK;2015-08-21 12:00;CYGK 211200Z 27007KT 15SM FEW030 BKN070 19/15 A3001 RMK CU1AC5 SLP162 DENSITY ALT 700FT

CYGK;2015-08-21 13:00;CYGK 211300Z 26008KT 15SM FEW035 BKN071 21/15 A3002 RMK CU1AC4 SLP166 DENSITY ALT 900FT

CYGK;2015-08-21 14:00;CYGK 211400Z 27009KT 15SM FEW035 BKN065 20/16 A3003 RMK CU1SC5 SLP169 DENSITY ALT 800FT

CYGK;2015-08-21 15:00;CYGK 211500Z 23010KT 200V270 15SM FEW035 BKN072 22/16 A3004 RMK CU2AC3 SLP171 DENSITY ALT 1000FT

CYGK;2015-08-21 16:00;CYGK 211600Z 22010KT 15SM SCT035 BKN070 22/16 A3005 RMK CU3AC3 SLP174 DENSITY ALT 1000FT

CYGK;2015-08-21 17:00;CYGK 211700Z 23015KT 15SM FEW035 BKN067 22/15 A3005 RMK CU2AC4 SLP176 DENSITY ALT 1000FT

CYGK;2015-08-21 18:00;CYGK 211800Z 24012G17KT 15SM FEW035 BKN070 22/14 A3006 RMK CU2AC4 SLP179 DENSITY ALT 1000FT

CYGK;2015-08-21 19:00;CYGK 211900Z 24014G19KT 15SM FEW035 SCT070 22/13 A3006 RMK CU2AC1 SLP178 DENSITY ALT 1000FT

CYGK;2015-08-21 20:00;CYGK 212000Z 22013G20KT 15SM FEW038 SCT070 22/14 A3006 RMK CU2AC1 SLP180 DENSITY ALT 900FT

CYGK;2015-08-21 21:00;CYGK 212100Z 23012KT 15SM SCT038 SCT070 23/14 A3006 RMK CU3AC1 SLP180 DENSITY ALT 1100FT

CYGK;2015-08-21 22:00;CYGK 212200Z 26009KT 15SM FEW038 SCT040 SCT080 21/14 A3007 RMK CU1SC2AC1 SLP183 DENSITY ALT 900FT

CYGK;2015-08-21 23:00;CYGK 212300Z 26010KT 15SM FEW038 FEW080 21/14 A3007 RMK CU1AC2 CU TR SLP184 DENSITY ALT 900FT

CYGK;2015-08-22 00:00;CYGK 220000Z 25006KT 15SM FEW038 FEW079 SCT240 20/15 A3009 RMK CU1AC1CI1 SLP188 DENSITY ALT 700FT

CYGK;2015-08-22 01:00;CYGK 220100Z 26005KT 15SM FEW079 19/15 A3010 RMK AC2 SLP192 DENSITY ALT 600FT

CYGK;2015-08-22 02:00;CYGK 220200Z 28003KT 15SM BKN082 19/15 A3011 RMK AC5 SLP195 DENSITY ALT 600FT

CYGK;2015-08-22 03:00;CYGK 220300Z 28004KT 15SM BKN080 18/15 A3012 RMK AC5 LAST STFD OBS / NEXT 221000 UTC SLP198 DENSITY ALT 500FT

CYGK;2015-08-22 10:00;CYGK 221000Z 32007KT 15SM FEW025 FEW070 13/13 A3016 RMK CF1AC1 CF TR AC TR SLP213

CYGK;2015-08-22 11:00;CYGK 221100Z 34005KT 15SM FEW025 FEW070 14/13 A3017 RMK CU1AC1 CU TR AC TR SLP216

CYGK;2015-08-22 12:00;CYGK 221200Z 34006KT 15SM FEW030 FEW070 16/14 A3019 RMK CU1AC1 CU TR AC TR SLP223

CYGK;2015-08-22 13:00;CYGK 221300Z 35004KT 310V020 15SM FEW030 FEW070 18/15 A3019 RMK CU1AC1 CU TR AC TR SLP222 DENSITY ALT 400FT

CYGK;2015-08-22 14:00;CYGK 221400Z 00000KT 15SM FEW030 20/13 A3019 RMK CU1 SLP222 DENSITY ALT 600FT

CYGK;2015-08-22 15:00;CYGK 221500Z 16006KT 130V190 15SM FEW030 21/15 A3019 RMK CU2 SLP222 DENSITY ALT 700FT

CYGK;2015-08-22 16:00;CYGK 221600Z 16005KT 140V210 15SM FEW040 21/15 A3018 RMK CU2 SLP221 DENSITY ALT 800FT

CYGK;2015-08-22 17:00;CYGK 221700Z 18007KT 15SM FEW040 SCT070 22/13 A3018 RMK CU2AC1 SLP219 DENSITY ALT 900FT

CYGK;2015-08-22 18:00;CYGK 221800Z 19008KT 15SM FEW050 FEW250 22/14 A3017 RMK CU2CI1 CI TR SLP217 DENSITY ALT 900FT

CYGK;2015-08-22 19:00;CYGK 221900Z 18008KT 15SM FEW050 FEW060 FEW250 23/15 A3016 RMK CU2SC1CI1 SC TR CI TR SLP214 DENSITY ALT 1000FT

CYGK;2015-08-22 20:00;CYGK 222000Z 19008KT 15SM FEW045 SCT053 SCT250 23/15 A3015 RMK CU1SC2CI1 CI TR SLP211 DENSITY ALT 1000FT

CYGK;2015-08-22 21:00;CYGK 222100Z 17006KT 150V240 15SM FEW045 BKN065 BKN250 23/15 A3014 RMK CU1SC4CI1 CI TR SLP208 DENSITY ALT 1000FT

CYGK;2015-08-22 22:00;CYGK 222200Z 19005KT 15SM FEW065 SCT250 23/15 A3014 RMK SC1CI3 SC TR SLP206 DENSITY ALT 1000FT

CYGK;2015-08-22 23:00;CYGK 222300Z 19005KT 15SM FEW065 SCT250 22/15 A3013 RMK SC1CI3 SC TR SLP203 DENSITY ALT 900FT

CYGK;2015-08-23 00:00;CYGK 230000Z 23004KT 15SM FEW065 SCT250 20/15 A3012 RMK SC1CI3 SC TR SLP201 DENSITY ALT 700FT

CYGK;2015-08-23 01:00;CYGK 230100Z 23003KT 15SM FEW250 19/14 A3013 RMK CI2 SLP203 DENSITY ALT 500FT

CYGK;2015-08-23 02:00;CYGK 230200Z VRB02KT 15SM FEW250 18/15 A3013 RMK CI1 SLP203 DENSITY ALT 400FT

CYGK;2015-08-23 03:00;CYGK 230300Z 34004KT 15SM SKC 17/15 A3013 RMK LAST STFD OBS/NEXT 231000 UTC SLP202

CYGK;2015-08-23 10:00;CYGK 231000Z 34005KT 15SM BKN070 14/14 A3009 RMK AC5 SLP190

CYGK;2015-08-23 11:00;CYGK 231100Z 34004KT 15SM BKN070 15/15 A3009 RMK AC5 SLP190

CYGK;2015-08-23 12:00;CYGK 231200Z 36004KT 15SM FEW025 BKN070 18/17 A3009 RMK CU1AC5 CU TR SLP189 DENSITY ALT 500FT

CYGK;2015-08-23 13:00;CYGK 231300Z 07007KT 15SM FEW015 BKN075 19/17 A3008 RMK CU1AC7 CU TR SLP186 DENSITY ALT 600FT

CYGK;2015-08-23 14:00;CYGK 231400Z 08004KT 15SM FEW020 BKN075 20/17 A3006 RMK CU1AC6 SLP181 DENSITY ALT 800FT

CYGK;2015-08-23 15:00;CYGK 231500Z 12007KT 15SM FEW025 BKN076 21/18 A3004 RMK CU1AC6 SLP174 DENSITY ALT 900FT

CYGK;2015-08-23 16:00;CYGK 231600Z 16007KT 15SM FEW030 SCT075 BKN250 22/18 A3003 RMK CU2AC2CI1 SLP168 DENSITY ALT 1100FT

CYGK;2015-08-23 17:00;CYGK 231700Z 17007KT 15SM FEW030 FEW075 FEW250 23/19 A3001 RMK CU1AC1CI1 AC TR SLP163 DENSITY ALT 1100FT

CYGK;2015-08-23 18:00;CYGK 231800Z 20008KT 15SM FEW030 SCT070 SCT250 23/18 A3001 RMK CU2AC1CI1 SLP161 DENSITY ALT 1100FT

CYGK;2015-08-23 19:00;CYGK 231900Z 18004KT 130V230 15SM FEW035 FEW072 SCT250 24/18 A2999 RMK CU1AC1CI1 SLP155 DENSITY ALT 1300FT

CYGK;2015-08-23 20:00;CYGK 232000Z 15005KT 110V180 15SM FEW035 FEW075 BKN250 24/17 A2996 RMK CU1AC1CI4 AC TR SLP146 DENSITY ALT 1300FT

CYGK;2015-08-23 21:00;CYGK 232100Z 19004KT 140V210 15SM FEW035 FEW075 SCT250 24/16 A2994 RMK CU1AC1CI3 AC TR SLP137 DENSITY ALT 1400FT

CYGK;2015-08-23 22:00;CYGK 232200Z 20004KT 15SM FEW035 FEW075 SCT250 24/15 A2994 RMK CU1AC1CI4 CU TR AC TR SLP139 DENSITY ALT 1300FT

CYGK;2015-08-23 23:00;CYGK 232300Z 23003KT 15SM FEW075 FEW250 23/14 A2993 RMK AC1CI2 AC TR SLP134 DENSITY ALT 1300FT

CYGK;2015-08-24 00:00;CYGK 240000Z 00000KT 15SM FEW075 FEW250 21/14 A2992 RMK AC1CI2 AC TR SLP130 DENSITY ALT 1000FT

CYGK;2015-08-24 01:00;CYGK 240100Z 00000KT 15SM FEW250 19/14 A2992 RMK CI2 SLP131 DENSITY ALT 800FT

CYGK;2015-08-24 02:00;CYGK 240200Z 08004KT 15SM FEW250 17/14 A2991 RMK CI2 SLP128 DENSITY ALT 600FT

CYGK;2015-08-24 03:00;CYGK 240300Z 00000KT 15SM FEW250 18/15 A2989 RMK CI2 LAST STFD OBS/NEXT 241000 UTC SLP120 DENSITY ALT 800FT

CYGK;2015-08-24 10:00;CYGK 241000Z 17016KT 15SM FEW140 SCT240 21/18 A2980 RMK AC1CI2 SLP091 DENSITY ALT 1200FT

CYGK;2015-08-24 11:00;CYGK 241100Z 17014G20KT 15SM FEW065 FEW140 21/18 A2980 RMK SC1AC1 SLP091 DENSITY ALT 1200FT

CYGK;2015-08-24 12:00;CYGK 241200Z 17017G22KT 15SM FEW040TCU SCT070 BKN140 22/18 A2980 RMK TCU1AC2AC3 SLP089 DENSITY ALT 1300FT

CYGK;2015-08-24 13:00;CYGK 241300Z 18015G22KT 15SM FEW040TCU SCT090 BKN120 BKN250 22/18 A2979 RMK TCU2AC2AC3CI1 CI TR SLP088 DENSITY ALT 1300FT

CYGK;2015-08-24 13:32;CYGK 241332Z 18018KT 15SM -SHRA BKN023 BKN090 22/18 A2979 RMK SC6AC1 TCU EMBDD SLP086 DENSITY ALT 1200FT

CYGK;2015-08-24 14:00;CYGK 241400Z 19019KT 15SM -SHRA BKN023 BKN050 21/19 A2979 RMK SC6SC1 TCU EMBDD SLP088 DENSITY ALT 1200FT

CYGK;2015-08-24 14:29;CYGK 241429Z 20016G22KT 15SM BKN022 OVC035 22/19 A2980 RMK SC5SC3 SLP090 DENSITY ALT 1200FT

CYGK;2015-08-24 14:42;CYGK 241442Z 21016G23KT 15SM -SHRA FEW010 BKN021TCU OVC035 21/19 A2980 RMK SF1TCU6SC1 SLP090 DENSITY ALT 1200FT

CYGK;2015-08-24 15:00;CYGK 241500Z 21014G20KT 12SM -SHRA FEW010 OVC015TCU 21/19 A2980 RMK SF1TCU7 SLP090 DENSITY ALT 1200FT

CYGK;2015-08-24 16:00;CYGK 241600Z 21012KT 12SM -SHRA FEW007 BKN052 BKN080 21/19 A2980 RMK CF1SC5AC1 SLP092 DENSITY ALT 1100FT

CYGK;2015-08-24 16:18;CYGK 241618Z 21011G17KT 15SM FEW007 FEW022 BKN050 BKN120 21/19 A2980 RMK SF1CU1SC4AC2 SF TR SLP090 DENSITY ALT 1200FT

CYGK;2015-08-24 17:00;CYGK 241700Z 21013G19KT 15SM FEW035 FEW050 SCT120 24/17 A2980 RMK CU1SC1AC1 SLP090 DENSITY ALT 1500FT

CYGK;2015-08-24 18:00;CYGK 241800Z 22016G21KT 15SM FEW035 FEW120 24/16 A2980 RMK CU1AC1 SLP091 DENSITY ALT 1500FT

CYGK;2015-08-24 19:00;CYGK 241900Z 22012G18KT 15SM FEW035 FEW120 24/17 A2981 RMK CU2AC1 AC TR SLP092 DENSITY ALT 1500FT

CYGK;2015-08-24 20:00;CYGK 242000Z 23015G20KT 15SM FEW030 FEW120 24/16 A2981 RMK CU1AC1 SLP093 DENSITY ALT 1500FT

CYGK;2015-08-24 21:00;CYGK 242100Z 23014G22KT 15SM FEW030 FEW120 23/14 A2982 RMK CU1AC1 AC TR SLP096 DENSITY ALT 1400FT

CYGK;2015-08-24 22:00;CYGK 242200Z 23011G20KT 15SM FEW030 FEW120 FEW240 23/14 A2982 RMK CU1AC1CI1 CU TR AC TR CI TR SLP098 DENSITY ALT 1400FT

CYGK;2015-08-24 23:00;CYGK 242300Z 22012KT 15SM FEW030 FEW120 FEW240 22/14 A2983 RMK CU1AC1CI1 CU TR AC TR CI TR SLP100 DENSITY ALT 1200FT

CYGK;2015-08-25 00:00;CYGK 250000Z 22008KT 15SM FEW120 FEW240 21/14 A2984 RMK AC1CI1 CI TR SLP102 DENSITY ALT 1100FT

CYGK;2015-08-25 01:00;CYGK 250100Z 25003KT 15SM FEW100 20/14 A2984 RMK AC2 SLP105 DENSITY ALT 1000FT

CYGK;2015-08-25 02:00;CYGK 250200Z 26004KT 15SM FEW093 20/15 A2984 RMK AC2 SLP106 DENSITY ALT 900FT

CYGK;2015-08-25 03:00;CYGK 250300Z 18004KT 180V270 15SM SCT097 19/15 A2984 RMK AC4 LAST STFD OBS/NEXT 251000 UTC SLP103 DENSITY ALT 900FT

CYGK;2015-08-25 10:00;CYGK 251000Z 22008KT 15SM FEW010 FEW100 19/15 A2983 RMK CF1AC2 CF TR SLP101 DENSITY ALT 800FT

CYGK;2015-08-25 11:00;CYGK 251100Z 23007KT 15SM FEW022 FEW050 SCT100 19/16 A2984 RMK CU1SC1AC1 SLP106 DENSITY ALT 900FT

CYGK;2015-08-25 12:00;CYGK 251200Z 25006KT 15SM FEW025 BKN090 20/15 A2986 RMK CU1AC6 SLP110 DENSITY ALT 900FT

CYGK;2015-08-25 13:00;CYGK 251300Z 23006KT 15SM FEW025 SCT040 BKN090 20/14 A2986 RMK CU2SC2AC3 SLP113 DENSITY ALT 1000FT

CYGK;2015-08-25 14:00;CYGK 251400Z 24009KT 15SM FEW025 SCT037 BKN090 21/14 A2987 RMK CU1SC3AC3 SHWRS W-NW SLP114 DENSITY ALT 1100FT

CYGK;2015-08-25 15:00;CYGK 251500Z 26007KT 15SM VCSH SCT030 BKN090 19/15 A2988 RMK CU3AC4 SLP118 DENSITY ALT 800FT

CYGK;2015-08-25 16:00;CYGK 251600Z 26009KT 230V300 15SM FEW015 FEW030 BKN090 20/15 A2989 RMK CF1CU1AC6 CF TR SHWRS NW SLP122 DENSITY ALT 900FT

CYGK;2015-08-25 17:00;CYGK 251700Z 29009KT 15SM FEW020 SCT060 BKN090 18/14 A2990 RMK CU2SC2AC3 SLP125 DENSITY ALT 700FT

CYGK;2015-08-25 17:18;CYGK 251718Z 28008KT 230V300 15SM -SHRA FEW020 BKN065 BKN090 18/14 A2990 RMK CU2SC4AC1 SLP124 DENSITY ALT 600FT

CYGK;2015-08-25 18:00;CYGK 251800Z 26007KT 15SM VCSH FEW020 BKN060 BKN080 17/14 A2990 RMK CU2SC3AC2 SLP124 DENSITY ALT 600FT

CYGK;2015-08-25 19:00;CYGK 251900Z 22009KT 15SM FEW020 SCT060 BKN080 BKN250 19/15 A2990 RMK CU2SC1AC3CI1 SH DIST ALQDS SLP124 DENSITY ALT 800FT

CYGK;2015-08-25 20:00;CYGK 252000Z 23011KT 15SM FEW025 BKN070 OVC100 19/12 A2989 RMK CU2AC3AC3 SLP121 DENSITY ALT 900FT

CYGK;2015-08-25 21:00;CYGK 252100Z 24010G16KT 15SM FEW025 BKN075 19/12 A2989 RMK CU2AC5 SLP123 DENSITY ALT 800FT

CYGK;2015-08-25 22:00;CYGK 252200Z 24011G17KT 15SM FEW030 FEW080 SCT100 20/12 A2989 RMK CU1AC1AC1 SLP123 DENSITY ALT 900FT

CYGK;2015-08-25 23:00;CYGK 252300Z 24010KT 15SM FEW030 FEW100 19/12 A2989 RMK CU1AC2 CU TR SLP123 DENSITY ALT 800FT

CYGK;2015-08-26 00:00;CYGK 260000Z 26008KT 15SM FEW038 SCT090 18/11 A2991 RMK CU1AC4 CU TR SLP128 DENSITY ALT 700FT

CYGK;2015-08-26 01:00;CYGK 260100Z 26010KT 15SM SCT090 18/12 A2992 RMK AC3 SLP131 DENSITY ALT 700FT

CYGK;2015-08-26 02:00;CYGK 260200Z 26005KT 15SM FEW090 17/12 A2993 RMK AC2 SLP134 DENSITY ALT 600FT

CYGK;2015-08-26 03:00;CYGK 260300Z 25004KT 15SM FEW090 17/12 A2993 RMK AC2 LAST STFD OBS / NEXT 261000 UTC SLP135 DENSITY ALT 500FT

CYGK;2015-08-26 10:00;CYGK 261000Z 27004KT 15SM FEW025 BKN090 14/13 A2995 RMK CU1AC6 SLP141

CYGK;2015-08-26 11:00;CYGK 261100Z 30004KT 15SM FEW025 BKN085 15/13 A2996 RMK CU1AC6 SLP145

CYGK;2015-08-26 12:00;CYGK 261200Z 31003KT 15SM FEW025 BKN085 16/14 A2997 RMK CU1AC6 SLP150 DENSITY ALT 400FT

CYGK;2015-08-26 13:00;CYGK 261300Z 27005KT 15SM FEW025 BKN090 18/14 A2998 RMK CU1AC5 SLP152 DENSITY ALT 600FT

CYGK;2015-08-26 14:00;CYGK 261400Z 24008KT 15SM FEW030 BKN085 18/13 A2999 RMK CU1AC6 SLP157 DENSITY ALT 600FT

CYGK;2015-08-26 15:00;CYGK 261500Z 23008KT 15SM FEW030 BKN083 19/14 A3000 RMK CU1AC6 SLP158 DENSITY ALT 800FT

CYGK;2015-08-26 16:00;CYGK 261600Z 23006KT 15SM SCT035 BKN085 20/14 A3000 RMK CU3AC4 SLP160 DENSITY ALT 800FT

CYGK;2015-08-26 17:00;CYGK 261700Z 22009KT 15SM SCT045 BKN083 21/14 A2999 RMK CU3AC4 SLP155 DENSITY ALT 1000FT

CYGK;2015-08-26 18:00;CYGK 261800Z 22011KT 15SM FEW030 BKN045 BKN085 21/15 A2998 RMK CU1CU4AC2 SLP152 DENSITY ALT 1000FT

CYGK;2015-08-26 19:00;CYGK 261900Z 22013G18KT 15SM SCT030 BKN087 21/15 A2998 RMK CU3AC3 SLP151 DENSITY ALT 1000FT

CYGK;2015-08-26 20:00;CYGK 262000Z 24010G17KT 15SM FEW030 SCT060 BKN094 22/15 A2997 RMK CU2SC2AC2 SLP148 DENSITY ALT 1100FT

CYGK;2015-08-26 21:00;CYGK 262100Z 24011KT 15SM FEW025 SCT040 BKN100 20/14 A2996 RMK CU2SC2AC2 SLP147 DENSITY ALT 900FT

CYGK;2015-08-26 22:00;CYGK 262200Z 23011KT 15SM SCT025 BKN097 20/15 A2996 RMK CU3AC4 SLP147 DENSITY ALT 800FT

CYGK;2015-08-26 23:00;CYGK 262300Z 27009KT 15SM FEW025 SCT045 BKN100 19/14 A2997 RMK CU1SC2AC4 SHWRS NE SLP148 DENSITY ALT 800FT

CYGK;2015-08-27 00:00;CYGK 270000Z 26008KT 15SM FEW020 SCT045 BKN100 19/15 A2998 RMK CU1SC2AC4 SLP151 DENSITY ALT 700FT

CYGK;2015-08-27 01:00;CYGK 270100Z 26005KT 15SM FEW020 SCT040 BKN070 18/14 A2999 RMK CU1SC3AC2 CU TR SLP156 DENSITY ALT 600FT

CYGK;2015-08-27 02:00;CYGK 270200Z 28007KT 15SM SCT028 BKN070 17/14 A3001 RMK SC4AC3 SLP161 DENSITY ALT 500FT

CYGK;2015-08-27 03:00;CYGK 270300Z 28008KT 15SM FEW028 BKN057 17/13 A3001 RMK SC1SC5 LAST STFD OBS/NEXT 271000UTC SLP161 DENSITY ALT 400FT

CYGK;2015-08-27 10:00;CYGK 271000Z 30005KT 15SM FEW020 BKN050 BKN075 14/13 A3004 RMK CU1SC5AC2 CU TR SLP172

CYGK;2015-08-27 11:00;CYGK 271100Z 31006KT 15SM FEW020 BKN065 BKN085 15/13 A3005 RMK CU1SC4AC1 SLP177

CYGK;2015-08-27 12:00;CYGK 271200Z 32007KT 15SM FEW025 SCT065 BKN085 15/14 A3007 RMK CU1SC3AC1 SLP183

CYGK;2015-08-27 13:00;CYGK 271300Z 32009KT 15SM FEW025 BKN073 17/13 A3008 RMK CU1AC5 SLP186

CYGK;2015-08-27 14:00;CYGK 271400Z 32006KT 280V350 15SM FEW025 BKN065 18/13 A3009 RMK CU2SC4 SLP188 DENSITY ALT 500FT

CYGK;2015-08-27 15:00;CYGK 271500Z 32010KT 280V020 15SM FEW031 BKN065 BKN120 19/12 A3009 RMK CU2SC4AC1 AC TR SLP190 DENSITY ALT 600FT

CYGK;2015-08-27 16:00;CYGK 271600Z 33007KT 250V340 15SM FEW030 BKN045 19/11 A3009 RMK CU1SC6 SLP190 DENSITY ALT 600FT

CYGK;2015-08-27 17:00;CYGK 271700Z 31004KT 250V320 15SM FEW030 BKN051 20/12 A3009 RMK CU2SC5 SLP191 DENSITY ALT 700FT

CYGK;2015-08-27 18:00;CYGK 271800Z 32007KT 15SM FEW030 OVC055 20/12 A3010 RMK CU2SC6 SLP192 DENSITY ALT 700FT

CYGK;2015-08-27 19:00;CYGK 271900Z 29004KT 15SM BKN040 BKN057 20/12 A3010 RMK CU5SC2 SHWRS N-E SLP192 DENSITY ALT 700FT

CYGK;2015-08-27 20:00;CYGK 272000Z 33005KT 14SM SCT040 BKN060 20/12 A3008 RMK CU3SC4 SLP186 DENSITY ALT 700FT

CYGK;2015-08-27 21:00;CYGK 272100Z 31005KT 270V340 15SM SCT043 BKN060 20/12 A3009 RMK CU3SC4 SLP188 DENSITY ALT 700FT

CYGK;2015-08-27 22:00;CYGK 272200Z 28009KT 15SM FEW042 BKN063 20/13 A3009 RMK CU2SC5 SLP190 DENSITY ALT 700FT

CYGK;2015-08-27 23:00;CYGK 272300Z 27006KT 15SM FEW025 FEW040 BKN064 19/13 A3010 RMK CF1SC1SC5 SLP193 DENSITY ALT 600FT

CYGK;2015-08-28 00:00;CYGK 280000Z 26005KT 15SM FEW025 FEW040 BKN063 18/13 A3011 RMK CF1SC1SC6 CF TR SLP196 DENSITY ALT 500FT

CYGK;2015-08-28 01:00;CYGK 280100Z 28005KT 15SM BKN064 18/13 A3013 RMK SC5 SLP203 DENSITY ALT 400FT

CYGK;2015-08-28 02:00;CYGK 280200Z 27005KT 15SM FEW064 16/13 A3013 RMK SC1 SLP203

CYGK;2015-08-28 03:00;CYGK 280300Z 27004KT 15SM FEW010 FEW065 16/13 A3013 RMK CF1SC1 CF TR LAST STFD OBS/NEXT 281000UTC SLP204

CYGK;2015-08-28 10:00;CYGK 281000Z 35005KT 15SM FEW020 SCT040 11/11 A3016 RMK CU1SC2 SLP214

CYGK;2015-08-28 11:00;CYGK 281100Z 01003KT 15SM FEW030 11/11 A3018 RMK CU2 SLP220

CYGK;2015-08-28 12:00;CYGK 281200Z 04004KT 15SM FEW030 15/14 A3018 RMK CU1 SLP222

CYGK;2015-08-28 13:00;CYGK 281300Z VRB02KT 15SM FEW030 18/15 A3020 RMK CU1 SLP226

CYGK;2015-08-28 14:00;CYGK 281400Z 26004KT 210V280 15SM FEW020 19/16 A3020 RMK CU2 SLP229 DENSITY ALT 400FT

CYGK;2015-08-28 15:00;CYGK 281500Z 22009KT 15SM SCT022 20/14 A3021 RMK CU3 SLP230 DENSITY ALT 600FT

CYGK;2015-08-28 16:00;CYGK 281600Z 25008KT 15SM SCT030 21/14 A3020 RMK SC4 SLP228 DENSITY ALT 600FT

CYGK;2015-08-28 17:00;CYGK 281700Z 24007KT 210V280 15SM SCT034 20/13 A3019 RMK SC4 SLP223 DENSITY ALT 600FT

CYGK;2015-08-28 18:00;CYGK 281800Z 23009KT 15SM BKN038 21/13 A3019 RMK SC5 SLP223 DENSITY ALT 700FT

CYGK;2015-08-28 19:00;CYGK 281900Z 22007KT 15SM SCT039 BKN250 21/14 A3019 RMK SC4CI1 SLP223 DENSITY ALT 800FT

CYGK;2015-08-28 20:00;CYGK 282000Z 19012KT 15SM SCT038 BKN250 21/15 A3017 RMK SC3CI2 SLP218 DENSITY ALT 700FT

CYGK;2015-08-28 21:00;CYGK 282100Z 19011KT 15SM SCT037 SCT250 21/15 A3016 RMK SC3CI1 SLP213 DENSITY ALT 700FT

CYGK;2015-08-28 22:00;CYGK 282200Z 22007KT 15SM FEW035 SCT280 21/14 A3015 RMK SC1CI3 SLP211 DENSITY ALT 700FT

CYGK;2015-08-28 23:00;CYGK 282300Z 20008KT 15SM FEW035 BKN280 19/15 A3016 RMK SC1CI7 SC TR SLP213 DENSITY ALT 600FT

CYGK;2015-08-29 00:00;CYGK 290000Z 20005KT 15SM BKN280 18/14 A3016 RMK CI6 SLP215 DENSITY ALT 400FT

CYGK;2015-08-29 01:00;CYGK 290100Z 22005KT 15SM BKN280 18/14 A3017 RMK CI5 SLP215 DENSITY ALT 400FT

CYGK;2015-08-29 02:00;CYGK 290200Z 23006KT 15SM BKN280 18/14 A3017 RMK CI6 SLP218 DENSITY ALT 400FT

CYGK;2015-08-29 03:00;CYGK 290300Z 28003KT 15SM BKN280 16/14 A3018 RMK CI5 LAST STFD OBS/NEXT 291000UTC SLP218

CYGK;2015-08-29 10:00;CYGK 291000Z 36003KT 15SM FEW150 BKN250 13/12 A3014 RMK AC2CI4 SLP206

CYGK;2015-08-29 11:00;CYGK 291100Z 02002KT 15SM FEW030 BKN250 12/12 A3015 RMK CU2CI5 SLP211

CYGK;2015-08-29 12:00;CYGK 291200Z 35003KT 15SM FEW030 BKN250 14/14 A3016 RMK CU2CI5 SLP213

CYGK;2015-08-29 12:16;CYGK 291216Z 35002KT 15SM FEW013 BKN250 16/16 A3016 RMK CU2CI5 SLP213

CYGK;2015-08-29 13:00;CYGK 291300Z 00000KT 15SM FEW013 BKN230 19/18 A3015 RMK CU1CI6 SLP209 DENSITY ALT 500FT

CYGK;2015-08-29 14:00;CYGK 291400Z 22004KT 180V270 15SM FEW020 BKN200 21/18 A3014 RMK CU1CI6 SLP208 DENSITY ALT 700FT

CYGK;2015-08-29 15:00;CYGK 291500Z 23006KT 15SM FEW020 BKN200 22/17 A3015 RMK CU1CI4 SLP209 DENSITY ALT 800FT

CYGK;2015-08-29 16:00;CYGK 291600Z 21006KT 15SM SCT025 BKN200 23/16 A3015 RMK CU3CI3 SLP210 DENSITY ALT 1000FT

CYGK;2015-08-29 17:00;CYGK 291700Z 20007KT 15SM FEW025 BKN200 22/18 A3014 RMK CU2CI5 SLP205 DENSITY ALT 900FT

CYGK;2015-08-29 18:00;CYGK 291800Z 18010KT 15SM FEW030 BKN220 23/19 A3012 RMK CU2CI5 SLP200 DENSITY ALT 1000FT

CYGK;2015-08-29 19:00;CYGK 291900Z 19013KT 15SM FEW030 SCT089 BKN180 22/18 A3011 RMK CU2AC2AC3 SLP195 DENSITY ALT 900FT

CYGK;2015-08-29 19:25;CYGK 291925Z 20013KT 15SM -SHRA SCT026 BKN100 OVC190 21/18 A3011 RMK CU3AC4CI1 SLP196 DENSITY ALT 800FT

CYGK;2015-08-29 19:45;CYGK 291945Z 20012G17KT 15SM FEW026 BKN120 OVC190 21/18 A3011 RMK CU1AC6CI1 SLP195 DENSITY ALT 800FT

CYGK;2015-08-29 20:00;CYGK 292000Z 21011KT 15SM FEW026 BKN150 OVC190 21/17 A3011 RMK CU1AC6CI1 SLP195 DENSITY ALT 800FT

CYGK;2015-08-29 21:00;CYGK 292100Z 25009KT 15SM FEW032 OVC170 21/16 A3010 RMK CU1AC7 SLP192 DENSITY ALT 800FT

CYGK;2015-08-29 22:00;CYGK 292200Z 25007KT 15SM FEW120 BKN200 22/17 A3009 RMK AC2CC5 SLP190 DENSITY ALT 900FT

CYGK;2015-08-29 23:00;CYGK 292300Z 23004KT 15SM FEW100 BKN160 21/16 A3009 RMK AC2AC5 SLP188 DENSITY ALT 800FT

CYGK;2015-08-30 00:00;CYGK 300000Z 23005KT 15SM OVC160 20/16 A3009 RMK AC8 SLP188 DENSITY ALT 700FT

CYGK;2015-08-30 01:00;CYGK 300100Z 26004KT 15SM OVC160 20/15 A3009 RMK AC8 SLP191 DENSITY ALT 700FT

CYGK;2015-08-30 02:00;CYGK 300200Z 28004KT 15SM FEW100 OVC160 20/15 A3009 RMK AC1AC7 SLP191 DENSITY ALT 700FT

CYGK;2015-08-30 03:00;CYGK 300300Z 20003KT 200V280 15SM OVC140 19/16 A3008 RMK AC8 LAST STFD OBS/NEXT 301000 UTC SLP186 DENSITY ALT 600FT

CYGK;2015-08-30 10:00;CYGK 301000Z 33003KT 12SM FEW020 SCT060 BKN090 17/16 A3006 RMK CU1SC3AC2 SLP180 DENSITY ALT 400FT

CYGK;2015-08-30 11:00;CYGK 301100Z 35004KT 8SM SCT100 BKN250 16/16 A3008 RMK AC4CI2 SLP187

CYGK;2015-08-30 12:00;CYGK 301200Z 33002KT 10SM FEW050 BKN070 OVC250 18/17 A3008 RMK CU1SC5CI2 SLP186 DENSITY ALT 400FT

CYGK;2015-08-30 13:00;CYGK 301300Z 02003KT 12SM FEW050 BKN080 BKN250 20/18 A3009 RMK SC1AC5CI1 SLP188 DENSITY ALT 700FT

CYGK;2015-08-30 14:00;CYGK 301400Z 36004KT 12SM OVC085 21/18 A3009 RMK AC8 SLP191 DENSITY ALT 800FT

CYGK;2015-08-30 15:00;CYGK 301500Z VRB02KT 10SM OVC075 22/18 A3010 RMK AC8 SLP193 DENSITY ALT 900FT

CYGK;2015-08-30 16:00;CYGK 301600Z 15004KT 120V180 15SM FEW025 OVC080 22/19 A3009 RMK CU2AC6 SLP191 DENSITY ALT 1000FT

CYGK;2015-08-30 17:00;CYGK 301700Z 17005KT 12SM FEW025 BKN070 23/19 A3008 RMK CU1AC6 SLP185 DENSITY ALT 1000FT

CYGK;2015-08-30 18:00;CYGK 301800Z 16007KT 12SM FEW040 BKN080 BKN250 23/19 A3006 RMK CU1AC4CI1 SLP179 DENSITY ALT 1100FT

CYGK;2015-08-30 19:00;CYGK 301900Z 19007KT 15SM FEW040 BKN080 BKN250 23/17 A3006 RMK CU1AC5CI1 SLP177 DENSITY ALT 1100FT

CYGK;2015-08-30 20:00;CYGK 302000Z 19008KT 15SM FEW040 SCT080 SCT250 24/18 A3004 RMK CU1AC2CI1 SLP171 DENSITY ALT 1200FT

CYGK;2015-08-30 21:00;CYGK 302100Z 19009KT 15SM FEW040 FEW080 23/18 A3002 RMK CU1AC1 CU TR AC TR SLP165 DENSITY ALT 1200FT

CYGK;2015-08-30 22:00;CYGK 302200Z 18007KT 15SM FEW080 FEW200 22/18 A3002 RMK AC1CI1 SLP165 DENSITY ALT 1100FT

CYGK;2015-08-30 23:00;CYGK 302300Z 18006KT 15SM FEW080 FEW200 22/19 A3001 RMK AC2CI1 CI TR SLP162 DENSITY ALT 1000FT

CYGK;2015-08-31 00:00;CYGK 310000Z 19006KT 15SM FEW063 FEW200 21/19 A3001 RMK SC2CI1 CI TR SLP161 DENSITY ALT 900FT

CYGK;2015-08-31 01:00;CYGK 310100Z 21007KT 15SM SCT068 21/19 A3002 RMK AC3 SLP165 DENSITY ALT 900FT

CYGK;2015-08-31 02:00;CYGK 310200Z 21005KT 15SM FEW065 20/19 A3001 RMK SC1 SC TR SLP163 DENSITY ALT 700FT

CYGK;2015-08-31 03:00;CYGK 310300Z 22006KT 15SM SKC 20/18 A3000 RMK LAST STFD OBS/NEXT 311000 UTC SLP158 DENSITY ALT 800FT

CYGK;2015-08-31 10:00;CYGK 311000Z 24008KT 12SM FEW060 FEW280 20/20 A2996 RMK SC1CI1 SLP145 DENSITY ALT 900FT

CYGK;2015-08-31 10:22;CYGK 311022Z 25007KT 8SM FEW006 FEW060 20/19 A2996 RMK SF1SC1 SC TR SLP146 DENSITY ALT 900FT

CYGK;2015-08-31 11:00;CYGK 311100Z 25006KT 6SM BR FEW006 FEW050 20/19 A2997 RMK SF1SC1 SLP149 DENSITY ALT 900FT

CYGK;2015-08-31 12:00;CYGK 311200Z 27005KT 5SM BR FEW005 SCT045 20/19 A2998 RMK SF2SC1 SLP153 DENSITY ALT 800FT

CYGK;2015-08-31 13:00;CYGK 311300Z 28007KT 5SM BR FEW005 SCT060 21/20 A3000 RMK SF1SC2 SLP157 DENSITY ALT 1000FT

CYGK;2015-08-31 14:00;CYGK 311400Z 27007KT 6SM BR FEW012 24/20 A3000 RMK SF1 SF TR SLP157 DENSITY ALT 1200FT

CYGK;2015-08-31 15:00;CYGK 311500Z 23009KT 7SM FEW045 24/21 A3000 RMK CU1 SLP157 DENSITY ALT 1300FT

CYGK;2015-08-31 16:00;CYGK 311600Z 23011KT 7SM SCT027 26/21 A3000 RMK CU3 SLP158 DENSITY ALT 1500FT

CYGK;2015-08-31 17:00;CYGK 311700Z 24010KT 220V290 9SM BKN032 27/20 A2999 RMK CU6 SLP153 DENSITY ALT 1600FT

CYGK;2015-08-31 18:00;CYGK 311800Z 28009KT 260V330 8SM BKN033 27/20 A2998 RMK CU5 SLP151 DENSITY ALT 1600FT

CYGK;2015-08-31 19:00;CYGK 311900Z 28007KT 230V320 10SM BKN036 28/20 A2998 RMK CU5 SLP149 DENSITY ALT 1700FT

CYGK;2015-08-31 20:00;CYGK 312000Z 29007KT 10SM BKN041 27/19 A2996 RMK CU6 SLP145 DENSITY ALT 1700FT

CYGK;2015-08-31 21:00;CYGK 312100Z 31007KT 12SM SCT041 BKN057 27/19 A2996 RMK CU3SC3 SLP144 DENSITY ALT 1600FT

CYGK;2015-08-31 22:00;CYGK 312200Z 28006KT 12SM FEW040 FEW058 SCT240 27/19 A2997 RMK CU1SC1CI2 SLP146 DENSITY ALT 1600FT

CYGK;2015-08-31 23:00;CYGK 312300Z 28004KT 10SM FEW057 SCT240 25/20 A2998 RMK SC1CI3 SLP150 DENSITY ALT 1500FT

CYGK;2015-09-01 00:00;CYGK 010000Z 24006KT 10SM FEW057 SCT240 23/21 A2998 RMK SC1CI4 SC TR SLP152 DENSITY ALT 1200FT

CYGK;2015-09-01 01:00;CYGK 010100Z 24007KT 10SM SCT240 23/21 A2999 RMK CI3 SLP155 DENSITY ALT 1100FT

CYGK;2015-09-01 02:00;CYGK 010200Z 27005KT 10SM SCT240 22/20 A3000 RMK CI3 SLP158 DENSITY ALT 1000FT

CYGK;2015-09-01 03:00;CYGK 010300Z 04004KT 10SM FEW042 SCT240 20/19 A3001 RMK SC1CI3 SC TR LAST STFD OBS/NEXT 011000 UTC SLP161 DENSITY ALT 800FT

CYGK;2015-09-01 10:00;CYGK 011000Z 01003KT 1/8SM FG VV002 17/17 A3004 RMK FG8 SLP171 DENSITY ALT 400FT

CYGK;2015-09-01 11:00;CYGK 011100Z 03002KT 1/8SM FG VV004 16/16 A3005 RMK FG8 SLP175

CYGK;2015-09-01 12:00;CYGK 011200Z 08003KT 360V100 1/8SM FG VV002 19/19 A3006 RMK FG8 SLP179 DENSITY ALT 600FT

CYGK;2015-09-01 13:00;CYGK 011300Z 09003KT 040V110 1/8SM FG VV001 20/20 A3006 RMK FG8 SLP178 DENSITY ALT 700FT

CYGK;2015-09-01 13:12;CYGK 011312Z 07003KT 1/4SM FG VV003 20/20 A3006 RMK FG8 SLP178 DENSITY ALT 800FT

CYGK;2015-09-01 13:25;CYGK 011325Z 09003KT 050V130 3/8SM FG VV004 20/20 A3007 RMK FG8 SLP181 DENSITY ALT 800FT

CYGK;2015-09-01 13:39;CYGK 011339Z 09003KT 1/2SM FG VV004 21/21 A3007 RMK FG8 SLP181 DENSITY ALT 800FT

CYGK;2015-09-01 13:46;CYGK 011346Z 15003KT 060V180 1SM BR OVC004 21/21 A3007 RMK FG4ST4 SLP181 DENSITY ALT 800FT

CYGK;2015-09-01 14:00;CYGK 011400Z 18004KT 130V220 1 1/2SM BR OVC003 21/21 A3007 RMK FG3ST5 SLP181 DENSITY ALT 800FT

CYGK;2015-09-01 14:06;CYGK 011406Z VRB02KT 2SM BR BKN002 OVC006 21/21 A3007 RMK SF6SF2 SLP181 DENSITY ALT 800FT

CYGK;2015-09-01 14:14;CYGK 011414Z 16003KT 080V190 3SM BR BKN003 21/21 A3007 RMK SF7 VIS N-NE 2 SLP181 DENSITY ALT 800FT

CYGK;2015-09-01 14:41;CYGK 011441Z 16004KT 140V220 4SM BR FEW002 BKN004 21/21 A3007 RMK SF2SF4 SLP182 DENSITY ALT 900FT

CYGK;2015-09-01 15:00;CYGK 011500Z 17004KT 110V200 4SM BR FEW002 BKN006 22/21 A3007 RMK SF1SF6 SLP181 DENSITY ALT 1000FT

CYGK;2015-09-01 15:25;CYGK 011525Z 19005KT 5SM BR FEW002 SCT007 23/22 A3007 RMK SF1SF3 SLP181 DENSITY ALT 1100FT

CYGK;2015-09-01 15:46;CYGK 011546Z 18007KT 2 1/2SM BR SCT003 OVC006 23/21 A3007 RMK SF4ST4 SLP181 DENSITY ALT 1000FT

CYGK;2015-09-01 16:00;CYGK 011600Z 19008KT 1 1/2SM BR BKN002 OVC005 22/21 A3007 RMK SF6ST2 SLP181 DENSITY ALT 1000FT

CYGK;2015-09-01 16:26;CYGK 011626Z 19010KT 2SM BR BKN002 22/21 A3007 RMK SF7 SLP181 DENSITY ALT 1000FT

CYGK;2015-09-01 16:39;CYGK 011639Z 18010KT 3SM BR FEW003 23/21 A3006 RMK SF2 SLP179 DENSITY ALT 1100FT

CYGK;2015-09-01 16:44;CYGK 011644Z 19011KT 4SM BR SCT003 23/21 A3006 RMK SF4 SLP179 DENSITY ALT 1100FT

CYGK;2015-09-01 17:00;CYGK 011700Z 19011KT 4SM BR SCT003 23/21 A3006 RMK SF3 SLP180 DENSITY ALT 1000FT

CYGK;2015-09-01 17:35;CYGK 011735Z 18010KT 5SM BR FEW007 23/21 A3006 RMK CF1 SLP177 DENSITY ALT 1100FT

CYGK;2015-09-01 18:00;CYGK 011800Z 19010KT 10SM FEW015 24/21 A3005 RMK CU1 SLP176 DENSITY ALT 1200FT

CYGK;2015-09-01 19:00;CYGK 011900Z 22010KT 10SM FEW020 25/21 A3004 RMK CU1 SLP172 DENSITY ALT 1400FT

CYGK;2015-09-01 20:00;CYGK 012000Z 19012KT 8SM FEW020 24/21 A3003 RMK CU1 SLP170 DENSITY ALT 1200FT

CYGK;2015-09-01 21:00;CYGK 012100Z 19010KT 8SM FEW020 24/21 A3003 RMK CU1 CU TR SLP168 DENSITY ALT 1200FT

CYGK;2015-09-01 22:00;CYGK 012200Z 18010KT 7SM SKC 23/21 A3003 RMK SLP167 DENSITY ALT 1100FT

CYGK;2015-09-01 23:00;CYGK 012300Z 19009KT 6SM HZ SKC 22/21 A3002 RMK SLP167 DENSITY ALT 1000FT

CYGK;2015-09-02 00:00;CYGK 020000Z 19009KT 6SM HZ SKC 21/21 A3002 RMK SLP165 DENSITY ALT 1000FT

CYGK;2015-09-02 01:00;CYGK 020100Z 20007KT 6SM HZ SKC 21/21 A3003 RMK SLP170 DENSITY ALT 900FT

CYGK;2015-09-02 02:00;CYGK 020200Z 22006KT 6SM HZ SKC 21/20 A3004 RMK SLP171 DENSITY ALT 900FT

CYGK;2015-09-02 03:00;CYGK 020300Z 21008KT 8SM SKC 21/20 A3003 RMK LAST STFD OBS/NEXT 021000 UTC SLP168 DENSITY ALT 900FT

CYGK;2015-09-02 10:00;CYGK 021000Z VRB02KT 1/2SM FG VV001 19/19 A3000 RMK FG8 SLP158 DENSITY ALT 600FT

CYGK;2015-09-02 10:10;CYGK 021010Z 34003KT 1/8SM FG VV001 19/19 A3000 RMK FG8 SLP159 DENSITY ALT 600FT

CYGK;2015-09-02 11:00;CYGK 021100Z 32002KT 0SM FG VV001 19/19 A3001 RMK FG8 SLP162 DENSITY ALT 700FT

CYGK;2015-09-02 12:02;CYGK 021202Z 28002KT 1/4SM FG VV002 20/20 A3002 RMK FG8 SLP166 DENSITY ALT 700FT

CYGK;2015-09-02 12:21;CYGK 021221Z 23003KT 1/8SM FG VV001 20/20 A3002 RMK FG8 SLP166 DENSITY ALT 800FT

CYGK;2015-09-02 12:35;CYGK 021235Z 24003KT 210V290 1/4SM FG VV001 20/20 A3002 RMK FG8 SLP166 DENSITY ALT 800FT

CYGK;2015-09-02 13:00;CYGK 021300Z VRB02KT 1/2SM FG VV001 20/20 A3002 RMK FG8 SLP166 DENSITY ALT 800FT

CYGK;2015-09-02 13:04;CYGK 021304Z 00000KT 3/4SM BR VV002 20/20 A3002 RMK FG8 SLP165 DENSITY ALT 800FT

CYGK;2015-09-02 13:11;CYGK 021311Z 00000KT 1SM BR BKN002 20/20 A3002 RMK FG2SF5 SLP164 DENSITY ALT 800FT

CYGK;2015-09-02 13:26;CYGK 021326Z 00000KT 1 1/2SM BR BKN002 20/20 A3002 RMK FG1SF6 VIS SW 1/2 SLP164 DENSITY ALT 800FT

CYGK;2015-09-02 14:00;CYGK 021400Z 24003KT 170V270 1 1/2SM BR BKN002 20/20 A3002 RMK FG1SF6 VIS SW 1/2 SLP165 DENSITY ALT 800FT

CYGK;2015-09-02 14:22;CYGK 021422Z VRB02KT 1 3/4SM BR OVC004 21/21 A3002 RMK FG2SF6 SLP165 DENSITY ALT 900FT

CYGK;2015-09-02 14:39;CYGK 021439Z 20003KT 170V250 2SM BR BKN006 21/21 A3002 RMK FG1CF6 SLP165 DENSITY ALT 900FT

CYGK;2015-09-02 15:00;CYGK 021500Z 18007KT 2SM BR SCT002 BKN007 22/21 A3001 RMK FG1SF2CF4 SLP162 DENSITY ALT 1000FT

CYGK;2015-09-02 15:10;CYGK 021510Z 18005KT 4SM BR FEW002 SCT007 22/21 A3001 RMK SF1CF2 SLP161 DENSITY ALT 1100FT

CYGK;2015-09-02 16:00;CYGK 021600Z 19005KT 160V240 4SM BR FEW008 BKN200 24/21 A3000 RMK CF1CI4 SLP159 DENSITY ALT 1300FT

CYGK;2015-09-02 17:00;CYGK 021700Z 17009KT 4SM BR FEW010 BKN250 23/21 A3000 RMK CU1CI5 SLP157 DENSITY ALT 1200FT

CYGK;2015-09-02 18:00;CYGK 021800Z 19011KT 3SM BR FEW003 SCT012 BKN250 24/22 A2998 RMK SF2CU1CI4 VIS S 11/2 SLP152 DENSITY ALT 1300FT

CYGK;2015-09-02 18:08;CYGK 021808Z 18011KT 3SM BR BKN002 BKN250 24/22 A2998 RMK SF5CI2 VIS S-SW 11/2 SLP151 DENSITY ALT 1300FT

CYGK;2015-09-02 18:18;CYGK 021818Z 18011KT 2 1/2SM BR BKN002 BKN250 24/22 A2998 RMK SF6CI1 VIS S-SW 1 SLP151 DENSITY ALT 1300FT

CYGK;2015-09-02 18:46;CYGK 021846Z 18009KT 3SM BR BKN003 OVC200 24/22 A2998 RMK SF6CI2 SLP150 DENSITY ALT 1300FT

CYGK;2015-09-02 19:00;CYGK 021900Z 18010KT 3SM BR SCT003 BKN150 OVC230 24/22 A2997 RMK SF4AC2CI2 SLP148 DENSITY ALT 1300FT

CYGK;2015-09-02 20:00;CYGK 022000Z 19009KT 4SM BR FEW003 BKN230 24/22 A2995 RMK SF2CI5 SLP142 DENSITY ALT 1300FT

CYGK;2015-09-02 21:00;CYGK 022100Z 17008KT 5SM BR FEW004 BKN220 24/22 A2994 RMK SF2CI5 SLP138 DENSITY ALT 1300FT

CYGK;2015-09-02 22:00;CYGK 022200Z 17008KT 5SM BR FEW004 BKN220 23/22 A2993 RMK SF1CI6 SLP134 DENSITY ALT 1300FT

CYGK;2015-09-02 23:00;CYGK 022300Z 18007KT 4SM BR FEW120 BKN250 23/22 A2991 RMK AC1CI6 SLP128 DENSITY ALT 1200FT

CYGK;2015-09-03 00:00;CYGK 030000Z 18006KT 3SM BR BKN250 22/22 A2991 RMK CI6 SLP127 DENSITY ALT 1200FT

CYGK;2015-09-03 01:00;CYGK 030100Z 20004KT 4SM BR BKN250 22/22 A2992 RMK CI5 SLP132 DENSITY ALT 1200FT

CYGK;2015-09-03 02:00;CYGK 030200Z 23007KT 4SM BR SCT250 22/21 A2992 RMK CI4 SLP133 DENSITY ALT 1100FT

CYGK;2015-09-03 03:00;CYGK 030300Z 23006KT 5SM BR BKN250 22/21 A2992 RMK CI6 LAST STFD OBS / NEXT 031000 UTC SLP131 DENSITY ALT 1200FT

CYGK;2015-09-03 10:00;CYGK 031000Z 03002KT 2SM BR SCT069 BKN250 19/19 A2990 RMK FG1AC3CI1 VIS S 1 SLP123 DENSITY ALT 800FT

CYGK;2015-09-03 11:00;CYGK 031100Z 36003KT 2SM BR SCT065 BKN220 20/20 A2991 RMK AC3CI4 SLP129 DENSITY ALT 900FT

CYGK;2015-09-03 11:41;CYGK 031141Z 03003KT 3SM BR SCT034 BKN067 OVC220 20/20 A2993 RMK SC3AC3CI2 SLP135 DENSITY ALT 900FT

CYGK;2015-09-03 12:00;CYGK 031200Z 07002KT 3SM BR SCT032 BKN070 OVC210 21/21 A2993 RMK CU3AC2CI3 SLP134 DENSITY ALT 1000FT

CYGK;2015-09-03 13:00;CYGK 031300Z 04006KT 5SM BR SCT032 SCT060 BKN210 23/21 A2993 RMK CU3SC1CI3 SLP133 DENSITY ALT 1200FT

CYGK;2015-09-03 14:00;CYGK 031400Z 03005KT 5SM BR SCT036 OVC190 25/22 A2993 RMK CU3AS5 SLP134 DENSITY ALT 1500FT

CYGK;2015-09-03 15:00;CYGK 031500Z 12005KT 030V180 6SM BR FEW016 SCT040 BKN190 BKN250 26/22 A2994 RMK SF1CU2AS2CI2 SLP137 DENSITY ALT 1600FT

CYGK;2015-09-03 16:00;CYGK 031600Z 16007KT 6SM BR SCT019 BKN190 BKN270 25/22 A2994 RMK CU4AS2CI1 SLP138 DENSITY ALT 1400FT

CYGK;2015-09-03 17:00;CYGK 031700Z 16005KT 6SM BR SCT029 SCT080 BKN220 27/23 A2993 RMK CU3AS1CI3 SLP135 DENSITY ALT 1600FT

CYGK;2015-09-03 18:00;CYGK 031800Z 15006KT 140V260 6SM BR SCT030 BKN270 27/23 A2994 RMK CU4CI3 SLP137 DENSITY ALT 1700FT

CYGK;2015-09-03 19:00;CYGK 031900Z 14006KT 6SM BR SCT035TCU BKN220 27/22 A2993 RMK TCU3CI3 SLP133 DENSITY ALT 1700FT

CYGK;2015-09-03 20:00;CYGK 032000Z 18007KT 8SM SCT035TCU BKN220 26/24 A2992 RMK TCU3CI4 SLP130 DENSITY ALT 1600FT

CYGK;2015-09-03 21:00;CYGK 032100Z 13004KT 090V190 6SM HZ FEW035TCU SCT250 27/23 A2991 RMK TCU2CI1 SLP127 DENSITY ALT 1800FT

CYGK;2015-09-03 22:00;CYGK 032200Z 03007KT 340V150 8SM FEW035 FEW050 FEW250 28/19 A2993 RMK CU1SC1CI1 SC TR SLP134 DENSITY ALT 1800FT

CYGK;2015-09-03 23:00;CYGK 032300Z 05005KT 10SM FEW030 FEW050 SCT280 26/18 A2994 RMK CU1SC1CI4 CU TR SC TR CB TOP DIST SW SLP138 DENSITY ALT 1600FT

CYGK;2015-09-04 00:00;CYGK 040000Z 13002KT 10SM FEW050 SCT280 24/20 A2995 RMK SC1CI3 SC TR SLP141 DENSITY ALT 1400FT

CYGK;2015-09-04 01:00;CYGK 040100Z 35004KT 12SM FEW040 FEW280 21/19 A2997 RMK SC1CI1 SLP147 DENSITY ALT 1000FT

CYGK;2015-09-04 02:00;CYGK 040200Z 03006KT 15SM FEW045 23/19 A2998 RMK SC1 SLP152 DENSITY ALT 1200FT

CYGK;2015-09-04 03:00;CYGK 040300Z 03006KT 15SM SKC 22/19 A2998 RMK LAST STFD OBS/NEXT 041000UTC SLP152 DENSITY ALT 1100FT

CYGK;2015-09-04 10:00;CYGK 041000Z 03008KT 15SM FEW240 17/16 A3007 RMK CI1 CI TR SLP181 DENSITY ALT 400FT

CYGK;2015-09-04 11:00;CYGK 041100Z 03008KT 15SM SCT240 17/14 A3010 RMK CI3 SLP191 DENSITY ALT 400FT

CYGK;2015-09-04 12:00;CYGK 041200Z 04011KT 15SM SCT240 18/12 A3012 RMK CI4 SLP197 DENSITY ALT 500FT

CYGK;2015-09-04 13:00;CYGK 041300Z 05008KT 15SM SCT240 19/12 A3013 RMK CI4 SLP203 DENSITY ALT 600FT

CYGK;2015-09-04 14:00;CYGK 041400Z 04009KT 15SM SCT240 21/12 A3015 RMK CI4 SLP209 DENSITY ALT 800FT

CYGK;2015-09-04 15:00;CYGK 041500Z 03011KT 15SM SCT240 24/11 A3015 RMK CI4 SLP208 DENSITY ALT 1100FT

CYGK;2015-09-04 16:00;CYGK 041600Z 05009G15KT 15SM SCT240 25/11 A3014 RMK CI4 SLP205 DENSITY ALT 1300FT

CYGK;2015-09-04 17:00;CYGK 041700Z 04009G16KT 15SM SCT240 26/10 A3014 RMK CI3 SLP206 DENSITY ALT 1400FT

CYGK;2015-09-04 18:00;CYGK 041800Z 02014KT 360V070 15SM BKN240 27/10 A3013 RMK CI5 SLP201 DENSITY ALT 1500FT

CYGK;2015-09-04 19:00;CYGK 041900Z 04012G19KT 15SM BKN280 27/10 A3013 RMK CI5 SLP203 DENSITY ALT 1500FT

CYGK;2015-09-04 20:00;CYGK 042000Z 05010G17KT 15SM BKN250 27/11 A3012 RMK CI5 SLP200 DENSITY ALT 1500FT

CYGK;2015-09-04 21:00;CYGK 042100Z 05007KT 020V090 15SM SCT280 28/11 A3012 RMK CI4 SLP199 DENSITY ALT 1600FT

CYGK;2015-09-04 22:00;CYGK 042200Z 05011KT 15SM SCT280 26/12 A3013 RMK CI4 SLP203 DENSITY ALT 1400FT

CYGK;2015-09-04 23:00;CYGK 042300Z 04008KT 15SM BKN280 24/13 A3014 RMK CI6 SLP207 DENSITY ALT 1100FT

CYGK;2015-09-05 00:00;CYGK 050000Z 05009KT 15SM SCT280 23/14 A3015 RMK CI4 SLP209 DENSITY ALT 1000FT

CYGK;2015-09-05 01:00;CYGK 050100Z 05008KT 15SM FEW280 21/14 A3017 RMK CI2 SLP217 DENSITY ALT 800FT

CYGK;2015-09-05 02:00;CYGK 050200Z 04010KT 15SM SKC 20/13 A3018 RMK SLP221 DENSITY ALT 700FT

CYGK;2015-09-05 03:00;CYGK 050300Z 05011KT 15SM SKC 20/13 A3017 RMK LAST STFD OBS/NEXT 051000UTC SLP218 DENSITY ALT 600FT

CYGK;2015-09-05 10:00;CYGK 051000Z 04004KT 15SM FEW080 FEW240 16/14 A3019 RMK AC1CI1 AC TR CI TR SLP223

CYGK;2015-09-05 11:00;CYGK 051100Z 04006KT 15SM FEW070 FEW240 17/15 A3021 RMK AC1CI1 CI TR SLP230

CYGK;2015-09-05 12:00;CYGK 051200Z 05005KT 15SM SCT028 SCT240 18/16 A3023 RMK SC3CI1 CI TR SLP236

CYGK;2015-09-05 13:00;CYGK 051300Z 08005KT 030V090 15SM FEW042 SCT240 21/18 A3023 RMK CU1CI2 SLP236 DENSITY ALT 600FT

CYGK;2015-09-05 14:00;CYGK 051400Z 14008KT 15SM FEW042 FEW240 23/20 A3022 RMK CU1CI1 CU TR CI TR SLP234 DENSITY ALT 900FT

CYGK;2015-09-05 15:00;CYGK 051500Z 17011KT 12SM FEW042 25/21 A3022 RMK CU1 CU TR SLP233 DENSITY ALT 1100FT

CYGK;2015-09-05 16:00;CYGK 051600Z 18011G16KT 10SM FEW042 25/21 A3021 RMK CU1 CU TR VIA CYXU SLP229 DENSITY ALT 1200FT

CYGK;2015-09-05 17:00;CYGK 051700Z 17011KT 10SM FEW240 25/21 A3019 RMK CI1 CI TR SLP222 DENSITY ALT 1200FT

CYGK;2015-09-05 18:00;CYGK 051800Z 17009KT 10SM FEW220 25/22 A3017 RMK CI1 CI TR SLP218 DENSITY ALT 1200FT

CYGK;2015-09-05 19:00;CYGK 051900Z 18008KT 7SM FEW030 FEW220 26/21 A3017 RMK CU1CI1 CU TR CI TR SLP216 DENSITY ALT 1300FT

CYGK;2015-09-05 20:00;CYGK 052000Z 17006KT 7SM FEW030 FEW220 26/21 A3016 RMK CU1CI1 CU TR CI TR SLP213 DENSITY ALT 1400FT

CYGK;2015-09-05 21:00;CYGK 052100Z 16004KT 7SM SKC 27/21 A3016 RMK SLP212 DENSITY ALT 1400FT

CYGK;2015-09-05 22:00;CYGK 052200Z 15004KT 8SM FEW030TCU 26/21 A3014 RMK TCU1 TCU TR SLP207 DENSITY ALT 1400FT

CYGK;2015-09-05 23:00;CYGK 052300Z 00000KT 8SM FEW030TCU 26/21 A3014 RMK TCU1 TCU TR SLP206 DENSITY ALT 1300FT

CYGK;2015-09-06 00:00;CYGK 060000Z 00000KT 8SM FEW280 22/20 A3014 RMK CI1 SLP205 DENSITY ALT 900FT

CYGK;2015-09-06 01:00;CYGK 060100Z 32003KT 10SM SKC 22/20 A3015 RMK SLP208 DENSITY ALT 900FT

CYGK;2015-09-06 02:00;CYGK 060200Z 08003KT 10SM SKC 22/21 A3014 RMK SLP206 DENSITY ALT 800FT

CYGK;2015-09-06 03:00;CYGK 060300Z 09003KT 10SM SKC 21/21 A3014 RMK LAST STFD OBS/NEXT 061000UTC SLP204 DENSITY ALT 800FT

CYGK;2015-09-06 10:00;CYGK 061000Z 18012KT 15SM FEW025 22/21 A3012 RMK CF1 CF TR SLP199 DENSITY ALT 900FT

CYGK;2015-09-06 11:00;CYGK 061100Z 18012KT 10SM FEW025 22/21 A3014 RMK CF1 CF TR SLP205 DENSITY ALT 900FT

CYGK;2015-09-06 12:00;CYGK 061200Z 19013G19KT 9SM FEW010 BKN016 22/21 A3015 RMK CF1SC6 CF TR SLP210 DENSITY ALT 900FT

CYGK;2015-09-06 13:00;CYGK 061300Z 19012KT 8SM BKN015 BKN120 23/21 A3014 RMK SC5AC1 SLP207 DENSITY ALT 1000FT

CYGK;2015-09-06 14:00;CYGK 061400Z 19012KT 8SM FEW016 FEW240 24/21 A3014 RMK CF1CI1 SLP207 DENSITY ALT 1100FT

CYGK;2015-09-06 15:00;CYGK 061500Z 19013KT 8SM FEW018 FEW240 24/21 A3015 RMK CF1CI1 CI TR SLP210 DENSITY ALT 1200FT

CYGK;2015-09-06 16:00;CYGK 061600Z 19011KT 8SM FEW018 FEW220 25/21 A3014 RMK CF2CI1 CI TR SLP207 DENSITY ALT 1300FT

CYGK;2015-09-06 17:00;CYGK 061700Z 18012KT 8SM FEW018 FEW220 25/21 A3013 RMK CF1CI1 CF TR SLP202 DENSITY ALT 1300FT

CYGK;2015-09-06 18:00;CYGK 061800Z 18011KT 8SM FEW018 FEW220 25/21 A3012 RMK CF1CI1 CF TR SLP197 DENSITY ALT 1300FT

CYGK;2015-09-06 19:00;CYGK 061900Z 18012KT 7SM SKC 25/21 A3011 RMK HZ SLP194 DENSITY ALT 1300FT

CYGK;2015-09-06 20:00;CYGK 062000Z 19012KT 7SM FEW030 25/22 A3009 RMK CU1 CU TR SLP190 DENSITY ALT 1300FT

CYGK;2015-09-06 21:00;CYGK 062100Z 18009KT 6SM HZ FEW220 25/22 A3008 RMK CI1 CI TR SLP184 DENSITY ALT 1300FT

CYGK;2015-09-06 22:00;CYGK 062200Z 20007KT 6SM HZ FEW270 26/22 A3006 RMK CI1 SLP180 DENSITY ALT 1400FT

CYGK;2015-09-06 23:00;CYGK 062300Z 19009KT 6SM HZ FEW150 SCT270 25/22 A3005 RMK AC1CI2 SLP174 DENSITY ALT 1300FT

CYGK;2015-09-06 23:35;CYGK 062335Z 20007KT 7SM FEW150 SCT270 24/21 A3003 RMK AC1CI2 HZ SLP170 DENSITY ALT 1300FT

CYGK;2015-09-07 00:00;CYGK 070000Z 23005KT 7SM FEW150 FEW270 24/21 A3003 RMK AC1CI1 HZ SLP170 DENSITY ALT 1200FT

CYGK;2015-09-07 01:00;CYGK 070100Z 22005KT 7SM FEW150 24/21 A3004 RMK AC1 SLP171 DENSITY ALT 1200FT

CYGK;2015-09-07 02:00;CYGK 070200Z 22004KT 7SM SKC 23/21 A3004 RMK SLP171 DENSITY ALT 1100FT

CYGK;2015-09-07 03:00;CYGK 070300Z 20003KT 7SM SKC 23/22 A3003 RMK LAST STFD OBS/NEXT 071000 UTC SLP168 DENSITY ALT 1100FT

CYGK;2015-09-07 10:00;CYGK 071000Z 21007KT 10SM FEW230 22/21 A2999 RMK CI1 CI TR SLP154 DENSITY ALT 1100FT

CYGK;2015-09-07 11:00;CYGK 071100Z 21009KT 10SM FEW230 22/21 A3000 RMK CI2 SLP158 DENSITY ALT 1100FT

CYGK;2015-09-07 12:00;CYGK 071200Z 22008KT 9SM FEW230 23/22 A3001 RMK CI2 SLP162 DENSITY ALT 1200FT

CYGK;2015-09-07 13:00;CYGK 071300Z 22007KT 8SM FEW150 FEW230 24/22 A3000 RMK AC1CI2 AC TR SLP159 DENSITY ALT 1300FT

CYGK;2015-09-07 14:00;CYGK 071400Z 19011KT 10SM FEW150 SCT230 25/22 A3000 RMK AC1CI4 AC TR SLP157 DENSITY ALT 1400FT

CYGK;2015-09-07 15:00;CYGK 071500Z 19011KT 10SM FEW150 BKN230 27/23 A2999 RMK AC1CI6 AC TR SLP154 DENSITY ALT 1600FT

CYGK;2015-09-07 16:00;CYGK 071600Z 21011KT 10SM FEW025 BKN230 29/22 A2998 RMK CU1CI5 CU TR SLP152 DENSITY ALT 1800FT

CYGK;2015-09-07 17:00;CYGK 071700Z 23012G18KT 12SM FEW025 FEW230 30/22 A2997 RMK CU1CI2 CU TR SLP148 DENSITY ALT 2000FT

CYGK;2015-09-07 18:00;CYGK 071800Z 19016KT 10SM FEW025 SCT230 27/22 A2996 RMK CU1CI3 CU TR SLP144 DENSITY ALT 1600FT

CYGK;2015-09-07 19:00;CYGK 071900Z 19013KT 10SM FEW035 FEW230 27/23 A2994 RMK CU1CI2 CU TR SLP138 DENSITY ALT 1700FT

CYGK;2015-09-07 20:00;CYGK 072000Z 19011KT 10SM FEW230 28/23 A2992 RMK CI2 SLP131 DENSITY ALT 1800FT

CYGK;2015-09-07 21:00;CYGK 072100Z 20011KT 10SM FEW170 FEW270 28/22 A2990 RMK AC2CI1 CI TR SLP125 DENSITY ALT 1800FT

CYGK;2015-09-07 22:00;CYGK 072200Z 19010KT 10SM SCT170 BKN240 28/22 A2989 RMK AC3CI2 SLP122 DENSITY ALT 1800FT

CYGK;2015-09-07 23:00;CYGK 072300Z 22007KT 10SM SCT170 BKN240 27/22 A2990 RMK AC3CI3 CB TOP DIST N SLP123 DENSITY ALT 1700FT

CYGK;2015-09-08 00:00;CYGK 080000Z 23007KT 10SM SCT190 BKN250 26/22 A2990 RMK AC3CI3 SLP123 DENSITY ALT 1600FT

CYGK;2015-09-08 01:00;CYGK 080100Z 23005KT 10SM BKN210 25/22 A2991 RMK CI5 SLP128 DENSITY ALT 1500FT

CYGK;2015-09-08 02:00;CYGK 080200Z 25008KT 10SM FEW063 BKN210 26/21 A2992 RMK SC2CI4 SLP129 DENSITY ALT 1600FT

CYGK;2015-09-08 03:00;CYGK 080300Z 25006KT 10SM SCT060 BKN097 OVC220 26/21 A2992 RMK SC3AC2CI3 LAST STFD OBS/NEXT 081000 UTC SLP131 DENSITY ALT 1600FT

CYGK;2015-09-08 10:00;CYGK 081000Z 30005KT 12SM BKN060 BKN090 23/20 A2996 RMK SC5AC2 SLP145 DENSITY ALT 1200FT

CYGK;2015-09-08 10:16;CYGK 081016Z 29005KT 12SM -RA SCT060 BKN090 23/20 A2997 RMK SC4AC3 VIS W 6 SLP146 DENSITY ALT 1200FT

CYGK;2015-09-08 11:00;CYGK 081100Z 31004KT 8SM SCT045 BKN090 BKN140 22/21 A2998 RMK SC4AC2AC1 INTMT -RA SLP149 DENSITY ALT 1000FT

CYGK;2015-09-08 12:00;CYGK 081200Z 31004KT 8SM BKN037 BKN070 22/21 A2998 RMK SC5AC2 SLP151 DENSITY ALT 1000FT

CYGK;2015-09-08 13:00;CYGK 081300Z 28003KT 250V330 12SM BKN028 BKN076 OVC250 23/22 A2998 RMK SC5AC2CI1 SLP152 DENSITY ALT 1200FT

CYGK;2015-09-08 14:00;CYGK 081400Z 24003KT 210V280 8SM FEW010 FEW030 BKN058 BKN250 24/22 A2998 RMK CU1SC1SC5CI1 CU TR SLP151 DENSITY ALT 1300FT

CYGK;2015-09-08 15:00;CYGK 081500Z 23004KT 10SM FEW015 BKN060 OVC250 24/21 A2998 RMK CU1SC6CI2 CU TR SLP150 DENSITY ALT 1300FT

CYGK;2015-09-08 16:00;CYGK 081600Z 17005KT 10SM FEW015 SCT040 BKN060 OVC250 25/22 A2997 RMK CU1SC3SC4CI1 CU TR SLP147 DENSITY ALT 1400FT

CYGK;2015-09-08 17:00;CYGK 081700Z 18008KT 10SM FEW017 BKN058 OVC210 24/22 A2996 RMK CU1SC5CI3 CU TR SLP144 DENSITY ALT 1300FT

CYGK;2015-09-08 18:00;CYGK 081800Z 17007KT 10SM FEW025TCU SCT047 BKN070 BKN210 25/23 A2994 RMK TCU1SC2AC3CI1 SLP138 DENSITY ALT 1400FT

CYGK;2015-09-08 19:00;CYGK 081900Z 18006KT 150V210 10SM FEW025 SCT047 BKN190 26/22 A2993 RMK CU1SC4CI3 CU TR SLP134 DENSITY ALT 1600FT

CYGK;2015-09-08 20:00;CYGK 082000Z 19005KT 10SM FEW025 SCT050 BKN210 25/23 A2990 RMK CU1SC3CI4 CU TR SLP124 DENSITY ALT 1500FT

CYGK;2015-09-08 21:00;CYGK 082100Z 15005KT 9SM FEW025 FEW060 BKN200 25/22 A2988 RMK CU1SC1CI6 CU TR SLP117 DENSITY ALT 1500FT

CYGK;2015-09-08 22:00;CYGK 082200Z 15003KT 9SM FEW060 FEW160 BKN200 25/22 A2987 RMK SC1AC1CI6 AC TR SLP114 DENSITY ALT 1500FT

CYGK;2015-09-08 23:00;CYGK 082300Z 15004KT 10SM FEW160 BKN200 24/22 A2986 RMK AC1CI6 SLP111 DENSITY ALT 1500FT

CYGK;2015-09-09 00:00;CYGK 090000Z 14004KT 10SM BKN240 24/22 A2986 RMK CI6 SLP109 DENSITY ALT 1500FT

CYGK;2015-09-09 01:00;CYGK 090100Z 00000KT 10SM BKN240 23/22 A2986 RMK CI6 SLP109 DENSITY ALT 1300FT

CYGK;2015-09-09 02:00;CYGK 090200Z 17002KT 10SM FEW120 BKN240 23/22 A2985 RMK AC1CI5 SLP107 DENSITY ALT 1300FT

CYGK;2015-09-09 03:00;CYGK 090300Z 18003KT 10SM FEW120 BKN240 24/23 A2983 RMK AC1CI4 LAST STFD OBS/NEXT 091000 UTC SLP100 DENSITY ALT 1500FT

CYGK;2015-09-09 10:00;CYGK 091000Z 22013G19KT 12SM FEW120 BKN250 24/21 A2977 RMK AC2CI4 SLP078 DENSITY ALT 1600FT

CYGK;2015-09-09 11:00;CYGK 091100Z 24008KT 12SM FEW120 BKN250 24/21 A2978 RMK AC1CI6 SLP085 DENSITY ALT 1500FT

CYGK;2015-09-09 12:00;CYGK 091200Z 22009G15KT 12SM FEW030TCU FEW120 BKN250 25/21 A2979 RMK TCU1AC1CI5 TCU TR SLP087 DENSITY ALT 1600FT

CYGK;2015-09-09 13:00;CYGK 091300Z 22009KT 10SM SCT120 BKN250 25/21 A2979 RMK ACC3CI4 SLP088 DENSITY ALT 1700FT

CYGK;2015-09-09 14:00;CYGK 091400Z 23011KT 10SM FEW035 SCT110 BKN250 26/22 A2980 RMK CU1AC3CI2 SLP091 DENSITY ALT 1800FT

CYGK;2015-09-09 15:00;CYGK 091500Z 23009KT 10SM SCT023TCU SCT060 BKN090 BKN250 28/22 A2980 RMK TCU3SC1AC2CI1 SLP088 DENSITY ALT 1900FT

CYGK;2015-09-09 16:00;CYGK 091600Z 25008KT 10SM -SHRA SCT025TCU BKN050 OVC110 26/21 A2980 RMK TCU4SC2AC2 SLP089 DENSITY ALT 1700FT

CYGK;2015-09-09 16:33;CYGK 091633Z 31013KT 12SM -SHRA SCT020TCU BKN050 OVC120 24/20 A2981 RMK TCU4SC1AC3 SLP093 DENSITY ALT 1500FT

CYGK;2015-09-09 17:00;CYGK 091700Z 30009KT 15SM -SHRA SCT020TCU BKN040 OVC120 24/20 A2981 RMK TCU4SC2AC2 SLP093 DENSITY ALT 1500FT

CYGK;2015-09-09 17:40;CYGK 091740Z 29009KT 10SM FEW020TCU SCT040 BKN140 24/20 A2981 RMK TCU1SC2AC4 SLP092 DENSITY ALT 1500FT

CYGK;2015-09-09 18:00;CYGK 091800Z 28009KT 15SM FEW020TCU FEW040 OVC140 24/19 A2981 RMK TCU1SC1AC6 SLP093 DENSITY ALT 1500FT

CYGK;2015-09-09 19:00;CYGK 091900Z 31011G17KT 15SM FEW025 BKN150 25/18 A2981 RMK CU1AC7 CU TR SLP095 DENSITY ALT 1600FT

CYGK;2015-09-09 20:00;CYGK 092000Z 27009KT 250V320 15SM FEW025 BKN150 BKN250 25/19 A2981 RMK CU1AC5CI1 SLP093 DENSITY ALT 1600FT

CYGK;2015-09-09 21:00;CYGK 092100Z 31010G16KT 15SM FEW025 BKN150 BKN200 25/18 A2981 RMK CU1AC5CI1 CU TR SLP094 DENSITY ALT 1600FT

CYGK;2015-09-09 22:00;CYGK 092200Z 28003KT 15SM FEW025TCU BKN150 BKN200 24/18 A2982 RMK TCU1AC6CI1 TCU TR TCU DIST S SLP096 DENSITY ALT 1500FT

CYGK;2015-09-09 23:00;CYGK 092300Z CCA 27007KT 15SM FEW025 SCT160 SCT210 23/17 A2984 RMK CF1AC3CI1 CF TR SLP103 DENSITY ALT 1400FT

CYGK;2015-09-10 00:00;CYGK 100000Z 29005KT 15SM FEW160 SCT200 21/15 A2986 RMK AC2CI2 SLP110 DENSITY ALT 1100FT

CYGK;2015-09-10 01:00;CYGK 100100Z 29005KT 15SM FEW220 20/15 A2988 RMK CI1 SLP117 DENSITY ALT 1000FT

CYGK;2015-09-10 02:00;CYGK 100200Z 29008KT 15SM FEW220 19/14 A2989 RMK CI1 SLP120 DENSITY ALT 800FT

CYGK;2015-09-10 03:00;CYGK 100300Z 30005KT 15SM FEW220 18/13 A2991 RMK CI2 LAST STFD OBS/NEXT 101000 UTC SLP126 DENSITY ALT 700FT

CYGK;2015-09-10 10:00;CYGK 101000Z 35006KT 15SM SCT150 BKN250 14/12 A2994 RMK AC3CI4 SLP139

CYGK;2015-09-10 11:00;CYGK 101100Z 36006KT 15SM SCT150 BKN250 13/12 A2996 RMK AC3CI3 SLP144

CYGK;2015-09-10 12:00;CYGK 101200Z 35006KT 15SM FEW150 BKN270 15/13 A2996 RMK AC2CI5 SLP147

CYGK;2015-09-10 13:00;CYGK 101300Z 02007KT 350V060 15SM FEW200 BKN250 18/13 A2998 RMK CI2CI5 SLP151 DENSITY ALT 600FT

CYGK;2015-09-10 14:00;CYGK 101400Z 06007KT 15SM FEW070 FEW150 BKN250 21/12 A2998 RMK AC1AC1CI4 SLP152 DENSITY ALT 900FT

CYGK;2015-09-10 15:00;CYGK 101500Z 08012KT 15SM FEW150 BKN250 22/11 A2998 RMK AC1CI6 SLP152 DENSITY ALT 1100FT

CYGK;2015-09-10 16:00;CYGK 101600Z 06009KT 030V110 15SM FEW100 BKN250 23/09 A2996 RMK AC1CI6 SLP146 DENSITY ALT 1200FT

CYGK;2015-09-10 17:00;CYGK 101700Z 10009KT 070V130 15SM BKN250 23/09 A2995 RMK CI7 SLP140 DENSITY ALT 1200FT

CYGK;2015-09-10 18:00;CYGK 101800Z 10008KT 15SM BKN220 23/09 A2993 RMK CI7 SLP135 DENSITY ALT 1200FT

CYGK;2015-09-10 19:00;CYGK 101900Z 08008KT 060V120 15SM BKN220 23/09 A2991 RMK CI7 SLP128 DENSITY ALT 1200FT

CYGK;2015-09-10 20:00;CYGK 102000Z 07007KT 050V120 15SM SCT140 BKN220 24/10 A2989 RMK AC3CI4 SLP123 DENSITY ALT 1400FT

CYGK;2015-09-10 21:00;CYGK 102100Z 10006KT 15SM SCT160 BKN220 22/10 A2989 RMK AC4CI3 SLP122 DENSITY ALT 1200FT

CYGK;2015-09-10 22:00;CYGK 102200Z 07007KT 15SM BKN200 22/10 A2989 RMK CI7 SLP121 DENSITY ALT 1200FT

CYGK;2015-09-10 23:00;CYGK 102300Z 06005KT 15SM BKN220 20/10 A2988 RMK CI7 SLP119 DENSITY ALT 1000FT

CYGK;2015-09-11 00:00;CYGK 110000Z 35004KT 15SM FEW130 BKN220 18/11 A2988 RMK AC1CI5 SLP118 DENSITY ALT 800FT

CYGK;2015-09-11 01:00;CYGK 110100Z 34004KT 15SM FEW150 15/11 A2988 RMK AC2 SLP118 DENSITY ALT 400FT

CYGK;2015-09-11 02:00;CYGK 110200Z 36004KT 15SM FEW005 FEW170 15/12 A2987 RMK ST1AC1 ST TR SLP115

CYGK;2015-09-11 03:00;CYGK 110300Z 34006KT 15SM FEW005 12/11 A2988 RMK ST1 ST TR LAST STFD OBS/NEXT 111000UTC SLP117

CYGK;2015-09-11 10:00;CYGK 111000Z 35006KT 15SM BKN130 12/11 A2984 RMK AC5 SLP106

CYGK;2015-09-11 11:00;CYGK 111100Z 35006KT 15SM SCT130 12/11 A2985 RMK AC3 SLP110

CYGK;2015-09-11 12:00;CYGK 111200Z 35007KT 15SM FEW130 14/13 A2986 RMK AC2 SLP112

CYGK;2015-09-11 13:00;CYGK 111300Z 01004KT 15SM FEW130 SCT250 19/13 A2986 RMK AC2CI1 SLP112 DENSITY ALT 800FT

CYGK;2015-09-11 14:00;CYGK 111400Z 04005KT 010V080 15SM FEW130 SCT250 21/12 A2987 RMK AC1CI2 SLP113 DENSITY ALT 1100FT

CYGK;2015-09-11 15:00;CYGK 111500Z 18008KT 170V320 15SM FEW130 SCT250 22/14 A2987 RMK AC1CI2 SLP114 DENSITY ALT 1200FT

CYGK;2015-09-11 16:00;CYGK 111600Z 17006KT 15SM FEW040 FEW130 FEW250 23/13 A2985 RMK CU1AC1CI2 CU TR AC TR SLP109 DENSITY ALT 1400FT

CYGK;2015-09-11 17:00;CYGK 111700Z 18011KT 15SM FEW040 SCT250 23/14 A2984 RMK CU1CI2 SLP106 DENSITY ALT 1300FT

CYGK;2015-09-11 18:00;CYGK 111800Z 18011KT 15SM FEW040 SCT250 24/15 A2984 RMK CU2CI1 SLP104 DENSITY ALT 1400FT

CYGK;2015-09-11 19:00;CYGK 111900Z 18013KT 15SM FEW040 SCT140 SCT250 24/15 A2983 RMK CU2AC1CI1 CI TR SLP100 DENSITY ALT 1500FT

CYGK;2015-09-11 20:00;CYGK 112000Z 19013KT 15SM FEW060 SCT250 24/14 A2981 RMK CU2CI2 SLP095 DENSITY ALT 1500FT

CYGK;2015-09-11 21:00;CYGK 112100Z 20011KT 15SM FEW060 FEW100 24/15 A2982 RMK CU1AC1 SLP097 DENSITY ALT 1500FT

CYGK;2015-09-11 22:00;CYGK 112200Z 18007KT 15SM FEW055 SCT110 BKN250 23/16 A2982 RMK CU2AC2CI1 SLP097 DENSITY ALT 1400FT

CYGK;2015-09-11 23:00;CYGK 112300Z 29006KT 15SM FEW050TCU SCT110 BKN200 BKN270 22/12 A2982 RMK TCU1AC3CI2CI2 TCU TR SLP097 DENSITY ALT 1300FT

CYGK;2015-09-12 00:00;CYGK 120000Z 29006KT 15SM FEW040 SCT110 BKN240 20/11 A2983 RMK SC1AC2CI3 SLP102 DENSITY ALT 1000FT

CYGK;2015-09-12 01:00;CYGK 120100Z 28004KT 15SM BKN200 20/12 A2984 RMK CI7 SLP106 DENSITY ALT 1000FT

CYGK;2015-09-12 02:00;CYGK 120200Z 28003KT 15SM SCT110 OVC170 20/12 A2984 RMK AC3AC5 SLP106 DENSITY ALT 1000FT

CYGK;2015-09-12 03:00;CYGK 120300Z 31005KT 15SM FEW100 OVC140 19/13 A2984 RMK AC2AC6 LAST STFD OBS/NEXT 121000UTC SLP106 DENSITY ALT 800FT

CYGK;2015-09-12 10:00;CYGK 121000Z 35011KT 15SM OVC084 15/12 A2986 RMK AC8 SLP111

CYGK;2015-09-12 10:19;CYGK 121019Z 35013G19KT 15SM -RA OVC080 14/12 A2987 RMK AC8 SLP114

CYGK;2015-09-12 11:00;CYGK 121100Z 01012G19KT 12SM -RA FEW020 SCT052 OVC078 13/12 A2987 RMK CF1SC3AC5 CF TR SLP113

CYGK;2015-09-12 12:00;CYGK 121200Z 01012G18KT 8SM -RA FEW020 OVC054 13/12 A2986 RMK CF1SC8 CF TR SLP111

CYGK;2015-09-12 13:00;CYGK 121300Z 02012G17KT 8SM FEW010 OVC050 13/12 A2987 RMK CF1NS7 SLP115

CYGK;2015-09-12 14:00;CYGK 121400Z 04012KT 8SM -RA FEW010 OVC060 13/12 A2987 RMK CF1NS7 SLP116

CYGK;2015-09-12 15:00;CYGK 121500Z 02011G16KT 5SM -RA BR FEW010 SCT030 OVC060 13/12 A2987 RMK CF1CU2NS5 SLP116

CYGK;2015-09-12 16:00;CYGK 121600Z 02010KT 7SM -RA SCT008 SCT030 OVC085 14/13 A2986 RMK SF3CU1AC4 SLP112

CYGK;2015-09-12 17:00;CYGK 121700Z 04012KT 8SM -RA SCT008 BKN045 OVC090 14/13 A2984 RMK SF3CU2AC3 SLP104

CYGK;2015-09-12 18:00;CYGK 121800Z 03010KT 9SM -RA BKN009 OVC060 14/13 A2983 RMK SF6SC2 SLP102

CYGK;2015-09-12 19:00;CYGK 121900Z 03013G19KT 15SM OVC008 15/14 A2981 RMK SF8 INTMT -RA CIG RAG SLP093 DENSITY ALT 400FT

CYGK;2015-09-12 20:00;CYGK 122000Z 03014KT 15SM -RA OVC008 15/14 A2979 RMK SF8 CIG RAG SLP089 DENSITY ALT 400FT

CYGK;2015-09-12 21:00;CYGK 122100Z 03011G18KT 12SM -RA BKN007 OVC011 15/14 A2978 RMK SF6SC2 SLP083 DENSITY ALT 500FT

CYGK;2015-09-12 22:00;CYGK 122200Z 02014KT 10SM -RA OVC006 14/13 A2977 RMK SF8 SLP082

CYGK;2015-09-12 23:00;CYGK 122300Z 02014G22KT 8SM -RA SCT004 OVC006 13/13 A2975 RMK SF3SF5 SLP075

CYGK;2015-09-13 00:00;CYGK 130000Z 36012G17KT 7SM -RA OVC007 13/12 A2975 RMK SF8 CIG RAG SLP077

CYGK;2015-09-13 01:00;CYGK 130100Z 01013KT 7SM -RA SCT006 OVC040 13/12 A2974 RMK SF4SC4 SLP073

CYGK;2015-09-13 02:00;CYGK 130200Z 01013KT 8SM -RA FEW006 BKN030 OVC060 13/12 A2973 RMK SF2SC4SC2 SLP069

CYGK;2015-09-13 03:00;CYGK 130300Z 03013KT 7SM -RA SCT004 BKN035 OVC062 13/12 A2970 RMK SF3SC3SC2 LAST STFD OBS/NEXT 131000UTC PRESFR SLP058

CYGK;2015-09-13 10:00;CYGK 131000Z 05009G16KT 2SM -RA BR SCT010 OVC022 15/15 A2960 RMK SF4SC4 SLP024 DENSITY ALT 700FT

CYGK;2015-09-13 10:42;CYGK 131042Z 04007KT 3SM -RA BR BKN007 OVC020 15/15 A2960 RMK SF6SC2 SLP024 DENSITY ALT 700FT

CYGK;2015-09-13 10:52;CYGK 131052Z 04008KT 1 1/2SM -RA BR OVC007 15/15 A2960 RMK SF8 SLP024 DENSITY ALT 700FT

CYGK;2015-09-13 11:00;CYGK 131100Z 04006KT 2SM -RA BR OVC006 15/15 A2961 RMK SF8 SLP026 DENSITY ALT 700FT

CYGK;2015-09-13 12:00;CYGK 131200Z 04008KT 2 1/2SM -RA BR BKN005 OVC012 15/15 A2961 RMK SF5SC3 SLP026 DENSITY ALT 700FT

CYGK;2015-09-13 12:26;CYGK 131226Z 02008KT 3SM BR BKN005 OVC012 15/15 A2960 RMK SF6SC2 SLP025 DENSITY ALT 700FT

CYGK;2015-09-13 13:00;CYGK 131300Z 02008KT 10SM OVC006 15/15 A2960 RMK NS8 CIG RAG SLP023 DENSITY ALT 700FT

CYGK;2015-09-13 14:00;CYGK 131400Z 35006KT 10SM BKN005 OVC010 16/16 A2961 RMK NS6SC2 SLP027 DENSITY ALT 800FT

CYGK;2015-09-13 14:52;CYGK 131452Z 16005KT 360V180 12SM SCT006 BKN010 BKN095 18/17 A2961 RMK SF4SC2AC1 SLP026 DENSITY ALT 1000FT

CYGK;2015-09-13 15:00;CYGK 131500Z 18014G19KT 130V190 15SM SCT006 BKN018 BKN095 18/17 A2961 RMK SF3SC3AC1 CIG LWR NW - NE SLP026 DENSITY ALT 1000FT

CYGK;2015-09-13 16:00;CYGK 131600Z 20016G24KT 15SM BKN006 BKN018 BKN035 19/17 A2961 RMK SF6SC1SC1 SC TR SLP028 DENSITY ALT 1100FT

CYGK;2015-09-13 16:08;CYGK 131608Z 20017G22KT 15SM -SHRA BKN005 OVC020 18/16 A2962 RMK SF6SC2 TCU EMBD W VIS LWR W SLP030 DENSITY ALT 1000FT

CYGK;2015-09-13 17:00;CYGK 131700Z CCA 24011KT 12SM -SHRA BKN006 OVC019 16/15 A2964 RMK SF6SC2 VIS NW - NE 5 SLP037 DENSITY ALT 800FT

CYGK;2015-09-13 17:26;CYGK 131726Z 24009G18KT 6SM -DZ BR OVC008 16/15 A2965 RMK ST8 SLP042 DENSITY ALT 700FT

CYGK;2015-09-13 18:00;CYGK 131800Z CCA 24010KT 7SM -DZ BKN008 OVC015 16/15 A2966 RMK SF7SC1 VIS N 3 SLP045 DENSITY ALT 700FT

CYGK;2015-09-13 18:29;CYGK 131829Z 25011KT 10SM VCSH SCT008 OVC010 16/14 A2967 RMK SF4SC4 SLP046 DENSITY ALT 700FT

CYGK;2015-09-13 19:00;CYGK 131900Z 25012G20KT 10SM OVC008 15/14 A2967 RMK ST8 CIG RAG SLP049 DENSITY ALT 700FT

CYGK;2015-09-13 20:00;CYGK 132000Z 24012G17KT 5SM -DZ BR OVC009 15/14 A2969 RMK SF8 CIG RAG SLP053 DENSITY ALT 600FT

CYGK;2015-09-13 21:00;CYGK 132100Z 26010KT 8SM OVC008 15/14 A2970 RMK ST8 SLP058 DENSITY ALT 600FT

CYGK;2015-09-13 22:00;CYGK 132200Z 28006KT 10SM BKN008 OVC015 15/14 A2971 RMK SF5SC3 SLP062 DENSITY ALT 500FT

CYGK;2015-09-13 23:00;CYGK 132300Z 26008KT 10SM BKN007 OVC025 14/14 A2972 RMK ST5SC3 SLP066 DENSITY ALT 400FT

CYGK;2015-09-14 00:00;CYGK 140000Z 26008KT 10SM BKN010 OVC030 14/13 A2975 RMK SF5SC3 SLP073 DENSITY ALT 400FT

CYGK;2015-09-14 00:16;CYGK 140016Z 27008KT 8SM -RA BKN008 OVC015 14/13 A2975 RMK SF5SC3 SLP075 DENSITY ALT 400FT

CYGK;2015-09-14 01:00;CYGK 140100Z 27005KT 10SM -RA SCT008 BKN015 OVC035 14/14 A2976 RMK SF3SC2SC3 SLP078 DENSITY ALT 400FT

CYGK;2015-09-14 02:00;CYGK 140200Z 28007KT 12SM -RA FEW010 SCT015 BKN025 OVC040 14/13 A2977 RMK SF1CU2SC2SC3 SLP080

CYGK;2015-09-14 03:00;CYGK 140300Z 28007KT 8SM -RA SCT007 OVC015 13/13 A2976 RMK SF4SC4 LAST STFD OBS/NEXT 141000 UTC SLP078

CYGK;2015-09-14 10:00;CYGK 141000Z 29012G17KT 15SM BKN085 13/12 A2987 RMK AC7 SLP114

CYGK;2015-09-14 11:00;CYGK 141100Z 29010KT 15SM BKN078 BKN140 13/11 A2990 RMK AC6AC1 SLP127

CYGK;2015-09-14 12:00;CYGK 141200Z 29008KT 15SM BKN082 BKN140 13/11 A2993 RMK AC6AC1 SLP136

CYGK;2015-09-14 13:00;CYGK 141300Z 29009KT 15SM FEW032 BKN085 14/11 A2996 RMK SC1AC6 SLP146

CYGK;2015-09-14 14:00;CYGK 141400Z 28010KT 15SM FEW032 SCT095 15/11 A2999 RMK SC1AC4 SC TR SLP155

CYGK;2015-09-14 15:00;CYGK 141500Z 30010G18KT 15SM FEW035 FEW095 18/12 A3000 RMK SC1AC1 SC TR SLP160 DENSITY ALT 600FT

CYGK;2015-09-14 16:00;CYGK 141600Z 31011G19KT 260V320 15SM FEW035 FEW095 20/12 A3001 RMK CU1AC1 CU TR AC TR SLP161 DENSITY ALT 800FT

CYGK;2015-09-14 17:00;CYGK 141700Z 31012G19KT 15SM FEW035 FEW095 21/11 A3001 RMK CU2AC1 AC TR SLP162 DENSITY ALT 1000FT

CYGK;2015-09-14 18:00;CYGK 141800Z 27010G17KT 15SM FEW050 22/12 A3001 RMK CU2 SLP163 DENSITY ALT 1000FT

CYGK;2015-09-14 19:00;CYGK 141900Z 26012G19KT 15SM SCT050 22/12 A3002 RMK CU3 SLP165 DENSITY ALT 1100FT

CYGK;2015-09-14 20:00;CYGK 142000Z 26011G19KT 15SM BKN050 22/12 A3003 RMK CU6 SLP169 DENSITY ALT 1000FT

CYGK;2015-09-14 21:00;CYGK 142100Z 28010G16KT 15SM BKN050 22/13 A3004 RMK CU5 SLP172 DENSITY ALT 1000FT

CYGK;2015-09-14 22:00;CYGK 142200Z 25010G18KT 15SM SCT050 21/14 A3005 RMK SC3 SLP176 DENSITY ALT 900FT

CYGK;2015-09-14 23:00;CYGK 142300Z 25010KT 15SM SKC 20/13 A3007 RMK SLP182 DENSITY ALT 800FT

CYGK;2015-09-15 00:00;CYGK 150000Z 25010G19KT 15SM SKC 19/13 A3008 RMK SLP186 DENSITY ALT 600FT

CYGK;2015-09-15 01:00;CYGK 150100Z 25009KT 15SM SKC 18/12 A3011 RMK SLP197 DENSITY ALT 500FT

CYGK;2015-09-15 02:00;CYGK 150200Z 25006KT 15SM SKC 17/12 A3013 RMK SLP203

CYGK;2015-09-15 03:00;CYGK 150300Z 24007KT 15SM SKC 18/14 A3015 RMK LAST STFD OBS/NEXT 151000 UTC SLP208 DENSITY ALT 400FT

CYGK;2015-09-15 10:00;CYGK 151000Z 25004KT 15SM SKC 16/14 A3023 RMK SLP238

CYGK;2015-09-15 11:00;CYGK 151100Z 27003KT 12SM MIFG FEW005 15/14 A3026 RMK CF1 CF TR SLP247

CYGK;2015-09-15 12:00;CYGK 151200Z 26006KT 12SM FEW005 17/17 A3028 RMK CU1 CU TR SLP253

CYGK;2015-09-15 13:00;CYGK 151300Z 25006KT 15SM FEW008 19/16 A3029 RMK CF1 CF TR SLP257 DENSITY ALT 400FT

CYGK;2015-09-15 14:00;CYGK 151400Z 23006KT 15SM FEW010 20/17 A3030 RMK CF1 CF TR SLP261 DENSITY ALT 500FT

CYGK;2015-09-15 15:00;CYGK 151500Z 21008KT 15SM FEW020 22/16 A3030 RMK CF1 CF TR SLP260 DENSITY ALT 700FT

CYGK;2015-09-15 16:00;CYGK 151600Z 17010KT 15SM FEW020 22/18 A3030 RMK CF1 CF TR SLP260 DENSITY ALT 700FT

CYGK;2015-09-15 17:00;CYGK 151700Z 18011KT 15SM FEW025 22/18 A3030 RMK CF1 CF TR SLP260 DENSITY ALT 700FT

CYGK;2015-09-15 18:00;CYGK 151800Z 19014KT 15SM FEW025 22/19 A3028 RMK CF1 CF TR SLP255 DENSITY ALT 700FT

CYGK;2015-09-15 19:00;CYGK 151900Z 18013KT 15SM FEW025 22/19 A3027 RMK CF1 CF TR SLP250 DENSITY ALT 700FT

CYGK;2015-09-15 20:00;CYGK 152000Z 19013KT 15SM FEW030 FEW240 22/19 A3026 RMK CF1CI1 CF TR CI TR SLP248 DENSITY ALT 800FT

CYGK;2015-09-15 21:00;CYGK 152100Z 19012KT 15SM FEW240 22/18 A3026 RMK CI1 CI TR SLP249 DENSITY ALT 800FT

CYGK;2015-09-15 22:00;CYGK 152200Z 19010KT 15SM FEW240 22/19 A3026 RMK CI1 SLP249 DENSITY ALT 700FT

CYGK;2015-09-15 23:00;CYGK 152300Z 20009KT 15SM FEW240 20/18 A3027 RMK CI1 SLP251 DENSITY ALT 600FT

CYGK;2015-09-16 00:00;CYGK 160000Z 19005KT 15SM FEW240 20/18 A3028 RMK CI1 SLP254 DENSITY ALT 500FT

CYGK;2015-09-16 01:00;CYGK 160100Z 22005KT 15SM SKC 19/17 A3030 RMK SLP260 DENSITY ALT 400FT

CYGK;2015-09-16 02:00;CYGK 160200Z 23005KT 15SM SKC 19/17 A3031 RMK SLP262

CYGK;2015-09-16 03:00;CYGK 160300Z 23005KT 15SM SKC 19/17 A3030 RMK LAST STFD OBS/NEXT 161000 UTC SLP261

CYGK;2015-09-16 10:00;CYGK 161000Z 00000KT 12SM MIFG FEW270 15/14 A3031 RMK CI2 SLP263

CYGK;2015-09-16 11:00;CYGK 161100Z 00000KT 10SM MIFG FEW140 FEW270 14/14 A3031 RMK AC1CI2 AC TR SLP265

CYGK;2015-09-16 12:00;CYGK 161200Z 00000KT 12SM FEW004 FEW270 16/16 A3032 RMK ST1CI2 ST TR SLP269

CYGK;2015-09-16 13:00;CYGK 161300Z 21004KT 190V260 15SM FEW008 FEW270 20/18 A3033 RMK ST1CI1 ST TR SLP271 DENSITY ALT 400FT

CYGK;2015-09-16 14:00;CYGK 161400Z 23003KT 190V270 15SM FEW010 FEW270 21/19 A3033 RMK ST1CI2 ST TR SLP272 DENSITY ALT 600FT

CYGK;2015-09-16 15:00;CYGK 161500Z 19011KT 15SM FEW010 FEW270 22/19 A3033 RMK SF1CI2 SF TR VIA CYXU SLP270 DENSITY ALT 700FT

CYGK;2015-09-16 16:00;CYGK 161600Z 17010KT 12SM FEW270 22/20 A3032 RMK CI1 SLP268 DENSITY ALT 700FT

CYGK;2015-09-16 17:00;CYGK 161700Z 17010KT 15SM FEW270 22/20 A3031 RMK CI1 SLP265 DENSITY ALT 700FT

CYGK;2015-09-16 18:00;CYGK 161800Z 17012KT 10SM FEW025 FEW270 22/19 A3030 RMK CF1CI1 CF TR SLP260 DENSITY ALT 700FT

CYGK;2015-09-16 19:00;CYGK 161900Z 18008KT 12SM FEW025 FEW270 23/20 A3028 RMK CF1CI1 CF TR SLP253 DENSITY ALT 800FT

CYGK;2015-09-16 20:00;CYGK 162000Z 18006KT 12SM FEW270 22/19 A3026 RMK CI2 SLP246 DENSITY ALT 800FT

CYGK;2015-09-16 21:00;CYGK 162100Z 18008KT 15SM FEW270 22/19 A3024 RMK CI1 SLP240 DENSITY ALT 800FT

CYGK;2015-09-16 22:00;CYGK 162200Z 18007KT 12SM FEW250 22/19 A3022 RMK CI1 SLP233 DENSITY ALT 800FT

CYGK;2015-09-16 23:00;CYGK 162300Z 18005KT 15SM FEW250 21/19 A3021 RMK CI1 CI TR SLP231 DENSITY ALT 600FT

CYGK;2015-09-17 00:00;CYGK 170000Z 18004KT 15SM FEW250 20/19 A3021 RMK CI1 CI TR SLP230 DENSITY ALT 600FT

CYGK;2015-09-17 01:00;CYGK 170100Z 19004KT 15SM SKC 19/19 A3021 RMK SLP231 DENSITY ALT 500FT

CYGK;2015-09-17 02:00;CYGK 170200Z 19006KT 15SM SKC 20/19 A3021 RMK SLP229 DENSITY ALT 600FT

CYGK;2015-09-17 03:00;CYGK 170300Z 20006KT 15SM SKC 20/19 A3021 RMK LAST STFD OBS/NEXT 171000 UTC SLP229 DENSITY ALT 600FT

CYGK;2015-09-17 10:00;CYGK 171000Z 35004KT 1/2SM FG SKC 14/14 A3017 RMK FG2 SLP216

CYGK;2015-09-17 10:09;CYGK 171009Z 35004KT 1 1/2SM BR FEW220 14/14 A3017 RMK FG1CI1 VIS N-NE 3/4 SLP217

CYGK;2015-09-17 10:21;CYGK 171021Z 01003KT 3SM BR MIFG FEW220 14/14 A3017 RMK CI1 SLP216

CYGK;2015-09-17 11:00;CYGK 171100Z 00000KT 5SM BR MIFG FEW120 FEW220 14/14 A3017 RMK AC1CI1 AC TR SLP216

CYGK;2015-09-17 12:00;CYGK 171200Z 07002KT 5SM BR SKC 16/16 A3017 RMK SLP215

CYGK;2015-09-17 12:29;CYGK 171229Z 17003KT 130V200 5SM BR FEW005 19/19 A3017 RMK SF1 SLP215 DENSITY ALT 600FT

CYGK;2015-09-17 13:00;CYGK 171300Z 18005KT 6SM BR BKN005 21/21 A3016 RMK SF5 SLP214 DENSITY ALT 700FT

CYGK;2015-09-17 14:00;CYGK 171400Z 19009KT 6SM BR BKN004 21/20 A3016 RMK SF5 SLP212 DENSITY ALT 800FT

CYGK;2015-09-17 15:00;CYGK 171500Z 18009KT 6SM BR BKN005 22/20 A3015 RMK SF5 SLP210 DENSITY ALT 900FT

CYGK;2015-09-17 15:22;CYGK 171522Z 17009KT 7SM SCT004 22/20 A3014 RMK SF4 SLP208 DENSITY ALT 900FT

CYGK;2015-09-17 16:00;CYGK 171600Z 18010KT 7SM SCT004 22/20 A3014 RMK SF3 SLP205 DENSITY ALT 900FT

CYGK;2015-09-17 17:00;CYGK 171700Z 18009KT 8SM FEW005 SCT020 22/20 A3012 RMK SF2CU2 SLP200 DENSITY ALT 900FT

CYGK;2015-09-17 18:00;CYGK 171800Z 17009KT 10SM FEW020 22/20 A3010 RMK CU2 SLP192 DENSITY ALT 1000FT

CYGK;2015-09-17 19:00;CYGK 171900Z 18010KT 12SM FEW030 FEW220 23/21 A3008 RMK CU1CI1 CU TR CI TR SLP185 DENSITY ALT 1000FT

CYGK;2015-09-17 20:00;CYGK 172000Z 18010KT 15SM FEW030 FEW220 24/20 A3006 RMK CU1CI1 CU TR CI TR SLP179 DENSITY ALT 1200FT

CYGK;2015-09-17 21:00;CYGK 172100Z 19010KT 15SM FEW035 FEW220 24/20 A3005 RMK CU1CI1 CU TR CI TR SLP176 DENSITY ALT 1200FT

CYGK;2015-09-17 22:00;CYGK 172200Z 19008KT 15SM FEW160 FEW220 23/19 A3004 RMK AC1CI1 CI TR SLP174 DENSITY ALT 1100FT

CYGK;2015-09-17 23:00;CYGK 172300Z 19005KT 15SM FEW160 21/19 A3003 RMK AC1 AC TR SLP171 DENSITY ALT 900FT

CYGK;2015-09-18 00:00;CYGK 180000Z 20006KT 15SM FEW150 21/19 A3003 RMK AC1 AC TR SLP169 DENSITY ALT 800FT

CYGK;2015-09-18 01:00;CYGK 180100Z 20005KT 15SM SKC 20/18 A3003 RMK SLP167 DENSITY ALT 800FT

CYGK;2015-09-18 02:00;CYGK 180200Z 20005KT 15SM SKC 19/18 A3002 RMK SLP165 DENSITY ALT 700FT

CYGK;2015-09-18 03:00;CYGK 180300Z 22003KT 15SM SKC 20/19 A3001 RMK LAST STFD OBS/NEXT 181000 UTC SLP163 DENSITY ALT 800FT

CYGK;2015-09-18 10:00;CYGK 181000Z 35003KT 330V030 1/2SM FG SKC 14/14 A2998 RMK FG4 SLP152

CYGK;2015-09-18 10:08;CYGK 181008Z 33003KT 2SM BR BCFG FEW120 14/14 A2998 RMK AC1 VIS N 1/2 SLP153

CYGK;2015-09-18 10:33;CYGK 181033Z 36003KT 5SM BR MIFG FEW002 FEW060 13/13 A2998 RMK SF1SC1 SF TR SLP153

CYGK;2015-09-18 11:00;CYGK 181100Z 07003KT 6SM BR BCFG FEW003 SCT060 13/13 A2998 RMK FG1SF1SC3 SF TR VIS NW-N 3/8 SLP154

CYGK;2015-09-18 12:00;CYGK 181200Z 17010KT 6SM BR SCT005 BKN060 20/20 A2998 RMK SF4SC1 SLP152 DENSITY ALT 800FT

CYGK;2015-09-18 12:08;CYGK 181208Z 17009KT 8SM BKN005 BKN060 20/20 A2998 RMK SF5SC1 SLP152 DENSITY ALT 800FT

CYGK;2015-09-18 12:40;CYGK 181240Z 17010KT 10SM FEW008 20/19 A2998 RMK SF2 SLP152 DENSITY ALT 800FT

CYGK;2015-09-18 13:00;CYGK 181300Z 17010KT 12SM FEW008 FEW060 SCT250 20/19 A2999 RMK CF1SC1CI1 SLP154 DENSITY ALT 900FT

CYGK;2015-09-18 14:00;CYGK 181400Z 16009KT 12SM FEW008 FEW060 21/19 A2998 RMK CF2SC1 SC TR SLP151 DENSITY ALT 900FT

CYGK;2015-09-18 15:00;CYGK 181500Z 17011KT 15SM FEW015 FEW250 21/18 A2998 RMK CF1CI2 CF TR SLP151 DENSITY ALT 1000FT

CYGK;2015-09-18 16:00;CYGK 181600Z 18011KT 15SM FEW015 FEW250 22/18 A2997 RMK CF1CI1 CF TR SLP148 DENSITY ALT 1100FT

CYGK;2015-09-18 17:00;CYGK 181700Z 18009KT 15SM FEW030 SCT250 23/18 A2995 RMK CU1CI2 SLP143 DENSITY ALT 1200FT

CYGK;2015-09-18 18:00;CYGK 181800Z 18011KT 15SM FEW030 SCT250 23/18 A2994 RMK CU1CI3 SLP139 DENSITY ALT 1200FT

CYGK;2015-09-18 19:00;CYGK 181900Z 19009KT 15SM FEW030 BKN270 23/18 A2992 RMK CU1CI5 SLP132 DENSITY ALT 1300FT

CYGK;2015-09-18 20:00;CYGK 182000Z 19006KT 15SM FEW040 BKN250 24/19 A2991 RMK CU1CI6 SLP128 DENSITY ALT 1400FT

CYGK;2015-09-18 21:00;CYGK 182100Z 18006KT 15SM SCT190 BKN270 23/19 A2990 RMK AC3CI4 SLP126 DENSITY ALT 1300FT

CYGK;2015-09-18 22:00;CYGK 182200Z 23003KT 190V260 15SM BKN180 BKN270 23/19 A2989 RMK AC5CI2 SLP123 DENSITY ALT 1300FT

CYGK;2015-09-18 23:00;CYGK 182300Z VRB02KT 15SM BKN150 BKN270 22/19 A2990 RMK AC5CI2 SLP124 DENSITY ALT 1100FT

CYGK;2015-09-19 00:00;CYGK 190000Z 29002KT 15SM BKN150 BKN270 21/18 A2990 RMK AC5CI2 SLP126 DENSITY ALT 1000FT

CYGK;2015-09-19 01:00;CYGK 190100Z 11002KT 15SM BKN170 OVC270 20/18 A2990 RMK AC5CI3 SLP125 DENSITY ALT 1000FT

CYGK;2015-09-19 02:00;CYGK 190200Z 00000KT 15SM SCT078 BKN130 OVC170 20/18 A2990 RMK AC3AC3AC2 SLP124 DENSITY ALT 900FT

CYGK;2015-09-19 03:00;CYGK 190300Z 13003KT 15SM SCT065 OVC150 20/19 A2989 RMK AC3AC5 LAST STFD OBS/NEXT 191000 UTC SLP120 DENSITY ALT 1000FT

CYGK;2015-09-19 10:00;CYGK 191000Z 17008KT 15SM SCT070 BKN130 21/19 A2980 RMK AC3AC2 SLP091 DENSITY ALT 1100FT

CYGK;2015-09-19 11:00;CYGK 191100Z 17013KT 15SM BKN062 BKN160 BKN200 21/19 A2980 RMK SC5AC1CI1 AC TR SLP090 DENSITY ALT 1200FT

CYGK;2015-09-19 12:00;CYGK 191200Z 17016KT 15SM FEW060 FEW160 SCT200 21/18 A2978 RMK SC1AC1CI1 SLP085 DENSITY ALT 1200FT

CYGK;2015-09-19 13:00;CYGK 191300Z 18016KT 15SM FEW150 BKN230 22/18 A2978 RMK AC2CI4 SLP084 DENSITY ALT 1300FT

CYGK;2015-09-19 14:00;CYGK 191400Z 18013G20KT 15SM BKN065 BKN160 OVC230 22/18 A2978 RMK SC7AC1CI1 AC TR SLP082 DENSITY ALT 1300FT

CYGK;2015-09-19 15:00;CYGK 191500Z 20013KT 15SM -SHRA OVC050 21/18 A2977 RMK SC8 SLP079 DENSITY ALT 1200FT

CYGK;2015-09-19 15:15;CYGK 191515Z 19014KT 15SM BKN052 OVC100 22/18 A2976 RMK SC7AC1 SLP077 DENSITY ALT 1300FT

CYGK;2015-09-19 16:00;CYGK 191600Z 19015KT 15SM BKN065 BKN100 BKN230 22/18 A2975 RMK SC6AC1CI1 CI TR SLP074 DENSITY ALT 1300FT

CYGK;2015-09-19 17:00;CYGK 191700Z 19014KT 15SM BKN040 OVC070 23/19 A2974 RMK SC5AC3 SLP071 DENSITY ALT 1400FT

CYGK;2015-09-19 17:12;CYGK 191712Z 19012KT 15SM BKN040 OVC080 22/19 A2974 RMK SC5ACC3 SLP071 DENSITY ALT 1400FT

CYGK;2015-09-19 17:48;CYGK 191748Z 20013G19KT 15SM SCT038 OVC100 23/19 A2973 RMK SC3AC5 SLP067 DENSITY ALT 1400FT

CYGK;2015-09-19 18:00;CYGK 191800Z 19016KT 15SM SCT038 OVC100 23/19 A2973 RMK SC4AC4 SLP066 DENSITY ALT 1500FT

CYGK;2015-09-19 19:00;CYGK 191900Z 19015G20KT 15SM FEW035 BKN080 BKN130 23/19 A2970 RMK CU1AC4AC2 SHWRS SE SLP056 DENSITY ALT 1500FT

CYGK;2015-09-19 20:00;CYGK 192000Z 18017G24KT 15SM -SHRA BKN050 OVC110 22/19 A2968 RMK SC6ACC2 SLP050 DENSITY ALT 1400FT

CYGK;2015-09-19 20:38;CYGK 192038Z 19022G29KT 2SM SHRA OVC040 22/19 A2969 RMK SC8 SLP052 DENSITY ALT 1400FT

CYGK;2015-09-19 20:44;CYGK 192044Z 19021G30KT 4SM -SHRA BR BKN037 OVC100 21/20 A2968 RMK SC6AC2 SLP051 DENSITY ALT 1300FT

CYGK;2015-09-19 21:00;CYGK 192100Z 19019G25KT 5SM -SHRA BR SCT030 BKN070 21/20 A2967 RMK CU4AC3 SLP048 DENSITY ALT 1300FT

CYGK;2015-09-19 21:39;CYGK 192139Z 18018G23KT 8SM VCSH SCT030 BKN050 BKN130 21/20 A2966 RMK CU3SC2AC2 SLP042 DENSITY ALT 1400FT

CYGK;2015-09-19 22:00;CYGK 192200Z 18019G26KT 10SM VCSH BKN040 OVC120 21/20 A2964 RMK SC7AC1 VIS W 5 SLP037 DENSITY ALT 1400FT

CYGK;2015-09-19 22:15;CYGK 192215Z 18017G24KT 5SM -SHRA BR FEW020 BKN040 OVC120 21/20 A2964 RMK CF1SC6AC1 VIS N 2 SLP036 DENSITY ALT 1400FT

CYGK;2015-09-19 22:27;CYGK 192227Z 20018G24KT 2SM -TSRA BR BKN025CB OVC040 21/20 A2966 RMK CB6SC2 LTNG W MOVG E PRESRR SLP043 DENSITY ALT 1300FT

CYGK;2015-09-19 23:00;CYGK 192300Z 20017G26KT 8SM -TSRA FEW008 SCT025CB BKN040 20/19 A2968 RMK SF1CB3SC3 SF TR VIS E 3 LTNG E MOVG E PRESRR SLP051 DENSITY ALT 1200FT

CYGK;2015-09-19 23:34;CYGK 192334Z 26010G19KT 210V270 15SM SCT008 BKN023 BKN075 20/20 A2969 RMK SF3SC2AC2 SLP052 DENSITY ALT 1200FT

CYGK;2015-09-20 00:00;CYGK 200000Z 28012G17KT 15SM FEW007 BKN033 BKN075 19/18 A2970 RMK SF2SC4AC1 SLP058 DENSITY ALT 1100FT

CYGK;2015-09-20 01:00;CYGK 200100Z 28013G19KT 15SM SCT019 SCT150 18/16 A2975 RMK SC3AC1 SLP075 DENSITY ALT 800FT

CYGK;2015-09-20 02:00;CYGK 200200Z 28008G17KT 15SM FEW018 BKN032 BKN160 16/15 A2981 RMK SC1SC4AC1 PRESRR SLP096 DENSITY ALT 600FT

CYGK;2015-09-20 03:00;CYGK 200300Z 31009G16KT 15SM FEW015 FEW160 15/11 A2987 RMK SC1AC1 LAST STFD OBS/NEXT 201000UTC PRESRR SLP115

CYGK;2015-09-20 10:00;CYGK 201000Z 34008KT 15SM FEW035 09/07 A3009 RMK SC1 SLP189

CYGK;2015-09-20 11:00;CYGK 201100Z 34006KT 15SM FEW025 08/07 A3012 RMK SC1 SLP202

CYGK;2015-09-20 12:00;CYGK 201200Z 34005KT 15SM FEW025 FEW080 10/08 A3015 RMK SC1AC1 AC TR SLP211

CYGK;2015-09-20 13:00;CYGK 201300Z 01009KT 330V040 15SM FEW025 12/08 A3017 RMK SC2 SLP217

CYGK;2015-09-20 14:00;CYGK 201400Z 04008KT 15SM SCT025 SCT240 13/08 A3018 RMK CU3CI1 CI TR SLP222

CYGK;2015-09-20 15:00;CYGK 201500Z VRB02KT 15SM SCT025 13/08 A3019 RMK CU3 SLP225

CYGK;2015-09-20 16:00;CYGK 201600Z 33007KT 290V020 15SM FEW028 SCT240 15/07 A3020 RMK CU2CI1 SLP226

CYGK;2015-09-20 17:00;CYGK 201700Z 34010KT 320V030 15SM FEW030 SCT250 16/07 A3019 RMK CU1CI2 SLP224

CYGK;2015-09-20 18:00;CYGK 201800Z 31006KT 300V030 15SM FEW030 SCT240 17/06 A3018 RMK CU1CI4 CU TR SLP219

CYGK;2015-09-20 19:00;CYGK 201900Z 35006KT 320V080 15SM FEW040 SCT250 18/09 A3016 RMK CU1CI4 CU TR SLP215 DENSITY ALT 400FT

CYGK;2015-09-20 20:00;CYGK 202000Z 01008KT 320V050 15SM SCT250 18/07 A3016 RMK CI4 SLP214 DENSITY ALT 400FT

CYGK;2015-09-20 21:00;CYGK 202100Z 32008KT 15SM SCT250 18/05 A3016 RMK CI4 SLP214 DENSITY ALT 400FT

CYGK;2015-09-20 22:00;CYGK 202200Z 03002KT 15SM FEW040 SCT270 18/07 A3017 RMK CU1CI4 CU TR SLP216

CYGK;2015-09-20 23:00;CYGK 202300Z 22007KT 15SM FEW040 SCT270 15/11 A3016 RMK SC1CI3 SC TR SLP216

CYGK;2015-09-21 00:00;CYGK 210000Z 00000KT 15SM FEW270 13/11 A3017 RMK CI2 SLP219

CYGK;2015-09-21 01:00;CYGK 210100Z 36002KT 15SM FEW270 12/11 A3019 RMK CI1 SLP224

CYGK;2015-09-21 02:00;CYGK 210200Z 36003KT 15SM FEW270 11/10 A3020 RMK CI2 SLP227

CYGK;2015-09-21 03:00;CYGK 210300Z 34005KT 15SM FEW270 09/08 A3021 RMK CI1 LAST STFD OBS/NEXT 211000UTC SLP230

CYGK;2015-09-21 10:00;CYGK 211000Z 04006KT 15SM FEW025 FEW065 BKN250 09/09 A3023 RMK SC1SC1CI6 SC TR SC TR SLP238

CYGK;2015-09-21 11:00;CYGK 211100Z 04005KT 15SM MIFG PRFG FEW009 BKN250 09/09 A3025 RMK CU1CI6 CU TR VIS E 1 3/4 SLP244

CYGK;2015-09-21 12:00;CYGK 211200Z 04004KT 15SM FEW012 BKN250 11/10 A3026 RMK CU1CI6 CU TR SLP250

CYGK;2015-09-21 13:00;CYGK 211300Z 05004KT 020V090 15SM FEW015 BKN240 14/12 A3028 RMK CF1CI7 CF TR SLP254

CYGK;2015-09-21 14:00;CYGK 211400Z 08006KT 15SM FEW018 BKN220 15/10 A3029 RMK CU1CI7 CU TR SLP257

CYGK;2015-09-21 15:00;CYGK 211500Z 05007KT 15SM FEW180 BKN220 17/09 A3028 RMK AC2CI5 SLP256

CYGK;2015-09-21 16:00;CYGK 211600Z 06006KT 050V110 15SM SCT120 BKN220 17/08 A3028 RMK AC3CI4 SLP254

CYGK;2015-09-21 17:00;CYGK 211700Z 08006KT 060V150 15SM FEW140 BKN220 18/09 A3027 RMK AC2CI5 SLP253

CYGK;2015-09-21 18:00;CYGK 211800Z 13007KT 040V160 15SM FEW140 BKN230 18/07 A3026 RMK AC1CI6 SLP249

CYGK;2015-09-21 19:00;CYGK 211900Z 11005KT 090V170 15SM SCT150 BKN220 19/07 A3025 RMK AC3CI4 SLP244 DENSITY ALT 400FT

CYGK;2015-09-21 20:00;CYGK 212000Z 10003KT 15SM FEW150 BKN210 19/09 A3024 RMK AC2CI4 SLP241 DENSITY ALT 400FT

CYGK;2015-09-21 21:00;CYGK 212100Z 07007KT 15SM BKN190 BKN250 19/06 A3023 RMK AC6CI1 SLP237 DENSITY ALT 500FT

CYGK;2015-09-21 22:00;CYGK 212200Z 06005KT 15SM BKN190 BKN250 18/08 A3022 RMK AC5CI1 SLP235 DENSITY ALT 400FT

CYGK;2015-09-21 23:00;CYGK 212300Z 05003KT 15SM SCT190 BKN250 17/08 A3023 RMK AC4CI1 SLP237

CYGK;2015-09-22 00:00;CYGK 220000Z 05004KT 15SM FEW180 13/09 A3023 RMK AC2 SLP238

CYGK;2015-09-22 01:00;CYGK 220100Z 07005KT 15SM SKC 13/09 A3023 RMK SLP240

CYGK;2015-09-22 02:00;CYGK 220200Z 06003KT 15SM SKC 13/09 A3024 RMK SLP242

CYGK;2015-09-22 03:00;CYGK 220300Z 04003KT 15SM SCT180 11/10 A3024 RMK AC3 LAST STFD OBS/NEXT 221000 UTC SLP242

CYGK;2015-09-22 10:00;CYGK 221000Z 17014KT 15SM BKN090 17/12 A3025 RMK AC6 SLP244

CYGK;2015-09-22 11:00;CYGK 221100Z 17013G19KT 15SM FEW080 BKN110 17/12 A3027 RMK AC1AC4 SLP251

CYGK;2015-09-22 12:00;CYGK 221200Z 17013G20KT 15SM FEW078 SCT110 17/12 A3029 RMK AC2AC2 SLP256

CYGK;2015-09-22 13:00;CYGK 221300Z 18015G21KT 15SM FEW024 FEW070 SCT100 SCT240 18/11 A3029 RMK CU1AC1AC2CI1 CU TR CI TR SLP256

CYGK;2015-09-22 14:00;CYGK 221400Z 18013KT 15SM FEW025 FEW070 SCT100 18/12 A3030 RMK CU1AC1AC2 CU TR SLP260

CYGK;2015-09-22 15:00;CYGK 221500Z 19011KT 15SM FEW025 FEW070 FEW100 19/13 A3030 RMK CU1AC1AC1 CU TR AC TR SLP260 DENSITY ALT 400FT

CYGK;2015-09-22 16:00;CYGK 221600Z 19010KT 15SM FEW025 FEW090 FEW190 20/13 A3029 RMK CU1ACC1CI1 CU TR ACC TR ACC DIST SE SLP258 DENSITY ALT 400FT

CYGK;2015-09-22 17:00;CYGK 221700Z 19011KT 15SM FEW025 FEW090 FEW190 20/13 A3029 RMK CU1ACC1AC1 CU TR ACC TR SLP256 DENSITY ALT 400FT

CYGK;2015-09-22 18:00;CYGK 221800Z 19010KT 15SM FEW030 FEW090 FEW190 20/13 A3027 RMK CU1ACC1AC1 CU TR ACC TR AC TR SLP252 DENSITY ALT 500FT

CYGK;2015-09-22 19:00;CYGK 221900Z 20008KT 15SM FEW028 FEW090 FEW190 20/12 A3026 RMK CU1ACC1CI1 CU TR ACC TR CI TR SLP249 DENSITY ALT 500FT

CYGK;2015-09-22 20:00;CYGK 222000Z 19007KT 15SM FEW028 FEW150 20/12 A3026 RMK CU1AC1 AC TR SLP246 DENSITY ALT 500FT

CYGK;2015-09-22 21:00;CYGK 222100Z 17007KT 15SM FEW030 FEW150 20/13 A3024 RMK CU1AC1 CU TR AC TR SLP242 DENSITY ALT 500FT

CYGK;2015-09-22 22:00;CYGK 222200Z 17006KT 15SM FEW030 19/12 A3024 RMK CU1 CU TR SLP242 DENSITY ALT 400FT

CYGK;2015-09-22 23:00;CYGK 222300Z 19002KT 15SM FEW030 17/12 A3025 RMK CU1 CU TR SLP243

CYGK;2015-09-23 00:00;CYGK 230000Z 21003KT 15SM SKC 15/11 A3025 RMK SLP243

CYGK;2015-09-23 01:00;CYGK 230100Z 34005KT 15SM SKC 13/12 A3026 RMK SLP246

CYGK;2015-09-23 02:00;CYGK 230200Z 35004KT 15SM SKC 13/12 A3026 RMK SLP246

CYGK;2015-09-23 03:00;CYGK 230300Z 36003KT 15SM SKC 12/11 A3026 RMK LAST STFD OBS/NEXT 231000 UTC SLP246

CYGK;2015-09-23 10:00;CYGK 231000Z 36004KT 15SM SKC 08/08 A3028 RMK SLP254

CYGK;2015-09-23 11:00;CYGK 231100Z 35004KT 15SM MIFG SKC 08/08 A3029 RMK SLP257

CYGK;2015-09-23 12:00;CYGK 231200Z 34004KT 15SM SKC 11/10 A3029 RMK SLP260

CYGK;2015-09-23 13:00;CYGK 231300Z 34003KT 15SM FEW250 15/14 A3030 RMK CI1 CI TR SLP263

CYGK;2015-09-23 14:00;CYGK 231400Z 23005KT 190V260 15SM FEW020 FEW250 19/16 A3031 RMK CF1CI1 CF TR CI TR SLP265

CYGK;2015-09-23 15:00;CYGK 231500Z 21006KT 15SM FEW020 20/15 A3032 RMK CF1 CF TR SLP267 DENSITY ALT 500FT

CYGK;2015-09-23 16:00;CYGK 231600Z 18009KT 15SM FEW030 20/17 A3032 RMK CU1 CU TR SLP266 DENSITY ALT 500FT

CYGK;2015-09-23 17:00;CYGK 231700Z 17008KT 15SM FEW030 21/16 A3030 RMK CU1 CU TR SLP262 DENSITY ALT 600FT

CYGK;2015-09-23 18:00;CYGK 231800Z 18009KT 15SM FEW030 21/17 A3028 RMK CU1 CU TR SLP255 DENSITY ALT 600FT

CYGK;2015-09-23 19:00;CYGK 231900Z 19011KT 15SM FEW035 21/17 A3027 RMK CF1 CF TR SLP250 DENSITY ALT 600FT

CYGK;2015-09-23 20:00;CYGK 232000Z 20011KT 15SM FEW030 FEW270 21/17 A3026 RMK CF1CI1 CF TR SLP246 DENSITY ALT 600FT

CYGK;2015-09-23 21:00;CYGK 232100Z 21009KT 15SM FEW030 FEW270 21/17 A3026 RMK CF1CI1 CF TR SLP246 DENSITY ALT 600FT

CYGK;2015-09-23 22:00;CYGK 232200Z 20005KT 15SM FEW150 21/17 A3026 RMK AC1 SLP247 DENSITY ALT 600FT

CYGK;2015-09-23 23:00;CYGK 232300Z 19005KT 15SM FEW150 19/15 A3026 RMK AC1 SLP248 DENSITY ALT 400FT

CYGK;2015-09-24 00:00;CYGK 240000Z 22003KT 15SM FEW150 19/17 A3026 RMK AC1 AC TR SLP249

CYGK;2015-09-24 01:00;CYGK 240100Z 26003KT 15SM FEW150 17/15 A3028 RMK AC1 AC TR SLP253

CYGK;2015-09-24 02:00;CYGK 240200Z 30002KT 15SM FEW075 17/15 A3028 RMK AC1 SLP254

CYGK;2015-09-24 03:00;CYGK 240300Z 32006KT 15SM FEW075 16/14 A3028 RMK AC1 LAST STFD OBS/NEXT 241000 UTC SLP255

CYGK;2015-09-24 10:00;CYGK 241000Z 01003KT 15SM SCT059 14/13 A3033 RMK SC4 SLP272

CYGK;2015-09-24 11:00;CYGK 241100Z 02006KT 15SM MIFG SCT059 13/13 A3036 RMK SC4 SLP280

CYGK;2015-09-24 12:00;CYGK 241200Z 04008KT 15SM FEW060 16/15 A3037 RMK SC2 SLP286

CYGK;2015-09-24 13:00;CYGK 241300Z 05011KT 15SM FEW030 FEW150 FEW210 17/15 A3039 RMK SC1AC1CI1 SC TR AC TR CI TR SLP292

CYGK;2015-09-24 14:00;CYGK 241400Z 06011KT 15SM FEW015 FEW070 FEW210 18/15 A3040 RMK CF1AC1CI1 CF TR AC TR CI TR SLP295

CYGK;2015-09-24 15:00;CYGK 241500Z 03007KT 010V070 15SM FEW020 FEW070 FEW270 20/16 A3040 RMK CF1AC1CI1 CF TR AC TR SLP296

CYGK;2015-09-24 16:00;CYGK 241600Z 04008KT 010V070 15SM FEW020 FEW250 21/15 A3040 RMK CU1CI1 CU TR SLP295 DENSITY ALT 500FT

CYGK;2015-09-24 17:00;CYGK 241700Z 05010KT 010V070 15SM FEW035 FEW270 22/14 A3040 RMK CU1CI2 CU TR SLP293 DENSITY ALT 600FT

CYGK;2015-09-24 18:00;CYGK 241800Z 07009KT 15SM FEW040 SCT270 22/13 A3038 RMK CU1CI3 CU TR SLP289 DENSITY ALT 700FT

CYGK;2015-09-24 19:00;CYGK 241900Z 06009G15KT 360V080 15SM FEW040 SCT270 23/13 A3038 RMK CU1CI4 CU TR SLP287 DENSITY ALT 700FT

CYGK;2015-09-24 20:00;CYGK 242000Z 06010KT 15SM FEW040 SCT270 23/11 A3037 RMK CU1CI4 CU TR SLP285 DENSITY ALT 700FT

CYGK;2015-09-24 21:00;CYGK 242100Z 04010KT 15SM FEW040 BKN250 22/11 A3037 RMK CU1CI6 CU TR SLP286 DENSITY ALT 600FT

CYGK;2015-09-24 22:00;CYGK 242200Z 06010KT 15SM BKN250 20/10 A3038 RMK CI7 SLP289 DENSITY ALT 400FT

CYGK;2015-09-24 23:00;CYGK 242300Z 04007KT 15SM BKN250 19/10 A3038 RMK CI7 SLP289

CYGK;2015-09-25 00:00;CYGK 250000Z 03006KT 15SM BKN220 18/10 A3039 RMK CI5 SLP292

CYGK;2015-09-25 01:00;CYGK 250100Z 05007KT 15SM BKN220 17/10 A3040 RMK CI5 SLP295

CYGK;2015-09-25 02:00;CYGK 250200Z 06007KT 15SM BKN220 16/09 A3040 RMK CI6 SLP295

CYGK;2015-09-25 03:00;CYGK 250300Z 05008KT 15SM BKN230 15/09 A3041 RMK CI7 LAST STFD OBS/NEXT 251000 UTC SLP297

CYGK;2015-09-25 10:00;CYGK 251000Z 04010KT 15SM SCT200 BKN250 12/07 A3037 RMK CI4CI2 SLP287

CYGK;2015-09-25 11:00;CYGK 251100Z 04009KT 15SM SCT220 BKN250 12/06 A3038 RMK CI4CI2 SLP290

CYGK;2015-09-25 12:00;CYGK 251200Z 05010KT 15SM SCT220 BKN250 12/06 A3039 RMK CI3CI4 SLP293

CYGK;2015-09-25 13:00;CYGK 251300Z 04010KT 15SM FEW170 BKN200 BKN240 13/06 A3041 RMK ACC1CC5CI2 ACC TR SLP299

CYGK;2015-09-25 14:00;CYGK 251400Z 04012G19KT 15SM FEW170 BKN220 BKN250 13/06 A3043 RMK ACC1CC5CI1 ACC TR SLP304

CYGK;2015-09-25 15:00;CYGK 251500Z 04010G16KT 15SM FEW170 SCT180 BKN240 15/06 A3043 RMK AC1CC3CI2 AC TR SLP304

CYGK;2015-09-25 16:00;CYGK 251600Z 05011G19KT 15SM SCT200 BKN250 17/07 A3042 RMK CC4CI2 SLP303

CYGK;2015-09-25 17:00;CYGK 251700Z 04011G18KT 15SM FEW170 SCT190 SCT230 19/07 A3041 RMK AC1CC3CI1 AC TR SLP299

CYGK;2015-09-25 18:00;CYGK 251800Z 03012G18KT 360V080 15SM SCT180 BKN200 20/06 A3038 RMK AC3CI2 SLP289

CYGK;2015-09-25 19:00;CYGK 251900Z 05013KT 010V070 15SM FEW180 FEW250 20/07 A3037 RMK AC1CI1 SLP284

CYGK;2015-09-25 20:00;CYGK 252000Z 07010KT 010V080 15SM FEW180 FEW250 20/06 A3036 RMK AC1CI2 AC TR SLP280 DENSITY ALT 400FT

CYGK;2015-09-25 21:00;CYGK 252100Z 06010G16KT 15SM FEW180 SCT250 19/05 A3036 RMK AC1CI3 SLP282

CYGK;2015-09-25 22:00;CYGK 252200Z 04009G15KT 15SM FEW090 SCT250 18/06 A3038 RMK AC1CI2 SLP288

CYGK;2015-09-25 23:00;CYGK 252300Z 03009G15KT 15SM FEW090 SCT250 16/05 A3039 RMK AC1CI2 SLP292

CYGK;2015-09-26 00:00;CYGK 260000Z 04011G17KT 15SM FEW080 SCT250 15/05 A3041 RMK AC1CI2 SLP298

CYGK;2015-09-26 01:00;CYGK 260100Z 04008KT 15SM FEW080 SCT250 14/05 A3042 RMK AC1CI3 AC TR SLP302

CYGK;2015-09-26 02:00;CYGK 260200Z 03006KT 15SM FEW250 13/05 A3042 RMK CI2 SLP303

CYGK;2015-09-26 03:00;CYGK 260300Z 03008KT 15SM FEW250 12/05 A3043 RMK CI1 LAST STFD OBS/NEXT 261000UTC SLP306

CYGK;2015-09-26 10:00;CYGK 261000Z 03008KT 15SM FEW250 10/05 A3045 RMK CI2 SLP311

CYGK;2015-09-26 11:00;CYGK 261100Z 03008KT 15SM SCT250 10/05 A3046 RMK CI3 SLP317

CYGK;2015-09-26 12:00;CYGK 261200Z 04009G15KT 15SM SCT250 11/05 A3048 RMK CI3 SLP324

CYGK;2015-09-26 13:00;CYGK 261300Z 05011G19KT 15SM SCT250 13/05 A3048 RMK CI3 SLP323

CYGK;2015-09-26 14:00;CYGK 261400Z 06012G18KT 15SM SCT250 15/06 A3049 RMK CI3 SLP325

CYGK;2015-09-26 15:00;CYGK 261500Z 07010KT 15SM SCT250 17/05 A3049 RMK CI3 SLP326

CYGK;2015-09-26 16:00;CYGK 261600Z 06012KT 15SM FEW250 19/03 A3049 RMK CI2 SLP325

CYGK;2015-09-26 17:00;CYGK 261700Z 06006KT 030V100 15SM FEW250 20/03 A3048 RMK CI2 SLP322

CYGK;2015-09-26 18:00;CYGK 261800Z 10007KT 15SM FEW250 21/05 A3046 RMK CI2 SLP314 DENSITY ALT 400FT

CYGK;2015-09-26 19:00;CYGK 261900Z 10008KT 15SM FEW250 21/05 A3044 RMK CI2 SLP309 DENSITY ALT 400FT

CYGK;2015-09-26 20:00;CYGK 262000Z 13008KT 15SM FEW250 21/06 A3042 RMK CI2 SLP303 DENSITY ALT 400FT

CYGK;2015-09-26 21:00;CYGK 262100Z 11007KT 15SM FEW250 21/07 A3041 RMK CI2 SLP299 DENSITY ALT 400FT

CYGK;2015-09-26 22:00;CYGK 262200Z 10004KT 15SM FEW250 19/08 A3041 RMK CI1 SLP298

CYGK;2015-09-26 23:00;CYGK 262300Z 05003KT 15SM FEW250 18/05 A3040 RMK CI1 SLP295

CYGK;2015-09-27 00:00;CYGK 270000Z 06003KT 15SM FEW250 15/06 A3040 RMK CI1 SLP295

CYGK;2015-09-27 01:00;CYGK 270100Z 04003KT 15SM FEW250 14/06 A3041 RMK CI1 SLP298

CYGK;2015-09-27 02:00;CYGK 270200Z 05006KT 15SM FEW250 14/08 A3040 RMK CI1 SLP296

CYGK;2015-09-27 03:00;CYGK 270300Z VRB02KT 15SM FEW250 13/08 A3041 RMK CI1 CI TR LAST STFD OBS/NEXT 271000UTC SLP299

CYGK;2015-09-27 10:00;CYGK 271000Z 18016KT 15SM SKC 17/14 A3037 RMK SLP283

CYGK;2015-09-27 11:00;CYGK 271100Z 19018G23KT 15SM FEW270 17/14 A3037 RMK CI1 SLP284

CYGK;2015-09-27 12:00;CYGK 271200Z 18016G22KT 15SM FEW270 17/14 A3039 RMK CI1 SLP291

CYGK;2015-09-27 13:00;CYGK 271300Z 18014G22KT 15SM FEW025 FEW250 17/14 A3039 RMK CU1CI1 CU TR SLP292

CYGK;2015-09-27 14:00;CYGK 271400Z 18017KT 15SM FEW018 FEW270 17/13 A3039 RMK CU1CI1 SLP292

CYGK;2015-09-27 15:00;CYGK 271500Z 19016KT 15SM FEW020 18/13 A3039 RMK CU2 SLP291

CYGK;2015-09-27 16:00;CYGK 271600Z 18014KT 15SM FEW020 FEW270 18/13 A3037 RMK CU1CI1 CU TR SLP286

CYGK;2015-09-27 17:00;CYGK 271700Z 17013KT 15SM FEW120 FEW250 19/13 A3035 RMK AC1CI1 AC TR SLP278

CYGK;2015-09-27 18:00;CYGK 271800Z 17011KT 15SM FEW150 19/13 A3032 RMK ACC1 SLP269

CYGK;2015-09-27 19:00;CYGK 271900Z 17010KT 15SM FEW120 19/13 A3029 RMK AC1 SLP257 DENSITY ALT 400FT

CYGK;2015-09-27 20:00;CYGK 272000Z 16011KT 15SM FEW140 20/13 A3026 RMK AC2 SLP248 DENSITY ALT 500FT

CYGK;2015-09-27 21:00;CYGK 272100Z 16009KT 15SM FEW140 20/13 A3024 RMK AC2 SLP240 DENSITY ALT 600FT

CYGK;2015-09-27 22:00;CYGK 272200Z 16007KT 15SM FEW140 20/15 A3022 RMK AC2 SLP233 DENSITY ALT 600FT

CYGK;2015-09-27 23:00;CYGK 272300Z 16009KT 15SM SCT120 19/15 A3020 RMK AC3 SLP228 DENSITY ALT 500FT

CYGK;2015-09-28 00:00;CYGK 280000Z 16009KT 15SM BKN120 20/15 A3020 RMK AC5 SLP225 DENSITY ALT 600FT

CYGK;2015-09-28 01:00;CYGK 280100Z 16011KT 15SM BKN130 20/14 A3019 RMK AC7 SLP223 DENSITY ALT 600FT

CYGK;2015-09-28 02:00;CYGK 280200Z 18015KT 15SM FEW130 20/14 A3018 RMK AC2 SLP220 DENSITY ALT 600FT

CYGK;2015-09-28 03:00;CYGK 280300Z 18015G20KT 15SM BKN100 20/15 A3017 RMK AC5 LAST STFD OBS/NEXT 281000UTC SLP218 DENSITY ALT 600FT

CYGK;2015-09-28 10:00;CYGK 281000Z 18014G20KT 15SM OVC052 18/16 A3015 RMK SC8 SLP211 DENSITY ALT 400FT

CYGK;2015-09-28 10:51;CYGK 281051Z 18016G21KT 10SM -RA OVC044 18/16 A3015 RMK SC8 SLP211 DENSITY ALT 400FT

CYGK;2015-09-28 11:00;CYGK 281100Z 18014G20KT 12SM -RA BKN044 OVC060 18/16 A3015 RMK SC7SC1 SLP211 DENSITY ALT 400FT

CYGK;2015-09-28 11:17;CYGK 281117Z 18016G21KT 12SM FEW026 BKN045 OVC060 18/16 A3015 RMK SC1SC6SC1 SLP211 DENSITY ALT 400FT

CYGK;2015-09-28 12:04;CYGK 281204Z 19017KT 7SM -RA BKN025 OVC060 18/16 A3016 RMK SC7SC1 VIS N 3 SLP214 DENSITY ALT 400FT

CYGK;2015-09-28 13:00;CYGK 281300Z 19012KT 10SM -RA FEW012 OVC024 18/17 A3016 RMK SF1SC7 SLP213 DENSITY ALT 400FT

CYGK;2015-09-28 13:45;CYGK 281345Z 19014KT 8SM VCSH BKN016 OVC023 18/17 A3016 RMK SC6SC2 SLP212 DENSITY ALT 400FT

CYGK;2015-09-28 14:00;CYGK 281400Z 20014KT 1 1/2SM -RA BR OVC015 18/17 A3016 RMK SC8 SLP212 DENSITY ALT 400FT

CYGK;2015-09-28 14:34;CYGK 281434Z 19014G20KT 4SM BR OVC014 18/17 A3015 RMK SC8 INTMT -RA VIS S 9 SLP210 DENSITY ALT 400FT

CYGK;2015-09-28 15:00;CYGK 281500Z 19011KT 4SM -RA BR FEW008 OVC010 18/17 A3015 RMK SF2SC6 SLP209 DENSITY ALT 400FT

CYGK;2015-09-28 15:48;CYGK 281548Z 19013KT 1 1/2SM -RA BR SCT004 OVC010 18/17 A3014 RMK SF4SC4 SLP208 DENSITY ALT 400FT

CYGK;2015-09-28 16:00;CYGK 281600Z 20013KT 1 1/2SM -RA BR BKN004 OVC010 18/17 A3014 RMK SF5SC3 SLP208 DENSITY ALT 400FT

CYGK;2015-09-28 17:00;CYGK 281700Z 20012KT 1 3/4SM -RA BR BKN004 OVC010 18/18 A3013 RMK SF6SC2 SLP204 DENSITY ALT 400FT

CYGK;2015-09-28 18:00;CYGK 281800Z 20011KT 1 1/2SM -RA BR BKN003 OVC010 18/18 A3011 RMK SF6SC2 SLP197 DENSITY ALT 500FT

CYGK;2015-09-28 19:00;CYGK 281900Z 18009KT 1 1/2SM -RA BR BKN003 OVC008 18/18 A3009 RMK SF6SC2 SLP188 DENSITY ALT 500FT

CYGK;2015-09-28 20:00;CYGK 282000Z 20011KT 2SM -RA BR OVC004 19/19 A3006 RMK SF8 CIG RGD SLP181 DENSITY ALT 600FT

CYGK;2015-09-28 21:00;CYGK 282100Z 20011KT 1 1/2SM -RA BR OVC003 19/18 A3005 RMK FG4SF4 SLP177 DENSITY ALT 600FT

CYGK;2015-09-28 22:00;CYGK 282200Z 19007KT 4SM BR BKN003 OVC017 19/19 A3004 RMK SF5SC3 SLP173 DENSITY ALT 600FT

CYGK;2015-09-28 22:40;CYGK 282240Z 19008KT 10SM FEW004 OVC015 19/19 A3003 RMK SF2SC6 SLP171 DENSITY ALT 700FT

CYGK;2015-09-28 23:00;CYGK 282300Z 20011KT 12SM FEW004 OVC017 19/19 A3003 RMK SF1SC7 SLP170 DENSITY ALT 700FT

CYGK;2015-09-28 23:28;CYGK 282328Z 20009G16KT 4SM -RA BR BKN004 OVC015 19/19 A3003 RMK SF5SC3 SLP169 DENSITY ALT 700FT

CYGK;2015-09-28 23:37;CYGK 282337Z 20011KT 2SM -RA BR OVC003 19/19 A3003 RMK FG2SF6 SLP169 DENSITY ALT 700FT

CYGK;2015-09-29 00:00;CYGK 290000Z 19012KT 6SM -RA BR OVC003 19/19 A3003 RMK SF8 SLP169 DENSITY ALT 700FT

CYGK;2015-09-29 01:00;CYGK 290100Z 20010KT 4SM -RA BR OVC002 19/19 A3003 RMK SF8 SLP171 DENSITY ALT 700FT

CYGK;2015-09-29 02:00;CYGK 290200Z 19013KT 6SM -RA BR OVC004 19/19 A3003 RMK SF8 SLP169 DENSITY ALT 700FT

CYGK;2015-09-29 02:25;CYGK 290225Z 19012KT 8SM -RA BKN004 OVC013 19/19 A3003 RMK SF5SC3 SLP170 DENSITY ALT 700FT

CYGK;2015-09-29 03:00;CYGK 290300Z 20009KT 10SM BKN006 OVC018 19/19 A3003 RMK SF5SC3 LAST STFD OBS/NEXT 291000 UTC SLP169 DENSITY ALT 700FT

CYGK;2015-09-29 10:00;CYGK 291000Z 18009KT 12SM FEW002 OVC014 19/19 A2996 RMK SF1SC8 SF TR SLP144 DENSITY ALT 800FT

CYGK;2015-09-29 11:00;CYGK 291100Z 21007KT 12SM FEW003 OVC015 19/19 A2996 RMK SF1SC8 SF TR VIS LWR N SLP146 DENSITY ALT 700FT

CYGK;2015-09-29 12:00;CYGK 291200Z 20006KT 15SM FEW003 BKN013 BKN170 20/19 A2997 RMK SF1SC6AC1 SF TR SLP147 DENSITY ALT 800FT

CYGK;2015-09-29 13:00;CYGK 291300Z 19009KT 15SM BKN014 OVC170 20/19 A2997 RMK SC7AC1 SLP148 DENSITY ALT 800FT

CYGK;2015-09-29 14:00;CYGK 291400Z 22004KT 15SM FEW005 OVC018 20/19 A2997 RMK SF1SC8 SF TR SLP148 DENSITY ALT 900FT

CYGK;2015-09-29 15:00;CYGK 291500Z 20007KT 15SM FEW006 BKN020 OVC045 20/19 A2997 RMK SF1SC6SC2 SF TR SLP147 DENSITY ALT 900FT

CYGK;2015-09-29 15:08;CYGK 291508Z 20007KT 12SM -SHRA FEW011 OVC021 20/19 A2996 RMK CF1SC7 SLP146 DENSITY ALT 900FT

CYGK;2015-09-29 15:25;CYGK 291525Z 20008KT 12SM FEW012 OVC022 21/19 A2996 RMK CF2SC6 SLP146 DENSITY ALT 900FT

CYGK;2015-09-29 15:38;CYGK 291538Z 20007KT 10SM SCT008 OVC021 20/19 A2996 RMK CF3SC5 SLP145 DENSITY ALT 900FT

CYGK;2015-09-29 16:00;CYGK 291600Z 19005KT 12SM SCT008 OVC021 20/20 A2995 RMK CF3SC5 SLP143 DENSITY ALT 900FT

CYGK;2015-09-29 16:05;CYGK 291605Z 20006KT 12SM -RA SCT008 OVC021 21/20 A2995 RMK CF3SC5 SLP142 DENSITY ALT 900FT

CYGK;2015-09-29 17:00;CYGK 291700Z 21007KT 2SM -RA BR SCT006 OVC021 20/20 A2995 RMK SF4SC4 SLP142 DENSITY ALT 900FT

CYGK;2015-09-29 17:50;CYGK 291750Z 20008KT 2SM -RA BR BKN004 OVC014 20/20 A2995 RMK SF6SC2 VIS HIER W SLP140 DENSITY ALT 900FT

CYGK;2015-09-29 18:00;CYGK 291800Z 20008KT 1 3/4SM -RA BR BKN003 OVC014 20/20 A2994 RMK SF6SC2 VIS W 10 SLP138 DENSITY ALT 900FT

CYGK;2015-09-29 18:24;CYGK 291824Z 20007KT 5SM BR SCT004 BKN017 OVC075 20/20 A2993 RMK SF3SC4AC1 SLP136 DENSITY ALT 900FT

CYGK;2015-09-29 19:00;CYGK 291900Z 23009KT 4SM -RA BR FEW005 BKN015 OVC040 20/20 A2993 RMK SF2CU3SC3 SLP135 DENSITY ALT 900FT

CYGK;2015-09-29 19:19;CYGK 291919Z 23007KT 2SM -RA BR SCT005 BKN015 OVC040 20/20 A2993 RMK SF3SC3SC2 SLP135 DENSITY ALT 900FT

CYGK;2015-09-29 20:00;CYGK 292000Z 25005KT 2SM -RA BR SCT007 BKN020 OVC040 20/20 A2993 RMK SF3SC3SC2 SLP134 DENSITY ALT 900FT

CYGK;2015-09-29 21:00;CYGK 292100Z 00000KT 6SM -RA BR FEW003 SCT010 OVC050 20/19 A2992 RMK SF2CU2SC4 SLP132 DENSITY ALT 900FT

CYGK;2015-09-29 21:41;CYGK 292141Z 03016G25KT 310V040 6SM -RA BR SCT003 OVC013TCU 17/16 A2994 RMK ST3TCU5 SLP137 DENSITY ALT 500FT

CYGK;2015-09-29 22:00;CYGK 292200Z 02012G19KT 5SM -RA BR SCT004 OVC017TCU 15/15 A2995 RMK SF3TCU5 SLP141

CYGK;2015-09-29 23:00;CYGK 292300Z 02010KT 6SM -RA BR FEW005 BKN015 OVC035 14/14 A2995 RMK SF2CU3SC3 SLP144

CYGK;2015-09-30 00:00;CYGK 300000Z 03012G21KT 6SM -RA BR FEW007 BKN020 OVC040 14/13 A2997 RMK SF2CU3SC3 SLP148

CYGK;2015-09-30 01:00;CYGK 300100Z 05012G18KT 10SM -RA FEW010 BKN025 OVC060 13/12 A2998 RMK CU1SC4SC3 SLP151

CYGK;2015-09-30 02:00;CYGK 300200Z 04010G17KT 10SM -RA BKN030 OVC045 14/12 A2998 RMK SC6SC2 SLP154

CYGK;2015-09-30 03:00;CYGK 300300Z 03007KT 10SM -RA FEW010 OVC033 13/13 A3000 RMK CF2SC6 LAST STFD OBS/NEXT 301000 UTC SLP158

CYGK;2015-09-30 10:00;CYGK 301000Z 01015G23KT 8SM -RA BKN008 OVC025 13/12 A2995 RMK SF6SC2 SLP142

CYGK;2015-09-30 10:33;CYGK 301033Z 01017G25KT 10SM OVC009 12/11 A2995 RMK SF8 SLP141

CYGK;2015-09-30 11:00;CYGK 301100Z 01015G25KT 10SM SCT008 OVC013 12/10 A2995 RMK SF4SC4 SLP145

CYGK;2015-09-30 11:27;CYGK 301127Z 02017G26KT 12SM FEW008 OVC017 11/09 A2998 RMK SF2SC6 PRESRR SLP154

CYGK;2015-09-30 12:00;CYGK 301200Z 02011G25KT 12SM FEW008 BKN020 OVC054 11/09 A2998 RMK SF2SC4SC2 SLP153

CYGK;2015-09-30 13:00;CYGK 301300Z 01015G22KT 15SM FEW008 BKN022 OVC054 11/08 A2999 RMK SF1SC6SC2 SF TR SLP158

CYGK;2015-09-30 14:00;CYGK 301400Z 02014G24KT 15SM SCT022 OVC058 11/07 A3001 RMK SC4SC4 SLP164

CYGK;2015-09-30 15:00;CYGK 301500Z 02016G25KT 15SM SCT025 OVC060 12/08 A3004 RMK SC4SC4 SLP172

CYGK;2015-09-30 16:00;CYGK 301600Z 01014G26KT 15SM BKN025 BKN057 12/07 A3005 RMK SC5SC2 SLP178

CYGK;2015-09-30 17:00;CYGK 301700Z 01018G24KT 15SM BKN029 OVC060 12/07 A3006 RMK SC7SC1 SLP182

CYGK;2015-09-30 18:00;CYGK 301800Z 02019G26KT 15SM BKN029 BKN060 BKN240 13/07 A3007 RMK SC6SC1CI1 CI TR SLP185

CYGK;2015-09-30 19:00;CYGK 301900Z 02014G23KT 15SM BKN028 OVC240 13/07 A3009 RMK SC7CI1 SLP190

CYGK;2015-09-30 20:00;CYGK 302000Z 02011G23KT 15SM BKN038 BKN250 14/07 A3010 RMK SC5CI2 SLP195

CYGK;2015-09-30 21:00;CYGK 302100Z 01015G23KT 15SM FEW038 SCT120 BKN250 14/06 A3012 RMK SC2AC1CI3 SLP201

CYGK;2015-09-30 22:00;CYGK 302200Z 01015G21KT 15SM SCT039 SCT120 BKN250 13/05 A3014 RMK SC4AC1CI3 AC TR SLP208

CYGK;2015-09-30 23:00;CYGK 302300Z 01012G20KT 15SM SCT040 SCT120 BKN250 12/04 A3017 RMK SC3AC1CI3 SLP217

CYGK;2015-10-01 00:00;CYGK 010000Z 01011G17KT 15SM FEW040 BKN250 11/04 A3018 RMK SC1CI6 SLP223

CYGK;2015-10-01 01:00;CYGK 010100Z 36010G15KT 15SM FEW040 BKN250 09/04 A3020 RMK SC2CI4 SLP229

CYGK;2015-10-01 02:00;CYGK 010200Z 36009KT 15SM FEW040 BKN250 09/04 A3022 RMK SC1CI5 SLP235

CYGK;2015-10-01 03:00;CYGK 010300Z 36011KT 15SM BKN250 09/04 A3023 RMK CI5 LAST STFD OBS / NEXT 011000 UTC SLP239

CYGK;2015-10-01 10:00;CYGK 011000Z 01009KT 15SM FEW030 FEW250 05/02 A3029 RMK SC1CI1 SC TR SLP259

CYGK;2015-10-01 11:00;CYGK 011100Z 02009G15KT 15SM FEW015 SCT250 04/01 A3031 RMK CF1CI3 CF TR SLP265

CYGK;2015-10-01 12:00;CYGK 011200Z 02009G15KT 15SM FEW015 SCT250 05/02 A3033 RMK CF1CI4 CF TR SLP274

CYGK;2015-10-01 13:00;CYGK 011300Z 03010G16KT 15SM FEW015 SCT270 07/02 A3034 RMK CF1CI4 CF TR SLP276

CYGK;2015-10-01 14:00;CYGK 011400Z 03012G22KT 15SM FEW020 BKN270 08/03 A3035 RMK CF1CI5 CF TR SLP280

CYGK;2015-10-01 15:00;CYGK 011500Z 03014G22KT 15SM FEW025 BKN270 09/02 A3034 RMK CF1CI7 CF TR SLP277

CYGK;2015-10-01 16:00;CYGK 011600Z 03011G21KT 15SM FEW025 BKN220 11/03 A3034 RMK CF1CI7 CF TR SLP276

CYGK;2015-10-01 17:00;CYGK 011700Z 03018G25KT 15SM FEW030 FEW200 BKN270 12/01 A3034 RMK CF1CI1CI6 CF TR SLP276

CYGK;2015-10-01 18:00;CYGK 011800Z 01017G23KT 15SM FEW040 FEW170 BKN230 13/02 A3032 RMK CF1CI1CI5 CF TR SLP271

CYGK;2015-10-01 19:00;CYGK 011900Z 04013G24KT 350V060 15SM FEW170 BKN240 13/02 A3032 RMK AC1CI4 SLP269

CYGK;2015-10-01 20:00;CYGK 012000Z 02014G24KT 15SM FEW170 SCT240 14/01 A3033 RMK AC1CC4 AC TR SLP272

CYGK;2015-10-01 21:00;CYGK 012100Z 03012G20KT 15SM FEW170 SCT240 14/01 A3033 RMK AC1CI3 AC TR SLP273

CYGK;2015-10-01 22:00;CYGK 012200Z 04013G20KT 15SM FEW170 FEW240 13/01 A3034 RMK AC1CI2 AC TR SLP277

CYGK;2015-10-01 23:00;CYGK 012300Z 03009G15KT 15SM FEW170 FEW240 11/01 A3036 RMK AC1CI1 AC TR SLP285

CYGK;2015-10-02 00:00;CYGK 020000Z 36007KT 15SM FEW240 09/02 A3038 RMK CI1 SLP290

CYGK;2015-10-02 01:00;CYGK 020100Z 02009KT 15SM SKC 09/03 A3039 RMK SLP294

CYGK;2015-10-02 02:00;CYGK 020200Z 02009G16KT 15SM FEW240 09/02 A3039 RMK CI1 SLP294

CYGK;2015-10-02 03:00;CYGK 020300Z 02010G17KT 15SM FEW240 09/02 A3040 RMK CI1 LAST STFD OBS/NEXT 021000 UTC SLP297

CYGK;2015-10-02 10:00;CYGK 021000Z 02010G18KT 15SM SCT250 06/00 A3042 RMK CI4 SLP303

CYGK;2015-10-02 11:00;CYGK 021100Z 01011G16KT 15SM SCT250 05/00 A3044 RMK CI4 SLP309

CYGK;2015-10-02 12:00;CYGK 021200Z 01011G17KT 15SM BKN250 06/M00 A3045 RMK CI7 SLP315

CYGK;2015-10-02 13:00;CYGK 021300Z 04015KT 15SM FEW022 BKN250 07/M00 A3046 RMK CF1CS7 CF TR SLP317

CYGK;2015-10-02 14:00;CYGK 021400Z 05014G22KT 15SM FEW025 FEW150 BKN250 08/01 A3046 RMK CF1AS1CS6 CF TR SLP316

CYGK;2015-10-02 15:00;CYGK 021500Z 04014G23KT 15SM FEW030 SCT160 BKN250 09/01 A3047 RMK CF1AS3CS4 CF TR SLP320

CYGK;2015-10-02 16:00;CYGK 021600Z 02015G22KT 360V070 15SM FEW030 FEW160 BKN240 10/02 A3045 RMK CF1AC1CS6 CF TR SLP315

CYGK;2015-10-02 17:00;CYGK 021700Z 03018G28KT 15SM SCT045 BKN180 OVC240 11/01 A3045 RMK CU3AS2CS3 SLP314

CYGK;2015-10-02 18:00;CYGK 021800Z 04017G28KT 15SM FEW045 BKN170 OVC250 11/00 A3044 RMK CU1AS4CS3 SLP310

CYGK;2015-10-02 19:00;CYGK 021900Z 03020G29KT 15SM FEW045 BKN160 OVC250 11/M01 A3042 RMK CU1AS6CS2 CU TR SLP304

CYGK;2015-10-02 20:00;CYGK 022000Z 03016KT 15SM FEW045 BKN160 OVC240 11/M00 A3044 RMK CU1AS7CS1 CU TR SLP308

CYGK;2015-10-02 21:00;CYGK 022100Z 04013KT 15SM FEW050 BKN160 OVC240 11/M01 A3045 RMK CU1AS7CS1 CU TR SLP314

CYGK;2015-10-02 22:00;CYGK 022200Z 05014G28KT 15SM FEW050 BKN160 BKN240 11/M01 A3046 RMK CU1AS6CS1 CU TR SLP319

CYGK;2015-10-02 23:00;CYGK 022300Z 02008KT 15SM BKN160 BKN230 10/M00 A3047 RMK AS5CI2 SLP322

CYGK;2015-10-03 00:00;CYGK 030000Z 03009KT 15SM BKN160 BKN230 09/00 A3047 RMK AS5CI2 SLP322

CYGK;2015-10-03 01:00;CYGK 030100Z 04011G19KT 15SM SCT140 BKN230 09/00 A3047 RMK AC3CI2 SLP321

CYGK;2015-10-03 02:00;CYGK 030200Z 04012G21KT 15SM BKN240 09/M00 A3047 RMK CI6 SLP322

CYGK;2015-10-03 03:00;CYGK 030300Z 04014G24KT 15SM BKN240 08/M01 A3047 RMK CI6 LAST STFD OBS/NEXT 031000 UTC SLP322

CYGK;2015-10-03 10:00;CYGK 031000Z 04014G24KT 15SM FEW016 BKN260 05/01 A3049 RMK CF1CI7 CF TR SLP329

CYGK;2015-10-03 11:00;CYGK 031100Z 05012KT 15SM FEW012 FEW150 BKN260 05/02 A3050 RMK CF1AC1CI6 CF TR SLP331

CYGK;2015-10-03 12:00;CYGK 031200Z 05012G19KT 15SM FEW012 FEW150 FEW240 BKN280 06/02 A3052 RMK CF1AC1CC2CI5 CF TR AC TR SLP336

CYGK;2015-10-03 13:00;CYGK 031300Z 05012G23KT 15SM FEW019 FEW150 BKN240 07/03 A3050 RMK CF1AC1CI5 SLP331

CYGK;2015-10-03 14:00;CYGK 031400Z 05016G27KT 15SM FEW024 FEW150 BKN260 08/02 A3049 RMK CF1AC1CI6 CF TR AC TR SLP327

CYGK;2015-10-03 15:00;CYGK 031500Z 05018G28KT 15SM FEW025 SCT120 BKN260 08/02 A3049 RMK CF1AC3CI4 CF TR SLP327

CYGK;2015-10-03 16:00;CYGK 031600Z 04017G26KT 15SM FEW025 FEW170 BKN250 10/02 A3047 RMK CF1AC2CI5 CF TR SLP322

CYGK;2015-10-03 17:00;CYGK 031700Z 03020G30KT 15SM FEW025 SCT160 BKN240 11/01 A3045 RMK CF1AC3CI4 CF TR SLP314

CYGK;2015-10-03 18:00;CYGK 031800Z 05019G27KT 15SM FEW030 SCT160 BKN260 12/01 A3044 RMK CF1AC3CI4 CF TR SLP309

CYGK;2015-10-03 19:00;CYGK 031900Z 05018G28KT 15SM FEW080 SCT170 BKN240 12/02 A3043 RMK AC1AC3CI3 SLP305

CYGK;2015-10-03 20:00;CYGK 032000Z 04014G25KT 020V080 15SM FEW080 SCT170 BKN240 12/02 A3041 RMK AC1AC3CI3 SLP302

CYGK;2015-10-03 21:00;CYGK 032100Z 05013G28KT 15SM FEW080 SCT170 BKN240 11/03 A3042 RMK AC1AC3CI3 SLP305

CYGK;2015-10-03 22:00;CYGK 032200Z 05015G26KT 15SM FEW080 BKN190 BKN240 11/03 A3043 RMK AC2AC4CI1 SLP308

CYGK;2015-10-03 23:00;CYGK 032300Z 05012G19KT 15SM SCT100 BKN220 10/03 A3044 RMK AC4CI3 SLP311

CYGK;2015-10-04 00:00;CYGK 040000Z 04009G19KT 15SM BKN100 10/03 A3044 RMK AC7 SLP310

CYGK;2015-10-04 01:00;CYGK 040100Z 05010G17KT 15SM BKN100 OVC170 10/04 A3045 RMK AC5AC3 SLP314

CYGK;2015-10-04 02:00;CYGK 040200Z 04009KT 15SM SCT100 BKN160 10/04 A3045 RMK AC3AC4 SLP315

CYGK;2015-10-04 03:00;CYGK 040300Z 06011G17KT 15SM BKN100 10/03 A3044 RMK AC7 LAST STFD OBS/NEXT 041000UTC SLP312

CYGK;2015-10-04 10:00;CYGK 041000Z 05010KT 15SM FEW070 BKN130 08/04 A3040 RMK AC1AC6 SLP297

CYGK;2015-10-04 11:00;CYGK 041100Z 05008KT 15SM FEW130 BKN250 07/04 A3040 RMK AC2CI4 SLP297

CYGK;2015-10-04 12:00;CYGK 041200Z 05008KT 15SM FEW130 BKN250 08/05 A3042 RMK AC2CI5 SLP303

CYGK;2015-10-04 13:00;CYGK 041300Z 06009KT 15SM SCT130 BKN250 10/06 A3042 RMK AC3CI3 SLP303

CYGK;2015-10-04 14:00;CYGK 041400Z 06007KT 15SM FEW060 BKN250 12/06 A3042 RMK SC2CI4 SLP302

CYGK;2015-10-04 15:00;CYGK 041500Z 10006KT 060V140 15SM FEW036 FEW060 BKN250 13/06 A3040 RMK SC1SC1CI4 SLP296

CYGK;2015-10-04 16:00;CYGK 041600Z 06008KT 060V130 15SM FEW035 FEW060 BKN250 14/05 A3039 RMK SC1SC1CI6 SC TR SC TR SLP293

CYGK;2015-10-04 17:00;CYGK 041700Z 07007KT 040V130 15SM FEW062 BKN250 14/07 A3036 RMK SC2CI5 SLP282

CYGK;2015-10-04 18:00;CYGK 041800Z 11007KT 060V130 15SM BKN063 BKN250 15/07 A3035 RMK SC6CI1 SLP277

CYGK;2015-10-04 19:00;CYGK 041900Z 05005KT 15SM BKN060 BKN250 15/07 A3032 RMK SC6CI1 SLP267

CYGK;2015-10-04 20:00;CYGK 042000Z 08005KT 15SM BKN064 BKN250 16/06 A3030 RMK SC6CI1 SLP262

CYGK;2015-10-04 21:00;CYGK 042100Z 06007KT 15SM BKN058 BKN250 16/06 A3029 RMK SC6CI1 SLP257

CYGK;2015-10-04 22:00;CYGK 042200Z 04007KT 15SM BKN059 15/06 A3028 RMK SC7 SLP256

CYGK;2015-10-04 23:00;CYGK 042300Z 05006KT 15SM BKN057 BKN250 14/06 A3027 RMK SC6CI1 SLP252

CYGK;2015-10-05 00:00;CYGK 050000Z 05005KT 15SM BKN060 14/06 A3028 RMK SC7 SLP254

CYGK;2015-10-05 01:00;CYGK 050100Z 05006KT 15SM SCT075 12/05 A3028 RMK AC3 SLP254

CYGK;2015-10-05 02:00;CYGK 050200Z 05005KT 15SM SCT065 12/06 A3027 RMK SC4 SLP253

CYGK;2015-10-05 03:00;CYGK 050300Z 06003KT 15SM SCT064 11/06 A3026 RMK SC4 LAST STFD OBS/NEXT 051000UTC SLP250

CYGK;2015-10-05 10:00;CYGK 051000Z 05003KT 340V060 15SM FEW270 07/05 A3025 RMK CI1 SLP246

CYGK;2015-10-05 11:00;CYGK 051100Z 01004KT 15SM SCT080 06/05 A3025 RMK AC4 SLP245

CYGK;2015-10-05 12:00;CYGK 051200Z 07004KT 010V080 15SM BKN056 BKN270 09/07 A3026 RMK SC6CI1 SLP249

CYGK;2015-10-05 13:00;CYGK 051300Z 08003KT 15SM SCT056 BKN078 BKN250 11/06 A3026 RMK SC3AC3CI1 SLP247

CYGK;2015-10-05 14:00;CYGK 051400Z 14006KT 110V180 15SM BKN072 BKN090 13/06 A3025 RMK AC6AC1 SLP245

CYGK;2015-10-05 15:00;CYGK 051500Z 17010KT 15SM BKN060 BKN090 BKN250 13/06 A3025 RMK SC5AC2CI1 CI TR SLP245

CYGK;2015-10-05 16:00;CYGK 051600Z 17007KT 15SM BKN072 BKN250 14/06 A3024 RMK AC6CI1 SLP242

CYGK;2015-10-05 17:00;CYGK 051700Z 17007KT 15SM SCT044 BKN075 BKN250 14/04 A3023 RMK SC3AC4CI1 CI TR SLP238

CYGK;2015-10-05 18:00;CYGK 051800Z 19006KT 15SM BKN059 BKN075 13/05 A3021 RMK SC5AC2 SLP230

CYGK;2015-10-05 19:00;CYGK 051900Z VRB02KT 15SM BKN047 14/04 A3019 RMK SC7 SLP225

CYGK;2015-10-05 20:00;CYGK 052000Z 00000KT 15SM BKN047 OVC059 15/05 A3018 RMK SC7SC1 SLP221

CYGK;2015-10-05 21:01;CYGK 052101Z 00000KT 15SM BKN045 BKN058 15/04 A3016 RMK SC5SC2 SLP214

CYGK;2015-10-05 22:00;CYGK 052200Z 00000KT 15SM FEW045 SCT089 15/06 A3015 RMK SC1AC3 SLP211

CYGK;2015-10-05 23:00;CYGK 052300Z 00000KT 15SM BKN040 14/06 A3015 RMK SC7 SLP212

CYGK;2015-10-06 00:00;CYGK 060000Z 34002KT 15SM OVC045 13/07 A3015 RMK SC8 SLP211

CYGK;2015-10-06 01:00;CYGK 060100Z 34003KT 15SM BKN038 OVC080 13/09 A3015 RMK SC7AC1 SLP210

CYGK;2015-10-06 02:00;CYGK 060200Z 02002KT 15SM OVC037 13/08 A3014 RMK SC8 SLP207

CYGK;2015-10-06 03:00;CYGK 060300Z VRB02KT 15SM BKN035 OVC050 13/08 A3014 RMK SC7SC1 LAST STFD OBS/NEXT 061000UTC SLP206

CYGK;2015-10-06 10:00;CYGK 061000Z 35006KT 15SM OVC035 11/09 A3010 RMK SC8 SLP193

CYGK;2015-10-06 11:00;CYGK 061100Z 36005KT 15SM BKN034 11/10 A3009 RMK SC7 SLP192

CYGK;2015-10-06 12:00;CYGK 061200Z 36005KT 15SM BKN034 BKN100 12/10 A3010 RMK SC7AC1 AC TR SLP194

CYGK;2015-10-06 13:00;CYGK 061300Z 02004KT 15SM BKN036 BKN100 13/10 A3010 RMK SC7AC1 AC TR SLP195

CYGK;2015-10-06 14:00;CYGK 061400Z VRB02KT 15SM FEW025 BKN034 BKN100 13/10 A3011 RMK CU1SC7AC1 CU TR AC TR SLP196

CYGK;2015-10-06 15:00;CYGK 061500Z 14005KT 120V240 15SM FEW025 BKN030 BKN250 14/10 A3010 RMK CU1SC5CI1 SLP194

CYGK;2015-10-06 16:00;CYGK 061600Z 18007KT 15SM FEW025 BKN033 BKN250 14/09 A3009 RMK CU1SC5CI1 SLP190

CYGK;2015-10-06 17:00;CYGK 061700Z 19007KT 15SM FEW020 BKN031 BKN070 15/10 A3008 RMK CU1SC6AC1 AC TR SLP187

CYGK;2015-10-06 18:00;CYGK 061800Z 21007KT 15SM FEW020 BKN034 BKN070 15/11 A3006 RMK CU1SC7AC1 CU TR AC TR SLP182

CYGK;2015-10-06 19:00;CYGK 061900Z 22008KT 15SM FEW018 OVC030 15/11 A3004 RMK CF1SC8 CF TR SLP175

CYGK;2015-10-06 20:00;CYGK 062000Z 25005KT 220V280 15SM FEW018 OVC032 15/11 A3003 RMK CF2SC6 SLP170

CYGK;2015-10-06 21:00;CYGK 062100Z 25006KT 15SM FEW018 OVC031 15/11 A3002 RMK CF1SC7 SLP167

CYGK;2015-10-06 22:00;CYGK 062200Z 23006KT 15SM FEW018 BKN030 15/11 A3001 RMK CF1SC7 CF TR SLP165

CYGK;2015-10-06 23:00;CYGK 062300Z 24006KT 15SM FEW018 BKN029 15/12 A3001 RMK CF1SC7 CF TR SLP165

CYGK;2015-10-07 00:00;CYGK 070000Z 21007KT 15SM BKN019 BKN030 14/12 A3001 RMK SC6SC1 SLP164

CYGK;2015-10-07 01:00;CYGK 070100Z 24009KT 15SM FEW012 SCT022 14/11 A3001 RMK SC2SC2 SLP162

CYGK;2015-10-07 02:00;CYGK 070200Z 26007KT 15SM FEW020 13/10 A3001 RMK SC2 SLP162

CYGK;2015-10-07 03:00;CYGK 070300Z 26007KT 15SM OVC093 13/10 A3000 RMK AC8 LAST STFD OBS/NEXT 071000 UTC SLP161

CYGK;2015-10-07 10:00;CYGK 071000Z 25004KT 15SM FEW012 BKN100 10/09 A2999 RMK CU1AC7 CU TR SLP158

CYGK;2015-10-07 11:00;CYGK 071100Z 26006KT 15SM FEW012 FEW042 11/09 A3000 RMK CF1SC1 CF TR SC TR SLP160

CYGK;2015-10-07 12:00;CYGK 071200Z 25004KT 15SM FEW045 SCT100 11/09 A3001 RMK SC1AC4 SC TR SLP162

CYGK;2015-10-07 13:00;CYGK 071300Z 28006KT 15SM BKN098 14/11 A3001 RMK AC6 SLP165

CYGK;2015-10-07 14:00;CYGK 071400Z 26006KT 15SM FEW012 BKN100 14/11 A3002 RMK CF1AC7 CF TR SLP168

CYGK;2015-10-07 15:00;CYGK 071500Z 24007KT 15SM FEW012 FEW025 BKN092 15/11 A3002 RMK CF1CU1AC7 CF TR CU TR SLP168

CYGK;2015-10-07 15:24;CYGK 071524Z 27006KT 15SM -RA FEW015 BKN080 15/12 A3003 RMK CF1AC6 SLP169

CYGK;2015-10-07 16:00;CYGK 071600Z 26006KT 15SM FEW015 BKN064 15/12 A3002 RMK CF1SC7 CF TR SLP168

CYGK;2015-10-07 17:00;CYGK 071700Z CCA 24005KT 12SM -RA FEW018 SCT032 OVC055 15/12 A3002 RMK CF1SC4SC4 CF TR SLP168

CYGK;2015-10-07 17:26;CYGK 071726Z 28007KT 2SM -RA BR SCT019 BKN032 OVC055 15/12 A3002 RMK CU3SC3SC2 SLP168

CYGK;2015-10-07 17:37;CYGK 071737Z 31005KT 3SM -RA BR SCT019 OVC034 14/12 A3003 RMK SC4SC4 SLP169

CYGK;2015-10-07 18:00;CYGK 071800Z 30006KT 6SM -RA BR FEW012 SCT019 OVC032 14/12 A3002 RMK CF1SC4SC4 CF TR SLP166

CYGK;2015-10-07 18:17;CYGK 071817Z 27004KT 240V320 12SM FEW012 FEW020 BKN030 OVC046 14/13 A3001 RMK CF1SC2SC5SC1 CF TR SLP164

CYGK;2015-10-07 18:28;CYGK 071828Z 24005KT 12SM -RA FEW012 SCT026 OVC050 14/13 A3001 RMK CF1SC3SC5 CF TR SLP163

CYGK;2015-10-07 19:00;CYGK 071900Z 26005KT 12SM FEW012 SCT023 BKN074 15/13 A3001 RMK CF1SC3AC4 CF TR INTMT -RA SLP162

CYGK;2015-10-07 19:21;CYGK 071921Z 25007KT 12SM SCT013 BKN041 BKN100 15/13 A3001 RMK SC3SC2AC2 SLP162

CYGK;2015-10-07 20:00;CYGK 072000Z 24004KT 15SM SCT015 SCT040 BKN100 15/13 A3001 RMK CU3SC1AC1 SLP162

CYGK;2015-10-07 21:00;CYGK 072100Z 23006KT 15SM FEW030 FEW070 SCT100 17/13 A3000 RMK CU2AC1AC1 AC TR SLP161 DENSITY ALT 400FT

CYGK;2015-10-07 22:00;CYGK 072200Z 24004KT 15SM FEW030 SCT100 16/13 A3000 RMK CU2AC1 SLP160

CYGK;2015-10-07 23:00;CYGK 072300Z 25004KT 15SM FEW030 FEW100 15/12 A3002 RMK CU1AC1 SLP166

CYGK;2015-10-08 00:00;CYGK 080000Z VRB02KT 15SM FEW045 12/11 A3004 RMK CU1 SLP173

CYGK;2015-10-08 01:00;CYGK 080100Z 36005KT 15SM FEW040 FEW065 10/10 A3005 RMK CU1SC1 CU TR SLP178

CYGK;2015-10-08 02:00;CYGK 080200Z 02009KT 15SM FEW030 12/08 A3008 RMK CU1 CU TR SLP186

CYGK;2015-10-08 03:00;CYGK 080300Z 01010KT 15SM SKC 11/05 A3010 RMK LAST STFD OBS/NEXT 081000 UTC SLP194

CYGK;2015-10-08 10:00;CYGK 081000Z 01007KT 15SM SKC 06/02

CYGK;2015-10-08 11:00;CYGK 081100Z 04004KT 15SM FEW055 FEW250 05/01 RMK SC1CI1 SC TR

CYGK;2015-10-08 12:00;CYGK 081200Z 03007KT 15SM FEW055 FEW250 06/02 RMK SC1CI2 SC TR

CYGK;2015-10-08 13:00;CYGK 081300Z 03008KT 15SM FEW025 BKN270 08/03 A3022 RMK SC1CI5 SC TR SLP235

CYGK;2015-10-08 14:00;CYGK 081400Z 04010KT 15SM BKN270 10/03 A3022 RMK CI6 SLP236

CYGK;2015-10-08 15:00;CYGK 081500Z 08009KT 15SM SCT270 11/03 A3021 RMK CI4 SLP231

CYGK;2015-10-08 16:00;CYGK 081600Z 05005KT 030V110 15SM FEW025 FEW270 11/02 A3020 RMK CF1CI2 CF TR SLP228

CYGK;2015-10-08 17:00;CYGK 081700Z 04005KT 350V060 15SM FEW035 SCT270 12/02 A3019 RMK CF1CI3 CF TR SLP224

CYGK;2015-10-08 18:00;CYGK 081800Z 10003KT 030V140 15SM FEW025 SCT270 13/04 A3016 RMK CF1CI4 CF TR SLP216

CYGK;2015-10-08 19:00;CYGK 081900Z 13011KT 15SM FEW025 SCT270 14/04 A3014 RMK CF1CI3 CF TR SLP207

CYGK;2015-10-08 20:00;CYGK 082000Z 11006KT 15SM FEW120 BKN270 13/03 A3012 RMK AC1CI7 AC TR SLP202

CYGK;2015-10-08 21:00;CYGK 082100Z 09007KT 15SM FEW170 BKN250 13/04 A3012 RMK AC1CI7 AC TR SLP200

CYGK;2015-10-08 22:00;CYGK 082200Z 09005KT 15SM FEW150 BKN270 11/03 A3011 RMK AC2CI5 SLP198

CYGK;2015-10-08 23:00;CYGK 082300Z 04005KT 15SM FEW190 BKN240 11/03 A3009 RMK AC2CS5 SLP192

CYGK;2015-10-09 00:00;CYGK 090000Z 05005KT 15SM BKN170 OVC240 10/04 A3009 RMK AS5CS3 SLP190

CYGK;2015-10-09 01:00;CYGK 090100Z 07007KT 15SM BKN140 OVC240 10/03 A3007 RMK AS6CS2 SLP185

CYGK;2015-10-09 02:00;CYGK 090200Z 07007KT 15SM OVC140 10/04 A3005 RMK AS8 SLP179

CYGK;2015-10-09 03:00;CYGK 090300Z 06006KT 15SM BKN110 OVC160 10/04 A3002 RMK AS6AS2 LAST STFD OBS/NEXT 091000 UTC SLP166

CYGK;2015-10-09 10:00;CYGK 091000Z 02005KT 5SM -RA BR OVC004 10/09 A2978 RMK SF8 CIG RAG SLP086

CYGK;2015-10-09 10:19;CYGK 091019Z 08002KT 4SM -RA BR OVC003 10/09 A2977 RMK SF8 CIG RAG SLP082

CYGK;2015-10-09 10:42;CYGK 091042Z 01005KT 310V040 6SM BR OVC003 10/09 A2977 RMK SF8 CIG RAG SLP081

CYGK;2015-10-09 11:00;CYGK 091100Z 00000KT 6SM BR OVC003 11/10 A2976 RMK SF8 CIG RAG SLP079

CYGK;2015-10-09 12:00;CYGK 091200Z 36004KT 5SM BR OVC004 11/10 A2976 RMK SF8 SLP079

CYGK;2015-10-09 12:08;CYGK 091208Z 35005KT 5SM BR OVC003 10/10 A2976 RMK SF8 SLP080

CYGK;2015-10-09 12:53;CYGK 091253Z 02004KT 3SM -RA BR OVC002 10/09 A2976 RMK SF8 SLP080

CYGK;2015-10-09 13:00;CYGK 091300Z 01004KT 3SM -RA BR OVC002 10/09 A2976 RMK SF8 SLP080

CYGK;2015-10-09 14:00;CYGK 091400Z 36005KT 3SM BR OVC002 10/09 A2976 RMK SF8 VIS NW-NE 11/2 SLP081

CYGK;2015-10-09 14:28;CYGK 091428Z 35004KT 2 1/2SM BR OVC002 10/10 A2976 RMK SF8 VIS NW - NE 3/4 VIS S 5 CIG RAG SLP080

CYGK;2015-10-09 15:00;CYGK 091500Z VRB02KT 2SM BR OVC002 11/10 A2976 RMK SF8 VIS NW - NE 3/4 VIS S 4 CIG RAG SLP079

CYGK;2015-10-09 15:52;CYGK 091552Z VRB02KT 1 1/2SM -DZ BR OVC002 11/11 A2976 RMK SF8 CIG RAG SLP080

CYGK;2015-10-09 16:00;CYGK 091600Z 28002KT 1 1/2SM -DZ BR OVC002 11/11 A2976 RMK SF8 CIG RAG VIS SW 3 SLP080

CYGK;2015-10-09 16:27;CYGK 091627Z 28006KT 3SM BR OVC003 12/11 A2977 RMK SF8 CIG RAG VIS NW - NE 11/2 SLP082

CYGK;2015-10-09 16:51;CYGK 091651Z 31006KT 3SM BR OVC003 12/11 A2977 RMK SF8 CIG RAG SLP082

CYGK;2015-10-09 17:00;CYGK 091700Z 29005KT 260V330 7SM OVC004 13/12 A2977 RMK SF8 CIG RAG SLP082

CYGK;2015-10-09 17:19;CYGK 091719Z 30007KT 260V320 8SM BKN006 OVC012 13/11 A2977 RMK SF7SC1 SLP083

CYGK;2015-10-09 18:00;CYGK 091800Z 32006KT 8SM OVC006 13/11 A2978 RMK SF8 SLP086

CYGK;2015-10-09 19:00;CYGK 091900Z 33007KT 9SM OVC007 11/10 A2978 RMK SF8 CIG RAG SLP088

CYGK;2015-10-09 19:42;CYGK 091942Z 33008KT 12SM SCT005 OVC030 11/10 A2980 RMK SF3SC5 SLP094

CYGK;2015-10-09 20:00;CYGK 092000Z 34012KT 12SM BKN008 OVC030 11/09 A2981 RMK SF7SC1 CIG RAG SLP097

CYGK;2015-10-09 20:31;CYGK 092031Z 35013KT 12SM BKN010 OVC035 11/09 A2983 RMK SF7SC1 SLP104

CYGK;2015-10-09 21:00;CYGK 092100Z 35016KT 15SM BKN010 OVC038 11/07 A2985 RMK SF5SC3 SLP110

CYGK;2015-10-09 21:17;CYGK 092117Z 35012G20KT 15SM SCT010 BKN015 OVC040 10/07 A2986 RMK SF3SC3SC2 SLP114

CYGK;2015-10-09 22:00;CYGK 092200Z 33014G22KT 15SM FEW010 BKN025 OVC050 10/07 A2990 RMK SF1SC5SC2 SLP125

CYGK;2015-10-09 23:00;CYGK 092300Z 34011G20KT 15SM BKN028 10/06 A2994 RMK SC7 SLP140

CYGK;2015-10-10 00:00;CYGK 100000Z 33007KT 15SM FEW038 09/05 A2998 RMK SC2 SLP152

CYGK;2015-10-10 01:00;CYGK 100100Z 29006KT 15SM FEW038 08/05 A3001 RMK SC1 SLP165

CYGK;2015-10-10 02:00;CYGK 100200Z 30007KT 15SM SKC 07/05 A3004 RMK SLP173

CYGK;2015-10-10 03:00;CYGK 100300Z 30008KT 15SM SKC 07/05 A3005 RMK LAST STFD OBS/NEXT 101000 UTC SLP178

CYGK;2015-10-10 10:00;CYGK 101000Z 32003KT 15SM SKC 03/02 A3017 RMK SLP220

CYGK;2015-10-10 11:00;CYGK 101100Z 32003KT 15SM MIFG FEW010 SCT270 01/00 A3018 RMK CF1CI3 CF TR SLP221

CYGK;2015-10-10 12:00;CYGK 101200Z 34005KT 15SM FEW015 02/01 A3020 RMK CF1 CF TR SLP228

CYGK;2015-10-10 13:00;CYGK 101300Z 35008KT 15SM FEW015 FEW150 SCT270 04/02 A3021 RMK CF1AC1CI4 CF TR AC TR SLP232

CYGK;2015-10-10 14:00;CYGK 101400Z 02005KT 350V050 15SM FEW020 SCT250 06/01 A3021 RMK CF1CI2 SLP231

CYGK;2015-10-10 15:00;CYGK 101500Z 04003KT 320V100 15SM FEW020 FEW250 08/01 A3020 RMK CF1CI1 CF TR SLP230

CYGK;2015-10-10 16:00;CYGK 101600Z 18007KT 140V200 15SM FEW025 FEW250 08/03 A3019 RMK CF1CI1 CF TR SLP225

CYGK;2015-10-10 17:00;CYGK 101700Z 20008KT 160V220 15SM FEW025 FEW250 09/02 A3017 RMK CF1CI2 CF TR SLP218

CYGK;2015-10-10 18:00;CYGK 101800Z 18011KT 15SM FEW030 SCT250 09/03 A3014 RMK CF1CI3 CF TR SLP210

CYGK;2015-10-10 19:00;CYGK 101900Z 19013KT 15SM FEW022 SCT270 10/04 A3012 RMK CF1CI4 CF TR SLP201

CYGK;2015-10-10 20:00;CYGK 102000Z 19011KT 15SM FEW022 BKN270 09/04 A3011 RMK CF1CI6 SLP199

CYGK;2015-10-10 21:00;CYGK 102100Z 20010G16KT 15SM FEW025 BKN270 10/05 A3008 RMK CF1CI7 CF TR SLP188

CYGK;2015-10-10 22:00;CYGK 102200Z 21012KT 15SM FEW028 OVC270 09/05 A3006 RMK CF1CI8 CF TR SLP181

CYGK;2015-10-10 23:01;CYGK 102301Z 20011KT 15SM FEW050 BKN270 10/06 A3004 RMK SC1CI7 SC TR SLP174

CYGK;2015-10-11 00:00;CYGK 110000Z 20010KT 15SM BKN230 10/06 A3002 RMK CI5 SLP169

CYGK;2015-10-11 01:00;CYGK 110100Z 20008KT 15SM BKN250 10/05 A3001 RMK CI6 SLP165

CYGK;2015-10-11 02:00;CYGK 110200Z 20013KT 15SM BKN250 11/04 A2998 RMK CI6 SLP156

CYGK;2015-10-11 03:00;CYGK 110300Z 20014G21KT 15SM OVC220 11/06 A2997 RMK CI8 LAST STFD OBS/NEXT 111000 UTC SLP151

CYGK;2015-10-11 10:00;CYGK 111000Z 21012G18KT 15SM FEW008 BKN150 12/09 A2987 RMK SF1AC5 SF TR SLP116

CYGK;2015-10-11 11:00;CYGK 111100Z 21012G18KT 15SM SCT150 BKN240 11/09 A2984 RMK AC4CI2 SLP107

CYGK;2015-10-11 11:39;CYGK 111139Z 21015G21KT 15SM FEW008 BKN140 BKN230 12/09 A2983 RMK SF1AC5CI1 SF TR SLP103

CYGK;2015-10-11 12:00;CYGK 111200Z 21013KT 15SM FEW010 SCT140 BKN250 12/09 A2982 RMK SF1AC3CI3 SLP101

CYGK;2015-10-11 13:00;CYGK 111300Z 22015G21KT 15SM FEW020 SCT140 SCT230 13/09 A2982 RMK CF1AC2CI1 SLP098

CYGK;2015-10-11 14:00;CYGK 111400Z 20014KT 15SM FEW020 FEW140 FEW230 14/10 A2981 RMK CF1AC1CI1 CI TR SLP094

CYGK;2015-10-11 15:00;CYGK 111500Z 19016KT 15SM FEW020 FEW230 15/10 A2980 RMK CU1CI1 SLP091 DENSITY ALT 400FT

CYGK;2015-10-11 16:00;CYGK 111600Z 23017G22KT 15SM FEW025 BKN140 16/11 A2979 RMK CU1AC6 SLP088 DENSITY ALT 600FT

CYGK;2015-10-11 17:00;CYGK 111700Z 21013G18KT 15SM FEW023 BKN140 15/11 A2978 RMK CU1AC6 SLP085 DENSITY ALT 500FT

CYGK;2015-10-11 18:00;CYGK 111800Z 20018KT 15SM FEW030 BKN130 17/11 A2975 RMK CU1AC6 SLP076 DENSITY ALT 700FT

CYGK;2015-10-11 19:00;CYGK 111900Z 19016KT 15SM FEW030 FEW130 17/11 A2973 RMK CU1AC2 CU TR SLP069 DENSITY ALT 800FT

CYGK;2015-10-11 20:00;CYGK 112000Z 19015KT 15SM FEW032 FEW140 17/11 A2972 RMK CU1AC1 CU TR SLP065 DENSITY ALT 800FT

CYGK;2015-10-11 21:00;CYGK 112100Z 20012KT 15SM FEW032 FEW140 17/11 A2972 RMK CU1AC1 CU TR AC TR SLP066 DENSITY ALT 700FT

CYGK;2015-10-11 22:00;CYGK 112200Z 19011KT 15SM FEW250 15/11 A2972 RMK CI1 CI TR SLP066 DENSITY ALT 600FT

CYGK;2015-10-11 23:00;CYGK 112300Z 20009KT 15SM SKC 14/11 A2972 RMK SLP066 DENSITY ALT 500FT

CYGK;2015-10-12 00:00;CYGK 120000Z 20005KT 15SM SKC 14/11 A2972 RMK SLP066 DENSITY ALT 400FT

CYGK;2015-10-12 01:00;CYGK 120100Z 21007KT 15SM SKC 14/09 A2972 RMK SLP066 DENSITY ALT 500FT

CYGK;2015-10-12 02:00;CYGK 120200Z 19006KT 15SM SKC 14/09 A2972 RMK SLP065 DENSITY ALT 400FT

CYGK;2015-10-12 03:00;CYGK 120300Z 21010KT 15SM SKC 15/09 A2972 RMK LAST STFD OBS/NEXT 121000 UTC SLP065 DENSITY ALT 600FT

CYGK;2015-10-12 10:00;CYGK 121000Z 19009KT 15SM SKC 13/10 A2972 RMK SLP065

CYGK;2015-10-12 11:00;CYGK 121100Z 20009KT 15SM FEW250 14/10 A2973 RMK CI1 CI TR SLP067 DENSITY ALT 400FT

CYGK;2015-10-12 12:00;CYGK 121200Z 19009KT 15SM FEW250 14/11 A2973 RMK CI1 CI TR SLP068 DENSITY ALT 400FT

CYGK;2015-10-12 13:00;CYGK 121300Z 20010KT 15SM FEW250 15/10 A2972 RMK CI1 CI TR SLP066 DENSITY ALT 600FT

CYGK;2015-10-12 14:00;CYGK 121400Z 21013KT 15SM FEW250 16/10 A2974 RMK CI1 CI TR SLP071 DENSITY ALT 700FT

CYGK;2015-10-12 15:00;CYGK 121500Z 19015KT 15SM FEW230 16/11 A2973 RMK CI1 SLP069 DENSITY ALT 600FT

CYGK;2015-10-12 16:00;CYGK 121600Z 19014KT 15SM FEW250 16/11 A2971 RMK CI1 SLP062 DENSITY ALT 700FT

CYGK;2015-10-12 17:00;CYGK 121700Z 19012G17KT 15SM FEW250 17/11 A2970 RMK CI2 SLP058 DENSITY ALT 800FT

CYGK;2015-10-12 18:00;CYGK 121800Z 18008KT 15SM FEW250 17/12 A2967 RMK CI1 SLP048 DENSITY ALT 800FT

CYGK;2015-10-12 19:00;CYGK 121900Z 17009KT 15SM FEW250 18/12 A2965 RMK CI1 SLP040 DENSITY ALT 1000FT

CYGK;2015-10-12 20:00;CYGK 122000Z 20006KT 15SM FEW250 18/12 A2962 RMK CI2 SLP031 DENSITY ALT 1000FT

CYGK;2015-10-12 21:00;CYGK 122100Z 18004KT 15SM FEW090 FEW230 SCT270 18/12 A2961 RMK AC1CC2CI2 AC TR SLP025 DENSITY ALT 1100FT

CYGK;2015-10-12 22:00;CYGK 122200Z 15002KT 15SM FEW090 SCT150 BKN210 17/11 A2958 RMK AC1AC2CI3 SLP018 DENSITY ALT 900FT

CYGK;2015-10-12 23:00;CYGK 122300Z 00000KT 15SM FEW090 BKN180 BKN270 16/10 A2957 RMK AC1AC5CI1 SLP013 DENSITY ALT 900FT

CYGK;2015-10-13 00:00;CYGK 130000Z 14004KT 15SM BKN180 16/10 A2956 RMK AC5 SLP009 DENSITY ALT 900FT

CYGK;2015-10-13 01:00;CYGK 130100Z 17015G21KT 15SM FEW180 18/10 A2954 RMK AC1 SLP003 DENSITY ALT 1100FT

CYGK;2015-10-13 02:00;CYGK 130200Z 17014KT 15SM FEW180 17/10 A2953 RMK AC1 SLP001 DENSITY ALT 1000FT

CYGK;2015-10-13 03:00;CYGK 130300Z 17012G19KT 15SM FEW180 16/10 A2953 RMK AC2 LAST STFD OBS/NEXT 131000UTC SLP999 DENSITY ALT 900FT

CYGK;2015-10-13 10:00;CYGK 131000Z 17008KT 5SM -RA BR SCT019 OVC034 14/12 A2942 RMK ST3SC5 SLP963 DENSITY ALT 800FT

CYGK;2015-10-13 11:00;CYGK 131100Z 17012KT 5SM -RA BR SCT015 OVC024 14/12 A2942 RMK ST4SC4 SLP963 DENSITY ALT 700FT

CYGK;2015-10-13 11:29;CYGK 131129Z 18012KT 2 1/2SM -RA BR BKN006 OVC014 14/12 A2941 RMK ST5SC3 SLP960 DENSITY ALT 700FT

CYGK;2015-10-13 11:45;CYGK 131145Z 18015KT 5SM -RA BR SCT009 OVC018 14/13 A2941 RMK SF3SC5 SLP960 DENSITY ALT 800FT

CYGK;2015-10-13 12:00;CYGK 131200Z 18014G20KT 5SM -RA BR FEW009 OVC018 14/13 A2941 RMK SF2SC6 SLP959 DENSITY ALT 800FT

CYGK;2015-10-13 13:00;CYGK 131300Z 17014KT 6SM -RA BR FEW009 BKN018 OVC050 14/13 A2941 RMK SF2SC3SC3 SLP958 DENSITY ALT 800FT

CYGK;2015-10-13 14:00;CYGK 131400Z 16018G24KT 8SM -RA FEW009 FEW018 BKN040 OVC090 14/13 A2940 RMK SF1SC1SC4AC2 SLP955 DENSITY ALT 900FT

CYGK;2015-10-13 14:20;CYGK 131420Z 17017G26KT 10SM FEW009 BKN021 BKN040 OVC100 14/13 A2940 RMK SF1SC5SC2AC1 SF TR SLP955 DENSITY ALT 900FT

CYGK;2015-10-13 15:00;CYGK 131500Z 19016KT 12SM FEW009 BKN027 BKN100 15/14 A2940 RMK SF2SC3AC1 AC TR SLP955 DENSITY ALT 900FT

CYGK;2015-10-13 16:00;CYGK 131600Z 20016KT 15SM FEW009 SCT021 SCT100 SCT250 17/14 A2939 RMK SF1SC3AC1CI1 SF TR CI TR SLP954 DENSITY ALT 1100FT

CYGK;2015-10-13 17:00;CYGK 131700Z 22012G21KT 15SM FEW020 BKN074 BKN120 17/10 A2939 RMK SC1AC5AC1 SLP953 DENSITY ALT 1100FT

CYGK;2015-10-13 18:00;CYGK 131800Z 24015G25KT 15SM FEW024 BKN084 16/10 A2939 RMK CU2AC5 SLP952 DENSITY ALT 1100FT

CYGK;2015-10-13 19:00;CYGK 131900Z 24018G27KT 15SM FEW030 SCT090 16/09 A2939 RMK CU2AC1 SLP952 DENSITY ALT 1100FT

CYGK;2015-10-13 20:00;CYGK 132000Z 24017G25KT 15SM FEW040 SCT090 16/08 A2940 RMK CU2AC1 WS RWY19 SLP957 DENSITY ALT 1100FT

CYGK;2015-10-13 21:00;CYGK 132100Z 24017G24KT 15SM FEW040 FEW080 16/08 A2942 RMK CU1AC1 CU TR SLP963 DENSITY ALT 1000FT

CYGK;2015-10-13 22:00;CYGK 132200Z 24017G27KT 15SM FEW035 15/09 A2943 RMK CU1 CU TR SLP966 DENSITY ALT 900FT

CYGK;2015-10-13 23:00;CYGK 132300Z 24020G28KT 15SM FEW025 SCT045 BKN090 15/09 A2944 RMK SC1SC3AC2 SLP969 DENSITY ALT 800FT

CYGK;2015-10-14 00:00;CYGK 140000Z 25019G30KT 15SM VCSH BKN043 OVC090 15/10 A2947 RMK SC6AC2 SLP978 DENSITY ALT 800FT

CYGK;2015-10-14 01:00;CYGK 140100Z 24022G28KT 15SM FEW020 BKN045 OVC090 15/10 A2947 RMK CF2SC5AC1 SLP981 DENSITY ALT 800FT

CYGK;2015-10-14 01:48;CYGK 140148Z 24018G27KT 15SM -RA SCT020 OVC045 15/11 A2949 RMK CF3SC5 SLP985 DENSITY ALT 800FT

CYGK;2015-10-14 02:00;CYGK 140200Z 25018G26KT 15SM BKN022 OVC045 15/11 A2949 RMK CF5SC3 SLP987 DENSITY ALT 800FT

CYGK;2015-10-14 03:00;CYGK 140300Z 25015G23KT 15SM SCT018 BKN036 OVC090 14/11 A2950 RMK CF3SC4AC1 LAST STFD OBS/NEXT 141000UTC SLP989 DENSITY ALT 700FT

CYGK;2015-10-14 10:00;CYGK 141000Z 26010KT 15SM BKN030 11/09 A2958 RMK SC6 SLP019

CYGK;2015-10-14 11:00;CYGK 141100Z 29013G20KT 15SM FEW018 BKN032 10/07 A2962 RMK CF1SC7 CF TR SLP030

CYGK;2015-10-14 12:00;CYGK 141200Z 30009KT 15SM FEW018 SCT065 BKN230 09/05 A2966 RMK CF2SC2CI1 SLP046

CYGK;2015-10-14 13:00;CYGK 141300Z 29011G16KT 15SM BKN016 BKN150 BKN230 09/05 A2970 RMK SC5AC1CI1 CI TR SLP057

CYGK;2015-10-14 14:00;CYGK 141400Z 29009G17KT 15SM BKN022 BKN230 10/05 A2972 RMK SC7CI1 CI TR SLP066

CYGK;2015-10-14 15:00;CYGK 141500Z 29008KT 15SM BKN025 BKN150 BKN230 10/04 A2973 RMK CU6AC1CI1 AC TR SLP070

CYGK;2015-10-14 15:45;CYGK 141545Z 32014G20KT 260V330 15SM -SHRA SCT028 BKN042 BKN150 BKN230 10/05 A2975 RMK CU3SC4AC1CI1 AC TR CI TR SLP076

CYGK;2015-10-14 16:00;CYGK 141600Z 31011KT 15SM -SHRA FEW025 BKN042 BKN150 BKN230 09/05 A2976 RMK CU2SC5AC1CI1 AC TR CI TR SLP079

CYGK;2015-10-14 16:16;CYGK 141616Z 29007KT 270V330 15SM SCT025 BKN046 BKN130 BKN250 10/05 A2976 RMK CU3SC3AC1CI1 AC TR SLP080

CYGK;2015-10-14 17:00;CYGK 141700Z 29009G15KT 270V340 15SM FEW030 BKN042 BKN250 10/02 A2977 RMK CU1SC6CI1 CI TR SLP081

CYGK;2015-10-14 18:00;CYGK 141800Z 28006KT 15SM FEW030 BKN041 BKN250 12/03 A2977 RMK CU1SC5CI1 CI TR SLP082

CYGK;2015-10-14 19:00;CYGK 141900Z 31006KT 270V330 15SM BKN047 BKN170 12/03 A2977 RMK SC6AC1 AC TR SLP082

CYGK;2015-10-14 20:00;CYGK 142000Z 28006KT 15SM BKN052 BKN170 11/02 A2978 RMK SC5AC1 AC TR SLP085

CYGK;2015-10-14 21:00;CYGK 142100Z 26010KT 15SM FEW055 FEW170 12/01 A2978 RMK SC2AC1 AC TR SLP087

CYGK;2015-10-14 22:00;CYGK 142200Z 27008KT 15SM FEW050 11/01 A2980 RMK SC1 SLP092

CYGK;2015-10-14 23:00;CYGK 142300Z 28005KT 15SM FEW050 09/01 A2982 RMK SC1 SC TR SLP100

CYGK;2015-10-15 00:00;CYGK 150000Z 26006KT 15SM SKC 09/01 A2984 RMK SLP107

CYGK;2015-10-15 01:00;CYGK 150100Z 27008KT 15SM SKC 08/01 A2985 RMK SLP111

CYGK;2015-10-15 02:00;CYGK 150200Z 29006KT 15SM SKC 07/01 A2987 RMK SLP116

CYGK;2015-10-15 03:00;CYGK 150300Z 29007KT 15SM SKC 06/01 A2988 RMK LAST STFD OBS/NEXT 151000UTC SLP119

CYGK;2015-10-15 10:00;CYGK 151000Z 25007KT 15SM SKC 08/05 A2989 RMK SLP123

CYGK;2015-10-15 11:00;CYGK 151100Z 23009KT 15SM FEW020 FEW160 08/04 A2989 RMK SC1AC1 SC TR SLP122

CYGK;2015-10-15 12:00;CYGK 151200Z 22008KT 15SM FEW015 SCT120 09/06 A2988 RMK SC1AC3 SLP120

CYGK;2015-10-15 13:00;CYGK 151300Z 21014G20KT 15SM FEW015 BKN100 11/08 A2988 RMK CU1AC6 CU TR SLP119

CYGK;2015-10-15 14:00;CYGK 151400Z 21015G22KT 15SM FEW018 BKN100 11/07 A2989 RMK CU1AC5 SLP122

CYGK;2015-10-15 15:00;CYGK 151500Z 20014G20KT 15SM FEW021 SCT100 SCT240 13/08 A2988 RMK CU1AC2CI1 CI TR SLP119

CYGK;2015-10-15 16:00;CYGK 151600Z 20019G25KT 15SM FEW020 SCT041 BKN160 14/08 A2987 RMK CU1SC4AC2 CU TR SLP118

CYGK;2015-10-15 17:00;CYGK 151700Z 21016G23KT 15SM FEW020 BKN035 BKN160 13/08 A2985 RMK CU1SC6AC1 CU TR SLP111

CYGK;2015-10-15 18:00;CYGK 151800Z 21017KT 15SM BKN025 BKN100 BKN270 15/09 A2982 RMK CU6ACC1CI1 ACC TR CI TR SLP100 DENSITY ALT 400FT

CYGK;2015-10-15 19:00;CYGK 151900Z 21016G23KT 15SM SCT030 SCT080 BKN250 15/09 A2980 RMK CU3AC1CI3 SLP092 DENSITY ALT 500FT

CYGK;2015-10-15 20:01;CYGK 152001Z 20013KT 15SM FEW030 SCT085 BKN100 BKN250 14/10 A2977 RMK CU1AC2AC2CI2 SLP084 DENSITY ALT 400FT

CYGK;2015-10-15 21:00;CYGK 152100Z 21014KT 15SM FEW030TCU BKN085 BKN250 14/10 A2976 RMK TCU1AC6CI1 CI TR SHWRS N SLP077 DENSITY ALT 400FT

CYGK;2015-10-15 21:17;CYGK 152117Z 20014G20KT 15SM TS FEW020CB BKN085 BKN250 14/10 A2975 RMK CB1AC6CI1 CI TR SHWRS LTGCG NW SLP075 DENSITY ALT 400FT

CYGK;2015-10-15 21:28;CYGK 152128Z 21012G19KT 15SM TS FEW008 FEW020CB BKN085 14/10 A2975 RMK SF1CB1AC6 SF TR SHWRS LTGCG NW-N MOVG E SLP074 DENSITY ALT 400FT

CYGK;2015-10-15 22:00;CYGK 152200Z 23012G19KT 15SM TS VCSH FEW006 FEW020CB BKN077 15/08 A2975 RMK SF1CB2AC5 SF TR LTGCG MW-NE MOVG E SLP076 DENSITY ALT 500FT

CYGK;2015-10-15 22:05;CYGK 152205Z 27020G31KT 210V280 15SM -TSRA FEW006 BKN030CB BKN077 14/07 A2978 RMK SF1CB5AC2 SF TR LTGCG NW-NE MOVG E VIS N 5 PRESRR SLP084 DENSITY ALT 400FT

CYGK;2015-10-15 22:31;CYGK 152231Z 25011G19KT 230V310 10SM -SHRA BKN030TCU BKN045 11/07 A2976 RMK TCU5SC2 PRESFR SLP081

CYGK;2015-10-15 23:00;CYGK 152300Z 25005KT 15SM -SHRA SCT030 OVC052 12/08 A2974 RMK CU3SC5 SLP073

CYGK;2015-10-16 00:00;CYGK 160000Z 23006KT 12SM TS BKN055 OVC090 11/08 A2975 RMK SC7AC1 OCNL -SHRA LTGCG SW MOVG E CB EMBDD SW SLP075

CYGK;2015-10-16 01:00;CYGK 160100Z 26010G18KT 15SM FEW025CB BKN058 OVC100 11/07 A2976 RMK CB1SC5AC2 LTNG E PRESRR SLP078

CYGK;2015-10-16 02:00;CYGK 160200Z 24012G20KT 15SM BKN080 OVC120 11/08 A2976 RMK AC6AC2 SLP078

CYGK;2015-10-16 03:00;CYGK 160300Z 25013G18KT 15SM FEW080 OVC120 11/07 A2977 RMK AC1AC7 FG SE OVR RVR LAST STFD OBS/NEXT 161000UTC SLP083

CYGK;2015-10-16 10:00;CYGK 161000Z 29007KT 15SM OVC140 06/04 A2987 RMK AC8 SLP118

CYGK;2015-10-16 11:00;CYGK 161100Z 28006KT 15SM FEW020 SCT140 SCT270 05/03 A2989 RMK SC1AC2CI1 SLP124

CYGK;2015-10-16 12:00;CYGK 161200Z 27005KT 15SM FEW020 06/04 A2992 RMK CU1 SLP134

CYGK;2015-10-16 13:00;CYGK 161300Z 29007KT 15SM FEW020TCU FEW120 08/05 A2994 RMK TCU1AC1 TCU TR AC TR TCU DIST SW SLP140

CYGK;2015-10-16 14:00;CYGK 161400Z 30008KT 15SM FEW020 FEW120 09/04 A2996 RMK CU1AC1 CU TR AC TR SLP147

CYGK;2015-10-16 15:00;CYGK 161500Z 27007KT 250V340 15SM FEW025 10/03 A2996 RMK CU2 TCU TOPS DIST S SLP148

CYGK;2015-10-16 16:00;CYGK 161600Z 29008KT 240V310 15SM FEW028 11/04 A2996 RMK CU2 SLP148

CYGK;2015-10-16 17:00;CYGK 161700Z 26008KT 210V290 15SM SCT030 SCT100 12/04 A2995 RMK CU3AC1 AC TR SLP144

CYGK;2015-10-16 18:00;CYGK 161800Z 28010G18KT 220V300 15SM SCT038 13/04 A2993 RMK CU3 SLP137

CYGK;2015-10-16 19:00;CYGK 161900Z 28009KT 15SM SCT044 SCT180 13/03 A2992 RMK CU4AC1 AC TR TCU TOPS DIST SW SLP135

CYGK;2015-10-16 20:00;CYGK 162000Z 24007KT 15SM SCT058 BKN080 BKN240 12/02 A2993 RMK CU4AC2CI1 CI TR TCU TOPS DIST S SLP136

CYGK;2015-10-16 21:00;CYGK 162100Z 22010KT 15SM VCSH FEW042 BKN060 BKN100 12/04 A2992 RMK CU2SC3AC2 TCU TOPS DIST SE. VIRGA S SLP134

CYGK;2015-10-16 21:25;CYGK 162125Z 20016KT 12SM -SHRA BKN042 BKN060 BKN100 10/05 A2992 RMK CU5SC1AC1 SLP136

CYGK;2015-10-16 22:00;CYGK 162200Z 24010G16KT 12SM -SHRA FEW017 BKN040 BKN060 09/06 A2993 RMK CF1CU5SC2 CF TR SLP138

CYGK;2015-10-16 22:34;CYGK 162234Z 25007KT 15SM FEW017 BKN042 OVC063 09/06 A2994 RMK CF1SC6SC2 CF TR SLP140

CYGK;2015-10-16 22:46;CYGK 162246Z 28006KT 240V300 15SM -RA FEW017 BKN043 OVC063 09/06 A2994 RMK CF1SC6SC2 CF TR SLP141

CYGK;2015-10-16 23:00;CYGK 162300Z 26007G16KT 15SM -RA OVC041 09/05 A2995 RMK SC8 SLP143

CYGK;2015-10-17 00:00;CYGK 170000Z 32010KT 15SM -RA SCT040 OVC061 07/04 A2996 RMK SC4SC4 SLP147

CYGK;2015-10-17 00:33;CYGK 170033Z 29004KT 15SM FEW040 BKN060 OVC120 06/05 A2995 RMK SC2SC4AC2 SLP145

CYGK;2015-10-17 01:00;CYGK 170100Z 27006KT 15SM SCT062 OVC120 06/05 A2996 RMK SC4AC4 SLP147

CYGK;2015-10-17 02:00;CYGK 170200Z 26009G16KT 15SM FEW060 BKN095 06/04 A2996 RMK SC2AC4 SLP148

CYGK;2015-10-17 03:00;CYGK 170300Z 27011G18KT 15SM FEW065 SCT230 05/03 A2997 RMK SC1CI2 LAST STFD OBS/NEXT 171000 UTC SLP150

CYGK;2015-10-17 10:00;CYGK 171000Z 30008KT 15SM FEW020 01/M02 A3006 RMK SC1 SLP182

CYGK;2015-10-17 11:00;CYGK 171100Z 31008KT 15SM FEW020 FEW040 01/M02 A3008 RMK CU1SC1 CU TR SLP188

CYGK;2015-10-17 12:00;CYGK 171200Z 29007KT 15SM FEW020 FEW040 01/M02 A3010 RMK CU1SC1 CU TR SLP197

CYGK;2015-10-17 13:00;CYGK 171300Z 31008KT 15SM FEW020 FEW040 02/M02 A3012 RMK CU1SC1 CU TR SC TR SLP204

CYGK;2015-10-17 14:00;CYGK 171400Z 35012G18KT 15SM BKN024 BKN040 03/M02 A3014 RMK SC5SC1 SC TR SLP210

CYGK;2015-10-17 15:00;CYGK 171500Z 31010G17KT 15SM VCSH BKN031 04/M03 A3015 RMK SC7 SLP214

CYGK;2015-10-17 16:00;CYGK 171600Z 32008KT 15SM BKN038 04/M03 A3016 RMK SC7 SH DIST SE SLP217

CYGK;2015-10-17 17:00;CYGK 171700Z 30013G19KT 15SM VCSH BKN040 05/M04 A3016 RMK SC7 SLP218

CYGK;2015-10-17 18:00;CYGK 171800Z 33014KT 260V350 15SM VCSH BKN044 06/M05 A3015 RMK CU7 SLP214

CYGK;2015-10-17 19:00;CYGK 171900Z 31010G16KT 290V010 15SM BKN059 04/M05 A3016 RMK CU6 SLP217

CYGK;2015-10-17 20:00;CYGK 172000Z 34012G18KT 260V010 15SM VCSH FEW042 BKN063 BKN080 06/M04 A3017 RMK CF1CU5AC1 CF TR SLP219

CYGK;2015-10-17 21:00;CYGK 172100Z 30012KT 15SM SCT042 SCT080 04/M05 A3018 RMK CU4AC1 AC TR SLP224

CYGK;2015-10-17 21:35;CYGK 172135Z 29010G16KT 15SM -SHSN SCT040 SCT080 04/M05 A3019 RMK CU4AC1 AC TR SLP228

CYGK;2015-10-17 22:00;CYGK 172200Z 30009KT 15SM SCT038 SCT075 03/M04 A3020 RMK CU4AC1 AC TR OCNL -SHSN SLP231

CYGK;2015-10-17 22:51;CYGK 172251Z 32006KT 15SM FEW038 BKN088 02/M04 A3021 RMK CU2AC4 SLP234

CYGK;2015-10-17 23:00;CYGK 172300Z 31005KT 15SM FEW038 BKN090 02/M04 A3021 RMK CU2AC4 SLP235

CYGK;2015-10-18 00:00;CYGK 180000Z 32007KT 15SM SCT086 01/M03 A3023 RMK AC3 SLP240

CYGK;2015-10-18 01:00;CYGK 180100Z 34005KT 15SM BKN084 01/M03 A3023 RMK AC6 SLP241

CYGK;2015-10-18 02:00;CYGK 180200Z 34006KT 15SM OVC081 00/M03 A3024 RMK AC8 SLP242

CYGK;2015-10-18 03:00;CYGK 180300Z 34005KT 15SM BKN084 00/M03 A3025 RMK AC7 LAST STFD OBS/NEXT 181000 UTC SLP246

CYGK;2015-10-18 10:00;CYGK 181000Z 33005KT 15SM BKN160 M03/M05 A3027 RMK AC6 SLP256

CYGK;2015-10-18 11:00;CYGK 181100Z 36004KT 15SM FEW016 SCT140 SCT190 M03/M05 A3029 RMK CU1AC4CI1 CU TR CI TR SLP262

CYGK;2015-10-18 12:00;CYGK 181200Z 34006KT 15SM FEW018 FEW140 BKN200 M04/M05 A3031 RMK CU1AC1CI5 CU TR SLP267

CYGK;2015-10-18 13:00;CYGK 181300Z 35005KT 15SM FEW020 SCT085 BKN200 M01/M03 A3032 RMK CU1AC4CI2 CU TR SLP273

CYGK;2015-10-18 14:00;CYGK 181400Z 36005KT 15SM FEW020 FEW058 FEW140 BKN250 02/M04 A3033 RMK CU1SC2AC1CI5 CU TR AC TR SLP275

CYGK;2015-10-18 15:00;CYGK 181500Z 01005KT 320V040 15SM FEW020 FEW060 SCT085 BKN250 04/M05 A3034 RMK CU1SC1AC2CI1 SLP277

CYGK;2015-10-18 16:00;CYGK 181600Z VRB03KT 15SM SCT040 SCT075 BKN250 04/M07 A3033 RMK CU3AC1CI1 SH DIST W-N SLP276

CYGK;2015-10-18 16:40;CYGK 181640Z 27005KT 240V340 15SM BKN045 04/M08 A3033 RMK CU7 SH ALL QUADS SLP275

CYGK;2015-10-18 17:00;CYGK 181700Z 31015KT 15SM BKN043 03/M06 A3033 RMK CU7 SH ALL QUADS SLP276

CYGK;2015-10-18 17:05;CYGK 181705Z 32013G18KT 15SM -SHSN BKN043 03/M06 A3034 RMK CU7 VIS LWR SW SLP277

CYGK;2015-10-18 17:29;CYGK 181729Z 01007KT 330V030 15SM SCT043 BKN085 04/M06 A3033 RMK CU4AC3 SH ALQDS SLP275

CYGK;2015-10-18 18:00;CYGK 181800Z 35008KT 15SM BKN040 BKN085 04/M05 A3033 RMK CU6AC1 SH DIST ALQDS SLP274

CYGK;2015-10-18 19:00;CYGK 181900Z 34009G16KT 15SM VCSH BKN040 BKN082 03/M05 A3033 RMK CU6AC1 SLP275

CYGK;2015-10-18 20:00;CYGK 182000Z 36009KT 15SM SCT040 BKN075 04/M04 A3034 RMK CU4AC3 SLP277

CYGK;2015-10-18 21:00;CYGK 182100Z 02010KT 15SM SCT042 BKN073 03/M04 A3035 RMK CU3AC2 SLP282

CYGK;2015-10-18 22:00;CYGK 182200Z 36008KT 15SM FEW040 BKN069 BKN230 02/M05 A3037 RMK CU2AC3CI1 CI TR SLP290

CYGK;2015-10-18 23:00;CYGK 182300Z 01004KT 15SM FEW055 BKN066 BKN230 01/M05 A3038 RMK CU1AC5CI1 CU TR CI TR SLP293

CYGK;2015-10-19 00:00;CYGK 190000Z 03004KT 15SM FEW062 01/M06 A3038 RMK SC2 SLP294

CYGK;2015-10-19 01:00;CYGK 190100Z 04004KT 15SM BKN061 00/M06 A3039 RMK SC6 SLP297

CYGK;2015-10-19 02:00;CYGK 190200Z 32002KT 15SM SCT059 M01/M06 A3040 RMK SC3 SLP299

CYGK;2015-10-19 03:00;CYGK 190300Z 35004KT 15SM FEW058 M02/M05 A3041 RMK SC1 LAST STFD OBS/NEXT 191000 UTC SLP302

CYGK;2015-10-19 10:00;CYGK 191000Z 06004KT 15SM SCT035 M05/M07 A3041 RMK SC3 SLP302

CYGK;2015-10-19 11:00;CYGK 191100Z 07005KT 15SM SCT030 M05/M07 A3040 RMK SC3 SLP299

CYGK;2015-10-19 12:00;CYGK 191200Z 03002KT 15SM BKN030 M03/M05 A3039 RMK SC5 SLP296

CYGK;2015-10-19 13:00;CYGK 191300Z 30004KT 15SM FEW030 FEW090 BKN250 M00/M03 A3039 RMK SC1AC1CI4 SLP295

CYGK;2015-10-19 14:00;CYGK 191400Z VRB02KT 15SM SCT040 BKN090 BKN250 04/M03 A3037 RMK SC4AC1CI1 SLP287

CYGK;2015-10-19 15:00;CYGK 191500Z 22009G16KT 15SM FEW028 BKN040 BKN250 07/00 A3034 RMK CU1SC5CI1 SLP278

CYGK;2015-10-19 16:00;CYGK 191600Z 20015G21KT 15SM BKN030 BKN250 08/02 A3030 RMK SC5CI1 SLP265

CYGK;2015-10-19 17:00;CYGK 191700Z 19020G27KT 15SM BKN020 BKN250 08/02 A3026 RMK SC6CI1 PRESFR SLP250

CYGK;2015-10-19 18:00;CYGK 191800Z 20020KT 15SM BKN033 OVC250 08/01 A3023 RMK SC6CI2 SLP241

CYGK;2015-10-19 19:00;CYGK 191900Z 20017G25KT 15SM FEW035 OVC082 09/02 A3018 RMK SC2AC6 SLP224

CYGK;2015-10-19 20:00;CYGK 192000Z 20022G30KT 15SM FEW035 OVC075 09/02 A3014 RMK SC1AC8 SC TR SLP209

CYGK;2015-10-19 21:00;CYGK 192100Z 19024G30KT 15SM BKN062 OVC080 10/03 A3010 RMK SC6AC2 VIRGA W SLP197

CYGK;2015-10-19 22:00;CYGK 192200Z 19025G31KT 15SM FEW060 BKN110 BKN270 11/03 A3004 RMK SC1AS5CI1 PRESFR SLP175

CYGK;2015-10-19 23:00;CYGK 192300Z 19021G28KT 15SM FEW060 BKN160 BKN270 11/04 A3002 RMK SC1AC5CI1 SC TR SLP168

CYGK;2015-10-20 00:00;CYGK 200000Z 20019G29KT 15SM SCT082 BKN170 12/05 A3001 RMK AC3AC3 SLP165

CYGK;2015-10-20 01:00;CYGK 200100Z 20020G29KT 15SM FEW085 SCT120 BKN270 12/05 A2999 RMK AC2AC2CI3 SLP157

CYGK;2015-10-20 01:20;CYGK 200120Z 20017G25KT 12SM -SHRA BKN082 OVC120 12/06 A3000 RMK AC6AC2 SLP160

CYGK;2015-10-20 02:00;CYGK 200200Z 20013G19KT 15SM -SHRA BKN081 OVC110 11/07 A3000 RMK AC7AC1 SLP160

CYGK;2015-10-20 02:18;CYGK 200218Z 20013KT 15SM BKN080 OVC100 11/06 A3000 RMK AC5AC3 SLP160

CYGK;2015-10-20 02:26;CYGK 200226Z 20013KT 15SM SCT082 BKN100 OVC170 11/06 A2999 RMK AC3AC2AC3 OCNL DIST LTGIC NE - E SLP159

CYGK;2015-10-20 03:00;CYGK 200300Z 21017KT 15SM OVC080 12/06 A3000 RMK AC8 LAST STFD OBS/NEXT 201000 UTC SLP160

CYGK;2015-10-20 10:00;CYGK 201000Z 24014KT 15SM BKN075 OVC120 14/08 A2999 RMK AC5AC3 SLP158

CYGK;2015-10-20 11:00;CYGK 201100Z 24014G20KT 15SM SCT075 BKN130 14/08 A3000 RMK AC3AC4 SLP161

CYGK;2015-10-20 12:00;CYGK 201200Z 25011G19KT 15SM SCT075 BKN140 14/08 A3001 RMK AC3AC4 SLP165

CYGK;2015-10-20 13:00;CYGK 201300Z 25012G18KT 15SM FEW075 BKN150 14/08 A3004 RMK AC2AC4 SLP173

CYGK;2015-10-20 14:00;CYGK 201400Z 25011KT 15SM SCT100 BKN150 14/09 A3005 RMK AC3AC3 SLP177

CYGK;2015-10-20 15:00;CYGK 201500Z 24014G20KT 15SM SCT110 BKN150 BKN250 15/10 A3005 RMK AC3AC3CI1 SLP178

CYGK;2015-10-20 16:00;CYGK 201600Z 24012KT 15SM OVC080 14/09 A3005 RMK AC8 SLP178

CYGK;2015-10-20 17:00;CYGK 201700Z 24014G20KT 15SM OVC078 15/09 A3005 RMK AS8 SLP177

CYGK;2015-10-20 18:00;CYGK 201800Z 24013G19KT 15SM OVC080 15/07 A3005 RMK AS8 SLP177

CYGK;2015-10-20 19:00;CYGK 201900Z 25011G16KT 15SM OVC084 15/08 A3005 RMK AS8 SLP177

CYGK;2015-10-20 20:00;CYGK 202000Z 25010G16KT 15SM OVC085 15/09 A3006 RMK AS8 SLP180

CYGK;2015-10-20 20:53;CYGK 202053Z 25008KT 15SM -SHRA OVC093 15/08 A3007 RMK AC8 SLP183

CYGK;2015-10-20 21:00;CYGK 202100Z 25008KT 15SM -SHRA BKN093 OVC120 14/08 A3007 RMK AC7AC1 SLP184

CYGK;2015-10-20 21:39;CYGK 202139Z 24006KT 15SM BKN090 OVC110 14/09 A3008 RMK AC6AC2 SLP186

CYGK;2015-10-20 22:00;CYGK 202200Z 23006KT 15SM BKN085 OVC110 14/10 A3008 RMK AC7AC1 SLP188

CYGK;2015-10-20 23:00;CYGK 202300Z 24007KT 15SM OVC083 14/08 A3010 RMK AC8 SLP195

CYGK;2015-10-21 00:00;CYGK 210000Z 25005KT 15SM OVC075 14/08 A3012 RMK AC8 SLP202

CYGK;2015-10-21 01:00;CYGK 210100Z 27006KT 15SM OVC073 14/08 A3014 RMK AC8 SLP206

CYGK;2015-10-21 02:00;CYGK 210200Z 35004KT 15SM OVC076 13/07 A3016 RMK AC8 SLP214

CYGK;2015-10-21 03:00;CYGK 210300Z 03007KT 15SM SCT050 OVC067 12/07 A3017 RMK SC3AC5 LAST STFD OBS/NEXT 210300 UTC SLP218

CYGK;2015-10-21 10:00;CYGK 211000Z 03006KT 15SM FEW080 BKN110 BKN250 07/M04 A3027 RMK AC2AC3CI1 SLP252

CYGK;2015-10-21 11:00;CYGK 211100Z 03008KT 15SM FEW080 BKN095 BKN250 07/M04 A3029 RMK AC1AC4CI2 SLP259

CYGK;2015-10-21 12:00;CYGK 211200Z 04011KT 15SM FEW030 BKN100 BKN200 07/M05 A3030 RMK SC2AC4CI1 SLP262

CYGK;2015-10-21 13:00;CYGK 211300Z 04011KT 15SM BKN090 BKN180 07/M06 A3031 RMK AC5AS2 SLP265

CYGK;2015-10-21 14:00;CYGK 211400Z 04009KT 15SM FEW015 FEW040 BKN080 OVC180 08/M05 A3032 RMK SC1CF1AC5AS3 SC TR CF TR SLP271

CYGK;2015-10-21 15:00;CYGK 211500Z 05008KT 15SM OVC085 08/M03 A3032 RMK AC8 SLP269

CYGK;2015-10-21 15:42;CYGK 211542Z 04010KT 15SM -SHRA BKN075 OVC085 08/M03 A3032 RMK AC5AS3 SLP270

CYGK;2015-10-21 16:00;CYGK 211600Z 04010KT 15SM BKN070 OVC090 08/M03 A3032 RMK AC6AS2 OCNL -SHRA SLP269

CYGK;2015-10-21 17:00;CYGK 211700Z 05008KT 15SM -SHRA OVC075 08/M02 A3030 RMK AC8 VIS LWR W-NW SLP264

CYGK;2015-10-21 17:22;CYGK 211722Z 05006KT 12SM -SHRA SCT013 OVC060 08/01 A3030 RMK SC4SC4 SLP262

CYGK;2015-10-21 18:00;CYGK 211800Z 05006KT 15SM -SHRA FEW013 BKN056 OVC080 08/01 A3028 RMK SC2SC4AC2 SLP256

CYGK;2015-10-21 19:00;CYGK 211900Z 07005KT 15SM FEW013 SCT060 OVC098 09/02 A3025 RMK SC1SC4AC4 SC TR SLP247

CYGK;2015-10-21 20:00;CYGK 212000Z 06004KT 15SM SCT080 OVC110 09/04 A3024 RMK AC3AC5 SLP242

CYGK;2015-10-21 21:00;CYGK 212100Z 05006KT 15SM FEW015 OVC130 09/01 A3023 RMK SF2AC6 SLP239

CYGK;2015-10-21 21:29;CYGK 212129Z 05004KT 15SM BKN012 OVC120 09/02 A3024 RMK SC5AC3 SLP241

CYGK;2015-10-21 22:00;CYGK 212200Z 06007KT 360V090 15SM BKN011 OVC130 09/02 A3022 RMK SC5AC3 SLP237

CYGK;2015-10-21 23:00;CYGK 212300Z 06007KT 15SM BKN011 OVC130 08/02 A3021 RMK SC5AC3 SLP231

CYGK;2015-10-21 23:41;CYGK 212341Z 06006KT 15SM SCT011 BKN130 OVC160 08/02 A3019 RMK SC4AC2AC2 SLP227

CYGK;2015-10-22 00:00;CYGK 220000Z 07006KT 15SM SCT011 BKN130 OVC160 08/03 A3018 RMK SC3AC2AC3 SLP224

CYGK;2015-10-22 01:00;CYGK 220100Z 01002KT 15SM FEW011 OVC100 08/03 A3017 RMK SC2AC6 SLP220

CYGK;2015-10-22 02:01;CYGK 220201Z 06005KT 15SM OVC071 09/03 A3014 RMK AC8 SLP208

CYGK;2015-10-22 03:00;CYGK 220300Z 06005KT 15SM OVC082 09/04 A3011 RMK AC8 LAST STFD OBS/NEXT 221000 UTC SLP197

CYGK;2015-10-22 10:00;CYGK 221000Z 19017G24KT 15SM OVC048 14/10 A2997 RMK SC8 SLP150

CYGK;2015-10-22 11:00;CYGK 221100Z 21013KT 15SM BKN045 14/10 A2997 RMK SC7 SLP150

CYGK;2015-10-22 12:00;CYGK 221200Z 21010KT 15SM BKN039 BKN130 BKN250 14/10 A2998 RMK SC6AC1CI1 CI TR SLP152

CYGK;2015-10-22 13:00;CYGK 221300Z 24011G17KT 15SM FEW030 BKN140 BKN250 15/11 A2999 RMK SC2AC4CI1 CI TR SLP158

CYGK;2015-10-22 14:00;CYGK 221400Z 26007G17KT 15SM FEW030 BKN048 BKN140 16/11 A3000 RMK CU1SC6AC1 CU TR SLP161

CYGK;2015-10-22 15:00;CYGK 221500Z 28014G20KT 15SM FEW022 FEW050 FEW140 SCT250 16/09 A3002 RMK CU1SC1AC1CI1 AC TR SLP167

CYGK;2015-10-22 16:00;CYGK 221600Z 26017G24KT 15SM FEW025 FEW052 FEW140 SCT250 16/08 A3001 RMK CU1SC1AC1CI3 CU TR SC TR AC TR SLP165 DENSITY ALT 400FT

CYGK;2015-10-22 17:00;CYGK 221700Z 28014G23KT 15SM FEW040 FEW140 SCT250 16/07 A3002 RMK SC1AC1CI2 SC TR SLP167

CYGK;2015-10-22 18:00;CYGK 221800Z 25012G22KT 240V300 15SM FEW040 FEW140 FEW250 15/05 A3003 RMK SC1AC1CI1 AC TR SLP171

CYGK;2015-10-22 19:00;CYGK 221900Z 29015G20KT 15SM SCT050 BKN250 15/04 A3004 RMK SC3CI2 SLP174

CYGK;2015-10-22 20:00;CYGK 222000Z 27016KT 15SM SCT052 SCT250 15/04 A3004 RMK SC3CI1 SLP175

CYGK;2015-10-22 21:00;CYGK 222100Z 27011G18KT 15SM SCT050 SCT250 14/03 A3006 RMK SC3CI1 SLP182

CYGK;2015-10-22 22:00;CYGK 222200Z 26010G17KT 15SM SCT050 13/04 A3009 RMK SC3 SLP190

CYGK;2015-10-22 23:00;CYGK 222300Z 27008KT 15SM SCT050 12/03 A3012 RMK SC3 SLP202

CYGK;2015-10-23 00:00;CYGK 230000Z 26007KT 15SM FEW050 10/03 A3015 RMK SC2 SLP209

CYGK;2015-10-23 01:00;CYGK 230100Z 28006KT 15SM SCT055 10/04 A3016 RMK SC4 SLP215

CYGK;2015-10-23 02:00;CYGK 230200Z 32009KT 15SM FEW030 SCT055 08/04 A3019 RMK CU2SC2 SLP225

CYGK;2015-10-23 03:00;CYGK 230300Z 34014G22KT 15SM SCT030 07/01 A3021 RMK SC3 LAST STFD OBS/NEXT 231000 UTC SLP233

CYGK;2015-10-23 10:00;CYGK 231000Z 33006KT 15SM SKC 01/M03 A3032 RMK SLP272

CYGK;2015-10-23 11:00;CYGK 231100Z 35007KT 15SM FEW020 M00/M03 A3035 RMK SC1 SC TR SLP279

CYGK;2015-10-23 12:00;CYGK 231200Z 34011KT 15SM FEW020 01/M03 A3036 RMK SC1 SC TR SLP283

CYGK;2015-10-23 13:00;CYGK 231300Z 35011G18KT 15SM FEW020 03/M02 A3037 RMK CU1 CU TR SLP287

CYGK;2015-10-23 14:00;CYGK 231400Z 36008KT 15SM FEW020 04/M02 A3038 RMK CU1 CU TR SLP289

CYGK;2015-10-23 15:00;CYGK 231500Z 03006KT 15SM FEW025 06/M02 A3039 RMK CU1 CU TR SLP293

CYGK;2015-10-23 16:00;CYGK 231600Z 01004KT 340V080 15SM FEW025 07/M02 A3041 RMK CU1 SLP299

CYGK;2015-10-23 17:00;CYGK 231700Z VRB06KT 15SM FEW032 08/M01 A3040 RMK CU1 SLP297

CYGK;2015-10-23 18:00;CYGK 231800Z 03007KT 010V100 15SM FEW035 08/M01 A3038 RMK CU1 SLP291

CYGK;2015-10-23 19:00;CYGK 231900Z 05005KT 010V080 15SM FEW035 08/M02 A3037 RMK CU1 CU TR SLP286

CYGK;2015-10-23 20:00;CYGK 232000Z 05006KT 15SM FEW035 08/M02 A3036 RMK CU1 CU TR SLP285

CYGK;2015-10-23 21:00;CYGK 232100Z 05005KT 030V100 15SM FEW035 08/M02 A3036 RMK CF1 CF TR TR CU SLP285

CYGK;2015-10-23 22:00;CYGK 232200Z 02004KT 15SM FEW250 06/M02 A3035 RMK CI1 SLP282

CYGK;2015-10-23 23:00;CYGK 232300Z 03004KT 15SM FEW250 05/M02 A3036 RMK CI2 SLP285

CYGK;2015-10-24 00:00;CYGK 240000Z 05003KT 15SM SCT250 04/M03 A3037 RMK CI3 SLP287

CYGK;2015-10-24 01:00;CYGK 240100Z 06004KT 15SM SCT250 03/M02 A3037 RMK CI3 SLP288

CYGK;2015-10-24 02:00;CYGK 240200Z 09007KT 15SM SCT250 03/M01 A3036 RMK CI4 SLP283

CYGK;2015-10-24 03:00;CYGK 240300Z 08006KT 15SM BKN250 03/M01 A3035 RMK CI5 LAST STFD OBS/NEXT 240300 SLP281

CYGK;2015-10-24 10:00;CYGK 241000Z 16014G20KT 15SM BKN200 OVC240 07/02 A3025 RMK CI5CI3 SLP245

CYGK;2015-10-24 11:00;CYGK 241100Z 15018KT 15SM BKN170 BKN200 07/02 A3023 RMK AC5CI2 SLP239

CYGK;2015-10-24 12:00;CYGK 241200Z 14015G20KT 15SM SCT170 BKN230 06/01 A3021 RMK AC4CI3 SLP233

CYGK;2015-10-24 13:00;CYGK 241300Z 13007KT 15SM FEW130 BKN170 BKN250 06/01 A3022 RMK AC2AC4CI1 SLP238

CYGK;2015-10-24 14:00;CYGK 241400Z 17018G26KT 15SM BKN130 BKN250 08/02 A3018 RMK AC6CI1 VIRGA W - NW SLP224

CYGK;2015-10-24 15:00;CYGK 241500Z 17020G27KT 15SM BKN120 BKN250 08/02 A3017 RMK AC6CI1 VIRGA N SLP220

CYGK;2015-10-24 16:00;CYGK 241600Z 16022G27KT 15SM FEW025 BKN150 BKN250 08/02 A3014 RMK CF1AC6CI1 CF TR VIRGA NE SLP208

CYGK;2015-10-24 17:00;CYGK 241700Z 16019G25KT 15SM FEW040 BKN100 OVC150 09/03 A3013 RMK CF1AC6AS2 CF TR PRESFR SLP206

CYGK;2015-10-24 18:00;CYGK 241800Z 17019G26KT 15SM BKN110 OVC220 09/03 A3011 RMK AC6CS2 PRESRR SLP199

CYGK;2015-10-24 19:00;CYGK 241900Z 16021KT 15SM FEW055 BKN120 OVC190 09/03 A3006 RMK SC1AC7CI1 SC TR PRESFR SLP182

CYGK;2015-10-24 19:50;CYGK 241950Z 16020G26KT 15SM -RA FEW063 BKN100 OVC170 10/03 A3005 RMK SC2AC4CI2 PRESFR SLP180

CYGK;2015-10-24 20:00;CYGK 242000Z 16021G26KT 12SM -RA FEW060 BKN100 OVC170 09/03 A3005 RMK SC2AC4CI2 PRESFR SLP178

CYGK;2015-10-24 21:00;CYGK 242100Z 16020G27KT 15SM -RA SCT053 BKN097 OVC170 10/04 A3003 RMK SC3AC3CI2 SLP171

CYGK;2015-10-24 21:27;CYGK 242127Z 17020G27KT 15SM BKN042 OVC098 10/04 A3002 RMK SC5AC3 SLP167

CYGK;2015-10-24 21:39;CYGK 242139Z 16020G27KT 15SM -RA BKN031 OVC100 10/05 A3001 RMK SC5AC3 SLP163

CYGK;2015-10-24 22:00;CYGK 242200Z 16022G29KT 15SM BKN028 OVC090 10/05 A2998 RMK SC5AC3 PRESFR SLP155

CYGK;2015-10-24 23:00;CYGK 242300Z 16020G27KT 10SM -RA BKN028 OVC050 10/07 A2997 RMK SC6SC2 SLP152

CYGK;2015-10-24 23:45;CYGK 242345Z 17022G30KT 15SM OVC024 10/07 A2995 RMK SC8 SLP144

CYGK;2015-10-25 00:00;CYGK 250000Z 17022G30KT 10SM -RA OVC023 10/07 A2994 RMK SC8 SLP142

CYGK;2015-10-25 00:48;CYGK 250048Z 17024G32KT 15SM SCT022 OVC041 11/07 A2991 RMK SC3SC5 SLP130

CYGK;2015-10-25 01:00;CYGK 250100Z 17019G31KT 15SM FEW020 OVC041 11/07 A2991 RMK SC2SC6 SLP130

CYGK;2015-10-25 02:00;CYGK 250200Z 17027G33KT 10SM -RA BKN031 OVC042 10/07 A2987 RMK SC5SC3 SLP116

CYGK;2015-10-25 02:49;CYGK 250249Z 17017G27KT 15SM OVC023 11/09 A2986 RMK SC8 SLP112

CYGK;2015-10-25 03:00;CYGK 250300Z 18024G31KT 15SM OVC022 12/08 A2985 RMK SC8 LAST STFD OBS/NEXT 251000 UTC SLP109

CYGK;2015-10-25 10:00;CYGK 251000Z 27011G21KT 15SM FEW012 OVC020 12/09 A2985 RMK SF2SC6 SLP111

CYGK;2015-10-25 11:00;CYGK 251100Z 26008G15KT 15SM FEW020 BKN076 11/09 A2989 RMK SF2AC3 SLP122

CYGK;2015-10-25 12:00;CYGK 251200Z 25010G18KT 15SM FEW020 BKN037 BKN095 11/09 A2993 RMK SF2SC3AC2 SLP137

CYGK;2015-10-25 13:00;CYGK 251300Z 26009G15KT 15SM FEW011 BKN036 BKN190 11/09 A2997 RMK SF1SC5CI1 SF TR CI TR SH DIST NW - NE SLP150

CYGK;2015-10-25 13:15;CYGK 251315Z 26012KT 1 3/4SM -SHRA BR SCT010 OVC018 11/09 A2998 RMK SF3SC5 VIS S 5 PRESRR SLP155

CYGK;2015-10-25 13:39;CYGK 251339Z 28009G18KT 3SM -SHRA BR SCT008 OVC018 11/09 A3000 RMK SF4SC4 VIS N 2 SLP161

CYGK;2015-10-25 13:52;CYGK 251352Z 29009G17KT 3SM BR SCT005 OVC017 11/09 A3001 RMK SF3SC5 PRESRR SLP165

CYGK;2015-10-25 14:00;CYGK 251400Z 32010G16KT 260V340 3SM BR FEW005 OVC012 10/09 A3002 RMK SF2SC6 VIS S 5 SLP167

CYGK;2015-10-25 14:08;CYGK 251408Z 30011G17KT 280V340 4SM -SHRA BR FEW008 OVC021 10/08 A3003 RMK SF2SC6 VIS NW 2 SLP170

CYGK;2015-10-25 14:32;CYGK 251432Z 30010KT 10SM FEW015 OVC029 10/08 A3004 RMK CF1SC7 SH DIST W - NW SLP175

CYGK;2015-10-25 15:00;CYGK 251500Z 31010G17KT 10SM -SHRA SCT013 BKN029 09/07 A3006 RMK SF3SC4 SLP181

CYGK;2015-10-25 15:17;CYGK 251517Z 32014G19KT 15SM FEW015 BKN038 10/06 A3006 RMK SF2SC5 SLP183

CYGK;2015-10-25 16:00;CYGK 251600Z 33012G21KT 15SM BKN036 11/05 A3009 RMK SC7 SLP192

CYGK;2015-10-25 17:00;CYGK 251700Z 32009G18KT 15SM BKN035 11/04 A3012 RMK CU6 SLP200

CYGK;2015-10-25 18:00;CYGK 251800Z 33012G19KT 15SM BKN038 11/03 A3013 RMK SC6 CU ASOCTD SLP204

CYGK;2015-10-25 19:00;CYGK 251900Z 31012G21KT 15SM BKN042 12/01 A3015 RMK SC6 SLP211

CYGK;2015-10-25 20:00;CYGK 252000Z 27012KT 15SM BKN042 12/03 A3016 RMK SC5 SLP216

CYGK;2015-10-25 21:00;CYGK 252100Z 29008G19KT 15SM FEW040 11/02 A3018 RMK SC2 SLP223

CYGK;2015-10-25 22:00;CYGK 252200Z 28005KT 15SM FEW040 FEW240 09/01 A3021 RMK SC1CI1 CI TR SLP230

CYGK;2015-10-25 23:00;CYGK 252300Z 26005KT 15SM FEW040 FEW240 09/01 A3023 RMK SC1CI1 CI TR SLP238

CYGK;2015-10-26 00:00;CYGK 260000Z 29005KT 15SM FEW040 FEW240 07/01 A3026 RMK SC1CI1 SC TR CI TR SLP249

CYGK;2015-10-26 01:00;CYGK 260100Z 31010KT 15SM FEW050 07/01 A3028 RMK SC2 SLP257

CYGK;2015-10-26 02:00;CYGK 260200Z 33008KT 15SM FEW055 05/01 A3032 RMK SC2 SLP270

CYGK;2015-10-26 03:00;CYGK 260300Z 35005KT 15SM FEW055 03/M00 A3035 RMK SC1 SC TR LAST STFD OBS/NEXT 261000 UTC SLP282

CYGK;2015-10-26 10:00;CYGK 261000Z 34005KT 15SM SKC M01/M02 A3046 RMK SLP317

CYGK;2015-10-26 11:00;CYGK 261100Z 35005KT 15SM SKC M01/M03 A3048 RMK SLP325

CYGK;2015-10-26 12:00;CYGK 261200Z 34005KT 15SM SKC M02/M03 A3050 RMK SLP333

CYGK;2015-10-26 13:00;CYGK 261300Z 31002KT 15SM FEW018 FEW260 01/M00 A3053 RMK SC1CI1 SC TR CI TR SLP341

CYGK;2015-10-26 14:00;CYGK 261400Z 34006KT 15SM SCT260 03/M01 A3054 RMK CI3 SLP346

CYGK;2015-10-26 15:00;CYGK 261500Z 35005KT 15SM FEW035 FEW260 06/M03 A3055 RMK CF1CI2 CF TR SLP347

CYGK;2015-10-26 16:00;CYGK 261600Z 04003KT 330V080 15SM FEW035 FEW260 07/M04 A3053 RMK CF1CI1 CF TR CI TR SLP343

CYGK;2015-10-26 17:00;CYGK 261700Z 34005KT 300V040 15SM FEW035 FEW260 08/M03 A3052 RMK CU1CI1 CU TR CI TR SLP338

CYGK;2015-10-26 18:00;CYGK 261800Z 32009KT 250V010 15SM FEW035 FEW260 09/M03 A3050 RMK CU1CI1 CU TR CI TR SLP333

CYGK;2015-10-26 19:00;CYGK 261900Z 34006KT 290V360 15SM FEW035 FEW260 09/M03 A3048 RMK CU1CI1 CU TR CI TR SLP326

CYGK;2015-10-26 20:00;CYGK 262000Z VRB05KT 15SM FEW030 FEW270 08/M01 A3049 RMK CF1CI1 CF TR SLP327

CYGK;2015-10-26 21:00;CYGK 262100Z 20006KT 15SM FEW030 FEW270 08/M01 A3049 RMK CF1CI1 CF TR SLP328

CYGK;2015-10-26 22:00;CYGK 262200Z 21003KT 15SM FEW270 07/M01 A3049 RMK CI1 SLP327

CYGK;2015-10-26 23:00;CYGK 262300Z 23005KT 15SM FEW170 FEW270 06/M01 A3050 RMK AC1CI1 CI TR SLP333

CYGK;2015-10-27 00:00;CYGK 270000Z 24006KT 15SM FEW270 06/M00 A3051 RMK CI2 SLP335

CYGK;2015-10-27 01:00;CYGK 270100Z 28004KT 15SM FEW270 05/M00 A3052 RMK CI2 SLP337

CYGK;2015-10-27 02:00;CYGK 270200Z 34004KT 15SM SCT270 02/M01 A3051 RMK CI3 SLP335

CYGK;2015-10-27 03:00;CYGK 270300Z 34003KT 15SM SCT140 SCT270 02/M01 A3052 RMK AC3CI1 LAST STFD OBS/NEXT 271000 UTC SLP339

CYGK;2015-10-27 10:00;CYGK 271000Z 03004KT 15SM SCT250 M01/M03 A3053 RMK CI3 SLP341

CYGK;2015-10-27 11:00;CYGK 271100Z 04004KT 15SM BKN250 M01/M02 A3053 RMK CI5 SLP342

CYGK;2015-10-27 12:00;CYGK 271200Z 05005KT 15SM BKN250 M01/M02 A3053 RMK CI7 SLP344

CYGK;2015-10-27 13:00;CYGK 271300Z 02004KT 360V080 15SM FEW020 BKN250 03/00 A3057 RMK CF1CI7 CF TR SLP354

CYGK;2015-10-27 14:00;CYGK 271400Z 04006KT 15SM FEW030 BKN250 06/02 A3057 RMK CU1CI7 CU TR SLP356

CYGK;2015-10-27 15:00;CYGK 271500Z 07005KT 15SM FEW030 BKN250 08/01 A3057 RMK CU1CI7 CU TR SLP356

CYGK;2015-10-27 16:00;CYGK 271600Z 10004KT 050V120 15SM FEW030 BKN250 08/00 A3057 RMK CU1CI7 CU TR SLP355

CYGK;2015-10-27 17:00;CYGK 271700Z 09007KT 15SM FEW030 BKN250 09/M01 A3055 RMK CU1CS7 CU TR SLP347

CYGK;2015-10-27 18:00;CYGK 271800Z 09005KT 070V140 15SM BKN250 09/M01 A3052 RMK CS7 SLP340

CYGK;2015-10-27 19:00;CYGK 271900Z 12006KT 070V140 15SM BKN270 10/M01 A3050 RMK CI7 SLP333

CYGK;2015-10-27 20:00;CYGK 272000Z 06006KT 040V110 15SM BKN250 09/M01 A3048 RMK CS7 SLP325

CYGK;2015-10-27 21:00;CYGK 272100Z 07006KT 15SM SCT170 BKN270 09/M02 A3047 RMK AS3CS4 SLP322

CYGK;2015-10-27 22:00;CYGK 272200Z 05005KT 15SM FEW170 BKN240 07/M03 A3046 RMK AS2CS5 SLP317

CYGK;2015-10-27 23:00;CYGK 272300Z 05006KT 15SM FEW150 OVC220 06/M03 A3044 RMK AS2CS6 SLP313

CYGK;2015-10-28 00:00;CYGK 280000Z 05007KT 15SM OVC240 06/M03 A3044 RMK CS8 SLP313

CYGK;2015-10-28 01:00;CYGK 280100Z 05008KT 15SM OVC250 06/M02 A3044 RMK CS8 SLP310

CYGK;2015-10-28 02:00;CYGK 280200Z 05008KT 15SM OVC250 05/M02 A3044 RMK CS8 SLP309

CYGK;2015-10-28 03:00;CYGK 280300Z 05006KT 15SM OVC250 05/M01 A3043 RMK CS8 LAST STFD OBS/NEXT 281000 UTC SLP308

CYGK;2015-10-28 10:00;CYGK 281000Z 07006KT 15SM OVC150 07/03 A3025 RMK AC8 SLP247

CYGK;2015-10-28 11:00;CYGK 281100Z 08008KT 15SM OVC120 07/03 A3021 RMK AC8 SLP234

CYGK;2015-10-28 12:00;CYGK 281200Z 08007KT 15SM SCT070 OVC140 08/02 A3018 RMK AC3AC5 SLP224

CYGK;2015-10-28 12:27;CYGK 281227Z 08007KT 15SM -RA SCT073 OVC120 08/02 A3018 RMK AC4AC4 SLP221

CYGK;2015-10-28 13:00;CYGK 281300Z 08008KT 12SM -RA OVC064 08/03 A3017 RMK NS8 SLP219

CYGK;2015-10-28 14:00;CYGK 281400Z 06007KT 5SM -RA BR OVC045 07/05 A3012 RMK NS8 PRESFR SLP204

CYGK;2015-10-28 15:00;CYGK 281500Z 08010KT 4SM -RA BR SCT026 OVC041 07/06 A3008 RMK SC3NS5 PRESFR SLP189

CYGK;2015-10-28 16:00;CYGK 281600Z 07013KT 2 1/2SM -RA BR BKN024 OVC040 08/07 A3000 RMK SC5NS3 PRESFR SLP160

CYGK;2015-10-28 16:18;CYGK 281618Z 07015G21KT 3SM -RA BR BKN023 OVC042 08/07 A2995 RMK SC5NS3 PRESFR SLP143

CYGK;2015-10-28 17:00;CYGK 281700Z 09015G20KT 3SM -RA BR FEW008 BKN020 OVC045 08/07 A2993 RMK SF2SC5NS1 PRESFR SLP137

CYGK;2015-10-28 17:25;CYGK 281725Z 10012G19KT 2SM RA BR FEW008 OVC020 08/07 A2991 RMK SF1NS7 SLP130

CYGK;2015-10-28 17:37;CYGK 281737Z 09014KT 4SM -RA BR FEW008 OVC018 09/08 A2989 RMK SF2NS6 PRESFR SLP123

CYGK;2015-10-28 18:00;CYGK 281800Z 08009KT 6SM -RA BR SCT008 OVC018 09/08 A2987 RMK SF3NS5 PRESFR SLP116

CYGK;2015-10-28 19:00;CYGK 281900Z 11009G16KT 10SM -RA FEW008 OVC020 10/08 A2981 RMK SF2NS6 -RA INTMT PRESFR SLP095

CYGK;2015-10-28 20:00;CYGK 282000Z 13018G24KT 6SM -RA BR OVC023 11/09 A2976 RMK NS8 PRESFR SLP079

CYGK;2015-10-28 20:18;CYGK 282018Z 13012G20KT 3SM -RA BR OVC020 11/09 A2975 RMK NS8 SLP077

CYGK;2015-10-28 21:00;CYGK 282100Z 14016G22KT 6SM -RA BR FEW008 OVC022 11/09 A2971 RMK SF1NS7 PRESFR SLP062

CYGK;2015-10-28 22:00;CYGK 282200Z 14016G23KT 10SM -RA FEW008 OVC018 12/10 A2969 RMK SF1NS7 -RA INTMT SLP054

CYGK;2015-10-28 23:00;CYGK 282300Z 17006G15KT 130V200 10SM -RA OVC013 12/10 A2964 RMK NS8 SLP037

CYGK;2015-10-29 00:00;CYGK 290000Z 14018G26KT 10SM -RA BKN015 OVC045 13/11 A2958 RMK CU6SC2 PRESFR SLP020 DENSITY ALT 400FT

CYGK;2015-10-29 01:00;CYGK 290100Z 15022G31KT 12SM -RA SCT015 OVC045 14/11 A2953 RMK CU3SC5 SLP002 DENSITY ALT 600FT

CYGK;2015-10-29 02:00;CYGK 290200Z 16023G29KT 8SM -RA FEW015 OVC045 14/11 A2950 RMK CU2NS6 SLP989 DENSITY ALT 600FT

CYGK;2015-10-29 03:00;CYGK 290300Z 16021G27KT 8SM -RA FEW015 OVC030 13/12 A2946 RMK CU1NS7 LAST OBS/NEXT 291000 UTC SLP977 DENSITY ALT 700FT

CYGK;2015-10-29 10:00;CYGK 291000Z 23014G21KT 15SM FEW030 OVC090 14/11 A2941 RMK SC1AC7 SLP958 DENSITY ALT 700FT

CYGK;2015-10-29 11:00;CYGK 291100Z 23011G17KT 15SM BKN110 12/10 A2939 RMK AC5 SLP952 DENSITY ALT 600FT

CYGK;2015-10-29 12:00;CYGK 291200Z 21012G17KT 15SM BKN120 12/09 A2941 RMK AC7 SLP959 DENSITY ALT 600FT

CYGK;2015-10-29 12:55;CYGK 291255Z 20011KT 15SM -RA BKN035 OVC120 12/10 A2942 RMK SC5AC3 SLP963 DENSITY ALT 500FT

CYGK;2015-10-29 13:00;CYGK 291300Z 20010G16KT 15SM -RA BKN035 OVC120 12/10 A2942 RMK SC6AC2 SLP962 DENSITY ALT 500FT

CYGK;2015-10-29 14:00;CYGK 291400Z 24018G30KT 8SM -RA SCT020 OVC055 10/08 A2945 RMK SC4SC4 SLP975

CYGK;2015-10-29 14:31;CYGK 291431Z 23019G29KT 15SM BKN020 BKN060 10/07 A2945 RMK CU5SC2 SLP974

CYGK;2015-10-29 15:00;CYGK 291500Z 25026G34KT 15SM FEW020 SCT040 BKN110 10/03 A2947 RMK CU2SC1AC2 GSTS 42KT PST HR PRESRR SLP981

CYGK;2015-10-29 16:00;CYGK 291600Z 25029G41KT 15SM FEW020 FEW060 FEW110 10/M01 A2949 RMK CU1SC1AC1 CU TR AC TR PRESRR SLP986

CYGK;2015-10-29 17:00;CYGK 291700Z 24024G39KT 15SM FEW035 FEW060 FEW110 10/M01 A2950 RMK CU1SC1AC1 SC TR SLP992

CYGK;2015-10-29 18:00;CYGK 291800Z 24025G37KT 15SM FEW035 SCT058 BKN110 10/M01 A2951 RMK CU1SC3AC1 SLP993

CYGK;2015-10-29 19:00;CYGK 291900Z 24022G36KT 12SM -RA OVC050 09/M00 A2951 RMK SC8 SLP994

CYGK;2015-10-29 20:00;CYGK 292000Z 24013G19KT 15SM -SHRA OVC040 08/02 A2953 RMK CU8 SLP001

CYGK;2015-10-29 20:46;CYGK 292046Z 23021G35KT 15SM BKN035 OVC100 08/02 A2953 RMK CU6AC2 SLP999

CYGK;2015-10-29 21:00;CYGK 292100Z 24022G35KT 15SM VCSH BKN035 OVC100 08/01 A2953 RMK CU5AC3 SLP001

CYGK;2015-10-29 22:00;CYGK 292200Z 25020G29KT 15SM VCSH SCT035 BKN070 OVC100 08/00 A2956 RMK CU4AC2AC2 SLP009

CYGK;2015-10-29 22:21;CYGK 292221Z 25020G27KT 12SM -RA BKN040 OVC060 08/00 A2956 RMK CU5SC3 SLP012

CYGK;2015-10-29 23:00;CYGK 292300Z 24022G31KT 15SM -RA BKN038 OVC095 08/01 A2956 RMK CU5AC3 SLP013

CYGK;2015-10-29 23:21;CYGK 292321Z 24020G28KT 15SM SCT035 BKN058 OVC085 08/01 A2957 RMK CU3SC2AC3 SLP014

CYGK;2015-10-30 00:00;CYGK 300000Z 24019G31KT 15SM SCT040 OVC080 08/01 A2957 RMK CU4AC4 SLP015

CYGK;2015-10-30 01:00;CYGK 300100Z 25020G31KT 15SM VCSH FEW030 OVC045 09/03 A2958 RMK CU2SC6 SLP017

CYGK;2015-10-30 02:00;CYGK 300200Z 25027G37KT 15SM VCSH OVC030 09/03 A2958 RMK SC8 SLP020

CYGK;2015-10-30 03:00;CYGK 300300Z 24021G31KT 15SM OVC028 09/04 A2959 RMK SC8 LAST STFD OBS/NEXT 301000 UTC SLP022

CYGK;2015-10-30 10:00;CYGK 301000Z 32011G16KT 15SM FEW030 FEW140 05/M01 A2983 RMK CU1AC1 CU TR AC TR PRESRR SLP103

CYGK;2015-10-30 11:00;CYGK 301100Z 29008KT 15SM FEW030 04/M01 A2987 RMK SC1 SC TR SLP117

CYGK;2015-10-30 12:00;CYGK 301200Z 27005KT 15SM FEW030 03/M01 A2991 RMK SC1 SC TR SLP130

CYGK;2015-10-30 13:00;CYGK 301300Z 28007KT 15SM FEW030 FEW230 04/M00 A2996 RMK SC1CI1 CI TR SLP147

CYGK;2015-10-30 14:00;CYGK 301400Z 32013KT 15SM BKN025 05/M01 A2998 RMK CU5 SLP156

CYGK;2015-10-30 15:00;CYGK 301500Z 31010G15KT 280V340 15SM BKN030 06/M02 A3001 RMK CU6 SLP163

CYGK;2015-10-30 16:00;CYGK 301600Z 30005KT 15SM BKN034 07/M02 A3002 RMK CU5 SLP169

CYGK;2015-10-30 17:00;CYGK 301700Z 32011KT 15SM SCT038 07/M03 A3002 RMK SC3 SLP169

CYGK;2015-10-30 18:00;CYGK 301800Z 32009KT 250V350 15SM SCT041 08/M02 A3003 RMK SC3 SLP170

CYGK;2015-10-30 19:00;CYGK 301900Z 28010KT 15SM FEW040 08/M03 A3003 RMK SC2 SLP170

CYGK;2015-10-30 20:00;CYGK 302000Z 32006KT 250V340 15SM FEW040 09/M02 A3003 RMK SC1 SC TR SLP171

CYGK;2015-10-30 21:00;CYGK 302100Z 33007KT 270V340 15SM FEW040 08/M02 A3005 RMK SC1 SLP178

CYGK;2015-10-30 22:00;CYGK 302200Z 33004KT 15SM FEW040 06/M03 A3007 RMK SC1 SLP184

CYGK;2015-10-30 23:00;CYGK 302300Z 32002KT 15SM SKC 04/M03 A3009 RMK SLP192

CYGK;2015-10-31 00:00;CYGK 310000Z 27006KT 15SM SKC 05/M03 A3011 RMK SLP198

CYGK;2015-10-31 01:00;CYGK 310100Z 28007KT 15SM SKC 04/M02 A3012 RMK SLP202

CYGK;2015-10-31 02:00;CYGK 310200Z 29005KT 15SM SKC 04/M02 A3012 RMK SLP204

CYGK;2015-10-31 03:00;CYGK 310300Z /////KT 15SM SKC RMK LAST STFD OBS/NEXT 311000 UTC

CYGK;2015-10-31 10:00;CYGK 311000Z 34003KT 15SM SKC M02/M03 A3016 RMK SLP217

CYGK;2015-10-31 11:00;CYGK 311100Z 33003KT 280V340 15SM FEW015 SCT031 BKN250 M03/M04 A3017 RMK CF1SC3CI2 CF TR SLP220

CYGK;2015-10-31 12:00;CYGK 311200Z 34004KT 15SM FEW015 FEW038 BKN250 M02/M03 A3018 RMK CF1SC1CI6 CF TR SLP222

CYGK;2015-10-31 13:00;CYGK 311300Z 32004KT 15SM FEW015 FEW038 BKN250 00/M01 A3018 RMK CF1SC2CS5 CF TR SLP225

CYGK;2015-10-31 14:00;CYGK 311400Z 33005KT 15SM FEW015 BKN036 BKN160 OVC210 03/M00 A3018 RMK CF1SC6AS1CS1 CF TR SLP225

CYGK;2015-10-31 15:00;CYGK 311500Z 34004KT 15SM FEW015 FEW037 BKN170 OVC210 04/01 A3018 RMK CF1SC2AS3CS3 CF TR SLP225

CYGK;2015-10-31 16:00;CYGK 311600Z VRB02KT 15SM FEW015 FEW035 BKN170 OVC200 06/00 A3014 RMK CF1SC1AS5CS2 CF TR SLP211

CYGK;2015-10-31 17:00;CYGK 311700Z VRB04KT 15SM FEW021 FEW035 BKN160 OVC200 08/02 A3013 RMK CF1SC1AS6CS2 CF TR SC TR SLP208

CYGK;2015-10-31 18:00;CYGK 311800Z 19006KT 130V210 15SM FEW022 FEW035 BKN160 OVC220 08/03 A3012 RMK CU1SC1AC5CS2 SC TR SLP205

CYGK;2015-10-31 19:00;CYGK 311900Z 19007KT 140V210 15SM SCT020 OVC140 08/03 A3009 RMK CU3AC5 SLP193

CYGK;2015-10-31 20:00;CYGK 312000Z 18008KT 15SM FEW020 OVC140 08/03 A3007 RMK SC2AC6 PRESFR SLP187

CYGK;2015-10-31 21:00;CYGK 312100Z 19008KT 15SM FEW020 OVC140 08/03 A3008 RMK CU2AC6 SLP190

CYGK;2015-10-31 22:00;CYGK 312200Z 18005KT 15SM FEW020 OVC140 07/02 A3005 RMK CU1AC8 CU TR SLP178

CYGK;2015-10-31 23:00;CYGK 312300Z 18005KT 15SM OVC140 07/02 A3004 RMK AC8 SLP175

CYGK;2015-11-01 11:00;CYGK 011100Z 18022G29KT 12SM -RA FEW010 OVC023 10/08 A2967 RMK SF2NS6 SLP050

CYGK;2015-11-01 11:46;CYGK 011146Z 19025G30KT 3SM -RA BR OVC014 10/08 A2966 RMK SF8 SLP045

CYGK;2015-11-01 12:00;CYGK 011200Z 19024G30KT 3SM -RA BR FEW009 OVC012 10/08 A2966 RMK SF2NS6 VIS SE 2 SLP045

CYGK;2015-11-01 12:29;CYGK 011229Z 19021G31KT 12SM -RA BKN008 OVC012 10/09 A2966 RMK SF5NS3 SLP046

CYGK;2015-11-01 13:00;CYGK 011300Z 20022G29KT 15SM SCT008 OVC012 10/09 A2966 RMK SF4SC4 SLP046

CYGK;2015-11-01 13:14;CYGK 011314Z 20020G29KT 12SM -SHRA SCT008 OVC013 11/09 A2967 RMK SF3SC5 TCU EMBD SLP047

CYGK;2015-11-01 14:00;CYGK 011400Z 20017G26KT 15SM -SHRA FEW008 OVC014 11/09 A2967 RMK SF1SC7 SLP050

CYGK;2015-11-01 15:00;CYGK 011500Z 21014G20KT 15SM FEW009 BKN014 OVC055 11/09 A2966 RMK SF1SC6SC1 SLP045

CYGK;2015-11-01 16:00;CYGK 011600Z 22017G23KT 15SM BKN017 BKN070 13/10 A2966 RMK SC6AC1 SLP046 DENSITY ALT 400FT

CYGK;2015-11-01 17:00;CYGK 011700Z 24018G27KT 15SM SCT020 BKN070 14/09 A2967 RMK CU3AC2 SLP048 DENSITY ALT 500FT

CYGK;2015-11-01 18:00;CYGK 011800Z 24018G27KT 15SM FEW030 BKN070 14/07 A2967 RMK CU1AC6 SH DIST N-NE SLP048 DENSITY ALT 500FT

CYGK;2015-11-01 19:00;CYGK 011900Z 25025G36KT 15SM -SHRA FEW030 BKN070 13/07 A2969 RMK CU1AC6 SLP055

CYGK;2015-11-01 19:14;CYGK 011914Z 25020G33KT 15SM VCSH FEW035 OVC083 12/07 A2970 RMK CU2AC6 SLP058

CYGK;2015-11-01 20:00;CYGK 012000Z 25018G30KT 15SM FEW035 BKN100 13/07 A2972 RMK CU1AC5 SLP067

CYGK;2015-11-01 20:27;CYGK 012027Z 25014G32KT 15SM -SHRA BKN038 BKN100 13/06 A2975 RMK CU5AC2 SLP074

CYGK;2015-11-01 21:00;CYGK 012100Z 27013G19KT 15SM -SHRA BKN040 BKN090 12/07 A2976 RMK CU5AC1 SLP080

CYGK;2015-11-01 21:20;CYGK 012120Z 26013G20KT 15SM FEW040 SCT090 11/06 A2978 RMK CU1AC2 SLP085

CYGK;2015-11-01 22:00;CYGK 012200Z 26011G18KT 15SM FEW040 SCT080 11/06 A2980 RMK CU1AC2 SLP093

CYGK;2015-11-01 23:00;CYGK 012300Z 24007KT 15SM SCT075 10/06 A2982 RMK AC3 SLP101

CYGK;2015-11-02 00:00;CYGK 020000Z 26008KT 15SM SCT066 11/06 A2985 RMK AC3 SLP109

CYGK;2015-11-02 01:00;CYGK 020100Z 22006KT 15SM FEW065 10/06 A2987 RMK SC2 SLP116

CYGK;2015-11-02 02:00;CYGK 020200Z 23009KT 15SM FEW058 10/06 A2989 RMK SC1 SC TR SLP122

CYGK;2015-11-02 03:00;CYGK 020300Z 23007KT 15SM SKC 10/06 A2992 RMK SLP132

CYGK;2015-11-02 04:00;CYGK 020400Z 25008KT 15SM SKC 10/06 A2993 RMK LAST STFD OBS/NEXT 021100 UTC SLP138

CYGK;2015-11-02 11:00;CYGK 021100Z 26008KT 15SM FEW040 FEW120 07/04 A3004 RMK SC1AC1 SC TR SLP174

CYGK;2015-11-02 12:00;CYGK 021200Z 28006KT 15SM FEW015 FEW120 FEW220 07/04 A3006 RMK SC1AC1CI1 SC TR SLP182

CYGK;2015-11-02 13:00;CYGK 021300Z 28007KT 15SM FEW020 BKN046 BKN200 08/05 A3008 RMK SC1SC6CI1 SC TR SLP189

CYGK;2015-11-02 14:00;CYGK 021400Z 28007KT 15SM FEW020 BKN044 BKN220 09/06 A3010 RMK CU1SC6CI1 CU TR SLP193

CYGK;2015-11-02 15:00;CYGK 021500Z 27008KT 15SM FEW020 SCT041 SCT220 12/06 A3009 RMK CF1SC3CI1 CF TR SLP190

CYGK;2015-11-02 16:00;CYGK 021600Z 28008KT 240V300 15SM SCT035 BKN041 12/04 A3009 RMK CU3SC3 SLP191

CYGK;2015-11-02 17:00;CYGK 021700Z 28009KT 15SM BKN039 BKN120 BKN220 12/04 A3009 RMK SC5AC1CI1 CI TR SLP191

CYGK;2015-11-02 18:00;CYGK 021800Z 30006KT 270V360 15SM FEW035 SCT220 13/04 A3007 RMK SC2CI1 SLP183

CYGK;2015-11-02 19:00;CYGK 021900Z 21006KT 190V270 15SM FEW038 FEW160 FEW220 14/05 A3006 RMK SC1AC1CI1 SC TR SLP182

CYGK;2015-11-02 20:00;CYGK 022000Z 19012KT 15SM BKN130 BKN220 12/08 A3008 RMK AC5CI1 SLP187

CYGK;2015-11-02 21:00;CYGK 022100Z 19011KT 15SM FEW030 BKN130 BKN230 11/08 A3007 RMK CU1AC7CI1 CU TR CI TR SLP185

CYGK;2015-11-02 22:00;CYGK 022200Z 20012KT 15SM BKN140 BKN230 11/08 A3008 RMK AC6CI1 CI TR SLP188

CYGK;2015-11-02 23:00;CYGK 022300Z 19009KT 15SM FEW100 BKN140 10/08 A3010 RMK AC1AC5 SLP193

CYGK;2015-11-03 00:00;CYGK 030000Z 20007KT 15SM FEW100 BKN140 11/08 A3010 RMK AC1AC6 SLP194

CYGK;2015-11-03 01:00;CYGK 030100Z 18005KT 15SM BKN140 10/07 A3010 RMK AC5 SLP195

CYGK;2015-11-03 02:00;CYGK 030200Z 17005KT 15SM SCT140 SCT210 10/08 A3009 RMK AC3CI1 SLP192

CYGK;2015-11-03 03:00;CYGK 030300Z 17006KT 15SM BKN120 11/08 A3008 RMK AC5 SLP188

CYGK;2015-11-03 04:00;CYGK 030400Z 18008KT 15SM BKN150 11/08 A3006 RMK AC6 LAST STFD OBS/NEXT 031100 UTC PRESRR SLP181

CYGK;2015-11-03 11:00;CYGK 031100Z 21007KT 15SM SCT120 10/07 A3006 RMK AC3 SLP180

CYGK;2015-11-03 12:00;CYGK 031200Z 22004KT 15SM SCT140 09/07 A3008 RMK AC3 SLP189

CYGK;2015-11-03 13:00;CYGK 031300Z 22005KT 15SM SCT140 11/08 A3010 RMK AC3 SLP195

CYGK;2015-11-03 14:00;CYGK 031400Z 23007KT 15SM FEW170 FEW250 13/09 A3012 RMK AC1CI2 AC TR SLP203

CYGK;2015-11-03 15:00;CYGK 031500Z 25007KT 230V300 15SM FEW250 15/09 A3014 RMK CI2 SLP206

CYGK;2015-11-03 16:00;CYGK 031600Z 29008KT 15SM FEW250 17/09 A3014 RMK CI1 SLP208

CYGK;2015-11-03 17:00;CYGK 031700Z 22008KT 15SM SCT250 17/10 A3015 RMK CI3 SLP210

CYGK;2015-11-03 18:00;CYGK 031800Z 22008KT 15SM FEW250 18/10 A3014 RMK CI2 SLP208 DENSITY ALT 400FT

CYGK;2015-11-03 19:00;CYGK 031900Z 23008KT 15SM FEW250 18/10 A3015 RMK CI1 SLP209 DENSITY ALT 400FT

CYGK;2015-11-03 20:00;CYGK 032000Z 19007KT 15SM FEW020 15/11 A3016 RMK CF1 CF TR SLP214

CYGK;2015-11-03 21:00;CYGK 032100Z 18005KT 15SM SKC 15/10 A3018 RMK SLP221

CYGK;2015-11-03 22:00;CYGK 032200Z 19004KT 15SM SKC 13/10 A3020 RMK SLP227

CYGK;2015-11-03 23:00;CYGK 032300Z 15004KT 15SM SKC 11/09 A3022 RMK SLP235

CYGK;2015-11-04 00:00;CYGK 040000Z 13004KT 15SM SKC 10/09 A3024 RMK SLP242

CYGK;2015-11-04 01:00;CYGK 040100Z 05008KT 12SM FEW012 10/09 A3026 RMK SF2 VIS SW 6 PRESRR SLP249

CYGK;2015-11-04 02:00;CYGK 040200Z 04009KT 15SM FEW012 10/07 A3028 RMK SF1 SLP256

CYGK;2015-11-04 03:00;CYGK 040300Z 05008KT 15SM FEW015 10/07 A3030 RMK SF1 SF TR SLP261

CYGK;2015-11-04 04:00;CYGK 040400Z 06009KT 15SM FEW030 09/06 A3029 RMK SC1 SC TR LAST STFD OBS/NEXT 041100 UTC SLP258

CYGK;2015-11-04 11:00;CYGK 041100Z 05007KT 15SM SKC 07/05 A3030 RMK SLP263

CYGK;2015-11-04 12:00;CYGK 041200Z 05007KT 15SM SKC 07/05 A3030 RMK SLP263

CYGK;2015-11-04 13:00;CYGK 041300Z 05007KT 15SM SKC 08/05 A3030 RMK SLP263

CYGK;2015-11-04 14:00;CYGK 041400Z 04005KT 15SM SKC 10/07 A3030 RMK SLP262

CYGK;2015-11-04 15:00;CYGK 041500Z 06004KT 15SM SKC 13/08 A3029 RMK SLP258

CYGK;2015-11-04 16:00;CYGK 041600Z 17004KT 110V180 15SM SKC 15/08 A3028 RMK SLP255

CYGK;2015-11-04 17:00;CYGK 041700Z 13004KT 110V190 15SM SKC 17/09 A3026 RMK SLP248

CYGK;2015-11-04 18:00;CYGK 041800Z 12006KT 15SM SKC 17/08 A3023 RMK SLP237

CYGK;2015-11-04 19:00;CYGK 041900Z 14004KT 100V160 15SM SKC 18/08 A3021 RMK SLP232 DENSITY ALT 400FT

CYGK;2015-11-04 20:00;CYGK 042000Z 18003KT 15SM SKC 18/09 A3020 RMK SLP227 DENSITY ALT 400FT

CYGK;2015-11-04 21:00;CYGK 042100Z 19003KT 15SM SKC 17/08 A3018 RMK SLP222

CYGK;2015-11-04 22:00;CYGK 042200Z 00000KT 15SM SKC 14/08 A3017 RMK SLP219

CYGK;2015-11-04 23:00;CYGK 042300Z 18002KT 15SM SKC 12/07 A3017 RMK SLP219

CYGK;2015-11-05 00:00;CYGK 050000Z 00000KT 15SM SKC 11/07 A3017 RMK SLP217

CYGK;2015-11-05 01:00;CYGK 050100Z VRB02KT 15SM SKC 10/07 A3016 RMK SLP215

CYGK;2015-11-05 02:00;CYGK 050200Z 36005KT 15SM SKC 10/07 A3016 RMK SLP214

CYGK;2015-11-05 03:00;CYGK 050300Z VRB02KT 15SM SKC 09/07 A3016 RMK SLP216

CYGK;2015-11-05 04:00;CYGK 050400Z 00000KT 15SM SKC 08/06 A3015 RMK LAST STFD OBS/NEXT 051100 UTC SLP212

CYGK;2015-11-05 11:00;CYGK 051100Z 16009KT 15SM SCT054 BKN097 12/10 A3015 RMK SC3AC3 SLP213

CYGK;2015-11-05 12:00;CYGK 051200Z 16006KT 15SM SCT051 BKN100 12/10 A3015 RMK SC3AC3 SLP213

CYGK;2015-11-05 12:11;CYGK 051211Z 15004KT 15SM -RA BKN048 BKN100 12/10 A3015 RMK SC5AC2 SLP213

CYGK;2015-11-05 12:28;CYGK 051228Z 17006KT 15SM SCT052 BKN095 12/10 A3016 RMK SC4AC3 SLP216

CYGK;2015-11-05 13:00;CYGK 051300Z 16005KT 15SM SCT061 BKN100 13/10 A3017 RMK SC3AC4 SLP217

CYGK;2015-11-05 14:00;CYGK 051400Z 19006KT 15SM SCT047 BKN110 13/10 A3016 RMK SC4AC2 SLP215

CYGK;2015-11-05 15:00;CYGK 051500Z 21006KT 15SM FEW047 BKN110 14/09 A3016 RMK SC2AC4 SLP215

CYGK;2015-11-05 16:00;CYGK 051600Z 19008KT 15SM FEW050 BKN110 14/09 A3015 RMK SC2AC5 SLP213

CYGK;2015-11-05 17:00;CYGK 051700Z 19007KT 15SM FEW050 BKN110 BKN250 14/10 A3013 RMK SC1AC5CI1 SLP204

CYGK;2015-11-05 18:00;CYGK 051800Z 17005KT 15SM BKN110 14/11 A3010 RMK AC7 SLP194

CYGK;2015-11-05 19:00;CYGK 051900Z 20006KT 15SM BKN110 15/10 A3009 RMK AC6 SLP189

CYGK;2015-11-05 20:00;CYGK 052000Z 19007KT 15SM BKN110 15/10 A3007 RMK AC6 SLP185

CYGK;2015-11-05 21:00;CYGK 052100Z 17005KT 15SM BKN110 13/10 A3006 RMK AC7 SLP180

CYGK;2015-11-05 22:00;CYGK 052200Z 15005KT 15SM BKN110 BKN250 13/10 A3003 RMK AC5CI2 SLP170

CYGK;2015-11-05 23:00;CYGK 052300Z 18002KT 15SM SCT110 BKN250 12/10 A3004 RMK AC3CI4 SLP172

CYGK;2015-11-06 00:00;CYGK 060000Z 00000KT 15SM BKN250 12/10 A3004 RMK CI5 SLP174

CYGK;2015-11-06 01:00;CYGK 060100Z 14004KT 15SM BKN250 13/09 A3001 RMK CI6 SLP163

CYGK;2015-11-06 02:00;CYGK 060200Z 00000KT 15SM SCT070 BKN250 14/10 A3001 RMK AC3CI4 SLP163

CYGK;2015-11-06 03:00;CYGK 060300Z 19010KT 15SM BKN060 OVC250 15/11 A3001 RMK SC5CI3 SLP162

CYGK;2015-11-06 04:00;CYGK 060400Z 19006KT 15SM BKN060 OVC250 14/11 A2999 RMK SC6CI2 LAST STFD OBS/NEXT 061115 UTC SLP155

CYGK;2015-11-06 11:00;CYGK 061100Z 16005KT 130V270 15SM FEW045 OVC120 14/11 A2979 RMK SC1AC7 PRESFR SLP090

CYGK;2015-11-06 11:53;CYGK 061153Z 18011KT 15SM -RA BKN041 BKN110 OVC180 14/12 A2976 RMK SC5AC2AS1 SLP078 DENSITY ALT 400FT

CYGK;2015-11-06 12:00;CYGK 061200Z 18011KT 15SM -RA SCT041 BKN110 OVC180 14/12 A2975 RMK SC4AC3AS1 SLP076 DENSITY ALT 400FT

CYGK;2015-11-06 12:52;CYGK 061252Z 19018KT 15SM VCSH BKN040 OVC130 15/12 A2974 RMK SC7AC1 CU ASOCTD SLP071 DENSITY ALT 500FT

CYGK;2015-11-06 13:00;CYGK 061300Z 19018KT 15SM VCSH BKN042 OVC080 15/12 A2973 RMK SC7AC1 CU ASOCTD SLP069 DENSITY ALT 500FT

CYGK;2015-11-06 13:27;CYGK 061327Z 19016G24KT 12SM -RA SCT042 BKN072 OVC130 15/12 A2972 RMK SC3AC4AC1 SLP064 DENSITY ALT 500FT

CYGK;2015-11-06 14:00;CYGK 061400Z 18018G24KT 12SM FEW042 BKN065 OVC130 15/12 A2970 RMK SC2SC4AC2 SLP056 DENSITY ALT 600FT

CYGK;2015-11-06 14:14;CYGK 061414Z 18020G26KT 12SM -RA BKN042 OVC080 15/13 A2968 RMK SC7AC1 -RA INTMT SLP052 DENSITY ALT 600FT

CYGK;2015-11-06 15:00;CYGK 061500Z 18022G31KT 12SM -RA FEW042 BKN060 OVC080 15/13 A2962 RMK SC2SC5AC1 -RA INTMT PRESFR SLP031 DENSITY ALT 700FT

CYGK;2015-11-06 15:37;CYGK 061537Z 19019G26KT 10SM BKN037 BKN060 OVC090 15/13 A2965 RMK SC5SC2AC1 INTMT -RA SLP041 DENSITY ALT 600FT

CYGK;2015-11-06 16:00;CYGK 061600Z 20019G25KT 10SM -RA BKN034 OVC063 15/13 A2965 RMK SC5SC3 SLP041 DENSITY ALT 600FT

CYGK;2015-11-06 16:49;CYGK 061649Z 20017G23KT 2 1/2SM -RA BR BKN027 OVC070 15/13 A2964 RMK SC7AC1 -RA INTMT SLP038 DENSITY ALT 600FT

CYGK;2015-11-06 17:00;CYGK 061700Z 20017G24KT 2SM -RA BR OVC023 15/13 A2964 RMK SC8 -RA INTMT SLP038 DENSITY ALT 600FT

CYGK;2015-11-06 17:14;CYGK 061714Z 21015G28KT 10SM -RA BKN022 OVC069 16/15 A2964 RMK SC5AC3 SLP038 DENSITY ALT 700FT

CYGK;2015-11-06 17:29;CYGK 061729Z 23015G22KT 15SM FEW020 OVC074 16/15 A2964 RMK SC1AC7 SLP038 DENSITY ALT 800FT

CYGK;2015-11-06 18:00;CYGK 061800Z 24015G25KT 15SM FEW020 OVC079 16/13 A2965 RMK SC1AC7 SLP040 DENSITY ALT 800FT

CYGK;2015-11-06 19:00;CYGK 061900Z 24015KT 15SM FEW018 FEW090 OVC230 16/12 A2966 RMK SC1AC1CI6 SLP044 DENSITY ALT 700FT

CYGK;2015-11-06 20:00;CYGK 062000Z 23013G20KT 15SM FEW020 BKN250 16/12 A2970 RMK CU2CI5 SLP057 DENSITY ALT 700FT

CYGK;2015-11-06 21:00;CYGK 062100Z 22013KT 15SM FEW020 BKN200 16/11 A2972 RMK CU2CI3 SLP066 DENSITY ALT 700FT

CYGK;2015-11-06 22:00;CYGK 062200Z 24014G22KT 15SM FEW020 BKN050 OVC250 15/10 A2976 RMK CU1SC5CI3 CU TR PRESRR SLP077 DENSITY ALT 500FT

CYGK;2015-11-06 23:00;CYGK 062300Z 29010G20KT 15SM BKN055 15/08 A2981 RMK SC6 SLP096 DENSITY ALT 400FT

CYGK;2015-11-07 00:00;CYGK 070000Z 27009G16KT 15SM SCT055 13/07 A2986 RMK SC4 SLP111

CYGK;2015-11-07 01:00;CYGK 070100Z 28009G18KT 15SM FEW050 12/07 A2988 RMK SC2 SLP118

CYGK;2015-11-07 02:00;CYGK 070200Z 29010G16KT 15SM FEW050 11/06 A2990 RMK SC1 SLP125

CYGK;2015-11-07 03:00;CYGK 070300Z 28006KT 15SM FEW050 10/05 A2993 RMK SC1 SLP136

CYGK;2015-11-07 04:00;CYGK 070400Z 30013KT 15SM FEW035 BKN050 10/05 A2992 RMK CU2SC4 LAST STFD OBS/NEXT 071100 UTC PRESFR SLP135

CYGK;2015-11-07 11:00;CYGK 071100Z 28008KT 15SM SCT062 06/02 A3002 RMK SC3 SLP166

CYGK;2015-11-07 12:00;CYGK 071200Z 26006KT 15SM FEW020 SCT062 SCT230 06/02 A3004 RMK CF1SC3CI1 CF TR CI TR SLP176

CYGK;2015-11-07 13:00;CYGK 071300Z 25005KT 15SM FEW020 FEW062 BKN230 06/02 A3007 RMK CF1SC1CI4 CF TR SLP183

CYGK;2015-11-07 14:00;CYGK 071400Z 27008KT 230V310 15SM FEW020 FEW055 SCT230 08/03 A3007 RMK CF1SC1CI4 CF TR SC TR SLP186

CYGK;2015-11-07 15:00;CYGK 071500Z 27009KT 15SM FEW023 FEW062 SCT230 09/03 A3007 RMK CF1SC1CI3 CF TR SC TR SLP184

CYGK;2015-11-07 16:00;CYGK 071600Z 25006KT 230V290 15SM FEW030 FEW080 FEW190 SCT230 11/02 A3006 RMK CU1AC1CC1CI2 AC TR SLP181

CYGK;2015-11-07 17:00;CYGK 071700Z 26008KT 15SM BKN045 BKN190 BKN230 10/02 A3003 RMK SC6CC1CI1 CI TR VIRGA NW SLP172

CYGK;2015-11-07 18:00;CYGK 071800Z 25007G16KT 220V280 15SM VCSH BKN055 BKN140 11/01 A3001 RMK CU5AC1 SH NW-N SLP165

CYGK;2015-11-07 19:00;CYGK 071900Z 24013G19KT 15SM -SHRA BKN052 BKN140 11/01 A3000 RMK CU6AC1 SLP161

CYGK;2015-11-07 20:00;CYGK 072000Z 29007KT 15SM VCSH BKN040 BKN100 08/03 A3000 RMK CU5AC2 SLP162

CYGK;2015-11-07 20:47;CYGK 072047Z 29012G21KT 15SM -SHRA BKN040 BKN100 08/03 A3001 RMK CU7AC1 AC TR SLP166

CYGK;2015-11-07 21:00;CYGK 072100Z 28010G17KT 15SM -SHRA BKN040 OVC100 07/03 A3002 RMK CU7AC1 SLP168

CYGK;2015-11-07 21:28;CYGK 072128Z 27009KT 15SM VCSH BKN045 BKN095 08/03 A3002 RMK CU5AC2 SLP169

CYGK;2015-11-07 22:00;CYGK 072200Z 26008KT 15SM VCSH FEW020 BKN050 BKN100 07/03 A3003 RMK CU1CU4AC2 SLP171

CYGK;2015-11-07 23:00;CYGK 072300Z 26008KT 15SM SCT045 BKN095 07/03 A3005 RMK CU3AC4 SLP180

CYGK;2015-11-08 00:00;CYGK 080000Z 26007KT 15SM FEW040 BKN100 07/03 A3007 RMK CU2AC4 SLP187

CYGK;2015-11-08 01:00;CYGK 080100Z 28006KT 15SM FEW040 SCT100 05/02 A3010 RMK CU1AC3 SLP196

CYGK;2015-11-08 02:00;CYGK 080200Z 28009KT 15SM FEW100 05/02 A3012 RMK AC2 SLP204

CYGK;2015-11-08 03:00;CYGK 080300Z 29008KT 15SM SKC 04/01 A3015 RMK SLP211

CYGK;2015-11-08 04:00;CYGK 080400Z 29008KT 15SM SKC 04/01 A3015 RMK LAST STFD OBS/NEXT 081100 UTC SLP212

CYGK;2015-11-08 11:00;CYGK 081100Z 31007KT 15SM 01/M00 A3029 RMK SLP259

CYGK;2015-11-08 12:00;CYGK 081200Z 31006KT 15SM FEW020 FEW085 01/M00 A3031 RMK CF1AC1 CF TR AC TR SLP268

CYGK;2015-11-08 13:00;CYGK 081300Z 27005KT 15SM FEW020 02/00 A3035 RMK SC1 SC TR SLP282

CYGK;2015-11-08 14:00;CYGK 081400Z 29005KT 15SM FEW020 04/01 A3037 RMK SC1 SLP287

CYGK;2015-11-08 15:00;CYGK 081500Z 32005KT 260V330 15SM FEW017 05/01 A3037 RMK CU2 SLP288

CYGK;2015-11-08 16:00;CYGK 081600Z 23008KT 190V260 15SM FEW020 06/02 A3037 RMK CF1 SLP286

CYGK;2015-11-08 17:00;CYGK 081700Z 24012KT 15SM FEW023 07/01 A3036 RMK CF2 SLP283

CYGK;2015-11-08 18:00;CYGK 081800Z 22009G15KT 15SM FEW030 08/02 A3034 RMK CU1 SLP278

CYGK;2015-11-08 19:00;CYGK 081900Z 22009KT 15SM FEW040 09/01 A3034 RMK CU2 SLP278

CYGK;2015-11-08 20:00;CYGK 082000Z 23012KT 15SM FEW040 09/M00 A3033 RMK CU2 SLP274

CYGK;2015-11-08 21:00;CYGK 082100Z 25012KT 15SM FEW042 09/01 A3033 RMK CU1 SLP275

CYGK;2015-11-08 22:00;CYGK 082200Z 24014KT 15SM FEW040 SCT250 08/01 A3034 RMK SC1CI2 SLP276

CYGK;2015-11-08 23:00;CYGK 082300Z 25011G20KT 15SM FEW020 SCT250 07/03 A3035 RMK SC1CI2 SLP280

CYGK;2015-11-09 00:00;CYGK 090000Z 25009KT 15SM FEW250 07/03 A3035 RMK CI1 SLP281

CYGK;2015-11-09 01:00;CYGK 090100Z 25009KT 15SM SKC 07/03 A3035 RMK SLP280

CYGK;2015-11-09 02:00;CYGK 090200Z 24008KT 15SM SKC 07/03 A3035 RMK SLP280

CYGK;2015-11-09 03:00;CYGK 090300Z 23005KT 15SM SKC 06/03 A3035 RMK SLP282

CYGK;2015-11-09 04:00;CYGK 090400Z 24008KT 15SM SKC 07/03 A3036 RMK LAST STFD OBS/NEXT 091100 UTC SLP285

CYGK;2015-11-09 11:00;CYGK 091100Z 23007KT 15SM FEW020 06/03 A3036 RMK CU1 CU TR SLP285

CYGK;2015-11-09 12:00;CYGK 091200Z 25003KT 230V310 15SM FEW020 02/01 A3037 RMK CF1 CF TR SLP288

CYGK;2015-11-09 13:00;CYGK 091300Z 23006KT 15SM FEW020 07/03 A3039 RMK CF1 CF TR SLP293

CYGK;2015-11-09 14:00;CYGK 091400Z 23009KT 15SM FEW020 08/03 A3039 RMK CU1 SLP292

CYGK;2015-11-09 15:00;CYGK 091500Z 22012KT 15SM SCT020 09/04 A3038 RMK CU4 SLP290

CYGK;2015-11-09 16:00;CYGK 091600Z 22009G15KT 15SM SCT023 09/04 A3038 RMK SC4 SLP289

CYGK;2015-11-09 17:00;CYGK 091700Z 20012G18KT 15SM BKN023 10/04 A3035 RMK SC5 SLP280

CYGK;2015-11-09 18:00;CYGK 091800Z 19012G18KT 15SM FEW023 10/04 A3034 RMK CU2 SLP277

CYGK;2015-11-09 19:00;CYGK 091900Z 19010KT 15SM FEW025 FEW250 10/04 A3031 RMK CF1CI1 CF TR CI TR SLP266

CYGK;2015-11-09 20:00;CYGK 092000Z 19012KT 15SM FEW150 10/04 A3031 RMK AC1 AC TR SLP266

CYGK;2015-11-09 21:00;CYGK 092100Z 21009KT 15SM FEW150 09/03 A3031 RMK AC1 AC TR SLP267

CYGK;2015-11-09 22:00;CYGK 092200Z 22005KT 15SM FEW150 07/03 A3031 RMK AC1 AC TR SLP265

CYGK;2015-11-09 23:00;CYGK 092300Z 11002KT 15SM SKC 06/04 A3030 RMK SLP262

CYGK;2015-11-10 00:00;CYGK 100000Z VRB02KT 15SM SKC 04/02 A3030 RMK SLP262

CYGK;2015-11-10 01:00;CYGK 100100Z 36002KT 15SM SKC 04/03 A3029 RMK SLP260

CYGK;2015-11-10 02:00;CYGK 100200Z 02002KT 15SM SKC 02/01 A3028 RMK SLP258

CYGK;2015-11-10 03:00;CYGK 100300Z 04004KT 15SM SKC 01/00 A3028 RMK SLP257

CYGK;2015-11-10 04:00;CYGK 100400Z 04004KT 15SM SKC M00/M01 A3027 RMK LAST STAFFED OBS/NEXT 10 1100 UTC SLP254

CYGK;2015-11-10 11:00;CYGK 101100Z 04006KT 15SM BKN033 02/00 A3020 RMK SC6 SLP231

CYGK;2015-11-10 12:00;CYGK 101200Z 05008KT 15SM BKN030 BKN040 03/01 A3018 RMK SC6SC1 SLP225

CYGK;2015-11-10 13:00;CYGK 101300Z 05007KT 15SM SCT024 BKN035 04/01 A3018 RMK SC3SC4 SLP224

CYGK;2015-11-10 14:00;CYGK 101400Z 05006KT 15SM FEW010 BKN024 BKN040 05/02 A3017 RMK SF1SC6SC1 SC TR SLP219

CYGK;2015-11-10 14:13;CYGK 101413Z 03004KT 15SM BKN011 BKN025 06/03 A3017 RMK ST5SC2 SLP219

CYGK;2015-11-10 15:00;CYGK 101500Z 03005KT 15SM BKN012 OVC019 06/03 A3016 RMK SC7SC1 SLP216

CYGK;2015-11-10 15:35;CYGK 101535Z 04005KT 10SM -DZ BKN008 OVC018 07/04 A3015 RMK SF7SC1 SLP213

CYGK;2015-11-10 16:00;CYGK 101600Z 01005KT 12SM -DZ BKN008 OVC014 08/04 A3014 RMK SF5SC3 CIG RAG VIS W-NW 6 SLP209

CYGK;2015-11-10 16:17;CYGK 101617Z 01005KT 15SM SCT008 OVC015 09/05 A3013 RMK SF3SC5 SLP205

CYGK;2015-11-10 17:00;CYGK 101700Z 01005KT 15SM VCSH FEW008 OVC015 10/05 A3010 RMK SF2SC6 SLP197

CYGK;2015-11-10 18:00;CYGK 101800Z 02007KT 15SM FEW012 OVC025 10/03 A3007 RMK SF2SC6 SLP185

CYGK;2015-11-10 18:38;CYGK 101838Z 02007KT 5SM -DZ BR SCT011 OVC025 09/05 A3006 RMK SF4SC4 SLP183

CYGK;2015-11-10 19:00;CYGK 101900Z 02006KT 2 1/2SM -DZ BR SCT010 OVC029 08/07 A3005 RMK SF3SC5 SLP180

CYGK;2015-11-10 19:10;CYGK 101910Z 02007KT 2 1/2SM -DZ BR BKN005 OVC030 08/07 A3005 RMK SF5SC3 SLP178

CYGK;2015-11-10 19:34;CYGK 101934Z 03008KT 2 1/2SM DZ BR BKN003 OVC010 08/07 A3004 RMK SF6ST2 SLP176

CYGK;2015-11-10 20:00;CYGK 102000Z 04006KT 2 1/2SM -DZ BR BKN003 OVC010 08/07 A3003 RMK SF6ST2 SLP173

CYGK;2015-11-10 20:27;CYGK 102027Z 03008KT 8SM -DZ BKN003 OVC010 08/07 A3002 RMK SF5ST3 SLP170

CYGK;2015-11-10 20:41;CYGK 102041Z 03010G16KT 10SM SCT003 BKN009 OVC015 08/06 A3002 RMK SF3ST4SC1 SLP170

CYGK;2015-11-10 21:00;CYGK 102100Z 02009KT 10SM FEW003 BKN009 OVC030 08/06 A3002 RMK SF1ST5SC2 SLP169

CYGK;2015-11-10 21:12;CYGK 102112Z 02008KT 12SM FEW003 SCT009 OVC030 08/06 A3002 RMK SF1SC4SC4 SF TR SLP168

CYGK;2015-11-10 22:00;CYGK 102200Z 01008KT 12SM FEW009 SCT015 BKN030 OVC058 08/06 A3001 RMK SC1SC3SC2SC3 SC TR SLP165

CYGK;2015-11-10 23:00;CYGK 102300Z 01009KT 15SM FEW015 SCT035 OVC075 08/05 A2999 RMK SC1SC2AC5 SLP160

CYGK;2015-11-11 00:00;CYGK 110000Z 02007KT 15SM SCT050 OVC070 08/05 A2999 RMK SC3AC5 SLP158

CYGK;2015-11-11 01:00;CYGK 110100Z 03007KT 15SM FEW065 OVC200 08/05 A2998 RMK SC1CI7 SLP153

CYGK;2015-11-11 02:00;CYGK 110200Z 01006KT 15SM FEW028 FEW040 SCT120 OVC170 08/05 A2996 RMK SC1SC1AC3AC4 SC TR SLP147

CYGK;2015-11-11 03:00;CYGK 110300Z 03008KT 15SM SCT050 OVC150 09/05 A2993 RMK SC3AC5 SLP139

CYGK;2015-11-11 04:00;CYGK 110400Z 02006KT 15SM OVC150 09/05 A2992 RMK AC8 LAST STFD OBS/NEXT 111100 UTC SLP136

CYGK;2015-11-11 11:00;CYGK 111100Z 04005KT 15SM FEW035 BKN110 08/04 A2990 RMK SC2AC5 SLP128

CYGK;2015-11-11 12:00;CYGK 111200Z 03003KT 15SM FEW035 BKN070 BKN110 08/04 A2991 RMK SC2AC3AC1 SLP132

CYGK;2015-11-11 13:00;CYGK 111300Z 01004KT 15SM FEW035 BKN070 BKN120 08/04 A2993 RMK SC2AC4AC1 SLP139

CYGK;2015-11-11 14:00;CYGK 111400Z 05004KT 15SM BKN040 BKN065 OVC110 09/05 A2994 RMK SC5SC2AC1 SH DIST NW SLP141

CYGK;2015-11-11 14:35;CYGK 111435Z 00000KT 15SM -RA SCT040 BKN065 09/04 A2995 RMK SC3SC4 SLP143

CYGK;2015-11-11 15:00;CYGK 111500Z VRB02KT 15SM SCT040 BKN065 BKN080 10/05 A2994 RMK SC3SC2AC2 INTMT -RA SLP141

CYGK;2015-11-11 15:31;CYGK 111531Z 22003KT 180V270 15SM SCT040 BKN095 10/05 A2995 RMK SC3AC4 SLP143

CYGK;2015-11-11 16:00;CYGK 111600Z 18004KT 15SM FEW040 BKN085 BKN250 10/05 A2994 RMK SC1AC5CI1 SLP141

CYGK;2015-11-11 17:00;CYGK 111700Z 21005KT 15SM BKN026 BKN055 10/05 A2994 RMK SC5SC2 SLP140

CYGK;2015-11-11 18:00;CYGK 111800Z 22006KT 15SM BKN018 BKN028 OVC060 11/06 A2992 RMK SC5SC2SC1 SLP134

CYGK;2015-11-11 19:00;CYGK 111900Z 19009KT 12SM BKN017 OVC032 11/07 A2992 RMK SC6SC2 SLP134

CYGK;2015-11-11 19:42;CYGK 111942Z 26007KT 200V280 8SM -DZ OVC013 10/07 A2992 RMK ST8 VIS W-NE 3 SLP133

CYGK;2015-11-11 20:00;CYGK 112000Z 24006KT 2SM -DZ BR SCT013 OVC017 10/08 A2992 RMK SF3ST5 SLP133

CYGK;2015-11-11 20:04;CYGK 112004Z 22006KT 1 1/2SM -DZ BR BKN002 OVC017 10/08 A2992 RMK SF5ST3 SLP133

CYGK;2015-11-11 21:00;CYGK 112100Z 25005KT 1 1/2SM -DZ BR BKN002 OVC012 09/09 A2993 RMK SF6ST2 SLP136

CYGK;2015-11-11 21:25;CYGK 112125Z 25004KT 2SM -DZ BR SCT003 OVC009 09/08 A2993 RMK SF3ST5 VIS S-W 4 SLP136

CYGK;2015-11-11 22:00;CYGK 112200Z 26003KT 1 1/2SM -DZ BR BKN004 OVC009 09/09 A2993 RMK SF6ST2 SLP138

CYGK;2015-11-11 22:10;CYGK 112210Z 25003KT 3SM -DZ BR BKN004 OVC010 09/09 A2993 RMK SF6ST2 CIG RAG SLP138

CYGK;2015-11-11 23:00;CYGK 112300Z 24003KT 2 1/2SM -DZ BR OVC003 09/09 A2994 RMK SF8 CIG RAG SLP141

CYGK;2015-11-11 23:45;CYGK 112345Z 25005KT 3SM -DZ BR OVC004 10/09 A2994 RMK SF8 CIG RAG SLP142

CYGK;2015-11-12 00:00;CYGK 120000Z 25004KT 3SM -DZ BR OVC003 10/09 A2995 RMK SF8 CIG RAG SLP143

CYGK;2015-11-12 01:00;CYGK 120100Z 24007KT 4SM -DZ BR OVC003 10/09 A2994 RMK SF8 SLP140

CYGK;2015-11-12 02:00;CYGK 120200Z 24007KT 5SM -DZ BR SCT008 10/09 A2994 RMK SF3 SLP141

CYGK;2015-11-12 03:00;CYGK 120300Z 25004KT 6SM -DZ BR OVC003 10/09 A2994 RMK SF8 CIG RAG SLP140

CYGK;2015-11-12 04:00;CYGK 120400Z 21005KT 4SM -DZ BR BKN003 OVC007 10/09 A2991 RMK SF5ST3 CIG RAG LAST STFD OBS/NEXT 121100 UTC SLP130

CYGK;2015-11-12 11:00;CYGK 121100Z 12008KT 15SM OVC022 10/08 A2972 RMK SC8 PRESFR SLP066

CYGK;2015-11-12 12:00;CYGK 121200Z 13007KT 15SM OVC020 10/08 A2973 RMK SC8 SLP069

CYGK;2015-11-12 13:00;CYGK 121300Z 12013KT 15SM FEW015 BKN022 OVC050 11/08 A2964 RMK SF1SC7SC1 SF TR PRESFR SLP040

CYGK;2015-11-12 14:00;CYGK 121400Z 13012G17KT 15SM -RA FEW015 BKN028 OVC050 11/08 A2960 RMK CF1SC7SC1 CF TR SLP024

CYGK;2015-11-12 15:00;CYGK 121500Z 15012G18KT 12SM -RA FEW015 BKN025 OVC070 11/09 A2956 RMK CU1SC4AC3 SLP013

CYGK;2015-11-12 15:45;CYGK 121545Z 16013G19KT 3SM -RA BR FEW015 OVC028 11/09 A2955 RMK SF2SC6 SLP008

CYGK;2015-11-12 16:00;CYGK 121600Z 15013KT 3SM -RA BR FEW001 OVC025 11/09 A2952 RMK SF1SC7 PRESFR SLP996

CYGK;2015-11-12 17:00;CYGK 121700Z 15013KT 2 1/2SM -RA BR FEW004 OVC015 11/10 A2945 RMK SF2SC6 PRESFR SLP975

CYGK;2015-11-12 17:32;CYGK 121732Z 14012KT 4SM -RA BR FEW005 OVC022 11/10 A2943 RMK SF1SC7 PRESFR SLP966 DENSITY ALT 400FT

CYGK;2015-11-12 17:50;CYGK 121750Z 15010KT 10SM FEW010 OVC030 11/10 A2941 RMK CF1SC8 CF TR PRESFR SLP960 DENSITY ALT 400FT

CYGK;2015-11-12 18:00;CYGK 121800Z 15009KT 12SM FEW008 OVC032 11/10 A2940 RMK CF1SC8 CF TR SLP957 DENSITY ALT 400FT

CYGK;2015-11-12 19:00;CYGK 121900Z 18016G21KT 12SM -RA FEW010 OVC035 12/09 A2936 RMK SF1SC7 SLP943 DENSITY ALT 600FT

CYGK;2015-11-12 20:00;CYGK 122000Z 18017G24KT 15SM -RA FEW010 OVC035 12/10 A2933 RMK CF1SC7 SLP933 DENSITY ALT 600FT

CYGK;2015-11-12 20:21;CYGK 122021Z 18019G24KT 15SM FEW010 BKN035 OVC060 12/09 A2932 RMK CF1SC7SC1 CF TR SLP928 DENSITY ALT 700FT

CYGK;2015-11-12 20:52;CYGK 122052Z 18022G29KT 12SM -RA BKN035 OVC060 13/09 A2931 RMK SC6SC2 SLP926 DENSITY ALT 700FT

CYGK;2015-11-12 21:00;CYGK 122100Z 22025G36KT 5SM -RA BR FEW015 BKN037 OVC065 11/08 A2936 RMK CU2SC5SC1 PRESRR SLP942 DENSITY ALT 500FT

CYGK;2015-11-12 22:00;CYGK 122200Z 23016KT 15SM -RA BKN018 OVC060 10/08 A2936 RMK SC5SC3 SLP945

CYGK;2015-11-12 22:28;CYGK 122228Z 23022G34KT 15SM SCT018 BKN029 10/06 A2937 RMK SC3SC4 SLP946 DENSITY ALT 400FT

CYGK;2015-11-12 23:00;CYGK 122300Z 24024G35KT 15SM BKN023 OVC090 10/06 A2937 RMK SC7AC1 SLP948 DENSITY ALT 400FT

CYGK;2015-11-13 00:00;CYGK 130000Z CCA 24017G28KT 15SM BKN017 OVC030 10/07 A2937 RMK SC7SC1 SLP948

CYGK;2015-11-13 00:07;CYGK 130007Z 24017G31KT 15SM -RA BKN017 OVC030 10/07 A2937 RMK SC7SC1 SLP948

CYGK;2015-11-13 00:38;CYGK 130038Z 23018G27KT 10SM -RA BKN011 OVC040 09/08 A2937 RMK SC6SC2 SLP948

CYGK;2015-11-13 01:00;CYGK 130100Z 23019G26KT 15SM FEW011 BKN018 OVC040 10/07 A2937 RMK SC2SC4SC2 INTMT -RA SLP946

CYGK;2015-11-13 02:00;CYGK 130200Z 21019G24KT 6SM -RA BR SCT009 OVC017 09/08 A2935 RMK SF3SC5 SLP939

CYGK;2015-11-13 02:19;CYGK 130219Z 21019G30KT 6SM -RA BR BKN008 OVC017 09/08 A2934 RMK SF6SC2 SLP937

CYGK;2015-11-13 03:00;CYGK 130300Z 22019G28KT 6SM -RA BR BKN008 OVC025 09/08 A2933 RMK SF6SC2 SLP934

CYGK;2015-11-13 03:37;CYGK 130337Z 23019G30KT 10SM -RA SCT008 OVC020 10/08 A2932 RMK SF3SC5 SLP931 DENSITY ALT 400FT

CYGK;2015-11-13 04:00;CYGK 130400Z 24024G34KT 12SM -RA FEW008 OVC020 10/07 A2932 RMK SF2SC6 LAST STFD OBS/NEXT 131100UTC SLP928 DENSITY ALT 400FT

CYGK;2015-11-13 11:00;CYGK 131100Z 26020G31KT 15SM SCT012 OVC030 09/04 A2940 RMK SC3SC5 SLP957

CYGK;2015-11-13 11:52;CYGK 131152Z 25017G23KT 15SM -RA OVC031 09/05 A2943 RMK SC8 SLP966

CYGK;2015-11-13 12:00;CYGK 131200Z 25018KT 15SM -RA OVC031 09/04 A2943 RMK SC8 SLP968

CYGK;2015-11-13 12:27;CYGK 131227Z 25016G22KT 15SM OVC029 09/04 A2945 RMK SC8 SLP973

CYGK;2015-11-13 12:47;CYGK 131247Z 25015G20KT 15SM -SHRA FEW022 OVC029 09/05 A2946 RMK CF1SC7 SLP976

CYGK;2015-11-13 13:00;CYGK 131300Z 25016G25KT 15SM -SHRA SCT019 OVC030 09/05 A2946 RMK CU3SC5 SLP978

CYGK;2015-11-13 14:00;CYGK 131400Z 25020G30KT 12SM -SHRA FEW019 OVC032 09/05 A2947 RMK CU2SC6 SLP983

CYGK;2015-11-13 15:00;CYGK 131500Z 25018G29KT 15SM -SHRA BKN025 OVC070 08/04 A2949 RMK CU5AC3 SLP987

CYGK;2015-11-13 16:00;CYGK 131600Z 24024G35KT 15SM -SHRA OVC027 OVC070 08/03 A2951 RMK SC8AC1 AC TR SLP994

CYGK;2015-11-13 17:00;CYGK 131700Z 25023G31KT 15SM -SHRA BKN029 OVC081 08/03 A2951 RMK SC7AC1 SLP994

CYGK;2015-11-13 17:36;CYGK 131736Z 24024G32KT 15SM BKN030 OVC081 08/03 A2951 RMK SC6AC2 SLP995

CYGK;2015-11-13 18:00;CYGK 131800Z 24023G33KT 15SM BKN032 OVC080 08/02 A2951 RMK SC7AC1 SLP996

CYGK;2015-11-13 19:00;CYGK 131900Z 24021G28KT 15SM BKN030 BKN100 08/02 A2952 RMK SC6AC1 SLP997

CYGK;2015-11-13 20:00;CYGK 132000Z 26014G23KT 15SM FEW025 BKN040 BKN100 08/01 A2954 RMK CF1SC6AC1 CF TR SLP004

CYGK;2015-11-13 20:26;CYGK 132026Z 25017G26KT 15SM -RA FEW025 BKN038 BKN100 08/02 A2955 RMK CF1SC6AC1 CF TR SLP007

CYGK;2015-11-13 21:00;CYGK 132100Z 25017G27KT 15SM FEW025 BKN041 BKN100 08/02 A2955 RMK CF1SC6AC1 CF TR INTMT -RA SLP009

CYGK;2015-11-13 22:00;CYGK 132200Z 25020G26KT 15SM FEW020 OVC040 08/01 A2957 WS RWY25 RMK CF1SC8 CF TR SLP016

CYGK;2015-11-13 23:00;CYGK 132300Z 26016G23KT 10SM -RA OVC030 06/01 A2960 WS RWY25 RMK SC8 SLP026

CYGK;2015-11-14 00:00;CYGK 140000Z 26017G24KT 10SM -RA BKN023 OVC053 06/02 A2963 RMK SC5SC3 SLP035

CYGK;2015-11-14 01:00;CYGK 140100Z 26014G22KT 15SM SCT023 OVC130 05/02 A2964 WS RWY25 RMK SC3AC5 INTMT -RA SLP040

CYGK;2015-11-14 02:00;CYGK 140200Z 26013G20KT 15SM SCT017 OVC055 05/02 A2966 RMK SC3SC5 INTMT -RA SLP047

CYGK;2015-11-14 03:00;CYGK 140300Z 27011G16KT 15SM FEW018 OVC055 05/02 A2968 RMK SC2SC6 INTMT -RA SLP053

CYGK;2015-11-14 04:00;CYGK 140400Z 32011G17KT 10SM -RA BKN011 OVC027 03/01 A2971 RMK SC5SC3 LAST STFD OBS/NEXT 141100UTC SLP064

CYGK;2015-11-14 11:00;CYGK 141100Z 31007KT 15SM OVC030 00/M05 A3001 RMK SC8 SLP167

CYGK;2015-11-14 12:00;CYGK 141200Z 28005KT 15SM FEW015 OVC030 M00/M04 A3004 RMK CU1SC8 CU TR SLP177

CYGK;2015-11-14 13:00;CYGK 141300Z 28009KT 15SM BKN033 01/M05 A3008 RMK SC7 SLP188

CYGK;2015-11-14 14:00;CYGK 141400Z 29008KT 15SM BKN031 01/M05 A3010 RMK SC7 SLP195

CYGK;2015-11-14 15:00;CYGK 141500Z 27009G16KT 15SM OVC027 02/M04 A3011 RMK SC8 SLP199

CYGK;2015-11-14 16:00;CYGK 141600Z 28008G16KT 15SM OVC028 02/M05 A3012 RMK SC8 SLP202

CYGK;2015-11-14 17:00;CYGK 141700Z 27011G16KT 240V300 15SM OVC025 02/M04 A3011 RMK SC8 SLP201

CYGK;2015-11-14 18:00;CYGK 141800Z 28009G18KT 15SM OVC027 02/M04 A3012 RMK SC8 SLP203

CYGK;2015-11-14 19:00;CYGK 141900Z 28011G20KT 15SM OVC028 03/M04 A3012 RMK SC8 SLP205

CYGK;2015-11-14 20:00;CYGK 142000Z 29010KT 260V320 15SM FEW033 SCT230 03/M04 A3014 RMK SC2CI2 SLP210

CYGK;2015-11-14 21:00;CYGK 142100Z 27009KT 15SM FEW033 BKN240 03/M04 A3015 RMK SC2CI3 SLP215

CYGK;2015-11-14 22:00;CYGK 142200Z 28009KT 240V300 15SM SCT039 BKN210 03/M04 A3017 RMK SC4CI3 SLP221

CYGK;2015-11-14 23:00;CYGK 142300Z 27008KT 15SM BKN035 03/M03 A3019 RMK SC7 SLP226

CYGK;2015-11-15 00:00;CYGK 150000Z 25007KT 15SM BKN038 03/M03 A3020 RMK SC7 SLP231

CYGK;2015-11-15 01:00;CYGK 150100Z 26005KT 15SM BKN038 03/M03 A3020 RMK SC7 SLP229

CYGK;2015-11-15 02:00;CYGK 150200Z 26009KT 15SM BKN032 04/M02 A3021 RMK SC7 SLP234

CYGK;2015-11-15 03:00;CYGK 150300Z 28006KT 15SM BKN032 03/M02 A3021 RMK SC7 SLP234

CYGK;2015-11-15 04:00;CYGK 150400Z 26005KT 15SM FEW032 BKN210 02/M02 A3020 RMK SC1CI6 LAST STFD OBS/NEXT 151100UTC SLP230

CYGK;2015-11-15 11:00;CYGK 151100Z 22009KT 15SM BKN110 06/03 A3013 RMK AC5 SLP206

CYGK;2015-11-15 12:00;CYGK 151200Z 23010KT 15SM FEW025 SCT110 BKN250 06/04 A3013 RMK CU1AC3CI3 SLP205

CYGK;2015-11-15 13:00;CYGK 151300Z 24012KT 15SM FEW025 SCT110 BKN250 07/05 A3013 RMK CU1AC3CI3 CU TR SLP206

CYGK;2015-11-15 14:00;CYGK 151400Z 25014KT 15SM FEW025 BKN250 09/05 A3012 RMK CF1CI7 CF TR SLP204

CYGK;2015-11-15 15:00;CYGK 151500Z 25010KT 15SM FEW025 BKN250 10/04 A3012 RMK CF1CI7 CF TR SLP204

CYGK;2015-11-15 16:00;CYGK 151600Z 25012KT 15SM FEW025 FEW160 BKN250 11/02 A3012 RMK CF1AC1CI5 CF TR AC TR SLP202

CYGK;2015-11-15 17:00;CYGK 151700Z 23011KT 15SM BKN250 11/03 A3010 RMK CI5 SLP197

CYGK;2015-11-15 18:00;CYGK 151800Z 23011KT 15SM FEW160 OVC220 12/03 A3010 RMK AC1CI8 AC TR SLP195

CYGK;2015-11-15 19:00;CYGK 151900Z 23008KT 15SM FEW180 OVC250 12/04 A3010 RMK AC2CI6 SLP193

CYGK;2015-11-15 20:00;CYGK 152000Z 23008KT 15SM SCT160 BKN240 11/04 A3010 RMK AC4CI3 SLP193

CYGK;2015-11-15 21:00;CYGK 152100Z 23007KT 15SM FEW120 SCT150 OVC220 11/04 A3010 RMK AC1AC3CI4 SLP195

CYGK;2015-11-15 22:00;CYGK 152200Z 25006KT 15SM SCT160 BKN220 10/04 A3011 RMK AC3CI4 SLP199

CYGK;2015-11-15 23:00;CYGK 152300Z 25006KT 15SM FEW130 BKN210 09/04 A3012 RMK AC2CI5 SLP204

CYGK;2015-11-16 00:00;CYGK 160000Z 27004KT 15SM FEW130 BKN220 08/03 A3014 RMK AC2CI5 SLP208

CYGK;2015-11-16 01:00;CYGK 160100Z 24003KT 15SM SCT120 BKN220 08/03 A3014 RMK AC3CI3 SLP210

CYGK;2015-11-16 02:00;CYGK 160200Z 31003KT 15SM OVC130 08/03 A3015 RMK AC8 SLP211

CYGK;2015-11-16 03:00;CYGK 160300Z 23004KT 15SM OVC120 08/03 A3015 RMK AC8 SLP210

CYGK;2015-11-16 04:00;CYGK 160400Z 25004KT 15SM OVC130 08/05 A3015 RMK AC8 LAST STFD OBS/NEXT 161100 UTC SLP211

CYGK;2015-11-16 11:00;CYGK 161100Z 34005KT 15SM OVC120 05/03 A3022 RMK AC8 SLP237

CYGK;2015-11-16 12:00;CYGK 161200Z 35006KT 15SM BKN120 05/04 A3024 RMK AC7 SLP241

CYGK;2015-11-16 13:00;CYGK 161300Z 02005KT 15SM BKN120 06/04 A3026 RMK AC7 SLP249

CYGK;2015-11-16 14:00;CYGK 161400Z 03006KT 15SM BKN120 07/01 A3027 RMK AC6 SLP253

CYGK;2015-11-16 15:00;CYGK 161500Z 01006KT 15SM SCT120 08/00 A3028 RMK AC3 SLP257

CYGK;2015-11-16 16:00;CYGK 161600Z 36008KT 350V050 15SM FEW120 09/M01 A3029 RMK AC2 SLP259

CYGK;2015-11-16 17:00;CYGK 161700Z 02006KT 350V100 15SM FEW120 FEW250 10/M01 A3028 RMK AC1CI1 AC TR CI TR SLP257

CYGK;2015-11-16 18:00;CYGK 161800Z 02005KT 340V050 15SM SKC 10/M02 A3028 RMK SLP256

CYGK;2015-11-16 19:00;CYGK 161900Z 34005KT 320V040 15SM FEW250 11/M02 A3029 RMK CI1 CI TR SLP260

CYGK;2015-11-16 20:00;CYGK 162000Z 35007KT 15SM FEW250 11/M02 A3030 RMK CI1 CI TR SLP262

CYGK;2015-11-16 21:00;CYGK 162100Z 03003KT 15SM SKC 10/M03 A3031 RMK SLP267

CYGK;2015-11-16 22:00;CYGK 162200Z 02006KT 15SM SKC 08/M06 A3033 RMK SLP275

CYGK;2015-11-16 23:00;CYGK 162300Z 04008KT 15SM SKC 06/M05 A3035 RMK SLP281

CYGK;2015-11-17 00:00;CYGK 170000Z 03009KT 15SM SKC 05/M04 A3038 RMK SLP289

CYGK;2015-11-17 01:00;CYGK 170100Z 03006KT 15SM SKC 04/M04 A3040 RMK SLP298

CYGK;2015-11-17 02:00;CYGK 170200Z 05009KT 15SM SKC 03/M03 A3041 RMK SLP302

CYGK;2015-11-17 03:00;CYGK 170300Z 05008KT 15SM SKC 02/M04 A3044 RMK SLP309

CYGK;2015-11-17 04:00;CYGK 170400Z 05007KT 15SM SKC 01/M04 A3045 RMK LAST STFD OBS/NEXT 171100 UTC SLP313

CYGK;2015-11-17 11:00;CYGK 171100Z 02005KT 15SM SKC M02/M05 A3050 RMK SLP331

CYGK;2015-11-17 12:00;CYGK 171200Z 03007KT 15SM FEW025 M02/M05 A3050 RMK CF1 CF TR SLP334

CYGK;2015-11-17 13:00;CYGK 171300Z 05008KT 15SM FEW025 M01/M05 A3052 RMK SC1 SC TR SLP339

CYGK;2015-11-17 14:00;CYGK 171400Z 06009KT 15SM FEW025 FEW250 01/M04 A3053 RMK CF1CI1 CF TR CI TR SLP342

CYGK;2015-11-17 15:00;CYGK 171500Z 07006KT 15SM FEW250 03/M03 A3051 RMK CI1 CI TR SLP336

CYGK;2015-11-17 16:00;CYGK 171600Z VRB02KT 15SM FEW250 04/M02 A3052 RMK CI1 SLP339

CYGK;2015-11-17 17:00;CYGK 171700Z 07009KT 030V090 15SM FEW250 06/M03 A3048 RMK CI1 SLP325

CYGK;2015-11-17 18:00;CYGK 171800Z 07007KT 15SM FEW250 07/M03 A3046 RMK CI2 SLP318

CYGK;2015-11-17 19:00;CYGK 171900Z 00000KT 15SM SCT250 08/M05 A3046 RMK CI4 SLP319

CYGK;2015-11-17 20:00;CYGK 172000Z 05010KT 15SM BKN250 08/M03 A3044 RMK CI5 SLP313

CYGK;2015-11-17 21:00;CYGK 172100Z 07009KT 15SM SCT250 06/M03 A3043 RMK CI3 SLP308

CYGK;2015-11-17 22:00;CYGK 172200Z 06008KT 15SM SCT250 04/M04 A3042 RMK CI4 SLP304

CYGK;2015-11-17 23:00;CYGK 172300Z 06011KT 15SM SCT250 04/M04 A3042 RMK CI4 SLP305

CYGK;2015-11-18 00:00;CYGK 180000Z 06011KT 15SM SKC 03/M04 A3043 RMK SLP309

CYGK;2015-11-18 01:00;CYGK 180100Z 06009KT 15SM SKC 02/M04 A3043 RMK SLP307

CYGK;2015-11-18 02:00;CYGK 180200Z 06008KT 15SM SKC 02/M03 A3042 RMK SLP305

CYGK;2015-11-18 03:00;CYGK 180300Z 06009KT 15SM SKC 01/M03 A3041 RMK SLP300

CYGK;2015-11-18 04:00;CYGK 180400Z 06004KT 15SM SKC 01/M03 A3040 RMK LAST STFD OBS/NEXT 181100 UTC SLP299

CYGK;2015-11-18 11:00;CYGK 181100Z 15020G26KT 15SM SCT170 07/03 A3031 RMK AC3 SLP267

CYGK;2015-11-18 12:00;CYGK 181200Z 16018G27KT 15SM FEW170 BKN270 07/03 A3032 RMK AC2CI5 SLP270

CYGK;2015-11-18 13:00;CYGK 181300Z 16021G28KT 15SM FEW015 SCT100 BKN170 BKN270 07/03 A3032 RMK CF1AC3AC2CI2 CF TR SLP271

CYGK;2015-11-18 14:00;CYGK 181400Z 16020G26KT 15SM FEW015 BKN100 BKN200 08/04 A3031 RMK CF1AC6CI1 CF TR SLP266

CYGK;2015-11-18 15:00;CYGK 181500Z 16021KT 15SM FEW015 BKN130 BKN200 08/04 A3031 RMK CF1AC5CI2 CF TR SLP266

CYGK;2015-11-18 16:00;CYGK 181600Z 16019G24KT 15SM FEW015 SCT100 BKN190 09/04 A3030 RMK CU1AC3CI2 SLP262

CYGK;2015-11-18 17:00;CYGK 181700Z 15018G23KT 15SM SCT100 BKN160 09/04 A3026 RMK AC4AC3 SLP249

CYGK;2015-11-18 18:00;CYGK 181800Z 14016KT 15SM BKN100 BKN210 10/05 A3024 RMK AC5CI2 SLP241

CYGK;2015-11-18 19:00;CYGK 181900Z 14012G18KT 15SM FEW100 BKN160 OVC200 11/05 A3020 RMK AC2AC4CI2 SLP230

CYGK;2015-11-18 20:00;CYGK 182000Z 14013KT 15SM BKN110 OVC220 12/07 A3018 RMK AC5CI3 SLP223

CYGK;2015-11-18 21:00;CYGK 182100Z 15013KT 15SM FEW030 BKN100 OVC220 11/08 A3016 RMK SC2AC3CI3 SLP214

CYGK;2015-11-18 22:00;CYGK 182200Z 14013KT 15SM BKN031 OVC220 12/08 A3015 RMK SC6CI2 SLP213

CYGK;2015-11-18 23:00;CYGK 182300Z 15013KT 15SM OVC030 12/08 A3015 RMK SC8 SLP211

CYGK;2015-11-19 00:00;CYGK 190000Z 14011G16KT 15SM OVC029 12/08 A3012 RMK SC8 SLP203

CYGK;2015-11-19 01:00;CYGK 190100Z 15012KT 15SM OVC029 12/08 A3010 WS RWY19 RMK SC8 SLP194

CYGK;2015-11-19 02:00;CYGK 190200Z 15016KT 15SM OVC029 12/08 A3008 RMK SC8 SLP189

CYGK;2015-11-19 03:00;CYGK 190300Z 15012KT 15SM OVC028 12/08 A3007 RMK SC8 SLP186

CYGK;2015-11-19 04:00;CYGK 190400Z 16011G16KT 15SM OVC028 12/09 A3007 RMK SC8 LAST STFD OBS/NEXT 191100 UTC SLP185

CYGK;2015-11-19 11:00;CYGK 191100Z 16014G21KT 12SM -RA SCT035 OVC090 12/10 A2995 RMK CU4AC4 SLP143

CYGK;2015-11-19 12:00;CYGK 191200Z 16016G22KT 12SM -RA SCT035 OVC075 12/10 A2993 RMK CU3AC5 SLP138

CYGK;2015-11-19 13:00;CYGK 191300Z 15014G21KT 15SM -RA FEW035 OVC090 12/10 A2992 RMK CU2AC6 SLP134

CYGK;2015-11-19 14:00;CYGK 191400Z 16017G24KT 15SM -RA FEW035 BKN065 OVC090 12/10 A2991 RMK CF1SC5AC3 CF TR SLP131

CYGK;2015-11-19 15:00;CYGK 191500Z 16021G29KT 5SM -RA BR BKN038 OVC090 12/11 A2990 RMK CU5AC3 SLP126

CYGK;2015-11-19 16:00;CYGK 191600Z 15020G28KT 5SM -RA BR FEW010 OVC040 12/11 A2987 RMK SF1SC7 PRESFR SLP115

CYGK;2015-11-19 17:00;CYGK 191700Z 16019KT 10SM -RA OVC038 13/11 A2983 RMK SC8 SLP103

CYGK;2015-11-19 17:35;CYGK 191735Z 16018G24KT 15SM VCSH FEW010 BKN040 BKN070 13/11 A2982 RMK SF1SC6AC1 SF TR SLP099

CYGK;2015-11-19 18:00;CYGK 191800Z 16017KT 15SM FEW006 SCT040 BKN070 13/12 A2981 RMK SF1SC4AC1 SF TR SLP095

CYGK;2015-11-19 19:00;CYGK 191900Z 17013G19KT 15SM VCSH FEW015 BKN040 BKN100 13/11 A2979 RMK CU2SC3AC2 SLP089

CYGK;2015-11-19 19:38;CYGK 191938Z 21016G26KT 180V250 5SM -SHRA FEW015 BKN025TCU OVC100 14/12 A2981 RMK CF2TCU4AC2 VIS SE 15 PRESRR SLP094 DENSITY ALT 400FT

CYGK;2015-11-19 20:00;CYGK 192000Z 24008G15KT 3SM -SHRA FEW015 BKN025TCU OVC100 13/11 A2982 RMK CU2TCU5AC1 SLP098

CYGK;2015-11-19 20:47;CYGK 192047Z 24009G17KT 15SM VCSH FEW015 SCT030 BKN085 12/10 A2982 RMK CF1SC4AC3 CF TR SLP099

CYGK;2015-11-19 21:00;CYGK 192100Z 27010KT 15SM -RA FEW015 BKN033 BKN085 12/10 A2982 RMK CF1SC6AC1 CF TR WND ESTD SLP100

CYGK;2015-11-19 22:00;CYGK 192200Z 21006KT 15SM FEW036 BKN045 12/09 A2983 RMK CU2SC4 SLP103

CYGK;2015-11-19 23:00;CYGK 192300Z 19006KT 15SM BKN062 11/09 A2985 RMK SC6 SLP110

CYGK;2015-11-20 00:00;CYGK 200000Z 23008KT 15SM BKN082 11/08 A2986 RMK AC6 SLP113

CYGK;2015-11-20 01:00;CYGK 200100Z 26013KT 15SM BKN091 12/06 A2987 RMK AC5 SLP116

CYGK;2015-11-20 02:00;CYGK 200200Z 27010KT 15SM BKN093 12/06 A2988 RMK AC5 WND ESTD SLP120

CYGK;2015-11-20 03:00;CYGK 200300Z 25015G24KT 15SM BKN055 OVC090 11/04 A2990 RMK SC6AC2 SLP127

CYGK;2015-11-20 04:00;CYGK 200400Z 25017G29KT 15SM SCT090 10/03 A2992 RMK AC3 SLP133

CYGK;2015-11-20 11:00;CYGK 201100Z 24008KT 15SM FEW030 04/M03 A3007 RMK SC1 SLP186

CYGK;2015-11-20 12:00;CYGK 201200Z 22009KT 15SM FEW030 FEW250 04/M03 A3008 RMK SC1CI1 SC TR CI TR SLP188

CYGK;2015-11-20 13:00;CYGK 201300Z 22008KT 15SM FEW030 05/M02 A3009 RMK SC1 SLP190

CYGK;2015-11-20 14:00;CYGK 201400Z 22013G22KT 15SM FEW030 FEW120 06/M02 A3009 RMK SC1AC1 AC TR SLP192

CYGK;2015-11-20 15:00;CYGK 201500Z 24013G24KT 15SM SCT040 07/M03 A3010 RMK CU3 SLP195

CYGK;2015-11-20 16:00;CYGK 201600Z 24014G21KT 15SM SCT050 07/M05 A3011 RMK CU3 SLP197

CYGK;2015-11-20 17:00;CYGK 201700Z 24021G31KT 15SM BKN050 06/M04 A3010 RMK CU6 SLP195

CYGK;2015-11-20 19:00;CYGK 201900Z 24019G29KT 15SM VCSH SCT050 06/M06 A3011 RMK CU4 SLP200

CYGK;2015-11-20 20:00;CYGK 202000Z 26012G23KT 15SM FEW050 06/M05 A3013 RMK CU2 SLP207

CYGK;2015-11-20 21:00;CYGK 202100Z 24015G21KT 220V290 15SM FEW050 06/M04 A3015 RMK CU1 SLP213

CYGK;2015-11-20 22:00;CYGK 202200Z 24018KT 15SM FEW050 FEW250 05/M05 A3018 RMK CU1CI1 CI TR SLP222

CYGK;2015-11-20 23:00;CYGK 202300Z 24015G22KT 15SM FEW050 FEW250 05/M04 A3020 RMK SC1CI2 SC TR SLP231

CYGK;2015-11-21 00:00;CYGK 210000Z 26010G15KT 15SM FEW050 FEW250 04/M05 A3022 RMK SC1CI1 SC TR SLP238

CYGK;2015-11-21 01:00;CYGK 210100Z 27005KT 15SM SKC 03/M06 A3023 RMK SLP241

CYGK;2015-11-21 02:00;CYGK 210200Z 28005KT 15SM SKC 02/M06 A3024 RMK SLP242

CYGK;2015-11-21 03:00;CYGK 210300Z 26004KT 15SM FEW250 02/M06 A3024 RMK CI1 SLP244

CYGK;2015-11-21 04:00;CYGK 210400Z 26005KT 15SM FEW250 02/M05 A3025 RMK CI1 LAST STFD OBS/NEXT 211100UTC SLP247

CYGK;2015-11-21 11:00;CYGK 211100Z 04003KT 15SM SCT110 BKN230 M01/M05 A3026 RMK AC3CI4 SLP251

CYGK;2015-11-21 12:00;CYGK 211200Z 04003KT 15SM FEW025 BKN090 00/M04 A3026 RMK CU1AC6 SLP251

CYGK;2015-11-21 13:00;CYGK 211300Z 11007KT 15SM FEW025 BKN110 OVC110 01/M02 A3027 RMK CU1AC5AC3 CU TR SLP254

CYGK;2015-11-21 14:00;CYGK 211400Z 12008KT 15SM FEW025 BKN093 OVC120 04/M03 A3026 RMK CU1AC5AC3 CU TR SLP251

CYGK;2015-11-21 15:00;CYGK 211500Z 10009KT 15SM FEW025 BKN090 OVC250 05/M01 A3024 RMK CU1AC4CI3 SLP245

CYGK;2015-11-21 16:00;CYGK 211600Z 11006KT 15SM FEW025 FEW054 BKN076 OVC140 06/00 A3023 RMK CU1SC1AC4AC2 SLP239

CYGK;2015-11-21 17:00;CYGK 211700Z 15011KT 15SM FEW025 BKN050 OVC070 06/M02 A3017 RMK CU2SC3AC3 PRESFR SLP220

CYGK;2015-11-21 18:00;CYGK 211800Z 15009KT 15SM FEW030 SCT069 OVC120 06/M02 A3013 RMK CU1AC3AC4 SLP208

CYGK;2015-11-21 19:00;CYGK 211900Z 09008KT 15SM FEW030 BKN065 OVC120 06/M03 A3009 RMK CU1SC5AC2 SLP193

CYGK;2015-11-21 20:00;CYGK 212000Z 08009KT 15SM FEW030 BKN070 OVC120 06/M03 A3005 RMK CU1AC6AC2 CU TR PRESFR SLP179

CYGK;2015-11-21 21:00;CYGK 212100Z 08010G17KT 15SM FEW078 OVC120 05/M05 A2999 RMK AC2AC6 SLP160

CYGK;2015-11-21 22:00;CYGK 212200Z 09012KT 15SM BKN130 05/M03 A2995 RMK AS7 SLP147

CYGK;2015-11-21 23:00;CYGK 212300Z 08010KT 15SM OVC130 05/M03 A2992 RMK AS8 PRESFR SLP135

CYGK;2015-11-22 00:00;CYGK 220000Z 09011KT 15SM BKN180 05/M03 A2988 RMK AS7 SLP123

CYGK;2015-11-22 01:00;CYGK 220100Z 10011G16KT 15SM BKN140 05/M03 A2984 RMK AS7 SLP108

CYGK;2015-11-22 02:00;CYGK 220200Z 14020KT 15SM OVC090 07/M01 A2978 RMK AS8 PRESFR SLP088

CYGK;2015-11-22 03:00;CYGK 220300Z 15021G32KT 15SM OVC075 08/M01 A2972 RMK AS8 PRESFR SLP066

CYGK;2015-11-22 04:00;CYGK 220400Z 17025G34KT 15SM OVC090 08/M01 A2973 RMK AS8 LAST STFD OBS/NEXT 221100UTC SLP068

CYGK;2015-11-22 11:00;CYGK 221100Z 23024G35KT 15SM 05/M00 A2976 RMK SLP081

CYGK;2015-11-22 12:00;CYGK 221200Z 25020G26KT 15SM BKN029 04/M01 A2981 RMK SC5 SLP096

CYGK;2015-11-22 13:00;CYGK 221300Z 26015G22KT 15SM BKN030 03/M02 A2984 RMK SC5 SLP106

CYGK;2015-11-22 14:00;CYGK 221400Z 26016G27KT 15SM BKN028 04/M03 A2988 RMK SC5 SLP121

CYGK;2015-11-22 15:00;CYGK 221500Z 25015KT 15SM BKN035 04/M03 A2992 RMK SC6 SLP134

CYGK;2015-11-22 16:00;CYGK 221600Z 24017KT 15SM SCT028 05/M02 A2994 RMK SC4 SLP142

CYGK;2015-11-22 17:00;CYGK 221700Z 24013G18KT 15SM BKN036 05/M03 A2995 RMK SC6 SLP145

CYGK;2015-11-22 18:00;CYGK 221800Z 25014KT 15SM BKN036 05/M04 A2996 RMK CU5 SH ALQDS SLP147

CYGK;2015-11-22 19:00;CYGK 221900Z 25015G21KT 15SM VCSH BKN040 BKN090 04/M05 A2997 RMK CU6AC1 AC TR SLP151

CYGK;2015-11-22 19:06;CYGK 221906Z 26017G24KT 10SM -SHSN BKN040 04/M04 A2997 RMK CU7 SLP151

CYGK;2015-11-22 20:00;CYGK 222000Z 25009KT 15SM -SHSN BKN038 BKN075 02/M02 A2998 RMK CU6AC1 VIS W 5 SLP156

CYGK;2015-11-22 20:14;CYGK 222014Z 27008G16KT 15SM FEW025 BKN075 03/M04 A2998 RMK CU2AC3 SH DIST ALQDS SLP155

CYGK;2015-11-22 21:00;CYGK 222100Z 27010KT 15SM FEW025 SCT075 02/M04 A3000 RMK CU1AC2 SH DIST ALQDS SLP161

CYGK;2015-11-22 22:00;CYGK 222200Z 26008KT 15SM FEW025 FEW080 02/M05 A3001 RMK CU1AC1 SH DIST ALQDS SLP166

CYGK;2015-11-22 23:00;CYGK 222300Z 27006KT 15SM FEW020 00/M05 A3002 RMK CU1 CU TR SLP169

CYGK;2015-11-23 00:00;CYGK 230000Z 28012KT 15SM FEW020 M00/M05 A3003 RMK CU1 CU TR SLP172

CYGK;2015-11-23 01:00;CYGK 230100Z 31005KT 15SM FEW020 M01/M05 A3004 RMK SC1 SC TR SLP178

CYGK;2015-11-23 02:00;CYGK 230200Z 31004KT 15SM FEW020 M02/M05 A3005 RMK SC1 SLP181

CYGK;2015-11-23 03:00;CYGK 230300Z 33006KT 15SM SCT027 M02/M04 A3005 RMK SC4 SLP180

CYGK;2015-11-23 04:00;CYGK 230400Z 01004KT 15SM SCT030 BKN050 M02/M04 A3006 RMK SC4SC3 LAST STFD OBS/NEXT 231100UTC SLP184

CYGK;2015-11-23 11:00;CYGK 231100Z 34005KT 15SM SKC M06/M08 A3012 RMK SLP204

CYGK;2015-11-23 12:00;CYGK 231200Z 35005KT 15SM FEW030 M06/M08 A3014 RMK CU1 SLP210

CYGK;2015-11-23 13:00;CYGK 231300Z 34005KT 15SM FEW030 SCT070 M06/M08 A3015 RMK CU1AC2 SLP214

CYGK;2015-11-23 14:00;CYGK 231400Z 35003KT 15SM FEW030 SCT075 BKN220 M03/M06 A3015 RMK CU1AC3CI1 SLP215

CYGK;2015-11-23 15:00;CYGK 231500Z 05004KT 300V070 15SM FEW030 BKN075 M02/M07 A3016 RMK CF1AC6 CF TR TR AC SLP216

CYGK;2015-11-23 16:00;CYGK 231600Z 00000KT 15SM FEW030 BKN075 M01/M09 A3015 RMK CU1AC7 TR CU SLP213

CYGK;2015-11-23 17:00;CYGK 231700Z 21005KT 160V280 15SM FEW030 FEW070 SCT220 00/M09 A3013 RMK CU1AC1CI2 SLP207

CYGK;2015-11-23 18:00;CYGK 231800Z 24007KT 210V280 15SM FEW030 FEW075 SCT250 01/M11 A3012 RMK CU1AC1CI2 SLP204

CYGK;2015-11-23 19:00;CYGK 231900Z 23009KT 14SM SCT045 BKN250 02/M10 A3012 RMK CU3CI2 SLP204

CYGK;2015-11-23 20:00;CYGK 232000Z 25009KT 15SM SCT042 SCT080 BKN240 01/M09 A3011 RMK CU3AC1CI1 SLP202

CYGK;2015-11-23 21:00;CYGK 232100Z 30006KT 15SM FEW042 SCT240 00/M08 A3012 RMK CU2CI2 SLP203

CYGK;2015-11-23 22:00;CYGK 232200Z 28003KT 15SM FEW040 FEW100 SCT240 M01/M08 A3012 RMK CU1AC1CI2 AC TR SLP204

CYGK;2015-11-23 23:00;CYGK 232300Z 27002KT 15SM FEW040 SCT240 M02/M08 A3013 RMK CU1CI2 SLP208

CYGK;2015-11-24 00:00;CYGK 240000Z 28003KT 260V320 15SM SCT100 M01/M07 A3015 RMK AC4 SLP213

CYGK;2015-11-24 01:00;CYGK 240100Z 26005KT 15SM BKN100 M00/M07 A3015 RMK AC7 SLP214

CYGK;2015-11-24 02:00;CYGK 240200Z 26004KT 15SM SCT073 OVC100 00/M07 A3015 RMK AC3AC5 SLP214

CYGK;2015-11-24 03:00;CYGK 240300Z 27005KT 15SM SCT070 OVC100 01/M07 A3015 RMK AC4AC4 SLP214

CYGK;2015-11-24 04:00;CYGK 240400Z 23005KT 15SM BKN057 OVC100 01/M06 A3015 RMK SC5AC3 LAST STFD OBS/NEXT 241100 UTC SLP213

CYGK;2015-11-24 11:00;CYGK 241100Z 29005KT 10SM -SHSN BKN012 OVC032 01/M01 A3018 RMK CU6SC2 SLP224

CYGK;2015-11-24 11:37;CYGK 241137Z 29004KT 15SM -SHSN BKN008 OVC029 01/M01 A3020 RMK SF6CU2 SLP230

CYGK;2015-11-24 12:00;CYGK 241200Z 29004KT 8SM -SHSN SCT007 OVC025 01/M01 A3021 RMK SF4CU4 VIS LWR W SLP233

CYGK;2015-11-24 13:00;CYGK 241300Z 34004KT 8SM -SHSN FEW010 OVC027 00/M02 A3023 RMK SF2CU6 VIS S-SW 2 SLP240

CYGK;2015-11-24 14:00;CYGK 241400Z 35005KT 10SM -SHSN FEW012 BKN023 M01/M02 A3024 RMK SF2CU4 SLP246

CYGK;2015-11-24 14:17;CYGK 241417Z 36005KT 12SM FEW012 FEW023 M00/M02 A3025 RMK SF1CU2 SF TR SLP247

CYGK;2015-11-24 15:00;CYGK 241500Z VRB03KT 15SM FEW018 FEW045 02/M01 A3027 RMK CF1SC1 SLP254

CYGK;2015-11-24 17:00;CYGK 241700Z VRB03KT 15SM FEW015 BKN027 BKN080 03/M02 A3028 RMK CU2SC4AC1 SLP257

CYGK;2015-11-24 18:00;CYGK 241800Z 22007KT 15SM SCT029 SCT080 04/M01 A3029 RMK CU3AC1 SLP259

CYGK;2015-11-24 19:00;CYGK 241900Z 21007KT 15SM SCT023 BKN110 03/M02 A3029 RMK CU3AC2 SLP261

CYGK;2015-11-24 20:00;CYGK 242000Z 22007KT 15SM SCT030 BKN110 04/M02 A3031 RMK CU3AC2 SLP267

CYGK;2015-11-24 21:00;CYGK 242100Z 23004KT 220V290 15SM FEW030 SCT100 SCT240 04/M02 A3033 RMK SC2AC1CI1 CI TR SLP275

CYGK;2015-11-24 22:00;CYGK 242200Z VRB02KT 15SM FEW030 SCT070 SCT100 03/M03 A3035 RMK SC2AC1AC1 AC TR SLP280

CYGK;2015-11-24 23:00;CYGK 242300Z 28004KT 15SM BKN065 BKN100 03/M02 A3038 RMK SC5AC1 SLP292

CYGK;2015-11-25 00:00;CYGK 250000Z 34003KT 15SM BKN062 02/M02 A3040 RMK SC7 SLP298

CYGK;2015-11-25 01:00;CYGK 250100Z 35004KT 15SM OVC053 02/M02 A3042 RMK SC8 SLP305

CYGK;2015-11-25 02:00;CYGK 250200Z 05006KT 15SM FEW030 OVC061 01/M01 A3044 RMK SC1SC7 SLP311

CYGK;2015-11-25 03:00;CYGK 250300Z 04007KT 15SM BKN060 01/M01 A3045 RMK SC7 SLP315

CYGK;2015-11-25 04:00;CYGK 250400Z 04008KT 15SM FEW032 OVC062 00/M02 A3047 RMK SC2SC6 LAST STFD OBS/NEXT 251100 UTC SLP321

CYGK;2015-11-25 11:00;CYGK 251100Z 03005KT 10SM OVC011 00/M03 A3061 RMK ST8 SLP368

CYGK;2015-11-25 11:27;CYGK 251127Z 04006KT 8SM BKN009 M00/M03 A3061 RMK ST7 SLP370

CYGK;2015-11-25 12:00;CYGK 251200Z 05006KT 8SM BKN008 00/M02 A3062 RMK ST7 SLP373

CYGK;2015-11-25 13:00;CYGK 251300Z 04004KT 8SM OVC006 01/M02 A3065 RMK ST8 SLP382

CYGK;2015-11-25 14:00;CYGK 251400Z 04005KT 6SM BR OVC006 01/M01 A3065 RMK ST8 SLP384

CYGK;2015-11-25 15:00;CYGK 251500Z 05005KT 6SM BR SCT006 BKN023 02/M00 A3067 RMK ST3CU4 SLP389

CYGK;2015-11-25 16:00;CYGK 251600Z 08006KT 6SM BR SCT008 BKN015 05/01 A3066 RMK SF3CU3 SLP388

CYGK;2015-11-25 17:00;CYGK 251700Z 16012KT 10SM FEW010 SCT017 BKN220 07/02 A3065 RMK CF1CU3CI1 SLP383

CYGK;2015-11-25 18:00;CYGK 251800Z 15012KT 15SM FEW017 SCT250 07/02 A3063 RMK CU1CI2 SLP375

CYGK;2015-11-25 19:00;CYGK 251900Z 17010G16KT 15SM FEW017 FEW250 07/01 A3061 RMK CU1CI1 SLP370

CYGK;2015-11-25 20:00;CYGK 252000Z 16012KT 15SM FEW018 FEW250 07/M01 A3061 RMK CU1CI1 SLP367

CYGK;2015-11-25 21:00;CYGK 252100Z 16015KT 15SM FEW250 07/M01 A3060 RMK CI1 SLP365

CYGK;2015-11-25 22:00;CYGK 252200Z 16019KT 15SM FEW250 08/M01 A3059 RMK CI1 SLP362

CYGK;2015-11-25 23:00;CYGK 252300Z 15019KT 15SM FEW250 08/00 A3057 RMK CI1 SLP356

CYGK;2015-11-26 00:00;CYGK 260000Z 15015G20KT 15SM FEW250 08/01 A3058 RMK CI1 SLP358

CYGK;2015-11-26 01:00;CYGK 260100Z 16020G26KT 15SM FEW250 08/00 A3057 RMK CI2 SLP355

CYGK;2015-11-26 02:00;CYGK 260200Z 16019G27KT 15SM FEW250 08/01 A3056 RMK CI2 SLP351

CYGK;2015-11-26 03:00;CYGK 260300Z 17022G32KT 15SM SCT250 07/00 A3056 RMK CI3 SLP351

CYGK;2015-11-26 04:00;CYGK 260400Z 18021G29KT 15SM SCT250 07/01 A3055 RMK CI3 LAST STFD OBS/NEXT 261100 UTC SLP349

CYGK;2015-11-26 11:00;CYGK 261100Z 18019G28KT 15SM BKN070 07/02 A3056 RMK AC6 SLP352

CYGK;2015-11-26 12:00;CYGK 261200Z 18017G24KT 15SM FEW120 BKN160 BKN250 07/03 A3058 RMK AC1AC5CI1 SLP356

CYGK;2015-11-26 13:00;CYGK 261300Z 18020G25KT 15SM FEW130 BKN160 BKN250 08/03 A3058 RMK AC2AC3CI2 SLP356

CYGK;2015-11-26 14:00;CYGK 261400Z 17017G25KT 15SM FEW130 SCT160 BKN250 08/04 A3057 RMK AC2AC2CI3 SLP355

CYGK;2015-11-26 15:00;CYGK 261500Z 18019G26KT 15SM FEW090 FEW140 BKN250 09/04 A3057 RMK AC1AC1CI4 SLP354

CYGK;2015-11-26 16:00;CYGK 261600Z 19019G26KT 15SM FEW075 SCT140 BKN240 10/04 A3055 RMK AC1AC3CI3 SLP349

CYGK;2015-11-26 17:00;CYGK 261700Z 19016G22KT 15SM SCT080 BKN140 OVC230 10/05 A3054 RMK AC3AC3CI2 SLP344

CYGK;2015-11-26 18:00;CYGK 261800Z 18014KT 15SM FEW080 BKN100 OVC230 10/05 A3050 RMK AC2AC5CI1 SLP331

CYGK;2015-11-26 19:00;CYGK 261900Z 18015G20KT 15SM -RA BKN075 OVC140 10/05 A3047 RMK AC6AC2 SLP322

CYGK;2015-11-26 20:00;CYGK 262000Z 18013G19KT 15SM -RA FEW052 BKN080 OVC100 10/06 A3046 RMK CU2AC3AS3 SLP317

CYGK;2015-11-26 21:00;CYGK 262100Z 17013G20KT 15SM -RA FEW061 BKN095 BKN250 11/06 A3044 RMK SC2AC4CI1 SLP312

CYGK;2015-11-26 21:14;CYGK 262114Z 17013G19KT 15SM FEW060 BKN095 BKN150 BKN250 11/06 A3044 RMK SC1AC4AC1CI1 SLP310

CYGK;2015-11-26 22:00;CYGK 262200Z 18014G19KT 15SM FEW090 BKN150 BKN250 11/06 A3044 RMK AC2AC3CI2 SLP310

CYGK;2015-11-26 23:00;CYGK 262300Z 18019KT 15SM SCT085 SCT150 BKN250 11/06 A3042 RMK AC3AC1CI2 SLP304

CYGK;2015-11-27 00:00;CYGK 270000Z 18017G23KT 15SM BKN150 BKN250 11/06 A3042 RMK AC5CI2 SLP302

CYGK;2015-11-27 01:00;CYGK 270100Z 18020KT 15SM BKN045 BKN150 11/06 A3041 RMK SC5AC2 SLP300

CYGK;2015-11-27 02:00;CYGK 270200Z 18021G28KT 15SM SCT045 11/06 A3039 RMK SC4 SLP293

CYGK;2015-11-27 03:00;CYGK 270300Z 18017G25KT 15SM BKN045 11/06 A3038 RMK SC6 SLP290

CYGK;2015-11-27 04:00;CYGK 270400Z 18020G26KT 15SM BKN045 11/06 A3037 RMK SC6 LAST STFD OBS / NEXT 271100 UTC SLP286

CYGK;2015-11-27 11:00;CYGK 271100Z 19016G21KT 15SM BKN053 OVC080 10/07 A3026 RMK SC6AC2 SLP247

CYGK;2015-11-27 12:00;CYGK 271200Z 19018G23KT 15SM BKN053 10/07 A3025 RMK SC7 SLP244

CYGK;2015-11-27 13:00;CYGK 271300Z 19013G19KT 15SM BKN054 BKN110 10/07 A3023 RMK SC5AC2 SLP239

CYGK;2015-11-27 14:00;CYGK 271400Z 19014KT 15SM BKN050 OVC080 10/07 A3023 RMK SC5AC3 SLP238

CYGK;2015-11-27 15:00;CYGK 271500Z 19016KT 15SM FEW050 BKN085 OVC120 11/07 A3021 RMK SC1AC6AC1 SLP233

CYGK;2015-11-27 16:00;CYGK 271600Z 19014G19KT 15SM SCT040 BKN060 OVC090 11/07 A3020 RMK SC3SC2AC3 SLP228

CYGK;2015-11-27 17:00;CYGK 271700Z 20016KT 15SM OVC040 12/07 A3017 RMK SC8 SLP219

CYGK;2015-11-27 18:00;CYGK 271800Z 21016G22KT 15SM -RA OVC038 12/07 A3016 RMK SC8 SLP214

CYGK;2015-11-27 19:00;CYGK 271900Z 23014G21KT 6SM -RA BR OVC027 11/09 A3015 RMK SC8 SLP213

CYGK;2015-11-27 20:00;CYGK 272000Z 23012G19KT 6SM -RA BR FEW009 OVC015 11/10 A3014 RMK SF2SC6 SLP208

CYGK;2015-11-27 20:44;CYGK 272044Z 24012G20KT 2 1/2SM -RA BR OVC012 11/10 A3014 RMK FG2SC6 SLP208

CYGK;2015-11-27 21:00;CYGK 272100Z 24015KT 2 1/2SM -RA BR OVC010 11/10 A3013 RMK FG2SC6 CIG RAG SLP206

CYGK;2015-11-27 21:23;CYGK 272123Z 24013KT 3SM -RA BR SCT010 OVC016 11/10 A3013 RMK SF4SC4 SLP205

CYGK;2015-11-27 22:00;CYGK 272200Z 24014G20KT 5SM -RA BR SCT010 OVC014 11/10 A3014 RMK SF4SC4 SLP207

CYGK;2015-11-27 22:33;CYGK 272233Z 25013G18KT 8SM -RA SCT005 OVC012 11/10 A3014 RMK ST4SC4 SLP208

CYGK;2015-11-27 23:00;CYGK 272300Z 27010G16KT 4SM -RA BR SCT005 OVC028 11/10 A3015 RMK SF4SC4 SLP213

CYGK;2015-11-28 00:00;CYGK 280000Z 36013G20KT 10SM -RA SCT009 OVC035 04/03 A3020 RMK SF3SC5 SLP230

CYGK;2015-11-28 00:09;CYGK 280009Z 36012G19KT 10SM -RA BKN009 OVC018 04/03 A3021 RMK SF5SC3 SLP232

CYGK;2015-11-28 01:00;CYGK 280100Z 36014G20KT 10SM -RA SCT010 OVC022 03/01 A3023 RMK SF4SC4 PRESRR SLP238

CYGK;2015-11-28 02:00;CYGK 280200Z 36011KT 8SM -RA SCT010 OVC024 02/00 A3026 RMK SF3NS5 SLP250

CYGK;2015-11-28 03:00;CYGK 280300Z 01011KT 8SM BKN012 OVC031 01/M00 A3029 RMK SF6NS2 SLP259

CYGK;2015-11-28 04:00;CYGK 280400Z 01011KT 12SM -RA BKN012 BKN038 OVC070 01/M01 A3029 RMK SF6NS1AC1 LAST STFD OBS/NEXT 281100 UTC SLP261

CYGK;2015-11-28 11:00;CYGK 281100Z 01010KT 15SM OVC015 M00/M03 A3033 RMK SC8 PRESRR SLP275

CYGK;2015-11-28 12:00;CYGK 281200Z 02012KT 15SM BKN014 M01/M04 A3033 RMK SC7 SLP274

CYGK;2015-11-28 13:00;CYGK 281300Z 01009KT 15SM BKN014 BKN170 M01/M04 A3034 RMK SC7AC1 AC TR SLP277

CYGK;2015-11-28 13:26;CYGK 281326Z 03006KT 15SM BKN017 BKN180 M01/M04 A3035 RMK SC7AC1 AC TR SLP281

CYGK;2015-11-28 14:00;CYGK 281400Z 02008KT 15SM OVC014 M01/M04 A3034 RMK SC8 SLP279

CYGK;2015-11-28 15:00;CYGK 281500Z 03006KT 15SM OVC013 M01/M04 A3036 RMK SC8 SLP285

CYGK;2015-11-28 16:00;CYGK 281600Z 36009KT 15SM OVC012 M01/M04 A3034 RMK SC8 SLP278

CYGK;2015-11-28 17:00;CYGK 281700Z 35005KT 330V070 15SM OVC012 M01/M03 A3032 RMK SC8 SLP270

CYGK;2015-11-28 18:00;CYGK 281800Z 36006KT 15SM OVC011 M01/M04 A3031 RMK SC8 SLP268

CYGK;2015-11-28 19:00;CYGK 281900Z 36007KT 15SM OVC012 M01/M04 A3031 RMK SC8 SLP267

CYGK;2015-11-28 20:00;CYGK 282000Z 35006KT 330V040 15SM BKN013 M01/M05 A3030 RMK SC7 SLP266

CYGK;2015-11-28 21:00;CYGK 282100Z 29003KT 15SM BKN014 M02/M05 A3030 RMK SC7 SLP265

CYGK;2015-11-28 22:00;CYGK 282200Z 35003KT 330V030 15SM BKN014 M02/M05 A3030 RMK SC7 SLP265

CYGK;2015-11-28 23:00;CYGK 282300Z 33005KT 15SM BKN014 M02/M05 A3030 RMK SC7 SLP265

CYGK;2015-11-29 00:00;CYGK 290000Z 33004KT 15SM BKN014 M03/M06 A3032 RMK SC7 SLP274

CYGK;2015-11-29 00:25;CYGK 290025Z 30003KT 15SM SCT013 M03/M06 A3033 RMK SC4 SLP276

CYGK;2015-11-29 01:00;CYGK 290100Z 00000KT 15SM FEW013 M03/M05 A3032 RMK SC1 SLP274

CYGK;2015-11-29 02:00;CYGK 290200Z 20005KT 15SM FEW013 M03/M05 A3032 RMK SC1 SC TR SLP273

CYGK;2015-11-29 03:00;CYGK 290300Z 00000KT 15SM FEW010 M05/M06 A3032 RMK SF1 SLP271

CYGK;2015-11-29 04:00;CYGK 290400Z 33002KT 15SM SCT012 M06/M07 A3030 RMK SC3 LAST STFD OBS / NEXT 291100 UTC SLP267

CYGK;2015-11-29 11:00;CYGK 291100Z 35006KT 15SM SKC M07/M09 A3032 RMK SLP273

CYGK;2015-11-29 12:00;CYGK 291200Z 35005KT 15SM FEW018 M08/M09 A3034 RMK SC1 SC TR SLP280

CYGK;2015-11-29 13:01;CYGK 291301Z 36004KT 15SM FEW020 M07/M09 A3035 RMK SC1 SC TR SLP284

CYGK;2015-11-29 14:00;CYGK 291400Z 34004KT 15SM FEW020 M04/M06 A3036 RMK SC1 SLP287

CYGK;2015-11-29 15:00;CYGK 291500Z 35006KT 15SM FEW020 FEW050 M02/M06 A3036 RMK SC1SC1 SC TR SC TR SLP287

CYGK;2015-11-29 16:00;CYGK 291600Z 36005KT 280V030 15SM FEW020 FEW050 M00/M05 A3036 RMK CF1SC1 CF TR SLP286

CYGK;2015-11-29 17:00;CYGK 291700Z 33003KT 280V360 15SM FEW020 SCT045 01/M05 A3035 RMK CF1SC3 CF TR SLP280

CYGK;2015-11-29 18:00;CYGK 291800Z 34004KT 300V360 15SM SCT023 BKN048 02/M04 A3037 RMK CU3SC4 SLP288

CYGK;2015-11-29 19:00;CYGK 291900Z 01007KT 15SM SCT023 BKN046 01/M04 A3037 RMK CU3SC4 SLP289

CYGK;2015-11-29 20:00;CYGK 292000Z 36009KT 15SM BKN019 BKN042 00/M04 A3038 RMK CU5SC2 SLP291

CYGK;2015-11-29 21:00;CYGK 292100Z 01010KT 15SM BKN020 BKN042 M00/M05 A3039 RMK CU5SC2 SLP297

CYGK;2015-11-29 22:00;CYGK 292200Z 03007KT 15SM BKN028 BKN042 M01/M05 A3040 RMK CU5SC2 SLP300

CYGK;2015-11-29 23:00;CYGK 292300Z 02009KT 15SM SCT029 M01/M07 A3042 RMK SC3 SLP308

CYGK;2015-11-30 00:00;CYGK 300000Z 02011G17KT 15SM FEW030 M02/M08 A3043 RMK SC2 SLP311

CYGK;2015-11-30 01:00;CYGK 300100Z 03007KT 15SM BKN029 M02/M08 A3046 RMK SC6 SLP319

CYGK;2015-11-30 02:00;CYGK 300200Z 03009KT 15SM BKN026 M01/M07 A3046 RMK SC7 SLP320

CYGK;2015-11-30 03:00;CYGK 300300Z 05008KT 15SM OVC030 M01/M08 A3047 RMK SC8 SLP321

CYGK;2015-11-30 04:00;CYGK 300400Z 05005KT 15SM OVC034 M02/M08 A3047 RMK SC8 LAST STFD OBS / NEXT 301100 UTC SLP321

CYGK;2015-11-30 11:00;CYGK 301100Z 06007KT 15SM BKN028 OVC033 M03/M07 A3046 RMK SC7SC1 SLP318

CYGK;2015-11-30 12:00;CYGK 301200Z 06008KT 15SM FEW027 BKN032 M03/M07 A3046 RMK SC2SC5 SLP319

CYGK;2015-11-30 13:00;CYGK 301300Z 05006KT 15SM BKN032 OVC100 M03/M07 A3046 RMK SC7AC1 SLP318

CYGK;2015-11-30 14:00;CYGK 301400Z 08007KT 15SM FEW020 BKN031 BKN100 M02/M06 A3044 RMK CF1SC7AC1 CF TR AC TR SLP314

CYGK;2015-11-30 15:00;CYGK 301500Z 07005KT 15SM FEW025 OVC033 M01/M06 A3045 RMK CF1SC8 CF TR SLP316

CYGK;2015-11-30 16:00;CYGK 301600Z 06007KT 15SM FEW025 BKN031 M01/M05 A3044 RMK CF1SC7 CF TR SLP312

CYGK;2015-11-30 17:00;CYGK 301700Z 07007KT 15SM BKN020 BKN032 M01/M05 A3041 RMK SC5SC2 SLP302

CYGK;2015-11-30 18:00;CYGK 301800Z 03006KT 15SM SCT020 BKN029 00/M05 A3039 RMK SC3SC4 SLP296

CYGK;2015-11-30 19:00;CYGK 301900Z 02004KT 360V070 15SM BKN025 00/M05 A3037 RMK SC7 SLP289

CYGK;2015-11-30 20:00;CYGK 302000Z 06005KT 360V080 15SM SCT025 BKN250 01/M05 A3034 RMK SC4CI2 SLP280

CYGK;2015-11-30 21:00;CYGK 302100Z 03006KT 15SM FEW024 BKN240 M00/M06 A3034 RMK SC2CI4 SLP278

CYGK;2015-11-30 22:00;CYGK 302200Z 02007KT 15SM FEW025 BKN250 M01/M06 A3034 RMK SC2CI3 SLP279

CYGK;2015-11-30 23:00;CYGK 302300Z 02005KT 15SM FEW025 SCT250 M02/M06 A3035 RMK SC2CI2 SLP282

CYGK;2015-12-01 00:00;CYGK 010000Z 04006KT 15SM FEW250 M02/M06 A3035 RMK CI2 SLP281

CYGK;2015-12-01 01:00;CYGK 010100Z 05009KT 15SM FEW250 M02/M06 A3034 RMK CI2 SLP278

CYGK;2015-12-01 02:00;CYGK 010200Z 05008KT 15SM SKC M03/M06 A3033 RMK SLP275

CYGK;2015-12-01 03:00;CYGK 010300Z 05008KT 15SM SKC M03/M06 A3032 RMK SLP273

CYGK;2015-12-01 04:00;CYGK 010400Z 05010G16KT 15SM FEW250 M03/M06 A3031 RMK CI1 LAST STFD OBS/NEXT 011100 UTC SLP269

CYGK;2015-12-01 11:00;CYGK 011100Z 05010KT 15SM OVC030 M02/M06 A3020 RMK SC8 SLP230

CYGK;2015-12-01 12:00;CYGK 011200Z 04006KT 15SM SCT021 BKN030 M02/M05 A3018 RMK SC3SC4 SLP225

CYGK;2015-12-01 13:00;CYGK 011300Z 05007KT 12SM SCT014 OVC027 M01/M04 A3016 RMK SC3SC5 SLP217

CYGK;2015-12-01 13:46;CYGK 011346Z 06007KT 9SM -FZDZ SCT013 OVC025 M00/M04 A3016 RMK SC3SC5 SLP218

CYGK;2015-12-01 14:00;CYGK 011400Z 05008KT 4SM -FZDZ BR SCT010 OVC025 M01/M03 A3016 RMK ST3SC5 SLP216

CYGK;2015-12-01 14:10;CYGK 011410Z 05007KT 2SM -FZDZ BR BKN010 OVC023 M01/M03 A3015 RMK ST6SC2 SLP215

CYGK;2015-12-01 14:50;CYGK 011450Z 04007KT 1 1/2SM -FZDZ BR SCT010 OVC020 M00/M02 A3014 RMK ST4SC4 SLP212

CYGK;2015-12-01 15:00;CYGK 011500Z 05007KT 1 1/4SM -FZDZ BR SCT010 OVC020 M00/M01 A3014 RMK ST4SC4 SLP212

CYGK;2015-12-01 15:08;CYGK 011508Z 04007KT 1 1/2SM -FZDZ BR BKN004 OVC010 M00/M01 A3015 RMK SF5SC3 SLP213

CYGK;2015-12-01 15:37;CYGK 011537Z 05009KT 1 1/2SM -DZ BR OVC006 00/M01 A3013 RMK SF8 PRESFR SLP209

CYGK;2015-12-01 15:49;CYGK 011549Z 06008KT 1 3/4SM -DZ BR FEW002 BKN007 OVC025 00/M01 A3012 RMK SF2SF4SC2 PRESFR SLP204

CYGK;2015-12-01 16:00;CYGK 011600Z 06010KT 2SM -DZ BR FEW002 BKN012 OVC031 01/M00 A3011 RMK SF2SC4SC2 CIG RAG PRESFR SLP200

CYGK;2015-12-01 17:00;CYGK 011700Z 07008KT 2SM -DZ BR SCT002 SCT010 OVC025 02/01 A3006 RMK SF4SC1SC4 SC TR SLP184

CYGK;2015-12-01 17:36;CYGK 011736Z 07007KT 1 1/2SM -DZ BR SCT002 OVC008 03/02 A3004 RMK SF4ST4 CIG RAG SLP176

CYGK;2015-12-01 18:00;CYGK 011800Z 06009KT 1 1/2SM -DZ BR SCT002 OVC009 03/02 A3002 RMK SF4ST4 CIG RAG SLP170

CYGK;2015-12-01 19:00;CYGK 011900Z 08007KT 1 1/2SM -DZ BR FEW002 OVC007 04/03 A2999 RMK SF2ST6 SLP160

CYGK;2015-12-01 20:00;CYGK 012000Z 09009KT 1 1/2SM -DZ BR SCT002 OVC005 05/04 A2996 RMK FG2SF2ST4 CIG RAG PRESFR SLP149

CYGK;2015-12-01 20:09;CYGK 012009Z 09007KT 2SM -RADZ BR SCT002 OVC007 05/04 A2996 RMK SF3ST5 CIG RAG SLP151

CYGK;2015-12-01 20:25;CYGK 012025Z 09007KT 3SM -DZ BR SCT002 OVC008 05/05 A2996 RMK SF4ST4 SLP148

CYGK;2015-12-01 21:00;CYGK 012100Z 11005KT 2 1/2SM -DZ BR SCT002 OVC008 05/05 A2996 RMK SF4ST4 CIG RAG SLP148

CYGK;2015-12-01 22:00;CYGK 012200Z 14009KT 6SM -DZ BR FEW002 OVC006 06/06 A2994 RMK SF2ST6 SLP142

CYGK;2015-12-01 22:37;CYGK 012237Z 14015KT 8SM -DZ SCT004 OVC010 07/06 A2991 RMK SF3SC5 SLP133

CYGK;2015-12-01 23:00;CYGK 012300Z 16015KT 10SM FEW004 OVC010 07/06 A2991 RMK SF2SC6 SLP133

CYGK;2015-12-02 00:00;CYGK 020000Z 16009KT 12SM FEW005 OVC013 08/06 A2991 RMK SF1SC7 SLP133

CYGK;2015-12-02 01:00;CYGK 020100Z 16012KT 15SM OVC013 08/06 A2990 RMK SC8 SLP129

CYGK;2015-12-02 02:00;CYGK 020200Z 16011G18KT 15SM BKN012 OVC020 08/06 A2988 RMK SC5SC3 SLP122

CYGK;2015-12-02 02:43;CYGK 020243Z 16013G18KT 15SM SCT010 OVC023 08/06 A2987 RMK SC3SC5 SLP117

CYGK;2015-12-02 03:00;CYGK 020300Z 17010G17KT 15SM FEW010 OVC020 08/06 A2987 RMK SC2SC6 SLP117

CYGK;2015-12-02 03:07;CYGK 020307Z 17011KT 10SM -DZ FEW009 OVC014 08/06 A2987 RMK SC1SC7 SLP116

CYGK;2015-12-02 03:20;CYGK 020320Z 17012KT 5SM -DZ BR OVC009 07/06 A2987 RMK ST8 SLP118

CYGK;2015-12-02 03:34;CYGK 020334Z 16013G18KT 8SM OVC010 08/06 A2986 RMK ST8 PRESFR SLP113

CYGK;2015-12-02 03:45;CYGK 020345Z 16013KT 5SM -DZ BR OVC006 08/06 A2985 RMK ST8 SLP112

CYGK;2015-12-02 04:00;CYGK 020400Z 16014KT 5SM -DZ BR OVC005 07/06 A2986 RMK ST8 LAST STFD OBS/NEXT 021100 UTC SLP113

CYGK;2015-12-02 11:00;CYGK 021100Z 22006KT 6SM BR OVC003 09/08 A2979 RMK SF8 CIG RAG PRESRR SLP090

CYGK;2015-12-02 11:21;CYGK 021121Z 27007KT 8SM SCT002 OVC005 09/08 A2979 RMK SF3SF5 CIG RAG SLP090

CYGK;2015-12-02 11:39;CYGK 021139Z 27008KT 7SM -DZ SCT002 OVC007 08/08 A2981 RMK SF3SF5 PRESRR SLP095

CYGK;2015-12-02 12:00;CYGK 021200Z 29008KT 6SM -DZ BR SCT003 BKN006 OVC020 08/07 A2982 RMK SF3SF4SC1 SLP099

CYGK;2015-12-02 12:19;CYGK 021219Z 29009KT 15SM FEW003 SCT006 BKN022 OVC037 07/06 A2982 RMK SF1SF3SC3SC1 SLP100

CYGK;2015-12-02 13:00;CYGK 021300Z 31007KT 15SM FEW003 SCT020 BKN100 07/05 A2983 RMK SF1SC2AC4 SLP104

CYGK;2015-12-02 14:00;CYGK 021400Z 28006KT 15SM SCT024 BKN100 OVC160 06/05 A2986 RMK SC3AC3AS2 SLP113

CYGK;2015-12-02 15:00;CYGK 021500Z 24004KT 220V280 15SM FEW025 FEW100 BKN160 06/05 A2986 RMK SC1AC1AS5 SLP113

CYGK;2015-12-02 16:00;CYGK 021600Z 25004KT 15SM FEW025 SCT085 BKN130 06/04 A2984 RMK SC1AC3AS4 SC TR SLP106

CYGK;2015-12-02 17:00;CYGK 021700Z VRB02KT 15SM FEW025 SCT080 BKN110 06/04 A2979 RMK SC2AC2AS3 SLP091

CYGK;2015-12-02 18:00;CYGK 021800Z 35003KT 15SM FEW025 BKN074 BKN110 06/04 A2975 RMK SC1AC5AC2 SC TR SLP076

CYGK;2015-12-02 19:00;CYGK 021900Z 03004KT 15SM FEW048 BKN065 06/04 A2973 RMK SC1SC6 SLP071

CYGK;2015-12-02 20:00;CYGK 022000Z 01004KT 15SM FEW045 BKN065 06/04 A2972 RMK SC2SC5 SLP066

CYGK;2015-12-02 21:01;CYGK 022101Z 02004KT 15SM FEW020 SCT065 BKN084 05/04 A2971 RMK CF1SC3AC4 CF TR SLP064

CYGK;2015-12-02 21:19;CYGK 022119Z VRB02KT 12SM -RA FEW020 BKN060 BKN085 06/04 A2971 RMK CF1SC5AC2 CF TR SLP062

CYGK;2015-12-02 22:00;CYGK 022200Z 06004KT 15SM -RA BKN057 BKN085 05/03 A2970 RMK SC6AC1 SLP060

CYGK;2015-12-02 22:32;CYGK 022232Z 32002KT 15SM FEW015 BKN058 05/03 A2972 RMK CF1SC7 CF TR PRESRR SLP066

CYGK;2015-12-02 22:47;CYGK 022247Z 35005KT 15SM -RA FEW015 OVC058 05/03 A2972 RMK CF1SC8 CF TR SLP066

CYGK;2015-12-02 23:00;CYGK 022300Z 35005KT 15SM -RA FEW015 OVC060 04/03 A2971 RMK CF1SC8 CF TR SLP064

CYGK;2015-12-03 00:00;CYGK 030000Z 32007KT 15SM -RA SCT018 OVC060 05/03 A2973 RMK SC4SC4 PRESRR SLP069

CYGK;2015-12-03 01:00;CYGK 030100Z 02004KT 15SM -RA FEW018 BKN030 OVC078 04/03 A2972 RMK SC2SC4AC2 SLP067

CYGK;2015-12-03 02:00;CYGK 030200Z 30008KT 15SM -RA FEW020 SCT030 OVC090 04/03 A2973 RMK SC1SC3AC5 SC TR PRESRR SLP072

CYGK;2015-12-03 02:45;CYGK 030245Z 31006KT 15SM FEW017 BKN039 OVC095 04/03 A2975 RMK SC1SC6AC2 SC TR SLP078

CYGK;2015-12-03 03:00;CYGK 030300Z 32006KT 15SM FEW017 OVC041 04/02 A2975 RMK SC1SC7 SLP077

CYGK;2015-12-03 04:00;CYGK 030400Z 34008KT 15SM OVC043 04/02 A2974 RMK SC8 LAST STFD OBS/NEXT 031100 UTC SLP074

CYGK;2015-12-03 11:00;CYGK 031100Z 31006KT 15SM BKN130 01/M01 A2981 RMK AS7 SLP098

CYGK;2015-12-03 12:00;CYGK 031200Z 29004KT 15SM FEW025 SCT120 BKN250 01/M01 A2983 RMK SC1AS4CI2 SC TR SLP104

CYGK;2015-12-03 13:00;CYGK 031300Z 29007KT 15SM FEW020 SCT071 BKN120 BKN210 00/M01 A2986 RMK CU1AC3AS2CI2 CU TR SLP114

CYGK;2015-12-03 14:00;CYGK 031400Z 28007KT 15SM FEW020 BKN059 BKN080 BKN210 01/M01 A2987 RMK CU1SC4AC1CI1 SLP120

CYGK;2015-12-03 15:00;CYGK 031500Z 30009KT 15SM VCSH FEW010 FEW059 BKN074 BKN130 02/M00 A2990 RMK CF1SC2AC4AC1 CF TR SLP127

CYGK;2015-12-03 16:00;CYGK 031600Z 31009KT 15SM VCSH FEW015 SCT045 BKN075 03/00 A2991 RMK CU1SC3AC4 CU TR SLP131

CYGK;2015-12-03 16:38;CYGK 031638Z 31007KT 15SM -DZ FEW016 BKN044 BKN080 04/01 A2991 RMK CU1SC5AC1 PCPN VRY LGT SLP132

CYGK;2015-12-03 17:00;CYGK 031700Z 31011KT 15SM -RA SCT016 BKN032 OVC080 04/01 A2991 RMK CU3SC4AC1 SLP131

CYGK;2015-12-03 17:49;CYGK 031749Z 31010KT 15SM BKN018 BKN093 BKN250 05/01 A2992 RMK CU5AC1CI1 SLP136

CYGK;2015-12-03 18:00;CYGK 031800Z 31009G15KT 15SM BKN018 BKN093 BKN250 05/01 A2993 RMK CU5AC1CI1 SLP137

CYGK;2015-12-03 18:43;CYGK 031843Z 31009KT 15SM -SHRA BKN020 04/00 A2995 RMK CU7 SLP145

CYGK;2015-12-03 19:00;CYGK 031900Z 31010G15KT 15SM BKN022 05/M00 A2995 RMK CU7 OCNL -SHRA SLP147

CYGK;2015-12-03 20:00;CYGK 032000Z 28010KT 15SM BKN022 BKN097 05/M00 A2998 RMK CU5AC2 OCNL -SHRA SLP154

CYGK;2015-12-03 21:00;CYGK 032100Z 29010KT 15SM FEW022 BKN049 BKN100 04/M00 A3001 RMK CU2SC3AC2 SLP166

CYGK;2015-12-03 22:00;CYGK 032200Z 29008KT 15SM FEW027 BKN042 BKN100 04/00 A3004 RMK CU2SC4AC1 SLP178

CYGK;2015-12-03 23:00;CYGK 032300Z 27006KT 15SM SCT029 BKN100 03/M00 A3008 RMK SC4AC2 SLP189

CYGK;2015-12-04 00:00;CYGK 040000Z 27007KT 15SM BKN024 BKN100 03/M00 A3012 RMK SC6AC1 SLP202

CYGK;2015-12-04 01:00;CYGK 040100Z 28006KT 15SM FEW028 01/M02 A3014 RMK SC2 SLP211

CYGK;2015-12-04 02:00;CYGK 040200Z 27006KT 15SM SKC 01/M02 A3017 RMK SLP221

CYGK;2015-12-04 03:00;CYGK 040300Z 26008KT 15SM SCT023 01/M02 A3019 RMK SC4 SLP227

CYGK;2015-12-04 04:00;CYGK 040400Z 28006KT 15SM SCT024 01/M03 A3020 RMK SC4 LAST STFD OBS/NEXT 041100 UTC SLP230

CYGK;2015-12-04 11:00;CYGK 041100Z 26005KT 15SM OVC031 04/M01 A3026 RMK SC8 SLP251

CYGK;2015-12-04 12:00;CYGK 041200Z 26007KT 15SM BKN033 04/M01 A3030 RMK SC7 SLP264

CYGK;2015-12-04 13:00;CYGK 041300Z 25010KT 15SM VCSH BKN036 05/M00 A3032 RMK SC7 SLP269

CYGK;2015-12-04 14:00;CYGK 041400Z 24012G17KT 15SM OVC042 05/00 A3032 RMK SC8 SLP272

CYGK;2015-12-04 15:00;CYGK 041500Z 25014KT 15SM OVC045 05/00 A3034 RMK SC8 SLP279

CYGK;2015-12-04 16:00;CYGK 041600Z 25013G19KT 15SM FEW025 BKN050 06/01 A3036 RMK CU1SC6 SLP285

CYGK;2015-12-04 17:00;CYGK 041700Z 25013G18KT 15SM FEW021 OVC043 06/01 A3036 RMK CU1SC7 SLP285

CYGK;2015-12-04 18:00;CYGK 041800Z 25012G17KT 15SM FEW020 BKN045 06/01 A3038 RMK CU1SC7 CU TR SLP292

CYGK;2015-12-04 19:00;CYGK 041900Z 25013G18KT 15SM SCT027 BKN050 06/01 A3039 RMK CU4SC3 SLP294

CYGK;2015-12-04 20:00;CYGK 042000Z 25012G17KT 15SM FEW023 BKN043 06/02 A3040 RMK CU2SC5 SLP298

CYGK;2015-12-04 21:00;CYGK 042100Z 26008KT 15SM FEW025 OVC037 06/02 A3043 RMK CF1SC8 CF TR SLP309

CYGK;2015-12-04 22:00;CYGK 042200Z 25010KT 15SM OVC034 06/02 A3046 RMK SC8 SLP317

CYGK;2015-12-04 23:00;CYGK 042300Z 25013KT 15SM OVC037 06/02 A3048 RMK SC8 SLP325

CYGK;2015-12-05 00:00;CYGK 050000Z 25010KT 15SM OVC038 06/02 A3051 RMK SC8 SLP335

CYGK;2015-12-05 01:00;CYGK 050100Z 25009KT 15SM OVC035 06/02 A3053 RMK SC8 SLP342

CYGK;2015-12-05 02:00;CYGK 050200Z 25011KT 15SM OVC034 06/02 A3055 RMK SC8 SLP347

CYGK;2015-12-05 03:00;CYGK 050300Z 26009KT 15SM OVC035 06/01 A3055 RMK SC8 SLP350

CYGK;2015-12-05 04:00;CYGK 050400Z 26007KT 15SM OVC034 06/00 A3057 RMK SC8 LAST STFD OBS/NEXT 051000 UTC SLP355

CYGK;2015-12-05 11:00;CYGK 051100Z 27007KT 15SM OVC022 05/M00 A3064 RMK SC8 SLP378

CYGK;2015-12-05 12:00;CYGK 051200Z 27007KT 15SM OVC022 04/M01 A3066 RMK SC8 SLP384

CYGK;2015-12-05 13:00;CYGK 051300Z 29006KT 15SM OVC022 04/M00 A3067 RMK SC8 SLP389

CYGK;2015-12-05 14:00;CYGK 051400Z 27005KT 15SM BKN022 05/M00 A3068 RMK SC7 SLP393

CYGK;2015-12-05 15:00;CYGK 051500Z 24006KT 15SM BKN022 05/00 A3069 RMK SC6 SLP396

CYGK;2015-12-05 16:00;CYGK 051600Z 24007KT 15SM BKN020 BKN220 06/01 A3069 RMK SC6CI1 SLP395

CYGK;2015-12-05 17:00;CYGK 051700Z 22011KT 15SM OVC020 06/01 A3067 RMK SC8 SLP389

CYGK;2015-12-05 18:00;CYGK 051800Z 24007KT 15SM BKN018 06/02 A3066 RMK SC7 SLP384

CYGK;2015-12-05 19:00;CYGK 051900Z 22010KT 10SM BKN017 BKN230 07/02 A3065 RMK SC5CI1 SLP381

CYGK;2015-12-05 20:00;CYGK 052000Z 24008KT 6SM BR OVC013 06/02 A3063 RMK SC8 SLP376

CYGK;2015-12-05 21:00;CYGK 052100Z 24010KT 6SM BR OVC012 06/03 A3064 RMK SC8 SLP378

CYGK;2015-12-05 22:00;CYGK 052200Z 22009KT 8SM OVC014 06/03 A3064 RMK SC8 SLP380

CYGK;2015-12-05 23:00;CYGK 052300Z 21007KT 15SM SCT018 BKN230 05/02 A3064 RMK SC3CI3 SLP380

CYGK;2015-12-06 00:00;CYGK 060000Z 23011KT 15SM OVC012 05/03 A3064 RMK SC8 SLP377

CYGK;2015-12-06 00:12;CYGK 060012Z 23010KT 15SM SCT012 05/02 A3063 RMK SC4 SLP376

CYGK;2015-12-06 01:00;CYGK 060100Z 24009KT 8SM OVC010 05/03 A3064 RMK SC8 SLP377

CYGK;2015-12-06 02:00;CYGK 060200Z 23012KT 12SM OVC014 06/03 A3062 RMK SC8 SLP372

CYGK;2015-12-06 03:00;CYGK 060300Z 23008KT 12SM OVC014 06/03 A3061 RMK SC8 SLP370

CYGK;2015-12-06 04:00;CYGK 060400Z 21007KT 12SM OVC017 06/03 A3060 RMK SC8 LAST STFD OBS/NEXT 061100 UTC SLP365

CYGK;2015-12-06 11:00;CYGK 061100Z 21008KT 15SM FEW008 OVC012 05/03 A3048 RMK SF2SC6 SLP325

CYGK;2015-12-06 12:00;CYGK 061200Z 22007KT 15SM OVC013 05/02 A3047 RMK SC8 SLP322

CYGK;2015-12-06 13:00;CYGK 061300Z 22007KT 10SM OVC013 05/03 A3046 RMK SC8 SLP318

CYGK;2015-12-06 14:00;CYGK 061400Z 22008KT 10SM OVC011 05/03 A3045 RMK SC8 SLP315

CYGK;2015-12-06 15:00;CYGK 061500Z 20011KT 10SM OVC012 06/03 A3045 RMK SC8 SLP313

CYGK;2015-12-06 16:00;CYGK 061600Z 21010KT 12SM OVC011 05/02 A3043 RMK SC8 SLP307

CYGK;2015-12-06 17:00;CYGK 061700Z 22009KT 12SM OVC012 06/02 A3039 RMK SC8 PRESFR SLP294

CYGK;2015-12-06 18:00;CYGK 061800Z 20008KT 12SM BKN012 OVC250 06/03 A3036 RMK SC7CI1 SLP285

CYGK;2015-12-06 19:00;CYGK 061900Z 19012KT 12SM BKN012 BKN250 06/03 A3032 RMK SC7CI1 CI TR SLP272

CYGK;2015-12-06 20:00;CYGK 062000Z 21009KT 10SM BKN010 OVC250 05/02 A3031 RMK SC7CI1 SLP268

CYGK;2015-12-06 20:40;CYGK 062040Z 20012KT 10SM BKN009 OVC250 05/03 A3030 RMK SC6CI2 SLP264

CYGK;2015-12-06 21:00;CYGK 062100Z 20011KT 10SM BKN008 OVC250 05/03 A3030 RMK SC7CI1 SLP262

CYGK;2015-12-06 22:00;CYGK 062200Z 21011KT 10SM BKN009 05/02 A3027 RMK SF7 SLP255

CYGK;2015-12-06 22:48;CYGK 062248Z 22008KT 8SM FEW009 BKN220 04/02 A3026 RMK SF2CI4 SLP251

CYGK;2015-12-06 23:00;CYGK 062300Z 23006KT 8SM FEW008 BKN230 04/02 A3026 RMK SF1CI5 SLP251

CYGK;2015-12-07 00:00;CYGK 070000Z 22007KT 8SM FEW007 SCT230 04/02 A3025 RMK SF1CI3 SLP247

CYGK;2015-12-07 01:00;CYGK 070100Z 30004KT 7SM FEW006 FEW220 03/02 A3024 RMK ST1CI1 SLP242

CYGK;2015-12-07 02:00;CYGK 070200Z 30005KT 6SM BR FEW006 01/00 A3023 RMK ST2 SLP239

CYGK;2015-12-07 02:39;CYGK 070239Z 30007KT 1/4SM FG VV002 02/01 A3023 RMK FG8 SLP239

CYGK;2015-12-07 03:00;CYGK 070300Z 31008KT 1/8SM FG VV001 02/01 A3023 RMK FG8 SLP240

CYGK;2015-12-07 03:42;CYGK 070342Z 27005KT 1/4SM FG VV002 02/01 A3022 RMK FG8 SLP237

CYGK;2015-12-07 04:00;CYGK 070400Z 23005KT 3/8SM FG VV002 02/02 A3021 RMK FG8 LAST STFD OBS/NEXT 071100UTC SLP234

CYGK;2015-12-07 11:00;CYGK 071100Z 33006KT 15SM OVC012 02/M01 A3018 RMK SC8 SLP224

CYGK;2015-12-07 12:00;CYGK 071200Z 32004KT 12SM OVC013 02/M01 A3018 RMK SC8 SLP225

CYGK;2015-12-07 13:00;CYGK 071300Z 32004KT 12SM OVC012 02/M01 A3020 RMK SC8 SLP230

CYGK;2015-12-07 14:00;CYGK 071400Z 31003KT 12SM OVC011 02/M00 A3020 RMK SC8 SLP230

CYGK;2015-12-07 14:45;CYGK 071445Z 32004KT 270V330 12SM BKN017 OVC033 03/M00 A3020 RMK SC5SC3 SLP231

CYGK;2015-12-07 15:00;CYGK 071500Z 32003KT 12SM FEW010 BKN017 OVC035 03/M00 A3021 RMK CU2SC4SC2 SLP233

CYGK;2015-12-07 16:00;CYGK 071600Z VRB02KT 12SM BKN019 OVC032 03/00 A3021 RMK SC7SC1 SLP232

CYGK;2015-12-07 17:00;CYGK 071700Z 33003KT 240V020 12SM OVC017 04/00 A3019 RMK SC8 SLP228

CYGK;2015-12-07 18:00;CYGK 071800Z 36003KT 12SM OVC018 04/01 A3018 RMK SC8 SLP223

CYGK;2015-12-07 19:00;CYGK 071900Z VRB02KT 12SM SCT018 OVC025 04/00 A3017 RMK SC4SC4 SLP221

CYGK;2015-12-07 20:00;CYGK 072000Z 32002KT 10SM FEW018 OVC025 04/00 A3016 RMK CU2SC6 SLP216

CYGK;2015-12-07 21:09;CYGK 072109Z 33004KT 12SM FEW019 OVC023 04/M01 A3017 RMK CU1SC7 SLP221

CYGK;2015-12-07 22:00;CYGK 072200Z 31002KT 15SM BKN028 04/M02 A3018 RMK SC7 SLP223

CYGK;2015-12-07 23:00;CYGK 072300Z 00000KT 15SM BKN028 04/M02 A3018 RMK SC7 SLP224

CYGK;2015-12-08 00:00;CYGK 080000Z VRB02KT 15SM BKN028 OVC040 04/M02 A3019 RMK SC7SC1 SLP226

CYGK;2015-12-08 01:00;CYGK 080100Z 05002KT 12SM OVC028 04/M02 A3020 RMK SC8 SLP231

CYGK;2015-12-08 02:00;CYGK 080200Z 07004KT 15SM OVC030 03/M01 A3020 RMK SC8 SLP231

CYGK;2015-12-08 03:00;CYGK 080300Z 03003KT 330V040 15SM BKN030 OVC040 03/M02 A3018 RMK SC7SC1 SLP224

CYGK;2015-12-08 04:00;CYGK 080400Z 02007KT 290V060 15SM OVC029 03/M03 A3018 RMK SC8 LAST STFD OBS/NEXT 081100UTC SLP223

CYGK;2015-12-08 11:00;CYGK 081100Z 01002KT 15SM OVC032 03/M04 A3015 RMK SC8 SLP212

CYGK;2015-12-08 12:00;CYGK 081200Z 07004KT 15SM OVC033 03/M03 A3016 RMK SC8 SLP218

CYGK;2015-12-08 13:00;CYGK 081300Z 10006KT 15SM OVC035 03/M03 A3017 RMK SC8 SLP220

CYGK;2015-12-08 14:00;CYGK 081400Z 11009KT 15SM BKN035 03/M03 A3016 RMK SC7 SLP216

CYGK;2015-12-08 15:00;CYGK 081500Z 11012KT 15SM FEW035 BKN250 04/M03 A3015 RMK SC2CI4 SLP214

CYGK;2015-12-08 16:00;CYGK 081600Z 14009KT 080V150 15SM FEW034 BKN250 04/M04 A3014 RMK SC2CI4 SLP208

CYGK;2015-12-08 17:00;CYGK 081700Z 13006KT 15SM BKN034 BKN250 04/M04 A3013 RMK SC7CI1 CI TR SLP208

CYGK;2015-12-08 18:00;CYGK 081800Z 19006KT 15SM BKN034 BKN250 04/M03 A3012 RMK SC7CI1 CI TR SLP203

CYGK;2015-12-08 19:00;CYGK 081900Z VRB02KT 15SM BKN033 BKN250 04/M04 A3011 RMK SC7CI1 CI TR SLP198

CYGK;2015-12-08 20:00;CYGK 082000Z 18003KT 150V220 15SM BKN030 BKN250 04/M03 A3008 RMK SC6CI1 SLP190

CYGK;2015-12-08 21:00;CYGK 082100Z 05002KT 15SM BKN031 BKN250 03/M03 A3009 RMK SC7CI1 CI TR SLP192

CYGK;2015-12-08 22:00;CYGK 082200Z 08003KT 15SM BKN032 BKN250 03/M03 A3008 RMK SC7CI1 CI TR SLP191

CYGK;2015-12-08 23:00;CYGK 082300Z 08004KT 15SM OVC030 03/M03 A3008 RMK SC8 SLP190

CYGK;2015-12-09 00:00;CYGK 090000Z 11007KT 15SM OVC030 03/M02 A3008 RMK SC8 SLP190

CYGK;2015-12-09 01:00;CYGK 090100Z 11008KT 15SM OVC027 03/M02 A3007 RMK SC8 SLP188

CYGK;2015-12-09 02:00;CYGK 090200Z 11007KT 15SM BKN027 OVC040 03/M02 A3007 RMK SC6SC2 SLP185

CYGK;2015-12-09 03:00;CYGK 090300Z 11009KT 15SM SCT025 OVC040 03/M02 A3005 RMK SC3SC5 SLP178

CYGK;2015-12-09 04:00;CYGK 090400Z 12007KT 15SM OVC040 03/M02 A3004 RMK SC8 LAST STFD OBS/NEXT 091100 UTC SLP177

CYGK;2015-12-09 11:00;CYGK 091100Z 18012KT 15SM FEW015 OVC039 06/03 A3001 RMK SC1SC7 SLP164

CYGK;2015-12-09 12:00;CYGK 091200Z 16014KT 15SM FEW040 SCT190 05/02 A3000 RMK SC2AC2 SLP162

CYGK;2015-12-09 13:00;CYGK 091300Z 16012KT 15SM FEW040 FEW190 BKN240 05/02 A2999 RMK SC1AC2CI4 SC TR SLP160

CYGK;2015-12-09 14:00;CYGK 091400Z 17015G21KT 15SM FEW040 FEW190 BKN240 06/02 A2998 RMK SC1AC1CI4 SLP157

CYGK;2015-12-09 15:00;CYGK 091500Z 17014KT 15SM FEW020 FEW190 BKN240 06/03 A2997 RMK CU1AC1CI5 CU TR AC TR SLP152

CYGK;2015-12-09 16:00;CYGK 091600Z 16011G17KT 15SM FEW020 BKN240 07/03 A2995 RMK CF1CI5 CF TR SLP143

CYGK;2015-12-09 17:00;CYGK 091700Z 16015KT 15SM BKN240 07/03 A2992 RMK CI6 SLP133

CYGK;2015-12-09 18:00;CYGK 091800Z 16013KT 12SM FEW200 BKN240 08/03 A2989 RMK CC2CI4 SLP124

CYGK;2015-12-09 19:00;CYGK 091900Z 16014G21KT 12SM FEW200 BKN240 08/04 A2986 RMK CC1CI5 SLP115

CYGK;2015-12-09 20:00;CYGK 092000Z 16014G21KT 15SM FEW160 BKN210 09/04 A2984 RMK AC1CI5 SLP107

CYGK;2015-12-09 21:00;CYGK 092100Z 16010G15KT 15SM BKN220 08/04 A2983 RMK CI7 SLP105

CYGK;2015-12-09 22:00;CYGK 092200Z 17011KT 15SM BKN240 08/04 A2981 RMK CI7 SLP096

CYGK;2015-12-09 23:00;CYGK 092300Z 18016G24KT 15SM BKN250 09/04 A2980 RMK CI7 SLP092

CYGK;2015-12-10 00:00;CYGK 100000Z 17013KT 15SM FEW080 OVC250 08/05 A2980 RMK AC2CI6 SLP093

CYGK;2015-12-10 01:00;CYGK 100100Z 18018G24KT 15SM BKN060 OVC250 08/05 A2979 RMK SC5CI3 SLP089

CYGK;2015-12-10 01:42;CYGK 100142Z 18017G23KT 15SM -RA OVC057 08/05 A2979 RMK SC8 SLP090

CYGK;2015-12-10 02:00;CYGK 100200Z 18018KT 15SM -SHRA OVC057 08/05 A2979 RMK SC8 SLP089

CYGK;2015-12-10 03:00;CYGK 100300Z 18016G24KT 15SM -SHRA OVC050 08/05 A2978 RMK SC8 SLP086

CYGK;2015-12-10 04:00;CYGK 100400Z 19019G25KT 12SM -SHRA OVC042 08/05 A2978 RMK SC8 LAST STFD OBS/NEXT 101100 UTC SLP085

CYGK;2015-12-10 11:00;CYGK 101100Z 22008KT 6SM BR BKN036 08/06 A2984 RMK SC7 SLP105

CYGK;2015-12-10 12:00;CYGK 101200Z 21008KT 6SM BR SCT038 07/05 A2987 RMK SC4 SLP116

CYGK;2015-12-10 13:00;CYGK 101300Z 23007KT 6SM BR FEW030 FEW250 06/04 A2989 RMK SC1CI1 SLP125

CYGK;2015-12-10 14:00;CYGK 101400Z 23007KT 6SM BR FEW030 FEW250 07/05 A2990 RMK SC1CI1 SLP127

CYGK;2015-12-10 15:00;CYGK 101500Z 23009KT 7SM SCT250 08/05 A2990 RMK CI3 SLP128

CYGK;2015-12-10 16:00;CYGK 101600Z 20009KT 7SM FEW015 SCT250 09/05 A2990 RMK CU1CI2 SLP126

CYGK;2015-12-10 17:02;CYGK 101702Z 20011KT 5SM BR FEW008 BKN017 BKN250 09/06 A2989 RMK SF1CU6CI1 CI TR SLP122

CYGK;2015-12-10 18:00;CYGK 101800Z 16008KT 5SM BR FEW020 BKN250 09/07 A2986 RMK SC2CI5 SLP114

CYGK;2015-12-10 18:19;CYGK 101819Z 18009KT 5SM BR FEW007 SCT020 OVC250 08/07 A2987 RMK CF1SC3CI5 CF TR SLP117

CYGK;2015-12-10 19:00;CYGK 101900Z 19009KT 5SM BR FEW007 BKN023 OVC250 09/06 A2987 RMK CF1SC5CI3 TR CF SLP118

CYGK;2015-12-10 20:00;CYGK 102000Z 17006KT 5SM BR FEW010 SCT023 OVC160 08/06 A2986 RMK CF1SC4AS4 CF TR SLP112

CYGK;2015-12-10 21:00;CYGK 102100Z 14004KT 8SM FEW023 OVC150 08/06 A2983 RMK SC1AS7 SLP104

CYGK;2015-12-10 22:00;CYGK 102200Z 15006KT 10SM FEW110 BKN200 08/06 A2983 RMK AS2CI5 SLP103

CYGK;2015-12-10 23:00;CYGK 102300Z 16009KT 12SM FEW130 SCT200 08/06 A2982 RMK AC1CI3 SLP101

CYGK;2015-12-11 00:00;CYGK 110000Z 16011KT 15SM FEW170 09/06 A2983 RMK AC2 SLP102

CYGK;2015-12-11 01:00;CYGK 110100Z 16012KT 15SM SCT140 09/06 A2982 RMK AC4 SLP099

CYGK;2015-12-11 02:00;CYGK 110200Z 16013KT 15SM SCT140 09/06 A2980 RMK AC4 SLP092

CYGK;2015-12-11 03:00;CYGK 110300Z 17014G20KT 15SM SCT140 BKN230 09/06 A2978 RMK AC3CI3 SLP088

CYGK;2015-12-11 04:00;CYGK 110400Z 16015G21KT 15SM OVC140 09/06 A2976 RMK AC8 LAST STFD OBS/NEXT 111100 UTC SLP079

CYGK;2015-12-11 11:00;CYGK 111100Z 18013G18KT 12SM BKN040 09/06 A2968 RMK SC7 SLP052

CYGK;2015-12-11 12:00;CYGK 111200Z 18017G23KT 15SM BKN038 OVC057 09/06 A2970 RMK SC7SC1 SLP058

CYGK;2015-12-11 13:00;CYGK 111300Z 20014KT 15SM SCT033 BKN040 09/06 A2971 RMK CU3SC4 SLP062

CYGK;2015-12-11 14:00;CYGK 111400Z 20013KT 15SM FEW038 FEW140 SCT230 09/06 A2972 RMK SC1AC1CI1 SLP065

CYGK;2015-12-11 15:00;CYGK 111500Z 20017G22KT 15SM FEW015 FEW038 FEW230 10/06 A2973 RMK CF1SC1CI2 CF TR SC TR SLP070

CYGK;2015-12-11 16:00;CYGK 111600Z 19016KT 15SM FEW020 FEW230 10/07 A2972 RMK CF1CI1 CI TR SLP067

CYGK;2015-12-11 17:00;CYGK 111700Z 20014G22KT 15SM FEW021 FEW230 11/07 A2970 RMK CU1CI1 SLP059

CYGK;2015-12-11 18:00;CYGK 111800Z 19015G22KT 15SM FEW025 FEW080 FEW230 11/06 A2969 RMK CU1AC1CI1 CU TR CI TR SLP054

CYGK;2015-12-11 19:00;CYGK 111900Z 20016G22KT 15SM FEW025 SCT080 11/05 A2968 RMK CU1AC2 SLP051

CYGK;2015-12-11 20:00;CYGK 112000Z 21012G20KT 15SM FEW032 BKN072 12/05 A2969 RMK CU1AC4 SLP055

CYGK;2015-12-11 21:00;CYGK 112100Z 24019G28KT 15SM FEW030 BKN071 12/04 A2971 RMK CF1AC6 SLP063

CYGK;2015-12-11 22:00;CYGK 112200Z 25011G16KT 15SM BKN063 BKN090 11/04 A2976 RMK SC5AC1 SLP078

CYGK;2015-12-11 23:00;CYGK 112300Z 25010KT 15SM SCT052 BKN082 10/04 A2979 RMK SC4AC3 SLP091

CYGK;2015-12-12 00:00;CYGK 120000Z 27012KT 15SM FEW043 10/02 A2984 RMK SC1 SLP105

CYGK;2015-12-12 01:00;CYGK 120100Z 26009G16KT 15SM SKC 09/02 A2987 RMK SLP117

CYGK;2015-12-12 02:00;CYGK 120200Z 25010KT 15SM SCT040 08/02 A2990 RMK SC3 SLP125

CYGK;2015-12-12 03:00;CYGK 120300Z 25008KT 15SM FEW035 08/02 A2992 RMK SC2 SLP135

CYGK;2015-12-12 04:00;CYGK 120400Z 25006KT 15SM BKN037 08/02 A2995 RMK SC7 LAST STFD OBS/NEXT 121100 UTC SLP145

CYGK;2015-12-12 11:00;CYGK 121100Z 25004KT 15SM FEW200 05/03 A3008 RMK CI1 SLP187

CYGK;2015-12-12 12:00;CYGK 121200Z 26004KT 15SM FEW040 SCT200 05/03 A3010 RMK SC1CI2 SLP193

CYGK;2015-12-12 13:00;CYGK 121300Z 26002KT 15SM FEW040 FEW150 BKN250 04/02 A3010 RMK SC1AS2CI4 SC TR SLP197

CYGK;2015-12-12 14:00;CYGK 121400Z 25004KT 15SM FEW040 SCT180 BKN250 05/03 A3011 RMK SC1AC3CI3 SLP198

CYGK;2015-12-12 15:00;CYGK 121500Z 32003KT 15SM FEW040 SCT180 BKN220 06/03 A3012 RMK SC1AC3CI4 SC TR SLP204

CYGK;2015-12-12 16:00;CYGK 121600Z 27003KT 230V300 15SM FEW010 FEW040 BKN240 08/03 A3012 RMK CF1SC1CI7 CF TR SC TR SLP202

CYGK;2015-12-12 17:00;CYGK 121700Z VRB02KT 15SM FEW020 FEW120 BKN220 09/03 A3012 RMK CU1AC1CI3 SLP201

CYGK;2015-12-12 18:00;CYGK 121800Z 15003KT 15SM FEW008 FEW020 SCT110 BKN210 09/04 A3010 RMK SF1CU1AC3CI4 SF TR CU TR SLP196

CYGK;2015-12-12 19:00;CYGK 121900Z 13005KT 15SM FEW020 BKN086 BKN210 08/04 A3010 RMK CU1AC6CI1 CU TR SLP193

CYGK;2015-12-12 20:00;CYGK 122000Z 10006KT 15SM SCT051 OVC100 09/03 A3009 RMK SC4AC4 SLP192

CYGK;2015-12-12 21:00;CYGK 122100Z 09006KT 15SM BKN045 OVC100 08/04 A3008 RMK SC6AC2 PRESFR SLP190

CYGK;2015-12-12 22:00;CYGK 122200Z 06003KT 15SM OVC045 08/04 A3012 RMK SC8 SLP202

CYGK;2015-12-12 23:00;CYGK 122300Z 03006KT 15SM OVC045 08/03 A3014 RMK SC8 PRESRR SLP210

CYGK;2015-12-13 00:00;CYGK 130000Z 02010G15KT 15SM -SHRA OVC037 07/03 A3015 RMK SC8 SLP214

CYGK;2015-12-13 01:00;CYGK 130100Z 04011KT 15SM OVC038 06/02 A3017 RMK SC8 SLP220

CYGK;2015-12-13 02:00;CYGK 130200Z 04011G17KT 15SM OVC037 05/02 A3017 RMK SC8 SLP219

CYGK;2015-12-13 03:00;CYGK 130300Z 04010KT 15SM OVC040 05/02 A3018 RMK SC8 SLP221

CYGK;2015-12-13 04:00;CYGK 130400Z 03008G15KT 15SM OVC040 05/01 A3018 RMK SC8 LAST STFD OBS/NEXT 131100 UTC SLP223

CYGK;2015-12-13 11:00;CYGK 131100Z 04011KT 15SM BKN074 OVC250 04/M00 A3021 RMK AC7CI1 SLP232

CYGK;2015-12-13 12:00;CYGK 131200Z 04010G16KT 15SM BKN065 04/M01 A3021 RMK SC7 SLP233

CYGK;2015-12-13 13:00;CYGK 131300Z 04010G16KT 15SM SCT046 OVC075 04/M01 A3023 RMK SC4AC4 SLP239

CYGK;2015-12-13 14:00;CYGK 131400Z 05012G18KT 15SM SCT045 BKN075 OVC250 04/M01 A3022 RMK SC4AC2CS2 SLP237

CYGK;2015-12-13 15:00;CYGK 131500Z 04010G18KT 15SM SCT043 BKN075 OVC180 04/M01 A3023 RMK SC3AC2AS3 SLP240

CYGK;2015-12-13 16:00;CYGK 131600Z 04014KT 15SM BKN037 OVC180 04/M01 A3021 RMK SC5AC3 SLP235

CYGK;2015-12-13 17:00;CYGK 131700Z 03009G16KT 15SM BKN032 OVC170 05/M01 A3019 RMK SC7AS1 SLP228

CYGK;2015-12-13 18:00;CYGK 131800Z 04009G15KT 15SM OVC028 05/M01 A3016 RMK SC8 SLP216

CYGK;2015-12-13 18:11;CYGK 131811Z 04012KT 15SM -RA OVC030 05/M01 A3015 RMK SC8 PRESFR SLP212

CYGK;2015-12-13 19:00;CYGK 131900Z 06014KT 15SM BKN026 OVC080 05/M01 A3012 RMK SC7AC1 INTMT -RA PRESFR SLP202

CYGK;2015-12-13 20:00;CYGK 132000Z 06014G19KT 6SM -RA BR BKN024 OVC049 04/00 A3011 RMK SC6SC2 SLP198

CYGK;2015-12-13 21:00;CYGK 132100Z 05011KT 12SM SCT025 OVC040 04/01 A3009 RMK SC4SC4 SLP191

CYGK;2015-12-13 22:00;CYGK 132200Z 04008KT 010V070 15SM -RA OVC023 04/01 A3007 RMK SC8 SLP187

CYGK;2015-12-13 23:00;CYGK 132300Z 05010KT 15SM -RA OVC016 04/01 A3006 RMK SC8 SLP181

CYGK;2015-12-13 23:55;CYGK 132355Z 06008KT 15SM OVC016 04/01 A3004 RMK SC8 SLP175

CYGK;2015-12-14 00:00;CYGK 140000Z 05007KT 020V080 15SM OVC017 04/01 A3004 RMK SC8 SLP176

CYGK;2015-12-14 01:00;CYGK 140100Z 05006KT 15SM SCT018 OVC043 04/01 A3001 RMK SC3SC5 SLP166

CYGK;2015-12-14 02:00;CYGK 140200Z 04006KT 15SM OVC033 04/01 A2999 RMK SC8 PRESFR SLP160

CYGK;2015-12-14 03:00;CYGK 140300Z 03005KT 15SM FEW030 OVC057 04/02 A2998 RMK SC2SC6 SLP155

CYGK;2015-12-14 04:00;CYGK 140400Z 04006KT 15SM FEW030 OVC050 05/02 A2996 RMK SC2SC6 LAST STFD OBS/NEXT 141100 UTC SLP148

CYGK;2015-12-14 11:00;CYGK 141100Z 05006KT 15SM OVC200 04/02 A2979 RMK CI8 PRESFR SLP090

CYGK;2015-12-14 12:00;CYGK 141200Z 07005KT 15SM OVC200 04/02 A2977 RMK CI8 SLP083

CYGK;2015-12-14 13:00;CYGK 141300Z 03006KT 15SM FEW160 OVC220 05/02 A2976 RMK AC2CI6 SLP079

CYGK;2015-12-14 14:00;CYGK 141400Z 06004KT 15SM BKN180 OVC230 05/03 A2973 RMK AC5CI3 SLP072

CYGK;2015-12-14 15:00;CYGK 141500Z 08004KT 15SM SCT180 OVC230 07/04 A2971 RMK AC4CI4 SLP063

CYGK;2015-12-14 16:00;CYGK 141600Z 12006KT 15SM OVC220 10/08 A2968 RMK CI8 SLP053

CYGK;2015-12-14 17:00;CYGK 141700Z 14007KT 15SM SCT180 BKN220 11/09 A2965 RMK AC3CI4 SLP043

CYGK;2015-12-14 18:00;CYGK 141800Z 14007KT 15SM OVC220 12/09 A2960 RMK CI8 PRESFR SLP024

CYGK;2015-12-14 19:00;CYGK 141900Z 15004KT 12SM FEW180 BKN220 11/08 A2958 RMK AC2CI4 PRESFR SLP018

CYGK;2015-12-14 20:00;CYGK 142000Z 14010G17KT 15SM FEW040 SCT077 BKN200 12/09 A2953 RMK CU1AC2CI4 PRESRR SLP003 DENSITY ALT 400FT

CYGK;2015-12-14 21:00;CYGK 142100Z 12010KT 15SM FEW040 BKN075 OVC200 13/09 A2948 RMK CU1AC4CI3 SLP986 DENSITY ALT 500FT

CYGK;2015-12-14 21:32;CYGK 142132Z 13007KT 12SM -RA BKN070 OVC160 14/09 A2947 RMK AC5AC3 PRESRR SLP980 DENSITY ALT 700FT

CYGK;2015-12-14 22:00;CYGK 142200Z 12006KT 12SM -RA BKN065 OVC100 13/10 A2946 RMK SC6AC2 SLP978 DENSITY ALT 600FT

CYGK;2015-12-14 23:00;CYGK 142300Z 17005KT 140V200 10SM -RA OVC080 12/09 A2946 RMK AC8 SLP977 DENSITY ALT 500FT

CYGK;2015-12-15 00:00;CYGK 150000Z 16013G22KT 8SM SCT027 OVC045 11/10 A2939 RMK SC3SC5 INTMT -RA PRESFR SLP955 DENSITY ALT 500FT

CYGK;2015-12-15 01:00;CYGK 150100Z 13016G21KT 8SM SCT028 OVC050 12/11 A2932 RMK SC3SC5 PRESFR SLP929 DENSITY ALT 700FT

CYGK;2015-12-15 01:21;CYGK 150121Z 13016G24KT 8SM -RA BKN045 OVC085 13/11 A2930 RMK SC7AC1 PRESFR SLP923 DENSITY ALT 800FT

CYGK;2015-12-15 02:00;CYGK 150200Z 19012G18KT 4SM -RA BR FEW006 BKN014 OVC030 11/11 A2931 RMK SF1SC6SC1 SLP927 DENSITY ALT 600FT

CYGK;2015-12-15 02:08;CYGK 150208Z 19009G15KT 2 1/2SM -RA BR FEW006 OVC011 11/10 A2931 RMK SF1SC7 SLP927 DENSITY ALT 600FT

CYGK;2015-12-15 02:16;CYGK 150216Z 19008KT 2SM -RA BR FEW002 OVC009 11/10 A2931 RMK SF1SF7 SLP928 DENSITY ALT 500FT

CYGK;2015-12-15 02:35;CYGK 150235Z 19019G25KT 6SM -RA BR FEW004 SCT008 OVC035 12/11 A2932 RMK SF2SF2SC4 SLP930 DENSITY ALT 700FT

CYGK;2015-12-15 03:00;CYGK 150300Z 24019G32KT 8SM -RA FEW007 SCT030 OVC080 12/10 A2932 RMK SF2SC2AC4 SLP930 DENSITY ALT 600FT

CYGK;2015-12-15 03:26;CYGK 150326Z 25012G20KT 15SM FEW030 OVC075 12/10 A2930 RMK SC1AC7 SLP925 DENSITY ALT 600FT

CYGK;2015-12-15 04:00;CYGK 150400Z 24014KT 15SM -RA FEW007 OVC080 10/09 A2933 RMK SF1AC8 SF TR LAST STFD OBS/NEXT 151100UTC PRESRR SLP933 DENSITY ALT 500FT

CYGK;2015-12-15 11:00;CYGK 151100Z 25016G25KT 12SM -RA OVC030 09/06 A2939 RMK SC8 SLP952

CYGK;2015-12-15 12:00;CYGK 151200Z 24013G22KT 12SM -RA FEW017 OVC038 08/06 A2939 RMK SC2SC6 SLP953

CYGK;2015-12-15 12:16;CYGK 151216Z 24015G22KT 15SM FEW018 OVC033 08/06 A2939 RMK SC2SC6 SLP955

CYGK;2015-12-15 12:40;CYGK 151240Z 24016G23KT 12SM -RA BKN018 OVC030 08/06 A2940 RMK SC5SC3 SLP957

CYGK;2015-12-15 13:00;CYGK 151300Z 25018G28KT 10SM -RA BKN016 OVC030 08/06 A2941 RMK SC6SC2 SLP959

CYGK;2015-12-15 14:00;CYGK 151400Z 25018G26KT 10SM -RA BKN014 OVC030 08/06 A2942 RMK SC7SC1 SLP964

CYGK;2015-12-15 14:43;CYGK 151443Z 26015G27KT 10SM OVC013 08/06 A2944 RMK SC8 SLP969

CYGK;2015-12-15 15:00;CYGK 151500Z 25014G28KT 8SM OVC012 08/06 A2945 RMK SC8 CIG RAG PRESRR SLP974

CYGK;2015-12-15 15:07;CYGK 151507Z 26017G25KT 8SM -RA OVC010 08/06 A2946 RMK SC8 CIG RAG PRESRR SLP977

CYGK;2015-12-15 15:39;CYGK 151539Z 28018G27KT 15SM OVC013 07/04 A2950 RMK SC8 INTMT -RA PRESRR SLP990

CYGK;2015-12-15 16:00;CYGK 151600Z 27016G21KT 15SM BKN015 OVC025 07/04 A2950 RMK SC5SC3 INTMT -RA SLP993

CYGK;2015-12-15 16:28;CYGK 151628Z 28017G22KT 15SM SCT013 OVC020 07/03 A2952 RMK SC3SC5 SLP999

CYGK;2015-12-15 16:53;CYGK 151653Z 27016G26KT 15SM -RA OVC020 06/03 A2954 RMK SC8 -RA INTMT SLP005

CYGK;2015-12-15 17:00;CYGK 151700Z 29014G24KT 15SM -RA OVC019 06/03 A2955 RMK SC8 -RA INTMT SLP007

CYGK;2015-12-15 18:00;CYGK 151800Z 29012G19KT 15SM BKN025 OVC060 07/01 A2959 RMK SC6SC2 SLP023

CYGK;2015-12-15 19:00;CYGK 151900Z 29015G21KT 15SM BKN030 OVC057 06/01 A2963 RMK SC5SC3 SLP037

CYGK;2015-12-15 20:00;CYGK 152000Z 30013G19KT 15SM BKN028 OVC060 06/00 A2968 RMK SC6SC2 SLP054

CYGK;2015-12-15 21:00;CYGK 152100Z 32013G22KT 15SM FEW028 BKN048 06/M00 A2974 RMK SC2SC4 SLP073

CYGK;2015-12-15 22:00;CYGK 152200Z 35009G15KT 15SM FEW025 BKN045 05/M01 A2979 RMK SC1SC6 SLP091

CYGK;2015-12-15 23:00;CYGK 152300Z 32011G17KT 15SM FEW027 BKN046 04/M01 A2984 RMK SC2SC5 SLP107

CYGK;2015-12-16 00:00;CYGK 160000Z 33010G16KT 15SM FEW025 BKN046 03/M02 A2988 RMK SC1SC6 PRESRR SLP122

CYGK;2015-12-16 01:00;CYGK 160100Z 33009KT 15SM FEW025 OVC046 03/M02 A2993 RMK SC1SC7 SLP136

CYGK;2015-12-16 02:00;CYGK 160200Z 34011KT 15SM FEW025 OVC046 02/M03 A2995 RMK SC1SC7 SLP144

CYGK;2015-12-16 03:00;CYGK 160300Z 35008KT 15SM FEW025 OVC046 02/M03 A2997 RMK SC1SC7 SLP153

CYGK;2015-12-16 04:00;CYGK 160400Z 01008KT 15SM SCT023 OVC044 02/M03 A3000 RMK SC3SC5 LAST STFD OBS/NEXT 161100UTC SLP161

CYGK;2015-12-16 11:00;CYGK 161100Z 01007KT 4SM -SN FEW009 OVC029 M01/M03 A3014 RMK SF1SC7 SLP210

CYGK;2015-12-16 11:52;CYGK 161152Z 03005KT 15SM FEW009 FEW030 M02/M03 A3015 RMK SF1SC1 SLP213

CYGK;2015-12-16 12:00;CYGK 161200Z 03004KT 15SM FEW009 FEW030 M02/M03 A3015 RMK SF1SC1 SLP213

CYGK;2015-12-16 13:00;CYGK 161300Z 03004KT 15SM FEW010 FEW030 M02/M03 A3017 RMK SF1SC1 SLP221

CYGK;2015-12-16 14:00;CYGK 161400Z 05007KT 15SM FEW008 FEW030 M01/M03 A3015 RMK SF1SC1 SC TR SLP214

CYGK;2015-12-16 15:00;CYGK 161500Z 05009KT 15SM FEW008 BKN013 01/M03 A3016 RMK SF1SC6 SF TR SLP217

CYGK;2015-12-16 16:00;CYGK 161600Z 07011G16KT 15SM SCT013 BKN033 01/M02 A3014 RMK SC4SC3 SLP211

CYGK;2015-12-16 17:00;CYGK 161700Z 07008KT 15SM SCT013 BKN033 BKN250 02/M01 A3012 RMK SC3SC3CI1 SLP202

CYGK;2015-12-16 18:00;CYGK 161800Z 08009KT 15SM FEW013 BKN031 03/M01 A3008 RMK SC1SC6 SLP189

CYGK;2015-12-16 19:00;CYGK 161900Z 07009KT 15SM FEW015 OVC031 03/M01 A3006 RMK SC1SC7 SLP184

CYGK;2015-12-16 20:00;CYGK 162000Z 06010KT 15SM OVC032 03/M01 A3003 RMK SC8 SLP176

CYGK;2015-12-16 21:00;CYGK 162100Z 09007KT 15SM OVC028 03/M00 A3004 RMK SC8 SLP178

CYGK;2015-12-16 22:00;CYGK 162200Z 06007KT 15SM OVC028 03/M00 A3004 RMK SC8 SLP177

CYGK;2015-12-16 23:00;CYGK 162300Z 06009KT 14SM OVC028 03/M00 A3000 RMK SC8 SLP166

CYGK;2015-12-17 00:00;CYGK 170000Z 09009KT 15SM OVC026 04/01 A2997 RMK SC8 PRESFR SLP153

CYGK;2015-12-17 01:00;CYGK 170100Z 11008KT 15SM OVC025 05/02 A2994 RMK SC8 PRESFR SLP142

CYGK;2015-12-17 02:00;CYGK 170200Z 14013KT 15SM OVC028 06/02 A2990 RMK SC8 SLP131

CYGK;2015-12-17 03:00;CYGK 170300Z 15013KT 15SM OVC028 07/03 A2989 RMK SC8 SLP126

CYGK;2015-12-17 04:00;CYGK 170400Z 15015KT 15SM OVC027 07/04 A2986 RMK SC8 LAST STFD OBS/NEXT 171100 UTC PRESFR SLP117

CYGK;2015-12-17 11:00;CYGK 171100Z 17015G20KT 15SM -RA OVC036 08/05 A2976 RMK SC8 SLP082

CYGK;2015-12-17 12:00;CYGK 171200Z 17016G23KT 15SM -RA BKN037 OVC072 08/05 A2977 RMK SC6AC2 SLP083

CYGK;2015-12-17 13:00;CYGK 171300Z 17017G24KT 8SM -RA FEW010 OVC032 07/06 A2977 RMK SF1SC8 SF TR SLP084

CYGK;2015-12-17 14:00;CYGK 171400Z 17015G22KT 5SM -RA BR OVC027 07/06 A2976 RMK SC8 SLP081

CYGK;2015-12-17 14:45;CYGK 171445Z 17017G25KT 4SM -RA BR FEW006 OVC021 07/06 A2977 RMK SF1SC8 SF TR SLP083

CYGK;2015-12-17 15:00;CYGK 171500Z 17018KT 3SM -RA BR FEW006 OVC020 07/06 A2976 RMK SF1SC8 SF TR SLP082

CYGK;2015-12-17 16:00;CYGK 171600Z 17014G19KT 4SM -RA BR SCT006 OVC018 07/07 A2972 RMK SF4SC4 PRESFR SLP069

CYGK;2015-12-17 16:16;CYGK 171616Z 16015KT 3SM -RA BR BKN005 OVC017 08/07 A2971 RMK SF5SC3 CIG RAG SLP065

CYGK;2015-12-17 16:50;CYGK 171650Z 18014G22KT 6SM BR SCT005 OVC017 08/07 A2971 RMK SF4SC4 SLP065

CYGK;2015-12-17 17:00;CYGK 171700Z 18014G21KT 6SM BR BKN005 OVC016 08/07 A2971 RMK SF5SC3 SLP066

CYGK;2015-12-17 17:22;CYGK 171722Z 18013G20KT 4SM -RA BR BKN004 OVC016 08/07 A2969 RMK SF5SC3 PRESFR SLP057

CYGK;2015-12-17 18:00;CYGK 171800Z 18011G18KT 2SM -RA BR BKN003 OVC013 08/07 A2968 RMK SF6SC2 CIG RAG SLP055

CYGK;2015-12-17 18:37;CYGK 171837Z 18012G17KT 5SM BR SCT005 OVC013 08/07 A2968 RMK SF3SC5 SLP054

CYGK;2015-12-17 19:00;CYGK 171900Z 19012KT 2 1/2SM -RA BR FEW005 OVC015 08/07 A2967 RMK SF2SC6 SLP050

CYGK;2015-12-17 19:41;CYGK 171941Z 19011KT 2 1/2SM -DZ DRDU BKN005 OVC012 08/07 A2966 RMK SF6SC2 SLP049

CYGK;2015-12-17 20:00;CYGK 172000Z 19011KT 2SM -DZ BR SCT006 OVC017 08/07 A2966 RMK SF3SC5 SLP048

CYGK;2015-12-17 20:33;CYGK 172033Z 19009KT 2SM -DZ BR BKN004 OVC014 08/07 A2966 RMK SF5SC3 CIG RAG SLP048

CYGK;2015-12-17 20:54;CYGK 172054Z 19010KT 1 3/4SM -DZ BR OVC002 08/08 A2966 RMK SF8 SLP048

CYGK;2015-12-17 21:00;CYGK 172100Z 20011KT 1 1/2SM -DZ BR OVC002 08/08 A2966 RMK SF8 CIG RAG SLP048

CYGK;2015-12-17 22:00;CYGK 172200Z 21009KT 3SM -DZ BR OVC002 08/08 A2966 RMK SF8 SLP048

CYGK;2015-12-17 22:23;CYGK 172223Z 23008KT 6SM -DZ BR BKN003 OVC015 08/08 A2966 RMK SF5SC3 SLP048

CYGK;2015-12-17 22:50;CYGK 172250Z 23006KT 8SM SCT004 OVC018 08/07 A2966 RMK SF4SC4 SLP049

CYGK;2015-12-17 23:00;CYGK 172300Z 23008KT 10SM FEW004 OVC020 08/07 A2967 RMK SF2SC6 SLP051

CYGK;2015-12-17 23:37;CYGK 172337Z 24011KT 15SM SCT020 OVC035 08/05 A2968 RMK SC3SC5 SLP053

CYGK;2015-12-18 00:00;CYGK 180000Z 26011KT 15SM SCT025 BKN040 OVC070 07/04 A2968 RMK SC3SC2AC3 SLP054

CYGK;2015-12-18 01:00;CYGK 180100Z 29008KT 15SM SCT030 BKN065 06/01 A2970 RMK CU3SC2 SLP061

CYGK;2015-12-18 02:00;CYGK 180200Z 27005KT 15SM FEW040 SCT060 04/00 A2973 RMK CU2SC2 SLP071

CYGK;2015-12-18 03:00;CYGK 180300Z 28005KT 15SM BKN045 04/00 A2974 RMK SC6 SLP074

CYGK;2015-12-18 04:00;CYGK 180400Z 29007KT 15SM OVC045 04/M00 A2974 RMK SC8 LAST STFD OBS/NEXT 181100 UTC SLP074

CYGK;2015-12-18 11:00;CYGK 181100Z 27006KT 15SM OVC047 02/M03 A2979 RMK SC8 SLP093

CYGK;2015-12-18 12:00;CYGK 181200Z 27008KT 15SM OVC049 02/M03 A2980 RMK SC8 SLP095

CYGK;2015-12-18 13:00;CYGK 181300Z 27007KT 15SM OVC052 02/M04 A2980 RMK SC8 SLP097

CYGK;2015-12-18 14:00;CYGK 181400Z 28009KT 15SM OVC050 02/M04 A2981 RMK SC8 SLP100

CYGK;2015-12-18 15:00;CYGK 181500Z 31007KT 15SM FEW030 BKN050 03/M05 A2981 RMK CU1SC6 SLP099

CYGK;2015-12-18 16:00;CYGK 181600Z 26008KT 250V310 15SM FEW035 BKN049 03/M05 A2980 RMK CU1SC5 SLP095

CYGK;2015-12-18 17:00;CYGK 181700Z 26009KT 230V290 15SM FEW036 BKN044 03/M06 A2978 RMK CU1SC5 SLP089

CYGK;2015-12-18 18:00;CYGK 181800Z 27009KT 230V290 15SM BKN047 03/M06 A2976 RMK SC7 SLP083

CYGK;2015-12-18 19:00;CYGK 181900Z 29010KT 15SM BKN041 02/M06 A2975 RMK SC7 SLP080

CYGK;2015-12-18 20:00;CYGK 182000Z 27008KT 240V300 15SM BKN043 BKN240 02/M07 A2975 RMK SC7CI1 CI TR SLP080

CYGK;2015-12-18 21:00;CYGK 182100Z 25007KT 15SM FEW045 BKN051 02/M07 A2975 RMK CU1SC5 SLP080

CYGK;2015-12-18 22:00;CYGK 182200Z 26009KT 15SM BKN055 BKN240 02/M07 A2975 RMK SC5CI1 CI TR SLP079

CYGK;2015-12-18 23:00;CYGK 182300Z 26008KT 15SM SCT055 BKN180 02/M06 A2976 RMK SC3AC3 SLP083

CYGK;2015-12-19 00:00;CYGK 190000Z 27008KT 15SM FEW055 BKN160 01/M07 A2977 RMK SC2AC4 SLP086

CYGK;2015-12-19 01:00;CYGK 190100Z 27007KT 15SM BKN068 01/M06 A2977 RMK AC6 SLP086

CYGK;2015-12-19 02:00;CYGK 190200Z 27008KT 15SM BKN068 BKN140 01/M07 A2977 RMK AC6AC1 SLP088

CYGK;2015-12-19 03:00;CYGK 190300Z 27008KT 15SM OVC080 01/M06 A2977 RMK AC8 SLP086

CYGK;2015-12-19 04:00;CYGK 190400Z 27009KT 15SM SCT080 SCT160 00/M06 A2977 RMK AC3AC1 LAST STFD OBS/NEXT 191100 UTC SLP088

CYGK;2015-12-19 11:00;CYGK 191100Z 26013G18KT 15SM FEW090 M02/M09 A2986 RMK AC2 SLP118

CYGK;2015-12-19 12:00;CYGK 191200Z 26010G17KT 15SM FEW015 FEW030 FEW190 M03/M09 A2988 RMK CF1SC1AC1 CF TR SLP123

CYGK;2015-12-19 13:00;CYGK 191300Z 27011G17KT 15SM FEW015 FEW030 FEW190 SCT230 M03/M09 A2988 RMK CF1SC1AC1CI2 CF TR SLP126

CYGK;2015-12-19 14:00;CYGK 191400Z 27017G23KT 15SM FEW015 FEW030 FEW230 M02/M09 A2990 RMK CU1SC1CI1 CI TR SLP132

CYGK;2015-12-19 15:00;CYGK 191500Z 26019G28KT 15SM FEW015 FEW030 M01/M09 A2992 RMK CU1SC1 SLP139

CYGK;2015-12-19 16:00;CYGK 191600Z 26013G23KT 15SM FEW030 FEW070 FEW230 M00/M09 A2993 RMK CU1AC1CI1 AC TR SLP140

CYGK;2015-12-19 17:00;CYGK 191700Z 27016G25KT 15SM SCT036 SCT130 BKN230 M01/M10 A2992 RMK CU3AC1CI1 SLP138

CYGK;2015-12-19 18:00;CYGK 191800Z 25019G26KT 15SM BKN039 BKN230 00/M08 A2992 RMK CU7CI1 CI TR SHWRS NW-NE SLP139

CYGK;2015-12-19 19:00;CYGK 191900Z 27016G27KT 15SM VCSH FEW040 BKN080 OVC110 M00/M09 A2994 RMK CU2AC4AC2 SH NW-NE SLP145

CYGK;2015-12-19 20:00;CYGK 192000Z 25020G28KT 15SM BKN040 BKN075 BKN110 00/M09 A2996 RMK CU5AC1AC1 SH DIST N-NE SLP151

CYGK;2015-12-19 21:00;CYGK 192100Z 25020G28KT 15SM BKN040 BKN080 00/M09 A2999 RMK CU5AC2 SLP160

CYGK;2015-12-19 22:00;CYGK 192200Z 27017G26KT 15SM FEW040 SCT060 M01/M10 A3001 RMK CU1SC2 SLP169

CYGK;2015-12-19 23:00;CYGK 192300Z 25017G25KT 15SM SCT040 BKN060 M01/M08 A3005 RMK SC3SC4 SLP183

CYGK;2015-12-19 23:44;CYGK 192344Z 25022G29KT 15SM -SHSN OVC040 M01/M08 A3008 RMK CU8 SLP192

CYGK;2015-12-20 00:00;CYGK 200000Z 25019G27KT 15SM -SHSN FEW028 OVC038 M01/M07 A3009 RMK SC1CU7 SLP195

CYGK;2015-12-20 01:00;CYGK 200100Z 26015G25KT 15SM -SHSN FEW028 OVC040 M01/M07 A3012 RMK SC2CU6 SLP207

CYGK;2015-12-20 02:00;CYGK 200200Z 27014G21KT 12SM -SHSN OVC027 M01/M07 A3015 RMK CU8 SLP215

CYGK;2015-12-20 03:00;CYGK 200300Z 26016KT 4SM -SHSN DRSN OVC021 M02/M06 A3017 RMK CU8 SLP223

CYGK;2015-12-20 03:23;CYGK 200323Z 25013KT 2SM -SHSN DRSN FEW012 OVC020 M02/M05 A3018 RMK SF1CU7 SLP227

CYGK;2015-12-20 03:45;CYGK 200345Z 26010G17KT 1SM -SHSN DRSN OVC018 M02/M05 A3019 RMK SN2CU6 SLP230

CYGK;2015-12-20 04:00;CYGK 200400Z 26012G21KT 1SM -SHSN DRSN FEW012 OVC019 M02/M05 A3020 RMK SF1CU7 LAST STFD OBS / NEXT 201100 UTC SLP233

CYGK;2015-12-20 11:00;CYGK 201100Z 27008G15KT 15SM FEW015 OVC035 M02/M05 A3039 RMK CF1SC7 /S01 AFT 00Z/ SLP297

CYGK;2015-12-20 12:00;CYGK 201200Z 27005KT 15SM FEW020 OVC039 M02/M05 A3041 RMK CF1SC7 SLP303

CYGK;2015-12-20 13:00;CYGK 201300Z 28006KT 15SM FEW030 OVC039 M01/M05 A3042 RMK CU1SC7 SLP308

CYGK;2015-12-20 14:00;CYGK 201400Z 29005KT 15SM FEW020 OVC038 M01/M05 A3042 RMK CF1SC8 CF TR SLP308

CYGK;2015-12-20 15:00;CYGK 201500Z 27005KT 220V300 15SM FEW020 BKN038 M01/M05 A3043 RMK CF1SC7 CF TR SLP311

CYGK;2015-12-20 16:00;CYGK 201600Z 28003KT 220V340 15SM FEW020 BKN040 BKN100 00/M05 A3043 RMK CF1SC7AC1 CF TR AC TR SLP311

CYGK;2015-12-20 17:00;CYGK 201700Z 21004KT 170V250 15SM FEW020 BKN037 BKN100 BKN200 01/M05 A3040 RMK CF1SC6AC1CI1 CF TR CI TR SLP301

CYGK;2015-12-20 18:00;CYGK 201800Z 21006KT 15SM BKN029 BKN200 01/M05 A3037 RMK CU7CI1 CI TR SLP290

CYGK;2015-12-20 19:00;CYGK 201900Z 20010KT 15SM BKN025 OVC200 01/M04 A3035 RMK CU7CI1 SLP282

CYGK;2015-12-20 20:00;CYGK 202000Z 21014KT 15SM SCT030 BKN140 BKN200 02/M05 A3034 RMK CU3AC3CI1 SLP279

CYGK;2015-12-20 21:00;CYGK 202100Z 21014KT 15SM SCT030 BKN140 BKN220 02/M05 A3032 RMK CU3AC2CI2 SLP274

CYGK;2015-12-20 22:00;CYGK 202200Z 20014G20KT 15SM FEW140 BKN210 02/M05 A3032 RMK AC2CI4 SLP272

CYGK;2015-12-20 23:00;CYGK 202300Z 18017G22KT 15SM BKN250 03/M04 A3030 RMK CS7 SLP265

CYGK;2015-12-21 00:00;CYGK 210000Z 18018G25KT 15SM BKN240 03/M04 A3026 RMK CS6 SLP252

CYGK;2015-12-21 01:00;CYGK 210100Z 17023KT 15SM SCT240 04/M03 A3023 RMK CS4 SLP242

CYGK;2015-12-21 02:00;CYGK 210200Z 18023G30KT 15SM FEW140 SCT230 04/M03 A3019 RMK AC1CS3 PRESFR SLP228

CYGK;2015-12-21 03:00;CYGK 210300Z 18022G28KT 15SM FEW140 SCT240 04/M03 A3015 RMK AC1CS3 SLP216

CYGK;2015-12-21 04:00;CYGK 210400Z 18020G28KT 15SM FEW140 SCT250 04/M03 A3014 RMK AC2CS1 LAST STFD OBS/NEXT 211100 UTC SLP213

CYGK;2015-12-21 11:00;CYGK 211100Z 19019G25KT 15SM FEW050 OVC180 06/M01 A3000 RMK SC2AC6 SLP165

CYGK;2015-12-21 12:00;CYGK 211200Z 18018G25KT 15SM BKN050 OVC180 07/M00 A2999 RMK SC5AC3 SLP160

CYGK;2015-12-21 13:00;CYGK 211300Z 19018G24KT 15SM OVC045 07/00 A2997 RMK SC8 SLP155

CYGK;2015-12-21 14:00;CYGK 211400Z 19018G25KT 15SM -RA BKN043 OVC052 07/01 A2996 RMK SC6SC2 SLP150

CYGK;2015-12-21 15:00;CYGK 211500Z 21014G20KT 15SM OVC043 07/01 A2997 RMK SC8 INTMT -RA SLP152

CYGK;2015-12-21 16:00;CYGK 211600Z 19015G20KT 15SM -RA OVC045 06/02 A2996 RMK SC8 SLP151

CYGK;2015-12-21 17:00;CYGK 211700Z 19012KT 15SM BKN045 OVC060 07/02 A2993 RMK SC6SC2 INTMT -RA PRESFR SLP139

CYGK;2015-12-21 18:00;CYGK 211800Z 19014KT 15SM BKN052 OVC065 07/02 A2988 RMK SC7SC1 INTMT -RA SLP124

CYGK;2015-12-21 19:00;CYGK 211900Z 19016G21KT 15SM OVC043 07/01 A2987 RMK SC8 INTMT -RA SLP120

CYGK;2015-12-21 20:00;CYGK 212000Z 21014G23KT 5SM -RA BR OVC021 06/04 A2988 RMK NS8 SLP122

CYGK;2015-12-21 20:12;CYGK 212012Z 21013KT 3SM -RA BR BKN005 OVC017 06/04 A2988 RMK SF5SC3 SLP122

CYGK;2015-12-21 20:23;CYGK 212023Z 21011KT 2 1/2SM -RA BR VCFG BKN003 OVC017 06/05 A2988 RMK SF5NS3 FG BANK S CIG RAG SLP121

CYGK;2015-12-21 20:48;CYGK 212048Z 22007KT 5SM -RA BR SCT003 BKN006 OVC011 06/05 A2987 RMK SF4SF3SC1 SLP120

CYGK;2015-12-21 21:00;CYGK 212100Z 22006KT 5SM -RA BR SCT003 BKN006 OVC010 06/05 A2987 RMK SF3SF4SC1 SLP120

CYGK;2015-12-21 21:28;CYGK 212128Z 22007KT 2 1/2SM -RA BR SCT003 OVC005 06/05 A2987 RMK SF3NS5 SLP119

CYGK;2015-12-21 22:00;CYGK 212200Z 22006KT 3SM -RA BR BKN003 OVC005 06/05 A2988 RMK SF5NS3 SLP121

CYGK;2015-12-21 23:00;CYGK 212300Z 19008KT 2 1/2SM -RADZ BR OVC003 06/05 A2988 RMK SF8 SLP124

CYGK;2015-12-21 23:08;CYGK 212308Z 21007KT 2SM RADZ BR OVC002 06/05 A2989 RMK SF8 SLP125

CYGK;2015-12-21 23:25;CYGK 212325Z 21009KT 1 1/4SM -RADZ BR OVC002 06/06 A2989 RMK SF8 SLP126

CYGK;2015-12-22 00:00;CYGK 220000Z 20008KT 1SM -RADZ BR OVC002 06/06 A2989 RMK SF8 SLP127

CYGK;2015-12-22 01:00;CYGK 220100Z 22006KT 1 1/2SM -RADZ BR OVC002 07/06 A2990 RMK SF8 SLP128

CYGK;2015-12-22 01:49;CYGK 220149Z 21008KT 4SM -DZ BR OVC003 07/06 A2989 RMK SF8 SLP127

CYGK;2015-12-22 02:00;CYGK 220200Z 21007KT 3SM -DZ BR BKN003 OVC005 07/06 A2989 RMK SF5ST3 SLP125

CYGK;2015-12-22 02:26;CYGK 220226Z 20008KT 1 1/2SM -DZ BR BKN002 OVC005 07/07 A2989 RMK SF5ST3 SLP126

CYGK;2015-12-22 02:37;CYGK 220237Z 20008KT 1SM DZ BR OVC002 07/06 A2989 RMK SF8 SLP126

CYGK;2015-12-22 03:04;CYGK 220304Z 19009KT 1/2SM FG VV002 07/06 A2990 RMK FG8 SLP128

CYGK;2015-12-22 03:30;CYGK 220330Z 20009KT 3/4SM BR VV002 07/07 A2991 RMK FG8 SLP131

CYGK;2015-12-22 03:41;CYGK 220341Z 20009KT 1/2SM FG VV002 07/07 A2990 RMK FG8 SLP130

CYGK;2015-12-22 03:49;CYGK 220349Z 20009KT 3/4SM -RA BR VV002 07/07 A2991 RMK FG8 SLP131

CYGK;2015-12-22 04:00;CYGK 220400Z 20007KT 3/4SM -RA BR OVC002 07/07 A2990 RMK SF8 LAST STFD OBS / NEXT 221100 UTC SLP129

CYGK;2015-12-22 11:00;CYGK 221100Z 18009KT 15SM OVC028 08/06 A2984 RMK SC8 SLP110

CYGK;2015-12-22 12:00;CYGK 221200Z 31003KT 250V330 15SM OVC026 08/06 A2985 RMK SC8 SLP112

CYGK;2015-12-22 13:00;CYGK 221300Z 18006KT 160V230 15SM OVC029 08/06 A2983 RMK SC8 SLP106

CYGK;2015-12-22 14:00;CYGK 221400Z 16009KT 15SM OVC027 08/06 A2982 RMK SC8 SLP102

CYGK;2015-12-22 14:29;CYGK 221429Z 24003KT 160V290 15SM FEW008 OVC028 08/06 A2983 RMK SF2SC6 SLP104

CYGK;2015-12-22 14:40;CYGK 221440Z 30003KT 240V350 12SM -DZ BKN007 OVC028 08/06 A2983 RMK SF5SC3 SLP104

CYGK;2015-12-22 14:52;CYGK 221452Z VRB02KT 12SM -RA BKN004 OVC028 07/06 A2983 RMK SF6SC2 SLP105

CYGK;2015-12-22 15:00;CYGK 221500Z 00000KT 10SM -RA BKN004 OVC028 07/06 A2983 RMK SF6SC2 SLP104

CYGK;2015-12-22 16:00;CYGK 221600Z VRB02KT 10SM OVC003 07/06 A2981 RMK SF8 INTMT -RA SLP097

CYGK;2015-12-22 17:00;CYGK 221700Z 17005KT 8SM OVC002 07/07 A2976 RMK SF8 SLP082

CYGK;2015-12-22 18:00;CYGK 221800Z 20004KT 180V270 4SM -RA BR OVC002 08/07 A2975 RMK SF8 CIG RAG SLP079

CYGK;2015-12-22 19:00;CYGK 221900Z 24005KT 180V260 4SM -RA BR OVC002 OVC030 08/07 A2977 RMK SF8SC1 SC TR PRESRR SLP084

CYGK;2015-12-22 19:32;CYGK 221932Z 20005KT 5SM BR BKN004 OVC008 08/08 A2978 RMK SF7SF1 INTMT -RA SLP087

CYGK;2015-12-22 20:00;CYGK 222000Z 20006KT 6SM BR BKN004 08/08 A2979 RMK SF7 VIS S 15 CIG RAG SLP091

CYGK;2015-12-22 20:09;CYGK 222009Z 20006KT 6SM -RA BR OVC004 08/08 A2979 RMK SF8 VIS S 15 CIG RAG SLP091

CYGK;2015-12-22 20:39;CYGK 222039Z 20005KT 6SM BR FEW001 BKN004 OVC015 09/08 A2980 RMK SF2SF5SC1 VIS S 15 CIG RAG SLP094

CYGK;2015-12-22 21:00;CYGK 222100Z 21005KT 12SM FEW002 BKN004 OVC008 08/08 A2981 RMK SF1SF5SF2 CIG RAG SLP099

CYGK;2015-12-22 22:00;CYGK 222200Z 24006KT 8SM FEW002 OVC004 09/08 A2984 RMK SF1SF7 SLP108

CYGK;2015-12-22 22:13;CYGK 222213Z 23006KT 6SM BR OVC003 09/08 A2985 RMK SF8 CIG RAG SLP111

CYGK;2015-12-22 22:31;CYGK 222231Z 23008KT 5SM BR OVC002 09/08 A2986 RMK SF8 SLP115

CYGK;2015-12-22 23:00;CYGK 222300Z 23007KT 6SM BR BKN003 OVC050 09/09 A2988 RMK SF5SC3 CIG RAG SLP123

CYGK;2015-12-22 23:13;CYGK 222313Z 24007KT 8SM FEW003 BKN032 09/09 A2990 RMK SF2SC5 SLP127

CYGK;2015-12-23 00:00;CYGK 230000Z 25005KT 15SM FEW003 BKN058 09/08 A2992 RMK SF1SC6 SF TR PRESRR SLP136

CYGK;2015-12-23 01:00;CYGK 230100Z 25004KT 8SM MIFG SCT050 08/08 A2995 RMK SC4 SLP146

CYGK;2015-12-23 02:00;CYGK 230200Z 19008KT 4SM BR MIFG FEW004 BKN048 07/07 A2996 RMK SF1SC6 SLP150

CYGK;2015-12-23 03:00;CYGK 230300Z 22005KT 4SM BR MIFG FEW002 BKN023 06/06 A2997 RMK SF2SC4 SLP152

CYGK;2015-12-23 03:41;CYGK 230341Z 18004KT 2SM BR MIFG SCT001 BKN023 06/05 A2998 RMK FG2SF1SC3 SLP155

CYGK;2015-12-23 04:00;CYGK 230400Z 19003KT 1 1/2SM BR MIFG BKN038 06/05 A2999 RMK FG2SC4 LAST STFD OBS/NEXT 231100UTC PRESRR SLP161

CYGK;2015-12-23 11:00;CYGK 231100Z 04003KT 1SM BR SKC 04/04 A3004 RMK FG6 SLP177

CYGK;2015-12-23 12:00;CYGK 231200Z 04004KT 4SM BR MIFG SCT220 04/04 A3005 RMK CI4 VIS N 1 SLP182

CYGK;2015-12-23 12:07;CYGK 231207Z 04005KT 2SM BR MIFG FEW100 BKN220 04/04 A3005 RMK AC1CI6 AC TR VIS N 1 SLP181

CYGK;2015-12-23 12:30;CYGK 231230Z 03004KT 3SM BR MIFG FEW100 BKN220 05/04 A3006 RMK AC1CI6 AC TR VIS N 1 SLP183

CYGK;2015-12-23 13:00;CYGK 231300Z 03004KT 4SM BR MIFG FEW040 FEW100 BKN250 04/03 A3005 RMK SC1AC1CI6 AC TR SLP182

CYGK;2015-12-23 14:00;CYGK 231400Z 05005KT 6SM BR FEW040 OVC250 06/05 A3006 RMK SC2CI6 SLP183

CYGK;2015-12-23 15:00;CYGK 231500Z 05004KT 9SM BKN042 BKN250 07/07 A3005 RMK SC6CI1 SLP182

CYGK;2015-12-23 16:00;CYGK 231600Z 06006KT 12SM BKN040 OVC250 09/08 A3002 RMK SC5CI3 SLP168

CYGK;2015-12-23 17:00;CYGK 231700Z 07005KT 12SM SCT042 BKN073 BKN250 10/09 A2997 RMK SC4AC2CI1 SLP153

CYGK;2015-12-23 18:00;CYGK 231800Z 09004KT 15SM BKN042 OVC060 11/09 A2993 RMK SC5SC3 SLP140

CYGK;2015-12-23 19:00;CYGK 231900Z 13005KT 15SM -RA BKN043 OVC080 12/09 A2991 RMK SC7AC1 SLP133

CYGK;2015-12-23 20:00;CYGK 232000Z 13008KT 15SM OVC026 12/08 A2988 RMK SC8 INTMT -RA SLP122

CYGK;2015-12-23 21:00;CYGK 232100Z 12009KT 15SM FEW010 OVC025 12/09 A2986 RMK SF1SC7 INTMT -RA SLP115

CYGK;2015-12-23 22:00;CYGK 232200Z 13009G16KT 15SM BKN030 BKN080 12/09 A2985 RMK SC6AC1 INTMT -RA SLP111

CYGK;2015-12-23 23:00;CYGK 232300Z 12009G15KT 15SM -RA BKN020 OVC080 12/10 A2982 RMK SC5AC3 SLP100

CYGK;2015-12-24 00:00;CYGK 240000Z 14015G21KT 10SM -RA FEW020 OVC060 11/09 A2977 RMK SC1SC7 PRESFR SLP084

CYGK;2015-12-24 01:00;CYGK 240100Z 13015G24KT 15SM -RA FEW005 BKN035 OVC057 12/11 A2972 RMK SF1SC5SC2 SLP068

CYGK;2015-12-24 02:00;CYGK 240200Z 15012KT 15SM FEW035 BKN052 11/09 A2969 RMK SC2SC5 SLP059

CYGK;2015-12-24 03:00;CYGK 240300Z 16015G20KT 15SM FEW025 OVC050 10/09 A2969 RMK SC2SC6 SLP058

CYGK;2015-12-24 04:00;CYGK 240400Z 16011G18KT 15SM FEW004 BKN021 10/09 A2967 RMK SF1SC7 SF TR LAST STFD OBS/NEXT 241100UTC SLP051

CYGK;2015-12-24 11:00;CYGK 241100Z 17015KT 15SM FEW050 BKN180 11/10 A2954 RMK SC2AC4 SLP007

CYGK;2015-12-24 12:00;CYGK 241200Z 20018G25KT 15SM BKN049 13/11 A2961 RMK SC6 PRESRR SLP028 DENSITY ALT 400FT

CYGK;2015-12-24 13:00;CYGK 241300Z 19014KT 15SM FEW030 BKN050 11/09 A2963 RMK CU1SC5 SLP038

CYGK;2015-12-24 14:00;CYGK 241400Z 20012G18KT 15SM FEW030 SCT046 BKN240 11/09 A2967 RMK CU1SC3CI1 PRESRR SLP050

CYGK;2015-12-24 15:00;CYGK 241500Z 24015G23KT 15SM FEW030 SCT056 BKN240 14/09 A2972 RMK CU1SC3CI1 SLP067 DENSITY ALT 400FT

CYGK;2015-12-24 16:00;CYGK 241600Z 24024G33KT 15SM FEW037 SCT080 BKN240 14/09 A2976 RMK CU2AC1CI2 SLP081 DENSITY ALT 400FT

CYGK;2015-12-24 17:00;CYGK 241700Z 23022G33KT 15SM FEW042 BKN240 14/06 A2978 RMK CU1CI4 SLP088

CYGK;2015-12-24 18:00;CYGK 241800Z 24017G28KT 15SM FEW042 SCT240 12/06 A2982 RMK CU1CI2 PRESRR SLP101

CYGK;2015-12-24 19:00;CYGK 241900Z 24019G29KT 15SM SCT240 12/02 A2987 RMK CI3 SLP117

CYGK;2015-12-24 20:00;CYGK 242000Z 23021G29KT 15SM SCT250 11/00 A2989 RMK CI3 SLP124

CYGK;2015-12-24 21:00;CYGK 242100Z 23018G25KT 15SM SCT250 10/M01 A2994 RMK CI3 PRESRR SLP142

CYGK;2015-12-24 22:00;CYGK 242200Z 23018KT 15SM SCT250 09/01 A2999 RMK CI3 PRESRR SLP159

CYGK;2015-12-24 23:00;CYGK 242300Z 26017G29KT 15SM SCT250 09/M00 A3002 RMK CI3 SLP168

CYGK;2015-12-25 00:00;CYGK 250000Z 24011G16KT 15SM FEW250 08/01 A3003 RMK CI2 PRESRR SLP173

CYGK;2015-12-25 01:00;CYGK 250100Z 22005KT 15SM SKC 06/02 A3005 RMK SLP179

CYGK;2015-12-25 02:00;CYGK 250200Z 24004KT 15SM SKC 06/02 A3006 RMK SLP183

CYGK;2015-12-25 03:00;CYGK 250300Z 21010KT 15SM FEW160 06/03 A3008 RMK AC2 SLP191

CYGK;2015-12-25 04:00;CYGK 250400Z 24005KT 15SM BKN160 06/03 A3009 RMK AC5 LAST STFD OBS/NEXT 251100 UTC SLP194

CYGK;2015-12-25 11:00;CYGK 251100Z 21005KT 15SM -RA OVC070 06/04 A3012 RMK AC8 SLP203

CYGK;2015-12-25 12:00;CYGK 251200Z 22005KT 15SM -RA OVC078 06/04 A3013 RMK AC8 SLP207

CYGK;2015-12-25 12:10;CYGK 251210Z 22006KT 15SM OVC077 06/04 A3013 RMK AC8 SLP208

CYGK;2015-12-25 13:00;CYGK 251300Z 20006KT 15SM OVC072 06/04 A3013 RMK AC8 SLP209

CYGK;2015-12-25 14:00;CYGK 251400Z 24007KT 15SM OVC061 07/04 A3018 RMK SC8 PRESRR SLP224

CYGK;2015-12-25 15:00;CYGK 251500Z 24005KT 15SM OVC056 07/04 A3019 RMK SC8 SLP226

CYGK;2015-12-25 16:00;CYGK 251600Z 24006KT 15SM BKN060 OVC080 07/04 A3019 RMK SC7AC1 SLP228

CYGK;2015-12-25 17:00;CYGK 251700Z 26005KT 15SM FEW012 BKN056 OVC230 07/04 A3016 RMK CF1SC7CI1 CF TR PRESFR SLP216

CYGK;2015-12-25 18:00;CYGK 251800Z 23005KT 15SM OVC052 07/04 A3015 RMK SC8 SLP215

CYGK;2015-12-25 19:00;CYGK 251900Z 22007KT 15SM FEW010 BKN055 BKN250 08/04 A3016 RMK CF1SC6CI1 CF TR SLP218

CYGK;2015-12-25 20:00;CYGK 252000Z 23005KT 15SM SCT056 BKN160 08/04 A3016 RMK SC4AS3 SLP219

CYGK;2015-12-25 21:00;CYGK 252100Z 24003KT 15SM FEW020 SCT056 BKN160 BKN250 07/04 A3019 RMK CF1SC3AC2CI1 SLP229

CYGK;2015-12-25 22:00;CYGK 252200Z 27004KT 15SM FEW020 SCT056 SCT160 BKN240 07/03 A3024 RMK CF1SC2AC1CI3 SLP243

CYGK;2015-12-25 23:00;CYGK 252300Z 27006KT 15SM FEW050 OVC250 06/02 A3027 RMK SC2CS6 SLP255

CYGK;2015-12-26 00:00;CYGK 260000Z 27005KT 15SM BKN250 05/01 A3032 RMK CS6 SLP271

CYGK;2015-12-26 01:00;CYGK 260100Z 29003KT 15SM SCT250 04/00 A3034 RMK CS3 SLP279

CYGK;2015-12-26 02:00;CYGK 260200Z 31004KT 15SM FEW250 04/M00 A3035 RMK CS2 SLP283

CYGK;2015-12-26 03:00;CYGK 260300Z 30006KT 15SM FEW250 03/M01 A3038 RMK CI1 SLP292

CYGK;2015-12-26 04:00;CYGK 260400Z 32008KT 15SM FEW250 02/M02 A3040 RMK CS2 LAST STFD OBS/NEXT 261100 UTC SLP300

CYGK;2015-12-26 11:00;CYGK 261100Z 05003KT 15SM SCT250 M03/M04 A3052 RMK CI3 SLP342

CYGK;2015-12-26 12:00;CYGK 261200Z 02004KT 15SM BKN250 M03/M04 A3053 RMK CI6 SLP346

CYGK;2015-12-26 13:00;CYGK 261300Z 02004KT 15SM FEW020 FEW100 BKN250 M04/M05 A3054 RMK CU1AC1CI5 CU TR AC TR SLP349

CYGK;2015-12-26 14:00;CYGK 261400Z CCA 03005KT 15SM FEW020 FEW100 BKN250 M01/M02 A3056 RMK CU1AC1CI5 CU TR AC TR SLP356

CYGK;2015-12-26 15:00;CYGK 261500Z 06006KT 15SM FEW100 BKN250 01/M02 A3057 RMK AC1CI6 AC TR SLP359

CYGK;2015-12-26 16:00;CYGK 261600Z 05010KT 15SM FEW100 BKN250 03/M03 A3057 RMK AC1CI7 AC TR SLP357

CYGK;2015-12-26 17:00;CYGK 261700Z 03010KT 15SM FEW100 OVC200 03/M03 A3052 RMK AC2CS6 SLP340

CYGK;2015-12-26 18:00;CYGK 261800Z 04008KT 15SM SCT130 OVC230 04/M03 A3049 RMK AC3CS5 SLP330

CYGK;2015-12-26 19:00;CYGK 261900Z 06006KT 15SM BKN130 OVC230 04/M03 A3047 RMK AC6CS2 SLP324

CYGK;2015-12-26 20:00;CYGK 262000Z 07008KT 15SM SCT130 SCT170 OVC220 03/M03 A3044 RMK AC3AC1CS4 SLP315

CYGK;2015-12-26 21:00;CYGK 262100Z 03008KT 15SM SCT130 BKN190 OVC230 03/M03 A3044 RMK AC3AC3CI2 SLP314

CYGK;2015-12-26 22:00;CYGK 262200Z 03010KT 15SM BKN085 OVC130 03/M03 A3043 RMK AC5AC3 SLP311

CYGK;2015-12-26 23:05;CYGK 262305Z 04012KT 15SM -SN OVC071 02/M03 A3041 RMK AC8 SLP303

CYGK;2015-12-26 23:28;CYGK 262328Z 05011G17KT 15SM OVC064 02/M03 A3040 RMK NS8 SLP302

CYGK;2015-12-27 00:00;CYGK 270000Z 05013G18KT 12SM -RA OVC054 02/M03 A3040 RMK SC8 SLP301

CYGK;2015-12-27 00:42;CYGK 270042Z 06015KT 15SM OVC049 01/M03 A3036 RMK SC8 PRESFR SLP288

CYGK;2015-12-27 01:00;CYGK 270100Z CCA 06014G20KT 15SM -RA OVC046 01/M03 A3035 RMK SC8 -RA INTMT SLP284

CYGK;2015-12-27 01:47;CYGK 270147Z 06015G22KT 15SM OVC045 01/M03 A3029 RMK SC8 PRESFR SLP262

CYGK;2015-12-27 02:00;CYGK 270200Z 06014G22KT 15SM OVC042 01/M03 A3028 RMK SC8 PRESFR SLP258

CYGK;2015-12-27 03:00;CYGK 270300Z 06013KT 15SM OVC037 02/M02 A3022 RMK SC8 PRESFR SLP237

CYGK;2015-12-27 04:00;CYGK 270400Z 06012G18KT 15SM OVC032 02/M02 A3014 RMK SC8 LAST STFD OBS/NEXT 271100 UTC PRESFR SLP211

CYGK;2015-12-27 11:00;CYGK 271100Z 01010KT 6SM -RA BR SCT004 OVC009 02/01 A2991 RMK SF4NS4 SLP132

CYGK;2015-12-27 12:00;CYGK 271200Z 03008KT 8SM -RA SCT004 BKN012 OVC017 02/01 A2988 RMK SF3SF3NS2 SLP124

CYGK;2015-12-27 13:00;CYGK 271300Z 01011KT 8SM -RA SCT005 OVC010 01/00 A2989 RMK SF4NS4 SLP127

CYGK;2015-12-27 13:45;CYGK 271345Z 02012G17KT 8SM -RA BKN007 OVC011 01/M00 A2989 RMK SF6NS2 SLP128

CYGK;2015-12-27 14:00;CYGK 271400Z 02013G19KT 8SM -RA BKN007 OVC014 01/M01 A2989 RMK SF7NS1 SLP128

CYGK;2015-12-27 15:00;CYGK 271500Z 02011G16KT 6SM -RA BKN008 OVC019 01/M01 A2990 RMK SF6NS2 CIG RAG SLP129

CYGK;2015-12-27 16:00;CYGK 271600Z 01012KT 8SM -RA BKN008 OVC017 01/M01 A2992 RMK SF6NS2 VIS LWR N SLP136

CYGK;2015-12-27 17:00;CYGK 271700Z 02008KT 8SM BKN010 OVC022 01/M01 A2990 RMK SF6NS2 CIG RAG SLP131

CYGK;2015-12-27 17:29;CYGK 271729Z 36012KT 15SM FEW008 BKN011 OVC030 01/M01 A2993 RMK SF2SC5SC1 PRESRR SLP140

CYGK;2015-12-27 17:43;CYGK 271743Z 35013KT 12SM -SN FEW008 BKN011 OVC030 01/M01 A2993 RMK SF1SC5NS2 SLP141

CYGK;2015-12-27 18:00;CYGK 271800Z 36011KT 10SM -SN BKN010 OVC017 01/M00 A2992 RMK SC6NS2 SLP137

CYGK;2015-12-27 19:00;CYGK 271900Z 35009G18KT 12SM -SN FEW008 BKN010 OVC017 01/M01 A2997 RMK SF1SC4NS3 SLP155

CYGK;2015-12-27 19:21;CYGK 271921Z 35008KT 15SM SCT010 OVC016 01/M01 A2998 RMK SC3SC5 SLP157

CYGK;2015-12-27 20:00;CYGK 272000Z 35011KT 15SM FEW012 OVC018 01/M02 A3000 RMK SC2SC6 PRESRR SLP163

CYGK;2015-12-27 21:00;CYGK 272100Z 34008KT 15SM BKN015 BKN130 01/M02 A3004 RMK SC6AC1 SLP178

CYGK;2015-12-27 22:00;CYGK 272200Z 34013KT 15SM BKN016 BKN200 01/M02 A3008 RMK SC7CI1 CI TR SLP192

CYGK;2015-12-27 23:00;CYGK 272300Z 33007KT 15SM OVC018 01/M02 A3013 RMK SC8 SLP209

CYGK;2015-12-27 23:30;CYGK 272330Z 35010KT 15SM -SN OVC020 00/M02 A3014 RMK SC8 SLP212

CYGK;2015-12-28 00:00;CYGK 280000Z 32007KT 15SM -SN OVC020 00/M02 A3016 RMK SC8 SLP218

CYGK;2015-12-28 01:00;CYGK 280100Z 35008KT 15SM -SN OVC021 M00/M02 A3019 RMK SC8 SLP230

CYGK;2015-12-28 02:00;CYGK 280200Z 33007KT 12SM -SN OVC020 M00/M03 A3022 RMK SC8 SLP238

CYGK;2015-12-28 03:00;CYGK 280300Z 33013G19KT 15SM -SN OVC021 M01/M04 A3024 RMK SC8 SLP246

CYGK;2015-12-28 03:13;CYGK 280313Z 34015G20KT 15SM OVC023 M01/M05 A3024 RMK SC8 SLP245

CYGK;2015-12-28 04:00;CYGK 280400Z 36011G17KT 15SM OVC023 M01/M05 A3025 RMK SC8 LAST STFD OBS/NEXT 281100 UTC SLP249

CYGK;2015-12-28 11:00;CYGK 281100Z 36015KT 15SM -SHSN SCT018 M08/M13 A3052 RMK CU4 SLP342

CYGK;2015-12-28 11:26;CYGK 281126Z 02015G23KT 15SM FEW018 M08/M14 A3053 RMK CU1 SLP344

CYGK;2015-12-28 12:00;CYGK 281200Z 01017KT 15SM FEW020 SCT270 M09/M15 A3054 RMK CU1CI2 SLP348

CYGK;2015-12-28 13:00;CYGK 281300Z 02013G20KT 15SM FEW020 FEW100 BKN270 M09/M15 A3056 RMK CU1AC1CI4 SLP357

CYGK;2015-12-28 14:00;CYGK 281400Z 02013G22KT 15SM FEW020 FEW100 BKN270 M09/M15 A3060 RMK CF1AC1CI6 AC TR PRESRR SLP371

CYGK;2015-12-28 15:00;CYGK 281500Z 02012G18KT 15SM FEW020 BKN270 M08/M15 A3060 RMK CF1CS6 SLP370

CYGK;2015-12-28 16:00;CYGK 281600Z 03011KT 15SM FEW025 BKN240 M08/M14 A3062 RMK CF2CI5 SLP375

CYGK;2015-12-28 17:00;CYGK 281700Z 05012KT 15SM SCT020 OVC250 M07/M13 A3060 RMK SC4CS4 PRESFR SLP369

CYGK;2015-12-28 18:00;CYGK 281800Z 04014G19KT 15SM SCT020 OVC250 M07/M13 A3058 RMK SC3CS5 SLP362

CYGK;2015-12-28 19:00;CYGK 281900Z 05011G19KT 15SM BKN024 OVC230 M07/M13 A3059 RMK SC6CS2 SLP365

CYGK;2015-12-28 20:00;CYGK 282000Z CCA 04013G21KT 15SM BKN024 OVC200 M07/M13 A3057 RMK SC5CS3 SLP358

CYGK;2015-12-28 21:00;CYGK 282100Z 05016G23KT 15SM FEW024 OVC170 M07/M13 A3054 RMK SC1AS7 SLP350

CYGK;2015-12-28 22:00;CYGK 282200Z 05015G23KT 15SM FEW024 SCT130 OVC170 M07/M12 A3055 RMK SC2AC2AS4 SLP352

CYGK;2015-12-28 23:00;CYGK 282300Z 05011G19KT 15SM FEW024 OVC140 M07/M12 A3055 RMK SC1AS7 SLP353

CYGK;2015-12-29 00:00;CYGK 290000Z 05017G26KT 15SM FEW024 OVC100 M07/M12 A3051 RMK SC1AS7 PRESFR SLP341

CYGK;2015-12-29 01:00;CYGK 290100Z CCA 05017G23KT 15SM FEW024 OVC075 M07/M12 A3048 RMK SC1AS7 PRESFR SLP331

CYGK;2015-12-29 02:00;CYGK 290200Z 06017KT 15SM FEW024 OVC050 M07/M12 A3045 RMK SC2SC6 SLP318

CYGK;2015-12-29 02:21;CYGK 290221Z 06016G21KT 8SM -SN OVC017 M06/M12 A3045 RMK SC8 SLP318

CYGK;2015-12-29 02:36;CYGK 290236Z 05013G19KT 2 1/2SM -SN BKN008 OVC022 M06/M12 A3043 RMK SN3SF3NS2 PRESFR SLP313

CYGK;2015-12-29 02:52;CYGK 290252Z 07012G18KT 1 1/2SM -SN DRSN BKN006 OVC018 M07/M10 A3043 RMK SN4SF3NS1 SLP313

CYGK;2015-12-29 03:00;CYGK 290300Z 07011G20KT 1SM -SN DRSN BKN005 OVC015 M07/M10 A3043 RMK SN4SF2NS2 SLP314

CYGK;2015-12-29 03:25;CYGK 290325Z 05015KT 1 1/4SM -SN DRSN BKN008 OVC023 M07/M09 A3040 RMK SN4SF2NS2 PRESFR SLP301

CYGK;2015-12-29 04:00;CYGK 290400Z 06013G19KT 1 1/4SM -SN DRSN BKN007 OVC020 M07/M09 A3040 RMK SN4SF2NS2 /S02/ LAST STFD OBS/NEXT 291100 UTC SLP303

CYGK;2015-12-29 11:00;CYGK 291100Z 04012G18KT 1 1/4SM -SNPL DRSN BKN017 OVC024 M08/M09 A3008 RMK SN4SF1NS3 /S11 AFT 00Z/ PRESRR SLP192

CYGK;2015-12-29 11:40;CYGK 291140Z 06014KT 1 1/2SM -FZRA -SN DRSN SCT014 OVC025 M08/M10 A3008 RMK SN2SF2NS4 SLP192

CYGK;2015-12-29 12:00;CYGK 291200Z 05015G20KT 2SM -FZRA -SN DRSN OVC022 M07/M10 A3005 RMK SN2NS6 PRESFR SLP184

CYGK;2015-12-29 13:00;CYGK 291300Z 05017G22KT 1 1/2SM -FZRA -SN OVC017 M08/M10 A3000 RMK NS8 VIS S 1/2 PRESFR SLP167

CYGK;2015-12-29 14:00;CYGK 291400Z 06016G23KT 1 1/2SM -FZDZ BR OVC018 M07/M09 A2999 RMK NS8 CIG RAG SLP163

CYGK;2015-12-29 14:27;CYGK 291427Z 06015G20KT 2SM -FZDZ BR SCT007 BKN015 OVC020 M07/M09 A2998 RMK SF4ST2NS2 SLP159

CYGK;2015-12-29 14:31;CYGK 291431Z 05013G20KT 2 1/2SM -FZDZ BR BKN006 OVC017 M07/M09 A2998 RMK SF5ST3 SLP159

CYGK;2015-12-29 15:00;CYGK 291500Z 05017KT 2SM -FZDZ BR BKN006 OVC013 M07/M09 A2997 RMK SF6ST2 SLP158

CYGK;2015-12-29 16:00;CYGK 291600Z 04010G18KT 2 1/2SM -FZDZ BR BKN005 OVC012 M06/M08 A2994 RMK SF6NS2 SLP146

CYGK;2015-12-29 17:00;CYGK 291700Z 05009G15KT 3SM -FZDZ BR BKN005 OVC010 M05/M07 A2991 RMK SF6ST2 VIS S 1 SLP135

CYGK;2015-12-29 18:00;CYGK 291800Z 06011KT 6SM -FZDZ BR FEW004 OVC008 M04/M06 A2988 RMK SF2ST6 SLP124

CYGK;2015-12-29 18:21;CYGK 291821Z 05010KT 12SM FEW004 OVC008 M04/M06 A2987 RMK SF1SC7 SLP122

CYGK;2015-12-29 19:00;CYGK 291900Z 04008KT 12SM OVC006 M04/M05 A2988 RMK ST8 SLP127

CYGK;2015-12-29 19:08;CYGK 291908Z 04010KT 6SM -FZDZ BR FEW004 OVC007 M04/M05 A2988 RMK SF2ST6 SLP126

CYGK;2015-12-29 20:00;CYGK 292000Z 02010KT 4SM -FZDZ BR FEW004 OVC007 M04/M05 A2990 RMK SF1ST7 SLP131

CYGK;2015-12-29 20:15;CYGK 292015Z 03010KT 3SM -FZRA BR FEW004 OVC007 M04/M05 A2991 RMK SF2NS6 PRESRR SLP136

CYGK;2015-12-29 21:00;CYGK 292100Z 03010G15KT 5SM -FZRA BR SCT005 OVC010 M03/M04 A2994 RMK SF3NS5 SLP145

CYGK;2015-12-29 21:07;CYGK 292107Z 02009KT 6SM -FZDZ BR SCT005 OVC010 M03/M04 A2994 RMK SF3ST5 SLP147

CYGK;2015-12-29 21:33;CYGK 292133Z 02009G15KT 11SM FEW005 OVC009 M03/M05 A2996 RMK SF1SF7 SLP152

CYGK;2015-12-29 22:00;CYGK 292200Z 02014KT 11SM OVC008 M04/M06 A2997 RMK SF8 SLP157

CYGK;2015-12-29 23:00;CYGK 292300Z 02013KT 11SM OVC007 M05/M06 A3001 RMK SF8 SLP171

CYGK;2015-12-30 00:00;CYGK 300000Z 01012KT 11SM OVC008 M06/M08 A3005 RMK SF8 CIG RAG SLP185

CYGK;2015-12-30 01:00;CYGK 300100Z 03009KT 11SM OVC006 M06/M08 A3008 RMK SF8 SLP194

CYGK;2015-12-30 01:11;CYGK 300111Z 02011KT 9SM -FZDZ OVC005 M06/M08 A3008 RMK SF8 SLP195

CYGK;2015-12-30 02:00;CYGK 300200Z 04007KT 4SM -FZDZ BR OVC005 M06/M08 A3010 RMK SF8 SLP201

CYGK;2015-12-30 02:31;CYGK 300231Z 02010KT 2 1/2SM -FZDZ BR OVC004 M07/M08 A3012 RMK SF8 SLP206

CYGK;2015-12-30 03:00;CYGK 300300Z 03010KT 3SM -FZDZ BR OVC004 M07/M08 A3014 RMK SF8 SLP212

CYGK;2015-12-30 03:23;CYGK 300323Z 04008KT 2 1/2SM OVC004 M07/M08 A3014 RMK SF8 SLP212

CYGK;2015-12-30 04:00;CYGK 300400Z 03006KT 2 1/2SM -FZDZ BR BKN004 OVC009 M07/M08 A3014 RMK SF7ST1 LAST STFD OBS/NEXT 301100 UTC PRESRR SLP215

CYGK;2015-12-30 11:00;CYGK 301100Z 04006KT 8SM OVC004 M06/M07 A3020 RMK NS8 SLP234

CYGK;2015-12-30 11:42;CYGK 301142Z 03005KT 8SM -FZDZ OVC004 M06/M07 A3022 RMK NS8 SLP241

CYGK;2015-12-30 12:00;CYGK 301200Z 04005KT 6SM -FZDZ BR OVC005 M05/M07 A3023 RMK NS8 SLP242

CYGK;2015-12-30 13:00;CYGK 301300Z 04003KT 4SM -FZDZ BR OVC004 M05/M06 A3022 RMK NS8 SLP240

CYGK;2015-12-30 13:13;CYGK 301313Z 04003KT 4SM BR OVC004 M05/M06 A3022 RMK NS8 SLP240

CYGK;2015-12-30 13:23;CYGK 301323Z 04004KT 4SM -FZDZ BR OVC004 M05/M06 A3022 RMK NS8 SLP239

CYGK;2015-12-30 14:00;CYGK 301400Z 05004KT 4SM -FZDZ BR BKN004 OVC020 M05/M06 A3022 RMK ST7SC1 SLP240

CYGK;2015-12-30 14:40;CYGK 301440Z 06003KT 4SM BR BKN003 OVC018 M04/M05 A3023 RMK ST6SC2 SLP243

CYGK;2015-12-30 15:00;CYGK 301500Z 04003KT 4SM BR BKN003 OVC017 M04/M05 A3022 RMK ST7SC1 SLP241

CYGK;2015-12-30 16:00;CYGK 301600Z 03004KT 4SM BR SCT003 BKN018 OVC043 M03/M04 A3019 RMK ST3SC4SC1 SLP231

CYGK;2015-12-30 17:00;CYGK 301700Z 01004KT 360V060 6SM BR FEW003 SCT020 OVC040 M02/M03 A3016 RMK SF1SC3SC4 SLP220

CYGK;2015-12-30 18:00;CYGK 301800Z 06004KT 5SM BR FEW005 FEW020 OVC040 M01/M02 A3014 RMK SF1SC1NS6 SLP213

CYGK;2015-12-30 19:00;CYGK 301900Z 06003KT 5SM BR FEW010 SCT025 OVC038 M00/M01 A3012 RMK CU1SC2SC5 SLP206

CYGK;2015-12-30 20:00;CYGK 302000Z 35003KT 3SM BR SCT026 OVC038 M00/M01 A3013 RMK SC3SC5 SLP209

CYGK;2015-12-30 21:00;CYGK 302100Z 08005KT 3SM BR FEW026 OVC038 00/M01 A3011 RMK SC2SC6 SLP202

CYGK;2015-12-30 21:12;CYGK 302112Z 07007KT 1 1/2SM BR FEW026 OVC037 M00/M01 A3010 RMK SC1SC7 SLP199

CYGK;2015-12-30 22:00;CYGK 302200Z 07003KT 1 1/2SM BR OVC030 00/M01 A3008 RMK SC8 PRESRR SLP192

CYGK;2015-12-30 22:22;CYGK 302222Z 36003KT 3SM BR OVC030 00/M01 A3009 RMK SC8 PRESRR SLP196

CYGK;2015-12-30 22:50;CYGK 302250Z 01004KT 3SM -SN BR OVC028 00/M01 A3008 RMK SC8 SLP191

CYGK;2015-12-30 23:00;CYGK 302300Z 36004KT 3SM -SN BR OVC028 00/M01 A3008 RMK SC8 SLP191

CYGK;2015-12-30 23:43;CYGK 302343Z 03003KT 2 1/2SM -FZRA BR SCT014 OVC026 M00/M01 A3008 RMK SF3NS5 SLP191

CYGK;2015-12-31 00:00;CYGK 310000Z 04003KT 2 1/2SM -FZRA -SN BR FEW014 OVC027 M00/M01 A3007 RMK SF1NS7 SLP190

CYGK;2015-12-31 00:26;CYGK 310026Z 03003KT 2SM -FZRA BR OVC026 M00/M01 A3006 RMK NS8 SLP185

CYGK;2015-12-31 00:43;CYGK 310043Z 01004KT 1 1/2SM -FZRA -PL BR FEW009 OVC026 M00/M01 A3006 RMK SF2NS6 SLP187

CYGK;2015-12-31 00:49;CYGK 310049Z 03003KT 340V040 1 1/2SM -FZRA -PL BKN009 OVC026 M00/M01 A3006 RMK SF5NS3 SLP187

CYGK;2015-12-31 01:00;CYGK 310100Z 01003KT 350V060 2 1/2SM -FZRA BR BKN009 OVC025 M00/M01 A3006 RMK SF5NS3 SLP187

CYGK;2015-12-31 01:13;CYGK 310113Z 00000KT 2 1/2SM -FZDZ BR SCT009 SCT013 OVC025 M00/M01 A3007 RMK SF3SF1NS4 SLP188

CYGK;2015-12-31 01:30;CYGK 310130Z 09002KT 2 1/2SM BR FEW013 BKN025 OVC035 M00/M01 A3006 RMK SF1SC5SC2 SLP185

CYGK;2015-12-31 02:00;CYGK 310200Z 33004KT 2 1/2SM BR OVC023 M00/M01 A3006 RMK SC8 SLP185

CYGK;2015-12-31 02:08;CYGK 310208Z 34003KT 2SM -SN BR OVC023 M00/M01 A3005 RMK NS8 SLP183

CYGK;2015-12-31 02:39;CYGK 310239Z 31003KT 2SM BR OVC020 00/M01 A3006 RMK SC8 SLP185

CYGK;2015-12-31 03:00;CYGK 310300Z 31003KT 2SM BR OVC021 00/M01 A3006 RMK SC8 SLP185

CYGK;2015-12-31 03:26;CYGK 310326Z 27002KT 2 1/2SM BR FEW007 BKN014 OVC020 01/M00 A3006 RMK SF2SC3SC3 SLP185

CYGK;2015-12-31 03:31;CYGK 310331Z 26003KT 2SM -SN BR FEW007 BKN014 OVC020 01/M00 A3005 RMK SF2SC4SC2 SLP183

CYGK;2015-12-31 03:40;CYGK 310340Z 27003KT 3SM -RA BR FEW007 SCT014 OVC017 01/00 A3005 RMK SF1SC3SC4 SLP182

CYGK;2015-12-31 04:00;CYGK 310400Z 25003KT 3SM -RA BR FEW007 OVC013 01/00 A3005 RMK SF2SC6 LAST STFD OBS / NEXT 311100 UTC SLP181

CYGK;2015-12-31 11:00;CYGK 311100Z 26007KT 10SM OVC045 02/M01 A3005 RMK SC8 SLP181

CYGK;2015-12-31 12:00;CYGK 311200Z 26006KT 12SM OVC035 02/M01 A3005 RMK SC8 SLP181

CYGK;2015-12-31 13:00;CYGK 311300Z 25010G17KT 12SM FEW020 OVC040 02/M01 A3006 RMK CF1SC7 SLP185

CYGK;2015-12-31 14:00;CYGK 311400Z 25010G16KT 12SM FEW020 OVC050 02/M01 A3006 RMK CF1SC7 SLP186

CYGK;2015-12-31 15:00;CYGK 311500Z 28009KT 12SM FEW020 OVC045 02/M02 A3005 RMK SF1SC7 SLP183

CYGK;2015-12-31 16:00;CYGK 311600Z 26011KT 12SM FEW018 OVC037 02/M02 A3007 RMK CF1SC7 SLP187

CYGK;2015-12-31 17:00;CYGK 311700Z 27010KT 15SM FEW020 OVC035 02/M03 A3005 RMK CU1SC7 SLP182

CYGK;2015-12-31 18:00;CYGK 311800Z 26008KT 15SM -SHSN FEW020 OVC040 02/M03 A3003 RMK CU1SC7 SLP176

CYGK;2015-12-31 18:43;CYGK 311843Z 26014G19KT 15SM FEW020 OVC045 02/M03 A3003 RMK CU1SC7 SLP174

CYGK;2015-12-31 19:00;CYGK 311900Z 27011G19KT 15SM FEW020 SCT048 BKN110 02/M03 A3002 RMK CF2SC2AS3 SLP173

CYGK;2015-12-31 20:00;CYGK 312000Z 26010G16KT 15SM FEW020 BKN027 BKN080 02/M03 A3003 RMK CF1SC4AC2 SLP174

CYGK;2015-12-31 21:00;CYGK 312100Z 24012KT 15SM FEW022 BKN042 02/M03 A3003 RMK CF1SC6 SLP176

CYGK;2015-12-31 22:00;CYGK 312200Z 24011G19KT 15SM FEW026 OVC041 02/M02 A3005 RMK CF1SC8 CF TR SLP180

CYGK;2015-12-31 23:00;CYGK 312300Z 26011KT 15SM OVC046 02/M03 A3005 RMK SC8 SLP181

