CYHM;2009-01-01 07:00;CYHM 010700Z 28004KT 15SM FEW030 M16/M23 A3030 RMK SC1 SLP281

CYHM;2009-01-01 08:00;CYHM 010800Z 00000KT 15SM FEW030 M17/M20 A3032 RMK SC1 SLP285

CYHM;2009-01-01 09:00;CYHM 010900Z 00000KT 15SM FEW030 M18/M21 A3032 RMK SC1 SLP286

CYHM;2009-01-01 10:00;CYHM 011000Z 22002KT 15SM SCT150 M17/M20 A3030 RMK AC3 SLP282

CYHM;2009-01-01 11:00;CYHM 011100Z 25005KT 15SM FEW030 FEW150 M19/M22 A3032 RMK SC1AC1 SLP287

CYHM;2009-01-01 12:00;CYHM 011200Z 24004KT 15SM FEW030 FEW170 M19/M22 A3033 RMK SC1AC2 SC TR SLP290

CYHM;2009-01-01 13:00;CYHM 011300Z 27003KT 15SM FEW030 SCT120 BKN160 M17/M20 A3033 RMK SC1AC2AC2 SLP290

CYHM;2009-01-01 14:00;CYHM 011400Z 00000KT 15SM FEW030 FEW120 SCT150 M15/M17 A3033 RMK SC1AC2AC2 SLP292

CYHM;2009-01-01 15:00;CYHM 011500Z 22003KT 15SM FEW025 FEW150 SCT230 M13/M15 A3033 RMK SC1AC1CI1 SLP289

CYHM;2009-01-01 16:00;CYHM 011600Z 21005KT 15SM FEW030 FEW150 SCT230 M10/M15 A3032 RMK SC1AC1CI2 SLP288

CYHM;2009-01-01 17:00;CYHM 011700Z 18005KT 15SM FEW030 FEW140 BKN230 M08/M13 A3029 RMK SC1AC1CI2 SLP278

CYHM;2009-01-01 18:00;CYHM 011800Z 18007KT 15SM FEW030 FEW130 BKN230 M07/M12 A3024 RMK SC1AC2CI2 SLP259

CYHM;2009-01-01 19:00;CYHM 011900Z 18009KT 15SM BKN027 OVC130 M07/M11 A3023 RMK SC5AS2 SUN DIMLY VISBL SLP254

CYHM;2009-01-01 19:02;CYHM 011902Z 18009KT 15SM -SHSN BKN027 OVC130 RMK SC5AS2 SUN DIMLY VISBL

CYHM;2009-01-01 20:00;CYHM 012000Z 17008KT 15SM -SHSN FEW021 OVC026 M06/M10 A3019 RMK SC2SC6 SLP243

CYHM;2009-01-01 21:00;CYHM 012100Z 16006KT 15SM -SHSN OVC023 M06/M09 A3018 RMK SC8 PCPN VRY LGT SLP237

CYHM;2009-01-01 21:42;CYHM 012142Z 15006KT 15SM OVC022 RMK SC8

CYHM;2009-01-01 22:00;CYHM 012200Z 14006KT 15SM OVC022 M06/M09 A3013 RMK SC8 SLP223

CYHM;2009-01-01 23:00;CYHM 012300Z 14005KT 15SM FEW022 BKN110 M06/M09 A3011 RMK SC2AC4 SLP214

CYHM;2009-01-02 00:00;CYHM 020000Z 12008KT 15SM FEW022 BKN120 M07/M10 A3006 RMK SC1AC6 SLP198

CYHM;2009-01-02 01:00;CYHM 020100Z 10008KT 15SM OVC130 M07/M11 A3000 RMK AC7 SLP179

CYHM;2009-01-02 02:00;CYHM 020200Z 07006KT 15SM OVC100 M08/M11 A2994 RMK AC7 VIRGA SLP160

CYHM;2009-01-02 03:00;CYHM 020300Z 05005KT 15SM OVC110 M07/M10 A2990 RMK AC8 VIRGA SLP141

CYHM;2009-01-02 04:00;CYHM 020400Z 00000KT 15SM OVC089 M07/M10 A2987 RMK AC8 SLP130

CYHM;2009-01-02 05:00;CYHM 020500Z CCA 14009KT 15SM BKN081 OVC160 M04/M09 A2978 RMK AC7AC1 PRESFR SLP101

CYHM;2009-01-02 06:00;CYHM 020600Z 24002KT 15SM FEW083 BKN210 M04/M09 A2978 RMK AC2CI4 SLP097

CYHM;2009-01-02 07:00;CYHM 020700Z 00000KT 15SM BKN150 OVC210 M04/M08 A2975 RMK AC6CI2 SLP086

CYHM;2009-01-02 08:00;CYHM 020800Z 19007KT 15SM FEW056 SCT080 OVC140 M02/M08 A2973 RMK SC2AC2AC5 SLP081

CYHM;2009-01-02 09:00;CYHM 020900Z 21014KT 15SM SCT061 BKN072 OVC100 M01/M07 A2970 RMK SC3AC3AC2 SLP068

CYHM;2009-01-02 10:00;CYHM 021000Z 20013KT 15SM BKN048 OVC069 M01/M04 A2968 RMK SC7AC1 SLP063

CYHM;2009-01-02 11:00;CYHM 021100Z 20012KT 15SM FEW048 BKN069 OVC110 M02/M04 A2968 RMK SC2AC5AC2 SLP061

CYHM;2009-01-02 11:53;CYHM 021153Z 22014KT 15SM -SHSN BKN042 OVC058 RMK SC6SC2

CYHM;2009-01-02 12:00;CYHM 021200Z 22014KT 15SM -SHSN OVC042 M01/M03 A2968 RMK SC8 SLP064

CYHM;2009-01-02 13:00;CYHM 021300Z 23014KT 15SM -SHSN OVC033 M01/M04 A2969 RMK SC8 SLP067

CYHM;2009-01-02 14:00;CYHM 021400Z 24012KT 15SM -SHSN OVC027 M01/M06 A2971 RMK SC8 SLP072

CYHM;2009-01-02 14:17;CYHM 021417Z 25012KT 15SM OVC029 RMK SC8

CYHM;2009-01-02 15:00;CYHM 021500Z 25012KT 15SM BKN033 OVC045 M01/M06 A2970 RMK SC6SC2 SLP070

CYHM;2009-01-02 16:00;CYHM 021600Z 24018KT 15SM BKN033 M01/M07 A2969 RMK SC7 SLP066

CYHM;2009-01-02 17:00;CYHM 021700Z 25015KT 15SM FEW032 BKN060 M01/M07 A2966 RMK SC2SC3 SLP056

CYHM;2009-01-02 18:00;CYHM 021800Z 24017G22KT 15SM SCT027 BKN031 M00/M06 A2964 RMK SC3SC4 SLP046

CYHM;2009-01-02 19:00;CYHM 021900Z 24014KT 15SM BKN034 OVC042 M00/M05 A2962 RMK SC6SC2 SLP041

CYHM;2009-01-02 20:00;CYHM 022000Z 24016G21KT 4SM -SHSN OVC032 M00/M05 A2962 RMK SC8 SLP041

CYHM;2009-01-02 20:20;CYHM 022020Z 24016G22KT 2SM -SHSN OVC025 RMK SN1SC7

CYHM;2009-01-02 20:24;CYHM 022024Z 24015G22KT 3/4SM -SHSN VV010 RMK SN8 VIS VRB 1/2 - 1

CYHM;2009-01-02 20:26;CYHM 022026Z 24014G21KT 2SM -SHSN OVC030 RMK SN1SC7

CYHM;2009-01-02 20:45;CYHM 022045Z 25014KT 8SM -SHSN SCT025 BKN070 RMK SC3AC2

CYHM;2009-01-02 21:00;CYHM 022100Z 25015G20KT 1/2SM SHSN VV011 M02/M03 A2965 RMK SN8 SLP050

CYHM;2009-01-02 21:06;CYHM 022106Z 26017KT 3SM -SHSN BKN042 BKN075 RESN RMK SC6AC1 VIS VRB 2 - 4

CYHM;2009-01-02 21:28;CYHM 022128Z 26017G22KT 1/8SM -SHSN +BLSN VV004 RESN RMK BLSN8

CYHM;2009-01-02 21:33;CYHM 022133Z 26018G24KT 3/4SM -SHSN BLSN OVC025 RESN RMK SN3SC5 VSIS VRB 1/2 - 1

CYHM;2009-01-02 21:50;CYHM 022150Z 27017G23KT 8SM -SHSN DRSN SCT025 BKN063 RESN RMK SC4SC3

CYHM;2009-01-02 22:00;CYHM 022200Z 27017G22KT 12SM -SHSN DRSN FEW025 BKN063 M03/M07 A2968 RESN RMK SC2SC5 /S01/ SLP062

CYHM;2009-01-02 23:00;CYHM 022300Z 28015KT 8SM -SHSN DRSN FEW025 BKN056 M03/M07 A2973 RMK SC2SC6 SLP077

CYHM;2009-01-03 00:00;CYHM 030000Z 26014G20KT 15SM -SHSN DRSN FEW035 BKN066 M04/M08 A2976 RMK SC2AC6 SLP090

CYHM;2009-01-03 01:00;CYHM 030100Z 26015G20KT 15SM DRSN FEW022 FEW045 M05/M08 A2979 RMK CF1SC1 SLP100

CYHM;2009-01-03 02:00;CYHM 030200Z 26014KT 15SM DRSN FEW022 FEW045 M05/M08 A2983 RMK CF1SC1 SLP112

CYHM;2009-01-03 03:00;CYHM 030300Z 26009KT 15SM FEW045 FEW200 M05/M08 A2986 RMK SC1CI1 SLP123

CYHM;2009-01-03 04:00;CYHM 030400Z 25010KT 15SM FEW025 FEW200 M06/M08 A2988 RMK SC1CI1 SLP130

CYHM;2009-01-03 05:00;CYHM 030500Z 23011KT 15SM -SHSN BKN021 M06/M08 A2990 RMK SC6 SLP136

CYHM;2009-01-03 06:00;CYHM 030600Z 23012KT 15SM -SHSN OVC016 M06/M08 A2991 RMK SC8 SLP141

CYHM;2009-01-03 07:00;CYHM 030700Z 23012KT 15SM -SHSN FEW015 BKN032 M07/M09 A2994 RMK CF2SC5 SLP150

CYHM;2009-01-03 08:00;CYHM 030800Z 24010KT 15SM -SHSN BKN035 M07/M09 A2998 RMK SC7 SLP164

CYHM;2009-01-03 09:00;CYHM 030900Z 24010KT 15SM -SHSN BKN015 M06/M08 A2999 RMK SC6 SLP169

CYHM;2009-01-03 10:00;CYHM 031000Z 25009KT 15SM FEW020 M06/M08 A3001 RMK SC1 SLP175

CYHM;2009-01-03 11:00;CYHM 031100Z 25007KT 15SM FEW020 BKN250 M07/M08 A3004 RMK SC1CI3 FROIN SLP183

CYHM;2009-01-03 12:00;CYHM 031200Z 25004KT 15SM FEW022 SCT028 BKN200 M09/M09 A3006 RMK SC2SC2CI2 FROIN SLP192

CYHM;2009-01-03 13:00;CYHM 031300Z 23003KT 12SM BKN017 BKN030 M07/M08 A3010 RMK SC6SC2 SLP205

CYHM;2009-01-03 13:45;CYHM 031345Z 23005KT 10SM -SHSN BKN026 BKN035 RMK SC6SC2

CYHM;2009-01-03 14:00;CYHM 031400Z 24005KT 8SM -SHSN FEW018 SCT025 BKN035 M06/M07 A3013 RMK SC2SC2SC4 SLP216

CYHM;2009-01-03 14:50;CYHM 031450Z 24005KT 10SM FEW018 SCT120 BKN210 RMK SC2AC2CI1

CYHM;2009-01-03 15:00;CYHM 031500Z 27004KT 10SM FEW018 SCT120 BKN220 M05/M07 A3015 RMK SC1AC2CI1 SLP222

CYHM;2009-01-03 16:00;CYHM 031600Z 27005KT 12SM FEW018 SCT120 BKN220 M03/M07 A3016 RMK SC2AC2CI1 SLP225

CYHM;2009-01-03 17:00;CYHM 031700Z 30002KT 15SM FEW030 FEW120 FEW240 M03/M09 A3014 RMK SC1AC1CI0 SLP219

CYHM;2009-01-03 18:00;CYHM 031800Z 30006KT 15SM FEW030 FEW240 M03/M09 A3013 RMK SC1CI1 SLP216

CYHM;2009-01-03 19:00;CYHM 031900Z 27005KT 15SM FEW030 M03/M10 A3013 RMK SC1 SLP217

CYHM;2009-01-03 20:00;CYHM 032000Z 25006KT 15SM FEW030 M02/M10 A3015 RMK SC1 SLP222

CYHM;2009-01-03 21:00;CYHM 032100Z 27005KT 15SM FEW030 FEW250 M03/M10 A3017 RMK CU1CI1 CU TR CI TR SLP228

CYHM;2009-01-03 22:00;CYHM 032200Z 27002KT 15SM FEW030 FEW120 FEW250 M05/M11 A3017 RMK SC1AC1CI1 SC TR CI TR SLP230

CYHM;2009-01-03 23:00;CYHM 032300Z 00000KT 15SM FEW120 M06/M11 A3020 RMK AC1 SLP239

CYHM;2009-01-04 00:00;CYHM 040000Z 33002KT 15SM FEW250 M08/M11 A3022 RMK CI1 SLP250

CYHM;2009-01-04 01:00;CYHM 040100Z 02003KT 15SM FEW250 M09/M12 A3021 RMK CI1 SLP247

CYHM;2009-01-04 02:00;CYHM 040200Z 36003KT 15SM FEW250 M08/M12 A3021 RMK CI1 SLP246

CYHM;2009-01-04 03:00;CYHM 040300Z 03003KT 15SM FEW100 FEW220 M11/M13 A3019 RMK AC2CI1 SLP240

CYHM;2009-01-04 04:00;CYHM 040400Z 04003KT 15SM FEW100 FEW250 M11/M14 A3020 RMK AC2CI1 SLP241

CYHM;2009-01-04 05:00;CYHM 040500Z 04008KT 15SM FEW080 FEW250 M11/M13 A3019 RMK AC2CI1 SLP240

CYHM;2009-01-04 06:00;CYHM 040600Z 04009KT 15SM SKC M09/M12 A3018 RMK SLP234

CYHM;2009-01-04 07:00;CYHM 040700Z 04009KT 15SM FEW065 SCT090 M09/M12 A3017 RMK SC1AC2 SLP231

CYHM;2009-01-04 08:00;CYHM 040800Z 04007KT 15SM SCT080 M09/M14 A3018 RMK AC2 SLP235

CYHM;2009-01-04 09:00;CYHM 040900Z 05006KT 15SM OVC250 M10/M14 A3018 RMK CI8 SLP234

CYHM;2009-01-04 10:00;CYHM 041000Z 06009KT 15SM BKN250 M10/M14 A3014 RMK CI5 SLP223

CYHM;2009-01-04 11:00;CYHM 041100Z 05007KT 15SM FEW110 M10/M13 A3013 RMK AC2 SLP219

CYHM;2009-01-04 12:00;CYHM 041200Z 06007KT 15SM FEW110 M11/M11 A3011 RMK AC2 SLP213

CYHM;2009-01-04 13:00;CYHM 041300Z 07005KT 15SM FEW110 SCT250 M10/M13 A3009 RMK AC1CI1 SLP207

CYHM;2009-01-04 14:00;CYHM 041400Z 09007KT 15SM FEW030 FEW110 BKN250 M07/M10 A3010 RMK SC1AC1CI4 SC TR SLP211

CYHM;2009-01-04 15:00;CYHM 041500Z 08012KT 15SM FEW120 BKN240 M06/M10 A3008 RMK AC2CI3 SLP201

CYHM;2009-01-04 16:00;CYHM 041600Z 07011KT 15SM SCT096 BKN240 M05/M10 A3005 RMK AC4CI3 SLP193

CYHM;2009-01-04 17:00;CYHM 041700Z 06011KT 15SM FEW048 BKN096 BKN210 M04/M11 A3002 RMK SC2AC4CI2 SLP182

CYHM;2009-01-04 18:00;CYHM 041800Z 07015KT 15SM FEW040 BKN090 BKN210 M04/M09 A2994 RMK SC2AC3CI2 PRESFR SLP153

CYHM;2009-01-04 19:00;CYHM 041900Z 05010KT 15SM BKN031 OVC078 M03/M10 A2995 RMK SC7AC1 SLP157

CYHM;2009-01-04 20:00;CYHM 042000Z 05012KT 15SM OVC023 M03/M08 A2991 RMK SC8 SLP144

CYHM;2009-01-04 21:00;CYHM 042100Z 05012KT 15SM OVC018 M02/M07 A2991 RMK SC8 SLP144

CYHM;2009-01-04 22:00;CYHM 042200Z 03007KT 15SM OVC017 M02/M07 A2993 RMK SC8 SLP149

CYHM;2009-01-04 23:00;CYHM 042300Z 02006KT 15SM OVC018 M02/M05 A2992 RMK SC8 SLP147

CYHM;2009-01-05 00:00;CYHM 050000Z 03002KT 15SM OVC015 M02/M05 A2991 RMK SC8 SLP144

CYHM;2009-01-05 01:00;CYHM 050100Z 33002KT 15SM OVC015 M02/M05 A2992 RMK SC8 SLP146

CYHM;2009-01-05 01:25;CYHM 050125Z 00000KT 15SM OVC012 RMK SC8

CYHM;2009-01-05 02:00;CYHM 050200Z 27002KT 15SM OVC012 M02/M04 A2992 RMK SC8 SLP146

CYHM;2009-01-05 03:00;CYHM 050300Z 25005KT 12SM OVC009 M02/M04 A2995 RMK SC8 SLP154

CYHM;2009-01-05 04:00;CYHM 050400Z 25010KT 7SM OVC008 M02/M04 A2995 RMK SC8 SLP156

CYHM;2009-01-05 05:00;CYHM 050500Z 25009KT 5SM -SHSN OVC011 M01/M02 A2996 RMK SC8 SLP157

CYHM;2009-01-05 06:00;CYHM 050600Z 26010KT 6SM -SHSN OVC010 00/M01 A2996 RMK SC8 CIG RAG SLP155

CYHM;2009-01-05 07:00;CYHM 050700Z 26009KT 7SM -SHSN OVC015 00/M01 A2997 RMK SC8 CIG RAG SLP160

CYHM;2009-01-05 08:00;CYHM 050800Z 26013KT 15SM -SHSN FEW017 OVC029 01/M03 A2999 RMK CF1SC7 SLP167

CYHM;2009-01-05 09:00;CYHM 050900Z 28012G19KT 15SM FEW024 OVC034 00/M05 A3000 RMK CF2SC6 SLP168

CYHM;2009-01-05 10:00;CYHM 051000Z 27016G21KT 15SM OVC033 M01/M05 A3000 RMK SC8 SLP169

CYHM;2009-01-05 11:00;CYHM 051100Z 27014KT 15SM BKN028 M02/M06 A3002 RMK SC7 SLP176

CYHM;2009-01-05 12:00;CYHM 051200Z 27012KT 15SM BKN025 BKN150 M03/M08 A3003 RMK SC5AC1 SLP180

CYHM;2009-01-05 13:00;CYHM 051300Z 26008KT 15SM FEW021 FEW120 M05/M09 A3006 RMK SC1AC1 SLP189

CYHM;2009-01-05 14:00;CYHM 051400Z 26010KT 15SM FEW021 FEW100 SCT220 M05/M09 A3007 RMK SC2AC1CI1 CU ASOCTD SLP194

CYHM;2009-01-05 15:00;CYHM 051500Z 26018KT 15SM SCT018 BKN022 BKN220 M05/M10 A3008 RMK CU3SC2CI1 SLP198

CYHM;2009-01-05 16:00;CYHM 051600Z 25010G15KT 15SM FEW020 SCT030 SCT220 M05/M10 A3007 RMK CU1SC2CI0 CONTRAIL SLP195

CYHM;2009-01-05 17:00;CYHM 051700Z 28010G15KT 15SM FEW020 FEW032 SCT220 M05/M10 A3007 RMK CU1SC1CI1 CONTRAIL SLP194

CYHM;2009-01-05 18:00;CYHM 051800Z 28013KT 15SM FEW025 FEW220 M04/M10 A3004 RMK CU1CI1 CU TR CONTRAIL SLP184

CYHM;2009-01-05 19:00;CYHM 051900Z 26014KT 15SM FEW032 FEW220 M04/M11 A3003 RMK CU1CI1 CU TR CONTRAIL SLP179

CYHM;2009-01-05 20:00;CYHM 052000Z 24012KT 15SM FEW250 M04/M11 A3003 RMK CI1 SLP179

CYHM;2009-01-05 21:00;CYHM 052100Z 25012KT 15SM FEW220 M04/M11 A3003 RMK CI1 SLP181

CYHM;2009-01-05 22:00;CYHM 052200Z 24011KT 15SM FEW220 M06/M11 A3004 RMK CI1 SLP182

CYHM;2009-01-05 23:00;CYHM 052300Z 23007KT 15SM FEW220 M07/M12 A3003 RMK CI1 SLP181

CYHM;2009-01-06 00:00;CYHM 060000Z 23007KT 15SM FEW220 M09/M13 A3003 RMK CI1 CI TR SLP183

CYHM;2009-01-06 01:00;CYHM 060100Z 21006KT 15SM FEW220 M10/M14 A3003 RMK CI1 CI TR SLP183

CYHM;2009-01-06 02:00;CYHM 060200Z 20007KT 15SM FEW220 M10/M14 A3002 RMK CI1 CI TR SLP181

CYHM;2009-01-06 03:00;CYHM 060300Z 21007KT 15SM FEW220 M11/M14 A3001 RMK CI1 CI TR SLP178

CYHM;2009-01-06 04:00;CYHM 060400Z 23006KT 15SM FEW220 M10/M13 A3001 RMK CI1 CI TR SLP178

CYHM;2009-01-06 05:00;CYHM 060500Z 24004KT 15SM FEW220 M09/M12 A3000 RMK CI1 CI TR SLP174

CYHM;2009-01-06 06:00;CYHM 060600Z 24007KT 15SM SKC M10/M12 A2998 RMK SLP168

CYHM;2009-01-06 07:00;CYHM 060700Z 23006KT 15SM SKC M11/M13 A2998 RMK SLP166

CYHM;2009-01-06 08:00;CYHM 060800Z 24005KT 15SM SKC M11/M12 A2998 RMK SLP166

CYHM;2009-01-06 09:00;CYHM 060900Z 21003KT 15SM SKC M11/M12 A2998 RMK SLP168

CYHM;2009-01-06 10:00;CYHM 061000Z 24004KT 15SM SKC M12/M12 A2997 RMK SLP166

CYHM;2009-01-06 11:00;CYHM 061100Z 26005KT 15SM SKC M11/M12 A2997 RMK SLP164

CYHM;2009-01-06 12:00;CYHM 061200Z 28004KT 15SM FEW210 M12/M13 A2995 RMK CI1 SLP159

CYHM;2009-01-06 13:00;CYHM 061300Z 21004KT 15SM FEW210 M12/M13 A2996 RMK CI1 SLP161

CYHM;2009-01-06 14:00;CYHM 061400Z 17002KT 15SM FEW020 FEW160 SCT210 M11/M11 A2998 RMK CU1AC1CI1 CU TR SLP168

CYHM;2009-01-06 15:00;CYHM 061500Z 00000KT 15SM FEW140 SCT210 M08/M09 A2995 RMK AC1CI1 SLP158

CYHM;2009-01-06 16:00;CYHM 061600Z 13002KT 15SM FEW140 BKN210 M07/M09 A2994 RMK AC2CI3 SLP156

CYHM;2009-01-06 17:00;CYHM 061700Z 00000KT 15SM BKN160 BKN210 M06/M09 A2991 RMK AS5CI2 SLP144

CYHM;2009-01-06 18:00;CYHM 061800Z 07006KT 10SM OVC093 M04/M08 A2987 RMK AS8 SLP128

CYHM;2009-01-06 19:00;CYHM 061900Z 06011KT 15SM BKN093 BKN100 M04/M07 A2982 RMK AC6AC2 SLP112

CYHM;2009-01-06 20:00;CYHM 062000Z 06013KT 15SM SCT054 OVC088 M03/M06 A2979 RMK SC3AC5 SLP102

CYHM;2009-01-06 21:00;CYHM 062100Z 07013KT 15SM BKN067 OVC100 M03/M06 A2978 RMK AC7AC1 SLP100

CYHM;2009-01-06 22:00;CYHM 062200Z 08011KT 12SM FEW054 BKN067 OVC090 M03/M06 A2977 RMK SC2AC5AC2 SLP094

CYHM;2009-01-06 23:00;CYHM 062300Z 06010KT 15SM -SHSN BKN054 OVC072 M03/M07 A2974 RMK SC6AC2 SLP085

CYHM;2009-01-07 00:00;CYHM 070000Z 08010KT 15SM -SHSN OVC050 M03/M05 A2970 RMK SC8 SLP071

CYHM;2009-01-07 01:00;CYHM 070100Z 07011KT 15SM -SHSN FEW015 SCT028 OVC042 M03/M05 A2968 RMK CF1SC2SC5 SLP063

CYHM;2009-01-07 02:00;CYHM 070200Z 08012KT 15SM -SHSN FEW024 OVC030 M03/M05 A2965 RMK SC2SC6 SLP054

CYHM;2009-01-07 03:00;CYHM 070300Z 07011KT 4SM -SN FEW020 OVC028 M03/M05 A2957 RMK SC2SC6 SLP027

CYHM;2009-01-07 04:00;CYHM 070400Z 07013KT 1SM -SN OVC018 M03/M04 A2955 RMK SN3SC5 SLP020

CYHM;2009-01-07 05:00;CYHM 070500Z 06015KT 1 3/4SM -SN SCT005 OVC022 M03/M04 A2951 RMK SN3SF1SC4 SLP006

CYHM;2009-01-07 05:45;CYHM 070545Z 06015KT 5SM -SN SCT004 OVC018 RMK SF3SC5

CYHM;2009-01-07 06:00;CYHM 070600Z 06014KT 5SM -SN SCT004 OVC017 M03/M04 A2946 RMK SF3SC5 SLP988

CYHM;2009-01-07 07:00;CYHM 070700Z 05015KT 3SM -SN -FZRA BKN004 OVC018 M02/M03 A2942 RMK SF5SC3 SLP975

CYHM;2009-01-07 08:00;CYHM 070800Z 06014KT 3SM -SN -FZRA BKN003 OVC017 M02/M02 A2941 RMK SF7SC1 SLP969

CYHM;2009-01-07 09:00;CYHM 070900Z 06012KT 2 1/4SM -SN -FZRA OVC003 M02/M02 A2935 RMK SF8 SLP949

CYHM;2009-01-07 10:00;CYHM 071000Z 06012KT 2 1/4SM -SN -FZRA BKN002 OVC018 M01/M02 A2928 RMK SF6SC2 SLP925

CYHM;2009-01-07 11:00;CYHM 071100Z 06010KT 2 1/4SM -SN -FZRA BKN002 OVC012 M01/M01 A2923 RMK SF7SC1 SLP910

CYHM;2009-01-07 12:00;CYHM 071200Z 06008KT 4SM -PL -FZRA BKN002 OVC010 M01/M01 A2923 RMK SF6SC2 SLP906

CYHM;2009-01-07 12:22;CYHM 071222Z 05006KT 2SM -SHSN BKN004 OVC013 RMK SN1SF5SC2

CYHM;2009-01-07 12:43;CYHM 071243Z 05006KT 2 1/2SM -SN -FZRA BKN003 OVC010 RMK SF7SC1

CYHM;2009-01-07 13:00;CYHM 071300Z 06006KT 2 1/2SM -SN -FZRA BKN002 OVC013 M01/M01 A2920 RMK SF6SC2 SLP898

CYHM;2009-01-07 13:35;CYHM 071335Z 04006KT 1SM -SN BR BKN004 OVC012 RMK SN2SF6SC1

CYHM;2009-01-07 13:45;CYHM 071345Z 04005KT 3/4SM -SN BR SCT004 OVC013 RMK SN2SF2SC4

CYHM;2009-01-07 14:00;CYHM 071400Z 06006KT 1 1/2SM -SN BR BKN004 OVC015 M01/M01 A2917 RMK SN1SF5SC2 VISB VRBL 1-2SM SLP887

CYHM;2009-01-07 14:42;CYHM 071442Z 06008KT 2SM -SN BR BKN005 OVC023 RMK SN1SF5SC2

CYHM;2009-01-07 15:00;CYHM 071500Z 06006KT 2 1/2SM -SN BR BKN006 BKN013 OVC023 M00/M00 A2912 RMK SF6SC2SC1 /S02/ SLP869

CYHM;2009-01-07 15:52;CYHM 071552Z 14002KT 1 1/2SM -RASN BR OVC004 RMK FG1SF7 VISB VRBL 1-2SM

CYHM;2009-01-07 16:00;CYHM 071600Z 12003KT 1 1/2SM -RASN BR OVC003 00/00 A2910 RMK FG2SF6 SLP865

CYHM;2009-01-07 16:18;CYHM 071618Z 00000KT 2SM -RA BR OVC002 RMK SF8

CYHM;2009-01-07 16:43;CYHM 071643Z 25005KT 3/4SM -RA BR OVC002 RMK FG2SF6

CYHM;2009-01-07 17:00;CYHM 071700Z 23006KT 1SM -DZ BR OVC002 00/00 A2906 RMK FG2SF6 VISB VRBL 3/4-11/4 SM SLP851

CYHM;2009-01-07 18:00;CYHM 071800Z 22014KT 2 1/2SM -RA BR OVC004 00/00 A2904 RMK FG1SF7 SLP841

CYHM;2009-01-07 18:23;CYHM 071823Z 23016KT 4SM -RA BR OVC006 RMK SF8

CYHM;2009-01-07 18:44;CYHM 071844Z 22015G20KT 2SM -SHSN BR BKN004 OVC014 RMK SN1SF6SC1

CYHM;2009-01-07 19:00;CYHM 071900Z 22015KT 2 1/2SM -SHSN BR BKN007 OVC012 M00/M00 A2904 RMK SF6SC2 SLP841

CYHM;2009-01-07 20:00;CYHM 072000Z 23015G22KT 2 1/2SM -SHRASN BR OVC007 M00/M01 A2904 RMK SC8 SLP841

CYHM;2009-01-07 20:50;CYHM 072050Z 23017G23KT 1 3/4SM -SHSN BR OVC008 RMK SC8

CYHM;2009-01-07 21:00;CYHM 072100Z 23017G23KT 1 3/4SM -SHSN BR OVC008 M01/M02 A2906 RMK SC8 SLP848

CYHM;2009-01-07 22:00;CYHM 072200Z 22014G20KT 2SM -SHSN BR BKN009 OVC024 M01/M02 A2907 RMK SC6SC2 SLP851

CYHM;2009-01-07 23:00;CYHM 072300Z 23016KT 4SM -SHSN BR SCT009 BKN024 BKN041 M01/M02 A2907 RMK SF3SC2SC1 SLP854

CYHM;2009-01-08 00:00;CYHM 080000Z 24012KT 3SM -SHSN BR SCT009 OVC015 M01/M03 A2908 RMK SF4SC4 SLP855

CYHM;2009-01-08 00:50;CYHM 080050Z 24014G20KT 1SM -SN FEW008 BKN012 OVC042 RMK SF2SC5SC1

CYHM;2009-01-08 01:00;CYHM 080100Z 24014G20KT 1SM -SN FEW008 BKN012 OVC042 M02/M03 A2908 RMK SF2SC5SC1 SLP857

CYHM;2009-01-08 02:00;CYHM 080200Z 25014G20KT 2 1/2SM -SN FEW008 BKN013 OVC050 M03/M04 A2909 RMK SF2SC6SC1 SLP859

CYHM;2009-01-08 03:00;CYHM 080300Z 24018G26KT 2 1/2SM -SN FEW008 BKN012 OVC020 M03/M04 A2909 RMK SF2SC3SC3 SLP860

CYHM;2009-01-08 03:32;CYHM 080332Z 25018G23KT 4SM -SN DRSN FEW007 OVC016 RMK SF2SC6

CYHM;2009-01-08 04:00;CYHM 080400Z 25017KT 1 1/2SM -SN DRSN SCT008 OVC017 M02/M04 A2911 RMK SN2SF2SC5 VIS VRB 1 - 2 /S01/ SLP868

CYHM;2009-01-08 04:09;CYHM 080409Z 25017KT 4SM -SN DRSN FEW012 OVC025 RMK CF2SC6

CYHM;2009-01-08 05:00;CYHM 080500Z 25014KT 10SM -SN DRSN FEW012 BKN049 M02/M04 A2914 RMK CF2SC5 SLP876

CYHM;2009-01-08 06:00;CYHM 080600Z 26013KT 9SM -SN DRSN FEW013 BKN034 M02/M04 A2916 RMK CF2SC6 SLP882

CYHM;2009-01-08 07:00;CYHM 080700Z 26017G22KT 5SM -SN DRSN FEW017 BKN035 M03/M05 A2919 RMK CF1SC6 SLP892

CYHM;2009-01-08 08:00;CYHM 080800Z 25017G22KT 5SM -SN DRSN OVC025 M03/M05 A2922 RMK SC7 SLP902

CYHM;2009-01-08 09:00;CYHM 080900Z 25016G22KT 5SM -SN DRSN OVC045 M04/M06 A2924 RMK SC8 SLP910

CYHM;2009-01-08 10:00;CYHM 081000Z 26013KT 3SM -SN DRSN OVC015 M04/M06 A2926 RMK SC8 VIS VRB 2 - 4 SLP916

CYHM;2009-01-08 11:00;CYHM 081100Z 25012KT 7SM -SN DRSN FEW008 OVC018 M04/M06 A2928 RMK CF1SC7 SLP924

CYHM;2009-01-08 11:25;CYHM 081125Z 26016G21KT 2SM -SN DRSN FEW008 OVC017 RMK SF2SC6

CYHM;2009-01-08 11:39;CYHM 081139Z 25014KT 6SM -SN DRSN BKN012 OVC023 RMK SC5SC3

CYHM;2009-01-08 12:00;CYHM 081200Z 26014KT 5SM -SN FEW010 BKN015 OVC028 M04/M06 A2931 RMK SF2SC5SC2 SLP936

CYHM;2009-01-08 13:00;CYHM 081300Z 27010KT 7SM -SN FEW039 SCT059 BKN100 M05/M08 A2936 RMK SC2SC2AC1 SLP951

CYHM;2009-01-08 14:00;CYHM 081400Z 32010KT 10SM -SN FEW028 SCT045 BKN090 BKN220 M06/M09 A2942 RMK SC1SC2AC2CI2 SLP972

CYHM;2009-01-08 14:53;CYHM 081453Z 29014KT 15SM FEW038 BKN095 BKN220 RMK SC2AC3CI2

CYHM;2009-01-08 15:00;CYHM 081500Z 33010G15KT 15SM FEW045 SCT055 BKN095 BKN220 M06/M10 A2945 RMK SC1SC2AC2CI1 SLP984

CYHM;2009-01-08 16:00;CYHM 081600Z 30010KT 15SM FEW022 FEW058 SCT110 BKN230 M06/M10 A2948 RMK CU1SC1AC2CI2 SLP995

CYHM;2009-01-08 17:00;CYHM 081700Z 29012KT 15SM FEW028 FEW064 BKN085 BKN230 M06/M11 A2950 RMK CU1SC1AC3CI2 SLP000

CYHM;2009-01-08 18:00;CYHM 081800Z 28012KT 15SM FEW028 FEW063 SCT070 BKN220 M05/M11 A2951 RMK SC1SC2AC2CS2 TR CU ASOCTD HALO SLP005

CYHM;2009-01-08 19:00;CYHM 081900Z 28016G22KT 15SM FEW032 FEW062 BKN130 BKN220 M06/M10 A2955 RMK CU1SC2AC2CI2 SLP016

CYHM;2009-01-08 20:00;CYHM 082000Z 28017KT 15SM SCT026 BKN220 M05/M10 A2958 RMK SC3CI2 SLP027

CYHM;2009-01-08 21:00;CYHM 082100Z 28019KT 15SM SCT026 BKN220 M05/M10 A2962 RMK SC3CI1 SLP042

CYHM;2009-01-08 22:00;CYHM 082200Z 27008KT 15SM FEW026 FEW220 M05/M10 A2965 RMK SC1CI0 SLP053

CYHM;2009-01-08 23:00;CYHM 082300Z 26008KT 15SM FEW025 FEW220 M06/M10 A2969 RMK SC1CI1 BOTH LYRS TR SLP065

CYHM;2009-01-09 00:00;CYHM 090000Z 26006KT 15SM FEW230 M07/M10 A2972 RMK CI1 SLP078

CYHM;2009-01-09 01:00;CYHM 090100Z 26008KT 15SM BKN130 M07/M10 A2976 RMK AC5 SLP090

CYHM;2009-01-09 02:00;CYHM 090200Z 25007KT 15SM FEW140 M07/M10 A2978 RMK AC2 SLP095

CYHM;2009-01-09 03:00;CYHM 090300Z 24005KT 15SM FEW120 M09/M11 A2979 RMK AC2 SLP104

CYHM;2009-01-09 04:00;CYHM 090400Z 24004KT 15SM FEW100 M09/M11 A2981 RMK AC2 SLP110

CYHM;2009-01-09 05:00;CYHM 090500Z 24005KT 15SM FEW100 M11/M13 A2983 RMK AC1 SLP115

CYHM;2009-01-09 06:00;CYHM 090600Z 24005KT 15SM FEW100 M11/M13 A2984 RMK AC1 SLP119

CYHM;2009-01-09 07:00;CYHM 090700Z 26005KT 15SM FEW100 M11/M13 A2985 RMK AC1 SLP123

CYHM;2009-01-09 08:00;CYHM 090800Z 29004KT 15SM FEW100 M12/M13 A2988 RMK AC1 SLP131

CYHM;2009-01-09 09:00;CYHM 090900Z 28003KT 15SM FEW100 M12/M12 A2991 RMK AC1 SLP143

CYHM;2009-01-09 10:00;CYHM 091000Z 25003KT 15SM -SHSN OVC057 M14/M15 A2993 RMK SC8 SLP151

CYHM;2009-01-09 11:00;CYHM 091100Z 26003KT 12SM -SHSN FEW032 BKN048 OVC092 M12/M13 A2995 RMK SC2SC6AC1 SLP157

CYHM;2009-01-09 11:11;CYHM 091111Z 24003KT 2 1/2SM -SHSN BR BKN012 OVC031 RMK SC6SC2

CYHM;2009-01-09 11:53;CYHM 091153Z 25004KT 6SM -SHSN BR BKN024 BKN040 OVC088 RMK SC6SC2AC1

CYHM;2009-01-09 12:00;CYHM 091200Z 31003KT 6SM -SHSN BR FEW024 BKN045 BKN086 M11/M12 A2998 RMK SC2SC3AC2 SLP168

CYHM;2009-01-09 12:33;CYHM 091233Z 27002KT 2 1/2SM -SHSN BKN015 OVC037 RMK SC6SC2

CYHM;2009-01-09 13:00;CYHM 091300Z 26003KT 8SM -SHSN FEW045 FEW068 SCT220 M11/M12 A3000 RMK SC2AC1CI1 SLP175

CYHM;2009-01-09 13:03;CYHM 091303Z 26004KT 8SM FEW027 FEW070 SCT220 RMK SC2AC1CI1

CYHM;2009-01-09 13:51;CYHM 091351Z 26004KT 10SM -SHSN FEW022 BKN032 BKN080 BKN220 RMK SC2SC2AC1CI1

CYHM;2009-01-09 14:00;CYHM 091400Z 24005KT 8SM -SHSN BKN019 BKN028 BKN070 M10/M10 A3003 RMK SC5SC2AC1 SLP185

CYHM;2009-01-09 15:00;CYHM 091500Z 29003KT 6SM -SHSN SCT025 BKN071 BKN220 M09/M10 A3006 RMK SC3AC2CI1 SLP196

CYHM;2009-01-09 16:00;CYHM 091600Z 30003KT 10SM -SHSN FEW020 FEW120 SCT220 M08/M09 A3007 RMK SC1AC1CI1 SLP198

CYHM;2009-01-09 17:00;CYHM 091700Z 28005KT 15SM FEW035 SCT220 M06/M08 A3007 RMK SC2CI1 SLP198

CYHM;2009-01-09 18:00;CYHM 091800Z 32004KT 10SM BKN018 BKN023 BKN100 M05/M08 A3006 RMK SC5SC2AC1 SLP195

CYHM;2009-01-09 19:00;CYHM 091900Z 30007KT 10SM BKN023 BKN038 OVC210 M05/M08 A3008 RMK SC5SC2CI1 SLP201

CYHM;2009-01-09 19:19;CYHM 091919Z 23003KT 7SM -SHSN OVC025 RMK SC7

CYHM;2009-01-09 20:00;CYHM 092000Z 26009KT 7SM -SHSN FEW020 OVC049 M04/M08 A3010 RMK SC2SC6 SLP206

CYHM;2009-01-09 21:00;CYHM 092100Z 07007KT 10SM -SHSN FEW018 BKN042 BKN180 M06/M07 A3012 RMK CF2SC4AC1 SLP215

CYHM;2009-01-09 22:00;CYHM 092200Z 07005KT 5SM -SHSN FEW010 OVC038 M06/M07 A3013 RMK CF2SC6 SLP220

CYHM;2009-01-09 23:00;CYHM 092300Z 06003KT 6SM -SHSN FEW025 BKN042 M07/M07 A3015 RMK CF1SC6 SLP227

CYHM;2009-01-10 00:00;CYHM 100000Z 00000KT 8SM -SHSN SCT040 BKN150 M07/M08 A3017 RMK SC4AC1 SLP232

CYHM;2009-01-10 01:00;CYHM 100100Z 00000KT 6SM -SHSN SCT030 M07/M08 A3019 RMK SC3 SLP240

CYHM;2009-01-10 02:00;CYHM 100200Z 10003KT 1SM BR FEW015 M10/M10 A3020 RMK FG2SC1 VIS VRB 3/4 - 11/4 SLP241

CYHM;2009-01-10 02:25;CYHM 100225Z 00000KT 3/4SM BR SCT015 RMK FG2SC1 VIS VRB 1/2 - 1

CYHM;2009-01-10 03:00;CYHM 100300Z 00000KT 3/4SM BR SCT015 M11/M11 A3021 RMK FG2SC1 VIS VRB 1/2 - 1 SLP247

CYHM;2009-01-10 03:10;CYHM 100310Z 00000KT 1/4SM FZFG SKC RMK FG5

CYHM;2009-01-10 03:28;CYHM 100328Z 00000KT 1/2SM FZFG SCT020 RMK FG4SC1

CYHM;2009-01-10 03:41;CYHM 100341Z 00000KT 3/4SM BR SCT020 RMK FG2SC1 VIS VRB 1/2 - 1

CYHM;2009-01-10 04:00;CYHM 100400Z 00000KT 1/2SM FZFG BKN025 M11/M12 A3021 RMK FG5SC1 SLP247

CYHM;2009-01-10 04:44;CYHM 100444Z 04004KT 3/4SM BR FEW005 BKN025 RMK FG2SF1SC2 VIS VRB 1/2 - 1

CYHM;2009-01-10 04:49;CYHM 100449Z 04004KT 10SM MIFG FEW005 BKN023 BKN210 RMK SF2SC3CI1

CYHM;2009-01-10 05:00;CYHM 100500Z 03005KT 15SM MIFG FEW005 FEW023 BKN250 M10/M11 A3021 RMK SF1SC2CS2 HALO SLP248

CYHM;2009-01-10 06:00;CYHM 100600Z 03005KT 15SM FEW020 BKN230 M11/M12 A3021 RMK SC2CS4 HALO SLP246

CYHM;2009-01-10 07:00;CYHM 100700Z 02007KT 15SM FEW017 BKN230 M11/M12 A3021 RMK SC1CS4 HALO SLP247

CYHM;2009-01-10 08:00;CYHM 100800Z 03009KT 15SM FEW015 BKN200 M11/M12 A3022 RMK SC1CS6 HALO SLP248

CYHM;2009-01-10 09:00;CYHM 100900Z 04007KT 6SM -SHSN SCT022 BKN200 M10/M11 A3022 RMK SC3CS2 HALO SLP248

CYHM;2009-01-10 10:00;CYHM 101000Z 04008KT 6SM -SHSN FEW022 BKN033 BKN170 M10/M11 A3020 RMK CF1SC4AS2 SLP243

CYHM;2009-01-10 11:00;CYHM 101100Z 04007KT 8SM -SN FEW007 FEW015 SCT033 OVC170 M10/M11 A3020 RMK CF1SC2SC2AS3 SLP241

CYHM;2009-01-10 12:00;CYHM 101200Z 04007KT 12SM -SN FEW030 SCT080 BKN170 M11/M12 A3020 RMK SC2AC2AC3 PCPN VRY LGT SLP244

CYHM;2009-01-10 12:35;CYHM 101235Z 04008KT 12SM FEW030 SCT080 BKN130 RMK SC2AC2AC3

CYHM;2009-01-10 13:00;CYHM 101300Z 04008KT 15SM FEW030 SCT080 BKN130 M10/M11 A3019 RMK SC2AC2AC3 SLP241

CYHM;2009-01-10 14:00;CYHM 101400Z 05009KT 15SM FEW025 SCT080 OVC130 M09/M11 A3017 RMK SC1AC2AC5 SLP233

CYHM;2009-01-10 15:00;CYHM 101500Z 08009KT 15SM FEW025 BKN130 M08/M10 A3016 RMK SC2AS5 SUN DIMLY VISBL SLP228

CYHM;2009-01-10 16:00;CYHM 101600Z 06015KT 15SM FEW033 OVC130 M06/M10 A3013 RMK SC2AS6 SLP221

CYHM;2009-01-10 17:00;CYHM 101700Z CCA 07017KT 15SM FEW030 SCT120 OVC130 M06/M10 A3011 RMK SC2AC2AS5 SLP212

CYHM;2009-01-10 18:00;CYHM 101800Z 07017KT 15SM FEW030 SCT110 OVC120 M05/M10 A3005 RMK SC2AC2AS5 SLP192

CYHM;2009-01-10 19:00;CYHM 101900Z 06021G26KT 15SM DRSN FEW049 SCT110 OVC120 M05/M09 A3002 RMK SC2AC2AS4 SLP180

CYHM;2009-01-10 20:00;CYHM 102000Z 06021KT 15SM DRSN BKN050 OVC090 M05/M08 A3000 RMK SC5AS3 SLP174

CYHM;2009-01-10 21:00;CYHM 102100Z 06022G29KT 15SM DRSN BKN050 OVC082 M05/M09 A2997 RMK SC5AS3 SLP164

CYHM;2009-01-10 21:50;CYHM 102150Z CCA 06023KT 6SM -SHSN DRSN FEW016 OVC045 RMK CF2SC6

CYHM;2009-01-10 22:00;CYHM 102200Z 06023G28KT 1/2SM -SHSN BLSN OVC040 M05/M08 A2995 RMK SN6SC2 SLP158

CYHM;2009-01-10 22:25;CYHM 102225Z 08023KT 3/8SM -SHSN BLSN OVC015 RMK SN4SC4

CYHM;2009-01-10 23:00;CYHM 102300Z 05021KT 1/4SM -SN +BLSN OVC010 M05/M06 A2994 RMK SN5SC3 SLP154

CYHM;2009-01-10 23:13;CYHM 102313Z 06021KT 3/8SM -SN BLSN SCT007 OVC013 RMK SN2SF2SC4

CYHM;2009-01-11 00:00;CYHM 110000Z CCA 06021KT 3/8SM SN BLSN OVC010 M06/M07 A2994 RMK SN4SF4 /S01/ SLP155

CYHM;2009-01-11 01:00;CYHM 110100Z 02016KT 5/8SM -SN BLSN OVC011 M08/M09 A2991 RESN RMK SN3NS5 /S01/ SLP146

CYHM;2009-01-11 01:15;CYHM 110115Z 03018KT 3/4SM -SN DRSN OVC009 RMK SN3NS5

CYHM;2009-01-11 02:00;CYHM 110200Z CCA 02017KT 3/4SM -SN DRSN OVC008 M09/M10 A2989 RMK SN3NS5 /S02/ SLP138

CYHM;2009-01-11 02:40;CYHM 110240Z 02021KT 1SM -SN OVC009 RMK SN3NS5

CYHM;2009-01-11 03:00;CYHM 110300Z 01017KT 1SM -SN OVC008 M10/M11 A2988 RMK SN2NS6 /S04/ SLP133

CYHM;2009-01-11 03:13;CYHM 110313Z 01017KT 1SM -SN OVC011 RMK SN2NS6

CYHM;2009-01-11 03:36;CYHM 110336Z 01018KT 5SM -SN DRSN FEW009 OVC013 RMK SF2NS6

CYHM;2009-01-11 04:00;CYHM 110400Z 01017KT 6SM -SN DRSN OVC014 M09/M11 A2990 RMK NS8 /S06/ SLP139

CYHM;2009-01-11 04:20;CYHM 110420Z 01015KT 3SM -SN DRSN OVC018 RMK SC8 VIS VRB 2 - 4

CYHM;2009-01-11 05:00;CYHM 110500Z 01015KT 5SM -SN DRSN BKN019 OVC040 M10/M12 A2990 RMK SC6SC2 SLP141

CYHM;2009-01-11 05:47;CYHM 110547Z 36012KT 3SM -SN DRSN OVC010 RMK SC8 VIS VRB 2 - 4

CYHM;2009-01-11 05:52;CYHM 110552Z 36012KT 1SM -SN DRSN VV006 RMK SN8 VIS VRB 3/4 - 11/4

CYHM;2009-01-11 06:00;CYHM 110600Z 36011KT 1SM -SN DRSN VV005 M10/M12 A2992 RMK SN8 VIS VRB 3/4 - 11/4 /S10/ SLP146

CYHM;2009-01-11 06:37;CYHM 110637Z 35009KT 1 1/2SM -SN VV012 RMK SN8 VIS VRB 1 - 2

CYHM;2009-01-11 07:00;CYHM 110700Z 36007KT 3SM -SN OVC015 M10/M12 A2993 RMK SC7 VIS VRB 2 - 4 SLP150

CYHM;2009-01-11 08:00;CYHM 110800Z 34007KT 3SM -SN BKN015 M10/M12 A2997 RMK SC7 VIS VRB 2 - 4 SLP162

CYHM;2009-01-11 09:00;CYHM 110900Z 34007KT 6SM -SHSN SCT025 M11/M13 A2999 RMK SC2 SLP171

CYHM;2009-01-11 10:00;CYHM 111000Z 31004KT 15SM SCT024 BKN110 M12/M15 A3000 RMK SC3AC2 SLP175

CYHM;2009-01-11 11:00;CYHM 111100Z 28005KT 15SM FEW025 FEW130 FEW210 M12/M14 A3004 RMK SC1AC1CI1 TR SC SLP186

CYHM;2009-01-11 12:00;CYHM 111200Z 29004KT 15SM FEW030 M15/M16 A3003 RMK SC1 SLP187

CYHM;2009-01-11 13:00;CYHM 111300Z 25003KT 15SM FEW030 M17/M18 A3006 RMK SC1 SLP196

CYHM;2009-01-11 14:00;CYHM 111400Z 28005KT 15SM FEW030 FEW210 M14/M16 A3008 RMK SC1CI0 SC TR SLP202

CYHM;2009-01-11 15:00;CYHM 111500Z 30003KT 15SM FEW220 M13/M16 A3007 RMK CI0 SLP199

CYHM;2009-01-11 16:00;CYHM 111600Z 27005KT 15SM SCT240 M10/M14 A3008 RMK CI1 SLP204

CYHM;2009-01-11 17:00;CYHM 111700Z 24005KT 15SM BKN220 M08/M13 A3008 RMK CI2 SLP205

CYHM;2009-01-11 18:00;CYHM 111800Z 00000KT 15SM BKN220 M08/M13 A3005 RMK CI2 SLP192

CYHM;2009-01-11 19:00;CYHM 111900Z 00000KT 15SM BKN210 M07/M13 A3004 RMK CI3 SLP188

CYHM;2009-01-11 20:00;CYHM 112000Z 21004KT 15SM BKN110 BKN210 M08/M13 A3003 RMK AC5CI2 SLP185

CYHM;2009-01-11 21:00;CYHM 112100Z 21003KT 15SM BKN100 OVC210 M08/M12 A3002 RMK AC7CI1 SLP183

CYHM;2009-01-11 22:00;CYHM 112200Z 22005KT 15SM OVC077 M07/M11 A3002 RMK AC8 SLP182

CYHM;2009-01-11 23:00;CYHM 112300Z 25003KT 15SM BKN032 OVC073 M07/M11 A3002 RMK SC6AC2 SLP181

CYHM;2009-01-12 00:00;CYHM 120000Z 24007KT 15SM BKN025 OVC092 M07/M10 A3003 RMK SC7AC1 SLP185

CYHM;2009-01-12 01:00;CYHM 120100Z 24006KT 15SM SCT022 BKN130 BKN220 M08/M10 A3003 RMK SC3AC2CI2 SLP185

CYHM;2009-01-12 02:00;CYHM 120200Z 25005KT 15SM FEW022 BKN110 BKN220 M08/M10 A3003 RMK SC1AC5CI1 SLP185

CYHM;2009-01-12 03:00;CYHM 120300Z 25004KT 15SM FEW072 BKN100 BKN220 M08/M11 A3003 RMK AC2AC3CI1 SLP185

CYHM;2009-01-12 04:00;CYHM 120400Z 25005KT 15SM FEW025 FEW070 BKN180 M09/M11 A3003 RMK SC1AC2AC2 SLP185

CYHM;2009-01-12 05:00;CYHM 120500Z 26005KT 15SM FEW030 FEW045 BKN094 M10/M12 A3003 RMK CF1SC1AC4 SLP185

CYHM;2009-01-12 06:00;CYHM 120600Z 28003KT 15SM FEW030 FEW045 BKN083 M11/M11 A3001 RMK CF1SC2AC3 SLP178

CYHM;2009-01-12 07:00;CYHM 120700Z 25005KT 15SM FEW070 SCT088 BKN120 M12/M13 A3001 RMK AC2AC2AC2 SLP180

CYHM;2009-01-12 08:00;CYHM 120800Z 24004KT 15SM FEW090 BKN120 M12/M13 A3002 RMK AC2AC5 SLP182

CYHM;2009-01-12 09:00;CYHM 120900Z 25006KT 15SM FEW030 FEW120 M14/M15 A3003 RMK SC1AC1 FROIN SLP187

CYHM;2009-01-12 10:00;CYHM 121000Z 25007KT 6SM BR FEW120 BKN250 M12/M13 A3004 RMK AC1CI2 FROIN SLP191

CYHM;2009-01-12 10:07;CYHM 121007Z 25009KT 4SM BR BKN002 RMK SF7

CYHM;2009-01-12 10:14;CYHM 121014Z 26009KT 3/4SM BR BKN002 RMK FG3SF4 VIS VRB 1/2 - 1

CYHM;2009-01-12 10:35;CYHM 121035Z 26009KT 1/2SM FZFG BKN002 RMK FG4SF3

CYHM;2009-01-12 10:49;CYHM 121049Z 26009KT 1/4SM FZFG BKN002 RMK FG5SF2

CYHM;2009-01-12 11:00;CYHM 121100Z 26010KT 1/4SM FZFG BKN002 M12/M13 A3007 RMK FG5SF2 FROIN SLP199

CYHM;2009-01-12 11:39;CYHM 121139Z 25008KT 1SM BR OVC002 RMK FG2SF6

CYHM;2009-01-12 12:00;CYHM 121200Z 25009KT 1 1/2SM BR OVC002 M12/M13 A3009 RMK FG1SF7 SLP207

CYHM;2009-01-12 12:38;CYHM 121238Z 25008KT 3/4SM BR OVC002 RMK FG2SF6

CYHM;2009-01-12 13:00;CYHM 121300Z 24008KT 3/4SM BR OVC002 M12/M13 A3012 RMK FG2SF6 SLP215

CYHM;2009-01-12 13:19;CYHM 121319Z 25009KT 1/2SM FZFG OVC002 RMK FG3SF5 VIS VRBL 1/4-3-4

CYHM;2009-01-12 13:42;CYHM 121342Z 24007KT 3/4SM BR OVC002 RMK FG2SF6

CYHM;2009-01-12 13:50;CYHM 121350Z 25006KT 1 1/2SM BR BKN002 RMK FG2SF5

CYHM;2009-01-12 14:00;CYHM 121400Z 26007KT 1 1/2SM BR BKN002 M11/M12 A3014 RMK FG2SF4 SLP222

CYHM;2009-01-12 14:16;CYHM 121416Z 25007KT 2SM BR SCT002 RMK FG1SF3

CYHM;2009-01-12 15:00;CYHM 121500Z 25006KT 2 1/2SM BR SKC M10/M11 A3016 RMK SLP230

CYHM;2009-01-12 16:00;CYHM 121600Z 25006KT 4SM BR SKC M08/M09 A3016 RMK SLP229

CYHM;2009-01-12 17:00;CYHM 121700Z 24014KT 5SM DRSN BR SCT007 BKN011 M07/M08 A3017 RMK SF3SC2 SLP231

CYHM;2009-01-12 18:00;CYHM 121800Z 22013KT 6SM BR BKN011 M07/M08 A3016 RMK SC6 SLP228

CYHM;2009-01-12 19:00;CYHM 121900Z 27011KT 8SM BKN013 BKN019 M07/M09 A3015 RMK SC5SC2 SLP227

CYHM;2009-01-12 20:00;CYHM 122000Z 25011KT 8SM BKN015 M06/M09 A3014 RMK SC7 SLP224

CYHM;2009-01-12 21:00;CYHM 122100Z 24005KT 8SM OVC018 M06/M09 A3015 RMK SC8 SLP226

CYHM;2009-01-12 22:00;CYHM 122200Z 24007KT 9SM OVC019 M06/M09 A3015 RMK SC7 SLP227

CYHM;2009-01-12 23:00;CYHM 122300Z 22007KT 15SM SCT026 BKN150 M07/M10 A3015 RMK SC3AC4 SLP226

CYHM;2009-01-12 23:40;CYHM 122340Z 23008KT 15SM -SHSN OVC022 RMK SC8

CYHM;2009-01-13 00:00;CYHM 130000Z 23007KT 15SM -SHSN OVC026 M06/M09 A3014 RMK SC8 SLP222

CYHM;2009-01-13 01:00;CYHM 130100Z 22005KT 15SM -SHSN OVC025 M06/M08 A3013 RMK SC8 SLP220

CYHM;2009-01-13 02:00;CYHM 130200Z 21006KT 15SM -SHSN OVC026 M06/M08 A3011 RMK SC8 SLP212

CYHM;2009-01-13 03:00;CYHM 130300Z 18006KT 15SM -SHSN OVC031 M05/M07 A3007 RMK SC8 SLP198

CYHM;2009-01-13 04:00;CYHM 130400Z 19008KT 15SM -SHSN OVC032 M04/M07 A3004 RMK SC7 SLP187

CYHM;2009-01-13 05:00;CYHM 130500Z 20010KT 12SM -SHSN FEW018 OVC033 M03/M06 A3001 RMK SC2SC6 SLP179

CYHM;2009-01-13 06:00;CYHM 130600Z 19008KT 8SM -SHSN FEW018 OVC026 M03/M04 A2998 RMK SC2SC6 SLP165

CYHM;2009-01-13 07:00;CYHM 130700Z 21009KT 10SM -SHSN BKN012 OVC030 M02/M04 A2996 RMK SC5SC3 SLP157

CYHM;2009-01-13 08:00;CYHM 130800Z 19010KT 12SM -SHSN OVC032 M02/M04 A2994 RMK SC8 SLP151

CYHM;2009-01-13 09:00;CYHM 130900Z CCA 19010KT 12SM -SHSN FEW012 OVC042 M02/M03 A2988 RMK SF1SC7 SLP130

CYHM;2009-01-13 10:00;CYHM 131000Z 18008KT 2 1/2SM -SN BKN018 OVC040 M01/M03 A2982 RMK SC6SC2 SLP112

CYHM;2009-01-13 10:27;CYHM 131027Z 18012KT 1 3/4SM -SN OVC008 RMK SC8

CYHM;2009-01-13 11:00;CYHM 131100Z 18012KT 1 1/2SM -SN OVC006 M01/M02 A2978 RMK SC8 SLP098

CYHM;2009-01-13 11:28;CYHM 131128Z 19015G20KT 2SM -SN BLSN BKN005 OVC010 RMK SF6SC2

CYHM;2009-01-13 11:43;CYHM 131143Z 19016KT 1SM -SN BLSN BKN004 OVC011 RMK SN1SF6SC2

CYHM;2009-01-13 12:00;CYHM 131200Z 18017KT 1 1/2SM -SN BLSN BKN005 OVC010 M01/M01 A2974 RMK SN2SF5SC2 SLP081

CYHM;2009-01-13 12:44;CYHM 131244Z 19020KT 3/4SM -SN BLSN BKN005 OVC012 RMK SN2SF6SC1

CYHM;2009-01-13 13:00;CYHM 131300Z 19016G22KT 3/4SM -SN BLSN BKN005 OVC013 M00/M00 A2971 RMK SN2SF5SC1 /S01/VIS VRBL 1/2-1 SM SLP071

CYHM;2009-01-13 14:00;CYHM 131400Z 21022KT 3/4SM -SN BLSN BKN006 OVC012 M00/M00 A2969 RMK SN2SF6SC1 SLP065

CYHM;2009-01-13 15:00;CYHM 131500Z 22018KT 1SM -SN BKN007 OVC013 M00/M00 A2968 RMK SN2SF6SC1 VIS VRB 3/4-11/4SM SLP060

CYHM;2009-01-13 15:51;CYHM 131551Z 22015KT 2 1/2SM -SN BKN004 OVC012 RMK SF6SC2

CYHM;2009-01-13 16:00;CYHM 131600Z 22013KT 3SM -SN BKN007 OVC011 00/00 A2965 RMK SF6SC2 SLP052

CYHM;2009-01-13 16:24;CYHM 131624Z 22018KT 2SM -SN OVC007 RMK SF8

CYHM;2009-01-13 16:33;CYHM 131633Z 22016KT 1SM -SN BKN006 OVC016 RMK SN1SF6SC2 VIS VRBL 3/4-11/4SM

CYHM;2009-01-13 16:54;CYHM 131654Z 23018KT 3SM -SN SCT007 OVC012 RMK SF4SC4

CYHM;2009-01-13 17:00;CYHM 131700Z 23020KT 3SM -SN SCT008 BKN014 OVC018 00/00 A2963 RMK SF3SC3SC2 SLP045

CYHM;2009-01-13 17:15;CYHM 131715Z 23019G25KT 2SM -SN SCT009 BKN013 OVC018 RMK SF3SC3SC2

CYHM;2009-01-13 17:32;CYHM 131732Z 25022G32KT 3/4SM -SN BLSN BKN007 OVC018 RMK SN2SF6SC1

CYHM;2009-01-13 17:50;CYHM 131750Z 25016G22KT 2SM -SN FEW009 BKN013 OVC030 RMK SF2SC4SC2

CYHM;2009-01-13 18:00;CYHM 131800Z 24016G22KT 2SM -SN FEW009 BKN015 OVC030 M00/M00 A2961 RMK SF2SC5SC2 SLP038

CYHM;2009-01-13 18:31;CYHM 131831Z 29020G25KT 3SM -SN DRSN BKN021 OVC035 RMK SC6SC2

CYHM;2009-01-13 19:00;CYHM 131900Z 29015G20KT 2SM -SN DRSN BKN024 OVC039 M02/M05 A2964 RMK SC6SC2 SLP048

CYHM;2009-01-13 20:00;CYHM 132000Z 29018G28KT 10SM -SN DRSN BKN018 OVC098 M04/M08 A2968 RMK SC7AC1 VSBY N-N/E 1-21/2SM DUE TO BLOWING SNOW SLP061

CYHM;2009-01-13 21:00;CYHM 132100Z 29013G24KT 15SM DRSN FEW022 BKN110 BKN250 M06/M11 A2975 RMK SC2AC3CI0 SLP086

CYHM;2009-01-13 22:00;CYHM 132200Z 25017G25KT 15SM DRSN FEW026 FEW120 M08/M13 A2980 RMK SC2AC1 AC TR SLP104

CYHM;2009-01-13 23:00;CYHM 132300Z 28017G24KT 15SM DRSN FEW024 M09/M14 A2986 RMK SC2 CF ASOCTD SLP124

CYHM;2009-01-14 00:00;CYHM 140000Z 29015G21KT 15SM DRSN FEW024 M10/M14 A2991 RMK SC2 SLP140

CYHM;2009-01-14 01:00;CYHM 140100Z 28008KT 5SM -SHSN FEW024 BKN045 M11/M15 A2996 RMK SC2SC4 SLP157

CYHM;2009-01-14 02:00;CYHM 140200Z 26008KT 15SM -SHSN BKN024 M12/M15 A2999 RMK SC6 SLP167

CYHM;2009-01-14 03:00;CYHM 140300Z 27010KT 15SM FEW024 M13/M16 A3001 RMK SC2 SLP175

CYHM;2009-01-14 03:50;CYHM 140350Z 27010KT 12SM -SHSN BKN038 RMK SC7

CYHM;2009-01-14 04:00;CYHM 140400Z 27010KT 12SM -SHSN BKN038 M13/M16 A3002 RMK SC7 SLP181

CYHM;2009-01-14 05:00;CYHM 140500Z 32005KT 12SM -SHSN SCT018 M15/M16 A3004 RMK SC2 SLP187

CYHM;2009-01-14 06:00;CYHM 140600Z 30006KT 15SM -SHSN SCT022 M15/M18 A3005 RMK SC3 SLP190

CYHM;2009-01-14 07:00;CYHM 140700Z 30004KT 15SM FEW024 M17/M20 A3005 RMK SC1 SC TR SLP192

CYHM;2009-01-14 08:00;CYHM 140800Z 32003KT 15SM FEW024 FEW110 M18/M21 A3006 RMK SC1AC1 SC TR AC TR SLP195

CYHM;2009-01-14 09:00;CYHM 140900Z 27004KT 15SM FEW120 M18/M24 A3008 RMK AC1 SLP204

CYHM;2009-01-14 10:00;CYHM 141000Z 25004KT 15SM BKN030 M20/M23 A3009 RMK SC7 SLP209

CYHM;2009-01-14 11:00;CYHM 141100Z 00000KT 15SM BKN028 M18/M22 A3011 RMK SC7 SLP215

CYHM;2009-01-14 12:00;CYHM 141200Z 00000KT 15SM FEW029 SCT230 M18/M22 A3013 RMK SC2CI0 CI TR CONTRAIL SLP222

CYHM;2009-01-14 13:00;CYHM 141300Z 06003KT 15SM FEW030 SCT150 BKN230 M19/M23 A3012 RMK SC1AC2CI1 SLP220

CYHM;2009-01-14 14:00;CYHM 141400Z 06004KT 15SM FEW030 BKN120 OVC160 M18/M21 A3012 RMK SC1AC6AC2 SLP220

CYHM;2009-01-14 15:00;CYHM 141500Z 06006KT 10SM FEW060 SCT090 OVC120 M17/M20 A3013 RMK SC1AC2AS5 SLP222

CYHM;2009-01-14 16:00;CYHM 141600Z 06004KT 15SM BKN038 BKN100 OVC130 M16/M19 A3012 RMK SC5AC2AS2 SLP220

CYHM;2009-01-14 17:00;CYHM 141700Z 12004KT 15SM FEW055 BKN090 OVC110 M15/M18 A3010 RMK SC2AC2AS3 SLP214

CYHM;2009-01-14 17:44;CYHM 141744Z 09003KT 8SM -SHSN BKN018 BKN030 OVC070 RMK SC6SC2AC1

CYHM;2009-01-14 18:00;CYHM 141800Z 08002KT 3SM -SHSN BKN018 OVC033 M14/M17 A3008 RMK SC6SC2 SLP207

CYHM;2009-01-14 18:30;CYHM 141830Z 12006KT 2SM -SHSN BKN016 OVC034 RMK SC6SC2

CYHM;2009-01-14 19:00;CYHM 141900Z 11005KT 2SM -SN SCT009 BKN015 OVC028 M13/M16 A3006 RMK SF3SC3SC2 SLP199

CYHM;2009-01-14 20:00;CYHM 142000Z 10004KT 2SM -SN OVC030 M13/M16 A3005 RMK SN2SC6 SLP197

CYHM;2009-01-14 21:00;CYHM 142100Z 08004KT 2SM -SN OVC032 M13/M15 A3004 RMK SN2ST6 SLP195

CYHM;2009-01-14 22:00;CYHM 142200Z 08002KT 2SM -SN OVC032 M13/M15 A3005 RMK SN2ST6 SLP196

CYHM;2009-01-14 22:45;CYHM 142245Z 03002KT 3SM -SN BKN034 OVC060 RMK ST6ST2

CYHM;2009-01-14 23:00;CYHM 142300Z 35003KT 3SM -SN SCT034 OVC054 M13/M15 A3005 RMK ST3ST5 SLP198

CYHM;2009-01-15 00:00;CYHM 150000Z 01005KT 6SM -SN OVC047 M13/M15 A3008 RMK SC8 /S01/ SLP206

CYHM;2009-01-15 01:00;CYHM 150100Z 36004KT 6SM -SN OVC045 M14/M16 A3009 RMK SC8 SLP210

CYHM;2009-01-15 02:00;CYHM 150200Z 02004KT 7SM -SN OVC060 M14/M16 A3009 RMK SC8 SLP209

CYHM;2009-01-15 03:00;CYHM 150300Z 00000KT 9SM -SN FEW040 BKN190 M15/M17 A3009 RMK SC2AC3 SLP210

CYHM;2009-01-15 04:00;CYHM 150400Z 00000KT 12SM -SN FEW050 BKN070 M15/M18 A3008 RMK SC2AC3 SLP208

CYHM;2009-01-15 05:00;CYHM 150500Z 32003KT 6SM -SN FEW007 OVC070 M15/M18 A3010 RMK CF2AC6 SLP213

CYHM;2009-01-15 06:00;CYHM 150600Z 34005KT 6SM -SN OVC090 M16/M18 A3010 RMK AC7 SLP215

CYHM;2009-01-15 07:00;CYHM 150700Z 36008KT 5SM -SN BKN025 M16/M18 A3011 RMK SC5 SLP218

CYHM;2009-01-15 08:00;CYHM 150800Z 02011KT 7SM -SN OVC032 M15/M18 A3014 RMK SC7 SLP228

CYHM;2009-01-15 09:00;CYHM 150900Z 02011KT 6SM -SN FEW025 BKN067 M16/M19 A3016 RMK SC2AC6 SLP233

CYHM;2009-01-15 10:00;CYHM 151000Z 02011KT 2 1/2SM -SN OVC030 M16/M19 A3018 RMK SC7 /S01/ SLP239

CYHM;2009-01-15 10:15;CYHM 151015Z 02011KT 5SM -SN OVC034 RMK SC7

CYHM;2009-01-15 11:00;CYHM 151100Z 03013KT 6SM -SN BKN058 M16/M20 A3020 RMK SC7 SLP246

CYHM;2009-01-15 12:00;CYHM 151200Z 03005KT 6SM -SN BKN047 BKN053 BKN078 M16/M20 A3022 RMK SC5SC2AC1 SLP255

CYHM;2009-01-15 12:27;CYHM 151227Z 01006KT 8SM FEW022 SCT048 SCT080 RMK SC2SC2AC1

CYHM;2009-01-15 13:00;CYHM 151300Z 35002KT 15SM FEW022 M17/M22 A3024 RMK SC2 SLP262

CYHM;2009-01-15 14:00;CYHM 151400Z 00000KT 15SM FEW025 FEW210 M18/M23 A3027 RMK SC1CI1 SLP271

CYHM;2009-01-15 15:00;CYHM 151500Z 00000KT 15SM BKN025 BKN060 M17/M23 A3029 RMK SC5SC2 SLP277

CYHM;2009-01-15 16:00;CYHM 151600Z 24006KT 15SM FEW019 BKN040 BKN080 M17/M22 A3030 RMK SC2SC2AC1 SLP281

CYHM;2009-01-15 17:00;CYHM 151700Z 25003KT 15SM FEW030 FEW120 FEW210 M16/M22 A3028 RMK CU1AC1CI1 CU TR SLP276

CYHM;2009-01-15 18:00;CYHM 151800Z 25008KT 15SM FEW025 FEW040 SCT120 M14/M20 A3026 RMK SC1SC2AC1 SLP269

CYHM;2009-01-15 19:00;CYHM 151900Z 26007KT 15SM FEW025 FEW055 FEW100 M13/M19 A3026 RMK CU1SC1AC1 CU TR SLP269

CYHM;2009-01-15 20:00;CYHM 152000Z 24011KT 15SM BKN028 M12/M19 A3026 RMK SC7 CU ASOCTD SLP269

CYHM;2009-01-15 21:00;CYHM 152100Z 25010KT 15SM BKN033 M12/M20 A3027 RMK SC6 CU ASOCTD SLP271

CYHM;2009-01-15 22:00;CYHM 152200Z 25012KT 15SM SCT030 M13/M19 A3029 RMK SC4 CU ASOCTD SLP276

CYHM;2009-01-15 23:00;CYHM 152300Z 23011KT 15SM FEW030 M15/M21 A3030 RMK SC1 SLP281

CYHM;2009-01-16 00:00;CYHM 160000Z 24009KT 15SM FEW061 M16/M22 A3032 RMK SC2 SLP288

CYHM;2009-01-16 01:00;CYHM 160100Z 24008KT 15SM FEW075 FEW220 M16/M23 A3033 RMK AC1CI0 SLP293

CYHM;2009-01-16 02:00;CYHM 160200Z 24009KT 15SM FEW075 FEW220 M16/M22 A3033 RMK AC1CI0 SLP294

CYHM;2009-01-16 03:00;CYHM 160300Z 25010KT 15SM FEW075 M17/M23 A3033 RMK AC1 SLP295

CYHM;2009-01-16 04:00;CYHM 160400Z 24009KT 15SM FEW075 M18/M23 A3034 RMK AC1 SLP296

CYHM;2009-01-16 05:00;CYHM 160500Z 24009KT 15SM FEW078 M18/M23 A3034 RMK AC2 SLP296

CYHM;2009-01-16 06:00;CYHM 160600Z 24012KT 15SM FEW072 M17/M22 A3033 RMK AC2 SLP291

CYHM;2009-01-16 07:00;CYHM 160700Z 24010KT 15SM FEW070 M18/M23 A3033 RMK AC1 SLP292

CYHM;2009-01-16 08:00;CYHM 160800Z 24011KT 15SM FEW070 M19/M23 A3034 RMK AC1 SLP296

CYHM;2009-01-16 09:00;CYHM 160900Z 25011KT 15SM SKC M19/M23 A3034 RMK SLP296

CYHM;2009-01-16 10:00;CYHM 161000Z 24010KT 15SM FEW210 M19/M23 A3036 RMK CI1 SLP301

CYHM;2009-01-16 11:00;CYHM 161100Z 24012KT 15SM SKC M19/M23 A3037 RMK SLP306

CYHM;2009-01-16 12:00;CYHM 161200Z 25012KT 15SM SKC M20/M24 A3039 RMK SLP315

CYHM;2009-01-16 13:00;CYHM 161300Z 25012KT 15SM FEW035 M20/M24 A3041 RMK SC1 SC TR SLP321

CYHM;2009-01-16 14:00;CYHM 161400Z 25014KT 15SM FEW035 M20/M24 A3043 RMK SC1 SC TR SLP329

CYHM;2009-01-16 15:00;CYHM 161500Z 25014KT 15SM FEW040 M19/M24 A3044 RMK CU1 CU TR SLP333

CYHM;2009-01-16 16:00;CYHM 161600Z 25016KT 15SM DRSN FEW040 M18/M23 A3044 RMK SC1 SC TR CU ASOCTD SLP333

CYHM;2009-01-16 17:00;CYHM 161700Z 24018KT 15SM DRSN FEW040 FEW230 M17/M22 A3043 RMK SC1CI0 SLP330

CYHM;2009-01-16 18:00;CYHM 161800Z 25015KT 15SM FEW040 FEW240 M16/M22 A3042 RMK SC1CI0 SCT TR CI TR SLP323

CYHM;2009-01-16 19:00;CYHM 161900Z 25014KT 15SM FEW040 FEW240 M15/M21 A3042 RMK SC1CI0 SC TR CI TR CONTRAIL SLP325

CYHM;2009-01-16 20:00;CYHM 162000Z 25014KT 15SM FEW040 FEW240 M15/M22 A3043 RMK SC1CI1 TR CI CONTRAIL SLP327

CYHM;2009-01-16 21:00;CYHM 162100Z 25016KT 15SM FEW035 M16/M22 A3044 RMK SC1 SLP332

CYHM;2009-01-16 22:00;CYHM 162200Z 24012KT 15SM FEW035 FEW090 M16/M22 A3045 RMK SC1AC1 SLP334

CYHM;2009-01-16 23:00;CYHM 162300Z 24012KT 15SM FEW035 FEW210 M17/M22 A3044 RMK SC1CI1 TR SC SLP332

CYHM;2009-01-17 00:00;CYHM 170000Z 25010KT 15SM FEW220 M17/M23 A3044 RMK CI1 SLP332

CYHM;2009-01-17 01:00;CYHM 170100Z 24011KT 15SM FEW210 M17/M23 A3043 RMK CI1 SLP330

CYHM;2009-01-17 02:00;CYHM 170200Z 23009KT 15SM FEW210 M17/M22 A3043 RMK CI1 SLP328

CYHM;2009-01-17 03:00;CYHM 170300Z 24010KT 15SM FEW210 M17/M22 A3043 RMK CI2 SLP328

CYHM;2009-01-17 04:00;CYHM 170400Z 24008KT 15SM FEW210 M18/M22 A3042 RMK CI1 SLP327

CYHM;2009-01-17 05:00;CYHM 170500Z 23010KT 15SM FEW070 FEW220 M19/M23 A3042 RMK AC1CI1 SLP326

CYHM;2009-01-17 06:00;CYHM 170600Z 23008KT 15SM FEW230 M20/M24 A3041 RMK CI1 SLP321

CYHM;2009-01-17 07:00;CYHM 170700Z 23010KT 15SM FEW210 M20/M23 A3041 RMK CI1 FROIN SLP322

CYHM;2009-01-17 08:00;CYHM 170800Z 23007KT 15SM FEW030 M20/M24 A3040 RMK SC1 FROIN SLP319

CYHM;2009-01-17 09:00;CYHM 170900Z 22007KT 15SM FEW230 M20/M24 A3038 RMK CI1 FROIN SLP311

CYHM;2009-01-17 10:00;CYHM 171000Z 22008KT 15SM FEW220 M20/M25 A3037 RMK CI1 FROIN SLP307

CYHM;2009-01-17 11:00;CYHM 171100Z 21006KT 15SM FEW220 M20/M23 A3036 RMK CI1 FROIN SLP305

CYHM;2009-01-17 12:00;CYHM 171200Z 21006KT 15SM FEW180 BKN210 M20/M23 A3036 RMK AC2CI1 FROIN SLP303

CYHM;2009-01-17 13:00;CYHM 171300Z 20010KT 15SM FEW030 BKN150 BKN210 M17/M21 A3033 RMK SC1AC5CI1 FROIN SLP295

CYHM;2009-01-17 14:00;CYHM 171400Z 20013KT 15SM FEW030 BKN110 OVC120 M15/M21 A3031 RMK SC1AC5AC2 FROIN SLP288

CYHM;2009-01-17 15:00;CYHM 171500Z 19015KT 15SM OVC100 M14/M21 A3027 RMK AC8 SLP272

CYHM;2009-01-17 16:00;CYHM 171600Z 19017KT 15SM OVC090 M13/M21 A3023 RMK AC8 SLP259

CYHM;2009-01-17 17:00;CYHM 171700Z 19013G23KT 15SM FEW025 SCT080 OVC090 M12/M21 A3019 RMK CF1AC3AS4 SLP244

CYHM;2009-01-17 18:00;CYHM 171800Z 20014KT 15SM BKN051 OVC070 M12/M20 A3015 RMK SC5AS3 SLP231

CYHM;2009-01-17 19:00;CYHM 171900Z 19018G23KT 2 1/2SM -SN DRSN BKN023 OVC035 M11/M20 A3010 RMK SC5SC3 SLP214

CYHM;2009-01-17 19:17;CYHM 171917Z 18018KT 1SM -SN DRSN BKN014 OVC027 RMK SN3SC3SC2

CYHM;2009-01-17 19:35;CYHM 171935Z 18023KT 1/2SM -SN BLSN BKN011 OVC025 RMK SN3SC3SC2

CYHM;2009-01-17 20:00;CYHM 172000Z 17012KT 5/8SM -SN DRSN BKN011 OVC025 M11/M18 A3004 RMK SN3SC3SC2 SLP196

CYHM;2009-01-17 20:22;CYHM 172022Z 15011KT 3/8SM SN DRSN BKN007 OVC023 RMK SN4SC2SC2

CYHM;2009-01-17 20:23;CYHM 172023Z 15009KT 5/8SM -SN DRSN BKN009 OVC021 RESN RMK SN4SC2SC2

CYHM;2009-01-17 21:00;CYHM 172100Z CCA 15010KT 5/8SM -SN DRSN BKN007 OVC017 M11/M12 A3001 RESN RMK SN5SC2SC2 SLP184

CYHM;2009-01-17 21:24;CYHM 172124Z 15013KT 3/8SM SN VV008 RMK SN8

CYHM;2009-01-17 22:00;CYHM 172200Z CCA 13011KT 5/8SM -SN BKN007 OVC018 M11/M12 A2995 RESN RMK SN4SC2SC2 PRESFR SLP164

CYHM;2009-01-17 22:15;CYHM 172215Z 14011KT 5/8SM -SN BKN005 OVC016 RMK SN4SC2SC2

CYHM;2009-01-17 22:35;CYHM 172235Z 14011KT 3/4SM -SN BKN007 OVC019 RMK SN4SC2SC2

CYHM;2009-01-17 23:00;CYHM 172300Z CCA 14012KT 3/4SM -SN BKN008 OVC020 M10/M11 A2993 RMK SN4SC2SC2 /S01/ SLP155

CYHM;2009-01-18 00:00;CYHM 180000Z 14008KT 3/4SM -SN BKN005 OVC015 M10/M11 A2991 RMK SN4SC2SC2 /S02/ SLP149

CYHM;2009-01-18 00:40;CYHM 180040Z 15008KT 5/8SM -SN OVC003 RMK SN4SF4

CYHM;2009-01-18 01:00;CYHM 180100Z 15007KT 5/8SM -SN OVC004 M09/M10 A2989 RMK SN5SF3 SLP143

CYHM;2009-01-18 01:25;CYHM 180125Z 17006KT 3/4SM -SN BKN006 OVC018 RMK SN4SF2SC2

CYHM;2009-01-18 01:40;CYHM 180140Z 18007KT 1SM -SN BKN009 OVC014 RMK SN4SF2SC2

CYHM;2009-01-18 02:00;CYHM 180200Z 19012KT 3/4SM -SN BKN005 OVC016 M08/M09 A2986 RMK SN4SF2SC2 /S01/ SLP132

CYHM;2009-01-18 03:00;CYHM 180300Z 16008KT 3/4SM -SN BKN010 OVC018 M07/M08 A2982 RMK SN3SF3SC2 /S02/ SLP115

CYHM;2009-01-18 03:30;CYHM 180330Z 16009KT 1 1/2SM -SN OVC014 RMK SN2SC6 VIS VRB 1 - 2

CYHM;2009-01-18 04:00;CYHM 180400Z 17011KT 1 1/2SM -SN OVC020 M07/M08 A2978 RMK SN2SC6 VIS VRB 1 - 2 /S04/ SLP102

CYHM;2009-01-18 05:00;CYHM 180500Z CCB 17011KT 1 1/2SM -SN DRSN OVC018 M06/M07 A2975 RMK SN2SC6 VIS VRB 1 - 2 /S05/ SLP093

CYHM;2009-01-18 05:29;CYHM 180529Z 17012KT 4SM -SN DRSN OVC016 RMK SC8

CYHM;2009-01-18 06:00;CYHM 180600Z 16009KT 1 1/2SM -SN DRSN OVC017 M06/M07 A2972 RMK SN2SC6 VIS VRB 1 - 2 SLP081

CYHM;2009-01-18 07:00;CYHM 180700Z 16012KT 1SM -SN DRSN FEW006 OVC014 M05/M06 A2970 RMK SN2SF1SC6 VIS VRB 3/4 - 11/4 SLP072

CYHM;2009-01-18 07:40;CYHM 180740Z 18012KT 4SM -SN DRSN OVC010 RMK SC8

CYHM;2009-01-18 08:00;CYHM 180800Z 19011KT 6SM -SN DRSN OVC009 M05/M06 A2968 RMK SC8 CIG RAG SLP066

CYHM;2009-01-18 09:00;CYHM 180900Z 20016KT 5SM -SN DRSN OVC011 M04/M05 A2965 RMK SC8 SLP056

CYHM;2009-01-18 10:00;CYHM 181000Z 20015KT 6SM -SN DRSN OVC012 M04/M05 A2964 RMK SC8 SLP052

CYHM;2009-01-18 11:00;CYHM 181100Z 20011KT 5SM -SN DRSN FEW008 OVC035 M04/M05 A2963 RMK CF2SC6 SLP049

CYHM;2009-01-18 12:00;CYHM 181200Z 20012KT 5SM -SN DRSN FEW009 OVC042 M03/M05 A2963 RMK CF1SC7 SLP047

CYHM;2009-01-18 12:20;CYHM 181220Z 21010KT 1 1/2SM -SN DRSN SCT009 OVC042 RMK SN2CF2SC5

CYHM;2009-01-18 12:49;CYHM 181249Z 23009KT 2SM -SN DRSN FEW009 OVC049 RMK SN1CF1SC6

CYHM;2009-01-18 13:00;CYHM 181300Z 23010KT 2 1/2SM -SN DRSN FEW010 OVC050 M05/M06 A2965 RMK CF1SC7 SLP055

CYHM;2009-01-18 14:00;CYHM 181400Z 23008KT 2SM -SN OVC050 M05/M06 A2966 RMK SN1SC7 SLP056

CYHM;2009-01-18 15:00;CYHM 181500Z 22008KT 2SM -SN BKN011 OVC017 M05/M06 A2966 RMK SN1CF5SC2 SLP057

CYHM;2009-01-18 15:47;CYHM 181547Z CCA 20006KT 2 1/2SM -SN FEW010 BKN019 OVC041 RMK SC2SC5SC2

CYHM;2009-01-18 16:00;CYHM 181600Z 20006KT 2 1/2SM -SN FEW010 BKN019 OVC041 M05/M06 A2966 RMK SC2SC5SC1 SLP056

CYHM;2009-01-18 17:00;CYHM 181700Z 20005KT 1 1/2SM -SN BKN012 OVC023 M04/M06 A2963 RMK SN2SC3SC3 SLP047

CYHM;2009-01-18 18:00;CYHM 181800Z 18005KT 1 1/2SM -SN BKN009 OVC023 M04/M06 A2961 RMK SN2SC4SC2 SLP039

CYHM;2009-01-18 19:00;CYHM 181900Z 20007KT 2SM -SN BKN008 OVC018 M04/M05 A2960 RMK SN1SC4SC3 SLP036

CYHM;2009-01-18 19:52;CYHM 181952Z 25009KT 3SM -SN FEW010 BKN019 OVC067 RMK SC2SC2AC3

CYHM;2009-01-18 20:00;CYHM 182000Z 24009KT 3SM -SN FEW010 BKN019 OVC067 M05/M07 A2962 RMK SC2SC2AC3 SLP042

CYHM;2009-01-18 20:15;CYHM 182015Z 24013KT 2 1/2SM -SN SCT010 BKN021 OVC067 RMK SC4SC2AC2

CYHM;2009-01-18 21:00;CYHM 182100Z 25011KT 5SM -SN FEW012 SCT022 OVC077 M06/M09 A2963 RMK SC1SC3AC4 SLP047

CYHM;2009-01-18 22:00;CYHM 182200Z 25010KT 15SM FEW026 OVC072 M07/M12 A2965 RMK SC2AC6 VIRGA SLP054

CYHM;2009-01-18 22:08;CYHM 182208Z 25008KT 12SM -SN FEW026 OVC072 RMK SC2AC6

CYHM;2009-01-18 23:00;CYHM 182300Z 23009KT 5SM -SN SCT041 OVC072 M08/M11 A2968 RMK SC3AC5 SLP061

CYHM;2009-01-19 00:00;CYHM 190000Z 23007KT 2 1/2SM -SN FEW022 BKN042 OVC075 M09/M10 A2968 RMK SC2SC4AC2 SLP065

CYHM;2009-01-19 00:23;CYHM 190023Z 20005KT 8SM -SN FEW025 SCT042 BKN120 RMK SC2SC2AC3 PCPN VRY LGT

CYHM;2009-01-19 01:00;CYHM 190100Z 20005KT 12SM -SN FEW030 BKN090 OVC120 M09/M11 A2969 RMK SC2AC5AC2 SLP067

CYHM;2009-01-19 02:00;CYHM 190200Z 20004KT 15SM -SN OVC089 M09/M11 A2968 RMK AC8 SLP065

CYHM;2009-01-19 03:00;CYHM 190300Z 19004KT 12SM OVC093 M09/M11 A2968 RMK AC8 SLP065

CYHM;2009-01-19 04:00;CYHM 190400Z 20005KT 7SM -SN OVC091 M09/M11 A2968 RMK AC8 SLP064

CYHM;2009-01-19 05:00;CYHM 190500Z 21006KT 7SM -SN OVC086 M09/M11 A2966 RMK AC8 SLP059

CYHM;2009-01-19 06:00;CYHM 190600Z 23005KT 4SM -SN OVC085 M09/M10 A2965 RMK AC8 SLP053

CYHM;2009-01-19 07:00;CYHM 190700Z 21004KT 7SM -SN OVC085 M10/M11 A2963 RMK AC8 SLP048

CYHM;2009-01-19 08:00;CYHM 190800Z 20005KT 10SM -SN OVC086 M10/M11 A2963 RMK AC8 SLP047

CYHM;2009-01-19 09:00;CYHM 190900Z 20006KT 8SM -SN BKN022 OVC055 M10/M12 A2962 RMK SC6SC2 SLP044

CYHM;2009-01-19 10:00;CYHM 191000Z 20007KT 6SM -SN FEW020 SCT055 OVC089 M09/M11 A2962 RMK CF2SC2AC5 SLP045

CYHM;2009-01-19 11:00;CYHM 191100Z 20007KT 6SM -SN OVC090 M09/M11 A2961 RMK AC8 SLP041

CYHM;2009-01-19 12:00;CYHM 191200Z 20009KT 6SM -SN FEW049 OVC090 M09/M10 A2961 RMK SC2AC6 SLP040

CYHM;2009-01-19 13:00;CYHM 191300Z 20007KT 2 1/2SM -SN BKN011 OVC030 M09/M10 A2961 RMK SF6SC2 SLP041

CYHM;2009-01-19 14:00;CYHM 191400Z 20008KT 3SM -SN FEW030 OVC090 M09/M10 A2961 RMK SC2AC6 SLP040

CYHM;2009-01-19 15:00;CYHM 191500Z 22008KT 6SM -SN BKN015 BKN056 BKN090 M08/M10 A2960 RMK SC5SC2AC1 SLP038

CYHM;2009-01-19 16:00;CYHM 191600Z CCB 25006KT 6SM -SN BKN017 OVC086 M08/M11 A2960 RMK SC7AC1 SLP037

CYHM;2009-01-19 16:13;CYHM 191613Z 25008KT 10SM SCT019 BKN097 RMK SC3AC4

CYHM;2009-01-19 17:00;CYHM 191700Z 26006KT 8SM FEW024 BKN097 M08/M11 A2959 RMK SC2AC5 SLP035

CYHM;2009-01-19 17:54;CYHM 191754Z 27006KT 8SM -SHSN BKN016 BKN080 RMK SC6AC2

CYHM;2009-01-19 18:00;CYHM 191800Z 24003KT 10SM -SHSN BKN015 BKN079 M07/M10 A2958 RMK SC5AC2 SLP032

CYHM;2009-01-19 19:00;CYHM 191900Z 23002KT 6SM -SHSN BKN016 OVC079 M07/M11 A2958 RMK SC6AC2 SLP032

CYHM;2009-01-19 20:00;CYHM 192000Z 26004KT 2 1/2SM -SN BKN025 OVC044 M08/M11 A2959 RMK ST6ST2 SLP036

CYHM;2009-01-19 21:00;CYHM 192100Z 24004KT 2 1/4SM -SN BKN032 OVC044 M08/M10 A2961 RMK ST6SC2 SLP043

CYHM;2009-01-19 22:00;CYHM 192200Z 25003KT 2 1/2SM -SN FEW034 OVC120 M08/M10 A2962 RMK ST2AC6 SLP045

CYHM;2009-01-19 23:00;CYHM 192300Z 28002KT 6SM -SN OVC120 M08/M10 A2965 RMK AC8 SLP054

CYHM;2009-01-20 00:00;CYHM 200000Z 28003KT 5SM -SN BKN027 OVC120 M09/M11 A2966 RMK SC6AC2 SLP060

CYHM;2009-01-20 01:00;CYHM 200100Z 31003KT 5SM -SN OVC120 M10/M12 A2968 RMK AC8 SLP064

CYHM;2009-01-20 01:40;CYHM 200140Z 29002KT 8SM FEW120 RMK AC2

CYHM;2009-01-20 02:00;CYHM 200200Z 29003KT 8SM FEW120 M12/M12 A2969 RMK AC2 SLP069

CYHM;2009-01-20 03:00;CYHM 200300Z 32004KT 10SM FEW120 M12/M12 A2970 RMK AC1 SLP074

CYHM;2009-01-20 04:00;CYHM 200400Z 28003KT 8SM FEW120 M14/M14 A2972 RMK AC1 AC TR SLP079

CYHM;2009-01-20 05:00;CYHM 200500Z 30005KT 8SM SKC M15/M16 A2973 RMK SLP083

CYHM;2009-01-20 06:00;CYHM 200600Z 29004KT 12SM BKN021 M14/M15 A2974 RMK SC6 SLP088

CYHM;2009-01-20 07:00;CYHM 200700Z 34004KT 15SM FEW020 M13/M14 A2975 RMK SC1 SLP091

CYHM;2009-01-20 08:00;CYHM 200800Z 27003KT 15SM FEW120 M16/M17 A2977 RMK AC1 SLP097

CYHM;2009-01-20 09:00;CYHM 200900Z 33005KT 15SM FEW120 M15/M16 A2977 RMK AC1 SLP097

CYHM;2009-01-20 10:00;CYHM 201000Z 35006KT 15SM FEW250 M13/M15 A2976 RMK CI1 CI TR SLP096

CYHM;2009-01-20 11:00;CYHM 201100Z 36006KT 15SM FEW250 M13/M15 A2978 RMK CI2 SLP101

CYHM;2009-01-20 12:00;CYHM 201200Z 35004KT 15SM FEW030 FEW210 M14/M16 A2980 RMK SC1CI1 SC TR SLP107

CYHM;2009-01-20 13:00;CYHM 201300Z 29002KT 15SM FEW030 FEW210 M16/M17 A2983 RMK SC1CI1 SC TR SLP117

CYHM;2009-01-20 14:00;CYHM 201400Z 29003KT 15SM -SHSN BKN035 BKN210 M15/M16 A2985 RMK SC5CI2 SLP125

CYHM;2009-01-20 14:55;CYHM 201455Z 01008KT 15SM FEW045 FEW220 RMK SC1CI1

CYHM;2009-01-20 15:00;CYHM 201500Z 35007KT 15SM FEW035 FEW240 M13/M15 A2985 RMK SC1CI0 SC TR SLP126

CYHM;2009-01-20 16:00;CYHM 201600Z 34004KT 15SM FEW025 M12/M15 A2987 RMK CU1 CU TR SLP132

CYHM;2009-01-20 17:00;CYHM 201700Z 00000KT 15SM FEW240 M11/M15 A2986 RMK CI0 CI TR SLP129

CYHM;2009-01-20 18:00;CYHM 201800Z 23004KT 15SM FEW030 FEW240 M09/M14 A2986 RMK CU1CI1 CU TR SLP129

CYHM;2009-01-20 19:00;CYHM 201900Z 25009KT 15SM FEW030 FEW240 M10/M14 A2985 RMK CU1CI1 CU TR CI TR SLP125

CYHM;2009-01-20 20:00;CYHM 202000Z 25007KT 15SM FEW070 FEW250 M10/M15 A2985 RMK AC1CI1 AC TR CI TR SLP126

CYHM;2009-01-20 21:00;CYHM 202100Z 28007KT 15SM FEW030 FEW250 M10/M15 A2986 RMK SC1CI1 SC TR CI TR SLP130

CYHM;2009-01-20 22:00;CYHM 202200Z 28008KT 15SM FEW030 FEW250 M11/M16 A2988 RMK SC1CI1 CI TR SLP135

CYHM;2009-01-20 23:00;CYHM 202300Z 28006KT 15SM FEW030 FEW250 M12/M16 A2989 RMK SC1CI1 SC TR CI TR SLP139

CYHM;2009-01-21 00:00;CYHM 210000Z 27006KT 15SM FEW250 M13/M16 A2989 RMK CI1 CI TR SLP142

CYHM;2009-01-21 01:00;CYHM 210100Z 31006KT 15SM FEW250 M16/M18 A2990 RMK CI1 CI TR SLP145

CYHM;2009-01-21 02:00;CYHM 210200Z 25004KT 15SM FEW250 M17/M18 A2992 RMK CI1 CI TR SLP151

CYHM;2009-01-21 03:00;CYHM 210300Z 25004KT 15SM FEW250 M18/M19 A2992 RMK CI1 CI TR SLP153

CYHM;2009-01-21 04:00;CYHM 210400Z 25004KT 15SM FEW250 M18/M19 A2993 RMK CI1 CI TR SLP154

CYHM;2009-01-21 05:00;CYHM 210500Z 24007KT 15SM FEW250 M19/M20 A2993 RMK CI1 CI TR SLP155

CYHM;2009-01-21 06:00;CYHM 210600Z 27007KT 15SM FEW250 M19/M20 A2994 RMK CI1 CI TR SLP159

CYHM;2009-01-21 07:00;CYHM 210700Z 27006KT 15SM FEW250 M18/M19 A2994 RMK CI1 CI TR SLP158

CYHM;2009-01-21 08:00;CYHM 210800Z 25006KT 15SM FEW024 FEW250 M18/M19 A2993 RMK SC1CI1 SC TR CI TR SLP156

CYHM;2009-01-21 09:00;CYHM 210900Z 25004KT 15SM FEW250 M18/M20 A2994 RMK CI1 CI TR SLP157

CYHM;2009-01-21 10:00;CYHM 211000Z 23008KT 15SM FEW026 SCT130 SCT250 M20/M26 A2990 RMK SC2AC1CI0 SLP146

CYHM;2009-01-21 11:00;CYHM 211100Z 25008KT 15SM BKN160 BKN250 M17/M20 A2991 RMK AC4CI0 SLP147

CYHM;2009-01-21 12:00;CYHM 211200Z 23010KT 15SM BKN110 BKN230 M16/M19 A2991 RMK AC5CI2 SLP149

CYHM;2009-01-21 13:00;CYHM 211300Z 23012KT 15SM BKN093 BKN120 BKN230 M15/M18 A2991 RMK AC5AC2CI1 SLP148

CYHM;2009-01-21 13:55;CYHM 211355Z 23015KT 10SM -SHSN BKN076 OVC100 RMK AC6AC2

CYHM;2009-01-21 14:00;CYHM 211400Z 23015KT 10SM -SHSN BKN076 OVC100 M13/M18 A2991 RMK AC6AC2 SLP147

CYHM;2009-01-21 15:00;CYHM 211500Z 23016KT 15SM -SN DRSN SCT030 OVC120 M12/M17 A2989 RMK SC3AC5 SLP142

CYHM;2009-01-21 16:00;CYHM 211600Z 22018KT 15SM DRSN FEW030 BKN130 M10/M14 A2986 RMK SC2AC6 SLP133

CYHM;2009-01-21 17:00;CYHM 211700Z 23014KT 15SM BKN110 M08/M11 A2985 RMK AC7 SLP130

CYHM;2009-01-21 18:00;CYHM 211800Z 24018KT 10SM FEW020 BKN110 OVC220 M08/M10 A2983 RMK SC2AC5CI1 SLP120

CYHM;2009-01-21 18:49;CYHM 211849Z 23016KT 10SM -SN BKN021 OVC110 RMK SC6AC2

CYHM;2009-01-21 19:00;CYHM 211900Z 23016G21KT 10SM -SN BKN020 OVC110 M07/M10 A2983 RMK SC6AC2 SLP120

CYHM;2009-01-21 20:00;CYHM 212000Z 23013G19KT 8SM -SHSN DRSN OVC020 M07/M10 A2983 RMK SC8 SLP121

CYHM;2009-01-21 21:00;CYHM 212100Z 23015G21KT 8SM -SHSN DRSN OVC020 M07/M10 A2984 RMK SC8 SLP123

CYHM;2009-01-21 21:40;CYHM 212140Z 23015KT 15SM DRSN OVC022 RMK SC7

CYHM;2009-01-21 22:00;CYHM 212200Z 23015KT 15SM DRSN SCT022 BKN160 M08/M11 A2985 RMK SC4AC3 SLP127

CYHM;2009-01-21 23:00;CYHM 212300Z 24013KT 15SM DRSN FEW016 BKN180 BKN230 M08/M11 A2986 RMK SC2AC3CI1 SLP130

CYHM;2009-01-21 23:16;CYHM 212316Z 24012KT 15SM DRSN BKN014 OVC180 RMK SC6AC2

CYHM;2009-01-22 00:00;CYHM 220000Z 24012KT 15SM DRSN OVC015 M08/M10 A2988 RMK SC8 CIG RAG SLP136

CYHM;2009-01-22 01:00;CYHM 220100Z 23013KT 15SM DRSN BKN015 OVC023 M07/M09 A2988 RMK SC6SC2 SLP137

CYHM;2009-01-22 01:27;CYHM 220127Z 23017KT 7SM -SHSN DRSN FEW015 OVC029 RMK SC2SC6

CYHM;2009-01-22 02:00;CYHM 220200Z 23015KT 10SM -SHSN DRSN FEW013 OVC027 M07/M09 A2987 RMK CF2SC6 SLP132

CYHM;2009-01-22 03:00;CYHM 220300Z 24016KT 12SM -SHSN DRSN FEW016 OVC027 M06/M09 A2987 RMK CF2SC6 SLP129

CYHM;2009-01-22 04:00;CYHM 220400Z 23017KT 7SM -SHSN DRSN FEW016 OVC026 M06/M09 A2986 RMK CF2SC6 SLP126

CYHM;2009-01-22 05:00;CYHM 220500Z 23013KT 8SM -SHSN DRSN OVC030 M06/M08 A2985 RMK SC8 SLP123

CYHM;2009-01-22 06:00;CYHM 220600Z 23015G20KT 12SM DRSN OVC024 M05/M09 A2983 RMK SC8 SLP116

CYHM;2009-01-22 07:00;CYHM 220700Z 24017KT 15SM DRSN OVC026 M05/M09 A2982 RMK SC8 SLP112

CYHM;2009-01-22 08:00;CYHM 220800Z 23013KT 15SM DRSN OVC021 M05/M08 A2981 RMK SC8 SLP109

CYHM;2009-01-22 09:00;CYHM 220900Z 24011KT 12SM DRSN OVC017 M04/M08 A2982 RMK SC8 SLP110

CYHM;2009-01-22 10:00;CYHM 221000Z 24015KT 12SM DRSN OVC024 M04/M07 A2981 RMK SC8 SLP108

CYHM;2009-01-22 11:00;CYHM 221100Z 24013KT 12SM DRSN OVC020 M04/M07 A2982 RMK SC8 SLP110

CYHM;2009-01-22 12:00;CYHM 221200Z 25010KT 15SM OVC017 M04/M07 A2984 RMK SC8 SLP117

CYHM;2009-01-22 13:00;CYHM 221300Z 24012KT 8SM OVC016 M04/M07 A2985 RMK SC8 SLP122

CYHM;2009-01-22 14:00;CYHM 221400Z 25010KT 5SM -SN OVC015 M04/M07 A2986 RMK SC8 SLP124

CYHM;2009-01-22 15:00;CYHM 221500Z 24010KT 2 1/2SM -SN BR FEW015 OVC020 M04/M06 A2988 RMK SC2SC6 SLP130

CYHM;2009-01-22 16:00;CYHM 221600Z 25010KT 3SM -SN BR OVC022 M04/M06 A2988 RMK SC8 SLP130

CYHM;2009-01-22 17:00;CYHM 221700Z 25012KT 4SM -SN OVC021 M03/M06 A2988 RMK SC8 SLP130

CYHM;2009-01-22 18:00;CYHM 221800Z 25010KT 4SM -SN OVC021 M03/M06 A2986 RMK SC8 SLP125

CYHM;2009-01-22 19:00;CYHM 221900Z 26010KT 5SM -SN OVC017 M03/M06 A2987 RMK SC8 SLP127

CYHM;2009-01-22 20:00;CYHM 222000Z 24008KT 6SM -SN OVC017 M03/M06 A2988 RMK SC8 SLP132

CYHM;2009-01-22 21:00;CYHM 222100Z 25008KT 6SM -SN OVC018 M03/M06 A2990 RMK SC8 PCPN VRY LGT SLP138

CYHM;2009-01-22 22:00;CYHM 222200Z 24008KT 6SM -SN OVC016 M03/M06 A2991 RMK SC8 PCPN VRY LGT SLP141

CYHM;2009-01-22 23:00;CYHM 222300Z 25006KT 10SM -SN OVC018 M03/M06 A2991 RMK SC8 SLP142

CYHM;2009-01-23 00:00;CYHM 230000Z 22006KT 9SM -SN OVC017 M03/M06 A2993 RMK SC8 SLP147

CYHM;2009-01-23 01:00;CYHM 230100Z 22004KT 8SM OVC017 M04/M06 A2992 RMK SC8 SLP145

CYHM;2009-01-23 02:00;CYHM 230200Z 23004KT 8SM OVC018 M04/M06 A2993 RMK SC8 SLP146

CYHM;2009-01-23 03:00;CYHM 230300Z 24002KT 8SM OVC017 M04/M06 A2991 RMK SC8 SLP140

CYHM;2009-01-23 04:00;CYHM 230400Z 18004KT 8SM OVC017 M04/M06 A2991 RMK SC8 SLP140

CYHM;2009-01-23 05:00;CYHM 230500Z 20005KT 6SM BR OVC015 M04/M06 A2990 RMK SC8 SLP138

CYHM;2009-01-23 05:41;CYHM 230541Z 20005KT 5SM BR OVC013 RMK SC8

CYHM;2009-01-23 06:00;CYHM 230600Z 21006KT 5SM BR OVC013 M04/M05 A2989 RMK SC8 SLP133

CYHM;2009-01-23 07:00;CYHM 230700Z 23004KT 6SM BR OVC012 M04/M05 A2988 RMK SC8 SLP132

CYHM;2009-01-23 08:00;CYHM 230800Z 23004KT 6SM BR OVC013 M04/M05 A2988 RMK SC8 SLP131

CYHM;2009-01-23 09:00;CYHM 230900Z 21003KT 6SM BR OVC011 M04/M05 A2986 RMK SC8 SLP122

CYHM;2009-01-23 10:00;CYHM 231000Z 00000KT 5SM BR BKN012 OVC025 M04/M05 A2984 RMK SC6SC2 SLP115

CYHM;2009-01-23 11:00;CYHM 231100Z 18003KT 3SM BR FEW012 SCT025 BKN210 M05/M05 A2981 RMK SC2SC2CI3 SLP105

CYHM;2009-01-23 12:00;CYHM 231200Z 17004KT 2 1/2SM BR FEW010 FEW024 BKN210 M04/M05 A2978 RMK SF1SC2CI3 SLP095

CYHM;2009-01-23 12:24;CYHM 231224Z 18005KT 1SM BR FEW022 BKN210 RMK FG1SC2CI3 CONTRAIL

CYHM;2009-01-23 13:00;CYHM 231300Z 18005KT 2SM BR FEW025 BKN170 BKN210 M04/M05 A2976 RMK FG1SC2AC2CI2 SLP089

CYHM;2009-01-23 14:00;CYHM 231400Z 19006KT 4SM BR FEW030 FEW180 BKN210 M04/M05 A2975 RMK SC1AC2CI2 CONTRAIL SLP086

CYHM;2009-01-23 15:00;CYHM 231500Z 20008KT 6SM BR FEW160 BKN210 M02/M04 A2972 RMK AC2CI2 CONTRAIL SLP075

CYHM;2009-01-23 16:00;CYHM 231600Z 21010KT 8SM BKN160 OVC210 01/M03 A2969 RMK AC5CI2 SLP066

CYHM;2009-01-23 17:00;CYHM 231700Z 21010KT 10SM BKN170 OVC230 01/M02 A2963 RMK AS5CI2 SLP047

CYHM;2009-01-23 18:00;CYHM 231800Z 22014KT 10SM FEW024 BKN140 BKN180 BKN230 02/M01 A2960 RMK SC2AC3AC1CI1 SLP032

CYHM;2009-01-23 19:00;CYHM 231900Z 24022G28KT 7SM BKN022 OVC140 03/M01 A2957 RMK SC5AC3 SLP023

CYHM;2009-01-23 20:00;CYHM 232000Z 24018G27KT 10SM BKN022 BKN160 03/M01 A2959 RMK SC6AC2 SLP028

CYHM;2009-01-23 21:00;CYHM 232100Z 25017G24KT 8SM BKN018 OVC160 02/M01 A2962 RMK SC6AC2 SLP038

CYHM;2009-01-23 22:00;CYHM 232200Z 27020KT 7SM OVC020 01/M02 A2965 RMK SC8 SLP051

CYHM;2009-01-23 23:00;CYHM 232300Z 27020G30KT 10SM OVC025 00/M04 A2971 RMK SC8 PRESRR SLP068

CYHM;2009-01-24 00:00;CYHM 240000Z 26017G24KT 15SM OVC025 M00/M04 A2974 RMK SC8 SLP083

CYHM;2009-01-24 01:00;CYHM 240100Z 28016G27KT 12SM -SHSN FEW018 OVC031 M01/M05 A2978 RMK SC2SC6 MAMMA SLP094

CYHM;2009-01-24 02:00;CYHM 240200Z 28018G26KT 15SM -SHSN OVC025 M01/M05 A2981 RMK SC8 SLP105

CYHM;2009-01-24 03:00;CYHM 240300Z 29018G25KT 15SM SCT025 BKN200 M03/M07 A2985 RMK SC4CI2 SLP121

CYHM;2009-01-24 04:00;CYHM 240400Z 30017G22KT 15SM FEW025 OVC062 M04/M09 A2990 RMK CF2SC6 SLP135

CYHM;2009-01-24 05:00;CYHM 240500Z 31015G24KT 15SM SCT029 BKN063 M05/M10 A2994 RMK CF4SC2 SLP149

CYHM;2009-01-24 06:00;CYHM 240600Z 30014KT 15SM FEW025 FEW061 M07/M12 A2997 RMK CF1SC1 SLP161

CYHM;2009-01-24 07:00;CYHM 240700Z 30015G20KT 15SM FEW030 M08/M14 A3002 RMK SC2 SLP177

CYHM;2009-01-24 08:00;CYHM 240800Z 30012KT 15SM FEW030 M10/M14 A3005 RMK SC1 SLP187

CYHM;2009-01-24 09:00;CYHM 240900Z 32011KT 15SM FEW025 M11/M15 A3007 RMK SC1 SLP196

CYHM;2009-01-24 10:00;CYHM 241000Z 32010KT 15SM FEW025 FEW200 M13/M17 A3010 RMK SC1CI1 SLP205

CYHM;2009-01-24 11:00;CYHM 241100Z 31008KT 15SM FEW025 FEW200 M14/M17 A3012 RMK SC1CI1 SLP213

CYHM;2009-01-24 12:00;CYHM 241200Z 31006KT 15SM FEW025 FEW200 M15/M18 A3016 RMK SC1CI1 SLP229

CYHM;2009-01-24 13:00;CYHM 241300Z 27005KT 15SM FEW025 FEW200 M15/M18 A3021 RMK SC1CI1 SLP244

CYHM;2009-01-24 14:00;CYHM 241400Z 30007KT 15SM FEW025 FEW090 M15/M19 A3023 RMK SC1AC1 AC TR SLP252

CYHM;2009-01-24 15:00;CYHM 241500Z 30010KT 15SM FEW025 M14/M18 A3025 RMK SC1 SLP261

CYHM;2009-01-24 16:00;CYHM 241600Z 30009KT 15SM FEW025 M13/M18 A3026 RMK SC1 SLP264

CYHM;2009-01-24 17:00;CYHM 241700Z 30010KT 15SM FEW025 M13/M19 A3026 RMK SC1 SLP265

CYHM;2009-01-24 18:00;CYHM 241800Z 31010KT 15SM FEW025 M12/M20 A3026 RMK SC1 SLP264

CYHM;2009-01-24 19:00;CYHM 241900Z 29006KT 15SM FEW030 M12/M22 A3026 RMK SC1 SLP264

CYHM;2009-01-24 20:00;CYHM 242000Z 27006KT 15SM FEW035 FEW090 M11/M21 A3027 RMK SC1AC1 SC TR SLP268

CYHM;2009-01-24 21:00;CYHM 242100Z 23004KT 15SM FEW030 BKN037 M11/M21 A3028 RMK SC2SC2 SLP273

CYHM;2009-01-24 22:00;CYHM 242200Z 23007KT 15SM BKN037 M11/M19 A3028 RMK SC6 SLP273

CYHM;2009-01-24 23:00;CYHM 242300Z 21006KT 15SM BKN035 M14/M20 A3028 RMK SC6 SLP271

CYHM;2009-01-25 00:00;CYHM 250000Z 22007KT 15SM SCT030 M15/M20 A3026 RMK SC3 SLP269

CYHM;2009-01-25 01:00;CYHM 250100Z 23008KT 15SM SCT030 M14/M18 A3026 RMK SC3 SLP267

CYHM;2009-01-25 02:00;CYHM 250200Z 22008KT 15SM FEW025 SCT210 M16/M20 A3026 RMK SC2CI1 SLP266

CYHM;2009-01-25 03:00;CYHM 250300Z 21008KT 15SM FEW030 SCT210 M17/M21 A3024 RMK SC2CI1 SLP263

CYHM;2009-01-25 04:00;CYHM 250400Z 22007KT 15SM FEW210 M17/M21 A3023 RMK CI1 SLP259

CYHM;2009-01-25 05:00;CYHM 250500Z 23010KT 15SM FEW210 M17/M21 A3022 RMK CI1 SLP255

CYHM;2009-01-25 06:00;CYHM 250600Z 24011KT 15SM FEW210 M15/M20 A3021 RMK CI1 SLP249

CYHM;2009-01-25 07:00;CYHM 250700Z 24012KT 15SM FEW200 M15/M20 A3021 RMK CI1 SLP250

CYHM;2009-01-25 08:00;CYHM 250800Z 24012KT 15SM FEW220 M15/M19 A3021 RMK CI1 SLP250

CYHM;2009-01-25 09:00;CYHM 250900Z 23011KT 15SM FEW210 M15/M19 A3020 RMK CI1 SLP245

CYHM;2009-01-25 10:00;CYHM 251000Z 24012KT 15SM FEW200 M16/M19 A3019 RMK CI1 SLP243

CYHM;2009-01-25 11:00;CYHM 251100Z 24009KT 15SM FEW220 M16/M19 A3019 RMK CI2 SLP243

CYHM;2009-01-25 12:00;CYHM 251200Z 23012KT 15SM FEW220 M16/M19 A3019 RMK CI2 SLP244

CYHM;2009-01-25 13:00;CYHM 251300Z 23011KT 15SM BKN220 M16/M19 A3020 RMK CI2 SLP248

CYHM;2009-01-25 14:00;CYHM 251400Z 23012KT 15SM BKN220 M14/M18 A3022 RMK CI4 SLP255

CYHM;2009-01-25 15:00;CYHM 251500Z 24012KT 15SM BKN210 M13/M16 A3023 RMK CI5 SLP257

CYHM;2009-01-25 16:00;CYHM 251600Z 24012KT 15SM FEW025 BKN210 M12/M16 A3023 RMK CU1CI5 CU TR SLP258

CYHM;2009-01-25 17:00;CYHM 251700Z 23012KT 15SM FEW025 BKN230 M11/M15 A3022 RMK CU1CI6 CU TR SLP254

CYHM;2009-01-25 18:00;CYHM 251800Z 25013KT 15SM FEW018 BKN220 M11/M16 A3022 RMK CU1CS6 SLP252

CYHM;2009-01-25 19:00;CYHM 251900Z 24011KT 15SM FEW020 FEW170 BKN220 M10/M14 A3022 RMK CU1AC2CI4 SLP252

CYHM;2009-01-25 20:00;CYHM 252000Z 23011KT 15SM FEW020 FEW170 BKN230 M10/M15 A3022 RMK CU1AC2CI4 SLP252

CYHM;2009-01-25 21:00;CYHM 252100Z 23011KT 15SM FEW020 FEW170 BKN230 M10/M14 A3023 RMK CU1AC1CI3 CU TR SLP258

CYHM;2009-01-25 22:00;CYHM 252200Z CCA 24008KT 15SM FEW020 FEW180 BKN230 M11/M15 A3026 RMK SC1AC1CI2 SC TR SLP265

CYHM;2009-01-25 23:00;CYHM 252300Z CCA 23005KT 15SM FEW180 SCT230 M13/M17 A3026 RMK AC1CI0 SLP266

CYHM;2009-01-26 00:00;CYHM 260000Z 24006KT 15SM FEW210 M14/M18 A3027 RMK CI1 SLP273

CYHM;2009-01-26 01:00;CYHM 260100Z 25006KT 15SM FEW130 M13/M16 A3028 RMK AC2 SLP275

CYHM;2009-01-26 02:00;CYHM 260200Z 25005KT 15SM FEW130 M13/M17 A3029 RMK AC2 SLP277

CYHM;2009-01-26 03:00;CYHM 260300Z 23005KT 15SM FEW220 M15/M18 A3029 RMK CI0 SLP276

CYHM;2009-01-26 04:00;CYHM 260400Z 25005KT 15SM FEW220 M16/M21 A3030 RMK CI1 SLP279

CYHM;2009-01-26 05:00;CYHM 260500Z 22005KT 15SM FEW220 M16/M20 A3030 RMK CI1 SLP280

CYHM;2009-01-26 06:00;CYHM 260600Z 22005KT 15SM FEW210 M16/M20 A3031 RMK CI1 SLP284

CYHM;2009-01-26 07:00;CYHM 260700Z 24005KT 15SM FEW210 M16/M20 A3031 RMK CI1 SLP284

CYHM;2009-01-26 08:00;CYHM 260800Z 25005KT 15SM FEW027 M16/M20 A3032 RMK SC2 SLP288

CYHM;2009-01-26 09:00;CYHM 260900Z 26004KT 15SM FEW027 M16/M20 A3031 RMK SC2 SLP285

CYHM;2009-01-26 10:00;CYHM 261000Z 25005KT 15SM FEW027 FEW200 M17/M21 A3031 RMK SC1CI1 FROIN SLP284

CYHM;2009-01-26 11:00;CYHM 261100Z 24005KT 15SM FEW200 M17/M21 A3031 RMK CI1 FROIN SLP285

CYHM;2009-01-26 12:00;CYHM 261200Z CCA 24004KT 15SM FEW220 M17/M21 A3033 RMK CI1 CONTRAIL SLP292

CYHM;2009-01-26 13:00;CYHM 261300Z 25005KT 15SM FEW220 M17/M21 A3035 RMK CI1 SLP299

CYHM;2009-01-26 14:00;CYHM 261400Z 24005KT 15SM FEW220 M13/M17 A3037 RMK CI1 SLP305

CYHM;2009-01-26 15:00;CYHM 261500Z 25008KT 15SM FEW220 M10/M15 A3037 RMK CI1 CINTRAIL SLP304

CYHM;2009-01-26 16:00;CYHM 261600Z 25012KT 15SM FEW025 FEW220 M10/M16 A3038 RMK CU1CI2 CU TR CONTRAIL SLP306

CYHM;2009-01-26 17:00;CYHM 261700Z 25013KT 15SM FEW025 SCT200 M12/M16 A3036 RMK CU1CI2 CU TR CONTRAIL SLP302

CYHM;2009-01-26 18:00;CYHM 261800Z 25010KT 15SM FEW180 BKN210 M11/M16 A3035 RMK AC1CI3 SLP298

CYHM;2009-01-26 19:00;CYHM 261900Z 26008KT 15SM FEW150 BKN210 M10/M16 A3034 RMK AC2CI2 SLP293

CYHM;2009-01-26 20:00;CYHM 262000Z 24014KT 15SM FEW160 BKN250 M09/M15 A3034 RMK AC1CS4 CONTRAILS SLP293

CYHM;2009-01-26 21:00;CYHM 262100Z 24012KT 15SM FEW120 BKN250 M09/M16 A3036 RMK AC2CS3 SLP299

CYHM;2009-01-26 22:00;CYHM 262200Z 24011KT 15SM BKN160 BKN250 M10/M17 A3036 RMK AC5CS1 SLP301

CYHM;2009-01-26 23:00;CYHM 262300Z 24008KT 15SM BKN170 BKN250 M10/M16 A3036 RMK AC5CS2 SLP302

CYHM;2009-01-27 00:00;CYHM 270000Z 23009KT 15SM FEW120 BKN150 BKN250 M10/M16 A3036 RMK AC1AC5CS1 SLP303

CYHM;2009-01-27 01:00;CYHM 270100Z 24007KT 15SM BKN100 OVC250 M10/M15 A3036 RMK AS6CS1 SLP301

CYHM;2009-01-27 02:00;CYHM 270200Z 22007KT 15SM OVC100 M10/M15 A3037 RMK AS8 SLP304

CYHM;2009-01-27 03:00;CYHM 270300Z 23006KT 15SM FEW090 OVC120 M10/M15 A3036 RMK AS2AS6 SLP299

CYHM;2009-01-27 04:00;CYHM 270400Z 23007KT 15SM FEW076 OVC100 M10/M14 A3037 RMK AS2AS6 SLP301

CYHM;2009-01-27 05:00;CYHM 270500Z 24006KT 15SM FEW096 BKN160 M10/M14 A3038 RMK AC1AC6 SLP306

CYHM;2009-01-27 06:00;CYHM 270600Z 23004KT 15SM BKN150 M10/M13 A3038 RMK AC6 SLP307

CYHM;2009-01-27 07:00;CYHM 270700Z 24004KT 15SM SCT140 M10/M13 A3039 RMK AC2 SLP310

CYHM;2009-01-27 08:00;CYHM 270800Z 24005KT 15SM FEW140 M11/M13 A3040 RMK AC1 SLP312

CYHM;2009-01-27 09:00;CYHM 270900Z 23003KT 15SM FEW120 M12/M13 A3041 RMK AC1 AC TR SLP315

CYHM;2009-01-27 10:00;CYHM 271000Z 23004KT 15SM SKC M13/M14 A3042 RMK SLP318

CYHM;2009-01-27 11:00;CYHM 271100Z 25005KT 15SM FEW120 M13/M14 A3042 RMK AC1 AC TR SLP321

CYHM;2009-01-27 12:00;CYHM 271200Z 26004KT 15SM FEW140 FEW220 M13/M14 A3043 RMK AC1CI0 CI TR SLP324

CYHM;2009-01-27 13:00;CYHM 271300Z 24004KT 4SM BR FEW110 FEW160 BKN220 M16/M18 A3046 RMK AC1AC2CI2 SLP333

CYHM;2009-01-27 14:00;CYHM 271400Z 25002KT 10SM FEW100 FEW140 SCT220 M15/M16 A3046 RMK AC1AC1CI1 SLP334

CYHM;2009-01-27 15:00;CYHM 271500Z 00000KT 7SM FEW140 SCT220 M13/M15 A3045 RMK AC1CI2 AC TR HAZY CONTRAIL SLP330

CYHM;2009-01-27 16:00;CYHM 271600Z 23002KT 10SM FEW220 M11/M12 A3045 RMK CI1 SLP330

CYHM;2009-01-27 17:00;CYHM 271700Z 21002KT 15SM FEW020 FEW220 M09/M12 A3043 RMK CU1CI2 CU TR SLP325

CYHM;2009-01-27 18:00;CYHM 271800Z 00000KT 15SM FEW035 SCT210 M05/M12 A3039 RMK CU1CI2 CU TR SLP308

CYHM;2009-01-27 19:00;CYHM 271900Z 00000KT 15SM FEW035 SCT210 M07/M14 A3037 RMK CU1CI2 CU TR CONTRAIL SLP300

CYHM;2009-01-27 20:00;CYHM 272000Z 00000KT 15SM FEW160 BKN250 M07/M14 A3038 RMK AC2CI3 SLP303

CYHM;2009-01-27 21:00;CYHM 272100Z 09003KT 15SM FEW180 BKN250 M08/M13 A3037 RMK AC2CS5 SUN DMLY VSBL CONTRAILS SLP301

CYHM;2009-01-27 22:00;CYHM 272200Z 09003KT 15SM FEW150 BKN200 M08/M14 A3035 RMK AC2CS6 SLP295

CYHM;2009-01-27 23:00;CYHM 272300Z 05005KT 15SM BKN150 OVC200 M08/M14 A3032 RMK AC6CS1 SLP285

CYHM;2009-01-28 00:00;CYHM 280000Z 07002KT 15SM OVC110 M08/M13 A3032 RMK AC8 SLP284

CYHM;2009-01-28 01:00;CYHM 280100Z 06007KT 15SM OVC096 M08/M13 A3026 RMK AC8 SLP267

CYHM;2009-01-28 02:00;CYHM 280200Z 07010KT 15SM OVC094 M07/M12 A3023 RMK AC8 SLP254

CYHM;2009-01-28 03:00;CYHM 280300Z 07008KT 15SM FEW084 OVC110 M07/M12 A3020 RMK AC2AC6 SLP242

CYHM;2009-01-28 04:00;CYHM 280400Z 07010KT 15SM OVC050 M07/M13 A3015 RMK SC8 SLP227

CYHM;2009-01-28 05:00;CYHM 280500Z 08009KT 15SM BKN024 OVC044 M07/M13 A3010 RMK SC6SC2 SLP211

CYHM;2009-01-28 06:00;CYHM 280600Z 06009KT 4SM -SN FEW012 OVC031 M08/M10 A3007 RMK SC2SC6 SLP196

CYHM;2009-01-28 07:00;CYHM 280700Z 04008KT 5SM -SN FEW030 OVC050 M08/M09 A3005 RMK SC2SC6 SLP190

CYHM;2009-01-28 08:00;CYHM 280800Z 06011KT 2 1/2SM -SN OVC030 M07/M08 A3001 RMK SN2SC6 SLP176

CYHM;2009-01-28 09:00;CYHM 280900Z 07008KT 6SM -SN BKN052 OVC076 M07/M08 A2995 RMK SC5AC3 SLP158

CYHM;2009-01-28 10:00;CYHM 281000Z 07009KT 2 1/2SM -SN OVC027 M07/M08 A2990 RMK SN2SC6 SLP139

CYHM;2009-01-28 10:22;CYHM 281022Z 07007KT 3SM -SN BKN026 OVC060 RMK SC6SC2

CYHM;2009-01-28 10:41;CYHM 281041Z 07008KT 2 1/4SM -SN OVC023 RMK SN2SC6

CYHM;2009-01-28 11:00;CYHM 281100Z 07008KT 2SM -SN OVC022 M07/M08 A2985 RMK SN3SC5 SLP125

CYHM;2009-01-28 11:31;CYHM 281131Z 07008KT 1 1/2SM -SN BKN011 OVC026 RMK SN2SF4SC2

CYHM;2009-01-28 12:00;CYHM 281200Z 06008KT 1 1/2SM -SN BR BKN007 OVC021 M07/M08 A2981 RMK SN2SF5SC2 SLP107

CYHM;2009-01-28 12:39;CYHM 281239Z 06007KT 3/4SM -SN BR BKN008 OVC022 RMK SN2SF5SC2

CYHM;2009-01-28 13:00;CYHM 281300Z 06007KT 3/4SM -SN BR BKN009 OVC024 M07/M07 A2976 RMK SN2SF5SC1 SLP093

CYHM;2009-01-28 13:10;CYHM 281310Z 06008KT 1SM -SN BR BKN008 OVC024 RMK SN2SF4SC2 VIS VRBL 3/4-11/4SM

CYHM;2009-01-28 13:55;CYHM 281355Z 07010KT 3/4SM -SN BR BKN006 OVC016 RMK SN2SF5SC1

CYHM;2009-01-28 14:00;CYHM 281400Z 07010KT 3/4SM -SN BR BKN006 OVC015 M06/M07 A2973 RMK SN2SF5SC1 VIS VRB 1/2-1SM SLP082

CYHM;2009-01-28 15:00;CYHM 281500Z 07007KT 3/4SM -SN BR BKN006 OVC021 M05/M06 A2968 RMK SN2SF4SC2 /02/VIS VRBL 1/2-1 SM SLP064

CYHM;2009-01-28 15:34;CYHM 281534Z 07008KT 1SM -SN BR BKN009 OVC023 RMK SN2SF4SC2

CYHM;2009-01-28 16:00;CYHM 281600Z 06008KT 1SM -SN BR BKN009 OVC025 M05/M06 A2963 RMK SN2SF4SC2 SLP047

CYHM;2009-01-28 16:29;CYHM 281629Z 06004KT 1 1/2SM -SN BR BKN011 OVC026 RMK SN1SF4SC3

CYHM;2009-01-28 17:00;CYHM 281700Z 05006KT 1SM -SN BR BKN007 OVC021 M05/M06 A2958 RMK SN1SF5SC2 SLP029

CYHM;2009-01-28 17:24;CYHM 281724Z 01004KT 3/4SM -SN BR BKN006 OVC017 RMK SN2SF5SC2

CYHM;2009-01-28 18:00;CYHM 281800Z 33004KT 3/4SM -SN BR BKN006 OVC020 M05/M05 A2955 RMK SN2SF5SC2 SLP021

CYHM;2009-01-28 18:42;CYHM 281842Z 33008KT 3/4SM -SN BR BKN003 OVC014 RMK SN2SF5SC2

CYHM;2009-01-28 19:00;CYHM 281900Z 32006KT 3/4SM -SN BR BKN006 OVC020 M05/M06 A2951 RMK SN2SF4SC2 SLP006

CYHM;2009-01-28 19:11;CYHM 281911Z 32006KT 1SM -SN BR BKN008 OVC020 RMK SN2SF4SC2

CYHM;2009-01-28 19:34;CYHM 281934Z 32008KT 1 1/2SM -SN BR BKN010 OVC025 RMK SN1SF5SC2

CYHM;2009-01-28 20:00;CYHM 282000Z 30006KT 1 1/4SM -SN BKN010 OVC026 M05/M06 A2955 RMK SN3SC3SC2 SLP018

CYHM;2009-01-28 20:52;CYHM 282052Z 29013KT 3/4SM -SN BKN007 OVC024 RMK SN4SF3SC1

CYHM;2009-01-28 21:00;CYHM 282100Z 29013KT 3/4SM -SN BKN007 OVC024 M06/M07 A2959 RMK SN4SF3SC1 SLP035

CYHM;2009-01-28 21:32;CYHM 282132Z 28015KT 2SM -SN OVC014 RMK SN3ST5

CYHM;2009-01-28 22:00;CYHM 282200Z 27014KT 2SM -SN BKN025 OVC052 M06/M07 A2965 RMK SN2ST5ST1 SLP052

CYHM;2009-01-28 22:21;CYHM 282221Z 28012KT 5SM -SN FEW024 BKN046 OVC080 RMK ST2ST5AC1

CYHM;2009-01-28 22:43;CYHM 282243Z 26014KT 2SM -SN BKN024 OVC080 RMK SN2ST5AC1

CYHM;2009-01-28 23:00;CYHM 282300Z 27013KT 2 1/2SM -SN BKN024 OVC058 M06/M08 A2969 RMK SN2ST6ST1 SLP067

CYHM;2009-01-29 00:00;CYHM 290000Z 26014KT 6SM -SN BKN016 BKN042 M06/M08 A2973 RMK SC6SC2 SLP081

CYHM;2009-01-29 01:00;CYHM 290100Z 26015KT 3SM -SN OVC018 M06/M08 A2976 RMK SC8 SF ASOCTD SLP092

CYHM;2009-01-29 02:00;CYHM 290200Z 26014KT 15SM -SN BKN020 M07/M10 A2980 RMK SC7 SLP105

CYHM;2009-01-29 03:00;CYHM 290300Z 24013KT 15SM FEW018 M09/M11 A2984 RMK SC1 SLP118

CYHM;2009-01-29 04:00;CYHM 290400Z 24012KT 15SM FEW018 M10/M12 A2986 RMK SC1 SLP127

CYHM;2009-01-29 05:00;CYHM 290500Z 24012KT 15SM FEW022 FEW200 M11/M13 A2987 RMK SC1CI1 SLP128

CYHM;2009-01-29 06:00;CYHM 290600Z 25011KT 15SM FEW200 M11/M14 A2988 RMK CI1 SLP132

CYHM;2009-01-29 07:00;CYHM 290700Z 25010KT 15SM SCT230 M11/M13 A2988 RMK CI2 SLP135

CYHM;2009-01-29 08:00;CYHM 290800Z 24012KT 12SM -SHSN BKN035 BKN220 M10/M12 A2990 RMK SC6CI1 SLP139

CYHM;2009-01-29 09:00;CYHM 290900Z 24008KT 10SM -SHSN BKN035 OVC210 M10/M12 A2989 RMK SC7CI1 SLP138

CYHM;2009-01-29 10:00;CYHM 291000Z 22008KT 9SM -SHSN OVC034 M10/M11 A2988 RMK SC8 SLP135

CYHM;2009-01-29 11:00;CYHM 291100Z 20008KT 10SM -SHSN BKN023 OVC130 M09/M10 A2987 RMK SC7AC1 SLP131

CYHM;2009-01-29 11:10;CYHM 291110Z 20010KT 15SM BKN024 OVC140 RMK SC6AC2

CYHM;2009-01-29 12:00;CYHM 291200Z 20010KT 8SM BKN012 OVC022 M09/M10 A2987 RMK SC6SC2 SLP130

CYHM;2009-01-29 13:00;CYHM 291300Z 22014KT 10SM OVC009 M09/M11 A2988 RMK SF8 SLP133

CYHM;2009-01-29 14:00;CYHM 291400Z 22014KT 15SM FEW012 BKN056 BKN220 M10/M12 A2988 RMK SC2SC4CI1 SLP132

CYHM;2009-01-29 14:53;CYHM 291453Z 22018KT 7SM -SHSN BKN014 OVC057 RMK SC6SC2

CYHM;2009-01-29 15:00;CYHM 291500Z 22018KT 7SM -SHSN BKN012 OVC058 M10/M12 A2988 RMK SC6SC2 SLP135

CYHM;2009-01-29 16:00;CYHM 291600Z 22015KT 10SM SCT018 BKN071 M09/M11 A2988 RMK SC3AC4 SLP132

CYHM;2009-01-29 16:49;CYHM 291649Z 21015KT 7SM -SHSN SCT018 BKN031 OVC072 RMK SC4SC2AC2

CYHM;2009-01-29 17:00;CYHM 291700Z 22017G22KT 6SM -SHSN BKN020 BKN043 OVC072 M07/M10 A2984 RMK SC5SC2AC2 SLP122

CYHM;2009-01-29 18:00;CYHM 291800Z 20017KT 6SM -SHSN SCT015 OVC020 M07/M10 A2982 RMK SC3SC5 SLP114

CYHM;2009-01-29 19:00;CYHM 291900Z 22020G25KT 6SM -SHSN BKN016 OVC022 M07/M09 A2981 RMK SC6SC2 SLP111

CYHM;2009-01-29 20:00;CYHM 292000Z 22021KT 3SM -SHSN BLSN OVC016 M07/M09 A2981 RMK SC8 SLP111

CYHM;2009-01-29 21:00;CYHM 292100Z 22018KT 2SM -SHSN BLSN SCT013 OVC018 M06/M08 A2981 RMK SN1CF2SC5 SLP110

CYHM;2009-01-29 22:00;CYHM 292200Z 21020KT 2SM -SHSN BLSN FEW014 BKN018 OVC042 M06/M08 A2981 RMK SN1CF2SC5SC1 SLP110

CYHM;2009-01-29 22:43;CYHM 292243Z 21019KT 3SM -SHSN BLSN OVC016 RMK SC8

CYHM;2009-01-29 23:00;CYHM 292300Z 22019KT 5SM -SHSN DRSN OVC014 M06/M08 A2981 RMK SC8 SLP109

CYHM;2009-01-30 00:00;CYHM 300000Z 21019KT 7SM -SHSN DRSN OVC012 M05/M07 A2981 RMK SC8 SLP108

CYHM;2009-01-30 01:00;CYHM 300100Z 22014KT 7SM -SHSN DRSN OVC011 M05/M07 A2981 RMK SC8 SLP107

CYHM;2009-01-30 02:00;CYHM 300200Z 22018KT 7SM -SHSN DRSN OVC010 M04/M06 A2980 RMK SC8 SLP106

CYHM;2009-01-30 03:00;CYHM 300300Z 21014KT 10SM -SHSN DRSN OVC011 M04/M06 A2981 RMK SC8 PCPN VRY LGT SLP109

CYHM;2009-01-30 04:00;CYHM 300400Z 22012KT 9SM -SHSN DRSN OVC012 M04/M06 A2980 RMK SC8 SLP105

CYHM;2009-01-30 05:00;CYHM 300500Z 23012KT 9SM -SN DRSN OVC013 M04/M06 A2978 RMK SC8 SLP099

CYHM;2009-01-30 06:00;CYHM 300600Z 22012KT 7SM -SN DRSN OVC014 M04/M06 A2977 RMK SC8 SLP095

CYHM;2009-01-30 07:00;CYHM 300700Z 21010KT 2 1/2SM -SN DRSN OVC013 M04/M05 A2976 RMK SC8 SLP091

CYHM;2009-01-30 08:00;CYHM 300800Z 21009KT 2 1/2SM -SN DRSN FEW008 OVC014 M04/M05 A2975 RMK CF2SC6 SLP088

CYHM;2009-01-30 09:00;CYHM 300900Z 21011KT 2 1/2SM -SN DRSN FEW008 BKN014 OVC022 M04/M05 A2974 RMK CF1SC6SC2 SLP083

CYHM;2009-01-30 10:00;CYHM 301000Z 23012KT 3SM -SN DRSN FEW008 BKN015 OVC041 M04/M05 A2974 RMK CF2SC5SC2 SLP082

CYHM;2009-01-30 11:00;CYHM 301100Z 25014KT 9SM -SN DRSN FEW011 SCT018 OVC074 M05/M07 A2975 RMK CF2SC2AC4 SLP085

CYHM;2009-01-30 12:00;CYHM 301200Z 26014KT 10SM -SN BKN044 OVC058 M06/M09 A2976 RMK SC6SC2 SLP092

CYHM;2009-01-30 13:00;CYHM 301300Z 24010KT 6SM -SN BKN063 M07/M10 A2978 RMK SC7 SLP098

CYHM;2009-01-30 14:00;CYHM 301400Z 25012KT 8SM -SN SCT018 BKN024 BKN042 M07/M10 A2979 RMK SC3SC2SC2 SLP102

CYHM;2009-01-30 14:49;CYHM 301449Z 24015KT 8SM BKN022 BKN042 RMK SC5SC2

CYHM;2009-01-30 15:00;CYHM 301500Z 26014KT 10SM BKN023 BKN045 M07/M10 A2979 RMK SC5SC2 SLP102

CYHM;2009-01-30 16:00;CYHM 301600Z 25015KT 10SM -SN BKN022 BKN085 M06/M10 A2979 RMK SC6AC1 SLP102

CYHM;2009-01-30 17:00;CYHM 301700Z 25013KT 15SM SCT022 BKN032 BKN100 M06/M11 A2978 RMK SC3SC2AC2 SLP099

CYHM;2009-01-30 18:00;CYHM 301800Z 25015KT 10SM BKN023 BKN098 M05/M10 A2978 RMK SC6AC2 SLP096

CYHM;2009-01-30 18:06;CYHM 301806Z 28016KT 7SM -SHSN BKN023 BKN032 OVC095 RMK SC5SC2AC1

CYHM;2009-01-30 18:46;CYHM 301846Z 26018KT 2SM -SN DRSN BKN013 OVC028 RMK SC6SC2

CYHM;2009-01-30 19:00;CYHM 301900Z 28014KT 2SM -SN DRSN BKN005 BKN016 OVC024 M07/M09 A2980 RMK SF5SC2SC2 SLP102

CYHM;2009-01-30 19:10;CYHM 301910Z 26013KT 7SM -SN DRSN FEW010 BKN025 BKN097 RMK CF2SC4AC2

CYHM;2009-01-30 20:00;CYHM 302000Z 26013G18KT 10SM DRSN SCT025 BKN100 M07/M13 A2982 RMK CU3AC2 SLP110

CYHM;2009-01-30 21:00;CYHM 302100Z 27016KT 12SM DRSN FEW030 BKN045 BKN070 M07/M13 A2984 RMK CU2SC3AC2 SLP119

CYHM;2009-01-30 22:00;CYHM 302200Z CCA 25013KT 12SM DRSN FEW035 BKN060 M08/M13 A2987 RMK CF2SC5 VIRGA SW SLP128

CYHM;2009-01-30 23:00;CYHM 302300Z 28010KT 15SM FEW045 SCT120 M09/M14 A2988 RMK SC2AC1 SLP133

CYHM;2009-01-31 00:00;CYHM 310000Z 26010KT 15SM FEW055 SCT090 M10/M14 A2989 RMK SC2AC1 SLP137

CYHM;2009-01-31 01:00;CYHM 310100Z 26008KT 15SM FEW070 SCT095 M10/M14 A2989 RMK AC2AC1 SLP138

CYHM;2009-01-31 02:00;CYHM 310200Z 24007KT 15SM FEW065 FEW200 M13/M16 A2990 RMK SC2CI0 SLP141

CYHM;2009-01-31 03:00;CYHM 310300Z 25007KT 15SM FEW065 FEW200 M12/M15 A2991 RMK SC2CI0 SLP144

CYHM;2009-01-31 04:00;CYHM 310400Z 25009KT 15SM FEW070 M13/M15 A2991 RMK AC2 SLP143

CYHM;2009-01-31 05:00;CYHM 310500Z 25008KT 15SM FEW025 FEW050 M13/M15 A2990 RMK CF1SC2 SLP142

CYHM;2009-01-31 06:00;CYHM 310600Z 25008KT 15SM SCT042 M13/M15 A2990 RMK SC3 SLP142

CYHM;2009-01-31 06:48;CYHM 310648Z 25007KT 15SM -SHSN BKN053 RMK SC6

CYHM;2009-01-31 07:00;CYHM 310700Z 25008KT 15SM -SHSN BKN049 M14/M16 A2993 RMK SC6 SLP150

CYHM;2009-01-31 08:00;CYHM 310800Z 23006KT 15SM FEW040 M16/M18 A2994 RMK SC1 SLP156

CYHM;2009-01-31 09:00;CYHM 310900Z 25007KT 15SM FEW200 M15/M16 A2995 RMK CI1 FROIN SLP161

CYHM;2009-01-31 10:00;CYHM 311000Z 25006KT 15SM FEW230 M16/M16 A2997 RMK CI1 FROIN SLP166

CYHM;2009-01-31 11:00;CYHM 311100Z 25006KT 15SM FEW039 FEW200 M17/M18 A2997 RMK SC2CI1 FROIN SLP167

CYHM;2009-01-31 12:00;CYHM 311200Z CCA 23004KT 15SM FEW027 SCT140 SCT200 M16/M17 A2998 RMK SC2AC1CI1 FROIN SLP170

CYHM;2009-01-31 13:00;CYHM 311300Z 21004KT 15SM FEW020 BKN027 BKN090 M16/M17 A2997 RMK CU1SC4AC2 SLP169

CYHM;2009-01-31 14:00;CYHM 311400Z 22008KT 15SM FEW020 FEW030 BKN100 BKN110 M14/M17 A2998 RMK CU1SC2AC3AC2 SLP172

CYHM;2009-01-31 15:00;CYHM 311500Z CCA 22011KT 15SM FEW020 SCT025 BKN100 BKN200 M12/M16 A2998 RMK CU1SC3AC2CI1 CI TR SLP170

CYHM;2009-01-31 16:00;CYHM 311600Z 23016KT 15SM FEW020 SCT028 BKN120 BKN200 M11/M16 A2998 RMK CU1SC3AC2CI1 SLP171

CYHM;2009-01-31 16:40;CYHM 311640Z 23017KT 3SM -SHSN BKN018 OVC025 RMK SC5SC3

CYHM;2009-01-31 17:00;CYHM 311700Z 23013KT 3SM -SHSN BKN018 BKN025 OVC030 M10/M14 A2996 RMK SC5SC2SC2 SLP163

CYHM;2009-01-31 18:00;CYHM 311800Z 22016KT 2 1/2SM -SN DRSN FEW025 BKN032 OVC040 M09/M12 A2991 RMK SC2SC3SC2 SLP146

CYHM;2009-01-31 18:15;CYHM 311815Z 22019KT 1SM -SN DRSN FEW013 BKN025 OVC030 RMK SC2SC3SC2

CYHM;2009-01-31 18:42;CYHM 311842Z 21014G23KT 2 1/2SM -SN DRSN FEW013 BKN020 OVC030 RMK SC2SC3SC2

CYHM;2009-01-31 19:00;CYHM 311900Z 21021KT 1SM -SN BLSN BKN020 OVC025 M09/M12 A2989 RMK SN2SC4SC2 SLP138

CYHM;2009-01-31 19:25;CYHM 311925Z CCA 21018G29KT 1/2SM -SN BLSN BKN017 OVC025 RMK SN2SC4SC2

CYHM;2009-01-31 20:00;CYHM 312000Z 20022KT 1/4SM -SN +BLSN BKN016 OVC025 M10/M12 A2988 RMK SN4SC2SC2 SLP135

CYHM;2009-01-31 20:15;CYHM 312015Z 21022KT 1/8SM -SN +BLSN OVC013 RMK SN6SC2

CYHM;2009-01-31 20:22;CYHM 312022Z 21022KT 5/8SM -SN BLSN OVC014 RMK SN6SF2 REBLSN

CYHM;2009-01-31 20:35;CYHM 312035Z CCA 21017KT 1SM -SN BLSN OVC020 RMK SN4SC4 REBLSN

CYHM;2009-01-31 21:00;CYHM 312100Z 20017KT 1 1/2SM -SN DRSN FEW018 BKN033 OVC040 M09/M12 A2985 RMK SC2SC3SC2 REBLSN SUN DIMLY VISBL SLP127

CYHM;2009-01-31 21:42;CYHM 312142Z 20015KT 2 1/2SM -SN DRSN FEW018 BKN027 OVC043 RMK SC2SC4SC2

CYHM;2009-01-31 22:00;CYHM 312200Z 20015KT 2 1/2SM -SN DRSN BKN020 OVC043 M09/M11 A2983 RMK SC5SC3 SLP118

CYHM;2009-01-31 23:00;CYHM 312300Z 21016KT 2 1/2SM -SN DRSN FEW017 BKN030 BKN130 M09/M11 A2980 RMK SC2SC3AC2 SLP109

CYHM;2009-01-31 23:40;CYHM 312340Z 19018KT 4SM -SN DRSN SCT013 BKN030 BKN050 RMK SC3SC2SC2 PCPN VRY LGT

CYHM;2009-02-01 01:00;CYHM 010100Z 20015KT 10SM DRSN BKN028 BKN044 M07/M10 A2975 RMK SC5SC2 SLP092

CYHM;2009-02-01 02:00;CYHM 010200Z 20018KT 12SM DRSN BKN025 BKN045 M06/M10 A2972 RMK SC5SC2 SLP082

CYHM;2009-02-01 03:00;CYHM 010300Z 20019G26KT 15SM DRSN FEW030 SCT090 M06/M09 A2969 RMK SC2AC2 SLP071

CYHM;2009-02-01 04:00;CYHM 010400Z 21020G26KT 15SM DRSN FEW030 M06/M09 A2968 RMK SC2 SLP065

CYHM;2009-02-01 05:00;CYHM 010500Z 21016KT 15SM DRSN FEW025 FEW170 M06/M09 A2965 RMK SC1AC1 SLP055

CYHM;2009-02-01 06:00;CYHM 010600Z 21016KT 15SM DRSN FEW023 SCT190 M06/M08 A2961 RMK SC2AC2 SLP042

CYHM;2009-02-01 07:00;CYHM 010700Z 21017KT 15SM -SHSN DRSN OVC017 M05/M07 A2958 RMK SC8 SLP032

CYHM;2009-02-01 08:00;CYHM 010800Z 22018KT 12SM -SHSN DRSN OVC016 M02/M04 A2956 RMK SC8 SLP024

CYHM;2009-02-01 09:00;CYHM 010900Z 23022G32KT 12SM -SHSN DRSN OVC016 M01/M03 A2955 RMK SC8 SLP018

CYHM;2009-02-01 10:00;CYHM 011000Z 23020G26KT 10SM -SHSN DRSN SCT016 BKN170 M00/M02 A2954 RMK CF4AC2 SLP016

CYHM;2009-02-01 11:00;CYHM 011100Z 23022KT 10SM -SHSN DRSN SCT015 BKN200 01/M02 A2955 RMK SC4CI3 SLP018

CYHM;2009-02-01 12:00;CYHM 011200Z 23020KT 15SM -SHSN DRSN BKN015 BKN190 01/M02 A2958 RMK SC5AC2 SLP028

CYHM;2009-02-01 12:52;CYHM 011252Z 23020KT 12SM DRSN FEW017 FEW180 BKN220 RMK SC2AC1CI2

CYHM;2009-02-01 13:00;CYHM 011300Z 23019G24KT 12SM DRSN FEW017 FEW180 BKN220 01/M02 A2962 RMK SC2AC1CI2 SLP040

CYHM;2009-02-01 14:00;CYHM 011400Z 24017G23KT 15SM FEW180 FEW220 01/M02 A2965 RMK AC1CI1 SLP050

CYHM;2009-02-01 15:00;CYHM 011500Z 23021G26KT 15SM DRSN FEW020 FEW180 FEW250 02/M02 A2969 RMK CU1AC1CI1 CU TR SLP064

CYHM;2009-02-01 16:00;CYHM 011600Z 23020KT 15SM DRSN FEW250 02/M02 A2971 RMK CI1 SLP070

CYHM;2009-02-01 17:00;CYHM 011700Z 23019KT 15SM FEW020 FEW250 02/M02 A2972 RMK CU1CI1 CU TR SLP075

CYHM;2009-02-01 18:00;CYHM 011800Z 23019KT 15SM FEW250 03/M03 A2972 RMK CI1 SLP075

CYHM;2009-02-01 19:00;CYHM 011900Z 24015G22KT 15SM FEW250 03/M03 A2973 RMK CI1 SLP079

CYHM;2009-02-01 20:00;CYHM 012000Z 23013G18KT 15SM FEW150 BKN250 03/M04 A2975 RMK AC1CI2 SLP084

CYHM;2009-02-01 21:00;CYHM 012100Z 22017KT 15SM FEW140 BKN250 02/M03 A2977 RMK AC1CI2 SLP089

CYHM;2009-02-01 22:00;CYHM 012200Z 22016KT 15SM FEW130 BKN250 02/M04 A2977 RMK AC2CI2 SLP091

CYHM;2009-02-01 23:00;CYHM 012300Z 22014KT 15SM FEW120 SCT250 01/M04 A2979 RMK AC1CI1 SLP096

CYHM;2009-02-02 00:00;CYHM 020000Z 22014KT 15SM FEW120 SCT250 01/M05 A2980 RMK AC1CI2 SLP100

CYHM;2009-02-02 01:00;CYHM 020100Z 22014KT 15SM FEW120 FEW250 01/M06 A2981 RMK AC1CI0 SLP104

CYHM;2009-02-02 02:00;CYHM 020200Z 22012KT 15SM FEW120 SCT250 M00/M06 A2983 RMK AC1CI2 SLP109

CYHM;2009-02-02 03:00;CYHM 020300Z 23011KT 15SM FEW120 FEW250 00/M07 A2984 RMK AC1CI1 AC TR SLP112

CYHM;2009-02-02 04:00;CYHM 020400Z 24011KT 15SM BKN130 00/M06 A2985 RMK AC4 SLP118

CYHM;2009-02-02 05:00;CYHM 020500Z 25009KT 15SM BKN130 M01/M06 A2987 RMK AC6 SLP124

CYHM;2009-02-02 06:00;CYHM 020600Z 26009KT 15SM BKN130 M02/M07 A2988 RMK AC6 SLP127

CYHM;2009-02-02 07:00;CYHM 020700Z 26009KT 15SM BKN130 M02/M08 A2989 RMK AC6 SLP130

CYHM;2009-02-02 08:00;CYHM 020800Z 26007KT 15SM FEW140 SCT210 M03/M08 A2990 RMK AC2CI2 SLP134

CYHM;2009-02-02 09:00;CYHM 020900Z 26007KT 15SM FEW130 BKN230 M04/M09 A2991 RMK AC2CI3 SLP137

CYHM;2009-02-02 10:00;CYHM 021000Z 26006KT 15SM FEW120 BKN230 M04/M09 A2992 RMK AC2CI2 SLP142

CYHM;2009-02-02 11:00;CYHM 021100Z 21006KT 15SM FEW130 SCT210 M06/M10 A2993 RMK AC1CI2 SLP144

CYHM;2009-02-02 12:00;CYHM 021200Z 21006KT 15SM FEW140 SCT220 M07/M10 A2994 RMK AC1CI2 SLP152

CYHM;2009-02-02 13:00;CYHM 021300Z 24006KT 15SM SCT210 M07/M10 A2996 RMK CI2 SLP158

CYHM;2009-02-02 14:00;CYHM 021400Z 25004KT 15SM FEW210 M07/M10 A2998 RMK CI1 SLP164

CYHM;2009-02-02 15:00;CYHM 021500Z 23005KT 15SM FEW210 M06/M10 A2999 RMK CI1 SLP167

CYHM;2009-02-02 16:00;CYHM 021600Z 23006KT 15SM FEW210 M04/M08 A2999 RMK CI1 CI TR SLP167

CYHM;2009-02-02 17:00;CYHM 021700Z 20004KT 15SM FEW210 M02/M06 A2997 RMK CI1 SLP160

CYHM;2009-02-02 18:00;CYHM 021800Z 18003KT 15SM FEW180 FEW240 00/M07 A2995 RMK AC1CI1 AC TR CI TR SLP154

CYHM;2009-02-02 19:00;CYHM 021900Z 18002KT 15SM FEW180 FEW240 00/M05 A2994 RMK AC1CI1 AC TR CI TR SLP150

CYHM;2009-02-02 20:00;CYHM 022000Z 19008KT 15SM FEW028 FEW180 00/M07 A2995 RMK CU1AC1 CU TR AC TR SLP152

CYHM;2009-02-02 21:00;CYHM 022100Z 19006KT 15SM FEW028 FEW180 00/M07 A2995 RMK CU1AC1 CU TR AC TR SLP152

CYHM;2009-02-02 22:00;CYHM 022200Z 17003KT 15SM FEW024 FEW180 M01/M06 A2996 RMK CU1AC1 CU TR AC TR SLP157

CYHM;2009-02-02 23:00;CYHM 022300Z 17005KT 15SM FEW160 M02/M06 A2997 RMK AC1 AC TR SLP161

CYHM;2009-02-03 00:00;CYHM 030000Z 17004KT 15SM FEW200 M04/M06 A2998 RMK CI1 CI TR SLP166

CYHM;2009-02-03 01:00;CYHM 030100Z 17004KT 15SM FEW100 M06/M07 A2997 RMK AC1 AC TR SLP164

CYHM;2009-02-03 02:00;CYHM 030200Z 19002KT 15SM FEW100 M06/M07 A2997 RMK AC1 AC TR SLP161

CYHM;2009-02-03 03:00;CYHM 030300Z 18003KT 2SM BR SCT058 M07/M08 A2996 RMK SC4 SLP159

CYHM;2009-02-03 03:20;CYHM 030320Z 19005KT 1/4SM FZFG BKN058 RMK FG5SC2

CYHM;2009-02-03 04:00;CYHM 030400Z 22006KT 1/8SM FZFG VV001 M09/M10 A2996 RMK FG8 SLP159

CYHM;2009-02-03 05:00;CYHM 030500Z 26005KT 1/4SM FZFG VV001 M07/M08 A2994 RMK FG8 SLP154

CYHM;2009-02-03 06:00;CYHM 030600Z 24003KT 1/8SM FZFG VV001 M07/M07 A2994 RMK FG8 SLP149

CYHM;2009-02-03 07:00;CYHM 030700Z 00000KT 1/8SM FZFG VV001 M06/M07 A2993 RMK FG8 SLP147

CYHM;2009-02-03 08:00;CYHM 030800Z 00000KT 1SM BR OVC007 M05/M06 A2992 RMK FG3SC5 SLP143

CYHM;2009-02-03 09:00;CYHM 030900Z 17003KT 2 1/2SM BR OVC006 M05/M06 A2992 RMK FG2SC6 SLP142

CYHM;2009-02-03 09:50;CYHM 030950Z 00000KT 5SM BR FEW004 OVC011 RMK SF2SC6

CYHM;2009-02-03 10:00;CYHM 031000Z 00000KT 5SM BR FEW004 OVC011 M05/M06 A2991 RMK SF2SC6 SLP141

CYHM;2009-02-03 10:45;CYHM 031045Z 15004KT 2 1/2SM BR FEW009 OVC017 RMK SF2SC6

CYHM;2009-02-03 11:00;CYHM 031100Z 14003KT 2SM BR FEW002 OVC015 M05/M06 A2991 RMK SF1SC7 SLP139

CYHM;2009-02-03 11:21;CYHM 031121Z 15002KT 2SM -SHSN BR BKN002 OVC013 RMK SF6SC2

CYHM;2009-02-03 12:00;CYHM 031200Z 11002KT 2SM -SHSN BR BKN004 BKN028 OVC048 M06/M06 A2990 RMK SF5SC2SC2 SLP138

CYHM;2009-02-03 12:09;CYHM 031209Z 11002KT 3/4SM BR OVC002 RMK FG3SF5

CYHM;2009-02-03 12:14;CYHM 031214Z 10002KT 1/4SM FZFG VV002 RMK FG8

CYHM;2009-02-03 12:20;CYHM 031220Z 09004KT 1/2SM FZFG OVC002 RMK FG5SF3

CYHM;2009-02-03 12:53;CYHM 031253Z 08005KT 3/4SM -SHSN BR BKN008 OVC012 RMK SN2SF5SC2

CYHM;2009-02-03 13:00;CYHM 031300Z 07006KT 3/4SM -SHSN BR BKN006 OVC020 M05/M06 A2990 RMK SN2SF4SC2 SLP139

CYHM;2009-02-03 13:21;CYHM 031321Z 06006KT 1/2SM -SHSN FZFG BKN003 OVC018 RMK SN2SF4SC2

CYHM;2009-02-03 13:40;CYHM 031340Z 09006KT 3/4SM -SHSN BR BKN010 OVC020 RMK SN2SF3SC3

CYHM;2009-02-03 14:00;CYHM 031400Z 10005KT 3/4SM -SHSN BR BKN006 OVC019 M05/M06 A2990 RMK SN2SF5SC2 VIS VRBL 1/2-1SM SLP139

CYHM;2009-02-03 15:00;CYHM 031500Z 10006KT 1SM -SHSN BR SCT006 BKN014 OVC020 M05/M06 A2991 RMK SN1SF3SC3SC1 SLP140

CYHM;2009-02-03 15:11;CYHM 031511Z 10004KT 3/4SM -SN BR BKN006 OVC015 RMK SN2SF4SC2 VIS VRB 1/2-1SM

CYHM;2009-02-03 15:30;CYHM 031530Z 12005KT 1 1/2SM -SN BR BKN007 OVC016 RMK SN2SF5SC2 VIS VRBL 1-2SM

CYHM;2009-02-03 16:00;CYHM 031600Z 11006KT 1 3/4SM -SN BR BKN011 OVC019 M04/M05 A2990 RMK SN1SF5SC2 /S02/ SLP138

CYHM;2009-02-03 16:41;CYHM 031641Z 12003KT 1SM -SN BR BKN007 OVC019 RMK SN2SF5SC2

CYHM;2009-02-03 17:00;CYHM 031700Z 12004KT 1SM -SN BR BKN009 OVC022 M04/M04 A2988 RMK SN2SF5SC2 SLP133

CYHM;2009-02-03 17:20;CYHM 031720Z 11002KT 1 3/4SM -SN BR BKN010 OVC020 RMK SN1SF4SC3

CYHM;2009-02-03 18:00;CYHM 031800Z 10003KT 1 1/2SM -SN BR BKN011 OVC019 M04/M04 A2986 RMK SN2SF6SC1 SLP125

CYHM;2009-02-03 19:00;CYHM 031900Z 12004KT 1SM -SN BR SCT006 OVC017 M04/M04 A2986 RMK SN2SF2SC4 SLP123

CYHM;2009-02-03 20:00;CYHM 032000Z 09003KT 1SM -SN SCT008 OVC016 M04/M04 A2987 RMK SN2SF2SC5 SLP126

CYHM;2009-02-03 21:00;CYHM 032100Z 08006KT 1SM -SN SCT008 OVC022 M04/M04 A2988 RMK SN3SF1SC4 SLP129

CYHM;2009-02-03 21:49;CYHM 032149Z CCA 06011KT 2 1/4SM -SN FEW012 BKN032 BKN250 RMK SN2SF1SC4CI1 CI TR

CYHM;2009-02-03 22:00;CYHM 032200Z 07011KT 2 1/2SM -SN FEW012 BKN032 BKN250 M04/M05 A2989 RMK SN1SF2SC5CI1 CI TR SLP134

CYHM;2009-02-03 22:13;CYHM 032213Z 07008KT 5SM -SHSN FEW012 FEW034 BKN060 RMK SF1SC1SC3

CYHM;2009-02-03 22:48;CYHM 032248Z 07009KT 2 1/2SM -SN FEW008 BKN015 OVC044 RMK SF1SC6SC2

CYHM;2009-02-03 23:00;CYHM 032300Z 06011KT 2 1/2SM -SN FEW009 BKN018 OVC036 M04/M05 A2991 RMK SN1SF1SC6SC1 SLP141

CYHM;2009-02-03 23:30;CYHM 032330Z 05011KT 5SM -SN BKN016 BKN027 RMK SC6SC2

CYHM;2009-02-04 00:00;CYHM 040000Z 06013KT 5SM -SN BKN017 BKN052 M04/M06 A2993 RMK SC6SC1 SLP148

CYHM;2009-02-04 01:00;CYHM 040100Z 05012KT 3SM -SN BKN018 OVC054 M05/M06 A2994 RMK SC6SC2 SLP152

CYHM;2009-02-04 02:00;CYHM 040200Z 04010KT 5SM -SN SCT007 OVC018 M05/M06 A2995 RMK SF3SC5 SLP156

CYHM;2009-02-04 03:00;CYHM 040300Z 03010KT 5SM -SN OVC020 M06/M09 A2997 RMK SC8 SLP161

CYHM;2009-02-04 04:00;CYHM 040400Z 02007KT 6SM -SN FEW024 OVC062 M07/M09 A2997 RMK SC2SC6 SLP164

CYHM;2009-02-04 05:00;CYHM 040500Z 02008KT 6SM -SHSN FEW022 SCT036 M08/M10 A2997 RMK SC1SC2 SLP164

CYHM;2009-02-04 06:00;CYHM 040600Z 03009KT 3SM -SN SCT018 SCT044 M08/M10 A2998 RMK SC2SC1 SLP166

CYHM;2009-02-04 07:00;CYHM 040700Z 03012KT 4SM -SN BKN027 M08/M10 A3000 RMK SC7 SLP172

CYHM;2009-02-04 08:00;CYHM 040800Z 01008KT 10SM -SHSN FEW022 BKN048 M10/M12 A3002 RMK SC1SC6 SLP180

CYHM;2009-02-04 09:00;CYHM 040900Z 01007KT 12SM -SHSN OVC027 M11/M13 A3003 RMK SC8 SLP185

CYHM;2009-02-04 10:00;CYHM 041000Z 02007KT 6SM -SHSN BKN027 M11/M13 A3005 RMK SC7 SLP191

CYHM;2009-02-04 11:00;CYHM 041100Z 02008KT 5SM -SHSN OVC030 M12/M14 A3007 RMK SC8 SLP198

CYHM;2009-02-04 12:00;CYHM 041200Z 01006KT 6SM -SHSN SCT015 OVC032 M12/M14 A3010 RMK SC3SC5 SLP209

CYHM;2009-02-04 12:48;CYHM 041248Z 01007KT 2SM -SHSN BKN012 OVC030 RMK SF6SC2

CYHM;2009-02-04 13:00;CYHM 041300Z 01006KT 2SM -SHSN BR BKN013 OVC029 M13/M15 A3013 RMK SN1SC5SC2 SLP219

CYHM;2009-02-04 13:46;CYHM 041346Z 01008KT 4SM -SHSN BR SCT019 BKN040 BKN220 RMK SC3SC2CI1

CYHM;2009-02-04 14:00;CYHM 041400Z 01007KT 5SM -SHSN SCT020 BKN036 BKN220 M13/M16 A3015 RMK SC3SC2CI1 SLP224

CYHM;2009-02-04 15:00;CYHM 041500Z 02006KT 6SM -SHSN FEW008 FEW018 SCT028 BKN220 M13/M15 A3017 RMK CF1SC2SC1CI2 CF TR SLP232

CYHM;2009-02-04 16:00;CYHM 041600Z 01006KT 6SM -SHSN FEW010 FEW021 SCT058 BKN120 M13/M16 A3019 RMK SF1SC1SC2AC1 SLP239

CYHM;2009-02-04 16:48;CYHM 041648Z 01005KT 10SM FEW022 FEW056 SCT220 RMK CU1SC1CI1

CYHM;2009-02-04 17:00;CYHM 041700Z 35004KT 15SM FEW020 FEW056 SCT220 M13/M16 A3019 RMK CU1SC1CI1 SLP240

CYHM;2009-02-04 18:00;CYHM 041800Z 35002KT 15SM FEW022 FEW140 SCT220 M12/M13 A3019 RMK SC1AC1CI1 CU ASOCTD SLP240

CYHM;2009-02-04 19:00;CYHM 041900Z 33004KT 15SM FEW022 FEW052 SCT220 M11/M15 A3020 RMK CU1SC2CI1 SLP242

CYHM;2009-02-04 20:00;CYHM 042000Z 36005KT 15SM FEW024 BKN086 BKN200 M11/M16 A3021 RMK SC2AC3CI1 CU ASOCTD CI TR SLP246

CYHM;2009-02-04 21:00;CYHM 042100Z 05003KT 15SM BKN031 M11/M17 A3023 RMK SC6 SLP255

CYHM;2009-02-04 22:00;CYHM 042200Z 00000KT 15SM SCT032 BKN080 BKN220 M12/M18 A3026 RMK SC3AC1CC1 CC TR SLP263

CYHM;2009-02-04 23:00;CYHM 042300Z 33009KT 15SM FEW080 M13/M19 A3029 RMK AC1 AC TR SLP273

CYHM;2009-02-05 00:00;CYHM 050000Z 32008KT 15SM FEW250 M15/M21 A3031 RMK CI1 CI TR SLP283

CYHM;2009-02-05 01:00;CYHM 050100Z 32007KT 15SM FEW250 M16/M21 A3033 RMK CI1 CI TR SLP290

CYHM;2009-02-05 02:00;CYHM 050200Z 28004KT 15SM FEW250 M17/M21 A3035 RMK CI1 CI TR SLP297

CYHM;2009-02-05 04:00;CYHM 050400Z 30003KT 15SM FEW210 M19/M23 A3037 RMK CI2 SLP301

CYHM;2009-02-05 05:00;CYHM 050500Z 00000KT 15SM FEW200 M20/M23 A3038 RMK CI1 SLP302

CYHM;2009-02-05 06:00;CYHM 050600Z 31004KT 15SM FEW200 M20/M23 A3037 RMK CI1 SLP307

CYHM;2009-02-05 07:00;CYHM 050700Z 26005KT 15SM FEW200 M23/M26 A3038 RMK CI1 SLP309

CYHM;2009-02-05 08:00;CYHM 050800Z 26008KT 15SM FEW200 M22/M26 A3039 RMK CI2 SLP314

CYHM;2009-02-05 09:00;CYHM 050900Z 26006KT 15SM FEW200 M23/M27 A3040 RMK CI1 SLP319

CYHM;2009-02-05 10:00;CYHM 051000Z 00000KT 15SM FEW035 M24/M27 A3040 RMK SC2 SLP318

CYHM;2009-02-05 11:00;CYHM 051100Z 26004KT 15SM FEW035 FEW200 M24/M29 A3040 RMK SC2CI1 FROIN SLP319

CYHM;2009-02-05 12:00;CYHM 051200Z 27004KT 15SM FEW024 BKN037 M24/M28 A3042 RMK SC2SC3 SLP325

CYHM;2009-02-05 13:00;CYHM 051300Z 27004KT 15SM FEW036 FEW220 M22/M26 A3043 RMK SC1CI1 SC TR CI TR SLP330

CYHM;2009-02-05 14:00;CYHM 051400Z 28008KT 15SM FEW020 FEW040 FEW220 M21/M24 A3044 RMK CU1SC1CI1 CU TR CI TR SLP334

CYHM;2009-02-05 15:00;CYHM 051500Z 26006KT 15SM FEW040 FEW220 M19/M21 A3045 RMK SC1CI1 SLP334

CYHM;2009-02-05 16:00;CYHM 051600Z 25008KT 15SM FEW040 FEW220 M17/M20 A3044 RMK SC1CI1 SLP333

CYHM;2009-02-05 17:00;CYHM 051700Z 24008KT 15SM FEW025 FEW050 FEW220 M15/M19 A3042 RMK CU1SC1CI1 CU TR SC TR SLP326

CYHM;2009-02-05 18:00;CYHM 051800Z 25008KT 15SM FEW025 FEW220 M13/M19 A3040 RMK CU1CI1 CU TR CONTRAIL SLP317

CYHM;2009-02-05 19:00;CYHM 051900Z 25008KT 15SM FEW025 FEW220 M12/M19 A3038 RMK CU1CI0 CU TR CONTRAIL SLP311

CYHM;2009-02-05 20:00;CYHM 052000Z 22008KT 15SM FEW025 BKN250 M12/M20 A3037 RMK CU1CI2 CU TR SLP306

CYHM;2009-02-05 21:00;CYHM 052100Z 21009KT 15SM FEW170 FEW250 M12/M21 A3036 RMK AC1CI1 SLP302

CYHM;2009-02-05 22:00;CYHM 052200Z 20010KT 15SM FEW170 SCT250 M16/M21 A3033 RMK AC1CI2 AC TR SLP294

CYHM;2009-02-05 23:00;CYHM 052300Z 19006KT 15SM FEW150 BKN250 M15/M21 A3031 RMK AC2CI2 SLP288

CYHM;2009-02-06 00:00;CYHM 060000Z 21005KT 15SM OVC099 M14/M19 A3032 RMK AC8 SLP291

CYHM;2009-02-06 01:00;CYHM 060100Z 20008KT 15SM OVC097 M12/M17 A3030 RMK AC8 SLP283

CYHM;2009-02-06 02:00;CYHM 060200Z 20009KT 15SM OVC100 M11/M15 A3028 RMK AC8 SLP279

CYHM;2009-02-06 03:00;CYHM 060300Z 20007KT 15SM BKN048 OVC096 M11/M14 A3028 RMK SC5AC3 SLP275

CYHM;2009-02-06 04:00;CYHM 060400Z 19012KT 15SM OVC047 M10/M14 A3028 RMK SC8 SLP273

CYHM;2009-02-06 05:00;CYHM 060500Z 20012KT 15SM OVC057 M10/M14 A3026 RMK SC8 SLP269

CYHM;2009-02-06 06:00;CYHM 060600Z 20012KT 15SM OVC053 M09/M14 A3026 RMK SC8 SLP266

CYHM;2009-02-06 07:00;CYHM 060700Z 21011KT 15SM FEW053 BKN068 M09/M14 A3024 RMK SC2AC5 SLP259

CYHM;2009-02-06 08:00;CYHM 060800Z 19009KT 15SM BKN067 M09/M13 A3022 RMK AC5 SLP252

CYHM;2009-02-06 09:00;CYHM 060900Z 20009KT 15SM BKN056 M10/M13 A3019 RMK SC6 SLP241

CYHM;2009-02-06 10:00;CYHM 061000Z 21006KT 15SM FEW053 M11/M14 A3019 RMK SC1 SLP240

CYHM;2009-02-06 11:00;CYHM 061100Z 21004KT 15SM SKC M12/M14 A3020 RMK SLP246

CYHM;2009-02-06 12:00;CYHM 061200Z CCA 20003KT 15SM FEW220 M12/M13 A3021 RMK CI1 SLP249

CYHM;2009-02-06 13:00;CYHM 061300Z 20004KT 15SM FEW031 FEW150 SCT220 M12/M14 A3023 RMK SC2AC1CI1 SLP256

CYHM;2009-02-06 14:00;CYHM 061400Z 23005KT 15SM OVC030 M11/M13 A3025 RMK SC8 SLP261

CYHM;2009-02-06 15:00;CYHM 061500Z 24006KT 15SM FEW040 FEW220 M09/M12 A3026 RMK SC1CI1 SLP263

CYHM;2009-02-06 16:00;CYHM 061600Z 24006KT 15SM FEW220 M07/M11 A3026 RMK CI1 SLP263

CYHM;2009-02-06 17:00;CYHM 061700Z 24004KT 15SM FEW220 M06/M10 A3026 RMK CI1 SLP265

CYHM;2009-02-06 18:00;CYHM 061800Z 23008KT 15SM FEW025 FEW220 M05/M10 A3024 RMK CU1CI0 SLP257

CYHM;2009-02-06 19:00;CYHM 061900Z 24008KT 15SM FEW220 M04/M09 A3023 RMK CI1 SLP251

CYHM;2009-02-06 20:00;CYHM 062000Z 21006KT 15SM FEW120 FEW250 M04/M09 A3023 RMK AC1CI1 SLP253

CYHM;2009-02-06 21:00;CYHM 062100Z 22007KT 15SM FEW250 M04/M09 A3023 RMK CI2 CONTRAILS SLP252

CYHM;2009-02-06 22:00;CYHM 062200Z 17005KT 15SM SCT230 M05/M09 A3023 RMK CI2 CONTRAILS SLP250

CYHM;2009-02-06 23:00;CYHM 062300Z 18005KT 10SM FEW230 M07/M10 A3023 RMK CI2 SLP251

CYHM;2009-02-07 00:00;CYHM 070000Z 00000KT 15SM FEW230 M08/M10 A3023 RMK CI2 SLP253

CYHM;2009-02-07 01:00;CYHM 070100Z 17007KT 15SM FEW200 M09/M11 A3021 RMK CI2 SLP248

CYHM;2009-02-07 02:00;CYHM 070200Z 19005KT 15SM FEW200 M10/M12 A3021 RMK CI1 SLP246

CYHM;2009-02-07 03:00;CYHM 070300Z 19005KT 15SM FEW200 M10/M12 A3020 RMK CI1 SLP243

CYHM;2009-02-07 04:00;CYHM 070400Z 20002KT 15SM FEW200 M10/M11 A3018 RMK CI2 SLP237

CYHM;2009-02-07 05:00;CYHM 070500Z 16005KT 15SM BKN250 M10/M12 A3016 RMK CI4 SLP231

CYHM;2009-02-07 06:00;CYHM 070600Z 15008KT 15SM BKN250 M11/M13 A3014 RMK CI6 SLP223

CYHM;2009-02-07 07:00;CYHM 070700Z 15007KT 15SM FEW190 BKN250 M09/M12 A3012 RMK AC1CI4 SLP215

CYHM;2009-02-07 08:00;CYHM 070800Z 17007KT 15SM FEW025 BKN230 M07/M10 A3010 RMK SC2CI4 SLP209

CYHM;2009-02-07 09:00;CYHM 070900Z 18009KT 15SM BKN027 OVC190 M04/M09 A3006 RMK SC6AC2 SLP192

CYHM;2009-02-07 10:00;CYHM 071000Z 18011KT 15SM BKN024 OVC150 M01/M05 A3003 RMK SC7AC1 SLP181

CYHM;2009-02-07 11:00;CYHM 071100Z CCA 19013KT 15SM OVC035 02/M02 A2998 RMK SC8 CIG RAG SLP167

CYHM;2009-02-07 12:00;CYHM 071200Z 19015KT 15SM BKN027 OVC040 03/M00 A2995 RMK SC5SC3 SLP155

CYHM;2009-02-07 13:00;CYHM 071300Z 19018KT 15SM BKN027 BKN050 03/01 A2992 RMK SC5SC2 SLP144

CYHM;2009-02-07 14:00;CYHM 071400Z 18019KT 15SM FEW030 SCT045 BKN070 04/01 A2990 RMK SC2SC2AC3 SLP136

CYHM;2009-02-07 15:00;CYHM 071500Z 20021KT 15SM OVC032 04/01 A2987 RMK SC8 SLP127

CYHM;2009-02-07 16:00;CYHM 071600Z 20018G24KT 15SM OVC030 05/02 A2985 RMK SC8 SLP121

CYHM;2009-02-07 17:00;CYHM 071700Z 20020G26KT 15SM BKN030 OVC035 06/02 A2984 RMK SC5SC3 SLP116

CYHM;2009-02-07 18:00;CYHM 071800Z 21025G32KT 15SM BKN025 OVC030 07/03 A2982 RMK SC6SC2 SLP108

CYHM;2009-02-07 19:00;CYHM 071900Z 22027G34KT 12SM BKN022 OVC030 07/04 A2980 RMK SC6SC2 SLP103

CYHM;2009-02-07 20:00;CYHM 072000Z 21024G30KT 12SM BKN021 OVC030 07/04 A2980 RMK SC6SC2 SLP102

CYHM;2009-02-07 21:00;CYHM 072100Z 21028KT 12SM BKN020 OVC025 06/04 A2980 RMK SC6SC2 SLP099

CYHM;2009-02-07 22:00;CYHM 072200Z 22022G29KT 12SM BKN019 OVC025 07/04 A2979 RMK SC6SC2 SLP096

CYHM;2009-02-07 23:00;CYHM 072300Z 22023KT 12SM BKN016 OVC025 07/04 A2980 RMK SC6SC2 SLP100

CYHM;2009-02-08 00:00;CYHM 080000Z 22018G23KT 12SM BKN013 07/05 A2981 RMK SC7 SLP102

CYHM;2009-02-08 01:00;CYHM 080100Z 23025KT 10SM BKN010 07/05 A2983 RMK SC7 SLP109

CYHM;2009-02-08 02:00;CYHM 080200Z 23017KT 7SM BKN008 06/05 A2985 RMK SC6 SLP114

CYHM;2009-02-08 03:00;CYHM 080300Z 22017KT 7SM BKN008 06/05 A2985 RMK SC6 SLP115

CYHM;2009-02-08 04:00;CYHM 080400Z 24015G20KT 6SM BR OVC009 05/04 A2987 RMK SC8 CIG RAG SLP120

CYHM;2009-02-08 05:00;CYHM 080500Z 24017KT 5SM -DZ BR BKN007 05/04 A2988 RMK SF7 SLP123

CYHM;2009-02-08 06:00;CYHM 080600Z 24014KT 5SM -DZ BR BKN006 04/04 A2988 RMK SF7 SLP123

CYHM;2009-02-08 07:00;CYHM 080700Z 25013KT 4SM BR SCT004 BKN034 03/03 A2991 RMK SF4SC2 SLP133

CYHM;2009-02-08 08:00;CYHM 080800Z 26009KT 6SM BR FEW005 BKN038 03/02 A2992 RMK SF2SC4 SLP137

CYHM;2009-02-08 09:00;CYHM 080900Z 26008KT 8SM BKN026 03/02 A2994 RMK SC7 SLP145

CYHM;2009-02-08 10:00;CYHM 081000Z 27008KT 7SM FEW023 OVC046 03/00 A2998 RMK SC2SC6 SLP158

CYHM;2009-02-08 11:00;CYHM 081100Z 29015G20KT 12SM -SHSN BKN025 02/M02 A3002 RMK SC6 SLP173

CYHM;2009-02-08 11:31;CYHM 081131Z 29013G22KT 15SM BKN025 RMK SC5

CYHM;2009-02-08 12:00;CYHM 081200Z 28015KT 15SM BKN022 01/M02 A3006 RMK SC7 SLP188

CYHM;2009-02-08 13:00;CYHM 081300Z 29008KT 240V320 15SM SCT019 BKN028 01/M04 A3011 RMK SC4SC3 SLP203

CYHM;2009-02-08 14:00;CYHM 081400Z 27006KT 15SM BKN019 BKN026 01/M03 A3015 RMK SC6SC2 SLP218

CYHM;2009-02-08 15:00;CYHM 081500Z 30012KT 15SM BKN027 01/M04 A3020 RMK SC5 SLP233

CYHM;2009-02-08 16:00;CYHM 081600Z 28005KT 15SM FEW027 SCT250 01/M05 A3024 RMK SC2CI1 SLP248

CYHM;2009-02-08 17:00;CYHM 081700Z 30012KT 15SM FEW030 BKN250 01/M06 A3024 RMK SC1CI5 SLP249

CYHM;2009-02-08 18:00;CYHM 081800Z 26011KT 15SM FEW030 FEW150 BKN250 01/M06 A3024 RMK CU1AC1CI2 CU TR SLP250

CYHM;2009-02-08 19:00;CYHM 081900Z 26012KT 15SM FEW030 FEW180 BKN250 01/M05 A3023 RMK CU1AC1CI3 CC ASOCTD CU TR SLP246

CYHM;2009-02-08 20:00;CYHM 082000Z 28014KT 15SM FEW030 01/M05 A3023 RMK CU1 SLP247

CYHM;2009-02-08 21:00;CYHM 082100Z 26012KT 15SM FEW030 01/M06 A3025 RMK SC1 SLP253

CYHM;2009-02-08 22:00;CYHM 082200Z 25012KT 15SM FEW030 01/M06 A3026 RMK SC1 SLP258

CYHM;2009-02-08 23:00;CYHM 082300Z CCA 27005KT 15SM FEW190 M01/M06 A3028 RMK AC1 SLP264

CYHM;2009-02-09 00:00;CYHM 090000Z 27004KT 15SM FEW200 M02/M06 A3029 RMK CC1 SLP266

CYHM;2009-02-09 01:00;CYHM 090100Z 22006KT 15SM FEW200 M03/M06 A3028 RMK CC1 SLP265

CYHM;2009-02-09 02:00;CYHM 090200Z 21006KT 15SM FEW200 M04/M06 A3029 RMK CC1 SLP267

CYHM;2009-02-09 03:00;CYHM 090300Z 24008KT 15SM FEW200 M03/M06 A3029 RMK CC1 SLP269

CYHM;2009-02-09 04:00;CYHM 090400Z 24007KT 15SM FEW200 M03/M05 A3030 RMK CI1 SLP273

CYHM;2009-02-09 05:00;CYHM 090500Z 25008KT 15SM FEW210 M03/M05 A3030 RMK CI1 SLP271

CYHM;2009-02-09 06:00;CYHM 090600Z 26007KT 15SM SKC M03/M05 A3030 RMK SLP270

CYHM;2009-02-09 07:00;CYHM 090700Z 23007KT 15SM FEW210 M05/M06 A3031 RMK CI1 SLP274

CYHM;2009-02-09 08:00;CYHM 090800Z 23004KT 15SM FEW200 M06/M06 A3031 RMK CI1 SLP275

CYHM;2009-02-09 09:00;CYHM 090900Z 23005KT 15SM FEW200 M06/M06 A3032 RMK CI1 SLP279

CYHM;2009-02-09 10:00;CYHM 091000Z 27003KT 15SM FEW200 M05/M06 A3034 RMK CI1 FROIN SLP285

CYHM;2009-02-09 11:00;CYHM 091100Z 00000KT 15SM FEW200 M06/M06 A3034 RMK CI1 FROIN SLP286

CYHM;2009-02-09 12:00;CYHM 091200Z 00000KT 15SM FEW140 FEW220 M06/M07 A3034 RMK AC1CI1 SLP287

CYHM;2009-02-09 13:00;CYHM 091300Z 27004KT 15SM FEW120 BKN220 M06/M07 A3036 RMK AC1CI3 AC TR CONTRAIL SLP294

CYHM;2009-02-09 14:00;CYHM 091400Z 26002KT 15SM FEW120 BKN220 M04/M05 A3037 RMK AC1CI3 AC TR SLP298

CYHM;2009-02-09 15:00;CYHM 091500Z 00000KT 15SM BKN220 M02/M04 A3037 RMK CI3 CONTRAIL SLP296

CYHM;2009-02-09 16:00;CYHM 091600Z 00000KT 15SM SCT220 02/M03 A3037 RMK CI2 SLP298

CYHM;2009-02-09 17:00;CYHM 091700Z 13004KT 15SM FEW160 SCT220 02/M04 A3037 RMK AC1CI2 AC TR SLP296

CYHM;2009-02-09 18:00;CYHM 091800Z 17008KT 15SM FEW160 SCT220 03/M02 A3034 RMK AC1CI2 SLP285

CYHM;2009-02-09 20:00;CYHM 092000Z 17003KT 12SM FEW024 BKN160 BKN250 02/M02 A3032 RMK SC1AC5CI1 SC TR CONTRAILS SUN DMLY VSBL SLP279

CYHM;2009-02-09 21:00;CYHM 092100Z 18009KT 6SM HZ FEW120 BKN160 OVC210 02/M02 A3032 RMK AC1AC5CI2 1ST LYR TR SUN DMLY VSBL SLP278

CYHM;2009-02-09 22:00;CYHM 092200Z 15004KT 5SM HZ FEW120 BKN170 OVC210 00/M02 A3031 RMK AC1AC6CI1 1ST LYR TR SLP277

CYHM;2009-02-09 23:00;CYHM 092300Z 12004KT 3SM BR FEW170 OVC220 M00/M02 A3028 RMK AC2CI6 SLP267

CYHM;2009-02-10 00:00;CYHM 100000Z 08004KT 10SM FEW180 OVC200 M01/M02 A3027 RMK AC2CI6 SLP262

CYHM;2009-02-10 01:00;CYHM 100100Z 07007KT 8SM FEW180 BKN200 M01/M02 A3024 RMK AC2CI5 SLP253

CYHM;2009-02-10 02:00;CYHM 100200Z 06007KT 10SM FEW180 BKN200 M01/M02 A3022 RMK AC1CI3 CC ASOCTD SLP247

CYHM;2009-02-10 03:00;CYHM 100300Z 07008KT 12SM BKN230 M01/M03 A3020 RMK CI2 SLP237

CYHM;2009-02-10 04:00;CYHM 100400Z 05008KT 15SM BKN240 M00/M03 A3017 RMK CI2 SLP227

CYHM;2009-02-10 05:00;CYHM 100500Z 06007KT 15SM BKN240 M00/M02 A3017 RMK CI3 SLP227

CYHM;2009-02-10 06:00;CYHM 100600Z 05008KT 15SM BKN058 BKN240 M00/M01 A3015 RMK SC6CI1 SLP218

CYHM;2009-02-10 07:00;CYHM 100700Z 05010KT 15SM BKN057 00/M01 A3013 RMK SC7 SLP212

CYHM;2009-02-10 08:00;CYHM 100800Z 05009KT 8SM BKN074 00/M01 A3009 RMK AC7 SLP198

CYHM;2009-02-10 09:00;CYHM 100900Z 06009KT 12SM FEW056 SCT076 OVC180 M00/M01 A3005 RMK SC1AC2AC5 SLP184

CYHM;2009-02-10 10:00;CYHM 101000Z 05009KT 12SM SCT052 BKN120 OVC140 M00/M01 A3001 RMK SC3AC4AC1 SLP170

CYHM;2009-02-10 10:27;CYHM 101027Z 06005KT 15SM -SHRA BKN052 OVC140 RMK SC6AC2

CYHM;2009-02-10 10:52;CYHM 101052Z 35003KT 15SM BKN047 OVC100 RMK SC6AC2

CYHM;2009-02-10 11:00;CYHM 101100Z 35003KT 15SM BKN045 OVC100 00/M01 A3002 RMK SC6AC2 SLP175

CYHM;2009-02-10 12:00;CYHM 101200Z 01007KT 10SM -SHRA BKN054 OVC060 00/M00 A2998 RMK SC6SC2 SLP164

CYHM;2009-02-10 13:00;CYHM 101300Z 06006KT 5SM -SHRA BR FEW054 BKN063 OVC078 00/M00 A2996 RMK SC2SC4AC2 SLP157

CYHM;2009-02-10 13:50;CYHM 101350Z 00000KT 2SM -SHRA BR BKN009 OVC045 RMK SF6SC2

CYHM;2009-02-10 14:00;CYHM 101400Z 00000KT 2 1/2SM -SHRA BR OVC008 01/00 A2996 RMK SF8 SLP156

CYHM;2009-02-10 15:00;CYHM 101500Z 20008KT 3SM BR BKN005 OVC021 03/03 A2994 RMK SF6SC2 SLP147

CYHM;2009-02-10 16:00;CYHM 101600Z 21010KT 4SM BR BKN007 BKN030 OVC044 05/05 A2993 RMK SF5SC2SC1 SLP143

CYHM;2009-02-10 17:00;CYHM 101700Z 19012KT 6SM BR FEW040 BKN078 BKN210 07/06 A2990 RMK SC2AC2CI1 CONTRAIL SLP133

CYHM;2009-02-10 18:00;CYHM 101800Z 21014KT 8SM BKN042 BKN075 BKN210 08/07 A2987 RMK SC5AC2CI0 CI TR SLP121

CYHM;2009-02-10 19:00;CYHM 101900Z 22015KT 10SM BKN024 BKN038 BKN080 10/08 A2986 RMK SC5SC2AC1 SLP118

CYHM;2009-02-10 20:00;CYHM 102000Z 21014G20KT 6SM BR BKN028 BKN250 09/08 A2984 RMK SC6CI1 SLP114

CYHM;2009-02-10 21:00;CYHM 102100Z 21015KT 6SM BR BKN025 BKN250 09/07 A2984 RMK SC6CI1 SLP112

CYHM;2009-02-10 22:00;CYHM 102200Z 21013KT 6SM BR FEW024 BKN250 08/07 A2984 RMK SC2CI4 CONTRAILS SLP110

CYHM;2009-02-10 23:00;CYHM 102300Z 21015KT 8SM FEW100 OVC230 08/06 A2985 RMK AC1CC6 SLP116

CYHM;2009-02-11 00:00;CYHM 110000Z 22015KT 15SM OVC230 08/07 A2987 RMK CS6 SLP121

CYHM;2009-02-11 01:00;CYHM 110100Z 22013KT 12SM BKN230 08/06 A2986 RMK CS6 SLP119

CYHM;2009-02-11 02:00;CYHM 110200Z 22010KT 15SM BKN240 06/05 A2986 RMK CC6 SLP119

CYHM;2009-02-11 03:00;CYHM 110300Z 23011KT 15SM BKN230 BKN260 07/06 A2987 RMK CC2CI1 SLP122

CYHM;2009-02-11 04:00;CYHM 110400Z 22013KT 15SM OVC017 08/07 A2988 RMK SC8 SLP125

CYHM;2009-02-11 05:00;CYHM 110500Z 22015KT 12SM OVC016 08/07 A2988 RMK SC8 SLP125

CYHM;2009-02-11 06:00;CYHM 110600Z 24014KT 10SM OVC012 08/08 A2987 RMK SC8 SLP119

CYHM;2009-02-11 07:00;CYHM 110700Z 23012KT 8SM OVC014 08/07 A2987 RMK SC8 SLP118

CYHM;2009-02-11 08:00;CYHM 110800Z 21012KT 6SM BR FEW008 OVC016 08/07 A2985 RMK SF2SC6 SLP114

CYHM;2009-02-11 09:00;CYHM 110900Z CCA 20008KT 4SM BR BKN006 OVC017 07/06 A2986 RMK SF6SC2 SLP116

CYHM;2009-02-11 10:00;CYHM 111000Z 19007KT 4SM BR OVC006 06/06 A2985 RMK SF8 SLP114

CYHM;2009-02-11 10:50;CYHM 111050Z 19007KT 1 1/4SM BR OVC003 RMK FG2SF6

CYHM;2009-02-11 11:00;CYHM 111100Z 19007KT 1 1/4SM BR OVC003 06/06 A2983 RMK FG2SF6 SLP107

CYHM;2009-02-11 11:26;CYHM 111126Z 21004KT 1SM BR BKN005 OVC026 RMK FG2SF4SC2

CYHM;2009-02-11 11:51;CYHM 111151Z 23006KT 1/2SM FG OVC002 RMK FG5SF3

CYHM;2009-02-11 12:00;CYHM 111200Z 22006KT 1/8SM FG VV001 06/06 A2981 RMK FG8 SLP098

CYHM;2009-02-11 13:00;CYHM 111300Z 21010KT 1/8SM FG VV001 07/07 A2979 RMK FG8 SLP093

CYHM;2009-02-11 14:00;CYHM 111400Z 19013KT 1/8SM FG VV001 08/08 A2978 RMK FG8 SLP089

CYHM;2009-02-11 14:23;CYHM 111423Z 20010KT 1/8SM SHRA FG VV002 RMK FG8

CYHM;2009-02-11 14:30;CYHM 111430Z 20008KT 1/4SM -SHRA FG OVC002 RMK FG5SF3

CYHM;2009-02-11 15:00;CYHM 111500Z 21010KT 1/2SM -SHRA FG OVC002 08/08 A2975 RMK FG3SF5 VIS VRBL 1/4-3/4SM SLP080

CYHM;2009-02-11 16:00;CYHM 111600Z 20010KT 1/2SM -SHRA FG OVC002 08/08 A2973 RMK FG4SF4 VIS VRBL 1/4-3/4SM SLP073

CYHM;2009-02-11 16:06;CYHM 111606Z 20009KT 1/4SM -SHRA FG OVC002 RMK FG6SF2

CYHM;2009-02-11 16:18;CYHM 111618Z 20010KT 1/2SM -SHRA FG OVC002 RMK FG4SF4

CYHM;2009-02-11 16:30;CYHM 111630Z CCA 20012KT 1SM -SHRA BR OVC003 RMK FG2SF6 VIS VRBL 3/4-11/4SM

CYHM;2009-02-11 17:00;CYHM 111700Z 19010KT 1/2SM -SHRA FG OVC002 08/08 A2968 RMK FG4SF4 SLP056

CYHM;2009-02-11 18:00;CYHM 111800Z 18010KT 1/2SM -SHRA FG OVC002 09/09 A2962 RMK FG3SF5 VIS VRB 1/4-3/4SM SLP035

CYHM;2009-02-11 18:24;CYHM 111824Z 20010KT 1SM -SHRA BR OVC003 RMK FG2SF6

CYHM;2009-02-11 18:26;CYHM 111826Z 20010KT 1SM -SHRA BR OVC003 RMK FG2SF6

CYHM;2009-02-11 19:00;CYHM 111900Z 21012KT 1 1/2SM -SHRA BR BKN006 OVC012 09/09 A2959 RMK FG2SF4SC2 SLP026

CYHM;2009-02-11 19:52;CYHM 111952Z 20012KT 2SM -SHRA BR OVC004 RMK FG2SF6

CYHM;2009-02-11 20:00;CYHM 112000Z 19008KT 2SM -SHRA BR BKN004 OVC024 09/09 A2956 RMK FG1SF5SC2 SLP015

CYHM;2009-02-11 20:39;CYHM 112039Z 17006KT 1/2SM -SHRA FG OVC002 RMK FG3SF5

CYHM;2009-02-11 20:45;CYHM 112045Z 12008KT 1/8SM -SHRA FG VV001 RMK FG8

CYHM;2009-02-11 21:00;CYHM 112100Z 12006KT 0SM -SHRA FG VV001 08/08 A2951 RMK FG8 SLP997

CYHM;2009-02-11 21:52;CYHM 112152Z 13006KT 1/4SM -SHRA FG BKN006 OVC031 RMK FG3SF2SC2

CYHM;2009-02-11 22:00;CYHM 112200Z 12006KT 1/2SM -SHRA FG SCT005 BKN030 OVC040 08/08 A2947 RMK FG2SF2SC2SC2 SLP985

CYHM;2009-02-11 22:23;CYHM 112223Z 12005KT 1SM BR SCT005 OVC045 RMK FG2SF2SC4

CYHM;2009-02-11 23:00;CYHM 112300Z 09008KT 1 1/2SM BR SCT010 BKN043 OVC130 07/07 A2941 RMK FG2SF2SC3AC1 SLP965

CYHM;2009-02-12 00:00;CYHM 120000Z 04008KT 1/4SM FG OVC038 07/07 A2936 RMK FG4SC4 SLP949

CYHM;2009-02-12 00:11;CYHM 120011Z 03005KT 1 1/2SM -RA BR FEW022 OVC039 RMK FG2SC1SC6 VIS VRB 1 - 2

CYHM;2009-02-12 00:33;CYHM 120033Z 06007KT 1/4SM +RA FG OVC022 RMK FG4SC4

CYHM;2009-02-12 00:44;CYHM 120044Z 06007KT 1SM -RA BR OVC033 RERA RMK FG2SC6 VIS VRB 3/4 - 11/4

CYHM;2009-02-12 01:00;CYHM 120100Z 06006KT 1 1/2SM RA BR OVC021 07/07 A2933 RMK FG2SC6 VIS VRB 1 - 2 SLP936

CYHM;2009-02-12 01:18;CYHM 120118Z 10009KT 3/4SM +RA BR OVC022 RMK RA3SC5 VIS VRB 1/2 - 1

CYHM;2009-02-12 02:00;CYHM 120200Z 12007KT 1SM +RA BR OVC041 06/06 A2928 RMK RA2SC6 VIS VRB 3/4 - 11/4 SLP921

CYHM;2009-02-12 03:00;CYHM 120300Z 16014G24KT 6SM -RA BR FEW007 SCT030 OVC080 10/10 A2923 RERA RMK CF2SC2AC4 WARM FROPA PRESFR SLP901

CYHM;2009-02-12 04:00;CYHM 120400Z 20013G18KT 8SM -RA SCT007 BKN026 OVC042 08/08 A2920 RMK CF3SC2SC2 SLP890

CYHM;2009-02-12 05:00;CYHM 120500Z 20016KT 12SM -RA FEW007 OVC039 08/08 A2917 RMK CF2SC6 SLP881

CYHM;2009-02-12 06:00;CYHM 120600Z CCA 21017G30KT 15SM OVC033 07/05 A2915 RMK SC8 /R20/ SLP875

CYHM;2009-02-12 07:00;CYHM 120700Z 22016G21KT 15SM OVC030 07/05 A2913 RMK SC8 SLP869

CYHM;2009-02-12 07:16;CYHM 120716Z 23017G22KT 7SM -RA OVC018 RMK SC8

CYHM;2009-02-12 07:32;CYHM 120732Z 23016G21KT 8SM -RA OVC010 RMK SC8 CIG RAG

CYHM;2009-02-12 08:00;CYHM 120800Z 22016G21KT 6SM -RA OVC008 06/06 A2911 RMK SC8 SLP862

CYHM;2009-02-12 09:00;CYHM 120900Z 23013G18KT 10SM -RA OVC008 06/06 A2910 RMK SC8 SLP858

CYHM;2009-02-12 09:31;CYHM 120931Z 25022G30KT 8SM -RA OVC015 RERA RMK SC8 PK GST 41 PST HR

CYHM;2009-02-12 09:50;CYHM 120950Z 25024G35KT 8SM -RAPL OVC012 RERA RMK SC8

CYHM;2009-02-12 10:00;CYHM 121000Z 26030G44KT 7SM -RAPL OVC015 02/01 A2913 RERA RMK SC8 SLP869

CYHM;2009-02-12 11:00;CYHM 121100Z 27032G45KT 10SM -RA OVC017 02/01 A2922 RMK SC8 PRESRR SLP899

CYHM;2009-02-12 12:00;CYHM 121200Z 28032G42KT 15SM -RA FEW010 BKN015 OVC019 03/01 A2930 RMK SF2SC3SC2 SLP927

CYHM;2009-02-12 13:00;CYHM 121300Z 27036G44KT 15SM -RA BKN017 OVC023 02/01 A2938 RMK SC6SC2 SLP953

CYHM;2009-02-12 14:00;CYHM 121400Z 27035G40KT 15SM -RA BKN017 OVC022 03/01 A2944 RMK SC6SC2 SLP974

CYHM;2009-02-12 14:42;CYHM 121442Z 29028G34KT 15SM BKN018 OVC023 RMK SC6SC2 RERA

CYHM;2009-02-12 15:00;CYHM 121500Z 27028G34KT 15SM BKN018 OVC029 03/01 A2949 RMK SC6SC2 SLP992

CYHM;2009-02-12 16:00;CYHM 121600Z 28030G42KT 15SM BKN016 OVC023 03/01 A2955 RMK SC6SC2 SLP010

CYHM;2009-02-12 17:00;CYHM 121700Z 29022G32KT 15SM BKN017 BKN022 OVC032 03/01 A2958 RMK SC6SC2SC1 SLP022

CYHM;2009-02-12 18:00;CYHM 121800Z 27022G30KT 15SM BKN018 OVC023 03/01 A2961 RMK SC6SC2 SLP032

CYHM;2009-02-12 19:00;CYHM 121900Z 27022G28KT 15SM BKN018 OVC023 03/00 A2963 RMK SC6SC2 SLP040

CYHM;2009-02-12 19:44;CYHM 121944Z 28020G31KT 15SM -SHRA BKN018 OVC024 RMK SC6SC2

CYHM;2009-02-12 20:00;CYHM 122000Z 27018G33KT 15SM -SHRA BKN018 OVC025 03/00 A2965 RMK SC6SC2 PCPN VRY LGT SLP048

CYHM;2009-02-12 21:00;CYHM 122100Z 26022G31KT 15SM -SHRA BKN016 OVC023 02/M00 A2970 RMK SC6SC2 PCPN VRY LGT SLP064

CYHM;2009-02-12 22:00;CYHM 122200Z 26015G25KT 15SM -SHRA BKN015 OVC022 02/M00 A2973 RMK SC6SC2 SLP075

CYHM;2009-02-12 23:00;CYHM 122300Z 26018G24KT 12SM -SHRA BKN015 OVC022 02/M00 A2976 RMK SC6SC2 PCPN VRY LGT SLP085

CYHM;2009-02-12 23:43;CYHM 122343Z 26021G26KT 15SM OVC015 RMK SC8

CYHM;2009-02-13 00:00;CYHM 130000Z 26018KT 15SM OVC016 02/M00 A2978 RMK SC8 SLP092

CYHM;2009-02-13 01:00;CYHM 130100Z 26016KT 15SM OVC016 02/M00 A2979 RMK SC8 SLP096

CYHM;2009-02-13 02:00;CYHM 130200Z 26018KT 15SM OVC016 02/M01 A2981 RMK SC8 SLP102

CYHM;2009-02-13 03:00;CYHM 130300Z 27015G20KT 15SM OVC015 02/M00 A2983 RMK SC8 SLP108

CYHM;2009-02-13 04:00;CYHM 130400Z 26014KT 10SM OVC013 01/M00 A2984 RMK SC8 SLP114

CYHM;2009-02-13 05:00;CYHM 130500Z 26014KT 10SM OVC012 01/M00 A2986 RMK SC8 SLP118

CYHM;2009-02-13 05:32;CYHM 130532Z 27014KT 10SM -SHSN BKN012 OVC026 RMK SC6SC2

CYHM;2009-02-13 06:00;CYHM 130600Z 28009KT 10SM -SHSN BKN010 OVC026 01/M00 A2987 RMK SC6SC2 SLP124

CYHM;2009-02-13 07:00;CYHM 130700Z 28006KT 15SM -SHSN BKN010 OVC032 01/M00 A2989 RMK SC5SC3 SLP130

CYHM;2009-02-13 08:00;CYHM 130800Z 31006KT 15SM -SHSN FEW010 BKN027 OVC043 01/M01 A2991 RMK SC2SC5SC2 SLP137

CYHM;2009-02-13 09:00;CYHM 130900Z 31005KT 15SM -SHSN FEW015 OVC037 M00/M02 A2993 RMK SC1SC7 SLP144

CYHM;2009-02-13 10:00;CYHM 131000Z 32008KT 15SM -SHSN SCT014 OVC037 M01/M03 A2995 RMK SC3SC5 SLP152

CYHM;2009-02-13 11:00;CYHM 131100Z 01003KT 12SM -SHSN FEW016 OVC051 M02/M04 A2998 RMK SC2SC6 SLP160

CYHM;2009-02-13 11:53;CYHM 131153Z 35007KT 15SM SCT020 BKN090 BKN160 RMK SC4AC2AC1

CYHM;2009-02-13 12:00;CYHM 131200Z 35008KT 15SM SCT022 BKN090 BKN160 M02/M05 A3000 RMK SC4AC2AC1 SLP169

CYHM;2009-02-13 13:00;CYHM 131300Z 35005KT 15SM FEW025 BKN063 OVC075 M03/M06 A3002 RMK SC2SC4AC2 SLP175

CYHM;2009-02-13 14:00;CYHM 131400Z 34008KT 15SM FEW020 FEW035 BKN068 BKN080 M03/M08 A3005 RMK CU1SC2AC4AC2 CU TR SLP185

CYHM;2009-02-13 15:00;CYHM 131500Z 04006KT 15SM FEW030 BKN094 M03/M08 A3006 RMK SC2AC6 TR CU ASOCTD SLP189

CYHM;2009-02-13 16:00;CYHM 131600Z 35006KT 15SM FEW030 BKN098 M03/M09 A3007 RMK SC2AC6 SLP193

CYHM;2009-02-13 17:00;CYHM 131700Z 34002KT 15SM FEW025 SCT062 BKN094 M03/M09 A3007 RMK CU1SC3AC3 CU TR SLP195

CYHM;2009-02-13 18:00;CYHM 131800Z 02004KT 15SM FEW025 FEW075 FEW150 M02/M12 A3007 RMK CU1AC1AC1 CU TR SLP194

CYHM;2009-02-13 19:00;CYHM 131900Z 28008KT 15SM FEW025 FEW090 SCT220 M00/M09 A3008 RMK CU1AC1CI1 CU TR SLP198

CYHM;2009-02-13 20:00;CYHM 132000Z 27007KT 15SM FEW030 FEW085 M00/M09 A3009 RMK CU1AC1 SLP200

CYHM;2009-02-13 21:00;CYHM 132100Z 28008KT 15SM FEW030 FEW100 M00/M09 A3009 RMK CU1AC1 TR CU SLP201

CYHM;2009-02-13 22:00;CYHM 132200Z 31006KT 15SM FEW035 FEW100 M01/M08 A3009 RMK CU1AC1 SLP199

CYHM;2009-02-13 23:00;CYHM 132300Z 32005KT 15SM FEW030 FEW090 M02/M09 A3010 RMK CU1AC1 SLP203

CYHM;2009-02-14 00:00;CYHM 140000Z 33007KT 15SM FEW090 FEW200 M03/M10 A3010 RMK AC1CI1 TR AC SLP205

CYHM;2009-02-14 01:00;CYHM 140100Z 33007KT 15SM FEW200 M04/M10 A3010 RMK CI1 SLP203

CYHM;2009-02-14 02:00;CYHM 140200Z 33006KT 15SM FEW200 M05/M09 A3010 RMK CI1 SLP205

CYHM;2009-02-14 03:00;CYHM 140300Z 33007KT 15SM FEW200 M05/M10 A3010 RMK CI1 SLP206

CYHM;2009-02-14 04:00;CYHM 140400Z 33005KT 15SM SKC M06/M10 A3010 RMK SLP206

CYHM;2009-02-14 05:00;CYHM 140500Z 34005KT 15SM SKC M06/M11 A3009 RMK SLP203

CYHM;2009-02-14 06:00;CYHM 140600Z 35006KT 15SM FEW200 M07/M11 A3010 RMK CI1 SLP207

CYHM;2009-02-14 07:00;CYHM 140700Z 36002KT 15SM BKN210 M07/M11 A3010 RMK CI4 SLP206

CYHM;2009-02-14 08:00;CYHM 140800Z 00000KT 15SM BKN200 M07/M11 A3010 RMK CI5 SLP207

CYHM;2009-02-14 09:00;CYHM 140900Z 00000KT 15SM FEW140 BKN200 M07/M10 A3007 RMK AC1CS3 HALO SLP193

CYHM;2009-02-14 10:00;CYHM 141000Z 01004KT 15SM FEW130 SCT200 M07/M11 A3005 RMK AC1CI2 CS ASOCTD SLP187

CYHM;2009-02-14 11:00;CYHM 141100Z 02007KT 15SM OVC130 M07/M11 A3003 RMK AC7 SLP180

CYHM;2009-02-14 12:00;CYHM 141200Z 02007KT 15SM BKN090 BKN110 M07/M11 A3002 RMK AC5AC2 SLP179

CYHM;2009-02-14 13:00;CYHM 141300Z 04007KT 15SM BKN070 M07/M11 A3002 RMK AC7 SLP180

CYHM;2009-02-14 14:00;CYHM 141400Z 05005KT 15SM OVC070 M06/M11 A3002 RMK AS7 SLP180

CYHM;2009-02-14 15:00;CYHM 141500Z 06005KT 15SM FEW030 OVC070 M05/M11 A3002 RMK SC1AS6 SLP178

CYHM;2009-02-14 16:00;CYHM 141600Z 09003KT 15SM FEW030 SCT075 BKN085 BKN240 M05/M10 A3001 RMK SC1AC3AC2CI1 SLP177

CYHM;2009-02-14 17:00;CYHM 141700Z 15002KT 15SM FEW030 SCT067 BKN240 M04/M10 A3001 RMK SC2AC2CI2 SLP174

CYHM;2009-02-14 18:00;CYHM 141800Z 28002KT 15SM FEW030 SCT070 OVC083 M03/M10 A2999 RMK SC2AC2AS4 SUN DIMLY VISBL SLP168

CYHM;2009-02-14 19:00;CYHM 141900Z 29007KT 15SM FEW030 BKN052 OVC070 M03/M08 A2998 RMK SC2SC4AC2 SLP165

CYHM;2009-02-14 20:00;CYHM 142000Z 27007KT 15SM FEW030 BKN045 OVC070 M02/M08 A2997 RMK SC2SC3AS2 SUN DIMLY VISBL SLP164

CYHM;2009-02-14 21:00;CYHM 142100Z 30005KT 3SM -SHSN FEW018 OVC025 M03/M07 A2998 RMK SC2SC6 SLP165

CYHM;2009-02-14 22:00;CYHM 142200Z 30005KT 12SM -SHSN FEW025 BKN045 OVC070 M03/M07 A2999 RMK CF2SC3AS2 PCPN VRY LGT SUN DIMLY VISBL SLP169

CYHM;2009-02-14 22:20;CYHM 142220Z 28006KT 12SM FEW025 BKN064 OVC070 RMK CF2SC3AS2 SUN DIMLY VISBL

CYHM;2009-02-14 23:00;CYHM 142300Z 29005KT 12SM FEW025 FEW030 SCT080 BKN230 M03/M07 A3001 RMK CF1SC2AC2CI2 SLP173

CYHM;2009-02-15 00:00;CYHM 150000Z 28004KT 15SM FEW030 BKN085 BKN120 BKN210 M04/M07 A3003 RMK SC2AC3AC2CI1 SLP181

CYHM;2009-02-15 01:00;CYHM 150100Z 29005KT 15SM BKN085 BKN190 M04/M08 A3004 RMK AC5AC2 SLP187

CYHM;2009-02-15 02:00;CYHM 150200Z 29007KT 15SM BKN092 BKN210 M04/M08 A3006 RMK AC5CI2 SLP193

CYHM;2009-02-15 03:00;CYHM 150300Z 29004KT 15SM FEW090 FEW210 M05/M09 A3008 RMK AC2CI1 SLP200

CYHM;2009-02-15 04:00;CYHM 150400Z 30005KT 15SM SCT200 M05/M09 A3009 RMK CI2 SLP204

CYHM;2009-02-15 05:00;CYHM 150500Z 30005KT 15SM FEW200 M07/M09 A3011 RMK CI2 SLP210

CYHM;2009-02-15 06:00;CYHM 150600Z 32005KT 15SM FEW200 M07/M10 A3012 RMK CI2 SLP212

CYHM;2009-02-15 07:00;CYHM 150700Z 29004KT 15SM FEW210 M07/M10 A3012 RMK CI1 SLP214

CYHM;2009-02-15 08:00;CYHM 150800Z 29005KT 15SM FEW210 M08/M10 A3012 RMK CI1 SLP214

CYHM;2009-02-15 09:00;CYHM 150900Z 28005KT 15SM SKC M08/M10 A3013 RMK SLP217

CYHM;2009-02-15 10:00;CYHM 151000Z 30005KT 15SM SKC M08/M11 A3013 RMK FROIN SLP217

CYHM;2009-02-15 11:00;CYHM 151100Z 28003KT 15SM FEW200 M09/M11 A3015 RMK CI1 FROIN SLP222

CYHM;2009-02-15 12:00;CYHM 151200Z 25003KT 15SM FEW200 M09/M10 A3017 RMK CI1 SLP229

CYHM;2009-02-15 13:00;CYHM 151300Z 25003KT 15SM FEW080 FEW220 M08/M10 A3019 RMK AC1CI1 SLP236

CYHM;2009-02-15 14:00;CYHM 151400Z 27005KT 15SM FEW080 M06/M09 A3020 RMK AC1 SLP239

CYHM;2009-02-15 15:00;CYHM 151500Z 29003KT 15SM FEW040 M04/M08 A3020 RMK SC1 SLP241

CYHM;2009-02-15 16:00;CYHM 151600Z 28004KT 220V010 15SM FEW040 M03/M08 A3020 RMK SC1 SLP239

CYHM;2009-02-15 17:00;CYHM 151700Z 25005KT 15SM FEW045 M01/M08 A3018 RMK SC1 SLP235

CYHM;2009-02-15 18:00;CYHM 151800Z 28006KT 15SM FEW045 M00/M10 A3016 RMK SC1 SLP224

CYHM;2009-02-15 19:00;CYHM 151900Z 26009KT 15SM FEW045 M00/M09 A3014 RMK SC2 SLP219

CYHM;2009-02-15 20:00;CYHM 152000Z 26008KT 15SM BKN047 01/M09 A3015 RMK SC5 SLP221

CYHM;2009-02-15 21:00;CYHM 152100Z 25006KT 15SM BKN047 01/M09 A3016 RMK SC6 SLP224

CYHM;2009-02-15 22:00;CYHM 152200Z 28006KT 15SM SCT045 SCT240 M01/M09 A3016 RMK SC3CI1 SLP226

CYHM;2009-02-15 23:00;CYHM 152300Z 28004KT 15SM FEW045 BKN086 BKN210 M02/M08 A3018 RMK SC1AC5CI1 SLP231

CYHM;2009-02-16 00:00;CYHM 160000Z 28003KT 15SM BKN082 M02/M08 A3019 RMK AC6 SLP237

CYHM;2009-02-16 01:00;CYHM 160100Z 31005KT 15SM BKN082 M02/M08 A3019 RMK AC7 SLP236

CYHM;2009-02-16 03:00;CYHM 160300Z 33006KT 15SM BKN084 M02/M10 A3019 RMK AC7 SLP236

CYHM;2009-02-16 04:00;CYHM 160400Z 04005KT 15SM OVC084 M03/M08 A3020 RMK AC8 SLP238

CYHM;2009-02-16 06:00;CYHM 160600Z 35005KT 15SM OVC085 M04/M09 A3021 RMK AC8 SLP243

CYHM;2009-02-16 07:00;CYHM 160700Z 35005KT 15SM BKN089 M04/M10 A3023 RMK AC7 SLP247

CYHM;2009-02-16 08:00;CYHM 160800Z 34004KT 15SM BKN088 M05/M10 A3023 RMK AC7 SLP247

CYHM;2009-02-16 09:00;CYHM 160900Z 33004KT 15SM BKN091 M05/M09 A3023 RMK AC6 SLP249

CYHM;2009-02-16 10:00;CYHM 161000Z 33005KT 15SM BKN092 M06/M10 A3024 RMK AC7 SLP252

CYHM;2009-02-16 11:00;CYHM 161100Z 32002KT 15SM BKN088 M07/M10 A3025 RMK AC6 SLP256

CYHM;2009-02-16 12:00;CYHM 161200Z 33002KT 15SM SCT085 M07/M10 A3026 RMK AC3 SLP259

CYHM;2009-02-16 13:00;CYHM 161300Z 00000KT 15SM FEW100 FEW240 M07/M09 A3027 RMK AC1CI1 CONTRAIL SLP264

CYHM;2009-02-16 14:00;CYHM 161400Z 35006KT 15SM FEW025 SCT240 M05/M09 A3028 RMK CU1CI2 CU TR SLP268

CYHM;2009-02-16 15:00;CYHM 161500Z 01006KT 15SM FEW025 SCT240 M03/M10 A3029 RMK CU1CI2 CU TR SLP269

CYHM;2009-02-16 16:00;CYHM 161600Z 35005KT 15SM FEW030 SCT240 M02/M10 A3030 RMK CU1CI2 CONTRAIL SLP272

CYHM;2009-02-16 17:00;CYHM 161700Z 33007KT 15SM FEW041 BKN240 M01/M10 A3030 RMK CU2CI2 SC ASOCTD CONTRAIL SLP274

CYHM;2009-02-16 18:00;CYHM 161800Z CCA 02002KT 15SM FEW036 BKN041 BKN240 M01/M10 A3029 RMK CU2SC3CI1 CONTRAIL SLP270

CYHM;2009-02-16 19:00;CYHM 161900Z 32008KT 15SM FEW035 SCT042 BKN220 M01/M09 A3029 RMK CU2SC2CI2 SLP268

CYHM;2009-02-16 20:00;CYHM 162000Z 31010KT 15SM FEW044 SCT250 M00/M10 A3030 RMK CU2CI1 CONTRAILS SLP272

CYHM;2009-02-16 21:00;CYHM 162100Z 27010KT 15SM FEW045 SCT250 00/M10 A3030 RMK CU2CI1 CONTRAILS SLP271

CYHM;2009-02-16 22:00;CYHM 162200Z 29008KT 15SM FEW044 FEW140 FEW250 M01/M10 A3029 RMK CU1AC1CI1 AC TR CI TR CONTRAILS SLP270

CYHM;2009-02-16 23:00;CYHM 162300Z 28005KT 15SM FEW042 FEW250 M02/M10 A3030 RMK SC1CI1 CI TR SLP272

CYHM;2009-02-17 00:00;CYHM 170000Z 29003KT 15SM FEW042 FEW250 M04/M09 A3030 RMK SC1CI1 CI TR SLP274

CYHM;2009-02-17 01:00;CYHM 170100Z 29005KT 15SM FEW040 FEW250 M04/M09 A3029 RMK SC1CI1 SC TR CI TR SLP272

CYHM;2009-02-17 02:00;CYHM 170200Z 28005KT 15SM FEW040 FEW250 M04/M08 A3029 RMK SC1CI1 SC TR CI TR SLP272

CYHM;2009-02-17 03:00;CYHM 170300Z 28004KT 15SM FEW250 M05/M07 A3029 RMK CI1 CI TR SLP271

CYHM;2009-02-17 04:00;CYHM 170400Z 27003KT 15SM FEW250 M05/M07 A3030 RMK CI1 CI TR SLP273

CYHM;2009-02-17 05:00;CYHM 170500Z 24003KT 15SM FEW250 M06/M09 A3029 RMK CI1 CI TR SLP271

CYHM;2009-02-17 06:00;CYHM 170600Z 24002KT 15SM SKC M07/M09 A3030 RMK SLP272

CYHM;2009-02-17 07:00;CYHM 170700Z 24002KT 15SM SKC M07/M09 A3028 RMK SLP267

CYHM;2009-02-17 08:00;CYHM 170800Z 20003KT 15SM FEW250 M08/M09 A3027 RMK CI1 CI TR SLP264

CYHM;2009-02-17 09:00;CYHM 170900Z 20004KT 15SM FEW250 M08/M09 A3027 RMK CI1 SLP265

CYHM;2009-02-17 10:00;CYHM 171000Z 20003KT 15SM FEW250 M08/M09 A3026 RMK CI1 CI TR SLP262

CYHM;2009-02-17 11:00;CYHM 171100Z 19004KT 15SM FEW250 M08/M09 A3025 RMK CI1 SLP258

CYHM;2009-02-17 12:00;CYHM 171200Z 21005KT 15SM BKN180 BKN220 M07/M09 A3025 RMK AC5CI2 SLP258

CYHM;2009-02-17 13:00;CYHM 171300Z 21006KT 15SM FEW180 BKN240 M07/M08 A3024 RMK AC1CI3 SLP255

CYHM;2009-02-17 14:00;CYHM 171400Z 21010KT 15SM BKN240 M04/M06 A3023 RMK CI3 SLP252

CYHM;2009-02-17 15:00;CYHM 171500Z 22013KT 15SM FEW025 BKN240 M02/M05 A3022 RMK CU1CI2 SLP246

CYHM;2009-02-17 16:00;CYHM 171600Z 22012KT 15SM FEW017 SCT130 BKN240 M01/M05 A3021 RMK CU2AC1CI1 SLP242

CYHM;2009-02-17 17:00;CYHM 171700Z 21012KT 15SM FEW018 BKN030 BKN240 M00/M06 A3018 RMK CU2SC3CI2 SLP233

CYHM;2009-02-17 18:00;CYHM 171800Z 22015KT 15SM FEW022 BKN034 BKN084 BKN220 01/M07 A3014 RMK CU2SC3AC1CI1 SLP219

CYHM;2009-02-17 19:00;CYHM 171900Z 20014KT 15SM FEW025 FEW035 BKN130 BKN210 M01/M07 A3010 RMK CU2SC1AS3CI1 SLP207

CYHM;2009-02-17 20:00;CYHM 172000Z 22013KT 15SM FEW028 BKN090 OVC240 M01/M07 A3009 RMK CU1AS6CS1 SUN DMLY VSBL SLP202

CYHM;2009-02-17 21:00;CYHM 172100Z 20013KT 15SM FEW026 FEW080 BKN130 BKN220 M00/M07 A3007 RMK CU1AS2AS3CS1 SUN DMLY VSBL SLP196

CYHM;2009-02-17 22:00;CYHM 172200Z 22010KT 15SM FEW024 FEW100 SCT150 BKN250 M01/M08 A3005 RMK CU1AS2AC2CI1 SUN DMLY VSBL CU TR SLP189

CYHM;2009-02-17 23:00;CYHM 172300Z 20004KT 15SM BKN100 BKN160 M01/M07 A3004 RMK AC5AC2 SLP184

CYHM;2009-02-18 00:00;CYHM 180000Z 15005KT 15SM BKN095 BKN150 M02/M07 A3002 RMK AC5AC1 SLP179

CYHM;2009-02-18 01:00;CYHM 180100Z 14004KT 15SM SCT096 SCT140 M04/M07 A3000 RMK AC2AC0 SLP173

CYHM;2009-02-18 02:00;CYHM 180200Z 11006KT 15SM FEW096 FEW250 M05/M08 A2999 RMK AC1CI1 AC TR SLP168

CYHM;2009-02-18 03:00;CYHM 180300Z 10006KT 15SM FEW120 M05/M08 A2996 RMK AC1 SLP157

CYHM;2009-02-18 04:00;CYHM 180400Z 12005KT 15SM FEW250 M05/M08 A2992 RMK CI1 SLP145

CYHM;2009-02-18 05:00;CYHM 180500Z 15008KT 15SM FEW250 M04/M08 A2988 RMK CI1 SLP132

CYHM;2009-02-18 06:00;CYHM 180600Z 15007KT 15SM BKN090 M03/M07 A2985 RMK AC6 SLP118

CYHM;2009-02-18 07:00;CYHM 180700Z 15007KT 15SM FEW098 BKN150 M03/M08 A2981 RMK AC1AC2 SLP107

CYHM;2009-02-18 08:00;CYHM 180800Z 15008KT 15SM BKN090 BKN140 M02/M08 A2976 RMK AC5AC2 SLP088

CYHM;2009-02-18 09:00;CYHM 180900Z 15011KT 15SM FEW025 BKN078 OVC140 M02/M08 A2973 RMK SC1AC6AC2 SLP078

CYHM;2009-02-18 10:00;CYHM 181000Z 16008KT 10SM -SN OVC056 M02/M07 A2969 RMK SC8 SLP066

CYHM;2009-02-18 11:00;CYHM 181100Z 13009KT 15SM -SN FEW040 OVC055 M01/M07 A2964 RMK SC2SC6 SLP048

CYHM;2009-02-18 12:00;CYHM 181200Z 16012KT 15SM -SN BKN046 OVC063 M01/M07 A2962 RMK SC5SC3 SLP041

CYHM;2009-02-18 13:00;CYHM 181300Z 17010KT 1 1/2SM -SN BKN009 OVC023 M00/M06 A2960 RMK SN1SF6SC2 SLP033

CYHM;2009-02-18 13:05;CYHM 181305Z 17015KT 5SM -SN FEW010 BKN024 OVC027 RMK SF2SC4SC2

CYHM;2009-02-18 14:00;CYHM 181400Z 15008KT 1 1/2SM -SN BKN012 OVC019 M01/M02 A2955 RMK SN1SF6SC2 SLP017

CYHM;2009-02-18 15:00;CYHM 181500Z 15012KT 5SM -SN SCT010 OVC017 M00/M02 A2951 RMK SF3SC5 SLP003

CYHM;2009-02-18 15:24;CYHM 181524Z 15012KT 2SM -SN BKN006 OVC015 RMK SN1SF6SC2

CYHM;2009-02-18 16:00;CYHM 181600Z 15013KT 2SM -SN OVC008 M00/M01 A2946 RMK SF8 SLP988

CYHM;2009-02-18 16:41;CYHM 181641Z 15010KT 4SM -SN OVC005 RMK SF8

CYHM;2009-02-18 17:00;CYHM 181700Z 15010KT 3SM -SN OVC005 00/M00 A2943 RMK SF8 SLP977

CYHM;2009-02-18 18:00;CYHM 181800Z 14007KT 2SM -SN BR OVC005 00/M00 A2938 RMK SF8 SLP958

CYHM;2009-02-18 19:00;CYHM 181900Z 15010KT 6SM -SN BR BKN005 OVC010 01/01 A2933 RMK SF6SC2 SLP943

CYHM;2009-02-18 19:07;CYHM 181907Z 15006KT 2 1/2SM -SHRA BR SCT004 OVC008 RMK SF3SC5

CYHM;2009-02-18 20:00;CYHM 182000Z 14005KT 2SM -SHRA BR SCT003 OVC007 01/01 A2931 RMK SF3SC5 SLP935

CYHM;2009-02-18 21:00;CYHM 182100Z CCA 17007KT 1 3/4SM -SHRASN BR BKN006 OVC015 01/01 A2929 RMK SF6SC2 SLP929

CYHM;2009-02-18 22:00;CYHM 182200Z 12003KT 1 3/4SM -SHRA BR BKN004 OVC016 02/02 A2927 RMK SF5SC3 SLP922

CYHM;2009-02-18 22:50;CYHM 182250Z 07003KT 1 1/4SM -RA BR OVC003 RMK SF8

CYHM;2009-02-18 23:00;CYHM 182300Z 07003KT 1 1/4SM -RA BR OVC003 02/02 A2927 RMK SF8 SLP922

CYHM;2009-02-19 00:00;CYHM 190000Z 05003KT 1 1/4SM -RA BR OVC005 01/01 A2927 RMK FG4SF4 SLP921

CYHM;2009-02-19 01:00;CYHM 190100Z 00000KT 1/2SM -RA FG OVC006 01/01 A2927 RMK FG5SF3 SLP919

CYHM;2009-02-19 02:00;CYHM 190200Z 00000KT 3/8SM -RA FG OVC006 01/01 A2928 RMK FG5SF3 SLP922

CYHM;2009-02-19 03:00;CYHM 190300Z 24003KT 1/2SM -RA FG OVC007 01/01 A2928 RMK FG3SF5 SLP924

CYHM;2009-02-19 03:05;CYHM 190305Z 25005KT 1 1/2SM -RA BR SCT008 OVC064 RMK FG2SF2SC4 VIS VRB 1 - 2

CYHM;2009-02-19 03:25;CYHM 190325Z 25007KT 1 1/2SM -RA BR FEW003 OVC008 RMK FG2SF1SC6 VIS VRB 1 - 2

CYHM;2009-02-19 04:00;CYHM 190400Z 25009KT 4SM -RA BR FEW004 OVC008 01/01 A2929 RMK SF2SC6 SLP928

CYHM;2009-02-19 05:00;CYHM 190500Z 25012KT 6SM -RASN BR OVC007 01/01 A2931 RMK SF8 SLP934

CYHM;2009-02-19 06:00;CYHM 190600Z 26013KT 10SM -SN OVC014 01/M00 A2933 RMK SC8 SLP940

CYHM;2009-02-19 07:00;CYHM 190700Z 26013KT 10SM -SN OVC010 00/M01 A2935 RMK SC8 SLP946

CYHM;2009-02-19 07:21;CYHM 190721Z 27012G17KT 12SM -SN FEW013 BKN024 OVC043 RMK CF2SC6SC1

CYHM;2009-02-19 08:00;CYHM 190800Z 26012KT 10SM -SN OVC018 00/M02 A2935 RMK SC8 CIG RAG SLP946

CYHM;2009-02-19 09:00;CYHM 190900Z 29015KT 15SM -SN OVC016 M01/M03 A2936 RMK SC8 SLP950

CYHM;2009-02-19 10:00;CYHM 191000Z 28013G20KT 15SM -SN OVC019 M01/M04 A2937 RMK SC8 SLP954

CYHM;2009-02-19 11:00;CYHM 191100Z 27015G20KT 15SM -SN OVC022 M03/M06 A2938 RMK SC8 PCPN VRY LGT SLP958

CYHM;2009-02-19 12:00;CYHM 191200Z 27014G20KT 15SM -SN BKN017 OVC022 M04/M07 A2941 RMK SC6SC2 SLP968

CYHM;2009-02-19 12:45;CYHM 191245Z 27018G28KT 15SM OVC023 RMK SC8

CYHM;2009-02-19 13:00;CYHM 191300Z 27018G24KT 15SM OVC025 M06/M09 A2944 RMK SC8 SLP979

CYHM;2009-02-19 14:00;CYHM 191400Z 26018G26KT 15SM -SHSN BKN021 BKN110 M07/M10 A2947 RMK SC5AC2 SLP989

CYHM;2009-02-19 15:00;CYHM 191500Z 27020G26KT 15SM -SHSN SCT017 BKN026 BKN120 M07/M11 A2949 RMK SC3SC2AC2 SLP995

CYHM;2009-02-19 16:00;CYHM 191600Z 25020G25KT 10SM -SHSN BKN022 BKN032 M07/M11 A2951 RMK SC6SC2 SLP002

CYHM;2009-02-19 17:00;CYHM 191700Z 26014G20KT 15SM -SHSN SCT025 BKN047 BKN068 M07/M12 A2952 RMK SC3SC3AC1 SLP008

CYHM;2009-02-19 17:10;CYHM 191710Z 29022G32KT 2SM -SN BKN011 BKN017 OVC039 RMK SF5SC2SC1

CYHM;2009-02-19 17:25;CYHM 191725Z 28020G30KT 1 1/2SM -SN SCT008 BKN016 OVC024 RMK SN1SF2SC3SC2

CYHM;2009-02-19 17:28;CYHM 191728Z 27022G30KT 6SM -SN FEW010 BKN022 OVC046 RMK SF2SC3SC2

CYHM;2009-02-19 18:00;CYHM 191800Z 26022G30KT 15SM -SN SCT023 OVC045 M08/M13 A2955 RMK SC4SC4 SLP016

CYHM;2009-02-19 18:20;CYHM 191820Z 29022G28KT 2SM -SN BKN009 OVC022 RMK SF6SC2

CYHM;2009-02-19 18:32;CYHM 191832Z 28022G28KT 10SM -SN FEW010 BKN028 BKN037 RMK SF2SC4SC1

CYHM;2009-02-19 19:00;CYHM 191900Z 27024G30KT 4SM -SN BKN024 OVC036 M08/M12 A2956 RMK SC6SC2 SLP020

CYHM;2009-02-19 19:25;CYHM 191925Z 28020G28KT 2 1/2SM -SN SCT010 OVC024 RMK SC4SC4

CYHM;2009-02-19 19:30;CYHM 191930Z 28018G25KT 3/4SM -SN VV006 RMK SN8

CYHM;2009-02-19 19:44;CYHM 191944Z 27018G27KT 3SM -SN SCT007 BKN020 BKN044 RMK CF3SC2SC2

CYHM;2009-02-19 20:00;CYHM 192000Z 26020G25KT 4SM -SHSN SCT007 BKN020 BKN085 M08/M13 A2958 RMK CF3SC2AC2 SLP026

CYHM;2009-02-19 20:54;CYHM 192054Z 25020G28KT 1 1/2SM -SHSN DRSN VV012 RMK SN8

CYHM;2009-02-19 21:00;CYHM 192100Z 26019G26KT 2SM -SHSN DRSN SCT009 BKN015 M08/M11 A2959 RMK SN1CF2SC4 SLP032

CYHM;2009-02-19 21:12;CYHM 192112Z 26018G26KT 3SM -SHSN FEW009 BKN019 RMK CF2SC5

CYHM;2009-02-19 21:19;CYHM 192119Z 26018G24KT 1 3/4SM -SHSN SCT009 BKN019 RMK SN2CF2SC3

CYHM;2009-02-19 21:26;CYHM 192126Z 26019G27KT 1SM -SHSN VV009 RMK SN8

CYHM;2009-02-19 21:43;CYHM 192143Z 25018G24KT 2 1/2SM -SHSN SCT009 BKN020 RMK SN1CF2SC4 VIS VRB 13/4-4

CYHM;2009-02-19 22:00;CYHM 192200Z 26020G26KT 3SM -SHSN SCT010 BKN021 BKN038 M08/M12 A2961 RMK CF3SC2SC2 SLP037

CYHM;2009-02-19 23:00;CYHM 192300Z 26021G28KT 12SM FEW010 BKN031 BKN075 M07/M13 A2964 RMK CF2SC2AC1 SLP047

CYHM;2009-02-20 00:00;CYHM 200000Z CCA 26021G29KT 15SM FEW020 SCT032 SCT070 BKN100 M08/M12 A2966 RMK SC2SC2AC1AC1 /S01/ SLP057

CYHM;2009-02-20 00:55;CYHM 200055Z 25016KT 9SM -SHSN FEW010 BKN025 BKN100 RMK CF2SC3AC2

CYHM;2009-02-20 01:00;CYHM 200100Z 25016KT 8SM -SHSN FEW010 BKN024 BKN100 M08/M11 A2968 RMK CF2SC4AC1 SLP062

CYHM;2009-02-20 02:00;CYHM 200200Z 25018G24KT 8SM -SHSN FEW010 BKN024 BKN120 M08/M11 A2968 RMK CF1SC4AC2 SLP064

CYHM;2009-02-20 03:00;CYHM 200300Z 25017KT 15SM FEW012 FEW024 BKN110 M08/M11 A2968 RMK CF1SC2AC4 SLP066

CYHM;2009-02-20 03:08;CYHM 200308Z 24017G24KT 7SM -SHSN FEW012 SCT021 OVC110 RMK CF2SC2AC5

CYHM;2009-02-20 04:00;CYHM 200400Z CCA 25022G28KT 8SM -SHSN FEW014 BKN024 OVC110 M08/M11 A2969 RMK CF2SC6AC1 SLP067

CYHM;2009-02-20 05:00;CYHM 200500Z 25018G26KT 12SM -SHSN FEW015 BKN025 OVC100 M09/M12 A2968 RMK CF2SC5AC2 SLP066

CYHM;2009-02-20 06:00;CYHM 200600Z 24020G28KT 12SM -SHSN FEW022 BKN054 BKN110 M09/M12 A2969 RMK SC2SC3AC1 SLP069

CYHM;2009-02-20 07:00;CYHM 200700Z 26024G30KT 15SM -SHSN FEW022 SCT057 BKN110 M09/M12 A2969 RMK SC2SC2AC3 SLP068

CYHM;2009-02-20 08:00;CYHM 200800Z CCA 25024G32KT 15SM -SHSN FEW018 FEW055 BKN110 M09/M12 A2968 RMK SC2SC1AC4 SLP066

CYHM;2009-02-20 09:00;CYHM 200900Z 25022G29KT 15SM -SHSN FEW020 FEW055 BKN110 M09/M13 A2968 RMK SC2SC1AC5 PCPN VRY LGT SLP065

CYHM;2009-02-20 10:00;CYHM 201000Z 25022G29KT 15SM -SHSN SCT025 BKN063 BKN110 M08/M12 A2969 RMK SC3SC2AC2 SLP068

CYHM;2009-02-20 11:00;CYHM 201100Z 25017G22KT 15SM SCT022 BKN092 M08/M12 A2970 RMK SC4AC2 SLP071

CYHM;2009-02-20 12:00;CYHM 201200Z 26015G22KT 15SM FEW022 BKN120 M08/M12 A2971 RMK SC2AC3 SLP076

CYHM;2009-02-20 13:00;CYHM 201300Z 26018G24KT 15SM -SHSN SCT019 BKN025 BKN140 M08/M11 A2974 RMK SC3SC2AC1 SLP084

CYHM;2009-02-20 14:00;CYHM 201400Z 26018KT 15SM -SHSN FEW018 BKN024 BKN120 M07/M10 A2975 RMK CU2SC3AC1 SLP090

CYHM;2009-02-20 15:00;CYHM 201500Z 26020G25KT 15SM -SHSN SCT021 BKN027 BKN110 M06/M10 A2978 RMK SC4SC2AC2 SLP098

CYHM;2009-02-20 16:00;CYHM 201600Z 26024G29KT 15SM -SHSN BKN023 BKN034 M04/M09 A2979 RMK SC6SC2 SLP103

CYHM;2009-02-20 17:00;CYHM 201700Z 27022G28KT 15SM -SHSN FEW019 BKN027 BKN037 M04/M09 A2981 RMK SC1SC6SC1 SLP107

CYHM;2009-02-20 18:00;CYHM 201800Z 28024G29KT 15SM -SHSN SCT022 BKN032 M04/M08 A2982 RMK SC3SC3 TR CU ASOCTD SLP111

CYHM;2009-02-20 19:00;CYHM 201900Z 27025G30KT 15SM -SHSN BKN024 BKN036 M04/M08 A2983 RMK SC6SC2 SLP114

CYHM;2009-02-20 19:52;CYHM 201952Z 26020G26KT 2 1/2SM -SHSN BKN020 BKN030 RMK SN1SC4SC2

CYHM;2009-02-20 20:00;CYHM 202000Z 25019G24KT 3SM -SHSN BKN020 BKN032 M04/M08 A2984 RMK SC5SC2 SLP120

CYHM;2009-02-20 21:00;CYHM 202100Z 26017KT 3SM -SHSN SCT019 BKN028 M04/M08 A2986 RMK SC4SC3 SLP126

CYHM;2009-02-20 22:00;CYHM 202200Z 26017G25KT 12SM -SHSN SCT023 BKN034 M04/M08 A2990 RMK SC3SC3 PCPN VRY LGT SLP137

CYHM;2009-02-20 23:00;CYHM 202300Z 27016G23KT 15SM -SHSN FEW025 BKN035 M05/M10 A2992 RMK SC2SC2 PCPN VRY LGT SLP146

CYHM;2009-02-20 23:11;CYHM 202311Z 27017KT 15SM FEW025 SCT035 RMK SC2SC2

CYHM;2009-02-20 23:46;CYHM 202346Z 26015KT 15SM -SHSN FEW025 BKN033 RMK SC2SC3

CYHM;2009-02-21 00:00;CYHM 210000Z 25014KT 10SM -SHSN FEW025 BKN033 M05/M09 A2996 RMK SC2SC4 SLP158

CYHM;2009-02-21 01:00;CYHM 210100Z 25012KT 15SM -SHSN FEW026 BKN038 M05/M08 A2998 RMK SC2SC3 SLP166

CYHM;2009-02-21 01:27;CYHM 210127Z 25010KT 15SM SCT035 RMK SC3

CYHM;2009-02-21 02:00;CYHM 210200Z 24009KT 15SM FEW035 M06/M09 A3000 RMK SC2 SLP173

CYHM;2009-02-21 03:00;CYHM 210300Z 25007KT 15SM FEW036 M06/M09 A3002 RMK SC2 SLP179

CYHM;2009-02-21 04:00;CYHM 210400Z 26008KT 15SM -SHSN FEW037 M06/M08 A3003 RMK SC2 SLP183

CYHM;2009-02-21 05:00;CYHM 210500Z 25009KT 15SM -SHSN FEW041 M06/M07 A3004 RMK SC2 SLP185

CYHM;2009-02-21 06:00;CYHM 210600Z 25007KT 15SM -SHSN FEW037 FEW200 M05/M08 A3005 RMK SC2CI1 SLP190

CYHM;2009-02-21 07:00;CYHM 210700Z 25006KT 15SM FEW200 M07/M09 A3008 RMK CI2 SLP198

CYHM;2009-02-21 08:00;CYHM 210800Z 26005KT 15SM FEW200 M07/M09 A3009 RMK CI1 SLP203

CYHM;2009-02-21 09:00;CYHM 210900Z 25005KT 15SM FEW200 M08/M10 A3011 RMK CI1 SLP210

CYHM;2009-02-21 10:00;CYHM 211000Z 23005KT 15SM FEW210 M10/M12 A3013 RMK CI1 SLP216

CYHM;2009-02-21 11:00;CYHM 211100Z 23005KT 15SM FEW210 M09/M11 A3013 RMK CI1 FROIN SLP219

CYHM;2009-02-21 12:00;CYHM 211200Z 23003KT 15SM FEW030 FEW210 M10/M11 A3013 RMK SC1CI0 SLP220

CYHM;2009-02-21 13:00;CYHM 211300Z 00000KT 15SM FEW030 FEW230 M08/M10 A3016 RMK SC1CI0 SLP228

CYHM;2009-02-21 14:00;CYHM 211400Z 00000KT 15SM BKN240 M06/M09 A3015 RMK CI3 SLP224

CYHM;2009-02-21 15:00;CYHM 211500Z 18003KT 15SM FEW025 BKN220 M04/M07 A3015 RMK CU1CI4 SLP224

CYHM;2009-02-21 17:00;CYHM 211700Z 15010KT 15SM BKN023 OVC120 M02/M07 A3009 RMK SC5AC3 SLP202

CYHM;2009-02-21 18:00;CYHM 211800Z 14009KT 15SM BKN023 OVC087 M02/M08 A3007 RMK SC6AC2 SLP194

CYHM;2009-02-21 19:00;CYHM 211900Z 15011KT 15SM FEW024 OVC065 M02/M08 A3004 RMK SC2SC6 SLP185

CYHM;2009-02-21 20:00;CYHM 212000Z 12013KT 12SM FEW015 OVC035 M02/M08 A2999 RMK CF1SC8 VIRGA SLP170

CYHM;2009-02-21 20:22;CYHM 212022Z 11013KT 8SM -SHSN FEW015 OVC025 RMK CF1SC8 CF TR

CYHM;2009-02-21 20:50;CYHM 212050Z 11013KT 1 3/4SM -SN VV015 RMK SN8

CYHM;2009-02-21 21:00;CYHM 212100Z 12014KT 5/8SM -SN VV008 M02/M07 A2994 RMK SN8 SLP151

CYHM;2009-02-21 21:15;CYHM 212115Z 11014KT 3/8SM SN VV005 RMK SN8

CYHM;2009-02-21 21:32;CYHM 212132Z 11012KT 5/8SM -SN VV009 RMK SN8

CYHM;2009-02-21 21:41;CYHM 212141Z 11011KT 1SM -SN SCT007 OVC028 RMK SN2CF2SC4

CYHM;2009-02-21 22:00;CYHM 212200Z 11013KT 1 1/4SM -SN FEW006 VV012 M03/M04 A2992 RMK CF2SN6 /S02/ SLP145

CYHM;2009-02-21 22:50;CYHM 212250Z 09008KT 2SM -SN SCT007 BKN022 OVC050 RMK SN1CF2SC3SC2

CYHM;2009-02-21 23:00;CYHM 212300Z 09007KT 2SM -SN SCT007 BKN020 OVC047 M03/M04 A2991 RMK SN1CF2SC3SC2 SLP141

CYHM;2009-02-21 23:43;CYHM 212343Z 07008KT 5SM -SN SCT006 BKN018 OVC046 RMK CF3SC2SC3

CYHM;2009-02-22 00:00;CYHM 220000Z 08008KT 6SM -SHSN SCT006 BKN019 OVC046 M03/M04 A2989 RMK CF3SC2SC3 SLP135

CYHM;2009-02-22 01:00;CYHM 220100Z 09005KT 4SM -SHSN SCT006 BKN014 OVC030 M03/M03 A2987 RMK CF4SC2SC2 SLP129

CYHM;2009-02-22 02:00;CYHM 220200Z 10004KT 1 1/2SM -SN FEW006 VV010 M02/M03 A2985 RMK CF2SN6 SLP124

CYHM;2009-02-22 02:37;CYHM 220237Z 12006KT 1 1/4SM -SN VV007 RMK SN8

CYHM;2009-02-22 03:00;CYHM 220300Z 14007KT 1 1/4SM -SN VV007 M02/M03 A2983 RMK SN8 SLP114

CYHM;2009-02-22 03:26;CYHM 220326Z 19008KT 1SM -SN VV003 RMK SN8 VIS VRB 3/4 - 11/4

CYHM;2009-02-22 04:00;CYHM 220400Z 22011KT 1 1/2SM -SN BKN014 OVC030 M02/M02 A2983 RMK SN2SC5SC2 VIS VRB 1 - 2 /S02/ SLP113

CYHM;2009-02-22 04:21;CYHM 220421Z 22012KT 6SM -SN OVC015 RMK SC8

CYHM;2009-02-22 05:00;CYHM 220500Z 23022G29KT 12SM -SN DRSN FEW015 BKN031 OVC063 M03/M08 A2984 RMK CF2SC4SC2 SLP116

CYHM;2009-02-22 06:00;CYHM 220600Z 23015KT 15SM -SN DRSN BKN024 OVC120 M05/M09 A2984 RMK SC6AC2 SLP118

CYHM;2009-02-22 07:00;CYHM 220700Z 23022KT 12SM -SN DRSN OVC025 M04/M08 A2986 RMK SC8 SLP122

CYHM;2009-02-22 08:00;CYHM 220800Z 22020KT 12SM -SN DRSN OVC020 M05/M08 A2986 RMK SC8 SLP122

CYHM;2009-02-22 09:00;CYHM 220900Z 22020KT 12SM -SN DRSN OVC024 M05/M09 A2985 RMK SC8 SLP120

CYHM;2009-02-22 10:00;CYHM 221000Z 21017KT 12SM -SHSN DRSN BKN024 M05/M08 A2984 RMK SC6 SLP117

CYHM;2009-02-22 11:00;CYHM 221100Z 21017KT 4SM -SHSN DRSN BKN013 OVC030 M05/M07 A2984 RMK SC6SC2 SLP115

CYHM;2009-02-22 12:00;CYHM 221200Z 20015G20KT 4SM -SHSN DRSN FEW014 OVC023 M05/M07 A2983 RMK SC2SC6 SLP114

CYHM;2009-02-22 12:13;CYHM 221213Z 20018KT 2SM -SHSN DRSN SCT014 OVC028 RMK SN1SC2SC5

CYHM;2009-02-22 12:34;CYHM 221234Z 20016KT 3SM -SHSN DRSN FEW011 OVC024 RMK SC2SC6

CYHM;2009-02-22 13:00;CYHM 221300Z 21018KT 4SM -SHSN DRSN BKN013 OVC021 M04/M06 A2984 RMK SC5SC3 SLP118

CYHM;2009-02-22 13:40;CYHM 221340Z 21015KT 2SM -SHSN DRSN BKN013 OVC020 RMK SN1SC5SC2

CYHM;2009-02-22 14:00;CYHM 221400Z 21014KT 2 1/2SM -SHSN DRSN BKN013 OVC019 M04/M06 A2986 RMK SC5SC3 SLP122

CYHM;2009-02-22 14:17;CYHM 221417Z 22015KT 3SM -SHSN DRSN SCT014 BKN022 RMK SC4SC3

CYHM;2009-02-22 15:00;CYHM 221500Z 22019KT 6SM -SHSN DRSN SCT016 BKN022 M04/M07 A2986 RMK SC4SC3 CU ASOCTD SLP124

CYHM;2009-02-22 16:00;CYHM 221600Z 24020G26KT 15SM -SHSN DRSN SCT020 BKN028 M04/M09 A2989 RMK SC3SC4 CU ASOCTD PCPN VRY LGT SLP134

CYHM;2009-02-22 17:00;CYHM 221700Z 23015G22KT 10SM -SHSN DRSN FEW019 BKN026 M04/M08 A2992 RMK CU2SC5 SLP142

CYHM;2009-02-22 18:00;CYHM 221800Z 24018KT 5SM -SHSN DRSN FEW018 OVC024 M04/M08 A2991 RMK CU2SC6 SLP143

CYHM;2009-02-22 19:00;CYHM 221900Z 25022KT 12SM -SHSN DRSN FEW020 BKN027 M04/M09 A2992 RMK CU2SC6 PCPN VRY LGT SLP146

CYHM;2009-02-22 20:00;CYHM 222000Z 26018G25KT 5SM -SHSN SCT019 BKN026 M04/M08 A2995 RMK CU3SC3 SLP154

CYHM;2009-02-22 21:00;CYHM 222100Z 26016G22KT 15SM -SHSN SCT022 BKN028 M05/M09 A2998 RMK CU3SC3 PCPN VRY LGT SLP166

CYHM;2009-02-22 22:00;CYHM 222200Z 26016KT 9SM -SHSN SCT022 BKN029 M05/M09 A3001 RMK CU3SC4 SLP175

CYHM;2009-02-22 23:00;CYHM 222300Z 26014KT 11SM -SHSN FEW023 BKN030 M05/M10 A3004 RMK SC2SC3 SLP183

CYHM;2009-02-23 00:00;CYHM 230000Z 26014KT 15SM FEW022 BKN028 M06/M09 A3006 RMK SC2SC4 SLP194

CYHM;2009-02-23 01:00;CYHM 230100Z 26012KT 15SM -SHSN FEW022 BKN028 M06/M09 A3008 RMK SC2SC4 PCPN VRY LGT SLP199

CYHM;2009-02-23 02:00;CYHM 230200Z 26011KT 9SM -SHSN FEW020 BKN027 BKN045 M06/M08 A3010 RMK SC2SC4SC1 SLP207

CYHM;2009-02-23 03:00;CYHM 230300Z 27012KT 15SM SCT025 BKN044 M06/M09 A3012 RMK SC3SC2 SLP213

CYHM;2009-02-23 03:37;CYHM 230337Z 29010G16KT 6SM -SHSN OVC029 RMK SC8

CYHM;2009-02-23 04:00;CYHM 230400Z 29012KT 10SM -SHSN OVC021 M06/M09 A3013 RMK SC8 SLP218

CYHM;2009-02-23 05:00;CYHM 230500Z 29015G20KT 15SM FEW025 SCT035 M07/M12 A3015 RMK CF1SC2 SLP224

CYHM;2009-02-23 06:00;CYHM 230600Z 29012KT 15SM FEW035 FEW200 M08/M12 A3017 RMK SC1CI1 SLP230

CYHM;2009-02-23 07:00;CYHM 230700Z 29008KT 15SM FEW030 FEW230 M09/M14 A3018 RMK SC1CI1 SLP235

CYHM;2009-02-23 08:00;CYHM 230800Z 28006KT 15SM FEW030 FEW210 M10/M14 A3019 RMK SC1CI1 TR SC SLP238

CYHM;2009-02-23 09:00;CYHM 230900Z 28006KT 15SM FEW200 M10/M14 A3021 RMK CI1 SLP244

CYHM;2009-02-23 10:00;CYHM 231000Z 30010G15KT 15SM FEW210 M10/M15 A3023 RMK CI1 SLP250

CYHM;2009-02-23 11:00;CYHM 231100Z 28011G17KT 15SM FEW200 M11/M15 A3024 RMK CI1 SLP256

CYHM;2009-02-23 12:00;CYHM 231200Z 29010KT 15SM FEW020 FEW210 M11/M15 A3027 RMK CU1CI1 CU TR SLP266

CYHM;2009-02-23 13:00;CYHM 231300Z 29012KT 15SM FEW020 M11/M15 A3030 RMK CU1 CU TR SLP277

CYHM;2009-02-23 14:00;CYHM 231400Z 30014KT 15SM FEW020 M10/M15 A3031 RMK CU1 CU TR SLP281

CYHM;2009-02-23 15:00;CYHM 231500Z 32012KT 15SM SKC M09/M14 A3034 RMK SLP289

CYHM;2009-02-23 16:00;CYHM 231600Z 33016KT 15SM FEW025 M09/M14 A3035 RMK CU1 CU TR SLP294

CYHM;2009-02-23 17:00;CYHM 231700Z 33015G20KT 15SM FEW025 M09/M13 A3035 RMK CU1 CU TR SLP294

CYHM;2009-02-23 18:00;CYHM 231800Z 30014KT 15SM FEW025 M07/M14 A3035 RMK CU1 SLP292

CYHM;2009-02-23 19:00;CYHM 231900Z 30016G21KT 15SM FEW025 M07/M13 A3035 RMK CU1 CU TR SLP292

CYHM;2009-02-23 20:00;CYHM 232000Z 30015G23KT 15SM FEW028 M07/M14 A3035 RMK CU1 CU TR SLP294

CYHM;2009-02-23 21:00;CYHM 232100Z 30012G18KT 15SM FEW028 M07/M14 A3036 RMK CU1 CU TR SLP297

CYHM;2009-02-23 22:00;CYHM 232200Z 31012G18KT 15SM FEW026 M07/M15 A3037 RMK CU1 CU TR SLP302

CYHM;2009-02-23 23:00;CYHM 232300Z 31010KT 15SM FEW024 M08/M14 A3039 RMK CU1 CU TR SLP307

CYHM;2009-02-24 00:00;CYHM 240000Z CCA 29009KT 15SM FEW024 M10/M15 A3041 RMK CU1 CU TR SLP315

CYHM;2009-02-24 01:00;CYHM 240100Z 30009KT 15SM SKC M10/M14 A3041 RMK SLP317

CYHM;2009-02-24 02:00;CYHM 240200Z 30009KT 15SM SKC M10/M14 A3043 RMK SLP323

CYHM;2009-02-24 03:00;CYHM 240300Z 30009KT 15SM SKC M11/M14 A3043 RMK SLP322

CYHM;2009-02-24 04:00;CYHM 240400Z 30003KT 15SM SKC M11/M14 A3044 RMK SLP325

CYHM;2009-02-24 05:00;CYHM 240500Z 00000KT 15SM SKC M12/M15 A3044 RMK SLP326

CYHM;2009-02-24 06:00;CYHM 240600Z 24005KT 15SM SKC M13/M16 A3045 RMK SLP328

CYHM;2009-02-24 07:00;CYHM 240700Z 00000KT 15SM SKC M13/M15 A3045 RMK SLP329

CYHM;2009-02-24 08:00;CYHM 240800Z 23004KT 15SM SKC M14/M16 A3044 RMK SLP326

CYHM;2009-02-24 09:00;CYHM 240900Z 25004KT 15SM SKC M14/M15 A3043 RMK SLP324

CYHM;2009-02-24 10:00;CYHM 241000Z 25003KT 15SM SKC M14/M16 A3044 RMK SLP325

CYHM;2009-02-24 11:00;CYHM 241100Z 25003KT 15SM FEW030 M15/M16 A3044 RMK SC1 SC TR SLP326

CYHM;2009-02-24 12:00;CYHM 241200Z 00000KT 15SM FEW030 FEW210 M15/M16 A3045 RMK SC1CI1 SC TR SLP330

CYHM;2009-02-24 13:00;CYHM 241300Z 00000KT 15SM FEW023 BKN028 BKN210 M14/M16 A3047 RMK SC2SC3CI1 SLP336

CYHM;2009-02-24 14:00;CYHM 241400Z 30003KT 15SM FEW032 SCT210 M12/M13 A3048 RMK SC2CI2 CONTRAIL SLP340

CYHM;2009-02-24 15:00;CYHM 241500Z 28006KT 15SM FEW032 BKN210 M08/M12 A3048 RMK SC1CI3 SC TR CONTRAIL SLP339

CYHM;2009-02-24 16:00;CYHM 241600Z 28002KT 15SM FEW020 BKN210 M06/M11 A3047 RMK CU1CI3 CONTRAIL SLP335

CYHM;2009-02-24 17:00;CYHM 241700Z 25006KT 15SM FEW023 SCT035 BKN210 M06/M10 A3046 RMK CU2SC2CI2 CONTRAIL SLP333

CYHM;2009-02-24 18:00;CYHM 241800Z 24007KT 15SM BKN027 BKN220 M05/M11 A3044 RMK SC5CI1 SLP324

CYHM;2009-02-24 19:00;CYHM 241900Z 24004KT 15SM FEW022 BKN029 M04/M11 A3041 RMK SC2SC3 SLP316

CYHM;2009-02-24 20:00;CYHM 242000Z 26004KT 15SM FEW032 FEW250 M04/M12 A3040 RMK CU1CI1 CONTRAILS SLP311

CYHM;2009-02-24 21:00;CYHM 242100Z 22008KT 15SM FEW032 SCT250 M04/M12 A3039 RMK CU1CI1 CONTRAILS SLP309

CYHM;2009-02-24 22:00;CYHM 242200Z 18012KT 15SM FEW030 SCT250 M05/M10 A3039 RMK CU1CI1 CU TR CONTRAILS SLP307

CYHM;2009-02-24 23:00;CYHM 242300Z 21008KT 15SM FEW170 BKN250 M06/M10 A3038 RMK AC2CI1 CONTRAILS SLP305

CYHM;2009-02-25 00:00;CYHM 250000Z 21007KT 15SM FEW110 FEW170 BKN250 M06/M10 A3039 RMK AC1AC1CI1 1ST LYR TR SLP308

CYHM;2009-02-25 01:00;CYHM 250100Z 20006KT 15SM BKN100 M06/M10 A3036 RMK AC7 SLP300

CYHM;2009-02-25 02:00;CYHM 250200Z 20003KT 15SM SCT100 OVC140 M06/M09 A3035 RMK AC3AC5 SLP296

CYHM;2009-02-25 03:00;CYHM 250300Z 19003KT 15SM FEW110 SCT180 BKN250 M07/M10 A3034 RMK AC1AC2CI0 SLP290

CYHM;2009-02-25 04:00;CYHM 250400Z 17003KT 15SM FEW150 BKN250 M07/M10 A3033 RMK AC2CI1 SLP288

CYHM;2009-02-25 05:00;CYHM 250500Z 18005KT 15SM FEW140 FEW250 M07/M10 A3033 RMK AC1CI0 AC TR SLP288

CYHM;2009-02-25 06:00;CYHM 250600Z 19003KT 15SM FEW120 FEW250 M08/M10 A3034 RMK AC2CI1 CI TR SLP289

CYHM;2009-02-25 07:00;CYHM 250700Z 17007KT 15SM BKN120 M08/M11 A3033 RMK AC6 SLP284

CYHM;2009-02-25 08:00;CYHM 250800Z 19008KT 15SM BKN120 M07/M11 A3031 RMK AC6 SLP279

CYHM;2009-02-25 09:00;CYHM 250900Z 17003KT 15SM BKN120 M07/M11 A3032 RMK AC7 SLP280

CYHM;2009-02-25 10:00;CYHM 251000Z 15004KT 15SM SCT120 M08/M11 A3032 RMK AC3 SLP280

CYHM;2009-02-25 11:00;CYHM 251100Z 13003KT 15SM FEW094 M09/M12 A3032 RMK AC2 SLP281

CYHM;2009-02-25 12:00;CYHM 251200Z 15006KT 15SM FEW120 FEW210 M09/M12 A3031 RMK AC1CI1 SLP280

CYHM;2009-02-25 13:00;CYHM 251300Z 15006KT 15SM FEW120 FEW220 M08/M11 A3030 RMK AC1CI1 AC TR CI TR SLP278

CYHM;2009-02-25 14:00;CYHM 251400Z 15008KT 15SM FEW220 M05/M10 A3030 RMK CI1 CONTRAIL SLP277

CYHM;2009-02-25 15:00;CYHM 251500Z 18010KT 15SM FEW100 FEW220 M02/M09 A3029 RMK AC1CI1 AC TR CONTRAIL SLP271

CYHM;2009-02-25 16:00;CYHM 251600Z 22012KT 15SM FEW160 SCT220 00/M09 A3027 RMK AC1CI2 CONTRAIL SLP264

CYHM;2009-02-25 17:00;CYHM 251700Z 19010KT 15SM FEW120 BKN220 01/M08 A3025 RMK AC2CI2 SLP257

CYHM;2009-02-25 18:00;CYHM 251800Z 17008KT 15SM FEW180 BKN220 02/M08 A3022 RMK AC1CI4 CONTRAIL SLP247

CYHM;2009-02-25 19:00;CYHM 251900Z 20010KT 15SM BKN180 OVC220 02/M08 A3019 RMK AC5CI2 SLP236

CYHM;2009-02-25 20:00;CYHM 252000Z 17010KT 15SM FEW180 OVC250 03/M08 A3016 RMK AC1CS5 SUN DMLY VSBL SLP227

CYHM;2009-02-25 21:00;CYHM 252100Z 17009KT 15SM BKN078 OVC250 03/M09 A3014 RMK AC5CS2 SUN DMLY VSBL HALO SLP219

CYHM;2009-02-25 22:00;CYHM 252200Z 18007KT 15SM FEW076 BKN140 OVC250 03/M07 A3012 RMK AC2AC4CS2 SUN DMLY VSBL SLP211

CYHM;2009-02-25 23:00;CYHM 252300Z 15004KT 15SM BKN080 OVC250 02/M07 A3010 RMK AC7CS1 SLP203

CYHM;2009-02-26 00:00;CYHM 260000Z 18006KT 15SM BKN035 OVC080 02/M08 A3010 RMK SC6AC2 SLP206

CYHM;2009-02-26 00:44;CYHM 260044Z 23015G21KT 15SM -SHRA FEW030 OVC040 RMK SF2SC6

CYHM;2009-02-26 01:00;CYHM 260100Z 21013G20KT 12SM -SHRA FEW028 OVC038 04/M03 A3010 RMK SF2SC6 SLP205

CYHM;2009-02-26 02:00;CYHM 260200Z 21015KT 8SM -SHRA FEW028 OVC057 03/01 A3008 RMK SF2SC6 SLP200

CYHM;2009-02-26 03:00;CYHM 260300Z 20012KT 15SM -SHRA BKN040 OVC064 04/01 A3006 RMK SC6SC2 SLP188

CYHM;2009-02-26 04:00;CYHM 260400Z 17009KT 12SM -SHRA FEW038 OVC055 04/01 A3004 RMK SC2SC6 SLP181

CYHM;2009-02-26 05:00;CYHM 260500Z 18011KT 15SM -SHRA OVC049 04/01 A3001 RMK SC8 SLP174

CYHM;2009-02-26 06:00;CYHM 260600Z 20010KT 15SM -SHRA OVC051 04/01 A3000 RMK SC8 SLP167

CYHM;2009-02-26 07:00;CYHM 260700Z 24010KT 15SM FEW040 OVC051 05/00 A3001 RMK SC2SC6 SLP172

CYHM;2009-02-26 08:00;CYHM 260800Z 24007KT 15SM FEW048 03/M00 A3002 RMK SC2 SLP175

CYHM;2009-02-26 09:00;CYHM 260900Z 25005KT 15SM FEW047 FEW220 03/M00 A3004 RMK SC1CI1 TR CI SLP181

CYHM;2009-02-26 10:00;CYHM 261000Z 24005KT 10SM FEW210 01/M01 A3007 RMK CI1 SLP191

CYHM;2009-02-26 11:00;CYHM 261100Z 24006KT 7SM BKN022 OVC210 02/00 A3011 RMK SC6CI2 SLP203

CYHM;2009-02-26 12:00;CYHM 261200Z 23006KT 6SM BR OVC021 01/00 A3013 RMK SC8 SLP212

CYHM;2009-02-26 13:00;CYHM 261300Z 23006KT 4SM BR FEW022 BKN220 01/00 A3015 RMK SC2CI2 CONTRAIL SLP219

CYHM;2009-02-26 14:00;CYHM 261400Z 25003KT 4SM BR BKN019 OVC030 02/01 A3017 RMK SC6SC2 SLP226

CYHM;2009-02-26 15:00;CYHM 261500Z 26006KT 8SM BKN023 OVC035 03/01 A3018 RMK SC6SC2 SLP228

CYHM;2009-02-26 16:00;CYHM 261600Z 27006KT 15SM BKN020 BKN035 04/01 A3018 RMK SC6SC2 SLP229

CYHM;2009-02-26 17:00;CYHM 261700Z 25004KT 15SM FEW018 FEW035 FEW170 BKN220 05/01 A3018 RMK CU1SC2AC1CI1 CONTRAIL SLP228

CYHM;2009-02-26 18:00;CYHM 261800Z 27002KT 15SM FEW022 FEW045 BKN210 05/00 A3017 RMK CU1SC2CI2 CONTRAIL SLP222

CYHM;2009-02-26 19:00;CYHM 261900Z 26004KT 15SM FEW020 SCT045 BKN210 06/01 A3016 RMK CU1SC2CI2 SLP219

CYHM;2009-02-26 20:00;CYHM 262000Z 18006KT 15SM BKN027 BKN210 06/02 A3015 RMK SC6CI1 SLP216

CYHM;2009-02-26 21:00;CYHM 262100Z 17002KT 12SM BKN022 BKN230 06/02 A3013 RMK SC6CI1 SLP210

CYHM;2009-02-26 22:00;CYHM 262200Z 15005KT 10SM BKN020 OVC250 05/02 A3011 RMK SC5CI2 SLP203

CYHM;2009-02-26 23:00;CYHM 262300Z 16003KT 6SM HZ OVC021 05/02 A3009 RMK SC8 SLP196

CYHM;2009-02-27 00:00;CYHM 270000Z 09004KT 8SM OVC026 04/02 A3005 RMK SC8 SLP185

CYHM;2009-02-27 01:00;CYHM 270100Z 09006KT 7SM FEW026 OVC039 03/01 A3001 RMK SC2SC6 SLP173

CYHM;2009-02-27 02:00;CYHM 270200Z 10007KT 7SM BKN036 OVC100 03/01 A2997 RMK SC5AC3 SLP158

CYHM;2009-02-27 03:00;CYHM 270300Z 07008KT 7SM -SHRA OVC028 03/01 A2992 RMK SC8 SLP139

CYHM;2009-02-27 04:00;CYHM 270400Z 09004KT 6SM -SHRA BR OVC023 04/02 A2988 RMK SC8 SLP125

CYHM;2009-02-27 05:00;CYHM 270500Z 12007KT 2 1/2SM -SHRA BR SCT018 OVC046 03/03 A2981 RMK SC3SC5 SLP105

CYHM;2009-02-27 06:00;CYHM 270600Z 10004KT 1 1/2SM -SHRA BR BKN048 OVC062 03/03 A2975 RMK FG1SC6SC2 PRESFR SLP081

CYHM;2009-02-27 06:32;CYHM 270632Z 16008KT 9SM -SHRA BKN058 BKN100 RMK SC5AC1

CYHM;2009-02-27 07:00;CYHM 270700Z 17014KT 15SM BKN055 BKN072 07/05 A2968 RMK SC6AC2 SLP060

CYHM;2009-02-27 07:49;CYHM 270749Z 18018KT 8SM -SHRA OVC059 RMK SC8

CYHM;2009-02-27 08:00;CYHM 270800Z 18017KT 15SM -SHRA OVC060 08/05 A2962 RMK SC8 PRESFR SLP039

CYHM;2009-02-27 09:00;CYHM 270900Z 18022KT 15SM -SHRA OVC045 10/05 A2955 RMK SC8 PRESFR SLP010

CYHM;2009-02-27 10:00;CYHM 271000Z 20025KT 7SM -SHRA BKN040 OVC055 08/06 A2955 RMK SC6SC2 SLP010

CYHM;2009-02-27 11:00;CYHM 271100Z 20022KT 7SM -SHRA BKN029 OVC040 08/07 A2952 RMK SC6SC2 SLP001

CYHM;2009-02-27 12:00;CYHM 271200Z 21020G26KT 10SM -SHRA BKN015 OVC022 08/08 A2952 RMK SC6SC2 SLP001

CYHM;2009-02-27 13:00;CYHM 271300Z 20016KT 2SM -SHRA BR BKN008 OVC018 08/07 A2952 RMK SF6SC2 SLP000

CYHM;2009-02-27 13:05;CYHM 271305Z 20016KT 1 1/2SM -SHRA BR BKN007 OVC017 RMK FG2SF5SC2

CYHM;2009-02-27 13:11;CYHM 271311Z 20018KT 3SM -SHRA BR BKN015 OVC020 RMK SC6SC2

CYHM;2009-02-27 14:00;CYHM 271400Z 21016KT 3SM -SHRA BKN009 OVC017 08/08 A2951 RMK SF6SC2 SLP998

CYHM;2009-02-27 15:00;CYHM 271500Z 24015G20KT 2 1/2SM -RA BR OVC006 09/09 A2953 RMK SF8 SLP004

CYHM;2009-02-27 15:47;CYHM 271547Z 25014KT 15SM BKN006 OVC018 RMK SF6SC2 RERA

CYHM;2009-02-27 16:00;CYHM 271600Z 25018KT 14SM BKN006 OVC020 09/08 A2955 RMK SF6SC2 SLP010

CYHM;2009-02-27 17:00;CYHM 271700Z 32012KT 15SM FEW012 OVC023 06/04 A2960 RMK CF2SC6 SLP029

CYHM;2009-02-27 18:00;CYHM 271800Z 30015KT 15SM BKN014 BKN044 OVC100 04/03 A2966 RMK SC5SC2AC1 PRESRR SLP052

CYHM;2009-02-27 19:00;CYHM 271900Z 34012KT 15SM BKN015 OVC022 02/00 A2971 RMK SC6SC2 SLP066

CYHM;2009-02-27 20:00;CYHM 272000Z CCA 30018G24KT 15SM SCT018 OVC051 M01/M04 A2978 RMK SC4SC4 PRESRR SLP092

CYHM;2009-02-27 21:00;CYHM 272100Z 30014KT 15SM BKN020 BKN055 M02/M06 A2984 RMK SC6SC2 PRESRR SLP113

CYHM;2009-02-27 22:00;CYHM 272200Z 30015KT 15SM BKN020 OVC080 M04/M08 A2993 RMK SC6AC2 PRESRR SLP142

CYHM;2009-02-27 23:00;CYHM 272300Z 32013KT 15SM BKN025 BKN090 M05/M10 A3000 RMK SC6AC1 PRESRR SLP165

CYHM;2009-02-28 00:00;CYHM 280000Z 34016KT 15SM BKN025 BKN110 M06/M10 A3005 RMK SC5AC1 SLP186

CYHM;2009-02-28 01:00;CYHM 280100Z CCA 32015G20KT 15SM -SHSN FEW025 FEW210 M07/M12 A3011 RMK SC2CI1 PRESRR SLP206

CYHM;2009-02-28 02:00;CYHM 280200Z 33011G16KT 15SM -SHSN FEW022 M08/M12 A3016 RMK SC2 SLP221

CYHM;2009-02-28 03:00;CYHM 280300Z 33010KT 15SM -SHSN BKN025 M08/M12 A3021 RMK SC5 SLP239

CYHM;2009-02-28 04:00;CYHM 280400Z 35008KT 15SM FEW023 SCT220 M08/M13 A3024 RMK SC2CI0 SLP249

CYHM;2009-02-28 05:00;CYHM 280500Z 34012KT 15SM -SHSN BKN025 M09/M13 A3027 RMK SC6 SLP261

CYHM;2009-02-28 06:00;CYHM 280600Z 35011KT 15SM SCT024 SCT200 M09/M14 A3031 RMK SC3CI1 SLP275

CYHM;2009-02-28 07:00;CYHM 280700Z 03010KT 15SM FEW024 M11/M15 A3033 RMK SC2 SLP284

CYHM;2009-02-28 08:00;CYHM 280800Z 03010KT 15SM FEW024 FEW200 M12/M15 A3033 RMK SC1CI1 TR CI SLP284

CYHM;2009-02-28 09:00;CYHM 280900Z 03014KT 15SM FEW200 M13/M16 A3034 RMK CI1 SLP291

CYHM;2009-02-28 10:00;CYHM 281000Z 02011KT 15SM FEW020 FEW200 M14/M19 A3036 RMK SC1CI1 TR SC SLP295

CYHM;2009-02-28 11:00;CYHM 281100Z 03010KT 15SM FEW050 FEW210 M15/M19 A3038 RMK SC1CI1 SLP304

CYHM;2009-02-28 12:00;CYHM 281200Z 35007KT 15SM BKN015 M15/M19 A3041 RMK SC6 SLP317

CYHM;2009-02-28 13:00;CYHM 281300Z 01007KT 15SM FEW015 M15/M19 A3043 RMK SC2 SLP322

CYHM;2009-02-28 14:00;CYHM 281400Z 03011KT 15SM FEW013 M14/M18 A3043 RMK SC2 SLP323

CYHM;2009-02-28 15:00;CYHM 281500Z 05006KT 15SM FEW016 M13/M17 A3043 RMK SC1 SLP324

CYHM;2009-02-28 16:00;CYHM 281600Z 06011KT 15SM FEW020 M12/M16 A3042 RMK SC1 SLP319

CYHM;2009-02-28 17:00;CYHM 281700Z 06010KT 15SM FEW020 M11/M15 A3041 RMK SC2 SLP316

CYHM;2009-02-28 18:00;CYHM 281800Z 04012G19KT 350V100 15SM FEW020 M11/M15 A3037 RMK SC1 SLP303

CYHM;2009-02-28 19:00;CYHM 281900Z 06011KT 15SM FEW020 M10/M14 A3036 RMK SC1 SLP297

CYHM;2009-02-28 20:00;CYHM 282000Z 06013KT 15SM FEW020 FEW120 M09/M14 A3033 RMK SC2AC1 AC TR SLP289

CYHM;2009-02-28 21:00;CYHM 282100Z 06012KT 15SM FEW020 FEW150 M09/M14 A3032 RMK SC2AC1 AC TR SLP284

CYHM;2009-02-28 22:00;CYHM 282200Z 05008KT 15SM FEW020 FEW150 M09/M14 A3034 RMK SC2AC1 AC TR SLP291

CYHM;2009-02-28 23:00;CYHM 282300Z 06006KT 15SM FEW020 FEW150 FEW220 M10/M13 A3033 RMK SC1AC1CI1 SC TR AC TR SLP288

CYHM;2009-03-01 01:00;CYHM 010100Z 03011KT 15SM FEW020 FEW240 M10/M15 A3026 RMK SC1CI1 SC TR CI TR SLP268

CYHM;2009-03-01 02:00;CYHM 010200Z 02007KT 15SM FEW020 M10/M14 A3026 RMK SC1 SC TR SLP268

CYHM;2009-03-01 03:00;CYHM 010300Z 01003KT 15SM FEW020 FEW200 M10/M14 A3026 RMK SC1CI1 SC TR CI TR SLP265

CYHM;2009-03-01 04:00;CYHM 010400Z 01006KT 15SM FEW020 FEW200 M10/M13 A3026 RMK SC1CI1 SLP266

CYHM;2009-03-01 05:00;CYHM 010500Z 01005KT 15SM FEW020 M10/M13 A3025 RMK SC1 SLP262

CYHM;2009-03-01 06:00;CYHM 010600Z 03007KT 15SM OVC011 M09/M13 A3023 RMK SC8 MAMMA SLP255

CYHM;2009-03-01 07:00;CYHM 010700Z 02010KT 15SM OVC012 M09/M12 A3023 RMK SC8 SLP254

CYHM;2009-03-01 08:00;CYHM 010800Z 02005KT 15SM OVC013 M09/M12 A3022 RMK SC8 MAMMA SLP251

CYHM;2009-03-01 09:00;CYHM 010900Z 36005KT 15SM BKN013 M09/M13 A3021 RMK SC7 MAMMA SLP247

CYHM;2009-03-01 10:00;CYHM 011000Z 36003KT 15SM FEW012 M10/M14 A3020 RMK SC2 SLP245

CYHM;2009-03-01 11:00;CYHM 011100Z 33004KT 15SM FEW012 FEW200 M11/M14 A3020 RMK SC1CI1 SLP242

CYHM;2009-03-01 12:00;CYHM 011200Z 34004KT 15SM FEW012 M11/M14 A3021 RMK SC1 SLP246

CYHM;2009-03-01 13:00;CYHM 011300Z 34007KT 15SM FEW015 M09/M13 A3022 RMK SC1 SLP251

CYHM;2009-03-01 14:00;CYHM 011400Z 34008KT 15SM FEW020 M08/M14 A3023 RMK SC1 SLP255

CYHM;2009-03-01 15:00;CYHM 011500Z 35008KT 15SM FEW030 M06/M13 A3023 RMK SC1 SLP254

CYHM;2009-03-01 16:00;CYHM 011600Z 35006KT 300V060 15SM FEW030 M06/M16 A3024 RMK SC1 SLP256

CYHM;2009-03-01 17:00;CYHM 011700Z 33005KT 280V030 15SM FEW040 M05/M16 A3025 RMK SC1 SLP258

CYHM;2009-03-01 18:00;CYHM 011800Z 32007KT 280V010 15SM FEW040 M04/M14 A3023 RMK SC1 SLP250

CYHM;2009-03-01 19:00;CYHM 011900Z 33013KT 15SM BKN050 M04/M14 A3021 RMK SC7 SLP246

CYHM;2009-03-01 20:00;CYHM 012000Z 34009KT 310V020 15SM BKN048 M04/M14 A3022 RMK SC6 SLP249

CYHM;2009-03-01 21:00;CYHM 012100Z 33013KT 15SM FEW035 BKN050 M05/M14 A3027 RMK SC2SC4 SLP266

CYHM;2009-03-01 22:00;CYHM 012200Z 32012KT 15SM FEW035 BKN050 M06/M14 A3027 RMK CU2SC3 SLP267

CYHM;2009-03-01 23:00;CYHM 012300Z 35011KT 15SM BKN040 M07/M13 A3028 RMK SC6 VIRGA SLP270

CYHM;2009-03-02 00:00;CYHM 020000Z 33012KT 15SM FEW033 BKN044 M08/M13 A3030 RMK CU2SC3 VIRGA SLP278

CYHM;2009-03-02 01:00;CYHM 020100Z 33013KT 15SM FEW035 M09/M15 A3030 RMK SC2 SLP278

CYHM;2009-03-02 02:00;CYHM 020200Z 34016KT 15SM FEW030 FEW200 M11/M16 A3030 RMK SC1CI0 SLP279

CYHM;2009-03-02 03:00;CYHM 020300Z 34014KT 15SM FEW030 FEW200 M11/M17 A3034 RMK SC1CI1 SLP291

CYHM;2009-03-02 04:00;CYHM 020400Z 34013KT 15SM FEW030 FEW200 M11/M16 A3036 RMK SC1CI1 SLP297

CYHM;2009-03-02 05:00;CYHM 020500Z 35016KT 15SM FEW210 M12/M16 A3033 RMK CI1 SLP287

CYHM;2009-03-02 06:00;CYHM 020600Z 35016G22KT 15SM FEW200 M12/M17 A3030 RMK CI1 SLP277

CYHM;2009-03-02 07:00;CYHM 020700Z 01016G21KT 15SM FEW030 FEW220 M13/M17 A3030 RMK SC1CI1 SLP275

CYHM;2009-03-02 08:00;CYHM 020800Z 01013KT 15SM FEW030 M13/M17 A3030 RMK SC1 SLP276

CYHM;2009-03-02 09:00;CYHM 020900Z 01013KT 15SM FEW030 FEW210 M14/M18 A3035 RMK SC1CI1 SLP293

CYHM;2009-03-02 10:00;CYHM 021000Z 01010G15KT 15SM FEW030 FEW210 M14/M18 A3032 RMK SC1CI1 SLP284

CYHM;2009-03-02 11:00;CYHM 021100Z 36014KT 15SM FEW030 BKN250 M15/M18 A3032 RMK SC1CI3 SLP284

CYHM;2009-03-02 12:00;CYHM 021200Z 35015KT 15SM FEW020 FEW180 BKN210 M15/M19 A3033 RMK SC1AC2CI2 TR CU ASOCTD SLP288

CYHM;2009-03-02 13:00;CYHM 021300Z 35015KT 15SM FEW020 SCT240 M15/M19 A3035 RMK SC1CI2 SC TR SLP296

CYHM;2009-03-02 14:00;CYHM 021400Z 35017KT 15SM FEW020 FEW240 M14/M19 A3037 RMK SC1CI1 CU ASOCTD SCTR SLP303

CYHM;2009-03-02 15:00;CYHM 021500Z 35018G23KT 15SM FEW020 FEW240 M12/M20 A3037 RMK CU1CI1 CU TR CI TR SLP304

CYHM;2009-03-02 16:00;CYHM 021600Z 35015G20KT 15SM FEW025 FEW240 M11/M21 A3036 RMK CU1CI1 CU TR CI TR SLP300

CYHM;2009-03-02 17:00;CYHM 021700Z 36015KT 15SM FEW025 FEW240 M11/M22 A3035 RMK CU1CI1 CU TR CI TR SLP295

CYHM;2009-03-02 18:00;CYHM 021800Z 33012KT 15SM FEW025 FEW240 M09/M21 A3033 RMK CU1CI1 SLP287

CYHM;2009-03-02 19:00;CYHM 021900Z 33015G20KT 15SM FEW025 FEW240 M08/M22 A3030 RMK CU1CI1 SLP279

CYHM;2009-03-02 20:00;CYHM 022000Z 31012G20KT 15SM FEW054 FEW250 M08/M22 A3028 RMK CU1CI1 CU TR CI TR SLP272

CYHM;2009-03-02 21:00;CYHM 022100Z 33014G20KT 15SM FEW054 FEW250 M09/M21 A3028 RMK CU1CI1 CU TR CI TR SLP272

CYHM;2009-03-02 22:00;CYHM 022200Z 32012G18KT 15SM FEW045 M10/M21 A3030 RMK CU1 CU TR SLP279

CYHM;2009-03-02 23:00;CYHM 022300Z 33015KT 15SM FEW038 M11/M21 A3031 RMK CU1 CU TR SLP282

CYHM;2009-03-03 00:00;CYHM 030000Z 33015KT 15SM FEW032 M13/M21 A3034 RMK CU1 CU TR SLP294

CYHM;2009-03-03 01:00;CYHM 030100Z 35015KT 15SM FEW028 M14/M21 A3036 RMK CU1 CU TR SLP300

CYHM;2009-03-03 02:00;CYHM 030200Z 34007KT 15SM FEW028 M14/M21 A3037 RMK CU1 CU TR SLP303

CYHM;2009-03-03 03:00;CYHM 030300Z 32010KT 15SM FEW026 M14/M20 A3036 RMK CU1 CU TR SLP300

CYHM;2009-03-03 04:00;CYHM 030400Z 35006KT 15SM FEW026 M14/M20 A3035 RMK CU1 CU TR SLP297

CYHM;2009-03-03 05:00;CYHM 030500Z 34005KT 15SM FEW024 M14/M21 A3035 RMK CU1 CU TR SLP296

CYHM;2009-03-03 06:00;CYHM 030600Z 35007KT 15SM SKC M14/M21 A3035 RMK SLP296

CYHM;2009-03-03 07:00;CYHM 030700Z 36010KT 15SM SKC M14/M23 A3036 RMK SLP299

CYHM;2009-03-03 08:00;CYHM 030800Z 36012KT 15SM SKC M14/M24 A3036 RMK SLP300

CYHM;2009-03-03 09:00;CYHM 030900Z 36010KT 15SM SKC M15/M23 A3038 RMK SLP305

CYHM;2009-03-03 10:00;CYHM 031000Z 36007KT 15SM SKC M15/M23 A3040 RMK SLP312

CYHM;2009-03-03 11:00;CYHM 031100Z 00000KT 15SM SKC M17/M22 A3041 RMK SLP316

CYHM;2009-03-03 12:00;CYHM 031200Z 33006KT 15SM FEW240 M16/M21 A3042 RMK CI1 CI TR SLP324

CYHM;2009-03-03 13:00;CYHM 031300Z 33008KT 15SM FEW025 FEW240 M15/M21 A3045 RMK CU1CI1 CU TR CI TR SLP331

CYHM;2009-03-03 14:00;CYHM 031400Z 35010KT 15SM FEW025 M13/M22 A3045 RMK CU1 SLP333

CYHM;2009-03-03 15:00;CYHM 031500Z 33008KT 15SM SKC M12/M21 A3046 RMK SLP335

CYHM;2009-03-03 16:00;CYHM 031600Z 33007KT 15SM FEW025 M10/M20 A3044 RMK CU1 SLP329

CYHM;2009-03-03 17:00;CYHM 031700Z 32006KT 15SM SKC M08/M20 A3044 RMK SLP328

CYHM;2009-03-03 18:00;CYHM 031800Z 28006KT 15SM SKC M07/M19 A3042 RMK SLP319

CYHM;2009-03-03 19:00;CYHM 031900Z 25012KT 15SM FEW025 M06/M18 A3040 RMK CU1 SLP314

CYHM;2009-03-03 20:00;CYHM 032000Z 27014KT 220V310 15SM FEW050 FEW250 M05/M18 A3040 RMK CU1CI1 CU TR CI TR SLP312

CYHM;2009-03-03 21:00;CYHM 032100Z 27012KT 15SM FEW052 FEW250 M05/M18 A3039 RMK CU1CI1 SLP309

CYHM;2009-03-03 22:00;CYHM 032200Z 27008KT 15SM FEW044 FEW250 M06/M16 A3039 RMK CU1CI1 CONTRAILS SLP310

CYHM;2009-03-03 23:00;CYHM 032300Z 30012KT 15SM FEW042 FEW180 FEW250 M07/M15 A3040 RMK CU1AC1CI0 SLP311

CYHM;2009-03-04 00:00;CYHM 040000Z 29004KT 15SM FEW028 FEW250 M08/M14 A3040 RMK CU1CI1 CU TR SLP313

CYHM;2009-03-04 01:00;CYHM 040100Z 28007KT 15SM FEW026 FEW250 M09/M13 A3040 RMK CU1CI1 CU TR CI TR SLP315

CYHM;2009-03-04 02:00;CYHM 040200Z 27006KT 15SM SKC M09/M13 A3041 RMK SLP316

CYHM;2009-03-04 03:00;CYHM 040300Z 27005KT 15SM FEW250 M10/M13 A3040 RMK CI1 CI TR SLP313

CYHM;2009-03-04 04:00;CYHM 040400Z 26005KT 15SM FEW250 M11/M13 A3040 RMK CI1 SLP313

CYHM;2009-03-04 05:00;CYHM 040500Z 25003KT 15SM FEW250 M11/M13 A3039 RMK CI1 SLP311

CYHM;2009-03-04 06:00;CYHM 040600Z 24004KT 15SM FEW250 M11/M13 A3039 RMK CI1 SLP308

CYHM;2009-03-04 07:00;CYHM 040700Z CCA 25005KT 15SM SKC M11/M14 A3039 RMK SLP307

CYHM;2009-03-04 08:00;CYHM 040800Z CCA 24004KT 15SM SKC M13/M14 A3039 RMK SLP306

CYHM;2009-03-04 09:00;CYHM 040900Z 22004KT 15SM SKC M14/M15 A3039 RMK SLP308

CYHM;2009-03-04 10:00;CYHM 041000Z 24004KT 15SM SKC M14/M15 A3039 RMK SLP308

CYHM;2009-03-04 11:00;CYHM 041100Z 24004KT 15SM FEW080 M13/M14 A3040 RMK AC1 AC TR SLP312

CYHM;2009-03-04 12:00;CYHM 041200Z 23004KT 15SM FEW100 M13/M15 A3040 RMK AC1 SLP313

CYHM;2009-03-04 13:00;CYHM 041300Z 23005KT 15SM FEW240 M10/M12 A3041 RMK CI1 SLP317

CYHM;2009-03-04 14:00;CYHM 041400Z 26009KT 15SM SKC M08/M10 A3042 RMK SLP321

CYHM;2009-03-04 15:00;CYHM 041500Z 25009KT 15SM FEW025 M06/M09 A3042 RMK CU1 SLP319

CYHM;2009-03-04 16:00;CYHM 041600Z 24008KT 15SM FEW032 M03/M12 A3041 RMK CU1 SLP314

CYHM;2009-03-04 17:00;CYHM 041700Z 26008KT 15SM FEW030 M03/M13 A3039 RMK CU1 CU TR SLP309

CYHM;2009-03-04 18:00;CYHM 041800Z 22007KT 15SM FEW030 FEW240 M02/M13 A3037 RMK CU1CI1 SLP299

CYHM;2009-03-04 19:00;CYHM 041900Z 23009KT 15SM FEW030 00/M13 A3035 RMK CU1 SLP292

CYHM;2009-03-04 20:00;CYHM 042000Z 27008KT 15SM FEW052 SCT250 M00/M13 A3033 RMK CU1CI0 CONTRAILS SLP286

CYHM;2009-03-04 21:00;CYHM 042100Z 26009KT 15SM FEW052 FEW250 00/M13 A3032 RMK CU1CI0 CU TR CONTRAILS SLP281

CYHM;2009-03-04 22:00;CYHM 042200Z 26007KT 15SM FEW250 00/M12 A3031 RMK CI0 CONTRAILS SLP278

CYHM;2009-03-04 23:00;CYHM 042300Z 22007KT 15SM FEW250 M02/M11 A3030 RMK CI1 CONTRAILS SLP277

CYHM;2009-03-05 00:00;CYHM 050000Z 20008KT 15SM FEW250 M04/M09 A3031 RMK CI1 CONTRAILS SLP279

CYHM;2009-03-05 01:00;CYHM 050100Z 22007KT 15SM FEW250 M05/M09 A3033 RMK CI1 CI TR SLP285

CYHM;2009-03-05 02:00;CYHM 050200Z 24003KT 15SM FEW250 M05/M10 A3032 RMK CI1 CI TR SLP284

CYHM;2009-03-05 03:00;CYHM 050300Z 19003KT 15SM FEW250 M05/M10 A3032 RMK CI1 CI TR SLP281

CYHM;2009-03-05 04:00;CYHM 050400Z 17005KT 15SM FEW200 M06/M11 A3032 RMK CI2 SLP280

CYHM;2009-03-05 05:00;CYHM 050500Z 17004KT 15SM FEW200 M07/M11 A3032 RMK CI2 SLP280

CYHM;2009-03-05 06:00;CYHM 050600Z 17007KT 15SM FEW200 M06/M10 A3032 RMK CI1 SLP280

CYHM;2009-03-05 07:00;CYHM 050700Z 17006KT 15SM FEW200 M07/M10 A3031 RMK CI1 SLP278

CYHM;2009-03-05 08:00;CYHM 050800Z 18002KT 15SM FEW200 M08/M10 A3031 RMK CI1 SLP276

CYHM;2009-03-05 09:00;CYHM 050900Z 00000KT 15SM FEW200 M08/M10 A3029 RMK CI1 SLP271

CYHM;2009-03-05 10:00;CYHM 051000Z 00000KT 15SM FEW200 M08/M12 A3030 RMK CI1 SLP273

CYHM;2009-03-05 11:00;CYHM 051100Z 14007KT 15SM FEW210 M08/M12 A3030 RMK CI1 SLP273

CYHM;2009-03-05 12:00;CYHM 051200Z 15005KT 15SM FEW180 SCT240 M07/M11 A3029 RMK AC1CI2 AC TR SLP271

CYHM;2009-03-05 13:00;CYHM 051300Z 16006KT 15SM FEW170 BKN240 M05/M09 A3029 RMK AC2CI2 SLP272

CYHM;2009-03-05 14:00;CYHM 051400Z 15008KT 15SM FEW120 BKN220 M02/M08 A3026 RMK AC2CS4 HALO CONTRAIL SLP263

CYHM;2009-03-05 15:00;CYHM 051500Z 18008KT 15SM SCT220 01/M09 A3025 RMK CI2 CONTRAIL SLP254

CYHM;2009-03-05 16:00;CYHM 051600Z 18015KT 15SM SCT220 04/M10 A3022 RMK CI2 CONTRAIL SLP245

CYHM;2009-03-05 17:00;CYHM 051700Z 19010KT 15SM FEW220 06/M11 A3024 RMK CI1 SLP252

CYHM;2009-03-05 18:00;CYHM 051800Z CCA 18014KT 15SM SCT043 SCT120 BKN220 08/M10 A3012 RMK SC3AC1CI0 PRESFR CI TR SLP208

CYHM;2009-03-05 19:00;CYHM 051900Z 19010KT 15SM BKN044 BKN062 08/M09 A3009 RMK SC5SC2 SLP198

CYHM;2009-03-05 20:00;CYHM 052000Z 15010KT 15SM OVC047 08/M07 A3005 RMK SC8 SLP185

CYHM;2009-03-05 21:00;CYHM 052100Z 14006KT 15SM OVC052 07/M05 A3001 RMK SC8 SLP173

CYHM;2009-03-05 22:00;CYHM 052200Z 17004KT 15SM OVC054 07/M04 A2999 RMK SC8 SLP165

CYHM;2009-03-05 23:00;CYHM 052300Z 05006KT 15SM OVC049 04/M02 A2997 RMK SC8 SLP161

CYHM;2009-03-06 00:00;CYHM 060000Z 07003KT 15SM OVC046 03/M01 A2994 RMK SC8 SLP151

CYHM;2009-03-06 01:00;CYHM 060100Z 00000KT 15SM OVC054 03/M01 A2994 RMK SC8 SLP150

CYHM;2009-03-06 02:00;CYHM 060200Z 17011KT 15SM OVC053 09/M02 A2991 RMK SC8 SLP141

CYHM;2009-03-06 03:00;CYHM 060300Z 18012KT 15SM OVC048 09/M02 A2990 RMK SC8 SLP130

CYHM;2009-03-06 04:00;CYHM 060400Z 20014KT 15SM OVC041 09/M02 A2988 RMK SC8 SLP126

CYHM;2009-03-06 05:00;CYHM 060500Z 20016KT 15SM OVC039 09/M01 A2985 RMK SC8 SLP116

CYHM;2009-03-06 06:00;CYHM 060600Z 20022G27KT 15SM OVC037 11/02 A2983 RMK SC8 SLP106

CYHM;2009-03-06 07:00;CYHM 060700Z 20020KT 15SM BKN036 OVC067 10/01 A2981 RMK SC6AC2 SLP100

CYHM;2009-03-06 08:00;CYHM 060800Z 21022KT 15SM OVC032 10/03 A2980 RMK SC8 SLP095

CYHM;2009-03-06 09:00;CYHM 060900Z 21014KT 15SM OVC029 10/04 A2979 RMK SC8 SLP092

CYHM;2009-03-06 10:00;CYHM 061000Z 21013KT 15SM OVC028 10/05 A2979 RMK SC8 SLP092

CYHM;2009-03-06 11:00;CYHM 061100Z 23017KT 15SM OVC027 12/07 A2979 RMK SC8 SLP091

CYHM;2009-03-06 12:00;CYHM 061200Z 23018KT 15SM OVC025 12/07 A2978 RMK SC8 SLP090

CYHM;2009-03-06 13:00;CYHM 061300Z 22014KT 15SM OVC025 11/06 A2979 RMK SC8 SLP094

CYHM;2009-03-06 14:00;CYHM 061400Z 22020G25KT 15SM OVC024 11/07 A2979 RMK SC8 SLP093

CYHM;2009-03-06 15:00;CYHM 061500Z 24025G35KT 15SM BKN039 BKN045 12/08 A2977 RMK SC6SC2 SLP083

CYHM;2009-03-06 16:00;CYHM 061600Z 24022G28KT 15SM BKN022 OVC032 12/08 A2977 RMK SC6SC2 SLP085

CYHM;2009-03-06 17:00;CYHM 061700Z 24026KT 15SM OVC020 13/09 A2977 RMK SC8 SLP083

CYHM;2009-03-06 18:00;CYHM 061800Z 23022KT 15SM BKN018 OVC032 12/09 A2975 RMK SC6SC2 SLP076

CYHM;2009-03-06 19:00;CYHM 061900Z 23028G34KT 15SM FEW025 FEW220 16/10 A2971 RMK CU1CI0 CU TR CI TR SLP065

CYHM;2009-03-06 20:00;CYHM 062000Z 24020G34KT 15SM FEW025 SCT200 16/10 A2973 RMK CF2CI1 SLP069

CYHM;2009-03-06 21:00;CYHM 062100Z 24024G32KT 15SM FEW030 BKN170 16/10 A2977 RMK CF2AC2 SLP084

CYHM;2009-03-06 22:00;CYHM 062200Z 28016KT 15SM FEW023 BKN036 15/09 A2982 RMK CF2SC5 SLP099

CYHM;2009-03-06 23:00;CYHM 062300Z 26013KT 15SM FEW025 BKN050 13/05 A2985 RMK CF1SC6 SLP110

CYHM;2009-03-07 00:00;CYHM 070000Z 26009KT 12SM FEW055 FEW140 11/05 A2989 RMK SC2AC1 SLP125

CYHM;2009-03-07 01:00;CYHM 070100Z 30005KT 10SM FEW080 FEW210 07/04 A2994 RMK AC1CI1 SLP140

CYHM;2009-03-07 02:00;CYHM 070200Z 32007KT 8SM FEW210 06/03 A2997 RMK CI1 SLP153

CYHM;2009-03-07 03:00;CYHM 070300Z 33007KT 8SM SKC 04/02 A3000 RMK SLP164

CYHM;2009-03-07 04:00;CYHM 070400Z 00000KT 10SM FEW210 04/02 A3004 RMK CI1 SLP176

CYHM;2009-03-07 05:00;CYHM 070500Z 00000KT 8SM FEW210 03/01 A3005 RMK CI1 SLP182

CYHM;2009-03-07 06:00;CYHM 070600Z 00000KT 15SM PRFG SKC 01/01 A3007 RMK SLP188

CYHM;2009-03-07 07:00;CYHM 070700Z 26003KT 8SM PRFG FEW200 M00/M01 A3009 RMK CI1 SLP195

CYHM;2009-03-07 08:00;CYHM 070800Z 00000KT 7SM PRFG SKC M01/M01 A3009 RMK SLP196

CYHM;2009-03-07 08:29;CYHM 070829Z 00000KT 1SM BR FEW200 RMK FG2CI1 VIS VRB 3/4 - 11/4

CYHM;2009-03-07 09:00;CYHM 070900Z 00000KT 1SM BR FEW200 M01/M01 A3009 RMK FG2CI1 VIS VRB 3/4 - 11/4 SLP196

CYHM;2009-03-07 10:00;CYHM 071000Z 00000KT 3/4SM BR SKC M01/M01 A3008 RMK FG2 VIS VRB 1/2 - 1 SLP191

CYHM;2009-03-07 10:26;CYHM 071026Z 00000KT 8SM FEW043 RMK SC1

CYHM;2009-03-07 10:33;CYHM 071033Z 22002KT 3/4SM BR FEW043 RMK FG2SC1 VIS VRB 1/2 - 1

CYHM;2009-03-07 11:00;CYHM 071100Z 00000KT 3/4SM BR SCT045 M02/M02 A3009 RMK FG2SC1 VIS VRB 1/2 - 1 FROIN SLP194

CYHM;2009-03-07 11:36;CYHM 071136Z 00000KT 1/4SM FZFG SCT045 SCT220 RMK FG2SC1CI0

CYHM;2009-03-07 12:00;CYHM 071200Z 19002KT 1/8SM FZFG BKN220 M02/M02 A3009 RMK FG2CI2 SLP196

CYHM;2009-03-07 12:35;CYHM 071235Z 17003KT 1 1/4SM BR BKN240 RMK FG2CI3

CYHM;2009-03-07 12:49;CYHM 071249Z 15003KT 4SM BR BKN240 RMK CI5 VIS NE 8

CYHM;2009-03-07 13:00;CYHM 071300Z 08002KT 8SM BKN240 00/00 A3007 RMK CI6 SLP190

CYHM;2009-03-07 14:00;CYHM 071400Z 09004KT 8SM OVC180 02/02 A3006 RMK AC8 SLP186

CYHM;2009-03-07 15:00;CYHM 071500Z 05003KT 7SM OVC160 03/03 A3007 RMK AC8 SLP189

CYHM;2009-03-07 16:00;CYHM 071600Z 04006KT 7SM OVC023 04/02 A3004 RMK SC8 SLP182

CYHM;2009-03-07 16:10;CYHM 071610Z 05007KT 7SM -SHRA OVC021 RMK SC8

CYHM;2009-03-07 17:00;CYHM 071700Z 04009KT 5SM -SHRA BR OVC019 03/02 A3003 RMK SC8 SLP178

CYHM;2009-03-07 17:42;CYHM 071742Z 06008KT 2SM -SHRA BR BKN018 OVC046 RMK FG1SC6SC2

CYHM;2009-03-07 18:00;CYHM 071800Z CCA 06009KT 2SM -SHRA BR BKN018 OVC046 03/02 A2996 RMK FG1SC6SC2 PRESFR SLP153

CYHM;2009-03-07 19:00;CYHM 071900Z 05013KT 2SM -SHRA BR FEW003 SCT015 OVC037 02/02 A2993 RMK FG1CF1SC2SC5 SLP143

CYHM;2009-03-07 20:00;CYHM 072000Z 05012KT 2SM -SHRA BR FEW003 OVC014 02/02 A2992 RMK FG1CF1SC6 SLP141

CYHM;2009-03-07 20:08;CYHM 072008Z 05012KT 1 1/2SM -SHRA BR SCT003 OVC014 RMK FG2CF2SC5

CYHM;2009-03-07 21:00;CYHM 072100Z 04017KT 1SM RA BR BKN004 OVC019 03/02 A2989 RMK FG2SF4SC2 SLP130

CYHM;2009-03-07 21:10;CYHM 072110Z 05016KT 1 1/2SM -RA BR BKN003 OVC022 RMK FG2SF3SC3

CYHM;2009-03-07 21:52;CYHM 072152Z 05008KT 3/4SM -RA BR OVC002 RMK FG3SF5

CYHM;2009-03-07 22:00;CYHM 072200Z 05014KT 1/2SM -RA FG OVC002 02/02 A2986 RMK FG4SF4 SLP121

CYHM;2009-03-07 22:12;CYHM 072212Z 05014KT 1/8SM -RA FG VV002 RMK FG8

CYHM;2009-03-07 22:38;CYHM 072238Z 04012KT 1/2SM -RA FG VV002 RMK FG8

CYHM;2009-03-07 23:00;CYHM 072300Z 04012KT 1/2SM -DZ FG VV002 02/02 A2984 RMK FG8 SLP113

CYHM;2009-03-07 23:19;CYHM 072319Z 04015KT 1/4SM -RA FG VV002 RMK FG8

CYHM;2009-03-07 23:37;CYHM 072337Z 03014KT 1 1/2SM -RA BR OVC003 RMK FG2SF6

CYHM;2009-03-08 00:00;CYHM 080000Z 06016KT 2 1/2SM -RA BR BKN003 BKN018 OVC024 02/02 A2981 RMK SF5SC2SC1 SLP105

CYHM;2009-03-08 00:04;CYHM 080004Z 05012KT 2SM -TSRA BR BKN003 OVC026 RMK SF5SC3 CB EMBDED LITNG

CYHM;2009-03-08 00:15;CYHM 080015Z 05016KT 2 1/2SM -TSRA BR SCT003 BKN016 OVC033 RMK SF3SC4SC1 CB EMBDD LTNG

CYHM;2009-03-08 01:00;CYHM 080100Z 03014KT 3SM -TSRA BR BKN016 OVC039 02/02 A2981 RMK SC6SC2 CB EMBDD LTNG SLP105

CYHM;2009-03-08 02:00;CYHM 080200Z 03015KT 3SM -TSRA BR SCT005 OVC017 02/02 A2980 RMK SF4SC4 CB EMBDD SLP102

CYHM;2009-03-08 02:44;CYHM 080244Z 01007KT 4SM -RA BR SCT006 OVC015 RMK SF3SC5

CYHM;2009-03-08 03:00;CYHM 080300Z 35006KT 3SM -RA BR SCT006 BKN016 OVC028 03/03 A2988 RMK SF4SC3SC1 SLP126

CYHM;2009-03-08 04:00;CYHM 080400Z 03010KT 2SM -RA BR OVC025 03/03 A2984 RMK FG1SC7 SLP112

CYHM;2009-03-08 05:00;CYHM 080500Z 00000KT 2SM -RA BR OVC025 03/03 A2987 RMK FG1SC7 SLP123

CYHM;2009-03-08 06:00;CYHM 080600Z 17002KT 3/4SM -RA BR OVC010 03/03 A2988 RMK FG3SC5 VIS VRB 1/2 - 1 /R26/ SLP128

CYHM;2009-03-08 07:00;CYHM 080700Z 29003KT 2SM -RA BR OVC020 03/03 A2992 RMK FG1SC7 SLP140

CYHM;2009-03-08 08:00;CYHM 080800Z 28004KT 1SM BR OVC015 03/03 A2993 RMK FG2SC6 VIS VRB 3/4 - 11/4 SLP143

CYHM;2009-03-08 08:27;CYHM 080827Z 26004KT 10SM OVC030 RMK SC8

CYHM;2009-03-08 09:00;CYHM 080900Z 28005KT 3SM BR FEW030 SCT090 02/02 A2993 RMK SC2AC2 VIS VRB 2 - 4 SLP143

CYHM;2009-03-08 10:00;CYHM 081000Z 28002KT 12SM FEW030 FEW200 02/02 A2994 RMK SC1CI1 SLP148

CYHM;2009-03-08 10:15;CYHM 081015Z 24004KT 3/4SM BR SCT030 RMK FG3SC1 VIS VRB 1/2 - 1

CYHM;2009-03-08 10:25;CYHM 081025Z 29005KT 10SM PRFG FEW100 RMK AC2

CYHM;2009-03-08 11:00;CYHM 081100Z 00000KT 5SM BR BKN080 01/01 A2997 RMK AC6 SLP157

CYHM;2009-03-08 11:49;CYHM 081149Z CCA 00000KT 3SM BR BKN011 BKN080 RMK SC6AC1

CYHM;2009-03-08 12:00;CYHM 081200Z 00000KT 4SM BR FEW002 BKN011 BKN080 01/01 A2999 RMK CF1SC4AC2 SLP163

CYHM;2009-03-08 13:00;CYHM 081300Z 00000KT 4SM BR BKN023 BKN080 02/02 A3002 RMK SC6AC1 SLP173

CYHM;2009-03-08 14:00;CYHM 081400Z 03003KT 6SM BR SCT025 BKN100 BKN250 02/02 A3000 RMK SC3AC2CI1 SLP167

CYHM;2009-03-08 15:00;CYHM 081500Z 04010KT 6SM BR BKN020 OVC100 03/03 A2998 RMK SC7AC1 SLP161

CYHM;2009-03-08 16:00;CYHM 081600Z 05014KT 4SM BR OVC020 02/02 A3000 RMK SC8 SLP167

CYHM;2009-03-08 17:00;CYHM 081700Z 07012KT 4SM BR BKN010 OVC100 02/02 A3000 RMK SC6AC2 SLP166

CYHM;2009-03-08 18:00;CYHM 081800Z CCA 07012KT 4SM BR BKN006 OVC100 03/02 A2999 RMK SC7AC1 SLP163

CYHM;2009-03-08 19:00;CYHM 081900Z 08014KT 4SM BR BKN005 OVC100 02/01 A2993 RMK SC6AC2 PRESFR SLP143

CYHM;2009-03-08 20:00;CYHM 082000Z 05012KT 7SM BKN006 OVC100 02/01 A2992 RMK SC7AC1 SLP141

CYHM;2009-03-08 20:43;CYHM 082043Z 06012KT 7SM SCT006 OVC100 RMK SC4AC4

CYHM;2009-03-08 21:00;CYHM 082100Z 05014KT 6SM BR FEW006 OVC100 02/01 A2990 RMK SC2AC6 SLP134

CYHM;2009-03-08 22:00;CYHM 082200Z 07015KT 7SM OVC100 02/01 A2985 RMK AC8 SLP118

CYHM;2009-03-08 23:00;CYHM 082300Z 06017G22KT 7SM OVC080 02/01 A2982 RMK AC8 SLP107

CYHM;2009-03-09 00:00;CYHM 090000Z 06020KT 6SM -SHRA BR OVC060 02/01 A2976 RMK SC8 PRESFR SLP086

CYHM;2009-03-09 01:00;CYHM 090100Z 06018G23KT 5SM -SHRA BR OVC030 03/02 A2974 RMK SC8 SLP078

CYHM;2009-03-09 01:22;CYHM 090122Z 06018KT 2SM +SHRA BR OVC020 RMK RA1SC7

CYHM;2009-03-09 02:00;CYHM 090200Z 05018KT 2SM -SHRA BR OVC025 02/02 A2970 RERA RMK FG1SC7 SLP066

CYHM;2009-03-09 02:19;CYHM 090219Z 06018KT 3/4SM -SHRA BR OVC010 RERA RMK FG3SC5 VIS VRB 1/2 - 1

CYHM;2009-03-09 03:00;CYHM 090300Z 05018G24KT 1/2SM -SHRA FG OVC010 02/02 A2966 RMK FG4SC4 SLP052

CYHM;2009-03-09 03:17;CYHM 090317Z 02018G24KT 3/4SM -SHRA BR OVC015 RMK FG3SC5 VIS VRB 1/2 - 1

CYHM;2009-03-09 04:00;CYHM 090400Z 05017KT 1/2SM -SHRA FG OVC010 02/02 A2966 RMK FG4SC4 SLP053

CYHM;2009-03-09 04:13;CYHM 090413Z 05018G24KT 1/4SM -SHRA FG VV005 RMK FG8

CYHM;2009-03-09 05:00;CYHM 090500Z 05018G25KT 3/4SM -SHRA BR VV007 01/01 A2963 RMK FG8 VIS VRB 1/2 - 1 SLP042

CYHM;2009-03-09 06:00;CYHM 090600Z 05017KT 1/2SM -SHRA FG VV005 01/01 A2963 RMK FG8 SLP043

CYHM;2009-03-09 07:00;CYHM 090700Z 04011KT 1/2SM -RA FG VV005 01/01 A2962 RMK FG8 SLP039

CYHM;2009-03-09 08:00;CYHM 090800Z 03009KT 1SM -RA BR OVC010 01/01 A2962 RMK FG2SC6 VIS VRB 3/4 - 11/4 SLP037

CYHM;2009-03-09 09:00;CYHM 090900Z 00000KT 1 1/2SM -DZ BR OVC008 01/01 A2962 RMK FG2SF6 VIS VRB 1 - 2 SLP040

CYHM;2009-03-09 10:00;CYHM 091000Z 35005KT 2SM -DZ BR OVC010 01/01 A2966 RMK FG1SC7 SLP053

CYHM;2009-03-09 10:49;CYHM 091049Z 33004KT 4SM BR SCT006 OVC012 RMK SF3SC5

CYHM;2009-03-09 11:00;CYHM 091100Z 35006KT 5SM BR FEW006 OVC012 01/01 A2973 RMK SF2SC6 SLP075

CYHM;2009-03-09 11:48;CYHM 091148Z 35005KT 5SM -RA BR SCT006 OVC012 RMK SF4SC4

CYHM;2009-03-09 12:00;CYHM 091200Z 35006KT 4SM -RA BR SCT006 OVC011 01/01 A2979 RMK SF4SC4 SLP097

CYHM;2009-03-09 12:33;CYHM 091233Z 35006KT 5SM BR SCT007 OVC013 RMK SF3SC5 RERA

CYHM;2009-03-09 13:00;CYHM 091300Z 35004KT 4SM BR SCT005 OVC013 01/01 A2987 RMK SF4SC4 SLP123

CYHM;2009-03-09 14:00;CYHM 091400Z 33013KT 6SM -DZ BR SCT007 OVC013 01/M00 A2996 RMK SF4SC4 SLP152

CYHM;2009-03-09 14:42;CYHM 091442Z 34012KT 15SM BKN014 BKN020 RMK SC5SC2

CYHM;2009-03-09 15:00;CYHM 091500Z 33008KT 15SM BKN014 BKN030 01/M01 A3002 RMK SC6SC2 SLP174

CYHM;2009-03-09 16:00;CYHM 091600Z 32012KT 15SM BKN016 OVC032 01/M01 A3007 RMK SC6SC2 SLP191

CYHM;2009-03-09 17:00;CYHM 091700Z 31008KT 15SM BKN019 BKN035 02/M01 A3010 RMK SC5SC2 SLP202

CYHM;2009-03-09 18:00;CYHM 091800Z 28005KT 15SM FEW015 BKN022 BKN035 02/M01 A3013 RMK CU2SC4SC2 SLP212

CYHM;2009-03-09 19:00;CYHM 091900Z 29011KT 15SM BKN018 03/M00 A3014 RMK SC7 SF ASOCTD SLP217

CYHM;2009-03-09 20:00;CYHM 092000Z 28009KT 15SM BKN022 03/00 A3017 RMK SC6 SLP224

CYHM;2009-03-09 21:00;CYHM 092100Z 30006KT 15SM BKN019 03/M01 A3018 RMK SC7 SLP230

CYHM;2009-03-09 22:00;CYHM 092200Z 29006KT 15SM OVC018 03/M00 A3021 RMK SC8 SLP238

CYHM;2009-03-09 23:00;CYHM 092300Z 33006KT 15SM OVC016 02/M01 A3021 RMK SC8 SLP240

CYHM;2009-03-10 00:00;CYHM 100000Z 32004KT 15SM OVC014 01/M01 A3024 RMK SC8 SLP251

CYHM;2009-03-10 01:00;CYHM 100100Z 29003KT 15SM OVC014 01/M02 A3027 RMK SC8 SLP259

CYHM;2009-03-10 02:00;CYHM 100200Z 25003KT 15SM OVC012 01/M01 A3029 RMK SC8 SLP267

CYHM;2009-03-10 03:00;CYHM 100300Z 24003KT 12SM OVC012 00/M02 A3030 RMK SC8 SLP269

CYHM;2009-03-10 04:00;CYHM 100400Z 20002KT 12SM OVC012 00/M02 A3028 RMK SC8 SLP265

CYHM;2009-03-10 05:00;CYHM 100500Z 15002KT 12SM OVC011 00/M02 A3028 RMK SC8 SLP264

CYHM;2009-03-10 06:00;CYHM 100600Z 17002KT 12SM OVC012 00/M01 A3027 RMK SC8 SLP260

CYHM;2009-03-10 07:00;CYHM 100700Z 23003KT 10SM OVC012 00/M01 A3027 RMK SC8 SLP260

CYHM;2009-03-10 08:00;CYHM 100800Z 16002KT 10SM OVC014 00/M01 A3024 RMK SC8 SLP251

CYHM;2009-03-10 09:00;CYHM 100900Z 10005KT 10SM OVC013 M00/M01 A3023 RMK SC8 SLP245

CYHM;2009-03-10 10:00;CYHM 101000Z 07008KT 12SM OVC013 M00/M01 A3020 RMK SC8 SLP238

CYHM;2009-03-10 11:00;CYHM 101100Z 07006KT 15SM OVC014 M00/M01 A3019 RMK SC8 SLP233

CYHM;2009-03-10 12:00;CYHM 101200Z 06006KT 6SM BR OVC013 00/M01 A3019 RMK SC8 SLP234

CYHM;2009-03-10 13:00;CYHM 101300Z 07008KT 5SM BR OVC014 00/M01 A3017 RMK SC8 SLP228

CYHM;2009-03-10 14:00;CYHM 101400Z 07010KT 6SM BR SCT020 OVC110 01/M00 A3017 RMK SC3AC5 SLP225

CYHM;2009-03-10 15:00;CYHM 101500Z 05011KT 6SM BR BKN083 OVC100 01/M00 A3015 RMK AC6AC2 SLP221

CYHM;2009-03-10 15:40;CYHM 101540Z 06012KT 5SM BR SCT006 OVC072 RMK SF3AC5

CYHM;2009-03-10 16:00;CYHM 101600Z CCA 05008KT 5SM -SHRA BR FEW006 BKN048 OVC070 01/00 A3016 RMK SF2SC4AC2 SLP222

CYHM;2009-03-10 16:08;CYHM 101608Z 06008KT 2SM -SHRA BR SCT005 BKN018 OVC045 RMK SF4SC2SC2

CYHM;2009-03-10 16:43;CYHM 101643Z 05014KT 1 1/2SM -SHRA BR BKN004 OVC038 RMK FG2SF3SC2

CYHM;2009-03-10 17:00;CYHM 101700Z 06010KT 1 1/2SM -SHRA BR SCT004 BKN016 OVC030 01/00 A3009 RMK FG2SF2SC3SC1 SLP200

CYHM;2009-03-10 17:33;CYHM 101733Z 07013KT 1 1/2SM -SHRA BR BKN005 OVC018 RMK FG2SF6SC1

CYHM;2009-03-10 18:00;CYHM 101800Z 06012KT 1 1/2SM -SHRA BR OVC003 01/01 A3004 RMK FG2SF6 SLP180

CYHM;2009-03-10 19:00;CYHM 101900Z 06013KT 1 1/4SM -RA BR OVC004 01/01 A2999 RMK FG3SC5 SLP166

CYHM;2009-03-10 19:50;CYHM 101950Z 07009KT 1/2SM FG OVC002 RMK FG4SF4

CYHM;2009-03-10 20:00;CYHM 102000Z 07011KT 1/2SM FG OVC002 01/01 A2996 RMK FG4SF4 SLP155

CYHM;2009-03-10 20:44;CYHM 102044Z 06010KT 3/8SM -SHRA FG OVC002 RMK FG4SF4

CYHM;2009-03-10 21:00;CYHM 102100Z 05009KT 3/8SM -SHRA FG OVC002 01/01 A2995 RMK FG4SF4 SLP153

CYHM;2009-03-10 22:00;CYHM 102200Z 05010KT 1/4SM -SHRA FG OVC002 01/01 A2994 RMK FG4SF4 SLP149

CYHM;2009-03-10 23:00;CYHM 102300Z 05009KT 1/4SM -SHRA FG OVC002 01/01 A2992 RMK FG5SF3 SLP141

CYHM;2009-03-11 00:00;CYHM 110000Z 06007KT 1/4SM -SHRA FG OVC002 01/01 A2988 RMK FG4SF4 SLP129

CYHM;2009-03-11 01:00;CYHM 110100Z 03006KT 1/8SM -RA FG VV001 02/02 A2989 RMK FG8 SLP130

CYHM;2009-03-11 02:00;CYHM 110200Z 05005KT 1/8SM -RA FG VV001 02/02 A2985 RMK FG8 SLP117

CYHM;2009-03-11 03:00;CYHM 110300Z 15006KT 1 1/4SM -RA BR OVC003 03/03 A2983 RMK FG4SF4 SLP111

CYHM;2009-03-11 04:00;CYHM 110400Z 17008KT 1 3/4SM -RA BR OVC004 04/04 A2978 RMK FG2SF6 SLP092

CYHM;2009-03-11 05:00;CYHM 110500Z 19008KT 1 3/4SM -RA BR OVC004 05/05 A2977 RMK FG2SC6 SLP091

CYHM;2009-03-11 06:00;CYHM 110600Z 17012KT 2SM -RA BR BKN003 OVC020 05/05 A2974 RMK FG1SF4SC3 SLP079

CYHM;2009-03-11 07:00;CYHM 110700Z 15012G19KT 2 1/4SM -RA BR OVC002 05/05 A2964 RMK SF8 SLP044

CYHM;2009-03-11 08:00;CYHM 110800Z 22006KT 1 3/4SM -RA BR OVC003 06/06 A2965 RMK FG2SF6 SLP048

CYHM;2009-03-11 09:00;CYHM 110900Z 18010KT 1 1/2SM -RA BR SCT003 BKN008 OVC022 06/06 A2964 RMK SF3SF2SC2 SLP044

CYHM;2009-03-11 09:45;CYHM 110945Z 20013KT 5SM -SHRA BR SCT003 OVC008 RMK SF3SC5

CYHM;2009-03-11 10:00;CYHM 111000Z 20012KT 5SM -SHRA BR SCT003 OVC007 07/07 A2961 RMK SF3SC5 SLP033

CYHM;2009-03-11 10:41;CYHM 111041Z 23016KT 6SM BR SCT006 BKN012 OVC024 RMK SF4SC2SC2

CYHM;2009-03-11 11:00;CYHM 111100Z 24016G22KT 6SM BR FEW009 BKN016 OVC029 10/10 A2962 RMK SF2SC4SC2 SLP037

CYHM;2009-03-11 12:00;CYHM 111200Z 25026G36KT 15SM BKN026 OVC038 08/05 A2968 RMK SC5SC3 SLP058

CYHM;2009-03-11 13:00;CYHM 111300Z 26018G26KT 15SM FEW018 BKN025 BKN035 BKN220 06/02 A2976 RMK CU2SC3SC2CI1 SLP083

CYHM;2009-03-11 14:00;CYHM 111400Z 26020G26KT 15SM FEW025 SCT036 BKN210 04/M00 A2980 RMK CU2SC2CI2 SLP098

CYHM;2009-03-11 15:00;CYHM 111500Z 25032G40KT 15SM FEW028 BKN042 05/M01 A2984 RMK CU2SC3 SLP111

CYHM;2009-03-11 16:00;CYHM 111600Z 24022G30KT 15SM FEW028 BKN044 04/M02 A2988 RMK CU1SC6 SLP125

CYHM;2009-03-11 17:00;CYHM 111700Z 26030G35KT 15SM FEW032 BKN042 BKN210 03/M04 A2993 RMK CU2SC3CI0 CI TR SLP142

CYHM;2009-03-11 18:00;CYHM 111800Z 25025G32KT 15SM FEW028 BKN040 02/M05 A2998 RMK CU2SC5 SLP159

CYHM;2009-03-11 19:00;CYHM 111900Z 24024G38KT 15SM BKN035 BKN250 03/M05 A3001 RMK SC6CI1 CI TR SLP168

CYHM;2009-03-11 20:00;CYHM 112000Z 26022G32KT 15SM BKN034 BKN250 01/M05 A3006 RMK SC6CI1 CI TR SLP185

CYHM;2009-03-11 21:00;CYHM 112100Z 26020G32KT 15SM BKN032 BKN250 00/M06 A3012 RMK SC5CI1 CU ASOCTD SLP207

CYHM;2009-03-11 22:00;CYHM 112200Z 28024G38KT 15SM BKN036 BKN250 M01/M08 A3017 RMK SC6CI1 CI TR CIG RGD SLP225

CYHM;2009-03-11 23:00;CYHM 112300Z 26020G29KT 15SM BKN036 M02/M09 A3022 RMK SC5 VIRGA NE SLP242

CYHM;2009-03-12 00:00;CYHM 120000Z 29017G22KT 15SM -SHSN BKN043 M03/M09 A3028 RMK SC6 PRESRR SLP262

CYHM;2009-03-12 01:00;CYHM 120100Z 28017G24KT 15SM -SHSN BKN045 M03/M10 A3032 RMK SC6 SLP277

CYHM;2009-03-12 02:00;CYHM 120200Z 27016G24KT 15SM BKN048 M03/M10 A3035 RMK SC5 SLP286

CYHM;2009-03-12 03:00;CYHM 120300Z 28010KT 15SM BKN048 M03/M09 A3037 RMK SC7 SLP294

CYHM;2009-03-12 03:20;CYHM 120320Z 29014G19KT 6SM -SHSN OVC025 RMK SC8

CYHM;2009-03-12 03:46;CYHM 120346Z 30011KT 2SM -SHSN OVC050 RMK SN1SC7

CYHM;2009-03-12 03:49;CYHM 120349Z 30011KT 5SM -SHSN OVC048 RMK SC8

CYHM;2009-03-12 04:00;CYHM 120400Z 29012KT 8SM -SHSN BKN051 M04/M07 A3038 RMK SC7 SLP299

CYHM;2009-03-12 05:00;CYHM 120500Z 29012KT 12SM FEW030 BKN054 M05/M08 A3041 RMK CF1SC6 SLP307

CYHM;2009-03-12 06:00;CYHM 120600Z 30008KT 6SM -SHSN FEW016 BKN053 M05/M08 A3042 RMK CF2SC6 SLP314

CYHM;2009-03-12 07:00;CYHM 120700Z 31007KT 12SM FEW015 BKN051 M05/M08 A3043 RMK CF1SC6 SLP317

CYHM;2009-03-12 08:00;CYHM 120800Z 29008KT 15SM FEW022 BKN053 M05/M09 A3043 RMK CF1SC6 SLP318

CYHM;2009-03-12 09:00;CYHM 120900Z 33011KT 15SM -SHSN FEW025 BKN054 M06/M10 A3045 RMK CF2SC6 SLP323

CYHM;2009-03-12 10:00;CYHM 121000Z 31009KT 15SM BKN052 M06/M11 A3049 RMK SC7 SLP336

CYHM;2009-03-12 11:00;CYHM 121100Z 34013KT 15SM -SHSN BKN027 OVC052 M06/M10 A3051 RMK SC6SC2 SLP344

CYHM;2009-03-12 11:37;CYHM 121137Z 33010KT 15SM BKN054 RMK SC7

CYHM;2009-03-12 12:00;CYHM 121200Z 33008KT 15SM FEW025 BKN053 M07/M12 A3053 RMK CU2SC5 SLP353

CYHM;2009-03-12 13:00;CYHM 121300Z 33010KT 15SM FEW025 BKN053 BKN110 M06/M13 A3055 RMK CU1SC4AC2 SLP359

CYHM;2009-03-12 14:00;CYHM 121400Z 34009KT 15SM SCT032 BKN050 BKN220 M06/M12 A3057 RMK CU3SC2CI1 CONTRAIL SLP366

CYHM;2009-03-12 15:00;CYHM 121500Z 33010KT 15SM FEW037 SCT055 BKN220 M05/M12 A3058 RMK CU2SC1CI2 CONTRAIL SLP368

CYHM;2009-03-12 16:00;CYHM 121600Z 28010KT 15SM FEW040 SCT055 BKN220 M05/M12 A3058 RMK CU2SC1CI2 CONTRAIL SLP370

CYHM;2009-03-12 17:00;CYHM 121700Z 29010KT 15SM FEW030 BKN038 M05/M11 A3059 RMK CU1SC6 SLP371

CYHM;2009-03-12 18:00;CYHM 121800Z 27015KT 15SM FEW040 SCT050 BKN180 M04/M12 A3058 RMK CU2SC2AC1 SLP368

CYHM;2009-03-12 19:00;CYHM 121900Z 27009KT 15SM BKN043 BKN220 M04/M12 A3056 RMK SC6CI1 SLP362

CYHM;2009-03-12 20:00;CYHM 122000Z 31009KT 15SM BKN040 BKN240 M05/M13 A3054 RMK SC5CI0 SLP357

CYHM;2009-03-12 21:00;CYHM 122100Z CCA 28008KT 15SM BKN043 BKN250 M04/M13 A3053 RMK SC5CI0 SLP354

CYHM;2009-03-12 22:00;CYHM 122200Z 28008KT 240V340 15SM SCT044 BKN250 M05/M13 A3053 RMK SC3CI1 SLP352

CYHM;2009-03-12 23:00;CYHM 122300Z 28006KT 15SM FEW044 BKN250 M05/M14 A3054 RMK SC2CI2 SLP355

CYHM;2009-03-13 00:00;CYHM 130000Z 28006KT 15SM FEW045 BKN250 M06/M13 A3053 RMK SC1CI2 SLP354

CYHM;2009-03-13 01:00;CYHM 130100Z CCA 27006KT 15SM FEW045 SCT250 M06/M13 A3053 RMK SC1CI1 SC TR SLP355

CYHM;2009-03-13 02:00;CYHM 130200Z 28004KT 15SM FEW250 M07/M13 A3055 RMK CI1 SLP359

CYHM;2009-03-13 03:00;CYHM 130300Z 28004KT 15SM FEW250 M07/M12 A3055 RMK CI1 SLP360

CYHM;2009-03-13 04:00;CYHM 130400Z 00000KT 15SM FEW250 M08/M13 A3055 RMK CI1 SLP361

CYHM;2009-03-13 05:00;CYHM 130500Z 00000KT 15SM FEW250 M08/M12 A3054 RMK CI1 SLP357

CYHM;2009-03-13 06:00;CYHM 130600Z 00000KT 15SM FEW250 M09/M12 A3054 RMK CI1 SLP356

CYHM;2009-03-13 07:00;CYHM 130700Z 00000KT 15SM FEW250 M09/M11 A3054 RMK CI1 SLP358

CYHM;2009-03-13 08:00;CYHM 130800Z 00000KT 15SM FEW250 M10/M12 A3053 RMK CI0 SLP353

CYHM;2009-03-13 09:00;CYHM 130900Z 00000KT 15SM FEW250 M10/M12 A3052 RMK CI1 SLP351

CYHM;2009-03-13 10:00;CYHM 131000Z 00000KT 15SM SCT250 M10/M12 A3052 RMK CI1 SLP351

CYHM;2009-03-13 11:00;CYHM 131100Z 00000KT 15SM FEW170 SCT240 M10/M12 A3053 RMK AC1CI1 SLP355

CYHM;2009-03-13 12:00;CYHM 131200Z 06003KT 15SM SCT160 BKN220 M10/M12 A3053 RMK AC4CI2 SLP354

CYHM;2009-03-13 13:00;CYHM 131300Z 08004KT 15SM BKN170 BKN220 M07/M11 A3052 RMK AC5CI1 SLP351

CYHM;2009-03-13 14:00;CYHM 131400Z 09004KT 15SM FEW024 FEW160 BKN220 M06/M11 A3051 RMK CU2AC1CI2 SLP348

CYHM;2009-03-13 15:00;CYHM 131500Z 15004KT 15SM SCT024 SCT170 BKN210 M06/M10 A3050 RMK CU3AC1CI1 SLP345

CYHM;2009-03-13 16:00;CYHM 131600Z 13006KT 15SM FEW024 SCT220 M04/M11 A3049 RMK CU2CI1 SLP339

CYHM;2009-03-13 17:00;CYHM 131700Z 18008KT 15SM FEW024 SCT220 M03/M11 A3046 RMK CU1CI1 SLP330

CYHM;2009-03-13 18:00;CYHM 131800Z 23006KT 15SM FEW024 FEW220 M02/M10 A3043 RMK CU1CI0 CI TR CONTRAIL SLP318

CYHM;2009-03-13 19:00;CYHM 131900Z 13003KT 15SM FEW030 FEW250 M02/M11 A3038 RMK CU1CI1 TR CU CONTRAIL SLP303

CYHM;2009-03-13 20:00;CYHM 132000Z 18005KT 15SM FEW030 FEW200 M01/M10 A3036 RMK CU1CI1 SLP296

CYHM;2009-03-13 21:00;CYHM 132100Z 19007KT 15SM SKC M01/M10 A3035 RMK SLP293

CYHM;2009-03-13 22:00;CYHM 132200Z 19006KT 15SM FEW200 M01/M10 A3033 RMK CI1 SLP285

CYHM;2009-03-13 23:00;CYHM 132300Z 23003KT 15SM FEW160 FEW220 M02/M09 A3031 RMK AC1CI1 CONTRAILS SLP279

CYHM;2009-03-14 00:00;CYHM 140000Z 19002KT 15SM FEW160 M03/M09 A3030 RMK AC1 SLP275

CYHM;2009-03-14 01:00;CYHM 140100Z 20004KT 15SM FEW200 M03/M10 A3030 RMK CI1 SLP274

CYHM;2009-03-14 02:00;CYHM 140200Z 21005KT 15SM FEW200 M05/M09 A3029 RMK CI1 SLP273

CYHM;2009-03-14 03:00;CYHM 140300Z 21007KT 15SM FEW210 M05/M09 A3029 RMK CI1 SLP270

CYHM;2009-03-14 04:00;CYHM 140400Z 21008KT 15SM SKC M05/M09 A3028 RMK SLP267

CYHM;2009-03-14 05:00;CYHM 140500Z 23008KT 15SM FEW210 M05/M10 A3026 RMK CI1 SLP261

CYHM;2009-03-14 06:00;CYHM 140600Z 23010KT 15SM SKC M05/M10 A3025 RMK SLP257

CYHM;2009-03-14 07:00;CYHM 140700Z 24009KT 15SM FEW210 M05/M10 A3025 RMK CI1 SLP257

CYHM;2009-03-14 08:00;CYHM 140800Z 23007KT 15SM FEW210 M06/M10 A3025 RMK CI1 SLP256

CYHM;2009-03-14 09:00;CYHM 140900Z 24006KT 15SM SKC M06/M10 A3023 RMK SLP248

CYHM;2009-03-14 10:00;CYHM 141000Z 24007KT 15SM FEW200 M06/M10 A3023 RMK CI1 SLP251

CYHM;2009-03-14 11:00;CYHM 141100Z 24002KT 15SM FEW220 M06/M10 A3024 RMK CI1 SLP254

CYHM;2009-03-14 12:00;CYHM 141200Z 20003KT 15SM FEW220 M06/M09 A3025 RMK CI1 SLP258

CYHM;2009-03-14 13:00;CYHM 141300Z 23004KT 15SM FEW220 M04/M07 A3026 RMK CI1 SLP259

CYHM;2009-03-14 14:00;CYHM 141400Z 22005KT 15SM FEW220 M02/M06 A3026 RMK CI1 SLP259

CYHM;2009-03-14 15:00;CYHM 141500Z 24004KT 15SM FEW220 01/M05 A3026 RMK CI1 SLP257

CYHM;2009-03-14 16:00;CYHM 141600Z 24006KT 180V270 15SM FEW220 03/M06 A3025 RMK CI1 SLP256

CYHM;2009-03-14 17:00;CYHM 141700Z 25008KT 180V270 15SM FEW220 05/M06 A3023 RMK CI1 SLP250

CYHM;2009-03-14 18:00;CYHM 141800Z 24008KT 15SM FEW220 06/M05 A3021 RMK CI1 SLP241

CYHM;2009-03-14 19:00;CYHM 141900Z 24011KT 15SM FEW200 06/M05 A3019 RMK CI1 SLP232

CYHM;2009-03-14 20:00;CYHM 142000Z 22006KT 180V250 15SM FEW220 07/M03 A3017 RMK CI1 SLP227

CYHM;2009-03-14 21:00;CYHM 142100Z 19010KT 15SM SCT250 06/M02 A3017 RMK CI2 SLP225

CYHM;2009-03-14 22:00;CYHM 142200Z 22006KT 15SM SCT250 07/M05 A3016 RMK CI2 SLP223

CYHM;2009-03-14 23:00;CYHM 142300Z 18005KT 15SM SCT250 04/M03 A3016 RMK CI2 SLP222

CYHM;2009-03-15 00:00;CYHM 150000Z 18005KT 15SM SCT210 03/M04 A3016 RMK CI2 SLP224

CYHM;2009-03-15 01:00;CYHM 150100Z 20002KT 15SM FEW210 01/M05 A3016 RMK CI1 SLP224

CYHM;2009-03-15 02:00;CYHM 150200Z 19003KT 15SM SKC M00/M06 A3016 RMK SLP224

CYHM;2009-03-15 03:00;CYHM 150300Z 00000KT 15SM SKC M00/M06 A3016 RMK SLP222

CYHM;2009-03-15 04:00;CYHM 150400Z 00000KT 15SM SKC M02/M07 A3015 RMK SLP219

CYHM;2009-03-15 05:00;CYHM 150500Z 00000KT 15SM FEW200 M02/M06 A3014 RMK CI1 SLP218

CYHM;2009-03-15 06:00;CYHM 150600Z 20003KT 15SM SKC M03/M06 A3015 RMK SLP218

CYHM;2009-03-15 07:00;CYHM 150700Z 00000KT 15SM SKC M04/M06 A3015 RMK SLP218

CYHM;2009-03-15 08:00;CYHM 150800Z 00000KT 15SM SKC M03/M05 A3013 RMK SLP212

CYHM;2009-03-15 09:00;CYHM 150900Z 00000KT 15SM SKC M04/M05 A3013 RMK FROIN SLP212

CYHM;2009-03-15 10:00;CYHM 151000Z 00000KT 15SM SKC M04/M05 A3015 RMK FROIN SLP218

CYHM;2009-03-15 11:00;CYHM 151100Z 00000KT 15SM FEW220 M04/M05 A3016 RMK CI1 SLP222

CYHM;2009-03-15 12:00;CYHM 151200Z 00000KT 15SM FEW220 M03/M05 A3017 RMK CI1 SLP228

CYHM;2009-03-15 13:00;CYHM 151300Z 00000KT 15SM SKC 00/M03 A3018 RMK FU ALOFT DSNT SW SLP231

CYHM;2009-03-15 14:00;CYHM 151400Z 00000KT 15SM SKC 03/M07 A3019 RMK SLP233

CYHM;2009-03-15 15:00;CYHM 151500Z 00000KT 15SM SKC 06/M08 A3019 RMK SLP232

CYHM;2009-03-15 16:00;CYHM 151600Z 00000KT 15SM SKC 08/M07 A3019 RMK SLP231

CYHM;2009-03-15 17:00;CYHM 151700Z 00000KT 15SM SKC 09/M07 A3018 RMK SLP230

CYHM;2009-03-15 18:00;CYHM 151800Z 05002KT 15SM SKC 10/M06 A3018 RMK SLP227

CYHM;2009-03-15 19:00;CYHM 151900Z 24002KT 15SM SKC 10/M06 A3016 RMK SLP221

CYHM;2009-03-15 20:00;CYHM 152000Z 00000KT 15SM SKC 11/M06 A3015 RMK SLP217

CYHM;2009-03-15 21:00;CYHM 152100Z 00000KT 15SM SKC 11/M06 A3014 RMK SLP216

CYHM;2009-03-15 22:00;CYHM 152200Z 07002KT 15SM FEW150 FEW200 10/M03 A3015 RMK AC1CI1 AC TR CI TR SLP218

CYHM;2009-03-15 23:00;CYHM 152300Z 07005KT 15SM FEW180 SCT250 07/M03 A3017 RMK AC1CI1 SLP223

CYHM;2009-03-16 00:00;CYHM 160000Z 04005KT 15SM FEW180 FEW250 04/M04 A3019 RMK AC1CI1 AC TR SLP232

CYHM;2009-03-16 01:00;CYHM 160100Z 02004KT 15SM FEW250 02/M02 A3019 RMK CI1 SLP233

CYHM;2009-03-16 02:00;CYHM 160200Z 02005KT 15SM SKC 01/M02 A3020 RMK SLP237

CYHM;2009-03-16 03:00;CYHM 160300Z 02005KT 15SM FEW210 01/M03 A3021 RMK CI1 SLP238

CYHM;2009-03-16 04:00;CYHM 160400Z 04007KT 15SM SKC 00/M04 A3021 RMK SLP239

CYHM;2009-03-16 05:00;CYHM 160500Z 04007KT 15SM FEW210 M00/M05 A3021 RMK CI1 SLP237

CYHM;2009-03-16 06:00;CYHM 160600Z 05007KT 15SM FEW200 M00/M04 A3022 RMK CI1 SLP242

CYHM;2009-03-16 07:00;CYHM 160700Z 02007KT 15SM FEW200 M01/M04 A3023 RMK CI1 SLP246

CYHM;2009-03-16 08:00;CYHM 160800Z 03006KT 15SM FEW200 M00/M05 A3023 RMK CI1 SLP246

CYHM;2009-03-16 09:00;CYHM 160900Z 04009KT 15SM FEW200 00/M05 A3023 RMK CI2 SLP242

CYHM;2009-03-16 10:00;CYHM 161000Z 04008KT 15SM FEW160 BKN210 00/M05 A3022 RMK AC1CI2 SLP241

CYHM;2009-03-16 11:00;CYHM 161100Z 04010KT 15SM FEW150 BKN210 00/M05 A3024 RMK AC2CI2 SLP247

CYHM;2009-03-16 12:00;CYHM 161200Z 04012KT 15SM FEW150 BKN210 01/M04 A3024 RMK AC2CI3 SLP249

CYHM;2009-03-16 13:00;CYHM 161300Z 05012KT 15SM FEW170 BKN210 01/M04 A3026 RMK AC2CI3 SLP254

CYHM;2009-03-16 14:00;CYHM 161400Z 05012KT 15SM FEW180 BKN210 03/M03 A3026 RMK AC2CI3 SLP255

CYHM;2009-03-16 15:00;CYHM 161500Z 03013KT 15SM FEW180 BKN210 04/M03 A3027 RMK AC2CI2 SLP259

CYHM;2009-03-16 16:00;CYHM 161600Z 05014KT 15SM FEW150 BKN210 05/M03 A3026 RMK AC2CI2 SLP256

CYHM;2009-03-16 17:00;CYHM 161700Z 05016KT 15SM SCT150 BKN220 05/M01 A3025 RMK AC3CI2 SLP252

CYHM;2009-03-16 18:00;CYHM 161800Z 06017KT 15SM FEW140 FEW180 BKN220 06/M02 A3023 RMK AC1AC2CI2 SLP246

CYHM;2009-03-16 19:00;CYHM 161900Z 04014G20KT 15SM FEW150 BKN250 06/M02 A3021 RMK AC1CI2 AC TR SLP240

CYHM;2009-03-16 20:00;CYHM 162000Z 05012KT 15SM FEW150 FEW250 06/M01 A3020 RMK AC1CI2 AC TR SLP237

CYHM;2009-03-16 21:00;CYHM 162100Z 04012KT 15SM FEW160 FEW250 06/M02 A3019 RMK AC1CI2 AC TR CONTRAIL SLP232

CYHM;2009-03-16 22:00;CYHM 162200Z 04012KT 15SM FEW160 BKN250 05/M03 A3019 RMK AC1CI2 AC TR SLP231

CYHM;2009-03-16 23:00;CYHM 162300Z 05013KT 15SM FEW074 BKN250 04/M03 A3019 RMK AC2CI1 SLP231

CYHM;2009-03-17 00:00;CYHM 170000Z 04012KT 15SM FEW074 FEW210 BKN250 03/M04 A3020 RMK AC1CC2CI1 SLP235

CYHM;2009-03-17 01:00;CYHM 170100Z 03008KT 15SM FEW180 BKN250 03/M03 A3020 RMK AC1CI2 SLP235

CYHM;2009-03-17 02:00;CYHM 170200Z 04010KT 15SM SCT250 03/M04 A3020 RMK CI2 SLP235

CYHM;2009-03-17 03:00;CYHM 170300Z 03008KT 15SM FEW250 03/M04 A3019 RMK CI1 CI TR SLP230

CYHM;2009-03-17 04:00;CYHM 170400Z 02007KT 15SM FEW250 02/M03 A3018 RMK CI1 CI TR SLP229

CYHM;2009-03-17 05:00;CYHM 170500Z 04008KT 15SM FEW250 03/M04 A3018 RMK CI1 CI TR SLP227

CYHM;2009-03-17 06:00;CYHM 170600Z 05007KT 15SM SKC 02/M04 A3019 RMK SLP230

CYHM;2009-03-17 07:00;CYHM 170700Z 03003KT 15SM SKC 02/M04 A3019 RMK SLP231

CYHM;2009-03-17 08:00;CYHM 170800Z 05002KT 15SM SKC 02/M04 A3019 RMK SLP230

CYHM;2009-03-17 09:00;CYHM 170900Z 00000KT 15SM SKC 00/M04 A3019 RMK SLP230

CYHM;2009-03-17 10:00;CYHM 171000Z 00000KT 15SM FEW250 M02/M04 A3020 RMK CI1 CI TR SLP234

CYHM;2009-03-17 11:00;CYHM 171100Z 00000KT 15SM FEW240 M02/M04 A3020 RMK CI1 CI TR SLP236

CYHM;2009-03-17 12:00;CYHM 171200Z 00000KT 15SM SKC M02/M04 A3022 RMK SLP242

CYHM;2009-03-17 13:00;CYHM 171300Z 00000KT 15SM SKC 02/M01 A3021 RMK SLP240

CYHM;2009-03-17 14:00;CYHM 171400Z 24002KT 15SM FEW240 04/M01 A3022 RMK CI1 CI TR SLP243

CYHM;2009-03-17 15:00;CYHM 171500Z 24005KT 15SM FEW240 06/M01 A3021 RMK CI1 SLP239

CYHM;2009-03-17 16:00;CYHM 171600Z 23008KT 15SM FEW240 09/M00 A3021 RMK CI1 CI TR SLP237

CYHM;2009-03-17 17:00;CYHM 171700Z 20006KT 15SM FEW240 11/02 A3019 RMK CI1 SLP231

CYHM;2009-03-17 18:00;CYHM 171800Z 23008KT 15SM FEW240 13/01 A3017 RMK CI1 CI TR SLP222

CYHM;2009-03-17 19:00;CYHM 171900Z 22009KT 15SM FEW240 13/03 A3013 RMK CI1 CI TR SLP211

CYHM;2009-03-17 20:00;CYHM 172000Z 21014KT 15SM FEW250 12/03 A3012 RMK CI1 CI TR SLP205

CYHM;2009-03-17 21:00;CYHM 172100Z 18013KT 15SM FEW250 13/02 A3010 RMK CI1 CONTRAILS SLP198

CYHM;2009-03-17 22:00;CYHM 172200Z 18011KT 15SM FEW180 FEW250 12/01 A3009 RMK AC1CI2 AC TR SLP195

CYHM;2009-03-17 23:00;CYHM 172300Z 19012KT 15SM BKN250 10/M01 A3007 RMK CI2 SLP191

CYHM;2009-03-18 00:00;CYHM 180000Z 19008KT 15SM FEW200 BKN250 08/00 A3006 RMK CC2CI1 SLP187

CYHM;2009-03-18 01:00;CYHM 180100Z 18012KT 15SM FEW140 SCT250 08/00 A3004 RMK AC2CI0 SLP180

CYHM;2009-03-18 02:00;CYHM 180200Z 18011KT 15SM BKN160 BKN250 06/02 A3001 RMK AC6CI1 SLP172

CYHM;2009-03-18 03:00;CYHM 180300Z 18011KT 15SM BKN150 07/01 A3000 RMK AC7 SLP166

CYHM;2009-03-18 04:00;CYHM 180400Z 20012KT 15SM BKN160 BKN250 08/01 A2999 RMK AC6CI1 SLP163

CYHM;2009-03-18 05:00;CYHM 180500Z 20012KT 15SM FEW160 08/01 A2998 RMK AC2 SLP158

CYHM;2009-03-18 06:00;CYHM 180600Z 20010KT 15SM BKN076 08/02 A2996 RMK AC5 SLP149

CYHM;2009-03-18 07:00;CYHM 180700Z 20010KT 15SM BKN070 10/03 A2995 RMK AC6 SLP145

CYHM;2009-03-18 08:00;CYHM 180800Z 22012KT 15SM SCT140 BKN250 12/05 A2993 RMK AS1CI2 SLP138

CYHM;2009-03-18 09:00;CYHM 180900Z 24014KT 15SM FEW160 BKN210 11/05 A2993 RMK AS1CI2 SLP139

CYHM;2009-03-18 10:00;CYHM 181000Z 24010KT 15SM FEW076 FEW130 BKN210 11/05 A2993 RMK AC1AS1CI1 AC TR SLP138

CYHM;2009-03-18 11:00;CYHM 181100Z 26010KT 15SM FEW048 BKN120 BKN220 10/05 A2994 RMK SC1AC4CI1 SLP143

CYHM;2009-03-18 12:00;CYHM 181200Z 26010KT 7SM SCT055 BKN062 OVC120 10/05 A2997 RMK SC3SC2AC2 SLP153

CYHM;2009-03-18 13:00;CYHM 181300Z 29010KT 10SM SCT056 OVC140 09/06 A3000 RMK SC3AC5 SLP164

CYHM;2009-03-18 14:00;CYHM 181400Z 33008KT 10SM FEW055 BKN110 BKN160 10/04 A3000 RMK SC2AC2AS2 SLP163

CYHM;2009-03-18 15:00;CYHM 181500Z 24005KT 15SM FEW060 SCT110 BKN130 BKN210 11/02 A3002 RMK SC1AC2AS2CI2 SLP171

CYHM;2009-03-18 16:00;CYHM 181600Z 26005KT 15SM BKN097 OVC130 11/03 A3001 RMK AC6AC2 SLP167

CYHM;2009-03-18 17:00;CYHM 181700Z 24003KT 15SM FEW120 BKN220 12/01 A3002 RMK AC1CI2 SLP169

CYHM;2009-03-18 18:00;CYHM 181800Z 30009KT 15SM SCT120 BKN220 12/M01 A3001 RMK AC3CI2 CONTRAIL SLP168

CYHM;2009-03-18 19:00;CYHM 181900Z 28004KT 15SM FEW100 FEW160 BKN220 13/M02 A3001 RMK AC1AC1CI2 SLP165

CYHM;2009-03-18 20:00;CYHM 182000Z 28008KT 15SM FEW110 FEW150 BKN220 14/M02 A3000 RMK AC1AC2CI2 SLP163

CYHM;2009-03-18 21:00;CYHM 182100Z 28009KT 15SM SCT110 BKN200 13/M03 A3000 RMK AC4CI2 SLP161

CYHM;2009-03-18 22:00;CYHM 182200Z 29011KT 15SM BKN130 BKN200 12/M03 A3001 RMK AC5CI1 SLP166

CYHM;2009-03-18 23:00;CYHM 182300Z 23005KT 15SM BKN100 11/M05 A3003 RMK AC7 SLP170

CYHM;2009-03-19 00:00;CYHM 190000Z 28009KT 15SM OVC065 10/M03 A3004 RMK SC8 SLP176

CYHM;2009-03-19 01:00;CYHM 190100Z 27005KT 15SM OVC110 09/M03 A3004 RMK AC8 SLP175

CYHM;2009-03-19 02:00;CYHM 190200Z 00000KT 15SM OVC120 08/M03 A3003 RMK AC8 SLP173

CYHM;2009-03-19 03:00;CYHM 190300Z 24003KT 15SM BKN120 OVC170 07/M04 A3003 RMK AC6AC2 SLP174

CYHM;2009-03-19 04:00;CYHM 190400Z 26004KT 15SM BKN120 OVC170 07/M03 A3003 RMK AC6AC2 SLP174

CYHM;2009-03-19 05:00;CYHM 190500Z 28003KT 15SM FEW120 SCT220 06/M02 A3003 RMK AC2CI1 SLP172

CYHM;2009-03-19 06:00;CYHM 190600Z 24003KT 15SM FEW120 03/M03 A3004 RMK AC2 SLP177

CYHM;2009-03-19 07:00;CYHM 190700Z 26005KT 15SM FEW120 FEW200 04/M03 A3004 RMK AC2CI1 SLP178

CYHM;2009-03-19 08:00;CYHM 190800Z 28004KT 15SM FEW130 SCT200 02/M01 A3004 RMK AC2CI1 SLP177

CYHM;2009-03-19 09:00;CYHM 190900Z 34012KT 15SM FEW210 02/M04 A3006 RMK CI2 SLP184

CYHM;2009-03-19 10:00;CYHM 191000Z 35007KT 15SM FEW210 01/M06 A3009 RMK CI1 SLP193

CYHM;2009-03-19 11:00;CYHM 191100Z 35003KT 15SM FEW210 00/M07 A3011 RMK CI1 SLP200

CYHM;2009-03-19 12:00;CYHM 191200Z 23002KT 15SM FEW045 FEW210 M00/M06 A3013 RMK SC2CI1 SLP209

CYHM;2009-03-19 13:00;CYHM 191300Z 26007KT 15SM FEW045 FEW210 01/M06 A3014 RMK SC1CI1 SC TR CI TR SLP213

CYHM;2009-03-19 14:00;CYHM 191400Z 32012KT 15SM FEW210 02/M06 A3015 RMK CI1 CI TR SLP218

CYHM;2009-03-19 15:00;CYHM 191500Z 31010KT 15SM SKC 03/M06 A3016 RMK SLP221

CYHM;2009-03-19 16:00;CYHM 191600Z 33014KT 15SM SKC 04/M05 A3017 RMK SLP224

CYHM;2009-03-19 17:00;CYHM 191700Z 30012KT 15SM FEW030 04/M05 A3017 RMK CU1 CU TR SLP224

CYHM;2009-03-19 18:00;CYHM 191800Z 33010KT 15SM FEW032 03/M05 A3018 RMK CU2 SLP227

CYHM;2009-03-19 19:00;CYHM 191900Z CCA 32012G19KT 230V350 15SM BKN038 02/M07 A3019 RMK SC5 SLP230

CYHM;2009-03-19 20:00;CYHM 192000Z 30014KT 15SM BKN036 01/M07 A3021 RMK SC6 SLP238

CYHM;2009-03-19 21:00;CYHM 192100Z 29010KT 15SM OVC037 01/M08 A3023 RMK SC8 SLP246

CYHM;2009-03-19 22:00;CYHM 192200Z 31010KT 15SM -SHSN OVC035 M00/M07 A3024 RMK SC8 SLP251

CYHM;2009-03-19 23:00;CYHM 192300Z 32008KT 5SM -SHSN FEW021 OVC032 M01/M05 A3027 RMK CF2SC6 SLP259

CYHM;2009-03-20 00:00;CYHM 200000Z 32007KT 15SM -SHSN OVC052 M01/M07 A3028 RMK SC8 PCPN VRY LGT SLP264

CYHM;2009-03-20 01:00;CYHM 200100Z 33007KT 15SM OVC055 M02/M09 A3030 RMK SC8 SLP270

CYHM;2009-03-20 02:00;CYHM 200200Z 32009KT 15SM BKN056 M02/M10 A3030 RMK SC7 SLP273

CYHM;2009-03-20 03:00;CYHM 200300Z 33006KT 15SM FEW055 M04/M09 A3031 RMK SC1 SLP276

CYHM;2009-03-20 04:00;CYHM 200400Z 34007KT 15SM FEW050 M04/M10 A3031 RMK SC1 SLP275

CYHM;2009-03-20 05:00;CYHM 200500Z 33005KT 15SM FEW050 M05/M10 A3030 RMK SC1 SLP273

CYHM;2009-03-20 06:00;CYHM 200600Z 34004KT 15SM SCT051 M05/M10 A3031 RMK SC3 SLP274

CYHM;2009-03-20 07:00;CYHM 200700Z 01008KT 15SM FEW050 M04/M10 A3032 RMK SC1 SLP277

CYHM;2009-03-20 08:00;CYHM 200800Z 02007KT 15SM FEW050 M04/M11 A3033 RMK SC1 SLP280

CYHM;2009-03-20 09:00;CYHM 200900Z 02014KT 15SM SCT045 M04/M12 A3034 RMK SC3 SLP285

CYHM;2009-03-20 10:00;CYHM 201000Z 02009KT 15SM FEW047 M04/M13 A3037 RMK SC2 SLP295

CYHM;2009-03-20 11:00;CYHM 201100Z 03007KT 15SM FEW045 FEW220 M05/M12 A3039 RMK SC1CI1 SC TR CI TR SLP304

CYHM;2009-03-20 12:00;CYHM 201200Z 02008KT 15SM SKC M05/M12 A3042 RMK SLP314

CYHM;2009-03-20 13:00;CYHM 201300Z 03010KT 15SM FEW030 M04/M12 A3044 RMK CU1 CU TR SLP321

CYHM;2009-03-20 14:00;CYHM 201400Z 03010KT 15SM FEW030 M03/M11 A3047 RMK CU1 CU TR SLP331

CYHM;2009-03-20 15:00;CYHM 201500Z 07008KT 15SM FEW030 M02/M11 A3048 RMK CU1 SLP334

CYHM;2009-03-20 16:00;CYHM 201600Z 05008KT 15SM SKC M01/M11 A3048 RMK SLP333

CYHM;2009-03-20 17:00;CYHM 201700Z 02010KT 15SM SKC M00/M12 A3047 RMK SLP332

CYHM;2009-03-20 18:00;CYHM 201800Z 08008KT 15SM SKC 01/M12 A3047 RMK SLP331

CYHM;2009-03-20 19:00;CYHM 201900Z 08005KT 15SM SKC 02/M12 A3046 RMK SLP327

CYHM;2009-03-20 20:00;CYHM 202000Z 00000KT 15SM SKC 03/M13 A3045 RMK SLP325

CYHM;2009-03-20 21:00;CYHM 202100Z 00000KT 15SM SKC 03/M12 A3044 RMK SLP320

CYHM;2009-03-20 22:00;CYHM 202200Z 14007KT 15SM SKC 03/M12 A3044 RMK SLP318

CYHM;2009-03-20 23:00;CYHM 202300Z 10007KT 15SM SKC 01/M11 A3045 RMK SLP321

CYHM;2009-03-21 00:00;CYHM 210000Z 18005KT 15SM SKC M00/M09 A3046 RMK SLP328

CYHM;2009-03-21 01:00;CYHM 210100Z 20003KT 15SM SKC M02/M09 A3047 RMK SLP331

CYHM;2009-03-21 02:00;CYHM 210200Z 21003KT 15SM SKC M03/M08 A3048 RMK SLP334

CYHM;2009-03-21 03:00;CYHM 210300Z 22004KT 15SM SKC M04/M08 A3046 RMK SLP329

CYHM;2009-03-21 04:00;CYHM 210400Z 23002KT 15SM SKC M04/M07 A3046 RMK SLP327

CYHM;2009-03-21 05:00;CYHM 210500Z 24003KT 15SM SKC M04/M08 A3046 RMK SLP326

CYHM;2009-03-21 06:00;CYHM 210600Z 27003KT 15SM SKC M05/M08 A3046 RMK SLP328

CYHM;2009-03-21 07:00;CYHM 210700Z 00000KT 15SM FEW230 M05/M08 A3046 RMK CI1 SLP327

CYHM;2009-03-21 08:00;CYHM 210800Z 00000KT 15SM SKC M05/M08 A3045 RMK FROIN SLP323

CYHM;2009-03-21 09:00;CYHM 210900Z 00000KT 15SM FEW200 M06/M07 A3046 RMK CI1 FROIN SLP326

CYHM;2009-03-21 10:00;CYHM 211000Z 00000KT 15SM FEW200 M07/M08 A3047 RMK CI1 FROIN SLP329

CYHM;2009-03-21 11:00;CYHM 211100Z 00000KT 15SM FEW220 M06/M08 A3047 RMK CI1 SLP330

CYHM;2009-03-21 12:00;CYHM 211200Z 00000KT 15SM BKN240 M06/M07 A3048 RMK CI2 SLP333

CYHM;2009-03-21 13:00;CYHM 211300Z 00000KT 15SM BKN240 M03/M05 A3048 RMK CI3 SLP334

CYHM;2009-03-21 14:00;CYHM 211400Z 19003KT 15SM BKN250 M01/M08 A3049 RMK CI6 SLP337

CYHM;2009-03-21 15:00;CYHM 211500Z 15002KT 15SM FEW130 OVC250 01/M10 A3049 RMK AC2CI4 SLP336

CYHM;2009-03-21 16:00;CYHM 211600Z 20004KT 150V250 15SM BKN110 OVC250 02/M10 A3048 RMK AC6CI2 SLP334

CYHM;2009-03-21 17:00;CYHM 211700Z 26004KT 190V300 15SM BKN088 OVC250 03/M09 A3047 RMK AC5CI2 SLP329

CYHM;2009-03-21 18:00;CYHM 211800Z 22004KT 15SM FEW087 BKN250 04/M09 A3046 RMK AC2CI4 SLP324

CYHM;2009-03-21 19:00;CYHM 211900Z 22003KT 15SM FEW087 BKN220 05/M08 A3042 RMK AC2CI2 WND L/V SLP314

CYHM;2009-03-21 20:00;CYHM 212000Z 22007KT 180V250 15SM FEW085 SCT160 SCT220 07/M07 A3040 RMK AC2AC1CI1 SLP307

CYHM;2009-03-21 21:00;CYHM 212100Z 25007KT 15SM FEW060 BKN082 06/M06 A3039 RMK SC2AC4 SLP303

CYHM;2009-03-21 22:00;CYHM 212200Z 22010KT 15SM FEW062 BKN085 06/M04 A3039 RMK SC1AC5 SLP302

CYHM;2009-03-21 23:00;CYHM 212300Z 24010KT 15SM SCT085 05/M06 A3040 RMK AC3 SLP305

CYHM;2009-03-22 00:00;CYHM 220000Z 23006KT 15SM FEW080 SCT110 03/M06 A3041 RMK AC2AC2 SLP310

CYHM;2009-03-22 01:00;CYHM 220100Z 22004KT 15SM SCT048 BKN090 01/M06 A3041 RMK SC3AC3 SLP311

CYHM;2009-03-22 02:00;CYHM 220200Z 22004KT 15SM SCT048 BKN080 BKN094 01/M05 A3040 RMK SC3AC2AC2 SLP307

CYHM;2009-03-22 03:00;CYHM 220300Z 26005KT 15SM FEW070 OVC090 02/M05 A3040 RMK AC2AC6 SLP304

CYHM;2009-03-22 04:00;CYHM 220400Z 23005KT 15SM FEW062 OVC089 02/M04 A3039 RMK SC2AC6 SLP303

CYHM;2009-03-22 05:00;CYHM 220500Z 22004KT 15SM OVC082 01/M04 A3039 RMK AC8 SLP300

CYHM;2009-03-22 06:00;CYHM 220600Z 22005KT 15SM BKN047 OVC080 01/M03 A3039 RMK SC6AC2 SLP299

CYHM;2009-03-22 07:00;CYHM 220700Z 23004KT 15SM OVC041 01/M03 A3039 RMK SC8 SLP301

CYHM;2009-03-22 08:00;CYHM 220800Z 24002KT 15SM OVC038 02/M03 A3039 RMK SC8 SLP302

CYHM;2009-03-22 09:00;CYHM 220900Z 00000KT 12SM OVC041 02/M02 A3040 RMK SC8 SLP302

CYHM;2009-03-22 10:00;CYHM 221000Z 23004KT 15SM OVC070 01/M02 A3039 RMK AC8 SLP300

CYHM;2009-03-22 11:00;CYHM 221100Z 00000KT 15SM OVC067 01/M02 A3040 RMK AC8 SLP303

CYHM;2009-03-22 12:00;CYHM 221200Z 00000KT 15SM OVC063 01/M02 A3041 RMK SC8 SLP306

CYHM;2009-03-22 13:00;CYHM 221300Z 00000KT 15SM FEW045 BKN063 02/M01 A3041 RMK SC2SC6 SLP307

CYHM;2009-03-22 14:00;CYHM 221400Z 03005KT 12SM FEW045 OVC063 04/M01 A3042 RMK SC1SC7 SLP310

CYHM;2009-03-22 15:00;CYHM 221500Z 03008KT 10SM BKN014 OVC060 03/00 A3043 RMK SC6SC2 SLP314

CYHM;2009-03-22 16:00;CYHM 221600Z 02008KT 15SM BKN015 OVC060 03/M01 A3044 RMK SC6SC2 SLP316

CYHM;2009-03-22 17:00;CYHM 221700Z 02009KT 15SM BKN017 OVC030 03/M01 A3044 RMK SC7SC1 SLP316

CYHM;2009-03-22 18:00;CYHM 221800Z 01008KT 15SM BKN029 BKN040 04/M02 A3042 RMK SC5SC2 SLP312

CYHM;2009-03-22 19:00;CYHM 221900Z 34006KT 300V020 15SM BKN034 06/M04 A3040 RMK SC5 SLP303

CYHM;2009-03-22 20:00;CYHM 222000Z 06013KT 020V090 15SM FEW034 FEW046 06/M04 A3039 RMK CU1SC2 WSHFT 1945 SLP301

CYHM;2009-03-22 21:00;CYHM 222100Z 03009KT 15SM FEW035 06/M10 A3039 RMK SC1 SLP300

CYHM;2009-03-22 22:00;CYHM 222200Z 02012KT 15SM FEW035 04/M10 A3040 RMK SC1 SC TR SLP303

CYHM;2009-03-22 23:00;CYHM 222300Z 02010KT 15SM FEW040 FEW200 03/M11 A3041 RMK SC1CI1 SC TR CI TR SLP307

CYHM;2009-03-23 00:00;CYHM 230000Z 02009KT 15SM FEW200 01/M11 A3043 RMK CI1 CI TR SLP314

CYHM;2009-03-23 01:00;CYHM 230100Z 02008KT 15SM SKC M01/M11 A3045 RMK SLP321

CYHM;2009-03-23 02:00;CYHM 230200Z 01008KT 15SM SKC M02/M11 A3047 RMK SLP329

CYHM;2009-03-23 03:00;CYHM 230300Z 01012KT 15SM FEW200 M02/M13 A3048 RMK CI1 SLP333

CYHM;2009-03-23 04:00;CYHM 230400Z 01011KT 15SM FEW200 M03/M14 A3049 RMK CI1 SLP336

CYHM;2009-03-23 05:00;CYHM 230500Z 02012KT 15SM SKC M04/M13 A3050 RMK SLP339

CYHM;2009-03-23 06:00;CYHM 230600Z 03012KT 15SM SKC M04/M13 A3048 RMK SLP332

CYHM;2009-03-23 07:00;CYHM 230700Z 02008KT 15SM FEW200 M04/M12 A3049 RMK CI1 SLP336

CYHM;2009-03-23 08:00;CYHM 230800Z 03010KT 15SM FEW210 M04/M13 A3049 RMK CI1 SLP335

CYHM;2009-03-23 09:00;CYHM 230900Z 02010KT 15SM FEW210 M05/M13 A3050 RMK CI1 SLP338

CYHM;2009-03-23 10:00;CYHM 231000Z 02008KT 15SM FEW200 M06/M13 A3051 RMK CI1 SLP341

CYHM;2009-03-23 11:00;CYHM 231100Z 02010KT 15SM SKC M06/M14 A3051 RMK SLP342

CYHM;2009-03-23 12:00;CYHM 231200Z 02008KT 15SM FEW240 M06/M14 A3052 RMK CI1 SLP347

CYHM;2009-03-23 13:00;CYHM 231300Z 03010KT 15SM FEW240 M05/M15 A3053 RMK CI1 SLP350

CYHM;2009-03-23 14:00;CYHM 231400Z 03008KT 15SM FEW240 M04/M16 A3053 RMK CI0 CI TR SLP351

CYHM;2009-03-23 15:00;CYHM 231500Z 04007KT 15SM FEW240 M03/M16 A3053 RMK CI1 CI TR SLP350

CYHM;2009-03-23 16:00;CYHM 231600Z 06010KT 15SM FEW240 M02/M15 A3053 RMK CI1 SLP350

CYHM;2009-03-23 17:00;CYHM 231700Z 04007KT 15SM FEW240 M01/M15 A3052 RMK CI1 SLP349

CYHM;2009-03-23 18:00;CYHM 231800Z 02004KT 15SM FEW240 M00/M15 A3051 RMK CI1 CI TR SLP345

CYHM;2009-03-23 19:00;CYHM 231900Z 06008KT 15SM FEW250 02/M14 A3049 RMK CI1 CI TR SLP339

CYHM;2009-03-23 20:00;CYHM 232000Z 03006KT 15SM FEW250 02/M14 A3049 RMK CI1 CI TR SLP337

CYHM;2009-03-23 21:00;CYHM 232100Z 05006KT 15SM FEW250 02/M15 A3048 RMK CI1 CONTRAILS SLP332

CYHM;2009-03-23 22:00;CYHM 232200Z 08005KT 15SM FEW250 02/M15 A3048 RMK CI1 CONTRAILS SLP332

CYHM;2009-03-23 23:00;CYHM 232300Z 07007KT 15SM SCT250 M00/M13 A3048 RMK CI1 CONTRAILS SLP332

CYHM;2009-03-24 00:00;CYHM 240000Z 08007KT 15SM FEW250 M02/M13 A3048 RMK CI1 CONTRAILS SLP334

CYHM;2009-03-24 01:00;CYHM 240100Z 08007KT 15SM FEW250 M03/M13 A3046 RMK CI1 SLP330

CYHM;2009-03-24 02:00;CYHM 240200Z 07008KT 15SM FEW250 M04/M13 A3047 RMK CI1 CI TR SLP333

CYHM;2009-03-24 03:00;CYHM 240300Z 10005KT 15SM FEW250 M04/M13 A3048 RMK CI1 CI TR SLP336

CYHM;2009-03-24 04:00;CYHM 240400Z 10005KT 15SM FEW250 M05/M13 A3049 RMK CI1 CI TR SLP337

CYHM;2009-03-24 05:00;CYHM 240500Z 10008KT 15SM FEW250 M06/M13 A3048 RMK CI1 CI TR SLP336

CYHM;2009-03-24 06:00;CYHM 240600Z 10007KT 15SM FEW250 M05/M14 A3047 RMK CI1 CI TR SLP332

CYHM;2009-03-24 07:00;CYHM 240700Z 10006KT 15SM FEW250 M05/M14 A3048 RMK CI1 CI TR SLP333

CYHM;2009-03-24 08:00;CYHM 240800Z 10006KT 15SM FEW250 M05/M14 A3049 RMK CI1 CI TR SLP338

CYHM;2009-03-24 09:00;CYHM 240900Z 09008KT 15SM FEW250 M06/M14 A3048 RMK CI1 CI TR SLP334

CYHM;2009-03-24 10:00;CYHM 241000Z 09009KT 15SM FEW250 M05/M14 A3049 RMK CI1 CI TR SLP337

CYHM;2009-03-24 11:00;CYHM 241100Z 10008KT 15SM FEW250 M05/M14 A3049 RMK CI1 SLP337

CYHM;2009-03-24 12:00;CYHM 241200Z 10010KT 15SM FEW250 M05/M13 A3049 RMK CI1 CONTRAIL SLP338

CYHM;2009-03-24 13:00;CYHM 241300Z 09010KT 15SM FEW250 M02/M12 A3049 RMK CI1 SLP339

CYHM;2009-03-24 14:00;CYHM 241400Z 11013KT 15SM FEW250 M01/M12 A3051 RMK CI1 CONTRAIL SLP344

CYHM;2009-03-24 15:00;CYHM 241500Z 09014KT 15SM FEW220 01/M12 A3049 RMK CI1 SLP337

CYHM;2009-03-24 16:00;CYHM 241600Z 08012KT 15SM FEW220 03/M11 A3046 RMK CI1 SLP328

CYHM;2009-03-24 17:00;CYHM 241700Z 06014KT 15SM SCT220 02/M08 A3045 RMK CI2 SLP324

CYHM;2009-03-24 18:00;CYHM 241800Z 06017G22KT 15SM SCT220 02/M08 A3042 RMK CI2 CONTRAIL SLP314

CYHM;2009-03-24 19:00;CYHM 241900Z 06015G21KT 15SM BKN250 03/M06 A3042 RMK CI2 CONTRAILS SLP311

CYHM;2009-03-24 20:00;CYHM 242000Z 04015G21KT 15SM BKN250 03/M05 A3039 RMK CI1 CONTRAILS SLP303

CYHM;2009-03-24 21:00;CYHM 242100Z 07018G25KT 15SM BKN250 02/M05 A3036 RMK CI2 CONTRAILS SLP293

CYHM;2009-03-24 22:00;CYHM 242200Z 06015G21KT 15SM BKN250 02/M05 A3035 RMK CI2 CONTRAILS SLP290

CYHM;2009-03-24 23:00;CYHM 242300Z 05015G21KT 15SM BKN250 01/M04 A3032 RMK CI2 CONTRAILS SLP280

CYHM;2009-03-25 00:00;CYHM 250000Z 06014G20KT 15SM BKN250 00/M04 A3031 RMK CI2 CONTRAILS SLP277

CYHM;2009-03-25 01:00;CYHM 250100Z 06015G21KT 15SM SCT250 00/M04 A3031 RMK CI1 SLP275

CYHM;2009-03-25 02:00;CYHM 250200Z 06015KT 15SM FEW250 M00/M05 A3029 RMK CI1 SLP270

CYHM;2009-03-25 03:00;CYHM 250300Z 05013KT 15SM FEW250 M00/M05 A3026 RMK CI1 SLP259

CYHM;2009-03-25 04:00;CYHM 250400Z 05012KT 15SM FEW250 M01/M06 A3026 RMK CI1 SLP257

CYHM;2009-03-25 05:00;CYHM 250500Z 05013KT 15SM FEW250 M01/M07 A3023 RMK CI1 SLP249

CYHM;2009-03-25 06:00;CYHM 250600Z 06012KT 15SM FEW250 M00/M08 A3021 RMK CI1 SLP240

CYHM;2009-03-25 07:00;CYHM 250700Z 04008KT 15SM BKN140 BKN250 00/M08 A3021 RMK AC6CI1 SLP239

CYHM;2009-03-25 08:00;CYHM 250800Z 06009KT 15SM SCT120 SCT250 00/M09 A3017 RMK AC2CI0 SLP226

CYHM;2009-03-25 09:00;CYHM 250900Z 06011KT 15SM SCT120 SCT250 M01/M09 A3013 RMK AC2CI0 SLP214

CYHM;2009-03-25 10:00;CYHM 251000Z 06010KT 15SM BKN110 BKN220 M00/M07 A3011 RMK AC4CI0 SLP207

CYHM;2009-03-25 11:00;CYHM 251100Z 05010KT 15SM BKN110 BKN220 M01/M06 A3009 RMK AC5CI1 SLP199

CYHM;2009-03-25 12:00;CYHM 251200Z 05011KT 15SM BKN110 BKN170 M00/M07 A3009 RMK AC5AC2 SLP199

CYHM;2009-03-25 13:00;CYHM 251300Z 06009KT 15SM BKN084 BKN120 OVC220 02/M07 A3008 RMK AC5AC2CI1 SLP196

CYHM;2009-03-25 14:00;CYHM 251400Z 08008KT 15SM BKN080 OVC160 04/M07 A3008 RMK AC5AS3 SLP196

CYHM;2009-03-25 15:00;CYHM 251500Z 08007KT 15SM BKN080 BKN140 OVC220 05/M06 A3007 RMK AC5AS2CI1 SLP192

CYHM;2009-03-25 16:00;CYHM 251600Z 11012KT 15SM FEW026 BKN031 OVC080 07/M04 A3006 RMK SC2SC3AC2 SLP187

CYHM;2009-03-25 17:00;CYHM 251700Z 13010KT 15SM BKN028 OVC080 09/M04 A3003 RMK SC6AC2 SLP179

CYHM;2009-03-25 18:00;CYHM 251800Z 05010KT 15SM OVC030 07/M04 A3001 RMK SC8 SLP169

CYHM;2009-03-25 19:00;CYHM 251900Z 03007KT 15SM -SHRA OVC032 06/M03 A2998 RMK SC8 SLP161

CYHM;2009-03-25 20:00;CYHM 252000Z 04008KT 15SM -SHRA OVC028 05/M01 A2997 RMK SC8 SLP156

CYHM;2009-03-25 20:53;CYHM 252053Z 07006KT 2 1/2SM -SHRA BR OVC026 RMK SC8

CYHM;2009-03-25 21:00;CYHM 252100Z 07006KT 2 1/2SM -SHRA BR OVC026 04/02 A2993 RMK SC8 SLP144

CYHM;2009-03-25 22:00;CYHM 252200Z 13010KT 1 1/4SM -RA BR OVC022 07/06 A2992 RMK SC8 SLP141

CYHM;2009-03-25 23:00;CYHM 252300Z 13007KT 2 1/4SM -RA BR OVC023 07/06 A2992 RMK SC8 SLP140

CYHM;2009-03-25 23:48;CYHM 252348Z 15009KT 5SM -RA BR OVC013 RMK SC8

CYHM;2009-03-26 00:00;CYHM 260000Z 15009KT 5SM -RA BR OVC013 06/06 A2991 RMK SC8 SLP137

CYHM;2009-03-26 00:26;CYHM 260026Z 16010KT 5SM -SHRA BR OVC009 RMK SC8 CIG RGD

CYHM;2009-03-26 01:00;CYHM 260100Z 17012KT 8SM OVC007 06/05 A2992 RMK SC8 CIG RGD SLP140

CYHM;2009-03-26 01:40;CYHM 260140Z 17009KT 12SM FEW008 OVC021 RMK SF1SC7

CYHM;2009-03-26 02:00;CYHM 260200Z 18010KT 8SM -SHRA FEW008 OVC023 06/05 A2993 RMK SF1SC7 SF TR SLP142

CYHM;2009-03-26 03:00;CYHM 260300Z 17010KT 7SM -SHRA FEW012 OVC021 06/04 A2992 RMK CF2SC6 SLP137

CYHM;2009-03-26 04:00;CYHM 260400Z 19008KT 7SM -SHRA OVC025 05/04 A2991 RMK SC8 SLP134

CYHM;2009-03-26 05:00;CYHM 260500Z 20008KT 12SM -SHRA FEW025 OVC045 05/04 A2992 RMK CF2SC6 SLP138

CYHM;2009-03-26 06:00;CYHM 260600Z 19008KT 12SM -SHRA FEW035 OVC057 06/05 A2990 RMK CF2SC6 SLP130

CYHM;2009-03-26 07:00;CYHM 260700Z 20006KT 15SM FEW013 OVC020 06/05 A2988 RMK CF2SC6 SLP126

CYHM;2009-03-26 08:00;CYHM 260800Z 19008KT 12SM -SHRA OVC016 06/05 A2987 RMK SC8 SLP121

CYHM;2009-03-26 09:00;CYHM 260900Z 14003KT 8SM -SHRA FEW007 BKN011 OVC045 06/05 A2983 RMK SF1SC6SC2 SLP107

CYHM;2009-03-26 10:00;CYHM 261000Z 21009KT 7SM -SHRA OVC010 06/05 A2986 RMK SC8 SLP118

CYHM;2009-03-26 10:12;CYHM 261012Z 22008KT 10SM OVC010 RMK SC8 RERA

CYHM;2009-03-26 11:00;CYHM 261100Z 19006KT 7SM BKN008 OVC014 06/05 A2986 RMK SF6SC2 SLP119

CYHM;2009-03-26 12:00;CYHM 261200Z 20006KT 5SM BR OVC007 06/06 A2987 RMK SF8 SLP120

CYHM;2009-03-26 13:00;CYHM 261300Z 20006KT 4SM BR OVC006 07/07 A2986 RMK SF8 SLP118

CYHM;2009-03-26 14:00;CYHM 261400Z 22006KT 3SM BR OVC004 08/08 A2986 RMK SF8 SLP116

CYHM;2009-03-26 15:00;CYHM 261500Z 23005KT 3SM BR OVC004 09/08 A2984 RMK SF8 SLP112

CYHM;2009-03-26 16:00;CYHM 261600Z 27006KT 4SM BR BKN006 OVC012 09/08 A2985 RMK SF5SC3 SLP115

CYHM;2009-03-26 16:53;CYHM 261653Z 22002KT 5SM BR FEW010 SCT045 OVC100 RMK SF2SC2AC4

CYHM;2009-03-26 17:00;CYHM 261700Z 25002KT 7SM FEW011 SCT032 OVC085 10/08 A2984 RMK SF2SC2AC4 SLP110

CYHM;2009-03-26 17:41;CYHM 261741Z 25006KT 7SM BKN013 BKN018 OVC080 RMK SC6SC2AC1

CYHM;2009-03-26 18:00;CYHM 261800Z 29007KT 4SM BR FEW008 BKN012 OVC022 09/08 A2983 RMK SF2SC4SC2 SLP107

CYHM;2009-03-26 18:48;CYHM 261848Z 27005KT 4SM BR BKN006 BKN012 OVC073 RMK SF5SC2AC2

CYHM;2009-03-26 19:00;CYHM 261900Z 27005KT 4SM BR BKN006 BKN012 OVC073 08/07 A2983 RMK SF5SC1AC2 SLP106

CYHM;2009-03-26 19:35;CYHM 261935Z 29006KT 5SM BR FEW006 FEW012 OVC110 RMK SF2SC1AC6

CYHM;2009-03-26 20:00;CYHM 262000Z 28005KT 7SM FEW012 SCT078 OVC110 09/06 A2983 RMK SC2AC2AC4 SLP105

CYHM;2009-03-26 21:00;CYHM 262100Z 29005KT 8SM FEW015 BKN073 OVC110 09/05 A2982 RMK SC1AC6AC2 SLP104

CYHM;2009-03-26 22:00;CYHM 262200Z 26004KT 9SM FEW065 BKN078 OVC220 09/04 A2982 RMK SC2AC5CI1 SLP104

CYHM;2009-03-26 23:00;CYHM 262300Z 26005KT 12SM FEW052 BKN066 09/04 A2985 RMK SC2AC6 SLP112

CYHM;2009-03-27 00:00;CYHM 270000Z 26006KT 12SM BKN049 BKN062 08/04 A2988 RMK SC5SC2 SLP122

CYHM;2009-03-27 01:00;CYHM 270100Z 26007KT 15SM FEW064 BKN084 07/02 A2990 RMK SC2AC6 SLP129

CYHM;2009-03-27 02:00;CYHM 270200Z CCA 26005KT 15SM FEW080 05/01 A2991 RMK AC1 SLP134

CYHM;2009-03-27 03:00;CYHM 270300Z 25006KT 15SM FEW080 04/00 A2992 RMK AC1 SLP139

CYHM;2009-03-27 04:00;CYHM 270400Z 23004KT 15SM SKC 02/M01 A2993 RMK SLP140

CYHM;2009-03-27 05:00;CYHM 270500Z 24005KT 15SM SKC 02/00 A2994 RMK SLP143

CYHM;2009-03-27 06:00;CYHM 270600Z 24004KT 15SM SKC 01/00 A2994 RMK SLP144

CYHM;2009-03-27 07:00;CYHM 270700Z 23004KT 15SM SKC 01/M00 A2994 RMK SLP146

CYHM;2009-03-27 08:00;CYHM 270800Z 22005KT 12SM SKC M01/M01 A2994 RMK FROIN SLP144

CYHM;2009-03-27 09:00;CYHM 270900Z 21004KT 10SM SKC M01/M01 A2996 RMK FROIN SLP153

CYHM;2009-03-27 09:47;CYHM 270947Z 00000KT 1 1/2SM BR SKC RMK FG1

CYHM;2009-03-27 10:00;CYHM 271000Z 00000KT 4SM BR MIFG SKC M00/M01 A2997 RMK FROIN SLP157

CYHM;2009-03-27 11:00;CYHM 271100Z 00000KT 2SM BR SKC M01/M01 A2998 RMK SLP159

CYHM;2009-03-27 11:07;CYHM 271107Z 00000KT 6SM BR FEW250 RMK CI1 CI TR

CYHM;2009-03-27 12:00;CYHM 271200Z 00000KT 10SM SKC M00/M00 A3001 RMK SLP169

CYHM;2009-03-27 13:00;CYHM 271300Z 12002KT 15SM SKC 03/02 A3001 RMK SLP171

CYHM;2009-03-27 14:00;CYHM 271400Z 15004KT 15SM SKC 05/02 A3002 RMK SLP173

CYHM;2009-03-27 15:00;CYHM 271500Z 15008KT 15SM FEW240 07/03 A3001 RMK CI0 CI TR SLP170

CYHM;2009-03-27 16:00;CYHM 271600Z 15008KT 15SM FEW240 09/03 A3001 RMK CI1 SLP168

CYHM;2009-03-27 17:00;CYHM 271700Z 15008KT 15SM FEW240 11/02 A3000 RMK CI1 SLP164

CYHM;2009-03-27 18:00;CYHM 271800Z 21008KT 15SM FEW040 FEW240 12/01 A2998 RMK CU1CI1 CU TR SLP159

CYHM;2009-03-27 19:00;CYHM 271900Z 20013KT 15SM FEW040 BKN240 12/01 A2997 RMK CU1CI3 SLP156

CYHM;2009-03-27 20:00;CYHM 272000Z 22011KT 15SM FEW040 BKN200 13/00 A2996 RMK CU1CI4 SLP152

CYHM;2009-03-27 21:00;CYHM 272100Z 20009KT 15SM FEW035 BKN220 12/M00 A2996 RMK CU2CI4 SLP151

CYHM;2009-03-27 22:00;CYHM 272200Z 20010KT 15SM BKN200 13/M01 A2994 RMK CI4 SLP147

CYHM;2009-03-27 23:00;CYHM 272300Z 18003KT 15SM BKN130 BKN220 11/M01 A2993 RMK AC6CI1 SLP143

CYHM;2009-03-28 00:00;CYHM 280000Z 17002KT 15SM BKN120 10/M03 A2993 RMK AC6 SLP143

CYHM;2009-03-28 01:00;CYHM 280100Z 00000KT 15SM FEW110 BKN240 09/M03 A2993 RMK AC1CI6 SLP143

CYHM;2009-03-28 02:00;CYHM 280200Z 00000KT 15SM FEW130 BKN230 06/01 A2993 RMK AC1CI5 SLP143

CYHM;2009-03-28 03:00;CYHM 280300Z 04005KT 15SM FEW120 SCT220 04/01 A2993 RMK AC1CI2 SLP142

CYHM;2009-03-28 04:00;CYHM 280400Z 00000KT 15SM FEW210 03/01 A2992 RMK CI2 SLP140

CYHM;2009-03-28 05:00;CYHM 280500Z 05005KT 15SM FEW210 03/01 A2991 RMK CI2 SLP137

CYHM;2009-03-28 06:00;CYHM 280600Z 03006KT 15SM FEW210 02/00 A2991 RMK CI2 SLP134

CYHM;2009-03-28 07:00;CYHM 280700Z 03008KT 8SM FEW220 02/00 A2991 RMK CI2 SLP136

CYHM;2009-03-28 08:00;CYHM 280800Z 02006KT 10SM FEW210 01/M00 A2990 RMK CI1 SLP132

CYHM;2009-03-28 09:00;CYHM 280900Z 02008KT 12SM FEW210 01/M02 A2990 RMK CI1 SLP131

CYHM;2009-03-28 10:00;CYHM 281000Z 05007KT 15SM FEW200 01/M02 A2992 RMK CI1 SLP136

CYHM;2009-03-28 11:00;CYHM 281100Z 05010KT 15SM FEW220 01/M01 A2993 RMK CI1 SLP139

CYHM;2009-03-28 12:00;CYHM 281200Z 05009KT 15SM FEW220 01/M01 A2995 RMK CI0 SLP150

CYHM;2009-03-28 13:00;CYHM 281300Z 05011KT 15SM FEW230 03/00 A2996 RMK CI1 SLP151

CYHM;2009-03-28 14:00;CYHM 281400Z 04013KT 15SM FEW230 05/01 A2995 RMK CI1 SLP148

CYHM;2009-03-28 15:00;CYHM 281500Z 06008KT 15SM FEW230 07/01 A2997 RMK CI0 SLP155

CYHM;2009-03-28 16:00;CYHM 281600Z 07009KT 020V110 15SM FEW250 08/02 A2996 RMK CI0 SLP152

CYHM;2009-03-28 17:00;CYHM 281700Z 06012KT 15SM SCT250 10/03 A2993 RMK CI1 SLP142

CYHM;2009-03-28 18:00;CYHM 281800Z 07013KT 15SM BKN250 10/02 A2989 RMK CI3 SLP128

CYHM;2009-03-28 19:00;CYHM 281900Z 06014KT 12SM FEW180 BKN240 10/02 A2988 RMK AC1CI5 AC TR SLP123

CYHM;2009-03-28 20:00;CYHM 282000Z 06013KT 12SM FEW150 OVC230 10/01 A2985 RMK AC1CS6 AC TR SLP116

CYHM;2009-03-28 21:00;CYHM 282100Z 06012KT 12SM FEW150 OVC230 10/01 A2984 RMK AC2CI5 SLP111

CYHM;2009-03-28 22:00;CYHM 282200Z 05013KT 12SM SCT150 OVC200 09/01 A2980 RMK AC3CI3 SLP099

CYHM;2009-03-28 23:00;CYHM 282300Z 06014KT 12SM SCT140 BKN180 07/01 A2976 RMK AC3AC4 SLP086

CYHM;2009-03-29 00:00;CYHM 290000Z 06015KT 12SM SCT140 BKN170 BKN200 06/M00 A2974 RMK AC3AC3CI1 CI TR SLP079

CYHM;2009-03-29 01:00;CYHM 290100Z 05017KT 15SM FEW040 BKN062 OVC140 06/00 A2971 RMK SC2SC5AC2 SLP070

CYHM;2009-03-29 02:00;CYHM 290200Z 05019KT 15SM SCT035 OVC048 06/00 A2968 RMK SC3SC5 SLP058

CYHM;2009-03-29 03:00;CYHM 290300Z 04018KT 15SM OVC041 07/00 A2964 RMK SC8 MAMMA SLP043

CYHM;2009-03-29 04:00;CYHM 290400Z 05013KT 15SM OVC035 06/01 A2959 RMK SC8 PRESFR SLP027

CYHM;2009-03-29 05:00;CYHM 290500Z 03014KT 15SM OVC037 05/01 A2957 RMK SC8 SLP019

CYHM;2009-03-29 06:00;CYHM 290600Z 03012KT 15SM OVC030 05/01 A2954 RMK SC8 SLP008

CYHM;2009-03-29 07:00;CYHM 290700Z 04011KT 15SM OVC027 05/02 A2948 RMK SC8 PRESFR SLP989

CYHM;2009-03-29 08:00;CYHM 290800Z 04011KT 15SM OVC025 05/02 A2944 RMK SC8 SLP976

CYHM;2009-03-29 08:28;CYHM 290828Z 05010KT 12SM -RA OVC026 RMK SC8

CYHM;2009-03-29 09:00;CYHM 290900Z 04010KT 12SM -RA OVC026 05/03 A2941 RMK SC8 SLP963

CYHM;2009-03-29 10:00;CYHM 291000Z 04012KT 6SM -RA OVC027 04/03 A2936 RMK SC8 SLP948

CYHM;2009-03-29 11:00;CYHM 291100Z 04012KT 2SM -RA BR BKN022 OVC040 04/03 A2934 RMK FG1SC6SC2 SLP941

CYHM;2009-03-29 11:31;CYHM 291131Z 05010KT 1 1/4SM -RA BR BKN002 OVC018 RMK FG2CF3SC2

CYHM;2009-03-29 12:00;CYHM 291200Z 05008KT 1 1/4SM -RA BR OVC002 04/04 A2932 RMK FG2CF6 SLP934

CYHM;2009-03-29 13:00;CYHM 291300Z 05008KT 1SM -RA BR OVC002 04/04 A2929 RMK FG3CF5 SLP924

CYHM;2009-03-29 14:00;CYHM 291400Z 05006KT 1SM -RA BR BKN003 OVC011 05/04 A2929 RMK FG3CF3SC2 SLP923

CYHM;2009-03-29 15:00;CYHM 291500Z 13002KT 1 1/4SM -RA BR BKN002 OVC008 06/06 A2929 RMK FG2CF4SC2 SLP923

CYHM;2009-03-29 15:28;CYHM 291528Z 24014G23KT 5SM -RA BR SCT003 BKN011 OVC058 RMK CF3SC2SC2

CYHM;2009-03-29 15:37;CYHM 291537Z 25017G22KT 8SM -RA FEW011 OVC055 RMK SC2SC6

CYHM;2009-03-29 16:00;CYHM 291600Z 25017KT 15SM -RA FEW012 BKN022 OVC055 06/03 A2930 RMK CU1SC6SC2 PCPN VRY LGT SLP927

CYHM;2009-03-29 16:41;CYHM 291641Z 25022KT 15SM SCT028 OVC071 RMK SC3AC5

CYHM;2009-03-29 17:00;CYHM 291700Z 25024G30KT 15SM -RA BKN028 OVC071 06/01 A2930 RMK SC5AC3 PCPN VRY LGT SLP928

CYHM;2009-03-29 17:36;CYHM 291736Z 24020G26KT 15SM SCT030 BKN076 RMK SC3AC4

CYHM;2009-03-29 18:00;CYHM 291800Z 24022G28KT 15SM FEW030 SCT075 BKN094 08/03 A2931 RMK SC2AC2AC2 SLP929

CYHM;2009-03-29 19:00;CYHM 291900Z 24025G31KT 15SM SCT033 BKN075 BKN096 09/03 A2931 RMK SC3AC2AC1 CU ASOCTD SLP929

CYHM;2009-03-29 20:00;CYHM 292000Z 24023G29KT 15SM SCT035 BKN075 BKN210 09/02 A2931 RMK CU3AC2CI1 SLP931

CYHM;2009-03-29 21:00;CYHM 292100Z 25016G21KT 15SM SCT040 SCT075 BKN200 09/01 A2933 RMK CU3AC1CI2 SLP935

CYHM;2009-03-29 22:00;CYHM 292200Z 23019KT 15SM SCT040 BKN130 BKN200 09/02 A2933 RMK SC4AC2CI1 CU ASOCTD SLP938

CYHM;2009-03-29 23:00;CYHM 292300Z 24015KT 15SM SCT029 BKN150 BKN210 07/02 A2935 RMK SC4AC1CI1 CU ASOCTD SLP943

CYHM;2009-03-30 00:00;CYHM 300000Z 23012KT 15SM FEW030 SCT070 SCT150 BKN210 05/02 A2936 RMK SC2AC2AC1CI1 SLP947

CYHM;2009-03-30 01:00;CYHM 300100Z 23013KT 15SM FEW030 FEW070 SCT110 04/01 A2936 RMK SC1AC1AC2 SLP949

CYHM;2009-03-30 01:54;CYHM 300154Z 23011KT 15SM BKN014 BKN100 RMK SC5AC2

CYHM;2009-03-30 02:00;CYHM 300200Z 23012KT 15SM BKN014 BKN100 04/01 A2938 RMK SC5AC1 SLP954

CYHM;2009-03-30 03:00;CYHM 300300Z 22011KT 15SM OVC010 04/02 A2939 RMK SC8 SLP960

CYHM;2009-03-30 03:51;CYHM 300351Z 25011KT 7SM -RA OVC011 RMK SC8 CIG RAG

CYHM;2009-03-30 04:00;CYHM 300400Z 25011KT 8SM -RA OVC010 03/02 A2942 RMK SC8 CIG RAG SLP968

CYHM;2009-03-30 05:00;CYHM 300500Z 29014G21KT 15SM OVC015 02/M00 A2945 RMK SC8 SLP979

CYHM;2009-03-30 06:00;CYHM 300600Z 29017G22KT 15SM OVC023 02/M02 A2949 RMK SC8 SLP993

CYHM;2009-03-30 07:00;CYHM 300700Z 28018G23KT 15SM FEW014 BKN023 OVC050 01/M02 A2952 RMK CF2SC5SC1 SLP004

CYHM;2009-03-30 08:00;CYHM 300800Z 28020G30KT 15SM FEW017 SCT040 OVC076 01/M03 A2954 RMK CF2SC2AC5 SLP010

CYHM;2009-03-30 09:00;CYHM 300900Z 28025G41KT 15SM FEW022 OVC046 00/M04 A2958 RMK CF2SC6 SLP022

CYHM;2009-03-30 09:45;CYHM 300945Z 28020KT 10SM -SN BKN018 OVC055 RMK CF6SC2

CYHM;2009-03-30 10:00;CYHM 301000Z CCA 28017G23KT 5SM -SN SCT025 OVC056 M01/M03 A2963 RMK CF4SC4 PRESRR SLP041

CYHM;2009-03-30 11:00;CYHM 301100Z CCA 27016KT 25SM -SN FEW025 OVC030 M00/M04 A2968 RMK SC2SC6 SLP058

CYHM;2009-03-30 11:53;CYHM 301153Z 26008KT 15SM OVC024 RMK SC8

CYHM;2009-03-30 12:00;CYHM 301200Z 27012KT 15SM BKN024 OVC032 M00/M04 A2973 RMK SC6SC2 SLP076

CYHM;2009-03-30 13:00;CYHM 301300Z 27016KT 15SM OVC016 M01/M04 A2978 RMK SC8 SLP090

CYHM;2009-03-30 14:00;CYHM 301400Z 26010KT 15SM OVC013 M01/M04 A2981 RMK SC8 SLP103

CYHM;2009-03-30 15:00;CYHM 301500Z 28020G28KT 15SM OVC015 M01/M04 A2984 RMK SC8 SLP114

CYHM;2009-03-30 16:00;CYHM 301600Z 28020G26KT 15SM OVC016 M00/M03 A2989 RMK SC8 SLP130

CYHM;2009-03-30 17:00;CYHM 301700Z 28020G28KT 15SM OVC016 00/M04 A2992 RMK SC8 SLP139

CYHM;2009-03-30 18:00;CYHM 301800Z 28020G25KT 15SM OVC015 01/M03 A2994 RMK SC8 SLP147

CYHM;2009-03-30 19:00;CYHM 301900Z 28018G28KT 15SM OVC015 01/M02 A2995 RMK SC8 CIG RGD SLP152

CYHM;2009-03-30 20:00;CYHM 302000Z 29012G19KT 15SM BKN020 03/M02 A2998 RMK SC7 SLP160

CYHM;2009-03-30 21:00;CYHM 302100Z 28016G24KT 15SM BKN020 03/M02 A2999 RMK SC5 SLP166

CYHM;2009-03-30 22:00;CYHM 302200Z 28012KT 15SM BKN022 02/M03 A3003 RMK SC6 SLP178

CYHM;2009-03-30 23:00;CYHM 302300Z 29012KT 15SM BKN022 01/M03 A3006 RMK SC7 SLP189

CYHM;2009-03-31 00:00;CYHM 310000Z 29011KT 15SM BKN022 01/M04 A3008 RMK SC7 SLP196

CYHM;2009-03-31 01:00;CYHM 310100Z 29006KT 15SM FEW020 M00/M04 A3010 RMK SC2 SLP204

CYHM;2009-03-31 02:00;CYHM 310200Z 00000KT 15SM FEW020 M02/M05 A3013 RMK SC1 SC TR SLP211

CYHM;2009-03-31 03:00;CYHM 310300Z 30002KT 15SM FEW020 M02/M05 A3013 RMK SC1 SC TR SLP216

CYHM;2009-03-31 04:00;CYHM 310400Z 31004KT 15SM SKC M02/M05 A3013 RMK SLP216

CYHM;2009-03-31 05:00;CYHM 310500Z 00000KT 15SM SKC M03/M05 A3014 RMK SLP217

CYHM;2009-03-31 06:00;CYHM 310600Z 26002KT 15SM SKC M04/M05 A3016 RMK SLP223

CYHM;2009-03-31 07:00;CYHM 310700Z 00000KT 15SM SKC M03/M05 A3015 RMK SLP221

CYHM;2009-03-31 08:00;CYHM 310800Z 06003KT 15SM SKC M04/M06 A3013 RMK SLP216

CYHM;2009-03-31 09:00;CYHM 310900Z 00000KT 15SM SKC M04/M05 A3016 RMK SLP222

CYHM;2009-03-31 10:00;CYHM 311000Z 00000KT 15SM SKC M04/M05 A3017 RMK SLP227

CYHM;2009-03-31 11:00;CYHM 311100Z 00000KT 15SM SKC M04/M05 A3019 RMK SLP232

CYHM;2009-03-31 12:00;CYHM 311200Z 00000KT 15SM SKC M03/M05 A3019 RMK SLP234

CYHM;2009-03-31 13:00;CYHM 311300Z 06008KT 15SM SKC M00/M02 A3018 RMK SLP231

CYHM;2009-03-31 13:47;CYHM 311347Z 09008KT 15SM FEW011 BKN016 RMK CU2SC4

CYHM;2009-03-31 14:00;CYHM 311400Z 06010KT 15SM FEW011 BKN015 BKN032 01/M01 A3017 RMK CU2SC3SC1 SLP229

CYHM;2009-03-31 15:00;CYHM 311500Z 07008KT 15SM FEW011 BKN016 02/M01 A3017 RMK CU2SC3 SLP226

CYHM;2009-03-31 16:00;CYHM 311600Z 07010KT 14SM FEW012 BKN017 BKN220 04/M00 A3016 RMK CU2SC3CI0 CONTRAIL SLP224

CYHM;2009-03-31 17:00;CYHM 311700Z 08012KT 15SM FEW012 BKN016 BKN210 04/00 A3015 RMK CU2SC3CI1 CONTRAIL SLP219

CYHM;2009-03-31 18:00;CYHM 311800Z 06015G20KT 15SM FEW016 SCT160 BKN210 04/00 A3010 RMK SC2AS2CI2 CU ASOCTD SLP203

CYHM;2009-03-31 19:00;CYHM 311900Z 05020G25KT 15SM FEW018 SCT150 BKN210 03/00 A3007 RMK SC2AS2CI2 CU ASOCTD SLP191

CYHM;2009-03-31 20:00;CYHM 312000Z 06019KT 15SM FEW017 SCT140 BKN210 03/00 A3004 RMK SC2AC2CI1 SLP181

CYHM;2009-03-31 21:00;CYHM 312100Z CCA 06025KT 15SM FEW010 SCT025 SCT140 BKN210 03/00 A3000 RMK SC2SC2AC1CI1 CONTRAIL AC TR SLP169

CYHM;2009-03-31 22:00;CYHM 312200Z 06027KT 15SM FEW008 SCT025 SCT120 BKN210 02/M00 A2997 RMK CF2SC2AC1CI1 CONTRAIL AC TR SLP158

CYHM;2009-03-31 23:00;CYHM 312300Z 06023KT 10SM BKN006 BKN025 01/M01 A2995 RMK SC5SC2 SLP154

CYHM;2009-04-01 01:00;CYHM 010100Z 05023KT 5SM BR BKN006 OVC110 01/M00 A2991 RMK SC5AC3 SLP138

CYHM;2009-04-01 02:00;CYHM 010200Z 05022KT 4SM BR SCT007 OVC130 02/M00 A2988 RMK SC3AC5 SLP129

CYHM;2009-04-01 03:00;CYHM 010300Z 05016KT 4SM BR FEW009 OVC120 02/00 A2986 RMK SC2AC6 SLP121

CYHM;2009-04-01 04:00;CYHM 010400Z 04011KT 12SM FEW012 OVC085 02/01 A2988 RMK SC2AC6 SLP125

CYHM;2009-04-01 04:10;CYHM 010410Z 04012KT 10SM -SHRA FEW012 BKN085 OVC100 RMK SC2AC4AC2 PCPN VRY LGT

CYHM;2009-04-01 05:00;CYHM 010500Z 05015KT 10SM -SHRA FEW012 SCT095 OVC140 02/01 A2982 RMK SC2AC2AC4 PCPN VRY LGT SLP107

CYHM;2009-04-01 06:00;CYHM 010600Z 05014KT 8SM -SHRA FEW004 BKN090 OVC110 02/01 A2980 RMK SF2AC3AC2 PCPN VRY LGT SLP100

CYHM;2009-04-01 06:22;CYHM 010622Z 05011KT 8SM FEW004 SCT090 OVC110 RMK SF2AC2AC5

CYHM;2009-04-01 07:00;CYHM 010700Z 04010KT 8SM FEW005 SCT100 OVC110 02/02 A2979 RMK SF2AC2AC5 SLP095

CYHM;2009-04-01 08:00;CYHM 010800Z 05010KT 8SM FEW003 SCT100 OVC110 02/02 A2976 RMK SF2AC2AC5 SLP087

CYHM;2009-04-01 09:00;CYHM 010900Z 06009KT 12SM FEW008 BKN082 OVC100 03/02 A2976 RMK SF2AC4AC2 SLP087

CYHM;2009-04-01 10:00;CYHM 011000Z 06008KT 12SM BKN058 OVC070 03/02 A2975 RMK SC6AC2 SLP081

CYHM;2009-04-01 11:00;CYHM 011100Z 04003KT 15SM FEW050 OVC068 03/02 A2975 RMK SC2AC6 SLP084

CYHM;2009-04-01 11:31;CYHM 011131Z 06006KT 15SM -SHRA BKN060 OVC078 RMK SC6AC2

CYHM;2009-04-01 12:00;CYHM 011200Z 08004KT 15SM -SHRA BKN053 OVC069 03/03 A2975 RMK SC6AC2 SLP084

CYHM;2009-04-01 13:00;CYHM 011300Z 18008KT 15SM -SHRA OVC033 06/04 A2977 RMK SC8 SLP089

CYHM;2009-04-01 14:00;CYHM 011400Z 20020G28KT 6SM -SHRA BR BKN048 OVC068 07/06 A2978 RMK SC6AC2 SLP093

CYHM;2009-04-01 15:00;CYHM 011500Z 20012KT 6SM -SHRA BR FEW008 BKN012 OVC048 07/07 A2979 RMK SF2SC4SC2 SLP095

CYHM;2009-04-01 16:00;CYHM 011600Z 22012KT 15SM -SHRA FEW025 BKN035 OVC070 08/07 A2977 RMK SC2SC6AC1 SLP088

CYHM;2009-04-01 16:38;CYHM 011638Z CCA 22014KT 15SM FEW025 BKN048 BKN062 RMK CU2SC4SC2 RERA

CYHM;2009-04-01 17:00;CYHM 011700Z 21015KT 15SM FEW025 BKN039 BKN048 08/06 A2978 RMK CU2SC3SC1 SLP090

CYHM;2009-04-01 18:00;CYHM 011800Z 24022KT 15SM FEW034 SCT058 SCT080 10/03 A2976 RMK CU1SC2AC1 SLP085

CYHM;2009-04-01 19:00;CYHM 011900Z 23023G28KT 15SM FEW038 FEW048 11/00 A2977 RMK CU1SC1 SLP086

CYHM;2009-04-01 20:00;CYHM 012000Z 23023G29KT 15SM FEW040 FEW050 11/M00 A2978 RMK CU1SC1 SLP090

CYHM;2009-04-01 21:00;CYHM 012100Z 23023G29KT 15SM FEW040 FEW200 12/00 A2978 RMK CU1CI1 SLP090

CYHM;2009-04-01 22:00;CYHM 012200Z 23024G30KT 15SM FEW040 FEW200 12/M01 A2979 RMK CU1CI1 SLP093

CYHM;2009-04-01 23:00;CYHM 012300Z 23015KT 15SM FEW040 FEW210 11/M00 A2980 RMK CU1CI1 CU TR CI TR SLP096

CYHM;2009-04-02 00:00;CYHM 020000Z 23012KT 15SM FEW040 09/M01 A2981 RMK CU1 CU TR SLP101

CYHM;2009-04-02 01:00;CYHM 020100Z 21009KT 15SM SKC 07/M01 A2984 RMK SLP109

CYHM;2009-04-02 02:00;CYHM 020200Z 21009KT 15SM SKC 05/M00 A2985 RMK SLP115

CYHM;2009-04-02 03:00;CYHM 020300Z 20008KT 15SM FEW220 02/M01 A2987 RMK CI1 SLP121

CYHM;2009-04-02 04:00;CYHM 020400Z 22007KT 15SM FEW210 02/M02 A2988 RMK CI1 SLP126

CYHM;2009-04-02 05:00;CYHM 020500Z 26008KT 15SM FEW210 06/M02 A2991 RMK CI2 SLP134

CYHM;2009-04-02 06:00;CYHM 020600Z 00000KT 15SM FEW210 04/M03 A2993 RMK CI2 SLP140

CYHM;2009-04-02 07:00;CYHM 020700Z 00000KT 15SM FEW210 01/M03 A2994 RMK CI1 SLP144

CYHM;2009-04-02 08:00;CYHM 020800Z 14003KT 15SM FEW170 FEW210 02/M03 A2994 RMK AC1CI1 SLP145

CYHM;2009-04-02 09:00;CYHM 020900Z 17006KT 15SM FEW150 FEW200 01/M03 A2994 RMK AC1CI2 SLP145

CYHM;2009-04-02 10:00;CYHM 021000Z 19005KT 15SM BKN130 02/M02 A2994 RMK AC5 SLP146

CYHM;2009-04-02 11:00;CYHM 021100Z 18006KT 15SM BKN120 02/M01 A2995 RMK AC7 SLP148

CYHM;2009-04-02 12:00;CYHM 021200Z 17004KT 15SM FEW110 SCT150 BKN210 02/M00 A2995 RMK AC2AC2CS2 HALO SLP150

CYHM;2009-04-02 13:00;CYHM 021300Z 17008KT 15SM FEW160 BKN210 06/01 A2994 RMK AC1CI2 CONTRAIL SLP147

CYHM;2009-04-02 14:00;CYHM 021400Z 19010KT 15SM FEW210 10/01 A2994 RMK CI2 SLP146

CYHM;2009-04-02 15:00;CYHM 021500Z 16015KT 15SM SCT210 13/01 A2993 RMK CI2 SLP141

CYHM;2009-04-02 16:00;CYHM 021600Z 18008KT 15SM BKN210 14/01 A2991 RMK CI3 CONRAIL SLP135

CYHM;2009-04-02 17:00;CYHM 021700Z 17013KT 15SM SCT210 14/01 A2990 RMK CI2 SLP131

CYHM;2009-04-02 18:00;CYHM 021800Z 16012KT 15SM BKN180 14/M00 A2988 RMK AS7 SLP121

CYHM;2009-04-02 19:00;CYHM 021900Z 19008KT 150V230 15SM BKN150 BKN250 16/00 A2985 RMK AC5CI1 SLP113

CYHM;2009-04-02 20:00;CYHM 022000Z 18004KT 120V220 15SM BKN140 BKN250 16/M01 A2983 RMK AC5CI1 SLP107

CYHM;2009-04-02 21:00;CYHM 022100Z 11007KT 15SM BKN160 BKN250 16/00 A2979 RMK AC5CI1 SLP093

CYHM;2009-04-02 22:00;CYHM 022200Z 05008KT 15SM BKN170 BKN250 11/02 A2979 RMK AC6CI1 SLP093

CYHM;2009-04-02 23:00;CYHM 022300Z 05010KT 15SM FEW160 FEW250 09/01 A2979 RMK AC2CI0 SLP093

CYHM;2009-04-03 01:00;CYHM 030100Z 06013KT 15SM BKN084 07/00 A2972 RMK AC7 SLP071

CYHM;2009-04-03 02:00;CYHM 030200Z 06017KT 15SM FEW078 SCT110 BKN240 07/01 A2967 RMK AC2AC2CI1 SLP053

CYHM;2009-04-03 03:00;CYHM 030300Z CCA 06014KT 15SM BKN059 06/00 A2965 RMK SC7 SLP043

CYHM;2009-04-03 04:00;CYHM 030400Z 03012KT 15SM BKN058 OVC074 05/01 A2961 RMK SC6AC2 SLP032

CYHM;2009-04-03 05:00;CYHM 030500Z 04010KT 15SM BKN068 BKN110 05/02 A2957 RMK AC6AC2 SLP019

CYHM;2009-04-03 05:45;CYHM 030545Z 06010KT 15SM -SHRA FEW058 OVC070 RMK SC2AC6

CYHM;2009-04-03 06:00;CYHM 030600Z 06010KT 15SM BKN062 OVC073 05/03 A2953 RMK SC5AC3 SLP004

CYHM;2009-04-03 07:00;CYHM 030700Z 05010KT 15SM -SHRA SCT063 BKN081 BKN100 05/03 A2949 RMK SC3AC3AC1 PCPN VRY LGT SLP989

CYHM;2009-04-03 08:00;CYHM 030800Z 05011KT 15SM FEW032 SCT085 BKN120 04/03 A2944 RMK SC2AC2AC4 SLP974

CYHM;2009-04-03 09:00;CYHM 030900Z 05014KT 15SM -SHRA OVC052 04/03 A2939 RMK SC8 SLP955

CYHM;2009-04-03 10:00;CYHM 031000Z 05012KT 9SM -SHRA FEW032 OVC075 05/04 A2935 RMK SC2AC6 SLP942

CYHM;2009-04-03 10:48;CYHM 031048Z 02015KT 2 1/2SM -SHRA BR BKN012 OVC032 RMK SF6SC2

CYHM;2009-04-03 11:00;CYHM 031100Z 03015KT 2SM -SHRA BR BKN003 BKN014 OVC038 05/04 A2929 RMK SF5SC2SC2 SLP921

CYHM;2009-04-03 11:15;CYHM 031115Z 04015KT 1 1/2SM -SHRA BR BKN002 OVC015 RMK FG1SF6SC1

CYHM;2009-04-03 12:00;CYHM 031200Z 03014KT 2SM -SHRA BR BKN003 OVC020 05/05 A2926 RMK FG1SF6SC2 SLP912

CYHM;2009-04-03 12:08;CYHM 031208Z 04014KT 3SM -RA BR BKN002 BKN025 OVC036 RMK SF5SC2SC1

CYHM;2009-04-03 12:33;CYHM 031233Z 05016KT 2 1/2SM -RA BR BKN003 OVC022 RMK SF6SC2

CYHM;2009-04-03 13:00;CYHM 031300Z 04014KT 1SM -RA BR OVC002 06/05 A2921 RMK FG2SF6 SLP897

CYHM;2009-04-03 13:40;CYHM 031340Z 04015KT 1 1/2SM -RA BR OVC003 RMK FG1SF7

CYHM;2009-04-03 14:00;CYHM 031400Z 04014KT 1SM -RA BR BKN002 OVC010 06/06 A2917 RMK FG2SF5SC2 SLP885

CYHM;2009-04-03 15:00;CYHM 031500Z 04013KT 1 1/2SM -RA BR OVC004 07/06 A2914 RMK FG2SF6 VIS VRBL 1-2SM SLP872

CYHM;2009-04-03 16:00;CYHM 031600Z 04014KT 2SM -RA BR OVC002 06/06 A2911 RMK FG1SF7 SLP861

CYHM;2009-04-03 16:23;CYHM 031623Z 04010KT 1SM -RA BR OVC002 RMK FG2SF6

CYHM;2009-04-03 16:54;CYHM 031654Z 03010KT 1/2SM -RA FG OVC002 RMK FG5SF3

CYHM;2009-04-03 17:00;CYHM 031700Z 03008KT 1/2SM -RA FG OVC002 06/06 A2909 RMK FG5SF3 SLP854

CYHM;2009-04-03 17:27;CYHM 031727Z 03011KT 1/4SM -RA FG OVC002 RMK FG6SF2

CYHM;2009-04-03 18:00;CYHM 031800Z 03010KT 1/4SM -RA FG OVC002 06/06 A2907 RMK FG6SF2 SLP847

CYHM;2009-04-03 18:24;CYHM 031824Z 02010KT 3/4SM -RA BR OVC002 RMK FG3SF5 VIS VRB 1/2 - 1

CYHM;2009-04-03 19:00;CYHM 031900Z 02008KT 1SM -RA BR OVC003 06/06 A2905 RMK FG2SF6 VIS VRB 3/4 - 11/4 SLP842

CYHM;2009-04-03 19:30;CYHM 031930Z 35007KT 1 1/2SM -RA BR OVC004 RMK FG2SF6 VIS VRB 1 - 2

CYHM;2009-04-03 20:00;CYHM 032000Z 36005KT 2SM -RA BR OVC006 07/07 A2904 RMK FG1SF7 SLP840

CYHM;2009-04-03 21:00;CYHM 032100Z 25008KT 3SM -RA BR OVC004 08/08 A2907 RMK SF8 VIS VRB 2 - 4 SLP847

CYHM;2009-04-03 22:00;CYHM 032200Z 26018G27KT 4SM -RA BR OVC011 06/05 A2910 RMK SC8 CIG RAG SLP859

CYHM;2009-04-03 23:00;CYHM 032300Z 26022G32KT 3SM -RA BR FEW009 BKN017 OVC055 04/03 A2914 RMK CF1SC6SC1 SLP872

CYHM;2009-04-04 00:00;CYHM 040000Z 27024G33KT 10SM -RA OVC011 03/02 A2919 RMK SC8 SLP889

CYHM;2009-04-04 01:00;CYHM 040100Z 27028G40KT 12SM -RA OVC016 02/01 A2923 RMK SC8 SLP904

CYHM;2009-04-04 02:00;CYHM 040200Z 26025G35KT 12SM -RA BKN017 OVC055 02/00 A2926 RMK SC7SC1 SLP913

CYHM;2009-04-04 03:00;CYHM 040300Z 27028G43KT 6SM -RA FEW014 OVC022 02/00 A2929 RMK CF2SC6 SLP923

CYHM;2009-04-04 04:00;CYHM 040400Z 27030G43KT 7SM -RA OVC020 02/M00 A2931 RMK SC8 CIG RAG SLP930

CYHM;2009-04-04 05:00;CYHM 040500Z 27030G42KT 15SM -RA OVC018 02/M00 A2933 RMK SC8 SLP937

CYHM;2009-04-04 06:00;CYHM 040600Z 27028G43KT 15SM -RA OVC017 02/M00 A2936 RMK SC8 SLP948

CYHM;2009-04-04 07:00;CYHM 040700Z 27025G39KT 15SM -RA BKN023 OVC070 02/M01 A2939 RMK SC7AC1 SLP958

CYHM;2009-04-04 08:00;CYHM 040800Z 27028G43KT 15SM -RA OVC020 02/M01 A2943 RMK SC8 SLP971

CYHM;2009-04-04 09:00;CYHM 040900Z 29022G34KT 15SM -RA OVC021 02/M01 A2946 RMK SC8 SLP983

CYHM;2009-04-04 10:00;CYHM 041000Z 28020G34KT 15SM -SHSN OVC022 02/M01 A2951 RMK SC8 SLP998

CYHM;2009-04-04 10:40;CYHM 041040Z 28022G34KT 15SM OVC022 RMK SC8

CYHM;2009-04-04 11:00;CYHM 041100Z 28026KT 15SM OVC019 02/M02 A2954 RMK SC8 SLP009

CYHM;2009-04-04 12:00;CYHM 041200Z 28027G37KT 210V340 15SM OVC021 01/M02 A2957 RMK SC8 SLP022

CYHM;2009-04-04 13:00;CYHM 041300Z 29026G34KT 250V330 15SM OVC018 01/M02 A2960 RMK SC8 SLP032

CYHM;2009-04-04 14:00;CYHM 041400Z 29018G29KT 15SM OVC016 01/M01 A2963 RMK SC8 SLP040

CYHM;2009-04-04 15:00;CYHM 041500Z 29022G34KT 15SM OVC015 02/M01 A2967 RMK SC8 SLP054

CYHM;2009-04-04 16:00;CYHM 041600Z 30024G33KT 240V340 15SM OVC016 02/M01 A2970 RMK SC8 SLP065

CYHM;2009-04-04 17:00;CYHM 041700Z 30025G30KT 250V340 15SM OVC017 03/M00 A2971 RMK SC8 SLP069

CYHM;2009-04-04 18:00;CYHM 041800Z 29020G30KT 250V330 15SM BKN019 03/M00 A2971 RMK SC7 SLP069

CYHM;2009-04-04 19:00;CYHM 041900Z 30021G30KT 270V340 15SM BKN021 04/M00 A2975 RMK SC7 SLP081

CYHM;2009-04-04 20:00;CYHM 042000Z 29020G28KT 15SM BKN023 05/00 A2978 RMK SC7 SLP092

CYHM;2009-04-04 21:00;CYHM 042100Z 29020G30KT 260V320 15SM BKN025 BKN042 05/00 A2980 RMK SC6SC2 SLP098

CYHM;2009-04-04 22:00;CYHM 042200Z 29018G27KT 15SM SCT027 BKN042 BKN120 06/M00 A2982 RMK SC3SC2AC1 AC TR SLP104

CYHM;2009-04-04 23:00;CYHM 042300Z 30019G25KT 15SM FEW030 FEW055 FEW200 05/M03 A2984 RMK SC1SC1CI1 SLP112

CYHM;2009-04-05 00:00;CYHM 050000Z 30015G20KT 15SM FEW050 FEW200 04/M04 A2987 RMK SC1CI1 SLP122

CYHM;2009-04-05 01:00;CYHM 050100Z 29014KT 15SM FEW050 FEW200 03/M03 A2988 RMK SC1CI1 CI TR SLP127

CYHM;2009-04-05 02:00;CYHM 050200Z 30014KT 15SM FEW060 03/M04 A2990 RMK SC1 SLP132

CYHM;2009-04-05 03:00;CYHM 050300Z 28010KT 15SM FEW060 FEW220 02/M04 A2990 RMK SC2CI1 SLP134

CYHM;2009-04-05 04:00;CYHM 050400Z 29008KT 15SM FEW090 01/M04 A2990 RMK AC1 SLP132

CYHM;2009-04-05 05:00;CYHM 050500Z 29009KT 15SM FEW120 01/M04 A2991 RMK AC1 SLP135

CYHM;2009-04-05 06:00;CYHM 050600Z 29007KT 15SM FEW150 00/M05 A2991 RMK AC1 SLP137

CYHM;2009-04-05 07:00;CYHM 050700Z 28007KT 15SM SKC 00/M05 A2992 RMK SLP141

CYHM;2009-04-05 08:00;CYHM 050800Z 28010KT 15SM SKC M00/M05 A2993 RMK SLP143

CYHM;2009-04-05 09:00;CYHM 050900Z 29009KT 15SM SKC M00/M04 A2992 RMK SLP140

CYHM;2009-04-05 10:00;CYHM 051000Z 30007KT 15SM SKC M02/M04 A2992 RMK SLP139

CYHM;2009-04-05 11:00;CYHM 051100Z 30005KT 15SM FEW190 M01/M04 A2992 RMK AC1 SLP141

CYHM;2009-04-05 12:00;CYHM 051200Z 26004KT 15SM FEW190 M00/M03 A2993 RMK AC1 SLP145

CYHM;2009-04-05 13:00;CYHM 051300Z 26004KT 15SM FEW190 FEW250 02/M03 A2992 RMK AC1CI1 AC TR SLP142

CYHM;2009-04-05 14:00;CYHM 051400Z 31002KT 15SM FEW190 FEW250 04/M02 A2991 RMK AC1CI1 AC TR WND L/V SLP137

CYHM;2009-04-05 15:00;CYHM 051500Z 24004KT 15SM FEW190 FEW250 06/M02 A2991 RMK AC1CI0 AC TR SLP134

CYHM;2009-04-05 16:00;CYHM 051600Z 23004KT 160V300 15SM FEW250 07/00 A2989 RMK CI1 SLP128

CYHM;2009-04-05 17:00;CYHM 051700Z 26006KT 230V320 15SM FEW035 FEW250 08/00 A2986 RMK CU1CI1 CU TR SLP120

CYHM;2009-04-05 18:00;CYHM 051800Z 29002KT 15SM FEW042 FEW130 FEW250 10/M01 A2983 RMK CU1AC2CI0 CU TR WND L/V SLP109

CYHM;2009-04-05 19:00;CYHM 051900Z 20003KT 15SM FEW040 FEW130 SCT250 10/01 A2982 RMK CU1AC1CI1 CU TR WND L/V SLP104

CYHM;2009-04-05 20:00;CYHM 052000Z 21003KT 15SM FEW040 FEW130 BKN240 11/00 A2979 RMK SC1AC1CI2 SC TR WND L/V SLP096

CYHM;2009-04-05 21:00;CYHM 052100Z 21003KT 15SM FEW040 FEW130 BKN220 11/M00 A2976 RMK CF1AC2CI2 CF TR WND L/V SLP084

CYHM;2009-04-05 22:00;CYHM 052200Z 24002KT 15SM FEW035 FEW130 BKN200 11/01 A2976 RMK CF1AC2CI3 CF TR WND L/V SLP085

CYHM;2009-04-05 23:00;CYHM 052300Z 16007KT 15SM FEW035 FEW100 BKN200 09/03 A2975 RMK SC1AC2CI3 SC TR SLP082

CYHM;2009-04-06 00:00;CYHM 060000Z 11006KT 15SM FEW100 BKN210 07/02 A2972 RMK AC2CI5 SLP073

CYHM;2009-04-06 01:00;CYHM 060100Z 07005KT 15SM FEW100 OVC160 07/03 A2973 RMK AC2AS6 SLP075

CYHM;2009-04-06 02:00;CYHM 060200Z 05015KT 15SM FEW080 BKN100 OVC160 06/00 A2970 RMK AC2AC4AS2 SLP066

CYHM;2009-04-06 03:00;CYHM 060300Z 06015KT 15SM OVC096 06/00 A2969 RMK AC8 SLP060

CYHM;2009-04-06 03:44;CYHM 060344Z 04016KT 12SM -SHRA OVC054 RMK SC8

CYHM;2009-04-06 04:00;CYHM 060400Z CCA 04016G21KT 10SM -SHRA FEW040 OVC064 05/02 A2963 RMK SC2SC6 PRESFR SLP041

CYHM;2009-04-06 05:00;CYHM 060500Z 05017G26KT 12SM -SHRA OVC100 04/02 A2958 RMK AC8 PRESFR SLP023

CYHM;2009-04-06 06:00;CYHM 060600Z 05020G28KT 15SM -SHRA OVC080 04/01 A2954 RMK AC8 SLP009

CYHM;2009-04-06 07:00;CYHM 060700Z 05025G33KT 15SM -SHRA FEW012 FEW025 OVC083 03/01 A2950 RMK CF1SC2AC6 SLP994

CYHM;2009-04-06 07:24;CYHM 060724Z 06026G36KT 15SM -SHRA BKN012 OVC077 RMK SC6AC2

CYHM;2009-04-06 08:00;CYHM 060800Z CCA 06028G38KT 12SM -SHRA OVC008 03/01 A2944 RMK SF8 CIG RAG PRESFR SLP976

CYHM;2009-04-06 09:00;CYHM 060900Z 05028G36KT 7SM -SHRA OVC006 02/01 A2942 RMK SF8 CIG RAG SLP968

CYHM;2009-04-06 09:26;CYHM 060926Z 05028G37KT 2SM -SHSN OVC007 RMK SN1SF7

CYHM;2009-04-06 09:43;CYHM 060943Z 05028G38KT 5SM -SHSN OVC005 RMK SF8

CYHM;2009-04-06 10:00;CYHM 061000Z 05026G34KT 4SM -SNPL OVC004 01/00 A2936 RMK SF8 PRESFR SLP949

CYHM;2009-04-06 11:00;CYHM 061100Z 05028G42KT 6SM -SN OVC005 01/00 A2932 RMK SF8 SLP934

CYHM;2009-04-06 11:35;CYHM 061135Z 06028G36KT 5SM -SNPL BKN005 OVC012 RMK SF6SC2

CYHM;2009-04-06 11:45;CYHM 061145Z 06026G36KT 1 1/2SM -RAPL BR OVC005 RMK FG1SF7

CYHM;2009-04-06 11:53;CYHM 061153Z 05025G32KT 3SM -SNPL BR BKN005 OVC012 RMK SF6SC2

CYHM;2009-04-06 12:00;CYHM 061200Z 05025G32KT 4SM -SNPL BKN005 OVC012 01/00 A2931 RMK SF6SC2 SLP932

CYHM;2009-04-06 12:22;CYHM 061222Z CCA 05025G30KT 2SM -RASN BR OVC004 RMK SF8

CYHM;2009-04-06 12:48;CYHM 061248Z 04026G36KT 3SM -RA BR OVC004 RMK SF8

CYHM;2009-04-06 13:00;CYHM 061300Z 04025G38KT 1 1/2SM -RA BR OVC003 01/00 A2929 RMK FG1SF7 SLP925

CYHM;2009-04-06 13:07;CYHM 061307Z 04028G38KT 4SM -RA BR BKN004 OVC016 RMK SF6SC2

CYHM;2009-04-06 14:00;CYHM 061400Z 03030KT 4SM -RA BR BKN005 OVC010 01/01 A2929 RMK SF6SC2 SLP923

CYHM;2009-04-06 15:00;CYHM 061500Z 03020KT 5SM -RA BR OVC006 01/00 A2928 RMK SF8 SLP921

CYHM;2009-04-06 16:00;CYHM 061600Z 01018G26KT 2 1/2SM -RA BR OVC007 01/00 A2927 RMK SF8 SLP919

CYHM;2009-04-06 17:00;CYHM 061700Z 35020KT 2 1/2SM -RA BR BKN006 OVC012 01/00 A2927 RMK SF5SC3 SLP918

CYHM;2009-04-06 17:36;CYHM 061736Z 35020G25KT 2SM -RA BR BKN007 OVC013 RMK FG1SF5SC2

CYHM;2009-04-06 18:00;CYHM 061800Z 35020KT 2SM -RA BR BKN007 OVC018 01/M00 A2927 RMK FG1SF6SC2 SLP920

CYHM;2009-04-06 19:00;CYHM 061900Z 36016G24KT 1 3/4SM -RA BR BKN008 OVC018 01/M00 A2929 RMK SF5SC3 SLP925

CYHM;2009-04-06 19:30;CYHM 061930Z 35015G21KT 1 3/4SM -RASN BR BKN009 OVC023 RMK FG2SF3SC3

CYHM;2009-04-06 20:00;CYHM 062000Z 33015KT 1 1/4SM -RASN BR BKN009 OVC022 00/M01 A2931 RMK FG2SF4SC2 SLP933

CYHM;2009-04-06 21:00;CYHM 062100Z 32010G18KT 1SM -SN BR BKN009 OVC018 00/M01 A2934 RMK FG2SF4SC2 SLP942

CYHM;2009-04-06 22:00;CYHM 062200Z 32010KT 2SM -SN BR BKN009 OVC018 M00/M01 A2936 RMK SF5SC3 SLP951

CYHM;2009-04-06 22:49;CYHM 062249Z 30012KT 1SM -SN SCT009 OVC018 RMK SN2SF2SC5

CYHM;2009-04-06 23:00;CYHM 062300Z 32015KT 3/4SM -SN SCT009 OVC018 M01/M02 A2939 RMK SN2SF2SC5 SLP959

CYHM;2009-04-06 23:50;CYHM 062350Z 31015KT 2SM -SN FEW012 OVC050 RMK SN1SF2SC6

CYHM;2009-04-07 00:00;CYHM 070000Z 31015KT 2SM -SN FEW012 OVC050 M02/M03 A2940 RMK SN1SF2SC6 SLP965

CYHM;2009-04-07 01:00;CYHM 070100Z 31016KT 3SM -SN SCT022 OVC046 M02/M04 A2942 RMK SN2SF2SC5 SLP970

CYHM;2009-04-07 02:00;CYHM 070200Z 31015KT 3SM -SN OVC028 M02/M04 A2943 RMK SN2SC6 SLP974

CYHM;2009-04-07 03:00;CYHM 070300Z 31015KT 2 1/2SM -SN OVC025 M03/M05 A2943 RMK SN3SC5 SLP975

CYHM;2009-04-07 03:36;CYHM 070336Z 32016KT 4SM -SN FEW018 SCT048 OVC065 RMK SF1SC2SC5

CYHM;2009-04-07 04:00;CYHM 070400Z 30015KT 3SM -SN BKN022 OVC043 M03/M05 A2943 RMK SN2SC3SC2 SLP974

CYHM;2009-04-07 05:00;CYHM 070500Z 30012KT 3SM -SN BKN024 OVC044 M03/M05 A2942 RMK SN2SC5SC1 SLP973

CYHM;2009-04-07 06:00;CYHM 070600Z 30014KT 15SM -SHSN FEW022 BKN046 BKN084 M03/M06 A2942 RMK SF1SC4AC2 SLP973

CYHM;2009-04-07 07:00;CYHM 070700Z 07012KT 6SM -SHSN BKN058 OVC092 M04/M07 A2942 RMK SC6AC2 SLP971

CYHM;2009-04-07 08:00;CYHM 070800Z 29014KT 15SM -SHSN FEW022 OVC090 M04/M07 A2941 RMK SF1AC7 SLP970

CYHM;2009-04-07 09:00;CYHM 070900Z 30015G21KT 15SM -SHSN FEW022 SCT070 OVC090 M04/M08 A2941 RMK SF1AC2AC5 SLP970

CYHM;2009-04-07 10:00;CYHM 071000Z 29012KT 6SM -SHSN BKN024 OVC062 M04/M07 A2942 RMK SC5SC3 SLP972

CYHM;2009-04-07 11:00;CYHM 071100Z 31013KT 15SM -SHSN SCT024 BKN062 BKN076 OVC110 M04/M08 A2943 RMK SC3SC2AC2AC1 SLP976

CYHM;2009-04-07 12:00;CYHM 071200Z 29015G20KT 3SM -SHSN BKN022 OVC030 M04/M08 A2944 RMK SC6SC2 SLP981

CYHM;2009-04-07 13:00;CYHM 071300Z 32015G20KT 2SM -SHSN OVC025 M04/M07 A2945 RMK SC8 SLP983

CYHM;2009-04-07 13:45;CYHM 071345Z 28014KT 5SM -SHSN DRSN BKN026 OVC032 RMK SC6SC2

CYHM;2009-04-07 14:00;CYHM 071400Z 32014KT 6SM -SHSN DRSN FEW016 BKN024 BKN045 M03/M08 A2945 RMK CU2SC4SC2 SLP984

CYHM;2009-04-07 15:00;CYHM 071500Z 32013KT 7SM -SN OVC020 M03/M07 A2946 RMK SC8 SLP987

CYHM;2009-04-07 16:00;CYHM 071600Z 30015G22KT 15SM -SN DRSN OVC028 M03/M07 A2946 RMK SC8 SLP988

CYHM;2009-04-07 17:00;CYHM 071700Z 27014G20KT 15SM -SN DRSN OVC027 M02/M07 A2946 RMK SC8 SLP987

CYHM;2009-04-07 17:49;CYHM 071749Z 27020G25KT 15SM BKN030 BKN040 RMK SC5SC2

CYHM;2009-04-07 18:00;CYHM 071800Z 27020G25KT 15SM BKN030 BKN042 M01/M07 A2946 RMK SC5SC2 SLP988

CYHM;2009-04-07 19:00;CYHM 071900Z 29018G26KT 15SM OVC032 M01/M06 A2947 RMK SC8 CIG RGD SLP989

CYHM;2009-04-07 19:10;CYHM 071910Z 29017G26KT 6SM -SHSN OVC028 RMK SC8 CIG RGD

CYHM;2009-04-07 20:00;CYHM 072000Z 30014G20KT 3SM -SHSN OVC032 M01/M06 A2948 RMK SC8 CIG RGD SLP994

CYHM;2009-04-07 21:00;CYHM 072100Z 29015G22KT 15SM -SHSN OVC030 M01/M07 A2950 RMK SC8 CIG RGD SLP999

CYHM;2009-04-07 22:00;CYHM 072200Z 29013G20KT 15SM -SHSN BKN032 M01/M07 A2951 RMK SC7 CIG RGD SLP002

CYHM;2009-04-07 22:50;CYHM 072250Z 26015G22KT 15SM BKN048 BKN110 BKN250 RMK SC5AC1CI1 CI TR

CYHM;2009-04-07 23:00;CYHM 072300Z 26012G18KT 15SM BKN048 BKN110 BKN250 M01/M06 A2951 RMK SC5AC1CI1 CI TR SLP004

CYHM;2009-04-07 23:40;CYHM 072340Z 26006KT 15SM -SHSN FEW020 BKN048 BKN250 RMK SF1SC6CI1 CI TR

CYHM;2009-04-08 00:00;CYHM 080000Z 26012KT 15SM -SHSN FEW024 FEW044 BKN084 M01/M05 A2952 RMK SF1SC2AC4 SLP007

CYHM;2009-04-08 01:00;CYHM 080100Z 27009KT 15SM -SHSN FEW028 BKN110 M01/M05 A2953 RMK SC1AC6 SLP012

CYHM;2009-04-08 02:00;CYHM 080200Z 25010KT 15SM -SHSN BKN074 OVC120 M02/M04 A2954 RMK AC6AC1 SLP015

CYHM;2009-04-08 03:00;CYHM 080300Z 26008KT 15SM -SHSN OVC024 M02/M04 A2954 RMK SC7 SLP015

CYHM;2009-04-08 04:00;CYHM 080400Z 26008KT 15SM -SHSN BKN060 M02/M04 A2953 RMK SC6 SLP012

CYHM;2009-04-08 05:00;CYHM 080500Z CCA 24007KT 9SM -SHSN BKN022 OVC040 M02/M03 A2952 RMK SC6SC2 SLP009

CYHM;2009-04-08 06:00;CYHM 080600Z 24011KT 15SM -SHSN BKN024 BKN044 M02/M04 A2951 RMK SC5SC1 SLP004

CYHM;2009-04-08 07:00;CYHM 080700Z 24010KT 15SM -SHSN FEW018 BKN024 BKN044 M02/M04 A2950 RMK SF1SC4SC2 SLP001

CYHM;2009-04-08 09:00;CYHM 080900Z 25011KT 15SM -SHSN BKN018 OVC030 M01/M04 A2950 RMK SC6SC2 SF ASOCTD SLP999

CYHM;2009-04-08 10:00;CYHM 081000Z 26010KT 15SM -SHSN OVC025 M01/M05 A2951 RMK SC8 SF ASOCTD SLP002

CYHM;2009-04-08 11:00;CYHM 081100Z 25012KT 15SM -SHSN OVC021 M01/M05 A2952 RMK SC8 SLP006

CYHM;2009-04-08 12:00;CYHM 081200Z 25014KT 15SM -SHSN OVC024 M01/M05 A2954 RMK SC8 SLP013

CYHM;2009-04-08 13:00;CYHM 081300Z 25012KT 15SM SCT036 BKN120 BKN160 M01/M09 A2955 RMK SC4AC2AC1 SLP016

CYHM;2009-04-08 14:00;CYHM 081400Z 27013KT 15SM FEW021 BKN028 BKN160 00/M04 A2956 RMK CU2SC4AC1 SLP019

CYHM;2009-04-08 15:00;CYHM 081500Z 25015G20KT 15SM FEW025 FEW036 BKN210 02/M05 A2957 RMK CU2SC1CI2 SLP021

CYHM;2009-04-08 16:00;CYHM 081600Z 25016G22KT 15SM FEW028 FEW120 SCT160 BKN210 03/M05 A2956 RMK CU1AC2AC1CI2 SLP020

CYHM;2009-04-08 17:00;CYHM 081700Z 28020KT 15SM FEW030 SCT140 BKN210 04/M05 A2955 RMK CU1AC2CS3 HALO SLP017

CYHM;2009-04-08 18:00;CYHM 081800Z 25016G24KT 15SM FEW048 SCT100 BKN250 06/M07 A2955 RMK CU1AS2CS1 CONTRAILS HALO SLP014

CYHM;2009-04-08 19:00;CYHM 081900Z 26018G25KT 15SM FEW050 FEW100 BKN130 07/M06 A2954 RMK CU1AC1AS2 HALO SLP012

CYHM;2009-04-08 20:00;CYHM 082000Z 28018G25KT 15SM FEW050 FEW070 BKN250 08/M05 A2954 RMK CU2AC1CI1 SLP011

CYHM;2009-04-08 21:00;CYHM 082100Z 26020G30KT 15SM FEW065 BKN250 08/M05 A2955 RMK CU2CI1 SLP013

CYHM;2009-04-08 22:00;CYHM 082200Z 25018G24KT 15SM FEW070 BKN250 08/M05 A2956 RMK AC2CI2 SLP017

CYHM;2009-04-08 23:00;CYHM 082300Z 25014G20KT 15SM FEW070 BKN140 BKN250 07/M05 A2957 RMK AC1AS2CS1 SLP021

CYHM;2009-04-09 00:00;CYHM 090000Z 24011G17KT 15SM FEW070 SCT130 BKN250 07/M05 A2958 RMK AC1AS2CS1 AC TR CONTRAILS SLP024

CYHM;2009-04-09 01:00;CYHM 090100Z 21012KT 15SM BKN150 BKN250 04/M03 A2960 RMK AS2CS1 SLP030

CYHM;2009-04-09 02:00;CYHM 090200Z 22011KT 15SM FEW070 BKN140 BKN250 03/M03 A2961 RMK AC1AS2CS0 AC TR HALO SLP034

CYHM;2009-04-09 03:00;CYHM 090300Z 28007KT 15SM FEW140 BKN250 03/M04 A2963 RMK AC2CS1 PTLY HALO SLP043

CYHM;2009-04-09 04:00;CYHM 090400Z 26005KT 15SM SCT170 03/M04 A2965 RMK AC3 SLP048

CYHM;2009-04-09 05:00;CYHM 090500Z 22004KT 15SM BKN170 M00/M04 A2967 RMK AC5 SLP054

CYHM;2009-04-09 06:00;CYHM 090600Z 29005KT 15SM FEW170 FEW200 00/M04 A2968 RMK AC1CI2 SLP058

CYHM;2009-04-09 07:00;CYHM 090700Z 30006KT 15SM FEW220 01/M05 A2969 RMK CI1 SLP061

CYHM;2009-04-09 08:00;CYHM 090800Z 28003KT 15SM FEW220 M01/M05 A2970 RMK CI1 SLP064

CYHM;2009-04-09 09:00;CYHM 090900Z 26003KT 15SM FEW220 M01/M05 A2971 RMK CI1 SLP069

CYHM;2009-04-09 10:00;CYHM 091000Z 25005KT 15SM FEW220 M02/M05 A2973 RMK CI1 FROIN SLP075

CYHM;2009-04-09 11:00;CYHM 091100Z 24005KT 15SM FEW210 M03/M05 A2975 RMK CI1 CI TR SLP082

CYHM;2009-04-09 12:00;CYHM 091200Z 24005KT 15SM FEW210 M00/M04 A2977 RMK CI1 CI TR SLP088

CYHM;2009-04-09 13:00;CYHM 091300Z 26005KT 15SM SKC 03/M04 A2978 RMK SLP092

CYHM;2009-04-09 14:00;CYHM 091400Z 24009KT 15SM SKC 06/M04 A2979 RMK SLP095

CYHM;2009-04-09 15:00;CYHM 091500Z 25009KT 15SM SKC 08/M03 A2981 RMK SLP099

CYHM;2009-04-09 16:00;CYHM 091600Z 26010KT 15SM FEW030 09/M03 A2982 RMK CU1 CU TR SLP103

CYHM;2009-04-09 17:00;CYHM 091700Z 27005KT 15SM FEW030 09/M03 A2982 RMK CU1 SLP103

CYHM;2009-04-09 18:00;CYHM 091800Z 28008KT 15SM FEW038 FEW064 10/M02 A2981 RMK CU2SC1 SLP103

CYHM;2009-04-09 19:00;CYHM 091900Z 26011G20KT 210V300 15SM BKN064 11/M02 A2981 RMK SC6 SLP103

CYHM;2009-04-09 20:00;CYHM 092000Z 27008KT 15SM BKN072 10/M03 A2981 RMK AC7 SLP103

CYHM;2009-04-09 21:00;CYHM 092100Z 28009KT 15SM BKN066 10/M02 A2983 RMK AC7 VIRGA SLP108

CYHM;2009-04-09 22:00;CYHM 092200Z 26006KT 15SM BKN065 10/M02 A2985 RMK SC7 XTNSV VIRGA SLP115

CYHM;2009-04-09 23:00;CYHM 092300Z 32008G16KT 270V360 15SM BKN064 09/M02 A2987 RMK SC7 VIRGA SLP120

CYHM;2009-04-10 00:00;CYHM 100000Z 30002KT 15SM FEW064 BKN099 09/M04 A2987 RMK SC2AC4 SLP123

CYHM;2009-04-10 01:00;CYHM 100100Z 00000KT 15SM BKN098 07/M03 A2989 RMK AC6 SLP128

CYHM;2009-04-10 02:00;CYHM 100200Z 00000KT 15SM BKN093 06/M02 A2992 RMK AC7 SLP139

CYHM;2009-04-10 03:00;CYHM 100300Z 00000KT 15SM BKN096 06/M02 A2993 RMK AC7 SLP141

CYHM;2009-04-10 04:00;CYHM 100400Z 03006KT 15SM BKN096 05/M03 A2993 RMK AC5 SLP142

CYHM;2009-04-10 05:00;CYHM 100500Z 04008KT 15SM FEW095 04/M03 A2994 RMK AC2 SLP143

CYHM;2009-04-10 06:00;CYHM 100600Z 05006KT 15SM FEW090 04/M04 A2995 RMK AC1 SLP148

CYHM;2009-04-10 07:00;CYHM 100700Z 04006KT 15SM FEW090 03/M04 A2996 RMK AC1 SLP150

CYHM;2009-04-10 09:00;CYHM 100900Z 06006KT 15SM FEW090 01/M05 A2997 RMK AC1 SLP154

CYHM;2009-04-10 10:00;CYHM 101000Z 03010KT 15SM FEW100 02/M06 A2997 RMK AC1 AC TR SLP156

CYHM;2009-04-10 11:00;CYHM 101100Z 03010KT 15SM FEW140 SCT210 01/M05 A2999 RMK AC1CI2 AC TR SLP162

CYHM;2009-04-10 12:00;CYHM 101200Z 04012KT 15SM SCT210 02/M04 A3001 RMK CI1 SLP169

CYHM;2009-04-10 13:00;CYHM 101300Z 05012KT 15SM FEW210 03/M04 A3001 RMK CI1 SLP170

CYHM;2009-04-10 14:00;CYHM 101400Z 04018KT 15SM FEW180 BKN210 04/M04 A3001 RMK AC1CI3 SLP169

CYHM;2009-04-10 15:00;CYHM 101500Z 06018KT 15SM SCT180 BKN220 05/M03 A3002 RMK AS3CI2 SLP171

CYHM;2009-04-10 16:00;CYHM 101600Z 05017KT 15SM SCT180 BKN220 06/M03 A3001 RMK AS3CI3 SLP167

CYHM;2009-04-10 17:00;CYHM 101700Z 04016KT 15SM FEW180 BKN220 06/M02 A2999 RMK AS2CI4 SLP163

CYHM;2009-04-10 18:00;CYHM 101800Z 05017KT 15SM FEW180 BKN210 07/M02 A2999 RMK AS2CI5 SLP161

CYHM;2009-04-10 19:00;CYHM 101900Z 04014KT 15SM FEW170 BKN220 07/M02 A2997 RMK AC1CI6 CONTRAILS SLP157

CYHM;2009-04-10 20:00;CYHM 102000Z 05017KT 15SM FEW050 BKN190 06/M02 A2996 RMK SC1AC6 SLP153

CYHM;2009-04-10 21:00;CYHM 102100Z 06017KT 15SM BKN200 06/M02 A2995 RMK CI6 CONTRAILS SLP150

CYHM;2009-04-10 22:00;CYHM 102200Z 05016KT 15SM BKN180 05/M02 A2995 RMK AC7 SLP151

CYHM;2009-04-10 23:00;CYHM 102300Z 05011KT 15SM OVC190 04/M01 A2997 RMK AC8 SLP158

CYHM;2009-04-11 00:00;CYHM 110000Z 04006KT 15SM BKN220 04/M02 A2999 RMK CI7 SLP165

CYHM;2009-04-11 01:00;CYHM 110100Z 02005KT 15SM BKN073 OVC210 03/M01 A3001 RMK AC6CI2 SLP170

CYHM;2009-04-11 02:00;CYHM 110200Z 02007KT 15SM SCT075 OVC230 04/M02 A3001 RMK AC3CI5 SLP172

CYHM;2009-04-11 03:00;CYHM 110300Z 03009KT 15SM BKN230 03/M02 A3000 RMK CI6 SLP167

CYHM;2009-04-11 04:00;CYHM 110400Z 02013KT 15SM BKN240 03/M05 A3001 RMK CI6 SLP170

CYHM;2009-04-11 05:00;CYHM 110500Z 02011KT 15SM FEW075 BKN250 02/M05 A3001 RMK AC1CI4 SLP171

CYHM;2009-04-11 06:00;CYHM 110600Z 02011KT 15SM BKN250 02/M05 A3002 RMK CI5 SLP172

CYHM;2009-04-11 07:00;CYHM 110700Z 03010KT 15SM BKN260 01/M04 A3002 RMK CI4 SLP173

CYHM;2009-04-11 08:00;CYHM 110800Z 02010KT 15SM BKN260 02/M04 A3003 RMK CI4 SLP177

CYHM;2009-04-11 09:00;CYHM 110900Z 03011KT 15SM SCT260 01/M05 A3004 RMK CI3 SLP182

CYHM;2009-04-11 10:00;CYHM 111000Z 03011KT 15SM FEW250 01/M06 A3006 RMK CI2 SLP186

CYHM;2009-04-11 11:00;CYHM 111100Z 03014KT 15SM FEW250 00/M06 A3008 RMK CI1 SLP195

CYHM;2009-04-11 12:00;CYHM 111200Z 03015G21KT 15SM FEW250 01/M06 A3011 RMK CI1 SLP204

CYHM;2009-04-11 13:00;CYHM 111300Z 03015G20KT 15SM FEW250 02/M06 A3013 RMK CI1 CONTRAILS SLP211

CYHM;2009-04-11 14:00;CYHM 111400Z 05018G25KT 15SM FEW250 03/M06 A3015 RMK CI1 SLP218

CYHM;2009-04-11 15:00;CYHM 111500Z 06018G25KT 15SM FEW040 FEW250 04/M06 A3018 RMK CU1CI1 CU TR SLP227

CYHM;2009-04-11 16:00;CYHM 111600Z 06013KT 340V090 15SM FEW042 FEW250 05/M06 A3019 RMK CU1CI1 CU TR SLP232

CYHM;2009-04-11 17:00;CYHM 111700Z 06008KT 15SM FEW048 FEW250 06/M06 A3019 RMK CU1CI0 SLP232

CYHM;2009-04-11 18:00;CYHM 111800Z 02010KT 330V070 15SM FEW052 FEW250 07/M06 A3019 RMK CU2CI0 SLP231

CYHM;2009-04-11 19:00;CYHM 111900Z 04012G17KT 360V080 15SM SCT061 07/M06 A3018 RMK SC4 SLP228

CYHM;2009-04-11 20:00;CYHM 112000Z 01012G18KT 340V040 15SM SCT064 08/M06 A3018 RMK SC4 SLP228

CYHM;2009-04-11 21:00;CYHM 112100Z 36012G18KT 330V030 15SM SCT064 07/M06 A3018 RMK SC3 SLP229

CYHM;2009-04-11 22:00;CYHM 112200Z 36014KT 330V040 15SM FEW063 06/M07 A3020 RMK SC2 SLP234

CYHM;2009-04-11 23:00;CYHM 112300Z 36015KT 330V030 15SM FEW060 05/M07 A3022 RMK SC2 SLP241

CYHM;2009-04-12 00:00;CYHM 120000Z 35016KT 15SM FEW060 03/M08 A3023 RMK SC1 SLP247

CYHM;2009-04-12 01:00;CYHM 120100Z 36010KT 15SM SKC 02/M07 A3025 RMK SLP254

CYHM;2009-04-12 02:00;CYHM 120200Z 34008KT 15SM SKC 01/M08 A3027 RMK SLP259

CYHM;2009-04-12 03:00;CYHM 120300Z 34008KT 15SM SKC M00/M08 A3027 RMK SLP260

CYHM;2009-04-12 04:00;CYHM 120400Z 33009KT 15SM SKC M00/M08 A3027 RMK SLP261

CYHM;2009-04-12 05:00;CYHM 120500Z 34009KT 15SM SKC M01/M07 A3028 RMK SLP262

CYHM;2009-04-12 06:00;CYHM 120600Z 34008KT 15SM FEW210 M01/M07 A3028 RMK CI1 SLP264

CYHM;2009-04-12 07:00;CYHM 120700Z 32005KT 15SM FEW210 M02/M07 A3029 RMK CI1 SLP265

CYHM;2009-04-12 08:00;CYHM 120800Z 34007KT 15SM SKC M02/M07 A3029 RMK SLP267

CYHM;2009-04-12 09:00;CYHM 120900Z 35004KT 15SM FEW210 M02/M07 A3030 RMK CI1 SLP271

CYHM;2009-04-12 10:00;CYHM 121000Z 00000KT 15SM FEW100 FEW200 M02/M07 A3031 RMK AC1CI1 TR AC SLP273

CYHM;2009-04-12 11:00;CYHM 121100Z 01005KT 15SM SKC M02/M07 A3034 RMK SLP282

CYHM;2009-04-12 12:00;CYHM 121200Z 01008KT 15SM SKC M01/M08 A3036 RMK SLP290

CYHM;2009-04-12 13:00;CYHM 121300Z 03012KT 15SM FEW040 00/M10 A3037 RMK CU1 SLP294

CYHM;2009-04-12 14:00;CYHM 121400Z 36014KT 15SM FEW045 01/M10 A3037 RMK CU1 SLP293

CYHM;2009-04-12 15:00;CYHM 121500Z 04009KT 15SM FEW048 02/M10 A3039 RMK CU1 SLP302

CYHM;2009-04-12 16:00;CYHM 121600Z 34002KT 15SM SKC 03/M09 A3039 RMK WND L/V SLP300

CYHM;2009-04-12 17:00;CYHM 121700Z 36009KT 280V030 15SM SKC 05/M10 A3037 RMK SLP295

CYHM;2009-04-12 18:00;CYHM 121800Z 36007KT 300V050 15SM SKC 06/M09 A3036 RMK SLP289

CYHM;2009-04-12 19:00;CYHM 121900Z 01008KT 330V040 15SM SKC 06/M09 A3034 RMK SLP285

CYHM;2009-04-12 20:00;CYHM 122000Z 35006KT 15SM SKC 06/M09 A3033 RMK SLP280

CYHM;2009-04-12 21:00;CYHM 122100Z 36010KT 330V030 15SM SKC 07/M08 A3032 RMK SLP275

CYHM;2009-04-12 22:00;CYHM 122200Z 36010KT 15SM SKC 06/M08 A3031 RMK SLP272

CYHM;2009-04-12 23:00;CYHM 122300Z 01005KT 15SM FEW220 06/M09 A3030 RMK CI1 SLP269

CYHM;2009-04-13 00:00;CYHM 130000Z 02005KT 15SM FEW240 04/M08 A3031 RMK CI1 SLP273

CYHM;2009-04-13 01:00;CYHM 130100Z 03004KT 15SM FEW240 02/M08 A3033 RMK CI1 CI TR SLP280

CYHM;2009-04-13 02:00;CYHM 130200Z 04006KT 15SM SKC 01/M09 A3032 RMK SLP278

CYHM;2009-04-13 03:00;CYHM 130300Z 05005KT 15SM FEW200 01/M09 A3033 RMK CI1 SLP279

CYHM;2009-04-13 04:00;CYHM 130400Z 03005KT 15SM SKC M00/M10 A3031 RMK SLP274

CYHM;2009-04-13 05:00;CYHM 130500Z 00000KT 15SM FEW140 M02/M09 A3032 RMK AC1 SLP276

CYHM;2009-04-13 06:00;CYHM 130600Z 00000KT 15SM SKC M02/M09 A3031 RMK SLP274

CYHM;2009-04-13 07:00;CYHM 130700Z 00000KT 15SM SKC M02/M09 A3030 RMK SLP269

CYHM;2009-04-13 08:00;CYHM 130800Z 02004KT 15SM FEW230 M02/M10 A3027 RMK CI1 SLP262

CYHM;2009-04-13 09:00;CYHM 130900Z 00000KT 15SM FEW210 M03/M10 A3028 RMK CI1 SLP263

CYHM;2009-04-13 10:00;CYHM 131000Z 00000KT 15SM FEW210 M05/M08 A3029 RMK CI1 SLP266

CYHM;2009-04-13 11:00;CYHM 131100Z 04008KT 15SM SCT220 M02/M10 A3022 RMK CI1 SLP244

CYHM;2009-04-13 12:00;CYHM 131200Z 05006KT 15SM BKN220 M01/M08 A3025 RMK CI2 SLP254

CYHM;2009-04-13 13:00;CYHM 131300Z 06007KT 15SM SCT220 01/M06 A3025 RMK CI2 CONTRAIL SLP254

CYHM;2009-04-13 14:00;CYHM 131400Z 05007KT 15SM FEW160 BKN220 03/M06 A3025 RMK AC1CI2 AC TR SLP252

CYHM;2009-04-13 15:00;CYHM 131500Z 06010KT 15SM FEW160 BKN220 03/M06 A3021 RMK AC1CI3 SLP238

CYHM;2009-04-13 16:00;CYHM 131600Z 07008KT 15SM FEW150 BKN210 04/M06 A3021 RMK AC2CS5 HALO SLP238

CYHM;2009-04-13 17:00;CYHM 131700Z 08013KT 15SM FEW100 OVC210 04/M07 A3017 RMK AC2CS6 HALO SLP225

CYHM;2009-04-13 18:00;CYHM 131800Z 06016KT 15SM FEW100 OVC210 05/M07 A3013 RMK AC1CS7 SLP212

CYHM;2009-04-13 19:00;CYHM 131900Z 06014KT 15SM BKN200 05/M08 A3011 RMK CS6 SLP207

CYHM;2009-04-13 20:00;CYHM 132000Z 06014KT 15SM BKN210 05/M08 A3008 RMK CS6 SLP197

CYHM;2009-04-13 21:00;CYHM 132100Z 05015KT 15SM FEW180 BKN220 05/M12 A3006 RMK AC1CS6 SLP189

CYHM;2009-04-13 22:00;CYHM 132200Z 06015KT 15SM BKN160 BKN220 04/M13 A3004 RMK AC6CS1 SUN DMLY VSBL SLP182

CYHM;2009-04-13 23:00;CYHM 132300Z 05016G24KT 15SM OVC140 03/M10 A3000 RMK AC8 SLP169

CYHM;2009-04-14 00:00;CYHM 140000Z 06015KT 15SM OVC130 03/M08 A3002 RMK AC8 SLP176

CYHM;2009-04-14 01:00;CYHM 140100Z 06014KT 15SM OVC100 03/M06 A3004 RMK AC8 SLP182

CYHM;2009-04-14 02:00;CYHM 140200Z 06015G21KT 15SM BKN140 BKN210 02/M06 A3001 RMK AC6CI1 SLP173

CYHM;2009-04-14 03:00;CYHM 140300Z 06015KT 15SM BKN140 02/M05 A3001 RMK AC6 SLP169

CYHM;2009-04-14 04:00;CYHM 140400Z 04015KT 15SM BKN140 02/M04 A2999 RMK AC7 SLP163

CYHM;2009-04-14 05:00;CYHM 140500Z 05014KT 15SM SCT130 02/M05 A2997 RMK AC3 SLP157

CYHM;2009-04-14 06:00;CYHM 140600Z 05015KT 15SM SCT130 02/M04 A2998 RMK AC4 SLP160

CYHM;2009-04-14 07:00;CYHM 140700Z 05014KT 15SM BKN120 02/M03 A2997 RMK AC7 SLP156

CYHM;2009-04-14 08:00;CYHM 140800Z 05015G21KT 15SM BKN130 02/M03 A2997 RMK AC6 SLP157

CYHM;2009-04-14 09:00;CYHM 140900Z 05018G24KT 15SM FEW130 BKN190 02/M03 A2996 RMK AC2AC5 SLP153

CYHM;2009-04-14 10:00;CYHM 141000Z 05015G21KT 15SM BKN160 BKN220 02/M03 A2994 RMK AC6CI1 SLP147

CYHM;2009-04-14 11:00;CYHM 141100Z CCA 05020KT 15SM BKN160 BKN230 02/M03 A2996 RMK AC5CI2 CONTRAIL SLP152

CYHM;2009-04-14 12:00;CYHM 141200Z 05020KT 15SM FEW100 BKN150 BKN220 03/M03 A2996 RMK AC2AC3CI1 CONTRAIL SLP153

CYHM;2009-04-14 13:00;CYHM 141300Z 05020G25KT 15SM BKN110 BKN160 BKN220 03/M03 A2994 RMK AC5AC1CI1 SLP148

CYHM;2009-04-14 14:00;CYHM 141400Z 05020G26KT 15SM BKN100 BKN160 OVC220 04/M02 A2994 RMK AC5AC1CI2 SLP147

CYHM;2009-04-14 15:00;CYHM 141500Z 06022KT 15SM BKN087 OVC110 03/M02 A2994 RMK AC6AC2 SLP145

CYHM;2009-04-14 16:00;CYHM 141600Z 06022G28KT 15SM BKN084 OVC120 04/M01 A2992 RMK AC5AC2 SLP141

CYHM;2009-04-14 17:00;CYHM 141700Z 06025G32KT 15SM SCT110 BKN160 BKN220 05/M02 A2992 RMK AC4AC2CI1 SLP139

CYHM;2009-04-14 18:00;CYHM 141800Z 05025G30KT 15SM BKN080 BKN120 OVC210 05/M04 A2992 RMK AC6AC2CI1 SLP139

CYHM;2009-04-14 19:00;CYHM 141900Z 06024G34KT 15SM FEW090 BKN180 06/M04 A2990 RMK AC1AC6 SLP134

CYHM;2009-04-14 20:00;CYHM 142000Z 06025G36KT 15SM FEW090 BKN180 06/M05 A2990 RMK AC1AC6 SLP132

CYHM;2009-04-14 21:00;CYHM 142100Z 06022G32KT 15SM FEW120 BKN180 BKN250 07/M05 A2990 RMK AC1AC5CI0 SLP132

CYHM;2009-04-14 22:00;CYHM 142200Z 06024G32KT 15SM OVC050 07/M05 A2991 RMK SC8 SLP134

CYHM;2009-04-14 23:00;CYHM 142300Z 06018G26KT 15SM OVC048 07/M05 A2991 RMK SC8 SLP135

CYHM;2009-04-15 00:00;CYHM 150000Z 07020G28KT 15SM OVC052 07/M05 A2991 RMK SC8 SLP135

CYHM;2009-04-15 01:00;CYHM 150100Z 06017G24KT 15SM FEW048 OVC060 08/M05 A2992 RMK SC2SC6 SLP139

CYHM;2009-04-15 02:00;CYHM 150200Z 06014G22KT 15SM OVC046 08/M04 A2994 RMK SC8 SLP147

CYHM;2009-04-15 03:00;CYHM 150300Z 07015G21KT 15SM OVC056 08/M05 A2995 RMK SC8 SLP150

CYHM;2009-04-15 04:00;CYHM 150400Z 06014G20KT 15SM OVC060 08/M05 A2996 RMK SC8 SLP151

CYHM;2009-04-15 05:00;CYHM 150500Z 05014G20KT 15SM OVC065 06/M03 A2997 RMK SC8 SLP154

CYHM;2009-04-15 06:00;CYHM 150600Z 06014KT 15SM OVC065 06/M03 A2997 RMK SC8 SLP155

CYHM;2009-04-15 07:00;CYHM 150700Z 05015G22KT 15SM FEW065 BKN140 06/M04 A2996 RMK SC2AC4 SLP153

CYHM;2009-04-15 08:00;CYHM 150800Z 05015G22KT 15SM FEW100 BKN140 05/M03 A2997 RMK AC2AC5 SLP156

CYHM;2009-04-15 09:00;CYHM 150900Z 05014G22KT 15SM BKN140 BKN220 05/M03 A2999 RMK AC7CI1 CI TR SLP163

CYHM;2009-04-15 10:00;CYHM 151000Z 05014G21KT 15SM BKN160 BKN220 04/M03 A3001 RMK AC6CI1 CI TR SLP170

CYHM;2009-04-15 11:00;CYHM 151100Z 04014G19KT 15SM SCT140 BKN170 BKN220 04/M03 A2993 RMK AC3AC2CI2 SLP141

CYHM;2009-04-15 12:00;CYHM 151200Z 04015KT 15SM BKN150 BKN220 04/M03 A3007 RMK AC5CI2 PRESRR SLP191

CYHM;2009-04-15 13:00;CYHM 151300Z 05022G28KT 15SM BKN140 BKN220 05/M04 A3009 RMK AC6CI2 SLP197

CYHM;2009-04-15 14:00;CYHM 151400Z 06020G28KT 15SM SCT140 BKN220 06/M04 A3011 RMK AC3CS3 HALO SLP202

CYHM;2009-04-15 15:00;CYHM 151500Z 05022G27KT 15SM FEW140 BKN220 06/M04 A3012 RMK AC2CI3 SLP204

CYHM;2009-04-15 16:00;CYHM 151600Z 05020G25KT 15SM FEW150 BKN220 08/M04 A3013 RMK AC2CI3 SLP208

CYHM;2009-04-15 17:00;CYHM 151700Z 05026KT 15SM FEW180 BKN220 08/M05 A3014 RMK AC1CI5 SLP211

CYHM;2009-04-15 18:00;CYHM 151800Z 06020G25KT 15SM BKN220 10/M05 A3015 RMK CI4 SLP215

CYHM;2009-04-15 19:00;CYHM 151900Z 07022KT 15SM BKN240 11/M06 A3015 RMK CI4 SLP215

CYHM;2009-04-15 20:00;CYHM 152000Z 06016KT 15SM BKN250 12/M06 A3015 RMK CI5 SLP216

CYHM;2009-04-15 21:00;CYHM 152100Z 06014KT 15SM BKN250 11/M06 A3016 RMK CI6 SLP218

CYHM;2009-04-15 22:00;CYHM 152200Z 08008KT 15SM BKN250 11/M06 A3018 RMK CI6 SLP224

CYHM;2009-04-15 23:00;CYHM 152300Z 01004KT 15SM BKN250 10/M05 A3019 RMK CI3 SLP228

CYHM;2009-04-16 00:00;CYHM 160000Z 36004KT 15SM BKN250 07/M05 A3020 RMK CI2 SLP233

CYHM;2009-04-16 01:00;CYHM 160100Z 36006KT 15SM FEW250 06/M05 A3022 RMK CI1 SLP239

CYHM;2009-04-16 02:00;CYHM 160200Z 01004KT 15SM SKC 05/M05 A3024 RMK SLP247

CYHM;2009-04-16 03:00;CYHM 160300Z 01005KT 15SM SKC 05/M06 A3026 RMK SLP254

CYHM;2009-04-16 04:00;CYHM 160400Z 02006KT 15SM SKC 06/M07 A3028 RMK SLP260

CYHM;2009-04-16 05:00;CYHM 160500Z 00000KT 15SM SKC 04/M07 A3029 RMK SLP263

CYHM;2009-04-16 06:00;CYHM 160600Z 04005KT 15SM SKC 03/M07 A3029 RMK SLP265

CYHM;2009-04-16 07:00;CYHM 160700Z 04005KT 15SM FEW210 03/M07 A3030 RMK CI1 SLP266

CYHM;2009-04-16 08:00;CYHM 160800Z 02004KT 15SM SKC 05/M08 A3030 RMK SLP268

CYHM;2009-04-16 09:00;CYHM 160900Z 36005KT 15SM FEW200 03/M06 A3032 RMK CI1 SLP272

CYHM;2009-04-16 10:00;CYHM 161000Z 02006KT 15SM FEW100 FEW210 02/M05 A3033 RMK AC1CI1 SLP276

CYHM;2009-04-16 11:00;CYHM 161100Z CCA 03008KT 15SM FEW240 03/M06 A3035 RMK CI1 SLP282

CYHM;2009-04-16 12:00;CYHM 161200Z CCA 02008KT 15SM SKC 05/M05 A3038 RMK SLP293

CYHM;2009-04-16 13:00;CYHM 161300Z 03010KT 15SM SKC 08/M05 A3039 RMK SLP299

CYHM;2009-04-16 14:00;CYHM 161400Z 05007KT 15SM SKC 10/M05 A3041 RMK SLP303

CYHM;2009-04-16 15:00;CYHM 161500Z 07008KT 15SM SKC 11/M05 A3042 RMK SLP307

CYHM;2009-04-16 16:00;CYHM 161600Z 05008KT 15SM SKC 12/M05 A3042 RMK SLP309

CYHM;2009-04-16 17:00;CYHM 161700Z 08008KT 15SM SKC 13/M05 A3042 RMK SLP306

CYHM;2009-04-16 18:00;CYHM 161800Z 07008KT 15SM SKC 14/M05 A3041 RMK SLP302

CYHM;2009-04-16 19:00;CYHM 161900Z 06004KT 360V140 15SM FEW250 14/M06 A3040 RMK CI1 SLP299

CYHM;2009-04-16 20:00;CYHM 162000Z CCA 12007KT 090V170 15SM FEW250 15/M05 A3038 RMK CI1 SLP293

CYHM;2009-04-16 21:00;CYHM 162100Z 11004KT 040V160 15SM FEW250 15/M05 A3037 RMK CI0 SLP291

CYHM;2009-04-16 22:00;CYHM 162200Z 12004KT 15SM FEW250 15/M05 A3036 RMK CI1 SLP287

CYHM;2009-04-16 23:00;CYHM 162300Z 11005KT 15SM FEW250 14/M04 A3037 RMK CI1 SLP289

CYHM;2009-04-17 00:00;CYHM 170000Z 20004KT 15SM FEW250 11/M04 A3037 RMK CI0 SLP291

CYHM;2009-04-17 01:00;CYHM 170100Z 23002KT 15SM SKC 09/M04 A3038 RMK SLP293

CYHM;2009-04-17 02:00;CYHM 170200Z 23004KT 15SM SKC 08/M05 A3038 RMK SLP294

CYHM;2009-04-17 03:00;CYHM 170300Z 26003KT 15SM SKC 08/M05 A3038 RMK SLP293

CYHM;2009-04-17 04:00;CYHM 170400Z 00000KT 15SM SKC 07/M05 A3037 RMK SLP291

CYHM;2009-04-17 05:00;CYHM 170500Z 27003KT 15SM SKC 07/M06 A3037 RMK SLP290

CYHM;2009-04-17 06:00;CYHM 170600Z 26003KT 15SM SKC 06/M06 A3036 RMK SLP285

CYHM;2009-04-17 07:00;CYHM 170700Z 27004KT 15SM FEW250 05/M06 A3035 RMK CI1 SLP283

CYHM;2009-04-17 08:00;CYHM 170800Z 28004KT 15SM FEW250 05/M05 A3035 RMK CI1 SLP282

CYHM;2009-04-17 09:00;CYHM 170900Z 27004KT 15SM SKC 02/M05 A3035 RMK SLP284

CYHM;2009-04-17 10:00;CYHM 171000Z 26004KT 15SM FEW230 01/M05 A3035 RMK CI1 SLP284

CYHM;2009-04-17 11:00;CYHM 171100Z 27006KT 15SM FEW230 02/M04 A3035 RMK CI1 CI TR CONTRAIL SLP283

CYHM;2009-04-17 12:00;CYHM 171200Z 26004KT 15SM FEW230 04/M03 A3036 RMK CI1 CI TR CONTRAIL SLP287

CYHM;2009-04-17 13:00;CYHM 171300Z 27005KT 15SM FEW230 08/M01 A3036 RMK CI1 SLP286

CYHM;2009-04-17 14:00;CYHM 171400Z 27005KT 15SM FEW230 11/M02 A3035 RMK CI1 CI TR CONTRAIL SLP282

CYHM;2009-04-17 15:00;CYHM 171500Z 26010KT 15SM FEW240 13/M04 A3035 RMK CI1 CI TR SLP282

CYHM;2009-04-17 16:00;CYHM 171600Z 28008KT 15SM FEW240 15/M06 A3033 RMK CI1 CI TR CONTRAIL SLP275

CYHM;2009-04-17 17:00;CYHM 171700Z 28008KT 15SM FEW240 17/M05 A3031 RMK CI1 CONTRAIL SLP268

CYHM;2009-04-17 18:00;CYHM 171800Z 27010KT 15SM FEW240 18/M04 A3029 RMK CI1 CONTRAIL SLP259

CYHM;2009-04-17 19:00;CYHM 171900Z 27012G17KT 15SM FEW120 SCT250 20/M03 A3026 RMK AC1CI1 CONTRAILS SLP252

CYHM;2009-04-17 20:00;CYHM 172000Z 26015KT 15SM FEW120 FEW250 20/M02 A3023 RMK AC1CI1 CONTRAILS SLP242

CYHM;2009-04-17 21:00;CYHM 172100Z 29015KT 15SM FEW120 SCT250 20/M04 A3022 RMK AC1CI2 CONTRAILS SLP238

CYHM;2009-04-17 22:00;CYHM 172200Z 29012KT 15SM SCT250 19/M04 A3020 RMK CI2 CONTRAILS SLP232

CYHM;2009-04-17 23:00;CYHM 172300Z 26008KT 15SM BKN250 18/M05 A3020 RMK CI4 CONTRAILS SLP229

CYHM;2009-04-18 00:00;CYHM 180000Z 26007KT 15SM BKN250 16/M04 A3018 RMK CI4 CONTRAILS SLP224

CYHM;2009-04-18 01:00;CYHM 180100Z 25005KT 15SM BKN220 13/M04 A3018 RMK CI3 CONTRAILS SLP224

CYHM;2009-04-18 02:00;CYHM 180200Z 24007KT 15SM SCT210 09/01 A3018 RMK CI2 SLP224

CYHM;2009-04-18 03:00;CYHM 180300Z 24006KT 15SM FEW210 08/M00 A3017 RMK CI2 SLP219

CYHM;2009-04-18 04:00;CYHM 180400Z 25007KT 15SM FEW210 09/M01 A3015 RMK CI2 SLP215

CYHM;2009-04-18 05:00;CYHM 180500Z 23008KT 15SM FEW210 07/M01 A3014 RMK CI2 SLP211

CYHM;2009-04-18 06:00;CYHM 180600Z 24008KT 15SM FEW150 07/M01 A3013 RMK AC2 SLP205

CYHM;2009-04-18 07:00;CYHM 180700Z 25007KT 15SM BKN140 08/00 A3010 RMK AC5 SLP196

CYHM;2009-04-18 08:00;CYHM 180800Z 26008KT 15SM OVC100 09/01 A3009 RMK AC8 SLP192

CYHM;2009-04-18 09:00;CYHM 180900Z 26010KT 15SM OVC120 10/01 A3007 RMK AC8 SLP185

CYHM;2009-04-18 10:00;CYHM 181000Z 26007KT 15SM BKN120 10/01 A3006 RMK AC7 SLP182

CYHM;2009-04-18 11:00;CYHM 181100Z 26008KT 15SM FEW110 BKN130 10/01 A3006 RMK AC2AC5 SLP180

CYHM;2009-04-18 12:00;CYHM 181200Z 25009KT 15SM FEW110 BKN130 10/01 A3006 RMK AC2AC5 SLP181

CYHM;2009-04-18 13:00;CYHM 181300Z 26011KT 15SM FEW110 BKN130 12/01 A3005 RMK AC2AC5 SLP179

CYHM;2009-04-18 14:00;CYHM 181400Z 26011KT 15SM FEW045 BKN130 14/01 A3006 RMK SC2AC6 SLP180

CYHM;2009-04-18 15:00;CYHM 181500Z 27012KT 15SM SCT130 BKN150 BKN240 17/02 A3004 RMK AC3AC2CI1 SLP174

CYHM;2009-04-18 16:00;CYHM 181600Z 26017KT 15SM BKN120 BKN240 20/02 A3003 RMK AC5CI2 SLP173

CYHM;2009-04-18 17:00;CYHM 181700Z 27020KT 10SM SCT120 BKN140 BKN240 21/02 A3001 RMK AC3AC2CI1 SLP166

CYHM;2009-04-18 18:00;CYHM 181800Z 26019KT 15SM SCT120 BKN140 BKN240 22/01 A2999 RMK AC3AC2CI1 SLP157

CYHM;2009-04-18 19:00;CYHM 181900Z 27016G23KT 15SM FEW075 FEW110 SCT140 BKN180 BKN250 22/01 A2998 RMK AC1AC1AC2AC2CI1 SLP153

CYHM;2009-04-18 20:00;CYHM 182000Z 28013G19KT 15SM FEW075 SCT110 BKN160 BKN240 23/02 A2996 RMK AC1AC2AC2CI1 SLP147

CYHM;2009-04-18 21:00;CYHM 182100Z 25015KT 210V280 15SM FEW070 BKN100 BKN160 BKN240 22/03 A2994 RMK AC2AC3AC1CI1 SLP141

CYHM;2009-04-18 22:00;CYHM 182200Z 24012KT 15SM FEW070 SCT100 BKN160 20/03 A2995 RMK AC2AC2AC3 SLP143

CYHM;2009-04-18 23:00;CYHM 182300Z 25011KT 15SM FEW100 SCT160 BKN210 19/03 A2995 RMK AC2AC2CI3 SLP143

CYHM;2009-04-18 23:49;CYHM 182349Z 06015KT 15SM FEW100 SCT160 BKN200 RMK AC2AC2CI3 WSHFT 2334

CYHM;2009-04-19 00:00;CYHM 190000Z 06012KT 15SM FEW100 SCT160 BKN200 13/00 A2997 RMK AC2AC2CI4 SLP151

CYHM;2009-04-19 01:00;CYHM 190100Z 06010KT 15SM FEW100 SCT160 BKN200 12/00 A3000 RMK AC2AC2CI4 SLP162

CYHM;2009-04-19 02:00;CYHM 190200Z 05013KT 15SM SCT140 BKN170 10/01 A3001 RMK AC4AC3 SLP165

CYHM;2009-04-19 03:00;CYHM 190300Z 04016KT 15SM OVC150 08/03 A3003 RMK AC8 SLP170

CYHM;2009-04-19 04:00;CYHM 190400Z 06022G30KT 15SM FEW007 OVC015 07/05 A3004 RMK CF2SC6 MAMMA SLP173

CYHM;2009-04-19 05:00;CYHM 190500Z 06022KT 15SM FEW007 OVC011 07/05 A3004 RMK CF2SC6 SLP176

CYHM;2009-04-19 06:00;CYHM 190600Z 06020KT 7SM BKN008 OVC012 06/04 A3006 RMK CF6SC2 SLP180

CYHM;2009-04-19 07:00;CYHM 190700Z 06020KT 7SM BKN007 OVC012 06/04 A3005 RMK CF6SC2 SLP177

CYHM;2009-04-19 07:13;CYHM 190713Z 06018G24KT 7SM FEW007 OVC023 RMK CF2SC6

CYHM;2009-04-19 08:00;CYHM 190800Z 06018KT 15SM FEW007 OVC026 05/03 A3006 RMK CF1SC7 SLP182

CYHM;2009-04-19 09:00;CYHM 190900Z 07016KT 15SM FEW007 OVC025 05/03 A3007 RMK CF2SC6 SLP184

CYHM;2009-04-19 10:00;CYHM 191000Z 07018KT 15SM BKN027 BKN130 04/03 A3008 RMK SC6AC1 SLP189

CYHM;2009-04-19 11:00;CYHM 191100Z 07015KT 15SM FEW030 BKN130 BKN250 04/02 A3010 RMK SC2AC3CI1 CONTRAIL SLP196

CYHM;2009-04-19 12:00;CYHM 191200Z 06017KT 15SM FEW030 BKN150 BKN250 05/01 A3012 RMK SC2AC4CI1 SLP204

CYHM;2009-04-19 13:00;CYHM 191300Z 07021KT 15SM SCT140 BKN250 06/M01 A3011 RMK AC3CI2 CONTRAIL SLP202

CYHM;2009-04-19 14:00;CYHM 191400Z 09023KT 15SM SCT140 BKN220 06/M02 A3010 RMK AC3CI2 SLP197

CYHM;2009-04-19 15:00;CYHM 191500Z 07021KT 15SM FEW140 BKN250 06/M02 A3010 RMK AC2CI2 SLP199

CYHM;2009-04-19 16:00;CYHM 191600Z 07019KT 15SM FEW140 BKN250 07/M02 A3011 RMK AC2CI2 SLP203

CYHM;2009-04-19 17:00;CYHM 191700Z 06022KT 15SM FEW140 SCT180 BKN250 07/M02 A3009 RMK AC2AC2CI2 CC ASOCTD SLP195

CYHM;2009-04-19 18:00;CYHM 191800Z 06021KT 15SM FEW140 SCT180 BKN230 07/M04 A3009 RMK AC2AC2CI2 SLP195

CYHM;2009-04-19 19:00;CYHM 191900Z 06023KT 15SM FEW060 FEW140 FEW180 BKN230 07/M03 A3006 RMK SC1AC1AC1CI4 SLP187

CYHM;2009-04-19 20:00;CYHM 192000Z 07023G30KT 15SM FEW060 FEW130 FEW180 BKN240 08/M03 A3004 RMK SC1AC1AC1CI4 SC TR SLP181

CYHM;2009-04-19 21:00;CYHM 192100Z 07023G30KT 15SM FEW120 FEW180 BKN240 08/M05 A3002 RMK AC1AC1CI4 SLP172

CYHM;2009-04-19 22:00;CYHM 192200Z 07023G30KT 15SM FEW110 BKN200 08/M07 A3001 RMK AC1CI5 SLP167

CYHM;2009-04-19 23:00;CYHM 192300Z 07022KT 15SM FEW120 BKN200 07/M08 A2999 RMK AC1CI6 SLP163

CYHM;2009-04-20 00:00;CYHM 200000Z 06022KT 15SM FEW120 SCT170 BKN200 06/M06 A2998 RMK AC2AC2CI3 CONTRAIL SLP158

CYHM;2009-04-20 01:00;CYHM 200100Z 07019KT 15SM FEW078 SCT120 BKN170 OVC200 07/M05 A2998 RMK AC2AC1AC2CI2 SLP159

CYHM;2009-04-20 02:00;CYHM 200200Z 07021KT 15SM SCT082 BKN160 OVC200 07/M05 A2998 RMK AC3AC3CI2 SLP158

CYHM;2009-04-20 03:00;CYHM 200300Z 05020KT 15SM BKN075 OVC120 06/M04 A2996 RMK AC6AC2 SLP150

CYHM;2009-04-20 04:00;CYHM 200400Z 05018KT 15SM SCT080 OVC100 06/M03 A2993 RMK AC4AC4 SLP141

CYHM;2009-04-20 05:00;CYHM 200500Z 05020KT 15SM FEW080 OVC190 05/M02 A2991 RMK AC2AC6 SLP133

CYHM;2009-04-20 06:00;CYHM 200600Z 05022KT 15SM OVC095 05/M02 A2988 RMK AC8 SLP123

CYHM;2009-04-20 07:00;CYHM 200700Z 05017KT 15SM -SHRA OVC075 04/M01 A2986 RMK AC8 SLP117

CYHM;2009-04-20 08:00;CYHM 200800Z 04014KT 6SM -SHRA FEW027 OVC058 03/01 A2984 RMK CF2SC6 SLP113

CYHM;2009-04-20 09:00;CYHM 200900Z 05014KT 10SM -SHRA FEW041 OVC059 03/02 A2981 RMK SC2SC6 SLP100

CYHM;2009-04-20 10:00;CYHM 201000Z 06010KT 7SM -SHRA BKN035 OVC041 05/04 A2979 RMK SC6SC2 SLP093

CYHM;2009-04-20 11:00;CYHM 201100Z 05013KT 4SM -SHRA BR BKN016 OVC025 04/03 A2978 RMK SC6SC2 SLP090

CYHM;2009-04-20 11:36;CYHM 201136Z 05008KT 2 1/2SM -SHRA BR BKN009 BKN018 OVC025 RMK SF5SC2SC1

CYHM;2009-04-20 12:00;CYHM 201200Z 09014G19KT 2 1/2SM -SHRA BR SCT009 BKN016 OVC040 04/04 A2976 RMK SF4SC3SC1 SLP084

CYHM;2009-04-20 12:40;CYHM 201240Z 11016KT 10SM SCT015 OVC028 RMK SC3SC5

CYHM;2009-04-20 13:00;CYHM 201300Z 11015G20KT 15SM FEW016 OVC031 07/05 A2975 RMK SC2SC6 SLP079

CYHM;2009-04-20 13:10;CYHM 201310Z 11015G20KT 7SM -RA BKN014 OVC025 RMK SC5SC3

CYHM;2009-04-20 14:00;CYHM 201400Z 12014KT 10SM -DZ BKN018 OVC024 06/05 A2974 RMK SC5SC3 RERA SLP076

CYHM;2009-04-20 14:35;CYHM 201435Z 10010KT 7SM -RA BKN019 OVC025 RMK SC6SC2

CYHM;2009-04-20 15:00;CYHM 201500Z 10014KT 4SM -RA BR BKN017 OVC027 06/04 A2973 RMK SC6SC2 SLP074

CYHM;2009-04-20 16:00;CYHM 201600Z 09014KT 3SM -RA BR BKN019 OVC027 06/04 A2971 RMK SC6SC2 SLP068

CYHM;2009-04-20 17:00;CYHM 201700Z 08012KT 2 1/2SM -RA BR SCT006 OVC025 06/05 A2969 RMK SF3SC5 SLP061

CYHM;2009-04-20 17:32;CYHM 201732Z 05014KT 3SM -RA BR BKN003 OVC012 RMK SF6SC2

CYHM;2009-04-20 18:00;CYHM 201800Z 06015KT 3SM -RA BR BKN002 OVC013 05/05 A2967 RMK SF6SC2 SLP054

CYHM;2009-04-20 18:05;CYHM 201805Z 06014KT 2SM -RA BR BKN003 OVC018 RMK SF6SC2

CYHM;2009-04-20 19:00;CYHM 201900Z 06015KT 1 1/2SM -RA BR OVC003 05/05 A2965 RMK FG2SF6 SLP045

CYHM;2009-04-20 20:00;CYHM 202000Z 06015KT 1 3/4SM -RA BR OVC003 05/05 A2962 RMK FG2SF6 SLP038

CYHM;2009-04-20 21:00;CYHM 202100Z 05015KT 1SM -RA BR OVC002 05/05 A2961 RMK FG3SF5 SLP033

CYHM;2009-04-20 22:00;CYHM 202200Z 06014KT 1SM -RA BR OVC003 05/04 A2961 RMK FG3SF5 SLP032

CYHM;2009-04-20 23:00;CYHM 202300Z 03010KT 1 1/4SM -RA BR BKN003 OVC022 05/05 A2961 RMK FG2SF6SC1 SLP033

CYHM;2009-04-21 00:00;CYHM 210000Z 05010KT 2SM -RA BR BKN003 OVC026 05/04 A2963 RMK SF5SC3 SLP041

CYHM;2009-04-21 01:00;CYHM 210100Z 11004KT 2 1/4SM -RA BR OVC005 06/05 A2965 RMK SF8 CIG RGD SLP046

CYHM;2009-04-21 01:50;CYHM 210150Z 20011KT 4SM -RA BR BKN007 OVC024 RMK SF5SC3 CIG RGD

CYHM;2009-04-21 02:00;CYHM 210200Z 20011KT 4SM -RA BR BKN007 OVC024 07/07 A2967 RMK SF5SC3 CIG RGD SLP052

CYHM;2009-04-21 03:00;CYHM 210300Z 21012KT 15SM -SHRA FEW008 OVC012 07/06 A2968 RMK SF2SC6 SLP055

CYHM;2009-04-21 03:15;CYHM 210315Z 21015KT 15SM BKN013 BKN023 OVC054 RMK SC6SC2SC1

CYHM;2009-04-21 04:00;CYHM 210400Z 22015KT 15SM FEW025 BKN068 06/05 A2968 RMK SC2AC5 SLP057

CYHM;2009-04-21 05:00;CYHM 210500Z 20008KT 15SM FEW016 BKN034 05/04 A2968 RMK SC1SC6 SLP058

CYHM;2009-04-21 06:00;CYHM 210600Z 20006KT 15SM FEW034 05/04 A2968 RMK SC2 SLP056

CYHM;2009-04-21 07:00;CYHM 210700Z 20007KT 15SM BKN019 05/04 A2966 RMK SC2 SLP051

CYHM;2009-04-21 08:00;CYHM 210800Z 16005KT 15SM FEW032 FEW200 04/03 A2967 RMK SC1CI1 CI TR SLP053

CYHM;2009-04-21 09:00;CYHM 210900Z 15005KT 15SM SCT010 BKN021 05/04 A2967 RMK SC3SC4 SLP054

CYHM;2009-04-21 10:00;CYHM 211000Z 15007KT 5SM BR FEW018 BKN046 05/04 A2966 RMK SC2SC6 SLP049

CYHM;2009-04-21 11:00;CYHM 211100Z 14005KT 5SM BR SCT048 SCT120 BKN220 04/04 A2965 RMK SC3AC1CI2 SLP047

CYHM;2009-04-21 12:00;CYHM 211200Z 17006KT 10SM BKN019 BKN032 05/05 A2966 RMK SC6SC2 SLP049

CYHM;2009-04-21 13:00;CYHM 211300Z 19010KT 15SM BKN024 07/06 A2965 RMK SC7 SLP048

CYHM;2009-04-21 14:00;CYHM 211400Z 19012G18KT 15SM BKN016 BKN022 08/05 A2965 RMK SC6SC2 CU ASOCTD SLP048

CYHM;2009-04-21 15:00;CYHM 211500Z 22012KT 15SM FEW016 BKN060 BKN220 09/05 A2964 RMK CU2SC2CI1 SLP042

CYHM;2009-04-21 16:00;CYHM 211600Z 18014KT 15SM SCT026 BKN042 BKN055 BKN220 09/04 A2963 RMK CU3SC2SC1CI1 SLP038

CYHM;2009-04-21 16:54;CYHM 211654Z 21018KT 15SM -SHRA BKN037 OVC042 RMK SC6SC2 CU ASOCTD

CYHM;2009-04-21 17:00;CYHM 211700Z 20018KT 15SM -SHRA FEW024 BKN031 OVC042 09/04 A2962 RMK CU2SC5SC2 SLP033

CYHM;2009-04-21 18:00;CYHM 211800Z 20010KT 15SM -SHRA FEW023 BKN045 OVC070 08/04 A2960 RMK SC2SC3AC2 SLP029

CYHM;2009-04-21 18:37;CYHM 211837Z 18012KT 15SM FEW024 BKN050 RMK CU1SC6 CUFRA ASOCTD

CYHM;2009-04-21 19:00;CYHM 211900Z 15012KT 15SM FEW024 SCT050 BKN088 10/05 A2959 RMK CU1SC2AS3 CUFRA ASOCTD SLP026

CYHM;2009-04-21 19:50;CYHM 211950Z 21015G21KT 15SM -SHRA OVC023 RMK SC8 CIG RGD

CYHM;2009-04-21 19:55;CYHM 211955Z 22018G26KT 8SM -SHRAGR BKN023 OVC035CB RMK SC6CB2 CIG RGD HAIL DIAM 3MM

CYHM;2009-04-21 20:00;CYHM 212000Z 22018G26KT 8SM -SHRA SCT018 OVC042CB 05/03 A2960 RMK SC4CB4 CIG RGD HAIL SLP028

CYHM;2009-04-21 20:40;CYHM 212040Z 21005KT 15SM FEW024 FEW080 BKN120 RMK SC1AC2AC3

CYHM;2009-04-21 21:00;CYHM 212100Z 20007KT 15SM FEW024 FEW080 BKN110 BKN250 07/05 A2959 RMK CU1AC2AC3CI0 SLP026

CYHM;2009-04-21 22:00;CYHM 212200Z 20008KT 15SM SCT035 BKN110 09/05 A2959 RMK SC4AC2 CUFRA ASOCTD SLP026

CYHM;2009-04-21 23:00;CYHM 212300Z 19015KT 15SM FEW026 FEW060 BKN250 08/05 A2959 RMK SC1SC2CI2 CUFRA ASOCTD SLP026

CYHM;2009-04-22 00:00;CYHM 220000Z 20009KT 15SM FEW022 SCT054 BKN200 07/04 A2960 RMK CF1SC3CI2 CUFRA SLP029

CYHM;2009-04-22 01:00;CYHM 220100Z 20007KT 15SM FEW084 BKN130 06/02 A2961 RMK AC2AC5 SLP032

CYHM;2009-04-22 02:00;CYHM 220200Z 19010KT 15SM FEW100 BKN180 05/03 A2962 RMK AC2AS2 SLP034

CYHM;2009-04-22 03:00;CYHM 220300Z 20011KT 15SM FEW070 FEW110 SCT230 04/03 A2960 RMK AC1AC1CI2 1ST LYR TR SLP028

CYHM;2009-04-22 04:00;CYHM 220400Z 19008KT 15SM FEW024 BKN044 05/04 A2959 RMK SC2SC4 SLP025

CYHM;2009-04-22 05:00;CYHM 220500Z 20011KT 15SM BKN019 BKN063 05/03 A2959 RMK SC6SC1 SLP024

CYHM;2009-04-22 06:00;CYHM 220600Z 21012KT 15SM FEW018 BKN048 04/03 A2957 RMK SC2SC2 SLP018

CYHM;2009-04-22 07:00;CYHM 220700Z 22015KT 15SM FEW020 BKN058 05/02 A2956 RMK SC2SC6 CUFRA ASOCTD SLP016

CYHM;2009-04-22 08:00;CYHM 220800Z 22015KT 15SM FEW018 OVC045 04/02 A2956 RMK SC2SC6 SLP016

CYHM;2009-04-22 09:00;CYHM 220900Z 22012KT 15SM BKN031 03/02 A2957 RMK SC6 SLP020

CYHM;2009-04-22 10:00;CYHM 221000Z 22010KT 15SM FEW044 FEW070 FEW210 02/00 A2958 RMK SC2AC1CI1 AC TR CI TR SLP023

CYHM;2009-04-22 11:00;CYHM 221100Z 23012KT 15SM BKN040 BKN067 03/00 A2959 RMK SC6AC2 TR CU ASOCTD SLP024

CYHM;2009-04-22 12:00;CYHM 221200Z 23010KT 15SM BKN017 BKN024 OVC078 03/01 A2961 RMK SC5SC2AC1 SLP033

CYHM;2009-04-22 13:00;CYHM 221300Z 24016KT 15SM SCT017 BKN023 OVC078 04/02 A2962 RMK CU3SC3AC2 SLP036

CYHM;2009-04-22 14:00;CYHM 221400Z 25014KT 15SM BKN014 OVC020 04/02 A2964 RMK SC6SC2 SLP043

CYHM;2009-04-22 15:00;CYHM 221500Z 24014KT 15SM BKN020 OVC026 05/02 A2966 RMK SC6SC2 SLP049

CYHM;2009-04-22 15:17;CYHM 221517Z 24010KT 15SM -SHRA BKN020 OVC025 RMK SC6SC2

CYHM;2009-04-22 16:00;CYHM 221600Z 28013KT 5SM -SHRA BR BKN019 OVC025 04/02 A2968 RMK SC6SC2 SLP056

CYHM;2009-04-22 17:00;CYHM 221700Z 25010KT 15SM -SHRA BKN024 OVC034 05/02 A2969 RMK SC6SC2 CU ASOCTD SLP059

CYHM;2009-04-22 18:00;CYHM 221800Z 27014KT 15SM BKN022 OVC032 05/02 A2969 RMK SC5SC3 CU ASOCTD SLP060

CYHM;2009-04-22 19:00;CYHM 221900Z 25015G21KT 15SM -SHRA BKN019 BKN040 OVC100 06/02 A2970 RMK SC6SC2AC1 CIG RGD SF ASOCTD SLP065

CYHM;2009-04-22 20:00;CYHM 222000Z 27008KT 15SM -SHRA FEW018 BKN033 OVC100 05/03 A2970 RMK SC2SC5AC1 SUN DMLY VSBL CIG RGD SF ASOCTD SLP065

CYHM;2009-04-22 20:50;CYHM 222050Z 27012KT 15SM FEW018 SCT030 OVC070 RMK SF1SC2AS5 SUN DMLY VSBL

CYHM;2009-04-22 21:00;CYHM 222100Z 27013KT 15SM FEW018 SCT030 OVC070 06/02 A2971 RMK SF1SC2AS5 SUN DMLY VSBL SLP067

CYHM;2009-04-22 22:00;CYHM 222200Z 27015KT 15SM FEW024 BKN090 BKN250 07/01 A2972 RMK SC2AS2CI0 SLP071

CYHM;2009-04-22 23:00;CYHM 222300Z 28005KT 15SM FEW028 BKN088 BKN250 06/01 A2973 RMK SC2AS3CI0 SLP075

CYHM;2009-04-23 00:00;CYHM 230000Z 29009KT 15SM FEW026 BKN063 06/01 A2975 RMK SC1ST4 SLP079

CYHM;2009-04-23 01:00;CYHM 230100Z 30012KT 15SM FEW026 SCT080 BKN120 05/00 A2977 RMK SC2AC1AS3 SLP086

CYHM;2009-04-23 02:00;CYHM 230200Z 30009KT 15SM FEW024 BKN034 BKN140 04/00 A2980 RMK SF1SC6AC1 AC TR SLP096

CYHM;2009-04-23 03:00;CYHM 230300Z 28010KT 15SM SCT025 BKN200 03/M01 A2981 RMK CF3CI1 SLP100

CYHM;2009-04-23 04:00;CYHM 230400Z 28012KT 15SM FEW023 SCT190 03/M01 A2981 RMK CF2AC1 SLP101

CYHM;2009-04-23 05:00;CYHM 230500Z 29008KT 15SM FEW022 SCT063 BKN090 03/M01 A2981 RMK CF1SC3AC1 SLP103

CYHM;2009-04-23 06:00;CYHM 230600Z 28010KT 15SM BKN034 BKN100 02/M01 A2982 RMK SC6AC2 SLP105

CYHM;2009-04-23 07:00;CYHM 230700Z 28013G18KT 15SM BKN020 BKN060 03/M01 A2982 RMK SC6SC2 SLP107

CYHM;2009-04-23 08:00;CYHM 230800Z 29013KT 15SM BKN019 OVC080 02/M00 A2985 RMK SC6AC2 SLP117

CYHM;2009-04-23 09:00;CYHM 230900Z 29012KT 15SM OVC014 03/00 A2988 RMK SC8 SLP124

CYHM;2009-04-23 10:00;CYHM 231000Z 29010KT 15SM OVC015 03/00 A2990 RMK SC8 CIG RGD SLP132

CYHM;2009-04-23 11:00;CYHM 231100Z 29010KT 15SM BKN018 03/00 A2993 RMK SC7 SLP142

CYHM;2009-04-23 12:00;CYHM 231200Z 30012KT 15SM BKN017 03/01 A2998 RMK SC7 SLP159

CYHM;2009-04-23 13:00;CYHM 231300Z 30014KT 15SM BKN023 BKN034 04/M00 A3002 RMK SC5SC1 SLP173

CYHM;2009-04-23 14:00;CYHM 231400Z 30015KT 15SM SCT020 BKN026 06/01 A3004 RMK CU3SC2 SLP179

CYHM;2009-04-23 15:00;CYHM 231500Z 28012KT 15SM SCT028 07/01 A3006 RMK CU3 SC ASOCTD SLP186

CYHM;2009-04-23 16:00;CYHM 231600Z 26016KT 15SM FEW024 BKN036 07/01 A3008 RMK CU2SC5 SLP194

CYHM;2009-04-23 17:00;CYHM 231700Z 30012KT 15SM FEW022 BKN028 07/01 A3009 RMK CU2SC5 SLP197

CYHM;2009-04-23 18:00;CYHM 231800Z 28013KT 220V320 15SM FEW024 BKN030 08/02 A3010 RMK CU2SC2 SLP199

CYHM;2009-04-23 19:00;CYHM 231900Z 26015KT 15SM FEW034 09/02 A3009 RMK SC2 SLP197

CYHM;2009-04-23 20:00;CYHM 232000Z 26011KT 15SM BKN037 10/01 A3009 RMK SC5 SLP197

CYHM;2009-04-23 21:00;CYHM 232100Z 27015KT 15SM BKN038 10/02 A3010 RMK SC5 SLP199

CYHM;2009-04-23 22:00;CYHM 232200Z 28015KT 15SM FEW038 FEW250 10/01 A3011 RMK SC2CI0 SLP202

CYHM;2009-04-23 23:00;CYHM 232300Z 28010KT 15SM FEW038 BKN250 09/01 A3011 RMK SC1CI2 SLP202

CYHM;2009-04-24 00:00;CYHM 240000Z 00000KT 15SM BKN250 08/M00 A3009 RMK CI2 SLP196

CYHM;2009-04-24 01:00;CYHM 240100Z 02008KT 15SM FEW100 FEW250 06/02 A3012 RMK AC1CI0 SLP206

CYHM;2009-04-24 02:00;CYHM 240200Z 20007KT 15SM FEW250 04/02 A3013 RMK CI0 SLP209

CYHM;2009-04-24 03:00;CYHM 240300Z 22005KT 15SM FEW250 02/01 A3013 RMK CI0 SLP210

CYHM;2009-04-24 04:00;CYHM 240400Z 21005KT 15SM FEW250 02/00 A3012 RMK CI1 SLP208

CYHM;2009-04-24 05:00;CYHM 240500Z 23006KT 15SM FEW150 02/M00 A3012 RMK AC1 SLP207

CYHM;2009-04-24 06:00;CYHM 240600Z 21005KT 15SM BKN130 02/00 A3011 RMK AC6 SLP203

CYHM;2009-04-24 07:00;CYHM 240700Z 19007KT 15SM FEW110 SCT160 04/00 A3009 RMK AC1AC3 SLP195

CYHM;2009-04-24 08:00;CYHM 240800Z 00000KT 15SM BKN120 BKN150 04/01 A3010 RMK AC5AC2 SLP200

CYHM;2009-04-24 09:00;CYHM 240900Z 17006KT 15SM FEW110 BKN170 05/01 A3010 RMK AC2AC5 SLP197

CYHM;2009-04-24 09:19;CYHM 240919Z 17004KT 15SM -SHRA BKN130 BKN170 RMK AC5AC2

CYHM;2009-04-24 10:00;CYHM 241000Z 14003KT 15SM SCT120 04/01 A3010 RMK AC3 SLP197

CYHM;2009-04-24 11:00;CYHM 241100Z 11006KT 15SM FEW060 FEW120 FEW220 04/01 A3008 RMK SC1AC1CI1 SC TR SLP193

CYHM;2009-04-24 12:00;CYHM 241200Z 18005KT 15SM FEW120 SCT220 07/02 A3010 RMK AC1CI1 SLP197

CYHM;2009-04-24 13:00;CYHM 241300Z 13008KT 15SM FEW120 SCT220 11/04 A3006 RMK AC1CI2 SLP184

CYHM;2009-04-24 14:00;CYHM 241400Z 17012KT 15SM FEW120 FEW160 BKN220 13/02 A3004 RMK AC1AC1CI2 SLP180

CYHM;2009-04-24 15:00;CYHM 241500Z 16012KT 15SM BKN220 15/05 A3002 RMK CI3 SLP171

CYHM;2009-04-24 16:00;CYHM 241600Z 16012KT 15SM SCT210 17/08 A3001 RMK CI2 CONTRAIL SLP167

CYHM;2009-04-24 17:00;CYHM 241700Z 21016KT 15SM BKN210 19/09 A2999 RMK CI4 SLP161

CYHM;2009-04-24 18:00;CYHM 241800Z 20016G24KT 15SM BKN210 20/09 A2997 RMK CI2 SLP151

CYHM;2009-04-24 19:00;CYHM 241900Z 20015KT 15SM SCT071 BKN210 22/09 A2995 RMK AC4CI1 CONTRAILS SLP146

CYHM;2009-04-24 20:00;CYHM 242000Z 20015G21KT 15SM FEW060TCU SCT110 BKN230 24/10 A2993 RMK TCU1AC2CI2 CONTRAILS SLP139

CYHM;2009-04-24 21:00;CYHM 242100Z 19013KT 15SM FEW060 BKN086 22/10 A2991 RMK SC2AC6 SLP130

CYHM;2009-04-24 22:00;CYHM 242200Z 19012KT 15SM FEW055TCU SCT075 BKN210 23/12 A2989 RMK TCU1AC3CI2 SLP125

CYHM;2009-04-24 23:00;CYHM 242300Z 23016KT 15SM FEW055TCU BKN090 BKN250 23/13 A2989 RMK TCU1AC4CI1 SLP124

CYHM;2009-04-25 00:00;CYHM 250000Z 23013KT 15SM FEW050TCU SCT170 BKN230 22/13 A2991 RMK TCU1AC2CI2 SLP130

CYHM;2009-04-25 01:00;CYHM 250100Z 24006KT 15SM OVC140 21/12 A2994 RMK AC8 SLP140

CYHM;2009-04-25 02:00;CYHM 250200Z 22005KT 15SM OVC180 14/08 A2996 RMK AC8 SLP147

CYHM;2009-04-25 03:00;CYHM 250300Z 23013KT 15SM BKN160 OVC250 21/10 A2997 RMK AC6CI2 SLP148

CYHM;2009-04-25 04:00;CYHM 250400Z 23015KT 15SM BKN140 OVC230 21/07 A2997 RMK AC6CI2 SLP147

CYHM;2009-04-25 05:00;CYHM 250500Z 21011KT 15SM FEW170 17/07 A2997 RMK AC2 SLP148

CYHM;2009-04-25 06:00;CYHM 250600Z 22010KT 15SM FEW170 14/07 A2997 RMK AC2 SLP147

CYHM;2009-04-25 07:00;CYHM 250700Z 20009KT 15SM FEW140 15/07 A2996 RMK AC1 SLP146

CYHM;2009-04-25 08:00;CYHM 250800Z 20007KT 15SM BKN160 13/08 A2998 RMK AC6 SLP151

CYHM;2009-04-25 09:00;CYHM 250900Z 20010KT 15SM FEW140 15/09 A2997 RMK AC2 SLP150

CYHM;2009-04-25 10:00;CYHM 251000Z 22010KT 15SM FEW035TCU SCT100 15/09 A2997 RMK TCU1AC2 ACC ASOCTD SLP150

CYHM;2009-04-25 11:00;CYHM 251100Z 22015KT 15SM FEW100 BKN250 17/10 A3000 RMK AC1CI2 SLP157

CYHM;2009-04-25 12:00;CYHM 251200Z 22018KT 15SM FEW100 BKN250 19/10 A3001 RMK AC1CI3 SLP161

CYHM;2009-04-25 13:00;CYHM 251300Z 23014G23KT 15SM FEW100 BKN250 20/10 A3003 RMK AC1CI2 SLP168

CYHM;2009-04-25 14:00;CYHM 251400Z 25021KT 15SM FEW092 BKN250 21/11 A3005 RMK AC2CI2 SLP174

CYHM;2009-04-25 15:00;CYHM 251500Z 23023KT 15SM FEW054 FEW095 BKN250 23/12 A3004 RMK SC1AC1CI2 SC TR SLP171

CYHM;2009-04-25 16:00;CYHM 251600Z 22020KT 15SM FEW085 BKN250 24/13 A3004 RMK AC1CI2 SLP169

CYHM;2009-04-25 17:00;CYHM 251700Z 23017G23KT 15SM BKN250 25/14 A3002 RMK CI2 SLP164

CYHM;2009-04-25 18:00;CYHM 251800Z 23026G35KT 15SM BKN250 25/14 A3002 RMK CI2 SLP164

CYHM;2009-04-25 19:00;CYHM 251900Z 23025G34KT 12SM FEW062 FEW080 BKN200 26/14 A3001 RMK SC2AC1CI1 SLP161

CYHM;2009-04-25 20:00;CYHM 252000Z 23026G39KT 12SM FEW045 SCT066 BKN200 26/15 A3001 RMK CU2AC2CI1 SLP161

CYHM;2009-04-25 21:00;CYHM 252100Z 24026G36KT 12SM SCT055 BKN074 26/14 A3002 RMK SC3AC4 SLP164

CYHM;2009-04-25 21:15;CYHM 252115Z 23024G30KT 10SM TS FEW040CB BKN058 OVC075 RMK CB2SC3AC2 LINE CB W-NW

CYHM;2009-04-25 21:27;CYHM 252127Z 28029G40KT 9SM -TSRA BKN048 OVC072 RMK SC5AC3 CB EMBD

CYHM;2009-04-25 21:36;CYHM 252136Z 28028G38KT 2 1/2SM TSRA FEW020 BKN045 OVC070 RMK CF2SC5AC2 CB EMBD LTGCG

CYHM;2009-04-25 21:39;CYHM 252139Z CCA 28028G38KT 3/4SM +TSRA BR BKN008 OVC040 RMK FG2CF4SC2 CB EMBD LTGCG

CYHM;2009-04-25 21:48;CYHM 252148Z 27020G28KT 1 3/4SM TSRA BR SCT008 OVC020 RMK FG2CF2SC4 CB EMBD LTGCG

CYHM;2009-04-25 22:00;CYHM 252200Z 28014KT 3SM -TSRA BR SCT012 BKN022 OVC055 17/15 A3008 RERA RMK FG1CF2SC3SC2 CB EMBD LTGCG PRESRR SLP185

CYHM;2009-04-25 22:29;CYHM 252229Z 29012KT 1 1/2SM TSRA BR SCT012 OVC030 RMK FG2CF2SC4 CB EMBD LTNG

CYHM;2009-04-25 22:32;CYHM 252232Z 29015G30KT 3/4SM TSRA BR SCT012 OVC020 RMK FG2CF2SC4 CB EMBD LTNG

CYHM;2009-04-25 22:49;CYHM 252249Z 27011KT 4SM -TSRA BR FEW012 BKN019 OVC035 RMK CF2SC4SC2 CB EMBD LTNG

CYHM;2009-04-25 23:00;CYHM 252300Z 27010KT 2SM TSRA BR SCT010 BKN017 OVC040 17/15 A3008 RMK FG2CF2SC3SC2 CB EMBD LTNG SLP185

CYHM;2009-04-25 23:30;CYHM 252330Z 28012KT 4SM -TSRA BR FEW012 SCT018TCU BKN022 OVC045 RMK CF2TCU2SC3SC2 CB EMBD LTNG

CYHM;2009-04-26 00:00;CYHM 260000Z 28010KT 5SM -TSRA BR FEW015 SCT020 OVC030 17/15 A3008 RMK CF2SC2SC4 CB EMBD /R12/ SLP187

CYHM;2009-04-26 00:14;CYHM 260014Z 27010KT 2SM TSRA BR BKN015 OVC025 RMK FG2SC5SC2 CB EMBD LTGN

CYHM;2009-04-26 00:25;CYHM 260025Z 28007KT 3SM -TSRA BR BKN018 OVC030 RMK SC6SC2 CB EMBD LTNG

CYHM;2009-04-26 00:49;CYHM 260049Z 26013KT 1 3/4SM +TSRA BR BKN014 OVC025 RMK FG2SC5SC2 CB EMBD LTGCG

CYHM;2009-04-26 01:00;CYHM 260100Z 26015KT 2 1/2SM TSRA BR BKN017 OVC028 17/16 A3013 RMK FG1SC5SC2 CB EMBD LTGCG SLP204

CYHM;2009-04-26 01:35;CYHM 260135Z 25013KT 4SM -TSRA BR BKN018 OVC030 RERA RMK SC5SC3 CB EMBD

CYHM;2009-04-26 02:00;CYHM 260200Z 25012KT 7SM -TSRA BKN017 OVC030 17/15 A3016 RERA RMK SC5SC3 CB EMBD SLP211

CYHM;2009-04-26 03:00;CYHM 260300Z 25013KT 12SM -SHRA OVC030 16/15 A3014 RETS RMK SC8 SLP207

CYHM;2009-04-26 04:00;CYHM 260400Z 30016KT 5SM SHRA OVC042 17/15 A3014 RMK SC8 TCU EMBDD SLP205

CYHM;2009-04-26 05:00;CYHM 260500Z 23010KT 8SM -SHRA OVC040 17/16 A3015 RERA RMK SC8 SLP210

CYHM;2009-04-26 06:00;CYHM 260600Z CCA 22009KT 10SM -SHRA OVC035 16/16 A3016 RMK SC8 /R22/ SLP212

CYHM;2009-04-26 07:00;CYHM 260700Z 26007KT 15SM -SHRA OVC050 16/15 A3017 RMK SC8 SLP213

CYHM;2009-04-26 08:00;CYHM 260800Z 19007KT 15SM -SHRA BKN070 15/14 A3016 RMK AC7 SLP210

CYHM;2009-04-26 09:00;CYHM 260900Z 00000KT 15SM FEW080 FEW220 14/13 A3017 RMK AC1CI1 SLP214

CYHM;2009-04-26 10:00;CYHM 261000Z 06008KT 2SM BR BKN010 13/12 A3020 RMK FG1SC3 SLP224

CYHM;2009-04-26 10:13;CYHM 261013Z 09006KT 1 1/4SM BR OVC001 RMK FG3SF5

CYHM;2009-04-26 10:47;CYHM 261047Z CCA 08010KT 2SM BR BKN002 OVC010 RMK FG1SF6SC2

CYHM;2009-04-26 11:00;CYHM 261100Z 07010KT 2 1/2SM BR BKN002 OVC010 12/11 A3022 RMK FG1SF6SC2 SLP233

CYHM;2009-04-26 11:26;CYHM 261126Z 06012KT 3SM BR BKN002 OVC010 RMK SF7SC1

CYHM;2009-04-26 12:00;CYHM 261200Z 05010KT 7SM OVC004 10/10 A3025 RMK SC8 SLP245

CYHM;2009-04-26 13:00;CYHM 261300Z 05012KT 4SM BR OVC003 10/10 A3026 RMK SC8 SLP248

CYHM;2009-04-26 13:19;CYHM 261319Z 05016KT 1 1/4SM BR BKN001 OVC004 RMK FG2SF4SC2

CYHM;2009-04-26 13:23;CYHM 261323Z 06014KT 1/2SM FG OVC001 RMK FG6SF2

CYHM;2009-04-26 13:34;CYHM 261334Z 06016KT 1SM -DZ BR OVC001 RMK FG4SF4

CYHM;2009-04-26 14:00;CYHM 261400Z 07020KT 5/8SM -DZ BR OVC001 09/08 A3027 RMK FG6SF2 SLP253

CYHM;2009-04-26 14:38;CYHM 261438Z 06022KT 3/4SM -RA BR OVC001 RMK FG3SF5

CYHM;2009-04-26 14:49;CYHM 261449Z CCA 06024KT 2SM -RA BR BKN002 OVC010 RMK FG1SF6SC2

CYHM;2009-04-26 15:00;CYHM 261500Z 06023G29KT 3SM -RA BR BKN002 OVC010 08/07 A3029 RMK SF6SC2 SLP259

CYHM;2009-04-26 15:12;CYHM 261512Z 06026KT 7SM FEW002 BKN005 OVC010 RMK SF1SC6SC1

CYHM;2009-04-26 16:00;CYHM 261600Z 06022G29KT 12SM BKN005 OVC010 07/07 A3028 RMK SC7SC1 SLP256

CYHM;2009-04-26 17:00;CYHM 261700Z 06018KT 12SM BKN005 OVC010 07/06 A3027 RMK SC7SC1 SLP255

CYHM;2009-04-26 17:26;CYHM 261726Z 05014KT 12SM BKN006 OVC010 RMK SC6SC2

CYHM;2009-04-26 18:00;CYHM 261800Z 07014KT 12SM OVC007 08/06 A3027 RMK SC8 SLP254

CYHM;2009-04-26 19:00;CYHM 261900Z 05015KT 12SM SCT007 BKN010 09/07 A3026 RMK SC4SC2 SLP251

CYHM;2009-04-26 19:28;CYHM 261928Z 05013KT 12SM SCT007 SCT010 SCT070 RMK SC3SC1AC1 AC TR

CYHM;2009-04-26 20:00;CYHM 262000Z 05013KT 15SM FEW007 SCT070 SCT200 09/07 A3026 RMK SC2AC1CI1 SLP251

CYHM;2009-04-26 21:00;CYHM 262100Z 05013KT 15SM FEW008 BKN200 10/07 A3025 RMK SC2CI2 SLP246

CYHM;2009-04-26 22:00;CYHM 262200Z 05016KT 15SM FEW010 FEW070 SCT220 08/06 A3023 RMK SC1AC1CI1 SLP240

CYHM;2009-04-26 23:00;CYHM 262300Z 06017KT 15SM FEW060 BKN220 08/05 A3023 RMK SC2CI2 SLP239

CYHM;2009-04-27 00:00;CYHM 270000Z 06014KT 15SM FEW070 BKN220 07/05 A3023 RMK AC2CI2 SLP244

CYHM;2009-04-27 01:00;CYHM 270100Z 03013KT 15SM BKN070 07/05 A3028 RMK AC6 SLP259

CYHM;2009-04-27 02:00;CYHM 270200Z 06017KT 15SM BKN075 BKN220 08/06 A3026 RMK AC6CI2 SLP254

CYHM;2009-04-27 03:00;CYHM 270300Z 05011KT 15SM FEW070 BKN220 07/06 A3025 RMK AC2CI2 SLP248

CYHM;2009-04-27 04:00;CYHM 270400Z 04011KT 15SM SCT220 07/05 A3023 RMK CI2 SLP244

CYHM;2009-04-27 05:00;CYHM 270500Z 04012KT 15SM BKN220 07/04 A3023 RMK CI4 SLP241

CYHM;2009-04-27 06:00;CYHM 270600Z 05012KT 15SM FEW220 06/04 A3021 RMK CI1 SLP235

CYHM;2009-04-27 07:00;CYHM 270700Z 05012KT 15SM SKC 06/04 A3019 RMK SLP229

CYHM;2009-04-27 08:00;CYHM 270800Z 04009KT 15SM SKC 06/04 A3018 RMK SLP227

CYHM;2009-04-27 09:00;CYHM 270900Z 04008KT 15SM FEW230 06/04 A3019 RMK CI1 SLP229

CYHM;2009-04-27 10:00;CYHM 271000Z 05007KT 15SM FEW035 FEW090 FEW230 06/04 A3018 RMK SC1AC1CI1 TR AC SLP227

CYHM;2009-04-27 11:00;CYHM 271100Z 03004KT 15SM FEW140 FEW220 06/04 A3018 RMK AC1CI1 AC TR SLP227

CYHM;2009-04-27 12:00;CYHM 271200Z 02002KT 15SM FEW220 08/05 A3020 RMK CI0 CI TR SLP233

CYHM;2009-04-27 13:00;CYHM 271300Z 00000KT 15SM FEW160 FEW220 12/08 A3021 RMK AC1CI1 AC TR CI TR CONTRAIL SLP235

CYHM;2009-04-27 14:00;CYHM 271400Z 22008KT 15SM FEW220 17/11 A3021 RMK CI1 SLP236

CYHM;2009-04-27 15:00;CYHM 271500Z 23012G18KT 15SM FEW220 22/13 A3020 RMK CI0 CI TR SLP229

CYHM;2009-04-27 16:00;CYHM 271600Z 25022G27KT 15SM FEW220 25/13 A3020 RMK CI1 CONTRAIL SLP228

CYHM;2009-04-27 17:00;CYHM 271700Z 24022G32KT 15SM FEW030 FEW220 25/13 A3019 RMK CU1CI1 CU TR CI TR SLP226

CYHM;2009-04-27 18:00;CYHM 271800Z 23022G32KT 15SM FEW030 FEW140 FEW220 26/14 A3018 RMK CU1AC1CI1 CU TR AC TR CI TR SLP220

CYHM;2009-04-27 19:00;CYHM 271900Z 24020G32KT 15SM FEW062 FEW160 SCT250 26/13 A3016 RMK CU1AC1CI2 CU TR AC TR SLP215

CYHM;2009-04-27 20:00;CYHM 272000Z 23022G32KT 15SM FEW060 FEW170 SCT250 27/13 A3013 RMK CU1AC1CI2 CU TR AC TR CONTRAIL CC ASOCTD SLP206

CYHM;2009-04-27 21:00;CYHM 272100Z 21023G33KT 15SM FEW060 FEW170 SCT250 27/12 A3013 RMK CU1AC1CI2 CU TR AC TR2 SLP202

CYHM;2009-04-27 22:00;CYHM 272200Z 25015G20KT 15SM FEW170 BKN250 26/13 A3012 RMK AC1CI3 AC TR CONTRAILS SLP201

CYHM;2009-04-27 23:00;CYHM 272300Z 23014G24KT 15SM BKN250 25/12 A3011 RMK CI4 CONTRAILS SLP198

CYHM;2009-04-28 00:00;CYHM 280000Z 24012KT 15SM FEW140 BKN250 24/12 A3012 RMK AC1CI1 AC TR SLP199

CYHM;2009-04-28 01:00;CYHM 280100Z 23008KT 15SM FEW120 SCT250 21/12 A3012 RMK AC1CI1 SLP201

CYHM;2009-04-28 02:00;CYHM 280200Z 22011KT 15SM FEW120 SCT250 20/11 A3012 RMK AC1CI1 AC TR SLP201

CYHM;2009-04-28 03:00;CYHM 280300Z 24010KT 15SM FEW140 SCT230 21/10 A3012 RMK AC1CI1 SLP198

CYHM;2009-04-28 04:00;CYHM 280400Z 28013KT 15SM FEW090 BKN220 18/15 A3014 RMK AC1CI2 SLP204

CYHM;2009-04-28 05:00;CYHM 280500Z 29004KT 15SM SCT220 17/14 A3014 RMK CI2 SLP204

CYHM;2009-04-28 06:00;CYHM 280600Z 26002KT 15SM BKN230 16/14 A3013 RMK CI4 SLP203

CYHM;2009-04-28 07:00;CYHM 280700Z 19001KT 15SM BKN200 15/14 A3013 RMK CI2 SLP200

CYHM;2009-04-28 08:00;CYHM 280800Z 21001KT 15SM MIFG BKN200 14/14 A3013 RMK CI2 SLP202

CYHM;2009-04-28 09:00;CYHM 280900Z 17007KT 15SM FEW180 FEW250 14/13 A3014 RMK AC1CI1 SLP205

CYHM;2009-04-28 10:00;CYHM 281000Z 19005KT 12SM FEW110 BKN160 BKN250 14/13 A3013 RMK AC1AC4CI1 SLP203

CYHM;2009-04-28 11:00;CYHM 281100Z 19006KT 8SM FEW032 BKN085 BKN110 OVC220 14/13 A3013 RMK SC2AC3AC2CI1 SLP201

CYHM;2009-04-28 11:39;CYHM 281139Z 20006KT 6SM -SHRA SCT040 OVC073 RMK SC3AC5

CYHM;2009-04-28 12:00;CYHM 281200Z 22004KT 8SM -SHRA FEW040 BKN052 OVC070 14/13 A3014 RMK SC2SC4AC2 SLP206

CYHM;2009-04-28 13:00;CYHM 281300Z 29010KT 4SM -SHRA BR BKN008 OVC014 15/14 A3014 RMK SF6SC2 SLP206

CYHM;2009-04-28 13:47;CYHM 281347Z 32012KT 4SM -SHRA BR FEW008 BKN021 OVC051 RMK SF2SC4SC2

CYHM;2009-04-28 14:00;CYHM 281400Z 32008KT 3SM -SHRA BR FEW008 BKN026 OVC059 11/11 A3021 RMK SF2SC5SC2 SLP230

CYHM;2009-04-28 15:00;CYHM 281500Z 32008KT 5SM -SHRA BR FEW008 SCT036 OVC055 11/11 A3026 RMK SF2SC2SC4 SLP247

CYHM;2009-04-28 16:00;CYHM 281600Z 33012KT 8SM -SHRA SCT025 BKN037 OVC075 11/10 A3027 RMK SC3SC3AC2 SLP252

CYHM;2009-04-28 16:49;CYHM 281649Z 32008KT 8SM -RA BKN008 OVC035 RMK SF6SC2

CYHM;2009-04-28 17:00;CYHM 281700Z 32007KT 8SM -RA BKN007 OVC035 10/10 A3031 RMK SF6SC2 SLP264

CYHM;2009-04-28 18:00;CYHM 281800Z 33008KT 10SM -RA BKN013 OVC020 10/09 A3033 RMK SC6SC2 SLP272

CYHM;2009-04-28 18:32;CYHM 281832Z 34012KT 15SM OVC015 RMK SC8 RERA

CYHM;2009-04-28 19:00;CYHM 281900Z 34012KT 15SM FEW016 BKN022 BKN080 OVC110 10/08 A3035 RMK SC2SC3AC2AC1 SLP280

CYHM;2009-04-28 20:00;CYHM 282000Z 35006KT 15SM FEW025 BKN050 BKN120 OVC210 10/07 A3036 RMK CU2SC3AC2CI1 SLP282

CYHM;2009-04-28 21:00;CYHM 282100Z 01008KT 15SM FEW045 BKN120 BKN160 BKN220 10/06 A3039 RMK SC2AC2AC2CI1 SLP293

CYHM;2009-04-28 22:00;CYHM 282200Z 03010KT 15SM BKN120 BKN170 10/05 A3041 RMK AC6AC2 SLP300

CYHM;2009-04-28 23:00;CYHM 282300Z 03011KT 15SM FEW110 BKN150 09/04 A3042 RMK AC2AC2 SLP305

CYHM;2009-04-29 00:00;CYHM 290000Z 02009KT 15SM BKN150 BKN220 10/05 A3044 RMK AC7CI1 CI TR SLP313

CYHM;2009-04-29 01:00;CYHM 290100Z 03007KT 15SM BKN150 BKN220 09/04 A3047 RMK AC6CI1 CI TR SLP321

CYHM;2009-04-29 02:00;CYHM 290200Z 04006KT 15SM FEW150 FEW220 08/04 A3049 RMK AC1CI0 SLP328

CYHM;2009-04-29 03:00;CYHM 290300Z 05006KT 15SM FEW220 08/03 A3049 RMK CI1 SLP329

CYHM;2009-04-29 04:00;CYHM 290400Z 05007KT 15SM FEW220 07/03 A3049 RMK CI0 SLP331

CYHM;2009-04-29 05:00;CYHM 290500Z 05006KT 15SM FEW220 06/03 A3049 RMK CI0 SLP332

CYHM;2009-04-29 06:00;CYHM 290600Z 06006KT 15SM FEW220 05/02 A3050 RMK CI1 SLP334

CYHM;2009-04-29 07:00;CYHM 290700Z 06005KT 15SM FEW220 05/01 A3050 RMK CI1 SLP336

CYHM;2009-04-29 08:00;CYHM 290800Z 06005KT 15SM FEW220 04/01 A3051 RMK CI0 SLP337

CYHM;2009-04-29 09:00;CYHM 290900Z 05008KT 15SM FEW210 05/01 A3050 RMK CI1 SLP335

CYHM;2009-04-29 10:00;CYHM 291000Z 06009KT 15SM FEW240 05/01 A3051 RMK CI2 SLP339

CYHM;2009-04-29 11:00;CYHM 291100Z 06010KT 15SM FEW150 BKN210 05/01 A3054 RMK AC2CI3 SLP347

CYHM;2009-04-29 12:00;CYHM 291200Z 07012KT 15SM BKN210 05/02 A3057 RMK CI6 CONTRAIL SLP357

CYHM;2009-04-29 13:00;CYHM 291300Z 06013KT 15SM BKN210 07/02 A3057 RMK CI4 SLP359

CYHM;2009-04-29 14:00;CYHM 291400Z 06015KT 15SM SCT210 07/02 A3056 RMK CI2 CONTRAIL SLP356

CYHM;2009-04-29 15:00;CYHM 291500Z 06012KT 15SM FEW160 SCT210 08/03 A3056 RMK AC1CI2 AC TR SLP355

CYHM;2009-04-29 16:00;CYHM 291600Z 06011KT 15SM FEW160 SCT210 09/02 A3055 RMK AC1CI1 CONTRAIL SLP350

CYHM;2009-04-29 17:00;CYHM 291700Z 06014KT 15SM FEW140 BKN210 09/02 A3053 RMK AC2CI1 SLP344

CYHM;2009-04-29 18:00;CYHM 291800Z 06016KT 15SM SCT140 BKN210 09/01 A3052 RMK AC3CI1 SLP342

CYHM;2009-04-29 19:00;CYHM 291900Z 06016KT 15SM FEW140 10/01 A3048 RMK AC2 SLP328

CYHM;2009-04-29 20:00;CYHM 292000Z 06017KT 15SM FEW060 FEW130 FEW200 10/M02 A3046 RMK SC1AC2CI1 SC TR CI TR SLP323

CYHM;2009-04-29 21:00;CYHM 292100Z 06018KT 15SM FEW130 FEW210 10/M04 A3044 RMK AC1CI1 SLP315

CYHM;2009-04-29 22:00;CYHM 292200Z 06017KT 15SM FEW130 FEW210 09/M06 A3043 RMK AC1CI1 CI TR SLP310

CYHM;2009-04-29 23:00;CYHM 292300Z 06017KT 15SM FEW100 08/M06 A3040 RMK AC1 AC TR SLP300

CYHM;2009-04-30 00:00;CYHM 300000Z 06014KT 15SM FEW120 FEW210 06/M06 A3039 RMK AC1CI1 SLP297

CYHM;2009-04-30 01:00;CYHM 300100Z 06014KT 15SM FEW120 FEW220 06/M07 A3037 RMK AC1CI1 CI TR SLP292

CYHM;2009-04-30 02:00;CYHM 300200Z 06013KT 15SM FEW110 05/M05 A3036 RMK AC1 SLP288

CYHM;2009-04-30 03:00;CYHM 300300Z 06012KT 15SM FEW110 05/M04 A3034 RMK AC1 SLP282

CYHM;2009-04-30 04:00;CYHM 300400Z 05012KT 15SM FEW120 05/M03 A3032 RMK AC1 SLP274

CYHM;2009-04-30 05:00;CYHM 300500Z 06008KT 15SM FEW120 FEW210 05/M02 A3030 RMK AC1CI0 SLP268

CYHM;2009-04-30 06:00;CYHM 300600Z 06008KT 15SM SCT210 05/M02 A3029 RMK CI2 SLP262

CYHM;2009-04-30 07:00;CYHM 300700Z 05008KT 15SM FEW210 05/M01 A3027 RMK CI1 SLP256

CYHM;2009-04-30 08:00;CYHM 300800Z 06008KT 15SM FEW210 05/00 A3026 RMK CI1 SLP252

CYHM;2009-04-30 09:00;CYHM 300900Z 05006KT 15SM FEW210 05/01 A3024 RMK CI0 SLP248

CYHM;2009-04-30 10:00;CYHM 301000Z 05003KT 15SM SCT110 BKN210 05/01 A3023 RMK AC3CI1 SLP243

CYHM;2009-04-30 11:00;CYHM 301100Z 03006KT 15SM BKN110 BKN220 05/02 A3023 RMK AC5CI1 SLP243

CYHM;2009-04-30 12:00;CYHM 301200Z 03007KT 15SM FEW018 BKN095 OVC220 06/02 A3022 RMK SC2AC3CI2 SLP239

CYHM;2009-04-30 13:00;CYHM 301300Z 06006KT 15SM BKN021 BKN098 BKN220 08/03 A3020 RMK SC5AC2CI1 SLP232

CYHM;2009-04-30 14:00;CYHM 301400Z 11006KT 15SM FEW021 SCT074 BKN091 BKN210 12/06 A3017 RMK SC1AC2AC2CI1 SLP223

CYHM;2009-04-30 15:00;CYHM 301500Z 11006KT 15SM FEW025 FEW045 BKN160 BKN220 14/09 A3014 RMK CU1SC1AC3CI2 SLP212

CYHM;2009-04-30 16:00;CYHM 301600Z 18010KT 15SM FEW024 FEW045 SCT084 OVC220 17/11 A3011 RMK CU1SC1AC2CS4 HALO SLP201

CYHM;2009-04-30 17:00;CYHM 301700Z 16008KT 15SM FEW024 SCT078 BKN110 OVC210 17/12 A3009 RMK CU2AC2AC3CI2 SLP194

CYHM;2009-04-30 18:00;CYHM 301800Z 17008KT 15SM BKN025 OVC160 18/12 A3006 RMK SC6AC2 SLP181

CYHM;2009-04-30 18:42;CYHM 301842Z 06006KT 8SM -RA SCT020 OVC029 RMK SC4SC4

CYHM;2009-04-30 19:00;CYHM 301900Z CCA 07007KT 2 1/2SM -RA HZ SCT016 OVC025 12/08 A3004 RMK FG1SC2SC5 SLP176

CYHM;2009-04-30 20:00;CYHM 302000Z 07007KT 2SM -RA BR SCT017 BKN026 OVC035 10/09 A3000 RMK FG1SC2SC4SC1 SLP162

CYHM;2009-04-30 20:38;CYHM 302038Z 07006KT 1 1/2SM RA BR SCT016 OVC026 RMK FG2SC2SC4

CYHM;2009-04-30 21:00;CYHM 302100Z 07005KT 1 1/2SM -RA BR SCT017 OVC026 10/09 A2996 RERA RMK FG2SC2SC4 SLP150

CYHM;2009-04-30 21:10;CYHM 302110Z 01004KT 3/4SM RA BR SCT014 OVC020 RMK FG2SF2SC4

CYHM;2009-04-30 21:36;CYHM 302136Z 07004KT 5/8SM RA BR BKN013 OVC020 RMK FG2SF2SC3 TCU EMBD

CYHM;2009-04-30 22:00;CYHM 302200Z 11004KT 3/4SM -RA BR BKN007 BKN013 OVC022 11/10 A2991 RERA RMK FG2SF2SF2SC2 /R10/ SLP136

CYHM;2009-04-30 22:15;CYHM 302215Z 16005KT 1SM -RA BR BKN006 OVC022 RMK FG2SF3SC2

CYHM;2009-04-30 22:30;CYHM 302230Z 17008KT 1 1/2SM -RA BR SCT004 BKN008 OVC021 RMK FG2SF2SC3SC2

CYHM;2009-04-30 23:00;CYHM 302300Z 17012KT 1 1/4SM -RA BR SCT004 BKN008 OVC018 14/14 A2985 RMK FG2SF2SF3SC1 PRESFR SLP116

CYHM;2009-05-01 01:00;CYHM 010100Z 19019KT 3SM -RA BR FEW005 SCT009 BKN020 OVC031 15/14 A2975 RMK SF2SF2SC2SC2 SLP078

CYHM;2009-05-01 01:13;CYHM 010113Z 20018KT 2 1/2SM RA BR FEW005 SCT008 OVC014 RMK FG1SF2SF2SC4

CYHM;2009-05-01 02:00;CYHM 010200Z 20021G27KT 2 1/2SM RA BR BKN007 OVC014 15/15 A2973 RMK FG1SF4SC3 SLP071

CYHM;2009-05-01 02:07;CYHM 010207Z 21022G28KT 4SM -RA BR BKN007 OVC014 RERA RMK SF6SC2

CYHM;2009-05-01 02:51;CYHM 010251Z 21023G28KT 7SM -RA SCT007 SCT016 OVC034 RERA RMK CF3SC1SC4

CYHM;2009-05-01 03:00;CYHM 010300Z CCA 22026G37KT 170V260 7SM -RA FEW007 SCT016 OVC034 16/15 A2971 RMK CF2SC1SC5 SLP060

CYHM;2009-05-01 03:44;CYHM 010344Z 22025KT 3SM -RA BR BKN009 OVC026 RMK CF6SC2

CYHM;2009-05-01 04:00;CYHM 010400Z 22022G28KT 9SM -RA SCT008 BKN016 OVC028 16/15 A2969 RMK CF4SC2SC2 SLP056

CYHM;2009-05-01 04:34;CYHM 010434Z 22022KT 15SM FEW009 BKN016 BKN044 RMK CF2SC3SC2

CYHM;2009-05-01 05:00;CYHM 010500Z 23023G32KT 15SM SCT016 OVC031 16/14 A2967 RMK SC4SC4 SLP049

CYHM;2009-05-01 05:13;CYHM 010513Z 23026G32KT 8SM -RA SCT016 OVC028 RMK SC3SC5

CYHM;2009-05-01 06:00;CYHM 010600Z 24024KT 15SM -RA FEW012 FEW016 SCT028 OVC053 16/14 A2968 RMK CF1SC2SC2SC4 SLP051

CYHM;2009-05-01 06:40;CYHM 010640Z 25020G26KT 15SM FEW011 BKN028 BKN110 RMK CF1SC5AC2

CYHM;2009-05-01 07:00;CYHM 010700Z 24018G24KT 15SM -RA FEW011 BKN017 OVC026 15/14 A2968 RMK CF2SC3SC3 SLP050

CYHM;2009-05-01 07:37;CYHM 010737Z 25018KT 9SM -RA SCT007 OVC026 RMK CF3SC5

CYHM;2009-05-01 08:00;CYHM 010800Z 25013KT 10SM FEW007 BKN027 BKN080 15/14 A2973 RMK CF2SC5AC1 SLP066

CYHM;2009-05-01 09:00;CYHM 010900Z 25008KT 15SM FEW017 BKN030 16/13 A2976 RMK SC2SC5 SLP080

CYHM;2009-05-01 10:00;CYHM 011000Z 25009KT 15SM FEW020 OVC027 16/13 A2978 RMK SC2SC6 SLP086

CYHM;2009-05-01 11:00;CYHM 011100Z 22010KT 15SM BKN016 OVC027 15/13 A2978 RMK SC6SC2 SLP087

CYHM;2009-05-01 12:00;CYHM 011200Z 22012KT 15SM OVC016 14/13 A2978 RMK SC8 SLP087

CYHM;2009-05-01 13:00;CYHM 011300Z 23015KT 6SM BR BKN008 OVC015 14/13 A2980 RMK SF6SC2 SLP091

CYHM;2009-05-01 14:00;CYHM 011400Z 24014KT 6SM BR BKN011 BKN016 OVC030 15/14 A2979 RMK SF5SC2SC1 SLP090

CYHM;2009-05-01 15:00;CYHM 011500Z 25018KT 15SM FEW015 BKN022 BKN037 16/13 A2980 RMK CU2SC3SC2 SLP090

CYHM;2009-05-01 16:00;CYHM 011600Z 27014KT 15SM FEW020 BKN044 17/13 A2980 RMK CU2SC4 SLP090

CYHM;2009-05-01 17:00;CYHM 011700Z 25018KT 15SM FEW038 SCT220 19/11 A2978 RMK CU2CI1 CONTRAIL SLP084

CYHM;2009-05-01 18:00;CYHM 011800Z 29016G26KT 240V310 15SM FEW028 FEW045 BKN220 19/09 A2978 RMK CU1SC1CI2 CONTRAIL SLP085

CYHM;2009-05-01 19:00;CYHM 011900Z 29015G22KT 15SM FEW043 FEW140 BKN230 18/10 A2979 RMK CU2AC1CI3 TCU ASOCTD SLP088

CYHM;2009-05-01 20:00;CYHM 012000Z 29017G23KT 15SM FEW042 FEW190 BKN230 17/09 A2980 RMK CU2AC1CS4 HALO SLP090

CYHM;2009-05-01 21:00;CYHM 012100Z 29013G25KT 15SM FEW044 BKN110 BKN230 16/08 A2980 RMK CU1AC5CI2 SLP092

CYHM;2009-05-01 22:00;CYHM 012200Z 29012KT 15SM FEW040 BKN110 OVC150 15/08 A2983 RMK CU1AC6AC2 SLP100

CYHM;2009-05-01 23:00;CYHM 012300Z 30012KT 15SM FEW037 OVC110 13/07 A2983 RMK CU1AC7 SLP100

CYHM;2009-05-01 23:34;CYHM 012334Z 31012KT 10SM -SHRA OVC030 RMK SC8 CU EMBDD

CYHM;2009-05-02 00:00;CYHM 020000Z 32012KT 12SM -SHRA FEW035 OVC070 10/08 A2984 RMK CU2AC6 SLP108

CYHM;2009-05-02 01:00;CYHM 020100Z 26005KT 15SM -SHRA FEW030 OVC086 10/07 A2987 RMK SC2AC6 SLP118

CYHM;2009-05-02 02:00;CYHM 020200Z 31007KT 15SM -SHRA FEW025 OVC044 08/04 A2992 RMK CF2SC6 SLP134

CYHM;2009-05-02 03:00;CYHM 020300Z 32011KT 15SM SCT070 OVC140 08/01 A2994 RMK AC3AC5 SLP141

CYHM;2009-05-02 04:00;CYHM 020400Z 30005KT 15SM FEW065 BKN150 07/01 A2995 RMK SC1AC6 SLP146

CYHM;2009-05-02 05:00;CYHM 020500Z 32006KT 15SM BKN150 06/01 A2995 RMK AC5 SLP145

CYHM;2009-05-02 06:00;CYHM 020600Z 30006KT 15SM FEW210 05/M00 A2995 RMK CI1 SLP144

CYHM;2009-05-02 07:00;CYHM 020700Z 26004KT 15SM SKC 05/M01 A2995 RMK SLP144

CYHM;2009-05-02 08:00;CYHM 020800Z 29005KT 15SM FEW210 04/M00 A2995 RMK CI1 SLP145

CYHM;2009-05-02 09:00;CYHM 020900Z 00000KT 15SM FEW210 04/M01 A2995 RMK CI1 SLP147

CYHM;2009-05-02 10:00;CYHM 021000Z 22004KT 15SM FEW100 FEW220 02/M01 A2996 RMK AC1CI2 SLP148

CYHM;2009-05-02 11:00;CYHM 021100Z 23003KT 15SM FEW100 FEW220 03/00 A2997 RMK AC1CI1 CI TR SLP151

CYHM;2009-05-02 12:00;CYHM 021200Z 22004KT 15SM FEW100 FEW220 06/01 A2997 RMK AC1CI0 AC TR SLP155

CYHM;2009-05-02 13:00;CYHM 021300Z 22008KT 15SM FEW240 09/02 A2997 RMK CI1 SLP154

CYHM;2009-05-02 14:00;CYHM 021400Z 22012KT 15SM SCT057 BKN190 11/04 A2996 RMK SC3AC1 SLP150

CYHM;2009-05-02 15:00;CYHM 021500Z 25013KT 15SM FEW050 SCT190 BKN250 12/02 A2995 RMK CU2AC2CI0 SLP147

CYHM;2009-05-02 16:00;CYHM 021600Z 22015KT 15SM SCT048 BKN250 13/04 A2994 RMK CU4CI1 SLP142

CYHM;2009-05-02 17:00;CYHM 021700Z 22015G20KT 15SM BKN050 BKN250 14/04 A2991 RMK CU6CI0 SLP133

CYHM;2009-05-02 18:00;CYHM 021800Z 23019G24KT 15SM BKN054 BKN160 13/03 A2989 RMK CU6AC1 SLP125

CYHM;2009-05-02 19:00;CYHM 021900Z 22020G26KT 15SM SCT050 BKN085 15/04 A2988 RMK CU4AC1 TCU ASOCTD NW SLP122

CYHM;2009-05-02 20:00;CYHM 022000Z 23019G25KT 15SM VCSH SCT050 BKN070 15/04 A2987 RMK CU4AC2 TCU ASOCTD NW SLP120

CYHM;2009-05-02 21:00;CYHM 022100Z 23018KT 15SM SCT048 SCT070 BKN090 14/04 A2987 RMK CU3AC1AC1 SLP118

CYHM;2009-05-02 22:00;CYHM 022200Z 24014KT 15SM FEW046 SCT071 BKN088 14/04 A2987 RMK CU2AC2AC2 SLP119

CYHM;2009-05-02 23:00;CYHM 022300Z 22014KT 15SM FEW046 SCT070 BKN088 14/05 A2988 RMK CU2AC2AC1 SLP121

CYHM;2009-05-03 00:00;CYHM 030000Z 23010KT 15SM FEW045 FEW064 SCT220 12/05 A2988 RMK CU1SC1CI1 SLP121

CYHM;2009-05-03 01:00;CYHM 030100Z 22007KT 15SM SCT066 BKN088 10/04 A2989 RMK AC3AC2 SLP125

CYHM;2009-05-03 02:00;CYHM 030200Z 21004KT 15SM BKN090 10/04 A2990 RMK AC4 SLP130

CYHM;2009-05-03 03:00;CYHM 030300Z 23006KT 15SM BKN085 08/04 A2991 RMK AC5 SLP133

CYHM;2009-05-03 04:00;CYHM 030400Z 28003KT 15SM FEW230 09/04 A2992 RMK CI2 SLP137

CYHM;2009-05-03 05:00;CYHM 030500Z 25004KT 15SM FEW210 08/03 A2993 RMK CI2 SLP139

CYHM;2009-05-03 06:00;CYHM 030600Z 00000KT 15SM FEW210 06/03 A2992 RMK CI1 SLP136

CYHM;2009-05-03 07:00;CYHM 030700Z 24004KT 15SM FEW210 06/03 A2993 RMK CI2 SLP138

CYHM;2009-05-03 08:00;CYHM 030800Z 22004KT 15SM FEW210 06/03 A2993 RMK CI1 SLP139

CYHM;2009-05-03 09:00;CYHM 030900Z 21003KT 15SM FEW210 05/02 A2993 RMK CI2 SLP140

CYHM;2009-05-03 10:00;CYHM 031000Z 00000KT 15SM FEW100 FEW200 05/02 A2994 RMK AC1CI2 SLP141

CYHM;2009-05-03 11:00;CYHM 031100Z 23002KT 15SM FEW100 BKN250 05/02 A2994 RMK AC1CI2 AC TR CONTRAILS SLP144

CYHM;2009-05-03 12:00;CYHM 031200Z CCA 00000KT 15SM BKN250 07/04 A2996 RMK CI4 CONTRAILS SLP148

CYHM;2009-05-03 13:00;CYHM 031300Z 24004KT 15SM BKN250 10/04 A2997 RMK CI3 SLP154

CYHM;2009-05-03 14:00;CYHM 031400Z 21005KT 15SM SCT250 14/04 A2997 RMK CI2 SLP153

CYHM;2009-05-03 15:00;CYHM 031500Z 22010KT 15SM FEW050 FEW250 16/03 A2996 RMK CU1CI1 CU TR SLP148

CYHM;2009-05-03 16:00;CYHM 031600Z 24006KT 15SM FEW065 SCT250 16/01 A2994 RMK CU2CI1 SLP142

CYHM;2009-05-03 17:00;CYHM 031700Z 23016KT 15SM SCT076 SCT250 18/02 A2993 RMK AC3CI1 SLP137

CYHM;2009-05-03 18:00;CYHM 031800Z 24012KT 15SM FEW080 FEW250 18/02 A2992 RMK AC2CI1 CI TR SLP133

CYHM;2009-05-03 19:00;CYHM 031900Z 25012G17KT 15SM FEW064 SCT080 SCT250 19/02 A2992 RMK CU2AC2CI1 CI TR SLP134

CYHM;2009-05-03 20:00;CYHM 032000Z 24012G18KT 15SM FEW064 SCT079 BKN250 18/03 A2990 RMK CU1AC2CI2 SLP126

CYHM;2009-05-03 21:00;CYHM 032100Z 25012KT 15SM FEW064 SCT078 BKN250 18/02 A2988 RMK CU1AC2CI2 SLP122

CYHM;2009-05-03 22:00;CYHM 032200Z 25009KT 15SM FEW062 FEW085 BKN250 17/02 A2990 RMK SC2AC1CI3 CU ASOCTD SLP128

CYHM;2009-05-03 23:00;CYHM 032300Z 24009KT 15SM FEW062 FEW088 BKN250 17/02 A2991 RMK SC1AC1CI4 SLP131

CYHM;2009-05-04 00:00;CYHM 040000Z 25006KT 15SM FEW080 BKN250 16/02 A2992 RMK AC1CI4 SLP134

CYHM;2009-05-04 01:00;CYHM 040100Z 22004KT 15SM FEW080 BKN250 12/03 A2993 RMK AC1CI4 SLP139

CYHM;2009-05-04 02:00;CYHM 040200Z 22004KT 15SM BKN250 11/02 A2995 RMK CI4 SLP144

CYHM;2009-05-04 03:00;CYHM 040300Z 21004KT 15SM BKN220 11/02 A2995 RMK CS5 HALO SLP144

CYHM;2009-05-04 04:00;CYHM 040400Z 20004KT 15SM BKN210 10/02 A2995 RMK CS6 HALO SLP145

CYHM;2009-05-04 05:00;CYHM 040500Z 22003KT 15SM BKN210 09/03 A2996 RMK CI6 CS ASOCTD SLP148

CYHM;2009-05-04 06:00;CYHM 040600Z 03003KT 15SM BKN092 10/03 A2999 RMK AC5 SLP158

CYHM;2009-05-04 07:00;CYHM 040700Z 04008KT 15SM BKN220 10/02 A3000 RMK CI3 SLP160

CYHM;2009-05-04 08:00;CYHM 040800Z 04010KT 15SM FEW220 10/01 A3001 RMK CI2 SLP162

CYHM;2009-05-04 09:00;CYHM 040900Z 05009KT 15SM SKC 08/01 A3003 RMK SLP171

CYHM;2009-05-04 10:00;CYHM 041000Z 03008KT 15SM FEW100 FEW210 08/01 A3004 RMK AC1CI2 SLP173

CYHM;2009-05-04 11:00;CYHM 041100Z 03004KT 15SM BKN220 08/02 A3005 RMK CI3 SLP179

CYHM;2009-05-04 12:00;CYHM 041200Z 03012KT 15SM BKN230 10/00 A3008 RMK CI6 CONTRAIL SLP189

CYHM;2009-05-04 13:00;CYHM 041300Z 03010KT 15SM BKN210 11/M01 A3011 RMK CI5 CONTRAIL SLP198

CYHM;2009-05-04 14:00;CYHM 041400Z 05012KT 15SM BKN210 12/M01 A3012 RMK CS6 HALO SLP203

CYHM;2009-05-04 15:00;CYHM 041500Z CCA 06013KT 15SM BKN210 13/M02 A3013 RMK CS6 HALO SLP207

CYHM;2009-05-04 16:00;CYHM 041600Z 06012KT 15SM FEW180 OVC220 14/M01 A3013 RMK AC1CS6 HALO SLP207

CYHM;2009-05-04 17:00;CYHM 041700Z 07008KT 15SM FEW180 OVC210 14/M01 A3013 RMK AC2CS6 HALO SLP206

CYHM;2009-05-04 18:00;CYHM 041800Z 03004KT 15SM OVC210 15/M00 A3012 RMK CS8 SLP203

CYHM;2009-05-04 19:00;CYHM 041900Z 04011KT 15SM BKN250 16/01 A3012 RMK CS4 HALO SLP203

CYHM;2009-05-04 20:00;CYHM 042000Z 04003KT 15SM BKN250 16/M00 A3012 RMK CS3 WND L/V SLP203

CYHM;2009-05-04 21:00;CYHM 042100Z 02006KT 15SM BKN250 16/M01 A3011 RMK CS2 SLP200

CYHM;2009-05-04 22:00;CYHM 042200Z 06009KT 15SM BKN250 16/M01 A3011 RMK CS2 SLP201

CYHM;2009-05-04 23:00;CYHM 042300Z 09006KT 15SM BKN250 15/M01 A3013 RMK CI2 CONTRAILS SLP205

CYHM;2009-05-05 00:00;CYHM 050000Z 09004KT 15SM BKN250 12/M00 A3013 RMK CI2 SLP206

CYHM;2009-05-05 01:00;CYHM 050100Z 08004KT 15SM SCT250 11/M00 A3013 RMK CI1 CONTRAILS SLP208

CYHM;2009-05-05 02:00;CYHM 050200Z 08002KT 15SM FEW250 11/M01 A3014 RMK CI1 SLP211

CYHM;2009-05-05 03:00;CYHM 050300Z 04003KT 15SM FEW250 10/M00 A3014 RMK CI1 SLP210

CYHM;2009-05-05 04:00;CYHM 050400Z 01006KT 15SM BKN240 09/00 A3014 RMK CI2 SLP209

CYHM;2009-05-05 05:00;CYHM 050500Z 04005KT 15SM SCT250 09/M01 A3016 RMK CI2 SLP215

CYHM;2009-05-05 06:00;CYHM 050600Z 04009KT 15SM BKN240 08/M00 A3015 RMK CI2 SLP212

CYHM;2009-05-05 07:00;CYHM 050700Z 04008KT 15SM BKN220 08/M00 A3014 RMK CI3 SLP210

CYHM;2009-05-05 08:00;CYHM 050800Z 14002KT 15SM SCT220 06/M00 A3015 RMK CI1 SLP212

CYHM;2009-05-05 09:00;CYHM 050900Z 04008KT 15SM FEW140 BKN220 06/00 A3014 RMK AC1CS4 AC TR SLP209

CYHM;2009-05-05 10:00;CYHM 051000Z 04007KT 15SM OVC210 07/00 A3013 RMK CS7 SLP207

CYHM;2009-05-05 11:00;CYHM 051100Z 05010KT 15SM FEW180 OVC210 07/00 A3013 RMK AC2CI6 SLP208

CYHM;2009-05-05 12:00;CYHM 051200Z 05008KT 15SM SCT180 BKN210 08/01 A3016 RMK AC3CI4 SLP218

CYHM;2009-05-05 13:00;CYHM 051300Z 06007KT 15SM FEW170 BKN210 11/01 A3017 RMK AC2CI2 SLP220

CYHM;2009-05-05 14:00;CYHM 051400Z 06013KT 15SM FEW180 BKN210 13/00 A3015 RMK AC1CI4 CONTRAIL SLP214

CYHM;2009-05-05 15:00;CYHM 051500Z 06010KT 15SM SCT220 14/01 A3015 RMK CI2 SLP213

CYHM;2009-05-05 16:00;CYHM 051600Z 03012KT 15SM FEW210 15/01 A3013 RMK CI2 SLP208

CYHM;2009-05-05 17:00;CYHM 051700Z 05012KT 15SM FEW180 BKN210 15/02 A3011 RMK AC2CI2 SLP199

CYHM;2009-05-05 18:00;CYHM 051800Z 05015KT 15SM SCT180 BKN250 14/02 A3009 RMK AC3CI1 SLP194

CYHM;2009-05-05 19:00;CYHM 051900Z 04014KT 15SM BKN092 BKN250 14/01 A3007 RMK AC6CI1 SLP186

CYHM;2009-05-05 20:00;CYHM 052000Z 04012KT 15SM BKN094 14/02 A3005 RMK AC7 SLP180

CYHM;2009-05-05 21:00;CYHM 052100Z 04013KT 15SM FEW094 SCT180 BKN240 14/02 A3004 RMK AC2AC2CI1 SLP175

CYHM;2009-05-05 22:00;CYHM 052200Z 04015G21KT 15SM FEW094 FEW190 BKN250 13/03 A3002 RMK AC1AC1CI1 HALO SLP169

CYHM;2009-05-05 23:00;CYHM 052300Z 04013KT 15SM BKN092 12/04 A3001 RMK AC7 SLP165

CYHM;2009-05-06 00:00;CYHM 060000Z 03010KT 15SM BKN087 11/04 A3001 RMK AC7 SLP165

CYHM;2009-05-06 01:00;CYHM 060100Z 02010KT 15SM OVC086 10/04 A2999 RMK AC8 SLP161

CYHM;2009-05-06 02:00;CYHM 060200Z 01010KT 15SM BKN097 09/04 A3000 RMK AC7 SLP162

CYHM;2009-05-06 03:00;CYHM 060300Z 01006KT 15SM SCT080 SCT140 BKN250 09/04 A2999 RMK AC3AC1CI0 SLP158

CYHM;2009-05-06 04:00;CYHM 060400Z 02009KT 15SM SCT080 BKN250 09/05 A2998 RMK AC3CI1 SLP155

CYHM;2009-05-06 05:00;CYHM 060500Z 02006KT 15SM FEW140 SCT250 09/06 A2997 RMK AC1CI1 SLP154

CYHM;2009-05-06 06:00;CYHM 060600Z 03006KT 15SM FEW140 FEW250 08/06 A2996 RMK AC1CI1 CI TR SLP150

CYHM;2009-05-06 07:00;CYHM 060700Z 04004KT 15SM FEW140 FEW250 07/05 A2996 RMK AC1CI0 SLP149

CYHM;2009-05-06 08:00;CYHM 060800Z 02004KT 15SM FEW140 FEW250 07/05 A2995 RMK AC1CI1 CI TR SLP147

CYHM;2009-05-06 09:00;CYHM 060900Z 15002KT 15SM FEW250 05/04 A2997 RMK CI1 CI TR SLP151

CYHM;2009-05-06 10:00;CYHM 061000Z 03004KT 10SM FEW140 FEW250 05/04 A2996 RMK AC1CI1 AC TR CI TR SLP150

CYHM;2009-05-06 11:00;CYHM 061100Z 24004KT 8SM FEW240 06/05 A2999 RMK CI1 SLP160

CYHM;2009-05-06 12:00;CYHM 061200Z 00000KT 6SM BR FEW220 08/07 A3001 RMK CI2 SLP165

CYHM;2009-05-06 13:00;CYHM 061300Z 00000KT 15SM FEW220 12/08 A3000 RMK CI1 SLP164

CYHM;2009-05-06 14:00;CYHM 061400Z 15007KT 15SM FEW240 14/08 A3001 RMK CI1 SLP166

CYHM;2009-05-06 15:00;CYHM 061500Z 00000KT 15SM FEW240 16/08 A2999 RMK CI1 SLP158

CYHM;2009-05-06 16:00;CYHM 061600Z 00000KT 15SM FEW170 BKN210 17/08 A2997 RMK AC2CS5 HALO SLP152

CYHM;2009-05-06 17:00;CYHM 061700Z 14003KT 15SM OVC210 18/08 A2995 RMK CS8 HALO SLP146

CYHM;2009-05-06 18:00;CYHM 061800Z 10005KT 15SM FEW040 OVC210 18/09 A2994 RMK CU1CS7 SLP142

CYHM;2009-05-06 19:00;CYHM 061900Z 10008KT 15SM FEW046 OVC250 18/09 A2994 RMK CU1CS7 SUN DMLY VSBL SLP139

CYHM;2009-05-06 20:00;CYHM 062000Z 15007KT 15SM FEW052 OVC250 18/08 A2992 RMK CU1CC7 CU TR SUN DMLY VSBL SLP134

CYHM;2009-05-06 21:00;CYHM 062100Z 06005KT 12SM OVC250 17/09 A2988 RMK CC8 SUN DMLY VSBL SLP121

CYHM;2009-05-06 22:00;CYHM 062200Z 05007KT 12SM OVC250 12/08 A2988 RMK CC8 SLP120

CYHM;2009-05-06 23:00;CYHM 062300Z 06011KT 12SM BKN058 OVC250 12/08 A2987 RMK SC7CC1 SLP117

CYHM;2009-05-06 23:45;CYHM 062345Z CCA 05009KT 8SM -SHRA FEW008 BKN015 OVC054 RMK SF2SC4SC2

CYHM;2009-05-07 00:00;CYHM 070000Z 05006KT 8SM -SHRA FEW008 BKN015 OVC050 10/08 A2986 RMK SF2SC5SC2 SLP117

CYHM;2009-05-07 01:00;CYHM 070100Z 05003KT 5SM -SHRA BR FEW006 OVC015 10/09 A2986 RMK SF2SC6 SLP115

CYHM;2009-05-07 01:48;CYHM 070148Z 01006KT 4SM -SHRA BR BKN008 OVC017 RMK SF6SC2

CYHM;2009-05-07 02:00;CYHM 070200Z 02006KT 4SM -SHRA BR BKN008 OVC018 09/08 A2984 RMK SF6SC2 SLP109

CYHM;2009-05-07 03:00;CYHM 070300Z 02007KT 2SM -SHRA BR FEW002 BKN006 OVC040 09/09 A2982 RMK FG1SF2SF5SC1 SLP099

CYHM;2009-05-07 04:00;CYHM 070400Z 01009KT 2SM -RA BR OVC004 10/09 A2980 RMK FG1SF7 SLP092

CYHM;2009-05-07 05:00;CYHM 070500Z 02007KT 2SM -RA BR OVC014 10/10 A2978 RMK FG1SC7 SLP087

CYHM;2009-05-07 05:50;CYHM 070550Z 04005KT 2SM -RA BR OVC005 RMK FG1SF7

CYHM;2009-05-07 06:00;CYHM 070600Z 02008KT 2SM -RA BR OVC005 11/10 A2976 RMK FG1SF7 SLP080

CYHM;2009-05-07 07:00;CYHM 070700Z 01007KT 2SM -RA BR BKN003 OVC025 11/10 A2975 RMK FG1SF5SC2 SLP077

CYHM;2009-05-07 07:24;CYHM 070724Z 02003KT 2SM -RA BR FEW002 OVC026 RMK FG1SF2SC6

CYHM;2009-05-07 08:00;CYHM 070800Z 32007KT 1 1/2SM -RA BR OVC008 11/11 A2975 RMK FG2SF6 VIS VRB 1 - 2 SLP075

CYHM;2009-05-07 09:00;CYHM 070900Z 33009KT 4SM -RA BR FEW003 OVC013 11/11 A2975 RMK SF2SC6 SLP076

CYHM;2009-05-07 10:00;CYHM 071000Z 31007KT 3SM -RA BR FEW006 OVC014 11/11 A2977 RMK SF2SC6 VIS VRB 2 - 4 SLP083

CYHM;2009-05-07 11:00;CYHM 071100Z 32006KT 4SM -RA BR SCT005 BKN012 11/11 A2978 RMK SF3SC4 SLP085

CYHM;2009-05-07 11:44;CYHM 071144Z 32005KT 6SM BR FEW007 BKN016 BKN082 RMK SF1SC5AC2 RERA

CYHM;2009-05-07 12:00;CYHM 071200Z 33004KT 6SM BR SCT020 BKN082 11/11 A2979 RMK SC4AC3 RERA SLP092

CYHM;2009-05-07 13:00;CYHM 071300Z 00000KT 6SM BR FEW012 FEW025 FEW082 12/11 A2981 RMK CF1SC1AC2 CF TR SLP098

CYHM;2009-05-07 14:00;CYHM 071400Z 28005KT 15SM FEW015 SCT030 14/12 A2981 RMK CU2SC1 SLP098

CYHM;2009-05-07 15:00;CYHM 071500Z 24004KT 15SM FEW020 FEW030 SCT240 16/11 A2980 RMK CU2SC1CI0 SLP093

CYHM;2009-05-07 16:00;CYHM 071600Z 21007KT 15SM FEW024 SCT040 BKN220 17/10 A2979 RMK CU2SC1CI2 SLP089

CYHM;2009-05-07 17:00;CYHM 071700Z 23008KT 15SM FEW032 BKN038 BKN055 BKN220 18/11 A2978 RMK CU2SC3SC2CI1 SLP087

CYHM;2009-05-07 18:00;CYHM 071800Z 22014KT 15SM FEW032 SCT045 BKN210 18/12 A2977 RMK CU2SC1CI1 SLP082

CYHM;2009-05-07 19:00;CYHM 071900Z 24015KT 15SM FEW032 BKN040 19/11 A2979 RMK CU2SC5 SLP088

CYHM;2009-05-07 20:00;CYHM 072000Z 25013G19KT 15SM FEW038 OVC100 17/09 A2980 RMK SC2AC6 SLP093

CYHM;2009-05-07 20:13;CYHM 072013Z 25014KT 15SM -SHRA FEW038 FEW064 OVC100 RMK SC2SC1AC6

CYHM;2009-05-07 21:00;CYHM 072100Z 26014KT 15SM FEW064 BKN120 BKN230 17/09 A2979 RMK SC2AC4CI2 SLP089

CYHM;2009-05-07 22:00;CYHM 072200Z 24013KT 15SM -SHRA FEW035 OVC110 17/09 A2977 RMK SC1AC7 PCPN VRY LGT SLP082

CYHM;2009-05-07 23:00;CYHM 072300Z 24013KT 15SM -SHRA FEW030 FEW087 BKN160 15/10 A2977 RMK SC1AC2AC5 PCPN VRY LGT SLP082

CYHM;2009-05-07 23:24;CYHM 072324Z 24010KT 15SM FEW085 BKN160 RMK AC2AC6

CYHM;2009-05-08 00:00;CYHM 080000Z 24010KT 15SM BKN076 BKN160 15/10 A2977 RMK AC5AC2 SLP084

CYHM;2009-05-08 01:00;CYHM 080100Z 23008KT 15SM FEW073 BKN250 14/10 A2977 RMK AC2CI1 SLP083

CYHM;2009-05-08 02:00;CYHM 080200Z 23008KT 15SM FEW240 12/10 A2978 RMK CI1 SLP085

CYHM;2009-05-08 03:00;CYHM 080300Z 23008KT 12SM OVC016 13/11 A2978 RMK SC8 SLP084

CYHM;2009-05-08 04:00;CYHM 080400Z 21008KT 9SM FEW011 BKN016 13/11 A2977 RMK CF1SC6 SLP083

CYHM;2009-05-08 04:32;CYHM 080432Z 22008KT 9SM OVC012 RMK SC8

CYHM;2009-05-08 05:00;CYHM 080500Z 21008KT 8SM OVC010 13/12 A2977 RMK SC8 SLP083

CYHM;2009-05-08 05:31;CYHM 080531Z 23008KT 8SM OVC009 RMK SC8

CYHM;2009-05-08 06:00;CYHM 080600Z 21007KT 6SM BR OVC010 13/12 A2977 RMK SC8 SLP081

CYHM;2009-05-08 06:44;CYHM 080644Z 25006KT 5SM -SHRA BR BKN013 BKN110 RMK SC5AC2

CYHM;2009-05-08 07:00;CYHM 080700Z 23007KT 5SM -SHRA BR FEW013 BKN085 BKN110 12/12 A2976 RMK SC2AC3AC2 SLP077

CYHM;2009-05-08 08:00;CYHM 080800Z 20004KT 9SM FEW015 SCT085 BKN140 12/11 A2975 RMK SC1AC2AC2 SLP074

CYHM;2009-05-08 09:00;CYHM 080900Z 22006KT 7SM FEW210 10/10 A2975 RMK CI0 SLP074

CYHM;2009-05-08 10:00;CYHM 081000Z 25005KT 3SM BR BKN041 BKN120 12/11 A2975 RMK SC5AC2 TCU ASOCTD SLP075

CYHM;2009-05-08 11:00;CYHM 081100Z 33006KT 5SM BR SCT042 BKN093 12/11 A2976 RMK SC4AC2 CU ASOCTD SLP080

CYHM;2009-05-08 12:00;CYHM 081200Z 25005KT 6SM BR FEW020 FEW040 SCT220 13/12 A2975 RMK CU1SC1CI1 SLP076

CYHM;2009-05-08 13:00;CYHM 081300Z 24007KT 10SM FEW240 15/12 A2974 RMK CI1 CI TR SLP073

CYHM;2009-05-08 14:00;CYHM 081400Z 21012KT 15SM SKC 18/13 A2975 RMK SLP074

CYHM;2009-05-08 15:00;CYHM 081500Z 21006KT 15SM SKC 19/14 A2970 RMK SLP057

CYHM;2009-05-08 16:00;CYHM 081600Z 20015KT 15SM FEW030 FEW240 20/14 A2974 RMK CU1CI1 CU TR CI TR SLP071

CYHM;2009-05-08 17:00;CYHM 081700Z 22010KT 15SM FEW032 FEW240 22/14 A2974 RMK CU2CI0 CI TR SLP071

CYHM;2009-05-08 18:00;CYHM 081800Z 22010KT 15SM FEW056 SCT100 BKN220 23/11 A2973 RMK CU2AC2CI1 SLP068

CYHM;2009-05-08 19:00;CYHM 081900Z 21013KT 12SM -SHRA BKN032 BKN100 21/14 A2972 RMK SC5AC2 TCU ASOCTD SLP065

CYHM;2009-05-08 19:15;CYHM 081915Z 20010KT 15SM FEW035TCU SCT053 BKN210 RMK TCU2SC2CI1

CYHM;2009-05-08 20:00;CYHM 082000Z 23015KT 15SM FEW045TCU FEW090 BKN200 23/12 A2969 RMK TCU1AC2CI2 SLP054

CYHM;2009-05-08 21:00;CYHM 082100Z 22013G18KT 15SM FEW050TCU FEW075 BKN210 22/13 A2969 RMK TCU2AC1CI2 CONTRAILS SLP053

CYHM;2009-05-08 22:00;CYHM 082200Z 22013KT 15SM FEW050 FEW090 SCT220 21/12 A2968 RMK CU1AC1CI2 SLP052

CYHM;2009-05-08 23:00;CYHM 082300Z 22011KT 15SM FEW045 FEW070 FEW140 BKN220 20/12 A2968 RMK CU1AC1AC2CI2 TR CU SLP051

CYHM;2009-05-09 00:00;CYHM 090000Z 20006KT 15SM FEW040TCU BKN180 18/11 A2970 RMK TCU2AC5 SLP057

CYHM;2009-05-09 01:00;CYHM 090100Z 26002KT 15SM BKN082 BKN130 18/12 A2971 RMK AC5AC2 SLP060

CYHM;2009-05-09 02:00;CYHM 090200Z 29008KT 10SM -SHRA BKN062 17/13 A2972 RMK SC7 TCU ASOCTD SLP065

CYHM;2009-05-09 02:17;CYHM 090217Z 30007KT 10SM -TSRA FEW035CB OVC077 RMK CB2AC6 OCNL LTGIC

CYHM;2009-05-09 03:00;CYHM 090300Z 00000KT 15SM -TSRA FEW035CB BKN110 15/12 A2970 RMK CB2AC6 OCNL LTGICCG SLP058

CYHM;2009-05-09 03:22;CYHM 090322Z 18003KT 15SM TS FEW030CB BKN080 RMK CB2AC6 OCNL LTNG E

CYHM;2009-05-09 04:00;CYHM 090400Z 22005KT 12SM -SHRA OVC080 15/12 A2970 RETS RMK AC8 SLP057

CYHM;2009-05-09 05:00;CYHM 090500Z 17004KT 15SM OVC096 14/12 A2967 RMK AC8 SLP048

CYHM;2009-05-09 06:00;CYHM 090600Z 17007KT 15SM BKN100 14/13 A2966 RMK AC6 SLP042

CYHM;2009-05-09 07:00;CYHM 090700Z 00000KT 15SM FEW036 BKN095 BKN150 13/12 A2965 RMK SC2AC4AC1 SLP040

CYHM;2009-05-09 08:00;CYHM 090800Z 00000KT 15SM BKN038 OVC100 13/13 A2964 RMK SC6AC2 SLP036

CYHM;2009-05-09 09:00;CYHM 090900Z 00000KT 10SM MIFG FEW045 FEW090 BKN140 13/12 A2963 RMK SC2AC1AC2 SLP034

CYHM;2009-05-09 10:00;CYHM 091000Z 18007KT 5SM BR SCT030 BKN120 13/12 A2961 RMK SC4AC2 TCU ASOCTD SLP026

CYHM;2009-05-09 11:00;CYHM 091100Z 17005KT 9SM FEW021 BKN078 13/12 A2961 RMK SC2AC6 SLP025

CYHM;2009-05-09 12:00;CYHM 091200Z 16007KT 10SM FEW036 BKN076 BKN250 14/13 A2956 RMK SC1AC5CI1 SLP011

CYHM;2009-05-09 12:36;CYHM 091236Z 20010KT 5SM BR BKN004 OVC080 RMK SF6AC2

CYHM;2009-05-09 13:00;CYHM 091300Z 20009KT 2 1/2SM BR OVC003 15/14 A2955 RMK SF8 SLP008

CYHM;2009-05-09 13:26;CYHM 091326Z 21011KT 3SM BR OVC004 RMK SF8

CYHM;2009-05-09 14:00;CYHM 091400Z 21013KT 5SM BR BKN007 BKN014 17/16 A2952 RMK CF6SC2 CIG RAG SLP997

CYHM;2009-05-09 14:19;CYHM 091419Z 22014G19KT 8SM BKN010 OVC019 RMK CF6SC2

CYHM;2009-05-09 15:00;CYHM 091500Z 19015KT 7SM FEW008 BKN012 OVC020 17/15 A2950 RMK CF2SC6SC1 SLP990

CYHM;2009-05-09 15:03;CYHM 091503Z 20014KT 7SM -TSRA FEW008 BKN012 OVC020 RMK CF2SC6SC1 CB EMBDD

CYHM;2009-05-09 15:17;CYHM 091517Z 27020KT 2SM +TSRA BR BKN007 OVC019 RMK FG1CF6SC2 CB EMBDD WND SHFT 1712Z

CYHM;2009-05-09 15:19;CYHM 091519Z 27020KT 3/4SM +TSRAGR OVC007 RMK FG2CF6 HAIL DIAM 7 MM CB EMBDD

CYHM;2009-05-09 15:23;CYHM 091523Z 23020KT 3SM TSRA BR BKN007 OVC036 RERA RMK CF6SC2 CB EMBDD

CYHM;2009-05-09 15:49;CYHM 091549Z 23017G26KT 7SM -SHRA BKN009 OVC036 RETSRA RMK CF7SC1

CYHM;2009-05-09 16:00;CYHM 091600Z 24019G28KT 7SM -SHRA BKN009 BKN038 BKN072 16/15 A2951 RETSRA RMK CF5SC2AC1 SLP992

CYHM;2009-05-09 16:30;CYHM 091630Z 24027KT 10SM BKN018 RMK CU6

CYHM;2009-05-09 17:00;CYHM 091700Z 24025G31KT 15SM BKN033 18/14 A2948 RMK CU7 SLP984

CYHM;2009-05-09 17:44;CYHM 091744Z 27023G32KT 220V300 15SM -SHRA BKN044 BKN130 RMK CU7AC1 TCU EMBDD

CYHM;2009-05-09 18:00;CYHM 091800Z 27016G23KT 230V320 15SM -SHRA BKN044 BKN130 16/11 A2950 RMK CU5AC1 TCU ASOCTD PCPN VRY LGT SLP991

CYHM;2009-05-09 18:14;CYHM 091814Z 27015G20KT 230V290 12SM FEW015 SCT040 BKN120 RMK CF1CU4AC1 TCU ASOCTD CF TR

CYHM;2009-05-09 19:00;CYHM 091900Z 26027G34KT 12SM VCSH BKN040TCU BKN056 18/10 A2951 RMK TCU5SC2 CB ASOCTD E-S SLP993

CYHM;2009-05-09 20:00;CYHM 092000Z 27026G34KT 15SM SCT030 SCT070 BKN090 15/09 A2955 RMK CU3AC1AC1 SLP005

CYHM;2009-05-09 21:00;CYHM 092100Z 28022G30KT 15SM FEW017 BKN022 BKN035 13/09 A2962 RMK CU2SC5SC1 PRESRR SLP031

CYHM;2009-05-09 21:09;CYHM 092109Z 28020G27KT 15SM -SHRA SCT017 BKN023 BKN039 RMK CF3SC2SC2

CYHM;2009-05-09 21:12;CYHM 092112Z CCA 29020KT 15SM -SHRA SCT017 BKN023 BKN040 RMK CF3SC2SC2

CYHM;2009-05-09 21:16;CYHM 092116Z 28022KT 15SM -SHRA SCT016 BKN024 RMK CF3SC4

CYHM;2009-05-09 22:00;CYHM 092200Z 28014G19KT 250V310 15SM FEW016 BKN023 BKN039 13/09 A2969 RMK CF2SC4SC2 PRESRR SLP054

CYHM;2009-05-09 23:00;CYHM 092300Z 29016G23KT 15SM FEW012 BKN015 OVC022 10/07 A2975 RMK CF2SC5SC1 PRESRR SLP074

CYHM;2009-05-10 00:00;CYHM 100000Z 30017G22KT 15SM BKN017 BKN023 OVC095 08/05 A2979 RMK SC5SC2AC1 SLP092

CYHM;2009-05-10 01:00;CYHM 100100Z 29012G18KT 15SM FEW018 SCT024 BKN100 08/04 A2983 RMK CF2SC2AC3 SLP104

CYHM;2009-05-10 02:00;CYHM 100200Z 28011KT 15SM BKN027 08/05 A2986 RMK SC6 SLP114

CYHM;2009-05-10 03:00;CYHM 100300Z 26009KT 15SM SCT036 BKN140 08/05 A2988 RMK SC4AC2 SLP122

CYHM;2009-05-10 04:00;CYHM 100400Z 26008KT 15SM FEW035 BKN130 07/04 A2989 RMK SC1AC6 SLP125

CYHM;2009-05-10 05:00;CYHM 100500Z 25007KT 15SM OVC050 07/04 A2990 RMK SC8 SLP127

CYHM;2009-05-10 06:00;CYHM 100600Z 26007KT 15SM OVC045 08/05 A2991 RMK SC8 SLP129

CYHM;2009-05-10 07:00;CYHM 100700Z 28005KT 15SM BKN032 OVC090 08/04 A2990 RMK SC6AC2 SLP128

CYHM;2009-05-10 08:00;CYHM 100800Z 29014KT 15SM BKN026 BKN090 07/03 A2991 RMK SC6AC1 SLP131

CYHM;2009-05-10 09:00;CYHM 100900Z 28007KT 15SM BKN026 07/02 A2993 RMK SC6 SLP138

CYHM;2009-05-10 10:00;CYHM 101000Z 28008KT 15SM FEW020 BKN071 06/02 A2994 RMK SC1AC6 SLP141

CYHM;2009-05-10 11:00;CYHM 101100Z 29008KT 230V320 15SM BKN019 06/03 A2996 RMK SC7 SLP148

CYHM;2009-05-10 12:00;CYHM 101200Z 30010KT 250V340 15SM BKN015 06/03 A2998 RMK SC7 SLP158

CYHM;2009-05-10 13:00;CYHM 101300Z 27013G20KT 15SM BKN022 07/02 A3001 RMK SC7 SLP167

CYHM;2009-05-10 14:00;CYHM 101400Z 29016KT 15SM BKN020 BKN034 07/02 A3001 RMK SC6SC1 SLP168

CYHM;2009-05-10 15:00;CYHM 101500Z 27012KT 15SM BKN019 BKN036 07/03 A3002 RMK SC6SC2 SLP170

CYHM;2009-05-10 16:00;CYHM 101600Z 28014KT 15SM BKN018 06/02 A3004 RMK SC7 SLP177

CYHM;2009-05-10 17:00;CYHM 101700Z 27017KT 15SM BKN020 BKN052 08/03 A3004 RMK SC6SC1 SLP179

CYHM;2009-05-10 18:00;CYHM 101800Z CCA 27016KT 230V300 15SM BKN025 BKN055 09/03 A3004 RMK SC6SC1 SLP179

CYHM;2009-05-10 19:00;CYHM 101900Z 28015G21KT 250V310 15SM BKN027 BKN052 09/03 A3005 RMK SC6SC1 SLP181

CYHM;2009-05-10 20:00;CYHM 102000Z 27015G20KT 240V300 15SM BKN026 BKN034 BKN075 09/03 A3007 RMK SC5SC2AC1 AC TR SLP186

CYHM;2009-05-10 21:00;CYHM 102100Z 28012KT 250V310 15SM BKN028 BKN034 09/03 A3007 RMK SC5SC2 SLP188

CYHM;2009-05-10 22:00;CYHM 102200Z 29012KT 15SM BKN029 BKN037 09/02 A3009 RMK SC6SC2 SLP194

CYHM;2009-05-10 23:00;CYHM 102300Z 29011KT 15SM BKN029 BKN034 08/02 A3010 RMK SC5SC1 SLP198

CYHM;2009-05-11 00:00;CYHM 110000Z 28008KT 15SM FEW029 FEW035 08/02 A3010 RMK SC2SC1 SLP198

CYHM;2009-05-11 01:00;CYHM 110100Z 27005KT 15SM FEW035 FEW080 06/01 A3011 RMK SC1AC1 AC TR SLP202

CYHM;2009-05-11 02:00;CYHM 110200Z 24003KT 15SM FEW035 05/01 A3013 RMK SC1 SC TR SLP207

CYHM;2009-05-11 03:00;CYHM 110300Z 23003KT 15SM FEW210 04/00 A3013 RMK CI1 SLP210

CYHM;2009-05-11 04:00;CYHM 110400Z 25004KT 15SM FEW210 03/00 A3012 RMK CI1 SLP208

CYHM;2009-05-11 05:00;CYHM 110500Z 24003KT 15SM SKC 04/00 A3012 RMK SLP207

CYHM;2009-05-11 06:00;CYHM 110600Z 30002KT 15SM SKC 02/00 A3011 RMK SLP203

CYHM;2009-05-11 07:00;CYHM 110700Z 30005KT 15SM FEW210 02/M00 A3011 RMK CI1 SLP203

CYHM;2009-05-11 08:00;CYHM 110800Z 00000KT 15SM FEW200 01/M01 A3011 RMK CI1 SLP203

CYHM;2009-05-11 09:00;CYHM 110900Z 31002KT 15SM FEW210 01/M01 A3013 RMK CI1 SLP209

CYHM;2009-05-11 10:00;CYHM 111000Z 36005KT 15SM FEW100 FEW210 01/M02 A3013 RMK AC1CI1 TR AC SLP212

CYHM;2009-05-11 12:00;CYHM 111200Z 00000KT 15SM FEW110 FEW220 06/M01 A3016 RMK AC1CI1 AC TR CI TR SLP218

CYHM;2009-05-11 13:00;CYHM 111300Z 00000KT 15SM FEW110 FEW220 08/M02 A3015 RMK AC1CI1 SLP215

CYHM;2009-05-11 14:00;CYHM 111400Z 00000KT 15SM FEW110 FEW240 10/M03 A3014 RMK AC1CI0 SLP214

CYHM;2009-05-11 15:00;CYHM 111500Z 00000KT 15SM FEW240 11/M01 A3014 RMK CI1 SLP211

CYHM;2009-05-11 16:00;CYHM 111600Z 00000KT 15SM FEW035 FEW150 SCT220 12/M01 A3012 RMK CU1AC1CI1 SLP206

CYHM;2009-05-11 17:00;CYHM 111700Z 26008KT 15SM FEW040 FEW062 SCT082 BKN220 13/00 A3012 RMK CU1SC2AC1CI1 SLP204

CYHM;2009-05-11 18:00;CYHM 111800Z 27008KT 15SM FEW040 SCT060 BKN079 14/00 A3011 RMK CU1SC3AC3 SLP202

CYHM;2009-05-11 19:00;CYHM 111900Z 29008KT 15SM OVC063 12/01 A3012 RMK SC8 SLP205

CYHM;2009-05-11 20:00;CYHM 112000Z 28011KT 15SM OVC067 11/01 A3011 RMK AC8 SLP203

CYHM;2009-05-11 21:00;CYHM 112100Z 28006KT 15SM OVC074 11/01 A3010 RMK AC8 SLP201

CYHM;2009-05-11 22:00;CYHM 112200Z 28006KT 15SM FEW044 BKN068 12/02 A3010 RMK CU1AC6 CU TR SLP200

CYHM;2009-05-11 23:00;CYHM 112300Z 30004KT 15SM FEW042 FEW078 12/01 A3010 RMK CU1AC2 CU TR SLP201

CYHM;2009-05-12 00:00;CYHM 120000Z 27003KT 15SM FEW070 10/01 A3011 RMK AC2 SLP201

CYHM;2009-05-12 01:00;CYHM 120100Z 32003KT 15SM SCT078 09/02 A3012 RMK AC3 SLP204

CYHM;2009-05-12 02:00;CYHM 120200Z 31002KT 15SM BKN081 09/03 A3013 RMK AC7 SLP208

CYHM;2009-05-12 03:00;CYHM 120300Z 29002KT 15SM BKN080 08/03 A3013 RMK AC7 SLP208

CYHM;2009-05-12 04:00;CYHM 120400Z 32004KT 15SM FEW080 07/02 A3013 RMK AC1 SLP209

CYHM;2009-05-12 05:00;CYHM 120500Z 34005KT 15SM SKC 06/01 A3014 RMK SLP211

CYHM;2009-05-12 06:00;CYHM 120600Z 35005KT 15SM SKC 06/01 A3015 RMK SLP213

CYHM;2009-05-12 07:00;CYHM 120700Z 00000KT 15SM SKC 04/00 A3015 RMK SLP214

CYHM;2009-05-12 08:00;CYHM 120800Z 00000KT 15SM SKC 03/01 A3016 RMK SLP218

CYHM;2009-05-12 09:00;CYHM 120900Z 32002KT 15SM SKC 03/00 A3017 RMK SLP223

CYHM;2009-05-12 10:00;CYHM 121000Z 31002KT 15SM SKC 01/M00 A3019 RMK SLP229

CYHM;2009-05-12 11:00;CYHM 121100Z 27006KT 15SM SKC 02/M00 A3022 RMK SLP238

CYHM;2009-05-12 12:00;CYHM 121200Z 27003KT 15SM SKC 06/01 A3024 RMK SLP245

CYHM;2009-05-12 13:00;CYHM 121300Z 00000KT 15SM SKC 10/03 A3025 RMK SLP250

CYHM;2009-05-12 14:00;CYHM 121400Z 27005KT 15SM SKC 12/01 A3026 RMK SLP253

CYHM;2009-05-12 15:00;CYHM 121500Z 22004KT 15SM SKC 13/M00 A3027 RMK SLP255

CYHM;2009-05-12 16:00;CYHM 121600Z 28010KT 15SM SKC 14/M00 A3027 RMK SLP256

CYHM;2009-05-12 17:00;CYHM 121700Z 20007KT 15SM FEW040 15/M01 A3026 RMK CU1 CU TR SLP253

CYHM;2009-05-12 18:00;CYHM 121800Z 14006KT 15SM FEW040 16/M01 A3026 RMK CU1 SLP250

CYHM;2009-05-12 19:00;CYHM 121900Z 23003KT 15SM FEW054 16/M00 A3025 RMK CU2 WND L/V SLP249

CYHM;2009-05-12 20:00;CYHM 122000Z 29004KT 15SM FEW054 16/M00 A3023 RMK CU1 SLP243

CYHM;2009-05-12 21:00;CYHM 122100Z 20006KT 15SM FEW080 17/M03 A3023 RMK AC1 SLP242

CYHM;2009-05-12 22:00;CYHM 122200Z 20012KT 15SM FEW084 16/01 A3023 RMK AC1 SLP241

CYHM;2009-05-12 23:00;CYHM 122300Z 18010KT 15SM FEW084 15/00 A3022 RMK AC1 AC TR SLP239

CYHM;2009-05-13 00:00;CYHM 130000Z 18007KT 15SM FEW086 13/M00 A3022 RMK AC1 AC TR SLP237

CYHM;2009-05-13 01:00;CYHM 130100Z 20005KT 15SM FEW100 10/00 A3022 RMK AC1 AC TR SLP239

CYHM;2009-05-13 02:00;CYHM 130200Z 19002KT 15SM SKC 09/M01 A3023 RMK SLP242

CYHM;2009-05-13 03:00;CYHM 130300Z 22002KT 15SM SKC 08/M01 A3026 RMK SLP250

CYHM;2009-05-13 04:00;CYHM 130400Z 24004KT 15SM SKC 08/M02 A3027 RMK SLP254

CYHM;2009-05-13 05:00;CYHM 130500Z 00000KT 15SM SKC 08/M03 A3026 RMK SLP250

CYHM;2009-05-13 06:00;CYHM 130600Z 16002KT 15SM SKC 07/M03 A3025 RMK SLP248

CYHM;2009-05-13 07:00;CYHM 130700Z 15003KT 15SM SKC 06/M03 A3025 RMK SLP246

CYHM;2009-05-13 08:00;CYHM 130800Z 11004KT 15SM SKC 06/M03 A3024 RMK SLP243

CYHM;2009-05-13 09:00;CYHM 130900Z 08004KT 15SM FEW250 06/M01 A3024 RMK CI1 CI TR SLP243

CYHM;2009-05-13 10:00;CYHM 131000Z 09004KT 15SM SCT250 05/00 A3025 RMK CI1 CONTRAILS SLP246

CYHM;2009-05-13 11:00;CYHM 131100Z 11004KT 15SM BKN240 06/02 A3026 RMK CI3 CONTRAIL SLP249

CYHM;2009-05-13 12:00;CYHM 131200Z 10006KT 15SM BKN240 09/04 A3026 RMK CI4 CONTRAIL SLP253

CYHM;2009-05-13 13:00;CYHM 131300Z 13008KT 15SM BKN240 12/05 A3025 RMK CI6 CONTRAIL SLP248

CYHM;2009-05-13 14:00;CYHM 131400Z 14012KT 15SM BKN240 14/05 A3023 RMK CI4 SLP242

CYHM;2009-05-13 15:00;CYHM 131500Z 13012KT 15SM FEW240 17/05 A3020 RMK CI1 CI TR CONTRAIL SLP231

CYHM;2009-05-13 16:00;CYHM 131600Z 17013KT 15SM FEW170 BKN240 18/04 A3019 RMK AC2CI2 SLP227

CYHM;2009-05-13 17:00;CYHM 131700Z 17015KT 15SM FEW140 SCT170 BKN230 19/05 A3017 RMK AC2AS2CI2 SLP218

CYHM;2009-05-13 18:00;CYHM 131800Z 18012KT 15SM FEW140 FEW170 SCT240 20/06 A3014 RMK AC1AC2CI1 SLP210

CYHM;2009-05-13 19:00;CYHM 131900Z 17014KT 15SM SCT130 BKN160 20/06 A3011 RMK AC4AC2 SLP200

CYHM;2009-05-13 20:00;CYHM 132000Z 17013KT 15SM FEW110 BKN130 BKN160 20/07 A3009 RMK AC2AC3AC2 SLP193

CYHM;2009-05-13 21:00;CYHM 132100Z 18011KT 15SM FEW080 BKN110 BKN140 20/07 A3007 RMK AC2AC3AC2 SLP184

CYHM;2009-05-13 22:00;CYHM 132200Z 19010KT 15SM FEW040 SCT070 BKN090 OVC110 19/08 A3005 RMK CF1AC2AC3AC2 SLP180

CYHM;2009-05-13 22:10;CYHM 132210Z 18009KT 15SM -SHRA FEW040 SCT060 BKN080 OVC095 RMK CF1SC2AC3AC2

CYHM;2009-05-13 23:00;CYHM 132300Z 19005KT 12SM -SHRA FEW045 SCT060 OVC074 18/09 A3004 RMK CF1SC2AC5 SLP176

CYHM;2009-05-14 00:00;CYHM 140000Z 17004KT 10SM -SHRA SCT055 BKN068 OVC080 15/11 A3004 RMK SC4AC2AC2 SLP175

CYHM;2009-05-14 00:12;CYHM 140012Z 13004KT 12SM SCT055 BKN070 OVC085 RMK SC3AC2AC2

CYHM;2009-05-14 01:00;CYHM 140100Z 14006KT 15SM FEW055 BKN067 OVC082 15/10 A3001 RMK SC2AC5AC2 SLP164

CYHM;2009-05-14 01:40;CYHM 140140Z 15007KT 15SM -SHRA BKN064 OVC078 RMK SC6AC2 PCPN VRY LGT

CYHM;2009-05-14 02:00;CYHM 140200Z 16010KT 15SM -SHRA SCT064 BKN078 OVC095 15/09 A2999 RMK SC4AC2AS2 PCPN VRY LGT SLP158

CYHM;2009-05-14 02:12;CYHM 140212Z 16015KT 15SM OVC076 RMK AC8

CYHM;2009-05-14 03:00;CYHM 140300Z 18016KT 15SM -SHRA FEW064 BKN075 17/08 A2998 RMK SC2AC6 SLP153

CYHM;2009-05-14 04:00;CYHM 140400Z 19018G27KT 15SM -SHRA OVC046 17/09 A2996 RMK SC8 SLP146

CYHM;2009-05-14 05:00;CYHM 140500Z 17014KT 15SM OVC048 16/09 A2993 RMK SC8 SLP137

CYHM;2009-05-14 06:00;CYHM 140600Z 17018KT 15SM OVC043 16/09 A2989 RMK SC8 SLP120

CYHM;2009-05-14 06:44;CYHM 140644Z 18017G22KT 10SM -SHRA FEW030 OVC050 RMK CF1SC7

CYHM;2009-05-14 07:00;CYHM 140700Z 18016G21KT 12SM -SHRA OVC040 15/10 A2987 RMK SC8 SLP113

CYHM;2009-05-14 08:00;CYHM 140800Z 19016KT 10SM -SHRA OVC040 14/11 A2984 RERA RMK SC8 SLP106

CYHM;2009-05-14 09:00;CYHM 140900Z 19018G24KT 15SM BKN045 BKN100 14/10 A2979 RMK SC6AC2 SLP088

CYHM;2009-05-14 10:00;CYHM 141000Z 19018G29KT 15SM BKN038 15/10 A2977 RMK SC7 CU EMBDD SLP081

CYHM;2009-05-14 10:24;CYHM 141024Z 18022KT 15SM -SHRA BKN036 OVC045 RMK SC6SC2 TCU EMBDD

CYHM;2009-05-14 10:46;CYHM 141046Z CCA 18018G24KT 3SM -TSRA OVC037 RMK SC8 CB EMBDD LTNG

CYHM;2009-05-14 11:00;CYHM 141100Z 19020G25KT 6SM -TSRA BKN036 OVC050 14/11 A2975 RMK SC6SC2 CB EMBDD SLP075

CYHM;2009-05-14 11:30;CYHM 141130Z 20023KT 7SM -SHRA BKN033 OVC040 RMK SC6SC2 CB EMBDD

CYHM;2009-05-14 12:00;CYHM 141200Z CCA 21028G34KT 6SM -SHRA BKN025 OVC035 14/11 A2975 RMK SC6SC2 SLP073

CYHM;2009-05-14 13:00;CYHM 141300Z CCA 20025G30KT 5SM -SHRA BKN041 BKN062 OVC082 14/13 A2973 RMK SC6SC2AC1 SLP068

CYHM;2009-05-14 14:00;CYHM 141400Z 21026G36KT 10SM -SHRA BKN015 OVC021 14/13 A2973 RMK SC5SC3 PCPN VERY LIGHT SLP068

CYHM;2009-05-14 14:35;CYHM 141435Z 21025G35KT 3SM -SHRA BR BKN012 OVC016 RMK SF6SC2

CYHM;2009-05-14 14:44;CYHM 141444Z 22026G34KT 2SM -SHRA BR BKN006 OVC014 RMK SF6SC2

CYHM;2009-05-14 15:00;CYHM 141500Z 23028G36KT 8SM -SHRA BKN008 OVC016 15/14 A2975 RMK SF6SC2 SLP075

CYHM;2009-05-14 15:18;CYHM 141518Z 24028G34KT 10SM SCT010 OVC025 RMK SF4SC4 RERA

CYHM;2009-05-14 16:00;CYHM 141600Z 25025G32KT 15SM FEW025 FEW060 FEW140 SCT220 17/14 A2978 RMK CU1SC1AC1CI1 SLP086

CYHM;2009-05-14 17:00;CYHM 141700Z 28022G32KT 15SM FEW040 FEW160 SCT220 20/06 A2984 RMK CU1AC1CI1 SLP104

CYHM;2009-05-14 18:00;CYHM 141800Z 25025G32KT 15SM FEW040 SCT220 20/05 A2988 RMK CU1CI2 SLP118

CYHM;2009-05-14 19:00;CYHM 141900Z 25025KT 15SM FEW050 BKN230 21/06 A2991 RMK CU1CI3 CU TR SLP128

CYHM;2009-05-14 20:00;CYHM 142000Z 25023KT 15SM SCT240 21/07 A2993 RMK CI2 SLP135

CYHM;2009-05-14 21:00;CYHM 142100Z 26018G25KT 15SM FEW060 FEW250 22/06 A2996 RMK CU1CI1 CU TR SLP145

CYHM;2009-05-14 22:00;CYHM 142200Z 27015G20KT 15SM FEW072 FEW250 21/07 A2999 RMK AC1CI1 SLP154

CYHM;2009-05-14 23:00;CYHM 142300Z 28012KT 240V320 15SM FEW065 FEW250 20/04 A3001 RMK CU1CI1 SLP161

CYHM;2009-05-15 00:00;CYHM 150000Z 27009KT 15SM SKC 18/03 A3005 RMK SLP176

CYHM;2009-05-15 01:00;CYHM 150100Z 27006KT 15SM SKC 16/04 A3008 RMK SLP188

CYHM;2009-05-15 02:00;CYHM 150200Z 28004KT 15SM SKC 15/05 A3012 RMK SLP200

CYHM;2009-05-15 03:00;CYHM 150300Z 00000KT 15SM FEW240 13/06 A3014 RMK CI1 SLP209

CYHM;2009-05-15 04:00;CYHM 150400Z 01002KT 15SM SKC 12/06 A3016 RMK SLP214

CYHM;2009-05-15 05:00;CYHM 150500Z 36003KT 15SM SKC 11/06 A3018 RMK SLP221

CYHM;2009-05-15 06:00;CYHM 150600Z 04006KT 15SM FEW220 11/07 A3020 RMK CI0 SLP228

CYHM;2009-05-15 07:00;CYHM 150700Z 06007KT 15SM FEW210 09/06 A3022 RMK CI0 SLP233

CYHM;2009-05-15 08:00;CYHM 150800Z 07004KT 15SM SKC 07/05 A3023 RMK SLP239

CYHM;2009-05-15 09:00;CYHM 150900Z 09002KT 15SM FEW220 08/05 A3025 RMK CI1 SLP245

CYHM;2009-05-15 10:00;CYHM 151000Z 00000KT 15SM BKN240 08/05 A3026 RMK CI3 SLP250

CYHM;2009-05-15 11:00;CYHM 151100Z 05004KT 15SM FEW160 FEW220 08/06 A3027 RMK AC1CI1 AC TR CI TR SLP253

CYHM;2009-05-15 12:00;CYHM 151200Z 07006KT 15SM FEW240 11/08 A3028 RMK CI1 CI TR CONTRAIL SLP256

CYHM;2009-05-15 13:00;CYHM 151300Z 11006KT 15SM FEW240 13/07 A3030 RMK CI0 CI TR SLP263

CYHM;2009-05-15 14:00;CYHM 151400Z 08008KT 15SM FEW220 15/06 A3031 RMK CI1 SLP266

CYHM;2009-05-15 15:00;CYHM 151500Z 08004KT 15SM FEW220 17/06 A3030 RMK CI0 CI TR SLP262

CYHM;2009-05-15 16:00;CYHM 151600Z 06012KT 15SM FEW220 17/08 A3029 RMK CI1 SLP258

CYHM;2009-05-15 17:00;CYHM 151700Z 06010KT 15SM FEW040 FEW180 BKN230 17/08 A3029 RMK CU1AC2CI3 CU TR SLP260

CYHM;2009-05-15 18:00;CYHM 151800Z 06012KT 15SM BKN160 15/06 A3028 RMK AS6 SLP257

CYHM;2009-05-15 19:00;CYHM 151900Z 06013KT 15SM BKN140 OVC230 13/05 A3025 RMK AC6CS2 SLP248

CYHM;2009-05-15 20:00;CYHM 152000Z 07012KT 15SM OVC150 13/04 A3023 RMK AC8 SLP239

CYHM;2009-05-15 21:00;CYHM 152100Z 05009KT 15SM BKN150 14/05 A3020 RMK AC7 SLP232

CYHM;2009-05-15 22:00;CYHM 152200Z 06012KT 15SM SCT140 OVC220 13/03 A3020 RMK AC3CI4 SLP229

CYHM;2009-05-15 23:00;CYHM 152300Z 05012KT 15SM BKN130 OVC210 12/03 A3017 RMK AC6CI2 SLP221

CYHM;2009-05-16 00:00;CYHM 160000Z 05011KT 15SM FEW110 BKN160 11/02 A3016 RMK AC2AC5 SLP216

CYHM;2009-05-16 01:00;CYHM 160100Z 05011KT 15SM OVC120 11/03 A3013 RMK AC8 SLP206

CYHM;2009-05-16 02:00;CYHM 160200Z 04012KT 15SM OVC130 10/03 A3012 RMK AC8 SLP204

CYHM;2009-05-16 03:00;CYHM 160300Z 05010KT 15SM OVC110 10/04 A3010 RMK AC8 SLP195

CYHM;2009-05-16 04:00;CYHM 160400Z 05012KT 15SM OVC120 09/03 A3006 RMK AC8 SLP183

CYHM;2009-05-16 05:00;CYHM 160500Z 04012KT 15SM -SHRA OVC110 09/03 A3002 RMK AC8 SLP170

CYHM;2009-05-16 06:00;CYHM 160600Z 04012KT 15SM BKN100 OVC220 09/03 A2999 RMK AC7CI1 SLP158

CYHM;2009-05-16 07:00;CYHM 160700Z 04011KT 15SM OVC090 08/03 A2995 RMK AC8 SLP147

CYHM;2009-05-16 08:00;CYHM 160800Z 03011KT 15SM FEW060 OVC080 08/03 A2993 RMK SC2AC6 SLP140

CYHM;2009-05-16 08:46;CYHM 160846Z 04012KT 15SM TS FEW057CB OVC080 RMK CB2AC6 FQT LTGICCG SW

CYHM;2009-05-16 09:00;CYHM 160900Z 04011KT 10SM +TSRA FEW020CB OVC040 08/04 A2993 RMK CB2SC6 OCNL LTGICCCCG SLP137

CYHM;2009-05-16 09:04;CYHM 160904Z 05015KT 2SM +TSRA OVC015CB RMK RA1CB7 FQT LTGICCCCG

CYHM;2009-05-16 09:08;CYHM 160908Z 04015KT 5SM -TSRA SCT025CB OVC053 RERA RMK CB3SC5 OCNL LTGIC

CYHM;2009-05-16 09:17;CYHM 160917Z 06012KT 3SM +TSRA OVC025 RMK SC8 CB ASOCTD OCNL LTGIC

CYHM;2009-05-16 10:00;CYHM 161000Z CCA 05012KT 15SM SCT055 OVC240 07/05 A2987 RETSRA RMK SC3CI5 CB TOP E PRESFR SLP117

CYHM;2009-05-16 11:00;CYHM 161100Z 04008KT 15SM BKN036 BKN058 OVC240 07/06 A2984 RMK SC6SC2CI1 SLP108

CYHM;2009-05-16 12:00;CYHM 161200Z 05002KT 5SM BR FEW034 BKN071 BKN094 08/07 A2983 RMK SC2AC4AC1 SLP105

CYHM;2009-05-16 13:00;CYHM 161300Z 20008KT 15SM FEW035 OVC091 12/11 A2980 RMK SC1AC7 SLP096

CYHM;2009-05-16 14:00;CYHM 161400Z 23007KT 15SM FEW035 OVC100 15/14 A2980 RMK SC2AC6 SLP094

CYHM;2009-05-16 15:00;CYHM 161500Z 23018G25KT 15SM SCT040 OVC110 19/16 A2979 RMK SC3AC5 SLP090

CYHM;2009-05-16 16:00;CYHM 161600Z 23025KT 15SM -SHRA FEW022 BKN039 OVC110 20/16 A2980 RMK CU2SC4AC2 SLP091

CYHM;2009-05-16 17:00;CYHM 161700Z 24016KT 12SM -SHRA BKN017 OVC033 19/16 A2980 RMK SC6SC2 CU ASOCTD SLP093

CYHM;2009-05-16 17:51;CYHM 161751Z 23015KT 10SM -SHRA BKN011 OVC058 RMK SC6SC2 CU ASOCTD

CYHM;2009-05-16 18:00;CYHM 161800Z 23017KT 9SM -SHRA BKN011 OVC058 18/16 A2981 RMK SC6SC2 CU ASOCTD SLP097

CYHM;2009-05-16 18:10;CYHM 161810Z 24017KT 2 1/2SM -SHRA BR BKN012 OVC040 RMK FG1SC6SC2

CYHM;2009-05-16 18:22;CYHM 161822Z 24018KT 3SM -SHRA BR FEW008 BKN012 OVC032 RMK SF2SC5SC2

CYHM;2009-05-16 19:00;CYHM 161900Z 25015KT 5SM -SHRA BR FEW008 BKN014 OVC058 17/16 A2981 RMK SF2SC4SC2 PCPN VRY LGT SLP097

CYHM;2009-05-16 19:36;CYHM 161936Z 25015G20KT 2 1/2SM -SHRA BR SCT008 BKN014 OVC022 RMK FG1SF2SC3SC2

CYHM;2009-05-16 20:00;CYHM 162000Z 25014KT 4SM -SHRA BR FEW007 BKN014 OVC034 17/16 A2981 RMK SF2SC3SC2 PCPN VRY LGT SLP095

CYHM;2009-05-16 20:42;CYHM 162042Z 27015KT 6SM BR FEW009 BKN015 OVC035 RMK SC2SC2SC3

CYHM;2009-05-16 21:00;CYHM 162100Z 28015G20KT 8SM FEW009 BKN016 OVC030 16/14 A2982 RMK CF2SC2SC3 SLP100

CYHM;2009-05-16 22:00;CYHM 162200Z 30015G20KT 270V330 12SM FEW010 BKN017 BKN110 15/13 A2984 RMK CF1CU4AC2 SLP108

CYHM;2009-05-16 23:00;CYHM 162300Z CCA 31012KT 15SM SCT020 SCT031 BKN110 14/10 A2988 RMK CU3SC1AC1 SLP119

CYHM;2009-05-17 00:00;CYHM 170000Z 31012KT 15SM FEW022 SCT032 SCT110 13/09 A2990 RMK CU2SC1AC1 SLP129

CYHM;2009-05-17 01:00;CYHM 170100Z 32015KT 15SM SCT032 BKN044 11/06 A2996 RMK SC4SC2 SLP147

CYHM;2009-05-17 02:00;CYHM 170200Z 32014KT 15SM FEW028 FEW040 SCT057 08/03 A3001 RMK SC2SC1SC1 SLP164

CYHM;2009-05-17 03:00;CYHM 170300Z 31007KT 15SM FEW030 FEW055 06/01 A3002 RMK SC1SC1 SLP169

CYHM;2009-05-17 04:00;CYHM 170400Z 31009KT 15SM FEW210 05/01 A3004 RMK CI1 SLP173

CYHM;2009-05-17 05:00;CYHM 170500Z 30004KT 15SM FEW210 04/00 A3007 RMK CI2 SLP183

CYHM;2009-05-17 06:00;CYHM 170600Z 23002KT 15SM FEW210 04/M00 A3009 RMK CI2 SLP192

CYHM;2009-05-17 07:00;CYHM 170700Z 28005KT 15SM SCT210 03/M00 A3012 RMK CI2 SLP203

CYHM;2009-05-17 08:00;CYHM 170800Z 00000KT 15SM FEW070 BKN210 02/M01 A3014 RMK AC1CI3 SLP209

CYHM;2009-05-17 09:00;CYHM 170900Z 23003KT 15SM FEW030 SCT210 01/M01 A3015 RMK CF2CI2 SLP214

CYHM;2009-05-17 10:00;CYHM 171000Z 25006KT 15SM FEW030 FEW230 02/M01 A3016 RMK CF1CI2 CONTRAILS SLP219

CYHM;2009-05-17 11:00;CYHM 171100Z 24005KT 15SM BKN250 02/M01 A3019 RMK CI2 SLP228

CYHM;2009-05-17 12:00;CYHM 171200Z 24006KT 15SM FEW250 04/M01 A3020 RMK CI1 SLP230

CYHM;2009-05-17 13:00;CYHM 171300Z 26011KT 15SM FEW030 FEW250 06/M01 A3022 RMK CU1CI1 SLP237

CYHM;2009-05-17 14:00;CYHM 171400Z 27016KT 240V330 15SM FEW044 SCT250 08/M01 A3021 RMK CU2CI1 SLP236

CYHM;2009-05-17 15:00;CYHM 171500Z 29014KT 230V330 15SM FEW048 FEW250 09/M01 A3021 RMK CU1CI1 SLP235

CYHM;2009-05-17 16:00;CYHM 171600Z 30015KT 250V350 15SM FEW052 FEW250 10/M02 A3021 RMK CU1CI1 CU TR SLP235

CYHM;2009-05-17 17:00;CYHM 171700Z 30012KT 230V340 15SM FEW052 FEW250 10/M02 A3021 RMK CU1CI1 CU TR SLP235

CYHM;2009-05-17 18:00;CYHM 171800Z 30018G24KT 240V340 15SM FEW060 FEW250 11/M04 A3020 RMK CU1CI0 CU TR SLP234

CYHM;2009-05-17 19:00;CYHM 171900Z 31016KT 270V350 15SM FEW050 FEW240 11/M04 A3020 RMK CU1CI1 CU TR SLP234

CYHM;2009-05-17 20:00;CYHM 172000Z 30016KT 270V340 15SM FEW050 FEW250 11/M03 A3020 RMK CU1CI1 CU TR SLP233

CYHM;2009-05-17 21:00;CYHM 172100Z 31012G18KT 15SM FEW050 FEW250 11/M04 A3020 RMK SC1CI1 SC TR SLP233

CYHM;2009-05-17 22:00;CYHM 172200Z 30015KT 15SM FEW050 SCT250 11/M04 A3021 RMK CU1CI1 CU TR SLP236

CYHM;2009-05-17 23:00;CYHM 172300Z 31015KT 15SM FEW050 FEW250 11/M06 A3021 RMK SC1CI1 SC TR SLP236

CYHM;2009-05-18 00:00;CYHM 180000Z 30010KT 15SM FEW250 10/M06 A3022 RMK CI1 SLP239

CYHM;2009-05-18 01:00;CYHM 180100Z 30005KT 15SM FEW250 06/M06 A3024 RMK CI1 CI TR SLP245

CYHM;2009-05-18 02:00;CYHM 180200Z 32007KT 15SM SKC 06/M06 A3026 RMK SLP252

CYHM;2009-05-18 03:00;CYHM 180300Z 29004KT 15SM SKC 05/M06 A3027 RMK SLP258

CYHM;2009-05-18 04:00;CYHM 180400Z 29002KT 15SM SKC 04/M08 A3029 RMK SLP262

CYHM;2009-05-18 05:00;CYHM 180500Z 00000KT 15SM FEW210 02/M06 A3029 RMK CI1 SLP263

CYHM;2009-05-18 06:00;CYHM 180600Z 26005KT 15SM SKC 02/M07 A3029 RMK SLP262

CYHM;2009-05-18 07:00;CYHM 180700Z 32002KT 15SM SKC 01/M05 A3030 RMK SLP266

CYHM;2009-05-18 08:00;CYHM 180800Z 28005KT 15SM FEW210 01/M06 A3030 RMK CI1 SLP266

CYHM;2009-05-18 09:00;CYHM 180900Z 29003KT 15SM FEW210 00/M06 A3031 RMK CI1 SLP270

CYHM;2009-05-18 10:00;CYHM 181000Z 30004KT 15SM FEW210 00/M05 A3032 RMK CI1 SLP275

CYHM;2009-05-18 11:00;CYHM 181100Z 31004KT 15SM SKC 01/M04 A3034 RMK SLP282

CYHM;2009-05-18 12:00;CYHM 181200Z 31002KT 15SM SKC 04/M02 A3036 RMK SLP289

CYHM;2009-05-18 13:00;CYHM 181300Z 00000KT 15SM SKC 08/M02 A3037 RMK SLP291

CYHM;2009-05-18 14:00;CYHM 181400Z 25007KT 15SM SKC 10/M02 A3038 RMK SLP294

CYHM;2009-05-18 15:00;CYHM 181500Z 27002KT 15SM SKC 11/M02 A3038 RMK SLP293

CYHM;2009-05-18 16:00;CYHM 181600Z 22002KT 15SM SKC 12/M06 A3038 RMK SLP292

CYHM;2009-05-18 17:00;CYHM 181700Z 09003KT 15SM SKC 13/M03 A3036 RMK SLP288

CYHM;2009-05-18 18:00;CYHM 181800Z 22006KT 15SM SKC 14/M02 A3035 RMK SLP282

CYHM;2009-05-18 19:00;CYHM 181900Z 27003KT 15SM SKC 14/M05 A3034 RMK WND L/V SLP280

CYHM;2009-05-18 20:00;CYHM 182000Z 24004KT 15SM SKC 15/M04 A3032 RMK SLP274

CYHM;2009-05-18 21:00;CYHM 182100Z 19013KT 15SM SKC 14/00 A3031 RMK SLP271

CYHM;2009-05-18 22:00;CYHM 182200Z 19012KT 15SM SKC 13/M01 A3032 RMK SLP273

CYHM;2009-05-18 23:00;CYHM 182300Z 19012KT 15SM SKC 12/M03 A3031 RMK SLP271

CYHM;2009-05-19 00:00;CYHM 190000Z 19013KT 15SM SKC 11/M02 A3032 RMK SLP273

CYHM;2009-05-19 01:00;CYHM 190100Z 19008KT 15SM FEW190 08/M01 A3033 RMK AC1 AC TR SLP277

CYHM;2009-05-19 02:00;CYHM 190200Z 20006KT 15SM FEW190 06/M00 A3034 RMK AC1 AC TR SLP281

CYHM;2009-05-19 03:00;CYHM 190300Z 22004KT 15SM SKC 05/M01 A3035 RMK SLP284

CYHM;2009-05-19 04:00;CYHM 190400Z 23003KT 15SM SKC 05/M01 A3035 RMK SLP284

CYHM;2009-05-19 05:00;CYHM 190500Z 20004KT 15SM SKC 04/M01 A3034 RMK SLP280

CYHM;2009-05-19 06:00;CYHM 190600Z 20004KT 15SM SKC 03/M01 A3033 RMK SLP275

CYHM;2009-05-19 07:00;CYHM 190700Z 21007KT 15SM SKC 02/M01 A3031 RMK SLP270

CYHM;2009-05-19 08:00;CYHM 190800Z 22005KT 15SM FEW240 03/M00 A3032 RMK CI1 SLP272

CYHM;2009-05-19 09:00;CYHM 190900Z 21007KT 15SM FEW120 FEW250 03/M00 A3032 RMK AC2CI1 CI TR SLP274

CYHM;2009-05-19 10:00;CYHM 191000Z 20005KT 15SM SCT120 SCT250 04/01 A3033 RMK AC3CI1 CI TR SLP278

CYHM;2009-05-19 11:00;CYHM 191100Z 20006KT 15SM FEW120 BKN230 06/03 A3034 RMK AC2CI1 SLP281

CYHM;2009-05-19 12:00;CYHM 191200Z 20006KT 15SM FEW090 FEW120 BKN230 09/04 A3035 RMK AC1AC1CI2 SLP282

CYHM;2009-05-19 13:00;CYHM 191300Z 21012KT 15SM FEW140 SCT220 13/03 A3034 RMK AC1CI2 AC TR SLP280

CYHM;2009-05-19 14:00;CYHM 191400Z 23016G22KT 15SM BKN230 15/02 A3034 RMK CI2 CONTRAIL SLP279

CYHM;2009-05-19 15:00;CYHM 191500Z 22016G22KT 15SM BKN220 17/02 A3034 RMK CI4 CONTRAIL SLP277

CYHM;2009-05-19 16:00;CYHM 191600Z 22018G23KT 15SM BKN220 18/03 A3033 RMK CI5 SLP275

CYHM;2009-05-19 17:00;CYHM 191700Z 24018KT 15SM BKN220 18/02 A3032 RMK CS5 HALO SLP272

CYHM;2009-05-19 18:00;CYHM 191800Z 23015G20KT 15SM BKN210 19/04 A3031 RMK CI3 SLP269

CYHM;2009-05-19 19:00;CYHM 191900Z 24015G22KT 15SM FEW090 SCT250 20/03 A3030 RMK AC1CI1 AC TR CONTRAILS SLP265

CYHM;2009-05-19 20:00;CYHM 192000Z 22018G23KT 15SM FEW250 20/04 A3029 RMK CI1 CONTRAILS SLP262

CYHM;2009-05-19 21:00;CYHM 192100Z 22015G21KT 15SM BKN250 20/03 A3028 RMK CI2 SLP257

CYHM;2009-05-19 22:00;CYHM 192200Z 23015G22KT 15SM BKN250 19/02 A3027 RMK CI2 SLP256

CYHM;2009-05-19 23:00;CYHM 192300Z 23015KT 15SM BKN250 19/02 A3026 RMK CI2 SLP253

CYHM;2009-05-20 00:00;CYHM 200000Z 22015KT 15SM BKN250 18/02 A3028 RMK CI2 SLP257

CYHM;2009-05-20 01:00;CYHM 200100Z 23008KT 15SM FEW140 SCT250 15/02 A3029 RMK AC2CI1 SLP259

CYHM;2009-05-20 02:00;CYHM 200200Z 22008KT 15SM FEW250 13/03 A3030 RMK CI1 SLP261

CYHM;2009-05-20 03:00;CYHM 200300Z 22004KT 15SM FEW250 13/02 A3031 RMK CI1 CI TR SLP265

CYHM;2009-05-20 04:00;CYHM 200400Z 18005KT 15SM FEW250 11/04 A3030 RMK CI1 CI TR SLP262

CYHM;2009-05-20 05:00;CYHM 200500Z 20005KT 15SM FEW250 09/06 A3030 RMK CI1 CI TR SLP263

CYHM;2009-05-20 06:00;CYHM 200600Z 22005KT 15SM FEW250 09/05 A3030 RMK CI1 CI TR SLP261

CYHM;2009-05-20 07:00;CYHM 200700Z 20004KT 15SM SCT160 08/05 A3028 RMK AC3 SLP257

CYHM;2009-05-20 08:00;CYHM 200800Z 23003KT 15SM FEW160 FEW250 10/05 A3029 RMK AC1CI1 SLP259

CYHM;2009-05-20 09:00;CYHM 200900Z 22002KT 15SM FEW160 FEW210 09/04 A3030 RMK AC2CC1 CC TR SLP262

CYHM;2009-05-20 10:00;CYHM 201000Z 21004KT 15SM FEW160 FEW210 FEW260 08/04 A3029 RMK AC1CC1CI1 AC TR CI TR SLP260

CYHM;2009-05-20 11:00;CYHM 201100Z 21006KT 15SM FEW160 FEW220 10/06 A3032 RMK AC1CI0 SLP270

CYHM;2009-05-20 12:00;CYHM 201200Z 22008KT 15SM SCT230 14/06 A3034 RMK CI2 CONTRAIL SLP275

CYHM;2009-05-20 13:00;CYHM 201300Z 22012KT 15SM SCT230 18/07 A3033 RMK CI2 SLP273

CYHM;2009-05-20 14:00;CYHM 201400Z 24012KT 15SM BKN230 21/07 A3033 RMK CI3 SLP273

CYHM;2009-05-20 15:00;CYHM 201500Z 23014KT 15SM BKN230 22/06 A3031 RMK CI3 SLP265

CYHM;2009-05-20 16:00;CYHM 201600Z 24012KT 15SM SCT230 23/07 A3030 RMK CI2 SLP261

CYHM;2009-05-20 17:00;CYHM 201700Z 22012KT 15SM FEW230 24/07 A3029 RMK CI1 SLP257

CYHM;2009-05-20 18:00;CYHM 201800Z 23015KT 15SM FEW230 25/06 A3027 RMK CI0 SLP250

CYHM;2009-05-20 19:00;CYHM 201900Z 22015G21KT 15SM FEW250 25/05 A3025 RMK CI1 CI TR SLP244

CYHM;2009-05-20 20:00;CYHM 202000Z 23012G20KT 15SM FEW250 25/04 A3023 RMK CI1 CI TR SLP237

CYHM;2009-05-20 21:00;CYHM 202100Z 21014G21KT 15SM FEW250 25/04 A3022 RMK CI1 CI TR SLP233

CYHM;2009-05-20 22:00;CYHM 202200Z 23015G22KT 15SM FEW250 25/05 A3020 RMK CI1 CI TR SLP227

CYHM;2009-05-20 23:00;CYHM 202300Z 22012G18KT 15SM SKC 24/06 A3019 RMK SLP223

CYHM;2009-05-21 00:00;CYHM 210000Z 22015KT 15SM SKC 22/05 A3018 RMK SLP220

CYHM;2009-05-21 01:00;CYHM 210100Z 22008KT 15SM FEW250 18/05 A3017 RMK CI1 CI TR CONTRAILS SLP217

CYHM;2009-05-21 02:00;CYHM 210200Z 22008KT 15SM FEW250 16/05 A3017 RMK CI1 CI TR SLP217

CYHM;2009-05-21 03:00;CYHM 210300Z 23005KT 15SM SKC 16/05 A3017 RMK SLP216

CYHM;2009-05-21 04:00;CYHM 210400Z 21007KT 15SM SKC 14/05 A3017 RMK SLP215

CYHM;2009-05-21 05:00;CYHM 210500Z 22007KT 15SM FEW210 12/06 A3017 RMK CI1 SLP215

CYHM;2009-05-21 06:00;CYHM 210600Z 21007KT 15SM SKC 11/05 A3015 RMK SLP211

CYHM;2009-05-21 07:00;CYHM 210700Z 21007KT 15SM SKC 11/05 A3016 RMK SLP212

CYHM;2009-05-21 08:00;CYHM 210800Z 20008KT 15SM FEW210 12/06 A3016 RMK CI1 SLP213

CYHM;2009-05-21 09:00;CYHM 210900Z 22007KT 15SM FEW070 11/06 A3016 RMK AC1 SLP214

CYHM;2009-05-21 10:00;CYHM 211000Z 21006KT 15SM FEW070 10/05 A3018 RMK AC1 SLP219

CYHM;2009-05-21 11:00;CYHM 211100Z 22008KT 15SM FEW100 FEW220 12/08 A3019 RMK AC1CI1 SLP223

CYHM;2009-05-21 12:00;CYHM 211200Z 23010KT 15SM SKC 15/09 A3019 RMK SLP224

CYHM;2009-05-21 13:00;CYHM 211300Z 23012KT 15SM SKC 19/09 A3020 RMK SLP227

CYHM;2009-05-21 14:00;CYHM 211400Z 24014KT 15SM FEW230 22/09 A3019 RMK CI1 CI TR SLP222

CYHM;2009-05-21 15:00;CYHM 211500Z 23012KT 15SM FEW230 24/10 A3017 RMK CI1 CI TR SLP217

CYHM;2009-05-21 16:00;CYHM 211600Z 23015KT 15SM FEW230 25/11 A3016 RMK CI1 SLP211

CYHM;2009-05-21 17:00;CYHM 211700Z 24015G20KT 15SM FEW230 25/11 A3014 RMK CI1 SLP207

CYHM;2009-05-21 18:00;CYHM 211800Z 21020G25KT 15SM FEW230 26/10 A3013 RMK CI1 CI TR SLP201

CYHM;2009-05-21 19:00;CYHM 211900Z 22023G28KT 15SM FEW250 25/08 A3012 RMK CI1 SLP199

CYHM;2009-05-21 20:00;CYHM 212000Z 23021KT 15SM FEW250 26/08 A3010 RMK CI1 SLP194

CYHM;2009-05-21 21:00;CYHM 212100Z 24024G30KT 15SM FEW250 26/08 A3010 RMK CI1 SLP193

CYHM;2009-05-21 22:00;CYHM 212200Z 25021KT 15SM FEW250 26/10 A3010 RMK CI1 SLP191

CYHM;2009-05-21 23:00;CYHM 212300Z 24017KT 15SM FEW250 25/10 A3008 RMK CI1 SLP187

CYHM;2009-05-22 00:00;CYHM 220000Z 24015G20KT 15SM FEW250 24/10 A3008 RMK CI0 SLP184

CYHM;2009-05-22 01:00;CYHM 220100Z 23010KT 15SM FEW250 19/10 A3008 RMK CI0 SLP184

CYHM;2009-05-22 02:00;CYHM 220200Z 24007KT 15SM FEW250 18/10 A3009 RMK CI0 SLP189

CYHM;2009-05-22 03:00;CYHM 220300Z 23005KT 15SM FEW250 17/10 A3010 RMK CI0 SLP190

CYHM;2009-05-22 04:00;CYHM 220400Z 21004KT 15SM SKC 16/10 A3009 RMK SLP188

CYHM;2009-05-22 05:00;CYHM 220500Z 21003KT 15SM FEW250 14/10 A3010 RMK CI1 SLP190

CYHM;2009-05-22 06:00;CYHM 220600Z 24004KT 15SM FEW250 13/10 A3011 RMK CI1 SLP196

CYHM;2009-05-22 07:00;CYHM 220700Z 23004KT 15SM FEW210 14/10 A3011 RMK CI1 SLP195

CYHM;2009-05-22 08:00;CYHM 220800Z 22004KT 15SM FEW210 13/10 A3011 RMK CI1 SLP197

CYHM;2009-05-22 09:00;CYHM 220900Z 32004KT 15SM FEW210 13/10 A3012 RMK CI0 SLP199

CYHM;2009-05-22 10:00;CYHM 221000Z 00000KT 15SM BKN210 12/08 A3013 RMK CI2 SLP202

CYHM;2009-05-22 11:00;CYHM 221100Z 35004KT 15SM SCT220 14/09 A3015 RMK CI2 SLP210

CYHM;2009-05-22 12:00;CYHM 221200Z 35002KT 15SM BKN230 16/10 A3018 RMK CI4 SLP220

CYHM;2009-05-22 13:00;CYHM 221300Z 35005KT 15SM FEW160 BKN230 17/09 A3020 RMK AC2CI3 CONTRAIL SLP224

CYHM;2009-05-22 14:00;CYHM 221400Z 33005KT 15SM SCT082 BKN220 18/09 A3020 RMK AC3CI2 SLP227

CYHM;2009-05-22 15:00;CYHM 221500Z 35004KT 15SM FEW040 FEW088 BKN220 19/08 A3020 RMK SC1AC2CI2 SLP228

CYHM;2009-05-22 16:00;CYHM 221600Z 00000KT 15SM FEW042 BKN081 BKN220 20/08 A3020 RMK SC2AC3CI2 SLP226

CYHM;2009-05-22 17:00;CYHM 221700Z 00000KT 15SM FEW044 FEW082 BKN220 21/09 A3019 RMK SC2AC1CI2 CU TR ASOCTD SLP223

CYHM;2009-05-22 18:00;CYHM 221800Z 04008KT 15SM FEW062 BKN072 BKN100 BKN220 21/09 A3020 RMK SC2AC3AC2CI1 SLP227

CYHM;2009-05-22 19:00;CYHM 221900Z 04010KT 15SM FEW060 FEW080 BKN200 20/10 A3020 RMK SC1AC2CI2 CONTRAILS SLP226

CYHM;2009-05-22 20:00;CYHM 222000Z 08007KT 15SM FEW055 BKN081 BKN210 21/09 A3019 RMK SC1AC4CI1 SLP225

CYHM;2009-05-22 21:00;CYHM 222100Z 04004KT 15SM BKN110 20/08 A3019 RMK AC5 SLP225

CYHM;2009-05-22 22:00;CYHM 222200Z 03005KT 15SM BKN120 BKN250 20/08 A3018 RMK AC5CI1 SLP221

CYHM;2009-05-22 23:00;CYHM 222300Z 06007KT 15SM SCT082 19/07 A3018 RMK AC3 SLP222

CYHM;2009-05-23 00:00;CYHM 230000Z 03007KT 15SM FEW090 17/07 A3019 RMK AC2 SLP225

CYHM;2009-05-23 01:00;CYHM 230100Z 04006KT 15SM FEW090 BKN130 16/07 A3020 RMK AC1AC3 SLP227

CYHM;2009-05-23 02:00;CYHM 230200Z 05003KT 15SM BKN140 15/09 A3021 RMK AC6 SLP231

CYHM;2009-05-23 03:00;CYHM 230300Z 02004KT 15SM BKN140 15/08 A3021 RMK AC6 SLP231

CYHM;2009-05-23 04:00;CYHM 230400Z 03005KT 15SM SCT097 BKN110 14/08 A3021 RMK AC4AC2 SLP230

CYHM;2009-05-23 05:00;CYHM 230500Z 04005KT 15SM FEW090 OVC120 14/06 A3020 RMK AC2AC6 SLP226

CYHM;2009-05-23 06:00;CYHM 230600Z 04005KT 15SM OVC085 14/06 A3019 RMK AC8 SLP223

CYHM;2009-05-23 07:00;CYHM 230700Z 03007KT 15SM OVC090 13/05 A3018 RMK AC8 SLP219

CYHM;2009-05-23 08:00;CYHM 230800Z 03006KT 15SM BKN094 12/04 A3017 RMK AC6 SLP217

CYHM;2009-05-23 09:00;CYHM 230900Z 04007KT 15SM BKN100 12/03 A3016 RMK AC7 SLP214

CYHM;2009-05-23 10:00;CYHM 231000Z 05007KT 15SM BKN100 BKN120 12/03 A3016 RMK AC5AC2 SLP215

CYHM;2009-05-23 11:00;CYHM 231100Z 06006KT 15SM FEW110 BKN250 12/04 A3017 RMK AC2CI2 CONTRAILS SLP217

CYHM;2009-05-23 12:00;CYHM 231200Z 05010KT 15SM FEW110 BKN250 14/05 A3017 RMK AC1CI2 CONTRAILS SLP218

CYHM;2009-05-23 13:00;CYHM 231300Z 05007KT 15SM FEW110 BKN250 15/07 A3017 RMK AC1CI2 AC TR SLP216

CYHM;2009-05-23 14:00;CYHM 231400Z 04006KT 15SM FEW110 BKN250 16/08 A3016 RMK AC1CI2 AC TR SLP213

CYHM;2009-05-23 15:00;CYHM 231500Z 07004KT 15SM FEW180 BKN250 19/10 A3014 RMK AC2CI2 SLP208

CYHM;2009-05-23 16:00;CYHM 231600Z 06002KT 15SM SCT180 BKN250 19/09 A3014 RMK AC3CI2 WND L/V SLP207

CYHM;2009-05-23 17:00;CYHM 231700Z 05007KT 340V110 15SM FEW069 FEW170 BKN250 19/10 A3012 RMK AC1AC2CI1 SLP201

CYHM;2009-05-23 18:00;CYHM 231800Z CCA 07002KT 15SM BKN210 20/10 A3010 RMK CI2 WND L/V CC ASOCTD SLP195

CYHM;2009-05-23 19:00;CYHM 231900Z 07004KT 040V100 15SM FEW070 SCT130 BKN210 21/11 A3008 RMK AC1AC3CI1 CONTRAILS SLP188

CYHM;2009-05-23 20:00;CYHM 232000Z 06008KT 15SM FEW050 SCT130 BKN180 BKN210 22/11 A3006 RMK CU2AC2AC1CI1 SLP181

CYHM;2009-05-23 21:00;CYHM 232100Z 06006KT 15SM FEW060 SCT130 BKN190 BKN230 21/11 A3005 RMK SC2AC2AC2CI2 CU ASOCTD SLP176

CYHM;2009-05-23 22:00;CYHM 232200Z 06005KT 15SM FEW060 SCT130 BKN220 21/11 A3004 RMK SC2AC2CI2 CU ASOCTD SLP173

CYHM;2009-05-23 23:00;CYHM 232300Z 06005KT 15SM FEW070 BKN130 BKN210 20/10 A3004 RMK AC2AC3CI2 SLP171

CYHM;2009-05-24 00:00;CYHM 240000Z 05006KT 15SM FEW070 SCT130 BKN210 17/09 A3004 RMK AC1AC2CC2 SLP174

CYHM;2009-05-24 01:00;CYHM 240100Z 05005KT 15SM FEW120 SCT180 BKN210 15/07 A3003 RMK AC1AC2CI2 SLP171

CYHM;2009-05-24 02:00;CYHM 240200Z 05004KT 15SM FEW120 FEW160 BKN210 15/06 A3004 RMK AC1AC2CI1 SLP174

CYHM;2009-05-24 03:00;CYHM 240300Z 04005KT 15SM SCT140 14/07 A3004 RMK AC2 SLP174

CYHM;2009-05-24 04:00;CYHM 240400Z 00000KT 15SM SCT150 15/07 A3003 RMK AC3 SLP171

CYHM;2009-05-24 05:00;CYHM 240500Z 00000KT 15SM BKN160 13/09 A3003 RMK AC6 SLP169

CYHM;2009-05-24 06:00;CYHM 240600Z 00000KT 15SM FEW085 BKN150 OVC220 13/09 A3001 RMK AC1AC6CI2 SLP164

CYHM;2009-05-24 07:00;CYHM 240700Z 00000KT 15SM SCT120 13/10 A3001 RMK AC4 SLP164

CYHM;2009-05-24 08:00;CYHM 240800Z 00000KT 15SM BKN110 BKN210 14/09 A3001 RMK AC5CI1 SLP163

CYHM;2009-05-24 09:00;CYHM 240900Z 35003KT 15SM BKN058 OVC100 14/10 A3002 RMK SC6AC2 SLP165

CYHM;2009-05-24 10:00;CYHM 241000Z 03005KT 15SM -SHRA OVC080 15/10 A3003 RMK AC8 PCPN VRY LGT SLP168

CYHM;2009-05-24 10:38;CYHM 241038Z 04005KT 15SM FEW058 OVC083 RMK SC1AC7

CYHM;2009-05-24 11:00;CYHM 241100Z 04004KT 15SM FEW058 OVC074 15/10 A3005 RMK SC1AC7 SLP176

CYHM;2009-05-24 12:00;CYHM 241200Z 03003KT 15SM BKN084 BKN100 16/11 A3007 RMK AC6AC2 SLP182

CYHM;2009-05-24 13:00;CYHM 241300Z 04004KT 15SM FEW058 BKN088 16/11 A3008 RMK SC2AC6 SLP186

CYHM;2009-05-24 14:00;CYHM 241400Z 35004KT 15SM BKN056 BKN110 19/08 A3007 RMK SC6AC2 SLP185

CYHM;2009-05-24 15:00;CYHM 241500Z 33003KT 15SM FEW033 OVC045 18/08 A3009 RMK SC2SC6 SLP189

CYHM;2009-05-24 16:00;CYHM 241600Z 35002KT 15SM FEW038 OVC056 18/07 A3009 RMK SC2SC6 WND L/V SLP190

CYHM;2009-05-24 17:00;CYHM 241700Z 18002KT 15SM BKN051 BKN092 22/09 A3008 RMK SC6AC1 WND L/V SLP186

CYHM;2009-05-24 18:00;CYHM 241800Z 27005KT 15SM FEW051 SCT076 22/09 A3007 RMK SC1AC3 SLP181

CYHM;2009-05-24 19:00;CYHM 241900Z 30007KT 15SM SCT075 24/09 A3004 RMK AC3 SLP174

CYHM;2009-05-24 20:00;CYHM 242000Z 35008KT 320V020 15SM FEW066 FEW076 23/09 A3004 RMK AC1AC2 SLP171

CYHM;2009-05-24 21:00;CYHM 242100Z 32010KT 15SM FEW064 FEW076 24/09 A3003 RMK SC1AC1 SLP167

CYHM;2009-05-24 22:00;CYHM 242200Z 36006KT 330V030 15SM FEW066 FEW250 23/08 A3002 RMK AC1CI1 SLP164

CYHM;2009-05-24 23:00;CYHM 242300Z 36007KT 330V030 15SM FEW066 FEW250 22/09 A3002 RMK AC1CI1 SLP164

CYHM;2009-05-25 00:00;CYHM 250000Z 06007KT 15SM FEW067 FEW250 19/08 A3002 RMK AC1CI1 AC TR SLP167

CYHM;2009-05-25 01:00;CYHM 250100Z 07007KT 15SM FEW067 BKN250 16/06 A3004 RMK AC1CI2 AC TR SLP173

CYHM;2009-05-25 02:00;CYHM 250200Z 05005KT 15SM FEW067 FEW250 15/05 A3007 RMK AC1CI1 AC TR CI TR SLP184

CYHM;2009-05-25 03:00;CYHM 250300Z 03010KT 15SM SKC 14/03 A3009 RMK SLP189

CYHM;2009-05-25 04:00;CYHM 250400Z 02009KT 15SM FEW210 13/02 A3010 RMK CI1 SLP192

CYHM;2009-05-25 05:00;CYHM 250500Z 02008KT 15SM SKC 11/02 A3011 RMK SLP197

CYHM;2009-05-25 06:00;CYHM 250600Z 02007KT 15SM SKC 11/02 A3010 RMK SLP195

CYHM;2009-05-25 07:00;CYHM 250700Z 34003KT 15SM SKC 09/02 A3011 RMK SLP196

CYHM;2009-05-25 08:00;CYHM 250800Z 00000KT 15SM SKC 08/02 A3010 RMK SLP195

CYHM;2009-05-25 09:00;CYHM 250900Z 00000KT 15SM FEW210 06/02 A3011 RMK CI2 SLP198

CYHM;2009-05-25 10:00;CYHM 251000Z 33004KT 15SM FEW210 05/02 A3012 RMK CI2 SLP201

CYHM;2009-05-25 11:00;CYHM 251100Z 01006KT 15SM FEW180 SCT220 10/05 A3013 RMK AC1CI2 SLP205

CYHM;2009-05-25 12:00;CYHM 251200Z 02010KT 15SM FEW180 SCT220 13/04 A3013 RMK AC1CI1 CONTRAIL SLP205

CYHM;2009-05-25 13:00;CYHM 251300Z 05007KT 15SM FEW180 SCT220 15/03 A3015 RMK AC1CI1 SLP210

CYHM;2009-05-25 14:00;CYHM 251400Z 03008KT 15SM FEW180 FEW220 16/05 A3017 RMK AC1CI1 AC TR SLP217

CYHM;2009-05-25 15:00;CYHM 251500Z CCA 04008KT 15SM FEW230 17/05 A3017 RMK CI1 SLP217

CYHM;2009-05-25 16:00;CYHM 251600Z 06014KT 15SM SCT230 17/06 A3017 RMK CI1 SLP217

CYHM;2009-05-25 17:00;CYHM 251700Z 06014KT 15SM FEW035 SCT230 18/07 A3018 RMK CU1CI1 CU TR SLP220

CYHM;2009-05-25 18:00;CYHM 251800Z 06015KT 15SM FEW040 BKN250 17/07 A3017 RMK CU1CI1 CU TR SLP218

CYHM;2009-05-25 19:00;CYHM 251900Z 06013KT 15SM FEW042 BKN250 17/07 A3017 RMK CU1CI1 CU TR SLP217

CYHM;2009-05-25 20:00;CYHM 252000Z 04015KT 15SM FEW044 BKN250 17/06 A3017 RMK CU1CI1 CU TR CONTRAILS SLP217

CYHM;2009-05-25 21:00;CYHM 252100Z 04012KT 15SM BKN250 17/06 A3015 RMK CI1 CONTRAILS SLP214

CYHM;2009-05-25 22:00;CYHM 252200Z 06012KT 15SM BKN250 16/05 A3014 RMK CI2 CONTRAILS SLP209

CYHM;2009-05-25 23:00;CYHM 252300Z 06010KT 15SM BKN250 16/05 A3014 RMK CI1 CONTRAILS SLP209

CYHM;2009-05-26 00:00;CYHM 260000Z 05006KT 15SM BKN250 14/05 A3014 RMK CI1 SLP209

CYHM;2009-05-26 01:00;CYHM 260100Z 05007KT 15SM SCT250 12/05 A3015 RMK CI2 SLP213

CYHM;2009-05-26 02:00;CYHM 260200Z 06007KT 15SM FEW250 11/06 A3017 RMK CI1 SLP217

CYHM;2009-05-26 03:00;CYHM 260300Z 05010KT 15SM FEW250 10/06 A3016 RMK CI1 SLP216

CYHM;2009-05-26 04:00;CYHM 260400Z 05010KT 15SM FEW250 09/06 A3016 RMK CI1 SLP215

CYHM;2009-05-26 05:00;CYHM 260500Z 06011KT 15SM FEW250 09/06 A3016 RMK CI1 SLP214

CYHM;2009-05-26 06:00;CYHM 260600Z 07013KT 15SM FEW250 09/04 A3017 RMK CI1 SLP219

CYHM;2009-05-26 07:00;CYHM 260700Z 07011KT 15SM FEW250 09/00 A3017 RMK CI1 SLP219

CYHM;2009-05-26 08:00;CYHM 260800Z 06012KT 15SM FEW250 09/02 A3016 RMK CI1 SLP215

CYHM;2009-05-26 09:00;CYHM 260900Z 06015KT 15SM BKN240 09/02 A3015 RMK CI4 SLP211

CYHM;2009-05-26 10:00;CYHM 261000Z 06015KT 15SM FEW050 SCT120 BKN240 08/03 A3016 RMK SC2AC1CI1 SLP214

CYHM;2009-05-26 11:00;CYHM 261100Z 06015KT 15SM FEW055 SCT100 BKN210 08/04 A3015 RMK SC1AC2CI2 SLP213

CYHM;2009-05-26 12:00;CYHM 261200Z 06016KT 15SM FEW055 SCT100 OVC210 09/04 A3015 RMK SC2AC2CI2 SLP212

CYHM;2009-05-26 13:00;CYHM 261300Z 06022KT 15SM BKN053 BKN100 OVC210 09/04 A3013 RMK SC6AC2CI1 SLP208

CYHM;2009-05-26 14:00;CYHM 261400Z 06022G27KT 15SM BKN048 BKN072 OVC210 09/04 A3014 RMK SC5AC1CI2 SLP209

CYHM;2009-05-26 15:00;CYHM 261500Z CCA 05020G25KT 15SM FEW050 SCT085 BKN210 10/04 A3012 RMK SC2AC2CI2 SLP205

CYHM;2009-05-26 16:00;CYHM 261600Z 05022KT 15SM FEW060 FEW080 BKN210 10/04 A3012 RMK SC1AC2CI2 SLP203

CYHM;2009-05-26 17:00;CYHM 261700Z 03022KT 15SM BKN028 BKN038 OVC070 10/04 A3010 RMK SC6SC2AC1 SLP197

CYHM;2009-05-26 18:00;CYHM 261800Z 06015G22KT 15SM OVC028 10/04 A3009 RMK SC8 SLP193

CYHM;2009-05-26 19:00;CYHM 261900Z 06014G21KT 15SM OVC031 10/04 A3007 RMK SC8 SLP187

CYHM;2009-05-26 20:00;CYHM 262000Z 06013KT 15SM OVC033 10/05 A3006 RMK SC8 SLP183

CYHM;2009-05-26 20:49;CYHM 262049Z 06011KT 15SM OVC013 RMK SC8

CYHM;2009-05-26 21:00;CYHM 262100Z 05011KT 15SM OVC013 10/05 A3003 RMK SC8 SLP173

CYHM;2009-05-26 22:00;CYHM 262200Z 03008KT 15SM -SHRA OVC011 10/05 A3001 RMK SC8 SLP167

CYHM;2009-05-26 22:40;CYHM 262240Z 03008KT 15SM -SHRA OVC020 RMK SC8

CYHM;2009-05-26 23:00;CYHM 262300Z 03007KT 12SM -SHRA OVC018 10/06 A3000 RMK SC8 SLP163

CYHM;2009-05-27 00:00;CYHM 270000Z 04008KT 8SM -SHRA OVC022 09/07 A2999 RMK SC8 SLP160

CYHM;2009-05-27 01:00;CYHM 270100Z 04008KT 6SM -SHRA BR OVC020 09/08 A2998 RMK SC8 SLP156

CYHM;2009-05-27 02:00;CYHM 270200Z 04005KT 12SM -SHRA BKN018 OVC025 09/08 A2998 RMK SC6SC2 SLP156

CYHM;2009-05-27 03:00;CYHM 270300Z 05005KT 9SM -SHRA SCT010 OVC019 10/09 A2997 RMK SF3SC5 SLP152

CYHM;2009-05-27 04:00;CYHM 270400Z 06006KT 5SM BR SCT010 OVC016 10/10 A2995 RMK SF3SC5 SLP146

CYHM;2009-05-27 05:00;CYHM 270500Z 05004KT 9SM OVC022 11/10 A2994 RMK SC8 SLP141

CYHM;2009-05-27 06:00;CYHM 270600Z 06004KT 12SM OVC023 11/10 A2992 RMK SC8 SLP134

CYHM;2009-05-27 07:00;CYHM 270700Z 04004KT 8SM OVC023 11/10 A2991 RMK SC8 SLP130

CYHM;2009-05-27 08:00;CYHM 270800Z 05004KT 8SM FEW023 BKN056 OVC120 10/10 A2989 RMK SC2SC6AC1 SLP124

CYHM;2009-05-27 09:00;CYHM 270900Z 04004KT 8SM BKN024 OVC030 11/10 A2987 RMK SC6SC2 SLP118

CYHM;2009-05-27 09:33;CYHM 270933Z 05005KT 2 1/2SM BR OVC022 RMK SC8

CYHM;2009-05-27 10:00;CYHM 271000Z 05004KT 2SM BR OVC020 10/10 A2987 RMK SC8 SLP117

CYHM;2009-05-27 11:00;CYHM 271100Z 04005KT 2SM BR OVC019 11/10 A2987 RMK SC8 SLP118

CYHM;2009-05-27 11:25;CYHM 271125Z 05004KT 3SM BR OVC017 RMK SC8

CYHM;2009-05-27 12:00;CYHM 271200Z 05004KT 3SM BR OVC017 11/10 A2987 RMK SC8 SLP117

CYHM;2009-05-27 13:00;CYHM 271300Z 06002KT 5SM BR OVC016 12/11 A2986 RMK SC8 SLP115

CYHM;2009-05-27 14:00;CYHM 271400Z 00000KT 7SM OVC017 15/13 A2985 RMK SC8 SLP113

CYHM;2009-05-27 15:00;CYHM 271500Z 20006KT 8SM BKN017 OVC045 18/14 A2985 RMK SC6SC2 SLP109

CYHM;2009-05-27 16:00;CYHM 271600Z 18006KT 10SM OVC015 18/15 A2984 RMK SC8 SLP106

CYHM;2009-05-27 16:53;CYHM 271653Z 20006KT 10SM -SHRA OVC017 RMK SC8

CYHM;2009-05-27 17:00;CYHM 271700Z 21006KT 10SM -SHRA OVC017 19/16 A2983 RMK SC8 SLP102

CYHM;2009-05-27 17:13;CYHM 271713Z 20002KT 15SM OVC017 RMK SC8 RERA CU TR ASOCITD

CYHM;2009-05-27 18:00;CYHM 271800Z 05008KT 15SM OVC016 17/14 A2980 RMK SC8 SLP093

CYHM;2009-05-27 19:00;CYHM 271900Z 06008KT 12SM BKN023 18/14 A2979 RMK SC7 SLP088

CYHM;2009-05-27 20:00;CYHM 272000Z 06010KT 8SM BKN026 BKN044 16/13 A2979 RMK SC6SC1 SLP088

CYHM;2009-05-27 21:00;CYHM 272100Z 05012KT 10SM SCT060 SCT072 BKN090 16/12 A2978 RMK SC3AC1AC3 SLP088

CYHM;2009-05-27 22:00;CYHM 272200Z 05010KT 10SM SCT100 SCT120 OVC250 15/12 A2978 RMK AC3AC1CS4 SUN DMLY VSBL SLP088

CYHM;2009-05-27 22:32;CYHM 272232Z 04015KT 10SM -SHRA BKN058 BKN120 OVC250 RMK SC5AC1CS2

CYHM;2009-05-27 23:00;CYHM 272300Z 05008KT 6SM -SHRA BR FEW042 SCT120 OVC250 13/12 A2978 RMK SC2AC2CS5 SLP085

CYHM;2009-05-27 23:18;CYHM 272318Z 05015KT 1 1/4SM BR BKN003 OVC040 RMK SF6SC2

CYHM;2009-05-27 23:46;CYHM 272346Z 06013KT 1 1/4SM -SHRA BR OVC002 RMK SF8

CYHM;2009-05-28 00:00;CYHM 280000Z 06015KT 1 1/4SM -SHRA BR OVC002 12/12 A2978 RMK SF8 SLP086

CYHM;2009-05-28 00:29;CYHM 280029Z 05009KT 1SM BR OVC002 RMK FG2SF6

CYHM;2009-05-28 01:00;CYHM 280100Z 06012KT 3/4SM BR OVC002 12/12 A2978 RMK FG2SF6 SLP087

CYHM;2009-05-28 02:00;CYHM 280200Z 06012KT 3/4SM BR OVC002 13/12 A2979 RMK FG3SF5 SLP091

CYHM;2009-05-28 02:38;CYHM 280238Z 05013KT 1/2SM FG OVC002 RMK FG4SF4

CYHM;2009-05-28 03:00;CYHM 280300Z 05012KT 3/4SM BR OVC002 13/12 A2978 RMK FG3SF5 VIS VRB 1/2 - 1 SLP087

CYHM;2009-05-28 03:10;CYHM 280310Z 05012KT 1/2SM FG VV001 RMK FG8

CYHM;2009-05-28 03:32;CYHM 280332Z 05012KT 1/4SM FG VV001 RMK FG8

CYHM;2009-05-28 04:00;CYHM 280400Z 05015KT 1/4SM FG VV001 13/12 A2978 RMK FG8 SLP085

CYHM;2009-05-28 05:00;CYHM 280500Z 04015KT 1/4SM FG VV001 12/12 A2977 RMK FG8 SLP083

CYHM;2009-05-28 06:00;CYHM 280600Z 03013KT 1/4SM FG VV001 11/11 A2976 RMK FG8 SLP079

CYHM;2009-05-28 07:00;CYHM 280700Z 04011KT 1/4SM FG VV001 11/11 A2976 RMK FG8 SLP078

CYHM;2009-05-28 08:00;CYHM 280800Z 03009KT 1/4SM FG VV001 11/10 A2975 RMK FG8 SLP077

CYHM;2009-05-28 09:00;CYHM 280900Z 03008KT 1/2SM FG VV002 11/11 A2974 RMK FG8 SLP072

CYHM;2009-05-28 09:36;CYHM 280936Z 04011KT 1/4SM FG OVC002 RMK FG6SF2

CYHM;2009-05-28 10:00;CYHM 281000Z 04009KT 1/8SM FG VV001 11/10 A2974 RMK FG8 SLP072

CYHM;2009-05-28 11:00;CYHM 281100Z 03008KT 1/8SM FG VV001 11/10 A2975 RMK FG8 SLP074

CYHM;2009-05-28 11:38;CYHM 281138Z 03008KT 1/4SM -SHRA FG VV001 RMK FG8

CYHM;2009-05-28 11:54;CYHM 281154Z 03008KT 1/4SM FG VV001 RMK FG8 RERA

CYHM;2009-05-28 12:00;CYHM 281200Z 03008KT 1/4SM FG VV001 11/10 A2974 RMK FG8 RERA SLP074

CYHM;2009-05-28 12:33;CYHM 281233Z 05008KT 3/4SM -SHRA BR OVC002 RMK FG3SF5

CYHM;2009-05-28 12:54;CYHM 281254Z 03006KT 1 1/2SM -SHRA BR OVC003 RMK FG2SF6

CYHM;2009-05-28 13:00;CYHM 281300Z 03006KT 1 1/2SM -SHRA BR OVC002 11/11 A2974 RMK FG2SF6 SLP074

CYHM;2009-05-28 13:14;CYHM 281314Z 05006KT 1 1/2SM -DZ BR OVC002 RMK FG2SF6 RERA

CYHM;2009-05-28 13:28;CYHM 281328Z 03004KT 2 1/2SM -DZ BR OVC002 RMK SF8

CYHM;2009-05-28 14:00;CYHM 281400Z 03005KT 2 1/2SM -DZ BR OVC002 12/12 A2973 RMK SF8 SLP069

CYHM;2009-05-28 14:13;CYHM 281413Z 04006KT 1 1/2SM -DZ BR OVC002 RMK FG2SF6

CYHM;2009-05-28 14:52;CYHM 281452Z 04005KT 2SM BR OVC003 RMK SF8

CYHM;2009-05-28 15:00;CYHM 281500Z 04005KT 2SM BR OVC003 13/12 A2972 RMK SF8 SLP066

CYHM;2009-05-28 16:00;CYHM 281600Z 35002KT 1 1/2SM BR BKN002 OVC012 14/13 A2972 RMK FG2SF5SC2 SLP067

CYHM;2009-05-28 16:24;CYHM 281624Z 00000KT 1SM -SHRA BR BKN010 OVC021 RMK FG2SF4SC2

CYHM;2009-05-28 16:30;CYHM 281630Z 34004KT 1 1/2SM -SHRA BR BKN005 BKN012 OVC022 RMK FG2SF3SC2SC1

CYHM;2009-05-28 16:41;CYHM 281641Z CCA 00000KT 2SM -SHRA BR BKN002 OVC012 RMK FG2SF5SC2

CYHM;2009-05-28 16:52;CYHM 281652Z 06003KT 2SM -SHRA BR BKN007 OVC021 RMK SF6SC2

CYHM;2009-05-28 17:00;CYHM 281700Z 00000KT 2SM -SHRA BR BKN002 BKN010 OVC022 14/14 A2971 RMK SF5SC2SC2 SLP064

CYHM;2009-05-28 17:11;CYHM 281711Z 09004KT 1 1/2SM -SHRA BR SCT008 BKN025 OVC049 RMK SF4SC2SC2

CYHM;2009-05-28 17:42;CYHM 281742Z 14005KT 2SM BR SCT015 BKN040 RMK SC4SC3 RERA

CYHM;2009-05-28 17:54;CYHM 281754Z 15006KT 2SM BR BKN002 OVC040 RMK SF5SC3

CYHM;2009-05-28 18:00;CYHM 281800Z 15006KT 2SM BR BKN002 BKN038 OVC045 16/15 A2968 RMK SF5SC2SC1 SLP052

CYHM;2009-05-28 18:30;CYHM 281830Z 34004KT 2SM -SHRA BR BKN002 OVC034 RMK FG1SF6SC2

CYHM;2009-05-28 18:52;CYHM 281852Z 00000KT 2 1/2SM SHRA BR BKN005 BKN018 OVC031 RMK SF5SC2SC1

CYHM;2009-05-28 19:00;CYHM 281900Z 00000KT 2SM -SHRA BR BKN004 OVC018 18/17 A2968 RERA RMK FG1SF6SC2 SLP051

CYHM;2009-05-28 19:41;CYHM 281941Z 00000KT 2 1/2SM BR FEW006 SCT017 OVC023 RMK CF2SC2SC4

CYHM;2009-05-28 20:00;CYHM 282000Z 17002KT 2 1/2SM BR FEW006 OVC017 18/18 A2966 RMK CF1SC7 SLP044

CYHM;2009-05-28 20:20;CYHM 282020Z 00000KT 2 1/2SM BR BKN003 OVC015 RMK CF5SC3

CYHM;2009-05-28 20:46;CYHM 282046Z 18002KT 3SM BR FEW003 OVC010 RMK CF2SC6

CYHM;2009-05-28 21:00;CYHM 282100Z 19002KT 3SM BR FEW003 OVC008 19/18 A2965 RMK CF1SC7 SLP039

CYHM;2009-05-28 21:15;CYHM 282115Z 00000KT 2SM -SHRA BR OVC005 RMK FG1SC7

CYHM;2009-05-28 21:32;CYHM 282132Z 00000KT 1 1/2SM -SHRA BR SCT003 OVC006 RMK FG2CF2SC5

CYHM;2009-05-28 22:00;CYHM 282200Z 10002KT 1 1/2SM -SHRA BR BKN001 OVC006 18/18 A2963 RMK FG2SF5SC2 SLP035

CYHM;2009-05-28 23:00;CYHM 282300Z 00000KT 1 1/2SM -SHRA BR BKN002 OVC009 17/16 A2963 RMK FG2SF3SC3 SLP033

CYHM;2009-05-29 00:00;CYHM 290000Z 10002KT 1 1/2SM -SHRA BR BKN002 OVC009 16/16 A2963 RMK FG2CF6SC1 SLP035

CYHM;2009-05-29 00:42;CYHM 290042Z 19004KT 1 1/2SM BR SCT003 BKN062 BKN120 RMK FG2SF1SC2AC2

CYHM;2009-05-29 01:00;CYHM 290100Z 16006KT 1 1/2SM BR FEW008 SCT062 SCT120 BKN220 18/17 A2963 RMK FG2CF1SC1AC1CI2 SLP035

CYHM;2009-05-29 01:24;CYHM 290124Z 21008KT 2SM BR FEW008 BKN071 BKN230 RMK FG1CF1AC5CI1

CYHM;2009-05-29 01:43;CYHM 290143Z 23008KT 4SM BR FEW009 BKN074 BKN230 RMK CF1AC6CI1

CYHM;2009-05-29 02:00;CYHM 290200Z 22008KT 6SM BR FEW008 FEW022 BKN075 17/17 A2964 RMK CF1SC2AC5 SLP038

CYHM;2009-05-29 02:21;CYHM 290221Z 23008KT 6SM BR BKN007 OVC022 RMK CF6SC2

CYHM;2009-05-29 03:00;CYHM 290300Z 24010KT 6SM -DZ BR OVC004 17/17 A2964 RMK SF8 SLP038

CYHM;2009-05-29 03:26;CYHM 290326Z 29007KT 6SM -DZ BR SCT004 OVC016 RMK SF4SC4

CYHM;2009-05-29 04:00;CYHM 290400Z 28006KT 10SM FEW009 OVC022 16/15 A2963 RMK CF2SC6 SLP035

CYHM;2009-05-29 04:24;CYHM 290424Z 28005KT 9SM BKN009 OVC018 RMK CF6SC2

CYHM;2009-05-29 05:00;CYHM 290500Z 28006KT 9SM SCT007 OVC014 15/15 A2964 RMK CF3SC5 SLP036

CYHM;2009-05-29 05:25;CYHM 290525Z 29004KT 9SM FEW011 OVC019 RMK CF1SC7

CYHM;2009-05-29 05:50;CYHM 290550Z 28006KT 10SM BKN011 OVC019 RMK CF6SC2

CYHM;2009-05-29 06:00;CYHM 290600Z 28005KT 10SM BKN011 OVC019 15/14 A2963 RMK CF6SC2 SLP034

CYHM;2009-05-29 06:25;CYHM 290625Z 27005KT 8SM SCT011 OVC022 RMK CF3SC5

CYHM;2009-05-29 07:00;CYHM 290700Z 26009KT 6SM -SHRA BR FEW004 OVC009 15/14 A2964 RMK CF2SC6 SLP037

CYHM;2009-05-29 07:27;CYHM 290727Z 26008KT 7SM -SHRA FEW004 FEW009 OVC023 RMK CF1SC2SC6

CYHM;2009-05-29 08:00;CYHM 290800Z 26006KT 8SM -SHRA FEW009 BKN028 OVC044 14/13 A2966 RMK CF1SC5SC2 PCPN VRY LGT SLP045

CYHM;2009-05-29 08:36;CYHM 290836Z 26006KT 10SM OVC047 RMK SC8

CYHM;2009-05-29 09:00;CYHM 290900Z 26007KT 12SM FEW012 OVC046 13/12 A2967 RMK SC1SC7 SLP048

CYHM;2009-05-29 09:45;CYHM 290945Z 27008KT 12SM BKN011 OVC043 RMK SC6SC2

CYHM;2009-05-29 10:00;CYHM 291000Z 26008KT 12SM BKN010 OVC043 13/12 A2969 RMK SC7SC1 SLP054

CYHM;2009-05-29 11:00;CYHM 291100Z 26010KT 15SM FEW014 BKN018 BKN062 13/11 A2970 RMK CF2SC4SC2 SLP058

CYHM;2009-05-29 12:00;CYHM 291200Z 27008KT 15SM BKN015 BKN039 13/11 A2972 RMK SC6SC2 SLP064

CYHM;2009-05-29 13:00;CYHM 291300Z 27010KT 15SM BKN016 BKN045 13/11 A2972 RMK SC6SC2 SLP065

CYHM;2009-05-29 14:00;CYHM 291400Z 30014KT 15SM FEW015 BKN022 BKN080 14/11 A2973 RMK CU2SC4AC1 SLP068

CYHM;2009-05-29 15:00;CYHM 291500Z 27012KT 15SM FEW021 SCT055 BKN220 16/12 A2973 RMK CU2SC1CI1 SLP069

CYHM;2009-05-29 16:00;CYHM 291600Z 26008KT 15SM FEW025 SCT210 18/12 A2974 RMK CU2CI1 SLP072

CYHM;2009-05-29 17:00;CYHM 291700Z 29010KT 15SM FEW032 FEW220 18/12 A2975 RMK CU1CI0 CI TR SLP073

CYHM;2009-05-29 18:00;CYHM 291800Z 26010G15KT 15SM FEW032 20/13 A2974 RMK CU1 CU TR SLP071

CYHM;2009-05-29 19:00;CYHM 291900Z 26012KT 15SM FEW040 21/13 A2974 RMK CU1 SLP069

CYHM;2009-05-29 20:00;CYHM 292000Z 28013KT 15SM FEW040 22/13 A2973 RMK CU1 SLP066

CYHM;2009-05-29 21:00;CYHM 292100Z 26012KT 15SM FEW040 FEW065 22/12 A2973 RMK CU1SC1 TR SC SLP068

CYHM;2009-05-29 22:00;CYHM 292200Z 29011KT 15SM FEW045 22/12 A2973 RMK CU1 SLP066

CYHM;2009-05-29 23:00;CYHM 292300Z 28005KT 15SM FEW045 SCT080 20/11 A2972 RMK CU2AC2 SLP065

CYHM;2009-05-29 23:53;CYHM 292353Z 31018G24KT 15SM -SHRA BKN036 RMK SC7 TCU EMBDD

CYHM;2009-05-30 00:00;CYHM 300000Z 31015G20KT 5SM +SHRA OVC015 14/11 A2978 RMK SC8 TCU EMBDD COLD FROPA PRESRR SLP085

CYHM;2009-05-30 01:00;CYHM 300100Z 19003G20KT 6SM SHRA OVC020 13/12 A2978 RMK SC8 SLP085

CYHM;2009-05-30 02:00;CYHM 300200Z 22003G20KT 15SM BKN030 13/12 A2976 RERA RMK SC6 SLP080

CYHM;2009-05-30 03:00;CYHM 300300Z 26005KT 15SM FEW020 SCT110 13/12 A2980 RMK SC2AC2 SLP091

CYHM;2009-05-30 03:12;CYHM 300312Z 26003KT 15SM FEW003 BKN012 RMK SF2SC4

CYHM;2009-05-30 04:00;CYHM 300400Z 30008KT 15SM FEW014 12/11 A2980 RMK CF2 SLP093

CYHM;2009-05-30 05:00;CYHM 300500Z 29004KT 15SM FEW020 10/09 A2981 RMK SC1 SLP094

CYHM;2009-05-30 06:00;CYHM 300600Z 31006KT 15SM FEW080 09/08 A2980 RMK AC1 SLP092

CYHM;2009-05-30 07:00;CYHM 300700Z 28007KT 15SM SKC 07/06 A2979 RMK SLP090

CYHM;2009-05-30 08:00;CYHM 300800Z 27007KT 15SM SKC 07/05 A2979 RMK SLP089

CYHM;2009-05-30 09:00;CYHM 300900Z 26011KT 15SM FEW090 06/05 A2979 RMK AC1 SLP090

CYHM;2009-05-30 10:00;CYHM 301000Z 25007KT 15SM FEW090 06/05 A2981 RMK AC1 SLP096

CYHM;2009-05-30 11:00;CYHM 301100Z 25006KT 15SM BKN005 07/06 A2983 RMK SC6 SLP102

CYHM;2009-05-30 11:17;CYHM 301117Z 31008KT 260V330 15SM BKN004 RMK SC7

CYHM;2009-05-30 12:00;CYHM 301200Z 29004KT 15SM BKN004 08/07 A2982 RMK SC7 SLP101

CYHM;2009-05-30 12:44;CYHM 301244Z 30006KT 15SM BKN006 RMK SC6

CYHM;2009-05-30 13:00;CYHM 301300Z 28006KT 240V340 15SM BKN007 BKN220 10/08 A2983 RMK SC6CI1 SLP104

CYHM;2009-05-30 13:48;CYHM 301348Z 28004KT 220V320 15SM SCT011 BKN210 RMK SC4CI2

CYHM;2009-05-30 14:00;CYHM 301400Z 21005KT 180V280 15SM SCT012 BKN210 11/09 A2984 RMK SC3CI2 SLP106

CYHM;2009-05-30 15:00;CYHM 301500Z 23007KT 190V270 15SM FEW017 FEW210 13/09 A2983 RMK SC1CI1 SLP102

CYHM;2009-05-30 16:00;CYHM 301600Z 24012KT 190V280 15SM FEW020 FEW220 15/08 A2982 RMK SC1CI0 SLP100

CYHM;2009-05-30 17:00;CYHM 301700Z 25012KT 210V300 15SM FEW025 FEW220 16/08 A2981 RMK SC1CI1 SC TR SLP095

CYHM;2009-05-30 18:00;CYHM 301800Z 23014KT 15SM BKN045 BKN099 BKN220 18/09 A2978 RMK SC5AC1CI1 CI TR SLP088

CYHM;2009-05-30 19:00;CYHM 301900Z 24018G24KT 200V270 15SM SCT045 BKN085 19/08 A2977 RMK CU4AC1 SLP082

CYHM;2009-05-30 20:00;CYHM 302000Z 24018KT 15SM BKN044 BKN070 18/09 A2974 RMK CU5AC1 SLP072

CYHM;2009-05-30 21:00;CYHM 302100Z 23016G21KT 15SM SCT045 19/09 A2971 RMK CU3 SLP061

CYHM;2009-05-30 22:00;CYHM 302200Z 23021G28KT 15SM FEW045 FEW060 SCT200 19/08 A2969 RMK CU2SC1CI1 SLP057

CYHM;2009-05-30 22:58;CYHM 302258Z 23016KT 15SM TS FEW045CB SCT060 BKN180 RMK CB2SC2AC3 CB W-NW LTGCG W-NW

CYHM;2009-05-30 23:00;CYHM 302300Z 23016KT 15SM TS FEW045CB SCT060 BKN180 18/08 A2969 RMK CB2SC2AC3 CB W-NW LTGCG W-NW SLP056

CYHM;2009-05-30 23:21;CYHM 302321Z 27020G30KT 12SM -TSRA SCT040CB BKN060 BKN120 RMK CB3SC2AC2 LTNG

CYHM;2009-05-30 23:30;CYHM 302330Z 28020G33KT 2 1/2SM TSRA BR FEW020 BKN040CB BKN060 RMK FG1CF2CB3SC2 LTNG

CYHM;2009-05-31 00:00;CYHM 310000Z 26017KT 2 1/2SM TSRA BR FEW018 BKN033 OVC056 12/10 A2976 RMK CF1SC5SC2 PRESRR LTGCG CB EMBD SLP082

CYHM;2009-05-31 00:17;CYHM 310017Z 16011KT 7SM -TSRA SCT030 BKN056 BKN110 RERA RMK SC4SC2AC2 CB EMBD

CYHM;2009-05-31 00:41;CYHM 310041Z 19011KT 10SM TS VCSH SCT033 BKN058 BKN082 RMK SC3SC2AC2 CB EMBD DIST E-S LTGCG DIST S

CYHM;2009-05-31 00:51;CYHM 310051Z 22010KT 10SM -TSRA SCT033 BKN058 BKN082 RMK SC3SC2AC2 CB EMBD DIS-S LTGCG DIST S

CYHM;2009-05-31 01:00;CYHM 310100Z 22007KT 7SM SHRA SCT033 BKN058 BKN082 11/10 A2973 RETS RMK SC3SC2AC2 CB DIST S SLP072

CYHM;2009-05-31 02:00;CYHM 310200Z 25007KT 6SM SHRA BR SCT030 OVC055 11/10 A2976 RMK SC4SC4 SLP080

CYHM;2009-05-31 03:00;CYHM 310300Z 21005KT 15SM FEW013 FEW070 SCT230 11/09 A2973 RERA RMK CF1AC2CI2 SLP070

CYHM;2009-05-31 03:18;CYHM 310318Z 25007KT 15SM TS SCT030CB BKN070 RMK CB3AC3

CYHM;2009-05-31 03:25;CYHM 310325Z 22007KT 15SM -TSRA BKN035CB BKN094 RMK CB5AC2

CYHM;2009-05-31 04:00;CYHM 310400Z 26005KT 15SM BKN064 BKN130 11/10 A2974 RETS RMK SC5AC1 SLP074

CYHM;2009-05-31 04:22;CYHM 310422Z 31007KT 15SM -SHRA BKN015 OVC060 RMK SC6SC2

CYHM;2009-05-31 04:38;CYHM 310438Z 33012KT 15SM -TSRA BKN017 OVC062 RMK SC6SC2 CB ASOCTD OCNL LTNG

CYHM;2009-05-31 05:00;CYHM 310500Z 32013G19KT 15SM -TSRA BKN025CB OVC078 09/07 A2977 RERA RMK CB6AC2 OCNL LTGIC SLP082

CYHM;2009-05-31 05:53;CYHM 310553Z 34006KT 15SM -TSRAGR OVC050 RMK SC8 CB ASOCTD OCNL LTNG HAIL DIAM 2MM

CYHM;2009-05-31 06:00;CYHM 310600Z 32009KT 15SM -TSRA OVC054 07/04 A2978 RMK SC8 CB ASOCTD OCNL LTNG NE /R10/ SLP085

CYHM;2009-05-31 07:00;CYHM 310700Z 28005KT 15SM -TSRA OVC056 07/03 A2979 RMK SC8 CB ASOCTD SLP090

CYHM;2009-05-31 07:30;CYHM 310730Z 29005KT 15SM FEW060 BKN079 RETS RMK SC1AC6

CYHM;2009-05-31 08:00;CYHM 310800Z CCA 29009KT 15SM FEW060 FEW090 05/00 A2979 RETS RMK SC1AC1 SLP089

CYHM;2009-05-31 09:00;CYHM 310900Z 26006KT 15SM FEW090 FEW210 04/M01 A2979 RMK AC1CI1 SLP092

CYHM;2009-05-31 10:00;CYHM 311000Z 29006KT 15SM FEW065 FEW210 03/M02 A2981 RMK SC1CI1 SLP099

CYHM;2009-05-31 11:00;CYHM 311100Z 26006KT 15SM FEW065 04/M02 A2984 RMK SC1 SLP106

CYHM;2009-05-31 12:00;CYHM 311200Z 27008KT 15SM FEW070 06/M01 A2985 RMK AC1 SLP113

CYHM;2009-05-31 13:00;CYHM 311300Z 27010KT 230V320 15SM FEW070 08/M00 A2988 RMK AC1 SLP121

CYHM;2009-05-31 14:00;CYHM 311400Z 26014KT 240V320 15SM FEW042 09/M01 A2989 RMK CU1 SLP126

CYHM;2009-05-31 15:00;CYHM 311500Z 27020G26KT 230V310 15SM FEW052 11/00 A2990 RMK CU1 SLP129

CYHM;2009-05-31 16:00;CYHM 311600Z 27016G25KT 15SM FEW054 11/M00 A2992 RMK CU1 SLP134

CYHM;2009-05-31 17:00;CYHM 311700Z 27016G25KT 240V320 15SM FEW054 11/M01 A2993 RMK CU1 SLP138

CYHM;2009-05-31 18:00;CYHM 311800Z 27017G23KT 230V320 15SM FEW059 12/M00 A2995 RMK CU2 SLP145

CYHM;2009-05-31 19:00;CYHM 311900Z 29015G23KT 260V330 15SM SCT056 12/M00 A2997 RMK SC3 CU ASOCTD SLP153

CYHM;2009-05-31 20:00;CYHM 312000Z 29016KT 250V330 15SM FEW056 SCT240 12/M00 A2998 RMK SC2CI2 SLP156

CYHM;2009-05-31 21:00;CYHM 312100Z 28016KT 15SM FEW055 SCT240 12/M00 A2998 RMK CF1CI2 CONTRAILS SLP158

CYHM;2009-05-31 22:00;CYHM 312200Z 28013KT 15SM FEW050 FEW240 12/00 A2999 RMK CF1CI2 SLP161

CYHM;2009-05-31 23:00;CYHM 312300Z 28008KT 240V320 15SM FEW050 FEW240 12/00 A3001 RMK SC1CI2 SC TR CONTRAILS SLP167

CYHM;2009-06-01 01:00;CYHM 010100Z 26004KT 15SM FEW100 SCT200 09/00 A3002 RMK AC1CI2 AC TR SLP172

CYHM;2009-06-01 02:00;CYHM 010200Z 00000KT 15SM FEW200 08/02 A3003 RMK CI2 SLP174

CYHM;2009-06-01 03:00;CYHM 010300Z 00000KT 15SM FEW100 BKN220 07/03 A3004 RMK AC1CS4 HALO SLP179

CYHM;2009-06-01 04:00;CYHM 010400Z 00000KT 15SM OVC130 07/03 A3005 RMK AC8 SLP182

CYHM;2009-06-01 05:00;CYHM 010500Z 00000KT 15SM OVC088 08/05 A3005 RMK AC8 SLP180

CYHM;2009-06-01 06:00;CYHM 010600Z 00000KT 15SM FEW070 OVC085 08/05 A3004 RMK AC1AC7 SLP176

CYHM;2009-06-01 07:00;CYHM 010700Z 00000KT 15SM BKN110 08/05 A3004 RMK AC7 SLP175

CYHM;2009-06-01 08:00;CYHM 010800Z 17002KT 15SM FEW120 08/04 A3003 RMK AC2 SLP173

CYHM;2009-06-01 09:00;CYHM 010900Z 19003KT 15SM BKN110 07/05 A3003 RMK AC6 SLP172

CYHM;2009-06-01 10:00;CYHM 011000Z 15004KT 15SM BKN093 BKN150 08/06 A3003 RMK AC6AC2 SLP173

CYHM;2009-06-01 11:00;CYHM 011100Z 17007KT 15SM BKN081 BKN140 09/06 A3004 RMK AC6AC2 SLP177

CYHM;2009-06-01 12:00;CYHM 011200Z 17007KT 15SM SCT082 BKN160 11/07 A3004 RMK AC3AC3 SLP175

CYHM;2009-06-01 13:00;CYHM 011300Z 19008KT 15SM FEW100 BKN140 12/06 A3002 RMK AC2AC5 SLP169

CYHM;2009-06-01 14:00;CYHM 011400Z 19008KT 15SM SCT082 OVC120 12/06 A3002 RMK AC4AC4 SLP168

CYHM;2009-06-01 15:00;CYHM 011500Z 19006KT 10SM -SHRA BKN064 OVC083 12/06 A3002 RMK SC5AC3 SLP169

CYHM;2009-06-01 15:44;CYHM 011544Z 20010KT 10SM BKN061 OVC085 RMK SC5AC3 RERA

CYHM;2009-06-01 15:56;CYHM 011556Z 19008KT 8SM -SHRA BKN035 OVC080 RMK SC6AC2 PCPN VERY LIGHT

CYHM;2009-06-01 16:00;CYHM 011600Z 16010KT 8SM -SHRA BKN035 BKN058 OVC080 13/06 A3000 RMK SC6SC2AC1 SLP163

CYHM;2009-06-01 16:37;CYHM 011637Z 18010KT 10SM BKN058 OVC084 RMK SC6AC2 RERA

CYHM;2009-06-01 17:00;CYHM 011700Z 18008KT 15SM SCT062 OVC091 14/07 A2996 RMK SC4AC4 SLP149

CYHM;2009-06-01 17:22;CYHM 011722Z 17012KT 15SM -SHRA FEW058 OVC088 RMK SC2AC6 PCPN VERY LGT

CYHM;2009-06-01 18:00;CYHM 011800Z 18008KT 15SM -SHRA BKN062 BKN076 OVC088 15/07 A2994 RMK SC5AC2AC1 PCPN VERY LGT SLP142

CYHM;2009-06-01 18:48;CYHM 011848Z 21005KT 15SM FEW060 OVC068 RMK SC1AC7

CYHM;2009-06-01 19:00;CYHM 011900Z 20007KT 15SM OVC065 15/09 A2993 RMK SC8 SLP138

CYHM;2009-06-01 20:00;CYHM 012000Z 20010KT 15SM FEW058 BKN072 16/10 A2990 RMK SC2AC5 SUN DMLY VSBL SLP129

CYHM;2009-06-01 21:00;CYHM 012100Z 20008KT 15SM BKN034 BKN064 17/11 A2987 RMK SC6SC2 SLP117

CYHM;2009-06-01 22:00;CYHM 012200Z 24015KT 15SM BKN035 BKN050 18/11 A2987 RMK SC6SC2 SLP117

CYHM;2009-06-01 23:00;CYHM 012300Z 23009KT 15SM OVC031 18/12 A2987 RMK SC8 SLP118

CYHM;2009-06-02 00:00;CYHM 020000Z 24007KT 15SM BKN022 OVC038 18/13 A2989 RMK SC6SC2 SLP124

CYHM;2009-06-02 01:00;CYHM 020100Z 25008KT 15SM FEW022 BKN036 17/14 A2990 RMK SF1SC6 1ST LYR TR SLP125

CYHM;2009-06-02 02:00;CYHM 020200Z 25006KT 12SM FEW018 BKN072 16/14 A2994 RMK SC2AC4 SLP141

CYHM;2009-06-02 03:00;CYHM 020300Z 32007KT 12SM FEW012 SCT024 15/13 A2995 RMK SF1SC3 1ST LYR TR SLP144

CYHM;2009-06-02 04:00;CYHM 020400Z 32007KT 15SM FEW012 FEW022 13/12 A2994 RMK SF1SC1 SLP139

CYHM;2009-06-02 05:00;CYHM 020500Z 33004KT 15SM SCT010 11/09 A2997 RMK SC3 SF ASOCTD SLP150

CYHM;2009-06-02 06:00;CYHM 020600Z 31004KT 15SM FEW010 08/07 A2999 RMK SF2 SLP160

CYHM;2009-06-02 07:00;CYHM 020700Z 36003KT 15SM BKN011 10/08 A3001 RMK SC7 SLP164

CYHM;2009-06-02 08:00;CYHM 020800Z 01005KT 15SM BKN013 10/07 A3001 RMK SC7 SLP165

CYHM;2009-06-02 09:00;CYHM 020900Z 00000KT 15SM OVC015 10/08 A3003 RMK SC8 SLP171

CYHM;2009-06-02 10:00;CYHM 021000Z 02005KT 15SM OVC015 10/07 A3004 RMK SC8 SLP173

CYHM;2009-06-02 11:00;CYHM 021100Z 02008KT 15SM OVC013 09/07 A3007 RMK SC8 SLP185

CYHM;2009-06-02 12:00;CYHM 021200Z 03012KT 15SM OVC015 09/06 A3009 RMK SC8 SLP191

CYHM;2009-06-02 13:00;CYHM 021300Z 02012KT 15SM SCT015 BKN025 10/07 A3009 RMK CU3SC2 SLP191

CYHM;2009-06-02 14:00;CYHM 021400Z 04012KT 15SM FEW015 BKN020 BKN220 12/07 A3010 RMK CU2SC3CI1 SLP196

CYHM;2009-06-02 15:00;CYHM 021500Z 03008KT 15SM FEW020 FEW045 SCT180 BKN220 13/08 A3010 RMK CU1SC2AC1CI1 CONTRAIL SLP195

CYHM;2009-06-02 16:00;CYHM 021600Z 09003KT 15SM FEW025 FEW180 SCT220 14/08 A3010 RMK CU1AC1CI1 SLP195

CYHM;2009-06-02 17:00;CYHM 021700Z 00000KT 15SM FEW028 FEW220 15/08 A3009 RMK CU1CI1 CU TR CONTRAIL SLP190

CYHM;2009-06-02 18:00;CYHM 021800Z 22005KT 15SM FEW030 FEW180 SCT220 16/08 A3008 RMK CU1AC2CI1 CU TR SLP189

CYHM;2009-06-02 19:00;CYHM 021900Z 30002KT 15SM FEW036 BKN190 BKN230 16/07 A3008 RMK CU1AC5CI1 WND L/V CONTRAILS CU TR SLP190

CYHM;2009-06-02 20:00;CYHM 022000Z 21002KT 15SM FEW038 BKN150 16/07 A3008 RMK CU1AC6 WND L/V CU TR SLP188

CYHM;2009-06-02 21:00;CYHM 022100Z 26009KT 15SM FEW038 BKN150 BKN250 17/09 A3007 RMK CU1AC5CI2 CU TR SLP186

CYHM;2009-06-02 22:00;CYHM 022200Z 29002KT 15SM FEW120 SCT160 BKN250 18/08 A3005 RMK AC1AC3CI2 SLP178

CYHM;2009-06-02 23:00;CYHM 022300Z 19003KT 15SM FEW120 BKN160 BKN250 17/11 A3004 RMK AC1AC6CI1 1ST LYR TR SLP174

CYHM;2009-06-03 00:00;CYHM 030000Z 21006KT 15SM FEW032 BKN140 BKN250 15/11 A3005 RMK SC1AC4CI0 SLP178

CYHM;2009-06-03 01:00;CYHM 030100Z 00000KT 15SM BKN130 BKN150 BKN250 14/11 A3006 RMK AC5AC1CI1 SLP182

CYHM;2009-06-03 02:00;CYHM 030200Z 18005KT 15SM BKN130 13/10 A3007 RMK AC7 SLP186

CYHM;2009-06-03 03:00;CYHM 030300Z 03002KT 8SM BKN130 13/11 A3008 RMK AC7 SLP190

CYHM;2009-06-03 04:00;CYHM 030400Z 02003KT 15SM BKN120 12/08 A3008 RMK AC7 SLP190

CYHM;2009-06-03 05:00;CYHM 030500Z 03005KT 15SM BKN120 11/06 A3008 RMK AC7 SLP188

CYHM;2009-06-03 06:00;CYHM 030600Z 00000KT 15SM FEW110 SCT250 10/05 A3007 RMK AC2CI0 SLP187

CYHM;2009-06-03 07:00;CYHM 030700Z 00000KT 15SM FEW110 FEW250 08/05 A3008 RMK AC1CI1 IST LYR TR SLP189

CYHM;2009-06-03 08:00;CYHM 030800Z 00000KT 15SM BKN120 08/05 A3007 RMK AC3 SLP186

CYHM;2009-06-03 09:00;CYHM 030900Z 00000KT 15SM SCT120 07/06 A3007 RMK AC2 SLP187

CYHM;2009-06-03 10:00;CYHM 031000Z 35002KT 15SM FEW120 SCT250 08/05 A3008 RMK AC2CI1 CONTRAILS SLP189

CYHM;2009-06-03 11:00;CYHM 031100Z 07004KT 15SM FEW080 BKN110 BKN220 09/07 A3010 RMK AC2AC3CI2 SLP195

CYHM;2009-06-03 12:00;CYHM 031200Z 11003KT 15SM FEW100 SCT160 BKN210 11/06 A3011 RMK AC2AC2CI2 SLP199

CYHM;2009-06-03 13:00;CYHM 031300Z 04005KT 15SM FEW160 BKN210 13/06 A3011 RMK AC1CI3 CONTRAIL SLP200

CYHM;2009-06-03 14:00;CYHM 031400Z 00000KT 15SM FEW110 FEW180 BKN210 14/06 A3012 RMK AC1AC1CI4 HALO SLP201

CYHM;2009-06-03 15:00;CYHM 031500Z 00000KT 15SM FEW160 BKN210 16/07 A3010 RMK AC2CI5 SLP196

CYHM;2009-06-03 16:00;CYHM 031600Z 32004KT 15SM FEW036 FEW140 BKN210 17/07 A3010 RMK CU1AC2CS5 CU TR HALO SLP194

CYHM;2009-06-03 17:00;CYHM 031700Z 32006KT 15SM FEW036 SCT180 BKN210 18/09 A3009 RMK CU1AC2CI4 SLP190

CYHM;2009-06-03 18:00;CYHM 031800Z 32008KT 15SM FEW042 BKN250 18/09 A3007 RMK CU2CS5 SUN DMLY VSBL SLP184

CYHM;2009-06-03 19:00;CYHM 031900Z 29006KT 15SM SCT048 BKN250 18/10 A3005 RMK CU3CS3 SUN DMLY VSBL CONTRAILS SLP178

CYHM;2009-06-03 20:00;CYHM 032000Z 28007KT 15SM BKN054 BKN250 18/08 A3005 RMK SC5CS2 CU ASOCTD SLP177

CYHM;2009-06-03 21:00;CYHM 032100Z 32005KT 15SM SCT045 BKN250 18/09 A3004 RMK SC4CS2 SLP176

CYHM;2009-06-03 22:00;CYHM 032200Z 30010KT 15SM FEW048 BKN250 17/08 A3004 RMK SC1CS6 CU ASOCTD SLP175

CYHM;2009-06-03 23:00;CYHM 032300Z 28008KT 15SM FEW046 BKN250 16/07 A3004 RMK CU1CS6 CU TR SLP175

CYHM;2009-06-04 00:00;CYHM 040000Z 32007KT 15SM FEW042 BKN250 15/05 A3004 RMK CU1CS6 CU TR CONTRAILS SLP175

CYHM;2009-06-04 01:00;CYHM 040100Z 33006KT 15SM BKN250 13/04 A3005 RMK CI3 SLP178

CYHM;2009-06-04 02:00;CYHM 040200Z 32006KT 15SM BKN250 11/04 A3006 RMK CI2 SLP182

CYHM;2009-06-04 03:00;CYHM 040300Z 33005KT 15SM FEW210 10/04 A3007 RMK CI1 SLP187

CYHM;2009-06-04 04:00;CYHM 040400Z 32003KT 15SM SKC 08/03 A3007 RMK SLP187

CYHM;2009-06-04 05:00;CYHM 040500Z 34004KT 15SM SKC 08/03 A3008 RMK SLP189

CYHM;2009-06-04 06:00;CYHM 040600Z 00000KT 15SM SKC 07/03 A3009 RMK SLP192

CYHM;2009-06-04 07:00;CYHM 040700Z 32004KT 15SM FEW210 06/02 A3008 RMK CI1 SLP189

CYHM;2009-06-04 08:00;CYHM 040800Z 32003KT 15SM BKN230 06/03 A3008 RMK CI4 SLP188

CYHM;2009-06-04 09:00;CYHM 040900Z 00000KT 15SM BKN230 05/03 A3007 RMK CI6 SLP188

CYHM;2009-06-04 10:00;CYHM 041000Z 00000KT 15SM BKN220 05/03 A3008 RMK CI6 SLP189

CYHM;2009-06-04 11:00;CYHM 041100Z 00000KT 15SM FEW180 BKN220 07/05 A3009 RMK AC1CI5 SLP192

CYHM;2009-06-04 12:00;CYHM 041200Z 02006KT 15SM FEW160 BKN210 10/06 A3009 RMK AC1CI5 SLP193

CYHM;2009-06-04 13:00;CYHM 041300Z 06008KT 15SM BKN230 13/05 A3009 RMK CI4 SLP193

CYHM;2009-06-04 14:00;CYHM 041400Z 03004KT 15SM SCT230 14/06 A3009 RMK CI2 CONTRAIL SLP193

CYHM;2009-06-04 15:00;CYHM 041500Z 05007KT 15SM FEW035 FEW210 15/06 A3009 RMK CU1CI1 SLP192

CYHM;2009-06-04 16:00;CYHM 041600Z 07003KT 15SM FEW032 FEW240 16/05 A3008 RMK CU1CI0 CI TR SLP189

CYHM;2009-06-04 17:00;CYHM 041700Z 05004KT 15SM FEW040 SCT240 17/06 A3007 RMK CU1CI1 SLP186

CYHM;2009-06-04 18:00;CYHM 041800Z 09010KT 15SM FEW040 BKN240 17/05 A3006 RMK CU1CI2 SLP181

CYHM;2009-06-04 19:00;CYHM 041900Z 03008KT 320V070 15SM FEW048 BKN240 17/05 A3004 RMK CU1CI2 SLP177

CYHM;2009-06-04 20:00;CYHM 042000Z 06008KT 310V100 15SM FEW052 BKN240 18/04 A3004 RMK CU1CI2 SLP174

CYHM;2009-06-04 21:00;CYHM 042100Z 04004KT 360V100 15SM FEW052 BKN230 18/04 A3002 RMK CU1CI2 SLP170

CYHM;2009-06-04 22:00;CYHM 042200Z 05005KT 010V090 15SM FEW052 BKN240 18/05 A3001 RMK CU1CI2 SLP165

CYHM;2009-06-04 23:00;CYHM 042300Z 05006KT 15SM FEW050 BKN250 17/03 A3001 RMK SC1CI2 SLP164

CYHM;2009-06-05 00:00;CYHM 050000Z 08006KT 15SM BKN250 16/04 A3001 RMK CI2 SLP163

CYHM;2009-06-05 01:00;CYHM 050100Z 08006KT 15SM FEW150 BKN250 14/05 A3001 RMK AC1CI2 SLP163

CYHM;2009-06-05 02:00;CYHM 050200Z 05004KT 15SM FEW150 BKN240 14/06 A3001 RMK AC1CI2 SLP163

CYHM;2009-06-05 03:00;CYHM 050300Z 05006KT 15SM BKN230 12/07 A3001 RMK CI3 SLP165

CYHM;2009-06-05 04:00;CYHM 050400Z 03005KT 15SM BKN230 11/07 A3001 RMK CI3 SLP163

CYHM;2009-06-05 05:00;CYHM 050500Z 04006KT 15SM BKN250 10/08 A3000 RMK CI3 SLP161

CYHM;2009-06-05 06:00;CYHM 050600Z 04004KT 15SM BKN250 10/07 A3000 RMK CI2 SLP160

CYHM;2009-06-05 07:00;CYHM 050700Z 02004KT 15SM FEW250 09/06 A2998 RMK CI1 SLP156

CYHM;2009-06-05 08:00;CYHM 050800Z 03005KT 15SM FEW250 09/06 A2997 RMK CI1 SLP150

CYHM;2009-06-05 09:00;CYHM 050900Z 01006KT 15SM FEW250 08/05 A2996 RMK CI1 SLP149

CYHM;2009-06-05 10:00;CYHM 051000Z 03007KT 15SM FEW250 09/05 A2996 RMK CI2 SLP149

CYHM;2009-06-05 11:00;CYHM 051100Z 04008KT 15SM FEW240 10/06 A2996 RMK CI1 SLP149

CYHM;2009-06-05 12:00;CYHM 051200Z 04006KT 15SM FEW240 12/06 A2996 RMK CI1 SLP147

CYHM;2009-06-05 13:00;CYHM 051300Z 04010KT 15SM FEW240 14/07 A2996 RMK CI0 CI TR SLP147

CYHM;2009-06-05 14:00;CYHM 051400Z 03008KT 15SM FEW240 16/07 A2996 RMK CI1 CI TR SLP146

CYHM;2009-06-05 15:00;CYHM 051500Z 04011KT 15SM FEW240 17/05 A2995 RMK CI1 CI TR SLP143

CYHM;2009-06-05 16:00;CYHM 051600Z 06008KT 15SM FEW035 FEW240 17/06 A2995 RMK CU1CI1 SLP143

CYHM;2009-06-05 17:00;CYHM 051700Z 03010KT 15SM FEW035 FEW240 18/07 A2994 RMK CU1CI1 CU TR CI TR SLP139

CYHM;2009-06-05 18:00;CYHM 051800Z 03008KT 15SM FEW035 FEW240 18/06 A2991 RMK CU1CI1 SLP132

CYHM;2009-06-05 19:00;CYHM 051900Z 03010KT 15SM FEW040 FEW240 18/06 A2990 RMK CU1CI1 SLP127

CYHM;2009-06-05 20:00;CYHM 052000Z 04009KT 15SM FEW040 FEW240 19/07 A2988 RMK CU1CI1 TR CU SLP122

CYHM;2009-06-05 21:00;CYHM 052100Z 06007KT 15SM FEW040 FEW260 19/08 A2987 RMK CU1CI1 SLP116

CYHM;2009-06-05 22:00;CYHM 052200Z 06008KT 15SM FEW040 FEW180 FEW270 19/08 A2986 RMK CU1AC1CI1 SLP112

CYHM;2009-06-05 23:00;CYHM 052300Z 04007KT 15SM FEW035 FEW250 18/08 A2986 RMK CU1CI1 SLP113

CYHM;2009-06-06 00:00;CYHM 060000Z 06005KT 15SM FEW035 FEW250 16/08 A2985 RMK SC1CI1 SLP111

CYHM;2009-06-06 01:00;CYHM 060100Z 00000KT 15SM FEW030 FEW250 16/07 A2985 RMK SC1CI1 SLP111

CYHM;2009-06-06 02:00;CYHM 060200Z 19007KT 15SM FEW030 FEW250 14/07 A2986 RMK SC1CI1 SLP114

CYHM;2009-06-06 03:00;CYHM 060300Z 21005KT 15SM FEW030 FEW250 13/07 A2988 RMK SC1CI1 SLP119

CYHM;2009-06-06 04:00;CYHM 060400Z 22005KT 15SM FEW200 11/07 A2988 RMK CI1 SLP121

CYHM;2009-06-06 05:00;CYHM 060500Z 22005KT 15SM SKC 11/07 A2989 RMK SLP122

CYHM;2009-06-06 06:00;CYHM 060600Z 22005KT 15SM SKC 10/06 A2988 RMK SLP120

CYHM;2009-06-06 07:00;CYHM 060700Z 23005KT 15SM SKC 10/07 A2988 RMK SLP118

CYHM;2009-06-06 08:00;CYHM 060800Z 22005KT 15SM SKC 09/07 A2988 RMK SLP121

CYHM;2009-06-06 09:00;CYHM 060900Z 26003KT 15SM FEW210 09/07 A2990 RMK CI1 SLP127

CYHM;2009-06-06 10:00;CYHM 061000Z 23005KT 15SM FEW080 FEW180 08/07 A2990 RMK AC1AC1 TR HIER AC SLP125

CYHM;2009-06-06 11:00;CYHM 061100Z 23004KT 15SM FEW110 10/09 A2991 RMK AC1 SLP128

CYHM;2009-06-06 12:00;CYHM 061200Z 00000KT 15SM FEW110 13/09 A2993 RMK AC1 SLP136

CYHM;2009-06-06 13:00;CYHM 061300Z 28003KT 15SM FEW120 FEW250 15/09 A2996 RMK AC1CI0 SLP145

CYHM;2009-06-06 14:00;CYHM 061400Z 29002KT 15SM FEW050 FEW250 17/10 A2996 RMK SC1CI0 SLP147

CYHM;2009-06-06 15:00;CYHM 061500Z 00000KT 15SM FEW087 FEW250 17/09 A2996 RMK AC1CI1 SLP147

CYHM;2009-06-06 16:00;CYHM 061600Z 30005KT 230V340 15SM SCT076 SCT250 19/11 A2997 RMK AC3CI0 SLP149

CYHM;2009-06-06 17:00;CYHM 061700Z 31007KT 15SM FEW075 BKN250 21/10 A2997 RMK AC1CI3 AC TR SLP148

CYHM;2009-06-06 18:00;CYHM 061800Z 30004KT 200V360 15SM FEW050 BKN250 22/10 A2996 RMK CU1CI2 CU TR SLP147

CYHM;2009-06-06 19:00;CYHM 061900Z 28007KT 240V330 15SM FEW045 BKN210 22/11 A2997 RMK CU1CI2 SLP148

CYHM;2009-06-06 20:00;CYHM 062000Z 28008KT 250V330 15SM FEW048 BKN200 22/10 A2997 RMK CU1CI2 CU TR SLP150

CYHM;2009-06-06 21:00;CYHM 062100Z 29007KT 15SM FEW048 FEW150 BKN200 22/08 A2997 RMK CU1AC1CI2 CU TR AC TR SLP149

CYHM;2009-06-06 22:00;CYHM 062200Z 31006KT 270V350 15SM FEW120 BKN210 22/07 A2997 RMK AC1CI3 SLP149

CYHM;2009-06-06 23:00;CYHM 062300Z 32008KT 15SM FEW060 FEW130 BKN210 21/07 A2998 RMK SC1AC2CI2 SC TR SLP154

CYHM;2009-06-07 00:00;CYHM 070000Z 33008KT 15SM FEW060 BKN130 BKN210 19/06 A2999 RMK SC1AC6CI1 SC TR SLP155

CYHM;2009-06-07 01:00;CYHM 070100Z 33005KT 15SM FEW110 BKN130 18/06 A2999 RMK AC2AC5 SLP157

CYHM;2009-06-07 02:00;CYHM 070200Z 32005KT 15SM FEW110 OVC130 17/07 A3001 RMK AC2AC6 SLP161

CYHM;2009-06-07 03:00;CYHM 070300Z 00000KT 15SM OVC120 16/06 A3001 RMK AC8 SLP164

CYHM;2009-06-07 04:00;CYHM 070400Z 36004KT 15SM FEW077 OVC110 15/06 A3003 RMK AC1AC7 SLP168

CYHM;2009-06-07 05:00;CYHM 070500Z 32005KT 15SM BKN079 OVC100 15/05 A3006 RMK AC6AC2 SLP178

CYHM;2009-06-07 06:00;CYHM 070600Z 00000KT 15SM BKN070 OVC090 14/05 A3004 RMK AC7AC1 SLP173

CYHM;2009-06-07 07:00;CYHM 070700Z 02003KT 15SM FEW070 OVC085 14/05 A3004 RMK AC2AC6 SLP173

CYHM;2009-06-07 08:00;CYHM 070800Z 06005KT 15SM FEW065 OVC110 13/06 A3002 RMK SC2AC6 SLP167

CYHM;2009-06-07 09:00;CYHM 070900Z 08007KT 15SM OVC100 13/05 A3001 RMK AC8 SLP164

CYHM;2009-06-07 10:00;CYHM 071000Z 04005KT 15SM FEW077 OVC098 13/06 A3003 RMK AC2AC6 SLP170

CYHM;2009-06-07 11:00;CYHM 071100Z 06009KT 15SM FEW091 BKN110 13/04 A3003 RMK AC2AC6 SLP169

CYHM;2009-06-07 12:00;CYHM 071200Z 06012KT 15SM BKN100 13/06 A3004 RMK AC7 SLP172

CYHM;2009-06-07 13:00;CYHM 071300Z 08008KT 15SM BKN100 13/05 A3004 RMK AC7 SLP172

CYHM;2009-06-07 14:00;CYHM 071400Z 09010KT 15SM BKN100 OVC140 13/05 A3002 RMK AC6AC2 SLP166

CYHM;2009-06-07 15:00;CYHM 071500Z 07010KT 15SM BKN100 OVC130 13/04 A3002 RMK AC6AC2 SLP167

CYHM;2009-06-07 16:00;CYHM 071600Z 05009KT 15SM FEW100 SCT120 BKN240 14/06 A3002 RMK AC2AC2CI2 SLP168

CYHM;2009-06-07 17:00;CYHM 071700Z 08007KT 020V130 15SM FEW110 BKN250 15/07 A3002 RMK AC2CI2 SLP167

CYHM;2009-06-07 18:00;CYHM 071800Z 05008KT 360V110 15SM SCT110 BKN220 16/08 A3000 RMK AC3CI2 SLP161

CYHM;2009-06-07 19:00;CYHM 071900Z 05011KT 020V090 15SM FEW080 SCT100 BKN200 15/07 A3001 RMK AC2AC2CI2 SLP163

CYHM;2009-06-07 20:00;CYHM 072000Z 06012KT 15SM FEW060 BKN082 BKN100 BKN210 15/06 A3001 RMK SC2AC4AC2CI1 CI TR SLP162

CYHM;2009-06-07 21:00;CYHM 072100Z 06012KT 030V090 15SM FEW080 SCT110 BKN170 15/06 A3000 RMK AC2AC2AC3 SLP160

CYHM;2009-06-07 22:00;CYHM 072200Z 06013KT 15SM SCT110 BKN170 14/05 A3000 RMK AC3AC4 SLP161

CYHM;2009-06-07 23:00;CYHM 072300Z 07015KT 15SM FEW110 BKN160 14/06 A3000 RMK AC2AC5 SLP160

CYHM;2009-06-08 00:00;CYHM 080000Z 07016KT 15SM FEW090 BKN160 13/08 A3000 RMK AC2AC5 SLP162

CYHM;2009-06-08 01:00;CYHM 080100Z 06010KT 15SM BKN081 BKN120 13/08 A3001 RMK AC6AC2 SLP164

CYHM;2009-06-08 02:00;CYHM 080200Z 06009KT 15SM BKN078 BKN110 12/09 A3003 RMK AC6AC2 SLP172

CYHM;2009-06-08 03:00;CYHM 080300Z 05014KT 15SM FEW080 OVC110 11/09 A3004 RMK AC2AC6 SLP177

CYHM;2009-06-08 04:00;CYHM 080400Z 05013KT 15SM BKN120 11/09 A3004 RMK AC7 SLP174

CYHM;2009-06-08 05:00;CYHM 080500Z 05016KT 15SM BKN130 11/09 A3003 RMK AC7 SLP172

CYHM;2009-06-08 06:00;CYHM 080600Z 05016KT 15SM FEW058 BKN140 11/08 A3004 RMK SC2AC6 SLP175

CYHM;2009-06-08 07:00;CYHM 080700Z 05015KT 15SM FEW055 SCT140 11/08 A3004 RMK CF1AC2 SLP176

CYHM;2009-06-08 08:00;CYHM 080800Z 05016KT 15SM FEW030 BKN057 11/09 A3003 RMK CF1SC6 SLP171

CYHM;2009-06-08 09:00;CYHM 080900Z 04014KT 15SM FEW053 OVC067 11/08 A3002 RMK SC2AC6 SLP169

CYHM;2009-06-08 10:00;CYHM 081000Z 05015KT 15SM SCT059 BKN075 11/08 A3000 RMK SC3AC2 SLP161

CYHM;2009-06-08 11:00;CYHM 081100Z 07012KT 15SM BKN056 BKN072 11/09 A3002 RMK SC6AC2 SLP167

CYHM;2009-06-08 12:00;CYHM 081200Z 06014KT 15SM BKN057 OVC070 12/09 A3003 RMK SC6AC2 CU TR ASOCTD SLP171

CYHM;2009-06-08 13:00;CYHM 081300Z 05015KT 15SM BKN057 OVC068 12/09 A3003 RMK SC6AC2 SLP171

CYHM;2009-06-08 14:00;CYHM 081400Z 05018KT 15SM FEW015 BKN060 OVC070 12/09 A3002 RMK CF1SC6AC1 SLP168

CYHM;2009-06-08 15:00;CYHM 081500Z 04014KT 15SM FEW015 BKN060 OVC072 12/09 A3002 RMK CF1SC6AC2 CF TR SLP169

CYHM;2009-06-08 16:00;CYHM 081600Z 07018KT 15SM FEW020 SCT062 BKN140 OVC180 13/09 A3002 RMK CU1SC3AC2AC2 SLP169

CYHM;2009-06-08 16:50;CYHM 081650Z 05008KT 10SM -SHRA FEW020 BKN062 OVC140 RMK CU1SC6AC2

CYHM;2009-06-08 17:00;CYHM 081700Z 07012KT 7SM -SHRA FEW025 BKN036 OVC058 12/09 A3003 RMK SC1SC6SC2 SLP171

CYHM;2009-06-08 17:39;CYHM 081739Z 05015KT 5SM -SHRA BR FEW007 BKN035 OVC056 RMK SF2SC4SC2

CYHM;2009-06-08 18:00;CYHM 081800Z 05015KT 2 1/2SM -RA BR FEW007 BKN035 OVC062 11/10 A3000 RMK SF2SC5SC2 SLP163

CYHM;2009-06-08 18:50;CYHM 081850Z 06013KT 12SM -RA FEW007 BKN036 OVC110 RMK SF1SC6AC2

CYHM;2009-06-08 19:00;CYHM 081900Z 06015G23KT 12SM -RA FEW007 BKN032 OVC110 11/10 A2995 RMK SF1SC6AC2 SLP147

CYHM;2009-06-08 20:00;CYHM 082000Z 05015KT 15SM FEW062 BKN120 12/10 A2994 RMK SC1AC6 SLP143

CYHM;2009-06-08 21:00;CYHM 082100Z 06012KT 15SM BKN024 BKN120 14/10 A2992 RMK SC6AC1 SLP135

CYHM;2009-06-08 22:00;CYHM 082200Z 05012KT 15SM OVC022 14/10 A2990 RMK SC8 SLP129

CYHM;2009-06-08 23:00;CYHM 082300Z 06010KT 15SM FEW020 BKN130 BKN250 13/09 A2989 RMK SC1AC5CI1 1ST LYR TR CC ASOCTD SLP125

CYHM;2009-06-09 00:00;CYHM 090000Z 05010KT 15SM BKN026 OVC120 13/09 A2989 RMK SC6AC2 SLP123

CYHM;2009-06-09 00:50;CYHM 090050Z CCA 05011KT 15SM -SHRA FEW052 OVC110 RMK SC2AC6

CYHM;2009-06-09 01:00;CYHM 090100Z 05011KT 15SM -SHRA FEW052 OVC110 12/10 A2988 RMK SC2AC6 SLP122

CYHM;2009-06-09 02:00;CYHM 090200Z 05011KT 12SM -SHRA FEW060 BKN084 OVC110 12/10 A2986 RMK SC1AC6AC2 SLP114

CYHM;2009-06-09 02:50;CYHM 090250Z 05011KT 15SM BKN064 BKN100 RMK SC6AC2

CYHM;2009-06-09 03:00;CYHM 090300Z 04010KT 15SM BKN064 BKN100 12/10 A2983 RMK SC6AC2 SLP104

CYHM;2009-06-09 03:52;CYHM 090352Z 05012KT 15SM TS OVC035 RMK SC8 LTNG CB ASOCTD

CYHM;2009-06-09 04:00;CYHM 090400Z 05012KT 15SM TS OVC035 OVC080 12/10 A2982 RMK SC6AC2 LTNG CB ASOCTD SLP100

CYHM;2009-06-09 04:10;CYHM 090410Z 32005KT 2SM TSRA BKN030CB OVC080 RMK CB7AC1

CYHM;2009-06-09 04:22;CYHM 090422Z 03006KT 4SM -TSRA BKN028CB OVC080 RMK CB6AC2

CYHM;2009-06-09 05:00;CYHM 090500Z 05008KT 9SM -TSRA FEW026CB BKN084 OVC120 11/10 A2982 RMK CB1AC6AC2 SLP100

CYHM;2009-06-09 05:23;CYHM 090523Z 03007KT 6SM BR FEW012 FEW060 OVC110 RETS RMK SF1SC1AC6 LTNG

CYHM;2009-06-09 05:47;CYHM 090547Z 03008KT 4SM BR BKN004 OVC060 RETS RMK SF6SC2 LTNG

CYHM;2009-06-09 06:00;CYHM 090600Z 04007KT 2SM BR OVC003 11/10 A2978 RETS RMK FG2SF6 LTNG SLP089

CYHM;2009-06-09 07:00;CYHM 090700Z 03003KT 2SM BR OVC003 11/10 A2978 RMK SF8 SLP087

CYHM;2009-06-09 08:00;CYHM 090800Z 08003KT 2SM BR OVC003 11/10 A2976 RMK FG2SF6 SLP081

CYHM;2009-06-09 09:00;CYHM 090900Z 33005KT 1/8SM FG OVC003 11/10 A2977 RMK FG4SF4 SLP083

CYHM;2009-06-09 10:00;CYHM 091000Z 00000KT 1/4SM FG VV002 11/11 A2978 RMK FG8 SLP087

CYHM;2009-06-09 11:00;CYHM 091100Z 25002KT 1/8SM FG VV001 12/11 A2978 RMK FG8 SLP087

CYHM;2009-06-09 11:45;CYHM 091145Z 25004KT 1/2SM FG OVC003 RMK FG3SF5

CYHM;2009-06-09 11:52;CYHM 091152Z 24006KT 1SM BR BKN003 OVC018 RMK FG2SF5SC1

CYHM;2009-06-09 12:00;CYHM 091200Z 26005KT 2SM BR SCT005 OVC015 13/13 A2981 RMK SF3SC5 SLP096

CYHM;2009-06-09 12:32;CYHM 091232Z 26008KT 5SM BR FEW010 BKN017 BKN035 RMK SF2SC5SC1

CYHM;2009-06-09 13:00;CYHM 091300Z 25010KT 6SM BR FEW012 BKN018 16/15 A2981 RMK CF1SC6 SLP098

CYHM;2009-06-09 14:00;CYHM 091400Z 28014G20KT 15SM FEW016 BKN035 BKN055 17/14 A2983 RMK CU2SC3SC1 SLP102

CYHM;2009-06-09 15:00;CYHM 091500Z 29016KT 15SM FEW015 BKN021 16/12 A2986 RMK CU2SC4 SLP113

CYHM;2009-06-09 16:00;CYHM 091600Z 27014KT 15SM BKN018 16/12 A2988 RMK SC6 CU TR ASOCTD SLP119

CYHM;2009-06-09 17:00;CYHM 091700Z 28012KT 15SM FEW018 BKN025 18/13 A2988 RMK CU2SC3 SLP121

CYHM;2009-06-09 18:00;CYHM 091800Z 25012KT 15SM FEW019 BKN023 18/13 A2989 RMK CU2SC4 SLP122

CYHM;2009-06-09 19:00;CYHM 091900Z 27010KT 15SM BKN025 19/13 A2989 RMK CU5 SC ASOCTD SLP124

CYHM;2009-06-09 20:00;CYHM 092000Z 28011KT 15SM SCT024 18/13 A2990 RMK SC4 CU ASOCTD SLP127

CYHM;2009-06-09 21:00;CYHM 092100Z 28013KT 15SM SCT024 18/13 A2991 RMK CU3 SLP128

CYHM;2009-06-09 22:00;CYHM 092200Z 28009KT 15SM FEW024 18/12 A2991 RMK CU2 SLP129

CYHM;2009-06-09 23:00;CYHM 092300Z 29010KT 15SM FEW026 17/12 A2993 RMK SC2 CU ASOCTD SLP136

CYHM;2009-06-10 00:00;CYHM 100000Z 30006KT 15SM FEW024 16/11 A2993 RMK SC1 SLP135

CYHM;2009-06-10 01:00;CYHM 100100Z 30003KT 15SM FEW024 14/10 A2994 RMK SC1 SLP140

CYHM;2009-06-10 02:00;CYHM 100200Z 31002KT 15SM FEW022 FEW250 13/10 A2996 RMK SC1CI1 CI TR SLP147

CYHM;2009-06-10 03:00;CYHM 100300Z 00000KT 15SM FEW022 FEW250 12/09 A2999 RMK SC1CI1 SC TR SLP158

CYHM;2009-06-10 04:00;CYHM 100400Z 02002KT 15SM FEW250 11/09 A2999 RMK CI1 CI TR SLP157

CYHM;2009-06-10 05:00;CYHM 100500Z 06003KT 15SM BKN250 11/09 A2998 RMK CI2 SLP155

CYHM;2009-06-10 06:00;CYHM 100600Z 34002KT 15SM BKN250 10/08 A2997 RMK CI6 SLP152

CYHM;2009-06-10 07:00;CYHM 100700Z 00000KT 15SM BKN250 10/08 A2997 RMK CI5 SLP151

CYHM;2009-06-10 08:00;CYHM 100800Z 00000KT 15SM FEW220 BKN260 09/08 A2996 RMK CC2CI4 SLP147

CYHM;2009-06-10 09:00;CYHM 100900Z 24002KT 15SM FEW034 BKN220 09/09 A2997 RMK SC2CI4 SLP150

CYHM;2009-06-10 10:00;CYHM 101000Z 00000KT 15SM BKN200 BKN260 09/09 A2998 RMK CC5CI2 SLP153

CYHM;2009-06-10 11:00;CYHM 101100Z 00000KT 15SM BKN150 OVC210 10/09 A2997 RMK AC6CI2 SLP151

CYHM;2009-06-10 12:00;CYHM 101200Z 00000KT 15SM FEW020 BKN130 BKN170 12/10 A2997 RMK CU1AC6AC2 CU TR SLP152

CYHM;2009-06-10 13:00;CYHM 101300Z 07003KT 15SM FEW020 FEW160 BKN210 14/10 A2997 RMK CU1AC2CI2 CU TR SLP152

CYHM;2009-06-10 14:00;CYHM 101400Z 00000KT 15SM SCT160 BKN210 15/10 A2998 RMK AC3CI2 SLP153

CYHM;2009-06-10 15:00;CYHM 101500Z 00000KT 15SM BKN170 BKN210 17/11 A2997 RMK AC6CI2 SLP152

CYHM;2009-06-10 16:00;CYHM 101600Z 00000KT 15SM FEW025 FEW150 BKN220 18/11 A2997 RMK CU1AC2CI2 SLP150

CYHM;2009-06-10 17:00;CYHM 101700Z 00000KT 15SM FEW035 SCT150 BKN220 19/12 A2996 RMK CU1AC3CI2 SLP146

CYHM;2009-06-10 18:00;CYHM 101800Z 00000KT 15SM FEW035 SCT150 BKN220 20/13 A2994 RMK CU1AC3CI2 SLP140

CYHM;2009-06-10 19:00;CYHM 101900Z 15002KT 15SM FEW034 FEW140 BKN250 20/12 A2994 RMK SC1AC2CI4 WND L/V SLP138

CYHM;2009-06-10 20:00;CYHM 102000Z 00000KT 15SM FEW034 SCT140 BKN250 21/13 A2993 RMK SC2AC2CI2 SLP136

CYHM;2009-06-10 21:00;CYHM 102100Z 08003KT 15SM SCT140 BKN250 20/13 A2991 RMK AC3CI2 WND L/V SLP131

CYHM;2009-06-10 22:00;CYHM 102200Z 10002KT 15SM FEW140 SCT250 21/13 A2991 RMK AC2CI2 WND L/V SLP129

CYHM;2009-06-10 23:00;CYHM 102300Z 04006KT 15SM BKN110 BKN250 19/13 A2991 RMK AC6CI1 SLP128

CYHM;2009-06-11 00:00;CYHM 110000Z 04005KT 15SM FEW085 BKN110 17/11 A2991 RMK AC2AC6 SLP131

CYHM;2009-06-11 01:00;CYHM 110100Z 05006KT 15SM FEW078 BKN120 16/11 A2992 RMK AC2AC6 SLP132

CYHM;2009-06-11 02:00;CYHM 110200Z 05005KT 15SM BKN120 15/10 A2992 RMK AC7 SLP134

CYHM;2009-06-11 03:00;CYHM 110300Z 00000KT 15SM SCT120 14/10 A2993 RMK AC2 SLP135

CYHM;2009-06-11 04:00;CYHM 110400Z 04007KT 15SM FEW037 FEW210 13/10 A2991 RMK SC1CI1 SLP131

CYHM;2009-06-11 05:00;CYHM 110500Z 04007KT 15SM FEW220 13/10 A2993 RMK CI2 SLP135

CYHM;2009-06-11 06:00;CYHM 110600Z 04007KT 15SM FEW050 FEW220 12/09 A2992 RMK SC1CI1 SLP131

CYHM;2009-06-11 07:00;CYHM 110700Z 03007KT 15SM FEW050 BKN210 12/09 A2991 RMK SC2CI2 SLP130

CYHM;2009-06-11 08:00;CYHM 110800Z 03007KT 15SM FEW090 12/09 A2990 RMK AC2 SLP125

CYHM;2009-06-11 09:00;CYHM 110900Z 04006KT 15SM FEW050 BKN210 12/10 A2989 RMK SC2CI2 SLP121

CYHM;2009-06-11 10:00;CYHM 111000Z 05006KT 15SM FEW050 BKN170 11/10 A2989 RMK SC2AC4 SLP122

CYHM;2009-06-11 11:00;CYHM 111100Z 06006KT 15SM FEW150 OVC220 12/11 A2987 RMK AC2CI6 SLP115

CYHM;2009-06-11 12:00;CYHM 111200Z 06008KT 15SM SCT160 OVC180 13/11 A2987 RMK AC3AS5 SLP114

CYHM;2009-06-11 13:00;CYHM 111300Z 04006KT 15SM BKN088 OVC160 14/11 A2988 RMK AC6AS2 SLP119

CYHM;2009-06-11 14:00;CYHM 111400Z 03008KT 15SM SCT090 BKN170 OVC220 15/11 A2987 RMK AC3AS3CI2 SLP114

CYHM;2009-06-11 15:00;CYHM 111500Z 03010KT 15SM FEW150 BKN180 OVC220 16/11 A2986 RMK AC2AS5CI2 SLP113

CYHM;2009-06-11 16:00;CYHM 111600Z 05010KT 15SM FEW060 BKN090 OVC210 17/11 A2985 RMK SC2AC4CI2 SLP109

CYHM;2009-06-11 17:00;CYHM 111700Z 07010KT 15SM BKN086 OVC120 17/12 A2983 RMK AC6AC2 SLP103

CYHM;2009-06-11 18:00;CYHM 111800Z 07012KT 15SM FEW050 BKN073 BKN095 OVC210 17/11 A2983 RMK SC2AC3AC2CI1 SLP102

CYHM;2009-06-11 19:00;CYHM 111900Z 03009KT 15SM FEW050 BKN076 OVC220 18/11 A2981 RMK SC2AC4CI2 SLP096

CYHM;2009-06-11 20:00;CYHM 112000Z CCA 03009KT 15SM FEW052 BKN067 OVC220 17/11 A2981 RMK SC2AC5CI2 SLP094

CYHM;2009-06-11 21:00;CYHM 112100Z 04007KT 15SM -SHRA BKN047 OVC067 17/11 A2980 RMK SC7AC1 PCPN VRY LGT SLP091

CYHM;2009-06-11 22:00;CYHM 112200Z 05006KT 15SM -SHRA BKN044 OVC068 17/11 A2980 RMK SC6AC2 PCPN VRY LGT SLP092

CYHM;2009-06-11 23:00;CYHM 112300Z 03004KT 12SM -SHRA OVC048 15/12 A2981 RMK SC8 SLP094

CYHM;2009-06-12 00:00;CYHM 120000Z 04006KT 8SM -SHRA BKN044 OVC071 15/12 A2980 RMK SC6AC2 SLP092

CYHM;2009-06-12 01:00;CYHM 120100Z 03007KT 7SM -SHRA SCT049 OVC110 15/13 A2980 RMK SC3AC5 SLP091

CYHM;2009-06-12 02:00;CYHM 120200Z 02009KT 12SM -SHRA FEW048 OVC110 15/13 A2980 RMK SC2AC6 SLP093

CYHM;2009-06-12 03:00;CYHM 120300Z 02006KT 8SM -SHRA BKN033 OVC110 14/13 A2980 RMK SC6AC2 SLP092

CYHM;2009-06-12 04:00;CYHM 120400Z 03007KT 15SM -SHRA BKN036 OVC130 15/13 A2980 RMK SC6AC2 SLP093

CYHM;2009-06-12 05:00;CYHM 120500Z 36004KT 15SM SCT037 OVC045 14/13 A2980 RMK SC4SC4 SLP091

CYHM;2009-06-12 06:00;CYHM 120600Z 32004KT 15SM OVC044 14/12 A2980 RMK SC8 SLP092

CYHM;2009-06-12 07:00;CYHM 120700Z 33004KT 15SM OVC047 14/12 A2980 RMK SC8 SLP093

CYHM;2009-06-12 08:00;CYHM 120800Z 34004KT 15SM OVC041 14/11 A2981 RMK SC8 SLP094

CYHM;2009-06-12 09:00;CYHM 120900Z 32004KT 15SM BKN049 BKN071 14/11 A2982 RMK SC6AC1 SLP098

CYHM;2009-06-12 10:00;CYHM 121000Z 00000KT 15SM FEW065 BKN150 13/10 A2984 RMK SC2AC4 SLP107

CYHM;2009-06-12 11:00;CYHM 121100Z 33002KT 15SM FEW065 BKN140 15/11 A2986 RMK SC2AC4 SLP111

CYHM;2009-06-12 12:00;CYHM 121200Z 33004KT 15SM FEW064 FEW150 15/11 A2986 RMK SC1AC1 SLP113

CYHM;2009-06-12 13:00;CYHM 121300Z 02005KT 15SM FEW150 FEW220 17/12 A2987 RMK AC1CI1 AC TR CI TR SLP114

CYHM;2009-06-12 14:00;CYHM 121400Z 03005KT 15SM FEW160 FEW220 19/12 A2987 RMK AC1CI1 AC TR CI TR SLP116

CYHM;2009-06-12 15:00;CYHM 121500Z 02006KT 15SM FEW032 FEW160 FEW220 20/13 A2988 RMK CU1AC1CI1 CU TR AC TR CI TR SLP117

CYHM;2009-06-12 16:00;CYHM 121600Z 03008KT 15SM FEW035 SCT220 21/13 A2988 RMK CU2CI1 SLP117

CYHM;2009-06-12 17:00;CYHM 121700Z 03005KT 15SM FEW040 SCT220 21/13 A2987 RMK CU2CI1 CONTRAIL SLP115

CYHM;2009-06-12 18:00;CYHM 121800Z 01006KT 320V040 15SM FEW040 SCT220 23/13 A2988 RMK CU2CI1 SLP119

CYHM;2009-06-12 19:00;CYHM 121900Z 00000KT 15SM SCT050 SCT075 BKN230 23/13 A2988 RMK CU3AC1CI0 SLP119

CYHM;2009-06-12 20:00;CYHM 122000Z 00000KT 15SM SCT055 BKN077 23/12 A2989 RMK CU3AC2 TCU ASOCTD SLP122

CYHM;2009-06-12 21:00;CYHM 122100Z 00000KT 15SM BKN061 BKN092 23/13 A2990 RMK SC5AC2 TCU ASOCTD SLP123

CYHM;2009-06-12 22:00;CYHM 122200Z 20007KT 15SM SCT060 SCT090 22/13 A2990 RMK SC3AC1 CB ASOCTD SLP123

CYHM;2009-06-12 23:00;CYHM 122300Z 23007KT 15SM SCT053 BKN090 21/13 A2990 RMK SC3AC2 TCU ASOCTD SLP124

CYHM;2009-06-13 00:00;CYHM 130000Z 21007KT 15SM FEW050 BKN070 20/13 A2991 RMK SC2AC2 CB TOP NE SLP128

CYHM;2009-06-13 01:00;CYHM 130100Z 29005KT 15SM BKN057 BKN080 19/13 A2993 RMK SC5AC1 CB TOP NE SLP134

CYHM;2009-06-13 02:00;CYHM 130200Z 29005KT 15SM FEW055 18/12 A2993 RMK SC2 TCU ASOCTD SLP135

CYHM;2009-06-13 03:00;CYHM 130300Z 33009KT 15SM FEW050 FEW220 17/11 A2994 RMK SC2CI1 SLP136

CYHM;2009-06-13 04:00;CYHM 130400Z 35005KT 15SM FEW058 BKN072 17/11 A2994 RMK SC1AC6 SLP139

CYHM;2009-06-13 05:00;CYHM 130500Z 35005KT 15SM FEW065 SCT077 15/11 A2995 RMK SC2AC2 TCU ASOCTD SLP141

CYHM;2009-06-13 06:00;CYHM 130600Z 00000KT 15SM FEW058 BKN083 16/11 A2996 RMK SC2AC3 SLP145

CYHM;2009-06-13 07:00;CYHM 130700Z 00000KT 15SM BKN055 BKN083 15/11 A2997 RMK SC5AC1 SLP146

CYHM;2009-06-13 08:00;CYHM 130800Z 00000KT 15SM FEW065 BKN230 13/11 A2996 RMK SC2CI5 SLP145

CYHM;2009-06-13 09:00;CYHM 130900Z 00000KT 15SM FEW070 BKN210 13/10 A2996 RMK AC2CI3 SLP145

CYHM;2009-06-13 10:00;CYHM 131000Z 33004KT 15SM SCT070 BKN220 13/08 A2997 RMK AC3CI3 SLP148

CYHM;2009-06-13 11:00;CYHM 131100Z 00000KT 15SM FEW070 BKN220 12/08 A2998 RMK AC1CI3 SLP151

CYHM;2009-06-13 12:00;CYHM 131200Z 30007KT 15SM FEW070 FEW170 BKN240 16/08 A2999 RMK AC1AC2CI2 TR AC AT 7000 SLP156

CYHM;2009-06-13 13:00;CYHM 131300Z 30010KT 15SM BKN150 BKN230 17/08 A3000 RMK AC5CI2 SLP157

CYHM;2009-06-13 14:00;CYHM 131400Z 30005KT 15SM FEW050 BKN150 BKN230 17/08 A3001 RMK SC1AC6CI1 SC TR SLP160

CYHM;2009-06-13 15:00;CYHM 131500Z 30010KT 15SM BKN140 18/08 A3000 RMK AC7 VIRGA SLP160

CYHM;2009-06-13 16:00;CYHM 131600Z 28008KT 15SM FEW040 OVC120 18/07 A3001 RMK SC1AC8 VIRGA SLP161

CYHM;2009-06-13 17:00;CYHM 131700Z 30006KT 270V360 15SM OVC098 18/08 A3000 RMK AC8 VIRGA SLP159

CYHM;2009-06-13 18:00;CYHM 131800Z 26004KT 15SM BKN095 18/09 A3000 RMK AC7 SLP160

CYHM;2009-06-13 19:00;CYHM 131900Z 27007KT 240V310 15SM FEW035 SCT080 BKN100 19/10 A2999 RMK CU1AC2AC4 SLP157

CYHM;2009-06-13 20:00;CYHM 132000Z 27006KT 240V310 15SM FEW036 FEW075 BKN110 20/10 A2998 RMK CU1AC2AC4 SLP153

CYHM;2009-06-13 21:00;CYHM 132100Z 29005KT 250V340 15SM FEW040 FEW070 SCT110 BKN250 21/09 A2997 RMK CU1AC1AC2CI2 SLP151

CYHM;2009-06-13 22:00;CYHM 132200Z 27006KT 15SM FEW040 SCT110 BKN250 21/10 A2997 RMK CU2AC2CI2 SLP150

CYHM;2009-06-13 23:00;CYHM 132300Z 25005KT 15SM FEW040 FEW075 FEW110 BKN240 20/09 A2997 RMK CU1AC1AC1CI3 SLP151

CYHM;2009-06-14 00:00;CYHM 140000Z 24007KT 15SM FEW040 FEW080 FEW110 BKN250 20/09 A2998 RMK CU1AC1AC1CI2 SLP151

CYHM;2009-06-14 01:00;CYHM 140100Z 25005KT 15SM FEW040 FEW056 FEW100 SCT250 18/08 A2998 RMK CU1SC2AC1CI1 CU TR SLP152

CYHM;2009-06-14 02:00;CYHM 140200Z 25006KT 15SM FEW060 FEW250 16/08 A2999 RMK SC1CI1 CI TR SLP154

CYHM;2009-06-14 03:00;CYHM 140300Z 27005KT 15SM SKC 15/08 A2999 RMK SLP156

CYHM;2009-06-14 04:00;CYHM 140400Z 32006KT 15SM FEW220 15/09 A2999 RMK CI1 SLP156

CYHM;2009-06-14 05:00;CYHM 140500Z 34004KT 15SM FEW090 FEW210 13/09 A3000 RMK AC2CI1 SLP159

CYHM;2009-06-14 06:00;CYHM 140600Z 32003KT 15SM FEW210 12/09 A3000 RMK CI1 SLP161

CYHM;2009-06-14 07:00;CYHM 140700Z 00000KT 15SM SKC 11/09 A3000 RMK SLP160

CYHM;2009-06-14 08:00;CYHM 140800Z 00000KT 15SM SKC 11/08 A3001 RMK SLP162

CYHM;2009-06-14 09:00;CYHM 140900Z 32003KT 15SM FEW210 10/08 A3001 RMK CI1 SLP162

CYHM;2009-06-14 10:00;CYHM 141000Z 28004KT 15SM FEW220 10/08 A3002 RMK CI1 SLP167

CYHM;2009-06-14 11:00;CYHM 141100Z 27006KT 15SM FEW240 12/09 A3005 RMK CI1 SLP176

CYHM;2009-06-14 12:00;CYHM 141200Z 31006KT 15SM FEW240 16/09 A3005 RMK CI1 SLP176

CYHM;2009-06-14 13:00;CYHM 141300Z 26004KT 15SM FEW250 19/09 A3004 RMK CI1 SLP174

CYHM;2009-06-14 14:00;CYHM 141400Z 29004KT 220V320 15SM FEW250 19/10 A3005 RMK CI1 SLP177

CYHM;2009-06-14 15:00;CYHM 141500Z 24004KT 15SM FEW250 21/10 A3004 RMK CI1 SLP172

CYHM;2009-06-14 16:00;CYHM 141600Z 28002KT 15SM FEW045 FEW250 21/10 A3004 RMK CU1CI1 CI TR SLP171

CYHM;2009-06-14 17:00;CYHM 141700Z 24006KT 200V300 15SM FEW050 FEW250 22/09 A3003 RMK CU1CI1 CU TR SLP168

CYHM;2009-06-14 18:00;CYHM 141800Z 27002KT 15SM FEW060 FEW250 23/07 A3001 RMK CU1CI1 SLP162

CYHM;2009-06-14 19:00;CYHM 141900Z 27004KT 220V310 15SM SCT060 SCT095 BKN220 24/09 A2999 RMK CU4AC1CI1 AC TR SLP156

CYHM;2009-06-14 20:00;CYHM 142000Z 12002KT 15SM SCT062 SCT090 SCT220 23/08 A2998 RMK CU4AC1CI1 AC TR CI TR WND L/V SLP154

CYHM;2009-06-14 20:47;CYHM 142047Z 18011KT 15SM SCT062 BKN079 RMK CU3AC2 WSHFT 2032

CYHM;2009-06-14 21:00;CYHM 142100Z 19011KT 15SM SCT058 BKN080 23/12 A2997 RMK CU3AC2 SLP151

CYHM;2009-06-14 22:00;CYHM 142200Z 19011KT 15SM FEW050 SCT075 BKN120 21/12 A2997 RMK CU2AC2AC2 TCU ASOCTD SLP150

CYHM;2009-06-14 22:17;CYHM 142217Z 19011KT 15SM -SHRA FEW050 BKN075 BKN120 RMK CU2AC2AC2 TCU EMBD

CYHM;2009-06-14 22:51;CYHM 142251Z 18009KT 15SM VCSH FEW050 BKN068 BKN098 RMK CU2AC3AC2 TCU EMBD

CYHM;2009-06-14 23:00;CYHM 142300Z 18009KT 15SM VCSH FEW045 SCT066 BKN090 BKN140 20/12 A2997 RMK CU2AC2AC2AC1 TCU EMBD SLP151

CYHM;2009-06-15 00:00;CYHM 150000Z 16006KT 15SM VCSH FEW045 BKN064 BKN085 19/13 A2997 RMK CU2SC3AC1 SLP149

CYHM;2009-06-15 01:00;CYHM 150100Z 19006KT 15SM FEW045TCU SCT064 SCT220 17/12 A2998 RMK TCU1SC3CI1 SLP151

CYHM;2009-06-15 01:24;CYHM 150124Z 19006KT 15SM FEW045TCU SCT080 RMK TCU2AC2 LTGIC DIST NE CB DIST NE

CYHM;2009-06-15 02:00;CYHM 150200Z 19006KT 15SM FEW045TCU SCT085 16/12 A2999 RMK TCU2AC2 TCU NE SLP156

CYHM;2009-06-15 03:00;CYHM 150300Z 22007KT 15SM FEW080 BKN140 14/11 A3000 RMK AC1AC4 SLP160

CYHM;2009-06-15 04:00;CYHM 150400Z 28007KT 15SM BKN110 BKN140 15/11 A3000 RMK AC5AC1 SLP160

CYHM;2009-06-15 05:00;CYHM 150500Z 33007KT 15SM BKN150 16/10 A3000 RMK AC5 SLP159

CYHM;2009-06-15 06:00;CYHM 150600Z 00000KT 15SM BKN091 15/10 A3000 RMK AC6 SLP157

CYHM;2009-06-15 07:00;CYHM 150700Z 32004KT 15SM FEW080 13/09 A3000 RMK AC2 SLP158

CYHM;2009-06-15 08:00;CYHM 150800Z 00000KT 15SM FEW080 14/09 A3001 RMK AC1 SLP161

CYHM;2009-06-15 09:00;CYHM 150900Z 33003KT 15SM FEW035 FEW090 13/09 A3002 RMK SC1AC1 SLP164

CYHM;2009-06-15 10:00;CYHM 151000Z 00000KT 15SM FEW055 FEW120 11/09 A3004 RMK SC1AC1 SC TR AC TR SLP172

CYHM;2009-06-15 11:00;CYHM 151100Z 00000KT 15SM FEW220 14/10 A3006 RMK CI1 SLP177

CYHM;2009-06-15 12:00;CYHM 151200Z 35002KT 15SM FEW220 16/10 A3006 RMK CI1 CI TR SLP180

CYHM;2009-06-15 13:00;CYHM 151300Z 11004KT 15SM SKC 17/10 A3007 RMK SLP183

CYHM;2009-06-15 14:00;CYHM 151400Z 09006KT 15SM SKC 19/11 A3007 RMK SLP183

CYHM;2009-06-15 15:00;CYHM 151500Z 11004KT 15SM FEW040 20/12 A3008 RMK CU1 CU TR SLP186

CYHM;2009-06-15 16:00;CYHM 151600Z 00000KT 15SM FEW035 20/11 A3007 RMK CU2 SLP184

CYHM;2009-06-15 17:00;CYHM 151700Z 23006KT 15SM SCT048 22/11 A3007 RMK CU3 SLP183

CYHM;2009-06-15 18:00;CYHM 151800Z 01004KT 15SM SCT054 SCT060 22/11 A3006 RMK CU3SC1 SLP178

CYHM;2009-06-15 19:00;CYHM 151900Z 27006KT 15SM SCT062 24/11 A3005 RMK CU3 SLP174

CYHM;2009-06-15 20:00;CYHM 152000Z 26005KT 15SM SCT065 23/10 A3005 RMK CU4 AC ASOCTD SLP175

CYHM;2009-06-15 21:00;CYHM 152100Z 23008KT 15SM SCT070 24/10 A3004 RMK AC4 CU ASOCTD SLP173

CYHM;2009-06-15 22:00;CYHM 152200Z 18011KT 15SM FEW070 23/12 A3004 RMK AC2 CU ASOCTD SLP172

CYHM;2009-06-15 23:00;CYHM 152300Z 20009KT 15SM FEW078 FEW250 22/11 A3004 RMK AC2CI1 CI TR SLP171

CYHM;2009-06-16 00:00;CYHM 160000Z 20007KT 15SM FEW080 FEW250 21/11 A3004 RMK AC1CI1 CI TR SLP172

CYHM;2009-06-16 01:00;CYHM 160100Z 19004KT 15SM FEW080 FEW250 18/11 A3004 RMK AC1CI1 CI TR SLP174

CYHM;2009-06-16 02:00;CYHM 160200Z 21003KT 15SM FEW078 FEW250 17/10 A3005 RMK AC1CI1 AC TR CI TR SLP177

CYHM;2009-06-16 03:00;CYHM 160300Z 00000KT 15SM FEW078 15/10 A3007 RMK AC1 SLP181

CYHM;2009-06-16 04:00;CYHM 160400Z 08005KT 15SM FEW078 13/10 A3008 RMK AC1 AC TR SLP187

CYHM;2009-06-16 05:00;CYHM 160500Z 09004KT 15SM SKC 14/10 A3008 RMK SLP187

CYHM;2009-06-16 06:00;CYHM 160600Z 05005KT 15SM SKC 10/07 A3008 RMK SLP187

CYHM;2009-06-16 07:00;CYHM 160700Z 06006KT 15SM SKC 13/10 A3008 RMK SLP186

CYHM;2009-06-16 08:00;CYHM 160800Z 06005KT 15SM SKC 13/10 A3009 RMK SLP189

CYHM;2009-06-16 09:00;CYHM 160900Z 06003KT 15SM SKC 12/10 A3011 RMK SLP197

CYHM;2009-06-16 10:00;CYHM 161000Z 05005KT 15SM SKC 11/10 A3011 RMK SLP197

CYHM;2009-06-16 11:00;CYHM 161100Z 05006KT 15SM SKC 14/11 A3011 RMK SLP197

CYHM;2009-06-16 12:00;CYHM 161200Z 05006KT 15SM SKC 16/12 A3015 RMK SLP209

CYHM;2009-06-16 13:00;CYHM 161300Z 04008KT 15SM FEW240 18/13 A3015 RMK CI1 CI TR SLP209

CYHM;2009-06-16 14:00;CYHM 161400Z 03006KT 15SM FEW240 20/13 A3014 RMK CI0 CI TR SLP205

CYHM;2009-06-16 15:00;CYHM 161500Z 06005KT 15SM FEW030 FEW240 21/13 A3014 RMK CU1CI1 CU TR SLP208

CYHM;2009-06-16 16:00;CYHM 161600Z 06007KT 15SM FEW030 FEW240 22/13 A3014 RMK CU1CI0 SLP206

CYHM;2009-06-16 17:00;CYHM 161700Z 06013KT 15SM FEW030 SCT210 22/13 A3013 RMK CU1CI1 CONTRAIL SLP203

CYHM;2009-06-16 18:00;CYHM 161800Z 06014KT 15SM FEW030 SCT210 23/13 A3012 RMK CU1CI1 SLP199

CYHM;2009-06-16 19:00;CYHM 161900Z 05012G19KT 15SM FEW036 SCT250 22/13 A3011 RMK CU1CI1 CONTRAILS SLP198

CYHM;2009-06-16 20:00;CYHM 162000Z 05014G20KT 15SM FEW040 SCT250 21/12 A3010 RMK CU1CI1 CU TR CONTRAILS SLP195

CYHM;2009-06-16 21:00;CYHM 162100Z 06014G20KT 15SM BKN250 20/11 A3010 RMK CI1 CONTRAILS SLP194

CYHM;2009-06-16 22:00;CYHM 162200Z 06013G19KT 15SM BKN250 20/11 A3010 RMK CI2 CONTRAILS SLP193

CYHM;2009-06-16 23:00;CYHM 162300Z 06015KT 15SM BKN250 19/10 A3009 RMK CI2 CONTRAILS SLP190

CYHM;2009-06-17 00:00;CYHM 170000Z 05014G20KT 15SM BKN250 18/11 A3007 RMK CS6 SLP183

CYHM;2009-06-17 01:00;CYHM 170100Z 05015KT 15SM OVC250 17/11 A3006 RMK CS6 CONTRAILS SLP180

CYHM;2009-06-17 02:00;CYHM 170200Z 04012KT 15SM FEW080 BKN250 16/12 A3007 RMK AC2CS2 SLP182

CYHM;2009-06-17 03:00;CYHM 170300Z 03010KT 15SM FEW060 FEW170 BKN220 16/12 A3006 RMK SC1AC2CI2 SC TR SLP178

CYHM;2009-06-17 04:00;CYHM 170400Z 04008KT 15SM FEW180 BKN220 15/13 A3006 RMK AC1CI2 SLP178

CYHM;2009-06-17 05:00;CYHM 170500Z 04004KT 15SM BKN210 15/13 A3006 RMK CI2 SLP179

CYHM;2009-06-17 06:00;CYHM 170600Z 05006KT 12SM BKN220 15/13 A3005 RMK CI3 SLP175

CYHM;2009-06-17 07:00;CYHM 170700Z 10006KT 10SM BKN220 16/14 A3003 RMK CI6 SLP169

CYHM;2009-06-17 08:00;CYHM 170800Z 07005KT 10SM FEW100 OVC190 16/14 A3003 RMK AC1AS6 SLP168

CYHM;2009-06-17 09:00;CYHM 170900Z 05006KT 9SM SCT055 BKN078 OVC190 16/14 A3003 RMK SC4AC1AS2 SLP167

CYHM;2009-06-17 10:00;CYHM 171000Z 05006KT 6SM BR SCT054 BKN081 OVC180 16/14 A3002 RMK SC4AC2AS2 SLP165

CYHM;2009-06-17 11:00;CYHM 171100Z 05007KT 8SM FEW060 OVC180 16/14 A3002 RMK SC2AC6 SLP165

CYHM;2009-06-17 12:00;CYHM 171200Z 05008KT 7SM FEW060 SCT085 BKN160 17/15 A3001 RMK SC2AC2AC3 SLP164

CYHM;2009-06-17 13:00;CYHM 171300Z 05006KT 8SM SCT085 OVC150 18/15 A3002 RMK AC4AC4 SLP165

CYHM;2009-06-17 14:00;CYHM 171400Z 15010KT 10SM SCT028 BKN078 BKN160 20/15 A3001 RMK SC3AC2AC2 CU ASOCTD SLP164

CYHM;2009-06-17 15:00;CYHM 171500Z 12014KT 15SM BKN028 OVC045 20/15 A3001 RMK SC6SC2 SLP160

CYHM;2009-06-17 16:00;CYHM 171600Z 13010KT 15SM BKN030 OVC045 20/14 A2999 RMK SC6SC2 SLP154

CYHM;2009-06-17 16:26;CYHM 171626Z 13012KT 15SM -SHRA BKN027 OVC040 RMK SC7SC1

CYHM;2009-06-17 17:00;CYHM 171700Z 14010KT 7SM -SHRA OVC030 19/15 A2998 RMK SC8 SLP151

CYHM;2009-06-17 18:00;CYHM 171800Z 12012KT 6SM -SHRA OVC026 18/16 A2996 RMK SC8 SLP145

CYHM;2009-06-17 19:00;CYHM 171900Z 12013KT 5SM -SHRA BR FEW015 BKN022 OVC032 17/15 A2994 RMK CF1SC5SC2 SLP140

CYHM;2009-06-17 19:41;CYHM 171941Z 11012KT 4SM -SHRA BR BKN009 BKN016 OVC022 RMK SF5SC2SC1

CYHM;2009-06-17 20:00;CYHM 172000Z CCA 09012KT 3SM -RA BR BKN009 OVC016 17/15 A2992 RMK SF6SC2 SLP132

CYHM;2009-06-17 21:00;CYHM 172100Z 07012KT 6SM -RA BR BKN008 OVC017 16/15 A2990 RMK SF5SC3 SLP126

CYHM;2009-06-17 21:29;CYHM 172129Z 06010KT 2SM -RA BR BKN005 OVC015 RMK FG1SF6SC2

CYHM;2009-06-17 22:00;CYHM 172200Z 09013KT 1 1/2SM -RA BR BKN004 OVC015 16/15 A2988 RMK FG2SF5SC2 SLP120

CYHM;2009-06-17 22:25;CYHM 172225Z 08008KT 2SM -RA BR BKN010 BKN018 OVC024 RMK SF5SC2SC1

CYHM;2009-06-17 23:00;CYHM 172300Z 07012KT 2SM -RA BR BKN004 BKN011 OVC018 16/15 A2986 RMK SF6SC2SC1 SLP112

CYHM;2009-06-18 00:00;CYHM 180000Z 04012KT 4SM -RA BR BKN004 OVC012 16/14 A2985 RMK SF6SC2 SLP108

CYHM;2009-06-18 00:35;CYHM 180035Z 06012KT 2 1/2SM -RA BR BKN003 OVC011 RMK SF6SC2

CYHM;2009-06-18 00:49;CYHM 180049Z 05014KT 1 1/2SM -RA BR BKN005 OVC010 RMK FG2SF6SC1

CYHM;2009-06-18 01:00;CYHM 180100Z 06012KT 1 1/2SM -RA BR OVC003 15/14 A2983 RMK FG2SF6 SLP102

CYHM;2009-06-18 02:00;CYHM 180200Z 06010KT 1 1/2SM -RA BR OVC003 15/14 A2982 RMK FG2SF6 VIS VRB 1 - 2 SLP099

CYHM;2009-06-18 03:00;CYHM 180300Z 05010KT 2SM -RA BR OVC002 15/14 A2982 RMK FG1SF7 SLP099

CYHM;2009-06-18 03:09;CYHM 180309Z 05010KT 2SM +RA BR SCT005 OVC015 RMK RA1SF3SC4

CYHM;2009-06-18 03:25;CYHM 180325Z 05010KT 2 1/2SM -RA BR BKN006 OVC020 RERA RMK SF6SC2

CYHM;2009-06-18 04:00;CYHM 180400Z 05009KT 3SM -RA BR OVC004 14/14 A2980 RERA RMK SF8 VIS VRB 2 - 4 SLP091

CYHM;2009-06-18 04:32;CYHM 180432Z 05007KT 3/4SM -RA BR OVC002 RMK FG2SF6 VIS VRB 1/2 - 1

CYHM;2009-06-18 04:49;CYHM 180449Z 04010KT 1/4SM -RA FG VV001 RMK FG8

CYHM;2009-06-18 05:00;CYHM 180500Z 05010KT 1/4SM -RA FG VV001 14/14 A2978 RMK FG8 SLP084

CYHM;2009-06-18 05:21;CYHM 180521Z 04009KT 1/8SM -RA FG VV001 RMK FG8

CYHM;2009-06-18 05:34;CYHM 180534Z 04008KT 3/4SM -RA BR OVC001 RMK FG2SF6 VIS VRB 1/2 - 1

CYHM;2009-06-18 06:00;CYHM 180600Z 03008KT 1 1/2SM -RA BR OVC003 14/14 A2977 RMK FG2SF6 VIS VRB 1 - 2 SLP082

CYHM;2009-06-18 07:00;CYHM 180700Z 05009KT 2SM -RA BR OVC004 14/14 A2975 RMK FG1SF7 SLP076

CYHM;2009-06-18 08:00;CYHM 180800Z 02008KT 2SM -RA BR OVC003 14/14 A2976 RMK FG1SF7 SLP079

CYHM;2009-06-18 09:00;CYHM 180900Z 02008KT 2 1/2SM -RA BR OVC003 14/14 A2977 RMK SF8 CIG RAG SLP081

CYHM;2009-06-18 10:00;CYHM 181000Z 01012KT 2SM -RA BR OVC002 14/13 A2977 RMK FG1SF7 SLP080

CYHM;2009-06-18 10:32;CYHM 181032Z 02012KT 1 1/2SM -RA BR OVC002 RMK FG2SF6

CYHM;2009-06-18 11:00;CYHM 181100Z 02012KT 1 1/2SM -RA BR OVC002 14/13 A2977 RMK FG2SF6 CIG RAG SLP081

CYHM;2009-06-18 12:00;CYHM 181200Z 03012KT 1 1/2SM -RA BR OVC005 14/13 A2979 RMK FG2SF6 SLP089

CYHM;2009-06-18 13:00;CYHM 181300Z 02010KT 1 1/2SM -RA BR OVC003 13/13 A2981 RMK FG2SF6 SLP094

CYHM;2009-06-18 13:25;CYHM 181325Z 01012KT 1 1/2SM -RA BR OVC006 RMK FG1SF7

CYHM;2009-06-18 14:00;CYHM 181400Z 01008KT 2SM -RA BR OVC007 14/13 A2983 RMK FG1SF7 PCPN VRY LGT SLP103

CYHM;2009-06-18 15:00;CYHM 181500Z 02012KT 2SM -RA BR OVC004 14/13 A2984 RMK FG1SF7 SLP108

CYHM;2009-06-18 16:00;CYHM 181600Z 02010KT 3SM -DZ BR BKN005 OVC010 14/13 A2985 RMK SF6SC2 RERA SLP110

CYHM;2009-06-18 16:31;CYHM 181631Z 02006KT 5SM BR SCT007 OVC017 RMK SF3SC5

CYHM;2009-06-18 17:00;CYHM 181700Z 01006KT 4SM -DZ BR BKN009 OVC014 14/13 A2987 RMK SF5SC3 SLP115

CYHM;2009-06-18 17:34;CYHM 181734Z 05005KT 2 1/2SM -DZ BR OVC007 RMK SF8

CYHM;2009-06-18 17:43;CYHM 181743Z 06004KT 3SM -RA BR BKN005 OVC011 RMK SF6SC2

CYHM;2009-06-18 18:00;CYHM 181800Z 06002KT 3SM -RA BR BKN007 OVC014 14/13 A2988 RMK SF6SC2 SLP118

CYHM;2009-06-18 18:35;CYHM 181835Z 03005KT 350V070 6SM BR BKN007 BKN015 OVC022 RMK SF5SC2SC2

CYHM;2009-06-18 19:00;CYHM 181900Z 02005KT 340V090 9SM BKN009 BKN021 15/14 A2987 RMK SF5SC2 SLP116

CYHM;2009-06-18 20:00;CYHM 182000Z 04003KT 9SM BKN009 OVC015 16/14 A2987 RMK SC6SC2 SLP116

CYHM;2009-06-18 21:00;CYHM 182100Z 36005KT 9SM OVC010 16/14 A2988 RMK SC8 SLP119

CYHM;2009-06-18 21:54;CYHM 182154Z 01002KT 9SM FEW012 BKN024 OVC036 RMK SC2SC3SC2

CYHM;2009-06-18 22:00;CYHM 182200Z 34002KT 9SM FEW012 BKN024 OVC036 16/14 A2989 RMK SC2SC3SC2 SLP123

CYHM;2009-06-18 23:00;CYHM 182300Z 36002KT 9SM OVC023 17/14 A2989 RMK SC8 SLP122

CYHM;2009-06-19 00:00;CYHM 190000Z 00000KT 12SM BKN019 OVC036 16/14 A2989 RMK SC6SC2 SLP122

CYHM;2009-06-19 01:00;CYHM 190100Z 00000KT 8SM SCT023 OVC035 16/14 A2988 RMK SC3SC5 SLP121

CYHM;2009-06-19 02:00;CYHM 190200Z 22002KT 8SM FEW022 OVC035 16/14 A2991 RMK SC2SC6 SLP130

CYHM;2009-06-19 03:00;CYHM 190300Z 00000KT 10SM OVC033 15/14 A2991 RMK SC8 SLP128

CYHM;2009-06-19 04:00;CYHM 190400Z 23004KT 7SM OVC032 15/14 A2991 RMK SC8 SLP130

CYHM;2009-06-19 04:05;CYHM 190405Z 23004KT 7SM FEW002 OVC032 RMK SF2SC6

CYHM;2009-06-19 04:50;CYHM 190450Z 27003KT 3SM BR BKN002 BKN031 RMK SF5SC2

CYHM;2009-06-19 05:00;CYHM 190500Z CCA 27002KT 2 1/2SM BR BKN002 BKN031 15/14 A2990 RMK SF6SC2 SLP125

CYHM;2009-06-19 05:34;CYHM 190534Z 25004KT 1 1/2SM BR OVC002 RMK FG2SF6

CYHM;2009-06-19 06:00;CYHM 190600Z 26006KT 2SM BR OVC002 15/14 A2991 RMK FG2SF6 SLP128

CYHM;2009-06-19 06:45;CYHM 190645Z 25002KT 1/4SM FG VV001 RMK FG8

CYHM;2009-06-19 07:00;CYHM 190700Z 27004KT 1/4SM FG VV001 14/14 A2987 RMK FG8 SLP117

CYHM;2009-06-19 08:00;CYHM 190800Z 29002KT 1/8SM FG VV001 14/13 A2988 RMK FG8 SLP119

CYHM;2009-06-19 09:00;CYHM 190900Z 00000KT 0SM FG VV001 13/13 A2988 RMK FG8 SLP118

CYHM;2009-06-19 10:00;CYHM 191000Z 00000KT 0SM FG VV001 13/13 A2987 RMK FG8 SLP117

CYHM;2009-06-19 11:00;CYHM 191100Z 00000KT 1/8SM FG VV001 13/12 A2987 RMK FG8 SLP116

CYHM;2009-06-19 11:45;CYHM 191145Z 00000KT 1/2SM FG OVC001 RMK FG5SF3

CYHM;2009-06-19 12:00;CYHM 191200Z 00000KT 1/2SM FG OVC002 13/13 A2990 RMK FG5SF3 CIG RGD SLP125

CYHM;2009-06-19 12:53;CYHM 191253Z 23004KT 3/4SM BR OVC002 RMK FG3SF5

CYHM;2009-06-19 13:00;CYHM 191300Z 24004KT 3/4SM BR OVC002 14/14 A2992 RMK FG3SF5 SLP134

CYHM;2009-06-19 13:13;CYHM 191313Z 24002KT 1 1/2SM BR OVC002 RMK FG2SF6

CYHM;2009-06-19 13:27;CYHM 191327Z 22002KT 3SM BR BKN002 OVC020 RMK SF5SC3

CYHM;2009-06-19 14:00;CYHM 191400Z 00000KT 5SM BR FEW005 BKN022 BKN045 OVC120 15/15 A2991 RMK SF2SC3SC2AC2 SLP131

CYHM;2009-06-19 15:00;CYHM 191500Z 20005KT 15SM SCT015 SCT055 BKN120 BKN220 17/15 A2990 RMK CU3SC1AC2CI1 SLP124

CYHM;2009-06-19 16:00;CYHM 191600Z 13004KT 15SM FEW022 SCT032 BKN130 BKN210 18/15 A2988 RMK CU2SC1AC2CI1 SLP117

CYHM;2009-06-19 17:00;CYHM 191700Z 10006KT 15SM FEW022 SCT170 BKN210 20/15 A2985 RMK CU2AC1CI2 SLP109

CYHM;2009-06-19 18:00;CYHM 191800Z 11008KT 15SM FEW028 FEW035 SCT170 BKN210 21/15 A2984 RMK CU1SC1AC2CI1 SLP106

CYHM;2009-06-19 19:00;CYHM 191900Z 08004KT 15SM FEW027 FEW160 BKN230 22/16 A2982 RMK CU1AC2CI2 SLP099

CYHM;2009-06-19 20:00;CYHM 192000Z 10007KT 15SM FEW030 SCT150 BKN230 22/16 A2983 RMK CU1AC2CI2 SLP101

CYHM;2009-06-19 21:00;CYHM 192100Z 16003KT 15SM FEW033 FEW180 BKN250 23/16 A2983 RMK CU1AC2CI2 SLP101

CYHM;2009-06-19 22:00;CYHM 192200Z 07002KT 15SM FEW035 FEW160 BKN230 22/16 A2981 RMK CU1AC2CI4 SLP094

CYHM;2009-06-19 23:00;CYHM 192300Z 07007KT 15SM FEW140 BKN200 21/16 A2979 RMK AC2CI6 SLP088

CYHM;2009-06-20 00:00;CYHM 200000Z 08007KT 15SM FEW150 BKN230 20/16 A2978 RMK AC2CI5 SLP086

CYHM;2009-06-20 01:00;CYHM 200100Z 07005KT 15SM FEW077 BKN210 18/15 A2978 RMK AC2CI5 TCU TOPS DSNT SW SLP084

CYHM;2009-06-20 02:00;CYHM 200200Z 07004KT 15SM OVC170 18/15 A2977 RMK AC8 SLP082

CYHM;2009-06-20 03:00;CYHM 200300Z 06004KT 15SM OVC180 18/15 A2978 RMK AC7 SLP084

CYHM;2009-06-20 04:00;CYHM 200400Z 05003KT 15SM FEW077 OVC180 18/15 A2977 RMK AC2AC6 SLP080

CYHM;2009-06-20 05:00;CYHM 200500Z CCC 08006KT 15SM BKN063 OVC150 17/15 A2972 RMK SC7AC1 PRESFR SLP063

CYHM;2009-06-20 06:00;CYHM 200600Z 00000KT 15SM FEW030 SCT060 OVC120 18/15 A2971 RMK CF1SC2AC5 SLP060

CYHM;2009-06-20 06:39;CYHM 200639Z 05003KT 12SM -SHRA SCT033 OVC110 RMK SC3AC5

CYHM;2009-06-20 07:00;CYHM 200700Z 04002KT 10SM -SHRA BKN038 OVC070 17/15 A2968 RMK SC6AC2 SLP051

CYHM;2009-06-20 08:00;CYHM 200800Z 05005KT 4SM -SHRA BR FEW010 OVC025 16/15 A2963 RMK CF2SC6 PRESFR SLP033

CYHM;2009-06-20 08:13;CYHM 200813Z 04008KT 2SM -SHRA BR OVC007 RMK FG1SF7

CYHM;2009-06-20 09:00;CYHM 200900Z 03007KT 1 1/2SM -SHRA BR OVC002 15/15 A2961 RMK FG2SF6 VIS VRB 1 - 2 SLP024

CYHM;2009-06-20 09:34;CYHM 200934Z 02008KT 3/4SM -SHRA BR OVC002 RMK FG3SF5 VIS VRB 1/2 - 1

CYHM;2009-06-20 09:44;CYHM 200944Z 02011KT 1/4SM -RA FG VV001 RMK FG8

CYHM;2009-06-20 10:00;CYHM 201000Z 03008KT 1/2SM -RA FG VV002 15/14 A2960 RMK FG8 SLP023

CYHM;2009-06-20 10:10;CYHM 201010Z 03005KT 3/8SM -RA FG VV002 RMK FG8 PCPN VRY LGT

CYHM;2009-06-20 11:00;CYHM 201100Z 03009KT 1/4SM -RA FG VV002 15/14 A2961 RMK FG8 SLP026

CYHM;2009-06-20 11:28;CYHM 201128Z 02008KT 1SM -RA BR OVC002 RMK FG5SF3

CYHM;2009-06-20 11:49;CYHM 201149Z 02008KT 2SM -RA BR OVC002 RMK FG1SF7

CYHM;2009-06-20 12:00;CYHM 201200Z 02008KT 2SM -RA BR OVC002 15/14 A2960 RMK FG1SF7 SLP023

CYHM;2009-06-20 13:00;CYHM 201300Z 03010KT 2 1/2SM -RA BR OVC002 14/14 A2959 RMK FG1SF7 SLP021

CYHM;2009-06-20 14:00;CYHM 201400Z 02008KT 1/2SM FG OVC002 14/14 A2960 RMK FG6SF2 PCPN VRY LGT SLP022

CYHM;2009-06-20 14:25;CYHM 201425Z 01008KT 1/4SM -RA FG VV001 RMK FG8

CYHM;2009-06-20 15:00;CYHM 201500Z 02010KT 1/4SM -RA FG VV001 15/14 A2961 RMK FG8 SLP027

CYHM;2009-06-20 15:14;CYHM 201514Z 01008KT 5/8SM -RA BR OVC002 RMK FG6SF2

CYHM;2009-06-20 15:49;CYHM 201549Z 03008KT 2SM -RA BR OVC002 RMK FG1SF7

CYHM;2009-06-20 16:00;CYHM 201600Z 02009KT 2SM -RA BR OVC002 15/15 A2962 RMK FG1SF7 SLP029

CYHM;2009-06-20 16:12;CYHM 201612Z 02006KT 3SM -RA BR OVC002 RMK SF8

CYHM;2009-06-20 17:00;CYHM 201700Z 02007KT 2 1/2SM -RA BR OVC003 16/15 A2962 RMK FG1SF7 SLP030

CYHM;2009-06-20 18:00;CYHM 201800Z 02006KT 2SM -RA BR BKN003 OVC006 16/15 A2962 RMK FG1SF6SC2 SLP030

CYHM;2009-06-20 18:51;CYHM 201851Z 03004KT 2 1/2SM -SHRA BR SCT003 OVC006 RMK FG1SF3SC4 PCPN VRY LGT

CYHM;2009-06-20 19:00;CYHM 201900Z 03004KT 3SM BR SCT003 OVC006 16/15 A2964 RMK SF4SC4 SLP036

CYHM;2009-06-20 19:10;CYHM 201910Z 02005KT 2 1/2SM -SHRA BR BKN003 OVC006 RMK FG1SF4SC3

CYHM;2009-06-20 20:00;CYHM 202000Z 04005KT 3SM BR BKN004 OVC012 16/15 A2965 RMK SF6SC2 SLP040

CYHM;2009-06-20 21:00;CYHM 202100Z 05004KT 3SM BR BKN005 BKN012 16/15 A2964 RMK SF6SC2 SLP038

CYHM;2009-06-20 21:28;CYHM 202128Z 06003KT 4SM BR SCT005 BKN010 RMK SF4SC3

CYHM;2009-06-20 22:00;CYHM 202200Z 08002KT 5SM BR SCT005 BKN009 17/15 A2965 RMK SF3SC4 SLP040

CYHM;2009-06-20 22:39;CYHM 202239Z 03002KT 7SM SCT008 BKN040 RMK SC4SC1

CYHM;2009-06-20 23:00;CYHM 202300Z 06002KT 8SM FEW005 BKN009 18/16 A2965 RMK SF2SC4 SLP039

CYHM;2009-06-20 23:35;CYHM 202335Z 06004KT 9SM FEW005 SCT009 BKN035 RMK SF2SC2SC1

CYHM;2009-06-21 00:00;CYHM 210000Z 06006KT 10SM FEW005 BKN009 BKN035 BKN100 17/15 A2965 RMK SF2SC2SC1AC1 AC TR SLP042

CYHM;2009-06-21 00:32;CYHM 210032Z 05007KT 6SM BR BKN005 RMK SF7

CYHM;2009-06-21 00:41;CYHM 210041Z 06008KT 5SM BR OVC004 RMK SF8

CYHM;2009-06-21 01:00;CYHM 210100Z 05009KT 4SM BR OVC003 15/14 A2967 RMK ST8 SLP048

CYHM;2009-06-21 01:23;CYHM 210123Z 04008KT 2 1/2SM BR OVC003 RMK FG1ST7

CYHM;2009-06-21 02:00;CYHM 210200Z 04008KT 4SM BR FEW002 OVC004 15/14 A2971 RMK SF2ST6 SLP060

CYHM;2009-06-21 02:09;CYHM 210209Z 03012KT 2SM -RA BR OVC004 RMK FG1SF7

CYHM;2009-06-21 03:00;CYHM 210300Z 02010KT 1 1/2SM -RA BR OVC003 15/14 A2973 RMK FG2SF6 VIS VRB 1 - 2 SLP067

CYHM;2009-06-21 03:43;CYHM 210343Z 36007KT 5SM BR OVC003 RMK SF8

CYHM;2009-06-21 04:00;CYHM 210400Z 36007KT 6SM BR BKN005 OVC015 15/14 A2974 RMK SF6SC2 SLP071

CYHM;2009-06-21 04:13;CYHM 210413Z 35006KT 6SM BR FEW004 BKN011 RMK SF2SC2

CYHM;2009-06-21 05:00;CYHM 210500Z 35009KT 7SM FEW005 OVC017 15/14 A2975 RMK SF2SC6 MAMMA SLP073

CYHM;2009-06-21 06:00;CYHM 210600Z 33005KT 15SM FEW013 14/13 A2976 RMK SC2 SLP078

CYHM;2009-06-21 07:00;CYHM 210700Z 32005KT 15SM OVC020 15/14 A2976 RMK SC8 SLP080

CYHM;2009-06-21 08:00;CYHM 210800Z 32005KT 15SM FEW024 FEW033 15/14 A2976 RMK CF1SC2 SLP080

CYHM;2009-06-21 09:00;CYHM 210900Z 33005KT 15SM FEW030 15/13 A2978 RMK SC2 SLP084

CYHM;2009-06-21 10:00;CYHM 211000Z 29005KT 15SM BKN039 14/13 A2979 RMK SC5 SLP088

CYHM;2009-06-21 11:00;CYHM 211100Z 33007KT 15SM FEW042 15/14 A2980 RMK SC1 SLP092

CYHM;2009-06-21 12:00;CYHM 211200Z 33007KT 15SM FEW045 18/15 A2981 RMK SC1 SLP094

CYHM;2009-06-21 13:00;CYHM 211300Z 31006KT 270V010 15SM FEW050 20/16 A2982 RMK SC1 SLP098

CYHM;2009-06-21 14:00;CYHM 211400Z 29006KT 15SM FEW050 FEW150 21/16 A2983 RMK SC1AC2 SC TR SLP100

CYHM;2009-06-21 15:00;CYHM 211500Z CCA 25004KT 200V300 15SM SCT024 SCT150 22/17 A2983 RMK CU4AC1 AC TR SLP099

CYHM;2009-06-21 16:00;CYHM 211600Z 27006KT 15SM SCT028 BKN040 BKN054 22/17 A2983 RMK CU4SC2SC2 SLP100

CYHM;2009-06-21 17:00;CYHM 211700Z 27004KT 230V340 15SM SCT028 BKN038 BKN067 23/17 A2983 RMK CU3SC2AC2 SLP100

CYHM;2009-06-21 18:00;CYHM 211800Z 33005KT 270V360 15SM BKN032 BKN083 24/18 A2983 RMK SC5AC2 CU ASOCTD SLP100

CYHM;2009-06-21 19:00;CYHM 211900Z 33007KT 300V360 15SM SCT034 BKN075 25/18 A2982 RMK CU4AC2 SLP098

CYHM;2009-06-21 20:00;CYHM 212000Z 30004KT 250V340 15SM SCT035 BKN075 25/18 A2982 RMK CU4AC1 SLP096

CYHM;2009-06-21 21:00;CYHM 212100Z 30006KT 270V330 15SM SCT040 BKN059 BKN075 26/17 A2980 RMK CU4SC1AC1 SLP090

CYHM;2009-06-21 22:00;CYHM 212200Z 33007KT 15SM SCT042 BKN064 26/17 A2980 RMK CU3SC2 TCU ASOCTD N SLP088

CYHM;2009-06-21 23:00;CYHM 212300Z 36004KT 330V040 15SM FEW044 SCT058 SCT075 26/16 A2980 RMK CU2SC1AC1 SLP088

CYHM;2009-06-22 00:00;CYHM 220000Z 02005KT 15SM FEW045 SCT066 25/16 A2980 RMK CU2AC2 SLP090

CYHM;2009-06-22 01:00;CYHM 220100Z 03004KT 15SM FEW045 SCT066 BKN078 24/16 A2982 RMK CU1AC3AC2 SLP095

CYHM;2009-06-22 02:00;CYHM 220200Z 07003KT 15SM FEW062 SCT078 BKN100 23/16 A2983 RMK SC2AC2AC2 SLP099

CYHM;2009-06-22 03:00;CYHM 220300Z 03005KT 15SM BKN051 BKN100 22/16 A2984 RMK SC6AC1 SLP101

CYHM;2009-06-22 04:00;CYHM 220400Z 04005KT 15SM FEW055 FEW230 21/16 A2984 RMK SC1CI1 SLP102

CYHM;2009-06-22 05:00;CYHM 220500Z 00000KT 15SM FEW060 FEW230 19/16 A2984 RMK SC1CI1 SLP103

CYHM;2009-06-22 06:00;CYHM 220600Z 35005KT 15SM FEW050 FEW230 18/15 A2984 RMK SC1CI1 TR SC SLP103

CYHM;2009-06-22 07:00;CYHM 220700Z 36007KT 15SM FEW050 19/15 A2984 RMK SC1 SLP102

CYHM;2009-06-22 08:00;CYHM 220800Z 02005KT 15SM SKC 18/15 A2984 RMK SLP103

CYHM;2009-06-22 09:00;CYHM 220900Z 04005KT 15SM FEW040 17/15 A2985 RMK SC1 SLP105

CYHM;2009-06-22 10:00;CYHM 221000Z 03007KT 15SM FEW040 17/15 A2985 RMK SC1 SLP107

CYHM;2009-06-22 11:00;CYHM 221100Z 03006KT 15SM FEW040 FEW220 19/15 A2987 RMK SC1CI1 AC TR CI TR SLP111

CYHM;2009-06-22 12:00;CYHM 221200Z 05006KT 15SM FEW220 20/16 A2988 RMK CI1 CI TR SLP114

CYHM;2009-06-22 13:00;CYHM 221300Z 05005KT 15SM FEW025 22/17 A2988 RMK CU1 CU TR SLP115

CYHM;2009-06-22 14:00;CYHM 221400Z 06010KT 15SM FEW025 FEW035 21/17 A2988 RMK CU1SC2 SLP117

CYHM;2009-06-22 15:00;CYHM 221500Z 06012KT 15SM FEW013 SCT030 22/17 A2989 RMK CU1SC2 SLP118

CYHM;2009-06-22 16:00;CYHM 221600Z 04012KT 15SM FEW020 22/18 A2989 RMK CU1 SLP118

CYHM;2009-06-22 17:00;CYHM 221700Z 06007KT 15SM FEW020 FEW240 23/18 A2988 RMK CU1CI1 CU TR CI TR SLP117

CYHM;2009-06-22 18:00;CYHM 221800Z 08004KT 15SM FEW020 FEW240 23/18 A2988 RMK CU1CI0 CU TR CI TR SLP116

CYHM;2009-06-22 19:00;CYHM 221900Z 06008KT 15SM FEW028 FEW250 25/18 A2987 RMK CU1CI1 SLP113

CYHM;2009-06-22 20:00;CYHM 222000Z 06006KT 15SM FEW032 SCT250 25/17 A2985 RMK CU1CI1 CONTRAILS SLP108

CYHM;2009-06-22 21:00;CYHM 222100Z 08007KT 15SM FEW034 BKN250 24/18 A2985 RMK CU1CI1 CU TR SLP107

CYHM;2009-06-22 22:00;CYHM 222200Z 07007KT 15SM FEW030 SCT250 25/18 A2984 RMK CU1CI2 SLP104

CYHM;2009-06-22 23:00;CYHM 222300Z 07005KT 15SM FEW030 BKN250 25/18 A2984 RMK CU1CI2 CU TR CONTRAILS SLP103

CYHM;2009-06-23 00:00;CYHM 230000Z 10004KT 15SM FEW028 BKN250 25/18 A2985 RMK CU1CI2 CU TR SLP106

CYHM;2009-06-23 01:00;CYHM 230100Z 09003KT 15SM FEW028 FEW120 SCT250 24/17 A2985 RMK CU1AC1CI2 CU TR AC TR SLP107

CYHM;2009-06-23 02:00;CYHM 230200Z 00000KT 15SM FEW120 BKN250 22/17 A2987 RMK AC1CI2 SLP112

CYHM;2009-06-23 03:00;CYHM 230300Z 00000KT 15SM SCT250 21/17 A2988 RMK CI2 SLP117

CYHM;2009-06-23 04:00;CYHM 230400Z 00000KT 15SM FEW250 20/16 A2989 RMK CI2 SLP118

CYHM;2009-06-23 05:00;CYHM 230500Z 00000KT 15SM FEW250 19/16 A2990 RMK CI1 SLP122

CYHM;2009-06-23 06:00;CYHM 230600Z 07002KT 15SM FEW250 19/16 A2990 RMK CI1 SLP122

CYHM;2009-06-23 07:00;CYHM 230700Z 00000KT 15SM FEW250 18/16 A2989 RMK CI1 SLP120

CYHM;2009-06-23 08:00;CYHM 230800Z 30002KT 15SM FEW250 17/16 A2990 RMK CI1 SLP122

CYHM;2009-06-23 09:00;CYHM 230900Z 07003KT 15SM FEW120 FEW250 16/15 A2991 RMK AC1CI1 AC TR CI TR SLP125

CYHM;2009-06-23 10:00;CYHM 231000Z 07003KT 15SM FEW120 FEW250 16/15 A2991 RMK AC1CI2 AC TR SLP128

CYHM;2009-06-23 11:00;CYHM 231100Z 06002KT 15SM FEW140 SCT240 19/17 A2992 RMK AC1CI2 AC TR SLP131

CYHM;2009-06-23 12:00;CYHM 231200Z 00000KT 15SM FEW240 21/16 A2994 RMK CI2 SLP134

CYHM;2009-06-23 13:00;CYHM 231300Z 00000KT 15SM FEW028 FEW240 22/16 A2995 RMK CU1CI0 CU TR SLP139

CYHM;2009-06-23 14:00;CYHM 231400Z 00000KT 15SM FEW032 FEW240 23/16 A2995 RMK CU1CI1 CU TR CONTRAIL SLP139

CYHM;2009-06-23 15:00;CYHM 231500Z 00000KT 15SM FEW032 FEW240 24/16 A2995 RMK CU1CI1 SLP138

CYHM;2009-06-23 16:00;CYHM 231600Z 06008KT 15SM FEW035 FEW240 24/17 A2994 RMK CU1CI0 SLP137

CYHM;2009-06-23 17:00;CYHM 231700Z 33002KT 15SM FEW035 FEW240 25/16 A2994 RMK CU1CI0 CI TR SLP137

CYHM;2009-06-23 18:00;CYHM 231800Z 05005KT 15SM FEW040 FEW250 26/15 A2994 RMK CU1CI1 CI TR SLP134

CYHM;2009-06-23 19:00;CYHM 231900Z 05002KT 15SM FEW052 FEW250 26/14 A2992 RMK CU1CI1 CI TR SLP130

CYHM;2009-06-23 20:00;CYHM 232000Z 08006KT 15SM FEW054 FEW250 27/13 A2991 RMK CU1CI1 CU TR CI TR SLP127

CYHM;2009-06-23 21:00;CYHM 232100Z 09004KT 15SM FEW058 FEW250 27/12 A2991 RMK CU1CI1 CU TR CI TR SLP126

CYHM;2009-06-23 22:00;CYHM 232200Z 00000KT 15SM FEW060 FEW250 27/12 A2990 RMK CU1CI1 CU TR CI TR SLP122

CYHM;2009-06-23 23:00;CYHM 232300Z 12002KT 15SM FEW060 FEW250 27/14 A2989 RMK CU1CI1 CU TR CI TR SLP120

CYHM;2009-06-24 00:00;CYHM 240000Z 20004KT 15SM FEW070 FEW250 26/14 A2990 RMK AC1CI1 AC TR CI TR SLP121

CYHM;2009-06-24 01:00;CYHM 240100Z 19003KT 15SM FEW070 FEW250 23/16 A2990 RMK AC1CI1 AC TR CI TR SLP123

CYHM;2009-06-24 02:00;CYHM 240200Z 24002KT 15SM FEW070 21/16 A2991 RMK AC1 AC TR SLP124

CYHM;2009-06-24 03:00;CYHM 240300Z 24002KT 15SM FEW070 21/16 A2991 RMK AC1 AC TR SLP127

CYHM;2009-06-24 04:00;CYHM 240400Z 27005KT 15SM SKC 20/17 A2992 RMK SLP129

CYHM;2009-06-24 05:00;CYHM 240500Z CCA 27002KT 15SM SKC 20/17 A2992 RMK SLP128

CYHM;2009-06-24 06:00;CYHM 240600Z 28003KT 15SM SKC 19/17 A2991 RMK SLP126

CYHM;2009-06-24 07:00;CYHM 240700Z 03004KT 15SM SKC 18/16 A2992 RMK SLP128

CYHM;2009-06-24 08:00;CYHM 240800Z 00000KT 15SM SKC 19/16 A2991 RMK SLP127

CYHM;2009-06-24 09:00;CYHM 240900Z 24004KT 15SM FEW120 FEW250 16/14 A2991 RMK AC1CI1 AC TR CI TR SLP128

CYHM;2009-06-24 10:00;CYHM 241000Z 26004KT 15SM FEW120 FEW250 16/15 A2992 RMK AC1CI1 AC TR SLP129

CYHM;2009-06-24 11:00;CYHM 241100Z 00000KT 15SM FEW230 18/17 A2992 RMK CI1 CI TR SLP131

CYHM;2009-06-24 12:00;CYHM 241200Z 27002KT 15SM SCT240 22/18 A2993 RMK CI2 SLP132

CYHM;2009-06-24 13:00;CYHM 241300Z 26006KT 15SM SCT240 24/19 A2993 RMK CI2 SLP132

CYHM;2009-06-24 14:00;CYHM 241400Z 27004KT 15SM FEW180 FEW240 26/19 A2993 RMK AC1CI1 AC TR SLP131

CYHM;2009-06-24 15:00;CYHM 241500Z 32007KT 15SM FEW240 27/16 A2993 RMK CI1 CI TR SLP132

CYHM;2009-06-24 16:00;CYHM 241600Z 24002KT 15SM FEW040 28/16 A2992 RMK CU1 CU TR SLP128

CYHM;2009-06-24 17:00;CYHM 241700Z 25002KT 15SM FEW030 29/16 A2991 RMK CU2 SLP127

CYHM;2009-06-24 18:00;CYHM 241800Z 22002KT 15SM FEW060 29/15 A2990 RMK CU2 WND L/V SLP122

CYHM;2009-06-24 19:00;CYHM 241900Z 00000KT 15SM FEW065 30/17 A2989 RMK CU2 SLP117

CYHM;2009-06-24 20:00;CYHM 242000Z 23004KT 15SM FEW072 30/15 A2988 RMK AC2 SLP114

CYHM;2009-06-24 21:00;CYHM 242100Z 33003KT 15SM FEW074 31/16 A2987 RMK AC2 SLP111

CYHM;2009-06-24 22:00;CYHM 242200Z 00000KT 15SM FEW075 31/16 A2985 RMK AC1 SLP105

CYHM;2009-06-24 23:00;CYHM 242300Z 19009KT 15SM FEW045 FEW070 FEW250 29/18 A2985 RMK CU1AC1CI1 TR CI SLP105

CYHM;2009-06-25 00:00;CYHM 250000Z 22007KT 15SM FEW070 SCT210 28/19 A2985 RMK AC2CI2 SLP105

CYHM;2009-06-25 01:00;CYHM 250100Z 21005KT 15SM FEW070 SCT210 25/18 A2985 RMK AC2CI2 CONTRAILS SLP105

CYHM;2009-06-25 02:00;CYHM 250200Z 22005KT 15SM FEW070 FEW210 23/17 A2987 RMK AC2CI1 SLP110

CYHM;2009-06-25 03:00;CYHM 250300Z 23006KT 15SM FEW070 FEW210 21/17 A2986 RMK AC1CI1 SLP109

CYHM;2009-06-25 04:00;CYHM 250400Z 25005KT 15SM FEW210 22/16 A2986 RMK CI2 SLP109

CYHM;2009-06-25 05:00;CYHM 250500Z 26005KT 15SM SCT220 20/16 A2985 RMK CI3 SLP104

CYHM;2009-06-25 06:00;CYHM 250600Z 23005KT 15SM SCT220 19/16 A2984 RMK CI3 SLP102

CYHM;2009-06-25 07:00;CYHM 250700Z 24005KT 15SM BKN220 20/17 A2984 RMK CI5 SLP101

CYHM;2009-06-25 08:00;CYHM 250800Z 20005KT 15SM BKN250 19/17 A2984 RMK CI6 SLP102

CYHM;2009-06-25 09:00;CYHM 250900Z 22004KT 15SM BKN220 18/17 A2984 RMK CI6 SLP100

CYHM;2009-06-25 10:00;CYHM 251000Z 22005KT 15SM BKN160 18/17 A2984 RMK AC6 SLP100

CYHM;2009-06-25 11:00;CYHM 251100Z 25004KT 15SM FEW045 SCT075 BKN210 20/17 A2984 RMK SC1AC2CI2 SLP103

CYHM;2009-06-25 12:00;CYHM 251200Z 23008KT 15SM FEW160 BKN210 22/18 A2984 RMK AC1CI2 SLP101

CYHM;2009-06-25 13:00;CYHM 251300Z 22008KT 15SM FEW020 FEW160 SCT210 24/18 A2983 RMK CU1AC1CI2 CU TR SLP097

CYHM;2009-06-25 14:00;CYHM 251400Z 24010KT 15SM FEW025 SCT082 BKN210 27/19 A2981 RMK CU1AC2CI2 SLP092

CYHM;2009-06-25 15:00;CYHM 251500Z CCC 24008KT 15SM FEW032 BKN078 BKN210 28/20 A2981 RMK CU2AC3CI1 TCU ASOCTD SLP090

CYHM;2009-06-25 16:00;CYHM 251600Z 24012KT 15SM FEW036 BKN077 BKN210 29/20 A2980 RMK CU2AC3CI1 SC ASOCTD SLP088

CYHM;2009-06-25 16:29;CYHM 251629Z 01012KT 15SM TS BKN042 BKN074 RMK SC6AC2 CB ASOCTD

CYHM;2009-06-25 16:33;CYHM 251633Z 01012KT 10SM -TSRA BKN038 OVC074 RMK SC6AC2 CB EMBDED LTNG N-NE

CYHM;2009-06-25 16:42;CYHM 251642Z CCA 33025G30KT 1SM +TSRA OVC015 RMK SC8 CB EMBDD LTNG

CYHM;2009-06-25 16:48;CYHM 251648Z 33030G40KT 0SM +TSRA FG VV000 RMK FG8 CB EMBDD

CYHM;2009-06-25 17:00;CYHM 251700Z 20012G20KT 180V280 1/2SM +TSRA FG VV000 17/17 A2986 RMK FG8 CB EMBDD LTNG SLP107

CYHM;2009-06-25 17:15;CYHM 251715Z 16012KT 1 1/2SM -TSRA BR SCT005 OVC015 RMK FG2SF2SC4 CB EMBDD LTNG E-SE

CYHM;2009-06-25 17:28;CYHM 251728Z 12008KT 7SM -TSRA FEW010 OVC015 RMK SF2SC6 CB EMBDD LTNG

CYHM;2009-06-25 18:00;CYHM 251800Z 21009KT 10SM -TSRA FEW016 BKN022 OVC080 18/18 A2985 RMK SC2SC4AC2 CB EMBDD SLP108

CYHM;2009-06-25 18:40;CYHM 251840Z 11008KT 12SM TS FEW030 BKN035 BKN080 RMK CU1SC5AC2 DARK TWD E-S LTGCG CB EMBD

CYHM;2009-06-25 19:00;CYHM 251900Z CCA 15008KT 12SM FEW030 SCT035 BKN090 BKN140 22/18 A2978 RETS RMK CU1SC3AC2AC1 PRESFR SLP085

CYHM;2009-06-25 20:00;CYHM 252000Z 16015KT 15SM FEW035 FEW040 BKN080 BKN140 BKN240 23/20 A2978 RMK CU1SC2AC2AC2CI1 SLP086

CYHM;2009-06-25 21:00;CYHM 252100Z 10001KT 15SM FEW035 SCT080 BKN130 BKN240 24/19 A2979 RMK CU1AC3AC2CI1 SLP085

CYHM;2009-06-25 22:00;CYHM 252200Z 15001KT 10SM FEW030TCU BKN045 BKN120 BKN220 24/19 A2976 RMK TCU2SC3AC2CI1 CB EMBD DARK TWD NNW SLP076

CYHM;2009-06-25 22:19;CYHM 252219Z 01001KT 10SM -TSRA FEW030TCU BKN045 OVC120 RMK TCU2SC4AC2 CB EMBD DARK TWD NNW

CYHM;2009-06-25 22:47;CYHM 252247Z 14008KT 6SM -TSRA FEW025TCU BKN035 OVC080 RMK TCU2SC4AC2 CB EMBD LTGIC NNW

CYHM;2009-06-25 23:00;CYHM 252300Z 15004KT 10SM -TSRA FEW025TCU BKN035 BKN080 22/19 A2977 RMK TCU2SC4AC2 CB EMBD LTGIC S DARK TWD S SLP080

CYHM;2009-06-25 23:40;CYHM 252340Z 22008KT 15SM FEW025 FEW030 BKN090 BKN220 RETS RMK CU1SC2AC2CI2

CYHM;2009-06-26 00:00;CYHM 260000Z CCA 24009KT 15SM FEW025 FEW030 BKN090 BKN220 21/19 A2975 RETS RMK CU1SC2AC2CI2 SLP073

CYHM;2009-06-26 01:00;CYHM 260100Z 22006KT 15SM FEW025 FEW030 BKN080 BKN220 20/17 A2976 RMK CU1SC2AC3CI1 SLP075

CYHM;2009-06-26 02:00;CYHM 260200Z 24004KT 15SM FEW035 SCT080 BKN220 18/17 A2974 RMK SC2AC2CI1 SLP069

CYHM;2009-06-26 03:00;CYHM 260300Z 22005KT 15SM SCT080 18/17 A2975 RMK AC3 SLP071

CYHM;2009-06-26 04:00;CYHM 260400Z 21005KT 15SM BKN130 19/17 A2976 RMK AC7 SLP073

CYHM;2009-06-26 05:00;CYHM 260500Z 24006KT 15SM SCT120 BKN150 19/18 A2975 RMK AC3AC4 SLP071

CYHM;2009-06-26 05:31;CYHM 260531Z 24007KT 15SM -SHRA BKN099 OVC150 RMK AC6AC2

CYHM;2009-06-26 06:00;CYHM 260600Z 25006KT 15SM -SHRA BKN100 OVC140 19/18 A2976 RMK AC6AC2 SLP077

CYHM;2009-06-26 06:34;CYHM 260634Z 25005KT 15SM BKN095 BKN150 RMK AC6AC2 OCNL LTNG DSNT SE

CYHM;2009-06-26 07:00;CYHM 260700Z CCA 24005KT 15SM SCT095 BKN160 19/18 A2974 RMK AC4AC2 OCNL LTNG DSNT SE SLP071

CYHM;2009-06-26 08:00;CYHM 260800Z 21003KT 15SM FEW150 18/17 A2974 RMK AC2 SLP070

CYHM;2009-06-26 09:00;CYHM 260900Z 21006KT 15SM BKN130 18/18 A2973 RMK AC6 SLP064

CYHM;2009-06-26 10:00;CYHM 261000Z 22004KT 5SM BR BKN110 18/18 A2974 RMK AC7 SLP069

CYHM;2009-06-26 11:00;CYHM 261100Z 27006KT 6SM BR FEW025 SCT110 19/19 A2974 RMK CU1AC3 SLP069

CYHM;2009-06-26 12:00;CYHM 261200Z 25004KT 10SM FEW025 FEW060 SCT120 20/19 A2974 RMK CU1SC1AC2 SLP068

CYHM;2009-06-26 12:54;CYHM 261254Z 28004KT 15SM -SHRA BKN055 BKN074 RMK SC6AC2

CYHM;2009-06-26 13:00;CYHM 261300Z 28004KT 15SM -SHRA SCT021 BKN039 BKN100 21/19 A2974 RMK SC3SC2AC2 SLP068

CYHM;2009-06-26 13:21;CYHM 261321Z 30008KT 15SM FEW030 SCT060 SCT100 RMK SC1SC2AC1 RERA

CYHM;2009-06-26 14:00;CYHM 261400Z 25006KT 15SM FEW040 FEW120 SCT240 23/19 A2975 RMK SC1AC2CI1 CI TR SLP070

CYHM;2009-06-26 15:00;CYHM 261500Z 30008KT 15SM FEW030 FEW060 SCT120 BKN210 25/17 A2975 RMK CU1SC2AC2CI1 SLP071

CYHM;2009-06-26 16:00;CYHM 261600Z 29012KT 15SM FEW030 FEW140 FEW220 26/15 A2975 RMK CU1AC1CI0 CI TR SLP073

CYHM;2009-06-26 17:00;CYHM 261700Z 32012KT 15SM FEW030 FEW220 27/14 A2975 RMK CU1CI1 CU TR CI TR SLP072

CYHM;2009-06-26 18:00;CYHM 261800Z 33012G18KT 15SM FEW032 FEW220 27/15 A2975 RMK CU1CI1 CI TR SLP070

CYHM;2009-06-26 19:00;CYHM 261900Z 32015KT 15SM FEW060 FEW240 27/14 A2974 RMK CU2CI1 SLP068

CYHM;2009-06-26 20:00;CYHM 262000Z 31013KT 15SM FEW062 27/14 A2975 RMK CU2 SLP071

CYHM;2009-06-26 21:00;CYHM 262100Z 32014KT 15SM FEW065 26/14 A2976 RMK CU2 SLP074

CYHM;2009-06-26 22:00;CYHM 262200Z 33016KT 15SM FEW055 24/14 A2976 RMK CU2 TCU ASOCTD SLP076

CYHM;2009-06-26 23:00;CYHM 262300Z 34012KT 15SM FEW051 25/14 A2978 RMK CU2 TCU ASOCTD SLP081

CYHM;2009-06-27 00:00;CYHM 270000Z 33009KT 15SM FEW050 23/13 A2978 RMK SC1 SLP083

CYHM;2009-06-27 01:00;CYHM 270100Z 33008KT 15SM FEW045 21/13 A2981 RMK SC1 SLP091

CYHM;2009-06-27 02:00;CYHM 270200Z 34008KT 15SM SKC 20/13 A2984 RMK CONTRAILS SLP101

CYHM;2009-06-27 03:00;CYHM 270300Z 34011KT 15SM FEW100 FEW250 20/13 A2983 RMK AC1CI1 SLP099

CYHM;2009-06-27 04:00;CYHM 270400Z 33012KT 15SM FEW100 19/13 A2984 RMK AC1 SLP101

CYHM;2009-06-27 05:00;CYHM 270500Z 35010KT 15SM FEW085 19/13 A2984 RMK AC1 SLP102

CYHM;2009-06-27 06:00;CYHM 270600Z 35009KT 15SM SKC 18/13 A2984 RMK SLP104

CYHM;2009-06-27 07:00;CYHM 270700Z 33005KT 15SM SKC 16/13 A2984 RMK SLP102

CYHM;2009-06-27 08:00;CYHM 270800Z 35006KT 15SM SKC 16/13 A2986 RMK SLP110

CYHM;2009-06-27 09:00;CYHM 270900Z 33005KT 15SM FEW210 16/12 A2988 RMK CI1 SLP118

CYHM;2009-06-27 10:00;CYHM 271000Z 26002KT 15SM FEW220 14/12 A2989 RMK CI1 SLP121

CYHM;2009-06-27 11:00;CYHM 271100Z 33007KT 15SM FEW220 17/12 A2991 RMK CI1 SLP126

CYHM;2009-06-27 12:00;CYHM 271200Z 33010KT 15SM SKC 18/13 A2991 RMK SLP128

CYHM;2009-06-27 13:00;CYHM 271300Z 31007KT 270V360 15SM FEW250 20/13 A2992 RMK CI1 SLP131

CYHM;2009-06-27 14:00;CYHM 271400Z 32009KT 15SM FEW250 21/13 A2991 RMK CI1 SLP128

CYHM;2009-06-27 15:00;CYHM 271500Z 36012KT 15SM FEW250 22/11 A2991 RMK CI1 SLP125

CYHM;2009-06-27 16:00;CYHM 271600Z 36009KT 15SM FEW250 24/11 A2990 RMK CI1 SLP123

CYHM;2009-06-27 17:00;CYHM 271700Z 34007KT 15SM FEW050 FEW250 24/11 A2990 RMK CU1CI1 SLP123

CYHM;2009-06-27 18:00;CYHM 271800Z 33008KT 280V040 15SM FEW050 FEW250 26/12 A2990 RMK CU1CI1 SLP121

CYHM;2009-06-27 19:00;CYHM 271900Z 32003KT 15SM FEW050 FEW120 FEW220 26/12 A2990 RMK CU1AC1CI1 AC TR CI TR WND L/V SLP121

CYHM;2009-06-27 20:00;CYHM 272000Z 27004KT 15SM FEW062 FEW120 FEW220 27/13 A2988 RMK CU2AC1CI1 AC TR CI TR SLP116

CYHM;2009-06-27 21:00;CYHM 272100Z 31007KT 280V340 15SM FEW062 FEW240 27/14 A2986 RMK CU2CI1 CONTRAILS SLP110

CYHM;2009-06-27 22:00;CYHM 272200Z 28008KT 240V320 15SM FEW062 BKN250 27/14 A2986 RMK SC2CI2 CU ASOCTD SLP109

CYHM;2009-06-27 23:00;CYHM 272300Z 26004KT 15SM FEW062 BKN220 26/14 A2985 RMK SC2CI2 CU ASOCTD CONTRAILS SLP105

CYHM;2009-06-28 00:00;CYHM 280000Z 31004KT 15SM FEW062 BKN240 25/14 A2984 RMK SC1CI3 CU ASOCTD SLP102

CYHM;2009-06-28 01:00;CYHM 280100Z 23004KT 15SM FEW060 BKN250 22/17 A2984 RMK SC1CI4 SC TR CONTRAILS SLP101

CYHM;2009-06-28 02:00;CYHM 280200Z 03008KT 15SM FEW060 BKN250 21/13 A2984 RMK SC1CI3 SC TR SLP101

CYHM;2009-06-28 03:00;CYHM 280300Z 34004KT 15SM BKN250 19/13 A2983 RMK CI6 SLP100

CYHM;2009-06-28 04:00;CYHM 280400Z 02004KT 15SM BKN240 19/13 A2982 RMK CI7 SLP097

CYHM;2009-06-28 05:00;CYHM 280500Z 35002KT 15SM BKN190 20/12 A2982 RMK AC7 SLP097

CYHM;2009-06-28 06:00;CYHM 280600Z 06003KT 15SM OVC180 20/12 A2980 RMK AC8 SLP087

CYHM;2009-06-28 07:00;CYHM 280700Z 00000KT 15SM FEW110 BKN180 18/14 A2979 RMK AC2AC5 SLP085

CYHM;2009-06-28 08:00;CYHM 280800Z 27005KT 15SM FEW100 OVC160 18/14 A2979 RMK AC2AC6 SLP084

CYHM;2009-06-28 09:00;CYHM 280900Z 00000KT 15SM FEW085 FEW110 OVC130 18/14 A2978 RMK AC1AC1AC6 SLP080

CYHM;2009-06-28 10:00;CYHM 281000Z 24004KT 15SM FEW090 BKN110 18/15 A2977 RMK AC2AC6 SLP077

CYHM;2009-06-28 11:00;CYHM 281100Z 24008KT 15SM -SHRA BKN054 BKN076 18/14 A2977 RMK SC6AC2 SLP077

CYHM;2009-06-28 11:52;CYHM 281152Z 10002KT 15SM SCT055 OVC075 RMK SC3AC5

CYHM;2009-06-28 12:00;CYHM 281200Z 07002KT 15SM SCT055 OVC075 18/15 A2975 RMK SC3AC5 SLP071

CYHM;2009-06-28 12:33;CYHM 281233Z 08002KT 15SM -SHRA FEW055 BKN084 OVC100 RMK SC2AC4AC2

CYHM;2009-06-28 13:00;CYHM 281300Z 12004KT 15SM VCSH FEW055 SCT084 OVC130 18/15 A2972 RMK SC1AC3AC4 SLP063

CYHM;2009-06-28 14:00;CYHM 281400Z 17006KT 15SM FEW025 BKN081 OVC120 18/14 A2970 RMK CF1AC6AC2 CF TR VIRGA SLP055

CYHM;2009-06-28 14:24;CYHM 281424Z 16006KT 12SM -SHRA BKN060 OVC081 RMK SC6AC2

CYHM;2009-06-28 15:00;CYHM 281500Z 17006KT 15SM -SHRA OVC055 19/16 A2967 RMK SC8 PCPN VRY LGT SLP046

CYHM;2009-06-28 16:00;CYHM 281600Z 16004KT 15SM -SHRA OVC056 20/16 A2966 RMK SC8 PCPN VRY LGT SLP044

CYHM;2009-06-28 17:00;CYHM 281700Z 14004KT 15SM -SHRA BKN052 BKN080 20/16 A2964 RMK SC7AC1 AC TR PCPN VRY LGHT SLP035

CYHM;2009-06-28 17:27;CYHM 281727Z 15010KT 15SM BKN059 BKN080 RMK SC6AC1

CYHM;2009-06-28 18:00;CYHM 281800Z 18011KT 15SM FEW032 BKN054 BKN092 21/16 A2961 RMK SC2SC4AC1 SLP024

CYHM;2009-06-28 19:00;CYHM 281900Z 20009KT 15SM BKN018 OVC026 21/17 A2959 RMK SC6SC2 SLP019

CYHM;2009-06-28 20:00;CYHM 282000Z 25010KT 210V280 12SM BKN018 BKN027 23/19 A2958 RMK CU5SC2 SLP014

CYHM;2009-06-28 21:00;CYHM 282100Z 26009KT 230V300 12SM SCT022 BKN032 25/18 A2957 RMK CU4SC1 SLP011

CYHM;2009-06-28 22:00;CYHM 282200Z 30004KT 15SM SCT025 SCT035 25/18 A2955 RMK CU3SC1 SLP005

CYHM;2009-06-28 22:54;CYHM 282254Z 36002KT 15SM -SHRA SCT026TCU BKN044 BKN120 RMK TCU4SC1AC2 CB ASOCTD PCPN VRY LGT

CYHM;2009-06-28 23:00;CYHM 282300Z 03002KT 15SM SCT026CB BKN044 BKN110 24/18 A2953 RMK CB3SC2AC2 SLP998

CYHM;2009-06-28 23:29;CYHM 282329Z 08003KT 12SM -SHRA FEW025CB OVC049 RMK CB2SC6 VIRGA N

CYHM;2009-06-28 23:36;CYHM 282336Z 03020G32KT 1SM +TSRA SQ FEW006 OVC020CB RMK RA2CF1CB6 OCNL LTGIC

CYHM;2009-06-28 23:41;CYHM 282341Z 03003KT 5SM -TSRA OVC046 RERA RMK SC8 CB ASOCTD

CYHM;2009-06-29 00:00;CYHM 290000Z 16003KT 7SM -TSRA OVC030 18/17 A2957 RERA RMK SC8 CB ASOCTD SLP013

CYHM;2009-06-29 00:05;CYHM 290005Z 17008G21KT 1 1/2SM +TSRA OVC020 RMK RA2SC6 CB ASOCTD VIS VRB 1 - 2 PRESRR

CYHM;2009-06-29 00:26;CYHM 290026Z 23010G15KT 4SM -TSRA BR OVC050 RERA RMK SC8 CB ASOCTD

CYHM;2009-06-29 01:00;CYHM 290100Z 00000KT 15SM SCT030 BKN140 17/16 A2957 RETSRA RMK SC3AC2 CB ASOCTD N SLP011

CYHM;2009-06-29 02:00;CYHM 290200Z 25003KT 15SM BKN140 16/15 A2959 RMK AC5 SLP017

CYHM;2009-06-29 03:00;CYHM 290300Z 29004KT 15SM FEW140 16/15 A2959 RMK AC2 SLP019

CYHM;2009-06-29 04:00;CYHM 290400Z 24003KT 15SM FEW120 15/14 A2959 RMK AC1 SLP020

CYHM;2009-06-29 05:00;CYHM 290500Z 23005KT 15SM BKN063 15/14 A2958 RMK SC5 SLP016

CYHM;2009-06-29 06:00;CYHM 290600Z 24005KT 15SM FEW065 15/14 A2957 RMK SC2 SLP012

CYHM;2009-06-29 07:00;CYHM 290700Z 26005KT 15SM FEW075 SCT090 15/15 A2957 RMK AC2AC2 SLP011

CYHM;2009-06-29 08:00;CYHM 290800Z 25006KT 15SM FEW060 FEW085 15/14 A2955 RMK SC1AC1 SLP007

CYHM;2009-06-29 09:00;CYHM 290900Z 25006KT 15SM FEW055 FEW110 15/14 A2955 RMK SC1AC1 SLP004

CYHM;2009-06-29 10:00;CYHM 291000Z 26006KT 15SM FEW050 FEW080 14/13 A2955 RMK SC1AC1 TR AC SLP003

CYHM;2009-06-29 11:00;CYHM 291100Z 26006KT 15SM FEW055 FEW100 15/13 A2955 RMK SC1AC1 SC TR SLP005

CYHM;2009-06-29 12:00;CYHM 291200Z 26006KT 15SM FEW055 FEW100 16/14 A2954 RMK SC1AC1 SC TR SLP002

CYHM;2009-06-29 13:00;CYHM 291300Z 27008KT 15SM FEW050 BKN075 BKN220 19/14 A2953 RMK SC1AC5CI0 SC TR CI TR SLP999

CYHM;2009-06-29 14:00;CYHM 291400Z 21006KT 15SM FEW050 FEW078 20/15 A2952 RMK SC1AC2 SC TR SLP994

CYHM;2009-06-29 15:00;CYHM 291500Z 20008KT 15SM FEW025 FEW100 22/15 A2950 RMK CU1AC1 CU TR AC TR SLP988

CYHM;2009-06-29 16:00;CYHM 291600Z 22014KT 15SM FEW042 SCT210 24/15 A2949 RMK CU2CI1 TCU ASOCTD SLP985

CYHM;2009-06-29 17:00;CYHM 291700Z 24014KT 15SM VCSH BKN050 BKN150 BKN210 24/14 A2947 RMK CU5AC1CI1 TCU ASOCTD SLP979

CYHM;2009-06-29 17:09;CYHM 291709Z 24012KT 15SM -SHRA SCT048 BKN062 BKN120 RMK CU4SC2AC1 TCU ASOCTD

CYHM;2009-06-29 17:14;CYHM 291714Z 25008KT 10SM -TSRA SCT033 BKN054 BKN110 RMK CU3SC2AC1 CB ASOCTD

CYHM;2009-06-29 17:39;CYHM 291739Z 33008KT 15SM FEW035 BKN054 BKN100 BKN210 RMK CU2SC3AC1CI1 RETSSH TCU ASOCTD

CYHM;2009-06-29 17:56;CYHM 291756Z 33010KT 15SM TS SCT023 BKN052 BKN110 RMK CU3SC2AC1 CB ASOCTD

CYHM;2009-06-29 18:00;CYHM 291800Z 33010KT 15SM TS SCT023 BKN052 BKN110 22/16 A2946 RMK CU3SC3AC1 CB ASOCTD SLP976

CYHM;2009-06-29 18:12;CYHM 291812Z 34012KT 15SM -TSRA BKN045 BKN082 RMK SC6AC2 CB EMBDD

CYHM;2009-06-29 18:21;CYHM 291821Z 30005G15KT 1SM +TSRA BKN008 OVC046 RMK FG2SF3SC3 CB EMBDD

CYHM;2009-06-29 18:26;CYHM 291826Z 06005KT 2SM -TSRA BKN015 BKN048 RMK FG2SF4SC2 CB EMBDD

CYHM;2009-06-29 18:30;CYHM 291830Z 06004KT 5SM -TSRA SCT025 BKN052 BKN087 RMK CU4SC2AC2 CB ASOCTD

CYHM;2009-06-29 18:41;CYHM 291841Z 35006KT 8SM TS FEW024 BKN045 BKN120 RMK CU2SC2AC2 CB ASOCTD RERA

CYHM;2009-06-29 18:50;CYHM 291850Z 35012KT 10SM FEW025 SCT055 BKN120 BKN210 RMK CU2SC2AC2CI1 RETS

CYHM;2009-06-29 19:00;CYHM 291900Z 34006KT 15SM FEW025 SCT055 BKN150 20/16 A2946 RMK CU2SC2AC2 TRTCU ASOCTD SLP976

CYHM;2009-06-29 20:00;CYHM 292000Z 35008KT 15SM FEW030 BKN055 BKN120 19/15 A2946 RMK CU2SC3AC2 SLP976

CYHM;2009-06-29 20:05;CYHM 292005Z 01008KT 15SM -SHRA FEW030 BKN055 BKN120 RMK CU2SC4AC1

CYHM;2009-06-29 20:23;CYHM 292023Z 01008KT 15SM -TSRA BKN050 BKN130 RMK SC5AC2 CB EMBDD LTNG W-NW

CYHM;2009-06-29 20:37;CYHM 292037Z 28020KT 2 1/2SM +TSRA BKN015 OVC075 RMK SC6AC2 CB EMDBB

CYHM;2009-06-29 20:40;CYHM 292040Z 32016KT 1SM +TSRA OVC015 RMK FG5SC3 CB EMBDD LTNGW-SW

CYHM;2009-06-29 20:46;CYHM 292046Z 32014G22KT 2SM TSRA SCT008 OVC016 RMK SF3SC5 CB EMBDD LTNG

CYHM;2009-06-29 21:00;CYHM 292100Z 33005G15KT 6SM -TSRA FEW010 BKN014 OVC080 16/14 A2948 RMK SF2SC6AC1 CB EMBDD LTNG E-NE SLP982

CYHM;2009-06-29 21:20;CYHM 292120Z 00000KT 10SM BKN040 OVC080 RMK SC6AC2 RESTSH

CYHM;2009-06-29 21:56;CYHM 292156Z 00000KT 15SM TS BKN030 BKN080 RMK SC6AC2 CB EMBDD LTNG SW

CYHM;2009-06-29 22:00;CYHM 292200Z 00000KT 15SM TS BKN030 BKN080 18/15 A2946 RMK SC6AC2 CB EMBDD LTNG SW SLP977

CYHM;2009-06-29 22:12;CYHM 292212Z 25012KT 15SM -TSRA OVC024 RMK SC8 CB EMBDD LTNG S-SE

CYHM;2009-06-29 23:00;CYHM 292300Z 00000KT 6SM -TSRA BR BKN025 OVC060 17/15 A2946 RMK SC6SC2 CB EMBDD SLP978

CYHM;2009-06-30 00:00;CYHM 300000Z 14004KT 8SM -SHRA OVC030 16/15 A2947 RETS RMK SC8 /R17/ SLP980

CYHM;2009-06-30 01:00;CYHM 300100Z CCA 22004KT 12SM BKN030 16/15 A2947 RMK SC7 TCU ASOCTD SLP978

CYHM;2009-06-30 02:00;CYHM 300200Z 21005KT 15SM FEW030 SCT090 16/15 A2946 RMK SC2AC2 SLP977

CYHM;2009-06-30 03:00;CYHM 300300Z 22005KT 15SM FEW030 BKN090 15/14 A2946 RMK SC2AC2 SLP974

CYHM;2009-06-30 04:00;CYHM 300400Z 22004KT 15SM SCT040 BKN120 15/14 A2945 RMK SC4AC2 SLP971

CYHM;2009-06-30 04:53;CYHM 300453Z 21006KT 15SM -SHRA BKN070 RMK AC7

CYHM;2009-06-30 05:00;CYHM 300500Z 21007KT 15SM -SHRA OVC070 15/14 A2945 RMK AC8 SLP970

CYHM;2009-06-30 06:00;CYHM 300600Z 22003KT 15SM OVC075 16/15 A2945 RMK AC8 SLP970

CYHM;2009-06-30 07:00;CYHM 300700Z 00000KT 15SM BKN090 OVC220 15/14 A2944 RMK AC7CI1 SLP967

CYHM;2009-06-30 08:00;CYHM 300800Z 24003KT 15SM BKN060 15/14 A2942 RMK SC7 LTNG SW SLP962

CYHM;2009-06-30 09:00;CYHM 300900Z 24005KT 15SM BKN050 15/14 A2943 RMK SC7 LTNG DSNT NE SLP965

CYHM;2009-06-30 10:00;CYHM 301000Z 24003KT 15SM BKN040 15/14 A2944 RMK SC6 SLP968

CYHM;2009-06-30 11:00;CYHM 301100Z 24006KT 15SM BKN045 BKN070 15/14 A2945 RMK SC5AC2 SLP971

CYHM;2009-06-30 12:00;CYHM 301200Z 25010KT 15SM FEW012 SCT025 BKN100 BKN210 16/15 A2945 RMK CF2SC2AC2CI1 SLP972

CYHM;2009-06-30 13:00;CYHM 301300Z 25010KT 15SM FEW015 SCT045 SCT120 BKN220 17/14 A2945 RMK CU2SC1AC1CI1 SLP972

CYHM;2009-06-30 14:00;CYHM 301400Z 26008KT 15SM FEW015 BKN024 BKN220 17/14 A2946 RMK CU2SC2CI1 TCU ASOCTD SLP975

CYHM;2009-06-30 15:00;CYHM 301500Z 24007KT 15SM FEW016 SCT028 BKN220 18/14 A2946 RMK CU2SC2CI1 TCU ASOCTD SLP977

CYHM;2009-06-30 16:00;CYHM 301600Z 26008KT 15SM SCT016 BKN025 BKN100 19/14 A2947 RMK CU3SC2AC1 TCU ASOCTD SLP978

CYHM;2009-06-30 17:00;CYHM 301700Z 25010KT 15SM SCT024 BKN055 BKN210 20/14 A2947 RMK CU4SC1CI1 TCU ASOCTD SLP979

CYHM;2009-06-30 18:00;CYHM 301800Z 27010KT 15SM SCT022TCU BKN042 BKN080 20/15 A2948 RMK TCU3SC2AC1 SLP980

CYHM;2009-06-30 19:00;CYHM 301900Z 27007KT 15SM -SHRA FEW017 SCT024TCU BKN038 BKN085 18/15 A2949 RMK CF1TCU3SC2AC2 PCPN VRY LGT SLP983

CYHM;2009-06-30 19:32;CYHM 301932Z 25008KT 15SM VCSH FEW017 SCT025TCU BKN040 BKN090 RMK CF1TCU3SC1AC2 CB ASOCTD DIST N-E

CYHM;2009-06-30 20:00;CYHM 302000Z 26008KT 15SM VCSH FEW016 BKN023TCU BKN039 BKN090 19/14 A2950 RMK CF1TCU4SC2AC1 -SHRA DIST S SLP989

CYHM;2009-06-30 20:09;CYHM 302009Z 25011KT 10SM -TSRA FEW016 BKN024TCU BKN040 BKN090 RMK CF1TCU4SC2AC1 CB ASOCTD

CYHM;2009-06-30 20:25;CYHM 302025Z 24008KT 12SM -SHRA FEW016 SCT024TCU BKN040 BKN095 RETS RMK CF1TCU3SC2AC2

CYHM;2009-06-30 21:00;CYHM 302100Z 22007KT 15SM -SHRA FEW015 SCT024TCU BKN040 BKN095 BKN130 20/15 A2950 RETS RMK CF1TCU3SC1AC1AC2 CB ASOCTD W SLP990

CYHM;2009-06-30 22:00;CYHM 302200Z 23010KT 190V270 15SM TS SCT022TCU BKN055 BKN090 18/15 A2952 RMK TCU4SC2AC1 CB ASOCTD OCNL -SHRA SLP996

CYHM;2009-06-30 22:20;CYHM 302220Z 24009KT 15SM -SHRA FEW015 SCT023TCU BKN058 BKN090 BKN120 RETS RMK CF1TCU3SC2AC1AC1 CB ASOCTD E PCPN VRY LGT

CYHM;2009-06-30 23:00;CYHM 302300Z 24007KT 15SM FEW015 SCT025TCU BKN044 BKN095 18/15 A2954 RETS RMK CF1TCU2SC2AC2 OCNL -SHSN SLP003

CYHM;2009-07-01 01:00;CYHM 010100Z 24004KT 15SM FEW025CB BKN093 BKN250 17/15 A2957 RMK CB1AC4CI1 CB W SLP012

CYHM;2009-07-01 02:00;CYHM 010200Z 24005KT 15SM FEW025 BKN095 BKN230 17/15 A2959 RMK CU1AC4CI2 SLP019

CYHM;2009-07-01 03:00;CYHM 010300Z 26004KT 15SM FEW110 BKN180 16/14 A2959 RMK AC2AC5 SLP021

CYHM;2009-07-01 04:00;CYHM 010400Z 24004KT 15SM FEW110 SCT230 15/14 A2959 RMK AC2CI1 SLP021

CYHM;2009-07-01 05:00;CYHM 010500Z 24005KT 15SM BKN034 BKN110 15/13 A2961 RMK SC6AC1 SLP025

CYHM;2009-07-01 06:00;CYHM 010600Z 24005KT 15SM BKN036 15/13 A2961 RMK SC7 SLP027

CYHM;2009-07-01 07:00;CYHM 010700Z 25006KT 15SM BKN034 15/14 A2962 RMK SC7 SLP031

CYHM;2009-07-01 08:00;CYHM 010800Z 27005KT 15SM FEW025 14/13 A2962 RMK SC2 SLP031

CYHM;2009-07-01 09:00;CYHM 010900Z 25002KT 15SM FEW110 BKN210 14/12 A2962 RMK AC2CI2 SLP031

CYHM;2009-07-01 10:00;CYHM 011000Z 21003KT 15SM BKN011 BKN110 13/12 A2964 RMK SC5AC2 SLP037

CYHM;2009-07-01 11:00;CYHM 011100Z 25002KT 15SM FEW012 BKN100 15/14 A2965 RMK SC2AC5 SLP041

CYHM;2009-07-01 12:00;CYHM 011200Z 27004KT 15SM BKN010 OVC110 15/14 A2968 RMK SC6AC2 SLP051

CYHM;2009-07-01 13:00;CYHM 011300Z 27006KT 15SM FEW011 BKN032 OVC110 16/14 A2969 RMK SC2SC5AC2 SLP054

CYHM;2009-07-01 14:00;CYHM 011400Z 27006KT 15SM FEW015 SCT040 BKN120 17/14 A2970 RMK CU2SC2AC2 SLP056

CYHM;2009-07-01 15:00;CYHM 011500Z 24002KT 15SM BKN016 BKN032 BKN100 18/14 A2970 RMK SC6SC1AC1 SLP057

CYHM;2009-07-01 16:00;CYHM 011600Z 26004KT 15SM FEW025 BKN038 BKN072 19/14 A2971 RMK CU2SC4AC1 SLP059

CYHM;2009-07-01 17:00;CYHM 011700Z 25006KT 15SM FEW030 BKN045 BKN110 20/15 A2970 RMK CU2SC2AC2 SLP057

CYHM;2009-07-01 18:00;CYHM 011800Z 30005KT 15SM VCSH SCT034 BKN064 BKN080 21/15 A2969 RMK CU3SC2AC1 TCU ASOCTD SE SLP054

CYHM;2009-07-01 18:23;CYHM 011823Z 18005KT 7SM -SHRA FEW015 BKN026 RMK CF1SC6 TCU EMBD VIS S 3

CYHM;2009-07-01 18:26;CYHM 011826Z 19015KT 2 1/2SM -SHRA HZ FEW015 BKN026 RMK CF1SC6 TCU EMBD

CYHM;2009-07-01 18:30;CYHM 011830Z 20015KT 1SM SHRA BR OVC022 RMK FG2SC6 TCU EMBD

CYHM;2009-07-01 18:41;CYHM 011841Z 15009KT 2 1/2SM -SHRA BR BKN022 OVC032 RMK FG1SC6SC2 TCU EMBD

CYHM;2009-07-01 19:00;CYHM 011900Z 12003KT 10SM -SHRA BKN022 BKN036 BKN085 18/16 A2970 RMK CU5SC2AC1 TCU ASOCTD SLP055

CYHM;2009-07-01 19:07;CYHM 011907Z 14004KT 10SM -TSRA SCT022 BKN036 BKN090 RMK CU3SC3AC1 CB EMBD

CYHM;2009-07-01 19:55;CYHM 011955Z 14005KT 2 1/2SM TSRA BR SCT022 BKN034 BKN060 RMK CU3SC3SC1 CB EMBD

CYHM;2009-07-01 20:00;CYHM 012000Z 14003KT 2 1/2SM -TSRA BR SCT022 OVC034 18/16 A2970 RERA RMK FG1CU3SC4 CB EMBD SLP056

CYHM;2009-07-01 20:34;CYHM 012034Z 35002KT 4SM -SHRA BR SCT024 BKN036 BKN062 RETS RMK CU3SC2SC2 TCU EMBD

CYHM;2009-07-01 21:00;CYHM 012100Z 35005KT 10SM -SHRA SCT022 BKN034 BKN062 18/17 A2969 RETS RMK CU3SC2SC2 /R10/ TCU EMBD SLP055

CYHM;2009-07-01 21:50;CYHM 012150Z 34004KT 12SM FEW022 BKN032 BKN070 BKN100 RMK CU2SC3AC1AC1 TCU EMBD

CYHM;2009-07-01 22:00;CYHM 012200Z 34004KT 15SM SCT024TCU BKN032 BKN070 BKN110 BKN170 18/16 A2970 RMK TCU3SC2AC1AC1AC1 SLP058

CYHM;2009-07-01 23:00;CYHM 012300Z 00000KT 15SM SCT025TCU BKN040 BKN085 BKN110 19/17 A2971 RMK TCU4SC1AC1AC2 CB DIST W-N SLP060

CYHM;2009-07-02 00:00;CYHM 020000Z 31004KT 15SM VCSH FEW015 SCT026TCU BKN041 OVC070 18/16 A2973 RMK CF1TCU4SC3AC1 CB ASOCTD DIST NE-E CF TR SLP066

CYHM;2009-07-02 01:00;CYHM 020100Z 35002KT 15SM FEW015 BKN028 OVC048 18/16 A2975 RMK CU2SC3SC3 TCU EMBD NE-E SLP072

CYHM;2009-07-02 02:00;CYHM 020200Z 31002KT 15SM FEW028 BKN047 OVC100 17/16 A2975 RMK SC2SC3AC2 SLP075

CYHM;2009-07-02 03:00;CYHM 020300Z 28003KT 15SM FEW110 OVC160 17/16 A2975 RMK AC2AS6 SLP075

CYHM;2009-07-02 04:00;CYHM 020400Z 29003KT 15SM BKN073 OVC140 17/16 A2975 RMK AC6AS2 SLP074

CYHM;2009-07-02 05:00;CYHM 020500Z 00000KT 15SM BKN070 OVC120 17/16 A2975 RMK AC6AS2 SLP074

CYHM;2009-07-02 06:00;CYHM 020600Z 00000KT 15SM OVC100 16/16 A2975 RMK AC8 SLP071

CYHM;2009-07-02 07:00;CYHM 020700Z 00000KT 15SM BKN073 BKN090 16/15 A2974 RMK AC5AC1 SLP070

CYHM;2009-07-02 08:00;CYHM 020800Z 00000KT 6SM BR BKN070 BKN130 16/15 A2975 RMK AC6AC1 SLP072

CYHM;2009-07-02 09:00;CYHM 020900Z 29005KT 8SM FEW030 BKN080 BKN150 16/15 A2975 RMK SC2AC5AC1 SLP074

CYHM;2009-07-02 09:55;CYHM 020955Z 29005KT 5SM BR BKN003 OVC060 RMK SF6SC2

CYHM;2009-07-02 10:00;CYHM 021000Z 27003KT 5SM BR BKN003 OVC060 16/15 A2977 RMK SF6SC2 SLP079

CYHM;2009-07-02 11:00;CYHM 021100Z 33004KT 6SM BR FEW005 SCT060 OVC078 16/15 A2978 RMK SF2SC2AC4 SLP083

CYHM;2009-07-02 12:00;CYHM 021200Z 31005KT 6SM BR SCT006 BKN013 OVC080 17/15 A2979 RMK SF4SC2AC2 SLP088

CYHM;2009-07-02 12:41;CYHM 021241Z 33006KT 10SM -SHRA BKN009 BKN025 BKN070 RMK SF5SC2AC1

CYHM;2009-07-02 13:00;CYHM 021300Z 35006KT 10SM -SHRA BKN009 BKN042 BKN100 18/16 A2980 RMK SF5SC2AC1 SLP090

CYHM;2009-07-02 13:18;CYHM 021318Z 33004KT 15SM BKN010 BKN045 BKN100 RMK CF5SC2AC1 RERA

CYHM;2009-07-02 14:00;CYHM 021400Z 34006KT 15SM SCT016 BKN022 BKN096 19/15 A2980 RMK CU3SC2AC2 SLP091

CYHM;2009-07-02 15:00;CYHM 021500Z 32002KT 15SM BKN018 BKN032 BKN100 BKN220 20/16 A2980 RMK CU5SC2AC1CI0 TCU ASOCTD CI TR SLP089

CYHM;2009-07-02 16:00;CYHM 021600Z 35004KT 15SM SCT027 BKN040 BKN220 20/14 A2980 RMK CU3SC2CI1 SLP091

CYHM;2009-07-02 17:00;CYHM 021700Z 33005KT 15SM SCT032 BKN077 BKN220 21/15 A2981 RMK CU4AC2CI1 TCU ASOCTD SLP092

CYHM;2009-07-02 18:00;CYHM 021800Z 33006KT 15SM FEW032 SCT045 BKN100 BKN220 21/14 A2981 RMK CU2SC2AC2CI1 SLP092

CYHM;2009-07-02 19:00;CYHM 021900Z CCA 31006KT 260V350 15SM BKN036 BKN100 BKN220 23/15 A2980 RMK CU6AC1CI1 TCU ASOCTD SLP090

CYHM;2009-07-02 20:00;CYHM 022000Z 32006KT 260V010 15SM BKN032 BKN150 BKN220 22/15 A2980 RMK CU5AC2CI1 TCU ASOCTD SLP090

CYHM;2009-07-02 20:51;CYHM 022051Z 32006KT 15SM -SHRA SCT030 BKN076 RMK CU3AC4 TCU ASOCTD

CYHM;2009-07-02 21:00;CYHM 022100Z 20006KT 15SM -SHRA SCT030 BKN071 20/16 A2980 RMK CU3AC4 TCU ASOCTD SLP090

CYHM;2009-07-02 21:45;CYHM 022145Z 29002KT 15SM FEW030 BKN041 OVC070 RMK CU2SC2AC3

CYHM;2009-07-02 21:53;CYHM 022153Z 31010KT 12SM -SHRA SCT030 BKN041 BKN071 RMK CU3SC2AC2

CYHM;2009-07-02 22:00;CYHM 022200Z 33010KT 230V050 15SM -TSRA BKN030 BKN041 BKN071 20/16 A2980 RMK CU5SC2AC1 CB EMBDD SLP091

CYHM;2009-07-02 22:33;CYHM 022233Z 30010KT 240V330 15SM FEW028CB SCT041 BKN110 RETS RMK CB2SC2AC3

CYHM;2009-07-02 23:00;CYHM 022300Z 31007KT 15SM FEW028CB FEW041 BKN060 BKN110 19/15 A2982 RETS RMK CB1SC1SC4AC2 SLP097

CYHM;2009-07-03 00:00;CYHM 030000Z 28004KT 15SM VCSH FEW025TCU BKN060 BKN096 19/15 A2984 RMK TCU2SC3AC2 SLP104

CYHM;2009-07-03 01:00;CYHM 030100Z 31004KT 15SM FEW025TCU BKN054 BKN090 BKN250 18/15 A2985 RMK TCU1SC4AC2CI0 SLP107

CYHM;2009-07-03 02:00;CYHM 030200Z 30004KT 15SM FEW017 FEW052 BKN081 BKN250 17/15 A2986 RMK CU2SC1AC2CI1 SLP112

CYHM;2009-07-03 03:00;CYHM 030300Z 29007KT 15SM FEW017 BKN086 BKN230 16/14 A2987 RMK CU1AC5CI1 CU TR SLP115

CYHM;2009-07-03 04:00;CYHM 030400Z 23002KT 15SM BKN037 BKN092 16/14 A2988 RMK SC6AC1 SLP116

CYHM;2009-07-03 05:00;CYHM 030500Z 26004KT 15SM FEW021 FEW044 BKN072 16/14 A2987 RMK SC1SC1AC6 SLP115

CYHM;2009-07-03 06:00;CYHM 030600Z 28005KT 15SM FEW073 BKN092 16/14 A2987 RMK AC2AC6 SLP114

CYHM;2009-07-03 07:00;CYHM 030700Z 27002KT 15SM BKN051 BKN092 16/14 A2988 RMK SC5AC2 SLP116

CYHM;2009-07-03 08:00;CYHM 030800Z 27004KT 15SM BKN054 15/14 A2988 RMK SC7 SLP117

CYHM;2009-07-03 09:00;CYHM 030900Z 25004KT 15SM FEW058 BKN073 15/14 A2988 RMK SC2AC5 SLP117

CYHM;2009-07-03 10:00;CYHM 031000Z 25004KT 15SM FEW017 BKN067 15/14 A2989 RMK SC2AC6 SLP122

CYHM;2009-07-03 11:00;CYHM 031100Z 26007KT 15SM BKN013 OVC060 16/14 A2991 RMK SC6SC2 SLP126

CYHM;2009-07-03 12:00;CYHM 031200Z 27010KT 15SM OVC015 16/14 A2991 RMK SC8 SLP129

CYHM;2009-07-03 13:00;CYHM 031300Z 28006KT 15SM BKN015 OVC058 16/14 A2991 RMK SC6SC2 TR CU ASOCTD SLP129

CYHM;2009-07-03 14:00;CYHM 031400Z 27012KT 15SM BKN014 OVC018 16/14 A2992 RMK SC6SC2 SLP131

CYHM;2009-07-03 15:00;CYHM 031500Z 29008KT 15SM OVC018 18/14 A2992 RMK SC8 SLP133

CYHM;2009-07-03 16:00;CYHM 031600Z 29009KT 15SM BKN021 18/14 A2994 RMK SC7 SLP138

CYHM;2009-07-03 17:00;CYHM 031700Z 28010KT 15SM FEW020 BKN032 20/15 A2994 RMK CU2SC5 SLP140

CYHM;2009-07-03 18:00;CYHM 031800Z 29012KT 15SM FEW023 BKN029 BKN078 20/15 A2994 RMK CU2SC4AC2 SLP139

CYHM;2009-07-03 19:00;CYHM 031900Z 29013KT 15SM BKN024 BKN070 20/15 A2993 RMK SC5AC1 CU ASOCTD SLP136

CYHM;2009-07-03 20:00;CYHM 032000Z 30012KT 15SM BKN025 BKN074 20/15 A2994 RMK SC6AC2 TCU ASOCTD SLP137

CYHM;2009-07-03 21:00;CYHM 032100Z 30012G17KT 15SM BKN029 20/14 A2994 RMK SC6 TCU ASOCTD SLP139

CYHM;2009-07-03 22:00;CYHM 032200Z 30013KT 15SM BKN023 BKN055 19/14 A2995 RMK SC6SC1 CU ASOCTD SLP141

CYHM;2009-07-03 23:00;CYHM 032300Z 29011KT 15SM BKN023 18/14 A2997 RMK SC7 SLP147

CYHM;2009-07-04 00:00;CYHM 040000Z 27010KT 15SM BKN024 BKN052 17/13 A2998 RMK SC5SC2 SLP153

CYHM;2009-07-04 01:00;CYHM 040100Z 26008KT 15SM FEW025 OVC049 17/13 A2998 RMK CF2SC6 SLP154

CYHM;2009-07-04 02:00;CYHM 040200Z 27008KT 15SM FEW020 OVC048 16/14 A3000 RMK CF2SC6 SLP159

CYHM;2009-07-04 03:00;CYHM 040300Z 26005KT 15SM FEW030 OVC050 16/13 A3000 RMK CF2SC6 SLP159

CYHM;2009-07-04 04:00;CYHM 040400Z 27008KT 15SM SCT020 BKN045 15/13 A2999 RMK CU3SC3 SLP157

CYHM;2009-07-04 05:00;CYHM 040500Z 28009KT 15SM FEW030 14/12 A2998 RMK SC2 SLP154

CYHM;2009-07-04 06:00;CYHM 040600Z 28005KT 15SM FEW015 13/12 A2998 RMK CF1 SLP153

CYHM;2009-07-04 07:00;CYHM 040700Z 29007KT 15SM FEW020 13/10 A2997 RMK CF1 SLP150

CYHM;2009-07-04 08:00;CYHM 040800Z 27008KT 15SM FEW025 FEW250 12/10 A2997 RMK SC1CI1 SLP148

CYHM;2009-07-04 09:00;CYHM 040900Z 28007KT 15SM FEW025 FEW240 11/10 A2997 RMK SC1CI1 SLP148

CYHM;2009-07-04 09:54;CYHM 040954Z 31007KT 15SM BKN009 RMK SC6

CYHM;2009-07-04 10:00;CYHM 041000Z 30008KT 15SM BKN008 BKN100 11/10 A2997 RMK SC6AC1 CIG RAG SLP149

CYHM;2009-07-04 11:00;CYHM 041100Z 31008KT 15SM BKN008 12/11 A2998 RMK SC7 SLP153

CYHM;2009-07-04 12:00;CYHM 041200Z 29008KT 15SM FEW009 SCT250 13/11 A3000 RMK SC1CI2 SLP159

CYHM;2009-07-04 13:00;CYHM 041300Z 28011KT 15SM FEW015 FEW250 15/11 A3001 RMK CU1CI1 CU TR SLP163

CYHM;2009-07-04 14:00;CYHM 041400Z 29010KT 15SM SCT024 SCT250 16/11 A3001 RMK CU3CI1 SLP163

CYHM;2009-07-04 15:00;CYHM 041500Z 29010KT 240V320 15SM FEW030 18/12 A3001 RMK CU2 SLP163

CYHM;2009-07-04 16:00;CYHM 041600Z 27012KT 220V350 15SM BKN036 19/12 A3002 RMK CU6 SLP165

CYHM;2009-07-04 17:00;CYHM 041700Z 28011KT 15SM BKN042 20/11 A3001 RMK CU5 SLP163

CYHM;2009-07-04 18:00;CYHM 041800Z 27011KT 15SM SCT052 21/10 A3000 RMK CU3 SLP158

CYHM;2009-07-04 19:00;CYHM 041900Z 30010KT 270V330 15SM SCT050 SCT250 21/09 A2999 RMK SC3CI1 CU ASOCTD CI TR SLP156

CYHM;2009-07-04 20:00;CYHM 042000Z 30009KT 270V330 15SM SCT056 SCT250 21/10 A2998 RMK CU3CI1 SLP153

CYHM;2009-07-04 21:00;CYHM 042100Z 30010KT 15SM SCT056 SCT250 21/10 A2997 RMK CU3CI1 SLP149

CYHM;2009-07-04 22:00;CYHM 042200Z 30008KT 15SM FEW056 SCT250 21/09 A2997 RMK SC2CI1 CU ASOCTD CONTRAILS SLP149

CYHM;2009-07-04 23:00;CYHM 042300Z 31007KT 15SM FEW055 SCT250 20/09 A2996 RMK SC2CI1 CU ASOCTD SLP147

CYHM;2009-07-05 00:00;CYHM 050000Z 31006KT 15SM FEW050 FEW230 19/08 A2997 RMK SC1CI1 SC TR SLP148

CYHM;2009-07-05 01:00;CYHM 050100Z 29004KT 15SM FEW045 FEW230 17/08 A2997 RMK CU1CI1 CU TR SLP148

CYHM;2009-07-05 02:00;CYHM 050200Z 29004KT 15SM FEW230 15/08 A2998 RMK CI1 SLP152

CYHM;2009-07-05 03:00;CYHM 050300Z 23003KT 15SM FEW230 13/09 A2997 RMK CI2 SLP151

CYHM;2009-07-05 04:00;CYHM 050400Z 28005KT 15SM FEW230 12/08 A2997 RMK CI1 SLP150

CYHM;2009-07-05 05:00;CYHM 050500Z 27003KT 15SM SKC 13/08 A2996 RMK SLP147

CYHM;2009-07-05 06:00;CYHM 050600Z 00000KT 15SM SKC 11/09 A2996 RMK SLP145

CYHM;2009-07-05 07:00;CYHM 050700Z 27003KT 15SM SKC 11/08 A2995 RMK SLP143

CYHM;2009-07-05 08:00;CYHM 050800Z 27003KT 15SM SKC 11/08 A2995 RMK SLP143

CYHM;2009-07-05 09:00;CYHM 050900Z 26005KT 15SM FEW100 FEW230 11/08 A2995 RMK AC1CI1 TR AC SLP143

CYHM;2009-07-05 10:00;CYHM 051000Z 28004KT 15SM FEW100 11/08 A2995 RMK AC2 SLP143

CYHM;2009-07-05 11:00;CYHM 051100Z 25003KT 15SM FEW035 FEW080 13/09 A2994 RMK CU1AC1 SLP141

CYHM;2009-07-05 12:00;CYHM 051200Z 25003KT 15SM FEW035 FEW100 16/12 A2995 RMK CU1AC1 SLP142

CYHM;2009-07-05 13:00;CYHM 051300Z 23006KT 15SM FEW035 SCT100 18/13 A2996 RMK CU1AC2 SLP144

CYHM;2009-07-05 14:00;CYHM 051400Z 23006KT 15SM FEW025 FEW120 20/14 A2994 RMK CU1AC1 SLP139

CYHM;2009-07-05 15:00;CYHM 051500Z 21008KT 15SM FEW030 FEW120 22/14 A2993 RMK CU2AC1 SLP135

CYHM;2009-07-05 16:00;CYHM 051600Z 24004KT 15SM BKN030 21/14 A2991 RMK CU6 TCU ASOCTD SLP128

CYHM;2009-07-05 17:00;CYHM 051700Z 26007KT 15SM BKN030 BKN035 22/15 A2989 RMK CU5SC2 TCU ASOCTD SLP123

CYHM;2009-07-05 18:00;CYHM 051800Z 23009KT 15SM SCT030 BKN035 23/15 A2988 RMK CU3SC4 TCU ASOCTD SLP118

CYHM;2009-07-05 19:00;CYHM 051900Z 21009KT 15SM FEW035TCU BKN050 23/16 A2987 RMK TCU2SC4 SLP114

CYHM;2009-07-05 20:00;CYHM 052000Z 18011KT 15SM SCT035 BKN050 23/16 A2985 RMK CU4SC2 TCU ASOCTD SLP108

CYHM;2009-07-05 21:00;CYHM 052100Z 19009KT 15SM SCT035 23/16 A2982 RMK CU4 TCU ASOCTD NE SLP099

CYHM;2009-07-05 22:00;CYHM 052200Z 19006KT 15SM FEW035 FEW150 23/16 A2981 RMK CU2AC1 AC TR SLP095

CYHM;2009-07-05 23:00;CYHM 052300Z 27008KT 15SM FEW040 FEW150 FEW200 24/10 A2981 RMK CU2AC1CI1 AC TR SLP096

CYHM;2009-07-06 00:00;CYHM 060000Z 26004KT 15SM FEW040 FEW075 SCT200 23/11 A2981 RMK CU1AC1CI1 SLP095

CYHM;2009-07-06 01:00;CYHM 060100Z 22008KT 15SM FEW050 FEW075 FEW220 19/14 A2981 RMK SC1AC2CI1 SC TR SLP095

CYHM;2009-07-06 01:31;CYHM 060131Z 23006KT 15SM FEW050 FEW080 SCT220 RMK SC2AC1CI1 OCNL DIST LTNG W

CYHM;2009-07-06 02:00;CYHM 060200Z 23005KT 15SM VCSH FEW050 SCT080 SCT220 18/14 A2983 RMK SC2AC2CI1 CI TR SLP100

CYHM;2009-07-06 02:33;CYHM 060233Z 29017G24KT 8SM -SHRA OVC040 RMK SC8 TCU EMBDD PRESRR

CYHM;2009-07-06 03:00;CYHM 060300Z 29004KT 10SM -TSRA SCT025CB OVC085 16/14 A2986 RERA RMK CB3AC5 OCNL LTNG SLP111

CYHM;2009-07-06 04:00;CYHM 060400Z 30006KT 15SM -SHRA FEW040 SCT090 OVC130 16/14 A2985 RETS RMK SC2AC2AC4 OCNL LTNG SW SLP107

CYHM;2009-07-06 05:00;CYHM 060500Z 23005KT 15SM -SHRA SCT090 OVC200 15/14 A2984 RMK AC3CI5 OCNL LTNG E + SW SLP104

CYHM;2009-07-06 05:36;CYHM 060536Z 23006KT 15SM SCT085 RMK AC4

CYHM;2009-07-06 06:00;CYHM 060600Z 25005KT 15SM SCT090 14/13 A2982 RMK AC4 SLP098

CYHM;2009-07-06 07:00;CYHM 060700Z 27005KT 15SM SCT080 14/13 A2982 RMK AC3 SLP096

CYHM;2009-07-06 08:00;CYHM 060800Z 24002KT 15SM FEW076 14/13 A2981 RMK AC2 SLP095

CYHM;2009-07-06 09:00;CYHM 060900Z 25002KT 15SM MIFG FEW030 FEW070 FEW210 13/12 A2981 RMK CU1AC1CI1 TR AC SLP093

CYHM;2009-07-06 09:38;CYHM 060938Z 21005KT 1SM BR FEW070 RMK FG2AC1 VIS VRB 3/4 - 11/4

CYHM;2009-07-06 09:50;CYHM 060950Z 19005KT 8SM FEW070 RMK AC2

CYHM;2009-07-06 10:00;CYHM 061000Z 21002KT 7SM MIFG FEW070 12/11 A2982 RMK AC2 SLP096

CYHM;2009-07-06 10:07;CYHM 061007Z 21004KT 1SM BR FEW005 FEW070 RMK FG1SF1AC1

CYHM;2009-07-06 10:30;CYHM 061030Z 27005KT 4SM BR FEW070 FEW220 RMK AC1CI0

CYHM;2009-07-06 11:00;CYHM 061100Z 22004KT 10SM FEW070 13/13 A2982 RMK AC1 SLP097

CYHM;2009-07-06 12:00;CYHM 061200Z 25008KT 15SM FEW030 FEW070 15/14 A2983 RMK SC1AC1 SC TR SLP099

CYHM;2009-07-06 13:00;CYHM 061300Z 26008KT 15SM FEW030 SCT075 17/14 A2982 RMK SC1AC2 SLP097

CYHM;2009-07-06 14:00;CYHM 061400Z 22004KT 15SM FEW032 FEW078 18/15 A2981 RMK SC1AC1 TR CU ASOCTD SLP094

CYHM;2009-07-06 15:00;CYHM 061500Z 25004KT 220V290 15SM FEW062 SCT085 19/14 A2981 RMK SC2AC2 SLP095

CYHM;2009-07-06 16:00;CYHM 061600Z 24008KT 15SM FEW031 SCT042 SCT090 22/16 A2980 RMK CU2SC2AC1 SLP092

CYHM;2009-07-06 17:00;CYHM 061700Z 29009KT 15SM FEW035 FEW100 23/13 A2978 RMK CU2AC1 SLP085

CYHM;2009-07-06 18:00;CYHM 061800Z 28010KT 15SM SCT045TCU SCT190 SCT250 24/12 A2977 RMK TCU3AC1CI1 CI TR CU ASOCTD SLP079

CYHM;2009-07-06 19:00;CYHM 061900Z 28010KT 15SM SCT050 SCT150 SCT250 24/11 A2976 RMK CU3AC1CI1 AC TR CI TR TCU ASOCTD SLP076

CYHM;2009-07-06 20:00;CYHM 062000Z 29011KT 15SM FEW058 FEW160 SCT250 23/10 A2976 RMK CU2AC1CI0 AC TR TCU ASOCTD SLP078

CYHM;2009-07-06 21:00;CYHM 062100Z 30013KT 15SM FEW060 FEW074 SCT250 23/09 A2977 RMK CU2AC1CI0 SLP081

CYHM;2009-07-06 22:00;CYHM 062200Z 28005KT 15SM FEW058TCU BKN085 22/09 A2978 RMK TCU1AC7 TCU TR SLP083

CYHM;2009-07-06 23:00;CYHM 062300Z 28003KT 15SM FEW058TCU FEW085 BKN130 21/11 A2978 RMK TCU1AC1AC6 TCU TR SLP082

CYHM;2009-07-07 00:00;CYHM 070000Z 30002KT 15SM FEW058TCU BKN076 BKN110 21/11 A2977 RMK TCU1AC5AC2 TCU TR SLP081

CYHM;2009-07-07 01:00;CYHM 070100Z 00000KT 15SM FEW065 BKN100 BKN130 19/13 A2977 RMK SC1AC5AC2 SLP081

CYHM;2009-07-07 02:00;CYHM 070200Z 20002KT 15SM BKN065 BKN100 18/14 A2978 RMK SC6AC2 SLP085

CYHM;2009-07-07 03:00;CYHM 070300Z 29002KT 15SM SCT064 BKN110 18/14 A2978 RMK SC4AC3 SLP084

CYHM;2009-07-07 05:00;CYHM 070500Z 35003KT 15SM FEW070 BKN096 17/11 A2977 RMK AC1AC6 SLP079

CYHM;2009-07-07 06:00;CYHM 070600Z 00000KT 15SM BKN100 17/11 A2976 RMK AC7 SLP075

CYHM;2009-07-07 07:00;CYHM 070700Z 00000KT 15SM BKN096 16/12 A2975 RMK AC7 SLP072

CYHM;2009-07-07 08:00;CYHM 070800Z 28004KT 15SM BKN085 15/12 A2974 RMK AC7 SLP070

CYHM;2009-07-07 09:00;CYHM 070900Z 27003KT 15SM BKN082 BKN098 15/12 A2975 RMK AC5AC2 SLP071

CYHM;2009-07-07 10:00;CYHM 071000Z 30005KT 15SM FEW060 BKN094 BKN220 14/10 A2976 RMK SC2AC3CI0 CI TR SLP076

CYHM;2009-07-07 11:00;CYHM 071100Z 25004KT 15SM FEW060 BKN093 14/11 A2977 RMK SC2AC4 SLP078

CYHM;2009-07-07 12:00;CYHM 071200Z 26005KT 15SM FEW060 FEW100 15/11 A2977 RMK SC1AC2 SLP081

CYHM;2009-07-07 13:00;CYHM 071300Z 30008KT 15SM BKN031 BKN100 16/11 A2978 RMK SC5AC2 TR CU ASOCTD SLP083

CYHM;2009-07-07 14:00;CYHM 071400Z 30010KT 15SM BKN023 15/11 A2978 RMK SC7 SLP084

CYHM;2009-07-07 15:00;CYHM 071500Z 27008KT 15SM FEW028 BKN034 BKN047 BKN100 16/11 A2979 RMK CU2SC3SC1AC1 SLP088

CYHM;2009-07-07 16:00;CYHM 071600Z 27014KT 15SM BKN024 BKN038 16/10 A2979 RMK SC6SC2 CU ASOCTD SLP087

CYHM;2009-07-07 17:00;CYHM 071700Z 31010KT 15SM BKN031 BKN053 17/11 A2979 RMK SC6SC2 SLP089

CYHM;2009-07-07 18:00;CYHM 071800Z 30011KT 15SM SCT032 BKN045 BKN070 17/11 A2979 RMK CU3SC3AC1 SLP087

CYHM;2009-07-07 19:00;CYHM 071900Z 32006KT 15SM SCT028 BKN080 18/11 A2980 RMK SC3AC4 CUFRA ASOCTD SLP090

CYHM;2009-07-07 20:00;CYHM 072000Z 30007KT 15SM SCT048 BKN078 18/11 A2980 RMK SC3AC4 SF ASOCTD SLP092

CYHM;2009-07-07 21:00;CYHM 072100Z 29007KT 15SM FEW048 BKN080 18/11 A2981 RMK SC1AC6 TCU ASOCTD SF ASOCTD SLP096

CYHM;2009-07-07 22:00;CYHM 072200Z 28010KT 15SM BKN047 BKN080 18/11 A2982 RMK SC5AC1 SF ASOCTD SLP098

CYHM;2009-07-07 23:00;CYHM 072300Z 30012KT 15SM BKN051 17/11 A2984 RMK SC7 SF ASOCTD SLP103

CYHM;2009-07-08 00:00;CYHM 080000Z 29007KT 15SM BKN052 16/10 A2984 RMK SC7 SLP107

CYHM;2009-07-08 01:00;CYHM 080100Z 29006KT 15SM SCT055 15/10 A2985 RMK SC4 TCU ASOCTD SLP108

CYHM;2009-07-08 02:00;CYHM 080200Z 27003KT 15SM BKN054 15/11 A2986 RMK SC7 SLP113

CYHM;2009-07-08 03:00;CYHM 080300Z 27005KT 15SM BKN061 15/11 A2987 RMK SC7 SLP114

CYHM;2009-07-08 04:00;CYHM 080400Z 26006KT 15SM SCT070 14/11 A2988 RMK AC4 SLP117

CYHM;2009-07-08 05:00;CYHM 080500Z 26005KT 15SM FEW020 SCT072 13/11 A2988 RMK SC2AC2 SLP118

CYHM;2009-07-08 06:00;CYHM 080600Z 26003KT 15SM BKN024 13/11 A2988 RMK SC7 SLP119

CYHM;2009-07-08 07:00;CYHM 080700Z 28003KT 15SM BKN030 14/11 A2988 RMK SC7 SLP120

CYHM;2009-07-08 08:00;CYHM 080800Z 27005KT 15SM BKN024 13/11 A2988 RMK SC6 SLP120

CYHM;2009-07-08 09:00;CYHM 080900Z 27003KT 15SM BKN021 12/11 A2988 RMK SC6 SLP121

CYHM;2009-07-08 10:00;CYHM 081000Z 27003KT 15SM SCT018 SCT250 13/11 A2990 RMK SC3CI1 CI TR SLP126

CYHM;2009-07-08 11:00;CYHM 081100Z 28004KT 15SM FEW030 14/12 A2991 RMK SC1 SLP131

CYHM;2009-07-08 12:00;CYHM 081200Z 30010KT 15SM FEW030 FEW250 16/12 A2993 RMK SC1CI1 CI TR SLP136

CYHM;2009-07-08 13:00;CYHM 081300Z 32006KT 15SM FEW022 FEW030 16/12 A2994 RMK CU1SC2 SLP140

CYHM;2009-07-08 14:00;CYHM 081400Z 33008KT 15SM FEW025 17/12 A2996 RMK CU2 SC ASOCTD SLP146

CYHM;2009-07-08 15:00;CYHM 081500Z 32007KT 15SM FEW025 FEW240 19/13 A2997 RMK CU1CI0 SLP148

CYHM;2009-07-08 16:00;CYHM 081600Z 28004KT 15SM SCT023 BKN043 20/12 A2997 RMK CU3SC2 SLP151

CYHM;2009-07-08 17:00;CYHM 081700Z 30002KT 15SM FEW028 BKN040 20/12 A2997 RMK CU2SC2 SLP150

CYHM;2009-07-08 18:00;CYHM 081800Z 00000KT 15SM FEW032 BKN040 BKN082 21/13 A2997 RMK CU2SC3AC1 SLP149

CYHM;2009-07-08 19:00;CYHM 081900Z 00000KT 15SM FEW040 BKN094 21/13 A2998 RMK CU2AC6 TCU ASOCTD SLP151

CYHM;2009-07-08 20:00;CYHM 082000Z 31002KT 15SM FEW040 BKN094 22/13 A2999 RMK CU2AC3 SLP154

CYHM;2009-07-08 21:00;CYHM 082100Z 26003KT 15SM FEW045 SCT094 23/13 A2998 RMK SC2AC1 WND L/V CU ASOCTD SLP153

CYHM;2009-07-08 22:00;CYHM 082200Z 00000KT 15SM FEW065 SCT090 SCT250 23/12 A2999 RMK SC2AC1CI1 TCU ASOCTD CI TR SLP154

CYHM;2009-07-08 23:00;CYHM 082300Z 28002KT 15SM FEW044 BKN090 21/13 A3000 RMK SC2AC3 TCU ASOCTD SLP157

CYHM;2009-07-09 00:00;CYHM 090000Z 22003KT 15SM SCT058 BKN084 20/14 A3001 RMK SC3AC4 SLP162

CYHM;2009-07-09 01:00;CYHM 090100Z 18004KT 15SM FEW056 BKN094 19/14 A3003 RMK SC1AC5 SC TR SLP168

CYHM;2009-07-09 02:00;CYHM 090200Z 18002KT 15SM SCT094 17/14 A3005 RMK AC2 SLP174

CYHM;2009-07-09 03:00;CYHM 090300Z 06003KT 15SM FEW095 16/14 A3007 RMK AC2 SLP182

CYHM;2009-07-09 04:00;CYHM 090400Z 00000KT 15SM FEW090 15/14 A3008 RMK AC1 SLP186

CYHM;2009-07-09 05:00;CYHM 090500Z 00000KT 15SM FEW090 FEW210 15/13 A3009 RMK AC1CI1 SLP190

CYHM;2009-07-09 06:00;CYHM 090600Z 03005KT 15SM FEW210 15/13 A3010 RMK CI1 SLP194

CYHM;2009-07-09 07:00;CYHM 090700Z 04005KT 15SM FEW210 15/13 A3011 RMK CI1 SLP196

CYHM;2009-07-09 08:00;CYHM 090800Z 04004KT 15SM FEW210 14/12 A3012 RMK CI1 SLP199

CYHM;2009-07-09 09:00;CYHM 090900Z 05005KT 15SM FEW210 14/12 A3013 RMK CI1 SLP202

CYHM;2009-07-09 10:00;CYHM 091000Z 04005KT 15SM FEW210 14/12 A3014 RMK CI1 SLP207

CYHM;2009-07-09 11:00;CYHM 091100Z 06004KT 15SM FEW240 15/13 A3016 RMK CI1 CI TR SLP212

CYHM;2009-07-09 12:00;CYHM 091200Z 05006KT 15SM SKC 17/14 A3017 RMK SLP217

CYHM;2009-07-09 13:00;CYHM 091300Z 06004KT 15SM SKC 19/15 A3019 RMK SLP223

CYHM;2009-07-09 14:00;CYHM 091400Z 09006KT 15SM FEW022 20/15 A3019 RMK CU1 SLP224

CYHM;2009-07-09 15:00;CYHM 091500Z 05006KT 15SM FEW024 21/15 A3020 RMK CU2 SLP225

CYHM;2009-07-09 16:00;CYHM 091600Z 05005KT 15SM FEW024 21/15 A3021 RMK CU2 SLP229

CYHM;2009-07-09 17:00;CYHM 091700Z 06012KT 15SM FEW024 FEW035 21/15 A3021 RMK CU2SC1 SLP231

CYHM;2009-07-09 18:00;CYHM 091800Z 07012KT 15SM FEW030 22/15 A3021 RMK CU1 SLP229

CYHM;2009-07-09 19:00;CYHM 091900Z 04010KT 15SM FEW030 22/14 A3021 RMK CU2 SLP231

CYHM;2009-07-09 20:00;CYHM 092000Z 05011KT 15SM FEW032 22/13 A3021 RMK CU2 SLP230

CYHM;2009-07-09 21:00;CYHM 092100Z 06011KT 15SM FEW032 21/13 A3020 RMK CU1 SLP227

CYHM;2009-07-09 22:00;CYHM 092200Z 06010KT 15SM FEW032 21/13 A3020 RMK CU1 SLP227

CYHM;2009-07-09 23:00;CYHM 092300Z 06012KT 15SM FEW030 21/13 A3020 RMK CU1 CU TR SLP225

CYHM;2009-07-10 00:00;CYHM 100000Z 05009KT 15SM FEW030 20/14 A3019 RMK CU1 CU TR SLP224

CYHM;2009-07-10 01:00;CYHM 100100Z 05007KT 15SM FEW250 18/13 A3020 RMK CI1 CI TR SLP225

CYHM;2009-07-10 02:00;CYHM 100200Z 05006KT 15SM FEW100 FEW250 17/13 A3021 RMK AC1CI1 AC TR CI TR SLP229

CYHM;2009-07-10 03:00;CYHM 100300Z 04006KT 15SM SKC 17/14 A3022 RMK SLP232

CYHM;2009-07-10 04:00;CYHM 100400Z 03006KT 15SM SKC 16/15 A3022 RMK SLP232

CYHM;2009-07-10 05:00;CYHM 100500Z 04006KT 15SM FEW220 16/15 A3021 RMK CI0 SLP229

CYHM;2009-07-10 06:00;CYHM 100600Z 04007KT 15SM FEW220 16/14 A3021 RMK CI0 SLP231

CYHM;2009-07-10 07:00;CYHM 100700Z 04007KT 15SM FEW220 15/14 A3021 RMK CI0 SLP231

CYHM;2009-07-10 08:00;CYHM 100800Z 04006KT 15SM SCT220 15/14 A3022 RMK CI1 SLP232

CYHM;2009-07-10 09:00;CYHM 100900Z 05006KT 15SM BKN220 15/14 A3022 RMK CI2 SLP233

CYHM;2009-07-10 10:00;CYHM 101000Z 04006KT 8SM FEW015 FEW100 BKN220 15/14 A3022 RMK SC1AC1CI1 SC TR SLP233

CYHM;2009-07-10 11:00;CYHM 101100Z 05004KT 5SM BR FEW045 FEW160 BKN220 15/14 A3028 RMK SC1AC2CI3 SC TR SLP253

CYHM;2009-07-10 12:00;CYHM 101200Z 08005KT 10SM FEW100 BKN220 17/16 A3022 RMK AC1CI3 SLP234

CYHM;2009-07-10 13:00;CYHM 101300Z 15006KT 15SM FEW160 BKN220 20/17 A3022 RMK AC1CI5 SLP234

CYHM;2009-07-10 14:00;CYHM 101400Z 20004KT 15SM FEW180 BKN220 22/17 A3022 RMK AC1CI4 SLP232

CYHM;2009-07-10 15:00;CYHM 101500Z 21004KT 15SM FEW030 BKN220 23/18 A3022 RMK CU1CI3 CU TR SLP231

CYHM;2009-07-10 16:00;CYHM 101600Z 20008KT 15SM FEW032 FEW180 BKN220 24/17 A3021 RMK CU1AC1CS5 HALO SLP228

CYHM;2009-07-10 18:00;CYHM 101800Z 22010KT 15SM FEW038 FEW180 OVC220 25/17 A3017 RMK CU1AC2CS6 HALO SLP217

CYHM;2009-07-10 19:00;CYHM 101900Z 20013KT 15SM FEW042 SCT180 BKN230 26/17 A3018 RMK CU1AC3CI2 SLP219

CYHM;2009-07-10 20:00;CYHM 102000Z 21010KT 15SM FEW045 FEW180 BKN240 26/17 A3017 RMK CU1AC2CI3 CONTRAILS SLP214

CYHM;2009-07-10 21:00;CYHM 102100Z 20009KT 15SM FEW050 FEW180 BKN230 26/15 A3016 RMK CU2AC1CI4 SLP213

CYHM;2009-07-10 22:00;CYHM 102200Z 20008KT 15SM FEW050 FEW120 BKN220 25/16 A3014 RMK SC1AC2CI4 SLP207

CYHM;2009-07-10 23:00;CYHM 102300Z 22006KT 15SM FEW140 BKN230 24/16 A3013 RMK AC2CI4 SLP201

CYHM;2009-07-11 00:00;CYHM 110000Z 20005KT 15SM FEW160 BKN220 24/17 A3012 RMK AC2CI6 SLP199

CYHM;2009-07-11 01:00;CYHM 110100Z 19005KT 15SM FEW160 SCT210 22/16 A3012 RMK AC1CI2 SLP197

CYHM;2009-07-11 02:00;CYHM 110200Z 18006KT 15SM SCT190 21/16 A3011 RMK AC2 SLP196

CYHM;2009-07-11 03:00;CYHM 110300Z 18005KT 15SM BKN180 21/17 A3010 RMK AC5 SLP191

CYHM;2009-07-11 04:00;CYHM 110400Z 18004KT 15SM BKN160 20/17 A3009 RMK AC6 SLP188

CYHM;2009-07-11 05:00;CYHM 110500Z 18004KT 15SM BKN140 19/16 A3008 RMK AC5 SLP183

CYHM;2009-07-11 06:00;CYHM 110600Z 19008KT 15SM BKN130 20/17 A3006 RMK AC7 SLP175

CYHM;2009-07-11 07:00;CYHM 110700Z 18009KT 12SM BKN150 21/17 A3002 RMK AC7 SLP164

CYHM;2009-07-11 08:00;CYHM 110800Z 20011KT 12SM BKN130 21/18 A3001 RMK AC5 SLP161

CYHM;2009-07-11 09:00;CYHM 110900Z 20012KT 12SM FEW055 BKN130 21/18 A3000 RMK SC2AC4 SLP157

CYHM;2009-07-11 10:00;CYHM 111000Z 21011KT 10SM FEW050 BKN130 BKN250 21/18 A3000 RMK SC2AC3CI1 SLP155

CYHM;2009-07-11 11:00;CYHM 111100Z CCA 20010KT 10SM FEW120 BKN250 21/19 A2998 RMK AC2CI2 SLP149

CYHM;2009-07-11 12:00;CYHM 111200Z 22010KT 10SM BKN120 BKN250 23/20 A2998 RMK AC6CI2 SLP149

CYHM;2009-07-11 12:49;CYHM 111249Z 22009KT 8SM -TSRA BKN043 OVC057 RMK CU6SC2 CB EMBDD

CYHM;2009-07-11 13:00;CYHM 111300Z 22009KT 8SM -TSRA FEW014 BKN041 OVC057 22/20 A2998 RMK CF2CU5SC2 CB EMBDD SLP148

CYHM;2009-07-11 13:07;CYHM 111307Z 30012KT 1SM +TSRA BKN014 OVC040 RMK RA2CF6SC1 CB EMBDD WND SHFT 1304Z

CYHM;2009-07-11 13:17;CYHM 111317Z 24012G24KT 190V320 8SM -TSRA SCT011 BKN022CB OVC036 RERA RMK CF3CB3SC2

CYHM;2009-07-11 13:42;CYHM 111342Z 31006KT 5SM -TSRA BR BKN013 OVC035 RERA RMK CF6SC2 CB EMBDD /R14/

CYHM;2009-07-11 14:00;CYHM 111400Z 33006KT 5SM -TSRA BR BKN009 BKN018CB OVC035 21/20 A2997 RMK CF6CB2SC1 SLP146

CYHM;2009-07-11 14:19;CYHM 111419Z 27008KT 9SM -SHRA FEW008 FEW018CB OVC060 RETS RMK CF1CB1SC6

CYHM;2009-07-11 15:00;CYHM 111500Z 18006KT 12SM -SHRA FEW015 FEW060 BKN093 BKN250 21/20 A2992 RETS RMK CU1SC2AC5CI1 CU TR PCPN VRY LGT SLP131

CYHM;2009-07-11 16:00;CYHM 111600Z 26006KT 15SM FEW040 SCT110 BKN170 BKN250 23/20 A2994 RMK SC1AC3AC2CI1 SLP136

CYHM;2009-07-11 17:00;CYHM 111700Z 23012KT 15SM FEW025 FEW110 BKN190 BKN250 24/20 A2994 RMK CU1AC2AC4CI2 CU TR SLP135

CYHM;2009-07-11 18:00;CYHM 111800Z 25013KT 15SM FEW042 BKN120 BKN250 26/17 A2993 RMK CU2AC2CI1 SLP131

CYHM;2009-07-11 19:00;CYHM 111900Z 24015G22KT 15SM BKN040 BKN070 26/18 A2991 RMK CU6AC1 SLP126

CYHM;2009-07-11 20:00;CYHM 112000Z 23016KT 15SM SCT035 SCT058 SCT080 25/19 A2990 RMK CU3SC1AC1 TCU ASOCTD AC TR SLP121

CYHM;2009-07-11 21:00;CYHM 112100Z 25014KT 15SM BKN031 BKN054 26/19 A2988 RMK CU5SC2 CB DIST SW SLP113

CYHM;2009-07-11 21:15;CYHM 112115Z 23013KT 12SM -TSRA BKN031 BKN052 RMK CU5SC2 CB ASOCTD SW-W

CYHM;2009-07-11 21:24;CYHM 112124Z 23013KT 7SM TSRA BKN031 BKN054 RMK CU5SC2 CB EMBD LTGCG

CYHM;2009-07-11 21:30;CYHM 112130Z 27012KT 1 3/4SM TSRA BR BKN027 OVC040 RMK FG2SC5SC2 CB EMBD

CYHM;2009-07-11 21:37;CYHM 112137Z 29015KT 7SM -TSRA BKN029TCU BKN039 RERA RMK TCU5SC2 CB EMBD

CYHM;2009-07-11 22:00;CYHM 112200Z 25003KT 12SM TS VCSH BKN030TCU BKN046 23/18 A2988 RERA RMK TCU5SC2 CB ASOCTD SLP115

CYHM;2009-07-11 23:00;CYHM 112300Z 22006KT 15SM TS VCSH FEW015 SCT029CB BKN052 BKN200 23/19 A2990 RMK CF1CB2SC2CI1 CB E-S SLP121

CYHM;2009-07-11 23:25;CYHM 112325Z 24006KT 15SM FEW015 SCT030TCU BKN052 BKN120 RETS RMK CF1TCU3SC2AC1 CB TOPS DIST E-S CF TR

CYHM;2009-07-12 00:00;CYHM 120000Z 28009KT 15SM FEW030TCU SCT050 22/16 A2989 RETS RMK TCU2SC1 SLP120

CYHM;2009-07-12 01:00;CYHM 120100Z 32014KT 15SM FEW030TCU FEW100 FEW250 20/15 A2994 RMK TCU2AC1CI1 AC TR CI TR SLP136

CYHM;2009-07-12 02:00;CYHM 120200Z 34010KT 15SM FEW030TCU 18/12 A2997 RMK TCU1 OCNL DIST LTNG SE TCU TR SLP147

CYHM;2009-07-12 03:00;CYHM 120300Z 32005KT 15SM SKC 16/13 A3000 RMK SLP158

CYHM;2009-07-12 04:00;CYHM 120400Z 32005KT 15SM SKC 14/11 A3001 RMK SLP162

CYHM;2009-07-12 05:00;CYHM 120500Z 31005KT 15SM SKC 13/09 A3003 RMK SLP167

CYHM;2009-07-12 06:00;CYHM 120600Z 29003KT 15SM SKC 12/09 A3003 RMK SLP167

CYHM;2009-07-12 07:00;CYHM 120700Z 26005KT 15SM FEW210 11/09 A3004 RMK CI1 SLP170

CYHM;2009-07-12 08:00;CYHM 120800Z 00000KT 15SM SKC 09/08 A3004 RMK SLP170

CYHM;2009-07-12 09:00;CYHM 120900Z 22002KT 15SM SKC 09/07 A3004 RMK CONTRAILS SLP173

CYHM;2009-07-12 10:00;CYHM 121000Z 24003KT 15SM FEW200 09/07 A3005 RMK CI1 SLP175

CYHM;2009-07-12 11:00;CYHM 121100Z 24004KT 15SM FEW220 10/09 A3006 RMK CI0 SLP179

CYHM;2009-07-12 12:00;CYHM 121200Z 24006KT 15SM FEW220 12/08 A3007 RMK CI1 SLP181

CYHM;2009-07-12 13:00;CYHM 121300Z 24008KT 15SM FEW220 15/07 A3007 RMK CI1 SLP182

CYHM;2009-07-12 14:00;CYHM 121400Z 24008KT 200V290 15SM FEW250 16/10 A3006 RMK CI0 SLP178

CYHM;2009-07-12 15:00;CYHM 121500Z 24007KT 15SM FEW036 FEW250 20/11 A3005 RMK CU1CI0 CU TR SLP177

CYHM;2009-07-12 16:00;CYHM 121600Z 25009KT 190V320 15SM FEW040 FEW250 21/10 A3004 RMK CU1CI1 CI TR SLP172

CYHM;2009-07-12 17:00;CYHM 121700Z 28012KT 15SM FEW048 FEW120 FEW250 22/10 A3003 RMK CU2AC1CI1 AC CI TR SLP169

CYHM;2009-07-12 18:00;CYHM 121800Z 28008KT 230V310 15SM SCT063 SCT250 21/09 A3002 RMK CU4CI1 SLP165

CYHM;2009-07-12 19:00;CYHM 121900Z 26009KT 15SM BKN063 BKN075 23/11 A3001 RMK CU5AC1 SLP161

CYHM;2009-07-12 20:00;CYHM 122000Z 26012KT 230V290 15SM BKN063 BKN078 BKN200 24/10 A3000 RMK CU5AC1CC1 CC TR SLP158

CYHM;2009-07-12 21:00;CYHM 122100Z 28006KT 250V310 15SM SCT062 BKN078 BKN100 23/11 A2999 RMK CU4AC2AC2 SLP157

CYHM;2009-07-12 22:00;CYHM 122200Z 26008KT 15SM SCT062 BKN071 BKN110 21/11 A2998 RMK CU3AC2AC2 SLP153

CYHM;2009-07-12 23:00;CYHM 122300Z 24005KT 15SM FEW055 BKN071 BKN094 20/12 A2997 RMK CU2AC2AC2 SLP150

CYHM;2009-07-13 00:00;CYHM 130000Z 25004KT 15SM FEW055 SCT070 SCT090 19/13 A2997 RMK CU2AC2AC1 SLP149

CYHM;2009-07-13 01:00;CYHM 130100Z 21003KT 15SM FEW055 FEW070 FEW095 17/13 A2996 RMK CU1AC1AC1 SLP146

CYHM;2009-07-13 02:00;CYHM 130200Z 23004KT 15SM FEW070 15/12 A2997 RMK AC1 SLP148

CYHM;2009-07-13 03:00;CYHM 130300Z 00000KT 15SM FEW070 FEW210 14/12 A2996 RMK AC2CI1 SLP145

CYHM;2009-07-13 04:00;CYHM 130400Z 29006KT 15SM BKN082 16/13 A2997 RMK AC5 SLP148

CYHM;2009-07-13 05:00;CYHM 130500Z 33006KT 15SM SCT089 15/11 A2998 RMK AC4 SLP152

CYHM;2009-07-13 06:00;CYHM 130600Z 33008KT 15SM FEW083 14/10 A2998 RMK AC1 SLP153

CYHM;2009-07-13 07:00;CYHM 130700Z 31005KT 15SM SKC 13/09 A2999 RMK SLP154

CYHM;2009-07-13 08:00;CYHM 130800Z 29005KT 15SM FEW075 11/09 A2999 RMK AC1 SLP154

CYHM;2009-07-13 09:00;CYHM 130900Z 29005KT 15SM FEW210 11/08 A2999 RMK CI1 SLP157

CYHM;2009-07-13 10:00;CYHM 131000Z 26005KT 15SM FEW070 FEW210 10/08 A3000 RMK AC1CI1 SLP158

CYHM;2009-07-13 11:00;CYHM 131100Z 27004KT 15SM FEW100 11/10 A3000 RMK AC1 AC TR SLP159

CYHM;2009-07-13 12:00;CYHM 131200Z 28007KT 15SM SKC 14/11 A3000 RMK SLP160

CYHM;2009-07-13 13:00;CYHM 131300Z 24008KT 15SM SKC 17/11 A3000 RMK SLP159

CYHM;2009-07-13 14:00;CYHM 131400Z 28010KT 15SM FEW090 18/08 A2999 RMK AC1 AC TR SLP156

CYHM;2009-07-13 15:00;CYHM 131500Z 28010KT 15SM FEW040 BKN100 20/09 A2999 RMK CU1AC5 CU TR SLP155

CYHM;2009-07-13 16:00;CYHM 131600Z 32012KT 15SM FEW044 FEW100 20/08 A2998 RMK CU1AC1 SLP154

CYHM;2009-07-13 17:00;CYHM 131700Z 27012KT 15SM FEW045 FEW062 SCT095 21/09 A2997 RMK CU2SC1AC1 SLP149

CYHM;2009-07-13 18:00;CYHM 131800Z 28015G23KT 15SM BKN065 21/08 A2996 RMK SC6 CU ASOCTD SLP146

CYHM;2009-07-13 19:00;CYHM 131900Z 29014G20KT 15SM FEW064 BKN084 21/08 A2996 RMK SC2AC3 CU ASOCTD SLP145

CYHM;2009-07-13 20:00;CYHM 132000Z 26013G22KT 15SM BKN070 21/08 A2996 RMK AC5 CUFRA ASOCTD SLP145

CYHM;2009-07-13 21:00;CYHM 132100Z 28015G22KT 15SM BKN076 20/08 A2996 RMK AC6 SLP147

CYHM;2009-07-13 22:00;CYHM 132200Z 27010KT 15SM FEW070 21/07 A2996 RMK AC2 SLP147

CYHM;2009-07-13 23:00;CYHM 132300Z 29013KT 15SM FEW070 20/07 A2996 RMK AC1 SLP147

CYHM;2009-07-14 00:00;CYHM 140000Z 27004KT 15SM FEW074 20/07 A2997 RMK AC1 SLP150

CYHM;2009-07-14 01:00;CYHM 140100Z 26002KT 15SM FEW070 FEW250 18/07 A2998 RMK AC1CI1 CI TR SLP153

CYHM;2009-07-14 02:00;CYHM 140200Z 31002KT 15SM FEW092 16/08 A3000 RMK AC2 SLP160

CYHM;2009-07-14 03:00;CYHM 140300Z 32002KT 15SM FEW090 15/08 A3001 RMK AC1 SLP163

CYHM;2009-07-14 04:00;CYHM 140400Z 36002KT 15SM FEW090 15/07 A3002 RMK AC1 AC TR SLP167

CYHM;2009-07-14 05:00;CYHM 140500Z 28002KT 15SM FEW090 12/08 A3004 RMK AC1 AC TR SLP172

CYHM;2009-07-14 06:00;CYHM 140600Z 30006KT 15SM FEW074 12/07 A3003 RMK AC1 AC TR SLP170

CYHM;2009-07-14 07:00;CYHM 140700Z 28007KT 15SM FEW070 12/06 A3004 RMK AC1 AC TR SLP172

CYHM;2009-07-14 08:00;CYHM 140800Z 30007KT 15SM SKC 12/04 A3003 RMK SLP170

CYHM;2009-07-14 09:00;CYHM 140900Z 26004KT 15SM FEW074 FEW250 10/05 A3004 RMK AC1CI1 AC TR CI TR SLP175

CYHM;2009-07-14 10:00;CYHM 141000Z 30008KT 15SM FEW074 FEW250 10/05 A3006 RMK AC1CI1 AC TR CI TR SLP180

CYHM;2009-07-14 11:00;CYHM 141100Z 27002KT 15SM FEW250 12/07 A3007 RMK CI0 CI TR SLP184

CYHM;2009-07-14 12:00;CYHM 141200Z 31006KT 15SM FEW250 13/08 A3012 RMK CI1 CI TR SLP199

CYHM;2009-07-14 13:00;CYHM 141300Z 33012KT 15SM FEW250 16/09 A3013 RMK CI1 CI TR SLP205

CYHM;2009-07-14 14:00;CYHM 141400Z 35008KT 15SM SKC 18/09 A3013 RMK SLP204

CYHM;2009-07-14 15:00;CYHM 141500Z 32006KT 15SM FEW040 FEW240 19/09 A3014 RMK CU1CI1 SLP207

CYHM;2009-07-14 16:00;CYHM 141600Z 33004KT 15SM FEW040 FEW240 20/10 A3014 RMK CU1CI1 CI TR SLP208

CYHM;2009-07-14 17:00;CYHM 141700Z 30010KT 15SM SCT056 21/10 A3014 RMK CU3 SLP207

CYHM;2009-07-14 18:00;CYHM 141800Z 30006KT 15SM SCT058 SCT250 22/10 A3013 RMK CU4CI1 CI TR SLP203

CYHM;2009-07-14 19:00;CYHM 141900Z 27006KT 15SM BKN060 21/10 A3012 RMK CU6 SC ASOCTD SLP201

CYHM;2009-07-14 20:00;CYHM 142000Z 30007KT 15SM BKN070 22/10 A3013 RMK AC6 SLP202

CYHM;2009-07-14 21:00;CYHM 142100Z 27010KT 15SM SCT064 SCT250 23/11 A3013 RMK CU4CI1 CI TR SLP202

CYHM;2009-07-14 22:00;CYHM 142200Z 27010KT 15SM FEW064 FEW250 23/11 A3012 RMK CU2CI1 CI TR SLP200

CYHM;2009-07-14 23:00;CYHM 142300Z 21010KT 15SM FEW068 FEW250 22/11 A3012 RMK AC2CI1 CI TR SLP201

CYHM;2009-07-15 00:00;CYHM 150000Z 20007KT 15SM FEW070 FEW250 20/13 A3013 RMK AC1CI1 SLP204

CYHM;2009-07-15 01:00;CYHM 150100Z 21002KT 15SM FEW080 BKN250 18/12 A3013 RMK AC1CI1 CONTRAILS SLP205

CYHM;2009-07-15 02:00;CYHM 150200Z 23005KT 15SM FEW080 BKN250 16/12 A3014 RMK AC1CI1 CONTRAILS SLP208

CYHM;2009-07-15 03:00;CYHM 150300Z 23003KT 15SM BKN250 15/11 A3014 RMK CI1 SLP208

CYHM;2009-07-15 04:00;CYHM 150400Z 24004KT 15SM BKN250 14/11 A3015 RMK CI1 SLP209

CYHM;2009-07-15 05:00;CYHM 150500Z 26002KT 15SM BKN250 14/10 A3015 RMK CI1 SLP209

CYHM;2009-07-15 06:00;CYHM 150600Z 26002KT 15SM FEW250 12/10 A3013 RMK CI1 SLP205

CYHM;2009-07-15 07:00;CYHM 150700Z 23003KT 15SM FEW250 11/10 A3013 RMK CI1 SLP203

CYHM;2009-07-15 08:00;CYHM 150800Z 24002KT 15SM FEW250 10/09 A3013 RMK CI1 CI TR SLP204

CYHM;2009-07-15 09:00;CYHM 150900Z 25002KT 15SM BKN180 BKN250 11/09 A3013 RMK AC3CI1 CI TR SLP204

CYHM;2009-07-15 10:00;CYHM 151000Z 18002KT 15SM BKN180 10/09 A3013 RMK AC6 SLP203

CYHM;2009-07-15 11:00;CYHM 151100Z 00000KT 15SM BKN180 13/11 A3013 RMK AC6 SLP204

CYHM;2009-07-15 12:00;CYHM 151200Z 00000KT 15SM FEW180 SCT240 15/12 A3013 RMK AC2CI1 SLP204

CYHM;2009-07-15 13:00;CYHM 151300Z 18006KT 15SM FEW160 SCT240 19/15 A3013 RMK AC1CI2 SLP204

CYHM;2009-07-15 14:00;CYHM 151400Z 16010KT 15SM FEW120 BKN220 20/14 A3010 RMK AC1CI4 AC TR CONTRAIL SLP194

CYHM;2009-07-15 15:00;CYHM 151500Z 17010KT 15SM FEW170 BKN210 22/12 A3010 RMK AC1CI4 CONTRAIL SLP192

CYHM;2009-07-15 16:00;CYHM 151600Z 18012KT 15SM FEW040 BKN210 23/12 A3007 RMK CU1CI5 CU TR CONTRAIL SLP183

CYHM;2009-07-15 17:00;CYHM 151700Z 22012KT 15SM SCT140 BKN210 23/11 A3006 RMK AS3CI4 SLP179

CYHM;2009-07-15 18:00;CYHM 151800Z 19011KT 15SM FEW130 BKN250 24/13 A3004 RMK AC1CS6 SLP171

CYHM;2009-07-15 19:00;CYHM 151900Z 20011KT 15SM FEW180 BKN250 24/12 A3000 RMK AC1CS6 SLP158

CYHM;2009-07-15 20:00;CYHM 152000Z 20010KT 15SM FEW140 BKN190 BKN250 24/12 A2998 RMK AC1AC5CI1 CONTRAILS SLP154

CYHM;2009-07-15 21:00;CYHM 152100Z 20006KT 15SM BKN110 OVC250 24/11 A2996 RMK AC6CI1 SLP146

CYHM;2009-07-15 22:00;CYHM 152200Z 21004KT 15SM BKN100 BKN190 BKN250 23/12 A2994 RMK AC6AC2CI1 CI TR SLP139

CYHM;2009-07-15 23:00;CYHM 152300Z 20005KT 15SM FEW096 BKN130 23/13 A2992 RMK AC2AC5 SLP133

CYHM;2009-07-16 00:00;CYHM 160000Z 20003KT 8SM -SHRA BKN064 OVC088 20/14 A2991 RMK SC6AC2 SLP130

CYHM;2009-07-16 00:37;CYHM 160037Z 13006KT 15SM FEW064 OVC084 RMK SC2AC6

CYHM;2009-07-16 01:00;CYHM 160100Z 15007KT 15SM BKN068 OVC110 20/15 A2988 RMK AC6AC2 SLP118

CYHM;2009-07-16 02:00;CYHM 160200Z 15006KT 15SM FEW060 BKN083 BKN130 20/14 A2986 RMK SC2AC3AC2 SLP111

CYHM;2009-07-16 03:00;CYHM 160300Z 15005KT 15SM FEW060 BKN078 BKN140 20/14 A2984 RMK SC2AC2AC1 SLP105

CYHM;2009-07-16 04:00;CYHM 160400Z 02003KT 15SM FEW050 FEW075 FEW140 18/14 A2982 RMK SC1AC1AC1 SLP097

CYHM;2009-07-16 05:00;CYHM 160500Z 30004KT 12SM -SHRA OVC040 19/16 A2981 RMK SC8 OCNL LTNG SW SLP092

CYHM;2009-07-16 06:00;CYHM 160600Z 25006KT 15SM FEW025 FEW100 20/16 A2979 RMK SC1AC1 SLP086

CYHM;2009-07-16 07:00;CYHM 160700Z 26005KT 15SM SKC 18/16 A2979 RMK SLP084

CYHM;2009-07-16 08:00;CYHM 160800Z 24005KT 15SM SKC 18/17 A2978 RMK SLP081

CYHM;2009-07-16 09:00;CYHM 160900Z 25005KT 10SM FEW210 18/17 A2977 RMK CI1 SLP080

CYHM;2009-07-16 10:00;CYHM 161000Z 25005KT 5SM BR FEW100 FEW210 18/17 A2978 RMK AC1CI1 TR AC SLP084

CYHM;2009-07-16 11:00;CYHM 161100Z 26008KT 5SM BR FEW025 19/17 A2979 RMK CU1 CU TR SLP087

CYHM;2009-07-16 12:00;CYHM 161200Z 27008KT 10SM SKC 20/17 A2980 RMK SLP089

CYHM;2009-07-16 13:00;CYHM 161300Z 28008KT 15SM FEW025 21/17 A2980 RMK CU1 CU TR SLP089

CYHM;2009-07-16 14:00;CYHM 161400Z 27012KT 15SM FEW018 FEW024 22/18 A2981 RMK CU2SC1 SLP091

CYHM;2009-07-16 15:00;CYHM 161500Z 27012KT 15SM FEW022 23/18 A2981 RMK CU2 SLP094

CYHM;2009-07-16 16:00;CYHM 161600Z 28010KT 15SM FEW032 24/17 A2981 RMK CU2 SC ASOCTD SLP094

CYHM;2009-07-16 17:00;CYHM 161700Z 28010KT 15SM SCT040 BKN058 25/17 A2981 RMK CU3SC2 SLP093

CYHM;2009-07-16 18:00;CYHM 161800Z 28010KT 15SM SCT040 BKN060 24/15 A2981 RMK CU4SC2 SLP091

CYHM;2009-07-16 19:00;CYHM 161900Z 25013KT 15SM BKN048 25/16 A2981 RMK CU5 SLP091

CYHM;2009-07-16 20:00;CYHM 162000Z 28014KT 15SM SCT058 BKN250 25/15 A2981 RMK CU4CI0 SLP091

CYHM;2009-07-16 21:00;CYHM 162100Z 30008KT 15SM BKN056 BKN250 25/14 A2980 RMK CU6CI1 SLP088

CYHM;2009-07-16 22:00;CYHM 162200Z 23008KT 15SM BKN044 25/16 A2978 RMK CU7 SLP084

CYHM;2009-07-16 23:00;CYHM 162300Z 21009KT 15SM BKN045 BKN250 24/16 A2977 RMK CU6CI0 SLP079

CYHM;2009-07-17 00:00;CYHM 170000Z 24008KT 15SM -SHRA BKN040 BKN250 23/16 A2977 RMK CU6CI0 SLP077

CYHM;2009-07-17 00:27;CYHM 170027Z 26004KT 15SM BKN040 BKN056 BKN250 RMK CU5SC2CI0

CYHM;2009-07-17 01:00;CYHM 170100Z 29008KT 15SM FEW040TCU FEW056 FEW092 SCT250 22/16 A2976 RMK TCU1SC1AC1CI0 AC TR SLP075

CYHM;2009-07-17 02:00;CYHM 170200Z 27004KT 15SM FEW220 21/13 A2978 RMK CI1 SLP082

CYHM;2009-07-17 03:00;CYHM 170300Z 22002KT 15SM FEW220 19/14 A2978 RMK CI1 SLP084

CYHM;2009-07-17 04:00;CYHM 170400Z 26004KT 15SM BKN230 18/12 A2979 RMK CI3 SLP086

CYHM;2009-07-17 05:00;CYHM 170500Z 26004KT 15SM SCT210 17/12 A2980 RMK CI2 SLP089

CYHM;2009-07-17 06:00;CYHM 170600Z 26004KT 15SM SCT210 16/12 A2981 RMK CI2 SLP092

CYHM;2009-07-17 07:00;CYHM 170700Z 00000KT 15SM FEW190 SCT220 16/12 A2979 RMK AC2CI1 SLP085

CYHM;2009-07-17 08:00;CYHM 170800Z 19002KT 15SM SCT100 BKN150 14/12 A2978 RMK AC4AC3 SLP083

CYHM;2009-07-17 09:00;CYHM 170900Z 20006KT 15SM BKN061 15/12 A2980 RMK SC7 SLP089

CYHM;2009-07-17 09:10;CYHM 170910Z 23004KT 15SM -SHRA BKN058 RMK SC7

CYHM;2009-07-17 10:00;CYHM 171000Z 23005KT 15SM -SHRA SCT052 BKN076 15/13 A2981 RMK SC4AC3 SLP094

CYHM;2009-07-17 10:51;CYHM 171051Z CCA 00000KT 15SM BKN052 RMK SC7 RERA

CYHM;2009-07-17 11:00;CYHM 171100Z 20002KT 15SM BKN051 BKN080 15/13 A2980 RMK SC6AC2 SLP089

CYHM;2009-07-17 12:00;CYHM 171200Z 20003KT 15SM OVC046 15/13 A2980 RMK SC8 SLP090

CYHM;2009-07-17 12:56;CYHM 171256Z 21008KT 2SM -SHRA BKN017 OVC051 RMK SC6SC2

CYHM;2009-07-17 13:00;CYHM 171300Z 20006KT 2SM SHRA BR BKN012 OVC031 15/14 A2981 RMK FG1SF5SC2 SLP095

CYHM;2009-07-17 13:35;CYHM 171335Z 17002KT 10SM SCT035 OVC088 RMK SC4AC4 RERA

CYHM;2009-07-17 14:00;CYHM 171400Z 00000KT 15SM FEW035 BKN063 BKN089 16/14 A2978 RMK SC2SC3AC2 SLP082

CYHM;2009-07-17 15:00;CYHM 171500Z 00000KT 15SM FEW040 BKN052 OVC120 18/15 A2977 RMK SC2SC3AC3 SLP079

CYHM;2009-07-17 15:15;CYHM 171515Z 21006KT 15SM -SHRA SCT040 BKN051 OVC110 RMK SC3SC3AC2

CYHM;2009-07-17 16:00;CYHM 171600Z 16008KT 15SM -SHRA FEW035 BKN056 OVC085 18/15 A2976 RMK SC1SC5AC2 SLP077

CYHM;2009-07-17 16:52;CYHM 171652Z 16008KT 15SM FEW020 SCT035 OVC098 RMK CU1SC3AC4 RERA

CYHM;2009-07-17 17:00;CYHM 171700Z 17008KT 15SM FEW020 BKN032 OVC090 18/16 A2975 RMK CU1SC5AC2 SLP072

CYHM;2009-07-17 18:00;CYHM 171800Z 19008KT 15SM BKN012 OVC028 19/16 A2974 RMK SC6SC2 SLP071

CYHM;2009-07-17 18:35;CYHM 171835Z 18011KT 12SM -SHRA SCT010 BKN055 RMK SC4SC3 TCU ASOCTD LWR LYR

CYHM;2009-07-17 19:00;CYHM 171900Z 19008KT 15SM FEW010TCU SCT050 BKN120 19/16 A2973 RMK TCU2SC2AC3 SLP066

CYHM;2009-07-17 19:47;CYHM 171947Z 20007KT 10SM -SHRA BKN016TCU BKN029 RMK TCU6SC2

CYHM;2009-07-17 20:00;CYHM 172000Z 18010KT 12SM -SHRA BKN015TCU BKN090 18/16 A2974 RMK TCU5AC2 SLP069

CYHM;2009-07-17 21:00;CYHM 172100Z 18008KT 7SM -SHRA BKN008 BKN070 18/16 A2973 RMK SC6AC2 TCU ASOCTD SLP069

CYHM;2009-07-17 22:00;CYHM 172200Z 22005KT 15SM SCT009 BKN038 BKN110 18/16 A2972 RMK SC3SC2AC2 TCU ASOCTD LWR LYR SLP066

CYHM;2009-07-17 23:00;CYHM 172300Z 20004KT 15SM VCSH FEW012TCU SCT030 BKN077 18/16 A2972 RMK TCU2SC2AC4 SLP065

CYHM;2009-07-18 00:00;CYHM 180000Z 24004KT 15SM BKN010 BKN060 18/17 A2973 RMK SC6SC2 TCU ASOCTD CIG RAG SLP069

CYHM;2009-07-18 00:20;CYHM 180020Z 26005KT 15SM FEW010 SCT048 BKN095 RMK SC2SC1AC2 TCU ASOCTD

CYHM;2009-07-18 01:00;CYHM 180100Z 25006KT 15SM FEW015 FEW050 SCT090 17/15 A2973 RMK SC2SC1AC1 FEW TCU SLP069

CYHM;2009-07-18 02:00;CYHM 180200Z 23004KT 15SM FEW030 FEW070 BKN220 15/14 A2974 RMK SC1AC2CI2 SLP072

CYHM;2009-07-18 03:00;CYHM 180300Z 26003KT 15SM MIFG BKN090 15/15 A2975 RMK AC5 SLP074

CYHM;2009-07-18 04:00;CYHM 180400Z 00000KT 15SM FEW090 FEW220 14/12 A2975 RMK AC1CI1 SLP076

CYHM;2009-07-18 05:00;CYHM 180500Z 00000KT 15SM FEW090 FEW220 13/12 A2976 RMK AC1CI1 SLP079

CYHM;2009-07-18 06:00;CYHM 180600Z 28004KT 15SM FEW080 12/11 A2976 RMK AC2 SLP079

CYHM;2009-07-18 07:00;CYHM 180700Z 27002KT 15SM FEW120 12/11 A2976 RMK AC2 SLP079

CYHM;2009-07-18 08:00;CYHM 180800Z 25004KT 15SM BKN110 12/11 A2978 RMK AC6 SLP085

CYHM;2009-07-18 09:00;CYHM 180900Z 28005KT 15SM FEW037 BKN110 12/11 A2979 RMK SC2AC6 SLP089

CYHM;2009-07-18 10:00;CYHM 181000Z 26003KT 15SM BKN038 12/11 A2981 RMK SC7 SLP094

CYHM;2009-07-18 11:00;CYHM 181100Z 25004KT 15SM BKN043 13/12 A2982 RMK SC7 SLP099

CYHM;2009-07-18 12:00;CYHM 181200Z 25004KT 15SM FEW040 FEW092 13/12 A2982 RMK SC1AC2 SLP098

CYHM;2009-07-18 13:00;CYHM 181300Z 29007KT 15SM FEW012 FEW032 BKN045 BKN092 15/12 A2983 RMK CF1CU2SC4AC2 CF TR SLP103

CYHM;2009-07-18 14:00;CYHM 181400Z 27009KT 15SM FEW042 BKN078 16/12 A2984 RMK SC2AC5 CU ASOCTD SLP104

CYHM;2009-07-18 15:00;CYHM 181500Z 25006KT 210V310 15SM FEW040 BKN078 17/12 A2985 RMK CU1AC6 SLP108

CYHM;2009-07-18 16:00;CYHM 181600Z 24010KT 210V290 15SM SCT028 BKN039 BKN080 19/13 A2985 RMK CU4SC2AC1 SLP109

CYHM;2009-07-18 17:00;CYHM 181700Z 26010KT 220V310 15SM BKN029 BKN037 BKN100 19/13 A2985 RMK CU5SC2AC1 SLP109

CYHM;2009-07-18 17:22;CYHM 181722Z 26012G20KT 15SM -SHRA BKN032 BKN067 RMK CU5AC2

CYHM;2009-07-18 18:00;CYHM 181800Z 26010KT 210V300 15SM FEW032 BKN087 19/12 A2986 RMK CU2AC5 SLP111

CYHM;2009-07-18 19:00;CYHM 181900Z 24013KT 200V270 15SM SCT032 BKN050 BKN072 19/13 A2987 RMK CU3SC2AC2 SLP115

CYHM;2009-07-18 20:00;CYHM 182000Z 25012KT 15SM SCT032 BKN050 BKN095 20/13 A2987 RMK CU3SC2AC2 TCU ASOCTD SE SLP115

CYHM;2009-07-18 21:00;CYHM 182100Z 26011KT 15SM FEW033 BKN057 BKN085 19/12 A2988 RMK CU2SC2AC2 SLP118

CYHM;2009-07-18 22:00;CYHM 182200Z 24008KT 15SM FEW032 SCT055 BKN092 19/12 A2988 RMK CU2SC2AC3 SLP120

CYHM;2009-07-18 22:46;CYHM 182246Z 26006KT 15SM -SHRA FEW032 BKN044 BKN081 RMK CU2SC2AC2

CYHM;2009-07-18 23:00;CYHM 182300Z 26005KT 15SM VCSH FEW032 BKN045 BKN081 19/13 A2990 RMK CU2SC2AC2 OCNL -SHRA SLP125

CYHM;2009-07-19 00:00;CYHM 190000Z 24012KT 15SM FEW032 SCT068 BKN100 18/11 A2992 RMK CU2AC2AC2 SLP132

CYHM;2009-07-19 01:00;CYHM 190100Z 23008KT 15SM FEW032 FEW070 SCT100 16/12 A2993 RMK CU1AC1AC2 SLP137

CYHM;2009-07-19 02:00;CYHM 190200Z 23006KT 15SM FEW032 FEW070 FEW100 14/12 A2995 RMK CU1AC1AC1 CU TR SLP143

CYHM;2009-07-19 03:00;CYHM 190300Z 23003KT 15SM FEW078 BKN090 14/12 A2996 RMK AC1AC6 SLP146

CYHM;2009-07-19 04:00;CYHM 190400Z 26003KT 15SM FEW086 14/13 A2996 RMK AC2 SLP147

CYHM;2009-07-19 05:00;CYHM 190500Z 22003KT 15SM FEW086 13/12 A2997 RMK AC1 AC TR SLP150

CYHM;2009-07-19 06:00;CYHM 190600Z 24004KT 15SM FEW090 13/12 A2997 RMK AC1 AC TR SLP151

CYHM;2009-07-19 07:00;CYHM 190700Z 24004KT 15SM BKN070 14/13 A2998 RMK AC5 SLP152

CYHM;2009-07-19 08:00;CYHM 190800Z CCA 24004KT 15SM FEW007 SCT062 13/13 A2999 RMK SC1SC3 1ST LYR TR SLP155

CYHM;2009-07-19 09:00;CYHM 190900Z 21003KT 15SM FEW004 SCT052 13/12 A3001 RMK SF1SC4 SF TR SLP161

CYHM;2009-07-19 10:00;CYHM 191000Z 25004KT 15SM FEW006 FEW050 12/12 A3002 RMK SF1SC1 SF TR SLP166

CYHM;2009-07-19 11:00;CYHM 191100Z 22005KT 15SM FEW002 FEW050 13/12 A3005 RMK SF1SC1 SF TR SLP175

CYHM;2009-07-19 12:00;CYHM 191200Z 23007KT 15SM FEW008 SCT060 15/14 A3007 RMK CF2SC1 SLP182

CYHM;2009-07-19 13:00;CYHM 191300Z 27012KT 15SM BKN015 16/13 A3008 RMK CU7 SLP186

CYHM;2009-07-19 14:00;CYHM 191400Z 26010KT 15SM BKN019 17/13 A3008 RMK CU7 SLP188

CYHM;2009-07-19 15:00;CYHM 191500Z 28010KT 220V330 15SM BKN025 BKN037 19/14 A3010 RMK CU6SC2 SLP194

CYHM;2009-07-19 16:00;CYHM 191600Z 25010KT 15SM FEW018 OVC042 18/13 A3011 RMK CU2SC6 SLP198

CYHM;2009-07-19 17:00;CYHM 191700Z 27006KT 220V310 15SM BKN026 OVC047 18/14 A3012 RMK CU5SC3 SLP199

CYHM;2009-07-19 18:00;CYHM 191800Z 27006KT 15SM FEW020 BKN045 BKN061 19/14 A3012 RMK CU2SC3SC2 SLP201

CYHM;2009-07-19 19:00;CYHM 191900Z 27007KT 15SM SCT022 BKN045 BKN064 18/13 A3013 RMK CU3SC2SC2 SLP203

CYHM;2009-07-19 20:00;CYHM 192000Z 27006KT 15SM FEW024 SCT045 BKN068 19/13 A3013 RMK CU2SC2AC3 SLP203

CYHM;2009-07-19 21:00;CYHM 192100Z 26008KT 15SM FEW025 SCT045 BKN070 21/14 A3012 RMK CU2SC2AC3 SLP200

CYHM;2009-07-19 22:00;CYHM 192200Z 25008KT 15SM SCT028 SCT070 BKN250 20/13 A3011 RMK CU3AC1CI1 SLP198

CYHM;2009-07-19 23:00;CYHM 192300Z 25006KT 15SM SCT030 SCT070 SCT250 20/13 A3012 RMK CU3AC1CI1 AC TR CI TR SLP199

CYHM;2009-07-20 00:00;CYHM 200000Z 25003KT 15SM FEW030 FEW250 19/13 A3012 RMK CU2CI1 CI TR SLP201

CYHM;2009-07-20 01:00;CYHM 200100Z 21003KT 15SM FEW030 FEW250 18/13 A3013 RMK CU1CI1 CU TR CI TR SLP202

CYHM;2009-07-20 02:00;CYHM 200200Z 21004KT 15SM FEW030 FEW060 15/13 A3014 RMK CU1SC1 CU TR SC TR SLP208

CYHM;2009-07-20 03:00;CYHM 200300Z 25004KT 15SM FEW100 FEW250 15/13 A3016 RMK AC1CI1 SLP213

CYHM;2009-07-20 04:00;CYHM 200400Z 27004KT 15SM SKC 15/13 A3017 RMK SLP215

CYHM;2009-07-20 05:00;CYHM 200500Z 27003KT 15SM SKC 15/13 A3017 RMK SLP216

CYHM;2009-07-20 06:00;CYHM 200600Z 00000KT 15SM MIFG SKC 13/12 A3017 RMK SLP217

CYHM;2009-07-20 06:30;CYHM 200630Z 24002KT 3SM BR FEW210 RMK CI1 VIS VRB 2 - 4

CYHM;2009-07-20 07:00;CYHM 200700Z 24003KT 3SM BR FEW210 12/11 A3017 RMK CI1 VIS VRB 2 - 4 SLP217

CYHM;2009-07-20 08:00;CYHM 200800Z 26003KT 10SM PRFG SKC 11/10 A3017 RMK SLP217

CYHM;2009-07-20 08:48;CYHM 200848Z 00000KT 3SM BR FEW070 RMK AC1 VIS VRB 2 - 4

CYHM;2009-07-20 09:00;CYHM 200900Z 00000KT 10SM PRFG FEW070 12/11 A3016 RMK AC1 SLP215

CYHM;2009-07-20 10:00;CYHM 201000Z 00000KT 7SM MIFG FEW080 FEW220 12/11 A3017 RMK AC1CI1 SLP217

CYHM;2009-07-20 11:00;CYHM 201100Z 00000KT 5SM BR FEW100 BKN220 13/12 A3019 RMK AC1CI3 SLP223

CYHM;2009-07-20 12:00;CYHM 201200Z 00000KT 15SM FEW100 BKN220 15/14 A3020 RMK AC1CI3 SLP225

CYHM;2009-07-20 13:00;CYHM 201300Z 00000KT 15SM SCT220 18/14 A3020 RMK CI2 CONTRAIL SLP228

CYHM;2009-07-20 14:00;CYHM 201400Z 00000KT 15SM FEW022 BKN220 20/15 A3021 RMK CU1CI2 SLP229

CYHM;2009-07-20 15:00;CYHM 201500Z 00000KT 15SM SCT032 BKN220 20/13 A3020 RMK CU3CI1 SLP229

CYHM;2009-07-20 16:00;CYHM 201600Z 12005KT 15SM SCT035 BKN220 21/14 A3020 RMK CU3CI1 SLP229

CYHM;2009-07-20 17:00;CYHM 201700Z 12004KT 15SM SCT035 BKN220 22/13 A3020 RMK CU3CI2 CONTRAIL SLP227

CYHM;2009-07-20 18:00;CYHM 201800Z 09003KT 15SM SCT038 BKN250 23/14 A3019 RMK CU4CI1 WND L/V TCU ASOCTD SLP223

CYHM;2009-07-20 19:00;CYHM 201900Z 12007KT 15SM FEW040 BKN250 23/14 A3018 RMK CU2CS2 SLP219

CYHM;2009-07-20 20:00;CYHM 202000Z 06008KT 15SM FEW044 FEW080 BKN250 23/15 A3016 RMK CU2AC1CS2 AC TR SLP214

CYHM;2009-07-20 21:00;CYHM 202100Z 12004KT 15SM FEW040 BKN250 23/15 A3016 RMK CU2CI2 SLP214

CYHM;2009-07-20 22:00;CYHM 202200Z 08008KT 15SM FEW038 BKN250 23/15 A3017 RMK CU2CS2 SLP215

CYHM;2009-07-20 23:00;CYHM 202300Z 08007KT 15SM FEW038 FEW120 BKN250 22/15 A3015 RMK CU1AC1CS4 CU TR AC TR SLP211

CYHM;2009-07-21 00:00;CYHM 210000Z 07004KT 15SM FEW070 FEW120 BKN250 22/15 A3016 RMK AC1AC1CS2 1ST 2 LYRS TR CONTRAILS SLP212

CYHM;2009-07-21 01:00;CYHM 210100Z 06004KT 15SM FEW070 SCT250 19/15 A3017 RMK AC1CI1 SLP214

CYHM;2009-07-21 02:00;CYHM 210200Z 03004KT 15SM FEW070 SCT250 18/14 A3019 RMK AC1CI1 SLP221

CYHM;2009-07-21 03:00;CYHM 210300Z 06005KT 15SM FEW070 SCT250 16/14 A3019 RMK AC1CI1 AC TR SLP222

CYHM;2009-07-21 04:00;CYHM 210400Z 03006KT 15SM FEW250 17/14 A3019 RMK CI1 SLP224

CYHM;2009-07-21 05:00;CYHM 210500Z 03005KT 15SM SCT250 17/15 A3019 RMK CI2 SLP222

CYHM;2009-07-21 06:00;CYHM 210600Z 05006KT 15SM BKN250 16/15 A3019 RMK CI2 SLP221

CYHM;2009-07-21 07:00;CYHM 210700Z 04005KT 15SM BKN250 16/14 A3017 RMK CS3 SLP217

CYHM;2009-07-21 08:00;CYHM 210800Z 04006KT 15SM FEW150 SCT250 16/14 A3017 RMK AC2CI1 SLP217

CYHM;2009-07-21 09:00;CYHM 210900Z 05005KT 15SM SCT120 BKN250 16/14 A3018 RMK AC3CI2 SLP218

CYHM;2009-07-21 10:00;CYHM 211000Z 02008KT 5SM BR FEW120 SCT250 16/14 A3018 RMK AC1CI1 SLP218

CYHM;2009-07-21 11:00;CYHM 211100Z 03008KT 6SM BR SCT100 BKN210 16/14 A3019 RMK AC3CI2 SLP221

CYHM;2009-07-21 11:20;CYHM 211120Z 03006KT 6SM -SHRA BR BKN099 BKN140 RMK AC6AC2

CYHM;2009-07-21 11:50;CYHM 211150Z 06007KT 10SM BKN094 BKN140 RMK AC6AC1 RERA

CYHM;2009-07-21 12:00;CYHM 211200Z 03008KT 10SM BKN094 BKN110 16/15 A3019 RMK AC6AC1 SLP221

CYHM;2009-07-21 13:00;CYHM 211300Z 05008KT 8SM BKN099 OVC120 17/15 A3019 RMK AC6AC2 SLP223

CYHM;2009-07-21 14:00;CYHM 211400Z 05004KT 10SM OVC093 17/15 A3020 RMK AC8 SLP224

CYHM;2009-07-21 15:00;CYHM 211500Z 11005KT 10SM FEW025 BKN084 BKN120 BKN220 19/16 A3020 RMK CU1AC4AC2CI1 CU TR SLP226

CYHM;2009-07-21 16:00;CYHM 211600Z 00000KT 15SM BKN013 BKN062 OVC080 19/16 A3020 RMK SC6SC2AC1 CU TR ASOCITD SLP225

CYHM;2009-07-21 17:00;CYHM 211700Z 00000KT 15SM FEW016 SCT064 OVC085 20/16 A3018 RMK SC2SC2AC4 SLP221

CYHM;2009-07-21 17:34;CYHM 211734Z 19006KT 15SM -SHRA FEW020 BKN062 OVC082 RMK CU2SC5AC2

CYHM;2009-07-21 18:00;CYHM 211800Z 14008KT 7SM -SHRA FEW018 BKN043 OVC090 20/15 A3018 RMK SC2SC3AC2 CU ASOCTD SLP221

CYHM;2009-07-21 19:00;CYHM 211900Z 04002KT 6SM -SHRA BR FEW012 FEW056 OVC088 18/16 A3018 RMK SF1SC2AC6 SF TR SLP219

CYHM;2009-07-21 19:49;CYHM 211949Z 03006KT 2 1/2SM -SHRA BR FEW003 BKN084 OVC120 RMK SF2AC5AC1

CYHM;2009-07-21 20:00;CYHM 212000Z 03006KT 2SM -SHRA BR SCT003 BKN084 OVC120 17/16 A3017 RMK SF3AC4AC1 SLP215

CYHM;2009-07-21 20:39;CYHM 212039Z 04006KT 1 3/4SM -SHRA BR BKN004 OVC084 RMK SF6AC2

CYHM;2009-07-21 21:00;CYHM 212100Z 05009KT 2SM -SHRA BR BKN004 OVC084 17/16 A3016 RMK SF6AC2 SLP214

CYHM;2009-07-21 22:00;CYHM 212200Z 05006KT 2 1/4SM -SHRA BR BKN004 BKN084 18/16 A3012 RMK SF6AC2 SLP202

CYHM;2009-07-21 22:25;CYHM 212225Z 02007KT 2 1/2SM BR FEW004 BKN084 BKN200 RMK SF2AC2CS2

CYHM;2009-07-21 23:00;CYHM 212300Z 04004KT 3SM BR FEW004 FEW080 SCT140 BKN250 17/16 A3012 RMK SF2AC1AC2CS2 SUN DMLY VSBL SLP202

CYHM;2009-07-22 00:00;CYHM 220000Z 04004KT 9SM FEW004 FEW072 BKN110 BKN220 17/15 A3012 RMK SF1AC2AC3CS1 SF TR SLP201

CYHM;2009-07-22 01:00;CYHM 220100Z 06005KT 15SM FEW064 BKN080 OVC220 16/15 A3012 RMK SC2AC5CS1 SLP201

CYHM;2009-07-22 02:00;CYHM 220200Z 06003KT 15SM FEW064 SCT080 BKN100 16/14 A3013 RMK SC2AC2AC3 SLP203

CYHM;2009-07-22 03:00;CYHM 220300Z 06005KT 15SM FEW064 BKN100 16/14 A3013 RMK SC1AC6 SLP202

CYHM;2009-07-22 04:00;CYHM 220400Z 06005KT 15SM FEW100 15/14 A3012 RMK AC2 SLP199

CYHM;2009-07-22 05:00;CYHM 220500Z 05007KT 15SM FEW100 15/14 A3012 RMK AC1 SLP199

CYHM;2009-07-22 06:00;CYHM 220600Z 05007KT 15SM FEW250 15/14 A3011 RMK CI1 CI TR SLP198

CYHM;2009-07-22 07:00;CYHM 220700Z 03005KT 1SM BR SKC 15/14 A3011 RMK FG6 SLP196

CYHM;2009-07-22 08:00;CYHM 220800Z 04004KT 1SM BR VV002 15/15 A3011 RMK FG8 SLP197

CYHM;2009-07-22 09:00;CYHM 220900Z 04006KT 1/4SM FG VV002 16/15 A3010 RMK FG8 SLP195

CYHM;2009-07-22 09:24;CYHM 220924Z 04008KT 3/4SM BR VV002 RMK FG8

CYHM;2009-07-22 10:00;CYHM 221000Z 04008KT 1/2SM FG VV002 16/15 A3011 RMK FG8 SLP196

CYHM;2009-07-22 10:21;CYHM 221021Z 04008KT 1/8SM FG VV002 RMK FG8

CYHM;2009-07-22 11:00;CYHM 221100Z 05008KT 1/2SM FG VV002 16/15 A3012 RMK FG8 SLP199

CYHM;2009-07-22 11:16;CYHM 221116Z 06007KT 1SM BR OVC002 RMK FG2SF6

CYHM;2009-07-22 11:40;CYHM 221140Z 05008KT 2SM BR OVC002 RMK FG2SF6

CYHM;2009-07-22 12:00;CYHM 221200Z 05008KT 1 1/2SM BR BKN003 OVC010 16/16 A3012 RMK FG1SF6SC2 SLP199

CYHM;2009-07-22 12:33;CYHM 221233Z 05010KT 2 1/2SM BR BKN004 OVC010 RMK SF6SC2

CYHM;2009-07-22 12:49;CYHM 221249Z 05010KT 1/2SM FG OVC002 RMK FG2SF6

CYHM;2009-07-22 13:26;CYHM 221326Z 05010KT 1SM BR OVC002 RMK FG3SF5

CYHM;2009-07-22 13:38;CYHM 221338Z 05008KT 2SM BR OVC003 RMK FG2SF6

CYHM;2009-07-22 14:00;CYHM 221400Z 06010KT 3SM BR SCT004 OVC009 17/16 A3013 RMK SF4SC4 SLP205

CYHM;2009-07-22 15:00;CYHM 221500Z 05010KT 4SM BR SCT005 OVC010 17/16 A3012 RMK SF3SC5 SLP201

CYHM;2009-07-22 16:00;CYHM 221600Z 03008KT 5SM BR BKN006 OVC010 18/16 A3014 RMK SF6SC2 SLP206

CYHM;2009-07-22 17:00;CYHM 221700Z 03006KT 7SM BKN008 BKN012 19/17 A3013 RMK SF6SC2 SLP205

CYHM;2009-07-22 17:35;CYHM 221735Z 06010KT 8SM FEW009 BKN100 BKN220 RMK SF2AC3CI1

CYHM;2009-07-22 18:00;CYHM 221800Z 06009KT 5SM HZ FEW010 SCT180 BKN250 19/17 A3012 RMK SC2AC2CS3 SF ASOCTD CC ASOCTD HALO CONTRAILS SLP201

CYHM;2009-07-22 19:00;CYHM 221900Z 04012KT 5SM HZ FEW010 OVC130 19/16 A3011 RMK SF1AC7 SLP196

CYHM;2009-07-22 19:50;CYHM 221950Z 05010KT 2 1/2SM BR BKN006 OVC140 RMK SF7AC1 SUN DMLY VSBL

CYHM;2009-07-22 20:00;CYHM 222000Z 05010KT 2 1/2SM BR BKN006 OVC140 19/17 A3010 RMK SF7AC1 SUN DMLY VSBL SLP195

CYHM;2009-07-22 21:00;CYHM 222100Z 04013KT 2 1/2SM BR OVC006 19/17 A3008 RMK SF8 SLP187

CYHM;2009-07-22 21:33;CYHM 222133Z 04010KT 5SM BR BKN006 OVC110 RMK SF5AC3

CYHM;2009-07-22 22:00;CYHM 222200Z 05011KT 5SM BR SCT006 OVC120 19/17 A3007 RMK SF3AC5 SLP183

CYHM;2009-07-22 23:00;CYHM 222300Z 05011KT 6SM BR BKN100 OVC250 18/16 A3007 RMK AC7CS1 SLP182

CYHM;2009-07-23 00:00;CYHM 230000Z 05004KT 5SM -SHRA BR FEW076 OVC094 18/16 A3007 RMK AC2AC6 SLP183

CYHM;2009-07-23 00:42;CYHM 230042Z 33002KT 2 1/2SM -SHRA BR FEW006 FEW076 OVC110 RMK SF1AC2AC6 SF TR

CYHM;2009-07-23 01:00;CYHM 230100Z 03005KT 2 1/2SM -SHRA BR FEW006 FEW064 OVC088 18/16 A3007 RMK SF1SC2AC6 SLP182

CYHM;2009-07-23 01:22;CYHM 230122Z 14004KT 4SM -TSRA BR FEW006 SCT060CB OVC110 RMK SF1CB2AC5 LTNG

CYHM;2009-07-23 01:49;CYHM 230149Z 06005KT 2 1/2SM -SHRA BR FEW006 FEW084 OVC110 RETS RMK SF1AC2AC6

CYHM;2009-07-23 02:00;CYHM 230200Z 05006KT 2SM -SHRA BR FEW006 FEW084 OVC110 17/17 A3007 RETS RMK SF1AC2AC6 SLP181

CYHM;2009-07-23 03:00;CYHM 230300Z 04005KT 2SM -SHRA BR FEW002 OVC110 17/17 A3004 RMK FG1SF2AC6 SLP173

CYHM;2009-07-23 03:17;CYHM 230317Z 03008KT 1 1/2SM -SHRA BR BKN002 OVC030 RMK FG2SF5SC2 VIS VRB 1 - 2

CYHM;2009-07-23 04:00;CYHM 230400Z 05007KT 3/4SM -SHRA BR OVC002 17/17 A3003 RMK FG3SF5 VIS VRB 1/2 - 1 SLP169

CYHM;2009-07-23 04:21;CYHM 230421Z 06006KT 1/2SM -RA FG OVC001 RMK FG4SF4

CYHM;2009-07-23 04:41;CYHM 230441Z 10009KT 1/4SM -RA FG OVC001 RMK FG5SF3

CYHM;2009-07-23 05:00;CYHM 230500Z 10008KT 1/2SM -RA FG OVC002 17/16 A3004 RMK FG4SF4 SLP172

CYHM;2009-07-23 05:04;CYHM 230504Z 08006KT 3/4SM -RA BR OVC002 RMK FG3SF5 VIS VRB 1/2 - 1

CYHM;2009-07-23 05:31;CYHM 230531Z 07004KT 1 1/2SM -RA BR BKN003 OVC053 RMK FG2SF5SC2 VIS VRB 1 - 2

CYHM;2009-07-23 06:00;CYHM 230600Z 00000KT 7SM -RA FEW003 OVC060 17/16 A3003 RERA RMK SF2SC6 SLP167

CYHM;2009-07-23 07:00;CYHM 230700Z 03005KT 2SM -RA BR SCT035 OVC100 17/16 A3000 RMK FG1SC2AC5 SLP158

CYHM;2009-07-23 07:24;CYHM 230724Z 05008KT 1 1/2SM -RA BR OVC002 RMK FG2SF6 VIS VRB 1 - 2

CYHM;2009-07-23 07:34;CYHM 230734Z 03008KT 3/4SM -RA BR OVC002 RMK FG3SF5 VIS VRB 1/2 - 1

CYHM;2009-07-23 07:41;CYHM 230741Z 05009KT 1/2SM -RA FG OVC002 RMK FG4SF4

CYHM;2009-07-23 08:00;CYHM 230800Z 05007KT 1/2SM -RA FG OVC002 17/16 A2997 RMK FG4SF4 SLP148

CYHM;2009-07-23 08:16;CYHM 230816Z 04010KT 3/4SM -RA BR OVC003 RMK FG3SF5 VIS VRB 1/2 - 1

CYHM;2009-07-23 08:26;CYHM 230826Z 05011KT 1/8SM -RA FG VV001 RMK FG8

CYHM;2009-07-23 09:00;CYHM 230900Z 06007KT 1/4SM -RA FG OVC002 17/16 A2996 RMK FG5SF3 SLP146

CYHM;2009-07-23 09:31;CYHM 230931Z 07011KT 1 1/2SM -RA BR OVC005 RMK FG2SF6 VIS VRB 1 - 2

CYHM;2009-07-23 10:00;CYHM 231000Z 07010KT 5SM -RA BR SCT005 OVC045 16/16 A2995 RMK SF3SC5 SLP141

CYHM;2009-07-23 10:21;CYHM 231021Z 05012KT 2SM -RA BR BKN003 OVC020 RMK FG1SF6SC2

CYHM;2009-07-23 10:50;CYHM 231050Z 04010KT 1SM -RA BR OVC002 RMK FG4SF4

CYHM;2009-07-23 11:00;CYHM 231100Z 06011KT 1/2SM -RA FG VV001 17/16 A2993 RMK FG8 VIZ VRBL 1/4-3/4SM SLP134

CYHM;2009-07-23 11:10;CYHM 231110Z 06012KT 1/8SM -RA FG VV001 RMK FG8

CYHM;2009-07-23 11:25;CYHM 231125Z 06012KT 3/4SM BR VV002 RMK FG8 VIS VRBL 1/2-1 SM

CYHM;2009-07-23 11:35;CYHM 231135Z 07008KT 2SM -RA BR OVC003 RMK FG2SF6

CYHM;2009-07-23 12:00;CYHM 231200Z 06008KT 2SM -RA BR BKN006 OVC027 17/17 A2991 RMK SF6SC2 SLP130

CYHM;2009-07-23 12:39;CYHM 231239Z 03008KT 2SM -RA BR BKN003 OVC022 RMK FG2SF4SC2

CYHM;2009-07-23 13:00;CYHM 231300Z 04010KT 1SM -RA BR BKN007 OVC028 17/16 A2990 RMK FG2SF4SC2 SLP126

CYHM;2009-07-23 13:18;CYHM 231318Z CCA 03010KT 1 1/2SM RA BR BKN003 OVC024 RMK FG1SF6SC2

CYHM;2009-07-23 13:43;CYHM 231343Z 08010KT 3SM -RA BR BKN003 BKN033 OVC042 RMK SF5SC2SC1

CYHM;2009-07-23 14:00;CYHM 231400Z 04008KT 5SM -RA BR BKN003 OVC045 17/16 A2986 RMK SF6SC2 SLP111

CYHM;2009-07-23 14:16;CYHM 231416Z 04006KT 1SM -RA BR OVC002 RMK FG2SF6

CYHM;2009-07-23 15:00;CYHM 231500Z 05010KT 2SM -RA BR BKN002 OVC028 18/17 A2984 RMK FG1SF6SC2 SLP106

CYHM;2009-07-23 15:40;CYHM 231540Z 06006KT 2SM BR BKN003 OVC010 RMK SF6SC2 RERA

CYHM;2009-07-23 16:00;CYHM 231600Z 03004KT 4SM BR SCT005 BKN012 OVC038 19/18 A2984 RMK SF3SC3SC2 SLP105

CYHM;2009-07-23 17:00;CYHM 231700Z 22002KT 6SM BR FEW007 BKN013 OVC032 20/18 A2984 RMK SF2SC4SC2 SLP103

CYHM;2009-07-23 18:00;CYHM 231800Z 23006KT 8SM BKN009 BKN019 OVC032 20/18 A2983 RMK SF6SC2SC1 SLP099

CYHM;2009-07-23 18:40;CYHM 231840Z 24006KT 5SM -SHRA BR BKN014 OVC022 RMK SC6SC2

CYHM;2009-07-23 19:00;CYHM 231900Z 28003KT 9SM -SHRA FEW008 BKN013 OVC022 20/19 A2983 RMK CF2SC6SC1 SLP100

CYHM;2009-07-23 19:36;CYHM 231936Z 00000KT 5SM -SHRA BR FEW007 SCT014 OVC035 RMK CF1SC3SC4 PCPN VRY LGT

CYHM;2009-07-23 20:00;CYHM 232000Z 28002KT 10SM FEW006 BKN029 20/19 A2981 RMK CF2SC6 SLP094

CYHM;2009-07-23 20:37;CYHM 232037Z 23002KT 10SM -SHRA FEW006 BKN026 RMK CF1SC6

CYHM;2009-07-23 21:00;CYHM 232100Z 00000KT 8SM -SHRA FEW006 BKN026 20/19 A2981 RMK CF1SC7 SLP095

CYHM;2009-07-23 21:25;CYHM 232125Z 27002KT 15SM FEW008 BKN030 BKN045 RMK CF1SC5SC2

CYHM;2009-07-23 22:00;CYHM 232200Z 29004KT 15SM FEW010 SCT036 BKN071 21/19 A2980 RMK CF1SC2AC4 SLP089

CYHM;2009-07-23 23:00;CYHM 232300Z 28004KT 15SM FEW015 FEW048 BKN078 23/19 A2980 RMK CU1SC2AC5 SLP089

CYHM;2009-07-24 00:00;CYHM 240000Z 00000KT 15SM FEW016 BKN065 BKN085 21/19 A2980 RMK CU1SC4AC1 SLP091

CYHM;2009-07-24 00:51;CYHM 240051Z 24002KT 12SM -SHRA SCT016 BKN045 BKN078 RMK CU3SC2AC2

CYHM;2009-07-24 01:00;CYHM 240100Z 25002KT 10SM -SHRA SCT016 BKN045 BKN074 20/18 A2981 RMK CU3SC2AC2 SLP092

CYHM;2009-07-24 01:32;CYHM 240132Z 27006KT 15SM FEW016 SCT032 BKN072 RMK CU1SC3AC3

CYHM;2009-07-24 02:00;CYHM 240200Z 26005KT 15SM FEW032 BKN071 19/17 A2982 RMK SC1AC6 SLP096

CYHM;2009-07-24 03:00;CYHM 240300Z 23005KT 15SM OVC048 19/17 A2983 RMK SC8 SLP100

CYHM;2009-07-24 04:00;CYHM 240400Z 24004KT 15SM FEW045 BKN076 BKN110 18/17 A2983 RMK SC1AC6AC1 SLP100

CYHM;2009-07-24 05:00;CYHM 240500Z 25005KT 9SM FEW150 18/17 A2983 RMK AC2 SLP100

CYHM;2009-07-24 06:00;CYHM 240600Z 25004KT 10SM FEW040 FEW230 17/16 A2984 RMK SC1CI1 SLP102

CYHM;2009-07-24 07:00;CYHM 240700Z 25005KT 7SM BKN051 BKN230 17/16 A2984 RMK SC5CI2 SLP103

CYHM;2009-07-24 08:00;CYHM 240800Z 25006KT 7SM FEW050 SCT230 16/15 A2983 RMK SC1CI2 SLP101

CYHM;2009-07-24 09:00;CYHM 240900Z 22005KT 4SM BR FEW050 FEW240 15/14 A2983 RMK SC1CI0 SLP100

CYHM;2009-07-24 09:35;CYHM 240935Z 23002KT 2SM BR FEW050 SCT240 RMK FG1SC2CI1

CYHM;2009-07-24 09:42;CYHM 240942Z 23003KT 1SM BR FEW050 SCT240 RMK FG2SC1CI1

CYHM;2009-07-24 10:00;CYHM 241000Z 25002KT 3/4SM BR FEW050 BKN240 14/14 A2983 RMK FG2SC1CI1 SLP101

CYHM;2009-07-24 10:46;CYHM 241046Z 24004KT 2 1/2SM BR FEW062 FEW100 BKN220 RMK SC1AC1CI2

CYHM;2009-07-24 11:00;CYHM 241100Z 25004KT 4SM BR FEW060 FEW120 BKN220 16/15 A2984 RMK SC1AC1CI2 SLP105

CYHM;2009-07-24 12:00;CYHM 241200Z 26008KT 6SM BR FEW058 FEW140 BKN220 17/16 A2987 RMK SC1AC2CI2 SLP113

CYHM;2009-07-24 13:00;CYHM 241300Z 26008KT 10SM SCT008 BKN035 BKN120 19/17 A2988 RMK SF3SC2AC1 SLP118

CYHM;2009-07-24 14:00;CYHM 241400Z 28008KT 15SM FEW018 BKN031 BKN210 20/16 A2988 RMK CU2SC4CI1 SLP117

CYHM;2009-07-24 15:00;CYHM 241500Z 27008KT 15SM BKN031 20/15 A2989 RMK SC7 CU ASOCTD SLP120

CYHM;2009-07-24 16:00;CYHM 241600Z 27005KT 15SM FEW023 BKN038 BKN045 21/16 A2989 RMK CU2SC4SC1 SLP119

CYHM;2009-07-24 17:00;CYHM 241700Z 26006KT 15SM FEW030 BKN038 BKN210 21/16 A2988 RMK CU2SC4CI0 CI TR SLP117

CYHM;2009-07-24 18:00;CYHM 241800Z 28006KT 15SM SCT028 BKN040 BKN210 22/16 A2987 RMK CU3SC2CI1 TCU TR ASOCTD SLP114

CYHM;2009-07-24 19:00;CYHM 241900Z 28004KT 15SM -SHRA BKN033TCU BKN070 BKN240 22/17 A2986 RMK TCU5AC1CI1 CB ASOCTD SLP111

CYHM;2009-07-24 19:45;CYHM 241945Z 26007KT 15SM SCT030TCU BKN110 RMK TCU4AC2 CB ASOCTD

CYHM;2009-07-24 20:00;CYHM 242000Z 21011KT 15SM TS VCSH SCT052TCU BKN110 23/17 A2987 RMK TCU4AC1 CB ASOCTD HVY SHWRS SW SLP112

CYHM;2009-07-24 20:12;CYHM 242012Z CCA 21015KT 10SM -TSRA BKN046TCU RMK TCU7 CB ASOCTD VIS SE 1 MI

CYHM;2009-07-24 21:00;CYHM 242100Z 24008KT 12SM -TSRA SCT030TCU BKN130 22/17 A2987 RMK TCU4AC2 CB ASOCTD N PK GST 27 PST HR SLP113

CYHM;2009-07-24 21:30;CYHM 242130Z 23008KT 15SM SCT025TCU BKN160 RETS RMK TCU3AC2

CYHM;2009-07-24 22:00;CYHM 242200Z 24010KT 15SM FEW023 BKN180 23/18 A2986 RETS RMK CU2AC2 TCU ASOCTD SLP110

CYHM;2009-07-24 23:00;CYHM 242300Z 23011KT 15SM FEW028TCU BKN200 22/16 A2985 RMK TCU2CI2 SLP109

CYHM;2009-07-25 00:00;CYHM 250000Z 23005KT 15SM FEW025 FEW100 SCT250 21/17 A2986 RMK CU1AC1CI2 SLP109

CYHM;2009-07-25 01:00;CYHM 250100Z 22005KT 15SM BKN120 BKN250 19/17 A2986 RMK AC5CI1 SLP111

CYHM;2009-07-25 02:00;CYHM 250200Z 20003KT 15SM FEW110 FEW250 18/17 A2988 RMK AC1CI1 SLP115

CYHM;2009-07-25 03:00;CYHM 250300Z 20004KT 15SM SCT230 17/16 A2987 RMK CI2 SLP113

CYHM;2009-07-25 04:00;CYHM 250400Z 18004KT 15SM SCT210 17/15 A2987 RMK CI2 SLP114

CYHM;2009-07-25 05:00;CYHM 250500Z 21005KT 15SM BKN180 17/16 A2987 RMK AC6 SLP114

CYHM;2009-07-25 06:00;CYHM 250600Z 18005KT 10SM SCT150 BKN200 17/16 A2986 RMK AC4CI1 SLP110

CYHM;2009-07-25 06:30;CYHM 250630Z 18004KT 10SM -SHRA OVC057 RMK SC8

CYHM;2009-07-25 06:48;CYHM 250648Z 24005KT 7SM -SHRA SCT007 OVC057 RMK SF3SC5

CYHM;2009-07-25 07:00;CYHM 250700Z 25004KT 7SM -SHRA FEW007 SCT050 OVC120 18/17 A2986 RMK SF2SC2AC4 SLP110

CYHM;2009-07-25 08:00;CYHM 250800Z 21007KT 12SM -SHRA OVC097 18/17 A2985 RMK AC8 SLP106

CYHM;2009-07-25 09:00;CYHM 250900Z 19006KT 12SM -SHRA OVC110 18/16 A2984 RMK AC8 SLP102

CYHM;2009-07-25 09:41;CYHM 250941Z 16007KT 15SM SCT160 RMK AC4

CYHM;2009-07-25 10:00;CYHM 251000Z 16007KT 10SM FEW110 SCT160 17/16 A2982 RMK AC2AC1 SLP097

CYHM;2009-07-25 11:00;CYHM 251100Z 15007KT 12SM FEW090 FEW110 BKN250 18/16 A2981 RMK AC1AC1CI4 SLP094

CYHM;2009-07-25 12:00;CYHM 251200Z 17007KT 15SM FEW120 BKN210 19/17 A2981 RMK AC2CI3 SLP091

CYHM;2009-07-25 13:00;CYHM 251300Z 19008KT 15SM FEW060 FEW090 OVC170 20/17 A2980 RMK SC2AC1AC6 SLP090

CYHM;2009-07-25 14:00;CYHM 251400Z 19009KT 15SM BKN160 OVC240 21/17 A2979 RMK AC7CS1 SLP086

CYHM;2009-07-25 15:00;CYHM 251500Z 17007KT 15SM BKN150 OVC240 21/17 A2978 RMK AC7CS1 SLP084

CYHM;2009-07-25 16:00;CYHM 251600Z 17008KT 15SM OVC110 22/18 A2976 RMK AC8 SLP077

CYHM;2009-07-25 17:00;CYHM 251700Z 14012KT 15SM OVC120 23/18 A2971 RMK AC8 SLP062

CYHM;2009-07-25 17:33;CYHM 251733Z 16009KT 12SM -SHRA BKN024 OVC110 RMK SC6AC2

CYHM;2009-07-25 18:00;CYHM 251800Z 17010KT 3SM -SHRA BR FEW024 OVC076 21/18 A2971 RMK SC2AC6 SLP059

CYHM;2009-07-25 18:11;CYHM 251811Z 16010KT 1 3/4SM SHRA BR BKN020 OVC038 RMK FG2SC5SC2

CYHM;2009-07-25 18:28;CYHM 251828Z 22006KT 1 3/4SM SHRA BR BKN005 BKN020 OVC035 RMK FG2SF3SC2SC1 TCU EMBD

CYHM;2009-07-25 18:36;CYHM 251836Z 18007KT 2SM -SHRA BR SCT005 BKN010 OVC022 RERA RMK FG1SF2SF2SC2 TCU EMBD

CYHM;2009-07-25 18:50;CYHM 251850Z 15007KT 1SM SHRA BR SCT005 BKN010 OVC022 RMK FG2SF2SF2SC2 TCU EMBD

CYHM;2009-07-25 19:00;CYHM 251900Z 12004KT 1SM TSRA BR SCT006 BKN014 OVC025 19/18 A2967 RMK FG2SF2SF2SC2 CB EMBD SLP046

CYHM;2009-07-25 19:25;CYHM 251925Z 30009KT 1SM +TSRA BR BKN008 OVC019 RMK FG2SF2SC3 CB EMBD

CYHM;2009-07-25 19:26;CYHM 251926Z 29009KT 5/8SM +TSRA BR BKN008 OVC019 RMK FG2SF2SC3 CB EMBD

CYHM;2009-07-25 19:46;CYHM 251946Z 24008KT 1SM TSRA BR BKN009 OVC021 RERA RMK FG2SF2SC3 CB EMBD

CYHM;2009-07-25 20:00;CYHM 252000Z 24009KT 1SM TSRA BR BKN007 OVC021 19/18 A2966 RERA RMK FG2SF3SC2 CB EMBD /R22/ SLP043

CYHM;2009-07-25 20:11;CYHM 252011Z 25009KT 2SM -SHRA BR SCT003 BKN010 OVC020 RETSRA RMK FG1SF2SF3SC2

CYHM;2009-07-25 20:22;CYHM 252022Z 24009KT 5SM -SHRA BR SCT004 BKN012 BKN044 RETSRA RMK CF3SC2SC2 PCPN VRY LGT

CYHM;2009-07-25 21:00;CYHM 252100Z 24011KT 7SM FEW005 BKN014 BKN024 20/19 A2968 RETSRA RMK CF2SC3SC2 TCU ASOCTD SLP048

CYHM;2009-07-25 22:00;CYHM 252200Z 24011KT 10SM FEW009 BKN015 BKN050 22/19 A2967 RMK CF1CU4SC1 SLP046

CYHM;2009-07-25 23:00;CYHM 252300Z 23013KT 12SM FEW010 BKN020 BKN038 22/19 A2968 RMK CF1CU4SC2 TCU ASOCTD W SLP050

CYHM;2009-07-26 00:00;CYHM 260000Z 23008KT 15SM FEW030TCU FEW070 SCT100 BKN180 21/18 A2968 RMK TCU2AC1AC2AC1 SLP048

CYHM;2009-07-26 00:52;CYHM 260052Z 24012KT 12SM -SHRA FEW030TCU BKN120 RMK TCU2AC3

CYHM;2009-07-26 01:00;CYHM 260100Z 24011KT 15SM -SHRA FEW030TCU BKN140 21/18 A2968 RMK TCU2AC4 SLP050

CYHM;2009-07-26 02:00;CYHM 260200Z 22011KT 15SM FEW017TCU BKN094 20/17 A2970 RMK TCU2AC5 OCNL LTNG E SLP055

CYHM;2009-07-26 03:00;CYHM 260300Z 23007KT 15SM -SHRA FEW065 BKN120 19/18 A2971 RMK SC1AC6 SLP059

CYHM;2009-07-26 04:00;CYHM 260400Z 24006KT 15SM BKN120 19/17 A2971 RMK AC6 SLP059

CYHM;2009-07-26 05:00;CYHM 260500Z 22008KT 15SM SCT090 18/17 A2971 RMK AC2 SLP060

CYHM;2009-07-26 06:00;CYHM 260600Z 25005KT 15SM FEW090 FEW230 18/17 A2972 RMK AC1CI1 SLP063

CYHM;2009-07-26 07:00;CYHM 260700Z 23005KT 15SM SKC 17/17 A2972 RMK SLP064

CYHM;2009-07-26 08:00;CYHM 260800Z 23005KT 15SM FEW220 16/16 A2973 RMK CI1 SLP067

CYHM;2009-07-26 09:00;CYHM 260900Z 23004KT 15SM FEW080 16/15 A2974 RMK AC1 SLP070

CYHM;2009-07-26 10:00;CYHM 261000Z 22004KT 15SM SCT092 SCT250 16/15 A2975 RMK AC3CI1 CI TR SLP074

CYHM;2009-07-26 11:00;CYHM 261100Z 20004KT 15SM BKN050 BKN080 17/16 A2977 RMK SC6AC1 SLP079

CYHM;2009-07-26 12:00;CYHM 261200Z 20005KT 15SM FEW012 SCT044 BKN110 BKN220 18/17 A2978 RMK SF1SC2AC2CC1 SF TR CI ASOCTD SLP083

CYHM;2009-07-26 13:00;CYHM 261300Z 20007KT 15SM SCT010 BKN110 21/19 A2977 RMK SC4AC3 SF ASOCTD SLP080

CYHM;2009-07-26 13:38;CYHM 261338Z 19012KT 15SM FEW008 BKN012 OVC044 RMK SF2SC6SC1

CYHM;2009-07-26 14:00;CYHM 261400Z 20013KT 15SM FEW008 BKN013 OVC022 21/18 A2976 RMK SF2SC5SC2 SLP075

CYHM;2009-07-26 14:19;CYHM 261419Z 20015KT 15SM TS SCT012 BKN028CB OVC090 RMK SF4CB3AC1

CYHM;2009-07-26 14:53;CYHM 261453Z 27015G22KT 12SM -TSRA FEW008 BKN018CB OVC084 RMK SF1CB6AC1

CYHM;2009-07-26 15:00;CYHM 261500Z 28015G22KT 1SM +TSRA FEW008 BKN018CB OVC040CB 17/15 A2978 RMK SF1CB5CB2 SLP083

CYHM;2009-07-26 16:00;CYHM 261600Z 18009KT 1 3/4SM +TSRA SCT009 BKN014CB OVC032CB 17/16 A2977 RMK SF3CB4CB1 SLP081

CYHM;2009-07-26 16:16;CYHM 261616Z 24007KT 5SM -SHRA FEW014 BKN034 BKN080 RETS RMK SF2SC5AC1

CYHM;2009-07-26 16:23;CYHM 261623Z 24007KT 4SM TSRA BKN016CB BKN034 BKN080 RMK CB5SC2AC1

CYHM;2009-07-26 17:00;CYHM 261700Z 21010KT 5SM -TSRA SCT016CB BKN032 BKN094 18/16 A2976 RMK CB3SC2AC2 SLP078

CYHM;2009-07-26 17:28;CYHM 261728Z 16003KT 15SM VCSH FEW015CB BKN036 BKN100 RETS RMK CB2SC4AC2 TCU EMBDD

CYHM;2009-07-26 17:40;CYHM 261740Z 22002KT 15SM -SHRA FEW015 BKN036 BKN094 RETS RMK SF2SC4AC2

CYHM;2009-07-26 17:46;CYHM 261746Z 27010KT 1SM +SHRA FEW015 BKN036 OVC090 RETS RMK SF2SC6AC1

CYHM;2009-07-26 18:00;CYHM 261800Z 26007KT 6SM SHRA FEW015 BKN038 BKN050 19/16 A2977 RETS RMK SF1SC5SC2 TCU EMBDD CB ASOCTD SLP079

CYHM;2009-07-26 18:13;CYHM 261813Z 23006KT 10SM -TSRA FEW012 BKN035 BKN090 RERA RMK CF2CU4AC1 CB ASOCTD W AND NE

CYHM;2009-07-26 18:36;CYHM 261836Z 27008KT 12SM VCSH FEW012 BKN039 BKN090 RETS RMK CF1CU5AC2 CB ASOCTD N

CYHM;2009-07-26 19:00;CYHM 261900Z 24004KT 15SM SCT032 BKN042 BKN090 21/18 A2975 RETSRA RMK CU4SC2AC1 TCU ASOCTD SLP074

CYHM;2009-07-26 20:00;CYHM 262000Z 22014KT 15SM SCT030TCU BKN045 BKN200 22/17 A2975 RMK TCU4SC2CC1 CB DIST EMBD W SLP074

CYHM;2009-07-26 21:00;CYHM 262100Z 25015KT 15SM SCT030 BKN040 BKN150 22/17 A2975 RMK CU3SC2AC1 CB EMBD DIST W-N SLP071

CYHM;2009-07-26 21:32;CYHM 262132Z 30006KT 12SM TS SCT030TCU BKN040 RMK TCU4SC3 CB ASOCTD W LTGCG W

CYHM;2009-07-26 21:47;CYHM 262147Z 27004KT 12SM -TSRA FEW015 SCT025CB BKN040 RMK CF1CB3SC3 OCNL LTGCG

CYHM;2009-07-26 21:50;CYHM 262150Z 27015KT 3SM +TSRA FEW015 BKN025CB BKN040 RMK CF1CB4SC2 OCNL LTGCG

CYHM;2009-07-26 22:00;CYHM 262200Z 27011KT 10SM -TSRA FEW015 BKN025 BKN040 18/15 A2977 RERA RMK CF2SC3SC2 CB EMBD LTNG SLP079

CYHM;2009-07-26 22:18;CYHM 262218Z 26011KT 2 1/2SM TSRA BR FEW012 BKN025 BKN035 RMK CF2SC4SC2 CB EMBD

CYHM;2009-07-26 22:29;CYHM 262229Z 24008KT 4SM -TSRA BR FEW015 BKN028 BKN040 RERA RMK CF2SC3SC2 CB EMBD

CYHM;2009-07-26 23:00;CYHM 262300Z 21008KT 12SM TS VCSH FEW020TCU BKN035 BKN060 17/15 A2977 RERA RMK TCU2SC3SC2 CB EMBD E-S /R10/ SLP079

CYHM;2009-07-26 23:21;CYHM 262321Z 21008KT 12SM -SHRA FEW020TCU BKN035 BKN070 RETS RMK TCU2SC3AC2 CB EMBD E-S

CYHM;2009-07-27 00:00;CYHM 270000Z 21009KT 10SM -SHRA FEW020TCU BKN035 BKN070 18/16 A2978 RETS RMK TCU2SC2AC2 SLP084

CYHM;2009-07-27 00:41;CYHM 270041Z 21005KT 12SM VCSH FEW025TCU BKN035 BKN070 RMK TCU2SC3AC2 -SHRA E-SE

CYHM;2009-07-27 01:00;CYHM 270100Z 21004KT 12SM FEW025TCU BKN035 BKN070 18/17 A2978 RMK TCU2SC3AC2 LTNG DIST W SLP082

CYHM;2009-07-27 01:32;CYHM 270132Z 21003KT 12SM TS SCT035 BKN060 RMK SC4SC3 CB EMBD W LTNG

CYHM;2009-07-27 02:00;CYHM 270200Z 20003KT 15SM SCT030 BKN060 17/16 A2979 RETS RMK SC3SC3 SLP086

CYHM;2009-07-27 02:21;CYHM 270221Z 23008KT 12SM -SHRA OVC035 RETS RMK SC8

CYHM;2009-07-27 03:00;CYHM 270300Z 19004KT 15SM FEW022 BKN080 18/17 A2978 RMK SC2AC6 SLP086

CYHM;2009-07-27 04:00;CYHM 270400Z 23004KT 15SM MIFG FEW100 SCT240 17/16 A2979 RMK AC2CI1 OCNL LTNG E - SE SLP087

CYHM;2009-07-27 05:00;CYHM 270500Z 22005KT 15SM FEW050 SCT070 16/16 A2980 RMK SC2AC2 OCNL LTNG E SLP090

CYHM;2009-07-27 06:00;CYHM 270600Z 24005KT 15SM BKN065 16/15 A2981 RMK SC6 SLP094

CYHM;2009-07-27 07:00;CYHM 270700Z 23008KT 15SM FEW015 BKN055 16/15 A2981 RMK CF1SC4 SLP095

CYHM;2009-07-27 08:00;CYHM 270800Z 24008KT 15SM FEW045 16/15 A2981 RMK SC2 SLP096

CYHM;2009-07-27 09:00;CYHM 270900Z 23009KT 15SM FEW035 FEW120 16/15 A2983 RMK SC1AC1 SLP099

CYHM;2009-07-27 10:00;CYHM 271000Z 23007KT 15SM FEW020 FEW220 16/15 A2985 RMK SC2CI1 CU ASOCTD SLP106

CYHM;2009-07-27 11:00;CYHM 271100Z CCA 24008KT 15SM FEW020 16/15 A2987 RMK SC1 CU ASOCTD SLP114

CYHM;2009-07-27 12:00;CYHM 271200Z 26008KT 15SM FEW010 SCT022 BKN048 17/16 A2989 RMK SF1SC2SC2 CU TR ASOCTD SLP121

CYHM;2009-07-27 13:00;CYHM 271300Z 26007KT 15SM FEW020 BKN047 18/16 A2990 RMK SC2SC3 CU ASOCTD SLP125

CYHM;2009-07-27 14:00;CYHM 271400Z 26011KT 15SM BKN022 BKN046 19/16 A2990 RMK CU5SC2 SLP124

CYHM;2009-07-27 15:00;CYHM 271500Z 28014KT 15SM FEW019 SCT038 20/17 A2991 RMK CU2SC2 SLP127

CYHM;2009-07-27 16:00;CYHM 271600Z 27012KT 15SM FEW022 BKN036 21/16 A2992 RMK CU2SC4 SLP130

CYHM;2009-07-27 17:00;CYHM 271700Z 28010KT 15SM FEW032 BKN044 22/17 A2991 RMK CU2SC3 SLP129

CYHM;2009-07-27 18:00;CYHM 271800Z 27010KT 15SM BKN036 23/16 A2991 RMK CU6 SC ASOCTD CUFRA SLP128

CYHM;2009-07-27 19:00;CYHM 271900Z 24012KT 15SM BKN042 24/17 A2991 RMK SC6 CU ASOCTD CUFRA SLP129

CYHM;2009-07-27 20:00;CYHM 272000Z 24012KT 15SM SCT058 BKN100 23/17 A2991 RMK SC3AC4 CU ASOCTD TCU EMBDD SLP127

CYHM;2009-07-27 21:00;CYHM 272100Z 22012KT 15SM FEW036 BKN054 BKN100 BKN250 24/17 A2991 RMK SC1SC4AC1CI1 CU ASOCTD CUFRA CI TR SLP125

CYHM;2009-07-27 22:00;CYHM 272200Z 23014KT 15SM FEW052TCU FEW090 FEW250 24/16 A2990 RMK TCU1AC1CI1 TCU TR CI TR CUFRA SLP122

CYHM;2009-07-27 23:00;CYHM 272300Z 22012KT 15SM FEW050TCU FEW090 23/16 A2989 RMK TCU1AC2 TCU TR SLP119

CYHM;2009-07-28 00:00;CYHM 280000Z 23005KT 15SM FEW110 FEW250 22/16 A2989 RMK AC1CI1 CI TR SLP121

CYHM;2009-07-28 01:00;CYHM 280100Z 21005KT 15SM FEW110 FEW250 19/16 A2989 RMK AC1CI1 CI TR SLP122

CYHM;2009-07-28 02:00;CYHM 280200Z 20004KT 15SM SCT110 20/16 A2991 RMK AC4 SLP126

CYHM;2009-07-28 03:00;CYHM 280300Z 20005KT 15SM FEW110 19/16 A2991 RMK AC1 AC TR SLP126

CYHM;2009-07-28 04:00;CYHM 280400Z 20005KT 15SM BKN110 19/17 A2990 RMK AC6 SLP125

CYHM;2009-07-28 05:00;CYHM 280500Z 21005KT 15SM BKN110 BKN250 19/17 A2992 RMK AC3CI1 SLP130

CYHM;2009-07-28 06:00;CYHM 280600Z 20007KT 15SM BKN120 20/17 A2990 RMK AC6 SLP123

CYHM;2009-07-28 07:00;CYHM 280700Z 22005KT 15SM BKN130 19/17 A2989 RMK AC7 SLP121

CYHM;2009-07-28 08:00;CYHM 280800Z 22005KT 15SM BKN130 19/17 A2989 RMK AC7 SLP120

CYHM;2009-07-28 09:00;CYHM 280900Z 21005KT 15SM BKN140 19/17 A2988 RMK AC6 SLP117

CYHM;2009-07-28 10:00;CYHM 281000Z 23004KT 15SM FEW140 18/17 A2987 RMK AC1 SLP113

CYHM;2009-07-28 11:00;CYHM 281100Z 21005KT 15SM FEW140 FEW220 19/18 A2987 RMK AC1CI1 AC TR SLP113

CYHM;2009-07-28 12:00;CYHM 281200Z 21007KT 15SM FEW140 BKN210 21/19 A2987 RMK AC1CI4 SLP113

CYHM;2009-07-28 13:00;CYHM 281300Z 21008KT 15SM BKN160 BKN210 22/19 A2987 RMK AC5CI1 SLP112

CYHM;2009-07-28 14:00;CYHM 281400Z 22012KT 15SM FEW140 BKN160 BKN210 24/19 A2986 RMK AC2AC2CI1 SLP110

CYHM;2009-07-28 15:00;CYHM 281500Z 22015G22KT 15SM SCT028 BKN100 BKN140 BKN220 25/19 A2985 RMK CU3AC2AC1CI1 SLP106

CYHM;2009-07-28 16:00;CYHM 281600Z 24012KT 15SM FEW038 BKN055 BKN120 BKN210 25/19 A2985 RMK CU2SC2AC1CI1 TCU ASOCTD SLP107

CYHM;2009-07-28 17:00;CYHM 281700Z 22014KT 15SM FEW025 BKN055 BKN120 OVC210 24/19 A2984 RMK CU2SC4AC1CI1 TCU ASOCTD SLP103

CYHM;2009-07-28 17:04;CYHM 281704Z 22014KT 15SM -SHRA FEW025 BKN055 BKN120 OVC210 RMK CU2SC4AC1CI1 TCU ASOCTD

CYHM;2009-07-28 18:00;CYHM 281800Z 21013KT 15SM -SHRA FEW028 OVC130 23/19 A2984 RMK SC1AC7 SC TR SLP102

CYHM;2009-07-28 18:37;CYHM 281837Z 21008KT 15SM BKN120 RMK AC7

CYHM;2009-07-28 19:00;CYHM 281900Z 21015KT 15SM BKN120 BKN250 24/19 A2983 RMK AC6CS2 SLP099

CYHM;2009-07-28 20:00;CYHM 282000Z 22015KT 15SM FEW038 FEW120 BKN250 25/19 A2981 RMK CU1AC1CS5 CU TR CC ASOCTD SUN DMLY VSBL CONTRAILS SLP094

CYHM;2009-07-28 21:00;CYHM 282100Z 22016G22KT 15SM FEW042 FEW120 SCT250 27/19 A2980 RMK CU2AC1CI1 SLP087

CYHM;2009-07-28 22:00;CYHM 282200Z 23020G28KT 15SM FEW044 FEW130 FEW250 26/17 A2979 RMK CU1AC1CI1 CU TR SLP085

CYHM;2009-07-28 23:00;CYHM 282300Z 21012G18KT 15SM FEW058 FEW092 BKN250 25/18 A2978 RMK SC2AC1CI2 AC TR SLP083

CYHM;2009-07-29 00:00;CYHM 290000Z 21007KT 15SM BKN057 BKN100 24/18 A2979 RMK SC6AC1 CUFRA SLP085

CYHM;2009-07-29 01:00;CYHM 290100Z 21009KT 15SM SCT056 BKN250 23/18 A2979 RMK SC4CS2 SLP084

CYHM;2009-07-29 02:00;CYHM 290200Z 22005KT 15SM BKN058 22/18 A2980 RMK SC7 SLP089

CYHM;2009-07-29 03:00;CYHM 290300Z 20005KT 15SM BKN058 BKN090 22/18 A2981 RMK SC5AC2 SLP093

CYHM;2009-07-29 04:00;CYHM 290400Z 23005KT 15SM BKN056 BKN140 22/18 A2981 RMK SC5AC2 SLP092

CYHM;2009-07-29 05:00;CYHM 290500Z CCA 23014G22KT 4SM TSRA BKN046CB BKN080 OVC120 21/19 A2981 RMK CB6AC1AC1 SLP091

CYHM;2009-07-29 05:50;CYHM 290550Z 24005KT 15SM FEW045 BKN110 OVC170 RETS RMK SC1AC6AC1

CYHM;2009-07-29 06:00;CYHM 290600Z 24005KT 15SM FEW045 BKN110 OVC170 20/18 A2979 RETS RMK SC1AC6AC1 SLP086

CYHM;2009-07-29 07:00;CYHM 290700Z 21005KT 15SM BKN140 BKN200 19/18 A2978 RMK AC5CS2 SLP080

CYHM;2009-07-29 08:00;CYHM 290800Z 22003KT 15SM BKN036 BKN200 19/18 A2978 RMK SC5CS2 SLP083

CYHM;2009-07-29 09:00;CYHM 290900Z 24002KT 15SM FEW034 FEW110 18/17 A2978 RMK SC1AC1 SC TR SLP081

CYHM;2009-07-29 10:00;CYHM 291000Z 22002KT 4SM BR SCT110 BKN250 18/17 A2978 RMK AC4CI1 SLP082

CYHM;2009-07-29 11:00;CYHM 291100Z 23002KT 5SM BR BKN090 BKN140 OVC210 19/18 A2979 RMK AC6AC1CI1 SLP084

CYHM;2009-07-29 11:55;CYHM 291155Z 26004KT 5SM -SHRA BR BKN019 OVC090 RMK SC6AC2

CYHM;2009-07-29 12:00;CYHM 291200Z 27006KT 4SM -SHRA BR BKN019 BKN031 OVC090 19/18 A2979 RMK SC6SC2AC1 SLP086

CYHM;2009-07-29 12:33;CYHM 291233Z 29004KT 5SM -SHRA BR BKN006 BKN019 OVC100 RMK SF5SC2AC1

CYHM;2009-07-29 13:00;CYHM 291300Z 35005KT 6SM -SHRA BR FEW006 BKN019 OVC022 20/18 A2978 RMK SF1SC5SC2 SLP083

CYHM;2009-07-29 13:17;CYHM 291317Z 03004KT 7SM BKN022 OVC100 RMK SC5AC3 RERA

CYHM;2009-07-29 14:00;CYHM 291400Z 08002KT 10SM FEW030 BKN088 OVC140 21/18 A2978 RMK SC2AC4AC2 SLP083

CYHM;2009-07-29 15:00;CYHM 291500Z 04002KT 10SM FEW025 BKN062 OVC110 22/18 A2978 RMK SC1SC5AC2 SLP082

CYHM;2009-07-29 16:00;CYHM 291600Z 00000KT 10SM FEW025 BKN053 OVC080 22/18 A2979 RMK SC1SC6AC2 SLP085

CYHM;2009-07-29 16:14;CYHM 291614Z 28006KT 7SM -SHRA SCT026 BKN065 OVC070 RMK SC3SC3AC2

CYHM;2009-07-29 16:53;CYHM 291653Z 03006KT 10SM BKN014 OVC110 RMK SC6AC2 RERA

CYHM;2009-07-29 17:00;CYHM 291700Z 03004KT 10SM BKN013 OVC120 21/17 A2978 RMK SC6AC2 TR CU ASOCTD SLP080

CYHM;2009-07-29 18:00;CYHM 291800Z CCA 03004KT 15SM SCT024 OVC046 21/17 A2976 RMK SC4SC4 SLP077

CYHM;2009-07-29 19:00;CYHM 291900Z 09005KT 10SM SCT032 OVC055 21/18 A2977 RMK SC3SC5 SLP078

CYHM;2009-07-29 19:34;CYHM 291934Z 11004KT 15SM -SHRA BKN036 OVC051 RMK SC6SC2

CYHM;2009-07-29 20:00;CYHM 292000Z 09002KT 15SM -SHRA BKN055 OVC082 20/18 A2977 RMK SC6AC2 SLP078

CYHM;2009-07-29 20:10;CYHM 292010Z 09004KT 15SM FEW022 BKN055 OVC090 RMK CU1SC6AC2 RERA CU TR

CYHM;2009-07-29 21:00;CYHM 292100Z 00000KT 15SM FEW030 SCT062 BKN110 OVC180 21/18 A2976 RMK CU1SC4AC2AC2 CU TR SLP077

CYHM;2009-07-29 22:00;CYHM 292200Z 00000KT 15SM BKN055 OVC120 21/18 A2977 RMK SC6AC2 SLP080

CYHM;2009-07-29 23:00;CYHM 292300Z 00000KT 15SM SCT080 OVC230 21/19 A2977 RMK AC4CI3 SLP078

CYHM;2009-07-30 00:00;CYHM 300000Z 00000KT 15SM FEW080 BKN220 21/19 A2978 RMK AC2CI6 SLP081

CYHM;2009-07-30 01:00;CYHM 300100Z 25003KT 15SM SCT040 BKN200 20/19 A2979 RMK SC3CI2 SLP085

CYHM;2009-07-30 02:00;CYHM 300200Z 28003KT 15SM FEW040 BKN200 19/18 A2981 RMK SC2CI2 SLP094

CYHM;2009-07-30 03:00;CYHM 300300Z 00000KT 15SM FEW040 18/16 A2983 RMK SC2 SLP099

CYHM;2009-07-30 04:00;CYHM 300400Z 00000KT 15SM FEW040 17/15 A2984 RMK SC1 SLP104

CYHM;2009-07-30 05:00;CYHM 300500Z 00000KT 10SM MIFG SKC 15/15 A2985 RMK SLP108

CYHM;2009-07-30 06:00;CYHM 300600Z 00000KT 6SM BR FEW220 14/13 A2986 RMK CI1 SLP111

CYHM;2009-07-30 07:00;CYHM 300700Z 26003KT 15SM MIFG FEW100 13/13 A2986 RMK AC2 SLP110

CYHM;2009-07-30 08:00;CYHM 300800Z 00000KT 15SM MIFG FEW210 13/13 A2985 RMK CI1 SLP109

CYHM;2009-07-30 09:00;CYHM 300900Z 20003KT 10SM MIFG SCT230 13/13 A2986 RMK CI2 SLP110

CYHM;2009-07-30 10:00;CYHM 301000Z 00000KT 15SM FEW062 BKN120 13/13 A2986 RMK SC2AC3 SLP111

CYHM;2009-07-30 11:00;CYHM 301100Z 00000KT 15SM FEW064 BKN140 14/14 A2988 RMK SC2AC3 SLP117

CYHM;2009-07-30 12:00;CYHM 301200Z 00000KT 15SM SCT063 BKN120 BKN220 15/14 A2989 RMK SC3AC2CI2 SLP122

CYHM;2009-07-30 13:00;CYHM 301300Z 20002KT 15SM BKN060 BKN120 OVC220 17/15 A2991 RMK SC5AC2CI1 SLP127

CYHM;2009-07-30 14:00;CYHM 301400Z 23006KT 15SM FEW025 FEW062 BKN120 BKN220 20/17 A2992 RMK CU1SC2AC2CI2 CU TR SLP132

CYHM;2009-07-30 15:00;CYHM 301500Z 22005KT 15SM FEW030 FEW140 BKN240 22/16 A2991 RMK CU1AC1CI2 AC TR SLP129

CYHM;2009-07-30 16:00;CYHM 301600Z 22003KT 15SM SCT032 BKN210 23/16 A2991 RMK CU3CI1 SLP128

CYHM;2009-07-30 17:00;CYHM 301700Z 19004KT 15SM SCT034 BKN046 BKN220 24/14 A2990 RMK CU3SC2CI0 CI TR SLP123

CYHM;2009-07-30 18:00;CYHM 301800Z 18008KT 15SM SCT028 BKN060 BKN210 24/16 A2989 RMK CU3SC2CI1 SLP121

CYHM;2009-07-30 19:00;CYHM 301900Z 21009KT 15SM FEW042 SCT068 BKN180 24/16 A2988 RMK CU2AC2AC2 SLP117

CYHM;2009-07-30 20:00;CYHM 302000Z CCA 20008KT 150V320 15SM SCT036 BKN250 25/17 A2987 RMK CU3CI1 SLP113

CYHM;2009-07-30 21:00;CYHM 302100Z 22008KT 15SM FEW040 BKN250 25/16 A2985 RMK CU2CI2 SLP107

CYHM;2009-07-30 22:00;CYHM 302200Z 22008KT 15SM FEW035 FEW120 BKN250 24/15 A2986 RMK CU1AC1CI4 CONTRAILS SLP109

CYHM;2009-07-30 23:00;CYHM 302300Z 21005KT 15SM FEW035 SCT120 BKN250 22/15 A2985 RMK CU1AC3CI3 CU TR SLP106

CYHM;2009-07-31 00:00;CYHM 310000Z 21004KT 15SM FEW035 BKN120 BKN250 21/16 A2985 RMK CU1AC5CI2 CU TR SLP108

CYHM;2009-07-31 01:00;CYHM 310100Z 20004KT 15SM FEW120 BKN250 19/15 A2986 RMK AC2CI2 SLP110

CYHM;2009-07-31 02:00;CYHM 310200Z 20004KT 15SM FEW120 BKN250 17/15 A2987 RMK AC2CI2 SLP113

CYHM;2009-07-31 03:00;CYHM 310300Z 23004KT 15SM FEW120 BKN250 18/15 A2987 RMK AC1CI2 SLP114

CYHM;2009-07-31 04:00;CYHM 310400Z 27004KT 15SM FEW120 BKN250 18/14 A2987 RMK AC2CI3 SLP114

CYHM;2009-07-31 05:00;CYHM 310500Z 26004KT 15SM FEW120 BKN250 17/15 A2987 RMK AC2CI4 SLP114

CYHM;2009-07-31 06:00;CYHM 310600Z 25004KT 15SM SCT120 BKN250 17/15 A2987 RMK AC3CI3 SLP114

CYHM;2009-07-31 07:00;CYHM 310700Z 25003KT 15SM SCT120 OVC250 17/15 A2987 RMK AC4CI3 SLP112

CYHM;2009-07-31 08:00;CYHM 310800Z 00000KT 15SM SCT120 OVC250 16/15 A2985 RMK AC3CI5 SLP106

CYHM;2009-07-31 09:00;CYHM 310900Z 00000KT 15SM FEW120 OVC250 16/15 A2984 RMK AC2CI6 SLP105

CYHM;2009-07-31 10:00;CYHM 311000Z 00000KT 15SM BKN120 OVC250 16/15 A2984 RMK AC6CI2 SLP104

CYHM;2009-07-31 11:00;CYHM 311100Z 00000KT 15SM BKN110 OVC220 16/15 A2985 RMK AC6CI2 SLP108

CYHM;2009-07-31 12:00;CYHM 311200Z 20003KT 15SM BKN100 OVC170 16/15 A2986 RMK AC6AS2 SLP111

CYHM;2009-07-31 13:00;CYHM 311300Z 00000KT 15SM BKN100 OVC160 18/16 A2987 RMK AC5AS3 SLP113

CYHM;2009-07-31 14:00;CYHM 311400Z 26004KT 15SM FEW100 BKN150 BKN220 20/16 A2987 RMK AC2AS3CI2 SLP115

CYHM;2009-07-31 15:00;CYHM 311500Z 28003KT 15SM FEW140 BKN220 22/16 A2988 RMK AC2CI2 SLP115

CYHM;2009-07-31 16:00;CYHM 311600Z 00000KT 15SM FEW028 FEW150 FEW220 23/15 A2988 RMK CU1AC1CI1 CU TR AC TR CI TR SLP116

CYHM;2009-07-31 17:00;CYHM 311700Z 21008KT 15SM FEW032 FEW150 24/16 A2988 RMK CU2AC1 AC TR SLP116

CYHM;2009-07-31 18:00;CYHM 311800Z 27008KT 240V300 15SM FEW032 SCT060 BKN120 BKN220 25/17 A2988 RMK CU2SC2AC1CI1 SLP116

CYHM;2009-07-31 19:00;CYHM 311900Z 23008KT 15SM SCT030 25/17 A2988 RMK CU3 TCU ASOCTD SLP118

CYHM;2009-07-31 20:00;CYHM 312000Z 25006KT 15SM BKN055TCU 26/16 A2988 RMK TCU6 SLP117

CYHM;2009-07-31 21:00;CYHM 312100Z 21012KT 15SM SCT045TCU BKN080 24/17 A2988 RMK TCU4AC1 SLP115

CYHM;2009-07-31 21:26;CYHM 312126Z 23011KT 15SM -TSRA BKN043TCU BKN090 RMK TCU6AC2 CB ASOCTD

CYHM;2009-07-31 21:35;CYHM 312135Z 27018G28KT 1SM +TSRA OVC025CB RMK RA2CB6 VIS VRB 3/4 - 11/4

CYHM;2009-07-31 21:43;CYHM 312143Z 18007KT 5SM -TSRA HZ BKN030CB BKN078 RERA RMK CB5AC2

CYHM;2009-07-31 22:00;CYHM 312200Z 20007G17KT 10SM -TSRA BKN035CB BKN090 20/17 A2990 RERA RMK CB6AC1 SLP122

CYHM;2009-07-31 23:00;CYHM 312300Z 24006KT 15SM -SHRA BKN045 BKN080 20/18 A2991 RETS RMK SC5AC2 TCU ASOCTD HVIER SHWRS E SLP127

CYHM;2009-08-01 01:00;CYHM 010100Z 25003KT 15SM FEW095 FEW230 18/16 A2995 RMK AC1CI1 SLP142

CYHM;2009-08-01 02:00;CYHM 010200Z 24003KT 15SM FEW230 17/16 A2998 RMK CI1 SLP151

CYHM;2009-08-01 03:00;CYHM 010300Z 26003KT 15SM FEW210 17/16 A3000 RMK CI1 SLP159

CYHM;2009-08-01 04:00;CYHM 010400Z 26002KT 15SM MIFG FEW220 17/16 A3001 RMK CI1 SLP163

CYHM;2009-08-01 05:00;CYHM 010500Z 28003KT 15SM MIFG SKC 16/15 A3002 RMK SLP164

CYHM;2009-08-01 06:00;CYHM 010600Z 28002KT 15SM MIFG FEW220 16/15 A3001 RMK CI1 SLP161

CYHM;2009-08-01 07:00;CYHM 010700Z 29003KT 15SM MIFG SKC 15/14 A3002 RMK SLP163

CYHM;2009-08-01 08:00;CYHM 010800Z 27002KT 15SM MIFG SKC 14/13 A3002 RMK SLP165

CYHM;2009-08-01 09:00;CYHM 010900Z 23003KT 15SM MIFG SKC 12/12 A3002 RMK SLP165

CYHM;2009-08-01 10:00;CYHM 011000Z 21002KT 1SM BR FEW210 13/12 A3002 RMK FG2CI1 VIS VRB 3/4 - 11/4 SLP166

CYHM;2009-08-01 10:31;CYHM 011031Z 23002KT 12SM MIFG SKC

CYHM;2009-08-01 11:00;CYHM 011100Z 00000KT 12SM FEW020 FEW210 14/14 A3004 RMK CU1CI1 BOTH LYRS TR SLP171

CYHM;2009-08-01 12:00;CYHM 011200Z 17002KT 15SM SKC 17/15 A3003 RMK SLP168

CYHM;2009-08-01 13:00;CYHM 011300Z 19006KT 15SM FEW030 20/18 A3004 RMK SC1 SLP170

CYHM;2009-08-01 14:00;CYHM 011400Z 19006KT 15SM SCT012 SCT250 23/20 A3003 RMK CU3CI1 SLP169

CYHM;2009-08-01 15:00;CYHM 011500Z 20010KT 15SM BKN025 BKN250 24/18 A3003 RMK CU5CI0 SLP167

CYHM;2009-08-01 16:00;CYHM 011600Z 21009KT 15SM BKN028 25/19 A3002 RMK SC6 SLP164

CYHM;2009-08-01 17:00;CYHM 011700Z 19012KT 15SM BKN036 25/18 A3000 RMK CU6 SLP158

CYHM;2009-08-01 18:00;CYHM 011800Z 18014KT 15SM SCT040 BKN250 25/16 A2999 RMK CU4CI0 SLP153

CYHM;2009-08-01 19:00;CYHM 011900Z 20016KT 15SM SCT042 BKN062 BKN220 25/16 A2998 RMK CU4SC1CI1 SLP150

CYHM;2009-08-01 20:00;CYHM 012000Z 20014KT 170V230 15SM FEW042 SCT064 BKN250 25/16 A2997 RMK CU2SC1CI2 SLP146

CYHM;2009-08-01 21:00;CYHM 012100Z 21013KT 180V240 15SM FEW042 BKN230 24/14 A2996 RMK CU2CI2 SLP144

CYHM;2009-08-01 22:00;CYHM 012200Z 21012KT 15SM FEW040 FEW190 BKN220 24/15 A2995 RMK CU1AC1CI4 AC TR SLP143

CYHM;2009-08-01 23:00;CYHM 012300Z 20008KT 15SM FEW180 BKN220 23/15 A2994 RMK AC1CI5 SLP138

CYHM;2009-08-02 00:00;CYHM 020000Z 19006KT 15SM FEW160 BKN230 22/15 A2993 RMK AC2CI5 SLP134

CYHM;2009-08-02 01:00;CYHM 020100Z 20003KT 15SM FEW080 FEW140 OVC200 20/16 A2993 RMK AC2AC1CS6 SLP134

CYHM;2009-08-02 02:00;CYHM 020200Z 17006KT 15SM FEW062 SCT080 BKN180 BKN200 20/16 A2993 RMK SC2AC2AC2CI2 SLP134

CYHM;2009-08-02 03:00;CYHM 020300Z 17005KT 15SM BKN060 OVC150 20/17 A2991 RMK SC5AC3 TCU ASOCTD SLP126

CYHM;2009-08-02 04:00;CYHM 020400Z 18005KT 15SM BKN057 OVC140 20/17 A2990 RMK SC6AC2 SLP123

CYHM;2009-08-02 05:00;CYHM 020500Z 19003KT 15SM FEW070 OVC120 19/17 A2989 RMK AC2AC6 SLP119

CYHM;2009-08-02 06:00;CYHM 020600Z 18005KT 15SM FEW060 OVC100 20/17 A2987 RMK SC2AC6 SLP111

CYHM;2009-08-02 07:00;CYHM 020700Z 20007KT 15SM BKN120 19/16 A2985 RMK AC7 SLP106

CYHM;2009-08-02 08:00;CYHM 020800Z 21006KT 15SM OVC082 19/16 A2984 RMK AC8 SLP102

CYHM;2009-08-02 09:00;CYHM 020900Z 23005KT 15SM -SHRA OVC052 19/17 A2983 RMK SC8 SLP100

CYHM;2009-08-02 10:00;CYHM 021000Z 00000KT 15SM OVC067 19/17 A2982 RMK AC8 SLP096

CYHM;2009-08-02 11:00;CYHM 021100Z 21004KT 15SM BKN060 BKN120 BKN250 19/17 A2983 RMK SC5AC2CI1 SLP100

CYHM;2009-08-02 11:50;CYHM 021150Z 23003KT 9SM -SHRA BKN055 OVC096 RMK SC6AC2

CYHM;2009-08-02 12:00;CYHM 021200Z 22003KT 7SM -SHRA BKN054 OVC096 19/17 A2984 RMK SC6AC2 SLP103

CYHM;2009-08-02 12:45;CYHM 021245Z 21004KT 12SM SCT035 BKN046 OVC092 RMK SC3SC4AC1

CYHM;2009-08-02 13:00;CYHM 021300Z 23004KT 9SM -SHRA FEW035 BKN044 BKN092 19/17 A2984 RMK SC2SC5AC1 SLP104

CYHM;2009-08-02 13:29;CYHM 021329Z 23006KT 10SM FEW034 SCT051 OVC096 RMK SC1SC2AC5

CYHM;2009-08-02 14:00;CYHM 021400Z 21005KT 9SM BKN044 BKN098 20/17 A2983 RMK SC5AC2 SLP101

CYHM;2009-08-02 15:00;CYHM 021500Z 24009KT 190V280 15SM BKN019 BKN038 BKN078 21/17 A2984 RMK CU5SC2AC1 SLP101

CYHM;2009-08-02 16:00;CYHM 021600Z 24012KT 15SM FEW023 BKN081 23/18 A2984 RMK CU2AC3 SLP101

CYHM;2009-08-02 17:00;CYHM 021700Z 26010KT 15SM SCT030 SCT250 23/17 A2983 RMK CU3CI0 SLP098

CYHM;2009-08-02 18:00;CYHM 021800Z 27014KT 15SM FEW034 23/16 A2982 RMK CU2 SLP096

CYHM;2009-08-02 19:00;CYHM 021900Z 27015G20KT 240V300 15SM FEW035 SCT048 24/14 A2983 RMK CU2SC1 SLP098

CYHM;2009-08-02 20:00;CYHM 022000Z 27014KT 240V300 15SM FEW040 24/13 A2983 RMK CU2 SLP100

CYHM;2009-08-02 21:00;CYHM 022100Z 28013KT 250V320 15SM FEW040 FEW050 23/12 A2984 RMK CU1SC1 SLP104

CYHM;2009-08-02 22:00;CYHM 022200Z 27012KT 240V300 15SM FEW040 FEW050 22/12 A2986 RMK CU1SC1 CU TR SLP108

CYHM;2009-08-02 23:00;CYHM 022300Z 27011KT 240V300 15SM FEW040 FEW052 FEW250 21/11 A2988 RMK CU1SC1CI1 CU TR SC TR CI TR SLP114

CYHM;2009-08-03 00:00;CYHM 030000Z 27006KT 15SM FEW052 FEW250 20/10 A2989 RMK SC1CI1 SC TR CI TR SLP122

CYHM;2009-08-03 01:00;CYHM 030100Z 00000KT 15SM SKC 18/11 A2991 RMK SLP128

CYHM;2009-08-03 02:00;CYHM 030200Z 00000KT 15SM SKC 16/11 A2993 RMK SLP134

CYHM;2009-08-03 03:00;CYHM 030300Z 18002KT 15SM SKC 15/11 A2994 RMK SLP140

CYHM;2009-08-03 04:00;CYHM 030400Z 00000KT 15SM FEW220 15/11 A2996 RMK CI1 SLP144

CYHM;2009-08-03 05:00;CYHM 030500Z 00000KT 15SM SKC 14/11 A2996 RMK SLP146

CYHM;2009-08-03 06:00;CYHM 030600Z 00000KT 15SM FEW220 14/11 A2997 RMK CI1 SLP147

CYHM;2009-08-03 07:00;CYHM 030700Z 00000KT 15SM FEW210 13/11 A2997 RMK CI1 SLP147

CYHM;2009-08-03 08:00;CYHM 030800Z 00000KT 15SM FEW210 13/11 A2996 RMK CI1 SLP145

CYHM;2009-08-03 09:00;CYHM 030900Z 00000KT 15SM FEW210 12/11 A2996 RMK CI1 SLP146

CYHM;2009-08-03 10:00;CYHM 031000Z 00000KT 15SM SCT210 12/10 A2997 RMK CI2 SLP148

CYHM;2009-08-03 11:00;CYHM 031100Z 00000KT 15SM FEW210 12/11 A2998 RMK CI1 SLP153

CYHM;2009-08-03 12:00;CYHM 031200Z 23002KT 15SM FEW020 FEW120 15/12 A2999 RMK CU1AC1 CU TR CI TR15 SLP156

CYHM;2009-08-03 13:00;CYHM 031300Z 24002KT 15SM FEW020 FEW120 18/13 A3000 RMK CU1AC1 SLP159

CYHM;2009-08-03 14:00;CYHM 031400Z 21005KT 15SM FEW025 FEW140 FEW220 20/14 A3001 RMK CU1AC1CI1 SLP162

CYHM;2009-08-03 15:00;CYHM 031500Z 20012KT 15SM FEW025 FEW210 22/12 A3001 RMK CU1CI1 SLP160

CYHM;2009-08-03 16:00;CYHM 031600Z 24010KT 15SM FEW040 BKN220 23/13 A3000 RMK CU1CI2 SLP159

CYHM;2009-08-03 17:00;CYHM 031700Z 21008KT 15SM FEW040 FEW180 BKN220 23/14 A2998 RMK CU1AC1CI2 SLP151

CYHM;2009-08-03 18:00;CYHM 031800Z 21012KT 15SM FEW041 BKN220 23/14 A2996 RMK CU2CI2 SLP144

CYHM;2009-08-03 19:00;CYHM 031900Z 19022KT 15SM FEW040 FEW150 BKN250 24/16 A2993 RMK CU1AC1CI2 SLP134

CYHM;2009-08-03 20:00;CYHM 032000Z 19022KT 15SM FEW040 BKN230 23/14 A2993 RMK CU1CI5 SLP134

CYHM;2009-08-03 21:00;CYHM 032100Z 21017KT 15SM FEW160 BKN250 23/13 A2992 RMK AC1CI4 SLP133

CYHM;2009-08-03 22:00;CYHM 032200Z 20021KT 15SM FEW160 BKN250 23/14 A2991 RMK AC1CI3 SLP130

CYHM;2009-08-03 23:00;CYHM 032300Z 21013KT 15SM SCT150 BKN250 22/14 A2991 RMK AC4CI1 SLP128

CYHM;2009-08-04 00:00;CYHM 040000Z 20009KT 15SM FEW150 BKN250 21/15 A2991 RMK AC2CI3 SLP130

CYHM;2009-08-04 01:00;CYHM 040100Z 20008KT 15SM BKN180 BKN250 20/16 A2991 RMK AC5CI2 SLP128

CYHM;2009-08-04 02:00;CYHM 040200Z 20011KT 15SM BKN140 BKN250 21/17 A2991 RMK AC6CI1 SLP128

CYHM;2009-08-04 03:00;CYHM 040300Z 20013KT 15SM OVC130 22/16 A2991 RMK AC8 SLP127

CYHM;2009-08-04 04:00;CYHM 040400Z 21010KT 15SM OVC120 22/17 A2992 RMK AC8 VIRGA SLP129

CYHM;2009-08-04 05:00;CYHM 040500Z 20009KT 15SM BKN091 BKN160 21/16 A2992 RMK AC5AC2 SLP131

CYHM;2009-08-04 06:00;CYHM 040600Z 20010KT 15SM FEW091 SCT150 BKN250 21/16 A2992 RMK AC1AC3CI2 SLP129

CYHM;2009-08-04 07:00;CYHM 040700Z 20009KT 15SM FEW110 SCT150 SCT240 20/17 A2991 RMK AC2AC1CI1 SLP125

CYHM;2009-08-04 08:00;CYHM 040800Z 19008KT 15SM FEW120 20/17 A2989 RMK AC2 SLP120

CYHM;2009-08-04 09:00;CYHM 040900Z 20006KT 15SM SCT120 19/17 A2988 RMK AC3 SLP118

CYHM;2009-08-04 10:00;CYHM 041000Z 20009KT 15SM SCT120 19/17 A2988 RMK AC3 SLP117

CYHM;2009-08-04 11:00;CYHM 041100Z 19008KT 15SM BKN110 20/18 A2988 RMK AC6 SLP116

CYHM;2009-08-04 12:00;CYHM 041200Z 20008KT 15SM FEW110 21/18 A2987 RMK AC2 SLP114

CYHM;2009-08-04 13:00;CYHM 041300Z 22012KT 15SM FEW100 23/19 A2986 RMK AC1 SLP111

CYHM;2009-08-04 14:00;CYHM 041400Z 21014KT 15SM FEW018 FEW090 23/19 A2985 RMK CU1AC1 SLP108

CYHM;2009-08-04 15:00;CYHM 041500Z 22014KT 10SM BKN020 OVC042 24/19 A2987 RMK SC6SC2 CU ASOCTD SLP111

CYHM;2009-08-04 16:00;CYHM 041600Z 23016KT 10SM BKN020 BKN032 24/20 A2983 RMK SC6SC2 CU ASOCTD SLP100

CYHM;2009-08-04 17:00;CYHM 041700Z 22012KT 10SM FEW022 SCT045 BKN210 25/20 A2983 RMK CU2SC2CI2 SLP100

CYHM;2009-08-04 18:00;CYHM 041800Z CCA 23014G19KT 8SM BKN024 BKN032 25/20 A2983 RMK SC6SC2 CU ASOCTD SLP097

CYHM;2009-08-04 19:00;CYHM 041900Z CCA 20018KT 150V240 12SM SCT025 BKN220 26/20 A2981 RMK CU4CI2 SLP090

CYHM;2009-08-04 20:00;CYHM 042000Z 23016KT 9SM BKN028 BKN240 25/20 A2981 RMK CU5CI2 SLP093

CYHM;2009-08-04 20:21;CYHM 042021Z 23010KT 10SM TS SCT026 BKN180 BKN220 RMK CU4AC2CI1 CB ASOCTD

CYHM;2009-08-04 20:40;CYHM 042040Z 22012KT 10SM -TSRA SCT026 BKN180 BKN220 RMK CU4AC2CI1 CB ASOCTD

CYHM;2009-08-04 21:00;CYHM 042100Z 24008KT 10SM -TSRA SCT026CB BKN037 BKN170 24/20 A2982 RMK CB3SC2AC2 SLP096

CYHM;2009-08-04 22:00;CYHM 042200Z 25006KT 12SM -TSRA FEW028CB BKN045 BKN180 BKN250 19/18 A2980 RERA RMK CB2SC3AC1CI0 SLP089

CYHM;2009-08-04 22:54;CYHM 042254Z 28006G22KT 230V080 10SM -TSRA FEW007 BKN027CB BKN052 BKN160 RMK CF2CB2SC2AC1

CYHM;2009-08-04 23:00;CYHM 042300Z 32012KT 230V080 10SM -TSRA FEW007 SCT027CB BKN049 BKN160 22/19 A2981 RERA RMK CF2CB2SC2AC1 SLP093

CYHM;2009-08-04 23:10;CYHM 042310Z 24012KT 1 1/4SM +TSRA FEW007 SCT028CB OVC046 RMK RA2CF1CB2SC4

CYHM;2009-08-04 23:13;CYHM 042313Z 31016KT 3/8SM +TSRA VV004 RMK RA8 CB EMBDD

CYHM;2009-08-04 23:17;CYHM 042317Z 23008G16KT 210V340 3/4SM +TSRA BKN026CB OVC046 RMK RA4CB2SC2

CYHM;2009-08-04 23:24;CYHM 042324Z 16006KT 090V340 6SM -TSRA SCT026CB BKN054 RERA RMK CB3SC4

CYHM;2009-08-05 00:00;CYHM 050000Z CCA 17005KT 5SM -TSRA BR FEW012 BKN041 OVC091 20/18 A2979 RERA RMK CF2SC5AC1 CB EMBDD /R22/ SLP087

CYHM;2009-08-05 00:16;CYHM 050016Z 32004KT 230V340 1 1/2SM +TSRA BR BKN007 OVC041 RMK RA2CF4SC2 CB EMBDD

CYHM;2009-08-05 00:22;CYHM 050022Z 19006KT 160V350 6SM -TSRA BR SCT008 OVC042 RERA RMK CF3SC5 CB EMBDD

CYHM;2009-08-05 01:00;CYHM 050100Z 19007KT 2 1/2SM +TSRA BR FEW008 BKN024CB OVC042 20/19 A2981 RMK CF2CB5SC2 /R13/ SLP091

CYHM;2009-08-05 01:09;CYHM 050109Z CCA 18003KT 6SM -TSRA BR FEW008 SCT024CB OVC036 RERA RMK CF1CB3SC4

CYHM;2009-08-05 01:40;CYHM 050140Z 18005KT 12SM TS FEW024CB BKN044 RERA RMK CB2SC5 FQT LTGIC S

CYHM;2009-08-05 02:00;CYHM 050200Z 19004KT 12SM TS FEW022CB BKN041 20/19 A2982 RERA RMK CB2SC5 LTGIC SLP097

CYHM;2009-08-05 02:28;CYHM 050228Z 32008KT 12SM OVC022 RETS RMK SC8 OCNL LTG DSNT SE

CYHM;2009-08-05 03:00;CYHM 050300Z 33014KT 15SM FEW026 BKN048 18/16 A2985 RETS RMK SC2SC5 SLP105

CYHM;2009-08-05 04:00;CYHM 050400Z 31008KT 15SM BKN052 17/14 A2988 RMK SC7 SLP114

CYHM;2009-08-05 05:00;CYHM 050500Z 31004KT 15SM BKN059 15/12 A2990 RMK SC6 SLP122

CYHM;2009-08-05 06:00;CYHM 050600Z 30003KT 15SM FEW070 14/11 A2992 RMK AC2 SLP131

CYHM;2009-08-05 07:00;CYHM 050700Z 32005KT 15SM FEW070 13/10 A2994 RMK AC1 SLP137

CYHM;2009-08-05 08:00;CYHM 050800Z 30004KT 15SM FEW070 12/09 A2997 RMK AC1 SLP146

CYHM;2009-08-05 09:00;CYHM 050900Z 28004KT 15SM FEW070 11/09 A2997 RMK AC1 SLP149

CYHM;2009-08-05 10:00;CYHM 051000Z 25004KT 15SM FEW070 FEW250 11/09 A2999 RMK AC1CI0 AC TR SLP155

CYHM;2009-08-05 11:00;CYHM 051100Z 28006KT 15SM FEW070 FEW220 11/10 A3001 RMK AC1CI1 AC TR SLP161

CYHM;2009-08-05 12:00;CYHM 051200Z 29008KT 15SM FEW220 13/11 A3002 RMK CI0 SLP165

CYHM;2009-08-05 13:00;CYHM 051300Z 30006KT 15SM FEW220 15/12 A3002 RMK CI1 SLP167

CYHM;2009-08-05 14:00;CYHM 051400Z 30006KT 15SM FEW220 18/12 A3004 RMK CI0 SLP171

CYHM;2009-08-05 15:00;CYHM 051500Z 32010KT 280V350 15SM FEW028 FEW210 19/12 A3004 RMK CU1CI1 CU TR CI TR SLP173

CYHM;2009-08-05 16:00;CYHM 051600Z 32008KT 15SM FEW040 FEW210 20/12 A3004 RMK CU2CI1 CI TR SLP172

CYHM;2009-08-05 17:00;CYHM 051700Z 28008KT 15SM FEW042 SCT210 21/12 A3002 RMK CU2CI1 SLP166

CYHM;2009-08-05 18:00;CYHM 051800Z 30006KT 15SM FEW044 22/12 A3002 RMK CU2 SLP167

CYHM;2009-08-05 19:00;CYHM 051900Z 26007KT 15SM SCT052 22/12 A3003 RMK CU3 SLP169

CYHM;2009-08-05 20:00;CYHM 052000Z 24010KT 15SM SCT056 23/13 A3002 RMK CU3 SLP165

CYHM;2009-08-05 21:00;CYHM 052100Z 26004KT 15SM SCT058 SCT250 22/13 A3001 RMK CU3CI1 CI TR SLP163

CYHM;2009-08-05 22:00;CYHM 052200Z 26008KT 15SM SCT058 SCT250 22/12 A3001 RMK CU3CI0 SLP161

CYHM;2009-08-05 23:00;CYHM 052300Z 28003KT 15SM FEW064 BKN250 22/12 A3000 RMK CU1CI1 SLP158

CYHM;2009-08-06 00:00;CYHM 060000Z 28005KT 15SM FEW062 BKN250 20/11 A3001 RMK CU1CI2 SLP161

CYHM;2009-08-06 01:00;CYHM 060100Z 26004KT 15SM FEW062 SCT250 18/11 A3002 RMK CU1CI1 CU TR SLP166

CYHM;2009-08-06 02:00;CYHM 060200Z 26002KT 15SM FEW070 SCT250 17/10 A3003 RMK AC1CI1 AC TR SLP169

CYHM;2009-08-06 03:00;CYHM 060300Z 27003KT 15SM FEW230 15/10 A3003 RMK CI2 SLP169

CYHM;2009-08-06 04:00;CYHM 060400Z 28005KT 15SM FEW210 15/11 A3003 RMK CI2 SLP168

CYHM;2009-08-06 05:00;CYHM 060500Z 00000KT 15SM FEW210 14/11 A3003 RMK CI1 SLP170

CYHM;2009-08-06 06:00;CYHM 060600Z 28005KT 15SM FEW075 SCT210 14/11 A3003 RMK AC2CI1 SLP169

CYHM;2009-08-06 07:00;CYHM 060700Z 29005KT 15SM BKN077 15/11 A3003 RMK AC6 SLP168

CYHM;2009-08-06 08:00;CYHM 060800Z 00000KT 15SM SCT078 13/10 A3001 RMK AC3 SLP164

CYHM;2009-08-06 09:00;CYHM 060900Z 23003KT 15SM SCT078 12/11 A3001 RMK AC4 SLP164

CYHM;2009-08-06 10:00;CYHM 061000Z 27002KT 15SM FEW080 12/10 A3001 RMK AC1 SLP164

CYHM;2009-08-06 11:00;CYHM 061100Z 29003KT 15SM FEW025 FEW100 12/11 A3003 RMK CU1AC1 CU TR AC TR SLP168

CYHM;2009-08-06 12:00;CYHM 061200Z 32002KT 15SM FEW025 FEW100 FEW220 15/12 A3004 RMK CU1AC1CI1 CU TR AC TR CI TR SLP173

CYHM;2009-08-06 13:00;CYHM 061300Z 33008KT 15SM FEW025 FEW100 FEW220 18/13 A3005 RMK CU1AC1CI1 CU TR AC TR CI TR SLP176

CYHM;2009-08-06 14:00;CYHM 061400Z 32012KT 15SM FEW045 FEW078 SCT220 19/13 A3006 RMK SC1AC1CI2 SC TR SLP179

CYHM;2009-08-06 15:00;CYHM 061500Z 33008KT 15SM FEW030 BKN090 BKN140 BKN220 20/13 A3007 RMK CU1AC4AC1CI1 TCU SE TR SC ASOCTD SLP182

CYHM;2009-08-06 16:00;CYHM 061600Z 29002KT 15SM FEW028 BKN089 BKN120 BKN220 19/13 A3006 RMK CU1AC4AC2CI1 SLP179

CYHM;2009-08-06 17:00;CYHM 061700Z 30006KT 15SM FEW025 BKN078 BKN220 19/13 A3004 RMK CU1AC6CI1 TCU S-SE ASOCTD SLP174

CYHM;2009-08-06 18:00;CYHM 061800Z 29006KT 15SM FEW028 FEW082 BKN100 BKN220 20/13 A3005 RMK CU1AC2AC2CI1 TCU ASOCTD SLP175

CYHM;2009-08-06 19:00;CYHM 061900Z 28009KT 15SM BKN064 BKN120 23/13 A3004 RMK CU5AC1 SC ASOCTD AC TR CUFRA SLP171

CYHM;2009-08-06 20:00;CYHM 062000Z 26010KT 15SM SCT050 BKN090 22/12 A3003 RMK SC3AC2 CU ASOCTD SLP169

CYHM;2009-08-06 21:00;CYHM 062100Z 26005KT 15SM FEW056 BKN086 21/14 A3003 RMK SC2AC5 TCU EMBDD SLP168

CYHM;2009-08-06 22:00;CYHM 062200Z 25008KT 15SM FEW060 FEW100 22/14 A3003 RMK CU1AC2 TCU ASOCTD SLP169

CYHM;2009-08-06 23:00;CYHM 062300Z 27002KT 15SM FEW044TCU FEW094 22/14 A3002 RMK TCU1AC1 SLP166

CYHM;2009-08-07 00:00;CYHM 070000Z 27002KT 15SM FEW060TCU FEW090 20/13 A3003 RMK TCU1AC1 SLP170

CYHM;2009-08-07 01:00;CYHM 070100Z 00000KT 15SM FEW058TCU FEW250 18/12 A3004 RMK TCU1CI1 TCU TR CI TR SLP173

CYHM;2009-08-07 02:00;CYHM 070200Z 00000KT 15SM FEW250 17/12 A3007 RMK CI1 CI TR SLP182

CYHM;2009-08-07 03:00;CYHM 070300Z 00000KT 15SM FEW250 16/12 A3008 RMK CI1 CI TR SLP185

CYHM;2009-08-07 04:00;CYHM 070400Z 00000KT 15SM FEW250 15/12 A3008 RMK CI1 CI TR SLP185

CYHM;2009-08-07 05:00;CYHM 070500Z 00000KT 15SM SKC 13/12 A3007 RMK SLP183

CYHM;2009-08-07 06:00;CYHM 070600Z 00000KT 15SM SKC 13/12 A3008 RMK SLP186

CYHM;2009-08-07 07:00;CYHM 070700Z 00000KT 15SM SCT054 BKN085 13/12 A3007 RMK SC3AC2 SLP185

CYHM;2009-08-07 08:00;CYHM 070800Z 00000KT 15SM FEW084 13/11 A3010 RMK AC2 SLP193

CYHM;2009-08-07 09:00;CYHM 070900Z 00000KT 15SM FEW084 FEW250 13/11 A3010 RMK AC1CI1 AC TR CI TR SLP195

CYHM;2009-08-07 10:00;CYHM 071000Z 00000KT 15SM FEW090 FEW250 13/11 A3012 RMK AC1CI1 CI TR SLP201

CYHM;2009-08-07 11:00;CYHM 071100Z 00000KT 15SM FEW025 FEW100 FEW210 13/11 A3014 RMK CU1AC1CI1 CU TR SLP208

CYHM;2009-08-07 12:00;CYHM 071200Z 00000KT 15SM FEW030 SCT220 15/12 A3016 RMK SC1CI2 SC TR SLP212

CYHM;2009-08-07 13:00;CYHM 071300Z 00000KT 15SM FEW030 FEW150 FEW210 17/12 A3017 RMK SC1AC1CI1 SC TR CONTRAIL SLP216

CYHM;2009-08-07 14:00;CYHM 071400Z 30005KT 15SM FEW030 FEW140 SCT210 19/10 A3017 RMK SC1AC1CI1 SC TR SLP215

CYHM;2009-08-07 15:00;CYHM 071500Z 30008KT 15SM FEW032 FEW170 BKN210 19/11 A3016 RMK CU1AC1CI2 CU TR SLP214

CYHM;2009-08-07 16:00;CYHM 071600Z 32002KT 15SM FEW038 FEW220 20/11 A3016 RMK CU1CI1 SLP212

CYHM;2009-08-07 17:00;CYHM 071700Z 00000KT 15SM FEW052 SCT210 20/09 A3016 RMK CU2CI1 SLP214

CYHM;2009-08-07 18:00;CYHM 071800Z 24004KT 15SM SCT058 BKN210 21/11 A3016 RMK CU3CI1 SLP212

CYHM;2009-08-07 19:00;CYHM 071900Z 27005KT 15SM SCT064 SCT270 23/12 A3016 RMK CU3CI1 SLP212

CYHM;2009-08-07 20:00;CYHM 072000Z 28006KT 15SM SCT060 SCT170 BKN240 22/12 A3017 RMK CU4AC1CI2 SLP215

CYHM;2009-08-07 21:00;CYHM 072100Z 26006KT 15SM FEW055 BKN150 BKN230 22/10 A3016 RMK CU2AC2CI1 SLP214

CYHM;2009-08-07 22:00;CYHM 072200Z 00000KT 15SM FEW050 SCT140 BKN210 21/11 A3016 RMK CU2AC2CI2 SLP213

CYHM;2009-08-07 23:00;CYHM 072300Z 27005KT 15SM FEW045 FEW120 BKN230 20/09 A3017 RMK CU1AC2CI5 SLP215

CYHM;2009-08-08 00:00;CYHM 080000Z 28004KT 15SM FEW045 FEW150 BKN250 18/09 A3017 RMK CU1AC1CI4 SLP217

CYHM;2009-08-08 01:00;CYHM 080100Z 00000KT 15SM FEW070 BKN230 17/09 A3017 RMK AC2CI4 SLP218

CYHM;2009-08-08 02:00;CYHM 080200Z 00000KT 15SM FEW070 BKN230 15/10 A3018 RMK AC1CI4 SLP221

CYHM;2009-08-08 03:00;CYHM 080300Z 00000KT 15SM BKN210 15/10 A3020 RMK CI6 SLP226

CYHM;2009-08-08 04:00;CYHM 080400Z 00000KT 15SM BKN220 14/10 A3020 RMK CI6 SLP229

CYHM;2009-08-08 05:00;CYHM 080500Z 00000KT 15SM BKN230 13/11 A3021 RMK CI6 SLP232

CYHM;2009-08-08 06:00;CYHM 080600Z 00000KT 15SM BKN230 13/11 A3021 RMK CI4 SLP230

CYHM;2009-08-08 07:00;CYHM 080700Z 00000KT 15SM FEW100 SCT230 13/10 A3020 RMK AC2CI1 SLP228

CYHM;2009-08-08 08:00;CYHM 080800Z 00000KT 15SM FEW230 11/10 A3020 RMK CI2 SLP229

CYHM;2009-08-08 09:00;CYHM 080900Z 00000KT 15SM BKN070 BKN210 12/10 A3020 RMK AC6CI1 SLP229

CYHM;2009-08-08 10:00;CYHM 081000Z 00000KT 15SM FEW070 FEW180 11/11 A3021 RMK AC2AC1 SLP230

CYHM;2009-08-08 11:00;CYHM 081100Z 00000KT 15SM BKN057 BKN250 12/11 A3022 RMK SC6CI0 SLP234

CYHM;2009-08-08 12:00;CYHM 081200Z 00000KT 15SM FEW056 BKN072 BKN250 14/12 A3023 RMK SC2AC3CI1 SLP237

CYHM;2009-08-08 13:00;CYHM 081300Z 00000KT 15SM SCT072 BKN220 17/13 A3022 RMK AC3CI2 SLP233

CYHM;2009-08-08 14:00;CYHM 081400Z 00000KT 15SM FEW068 OVC250 19/14 A3020 RMK AC1CI5 SLP229

CYHM;2009-08-08 15:00;CYHM 081500Z 00000KT 15SM FEW120 OVC250 21/15 A3020 RMK AC1CS6 SLP226

CYHM;2009-08-08 16:00;CYHM 081600Z 14005KT 15SM FEW080 OVC250 21/15 A3019 RMK AC2CS5 SLP224

CYHM;2009-08-08 17:00;CYHM 081700Z 17007KT 15SM BKN069 OVC250 21/15 A3017 RMK AC5CS3 SLP217

CYHM;2009-08-08 18:00;CYHM 081800Z 18006KT 15SM BKN072 OVC250 21/15 A3016 RMK AC6CS2 SLP214

CYHM;2009-08-08 18:08;CYHM 081808Z CCA 19006KT 12SM -SHRA BKN070 OVC220 RMK AC6CS2

CYHM;2009-08-08 19:00;CYHM 081900Z 17006KT 12SM -RA BKN038 OVC069 20/17 A3013 RMK SC5AC3 SLP205

CYHM;2009-08-08 20:00;CYHM 082000Z 19008KT 6SM -RA BR FEW026 OVC037 19/17 A3013 RMK SC2SC6 SLP203

CYHM;2009-08-08 21:00;CYHM 082100Z 19008KT 5SM -RA BR FEW008 SCT025 OVC036 18/17 A3011 RMK CF2SC2SC4 SLP197

CYHM;2009-08-08 21:53;CYHM 082153Z 18014KT 6SM -RA BR SCT008 OVC014 RMK SF4SC4

CYHM;2009-08-08 22:00;CYHM 082200Z 19014KT 6SM -SHRA BR SCT007 OVC014 18/17 A3006 RMK SF4SC4 SLP182

CYHM;2009-08-08 22:29;CYHM 082229Z 19008KT 5SM -SHRA BR BKN008 OVC014 RMK SF5SC3

CYHM;2009-08-08 22:44;CYHM 082244Z 19006KT 2 1/2SM -RA BR BKN007 OVC013 RMK FG1SF6SC2

CYHM;2009-08-08 23:00;CYHM 082300Z 18006KT 3SM -SHRA BR SCT007 BKN015 OVC028 18/17 A3007 RMK SF4SC3SC1 SLP183

CYHM;2009-08-08 23:16;CYHM 082316Z 16004KT 4SM -SHRA BR SCT006 OVC013 RMK SF4SC4

CYHM;2009-08-08 23:35;CYHM 082335Z 15004KT 3SM -SHRA BR SCT007 BKN016 OVC050 RMK SF3SC3SC2

CYHM;2009-08-09 00:00;CYHM 090000Z 14005KT 2SM -SHRA BR SCT007 BKN016 OVC038 18/18 A3005 RMK FG1SF3SC2SC2 SLP178

CYHM;2009-08-09 00:11;CYHM 090011Z 15006KT 1 3/4SM -SHRA BR SCT007 BKN014 OVC035 RMK FG2SF2SC2SC2

CYHM;2009-08-09 00:33;CYHM 090033Z 16007KT 1 3/4SM -SHRA BR SCT005 BKN016 OVC045 RMK FG2SF2SC2SC2

CYHM;2009-08-09 01:00;CYHM 090100Z 14007KT 1 3/4SM -RA BR SCT003 BKN016 OVC045 18/18 A3005 RMK FG2SF2SC2SC2 SLP176

CYHM;2009-08-09 02:00;CYHM 090200Z 16005KT 1 3/4SM RA BR SCT004 OVC016 18/18 A3006 RMK FG2SF2NS4 TCU EMBD SLP179

CYHM;2009-08-09 03:00;CYHM 090300Z 17006KT 3SM -RA BR OVC003 18/18 A3004 RERA RMK SF8 VIS VRB 2 - 4 CIG RAG SLP172

CYHM;2009-08-09 03:43;CYHM 090343Z 18007KT 5SM -RA BR SCT003 OVC024 RMK SF3SC5

CYHM;2009-08-09 04:00;CYHM 090400Z 17010KT 5SM -RA BR FEW004 OVC025 18/18 A3003 RMK SF2SC6 SLP168

CYHM;2009-08-09 05:00;CYHM 090500Z 16005KT 5SM BR OVC023 18/18 A3002 RMK SC8 SLP164

CYHM;2009-08-09 06:00;CYHM 090600Z CCA 15006KT 5SM BR FEW020 SCT030 BKN080 18/18 A2998 RMK CF2SC2AC2 /R10/ SLP151

CYHM;2009-08-09 07:00;CYHM 090700Z 00000KT 5SM BR FEW013 BKN040 18/18 A2998 RMK CF2SC6 SLP151

CYHM;2009-08-09 08:00;CYHM 090800Z 00000KT 3SM BR OVC015 18/18 A2997 RMK SC8 VIS VRB 2 - 4 CIG RAG SLP147

CYHM;2009-08-09 09:00;CYHM 090900Z 00000KT 3SM BR BKN015 OVC042 19/19 A2996 RMK SC6SC2 VIS VRB 2 - 4 SLP146

CYHM;2009-08-09 10:00;CYHM 091000Z 00000KT 2SM BR BKN010 OVC030 19/19 A2997 RMK FG1SC6SC1 SLP147

CYHM;2009-08-09 11:00;CYHM 091100Z 04004KT 3/4SM BR SCT004 BKN130 19/19 A2994 RMK FG2CF1AC3 SLP140

CYHM;2009-08-09 11:23;CYHM 091123Z 00000KT 1 1/4SM BR OVC003 RMK FG2CF6

CYHM;2009-08-09 12:00;CYHM 091200Z 00000KT 1SM BR OVC003 20/20 A2999 RMK FG2CF6 SLP156

CYHM;2009-08-09 12:28;CYHM 091228Z 20003KT 1 1/4SM BR SCT003 BKN015 BKN042 RMK FG2CF2SC2SC1

CYHM;2009-08-09 12:45;CYHM 091245Z 22004KT 2 1/2SM BR FEW003 BKN013 RMK CF2SC6

CYHM;2009-08-09 13:00;CYHM 091300Z 21005KT 3SM BR FEW003 FEW012 FEW042 SCT120 22/22 A2998 RMK CF1SC1SC1AC1 SLP151

CYHM;2009-08-09 14:00;CYHM 091400Z CCA 21007KT 10SM BKN049 24/23 A2999 RMK SC7 SLP154

CYHM;2009-08-09 15:00;CYHM 091500Z 22008KT 180V260 10SM FEW018 SCT032 BKN250 25/22 A2997 RMK CU1SC3CI2 SLP146

CYHM;2009-08-09 15:53;CYHM 091553Z 22003KT 10SM TS SCT016 OVC031 RMK CU3SC5 CB EMBDD

CYHM;2009-08-09 16:00;CYHM 091600Z 21004KT 10SM TS BKN016 OVC031 25/23 A2998 RMK CU5SC3 CB EMBDD SLP150

CYHM;2009-08-09 16:11;CYHM 091611Z 00000KT 10SM -TSRA BKN015 OVC031 RMK CU6SC2 CB EMBDD

CYHM;2009-08-09 16:17;CYHM 091617Z 30010KT 1 1/4SM +TSRA OVC015CB RMK RA2CB6

CYHM;2009-08-09 16:26;CYHM 091626Z 21006KT 190V350 2SM -TSRA BR FEW005 BKN015CB OVC032 RERA RMK FG1CF1CB4SC2

CYHM;2009-08-09 16:39;CYHM 091639Z 22010KT 160V250 4SM -TSRA BR FEW005 SCT015CB BKN036 RERA RMK CF2CB2SC3 LTGCG

CYHM;2009-08-09 17:00;CYHM 091700Z 23010KT 15SM -TSRA FEW005 FEW015CB SCT110 BKN190 22/21 A2996 RERA RMK CF1CB2AC2AC3 CF TR PCPN VRY LGT LTGCG SLP144

CYHM;2009-08-09 17:24;CYHM 091724Z 26006KT 15SM TS FEW015CB FEW110 BKN190 BKN240 RMK CB2AC1AC3CI1 MAMMA

CYHM;2009-08-09 17:43;CYHM 091743Z 24007KT 15SM FEW015CB SCT190 BKN250 RETS RMK CB1AC2CI2

CYHM;2009-08-09 18:00;CYHM 091800Z 23010KT 15SM FEW015TCU FEW190 BKN250 23/22 A2994 RETS RMK TCU1AC2CI2 SLP137

CYHM;2009-08-09 19:00;CYHM 091900Z 24012KT 15SM FEW160 FEW250 26/23 A2993 RMK AC1CI2 AC TR SLP135

CYHM;2009-08-09 20:00;CYHM 092000Z 22012KT 15SM FEW016 BKN092 27/24 A2992 RMK CU1AC5 SLP132

CYHM;2009-08-09 21:00;CYHM 092100Z CCA 23009G16KT 10SM FEW017 BKN089 28/25 A2991 RMK CU1AC5 SLP125

CYHM;2009-08-09 22:00;CYHM 092200Z 22013KT 10SM FEW018 SCT095 29/25 A2990 RMK CU1AC3 SLP123

CYHM;2009-08-09 23:00;CYHM 092300Z 21010KT 10SM FEW023 FEW088 29/25 A2990 RMK CU1AC2 CU TR SLP121

CYHM;2009-08-10 00:00;CYHM 100000Z 23013KT 15SM FEW030 SCT090 28/25 A2988 RMK CU1AC2 SLP113

CYHM;2009-08-10 01:00;CYHM 100100Z 22010KT 12SM FEW035 BKN056 BKN190 27/24 A2989 RMK SC2SC5AC1 CB ASOCTD OCNL LTNG SLP118

CYHM;2009-08-10 01:45;CYHM 100145Z CCA 03017KT 15SM TS BKN024CB OVC080 RMK CB6AC2 LTNG ALQDS PRESRR

CYHM;2009-08-10 01:52;CYHM 100152Z 35017G22KT 4SM +TSRA OVC020CB RMK CB8 OCNL LTNG ALQDS PRESRR

CYHM;2009-08-10 02:00;CYHM 100200Z 01013G22KT 3SM +TSRA OVC027CB 22/21 A2993 RMK CB8 FQT LTGICCCCG SLP132

CYHM;2009-08-10 03:00;CYHM 100300Z 23007KT 15SM TS OVC030CB 22/21 A2993 RERA RMK CB8 FQT LTGICCCCG SLP131

CYHM;2009-08-10 04:00;CYHM 100400Z 23006KT 12SM -TSRA OVC035 22/21 A2990 RMK SC8 CB ASOCTD SLP122

CYHM;2009-08-10 05:00;CYHM 100500Z 19009KT 12SM -SHRA OVC030 21/21 A2992 RETS RMK SC8 SLP129

CYHM;2009-08-10 06:00;CYHM 100600Z 20008KT 15SM OVC050 21/21 A2995 RMK SC8 SLP139

CYHM;2009-08-10 07:00;CYHM 100700Z 22010KT 15SM BKN060 21/21 A2992 RMK SC6 LTNG E SLP131

CYHM;2009-08-10 08:00;CYHM 100800Z 25008KT 15SM BKN080 21/21 A2994 RMK AC6 SLP135

CYHM;2009-08-10 09:00;CYHM 100900Z 24008KT 15SM BKN090 21/21 A2994 RMK AC7 LTNG NE - ENE SLP133

CYHM;2009-08-10 10:00;CYHM 101000Z 25006KT 10SM FEW040 BKN140 21/21 A2994 RMK SC2AC2 CB TOP SW OCNL LTNG SLP133

CYHM;2009-08-10 11:00;CYHM 101100Z 24006KT 15SM FEW030 FEW100 BKN210 20/20 A2994 RMK SC2AC1CI2 TCU TR SW SLP133

CYHM;2009-08-10 12:00;CYHM 101200Z 26006KT 15SM FEW030 FEW140 BKN210 22/21 A2992 RMK SC1AC1CI2 SC TR SLP129

CYHM;2009-08-10 13:00;CYHM 101300Z 24008KT 15SM FEW025 SCT140 BKN210 23/22 A2991 RMK CU1AC2CI2 SLP125

CYHM;2009-08-10 14:00;CYHM 101400Z 24010KT 15SM FEW025 FEW140 FEW220 24/22 A2991 RMK CU1AC1CI1 CU TR SLP126

CYHM;2009-08-10 15:00;CYHM 101500Z 26006KT 15SM FEW025 FEW050 SCT210 26/24 A2992 RMK CU2SC1CI1 SLP129

CYHM;2009-08-10 16:00;CYHM 101600Z 25010KT 15SM FEW025 SCT052 SCT160 BKN210 27/23 A2993 RMK CU2SC1AC1CI1 SLP132

CYHM;2009-08-10 17:00;CYHM 101700Z 26012KT 15SM FEW025 FEW055 SCT120 BKN210 27/22 A2992 RMK CU2SC1AC1CI1 SLP130

CYHM;2009-08-10 18:00;CYHM 101800Z 27012KT 15SM FEW030 FEW100 SCT210 29/23 A2990 RMK CU2AC1CI1 TCU ASOCTD SLP122

CYHM;2009-08-10 19:00;CYHM 101900Z 26009KT 15SM FEW032TCU FEW120 SCT250 29/23 A2988 RMK TCU2AC1CI1 AC TR CU ASOCTD CUFRA SLP115

CYHM;2009-08-10 20:00;CYHM 102000Z 29008KT 15SM VCSH FEW034TCU SCT064CB BKN190 27/21 A2988 RMK TCU1CB3AS3 CUFRA SLP113

CYHM;2009-08-10 20:21;CYHM 102021Z 26006KT 15SM TS VCSH FEW034TCU FEW060CB BKN190 BKN230 RMK TCU1CB2AS3CS2 LTNG CUFRA

CYHM;2009-08-10 21:00;CYHM 102100Z 27005KT 15SM FEW032TCU FEW190 BKN230 28/22 A2985 RETS RMK TCU1AC2CS2 CU ASOCTD CONTRAILS SLP105

CYHM;2009-08-10 22:00;CYHM 102200Z 29006KT 15SM FEW032TCU FEW180 SCT220 28/21 A2986 RMK TCU1AC2CI1 TCU TR CC ASOCTD SLP109

CYHM;2009-08-10 23:00;CYHM 102300Z 30008KT 15SM FEW030TCU BKN090 BKN250 28/21 A2987 RMK TCU1AC4CI1 CI TR SLP111

CYHM;2009-08-11 00:00;CYHM 110000Z 01002KT 15SM SCT030 BKN090 BKN250 25/21 A2987 RMK SC4AC1CI1 TCU EMBDD SLP112

CYHM;2009-08-11 01:00;CYHM 110100Z 09002KT 15SM FEW030TCU FEW090 BKN250 23/20 A2988 RMK TCU1AC2CI1 SC ASOCTD SLP116

CYHM;2009-08-11 02:00;CYHM 110200Z 11002KT 15SM FEW032 FEW100 FEW250 22/20 A2992 RMK SC1AC1CI1 SC TR SLP127

CYHM;2009-08-11 03:00;CYHM 110300Z 00000KT 15SM FEW080 FEW250 21/20 A2991 RMK AC1CI1 CI TR SLP127

CYHM;2009-08-11 04:00;CYHM 110400Z 00000KT 15SM FEW090 FEW250 20/20 A2991 RMK AC1CI1 CI TR SLP126

CYHM;2009-08-11 05:00;CYHM 110500Z 28002KT 15SM FEW040 FEW250 20/19 A2992 RMK SC1CI1 CI TR SLP128

CYHM;2009-08-11 06:00;CYHM 110600Z 22003KT 15SM FEW040 18/18 A2990 RMK SC1 SLP123

CYHM;2009-08-11 07:00;CYHM 110700Z 26004KT 15SM SCT078 SCT140 19/19 A2991 RMK AC4AC1 SLP124

CYHM;2009-08-11 08:00;CYHM 110800Z 32002KT 15SM SCT078 SCT150 BKN240 19/18 A2990 RMK AC3AC1CI1 SLP121

CYHM;2009-08-11 09:00;CYHM 110900Z 29007KT 15SM -SHRA OVC060 19/19 A2991 RMK SC8 SLP127

CYHM;2009-08-11 10:00;CYHM 111000Z 00000KT 15SM -SHRA BKN063 BKN120 19/18 A2991 RMK SC6AC1 SLP126

CYHM;2009-08-11 10:38;CYHM 111038Z 00000KT 15SM FEW060 BKN070 BKN120 RMK SC2AC3AC2 RERA

CYHM;2009-08-11 11:00;CYHM 111100Z 00000KT 15SM FEW055 FEW080 SCT140 19/18 A2992 RMK SC1AC2AC1 SLP128

CYHM;2009-08-11 12:00;CYHM 111200Z 00000KT 15SM SCT050 BKN058 BKN080 BKN140 20/19 A2993 RMK SC3SC2AC1AC1 SLP131

CYHM;2009-08-11 13:00;CYHM 111300Z 00000KT 15SM FEW048 SCT120 BKN230 22/19 A2994 RMK SC2AC2CI2 SLP136

CYHM;2009-08-11 14:00;CYHM 111400Z CCA 03004KT 15SM FEW025 SCT042 BKN110 BKN220 23/17 A2994 RMK CU1SC3AC1CI1 TR TCU SW SLP136

CYHM;2009-08-11 15:00;CYHM 111500Z 08002KT 15SM FEW025 FEW042 FEW120 BKN210 25/17 A2994 RMK CU1SC1AC1CI2 CU TR SLP136

CYHM;2009-08-11 16:00;CYHM 111600Z 00000KT 15SM FEW025 BKN038 BKN130 BKN220 25/17 A2995 RMK CU1SC4AC1CI1 SLP138

CYHM;2009-08-11 17:00;CYHM 111700Z 22004KT 15SM FEW030 SCT042 BKN100 BKN220 26/17 A2994 RMK CU2SC2AC2CI1 SLP134

CYHM;2009-08-11 18:00;CYHM 111800Z 19002KT 15SM BKN037 BKN120 26/18 A2992 RMK SC6AC1 TCU EMBDD WND L/V SLP128

CYHM;2009-08-11 19:00;CYHM 111900Z 04002KT 15SM BKN044TCU BKN120 BKN250 26/19 A2991 RMK TCU5AC2CI1 WND L/V SC ASOCTD CI TR SLP124

CYHM;2009-08-11 20:00;CYHM 112000Z 09008KT 15SM FEW038 SCT130 BKN250 25/19 A2990 RMK SC2AC2CI0 TCU ASOCTD SLP123

CYHM;2009-08-11 21:00;CYHM 112100Z 07009KT 15SM -SHRA BKN058 BKN120 BKN250 23/17 A2988 RMK SC5AC2CI1 TCU EMBDD CI TR SLP118

CYHM;2009-08-11 21:48;CYHM 112148Z 02008KT 5SM TSRA BKN032CB OVC120 RMK CB7AC1 VSBY N/NE 1SM

CYHM;2009-08-11 22:00;CYHM 112200Z 04009KT 9SM -TSRA SCT034CB BKN130 20/19 A2991 RMK CB4AC3 SLP128

CYHM;2009-08-11 22:38;CYHM 112238Z 10004KT 15SM TS FEW012 FEW032CB BKN065 RMK SF1CB1SC6 LTNG SF TR

CYHM;2009-08-11 23:00;CYHM 112300Z 10004KT 15SM FEW034TCU BKN075 BKN240 21/20 A2991 RETS RMK TCU1AC5CI1 SLP128

CYHM;2009-08-12 00:00;CYHM 120000Z 20002KT 15SM FEW036 SCT075 BKN250 20/20 A2993 RMK SC1AC2CI1 SF ASOCTD SLP135

CYHM;2009-08-12 01:00;CYHM 120100Z 00000KT 15SM FEW010 FEW080 SCT250 19/19 A2993 RMK SF1AC2CI1 SF TR SLP135

CYHM;2009-08-12 02:00;CYHM 120200Z 00000KT 15SM FEW080 FEW250 18/18 A2994 RMK AC1CI1 AC TR SLP139

CYHM;2009-08-12 03:00;CYHM 120300Z 30003KT 15SM FEW100 FEW250 18/18 A2995 RMK AC1CI1 AC TR CI TR SLP140

CYHM;2009-08-12 04:00;CYHM 120400Z 00000KT 15SM FEW100 FEW250 18/17 A2997 RMK AC1CI0 SLP145

CYHM;2009-08-12 05:00;CYHM 120500Z 30003KT 15SM FEW100 FEW250 17/17 A2997 RMK AC1CI1 AC TR CI TR SLP145

CYHM;2009-08-12 06:00;CYHM 120600Z 35003KT 15SM BKN250 18/17 A2997 RMK CI1 SLP147

CYHM;2009-08-12 07:00;CYHM 120700Z 00000KT 15SM FEW080 SCT250 17/16 A2997 RMK AC1CI0 AC TR SLP147

CYHM;2009-08-12 08:00;CYHM 120800Z 34002KT 15SM FEW070 SCT250 17/16 A2998 RMK AC1CI1 SLP150

CYHM;2009-08-12 09:00;CYHM 120900Z 34002KT 15SM FEW070 16/15 A2998 RMK AC1 AC TR SLP151

CYHM;2009-08-12 10:00;CYHM 121000Z 31004KT 15SM FEW070 FEW250 16/15 A2999 RMK AC1CI1 AC TR SLP153

CYHM;2009-08-12 11:00;CYHM 121100Z 00000KT 15SM FEW045 FEW080 16/16 A3001 RMK SC1AC1 SC TR SLP159

CYHM;2009-08-12 12:00;CYHM 121200Z 34004KT 15SM FEW025 FEW080 FEW210 18/17 A3002 RMK CU1AC1CI1 CU TR AC TR CI TR SLP165

CYHM;2009-08-12 13:00;CYHM 121300Z 01004KT 15SM FEW020 FEW080 19/18 A3004 RMK CU1AC2 SLP173

CYHM;2009-08-12 14:00;CYHM 121400Z 34006KT 15SM BKN008 BKN038 19/18 A3005 RMK SF5SC2 SLP176

CYHM;2009-08-12 15:00;CYHM 121500Z 34004KT 15SM BKN007 BKN040 20/19 A3007 RMK SF6SC2 SLP180

CYHM;2009-08-12 16:00;CYHM 121600Z 34004KT 15SM FEW012 BKN021 BKN058 BKN210 21/18 A3007 RMK SF2SC3SC1CI1 TR CU ASOCTD SLP183

CYHM;2009-08-12 17:00;CYHM 121700Z CCA 32004KT 15SM SCT020 BKN027 BKN100 BKN210 23/19 A3007 RMK CU3SC2AC1CI0 CI TR TCU ASOCTD SLP182

CYHM;2009-08-12 18:00;CYHM 121800Z 33002KT 15SM SCT020 BKN026 24/20 A3007 RMK CU3SC2 TCU ASOCTD SLP179

CYHM;2009-08-12 19:00;CYHM 121900Z 36003KT 15SM BKN028 BKN150 BKN250 25/19 A3005 RMK SC6AC1CI1 TCU EMBDD CU ASOCTD CI TR SLP175

CYHM;2009-08-12 20:00;CYHM 122000Z 07008KT 15SM FEW030 SCT210 25/19 A3004 RMK CU1CI1 TCU ASOCTD SLP172

CYHM;2009-08-12 21:00;CYHM 122100Z 04006KT 15SM FEW035TCU FEW070 FEW250 25/18 A3004 RMK TCU1AC1CI1 CU ASOCTD CI TR SLP172

CYHM;2009-08-12 22:00;CYHM 122200Z 06005KT 15SM FEW038TCU FEW060 25/18 A3004 RMK TCU1SC1 SLP171

CYHM;2009-08-12 23:00;CYHM 122300Z 07004KT 15SM FEW034TCU FEW065 FEW240 24/18 A3004 RMK TCU1SC1CI1 CI TR SLP171

CYHM;2009-08-13 00:00;CYHM 130000Z 06004KT 15SM FEW034TCU FEW070 23/18 A3004 RMK TCU1AC2 TCU TR SLP173

CYHM;2009-08-13 01:00;CYHM 130100Z 06002KT 15SM SCT110 21/17 A3005 RMK AC4 SLP176

CYHM;2009-08-13 02:00;CYHM 130200Z 01002KT 15SM FEW110 FEW250 20/17 A3007 RMK AC1CI1 CI TR SLP182

CYHM;2009-08-13 03:00;CYHM 130300Z 00000KT 15SM FEW230 19/16 A3007 RMK CI1 SLP183

CYHM;2009-08-13 04:00;CYHM 130400Z 00000KT 15SM FEW230 18/16 A3008 RMK CI1 SLP185

CYHM;2009-08-13 05:00;CYHM 130500Z 02006KT 15SM FEW230 18/16 A3008 RMK CI1 SLP184

CYHM;2009-08-13 06:00;CYHM 130600Z CCA 02005KT 15SM SKC 17/16 A3007 RMK SLP182

CYHM;2009-08-13 07:00;CYHM 130700Z 01005KT 15SM FEW220 17/15 A3007 RMK CI1 SLP183

CYHM;2009-08-13 08:00;CYHM 130800Z 01005KT 15SM SKC 17/15 A3009 RMK SLP188

CYHM;2009-08-13 09:00;CYHM 130900Z 02005KT 15SM FEW220 16/14 A3010 RMK CI1 SLP192

CYHM;2009-08-13 10:00;CYHM 131000Z 03007KT 15SM FEW220 17/14 A3011 RMK CI1 SLP194

CYHM;2009-08-13 11:00;CYHM 131100Z 04005KT 15SM SKC 17/14 A3012 RMK SLP198

CYHM;2009-08-13 12:00;CYHM 131200Z 05004KT 15SM SKC 20/15 A3012 RMK SLP199

CYHM;2009-08-13 13:00;CYHM 131300Z 07003KT 15SM SKC 22/17 A3014 RMK SLP205

CYHM;2009-08-13 14:00;CYHM 131400Z 04002KT 15SM SKC 23/16 A3015 RMK SLP209

CYHM;2009-08-13 15:00;CYHM 131500Z 00000KT 15SM SKC 24/17 A3016 RMK SLP212

CYHM;2009-08-13 16:00;CYHM 131600Z 00000KT 15SM FEW030 25/18 A3016 RMK CU1 SLP211

CYHM;2009-08-13 17:00;CYHM 131700Z 24004KT 15SM FEW032 26/18 A3015 RMK CU2 SLP208

CYHM;2009-08-13 18:00;CYHM 131800Z 13004KT 15SM SCT038 26/17 A3014 RMK CU3 SLP206

CYHM;2009-08-13 19:00;CYHM 131900Z 00000KT 15SM FEW044 27/17 A3014 RMK CU2 SLP206

CYHM;2009-08-13 20:00;CYHM 132000Z 11003KT 15SM FEW044 27/17 A3014 RMK CU2 SLP206

CYHM;2009-08-13 21:00;CYHM 132100Z 13004KT 070V160 15SM FEW042 27/17 A3014 RMK CU1 SLP204

CYHM;2009-08-13 22:00;CYHM 132200Z 00000KT 15SM FEW045 FEW080 27/16 A3013 RMK CU1AC1 BOTH LYRS TR SLP202

CYHM;2009-08-14 00:00;CYHM 140000Z 15003KT 15SM FEW080 25/17 A3013 RMK AC1 SLP200

CYHM;2009-08-14 01:00;CYHM 140100Z 22002KT 15SM FEW040 23/19 A3014 RMK CU1 SLP204

CYHM;2009-08-14 02:00;CYHM 140200Z 00000KT 15SM SKC 21/19 A3015 RMK SLP207

CYHM;2009-08-14 03:00;CYHM 140300Z 24002KT 15SM SKC 21/17 A3014 RMK SLP205

CYHM;2009-08-14 04:00;CYHM 140400Z 24002KT 15SM SKC 19/17 A3016 RMK SLP209

CYHM;2009-08-14 05:00;CYHM 140500Z 25003KT 15SM SKC 18/17 A3016 RMK SLP211

CYHM;2009-08-14 06:00;CYHM 140600Z 30002KT 15SM SKC 19/17 A3016 RMK SLP211

CYHM;2009-08-14 07:00;CYHM 140700Z 00000KT 15SM SKC 19/18 A3017 RMK SLP214

CYHM;2009-08-14 08:00;CYHM 140800Z 00000KT 15SM SKC 18/18 A3016 RMK SLP212

CYHM;2009-08-14 09:00;CYHM 140900Z 00000KT 15SM SKC 18/17 A3017 RMK SLP213

CYHM;2009-08-14 09:48;CYHM 140948Z 00000KT 1 1/4SM BR SKC RMK FG1

CYHM;2009-08-14 10:00;CYHM 141000Z 00000KT 8SM MIFG SKC 17/17 A3017 RMK SLP216

CYHM;2009-08-14 10:26;CYHM 141026Z 00000KT 2SM BR SKC RMK VIS S-SW 1/2-11/2SM

CYHM;2009-08-14 11:00;CYHM 141100Z 28003KT 7SM MIFG SKC 17/16 A3018 RMK SLP219

CYHM;2009-08-14 12:00;CYHM 141200Z 00000KT 10SM SKC 20/19 A3020 RMK SLP224

CYHM;2009-08-14 13:00;CYHM 141300Z 00000KT 15SM FEW220 23/20 A3021 RMK CI1 SLP228

CYHM;2009-08-14 14:00;CYHM 141400Z 21002KT 15SM SKC 24/18 A3021 RMK SLP228

CYHM;2009-08-14 15:00;CYHM 141500Z 26004KT 15SM FEW030 FEW220 25/18 A3021 RMK CU1CI1 CU TR CI TR SLP228

CYHM;2009-08-14 16:00;CYHM 141600Z 24004KT 15SM FEW032 26/18 A3021 RMK CU1 SLP229

CYHM;2009-08-14 17:00;CYHM 141700Z 19005KT 15SM FEW035 27/18 A3020 RMK CU2 SLP224

CYHM;2009-08-14 18:00;CYHM 141800Z 27002KT 15SM FEW042 27/17 A3018 RMK CU2 SLP219

CYHM;2009-08-14 19:00;CYHM 141900Z 19006KT 15SM FEW050 28/18 A3018 RMK CU2 TCU ASOCTD SLP217

CYHM;2009-08-14 20:00;CYHM 142000Z 23005KT 15SM FEW050 28/18 A3017 RMK CU2 TCU ASOCTD SLP213

CYHM;2009-08-14 21:00;CYHM 142100Z 18004KT 15SM FEW054 27/19 A3016 RMK CU2 TCU ASOCTD SLP211

CYHM;2009-08-14 22:00;CYHM 142200Z 20005KT 15SM FEW047 27/19 A3016 RMK CU2 TCU ASOCTD SLP210

CYHM;2009-08-14 23:00;CYHM 142300Z 20005KT 15SM FEW045 FEW180 26/20 A3015 RMK CU1AC1 TR AC SLP209

CYHM;2009-08-15 00:00;CYHM 150000Z 19004KT 15SM FEW040 25/19 A3015 RMK CU1 SLP208

CYHM;2009-08-15 01:00;CYHM 150100Z 19005KT 15SM SKC 22/19 A3015 RMK SLP207

CYHM;2009-08-15 02:00;CYHM 150200Z 19004KT 15SM SKC 21/19 A3014 RMK SLP206

CYHM;2009-08-15 03:00;CYHM 150300Z 19003KT 15SM FEW230 20/19 A3014 RMK CI1 SLP205

CYHM;2009-08-15 04:00;CYHM 150400Z 23002KT 15SM SKC 20/19 A3014 RMK SLP203

CYHM;2009-08-15 05:00;CYHM 150500Z 00000KT 15SM MIFG SKC 20/19 A3014 RMK SLP203

CYHM;2009-08-15 06:00;CYHM 150600Z 00000KT 15SM SKC 20/19 A3014 RMK SLP203

CYHM;2009-08-15 07:00;CYHM 150700Z 00000KT 12SM MIFG FEW240 20/19 A3014 RMK CI1 SLP204

CYHM;2009-08-15 08:00;CYHM 150800Z 00000KT 2SM BR SKC 19/19 A3013 RMK FG1 VIS NE 7 SLP202

CYHM;2009-08-15 08:05;CYHM 150805Z 00000KT 1SM BR SKC RMK FG2 VIS VRB 3/4 - 11/4

CYHM;2009-08-15 08:44;CYHM 150844Z 29003KT 8SM MIFG SKC

CYHM;2009-08-15 09:00;CYHM 150900Z 00000KT 10SM MIFG SKC 18/18 A3013 RMK SLP200

CYHM;2009-08-15 10:00;CYHM 151000Z 00000KT 15SM MIFG FEW230 18/17 A3012 RMK CI1 SLP198

CYHM;2009-08-15 11:00;CYHM 151100Z 00000KT 12SM MIFG FEW060 18/18 A3014 RMK SC1 SLP203

CYHM;2009-08-15 12:00;CYHM 151200Z 00000KT 12SM FEW080 20/19 A3016 RMK AC1 SLP210

CYHM;2009-08-15 13:00;CYHM 151300Z 00000KT 12SM SKC 23/20 A3017 RMK SLP214

CYHM;2009-08-15 14:00;CYHM 151400Z 26003KT 15SM SKC 25/20 A3017 RMK SLP215

CYHM;2009-08-15 15:00;CYHM 151500Z 23005KT 15SM SKC 26/19 A3017 RMK SLP214

CYHM;2009-08-15 16:00;CYHM 151600Z 32003KT 15SM FEW035 27/18 A3017 RMK CU1 SLP212

CYHM;2009-08-15 17:00;CYHM 151700Z 26004KT 200V320 15SM FEW038 28/18 A3014 RMK CU1 SLP205

CYHM;2009-08-15 18:00;CYHM 151800Z 19006KT 100V290 15SM FEW048 29/17 A3014 RMK CU1 SLP203

CYHM;2009-08-15 19:00;CYHM 151900Z 24005KT 200V290 12SM FEW048 29/18 A3013 RMK CU2 SLP199

CYHM;2009-08-15 20:00;CYHM 152000Z 25005KT 220V290 12SM FEW048 29/18 A3011 RMK CU2 SLP195

CYHM;2009-08-15 21:00;CYHM 152100Z 22005KT 12SM FEW045 28/19 A3011 RMK CU2 SLP195

CYHM;2009-08-15 22:00;CYHM 152200Z 18005KT 12SM FEW045 28/20 A3012 RMK CU2 SLP196

CYHM;2009-08-15 23:00;CYHM 152300Z 19005KT 12SM FEW045 27/20 A3012 RMK CU1 CU TR SLP197

CYHM;2009-08-16 00:00;CYHM 160000Z 19005KT 12SM FEW045 FEW070 25/19 A3012 RMK CU1AC1 CU TR AC TR SLP197

CYHM;2009-08-16 01:00;CYHM 160100Z 20004KT 11SM FEW120 23/19 A3013 RMK AC1 AC TR SLP200

CYHM;2009-08-16 02:00;CYHM 160200Z 22002KT 12SM SKC 22/18 A3014 RMK SLP205

CYHM;2009-08-16 03:00;CYHM 160300Z 00000KT 12SM SKC 21/18 A3014 RMK SLP204

CYHM;2009-08-16 04:00;CYHM 160400Z 00000KT 10SM SKC 20/18 A3014 RMK SLP204

CYHM;2009-08-16 05:00;CYHM 160500Z 00000KT 7SM SKC 20/18 A3015 RMK FU NE SLP206

CYHM;2009-08-16 06:00;CYHM 160600Z 29003KT 7SM FEW058 20/19 A3014 RMK SC1 FU NE SLP204

CYHM;2009-08-16 07:00;CYHM 160700Z 26002KT 7SM SKC 19/18 A3013 RMK FU NE SLP201

CYHM;2009-08-16 08:00;CYHM 160800Z 00000KT 8SM BKN054 19/18 A3013 RMK SC5 SLP202

CYHM;2009-08-16 09:00;CYHM 160900Z 00000KT 10SM SKC 19/18 A3014 RMK FU NE SLP203

CYHM;2009-08-16 10:00;CYHM 161000Z 27005KT 10SM FEW040 19/17 A3016 RMK SC1 SLP209

CYHM;2009-08-16 11:00;CYHM 161100Z 30002KT 9SM FEW040 17/17 A3016 RMK SC1 SLP210

CYHM;2009-08-16 12:00;CYHM 161200Z 00000KT 7SM SKC 20/20 A3017 RMK SLP216

CYHM;2009-08-16 13:00;CYHM 161300Z 22002KT 8SM SKC 23/21 A3017 RMK SLP215

CYHM;2009-08-16 14:00;CYHM 161400Z 21005KT 9SM SKC 25/22 A3017 RMK SLP215

CYHM;2009-08-16 15:00;CYHM 161500Z 21005KT 9SM SKC 26/22 A3017 RMK SLP214

CYHM;2009-08-16 16:00;CYHM 161600Z 22007KT 130V260 9SM BKN068 28/22 A3017 RMK AC6 SLP214

CYHM;2009-08-16 17:00;CYHM 161700Z 19008KT 9SM FEW035 SCT070 28/20 A3016 RMK CU2AC1 SLP209

CYHM;2009-08-16 18:00;CYHM 161800Z 21009KT 9SM FEW044 SCT071 29/21 A3015 RMK CU2AC1 SLP206

CYHM;2009-08-16 19:00;CYHM 161900Z 20010KT 9SM SCT040 SCT062 28/21 A3013 RMK CU3SC1 HZ SLP201

CYHM;2009-08-16 20:00;CYHM 162000Z 19009KT 8SM SCT042 BKN064 29/22 A3013 RMK CU4SC1 HZ SLP199

CYHM;2009-08-16 21:00;CYHM 162100Z 20010KT 9SM FEW042 29/22 A3011 RMK CU2 HZ SLP193

CYHM;2009-08-16 22:00;CYHM 162200Z 20009KT 9SM SKC 28/21 A3010 RMK HZ SLP190

CYHM;2009-08-16 23:00;CYHM 162300Z 20007KT 9SM SKC 27/20 A3010 RMK HZ SLP191

CYHM;2009-08-17 00:00;CYHM 170000Z 19005KT 8SM SKC 26/20 A3010 RMK HZ SLP192

CYHM;2009-08-17 01:00;CYHM 170100Z 16005KT 9SM SKC 24/20 A3011 RMK HZ SLP194

CYHM;2009-08-17 02:00;CYHM 170200Z 17005KT 9SM SKC 23/21 A3012 RMK HZ SLP198

CYHM;2009-08-17 03:00;CYHM 170300Z 17006KT 10SM SKC 23/21 A3012 RMK SLP195

CYHM;2009-08-17 04:00;CYHM 170400Z 17007KT 7SM SKC 23/21 A3011 RMK SLP194

CYHM;2009-08-17 05:00;CYHM 170500Z 17007KT 8SM SKC 23/21 A3011 RMK SLP194

CYHM;2009-08-17 06:00;CYHM 170600Z 19007KT 6SM BR FEW110 23/21 A3011 RMK AC1 SLP192

CYHM;2009-08-17 07:00;CYHM 170700Z 19006KT 5SM BR SKC 23/21 A3010 RMK SLP191

CYHM;2009-08-17 08:00;CYHM 170800Z 20006KT 7SM SKC 22/21 A3010 RMK SLP189

CYHM;2009-08-17 09:00;CYHM 170900Z 21007KT 7SM SKC 22/21 A3010 RMK SLP189

CYHM;2009-08-17 10:00;CYHM 171000Z 22006KT 5SM BR FEW100 FEW230 21/21 A3010 RMK AC1CI1 SLP191

CYHM;2009-08-17 11:00;CYHM 171100Z 24004KT 6SM BR SKC 22/21 A3011 RMK SLP193

CYHM;2009-08-17 12:00;CYHM 171200Z 22006KT 7SM SKC 23/22 A3013 RMK SLP198

CYHM;2009-08-17 13:00;CYHM 171300Z 21008KT 10SM SKC 25/23 A3013 RMK SLP198

CYHM;2009-08-17 14:00;CYHM 171400Z 23010KT 15SM SKC 27/23 A3013 RMK SLP199

CYHM;2009-08-17 15:00;CYHM 171500Z 23008KT 15SM FEW025 28/24 A3014 RMK CU1 CU TR SLP203

CYHM;2009-08-17 16:00;CYHM 171600Z 24013KT 15SM FEW030 29/23 A3014 RMK CU2 SLP202

CYHM;2009-08-17 17:00;CYHM 171700Z 22010KT 15SM FEW032 SCT046 30/23 A3013 RMK CU2SC1 TCU ASOCTD SLP198

CYHM;2009-08-17 18:00;CYHM 171800Z 23014KT 15SM FEW032 FEW220 29/23 A3011 RMK CU2CI1 TCU ASOCTD CI TR SLP191

CYHM;2009-08-17 19:00;CYHM 171900Z 23015KT 12SM SCT040 SCT150 30/21 A3009 RMK CU3AC1 SLP186

CYHM;2009-08-17 20:00;CYHM 172000Z 23015KT 12SM SCT042 SCT150 30/21 A3008 RMK CU3AC1 TCU ASOCTD N AC TR SLP181

CYHM;2009-08-17 21:00;CYHM 172100Z 23015KT 12SM FEW042 SCT220 30/21 A3007 RMK CU2CI1 SLP177

CYHM;2009-08-17 22:00;CYHM 172200Z 23011KT 12SM FEW040 SCT220 29/21 A3005 RMK CU1CI2 CU TR SLP173

CYHM;2009-08-17 23:00;CYHM 172300Z 22007KT 12SM FEW040 SCT230 28/21 A3004 RMK CU1CI2 CU TR SLP167

CYHM;2009-08-18 00:00;CYHM 180000Z 22006KT 12SM FEW045 FEW100 FEW230 25/21 A3003 RMK CU1AC1CI2 CU TR AC TR SLP166

CYHM;2009-08-18 01:00;CYHM 180100Z 20005KT 15SM FEW045 FEW100 SCT230 24/20 A3004 RMK CU1AC2CI2 SLP167

CYHM;2009-08-18 02:00;CYHM 180200Z 19007KT 15SM FEW060 FEW250 24/21 A3004 RMK SC1CI1 SLP167

CYHM;2009-08-18 03:00;CYHM 180300Z 21006KT 15SM FEW110 BKN250 23/21 A3004 RMK AC1CI3 SLP169

CYHM;2009-08-18 04:00;CYHM 180400Z 20006KT 10SM FEW110 BKN250 23/22 A3003 RMK AC1CI3 SLP165

CYHM;2009-08-18 05:00;CYHM 180500Z 21005KT 8SM FEW110 BKN160 22/21 A3002 RMK AC1AC5 SLP162

CYHM;2009-08-18 06:00;CYHM 180600Z 23006KT 8SM BKN060 OVC090 23/21 A3002 RMK SC6AC2 SLP162

CYHM;2009-08-18 07:00;CYHM 180700Z 23007KT 10SM FEW040 OVC064 23/21 A3001 RMK SC2SC6 SLP158

CYHM;2009-08-18 08:00;CYHM 180800Z 22007KT 10SM BKN042 BKN100 22/21 A3000 RMK SC6AC2 SLP156

CYHM;2009-08-18 08:11;CYHM 180811Z 23008KT 8SM TS FEW020TCU BKN045 OVC100 RMK TCU2SC5AC2 CB ASOCTD OCNL LTNG SW

CYHM;2009-08-18 08:16;CYHM 180816Z 25012G17KT 8SM -TSRA FEW015TCU BKN035CB OVC100 RMK TCU2CB4AC2 OCNL LTNG

CYHM;2009-08-18 09:00;CYHM 180900Z 21005KT 8SM -SHRA FEW060 OVC160 22/21 A2998 RETS RMK SC2AC6 SLP148

CYHM;2009-08-18 10:00;CYHM 181000Z 22008KT 8SM BKN039 BKN130 22/20 A2998 RMK SC5AC2 SLP147

CYHM;2009-08-18 11:00;CYHM 181100Z 24010KT 15SM FEW025 FEW038 BKN150 BKN180 22/20 A2998 RMK CU1SC2AC4AC1 CU TR TCU ASOCTD S SLP149

CYHM;2009-08-18 12:00;CYHM 181200Z 24006KT 15SM FEW040 BKN150 BKN180 23/21 A2999 RMK SC2AC3AC1 SLP153

CYHM;2009-08-18 13:00;CYHM 181300Z 23010KT 15SM BKN011 BKN019 BKN150 23/22 A2998 RMK SC5SC2AC1 CU ASOCTD SLP150

CYHM;2009-08-18 14:00;CYHM 181400Z 24014KT 15SM SCT018 BKN045 BKN140 25/22 A2998 RMK CU3SC2AC1 SLP148

CYHM;2009-08-18 15:00;CYHM 181500Z 25014G20KT 15SM FEW025 BKN037 OVC055 24/21 A2997 RMK CU2SC5SC2 SLP147

CYHM;2009-08-18 16:00;CYHM 181600Z 24010KT 15SM FEW022 BKN026 BKN050 OVC140 25/21 A2996 RMK CU2SC3SC2AC1 SLP142

CYHM;2009-08-18 17:00;CYHM 181700Z 23012KT 15SM FEW022 BKN036 BKN060 BKN210 26/21 A2994 RMK CU2SC3SC1CI1 SLP136

CYHM;2009-08-18 18:00;CYHM 181800Z 23014KT 15SM FEW032 SCT050 BKN097 BKN210 27/22 A2994 RMK CU2SC1AC2CI1 SLP133

CYHM;2009-08-18 19:00;CYHM 181900Z 23014G20KT 15SM SCT030 BKN038 BKN070 BKN210 26/21 A2992 RMK CU4SC2AC1CI1 TCU ASOCTD SLP127

CYHM;2009-08-18 20:00;CYHM 182000Z 24011G17KT 15SM SCT030 BKN040 BKN100 BKN210 27/22 A2991 RMK CU4SC2AC1CI1 TCU ASOCTD SLP126

CYHM;2009-08-18 21:00;CYHM 182100Z 25012KT 15SM SCT025 BKN055 BKN210 26/21 A2991 RMK CU4SC2CI1 TCU ASOCTD SLP124

CYHM;2009-08-18 22:00;CYHM 182200Z 29004KT 15SM SCT025 BKN040 BKN090 26/21 A2990 RMK CU3SC2AC1 TCU ASOCTD SLP122

CYHM;2009-08-18 22:05;CYHM 182205Z 29005KT 15SM -SHRA SCT025 BKN040 BKN075 RMK CU3SC2AC1 TCU ASOCTD

CYHM;2009-08-18 22:25;CYHM 182225Z CCB 29005KT 2 1/2SM -SHRA SCT030 BKN035 BKN083 RMK CU3SC2AC2 TCU ASOCTD DRK E VIS 6 W

CYHM;2009-08-18 23:00;CYHM 182300Z 25005KT 15SM FEW035 SCT080 SCT250 26/22 A2990 RMK CU2AC1CI1 TCU ASOCTD CI TR SLP122

CYHM;2009-08-19 00:00;CYHM 190000Z 22005KT 12SM FEW030 SCT090 SCT230 24/22 A2991 RMK CU2AC2CI1 TCU ASOCTD SLP124

CYHM;2009-08-19 01:00;CYHM 190100Z 21005KT 15SM FEW030 FEW250 22/21 A2992 RMK CF1CI1 CF TR SLP128

CYHM;2009-08-19 02:00;CYHM 190200Z 21005KT 15SM FEW030 FEW250 22/21 A2993 RMK SC1CI1 SLP131

CYHM;2009-08-19 03:00;CYHM 190300Z 23005KT 15SM FEW045 SCT075 22/21 A2993 RMK SC2AC2 SLP133

CYHM;2009-08-19 04:00;CYHM 190400Z 28004KT 15SM FEW030 SCT040 BKN070 22/21 A2994 RMK SC2SC2AC1 SLP134

CYHM;2009-08-19 05:00;CYHM 190500Z 25007KT 15SM FEW055 SCT062 BKN070 22/21 A2994 RMK SC2SC2AC1 SLP134

CYHM;2009-08-19 06:00;CYHM 190600Z 28004KT 15SM FEW060 21/20 A2995 RMK SC2 SLP138

CYHM;2009-08-19 07:00;CYHM 190700Z 28004KT 15SM FEW050 FEW220 20/18 A2995 RMK SC2CI1 SLP138

CYHM;2009-08-19 08:00;CYHM 190800Z 29004KT 15SM FEW050 SCT210 19/17 A2996 RMK SC1CI2 SLP141

CYHM;2009-08-19 09:00;CYHM 190900Z 32002KT 15SM FEW040 SCT190 18/17 A2996 RMK SC1AC3 SLP143

CYHM;2009-08-19 10:00;CYHM 191000Z 35002KT 15SM FEW030 FEW090 SCT180 BKN220 18/16 A2996 RMK SC1AC2AC2CI2 SC TR SLP143

CYHM;2009-08-19 11:00;CYHM 191100Z 01002KT 15SM SCT100 BKN170 BKN220 18/17 A2998 RMK AC3AC3CI1 SLP151

CYHM;2009-08-19 12:00;CYHM 191200Z 00000KT 15SM FEW140 BKN170 BKN220 18/17 A2999 RMK AC2AC4CI1 SLP154

CYHM;2009-08-19 13:00;CYHM 191300Z 00000KT 15SM FEW140 OVC170 19/18 A3000 RMK AC2AC6 SLP158

CYHM;2009-08-19 14:00;CYHM 191400Z 00000KT 15SM FEW120 SCT160 BKN220 20/15 A3001 RMK AC1AC2CI1 SLP159

CYHM;2009-08-19 15:00;CYHM 191500Z 24003KT 15SM FEW028 FEW160 FEW220 22/15 A3002 RMK CU1AC1CI0 CU TR CI TR SLP163

CYHM;2009-08-19 16:00;CYHM 191600Z 20004KT 15SM FEW030 FEW160 FEW220 23/15 A3001 RMK CU1AC1CI1 CU TR AC TR CI TR SLP160

CYHM;2009-08-19 17:00;CYHM 191700Z 24010KT 15SM FEW030 FEW220 24/15 A3002 RMK CU1CI1 CU TR CI TR SLP162

CYHM;2009-08-19 18:00;CYHM 191800Z 00000KT 15SM FEW032 FEW220 25/16 A3001 RMK CU1CI0 SLP158

CYHM;2009-08-19 19:00;CYHM 191900Z 20003KT 15SM FEW040 FEW180 SCT250 25/15 A2999 RMK CU1AC1CI1 WND L/V SLP152

CYHM;2009-08-19 20:00;CYHM 192000Z 09002KT 15SM FEW040 FEW180 FEW250 26/15 A2997 RMK CU1AC1CI1 AC TR WND L/V SLP145

CYHM;2009-08-19 21:00;CYHM 192100Z 28002KT 15SM FEW040 FEW250 26/14 A2995 RMK CU1CI1 SLP141

CYHM;2009-08-19 22:00;CYHM 192200Z 24002KT 15SM FEW040 FEW250 26/16 A2994 RMK CU1CI1 SLP136

CYHM;2009-08-19 23:00;CYHM 192300Z 19005KT 15SM FEW040 SCT250 24/17 A2992 RMK SC1CI1 SLP131

CYHM;2009-08-20 00:00;CYHM 200000Z 18006KT 15SM FEW040 FEW170 SCT250 22/17 A2995 RMK CU1AC1CI2 CU TR AC TR SLP140

CYHM;2009-08-20 01:00;CYHM 200100Z 15006KT 15SM FEW180 FEW250 20/17 A2994 RMK AC1CI1 AC TR SLP137

CYHM;2009-08-20 02:00;CYHM 200200Z 12004KT 15SM FEW250 19/17 A2993 RMK CI0 SLP135

CYHM;2009-08-20 03:00;CYHM 200300Z 12002KT 15SM SCT250 19/17 A2993 RMK CI2 SLP133

CYHM;2009-08-20 04:00;CYHM 200400Z 12005KT 15SM BKN240 19/17 A2992 RMK CI5 SLP129

CYHM;2009-08-20 05:00;CYHM 200500Z 14007KT 15SM FEW053 BKN250 20/18 A2990 RMK SC2CI5 SLP123

CYHM;2009-08-20 06:00;CYHM 200600Z 11003KT 15SM BKN047 OVC140 20/18 A2987 RMK SC5AC3 SLP112

CYHM;2009-08-20 07:00;CYHM 200700Z 15008KT 15SM FEW042 BKN056 OVC120 20/18 A2985 RMK SC2SC5AC2 SLP107

CYHM;2009-08-20 08:00;CYHM 200800Z 15007KT 15SM FEW027 SCT043 OVC220 20/19 A2983 RMK SC2SC2CI4 SLP099

CYHM;2009-08-20 09:00;CYHM 200900Z 16007KT 8SM BKN018 OVC200 21/20 A2981 RMK SC6CI2 SLP092

CYHM;2009-08-20 10:00;CYHM 201000Z 19002KT 10SM FEW030 SCT120 BKN170 20/20 A2981 RMK SC2AC2AC3 SLP093

CYHM;2009-08-20 11:00;CYHM 201100Z 20006KT 15SM FEW018 SCT055 BKN160 21/21 A2983 RMK CU2SC2AC2 TCU ASOCTD SLP098

CYHM;2009-08-20 12:00;CYHM 201200Z 19006KT 10SM FEW060 FEW078 BKN140 BKN210 22/21 A2982 RMK SC1AC2AC2CI1 CONTRAIL SLP096

CYHM;2009-08-20 13:00;CYHM 201300Z 20014KT 15SM SCT010 BKN016 BKN130 23/21 A2983 RMK CF3SC2AC2 SLP098

CYHM;2009-08-20 14:00;CYHM 201400Z 21014KT 15SM SCT015 BKN026 BKN100 24/22 A2984 RMK CU3SC3AC1 SLP100

CYHM;2009-08-20 15:00;CYHM 201500Z 21014KT 15SM SCT019 BKN027 BKN100 25/21 A2983 RMK CU3SC3AC1 SLP099

CYHM;2009-08-20 16:00;CYHM 201600Z 19015KT 15SM FEW019 BKN023 BKN080 25/22 A2982 RMK CU2SC2AC1 SLP097

CYHM;2009-08-20 17:00;CYHM 201700Z 19014G19KT 15SM FEW018 BKN025 25/22 A2981 RMK CU2SC5 SLP091

CYHM;2009-08-20 18:00;CYHM 201800Z 20012G18KT 15SM SCT022 BKN036 26/22 A2978 RMK CU3SC3 TCU ASOCTD SLP082

CYHM;2009-08-20 19:00;CYHM 201900Z 20014KT 15SM BKN028 BKN044 27/22 A2975 RMK CU6SC1 SLP073

CYHM;2009-08-20 20:00;CYHM 202000Z 21018G24KT 15SM BKN031 BKN250 28/23 A2972 RMK CU6CI0 SLP062

CYHM;2009-08-20 21:00;CYHM 202100Z 18015G26KT 140V240 15SM BKN031 28/22 A2968 RMK CU5 CB ASOCTD TOP N SLP047

CYHM;2009-08-20 22:00;CYHM 202200Z 19021KT 15SM SCT032 SCT045 BKN230 28/22 A2965 RMK CU3SC1CI2 CB ASOCTD TOPS N SLP035

CYHM;2009-08-20 22:24;CYHM 202224Z 20018KT 15SM TS SCT032CB BKN089 BKN230 RMK CB3AC2CI2

CYHM;2009-08-20 22:31;CYHM 202231Z 19018KT 15SM -TSRA SCT032CB BKN089 OVC230 RMK CB4AC2CI2

CYHM;2009-08-20 22:49;CYHM 202249Z 28020KT 5SM -TSRA BR BKN008 OVC042 RMK CF6SC2 CB EMBDD

CYHM;2009-08-20 22:51;CYHM 202251Z CCA 28020KT 3/4SM +TSRA BR OVC008 RMK RA2CF6 CB EMBDD

CYHM;2009-08-20 23:00;CYHM 202300Z 28018G32KT 2SM TSRA BR BKN008 OVC020CB 21/21 A2970 RERA RMK FG1CF6CB2 SLP052

CYHM;2009-08-20 23:07;CYHM 202307Z 23017KT 200V320 5SM -TSRA BR SCT008 BKN020CB OVC042 RERA RMK CF3CB2SC2

CYHM;2009-08-20 23:42;CYHM 202342Z 27003KT 15SM -TSRA BKN008 BKN150 RERA RMK CF6AC1 CB EMBDD PCPN VRY LGT

CYHM;2009-08-20 23:50;CYHM 202350Z 23003KT 15SM -SHRA BKN008 BKN019 BKN140 RETSRA RMK CF6SC1AC1

CYHM;2009-08-21 00:00;CYHM 210000Z 21004KT 15SM -SHRA BKN009 BKN018 22/22 A2972 RETSRA RMK CF6SC1 /R15 SLP062

CYHM;2009-08-21 00:08;CYHM 210008Z 22009KT 15SM -SHRA FEW009 SCT018 BKN120 RMK CF2SC2AC3

CYHM;2009-08-21 01:00;CYHM 210100Z 22009KT 15SM FEW010 BKN110 22/22 A2972 RMK CF1AC7 SLP062

CYHM;2009-08-21 02:00;CYHM 210200Z 22013KT 15SM SCT010 BKN018 22/21 A2975 RMK CF4SC3 SLP070

CYHM;2009-08-21 02:14;CYHM 210214Z 21011KT 15SM BKN009 OVC018 RMK CF5SC3

CYHM;2009-08-21 03:00;CYHM 210300Z 21012KT 15SM FEW012 SCT088 22/21 A2976 RMK CF2AC2 SLP074

CYHM;2009-08-21 04:00;CYHM 210400Z 21006KT 15SM BKN016 21/21 A2977 RMK SC6 SLP076

CYHM;2009-08-21 05:00;CYHM 210500Z 22007KT 15SM FEW013 FEW250 21/21 A2977 RMK SC1CI0 SLP077

CYHM;2009-08-21 06:00;CYHM 210600Z 21007KT 15SM SCT190 21/21 A2976 RMK AC2 SLP074

CYHM;2009-08-21 07:00;CYHM 210700Z 20007KT 15SM FEW047 OVC170 21/21 A2975 RMK SC1AC7 SLP071

CYHM;2009-08-21 08:00;CYHM 210800Z 22008KT 15SM FEW045 OVC130 22/21 A2975 RMK SC2AC6 SLP072

CYHM;2009-08-21 09:00;CYHM 210900Z 22006KT 15SM FEW048 BKN160 19/18 A2975 RMK SC2AC6 SLP072

CYHM;2009-08-21 10:00;CYHM 211000Z 23006KT 15SM BKN190 19/18 A2975 RMK AC7 SLP070

CYHM;2009-08-21 11:00;CYHM 211100Z 22007KT 15SM FEW020 SCT040 BKN160 19/18 A2973 RMK CU2SC2AC3 SLP063

CYHM;2009-08-21 12:00;CYHM 211200Z 22008KT 15SM SCT025 BKN047 BKN070 20/18 A2978 RMK CU3SC2AC2 SLP081

CYHM;2009-08-21 13:00;CYHM 211300Z 22006KT 15SM FEW025 SCT045 BKN160 20/18 A2977 RMK CU2SC2AC3 SLP080

CYHM;2009-08-21 14:00;CYHM 211400Z 22010KT 15SM FEW025 FEW075 22/20 A2978 RMK CU1AC2 SLP083

CYHM;2009-08-21 15:00;CYHM 211500Z 22016G30KT 15SM FEW032 BKN055 BKN100 23/18 A2978 RMK CU2SC2AC1 SLP083

CYHM;2009-08-21 15:17;CYHM 211517Z 23014KT 10SM -SHRA FEW037 BKN044 RMK CU2SC5

CYHM;2009-08-21 15:27;CYHM 211527Z 24010KT 6SM -SHRA FEW008 SCT023 BKN040 BKN075 RMK CU2SC2SC1AC1 TCU ASOCTD

CYHM;2009-08-21 15:38;CYHM 211538Z 20008KT 15SM SCT025 SCT042 BKN100 RMK CU3SC1AC1 RERA TCU ASOCTD

CYHM;2009-08-21 16:00;CYHM 211600Z 23010KT 15SM FEW032 SCT045 BKN100 23/19 A2978 RMK CU2SC2AC1 TCU ASOCTD SLP083

CYHM;2009-08-21 17:00;CYHM 211700Z 23016G22KT 15SM FEW032 SCT045 BKN075 25/18 A2977 RMK CU2SC2AC1 TCU ASOCTD SLP077

CYHM;2009-08-21 18:00;CYHM 211800Z 22015G20KT 15SM SCT036 BKN041 25/18 A2976 RMK CU3SC2 TCU ASOCTD S-SE SLP075

CYHM;2009-08-21 19:00;CYHM 211900Z 24017G24KT 15SM FEW040 FEW070 25/17 A2975 RMK CU2AC1 TCU ASOCTD SLP072

CYHM;2009-08-21 20:00;CYHM 212000Z 24017G23KT 15SM FEW042 FEW055 24/16 A2975 RMK CU2SC1 SLP071

CYHM;2009-08-21 21:00;CYHM 212100Z 24020G27KT 15SM FEW042 FEW240 25/16 A2975 RMK CU1CI1 SLP071

CYHM;2009-08-21 22:00;CYHM 212200Z 25016KT 15SM FEW042 FEW240 24/16 A2976 RMK CU1CI1 SLP076

CYHM;2009-08-21 23:00;CYHM 212300Z 23013KT 15SM FEW035 FEW220 23/15 A2977 RMK CU1CI1 SLP079

CYHM;2009-08-22 00:00;CYHM 220000Z 22008KT 15SM FEW035TCU FEW220 21/16 A2978 RMK TCU1CI1 TR CI SLP084

CYHM;2009-08-22 01:00;CYHM 220100Z 20006KT 15SM FEW030 FEW230 19/16 A2980 RMK SC1CI1 TR SC SLP089

CYHM;2009-08-22 02:00;CYHM 220200Z 20006KT 15SM SKC 19/16 A2982 RMK SLP095

CYHM;2009-08-22 03:00;CYHM 220300Z 22006KT 15SM FEW120 18/16 A2982 RMK AC1 SLP096

CYHM;2009-08-22 04:00;CYHM 220400Z 19005KT 15SM FEW100 18/16 A2982 RMK AC1 SLP096

CYHM;2009-08-22 05:00;CYHM 220500Z 21005KT 15SM FEW050 BKN130 18/17 A2981 RMK SC2AC5 TCU ASOCTD SLP094

CYHM;2009-08-22 06:00;CYHM 220600Z 25012KT 15SM -SHRA SCT040 OVC070 19/17 A2982 RMK SC3AC5 TCU ASOCTD SLP097

CYHM;2009-08-22 07:00;CYHM 220700Z 22003KT 15SM FEW060 BKN100 18/17 A2982 RMK SC2AC2 TCU ASOCTD SLP095

CYHM;2009-08-22 08:00;CYHM 220800Z 00000KT 15SM FEW100 17/17 A2981 RMK AC1 SLP093

CYHM;2009-08-22 09:00;CYHM 220900Z 17004KT 15SM MIFG FEW100 17/17 A2981 RMK AC2 SLP094

CYHM;2009-08-22 10:00;CYHM 221000Z 00000KT 15SM MIFG FEW100 SCT230 16/16 A2983 RMK AC2CI2 SLP098

CYHM;2009-08-22 10:23;CYHM 221023Z 00000KT 1SM BR FEW100 SCT250 RMK FG1AC1CI1

CYHM;2009-08-22 10:43;CYHM 221043Z 00000KT 3/8SM FG FEW100 SCT250 RMK FG2AC1CI1

CYHM;2009-08-22 11:00;CYHM 221100Z 00000KT 1/2SM FG FEW100 SCT250 15/15 A2984 RMK FG1AC1CI1 SLP101

CYHM;2009-08-22 11:17;CYHM 221117Z 11002KT 1SM BR MIFG FEW020 FEW100 SCT250 RMK FG1SC1AC1CI1

CYHM;2009-08-22 11:27;CYHM 221127Z 00000KT 10SM FEW020 BKN092 BKN250 RMK SC1AC4CI0

CYHM;2009-08-22 12:00;CYHM 221200Z 00000KT 15SM FEW020 BKN096 18/18 A2984 RMK SC1AC6 SLP104

CYHM;2009-08-22 12:51;CYHM 221251Z 07002KT 15SM -SHRA FEW020 BKN094 RMK SC1AC6 PCPN VRY LGT

CYHM;2009-08-22 13:00;CYHM 221300Z 07002KT 15SM -SHRA FEW020 BKN093 19/18 A2985 RMK SC1AC6 SLP106

CYHM;2009-08-22 13:49;CYHM 221349Z 04004KT 15SM FEW020 FEW051 BKN100 RMK CU1SC1AC6

CYHM;2009-08-22 14:00;CYHM 221400Z 06004KT 15SM FEW020 FEW051 BKN100 20/19 A2985 RMK CU1SC1AC6 SLP108

CYHM;2009-08-22 15:00;CYHM 221500Z 07004KT 15SM FEW011 BKN110 BKN250 21/19 A2986 RMK CF1AC6CI1 SLP111

CYHM;2009-08-22 16:00;CYHM 221600Z 06006KT 15SM TS FEW012 FEW065 BKN120 BKN250 21/18 A2986 RMK CF1SC2AC4CI1 CB EMBDD SLP109

CYHM;2009-08-22 16:22;CYHM 221622Z 00000KT 15SM -TSRA FEW012 BKN044 BKN110 RMK CF1SC5AC2 CB EMBDD VIS SW 2

CYHM;2009-08-22 16:38;CYHM 221638Z 00000KT 2 1/2SM -TSRA BR FEW012 BKN044 OVC110 RMK CF1SC6AC1 CB EMBDD

CYHM;2009-08-22 17:00;CYHM 221700Z 00000KT 2 1/2SM -TSRA BR FEW012 OVC040 19/19 A2988 RMK CF2SC6 CB EMBDD SLP115

CYHM;2009-08-22 17:19;CYHM 221719Z 00000KT 7SM -TSRA SCT003 BKN040 RMK CF4SC3 CB EMBDD

CYHM;2009-08-22 18:00;CYHM 221800Z 03005KT 15SM TS FEW003 FEW040 BKN088 20/19 A2985 RMK CF1SC2AC2 CB EMBDD SLP107

CYHM;2009-08-22 18:23;CYHM 221823Z 05004KT 15SM FEW005 FEW040TCU SCT086 RETS RMK CF1TCU2AC2

CYHM;2009-08-22 19:00;CYHM 221900Z 09002KT 15SM FEW007 FEW035TCU SCT050 BKN086 21/18 A2984 RETS RMK CF1TCU2SC1AC2 CF TR SLP103

CYHM;2009-08-22 19:53;CYHM 221953Z 17003KT 12SM TS VCSH FEW008 SCT035 BKN050 BKN100 RMK CF1CU3SC2AC1 CB EMBD SW-W

CYHM;2009-08-22 20:00;CYHM 222000Z 11003KT 12SM TS VCSH FEW008 SCT032 BKN050 BKN100 22/17 A2984 RMK CF1CU3SC2AC1 CB EMBD SW-W WND L/V SLP103

CYHM;2009-08-22 20:27;CYHM 222027Z 21020G28KT 10SM -TSRA FEW008 BKN030CB BKN045 BKN075 RMK CF2CB3SC1AC2 OCNL LTGCG

CYHM;2009-08-22 20:31;CYHM 222031Z 24015G25KT 1SM +TSRA FEW008 BKN020 OVC045 RMK CF2SC4SC2 LTGCG CB EMBD

CYHM;2009-08-22 20:34;CYHM 222034Z CCA 22025G42KT 3/8SM +TSRA FG BKN006 OVC010 RMK FG2SF4SC2 CB EMBD

CYHM;2009-08-22 20:43;CYHM 222043Z 27008KT 2 1/2SM -TSRA FEW008 BKN017 BKN030 RERA RMK CF2SC3SC2 CB EMBD

CYHM;2009-08-22 21:00;CYHM 222100Z 03005KT 7SM -TSRA FEW008 BKN018 BKN042 BKN082 19/17 A2984 RERA RMK CF2SC3SC1AC1 CB EMBD /R12/ SLP105

CYHM;2009-08-22 21:18;CYHM 222118Z 01005KT 10SM FEW008 SCT022TCU BKN042 BKN082 RETS RMK CF1TCU4SC1AC1 CB ASOCTD NE CF TR

CYHM;2009-08-22 22:00;CYHM 222200Z 33006KT 10SM FEW007 SCT022 BKN050 20/19 A2985 RETS RMK CF1CU4SC2 TCU ASOCTD CF TR SLP109

CYHM;2009-08-22 23:00;CYHM 222300Z 36005KT 10SM FEW014 BKN025 BKN048 19/18 A2986 RMK CF1CU4SC1 TCU ASOCTD SLP112

CYHM;2009-08-22 23:22;CYHM 222322Z 34006KT 10SM BKN011 BKN022 RMK SF6CU2

CYHM;2009-08-22 23:38;CYHM 222338Z 36009KT 10SM SCT011 BKN022 RMK SF3CU3

CYHM;2009-08-23 00:00;CYHM 230000Z 02009KT 12SM FEW011 SCT022 BKN042 18/17 A2989 RMK CF2CU2SC2 SLP121

CYHM;2009-08-23 01:00;CYHM 230100Z 36008KT 15SM FEW009 SCT026 BKN039 17/16 A2991 RMK CF1SC3SC2 SLP126

CYHM;2009-08-23 02:00;CYHM 230200Z 34008KT 15SM FEW008 BKN019 OVC027 17/16 A2992 RMK CF1SC6SC2 CF TR SLP131

CYHM;2009-08-23 03:00;CYHM 230300Z 33006KT 15SM FEW010 OVC023 17/16 A2993 RMK CF1SC8 CF TR SLP135

CYHM;2009-08-23 04:00;CYHM 230400Z CCA 32002KT 15SM FEW010 BKN025 OVC038 17/16 A2994 RMK CF1SC5SC2 SLP136

CYHM;2009-08-23 05:00;CYHM 230500Z 33004KT 15SM BKN028 17/15 A2992 RMK SC7 SLP132

CYHM;2009-08-23 06:00;CYHM 230600Z 29003KT 15SM FEW025 BKN030 16/15 A2992 RMK SC2SC5 SLP132

CYHM;2009-08-23 07:00;CYHM 230700Z 29002KT 15SM BKN025 16/15 A2991 RMK SC6 SLP130

CYHM;2009-08-23 08:00;CYHM 230800Z 30004KT 15SM BKN025 16/15 A2991 RMK SC6 SLP130

CYHM;2009-08-23 09:00;CYHM 230900Z 30004KT 15SM BKN025 16/16 A2992 RMK SC6 SLP131

CYHM;2009-08-23 10:00;CYHM 231000Z 32003KT 15SM FEW018 BKN030 BKN066 16/15 A2992 RMK SC1SC5AC1 SLP133

CYHM;2009-08-23 11:00;CYHM 231100Z 29002KT 15SM FEW017 BKN060 16/16 A2993 RMK SC1SC6 SLP135

CYHM;2009-08-23 12:00;CYHM 231200Z 31003KT 15SM BKN016 17/16 A2994 RMK SC7 SLP139

CYHM;2009-08-23 13:00;CYHM 231300Z 02004KT 15SM BKN020 18/17 A2996 RMK SC7 SLP144

CYHM;2009-08-23 14:00;CYHM 231400Z 02004KT 320V060 15SM BKN012 OVC031 19/17 A2997 RMK SC7SC1 SLP148

CYHM;2009-08-23 14:43;CYHM 231443Z 05004KT 15SM BKN015 BKN027 RMK SC5SC2

CYHM;2009-08-23 15:00;CYHM 231500Z 04004KT 15SM BKN014 OVC027 20/17 A2998 RMK SC6SC2 SLP151

CYHM;2009-08-23 16:00;CYHM 231600Z 35004KT 15SM VCSH BKN014 OVC027 20/17 A2998 RMK SC6SC2 SLP152

CYHM;2009-08-23 16:45;CYHM 231645Z 10004KT 15SM -SHRA BKN015 OVC024 RMK SC6SC2

CYHM;2009-08-23 17:00;CYHM 231700Z 09004KT 15SM -SHRA BKN017 OVC024 19/18 A2999 RMK SC6SC2 SLP154

CYHM;2009-08-23 17:09;CYHM 231709Z 33004KT 290V120 15SM -SHRA FEW009 BKN016 OVC022 RMK CF2SC4SC2

CYHM;2009-08-23 17:20;CYHM 231720Z 30005KT 2SM +SHRA BR FEW008 BKN015 OVC022 RMK FG1CF2SC5SC1

CYHM;2009-08-23 17:32;CYHM 231732Z 30005KT 2SM +TSRA BR FEW008 BKN015 OVC022 RMK FG1CF2SC5SC1 CB EMBDD VIS N HIER

CYHM;2009-08-23 17:40;CYHM 231740Z CCA 32002KT 5SM -TSRA BR FEW008 BKN015 BKN022 OVC041 RERA RMK CF2SC3SC2SC1 CB EMBDD

CYHM;2009-08-23 18:00;CYHM 231800Z 29002KT 10SM -TSRA FEW009 SCT016 BKN025 OVC042 18/18 A3000 RERA RMK CF1SC2SC2SC2 CB EMBDD /R22/ SLP158

CYHM;2009-08-23 18:40;CYHM 231840Z 08003KT 10SM -TSRA FEW004 BKN010 OVC023 RMK SF2SF3SC2 CB EMBD WND L/V

CYHM;2009-08-23 19:00;CYHM 231900Z 06004KT 12SM -SHRA FEW005 BKN014 BKN027 BKN068 18/18 A3000 RETS RMK CF1CU4SC2AC1 SLP158

CYHM;2009-08-23 20:00;CYHM 232000Z 02005KT 15SM VCSH FEW008 SCT017TCU BKN028 BKN100 19/16 A3000 RETS RMK CF2TCU2SC2AC2 SLP158

CYHM;2009-08-23 21:00;CYHM 232100Z 36005KT 15SM VCSH FEW009 SCT018TCU BKN041 21/16 A3000 RMK CF1TCU2SC4 SLP158

CYHM;2009-08-23 22:00;CYHM 232200Z 33003KT 15SM FEW018TCU BKN042 BKN055 21/18 A3000 RMK TCU2SC2SC2 SLP158

CYHM;2009-08-23 23:00;CYHM 232300Z 00000KT 15SM FEW020 BKN040 BKN055 20/18 A3001 RMK CU2SC2SC2 TCU ASOCTD SLP162

CYHM;2009-08-24 00:00;CYHM 240000Z 00000KT 15SM VCSH FEW018TCU BKN040 BKN058 20/18 A3002 RMK TCU2SC2SC2 SLP165

CYHM;2009-08-24 01:00;CYHM 240100Z 08005KT 15SM SCT017 BKN029 BKN060 19/17 A3003 RMK SC4SC2SC2 TCU EMBD SLP169

CYHM;2009-08-24 01:26;CYHM 240126Z 01002KT 15SM -SHRA SCT016 BKN028 BKN057 RMK SC4SC2SC1 TCU EMBD

CYHM;2009-08-24 01:40;CYHM 240140Z 02003KT 15SM SCT017 BKN030 BKN057 RMK SC3SC3SC1

CYHM;2009-08-24 02:00;CYHM 240200Z 02005KT 15SM FEW012 BKN026 BKN037 18/17 A3005 RMK CF1SC5SC2 SLP175

CYHM;2009-08-24 03:00;CYHM 240300Z 01002KT 15SM FEW025 BKN033 BKN055 17/16 A3006 RMK CF2SC3SC1 SLP180

CYHM;2009-08-24 04:00;CYHM 240400Z 34004KT 15SM FEW030 16/14 A3007 RMK SC2 SLP184

CYHM;2009-08-24 05:00;CYHM 240500Z 35004KT 15SM SCT044 15/14 A3008 RMK SC4 TCU ASOCTD SLP187

CYHM;2009-08-24 06:00;CYHM 240600Z 31003KT 15SM BKN047 16/15 A3009 RMK SC7 TCU ASOCTD SLP190

CYHM;2009-08-24 07:00;CYHM 240700Z 32004KT 15SM BKN041 15/14 A3009 RMK SC7 SLP190

CYHM;2009-08-24 08:00;CYHM 240800Z 32006KT 15SM FEW040 14/13 A3009 RMK SC2 SLP191

CYHM;2009-08-24 09:00;CYHM 240900Z 32004KT 15SM BKN031 14/13 A3010 RMK SC6 SLP193

CYHM;2009-08-24 10:00;CYHM 241000Z 32007KT 15SM FEW033 13/12 A3011 RMK SC2 SLP198

CYHM;2009-08-24 11:00;CYHM 241100Z 32006KT 15SM SCT021 13/12 A3013 RMK SC4 SLP203

CYHM;2009-08-24 12:00;CYHM 241200Z 32005KT 15SM SCT023 13/13 A3013 RMK SC3 SLP205

CYHM;2009-08-24 13:00;CYHM 241300Z 32006KT 15SM FEW025 14/13 A3015 RMK SC2 SLP210

CYHM;2009-08-24 14:00;CYHM 241400Z 00000KT 15SM FEW030 17/15 A3015 RMK SC1 CU TR ASOCTD SLP209

CYHM;2009-08-24 15:00;CYHM 241500Z 00000KT 15SM SCT020 BKN032 18/15 A3016 RMK CU4SC1 SLP212

CYHM;2009-08-24 16:00;CYHM 241600Z 32002KT 15SM SCT026 BKN033 19/15 A3017 RMK CU3SC3 TCU ASOCTD SLP218

CYHM;2009-08-24 17:00;CYHM 241700Z 28004KT 15SM SCT025 BKN032 BKN100 20/15 A3019 RMK CU3SC3AC1 SLP222

CYHM;2009-08-24 18:00;CYHM 241800Z 28005KT 15SM BKN028 BKN150 21/15 A3018 RMK SC5AC1 CU ASOCTD SLP220

CYHM;2009-08-24 19:00;CYHM 241900Z 25005KT 15SM BKN034 22/16 A3017 RMK SC6 CU ASOCTD SLP217

CYHM;2009-08-24 20:00;CYHM 242000Z 22006KT 15SM BKN034 22/15 A3016 RMK CU5 SC ASOCTD SLP212

CYHM;2009-08-24 21:00;CYHM 242100Z 31005KT 15SM SCT040 22/15 A3015 RMK CU4 SLP211

CYHM;2009-08-24 22:00;CYHM 242200Z 26006KT 15SM FEW036 22/15 A3014 RMK CU2 SLP208

CYHM;2009-08-24 23:00;CYHM 242300Z 24006KT 15SM FEW036 21/15 A3014 RMK CU1 SLP207

CYHM;2009-08-25 00:00;CYHM 250000Z 24004KT 15SM FEW036 FEW250 19/15 A3014 RMK SC1CI1 CI TR SLP209

CYHM;2009-08-25 01:00;CYHM 250100Z 23002KT 15SM FEW034 17/14 A3015 RMK SC1 SC TR SLP210

CYHM;2009-08-25 02:00;CYHM 250200Z 25002KT 15SM SKC 16/15 A3016 RMK SLP215

CYHM;2009-08-25 03:00;CYHM 250300Z 22004KT 15SM SKC 14/14 A3016 RMK SLP214

CYHM;2009-08-25 04:00;CYHM 250400Z 26004KT 15SM SKC 15/14 A3017 RMK SLP216

CYHM;2009-08-25 05:00;CYHM 250500Z 26004KT 15SM SKC 15/15 A3017 RMK SLP216

CYHM;2009-08-25 06:00;CYHM 250600Z 25003KT 15SM SKC 15/14 A3016 RMK SLP214

CYHM;2009-08-25 07:00;CYHM 250700Z 25003KT 15SM SKC 15/14 A3016 RMK SLP212

CYHM;2009-08-25 08:00;CYHM 250800Z 25003KT 15SM SKC 15/14 A3017 RMK SLP215

CYHM;2009-08-25 09:00;CYHM 250900Z 26003KT 15SM SKC 14/14 A3017 RMK SLP218

CYHM;2009-08-25 10:00;CYHM 251000Z 27002KT 15SM MIFG SKC 14/14 A3018 RMK SLP219

CYHM;2009-08-25 10:18;CYHM 251018Z 00000KT 1SM BR SKC RMK FG2

CYHM;2009-08-25 10:40;CYHM 251040Z 25003KT 10SM MIFG FEW020 FEW220 RMK CU1CI1

CYHM;2009-08-25 11:00;CYHM 251100Z 26002KT 15SM MIFG FEW220 12/12 A3019 RMK CI1 CI TR SLP223

CYHM;2009-08-25 12:00;CYHM 251200Z 26002KT 5SM BR FEW025 FEW220 14/14 A3019 RMK CU1CI1 SLP224

CYHM;2009-08-25 13:00;CYHM 251300Z 25005KT 15SM FEW025 FEW220 18/16 A3018 RMK CU1CI1 SLP222

CYHM;2009-08-25 14:00;CYHM 251400Z 24010KT 15SM FEW025 20/17 A3017 RMK CU1 CU TR SLP217

CYHM;2009-08-25 15:00;CYHM 251500Z 23014KT 15SM FEW023 22/17 A3015 RMK CU2 SLP210

CYHM;2009-08-25 16:00;CYHM 251600Z 23012KT 15SM SCT030 BKN036 BKN220 22/17 A3015 RMK CU3SC2CI0 CI TR SLP209

CYHM;2009-08-25 17:00;CYHM 251700Z 21008KT 15SM FEW030 BKN038 23/18 A3012 RMK CU2SC2 SLP199

CYHM;2009-08-25 18:00;CYHM 251800Z 23013KT 15SM BKN034 23/17 A3010 RMK SC6 CU ASOCTD SLP194

CYHM;2009-08-25 19:00;CYHM 251900Z 23012KT 15SM BKN034 24/18 A3009 RMK SC6 CU ASOCTD SLP190

CYHM;2009-08-25 20:00;CYHM 252000Z 23013KT 15SM FEW034 BKN250 24/18 A3005 RMK CU2CI1 SLP177

CYHM;2009-08-25 21:00;CYHM 252100Z 21012KT 15SM FEW034 BKN250 24/18 A3004 RMK CU2CI1 SLP173

CYHM;2009-08-25 22:00;CYHM 252200Z 22015G20KT 15SM FEW032 SCT250 23/17 A3004 RMK CU1CI1 SLP171

CYHM;2009-08-25 23:00;CYHM 252300Z 22011KT 15SM BKN250 22/17 A3003 RMK CI2 SLP169

CYHM;2009-08-26 00:00;CYHM 260000Z 23007KT 15SM BKN250 20/16 A3003 RMK CI2 CC ASOCTD SLP169

CYHM;2009-08-26 01:00;CYHM 260100Z 20007KT 15SM FEW070 BKN230 18/16 A3002 RMK AC2CI4 CC ASOCTD SLP165

CYHM;2009-08-26 02:00;CYHM 260200Z 21006KT 15SM FEW080 BKN250 17/16 A3003 RMK AC1CI6 SLP169

CYHM;2009-08-26 03:00;CYHM 260300Z 23005KT 15SM BKN250 17/15 A3002 RMK CI2 SLP165

CYHM;2009-08-26 04:00;CYHM 260400Z 21005KT 15SM FEW250 16/15 A3002 RMK CI1 SLP165

CYHM;2009-08-26 05:00;CYHM 260500Z 22007KT 15SM BKN058 BKN250 17/17 A3001 RMK SC5CI2 SLP160

CYHM;2009-08-26 06:00;CYHM 260600Z 21005KT 15SM FEW056 SCT240 17/17 A2999 RMK SC2CI1 SLP154

CYHM;2009-08-26 07:00;CYHM 260700Z 22007KT 15SM FEW054 BKN076 18/18 A2999 RMK SC2AC6 SLP153

CYHM;2009-08-26 08:00;CYHM 260800Z 23005KT 15SM BKN053 19/18 A2999 RMK SC7 SLP154

CYHM;2009-08-26 09:00;CYHM 260900Z 25007KT 15SM FEW058 OVC140 19/18 A2999 RMK SC1AC7 SLP153

CYHM;2009-08-26 10:00;CYHM 261000Z 25005KT 15SM OVC140 19/18 A2998 RMK AC8 SLP151

CYHM;2009-08-26 11:00;CYHM 261100Z 26005KT 15SM BKN120 OVC180 19/18 A2999 RMK AC6AC2 SLP154

CYHM;2009-08-26 12:00;CYHM 261200Z 27004KT 15SM BKN074 OVC095 19/18 A3001 RMK AC6AC2 SLP162

CYHM;2009-08-26 12:15;CYHM 261215Z 28004KT 15SM BKN010 OVC070 RMK SC6AC2

CYHM;2009-08-26 12:54;CYHM 261254Z 35008KT 10SM -SHRA OVC022 RMK SC8

CYHM;2009-08-26 13:00;CYHM 261300Z 33010KT 6SM -SHRA BKN021 OVC040 18/17 A3004 RMK SC6SC2 SLP170

CYHM;2009-08-26 14:00;CYHM 261400Z 33002KT 15SM SCT005 OVC028 18/17 A3004 RMK SF3SC5 RERA SLP173

CYHM;2009-08-26 14:44;CYHM 261444Z 00000KT 7SM -SHRA SCT007 OVC034 RMK SF3SC5

CYHM;2009-08-26 15:00;CYHM 261500Z 33005KT 5SM -RA BR FEW007 SCT011 OVC031 18/17 A3006 RMK SF2SC2SC4 SLP180

CYHM;2009-08-26 15:51;CYHM 261551Z 28004KT 15SM FEW006 FEW020 BKN036 BKN100 RMK SF1CU2SC3AC2 RERA

CYHM;2009-08-26 16:00;CYHM 261600Z 26003KT 15SM FEW020 SCT032 BKN100 19/17 A3007 RMK CU2SC2AC3 SLP182

CYHM;2009-08-26 17:00;CYHM 261700Z 28005KT 15SM FEW017 SCT032 BKN070 BKN110 20/17 A3006 RMK CU2SC2AC1AC1 SLP180

CYHM;2009-08-26 18:00;CYHM 261800Z 24006KT 15SM SCT016 BKN032 BKN100 21/18 A3005 RMK CU3SC2AC1 SLP175

CYHM;2009-08-26 19:00;CYHM 261900Z 21004KT 15SM FEW016 SCT032 BKN110 22/19 A3005 RMK SF1SC2AC2 CU ASOCTD TCU EMBDD SLP176

CYHM;2009-08-26 20:00;CYHM 262000Z 27005KT 15SM SCT048 SCT120 24/16 A3005 RMK CU3AC1 TCU ASOCTD SLP174

CYHM;2009-08-26 21:00;CYHM 262100Z 35004KT 15SM BKN050 BKN120 22/15 A3005 RMK CU5AC1 SC ASOCTD AC TR SLP173

CYHM;2009-08-26 22:00;CYHM 262200Z 04007KT 15SM BKN048 BKN100 23/15 A3006 RMK SC5AC1 AC TR TCU ASOCTD SLP177

CYHM;2009-08-26 23:00;CYHM 262300Z 07007KT 15SM FEW046TCU 19/13 A3008 RMK TCU1 SC ASOCTD SLP183

CYHM;2009-08-27 00:00;CYHM 270000Z 03006KT 15SM FEW045TCU FEW250 18/13 A3009 RMK TCU1CI1 SC ASOCTD CI TR SLP189

CYHM;2009-08-27 01:00;CYHM 270100Z 02006KT 15SM FEW042 FEW250 16/10 A3011 RMK SC1CI1 SC TR SLP195

CYHM;2009-08-27 02:00;CYHM 270200Z 03007KT 15SM FEW040 FEW250 16/11 A3012 RMK SC1CI1 CI TR SLP199

CYHM;2009-08-27 03:00;CYHM 270300Z 04005KT 15SM FEW230 15/11 A3013 RMK CI1 SLP202

CYHM;2009-08-27 04:00;CYHM 270400Z 03008KT 15SM FEW230 14/11 A3013 RMK CI2 SLP204

CYHM;2009-08-27 05:00;CYHM 270500Z 02007KT 15SM BKN200 14/11 A3013 RMK CI5 SLP205

CYHM;2009-08-27 06:00;CYHM 270600Z 04008KT 15SM BKN170 14/10 A3013 RMK AC5 SLP203

CYHM;2009-08-27 07:00;CYHM 270700Z 03007KT 15SM BKN190 14/10 A3013 RMK AC5 SLP203

CYHM;2009-08-27 08:00;CYHM 270800Z 02008KT 15SM BKN170 13/09 A3013 RMK AC5 SLP202

CYHM;2009-08-27 09:00;CYHM 270900Z 02007KT 15SM SCT200 13/09 A3014 RMK CI2 SLP206

CYHM;2009-08-27 10:00;CYHM 271000Z 03010KT 15SM FEW100 BKN220 13/08 A3014 RMK AC1CI4 SLP206

CYHM;2009-08-27 11:00;CYHM 271100Z 03010KT 15SM FEW055 BKN120 BKN230 13/08 A3013 RMK SC1AC4CI2 SLP204

CYHM;2009-08-27 12:00;CYHM 271200Z 03010KT 15SM BKN140 BKN240 14/09 A3017 RMK AC5CI2 SLP217

CYHM;2009-08-27 13:00;CYHM 271300Z 05008KT 15SM FEW030 BKN150 BKN230 14/10 A3018 RMK CU1AC6CI2 CU TR SLP221

CYHM;2009-08-27 14:00;CYHM 271400Z 06010KT 15SM FEW120 BKN180 BKN230 16/12 A3017 RMK AC2AC3CI2 SLP218

CYHM;2009-08-27 15:00;CYHM 271500Z 09012KT 15SM FEW032 FEW110 SCT170 BKN230 18/13 A3018 RMK CU1AC1AC2CI2 SLP221

CYHM;2009-08-27 16:00;CYHM 271600Z 07014KT 15SM FEW030 FEW120 SCT180 BKN230 18/13 A3018 RMK CU1AC2AC1CI2 SLP220

CYHM;2009-08-27 17:00;CYHM 271700Z 06010KT 15SM FEW030 FEW140 BKN230 18/13 A3018 RMK CU1AC2CI2 SLP220

CYHM;2009-08-27 18:00;CYHM 271800Z 09012KT 15SM FEW030 FEW110 SCT180 BKN240 19/14 A3017 RMK CU2AC1AC2CI2 SLP216

CYHM;2009-08-27 19:00;CYHM 271900Z 07009KT 020V120 15SM FEW030 SCT180 BKN210 19/13 A3017 RMK CU1AC3CI2 SLP217

CYHM;2009-08-27 20:00;CYHM 272000Z 07006KT 020V140 15SM FEW030 SCT190 BKN230 19/12 A3016 RMK CU1AC4CI2 CU TR SLP214

CYHM;2009-08-27 21:00;CYHM 272100Z 06006KT 15SM FEW036 BKN190 BKN230 19/09 A3015 RMK CU1AC5CI2 CU TR SLP210

CYHM;2009-08-27 22:00;CYHM 272200Z 08006KT 15SM BKN190 OVC240 18/12 A3015 RMK AC5CI2 SLP211

CYHM;2009-08-27 23:00;CYHM 272300Z 08004KT 15SM SCT180 BKN220 17/13 A3016 RMK AC4CI2 SLP213

CYHM;2009-08-28 00:00;CYHM 280000Z 00000KT 15SM FEW180 BKN220 16/12 A3016 RMK AC2CI2 SLP214

CYHM;2009-08-28 01:00;CYHM 280100Z 03006KT 15SM SCT180 BKN240 15/11 A3015 RMK AC4CI2 SLP212

CYHM;2009-08-28 02:00;CYHM 280200Z 03005KT 15SM SCT180 BKN230 14/11 A3017 RMK AC3CI2 SLP219

CYHM;2009-08-28 03:00;CYHM 280300Z 05004KT 15SM BKN180 OVC230 15/11 A3017 RMK AC6CI2 SLP216

CYHM;2009-08-28 04:00;CYHM 280400Z 00000KT 15SM OVC160 15/12 A3017 RMK AC8 SLP219

CYHM;2009-08-28 05:00;CYHM 280500Z 07004KT 15SM OVC160 15/11 A3016 RMK AC8 SLP213

CYHM;2009-08-28 06:00;CYHM 280600Z 07005KT 15SM OVC130 15/10 A3015 RMK AC8 SLP211

CYHM;2009-08-28 07:00;CYHM 280700Z 07007KT 15SM OVC110 15/10 A3013 RMK AC8 SLP202

CYHM;2009-08-28 08:00;CYHM 280800Z 07004KT 15SM -SHRA OVC100 15/11 A3014 RMK AC8 SLP207

CYHM;2009-08-28 08:24;CYHM 280824Z 07006KT 15SM OVC100 RMK AC8

CYHM;2009-08-28 09:00;CYHM 280900Z 07007KT 15SM OVC100 15/10 A3013 RMK AC8 SLP202

CYHM;2009-08-28 10:00;CYHM 281000Z 08006KT 15SM FEW100 BKN160 14/08 A3013 RMK AC2AC6 SLP205

CYHM;2009-08-28 11:00;CYHM 281100Z 06010KT 15SM SCT100 BKN160 BKN230 15/10 A3013 RMK AC3AC2CI2 SLP204

CYHM;2009-08-28 12:00;CYHM 281200Z 07010KT 15SM BKN094 BKN150 BKN220 15/11 A3011 RMK AC5AC2CI1 SLP198

CYHM;2009-08-28 13:00;CYHM 281300Z 08012KT 15SM BKN092 BKN220 16/10 A3010 RMK AC6CI2 SLP195

CYHM;2009-08-28 14:00;CYHM 281400Z 06010KT 15SM BKN088 BKN160 BKN220 16/11 A3010 RMK AC6AC1CI1 SLP193

CYHM;2009-08-28 15:00;CYHM 281500Z 08012KT 15SM FEW030 BKN084 BKN220 17/12 A3010 RMK SC1AC6CI2 SC TR SLP195

CYHM;2009-08-28 16:00;CYHM 281600Z 06014KT 15SM FEW035 BKN098 BKN150 BKN220 17/11 A3008 RMK SC1AC6AC1CI1 SC TR SLP186

CYHM;2009-08-28 17:00;CYHM 281700Z 06012G18KT 15SM FEW035 BKN097 BKN160 OVC220 17/11 A3007 RMK SC1AC5AS2CI1 SLP182

CYHM;2009-08-28 18:00;CYHM 281800Z 06015G20KT 15SM FEW035 BKN068 BKN095 BKN220 18/10 A3006 RMK SC1AC5AC2CI1 SC TR SLP179

CYHM;2009-08-28 19:00;CYHM 281900Z 07018G25KT 15SM FEW065 BKN120 BKN170 18/11 A3002 RMK SC2AC5AC1 SLP168

CYHM;2009-08-28 20:00;CYHM 282000Z 06016G22KT 15SM BKN040 OVC120 18/11 A3001 RMK SC6AC2 SLP163

CYHM;2009-08-28 21:00;CYHM 282100Z 06015G20KT 15SM BKN039 OVC100 17/12 A2999 RMK SC6AC2 SLP157

CYHM;2009-08-28 22:00;CYHM 282200Z 07017G22KT 15SM OVC035 17/11 A2996 RMK SC8 SLP147

CYHM;2009-08-28 23:00;CYHM 282300Z 07013G18KT 15SM OVC031 17/11 A2995 RMK SC8 SLP142

CYHM;2009-08-29 00:00;CYHM 290000Z 06012KT 15SM BKN041 OVC170 17/11 A2992 RMK SC6AC2 SLP134

CYHM;2009-08-29 01:00;CYHM 290100Z 06012KT 15SM -SHRA FEW030 OVC045 16/12 A2991 RMK SC2SC6 SLP128

CYHM;2009-08-29 02:00;CYHM 290200Z 05008KT 15SM -SHRA FEW023 OVC037 16/13 A2989 RMK CF2SC6 SLP124

CYHM;2009-08-29 03:00;CYHM 290300Z 04008KT 7SM -SHRA OVC020 15/15 A2986 RMK SC8 SLP111

CYHM;2009-08-29 04:00;CYHM 290400Z 04008KT 6SM -SHRA BR BKN015 OVC090 15/15 A2982 RMK SC6AC2 SLP100

CYHM;2009-08-29 04:27;CYHM 290427Z 05008KT 10SM -SHRA BKN010 OVC057 RMK SC6SC2

CYHM;2009-08-29 05:00;CYHM 290500Z 05009KT 7SM -SHRA OVC009 15/15 A2978 RMK SF8 CIG RAG SLP087

CYHM;2009-08-29 05:50;CYHM 290550Z 05011KT 3SM +TSRA OVC006 RMK SF8 CB ASOCTD OCNL LTGIC VIS VRB 2 - 4

CYHM;2009-08-29 06:00;CYHM 290600Z 01008KT 1 1/2SM +TSRA OVC003 15/15 A2977 RMK RA2SF6 CB ASOCTD OCNL LTGICCG VIS VRB 1 - 2 /R13/ SLP080

CYHM;2009-08-29 06:20;CYHM 290620Z 01008KT 3SM TSRA BR FEW003 OVC025CB RMK SF2CB6 OCNL LTNG VIS VRB 2 - 4

CYHM;2009-08-29 07:00;CYHM 290700Z 00000KT 3SM -TSRA BR SCT002 OVC023 16/16 A2973 RERA RMK SF3SC5 CB ASOCTD VIS VRB 2 - 4 SLP068

CYHM;2009-08-29 07:20;CYHM 290720Z 01005KT 3SM -SHRA BR FEW002 BKN014 OVC090 RETSRA RMK SF2SC4AC2 VIS VRB 2 - 4

CYHM;2009-08-29 08:00;CYHM 290800Z 03004KT 1 1/2SM -SHRA BR FEW002 OVC012 16/16 A2972 RMK FG2SF1SC6 VIS VRB 1 - 2 SLP065

CYHM;2009-08-29 08:15;CYHM 290815Z 01003KT 1SM -SHRA BR OVC008 RMK FG2SF6 VIS VRB 3/4 - 11/4

CYHM;2009-08-29 08:24;CYHM 290824Z 35004KT 1 1/2SM +TSRA BR OVC003 RMK FG2SF6 CB ASOCTD OCNL LTGIC VIS VRB 1 - 2

CYHM;2009-08-29 09:00;CYHM 290900Z 07005KT 2SM -TSRA BR BKN009 OVC025CB 16/16 A2971 RERA RMK FG1SF5CB2 SLP059

CYHM;2009-08-29 09:30;CYHM 290930Z 00000KT 2 1/2SM -SHRA BR OVC008 RETSRA RMK SF8

CYHM;2009-08-29 10:00;CYHM 291000Z 00000KT 3SM -SHRA BR FEW005 BKN020 OVC120 16/16 A2969 RMK SF2SC4AC2 VIS VRB 2 - 4 SLP054

CYHM;2009-08-29 10:26;CYHM 291026Z 12003KT 2 1/2SM -SHRA BR FEW002 BKN011 OVC120 RMK SF2SC5AC2 PCPN VRY LGT

CYHM;2009-08-29 10:46;CYHM 291046Z 00000KT 2 1/2SM -SHRA BR FEW002 SCT009 BKN058 BKN120 RMK SF1SC2SC3AC1 PCPN VRY LGT

CYHM;2009-08-29 11:00;CYHM 291100Z 17003KT 2 1/2SM -SHRA BR FEW002 SCT009 BKN058 BKN120 17/17 A2967 RMK SF1SC2SC3AC1 PCPN VRY LGT SLP047

CYHM;2009-08-29 11:17;CYHM 291117Z 20004KT 2SM -SHRA BR OVC007 RMK FG1SC7

CYHM;2009-08-29 11:40;CYHM 291140Z 21004KT 2SM -SHRA BR FEW001 OVC005 RMK FG1SF2SC6

CYHM;2009-08-29 12:00;CYHM 291200Z 21005KT 2SM -SHRA BR OVC003 17/17 A2967 RMK FG1SC7 /R21/ PCPN VRY LGT SLP048

CYHM;2009-08-29 12:17;CYHM 291217Z 22007KT 1 1/2SM -SHRA BR OVC002 RMK FG2SC6 PCPN VRY LGT

CYHM;2009-08-29 13:00;CYHM 291300Z 25008KT 1 1/2SM BR OVC002 17/17 A2966 RMK FG2SC6 SLP045

CYHM;2009-08-29 13:23;CYHM 291323Z 24009KT 3SM BR BKN002 OVC011 RMK SC6SC2

CYHM;2009-08-29 13:53;CYHM 291353Z 27009KT 5SM BR BKN005 OVC012 RMK SC7SC1

CYHM;2009-08-29 14:00;CYHM 291400Z 26008KT 5SM BR BKN006 OVC013 17/17 A2966 RMK SC6SC2 SLP044

CYHM;2009-08-29 14:43;CYHM 291443Z 26006KT 15SM SCT007 BKN013 RMK SC3SC3

CYHM;2009-08-29 15:00;CYHM 291500Z 26010KT 15SM FEW007 BKN012 BKN018 18/18 A2966 RMK SC1SC6SC1 SLP045

CYHM;2009-08-29 16:00;CYHM 291600Z 25012KT 210V310 15SM BKN010 OVC017 18/16 A2968 RMK SC6SC2 SLP050

CYHM;2009-08-29 16:49;CYHM 291649Z 25013KT 15SM SCT012 BKN019 RMK SC3SC3

CYHM;2009-08-29 17:00;CYHM 291700Z 26013KT 15SM SCT014 BKN019 19/15 A2968 RMK SC3SC2 SLP052

CYHM;2009-08-29 18:00;CYHM 291800Z 26011KT 15SM BKN027 19/15 A2968 RMK SC6 SLP050

CYHM;2009-08-29 19:00;CYHM 291900Z 27013KT 240V300 15SM SCT027 BKN041 20/14 A2969 RMK CU4SC2 SLP054

CYHM;2009-08-29 20:00;CYHM 292000Z 25013KT 200V280 15SM FEW028 SCT045 21/14 A2968 RMK CU2SC2 SLP051

CYHM;2009-08-29 21:00;CYHM 292100Z 25014KT 15SM SCT028 BKN041 BKN070 20/13 A2968 RMK CU3SC2AC1 SLP050

CYHM;2009-08-29 22:00;CYHM 292200Z 24011KT 200V270 15SM SCT028 SCT045 SCT075 20/14 A2969 RMK CU3SC1AC1 TCU ASOCTD SE AC TR SLP052

CYHM;2009-08-29 23:00;CYHM 292300Z 23008KT 15SM FEW028TCU SCT045 19/15 A2970 RMK TCU2SC1 SLP056

CYHM;2009-08-30 00:00;CYHM 300000Z 21006KT 15SM VCSH FEW015 FEW030 BKN045 BKN077 18/15 A2970 RMK CF1SC2SC2AC1 TCU EMBD CF TR SLP057

CYHM;2009-08-30 00:10;CYHM 300010Z 29009KT 12SM -SHRA FEW015 BKN032 BKN048 RMK CF2SC3SC1 TCU EMBD

CYHM;2009-08-30 00:18;CYHM 300018Z CCA 25008KT 2 1/2SM SHRA BR SCT010 BKN025 RMK FG1CF2SC4 TCU EMBD

CYHM;2009-08-30 00:24;CYHM 300024Z 27008KT 10SM -SHRA FEW010 SCT025 BKN037 RERA RMK CF1SC3SC2 TCU EMBD

CYHM;2009-08-30 00:39;CYHM 300039Z 27008KT 12SM FEW010 FEW025 BKN042 BKN068 RERA RMK CF1SC2SC2AC2 TCU EMBD E CF TR

CYHM;2009-08-30 01:00;CYHM 300100Z 27006KT 15SM FEW025 SCT043 BKN070 16/15 A2973 RERA RMK SC2SC2AC2 SLP066

CYHM;2009-08-30 02:00;CYHM 300200Z 27008KT 15SM FEW040 15/13 A2975 RMK SC1 SLP074

CYHM;2009-08-30 03:00;CYHM 300300Z 26007KT 15SM SKC 14/12 A2976 RMK SLP078

CYHM;2009-08-30 04:00;CYHM 300400Z 23008KT 15SM SKC 14/12 A2976 RMK SLP079

CYHM;2009-08-30 05:00;CYHM 300500Z 22008KT 15SM FEW100 13/11 A2977 RMK AC1 SLP081

CYHM;2009-08-30 06:00;CYHM 300600Z 22009KT 15SM FEW100 12/11 A2977 RMK AC1 SLP081

CYHM;2009-08-30 07:00;CYHM 300700Z 25009KT 15SM FEW054 13/12 A2978 RMK SC1 SLP083

CYHM;2009-08-30 08:00;CYHM 300800Z 24009KT 15SM FEW050 13/12 A2978 RMK SC1 SLP084

CYHM;2009-08-30 09:00;CYHM 300900Z 24007KT 15SM SCT013 BKN045 13/12 A2979 RMK SC4SC1 SLP088

CYHM;2009-08-30 10:00;CYHM 301000Z 22008KT 15SM BKN015 13/13 A2980 RMK SC7 SLP092

CYHM;2009-08-30 10:22;CYHM 301022Z 23008KT 15SM BKN012 RMK SC7

CYHM;2009-08-30 11:00;CYHM 301100Z 26008KT 9SM -DZ SCT012 BKN028 13/13 A2982 RMK SC4SC3 SLP097

CYHM;2009-08-30 11:27;CYHM 301127Z 26005KT 15SM BKN026 RMK SC7

CYHM;2009-08-30 11:37;CYHM 301137Z 26005KT 9SM -DZ BKN026 RMK SC7

CYHM;2009-08-30 12:00;CYHM 301200Z 25007KT 15SM -DZ BKN028 13/13 A2984 RMK SC7 DZ INTMT SLP107

CYHM;2009-08-30 13:00;CYHM 301300Z 27007KT 15SM FEW010 FEW028 BKN052 14/13 A2986 RMK CF1SC2SC6 CF TR SLP113

CYHM;2009-08-30 14:00;CYHM 301400Z 26009KT 15SM FEW014 BKN056 15/12 A2988 RMK CU2SC6 SLP117

CYHM;2009-08-30 15:00;CYHM 301500Z 28008KT 220V310 15SM SCT022 BKN065 16/12 A2988 RMK CU4SC3 SLP121

CYHM;2009-08-30 16:00;CYHM 301600Z 26010KT 230V330 15SM BKN025 BKN078 17/13 A2990 RMK SC5AC2 CU ASOCTD SLP125

CYHM;2009-08-30 17:00;CYHM 301700Z 28009KT 240V330 15SM FEW026 BKN058 16/12 A2991 RMK SC2SC5 SLP130

CYHM;2009-08-30 17:18;CYHM 301718Z 30018KT 12SM -SHRA BKN024 OVC058 RMK SC6SC2

CYHM;2009-08-30 17:45;CYHM 301745Z 29009KT 15SM FEW025 FEW060 RMK SC2SC1

CYHM;2009-08-30 18:00;CYHM 301800Z 28006KT 250V340 15SM FEW025 FEW060 FEW078 16/13 A2993 RMK SC1SC1AC1 SLP136

CYHM;2009-08-30 19:00;CYHM 301900Z 33012KT 15SM SCT028 BKN045 BKN067 16/11 A2994 RMK CU3SC2AC2 SLP141

CYHM;2009-08-30 20:00;CYHM 302000Z 30009KT 15SM FEW026 BKN046 BKN067 16/11 A2997 RMK CU2SC3AC2 SLP149

CYHM;2009-08-30 21:00;CYHM 302100Z 30009KT 15SM FEW026 BKN046 BKN064 16/11 A2999 RMK CU2SC3SC2 SLP157

CYHM;2009-08-30 22:00;CYHM 302200Z 32008KT 15SM FEW027 BKN044 BKN060 15/11 A3002 RMK CU2SC2SC2 SLP166

CYHM;2009-08-30 23:00;CYHM 302300Z 31006KT 15SM FEW027 SCT045 BKN064 15/11 A3004 RMK CU2SC2SC4 SLP173

CYHM;2009-08-31 00:00;CYHM 310000Z 33007KT 15SM FEW025 FEW045 BKN064 14/10 A3007 RMK CU1SC2SC5 SLP183

CYHM;2009-08-31 01:00;CYHM 310100Z 33006KT 15SM FEW025 FEW045 BKN059 13/09 A3009 RMK CU1SC1SC5 CU TR SLP192

CYHM;2009-08-31 02:00;CYHM 310200Z 32006KT 15SM FEW025 FEW055 12/09 A3012 RMK CU1SC1 CU TR SLP201

CYHM;2009-08-31 03:00;CYHM 310300Z 31004KT 15SM FEW025 FEW060 11/09 A3014 RMK CU1SC2 SLP208

CYHM;2009-08-31 04:00;CYHM 310400Z 28004KT 15SM SCT062 11/09 A3016 RMK SC3 SLP214

CYHM;2009-08-31 05:00;CYHM 310500Z 29005KT 15SM FEW062 10/09 A3017 RMK SC2 SLP220

CYHM;2009-08-31 06:00;CYHM 310600Z 00000KT 15SM FEW062 10/09 A3017 RMK SC2 SLP221

CYHM;2009-08-31 07:00;CYHM 310700Z 29004KT 15SM BKN063 10/10 A3017 RMK SC6 SLP221

CYHM;2009-08-31 08:00;CYHM 310800Z 29004KT 15SM SCT063 10/10 A3018 RMK SC4 SLP224

CYHM;2009-08-31 09:00;CYHM 310900Z 30003KT 15SM FEW060 09/09 A3017 RMK SC1 SLP220

CYHM;2009-08-31 10:00;CYHM 311000Z 29003KT 15SM FEW030 FEW055 09/09 A3018 RMK CU1SC1 SLP224

CYHM;2009-08-31 11:00;CYHM 311100Z 29004KT 15SM FEW020 FEW045 09/09 A3020 RMK CU1SC1 SLP231

CYHM;2009-08-31 12:00;CYHM 311200Z 00000KT 15SM FEW020 SCT045 11/10 A3023 RMK CU1SC2 SLP240

CYHM;2009-08-31 13:00;CYHM 311300Z 35002KT 15SM FEW020 FEW045 14/11 A3024 RMK SC1SC1 SLP243

CYHM;2009-08-31 14:00;CYHM 311400Z 00000KT 15SM FEW025 15/11 A3025 RMK CU1 CU TR SLP247

CYHM;2009-08-31 15:00;CYHM 311500Z 33006KT 15SM FEW028 17/10 A3026 RMK CU2 SLP248

CYHM;2009-08-31 16:00;CYHM 311600Z 01006KT 15SM SCT038 BKN056 18/10 A3026 RMK CU4SC2 SLP249

CYHM;2009-08-31 17:00;CYHM 311700Z 23006KT 15SM SCT040 SCT052 18/09 A3025 RMK CU3SC1 SLP246

CYHM;2009-08-31 18:00;CYHM 311800Z 22002KT 15SM BKN048 19/08 A3025 RMK CU5 SC ASOCTD WND L/V SLP244

CYHM;2009-08-31 19:00;CYHM 311900Z 28004KT 200V360 15SM BKN050 20/10 A3024 RMK CU5 SC ASOCTD SLP242

CYHM;2009-08-31 20:00;CYHM 312000Z 26010KT 15SM SCT050 20/10 A3023 RMK CU4 SC ASOCTD SLP238

CYHM;2009-08-31 21:00;CYHM 312100Z 28005KT 15SM SCT055 20/10 A3022 RMK SC4 CU ASOCTD SLP235

CYHM;2009-08-31 22:00;CYHM 312200Z 24005KT 15SM FEW058 20/09 A3022 RMK CU2 SLP234

CYHM;2009-08-31 23:00;CYHM 312300Z 24003KT 15SM FEW058 19/10 A3022 RMK SC2 CU ASOCTD SLP235

CYHM;2009-09-01 01:00;CYHM 010100Z 26003KT 15SM FEW050 14/11 A3023 RMK SC1 SC TR SLP241

CYHM;2009-09-01 02:00;CYHM 010200Z 26005KT 15SM FEW050 14/10 A3026 RMK SC1 SC TR SLP248

CYHM;2009-09-01 03:00;CYHM 010300Z 31007KT 15SM SKC 13/10 A3027 RMK SLP251

CYHM;2009-09-01 04:00;CYHM 010400Z 31003KT 15SM SKC 12/10 A3028 RMK SLP254

CYHM;2009-09-01 05:00;CYHM 010500Z 31002KT 15SM SKC 11/10 A3028 RMK SLP256

CYHM;2009-09-01 06:00;CYHM 010600Z 32002KT 15SM SKC 11/10 A3028 RMK SLP257

CYHM;2009-09-01 07:00;CYHM 010700Z 00000KT 15SM SKC 11/09 A3028 RMK SLP256

CYHM;2009-09-01 08:00;CYHM 010800Z 01003KT 15SM SKC 10/09 A3029 RMK SLP258

CYHM;2009-09-01 09:00;CYHM 010900Z 00000KT 15SM FEW230 10/08 A3029 RMK CI1 SLP260

CYHM;2009-09-01 10:00;CYHM 011000Z 00000KT 15SM FEW090 FEW230 09/08 A3031 RMK AC1CI1 SLP265

CYHM;2009-09-01 11:00;CYHM 011100Z 00000KT 15SM FEW230 08/08 A3032 RMK CI1 CI TR SLP268

CYHM;2009-09-01 12:00;CYHM 011200Z 00000KT 15SM SKC 10/10 A3034 RMK SLP276

CYHM;2009-09-01 13:00;CYHM 011300Z 33003KT 15SM SKC 14/12 A3036 RMK SLP282

CYHM;2009-09-01 14:00;CYHM 011400Z 01004KT 15SM FEW028 FEW230 16/10 A3036 RMK CU1CI1 CU TR CI TR SLP282

CYHM;2009-09-01 15:00;CYHM 011500Z 00000KT 15SM FEW028 18/11 A3036 RMK CU1 SLP282

CYHM;2009-09-01 16:00;CYHM 011600Z 24002KT 15SM SCT032 SCT045 19/10 A3036 RMK CU3SC1 SLP283

CYHM;2009-09-01 17:00;CYHM 011700Z 00000KT 15SM FEW030 19/11 A3035 RMK CU2 SLP279

CYHM;2009-09-01 18:00;CYHM 011800Z 33004KT 15SM FEW035 20/11 A3034 RMK CU2 SLP275

CYHM;2009-09-01 19:00;CYHM 011900Z 29003KT 15SM FEW040 20/11 A3033 RMK CU2 WND L/V SLP273

CYHM;2009-09-01 20:00;CYHM 012000Z 26003KT 15SM FEW040 21/11 A3032 RMK CU2 WND L/V SLP268

CYHM;2009-09-01 21:00;CYHM 012100Z 29002KT 15SM FEW040 21/11 A3030 RMK CU1 WND L/V SLP263

CYHM;2009-09-01 22:00;CYHM 012200Z 22002KT 15SM FEW040 21/10 A3030 RMK CF1 CF TR WND L/V SLP262

CYHM;2009-09-01 23:00;CYHM 012300Z 21002KT 15SM SKC 19/12 A3029 RMK SLP259

CYHM;2009-09-02 00:00;CYHM 020000Z 20003KT 15SM FEW200 17/12 A3029 RMK CI1 CI TR SLP261

CYHM;2009-09-02 01:00;CYHM 020100Z 21003KT 15SM SKC 15/11 A3030 RMK SLP263

CYHM;2009-09-02 02:00;CYHM 020200Z 21005KT 15SM SKC 14/11 A3031 RMK SLP267

CYHM;2009-09-02 03:00;CYHM 020300Z 25002KT 15SM SKC 14/10 A3031 RMK SLP265

CYHM;2009-09-02 04:00;CYHM 020400Z 26002KT 15SM SKC 13/10 A3030 RMK SLP263

CYHM;2009-09-02 05:00;CYHM 020500Z 27003KT 15SM SKC 12/08 A3031 RMK SLP265

CYHM;2009-09-02 06:00;CYHM 020600Z 28003KT 15SM SKC 13/09 A3031 RMK SLP265

CYHM;2009-09-02 07:00;CYHM 020700Z 29003KT 15SM SKC 13/09 A3030 RMK SLP263

CYHM;2009-09-02 08:00;CYHM 020800Z 00000KT 15SM SKC 12/09 A3030 RMK SLP262

CYHM;2009-09-02 09:00;CYHM 020900Z 00000KT 15SM SKC 10/09 A3030 RMK SLP263

CYHM;2009-09-02 10:00;CYHM 021000Z 00000KT 15SM SKC 10/09 A3030 RMK SLP264

CYHM;2009-09-02 11:00;CYHM 021100Z 00000KT 15SM SKC 10/09 A3032 RMK SLP270

CYHM;2009-09-02 12:00;CYHM 021200Z 00000KT 15SM SKC 12/10 A3034 RMK SLP275

CYHM;2009-09-02 13:00;CYHM 021300Z 00000KT 15SM SKC 17/12 A3034 RMK SLP275

CYHM;2009-09-02 14:00;CYHM 021400Z 00000KT 15SM SKC 19/12 A3034 RMK SLP275

CYHM;2009-09-02 15:00;CYHM 021500Z 00000KT 15SM FEW024 20/13 A3034 RMK CU1 CU TR SLP274

CYHM;2009-09-02 16:00;CYHM 021600Z 17003KT 15SM FEW030 21/12 A3033 RMK CU1 SLP272

CYHM;2009-09-02 17:00;CYHM 021700Z 24002KT 15SM FEW034 21/13 A3032 RMK CU2 SLP267

CYHM;2009-09-02 18:00;CYHM 021800Z 26006KT 15SM FEW034 22/12 A3030 RMK CU1 SLP259

CYHM;2009-09-02 19:00;CYHM 021900Z 05002KT 15SM FEW035 22/13 A3028 RMK CU1 WND L/V SLP254

CYHM;2009-09-02 20:00;CYHM 022000Z 18003KT 15SM FEW035 23/13 A3026 RMK CU1 WND L/V SLP247

CYHM;2009-09-02 21:00;CYHM 022100Z 18002KT 15SM FEW040 23/13 A3024 RMK CU1 WND L/V SLP242

CYHM;2009-09-02 22:00;CYHM 022200Z 24002KT 15SM FEW040 23/13 A3024 RMK SC1 WND L/V SLP241

CYHM;2009-09-02 23:00;CYHM 022300Z 10004KT 15SM FEW040 21/15 A3024 RMK SC1 SC TR SLP240

CYHM;2009-09-03 00:00;CYHM 030000Z 16004KT 15SM FEW040 19/14 A3023 RMK SC1 SC TR SLP238

CYHM;2009-09-03 01:00;CYHM 030100Z 00000KT 15SM SKC 17/14 A3022 RMK SLP236

CYHM;2009-09-03 02:00;CYHM 030200Z 00000KT 15SM SKC 16/14 A3022 RMK SLP235

CYHM;2009-09-03 03:00;CYHM 030300Z 00000KT 15SM FEW220 15/14 A3022 RMK CI1 SLP234

CYHM;2009-09-03 04:00;CYHM 030400Z 00000KT 15SM FEW210 13/13 A3021 RMK CI1 SLP230

CYHM;2009-09-03 05:00;CYHM 030500Z 00000KT 15SM SKC 14/14 A3021 RMK SLP230

CYHM;2009-09-03 06:00;CYHM 030600Z 00000KT 15SM SKC 14/13 A3020 RMK SLP227

CYHM;2009-09-03 07:00;CYHM 030700Z 00000KT 15SM SKC 13/12 A3020 RMK SLP226

CYHM;2009-09-03 08:00;CYHM 030800Z 00000KT 15SM SKC 12/12 A3020 RMK SLP228

CYHM;2009-09-03 09:00;CYHM 030900Z 34005KT 15SM SKC 13/12 A3020 RMK SLP227

CYHM;2009-09-03 10:00;CYHM 031000Z 00000KT 15SM FEW220 13/12 A3020 RMK CI1 SLP227

CYHM;2009-09-03 11:00;CYHM 031100Z 00000KT 15SM SKC 12/12 A3021 RMK SLP230

CYHM;2009-09-03 12:00;CYHM 031200Z 00000KT 15SM SKC 14/14 A3021 RMK SLP231

CYHM;2009-09-03 13:00;CYHM 031300Z 00000KT 15SM FEW240 19/16 A3022 RMK CI1 CI TR SLP233

CYHM;2009-09-03 14:00;CYHM 031400Z 00000KT 15SM FEW020 FEW240 20/15 A3021 RMK CU1CI1 CU TR CI TR SLP231

CYHM;2009-09-03 15:00;CYHM 031500Z 00000KT 15SM FEW028 22/14 A3021 RMK CU1 SLP229

CYHM;2009-09-03 16:00;CYHM 031600Z 09002KT 15SM FEW038 23/14 A3019 RMK CU1 SLP224

CYHM;2009-09-03 17:00;CYHM 031700Z 00000KT 15SM FEW040 23/14 A3018 RMK CU2 SLP219

CYHM;2009-09-03 18:00;CYHM 031800Z 00000KT 15SM FEW042 23/14 A3016 RMK CU2 SLP213

CYHM;2009-09-03 19:00;CYHM 031900Z 22002KT 15SM FEW042 24/14 A3015 RMK CU1 SLP208

CYHM;2009-09-03 20:00;CYHM 032000Z 21002KT 15SM FEW042 FEW120 24/14 A3013 RMK CU1AC1 WND L/V AC TR SLP203

CYHM;2009-09-03 21:00;CYHM 032100Z 22002KT 15SM FEW042 FEW250 24/14 A3012 RMK CU1CI1 WND L/V SLP199

CYHM;2009-09-03 22:00;CYHM 032200Z 27002KT 15SM FEW044 FEW250 24/13 A3012 RMK CU1CI1 SLP198

CYHM;2009-09-03 23:00;CYHM 032300Z 00000KT 15SM FEW250 23/12 A3010 RMK CI1 SLP193

CYHM;2009-09-04 00:00;CYHM 040000Z 00000KT 15SM SCT250 20/13 A3010 RMK CI2 SLP194

CYHM;2009-09-04 01:00;CYHM 040100Z 22002KT 15SM FEW250 18/14 A3011 RMK CI1 SLP197

CYHM;2009-09-04 02:00;CYHM 040200Z 00000KT 15SM FEW250 17/15 A3012 RMK CI1 SLP199

CYHM;2009-09-04 03:00;CYHM 040300Z 25002KT 15SM FEW250 16/14 A3011 RMK CI1 SLP197

CYHM;2009-09-04 04:00;CYHM 040400Z 28004KT 15SM FEW220 16/15 A3012 RMK CI1 SLP199

CYHM;2009-09-04 05:00;CYHM 040500Z 36005KT 15SM SKC 15/13 A3012 RMK SLP199

CYHM;2009-09-04 06:00;CYHM 040600Z 01003KT 15SM FEW220 15/12 A3012 RMK CI1 SLP199

CYHM;2009-09-04 07:00;CYHM 040700Z 01006KT 15SM SKC 14/11 A3011 RMK SLP197

CYHM;2009-09-04 08:00;CYHM 040800Z 02007KT 15SM FEW220 14/11 A3011 RMK CI1 SLP196

CYHM;2009-09-04 09:00;CYHM 040900Z 02005KT 15SM SKC 14/11 A3011 RMK SLP196

CYHM;2009-09-04 10:00;CYHM 041000Z 03003KT 15SM FEW150 14/11 A3011 RMK AC1 SLP196

CYHM;2009-09-04 11:00;CYHM 041100Z 01006KT 15SM FEW150 FEW240 15/12 A3013 RMK AC1CI1 SLP201

CYHM;2009-09-04 12:00;CYHM 041200Z 02006KT 15SM FEW150 FEW240 16/13 A3014 RMK AC1CI1 SLP206

CYHM;2009-09-04 13:00;CYHM 041300Z 02006KT 15SM FEW150 FEW240 18/14 A3014 RMK AC1CI1 AC TR CI TR SLP208

CYHM;2009-09-04 14:00;CYHM 041400Z 02008KT 15SM FEW170 19/14 A3015 RMK AC1 SLP209

CYHM;2009-09-04 15:00;CYHM 041500Z 02004KT 15SM FEW170 FEW240 21/12 A3016 RMK AC1CI1 SLP213

CYHM;2009-09-04 16:00;CYHM 041600Z 05002KT 15SM FEW170 SCT240 22/13 A3016 RMK AC1CI2 SLP214

CYHM;2009-09-04 17:00;CYHM 041700Z 00000KT 15SM FEW045 FEW170 SCT240 23/12 A3015 RMK CU1AC2CI1 CU TR SLP210

CYHM;2009-09-04 18:00;CYHM 041800Z 28007KT 15SM FEW045 FEW100 FEW160 BKN220 23/14 A3013 RMK CU1AC1AC2CI2 CU TR SLP204

CYHM;2009-09-04 19:00;CYHM 041900Z 00000KT 15SM FEW050 FEW160 BKN250 24/15 A3012 RMK CU1AC1CI2 SLP200

CYHM;2009-09-04 20:00;CYHM 042000Z 24007KT 15SM FEW050 FEW160 SCT250 24/14 A3012 RMK CU1AC1CI2 SLP199

CYHM;2009-09-04 21:00;CYHM 042100Z 28003KT 15SM FEW045 FEW190 FEW270 24/12 A3012 RMK CU1AC1CI1 SLP199

CYHM;2009-09-04 22:00;CYHM 042200Z 30002KT 15SM FEW045 FEW170 FEW270 24/13 A3012 RMK CU1AC1CI1 TR CU SLP199

CYHM;2009-09-04 23:00;CYHM 042300Z 00000KT 15SM FEW150 FEW250 23/12 A3012 RMK AC1CI1 TR CI SLP199

CYHM;2009-09-05 00:00;CYHM 050000Z 24003KT 15SM FEW120 FEW250 18/13 A3012 RMK AC1CI1 TR AC SLP200

CYHM;2009-09-05 01:00;CYHM 050100Z 25002KT 15SM FEW100 17/14 A3013 RMK AC1 SLP204

CYHM;2009-09-05 02:00;CYHM 050200Z 00000KT 15SM SKC 16/14 A3014 RMK SLP208

CYHM;2009-09-05 03:00;CYHM 050300Z 26004KT 15SM FEW210 15/12 A3015 RMK CI1 SLP210

CYHM;2009-09-05 04:00;CYHM 050400Z 30002KT 15SM SKC 15/13 A3015 RMK SLP210

CYHM;2009-09-05 05:00;CYHM 050500Z 02006KT 15SM FEW210 15/13 A3017 RMK CI1 SLP215

CYHM;2009-09-05 06:00;CYHM 050600Z 02006KT 15SM SKC 15/13 A3017 RMK SLP215

CYHM;2009-09-05 07:00;CYHM 050700Z 02005KT 15SM SKC 14/13 A3017 RMK SLP214

CYHM;2009-09-05 08:00;CYHM 050800Z 00000KT 15SM SKC 14/13 A3017 RMK SLP215

CYHM;2009-09-05 09:00;CYHM 050900Z 00000KT 15SM FEW053 13/13 A3018 RMK SC2 SLP221

CYHM;2009-09-05 10:00;CYHM 051000Z 00000KT 15SM MIFG FEW055 13/13 A3019 RMK SC1 SLP224

CYHM;2009-09-05 11:00;CYHM 051100Z 00000KT 15SM MIFG FEW055 12/12 A3021 RMK SC1 SLP230

CYHM;2009-09-05 12:00;CYHM 051200Z 00000KT 15SM FEW055 13/13 A3023 RMK SC1 SLP238

CYHM;2009-09-05 13:00;CYHM 051300Z 02002KT 15SM SKC 18/16 A3024 RMK SLP241

CYHM;2009-09-05 14:00;CYHM 051400Z 04002KT 15SM SKC 20/17 A3025 RMK SLP244

CYHM;2009-09-05 15:00;CYHM 051500Z 00000KT 15SM FEW020 21/17 A3026 RMK CU1 SLP246

CYHM;2009-09-05 16:00;CYHM 051600Z 00000KT 15SM FEW028 22/15 A3026 RMK CU2 SLP247

CYHM;2009-09-05 17:00;CYHM 051700Z 32002KT 15SM BKN037 23/16 A3026 RMK CU5 SLP246

CYHM;2009-09-05 18:00;CYHM 051800Z 13002KT 15SM BKN043 24/15 A3025 RMK CU5 WND L/V SLP243

CYHM;2009-09-05 19:00;CYHM 051900Z 07006KT 040V100 15SM FEW037 SCT055 SCT250 24/16 A3025 RMK CU2SC1CI0 SLP242

CYHM;2009-09-05 20:00;CYHM 052000Z 07005KT 15SM FEW037 FEW055 FEW080 SCT250 24/16 A3024 RMK CU2SC1AC1CI0 TCU ASOCTD NW SC T AC TR SLP240

CYHM;2009-09-05 21:00;CYHM 052100Z 07005KT 15SM FEW035 FEW050 23/15 A3024 RMK CU2SC1 SC TR SLP241

CYHM;2009-09-05 22:00;CYHM 052200Z 09004KT 15SM FEW035 FEW050 23/14 A3024 RMK CU1SC1 SC TR SLP240

CYHM;2009-09-05 23:00;CYHM 052300Z 09004KT 15SM FEW035 FEW050 21/16 A3024 RMK CU1SC1 CU TR SC TR SLP240

CYHM;2009-09-06 00:00;CYHM 060000Z 10003KT 15SM FEW035 FEW050 20/16 A3025 RMK CU1SC1 CU TR SC TR SLP243

CYHM;2009-09-06 01:00;CYHM 060100Z 05004KT 15SM SKC 17/16 A3027 RMK SLP250

CYHM;2009-09-06 02:00;CYHM 060200Z 05004KT 15SM FEW060 17/16 A3027 RMK SC1 SC TR SLP250

CYHM;2009-09-06 03:00;CYHM 060300Z 08005KT 4SM BR BKN003 17/17 A3028 RMK SF6 SLP253

CYHM;2009-09-06 04:00;CYHM 060400Z 06003KT 1 1/2SM BR BKN002 17/17 A3029 RMK FG2SF4 VIS VRB 1 - 2 SLP255

CYHM;2009-09-06 04:19;CYHM 060419Z 06004KT 1SM BR BKN002 RMK FG2SF2 VIS VRB 3/4 - 11/4

CYHM;2009-09-06 04:35;CYHM 060435Z 06002KT 3/4SM BR BKN002 RMK FG3SF1 VIS VRB 1/2 - 1

CYHM;2009-09-06 04:44;CYHM 060444Z 06002KT 1/8SM FG BKN002 RMK FG4SF1

CYHM;2009-09-06 05:00;CYHM 060500Z 05002KT 1/8SM FG SKC 17/17 A3030 RMK FG5 SLP259

CYHM;2009-09-06 05:10;CYHM 060510Z 04004KT 1/2SM FG BKN002 RMK FG4SF2

CYHM;2009-09-06 05:20;CYHM 060520Z 05006KT 1 1/2SM BR BKN002 RMK FG2SF6 VIS VRB 1 - 2

CYHM;2009-09-06 05:43;CYHM 060543Z 05005KT 4SM BR BKN002 RMK SF7

CYHM;2009-09-06 06:00;CYHM 060600Z 05005KT 4SM BR SCT003 17/17 A3030 RMK SF2 SLP258

CYHM;2009-09-06 06:16;CYHM 060616Z 05005KT 1 1/2SM BR BKN003 RMK FG2SF2 VIS VRB 1 - 2

CYHM;2009-09-06 06:39;CYHM 060639Z 05003KT 3/4SM BR BKN002 RMK FG3SF4 VIS VRB 1/2 - 1

CYHM;2009-09-06 07:00;CYHM 060700Z 04005KT 3/4SM BR BKN002 17/17 A3030 RMK FG2SF1 VIS VRB 1/2 - 1 SLP258

CYHM;2009-09-06 08:00;CYHM 060800Z 04005KT 3SM BR BKN002 17/17 A3029 RMK SF5 VIS VRB 2 - 4 SLP256

CYHM;2009-09-06 08:34;CYHM 060834Z 05003KT 1 1/2SM BR BKN002 RMK FG2SF6 VIS VRB 1 - 2

CYHM;2009-09-06 08:43;CYHM 060843Z 05006KT 3/4SM BR BKN002 RMK FG3SF4 VIS VRB 1/2 - 1

CYHM;2009-09-06 09:00;CYHM 060900Z CCA 04005KT 3/4SM BR BKN002 17/17 A3030 RMK FG3SF4 VIS VRB 1/2 - 1 SLP259

CYHM;2009-09-06 09:22;CYHM 060922Z 04007KT 1/2SM FG BKN002 RMK FG4SF3

CYHM;2009-09-06 10:00;CYHM 061000Z 04005KT 3/4SM BR BKN002 17/17 A3031 RMK FG3SF4 VIS VRB 1/2 - 1 SLP263

CYHM;2009-09-06 10:13;CYHM 061013Z 04006KT 1 1/4SM BR BKN002 RMK FG2SF4

CYHM;2009-09-06 11:00;CYHM 061100Z 05006KT 1/2SM FG OVC002 17/17 A3032 RMK FG4SF4 SLP267

CYHM;2009-09-06 11:08;CYHM 061108Z 05006KT 1SM BR OVC002 RMK FG2SF6

CYHM;2009-09-06 11:29;CYHM 061129Z 05006KT 1 1/2SM BR BKN002 BKN250 RMK FG2SF3CI1

CYHM;2009-09-06 12:00;CYHM 061200Z 05006KT 1 1/2SM BR OVC002 17/17 A3033 RMK FG2SF6 SLP272

CYHM;2009-09-06 12:22;CYHM 061222Z 05006KT 2SM BR BKN002 BKN250 RMK FG1SF4CI1

CYHM;2009-09-06 12:39;CYHM 061239Z 06005KT 3SM BR FEW002 BKN250 RMK SF2CI2

CYHM;2009-09-06 13:00;CYHM 061300Z 07005KT 8SM FEW003 SCT250 19/18 A3034 RMK SF1CI2 SF TR SLP273

CYHM;2009-09-06 14:00;CYHM 061400Z 09005KT 030V120 15SM BKN250 20/16 A3033 RMK CI2 SLP272

CYHM;2009-09-06 15:00;CYHM 061500Z 09005KT 15SM BKN250 21/16 A3033 RMK CI3 SLP272

CYHM;2009-09-06 16:00;CYHM 061600Z 09007KT 060V140 15SM FEW030 BKN250 22/15 A3033 RMK CU1CI2 CU TR SLP271

CYHM;2009-09-06 17:00;CYHM 061700Z 08010KT 040V130 15SM FEW035 BKN250 23/16 A3032 RMK CU1CI3 CU TR SLP267

CYHM;2009-09-06 18:00;CYHM 061800Z 09007KT 15SM FEW035 SCT250 23/17 A3031 RMK CU1CI2 SLP264

CYHM;2009-09-06 19:00;CYHM 061900Z 06011KT 15SM FEW035 BKN250 23/15 A3030 RMK CU1CI2 SLP258

CYHM;2009-09-06 20:00;CYHM 062000Z 06011KT 030V090 15SM FEW030 BKN250 22/16 A3028 RMK CU1CI2 SLP253

CYHM;2009-09-06 21:00;CYHM 062100Z 07011KT 15SM FEW030 FEW180 SCT250 22/16 A3027 RMK CU1AC1CI2 AC TR SLP249

CYHM;2009-09-06 22:00;CYHM 062200Z 06012KT 15SM FEW030 FEW200 SCT250 21/15 A3026 RMK CU1CC1CI1 SLP248

CYHM;2009-09-06 23:00;CYHM 062300Z 06012KT 15SM FEW030 FEW180 SCT250 19/16 A3026 RMK CU1AC2CI2 CU TR SLP247

CYHM;2009-09-07 00:00;CYHM 070000Z 05010KT 15SM FEW180 SCT220 18/15 A3025 RMK AC1CC2 SLP245

CYHM;2009-09-07 01:00;CYHM 070100Z 05008KT 15SM FEW180 FEW220 18/15 A3025 RMK AC1CC2 AC TR SLP244

CYHM;2009-09-07 02:00;CYHM 070200Z 05007KT 15SM BKN240 17/15 A3024 RMK CC3 SLP242

CYHM;2009-09-07 03:00;CYHM 070300Z 06006KT 15SM BKN240 18/15 A3024 RMK CI7 CC ASOCTD SLP240

CYHM;2009-09-07 04:00;CYHM 070400Z 03006KT 15SM BKN230 17/14 A3023 RMK CI6 SLP237

CYHM;2009-09-07 05:00;CYHM 070500Z 04007KT 15SM OVC210 17/13 A3023 RMK CS6 HALO SLP238

CYHM;2009-09-07 06:00;CYHM 070600Z 05007KT 15SM FEW170 BKN220 16/13 A3022 RMK AC2CI4 SLP233

CYHM;2009-09-07 07:00;CYHM 070700Z 07003KT 15SM BKN200 16/14 A3021 RMK CS6 HALO SLP229

CYHM;2009-09-07 08:00;CYHM 070800Z 04007KT 15SM BKN240 16/14 A3020 RMK CI7 SLP226

CYHM;2009-09-07 09:00;CYHM 070900Z 05007KT 15SM BKN230 16/14 A3019 RMK CI5 SLP222

CYHM;2009-09-07 10:00;CYHM 071000Z 04006KT 15SM BKN180 BKN240 15/14 A3018 RMK AC5CI1 SLP221

CYHM;2009-09-07 11:00;CYHM 071100Z 04006KT 15SM BKN170 BKN240 16/15 A3018 RMK AC5CI1 SLP219

CYHM;2009-09-07 12:00;CYHM 071200Z 03006KT 15SM FEW170 BKN240 16/15 A3018 RMK AC2CI3 SLP220

CYHM;2009-09-07 13:00;CYHM 071300Z 05008KT 15SM FEW140 OVC240 18/16 A3018 RMK AC2CI4 CONTRAIL SLP220

CYHM;2009-09-07 14:00;CYHM 071400Z 04006KT 15SM FEW150 OVC220 19/16 A3018 RMK AC2CI5 SLP221

CYHM;2009-09-07 15:00;CYHM 071500Z 05002KT 15SM SCT180 BKN220 21/17 A3018 RMK AC3CI3 SLP220

CYHM;2009-09-07 16:00;CYHM 071600Z 09004KT 15SM FEW017 FEW064 SCT150 BKN220 22/18 A3018 RMK CU2SC1AC1CI2 SLP218

CYHM;2009-09-07 17:00;CYHM 071700Z 07002KT 15SM FEW018 FEW060 BKN220 22/18 A3017 RMK CU2SC1CI1 SLP214

CYHM;2009-09-07 18:00;CYHM 071800Z 06008KT 15SM FEW022 SCT058 BKN220 22/18 A3015 RMK CU2SC2CI1 SLP210

CYHM;2009-09-07 19:00;CYHM 071900Z 10007KT 060V140 12SM FEW022 BKN037 BKN150 23/19 A3014 RMK CU2SC2AC1 AC TR SLP205

CYHM;2009-09-07 20:00;CYHM 072000Z 08007KT 050V110 12SM SCT022 BKN035 BKN072 22/18 A3013 RMK CU3SC2AC2 SLP203

CYHM;2009-09-07 21:00;CYHM 072100Z 06008KT 12SM FEW022 SCT035 BKN072 22/18 A3012 RMK CU2SC2AC1 SLP200

CYHM;2009-09-07 22:00;CYHM 072200Z 06008KT 030V090 12SM FEW022 FEW035 FEW078 BKN250 21/18 A3012 RMK CU1SC1AC1CI2 SLP199

CYHM;2009-09-07 23:00;CYHM 072300Z 07007KT 12SM FEW030 FEW180 BKN250 20/17 A3012 RMK SC1AC1CI2 SLP198

CYHM;2009-09-08 00:00;CYHM 080000Z 07005KT 12SM FEW025 BKN076 BKN250 19/17 A3013 RMK SC1AC5CI1 SLP202

CYHM;2009-09-08 01:00;CYHM 080100Z 08004KT 12SM FEW025 BKN082 18/17 A3013 RMK SC1AC6 SC TR SLP205

CYHM;2009-09-08 02:00;CYHM 080200Z 05005KT 10SM FEW052 SCT082 BKN250 18/17 A3013 RMK SC2AC1CI2 SLP202

CYHM;2009-09-08 03:00;CYHM 080300Z 07004KT 7SM FEW055 SCT070 BKN250 17/17 A3013 RMK SC1AC2CI2 SLP202

CYHM;2009-09-08 04:00;CYHM 080400Z 04006KT 3SM BR FEW022 BKN042 BKN210 18/17 A3012 RMK CF2SC3CI1 VIS VRB 2 - 4 SLP198

CYHM;2009-09-08 04:35;CYHM 080435Z 05005KT 2SM BR FEW040 RMK FG1SC1

CYHM;2009-09-08 04:46;CYHM 080446Z 04004KT 1 1/2SM BR BKN003 RMK FG2SF6 VIS VRB 1 - 2

CYHM;2009-09-08 05:00;CYHM 080500Z 03005KT 1 1/2SM BR BKN003 18/18 A3012 RMK FG2SF6 VIS VRB 1 - 2 SLP198

CYHM;2009-09-08 06:00;CYHM 080600Z 04007KT 1 1/2SM BR BKN003 19/18 A3012 RMK FG2SF6 VIS VRB 1 - 2 SLP197

CYHM;2009-09-08 06:26;CYHM 080626Z 05005KT 3SM BR BKN005 RMK SF7 VIS VRB 2 - 4

CYHM;2009-09-08 07:00;CYHM 080700Z 07005KT 1 1/2SM BR OVC004 19/18 A3012 RMK FG2SF6 VIS VRB 1 - 2 SLP198

CYHM;2009-09-08 08:00;CYHM 080800Z 04005KT 1 1/2SM BR OVC007 19/18 A3012 RMK FG2SF6 VIS VRB 1 - 2 CIG RAG SLP198

CYHM;2009-09-08 09:00;CYHM 080900Z 03005KT 1 1/2SM BR OVC004 18/18 A3011 RMK FG2SF6 VIS VRB 1 - 2 SLP196

CYHM;2009-09-08 10:00;CYHM 081000Z 05004KT 1 1/2SM BR OVC003 18/18 A3012 RMK FG2SF6 VIS VRB 1 - 2 SLP197

CYHM;2009-09-08 11:00;CYHM 081100Z 04006KT 1 1/2SM BR OVC004 18/18 A3018 RMK FG2SF6 VIS VRB 1-2SM SLP219

CYHM;2009-09-08 12:00;CYHM 081200Z 03008KT 1 1/2SM BR BKN008 BKN015 OVC023 18/18 A3013 RMK FG2SF3SC2SC1 SLP204

CYHM;2009-09-08 13:00;CYHM 081300Z 03006KT 2SM BR OVC004 19/18 A3014 RMK FG2SF6 SLP207

CYHM;2009-09-08 13:39;CYHM 081339Z 04010KT 5SM BR SCT008 BKN014 OVC041 RMK SF3SC3SC2

CYHM;2009-09-08 14:00;CYHM 081400Z 06008KT 4SM BR FEW008 SCT018 BKN039 20/19 A3015 RMK SF2SC2SC3 SLP209

CYHM;2009-09-08 15:00;CYHM 081500Z 06010KT 4SM BR FEW008 BKN025 BKN064 BKN210 20/19 A3016 RMK SF2SC3SC2CI1 SLP211

CYHM;2009-09-08 16:00;CYHM 081600Z 03010KT 5SM BR FEW010 BKN025 BKN097 21/19 A3016 RMK SF2SC4AC2 SLP211

CYHM;2009-09-08 17:00;CYHM 081700Z 08006KT 7SM FEW015 BKN023 BKN095 21/18 A3014 RMK CU2SC4AC2 SLP207

CYHM;2009-09-08 18:00;CYHM 081800Z 07010KT 15SM FEW013 SCT025 BKN092 21/19 A3013 RMK CU2SC2AC3 SLP204

CYHM;2009-09-08 19:00;CYHM 081900Z 07008KT 15SM SCT017 BKN089 BKN190 22/19 A3013 RMK CU4AC1AC1 SLP201

CYHM;2009-09-08 20:00;CYHM 082000Z 07010KT 15SM FEW020 FEW190 FEW250 23/18 A3011 RMK CU1AC2CI1 CI TR SLP195

CYHM;2009-09-08 21:00;CYHM 082100Z 09006KT 15SM FEW190 22/18 A3011 RMK AC1 SLP194

CYHM;2009-09-08 22:00;CYHM 082200Z 07008KT 15SM FEW091 21/17 A3011 RMK AC1 SLP194

CYHM;2009-09-08 23:00;CYHM 082300Z 06007KT 15SM SCT088 21/17 A3010 RMK AC3 SLP193

CYHM;2009-09-09 00:00;CYHM 090000Z 06005KT 15SM FEW088 19/17 A3010 RMK AC1 SLP194

CYHM;2009-09-09 01:00;CYHM 090100Z 04005KT 15SM SKC 18/17 A3011 RMK SLP196

CYHM;2009-09-09 02:00;CYHM 090200Z 06005KT 15SM SKC 17/16 A3013 RMK SLP202

CYHM;2009-09-09 03:00;CYHM 090300Z 04005KT 12SM SKC 17/16 A3013 RMK SLP202

CYHM;2009-09-09 04:00;CYHM 090400Z 06003KT 1SM BR SKC 17/16 A3013 RMK FG2 SLP203

CYHM;2009-09-09 04:12;CYHM 090412Z 06003KT 5/8SM BR SKC RMK FG2

CYHM;2009-09-09 04:39;CYHM 090439Z 04005KT 1/2SM FG FEW001 RMK FG2SF1

CYHM;2009-09-09 05:00;CYHM 090500Z 03005KT 1 1/4SM BR FEW001 17/17 A3014 RMK FG1SF1 SLP207

CYHM;2009-09-09 05:43;CYHM 090543Z 03006KT 6SM BR SCT250 RMK CI2

CYHM;2009-09-09 06:00;CYHM 090600Z 03006KT 9SM BKN250 17/16 A3015 RMK CI2 SLP209

CYHM;2009-09-09 07:00;CYHM 090700Z 03006KT 15SM BKN250 16/14 A3015 RMK CI4 SLP208

CYHM;2009-09-09 08:00;CYHM 090800Z 03006KT 15SM BKN250 16/14 A3016 RMK CS5 HALO SLP211

CYHM;2009-09-09 09:00;CYHM 090900Z 04005KT 15SM BKN250 16/14 A3017 RMK CS5 HALO SLP214

CYHM;2009-09-09 10:00;CYHM 091000Z 04004KT 15SM BKN250 15/14 A3017 RMK CS2 SLP216

CYHM;2009-09-09 11:00;CYHM 091100Z 04006KT 15SM FEW160 BKN220 15/14 A3019 RMK AC2CI3 SLP221

CYHM;2009-09-09 12:00;CYHM 091200Z 03006KT 15SM FEW160 BKN220 16/15 A3020 RMK AC2CI3 SLP227

CYHM;2009-09-09 13:00;CYHM 091300Z 05006KT 15SM FEW160 BKN220 18/17 A3022 RMK AC2CI2 SLP233

CYHM;2009-09-09 14:00;CYHM 091400Z 04009KT 15SM FEW030 FEW160 BKN220 20/18 A3023 RMK CU1AC2CI3 CU TR SLP236

CYHM;2009-09-09 15:00;CYHM 091500Z 06008KT 15SM FEW018 FEW150 BKN220 22/19 A3023 RMK CU2AC1CI2 SLP237

CYHM;2009-09-09 16:00;CYHM 091600Z 07010KT 15SM FEW014 SCT018 SCT100 BKN220 21/18 A3024 RMK CU2SC2AC1CI2 SLP239

CYHM;2009-09-09 17:00;CYHM 091700Z 04012KT 15SM BKN014 BKN100 21/18 A3023 RMK SC5AC2 CU ASOCTD SLP238

CYHM;2009-09-09 18:00;CYHM 091800Z 07010KT 15SM FEW017 FEW023 BKN210 21/19 A3023 RMK CU2SC1CI2 SLP237

CYHM;2009-09-09 19:00;CYHM 091900Z 06010KT 15SM FEW020 FEW085 SCT180 BKN210 22/17 A3022 RMK CU1AC1AC2CI2 SLP232

CYHM;2009-09-09 20:00;CYHM 092000Z 08008KT 15SM FEW030 FEW160 BKN210 23/16 A3022 RMK CU1AC2CI3 CU TR SLP233

CYHM;2009-09-09 21:00;CYHM 092100Z 05010KT 15SM FEW160 BKN210 22/15 A3022 RMK AC1CI3 SLP232

CYHM;2009-09-09 22:00;CYHM 092200Z 05008KT 15SM FEW160 BKN250 21/15 A3022 RMK AC1CS6 AC TR SUN DML VSBL SLP234

CYHM;2009-09-09 23:00;CYHM 092300Z 06011KT 15SM FEW190 BKN250 19/17 A3023 RMK AC1CS5 CC ASOCTD SLP237

CYHM;2009-09-10 00:00;CYHM 100000Z 05010KT 15SM BKN250 19/16 A3024 RMK CI3 SLP240

CYHM;2009-09-10 01:00;CYHM 100100Z 06005KT 15SM BKN240 18/15 A3024 RMK CI2 SLP242

CYHM;2009-09-10 02:00;CYHM 100200Z 08005KT 15SM BKN220 17/13 A3026 RMK CI2 SLP246

CYHM;2009-09-10 03:00;CYHM 100300Z 07005KT 15SM BKN220 16/14 A3026 RMK CI2 SLP248

CYHM;2009-09-10 04:00;CYHM 100400Z 04006KT 15SM SCT240 16/14 A3028 RMK CI2 SLP254

CYHM;2009-09-10 05:00;CYHM 100500Z 06006KT 15SM BKN042 16/13 A3028 RMK SC6 SLP253

CYHM;2009-09-10 06:00;CYHM 100600Z 06007KT 15SM FEW040 SCT240 16/13 A3028 RMK SC2CI1 SLP255

CYHM;2009-09-10 07:00;CYHM 100700Z 06008KT 15SM SCT044 17/13 A3027 RMK SC3 SLP252

CYHM;2009-09-10 08:00;CYHM 100800Z 05007KT 15SM FEW048 FEW250 16/14 A3028 RMK SC1CI1 SC TR SLP254

CYHM;2009-09-10 09:00;CYHM 100900Z 05008KT 15SM FEW050 FEW250 16/14 A3029 RMK SC1CI0 SC TR SLP257

CYHM;2009-09-10 10:00;CYHM 101000Z 05007KT 15SM FEW048 FEW250 16/15 A3030 RMK CF1CI1 CUFRA TR SLP259

CYHM;2009-09-10 11:00;CYHM 101100Z 06008KT 15SM FEW020 FEW220 16/15 A3032 RMK CU1CI1 CONTRAIL SLP265

CYHM;2009-09-10 12:00;CYHM 101200Z 02006KT 15SM FEW025 FEW240 16/15 A3033 RMK SC1CI1 SLP271

CYHM;2009-09-10 13:00;CYHM 101300Z 06008KT 15SM FEW025 FEW220 18/16 A3034 RMK SC1CI1 CU ASOCTD SLP275

CYHM;2009-09-10 14:00;CYHM 101400Z 05008KT 15SM FEW025 FEW085 FEW220 20/16 A3034 RMK CU1AC1CI1 CU TR SLP275

CYHM;2009-09-10 15:00;CYHM 101500Z 05006KT 15SM FEW025 FEW220 21/16 A3034 RMK CU1CI1 CU TR SLP273

CYHM;2009-09-10 16:00;CYHM 101600Z 08004KT 15SM FEW025 FEW120 SCT220 22/17 A3034 RMK CU1AC1CI1 SLP273

CYHM;2009-09-10 17:00;CYHM 101700Z 07002KT 15SM FEW028 FEW160 FEW220 23/18 A3033 RMK CU1AC1CI0 TCU ASOCTD S-SE AC TR CI TR SLP270

CYHM;2009-09-10 18:00;CYHM 101800Z 07008KT 15SM FEW024TCU BKN070 22/17 A3033 RMK TCU2AC3 SLP269

CYHM;2009-09-10 19:00;CYHM 101900Z 05007KT 15SM FEW026TCU FEW074 SCT220 SCT260 23/18 A3032 RMK TCU1AC2CC1CI1 CI TR SLP267

CYHM;2009-09-10 20:00;CYHM 102000Z 07012KT 15SM FEW026TCU FEW074 SCT250 23/17 A3031 RMK TCU1AC2CI0 SLP265

CYHM;2009-09-10 21:00;CYHM 102100Z 05012KT 15SM FEW028TCU FEW080 SCT250 22/16 A3031 RMK TCU1AC2CI0 TCU TR SLP263

CYHM;2009-09-10 22:00;CYHM 102200Z 05015KT 15SM FEW026 FEW080 SCT250 21/14 A3031 RMK SC1AC2CI2 SC TR SLP264

CYHM;2009-09-10 23:00;CYHM 102300Z 06013KT 15SM FEW026TCU FEW084 SCT220 BKN260 19/13 A3032 RMK TCU1AC2CC1CI1 TCU TR SLP268

CYHM;2009-09-11 00:00;CYHM 110000Z 05010KT 15SM FEW090 SCT220 BKN260 18/12 A3033 RMK AC1CC2CI1 SLP270

CYHM;2009-09-11 01:00;CYHM 110100Z 05008KT 15SM FEW220 FEW260 17/13 A3033 RMK CC1CI1 SLP270

CYHM;2009-09-11 02:00;CYHM 110200Z 03007KT 15SM FEW220 17/14 A3033 RMK CI1 SLP270

CYHM;2009-09-11 03:00;CYHM 110300Z 03003KT 15SM FEW250 15/13 A3031 RMK CI1 SLP265

CYHM;2009-09-11 04:00;CYHM 110400Z 05003KT 15SM BKN170 16/10 A3031 RMK AC4 SLP263

CYHM;2009-09-11 05:00;CYHM 110500Z 03003KT 15SM FEW160 BKN250 14/11 A3030 RMK AC1CI2 SLP259

CYHM;2009-09-11 06:00;CYHM 110600Z 02004KT 15SM FEW170 BKN250 14/11 A3029 RMK AC1CI2 AC TR SLP258

CYHM;2009-09-11 07:00;CYHM 110700Z 04004KT 15SM BKN150 BKN240 13/12 A3028 RMK AC5CI1 SLP255

CYHM;2009-09-11 08:00;CYHM 110800Z 07006KT 15SM BKN190 BKN240 13/11 A3029 RMK AC5CS1 SLP258

CYHM;2009-09-11 09:00;CYHM 110900Z 03003KT 15SM FEW190 BKN240 13/10 A3029 RMK AC2CI2 SLP258

CYHM;2009-09-11 10:00;CYHM 111000Z 02004KT 15SM BKN190 BKN240 12/10 A3029 RMK AC6CI1 SLP257

CYHM;2009-09-11 11:00;CYHM 111100Z 05006KT 15SM SCT160 BKN210 13/11 A3030 RMK AC4CI2 SLP259

CYHM;2009-09-11 12:00;CYHM 111200Z 03004KT 15SM SCT160 BKN210 14/13 A3030 RMK AC3CI2 SLP260

CYHM;2009-09-11 13:00;CYHM 111300Z 05004KT 15SM SCT160 OVC210 16/14 A3030 RMK AC3CI5 SLP260

CYHM;2009-09-11 14:00;CYHM 111400Z 08006KT 15SM BKN170 OVC210 17/14 A3029 RMK AC6CI2 SLP258

CYHM;2009-09-11 15:00;CYHM 111500Z 07006KT 15SM FEW120 BKN150 OVC210 18/13 A3028 RMK AC1AC6CI2 SLP256

CYHM;2009-09-11 16:00;CYHM 111600Z 07010KT 15SM FEW030 BKN130 OVC210 19/12 A3027 RMK CU1AC5CI2 SLP252

CYHM;2009-09-11 17:00;CYHM 111700Z 08011KT 15SM FEW030 BKN150 OVC210 19/11 A3026 RMK CU1AC6CI2 SLP250

CYHM;2009-09-11 18:00;CYHM 111800Z 08012KT 15SM BKN130 OVC160 18/10 A3026 RMK AC6AC2 SLP247

CYHM;2009-09-11 19:00;CYHM 111900Z 06010KT 15SM -SHRA FEW050 OVC095 17/12 A3024 RMK CU2AC6 SLP243

CYHM;2009-09-11 20:00;CYHM 112000Z 05012KT 15SM FEW025 SCT090 OVC140 18/12 A3022 RMK CF2AC2AC4 SLP235

CYHM;2009-09-11 21:00;CYHM 112100Z 06013KT 15SM FEW090 OVC200 17/11 A3021 RMK AC2CI5 SLP233

CYHM;2009-09-11 22:00;CYHM 112200Z 05013KT 15SM FEW120 OVC200 17/11 A3021 RMK AC2CI5 SLP232

CYHM;2009-09-11 23:00;CYHM 112300Z 07009KT 15SM FEW120 BKN200 17/11 A3020 RMK AC2CI6 SLP230

CYHM;2009-09-12 00:00;CYHM 120000Z 06007KT 15SM BKN180 15/10 A3020 RMK AC7 SLP230

CYHM;2009-09-12 01:00;CYHM 120100Z 03005KT 15SM SCT160 14/10 A3020 RMK AC2 SLP230

CYHM;2009-09-12 02:00;CYHM 120200Z 03005KT 15SM FEW190 13/11 A3020 RMK AC2 SLP228

CYHM;2009-09-12 03:00;CYHM 120300Z 03007KT 15SM BKN190 13/12 A3018 RMK AC4 SLP222

CYHM;2009-09-12 04:00;CYHM 120400Z 01007KT 15SM SCT210 13/12 A3016 RMK CI3 SLP215

CYHM;2009-09-12 05:00;CYHM 120500Z 02006KT 15SM SCT210 13/11 A3016 RMK CI2 SLP213

CYHM;2009-09-12 06:00;CYHM 120600Z 35005KT 15SM SCT210 12/11 A3016 RMK CI2 SLP215

CYHM;2009-09-12 07:00;CYHM 120700Z 36005KT 15SM SCT180 12/10 A3015 RMK AC3 SLP211

CYHM;2009-09-12 08:00;CYHM 120800Z 00000KT 15SM BKN170 12/10 A3014 RMK AC7 SLP209

CYHM;2009-09-12 09:00;CYHM 120900Z 34006KT 15SM BKN120 BKN160 12/10 A3014 RMK AC6AC1 SLP207

CYHM;2009-09-12 10:00;CYHM 121000Z 35004KT 15SM FEW120 BKN160 13/10 A3013 RMK AC2AC3 SLP205

CYHM;2009-09-12 11:00;CYHM 121100Z 32004KT 15SM FEW140 BKN170 BKN250 12/10 A3014 RMK AC2AC2CI1 SLP209

CYHM;2009-09-12 12:00;CYHM 121200Z 36004KT 15SM FEW140 SCT170 BKN250 14/12 A3014 RMK AC1AC2CI2 SLP210

CYHM;2009-09-12 13:00;CYHM 121300Z 36004KT 15SM FEW040 FEW170 BKN250 16/13 A3015 RMK SC2AC1CI3 SLP212

CYHM;2009-09-12 14:00;CYHM 121400Z 03006KT 15SM SCT078 SCT170 BKN250 17/14 A3014 RMK AC3AC1CI2 SLP209

CYHM;2009-09-12 15:00;CYHM 121500Z 02010KT 350V070 15SM FEW030 BKN080 BKN250 19/13 A3014 RMK CU1AC6CI1 CU TR SLP206

CYHM;2009-09-12 16:00;CYHM 121600Z 05011KT 360V090 15SM FEW040 SCT078 BKN250 20/12 A3012 RMK CU1AC3CI2 CU TR SLP201

CYHM;2009-09-12 17:00;CYHM 121700Z CCA 06008KT 15SM FEW040 SCT080 BKN250 21/13 A3011 RMK CU1AC3CI2 CU TR SLP197

CYHM;2009-09-12 18:00;CYHM 121800Z 07005KT 15SM FEW080 BKN250 21/13 A3010 RMK AC2CI2 SLP193

CYHM;2009-09-12 19:00;CYHM 121900Z 07004KT 15SM FEW080 BKN250 21/13 A3008 RMK AC1CI2 SLP186

CYHM;2009-09-12 20:00;CYHM 122000Z 03003KT 15SM FEW080 SCT250 22/13 A3007 RMK AC1CI2 AC TR SLP184

CYHM;2009-09-12 21:00;CYHM 122100Z 28003KT 15SM FEW080 FEW250 22/12 A3007 RMK AC1CI1 AC TR SLP182

CYHM;2009-09-12 22:00;CYHM 122200Z 26002KT 15SM FEW080 FEW250 23/14 A3006 RMK AC1CI1 AC TR WND L/V SLP180

CYHM;2009-09-12 23:00;CYHM 122300Z 00000KT 15SM FEW080 FEW250 21/13 A3007 RMK AC1CI1 AC TR SLP181

CYHM;2009-09-13 00:00;CYHM 130000Z 00000KT 15SM FEW250 19/13 A3007 RMK CI1 SLP182

CYHM;2009-09-13 01:00;CYHM 130100Z 00000KT 15SM SKC 16/13 A3007 RMK SLP182

CYHM;2009-09-13 02:00;CYHM 130200Z 00000KT 15SM FEW200 15/12 A3007 RMK CI1 CI TR SLP183

CYHM;2009-09-13 03:00;CYHM 130300Z 35004KT 15SM FEW220 13/11 A3007 RMK CI2 SLP184

CYHM;2009-09-13 04:00;CYHM 130400Z 00000KT 15SM FEW220 13/11 A3007 RMK CI1 SLP185

CYHM;2009-09-13 05:00;CYHM 130500Z 32006KT 15SM FEW200 13/11 A3007 RMK CI1 SLP184

CYHM;2009-09-13 06:00;CYHM 130600Z 31005KT 15SM SKC 13/11 A3008 RMK SLP186

CYHM;2009-09-13 07:00;CYHM 130700Z 26004KT 15SM SKC 12/10 A3007 RMK SLP182

CYHM;2009-09-13 08:00;CYHM 130800Z 24003KT 15SM FEW200 10/10 A3006 RMK CI1 SLP180

CYHM;2009-09-13 09:00;CYHM 130900Z 25003KT 15SM SKC 09/09 A3005 RMK SLP177

CYHM;2009-09-13 10:00;CYHM 131000Z 27005KT 15SM FEW070 FEW220 11/11 A3004 RMK AC1CI1 SLP175

CYHM;2009-09-13 11:00;CYHM 131100Z 27006KT 15SM FEW046 FEW230 12/12 A3005 RMK SC1CI0 SLP177

CYHM;2009-09-13 12:00;CYHM 131200Z 27005KT 15SM FEW230 12/12 A3005 RMK CI0 SLP178

CYHM;2009-09-13 13:00;CYHM 131300Z 28005KT 15SM FEW040 FEW230 15/14 A3006 RMK SC1CI1 SC TR SLP179

CYHM;2009-09-13 13:41;CYHM 131341Z 30006KT 250V360 15SM BKN009 RMK CF5

CYHM;2009-09-13 14:00;CYHM 131400Z 31010KT 15SM FEW008 SCT080 18/17 A3006 RMK CF2AC1 SLP179

CYHM;2009-09-13 15:00;CYHM 131500Z 31007KT 270V360 15SM FEW012 BKN054 21/18 A3006 RMK CF1SC4 SLP178

CYHM;2009-09-13 16:00;CYHM 131600Z 30007KT 260V360 15SM BKN019 BKN055 22/18 A3006 RMK SC6SC1 SLP178

CYHM;2009-09-13 17:00;CYHM 131700Z 30008KT 15SM BKN026 BKN250 23/18 A3005 RMK SC5CI0 SLP177

CYHM;2009-09-13 18:00;CYHM 131800Z 29008KT 15SM BKN026 BKN250 24/18 A3004 RMK SC5CI0 SLP171

CYHM;2009-09-13 19:00;CYHM 131900Z 28008KT 250V310 15SM SCT032 BKN054 BKN250 24/17 A3002 RMK CU4SC1CI1 SLP164

CYHM;2009-09-13 20:00;CYHM 132000Z 31008KT 15SM SCT035 BKN250 24/15 A3001 RMK CU4CI1 SLP160

CYHM;2009-09-13 21:00;CYHM 132100Z 32009KT 15SM FEW035 SCT250 24/14 A3000 RMK CU2CI1 SLP158

CYHM;2009-09-13 22:00;CYHM 132200Z 32009KT 15SM FEW037 SCT250 23/14 A3000 RMK CU2CI1 SLP159

CYHM;2009-09-13 23:00;CYHM 132300Z 33007KT 15SM FEW035 SCT250 21/13 A3001 RMK CU1CI2 SLP162

CYHM;2009-09-14 00:00;CYHM 140000Z 32006KT 15SM FEW030 SCT250 19/13 A3001 RMK CU1CI2 CU TR SLP162

CYHM;2009-09-14 01:00;CYHM 140100Z 32006KT 15SM FEW250 19/14 A3002 RMK CI1 SLP167

CYHM;2009-09-14 02:00;CYHM 140200Z 31004KT 15SM FEW220 16/13 A3003 RMK CI1 CI TR SLP168

CYHM;2009-09-14 03:00;CYHM 140300Z 33005KT 15SM FEW220 16/13 A3002 RMK CI1 SLP166

CYHM;2009-09-14 04:00;CYHM 140400Z 22003KT 15SM SKC 14/13 A3003 RMK SLP167

CYHM;2009-09-14 05:00;CYHM 140500Z 00000KT 15SM FEW210 14/13 A3002 RMK CI1 SLP166

CYHM;2009-09-14 06:00;CYHM 140600Z 00000KT 15SM SKC 13/13 A3002 RMK SLP165

CYHM;2009-09-14 07:00;CYHM 140700Z 34006KT 15SM SKC 13/13 A3002 RMK SLP164

CYHM;2009-09-14 08:00;CYHM 140800Z 28005KT 15SM MIFG SKC 13/13 A3002 RMK SLP164

CYHM;2009-09-14 09:00;CYHM 140900Z 30005KT 12SM BKN031 12/12 A3002 RMK SC5 SLP164

CYHM;2009-09-14 09:12;CYHM 140912Z 29004KT 10SM SCT002 OVC030 RMK SF3SC5

CYHM;2009-09-14 09:36;CYHM 140936Z 29004KT 3SM BR BKN002 BKN030 RMK SF6SC2 VIS LWR SE VIS VRB 2 - 4

CYHM;2009-09-14 10:00;CYHM 141000Z 29005KT 4SM BR BKN002 BKN032 13/13 A3003 RMK SF6SC2 SLP167

CYHM;2009-09-14 10:43;CYHM 141043Z 29006KT 15SM BKN032 RMK SC7

CYHM;2009-09-14 11:00;CYHM 141100Z 28006KT 15SM BKN032 14/14 A3003 RMK SC6 SLP169

CYHM;2009-09-14 11:52;CYHM 141152Z 24008KT 1/8SM FG VV001 RMK FG8

CYHM;2009-09-14 12:00;CYHM 141200Z 26006KT 1/8SM FG VV001 14/14 A3004 RMK FG8 SLP171

CYHM;2009-09-14 13:00;CYHM 141300Z 26006KT 1/2SM FG VV001 14/14 A3004 RMK FG8 SLP172

CYHM;2009-09-14 13:06;CYHM 141306Z 26005KT 1SM BR BKN002 BKN020 RMK FG3SF2SC2

CYHM;2009-09-14 13:13;CYHM 141313Z 26005KT 1 1/2SM BR BKN002 BKN042 RMK FG1SF4SC2

CYHM;2009-09-14 13:20;CYHM 141320Z 26005KT 3SM BR BKN003 BKN042 RMK SF5SC2

CYHM;2009-09-14 14:00;CYHM 141400Z 24008KT 6SM BR BKN004 BKN044 16/16 A3004 RMK SF5SC2 SLP172

CYHM;2009-09-14 15:00;CYHM 141500Z 25005KT 15SM FEW016 BKN042 18/17 A3003 RMK SC2SC6 SLP170

CYHM;2009-09-14 16:00;CYHM 141600Z 27008KT 15SM FEW022 BKN047 21/17 A3002 RMK CU2SC4 SLP166

CYHM;2009-09-14 17:00;CYHM 141700Z 27008KT 15SM FEW032 BKN042 22/16 A3000 RMK CU2SC3 SLP159

CYHM;2009-09-14 18:00;CYHM 141800Z 27012KT 15SM SCT038 23/15 A2997 RMK CU3 SC ASOCTD SLP150

CYHM;2009-09-14 19:00;CYHM 141900Z 28013KT 15SM SCT042 24/15 A2996 RMK CU3 SLP144

CYHM;2009-09-14 20:00;CYHM 142000Z 28013KT 15SM FEW044 24/15 A2995 RMK CU2 SLP141

CYHM;2009-09-14 21:00;CYHM 142100Z 28012KT 15SM FEW046 23/14 A2994 RMK CU2 SLP139

CYHM;2009-09-14 22:00;CYHM 142200Z 29010KT 15SM FEW046 23/14 A2994 RMK CU1 SLP140

CYHM;2009-09-14 23:00;CYHM 142300Z 28006KT 15SM FEW044 22/14 A2994 RMK CU1 CU TR SLP140

CYHM;2009-09-15 00:00;CYHM 150000Z 27003KT 15SM FEW250 20/14 A2995 RMK CI1 CI TR SLP143

CYHM;2009-09-15 01:00;CYHM 150100Z 26004KT 15SM FEW250 18/14 A2996 RMK CI1 CI TR SLP147

CYHM;2009-09-15 02:00;CYHM 150200Z 26005KT 15SM FEW250 17/14 A2996 RMK CI1 SLP147

CYHM;2009-09-15 03:00;CYHM 150300Z 24003KT 15SM BKN250 15/14 A2997 RMK CI1 SLP150

CYHM;2009-09-15 04:00;CYHM 150400Z 25004KT 15SM BKN250 15/14 A2997 RMK CI2 SLP150

CYHM;2009-09-15 05:00;CYHM 150500Z 25006KT 15SM BKN250 16/15 A2997 RMK CI2 SLP151

CYHM;2009-09-15 06:00;CYHM 150600Z 28004KT 15SM BKN250 16/15 A2997 RMK CI2 SLP148

CYHM;2009-09-15 07:00;CYHM 150700Z 26007KT 15SM SCT250 16/14 A2996 RMK CI2 SLP145

CYHM;2009-09-15 08:00;CYHM 150800Z 27004KT 15SM BKN250 15/14 A2996 RMK CI2 SLP144

CYHM;2009-09-15 09:00;CYHM 150900Z 30004KT 15SM BKN250 15/14 A2996 RMK CI2 SLP144

CYHM;2009-09-15 10:00;CYHM 151000Z 31007KT 15SM BKN250 16/15 A2996 RMK CI2 SLP145

CYHM;2009-09-15 11:00;CYHM 151100Z 29004KT 15SM SCT056 SCT120 BKN220 15/14 A2998 RMK SC3AC1CI1 SLP150

CYHM;2009-09-15 12:00;CYHM 151200Z 29002KT 15SM BKN063 BKN180 BKN220 15/15 A3000 RMK SC5AC1CI1 SLP157

CYHM;2009-09-15 13:00;CYHM 151300Z 36005KT 15SM FEW062 BKN220 18/16 A3001 RMK SC2CI2 SLP161

CYHM;2009-09-15 14:00;CYHM 151400Z 02008KT 15SM FEW014 BKN030 BKN220 19/16 A3002 RMK CU2SC2CI2 SLP165

CYHM;2009-09-15 15:00;CYHM 151500Z 06006KT 15SM FEW016 SCT030 BKN220 20/16 A3003 RMK CU2SC1CI1 SLP168

CYHM;2009-09-15 16:00;CYHM 151600Z 03008KT 15SM FEW025 SCT030 21/16 A3004 RMK CU2SC2 CI TR SLP171

CYHM;2009-09-15 17:00;CYHM 151700Z 07008KT 15SM FEW028 SCT035 SCT220 21/15 A3004 RMK CU2SC2CI0 CI TR SLP171

CYHM;2009-09-15 18:00;CYHM 151800Z 03002KT 15SM FEW030 SCT063 22/13 A3003 RMK CU2SC2 WND L/V SLP168

CYHM;2009-09-15 19:00;CYHM 151900Z 35002KT 15SM SCT045 BKN078 22/12 A3002 RMK SC3AC2 WND L/V SLP166

CYHM;2009-09-15 20:00;CYHM 152000Z 00000KT 15SM FEW048 SCT076 23/13 A3003 RMK SC2AC2 CU ASOCTD SLP167

CYHM;2009-09-15 21:00;CYHM 152100Z 33002KT 15SM FEW070 BKN084 23/12 A3003 RMK AC2AC3 SLP167

CYHM;2009-09-15 22:00;CYHM 152200Z 02006KT 15SM BKN062 BKN085 21/13 A3004 RMK SC6AC2 SLP172

CYHM;2009-09-15 23:00;CYHM 152300Z 05005KT 15SM SCT062 19/12 A3007 RMK SC3 SLP182

CYHM;2009-09-16 00:00;CYHM 160000Z 01007KT 15SM FEW060 17/12 A3009 RMK SC2 SLP190

CYHM;2009-09-16 01:00;CYHM 160100Z 02011KT 15SM FEW048 16/08 A3012 RMK SC1 SC TR SLP200

CYHM;2009-09-16 02:00;CYHM 160200Z 02008KT 15SM FEW022 14/09 A3013 RMK SC1 SLP203

CYHM;2009-09-16 03:00;CYHM 160300Z 02009KT 15SM SCT026 14/10 A3014 RMK SC3 SLP208

CYHM;2009-09-16 04:00;CYHM 160400Z 08015KT 15SM BKN018 15/12 A3016 RMK SC7 SLP213

CYHM;2009-09-16 05:00;CYHM 160500Z 05015G22KT 15SM BKN018 14/11 A3018 RMK SC7 SLP220

CYHM;2009-09-16 06:00;CYHM 160600Z 04013KT 15SM BKN020 14/10 A3020 RMK SC7 SLP226

CYHM;2009-09-16 07:00;CYHM 160700Z 02013KT 15SM OVC018 13/09 A3020 RMK SC8 SLP228

CYHM;2009-09-16 08:00;CYHM 160800Z 01009KT 15SM FEW018 OVC038 12/08 A3021 RMK SC2SC6 SLP231

CYHM;2009-09-16 09:00;CYHM 160900Z 03010KT 15SM FEW020 SCT028 10/08 A3022 RMK SF1SC3 SLP235

CYHM;2009-09-16 10:00;CYHM 161000Z 02011KT 15SM SCT012 10/08 A3023 RMK SC3 SLP239

CYHM;2009-09-16 11:00;CYHM 161100Z 35007KT 15SM BKN032 09/08 A3026 RMK SC6 SLP247

CYHM;2009-09-16 12:00;CYHM 161200Z 01008KT 15SM FEW020 FEW032 10/08 A3027 RMK CU1SC2 SLP253

CYHM;2009-09-16 13:00;CYHM 161300Z 35008KT 15SM FEW020 FEW032 12/09 A3029 RMK CU1SC2 CU TR SLP258

CYHM;2009-09-16 14:00;CYHM 161400Z 01008KT 15SM FEW030 13/09 A3029 RMK SC1 CU ASOCTD SLP259

CYHM;2009-09-16 15:00;CYHM 161500Z 03012KT 15SM FEW030 15/09 A3030 RMK CU2 SC ASOCTD SLP261

CYHM;2009-09-16 16:00;CYHM 161600Z 03014KT 15SM SCT030 BKN042 16/09 A3029 RMK CU3SC2 SLP259

CYHM;2009-09-16 17:00;CYHM 161700Z 04012KT 15SM FEW036 BKN040 16/09 A3030 RMK CU2SC3 SLP262

CYHM;2009-09-16 18:00;CYHM 161800Z 05015KT 15SM FEW034 BKN044 16/09 A3029 RMK SF2SC4 SLP260

CYHM;2009-09-16 19:00;CYHM 161900Z 06015KT 15SM FEW034 BKN044 16/10 A3029 RMK SF2SC3 SLP260

CYHM;2009-09-16 20:00;CYHM 162000Z 06015KT 15SM BKN040 16/10 A3028 RMK SC5 SF ASOCTD SLP256

CYHM;2009-09-16 21:00;CYHM 162100Z 06013KT 15SM FEW026 SCT044 16/11 A3027 RMK CU2SC1 SLP254

CYHM;2009-09-16 22:00;CYHM 162200Z 06015KT 15SM FEW028 FEW045 16/10 A3027 RMK CU2SC1 SC TR SLP254

CYHM;2009-09-16 23:00;CYHM 162300Z 07009KT 15SM FEW028 15/10 A3028 RMK SC1 CU TR SLP257

CYHM;2009-09-17 00:00;CYHM 170000Z 08006KT 15SM FEW022 FEW036 13/09 A3028 RMK CU1SC1 CU TR SC TR SLP258

CYHM;2009-09-17 01:00;CYHM 170100Z 09006KT 15SM FEW022 12/09 A3030 RMK CU1 CU TR SLP262

CYHM;2009-09-17 02:00;CYHM 170200Z 09006KT 15SM FEW022 12/09 A3029 RMK SC1 SC TR SLP261

CYHM;2009-09-17 03:00;CYHM 170300Z 09006KT 15SM FEW025CB 11/08 A3029 RMK CB1 SLP259

CYHM;2009-09-17 04:00;CYHM 170400Z 09006KT 15SM FEW025CB 11/08 A3029 RMK CB1 SLP258

CYHM;2009-09-17 05:00;CYHM 170500Z 09008KT 15SM FEW020 12/08 A3028 RMK SC1 SLP255

CYHM;2009-09-17 06:00;CYHM 170600Z 10010KT 15SM FEW020 11/09 A3026 RMK SC1 SLP249

CYHM;2009-09-17 07:00;CYHM 170700Z 09008KT 15SM FEW020TCU 11/09 A3026 RMK TCU1 SLP249

CYHM;2009-09-17 08:00;CYHM 170800Z 07005KT 15SM FEW020TCU 10/09 A3025 RMK TCU1 SLP245

CYHM;2009-09-17 09:00;CYHM 170900Z 03005KT 15SM FEW020CB 10/10 A3024 RMK CB1 SLP244

CYHM;2009-09-17 10:00;CYHM 171000Z 01006KT 15SM FEW015TCU FEW090 10/10 A3025 RMK TCU1AC1 SLP245

CYHM;2009-09-17 11:00;CYHM 171100Z 01006KT 15SM FEW013 BKN021 BKN047 12/11 A3025 RMK CU1SC5SC1 SLP245

CYHM;2009-09-17 12:00;CYHM 171200Z 06006KT 15SM BKN018 BKN047 12/11 A3025 RMK SC6SC2 TR CU ASOCTD SLP246

CYHM;2009-09-17 13:00;CYHM 171300Z 03007KT 15SM FEW020 BKN042 13/11 A3025 RMK CU1SC5 SLP245

CYHM;2009-09-17 14:00;CYHM 171400Z 06008KT 15SM FEW042 FEW220 15/12 A3025 RMK SC2CI0 CI TR SLP247

CYHM;2009-09-17 15:00;CYHM 171500Z 07008KT 15SM FEW030 FEW220 16/10 A3024 RMK CU1CI0 SC TR ASOCTD CI TR SLP244

CYHM;2009-09-17 16:00;CYHM 171600Z 06007KT 15SM FEW032 FEW220 17/09 A3024 RMK CU1CI0 CI TR CONTRAIL SLP243

CYHM;2009-09-17 17:00;CYHM 171700Z 04006KT 15SM FEW032 FEW220 18/10 A3022 RMK CU1CI0 CI TR SLP237

CYHM;2009-09-17 18:00;CYHM 171800Z 11012KT 15SM FEW032 SCT220 19/11 A3020 RMK CU2CI0 CI TR SLP228

CYHM;2009-09-17 19:00;CYHM 171900Z 08005KT 15SM BKN040 BKN220 18/10 A3018 RMK CU5CI1 SLP222

CYHM;2009-09-17 20:00;CYHM 172000Z 05002KT 15SM FEW040 SCT250 18/10 A3015 RMK CU2CI0 WND L/V SLP212

CYHM;2009-09-17 21:00;CYHM 172100Z 00000KT 15SM FEW040 19/10 A3015 RMK CU2 SLP211

CYHM;2009-09-17 22:00;CYHM 172200Z 00000KT 15SM FEW040 20/10 A3014 RMK CU1 SLP207

CYHM;2009-09-17 23:00;CYHM 172300Z 00000KT 15SM FEW040 18/11 A3012 RMK SC1 SLP202

CYHM;2009-09-18 00:00;CYHM 180000Z 18003KT 15SM SKC 15/11 A3011 RMK SLP200

CYHM;2009-09-18 01:00;CYHM 180100Z 18004KT 15SM SKC 14/11 A3012 RMK SLP201

CYHM;2009-09-18 02:00;CYHM 180200Z 20002KT 15SM SKC 13/11 A3011 RMK SLP200

CYHM;2009-09-18 03:00;CYHM 180300Z 25005KT 15SM SKC 12/10 A3011 RMK SLP199

CYHM;2009-09-18 04:00;CYHM 180400Z 27005KT 15SM SKC 12/11 A3010 RMK SLP194

CYHM;2009-09-18 05:00;CYHM 180500Z 22004KT 15SM SKC 09/08 A3009 RMK SLP190

CYHM;2009-09-18 06:00;CYHM 180600Z 26005KT 15SM SKC 10/10 A3009 RMK SLP190

CYHM;2009-09-18 07:00;CYHM 180700Z 25005KT 15SM SKC 08/08 A3008 RMK SLP188

CYHM;2009-09-18 08:00;CYHM 180800Z 24004KT 15SM FEW090 08/08 A3007 RMK AC1 SLP186

CYHM;2009-09-18 09:00;CYHM 180900Z 24004KT 15SM SCT062 08/08 A3007 RMK SC3 SLP185

CYHM;2009-09-18 10:00;CYHM 181000Z 23006KT 15SM SCT068 09/09 A3006 RMK AC3 SLP180

CYHM;2009-09-18 11:00;CYHM 181100Z 25006KT 15SM SCT068 BKN090 10/10 A3005 RMK AC3AC2 SLP179

CYHM;2009-09-18 12:00;CYHM 181200Z 24007KT 15SM FEW070 11/10 A3006 RMK AC1 SLP181

CYHM;2009-09-18 13:00;CYHM 181300Z 26010KT 15SM FEW040 FEW090 SCT220 13/12 A3007 RMK SC1AC2CI1 SC TR SLP183

CYHM;2009-09-18 14:00;CYHM 181400Z 27008KT 15SM FEW062 BKN085 BKN094 15/13 A3007 RMK SC2AC4AC2 SLP185

CYHM;2009-09-18 15:00;CYHM 181500Z 28008KT 15SM FEW025 BKN060 BKN095 17/13 A3007 RMK CU1SC5AC2 SLP186

CYHM;2009-09-18 15:55;CYHM 181555Z 32010KT 10SM -SHRA BKN044 OVC068 RMK SC6AC2 TR CU ASOCTD

CYHM;2009-09-18 16:00;CYHM 181600Z CCA 33010KT 15SM -SHRA SCT032 BKN048 BKN058 18/15 A3008 RMK SC3SC2SC2 SLP189

CYHM;2009-09-18 16:17;CYHM 181617Z 29010KT 15SM FEW032 BKN064 BKN070 RMK CU2SC3AC2 RERA

CYHM;2009-09-18 17:00;CYHM 181700Z 33008KT 15SM SCT023 BKN030 18/14 A3010 RMK CU3SC4 CU ASOCTD SLP194

CYHM;2009-09-18 18:00;CYHM 181800Z 33005KT 15SM FEW023 BKN044 BKN061 17/15 A3010 RMK CU2SC5SC1 SLP195

CYHM;2009-09-18 19:00;CYHM 181900Z 32012KT 15SM SCT035 20/13 A3010 RMK CU4 TCU ASOCTD SLP193

CYHM;2009-09-18 20:00;CYHM 182000Z 31012KT 15SM BKN050 20/12 A3010 RMK SC5 CU ASOCTD SLP194

CYHM;2009-09-18 21:00;CYHM 182100Z 31012KT 15SM FEW040 FEW050 FEW230 20/10 A3011 RMK CU1SC1CI1 TR CU SLP197

CYHM;2009-09-18 22:00;CYHM 182200Z 33008KT 15SM FEW040 FEW050 18/09 A3013 RMK CU1SC1 TR CU SLP203

CYHM;2009-09-18 23:00;CYHM 182300Z 36007KT 15SM FEW035 16/06 A3014 RMK SC1 SLP209

CYHM;2009-09-19 00:00;CYHM 190000Z 36007KT 15SM FEW035 FEW220 13/05 A3017 RMK SC1CI1 TR SC SLP220

CYHM;2009-09-19 01:00;CYHM 190100Z 01008KT 15SM SKC 12/06 A3021 RMK SLP234

CYHM;2009-09-19 02:00;CYHM 190200Z 36010KT 15SM SKC 10/06 A3023 RMK SLP240

CYHM;2009-09-19 03:00;CYHM 190300Z 36009KT 15SM FEW020 09/06 A3024 RMK SC1 SLP244

CYHM;2009-09-19 04:00;CYHM 190400Z 01005KT 15SM FEW020 09/06 A3026 RMK SC1 SLP250

CYHM;2009-09-19 05:00;CYHM 190500Z 02007KT 15SM FEW025 09/06 A3028 RMK SC1 SLP256

CYHM;2009-09-19 06:00;CYHM 190600Z 02008KT 15SM FEW025 09/06 A3028 RMK SC1 SLP257

CYHM;2009-09-19 07:00;CYHM 190700Z 02008KT 15SM FEW025 08/05 A3029 RMK SC1 SLP259

CYHM;2009-09-19 08:00;CYHM 190800Z 03007KT 15SM FEW040 08/05 A3029 RMK SC1 SLP259

CYHM;2009-09-19 09:00;CYHM 190900Z 03004KT 15SM FEW040 08/05 A3030 RMK SC1 SLP262

CYHM;2009-09-19 10:00;CYHM 191000Z 02005KT 15SM FEW040 07/05 A3030 RMK SC1 SLP264

CYHM;2009-09-19 11:00;CYHM 191100Z 03006KT 15SM FEW040 06/04 A3030 RMK SC1 SLP264

CYHM;2009-09-19 12:00;CYHM 191200Z 03004KT 15SM FEW040 08/06 A3033 RMK SC1 SLP273

CYHM;2009-09-19 13:00;CYHM 191300Z 04006KT 15SM FEW040 11/07 A3034 RMK SC1 SLP279

CYHM;2009-09-19 14:00;CYHM 191400Z 06004KT 010V120 15SM BKN023 13/08 A3036 RMK SC6 SLP284

CYHM;2009-09-19 15:00;CYHM 191500Z 05008KT 020V110 15SM BKN027 13/08 A3037 RMK SC5 SLP287

CYHM;2009-09-19 16:00;CYHM 191600Z 10006KT 010V130 15SM FEW028 14/08 A3036 RMK SC2 SLP286

CYHM;2009-09-19 17:00;CYHM 191700Z 05004KT 340V080 15SM FEW030 15/07 A3036 RMK SC1 SLP286

CYHM;2009-09-19 18:00;CYHM 191800Z 05004KT 010V110 15SM SKC 16/06 A3034 RMK SLP277

CYHM;2009-09-19 19:00;CYHM 191900Z 34003KT 15SM SKC 16/05 A3032 RMK WND L/V SLP270

CYHM;2009-09-19 20:00;CYHM 192000Z 09004KT 050V120 15SM FEW150 17/05 A3031 RMK AC1 AC TR SLP268

CYHM;2009-09-19 21:00;CYHM 192100Z 11006KT 070V150 15SM FEW150 FEW220 17/04 A3030 RMK AC1CI1 AC TR CI TR SLP265

CYHM;2009-09-19 22:00;CYHM 192200Z 11006KT 15SM FEW250 16/04 A3030 RMK CI1 CONTRAIL SLP264

CYHM;2009-09-19 23:00;CYHM 192300Z 11006KT 15SM FEW250 13/05 A3030 RMK CI1 CONTRAIL SLP262

CYHM;2009-09-20 00:00;CYHM 200000Z 07005KT 15SM FEW250 11/04 A3029 RMK CI1 CONTRAIL SLP261

CYHM;2009-09-20 01:00;CYHM 200100Z 07005KT 15SM FEW250 10/04 A3029 RMK CI1 CI TR SLP261

CYHM;2009-09-20 02:00;CYHM 200200Z 09005KT 15SM FEW250 10/02 A3028 RMK CI1 CI TR SLP260

CYHM;2009-09-20 03:00;CYHM 200300Z 10004KT 15SM SKC 10/M00 A3028 RMK SLP258

CYHM;2009-09-20 04:00;CYHM 200400Z 00000KT 15SM FEW230 10/M00 A3029 RMK CI1 SLP259

CYHM;2009-09-20 05:00;CYHM 200500Z 08002KT 15SM FEW230 09/M00 A3028 RMK CI1 SLP258

CYHM;2009-09-20 06:00;CYHM 200600Z 00000KT 15SM FEW230 09/M01 A3029 RMK CI1 SLP259

CYHM;2009-09-20 07:00;CYHM 200700Z 07003KT 15SM SKC 08/02 A3029 RMK SLP259

CYHM;2009-09-20 08:00;CYHM 200800Z 06005KT 15SM SKC 08/03 A3027 RMK SLP255

CYHM;2009-09-20 09:00;CYHM 200900Z 04005KT 15SM FEW210 07/04 A3027 RMK CI1 SLP254

CYHM;2009-09-20 10:00;CYHM 201000Z 04007KT 15SM FEW210 07/03 A3027 RMK CI1 SLP253

CYHM;2009-09-20 11:00;CYHM 201100Z 05006KT 15SM SCT250 08/06 A3027 RMK CI1 SLP254

CYHM;2009-09-20 12:00;CYHM 201200Z CCA 04005KT 15SM FEW250 10/08 A3027 RMK CI1 CONTRAILS SLP256

CYHM;2009-09-20 14:00;CYHM 201400Z 05006KT 15SM SCT250 15/11 A3028 RMK CI1 CONTRAILS SLP257

CYHM;2009-09-20 15:00;CYHM 201500Z 05008KT 15SM FEW250 17/10 A3026 RMK CI1 SLP250

CYHM;2009-09-20 16:00;CYHM 201600Z 05009KT 360V100 15SM FEW250 18/09 A3026 RMK CI1 SLP249

CYHM;2009-09-20 17:00;CYHM 201700Z 05007KT 15SM SCT250 19/10 A3026 RMK CI1 SLP249

CYHM;2009-09-20 18:00;CYHM 201800Z 06007KT 15SM FEW250 19/10 A3024 RMK CI1 SLP241

CYHM;2009-09-20 19:00;CYHM 201900Z 06009KT 15SM BKN250 20/10 A3022 RMK CI2 SLP235

CYHM;2009-09-20 20:00;CYHM 202000Z 06009KT 030V090 15SM FEW100 BKN250 19/11 A3020 RMK AC1CI2 CONTRAIL AC TR SLP229

CYHM;2009-09-20 21:00;CYHM 202100Z 06009KT 15SM FEW100 FEW200 BKN250 18/11 A3019 RMK AC1CI2CI1 CONTRAIL AC TR SLP227

CYHM;2009-09-20 22:00;CYHM 202200Z 07011KT 15SM FEW120 BKN250 18/12 A3017 RMK AC1CI2 CONTRAIL AC TR SLP221

CYHM;2009-09-20 23:00;CYHM 202300Z 06009KT 15SM FEW120 BKN250 16/12 A3018 RMK AC1CI2 SLP222

CYHM;2009-09-21 00:00;CYHM 210000Z 06008KT 15SM FEW057 FEW120 BKN250 16/13 A3018 RMK SC2AC1CI2 AC TR CONTRAIL SLP222

CYHM;2009-09-21 01:00;CYHM 210100Z 06009KT 15SM FEW057 FEW120 SCT250 16/13 A3017 RMK SC1AC1CI1 AC TR SLP220

CYHM;2009-09-21 02:00;CYHM 210200Z 06009KT 15SM FEW060 FEW120 SCT250 16/14 A3017 RMK SC1AC1CI1 AC TR SLP220

CYHM;2009-09-21 03:00;CYHM 210300Z 05009KT 15SM FEW250 16/15 A3016 RMK CI1 SLP214

CYHM;2009-09-21 04:00;CYHM 210400Z 05009KT 15SM FEW250 16/15 A3016 RMK CI1 SLP212

CYHM;2009-09-21 05:00;CYHM 210500Z 06005KT 15SM FEW190 16/15 A3016 RMK AC2 SLP213

CYHM;2009-09-21 06:00;CYHM 210600Z 05007KT 15SM BKN200 16/15 A3015 RMK CI7 SLP210

CYHM;2009-09-21 07:00;CYHM 210700Z 05006KT 15SM SCT100 BKN200 15/14 A3014 RMK AC3CI2 SLP207

CYHM;2009-09-21 08:00;CYHM 210800Z 06006KT 15SM FEW050 SCT090 BKN120 16/15 A3013 RMK SC2AC2AC3 SLP204

CYHM;2009-09-21 09:00;CYHM 210900Z 07004KT 15SM BKN052 OVC085 16/15 A3013 RMK SC6AC2 SLP205

CYHM;2009-09-21 10:00;CYHM 211000Z 07004KT 15SM FEW055 SCT100 OVC140 16/15 A3013 RMK SC2AC2AC5 SLP203

CYHM;2009-09-21 11:00;CYHM 211100Z 08003KT 15SM BKN075 OVC100 16/15 A3013 RMK AC6AC2 SLP204

CYHM;2009-09-21 12:00;CYHM 211200Z 06005KT 15SM SCT063 BKN068 OVC120 17/16 A3013 RMK SC3AC3AC2 SLP205

CYHM;2009-09-21 13:00;CYHM 211300Z 09002KT 15SM BKN067 OVC120 18/17 A3013 RMK AC6AC2 SLP204

CYHM;2009-09-21 13:53;CYHM 211353Z 12007KT 15SM -SHRA BKN059 OVC070 RMK SC6AC2

CYHM;2009-09-21 14:00;CYHM 211400Z CCA 16008KT 10SM -SHRA BKN052 OVC060 19/17 A3014 RMK SC6SC2 SLP206

CYHM;2009-09-21 15:00;CYHM 211500Z 17008KT 15SM BKN046 OVC060 20/18 A3014 RMK SC6SC2 RERA SLP206

CYHM;2009-09-21 15:34;CYHM 211534Z 17010KT 6SM -SHRA BKN032 OVC042 RMK SC6SC2

CYHM;2009-09-21 16:00;CYHM 211600Z 18008KT 5SM -SHRA BR SCT032 OVC048 19/18 A3013 RMK SC4SC4 SLP205

CYHM;2009-09-21 16:30;CYHM 211630Z 17007KT 6SM BR SCT038 BKN066 OVC110 RMK SC3AC3AC2 RERA

CYHM;2009-09-21 17:00;CYHM 211700Z 20010KT 6SM BR SCT012 BKN030 BKN110 21/19 A3012 RMK SC3SC3AC1 SLP200

CYHM;2009-09-21 18:00;CYHM 211800Z 17011KT 6SM -SHRA BR FEW012 OVC022 21/19 A3011 RMK SF2SC6 SLP196

CYHM;2009-09-21 19:00;CYHM 211900Z 19006KT 10SM -SHRA OVC023 21/19 A3011 RMK SC8 SF ASOCTD SLP196

CYHM;2009-09-21 20:00;CYHM 212000Z 19006KT 8SM -SHRA OVC024 21/19 A3011 RMK SC8 SLP196

CYHM;2009-09-21 21:00;CYHM 212100Z 19006KT 5SM -SHRA BR BKN034 OVC055 20/20 A3011 RMK SC5SC3 SLP196

CYHM;2009-09-21 22:00;CYHM 212200Z 18005KT 6SM -SHRA BR BKN044 OVC060 20/20 A3011 RMK SC6SC2 SLP196

CYHM;2009-09-21 22:35;CYHM 212235Z 16008KT 9SM SCT044 BKN150 RMK SC3AC3

CYHM;2009-09-21 23:00;CYHM 212300Z 16006KT 9SM FEW040 SCT110 BKN150 20/20 A3011 RMK SC1AC2AC4 SLP195

CYHM;2009-09-22 00:00;CYHM 220000Z 17007KT 10SM FEW024 OVC036 20/20 A3011 RMK SF2SC6 SLP195

CYHM;2009-09-22 01:00;CYHM 220100Z 16007KT 12SM FEW034 BKN056 20/20 A3011 RMK SF1SC6 SLP197

CYHM;2009-09-22 02:00;CYHM 220200Z 17007KT 12SM BKN044 BKN074 20/20 A3012 RMK SC6AC2 SLP200

CYHM;2009-09-22 03:00;CYHM 220300Z 17006KT 12SM FEW028 BKN057 20/20 A3011 RMK SC1SC6 SLP195

CYHM;2009-09-22 04:00;CYHM 220400Z 19005KT 12SM FEW034 OVC052 20/19 A3011 RMK SC2SC6 SLP196

CYHM;2009-09-22 05:00;CYHM 220500Z 20006KT 15SM BKN030 OVC045 20/20 A3011 RMK SC5SC3 SLP196

CYHM;2009-09-22 06:00;CYHM 220600Z 19006KT 15SM OVC025 20/20 A3011 RMK SC8 SLP196

CYHM;2009-09-22 07:00;CYHM 220700Z 19006KT 15SM OVC022 20/19 A3012 RMK SC8 SLP197

CYHM;2009-09-22 08:00;CYHM 220800Z 19006KT 12SM OVC019 20/19 A3011 RMK SC8 SLP196

CYHM;2009-09-22 09:00;CYHM 220900Z 20006KT 9SM OVC019 20/19 A3010 RMK SC8 SLP193

CYHM;2009-09-22 10:00;CYHM 221000Z 20008KT 8SM FEW016 OVC025 20/19 A3011 RMK SF1SC7 SLP196

CYHM;2009-09-22 11:00;CYHM 221100Z 22006KT 8SM BKN016 OVC030 20/19 A3013 RMK SC6SC2 SLP203

CYHM;2009-09-22 12:00;CYHM 221200Z 20006KT 10SM BKN015 OVC020 20/19 A3014 RMK SC6SC2 SLP206

CYHM;2009-09-22 13:00;CYHM 221300Z 18008KT 10SM FEW006 BKN015 BKN059 21/20 A3014 RMK SF2SC3SC2 SLP205

CYHM;2009-09-22 14:00;CYHM 221400Z 20009KT 10SM BKN013 OVC020 21/20 A3014 RMK SC6SC2 SLP205

CYHM;2009-09-22 15:00;CYHM 221500Z 19008KT 10SM BKN009 OVC020 21/20 A3014 RMK SF6SC2 SLP206

CYHM;2009-09-22 16:00;CYHM 221600Z 20012KT 8SM OVC011 22/20 A3014 RMK SC8 SLP205

CYHM;2009-09-22 17:00;CYHM 221700Z 20010KT 8SM SCT009 OVC026 21/20 A3014 RMK SF3SC5 SLP205

CYHM;2009-09-22 18:00;CYHM 221800Z 19010KT 8SM BKN012 OVC018 23/20 A3014 RMK SC6SC2 SLP204

CYHM;2009-09-22 19:00;CYHM 221900Z 21006KT 7SM BKN016 OVC052 23/20 A3012 RMK SC5SC3 SLP198

CYHM;2009-09-22 20:00;CYHM 222000Z 20007KT 8SM SCT015 OVC024 23/20 A3011 RMK SF3SC5 SLP196

CYHM;2009-09-22 21:00;CYHM 222100Z 19011KT 8SM FEW019 BKN034 23/20 A3010 RMK SC2SC4 SF ASOCTD SLP192

CYHM;2009-09-22 22:00;CYHM 222200Z 19007KT 8SM BKN044 BKN060 23/20 A3010 RMK SC5SC2 SLP192

CYHM;2009-09-22 23:00;CYHM 222300Z 21005KT 8SM FEW018 SCT026 OVC052 22/20 A3011 RMK SF2SC2SC5 SLP195

CYHM;2009-09-23 00:00;CYHM 230000Z 19005KT 9SM BKN022 BKN120 21/19 A3010 RMK SC5AC1 SLP193

CYHM;2009-09-23 01:00;CYHM 230100Z 18005KT 8SM FEW024 SCT120 20/19 A3011 RMK SC1AC1 SC TR SLP196

CYHM;2009-09-23 02:00;CYHM 230200Z 20004KT 8SM FEW020 FEW120 19/19 A3010 RMK SC1AC1 SLP193

CYHM;2009-09-23 03:00;CYHM 230300Z 17005KT 8SM FEW250 19/19 A3010 RMK CI1 SLP190

CYHM;2009-09-23 04:00;CYHM 230400Z 20005KT 8SM FEW250 19/18 A3008 RMK CI1 SLP186

CYHM;2009-09-23 05:00;CYHM 230500Z 19004KT 6SM BR FEW023 SCT250 18/18 A3008 RMK SC2CI2 SLP185

CYHM;2009-09-23 06:00;CYHM 230600Z 20005KT 6SM BR FEW023 FEW250 19/19 A3007 RMK SC1CI2 SC TR SLP183

CYHM;2009-09-23 07:00;CYHM 230700Z 20004KT 5SM BR FEW020 SCT042 19/19 A3008 RMK SC1SC2 SLP184

CYHM;2009-09-23 08:00;CYHM 230800Z 20005KT 2 1/2SM BR BKN042 19/19 A3007 RMK SC4 SLP180

CYHM;2009-09-23 09:00;CYHM 230900Z 20006KT 2 1/2SM BR FEW009 FEW036 BKN056 19/19 A3006 RMK SF1SC1SC2 SLP176

CYHM;2009-09-23 10:00;CYHM 231000Z 19009KT 4SM BR FEW008 SCT046 19/19 A3004 RMK SF1SC2 SF TR SLP171

CYHM;2009-09-23 11:00;CYHM 231100Z 22009KT 3SM BR FEW009 FEW040 BKN140 19/19 A3004 RMK SF1SC1AC2 SLP169

CYHM;2009-09-23 12:00;CYHM 231200Z 21008KT 3SM BR FEW040 BKN110 20/20 A3004 RMK SC1AC4 SLP172

CYHM;2009-09-23 13:00;CYHM 231300Z 22007KT 4SM BR SCT046 BKN061 BKN110 20/20 A3004 RMK SC3SC2AC2 SLP171

CYHM;2009-09-23 13:28;CYHM 231328Z 22006KT 2SM -SHRA BR BKN015 OVC035 RMK SC6SC2

CYHM;2009-09-23 14:00;CYHM 231400Z 22006KT 4SM -SHRA BR BKN012 OVC022 21/20 A3006 RMK SC6SC2 SLP176

CYHM;2009-09-23 14:33;CYHM 231433Z 20010KT 4SM BR BKN013 BKN025 OVC084 RMK SC6SC2AC1 RERA

CYHM;2009-09-23 15:00;CYHM 231500Z 22010KT 5SM BR BKN009 OVC025 22/21 A3004 RMK SF6SC2 SLP172

CYHM;2009-09-23 16:00;CYHM 231600Z 25010KT 5SM BR BKN015 OVC032 23/21 A3005 RMK SC6SC2 SLP173

CYHM;2009-09-23 17:00;CYHM 231700Z 22008KT 10SM FEW018 FEW032 BKN240 24/22 A3003 RMK CU1SC2CI3 CONTRAIL SLP167

CYHM;2009-09-23 18:00;CYHM 231800Z 26014KT 12SM FEW026 SCT120 BKN240 25/20 A3001 RMK SC2AC1CI2 TCU EMBDD CC ASOCTD SLP161

CYHM;2009-09-23 19:00;CYHM 231900Z 27014G20KT 15SM SCT032 SCT120 BKN240 26/20 A3001 RMK SC3AC1CI2 TCU EMBDD CC ASOCTD SLP159

CYHM;2009-09-23 20:00;CYHM 232000Z 27015G21KT 15SM FEW048 FEW100 SCT240 26/19 A3002 RMK SC2AC1CI1 AC TR TCU ASOCTD SLP162

CYHM;2009-09-23 21:00;CYHM 232100Z 31013KT 15SM FEW034 FEW120 SCT240 25/19 A3002 RMK SC2AC1CI0 CU ASOCTD TCU ASOCTD AC TR SLP163

CYHM;2009-09-23 22:00;CYHM 232200Z 29014KT 15SM BKN064 BKN240 22/18 A3003 RMK SC5CI0 TCU ASOCTD SLP167

CYHM;2009-09-23 23:00;CYHM 232300Z 28004KT 15SM FEW060 FEW240 22/18 A3004 RMK SC1CI1 FEW CU SLP171

CYHM;2009-09-24 00:00;CYHM 240000Z 25004KT 15SM FEW055 FEW220 20/18 A3006 RMK SC1CI1 SLP177

CYHM;2009-09-24 01:00;CYHM 240100Z 30006KT 12SM FEW028 BKN220 19/17 A3007 RMK SC2CI2 SLP183

CYHM;2009-09-24 02:00;CYHM 240200Z CCA 29004KT 12SM FEW220 18/16 A3008 RMK CI2 SLP186

CYHM;2009-09-24 03:00;CYHM 240300Z 28005KT 12SM FEW220 17/15 A3009 RMK CI1 SLP187

CYHM;2009-09-24 04:00;CYHM 240400Z 26005KT 12SM SKC 16/15 A3009 RMK SLP189

CYHM;2009-09-24 05:00;CYHM 240500Z 30005KT 9SM FEW210 15/15 A3011 RMK CI1 SLP194

CYHM;2009-09-24 06:00;CYHM 240600Z 27005KT 10SM MIFG FEW170 15/15 A3011 RMK AC1 SLP195

CYHM;2009-09-24 07:00;CYHM 240700Z 29006KT 10SM MIFG FEW150 14/14 A3011 RMK AC2 SLP195

CYHM;2009-09-24 08:00;CYHM 240800Z 31005KT 15SM SKC 15/15 A3011 RMK SLP196

CYHM;2009-09-24 09:00;CYHM 240900Z 28008KT 10SM FEW100 BKN210 15/15 A3011 RMK AC1CI2 SLP194

CYHM;2009-09-24 10:00;CYHM 241000Z 30005KT 8SM MIFG FEW210 14/14 A3012 RMK CI2 SLP199

CYHM;2009-09-24 11:00;CYHM 241100Z 30006KT 6SM BR BKN210 13/13 A3013 RMK CI3 CONTRAIL SLP202

CYHM;2009-09-24 12:00;CYHM 241200Z 30004KT 10SM MIFG BKN210 13/12 A3015 RMK CI4 CONTRAIL SLP209

CYHM;2009-09-24 13:00;CYHM 241300Z 35006KT 10SM FEW045 SCT160 BKN220 15/14 A3016 RMK SC2AC2CI3 SLP213

CYHM;2009-09-24 14:00;CYHM 241400Z 01004KT 10SM FEW018 SCT160 BKN220 17/15 A3017 RMK CU1AC2CI2 SLP216

CYHM;2009-09-24 15:00;CYHM 241500Z 34006KT 15SM FEW020 FEW120 BKN220 18/16 A3017 RMK CU2AC1CI2 SLP216

CYHM;2009-09-24 16:00;CYHM 241600Z 01002KT 15SM FEW020 SCT120 BKN220 19/02 A3016 RMK CU2AC2CI1 SLP214

CYHM;2009-09-24 17:00;CYHM 241700Z 04005KT 15SM FEW022 BKN160 BKN220 20/09 A3016 RMK CU2AC2CI2 CONTRAIL SLP212

CYHM;2009-09-24 18:00;CYHM 241800Z 03003KT 15SM SCT030 BKN058 BKN220 20/14 A3014 RMK CU3SC2CI1 TCU ASOCTD SLP208

CYHM;2009-09-24 19:00;CYHM 241900Z 04002KT 15SM FEW031 BKN040 BKN240 21/14 A3012 RMK CU2SC4CI0 SLP201

CYHM;2009-09-24 20:00;CYHM 242000Z 00000KT 15SM FEW032 FEW040 BKN061 BKN250 21/13 A3012 RMK CU1SC2SC4CI0 SLP199

CYHM;2009-09-24 21:00;CYHM 242100Z 05004KT 15SM FEW042 SCT065 BKN250 20/14 A3012 RMK SC2SC2CI2 CU ASOCTD SLP198

CYHM;2009-09-24 22:00;CYHM 242200Z 00000KT 15SM FEW042 FEW068 BKN250 21/14 A3013 RMK CU1AC1CI2 SLP202

CYHM;2009-09-24 23:00;CYHM 242300Z 02003KT 15SM FEW051 FEW068 BKN250 18/15 A3014 RMK CU1AC1CI2 SLP207

CYHM;2009-09-25 00:00;CYHM 250000Z 35004KT 15SM FEW045 SCT250 16/14 A3016 RMK SC1CI2 SC TR SLP213

CYHM;2009-09-25 01:00;CYHM 250100Z 03008KT 15SM FEW220 16/12 A3017 RMK CI1 SLP219

CYHM;2009-09-25 02:00;CYHM 250200Z 05009KT 15SM SCT220 15/09 A3019 RMK CI1 SLP223

CYHM;2009-09-25 03:00;CYHM 250300Z 05008KT 15SM SCT240 14/08 A3020 RMK CI1 SLP227

CYHM;2009-09-25 04:00;CYHM 250400Z 04007KT 15SM FEW230 13/08 A3021 RMK CI0 SLP231

CYHM;2009-09-25 05:00;CYHM 250500Z 05008KT 15SM FEW230 13/09 A3022 RMK CI1 SLP234

CYHM;2009-09-25 06:00;CYHM 250600Z 04004KT 15SM FEW230 12/09 A3022 RMK CI1 SLP234

CYHM;2009-09-25 07:00;CYHM 250700Z 33002KT 15SM FEW230 11/09 A3023 RMK CI1 SLP239

CYHM;2009-09-25 08:00;CYHM 250800Z 22002KT 15SM FEW230 09/08 A3023 RMK CI2 SLP239

CYHM;2009-09-25 09:00;CYHM 250900Z 00000KT 15SM FEW230 09/08 A3024 RMK CI2 SLP243

CYHM;2009-09-25 10:00;CYHM 251000Z 03007KT 15SM FEW025 FEW230 11/10 A3026 RMK SC1CI2 SC TR SLP247

CYHM;2009-09-25 11:00;CYHM 251100Z 02005KT 15SM SCT014 BKN026 12/11 A3029 RMK SC3SC4 SLP257

CYHM;2009-09-25 12:00;CYHM 251200Z 02008KT 15SM FEW018 BKN023 BKN030 13/11 A3029 RMK CU1SC4SC2 SLP259

CYHM;2009-09-25 13:00;CYHM 251300Z 04014KT 15SM BKN016 13/12 A3031 RMK SC7 CU ASOCTD SLP267

CYHM;2009-09-25 14:00;CYHM 251400Z 06015KT 15SM BKN016 13/11 A3033 RMK SC7 SLP273

CYHM;2009-09-25 15:00;CYHM 251500Z 06015KT 15SM OVC018 13/11 A3034 RMK SC8 SLP278

CYHM;2009-09-25 16:00;CYHM 251600Z 07012KT 15SM BKN019 13/10 A3035 RMK SC7 SLP280

CYHM;2009-09-25 17:00;CYHM 251700Z 06012KT 15SM FEW022 BKN032 14/11 A3035 RMK CU2SC5 SLP281

CYHM;2009-09-25 18:00;CYHM 251800Z 06014KT 15SM FEW025 SCT032 SCT220 15/10 A3033 RMK CU2SC1CI0 CI TR SLP272

CYHM;2009-09-25 19:00;CYHM 251900Z 05015KT 15SM FEW025 FEW240 15/09 A3032 RMK CU2CI1 SLP269

CYHM;2009-09-25 20:00;CYHM 252000Z 05015KT 15SM FEW023 SCT210 14/09 A3030 RMK CU2CI2 SLP264

CYHM;2009-09-25 21:00;CYHM 252100Z 06015KT 15SM FEW025 SCT210 14/10 A3030 RMK CU2CI2 SLP264

CYHM;2009-09-25 22:00;CYHM 252200Z 06012KT 15SM FEW022 SCT120 BKN230 14/10 A3031 RMK SC2AC1CI2 CU ASOCTD SLP269

CYHM;2009-09-25 23:00;CYHM 252300Z 06013KT 15SM FEW020 FEW100 12/09 A3030 RMK SC2AC1 SLP264

CYHM;2009-09-26 00:00;CYHM 260000Z 07010KT 15SM FEW100 11/08 A3029 RMK AC1 SLP261

CYHM;2009-09-26 01:00;CYHM 260100Z 08007KT 15SM FEW100 10/07 A3029 RMK AC2 SLP260

CYHM;2009-09-26 02:00;CYHM 260200Z 08009KT 15SM FEW160 SCT240 09/08 A3029 RMK AC2CI2 SLP260

CYHM;2009-09-26 03:00;CYHM 260300Z 08007KT 15SM SCT160 SCT200 08/06 A3028 RMK AC3CI1 SLP259

CYHM;2009-09-26 04:00;CYHM 260400Z 08007KT 15SM FEW160 BKN200 08/06 A3027 RMK AC2CI2 SLP255

CYHM;2009-09-26 05:00;CYHM 260500Z 06009KT 15SM FEW200 08/06 A3025 RMK CI2 SLP247

CYHM;2009-09-26 06:00;CYHM 260600Z 07008KT 15SM FEW190 08/06 A3023 RMK AC2 SLP239

CYHM;2009-09-26 07:00;CYHM 260700Z 05007KT 15SM SCT190 08/06 A3020 RMK AC3 SLP231

CYHM;2009-09-26 08:00;CYHM 260800Z 05007KT 15SM BKN180 09/07 A3017 RMK AC6 SLP222

CYHM;2009-09-26 09:00;CYHM 260900Z 05007KT 15SM BKN180 09/07 A3016 RMK AC6 SLP215

CYHM;2009-09-26 10:00;CYHM 261000Z 05006KT 15SM BKN170 09/07 A3014 RMK AC6 SLP210

CYHM;2009-09-26 11:00;CYHM 261100Z 06006KT 15SM BKN094 BKN140 10/08 A3013 RMK AC5AC2 SLP205

CYHM;2009-09-26 12:00;CYHM 261200Z 07004KT 15SM BKN085 10/09 A3011 RMK AC7 SLP199

CYHM;2009-09-26 13:00;CYHM 261300Z CCA 10004KT 15SM BKN076 BKN250 12/10 A3009 RMK AC7CI1 SLP193

CYHM;2009-09-26 14:00;CYHM 261400Z 15006KT 100V190 15SM FEW075 FEW250 17/13 A3006 RMK AC1CI1 CI TR SLP183

CYHM;2009-09-26 15:00;CYHM 261500Z 15013KT 15SM BKN025 BKN082 BKN250 18/13 A3004 RMK SC5AC2CI0 SLP176

CYHM;2009-09-26 16:00;CYHM 261600Z 15010KT 15SM SCT022 OVC037 17/14 A3003 RMK SC3SC5 SLP170

CYHM;2009-09-26 17:00;CYHM 261700Z 17010KT 15SM OVC018 17/14 A3001 RMK SC8 SLP164

CYHM;2009-09-26 17:52;CYHM 261752Z 17008KT 15SM -SHRA OVC018 RMK SC8

CYHM;2009-09-26 18:00;CYHM 261800Z 18007KT 15SM -SHRA OVC018 16/14 A2999 RMK SC8 SLP157

CYHM;2009-09-26 18:26;CYHM 261826Z 16007KT 2SM -RA BR FEW010 OVC019 RMK FG1SC2SC6

CYHM;2009-09-26 18:35;CYHM 261835Z 17007KT 3SM -RA BR FEW010 OVC019 RMK SC2SC6

CYHM;2009-09-26 19:00;CYHM 261900Z 15006KT 5SM -SHRA BR FEW012 BKN019 OVC027 16/15 A2996 RMK SC2SC4SC2 SLP147

CYHM;2009-09-26 19:36;CYHM 261936Z 16010KT 6SM -SHRA BR FEW008 OVC016 RMK CF2SC6

CYHM;2009-09-26 19:44;CYHM 261944Z 16010KT 2SM -RA BR SCT007 BKN011 OVC017 RMK FG1SF3SC2SC2

CYHM;2009-09-26 20:00;CYHM 262000Z 16009KT 2 1/2SM -RA BR BKN006 OVC012 15/15 A2993 RMK FG1SF5SC2 SLP139

CYHM;2009-09-26 20:41;CYHM 262041Z 17007KT 4SM -RA BR BKN006 OVC012 RMK SF5SC3

CYHM;2009-09-26 21:00;CYHM 262100Z 17010KT 4SM -RA BR FEW003 BKN007 OVC014 15/15 A2991 RMK SF2SF4SC2 SLP132

CYHM;2009-09-26 22:00;CYHM 262200Z 16009KT 5SM -SHRA BR FEW003 BKN006 OVC015 14/14 A2987 RMK SF2SF4SC2 SLP119

CYHM;2009-09-26 22:43;CYHM 262243Z 17008KT 2 1/2SM -SHRA BR FEW003 BKN005 OVC010 RMK FG1SF2SF4SC2

CYHM;2009-09-26 23:00;CYHM 262300Z 17007KT 2SM -SHRA BR SCT003 BKN005 OVC009 14/14 A2987 RMK FG1SF2SF4SC1 SLP119

CYHM;2009-09-26 23:17;CYHM 262317Z 16008KT 2 1/2SM -SHRA BR SCT003 BKN006 OVC010 RMK FG1SF2SF4SC1

CYHM;2009-09-27 00:00;CYHM 270000Z 17006KT 3SM -RA BR SCT003 BKN006 OVC010 14/14 A2985 RMK SF3SF4SC1 SLP110

CYHM;2009-09-27 00:43;CYHM 270043Z 18006KT 2 1/2SM RA BR SCT003 BKN007 OVC012 RMK FG1SF2SF3SC2

CYHM;2009-09-27 01:00;CYHM 270100Z 18006KT 4SM -RA BR SCT003 BKN007 OVC014 14/14 A2983 RERA RMK SF3SF2SC2 SLP103

CYHM;2009-09-27 02:00;CYHM 270200Z 18005KT 5SM -SHRA BR SCT003 OVC006 15/15 A2981 RMK SF3SF5 SLP096

CYHM;2009-09-27 02:21;CYHM 270221Z 16003KT 2SM -SHRA BR OVC009 RMK FG1SF7 CIG RAG

CYHM;2009-09-27 03:00;CYHM 270300Z 17004KT 1 1/2SM -SHRA BR OVC006 15/15 A2978 RMK FG2SF6 VIS VRB 1 - 2 SLP084

CYHM;2009-09-27 04:00;CYHM 270400Z 16005KT 1 1/2SM -SHRA BR OVC004 15/15 A2975 RMK FG2SF6 VIS VRB 1 - 2 SLP075

CYHM;2009-09-27 05:00;CYHM 270500Z 21010KT 6SM -SHRA BR OVC005 16/16 A2971 RMK SF8 CIG RAG SLP063

CYHM;2009-09-27 06:00;CYHM 270600Z 21012KT 6SM BR OVC005 16/16 A2971 RMK SF8 SLP059

CYHM;2009-09-27 07:00;CYHM 270700Z 22012KT 6SM BR OVC007 16/16 A2969 RMK SF8 CIG RAG SLP054

CYHM;2009-09-27 08:00;CYHM 270800Z 20007KT 6SM BR OVC005 16/16 A2966 RMK SF8 CIG RAG SLP044

CYHM;2009-09-27 08:33;CYHM 270833Z 20008KT 7SM FEW005 SCT008 OVC010 RMK SF2SF2SC4

CYHM;2009-09-27 09:00;CYHM 270900Z 21007KT 6SM BR BKN005 OVC025 16/16 A2965 RMK SF6SC2 SLP042

CYHM;2009-09-27 10:00;CYHM 271000Z 21005KT 7SM BKN006 OVC014 16/16 A2965 RMK SF6SC2 SLP039

CYHM;2009-09-27 10:36;CYHM 271036Z 22006KT 9SM SCT004 BKN016 OVC046 RMK SF3SC2SC2

CYHM;2009-09-27 11:00;CYHM 271100Z 24005KT 7SM FEW004 FEW016 SCT047 OVC160 15/15 A2964 RMK SF1SC2SC1AC5 SLP038

CYHM;2009-09-27 11:20;CYHM 271120Z 24004KT 3SM BR BKN003 OVC040 RMK SF6SC2

CYHM;2009-09-27 11:43;CYHM 271143Z 26003KT 2 1/2SM BR FEW002 SCT038 BKN160 RMK SF2SC2AC4

CYHM;2009-09-27 12:00;CYHM 271200Z 24003KT 2SM BR BKN002 OVC160 15/15 A2964 RMK FG1SF6AC2 SLP039

CYHM;2009-09-27 12:45;CYHM 271245Z 27004KT 2 1/2SM BR FEW002 FEW010 BKN030 BKN150 RMK SF2SC1SC2AC2

CYHM;2009-09-27 13:00;CYHM 271300Z 26004KT 2 1/2SM BR FEW010 FEW030 BKN140 15/15 A2965 RMK SC1SC2AC5 SLP040

CYHM;2009-09-27 13:45;CYHM 271345Z 29004KT 3SM BR FEW004 FEW030 BKN150 RMK CF1SC2AC6 CF TR

CYHM;2009-09-27 14:00;CYHM 271400Z 26004KT 4SM BR FEW004 FEW030 BKN150 15/15 A2964 RMK CF1SC2AC6 CF TR SLP037

CYHM;2009-09-27 15:00;CYHM 271500Z 28006KT 8SM FEW009 SCT041 OVC190 16/15 A2963 RMK CU2SC2AC5 SUN DIMMLY VSBL SLP033

CYHM;2009-09-27 15:17;CYHM 271517Z 29006KT 8SM BKN009 BKN037 OVC190 RMK SC6SC2AC1 CU ASOCTD

CYHM;2009-09-27 16:00;CYHM 271600Z 25004KT 8SM SCT009 BKN034 BKN190 16/15 A2962 RMK SC3SC3AC1 CU ASOCTD SLP029

CYHM;2009-09-27 17:00;CYHM 271700Z 29009KT 10SM FEW013 BKN032 BKN210 17/15 A2959 RMK SC2SC3CI2 SLP021

CYHM;2009-09-27 18:00;CYHM 271800Z 26008KT 12SM BKN017 BKN048 18/15 A2958 RMK SC5SC2 SLP016

CYHM;2009-09-27 19:00;CYHM 271900Z 25008KT 10SM FEW019 BKN062 BKN088 18/14 A2956 RMK CU2SC2AC2 SLP011

CYHM;2009-09-27 20:00;CYHM 272000Z 26008KT 12SM FEW019 SCT060 BKN090 20/15 A2955 RMK CU2SC2AC2 SLP006

CYHM;2009-09-27 21:00;CYHM 272100Z 27006KT 15SM FEW020 BKN035 BKN082 19/15 A2955 RMK CU2SC2AC2 SLP005

CYHM;2009-09-27 22:00;CYHM 272200Z 26006KT 15SM FEW020 SCT035 BKN080 BKN250 18/14 A2955 RMK CU2SC2AC2CI1 SLP006

CYHM;2009-09-27 23:00;CYHM 272300Z 26007KT 15SM FEW020 SCT035 BKN210 17/13 A2956 RMK CU2SC2CI2 SLP009

CYHM;2009-09-28 00:00;CYHM 280000Z 23004KT 15SM FEW020 FEW035 FEW100 SCT200 15/13 A2956 RMK CU1SC1AC1CI1 AC TR SLP012

CYHM;2009-09-28 01:00;CYHM 280100Z 23007KT 15SM FEW035 FEW200 14/13 A2957 RMK SC1CI1 CI TR SLP014

CYHM;2009-09-28 02:00;CYHM 280200Z 22005KT 12SM SKC 13/13 A2956 RMK SLP012

CYHM;2009-09-28 03:00;CYHM 280300Z 21004KT 8SM MIFG SKC 13/13 A2955 RMK SLP008

CYHM;2009-09-28 04:00;CYHM 280400Z 19006KT 10SM FEW240 12/12 A2952 RMK CI2 SLP998

CYHM;2009-09-28 05:00;CYHM 280500Z 19007KT 12SM FEW240 13/13 A2949 RMK CI2 SLP989

CYHM;2009-09-28 06:00;CYHM 280600Z 19007KT 12SM BKN058 OVC210 15/14 A2947 RMK SC6CI2 SLP979

CYHM;2009-09-28 07:00;CYHM 280700Z 18010KT 7SM FEW055 SCT200 15/15 A2942 RMK SC2CI1 SLP964

CYHM;2009-09-28 08:00;CYHM 280800Z 18012KT 9SM FEW018 SCT050 OVC130 16/15 A2939 RMK CF2SC2AC5 SLP951

CYHM;2009-09-28 09:00;CYHM 280900Z 18013KT 8SM BKN019 OVC110 16/14 A2937 RMK SC6AC2 SLP944

CYHM;2009-09-28 09:49;CYHM 280949Z 19013KT 10SM -SHRA BKN023 OVC090 RMK SC5AC3

CYHM;2009-09-28 10:00;CYHM 281000Z 19013KT 10SM -SHRA FEW017 OVC070 16/14 A2933 RMK SC2AC6 SLP931

CYHM;2009-09-28 10:10;CYHM 281010Z 17010KT 8SM SHRA BKN020 OVC048 RMK SC6SC2 LTNG S-SW CB EMBDD

CYHM;2009-09-28 11:00;CYHM 281100Z 17010KT 10SM -SHRA SCT009 BKN022 OVC033 15/15 A2926 RMK SF4SC2SC2 SLP910

CYHM;2009-09-28 11:33;CYHM 281133Z 17014KT 2 1/2SM SHRA BR SCT008 BKN014 OVC022 RMK SF3SC3SC2

CYHM;2009-09-28 11:42;CYHM 281142Z 17014KT 1 1/2SM -SHRA BR SCT007 OVC017 RMK FG2SF2SC4 VIS VRB1-2SM

CYHM;2009-09-28 12:00;CYHM 281200Z 16014KT 1 1/2SM -SHRA BR SCT005 BKN013 OVC020 15/15 A2923 RMK FG1SF3SC3SC1 VIS VRBL1-2SM SLP896

CYHM;2009-09-28 12:18;CYHM 281218Z 19014G19KT 4SM -SHRA BR BKN006 OVC015 RMK SF6SC2

CYHM;2009-09-28 13:00;CYHM 281300Z 20020KT 4SM -SHRA BR BKN008 OVC015 15/15 A2919 RMK SF6SC2 SLP883

CYHM;2009-09-28 13:38;CYHM 281338Z 24015KT 15SM SCT009 BKN015 OVC032 RMK SF3SC3SC2 RERA

CYHM;2009-09-28 14:00;CYHM 281400Z 26016G22KT 15SM BKN017 BKN032 16/16 A2920 RMK SC5SC2 CU ASOCTD SLP887

CYHM;2009-09-28 15:00;CYHM 281500Z 27020G26KT 15SM FEW022 BKN048 BKN160 14/12 A2923 RMK CU2SC4AC2 SLP897

CYHM;2009-09-28 16:00;CYHM 281600Z 24022G30KT 15SM FEW032 SCT045 17/10 A2924 RMK CU2SC2 TCU ASOCTD SLP902

CYHM;2009-09-28 17:00;CYHM 281700Z 24025G32KT 15SM FEW035 FEW055 SCT075 15/06 A2926 RMK CU2SC1AC1 SLP910

CYHM;2009-09-28 17:25;CYHM 281725Z 28025G35KT 10SM -SHRA BKN017 BKN039 RMK SC6SC2 CU ASOCTD

CYHM;2009-09-28 18:00;CYHM 281800Z 21018G26KT 15SM FEW024 SCT100 BKN250 14/10 A2926 RMK SC2AC1CI1 TCU EMBDD SLP910

CYHM;2009-09-28 19:00;CYHM 281900Z 25022G32KT 15SM BKN034 BKN120 BKN250 14/09 A2927 RMK SC5AC1CI1 TCU EMBDD SLP911

CYHM;2009-09-28 20:00;CYHM 282000Z 24018G26KT 15SM FEW028 FEW060 BKN100 14/09 A2928 RMK SC1SC1AS6 SUN DMLY VSBL CU ASOCTD SLP915

CYHM;2009-09-28 21:00;CYHM 282100Z 23018G28KT 15SM FEW022 BKN038 BKN120 13/10 A2929 RMK SC2SC4AC1 SLP920

CYHM;2009-09-28 22:00;CYHM 282200Z 24024G34KT 15SM BKN022 BKN064 13/11 A2931 RMK SC6SC1 TCU ASOCTD CUFRA ASOCTD SLP924

CYHM;2009-09-28 23:00;CYHM 282300Z 23024G36KT 15SM FEW022 BKN043 13/10 A2933 RMK SC2SC5 CUFRA ASOCTD SLP930

CYHM;2009-09-29 00:00;CYHM 290000Z 24022G32KT 15SM FEW018 BKN024 13/10 A2934 RMK SF2SC5 SLP935

CYHM;2009-09-29 01:00;CYHM 290100Z 24018G30KT 15SM FEW016 BKN024 12/10 A2935 RMK SF2SC5 CIG RGD SLP938

CYHM;2009-09-29 02:00;CYHM 290200Z 24015G30KT 15SM BKN022 BKN048 12/09 A2934 RMK SC6SC2 CIG RGD SLP936

CYHM;2009-09-29 03:00;CYHM 290300Z 24015G28KT 15SM FEW020 BKN110 11/09 A2934 RMK SC2AC6 SLP937

CYHM;2009-09-29 04:00;CYHM 290400Z 24012G20KT 15SM BKN020 11/09 A2934 RMK SC7 CIG RGD SLP938

CYHM;2009-09-29 05:00;CYHM 290500Z 23015KT 15SM BKN024 11/09 A2933 RMK SC7 CIG RGD SLP935

CYHM;2009-09-29 06:00;CYHM 290600Z 23015G22KT 15SM OVC017 11/10 A2932 RMK SC8 CIG RGD SLP931

CYHM;2009-09-29 07:00;CYHM 290700Z 24013G20KT 15SM OVC015 11/10 A2932 RMK SC8 SLP931

CYHM;2009-09-29 08:00;CYHM 290800Z 24017G24KT 15SM OVC015 11/10 A2931 RMK SC8 SLP928

CYHM;2009-09-29 08:45;CYHM 290845Z 23015G22KT 15SM -SHRA BKN016 OVC046 RMK SC6SC2

CYHM;2009-09-29 09:00;CYHM 290900Z 24018G26KT 15SM -SHRA OVC016 11/09 A2931 RMK SC8 SLP927

CYHM;2009-09-29 10:00;CYHM 291000Z 24018G26KT 15SM -SHRA OVC013 10/09 A2933 RMK SC8 SLP932

CYHM;2009-09-29 11:00;CYHM 291100Z 25018G23KT 15SM BKN012 BKN017 10/09 A2935 RMK SC6SC2 RERA SLP939

CYHM;2009-09-29 11:22;CYHM 291122Z 23015G20KT 5SM -SHRA BR OVC013 RMK SC8

CYHM;2009-09-29 12:00;CYHM 291200Z 26015G20KT 15SM -SHRA BKN009 OVC022 10/10 A2938 RMK SF6SC2 SLP951

CYHM;2009-09-29 13:00;CYHM 291300Z 27010KT 10SM -SHRA SCT008 BKN012 OVC027 11/11 A2941 RMK SF4SC2SC2 SLP962

CYHM;2009-09-29 13:48;CYHM 291348Z 25008KT 15SM FEW018 BKN051 RMK CU1SC6 RERA

CYHM;2009-09-29 14:00;CYHM 291400Z 25010KT 15SM FEW020 BKN052 BKN070 12/12 A2946 RMK CU1SC6AC1 SLP976

CYHM;2009-09-29 15:00;CYHM 291500Z 28012KT 15SM FEW018 SCT055 BKN110 15/13 A2949 RMK CU2SC2AC2 SLP986

CYHM;2009-09-29 16:00;CYHM 291600Z 30014KT 15SM SCT020 SCT042 BKN084 15/12 A2951 RMK CU3SC1AC2 SLP993

CYHM;2009-09-29 17:00;CYHM 291700Z 30015G20KT 15SM FEW022 BKN039 15/11 A2955 RMK CU2SC6 SLP006

CYHM;2009-09-29 18:00;CYHM 291800Z 28015G23KT 15SM BKN026 14/10 A2956 RMK SC7 CIG RGD SF ASOCTD SLP013

CYHM;2009-09-29 19:00;CYHM 291900Z 30014G22KT 15SM BKN024 BKN250 14/10 A2960 RMK SC7CI1 CIG RGD CI TR SLP024

CYHM;2009-09-29 20:00;CYHM 292000Z 31015G24KT 15SM BKN025 13/09 A2962 RMK SC7 CIG RGD SLP032

CYHM;2009-09-29 21:00;CYHM 292100Z 32015G24KT 15SM OVC024 12/09 A2966 RMK SC8 CIG RGD SLP047

CYHM;2009-09-29 22:00;CYHM 292200Z 31014G21KT 15SM OVC022 12/08 A2970 RMK SC8 SLP059

CYHM;2009-09-29 23:00;CYHM 292300Z 32014G23KT 15SM OVC024 11/07 A2972 RMK SC8 SLP067

CYHM;2009-09-30 00:00;CYHM 300000Z 31013KT 15SM SCT026 BKN094 11/08 A2975 RMK SC3AC3 SLP079

CYHM;2009-09-30 01:00;CYHM 300100Z 31013KT 15SM SCT024 BKN078 11/08 A2978 RMK SC4AC2 SLP088

CYHM;2009-09-30 02:00;CYHM 300200Z 30011KT 15SM FEW022 SCT076 BKN110 10/07 A2980 RMK SC2AC2AC3 SLP094

CYHM;2009-09-30 03:00;CYHM 300300Z 32010KT 15SM OVC024 10/07 A2981 RMK SC8 SLP099

CYHM;2009-09-30 04:00;CYHM 300400Z 32011KT 15SM BKN024 OVC080 09/07 A2983 RMK SC6AC2 SLP104

CYHM;2009-09-30 05:00;CYHM 300500Z 31010KT 15SM SCT022 OVC048 09/06 A2984 RMK SC3SC4 SLP106

CYHM;2009-09-30 06:00;CYHM 300600Z 32010KT 15SM SCT024 BKN120 08/05 A2985 RMK SC4AC1 SLP112

CYHM;2009-09-30 07:00;CYHM 300700Z 31008KT 15SM BKN026 08/05 A2987 RMK SC7 SLP119

CYHM;2009-09-30 08:00;CYHM 300800Z 31007KT 15SM OVC026 07/05 A2989 RMK SC8 CIG RGD SLP124

CYHM;2009-09-30 09:00;CYHM 300900Z 30004KT 15SM FEW022 FEW042 BKN100 07/05 A2990 RMK CF1SC1AS3 CUFRA SLP130

CYHM;2009-09-30 10:00;CYHM 301000Z 30006KT 15SM FEW024 BKN140 06/05 A2992 RMK SC2AS4 SLP135

CYHM;2009-09-30 11:00;CYHM 301100Z 33007KT 15SM BKN032 OVC061 07/05 A2994 RMK SC6SC2 SLP142

CYHM;2009-09-30 12:00;CYHM 301200Z 28010KT 15SM BKN031 BKN062 07/05 A2995 RMK SC6SC2 SLP148

CYHM;2009-09-30 13:00;CYHM 301300Z 32008KT 15SM FEW016 BKN062 08/05 A2996 RMK CU2SC6 SLP151

CYHM;2009-09-30 14:00;CYHM 301400Z 33010KT 15SM SCT022 BKN060 BKN220 09/05 A2997 RMK CU3SC2CI2 SLP154

CYHM;2009-09-30 15:00;CYHM 301500Z 32008KT 15SM SCT025 BKN046 BKN220 10/05 A2998 RMK CU3SC2CI2 SLP156

CYHM;2009-09-30 16:00;CYHM 301600Z 32010KT 15SM SCT027 BKN045 BKN180 10/04 A2998 RMK CU3SC2AC1 SLP157

CYHM;2009-09-30 17:00;CYHM 301700Z 28010KT 15SM FEW022 BKN046 BKN180 10/04 A2998 RMK CU2SC4AC2 SLP157

CYHM;2009-09-30 18:00;CYHM 301800Z 33009KT 15SM OVC048 10/03 A2997 RMK SC8 SF ASOCTD SLP155

CYHM;2009-09-30 19:00;CYHM 301900Z 30009KT 15SM BKN052 11/03 A2997 RMK SC7 SF ASOCTD SLP153

CYHM;2009-09-30 20:00;CYHM 302000Z 29009KT 15SM BKN052 11/03 A2997 RMK SC7 SF ASOCTD SLP155

CYHM;2009-09-30 20:45;CYHM 302045Z 30007KT 15SM BKN050 11/03 RMK SC7 TEST SEND PLEASE IGNORE

CYHM;2009-09-30 21:00;CYHM 302100Z 32011KT 15SM BKN052 BKN250 11/03 A2998 RMK SC6CI1 CI TR SLP157

CYHM;2009-09-30 22:00;CYHM 302200Z 28005KT 15SM BKN040 10/04 A2999 RMK SC7 SLP159

CYHM;2009-09-30 23:00;CYHM 302300Z 31012KT 15SM FEW034 BKN044 09/04 A3000 RMK SC2SC6 SF ASOCTD SLP163

CYHM;2009-10-01 01:00;CYHM 010100Z 30008KT 15SM BKN036 08/04 A3003 RMK SC7 SLP174

CYHM;2009-10-01 02:00;CYHM 010200Z 29005KT 15SM FEW025 BKN034 07/04 A3004 RMK SF2SC6 SLP177

CYHM;2009-10-01 03:00;CYHM 010300Z 29006KT 15SM BKN030 05/03 A3003 RMK SC5 SLP175

CYHM;2009-10-01 04:00;CYHM 010400Z 32009KT 15SM FEW025 06/02 A3004 RMK SC2 SLP176

CYHM;2009-10-01 05:00;CYHM 010500Z 28004KT 15SM BKN033 05/03 A3003 RMK SC7 SLP173

CYHM;2009-10-01 06:00;CYHM 010600Z 30005KT 15SM OVC024 06/04 A3003 RMK SC8 SLP175

CYHM;2009-10-01 07:00;CYHM 010700Z 28003KT 15SM FEW022 FEW110 05/03 A3003 RMK SC2AC1 SLP173

CYHM;2009-10-01 08:00;CYHM 010800Z 28003KT 15SM BKN026 05/04 A3003 RMK SC6 CF ASOCTD SLP174

CYHM;2009-10-01 09:00;CYHM 010900Z 28003KT 15SM FEW025 OVC038 05/04 A3004 RMK CF1SC7 SLP176

CYHM;2009-10-01 10:00;CYHM 011000Z 27005KT 15SM FEW025 BKN042 05/04 A3004 RMK CF1SC6 TR CF SLP177

CYHM;2009-10-01 11:00;CYHM 011100Z 26002KT 15SM FEW020 BKN048 05/04 A3004 RMK CF1SC6 SLP177

CYHM;2009-10-01 12:00;CYHM 011200Z 26007KT 15SM FEW020 BKN051 05/05 A3005 RMK CU1SC6 SLP181

CYHM;2009-10-01 13:00;CYHM 011300Z 25006KT 15SM FEW020 BKN053 06/05 A3005 RMK CU1SC7 CU TR SLP183

CYHM;2009-10-01 14:00;CYHM 011400Z 24006KT 15SM FEW030 BKN051 07/04 A3004 RMK CU1SC6 CU TR SLP178

CYHM;2009-10-01 15:00;CYHM 011500Z 23008KT 15SM FEW030 BKN050 BKN110 08/04 A3005 RMK CU1SC4AC1 SLP183

CYHM;2009-10-01 16:00;CYHM 011600Z 27010KT 15SM FEW030 BKN050 BKN110 10/03 A3005 RMK CU2SC4AC2 SLP181

CYHM;2009-10-01 17:00;CYHM 011700Z 27010KT 15SM FEW030 BKN044 11/03 A3003 RMK CU2SC5 SLP176

CYHM;2009-10-01 18:00;CYHM 011800Z 28010KT 15SM FEW035 BKN042 11/03 A3000 RMK CU2SC5 SLP164

CYHM;2009-10-01 19:00;CYHM 011900Z 27008KT 220V320 15SM BKN054 12/04 A2999 RMK SC7 SLP159

CYHM;2009-10-01 20:00;CYHM 012000Z 29008KT 220V320 15SM BKN056 13/03 A2997 RMK SC7 SLP155

CYHM;2009-10-01 21:00;CYHM 012100Z 28006KT 15SM BKN059 12/02 A2997 RMK SC7 SLP152

CYHM;2009-10-01 22:00;CYHM 012200Z 28003KT 15SM BKN052 BKN063 12/05 A2997 RMK SC5SC2 SLP152

CYHM;2009-10-01 23:00;CYHM 012300Z 04004KT 15SM BKN048 BKN060 11/04 A2997 RMK SC6SC1 SLP153

CYHM;2009-10-02 00:00;CYHM 020000Z 05006KT 15SM FEW045 BKN057 10/05 A2997 RMK SC1SC5 SLP154

CYHM;2009-10-02 01:00;CYHM 020100Z 04006KT 15SM FEW056 08/05 A2997 RMK SC2 SLP155

CYHM;2009-10-02 02:00;CYHM 020200Z 02006KT 15SM FEW050 06/05 A2997 RMK SC1 SLP156

CYHM;2009-10-02 03:00;CYHM 020300Z 04006KT 15SM SCT045 06/04 A2997 RMK SC3 SLP154

CYHM;2009-10-02 04:00;CYHM 020400Z 01006KT 15SM FEW045 05/04 A2997 RMK SC1 SLP154

CYHM;2009-10-02 05:00;CYHM 020500Z 03006KT 15SM SCT043 06/05 A2995 RMK SC4 SLP149

CYHM;2009-10-02 06:00;CYHM 020600Z 05007KT 15SM SCT043 BKN240 06/05 A2994 RMK SC4CI1 SLP144

CYHM;2009-10-02 07:00;CYHM 020700Z 06006KT 15SM SCT038 BKN240 05/05 A2992 RMK SC3CI2 SLP137

CYHM;2009-10-02 08:00;CYHM 020800Z 03003KT 15SM FEW038 BKN230 05/05 A2991 RMK SC1CI6 SLP134

CYHM;2009-10-02 09:00;CYHM 020900Z 06006KT 15SM BKN210 06/06 A2990 RMK CI5 SLP130

CYHM;2009-10-02 10:00;CYHM 021000Z 08006KT 15SM BKN180 06/06 A2989 RMK AC7 SLP125

CYHM;2009-10-02 11:00;CYHM 021100Z 06007KT 15SM BKN150 06/06 A2988 RMK AC7 SLP123

CYHM;2009-10-02 12:00;CYHM 021200Z 06008KT 15SM FEW030 BKN150 07/07 A2986 RMK SC1AC6 TR CU ASOCTD SLP117

CYHM;2009-10-02 13:00;CYHM 021300Z 08008KT 15SM BKN026 OVC130 09/08 A2982 RMK SC5AC3 TR CU ASOCTD SLP104

CYHM;2009-10-02 14:00;CYHM 021400Z 09010KT 15SM FEW026 SCT050 OVC130 10/09 A2980 RMK SC1SC3AC4 SLP097

CYHM;2009-10-02 14:47;CYHM 021447Z 09008KT 10SM -SHRA SCT045 OVC076 RMK SC4AC4

CYHM;2009-10-02 15:00;CYHM 021500Z 10012KT 10SM -SHRA OVC072 10/09 A2978 RMK AC8 SLP090

CYHM;2009-10-02 16:00;CYHM 021600Z 09010KT 5SM -RA BR OVC058 09/09 A2975 RMK SC8 SLP079

CYHM;2009-10-02 17:00;CYHM 021700Z 09012KT 4SM -RA BR BKN016 OVC041 09/09 A2973 RMK SC6SC2 SLP073

CYHM;2009-10-02 17:47;CYHM 021747Z 07012KT 3SM -RA BR BKN004 BKN012 OVC034 RMK SF5SC2SC2

CYHM;2009-10-02 18:00;CYHM 021800Z 06012KT 3SM -RA BR BKN005 OVC034 09/09 A2968 RMK SF6SC2 SLP055

CYHM;2009-10-02 19:00;CYHM 021900Z 08010KT 3SM -RA BR OVC005 08/08 A2967 RMK SF8 VIS VRB 2 - 4 SLP053

CYHM;2009-10-02 20:00;CYHM 022000Z 08010KT 8SM -RA OVC005 09/09 A2964 RMK SF8 CIG RAG SLP042

CYHM;2009-10-02 21:00;CYHM 022100Z 07010KT 2SM -RA BR SCT004 OVC008 09/09 A2963 RMK FG1SF2SF5 SLP039

CYHM;2009-10-02 21:42;CYHM 022142Z 08005KT 1SM -RA BR OVC005 RMK FG2SF6 VIS VRB 3/4 - 11/4

CYHM;2009-10-02 22:00;CYHM 022200Z 07007KT 1SM -RA BR OVC003 09/09 A2962 RMK FG2SF6 VIS VRB 3/4 - 11/4 SLP037

CYHM;2009-10-02 23:00;CYHM 022300Z 11007KT 1 1/2SM -RA BR OVC003 10/10 A2962 RMK FG2SF6 VIS VRB 1 - 2 SLP035

CYHM;2009-10-03 00:00;CYHM 030000Z 22004KT 3SM -RA BR SCT007 OVC016 11/11 A2962 RMK SF4SC4 VIS VRB 2 - 4 SLP033

CYHM;2009-10-03 00:41;CYHM 030041Z 26005KT 8SM -TSRA OVC005 RMK SF8 CB ASOCTD OCNL LTNG

CYHM;2009-10-03 01:00;CYHM 030100Z 22007KT 5SM -TSRA OVC025 12/12 A2965 RERA RMK SC8 CB ASOCTD SLP045

CYHM;2009-10-03 02:00;CYHM 030200Z 16004KT 10SM -TSRA SCT045 BKN090 11/11 A2966 RMK SC3AC4 CB ASOCTD RERA SLP046

CYHM;2009-10-03 02:30;CYHM 030230Z 19007KT 15SM FEW100 FEW250 RETS RMK AC2CI1

CYHM;2009-10-03 03:00;CYHM 030300Z 19007KT 15SM FEW073 FEW100 10/10 A2969 RETS RMK AC2AC1 SLP057

CYHM;2009-10-03 03:26;CYHM 030326Z 20007KT 12SM FEW003 SCT045 RMK CF2SC2

CYHM;2009-10-03 04:00;CYHM 030400Z 20007KT 15SM FEW003 FEW040 09/09 A2970 RMK CF1SC1 TR CF SLP062

CYHM;2009-10-03 05:00;CYHM 030500Z 21007KT 15SM FEW030 08/08 A2971 RMK SC1 SLP066

CYHM;2009-10-03 06:00;CYHM 030600Z 20005KT 15SM FEW030 07/07 A2974 RMK SC2 SLP074

CYHM;2009-10-03 07:00;CYHM 030700Z 22004KT 15SM BKN092 07/07 A2973 RMK AC6 SLP072

CYHM;2009-10-03 08:00;CYHM 030800Z 00000KT 15SM BKN095 08/07 A2973 RMK AC6 SLP071

CYHM;2009-10-03 09:00;CYHM 030900Z 14005KT 15SM FEW040 BKN120 07/07 A2973 RMK SC2AC4 SLP073

CYHM;2009-10-03 10:00;CYHM 031000Z 13007KT 15SM FEW085 SCT120 07/06 A2973 RMK AC2AC2 SLP072

CYHM;2009-10-03 11:00;CYHM 031100Z 13006KT 15SM BKN069 BKN120 07/07 A2973 RMK AC5AC2 SLP072

CYHM;2009-10-03 12:00;CYHM 031200Z 14003KT 15SM BKN079 08/08 A2973 RMK AC7 SLP071

CYHM;2009-10-03 13:00;CYHM 031300Z 14006KT 15SM BKN081 BKN110 11/10 A2973 RMK AC6AC1 SLP070

CYHM;2009-10-03 14:00;CYHM 031400Z 17008KT 15SM VCSH BKN074 BKN130 13/10 A2973 RMK AC6AC2 SLP071

CYHM;2009-10-03 15:00;CYHM 031500Z 18009KT 15SM VCSH BKN077 BKN140 14/10 A2973 RMK AC5AC2 SLP069

CYHM;2009-10-03 16:00;CYHM 031600Z 20016G23KT 15SM FEW030 BKN120 BKN250 16/10 A2972 RMK CU2AC4CI1 SLP067

CYHM;2009-10-03 17:00;CYHM 031700Z 21016KT 15SM FEW030 BKN078 BKN130 15/10 A2973 RMK CU1AC4AC2 VIRGA SLP071

CYHM;2009-10-03 18:00;CYHM 031800Z 19011KT 15SM FEW030 BKN086 OVC120 15/10 A2971 RMK CU1AC6AC2 CU TR SLP065

CYHM;2009-10-03 19:00;CYHM 031900Z 20011KT 15SM FEW025 SCT040 BKN086 BKN140 15/10 A2971 RMK CU2SC2AC2AC2 SLP063

CYHM;2009-10-03 19:21;CYHM 031921Z 21014KT 15SM -SHRA FEW025 SCT040 BKN070 BKN140 RMK CU2SC2AC2AC2

CYHM;2009-10-03 20:00;CYHM 032000Z 21011KT 15SM FEW025 SCT040 BKN060 BKN082 15/09 A2971 RMK CU1SC2SC2AC2 OCNL -SHRA SLP065

CYHM;2009-10-03 20:35;CYHM 032035Z 23012G20KT 12SM -SHRA FEW015 FEW025 BKN039 BKN085 RMK CF1CU1SC4AC2 TCU EMBD

CYHM;2009-10-03 20:53;CYHM 032053Z 26015KT 2 1/2SM -SHRA BR FEW015 FEW025 BKN039 OVC067 RMK FG1CF1CU1SC4AC2

CYHM;2009-10-03 20:54;CYHM 032054Z 27015KT 2 1/2SM -TSRA BR FEW015 FEW025 BKN039 OVC067 RMK FG1CF1CU1SC4AC2 CB EMBD

CYHM;2009-10-03 21:00;CYHM 032100Z 27014KT 1 3/4SM -TSRA BR FEW015 FEW022 BKN028 OVC067 09/08 A2978 RMK FG2CF1CU1SC4AC1 CB EMBD PRESRR SLP088

CYHM;2009-10-03 21:12;CYHM 032112Z 28010KT 3SM -TSRA BR FEW015 BKN029 OVC050 RMK CF1SC5SC2 CB EMBD

CYHM;2009-10-03 21:26;CYHM 032126Z 27007KT 10SM -SHRA FEW015 SCT028 OVC049 RETS RMK CF1SC3SC4

CYHM;2009-10-03 22:00;CYHM 032200Z 25009KT 8SM -SHRA FEW015 SCT030 BKN055 09/09 A2978 RETS RMK CF1SC4SC3 CF TR SLP089

CYHM;2009-10-03 22:21;CYHM 032221Z 22007KT 12SM VCSH SCT029 BKN047 BKN075 RMK SC3SC3AC1

CYHM;2009-10-03 22:28;CYHM 032228Z 22007KT 6SM -SHRA BR FEW020 BKN030 BKN047 RMK CU1SC4SC2

CYHM;2009-10-03 22:45;CYHM 032245Z 22007KT 12SM FEW020 SCT030 BKN047 BKN095 RMK CU1SC2SC2AC1

CYHM;2009-10-03 23:00;CYHM 032300Z 22006KT 15SM FEW020 FEW030 SCT047 09/09 A2979 RMK CU1SC2SC2 SLP092

CYHM;2009-10-04 00:00;CYHM 040000Z 23007KT 15SM SCT033 BKN063 09/09 A2980 RMK SC4SC2 SLP095

CYHM;2009-10-04 01:00;CYHM 040100Z 22006KT 15SM FEW040 08/07 A2981 RMK SC2 SLP097

CYHM;2009-10-04 02:00;CYHM 040200Z 22007KT 15SM FEW035 FEW050 08/07 A2981 RMK SC1SC1 SLP099

CYHM;2009-10-04 03:00;CYHM 040300Z 23005KT 15SM FEW035 BKN100 07/07 A2983 RMK SC2AC2 SLP105

CYHM;2009-10-04 04:00;CYHM 040400Z 21004KT 15SM BKN073 09/08 A2983 RMK AC6 SLP106

CYHM;2009-10-04 05:00;CYHM 040500Z 21004KT 15SM BKN100 08/08 A2984 RMK AC6 SLP108

CYHM;2009-10-04 06:00;CYHM 040600Z 25003KT 15SM BKN110 09/08 A2983 RMK AC6 SLP105

CYHM;2009-10-04 07:00;CYHM 040700Z 21004KT 15SM FEW057 FEW110 08/08 A2983 RMK SC1AC1 SLP103

CYHM;2009-10-04 08:00;CYHM 040800Z 23004KT 15SM BKN110 08/08 A2983 RMK AC6 SLP104

CYHM;2009-10-04 09:00;CYHM 040900Z 24004KT 15SM BKN070 BKN150 07/07 A2984 RMK AC6AC2 SLP108

CYHM;2009-10-04 10:00;CYHM 041000Z 17005KT 15SM FEW070 BKN150 08/08 A2984 RMK AC2AC5 SLP111

CYHM;2009-10-04 11:00;CYHM 041100Z 19005KT 4SM BR FEW025 SCT070 BKN150 07/07 A2985 RMK SC2AC2AC3 SLP114

CYHM;2009-10-04 11:26;CYHM 041126Z 23005KT 4SM BR BKN006 BKN025 RMK SF5SC2

CYHM;2009-10-04 12:00;CYHM 041200Z 21005KT 6SM BR FEW006 BKN075 BKN100 07/07 A2987 RMK SF2AC3AC2 SLP119

CYHM;2009-10-04 13:00;CYHM 041300Z 23003KT 12SM FEW030 BKN075 09/09 A2988 RMK SC2AC5 SLP122

CYHM;2009-10-04 14:00;CYHM 041400Z 23005KT 12SM FEW035 BKN070 10/10 A2989 RMK SC2AC5 SLP127

CYHM;2009-10-04 15:00;CYHM 041500Z 21006KT 12SM FEW030 BKN075 BKN120 11/11 A2990 RMK SC2AC4AC2 SLP129

CYHM;2009-10-04 16:00;CYHM 041600Z 23007KT 15SM FEW018 BKN047 BKN070 12/11 A2990 RMK CU2SC3AC2 SLP128

CYHM;2009-10-04 17:00;CYHM 041700Z 25007KT 15SM FEW017 BKN048 BKN066 14/11 A2989 RMK CU2SC3AC2 SLP126

CYHM;2009-10-04 17:30;CYHM 041730Z 28007KT 12SM -SHRA SCT019 BKN030 OVC066 13/ RMK CU3SC2AC2

CYHM;2009-10-04 18:00;CYHM 041800Z 25005KT 6SM -SHRA BR FEW030 BKN050 OVC055 12/11 A2989 RMK CU2SC3SC2 SLP124

CYHM;2009-10-04 18:23;CYHM 041823Z 23006KT 10SM FEW020 BKN044 BKN066 RMK CU2SC2AC2 OCNL -SHRA

CYHM;2009-10-04 19:00;CYHM 041900Z 25008KT 12SM FEW022 BKN038 BKN067 14/10 A2988 RMK CU2SC3AC2 SLP120

CYHM;2009-10-04 20:00;CYHM 042000Z 25009KT 15SM FEW022 SCT037 BKN070 14/10 A2988 RMK CU2SC2AC3 SLP121

CYHM;2009-10-04 21:00;CYHM 042100Z 26007KT 15SM FEW022 SCT033 BKN072 13/09 A2988 RMK CU2SC2AC4 SLP123

CYHM;2009-10-04 22:00;CYHM 042200Z 25010KT 15SM FEW022 SCT034 BKN074 13/09 A2989 RMK CU2SC2AC2 SLP125

CYHM;2009-10-04 22:37;CYHM 042237Z 25012KT 10SM -SHRA FEW022 BKN036 BKN072 RMK CU1SC4AC2

CYHM;2009-10-04 23:00;CYHM 042300Z 25008KT 15SM -SHRA FEW020 BKN035 BKN062 11/09 A2991 RMK CU2SC3SC2 TCU EMBD SLP131

CYHM;2009-10-05 00:00;CYHM 050000Z 25007KT 15SM -SHRA BKN036 BKN070 BKN095 10/09 A2991 RMK SC5AC1AC2 PCPN VRY LGT SLP135

CYHM;2009-10-05 00:18;CYHM 050018Z 26007KT 15SM SCT035 BKN092 BKN120 RMK SC3AC3AC1

CYHM;2009-10-05 01:00;CYHM 050100Z 26006KT 15SM FEW040 BKN077 BKN095 09/09 A2993 RMK SC2AC2AC2 SLP141

CYHM;2009-10-05 02:00;CYHM 050200Z 27005KT 15SM SCT066 BKN078 BKN120 09/09 A2994 RMK AC3AC2AC2 SLP143

CYHM;2009-10-05 03:00;CYHM 050300Z 21005KT 10SM MIFG FEW060 FEW120 06/06 A2994 RMK SC1AC1 SLP142

CYHM;2009-10-05 04:00;CYHM 050400Z 23006KT 15SM FEW120 06/06 A2993 RMK AC1 SLP141

CYHM;2009-10-05 05:00;CYHM 050500Z 24009KT 15SM FEW200 08/08 A2992 RMK CI1 SLP138

CYHM;2009-10-05 06:00;CYHM 050600Z 24008KT 15SM FEW100 08/07 A2992 RMK AC1 SLP136

CYHM;2009-10-05 07:00;CYHM 050700Z 24007KT 15SM FEW140 07/07 A2993 RMK AC1 SLP138

CYHM;2009-10-05 08:00;CYHM 050800Z 25007KT 15SM FEW140 07/07 A2993 RMK AC1 SLP138

CYHM;2009-10-05 09:00;CYHM 050900Z 25007KT 15SM FEW020 FEW120 08/08 A2993 RMK SC1AC1 SLP140

CYHM;2009-10-05 10:00;CYHM 051000Z 25007KT 15SM FEW220 07/07 A2994 RMK CI1 SLP143

CYHM;2009-10-05 11:00;CYHM 051100Z 24006KT 15SM FEW030 07/07 A2994 RMK SC1 TR CU ASOCTD SLP144

CYHM;2009-10-05 12:00;CYHM 051200Z 28010KT 15SM BKN005 BKN055 07/07 A2997 RMK SF5SC2 SLP155

CYHM;2009-10-05 13:00;CYHM 051300Z 28006KT 5SM BR BKN007 09/09 A2998 RMK SF6 SLP157

CYHM;2009-10-05 13:22;CYHM 051322Z 27006KT 7SM SCT006 BKN012 RMK SF4SC3

CYHM;2009-10-05 14:00;CYHM 051400Z 24007KT 15SM FEW012 BKN055 10/09 A2997 RMK CF2SC6 SLP153

CYHM;2009-10-05 15:00;CYHM 051500Z 26010KT 15SM FEW015 BKN056 11/10 A2997 RMK CU2SC3 SLP154

CYHM;2009-10-05 16:00;CYHM 051600Z 26012KT 15SM FEW025 BKN033 BKN056 13/10 A2997 RMK CU2SC3SC2 SLP154

CYHM;2009-10-05 17:00;CYHM 051700Z 32008KT 15SM -SHRA FEW020 BKN031 11/09 A2997 RMK CU2SC5 SLP154

CYHM;2009-10-05 17:18;CYHM 051718Z 33004KT 15SM FEW030 BKN059 RMK CU2SC5 RERA

CYHM;2009-10-05 18:00;CYHM 051800Z 24005KT 15SM FEW034 BKN064 BKN080 14/09 A2995 RMK SF1SC5AC1 AC TR SLP145

CYHM;2009-10-05 19:00;CYHM 051900Z 25014KT 15SM FEW036 BKN058 14/07 A2994 RMK SF2SC5 TCU EMBDD CEILING RGD SLP144

CYHM;2009-10-05 20:00;CYHM 052000Z 24014KT 15SM FEW038 BKN076 13/07 A2996 RMK SC2AC5 CUFRA ASOCTD SLP149

CYHM;2009-10-05 21:00;CYHM 052100Z 25013KT 15SM FEW036 SCT074 BKN250 13/07 A2995 RMK CU1AC2CI1 CONTRAIL SLP147

CYHM;2009-10-05 22:00;CYHM 052200Z 24010KT 15SM FEW048 FEW064 SCT250 13/07 A2996 RMK CU1SC2CI1 CU TR SLP150

CYHM;2009-10-05 23:00;CYHM 052300Z 26010KT 15SM FEW045 FEW250 11/07 A2997 RMK SC2CI1 CI TR SLP152

CYHM;2009-10-06 00:00;CYHM 060000Z 27003KT 15SM FEW044 SCT250 10/07 A2998 RMK SC2CI1 SLP157

CYHM;2009-10-06 01:00;CYHM 060100Z 25003KT 15SM BKN052 09/07 A2999 RMK SC6 SLP161

CYHM;2009-10-06 02:00;CYHM 060200Z 25003KT 15SM BKN057 08/07 A3001 RMK SC6 SLP166

CYHM;2009-10-06 03:00;CYHM 060300Z 24003KT 15SM BKN036 08/07 A3000 RMK SC7 SLP163

CYHM;2009-10-06 04:00;CYHM 060400Z 24003KT 15SM FEW058 07/06 A3000 RMK SC1 SLP163

CYHM;2009-10-06 05:00;CYHM 060500Z 24003KT 15SM FEW044 06/06 A2998 RMK SC1 SC TR SLP157

CYHM;2009-10-06 06:00;CYHM 060600Z 26006KT 15SM FEW044 07/06 A2999 RMK SC1 SC TR SLP158

CYHM;2009-10-06 07:00;CYHM 060700Z 24005KT 15SM BKN150 05/05 A2999 RMK AC6 SLP158

CYHM;2009-10-06 08:00;CYHM 060800Z 26003KT 15SM OVC140 07/06 A2998 RMK AC8 SLP157

CYHM;2009-10-06 09:00;CYHM 060900Z 28002KT 15SM SCT190 06/06 A2998 RMK AC4 SLP157

CYHM;2009-10-06 10:00;CYHM 061000Z 23003KT 15SM BKN160 06/06 A2998 RMK AC6 SLP158

CYHM;2009-10-06 11:00;CYHM 061100Z 00000KT 15SM BKN110 BKN160 07/06 A2998 RMK AC6AC2 SLP158

CYHM;2009-10-06 12:00;CYHM 061200Z 00000KT 15SM FEW025 BKN098 07/07 A2998 RMK CU1AC6 SLP158

CYHM;2009-10-06 13:00;CYHM 061300Z 00000KT 15SM FEW025 BKN120 08/08 A2998 RMK CU1AC6 SLP158

CYHM;2009-10-06 14:00;CYHM 061400Z 00000KT 15SM FEW025 SCT100 BKN120 10/09 A2997 RMK CU1AC4AC3 TR TCU SE SLP154

CYHM;2009-10-06 15:00;CYHM 061500Z 18005KT 15SM FEW025 SCT090 BKN120 12/09 A2995 RMK CU1AC3AC3 SLP147

CYHM;2009-10-06 16:00;CYHM 061600Z 16007KT 15SM FEW030 BKN100 BKN160 13/09 A2992 RMK CU1AC4AC2 SC ASOCTD SLP137

CYHM;2009-10-06 17:00;CYHM 061700Z 15004KT 15SM SCT027 SCT042 BKN120 14/09 A2989 RMK CU3SC1AC2 SLP126

CYHM;2009-10-06 18:00;CYHM 061800Z 17009KT 15SM FEW026 BKN046 BKN250 14/09 A2985 RMK SF2SC5CI1 SLP111

CYHM;2009-10-06 19:00;CYHM 061900Z 18007KT 15SM SCT044 BKN110 BKN250 15/08 A2981 RMK SC3AC2CI1 CU ASOCTD CI TR SLP098

CYHM;2009-10-06 20:00;CYHM 062000Z 15008KT 15SM FEW036 BKN110 14/08 A2976 RMK CU1AS6 AC ASOCTD SLP082

CYHM;2009-10-06 21:00;CYHM 062100Z 14011KT 15SM FEW084 BKN130 14/08 A2971 RMK AC2AC6 SLP065

CYHM;2009-10-06 22:00;CYHM 062200Z 11006KT 15SM -SHRA OVC075 13/09 A2968 RMK AC8 SLP053

CYHM;2009-10-06 23:00;CYHM 062300Z 07007KT 8SM -SHRA OVC050 12/10 A2963 RMK SC8 SLP038

CYHM;2009-10-07 00:00;CYHM 070000Z 09007KT 12SM -SHRA OVC041 12/10 A2956 RMK SC8 SLP013

CYHM;2009-10-07 01:00;CYHM 070100Z 10010KT 4SM -RA BR OVC024 11/11 A2950 RMK SC8 SLP993

CYHM;2009-10-07 01:34;CYHM 070134Z 13009KT 1SM -RA BR BKN007 OVC018 RMK FG2SF5SC2

CYHM;2009-10-07 02:00;CYHM 070200Z 15006KT 1 1/4SM -RA BR BKN006 OVC018 12/12 A2943 RMK FG3SF3SC2 CIG RGD SLP971

CYHM;2009-10-07 03:00;CYHM 070300Z 18009KT 3SM -RA BR OVC004 13/13 A2938 RMK FG3SF5 SLP951

CYHM;2009-10-07 04:00;CYHM 070400Z 20012KT 5SM -RA BR BKN004 OVC024 14/14 A2934 RMK SF5SC3 SLP937

CYHM;2009-10-07 05:00;CYHM 070500Z 25013KT 15SM FEW012 FEW044 14/13 A2934 RMK SF2SC1 SLP937

CYHM;2009-10-07 06:00;CYHM 070600Z 23009KT 15SM BKN110 13/12 A2935 RMK AC6 SLP938

CYHM;2009-10-07 07:00;CYHM 070700Z 23012KT 15SM FEW120 12/10 A2934 RMK AC2 SLP937

CYHM;2009-10-07 08:00;CYHM 070800Z 24015KT 15SM FEW065 12/09 A2933 RMK SC2 SLP934

CYHM;2009-10-07 09:00;CYHM 070900Z 24015G21KT 15SM FEW034 FEW074 SCT096 12/07 A2933 RMK SC1AC2AC1 SLP932

CYHM;2009-10-07 10:00;CYHM 071000Z 23018G26KT 15SM SCT036 BKN050 11/07 A2935 RMK SC3SC4 SF ASOCTD SLP938

CYHM;2009-10-07 11:00;CYHM 071100Z 25022G32KT 15SM BKN031 BKN042 BKN068 10/06 A2938 RMK SC5SC2AC1 CU ASOCTD SLP950

CYHM;2009-10-07 11:51;CYHM 071151Z 26018G23KT 8SM -SHRA BKN026 OVC036 RMK SC6SC2

CYHM;2009-10-07 12:00;CYHM 071200Z 25025G30KT 8SM -SHRA BKN020 OVC032 09/06 A2941 RMK SC6SC2 SLP963

CYHM;2009-10-07 13:00;CYHM 071300Z 25025G30KT 10SM -SHRA BKN016 OVC023 09/07 A2944 RMK SC6SC2 SLP972

CYHM;2009-10-07 14:00;CYHM 071400Z 26025G35KT 15SM BKN017 OVC022 09/08 A2947 RMK SC6SC2 RERA SLP983

CYHM;2009-10-07 15:00;CYHM 071500Z 26025G30KT 15SM BKN019 OVC026 11/08 A2953 RMK SC6SC2 SLP001

CYHM;2009-10-07 16:00;CYHM 071600Z 28022G28KT 15SM BKN024 OVC032 11/08 A2959 RMK SC6SC2 SLP023

CYHM;2009-10-07 17:00;CYHM 071700Z 28015G26KT 15SM SCT028 BKN039 11/07 A2966 RMK SC4SC3 TR CU ASOCTD SLP046

CYHM;2009-10-07 18:00;CYHM 071800Z 30015G26KT 15SM OVC034 11/07 A2970 RMK SC8 SF ASOCTD CIG RGD SLP058

CYHM;2009-10-07 19:00;CYHM 071900Z 28015G24KT 15SM BKN038 11/06 A2975 RMK SC7 SF ASOCTD CIG RGD SLP077

CYHM;2009-10-07 20:00;CYHM 072000Z 29015G24KT 15SM BKN031 11/06 A2981 RMK SC7 SF ASOCTD SLP094

CYHM;2009-10-07 21:00;CYHM 072100Z 28013G20KT 15SM BKN038 11/07 A2984 RMK SC7 SF ASOCTD CIG RGD SLP107

CYHM;2009-10-07 22:00;CYHM 072200Z 27007G15KT 15SM BKN052 11/07 A2987 RMK SC7 SF ASOCTD SLP118

CYHM;2009-10-07 23:00;CYHM 072300Z 27012KT 15SM BKN054 11/07 A2990 RMK SC7 CU ASOCTD SLP128

CYHM;2009-10-08 00:00;CYHM 080000Z 26008KT 15SM FEW030 BKN050 10/07 A2992 RMK CU2SC3 SLP136

CYHM;2009-10-08 01:00;CYHM 080100Z 28007KT 15SM FEW030 BKN052 10/07 A2994 RMK CU1SC4 SLP144

CYHM;2009-10-08 02:00;CYHM 080200Z 26006KT 15SM FEW050 08/06 A2997 RMK SC2 SLP152

CYHM;2009-10-08 03:00;CYHM 080300Z 25005KT 15SM FEW045 06/05 A2999 RMK SC2 SLP159

CYHM;2009-10-08 04:00;CYHM 080400Z 25005KT 15SM BKN053 07/06 A2999 RMK SC6 SLP161

CYHM;2009-10-08 05:00;CYHM 080500Z 24003KT 15SM FEW056 06/06 A3000 RMK SC2 SLP163

CYHM;2009-10-08 06:00;CYHM 080600Z 24003KT 15SM MIFG FEW030 06/06 A3000 RMK SC1 SLP164

CYHM;2009-10-08 07:00;CYHM 080700Z 25005KT 15SM FEW070 06/06 A3003 RMK AC1 SLP172

CYHM;2009-10-08 08:00;CYHM 080800Z 26005KT 15SM SCT049 BKN210 06/05 A3003 RMK SC3CI1 SLP174

CYHM;2009-10-08 09:00;CYHM 080900Z 24005KT 15SM FEW050 04/04 A3004 RMK SC1 SLP177

CYHM;2009-10-08 10:00;CYHM 081000Z 24002KT 15SM MIFG SKC 04/04 A3004 RMK SLP179

CYHM;2009-10-08 11:00;CYHM 081100Z 23004KT 15SM MIFG SKC 04/04 A3005 RMK SLP182

CYHM;2009-10-08 12:00;CYHM 081200Z 25004KT 15SM FEW220 04/04 A3007 RMK CI1 SLP188

CYHM;2009-10-08 13:00;CYHM 081300Z 23004KT 15SM FEW220 07/06 A3006 RMK CI1 SLP184

CYHM;2009-10-08 14:00;CYHM 081400Z 20005KT 15SM FEW020 BKN220 10/08 A3004 RMK CU1CI4 CU TR SLP179

CYHM;2009-10-08 15:00;CYHM 081500Z 19012KT 15SM FEW020 BKN220 14/10 A3004 RMK CU1CI4 SLP178

CYHM;2009-10-08 16:00;CYHM 081600Z 22012KT 15SM FEW032 BKN220 15/09 A3003 RMK CU1CI4 CONTRAIL SLP173

CYHM;2009-10-08 17:00;CYHM 081700Z 25012KT 15SM FEW035 BKN210 16/09 A3002 RMK CU2CI3 CONTRAIL SLP169

CYHM;2009-10-08 18:00;CYHM 081800Z 22015KT 15SM FEW038 BKN210 17/10 A3002 RMK CU2CS5 HALO SLP168

CYHM;2009-10-08 19:00;CYHM 081900Z 21010KT 15SM FEW032 FEW170 OVC230 15/09 A3002 RMK CU1AC2CS6 SLP168

CYHM;2009-10-08 20:00;CYHM 082000Z 22013KT 15SM FEW032 FEW180 OVC230 15/08 A3001 RMK CU1AC2CS6 CU TR SLP167

CYHM;2009-10-08 21:00;CYHM 082100Z 21012KT 15SM FEW098 BKN190 OVC230 14/09 A3000 RMK AC2AC3CS3 SLP164

CYHM;2009-10-08 22:00;CYHM 082200Z 21009KT 15SM BKN120 OVC230 14/09 A2999 RMK AC7CS1 SLP160

CYHM;2009-10-08 23:00;CYHM 082300Z 21009KT 15SM OVC090 13/09 A2999 RMK AC8 SLP159

CYHM;2009-10-09 00:00;CYHM 090000Z 20008KT 15SM OVC077 12/09 A2998 RMK AC8 SLP156

CYHM;2009-10-09 00:22;CYHM 090022Z 21008KT 15SM -SHRA OVC071 RMK AC8

CYHM;2009-10-09 01:00;CYHM 090100Z 21008KT 15SM -SHRA SCT066 OVC091 12/10 A2997 RMK AC3AC5 SLP154

CYHM;2009-10-09 02:00;CYHM 090200Z 20010KT 15SM -SHRA BKN049 OVC068 12/10 A2996 RMK SC6AC2 PCPN VRY LGT SLP149

CYHM;2009-10-09 02:25;CYHM 090225Z 21009KT 15SM OVC048 RMK SC8

CYHM;2009-10-09 03:00;CYHM 090300Z 21009KT 15SM -SHRA BKN046 OVC058 11/10 A2995 RMK SC6SC2 SLP146

CYHM;2009-10-09 04:00;CYHM 090400Z 22009KT 15SM -SHRA FEW024 SCT038 OVC074 10/10 A2993 RMK SC2SC2AC5 PCPN VRY LGT SLP137

CYHM;2009-10-09 05:00;CYHM 090500Z 29004KT 15SM FEW023 OVC046 10/10 A2992 RMK SC1SC7 SLP135

CYHM;2009-10-09 05:19;CYHM 090519Z 27005KT 5SM -SHRA BR SCT024 OVC046 RMK SC4SC4

CYHM;2009-10-09 06:00;CYHM 090600Z 21002KT 7SM -SHRA FEW010 BKN026 OVC035 10/10 A2989 RMK CF1SC6SC2 CF TR SLP125

CYHM;2009-10-09 06:37;CYHM 090637Z 02002KT 2 1/2SM -SHRA BR SCT013 OVC026 RMK SC3SC5

CYHM;2009-10-09 07:00;CYHM 090700Z 00000KT 2 1/2SM -SHRA BR FEW014 OVC029 10/10 A2988 RMK SC2SC6 SLP121

CYHM;2009-10-09 08:00;CYHM 090800Z 09003KT 1 1/2SM -SHRA BR SCT006 OVC031 10/10 A2984 RMK FG2CF2SC5 SLP108

CYHM;2009-10-09 08:37;CYHM 090837Z 08002KT 2SM -SHRA BR BKN002 OVC019 RMK FG1CF6SC1

CYHM;2009-10-09 09:00;CYHM 090900Z 10003KT 1 1/2SM -SHRA BR BKN002 OVC015 10/10 A2985 RMK FG2CF6SC1 SLP110

CYHM;2009-10-09 10:00;CYHM 091000Z 10004KT 2SM -SHRA BR BKN002 OVC009 10/10 A2984 RMK FG1CF5SC2 CIG RAG SLP109

CYHM;2009-10-09 11:00;CYHM 091100Z 12004KT 2 1/2SM -SHRA BR OVC003 10/10 A2982 RMK SF8 CIG RAG SLP100

CYHM;2009-10-09 11:24;CYHM 091124Z 11003KT 1 1/2SM -SHRA BR OVC003 RMK FG2SF6

CYHM;2009-10-09 12:00;CYHM 091200Z 00000KT 1SM -SHRA BR BKN006 OVC013 10/10 A2983 RMK FG2SF4SC2 SLP103

CYHM;2009-10-09 13:00;CYHM 091300Z 04002KT 1 1/2SM -SHRA BR BKN002 OVC011 10/10 A2982 RMK FG2SF5SC1 SLP100

CYHM;2009-10-09 13:38;CYHM 091338Z 08002KT 2 1/2SM -SHRA BR BKN007 OVC017 RMK SF6SC2

CYHM;2009-10-09 14:00;CYHM 091400Z 08002KT 3SM -RA BR BKN003 OVC012 10/10 A2981 RMK SF6SC2 SLP097

CYHM;2009-10-09 15:00;CYHM 091500Z 05004KT 2 1/2SM -RA BR OVC003 11/11 A2978 RMK SF8 SLP089

CYHM;2009-10-09 16:00;CYHM 091600Z 02004KT 2SM -RA BR OVC004 11/11 A2979 RMK SF8 SLP090

CYHM;2009-10-09 17:00;CYHM 091700Z 02004KT 1 1/2SM -RA BR OVC004 10/10 A2979 RMK SF8 SLP091

CYHM;2009-10-09 17:13;CYHM 091713Z 05007KT 1SM -RA BR OVC002 RMK FG2SF6 CIG RAG

CYHM;2009-10-09 17:30;CYHM 091730Z 06006KT 3/4SM -RA BR OVC002 RMK FG3SF5

CYHM;2009-10-09 18:00;CYHM 091800Z 04008KT 1 1/2SM -RA BR OVC002 10/10 A2977 RMK FG2SF6 CIG RAG VIS VRBL1-2SM SLP084

CYHM;2009-10-09 19:00;CYHM 091900Z 00000KT 2SM -RA BR BKN005 OVC025 11/11 A2976 RMK FG1SF6SC2 CIG RAG SLP082

CYHM;2009-10-09 20:00;CYHM 092000Z 05005KT 3SM -RA BR BKN006 OVC030 10/10 A2977 RMK SF6SC2 VIS VRB 2 - 4 SLP084

CYHM;2009-10-09 20:41;CYHM 092041Z 07009KT 5SM -RA BR BKN004 OVC040 RMK SF6SC2 CIG RAG

CYHM;2009-10-09 21:00;CYHM 092100Z 06008KT 3SM -RA BR OVC004 10/10 A2975 RMK SF8 VIS VRB 2 - 4 SLP076

CYHM;2009-10-09 22:00;CYHM 092200Z 06009KT 2SM -RA BR BKN003 OVC010 10/10 A2975 RMK FG1SF6SC2 CIG RAG SLP076

CYHM;2009-10-09 23:00;CYHM 092300Z 05008KT 1 1/2SM -RA BR OVC002 10/10 A2976 RMK FG2SF6 VIS VRB 1 - 2 SLP082

CYHM;2009-10-10 00:00;CYHM 100000Z 04007KT 1 1/2SM -RA BR OVC003 09/09 A2976 RMK FG2SF6 VIS VRB 1 - 2 SLP080

CYHM;2009-10-10 01:00;CYHM 100100Z 03008KT 1 1/2SM -RA BR OVC005 10/10 A2976 RMK FG2SF6 VIS VRB 1 - 2 CIG RAG SLP081

CYHM;2009-10-10 01:26;CYHM 100126Z 02012KT 5SM -RA BR OVC007 RMK SF8 CIG RAG

CYHM;2009-10-10 02:00;CYHM 100200Z 36011KT 6SM -RA BR OVC008 08/08 A2976 RMK SF8 CIG RAG SLP080

CYHM;2009-10-10 03:00;CYHM 100300Z 01015KT 6SM -RA BR OVC007 08/08 A2977 RMK SF8 CIG RAG SLP085

CYHM;2009-10-10 04:00;CYHM 100400Z 36012KT 6SM -RA BR OVC010 07/07 A2980 RMK SC8 SLP094

CYHM;2009-10-10 05:00;CYHM 100500Z 36005KT 5SM -RA BR FEW010 OVC035 07/07 A2981 RMK CF2SC6 SLP097

CYHM;2009-10-10 06:00;CYHM 100600Z 36005KT 6SM -RA BR FEW006 OVC012 OVC040 06/06 A2983 RMK CF2SC5SC2 SLP107

CYHM;2009-10-10 07:00;CYHM 100700Z 01007KT 15SM FEW012 OVC040 07/06 A2986 RMK CF1SC7 SLP115

CYHM;2009-10-10 07:19;CYHM 100719Z 34006KT 12SM -SHRA FEW012 OVC046 RMK CF1SC7

CYHM;2009-10-10 08:00;CYHM 100800Z 32007KT 15SM -SHRA FEW012 OVC041 07/06 A2989 RMK CF1SC7 SLP126

CYHM;2009-10-10 09:00;CYHM 100900Z 32006KT 15SM -SHRA FEW015 OVC060 06/06 A2991 RMK CF2SC6 SLP134

CYHM;2009-10-10 10:00;CYHM 101000Z 33007KT 15SM OVC051 07/06 A2995 RMK SC8 SLP146

CYHM;2009-10-10 11:00;CYHM 101100Z 30004KT 15SM BKN027 OVC059 07/07 A2998 RMK SC7SC1 SLP156

CYHM;2009-10-10 12:00;CYHM 101200Z 27004KT 15SM FEW028 SCT065 SCT250 06/06 A3000 RMK SC1SC2CI1 CI TR SLP165

CYHM;2009-10-10 13:00;CYHM 101300Z 27003KT 15SM FEW020 BKN047 BKN060 BKN250 07/07 A3004 RMK CU1SC5SC2CI1 CU CI TR SLP179

CYHM;2009-10-10 14:00;CYHM 101400Z 26006KT 15SM FEW020 FEW042 BKN055 08/07 A3008 RMK CU1SC2SC4 CU TR SLP190

CYHM;2009-10-10 15:00;CYHM 101500Z 27004KT 15SM FEW020 FEW055 10/06 A3007 RMK CU1SC1 SC TR SLP187

CYHM;2009-10-10 16:00;CYHM 101600Z 30005KT 180V010 15SM SCT032 11/05 A3007 RMK CU4 SLP187

CYHM;2009-10-10 17:00;CYHM 101700Z 23006KT 15SM BKN036 BKN250 12/05 A3007 RMK CU6CI1 SLP186

CYHM;2009-10-10 18:00;CYHM 101800Z 29005KT 15SM BKN039 BKN250 12/04 A3006 RMK CU6CC1 SLP185

CYHM;2009-10-10 19:00;CYHM 101900Z 25007KT 15SM BKN040 BKN220 13/05 A3005 RMK CU5CC1 SLP180

CYHM;2009-10-10 20:00;CYHM 102000Z 24008KT 200V270 15SM SCT042 BKN057 BKN220 12/04 A3005 RMK CU4SC2CC1 SLP180

CYHM;2009-10-10 21:00;CYHM 102100Z 24007KT 15SM SCT044 BKN063 BKN220 12/02 A3005 RMK CU3SC2CC1 CC TR SLP180

CYHM;2009-10-10 22:00;CYHM 102200Z 24009KT 15SM FEW044 BKN064 BKN140 BKN250 11/04 A3007 RMK CU2SC3AC1CI1 CI TR SLP185

CYHM;2009-10-10 23:00;CYHM 102300Z 27007KT 15SM FEW042 BKN054 BKN140 BKN250 10/03 A3008 RMK CU2SC4AC1CI1 SLP191

CYHM;2009-10-11 00:00;CYHM 110000Z 26004KT 15SM SCT054 BKN120 BKN170 09/04 A3009 RMK SC3AC2AC2 SLP194

CYHM;2009-10-11 01:00;CYHM 110100Z 25005KT 15SM FEW050 SCT110 BKN160 08/05 A3009 RMK SC1AC3AC2 SLP196

CYHM;2009-10-11 02:00;CYHM 110200Z 22005KT 15SM FEW050 BKN110 BKN170 07/05 A3009 RMK SC1AC4AC2 SLP194

CYHM;2009-10-11 03:00;CYHM 110300Z 24006KT 15SM FEW050 SCT100 07/04 A3008 RMK SC1AC2 SLP192

CYHM;2009-10-11 04:00;CYHM 110400Z 25009KT 15SM BKN100 08/04 A3009 RMK AC7 SLP193

CYHM;2009-10-11 05:00;CYHM 110500Z 26012KT 15SM OVC120 08/03 A3010 RMK AC8 SLP197

CYHM;2009-10-11 06:00;CYHM 110600Z 29010KT 15SM BKN043 OVC120 07/02 A3012 RMK SC6AC2 SLP205

CYHM;2009-10-11 07:00;CYHM 110700Z 30013G18KT 15SM FEW027 OVC044 06/00 A3015 RMK CF2SC6 SLP214

CYHM;2009-10-11 08:00;CYHM 110800Z 27007KT 15SM FEW050 FEW210 04/M00 A3016 RMK SC1CI1 SLP218

CYHM;2009-10-11 09:00;CYHM 110900Z 27005KT 15SM FEW080 FEW220 03/M01 A3017 RMK AC1CI1 SLP224

CYHM;2009-10-11 10:00;CYHM 111000Z 26004KT 15SM FEW220 01/M01 A3019 RMK CI1 SLP228

CYHM;2009-10-11 11:00;CYHM 111100Z 24004KT 15SM FEW080 01/M02 A3020 RMK AC1 SLP233

CYHM;2009-10-11 12:00;CYHM 111200Z 24005KT 15SM FEW050 00/M02 A3022 RMK SC1 SLP242

CYHM;2009-10-11 13:00;CYHM 111300Z 24005KT 15SM FEW025 FEW100 03/M01 A3024 RMK CU1AC1 CU TR SLP249

CYHM;2009-10-11 14:00;CYHM 111400Z 25010KT 15SM FEW025 04/M01 A3025 RMK CU1 CU TR SLP251

CYHM;2009-10-11 15:00;CYHM 111500Z 27012KT 230V310 15SM FEW034 06/M02 A3026 RMK CU1 SLP252

CYHM;2009-10-11 16:00;CYHM 111600Z 27012KT 15SM FEW042 07/M01 A3026 RMK CU2 SLP253

CYHM;2009-10-11 17:00;CYHM 111700Z 26013KT 230V310 15SM FEW048 08/M03 A3026 RMK CU2 SLP253

CYHM;2009-10-11 18:00;CYHM 111800Z 27014KT 15SM SCT055 09/M02 A3026 RMK CU3 SLP252

CYHM;2009-10-11 19:00;CYHM 111900Z 28014KT 250V320 15SM SCT054 BKN170 BKN210 08/M03 A3027 RMK SC4AC1CC1 CU ASOCTD SLP255

CYHM;2009-10-11 20:00;CYHM 112000Z 28013KT 15SM SCT053 BKN170 BKN210 07/M04 A3028 RMK SC3AC2CC2 CU ASOCTD SLP260

CYHM;2009-10-11 21:00;CYHM 112100Z 27010KT 15SM FEW045 BKN055 BKN170 06/M03 A3030 RMK CU2SC4AC1 SLP268

CYHM;2009-10-11 22:00;CYHM 112200Z 28007KT 15SM FEW045 BKN055 BKN180 05/M03 A3031 RMK CU2SC4AC1 SLP272

CYHM;2009-10-11 23:00;CYHM 112300Z 28007KT 15SM FEW045 SCT054 BKN150 04/M03 A3032 RMK CU1SC3AC2 SLP275

CYHM;2009-10-12 00:00;CYHM 120000Z 28005KT 15SM SCT054 BKN150 04/M02 A3033 RMK SC3AC3 SLP281

CYHM;2009-10-12 01:00;CYHM 120100Z 28003KT 15SM FEW055 SCT150 SCT210 03/M02 A3033 RMK SC1AC2CC1 CC TR SLP281

CYHM;2009-10-12 02:00;CYHM 120200Z 25004KT 15SM FEW150 FEW210 02/M02 A3034 RMK AC1CI1 CI TR SLP284

CYHM;2009-10-12 03:00;CYHM 120300Z 26004KT 15SM FEW210 00/M02 A3035 RMK CI1 SLP287

CYHM;2009-10-12 04:00;CYHM 120400Z 00000KT 15SM FEW200 00/M02 A3035 RMK CI1 SLP286

CYHM;2009-10-12 05:00;CYHM 120500Z 00000KT 15SM FEW220 M01/M02 A3035 RMK CI1 FROIN SLP285

CYHM;2009-10-12 06:00;CYHM 120600Z 00000KT 15SM FEW200 M01/M02 A3035 RMK CI1 FROIN SLP286

CYHM;2009-10-12 07:00;CYHM 120700Z 27003KT 15SM SCT240 M02/M02 A3036 RMK CI2 FROIN SLP290

CYHM;2009-10-12 08:00;CYHM 120800Z 00000KT 15SM FEW100 BKN240 M01/M02 A3036 RMK AC1CI3 FROIN SLP288

CYHM;2009-10-12 09:00;CYHM 120900Z 00000KT 15SM FEW180 BKN230 M02/M02 A3036 RMK AC2CI3 FROIN SLP289

CYHM;2009-10-12 10:00;CYHM 121000Z 00000KT 15SM FEW150 FEW220 M02/M02 A3037 RMK AC1CI1 FROIN SLP293

CYHM;2009-10-12 11:00;CYHM 121100Z 00000KT 15SM BKN110 M02/M02 A3037 RMK AC7 SLP294

CYHM;2009-10-12 12:00;CYHM 121200Z 00000KT 15SM BKN100 BKN220 M00/M01 A3036 RMK AC6CI1 SLP291

CYHM;2009-10-12 13:00;CYHM 121300Z 05004KT 15SM FEW030 BKN110 02/M00 A3033 RMK CU1AC7 CU TR SLP281

CYHM;2009-10-12 14:00;CYHM 121400Z 09004KT 15SM BKN100 05/02 A3033 RMK AC7 SLP280

CYHM;2009-10-12 15:00;CYHM 121500Z 11005KT 15SM FEW045 BKN077 OVC120 05/01 A3034 RMK SC1AC6AC2 SLP282

CYHM;2009-10-12 16:00;CYHM 121600Z 08007KT 15SM FEW045 BKN088 OVC120 06/01 A3031 RMK SC1AC5AC2 SLP274

CYHM;2009-10-12 17:00;CYHM 121700Z 10008KT 15SM OVC100 06/M02 A3029 RMK AC8 SLP266

CYHM;2009-10-12 18:00;CYHM 121800Z 11008KT 15SM BKN090 OVC150 07/M01 A3028 RMK AC6AC2 SLP261

CYHM;2009-10-12 19:00;CYHM 121900Z 09006KT 060V120 15SM FEW060 BKN084 BKN110 07/M01 A3023 RMK SC2AC4AC2 SLP247

CYHM;2009-10-12 20:00;CYHM 122000Z 05006KT 15SM FEW060 BKN080 BKN110 07/M00 A3021 RMK SC2AC3AC2 SLP239

CYHM;2009-10-12 21:00;CYHM 122100Z 06007KT 15SM FEW060 SCT080 OVC110 06/00 A3020 RMK SC2AC2AC4 SLP235

CYHM;2009-10-12 22:00;CYHM 122200Z 05008KT 15SM FEW060 BKN089 OVC110 05/M01 A3019 RMK SC2AC4AC2 SLP232

CYHM;2009-10-12 23:00;CYHM 122300Z 05008KT 15SM FEW015 FEW055 BKN070 OVC085 05/03 A3018 RMK CF1SC2AC3AC2 CF TR VIRGA SLP230

CYHM;2009-10-13 00:00;CYHM 130000Z 05006KT 15SM FEW015 SCT050 OVC064 05/03 A3018 RMK SC1SC3SC4 VIRGA SLP228

CYHM;2009-10-13 01:00;CYHM 130100Z 07007KT 15SM FEW012 SCT054 BKN075 OVC110 05/04 A3014 RMK CF1SC2AC3AC2 SLP217

CYHM;2009-10-13 02:00;CYHM 130200Z 06007KT 15SM FEW010 SCT062 OVC074 05/04 A3013 RMK CF1SC3AC4 SLP214

CYHM;2009-10-13 03:00;CYHM 130300Z 05007KT 15SM -SHRA BKN072 OVC094 05/04 A3011 RMK AC6AC2 SLP203

CYHM;2009-10-13 04:00;CYHM 130400Z 36002KT 15SM BKN058 OVC090 05/04 A3010 RMK SC6AC2 SLP200

CYHM;2009-10-13 05:00;CYHM 130500Z 35003KT 15SM OVC051 05/03 A3009 RMK SC8 SLP197

CYHM;2009-10-13 06:00;CYHM 130600Z 03002KT 15SM OVC048 05/03 A3007 RMK SC8 SLP190

CYHM;2009-10-13 07:00;CYHM 130700Z 00000KT 15SM OVC047 05/03 A3007 RMK SC8 SLP189

CYHM;2009-10-13 08:00;CYHM 130800Z 00000KT 15SM OVC042 05/04 A3006 RMK SC8 SLP186

CYHM;2009-10-13 09:00;CYHM 130900Z 00000KT 15SM -SHRA BKN030 OVC044 05/04 A3007 RMK SC6SC2 SLP188

CYHM;2009-10-13 09:50;CYHM 130950Z 24003KT 15SM FEW024 OVC056 RMK SC2SC6

CYHM;2009-10-13 10:00;CYHM 131000Z 25002KT 15SM OVC060 04/04 A3007 RMK SC8 SLP190

CYHM;2009-10-13 11:00;CYHM 131100Z 24002KT 10SM BKN024 BKN042 OVC078 04/04 A3008 RMK SC6SC2AC1 SLP192

CYHM;2009-10-13 12:00;CYHM 131200Z 29004KT 6SM BR BKN015 BKN026 05/04 A3009 RMK SC5SC2 SLP195

CYHM;2009-10-13 13:00;CYHM 131300Z 29008KT 15SM BKN046 06/04 A3011 RMK SC7 SLP203

CYHM;2009-10-13 14:00;CYHM 131400Z 32008KT 15SM SCT045 BKN072 07/04 A3013 RMK SC3AC4 SLP209

CYHM;2009-10-13 15:00;CYHM 131500Z 32014KT 15SM FEW024 BKN048 BKN060 08/04 A3014 RMK CU2SC3SC1 SLP214

CYHM;2009-10-13 16:00;CYHM 131600Z 33014G19KT 15SM FEW032 SCT042 SCT070 08/01 A3016 RMK CU2SC1AC1 SLP218

CYHM;2009-10-13 17:00;CYHM 131700Z 32008KT 15SM FEW032 SCT055 BKN068 08/01 A3018 RMK CU2SC2AC2 SLP225

CYHM;2009-10-13 18:00;CYHM 131800Z 30014KT 15SM SCT034 09/02 A3018 RMK SC3 CU ASOCTD SLP227

CYHM;2009-10-13 19:00;CYHM 131900Z 32013G19KT 15SM FEW038 BKN060 09/M00 A3019 RMK SF1SC4 SLP230

CYHM;2009-10-13 20:00;CYHM 132000Z 31012KT 15SM BKN058 08/M00 A3019 RMK SC7 SF ASOCTD SLP230

CYHM;2009-10-13 21:00;CYHM 132100Z 30010KT 15SM SCT062 09/M00 A3021 RMK SC4 SLP237

CYHM;2009-10-13 22:00;CYHM 132200Z 31008KT 15SM FEW062 SCT250 07/M00 A3024 RMK SC2CI1 SLP246

CYHM;2009-10-13 23:00;CYHM 132300Z 28005KT 15SM FEW060 BKN250 05/M00 A3028 RMK SC1CI1 SLP261

CYHM;2009-10-14 00:00;CYHM 140000Z 30005KT 15SM FEW058 FEW250 04/01 A3031 RMK SC1CI1 SC TR SLP271

CYHM;2009-10-14 01:00;CYHM 140100Z 33007KT 15SM FEW250 04/M00 A3032 RMK CI1 SLP275

CYHM;2009-10-14 02:00;CYHM 140200Z 34008KT 15SM FEW250 03/00 A3030 RMK CI1 SLP270

CYHM;2009-10-14 03:00;CYHM 140300Z 33009KT 15SM FEW250 03/01 A3031 RMK CI1 SLP270

CYHM;2009-10-14 04:00;CYHM 140400Z 32005KT 15SM FEW250 02/00 A3029 RMK CI1 SLP265

CYHM;2009-10-14 05:00;CYHM 140500Z 00000KT 15SM FEW250 01/M01 A3030 RMK CI1 CI TR SLP268

CYHM;2009-10-14 06:00;CYHM 140600Z 36005KT 15SM FEW250 01/00 A3030 RMK CI1 SLP269

CYHM;2009-10-14 07:00;CYHM 140700Z 02008KT 15SM FEW010 BKN034 BKN250 02/01 A3032 RMK SF1SC3CI1 SF TR SLP274

CYHM;2009-10-14 08:00;CYHM 140800Z 04005KT 15SM FEW012 BKN030 03/01 A3032 RMK SF1SC6 SLP273

CYHM;2009-10-14 09:00;CYHM 140900Z 02005KT 15SM FEW028 01/M00 A3033 RMK SC1 SLP277

CYHM;2009-10-14 10:00;CYHM 141000Z 34004KT 15SM FEW050 BKN250 M00/M01 A3034 RMK SC2CI1 SLP283

CYHM;2009-10-14 11:00;CYHM 141100Z CCA 35005KT 15SM FEW045 BKN210 M00/M02 A3033 RMK SC2CI2 SLP280

CYHM;2009-10-14 12:00;CYHM 141200Z 01005KT 15SM FEW017 FEW045 BKN210 M01/M02 A3034 RMK SC1SC2CI2 CONTRAIL SLP283

CYHM;2009-10-14 13:00;CYHM 141300Z 01002KT 15SM FEW022 FEW045 BKN220 01/M01 A3035 RMK CU1SC2CI3 SLP287

CYHM;2009-10-14 14:00;CYHM 141400Z 04009KT 15SM FEW025 FEW045 BKN210 02/M01 A3034 RMK CU1SC2CI4 SLP285

CYHM;2009-10-14 15:00;CYHM 141500Z 01010KT 15SM FEW042 OVC220 02/M01 A3033 RMK SC1CS7 HALO SLP280

CYHM;2009-10-14 16:00;CYHM 141600Z 01008KT 15SM FEW045 BKN160 BKN210 03/01 A3032 RMK SC1AC4CI2 SLP277

CYHM;2009-10-14 17:00;CYHM 141700Z 05006KT 15SM FEW045 FEW160 BKN220 05/03 A3031 RMK SC1AC2CS2 HALO SLP273

CYHM;2009-10-14 18:00;CYHM 141800Z 02008KT 15SM FEW045 FEW160 BKN230 07/03 A3027 RMK SC1AC2CS3 HALO STC TR SLP259

CYHM;2009-10-14 19:00;CYHM 141900Z 05009KT 15SM FEW038 BKN150 OVC250 06/M03 A3023 RMK SC1AS4CS2 SC TR SLP246

CYHM;2009-10-14 20:00;CYHM 142000Z 08007KT 15SM FEW040 SCT140 OVC250 05/M03 A3022 RMK SC1AS3CS2 SC TR SLP242

CYHM;2009-10-14 21:00;CYHM 142100Z 05006KT 15SM FEW032 BKN160 BKN240 05/M03 A3020 RMK SC1AS5CS2 SUN DMLY VSBL SC TR SLP236

CYHM;2009-10-14 22:00;CYHM 142200Z 07007KT 15SM FEW070 BKN130 05/M03 A3020 RMK AC1AS3 SLP234

CYHM;2009-10-14 23:00;CYHM 142300Z 08003KT 15SM FEW070 BKN120 03/M03 A3020 RMK AC2AS2 SLP234

CYHM;2009-10-15 00:00;CYHM 150000Z 05002KT 15SM FEW070 SCT220 02/M03 A3019 RMK AC1CS2 AC TR SLP233

CYHM;2009-10-15 01:00;CYHM 150100Z 02007KT 15SM SCT250 01/M03 A3017 RMK CI1 SLP228

CYHM;2009-10-15 02:00;CYHM 150200Z 02009KT 15SM FEW250 01/M04 A3016 RMK CI1 SLP224

CYHM;2009-10-15 03:00;CYHM 150300Z 02007KT 15SM BKN210 00/M04 A3018 RMK CI2 SLP230

CYHM;2009-10-15 04:00;CYHM 150400Z 03007KT 15SM BKN210 M01/M04 A3016 RMK CI2 SLP222

CYHM;2009-10-15 05:00;CYHM 150500Z 04007KT 15SM BKN200 00/M03 A3014 RMK CI3 SLP218

CYHM;2009-10-15 06:00;CYHM 150600Z 04006KT 15SM FEW120 BKN220 M00/M03 A3012 RMK AC1CI3 SLP209

CYHM;2009-10-15 07:00;CYHM 150700Z 04007KT 15SM FEW120 BKN210 M00/M03 A3010 RMK AC1CI4 SLP202

CYHM;2009-10-15 08:00;CYHM 150800Z 04006KT 15SM FEW120 BKN230 01/M01 A3009 RMK AC1CI4 SLP197

CYHM;2009-10-15 09:00;CYHM 150900Z 03009KT 15SM BKN035 OVC120 02/01 A3008 RMK SC6AC2 SLP193

CYHM;2009-10-15 10:00;CYHM 151000Z 05012KT 15SM FEW025 BKN045 OVC120 03/M02 A3006 RMK CF2SC4AC2 SLP188

CYHM;2009-10-15 11:00;CYHM 151100Z 06008KT 15SM FEW045 BKN100 BKN140 03/M01 A3006 RMK SC2AC3AC2 SLP187

CYHM;2009-10-15 12:00;CYHM 151200Z 09012KT 15SM FEW020 BKN047 OVC110 03/M00 A3007 RMK CU1SC6AC2 SLP190

CYHM;2009-10-15 13:00;CYHM 151300Z 06015KT 15SM BKN028 OVC042 03/M01 A3006 RMK SC6SC2 SLP189

CYHM;2009-10-15 14:00;CYHM 151400Z 09018G25KT 15SM FEW020 BKN045 OVC070 04/03 A3006 RMK SC1SC6AC2 SLP188

CYHM;2009-10-15 15:00;CYHM 151500Z 09016G24KT 15SM FEW025 BKN040 OVC075 04/01 A3005 RMK CU2SC5AC2 SLP185

CYHM;2009-10-15 16:00;CYHM 151600Z 09018G26KT 15SM FEW025 BKN035 OVC060 04/01 A3003 RMK CU2SC4SC2 SLP179

CYHM;2009-10-15 17:00;CYHM 151700Z CCA 09020G26KT 15SM OVC025 04/02 A3002 RMK SC8 SLP174

CYHM;2009-10-15 17:39;CYHM 151739Z 09020G26KT 8SM -SHRA BKN012 OVC045 RMK SC6SC2

CYHM;2009-10-15 17:45;CYHM 151745Z 10018G26KT 5SM -RASN BKN016 OVC045 RMK SC6SC2

CYHM;2009-10-15 18:00;CYHM 151800Z 10018G26KT 7SM -SHRASN BKN015 OVC040 03/02 A3001 RMK SC6SC2 SLP172

CYHM;2009-10-15 18:39;CYHM 151839Z 05018KT 7SM -SHRASN BKN007 OVC040 RMK SC6SC2

CYHM;2009-10-15 19:00;CYHM 151900Z 06018KT 7SM -SHRASN BKN007 OVC040 02/01 A2999 RMK SC6SC2 SLP166

CYHM;2009-10-15 19:28;CYHM 151928Z 06019G25KT 15SM -SHRASN FEW009 BKN019 OVC040 RMK SC2SC5SC1

CYHM;2009-10-15 20:00;CYHM 152000Z 06022KT 15SM BKN020 OVC040 03/00 A2997 RMK SC7SC1 SLP160

CYHM;2009-10-15 21:00;CYHM 152100Z 06017G24KT 15SM BKN022 BKN045 BKN100 03/M00 A2997 RMK SC6SC2AC1 AC TR SLP159

CYHM;2009-10-15 22:00;CYHM 152200Z 05017KT 15SM FEW022 OVC043 03/M02 A2999 RMK SC2SC6 SLP163

CYHM;2009-10-15 23:00;CYHM 152300Z 06020KT 15SM FEW043 OVC081 03/M03 A2999 RMK SC2AC6 SLP163

CYHM;2009-10-16 00:00;CYHM 160000Z 06016KT 15SM BKN032 OVC078 03/M03 A2999 RMK SC6AC2 SLP165

CYHM;2009-10-16 01:00;CYHM 160100Z 06016KT 15SM FEW032 OVC075 03/M03 A2999 RMK SC1AC7 SLP164

CYHM;2009-10-16 02:00;CYHM 160200Z 06018KT 15SM FEW032 OVC061 03/M03 A2999 RMK SC1SC7 SLP164

CYHM;2009-10-16 02:26;CYHM 160226Z 06021KT 15SM -SHRA BKN036 OVC062 RMK SC5SC3

CYHM;2009-10-16 03:00;CYHM 160300Z 06020KT 15SM -SHRA BKN032 OVC051 04/M03 A2999 RMK SC5SC3 PCPN VRY LGT SLP163

CYHM;2009-10-16 04:00;CYHM 160400Z 06014KT 10SM -SHSN OVC026 02/M01 A2999 RMK SC8 SLP164

CYHM;2009-10-16 05:00;CYHM 160500Z 06014KT 15SM -SHSN OVC028 03/M02 A2999 RMK SC8 PCPN VRY LGT SLP163

CYHM;2009-10-16 06:00;CYHM 160600Z CCA 05014KT 15SM -SHSN OVC026 02/M02 A2999 RMK SC8 SLP163

CYHM;2009-10-16 07:00;CYHM 160700Z 05015KT 15SM -SHSN OVC026 02/M02 A2998 RMK SC8 SLP162

CYHM;2009-10-16 08:00;CYHM 160800Z 05017KT 15SM -SHSN OVC023 02/M02 A2997 RMK SC8 PCPN VRY LGT SLP159

CYHM;2009-10-16 08:37;CYHM 160837Z 04011G17KT 15SM OVC022 RMK SC8

CYHM;2009-10-16 09:00;CYHM 160900Z 04013KT 15SM OVC023 02/M02 A2997 RMK SC8 SLP159

CYHM;2009-10-16 10:00;CYHM 161000Z 04014KT 15SM OVC021 02/M03 A2998 RMK SC8 SLP162

CYHM;2009-10-16 11:00;CYHM 161100Z 03014KT 15SM OVC018 02/M03 A2999 RMK SC8 SLP163

CYHM;2009-10-16 12:00;CYHM 161200Z 03014KT 15SM OVC017 01/M03 A3000 RMK SC8 SLP167

CYHM;2009-10-16 13:00;CYHM 161300Z 03008KT 15SM OVC016 03/00 A3001 RMK SC8 SLP172

CYHM;2009-10-16 14:00;CYHM 161400Z 03010KT 15SM OVC017 03/M00 A3004 RMK SC8 SLP179

CYHM;2009-10-16 15:00;CYHM 161500Z 05015KT 15SM BKN018 BKN045 03/M01 A3004 RMK SC5SC2 SLP182

CYHM;2009-10-16 16:00;CYHM 161600Z 04014KT 15SM FEW024 BKN040 BKN120 05/M01 A3004 RMK SC2SC3AC1 SLP181

CYHM;2009-10-16 17:00;CYHM 161700Z 03014KT 15SM FEW025 BKN035 BKN055 05/M02 A3004 RMK CU2SC4SC2 SLP182

CYHM;2009-10-16 18:00;CYHM 161800Z 07012KT 15SM FEW020 BKN024 OVC045 05/00 A3004 RMK CU1SC5SC2 SLP180

CYHM;2009-10-16 19:00;CYHM 161900Z 05013KT 15SM FEW035 FEW100 04/01 A3003 RMK SC2AC1 SLP177

CYHM;2009-10-16 20:00;CYHM 162000Z 06010KT 15SM FEW030 SCT120 05/M01 A3003 RMK SC2AC1 FEW CU SLP176

CYHM;2009-10-16 21:00;CYHM 162100Z 07009KT 15SM BKN110 04/M04 A3003 RMK AC7 SLP178

CYHM;2009-10-16 22:00;CYHM 162200Z 06010KT 15SM BKN120 04/M04 A3005 RMK AC7 SLP183

CYHM;2009-10-16 23:00;CYHM 162300Z 07005KT 15SM BKN120 03/M01 A3006 RMK AC7 SLP187

CYHM;2009-10-17 00:00;CYHM 170000Z 05003KT 15SM BKN140 03/M00 A3008 RMK AC7 SLP194

CYHM;2009-10-17 01:00;CYHM 170100Z 00000KT 15SM BKN140 02/00 A3008 RMK AC7 SLP196

CYHM;2009-10-17 02:00;CYHM 170200Z 35005KT 15SM BKN140 02/01 A3009 RMK AC7 SLP197

CYHM;2009-10-17 03:00;CYHM 170300Z 35005KT 15SM BKN160 01/00 A3009 RMK AC5 SLP199

CYHM;2009-10-17 04:00;CYHM 170400Z 36004KT 15SM FEW110 BKN160 01/M01 A3009 RMK AC2AC4 SLP199

CYHM;2009-10-17 05:00;CYHM 170500Z 01004KT 15SM BKN120 01/M01 A3009 RMK AC6 SLP199

CYHM;2009-10-17 06:00;CYHM 170600Z 36004KT 15SM BKN100 02/M01 A3010 RMK AC7 SLP199

CYHM;2009-10-17 07:00;CYHM 170700Z 01006KT 15SM BKN140 01/M01 A3010 RMK AC6 SLP202

CYHM;2009-10-17 08:00;CYHM 170800Z 01005KT 15SM BKN150 01/M02 A3010 RMK AC4 SLP202

CYHM;2009-10-17 09:00;CYHM 170900Z 01004KT 15SM FEW100 BKN160 01/M02 A3011 RMK AC2AC2 SLP205

CYHM;2009-10-17 10:00;CYHM 171000Z 36007KT 15SM FEW110 BKN170 00/M02 A3012 RMK AC2AC3 SLP208

CYHM;2009-10-17 11:00;CYHM 171100Z 01005KT 15SM BKN098 BKN170 BKN250 00/M03 A3014 RMK AC5AC1CI1 SLP214

CYHM;2009-10-17 12:00;CYHM 171200Z 36004KT 15SM BKN097 BKN160 01/M03 A3015 RMK AC6AC2 SLP220

CYHM;2009-10-17 13:00;CYHM 171300Z 36006KT 15SM FEW025 BKN087 02/M04 A3017 RMK CU1AC7 SLP226

CYHM;2009-10-17 14:00;CYHM 171400Z 01006KT 15SM FEW030 FEW100 BKN250 03/M04 A3017 RMK CU1AC2CI2 SLP227

CYHM;2009-10-17 15:00;CYHM 171500Z 05010KT 15SM FEW035 SCT250 05/M05 A3018 RMK CU1CI2 SLP227

CYHM;2009-10-17 16:00;CYHM 171600Z 04012KT 340V090 15SM FEW045 FEW250 06/M05 A3018 RMK CU1CI2 SLP229

CYHM;2009-10-17 17:00;CYHM 171700Z 04010KT 15SM FEW045 BKN150 BKN250 06/M05 A3019 RMK CU1AC5CI1 CU TR SLP231

CYHM;2009-10-17 18:00;CYHM 171800Z 08008KT 15SM FEW045 BKN150 BKN250 06/M05 A3018 RMK CU1AC6CI1 SLP229

CYHM;2009-10-17 19:00;CYHM 171900Z 09005KT 060V130 15SM FEW040 BKN150 BKN250 06/M05 A3018 RMK CU1AC5CI2 CU TR SLP227

CYHM;2009-10-17 20:00;CYHM 172000Z 06005KT 15SM FEW040 BKN100 BKN140 06/M04 A3018 RMK SC1AC6AC2 SC TR SLP227

CYHM;2009-10-17 21:00;CYHM 172100Z 05003KT 15SM FEW040 SCT100 BKN220 06/M05 A3018 RMK SC1AC4CC1 SC TR WND L/V SLP228

CYHM;2009-10-17 22:00;CYHM 172200Z 06003KT 15SM FEW040 SCT100 BKN140 06/M03 A3019 RMK SC1AC3AC3 SC TR SLP231

CYHM;2009-10-17 23:00;CYHM 172300Z 36003KT 15SM FEW045 FEW100 BKN150 05/M03 A3020 RMK SC1AC2AC5 SC TR SLP233

CYHM;2009-10-18 00:00;CYHM 180000Z 35003KT 15SM FEW100 BKN150 04/M01 A3021 RMK AC2AC6 SLP238

CYHM;2009-10-18 01:00;CYHM 180100Z 01006KT 15SM BKN150 03/M03 A3022 RMK AC7 SLP242

CYHM;2009-10-18 02:00;CYHM 180200Z 02006KT 15SM BKN150 03/M04 A3023 RMK AC6 SLP245

CYHM;2009-10-18 03:00;CYHM 180300Z 36005KT 15SM BKN130 01/M04 A3023 RMK AC5 SLP246

CYHM;2009-10-18 04:00;CYHM 180400Z 36005KT 15SM BKN150 01/M04 A3023 RMK AC5 SLP247

CYHM;2009-10-18 05:00;CYHM 180500Z 00000KT 15SM BKN140 01/M04 A3023 RMK AC5 SLP245

CYHM;2009-10-18 06:00;CYHM 180600Z 00000KT 15SM FEW140 FEW210 M00/M04 A3024 RMK AC1CI1 SLP248

CYHM;2009-10-18 07:00;CYHM 180700Z 35004KT 15SM FEW210 M00/M04 A3023 RMK CI1 FROIN SLP246

CYHM;2009-10-18 08:00;CYHM 180800Z 35007KT 15SM FEW210 M00/M04 A3023 RMK CI2 FROIN SLP244

CYHM;2009-10-18 09:00;CYHM 180900Z 32002KT 15SM FEW220 M03/M04 A3023 RMK CI1 FROIN SLP246

CYHM;2009-10-18 10:00;CYHM 181000Z 34004KT 15SM FEW210 M01/M05 A3024 RMK CI1 FROIN SLP250

CYHM;2009-10-18 11:00;CYHM 181100Z 31002KT 15SM FEW050 M04/M05 A3026 RMK SC1 SLP255

CYHM;2009-10-18 12:00;CYHM 181200Z CCA 33004KT 15SM FEW050 M02/M05 A3026 RMK SC1 SLP256

CYHM;2009-10-18 13:00;CYHM 181300Z 00000KT 15SM FEW050 01/M01 A3027 RMK SC1 SLP262

CYHM;2009-10-18 14:00;CYHM 181400Z 02004KT 15SM FEW025 04/M02 A3028 RMK CU1 SLP263

CYHM;2009-10-18 15:00;CYHM 181500Z 05005KT 15SM FEW030 06/M01 A3029 RMK CU1 SLP266

CYHM;2009-10-18 16:00;CYHM 181600Z 07004KT 15SM FEW042 07/M03 A3029 RMK CU1 SLP265

CYHM;2009-10-18 17:00;CYHM 181700Z 06005KT 030V160 15SM FEW042 08/M02 A3027 RMK CU1 SLP259

CYHM;2009-10-18 18:00;CYHM 181800Z 06002KT 15SM FEW047 08/M03 A3026 RMK CU1 SLP254

CYHM;2009-10-18 19:00;CYHM 181900Z 06002KT 15SM FEW047 09/M04 A3024 RMK SC2 CU ASOCTD WND L/V SLP249

CYHM;2009-10-18 20:00;CYHM 182000Z 19003KT 15SM FEW050 09/M03 A3023 RMK SC2 CU ASOCTD WND L/V SLP244

CYHM;2009-10-18 21:00;CYHM 182100Z 25002KT 15SM FEW045 09/M03 A3022 RMK CU1 SLP241

CYHM;2009-10-18 22:00;CYHM 182200Z 23005KT 15SM FEW045 08/M03 A3021 RMK CU1 CU TR SLP240

CYHM;2009-10-18 23:00;CYHM 182300Z 20006KT 15SM FEW250 04/M02 A3021 RMK CI1 CI TR SLP239

CYHM;2009-10-19 00:00;CYHM 190000Z 21006KT 15SM SKC 02/M02 A3022 RMK SLP244

CYHM;2009-10-19 01:00;CYHM 190100Z 20005KT 15SM SKC 01/M03 A3022 RMK SLP243

CYHM;2009-10-19 02:00;CYHM 190200Z 23004KT 15SM FEW210 02/M03 A3021 RMK CI1 CI TR SLP240

CYHM;2009-10-19 03:00;CYHM 190300Z 24003KT 15SM FEW200 00/M03 A3020 RMK CI1 SLP235

CYHM;2009-10-19 04:00;CYHM 190400Z 26004KT 15SM SKC 00/M03 A3020 RMK SLP235

CYHM;2009-10-19 05:00;CYHM 190500Z 00000KT 15SM FEW180 FEW220 00/M03 A3019 RMK AC1CI1 SLP231

CYHM;2009-10-19 06:00;CYHM 190600Z 00000KT 15SM FEW210 M01/M03 A3019 RMK CI1 SLP230

CYHM;2009-10-19 07:00;CYHM 190700Z 24004KT 15SM FEW210 M01/M03 A3018 RMK CI1 SLP228

CYHM;2009-10-19 08:00;CYHM 190800Z 25003KT 15SM FEW220 M01/M03 A3017 RMK CI1 SLP225

CYHM;2009-10-19 09:00;CYHM 190900Z 21002KT 15SM FEW210 M01/M03 A3017 RMK CI1 FROIN SLP224

CYHM;2009-10-19 10:00;CYHM 191000Z 00000KT 15SM FEW210 M00/M03 A3018 RMK CI1 FROIN SLP227

CYHM;2009-10-19 11:00;CYHM 191100Z 00000KT 15SM FEW120 SCT220 M01/M02 A3017 RMK AC2CI1 SLP226

CYHM;2009-10-19 12:00;CYHM 191200Z CCA 21002KT 15SM FEW120 FEW220 00/M02 A3017 RMK AC1CI1 CI TR SLP226

CYHM;2009-10-19 13:00;CYHM 191300Z 21005KT 15SM FEW020 02/01 A3017 RMK CU1 CU TR SLP225

CYHM;2009-10-19 14:00;CYHM 191400Z 19010KT 15SM FEW220 07/03 A3013 RMK CI1 CI TR SLP214

CYHM;2009-10-19 15:00;CYHM 191500Z 24012KT 15SM FEW024 FEW160 SCT220 11/04 A3014 RMK CU1AC1CI1 SLP213

CYHM;2009-10-19 16:00;CYHM 191600Z 23014KT 15SM FEW032 FEW140 SCT220 12/04 A3012 RMK CU2AC1CI1 SLP206

CYHM;2009-10-19 17:00;CYHM 191700Z 24014KT 15SM FEW034 FEW160 SCT220 13/05 A3010 RMK CU2AC1CI1 SLP199

CYHM;2009-10-19 18:00;CYHM 191800Z 22015G20KT 15SM FEW036 BKN160 BKN220 12/07 A3007 RMK CU2AC3CI1 SLP191

CYHM;2009-10-19 19:00;CYHM 191900Z 21014G21KT 15SM FEW036 BKN160 BKN250 14/06 A3006 RMK CU1AC4CI1 SLP185

CYHM;2009-10-19 20:00;CYHM 192000Z 22015G24KT 15SM FEW036 SCT180 BKN240 13/04 A3004 RMK CU1AC3CI2 CU TR SLP179

CYHM;2009-10-19 21:00;CYHM 192100Z 21015G24KT 15SM FEW092 SCT160 BKN200 12/04 A3003 RMK AC2AC1CI2 SLP176

CYHM;2009-10-19 22:00;CYHM 192200Z 20012KT 15SM FEW090 FEW160 BKN250 10/03 A3002 RMK AC1AC2CI2 CONTRAILS SLP172

CYHM;2009-10-19 23:00;CYHM 192300Z 21011KT 15SM BKN072 10/04 A3000 RMK AC7 SLP166

CYHM;2009-10-20 00:00;CYHM 200000Z 21009KT 15SM FEW060 BKN076 10/06 A3000 RMK SC2AC5 SLP165

CYHM;2009-10-20 01:00;CYHM 200100Z 20012KT 15SM BKN083 BKN210 11/07 A2999 RMK AC6CI1 SLP161

CYHM;2009-10-20 02:00;CYHM 200200Z 21012KT 15SM FEW070 BKN180 11/05 A3000 RMK AC2AC5 SLP166

CYHM;2009-10-20 03:00;CYHM 200300Z 23012KT 15SM BKN048 11/05 A3001 RMK SC7 SLP166

CYHM;2009-10-20 04:00;CYHM 200400Z 23012KT 15SM OVC050 11/06 A3002 RMK SC8 SLP169

CYHM;2009-10-20 05:00;CYHM 200500Z 23014KT 15SM OVC053 12/06 A3002 RMK SC8 SLP169

CYHM;2009-10-20 06:00;CYHM 200600Z 23011KT 15SM OVC054 12/06 A3002 RMK SC8 SLP170

CYHM;2009-10-20 07:00;CYHM 200700Z 23014KT 15SM OVC054 12/06 A3002 RMK SC8 SLP168

CYHM;2009-10-20 08:00;CYHM 200800Z 24013KT 15SM OVC054 12/06 A3002 RMK SC8 SLP169

CYHM;2009-10-20 09:00;CYHM 200900Z 23010KT 15SM OVC053 12/06 A3003 RMK SC8 SLP172

CYHM;2009-10-20 10:00;CYHM 201000Z 24011KT 15SM OVC051 12/06 A3005 RMK SC8 SLP178

CYHM;2009-10-20 11:00;CYHM 201100Z 25006KT 15SM BKN045 11/06 A3010 RMK SC5 SLP194

CYHM;2009-10-20 12:00;CYHM 201200Z 24008KT 15SM FEW045 BKN230 10/06 A3008 RMK SC1CI2 CONTRAIL SLP190

CYHM;2009-10-20 13:00;CYHM 201300Z 23008KT 10SM FEW060 SCT230 10/06 A3010 RMK SC1CI2 SC TR SLP195

CYHM;2009-10-20 14:00;CYHM 201400Z 24010KT 15SM BKN230 11/06 A3010 RMK CI2 CONTRAIL SLP197

CYHM;2009-10-20 15:00;CYHM 201500Z 24010KT 15SM FEW160 BKN230 13/06 A3010 RMK AC1CI3 AC TR CONTRAIL SLP197

CYHM;2009-10-20 16:00;CYHM 201600Z 23008KT 15SM BKN230 15/07 A3010 RMK CI2 CONTRAIL SLP195

CYHM;2009-10-20 17:00;CYHM 201700Z 24010KT 15SM BKN230 16/08 A3009 RMK CI3 SLP194

CYHM;2009-10-20 18:00;CYHM 201800Z 22010KT 15SM BKN210 16/08 A3008 RMK CI4 SLP188

CYHM;2009-10-20 19:00;CYHM 201900Z 24009KT 15SM BKN055 BKN220 17/08 A3008 RMK ST5CS2 SLP188

CYHM;2009-10-20 20:00;CYHM 202000Z 18009KT 15SM FEW044 BKN120 16/10 A3009 RMK SC2AC5 SLP190

CYHM;2009-10-20 21:00;CYHM 202100Z 21013KT 15SM FEW044 OVC120 16/10 A3008 RMK SC1AC7 SLP188

CYHM;2009-10-20 22:00;CYHM 202200Z 22007KT 15SM OVC050 14/09 A3010 RMK SC8 SLP196

CYHM;2009-10-20 23:00;CYHM 202300Z 22004KT 15SM OVC048 13/09 A3011 RMK SC8 SLP199

CYHM;2009-10-21 00:00;CYHM 210000Z 23006KT 15SM OVC050 14/08 A3012 RMK SC8 SLP203

CYHM;2009-10-21 01:00;CYHM 210100Z 24008KT 15SM OVC048 13/08 A3012 RMK SC8 SLP202

CYHM;2009-10-21 02:00;CYHM 210200Z 23006KT 15SM OVC046 13/08 A3012 RMK SC8 SLP202

CYHM;2009-10-21 03:00;CYHM 210300Z 23004KT 15SM OVC058 13/08 A3013 RMK SC8 SLP204

CYHM;2009-10-21 04:00;CYHM 210400Z 23005KT 15SM OVC060 12/08 A3013 RMK SC8 SLP205

CYHM;2009-10-21 05:00;CYHM 210500Z 23003KT 15SM OVC051 12/09 A3013 RMK SC8 SLP207

CYHM;2009-10-21 06:00;CYHM 210600Z 23003KT 15SM OVC055 11/09 A3014 RMK SC8 SLP208

CYHM;2009-10-21 07:00;CYHM 210700Z 00000KT 15SM OVC058 11/09 A3014 RMK SC8 SLP210

CYHM;2009-10-21 08:00;CYHM 210800Z 00000KT 15SM OVC062 11/09 A3013 RMK SC8 SLP207

CYHM;2009-10-21 09:00;CYHM 210900Z 22002KT 12SM OVC060 11/09 A3014 RMK SC8 SLP209

CYHM;2009-10-21 10:00;CYHM 211000Z 23003KT 15SM OVC055 11/10 A3015 RMK SC8 SLP212

CYHM;2009-10-21 11:00;CYHM 211100Z 26002KT 15SM SCT060 OVC091 11/09 A3016 RMK SC4AC4 SLP214

CYHM;2009-10-21 12:00;CYHM 211200Z 23003KT 15SM SCT052 BKN092 BKN160 10/09 A3016 RMK SC3AC3AC1 SLP217

CYHM;2009-10-21 13:00;CYHM 211300Z 17003KT 15SM BKN064 OVC095 11/10 A3015 RMK SC6AC2 SLP213

CYHM;2009-10-21 13:46;CYHM 211346Z 24004KT 10SM -SHRA BKN050 BKN065 OVC090 RMK SC5SC2AC1

CYHM;2009-10-21 14:00;CYHM 211400Z 25002KT 6SM -SHRA BR BKN046 OVC062 12/10 A3016 RMK SC6SC2 SLP216

CYHM;2009-10-21 14:13;CYHM 211413Z 23004KT 6SM BR BKN046 OVC060 RMK SC7SC1 RERA

CYHM;2009-10-21 15:00;CYHM 211500Z 20004KT 6SM BR OVC039 12/11 A3015 RMK SC8 SLP213

CYHM;2009-10-21 16:00;CYHM 211600Z 00000KT 15SM OVC035 13/12 A3014 RMK SC8 SLP211

CYHM;2009-10-21 17:00;CYHM 211700Z 00000KT 15SM OVC037 14/12 A3013 RMK SC8 SLP207

CYHM;2009-10-21 18:00;CYHM 211800Z 21008KT 15SM FEW034 BKN040 BKN085 BKN110 16/13 A3010 RMK SC2SC3AC1AC1 CU ASOCTD SLP195

CYHM;2009-10-21 19:00;CYHM 211900Z 21006KT 12SM FEW016 SCT040 BKN110 16/13 A3007 RMK CU2SC2AC3 SLP186

CYHM;2009-10-21 20:00;CYHM 212000Z 20010KT 12SM FEW018 SCT035 BKN120 16/13 A3006 RMK CU1SC2AC4 SLP182

CYHM;2009-10-21 21:00;CYHM 212100Z 20006KT 12SM FEW045 BKN110 BKN160 16/12 A3006 RMK SC2AC3AC2 SLP180

CYHM;2009-10-21 22:00;CYHM 212200Z 21004KT 12SM FEW045 SCT090 BKN120 BKN160 15/11 A3004 RMK SC2AC2AC2AC2 SLP174

CYHM;2009-10-21 23:00;CYHM 212300Z 22003KT 12SM FEW045 BKN120 BKN150 13/10 A3004 RMK SC2AC4AC2 SLP173

CYHM;2009-10-22 00:00;CYHM 220000Z 22004KT 15SM FEW050 BKN120 BKN150 12/10 A3003 RMK SC2AC3AC2 SLP172

CYHM;2009-10-22 01:00;CYHM 220100Z 20005KT 15SM FEW060 BKN130 12/10 A3001 RMK SC2AC6 SLP165

CYHM;2009-10-22 02:00;CYHM 220200Z 21006KT 15SM BKN130 BKN160 12/10 A3000 RMK AC6AC2 SLP163

CYHM;2009-10-22 03:00;CYHM 220300Z 22003KT 15SM FEW120 OVC150 11/10 A2999 RMK AC2AC6 SLP159

CYHM;2009-10-22 04:00;CYHM 220400Z 21006KT 15SM OVC170 10/09 A2997 RMK AC8 SLP154

CYHM;2009-10-22 05:00;CYHM 220500Z 22007KT 15SM FEW170 OVC250 10/09 A2996 RMK AC1CI7 SLP148

CYHM;2009-10-22 06:00;CYHM 220600Z 22006KT 15SM OVC220 11/08 A2994 RMK CI8 SLP142

CYHM;2009-10-22 07:00;CYHM 220700Z 22006KT 15SM OVC210 10/08 A2994 RMK CI8 SLP140

CYHM;2009-10-22 08:00;CYHM 220800Z 23009KT 15SM OVC200 12/08 A2993 RMK CI8 SLP137

CYHM;2009-10-22 09:00;CYHM 220900Z 23011KT 15SM BKN220 13/08 A2992 RMK CI6 SLP133

CYHM;2009-10-22 10:00;CYHM 221000Z 23012KT 15SM SCT230 12/09 A2992 RMK CI3 SLP132

CYHM;2009-10-22 11:00;CYHM 221100Z 22010KT 15SM FEW060 BKN180 BKN220 12/08 A2991 RMK SC2AC2CI2 SLP130

CYHM;2009-10-22 12:00;CYHM 221200Z 23008KT 15SM BKN044 BKN160 BKN210 12/09 A2990 RMK SC5AC1CI1 SLP128

CYHM;2009-10-22 13:00;CYHM 221300Z 23012KT 15SM SCT045 BKN170 BKN210 13/09 A2991 RMK SC3AC2CI2 SLP131

CYHM;2009-10-22 14:00;CYHM 221400Z 22012KT 15SM BKN022 OVC120 14/10 A2990 RMK SC6AC2 SLP128

CYHM;2009-10-22 15:00;CYHM 221500Z 24014KT 15SM BKN020 OVC110 14/10 A2990 RMK SC6AC2 SLP128

CYHM;2009-10-22 16:00;CYHM 221600Z 24012KT 15SM BKN021 OVC042 15/10 A2990 RMK SC6SC2 SLP128

CYHM;2009-10-22 17:00;CYHM 221700Z 26012KT 15SM SCT020 OVC028 15/10 A2991 RMK SC3SC5 SLP131

CYHM;2009-10-22 18:00;CYHM 221800Z 26014KT 15SM OVC023 15/10 A2992 RMK SC8 SLP134

CYHM;2009-10-22 19:00;CYHM 221900Z 29011KT 12SM OVC023 15/11 A2993 RMK SC8 SLP137

CYHM;2009-10-22 20:00;CYHM 222000Z 29007KT 12SM FEW013 OVC020 13/10 A2996 RMK CF1SC7 SLP146

CYHM;2009-10-22 21:00;CYHM 222100Z 30007KT 270V340 15SM FEW012 FEW028 OVC062 12/10 A2997 RMK CF1SC1SC6 SLP150

CYHM;2009-10-22 22:00;CYHM 222200Z 32007KT 15SM FEW012 SCT062 OVC089 10/08 A2999 RMK SC2SC2AC5 SLP158

CYHM;2009-10-22 23:00;CYHM 222300Z 36008KT 15SM FEW013 BKN043 BKN087 09/07 A3003 RMK SC2SC3AC2 SLP170

CYHM;2009-10-23 00:00;CYHM 230000Z 01009KT 15SM FEW015 SCT048 OVC089 08/05 A3005 RMK SC1SC2AC5 SLP181

CYHM;2009-10-23 01:00;CYHM 230100Z 03011KT 15SM FEW014 OVC085 06/04 A3009 RMK SC2AC6 SLP192

CYHM;2009-10-23 02:00;CYHM 230200Z 02016KT 15SM BKN013 OVC080 05/03 A3009 RMK SC6AC2 SLP193

CYHM;2009-10-23 03:00;CYHM 230300Z 04015KT 15SM OVC013 05/03 A3009 RMK SC8 SLP195

CYHM;2009-10-23 04:00;CYHM 230400Z 05015KT 15SM OVC014 05/03 A3011 RMK SC8 SLP200

CYHM;2009-10-23 04:21;CYHM 230421Z 06014G19KT 15SM OVC016 RMK SC8

CYHM;2009-10-23 04:50;CYHM 230450Z 07017KT 15SM OVC014 RMK SC8

CYHM;2009-10-23 05:00;CYHM 230500Z 06018KT 15SM OVC014 05/03 A3010 RMK SC8 SLP199

CYHM;2009-10-23 06:00;CYHM 230600Z 06017KT 15SM OVC012 04/03 A3010 RMK SC8 SLP199

CYHM;2009-10-23 07:00;CYHM 230700Z 07018KT 15SM OVC010 04/03 A3009 RMK SC8 SLP193

CYHM;2009-10-23 07:41;CYHM 230741Z 08018KT 15SM -SHRA OVC010 RMK SC8

CYHM;2009-10-23 08:00;CYHM 230800Z 07018G23KT 15SM -SHRA OVC010 04/03 A3008 RMK SC8 SLP191

CYHM;2009-10-23 08:19;CYHM 230819Z 07020KT 15SM -SHRA OVC009 RMK SC8 PCPN VRY LGT

CYHM;2009-10-23 09:00;CYHM 230900Z 06017KT 15SM -SHRA OVC008 04/03 A3009 RMK SC8 SLP194

CYHM;2009-10-23 10:00;CYHM 231000Z 07016KT 15SM -SHRA OVC006 04/04 A3009 RMK SC8 SLP195

CYHM;2009-10-23 11:00;CYHM 231100Z 07018G24KT 15SM -SHRA SCT007 BKN014 BKN036 OVC080 04/04 A3008 RMK SF3SC2SC2AC1 SLP191

CYHM;2009-10-23 12:00;CYHM 231200Z 06020KT 6SM -SHRA BR BKN006 BKN016 OVC042 04/04 A3005 RMK SF5SC2SC1 SLP182

CYHM;2009-10-23 13:00;CYHM 231300Z 06025G30KT 10SM -SHRA BKN007 OVC081 04/04 A3002 RMK SF6AC2 SLP171

CYHM;2009-10-23 14:00;CYHM 231400Z 07020G26KT 15SM OVC012 04/03 A3002 RMK SC8 SLP172

CYHM;2009-10-23 14:14;CYHM 231414Z 07020G25KT 15SM -SHRA OVC007 RMK SF8

CYHM;2009-10-23 15:00;CYHM 231500Z 06022G28KT 15SM -SHRA BKN007 OVC022 04/04 A3000 RMK SF6SC2 SLP166

CYHM;2009-10-23 15:34;CYHM 231534Z 04018G24KT 15SM BKN008 OVC025 RMK SF6SC2 RERA

CYHM;2009-10-23 16:00;CYHM 231600Z 06020G25KT 15SM BKN007 BKN015 OVC030 05/04 A2997 RMK SF6SC2SC1 SLP155

CYHM;2009-10-23 16:39;CYHM 231639Z 06018G23KT 10SM -SHRA OVC008 RMK SF8

CYHM;2009-10-23 17:00;CYHM 231700Z 06012G17KT 6SM -SHRA BR OVC006 05/05 A2996 RMK SF8 SLP153

CYHM;2009-10-23 18:00;CYHM 231800Z 05020G25KT 3SM -SHRA BR OVC005 04/04 A2988 RMK SF8 PREFR SLP125

CYHM;2009-10-23 19:00;CYHM 231900Z 05022KT 5SM -SHRA BR OVC003 05/05 A2980 RMK SF8 PRESFR SLP099

CYHM;2009-10-23 20:00;CYHM 232000Z 06020G25KT 4SM -SHRA BR OVC003 05/05 A2979 RMK SF8 SLP095

CYHM;2009-10-23 20:35;CYHM 232035Z 06022KT 1 1/2SM -RA BR OVC002 RMK FG2SF6 VIS VRB 1 - 2

CYHM;2009-10-23 21:00;CYHM 232100Z 06017KT 1SM -RA BR OVC003 05/05 A2975 RMK FG2SF6 VIS VRB 3/4 - 11/4 SLP081

CYHM;2009-10-23 21:27;CYHM 232127Z 06018KT 2SM -RA BR OVC007 RMK FG1SF7 CIG RAG

CYHM;2009-10-23 22:00;CYHM 232200Z CCA 05017KT 2SM -RA BR OVC003 06/06 A2969 RMK FG1SF7 PRESFR SLP062

CYHM;2009-10-23 23:00;CYHM 232300Z 05014KT 1 1/2SM -RA BR OVC003 06/06 A2967 RERA RMK FG2SF6 VIS VRB 1 - 2 SLP055

CYHM;2009-10-24 00:00;CYHM 240000Z 05012KT 2SM -RA BR OVC003 07/07 A2965 RMK FG2SF6 SLP048

CYHM;2009-10-24 01:00;CYHM 240100Z 04010KT 1SM -RA BR OVC002 07/07 A2962 RMK FG2SF6 VIS VRB 3/4 - 11/4 SLP036

CYHM;2009-10-24 01:10;CYHM 240110Z 04010KT 1/2SM -RA FG VV002 RMK FG8

CYHM;2009-10-24 01:38;CYHM 240138Z 01008KT 3/4SM -RA BR VV002 RMK FG8 VIS VRB 1/2 - 1

CYHM;2009-10-24 02:00;CYHM 240200Z 04009KT 3/4SM -RA BR VV002 07/07 A2961 RMK FG8 VIS VRB 1/2 - 1 SLP034

CYHM;2009-10-24 03:00;CYHM 240300Z 04007KT 1/4SM -RA FG VV002 07/07 A2959 RMK FG8 SLP024

CYHM;2009-10-24 04:00;CYHM 240400Z 06008KT 1/4SM -RA FG VV002 07/07 A2955 RMK FG8 SLP014

CYHM;2009-10-24 04:35;CYHM 240435Z 35006KT 3/4SM -RA BR VV002 RMK FG8 VIS VRB 1/2 - 1

CYHM;2009-10-24 05:00;CYHM 240500Z 04002KT 3/4SM BR VV002 08/08 A2953 RMK FG8 VIS VRB 1/2 - 1 SLP007

CYHM;2009-10-24 05:16;CYHM 240516Z 12002KT 3/4SM BR SCT005 BKN035 RMK FG2SF2SC1 VIS VRB 1/2 - 1

CYHM;2009-10-24 06:00;CYHM 240600Z 19006KT 3/4SM BR SCT007 BKN045 BKN100 09/09 A2954 RMK FG2SF2SC2AC1 VIS VRB 1/2 - 1 SLP007

CYHM;2009-10-24 06:14;CYHM 240614Z 21009KT 7SM FEW007 SCT045 BKN100 RMK CF1SC2AC2 WARM FROPA

CYHM;2009-10-24 07:00;CYHM 240700Z 21007KT 15SM FEW040 SCT090 13/13 A2954 RMK SC2AC2 SLP009

CYHM;2009-10-24 08:00;CYHM 240800Z 21011KT 15SM SCT052 BKN070 12/12 A2955 RMK SC3AC2 SLP011

CYHM;2009-10-24 09:00;CYHM 240900Z 22010KT 12SM FEW037 BKN050 13/13 A2955 RMK SC2SC6 SLP009

CYHM;2009-10-24 10:00;CYHM 241000Z 22012KT 15SM BKN031 BKN055 12/12 A2954 RMK SC6SC2 SLP008

CYHM;2009-10-24 11:00;CYHM 241100Z 22010KT 15SM FEW032 BKN057 12/11 A2954 RMK SC2SC6 SLP008

CYHM;2009-10-24 12:00;CYHM 241200Z 22010KT 15SM BKN059 11/10 A2955 RMK SC7 SLP011

CYHM;2009-10-24 13:00;CYHM 241300Z 23009KT 15SM OVC032 11/10 A2956 RMK SC8 SLP013

CYHM;2009-10-24 14:00;CYHM 241400Z 24010KT 15SM SCT032 BKN059 12/10 A2956 RMK SC3SC4 SLP013

CYHM;2009-10-24 15:00;CYHM 241500Z 23011KT 15SM BKN023 OVC059 12/09 A2956 RMK SC6SC2 SLP014

CYHM;2009-10-24 15:17;CYHM 241517Z 23018KT 15SM -SHRA BKN022 OVC059 RMK SC6SC2

CYHM;2009-10-24 16:00;CYHM 241600Z 24016KT 15SM BKN025 OVC041 11/08 A2957 RMK SC7SC1 SLP016

CYHM;2009-10-24 17:00;CYHM 241700Z 24018KT 15SM BKN034 OVC048 12/08 A2955 RMK SC5SC3 SLP011

CYHM;2009-10-24 18:00;CYHM 241800Z 23022G28KT 15SM FEW032 BKN056 12/07 A2954 RMK SC2SC4 SLP005

CYHM;2009-10-24 19:00;CYHM 241900Z 24020G27KT 15SM SCT030 OVC050 11/06 A2955 RMK CU4SC4 SLP010

CYHM;2009-10-24 20:00;CYHM 242000Z 24018KT 15SM SCT025 BKN035 OVC052 11/07 A2957 RMK CU3SC2SC2 SLP017

CYHM;2009-10-24 20:14;CYHM 242014Z 26018KT 7SM -SHRA BKN019 BKN035 OVC051 RMK SC5SC2SC2

CYHM;2009-10-24 20:30;CYHM 242030Z 24017G25KT 15SM SCT020 BKN036 OVC052 RMK CF3SC2SC2 OCNL -SHRA

CYHM;2009-10-24 21:00;CYHM 242100Z 24015KT 15SM FEW019 BKN026 BKN034 BKN054 10/07 A2959 RMK CF2SC3SC2SC1 SLP024

CYHM;2009-10-24 21:15;CYHM 242115Z CCA 25018G28KT 10SM -SHRA FEW019 BKN026 BKN035 BKN055 RMK CF2SC4SC1SC1

CYHM;2009-10-24 21:23;CYHM 242123Z 25015KT 15SM FEW019 BKN026 BKN039 RMK CF2SC4SC2 OCNL -SHRA

CYHM;2009-10-24 22:00;CYHM 242200Z 25015KT 15SM FEW018 BKN026 OVC037 09/06 A2962 RMK CF1SC6SC2 SLP032

CYHM;2009-10-24 23:00;CYHM 242300Z 25017KT 15SM BKN026 BKN036 BKN080 08/04 A2965 RMK SC5SC2AC1 SLP044

CYHM;2009-10-25 00:00;CYHM 250000Z 25016KT 15SM SCT028 BKN042 OVC082 08/04 A2970 RMK SC3SC2AC2 SLP061

CYHM;2009-10-25 01:00;CYHM 250100Z 24015KT 15SM SCT027 BKN044 OVC071 07/04 A2973 RMK SC3SC3AC2 SLP072

CYHM;2009-10-25 02:00;CYHM 250200Z 25015KT 15SM BKN025 BKN070 OVC140 07/04 A2976 RMK SC5AC2AC2 SLP082

CYHM;2009-10-25 03:00;CYHM 250300Z 25016KT 15SM FEW023 BKN032 06/03 A2981 RMK CF2SC5 SLP097

CYHM;2009-10-25 04:00;CYHM 250400Z 24013KT 15SM BKN022 06/04 A2983 RMK SC7 SLP105

CYHM;2009-10-25 05:00;CYHM 250500Z 25012KT 15SM FEW020 OVC030 06/04 A2986 RMK CF2SC6 SLP115

CYHM;2009-10-25 06:00;CYHM 250600Z 26013KT 15SM OVC030 07/03 A2988 RMK SC8 CF ASOCTD SLP124

CYHM;2009-10-25 07:00;CYHM 250700Z 26013KT 15SM FEW026 BKN034 06/02 A2991 RMK CF1SC6 SLP133

CYHM;2009-10-25 08:00;CYHM 250800Z 24012KT 15SM BKN032 06/03 A2993 RMK SC7 SLP140

CYHM;2009-10-25 09:00;CYHM 250900Z 23009KT 15SM BKN034 06/03 A2996 RMK SC7 SLP149

CYHM;2009-10-25 10:00;CYHM 251000Z 24010KT 15SM FEW033 SCT240 05/03 A2998 RMK SC2CI1 SLP156

CYHM;2009-10-25 11:00;CYHM 251100Z 22007KT 15SM FEW016 FEW240 03/02 A3000 RMK SC1CI0 SLP164

CYHM;2009-10-25 12:00;CYHM 251200Z 23007KT 15SM FEW100 BKN250 02/02 A3003 RMK AC1CI2 AC TR SLP175

CYHM;2009-10-25 13:00;CYHM 251300Z 23009KT 15SM FEW100 FEW250 05/04 A3007 RMK AC1CI1 AC TR SLP188

CYHM;2009-10-25 15:00;CYHM 251500Z 25007KT 15SM FEW020 SCT090 BKN250 09/05 A3010 RMK SC1AC3CI1 SC TR SLP199

CYHM;2009-10-25 16:00;CYHM 251600Z 24008KT 15SM FEW025 FEW090 SCT250 11/05 A3012 RMK CU1AC1CI2 CU AC TR SLP204

CYHM;2009-10-25 17:00;CYHM 251700Z 24010KT 210V300 15SM FEW030 SCT110 BKN250 11/04 A3012 RMK CU1AC2CI1 SLP205

CYHM;2009-10-25 18:00;CYHM 251800Z 25008KT 15SM FEW038 BKN250 13/05 A3012 RMK CU1CI2 SLP204

CYHM;2009-10-25 19:00;CYHM 251900Z 27006KT 240V300 15SM FEW042 BKN250 13/04 A3013 RMK CU2CI2 SLP207

CYHM;2009-10-25 20:00;CYHM 252000Z 25006KT 15SM FEW042 BKN250 13/04 A3013 RMK CU2CI2 SLP209

CYHM;2009-10-25 21:00;CYHM 252100Z 24005KT 15SM FEW044 BKN250 13/04 A3015 RMK CU2CI2 SLP213

CYHM;2009-10-25 22:00;CYHM 252200Z 21005KT 15SM FEW040 FEW150 SCT250 11/06 A3015 RMK CU1AC1CI2 CU TR AC TR SLP214

CYHM;2009-10-25 23:00;CYHM 252300Z 18005KT 15SM FEW250 09/06 A3017 RMK CI2 SLP221

CYHM;2009-10-26 00:00;CYHM 260000Z 21005KT 15SM SKC 07/06 A3019 RMK SLP229

CYHM;2009-10-26 01:00;CYHM 260100Z 20004KT 15SM FEW250 07/06 A3020 RMK CI1 CI TR SLP234

CYHM;2009-10-26 02:00;CYHM 260200Z 22002KT 15SM FEW180 FEW220 05/04 A3021 RMK AC1CI1 AC TR SLP236

CYHM;2009-10-26 03:00;CYHM 260300Z 00000KT 15SM FEW150 BKN230 06/04 A3021 RMK AC2CI2 SLP237

CYHM;2009-10-26 04:00;CYHM 260400Z 17003KT 15SM FEW120 FEW230 06/06 A3021 RMK AC1CI1 SLP236

CYHM;2009-10-26 05:00;CYHM 260500Z 00000KT 12SM MIFG FEW120 05/05 A3023 RMK AC1 SLP242

CYHM;2009-10-26 06:00;CYHM 260600Z 00000KT 6SM BR FEW080 05/05 A3023 RMK AC1 SLP242

CYHM;2009-10-26 06:13;CYHM 260613Z 00000KT 3/4SM BR SCT080 RMK FG2AC1 VIS VRB 1/2 - 1

CYHM;2009-10-26 06:30;CYHM 260630Z 06004KT 10SM MIFG FEW095 RMK AC2

CYHM;2009-10-26 07:00;CYHM 260700Z 05005KT 7SM MIFG FEW092 03/03 A3024 RMK AC2 SLP246

CYHM;2009-10-26 07:16;CYHM 260716Z 05004KT 1SM BR FEW090 RMK FG2AC1 VIS VRB 3/4 - 11/4

CYHM;2009-10-26 07:28;CYHM 260728Z 04004KT 6SM BR FEW090 RMK AC1

CYHM;2009-10-26 08:00;CYHM 260800Z 06006KT 6SM BR FEW090 04/04 A3024 RMK AC2 SLP245

CYHM;2009-10-26 09:00;CYHM 260900Z 05005KT 10SM FEW080 SCT110 05/05 A3024 RMK AC2AC2 SLP247

CYHM;2009-10-26 10:00;CYHM 261000Z 04006KT 7SM SCT093 05/05 A3025 RMK AC3 SLP248

CYHM;2009-10-26 11:00;CYHM 261100Z 05006KT 15SM FEW095 SCT230 05/05 A3026 RMK AC2CI1 SLP254

CYHM;2009-10-26 11:40;CYHM 261140Z 06006KT 2SM BR FEW064 SCT090 BKN230 RMK SC2AC2CI1

CYHM;2009-10-26 11:47;CYHM 261147Z 06007KT 1 1/2SM BR FEW062 SCT095 BKN240 RMK FG1SC1AC2CI2

CYHM;2009-10-26 11:54;CYHM 261154Z 06008KT 2 1/2SM BR FEW062 FEW100 SCT240 RMK SC1AC1CI2

CYHM;2009-10-26 12:00;CYHM 261200Z 06008KT 2 1/2SM BR FEW062 FEW100 SCT240 06/06 A3026 RMK SC1AC1CI1 SLP253

CYHM;2009-10-26 13:00;CYHM 261300Z 05006KT 3SM BR FEW100 FEW240 07/07 A3028 RMK AC1CI1 AC TR SLP259

CYHM;2009-10-26 14:00;CYHM 261400Z 05007KT 15SM FEW100 FEW150 SCT230 09/07 A3028 RMK AC1AC2CI1 SLP261

CYHM;2009-10-26 15:00;CYHM 261500Z 07008KT 15SM FEW035 FEW100 BKN150 09/07 A3027 RMK SC1AC1AC6 SC TR SLP258

CYHM;2009-10-26 16:00;CYHM 261600Z 03008KT 15SM BKN140 10/07 A3026 RMK AC6 SLP255

CYHM;2009-10-26 17:00;CYHM 261700Z 06008KT 15SM BKN140 BKN180 10/06 A3024 RMK AC5AC1 SLP247

CYHM;2009-10-26 18:00;CYHM 261800Z 05007KT 15SM BKN130 12/07 A3021 RMK AC5 SLP237

CYHM;2009-10-26 19:00;CYHM 261900Z 06011KT 15SM SCT130 BKN250 11/06 A3017 RMK AC4CI0 SLP224

CYHM;2009-10-26 20:00;CYHM 262000Z 05012KT 15SM FEW130 BKN240 11/07 A3016 RMK AC2CC2 CI ASOCTD SLP218

CYHM;2009-10-26 21:00;CYHM 262100Z 05012KT 15SM BKN130 BKN250 10/07 A3014 RMK AC6CI1 CI TR SLP212

CYHM;2009-10-26 22:00;CYHM 262200Z 04014KT 15SM FEW022 FEW130 FEW250 08/07 A3013 RMK SC1AC1CI0 SC TR CONTRAILS SLP210

CYHM;2009-10-26 23:00;CYHM 262300Z 05012KT 6SM BR FEW015 FEW090 BKN120 08/08 A3012 RMK SF1AC1AC5 SLP205

CYHM;2009-10-27 00:00;CYHM 270000Z 04009KT 6SM BR FEW010 BKN130 BKN250 08/08 A3010 RMK SF1AC2CI1 SLP198

CYHM;2009-10-27 01:00;CYHM 270100Z 03010KT 12SM FEW130 SCT250 08/08 A3008 RMK AC2CI1 SLP193

CYHM;2009-10-27 02:00;CYHM 270200Z 04005KT 12SM FEW012 FEW130 BKN250 07/07 A3008 RMK SF1AC1CI2 SF TR SLP191

CYHM;2009-10-27 03:00;CYHM 270300Z 05004KT 15SM FEW090 FEW110 SCT250 07/07 A3007 RMK AC1AC1CI0 SLP187

CYHM;2009-10-27 04:00;CYHM 270400Z 05004KT 15SM FEW090 FEW140 SCT250 06/06 A3005 RMK AC1AC1CI1 SLP181

CYHM;2009-10-27 05:00;CYHM 270500Z 07003KT 15SM FEW090 SCT250 05/05 A3003 RMK AC1CI1 SLP174

CYHM;2009-10-27 06:00;CYHM 270600Z 17009KT 15SM BKN140 BKN250 07/06 A3002 RMK AC6CI1 SLP170

CYHM;2009-10-27 07:00;CYHM 270700Z 18007KT 15SM BKN130 09/06 A3001 RMK AC7 SLP165

CYHM;2009-10-27 08:00;CYHM 270800Z 19008KT 15SM BKN120 09/07 A3000 RMK AC7 SLP164

CYHM;2009-10-27 09:00;CYHM 270900Z 18006KT 15SM BKN120 09/07 A2999 RMK AC5 SLP160

CYHM;2009-10-27 10:00;CYHM 271000Z 18007KT 15SM FEW120 FEW250 09/06 A3000 RMK AC1CI1 AC TR SLP162

CYHM;2009-10-27 11:00;CYHM 271100Z 20007KT 15SM SCT110 BKN220 09/07 A2999 RMK AC3CI2 SLP159

CYHM;2009-10-27 12:00;CYHM 271200Z 20006KT 15SM FEW060 BKN100 BKN220 09/07 A2998 RMK SC2AC3CI2 SLP158

CYHM;2009-10-27 13:00;CYHM 271300Z 21010KT 15SM FEW060 BKN090 BKN220 10/08 A3000 RMK SC1AC6CI1 SLP162

CYHM;2009-10-27 14:00;CYHM 271400Z 23006KT 15SM FEW075 BKN150 BKN220 11/08 A2999 RMK AC2AC3CI2 SLP159

CYHM;2009-10-27 15:00;CYHM 271500Z 22008KT 15SM BKN082 BKN150 OVC220 12/09 A2999 RMK AC5AC2CI1 SLP161

CYHM;2009-10-27 16:00;CYHM 271600Z 25007KT 15SM FEW062 BKN080 BKN150 OVC220 14/09 A3000 RMK SC1AC5AC2CI2 SC TR SLP162

CYHM;2009-10-27 17:00;CYHM 271700Z 22008KT 15SM SCT045 BKN085 BKN220 13/09 A2999 RMK SC3AC3CI1 SLP161

CYHM;2009-10-27 18:00;CYHM 271800Z 20006KT 15SM FEW074 BKN094 14/09 A2998 RMK AC2AC6 SLP157

CYHM;2009-10-27 19:00;CYHM 271900Z 26005KT 15SM FEW094 OVC250 14/09 A2997 RMK AC2CS5 SUN DMLY VSBL SLP152

CYHM;2009-10-27 20:00;CYHM 272000Z 24003KT 15SM FEW090 OVC250 15/09 A2997 RMK AC2CS6 SUN DMLY VSBL SLP151

CYHM;2009-10-27 21:00;CYHM 272100Z 20002KT 15SM FEW090 OVC250 14/10 A2997 RMK AC1CS7 SUN DMLY VSBL SLP151

CYHM;2009-10-27 22:00;CYHM 272200Z 00000KT 12SM FEW034 OVC250 13/09 A2997 RMK SC2CS6 SLP153

CYHM;2009-10-27 23:00;CYHM 272300Z 00000KT 12SM FEW044 BKN220 12/10 A2999 RMK SC2CS4 SLP158

CYHM;2009-10-28 00:00;CYHM 280000Z 30003KT 15SM SCT047 OVC250 10/10 A2997 RMK SC3CS3 SLP155

CYHM;2009-10-28 01:00;CYHM 280100Z 03002KT 15SM FEW048 BKN190 OVC250 11/10 A2995 RMK SC2AS5CS1 SLP148

CYHM;2009-10-28 02:00;CYHM 280200Z 07005KT 15SM OVC140 10/10 A2995 RMK AC8 SLP147

CYHM;2009-10-28 03:00;CYHM 280300Z 06005KT 15SM OVC120 10/10 A2993 RMK AC8 SLP138

CYHM;2009-10-28 05:00;CYHM 280500Z 03011KT 12SM -SHRA OVC090 10/09 A2989 RMK AC8 SLP125

CYHM;2009-10-28 05:45;CYHM 280545Z 03010KT 15SM FEW090 OVC120 RMK AC2AC6

CYHM;2009-10-28 06:00;CYHM 280600Z 04010KT 15SM FEW090 OVC130 10/09 A2988 RMK AC2AC6 SLP121

CYHM;2009-10-28 07:00;CYHM 280700Z 05012KT 15SM FEW080 BKN100 OVC140 10/08 A2987 RMK AC1AC6AC2 SLP118

CYHM;2009-10-28 08:00;CYHM 280800Z 04016G22KT 15SM OVC088 10/09 A2984 RMK AC8 SLP109

CYHM;2009-10-28 09:00;CYHM 280900Z 05016G22KT 8SM SCT010 OVC078 10/09 A2982 RMK SF3AC5 SLP100

CYHM;2009-10-28 09:51;CYHM 280951Z 05016G22KT 10SM -SHRA BKN009 OVC048 RMK SF5SC3

CYHM;2009-10-28 10:00;CYHM 281000Z 06018G23KT 8SM -SHRA BKN008 BKN046 OVC070 10/09 A2982 RMK SF5SC2AC1 SLP100

CYHM;2009-10-28 10:18;CYHM 281018Z 05016G22KT 8SM -SHRA BKN006 OVC040 RMK SF6SC2

CYHM;2009-10-28 10:36;CYHM 281036Z 05020KT 6SM -SHRA BKN004 OVC035 RMK SF6SC2

CYHM;2009-10-28 11:00;CYHM 281100Z 05018KT 4SM -SHRA BR BKN004 OVC035 09/09 A2982 RMK SF6SC2 SLP100

CYHM;2009-10-28 11:12;CYHM 281112Z 05015KT 3SM -SHRA BR OVC003 RMK SF8 CIG RAG

CYHM;2009-10-28 11:42;CYHM 281142Z 04014KT 2SM -SHRA BR OVC003 RMK SF8 CIG RAG

CYHM;2009-10-28 12:00;CYHM 281200Z 05015KT 2SM -SHRA BR OVC002 09/09 A2983 RMK SF8 CIG RAG SLP106

CYHM;2009-10-28 12:18;CYHM 281218Z 06015KT 1 1/2SM -SHRA BR OVC002 RMK FG1SF7 CIG RAG VIS VRBL 1-2SM

CYHM;2009-10-28 13:00;CYHM 281300Z 05012G17KT 2 1/2SM -SHRA BR OVC005 09/09 A2984 RMK SF8 SLP107

CYHM;2009-10-28 13:14;CYHM 281314Z 06014G20KT 3SM -RA BR BKN004 BKN011 OVC050 RMK SF6SC2SC1

CYHM;2009-10-28 14:00;CYHM 281400Z 05016KT 4SM -RA BR BKN005 BKN012 OVC028 10/10 A2983 RMK SF6SC2SC1 SLP106

CYHM;2009-10-28 14:14;CYHM 281414Z 03015KT 3/4SM -RA BR OVC002 RMK FG2SF6

CYHM;2009-10-28 14:18;CYHM 281418Z 03012KT 1/4SM -RA FG OVC002 RMK FG4SF4 CIG RAG

CYHM;2009-10-28 14:25;CYHM 281425Z 04012G18KT 1/8SM -RA FG VV001 RMK FG8

CYHM;2009-10-28 14:35;CYHM 281435Z 05016KT 1/2SM -RA FG OVC002 RMK FG3SF5

CYHM;2009-10-28 14:45;CYHM 281445Z 04014KT 1SM -RA BR OVC003 RMK FG2SF6 CIG RAG

CYHM;2009-10-28 14:52;CYHM 281452Z 04016KT 1 3/4SM -RA BR BKN005 OVC014 RMK FG1SF6SC2

CYHM;2009-10-28 15:00;CYHM 281500Z 04012G22KT 1 3/4SM -RA BR BKN005 OVC015 10/10 A2986 RMK FG1SF6SC2 SLP115

CYHM;2009-10-28 15:14;CYHM 281514Z 05018G23KT 2SM -RA BR SCT005 BKN015 OVC032 RMK SF4SC2SC2

CYHM;2009-10-28 15:48;CYHM 281548Z 03014KT 2SM -RA BR BKN007 OVC015 RMK SF6SC2

CYHM;2009-10-28 16:00;CYHM 281600Z 03018G23KT 2SM -RA BR BKN006 OVC012 11/10 A2987 RMK SF6SC2 CIG RAG VIS VRB 11/2 -21/2SM SLP118

CYHM;2009-10-28 16:31;CYHM 281631Z 03014KT 1 1/2SM -RA BR OVC003 RMK FG2SF6 VIS VRBL 1-2SM CIG RAG

CYHM;2009-10-28 17:00;CYHM 281700Z 04014KT 2SM -RA BR BKN004 OVC012 10/10 A2990 RMK SF6SC2 CIG RAG SLP127

CYHM;2009-10-28 18:00;CYHM 281800Z 03012KT 2SM -RA BR BKN004 OVC011 11/11 A2990 RMK SF6SC2 SLP128

CYHM;2009-10-28 18:26;CYHM 281826Z 03012KT 1 3/4SM -DZ BR BKN004 OVC008 RMK FG2SF5ST2

CYHM;2009-10-28 19:00;CYHM 281900Z 03009KT 360V060 2SM -DZ BR BKN004 OVC008 11/11 A2992 RMK FG1SF5ST2 SLP135

CYHM;2009-10-28 19:17;CYHM 281917Z 02010KT 3SM -DZ BR BKN005 OVC010 RMK SF5ST3

CYHM;2009-10-28 20:00;CYHM 282000Z 02009KT 3SM -DZ BR FEW004 BKN006 OVC011 11/11 A2996 RMK SF2SF4SC2 SLP147

CYHM;2009-10-28 20:41;CYHM 282041Z 01009KT 4SM BR FEW004 BKN007 OVC012 RMK SF2SF3SC3

CYHM;2009-10-28 21:00;CYHM 282100Z 02008KT 3SM -DZ BR FEW004 BKN007 OVC012 11/11 A2998 RMK SF2SF3SC3 SLP156

CYHM;2009-10-28 21:17;CYHM 282117Z 03007KT 4SM BR FEW005 BKN008 OVC014 RMK SF2SF3SC3

CYHM;2009-10-28 22:00;CYHM 282200Z 03008KT 5SM BR SCT007 OVC012 11/10 A3002 RMK SF4SC4 SLP170

CYHM;2009-10-28 23:00;CYHM 282300Z 03005KT 6SM BR FEW006 OVC012 11/10 A3006 RMK SF2SC6 SLP183

CYHM;2009-10-28 23:47;CYHM 282347Z 02004KT 2 1/2SM -DZ BR SCT006 OVC009 RMK FG1SF3ST4

CYHM;2009-10-29 00:00;CYHM 290000Z 04004KT 1 3/4SM -DZ BR BKN004 OVC008 10/10 A3009 RMK FG2SF3ST3 SLP193

CYHM;2009-10-29 00:48;CYHM 290048Z 02002KT 1 1/2SM -RADZ BR BKN003 OVC006 RMK FG2SF3SF3 CIG VRB 2-4

CYHM;2009-10-29 01:00;CYHM 290100Z 01003KT 1 1/2SM -RADZ BR BKN003 OVC007 10/10 A3012 RMK FG2SF4SF2 CIG VRB 2-4 SLP203

CYHM;2009-10-29 01:19;CYHM 290119Z 01004KT 1 1/2SM -DZ BR BKN003 OVC007 RMK FG2SF3SF3 CIG VRB 2-4

CYHM;2009-10-29 02:00;CYHM 290200Z 01004KT 1 3/4SM -DZ BR BKN004 OVC007 10/10 A3015 RMK FG2SF5SF2 CIG VRB 3-5 SLP214

CYHM;2009-10-29 03:00;CYHM 290300Z 07004KT 1 1/2SM -DZ BR OVC006 10/10 A3016 RMK FG2SF6 VIS VRB 1 - 2 CIG RAG SLP216

CYHM;2009-10-29 04:00;CYHM 290400Z 00000KT 1 1/2SM -DZ BR OVC003 09/09 A3016 RMK FG2SF6 VIS VRB 1 - 2 SLP217

CYHM;2009-10-29 04:50;CYHM 290450Z 00000KT 4SM BR OVC005 RMK SF8

CYHM;2009-10-29 05:00;CYHM 290500Z 00000KT 4SM BR OVC004 09/09 A3017 RMK SF8 SLP219

CYHM;2009-10-29 05:38;CYHM 290538Z 11005KT 1SM BR OVC002 RMK FG2SF6 VIS VRB 3/4 - 11/4

CYHM;2009-10-29 06:00;CYHM 290600Z 00000KT 1/4SM FG VV002 09/09 A3017 RMK FG8 SLP222

CYHM;2009-10-29 06:13;CYHM 290613Z 10003KT 0SM FG VV001 RMK FG8

CYHM;2009-10-29 06:38;CYHM 290638Z 05003KT 1/4SM FG VV001 RMK FG8

CYHM;2009-10-29 06:50;CYHM 290650Z 00000KT 3/4SM BR VV002 RMK FG8 VIS VRB 1/2 - 1

CYHM;2009-10-29 07:00;CYHM 290700Z 00000KT 1 1/2SM BR OVC004 09/09 A3020 RMK FG2SF6 VIS VRB 1 - 2 SLP229

CYHM;2009-10-29 07:17;CYHM 290717Z 00000KT 3SM BR OVC005 RMK SF8 VIS VRB 2 - 4

CYHM;2009-10-29 08:00;CYHM 290800Z 00000KT 3SM BR OVC009 09/09 A3021 RMK SC8 VIS VRB 2 - 4 SLP233

CYHM;2009-10-29 09:00;CYHM 290900Z 00000KT 4SM BR FEW004 OVC010 09/09 A3022 RMK SF2SC6 SLP238

CYHM;2009-10-29 10:00;CYHM 291000Z 00000KT 5SM BR OVC011 09/09 A3023 RMK SC8 SLP243

CYHM;2009-10-29 11:00;CYHM 291100Z 00000KT 7SM OVC008 09/09 A3025 RMK SF8 SLP249

CYHM;2009-10-29 12:00;CYHM 291200Z 00000KT 3SM BR OVC008 09/09 A3028 RMK SF8 SLP257

CYHM;2009-10-29 13:00;CYHM 291300Z 00000KT 5SM BR OVC009 10/10 A3029 RMK SF8 SLP262

CYHM;2009-10-29 14:00;CYHM 291400Z 00000KT 5SM BR BKN008 OVC012 10/09 A3031 RMK SF6SC2 SLP267

CYHM;2009-10-29 15:00;CYHM 291500Z 00000KT 4SM BR BKN006 OVC011 10/10 A3031 RMK SF6SC2 SLP269

CYHM;2009-10-29 16:00;CYHM 291600Z 11002KT 6SM BR BKN008 OVC011 10/09 A3029 RMK SF6SC2 SLP263

CYHM;2009-10-29 17:00;CYHM 291700Z 12004KT 6SM BR BKN009 OVC012 10/09 A3027 RMK SF6SC2 SLP256

CYHM;2009-10-29 18:00;CYHM 291800Z 12006KT 15SM SCT008 OVC013 10/09 A3025 RMK SF3SC5 SLP248

CYHM;2009-10-29 19:00;CYHM 291900Z 08005KT 15SM FEW008 OVC012 10/09 A3024 RMK SF2SC6 SLP244

CYHM;2009-10-29 20:00;CYHM 292000Z 07005KT 15SM FEW008 BKN012 OVC018 10/09 A3026 RMK SF1SC5SC2 SLP250

CYHM;2009-10-29 21:00;CYHM 292100Z 08007KT 12SM BKN012 OVC017 10/09 A3024 RMK SC6SC2 SLP245

CYHM;2009-10-29 21:32;CYHM 292132Z 06010KT 10SM SCT012 OVC017 RMK SC3SC5

CYHM;2009-10-29 21:48;CYHM 292148Z 08009KT 10SM FEW006 FEW012 OVC016 RMK CF1SC2SC6

CYHM;2009-10-29 22:00;CYHM 292200Z 08008KT 7SM SCT006 OVC016 09/09 A3022 RMK CF3SC5 SLP237

CYHM;2009-10-29 22:37;CYHM 292237Z 07007KT 6SM BR BKN005 OVC015 RMK CF6SC2

CYHM;2009-10-29 23:00;CYHM 292300Z 08009KT 3SM BR OVC003 09/09 A3022 RMK SF8 SLP237

CYHM;2009-10-29 23:25;CYHM 292325Z 07007KT 1 1/2SM BR OVC002 RMK FG2SF6

CYHM;2009-10-30 00:00;CYHM 300000Z 06007KT 1 1/2SM BR OVC002 08/08 A3023 RMK FG2SF6 SLP242

CYHM;2009-10-30 00:20;CYHM 300020Z 05007KT 1SM BR OVC002 RMK FG3SF5

CYHM;2009-10-30 00:51;CYHM 300051Z 05008KT 1/2SM FG OVC002 RMK FG5SF3

CYHM;2009-10-30 01:00;CYHM 300100Z 05008KT 1/2SM FG OVC002 09/09 A3022 RMK FG5SF3 SLP239

CYHM;2009-10-30 01:38;CYHM 300138Z 06008KT 1SM BR OVC002 RMK FG4SF4

CYHM;2009-10-30 02:00;CYHM 300200Z 06008KT 1 1/4SM BR OVC002 09/09 A3020 RMK FG4SF4 SLP230

CYHM;2009-10-30 02:36;CYHM 300236Z 06009KT 4SM BR SCT002 OVC024 RMK SF4SC4

CYHM;2009-10-30 03:00;CYHM 300300Z 07010KT 5SM BR BKN003 OVC024 09/09 A3016 RMK SF5SC3 SLP218

CYHM;2009-10-30 04:00;CYHM 300400Z 06010KT 1 1/2SM BR OVC002 09/09 A3013 RMK FG3SF5 SLP209

CYHM;2009-10-30 04:43;CYHM 300443Z 06009KT 1SM BR OVC002 RMK FG5SF3

CYHM;2009-10-30 05:00;CYHM 300500Z 06008KT 1SM BR OVC002 09/09 A3012 RMK FG5SF3 SLP204

CYHM;2009-10-30 05:52;CYHM 300552Z 08008KT 3/8SM FG OVC002 RMK FG5SF2

CYHM;2009-10-30 06:00;CYHM 300600Z 08008KT 3/8SM FG OVC002 09/09 A3009 RMK FG5SF2 SLP193

CYHM;2009-10-30 06:36;CYHM 300636Z 06006KT 1 1/2SM BR SCT003 BKN180 RMK FG2SF2AC3

CYHM;2009-10-30 07:00;CYHM 300700Z 06009KT 2 1/2SM BR FEW002 BKN190 BKN240 09/09 A3007 RMK SF1AC6CI1 SLP188

CYHM;2009-10-30 07:28;CYHM 300728Z 05006KT 7SM FEW003 BKN190 RMK SF1AC6

CYHM;2009-10-30 08:00;CYHM 300800Z 05006KT 2 1/2SM BR FEW002 BKN180 09/09 A3007 RMK SF1AC5 SLP186

CYHM;2009-10-30 08:38;CYHM 300838Z 06005KT 1 1/4SM BR FEW002 BKN190 RMK FG2SF1AC5

CYHM;2009-10-30 09:00;CYHM 300900Z 06006KT 2SM BR BKN110 BKN190 09/09 A3004 RMK FG1AC5AC2 SLP177

CYHM;2009-10-30 10:00;CYHM 301000Z 11005KT 050V150 6SM BR SCT098 BKN110 09/09 A3003 RMK AC3AC3 SLP173

CYHM;2009-10-30 11:00;CYHM 301100Z 12004KT 15SM BKN120 10/10 A3001 RMK AC7 SLP166

CYHM;2009-10-30 12:00;CYHM 301200Z 14007KT 6SM BR BKN110 BKN160 11/11 A2998 RMK AC6AC2 SLP156

CYHM;2009-10-30 13:00;CYHM 301300Z 08004KT 6SM BR SCT062 BKN120 11/11 A2997 RMK SC3AC3 SLP153

CYHM;2009-10-30 14:00;CYHM 301400Z 00000KT 10SM BKN054 OVC120 12/12 A2998 RMK SC6AC2 SLP156

CYHM;2009-10-30 14:18;CYHM 301418Z 18002KT 10SM -SHRA BKN054 OVC110 RMK SC6AC2

CYHM;2009-10-30 15:00;CYHM 301500Z 17005KT 10SM -SHRA SCT054 BKN070 OVC086 13/13 A2995 RMK SC3AC3AC2 SLP146

CYHM;2009-10-30 15:48;CYHM 301548Z 20006KT 2SM -SHRA BR BKN028 OVC043 RMK SC6SC2

CYHM;2009-10-30 16:00;CYHM 301600Z 16008KT 5SM -SHRA BR FEW020 BKN044 OVC078 13/13 A2993 RMK SC2SC5AC2 SLP139

CYHM;2009-10-30 16:45;CYHM 301645Z 16006KT 7SM BKN040 OVC070 RMK SC6AC2 RERA

CYHM;2009-10-30 17:00;CYHM 301700Z 15006KT 10SM BKN037 OVC100 14/13 A2989 RMK SC6AC2 SLP124

CYHM;2009-10-30 18:00;CYHM 301800Z 15006KT 15SM BKN030 BKN046 OVC075 14/13 A2986 RMK SC6SC2AC1 SLP113

CYHM;2009-10-30 19:00;CYHM 301900Z 14004KT 15SM FEW033 BKN062 OVC180 15/13 A2983 RMK SC2SC4AC2 SLP103

CYHM;2009-10-30 20:00;CYHM 302000Z 15006KT 15SM FEW065 BKN090 BKN220 17/13 A2980 RMK SC2AC3CI2 SLP093

CYHM;2009-10-30 21:00;CYHM 302100Z 17008KT 15SM BKN075 BKN210 17/12 A2977 RMK AC5CI2 ACC ASOCTD SLP083

CYHM;2009-10-30 22:00;CYHM 302200Z 17007KT 15SM BKN180 16/12 A2975 RMK AC7 SLP078

CYHM;2009-10-30 23:00;CYHM 302300Z 17009KT 15SM BKN180 16/12 A2974 RMK AC7 SLP073

CYHM;2009-10-31 00:00;CYHM 310000Z 18012KT 15SM BKN170 16/12 A2972 RMK AC6 SLP066

CYHM;2009-10-31 02:00;CYHM 310200Z 19017G25KT 15SM FEW220 16/11 A2966 RMK CI2 SLP045

CYHM;2009-10-31 03:00;CYHM 310300Z 18016G21KT 15SM FEW220 15/11 A2963 RMK CI2 SLP036

CYHM;2009-10-31 04:00;CYHM 310400Z 18017G24KT 15SM FEW094 15/12 A2960 RMK AC2 SLP024

CYHM;2009-10-31 05:00;CYHM 310500Z 19017G23KT 15SM BKN073 16/12 A2956 RMK AC6 SLP013

CYHM;2009-10-31 05:53;CYHM 310553Z 19020G29KT 12SM -SHRA FEW075 OVC092 RMK AC2AC6

CYHM;2009-10-31 06:00;CYHM 310600Z 19020G28KT 12SM -SHRA FEW075 OVC120 16/12 A2955 RMK AC2AC6 SLP006

CYHM;2009-10-31 07:00;CYHM 310700Z 19020G27KT 12SM -SHRA FEW045 SCT090 OVC120 16/13 A2953 RMK SC2AC2AC5 SLP000

CYHM;2009-10-31 08:00;CYHM 310800Z 19018G25KT 12SM -SHRA OVC037 15/14 A2952 RMK SC8 SLP997

CYHM;2009-10-31 09:00;CYHM 310900Z 20022G31KT 7SM -SHRA BKN012 OVC025 15/14 A2950 RMK SC6SC2 SLP990

CYHM;2009-10-31 10:00;CYHM 311000Z 20017G24KT 8SM -SHRA BKN012 OVC020 14/14 A2947 RMK SC5SC3 SLP980

CYHM;2009-10-31 10:32;CYHM 311032Z 23018G28KT 9SM -SHRA BKN009 OVC017 RMK SC6SC2

CYHM;2009-10-31 11:00;CYHM 311100Z 26020KT 7SM -SHRA BKN007 OVC016 12/12 A2954 RMK SC6SC2 PRESRR SLP003

CYHM;2009-10-31 11:19;CYHM 311119Z 25014KT 7SM -SHRA SCT007 BKN018 OVC092 RERA RMK SC3SC2AC2

CYHM;2009-10-31 12:00;CYHM 311200Z 23014KT 15SM -SHRA FEW008 OVC032 10/09 A2952 RERA RMK CF1SC8 PCPN VRY LGT SLP999

CYHM;2009-10-31 13:00;CYHM 311300Z 23016KT 15SM -SHRA FEW014 OVC059 10/10 A2954 RMK CF2SC6 SLP003

CYHM;2009-10-31 14:00;CYHM 311400Z 24017KT 15SM BKN017 BKN026 OVC085 11/10 A2956 RMK CF5SC2AC1 SLP012

CYHM;2009-10-31 15:00;CYHM 311500Z 23016G24KT 15SM FEW014 BKN025 OVC058 11/10 A2957 RMK CF2SC5SC2 SLP014

CYHM;2009-10-31 16:00;CYHM 311600Z 24024G42KT 15SM BKN035 BKN047 OVC180 11/06 A2961 RMK SC5SC2AC1 SLP028

CYHM;2009-10-31 17:00;CYHM 311700Z 23032G44KT 15SM FEW042 BKN210 11/04 A2962 RMK SC2CC5 SLP030

CYHM;2009-10-31 18:00;CYHM 311800Z 24021G32KT 15SM BKN033 BKN220 10/03 A2966 RMK SC6CC1 SLP044

CYHM;2009-10-31 19:00;CYHM 311900Z 24025G36KT 15SM FEW025 SCT033 BKN054 11/03 A2968 RMK CU1SC3SC2 SLP051

CYHM;2009-10-31 20:00;CYHM 312000Z 25025G35KT 15SM FEW025 SCT041 BKN055 10/03 A2971 RMK CU1SC3SC2 SLP060

CYHM;2009-10-31 21:00;CYHM 312100Z 25018G24KT 15SM FEW027 SCT042 BKN061 10/02 A2974 RMK CU1SC2SC2 SLP073

CYHM;2009-10-31 22:00;CYHM 312200Z 24016KT 15SM FEW015 FEW025 BKN042 BKN061 09/03 A2978 RMK CF1CU1SC3SC2 SLP087

CYHM;2009-10-31 23:00;CYHM 312300Z 25016KT 15SM FEW025 SCT042 BKN055 09/02 A2984 RMK CU1SC4SC3 CU TR SLP105

CYHM;2009-11-01 01:00;CYHM 010100Z 26010KT 15SM BKN057 07/01 A2992 RMK SC7 SLP136

CYHM;2009-11-01 02:00;CYHM 010200Z 25013KT 15SM FEW042 BKN055 07/01 A2995 RMK SC2SC6 SLP146

CYHM;2009-11-01 03:00;CYHM 010300Z 25013KT 15SM FEW050 FEW220 06/00 A2997 RMK SC2CI1 SLP152

CYHM;2009-11-01 04:00;CYHM 010400Z 25006KT 15SM BKN050 06/01 A2998 RMK SC7 SLP158

CYHM;2009-11-01 05:00;CYHM 010500Z 23006KT 15SM BKN057 05/01 A3001 RMK SC6 SLP165

CYHM;2009-11-01 06:00;CYHM 010600Z 25007KT 15SM OVC043 05/02 A3002 RMK SC8 SLP171

CYHM;2009-11-01 07:00;CYHM 010700Z 29006KT 15SM OVC041 06/02 A3004 RMK SC8 SLP179

CYHM;2009-11-01 08:00;CYHM 010800Z 27007KT 15SM OVC042 06/M00 A3006 RMK SC8 SLP184

CYHM;2009-11-01 09:00;CYHM 010900Z 00000KT 15SM FEW042 04/M01 A3007 RMK SC2 SLP188

CYHM;2009-11-01 10:00;CYHM 011000Z 25007KT 15SM BKN043 OVC070 05/M01 A3010 RMK SC7AC1 SLP197

CYHM;2009-11-01 11:00;CYHM 011100Z 00000KT 15SM OVC042 05/M01 A3012 RMK SC8 SLP204

CYHM;2009-11-01 12:00;CYHM 011200Z 21002KT 15SM BKN041 04/M00 A3012 RMK SC7 SLP207

CYHM;2009-11-01 13:00;CYHM 011300Z 22004KT 15SM BKN040 05/01 A3016 RMK SC7 SLP219

CYHM;2009-11-01 14:00;CYHM 011400Z 24006KT 15SM BKN039 06/00 A3018 RMK SC7 SLP227

CYHM;2009-11-01 15:00;CYHM 011500Z 26007KT 15SM BKN036 06/01 A3022 RMK SC7 SLP239

CYHM;2009-11-01 16:00;CYHM 011600Z 25007KT 15SM OVC038 07/01 A3023 RMK SC8 SLP244

CYHM;2009-11-01 17:00;CYHM 011700Z 22004KT 15SM FEW035 BKN044 08/01 A3021 RMK CU1SC6 SLP238

CYHM;2009-11-01 18:00;CYHM 011800Z 34004KT 15SM SCT032 BKN043 BKN240 09/00 A3020 RMK CU3SC3CC1 SLP234

CYHM;2009-11-01 19:00;CYHM 011900Z 25004KT 15SM BKN038 BKN240 10/02 A3021 RMK SC6CC1 SLP235

CYHM;2009-11-01 20:00;CYHM 012000Z 12004KT 15SM BKN040 BKN150 BKN210 09/01 A3020 RMK SC5AC1CC2 AC TR SLP233

CYHM;2009-11-01 21:00;CYHM 012100Z 07003KT 15SM BKN040 BKN150 BKN220 09/01 A3020 RMK SC6AC1CI1 AC TR SLP235

CYHM;2009-11-01 22:00;CYHM 012200Z 34004KT 15SM BKN039 BKN220 08/02 A3022 RMK SC7CI1 CI TR SLP239

CYHM;2009-11-01 23:00;CYHM 012300Z 12002KT 15SM BKN040 07/02 A3024 RMK SC7 SLP246

CYHM;2009-11-02 00:00;CYHM 020000Z 14006KT 15SM BKN041 06/02 A3025 RMK SC6 SLP250

CYHM;2009-11-02 01:00;CYHM 020100Z 16004KT 15SM BKN044 06/01 A3025 RMK SC6 SLP252

CYHM;2009-11-02 02:00;CYHM 020200Z 19005KT 15SM SCT042 05/01 A3026 RMK SC3 SLP254

CYHM;2009-11-02 03:00;CYHM 020300Z 20002KT 15SM FEW040 FEW210 04/01 A3025 RMK SC1CI0 SLP252

CYHM;2009-11-02 04:00;CYHM 020400Z 00000KT 15SM FEW040 FEW210 03/01 A3024 RMK SC1CI1 SLP249

CYHM;2009-11-02 05:00;CYHM 020500Z 00000KT 15SM FEW210 03/01 A3023 RMK CI1 SLP245

CYHM;2009-11-02 06:00;CYHM 020600Z 00000KT 15SM SKC 02/01 A3023 RMK SLP243

CYHM;2009-11-02 07:00;CYHM 020700Z 00000KT 15SM FEW210 01/00 A3022 RMK CI1 FROIN SLP240

CYHM;2009-11-02 08:00;CYHM 020800Z 00000KT 15SM SKC 01/01 A3022 RMK FROIN SLP239

CYHM;2009-11-02 09:00;CYHM 020900Z 11003KT 15SM FEW210 02/00 A3022 RMK CI1 FROIN SLP239

CYHM;2009-11-02 10:00;CYHM 021000Z 00000KT 15SM BKN037 03/01 A3023 RMK SC7 SLP243

CYHM;2009-11-02 11:00;CYHM 021100Z 00000KT 15SM FEW038 FEW220 02/01 A3023 RMK SC2CI1 SLP242

CYHM;2009-11-02 12:00;CYHM 021200Z 10006KT 15SM FEW038 SCT120 02/01 A3022 RMK SC2AC2 SLP242

CYHM;2009-11-02 13:00;CYHM 021300Z 11006KT 15SM FEW040 FEW140 FEW220 03/01 A3019 RMK SC1AC1CI1 CI TR SLP232

CYHM;2009-11-02 14:00;CYHM 021400Z 15005KT 15SM FEW140 SCT220 07/04 A3021 RMK AC2CI1 SLP238

CYHM;2009-11-02 15:00;CYHM 021500Z 15004KT 15SM FEW025 FEW140 SCT220 08/04 A3020 RMK CU1AC1CI2 CU TR SLP232

CYHM;2009-11-02 16:00;CYHM 021600Z 17007KT 15SM FEW013 BKN028 BKN140 09/04 A3018 RMK CU2SC3AC2 SLP226

CYHM;2009-11-02 17:00;CYHM 021700Z 22008KT 15SM FEW028 BKN032 BKN120 10/03 A3016 RMK CU2SC4AC2 SLP220

CYHM;2009-11-02 18:00;CYHM 021800Z 23010KT 15SM FEW032 FEW045 SCT160 BKN220 10/03 A3013 RMK CU1SC2AC2CI2 SLP210

CYHM;2009-11-02 19:00;CYHM 021900Z 17012KT 15SM FEW030 SCT110 BKN240 11/04 A3010 RMK SC2AC2CI2 SLP201

CYHM;2009-11-02 20:00;CYHM 022000Z 20012KT 15SM FEW100 SCT150 BKN240 10/03 A3008 RMK AC1AC2CS3 SUN DMLY VSBL SLP194

CYHM;2009-11-02 20:50;CYHM 022050Z 20011KT 15SM -SHRA BKN062 OVC110 RMK ST6AC1

CYHM;2009-11-02 21:00;CYHM 022100Z 20011KT 15SM -SHRA BKN062 OVC110 09/03 A3008 RMK ST6AC1 SLP194

CYHM;2009-11-02 22:00;CYHM 022200Z 21008KT 15SM -SHRA BKN072 OVC100 08/05 A3009 RMK AC6AC2 SLP195

CYHM;2009-11-02 23:00;CYHM 022300Z 21004KT 15SM -SHRA BKN044 OVC054 07/06 A3008 RMK SC6SC2 SLP193

CYHM;2009-11-02 23:38;CYHM 022338Z 19005KT 15SM FEW040 OVC055 RMK SC2SC6

CYHM;2009-11-03 00:00;CYHM 030000Z 19006KT 15SM FEW042 OVC052 07/05 A3006 RMK SC2SC6 SLP185

CYHM;2009-11-03 01:00;CYHM 030100Z 20007KT 15SM OVC038 07/05 A3006 RMK SC8 SLP185

CYHM;2009-11-03 02:00;CYHM 030200Z 20006KT 15SM OVC046 07/05 A3004 RMK SC8 SLP180

CYHM;2009-11-03 03:00;CYHM 030300Z 20006KT 15SM OVC040 07/06 A3003 RMK SC8 SLP173

CYHM;2009-11-03 04:00;CYHM 030400Z 24005KT 15SM OVC035 07/06 A3002 RMK SC8 SLP170

CYHM;2009-11-03 05:00;CYHM 030500Z 23002KT 15SM OVC030 07/06 A3001 RMK SC8 SLP166

CYHM;2009-11-03 06:00;CYHM 030600Z 24003KT 12SM BKN018 OVC028 07/06 A3000 RMK SC5SC3 SLP163

CYHM;2009-11-03 07:00;CYHM 030700Z 25004KT 8SM BKN012 OVC032 08/06 A3000 RMK SF6SC2 SLP162

CYHM;2009-11-03 08:00;CYHM 030800Z 28004KT 5SM BR BKN013 OVC044 08/07 A3000 RMK SF7SC1 SLP164

CYHM;2009-11-03 09:00;CYHM 030900Z 30011KT 15SM FEW012 OVC038 06/03 A3002 RMK SF1SC7 SLP171

CYHM;2009-11-03 10:00;CYHM 031000Z 30006KT 15SM FEW048 FEW058 05/02 A3004 RMK CF1SC2 SLP179

CYHM;2009-11-03 11:00;CYHM 031100Z 31007KT 15SM FEW045 04/02 A3006 RMK SC1 SLP184

CYHM;2009-11-03 12:00;CYHM 031200Z CCA 29006KT 15SM FEW045 03/01 A3007 RMK SC1 SLP191

CYHM;2009-11-03 13:00;CYHM 031300Z 27006KT 15SM FEW025 FEW220 04/02 A3010 RMK CU1CI1 SLP198

CYHM;2009-11-03 14:00;CYHM 031400Z CCA 28008KT 15SM FEW060 FEW100 06/03 A3011 RMK SC1AC1 AC TR SLP203

CYHM;2009-11-03 15:00;CYHM 031500Z 28006KT 15SM FEW025 BKN049 BKN080 07/02 A3012 RMK CU2SC4AC2 SLP206

CYHM;2009-11-03 15:55;CYHM 031555Z 27012KT 15SM -SHRA FEW022 BKN037 BKN048 RMK CU2SC4SC2

CYHM;2009-11-03 16:00;CYHM 031600Z 27008KT 15SM -SHRA FEW025 BKN033 OVC042 06/02 A3013 RMK CU2SC3SC2 SLP210

CYHM;2009-11-03 17:00;CYHM 031700Z 28010KT 15SM -SHRA FEW020 BKN034 BKN048 05/03 A3014 RMK CU2SC4SC2 SLP212

CYHM;2009-11-03 17:40;CYHM 031740Z 31005KT 15SM FEW030 SCT045 SCT090 RMK CU1SC2AC1 RERA

CYHM;2009-11-03 18:00;CYHM 031800Z 30010KT 15SM FEW030 BKN045 BKN062 BKN100 07/02 A3013 RMK CU1SC4SC2AC1 SLP211

CYHM;2009-11-03 19:00;CYHM 031900Z 26010KT 15SM FEW036 BKN074 BKN100 07/01 A3014 RMK SC2AC3AC1 SF ASOCTD SLP213

CYHM;2009-11-03 20:00;CYHM 032000Z 29014KT 15SM FEW062 BKN074 06/M00 A3015 RMK SC2AC5 SLP217

CYHM;2009-11-03 21:00;CYHM 032100Z 29012KT 15SM FEW034 BKN070 05/M00 A3018 RMK SC2AC5 SLP226

CYHM;2009-11-03 22:00;CYHM 032200Z 29006KT 15SM FEW042 BKN074 04/00 A3020 RMK SC1AC4 SLP233

CYHM;2009-11-03 23:00;CYHM 032300Z 28006KT 15SM SCT068 04/01 A3022 RMK AC4 SLP239

CYHM;2009-11-04 00:00;CYHM 040000Z 30003KT 15SM FEW065 SCT100 02/M00 A3023 RMK SC2AC1 SLP247

CYHM;2009-11-04 01:00;CYHM 040100Z 28005KT 15SM SCT056 02/00 A3025 RMK SC3 SLP252

CYHM;2009-11-04 02:00;CYHM 040200Z 25004KT 15SM FEW064 SCT220 01/M01 A3026 RMK SC2CI1 SLP255

CYHM;2009-11-04 03:00;CYHM 040300Z 24005KT 15SM BKN064 01/M00 A3027 RMK SC6 SLP260

CYHM;2009-11-04 04:00;CYHM 040400Z 24004KT 15SM BKN064 00/M01 A3028 RMK SC6 SLP263

CYHM;2009-11-04 05:00;CYHM 040500Z 25004KT 15SM BKN063 01/00 A3029 RMK SC7 SLP265

CYHM;2009-11-04 06:00;CYHM 040600Z 24005KT 15SM BKN057 02/01 A3030 RMK SC7 SLP267

CYHM;2009-11-04 07:00;CYHM 040700Z 24005KT 15SM BKN056 02/01 A3030 RMK SC7 SLP269

CYHM;2009-11-04 08:00;CYHM 040800Z 28003KT 15SM BKN052 02/01 A3030 RMK SC7 SLP268

CYHM;2009-11-04 09:00;CYHM 040900Z 29002KT 15SM BKN052 02/01 A3030 RMK SC7 SLP267

CYHM;2009-11-04 10:00;CYHM 041000Z 00000KT 15SM FEW048 BKN190 BKN250 01/01 A3027 RMK SC1AS1CS1 SC TR SLP260

CYHM;2009-11-04 11:00;CYHM 041100Z 00000KT 15SM SCT150 BKN250 01/01 A3027 RMK AS2CS2 SLP260

CYHM;2009-11-04 12:00;CYHM 041200Z 00000KT 15SM FEW025 BKN150 BKN220 00/00 A3027 RMK CU1AC4CI1 SLP261

CYHM;2009-11-04 13:00;CYHM 041300Z 00000KT 15SM FEW025 BKN110 OVC160 01/01 A3029 RMK CU1AC6AC2 TRTCU SE SLP267

CYHM;2009-11-04 14:00;CYHM 041400Z 00000KT 15SM FEW025 FEW035 BKN110 OVC150 03/01 A3030 RMK CU1SC2AC4AC2 SLP271

CYHM;2009-11-04 15:00;CYHM 041500Z 12002KT 15SM FEW025 FEW045 BKN120 BKN220 04/01 A3030 RMK CU1SC2AC2CI1 TR TCU SE SLP270

CYHM;2009-11-04 16:00;CYHM 041600Z 13004KT 15SM FEW025 BKN049 BKN120 OVC220 05/00 A3030 RMK CU1SC5AC1CI1 SLP270

CYHM;2009-11-04 17:00;CYHM 041700Z 13002KT 15SM FEW030 SCT038 BKN054 BKN120 OVC220 05/M01 A3027 RMK CU1SC2SC3AC1CI1 SLP261

CYHM;2009-11-04 18:00;CYHM 041800Z CCA 19002KT 15SM FEW025 BKN032 OVC049 05/M00 A3024 RMK SC2SC4SC2 CU ASOCTD SLP250

CYHM;2009-11-04 18:08;CYHM 041808Z 00000KT 10SM -SHRA SCT030 OVC046 RMK SC3SC5

CYHM;2009-11-04 19:00;CYHM 041900Z 00000KT 8SM -SHRA SCT028 OVC042 04/M01 A3022 RMK SC3SC5 CU ASOCTD SLP243

CYHM;2009-11-04 20:00;CYHM 042000Z 00000KT 8SM -SHRA OVC026 05/M00 A3021 RMK SC8 SF ASOCTD SLP238

CYHM;2009-11-04 21:00;CYHM 042100Z 07004KT 5SM -SHRA BR FEW018 OVC028 03/02 A3020 RMK SF2SC6 SLP237

CYHM;2009-11-04 22:00;CYHM 042200Z 09002KT 6SM -SHRA BR FEW005 BKN028 OVC040 03/02 A3020 RMK SF2SC5SC2 SLP237

CYHM;2009-11-04 23:00;CYHM 042300Z 10004KT 10SM -SHRA SCT004 OVC022 03/03 A3021 RMK SF3SC5 SLP238

CYHM;2009-11-05 00:00;CYHM 050000Z 08003KT 7SM -SHRA FEW010 OVC018 03/03 A3020 RMK CF2SC6 SLP237

CYHM;2009-11-05 01:00;CYHM 050100Z 11005KT 6SM -SHRA FEW006 BKN018 OVC041 03/03 A3020 RMK CF2SC5SC2 SLP234

CYHM;2009-11-05 02:00;CYHM 050200Z 10002KT 5SM -SHRA BR FEW003 OVC023 03/03 A3020 RMK CF2SC6 SLP234

CYHM;2009-11-05 03:00;CYHM 050300Z 00000KT 12SM OVC031 03/03 A3019 RMK SC8 SLP230

CYHM;2009-11-05 04:00;CYHM 050400Z 17003KT 10SM -SHRA SCT015 OVC032 03/02 A3018 RMK CF3SC5 SLP227

CYHM;2009-11-05 05:00;CYHM 050500Z 17003KT 10SM -SHRA FEW016 OVC035 03/03 A3016 RMK CF2SC6 SLP222

CYHM;2009-11-05 06:00;CYHM 050600Z 17006KT 15SM FEW025 BKN035 02/02 A3016 RMK CF2SC3 SLP220

CYHM;2009-11-05 06:26;CYHM 050626Z 27006KT 7SM MIFG BKN002 RMK SF7

CYHM;2009-11-05 06:35;CYHM 050635Z 28005KT 1 1/2SM BR OVC004 RMK FG2SF6 VIS VRB 1 - 2

CYHM;2009-11-05 06:50;CYHM 050650Z 24002KT 3SM BR BKN007 RMK SF7 VIS VRB 2 - 4

CYHM;2009-11-05 07:00;CYHM 050700Z 24003KT 5SM BR BKN009 BKN120 02/02 A3015 RMK SC6AC1 SLP217

CYHM;2009-11-05 08:00;CYHM 050800Z 26008KT 5SM BR BKN006 03/03 A3013 RMK SF7 SLP211

CYHM;2009-11-05 09:00;CYHM 050900Z 25005KT 5SM BR FEW006 OVC072 02/02 A3011 RMK SF2AC6 SLP206

CYHM;2009-11-05 10:00;CYHM 051000Z 25006KT 4SM BR BKN050 02/02 A3011 RMK SC7 SLP204

CYHM;2009-11-05 10:12;CYHM 051012Z 25007KT 7SM -SHRA BKN025 RMK SC7

CYHM;2009-11-05 11:00;CYHM 051100Z 22003KT 10SM -SHRA BKN045 02/02 A3009 RMK SC7 SLP198

CYHM;2009-11-05 11:32;CYHM 051132Z 21003KT 10SM BKN044 BKN062 BKN078 RMK SC5SC2AC1

CYHM;2009-11-05 11:46;CYHM 051146Z 21002KT 10SM -SHRA BKN022 OVC042 RMK SC6SC2

CYHM;2009-11-05 12:00;CYHM 051200Z 21004KT 3SM -SHRA BR BKN020 OVC045 02/02 A3008 RMK SC6SC2 SLP194

CYHM;2009-11-05 13:00;CYHM 051300Z 22005KT 4SM -SHRA BR BKN032 OVC044 03/03 A3007 RMK SC6SC2 SLP191

CYHM;2009-11-05 13:29;CYHM 051329Z 23010KT 5SM BR SCT038 BKN058 BKN120 RMK SC3SC2AC2

CYHM;2009-11-05 14:00;CYHM 051400Z 26014KT 6SM -SHRA BR BKN010 BKN038 OVC054 04/04 A3005 RMK SF5SC2SC1 SLP186

CYHM;2009-11-05 14:09;CYHM 051409Z 26012KT 6SM -SHRA BR FEW011 BKN021 BKN032 RMK SF2SC3SC2

CYHM;2009-11-05 14:42;CYHM 051442Z 26013KT 6SM BR SCT010 BKN016 BKN030 RMK SF3SC3SC1

CYHM;2009-11-05 15:00;CYHM 051500Z 27012KT 6SM BR FEW011 BKN017 BKN027 05/04 A3005 RMK SF2SC3SC2 SLP184

CYHM;2009-11-05 15:35;CYHM 051535Z 30014KT 8SM -SHRA FEW015 SCT022 BKN040 RMK CU1SC2SC4

CYHM;2009-11-05 16:00;CYHM 051600Z 28015KT 15SM -SHRA FEW017 BKN022 OVC037 04/03 A3006 RMK CU1SC5SC3 SLP187

CYHM;2009-11-05 16:42;CYHM 051642Z 27012KT 15SM FEW014 SCT040 BKN079 RMK CF2SC2AC3

CYHM;2009-11-05 17:00;CYHM 051700Z 28010KT 15SM FEW022 SCT058 BKN090 06/03 A3005 RMK CU2SC2AC3 SLP183

CYHM;2009-11-05 17:36;CYHM 051736Z 31010KT 15SM VCSH FEW030 SCT045 BKN070 RMK CU2SC2AC2

CYHM;2009-11-05 17:48;CYHM 051748Z 31016G22KT 15SM FEW035 SCT060 BKN100 RMK CU2SC2AC2 TCU ASOCITD

CYHM;2009-11-05 18:00;CYHM 051800Z 28018G23KT 15SM SCT030 BKN040 BKN095 06/01 A3006 RMK CU3SC2AC2 TR TCU SE SLP186

CYHM;2009-11-05 18:12;CYHM 051812Z 29016G22KT 10SM -SHRA FEW012 BKN025 BKN080 RMK CU2SC4AC1

CYHM;2009-11-05 18:33;CYHM 051833Z 28014KT 15SM FEW020 SCT035 BKN073 RMK CU2SC2AC2

CYHM;2009-11-05 19:00;CYHM 051900Z 30012G19KT 15SM SCT030 SCT040 BKN070 05/01 A3006 RMK CU3SC1AC2 TCU E-NE SLP186

CYHM;2009-11-05 20:00;CYHM 052000Z 27010KT 15SM FEW032 FEW078 05/M01 A3008 RMK CU1AC1 SLP194

CYHM;2009-11-05 21:00;CYHM 052100Z 29014KT 250V350 15SM FEW032 FEW074 04/M01 A3010 RMK CU1AC1 SLP200

CYHM;2009-11-05 22:00;CYHM 052200Z 30015KT 270V340 15SM FEW034 BKN048 BKN074 04/M01 A3012 RMK CU1SC5AC1 SLP207

CYHM;2009-11-05 23:00;CYHM 052300Z 28010KT 15SM FEW028 BKN050 03/M01 A3015 RMK CU1SC6 SLP216

CYHM;2009-11-05 23:33;CYHM 052333Z CCA 31011KT 270V340 9SM -SHRA BKN018 OVC045 RMK SC6SC2

CYHM;2009-11-06 00:00;CYHM 060000Z 28007KT 15SM FEW016 FEW048 02/01 A3017 RMK SC1SC1 SLP224

CYHM;2009-11-06 01:00;CYHM 060100Z 28008KT 15SM FEW050 01/00 A3018 RMK SC1 SLP229

CYHM;2009-11-06 02:00;CYHM 060200Z 29007KT 15SM FEW041 01/M01 A3021 RMK SC2 SLP239

CYHM;2009-11-06 03:00;CYHM 060300Z 29007KT 15SM FEW040 M00/M01 A3021 RMK SC1 SLP240

CYHM;2009-11-06 04:00;CYHM 060400Z 28007KT 15SM FEW052 M00/M02 A3022 RMK SC1 SLP241

CYHM;2009-11-06 05:00;CYHM 060500Z 29006KT 15SM BKN047 00/M02 A3024 RMK SC7 SLP250

CYHM;2009-11-06 06:00;CYHM 060600Z 29006KT 15SM BKN054 M00/M03 A3026 RMK SC6 SLP254

CYHM;2009-11-06 07:00;CYHM 060700Z 31006KT 15SM BKN047 00/M03 A3027 RMK SC7 SLP260

CYHM;2009-11-06 08:00;CYHM 060800Z 30006KT 15SM BKN045 M01/M04 A3028 RMK SC7 SLP263

CYHM;2009-11-06 09:00;CYHM 060900Z 32004KT 15SM BKN041 M01/M04 A3029 RMK SC7 SLP267

CYHM;2009-11-06 10:00;CYHM 061000Z 29002KT 15SM BKN042 M01/M04 A3032 RMK SC5 SLP276

CYHM;2009-11-06 11:00;CYHM 061100Z 30004KT 15SM BKN036 M01/M03 A3034 RMK SC7 SLP282

CYHM;2009-11-06 12:00;CYHM 061200Z 03005KT 15SM FEW030 SCT038 M01/M03 A3035 RMK CU1SC3 SLP289

CYHM;2009-11-06 13:00;CYHM 061300Z 00000KT 15SM FEW030 FEW040 SCT240 M01/M03 A3036 RMK CU1SC1CI2 CU TR SLP291

CYHM;2009-11-06 14:00;CYHM 061400Z 00000KT 15SM FEW030 FEW045 FEW220 02/M03 A3038 RMK CU1SC1CI1 CU TR SLP297

CYHM;2009-11-06 15:00;CYHM 061500Z 00000KT 15SM SCT028 SCT045 03/M03 A3037 RMK CU3SC1 SLP293

CYHM;2009-11-06 16:00;CYHM 061600Z 00000KT 15SM FEW025 SCT045 03/M03 A3037 RMK CU2SC2 SLP295

CYHM;2009-11-06 17:00;CYHM 061700Z 26005KT 15SM FEW032 SCT045 04/M04 A3035 RMK CU2SC1 SLP288

CYHM;2009-11-06 18:00;CYHM 061800Z 24002KT 15SM FEW035 SCT045 BKN220 04/M04 A3033 RMK CU2SC1CI1 CONTRAIL SLP280

CYHM;2009-11-06 19:00;CYHM 061900Z 25004KT 15SM FEW032 SCT240 05/M03 A3030 RMK CU2CI1 CONTRAIL SLP269

CYHM;2009-11-06 20:00;CYHM 062000Z 16007KT 15SM FEW039 SCT210 05/M03 A3027 RMK CU2CI1 CONTRAILS SLP262

CYHM;2009-11-06 21:00;CYHM 062100Z 19011KT 15SM FEW040 FEW140 BKN240 05/M02 A3027 RMK SC2AC1CI2 SLP259

CYHM;2009-11-06 22:00;CYHM 062200Z 19007KT 15SM FEW070 SCT250 03/M03 A3026 RMK AC2CI2 CONTRAILS SLP255

CYHM;2009-11-06 23:00;CYHM 062300Z 19006KT 15SM FEW250 02/M03 A3024 RMK CI2 SLP249

CYHM;2009-11-07 00:00;CYHM 070000Z 20006KT 15SM FEW210 M00/M03 A3023 RMK CI1 SLP247

CYHM;2009-11-07 01:00;CYHM 070100Z 17005KT 15SM SCT210 01/M03 A3020 RMK CI3 SLP239

CYHM;2009-11-07 02:00;CYHM 070200Z 16004KT 15SM FEW210 00/M03 A3019 RMK CI1 SLP234

CYHM;2009-11-07 03:00;CYHM 070300Z 15006KT 15SM FEW210 M00/M03 A3017 RMK CI1 SLP225

CYHM;2009-11-07 04:00;CYHM 070400Z 12005KT 15SM BKN090 01/M02 A3014 RMK AC7 SLP216

CYHM;2009-11-07 05:00;CYHM 070500Z 00000KT 15SM OVC086 02/M00 A3014 RMK AC8 SLP216

CYHM;2009-11-07 06:00;CYHM 070600Z 18006KT 15SM FEW057 OVC089 04/01 A3013 RMK SC2AC6 SLP209

CYHM;2009-11-07 07:00;CYHM 070700Z 19006KT 15SM FEW056 OVC092 05/01 A3011 RMK SC1AC7 SLP204

CYHM;2009-11-07 08:00;CYHM 070800Z 18011KT 15SM BKN092 BKN230 06/02 A3008 RMK AC6CI1 SLP194

CYHM;2009-11-07 09:00;CYHM 070900Z 19011KT 15SM BKN086 07/02 A3006 RMK AC5 SLP187

CYHM;2009-11-07 10:00;CYHM 071000Z 20011KT 15SM BKN065 07/02 A3004 RMK SC7 SLP180

CYHM;2009-11-07 11:00;CYHM 071100Z 18010KT 15SM FEW050 FEW080 SCT250 07/02 A3001 RMK SC2AC1CI1 SLP170

CYHM;2009-11-07 12:00;CYHM 071200Z 19010KT 15SM FEW050 BKN230 07/02 A2998 RMK SC1CI3 SLP161

CYHM;2009-11-07 13:00;CYHM 071300Z 19011KT 15SM FEW050 BKN250 08/02 A2997 RMK SC1CI3 SLP156

CYHM;2009-11-07 14:00;CYHM 071400Z 20015KT 15SM SCT250 10/03 A2994 RMK CI2 SLP148

CYHM;2009-11-07 15:00;CYHM 071500Z 20014G20KT 15SM BKN250 12/02 A2992 RMK CI2 SLP137

CYHM;2009-11-07 16:00;CYHM 071600Z 20017KT 15SM BKN250 13/03 A2991 RMK CI4 SLP133

CYHM;2009-11-07 17:00;CYHM 071700Z 20015KT 15SM SCT250 14/04 A2986 RMK CI2 SLP117

CYHM;2009-11-07 18:00;CYHM 071800Z 22019KT 15SM SCT250 15/05 A2982 RMK CI2 SLP103

CYHM;2009-11-07 19:00;CYHM 071900Z 22020G25KT 15SM FEW250 15/06 A2980 RMK CI1 SLP095

CYHM;2009-11-07 20:00;CYHM 072000Z 23019G24KT 15SM SKC 15/06 A2979 RMK SLP092

CYHM;2009-11-07 21:00;CYHM 072100Z 23019KT 15SM SKC 15/06 A2980 RMK SLP093

CYHM;2009-11-07 22:00;CYHM 072200Z 22015KT 15SM SKC 14/06 A2981 RMK SLP099

CYHM;2009-11-07 23:00;CYHM 072300Z 23013KT 15SM FEW060 FEW250 13/06 A2985 RMK SC1CI1 SC TR CI TR SLP112

CYHM;2009-11-08 00:00;CYHM 080000Z 23012KT 15SM SKC 12/07 A2988 RMK SLP123

CYHM;2009-11-08 01:00;CYHM 080100Z 23012KT 15SM SKC 12/08 A2989 RMK SLP127

CYHM;2009-11-08 02:00;CYHM 080200Z 24012KT 15SM SKC 13/09 A2991 RMK SLP134

CYHM;2009-11-08 03:00;CYHM 080300Z 24012KT 15SM FEW250 13/09 A2994 RMK CI0 SLP140

CYHM;2009-11-08 04:00;CYHM 080400Z 24010KT 10SM FEW250 12/09 A2995 RMK CI2 SLP146

CYHM;2009-11-08 05:00;CYHM 080500Z 26009KT 12SM FEW250 11/09 A2998 RMK CI1 SLP154

CYHM;2009-11-08 06:00;CYHM 080600Z 27006KT 10SM SKC 10/09 A3001 RMK SLP164

CYHM;2009-11-08 08:00;CYHM 080800Z 00000KT 7SM MIFG SKC 06/06 A3007 RMK SLP184

CYHM;2009-11-08 09:00;CYHM 080900Z 00000KT 8SM MIFG SKC 06/06 A3009 RMK SLP193

CYHM;2009-11-08 09:37;CYHM 080937Z 00000KT 1/2SM FG SKC RMK FG3

CYHM;2009-11-08 10:00;CYHM 081000Z 20003KT 3/4SM BR SKC 05/05 A3013 RMK FG2 VIS VRB 1/2 - 1 SLP208

CYHM;2009-11-08 10:35;CYHM 081035Z 00000KT 1/8SM FG SKC RMK FG4

CYHM;2009-11-08 10:44;CYHM 081044Z 22002KT 3/4SM BR SKC RMK FG2 VIS VRB 1/2 - 1

CYHM;2009-11-08 11:00;CYHM 081100Z 23003KT 3/4SM BR SKC 05/05 A3016 RMK FG2 VIS VRB 1/2 - 1 SLP216

CYHM;2009-11-08 11:06;CYHM 081106Z 23004KT 3/8SM FG SKC RMK FG3

CYHM;2009-11-08 12:00;CYHM 081200Z 25005KT 0SM FG BKN250 04/04 A3019 RMK FG3CI0 SLP230

CYHM;2009-11-08 13:00;CYHM 081300Z 28004KT 1/4SM FG SKC 06/06 A3023 RMK FG1 SLP241

CYHM;2009-11-08 13:16;CYHM 081316Z 28004KT 1 1/2SM BR SKC RMK FG1

CYHM;2009-11-08 13:44;CYHM 081344Z 30002KT 8SM FEW250 RMK CI1

CYHM;2009-11-08 14:00;CYHM 081400Z 00000KT 9SM FEW250 10/10 A3024 RMK CI1 SLP245

CYHM;2009-11-08 15:00;CYHM 081500Z 00000KT 15SM FEW250 14/09 A3025 RMK CI0 SLP247

CYHM;2009-11-08 16:00;CYHM 081600Z 24005KT 15SM FEW250 16/06 A3026 RMK CI0 SLP248

CYHM;2009-11-08 17:00;CYHM 081700Z 14005KT 15SM FEW250 17/06 A3024 RMK CI0 SLP243

CYHM;2009-11-08 18:00;CYHM 081800Z 15005KT 120V210 15SM FEW250 18/10 A3023 RMK CI0 SLP238

CYHM;2009-11-08 19:00;CYHM 081900Z 15004KT 120V230 15SM FEW250 18/10 A3023 RMK CI0 SLP238

CYHM;2009-11-08 20:00;CYHM 082000Z 15006KT 12SM FEW220 18/10 A3021 RMK CI1 CI TR CONTRAIL SLP233

CYHM;2009-11-08 21:00;CYHM 082100Z 06007KT 12SM FEW170 FEW240 15/09 A3021 RMK AC1CI1 AC TR CI TR CONTRAIL SLP234

CYHM;2009-11-08 22:00;CYHM 082200Z 06007KT 11SM FEW045 FEW120 FEW220 11/08 A3023 RMK CU1AC1CI1 CU TR CI TR SLP240

CYHM;2009-11-08 23:00;CYHM 082300Z 05007KT 10SM FEW120 FEW220 10/08 A3025 RMK AC1CI1 CI TR SLP247

CYHM;2009-11-09 00:00;CYHM 090000Z 06008KT 10SM FEW120 FEW220 09/07 A3024 RMK AC1CI1 AC TR CI TR SLP246

CYHM;2009-11-09 01:00;CYHM 090100Z 04007KT 10SM FEW200 08/06 A3024 RMK CI1 SLP248

CYHM;2009-11-09 02:00;CYHM 090200Z 04005KT 10SM FEW170 BKN200 08/07 A3024 RMK AC2CI4 SLP247

CYHM;2009-11-09 03:00;CYHM 090300Z 05005KT 12SM FEW210 08/07 A3023 RMK CI2 SLP240

CYHM;2009-11-09 04:00;CYHM 090400Z 05006KT 15SM FEW250 07/06 A3022 RMK CI1 SLP236

CYHM;2009-11-09 05:00;CYHM 090500Z 11005KT 15SM SKC 06/06 A3020 RMK SLP231

CYHM;2009-11-09 06:00;CYHM 090600Z 17007KT 15SM SKC 08/07 A3019 RMK SLP227

CYHM;2009-11-09 07:00;CYHM 090700Z 21006KT 10SM SKC 07/07 A3019 RMK SLP225

CYHM;2009-11-09 08:00;CYHM 090800Z 20007KT 10SM FEW220 09/08 A3018 RMK CI1 SLP224

CYHM;2009-11-09 09:00;CYHM 090900Z 20008KT 12SM SKC 09/08 A3019 RMK SLP225

CYHM;2009-11-09 10:00;CYHM 091000Z 20008KT 15SM FEW220 10/08 A3018 RMK CI1 SLP224

CYHM;2009-11-09 11:00;CYHM 091100Z 20009KT 15SM FEW170 BKN240 10/08 A3018 RMK AC1CI3 SLP224

CYHM;2009-11-09 12:00;CYHM 091200Z 21010KT 15SM FEW170 BKN220 10/08 A3018 RMK AC1CI2 CONTRAIL SLP226

CYHM;2009-11-09 13:00;CYHM 091300Z 21008KT 15SM FEW160 BKN230 11/09 A3020 RMK AC2CI4 SLP230

CYHM;2009-11-09 14:00;CYHM 091400Z 21010KT 15SM FEW180 BKN230 13/10 A3020 RMK AC1CI2 SLP232

CYHM;2009-11-09 15:00;CYHM 091500Z CCA 25010KT 15SM FEW150 BKN230 15/11 A3019 RMK AC2CS4 HALO CONTRAIL SLP228

CYHM;2009-11-09 16:00;CYHM 091600Z 24015KT 15SM BKN220 16/10 A3017 RMK CI6 SLP222

CYHM;2009-11-09 17:00;CYHM 091700Z 22014G20KT 15SM FEW180 BKN210 17/11 A3017 RMK AC1CI6 SLP219

CYHM;2009-11-09 18:00;CYHM 091800Z 22016KT 15SM BKN220 18/11 A3015 RMK CI6 SLP211

CYHM;2009-11-09 19:00;CYHM 091900Z 24013KT 15SM OVC250 18/12 A3016 RMK CS6 SUN DMLY VSBL SLP215

CYHM;2009-11-09 20:00;CYHM 092000Z 23010KT 15SM OVC240 17/12 A3017 RMK CS7 SUN DMLY VSBL SLP217

CYHM;2009-11-09 21:00;CYHM 092100Z 23009KT 15SM OVC220 16/12 A3019 RMK CS7 SUN DMLY VSBL SLP226

CYHM;2009-11-09 22:00;CYHM 092200Z 22006KT 12SM BKN028 OVC220 14/12 A3023 RMK SC5CS3 SLP238

CYHM;2009-11-09 23:00;CYHM 092300Z 24005KT 15SM BKN028 OVC200 14/11 A3024 RMK SC6CS2 SLP244

CYHM;2009-11-10 00:00;CYHM 100000Z 25005KT 15SM BKN032 OVC160 13/11 A3027 RMK SC6AC2 SLP253

CYHM;2009-11-10 02:00;CYHM 100200Z 29008KT 12SM BKN160 OVC220 13/10 A3030 RMK AC6CS2 SLP262

CYHM;2009-11-10 03:00;CYHM 100300Z 29007KT 15SM OVC180 11/07 A3029 RMK AC7 SLP261

CYHM;2009-11-10 04:00;CYHM 100400Z 34009KT 15SM OVC150 10/06 A3031 RMK AC8 SLP268

CYHM;2009-11-10 05:00;CYHM 100500Z 31005KT 15SM OVC140 10/06 A3033 RMK AC6 SLP274

CYHM;2009-11-10 06:00;CYHM 100600Z 31003KT 15SM BKN130 09/06 A3033 RMK AC6 SLP275

CYHM;2009-11-10 07:00;CYHM 100700Z 35003KT 15SM BKN120 09/06 A3034 RMK AC6 SLP278

CYHM;2009-11-10 08:00;CYHM 100800Z 32002KT 15SM FEW120 BKN170 09/05 A3036 RMK AC1AS4 SLP283

CYHM;2009-11-10 09:00;CYHM 100900Z 01006KT 15SM FEW120 BKN220 07/05 A3036 RMK AC2CS1 SLP283

CYHM;2009-11-10 10:00;CYHM 101000Z 35004KT 15SM FEW170 BKN220 07/05 A3037 RMK AC2CS1 SLP287

CYHM;2009-11-10 11:00;CYHM 101100Z 36002KT 15SM FEW160 SCT190 BKN240 07/05 A3038 RMK AC1AS1CS1 SLP291

CYHM;2009-11-10 12:00;CYHM 101200Z 35005KT 15SM FEW150 FEW180 BKN220 06/04 A3040 RMK AC1AC2CI2 SLP300

CYHM;2009-11-10 13:00;CYHM 101300Z 01006KT 15SM SCT150 SCT180 BKN230 07/04 A3042 RMK AC3AS1CI2 SLP305

CYHM;2009-11-10 14:00;CYHM 101400Z 02005KT 15SM SCT150 BKN170 BKN220 09/05 A3042 RMK AC4AC2CI1 SLP308

CYHM;2009-11-10 15:00;CYHM 101500Z 02007KT 15SM FEW140 BKN170 BKN220 09/05 A3042 RMK AC2AC2CI1 SLP306

CYHM;2009-11-10 16:00;CYHM 101600Z 03005KT 15SM FEW140 SCT180 BKN230 11/05 A3040 RMK AC2AC2CI2 SLP301

CYHM;2009-11-10 17:00;CYHM 101700Z 05006KT 15SM SCT130 BKN160 BKN230 11/04 A3042 RMK AC3AC2CI2 SLP307

CYHM;2009-11-10 18:00;CYHM 101800Z 04005KT 15SM FEW150 FEW180 BKN230 12/03 A3041 RMK AC1AC1CI2 SLP301

CYHM;2009-11-10 19:00;CYHM 101900Z 05005KT 15SM FEW120 FEW160 BKN250 11/01 A3040 RMK AC1AC1CS2 SLP298

CYHM;2009-11-10 20:00;CYHM 102000Z 03003KT 15SM FEW180 BKN220 12/03 A3040 RMK AC2CS2 SLP298

CYHM;2009-11-10 21:00;CYHM 102100Z 04005KT 15SM SCT160 OVC210 11/02 A3040 RMK AC3CC4 SLP299

CYHM;2009-11-10 22:00;CYHM 102200Z 02005KT 15SM SCT150 BKN210 10/M00 A3040 RMK AC2CS1 SLP301

CYHM;2009-11-10 23:00;CYHM 102300Z 02007KT 15SM BKN130 BKN230 09/M00 A3041 RMK AC5CS1 SLP304

CYHM;2009-11-11 00:00;CYHM 110000Z 36008KT 15SM FEW190 SCT240 07/M02 A3043 RMK AC1CI1 SLP310

CYHM;2009-11-11 01:00;CYHM 110100Z 35009KT 15SM FEW160 BKN250 07/M04 A3044 RMK AC1CI1 AC TR SLP314

CYHM;2009-11-11 02:00;CYHM 110200Z 35007KT 15SM SCT250 06/M03 A3046 RMK CI1 SLP319

CYHM;2009-11-11 03:00;CYHM 110300Z 35008KT 15SM FEW250 05/M03 A3046 RMK CI1 SLP323

CYHM;2009-11-11 04:00;CYHM 110400Z 35007KT 15SM FEW250 05/M01 A3046 RMK CI1 CI TR SLP322

CYHM;2009-11-11 05:00;CYHM 110500Z 02008KT 15SM FEW250 05/00 A3047 RMK CI1 CI TR SLP324

CYHM;2009-11-11 06:00;CYHM 110600Z 03007KT 15SM FEW250 05/00 A3047 RMK CI1 CI TR SLP324

CYHM;2009-11-11 07:00;CYHM 110700Z 05007KT 15SM FEW250 03/00 A3047 RMK CI1 CI TR SLP323

CYHM;2009-11-11 08:00;CYHM 110800Z 04007KT 15SM SKC 03/00 A3047 RMK SLP323

CYHM;2009-11-11 09:00;CYHM 110900Z 03006KT 15SM SKC 03/00 A3047 RMK SLP324

CYHM;2009-11-11 10:00;CYHM 111000Z 02004KT 15SM FEW250 02/M00 A3047 RMK CI1 CI TR SLP326

CYHM;2009-11-11 11:00;CYHM 111100Z 03004KT 15SM FEW025 FEW210 03/M00 A3048 RMK CU1CI1 CU TR SLP328

CYHM;2009-11-11 12:00;CYHM 111200Z 03008KT 15SM FEW030 SCT220 02/M00 A3048 RMK CU1CI1 CONTRAIL SLP329

CYHM;2009-11-11 13:00;CYHM 111300Z 03007KT 15SM FEW035 FEW100 FEW240 03/01 A3049 RMK CU1AC1CI1 CU TR SLP332

CYHM;2009-11-11 14:00;CYHM 111400Z 04008KT 15SM FEW018 FEW045 SCT220 04/01 A3049 RMK CU1SC2CI1 CU TR SLP334

CYHM;2009-11-11 15:00;CYHM 111500Z 06012KT 15SM BKN015 05/03 A3049 RMK SC7 CU TRASOCTD SLP334

CYHM;2009-11-11 16:00;CYHM 111600Z 05014KT 15SM OVC015 06/03 A3049 RMK SC8 CU TR S-SE SLP334

CYHM;2009-11-11 17:00;CYHM 111700Z 05013KT 15SM BKN015 06/03 A3048 RMK SC7 CU TR ASOCTD SLP329

CYHM;2009-11-11 18:00;CYHM 111800Z 07012KT 15SM BKN016 06/02 A3046 RMK SC7 SLP324

CYHM;2009-11-11 19:00;CYHM 111900Z 03012KT 15SM FEW014 BKN018 06/02 A3046 RMK CU2SC5 SLP322

CYHM;2009-11-11 20:00;CYHM 112000Z 07014KT 15SM FEW015 SCT018 06/02 A3044 RMK CU1SC3 CU ASOCTD SLP316

CYHM;2009-11-11 21:00;CYHM 112100Z 04010KT 15SM FEW025 FEW220 05/02 A3042 RMK SC1CI1 SC TR SLP311

CYHM;2009-11-11 22:00;CYHM 112200Z 05011KT 15SM FEW100 05/00 A3042 RMK AC1 SLP311

CYHM;2009-11-11 23:00;CYHM 112300Z 05009KT 15SM FEW200 04/01 A3043 RMK CI1 SLP313

CYHM;2009-11-12 00:00;CYHM 120000Z 05009KT 15SM FEW210 04/01 A3043 RMK CI1 SLP314

CYHM;2009-11-12 01:00;CYHM 120100Z 06009KT 15SM FEW200 02/01 A3041 RMK CI1 SLP307

CYHM;2009-11-12 02:00;CYHM 120200Z 08006KT 15SM FEW200 01/01 A3040 RMK CI1 SLP304

CYHM;2009-11-12 03:00;CYHM 120300Z 11006KT 15SM FEW210 01/00 A3039 RMK CI1 SLP299

CYHM;2009-11-12 04:00;CYHM 120400Z 08007KT 15SM FEW220 01/00 A3037 RMK CI1 SLP295

CYHM;2009-11-12 05:00;CYHM 120500Z 07007KT 15SM FEW210 01/00 A3037 RMK CI1 FROIN SLP294

CYHM;2009-11-12 06:00;CYHM 120600Z 07005KT 15SM SKC 00/M00 A3036 RMK FROIN SLP291

CYHM;2009-11-12 07:00;CYHM 120700Z 04007KT 15SM MIFG SKC 01/01 A3036 RMK FROIN SLP290

CYHM;2009-11-12 08:00;CYHM 120800Z 05005KT 15SM MIFG FEW210 01/01 A3036 RMK CI1 FROIN SLP288

CYHM;2009-11-12 09:00;CYHM 120900Z 02008KT 15SM FEW210 01/01 A3035 RMK CI1 FROIN SLP286

CYHM;2009-11-12 10:00;CYHM 121000Z 04008KT 15SM FEW210 01/01 A3033 RMK CI1 FROIN SLP281

CYHM;2009-11-12 11:00;CYHM 121100Z 03007KT 15SM FEW210 01/00 A3032 RMK CI1 FROIN SLP276

CYHM;2009-11-12 12:00;CYHM 121200Z 02006KT 15SM FEW045 FEW220 01/01 A3033 RMK SC1CI1 CI TR FROIN SLP280

CYHM;2009-11-12 13:00;CYHM 121300Z 07006KT 10SM MIFG FEW045 FEW220 01/00 A3033 RMK SC1CI1 SLP278

CYHM;2009-11-12 14:00;CYHM 121400Z 05006KT 15SM FEW005 FEW045 04/04 A3032 RMK SF2SC1 SLP277

CYHM;2009-11-12 15:00;CYHM 121500Z 05008KT 15SM FEW008 FEW015 SCT050 06/05 A3032 RMK SF2CU1SC1 SLP275

CYHM;2009-11-12 16:00;CYHM 121600Z 05008KT 15SM FEW010 FEW030 07/05 A3030 RMK CF2SC1 SLP270

CYHM;2009-11-12 17:00;CYHM 121700Z 06010KT 15SM FEW015 FEW100 08/05 A3027 RMK CU2AC1 SC ASOCTD SLP260

CYHM;2009-11-12 18:00;CYHM 121800Z 03012KT 15SM FEW025 FEW100 08/04 A3025 RMK CU1AC1 CU TR SLP251

CYHM;2009-11-12 19:00;CYHM 121900Z 03012KT 15SM FEW020 FEW120 08/04 A3024 RMK CU1AC1 SLP248

CYHM;2009-11-12 20:00;CYHM 122000Z 06011KT 15SM FEW020 FEW120 08/03 A3022 RMK CU1AC1 CU TR SLP241

CYHM;2009-11-12 21:00;CYHM 122100Z 06012KT 15SM FEW020 FEW120 07/03 A3022 RMK CU1AC1 CU TR SLP240

CYHM;2009-11-12 22:00;CYHM 122200Z 06013KT 15SM FEW100 FEW220 05/01 A3022 RMK AC1CI1 CI TR SLP240

CYHM;2009-11-12 23:00;CYHM 122300Z 05011KT 15SM FEW220 05/01 A3022 RMK CI1 SLP240

CYHM;2009-11-13 00:00;CYHM 130000Z 05011KT 15SM FEW220 04/02 A3020 RMK CI1 SLP236

CYHM;2009-11-13 01:00;CYHM 130100Z 05010KT 15SM FEW220 04/02 A3020 RMK CI1 SLP236

CYHM;2009-11-13 02:00;CYHM 130200Z 07010KT 15SM FEW210 03/02 A3019 RMK CI1 SLP233

CYHM;2009-11-13 03:00;CYHM 130300Z 07010KT 15SM FEW210 03/01 A3019 RMK CI1 SLP232

CYHM;2009-11-13 04:00;CYHM 130400Z 07009KT 15SM FEW210 02/00 A3017 RMK CI1 SLP226

CYHM;2009-11-13 05:00;CYHM 130500Z 06009KT 15SM FEW210 02/00 A3017 RMK CI1 SLP225

CYHM;2009-11-13 06:00;CYHM 130600Z 06007KT 15SM SCT210 02/M00 A3017 RMK CI1 SLP223

CYHM;2009-11-13 07:00;CYHM 130700Z 05009KT 15SM SCT210 02/M00 A3016 RMK CI1 SLP219

CYHM;2009-11-13 08:00;CYHM 130800Z 05009KT 15SM SCT210 03/02 A3014 RMK CI1 SLP213

CYHM;2009-11-13 09:00;CYHM 130900Z CCA 05010KT 15SM SCT210 02/02 A3013 RMK CI1 SLP211

CYHM;2009-11-13 10:00;CYHM 131000Z CCA 04009KT 12SM SCT210 02/02 A3013 RMK CI1 FROIN SLP209

CYHM;2009-11-13 11:00;CYHM 131100Z CCA 04009KT 12SM SCT210 02/02 A3012 RMK CI1 FROIN SLP208

CYHM;2009-11-13 12:00;CYHM 131200Z 04008KT 15SM FEW210 02/02 A3013 RMK CI1 SLP211

CYHM;2009-11-13 13:00;CYHM 131300Z 04010KT 15SM FEW025 BKN220 03/02 A3012 RMK CU1CI3 CU TR SLP209

CYHM;2009-11-13 14:00;CYHM 131400Z 03008KT 15SM BKN220 04/03 A3013 RMK CI4 CONTRAIL SLP211

CYHM;2009-11-13 15:00;CYHM 131500Z 07010KT 15SM BKN220 06/02 A3012 RMK CI4 CONTRAIL SLP207

CYHM;2009-11-13 16:00;CYHM 131600Z 05008KT 15SM BKN220 07/02 A3011 RMK CI3 CONTRAIL SLP204

CYHM;2009-11-13 17:00;CYHM 131700Z 04012KT 15SM FEW170 SCT220 08/01 A3008 RMK AC1CI2 AC TR SLP194

CYHM;2009-11-13 18:00;CYHM 131800Z 06012KT 15SM SCT220 09/01 A3006 RMK CI2 CONTRAIL SLP187

CYHM;2009-11-13 19:00;CYHM 131900Z 05012KT 15SM FEW220 09/02 A3006 RMK CI1 SLP186

CYHM;2009-11-13 20:00;CYHM 132000Z 05012KT 15SM FEW120 SCT240 08/01 A3004 RMK AC1CI1 SLP178

CYHM;2009-11-13 21:00;CYHM 132100Z 05009KT 15SM FEW120 SCT240 08/02 A3002 RMK AC1CI2 CONTRAILS SLP172

CYHM;2009-11-13 22:00;CYHM 132200Z 04010KT 15SM FEW100 BKN240 07/03 A3003 RMK AC2CI2 SLP175

CYHM;2009-11-13 23:00;CYHM 132300Z 05012KT 15SM FEW220 06/05 A3003 RMK CI1 SLP175

CYHM;2009-11-14 00:00;CYHM 140000Z 05009KT 15SM SKC 06/04 A3004 RMK SLP181

CYHM;2009-11-14 01:00;CYHM 140100Z 04008KT 15SM FEW220 06/05 A3004 RMK CI1 SLP180

CYHM;2009-11-14 02:00;CYHM 140200Z 04009KT 15SM FEW220 06/04 A3003 RMK CI1 SLP176

CYHM;2009-11-14 03:00;CYHM 140300Z 04011KT 15SM BKN210 06/04 A3002 RMK CI2 SLP172

CYHM;2009-11-14 04:00;CYHM 140400Z 04009KT 15SM OVC230 06/05 A3001 RMK CS6 SLP169

CYHM;2009-11-14 05:00;CYHM 140500Z 03008KT 15SM BKN230 06/05 A3001 RMK CI5 SLP169

CYHM;2009-11-14 06:00;CYHM 140600Z 05007KT 15SM SCT230 06/05 A3001 RMK CI2 SLP166

CYHM;2009-11-14 07:00;CYHM 140700Z 05009KT 15SM SCT230 05/05 A3001 RMK CI3 SLP167

CYHM;2009-11-14 08:00;CYHM 140800Z 04008KT 15SM BKN250 05/05 A2999 RMK CI5 SLP161

CYHM;2009-11-14 09:00;CYHM 140900Z 02006KT 15SM BKN240 06/05 A2999 RMK CI6 SLP161

CYHM;2009-11-14 10:00;CYHM 141000Z 02004KT 15SM BKN230 05/05 A2999 RMK CI5 SLP162

CYHM;2009-11-14 11:00;CYHM 141100Z 03004KT 15SM BKN250 05/05 A3000 RMK CI6 SLP165

CYHM;2009-11-14 12:00;CYHM 141200Z 04006KT 15SM FEW041 SCT050 BKN250 06/06 A2999 RMK SC2SC2CI3 SLP162

CYHM;2009-11-14 13:00;CYHM 141300Z 05006KT 15SM BKN040 BKN230 07/06 A3000 RMK SC6CI2 SLP164

CYHM;2009-11-14 14:00;CYHM 141400Z 04007KT 15SM FEW040 BKN220 08/08 A2999 RMK SC2CI5 SLP161

CYHM;2009-11-14 15:00;CYHM 141500Z 01006KT 15SM FEW040 BKN250 09/08 A2999 RMK SC1CI6 SLP160

CYHM;2009-11-14 16:00;CYHM 141600Z 06006KT 15SM FEW050 FEW250 11/08 A2997 RMK SC1CI2 SC TR SLP156

CYHM;2009-11-14 17:00;CYHM 141700Z 04006KT 360V080 15SM FEW050 FEW250 13/08 A2995 RMK SC1CI1 SC TR SLP149

CYHM;2009-11-14 18:00;CYHM 141800Z 03005KT 15SM FEW060 FEW250 13/07 A2994 RMK SC1CI1 SC TR SLP142

CYHM;2009-11-14 19:00;CYHM 141900Z 05008KT 15SM FEW060 FEW250 12/06 A2992 RMK SC1CI1 BOTH LYRS TR SLP135

CYHM;2009-11-14 20:00;CYHM 142000Z 06010KT 15SM FEW060 11/07 A2991 RMK SC1 SC TR SLP131

CYHM;2009-11-14 21:00;CYHM 142100Z 05008KT 15SM SKC 10/06 A2991 RMK SLP133

CYHM;2009-11-14 22:00;CYHM 142200Z 04007KT 15SM FEW120 08/07 A2992 RMK AC1 SLP136

CYHM;2009-11-14 23:00;CYHM 142300Z 05006KT 8SM FEW030 07/07 A2992 RMK SC1 SLP136

CYHM;2009-11-14 23:20;CYHM 142320Z 05007KT 2SM BR FEW010 FEW170 RMK FG1CF1AC1

CYHM;2009-11-14 23:34;CYHM 142334Z 05008KT 1/2SM FG BKN003 RMK FG3SF4

CYHM;2009-11-14 23:39;CYHM 142339Z 05007KT 1/4SM FG VV002 RMK FG8

CYHM;2009-11-15 00:00;CYHM 150000Z 06008KT 1/4SM FG VV001 07/07 A2991 RMK FG8 SLP135

CYHM;2009-11-15 00:36;CYHM 150036Z 04006KT 1/8SM FG VV001 RMK FG8

CYHM;2009-11-15 01:00;CYHM 150100Z 03004KT 1/8SM FG VV001 07/07 A2992 RMK FG8 SLP138

CYHM;2009-11-15 02:00;CYHM 150200Z 05004KT 0SM FG VV001 07/07 A2991 RMK FG8 SLP136

CYHM;2009-11-15 03:00;CYHM 150300Z 00000KT 0SM FG VV000 06/06 A2991 RMK FG8 SLP134

CYHM;2009-11-15 03:25;CYHM 150325Z 00000KT 1/2SM FG SKC RMK FG3

CYHM;2009-11-15 03:32;CYHM 150332Z 00000KT 1/4SM FG SKC RMK FG4

CYHM;2009-11-15 04:00;CYHM 150400Z 07002KT 1/2SM FG SKC 05/05 A2991 RMK FG3 SLP132

CYHM;2009-11-15 05:00;CYHM 150500Z 00000KT 3/4SM BR SKC 04/04 A2991 RMK FG2 VIS VRB 1/2 - 1 SLP132

CYHM;2009-11-15 05:11;CYHM 150511Z 00000KT 1/8SM FG SKC RMK FG4

CYHM;2009-11-15 06:00;CYHM 150600Z 00000KT 3/4SM BR SKC 04/04 A2990 RMK FG2 VIS VRB 1/2 - 1 SLP129

CYHM;2009-11-15 06:49;CYHM 150649Z 00000KT 6SM BR SKC

CYHM;2009-11-15 07:00;CYHM 150700Z 00000KT 3SM BR FEW210 04/04 A2989 RMK CI1 VIS SE 1 MI SLP127

CYHM;2009-11-15 07:14;CYHM 150714Z 07004KT 3/4SM BR SKC RMK FG2 VIS VRB 1/2 - 1 VIS HIER NE

CYHM;2009-11-15 08:00;CYHM 150800Z 00000KT 3/4SM BR SKC 03/03 A2989 RMK FG2 VIS VRB 1/2 - 1 SLP126

CYHM;2009-11-15 08:12;CYHM 150812Z 00000KT 1/2SM FG SKC RMK FG3

CYHM;2009-11-15 09:00;CYHM 150900Z 00000KT 3/4SM BR SCT042 03/03 A2990 RMK FG2SC1 VIS VRB 1/2 - 1 SLP130

CYHM;2009-11-15 09:37;CYHM 150937Z 00000KT 10SM OVC043 RMK SC8

CYHM;2009-11-15 10:00;CYHM 151000Z 00000KT 10SM BKN044 04/04 A2990 RMK SC7 SLP131

CYHM;2009-11-15 11:00;CYHM 151100Z 23003KT 10SM BKN044 04/04 A2989 RMK SC7 SLP129

CYHM;2009-11-15 12:00;CYHM 151200Z 26004KT 5SM BR OVC042 05/05 A2991 RMK SC8 SLP135

CYHM;2009-11-15 13:00;CYHM 151300Z 25005KT 4SM BR OVC038 06/06 A2993 RMK SC8 SLP142

CYHM;2009-11-15 14:00;CYHM 151400Z 24004KT 4SM BR OVC042 07/07 A2993 RMK SC8 SLP141

CYHM;2009-11-15 15:00;CYHM 151500Z 24005KT 5SM BR FEW034 OVC043 08/08 A2994 RMK SC2SC6 SLP145

CYHM;2009-11-15 16:00;CYHM 151600Z 24005KT 6SM BR OVC035 09/09 A2997 RMK SC8 SLP153

CYHM;2009-11-15 17:00;CYHM 151700Z 24005KT 6SM BR FEW029 OVC044 10/10 A2996 RMK SC2SC6 SLP150

CYHM;2009-11-15 18:00;CYHM 151800Z 26006KT 7SM BKN034 OVC042 11/10 A2996 RMK SC5SC3 SLP149

CYHM;2009-11-15 19:00;CYHM 151900Z 29009KT 7SM FEW021 OVC043 13/10 A2997 RMK SC2SC6 SLP152

CYHM;2009-11-15 20:00;CYHM 152000Z 31009KT 6SM HZ FEW022 OVC043 12/09 A2999 RMK SC2SC6 SLP159

CYHM;2009-11-15 21:00;CYHM 152100Z 29009KT 7SM BKN024 OVC042 11/08 A3002 RMK SC6SC2 SLP171

CYHM;2009-11-15 22:00;CYHM 152200Z 33010KT 7SM FEW026 SCT042 OVC190 09/07 A3004 RMK SC2SC2AC5 SLP178

CYHM;2009-11-15 23:00;CYHM 152300Z 32006KT 15SM FEW026 BKN210 08/06 A3008 RMK SC1CC6 SLP192

CYHM;2009-11-16 00:00;CYHM 160000Z 31008KT 15SM BKN210 07/03 A3011 RMK CC6 SLP203

CYHM;2009-11-16 01:00;CYHM 160100Z 27004KT 15SM BKN200 05/02 A3013 RMK CC6 SLP208

CYHM;2009-11-16 02:00;CYHM 160200Z 31005KT 15SM FEW025 FEW200 04/01 A3013 RMK SC1CC0 SLP209

CYHM;2009-11-16 03:00;CYHM 160300Z 32004KT 15SM FEW210 03/00 A3015 RMK CI1 SLP216

CYHM;2009-11-16 04:00;CYHM 160400Z 30004KT 15SM FEW220 02/M00 A3015 RMK CI1 SLP217

CYHM;2009-11-16 05:00;CYHM 160500Z 00000KT 15SM SCT190 BKN220 02/01 A3017 RMK AC3CI2 SLP223

CYHM;2009-11-16 06:00;CYHM 160600Z 00000KT 15SM FEW160 SCT220 01/00 A3017 RMK AC2CI1 SLP224

CYHM;2009-11-16 07:00;CYHM 160700Z 00000KT 15SM FEW140 FEW220 00/M00 A3018 RMK AC1CI1 SLP227

CYHM;2009-11-16 08:00;CYHM 160800Z 30004KT 15SM BKN140 BKN200 01/00 A3019 RMK AC6CI2 SLP228

CYHM;2009-11-16 09:00;CYHM 160900Z 33005KT 15SM BKN140 03/00 A3020 RMK AC7 SLP233

CYHM;2009-11-16 10:00;CYHM 161000Z 34007KT 15SM BKN130 03/01 A3021 RMK AC7 SLP236

CYHM;2009-11-16 11:00;CYHM 161100Z 34007KT 15SM FEW140 BKN180 03/00 A3022 RMK AC2AC4 SLP239

CYHM;2009-11-16 12:00;CYHM 161200Z 35006KT 15SM BKN150 BKN180 02/00 A3024 RMK AC6AC2 SLP247

CYHM;2009-11-16 13:00;CYHM 161300Z 02008KT 15SM BKN120 BKN170 03/00 A3024 RMK AC6AC2 SLP247

CYHM;2009-11-16 14:00;CYHM 161400Z 03008KT 15SM BKN120 BKN160 04/M01 A3025 RMK AC6AC1 SLP250

CYHM;2009-11-16 15:00;CYHM 161500Z 03005KT 15SM OVC120 04/M01 A3026 RMK AC8 SLP255

CYHM;2009-11-16 16:00;CYHM 161600Z 03006KT 15SM BKN120 BKN180 05/M00 A3026 RMK AC5AC2 SLP257

CYHM;2009-11-16 17:00;CYHM 161700Z 04007KT 15SM BKN120 BKN180 06/M01 A3024 RMK AC5AC2 SLP249

CYHM;2009-11-16 18:00;CYHM 161800Z 04006KT 15SM BKN140 BKN180 06/M00 A3023 RMK AC5AC2 SLP245

CYHM;2009-11-16 19:00;CYHM 161900Z 34003KT 15SM FEW070 BKN140 BKN240 06/M01 A3022 RMK AC1AC5CI2 1ST LYR TR WND L/V SLP243

CYHM;2009-11-16 20:00;CYHM 162000Z 01005KT 15SM SCT140 BKN220 06/M01 A3022 RMK AC3CC4 SLP243

CYHM;2009-11-16 21:00;CYHM 162100Z 04003KT 15SM SCT150 BKN210 BKN260 05/M01 A3022 RMK AC3CI1CI0 SLP240

CYHM;2009-11-16 22:00;CYHM 162200Z 00000KT 15SM FEW140 SCT210 BKN250 04/M01 A3022 RMK AC1CC1CI1 SLP241

CYHM;2009-11-16 23:00;CYHM 162300Z 00000KT 15SM FEW140 BKN230 03/M01 A3022 RMK AC1CI2 SLP242

CYHM;2009-11-17 00:00;CYHM 170000Z 00000KT 15SM FEW140 BKN220 02/M02 A3023 RMK AC1CI1 SLP248

CYHM;2009-11-17 01:00;CYHM 170100Z 03007KT 15SM SCT250 02/M02 A3024 RMK CI1 SLP251

CYHM;2009-11-17 02:00;CYHM 170200Z 02006KT 15SM FEW210 02/M02 A3026 RMK CI1 SLP255

CYHM;2009-11-17 03:00;CYHM 170300Z 02007KT 15SM FEW220 01/M02 A3026 RMK CI1 SLP255

CYHM;2009-11-17 04:00;CYHM 170400Z 02006KT 15SM FEW220 02/M00 A3026 RMK CI1 SLP257

CYHM;2009-11-17 05:00;CYHM 170500Z 04008KT 15SM FEW220 02/M00 A3026 RMK CI1 SLP256

CYHM;2009-11-17 06:00;CYHM 170600Z 05006KT 15SM FEW220 01/M01 A3027 RMK CI1 SLP259

CYHM;2009-11-17 07:00;CYHM 170700Z 04007KT 15SM SKC 01/M00 A3028 RMK SLP261

CYHM;2009-11-17 08:00;CYHM 170800Z 03008KT 15SM SKC 02/00 A3027 RMK SLP260

CYHM;2009-11-17 09:00;CYHM 170900Z 04008KT 15SM FEW022 SCT110 SCT220 02/00 A3027 RMK CF1AC1CI1 AC TR SLP260

CYHM;2009-11-17 10:00;CYHM 171000Z 03007KT 15SM FEW220 01/M00 A3028 RMK CI1 SLP263

CYHM;2009-11-17 11:00;CYHM 171100Z 05008KT 15SM FEW100 FEW220 01/M01 A3029 RMK AC1CI1 ACTR SLP265

CYHM;2009-11-17 12:00;CYHM 171200Z 03008KT 15SM FEW020 SCT035 BKN220 01/M01 A3030 RMK CU2SC2CI1 SLP270

CYHM;2009-11-17 13:00;CYHM 171300Z 05007KT 15SM BKN020 BKN220 02/00 A3031 RMK SC5CI1 CI TR SLP275

CYHM;2009-11-17 14:00;CYHM 171400Z 03008KT 15SM BKN020 BKN220 03/01 A3033 RMK SC6CI1 CI TR SLP279

CYHM;2009-11-17 15:00;CYHM 171500Z 07016G21KT 15SM BKN019 05/02 A3033 RMK SC5 TR CU ASOCTD SLP278

CYHM;2009-11-17 16:00;CYHM 171600Z 06016KT 15SM FEW018 FEW025 06/02 A3033 RMK CU2SC1 SLP279

CYHM;2009-11-17 17:00;CYHM 171700Z 06018KT 15SM FEW022 FEW220 06/02 A3032 RMK CU1CI1 CI TR SLP275

CYHM;2009-11-17 18:00;CYHM 171800Z 04018KT 15SM FEW024 FEW220 06/02 A3030 RMK CU1CI1 SLP269

CYHM;2009-11-17 19:00;CYHM 171900Z 05015G22KT 15SM FEW024 FEW250 06/02 A3029 RMK CU1CI1 CI TR SLP264

CYHM;2009-11-17 20:00;CYHM 172000Z 06018G24KT 15SM FEW018 FEW250 06/02 A3028 RMK CU2CI1 CI TR SLP261

CYHM;2009-11-17 21:00;CYHM 172100Z 05018G24KT 15SM SCT011 05/03 A3027 RMK CU3 SLP258

CYHM;2009-11-17 22:00;CYHM 172200Z 05015G26KT 15SM SCT012 04/03 A3027 RMK SC4 SF ASOCTD SLP259

CYHM;2009-11-17 23:00;CYHM 172300Z 05016G23KT 15SM FEW012 04/01 A3028 RMK CU1 SLP262

CYHM;2009-11-18 00:00;CYHM 180000Z 06015G22KT 15SM FEW012 04/02 A3028 RMK SC2 SLP263

CYHM;2009-11-18 01:00;CYHM 180100Z 06014KT 15SM FEW012 04/03 A3029 RMK SC1 SLP267

CYHM;2009-11-18 02:00;CYHM 180200Z 05015G21KT 15SM FEW012 03/02 A3030 RMK SC1 SC TR SLP269

CYHM;2009-11-18 03:00;CYHM 180300Z 06015KT 15SM FEW010 03/02 A3029 RMK SC1 SC TR SLP266

CYHM;2009-11-18 04:00;CYHM 180400Z 05013KT 15SM FEW010 03/02 A3030 RMK SC1 SC TR SLP268

CYHM;2009-11-18 05:00;CYHM 180500Z 06015KT 15SM FEW010 03/02 A3030 RMK CF1 CF TR SLP269

CYHM;2009-11-18 06:00;CYHM 180600Z 06012KT 15SM SKC 03/02 A3030 RMK SLP269

CYHM;2009-11-18 07:00;CYHM 180700Z 05016KT 15SM BKN063 04/01 A3029 RMK SC6 SLP266

CYHM;2009-11-18 08:00;CYHM 180800Z 05013KT 15SM SCT070 04/01 A3028 RMK AC4 SLP263

CYHM;2009-11-18 09:00;CYHM 180900Z 05013KT 15SM SCT072 03/01 A3028 RMK AC3 SLP263

CYHM;2009-11-18 10:00;CYHM 181000Z 05010KT 15SM FEW072 03/01 A3029 RMK AC1 AC TR SLP264

CYHM;2009-11-18 11:00;CYHM 181100Z 05012KT 15SM FEW075 FEW210 03/02 A3028 RMK AC1CI1 AC TR CI TR SLP263

CYHM;2009-11-18 12:00;CYHM 181200Z 04010KT 15SM FEW080 SCT130 BKN220 04/02 A3028 RMK AC2AC2CI0 CI TR SLP262

CYHM;2009-11-18 13:00;CYHM 181300Z 04010KT 15SM FEW045 SCT100 BKN170 04/03 A3028 RMK CU1AC3AC2 CU TR SLP263

CYHM;2009-11-18 14:00;CYHM 181400Z 06010KT 15SM FEW055 FEW110 SCT160 06/02 A3030 RMK CU1AC2AC2 CU TR SLP269

CYHM;2009-11-18 15:00;CYHM 181500Z 05010KT 15SM FEW110 07/02 A3030 RMK AC2 SLP268

CYHM;2009-11-18 16:00;CYHM 181600Z 06008KT 15SM FEW120 FEW170 09/00 A3030 RMK AC1AC1 SLP266

CYHM;2009-11-18 17:00;CYHM 181700Z 07008KT 15SM FEW160 FEW220 10/M01 A3028 RMK AC1CI1 SLP261

CYHM;2009-11-18 18:00;CYHM 181800Z 04006KT 15SM FEW160 FEW230 10/01 A3027 RMK AC1CI1 AC TR CI TR SLP256

CYHM;2009-11-18 19:00;CYHM 181900Z 03008KT 15SM FEW170 FEW230 10/01 A3026 RMK AC1CI1 AC TR CI TR SLP254

CYHM;2009-11-18 20:00;CYHM 182000Z 06010KT 15SM FEW170 FEW210 10/01 A3026 RMK AC1CI1 AC TR CI TR SLP253

CYHM;2009-11-18 21:00;CYHM 182100Z 06012KT 15SM FEW230 09/01 A3025 RMK CI1 CI TR SLP250

CYHM;2009-11-18 22:00;CYHM 182200Z 06010KT 15SM FEW160 FEW230 07/04 A3025 RMK AC1CI1 CI TR SLP251

CYHM;2009-11-18 23:00;CYHM 182300Z 04010KT 15SM FEW150 06/04 A3026 RMK AC1 SLP253

CYHM;2009-11-19 00:00;CYHM 190000Z 05007KT 15SM FEW120 06/05 A3025 RMK AC1 SLP252

CYHM;2009-11-19 01:00;CYHM 190100Z 04008KT 10SM FEW140 06/06 A3024 RMK AC2 SLP249

CYHM;2009-11-19 02:00;CYHM 190200Z 04009KT 8SM SKC 05/05 A3025 RMK SLP250

CYHM;2009-11-19 03:00;CYHM 190300Z 07004KT 7SM MIFG SKC 05/04 A3025 RMK SLP250

CYHM;2009-11-19 04:00;CYHM 190400Z 03005KT 6SM BR SCT160 SCT240 04/04 A3024 RMK AC3CI1 SLP248

CYHM;2009-11-19 05:00;CYHM 190500Z 08003KT 12SM FEW060 SCT150 BKN220 04/04 A3023 RMK SC1AC2CI2 SLP244

CYHM;2009-11-19 06:00;CYHM 190600Z 06004KT 15SM FEW060 BKN130 06/06 A3021 RMK SC2AC5 SLP237

CYHM;2009-11-19 07:00;CYHM 190700Z 07005KT 15SM BKN120 05/05 A3021 RMK AC6 SLP236

CYHM;2009-11-19 08:00;CYHM 190800Z 05007KT 15SM FEW036 SCT067 BKN110 05/05 A3020 RMK SC2AC2AC3 SLP233

CYHM;2009-11-19 09:00;CYHM 190900Z 06007KT 7SM -RA OVC021 06/06 A3019 RMK SC8 SLP230

CYHM;2009-11-19 09:51;CYHM 190951Z 05007KT 2SM -RA BR OVC090 RMK FG1AC7

CYHM;2009-11-19 10:00;CYHM 191000Z 04006KT 2SM -RA BR FEW050 OVC075 06/06 A3017 RMK FG1SC2AC6 SLP222

CYHM;2009-11-19 11:00;CYHM 191100Z 05007KT 2SM -RA BR FEW012 OVC033 07/07 A3016 RMK FG1SC1SC6 SLP219

CYHM;2009-11-19 12:00;CYHM 191200Z 07007KT 2SM -RA BR SCT005 OVC010 07/07 A3017 RMK SF4SC4 SLP223

CYHM;2009-11-19 12:19;CYHM 191219Z 06007KT 1 1/2SM -RA BR OVC008 RMK FG2SF6

CYHM;2009-11-19 12:50;CYHM 191250Z 08004KT 1 1/2SM -RA BR OVC005 RMK FG2SF6 CIG RAG VIS VRBL 1-2SM

CYHM;2009-11-19 13:00;CYHM 191300Z 08005KT 1 1/2SM -RA BR OVC004 07/07 A3017 RMK FG2SF6 CIG RAG SLP223

CYHM;2009-11-19 13:10;CYHM 191310Z 08006KT 1 1/2SM -RA BR BKN003 OVC026 RMK FG2SF6SC1 CIG RAG

CYHM;2009-11-19 13:27;CYHM 191327Z 07004KT 1 1/2SM -RA BR SCT004 OVC033 RMK FG2SF2SC4 VIS VRBL 1-2SM

CYHM;2009-11-19 13:45;CYHM 191345Z 06008KT 1SM -RA BR OVC002 RMK FG2SF6

CYHM;2009-11-19 14:00;CYHM 191400Z 05006KT 3/4SM -RA BR OVC003 08/08 A3016 RMK FG3SF5 CIG RAG VIS VRBL 1/2-1SM SLP218

CYHM;2009-11-19 14:46;CYHM 191446Z 06006KT 1SM BR OVC004 RMK FG2SF6 CIG RAG

CYHM;2009-11-19 15:00;CYHM 191500Z 06007KT 1/2SM FG OVC002 08/08 A3016 RMK FG5SF3 CIG RAG SLP218

CYHM;2009-11-19 15:12;CYHM 191512Z 07005KT 1/8SM FG VV001 RMK FG8

CYHM;2009-11-19 15:40;CYHM 191540Z 06008KT 0SM -RA FG VV001 RMK FG8

CYHM;2009-11-19 16:00;CYHM 191600Z 06004KT 1/2SM -RA FG BKN003 OVC032 08/08 A3014 RMK FG4SF3SC1 SLP212

CYHM;2009-11-19 16:21;CYHM 191621Z 07004KT 3/4SM -RA BR BKN003 OVC024 RMK FG2SF2SC3

CYHM;2009-11-19 17:00;CYHM 191700Z 07004KT 1 1/2SM -RA BR BKN004 OVC027 09/09 A3011 RMK FG2SF4SC2 CIG RAG SLP202

CYHM;2009-11-19 17:20;CYHM 191720Z 06004KT 1 3/4SM BR BKN007 OVC028 RMK FG1SF5SC2

CYHM;2009-11-19 17:50;CYHM 191750Z 09004KT 2 1/2SM BR BKN003 OVC020 RMK SF6SC2

CYHM;2009-11-19 18:00;CYHM 191800Z 08004KT 2 1/2SM BR BKN007 BKN011 OVC025 10/10 A3008 RMK SF5SC2SC1 CIG RAD SLP191

CYHM;2009-11-19 18:10;CYHM 191810Z 15006KT 2 1/2SM -RA BR FEW008 BKN012 OVC016 RMK SF2SC4SC2

CYHM;2009-11-19 18:31;CYHM 191831Z 06002KT 1 1/2SM -RA BR BKN003 OVC012 RMK FG2SF5SC2

CYHM;2009-11-19 18:35;CYHM 191835Z 09002KT 1SM -RA BR BKN006 OVC012 RMK FG3SF3SC2

CYHM;2009-11-19 18:48;CYHM 191848Z 00000KT 1 1/2SM -RA BR BKN002 OVC011 RMK FG2SF5SC1

CYHM;2009-11-19 19:00;CYHM 191900Z 13004KT 1 1/2SM -RA BR OVC006 OVC013 10/10 A3007 RMK FG2SF4SC2 CIG RAG SLP188

CYHM;2009-11-19 19:22;CYHM 191922Z CCA 14003KT 2 1/2SM -RA BR BKN005 OVC013 RMK CF5SC3

CYHM;2009-11-19 19:45;CYHM 191945Z 14003KT 5SM BR FEW005 OVC014 RMK CF2SC6 VIS N-E 2

CYHM;2009-11-19 20:00;CYHM 192000Z 13004KT 1 1/2SM BR SCT005 OVC012 10/10 A3006 RMK FG2CF2SC5 VIS SW 4 SLP184

CYHM;2009-11-19 20:13;CYHM 192013Z 12003KT 1 1/4SM -SHRA BR BKN004 OVC012 RMK FG2CF4SC2

CYHM;2009-11-19 20:35;CYHM 192035Z 13005KT 4SM -SHRA BR SCT004 OVC012 RMK CF3SC5

CYHM;2009-11-19 21:00;CYHM 192100Z 15004KT 3SM -SHRA BR FEW003 OVC012 10/10 A3005 RMK CF2SC6 PCPN VRY LGT SLP181

CYHM;2009-11-19 21:14;CYHM 192114Z 15004KT 2SM -SHRA BR SCT002 OVC012 RMK FG1CF2SC5

CYHM;2009-11-19 22:00;CYHM 192200Z 17004KT 2SM BR SCT002 OVC013 10/10 A3004 RMK FG2CF2SC4 SLP177

CYHM;2009-11-19 22:31;CYHM 192231Z 17004KT 1 1/4SM -SHRA BR BKN002 OVC012 RMK FG2CF4SC2

CYHM;2009-11-19 23:00;CYHM 192300Z 21003KT 1 1/4SM -SHRA BR OVC002 10/10 A3003 RMK FG3CF5 SLP175

CYHM;2009-11-19 23:44;CYHM 192344Z 21003KT 1 1/4SM BR OVC002 RMK FG3CF5

CYHM;2009-11-20 00:00;CYHM 200000Z 22004KT 1 1/4SM BR OVC002 10/10 A3003 RMK FG3CF5 SLP174

CYHM;2009-11-20 00:08;CYHM 200008Z 23005KT 3SM BR BKN002 OVC010 RMK CF6SC2 CIG RAG

CYHM;2009-11-20 00:26;CYHM 200026Z 24009KT 4SM -SHRA BKN004 OVC012 RMK CF6SC2 CIG RAG

CYHM;2009-11-20 00:43;CYHM 200043Z 27014KT 7SM -SHRA SCT004 OVC014 RMK CF3SC5

CYHM;2009-11-20 01:00;CYHM 200100Z 25011KT 6SM -SHRA BR FEW005 OVC015 07/07 A3004 RMK CF2SC6 SLP177

CYHM;2009-11-20 01:39;CYHM 200139Z 26006KT 15SM OVC022 RMK SC8

CYHM;2009-11-20 02:00;CYHM 200200Z 24007KT 4SM -SHRA BR BKN022 OVC038 07/07 A3004 RMK SC6SC2 SLP177

CYHM;2009-11-20 03:00;CYHM 200300Z 24006KT 6SM -SHRA BR OVC038 07/07 A3002 RMK SC8 PCPN VRY LGT SLP172

CYHM;2009-11-20 03:36;CYHM 200336Z 23007KT 7SM OVC049 RMK SC8

CYHM;2009-11-20 04:00;CYHM 200400Z 24007KT 7SM -SHRA BKN047 OVC072 06/06 A3002 RMK SC6AC2 SLP171

CYHM;2009-11-20 05:00;CYHM 200500Z 23009KT 7SM -SHRA FEW034 OVC047 06/06 A3003 RMK SC2SC6 SLP173

CYHM;2009-11-20 06:00;CYHM 200600Z 23009KT 6SM -SHRA BR FEW016 OVC040 06/06 A3004 RMK CF2SC6 SLP177

CYHM;2009-11-20 07:00;CYHM 200700Z 23006KT 6SM -SHRA BR BKN039 OVC061 05/05 A3004 RMK SC6SC2 SLP176

CYHM;2009-11-20 07:50;CYHM 200750Z 24007KT 8SM FEW034 BKN076 BKN200 RMK SC2AC3CI0

CYHM;2009-11-20 08:00;CYHM 200800Z 24007KT 8SM FEW034 BKN076 BKN200 04/04 A3003 RMK SC2AC3CI0 SLP174

CYHM;2009-11-20 08:53;CYHM 200853Z 24008KT 7SM BKN008 OVC120 RMK SC6AC2

CYHM;2009-11-20 09:00;CYHM 200900Z 24007KT 7SM BKN008 OVC120 04/04 A3002 RMK SC6AC2 SLP172

CYHM;2009-11-20 10:00;CYHM 201000Z 24006KT 7SM BKN005 04/04 A3002 RMK SC7 SLP170

CYHM;2009-11-20 10:24;CYHM 201024Z 22006KT 6SM BR FEW004 RMK SC2

CYHM;2009-11-20 11:00;CYHM 201100Z 23006KT 5SM BR BKN052 03/03 A3003 RMK SC6 SLP174

CYHM;2009-11-20 12:00;CYHM 201200Z 25008KT 5SM BR SCT016 BKN045 04/04 A3003 RMK SC3SC2 SLP176

CYHM;2009-11-20 13:00;CYHM 201300Z 23006KT 6SM BR FEW045 04/03 A3004 RMK SC1 SC TR SLP178

CYHM;2009-11-20 13:38;CYHM 201338Z 24010KT 7SM BKN011 RMK SC7

CYHM;2009-11-20 14:00;CYHM 201400Z 26012KT 6SM BR SCT009 OVC013 05/05 A3005 RMK SF4SC4 SLP181

CYHM;2009-11-20 15:00;CYHM 201500Z 26010KT 10SM FEW012 SCT035 06/05 A3003 RMK CU2SC2 SLP176

CYHM;2009-11-20 16:00;CYHM 201600Z 26010KT 10SM FEW016 BKN022 BKN035 07/05 A3005 RMK CU2SC4SC1 SLP181

CYHM;2009-11-20 17:00;CYHM 201700Z 26018KT 15SM FEW018 BKN027 08/05 A3004 RMK CU2SC4 SLP179

CYHM;2009-11-20 18:00;CYHM 201800Z 22015G20KT 15SM FEW020 BKN039 08/05 A3004 RMK CU2SC6 SLP177

CYHM;2009-11-20 19:00;CYHM 201900Z 26014KT 15SM BKN028 OVC035 08/05 A3003 RMK SC6SC2 CU ASOCTD SLP176

CYHM;2009-11-20 20:00;CYHM 202000Z 25014KT 15SM FEW018 OVC025 08/05 A3004 RMK CF2SC6 SLP180

CYHM;2009-11-20 21:00;CYHM 202100Z 25008KT 15SM FEW023 BKN035 08/05 A3006 RMK CF1SC6 SLP184

CYHM;2009-11-20 22:00;CYHM 202200Z 24010KT 15SM FEW023 OVC040 08/05 A3007 RMK CF2SC6 SLP187

CYHM;2009-11-20 23:00;CYHM 202300Z 24010KT 10SM BKN041 07/06 A3007 RMK SC7 SLP190

CYHM;2009-11-21 00:00;CYHM 210000Z 25009KT 8SM BKN039 BKN210 07/06 A3008 RMK SC6CI1 SLP193

CYHM;2009-11-21 01:00;CYHM 210100Z 23007KT 7SM FEW040 FEW210 06/05 A3008 RMK SC1CI1 SLP194

CYHM;2009-11-21 02:00;CYHM 210200Z 23007KT 7SM FEW035 BKN250 06/05 A3008 RMK SC1CI3 SLP192

CYHM;2009-11-21 03:00;CYHM 210300Z 23005KT 6SM BR FEW036 BKN230 05/05 A3009 RMK SC2CI2 SLP195

CYHM;2009-11-21 03:43;CYHM 210343Z 24005KT 6SM BR BKN010 OVC035 RMK CF6SC2

CYHM;2009-11-21 04:00;CYHM 210400Z 23005KT 5SM BR BKN012 OVC035 06/06 A3009 RMK CF6SC2 SLP195

CYHM;2009-11-21 05:00;CYHM 210500Z 24005KT 5SM BR FEW015 FEW035 BKN240 06/06 A3009 RMK CF1SC2CI2 SLP196

CYHM;2009-11-21 06:00;CYHM 210600Z 25003KT 6SM BR FEW011 BKN019 06/06 A3009 RMK CF2SC6 SLP195

CYHM;2009-11-21 07:00;CYHM 210700Z 26005KT 5SM BR SCT220 05/05 A3010 RMK CI2 SLP197

CYHM;2009-11-21 08:00;CYHM 210800Z 24002KT 2SM BR SCT210 04/04 A3010 RMK FG1CI2 SLP198

CYHM;2009-11-21 08:43;CYHM 210843Z 00000KT 1SM BR BKN220 RMK FG2CI1 VIS VRB 3/4 - 11/4

CYHM;2009-11-21 09:00;CYHM 210900Z 00000KT 3/4SM BR SCT009 BKN210 04/04 A3010 RMK FG3SF1CI1 VIS VRB 1/2 - 1 SLP199

CYHM;2009-11-21 09:36;CYHM 210936Z 22003KT 1/8SM FG BKN007 RMK FG5SF1

CYHM;2009-11-21 10:00;CYHM 211000Z 24003KT 1/8SM FG BKN210 03/03 A3011 RMK FG4CI1 SLP202

CYHM;2009-11-21 10:05;CYHM 211005Z 24003KT 1/4SM FG SCT210 RMK FG4CI1

CYHM;2009-11-21 10:24;CYHM 211024Z 25002KT 1/2SM FG SCT050 SCT220 RMK FG3SC1CI1

CYHM;2009-11-21 11:00;CYHM 211100Z 24003KT 1/4SM FG SCT005 BKN027 BKN050 03/03 A3012 RMK FG3SF1SC2SC1 SLP205

CYHM;2009-11-21 11:45;CYHM 211145Z 24003KT 1/2SM FG SCT012 BKN024 RMK FG2SF1SC3

CYHM;2009-11-21 12:00;CYHM 211200Z 23003KT 1/2SM FG SCT012 BKN022 04/04 A3013 RMK FG2SF2SC3 SLP210

CYHM;2009-11-21 12:50;CYHM 211250Z 22003KT 3/4SM BR SCT012 OVC024 RMK FG2SF2SC4

CYHM;2009-11-21 13:00;CYHM 211300Z 23003KT 3/4SM BR SCT014 OVC025 05/05 A3014 RMK FG2SF2SC4 SLP213

CYHM;2009-11-21 14:00;CYHM 211400Z 26002KT 3/4SM BR SCT010 OVC017 06/06 A3016 RMK FG2SF2SC4 SLP219

CYHM;2009-11-21 15:00;CYHM 211500Z 29002KT 3/4SM BR SCT010 OVC015 06/06 A3017 RMK FG2SF2SC4 SLP222

CYHM;2009-11-21 15:33;CYHM 211533Z 00000KT 1SM BR SCT010 OVC014 RMK FG2SF2SC4

CYHM;2009-11-21 16:00;CYHM 211600Z 27002KT 1SM BR OVC013 08/07 A3017 RMK FG2SF6 SLP225

CYHM;2009-11-21 16:40;CYHM 211640Z 00000KT 2SM BR SCT012 OVC017 RMK FG2SF2SC4

CYHM;2009-11-21 17:00;CYHM 211700Z 00000KT 3SM BR SCT010 OVC016 08/08 A3017 RMK FG2SF2SC4 SLP223

CYHM;2009-11-21 18:00;CYHM 211800Z 23003KT 4SM BR FEW010 OVC022 08/08 A3017 RMK CU2SC6 SLP222

CYHM;2009-11-21 19:00;CYHM 211900Z 23003KT 6SM BR FEW012 OVC018 08/07 A3017 RMK SF2SC6 SLP222

CYHM;2009-11-21 20:00;CYHM 212000Z 28004KT 10SM OVC018 09/06 A3017 RMK SC8 SLP223

CYHM;2009-11-21 21:00;CYHM 212100Z 26004KT 10SM OVC016 09/06 A3019 RMK SC8 SLP229

CYHM;2009-11-21 22:00;CYHM 212200Z 28002KT 8SM OVC015 08/07 A3019 RMK SC8 SLP231

CYHM;2009-11-21 23:00;CYHM 212300Z 27002KT 6SM BR OVC017 08/07 A3021 RMK SC8 SLP237

CYHM;2009-11-22 00:00;CYHM 220000Z 29003KT 6SM HZ OVC016 08/07 A3023 RMK SC8 SLP243

CYHM;2009-11-22 00:25;CYHM 220025Z 00000KT 4SM HZ OVC014 08/ RMK SC8

CYHM;2009-11-22 01:00;CYHM 220100Z 00000KT 4SM HZ OVC014 08/07 A3023 RMK SC8 SLP243

CYHM;2009-11-22 01:10;CYHM 220110Z 28002KT 4SM HZ OVC016 08/ RMK SC8

CYHM;2009-11-22 02:00;CYHM 220200Z 00000KT 4SM HZ OVC015 08/06 A3023 RMK SC8 SLP245

CYHM;2009-11-22 03:00;CYHM 220300Z CCA 00000KT 4SM HZ OVC018 08/06 A3025 RMK SC8 SLP249

CYHM;2009-11-22 04:00;CYHM 220400Z 00000KT 7SM OVC022 08/06 A3025 RMK SC8 SLP250

CYHM;2009-11-22 05:00;CYHM 220500Z 00000KT 7SM OVC020 08/06 A3025 RMK SC8 SLP250

CYHM;2009-11-22 06:00;CYHM 220600Z 00000KT 7SM OVC020 07/06 A3024 RMK SC8 SLP247

CYHM;2009-11-22 07:00;CYHM 220700Z 00000KT 7SM OVC020 07/06 A3026 RMK SC8 SLP254

CYHM;2009-11-22 08:00;CYHM 220800Z 00000KT 7SM OVC022 07/06 A3028 RMK SC8 SLP260

CYHM;2009-11-22 09:00;CYHM 220900Z 00000KT 7SM OVC023 07/06 A3029 RMK SC8 SLP264

CYHM;2009-11-22 10:00;CYHM 221000Z 30003KT 7SM OVC023 07/06 A3030 RMK SC8 SLP266

CYHM;2009-11-22 11:00;CYHM 221100Z 00000KT 7SM OVC022 07/06 A3031 RMK SC8 SLP270

CYHM;2009-11-22 12:00;CYHM 221200Z 00000KT 7SM BKN022 07/05 A3033 RMK SC7 SLP275

CYHM;2009-11-22 13:00;CYHM 221300Z 05002KT 6SM BR BKN022 07/06 A3034 RMK SC7 SLP279

CYHM;2009-11-22 14:00;CYHM 221400Z 03002KT 7SM BKN022 08/06 A3035 RMK SC7 SLP283

CYHM;2009-11-22 15:00;CYHM 221500Z 04003KT 8SM BKN022 08/05 A3036 RMK SC7 SLP285

CYHM;2009-11-22 16:00;CYHM 221600Z 05005KT 020V100 8SM FEW017 BKN024 09/05 A3035 RMK CU2SC6 SLP283

CYHM;2009-11-22 17:00;CYHM 221700Z 08005KT 8SM FEW018 BKN024 09/05 A3033 RMK CU1SC6 SLP277

CYHM;2009-11-22 18:00;CYHM 221800Z 09004KT 050V140 9SM BKN022 10/05 A3031 RMK SC7 CU ASOCTD SLP270

CYHM;2009-11-22 19:00;CYHM 221900Z 06008KT 010V090 10SM BKN022 09/06 A3030 RMK SC6 CU ASOCTD SLP265

CYHM;2009-11-22 20:00;CYHM 222000Z 05012KT 8SM BKN012 BKN020 08/06 A3029 RMK CU5SC2 SLP262

CYHM;2009-11-22 20:45;CYHM 222045Z 08010KT 8SM BKN009 BKN018 RMK CU6SC2

CYHM;2009-11-22 21:00;CYHM 222100Z 07010KT 8SM BKN008 BKN018 07/06 A3029 RMK CU6SC2 SLP263

CYHM;2009-11-22 21:32;CYHM 222132Z 08009KT 7SM FEW008 RMK CF1

CYHM;2009-11-22 22:00;CYHM 222200Z 05007KT 6SM BR SKC 06/05 A3030 RMK SLP267

CYHM;2009-11-22 23:00;CYHM 222300Z 04007KT 7SM SKC 05/05 A3031 RMK SLP271

CYHM;2009-11-23 00:00;CYHM 230000Z 04007KT 8SM SCT004 BKN020 05/05 A3033 RMK CF4SC2 SLP278

CYHM;2009-11-23 01:00;CYHM 230100Z 04009KT 6SM BR FEW003 06/06 A3034 RMK CF2 SLP282

CYHM;2009-11-23 01:21;CYHM 230121Z 04009KT 6SM BR SCT004 SCT021 RMK CF3SC1

CYHM;2009-11-23 01:48;CYHM 230148Z 04010KT 6SM BR BKN004 RMK CF5

CYHM;2009-11-23 02:00;CYHM 230200Z 05010KT 6SM BR BKN005 06/06 A3034 RMK CF6 SLP280

CYHM;2009-11-23 02:25;CYHM 230225Z 05010KT 6SM BR SCT005 RMK CF2

CYHM;2009-11-23 03:00;CYHM 230300Z 07010KT 4SM BR BKN004 06/06 A3033 RMK CF4 SLP277

CYHM;2009-11-23 04:00;CYHM 230400Z 06010KT 5SM BR SKC 05/05 A3032 RMK SLP273

CYHM;2009-11-23 05:00;CYHM 230500Z 06011KT 5SM BR SKC 05/05 A3030 RMK SLP268

CYHM;2009-11-23 06:00;CYHM 230600Z 05009KT 7SM SKC 04/04 A3029 RMK SLP264

CYHM;2009-11-23 07:00;CYHM 230700Z 06007KT 7SM SKC 04/03 A3030 RMK SLP265

CYHM;2009-11-23 08:00;CYHM 230800Z 03006KT 7SM FEW210 03/03 A3031 RMK CI1 SLP270

CYHM;2009-11-23 09:00;CYHM 230900Z 03006KT 7SM FEW220 02/02 A3031 RMK CI1 SLP271

CYHM;2009-11-23 10:00;CYHM 231000Z 04007KT 3SM BR FEW210 03/03 A3030 RMK CI1 VIS VRB 2 - 4 SLP270

CYHM;2009-11-23 11:00;CYHM 231100Z 06005KT 3SM BR FEW210 02/02 A3030 RMK CI1 VIS VRB 2 - 4 SLP270

CYHM;2009-11-23 11:36;CYHM 231136Z 04002KT 1 1/2SM BR FEW220 RMK CI1

CYHM;2009-11-23 11:41;CYHM 231141Z 05004KT 1SM BR SCT220 RMK FG2CI1

CYHM;2009-11-23 11:52;CYHM 231152Z 04005KT 3/4SM BR SCT220 RMK FG2CI1

CYHM;2009-11-23 11:56;CYHM 231156Z 05005KT 1/2SM FG SKC

CYHM;2009-11-23 12:00;CYHM 231200Z 04005KT 1/8SM FG SCT220 02/02 A3031 RMK FG2CI1 SLP273

CYHM;2009-11-23 12:11;CYHM 231211Z 04004KT 1/2SM FG SKC

CYHM;2009-11-23 12:23;CYHM 231223Z 05005KT 1/4SM FG SKC

CYHM;2009-11-23 12:31;CYHM 231231Z 05004KT 1/8SM FG SKC

CYHM;2009-11-23 12:42;CYHM 231242Z 05004KT 1/2SM FG SKC

CYHM;2009-11-23 12:46;CYHM 231246Z 05005KT 1/8SM FG SKC

CYHM;2009-11-23 13:00;CYHM 231300Z 05005KT 1/2SM FG SKC 02/02 A3032 RMK SLP276

CYHM;2009-11-23 13:16;CYHM 231316Z 04004KT 3/4SM BR SKC

CYHM;2009-11-23 14:00;CYHM 231400Z 04004KT 1 1/2SM BR SKC 04/04 A3032 RMK SLP275

CYHM;2009-11-23 14:15;CYHM 231415Z 06004KT 2 1/2SM BR SKC

CYHM;2009-11-23 15:00;CYHM 231500Z 08004KT 3SM BR FEW220 07/06 A3033 RMK CI1 SLP276

CYHM;2009-11-23 16:00;CYHM 231600Z 08005KT 6SM BR FEW013 SCT030 07/06 A3031 RMK CF2SC2 SLP271

CYHM;2009-11-23 17:00;CYHM 231700Z 06008KT 6SM BR FEW013 SCT018 08/07 A3029 RMK CU2SC2 SLP265

CYHM;2009-11-23 18:00;CYHM 231800Z 06008KT 8SM FEW012 FEW020 BKN210 08/06 A3027 RMK CU2SC1CI2 SLP257

CYHM;2009-11-23 19:00;CYHM 231900Z 05010KT 10SM FEW018 FEW190 BKN250 08/06 A3026 RMK SF1AC1CI2 CC ASOCTD SLP252

CYHM;2009-11-23 20:00;CYHM 232000Z 05012KT 10SM FEW180 BKN220 07/05 A3026 RMK AC2CI5 CC ASOCTD SLP252

CYHM;2009-11-23 21:00;CYHM 232100Z 05014KT 8SM FEW012 FEW200 BKN240 07/05 A3024 RMK SF1CC2CC5 SF TR SLP249

CYHM;2009-11-23 22:00;CYHM 232200Z 05014KT 5SM BR BKN180 OVC220 06/05 A3024 RMK AC6CC2 SLP247

CYHM;2009-11-23 23:00;CYHM 232300Z 03010KT 5SM BR FEW100 FEW170 OVC230 06/05 A3024 RMK AC1AC1CC6 SLP247

CYHM;2009-11-24 00:00;CYHM 240000Z 05011KT 5SM BR FEW170 BKN220 06/06 A3023 RMK AC1CC6 SLP245

CYHM;2009-11-24 01:00;CYHM 240100Z 04014KT 5SM BR FEW006 BKN038 BKN160 07/06 A3023 RMK SF2SC4AC1 SLP243

CYHM;2009-11-24 02:00;CYHM 240200Z 04010KT 5SM BR BKN005 OVC032 07/07 A3023 RMK SF5SC3 SLP243

CYHM;2009-11-24 02:24;CYHM 240224Z 04013KT 5SM BR FEW005 OVC030 RMK SF2SC6

CYHM;2009-11-24 03:00;CYHM 240300Z 03013KT 6SM BR FEW005 OVC030 07/06 A3020 RMK SF2SC6 SLP234

CYHM;2009-11-24 04:00;CYHM 240400Z 04007KT 8SM FEW005 OVC030 07/06 A3021 RMK SF1SC7 SLP235

CYHM;2009-11-24 05:00;CYHM 240500Z 05007KT 7SM OVC026 07/06 A3020 RMK SC8 SLP232

CYHM;2009-11-24 06:00;CYHM 240600Z 04007KT 5SM -SHRA BR FEW004 SCT017 OVC028 06/06 A3018 RMK SF1SC3SC4 SLP227

CYHM;2009-11-24 07:00;CYHM 240700Z 03008KT 5SM -SHRA BR FEW004 OVC018 07/06 A3018 RMK SF1SC7 SLP227

CYHM;2009-11-24 08:00;CYHM 240800Z 03006KT 2SM -SHRA BR FEW004 OVC016 06/06 A3018 RMK SF1SC7 SLP226

CYHM;2009-11-24 09:00;CYHM 240900Z 05007KT 2SM -SHRA BR OVC003 06/06 A3017 RMK SC8 SLP224

CYHM;2009-11-24 10:00;CYHM 241000Z 03006KT 2SM -SHRA BR FEW002 OVC008 06/06 A3018 RMK SF1SC7 SLP225

CYHM;2009-11-24 10:19;CYHM 241019Z 03004KT 2SM BR FEW002 OVC008 RMK SF2SC6

CYHM;2009-11-24 11:00;CYHM 241100Z 04006KT 2SM BR BKN002 OVC010 06/06 A3018 RMK SF5SC3 SLP226

CYHM;2009-11-24 12:00;CYHM 241200Z 05004KT 2SM BR OVC005 06/06 A3019 RMK SF8 SLP229

CYHM;2009-11-24 12:12;CYHM 241212Z 04005KT 1SM BR OVC005 RMK SF8

CYHM;2009-11-24 12:26;CYHM 241226Z 04005KT 1 1/2SM BR OVC002 RMK FG2SF6 VIS VRBL 1-2SM

CYHM;2009-11-24 12:40;CYHM 241240Z 03004KT 1SM BR OVC005 RMK FG2SF6 CIG RAG VIS VRBL3/4-11/4

CYHM;2009-11-24 12:48;CYHM 241248Z 03004KT 1 1/2SM BR OVC003 RMK FG2SF6 CIG RAG VIS VRBL 1-2SM

CYHM;2009-11-24 13:00;CYHM 241300Z 06004KT 1SM BR OVC003 06/06 A3019 RMK FG2SF6 SLP230

CYHM;2009-11-24 13:07;CYHM 241307Z 04004KT 3/4SM BR OVC002 RMK FG4SF4 CIG RAG

CYHM;2009-11-24 13:18;CYHM 241318Z 07004KT 1/2SM FG OVC002 RMK FG5SF3

CYHM;2009-11-24 13:55;CYHM 241355Z 06004KT 1/2SM -DZ FG OVC002 RMK FG6SF2

CYHM;2009-11-24 14:00;CYHM 241400Z CCA 06004KT 1/2SM -DZ FG OVC002 07/07 A3020 RMK FG5SF3 CIG RAG SLP234

CYHM;2009-11-24 14:30;CYHM 241430Z 05005KT 1/2SM -RA FG OVC002 RMK FG4SF4

CYHM;2009-11-24 15:00;CYHM 241500Z CCA 04004KT 1/2SM -RA FG OVC002 07/07 A3019 RMK FG4SF4 SLP228

CYHM;2009-11-24 15:34;CYHM 241534Z 04002KT 1/2SM -DZ FG OVC002 RMK FG4SF4

CYHM;2009-11-24 16:00;CYHM 241600Z 09003KT 1/2SM -DZ FG OVC002 08/08 A3018 RMK FG4SF4 CIG RAG SLP225

CYHM;2009-11-24 17:00;CYHM 241700Z 00000KT 1/2SM -DZ FG OVC002 09/09 A3016 RMK FG3SF5 CIG RAG SLP219

CYHM;2009-11-24 17:16;CYHM 241716Z 00000KT 3/4SM -DZ BR OVC002 RMK FG3SF5

CYHM;2009-11-24 18:00;CYHM 241800Z 00000KT 1/2SM -DZ FG OVC002 08/08 A3014 RMK FG4SF4 SLP211

CYHM;2009-11-24 19:00;CYHM 241900Z 06004KT 1/4SM -DZ FG OVC002 08/08 A3013 RMK FG4SF4 SLP208

CYHM;2009-11-24 20:00;CYHM 242000Z 05006KT 1/4SM -DZ FG OVC002 08/08 A3013 RMK FG4SF4 SLP207

CYHM;2009-11-24 21:00;CYHM 242100Z 05005KT 1/4SM -DZ FG OVC002 07/07 A3012 RMK FG4SF4 SLP206

CYHM;2009-11-24 22:00;CYHM 242200Z 05006KT 1/8SM -DZ FG VV001 07/07 A3011 RMK FG8 SLP202

CYHM;2009-11-24 23:00;CYHM 242300Z 05006KT 1/4SM -DZ FG VV002 07/07 A3010 RMK FG8 SLP199

CYHM;2009-11-25 00:00;CYHM 250000Z 05007KT 1/4SM -DZ FG VV002 07/07 A3010 RMK FG8 SLP197

CYHM;2009-11-25 01:00;CYHM 250100Z 07004KT 1/4SM -DZ FG VV002 07/07 A3008 RMK FG8 SLP192

CYHM;2009-11-25 02:00;CYHM 250200Z 06006KT 3/8SM -DZ FG VV002 07/07 A3007 RMK FG8 SLP189

CYHM;2009-11-25 03:00;CYHM 250300Z 06004KT 1/4SM -DZ FG VV002 07/07 A3005 RMK FG8 SLP182

CYHM;2009-11-25 04:00;CYHM 250400Z 05004KT 1/8SM -DZ FG VV001 07/07 A3004 RMK FG8 SLP177

CYHM;2009-11-25 05:00;CYHM 250500Z 05003KT 1/8SM -DZ FG VV001 07/07 A3002 RMK FG8 SLP173

CYHM;2009-11-25 06:00;CYHM 250600Z 04004KT 1/8SM FG VV001 07/07 A3001 RMK FG8 SLP169

CYHM;2009-11-25 07:00;CYHM 250700Z 05007KT 1/8SM FG VV001 07/07 A2998 RMK FG8 SLP158

CYHM;2009-11-25 08:00;CYHM 250800Z 07006KT 1/8SM FG VV001 08/08 A2996 RMK FG8 SLP152

CYHM;2009-11-25 09:00;CYHM 250900Z 08005KT 1/8SM FG VV001 08/08 A2994 RMK FG8 SLP142

CYHM;2009-11-25 09:22;CYHM 250922Z 08004KT 5/8SM BR OVC004 RMK FG6SF2

CYHM;2009-11-25 09:38;CYHM 250938Z 09005KT 1 1/4SM BR SCT004 OVC068 RMK FG2SF2AC4

CYHM;2009-11-25 10:00;CYHM 251000Z 09005KT 1 1/4SM BR SCT004 OVC072 08/08 A2991 RMK FG2SF2AC4 SLP135

CYHM;2009-11-25 10:52;CYHM 251052Z 08004KT 2SM BR FEW006 SCT056 OVC073 RMK SF2SC2AC4

CYHM;2009-11-25 11:00;CYHM 251100Z 10005KT 3SM BR FEW008 SCT055 OVC075 08/08 A2989 RMK SF1SC3AC4 SLP127

CYHM;2009-11-25 12:00;CYHM 251200Z 12008KT 6SM BR FEW055 BKN070 BKN100 08/08 A2987 RMK SC2AC4AC2 SLP120

CYHM;2009-11-25 13:00;CYHM 251300Z 12008KT 10SM BKN072 BKN210 08/08 A2985 RMK AC6CI1 SLP113

CYHM;2009-11-25 14:00;CYHM 251400Z 15006KT 15SM BKN054 OVC075 08/08 A2983 RMK SC5AC3 SLP107

CYHM;2009-11-25 14:24;CYHM 251424Z 16007KT 15SM -SHRA BKN027 OVC040 RMK SC6SC2

CYHM;2009-11-25 15:00;CYHM 251500Z 15006KT 4SM -SHRA BR OVC023 09/09 A2982 RMK SC8 SLP103

CYHM;2009-11-25 15:36;CYHM 251536Z 19005KT 2 1/2SM -SHRA BR BKN012 OVC018 RMK SC6SC2

CYHM;2009-11-25 16:00;CYHM 251600Z 21010KT 2SM -SHRA BR SCT007 BKN016 OVC043 09/09 A2980 RMK FG1SF3SC3SC1 SLP096

CYHM;2009-11-25 16:15;CYHM 251615Z 19012KT 3SM -SHRA BR BKN007 BKN012 OVC018 RMK SF5SC2SC1 CIG RAG

CYHM;2009-11-25 17:00;CYHM 251700Z 19012KT 6SM -SHRA BR BKN008 OVC015 09/09 A2979 RMK SF5SC3 SLP094

CYHM;2009-11-25 17:11;CYHM 251711Z 18012KT 2SM -SHRA BR SCT008 BKN013 OVC019 RMK FG1SF3SC3SC1

CYHM;2009-11-25 17:36;CYHM 251736Z 19014KT 5SM BR FEW008 BKN014 OVC022 RMK SF2SC4SC2 RERA

CYHM;2009-11-25 18:00;CYHM 251800Z 21014KT 8SM FEW009 BKN015 OVC026 09/09 A2975 RMK SF2SC5SC2 SLP079

CYHM;2009-11-25 19:00;CYHM 251900Z 20012KT 10SM FEW015 BKN019 BKN055 10/10 A2975 RMK CU2SC4SC2 SLP077

CYHM;2009-11-25 19:44;CYHM 251944Z 19014KT 1 1/2SM -SHRA BR FEW012 BKN018 OVC050 RMK SF2CU2SC3 VIS E 4

CYHM;2009-11-25 20:00;CYHM 252000Z 23015KT 3SM -SHRA BR FEW018 SCT035 OVC040 08/08 A2976 RMK CF2SC2SC4 SLP083

CYHM;2009-11-25 20:25;CYHM 252025Z 23013KT 8SM FEW030 BKN055 OVC070 RMK CU2SC5AC2

CYHM;2009-11-25 21:00;CYHM 252100Z 22013KT 12SM FEW025 BKN053 BKN080 08/07 A2977 RMK CU2SC3AC2 DARK TWD SE SLP087

CYHM;2009-11-25 22:00;CYHM 252200Z 21009KT 12SM FEW025 SCT030 BKN045 BKN090 08/07 A2977 RMK CU2SC2SC2AC2 SLP087

CYHM;2009-11-25 23:00;CYHM 252300Z 21009KT 12SM FEW025 BKN035 BKN040 08/07 A2978 RMK SC2SC3SC2 SLP091

CYHM;2009-11-26 00:00;CYHM 260000Z 22013KT 15SM FEW018 SCT040 BKN064 BKN075 08/07 A2979 RMK SC2SC2SC2AC2 SLP093

CYHM;2009-11-26 01:00;CYHM 260100Z 21010KT 8SM FEW021 BKN030 BKN055 08/07 A2979 RMK SC2SC3SC2 BR SLP094

CYHM;2009-11-26 02:00;CYHM 260200Z 21010KT 4SM BR FEW025 BKN044 BKN055 07/07 A2979 RMK SC2SC3SC2 SLP094

CYHM;2009-11-26 02:24;CYHM 260224Z 22009KT 3SM -SHRA BR BKN020 BKN025 RMK SC5SC2

CYHM;2009-11-26 02:40;CYHM 260240Z 20008KT 4SM BR BKN025 BKN035 RMK SC5SC2

CYHM;2009-11-26 03:00;CYHM 260300Z 20007KT 6SM -SHRA BR SCT016 BKN035 OVC067 07/07 A2979 RMK SC3SC3AC2 SLP094

CYHM;2009-11-26 04:00;CYHM 260400Z 22009KT 6SM BR BKN015 08/08 A2979 RMK SC7 CIG RAG SLP094

CYHM;2009-11-26 05:00;CYHM 260500Z 22011KT 7SM FEW012 OVC056 08/08 A2979 RMK CF2SC6 SLP092

CYHM;2009-11-26 06:00;CYHM 260600Z 22008KT 12SM -SHRA FEW015 BKN038 08/08 A2979 RMK CF2SC5 SLP091

CYHM;2009-11-26 07:00;CYHM 260700Z 21007KT 10SM FEW011 OVC046 08/08 A2979 RMK CF2SC6 SLP091

CYHM;2009-11-26 08:00;CYHM 260800Z 20009KT 10SM FEW015 OVC055 08/07 A2979 RMK CF1SC7 SLP091

CYHM;2009-11-26 09:00;CYHM 260900Z 20006KT 10SM FEW015 BKN044 08/07 A2978 RMK CF2SC6 SLP091

CYHM;2009-11-26 10:00;CYHM 261000Z 20006KT 7SM -SHRA OVC015 08/07 A2978 RMK SC8 SLP090

CYHM;2009-11-26 11:00;CYHM 261100Z 20012KT 8SM FEW006 OVC019 08/07 A2978 RMK SF1SC7 SLP091

CYHM;2009-11-26 12:00;CYHM 261200Z 20008KT 15SM BKN015 OVC060 08/08 A2978 RMK SC6SC2 SLP091

CYHM;2009-11-26 13:00;CYHM 261300Z 21010KT 15SM BKN025 OVC061 08/06 A2978 RMK SC6SC2 SLP090

CYHM;2009-11-26 14:00;CYHM 261400Z 23008KT 15SM FEW015 BKN025 OVC075 07/06 A2979 RMK CU2SC5AC1 SLP093

CYHM;2009-11-26 14:54;CYHM 261454Z 24008KT 15SM -SHRA FEW015 OVC048 RMK CU2SC6

CYHM;2009-11-26 15:00;CYHM 261500Z 24008KT 15SM FEW015 OVC049 07/06 A2979 RMK CU2SC6 SLP094

CYHM;2009-11-26 16:00;CYHM 261600Z 21008KT 15SM FEW020 BKN060 BKN070 07/06 A2978 RMK CU2SC4AC2 SLP090

CYHM;2009-11-26 17:00;CYHM 261700Z 21014KT 15SM SCT016 BKN025 BKN078 08/05 A2976 RMK CU3SC2AC2 SLP083

CYHM;2009-11-26 17:07;CYHM 261707Z 22012KT 15SM -SHRA FEW020 BKN036 BKN100 BKN210 RMK CU2SC3AC1CI1

CYHM;2009-11-26 17:52;CYHM 261752Z 23010KT 15SM FEW020 BKN031 BKN065 RMK CU1SC4SC2 RERA

CYHM;2009-11-26 18:00;CYHM 261800Z 24012KT 15SM BKN030 BKN062 07/06 A2975 RMK SC6SC2 TR CU ASOCTD SLP080

CYHM;2009-11-26 19:00;CYHM 261900Z 23014KT 15SM FEW021 BKN032 07/04 A2974 RMK CU2SC4 SLP077

CYHM;2009-11-26 20:00;CYHM 262000Z 24013KT 15SM BKN032 07/01 A2975 RMK SC5 CU ASOCTD SLP079

CYHM;2009-11-26 21:00;CYHM 262100Z 25015KT 15SM FEW046 FEW230 06/M01 A2975 RMK SC1CI0 SLP079

CYHM;2009-11-26 22:00;CYHM 262200Z 24010KT 15SM BKN054 05/M00 A2975 RMK SC4 SLP080

CYHM;2009-11-26 23:00;CYHM 262300Z 21006KT 15SM SCT058 03/M00 A2975 RMK SC3 SLP078

CYHM;2009-11-27 00:00;CYHM 270000Z 25008KT 15SM BKN082 03/M00 A2975 RMK AC5 SLP079

CYHM;2009-11-27 01:00;CYHM 270100Z 24010KT 15SM BKN078 03/01 A2974 RMK AC6 SLP078

CYHM;2009-11-27 02:00;CYHM 270200Z 22007KT 15SM FEW043 BKN076 02/01 A2973 RMK SC2AC4 SLP074

CYHM;2009-11-27 03:00;CYHM 270300Z 23004KT 15SM FEW023 SCT066 BKN150 01/01 A2971 RMK SC1AC3AC1 SLP069

CYHM;2009-11-27 03:53;CYHM 270353Z 22005KT 15SM -SHRA BKN023 OVC065 RMK SC6SC2

CYHM;2009-11-27 04:00;CYHM 270400Z 22005KT 15SM -SHRA BKN023 OVC065 02/02 A2969 RMK SC6SC2 SLP062

CYHM;2009-11-27 05:00;CYHM 270500Z 20006KT 15SM -SHRA BKN024 OVC059 02/02 A2968 RMK SC5SC2 SLP056

CYHM;2009-11-27 05:18;CYHM 270518Z 20007KT 15SM -SHRA FEW003 SCT035 BKN078 RMK CF1SC3AC3 PCPN VRY LGT

CYHM;2009-11-27 06:00;CYHM 270600Z 21007KT 15SM -SHRA SCT005 BKN017 BKN075 02/02 A2966 RMK CF3SC2AC2 PCPN VRY LGT SLP051

CYHM;2009-11-27 07:00;CYHM 270700Z 20006KT 10SM FEW004 SCT014 BKN078 01/01 A2966 RMK CF1SC2AC2 SLP050

CYHM;2009-11-27 08:00;CYHM 270800Z 20004KT 12SM FEW016 FEW047 BKN093 00/00 A2965 RMK SC1SC2AC3 SLP049

CYHM;2009-11-27 09:00;CYHM 270900Z 21004KT 8SM -SHRA FEW015 SCT048 OVC073 01/01 A2965 RMK SC1SC4AC4 PCPN VRY LGT SLP046

CYHM;2009-11-27 10:00;CYHM 271000Z 21005KT 10SM -SHRA BKN010 OVC016 02/02 A2964 RMK SC6SC2 SLP044

CYHM;2009-11-27 10:15;CYHM 271015Z CCA 22007KT 8SM -SHRA FEW004 OVC009 RMK CF2SC6

CYHM;2009-11-27 10:34;CYHM 271034Z 25010KT 8SM -SHRA FEW008 BKN014 OVC022 RMK SF2SC4SC2

CYHM;2009-11-27 11:00;CYHM 271100Z 23008KT 8SM -SHRA FEW004 BKN008 OVC018 02/02 A2964 RMK CF2SC6SC1 SLP044

CYHM;2009-11-27 12:00;CYHM 271200Z 25008KT 10SM -SHRA FEW008 BKN012 OVC026 02/02 A2965 RMK SF2SC5SC2 TR CF ASOCTD SLP046

CYHM;2009-11-27 13:00;CYHM 271300Z 26008KT 15SM -SHRA BKN013 OVC018 02/02 A2965 RMK SC6SC2 SLP047

CYHM;2009-11-27 13:41;CYHM 271341Z 28012KT 15SM -DZ BKN009 OVC017 RMK SF5SC3 RERA

CYHM;2009-11-27 14:00;CYHM 271400Z 27010KT 15SM -DZ BKN011 OVC019 03/02 A2966 RMK SC6SC2 SLP050

CYHM;2009-11-27 14:35;CYHM 271435Z 28009KT 15SM BKN013 OVC019 RMK SC6SC2

CYHM;2009-11-27 15:00;CYHM 271500Z 28012KT 15SM BKN014 OVC018 03/02 A2967 RMK SC6SC2 SLP054

CYHM;2009-11-27 16:00;CYHM 271600Z 28012KT 15SM BKN013 OVC018 03/02 A2966 RMK SC6SC2 SLP052

CYHM;2009-11-27 16:54;CYHM 271654Z CCA 26012KT 15SM -SHRA BKN015 BKN020 RMK SC6SC2

CYHM;2009-11-27 17:00;CYHM 271700Z 28014KT 15SM -SHRA BKN017 BKN022 04/02 A2965 RMK SC6SC2 SLP050

CYHM;2009-11-27 17:41;CYHM 271741Z 26008KT 15SM BKN016 BKN023 OVC075 RMK SC6SC2AC1

CYHM;2009-11-27 18:00;CYHM 271800Z 27010KT 15SM BKN016 OVC022 04/02 A2965 RMK SC6SC2 SLP046

CYHM;2009-11-27 18:51;CYHM 271851Z 28010KT 15SM -SHRA BKN015 OVC020 RMK SC6SC2 CU ASOCTD

CYHM;2009-11-27 19:00;CYHM 271900Z 27010KT 15SM -SHRA BKN018 OVC023 04/02 A2965 RMK SC6SC2 CU ASOCTD SLP047

CYHM;2009-11-27 20:00;CYHM 272000Z 26009KT 15SM FEW007 BKN023 04/03 A2966 RMK CF2SC6 SLP051

CYHM;2009-11-27 21:00;CYHM 272100Z 28006KT 15SM FEW010 FEW038 SCT090 BKN140 04/03 A2967 RMK CF1SC2AC1AC2 TCU ASOCTD SW SLP056

CYHM;2009-11-27 21:23;CYHM 272123Z 34013KT 4SM -SHRA HZ FEW007 BKN032 RMK CF2SC6

CYHM;2009-11-27 22:00;CYHM 272200Z 35008KT 15SM SCT028 BKN089 04/03 A2970 RMK SC3AC4 SLP065

CYHM;2009-11-27 23:00;CYHM 272300Z 33008KT 15SM BKN043 BKN078 04/02 A2972 RMK SC6AC2 SLP071

CYHM;2009-11-28 00:00;CYHM 280000Z 31014KT 15SM OVC055 04/02 A2973 RMK SC8 SLP076

CYHM;2009-11-28 01:00;CYHM 280100Z 30013KT 15SM FEW055 OVC067 04/02 A2975 RMK SC2AC6 SLP083

CYHM;2009-11-28 02:00;CYHM 280200Z 31008KT 15SM FEW062 FEW220 04/01 A2976 RMK SC1CI1 TR SC SLP085

CYHM;2009-11-28 03:00;CYHM 280300Z 29007KT 15SM FEW210 03/01 A2979 RMK CI1 SLP095

CYHM;2009-11-28 04:00;CYHM 280400Z 29010KT 15SM FEW210 03/01 A2980 RMK CI1 SLP099

CYHM;2009-11-28 05:00;CYHM 280500Z 29008KT 15SM FEW200 03/01 A2980 RMK CI1 SLP100

CYHM;2009-11-28 06:00;CYHM 280600Z 26011KT 15SM FEW080 FEW200 02/00 A2981 RMK AC1CI1 SLP102

CYHM;2009-11-28 07:00;CYHM 280700Z 27009KT 15SM FEW210 02/00 A2982 RMK CI1 SLP106

CYHM;2009-11-28 08:00;CYHM 280800Z 26007KT 15SM FEW017 FEW210 02/01 A2982 RMK SC1CI1 TR CI SLP107

CYHM;2009-11-28 09:00;CYHM 280900Z 29010KT 15SM BKN015 02/01 A2984 RMK SC7 SLP111

CYHM;2009-11-28 10:00;CYHM 281000Z 28007KT 15SM BKN017 02/01 A2984 RMK SC5 SLP113

CYHM;2009-11-28 11:00;CYHM 281100Z 28013KT 15SM OVC019 03/01 A2986 RMK SC8 SLP120

CYHM;2009-11-28 12:00;CYHM 281200Z 26008KT 15SM BKN018 03/01 A2988 RMK SC7 SLP126

CYHM;2009-11-28 13:00;CYHM 281300Z 26008KT 15SM BKN014 03/01 A2988 RMK SC7 SLP126

CYHM;2009-11-28 14:00;CYHM 281400Z 25012G17KT 15SM OVC014 03/01 A2988 RMK SC8 SLP127

CYHM;2009-11-28 14:20;CYHM 281420Z 25012KT 15SM BKN016 RMK SC7

CYHM;2009-11-28 15:00;CYHM 281500Z 25010KT 15SM BKN016 03/01 A2990 RMK SC7 SLP132

CYHM;2009-11-28 16:00;CYHM 281600Z 25012KT 15SM BKN016 04/01 A2988 RMK SC7 SLP128

CYHM;2009-11-28 17:00;CYHM 281700Z 25012KT 15SM OVC016 04/01 A2987 RMK SC8 SLP122

CYHM;2009-11-28 18:00;CYHM 281800Z 23012KT 15SM OVC016 03/01 A2985 RMK SC8 SLP115

CYHM;2009-11-28 19:00;CYHM 281900Z 34012KT 15SM OVC016 03/01 A2985 RMK SC8 SLP116

CYHM;2009-11-28 20:00;CYHM 282000Z 23012KT 15SM OVC016 03/00 A2986 RMK SC8 SLP119

CYHM;2009-11-28 21:00;CYHM 282100Z 23011KT 15SM FEW016 BKN250 03/M01 A2985 RMK SC2CI1 SLP116

CYHM;2009-11-28 22:00;CYHM 282200Z 24004KT 15SM FEW015 BKN210 02/M01 A2985 RMK SC1CI2 CONTRAILS SLP117

CYHM;2009-11-28 23:00;CYHM 282300Z 21005KT 15SM FEW210 M00/M01 A2985 RMK CI1 SLP118

CYHM;2009-11-29 00:00;CYHM 290000Z 21007KT 15SM BKN210 M00/M01 A2984 RMK CI4 CONTRAILS SLP113

CYHM;2009-11-29 01:00;CYHM 290100Z 22006KT 15SM SCT210 M01/M01 A2984 RMK CI3 SLP113

CYHM;2009-11-29 02:00;CYHM 290200Z 24003KT 15SM FEW210 00/M00 A2984 RMK CI1 SLP112

CYHM;2009-11-29 03:00;CYHM 290300Z 00000KT 15SM FEW210 M01/M01 A2983 RMK CI2 SLP110

CYHM;2009-11-29 04:00;CYHM 290400Z 00000KT 15SM FEW210 M01/M01 A2983 RMK CI1 SLP109

CYHM;2009-11-29 05:00;CYHM 290500Z 11003KT 15SM FEW200 M01/M01 A2981 RMK CI1 FROIN SLP105

CYHM;2009-11-29 06:00;CYHM 290600Z 00000KT 15SM FEW220 M01/M01 A2980 RMK CI1 FROIN SLP101

CYHM;2009-11-29 07:00;CYHM 290700Z 00000KT 15SM FEW210 M01/M01 A2980 RMK CI1 FROIN SLP101

CYHM;2009-11-29 08:00;CYHM 290800Z 00000KT 15SM FEW210 M01/M01 A2980 RMK CI1 FROIN SLP100

CYHM;2009-11-29 09:00;CYHM 290900Z 00000KT 12SM FEW210 M01/M01 A2980 RMK CI1 FROIN SLP099

CYHM;2009-11-29 10:00;CYHM 291000Z 04005KT 8SM FEW210 M01/M01 A2979 RMK CI1 FROIN SLP096

CYHM;2009-11-29 11:00;CYHM 291100Z 03002KT 8SM FEW240 M01/M01 A2979 RMK CI1 CI TR FROIN SLP097

CYHM;2009-11-29 11:55;CYHM 291155Z 00000KT 3/4SM BR FEW220 RMK FG2CI1 CI TR

CYHM;2009-11-29 12:00;CYHM 291200Z 00000KT 3/4SM BR FEW220 M01/M01 A2978 RMK FG2CI1 CI TR FROIN SLP096

CYHM;2009-11-29 12:50;CYHM 291250Z CCA 00000KT 1/2SM FZFG SCT220 RMK FG2CI1 FROIN

CYHM;2009-11-29 13:00;CYHM 291300Z 00000KT 1/2SM FZFG SCT220 M00/M00 A2979 RMK FG2CI1 FROIN SLP097

CYHM;2009-11-29 13:22;CYHM 291322Z 00000KT 1SM BR SCT220 RMK FG1CI1

CYHM;2009-11-29 14:00;CYHM 291400Z 00000KT 3/8SM FZFG SCT220 M00/M00 A2979 RMK FG2CI1 FROIN SLP097

CYHM;2009-11-29 15:00;CYHM 291500Z 00000KT 3/4SM BR OVC015 00/00 A2978 RMK FG2SC6 SLP095

CYHM;2009-11-29 15:12;CYHM 291512Z 00000KT 1 1/2SM BR BKN018 RMK FG1SC6

CYHM;2009-11-29 16:00;CYHM 291600Z 00000KT 1 3/4SM BR BKN016 04/04 A2976 RMK FG1SC6 SLP087

CYHM;2009-11-29 17:00;CYHM 291700Z 20005KT 2 1/4SM BR OVC010 05/05 A2973 RMK SC8 SLP077

CYHM;2009-11-29 17:50;CYHM 291750Z 19006KT 3SM BR BKN012 RMK SC7

CYHM;2009-11-29 18:00;CYHM 291800Z 19006KT 3SM BR BKN012 08/07 A2970 RMK SC7 SLP063

CYHM;2009-11-29 18:34;CYHM 291834Z 20009KT 8SM FEW012 FEW068 OVC250 RMK SF1AC1CS6 SUN DMLY VSBL

CYHM;2009-11-29 19:00;CYHM 291900Z 20008KT 10SM FEW016 SCT070 OVC250 09/07 A2966 RMK SC2AC2CS3 SUN DMLY VSBL SLP051

CYHM;2009-11-29 20:00;CYHM 292000Z 20009KT 12SM FEW016 OVC062 09/07 A2976 RMK SC2SC6 SLP084

CYHM;2009-11-29 21:00;CYHM 292100Z 23008KT 8SM -SHRA BKN033 OVC057 09/07 A2965 RMK SC5SC3 SLP048

CYHM;2009-11-29 22:00;CYHM 292200Z 22012KT 7SM -SHRA SCT034 OVC046 08/07 A2962 RMK SC4SC4 SLP039

CYHM;2009-11-29 23:00;CYHM 292300Z 25008KT 8SM -SHRA FEW020 BKN032 OVC044 08/08 A2962 RMK SC1SC6SC2 SLP036

CYHM;2009-11-29 23:18;CYHM 292318Z 24010G15KT 200V270 4SM -SHRA BR BKN013 OVC032 RMK SC6SC2

CYHM;2009-11-29 23:46;CYHM 292346Z CCA 23013KT 5SM -SHRA BR FEW005 BKN014 OVC028 RMK CF2SC2SC3

CYHM;2009-11-30 00:00;CYHM 300000Z 24013KT 6SM -SHRA BR FEW006 BKN014 OVC034 08/08 A2963 RMK CF1SC4SC3 SLP042

CYHM;2009-11-30 01:00;CYHM 300100Z 27013KT 7SM -SHRA FEW007 BKN011 OVC092 07/07 A2962 RMK CF2SC4AC1 SLP039

CYHM;2009-11-30 01:51;CYHM 300151Z 25008KT 9SM FEW008 FEW014 BKN087 RMK CF1SC2AC5

CYHM;2009-11-30 02:00;CYHM 300200Z 26008KT 9SM FEW008 FEW014 SCT052 BKN087 06/06 A2963 RMK CF1SC1SC2AC4 SLP041

CYHM;2009-11-30 03:00;CYHM 300300Z 25007KT 8SM FEW009 BKN017 OVC047 06/06 A2964 RMK CF1SC6SC2 SLP043

CYHM;2009-11-30 04:00;CYHM 300400Z 27009KT 6SM -SHRA BR OVC011 05/05 A2963 RMK SC8 PCPN VRY LGT SLP042

CYHM;2009-11-30 05:00;CYHM 300500Z 26004KT 4SM -SHRA BR OVC010 05/05 A2963 RMK SC8 CIG RAG SLP041

CYHM;2009-11-30 05:28;CYHM 300528Z 28005KT 4SM -SHRA BR OVC009 RMK SC8

CYHM;2009-11-30 06:00;CYHM 300600Z 31006KT 7SM -SHRA FEW007 OVC030 05/05 A2964 RMK CF2SC6 SLP043

CYHM;2009-11-30 07:00;CYHM 300700Z 28005KT 8SM -SHRA OVC018 05/04 A2965 RMK SC8 SLP047

CYHM;2009-11-30 07:11;CYHM 300711Z 28006KT 10SM -SHRA OVC009 RMK SC8

CYHM;2009-11-30 08:00;CYHM 300800Z 32008KT 15SM -SHRA FEW013 OVC033 04/03 A2968 RMK CF2SC6 SLP056

CYHM;2009-11-30 09:00;CYHM 300900Z 31011KT 15SM BKN022 03/02 A2970 RMK SC7 CF ASOCTD SLP062

CYHM;2009-11-30 10:00;CYHM 301000Z 30005KT 15SM FEW023 OVC035 03/01 A2971 RMK CF2SC6 SLP068

CYHM;2009-11-30 11:00;CYHM 301100Z 29007KT 15SM FEW020 BKN035 02/01 A2973 RMK CF1SC6 SLP074

CYHM;2009-11-30 12:00;CYHM 301200Z 29003KT 15SM FEW024 BKN043 02/01 A2976 RMK CU1SC6 SLP085

CYHM;2009-11-30 13:00;CYHM 301300Z 29005KT 15SM FEW025 BKN043 03/01 A2978 RMK CU1SC6 SLP090

CYHM;2009-11-30 14:00;CYHM 301400Z 32008KT 15SM FEW025 BKN047 02/00 A2979 RMK CU1SC6 SLP095

CYHM;2009-11-30 15:00;CYHM 301500Z 35007KT 15SM FEW032 SCT048 03/M01 A2981 RMK CU2SC2 SLP103

CYHM;2009-11-30 16:00;CYHM 301600Z 34008KT 15SM FEW032 BKN046 04/M03 A2981 RMK CU2SC5 SLP102

CYHM;2009-11-30 17:00;CYHM 301700Z 32008KT 15SM FEW035 BKN043 03/M03 A2980 RMK CU2SC6 SLP098

CYHM;2009-11-30 18:00;CYHM 301800Z 32008KT 15SM FEW028 BKN035 BKN042 04/M03 A2980 RMK CU1SC5SC2 SLP097

CYHM;2009-11-30 19:00;CYHM 301900Z 29007KT 15SM OVC048 03/M03 A2980 RMK SC8 SF ASOCTD SLP099

CYHM;2009-11-30 20:00;CYHM 302000Z 31009KT 15SM OVC040 03/M03 A2981 RMK SC8 SF ASOCTD SLP100

CYHM;2009-11-30 21:00;CYHM 302100Z 26002KT 15SM OVC045 03/M03 A2981 RMK SC8 SLP103

CYHM;2009-11-30 22:00;CYHM 302200Z 00000KT 15SM OVC053 02/M02 A2983 RMK SC8 SF ASOCTD SLP108

CYHM;2009-11-30 23:00;CYHM 302300Z 24004KT 15SM OVC048 02/M02 A2983 RMK SC8 SLP110

CYHM;2009-12-01 01:00;CYHM 010100Z 24005KT 15SM OVC053 02/M01 A2984 RMK SC8 SLP113

CYHM;2009-12-01 02:00;CYHM 010200Z 23006KT 15SM OVC054 02/M01 A2983 RMK SC8 SLP110

CYHM;2009-12-01 03:00;CYHM 010300Z 22009KT 15SM BKN054 02/M02 A2982 RMK SC7 SLP105

CYHM;2009-12-01 04:00;CYHM 010400Z 20008KT 15SM OVC054 01/M03 A2981 RMK SC8 SLP103

CYHM;2009-12-01 05:00;CYHM 010500Z 21011KT 15SM FEW060 OVC072 02/M04 A2979 RMK SC2AC6 SLP095

CYHM;2009-12-01 06:00;CYHM 010600Z 22014KT 5SM -SHSN FEW026 OVC040 01/M02 A2977 RMK SF2SC6 SLP089

CYHM;2009-12-01 07:00;CYHM 010700Z 25018G25KT 12SM -SHSN BKN022 OVC060 02/M02 A2976 RMK SC5SC3 SF ASOCTD SLP086

CYHM;2009-12-01 08:00;CYHM 010800Z 23014G20KT 4SM -SHSN BKN014 OVC022 01/M01 A2974 RMK SC6SC2 SF ASOCTD SLP079

CYHM;2009-12-01 09:00;CYHM 010900Z 23015G22KT 9SM -SHSN BKN012 OVC024 01/00 A2972 RMK SC5SC3 SF ASOCTD SLP072

CYHM;2009-12-01 10:00;CYHM 011000Z 24015G22KT 12SM -SHSN SCT014 OVC026 02/M00 A2972 RMK SF3SC5 SLP074

CYHM;2009-12-01 10:24;CYHM 011024Z 24014KT 15SM FEW018 BKN040 RMK SF2SC2

CYHM;2009-12-01 11:00;CYHM 011100Z 24014G20KT 15SM FEW022 FEW240 01/M01 A2973 RMK SC1CI0 CI TR SLP075

CYHM;2009-12-01 12:00;CYHM 011200Z 25014G19KT 15SM FEW060 FEW210 02/M01 A2976 RMK SC1CI1 SLP085

CYHM;2009-12-01 13:00;CYHM 011300Z 25020G25KT 15SM FEW018 SCT030 02/M01 A2978 RMK CU2SC2 SLP092

CYHM;2009-12-01 14:00;CYHM 011400Z 24015G20KT 15SM FEW030 03/M00 A2981 RMK SC1 SLP101

CYHM;2009-12-01 15:00;CYHM 011500Z 24020G25KT 15SM FEW020 FEW032 BKN055 04/01 A2985 RMK CU1SC2SC2 SLP115

CYHM;2009-12-01 16:00;CYHM 011600Z 25018KT 15SM FEW022 FEW055 FEW210 05/01 A2987 RMK CU1SC1CI1 SLP121

CYHM;2009-12-01 17:00;CYHM 011700Z 26014G20KT 15SM FEW025 SCT040 BKN210 06/00 A2987 RMK CU2SC1CI1 SLP123

CYHM;2009-12-01 18:00;CYHM 011800Z 26015G20KT 15SM FEW020 BKN032 BKN210 06/M00 A2987 RMK CU2SC3CI1 SLP122

CYHM;2009-12-01 19:00;CYHM 011900Z 24015KT 15SM FEW030 SCT040 BKN250 06/M00 A2988 RMK SF1SC3CI1 SLP124

CYHM;2009-12-01 20:00;CYHM 012000Z 25010KT 15SM SCT036 SCT120 06/M00 A2988 RMK SC4AC1 AC TR CU ASOCTD SLP125

CYHM;2009-12-01 21:00;CYHM 012100Z 24012KT 15SM FEW036 FEW250 06/M00 A2989 RMK SC2CI1 CI TR CU ASOCTD SLP128

CYHM;2009-12-01 22:00;CYHM 012200Z 23005KT 15SM FEW034 SCT062 BKN250 04/00 A2992 RMK SC2SC2CI1 SLP140

CYHM;2009-12-01 23:00;CYHM 012300Z 21007KT 15SM FEW034 FEW084 FEW250 03/01 A2994 RMK SC2AC1CI1 AC TR CI TR SLP145

CYHM;2009-12-02 00:00;CYHM 020000Z 20004KT 15SM BKN030 04/02 A2994 RMK SC7 SLP146

CYHM;2009-12-02 01:00;CYHM 020100Z 20005KT 15SM FEW250 03/01 A2995 RMK CI1 CI TR SLP149

CYHM;2009-12-02 02:00;CYHM 020200Z 18005KT 15SM FEW250 03/02 A2996 RMK CI1 CI TR SLP152

CYHM;2009-12-02 03:00;CYHM 020300Z 17004KT 12SM FEW024 SCT250 03/02 A2994 RMK SC1CI0 SLP148

CYHM;2009-12-02 04:00;CYHM 020400Z 17004KT 12SM FEW250 03/02 A2994 RMK CI1 CI TR SLP145

CYHM;2009-12-02 05:00;CYHM 020500Z 18007KT 15SM FEW250 03/02 A2994 RMK CI1 CI TR SLP145

CYHM;2009-12-02 06:00;CYHM 020600Z 20008KT 15SM FEW250 03/02 A2994 RMK CI1 CI TR SLP144

CYHM;2009-12-02 07:00;CYHM 020700Z 20009KT 15SM FEW250 04/03 A2995 RMK CI1 SLP148

CYHM;2009-12-02 08:00;CYHM 020800Z 20009KT 15SM FEW250 04/03 A2995 RMK CI1 CI TR SLP148

CYHM;2009-12-02 09:00;CYHM 020900Z 20010KT 15SM SKC 04/03 A2994 RMK SLP145

CYHM;2009-12-02 10:00;CYHM 021000Z 20010KT 15SM FEW250 04/03 A2992 RMK CI1 CI TR SLP138

CYHM;2009-12-02 11:00;CYHM 021100Z 21007KT 15SM FEW050 FEW240 03/02 A2991 RMK SC1CI1 SC TR CI TR SLP135

CYHM;2009-12-02 12:00;CYHM 021200Z 19007KT 15SM FEW220 03/02 A2991 RMK CI2 SLP138

CYHM;2009-12-02 13:00;CYHM 021300Z 20006KT 15SM FEW045 FEW140 BKN210 03/02 A2993 RMK SC1AC1CI5 SC TR CONTRAIL SLP142

CYHM;2009-12-02 14:00;CYHM 021400Z 18002KT 15SM FEW140 BKN210 04/02 A2991 RMK AC2CI6 SLP137

CYHM;2009-12-02 15:00;CYHM 021500Z 18003KT 15SM BKN210 05/03 A2988 RMK CI7 SLP126

CYHM;2009-12-02 16:00;CYHM 021600Z 20005KT 15SM FEW170 BKN220 07/04 A2986 RMK AC1CI3 SLP120

CYHM;2009-12-02 17:00;CYHM 021700Z 21005KT 15SM BKN220 09/04 A2984 RMK CI3 SLP113

CYHM;2009-12-02 18:00;CYHM 021800Z 20008KT 15SM FEW160 BKN220 10/03 A2982 RMK AC2CI3 SLP104

CYHM;2009-12-02 19:00;CYHM 021900Z 20008KT 15SM FEW160 OVC220 11/02 A2980 RMK AC2CI5 SLP098

CYHM;2009-12-02 20:00;CYHM 022000Z 16006KT 15SM BKN160 OVC230 09/02 A2978 RMK AC7CI1 SLP090

CYHM;2009-12-02 21:00;CYHM 022100Z 16005KT 15SM FEW080 OVC120 08/02 A2975 RMK AC1AC7 SLP081

CYHM;2009-12-02 22:00;CYHM 022200Z 14004KT 15SM -SHRA BKN065 OVC085 07/04 A2972 RMK SC6AC2 PCPN VRY LGT SLP071

CYHM;2009-12-02 23:00;CYHM 022300Z CCA 12008KT 12SM -SHRA OVC049 07/04 A2969 RMK SC8 SLP059

CYHM;2009-12-03 00:00;CYHM 030000Z CCA 06008KT 8SM -SHRA FEW026 OVC049 06/05 A2963 RMK SC2SC6 PRESFR SLP040

CYHM;2009-12-03 01:00;CYHM 030100Z 05011KT 8SM -SHRA BKN019 OVC041 06/05 A2956 RMK SC6SC2 PRESFR SLP018

CYHM;2009-12-03 01:18;CYHM 030118Z 05011KT 030V110 8SM -SHRA OVC013 RMK SC8

CYHM;2009-12-03 02:00;CYHM 030200Z 05016KT 3SM -SHRA BR BKN003 OVC011 06/06 A2949 RMK SF6SC2 PRESFR SLP995

CYHM;2009-12-03 02:27;CYHM 030227Z 05016KT 2 1/2SM -RA BR OVC002 RMK SF8

CYHM;2009-12-03 03:00;CYHM 030300Z 06016KT 2SM -RA BR OVC002 07/07 A2942 RMK FG1SF7 PRESFR SLP969

CYHM;2009-12-03 04:00;CYHM 030400Z 06017G23KT 3SM -RA BR OVC005 07/07 A2938 RMK SF8 VIS VRB 2 - 4 PRESFR SLP955

CYHM;2009-12-03 04:19;CYHM 030419Z 06015G20KT 2SM RA BR OVC004 RMK FG1SF7

CYHM;2009-12-03 05:00;CYHM 030500Z 06017KT 2 1/2SM -RA BR OVC003 06/06 A2934 RERA RMK SF8 SLP942

CYHM;2009-12-03 06:00;CYHM 030600Z 06017KT 2 1/2SM -RA BR OVC003 06/06 A2929 RMK SF8 /R16/ PRESFR SLP924

CYHM;2009-12-03 07:00;CYHM 030700Z 06014KT 2SM -RA BR OVC002 06/06 A2925 RMK FG1SF7 SLP910

CYHM;2009-12-03 08:00;CYHM 030800Z 06009KT 1 1/2SM -RA BR OVC002 07/07 A2923 RMK FG2SF6 VIS VRB 1 - 2 SLP904

CYHM;2009-12-03 09:00;CYHM 030900Z 05007KT 1 1/2SM -RA BR OVC002 07/07 A2921 RMK FG2SF6 VIS VRB 1 - 2 SLP894

CYHM;2009-12-03 10:00;CYHM 031000Z 02003KT 1/2SM -RA FG OVC002 07/07 A2921 RMK FG4SF4 SLP896

CYHM;2009-12-03 10:21;CYHM 031021Z 01003KT 3/4SM -RA BR OVC002 RMK FG3SF5 VIS VRB 1/2 - 1

CYHM;2009-12-03 11:00;CYHM 031100Z 34002KT 1 1/2SM -RA BR FEW003 OVC007 07/07 A2924 RMK FG2SF1SF6 VIS VRB 1 - 2 SLP906

CYHM;2009-12-03 11:26;CYHM 031126Z 30005KT 2SM -RA BR BKN003 OVC010 RMK FG1SF6SC2

CYHM;2009-12-03 12:00;CYHM 031200Z 32008KT 5SM -RA BR BKN006 OVC012 07/07 A2927 RMK SF6SC2 SLP918

CYHM;2009-12-03 13:00;CYHM 031300Z 32008KT 7SM -RA OVC023 06/06 A2933 RMK SC8 CU ASOCTD SLP938

CYHM;2009-12-03 13:54;CYHM 031354Z 28012KT 15SM FEW023 BKN062 RMK CU2SC5

CYHM;2009-12-03 14:00;CYHM 031400Z 28008KT 15SM FEW010 FEW025 BKN060 06/06 A2939 RMK CF1SC2SC5 SLP955

CYHM;2009-12-03 15:00;CYHM 031500Z 32010G15KT 15SM OVC014 06/05 A2946 RMK SC8 SLP983

CYHM;2009-12-03 16:00;CYHM 031600Z 28014KT 15SM BKN018 OVC023 06/04 A2953 RMK SC6SC2 SLP006

CYHM;2009-12-03 17:00;CYHM 031700Z 29010KT 15SM BKN020 BKN032 06/04 A2957 RMK SC6SC2 CU ASOCTD SLP018

CYHM;2009-12-03 18:00;CYHM 031800Z 29012G18KT 15SM BKN019 OVC026 06/04 A2961 RMK SC6SC2 CU ASOCTD SLP032

CYHM;2009-12-03 19:00;CYHM 031900Z 26016G23KT 15SM BKN013 OVC021 06/04 A2966 RMK SC7SC1 SLP048

CYHM;2009-12-03 19:41;CYHM 031941Z 27012KT 15SM BKN016 OVC022 RMK SC6SC2 CU ASOCTD

CYHM;2009-12-03 20:00;CYHM 032000Z 27013KT 240V330 15SM BKN017 OVC022 06/04 A2970 RMK SC6SC2 SLP063

CYHM;2009-12-03 21:00;CYHM 032100Z 27011KT 15SM BKN017 OVC023 05/03 A2975 RMK SC6SC2 SLP078

CYHM;2009-12-03 22:00;CYHM 032200Z 27012KT 15SM FEW017 BKN023 BKN065 04/02 A2978 RMK CU1SC5SC2 CU TR SLP088

CYHM;2009-12-03 23:00;CYHM 032300Z 26015KT 15SM FEW016 OVC024 04/01 A2982 RMK CU2SC6 SLP102

CYHM;2009-12-04 00:00;CYHM 040000Z 26012KT 15SM FEW016 BKN032 OVC039 04/02 A2985 RMK CU2SC4SC2 SLP116

CYHM;2009-12-04 01:00;CYHM 040100Z 26011KT 15SM -SHRA BKN016 BKN027 OVC042 03/02 A2988 RMK CU5SC2SC2 PCPN VRY LGT SLP124

CYHM;2009-12-04 01:42;CYHM 040142Z 25008KT 15SM FEW016 FEW027 BKN048 RMK CU1SC1SC6

CYHM;2009-12-04 02:00;CYHM 040200Z 25009KT 15SM FEW027 BKN048 03/00 A2989 RMK SC1SC6 SLP127

CYHM;2009-12-04 03:00;CYHM 040300Z 25009KT 15SM FEW048 01/M01 A2989 RMK SC1 SLP130

CYHM;2009-12-04 04:00;CYHM 040400Z 22006KT 15SM FEW065 00/M01 A2991 RMK SC1 SLP135

CYHM;2009-12-04 05:00;CYHM 040500Z 23006KT 15SM FEW065 M01/M02 A2992 RMK SC1 SLP139

CYHM;2009-12-04 06:00;CYHM 040600Z 20005KT 15SM SCT071 M01/M01 A2991 RMK AC2 SLP138

CYHM;2009-12-04 07:00;CYHM 040700Z 21006KT 15SM BKN078 M02/M02 A2993 RMK AC5 SLP143

CYHM;2009-12-04 08:00;CYHM 040800Z 22008KT 15SM BKN056 OVC072 00/M01 A2994 RMK SC6AC2 SLP148

CYHM;2009-12-04 09:00;CYHM 040900Z 23006KT 15SM OVC043 01/M00 A2996 RMK SC8 SLP152

CYHM;2009-12-04 10:00;CYHM 041000Z 25011KT 15SM BKN065 01/M01 A2995 RMK SC7 SLP151

CYHM;2009-12-04 11:00;CYHM 041100Z 24011KT 15SM BKN055 01/M02 A2997 RMK SC7 SLP155

CYHM;2009-12-04 12:00;CYHM 041200Z 24014KT 15SM SCT054 01/M02 A2999 RMK SC4 SLP164

CYHM;2009-12-04 13:00;CYHM 041300Z 25012KT 15SM FEW055 FEW220 M00/M04 A3001 RMK SC2CI0 CI TR SLP169

CYHM;2009-12-04 14:00;CYHM 041400Z 25012KT 15SM FEW060 M00/M04 A3003 RMK SC1 SLP176

CYHM;2009-12-04 15:00;CYHM 041500Z 25014G19KT 15SM FEW025 FEW070 00/M04 A3005 RMK CU1AC1 CU TR SLP184

CYHM;2009-12-04 16:00;CYHM 041600Z 24014KT 15SM FEW025 FEW045 FEW075 01/M06 A3006 RMK CU1SC1AC1 CU TR SLP187

CYHM;2009-12-04 17:00;CYHM 041700Z 26020G28KT 15SM FEW028 FEW042 01/M08 A3005 RMK CU1SC1 SLP185

CYHM;2009-12-04 18:00;CYHM 041800Z 25018G23KT 15SM FEW035 FEW042 FEW100 01/M09 A3005 RMK CU1SC1AC1 SLP185

CYHM;2009-12-04 19:00;CYHM 041900Z 25015G20KT 15SM FEW032 SCT045 01/M08 A3005 RMK CU2SC2 SLP186

CYHM;2009-12-04 20:00;CYHM 042000Z 25016KT 15SM BKN047 00/M07 A3007 RMK SC6 CU ASOCTD SLP191

CYHM;2009-12-04 21:00;CYHM 042100Z 25013KT 15SM BKN050 00/M06 A3010 RMK SC7 CU ASOCTD SLP201

CYHM;2009-12-04 22:00;CYHM 042200Z 26009KT 15SM BKN043 M01/M07 A3012 RMK SC6 SLP208

CYHM;2009-12-04 23:00;CYHM 042300Z 24008KT 15SM FEW038 BKN052 M01/M06 A3012 RMK CF2SC6 SLP210

CYHM;2009-12-05 00:00;CYHM 050000Z 25009KT 15SM BKN049 M01/M07 A3012 RMK SC5 SLP211

CYHM;2009-12-05 01:00;CYHM 050100Z 23009KT 15SM BKN048 M02/M07 A3013 RMK SC5 SLP215

CYHM;2009-12-05 02:00;CYHM 050200Z 23006KT 15SM FEW046 BKN210 M03/M07 A3014 RMK SC1CI3 SLP216

CYHM;2009-12-05 03:00;CYHM 050300Z 25005KT 15SM BKN200 M03/M07 A3013 RMK CI3 SLP213

CYHM;2009-12-05 04:00;CYHM 050400Z 26005KT 15SM SKC M03/M07 A3013 RMK FROIN SLP216

CYHM;2009-12-05 05:00;CYHM 050500Z 25002KT 15SM SCT047 M04/M07 A3014 RMK SC4 FROIN SLP218

CYHM;2009-12-05 06:00;CYHM 050600Z 20004KT 15SM SCT048 BKN170 M04/M06 A3016 RMK SC4AC1 FROIN SLP223

CYHM;2009-12-05 07:00;CYHM 050700Z 23002KT 15SM FEW040 BKN055 BKN200 M04/M06 A3017 RMK CF1SC4CI1 FROIN SLP226

CYHM;2009-12-05 08:00;CYHM 050800Z 25003KT 15SM FEW170 BKN250 M04/M06 A3016 RMK AC1CS4 FROIN HALO SLP224

CYHM;2009-12-05 09:00;CYHM 050900Z 00000KT 15SM FEW170 BKN220 M05/M07 A3015 RMK AC2CS3 FROIN HALO SLP222

CYHM;2009-12-05 10:00;CYHM 051000Z 00000KT 15SM BKN200 M05/M06 A3013 RMK CS6 FROIN HALO SLP216

CYHM;2009-12-05 11:00;CYHM 051100Z 00000KT 15SM BKN220 M05/M07 A3013 RMK CS3 FROIN HALO SLP216

CYHM;2009-12-05 12:00;CYHM 051200Z 25003KT 15SM FEW160 BKN210 M05/M07 A3014 RMK AC2CI2 SLP220

CYHM;2009-12-05 13:00;CYHM 051300Z 00000KT 12SM SCT170 BKN220 M05/M07 A3013 RMK AC2CI2 SLP214

CYHM;2009-12-05 14:00;CYHM 051400Z 00000KT 10SM FEW170 BKN230 M04/M06 A3013 RMK AC2CI4 SLP215

CYHM;2009-12-05 15:00;CYHM 051500Z 00000KT 10SM BKN250 M03/M07 A3013 RMK CI6 SLP216

CYHM;2009-12-05 16:00;CYHM 051600Z 00000KT 10SM BKN250 M02/M07 A3013 RMK CI5 SLP214

CYHM;2009-12-05 17:00;CYHM 051700Z 00000KT 10SM FEW030 BKN250 M01/M07 A3010 RMK SC1CI5 SLP205

CYHM;2009-12-05 18:00;CYHM 051800Z 00000KT 12SM FEW030 SCT170 BKN250 M01/M08 A3008 RMK SC1AC4CI3 SLP199

CYHM;2009-12-05 19:00;CYHM 051900Z 28003KT 12SM FEW170 BKN250 M01/M07 A3007 RMK AC2CI3 SLP196

CYHM;2009-12-05 20:00;CYHM 052000Z 28004KT 15SM FEW035 SCT250 M00/M08 A3007 RMK SC1CI2 SLP195

CYHM;2009-12-05 21:00;CYHM 052100Z 30005KT 15SM FEW035 FEW250 M01/M08 A3007 RMK SC1CI1 SC TR SLP195

CYHM;2009-12-05 22:00;CYHM 052200Z 28003KT 15SM FEW150 M02/M09 A3008 RMK AC1 SLP199

CYHM;2009-12-05 23:00;CYHM 052300Z 30002KT 15SM BKN046 M02/M07 A3009 RMK SC7 SLP200

CYHM;2009-12-06 00:00;CYHM 060000Z 31004KT 15SM BKN045 M02/M08 A3009 RMK SC7 SLP203

CYHM;2009-12-06 01:00;CYHM 060100Z 30004KT 15SM BKN052 M02/M07 A3010 RMK SC7 SLP204

CYHM;2009-12-06 02:00;CYHM 060200Z 29004KT 15SM BKN049 M02/M07 A3010 RMK SC7 SLP204

CYHM;2009-12-06 03:00;CYHM 060300Z 27007KT 15SM BKN046 M03/M07 A3010 RMK SC7 SLP205

CYHM;2009-12-06 04:00;CYHM 060400Z 28005KT 15SM FEW045 M04/M09 A3011 RMK SC2 SLP209

CYHM;2009-12-06 05:00;CYHM 060500Z 25005KT 15SM BKN048 M04/M08 A3012 RMK SC5 SLP210

CYHM;2009-12-06 06:00;CYHM 060600Z 25007KT 15SM SCT046 M05/M08 A3011 RMK SC4 SLP208

CYHM;2009-12-06 07:00;CYHM 060700Z 25009KT 15SM BKN047 M04/M07 A3014 RMK SC7 SLP217

CYHM;2009-12-06 08:00;CYHM 060800Z 24007KT 12SM -SHSN BKN047 M03/M07 A3014 RMK SC7 SLP219

CYHM;2009-12-06 09:00;CYHM 060900Z 24010KT 12SM -SHSN OVC045 M03/M07 A3015 RMK SC8 SLP220

CYHM;2009-12-06 10:00;CYHM 061000Z 25008KT 10SM -SHSN OVC046 M03/M08 A3017 RMK SC8 SLP226

CYHM;2009-12-06 11:00;CYHM 061100Z 25010KT 12SM -SHSN BKN050 M03/M07 A3018 RMK SC7 SLP231

CYHM;2009-12-06 11:45;CYHM 061145Z 23009KT 15SM FEW046 BKN160 RMK SC1AC2

CYHM;2009-12-06 12:00;CYHM 061200Z 24009KT 15SM FEW046 BKN160 M04/M07 A3020 RMK SC1AC2 SLP237

CYHM;2009-12-06 13:00;CYHM 061300Z 23008KT 8SM FEW150 FEW250 M04/M07 A3021 RMK AC1CI1 CI TR HAZY SLP242

CYHM;2009-12-06 14:00;CYHM 061400Z 23008KT 12SM FEW150 M03/M06 A3023 RMK AC1 AC TR SLP249

CYHM;2009-12-06 15:00;CYHM 061500Z 23011KT 15SM FEW150 M01/M06 A3025 RMK AC1 AC TR SLP255

CYHM;2009-12-06 16:00;CYHM 061600Z 25015KT 15SM FEW140 M00/M07 A3026 RMK AC1 AC TR SLP259

CYHM;2009-12-06 17:00;CYHM 061700Z 24015G21KT 15SM FEW030 01/M07 A3024 RMK CU1 CU TR SLP253

CYHM;2009-12-06 18:00;CYHM 061800Z 23015KT 15SM FEW030 FEW250 01/M06 A3020 RMK CU1CI1 CU TR CI TR SLP239

CYHM;2009-12-06 19:00;CYHM 061900Z 23013KT 15SM FEW032 FEW250 02/M06 A3019 RMK CU1CI1 CU TR CI TR SLP235

CYHM;2009-12-06 20:00;CYHM 062000Z 24015KT 15SM BKN037 02/M05 A3019 RMK SC5 CU ASOCTD SLP235

CYHM;2009-12-06 21:00;CYHM 062100Z 23013KT 15SM FEW034 01/M05 A3020 RMK CU1 SLP237

CYHM;2009-12-06 22:00;CYHM 062200Z 23010KT 15SM FEW250 M00/M05 A3021 RMK CI1 SLP241

CYHM;2009-12-06 23:00;CYHM 062300Z 23010KT 15SM FEW250 M01/M04 A3021 RMK CI0 SLP242

CYHM;2009-12-07 00:00;CYHM 070000Z 22010KT 15SM SKC M01/M04 A3022 RMK SLP246

CYHM;2009-12-07 01:00;CYHM 070100Z 23007KT 15SM BKN069 M02/M04 A3023 RMK AC3 SLP247

CYHM;2009-12-07 02:00;CYHM 070200Z 24006KT 15SM BKN071 M01/M04 A3023 RMK AC6 SLP249

CYHM;2009-12-07 03:00;CYHM 070300Z 22004KT 15SM BKN070 M02/M04 A3023 RMK AC7 SLP249

CYHM;2009-12-07 04:00;CYHM 070400Z 22006KT 15SM OVC068 M02/M04 A3024 RMK AC8 SLP251

CYHM;2009-12-07 05:00;CYHM 070500Z 23005KT 15SM FEW030 SCT059 SCT150 M01/M04 A3023 RMK SC2SC2AC1 SLP247

CYHM;2009-12-07 06:00;CYHM 070600Z 21005KT 15SM FEW210 M02/M04 A3020 RMK CI2 SLP238

CYHM;2009-12-07 07:00;CYHM 070700Z 20006KT 15SM BKN033 M02/M04 A3020 RMK SC6 SLP239

CYHM;2009-12-07 08:00;CYHM 070800Z CCA 24003KT 15SM FEW025 OVC150 M02/M04 A3020 RMK SC2AS6 FROIN SLP238

CYHM;2009-12-07 09:00;CYHM 070900Z 22004KT 15SM BKN027 BKN170 M02/M04 A3020 RMK SC6AC2 FROIN SLP236

CYHM;2009-12-07 10:00;CYHM 071000Z 22004KT 15SM OVC026 M02/M03 A3019 RMK SC8 FROIN SLP234

CYHM;2009-12-07 11:00;CYHM 071100Z 22004KT 15SM OVC024 M01/M03 A3019 RMK SC8 SLP233

CYHM;2009-12-07 12:00;CYHM 071200Z 22002KT 15SM SCT024 OVC110 M01/M03 A3017 RMK SC3AC5 SLP229

CYHM;2009-12-07 13:00;CYHM 071300Z 00000KT 15SM OVC120 M01/M04 A3015 RMK AC8 SLP221

CYHM;2009-12-07 14:00;CYHM 071400Z 00000KT 15SM OVC080 M02/M03 A3014 RMK AC8 SLP217

CYHM;2009-12-07 15:00;CYHM 071500Z 00000KT 15SM BKN068 OVC080 M01/M03 A3014 RMK AC6AC2 SLP219

CYHM;2009-12-07 16:00;CYHM 071600Z 22002KT 15SM BKN060 OVC070 00/M03 A3012 RMK SC6AC2 SLP210

CYHM;2009-12-07 17:00;CYHM 071700Z 15004KT 10SM BKN020 OVC035 01/M02 A3008 RMK SC6SC2 SLP199

CYHM;2009-12-07 17:02;CYHM 071702Z 20004KT 6SM -SHSN BKN018 OVC032 RMK SC6SC2

CYHM;2009-12-07 17:39;CYHM 071739Z 24002KT 2SM -SHSN BKN015 OVC025 RMK SC6SC2

CYHM;2009-12-07 17:54;CYHM 071754Z 23002KT 2 1/2SM -SN BKN007 OVC018 RMK SF5SC3

CYHM;2009-12-07 18:00;CYHM 071800Z 23002KT 2SM -SN BKN007 OVC018 M00/M01 A3006 RMK SF5SC3 CIG RAG SLP190

CYHM;2009-12-07 18:52;CYHM 071852Z 00000KT 1SM -SN BKN007 OVC018 RMK SN1SF6SC1

CYHM;2009-12-07 19:00;CYHM 071900Z 00000KT 3/4SM -SN BKN008 OVC022 M00/M01 A3005 RMK SN2SF5SC2 SLP188

CYHM;2009-12-07 19:12;CYHM 071912Z 00000KT 1 1/4SM -SN FEW008 BKN018 OVC038 RMK SN1SF2SC5SC1

CYHM;2009-12-07 19:50;CYHM 071950Z 23006KT 1 1/4SM -SN BKN008 OVC026 RMK SN2SF4SC2

CYHM;2009-12-07 20:00;CYHM 072000Z 23006KT 1 1/4SM -SN BKN008 OVC026 M00/M00 A3007 RMK SN2SF4SC2 SLP194

CYHM;2009-12-07 21:00;CYHM 072100Z 22005KT 2SM -SN BKN007 OVC022 M00/M01 A3008 RMK SN1SF6SC2 SLP198

CYHM;2009-12-07 21:43;CYHM 072143Z 24003KT 2SM -SN FEW006 BKN030 OVC042 RMK SF2SC5SC1

CYHM;2009-12-07 22:00;CYHM 072200Z 24004KT 2SM -SN SCT006 OVC025 M01/M01 A3010 RMK SN2SF2SC3 SLP203

CYHM;2009-12-07 22:33;CYHM 072233Z 24003KT 4SM -SN BKN005 OVC018 RMK SF6SC2

CYHM;2009-12-07 23:00;CYHM 072300Z 24006KT 6SM -SN BKN009 BKN110 M01/M01 A3011 RMK SF5AC1 SLP207

CYHM;2009-12-07 23:26;CYHM 072326Z 24005KT 6SM BR FEW006 SCT100 BKN130 RMK SF1AC1AC1

CYHM;2009-12-07 23:52;CYHM 072352Z CCA 25007KT 7SM -SHSN FEW017 BKN120 RMK SC2AC5

CYHM;2009-12-08 00:00;CYHM 080000Z 25006KT 7SM -SHSN FEW017 BKN120 M01/M02 A3013 RMK SC2AC5 SLP213

CYHM;2009-12-08 01:00;CYHM 080100Z 26004KT 8SM -SHSN FEW030 SCT110 M02/M03 A3013 RMK SC1AC2 SLP216

CYHM;2009-12-08 02:00;CYHM 080200Z 25006KT 7SM -SHSN BKN095 M02/M03 A3015 RMK AC6 SLP221

CYHM;2009-12-08 03:00;CYHM 080300Z 24008KT 7SM -SHSN SCT098 M03/M04 A3016 RMK AC2 SLP223

CYHM;2009-12-08 04:00;CYHM 080400Z 24008KT 7SM -SHSN FEW042 SCT210 M02/M03 A3017 RMK SC2CI1 SLP228

CYHM;2009-12-08 05:00;CYHM 080500Z 25008KT 6SM -SHSN BKN048 M02/M03 A3018 RMK SC6 SLP231

CYHM;2009-12-08 06:00;CYHM 080600Z 24010KT 7SM -SHSN SCT036 M02/M03 A3019 RMK SC3 SLP233

CYHM;2009-12-08 07:00;CYHM 080700Z 26006KT 8SM FEW015 BKN045 M02/M03 A3022 RMK SC2SC4 SLP244

CYHM;2009-12-08 08:00;CYHM 080800Z 24005KT 10SM SCT013 BKN022 M01/M03 A3024 RMK SC4SC3 SLP251

CYHM;2009-12-08 09:00;CYHM 080900Z 25003KT 8SM -SHSN OVC016 M01/M02 A3025 RMK SC8 SLP255

CYHM;2009-12-08 10:00;CYHM 081000Z 24003KT 10SM -SHSN BKN020 BKN046 M01/M02 A3027 RMK SC6SC2 SLP261

CYHM;2009-12-08 11:00;CYHM 081100Z 00000KT 10SM -SHSN FEW020 BKN026 M02/M03 A3029 RMK SC2SC5 SLP266

CYHM;2009-12-08 11:07;CYHM 081107Z 00000KT 10SM FEW022 BKN031 RMK SC2SC6

CYHM;2009-12-08 12:00;CYHM 081200Z 05004KT 15SM FEW030 SCT220 M03/M04 A3029 RMK SC2CI1 SLP269

CYHM;2009-12-08 12:15;CYHM 081215Z 08004KT 15SM FEW008 BKN012 BKN220 RMK SF2SC3CI1 CONTRAIL

CYHM;2009-12-08 13:00;CYHM 081300Z 14002KT 15SM SCT015 BKN028 BKN220 M03/M04 A3031 RMK SC3SC2CI1 SLP275

CYHM;2009-12-08 14:00;CYHM 081400Z 00000KT 15SM FEW030 FEW220 M01/M03 A3033 RMK SC1CI1 CONTRAIL SLP282

CYHM;2009-12-08 15:00;CYHM 081500Z 00000KT 15SM FEW015 FEW030 FEW060 BKN220 M00/M03 A3033 RMK CU1SC1SC1CI2 CU TR CONTRAIL SLP282

CYHM;2009-12-08 16:00;CYHM 081600Z 00000KT 15SM FEW020 FEW210 01/M03 A3033 RMK CU1CI1 SLP282

CYHM;2009-12-08 17:00;CYHM 081700Z 00000KT 15SM FEW020 FEW035 BKN220 01/M03 A3030 RMK CU1SC1CI3 SLP273

CYHM;2009-12-08 18:00;CYHM 081800Z 08006KT 15SM FEW025 FEW037 OVC130 01/M02 A3027 RMK CU1SC2AS6 SLP261

CYHM;2009-12-08 19:00;CYHM 081900Z 08008KT 15SM BKN037 OVC100 01/M03 A3023 RMK SC7AC1 SLP249

CYHM;2009-12-08 20:00;CYHM 082000Z 07008KT 15SM SCT038 OVC180 01/M03 A3021 RMK SC3AS5 SUN DMLY VSBL SLP241

CYHM;2009-12-08 21:00;CYHM 082100Z 06009KT 15SM FEW036 OVC130 00/M03 A3017 RMK SC1AC7 SLP228

CYHM;2009-12-08 22:00;CYHM 082200Z 08010KT 15SM OVC028 00/M03 A3018 RMK SC8 SLP229

CYHM;2009-12-08 23:00;CYHM 082300Z 07011KT 15SM BKN034 OVC064 M00/M03 A3015 RMK SC6SC2 SLP219

CYHM;2009-12-09 00:00;CYHM 090000Z 08014KT 15SM FEW036 BKN080 OVC110 M00/M03 A3012 RMK SC1AC5AC2 SLP210

CYHM;2009-12-09 01:00;CYHM 090100Z 07013KT 15SM FEW064 OVC110 M00/M04 A3007 RMK SC2AC6 SLP193

CYHM;2009-12-09 02:00;CYHM 090200Z 06014KT 15SM OVC097 M00/M04 A3003 RMK AC8 SLP182

CYHM;2009-12-09 03:00;CYHM 090300Z 07015G21KT 15SM OVC086 M00/M04 A2997 RMK AC8 SLP160

CYHM;2009-12-09 04:00;CYHM 090400Z 07016G22KT 15SM FEW042 BKN051 OVC084 M00/M04 A2992 RMK SF1SC6AC2 SLP141

CYHM;2009-12-09 05:00;CYHM 090500Z 07015KT 12SM -SN OVC042 M00/M04 A2984 RMK SC8 SLP115

CYHM;2009-12-09 06:00;CYHM 090600Z 07015G21KT 2SM -SN OVC026 M01/M02 A2974 RMK SC8 SLP080

CYHM;2009-12-09 07:00;CYHM 090700Z 06015G21KT 2SM -SN BKN008 OVC022 M01/M02 A2963 RMK SF6SC2 SLP044

CYHM;2009-12-09 08:00;CYHM 090800Z 06015KT 2 1/2SM -SN OVC006 M01/M01 A2957 RMK SC8 SLP024

CYHM;2009-12-09 09:00;CYHM 090900Z 07015KT 2 1/2SM -SN -FZRA OVC006 M00/M00 A2948 RMK SF8 SLP991

CYHM;2009-12-09 09:40;CYHM 090940Z 06015KT 2 1/4SM -RASN OVC004 RMK SF8

CYHM;2009-12-09 10:00;CYHM 091000Z 07014KT 2 1/4SM -RASN BKN004 OVC010 M00/M00 A2938 RMK SF6SC2 CIG RGD SLP957

CYHM;2009-12-09 11:00;CYHM 091100Z 07013KT 2SM -RASN BKN003 OVC012 00/00 A2930 RMK SF6SC2 CIG RGD SLP933

CYHM;2009-12-09 12:00;CYHM 091200Z 08012KT 2SM -RASN BKN003 BKN008 OVC012 00/00 A2925 RMK SF5SF2SC2 PRESFR CIG RGD SLP913

CYHM;2009-12-09 12:55;CYHM 091255Z 07012KT 2SM -RAPL BKN004 OVC013 RMK SF6SC2

CYHM;2009-12-09 13:00;CYHM 091300Z 05014KT 2SM -RAPL BKN002 BKN007 OVC013 01/01 A2916 RMK SF6SF2SC1 CIG RGD SLP884

CYHM;2009-12-09 13:16;CYHM 091316Z 08010KT 2SM -RA BR BKN002 BKN006 OVC012 RMK SF6SF2SC1 CIG RGD

CYHM;2009-12-09 14:00;CYHM 091400Z 06010KT 1 1/2SM -RA BR BKN002 OVC018 01/01 A2913 RMK FG1SF5SC2 SLP873

CYHM;2009-12-09 14:28;CYHM 091428Z 06010KT 2SM -RA BR BKN004 OVC018 RMK SF6SC2

CYHM;2009-12-09 15:00;CYHM 091500Z CCA 06008KT 2 1/2SM -RA BR BKN002 BKN015 OVC019 02/02 A2908 RMK SF6SC2SC1 CIG RGD SLP854

CYHM;2009-12-09 15:32;CYHM 091532Z 06006KT 2SM -RA BR BKN009 BKN013 OVC018 RMK SF5SC2SC1

CYHM;2009-12-09 15:45;CYHM 091545Z 06006KT 1 1/2SM -RA BR BKN011 OVC018 RMK FG1SF5SC2

CYHM;2009-12-09 16:00;CYHM 091600Z 07008KT 1 1/2SM -RA BR BKN009 OVC017 02/02 A2900 RMK FG2SF5SC2 VIS VRBL1-2SM CIG RGD SLP829

CYHM;2009-12-09 16:13;CYHM 091613Z 16009KT 10SM -RA BKN012 OVC018 RMK SC6SC2

CYHM;2009-12-09 16:40;CYHM 091640Z 19012KT 2 1/2SM RA BR BKN010 OVC015 RMK SF6SC2

CYHM;2009-12-09 16:45;CYHM 091645Z 19010KT 4SM -RA BR SCT009 BKN014 OVC018 RMK SF3SC3SC2

CYHM;2009-12-09 17:00;CYHM 091700Z 22009KT 6SM -RA BR SCT009 BKN017 OVC047 05/05 A2897 RMK SF3SC3SC2 SLP818

CYHM;2009-12-09 17:29;CYHM 091729Z 19006KT 15SM FEW015 BKN024 BKN055 RMK SC2SC4SC2 RERA

CYHM;2009-12-09 18:00;CYHM 091800Z 21010KT 15SM FEW011 BKN030 BKN082 07/07 A2894 RMK SC1SC4AC1 SLP805

CYHM;2009-12-09 18:19;CYHM 091819Z 22008KT 15SM -SHRA BKN030 OVC045 RMK SC6SC2

CYHM;2009-12-09 18:27;CYHM 091827Z 20010KT 2 1/2SM -SHRA BR BKN020 OVC030 RMK SC6SC2

CYHM;2009-12-09 19:00;CYHM 091900Z 22014G24KT 4SM -RA BR FEW016 BKN024 OVC048 05/05 A2894 RMK SF2SC5SC2 CIG RGD SLP807

CYHM;2009-12-09 19:05;CYHM 091905Z 25015G22KT 1 3/4SM -RA BR SCT013 OVC024 RMK SF3SC5 CIG RGD

CYHM;2009-12-09 19:13;CYHM 091913Z 25020G30KT 8SM -SHRA FEW013 BKN026 BKN094 RMK SF1SC5AS2

CYHM;2009-12-09 20:00;CYHM 092000Z 25018G27KT 12SM -SHRA FEW015 BKN022 OVC060 04/03 A2898 RMK SF2SC5SC2 CIG RGD SLP818

CYHM;2009-12-09 20:40;CYHM 092040Z 23024G32KT 15SM FEW018 SCT058 BKN092 RMK SC2SC1AC3

CYHM;2009-12-09 21:00;CYHM 092100Z 24018G26KT 15SM FEW018 BKN058 BKN094 BKN180 03/M00 A2900 RMK SF1SC4AC1AC1 SLP829

CYHM;2009-12-09 21:45;CYHM 092145Z 22025G36KT 6SM -SHRA BKN028 OVC054 RMK SC6SC2

CYHM;2009-12-09 22:00;CYHM 092200Z 23025G34KT 15SM -SHRA FEW022 SCT036 BKN054 02/M01 A2904 RMK SF2SC2SC4 SLP841

CYHM;2009-12-09 22:28;CYHM 092228Z 23025G34KT 15SM FEW030 BKN052 RMK SC2SC6

CYHM;2009-12-09 23:00;CYHM 092300Z 22030G44KT 15SM BKN028 OVC044 02/M02 A2906 RMK SC6SC2 SLP848

CYHM;2009-12-09 23:38;CYHM 092338Z 24025G34KT 15SM -SHSN OVC025 RMK SC8

CYHM;2009-12-10 00:00;CYHM 100000Z 24027G37KT 15SM -SHSN OVC025 01/M02 A2910 RMK SC8 SLP860

CYHM;2009-12-10 01:00;CYHM 100100Z 24028G41KT 10SM -SHSN OVC020 00/M03 A2913 RMK SC8 SLP873

CYHM;2009-12-10 02:00;CYHM 100200Z 24030G45KT 15SM -SHSN OVC017 00/M03 A2915 RMK SC8 SLP877

CYHM;2009-12-10 03:00;CYHM 100300Z 24028G40KT 15SM -SHSN OVC016 M00/M03 A2916 RMK SC8 SLP883

CYHM;2009-12-10 04:00;CYHM 100400Z 23025G38KT 15SM -SHSN BKN031 OVC093 M00/M04 A2920 RMK SC7AC1 CIG RAG SLP895

CYHM;2009-12-10 05:00;CYHM 100500Z 24025G36KT 15SM -SHSN OVC024 M01/M04 A2924 RMK SC8 SLP910

CYHM;2009-12-10 06:00;CYHM 100600Z 24025G36KT 15SM -SHSN OVC024 M01/M05 A2926 RMK SC8 SLP916

CYHM;2009-12-10 07:00;CYHM 100700Z 24028G38KT 15SM -SHSN OVC023 M02/M06 A2929 RMK SC8 SLP925

CYHM;2009-12-10 08:00;CYHM 100800Z 24024G33KT 12SM -SHSN OVC019 M03/M06 A2933 RMK SC8 SLP938

CYHM;2009-12-10 09:00;CYHM 100900Z 24022G31KT 15SM -SHSN BKN026 BKN120 M03/M06 A2936 RMK SC5AC1 CF ASOCTD SLP950

CYHM;2009-12-10 10:00;CYHM 101000Z 24022G31KT 15SM -SHSN SCT020 BKN110 M04/M07 A2940 RMK SC4AC1 CF ASOCTD PRESRR SLP964

CYHM;2009-12-10 11:00;CYHM 101100Z 24024G34KT 15SM -SHSN SCT023 BKN120 M04/M07 A2943 RMK SC4AC1 CF ASOCTD SLP975

CYHM;2009-12-10 12:00;CYHM 101200Z 24025G32KT 4SM -SHSN SCT017 BKN024 OVC046 M04/M07 A2946 RMK SC3SC3SC2 SLP985

CYHM;2009-12-10 13:00;CYHM 101300Z 24026KT 4SM -SHSN BKN024 OVC047 M05/M07 A2948 RMK SC6SC2 SLP993

CYHM;2009-12-10 14:00;CYHM 101400Z 25026G32KT 3SM -SHSN SCT016 BKN026 OVC035 M04/M07 A2952 RMK SC3SC4SC1 SLP005

CYHM;2009-12-10 15:00;CYHM 101500Z 24022KT 5SM -SHSN FEW018 BKN035 BKN055 M04/M07 A2955 RMK CU1SC4SC2 SLP015

CYHM;2009-12-10 16:00;CYHM 101600Z 25025G35KT 15SM -SHSN FEW018 BKN035 M04/M08 A2956 RMK CU2SC4 SLP020

CYHM;2009-12-10 17:00;CYHM 101700Z 24020G27KT 5SM -SHSN FEW017 BKN022 BKN038 M04/M08 A2956 RMK CU2SC3SC1 SLP020

CYHM;2009-12-10 18:00;CYHM 101800Z 24022G27KT 8SM -SHSN FEW018 BKN023 BKN048 M05/M09 A2957 RMK CU2SC4SC2 SLP023

CYHM;2009-12-10 19:00;CYHM 101900Z 24022G28KT 6SM -SHSN SCT020 BKN026 M06/M10 A2959 RMK SC4SC3 CU ASOCTD SLP032

CYHM;2009-12-10 20:00;CYHM 102000Z 25023G29KT 4SM -SHSN SCT018 BKN027 M07/M11 A2962 RMK SC3SC4 CU ASOCTD SLP041

CYHM;2009-12-10 21:00;CYHM 102100Z 25020G26KT 7SM -SHSN SCT019 BKN027 BKN040 M08/M12 A2967 RMK SC3SC3SC1 CU ASOCTD SLP060

CYHM;2009-12-10 22:00;CYHM 102200Z 26024G30KT 9SM -SHSN FEW019 FEW027 BKN043 BKN060 M08/M13 A2971 RMK CU1SC2SC3SC2 PCPN VRY LGT SLP073

CYHM;2009-12-10 23:00;CYHM 102300Z CCA 25021G30KT 9SM -SHSN FEW022 BKN047 BKN062 M09/M13 A2975 RMK CU2SC3SC2 SLP086

CYHM;2009-12-10 23:51;CYHM 102351Z 25021KT 15SM FEW028 FEW045 RMK CU2SC1

CYHM;2009-12-11 00:00;CYHM 110000Z 24023G28KT 15SM FEW028 M09/M14 A2978 RMK CU2 SLP097

CYHM;2009-12-11 01:00;CYHM 110100Z 25022KT 15SM FEW040 M10/M15 A2979 RMK SC1 SLP103

CYHM;2009-12-11 02:00;CYHM 110200Z 25021G32KT 15SM SCT037 BKN052 M09/M14 A2980 RMK SC3SC2 SLP106

CYHM;2009-12-11 03:00;CYHM 110300Z 25024G34KT 15SM FEW031 BKN056 M09/M14 A2982 RMK SC1SC5 SLP112

CYHM;2009-12-11 04:00;CYHM 110400Z 26020G30KT 15SM FEW034 M09/M15 A2985 RMK SC2 SLP121

CYHM;2009-12-11 05:00;CYHM 110500Z 25023KT 15SM FEW031 M09/M15 A2986 RMK SC2 SLP125

CYHM;2009-12-11 06:00;CYHM 110600Z 25020KT 15SM FEW025 M10/M14 A2988 RMK CU1 SLP131

CYHM;2009-12-11 08:00;CYHM 110800Z 24016KT 15SM FEW025 M10/M14 A2991 RMK CU1 SLP142

CYHM;2009-12-11 09:00;CYHM 110900Z 24020G26KT 15SM FEW025 M10/M14 A2992 RMK CU1 SLP147

CYHM;2009-12-11 10:00;CYHM 111000Z 24018G27KT 15SM SKC M10/M14 A2992 RMK SLP147

CYHM;2009-12-11 11:00;CYHM 111100Z 25018KT 15SM SKC M10/M14 A2992 RMK SLP149

CYHM;2009-12-11 12:00;CYHM 111200Z CCA 25020KT 15SM FEW021 FEW032 M10/M13 A2994 RMK CU1SC1 CU TR SLP154

CYHM;2009-12-11 13:00;CYHM 111300Z CCA 26022G28KT 15SM FEW020 FEW035 M09/M13 A2996 RMK CU1SC1 CU TR SLP160

CYHM;2009-12-11 14:00;CYHM 111400Z 26024KT 15SM -SHSN FEW026 M08/M13 A2999 RMK CU2 SLP170

CYHM;2009-12-11 15:00;CYHM 111500Z 26026G32KT 15SM FEW026 SCT032 M08/M14 A3003 RMK CU2SC1 SLP186

CYHM;2009-12-11 15:24;CYHM 111524Z 26025G30KT 15SM -SHSN FEW020 BKN027 RMK CU2SC3

CYHM;2009-12-11 16:00;CYHM 111600Z 25025G34KT 15SM -SHSN FEW035 BKN050 M08/M13 A3004 RMK CU2SC4 SLP189

CYHM;2009-12-11 16:53;CYHM 111653Z 26026G32KT 15SM FEW030 BKN042 RMK CU2SC3

CYHM;2009-12-11 17:00;CYHM 111700Z 26026G32KT 15SM FEW027 SCT042 M07/M14 A3005 RMK CU2SC2 SLP191

CYHM;2009-12-11 17:54;CYHM 111754Z 26026G32KT 15SM -SHSN FEW025 SCT034 RMK CU2SC2

CYHM;2009-12-11 18:00;CYHM 111800Z 25025G30KT 15SM -SHSN FEW026 SCT035 M07/M14 A3007 RMK CU2SC2 SLP199

CYHM;2009-12-11 19:00;CYHM 111900Z 25025G35KT 15SM -SHSN FEW029 BKN048 M07/M14 A3009 RMK CU2SC3 SLP204

CYHM;2009-12-11 20:00;CYHM 112000Z 25022G28KT 15SM FEW033 BKN042 M07/M14 A3012 RMK CU2SC4 SLP214

CYHM;2009-12-11 21:00;CYHM 112100Z 25018KT 15SM FEW038 M07/M14 A3014 RMK CU2 SLP224

CYHM;2009-12-11 22:00;CYHM 112200Z 25018G24KT 15SM FEW035 M07/M13 A3016 RMK CU1 SLP230

CYHM;2009-12-11 23:00;CYHM 112300Z 26017KT 15SM FEW030 M08/M14 A3018 RMK CU1 SLP237

CYHM;2009-12-12 00:00;CYHM 120000Z 26014KT 15SM SKC M08/M14 A3019 RMK SLP240

CYHM;2009-12-12 01:00;CYHM 120100Z 25013KT 15SM FEW090 M08/M13 A3020 RMK AC1 SLP243

CYHM;2009-12-12 02:00;CYHM 120200Z 25015KT 15SM FEW042 M08/M13 A3020 RMK SC2 SLP243

CYHM;2009-12-12 03:00;CYHM 120300Z 25016KT 15SM OVC045 M08/M13 A3023 RMK SC8 SLP253

CYHM;2009-12-12 04:00;CYHM 120400Z 25015G20KT 15SM -SHSN BKN047 M07/M12 A3024 RMK SC6 SLP256

CYHM;2009-12-12 05:00;CYHM 120500Z 26015KT 8SM -SHSN FEW030 BKN048 M07/M11 A3026 RMK CF1SC5 SLP261

CYHM;2009-12-12 06:00;CYHM 120600Z 25012KT 7SM -SHSN FEW023 OVC044 M07/M11 A3027 RMK CF2SC6 SLP267

CYHM;2009-12-12 07:00;CYHM 120700Z 26013KT 7SM -SHSN OVC035 M07/M10 A3030 RMK SC8 SLP275

CYHM;2009-12-12 08:00;CYHM 120800Z 25012KT 15SM -SHSN BKN031 M06/M10 A3032 RMK SC6 SLP283

CYHM;2009-12-12 09:00;CYHM 120900Z 24008KT 15SM FEW027 M07/M10 A3034 RMK SC2 SLP290

CYHM;2009-12-12 10:00;CYHM 121000Z 25009KT 15SM SKC M08/M10 A3035 RMK SLP294

CYHM;2009-12-12 11:00;CYHM 121100Z 26006KT 15SM SKC M08/M10 A3037 RMK SLP299

CYHM;2009-12-12 12:00;CYHM 121200Z 22005KT 15SM SKC M10/M12 A3039 RMK SLP306

CYHM;2009-12-12 13:00;CYHM 121300Z 21007KT 15SM FEW020 M09/M11 A3041 RMK CU1 SLP314

CYHM;2009-12-12 14:00;CYHM 121400Z 23009KT 15SM FEW020 M07/M10 A3042 RMK CU1 SLP319

CYHM;2009-12-12 15:00;CYHM 121500Z 23006KT 15SM FEW025 M05/M09 A3043 RMK SC1 SLP319

CYHM;2009-12-12 16:00;CYHM 121600Z 21006KT 15SM FEW030 M03/M09 A3041 RMK SC1 SLP314

CYHM;2009-12-12 17:00;CYHM 121700Z 22008KT 15SM FEW030 M00/M07 A3038 RMK SC1 SLP303

CYHM;2009-12-12 18:00;CYHM 121800Z 21011KT 15SM FEW028 01/M05 A3035 RMK CU2 SLP290

CYHM;2009-12-12 19:00;CYHM 121900Z 22012KT 15SM FEW032 01/M05 A3033 RMK CU2 SLP283

CYHM;2009-12-12 20:00;CYHM 122000Z 20011KT 15SM FEW027 01/M04 A3032 RMK CU2 SLP281

CYHM;2009-12-12 21:00;CYHM 122100Z 19009KT 15SM FEW030 FEW250 01/M05 A3032 RMK CU1CI0 SLP280

CYHM;2009-12-12 22:00;CYHM 122200Z 21010KT 15SM FEW250 M01/M06 A3033 RMK CI1 SLP283

CYHM;2009-12-12 23:00;CYHM 122300Z 20007KT 15SM FEW220 M01/M07 A3033 RMK CI1 SLP284

CYHM;2009-12-13 00:00;CYHM 130000Z 19006KT 15SM FEW220 M01/M07 A3032 RMK CI2 SLP281

CYHM;2009-12-13 01:00;CYHM 130100Z 18008KT 15SM SCT210 M01/M07 A3030 RMK CI2 SLP276

CYHM;2009-12-13 02:00;CYHM 130200Z 19007KT 15SM BKN200 M01/M08 A3026 RMK CI4 SLP263

CYHM;2009-12-13 03:00;CYHM 130300Z 19009KT 15SM BKN200 M01/M08 A3025 RMK CI3 SLP256

CYHM;2009-12-13 04:00;CYHM 130400Z 21009KT 15SM SCT200 M02/M07 A3023 RMK CI2 SLP248

CYHM;2009-12-13 05:00;CYHM 130500Z 20009KT 15SM FEW230 M01/M07 A3019 RMK CI1 SLP236

CYHM;2009-12-13 06:00;CYHM 130600Z 20009KT 15SM FEW210 M01/M07 A3016 RMK CI1 SLP223

CYHM;2009-12-13 07:00;CYHM 130700Z 20007KT 15SM FEW090 FEW120 FEW210 M00/M07 A3013 RMK AC1AC1CI1 TR AC SLP213

CYHM;2009-12-13 08:00;CYHM 130800Z CCA 18010KT 15SM OVC100 01/M06 A3008 RMK AC8 PRESFR SLP196

CYHM;2009-12-13 09:00;CYHM 130900Z 20007KT 15SM OVC055 02/M06 A3004 RMK SC8 SLP182

CYHM;2009-12-13 10:00;CYHM 131000Z 18007KT 15SM OVC092 02/M06 A2999 RMK AC8 PRESFR SLP164

CYHM;2009-12-13 11:00;CYHM 131100Z 18005KT 15SM BKN048 OVC094 02/M05 A2998 RMK ST6AC2 SLP161

CYHM;2009-12-13 12:00;CYHM 131200Z 00000KT 15SM OVC058 01/M04 A2995 RMK SC8 SLP153

CYHM;2009-12-13 13:00;CYHM 131300Z 21008KT 15SM OVC054 03/M06 A2994 RMK SC8 SLP147

CYHM;2009-12-13 13:50;CYHM 131350Z 18010KT 9SM -SHRA BKN026 OVC052 RMK SC6SC2

CYHM;2009-12-13 14:00;CYHM 131400Z 18010KT 9SM -SHRA BKN026 OVC052 02/M03 A2991 RMK SC6SC2 SLP137

CYHM;2009-12-13 15:00;CYHM 131500Z 19012KT 6SM -SHRA BR OVC048 01/00 A2986 RMK SC8 SLP121

CYHM;2009-12-13 15:34;CYHM 131534Z 20011KT 8SM -RA BKN014 OVC025 RMK SC5SC3

CYHM;2009-12-13 16:00;CYHM 131600Z 21011KT 9SM -RA BKN007 OVC013 02/01 A2984 RMK SF5SC3 SLP115

CYHM;2009-12-13 16:55;CYHM 131655Z 22010KT 6SM BR OVC007 RMK SC8

CYHM;2009-12-13 17:00;CYHM 131700Z 22010KT 6SM BR OVC007 02/02 A2981 RMK SC8 SLP103

CYHM;2009-12-13 17:42;CYHM 131742Z 22014KT 9SM -SHRA OVC007 RMK SC8 SF ASOCTD

CYHM;2009-12-13 18:00;CYHM 131800Z 21012KT 6SM -SHRA BR OVC006 02/02 A2979 RMK SC8 SF ASOCTD SLP098

CYHM;2009-12-13 18:26;CYHM 131826Z 23012KT 1 3/4SM -SHRA BR OVC004 RMK SF8

CYHM;2009-12-13 19:00;CYHM 131900Z 24010KT 1 1/2SM -SHRA BR OVC003 02/02 A2980 RMK SF8 SLP100

CYHM;2009-12-13 19:25;CYHM 131925Z 25010KT 1 1/2SM -SHRA BR OVC005 RMK SF8 CIG RAG

CYHM;2009-12-13 20:00;CYHM 132000Z 27010KT 2SM -SHRA BR FEW009 BKN013 OVC016 03/02 A2983 RMK SF2SF4SC2 SLP110

CYHM;2009-12-13 20:30;CYHM 132030Z 25007KT 10SM OVC010 RMK SF8

CYHM;2009-12-13 21:00;CYHM 132100Z 28009KT 10SM OVC009 02/02 A2985 RMK SF8 SLP117

CYHM;2009-12-13 21:23;CYHM 132123Z 29007KT 6SM BR SCT025 BKN047 RMK SC4SC3

CYHM;2009-12-13 22:00;CYHM 132200Z 26006KT 8SM BKN010 BKN045 02/02 A2988 RMK SC5SC2 BR SLP126

CYHM;2009-12-13 22:34;CYHM 132234Z 26006KT 8SM BKN009 RMK SC7

CYHM;2009-12-13 23:00;CYHM 132300Z 25006KT 6SM BR BKN009 02/01 A2992 RMK SC7 SLP140

CYHM;2009-12-14 00:00;CYHM 140000Z CCA 26005KT 4SM BR BKN008 02/01 A2995 RMK SF7 SLP150

CYHM;2009-12-14 00:36;CYHM 140036Z 25005KT 3SM BR SCT004 OVC014 RMK SF3SC5

CYHM;2009-12-14 01:00;CYHM 140100Z 22006KT 2SM BR SCT004 BKN028 01/01 A2997 RMK FG2SF2SC4 SLP157

CYHM;2009-12-14 02:00;CYHM 140200Z 24004KT 2SM BR OVC024 01/01 A2997 RMK FG2SC6 SLP158

CYHM;2009-12-14 03:00;CYHM 140300Z 24004KT 3SM BR BKN026 01/01 A2999 RMK SC7 SLP166

CYHM;2009-12-14 04:00;CYHM 140400Z 25004KT 3SM BR FEW011 OVC026 01/01 A3001 RMK CF1SC7 VIS VRB 2 - 4 SLP171

CYHM;2009-12-14 04:39;CYHM 140439Z 23002KT 2SM BR FEW005 OVC029 RMK FG1SF2SC6

CYHM;2009-12-14 05:00;CYHM 140500Z 23005KT 3SM BR FEW003 OVC027 01/01 A3002 RMK SF2SC6 VIS VRB 2 - 4 SLP176

CYHM;2009-12-14 06:00;CYHM 140600Z 25004KT 3SM BR SCT004 OVC025 01/01 A3002 RMK SF3SC5 VIS VRB 2 - 4 SLP176

CYHM;2009-12-14 07:00;CYHM 140700Z 26003KT 3SM BR FEW004 OVC026 01/01 A3004 RMK SF1SC7 VIS VRB 2 - 4 SLP180

CYHM;2009-12-14 08:00;CYHM 140800Z 00000KT 3SM BR FEW004 OVC029 01/01 A3005 RMK SF2SC6 VIS VRB 2 - 4 SLP184

CYHM;2009-12-14 09:00;CYHM 140900Z 08003KT 3SM BR OVC033 00/00 A3000 RMK SC8 VIS VRB 2 - 4 SLP169

CYHM;2009-12-14 09:38;CYHM 140938Z 00000KT 2SM BR OVC035 RMK FG1SC7

CYHM;2009-12-14 10:00;CYHM 141000Z 20003KT 2SM BR FEW003 OVC033 00/00 A3002 RMK FG1SF2SC6 SLP175

CYHM;2009-12-14 11:00;CYHM 141100Z 19004KT 2SM BR OVC026 01/01 A3001 RMK FG1SC7 SLP172

CYHM;2009-12-14 12:00;CYHM 141200Z 00000KT 2SM BR OVC023 01/01 A3000 RMK SC8 SLP168

CYHM;2009-12-14 12:51;CYHM 141251Z 00000KT 1 1/2SM BR OVC023 RMK FG2SC6

CYHM;2009-12-14 13:00;CYHM 141300Z 00000KT 1SM BR OVC020 00/00 A2999 RMK FG2SC6 SLP165

CYHM;2009-12-14 14:00;CYHM 141400Z 14004KT 1SM BR OVC015 01/01 A3000 RMK FG2SC6 SLP168

CYHM;2009-12-14 15:00;CYHM 141500Z 15002KT 1 1/2SM BR OVC027 01/01 A3000 RMK FG1SC7 SLP168

CYHM;2009-12-14 16:00;CYHM 141600Z 12006KT 1 1/2SM BR OVC025 01/01 A2995 RMK FG2SC6 SLP153

CYHM;2009-12-14 17:00;CYHM 141700Z 13005KT 2 1/2SM BR OVC025 02/02 A2991 RMK SC8 SLP137

CYHM;2009-12-14 18:00;CYHM 141800Z 15003KT 3SM BR BKN017 OVC024 02/02 A2987 RMK SC6SC2 SLP124

CYHM;2009-12-14 18:09;CYHM 141809Z 15004KT 4SM -DZ BKN015 OVC022 RMK SC6SC2

CYHM;2009-12-14 19:00;CYHM 141900Z 13004KT 4SM -DZ BR BKN016 OVC022 03/03 A2984 RMK SC6SC2 SLP113

CYHM;2009-12-14 19:47;CYHM 141947Z 16006KT 3SM -DZ BR BKN008 OVC016 RMK SC6SC2

CYHM;2009-12-14 20:00;CYHM 142000Z 16006KT 3SM -DZ BR BKN005 OVC016 03/03 A2980 RMK SC6SC2 SLP099

CYHM;2009-12-14 20:28;CYHM 142028Z 17007KT 2 1/2SM -DZ BR BKN005 OVC015 RMK SC7SC1

CYHM;2009-12-14 20:43;CYHM 142043Z 16006KT 2SM -DZ BR SCT004 OVC017 RMK FG1SC2SC5

CYHM;2009-12-14 21:00;CYHM 142100Z 15006KT 1 1/2SM -DZ BR FEW005 OVC019 03/03 A2978 RMK FG2SC1SC6 SLP091

CYHM;2009-12-14 22:00;CYHM 142200Z 16003KT 3SM -DZ BR OVC018 03/03 A2977 RMK SC8 SLP090

CYHM;2009-12-14 22:18;CYHM 142218Z 16002KT 2 1/2SM -RA BR OVC017 RMK SC8

CYHM;2009-12-14 23:00;CYHM 142300Z 16006KT 2 1/2SM -RA BR OVC016 03/03 A2975 RMK SC8 SLP082

CYHM;2009-12-14 23:51;CYHM 142351Z 20006KT 3SM -RA BR BKN008 OVC015 RMK SC6SC2

CYHM;2009-12-15 00:00;CYHM 150000Z CCA 21006KT 3SM -RA BR BKN009 OVC015 04/04 A2974 RMK SC6SC2 SLP079

CYHM;2009-12-15 00:18;CYHM 150018Z 27006KT 4SM -RA BR OVC005 RMK SC8

CYHM;2009-12-15 01:00;CYHM 150100Z 23006KT 3SM -RA BR OVC006 04/04 A2972 RMK SC8 SLP073

CYHM;2009-12-15 02:00;CYHM 150200Z 23008KT 3SM -RA BR SCT003 OVC007 04/04 A2974 RMK CF3SC5 SLP078

CYHM;2009-12-15 02:22;CYHM 150222Z 24008KT 2 1/2SM -RA BR BKN003 OVC007 RMK CF6SC2

CYHM;2009-12-15 03:00;CYHM 150300Z 25008KT 4SM -RA BR BKN004 OVC009 05/05 A2974 RMK CF5SC3 SLP079

CYHM;2009-12-15 04:00;CYHM 150400Z 24009KT 5SM -RA BR BKN004 OVC013 04/04 A2975 RMK SF6SC2 SLP080

CYHM;2009-12-15 05:00;CYHM 150500Z 26008KT 6SM -SHRA BR OVC005 04/04 A2977 RMK SC8 SF ASOCTD SLP087

CYHM;2009-12-15 06:00;CYHM 150600Z 28008KT 5SM -SHRA BR FEW005 OVC012 03/03 A2978 RMK SF2SC6 SLP091

CYHM;2009-12-15 07:00;CYHM 150700Z 26009KT 12SM BKN009 BKN024 OVC065 03/03 A2980 RMK SF5SC2SC2 SLP100

CYHM;2009-12-15 08:00;CYHM 150800Z 25011KT 8SM OVC009 03/03 A2983 RMK SC8 SLP108

CYHM;2009-12-15 09:00;CYHM 150900Z 26012KT 6SM BR OVC008 02/02 A2984 RMK SC8 SLP112

CYHM;2009-12-15 10:00;CYHM 151000Z 26009KT 6SM BR OVC007 02/01 A2986 RMK SC8 SLP118

CYHM;2009-12-15 11:00;CYHM 151100Z 28009KT 6SM BR FEW008 OVC012 01/01 A2989 RMK SF2SC6 SLP129

CYHM;2009-12-15 12:00;CYHM 151200Z 26004KT 15SM FEW009 OVC012 01/01 A2993 RMK SF2SC6 SLP143

CYHM;2009-12-15 13:00;CYHM 151300Z 32006KT 6SM BR OVC015 01/00 A2994 RMK SC8 SLP148

CYHM;2009-12-15 14:00;CYHM 151400Z 26002KT 6SM BR BKN017 01/M00 A2997 RMK SC7 TR CU ASOCTD SLP158

CYHM;2009-12-15 15:00;CYHM 151500Z 29007KT 10SM SCT017 OVC057 01/M01 A3000 RMK SC4SC4 CU ASOCTD SLP168

CYHM;2009-12-15 16:00;CYHM 151600Z 28008KT 10SM SCT017 OVC056 01/M01 A3001 RMK SC3SC5 CU ASOCTD SLP170

CYHM;2009-12-15 16:24;CYHM 151624Z 28006KT 10SM -SHSN BKN017 OVC057 RMK SC6SC2

CYHM;2009-12-15 17:00;CYHM 151700Z 29010KT 8SM -SHSN BKN019 OVC055 01/M01 A3000 RMK SC6SC2 SLP168

CYHM;2009-12-15 18:00;CYHM 151800Z 32010KT 15SM -SHSN SCT015 OVC032 00/M01 A3000 RMK SC4SC4 TR CU ASOCTD SLP168

CYHM;2009-12-15 18:42;CYHM 151842Z 32010KT 15SM FEW015 SCT021 BKN032 RMK CU1SC3SC4

CYHM;2009-12-15 18:47;CYHM 151847Z 33010KT 15SM -SHSN FEW015 SCT022 OVC030 RMK CU1SC3SC4

CYHM;2009-12-15 19:00;CYHM 151900Z 31010KT 15SM -SHSN FEW018 OVC030 00/M03 A3000 RMK SF2SC6 SLP167

CYHM;2009-12-15 20:00;CYHM 152000Z 27009KT 15SM -SHSN BKN074 00/M04 A3002 RMK AC7 SLP175

CYHM;2009-12-15 20:39;CYHM 152039Z 28009KT 15SM SCT035 BKN076 RMK SC3AC4

CYHM;2009-12-15 21:00;CYHM 152100Z 26009KT 15SM FEW024 BKN032 OVC072 M00/M04 A3005 RMK SF2SC6AC1 SLP184

CYHM;2009-12-15 21:02;CYHM 152102Z 29006KT 2SM -SHSN SCT024 OVC072 RMK SC3AC5

CYHM;2009-12-15 21:29;CYHM 152129Z CCA 29006KT 2SM -SHSN SCT024 OVC072 RMK SC3AC5

CYHM;2009-12-15 21:36;CYHM 152136Z 27006KT 6SM -SHSN FEW024 BKN060 OVC074 RMK SF2SC5AC2

CYHM;2009-12-15 22:00;CYHM 152200Z 27006KT 1 1/2SM -SHSN SCT022 OVC034 M01/M03 A3008 RMK SN2SC2SC4 VSBY VRBL 1-2SM SLP195

CYHM;2009-12-15 22:23;CYHM 152223Z 28010KT 12SM -SHSN BKN026 BKN040 OVC092 RMK SC5SC2AC2

CYHM;2009-12-15 23:00;CYHM 152300Z 29009KT 15SM -SHSN FEW024 SCT072 M02/M03 A3010 RMK SC1AC2 SLP200

CYHM;2009-12-16 00:00;CYHM 160000Z 29009KT 15SM FEW018 SCT070 M03/M06 A3012 RMK SC1AC2 SLP210

CYHM;2009-12-16 00:52;CYHM 160052Z 25007KT 15SM -SHSN FEW024 BKN040 RMK SF1SC2

CYHM;2009-12-16 01:00;CYHM 160100Z 28011KT 15SM -SHSN FEW024 BKN040 M04/M06 A3016 RMK SF1SC2 SLP224

CYHM;2009-12-16 02:00;CYHM 160200Z 30008KT 8SM -SHSN FEW036 BKN060 M04/M06 A3019 RMK SF1SC5 SLP234

CYHM;2009-12-16 03:00;CYHM 160300Z 29011KT 15SM -SHSN FEW022 BKN056 M04/M06 A3022 RMK SF2SC6 SLP243

CYHM;2009-12-16 04:00;CYHM 160400Z 28012KT 15SM -SHSN BKN048 M04/M07 A3023 RMK SC7 SLP249

CYHM;2009-12-16 05:00;CYHM 160500Z 28012KT 15SM -SHSN OVC044 M04/M08 A3024 RMK SC8 SLP251

CYHM;2009-12-16 06:00;CYHM 160600Z 26013KT 15SM -SHSN FEW020 OVC044 M05/M08 A3024 RMK SC2SC6 SLP251

CYHM;2009-12-16 07:00;CYHM 160700Z 25013KT 15SM -SHSN FEW022 OVC042 M05/M09 A3026 RMK SF1SC7 SLP259

CYHM;2009-12-16 08:00;CYHM 160800Z 26008KT 15SM -SHSN FEW020 BKN041 M06/M10 A3029 RMK SF1SC6 SLP267

CYHM;2009-12-16 09:00;CYHM 160900Z 26013G20KT 15SM -SHSN OVC030 M06/M10 A3029 RMK SC8 SLP268

CYHM;2009-12-16 10:00;CYHM 161000Z 26012G19KT 15SM -SHSN FEW020 OVC033 M07/M11 A3030 RMK SF1SC7 SLP273

CYHM;2009-12-16 11:00;CYHM 161100Z 26014KT 15SM -SHSN FEW024 BKN031 M07/M11 A3032 RMK SF2SC6 SLP278

CYHM;2009-12-16 12:00;CYHM 161200Z 26012KT 15SM -SHSN OVC032 M07/M11 A3032 RMK SC8 SLP282

CYHM;2009-12-16 13:00;CYHM 161300Z 25010KT 4SM -SHSN OVC029 M07/M11 A3033 RMK SC8 SLP284

CYHM;2009-12-16 13:05;CYHM 161305Z 25014KT 2SM -SHSN BKN017 OVC027 RMK SC6SC2

CYHM;2009-12-16 13:10;CYHM 161310Z 26012KT 1SM -SHSN BKN010 OVC024 RMK SN2SF5SC2

CYHM;2009-12-16 13:19;CYHM 161319Z 27008KT 3/4SM -SHSN BKN008 OVC017 RMK SN2SF4SC2

CYHM;2009-12-16 13:32;CYHM 161332Z 25010KT 1 1/2SM -SHSN SCT008 OVC037 RMK SN1SF3SC4

CYHM;2009-12-16 13:35;CYHM 161335Z 26008KT 2 1/2SM -SHSN SCT019 BKN035 RMK SC3SC4

CYHM;2009-12-16 14:00;CYHM 161400Z 26012KT 2 1/2SM -SHSN SCT020 OVC034 M08/M10 A3034 RMK SC4SC4 SLP287

CYHM;2009-12-16 15:00;CYHM 161500Z 26012KT 4SM -SHSN SCT022 BKN035 M07/M09 A3035 RMK SC3SC4 SLP292

CYHM;2009-12-16 16:00;CYHM 161600Z 28014G20KT 15SM -SHSN FEW018 BKN039 M07/M10 A3035 RMK SC2SC5 SLP291

CYHM;2009-12-16 17:00;CYHM 161700Z 28016KT 15SM -SHSN FEW018 SCT025 OVC040 M06/M11 A3033 RMK CU1SC2SC5 SLP286

CYHM;2009-12-16 17:28;CYHM 161728Z 27012KT 15SM FEW020 SCT032 BKN040 RMK CU1SC2SC4

CYHM;2009-12-16 18:00;CYHM 161800Z 28012KT 15SM FEW020 FEW032 BKN043 M06/M11 A3031 RMK CU1SC2SC5 SLP278

CYHM;2009-12-16 19:00;CYHM 161900Z 27012KT 15SM FEW028 BKN044 M06/M10 A3030 RMK CU1SC7 CU TR SLP276

CYHM;2009-12-16 20:00;CYHM 162000Z 26012KT 15SM FEW022 BKN045 M06/M10 A3031 RMK CU1SC5 CU TR SLP278

CYHM;2009-12-16 21:00;CYHM 162100Z 26011KT 15SM FEW022 BKN047 M06/M10 A3032 RMK CU1SC6 CU TR SLP283

CYHM;2009-12-16 22:00;CYHM 162200Z 25013KT 15SM SCT044 M07/M10 A3033 RMK SC3 SLP285

CYHM;2009-12-16 23:00;CYHM 162300Z 25011KT 15SM SCT046 M07/M09 A3034 RMK SC4 SLP289

CYHM;2009-12-17 00:00;CYHM 170000Z 25010KT 15SM BKN048 M07/M09 A3035 RMK SC7 SLP294

CYHM;2009-12-17 01:00;CYHM 170100Z 25010KT 15SM -SHSN BKN048 M07/M09 A3034 RMK SC7 SLP291

CYHM;2009-12-17 02:00;CYHM 170200Z 25010KT 15SM -SHSN BKN048 M07/M09 A3035 RMK SC7 SLP294

CYHM;2009-12-17 03:00;CYHM 170300Z 25008KT 15SM -SHSN BKN052 M07/M09 A3035 RMK SC7 SLP294

CYHM;2009-12-17 04:00;CYHM 170400Z 24010KT 15SM OVC046 M06/M08 A3036 RMK SC8 SLP297

CYHM;2009-12-17 05:00;CYHM 170500Z 25009KT 15SM -SHSN OVC046 M06/M08 A3035 RMK SC8 SLP294

CYHM;2009-12-17 06:00;CYHM 170600Z 26007KT 15SM -SHSN OVC044 M06/M08 A3036 RMK SC8 SLP295

CYHM;2009-12-17 07:00;CYHM 170700Z 26007KT 8SM -SHSN FEW030 OVC044 M06/M08 A3036 RMK SC2SC6 SLP296

CYHM;2009-12-17 08:00;CYHM 170800Z 27007KT 7SM -SHSN FEW030 OVC041 M06/M07 A3038 RMK SC2SC6 SLP301

CYHM;2009-12-17 09:00;CYHM 170900Z 28006KT 15SM -SHSN BKN043 M06/M08 A3038 RMK SC6 SLP301

CYHM;2009-12-17 10:00;CYHM 171000Z 24003KT 15SM -SHSN FEW031 OVC043 M06/M08 A3039 RMK SC2SC6 SLP305

CYHM;2009-12-17 11:00;CYHM 171100Z 00000KT 12SM -SHSN FEW025 OVC040 M06/M08 A3040 RMK CF1SC7 SLP310

CYHM;2009-12-17 12:00;CYHM 171200Z 04005KT 15SM -SHSN BKN038 M08/M10 A3041 RMK SC7 SLP312

CYHM;2009-12-17 12:45;CYHM 171245Z 05008KT 15SM FEW020 FEW038 BKN220 RMK CU1SC2CI2 CU TR

CYHM;2009-12-17 13:00;CYHM 171300Z 05006KT 15SM FEW020 FEW040 BKN220 M09/M12 A3042 RMK CU1SC2CI2 CU TR SLP318

CYHM;2009-12-17 14:00;CYHM 171400Z 05008KT 15SM FEW018 FEW035 BKN210 M10/M12 A3043 RMK CF1SC1CI6 CF TR SLP321

CYHM;2009-12-17 15:00;CYHM 171500Z 04006KT 15SM FEW040 BKN160 BKN220 M10/M14 A3046 RMK SC1AC4CI2 SLP332

CYHM;2009-12-17 16:00;CYHM 171600Z 08003KT 15SM FEW030 FEW170 BKN220 M08/M13 A3046 RMK SC1AC2CI2 TR CU ASOCTD SLP330

CYHM;2009-12-17 17:00;CYHM 171700Z 05004KT 15SM FEW025 FEW150 SCT220 M08/M13 A3042 RMK CU1AC1CI2 SLP319

CYHM;2009-12-17 18:00;CYHM 171800Z 08006KT 15SM FEW020 FEW150 SCT220 M07/M12 A3039 RMK CU1AC2CI1 CU TR SLP307

CYHM;2009-12-17 19:00;CYHM 171900Z 08002KT 15SM FEW025 FEW040 BKN160 BKN220 M07/M12 A3039 RMK CU1SC1AC3CI1 SLP306

CYHM;2009-12-17 20:00;CYHM 172000Z 10004KT 15SM FEW040 BKN150 M07/M11 A3038 RMK SC1AC6 SLP302

CYHM;2009-12-17 21:00;CYHM 172100Z 10003KT 15SM FEW040 BKN130 BKN230 M07/M11 A3037 RMK SC1AC4CI1 SLP301

CYHM;2009-12-17 22:00;CYHM 172200Z 09002KT 15SM FEW030 BKN150 BKN230 M08/M11 A3036 RMK SC1AC6CI1 SLP297

CYHM;2009-12-17 23:00;CYHM 172300Z 09003KT 15SM BKN140 BKN190 M08/M11 A3035 RMK AC5AC2 SLP293

CYHM;2009-12-18 00:00;CYHM 180000Z 12003KT 15SM BKN120 M08/M10 A3035 RMK AC7 SLP292

CYHM;2009-12-18 01:00;CYHM 180100Z 10004KT 15SM FEW110 BKN160 M08/M11 A3033 RMK AC1AC4 SLP288

CYHM;2009-12-18 02:00;CYHM 180200Z 12003KT 15SM BKN160 M08/M11 A3033 RMK AC7 SLP285

CYHM;2009-12-18 03:00;CYHM 180300Z 11004KT 15SM BKN150 M08/M11 A3032 RMK AC7 SLP283

CYHM;2009-12-18 04:00;CYHM 180400Z 09004KT 15SM BKN160 M08/M11 A3031 RMK AC7 SLP281

CYHM;2009-12-18 05:00;CYHM 180500Z 07005KT 15SM BKN150 M08/M11 A3030 RMK AC6 SLP276

CYHM;2009-12-18 06:00;CYHM 180600Z 08005KT 15SM BKN140 M08/M12 A3028 RMK AC7 SLP269

CYHM;2009-12-18 07:00;CYHM 180700Z 08007KT 15SM BKN076 OVC140 M07/M12 A3025 RMK AC6AC2 SLP260

CYHM;2009-12-18 08:00;CYHM 180800Z 08009KT 15SM FEW075 BKN160 M08/M13 A3024 RMK AC2AC5 SLP256

CYHM;2009-12-18 09:00;CYHM 180900Z 10008KT 15SM FEW030 BKN070 OVC170 M08/M13 A3024 RMK SC1AC6AC2 SLP256

CYHM;2009-12-18 10:00;CYHM 181000Z 09006KT 15SM FEW075 OVC150 M08/M12 A3023 RMK AC2AC6 SLP251

CYHM;2009-12-18 11:00;CYHM 181100Z 08007KT 15SM FEW025 FEW089 BKN140 M07/M12 A3023 RMK SC1AC2AC6 SC TR SLP251

CYHM;2009-12-18 12:00;CYHM 181200Z 08008KT 15SM BKN045 BKN080 BKN150 M07/M11 A3022 RMK SC5AC2AC1 SLP249

CYHM;2009-12-18 13:00;CYHM 181300Z 07012KT 15SM FEW042 BKN080 M07/M11 A3021 RMK SC2AC6 SLP245

CYHM;2009-12-18 14:00;CYHM 181400Z 07014KT 15SM FEW045 SCT082 BKN130 BKN220 M06/M09 A3020 RMK SC1AC3AC2CI1 TR CU ASOCTD SLP243

CYHM;2009-12-18 15:00;CYHM 181500Z 07014KT 15SM FEW030 FEW045 SCT085 BKN130 M05/M09 A3019 RMK CU1SC2AC2AC4 CU TR SLP237

CYHM;2009-12-18 16:00;CYHM 181600Z 06010KT 15SM FEW030 BKN091 BKN150 BKN220 M04/M08 A3017 RMK CU1AC5AC1CI1 CU TR SLP232

CYHM;2009-12-18 17:00;CYHM 181700Z 06010KT 15SM FEW030 FEW060 BKN100 BKN220 M04/M09 A3015 RMK SC1SC2AC4CI1 TR CU ASOCTD SLP224

CYHM;2009-12-18 18:00;CYHM 181800Z 06015KT 15SM FEW030 SCT084 BKN100 OVC220 M03/M08 A3011 RMK SC1AC2AC2CI2 SLP211

CYHM;2009-12-18 19:00;CYHM 181900Z 07012KT 15SM FEW030 SCT080 BKN098 OVC220 M03/M08 A3010 RMK SC2AC2AC2CI2 SLP206

CYHM;2009-12-18 20:00;CYHM 182000Z 05015KT 15SM FEW030 FEW065 BKN095 BKN220 M03/M08 A3007 RMK CU1SC2AC2CI2 SLP198

CYHM;2009-12-18 21:00;CYHM 182100Z 05016KT 15SM SCT044 BKN095 M03/M07 A3007 RMK SC4AC2 CU ASOCTD SLP195

CYHM;2009-12-18 22:00;CYHM 182200Z 06013KT 15SM FEW040 SCT062 OVC220 M03/M07 A3006 RMK SC2SC1CI5 CU ASOCTD CONTRAILS SLP194

CYHM;2009-12-18 23:00;CYHM 182300Z 06015KT 15SM FEW017 BKN058 OVC220 M03/M07 A3004 RMK CF1SC6CI2 SLP187

CYHM;2009-12-19 00:00;CYHM 190000Z 06013KT 15SM FEW057 SCT090 BKN170 M03/M07 A3003 RMK SC2AC2AC4 SLP183

CYHM;2009-12-19 01:00;CYHM 190100Z 07011KT 15SM FEW090 OVC220 M04/M07 A3003 RMK AC2CI6 SLP182

CYHM;2009-12-19 02:00;CYHM 190200Z 07016KT 15SM BKN091 OVC170 M04/M10 A3001 RMK AC6AC2 SLP176

CYHM;2009-12-19 03:00;CYHM 190300Z 06017KT 15SM FEW090 OVC180 M05/M11 A2999 RMK AC2AC6 SLP170

CYHM;2009-12-19 04:00;CYHM 190400Z 07014G19KT 15SM FEW090 BKN180 M04/M12 A2997 RMK AC1AS4 SLP164

CYHM;2009-12-19 05:00;CYHM 190500Z 07014KT 15SM FEW090 BKN180 M04/M12 A2997 RMK AC2AS6 SLP163

CYHM;2009-12-19 06:00;CYHM 190600Z 07013G18KT 15SM BKN090 OVC160 M04/M12 A2995 RMK AC7AS1 SLP154

CYHM;2009-12-19 07:00;CYHM 190700Z 07016KT 15SM OVC088 M04/M10 A2994 RMK AC8 SLP149

CYHM;2009-12-19 08:00;CYHM 190800Z 06016G21KT 15SM BKN180 M03/M11 A2990 RMK AC6 SLP138

CYHM;2009-12-19 09:00;CYHM 190900Z 03010KT 15SM OVC120 M05/M08 A2991 RMK AC8 SLP140

CYHM;2009-12-19 10:00;CYHM 191000Z 06017KT 15SM FEW030 OVC080 M03/M12 A2990 RMK CU1AC7 SLP136

CYHM;2009-12-19 11:00;CYHM 191100Z 07017KT 15SM FEW030 OVC110 M03/M10 A2988 RMK CU1AC7 SLP132

CYHM;2009-12-19 12:00;CYHM 191200Z 08013KT 15SM FEW025 OVC140 M03/M09 A2988 RMK SC1AC7 SLP132

CYHM;2009-12-19 13:00;CYHM 191300Z 09012KT 15SM BKN015 OVC130 M03/M07 A2989 RMK SC7AC1 SLP134

CYHM;2009-12-19 14:00;CYHM 191400Z 09012KT 15SM SCT018 SCT120 BKN250 M03/M07 A2990 RMK SC3AC1CI2 SLP136

CYHM;2009-12-19 15:00;CYHM 191500Z 09015KT 15SM BKN019 BKN120 BKN250 M03/M06 A2990 RMK SC5AC1CI2 SLP136

CYHM;2009-12-19 16:00;CYHM 191600Z 08016KT 15SM BKN017 M03/M06 A2989 RMK SC7 SLP135

CYHM;2009-12-19 17:00;CYHM 191700Z 08014KT 15SM BKN016 M03/M06 A2987 RMK SC7 SLP126

CYHM;2009-12-19 18:00;CYHM 191800Z 06018KT 15SM BKN018 BKN070 M03/M07 A2985 RMK SC5AC2 SLP121

CYHM;2009-12-19 19:00;CYHM 191900Z 06016KT 15SM FEW020 BKN110 M03/M08 A2985 RMK SC2AS6 SLP119

CYHM;2009-12-19 20:00;CYHM 192000Z 05019KT 15SM FEW020 BKN081 M03/M08 A2985 RMK SC1AS6 SLP121

CYHM;2009-12-19 21:00;CYHM 192100Z 06017KT 15SM FEW025 OVC094 M04/M10 A2986 RMK SC1AS8 SLP123

CYHM;2009-12-19 22:00;CYHM 192200Z 06011KT 15SM OVC088 M04/M11 A2987 RMK AS8 SLP128

CYHM;2009-12-19 23:00;CYHM 192300Z 06014KT 15SM BKN087 M04/M11 A2989 RMK AC7 SLP133

CYHM;2009-12-20 00:00;CYHM 200000Z 02010KT 15SM OVC091 M05/M17 A2990 RMK AC8 SLP138

CYHM;2009-12-20 01:00;CYHM 200100Z 02010KT 15SM OVC110 M06/M16 A2990 RMK AC8 SLP138

CYHM;2009-12-20 02:00;CYHM 200200Z 02009KT 15SM OVC100 M06/M17 A2991 RMK AC8 SLP139

CYHM;2009-12-20 03:00;CYHM 200300Z 02011KT 15SM OVC100 M06/M16 A2991 RMK AC8 SLP141

CYHM;2009-12-20 04:00;CYHM 200400Z 02009KT 15SM OVC120 M06/M15 A2991 RMK AC8 SLP140

CYHM;2009-12-20 05:00;CYHM 200500Z 02008KT 15SM OVC110 M06/M14 A2991 RMK AC8 SLP140

CYHM;2009-12-20 06:00;CYHM 200600Z 34004KT 15SM BKN120 M06/M14 A2990 RMK AC7 SLP137

CYHM;2009-12-20 07:00;CYHM 200700Z 33006KT 15SM BKN075 M06/M15 A2991 RMK AC5 SLP141

CYHM;2009-12-20 08:00;CYHM 200800Z 34003KT 15SM BKN080 M06/M14 A2992 RMK AC6 SLP145

CYHM;2009-12-20 09:00;CYHM 200900Z 36005KT 15SM OVC081 M05/M13 A2992 RMK AC8 SLP145

CYHM;2009-12-20 10:00;CYHM 201000Z 32004KT 15SM OVC081 M06/M12 A2993 RMK AC8 SLP148

CYHM;2009-12-20 11:00;CYHM 201100Z 00000KT 15SM OVC082 M06/M11 A2994 RMK AC8 SLP150

CYHM;2009-12-20 12:00;CYHM 201200Z 30003KT 15SM SCT064 OVC081 M06/M10 A2997 RMK SC3AC5 SLP161

CYHM;2009-12-20 13:00;CYHM 201300Z 28002KT 15SM OVC073 M05/M11 A2998 RMK AC8 SLP167

CYHM;2009-12-20 14:00;CYHM 201400Z 28004KT 15SM OVC072 M05/M11 A2999 RMK AC8 SLP170

CYHM;2009-12-20 15:00;CYHM 201500Z 25005KT 15SM BKN075 OVC090 M04/M11 A3000 RMK AC6AC2 SLP173

CYHM;2009-12-20 16:00;CYHM 201600Z 27005KT 15SM OVC088 M03/M11 A3001 RMK AC8 SLP174

CYHM;2009-12-20 17:00;CYHM 201700Z 27003KT 15SM BKN089 M02/M10 A3000 RMK AC7 SLP171

CYHM;2009-12-20 18:00;CYHM 201800Z 29007KT 15SM BKN047 BKN084 M01/M09 A2998 RMK SC5AC2 SLP163

CYHM;2009-12-20 19:00;CYHM 201900Z 25010KT 15SM BKN042 M00/M08 A2997 RMK SC7 SLP161

CYHM;2009-12-20 20:00;CYHM 202000Z 28009KT 15SM SCT030 BKN062 M00/M07 A2999 RMK SC3SC4 SLP167

CYHM;2009-12-20 20:39;CYHM 202039Z 27009KT 4SM -SHSN BKN030 OVC062 RMK SC6SC2

CYHM;2009-12-20 21:00;CYHM 202100Z 27007KT 6SM -SHSN BKN027 M02/M04 A3001 RMK SC7 SLP173

CYHM;2009-12-20 22:00;CYHM 202200Z 27004KT 15SM -SHSN SCT036 OVC049 M02/M04 A3001 RMK SC3SC5 PCPN VRY LGT SLP176

CYHM;2009-12-20 22:42;CYHM 202242Z 26002KT 15SM OVC043 RMK SC8

CYHM;2009-12-20 23:00;CYHM 202300Z 26003KT 15SM OVC043 M02/M04 A3002 RMK SC8 SLP179

CYHM;2009-12-21 00:00;CYHM 210000Z 25002KT 15SM BKN047 M02/M04 A3003 RMK SC7 SLP181

CYHM;2009-12-21 01:00;CYHM 210100Z 00000KT 15SM OVC047 M02/M04 A3003 RMK SC8 SLP182

CYHM;2009-12-21 02:00;CYHM 210200Z 27002KT 15SM OVC046 M02/M04 A3003 RMK SC8 SLP180

CYHM;2009-12-21 03:00;CYHM 210300Z 00000KT 15SM BKN053 M03/M05 A3002 RMK SC7 SLP179

CYHM;2009-12-21 04:00;CYHM 210400Z 26002KT 15SM -SHSN OVC051 M03/M05 A3003 RMK SC8 CF ASOCTD SLP180

CYHM;2009-12-21 05:00;CYHM 210500Z 26002KT 15SM BKN049 OVC095 M03/M05 A3002 RMK SC7AC1 SLP178

CYHM;2009-12-21 05:51;CYHM 210551Z 00000KT 15SM -SHSN OVC033 RMK SC8

CYHM;2009-12-21 06:00;CYHM 210600Z 00000KT 15SM -SHSN OVC031 M03/M05 A3001 RMK SC8 SLP175

CYHM;2009-12-21 07:00;CYHM 210700Z 00000KT 15SM -SHSN OVC026 M03/M05 A3001 RMK SC8 SLP175

CYHM;2009-12-21 08:00;CYHM 210800Z 00000KT 15SM -SHSN OVC022 M03/M04 A3002 RMK SC8 SLP178

CYHM;2009-12-21 09:00;CYHM 210900Z 00000KT 15SM -SHSN FEW010 OVC020 M03/M04 A3002 RMK CF1SC8 SLP176

CYHM;2009-12-21 10:00;CYHM 211000Z 00000KT 15SM -SHSN FEW017 OVC047 M03/M04 A3001 RMK CF1SC7 SLP174

CYHM;2009-12-21 11:00;CYHM 211100Z 00000KT 15SM FEW020 BKN059 OVC090 M03/M04 A3002 RMK CF2SC5AC2 SLP176

CYHM;2009-12-21 11:51;CYHM 211151Z 00000KT 15SM -SHSN BKN055 OVC093 RMK SC6AC2

CYHM;2009-12-21 12:00;CYHM 211200Z 00000KT 15SM -SHSN FEW055 BKN093 M04/M04 A3002 RMK SC2AC2 SLP179

CYHM;2009-12-21 12:23;CYHM 211223Z 00000KT 15SM FEW059 SCT095 BKN120 RMK SC2AC2AC2

CYHM;2009-12-21 12:52;CYHM 211252Z 00000KT 8SM -SHSN BKN044 BKN058 BKN130 RMK SC5SC1AC2

CYHM;2009-12-21 13:00;CYHM 211300Z 00000KT 6SM -SHSN BKN042 BKN058 BKN130 M04/M04 A3002 RMK SC5SC2AC1 SLP179

CYHM;2009-12-21 14:00;CYHM 211400Z 00000KT 6SM -SHSN BKN023 BKN035 OVC120 M03/M03 A3003 RMK SC6SC2AC1 SLP181

CYHM;2009-12-21 15:00;CYHM 211500Z 00000KT 6SM -SHSN SCT024 OVC049 M02/M03 A3003 RMK SC3SC5 SLP181

CYHM;2009-12-21 16:00;CYHM 211600Z 00000KT 7SM -SHSN BKN010 OVC024 M02/M04 A3003 RMK SC6SC2 TR CU ASOCTD SLP179

CYHM;2009-12-21 17:00;CYHM 211700Z 00000KT 6SM -SHSN BKN014 OVC023 M02/M04 A3002 RMK SC6SC2 SLP177

CYHM;2009-12-21 18:00;CYHM 211800Z CCA 00000KT 4SM -SHSN BKN011 OVC018 M01/M03 A3002 RMK SC6SC2 SLP176

CYHM;2009-12-21 19:00;CYHM 211900Z 27005KT 4SM -SHSN SCT012 BKN018 OVC044 M01/M03 A3001 RMK SF3SC4SC1 SLP174

CYHM;2009-12-21 20:00;CYHM 212000Z 25003KT 3SM -SHSN FEW012 BKN020 OVC036 M01/M03 A3002 RMK SF2SC6SC1 SLP177

CYHM;2009-12-21 21:00;CYHM 212100Z 00000KT 4SM -SHSN BKN018 OVC027 M01/M03 A3003 RMK SF5SC3 SLP181

CYHM;2009-12-21 22:00;CYHM 212200Z 00000KT 5SM -SHSN OVC020 M02/M03 A3004 RMK SC8 SF ASOCTD SLP185

CYHM;2009-12-21 23:00;CYHM 212300Z 00000KT 8SM -SHSN FEW016 OVC040 M02/M03 A3005 RMK SF2SC6 SLP187

CYHM;2009-12-22 00:00;CYHM 220000Z 00000KT 8SM -SHSN OVC018 M02/M03 A3006 RMK SC8 SF ASOCTD SLP192

CYHM;2009-12-22 01:00;CYHM 220100Z 30002KT 10SM -SHSN FEW018 OVC038 M03/M03 A3008 RMK SF1SC7 SLP198

CYHM;2009-12-22 02:00;CYHM 220200Z 00000KT 12SM -SHSN OVC038 M03/M04 A3010 RMK SC8 SLP204

CYHM;2009-12-22 03:00;CYHM 220300Z 00000KT 12SM -SHSN BKN042 OVC100 M03/M05 A3010 RMK SC5AC3 SLP203

CYHM;2009-12-22 04:00;CYHM 220400Z 00000KT 10SM -SHSN BKN032 OVC080 M03/M05 A3010 RMK SC6AC2 SLP205

CYHM;2009-12-22 05:00;CYHM 220500Z 00000KT 10SM -SHSN OVC030 M03/M05 A3010 RMK SC8 SLP205

CYHM;2009-12-22 06:00;CYHM 220600Z 00000KT 8SM -SHSN OVC015 M04/M06 A3010 RMK SC8 SLP205

CYHM;2009-12-22 07:00;CYHM 220700Z 02005KT 6SM -SHSN OVC020 M05/M07 A3010 RMK SC8 SLP206

CYHM;2009-12-22 08:00;CYHM 220800Z 01004KT 5SM -SHSN OVC018 M05/M07 A3013 RMK SC8 SLP213

CYHM;2009-12-22 09:00;CYHM 220900Z CCA 01004KT 5SM -SHSN OVC018 M05/M07 A3013 RMK SC8 SLP217

CYHM;2009-12-22 10:00;CYHM 221000Z 02003KT 15SM -SHSN OVC018 M05/M07 A3015 RMK SC8 SLP222

CYHM;2009-12-22 11:00;CYHM 221100Z 02007KT 8SM -SHSN OVC020 M05/M07 A3016 RMK SC8 SLP226

CYHM;2009-12-22 12:00;CYHM 221200Z 02006KT 10SM -SHSN FEW022 BKN063 BKN120 M06/M08 A3018 RMK SC2SC3AC1 SLP234

CYHM;2009-12-22 13:00;CYHM 221300Z 04007KT 15SM -SHSN BKN010 BKN050 BKN140 M08/M09 A3021 RMK SC5SC1AC1 TR CU ASO0CTD SLP244

CYHM;2009-12-22 14:00;CYHM 221400Z 04008KT 15SM FEW025 M08/M11 A3024 RMK SC2 RESN SLP253

CYHM;2009-12-22 15:00;CYHM 221500Z 01006KT 15SM FEW030 FEW220 M09/M12 A3026 RMK SC1CI1 SC TR CI TR SLP261

CYHM;2009-12-22 16:00;CYHM 221600Z 02008KT 15SM FEW030 FEW240 M08/M13 A3026 RMK CU1CI1 CU TR SLP260

CYHM;2009-12-22 17:00;CYHM 221700Z 02005KT 15SM FEW025 SCT240 M07/M13 A3025 RMK CU1CI1 U TR CONTRAIL SLP259

CYHM;2009-12-22 18:00;CYHM 221800Z 35002KT 15SM FEW025 FEW240 M06/M13 A3024 RMK CU1CI1 SLP255

CYHM;2009-12-22 19:00;CYHM 221900Z 34004KT 15SM FEW250 M05/M12 A3024 RMK CI1 SLP255

CYHM;2009-12-22 20:00;CYHM 222000Z 33004KT 15SM FEW250 M04/M12 A3025 RMK CI1 SLP256

CYHM;2009-12-22 21:00;CYHM 222100Z 28005KT 15SM FEW250 M05/M12 A3026 RMK CI1 CI TR SLP260

CYHM;2009-12-22 22:00;CYHM 222200Z 31005KT 15SM FEW040 FEW250 M08/M12 A3026 RMK SC1CI1 SC TR CI TR SLP262

CYHM;2009-12-22 23:00;CYHM 222300Z 31006KT 15SM FEW250 M08/M12 A3028 RMK CI1 CI TR SLP267

CYHM;2009-12-23 00:00;CYHM 230000Z 31007KT 15SM FEW250 M10/M13 A3030 RMK CI1 CI TR SLP275

CYHM;2009-12-23 01:00;CYHM 230100Z 31006KT 15SM FEW250 M10/M13 A3030 RMK CI1 CI TR SLP277

CYHM;2009-12-23 02:00;CYHM 230200Z 28004KT 15SM FEW250 M10/M12 A3030 RMK CI1 CI TR SLP278

CYHM;2009-12-23 03:00;CYHM 230300Z 26003KT 15SM FEW040 M11/M13 A3031 RMK SC1 SC TR SLP280

CYHM;2009-12-23 04:00;CYHM 230400Z 28005KT 15SM FEW040 M10/M12 A3031 RMK SC1 SC TR SLP281

CYHM;2009-12-23 05:00;CYHM 230500Z 30002KT 15SM FEW040 FEW250 M11/M13 A3031 RMK SC1CI1 CI TR SLP280

CYHM;2009-12-23 06:00;CYHM 230600Z 32003KT 15SM FEW042 M11/M13 A3032 RMK SC1 SLP284

CYHM;2009-12-23 07:00;CYHM 230700Z 26002KT 15SM FEW028 M12/M13 A3033 RMK SC1 SLP285

CYHM;2009-12-23 08:00;CYHM 230800Z 25004KT 15SM FEW028 M13/M14 A3032 RMK SC1 SLP284

CYHM;2009-12-23 09:00;CYHM 230900Z 26004KT 15SM FEW026 M13/M14 A3032 RMK SC1 SC TR SLP285

CYHM;2009-12-23 10:00;CYHM 231000Z 30007KT 15SM SKC M11/M13 A3031 RMK SLP282

CYHM;2009-12-23 11:00;CYHM 231100Z 28005KT 15SM FEW030 FEW220 M12/M13 A3032 RMK SC1CI1 SC TR CI TR SLP285

CYHM;2009-12-23 12:00;CYHM 231200Z 28006KT 15SM FEW030 M12/M13 A3033 RMK SC1 SC TR SLP289

CYHM;2009-12-23 13:00;CYHM 231300Z 27004KT 15SM BKN024 M12/M13 A3035 RMK SC6 SLP294

CYHM;2009-12-23 14:00;CYHM 231400Z 25006KT 15SM BKN022 M10/M12 A3036 RMK SC7 SLP298

CYHM;2009-12-23 15:00;CYHM 231500Z 26006KT 15SM BKN021 M08/M10 A3036 RMK SC7 TR CU ASOCTD SLP296

CYHM;2009-12-23 15:12;CYHM 231512Z 23004KT 15SM -SHSN BKN020 RMK SC7 TR CU ASOCTD

CYHM;2009-12-23 16:00;CYHM 231600Z 34007KT 15SM FEW016 OVC020 M06/M09 A3035 RMK CU1SC7 SLP293

CYHM;2009-12-23 17:00;CYHM 231700Z 32004KT 15SM -SHSN OVC021 M05/M09 A3034 RMK SC8 CU ASOCTD SLP291

CYHM;2009-12-23 18:00;CYHM 231800Z 32005KT 15SM -SHSN BKN022 M05/M09 A3032 RMK SC7 SLP283

CYHM;2009-12-23 18:47;CYHM 231847Z 32010KT 15SM OVC021 RMK SC8

CYHM;2009-12-23 19:00;CYHM 231900Z 33008KT 15SM OVC022 M04/M09 A3031 RMK SC8 SLP280

CYHM;2009-12-23 20:00;CYHM 232000Z 31009KT 15SM BKN020 M04/M08 A3031 RMK SC7 SLP281

CYHM;2009-12-23 21:00;CYHM 232100Z 30007KT 15SM BKN021 M05/M08 A3033 RMK SC7 SLP288

CYHM;2009-12-23 22:00;CYHM 232200Z 29006KT 15SM BKN019 M05/M08 A3034 RMK SC7 SLP290

CYHM;2009-12-23 23:00;CYHM 232300Z 30006KT 15SM OVC019 M05/M08 A3034 RMK SC8 SLP292

CYHM;2009-12-24 00:00;CYHM 240000Z 33006KT 15SM OVC019 M05/M08 A3036 RMK SC8 SLP296

CYHM;2009-12-24 01:00;CYHM 240100Z 36009KT 15SM BKN018 M05/M09 A3036 RMK SC7 SLP296

CYHM;2009-12-24 02:00;CYHM 240200Z 36004KT 15SM OVC017 M05/M08 A3037 RMK SC8 SLP300

CYHM;2009-12-24 03:00;CYHM 240300Z 02005KT 15SM OVC017 M05/M08 A3037 RMK SC8 SLP299

CYHM;2009-12-24 04:00;CYHM 240400Z 03007KT 15SM -SHSN OVC017 M05/M08 A3037 RMK SC8 SLP299

CYHM;2009-12-24 05:00;CYHM 240500Z 04006KT 15SM BKN017 M06/M09 A3036 RMK SC6 SLP297

CYHM;2009-12-24 06:00;CYHM 240600Z 04007KT 15SM SCT018 M07/M10 A3036 RMK SC3 SLP297

CYHM;2009-12-24 07:00;CYHM 240700Z 02006KT 15SM OVC014 M07/M10 A3037 RMK SC8 SLP299

CYHM;2009-12-24 08:00;CYHM 240800Z 01008KT 15SM OVC011 M07/M10 A3036 RMK SC8 SLP294

CYHM;2009-12-24 09:00;CYHM 240900Z 32004KT 15SM OVC012 M07/M09 A3037 RMK SC8 SLP298

CYHM;2009-12-24 10:00;CYHM 241000Z 29005KT 15SM OVC011 M06/M09 A3041 RMK SC8 SLP313

CYHM;2009-12-24 10:36;CYHM 241036Z 34006KT 15SM OVC009 RMK SC8

CYHM;2009-12-24 11:00;CYHM 241100Z 02003KT 12SM OVC008 M06/M08 A3039 RMK SC8 CIG RAG SLP305

CYHM;2009-12-24 12:00;CYHM 241200Z 04004KT 10SM OVC008 M06/M08 A3039 RMK SC8 SLP304

CYHM;2009-12-24 13:00;CYHM 241300Z 06006KT 6SM BR OVC007 M05/M06 A3039 RMK SC8 CIG RAG SLP305

CYHM;2009-12-24 14:00;CYHM 241400Z 09008KT 8SM OVC007 M05/M06 A3039 RMK SC8 SLP306

CYHM;2009-12-24 15:00;CYHM 241500Z 09012KT 7SM OVC007 M04/M05 A3039 RMK SC8 SLP306

CYHM;2009-12-24 16:00;CYHM 241600Z 08012KT 8SM OVC007 M04/M05 A3047 RMK SC8 SLP332

CYHM;2009-12-24 17:00;CYHM 241700Z 09014KT 10SM OVC007 M04/M05 A3039 RMK SC8 SLP305

CYHM;2009-12-24 18:00;CYHM 241800Z 08015KT 8SM BKN008 M03/M05 A3036 RMK SC7 SLP295

CYHM;2009-12-24 19:00;CYHM 241900Z 09014G19KT 15SM OVC008 M03/M04 A3035 RMK SC8 SLP291

CYHM;2009-12-24 20:00;CYHM 242000Z 07014KT 15SM OVC008 M02/M04 A3033 RMK SC8 SLP286

CYHM;2009-12-24 21:00;CYHM 242100Z 07017KT 15SM BKN010 M02/M04 A3033 RMK SC7 CIG RAG SLP283

CYHM;2009-12-24 22:00;CYHM 242200Z 06018KT 15SM BKN010 M02/M04 A3030 RMK SC6 SLP276

CYHM;2009-12-24 23:00;CYHM 242300Z 07017KT 10SM BKN009 M02/M04 A3031 RMK SC7 SLP279

CYHM;2009-12-25 00:00;CYHM 250000Z 07016KT 10SM BKN008 M02/M04 A3030 RMK SC7 SLP275

CYHM;2009-12-25 01:00;CYHM 250100Z 07017KT 8SM BKN007 BKN180 M03/M04 A3027 RMK SF6AC1 SLP265

CYHM;2009-12-25 02:00;CYHM 250200Z 06015G20KT 8SM BKN007 M03/M03 A3026 RMK SF6 SLP262

CYHM;2009-12-25 03:00;CYHM 250300Z 06017KT 6SM BR BKN006 M03/M04 A3025 RMK SF6 SLP256

CYHM;2009-12-25 04:00;CYHM 250400Z 06017KT 6SM BR SCT007 M03/M04 A3024 RMK SF4 SLP254

CYHM;2009-12-25 05:00;CYHM 250500Z 06017KT 6SM BR SCT007 SCT170 M03/M04 A3023 RMK SF3AC1 SLP249

CYHM;2009-12-25 06:00;CYHM 250600Z 06017G22KT 7SM BKN006 BKN150 M02/M03 A3019 RMK SF5AC1 SLP236

CYHM;2009-12-25 07:00;CYHM 250700Z 06018KT 10SM FEW006 SCT220 M03/M04 A3018 RMK CF1CI2 FROIN SLP232

CYHM;2009-12-25 08:00;CYHM 250800Z 07016KT 15SM SCT210 M03/M04 A3018 RMK CI2 FROIN SLP232

CYHM;2009-12-25 09:00;CYHM 250900Z 06015KT 15SM SCT210 M03/M04 A3015 RMK CI2 FROIN SLP222

CYHM;2009-12-25 10:00;CYHM 251000Z 07014KT 15SM BKN250 M02/M04 A3012 RMK CI5 FROIN SLP213

CYHM;2009-12-25 11:00;CYHM 251100Z 06013KT 15SM OVC220 M02/M03 A3012 RMK CI8 FROIN SLP213

CYHM;2009-12-25 12:00;CYHM 251200Z 06018KT 15SM FEW045 OVC220 M01/M03 A3010 RMK SC2CI6 SLP205

CYHM;2009-12-25 13:00;CYHM 251300Z 06012KT 15SM FEW055 BKN170 OVC220 M01/M03 A3013 RMK SC2AC4CI2 SLP213

CYHM;2009-12-25 14:00;CYHM 251400Z 07012KT 15SM FEW045 BKN170 OVC210 M01/M03 A3012 RMK SC1AC5CI2 SLP210

CYHM;2009-12-25 15:00;CYHM 251500Z 06014KT 15SM FEW045 BKN140 OVC220 M00/M03 A3010 RMK SC1AC6CI2 SC TR SLP206

CYHM;2009-12-25 16:00;CYHM 251600Z 06015KT 15SM FEW020 FEW045 OVC100 00/M02 A3009 RMK CU1SC2AC6 CU TR SLP201

CYHM;2009-12-25 16:54;CYHM 251654Z 07014KT 15SM -SHRA BKN060 OVC080 RMK SC5AC3

CYHM;2009-12-25 17:00;CYHM 251700Z 08015KT 15SM -SHRA FEW025 BKN060 OVC080 01/M01 A3007 RMK CU1SC5AC3 CU TR SLP193

CYHM;2009-12-25 18:00;CYHM 251800Z 07014KT 7SM -SHRA BKN042 OVC064 00/M00 A3003 RMK SC6SC2 SLP179

CYHM;2009-12-25 19:00;CYHM 251900Z 07014KT 4SM -SHRA BR BKN045 OVC076 00/M01 A3002 RMK SC6AC2 SLP176

CYHM;2009-12-25 20:00;CYHM 252000Z 06014KT 5SM -SHRA BR BKN048 OVC071 00/00 A3001 RMK SC6AC2 SLP172

CYHM;2009-12-25 21:00;CYHM 252100Z 07013KT 3SM -SHRA BR SCT013 OVC045 01/01 A3003 RMK SC3SC5 SLP178

CYHM;2009-12-25 21:22;CYHM 252122Z 07013KT 5SM -SHRA BR FEW005 FEW013 SCT045 OVC063 RMK CF1SC1SC2SC5

CYHM;2009-12-25 22:00;CYHM 252200Z 08013KT 3SM -SHRA BR FEW004 SCT041 OVC057 01/01 A3000 RMK CF2SC1SC5 SLP169

CYHM;2009-12-25 23:00;CYHM 252300Z 06017KT 4SM -RA BR SCT003 OVC059 02/02 A2996 RMK CF3SC5 SLP157

CYHM;2009-12-25 23:22;CYHM 252322Z 06018KT 4SM -RA BR BKN002 OVC059 RMK CF6SC2

CYHM;2009-12-26 00:00;CYHM 260000Z 07016KT 3SM -RA BR OVC002 02/02 A2994 RMK CF8 /R11/ SLP149

CYHM;2009-12-26 00:49;CYHM 260049Z 07018KT 2SM -RA BR OVC002 RMK FG1CF7

CYHM;2009-12-26 01:00;CYHM 260100Z 07020KT 1SM -RA BR OVC002 02/02 A2992 RMK FG3CF5 SLP142

CYHM;2009-12-26 01:29;CYHM 260129Z 07017KT 2SM -RA BR OVC002 RMK FG1CF7

CYHM;2009-12-26 02:00;CYHM 260200Z 07015KT 2SM -RA BR OVC002 02/02 A2991 RMK FG1CF7 SLP138

CYHM;2009-12-26 03:00;CYHM 260300Z CCA 07012KT 2 1/2SM -RA BR OVC002 03/03 A2990 RMK CF8 SLP133

CYHM;2009-12-26 04:00;CYHM 260400Z 08010KT 2 1/2SM -RA BR OVC002 03/03 A2989 RMK CF8 SLP131

CYHM;2009-12-26 05:00;CYHM 260500Z 07010KT 3SM -RA BR BKN002 OVC022 03/03 A2988 RMK CF6SC2 SLP128

CYHM;2009-12-26 06:00;CYHM 260600Z 07009KT 2SM -RA BR BKN002 OVC024 03/03 A2987 RMK FG1CF6SC2 SLP124

CYHM;2009-12-26 07:00;CYHM 260700Z 06008KT 3SM -RA BR SCT002 BKN025 OVC046 03/03 A2987 RMK CF3SC2SC2 PCPN VRY LGT SLP122

CYHM;2009-12-26 08:00;CYHM 260800Z 04006KT 2SM -RA BR SCT002 OVC025 03/03 A2988 RMK FG1CF2SC5 PCPN VRY LGT SLP126

CYHM;2009-12-26 09:00;CYHM 260900Z 04006KT 2 1/2SM -RA BR FEW002 OVC019 03/03 A2988 RMK CF1SC7 SLP125

CYHM;2009-12-26 10:00;CYHM 261000Z 06004KT 2SM -RA BR FEW002 OVC017 03/03 A2988 RMK FG1CF1SC6 SLP127

CYHM;2009-12-26 10:28;CYHM 261028Z 09004KT 1 1/2SM -RA BR OVC007 RMK FG2SC6

CYHM;2009-12-26 11:00;CYHM 261100Z 10004KT 1 1/4SM -RA BR SCT002 OVC007 03/03 A2989 RMK FG2CF2SC4 SLP129

CYHM;2009-12-26 11:45;CYHM 261145Z 26015KT 4SM -RA BR SCT002 OVC008 RMK SF3SC5

CYHM;2009-12-26 12:00;CYHM 261200Z 26013KT 3SM -RA BR SCT002 OVC007 02/02 A2992 RMK SF3SC5 SLP141

CYHM;2009-12-26 12:32;CYHM 261232Z 27010KT 3SM -RASN BR FEW007 BKN024 OVC042 RMK SF2SC4SC2

CYHM;2009-12-26 12:48;CYHM 261248Z 25007KT 2 1/4SM -SN BR SCT002 BKN018 OVC035 RMK SF3SC3SC2

CYHM;2009-12-26 13:00;CYHM 261300Z 25007KT 1 3/4SM -SN BR SCT002 OVC030 01/01 A2994 RMK SF4SC4 SLP146

CYHM;2009-12-26 13:25;CYHM 261325Z 26005KT 1 1/4SM -SN BR SCT003 BKN008 OVC032 RMK SF3SF3SC2

CYHM;2009-12-26 14:00;CYHM 261400Z 26004KT 3SM -SN BR SCT006 OVC045 00/00 A2996 RMK SF4SC4 SLP152

CYHM;2009-12-26 14:36;CYHM 261436Z 26007KT 10SM FEW012 OVC044 RMK SC1SC7 1ST LYR TR

CYHM;2009-12-26 15:00;CYHM 261500Z 25006KT 12SM FEW012 OVC058 00/00 A2997 RMK SC1SC7 1ST LYR TR SLP156

CYHM;2009-12-26 16:00;CYHM 261600Z 24004KT 15SM FEW012 OVC054 00/M00 A2997 RMK SF1SC7 SF TR SLP157

CYHM;2009-12-26 17:00;CYHM 261700Z 00000KT 15SM BKN026 OVC060 00/M01 A2995 RMK SC6SC2 SLP151

CYHM;2009-12-26 18:00;CYHM 261800Z 00000KT 15SM BKN024 OVC062 00/M01 A2994 RMK SC6SC2 SLP146

CYHM;2009-12-26 19:00;CYHM 261900Z 00000KT 15SM FEW012 BKN022 01/M02 A2993 RMK SF1SC6 SF TR SLP143

CYHM;2009-12-26 20:00;CYHM 262000Z 12002KT 15SM BKN026 BKN089 01/M02 A2994 RMK SC6AC1 SLP146

CYHM;2009-12-26 21:00;CYHM 262100Z 12003KT 15SM FEW025 01/M01 A2994 RMK SC2 SLP146

CYHM;2009-12-26 22:00;CYHM 262200Z 09004KT 15SM BKN042 00/M01 A2993 RMK SC7 SLP143

CYHM;2009-12-26 23:00;CYHM 262300Z 11004KT 15SM BKN032 M00/M01 A2993 RMK SC7 SLP145

CYHM;2009-12-27 00:00;CYHM 270000Z 11002KT 15SM BKN048 M00/M01 A2994 RMK SC6 SLP148

CYHM;2009-12-27 01:00;CYHM 270100Z 12004KT 15SM BKN045 M01/M01 A2994 RMK SC6 SLP148

CYHM;2009-12-27 02:00;CYHM 270200Z 00000KT 15SM FEW047 M02/M02 A2994 RMK SC2 SLP148

CYHM;2009-12-27 03:00;CYHM 270300Z 00000KT 15SM FEW210 M02/M02 A2994 RMK CC1 SLP147

CYHM;2009-12-27 04:00;CYHM 270400Z 12002KT 2SM BR SCT200 M03/M03 A2992 RMK FG1CI2 VIS LWR SE SLP142

CYHM;2009-12-27 04:08;CYHM 270408Z 00000KT 1/2SM FZFG BKN200 RMK FG2CI2

CYHM;2009-12-27 04:21;CYHM 270421Z 12003KT 1/4SM FZFG BKN200 RMK FG3CI1

CYHM;2009-12-27 05:00;CYHM 270500Z 10003KT 1/4SM FZFG SKC M04/M04 A2990 RMK FG3 SLP135

CYHM;2009-12-27 06:00;CYHM 270600Z 11004KT 1/2SM FZFG SKC M05/M05 A2988 RMK FG2 FROIN SLP131

CYHM;2009-12-27 07:00;CYHM 270700Z 00000KT 3/4SM BR SKC M05/M05 A2988 RMK FG2 VIS VRB 1/2 - 1 FROIN SLP129

CYHM;2009-12-27 08:00;CYHM 270800Z 12006KT 1/2SM FZFG SKC M04/M05 A2988 RMK FG3 FROIN SLP129

CYHM;2009-12-27 08:37;CYHM 270837Z 13005KT 3/4SM BR BKN085 RMK FG2AC2 VIS VRB 1/2 - 1 FROIN

CYHM;2009-12-27 09:00;CYHM 270900Z 15007KT 3/4SM BR SCT085 M04/M04 A2985 RMK FG2AC1 VIS VRB 1/2 - 1 FROIN SLP118

CYHM;2009-12-27 09:29;CYHM 270929Z 14007KT 12SM SKC RMK FROIN

CYHM;2009-12-27 10:00;CYHM 271000Z 15006KT 15SM SKC M04/M04 A2984 RMK FROIN SLP115

CYHM;2009-12-27 11:00;CYHM 271100Z 17004KT 15SM BKN070 M03/M03 A2984 RMK AC4 FROIN SLP114

CYHM;2009-12-27 12:00;CYHM 271200Z 21006KT 15SM FEW053 BKN077 M02/M02 A2985 RMK SC1AC6 FROIN SLP119

CYHM;2009-12-27 13:00;CYHM 271300Z CCA 25007KT 15SM FEW055 BKN078 M02/M03 A2986 RMK SC2AC5 FROIN SLP122

CYHM;2009-12-27 14:00;CYHM 271400Z 23006KT 15SM FEW048 BKN074 M02/M03 A2987 RMK SC2AC4 SLP124

CYHM;2009-12-27 15:00;CYHM 271500Z 23008KT 15SM BKN054 M01/M03 A2987 RMK SC7 SLP124

CYHM;2009-12-27 16:00;CYHM 271600Z 23012KT 15SM FEW048 BKN071 M01/M04 A2986 RMK SC1AC6 SLP123

CYHM;2009-12-27 17:00;CYHM 271700Z 24010KT 15SM FEW025 BKN069 M01/M05 A2984 RMK CU1AC6 SLP115

CYHM;2009-12-27 18:00;CYHM 271800Z 24009KT 15SM FEW027 BKN067 M01/M04 A2982 RMK SC2AC5 SLP110

CYHM;2009-12-27 19:00;CYHM 271900Z 23010KT 15SM -SHSN FEW024 BKN067 M01/M04 A2981 RMK SC2AC4 PCPN VRY LGT SLP105

CYHM;2009-12-27 20:00;CYHM 272000Z 25010KT 15SM -SHSN BKN023 BKN061 M01/M04 A2981 RMK SC6SC2 PCPN VRY LGT SLP106

CYHM;2009-12-27 21:00;CYHM 272100Z 24008KT 4SM -SHSN FEW015 OVC030 M01/M04 A2981 RMK CF2SC6 SLP104

CYHM;2009-12-27 22:00;CYHM 272200Z 24006KT 5SM -SHSN FEW014 BKN033 OVC048 M02/M03 A2980 RMK CF1SC5SC2 SLP102

CYHM;2009-12-27 23:00;CYHM 272300Z 23008KT 15SM -SHSN OVC031 M02/M03 A2979 RMK SC8 SLP099

CYHM;2009-12-28 00:00;CYHM 280000Z CCA 23006KT 15SM -SHSN BKN028 OVC051 M02/M03 A2979 RMK SC5SC3 SLP099

CYHM;2009-12-28 01:00;CYHM 280100Z 25007KT 8SM BKN028 BKN050 M02/M03 A2978 RMK SC5SC2 SLP095

CYHM;2009-12-28 01:35;CYHM 280135Z 24006KT 6SM -SHSN FEW006 BKN034 BKN050 RMK CF1SC5SC2

CYHM;2009-12-28 02:00;CYHM 280200Z 25006KT 7SM -SHSN FEW008 BKN034 BKN050 M02/M03 A2976 RMK CF1SC5SC2 SLP088

CYHM;2009-12-28 02:47;CYHM 280247Z CCA 26006KT 2 1/2SM -SHSN FEW008 BKN028 BKN046 RMK CF1SC6SC1

CYHM;2009-12-28 03:00;CYHM 280300Z 26005KT 2 1/2SM -SHSN FEW008 BKN028 BKN046 M03/M03 A2974 RMK CF1SC6SC1 SLP080

CYHM;2009-12-28 04:00;CYHM 280400Z 27006KT 7SM -SHSN OVC030 M03/M04 A2972 RMK SC7 SLP074

CYHM;2009-12-28 05:00;CYHM 280500Z 26005KT 3SM -SHSN FEW005 OVC023 M03/M03 A2969 RMK CF1SC6 VIS VRB 2 - 4 SLP065

CYHM;2009-12-28 06:00;CYHM 280600Z 28006KT 4SM -SHSN OVC025 M03/M04 A2966 RMK SC8 /S01/ SLP055

CYHM;2009-12-28 06:42;CYHM 280642Z 28005KT 4SM -SN SCT008 OVC015 RMK CF3SC5

CYHM;2009-12-28 07:00;CYHM 280700Z 28006KT 6SM -SN SCT010 BKN087 M03/M04 A2966 RMK CF3AC3 SLP053

CYHM;2009-12-28 08:00;CYHM 280800Z 27009KT 8SM FEW012 BKN082 M04/M05 A2967 RMK CF2AC6 SLP058

CYHM;2009-12-28 09:00;CYHM 280900Z 25011KT 9SM BKN012 OVC060 M04/M05 A2968 RMK CF6SC2 SLP063

CYHM;2009-12-28 09:38;CYHM 280938Z 25011KT 10SM -SHSN OVC014 RMK SC8 CF ASOCTD

CYHM;2009-12-28 10:00;CYHM 281000Z 25012KT 7SM -SHSN OVC013 M04/M05 A2968 RMK SC8 CF ASOCTD SLP060

CYHM;2009-12-28 11:00;CYHM 281100Z 25014KT 6SM -SHSN OVC015 M04/M06 A2968 RMK SC8 CIG RAG SLP062

CYHM;2009-12-28 12:00;CYHM 281200Z 25010KT 6SM -SHSN OVC015 M04/M06 A2968 RMK SC8 SLP062

CYHM;2009-12-28 13:00;CYHM 281300Z 27012KT 15SM SCT019 BKN023 M05/M08 A2969 RMK SC3SC4 RESN SLP064

CYHM;2009-12-28 14:00;CYHM 281400Z 25014KT 15SM FEW015 SCT030 M06/M08 A2968 RMK CU1SC2 SLP061

CYHM;2009-12-28 14:26;CYHM 281426Z 25010KT 4SM -SHSN OVC038 RMK SC8

CYHM;2009-12-28 14:45;CYHM 281445Z 24014KT 2SM -SHSN SCT018 OVC040 RMK SC4SC4

CYHM;2009-12-28 15:00;CYHM 281500Z 24012KT 2SM -SHSN BKN025 OVC040 M05/M06 A2967 RMK SC6SC2 SLP058

CYHM;2009-12-28 16:00;CYHM 281600Z 24018KT 6SM -SHSN BKN016 OVC038 M04/M06 A2965 RMK SC6SC2 SLP054

CYHM;2009-12-28 17:00;CYHM 281700Z 24012KT 5SM -SHSN FEW014 BKN024 OVC040 M03/M05 A2963 RMK CF1SC5SC3 CF TR SLP046

CYHM;2009-12-28 17:14;CYHM 281714Z 25014KT 3/4SM -SN BKN008 OVC020 RMK SN1SF5SC2

CYHM;2009-12-28 17:32;CYHM 281732Z 24014KT 1 1/2SM -SN BKN009 OVC021 RMK SN1SF6SC2

CYHM;2009-12-28 17:50;CYHM 281750Z 25014KT 5SM -SN BKN014 OVC030 RMK SC6SC2

CYHM;2009-12-28 18:00;CYHM 281800Z 25015KT 3SM -SN SCT010 BKN017 OVC032 M04/M05 A2959 RMK SF4SC2SC2 SLP033

CYHM;2009-12-28 18:05;CYHM 281805Z 25015KT 1 1/2SM -SN BKN016 OVC020 RMK SN1SC6SC2

CYHM;2009-12-28 18:22;CYHM 281822Z 24015G20KT 2SM -SN BKN016 OVC032 RMK SC6SC2

CYHM;2009-12-28 18:32;CYHM 281832Z 26014KT 1SM -SN BKN016 OVC020 RMK SN1SC6SC2

CYHM;2009-12-28 18:42;CYHM 281842Z 25016KT 4SM -SN BKN014 OVC020 RMK SC6SC2

CYHM;2009-12-28 18:52;CYHM 281852Z 23015KT 2SM -SN BKN014 OVC034 RMK SC6SC2 SF ASOCTD

CYHM;2009-12-28 19:00;CYHM 281900Z 23015KT 1 1/2SM -SN BKN014 OVC030 M04/M05 A2958 RMK SN2SC6SC1 SF ASOCTD VSBY VRBL 1-2SM SLP028

CYHM;2009-12-28 20:00;CYHM 282000Z 24015G21KT 1 3/4SM -SN BKN014 OVC035 M04/M06 A2958 RMK SN1SC6SC1 VSBY VRBL 11/4-21/4SM SF ASOCTD SLP027

CYHM;2009-12-28 21:00;CYHM 282100Z 23015G22KT 2 1/4SM -SN BKN016 OVC044 M04/M06 A2958 RMK SC6SC2 VSBY VRBL 11/2-3SM SF ASOCTD SLP027

CYHM;2009-12-28 22:00;CYHM 282200Z 26013KT 3SM -SN FEW012 BKN120 M04/M05 A2960 RMK SC2AC3 SLP034

CYHM;2009-12-28 23:00;CYHM 282300Z 30013G20KT 15SM -SHSN FEW012 SCT038 BKN062 M03/M08 A2964 RMK SF1SC2SC4 SLP048

CYHM;2009-12-29 00:00;CYHM 290000Z 28015G21KT 15SM -SHSN FEW018 FEW032 SCT060 M05/M09 A2969 RMK SF1SC2SC1 1ST LYR TR SLP067

CYHM;2009-12-29 01:00;CYHM 290100Z 29014G20KT 15SM FEW026 SCT060 M06/M11 A2974 RMK SC2SC1 CUFRA ASOCTD SLP082

CYHM;2009-12-29 01:48;CYHM 290148Z 31015G21KT 12SM -SHSN FEW028 BKN040 RMK SC2SC4

CYHM;2009-12-29 02:00;CYHM 290200Z 31014G20KT 12SM -SHSN FEW032 BKN040 M06/M11 A2977 RMK SF2SC4 SLP094

CYHM;2009-12-29 03:00;CYHM 290300Z 32012G18KT 12SM -SHSN FEW018 BKN035 M07/M11 A2982 RMK SF1SC6 SLP113

CYHM;2009-12-29 04:00;CYHM 290400Z 32013G20KT 15SM -SHSN FEW020 SCT034 M09/M14 A2987 RMK CF1SC2 CUFRA SLP129

CYHM;2009-12-29 05:00;CYHM 290500Z 31013KT 15SM FEW028 M10/M14 A2991 RMK SC2 CUFRA ASOCTD SLP142

CYHM;2009-12-29 06:00;CYHM 290600Z 30015G21KT 15SM FEW026 M11/M15 A2995 RMK SC2 CUFRA ASOCTD SLP158

CYHM;2009-12-29 07:00;CYHM 290700Z 31013KT 15SM FEW026 M11/M16 A3001 RMK SC1 SC TR SLP176

CYHM;2009-12-29 08:00;CYHM 290800Z 30012KT 15SM FEW024 M12/M17 A3006 RMK SC1 SC TR SLP192

CYHM;2009-12-29 09:00;CYHM 290900Z 31010KT 15SM FEW024 M12/M17 A3009 RMK SC1 SC TR SLP204

CYHM;2009-12-29 10:00;CYHM 291000Z 32007KT 15SM FEW024 M13/M18 A3012 RMK SC1 SC TR SLP216

CYHM;2009-12-29 11:00;CYHM 291100Z 32010KT 15SM FEW024 FEW220 M13/M17 A3017 RMK SC1CI1 SLP231

CYHM;2009-12-29 12:00;CYHM 291200Z 30008KT 15SM FEW025 FEW220 M13/M17 A3022 RMK SC1CI1 SC TR CI TR SLP249

CYHM;2009-12-29 13:00;CYHM 291300Z 33010KT 15SM FEW025 FEW220 M13/M17 A3025 RMK SC1CI1 CI TR SLP259

CYHM;2009-12-29 14:00;CYHM 291400Z 32008KT 15SM FEW025 M13/M17 A3028 RMK SC1 TR CU ASOCTD SLP271

CYHM;2009-12-29 15:00;CYHM 291500Z 32015KT 15SM FEW020 FEW040 M11/M17 A3032 RMK CU1SC1 SLP285

CYHM;2009-12-29 16:00;CYHM 291600Z 33012KT 15SM FEW020 FEW042 M10/M16 A3034 RMK CU2SC1 SLP291

CYHM;2009-12-29 17:00;CYHM 291700Z 30012KT 15SM FEW025 FEW032 M10/M15 A3033 RMK CU1SC1 SLP288

CYHM;2009-12-29 18:00;CYHM 291800Z 34012KT 15SM FEW030 FEW040 M08/M14 A3032 RMK CU2SC1 SLP283

CYHM;2009-12-29 19:00;CYHM 291900Z 28012KT 15SM BKN040 M07/M13 A3033 RMK SC7 SLP286

CYHM;2009-12-29 20:00;CYHM 292000Z 25012KT 15SM SCT034 BKN044 M08/M13 A3034 RMK SC3SC4 SF ASOCTD SLP291

CYHM;2009-12-29 21:00;CYHM 292100Z 26011KT 15SM OVC040 M08/M13 A3035 RMK SC8 SF ASOCTD SLP295

CYHM;2009-12-29 22:00;CYHM 292200Z 24010KT 15SM BKN040 M08/M12 A3035 RMK SC7 SLP295

CYHM;2009-12-29 23:00;CYHM 292300Z 21007KT 15SM BKN042 M09/M12 A3035 RMK SC7 SLP294

CYHM;2009-12-29 23:21;CYHM 292321Z 23007KT 15SM -SHSN OVC038 RMK SC8

CYHM;2009-12-30 00:00;CYHM 300000Z 23009KT 15SM -SHSN BKN040 M08/M11 A3036 RMK SC7 SLP297

CYHM;2009-12-30 01:00;CYHM 300100Z 23007KT 15SM -SHSN BKN038 M08/M10 A3036 RMK SC7 SLP300

CYHM;2009-12-30 02:00;CYHM 300200Z 22006KT 15SM -SHSN BKN040 M08/M10 A3038 RMK SC7 SLP304

CYHM;2009-12-30 03:00;CYHM 300300Z 26007KT 15SM -SHSN BKN035 M07/M10 A3037 RMK SC7 SLP300

CYHM;2009-12-30 04:00;CYHM 300400Z 24007KT 15SM FEW035 M08/M10 A3037 RMK SC2 SLP300

CYHM;2009-12-30 05:00;CYHM 300500Z 23006KT 15SM FEW035 M08/M11 A3037 RMK SC2 SLP300

CYHM;2009-12-30 06:00;CYHM 300600Z 22006KT 15SM SCT033 M10/M12 A3037 RMK SC4 SLP300

CYHM;2009-12-30 07:00;CYHM 300700Z 22005KT 15SM FEW030 M11/M13 A3036 RMK SC2 SLP299

CYHM;2009-12-30 08:00;CYHM 300800Z 23004KT 15SM FEW030 M11/M13 A3037 RMK SC2 SLP300

CYHM;2009-12-30 09:00;CYHM 300900Z 22004KT 15SM FEW030 M11/M13 A3036 RMK SC2 SLP296

CYHM;2009-12-30 10:00;CYHM 301000Z 22004KT 15SM FEW030 M11/M13 A3033 RMK SC2 SLP289

CYHM;2009-12-30 11:00;CYHM 301100Z 22005KT 15SM FEW030 FEW250 M11/M13 A3033 RMK SC1CI1 SLP286

CYHM;2009-12-30 12:00;CYHM 301200Z 25002KT 15SM BKN025 BKN220 M10/M11 A3033 RMK SC5CI2 SLP286

CYHM;2009-12-30 13:00;CYHM 301300Z 22004KT 15SM BKN022 M08/M11 A3033 RMK SC7 SLP288

CYHM;2009-12-30 14:00;CYHM 301400Z 21004KT 15SM SCT023 BKN045 BKN220 M08/M10 A3032 RMK SC3SC2CI1 SLP285

CYHM;2009-12-30 15:00;CYHM 301500Z 24008KT 15SM FEW023 FEW160 BKN220 M06/M09 A3030 RMK SC2AC1CI2 SLP276

CYHM;2009-12-30 16:00;CYHM 301600Z 20012KT 15SM FEW021 SCT160 BKN210 M04/M08 A3028 RMK SC2AC1CI2 SLP270

CYHM;2009-12-30 17:00;CYHM 301700Z 19012KT 15SM FEW022 BKN130 OVC220 M04/M08 A3026 RMK SC2AC2CI2 CU ASOCTD SLP261

CYHM;2009-12-30 18:00;CYHM 301800Z 21012KT 15SM FEW030 SCT100 OVC130 M04/M07 A3023 RMK SC2AC1AS4 SLP250

CYHM;2009-12-30 19:00;CYHM 301900Z 21010KT 15SM FEW030 OVC160 M03/M07 A3018 RMK CU1AS7 CU TR SLP236

CYHM;2009-12-30 20:00;CYHM 302000Z 19008KT 15SM FEW040 OVC070 M03/M07 A3016 RMK SC2AC6 SLP229

CYHM;2009-12-30 21:00;CYHM 302100Z 19007KT 15SM FEW040 BKN070 OVC100 M03/M07 A3015 RMK SC2AC4AC2 SLP224

CYHM;2009-12-30 22:00;CYHM 302200Z 18005KT 15SM FEW040 BKN070 BKN100 BKN180 M03/M07 A3013 RMK SC1AC4AC2AC1 SLP219

CYHM;2009-12-30 23:00;CYHM 302300Z 17004KT 15SM FEW040 SCT070 BKN095 M04/M07 A3012 RMK SC1AC3AC3 SLP214

CYHM;2009-12-31 00:00;CYHM 310000Z 16003KT 15SM FEW070 SCT095 BKN160 M04/M07 A3010 RMK AC2AC2AC4 SLP208

CYHM;2009-12-31 01:00;CYHM 310100Z 12003KT 15SM SCT075 BKN140 M04/M07 A3008 RMK AC3AC4 SLP202

CYHM;2009-12-31 02:00;CYHM 310200Z 00000KT 15SM FEW070 BKN095 BKN160 M05/M08 A3006 RMK AC2AC2AC2 SLP195

CYHM;2009-12-31 03:00;CYHM 310300Z 20006KT 15SM FEW060 BKN080 BKN150 M04/M08 A3004 RMK SC2AC2AC2 SLP184

CYHM;2009-12-31 04:00;CYHM 310400Z 22006KT 15SM BKN110 M03/M06 A3002 RMK AC7 SLP179

CYHM;2009-12-31 05:00;CYHM 310500Z 22007KT 15SM BKN054 M02/M05 A3001 RMK SC7 SLP174

CYHM;2009-12-31 05:50;CYHM 310550Z 22010KT 15SM -SHSN BKN055 RMK SC7

CYHM;2009-12-31 06:00;CYHM 310600Z 21010KT 10SM -SHSN BKN035 M01/M05 A2999 RMK SC7 SLP167

CYHM;2009-12-31 07:00;CYHM 310700Z 20008KT 10SM -SHSN BKN020 OVC050 M01/M04 A2998 RMK SC7SC1 SLP163

CYHM;2009-12-31 08:00;CYHM 310800Z 21010KT 12SM -SHSN OVC015 M01/M02 A2998 RMK SC8 SLP163

CYHM;2009-12-31 09:00;CYHM 310900Z 20009KT 6SM -SHSN OVC014 M00/M01 A2997 RMK SC8 SLP158

CYHM;2009-12-31 10:00;CYHM 311000Z 20010KT 4SM -SN FEW007 OVC025 M00/M01 A2995 RMK CF2SC6 SLP154

CYHM;2009-12-31 10:27;CYHM 311027Z 21009KT 5SM -SN BKN007 OVC015 RMK CF6SC2

CYHM;2009-12-31 11:00;CYHM 311100Z 21010KT 7SM -SN OVC008 00/M00 A2994 RMK CF8 SLP149

CYHM;2009-12-31 11:16;CYHM 311116Z 20010KT 10SM -SN BKN006 OVC015 RMK SF5SC3

CYHM;2009-12-31 12:00;CYHM 311200Z 21010KT 15SM BKN007 OVC013 00/M00 A2994 RMK SF5SC3 SLP149

CYHM;2009-12-31 12:54;CYHM 311254Z 20008KT 4SM -SN OVC005 RMK SF8

CYHM;2009-12-31 13:00;CYHM 311300Z 20008KT 4SM -SN OVC005 00/00 A2993 RMK SF8 SLP146

CYHM;2009-12-31 14:00;CYHM 311400Z 20006KT 4SM -SN OVC004 01/01 A2993 RMK SF8 SLP147

CYHM;2009-12-31 15:00;CYHM 311500Z 21010KT 3SM -SN OVC005 01/01 A2993 RMK SF8 SLP147

CYHM;2009-12-31 16:00;CYHM 311600Z 22010KT 6SM -SN OVC005 01/01 A2993 RMK SF8 SLP147

CYHM;2009-12-31 16:15;CYHM 311615Z 21006KT 6SM -DZ BKN007 OVC012 RMK SF6SC2

CYHM;2009-12-31 16:49;CYHM 311649Z 21008KT 6SM -RAPL BKN008 OVC012 RMK SF6SC2

CYHM;2009-12-31 17:00;CYHM 311700Z 20012KT 7SM -RAPL BKN008 OVC013 01/01 A2991 RMK SF6SC2 SLP139

CYHM;2009-12-31 17:24;CYHM 311724Z 21008KT 6SM -RASN BKN007 OVC012 RMK SF6SC2

CYHM;2009-12-31 18:00;CYHM 311800Z 22010KT 7SM -RASN BKN007 OVC012 02/01 A2989 RMK SF5SC3 SLP131

CYHM;2009-12-31 19:00;CYHM 311900Z 21008KT 4SM -SHRASN BR FEW003 BKN006 OVC010 01/01 A2988 RMK SF2SF3SC2 SLP128

CYHM;2009-12-31 20:00;CYHM 312000Z 21008KT 5SM -SHRASN BR FEW003 BKN007 OVC011 01/01 A2988 RMK SF2SF4SC2 SLP127

CYHM;2009-12-31 21:00;CYHM 312100Z 21007KT 5SM -SHRASN BR SCT003 BKN007 OVC010 01/01 A2989 RMK SF3SF3SC2 SLP130

CYHM;2009-12-31 22:00;CYHM 312200Z 21006KT 4SM -SHSN BR SCT003 BKN006 OVC012 01/01 A2990 RMK SF3SF3SC2 SLP133

CYHM;2009-12-31 23:00;CYHM 312300Z CCA 22006KT 4SM -SHSN BR SCT003 BKN006 OVC020 00/00 A2990 RMK SF3SF4SC1 SLP135

