CYHM;2011-01-01 00:00;CYHM 010000Z 20008KT 6SM -SHRA BR OVC027 08/07 A2994 RMK SC8 SLP144

CYHM;2011-01-01 01:00;CYHM 010100Z 21012KT 8SM FEW018 OVC032 08/07 A2994 RMK CF2SC6 SLP144

CYHM;2011-01-01 02:00;CYHM 010200Z 20013KT 9SM OVC029 08/07 A2994 RMK SC8 SLP144

CYHM;2011-01-01 03:00;CYHM 010300Z 20013KT 12SM OVC032 08/07 A2992 RMK SC8 SLP138

CYHM;2011-01-01 04:00;CYHM 010400Z 20013KT 12SM SCT035 OVC140 08/07 A2991 RMK SC4AC4 SLP133

CYHM;2011-01-01 07:00;CYHM 010700Z 20012KT 15SM FEW035 OVC047 09/07 A2990 RMK SC2SC6 SLP130

CYHM;2011-01-01 08:00;CYHM 010800Z 21013KT 15SM OVC040 09/07 A2991 RMK SC8 SLP135

CYHM;2011-01-01 09:00;CYHM 010900Z 20008KT 15SM FEW045 OVC110 08/06 A2988 RMK SC2AC6 SLP125

CYHM;2011-01-01 10:00;CYHM 011000Z 16007KT 15SM FEW037 BKN059 OVC110 09/07 A2986 RMK SC2SC5AC2 SLP117

CYHM;2011-01-01 11:00;CYHM 011100Z 16005KT 15SM OVC047 08/06 A2985 RMK SC8 SLP113

CYHM;2011-01-01 11:23;CYHM 011123Z 20005KT 15SM -SHRA OVC042 RMK SC8

CYHM;2011-01-01 12:00;CYHM 011200Z 21008KT 8SM -SHRA BKN030 OVC042 08/07 A2987 RMK SC6SC2 SLP120

CYHM;2011-01-01 13:00;CYHM 011300Z 19010KT 6SM -SHRA BR BKN026 OVC045 08/07 A2986 RMK SC6SC2 SLP116

CYHM;2011-01-01 14:00;CYHM 011400Z 19009KT 3SM -SHRA BR BKN004 OVC016 08/08 A2983 RMK CF5SC3 SLP108

CYHM;2011-01-01 14:30;CYHM 011430Z 19008KT 2 1/2SM -SHRA BR OVC003 RMK CF8

CYHM;2011-01-01 15:00;CYHM 011500Z 20012KT 2SM -SHRA BR OVC003 09/08 A2983 RMK FG1CF7 SLP107

CYHM;2011-01-01 16:00;CYHM 011600Z 19012KT 3SM -SHRA BR OVC003 09/09 A2981 RMK CF8 SLP099

CYHM;2011-01-01 17:00;CYHM 011700Z 20016KT 4SM -SHRA BR BKN003 OVC008 10/10 A2977 RMK CF7SC1 SLP086

CYHM;2011-01-01 18:00;CYHM 011800Z 20016KT 6SM -SHRA BR BKN003 OVC007 11/10 A2972 RMK CF6SC2 SLP069

CYHM;2011-01-01 19:00;CYHM 011900Z 20016KT 2SM -SHRA BR BKN003 OVC007 11/11 A2971 RMK FG1CF6SC2 SLP063

CYHM;2011-01-01 20:00;CYHM 012000Z CCA 21015KT 2 1/2SM -DZ BR BKN004 OVC007 11/10 A2970 RMK FG1SF5ST2 SLP060

CYHM;2011-01-01 21:00;CYHM 012100Z 21014KT 2 1/2SM -DZ BR BKN004 BKN007 OVC014 11/10 A2970 RMK FG1SF4SF2SC1 VIS VRB 13/4-4 SLP061

CYHM;2011-01-01 21:10;CYHM 012110Z 23016KT 1 1/2SM -RA BR BKN004 BKN008 OVC015 RMK FG2SF3SF2SC2

CYHM;2011-01-01 21:20;CYHM 012120Z 24018G26KT 2 1/2SM -RA BR BKN004 BKN008 OVC014 RMK FG1SF4SF2SC2 VIS VRB 13/4-4

CYHM;2011-01-01 21:31;CYHM 012131Z 25017G25KT 6SM -SHRA BR SCT004 BKN011 OVC020 RMK SF4SC2SC2

CYHM;2011-01-01 22:00;CYHM 012200Z 24011KT 9SM -SHRA FEW009 BKN016 OVC034 08/08 A2974 RMK CF2SC3SC3 PCPN VRY LGT SLP075

CYHM;2011-01-01 23:00;CYHM 012300Z 23012KT 12SM FEW018 SCT035 OVC049 07/04 A2977 RMK SC2SC2SC4 SLP084

CYHM;2011-01-02 00:00;CYHM 020000Z 23014KT 15SM FEW035 OVC058 06/03 A2979 RMK SC2SC6 SLP094

CYHM;2011-01-02 01:00;CYHM 020100Z 23014KT 15SM SCT058 BKN074 03/M00 A2981 RMK SC4AC3 SLP100

CYHM;2011-01-02 02:00;CYHM 020200Z 23013KT 15SM FEW050 SCT080 02/M02 A2984 RMK SC2AC2 SLP109

CYHM;2011-01-02 03:00;CYHM 020300Z 23014KT 15SM FEW050 OVC080 03/M03 A2985 RMK SC2AC6 SLP116

CYHM;2011-01-02 04:00;CYHM 020400Z 24014G19KT 15SM OVC099 02/M03 A2987 RMK AC8 SLP121

CYHM;2011-01-02 05:00;CYHM 020500Z 27015G20KT 15SM BKN100 00/M05 A2991 RMK AC7 SLP134

CYHM;2011-01-02 06:00;CYHM 020600Z 26012KT 15SM FEW032 SCT110 M01/M06 A2994 RMK SC2AC2 SLP147

CYHM;2011-01-02 07:00;CYHM 020700Z 27015KT 15SM BKN033 BKN120 M02/M07 A2997 RMK SC6AC2 SLP155

CYHM;2011-01-02 08:00;CYHM 020800Z 25013KT 15SM OVC026 M03/M07 A2999 RMK SC8 SLP162

CYHM;2011-01-02 09:00;CYHM 020900Z 25017G22KT 15SM OVC035 M03/M09 A3000 RMK SC8 SLP165

CYHM;2011-01-02 10:00;CYHM 021000Z 24017G22KT 15SM BKN041 M04/M11 A2999 RMK SC6 SLP164

CYHM;2011-01-02 11:00;CYHM 021100Z 23014KT 15SM -SHSN OVC034 M04/M10 A3001 RMK SC8 PRECIP VRY LGT SLP169

CYHM;2011-01-02 12:00;CYHM 021200Z 24016KT 15SM -SHSN OVC031 M04/M10 A3003 RMK SC8 PCPN VRY LGT SLP177

CYHM;2011-01-02 13:00;CYHM 021300Z 24014KT 15SM -SHSN OVC031 M04/M10 A3003 RMK SC8 PCPN VRY LGT SLP178

CYHM;2011-01-02 14:00;CYHM 021400Z 25015KT 12SM -SHSN FEW023 OVC032 M05/M10 A3005 RMK SC2SC6 SLP185

CYHM;2011-01-02 15:00;CYHM 021500Z 24014KT 8SM -SHSN SCT024 BKN036 M05/M10 A3005 RMK SC3SC4 SLP188

CYHM;2011-01-02 16:00;CYHM 021600Z 24015KT 15SM -SHSN FEW023 BKN037 M05/M10 A3006 RMK SC2SC5 SLP189

CYHM;2011-01-02 17:00;CYHM 021700Z 23015KT 15SM -SHSN BKN033 M04/M11 A3004 RMK SC7 PCPN VRY LGT SLP182

CYHM;2011-01-02 18:00;CYHM 021800Z 25015KT 15SM -SHSN BKN031 M05/M11 A3003 RMK SC7 PCPN VRY LGT SLP180

CYHM;2011-01-02 19:00;CYHM 021900Z 26015KT 15SM OVC028 M05/M12 A3003 RMK SC8 PCPN VRY LGT SLP180

CYHM;2011-01-02 20:00;CYHM 022000Z 25013KT 15SM OVC030 M05/M12 A3004 RMK SC7 SLP185

CYHM;2011-01-02 20:21;CYHM 022021Z 25013KT 12SM -SHSN OVC028 RMK SC8

CYHM;2011-01-02 21:00;CYHM 022100Z 25014KT 10SM -SHSN SCT026 OVC032 M05/M11 A3006 RMK SC4SC3 SLP192

CYHM;2011-01-02 22:00;CYHM 022200Z 25013KT 10SM -SHSN SCT027 OVC034 M06/M11 A3007 RMK SC4SC4 SLP196

CYHM;2011-01-02 23:00;CYHM 022300Z 24012KT 9SM -SHSN SCT026 OVC034 M06/M10 A3009 RMK SC3SC5 SLP203

CYHM;2011-01-03 00:00;CYHM 030000Z 24012KT 12SM -SHSN FEW027 OVC040 M06/M10 A3010 RMK SC2SC6 PCPN VRY LGT SLP206

CYHM;2011-01-03 00:23;CYHM 030023Z 23012KT 15SM FEW027 BKN040 RMK SC2SC3

CYHM;2011-01-03 01:00;CYHM 030100Z 23012KT 15SM FEW027 FEW040 M06/M10 A3010 RMK SC1SC1 SLP208

CYHM;2011-01-03 02:00;CYHM 030200Z 23010KT 15SM SCT042 M06/M10 A3010 RMK SC3 SLP208

CYHM;2011-01-03 03:00;CYHM 030300Z 23009KT 15SM BKN046 M06/M10 A3011 RMK SC6 SLP209

CYHM;2011-01-03 04:00;CYHM 030400Z 24011KT 15SM FEW023 BKN048 M06/M10 A3011 RMK CF2SC3 SLP210

CYHM;2011-01-03 05:00;CYHM 030500Z 25013KT 12SM -SHSN OVC045 M05/M10 A3012 RMK SC8 SLP213

CYHM;2011-01-03 06:00;CYHM 030600Z 25015KT 12SM -SHSN OVC045 M05/M10 A3012 RMK SC8 SLP212

CYHM;2011-01-03 07:00;CYHM 030700Z 24014KT 15SM -SHSN OVC048 M05/M11 A3011 RMK SC8 SLP211

CYHM;2011-01-03 08:00;CYHM 030800Z CCA 25013KT 15SM -SHSN OVC047 M05/M12 A3012 RMK SC8 PRECIP VRY LGT SLP214

CYHM;2011-01-03 09:00;CYHM 030900Z 24013KT 15SM -SHSN OVC048 M05/M12 A3012 RMK SC8 PRECIP VRY LGT SLP214

CYHM;2011-01-03 10:00;CYHM 031000Z 23009KT 15SM SCT047 M06/M12 A3012 RMK SC3 SLP212

CYHM;2011-01-03 11:00;CYHM 031100Z 23007KT 15SM FEW047 M07/M12 A3012 RMK SC1 SLP212

CYHM;2011-01-03 12:00;CYHM 031200Z 23005KT 15SM FEW045 FEW120 M08/M12 A3013 RMK SC1AC1 SLP216

CYHM;2011-01-03 13:00;CYHM 031300Z 23008KT 15SM FEW040 FEW110 M08/M11 A3013 RMK SC1AC1 SLP218

CYHM;2011-01-03 14:00;CYHM 031400Z 24006KT 15SM FEW025 FEW055 M06/M11 A3013 RMK CU1SC1 CU TR SLP219

CYHM;2011-01-03 15:00;CYHM 031500Z CCC 22008KT 15SM FEW025 FEW140 FEW210 M05/M10 A3014 RMK CU1AC1CI1 CU TR SLP219

CYHM;2011-01-03 16:00;CYHM 031600Z 23010KT 15SM FEW025 FEW056 FEW140 M02/M09 A3013 RMK CU1SC1AC1 CU TR CI TR SLP218

CYHM;2011-01-03 17:00;CYHM 031700Z 22012KT 15SM SCT030 BKN048 BKN075 M02/M08 A3011 RMK CU3SC2AC1 SLP211

CYHM;2011-01-03 18:00;CYHM 031800Z 21010KT 15SM FEW028 SCT058 SCT068 M01/M07 A3008 RMK CU2SC2AC1 SLP197

CYHM;2011-01-03 19:00;CYHM 031900Z 22013KT 15SM SCT026 BKN110 BKN250 01/M07 A3006 RMK SC3AC2CI0 SLP192

CYHM;2011-01-03 20:00;CYHM 032000Z 22012KT 15SM FEW034 BKN110 BKN250 M00/M07 A3005 RMK SF1AC4CI1 SLP187

CYHM;2011-01-03 21:00;CYHM 032100Z 21012KT 15SM FEW024 BKN100 M01/M07 A3004 RMK SF1AC6 SLP186

CYHM;2011-01-03 22:00;CYHM 032200Z 22010KT 15SM BKN098 M02/M07 A3004 RMK AC7 SLP184

CYHM;2011-01-03 23:00;CYHM 032300Z 22008KT 15SM BKN090 M02/M07 A3004 RMK AC3 SLP183

CYHM;2011-01-04 00:00;CYHM 040000Z 22010KT 15SM BKN078 M02/M07 A3003 RMK AC6 SLP182

CYHM;2011-01-04 01:00;CYHM 040100Z 21005KT 15SM BKN060 BKN180 M03/M06 A3002 RMK SC5AC1 SLP178

CYHM;2011-01-04 02:00;CYHM 040200Z 22004KT 15SM FEW058 BKN088 BKN180 M04/M07 A3001 RMK SC1AC2AC1 SLP176

CYHM;2011-01-04 03:00;CYHM 040300Z 23006KT 15SM BKN044 M02/M06 A3000 RMK ST2 SLP170

CYHM;2011-01-04 04:00;CYHM 040400Z 22005KT 10SM -SHSN BKN042 BKN074 M03/M05 A2999 RMK ST5AS1 SLP167

CYHM;2011-01-04 05:00;CYHM 040500Z 22006KT 3SM -SHSN BKN026 OVC044 M02/M04 A2997 RMK SN2SC4SC2 SLP161

CYHM;2011-01-04 06:00;CYHM 040600Z 23007KT 6SM -SHSN FEW036 OVC064 M02/M04 A2994 RMK SC2SC6 SLP151

CYHM;2011-01-04 07:00;CYHM 040700Z 20006KT 5SM -SHSN BKN050 OVC080 M03/M04 A2993 RMK SC6AC2 SLP145

CYHM;2011-01-04 08:00;CYHM 040800Z 21007KT 4SM -SHSN FEW034 OVC044 M02/M04 A2991 RMK SC2SC6 SLP141

CYHM;2011-01-04 09:00;CYHM 040900Z 21007KT 3SM -SHSN OVC006 M02/M03 A2988 RMK SN2SF6 SLP129

CYHM;2011-01-04 10:00;CYHM 041000Z 21011KT 2 1/2SM -SN OVC007 M01/M03 A2984 RMK SN3SF5 SLP117

CYHM;2011-01-04 11:00;CYHM 041100Z 24010KT 2SM -SN BKN007 OVC013 M01/M03 A2983 RMK SN1SF4SC3 SLP112

CYHM;2011-01-04 12:00;CYHM 041200Z 25010KT 2 1/2SM -SN BKN007 OVC014 M01/M03 A2982 RMK SF5SC3 SLP109

CYHM;2011-01-04 12:36;CYHM 041236Z 24010KT 1 1/2SM -SN BR BKN009 OVC015 RMK SN1SF5SC2

CYHM;2011-01-04 12:50;CYHM 041250Z 23008KT 1SM -SN BR BKN005 OVC015 RMK SN1SF6SC2

CYHM;2011-01-04 13:00;CYHM 041300Z 23010KT 1 1/2SM -SN BR BKN007 OVC014 M01/M03 A2981 RMK SN1SF6SC2 SLP106

CYHM;2011-01-04 13:36;CYHM 041336Z 23012KT 1SM -SN BR BKN007 OVC013 RMK SN2SF5SC2

CYHM;2011-01-04 14:00;CYHM 041400Z 24012KT 1 3/4SM -SN BR BKN008 OVC021 M01/M03 A2981 RMK SN1SF5SC2 SLP105

CYHM;2011-01-04 14:24;CYHM 041424Z 23007KT 2SM -SN BR SCT007 BKN012 OVC024 RMK SF3SC3SC2

CYHM;2011-01-04 15:00;CYHM 041500Z 24008KT 4SM -SN BR FEW008 BKN012 OVC024 M01/M03 A2981 RMK SF2SC5SC2 SLP105

CYHM;2011-01-04 15:19;CYHM 041519Z 25012KT 8SM BKN012 OVC020 RMK SC6SC2

CYHM;2011-01-04 16:00;CYHM 041600Z 26010KT 7SM BKN011 BKN017 M01/M03 A2981 RMK SC6SC2 SLP104

CYHM;2011-01-04 16:40;CYHM 041640Z 26008KT 6SM -SHSN BKN014 OVC025 RMK SC6SC2

CYHM;2011-01-04 17:00;CYHM 041700Z 26010KT 5SM -SHSN BKN012 OVC017 M01/M03 A2979 RMK SC6SC2 SLP100

CYHM;2011-01-04 18:00;CYHM 041800Z 24008KT 5SM -SHSN BKN016 OVC022 M01/M03 A2977 RMK SC6SC2 SLP092

CYHM;2011-01-04 19:00;CYHM 041900Z 24008KT 6SM -SHSN BKN024 BKN066 M01/M04 A2976 RMK SC5AC2 SLP088

CYHM;2011-01-04 20:00;CYHM 042000Z 24008KT 8SM -SHSN BKN016 BKN058 M01/M03 A2975 RMK SC6SC2 SLP086

CYHM;2011-01-04 21:00;CYHM 042100Z 24007KT 10SM -SHSN BKN015 OVC058 M01/M03 A2975 RMK SC7SC1 SLP085

CYHM;2011-01-04 22:00;CYHM 042200Z 23010KT 10SM FEW016 SCT060 OVC095 M01/M04 A2976 RMK SC1SC2AC5 SLP089

CYHM;2011-01-04 22:20;CYHM 042220Z 23007KT 2 1/2SM -SHSN BKN034 OVC052 RMK SN2SC2SC3

CYHM;2011-01-04 22:48;CYHM 042248Z 22009KT 10SM -SHSN FEW040 BKN072 BKN090 RMK SC2AC4AC2

CYHM;2011-01-04 23:00;CYHM 042300Z 21007KT 12SM -SHSN FEW040 BKN072 BKN098 M01/M04 A2978 RMK SC2AC4AC2 SLP093

CYHM;2011-01-05 00:00;CYHM 050000Z 22009KT 5SM -SHSN FEW020 BKN054 OVC100 M01/M04 A2978 RMK SC2SC5AC1 SLP095

CYHM;2011-01-05 01:00;CYHM 050100Z 25007KT 8SM -SHSN FEW018 SCT064 BKN100 M02/M04 A2979 RMK SC2SC2AC3 SLP097

CYHM;2011-01-05 02:00;CYHM 050200Z 27006KT 10SM -SHSN BKN024 BKN120 M02/M04 A2979 RMK SC5AC1 SLP099

CYHM;2011-01-05 02:09;CYHM 050209Z 27005KT 2 1/2SM -SHSN OVC024 RMK SN3SC5

CYHM;2011-01-05 03:00;CYHM 050300Z 29009KT 5SM -SHSN FEW016 BKN024 BKN090 M02/M04 A2981 RMK SC2SC3AC2 SLP105

CYHM;2011-01-05 04:00;CYHM 050400Z 30009KT 9SM -SHSN BKN024 BKN088 M03/M06 A2984 RMK SC5AC2 SLP114

CYHM;2011-01-05 05:00;CYHM 050500Z 26009KT 15SM FEW024 FEW090 M04/M08 A2985 RMK SC1AC1 SLP118

CYHM;2011-01-05 06:00;CYHM 050600Z 26007KT 15SM BKN070 M05/M08 A2987 RMK AC6 SLP126

CYHM;2011-01-05 07:00;CYHM 050700Z 28007KT 15SM FEW070 M05/M09 A2989 RMK AC2 SLP132

CYHM;2011-01-05 08:00;CYHM 050800Z 25007KT 15SM FEW070 M06/M10 A2990 RMK AC1 SLP137

CYHM;2011-01-05 09:00;CYHM 050900Z 27008KT 15SM FEW070 M09/M11 A2990 RMK AC1 SLP137

CYHM;2011-01-05 10:00;CYHM 051000Z 25007KT 15SM FEW070 M07/M09 A2990 RMK AC1 AC TR SLP139

CYHM;2011-01-05 11:00;CYHM 051100Z 26007KT 15SM SCT026 BKN064 M06/M09 A2991 RMK SC3SC1 SLP143

CYHM;2011-01-05 12:00;CYHM 051200Z 28008KT 15SM FEW032 SCT060 M08/M10 A2992 RMK SC1SC2 SLP145

CYHM;2011-01-05 13:00;CYHM 051300Z 27008KT 15SM FEW025 FEW045 M09/M11 A2993 RMK CU1SC1 CU TR SLP149

CYHM;2011-01-05 14:00;CYHM 051400Z 26006KT 15SM FEW045 FEW210 M08/M11 A2994 RMK SC1CI1 TR CU ASOCTD SLP151

CYHM;2011-01-05 15:00;CYHM 051500Z 28008KT 15SM FEW062 FEW210 M07/M10 A2993 RMK SC1CI1 TR CU ASOCTD SLP148

CYHM;2011-01-05 16:00;CYHM 051600Z 26008KT 15SM FEW062 FEW210 M06/M09 A2993 RMK SC1CI1 SC TR CI TR SLP148

CYHM;2011-01-05 17:00;CYHM 051700Z 27010KT 15SM FEW025 FEW160 FEW210 M05/M10 A2991 RMK CU1AC1CI1 SLP140

CYHM;2011-01-05 18:00;CYHM 051800Z 28011KT 15SM FEW024 FEW210 M04/M10 A2988 RMK CU1CI1 CI TR SLP131

CYHM;2011-01-05 19:00;CYHM 051900Z 29010KT 15SM FEW027 SCT042 M04/M10 A2986 RMK CU2SC2 SLP125

CYHM;2011-01-05 20:00;CYHM 052000Z 26008KT 15SM SCT024 M05/M10 A2987 RMK SC2 SLP126

CYHM;2011-01-05 21:00;CYHM 052100Z 26007KT 15SM BKN028 M05/M10 A2986 RMK SC7 SLP127

CYHM;2011-01-05 22:00;CYHM 052200Z 26008KT 15SM OVC028 M06/M11 A2986 RMK SC8 SLP126

CYHM;2011-01-05 23:00;CYHM 052300Z 28009KT 15SM BKN024 M06/M11 A2986 RMK SC7 SLP126

CYHM;2011-01-06 00:00;CYHM 060000Z 26005KT 15SM BKN023 M07/M11 A2986 RMK SC7 SLP125

CYHM;2011-01-06 01:00;CYHM 060100Z 24006KT 15SM BKN025 M08/M12 A2985 RMK SC7 SLP124

CYHM;2011-01-06 02:00;CYHM 060200Z 28003KT 15SM FEW024 BKN250 M09/M12 A2983 RMK SC1CI1 SLP116

CYHM;2011-01-06 03:00;CYHM 060300Z 22004KT 15SM FEW022 BKN220 M12/M14 A2981 RMK SC1CI2 SLP112

CYHM;2011-01-06 04:00;CYHM 060400Z 28003KT 15SM BKN140 M10/M13 A2979 RMK AC6 SLP105

CYHM;2011-01-06 05:00;CYHM 060500Z 21003KT 15SM BKN140 M12/M14 A2978 RMK AC5 SLP099

CYHM;2011-01-06 06:00;CYHM 060600Z 25004KT 15SM FEW140 SCT210 M12/M14 A2976 RMK AC2CI2 SLP093

CYHM;2011-01-06 07:00;CYHM 060700Z 26003KT 15SM BKN180 M12/M14 A2975 RMK AC5 SLP089

CYHM;2011-01-06 08:00;CYHM 060800Z 22004KT 15SM BKN110 M12/M14 A2974 RMK AC6 SLP085

CYHM;2011-01-06 09:00;CYHM 060900Z 23003KT 15SM BKN080 M11/M13 A2972 RMK AC6 SLP078

CYHM;2011-01-06 10:00;CYHM 061000Z 20003KT 15SM FEW035 BKN075 M11/M13 A2969 RMK SC1AC4 SLP070

CYHM;2011-01-06 11:00;CYHM 061100Z 20003KT 15SM OVC042 M11/M13 A2968 RMK SC8 SLP064

CYHM;2011-01-06 12:00;CYHM 061200Z 18002KT 15SM FEW042 SCT093 BKN110 M11/M13 A2966 RMK SC2AC2AC1 SLP058

CYHM;2011-01-06 13:00;CYHM 061300Z 00000KT 10SM FEW040 BKN092 BKN140 M10/M13 A2964 RMK SC2AC3AC2 SLP053

CYHM;2011-01-06 14:00;CYHM 061400Z 12004KT 10SM FEW060 BKN110 BKN210 M10/M12 A2963 RMK SC1AC4CI1 SLP048

CYHM;2011-01-06 15:00;CYHM 061500Z 14005KT 8SM FEW028 BKN140 M07/M10 A2961 RMK SC1AC6 SLP043

CYHM;2011-01-06 15:52;CYHM 061552Z 00000KT 7SM -SHSN SCT023 BKN039 OVC140 RMK SC3SC2AC2

CYHM;2011-01-06 16:00;CYHM 061600Z 00000KT 6SM -SHSN SCT020 BKN036 OVC120 M06/M09 A2959 RMK SC3SC2AC2 SLP035

CYHM;2011-01-06 17:00;CYHM 061700Z 14003KT 5SM -SHSN OVC016 M05/M08 A2955 RMK SC8 SLP022

CYHM;2011-01-06 18:00;CYHM 061800Z 19006KT 4SM -SHSN BKN010 OVC023 M04/M07 A2950 RMK SC6SC2 SLP004

CYHM;2011-01-06 19:00;CYHM 061900Z 18010KT 2 1/2SM -SN BKN016 OVC019 M04/M06 A2947 RMK SC6SC2 SLP995

CYHM;2011-01-06 20:00;CYHM 062000Z 16006KT 2SM -SN FEW008 BKN012 OVC019 M04/M06 A2946 RMK SN1CF1SC5SC2 SLP990

CYHM;2011-01-06 20:42;CYHM 062042Z 16002KT 1 1/2SM -SN FEW007 BKN012 OVC018 RMK SN2CF1SC4SC2

CYHM;2011-01-06 21:00;CYHM 062100Z 16006KT 1 1/4SM -SN BKN007 BKN012 OVC026 M04/M05 A2944 RMK SN3CF2SC2SC1 SLP984

CYHM;2011-01-06 21:25;CYHM 062125Z 15006KT 1 1/2SM -SN SCT008 OVC022 RMK SN2CF2SC5

CYHM;2011-01-06 22:00;CYHM 062200Z 15016KT 1 1/2SM -SN FEW007 OVC013 M03/M05 A2942 RMK SN2CF1SC6 SLP976

CYHM;2011-01-06 22:16;CYHM 062216Z 16006KT 1 1/4SM -SN OVC009 RMK SN3SC5

CYHM;2011-01-06 23:00;CYHM 062300Z 18008KT 1 1/4SM -SN OVC008 M03/M05 A2939 RMK SN3SC5 SLP967

CYHM;2011-01-06 23:36;CYHM 062336Z 20009KT 3SM -SN FEW007 BKN012 OVC034 RMK CF2SC5SC2

CYHM;2011-01-07 00:00;CYHM 070000Z 21010KT 3SM -SN FEW008 BKN012 OVC038 M03/M04 A2938 RMK CF1SC4SC3 SLP961

CYHM;2011-01-07 00:29;CYHM 070029Z 22008KT 7SM -SN FEW013 SCT038 BKN068 RMK SC1SC3AC3

CYHM;2011-01-07 01:00;CYHM 070100Z 23008KT 5SM -SN FEW013 BKN042 OVC065 M03/M05 A2937 RMK SC1SC5SC2 SLP958

CYHM;2011-01-07 02:00;CYHM 070200Z 24009KT 3SM -SN BKN036 OVC085 M04/M06 A2935 RMK SC6AC2 SLP951

CYHM;2011-01-07 02:32;CYHM 070232Z 24008KT 3SM -SN FEW006 OVC016 RMK CF2SC6

CYHM;2011-01-07 03:00;CYHM 070300Z 26012KT 3SM -SN FEW006 BKN018 OVC036 M04/M06 A2933 RMK CF1SC6SC2 SLP946

CYHM;2011-01-07 04:00;CYHM 070400Z 25008KT 3SM -SN FEW008 BKN019 OVC032 M05/M07 A2932 RMK CF1SC5SC2 SLP941

CYHM;2011-01-07 05:00;CYHM 070500Z 25008KT 3SM -SN BKN018 OVC032 M05/M07 A2930 RMK SC6SC2 SLP936

CYHM;2011-01-07 05:28;CYHM 070528Z 24009KT 2 1/2SM -SN FEW009 OVC021 RMK CF2SC6

CYHM;2011-01-07 06:00;CYHM 070600Z 28012KT 4SM -SN FEW009 OVC017 M05/M07 A2930 RMK CF2SC6 SLP933

CYHM;2011-01-07 07:00;CYHM 070700Z 29011KT 15SM -SN FEW022 BKN058 OVC087 M06/M10 A2932 RMK SC2SC5AC2 SLP941

CYHM;2011-01-07 08:00;CYHM 070800Z 27009KT 15SM BKN075 OVC094 M07/M11 A2934 RMK AC5AC3 SLP948

CYHM;2011-01-07 09:00;CYHM 070900Z 26010KT 9SM -SN BKN040 OVC095 M07/M10 A2935 RMK SC6AC2 SLP950

CYHM;2011-01-07 10:00;CYHM 071000Z 26012KT 15SM FEW095 FEW220 M08/M13 A2934 RMK AC2CI1 SLP949

CYHM;2011-01-07 11:00;CYHM 071100Z 25010KT 15SM BKN048 M09/M14 A2935 RMK SC6 SLP951

CYHM;2011-01-07 12:00;CYHM 071200Z 24008KT 15SM BKN050 M08/M13 A2936 RMK SC7 SLP953

CYHM;2011-01-07 13:00;CYHM 071300Z 25008KT 15SM FEW025 BKN045 BKN052 M09/M14 A2936 RMK CU1SC6SC2 CU TR SLP956

CYHM;2011-01-07 14:00;CYHM 071400Z 25006KT 15SM SCT054 BKN070 BKN210 M09/M14 A2937 RMK SC3AC2CI1 CONTRAIL SLP957

CYHM;2011-01-07 15:00;CYHM 071500Z 24006KT 15SM FEW042 SCT058 BKN091 BKN130 M08/M13 A2938 RMK SC2SC2AC2AC1 SLP960

CYHM;2011-01-07 16:00;CYHM 071600Z 24009KT 15SM FEW030 FEW054 BKN061 BKN210 M08/M14 A2937 RMK CU1SC2SC2CI2 HALO SLP959

CYHM;2011-01-07 16:54;CYHM 071654Z CCA 26012KT 6SM -SHSN SCT023 BKN033 OVC210 RMK SC4SC2CI1 CU ASOCTD

CYHM;2011-01-07 17:00;CYHM 071700Z 26012KT 6SM -SHSN SCT020 BKN033 OVC210 M08/M13 A2936 RMK SC3SC3CI1 CU ASOCTD SLP955

CYHM;2011-01-07 17:46;CYHM 071746Z 29008KT 15SM FEW024 SCT170 BKN210 RMK CU2AC2CI2

CYHM;2011-01-07 18:00;CYHM 071800Z 28010KT 15SM FEW028 SCT100 BKN180 BKN210 M07/M15 A2933 RMK CU2AC2AC2CI1 SLP946

CYHM;2011-01-07 19:00;CYHM 071900Z 25005KT 15SM FEW032 BKN071 BKN180 BKN210 M07/M15 A2934 RMK CU1AC4AC1CI1 SLP948

CYHM;2011-01-07 20:00;CYHM 072000Z 25005KT 15SM FEW035 SCT080 BKN180 M06/M15 A2935 RMK CU1AC2AC2 SLP952

CYHM;2011-01-07 21:00;CYHM 072100Z 00000KT 15SM FEW030 BKN045 BKN160 M07/M16 A2936 RMK CU1SC6AC1 SLP956

CYHM;2011-01-07 22:00;CYHM 072200Z 00000KT 10SM FEW030 OVC056 M07/M14 A2937 RMK CF1SC7 SLP958

CYHM;2011-01-07 23:00;CYHM 072300Z 00000KT 15SM FEW055 BKN140 M08/M14 A2937 RMK SC2AC5 SLP960

CYHM;2011-01-08 00:00;CYHM 080000Z 15004KT 15SM FEW060 BKN130 M09/M14 A2938 RMK SC1AC6 SLP964

CYHM;2011-01-08 01:00;CYHM 080100Z 15005KT 15SM -SHSN BKN032 OVC053 M09/M12 A2939 RMK SC6SC2 SLP965

CYHM;2011-01-08 02:00;CYHM 080200Z 11005KT 7SM -SHSN OVC041 M09/M11 A2939 RMK SC8 SLP965

CYHM;2011-01-08 03:00;CYHM 080300Z 06002KT 10SM -SHSN OVC057 M09/M11 A2938 RMK SC8 SLP964

CYHM;2011-01-08 04:00;CYHM 080400Z 04003KT 7SM -SHSN OVC074 M09/M11 A2938 RMK AC8 SLP962

CYHM;2011-01-08 05:00;CYHM 080500Z 00000KT 6SM -SHSN OVC036 M09/M11 A2936 RMK SC8 SLP958

CYHM;2011-01-08 06:00;CYHM 080600Z 04003KT 6SM -SHSN OVC025 M08/M10 A2935 RMK SC8 SLP953

CYHM;2011-01-08 07:00;CYHM 080700Z 03004KT 4SM -SHSN OVC035 M08/M10 A2936 RMK SC8 SLP954

CYHM;2011-01-08 08:00;CYHM 080800Z 02002KT 4SM -SHSN OVC024 M08/M10 A2936 RMK SC8 SLP955

CYHM;2011-01-08 09:00;CYHM 080900Z 01003KT 5SM -SHSN OVC042 M09/M11 A2936 RMK SC8 SLP955

CYHM;2011-01-08 10:00;CYHM 081000Z 03005KT 5SM -SN OVC025 M08/M10 A2936 RMK SC8 SLP957

CYHM;2011-01-08 11:00;CYHM 081100Z 04005KT 5SM -SN FEW007 BKN016 M09/M11 A2939 RMK CF2SC5 SLP964

CYHM;2011-01-08 12:00;CYHM 081200Z 04004KT 3SM -SN BKN018 BKN048 M09/M11 A2940 RMK SC5SC2 SLP970

CYHM;2011-01-08 12:08;CYHM 081208Z 05004KT 2SM -SN SCT018 BKN051 RMK SN1SC3SC2

CYHM;2011-01-08 12:31;CYHM 081231Z 07005KT 3SM -SN FEW018 BKN051 RMK SC2SC4

CYHM;2011-01-08 13:00;CYHM 081300Z 08006KT 3SM -SN FEW051 BKN250 M08/M10 A2942 RMK SC2CI2 CONTRAILS SLP977

CYHM;2011-01-08 13:41;CYHM 081341Z 05005KT 15SM FEW015 FEW050 BKN250 RMK CU1SC1CI2 CONTRAILS

CYHM;2011-01-08 14:00;CYHM 081400Z 03004KT 12SM FEW015 FEW050 BKN250 M09/M10 A2943 RMK CU1SC1CI2 CONTRAILS SLP981

CYHM;2011-01-08 15:00;CYHM 081500Z 36005KT 9SM FEW050 BKN250 M08/M10 A2945 RMK SC1CI5 SLP988

CYHM;2011-01-08 16:00;CYHM 081600Z 36006KT 7SM -SHSN SCT017 BKN250 M07/M10 A2947 RMK SC4CI2 SLP994

CYHM;2011-01-08 16:12;CYHM 081612Z 02008KT 1 1/2SM -SHSN BKN017 BKN250 RMK SN2SC4CI1

CYHM;2011-01-08 16:25;CYHM 081625Z 36008KT 1SM -SHSN OVC017 RMK SN4SC4

CYHM;2011-01-08 16:33;CYHM 081633Z 36008KT 3/8SM SHSN VV004 RMK SN8

CYHM;2011-01-08 16:45;CYHM 081645Z 36009KT 5/8SM -SHSN VV008 RESN RMK SN8

CYHM;2011-01-08 16:50;CYHM 081650Z 36010KT 3/8SM SHSN VV004 RMK SN8

CYHM;2011-01-08 17:00;CYHM 081700Z 36008KT 1/2SM SHSN VV004 M07/M09 A2947 RMK SN8 SLP994

CYHM;2011-01-08 17:05;CYHM 081705Z 01008KT 2SM -SHSN OVC014 RESN RMK SN2SC6

CYHM;2011-01-08 17:21;CYHM 081721Z 01008KT 3/8SM SHSN VV004 RMK SN8

CYHM;2011-01-08 18:00;CYHM 081800Z 01009KT 1/2SM SHSN VV006 M07/M09 A2948 RMK SN8 SLP997

CYHM;2011-01-08 18:08;CYHM 081808Z 01011KT 1 1/4SM -SHSN OVC014 RESN RMK SN6SC2

CYHM;2011-01-08 18:17;CYHM 081817Z 01011KT 2 1/2SM -SHSN OVC017 RESN RMK SN1SC7

CYHM;2011-01-08 18:29;CYHM 081829Z 01009KT 6SM -SHSN BKN017 OVC046 RESN RMK SC5SC3

CYHM;2011-01-08 19:00;CYHM 081900Z 36009KT 15SM -SHSN FEW017 BKN046 BKN250 M06/M10 A2950 RMK SC2SC5CI1 PCPN VRY LGT SLP004

CYHM;2011-01-08 20:00;CYHM 082000Z 36011KT 12SM -SHSN FEW017 BKN038 M06/M10 A2954 RMK CF2SC6 PCPN VRY LGT SLP017

CYHM;2011-01-08 21:00;CYHM 082100Z 36008KT 12SM FEW018 BKN037 M06/M11 A2958 RMK SC2SC5 SLP031

CYHM;2011-01-08 22:00;CYHM 082200Z 35006KT 15SM FEW018 SCT036 BKN082 M07/M12 A2962 RMK SC1SC3AC3 SLP044

CYHM;2011-01-08 23:00;CYHM 082300Z 31004KT 15SM FEW018 FEW036 BKN082 BKN100 M08/M12 A2965 RMK CF1SC2AC2AC2 CF TR SLP055

CYHM;2011-01-09 00:00;CYHM 090000Z 30006KT 15SM FEW040 BKN095 M08/M12 A2968 RMK SC2AC4 SLP067

CYHM;2011-01-09 01:00;CYHM 090100Z 32005KT 15SM FEW018 FEW040 SCT085 BKN200 M09/M13 A2971 RMK CF1SC2AC2CI2 CF TR SLP075

CYHM;2011-01-09 02:00;CYHM 090200Z 29005KT 15SM FEW075 BKN200 M10/M12 A2972 RMK AC2CI2 SLP080

CYHM;2011-01-09 03:00;CYHM 090300Z 27005KT 15SM FEW070 FEW200 M10/M13 A2975 RMK AC1CI1 SLP088

CYHM;2011-01-09 04:00;CYHM 090400Z 27005KT 15SM FEW070 FEW210 M11/M13 A2976 RMK AC2CI1 SLP094

CYHM;2011-01-09 05:00;CYHM 090500Z 26005KT 15SM FEW026 FEW200 M12/M15 A2978 RMK SC2CI1 SLP101

CYHM;2011-01-09 06:00;CYHM 090600Z 28006KT 15SM FEW025 FEW200 M13/M14 A2980 RMK SC2CI1 SLP108

CYHM;2011-01-09 07:00;CYHM 090700Z 26006KT 15SM FEW050 FEW210 M13/M14 A2983 RMK SC1CI1 SLP117

CYHM;2011-01-09 08:00;CYHM 090800Z 27007KT 15SM FEW090 FEW200 M13/M15 A2987 RMK AC1CI1 SLP130

CYHM;2011-01-09 09:00;CYHM 090900Z 27007KT 15SM FEW090 FEW210 M12/M14 A2989 RMK AC1CI1 SLP137

CYHM;2011-01-09 10:00;CYHM 091000Z 26005KT 15SM FEW090 FEW200 M13/M15 A2992 RMK AC1CI1 FROIN SLP147

CYHM;2011-01-09 11:00;CYHM 091100Z 26003KT 15SM FEW092 SCT200 M13/M15 A2995 RMK AC2CI1 FROIN SLP156

CYHM;2011-01-09 12:00;CYHM 091200Z 27006KT 15SM FEW072 FEW210 M13/M15 A2997 RMK AC1CI1 FROIN SLP166

CYHM;2011-01-09 13:00;CYHM 091300Z 24004KT 15SM FEW070 FEW220 M15/M17 A3001 RMK AC1CI0 SLP179

CYHM;2011-01-09 14:00;CYHM 091400Z 24004KT 15SM FEW020 FEW070 FEW220 M14/M16 A3004 RMK CU1AC1CI0 CU TR SLP190

CYHM;2011-01-09 15:00;CYHM 091500Z 26005KT 15SM FEW020 FEW220 M11/M12 A3007 RMK CU1CI1 BOTH LYRS TR SLP198

CYHM;2011-01-09 16:00;CYHM 091600Z 32012KT 15SM FEW020 M07/M12 A3007 RMK CU1 CU TR SLP200

CYHM;2011-01-09 17:00;CYHM 091700Z 30012KT 260V350 15SM FEW025 M06/M12 A3007 RMK CU1 SLP201

CYHM;2011-01-09 18:00;CYHM 091800Z 31007KT 270V350 15SM FEW025 M06/M12 A3008 RMK CU1 SLP203

CYHM;2011-01-09 19:00;CYHM 091900Z 31016KT 15SM FEW025 M06/M11 A3010 RMK SC1 SLP210

CYHM;2011-01-09 20:00;CYHM 092000Z 31013KT 15SM DRSN FEW025 M06/M12 A3014 RMK SC2 SLP223

CYHM;2011-01-09 21:00;CYHM 092100Z 31009KT 15SM FEW025 M06/M12 A3019 RMK SC1 SLP239

CYHM;2011-01-09 22:00;CYHM 092200Z 29007KT 15SM FEW025 FEW040 M07/M12 A3022 RMK SC1SC1 SLP251

CYHM;2011-01-09 23:00;CYHM 092300Z 30006KT 15SM FEW050 M09/M13 A3025 RMK SC1 SLP261

CYHM;2011-01-10 05:00;CYHM 100500Z 26005KT 10SM FEW200 M11/M13 A3029 RMK CI1 SLP273

CYHM;2011-01-10 06:00;CYHM 100600Z 26005KT 15SM MIFG FEW080 M11/M13 A3030 RMK AC1 SLP275

CYHM;2011-01-10 08:00;CYHM 100800Z 25005KT 15SM MIFG FEW210 M12/M14 A3030 RMK CI1 SLP278

CYHM;2011-01-10 09:00;CYHM 100900Z 25005KT 15SM FEW210 M13/M14 A3031 RMK CI1 FROIN SLP280

CYHM;2011-01-10 10:00;CYHM 101000Z 30007KT 15SM FEW220 M15/M17 A3032 RMK CI1 FROIN SLP284

CYHM;2011-01-10 11:00;CYHM 101100Z 28007KT 15SM FEW200 M12/M15 A3035 RMK CI1 FROIN SLP294

CYHM;2011-01-10 12:00;CYHM 101200Z CCA 25006KT 15SM FEW210 M14/M17 A3038 RMK CI1 FROIN SLP307

CYHM;2011-01-10 13:00;CYHM 101300Z 27010KT 15SM FEW025 FEW210 M15/M17 A3039 RMK CU1CI2 SLP310

CYHM;2011-01-10 14:00;CYHM 101400Z 27007KT 15SM FEW210 M13/M15 A3039 RMK CI1 SLP311

CYHM;2011-01-10 15:00;CYHM 101500Z 30007KT 15SM BKN210 M09/M10 A3039 RMK CI2 CONTRAILS SLP307

CYHM;2011-01-10 16:00;CYHM 101600Z 35007KT 15SM BKN210 M07/M11 A3038 RMK CI3 SLP304

CYHM;2011-01-10 17:00;CYHM 101700Z 02006KT 15SM BKN220 M06/M11 A3035 RMK CI4 CONTRAILS SLP294

CYHM;2011-01-10 18:00;CYHM 101800Z 35002KT 15SM BKN220 M05/M12 A3033 RMK CI5 CONTRAIL SLP288

CYHM;2011-01-10 19:00;CYHM 101900Z 24004KT 15SM BKN210 M04/M11 A3033 RMK CI4 SLP287

CYHM;2011-01-10 20:00;CYHM 102000Z 27006KT 15SM BKN250 M04/M12 A3033 RMK CI2 CONTRAILS SLP285

CYHM;2011-01-10 21:00;CYHM 102100Z 27005KT 15SM BKN250 M05/M12 A3033 RMK CI2 CONTRAILS SLP289

CYHM;2011-01-10 22:00;CYHM 102200Z 25005KT 15SM BKN250 M06/M12 A3034 RMK CI3 CONTRAILS SLP290

CYHM;2011-01-10 23:00;CYHM 102300Z 26005KT 15SM BKN250 M07/M12 A3034 RMK CI2 SLP292

CYHM;2011-01-11 00:00;CYHM 110000Z 27005KT 15SM BKN220 M08/M12 A3035 RMK CI3 SLP296

CYHM;2011-01-11 00:00;CYHM 110000Z 27005KT 15SM BKN220 M08/M12 A3035 RMK CI3 SLP296

CYHM;2011-01-11 01:00;CYHM 110100Z 28004KT 15SM BKN210 M09/M13 A3034 RMK CI3 SLP292

CYHM;2011-01-11 01:00;CYHM 110100Z 28004KT 15SM BKN210 M09/M13 A3034 RMK CI3 SLP292

CYHM;2011-01-11 02:00;CYHM 110200Z 32003KT 15SM SCT210 M11/M14 A3033 RMK CI2 SLP288

CYHM;2011-01-11 02:00;CYHM 110200Z 32003KT 15SM SCT210 M11/M14 A3033 RMK CI2 SLP288

CYHM;2011-01-11 03:00;CYHM 110300Z 36005KT 15SM SCT170 BKN220 M09/M13 A3032 RMK AC3CI1 SLP284

CYHM;2011-01-11 03:00;CYHM 110300Z 36005KT 15SM SCT170 BKN220 M09/M13 A3032 RMK AC3CI1 SLP284

CYHM;2011-01-11 03:50;CYHM 110350Z 31002KT 15SM -SHSN BKN013 RMK SC7

CYHM;2011-01-11 03:50;CYHM 110350Z 31002KT 15SM -SHSN BKN013 RMK SC7

CYHM;2011-01-11 04:00;CYHM 110400Z 31002KT 15SM -SHSN BKN013 M08/M11 A3033 RMK SC7 SLP286

CYHM;2011-01-11 04:00;CYHM 110400Z 31002KT 15SM -SHSN BKN013 M08/M11 A3033 RMK SC7 SLP286

CYHM;2011-01-11 05:00;CYHM 110500Z 33003KT 15SM FEW020 SCT180 BKN220 M09/M12 A3033 RMK SC2AC2CI1 SLP286

CYHM;2011-01-11 06:00;CYHM 110600Z 36006KT 15SM FEW020 BKN180 BKN220 M08/M11 A3029 RMK SC1AC5CI1 SLP273

CYHM;2011-01-11 07:00;CYHM 110700Z 36006KT 15SM OVC180 M08/M11 A3029 RMK AC8 SLP271

CYHM;2011-01-11 08:00;CYHM 110800Z 35003KT 15SM OVC180 M08/M12 A3029 RMK AC8 SLP272

CYHM;2011-01-11 09:00;CYHM 110900Z 03007KT 15SM BKN011 OVC180 M08/M12 A3026 RMK SC6AC2 SLP263

CYHM;2011-01-11 10:00;CYHM 111000Z 03002KT 15SM OVC010 M08/M11 A3027 RMK SC8 SLP266

CYHM;2011-01-11 10:08;CYHM 111008Z 03004KT 15SM OVC009 RMK SC8

CYHM;2011-01-11 11:00;CYHM 111100Z 05007KT 12SM OVC009 M08/M11 A3025 RMK SC8 SLP257

CYHM;2011-01-11 12:00;CYHM 111200Z 02008KT 15SM BKN006 OVC012 M08/M11 A3023 RMK SF6SC2 SLP253

CYHM;2011-01-11 13:00;CYHM 111300Z 06006KT 8SM OVC006 M08/M10 A3023 RMK SF8 SLP253

CYHM;2011-01-11 14:00;CYHM 111400Z 05008KT 7SM OVC009 M07/M09 A3021 RMK SF8 SLP246

CYHM;2011-01-11 14:22;CYHM 111422Z 05010KT 6SM -SN OVC010 RMK SC8

CYHM;2011-01-11 15:00;CYHM 111500Z 08013KT 8SM OVC008 M05/M07 A3019 RMK SC8 SLP237

CYHM;2011-01-11 16:00;CYHM 111600Z 07016KT 8SM -SHSN OVC007 M04/M07 A3015 RMK SF8 SLP226

CYHM;2011-01-11 17:00;CYHM 111700Z 06021KT 7SM -SHSN OVC007 M04/M06 A3010 RMK SF8 SLP209

CYHM;2011-01-11 18:00;CYHM 111800Z 06018G23KT 6SM -SHSN OVC007 M04/M06 A3007 RMK SF8 PCPN VRY LGT SLP195

CYHM;2011-01-11 19:00;CYHM 111900Z 06020G25KT 3SM -SN DRSN OVC005 M04/M06 A3002 RMK SF8 SLP180

CYHM;2011-01-11 20:00;CYHM 112000Z 06015G21KT 3SM -SN DRSN OVC004 M04/M05 A3000 RMK SC8 SLP173

CYHM;2011-01-11 20:26;CYHM 112026Z 06015G24KT 2 1/4SM -SN DRSN OVC004 RMK SC8

CYHM;2011-01-11 21:00;CYHM 112100Z 05018G24KT 1SM -SN DRSN OVC005 M03/M05 A2997 RMK SN2SC6 VSBY VRBL 3/4-11/4SM SLP161

CYHM;2011-01-11 22:00;CYHM 112200Z 05020G31KT 2 1/2SM -SN DRSN OVC004 M03/M05 A2994 RMK SN2SC6 VSBY VRBL 13/4-4SM SLP153

CYHM;2011-01-11 23:00;CYHM 112300Z 05018G28KT 1 1/4SM -SN DRSN OVC007 M04/M06 A2991 RMK SN2SC6 VSBY VRBL 3/4-13/4 SLP144

CYHM;2011-01-11 23:40;CYHM 112340Z 05022G34KT 3/4SM -SN DRSN BKN007 OVC016 RMK SN3SF4SC1 VSBY VRBL 1/2-1SM

CYHM;2011-01-12 00:00;CYHM 120000Z 05020G28KT 3/4SM -SN DRSN OVC008 M05/M06 A2990 RMK SN3SF5 VSBY VRBL 1/2-1SM SLP139

CYHM;2011-01-12 01:00;CYHM 120100Z 05018G26KT 1SM -SN DRSN BKN008 OVC018 M05/M07 A2988 RMK SN2SF5SC1 VSBY VRBL 3/4-11/4SM SLP132

CYHM;2011-01-12 02:00;CYHM 120200Z 05020G28KT 3/4SM -SN DRSN OVC009 M05/M07 A2986 RMK SN3SF5 VSBY VRBL 1/2-1SM SLP125

CYHM;2011-01-12 03:00;CYHM 120300Z 05022G30KT 3/4SM -SN DRSN OVC006 M05/M07 A2984 RMK SN2SF6 VSBY VRBL 1/2-1SM SLP119

CYHM;2011-01-12 04:00;CYHM 120400Z 04017G24KT 1SM -SN DRSN OVC009 M07/M08 A2983 RMK SN3SF5 VSBY VRBL 3/4-11/4SM SLP115

CYHM;2011-01-12 05:00;CYHM 120500Z 03018G26KT 1SM -SN DRSN OVC007 M08/M10 A2982 RMK SN3SF5 VSBY VRBL 3/4-11/4SM SLP110

CYHM;2011-01-12 06:00;CYHM 120600Z 02018G26KT 1SM -SN DRSN OVC006 M08/M10 A2981 RMK SN3SF5 SLP109

CYHM;2011-01-12 07:00;CYHM 120700Z 02018G24KT 1 3/4SM -SN DRSN FEW007 OVC024 M09/M12 A2981 RMK SN1SF2SC6 SLP110

CYHM;2011-01-12 08:00;CYHM 120800Z 01015KT 1 3/4SM -SN DRSN OVC011 M10/M12 A2983 RMK SN2SC6 SLP115

CYHM;2011-01-12 09:00;CYHM 120900Z 36015G22KT 1 3/4SM -SN DRSN BKN010 OVC025 M10/M12 A2983 RMK SN2SF5SC2 SLP115

CYHM;2011-01-12 10:00;CYHM 121000Z 01015G22KT 1SM -SN DRSN SCT009 OVC016 M10/M12 A2985 RMK SN2SF2SC4 VSBY VRBL 3/4-11/4SM SLP121

CYHM;2011-01-12 11:00;CYHM 121100Z 36013KT 1SM -SN DRSN OVC014 M10/M12 A2986 RMK SN2SC6 VSBY VRBL 3/4-11/4SM SLP125

CYHM;2011-01-12 11:15;CYHM 121115Z 01013KT 2SM -SN DRSN BKN016 OVC030 RMK SN2SF5SC2 VSBY VRBL 11/2-21/2SM

CYHM;2011-01-12 11:32;CYHM 121132Z 35011KT 2 1/2SM -SN DRSN BKN013 OVC027 RMK SC6SC2

CYHM;2011-01-12 12:00;CYHM 121200Z 35010KT 4SM -SN DRSN BKN012 OVC025 M10/M13 A2989 RMK SC6SC2 SLP135

CYHM;2011-01-12 12:22;CYHM 121222Z 35010KT 1 1/2SM -SN DRSN BKN008 OVC018 RMK SN1SF5SC2 VISB VRBL 1-2SM

CYHM;2011-01-12 12:35;CYHM 121235Z 35010KT 1 1/4SM -SN DRSN BKN005 OVC015 RMK SN2SF4SC2

CYHM;2011-01-12 13:00;CYHM 121300Z 35011KT 3/4SM -SN DRSN BKN008 OVC016 M10/M12 A2991 RMK SN2SF4SC2 VISB VRB 1-1/2SM SLP142

CYHM;2011-01-12 13:23;CYHM 121323Z 34008KT 2 1/2SM -SN BKN014 OVC033 RMK SC6SC2

CYHM;2011-01-12 14:00;CYHM 121400Z 36010KT 4SM -SN BKN015 OVC030 M09/M13 A2993 RMK SC6SC2 SLP150

CYHM;2011-01-12 15:00;CYHM 121500Z 34010KT 6SM -SN BKN020 OVC032 M09/M13 A2995 RMK SC6SC2 SLP157

CYHM;2011-01-12 16:00;CYHM 121600Z 31008KT 8SM -SN FEW018 BKN033 BKN058 BKN075 M08/M13 A2996 RMK CU2SC3SC1AC1 SLP161

CYHM;2011-01-12 17:00;CYHM 121700Z 33012KT 15SM -SN BKN025 BKN034 M08/M13 A2995 RMK SC6SC2 TR CU ASOCTD PCPN VRY LGT SLP157

CYHM;2011-01-12 18:00;CYHM 121800Z 32008KT 15SM -SN FEW025 BKN042 BKN085 BKN210 M07/M13 A2994 RMK CU2SC3AC1CI1 SLP155

CYHM;2011-01-12 19:00;CYHM 121900Z 34014KT 15SM BKN028 M07/M13 A2995 RMK SC7 SLP156

CYHM;2011-01-12 20:00;CYHM 122000Z 35011KT 15SM -SHSN BKN030 M07/M13 A2998 RMK SC7 SUN DMLY VSBL SLP168

CYHM;2011-01-12 21:00;CYHM 122100Z 33010KT 15SM -SHSN OVC025 M07/M12 A3001 RMK SC8 SLP177

CYHM;2011-01-12 22:00;CYHM 122200Z 32008KT 15SM -SHSN OVC024 M07/M12 A3004 RMK SC8 SLP186

CYHM;2011-01-12 23:00;CYHM 122300Z 33009KT 15SM -SHSN BKN024 M08/M13 A3006 RMK SC6 SLP194

CYHM;2011-01-12 23:21;CYHM 122321Z 33008KT 15SM FEW024 FEW250 RMK SC1CI0

CYHM;2011-01-13 00:00;CYHM 130000Z 29006KT 15SM FEW020 FEW250 M10/M14 A3008 RMK SC1CI1 SC TR SLP203

CYHM;2011-01-13 01:00;CYHM 130100Z 31007KT 15SM FEW020 FEW250 M10/M14 A3010 RMK SC1CI1 SC TR SLP208

CYHM;2011-01-13 02:00;CYHM 130200Z 31004KT 15SM FEW020 FEW250 M11/M14 A3011 RMK SC1CI1 SC TR SLP213

CYHM;2011-01-13 03:00;CYHM 130300Z 30003KT 15SM SCT022 M11/M15 A3014 RMK SC4 SLP224

CYHM;2011-01-13 04:00;CYHM 130400Z 36002KT 15SM -SHSN FEW023 M11/M14 A3016 RMK SC2 PCPN VRY LGT SLP229

CYHM;2011-01-13 05:00;CYHM 130500Z 00000KT 15SM -SHSN SCT022 M11/M14 A3017 RMK SC2 PCPN VRY LGT SLP234

CYHM;2011-01-13 06:00;CYHM 130600Z 00000KT 15SM -SHSN FEW023 FEW200 M12/M14 A3019 RMK SC2CI1 PCPN VRY LGT SLP241

CYHM;2011-01-13 07:00;CYHM 130700Z 34004KT 15SM -SHSN BKN025 M11/M14 A3022 RMK SC6 PCPN VRY LGT SLP250

CYHM;2011-01-13 08:00;CYHM 130800Z 02002KT 15SM -SHSN BKN027 M13/M15 A3025 RMK SC6 PCPN VRY LGT SLP259

CYHM;2011-01-13 09:00;CYHM 130900Z 00000KT 12SM -SHSN OVC022 M11/M14 A3026 RMK SC8 SLP264

CYHM;2011-01-13 10:00;CYHM 131000Z 31004KT 15SM -SHSN OVC023 M10/M14 A3027 RMK SC8 SLP267

CYHM;2011-01-13 11:00;CYHM 131100Z 32005KT 15SM -SHSN OVC023 M10/M13 A3028 RMK SC8 SLP270

CYHM;2011-01-13 12:00;CYHM 131200Z CCA 32003KT 15SM -SHSN OVC021 M09/M13 A3030 RMK SC8 PCPN VRY LGT SLP276

CYHM;2011-01-13 13:00;CYHM 131300Z 30003KT 15SM -SHSN OVC024 M09/M13 A3031 RMK SC8 PCPN VRY LGT SLP282

CYHM;2011-01-13 14:00;CYHM 131400Z 26005KT 12SM -SHSN OVC021 M10/M12 A3034 RMK SC8 SLP292

CYHM;2011-01-13 15:00;CYHM 131500Z 25006KT 6SM -SHSN OVC022 M10/M12 A3036 RMK SC8 SLP297

CYHM;2011-01-13 15:31;CYHM 131531Z 25007KT 15SM FEW025 SCT210 RMK SC2CI1

CYHM;2011-01-13 16:00;CYHM 131600Z 25006KT 15SM FEW025 FEW210 M09/M13 A3035 RMK SC1CI1 TR CU ASOCTD SLP295

CYHM;2011-01-13 17:00;CYHM 131700Z 28010KT 15SM FEW028 SCT210 M08/M13 A3033 RMK CU2CI1 CONTRAILS SLP288

CYHM;2011-01-13 18:00;CYHM 131800Z 28012KT 15SM FEW032 SCT210 M07/M13 A3031 RMK CU2CI1 TR SC ASOCTD SLP282

CYHM;2011-01-13 19:00;CYHM 131900Z 28013KT 15SM FEW030 FEW140 SCT210 M06/M13 A3032 RMK CU1AC1CI1 CONTRAIL SLP283

CYHM;2011-01-13 20:00;CYHM 132000Z 29013KT 15SM BKN025 BKN220 M06/M12 A3033 RMK SC5CI1 SLP286

CYHM;2011-01-13 21:00;CYHM 132100Z 29009KT 15SM BKN023 BKN220 M06/M11 A3033 RMK SC7CI1 SLP287

CYHM;2011-01-13 21:36;CYHM 132136Z 28008KT 15SM -SHSN BKN022 RMK SC7

CYHM;2011-01-13 22:00;CYHM 132200Z 29010KT 15SM -SHSN BKN022 M06/M11 A3034 RMK SC7 PCPN VRY LGT SLP289

CYHM;2011-01-13 23:00;CYHM 132300Z 29006KT 15SM -SHSN OVC022 M06/M10 A3034 RMK SC8 PCPN VRY LGT SLP291

CYHM;2011-01-14 00:00;CYHM 140000Z 24005KT 15SM -SHSN BKN021 OVC029 M07/M10 A3034 RMK SC5SC3 PCPN VRY LGT SLP291

CYHM;2011-01-14 01:00;CYHM 140100Z 24004KT 15SM -SHSN BKN014 OVC027 M06/M09 A3034 RMK SC6SC2 SLP291

CYHM;2011-01-14 02:00;CYHM 140200Z 24002KT 12SM -SHSN OVC013 M07/M09 A3033 RMK SC8 SLP288

CYHM;2011-01-14 03:00;CYHM 140300Z 23004KT 15SM -SHSN BKN014 OVC033 M07/M09 A3033 RMK SC6SC2 SLP285

CYHM;2011-01-14 03:46;CYHM 140346Z 23004KT 10SM -SHSN SCT014 OVC027 RMK SC3SC5

CYHM;2011-01-14 04:00;CYHM 140400Z 23004KT 10SM -SHSN FEW014 OVC026 M07/M09 A3032 RMK SC2SC6 SLP282

CYHM;2011-01-14 05:00;CYHM 140500Z 23004KT 12SM -SHSN BKN016 OVC027 M07/M10 A3030 RMK SC5SC3 SLP278

CYHM;2011-01-14 06:00;CYHM 140600Z 24004KT 12SM -SHSN FEW017 OVC025 M07/M10 A3030 RMK SC1SC7 SLP275

CYHM;2011-01-14 07:00;CYHM 140700Z 27003KT 8SM -SHSN OVC029 M07/M10 A3030 RMK SC8 SLP276

CYHM;2011-01-14 08:00;CYHM 140800Z 30003KT 9SM -SHSN BKN034 OVC040 M07/M10 A3031 RMK SC7SC1 SLP278

CYHM;2011-01-14 09:00;CYHM 140900Z 00000KT 15SM -SHSN BKN038 M08/M10 A3030 RMK SC7 SLP275

CYHM;2011-01-14 09:41;CYHM 140941Z 21004KT 15SM FEW038 BKN130 RMK SC2AC5

CYHM;2011-01-14 10:00;CYHM 141000Z 22005KT 15SM FEW038 BKN130 M10/M12 A3030 RMK SC1AC5 SLP276

CYHM;2011-01-14 11:00;CYHM 141100Z 23004KT 10SM SCT130 M11/M12 A3030 RMK AC3 SLP277

CYHM;2011-01-14 12:00;CYHM 141200Z 23004KT 10SM FEW035 SCT150 M11/M13 A3030 RMK SC1AC2 SLP278

CYHM;2011-01-14 13:00;CYHM 141300Z 26002KT 8SM FEW040 FEW150 M12/M14 A3030 RMK SC1AC1 SLP277

CYHM;2011-01-14 14:00;CYHM 141400Z 26002KT 8SM FEW025 FEW120 SCT220 M11/M12 A3031 RMK CU1AC1CI1 CU TR SLP280

CYHM;2011-01-14 15:00;CYHM 141500Z 25004KT 10SM FEW025 FEW210 M08/M10 A3031 RMK CU1CI1 CU TR SLP281

CYHM;2011-01-14 16:00;CYHM 141600Z 25005KT 10SM FEW170 SCT220 M08/M10 A3032 RMK AC1CI1 SLP283

CYHM;2011-01-14 17:00;CYHM 141700Z 25006KT 10SM FEW025 FEW150 FEW220 M06/M09 A3030 RMK CU1AC1CI1 CU TR AC TR SLP276

CYHM;2011-01-14 18:00;CYHM 141800Z 26006KT 15SM FEW024 FEW210 M05/M09 A3028 RMK CU1CI1 CI TR SLP267

CYHM;2011-01-14 19:00;CYHM 141900Z 27004KT 15SM FEW025 FEW140 FEW210 M04/M09 A3027 RMK CU1AC1CI1 CI TR SLP264

CYHM;2011-01-14 20:00;CYHM 142000Z 25009KT 15SM SCT045 M04/M09 A3028 RMK SC4 CU ASOCTD SLP267

CYHM;2011-01-14 21:00;CYHM 142100Z 25007KT 15SM BKN036 M05/M09 A3029 RMK SC7 CU ASOCTD SLP270

CYHM;2011-01-14 22:00;CYHM 142200Z 25009KT 10SM -SHSN BKN036 M05/M09 A3028 RMK SC7 SLP269

CYHM;2011-01-14 23:00;CYHM 142300Z 23008KT 12SM -SHSN FEW030 M06/M10 A3027 RMK SC2 PCPN VRY LGT SLP266

CYHM;2011-01-15 00:00;CYHM 150000Z 24005KT 15SM -SHSN FEW030 M08/M11 A3027 RMK SC2 SLP269

CYHM;2011-01-15 01:00;CYHM 150100Z 23007KT 15SM FEW030 M09/M11 A3026 RMK SC1 SLP266

CYHM;2011-01-15 02:00;CYHM 150200Z 22005KT 15SM FEW200 M09/M10 A3025 RMK CI1 SLP260

CYHM;2011-01-15 03:00;CYHM 150300Z 22005KT 15SM BKN028 M09/M11 A3023 RMK SC6 SLP253

CYHM;2011-01-15 04:00;CYHM 150400Z 23006KT 12SM -SHSN OVC025 M08/M11 A3021 RMK SC8 SLP247

CYHM;2011-01-15 05:00;CYHM 150500Z 22003KT 12SM -SHSN OVC026 M08/M10 A3018 RMK SC8 SLP236

CYHM;2011-01-15 06:00;CYHM 150600Z 19005KT 10SM -SHSN OVC022 M07/M09 A3014 RMK SC8 SLP220

CYHM;2011-01-15 07:00;CYHM 150700Z 17004KT 7SM -SHSN FEW026 OVC050 M07/M09 A3010 RMK CF2SC6 SLP209

CYHM;2011-01-15 08:00;CYHM 150800Z 15007KT 10SM -SHSN FEW026 OVC054 M07/M09 A3007 RMK CF2SC6 SLP198

CYHM;2011-01-15 09:00;CYHM 150900Z 14005KT 1 1/2SM -SN VV012 M07/M09 A3003 RMK SN8 VIS VRB 1 - 2 SLP184

CYHM;2011-01-15 10:00;CYHM 151000Z 15006KT 1 1/2SM -SN VV010 M06/M08 A2998 RMK SN8 VIS VRB 1 - 2 /S01/ PRESFR SLP166

CYHM;2011-01-15 10:50;CYHM 151050Z CCA 16006KT 1 1/2SM -SN VV007 RMK SN8 VIS VRB 1 - 2 PRESFR

CYHM;2011-01-15 11:00;CYHM 151100Z 16008KT 1 1/2SM -SN VV008 M06/M07 A2993 RMK SN8 VIS VRB 1 - 2 PRESFR SLP150

CYHM;2011-01-15 11:40;CYHM 151140Z 20008KT 2 1/4SM -SN OVC009 RMK SN2SC6

CYHM;2011-01-15 12:00;CYHM 151200Z 20010KT 1 1/2SM -SN OVC009 M04/M06 A2988 RMK SN5SC3 /S02/ SLP130

CYHM;2011-01-15 13:00;CYHM 151300Z 20012KT 1 1/2SM -SN OVC009 M04/M05 A2984 RMK SN5SC3 SLP117

CYHM;2011-01-15 13:18;CYHM 151318Z 20013KT 1SM -SN OVC009 RMK SN6SC2

CYHM;2011-01-15 14:00;CYHM 151400Z 21014KT 1SM -SN OVC009 M04/M05 A2978 RMK SN6SC2 SLP100

CYHM;2011-01-15 14:08;CYHM 151408Z 20016G23KT 3/4SM -SN DRSN OVC009 RMK SN6SC2

CYHM;2011-01-15 14:24;CYHM 151424Z 21019G24KT 2SM -SN DRSN BKN009 OVC014 RMK SN2SC4SC2

CYHM;2011-01-15 14:39;CYHM 151439Z 21018KT 3/4SM -SN DRSN OVC009 RMK SN6SC2

CYHM;2011-01-15 15:00;CYHM 151500Z 22021KT 3/8SM SN BLSN VV005 M03/M05 A2975 RMK SN8 SLP087

CYHM;2011-01-15 15:06;CYHM 151506Z 21020KT 1SM -SN BLSN OVC008 RESN RMK SN6SC2

CYHM;2011-01-15 15:39;CYHM 151539Z 22017KT 1 3/4SM -SN DRSN BKN008 OVC013 RESN RMK SN2SC4SC2

CYHM;2011-01-15 16:00;CYHM 151600Z 23018KT 1 1/4SM -SN DRSN BKN009 OVC014 M03/M04 A2973 RMK SN4SC2SC2 SLP080

CYHM;2011-01-15 17:00;CYHM 151700Z 24019KT 1 1/4SM -SN BLSN BKN009 OVC014 M02/M04 A2971 RMK SN4SC2SC2 SLP073

CYHM;2011-01-15 18:00;CYHM 151800Z CCA 25016KT 1 1/2SM -SN BLSN BKN009 OVC016 M03/M04 A2970 RMK SN2SC4SC2 /S03/ SLP069

CYHM;2011-01-15 18:25;CYHM 151825Z 25016KT 3SM -SN DRSN BKN012 OVC020 RMK SC5SC3

CYHM;2011-01-15 19:00;CYHM 151900Z 26016KT 4SM -SN DRSN FEW013 OVC024 M03/M06 A2971 RMK SC2SC6 SLP075

CYHM;2011-01-15 19:32;CYHM 151932Z 26016KT 2SM -SN BLSN SCT013 OVC021 RMK BLSN1SC2SC5 VIS VRB 11/2-21/2

CYHM;2011-01-15 20:00;CYHM 152000Z 26015G21KT 2 1/2SM -SN BLSN SCT013 BKN020 OVC030 M03/M06 A2974 RMK BLSN1SC2SC3SC2 VIS VRB 13/4-4 SLP084

CYHM;2011-01-15 21:00;CYHM 152100Z 27014KT 5SM -SHSN DRSN FEW013 BKN022 OVC036 M04/M07 A2979 RMK SC2SC3SC3 PCPN VRY LGT SLP101

CYHM;2011-01-15 21:26;CYHM 152126Z 26013KT 7SM DRSN FEW014 SCT024 BKN038 BKN200 RMK CF2SC2SC2CI1

CYHM;2011-01-15 22:00;CYHM 152200Z 26012KT 8SM FEW024 SCT038 BKN250 M05/M10 A2982 RMK SC2SC2CI2 SLP111

CYHM;2011-01-15 23:00;CYHM 152300Z 25012KT 9SM BKN051 BKN250 M06/M09 A2985 RMK SC5CI1 SLP121

CYHM;2011-01-16 00:00;CYHM 160000Z 25012KT 8SM FEW050 M06/M08 A2987 RMK SC2 SLP126

CYHM;2011-01-16 01:00;CYHM 160100Z 25012KT 10SM FEW022 FEW050 M06/M09 A2988 RMK SC1SC1 SLP132

CYHM;2011-01-16 02:00;CYHM 160200Z 25011KT 12SM FEW020 M06/M09 A2989 RMK SC1 SLP135

CYHM;2011-01-16 02:39;CYHM 160239Z 24009KT 12SM BKN014 RMK SC5

CYHM;2011-01-16 03:00;CYHM 160300Z 24009KT 12SM SCT012 BKN022 M06/M09 A2991 RMK SC4SC3 SLP143

CYHM;2011-01-16 04:00;CYHM 160400Z 24011KT 10SM -SHSN BKN025 M07/M09 A2993 RMK SC7 SLP147

CYHM;2011-01-16 05:00;CYHM 160500Z 28013G21KT 15SM FEW025 FEW055 M05/M10 A2994 RMK SC2SC1 SLP151

CYHM;2011-01-16 06:00;CYHM 160600Z 27012KT 15SM FEW025 FEW055 M06/M11 A2996 RMK SC1SC1 SLP157

CYHM;2011-01-16 07:00;CYHM 160700Z 26008KT 15SM FEW050 M07/M11 A2997 RMK SC2 SLP163

CYHM;2011-01-16 08:00;CYHM 160800Z 26007KT 15SM BKN022 M08/M11 A3001 RMK SC5 SLP173

CYHM;2011-01-16 09:00;CYHM 160900Z 26008KT 15SM FEW023 M09/M12 A3002 RMK SC1 SLP180

CYHM;2011-01-16 10:00;CYHM 161000Z 26007KT 15SM FEW035 M09/M12 A3004 RMK SC1 SLP185

CYHM;2011-01-16 11:00;CYHM 161100Z 25007KT 15SM -SHSN FEW040 FEW220 M10/M13 A3005 RMK SC2CI1 PCPN VRY LGT SLP191

CYHM;2011-01-16 12:00;CYHM 161200Z 27005KT 15SM -SHSN BKN038 M10/M13 A3008 RMK SC7 PCPN VRY LGT SLP203

CYHM;2011-01-16 13:00;CYHM 161300Z 27005KT 15SM BKN043 M09/M13 A3011 RMK SC6 SLP212

CYHM;2011-01-16 14:00;CYHM 161400Z 29009KT 15SM BKN026 BKN043 BKN250 M09/M14 A3014 RMK SC5SC1CI1 SLP223

CYHM;2011-01-16 15:00;CYHM 161500Z 30011KT 270V340 15SM FEW025 FEW040 BKN250 M09/M15 A3016 RMK SC2SC1CI1 SLP228

CYHM;2011-01-16 16:00;CYHM 161600Z 33013KT 15SM BKN032 M10/M16 A3019 RMK SC7 SLP237

CYHM;2011-01-16 17:00;CYHM 161700Z 29015KT 15SM BKN025 BKN036 M10/M16 A3019 RMK SC6SC2 SLP239

CYHM;2011-01-16 18:00;CYHM 161800Z 30013KT 240V340 15SM BKN026 M11/M16 A3019 RMK SC7 SLP239

CYHM;2011-01-16 19:00;CYHM 161900Z 32008KT 15SM BKN031 M11/M17 A3019 RMK SC7 SLP240

CYHM;2011-01-16 20:00;CYHM 162000Z 32012KT 15SM FEW028 BKN034 M12/M17 A3020 RMK SC2SC4 SLP243

CYHM;2011-01-16 21:00;CYHM 162100Z 30009KT 260V330 15SM FEW026 SCT034 BKN130 M12/M18 A3022 RMK CF2SC2AC2 SLP249

CYHM;2011-01-16 22:00;CYHM 162200Z 30004KT 15SM FEW030 SCT130 BKN160 M13/M18 A3023 RMK SC2AC2AC2 SLP255

CYHM;2011-01-16 23:00;CYHM 162300Z 29003KT 15SM FEW030 SCT120 BKN170 M14/M19 A3025 RMK SC1AC3AC2 SLP261

CYHM;2011-01-17 00:00;CYHM 170000Z 35005KT 15SM FEW030 FEW120 BKN180 M14/M19 A3026 RMK SC1AC2AC2 SLP267

CYHM;2011-01-17 01:00;CYHM 170100Z 31002KT 15SM SCT035 BKN180 M16/M19 A3028 RMK SC3AC1 SLP271

CYHM;2011-01-17 02:00;CYHM 170200Z 32002KT 15SM FEW028 BKN037 M16/M20 A3028 RMK SC1SC5 SLP272

CYHM;2011-01-17 03:00;CYHM 170300Z 35005KT 15SM FEW035 M17/M22 A3028 RMK SC2 SLP273

CYHM;2011-01-17 04:00;CYHM 170400Z 03003KT 15SM FEW035 BKN120 M18/M22 A3029 RMK SC1AC4 SLP276

CYHM;2011-01-17 05:00;CYHM 170500Z 00000KT 15SM FEW110 M18/M21 A3029 RMK AC1 SLP275

CYHM;2011-01-17 06:00;CYHM 170600Z 00000KT 15SM FEW200 M19/M21 A3027 RMK CI1 SLP272

CYHM;2011-01-17 07:00;CYHM 170700Z 34003KT 15SM FEW220 M20/M23 A3027 RMK CI1 SLP270

CYHM;2011-01-17 08:00;CYHM 170800Z 35002KT 15SM FEW200 M19/M22 A3027 RMK CI1 SLP272

CYHM;2011-01-17 09:00;CYHM 170900Z 02005KT 15SM FEW210 M19/M23 A3027 RMK CI1 SLP273

CYHM;2011-01-17 10:00;CYHM 171000Z 05005KT 15SM FEW200 M18/M23 A3027 RMK CI1 SLP271

CYHM;2011-01-17 11:00;CYHM 171100Z 07006KT 15SM FEW040 FEW210 M18/M22 A3026 RMK SC1CI1 SLP270

CYHM;2011-01-17 12:00;CYHM 171200Z 08006KT 15SM FEW042 FEW210 M18/M21 A3026 RMK SC1CI1 SLP268

CYHM;2011-01-17 13:00;CYHM 171300Z 11008KT 15SM FEW042 SCT210 M18/M21 A3025 RMK SC1CI1 CONTREAIL SLP264

CYHM;2011-01-17 14:00;CYHM 171400Z 11007KT 15SM FEW035 BKN210 M16/M19 A3025 RMK SC1CI2 SLP264

CYHM;2011-01-17 15:00;CYHM 171500Z 11010KT 15SM FEW035 BKN210 M14/M20 A3023 RMK SC1CI4 SC TR SLP257

CYHM;2011-01-17 16:00;CYHM 171600Z 08010KT 15SM FEW035 BKN210 M13/M19 A3021 RMK SC1CI4 SC TR SLP251

CYHM;2011-01-17 17:00;CYHM 171700Z 07012KT 15SM FEW180 SCT210 M11/M18 A3017 RMK AC1CI2 SLP236

CYHM;2011-01-17 18:00;CYHM 171800Z 06010KT 15SM FEW180 SCT210 M10/M18 A3012 RMK AC1CI2 SLP219

CYHM;2011-01-17 19:00;CYHM 171900Z 06012KT 15SM SCT210 M09/M17 A3007 RMK CI2 SLP204

CYHM;2011-01-17 20:00;CYHM 172000Z 07008KT 15SM BKN250 M09/M15 A3006 RMK CI2 SLP198

CYHM;2011-01-17 21:00;CYHM 172100Z 07009KT 15SM BKN250 M09/M15 A3005 RMK CI2 SLP197

CYHM;2011-01-17 22:00;CYHM 172200Z 06009KT 15SM BKN250 M09/M15 A3004 RMK CI3 SLP191

CYHM;2011-01-17 23:00;CYHM 172300Z 06008KT 15SM BKN250 M09/M13 A3002 RMK CI3 SLP187

CYHM;2011-01-18 00:00;CYHM 180000Z 06009KT 15SM BKN250 M08/M13 A2998 RMK CI2 SLP171

CYHM;2011-01-18 01:00;CYHM 180100Z 07008KT 15SM OVC250 M08/M12 A2996 RMK CS4 HALO SLP163

CYHM;2011-01-18 02:00;CYHM 180200Z 06007KT 15SM OVC250 M08/M12 A2994 RMK CS6 HALO SLP156

CYHM;2011-01-18 03:00;CYHM 180300Z 13005KT 15SM BKN250 M07/M12 A2992 RMK CS4 SLP149

CYHM;2011-01-18 04:00;CYHM 180400Z 16006KT 15SM BKN250 M07/M11 A2990 RMK CS4 CC ASOCTD SLP142

CYHM;2011-01-18 05:00;CYHM 180500Z 17007KT 15SM FEW190 BKN250 M06/M09 A2988 RMK AC1CC2 SLP135

CYHM;2011-01-18 06:00;CYHM 180600Z 17005KT 15SM OVC250 M04/M07 A2987 RMK CS7 SLP128

CYHM;2011-01-18 07:00;CYHM 180700Z 16007KT 15SM OVC250 M03/M06 A2985 RMK CS7 SLP123

CYHM;2011-01-18 08:00;CYHM 180800Z 18012KT 10SM -FZDZ OVC025 M00/M03 A2984 RMK ST8 SLP119

CYHM;2011-01-18 09:00;CYHM 180900Z 17010G16KT 5SM -FZDZ BR FEW009 OVC014 00/M01 A2982 RMK SF2SC6 SLP111

CYHM;2011-01-18 09:40;CYHM 180940Z 19012KT 5SM -SN -FZDZ BR OVC008 RMK SF8

CYHM;2011-01-18 10:00;CYHM 181000Z 19013KT 5SM -SN -FZDZ BR OVC006 00/M01 A2980 RMK SF8 SLP104

CYHM;2011-01-18 10:41;CYHM 181041Z 18015KT 6SM -SHSN BR FEW008 OVC014 RMK SF2SC6

CYHM;2011-01-18 11:00;CYHM 181100Z 18014KT 5SM -SHSN BR FEW009 OVC015 00/M01 A2978 RMK SF2SC6 SLP099

CYHM;2011-01-18 11:54;CYHM 181154Z 18012KT 10SM BKN013 OVC026 RMK SF6SC2

CYHM;2011-01-18 12:00;CYHM 181200Z 18012KT 10SM BKN013 OVC028 01/M01 A2977 RMK SC6SC2 SLP094

CYHM;2011-01-18 13:00;CYHM 181300Z 18010KT 4SM BR OVC018 01/M01 A2977 RMK SC8 SLP093

CYHM;2011-01-18 14:00;CYHM 181400Z 18012KT 6SM BR BKN019 OVC028 01/M01 A2977 RMK SC6SC2 SLP092

CYHM;2011-01-18 15:00;CYHM 181500Z 19010KT 7SM BKN018 OVC030 02/M00 A2975 RMK SC6SC2 SLP086

CYHM;2011-01-18 16:00;CYHM 181600Z 21012KT 10SM BKN020 OVC027 02/01 A2974 RMK SC6SC2 SLP083

CYHM;2011-01-18 17:00;CYHM 181700Z 20008KT 10SM OVC016 02/M01 A2972 RMK SC8 SLP077

CYHM;2011-01-18 18:00;CYHM 181800Z 21007KT 10SM OVC013 02/M00 A2969 RMK SC8 SLP064

CYHM;2011-01-18 18:42;CYHM 181842Z 21008KT 8SM -SHRA OVC011 RMK SC8

CYHM;2011-01-18 19:00;CYHM 181900Z 22007KT 6SM -SHRA BR OVC011 02/00 A2968 RMK SC8 SLP059

CYHM;2011-01-18 19:29;CYHM 181929Z 21010KT 5SM -SHRA BR OVC007 RMK SC8

CYHM;2011-01-18 19:46;CYHM 181946Z 21009KT 2 1/2SM -SHRA BR OVC006 RMK SC8

CYHM;2011-01-18 20:00;CYHM 182000Z 22007KT 1 3/4SM -SHRA BR OVC005 02/01 A2968 RMK SC8 SLP060

CYHM;2011-01-18 20:16;CYHM 182016Z 21005KT 1SM -SHRA BR OVC005 RMK SC8

CYHM;2011-01-18 20:43;CYHM 182043Z 21006KT 3/4SM -SHRA BR OVC002 RMK SC8

CYHM;2011-01-18 21:00;CYHM 182100Z 21003KT 1/2SM -SHRA FG OVC003 01/01 A2968 RMK FG2SF6 SLP061

CYHM;2011-01-18 21:42;CYHM 182142Z 21005KT 1SM -SHSN BR OVC004 RMK SF8

CYHM;2011-01-18 22:00;CYHM 182200Z 22003KT 1 1/4SM -SHSN BR OVC003 01/00 A2969 RMK SC8 SLP063

CYHM;2011-01-18 23:00;CYHM 182300Z 25002KT 1 1/2SM -SHSN BR OVC003 01/00 A2970 RMK SF8 SLP066

CYHM;2011-01-19 00:00;CYHM 190000Z 26003KT 1SM -SHSN BR OVC002 00/M00 A2970 RMK SF8 SLP067

CYHM;2011-01-19 00:28;CYHM 190028Z 29002KT 1 1/2SM -SHSN BR SCT006 OVC029 RMK SN2SF2SC5

CYHM;2011-01-19 01:00;CYHM 190100Z 29003KT 1 3/4SM -SHSN BR FEW009 OVC024 00/M00 A2971 RMK SN2SF1SC6 SLP068

CYHM;2011-01-19 01:34;CYHM 190134Z 35010KT 4SM -SHSN BR FEW004 OVC028 RMK SF2SC6

CYHM;2011-01-19 02:00;CYHM 190200Z 02009KT 5SM -SHSN BR FEW004 OVC030 01/M00 A2971 RMK SF2SC6 SLP070

CYHM;2011-01-20 05:00;CYHM 200500Z 26007KT 15SM -SHSN FEW100 FEW210 M12/M15 A3005 RMK AC1CI2 PCPN VRY LGT SLP192

CYHM;2011-01-20 06:00;CYHM 200600Z 26006KT 15SM -SHSN FEW009 FEW027 FEW085 M12/M14 A3005 RMK CF1SC1AC1 TR CF SLP192

CYHM;2011-01-20 07:00;CYHM 200700Z 24005KT 15SM -SHSN FEW027 FEW085 M13/M16 A3006 RMK SC1AC1 SLP196

CYHM;2011-01-20 08:00;CYHM 200800Z 23007KT 15SM FEW210 M15/M17 A3007 RMK CI1 SLP197

CYHM;2011-01-20 09:00;CYHM 200900Z 25006KT 15SM -SHSN FEW050 M13/M16 A3006 RMK SC1 PCPN VRY LGT FROIN SLP196

CYHM;2011-01-20 10:00;CYHM 201000Z 26005KT 15SM FEW210 M13/M15 A3005 RMK CI1 FROIN SLP193

CYHM;2011-01-20 11:00;CYHM 201100Z 25007KT 15SM -SHSN FEW040 FEW210 M14/M16 A3005 RMK SC1CI1 PCPN VRY LGT FROIN SLP192

CYHM;2011-01-20 11:18;CYHM 201118Z 25006KT 15SM FEW040 FEW210 RMK SC1CI1 SC TR

CYHM;2011-01-20 12:00;CYHM 201200Z 25004KT 15SM FEW040 FEW210 M14/M17 A3004 RMK SC1CI1 SLP192

CYHM;2011-01-20 13:00;CYHM 201300Z 23002KT 15SM FEW045 SCT210 M14/M16 A3005 RMK SC1CI2 SLP194

CYHM;2011-01-20 14:00;CYHM 201400Z 21004KT 15SM FEW055 FEW210 M14/M16 A3005 RMK SC1CI1 SLP195

CYHM;2011-01-20 15:00;CYHM 201500Z 27004KT 15SM FEW055 FEW110 BKN210 M11/M13 A3006 RMK SC1AC1CI2 SLP197

CYHM;2011-01-20 16:00;CYHM 201600Z CCF 24006KT 15SM FEW055 BKN120 BKN160 BKN210 M10/M12 A3004 RMK SC1AC5AC2CI1 SC TR SLP190

CYHM;2011-01-20 17:00;CYHM 201700Z 25008KT 15SM FEW025 FEW090 BKN210 M08/M10 A3002 RMK CU1AC2CI2 CU TR SLP183

CYHM;2011-01-20 18:00;CYHM 201800Z 25008KT 15SM FEW025 SCT095 OVC140 M07/M11 A2999 RMK CU2AC2AS4 SLP172

CYHM;2011-01-20 20:00;CYHM 202000Z 23008KT 12SM -SHSN BKN024 OVC080 M07/M11 A2993 RMK SC6AC2 PCPN VRY LGT SLP153

CYHM;2011-01-20 21:00;CYHM 202100Z 23006KT 7SM -SHSN BKN023 OVC080 M07/M11 A2991 RMK SC7AC1 SLP147

CYHM;2011-01-20 22:00;CYHM 202200Z 22005KT 2 1/2SM -SHSN OVC015 M08/M11 A2988 RMK SC8 SLP135

CYHM;2011-01-20 22:43;CYHM 202243Z 19004KT 3SM -SHSN BKN019 OVC042 RMK SC6SC2

CYHM;2011-01-20 23:22;CYHM 202322Z 19004KT 3SM -SHSN BKN018 OVC040 RMK SC7SC1

CYHM;2011-01-21 00:00;CYHM 210000Z 20005KT 3SM -SHSN OVC016 M08/M11 A2984 RMK SC8 SLP120

CYHM;2011-01-21 01:00;CYHM 210100Z 21003KT 4SM -SN OVC018 M08/M11 A2980 RMK SC8 SLP108

CYHM;2011-01-21 02:00;CYHM 210200Z 00000KT 3SM -SN OVC018 M08/M11 A2977 RMK SC8 SLP098

CYHM;2011-01-21 03:00;CYHM 210300Z 00000KT 2 1/2SM -SN OVC017 M08/M11 A2974 RMK SC8 SLP087

CYHM;2011-01-21 03:48;CYHM 210348Z 00000KT 1 1/2SM -SN OVC017 RMK SN3SC5

CYHM;2011-01-21 04:00;CYHM 210400Z 17002KT 1 1/2SM -SN OVC017 M08/M10 A2972 RMK SN3SC5 SLP080

CYHM;2011-01-21 04:47;CYHM 210447Z 00000KT 2 1/2SM -SN BKN017 OVC030 RMK SC6SC2

CYHM;2011-01-21 05:00;CYHM 210500Z 00000KT 2SM -SN BKN017 OVC030 M08/M10 A2969 RMK SN2SC5SC2 SLP070

CYHM;2011-01-21 06:00;CYHM 210600Z 00000KT 3SM -SN BKN017 OVC030 M08/M10 A2967 RMK SC6SC2 SLP061

CYHM;2011-01-21 06:42;CYHM 210642Z 20002KT 2SM -SN BKN016 OVC032 RMK SN2SC5SC2

CYHM;2011-01-21 08:00;CYHM 210800Z 18004KT 4SM -SN BKN018 OVC032 M08/M10 A2965 RMK SC6SC2 SLP053

CYHM;2011-01-21 09:00;CYHM 210900Z 19009KT 4SM -SN BKN018 OVC032 M08/M10 A2963 RMK SC6SC2 SLP048

CYHM;2011-01-21 10:00;CYHM 211000Z 21006KT 6SM -SN FEW018 BKN028 BKN064 M08/M10 A2961 RMK SC2SC3SC2 SLP042

CYHM;2011-01-21 11:00;CYHM 211100Z 25012KT 10SM -SN FEW012 BKN061 BKN093 M08/M09 A2962 RMK CF2SC4AC2 SLP043

CYHM;2011-01-21 12:00;CYHM 211200Z 25014KT 10SM SCT041 BKN051 BKN078 M08/M11 A2963 RMK SC4SC2AC1 SLP047

CYHM;2011-01-21 12:18;CYHM 211218Z 26014KT 15SM FEW040 SCT070 RMK SC2AC1

CYHM;2011-01-21 13:00;CYHM 211300Z 26015KT 15SM FEW018 FEW024 M10/M13 A2965 RMK SC1SC2 SLP053

CYHM;2011-01-21 13:25;CYHM 211325Z 25016KT 2 1/2SM -SN DRSN BKN011 OVC024 RMK SF6SC2

CYHM;2011-01-21 13:36;CYHM 211336Z 25015KT 1SM -SN DRSN BKN007 OVC019 RMK SN2SF5SC2

CYHM;2011-01-21 13:38;CYHM 211338Z 25015KT 1SM -SN DRSN BKN007 OVC019 RMK SN2SF5SC2

CYHM;2011-01-21 14:00;CYHM 211400Z 26015KT 2SM -SN DRSN FEW008 BKN019 BKN025 M10/M12 A2966 RMK SN1SF2SC3SC2 SLP058

CYHM;2011-01-21 14:12;CYHM 211412Z 25014KT 3SM -SN DRSN FEW015 BKN025 RMK SC2SC4

CYHM;2011-01-21 16:00;CYHM 211600Z 26020G26KT 2 1/2SM -SN DRSN SCT014 BKN029 M09/M12 A2971 RMK SC4SC3 SLP077

CYHM;2011-01-21 16:51;CYHM 211651Z 29018G23KT 10SM DRSN FEW022 SCT038 RMK CU2SC2

CYHM;2011-01-21 17:00;CYHM 211700Z 28017G22KT 15SM FEW025 SCT036 M09/M13 A2974 RMK CU2SC2 SLP084

CYHM;2011-01-21 18:00;CYHM 211800Z 26022G28KT 15SM FEW025 FEW042 M09/M15 A2975 RMK CU1SC1 SLP089

CYHM;2011-01-21 19:00;CYHM 211900Z 28020G32KT 15SM DRSN FEW030 SCT042 M09/M15 A2977 RMK CU1SC2 SLP097

CYHM;2011-01-21 20:00;CYHM 212000Z 27017G26KT 15SM -SHSN DRSN FEW020 BKN046 M10/M15 A2981 RMK CU2SC3 SLP108

CYHM;2011-01-21 20:25;CYHM 212025Z CCA 28018G25KT 1SM -SHSN BLSN FEW010 BKN024 RMK BLSN2CF1SC3 VIS VRB 3/4 - 11/4

CYHM;2011-01-21 20:34;CYHM 212034Z 26018G27KT 3SM -SHSN BLSN FEW009 BKN027 RMK CF2SC3 VIS VRB 2 - 4

CYHM;2011-01-21 21:00;CYHM 212100Z 26018G23KT 5SM -SHSN BLSN BKN028 M10/M15 A2983 RMK CU6 SLP117

CYHM;2011-01-21 22:00;CYHM 212200Z 26017KT 15SM DRSN FEW027 M11/M16 A2986 RMK CU2 SLP126

CYHM;2011-01-21 23:00;CYHM 212300Z 26017KT 15SM DRSN FEW025 FEW210 M12/M17 A2988 RMK CU1CI1 TR CU SLP135

CYHM;2011-01-22 00:00;CYHM 220000Z 25015KT 15SM DRSN FEW210 M13/M17 A2990 RMK CI1 SLP143

CYHM;2011-01-22 01:00;CYHM 220100Z 25015KT 15SM DRSN FEW030 FEW210 M13/M17 A2991 RMK SC1CI1 TR SC SLP145

CYHM;2011-01-22 02:00;CYHM 220200Z 25016G21KT 15SM DRSN FEW030 FEW210 M13/M17 A2991 RMK SC1CI1 TR SC SLP146

CYHM;2011-01-22 03:00;CYHM 220300Z 25016KT 15SM DRSN FEW210 M14/M17 A2991 RMK CI1 SLP147

CYHM;2011-01-22 04:00;CYHM 220400Z 25013KT 15SM DRSN FEW210 M14/M17 A2992 RMK CI1 SLP150

CYHM;2011-01-22 05:00;CYHM 220500Z 25010KT 15SM DRSN FEW025 FEW210 M14/M17 A2992 RMK SC1CI1 TR SC SLP150

CYHM;2011-01-22 06:00;CYHM 220600Z 25007KT 15SM FEW020 FEW210 M15/M18 A2991 RMK SC2CI1 SLP148

CYHM;2011-01-22 07:00;CYHM 220700Z 25007KT 15SM FEW210 M15/M19 A2991 RMK CI1 SLP147

CYHM;2011-01-22 08:00;CYHM 220800Z 25007KT 15SM FEW220 M16/M19 A2991 RMK CI1 SLP146

CYHM;2011-01-22 09:00;CYHM 220900Z 25005KT 15SM BKN035 M16/M19 A2991 RMK SC6 SLP145

CYHM;2011-01-22 10:00;CYHM 221000Z 23006KT 15SM BKN035 M15/M19 A2991 RMK SC5 SLP146

CYHM;2011-01-22 11:00;CYHM 221100Z 24005KT 15SM FEW035 BKN150 M16/M19 A2991 RMK SC1AC6 SLP145

CYHM;2011-01-22 12:00;CYHM 221200Z 21005KT 15SM FEW035 BKN140 M15/M19 A2991 RMK SC1AC6 SLP148

CYHM;2011-01-22 13:00;CYHM 221300Z 21005KT 15SM FEW035 BKN140 M15/M19 A2992 RMK SC1AC6 SLP150

CYHM;2011-01-22 14:00;CYHM 221400Z 24005KT 15SM BKN030 OVC140 M14/M17 A2991 RMK SC6AC2 SLP148

CYHM;2011-01-22 15:00;CYHM 221500Z 23007KT 15SM SCT032 OVC130 M13/M17 A2991 RMK SC3AC5 SLP149

CYHM;2011-01-22 16:00;CYHM 221600Z 23007KT 15SM FEW032 BKN140 M12/M17 A2991 RMK SC1AC3 SLP146

CYHM;2011-01-22 17:00;CYHM 221700Z 23010KT 15SM FEW032 SCT070 SCT140 BKN240 M11/M17 A2988 RMK SC1AC2AC1CI2 SLP137

CYHM;2011-01-22 18:00;CYHM 221800Z 22011KT 15SM FEW040 SCT070 BKN130 OVC240 M10/M15 A2984 RMK SC2AC2AC2CI2 SLP123

CYHM;2011-01-22 18:22;CYHM 221822Z 20014KT 4SM -SHSN BKN028 OVC070 RMK SC6AC2

CYHM;2011-01-22 19:00;CYHM 221900Z 20010KT 4SM -SHSN BKN027 OVC070 M11/M15 A2982 RMK SC7AC1 SLP117

CYHM;2011-01-22 19:27;CYHM 221927Z 20011KT 2SM -SN BKN015 OVC030 RMK SN1SC5SC2

CYHM;2011-01-22 19:33;CYHM 221933Z 19010KT 1 3/4SM -SN BKN014 OVC030 RMK SN2SC5SC2

CYHM;2011-01-22 20:00;CYHM 222000Z 20011KT 2 1/4SM -SN BKN015 OVC025 M10/M14 A2981 RMK SN1SC5SC2 VIS VRB 11/2-3 SLP112

CYHM;2011-01-22 20:50;CYHM 222050Z 20014KT 1 3/4SM -SN DRSN VV014 RMK SN8 VIS VRB 11/4-21/4

CYHM;2011-01-22 21:00;CYHM 222100Z 20016KT 1 3/4SM -SN BLSN VV014 M11/M14 A2980 RMK SN8 VIS VRB 11/4-21/4 SLP111

CYHM;2011-01-22 21:48;CYHM 222148Z 21014KT 1 3/4SM -SN DRSN VV015 RMK SN8 VIS VRB 11/4-21/4

CYHM;2011-01-22 22:00;CYHM 222200Z 21013KT 1 3/4SM -SN DRSN VV015 M11/M14 A2980 RMK SN8 VIS VRB 11/4-21/4 SLP111

CYHM;2011-01-22 22:07;CYHM 222207Z 21013KT 1 1/2SM -SN DRSN VV013 RMK SN8 VIS VRB 1-2

CYHM;2011-01-22 22:37;CYHM 222237Z 21011KT 1 3/4SM -SN VV015 RMK SN8 VIS VRB 11/4-21/4

CYHM;2011-01-22 23:00;CYHM 222300Z 22010KT 1 3/4SM -SN VV015 M11/M14 A2980 RMK SN8 /S01/ VIS VRB 11/4-21/4 SLP111

CYHM;2011-01-23 00:00;CYHM 230000Z 22007KT 1 3/4SM -SN VV015 M11/M14 A2981 RMK SN8 VIS VRB 11/4-21/4 SLP111

CYHM;2011-01-23 00:18;CYHM 230018Z 21007KT 2 1/2SM -SN BKN016 OVC030 RMK SN1SC5SC2 VIS VRB 13/4-4

CYHM;2011-01-23 01:00;CYHM 230100Z 22008KT 1 1/2SM -SN VV010 M10/M13 A2980 RMK SN8 VIS VRB 1-2 SLP109

CYHM;2011-01-23 01:21;CYHM 230121Z 23008KT 1 1/4SM -SN VV008 RMK SN8 VIS VRB 3/4-13/4

CYHM;2011-01-23 01:44;CYHM 230144Z 23008KT 1 1/2SM -SN VV011 RMK SN8 VIS VRB 1-2

CYHM;2011-01-23 02:00;CYHM 230200Z 24011KT 1 1/4SM -SN VV011 M10/M12 A2980 RMK SN8 VIS VRB 3/4-13/4 SLP109

CYHM;2011-01-23 02:44;CYHM 230244Z 24009KT 2 1/2SM -SN BKN015 OVC030 RMK SN1SC6SC2

CYHM;2011-01-23 03:00;CYHM 230300Z 25008KT 4SM -SN BKN016 BKN030 OVC067 M11/M13 A2981 RMK SC5SC1AC2 SLP112

CYHM;2011-01-23 04:00;CYHM 230400Z 27011KT 6SM -SN BKN037 M12/M14 A2981 RMK SC6 SLP114

CYHM;2011-01-23 05:00;CYHM 230500Z 26008KT 12SM -SN FEW020 BKN076 M12/M14 A2982 RMK SC1AC4 SLP117

CYHM;2011-01-23 06:00;CYHM 230600Z 25007KT 15SM FEW050 FEW210 M13/M16 A2984 RMK SC2CI1 /S01/ SLP122

CYHM;2011-01-23 07:00;CYHM 230700Z 26006KT 10SM -SHSN BKN044 M13/M15 A2987 RMK SC7 SLP132

CYHM;2011-01-23 08:00;CYHM 230800Z 32005KT 3SM -SHSN OVC031 M13/M15 A2991 RMK SC8 VIS VRB 2 - 4 SLP144

CYHM;2011-01-23 09:00;CYHM 230900Z 31004KT 7SM -SHSN BKN026 M13/M15 A2994 RMK SC7 SLP156

CYHM;2011-01-23 10:00;CYHM 231000Z 35007KT 9SM -SHSN FEW025 SCT210 M14/M16 A2998 RMK SC1CI1 SLP169

CYHM;2011-01-23 11:00;CYHM 231100Z 31007KT 10SM FEW025 FEW210 M17/M19 A3002 RMK SC1CI1 PRESRR SLP182

CYHM;2011-01-23 12:00;CYHM 231200Z 31007KT 15SM FEW025 M17/M19 A3007 RMK SC1 SLP201

CYHM;2011-01-23 13:00;CYHM 231300Z 32006KT 15SM FEW025 M18/M20 A3011 RMK SC1 SLP215

CYHM;2011-01-23 14:00;CYHM 231400Z 34010KT 15SM FEW025 M17/M20 A3014 RMK SC1 SLP227

CYHM;2011-01-23 15:00;CYHM 231500Z 34008KT 15SM FEW030 M17/M23 A3018 RMK SC1 SLP240

CYHM;2011-01-23 16:00;CYHM 231600Z 34006KT 15SM FEW030 M16/M23 A3021 RMK SC1 SLP250

CYHM;2011-01-23 17:00;CYHM 231700Z 35006KT 15SM FEW030 M16/M24 A3021 RMK SC1 SLP250

CYHM;2011-01-23 18:00;CYHM 231800Z 32006KT 15SM FEW030 M15/M24 A3021 RMK SC1 SLP251

CYHM;2011-01-23 19:00;CYHM 231900Z 30006KT 15SM FEW030 M15/M25 A3023 RMK SC1 SLP255

CYHM;2011-01-23 20:00;CYHM 232000Z 27006KT 240V300 15SM FEW035 M15/M25 A3024 RMK SC1 SC TR SLP259

CYHM;2011-01-23 21:00;CYHM 232100Z 25006KT 15SM FEW035 M15/M24 A3026 RMK SC1 SC TR SLP267

CYHM;2011-01-23 22:00;CYHM 232200Z 26005KT 15SM FEW035 M16/M25 A3028 RMK SC1 SC TR SLP273

CYHM;2011-01-23 23:00;CYHM 232300Z 28003KT 15SM FEW035 FEW150 M17/M28 A3030 RMK SC1AC1 SC TR AC TR SLP279

CYHM;2011-01-24 00:00;CYHM 240000Z 32003KT 15SM SKC M19/M30 A3031 RMK SLP286

CYHM;2011-01-24 01:00;CYHM 240100Z 30003KT 15SM FEW040 M19/M30 A3031 RMK SC1 SC TR SLP287

CYHM;2011-01-24 02:00;CYHM 240200Z 25002KT 15SM FEW040 BKN140 M21/M35 A3032 RMK SC1AC6 SC TR SLP291

CYHM;2011-01-24 03:00;CYHM 240300Z 00000KT 15SM FEW040 BKN140 M20/M33 A3033 RMK SC1AC6 SC TR SLP295

CYHM;2011-01-24 04:00;CYHM 240400Z 00000KT 15SM OVC140 M19/M30 A3034 RMK AC8 SLP298

CYHM;2011-01-24 05:00;CYHM 240500Z 02005KT 15SM BKN140 M18/M27 A3034 RMK AC6 SLP298

CYHM;2011-01-24 06:00;CYHM 240600Z 03003KT 15SM SCT130 M19/M28 A3034 RMK AC3 SLP297

CYHM;2011-01-24 07:00;CYHM 240700Z 04004KT 15SM BKN140 M20/M30 A3033 RMK AC5 SLP295

CYHM;2011-01-24 08:00;CYHM 240800Z 04003KT 15SM FEW150 SCT200 M20/M29 A3033 RMK AC2CI1 SLP295

CYHM;2011-01-24 09:00;CYHM 240900Z 04005KT 12SM FEW150 FEW220 M21/M29 A3033 RMK AC1CI1 SLP292

CYHM;2011-01-24 10:00;CYHM 241000Z 06003KT 8SM FEW130 FEW210 M21/M29 A3031 RMK AC1CI2 SLP288

CYHM;2011-01-24 11:00;CYHM 241100Z 00000KT 9SM FEW200 M21/M31 A3032 RMK CI2 SLP291

CYHM;2011-01-24 12:00;CYHM 241200Z 06005KT 10SM FEW210 M22/M30 A3032 RMK CI2 SLP292

CYHM;2011-01-24 13:00;CYHM 241300Z 10005KT 15SM FEW110 BKN220 M20/M27 A3031 RMK AC2CI2 SLP290

CYHM;2011-01-24 14:00;CYHM 241400Z 11006KT 15SM FEW030 SCT095 BKN120 BKN220 M19/M26 A3032 RMK SC1AC2AC2CI2 SLP291

CYHM;2011-01-24 15:00;CYHM 241500Z 13010KT 15SM FEW030 FEW100 SCT130 BKN210 M16/M24 A3031 RMK SC1AC2AC2CI2 SC TR SLP288

CYHM;2011-01-24 16:00;CYHM 241600Z 09010KT 15SM FEW025 FEW080 FEW140 BKN220 M14/M20 A3029 RMK CU1AC1AC1CI2 CU TR SLP281

CYHM;2011-01-24 17:00;CYHM 241700Z 10008KT 15SM FEW054 FEW120 BKN210 M13/M20 A3026 RMK SC1AC2CI2 SLP271

CYHM;2011-01-24 18:00;CYHM 241800Z 10006KT 15SM FEW038 BKN048 OVC110 M12/M20 A3022 RMK SC2SC5AS2 SLP255

CYHM;2011-01-24 19:00;CYHM 241900Z 11007KT 15SM SCT038 SCT084 BKN120 M12/M13 A3019 RMK SC3AC1AC3 SLP244

CYHM;2011-01-24 20:00;CYHM 242000Z 09005KT 15SM OVC036 M12/M17 A3017 RMK ST8 SLP238

CYHM;2011-01-24 20:12;CYHM 242012Z 09008KT 15SM -SHSN OVC038 RMK ST8

CYHM;2011-01-24 21:00;CYHM 242100Z 09008KT 15SM -SHSN FEW028 BKN054 OVC075 M11/M17 A3014 RMK SF1ST6AC2 SLP228

CYHM;2011-01-24 21:32;CYHM 242132Z 09005KT 2 1/2SM -SHSN BKN024 OVC054 RMK ST6ST2 VSBY VRBL 13/4-4SM

CYHM;2011-01-24 22:00;CYHM 242200Z 09005KT 2 1/2SM -SHSN OVC022 M11/M16 A3013 RMK SN2ST6 VSBY VRBL 13/4-4SM SLP223

CYHM;2011-01-24 23:00;CYHM 242300Z 07008KT 2 1/4SM -SHSN OVC024 M11/M15 A3010 RMK SN2SC6 VSBY VRBL 11/2-3SM SLP216

CYHM;2011-01-25 00:00;CYHM 250000Z 05006KT 2 1/2SM -SHSN BKN034 OVC064 M11/M14 A3010 RMK SN2SC4SC2 VSBY VRBL 13/4-4SM SLP215

CYHM;2011-01-25 01:00;CYHM 250100Z 06007KT 2SM -SN BKN034 OVC060 M10/M13 A3009 RMK SN2SC6SC1 SLP211

CYHM;2011-01-25 02:00;CYHM 250200Z 05007KT 5SM -SN BKN020 OVC034 M09/M11 A3007 RMK SC6SC2 SLP205

CYHM;2011-01-25 03:00;CYHM 250300Z 09004KT 5SM -SN BKN017 OVC030 M09/M11 A3005 RMK SC6SC2 SLP194

CYHM;2011-01-25 04:00;CYHM 250400Z 14004KT 5SM -SN OVC013 OVC038 M09/M11 A3003 RMK SC6SC2 SLP189

CYHM;2011-01-25 04:43;CYHM 250443Z 20004KT 6SM -SN OVC007 RMK SC8

CYHM;2011-01-25 05:00;CYHM 250500Z 20004KT 6SM -SN OVC006 M08/M11 A3001 RMK SC8 SLP183

CYHM;2011-01-25 06:00;CYHM 250600Z 24004KT 6SM -SN OVC005 M08/M11 A3000 RMK SF8 SLP175

CYHM;2011-01-25 07:00;CYHM 250700Z 23007KT 2 1/2SM -SHSN OVC003 M07/M10 A3000 RMK SF8 SLP174

CYHM;2011-01-25 08:00;CYHM 250800Z 23008KT 1 1/2SM -SHSN BR OVC002 M06/M07 A3000 RMK SF8 SLP175

CYHM;2011-01-25 09:00;CYHM 250900Z 24009KT 3SM BR FEW002 SCT006 OVC016 M04/M06 A3000 RMK SF1SF2SC5 SLP173

CYHM;2011-01-25 10:00;CYHM 251000Z 22009KT 5SM HZ FEW008 OVC013 M03/M05 A2999 RMK SF1SC7 SLP170

CYHM;2011-01-25 11:00;CYHM 251100Z 22007KT 5SM HZ FEW007 OVC010 M02/M05 A2999 RMK SF1SC7 SLP170

CYHM;2011-01-25 12:00;CYHM 251200Z 21008KT 5SM HZ BKN006 OVC015 M02/M04 A3000 RMK SF6SC2 SLP174

CYHM;2011-01-25 12:22;CYHM 251222Z 24008KT 2SM BR BKN003 OVC010 RMK FG1SF6SC1

CYHM;2011-01-25 13:00;CYHM 251300Z 24007KT 1 1/2SM -SN BR BKN006 OVC025 M02/M04 A3001 RMK FG1SF5SC2 SLP178

CYHM;2011-01-25 13:21;CYHM 251321Z 24008KT 2 1/2SM -SN BR BKN004 BKN012 OVC028 RMK SF6SC2SC1

CYHM;2011-01-25 14:00;CYHM 251400Z 24008KT 4SM -SN BR BKN008 BKN012 OVC029 M02/M03 A3002 RMK SF5SC2SC2 SLP180

CYHM;2011-01-25 15:00;CYHM 251500Z 26008KT 4SM -SN BR BKN010 OVC021 M01/M02 A3003 RMK SC6SC2 SLP183

CYHM;2011-01-25 16:00;CYHM 251600Z 25006KT 4SM -SN BR BKN015 OVC020 M01/M03 A3005 RMK SC6SC2 SLP188

CYHM;2011-01-25 17:00;CYHM 251700Z 25010KT 5SM -SN BR BKN014 OVC019 M01/M03 A3005 RMK SC6SC2 SLP188

CYHM;2011-01-25 18:00;CYHM 251800Z 27007KT 6SM -SN OVC013 M02/M04 A3004 RMK SC8 SLP187

CYHM;2011-01-25 19:00;CYHM 251900Z 25010KT 7SM -SN OVC017 M02/M04 A3004 RMK SC8 PCPC VRY LGT SLP184

CYHM;2011-01-25 20:00;CYHM 252000Z 23007KT 7SM OVC023 M02/M05 A3003 RMK SC8 SLP183

CYHM;2011-01-25 21:00;CYHM 252100Z 24006KT 12SM OVC021 M02/M05 A3004 RMK SC8 SLP183

CYHM;2011-01-25 21:42;CYHM 252142Z 24006KT 12SM -SHSN OVC021 RMK SC8

CYHM;2011-01-25 22:00;CYHM 252200Z 24006KT 12SM -SHSN OVC020 M02/M05 A3005 RMK SC8 SLP187

CYHM;2011-01-25 23:00;CYHM 252300Z 25007KT 2 1/2SM -SHSN OVC021 M02/M06 A3005 RMK SC8 VSBY VRBL 13/4-4SM SLP187

CYHM;2011-01-26 00:00;CYHM 260000Z 22006KT 15SM -SHSN OVC019 M02/M06 A3005 RMK SC8 SLP186

CYHM;2011-01-26 01:00;CYHM 260100Z 22005KT 15SM OVC021 M02/M06 A3006 RMK SC8 SLP189

CYHM;2011-01-26 02:00;CYHM 260200Z 21005KT 15SM OVC021 M03/M06 A3006 RMK SC8 SLP191

CYHM;2011-01-26 03:00;CYHM 260300Z 22004KT 15SM OVC021 M03/M06 A3006 RMK SC8 SLP190

CYHM;2011-01-26 04:00;CYHM 260400Z 22004KT 15SM OVC021 M03/M06 A3005 RMK SC8 SLP187

CYHM;2011-01-26 05:00;CYHM 260500Z 22004KT 15SM OVC018 M03/M06 A3003 RMK SC8 SLP181

CYHM;2011-01-26 06:00;CYHM 260600Z 25007KT 15SM OVC018 M03/M06 A3002 RMK SC8 SLP176

CYHM;2011-01-26 07:00;CYHM 260700Z 24004KT 15SM OVC021 M03/M06 A3001 RMK SC8 SLP174

CYHM;2011-01-26 08:00;CYHM 260800Z 00000KT 15SM OVC018 M03/M05 A3001 RMK SC8 SLP173

CYHM;2011-01-26 09:00;CYHM 260900Z 00000KT 15SM OVC018 M03/M05 A2999 RMK SC8 SLP167

CYHM;2011-01-26 10:00;CYHM 261000Z 16004KT 15SM OVC019 M03/M06 A2998 RMK SC8 SLP163

CYHM;2011-01-26 11:00;CYHM 261100Z 00000KT 15SM OVC021 M04/M06 A2997 RMK SC8 SLP162

CYHM;2011-01-26 12:00;CYHM 261200Z 00000KT 15SM OVC019 M04/M06 A2996 RMK SC8 SLP158

CYHM;2011-01-26 13:00;CYHM 261300Z 00000KT 8SM OVC019 M04/M05 A2995 RMK SC8 SLP154

CYHM;2011-01-26 14:00;CYHM 261400Z 00000KT 8SM OVC019 M03/M05 A2994 RMK SC8 SLP151

CYHM;2011-01-26 15:00;CYHM 261500Z 00000KT 7SM OVC020 M03/M05 A2993 RMK SC8 SLP147

CYHM;2011-01-26 16:00;CYHM 261600Z 00000KT 8SM OVC025 M02/M04 A2993 RMK SC8 SLP148

CYHM;2011-01-26 17:00;CYHM 261700Z 34006KT 8SM OVC025 M03/M06 A2990 RMK SC8 SLP136

CYHM;2011-01-26 18:00;CYHM 261800Z 01007KT 8SM OVC028 M02/M06 A2987 RMK SC8 SLP125

CYHM;2011-01-26 19:00;CYHM 261900Z 03004KT 6SM HZ FEW018 OVC030 M02/M06 A2985 RMK SF1SC7 SLP119

CYHM;2011-01-26 20:00;CYHM 262000Z 32007KT 6SM HZ OVC025 M02/M07 A2984 RMK SC8 SLP117

CYHM;2011-01-26 21:00;CYHM 262100Z 35008KT 5SM HZ OVC028 M02/M06 A2984 RMK SC8 SLP117

CYHM;2011-01-26 22:00;CYHM 262200Z 02004KT 6SM HZ OVC030 M02/M06 A2986 RMK SC8 SLP122

CYHM;2011-01-26 23:00;CYHM 262300Z 00000KT 12SM OVC030 M02/M06 A2986 RMK SC8 SLP123

CYHM;2011-01-27 00:00;CYHM 270000Z 31002KT 15SM OVC028 M03/M07 A2987 RMK SC8 SLP126

CYHM;2011-01-27 01:00;CYHM 270100Z 26004KT 15SM OVC031 M03/M07 A2986 RMK SC8 SLP124

CYHM;2011-01-27 02:00;CYHM 270200Z 24004KT 10SM OVC030 M03/M07 A2985 RMK SC8 SLP119

CYHM;2011-01-27 03:00;CYHM 270300Z 27004KT 8SM OVC034 M03/M07 A2984 RMK SC8 SLP118

CYHM;2011-01-27 03:06;CYHM 270306Z 28004KT 7SM -SHSN OVC030 RMK SC8

CYHM;2011-01-27 04:00;CYHM 270400Z 25004KT 6SM -SHSN OVC036 M03/M07 A2983 RMK SC8 SLP114

CYHM;2011-01-27 05:00;CYHM 270500Z 27005KT 6SM -SHSN FEW010 OVC050 M03/M07 A2984 RMK CF1SC7 SLP117

CYHM;2011-01-27 06:00;CYHM 270600Z 25005KT 5SM -SHSN FEW010 OVC051 M03/M06 A2984 RMK CF1SC7 SLP116

CYHM;2011-01-27 07:00;CYHM 270700Z 26005KT 4SM -SHSN OVC051 M03/M06 A2984 RMK SC8 SLP116

CYHM;2011-01-27 08:00;CYHM 270800Z 26005KT 4SM -SHSN OVC052 M03/M05 A2984 RMK SC8 SLP118

CYHM;2011-01-27 09:00;CYHM 270900Z 27008KT 7SM -SHSN BKN050 M04/M05 A2984 RMK SC5 HZ SLP115

CYHM;2011-01-27 10:00;CYHM 271000Z 27007KT 9SM -SHSN OVC063 M03/M06 A2984 RMK SC8 SLP116

CYHM;2011-01-27 11:00;CYHM 271100Z 28007KT 12SM -SHSN BKN063 M04/M06 A2984 RMK SC7 PCPN VRY LGT SLP118

CYHM;2011-01-27 12:00;CYHM 271200Z 26005KT 10SM -SHSN OVC062 M04/M06 A2986 RMK SC8 SLP123

CYHM;2011-01-27 13:00;CYHM 271300Z 27002KT 7SM -SHSN FEW045 BKN061 M04/M06 A2986 RMK SC2SC6 SLP124

CYHM;2011-01-27 14:00;CYHM 271400Z 25007KT 8SM -SHSN OVC055 M03/M06 A2986 RMK SC8 SLP124

CYHM;2011-01-27 14:11;CYHM 271411Z 26006KT 8SM OVC055 RMK SC8

CYHM;2011-01-27 14:15;CYHM 271415Z 24005KT 7SM -SHSN OVC055 RMK SC8

CYHM;2011-01-27 15:00;CYHM 271500Z 27006KT 6SM -SHSN BR BKN041 OVC056 M03/M05 A2986 RMK SC6SC2 SLP123

CYHM;2011-01-27 16:00;CYHM 271600Z CCA 24005KT 8SM -SHSN OVC057 M02/M04 A2985 RMK SC8 SLP121

CYHM;2011-01-27 17:00;CYHM 271700Z 24008KT 8SM -SHSN SCT016 BKN027 OVC058 M02/M05 A2983 RMK SC3SC4SC1 SLP112

CYHM;2011-01-27 18:00;CYHM 271800Z 24010KT 7SM -SHSN BKN027 OVC053 M02/M06 A2981 RMK SC6SC2 SLP105

CYHM;2011-01-27 18:47;CYHM 271847Z 25010KT 8SM FEW022 SCT032 OVC054 RMK CU2SC2SC4

CYHM;2011-01-27 19:00;CYHM 271900Z 24015KT 8SM SCT034 OVC051 M02/M07 A2979 RMK SC3SC5 CU ASOCTD SLP099

CYHM;2011-01-27 20:00;CYHM 272000Z 24011KT 12SM FEW028 BKN057 M02/M07 A2978 RMK SC2SC5 SLP095

CYHM;2011-01-27 21:00;CYHM 272100Z 24006KT 12SM FEW028 BKN056 M02/M06 A2978 RMK SC2SC6 SLP095

CYHM;2011-01-27 21:26;CYHM 272126Z 22012KT 12SM -SHSN BKN025 OVC056 RMK SC6SC2

CYHM;2011-01-27 22:00;CYHM 272200Z 23010KT 10SM -SHSN FEW027 BKN054 M03/M08 A2978 RMK SC2SC6 SLP096

CYHM;2011-01-27 22:44;CYHM 272244Z 23008KT 1 1/2SM -SHSN BKN028 OVC054 RMK SN3SC3SC2

CYHM;2011-01-27 23:00;CYHM 272300Z 23008KT 1SM -SHSN OVC022 M04/M07 A2979 RMK SN6SC2 SLP098

CYHM;2011-01-27 23:18;CYHM 272318Z 22010KT 7SM -SHSN SCT028 BKN041 OVC057 RMK SC3SC3SC2

CYHM;2011-01-28 00:00;CYHM 280000Z 23007KT 6SM -SHSN BKN028 OVC057 M04/M06 A2979 RMK SC6SC2 SLP101

CYHM;2011-01-28 01:00;CYHM 280100Z 23006KT 2SM -SHSN OVC032 M04/M07 A2978 RMK SN2SC6 SLP098

CYHM;2011-01-28 01:24;CYHM 280124Z 21005KT 5SM -SHSN BKN032 OVC088 RMK SC5AC3

CYHM;2011-01-28 02:00;CYHM 280200Z 20006KT 8SM -SHSN FEW032 BKN085 M05/M08 A2977 RMK SC2AC6 SLP094

CYHM;2011-01-28 03:00;CYHM 280300Z 21006KT 8SM -SHSN BKN084 M06/M09 A2976 RMK AC4 SLP091

CYHM;2011-01-28 03:30;CYHM 280330Z 22005KT 5SM -SHSN FEW008 BKN052 OVC084 RMK CF2SC4AC2

CYHM;2011-01-28 04:00;CYHM 280400Z 20005KT 8SM -SHSN FEW010 BKN049 OVC084 M06/M09 A2976 RMK CF1SC6AC2 SLP089

CYHM;2011-01-28 05:00;CYHM 280500Z 21005KT 8SM -SHSN BKN018 OVC046 M05/M08 A2975 RMK SC6SC2 SLP086

CYHM;2011-01-28 05:46;CYHM 280546Z 20004KT 7SM -SHSN OVC014 RMK SC8

CYHM;2011-01-28 06:00;CYHM 280600Z 21004KT 7SM -SHSN OVC012 M05/M08 A2974 RMK SC8 SLP082

CYHM;2011-01-28 06:25;CYHM 280625Z 23004KT 7SM -SHSN OVC008 RMK SC8

CYHM;2011-01-28 07:00;CYHM 280700Z 23003KT 7SM -SHSN OVC007 M05/M07 A2973 RMK SC8 SLP079

CYHM;2011-01-28 08:00;CYHM 280800Z 25002KT 6SM -SHSN OVC011 M05/M07 A2972 RMK SC8 SLP077

CYHM;2011-01-28 09:00;CYHM 280900Z 25002KT 6SM -SHSN OVC015 M05/M07 A2971 RMK SC8 SLP071

CYHM;2011-01-28 10:00;CYHM 281000Z 23004KT 8SM -SHSN OVC016 M05/M07 A2970 RMK SC8 SLP068

CYHM;2011-01-28 11:00;CYHM 281100Z 24004KT 8SM -SHSN SCT024 OVC060 M05/M07 A2970 RMK SC3SC5 SLP069

CYHM;2011-01-28 12:00;CYHM 281200Z 26002KT 7SM -SHSN OVC059 M06/M07 A2971 RMK SC8 SLP073

CYHM;2011-01-28 13:00;CYHM 281300Z 25004KT 3SM -SHSN BR OVC062 M06/M08 A2973 RMK SC8 SLP079

CYHM;2011-01-28 14:00;CYHM 281400Z 25005KT 3SM -SHSN BR OVC061 M06/M08 A2974 RMK SC8 SLP083

CYHM;2011-01-28 15:00;CYHM 281500Z 27005KT 3SM -SHSN BR OVC060 M05/M07 A2975 RMK SC8 SLP086

CYHM;2011-01-28 16:00;CYHM 281600Z 25005KT 3SM -SHSN BR OVC063 M05/M07 A2976 RMK SC8 SLP090

CYHM;2011-01-28 17:00;CYHM 281700Z 26005KT 4SM -SHSN OVC063 M04/M06 A2974 RMK SC8 PCPN VRY LGT SLP085

CYHM;2011-01-28 18:00;CYHM 281800Z 27006KT 4SM -SHSN OVC061 M04/M06 A2973 RMK SC8 PCPN VRY LGT SLP080

CYHM;2011-01-28 19:00;CYHM 281900Z 25010KT 5SM -SHSN BKN015 OVC021 M03/M06 A2973 RMK SC6SC2 SLP079

CYHM;2011-01-28 20:00;CYHM 282000Z 25010KT 4SM -SN OVC018 M03/M05 A2975 RMK SC8 SLP085

CYHM;2011-01-28 21:00;CYHM 282100Z 24010KT 4SM -SN OVC020 M03/M06 A2976 RMK SC8 SLP089

CYHM;2011-01-28 22:00;CYHM 282200Z 26009KT 4SM -SN BKN023 M03/M06 A2978 RMK SC7 SLP097

CYHM;2011-01-28 23:00;CYHM 282300Z 25010KT 6SM -SN OVC016 M03/M06 A2980 RMK SC8 SLP103

CYHM;2011-01-29 00:00;CYHM 290000Z 26009KT 8SM -SN FEW017 SCT038 OVC064 M03/M06 A2982 RMK CF2SC2SC4 SLP111

CYHM;2011-01-29 01:00;CYHM 290100Z 26005KT 15SM BKN059 M04/M06 A2983 RMK SC7 SLP115

CYHM;2011-01-29 02:00;CYHM 290200Z 27007KT 15SM -SHSN OVC056 M04/M07 A2984 RMK SC8 SLP117

CYHM;2011-01-29 03:00;CYHM 290300Z 26008KT 15SM -SHSN OVC053 M04/M08 A2983 RMK SC8 SLP115

CYHM;2011-01-29 04:00;CYHM 290400Z 26005KT 15SM -SHSN FEW016 OVC050 M05/M08 A2984 RMK CF2SC6 SLP117

CYHM;2011-01-29 05:00;CYHM 290500Z 26004KT 15SM -SHSN FEW015 OVC048 M05/M08 A2985 RMK CF2SC6 SLP120

CYHM;2011-01-29 06:00;CYHM 290600Z 25006KT 15SM -SHSN FEW015 OVC046 M05/M09 A2985 RMK CF1SC7 SLP122

CYHM;2011-01-29 07:00;CYHM 290700Z 26007KT 15SM BKN044 M06/M08 A2986 RMK SC7 SLP124

CYHM;2011-01-29 08:00;CYHM 290800Z 26004KT 15SM FEW042 BKN180 M07/M09 A2987 RMK SC2AC3 SLP126

CYHM;2011-01-29 09:00;CYHM 290900Z 22004KT 15SM FEW040 BKN150 M07/M10 A2985 RMK SC1AC6 SLP120

CYHM;2011-01-29 10:00;CYHM 291000Z 23002KT 15SM BKN042 OVC140 M08/M10 A2985 RMK SC6AC2 SLP122

CYHM;2011-01-29 11:00;CYHM 291100Z 00000KT 15SM OVC035 M07/M09 A2984 RMK SC8 SLP119

CYHM;2011-01-29 12:00;CYHM 291200Z 00000KT 15SM FEW032 OVC090 M07/M09 A2984 RMK SC2AC6 SLP118

CYHM;2011-01-29 12:25;CYHM 291225Z 00000KT 4SM -SHSN FEW017 BKN040 OVC090 RMK SC2SC3AC2

CYHM;2011-01-29 13:00;CYHM 291300Z 00000KT 1 1/2SM -SHSN OVC023 M07/M09 A2985 RMK SN3SC5 SLP122

CYHM;2011-01-29 13:17;CYHM 291317Z 03002KT 1 1/4SM -SHSN OVC020 RMK SN6SC2

CYHM;2011-01-29 14:00;CYHM 291400Z 07004KT 1 1/4SM -SHSN OVC021 M07/M09 A2985 RMK SN6SC2 SLP120

CYHM;2011-01-29 15:00;CYHM 291500Z 05008KT 1 1/4SM -SHSN BKN008 OVC021 M06/M08 A2984 RMK SN6SC2SC1 SLP118

CYHM;2011-01-29 16:00;CYHM 291600Z 04008KT 1 1/4SM -SHSN OVC009 M06/M08 A2985 RMK SN6SC2 SLP121

CYHM;2011-01-29 16:41;CYHM 291641Z 04010KT 1 1/2SM -SHSN OVC008 RMK SN4SC4

CYHM;2011-01-29 18:00;CYHM 291800Z 04011KT 2SM -SHSN BKN006 OVC024 M06/M08 A2982 RMK SN2SC3SC2 /S02/ SLP113

CYHM;2011-01-29 19:00;CYHM 291900Z 05012KT 2 1/2SM -SHSN BKN008 OVC020 M06/M08 A2981 RMK SN1SC5SC2 SLP110

CYHM;2011-01-29 20:00;CYHM 292000Z 04012KT 3SM -SHSN BKN009 OVC016 M05/M07 A2984 RMK SC6SC2 SLP117

CYHM;2011-01-29 22:00;CYHM 292200Z 04008KT 12SM FEW008 OVC012 M05/M08 A2990 RMK SC2SC6 SLP137

CYHM;2011-01-29 23:00;CYHM 292300Z 04007KT 15SM OVC012 M05/M08 A2993 RMK SC8 SLP147

CYHM;2011-01-29 23:26;CYHM 292326Z 03005KT 15SM SCT012 BKN016 OVC052 RMK SC4SC2SC2

CYHM;2011-01-30 00:00;CYHM 300000Z 35003KT 15SM FEW012 SCT016 BKN052 OVC068 M06/M08 A2996 RMK SC2SC2SC2AC2 SLP160

CYHM;2011-01-30 01:00;CYHM 300100Z 33003KT 15SM FEW015 FEW068 M08/M10 A2998 RMK SC2AC1 SLP165

CYHM;2011-01-30 02:00;CYHM 300200Z 31003KT 15SM FEW016 BKN047 M09/M11 A2999 RMK SC2SC6 SLP170

CYHM;2011-01-30 02:47;CYHM 300247Z 00000KT 15SM -SHSN FEW020 OVC044 RMK SC2SC6

CYHM;2011-01-30 03:00;CYHM 300300Z 00000KT 15SM -SHSN FEW020 OVC044 M08/M10 A3000 RMK SC2SC6 SLP173

CYHM;2011-01-30 04:00;CYHM 300400Z 00000KT 15SM -SHSN FEW018 OVC041 M08/M10 A3001 RMK CF1SC7 SLP175

CYHM;2011-01-30 05:00;CYHM 300500Z 24003KT 15SM -SHSN FEW020 OVC038 M09/M11 A3001 RMK CF2SC6 SLP177

CYHM;2011-01-30 06:00;CYHM 300600Z 28008KT 12SM -SHSN BKN022 OVC037 M08/M11 A3001 RMK SC6SC2 SLP176

CYHM;2011-01-30 07:00;CYHM 300700Z 28002KT 10SM OVC026 M08/M10 A3002 RMK SC8 SLP179

CYHM;2011-01-30 08:00;CYHM 300800Z 27007KT 12SM -SHSN OVC024 M08/M10 A3003 RMK SC8 SLP182

CYHM;2011-01-30 09:00;CYHM 300900Z 26009KT 10SM SCT025 OVC140 M08/M11 A3003 RMK SC3AC5 SLP183

CYHM;2011-01-30 10:00;CYHM 301000Z 28006KT 12SM FEW025 OVC065 M09/M12 A3005 RMK SC2SC6 SLP189

CYHM;2011-01-30 11:00;CYHM 301100Z 29006KT 15SM OVC067 M09/M12 A3007 RMK AC8 SLP195

CYHM;2011-01-30 12:00;CYHM 301200Z 28006KT 15SM OVC066 M10/M12 A3009 RMK AC8 SLP203

CYHM;2011-01-30 13:00;CYHM 301300Z 25005KT 15SM BKN073 M10/M12 A3011 RMK AC6 SLP212

CYHM;2011-01-30 14:00;CYHM 301400Z 25006KT 15SM FEW073 SCT120 M10/M12 A3013 RMK AC2AC2 SLP217

CYHM;2011-01-30 15:00;CYHM 301500Z 27006KT 15SM FEW042 FEW140 M09/M11 A3015 RMK SC1AC1 SLP225

CYHM;2011-01-30 16:00;CYHM 301600Z 30004KT 15SM FEW021 FEW055 SCT140 M07/M10 A3017 RMK CU1SC1AC2 SLP231

CYHM;2011-01-30 17:00;CYHM 301700Z 26006KT 15SM FEW024 FEW210 M06/M08 A3017 RMK CU1CI1 SLP231

CYHM;2011-01-30 18:00;CYHM 301800Z 24008KT 15SM FEW025 FEW120 FEW210 M05/M09 A3016 RMK CU1AC1CI1 CI TR SLP229

CYHM;2011-01-30 19:00;CYHM 301900Z 27008KT 230V310 15SM SCT024 M05/M09 A3017 RMK SC4 CU ASOCTD SLP231

CYHM;2011-01-30 20:00;CYHM 302000Z 27007KT 240V300 15SM FEW024 SCT034 M05/M10 A3018 RMK SC2SC2 SLP235

CYHM;2011-01-30 21:00;CYHM 302100Z 29007KT 250V320 15SM FEW024 FEW035 SCT250 M05/M10 A3020 RMK CU1SC2CI1 CONTRAILS SLP240

CYHM;2011-01-30 22:00;CYHM 302200Z 29008KT 15SM FEW024 FEW035 SCT250 M07/M12 A3023 RMK CU1SC1CI1 CONTRAILS SLP253

CYHM;2011-01-30 23:00;CYHM 302300Z 30011KT 15SM FEW025 FEW040 FEW250 M08/M13 A3026 RMK CU1SC1CI1 CU TR SLP261

CYHM;2011-01-31 00:00;CYHM 310000Z 30010KT 15SM FEW025 M10/M15 A3030 RMK SC1 SC TR SLP278

CYHM;2011-01-31 01:00;CYHM 310100Z 31008KT 15SM FEW025 M11/M16 A3033 RMK SC1 SC TR SLP287

CYHM;2011-01-31 03:00;CYHM 310300Z 31004KT 15SM FEW025 M13/M17 A3037 RMK SC1 SC TR SLP303

CYHM;2011-01-31 04:00;CYHM 310400Z 34006KT 15SM FEW210 M14/M19 A3038 RMK CI1 SLP306

CYHM;2011-01-31 05:00;CYHM 310500Z 32004KT 15SM FEW210 M15/M18 A3039 RMK CI1 SLP311

CYHM;2011-01-31 06:00;CYHM 310600Z 33007KT 15SM FEW210 M16/M19 A3042 RMK CI1 SLP319

CYHM;2011-01-31 08:00;CYHM 310800Z 36005KT 15SM FEW210 M17/M20 A3046 RMK CI1 SLP332

CYHM;2011-01-31 09:00;CYHM 310900Z 02007KT 15SM FEW210 M17/M20 A3046 RMK CI1 SLP331

CYHM;2011-01-31 10:00;CYHM 311000Z 01007KT 15SM FEW030 FEW200 M17/M20 A3048 RMK SC1CI1 TR SC SLP338

CYHM;2011-01-31 11:00;CYHM 311100Z 02007KT 15SM FEW030 FEW220 M17/M21 A3049 RMK SC1CI2 SLP341

CYHM;2011-01-31 12:00;CYHM 311200Z 01008KT 15SM FEW045 FEW210 M17/M21 A3049 RMK SC1CI1 SLP347

CYHM;2011-01-31 13:00;CYHM 311300Z 02007KT 15SM FEW030 FEW120 SCT210 M18/M22 A3051 RMK SC1AC1CI1 SC TR SLP351

CYHM;2011-01-31 14:00;CYHM 311400Z 02006KT 15SM FEW180 SCT210 M16/M20 A3052 RMK AC1CI2 SLP355

CYHM;2011-01-31 15:00;CYHM 311500Z 04012KT 7SM DRSN FEW015 SCT160 BKN210 M14/M18 A3052 RMK SC2AC1CI1 CINTRAIL SLP356

CYHM;2011-01-31 16:00;CYHM 311600Z 06009KT 7SM DRSN FEW007 FEW011 SCT210 M14/M18 A3052 RMK SF1SC2CI1 SLP355

CYHM;2011-01-31 16:41;CYHM 311641Z 03010KT 5SM -SHSN DRSN FEW008 SCT017 BKN210 RMK SF2SC2CI1

CYHM;2011-01-31 17:00;CYHM 311700Z 04010KT 4SM -SHSN DRSN FEW007 FEW013 SCT210 M13/M16 A3049 RMK SF1SC2CI1 SLP345

CYHM;2011-01-31 17:33;CYHM 311733Z 03010KT 3SM -SHSN DRSN BKN018 OVC210 RMK SC6CI1

CYHM;2011-01-31 17:39;CYHM 311739Z 04009KT 2 1/2SM -SHSN DRSN OVC018 RMK SC8

CYHM;2011-01-31 18:00;CYHM 311800Z 03011KT 2SM -SHSN DRSN OVC019 M12/M16 A3048 RMK SC8 SLP341

CYHM;2011-01-31 18:06;CYHM 311806Z 03010KT 1 1/2SM -SHSN DRSN OVC017 RMK SN2SC6

CYHM;2011-01-31 18:35;CYHM 311835Z 03012KT 1SM -SHSN DRSN BKN007 OVC018 RMK SN2SF5SC2 VISB VRB 3/4-11/4SM

CYHM;2011-01-31 19:00;CYHM 311900Z 04011KT 1SM -SN OVC016 M11/M14 A3046 RMK SN2SC6 VSBY VRBL 3/4-11/4SM SLP334

CYHM;2011-01-31 20:00;CYHM 312000Z 04012KT 1 1/4SM -SN OVC017 M11/M13 A3042 RMK SN2SC6 VSBY VRBL 3/4-13/4SM SLP323

CYHM;2011-01-31 21:00;CYHM 312100Z 03013KT 1 3/4SM -SN SCT012 OVC018 M10/M13 A3041 RMK SN2SF2SC4 VSBY VRBL 11/4-21/4SM SLP317

CYHM;2011-01-31 22:00;CYHM 312200Z 04014KT 2 1/2SM -SN SCT009 OVC012 M10/M12 A3039 RMK SN2SF2SC4 VSBY VRBL 13/4-4SM SLP313

CYHM;2011-01-31 23:00;CYHM 312300Z 04012KT 6SM -SN FEW012 BKN018 OVC110 M10/M12 A3039 RMK SF2SC6AC1 SLP310

CYHM;2011-02-01 00:00;CYHM 010000Z 02016KT 5SM -SN DRSN SCT009 OVC020 M10/M12 A3038 RMK SF3SC5 SLP309

CYHM;2011-02-01 01:00;CYHM 010100Z 04016KT 2 1/4SM -SN DRSN OVC009 M11/M13 A3035 RMK SN2SC6 VSBY VRBL 11/2-3SM SLP298

CYHM;2011-02-01 01:00;CYHM 010100Z 04016KT 2 1/4SM -SN DRSN OVC009 M11/M13 A3035 RMK SN2SC6 VSBY VRBL 11/2-3SM SLP298

CYHM;2011-02-01 02:00;CYHM 010200Z 02012KT 5SM -SN DRSN OVC013 M11/M13 A3035 RMK SC8 SLP299

CYHM;2011-02-01 02:00;CYHM 010200Z 02012KT 5SM -SN DRSN OVC013 M11/M13 A3035 RMK SC8 SLP299

CYHM;2011-02-01 02:47;CYHM 010247Z 03015KT 2 1/4SM -SN DRSN OVC009 RMK SN2SC6 VSBY VRBL 11/2-3SM

CYHM;2011-02-01 02:47;CYHM 010247Z 03015KT 2 1/4SM -SN DRSN OVC009 RMK SN2SC6 VSBY VRBL 11/2-3SM

CYHM;2011-02-01 03:00;CYHM 010300Z 03015KT 2 1/4SM -SN DRSN OVC009 M11/M14 A3032 RMK SN2SC6 VSBY VRBL 11/2-3SM SLP286

CYHM;2011-02-01 03:00;CYHM 010300Z 03015KT 2 1/4SM -SN DRSN OVC009 M11/M14 A3032 RMK SN2SC6 VSBY VRBL 11/2-3SM SLP286

CYHM;2011-02-01 03:29;CYHM 010329Z 03014KT 5SM -SN DRSN OVC009 RMK SC8

CYHM;2011-02-01 03:29;CYHM 010329Z 03014KT 5SM -SN DRSN OVC009 RMK SC8

CYHM;2011-02-01 04:00;CYHM 010400Z 03015KT 8SM -SN DRSN OVC009 M11/M14 A3030 RMK SC8 SLP278

CYHM;2011-02-01 04:00;CYHM 010400Z 03015KT 8SM -SN DRSN OVC009 M11/M14 A3030 RMK SC8 SLP278

CYHM;2011-02-01 04:26;CYHM 010426Z 03012KT 12SM -SHSN DRSN FEW009 OVC014 RMK SF2SC6

CYHM;2011-02-01 04:26;CYHM 010426Z 03012KT 12SM -SHSN DRSN FEW009 OVC014 RMK SF2SC6

CYHM;2011-02-01 05:00;CYHM 010500Z 02017KT 15SM -SHSN DRSN BKN016 BKN100 OVC220 M11/M15 A3029 RMK SC6AC2CI1 SLP276

CYHM;2011-02-01 06:00;CYHM 010600Z 02015KT 15SM -SHSN DRSN BKN017 OVC100 M11/M14 A3026 RMK SC6AC2 SLP267

CYHM;2011-02-01 07:00;CYHM 010700Z 03014KT 15SM -SHSN DRSN BKN016 OVC082 M10/M14 A3025 RMK SC6AC2 SLP261

CYHM;2011-02-01 08:00;CYHM 010800Z 04015G21KT 12SM -SHSN DRSN OVC011 M11/M15 A3021 RMK SC8 SLP250

CYHM;2011-02-01 09:00;CYHM 010900Z 03015KT 12SM -SHSN DRSN OVC012 M11/M15 A3023 RMK SC8 SLP254

CYHM;2011-02-01 10:00;CYHM 011000Z 03016KT 2 1/2SM -SHSN DRSN OVC014 M11/M16 A3023 RMK SC8 VSBY VRBL 13/4-4SM SLP255

CYHM;2011-02-01 11:00;CYHM 011100Z 03017KT 2 1/4SM -SHSN DRSN OVC017 M11/M16 A3023 RMK SC8 VSBY VRBL 11/2-3SM SLP256

CYHM;2011-02-01 12:00;CYHM 011200Z 03016KT 4SM -SHSN DRSN OVC014 M11/M15 A3023 RMK SC8 SLP253

CYHM;2011-02-01 13:00;CYHM 011300Z 03019KT 3SM -SHSN DRSN OVC014 M10/M15 A3021 RMK SC8 SLP248

CYHM;2011-02-01 13:42;CYHM 011342Z 02015G20KT 5SM -SHSN DRSN OVC016 RMK SC8

CYHM;2011-02-01 14:00;CYHM 011400Z 02017KT 4SM -SHSN DRSN OVC017 M11/M16 A3025 RMK SC8 SLP260

CYHM;2011-02-01 15:00;CYHM 011500Z 03015KT 2 1/2SM -SHSN DRSN OVC016 M10/M15 A3025 RMK SC8 SLP260

CYHM;2011-02-01 15:14;CYHM 011514Z 03019KT 1 1/2SM -SHSN DRSN OVC017 RMK SN2SC6

CYHM;2011-02-01 16:00;CYHM 011600Z 02016KT 2 1/2SM -SHSN DRSN OVC013 M10/M13 A3023 RMK SN1SC7 SLP256

CYHM;2011-02-01 16:37;CYHM 011637Z 03020KT 1 1/4SM -SHSN DRSN OVC009 RMK SN3SC5

CYHM;2011-02-01 17:00;CYHM 011700Z 03018KT 1 1/2SM -SHSN DRSN OVC009 M09/M12 A3025 RMK SN2SC6 SLP260

CYHM;2011-02-01 17:22;CYHM 011722Z 02019KT 1 1/4SM -SHSN DRSN OVC010 RMK SN3SC5

CYHM;2011-02-01 18:00;CYHM 011800Z 03020KT 1 1/4SM -SHSN BLSN OVC012 M09/M12 A3021 RMK SN3SC5 SLP248

CYHM;2011-02-01 19:00;CYHM 011900Z 03015G22KT 1 1/4SM -SN BLSN OVC010 M08/M11 A3017 RMK SN2SC6 VSBY VRBL 3/4-13/4SM SLP235

CYHM;2011-02-01 20:00;CYHM 012000Z 03015G21KT 1 3/4SM -SN BLSN OVC011 M08/M11 A3021 RMK SN2SC6 VSBY VRBL 11/4-21/4SM SLP248

CYHM;2011-02-01 21:00;CYHM 012100Z 03015G21KT 1 1/4SM -SN BLSN OVC013 M08/M11 A3022 RMK SN2SC6 VSBY VRBL 3/4-13/4SM SLP250

CYHM;2011-02-01 22:00;CYHM 012200Z 03015G21KT 1 3/4SM -SN BLSN OVC014 M08/M11 A3024 RMK SN2SC6 VSBY VRBL 11/4-21/4SM SLP257

CYHM;2011-02-01 23:00;CYHM 012300Z 03016KT 2 1/2SM -SN BLSN OVC010 M08/M11 A3022 RMK SN2SC6 VSBY VRBL 13/4-4SM SLP251

CYHM;2011-02-02 00:00;CYHM 020000Z 05016G24KT 4SM -SN BLSN OVC009 M07/M10 A3019 RMK SC8 SLP239

CYHM;2011-02-02 01:00;CYHM 020100Z 06026G36KT 4SM -SN BLSN OVC009 M06/M09 A3014 RMK SC8 SLP224

CYHM;2011-02-02 02:00;CYHM 020200Z 06024G34KT 4SM -SN BLSN OVC009 M06/M09 A3012 RMK SC8 SLP217

CYHM;2011-02-02 02:47;CYHM 020247Z 05026G35KT 5/8SM -SN BLSN OVC012 RMK SN4SC4 VSBY VRBL 1/4-1SM

CYHM;2011-02-02 03:00;CYHM 020300Z 05025G35KT 1/2SM SN BLSN OVC012 M06/M09 A3008 RMK SN4SC4 VSBY VRBL 3/8-5/8SM SLP201

CYHM;2011-02-02 04:00;CYHM 020400Z 07025G32KT 1/2SM SN BLSN OVC012 M06/M08 A3006 RMK SN5SC3 VSBY VRBL 3/8-5/8SM SLP195

CYHM;2011-02-02 05:00;CYHM 020500Z 06025G32KT 1/2SM SN BLSN OVC012 M06/M08 A3000 RMK SN5SC3 VSBY VRBL 3/8-5/8SM SLP174

CYHM;2011-02-02 06:00;CYHM 020600Z 06026G36KT 1/2SM SN BLSN OVC012 M06/M08 A2990 RMK SN5SC3 VSBY VRBL 3/8-5/8SM SLP140

CYHM;2011-02-02 07:00;CYHM 020700Z 06025G32KT 1/4SM SN +BLSN OVC010 M06/M08 A2980 RMK SN5SC3 SLP108

CYHM;2011-02-02 08:00;CYHM 020800Z 06028G38KT 1/4SM SN +BLSN OVC010 M06/M08 A2975 RMK SN4SC4 SLP089

CYHM;2011-02-02 09:00;CYHM 020900Z 06026G36KT 1/4SM SN +BLSN OVC012 M06/M08 A2965 RMK SN5SC3 SLP053

CYHM;2011-02-02 10:00;CYHM 021000Z 06025G38KT 1/4SM SN +BLSN OVC010 M06/M07 A2963 RMK SN5SC3 SLP047

CYHM;2011-02-02 11:00;CYHM 021100Z 06022G32KT 1/4SM SN +BLSN OVC012 M06/M08 A2961 RMK SN5SC3 SLP042

CYHM;2011-02-02 12:00;CYHM 021200Z 03025G38KT 1/4SM SN +BLSN OVC014 M09/M11 A2961 RMK SN6SC2 SLP042

CYHM;2011-02-02 13:00;CYHM 021300Z 03020G25KT 1/4SM SN +BLSN BKN008 OVC014 M09/M11 A2962 RMK SN4SF2SC2 SLP045

CYHM;2011-02-02 13:35;CYHM 021335Z 05022G28KT 1/8SM SN +BLSN BKN007 OVC014 RMK SN5SF2SC1 VISB VRB

CYHM;2011-02-02 14:00;CYHM 021400Z 07030G40KT 1/8SM SN +BLSN BKN005 OVC013 M09/M11 A2956 RMK SN6SF2SC1 SLP026

CYHM;2011-02-02 14:42;CYHM 021442Z 02015G36KT 3/4SM -SN BLSN BKN007 OVC013 RMK SN5SF2SC1

CYHM;2011-02-02 15:00;CYHM 021500Z 03020G25KT 1/2SM -SN BLSN BKN006 OVC012 M08/M10 A2961 RMK SN3SF3SC2 SLP041

CYHM;2011-02-02 15:25;CYHM 021525Z 03018G23KT 2SM -SN BLSN OVC007 RMK SN1SF7

CYHM;2011-02-02 16:00;CYHM 021600Z 03008KT 2 1/2SM -SN BR OVC009 M09/M11 A2968 RMK SF8 SLP062

CYHM;2011-02-02 16:15;CYHM 021615Z 03012KT 2SM -SN BLSN BR OVC010 RMK SN1SF7

CYHM;2011-02-02 17:00;CYHM 021700Z 04008KT 1 1/2SM -SN BR SCT009 OVC013 M09/M11 A2969 RMK FG1SF3SC4 SLP067

CYHM;2011-02-02 18:00;CYHM 021800Z 04008KT 2SM -SN BR BKN014 OVC025 M09/M11 A2971 RMK SC6SC2 SLP074

CYHM;2011-02-02 18:13;CYHM 021813Z 03008KT 1 1/2SM -SN BR BKN008 OVC022 RMK SN2SF4SC2

CYHM;2011-02-02 18:49;CYHM 021849Z 36014KT 5/8SM -SN DRSN BKN007 OVC021 RMK SN2SF4SC2

CYHM;2011-02-02 19:00;CYHM 021900Z 01012KT 1/2SM SN DRSN BKN007 OVC019 M09/M12 A2975 RMK SN2SF4SC2 SLP089

CYHM;2011-02-02 19:32;CYHM 021932Z 02009KT 3/4SM -SN VV009 RMK SN8 VIS VRB 1/2-1

CYHM;2011-02-02 20:00;CYHM 022000Z 02009KT 5/8SM -SN VV009 M09/M11 A2976 RMK SN8 /S02/ SLP093

CYHM;2011-02-02 20:42;CYHM 022042Z 01009KT 1SM -SN BKN010 OVC025 RMK SN3SC3SC2

CYHM;2011-02-02 21:00;CYHM 022100Z 36009KT 1 1/2SM -SN BKN012 OVC026 M09/M12 A2982 RMK SN2SC4SC2 /S03/ SLP112

CYHM;2011-02-02 21:29;CYHM 022129Z 01008KT 1SM -SN VV009 RMK SN8 VIS VRB 3/4-11/4

CYHM;2011-02-02 22:00;CYHM 022200Z 35010KT 5/8SM -SN VV009 M09/M12 A2988 RMK SN8 PRESRR SLP132

CYHM;2011-02-02 22:12;CYHM 022212Z 35010KT 1 1/4SM -SN VV012 RMK SN8 VIS VRB 3/4-13/4

CYHM;2011-02-02 22:30;CYHM 022230Z 35007KT 1 1/2SM -SN BKN014 OVC042 RMK SN2SC4SC2 VIS VRB 1-2

CYHM;2011-02-02 22:51;CYHM 022251Z 34005KT 3SM -SN BKN015 OVC043 RMK SC5SC3

CYHM;2011-02-02 23:00;CYHM 022300Z 33004KT 4SM -SN SCT015 OVC042 M10/M12 A2995 RMK SC3SC5 PRESRR SLP156

CYHM;2011-02-03 00:00;CYHM 030000Z 29004KT 9SM -SN FEW014 BKN042 OVC082 M10/M11 A3001 RMK SC1SC4AC3 /S04/ PRESRR SLP180

CYHM;2011-02-03 00:48;CYHM 030048Z 29004KT 12SM SCT040 BKN081 RMK SC3AC3

CYHM;2011-02-03 01:00;CYHM 030100Z 28004KT 12SM -SN SCT035 BKN081 M10/M12 A3007 RMK SC4AC2 PCPN VRY LGT SLP197

CYHM;2011-02-03 01:52;CYHM 030152Z 29006KT 15SM FEW020 SCT035 RMK SC2SC2

CYHM;2011-02-03 02:00;CYHM 030200Z 29008KT 15SM FEW018 BKN033 M11/M14 A3010 RMK SC2SC3 SLP209

CYHM;2011-02-03 03:00;CYHM 030300Z 27005KT 12SM -SN OVC024 M10/M12 A3015 RMK SC8 SLP225

CYHM;2011-02-03 04:00;CYHM 030400Z 28004KT 15SM FEW027 FEW210 M12/M14 A3017 RMK SC1CI1 TR SC SLP234

CYHM;2011-02-03 05:00;CYHM 030500Z 26008KT 15SM FEW025 FEW210 M12/M15 A3021 RMK SC1CI1 TR SC SLP245

CYHM;2011-02-03 06:00;CYHM 030600Z 25005KT 15SM FEW025 FEW220 M13/M15 A3022 RMK SC1CI1 TR SC SLP252

CYHM;2011-02-03 07:00;CYHM 030700Z 26004KT 15SM FEW025 FEW220 M15/M16 A3026 RMK SC1CI1 TR SC SLP263

CYHM;2011-02-03 08:00;CYHM 030800Z 25004KT 15SM FEW210 M15/M17 A3027 RMK CI1 SLP268

CYHM;2011-02-03 09:00;CYHM 030900Z 25006KT 15SM FEW210 M17/M20 A3029 RMK CI1 SLP277

CYHM;2011-02-03 10:00;CYHM 031000Z 24006KT 15SM FEW210 M17/M19 A3030 RMK CI1 SLP281

CYHM;2011-02-03 11:00;CYHM 031100Z 24007KT 15SM FEW023 FEW210 M17/M19 A3031 RMK SC1CI1 SLP283

CYHM;2011-02-03 12:00;CYHM 031200Z 25006KT 15SM FEW025 M18/M20 A3031 RMK SC1 SC TR SLP284

CYHM;2011-02-03 13:00;CYHM 031300Z 24006KT 15SM FEW220 M18/M20 A3033 RMK CI1 CI TR SLP290

CYHM;2011-02-03 14:00;CYHM 031400Z 23006KT 15SM FEW220 M17/M19 A3033 RMK CI1 CI TR SLP291

CYHM;2011-02-03 15:00;CYHM 031500Z 25007KT 15SM SKC M12/M14 A3034 RMK SLP293

CYHM;2011-02-03 16:00;CYHM 031600Z 25012KT 15SM SKC M09/M12 A3036 RMK SLP297

CYHM;2011-02-03 17:00;CYHM 031700Z 25015G20KT 15SM FEW040 M08/M12 A3034 RMK SC1 SC TR SLP293

CYHM;2011-02-03 18:00;CYHM 031800Z 25020G25KT 15SM FEW025 M06/M12 A3032 RMK CU1 SLP285

CYHM;2011-02-03 19:00;CYHM 031900Z 25017G22KT 15SM FEW028 M05/M10 A3031 RMK CU2 SLP281

CYHM;2011-02-03 20:00;CYHM 032000Z 24015G20KT 15SM FEW028 M05/M11 A3029 RMK CU1 SLP275

CYHM;2011-02-03 21:00;CYHM 032100Z 23019KT 15SM FEW028 M05/M11 A3028 RMK CU1 SLP273

CYHM;2011-02-03 22:00;CYHM 032200Z 22018KT 15SM FEW025 M06/M11 A3026 RMK SC1 SLP266

CYHM;2011-02-03 23:00;CYHM 032300Z 21015KT 15SM FEW025 M07/M12 A3025 RMK SC1 SLP261

CYHM;2011-02-04 00:00;CYHM 040000Z 21015KT 15SM FEW025 M08/M12 A3024 RMK SC1 SLP261

CYHM;2011-02-04 01:00;CYHM 040100Z 23017KT 15SM SKC M08/M12 A3024 RMK SLP260

CYHM;2011-02-04 02:00;CYHM 040200Z 22017KT 15SM SKC M07/M11 A3023 RMK SLP257

CYHM;2011-02-04 03:00;CYHM 040300Z 22020KT 15SM SKC M08/M13 A3021 RMK SLP247

CYHM;2011-02-04 04:00;CYHM 040400Z 22020KT 15SM FEW040 M08/M13 A3020 RMK SC1 SLP245

CYHM;2011-02-04 05:00;CYHM 040500Z 21020KT 15SM FEW040 M08/M13 A3020 RMK SC1 SLP242

CYHM;2011-02-04 06:00;CYHM 040600Z 21015KT 15SM FEW040 M09/M13 A3017 RMK SC1 SLP232

CYHM;2011-02-04 07:00;CYHM 040700Z 21015KT 15SM FEW040 M09/M13 A3015 RMK SC1 SLP224

CYHM;2011-02-04 08:00;CYHM 040800Z 21016KT 15SM FEW040 M09/M14 A3012 RMK SC1 SLP216

CYHM;2011-02-04 09:00;CYHM 040900Z 22018KT 15SM FEW040 M09/M14 A3010 RMK SC1 SLP209

CYHM;2011-02-04 10:00;CYHM 041000Z 22016KT 15SM FEW040 M09/M14 A3011 RMK SC1 SLP210

CYHM;2011-02-04 11:00;CYHM 041100Z 21011KT 15SM SKC M10/M15 A3011 RMK SLP210

CYHM;2011-02-04 12:00;CYHM 041200Z 23012KT 15SM FEW210 M10/M15 A3010 RMK CI1 CI TR SLP207

CYHM;2011-02-04 13:00;CYHM 041300Z 24010KT 15SM FEW061 SCT120 BKN210 M10/M14 A3011 RMK SC2AC1CI1 SLP212

CYHM;2011-02-04 14:00;CYHM 041400Z 24012KT 15SM BKN042 BKN056 BKN140 M08/M13 A3010 RMK SC5SC1AC1 SLP209

CYHM;2011-02-04 15:00;CYHM 041500Z 24014KT 15SM BKN036 M08/M16 A3010 RMK SC7 SLP207

CYHM;2011-02-04 16:00;CYHM 041600Z 24017KT 15SM BKN035 M07/M14 A3010 RMK SC7 SLP210

CYHM;2011-02-04 17:00;CYHM 041700Z 24014KT 15SM BKN033 M06/M13 A3010 RMK SC7 SLP207

CYHM;2011-02-04 18:00;CYHM 041800Z 23017KT 15SM BKN031 M06/M12 A3007 RMK SC7 SLP197

CYHM;2011-02-04 19:00;CYHM 041900Z 25013KT 15SM FEW038 M05/M12 A3004 RMK SC2 SLP189

CYHM;2011-02-04 20:00;CYHM 042000Z 23017KT 15SM FEW030 M05/M11 A3002 RMK SC1 SLP181

CYHM;2011-02-04 21:00;CYHM 042100Z 23018KT 15SM FEW030 M05/M11 A3001 RMK SC1 SLP176

CYHM;2011-02-04 22:00;CYHM 042200Z 23013KT 15SM SKC M05/M12 A2998 RMK SLP168

CYHM;2011-02-04 23:00;CYHM 042300Z 23014KT 15SM FEW070 M06/M13 A2997 RMK AC1 SLP165

CYHM;2011-02-05 00:00;CYHM 050000Z 23013KT 15SM SKC M06/M13 A2997 RMK SLP165

CYHM;2011-02-05 01:00;CYHM 050100Z 24017KT 15SM SKC M05/M14 A2995 RMK SLP157

CYHM;2011-02-05 02:00;CYHM 050200Z 23017KT 15SM FEW200 M06/M14 A2992 RMK CI1 SLP148

CYHM;2011-02-05 03:00;CYHM 050300Z 23016KT 15SM FEW150 M05/M13 A2990 RMK AC1 SLP139

CYHM;2011-02-05 04:00;CYHM 050400Z 23016KT 15SM FEW200 M05/M13 A2989 RMK CI1 SLP136

CYHM;2011-02-05 05:00;CYHM 050500Z 22015KT 15SM FEW200 M05/M13 A2987 RMK CI1 SLP128

CYHM;2011-02-05 06:00;CYHM 050600Z 22012KT 15SM FEW210 M07/M14 A2985 RMK CI1 SLP122

CYHM;2011-02-05 07:00;CYHM 050700Z 22012KT 15SM FEW210 M08/M15 A2984 RMK CI1 SLP119

CYHM;2011-02-05 08:00;CYHM 050800Z 22013KT 15SM SKC M08/M14 A2982 RMK SLP113

CYHM;2011-02-05 09:00;CYHM 050900Z 22013KT 15SM FEW210 M07/M13 A2981 RMK CI1 SLP109

CYHM;2011-02-05 10:00;CYHM 051000Z 21012KT 15SM FEW080 M08/M13 A2980 RMK AC1 SLP106

CYHM;2011-02-05 11:00;CYHM 051100Z 21007KT 15SM FEW080 M09/M14 A2980 RMK AC1 SLP104

CYHM;2011-02-05 12:00;CYHM 051200Z 18003KT 15SM FEW080 M08/M13 A2979 RMK AC1 SLP101

CYHM;2011-02-05 13:00;CYHM 051300Z 19004KT 15SM FEW080 FEW170 M09/M13 A2977 RMK AC1AC0 SLP094

CYHM;2011-02-05 14:00;CYHM 051400Z 18006KT 15SM FEW080 M07/M12 A2974 RMK AC2 SLP086

CYHM;2011-02-05 15:00;CYHM 051500Z 22002KT 15SM FEW080 BKN160 M06/M10 A2970 RMK AC1AC6 SLP070

CYHM;2011-02-05 16:00;CYHM 051600Z 20006KT 15SM BKN160 M03/M08 A2968 RMK AC7 SLP063

CYHM;2011-02-05 17:00;CYHM 051700Z 21005KT 15SM BKN100 BKN160 M02/M06 A2965 RMK AC6AC2 SLP054

CYHM;2011-02-05 18:00;CYHM 051800Z 16003KT 15SM FEW060 OVC110 M01/M06 A2959 RMK SC2AC6 SLP033

CYHM;2011-02-05 19:00;CYHM 051900Z 09004KT 15SM BKN042 OVC110 M01/M07 A2954 RMK SC6AC2 PRESFR SLP014

CYHM;2011-02-05 19:10;CYHM 051910Z 11005KT 4SM -SHSN BKN025 OVC042 RMK SC5SC3

CYHM;2011-02-05 19:14;CYHM 051914Z 10006KT 1 1/4SM -SN VV011 RMK SN8

CYHM;2011-02-05 19:19;CYHM 051919Z 10009KT 3/4SM -SN VV009 RMK SN8 VIS VRB 1/2-1

CYHM;2011-02-05 19:32;CYHM 051932Z 10008KT 1/2SM SN VV006 RMK SN8 VIS VRB 3/8-5/8

CYHM;2011-02-05 19:44;CYHM 051944Z 08005KT 3/4SM -SN VV008 RESN RMK SN8 VIS VRB 1/2-1

CYHM;2011-02-05 20:00;CYHM 052000Z 07005KT 2SM -SN BKN015 OVC034 M03/M07 A2950 RESN RMK SN2SC4SC2 VIS VRB 11/2-21/2 SLP003

CYHM;2011-02-05 20:42;CYHM 052042Z 04006KT 1SM -SN VV012 RMK SN8 VIS VRB 3/4-11/4

CYHM;2011-02-05 21:00;CYHM 052100Z 05006KT 3/4SM -SN VV009 M03/M05 A2947 RMK SN8 VIS VRB1/2-1 SLP991

CYHM;2011-02-05 21:11;CYHM 052111Z 05005KT 1 3/4SM -SN VV014 RMK SN8 VIS VRB 11/4-21/4

CYHM;2011-02-05 22:00;CYHM 052200Z 34010KT 2SM -SN BKN016 OVC035 M03/M05 A2947 RMK SN2SC4SC2 /S01/ VIS VRB 11/2-21/2 SLP992

CYHM;2011-02-05 22:26;CYHM 052226Z 34008KT 1 3/4SM -SN SCT007 BKN016 OVC040 RMK SN2CF2SC2SC2 VIS VRB 11/4-21/4

CYHM;2011-02-05 22:38;CYHM 052238Z 34007KT 1SM -SN FEW007 VV011 RMK CF1SN7 VIS VRB 3/4-11/4

CYHM;2011-02-05 23:00;CYHM 052300Z 33008KT 3/4SM -SN VV007 M03/M05 A2949 RMK SN8 VIS VRB 1/2-1 SLP998

CYHM;2011-02-06 00:00;CYHM 060000Z 33010KT 5/8SM -SN VV007 M04/M06 A2950 RMK SN8 /S03/ SLP003

CYHM;2011-02-06 01:00;CYHM 060100Z 30009KT 3/4SM -SN VV008 M04/M06 A2953 RMK SN8 /S01/ SLP013

CYHM;2011-02-06 02:00;CYHM 060200Z 29007KT 5/8SM -SN VV006 M05/M06 A2957 RMK SN8 /S02/ SLP024

CYHM;2011-02-06 02:32;CYHM 060232Z 28007KT 1 1/4SM -SN VV012 RMK SN8 VIS VRB 3/4-13/4

CYHM;2011-02-06 02:44;CYHM 060244Z 28007KT 1 3/4SM -SN VV016 RMK SN8 VIS VRB 11/4-21/4

CYHM;2011-02-06 03:00;CYHM 060300Z 25006KT 3SM -SN SCT022 OVC044 M05/M06 A2959 RMK SC3SC5 SLP033

CYHM;2011-02-06 04:00;CYHM 060400Z 27010KT 7SM -SN OVC048 M05/M07 A2963 RMK SC8 SLP046

CYHM;2011-02-06 05:00;CYHM 060500Z 26011KT 10SM -SN FEW022 OVC055 M05/M07 A2967 RMK SC2SC6 SLP060

CYHM;2011-02-06 06:00;CYHM 060600Z 26011KT 7SM -SN FEW024 OVC038 M05/M07 A2970 RMK SC2SC6 /S04/ SLP069

CYHM;2011-02-06 07:00;CYHM 060700Z 26012KT 7SM -SN OVC039 M05/M07 A2974 RMK SC8 SLP082

CYHM;2011-02-06 08:00;CYHM 060800Z 25013KT 9SM -SN DRSN OVC048 M05/M07 A2976 RMK SC8 SLP088

CYHM;2011-02-06 09:00;CYHM 060900Z 25013KT 8SM -SN DRSN OVC048 M05/M08 A2978 RMK SC8 SLP095

CYHM;2011-02-06 10:00;CYHM 061000Z 25012KT 10SM -SN DRSN OVC052 M04/M07 A2979 RMK SC8 SLP101

CYHM;2011-02-06 11:00;CYHM 061100Z 25012KT 10SM -SN DRSN OVC052 M04/M07 A2981 RMK SC8 SLP108

CYHM;2011-02-06 11:31;CYHM 061131Z 25011KT 10SM OVC051 RMK SC8

CYHM;2011-02-06 12:00;CYHM 061200Z 25011KT 10SM OVC051 M04/M07 A2984 RMK SC8 SLP118

CYHM;2011-02-06 13:00;CYHM 061300Z 24009KT 10SM BKN052 M04/M07 A2986 RMK SC7 SLP123

CYHM;2011-02-06 14:00;CYHM 061400Z 23012KT 9SM BKN052 M04/M07 A2987 RMK SC7 SLP126

CYHM;2011-02-06 15:00;CYHM 061500Z 23012KT 9SM SCT020 OVC052 M03/M06 A2989 RMK SC3SC5 SLP135

CYHM;2011-02-06 16:00;CYHM 061600Z 22014KT 9SM FEW009 BKN019 OVC051 M03/M05 A2991 RMK SC1SC5SC2 SLP142

CYHM;2011-02-06 17:00;CYHM 061700Z 23013KT 10SM FEW019 OVC048 M02/M05 A2993 RMK SC2SC6 SLP146

CYHM;2011-02-06 18:00;CYHM 061800Z 23013KT 10SM FEW019 OVC047 M01/M05 A2991 RMK SC2SC6 SLP141

CYHM;2011-02-06 19:00;CYHM 061900Z 23011KT 9SM FEW017 OVC035 M01/M05 A2991 RMK SC2SC6 SLP142

CYHM;2011-02-06 19:49;CYHM 061949Z 22011KT 8SM -SHSN FEW017 OVC028 RMK SC2SC6

CYHM;2011-02-06 20:00;CYHM 062000Z 23011KT 8SM -SHSN FEW017 OVC029 M02/M05 A2992 RMK SC2SC6 PCPN VRY LGT SLP145

CYHM;2011-02-06 20:53;CYHM 062053Z 22008KT 2SM -SHSN SCT015 OVC023 RMK SN2SC2SC4

CYHM;2011-02-06 21:00;CYHM 062100Z 22008KT 2 1/4SM -SHSN SCT015 OVC022 M02/M06 A2993 RMK SN2SC2SC4 VIS VRB 11/2-3 SLP146

CYHM;2011-02-06 22:00;CYHM 062200Z 22007KT 2 1/4SM -SHSN BKN014 OVC021 M02/M06 A2994 RMK SN2SC3SC3 VIS VRB 11/2-3 SLP151

CYHM;2011-02-06 22:47;CYHM 062247Z 21007KT 2 1/2SM -SHSN FEW008 BKN013 OVC020 RMK SN1SC2SC4SC2

CYHM;2011-02-06 23:00;CYHM 062300Z 21009KT 4SM -SHSN FEW008 BKN012 OVC020 M02/M05 A2994 RMK SC2SC4SC2 SLP151

CYHM;2011-02-07 00:00;CYHM 070000Z 21010KT 7SM -SHSN FEW008 BKN013 OVC021 M02/M04 A2995 RMK SC2SC4SC2 PCPN VRY LGT SLP154

CYHM;2011-02-07 01:00;CYHM 070100Z 21009KT 7SM -SHSN FEW008 BKN012 OVC022 M02/M04 A2995 RMK SC2SC5SC2 SLP154

CYHM;2011-02-07 01:32;CYHM 070132Z 22008KT 1 3/4SM -SN VV009 RMK SN8

CYHM;2011-02-07 01:38;CYHM 070138Z 22009KT 2 1/2SM -SN FEW009 BKN013 OVC022 RMK SN1SC1SC4SC2

CYHM;2011-02-07 02:00;CYHM 070200Z 22008KT 1 3/4SM -SN VV014 M02/M04 A2995 RMK SN8 VIS VRB 11/4-21/4 SLP154

CYHM;2011-02-07 02:07;CYHM 070207Z 22007KT 3SM -SN SCT014 BKN024 OVC040 RMK SC3SC3SC2

CYHM;2011-02-07 03:00;CYHM 070300Z 21006KT 5SM -SN FEW014 OVC022 M02/M04 A2994 RMK SC2SC6 SLP152

CYHM;2011-02-07 04:00;CYHM 070400Z 22007KT 7SM -SN FEW022 OVC029 M02/M04 A2994 RMK CF2SC6 SLP150

CYHM;2011-02-07 05:00;CYHM 070500Z 20006KT 7SM -SN FEW019 OVC025 M02/M04 A2992 RMK CF2SC6 SLP145

CYHM;2011-02-07 06:00;CYHM 070600Z 22007KT 6SM -SN OVC017 M02/M04 A2991 RMK SC8 SLP141

CYHM;2011-02-07 06:16;CYHM 070616Z 22009KT 6SM -SN OVC013 RMK SC8

CYHM;2011-02-07 07:00;CYHM 070700Z 22009KT 3SM -SN OVC007 M02/M04 A2991 RMK SF8 VIS VRB 2 - 4 SLP141

CYHM;2011-02-07 07:19;CYHM 070719Z 22009KT 2SM -SN OVC004 RMK SN1SF7

CYHM;2011-02-07 08:00;CYHM 070800Z 22009KT 1 1/2SM -SN OVC003 M02/M03 A2990 RMK SN2SF6 VIS VRB 1 - 2 SLP136

CYHM;2011-02-07 09:00;CYHM 070900Z 22007KT 1 1/2SM -SN OVC004 M01/M03 A2989 RMK SN2SF6 VIS VRB 1 - 2 SLP132

CYHM;2011-02-07 10:00;CYHM 071000Z 23006KT 1 1/2SM -SN OVC003 M01/M03 A2988 RMK SN2SF6 VIS VRB 1 - 2 SLP129

CYHM;2011-02-07 11:00;CYHM 071100Z 21004KT 1SM -SN OVC002 M01/M03 A2987 RMK SN2SF6 VIS VRB 3/4 - 11/4 SLP124

CYHM;2011-02-07 11:17;CYHM 071117Z 22004KT 1 1/2SM -SN BR OVC002 RMK FG1SF7 VIS VRBL 1-2SM

CYHM;2011-02-07 12:00;CYHM 071200Z 20006KT 1SM -SN BR OVC002 M01/M03 A2987 RMK FG2SF6 VIS VRBL 1-2SM SLP125

CYHM;2011-02-07 13:00;CYHM 071300Z 24005KT 1SM -SN BR OVC004 M01/M03 A2988 RMK FG1SF7 SLP128

CYHM;2011-02-07 14:00;CYHM 071400Z 20003KT 2SM -SN BR FEW006 BKN024 OVC032 M01/M03 A2987 RMK SF2SC4SC2 SLP124

CYHM;2011-02-07 14:38;CYHM 071438Z 24005KT 1 1/2SM -SN BR OVC003 RMK FG2SF6

CYHM;2011-02-07 15:00;CYHM 071500Z 25003KT 1 1/2SM -SN BR OVC002 M01/M02 A2985 RMK FG2SF6 SLP120

CYHM;2011-02-07 15:15;CYHM 071515Z 24003KT 2SM -SN BR BKN002 OVC017 RMK FG1SF6SC2

CYHM;2011-02-07 16:00;CYHM 071600Z 24003KT 2 1/2SM -SN BR BKN009 BKN015 OVC024 M01/M01 A2984 RMK SF5SC2SC1 PCPN VRY LGT SLP115

CYHM;2011-02-07 17:00;CYHM 071700Z 26005KT 4SM -SN BR BKN013 OVC017 M00/M02 A2983 RMK SC6SC2 SLP113

CYHM;2011-02-07 18:00;CYHM 071800Z 25007KT 4SM -SN OVC009 M00/M02 A2982 RMK SF8 PCPN VRY LGT SLP108

CYHM;2011-02-07 18:34;CYHM 071834Z 25006KT 4SM -SN FEW009 OVC018 RMK SF2SC6

CYHM;2011-02-07 19:00;CYHM 071900Z 27008KT 5SM -SN OVC016 00/M01 A2980 RMK SC8 SLP102

CYHM;2011-02-07 19:48;CYHM 071948Z 27008KT 2 1/2SM -SN SCT014 OVC022 RMK SF3SC5

CYHM;2011-02-07 20:00;CYHM 072000Z 27006KT 2 1/2SM -SN SCT014 BKN022 OVC065 00/M01 A2979 RMK SF3SC4SC1 SLP097

CYHM;2011-02-07 21:00;CYHM 072100Z 28003KT 2 1/2SM -SN FEW014 OVC025 M00/M01 A2977 RMK SF2SC6 SLP091

CYHM;2011-02-07 22:00;CYHM 072200Z 29003KT 2SM -SN OVC017 M00/M02 A2978 RMK SC8 SLP094

CYHM;2011-02-07 23:00;CYHM 072300Z 01012KT 4SM -SN BKN008 OVC024 M03/M05 A2980 RMK SF5SC3 SLP100

CYHM;2011-02-08 00:00;CYHM 080000Z 02012KT 5SM -SN FEW008 OVC018 M04/M07 A2980 RMK SF2SC6 SLP103

CYHM;2011-02-08 01:00;CYHM 080100Z 01010KT 8SM -SN BKN022 OVC028 M05/M08 A2981 RMK SC6SC2 SLP107

CYHM;2011-02-08 02:00;CYHM 080200Z 36010KT 7SM -SN SCT026 OVC042 M05/M09 A2981 RMK SC3SC5 SLP107

CYHM;2011-02-08 03:00;CYHM 080300Z 33012KT 8SM -SN FEW012 OVC044 M06/M10 A2982 RMK SF1SC7 SLP109

CYHM;2011-02-08 04:00;CYHM 080400Z 01010KT 8SM -SN FEW042 OVC061 M07/M12 A2981 RMK SC2SC6 SLP107

CYHM;2011-02-08 05:00;CYHM 080500Z 34010KT 15SM -SHSN BKN062 BKN140 M08/M13 A2981 RMK SC5AC2 SLP105

CYHM;2011-02-08 06:00;CYHM 080600Z 31010KT 15SM -SHSN FEW062 BKN100 BKN140 M08/M13 A2981 RMK SC1AC4AC2 SLP105

CYHM;2011-02-08 07:00;CYHM 080700Z 30008KT 15SM -SHSN FEW084 BKN110 M09/M13 A2981 RMK AC2AC5 SLP107

CYHM;2011-02-08 08:00;CYHM 080800Z 29007KT 15SM FEW120 SCT170 M11/M15 A2983 RMK AC1AC2 SLP114

CYHM;2011-02-08 09:00;CYHM 080900Z 29006KT 15SM SCT140 M12/M16 A2984 RMK AC1 SLP120

CYHM;2011-02-08 10:00;CYHM 081000Z 30006KT 15SM BKN086 M12/M16 A2986 RMK AC7 SLP124

CYHM;2011-02-08 11:00;CYHM 081100Z 29005KT 15SM FEW084 BKN110 M13/M17 A2989 RMK AC2AC5 SLP136

CYHM;2011-02-08 12:00;CYHM 081200Z 32012KT 15SM FEW045 BKN094 BKN120 M13/M18 A2991 RMK SC1AC5AC2 SLP144

CYHM;2011-02-08 13:00;CYHM 081300Z 32012KT 15SM BKN042 BKN055 M13/M18 A2994 RMK SC5SC2 SLP153

CYHM;2011-02-08 14:00;CYHM 081400Z 30008KT 15SM FEW056 FEW075 BKN210 M14/M17 A2997 RMK SC2AC1CI2 SLP162

CYHM;2011-02-08 15:00;CYHM 081500Z 32008KT 15SM FEW030 FEW055 SCT120 M13/M18 A2997 RMK CU1SC1AC2 CU TR SLP167

CYHM;2011-02-08 16:00;CYHM 081600Z 29014G20KT 15SM FEW030 FEW120 M12/M17 A2999 RMK CU1AC1 SLP173

CYHM;2011-02-08 17:00;CYHM 081700Z 26012KT 15SM FEW030 FEW130 M12/M16 A3002 RMK CU1AC1 SLP182

CYHM;2011-02-08 18:00;CYHM 081800Z 26012G19KT 15SM FEW030 FEW130 M11/M17 A3001 RMK CU1AC1 SLP180

CYHM;2011-02-08 19:00;CYHM 081900Z 27015G21KT 15SM SCT028 M10/M16 A3002 RMK SC3 CU ASOCTD SLP183

CYHM;2011-02-08 20:00;CYHM 082000Z 25014G20KT 15SM SCT026 SCT120 M10/M16 A3004 RMK SC3AC1 AC TR SLP187

CYHM;2011-02-08 20:45;CYHM 082045Z 29012KT 2 1/4SM -SHSN SCT020 BKN030 RMK SF3SC4

CYHM;2011-02-08 21:00;CYHM 082100Z 32011KT 6SM -SHSN FEW020 BKN032 M11/M16 A3006 RMK SF2SC5 SLP197

CYHM;2011-02-08 21:36;CYHM 082136Z 28013KT 15SM FEW024 SCT052 RMK SF1SC2

CYHM;2011-02-08 22:00;CYHM 082200Z 29011KT 15SM FEW024 SCT050 M11/M17 A3009 RMK SC1SC1 SF ASOCTD SLP207

CYHM;2011-02-08 22:07;CYHM 082207Z 29011KT 15SM -SHSN FEW024 SCT050 RMK SC2SC1 SF ASOCTD

CYHM;2011-02-08 22:35;CYHM 082235Z 27006KT 15SM FEW024 RMK SC2 SF ASOCTD

CYHM;2011-02-08 23:00;CYHM 082300Z 27006KT 15SM FEW024 M12/M17 A3011 RMK SC2 SF ASOCTD SLP214

CYHM;2011-02-08 23:39;CYHM 082339Z 24010KT 12SM -SHSN BKN024 RMK SC6 SF ASOCTD

CYHM;2011-02-09 00:00;CYHM 090000Z 26013KT 15SM -SHSN BKN024 M12/M16 A3013 RMK SC6 SLP222

CYHM;2011-02-09 00:34;CYHM 090034Z 24013KT 15SM FEW022 RMK SC1

CYHM;2011-02-09 01:00;CYHM 090100Z 23014KT 15SM FEW022 M13/M18 A3014 RMK SC1 SLP225

CYHM;2011-02-09 02:00;CYHM 090200Z 23012KT 15SM FEW024 M14/M19 A3013 RMK SC1 SC TR SLP222

CYHM;2011-02-09 03:00;CYHM 090300Z 23013KT 15SM FEW024 M14/M19 A3012 RMK SC1 SC TR SLP220

CYHM;2011-02-09 04:00;CYHM 090400Z 23012KT 15SM FEW022 M14/M20 A3010 RMK SC1 SC TR SLP214

CYHM;2011-02-09 05:00;CYHM 090500Z 22012KT 15SM SKC M14/M19 A3010 RMK SLP214

CYHM;2011-02-09 06:00;CYHM 090600Z 23015G21KT 15SM SKC M13/M18 A3008 RMK SLP204

CYHM;2011-02-09 07:00;CYHM 090700Z 24015G21KT 15SM SKC M12/M17 A3007 RMK SLP201

CYHM;2011-02-09 08:00;CYHM 090800Z 25015G21KT 15SM SKC M12/M17 A3006 RMK SLP198

CYHM;2011-02-09 09:00;CYHM 090900Z 24015G22KT 15SM SKC M12/M17 A3004 RMK SLP190

CYHM;2011-02-09 10:00;CYHM 091000Z 24015G21KT 15SM SKC M12/M18 A3004 RMK SLP190

CYHM;2011-02-09 11:00;CYHM 091100Z 23016G24KT 15SM FEW180 M12/M18 A3003 RMK AC1 AC TR SLP187

CYHM;2011-02-09 12:00;CYHM 091200Z 25018KT 15SM FEW030 FEW210 M11/M17 A3002 RMK CU1CI1 CU TR SLP185

CYHM;2011-02-09 13:00;CYHM 091300Z 25018KT 15SM FEW025 FEW170 SCT210 M11/M17 A3003 RMK CU1AC1CI2 CU TR SLP188

CYHM;2011-02-09 14:00;CYHM 091400Z 25018KT 15SM BKN210 M10/M16 A3002 RMK CI3 CONTRAIL SLP185

CYHM;2011-02-09 15:00;CYHM 091500Z 25018G23KT 15SM BKN210 M09/M15 A3001 RMK CI2 SLP181

CYHM;2011-02-09 16:00;CYHM 091600Z 24018KT 15SM SCT220 M08/M15 A3000 RMK CI2 CONTRAIL SLP178

CYHM;2011-02-09 17:00;CYHM 091700Z CCB 26016G21KT 15SM FEW220 M08/M14 A2999 RMK CI1 SLP174

CYHM;2011-02-09 18:00;CYHM 091800Z 26020G25KT 15SM FEW035 FEW220 M07/M15 A2997 RMK CU1CI1 CU TR SLP167

CYHM;2011-02-09 19:00;CYHM 091900Z 25016G24KT 15SM FEW030 BKN250 M07/M14 A2996 RMK CU1CI2 CU TR SLP162

CYHM;2011-02-09 20:00;CYHM 092000Z 26015KT 15SM FEW030 BKN250 M07/M14 A2995 RMK CU1CI2 CU TR SLP159

CYHM;2011-02-09 21:00;CYHM 092100Z 26015G21KT 15SM FEW030 BKN250 M08/M15 A2996 RMK CU1CI2 CU TR SLP161

CYHM;2011-02-09 22:00;CYHM 092200Z 24013G19KT 15SM FEW025 BKN250 M09/M15 A2996 RMK CU1CI2 CU TR CONTRAIL SLP162

CYHM;2011-02-09 23:00;CYHM 092300Z 24010KT 15SM BKN240 M10/M16 A2996 RMK CI2 SLP162

CYHM;2011-02-10 00:00;CYHM 100000Z 25009KT 15SM SCT240 M11/M16 A2998 RMK CI2 SLP169

CYHM;2011-02-10 01:00;CYHM 100100Z 26012KT 15SM FEW048 BKN220 M12/M16 A2999 RMK SC2CI1 SLP173

CYHM;2011-02-10 02:00;CYHM 100200Z 24010KT 15SM BKN052 M12/M16 A3000 RMK SC7 SLP175

CYHM;2011-02-10 03:00;CYHM 100300Z 25012KT 15SM BKN048 M12/M16 A3001 RMK SC6 SLP179

CYHM;2011-02-10 04:00;CYHM 100400Z 26012KT 15SM FEW044 M13/M17 A3001 RMK SC1 SLP179

CYHM;2011-02-10 05:00;CYHM 100500Z 26011KT 15SM FEW210 M14/M18 A3001 RMK CI1 SLP180

CYHM;2011-02-10 06:00;CYHM 100600Z 26007KT 15SM FEW210 M15/M18 A3001 RMK CI1 SLP180

CYHM;2011-02-10 07:00;CYHM 100700Z 26007KT 15SM FEW210 M16/M19 A3000 RMK CI1 SLP176

CYHM;2011-02-10 08:00;CYHM 100800Z 25007KT 15SM FEW200 M16/M20 A3000 RMK CI1 SLP177

CYHM;2011-02-10 09:00;CYHM 100900Z 25009KT 15SM FEW210 M17/M20 A3000 RMK CI1 SLP176

CYHM;2011-02-10 10:00;CYHM 101000Z 25008KT 15SM FEW210 M17/M20 A3000 RMK CI1 SLP178

CYHM;2011-02-10 11:00;CYHM 101100Z 25008KT 15SM FEW210 M18/M21 A3001 RMK CI1 SLP182

CYHM;2011-02-10 12:00;CYHM 101200Z 24012KT 15SM FEW210 M19/M22 A3003 RMK CI2 SLP188

CYHM;2011-02-10 13:00;CYHM 101300Z 24009KT 15SM FEW220 M18/M23 A3003 RMK CI1 SLP189

CYHM;2011-02-10 14:00;CYHM 101400Z 25008KT 15SM FEW240 M17/M22 A3005 RMK CI1 CI TR SLP196

CYHM;2011-02-10 15:00;CYHM 101500Z 25010KT 15SM FEW025 M15/M20 A3006 RMK CU1 CU TR SE SLP198

CYHM;2011-02-10 16:00;CYHM 101600Z 25010KT 15SM FEW025 M14/M16 A3006 RMK CU1 CU TR SLP198

CYHM;2011-02-10 17:00;CYHM 101700Z 28011KT 15SM FEW025 FEW120 M12/M17 A3006 RMK CU1AC1 CU TR AC TR SLP197

CYHM;2011-02-10 18:00;CYHM 101800Z 25014KT 15SM FEW030 M11/M17 A3004 RMK CU2 SLP191

CYHM;2011-02-10 19:00;CYHM 101900Z 25016G21KT 15SM FEW030 M11/M17 A3003 RMK CU2 SLP188

CYHM;2011-02-10 20:00;CYHM 102000Z 25018G23KT 15SM FEW030 M10/M18 A3002 RMK CU2 SLP184

CYHM;2011-02-10 21:00;CYHM 102100Z 25016KT 15SM FEW030 M10/M17 A3001 RMK CU2 SLP183

CYHM;2011-02-10 22:00;CYHM 102200Z 23016KT 15SM FEW030 M11/M17 A3001 RMK SC2 SLP180

CYHM;2011-02-10 23:00;CYHM 102300Z 22011KT 15SM BKN029 M11/M17 A3000 RMK SC7 SLP178

CYHM;2011-02-10 23:20;CYHM 102320Z 22015KT 10SM -SHSN BKN027 RMK SC7

CYHM;2011-02-11 00:00;CYHM 110000Z 23014KT 15SM -SHSN BKN024 M11/M16 A3001 RMK SC5 PCPN VRY LGT SLP181

CYHM;2011-02-11 00:25;CYHM 110025Z 23014KT 15SM FEW024 RMK SC1

CYHM;2011-02-11 01:00;CYHM 110100Z 22010KT 15SM SKC M13/M18 A3001 RMK SLP181

CYHM;2011-02-11 02:00;CYHM 110200Z 21010KT 15SM SKC M14/M20 A3000 RMK SLP179

CYHM;2011-02-11 03:00;CYHM 110300Z 22008KT 15SM FEW120 M15/M20 A3000 RMK AC1 SLP180

CYHM;2011-02-11 04:00;CYHM 110400Z 22007KT 15SM FEW120 M16/M21 A3001 RMK AC1 SLP181

CYHM;2011-02-11 05:00;CYHM 110500Z 25007KT 15SM FEW120 M16/M20 A3000 RMK AC1 SLP180

CYHM;2011-02-11 06:00;CYHM 110600Z 22006KT 15SM FEW120 M18/M21 A2999 RMK AC1 SLP174

CYHM;2011-02-11 07:00;CYHM 110700Z 00000KT 15SM FEW120 M17/M19 A2998 RMK AC1 SLP171

CYHM;2011-02-11 08:00;CYHM 110800Z 00000KT 15SM FEW120 M17/M20 A2997 RMK AC1 SLP168

CYHM;2011-02-11 09:00;CYHM 110900Z 21005KT 15SM FEW120 M18/M22 A2996 RMK AC1 SLP165

CYHM;2011-02-11 10:00;CYHM 111000Z 23006KT 15SM FEW210 M19/M23 A2996 RMK CI0 SLP166

CYHM;2011-02-11 11:00;CYHM 111100Z 24006KT 15SM SKC M17/M22 A2997 RMK SLP170

CYHM;2011-02-11 12:00;CYHM 111200Z 24006KT 15SM FEW220 M19/M22 A2999 RMK CI1 SLP175

CYHM;2011-02-11 13:00;CYHM 111300Z 24006KT 15SM FEW060 FEW220 M19/M22 A3000 RMK SC1CI1 SLP180

CYHM;2011-02-11 13:51;CYHM 111351Z 24006KT 15SM -SHSN FEW024 BKN032 BKN210 RMK SC2SC3CI1

CYHM;2011-02-11 14:00;CYHM 111400Z 22005KT 15SM -SHSN SCT022 BKN033 M17/M20 A3002 RMK SC3SC4 PCPC VRY LGT SLP187

CYHM;2011-02-11 15:00;CYHM 111500Z 24004KT 6SM -SHSN OVC034 M14/M18 A3003 RMK SC8 SLP189

CYHM;2011-02-11 16:00;CYHM 111600Z 24005KT 15SM -SHSN BKN036 M12/M16 A3003 RMK SC6 SLP188

CYHM;2011-02-11 16:38;CYHM 111638Z 23004KT 15SM FEW038 BKN210 RMK SC1CI2

CYHM;2011-02-11 17:00;CYHM 111700Z 18007KT 10SM BKN032 BKN210 M09/M13 A3002 RMK SC5CI2 SLP185

CYHM;2011-02-11 18:00;CYHM 111800Z 23014KT 8SM FEW024 SCT035 OVC170 M08/M12 A2999 RMK SC2SC2AC3 SLP175

CYHM;2011-02-11 19:00;CYHM 111900Z 23015KT 10SM -SHSN FEW022 BKN032 BKN130 M07/M12 A2997 RMK CU1SC4AC2 SLP167

CYHM;2011-02-11 20:00;CYHM 112000Z 23017KT 12SM -SHSN BKN026 BKN120 M07/M12 A2995 RMK SC5AC2 CU ASOCTD SLP161

CYHM;2011-02-11 21:00;CYHM 112100Z 22016KT 7SM -SHSN SCT025 BKN095 M07/M12 A2994 RMK SC4AC2 CU ASOCTD SLP157

CYHM;2011-02-11 22:00;CYHM 112200Z 23014G19KT 10SM -SHSN BKN025 BKN090 M07/M12 A2992 RMK SC5AC2 CU ASOCTD SLP149

CYHM;2011-02-11 23:00;CYHM 112300Z 22012KT 7SM -SHSN FEW025 BKN120 M07/M12 A2990 RMK SC2AC6 SLP143

CYHM;2011-02-12 00:00;CYHM 120000Z 22018KT 15SM -SHSN OVC049 M06/M11 A2990 RMK SC8 SLP142

CYHM;2011-02-12 01:00;CYHM 120100Z 22018KT 12SM -SHSN DRSN FEW055 BKN068 M06/M11 A2987 RMK SC2AC6 SLP134

CYHM;2011-02-12 02:00;CYHM 120200Z 23017G22KT 6SM -SHSN DRSN FEW029 OVC054 M05/M10 A2984 RMK SC2SC6 SLP125

CYHM;2011-02-12 03:00;CYHM 120300Z 23017G22KT 6SM -SHSN DRSN FEW018 OVC034 M05/M10 A2982 RMK CF2SC6 SLP115

CYHM;2011-02-12 04:00;CYHM 120400Z 22016KT 8SM -SHSN DRSN FEW027 OVC097 M05/M09 A2978 RMK SC1AC7 SLP101

CYHM;2011-02-12 05:00;CYHM 120500Z 22017G22KT 6SM -SHSN DRSN FEW023 OVC070 M04/M08 A2974 RMK SC2AC6 SLP088

CYHM;2011-02-12 06:00;CYHM 120600Z 23016G21KT 5SM -SHSN BLSN OVC018 M04/M07 A2972 RMK SC8 SLP079

CYHM;2011-02-12 07:00;CYHM 120700Z 24018G23KT 1 1/2SM -SN BLSN VV010 M04/M07 A2971 RMK SN8 VIS VRB 1 - 2 SLP073

CYHM;2011-02-12 08:00;CYHM 120800Z 24017G22KT 1 1/2SM -SN BLSN OVC018 M05/M07 A2970 RMK SN2SC6 VIS VRB 1 - 2 SLP071

CYHM;2011-02-12 08:13;CYHM 120813Z 24018G24KT 4SM -SN BLSN OVC017 RMK SC8

CYHM;2011-02-12 09:00;CYHM 120900Z 24017G23KT 6SM -SN BLSN SCT017 OVC040 M05/M07 A2969 RMK CF3SC5 /S01/ SLP067

CYHM;2011-02-12 09:40;CYHM 120940Z 24017KT 2SM -SN BLSN OVC019 RMK SN1SC7

CYHM;2011-02-12 09:43;CYHM 120943Z 24017KT 4SM -SN BLSN OVC018 RMK SC8

CYHM;2011-02-12 10:00;CYHM 121000Z 24017KT 1 1/2SM -SN BLSN VV009 M05/M07 A2969 RMK SN8 VIS VRB 1 - 2 SLP067

CYHM;2011-02-12 11:00;CYHM 121100Z 23017KT 1 1/2SM -SN BLSN VV012 M05/M07 A2970 RMK SN8 VIS VRB 1 - 2 /S02/ SLP069

CYHM;2011-02-12 12:00;CYHM 121200Z 24015KT 1 1/2SM -SN BLSN VV012 M05/M06 A2970 RMK SN8 SLP071

CYHM;2011-02-12 12:11;CYHM 121211Z 24013KT 3SM -SN BLSN BKN032 OVC097 RMK SC5AC3

CYHM;2011-02-12 12:49;CYHM 121249Z 24014KT 6SM -SN DRSN BKN014 OVC032 RMK SC6SC2

CYHM;2011-02-12 13:00;CYHM 121300Z 25015KT 6SM -SN DRSN BKN014 OVC032 M04/M06 A2972 RMK SC6SC2 SLP078

CYHM;2011-02-12 13:36;CYHM 121336Z 26013KT 1 1/2SM -SN DRSN BKN014 BKN038 RMK SN3SC2SC2

CYHM;2011-02-12 14:00;CYHM 121400Z 26015KT 6SM -SN DRSN BKN014 BKN077 M03/M05 A2976 RMK SC5AC2 SLP089

CYHM;2011-02-12 14:24;CYHM 121424Z 27018G23KT 1 1/2SM -SN BLSN BKN016 BKN077 RMK SN3SC3AC1

CYHM;2011-02-12 14:43;CYHM 121443Z 31016G24KT 1/4SM SHSN +BLSN VV004 RMK SN8

CYHM;2011-02-12 15:00;CYHM 121500Z 29019KT 3/8SM SHSN BLSN VV006 M04/M07 A2980 RMK SN8 SLP105

CYHM;2011-02-12 15:14;CYHM 121514Z CCA 29016KT 1 1/2SM -SHSN BLSN BKN015 BKN080 RESN RMK SN2SC4AC1

CYHM;2011-02-12 15:22;CYHM 121522Z 29014KT 9SM -SHSN DRSN BKN015 BKN030 BKN080 RESN RMK SC5SC2AC1

CYHM;2011-02-12 16:00;CYHM 121600Z 30017G23KT 15SM -SHSN DRSN BKN028 BKN080 M04/M07 A2985 RESN RMK SC6AC1 SLP120

CYHM;2011-02-12 17:00;CYHM 121700Z 28018G23KT 15SM DRSN SCT034 BKN046 M03/M08 A2988 RMK SC4SC1 SLP131

CYHM;2011-02-12 18:00;CYHM 121800Z 27016G23KT 15SM DRSN FEW034 FEW055 M04/M11 A2991 RMK CU1SC2 SLP140

CYHM;2011-02-12 19:00;CYHM 121900Z 28018G27KT 15SM DRSN BKN043 M04/M12 A2993 RMK SC6 SLP148

CYHM;2011-02-12 20:00;CYHM 122000Z 28013G19KT 250V310 15SM DRSN SCT040 BKN056 M04/M12 A2995 RMK SC3SC4 SLP153

CYHM;2011-02-12 21:00;CYHM 122100Z 27013G18KT 240V300 15SM DRSN FEW038 BKN055 M04/M12 A2998 RMK SC2SC5 SLP166

CYHM;2011-02-12 22:00;CYHM 122200Z 26013KT 230V290 15SM VCSH FEW035 BKN052 M04/M10 A3001 RMK SC2SC5 SLP173

CYHM;2011-02-12 23:00;CYHM 122300Z 26010KT 15SM FEW035 FEW052 BKN220 M05/M11 A3003 RMK SC1SC2CI2 SLP180

CYHM;2011-02-13 00:00;CYHM 130000Z 23006KT 15SM FEW035 FEW046 BKN210 M07/M14 A3005 RMK SC1SC2CI1 SLP189

CYHM;2011-02-13 01:00;CYHM 130100Z 22005KT 15SM FEW040 SCT200 M09/M14 A3005 RMK SC1CI1 SLP189

CYHM;2011-02-13 02:00;CYHM 130200Z 20006KT 15SM FEW040 FEW200 M10/M15 A3003 RMK SC1CI1 SC TR SLP184

CYHM;2011-02-13 03:00;CYHM 130300Z 20006KT 15SM FEW150 FEW200 M11/M16 A3002 RMK AC1CI1 SLP180

CYHM;2011-02-13 04:00;CYHM 130400Z 20006KT 15SM FEW120 SCT170 M11/M16 A2999 RMK AC2AC2 SLP172

CYHM;2011-02-13 05:00;CYHM 130500Z 20007KT 15SM BKN120 M09/M14 A2997 RMK AC6 SLP165

CYHM;2011-02-13 06:00;CYHM 130600Z 23010KT 7SM -SHSN OVC070 M06/M11 A2996 RMK AC7 SLP158

CYHM;2011-02-13 06:36;CYHM 130636Z 24009KT 3SM -SHSN OVC012 RMK SC8 VIS VRB 2 - 4

CYHM;2011-02-13 06:49;CYHM 130649Z 23009KT 1 1/2SM -SHSN OVC014 RMK SN2SC6 VIS VRB 1 - 2

CYHM;2011-02-13 07:00;CYHM 130700Z 22008KT 1 1/2SM -SHSN OVC020 M05/M09 A2994 RMK SN2SC6 VIS VRB 1 - 2 SLP150

CYHM;2011-02-13 07:13;CYHM 130713Z 22008KT 1 1/2SM -SHSN OVC012 RMK SN2SC6 VIS VRB 1 - 2

CYHM;2011-02-13 07:26;CYHM 130726Z 21007KT 4SM -SHSN OVC018 RMK SC8

CYHM;2011-02-13 08:00;CYHM 130800Z 19008KT 1 1/2SM -SN VV009 M04/M07 A2989 RMK SN8 VIS VRB 1 - 2 /S01/ SLP135

CYHM;2011-02-13 09:00;CYHM 130900Z 19012KT 1 1/2SM -SN SCT005 OVC026 M02/M04 A2984 RMK SN2SF2SC5 VIS VRB 1 - 2 SLP118

CYHM;2011-02-13 10:00;CYHM 131000Z 20013KT 4SM -SN BKN009 OVC017 M02/M04 A2981 RMK SC6SC2 SLP107

CYHM;2011-02-13 11:00;CYHM 131100Z 22015KT 6SM -SN DRSN OVC008 M01/M04 A2979 RMK SC8 CIG RAG SLP099

CYHM;2011-02-13 11:33;CYHM 131133Z 21014KT 8SM -SN DRSN SCT008 OVC029 RMK CF3SC5

CYHM;2011-02-13 12:00;CYHM 131200Z 21012KT 8SM FEW009 OVC029 M01/M03 A2976 RMK CF1SC7 SLP090

CYHM;2011-02-13 13:00;CYHM 131300Z 22012KT 8SM FEW030 BKN054 M00/M03 A2975 RMK SC1SC6 SLP086

CYHM;2011-02-13 14:00;CYHM 131400Z 23017KT 15SM FEW059 BKN250 01/M03 A2975 RMK SC2CI4 SLP085

CYHM;2011-02-13 15:00;CYHM 131500Z 22018KT 12SM FEW065 BKN210 02/M02 A2971 RMK SC1CI6 SLP075

CYHM;2011-02-13 16:00;CYHM 131600Z 23018G23KT 12SM FEW025 OVC210 03/M02 A2971 RMK CU1CI6 SLP072

CYHM;2011-02-13 17:00;CYHM 131700Z 22018G24KT 12SM FEW024 OVC160 03/M02 A2968 RMK CU2AS6 SLP063

CYHM;2011-02-13 18:00;CYHM 131800Z 22028G35KT 12SM FEW024 OVC130 03/M02 A2964 RMK CU1AS7 SLP047

CYHM;2011-02-13 19:00;CYHM 131900Z 22024G31KT 12SM FEW025 OVC120 03/M02 A2963 RMK CU1AC7 SLP043

CYHM;2011-02-13 20:00;CYHM 132000Z 23021G27KT 12SM FEW025 OVC100 03/M03 A2962 RMK CF1AC7 SLP041

CYHM;2011-02-13 21:00;CYHM 132100Z 23022G29KT 12SM FEW025 BKN088 OVC140 03/M02 A2961 RMK CF1AC6AC2 CF TR SLP036

CYHM;2011-02-13 22:00;CYHM 132200Z 22019G24KT 12SM OVC088 03/M02 A2960 RMK AS8 SLP034

CYHM;2011-02-13 23:00;CYHM 132300Z 23017KT 15SM SCT078 BKN110 BKN200 03/M02 A2961 RMK AC4AC2CI1 SLP036

CYHM;2011-02-14 00:00;CYHM 140000Z 23018KT 15SM FEW075 BKN100 BKN140 03/M02 A2959 RMK AC2AC2AC2 SLP028

CYHM;2011-02-14 01:00;CYHM 140100Z 23016KT 15SM SCT100 BKN150 OVC200 03/M02 A2957 RMK AC3AC2CC2 SLP023

CYHM;2011-02-14 02:00;CYHM 140200Z 23020KT 15SM SCT100 OVC140 04/M01 A2955 RMK AC3AS4 SLP017

CYHM;2011-02-14 03:00;CYHM 140300Z 23021G27KT 15SM SCT110 OVC160 05/M02 A2952 RMK AC3AS5 SLP002

CYHM;2011-02-14 04:00;CYHM 140400Z 22018KT 15SM BKN170 05/M02 A2947 RMK AS6 SLP986

CYHM;2011-02-14 05:00;CYHM 140500Z 22018G25KT 15SM OVC140 06/M01 A2942 RMK AS7 SLP970

CYHM;2011-02-14 06:00;CYHM 140600Z CCA 22020KT 15SM OVC160 05/M02 A2937 RMK AS7 PRESFR SLP952

CYHM;2011-02-14 07:00;CYHM 140700Z 23018G24KT 15SM BKN180 06/M01 A2931 RMK AC6 PRESFR SLP933

CYHM;2011-02-14 08:00;CYHM 140800Z 24028G36KT 15SM FEW180 06/M02 A2928 RMK AC2 SLP921

CYHM;2011-02-14 09:00;CYHM 140900Z 23028G35KT 15SM SCT046 SCT170 06/M02 A2926 RMK SC3AC1 SLP916

CYHM;2011-02-14 10:00;CYHM 141000Z 23017G22KT 15SM SCT038 SCT045 BKN110 04/M01 A2930 RMK SC4SC1AC2 SLP928

CYHM;2011-02-14 11:00;CYHM 141100Z 25017G22KT 15SM FEW045 FEW110 04/M01 A2932 RMK SC1AC1 SLP934

CYHM;2011-02-14 12:00;CYHM 141200Z 25016G22KT 15SM FEW047 FEW120 SCT210 04/M02 A2933 RMK SC2AC1CI1 SLP937

CYHM;2011-02-14 13:00;CYHM 141300Z 24018KT 15SM BKN034 BKN120 04/M01 A2935 RMK SC6AC1 SLP944

CYHM;2011-02-14 14:00;CYHM 141400Z 24020KT 15SM OVC026 04/M01 A2938 RMK SC8 SLP955

CYHM;2011-02-14 15:00;CYHM 141500Z 25020G25KT 8SM -SHRA OVC018 03/M01 A2940 RMK SC8 SLP962

CYHM;2011-02-14 16:00;CYHM 141600Z 27018G25KT 10SM -SHRA SCT015 OVC022 03/00 A2944 RMK SC4SC4 SLP974

CYHM;2011-02-14 16:27;CYHM 141627Z 30022G28KT 10SM BKN021 BKN030 RMK SC5SC2

CYHM;2011-02-14 17:00;CYHM 141700Z 29018G26KT 15SM BKN018 OVC028 03/M01 A2951 RMK SC6SC2 SLP997

CYHM;2011-02-14 18:00;CYHM 141800Z 32018G28KT 15SM OVC021 02/M02 A2955 RMK SC8 SLP015

CYHM;2011-02-14 19:00;CYHM 141900Z 30020G32KT 15SM BKN025 02/M04 A2962 RMK SC6 SLP038

CYHM;2011-02-14 20:00;CYHM 142000Z 31018G27KT 15SM BKN028 01/M04 A2971 RMK SC6 SLP068

CYHM;2011-02-14 21:00;CYHM 142100Z 29018G24KT 15SM BKN025 M00/M05 A2981 RMK SC7 SLP101

CYHM;2011-02-14 22:00;CYHM 142200Z 32015G22KT 15SM OVC024 M01/M07 A2988 RMK SC8 SLP126

CYHM;2011-02-14 23:00;CYHM 142300Z 32014G20KT 15SM BKN028 M02/M08 A2996 RMK SC7 SLP151

CYHM;2011-02-15 00:00;CYHM 150000Z 34012KT 15SM SCT032 M03/M09 A3002 RMK SC3 SLP177

CYHM;2011-02-15 01:00;CYHM 150100Z 31009KT 15SM FEW024 M04/M09 A3007 RMK SC2 SLP192

CYHM;2011-02-15 02:00;CYHM 150200Z 35012KT 15SM FEW028 M05/M11 A3012 RMK SC2 SLP210

CYHM;2011-02-15 03:00;CYHM 150300Z 31010KT 15SM FEW030 M06/M13 A3019 RMK SC1 SLP234

CYHM;2011-02-15 04:00;CYHM 150400Z 32012KT 15SM FEW030 M07/M13 A3022 RMK SC1 SC TR SLP245

CYHM;2011-02-15 05:00;CYHM 150500Z 32009KT 15SM FEW028 M08/M14 A3025 RMK SC1 SC TR SLP256

CYHM;2011-02-15 06:00;CYHM 150600Z 35010KT 15SM FEW028 M09/M15 A3028 RMK SC1 SC TR SLP267

CYHM;2011-02-15 08:00;CYHM 150800Z 33006KT 15SM SKC M10/M16 A3033 RMK SLP283

CYHM;2011-02-15 09:00;CYHM 150900Z 32005KT 15SM SKC M11/M16 A3035 RMK SLP291

CYHM;2011-02-15 10:00;CYHM 151000Z 32003KT 15SM SKC M12/M17 A3038 RMK SLP302

CYHM;2011-02-15 11:00;CYHM 151100Z 00000KT 15SM FEW040 M13/M17 A3042 RMK SC1 SC TR SLP314

CYHM;2011-02-15 12:00;CYHM 151200Z 01004KT 15SM FEW025 FEW240 M13/M17 A3043 RMK CU1CI1 CU TR CI TR SLP321

CYHM;2011-02-15 13:00;CYHM 151300Z 05002KT 15SM FEW240 M12/M17 A3044 RMK CI1 CI TR SLP325

CYHM;2011-02-15 14:00;CYHM 151400Z 02003KT 15SM SKC M11/M15 A3045 RMK SLP326

CYHM;2011-02-15 15:00;CYHM 151500Z 11005KT 15SM SKC M09/M14 A3045 RMK SLP326

CYHM;2011-02-15 16:00;CYHM 151600Z 13005KT 15SM SKC M09/M14 A3046 RMK SLP330

CYHM;2011-02-15 17:00;CYHM 151700Z 21005KT 15SM FEW030 M07/M13 A3046 RMK CU1 CU TR SLP331

CYHM;2011-02-15 18:00;CYHM 151800Z 14002KT 15SM FEW035 M06/M13 A3042 RMK SC1 SC TR SLP318

CYHM;2011-02-15 19:00;CYHM 151900Z 26002KT 15SM FEW030 FEW220 M05/M11 A3042 RMK CU1CI1 CU TR SLP318

CYHM;2011-02-15 20:00;CYHM 152000Z 22003KT 15SM FEW250 M04/M11 A3042 RMK CI1 SLP317

CYHM;2011-02-15 21:00;CYHM 152100Z 15004KT 15SM BKN250 M05/M13 A3041 RMK CI2 SLP313

CYHM;2011-02-15 22:00;CYHM 152200Z 19007KT 15SM BKN250 M05/M13 A3039 RMK CS6 SUN DMLY VSBL CONTRAILS SLP308

CYHM;2011-02-15 23:00;CYHM 152300Z 14004KT 15SM BKN220 M06/M13 A3037 RMK CS6 SLP302

CYHM;2011-02-16 00:00;CYHM 160000Z 15004KT 15SM BKN200 M06/M13 A3036 RMK CS6 SLP299

CYHM;2011-02-16 01:00;CYHM 160100Z 13004KT 15SM BKN200 M07/M13 A3034 RMK CS3 SLP290

CYHM;2011-02-16 02:00;CYHM 160200Z 14005KT 15SM BKN220 M07/M13 A3030 RMK CS2 HALO SLP276

CYHM;2011-02-16 03:00;CYHM 160300Z 16006KT 15SM BKN160 BKN220 M07/M14 A3025 RMK AS2CS1 HALO SLP259

CYHM;2011-02-16 04:00;CYHM 160400Z 18005KT 15SM BKN120 BKN220 M06/M14 A3023 RMK AS3CS1 HALO SLP251

CYHM;2011-02-16 05:00;CYHM 160500Z 24003KT 15SM FEW100 OVC140 M06/M13 A3021 RMK AS2AS4 SLP245

CYHM;2011-02-16 06:00;CYHM 160600Z 16008KT 15SM FEW100 BKN160 OVC220 M06/M13 A3014 RMK AS2AS4CS1 SLP222

CYHM;2011-02-16 07:00;CYHM 160700Z 20003KT 15SM FEW160 BKN220 M06/M12 A3012 RMK AC2CS1 SLP214

CYHM;2011-02-16 08:00;CYHM 160800Z 27003KT 15SM BKN170 BKN220 M06/M12 A3014 RMK AC6CS1 SLP220

CYHM;2011-02-16 09:00;CYHM 160900Z 20007KT 15SM BKN160 M06/M13 A3009 RMK AC6 SLP203

CYHM;2011-02-16 10:00;CYHM 161000Z 23003KT 15SM SCT120 BKN160 M06/M12 A3008 RMK AC4AC2 SLP201

CYHM;2011-02-16 11:00;CYHM 161100Z 21005KT 15SM SCT110 BKN130 M06/M12 A3007 RMK AC3AC4 SLP196

CYHM;2011-02-16 12:00;CYHM 161200Z 20007KT 15SM BKN120 BKN160 M05/M11 A3005 RMK AC6AC2 SLP190

CYHM;2011-02-16 13:00;CYHM 161300Z 22008KT 15SM SCT058 BKN074 BKN096 M03/M09 A3006 RMK SC3AC2AC2 SLP192

CYHM;2011-02-16 13:25;CYHM 161325Z 22008KT 6SM -SHSN OVC059 RMK SC8

CYHM;2011-02-16 14:00;CYHM 161400Z 22008KT 15SM -SHSN BKN024 OVC031 M01/M07 A3007 RMK SC6SC2 PCPN VRY LGT SLP197

CYHM;2011-02-16 14:18;CYHM 161418Z 23006KT 15SM OVC035 RMK SC8

CYHM;2011-02-16 15:00;CYHM 161500Z 21012KT 15SM SCT036 OVC044 M00/M06 A3005 RMK SC3SC5 SLP188

CYHM;2011-02-16 16:00;CYHM 161600Z 23016KT 8SM BKN038 OVC045 01/M04 A3007 RMK SC6SC2 SLP194

CYHM;2011-02-16 17:00;CYHM 161700Z 24012KT 15SM OVC032 02/M03 A3003 RMK SC8 SLP181

CYHM;2011-02-16 18:00;CYHM 161800Z 23012KT 15SM BKN034 03/M03 A3001 RMK SC7 SLP171

CYHM;2011-02-16 19:00;CYHM 161900Z 24011KT 15SM BKN032 04/M03 A3000 RMK SC7 SLP170

CYHM;2011-02-16 20:00;CYHM 162000Z 24013KT 15SM OVC025 04/M03 A3000 RMK SC8 SLP170

CYHM;2011-02-16 21:00;CYHM 162100Z 23009KT 12SM OVC022 04/M02 A3001 RMK SC8 SLP174

CYHM;2011-02-16 22:00;CYHM 162200Z 23008KT 15SM FEW018 BKN027 04/M02 A3001 RMK SF1SC6 SLP174

CYHM;2011-02-16 23:00;CYHM 162300Z 23005KT 15SM FEW025 FEW180 BKN250 03/M03 A3002 RMK SC1AC1CI1 AC TR CONTRAILS SLP177

CYHM;2011-02-17 00:00;CYHM 170000Z 23007KT 15SM FEW180 BKN240 02/M04 A3004 RMK AC1CI1 AC TR SLP182

CYHM;2011-02-17 01:00;CYHM 170100Z 22007KT 15SM SCT240 01/M05 A3003 RMK CI1 CONTRAILS SLP179

CYHM;2011-02-17 02:00;CYHM 170200Z 23004KT 15SM BKN250 02/M03 A3003 RMK CI2 SLP180

CYHM;2011-02-17 03:00;CYHM 170300Z 23006KT 15SM BKN250 01/M04 A3003 RMK CI2 SLP178

CYHM;2011-02-17 04:00;CYHM 170400Z 20007KT 15SM BKN250 00/M05 A3003 RMK CS7 HALO SLP178

CYHM;2011-02-17 05:00;CYHM 170500Z 20006KT 15SM FEW044 BKN250 M00/M05 A3003 RMK SC1CS6 HALO SLP178

CYHM;2011-02-17 06:00;CYHM 170600Z 20005KT 12SM BKN240 M01/M05 A3002 RMK CS7 HALO SLP175

CYHM;2011-02-17 07:00;CYHM 170700Z 21005KT 10SM FEW043 BKN250 M00/M04 A3002 RMK SC1CS6 HALO SLP174

CYHM;2011-02-17 08:00;CYHM 170800Z 19004KT 10SM FEW045 BKN230 01/M03 A3000 RMK SC2CS4 HALO SLP169

CYHM;2011-02-17 09:00;CYHM 170900Z 19002KT 12SM SCT045 BKN240 02/M01 A2999 RMK SC3CS3 HALO SLP165

CYHM;2011-02-17 10:00;CYHM 171000Z 20003KT 12SM BKN059 BKN200 02/M00 A2998 RMK SC6CI2 SLP160

CYHM;2011-02-17 11:00;CYHM 171100Z 19004KT 15SM BKN046 BKN071 03/M00 A2999 RMK SC6AC2 SLP163

CYHM;2011-02-17 12:00;CYHM 171200Z 20002KT 15SM BKN039 OVC056 03/00 A2998 RMK SC6SC2 SLP161

CYHM;2011-02-17 13:00;CYHM 171300Z 19004KT 15SM -SHRA FEW062 BKN094 04/01 A2998 RMK SC2AC6 SLP160

CYHM;2011-02-17 13:25;CYHM 171325Z 20005KT 10SM FEW040 BKN062 BKN100 RMK SC1SC5AC2

CYHM;2011-02-17 14:00;CYHM 171400Z 18008KT 8SM FEW062 FEW078 BKN220 05/01 A2996 RMK SC2AC1CI2 SLP155

CYHM;2011-02-17 15:00;CYHM 171500Z 20008KT 15SM FEW064 FEW180 BKN210 07/03 A2995 RMK SC1AC1CI4 SLP151

CYHM;2011-02-17 16:00;CYHM 171600Z 21010KT 15SM SCT080 BKN210 07/03 A2994 RMK AC4CI2 SLP147

CYHM;2011-02-17 17:00;CYHM 171700Z 20012KT 15SM FEW180 OVC210 08/04 A2992 RMK AC2CI6 SLP140

CYHM;2011-02-17 18:00;CYHM 171800Z 19012KT 15SM FEW160 OVC180 08/03 A2988 RMK AC2AS6 SLP127

CYHM;2011-02-17 19:00;CYHM 171900Z 20010KT 15SM BKN170 OVC210 08/03 A2985 RMK AC5CI3 SLP117

CYHM;2011-02-17 20:00;CYHM 172000Z 20009KT 12SM FEW041 OVC057 08/04 A2984 RMK SC2SC6 SLP113

CYHM;2011-02-17 21:00;CYHM 172100Z 20010KT 9SM OVC058 08/03 A2983 RMK SC8 SLP107

CYHM;2011-02-17 22:00;CYHM 172200Z 20012KT 10SM SCT036 OVC053 08/03 A2981 RMK SC3SC5 SLP101

CYHM;2011-02-17 23:00;CYHM 172300Z 21008KT 9SM OVC035 07/03 A2981 RMK SC8 SLP101

CYHM;2011-02-18 00:00;CYHM 180000Z 20012KT 12SM OVC037 07/03 A2980 RMK SC8 SLP096

CYHM;2011-02-18 01:00;CYHM 180100Z 21012KT 15SM OVC049 07/03 A2981 RMK SC8 SLP101

CYHM;2011-02-18 02:00;CYHM 180200Z 21012KT 15SM OVC052 08/04 A2976 RMK SC8 SLP085

CYHM;2011-02-18 03:00;CYHM 180300Z 20011KT 15SM OVC051 07/03 A2976 RMK SC8 SLP082

CYHM;2011-02-18 04:00;CYHM 180400Z 20014KT 15SM OVC040 07/03 A2972 RMK SC8 SLP071

CYHM;2011-02-18 05:00;CYHM 180500Z 21012KT 15SM OVC036 08/04 A2969 RMK SC8 SLP061

CYHM;2011-02-18 06:00;CYHM 180600Z 21014KT 15SM OVC032 08/05 A2966 RMK SC8 SLP049

CYHM;2011-02-18 06:28;CYHM 180628Z CCA 22016KT 10SM -SHRA OVC031 RMK SC8

CYHM;2011-02-18 07:00;CYHM 180700Z 22017KT 15SM -SHRA OVC029 08/04 A2965 RMK SC8 PCPN VRY LGT SLP045

CYHM;2011-02-18 08:00;CYHM 180800Z 23016KT 15SM OVC025 09/05 A2964 RMK SC8 SLP041

CYHM;2011-02-18 09:00;CYHM 180900Z 23018KT 15SM OVC021 09/05 A2964 RMK SC8 SLP040

CYHM;2011-02-18 10:00;CYHM 181000Z 24017G23KT 15SM FEW018 OVC041 09/06 A2964 RMK SC2SC6 SLP041

CYHM;2011-02-18 11:00;CYHM 181100Z 24017KT 12SM BKN018 OVC031 09/06 A2964 RMK SC6SC2 SLP040

CYHM;2011-02-18 12:00;CYHM 181200Z 24016KT 8SM SCT012 BKN042 BKN090 08/06 A2965 RMK SC3SC2AC2 SLP045

CYHM;2011-02-18 12:08;CYHM 181208Z 24016G22KT 8SM BKN008 OVC032 RMK SF6SC2

CYHM;2011-02-18 13:00;CYHM 181300Z 25016KT 6SM BR BKN014 BKN018 09/07 A2966 RMK SC5SC2 SLP048

CYHM;2011-02-18 14:00;CYHM 181400Z 25015KT 7SM FEW020 BKN210 09/06 A2970 RMK SC2CI5 SLP060

CYHM;2011-02-18 15:00;CYHM 181500Z 25015G20KT 15SM FEW210 08/03 A2970 RMK CI1 SLP063

CYHM;2011-02-18 16:00;CYHM 181600Z 25020G25KT 15SM FEW150 BKN210 08/02 A2972 RMK AC2CI2 SLP068

CYHM;2011-02-18 17:00;CYHM 181700Z 24016KT 15SM FEW110 BKN130 BKN210 09/M00 A2975 RMK AC2AC3CI1 SLP077

CYHM;2011-02-18 18:00;CYHM 181800Z 26020KT 15SM SCT140 BKN170 08/M01 A2975 RMK AC3AC3 SLP077

CYHM;2011-02-18 19:00;CYHM 181900Z 25016G22KT 15SM FEW170 SCT220 09/M02 A2973 RMK AC1CI2 SLP071

CYHM;2011-02-18 20:00;CYHM 182000Z 25022G30KT 15SM FEW085 FEW180 09/M03 A2972 RMK AC1AC1 SLP068

CYHM;2011-02-18 21:00;CYHM 182100Z 25020KT 15SM FEW140 09/M03 A2971 RMK AC1 SLP067

CYHM;2011-02-18 22:00;CYHM 182200Z 24024G32KT 15SM FEW140 08/M05 A2969 RMK AC1 SLP060

CYHM;2011-02-18 23:00;CYHM 182300Z 25018G25KT 15SM FEW120 06/M06 A2971 RMK AC1 SLP064

CYHM;2011-02-19 00:00;CYHM 190000Z 25022G35KT 15SM SKC 05/M07 A2973 RMK SLP072

CYHM;2011-02-19 01:00;CYHM 190100Z 26027G35KT 15SM FEW040 05/M06 A2974 RMK SC1 SLP075

CYHM;2011-02-19 03:00;CYHM 190300Z 27028G40KT 15SM FEW055 FEW210 03/M07 A2978 RMK SC2CI1 SLP089

CYHM;2011-02-19 04:00;CYHM 190400Z 27030G41KT 15SM BKN049 02/M08 A2978 RMK SC5 SLP092

CYHM;2011-02-19 05:00;CYHM 190500Z 27028G41KT 15SM -SHSN SCT053 02/M08 A2978 RMK SC4 PCPN VRY LGT SLP091

CYHM;2011-02-19 06:00;CYHM 190600Z 27025G35KT 15SM FEW045 01/M08 A2979 RMK SC2 SLP094

CYHM;2011-02-19 07:00;CYHM 190700Z 27025G35KT 15SM BKN056 00/M08 A2981 RMK SC7 SLP100

CYHM;2011-02-19 08:00;CYHM 190800Z 28025G33KT 7SM -SHSN OVC032 M01/M07 A2983 RMK SC8 SLP107

CYHM;2011-02-19 08:12;CYHM 190812Z 29020G28KT 2SM -SHSN OVC021 RMK SN1SC7

CYHM;2011-02-19 08:17;CYHM 190817Z 29020G32KT 4SM -SHSN FEW012 OVC040 RMK CF2SC6

CYHM;2011-02-19 09:00;CYHM 190900Z 29027G36KT 8SM -SHSN FEW023 OVC055 M02/M08 A2987 RMK CF2SC6 SLP121

CYHM;2011-02-19 10:00;CYHM 191000Z 29022G31KT 15SM -SHSN FEW018 OVC037 M04/M10 A2991 RMK CF2SC6 PRESRR SLP136

CYHM;2011-02-19 11:00;CYHM 191100Z 29020G34KT 15SM -SHSN FEW013 SCT035 M05/M11 A2995 RMK CF1SC2 SLP148

CYHM;2011-02-19 11:44;CYHM 191144Z 29020G36KT 15SM FEW015 BKN041 RMK CF2SC5

CYHM;2011-02-19 12:00;CYHM 191200Z 28021G28KT 240V320 15SM FEW015 BKN041 M05/M12 A2996 RMK CF2SC5 SLP154

CYHM;2011-02-19 13:00;CYHM 191300Z CCA 29020G26KT 250V340 15SM -SHSN BKN031 BKN041 M05/M12 A3000 RMK SC6SC2 PCPN VRY LGT SLP169

CYHM;2011-02-19 14:00;CYHM 191400Z 28016G27KT 10SM -SHSN OVC032 M05/M11 A3003 RMK SC8 SLP178

CYHM;2011-02-19 15:00;CYHM 191500Z 28022G33KT 8SM BKN028 OVC040 M04/M11 A3004 RMK SC7SC1 SLP183

CYHM;2011-02-19 16:00;CYHM 191600Z 28018G27KT 240V320 6SM -SHSN OVC028 M04/M10 A3007 RMK SC8 SLP191

CYHM;2011-02-19 17:00;CYHM 191700Z 28022G29KT 6SM -SHSN BKN027 BKN036 M03/M09 A3008 RMK SC6SC1 SLP195

CYHM;2011-02-19 18:00;CYHM 191800Z 27022G33KT 5SM -SHSN BKN022 BKN032 M03/M08 A3008 RMK SC6SC2 SLP197

CYHM;2011-02-19 19:00;CYHM 191900Z 28018G25KT 4SM -SHSN FEW018 BKN026 M03/M08 A3010 RMK SC2SC5 SLP203

CYHM;2011-02-19 20:00;CYHM 192000Z 28019G28KT 250V310 5SM -SHSN FEW017 BKN025 BKN034 M02/M07 A3011 RMK SC2SC2SC2 SLP208

CYHM;2011-02-19 21:00;CYHM 192100Z 29018G24KT 260V330 7SM -SHSN FEW017 BKN025 BKN035 M02/M08 A3015 RMK SC2SC3SC2 SLP222

CYHM;2011-02-19 21:39;CYHM 192139Z 30019G26KT 260V330 15SM VCSH FEW017 SCT025 BKN035 RMK SC1SC3SC2

CYHM;2011-02-19 22:00;CYHM 192200Z 30016KT 270V330 15SM SCT024 BKN034 M02/M09 A3018 RMK SC4SC2 SLP230

CYHM;2011-02-19 23:00;CYHM 192300Z 30019G25KT 270V330 15SM SCT027 M03/M09 A3021 RMK SC4 SLP242

CYHM;2011-02-20 00:00;CYHM 200000Z 31012G20KT 15SM FEW026 M04/M09 A3024 RMK SC2 SLP254

CYHM;2011-02-20 01:00;CYHM 200100Z 30012KT 15SM FEW025 M04/M10 A3027 RMK SC2 SLP264

CYHM;2011-02-20 02:00;CYHM 200200Z 31013KT 15SM FEW025 M04/M10 A3029 RMK SC2 SLP270

CYHM;2011-02-20 03:00;CYHM 200300Z 31009KT 15SM FEW025 M05/M10 A3031 RMK SC1 SLP277

CYHM;2011-02-20 04:00;CYHM 200400Z 30005KT 15SM FEW025 FEW200 M06/M11 A3032 RMK SC1CI1 TR SC SLP282

CYHM;2011-02-20 05:00;CYHM 200500Z 29008KT 15SM FEW025 FEW200 M06/M11 A3034 RMK SC1CI1 TR SC SLP287

CYHM;2011-02-20 06:00;CYHM 200600Z 31005KT 15SM FEW020 FEW200 M07/M12 A3034 RMK SC1CI1 SLP289

CYHM;2011-02-20 07:00;CYHM 200700Z 32005KT 15SM FEW020 FEW200 M08/M12 A3035 RMK SC1CI1 SLP290

CYHM;2011-02-20 08:00;CYHM 200800Z 35003KT 15SM FEW210 M07/M12 A3034 RMK CI2 SLP288

CYHM;2011-02-20 09:00;CYHM 200900Z 00000KT 15SM FEW210 M09/M13 A3035 RMK CI2 SLP293

CYHM;2011-02-20 10:00;CYHM 201000Z 00000KT 15SM FEW210 M09/M13 A3034 RMK CI2 SLP289

CYHM;2011-02-20 11:00;CYHM 201100Z 33002KT 15SM FEW220 M09/M13 A3033 RMK CI2 SLP287

CYHM;2011-02-20 12:00;CYHM 201200Z 36002KT 15SM FEW100 FEW220 M09/M13 A3033 RMK AC1CI0 AC TR SLP286

CYHM;2011-02-20 13:00;CYHM 201300Z 02007KT 15SM FEW230 M08/M12 A3035 RMK CI1 SLP291

CYHM;2011-02-20 14:00;CYHM 201400Z 08007KT 15SM SCT250 M07/M11 A3031 RMK CI1 SLP278

CYHM;2011-02-20 15:00;CYHM 201500Z 10008KT 15SM SCT250 M06/M11 A3028 RMK CI2 SLP269

CYHM;2011-02-20 16:00;CYHM 201600Z 10004KT 030V140 15SM FEW230 M05/M10 A3027 RMK CI2 SLP266

CYHM;2011-02-20 17:00;CYHM 201700Z 09005KT 040V140 15SM FEW190 FEW230 M04/M10 A3023 RMK AC1CI2 AC TR SLP253

CYHM;2011-02-20 18:00;CYHM 201800Z 11004KT 050V140 15SM SCT170 BKN230 M04/M09 A3017 RMK AC2CI1 PRESFR SLP232

CYHM;2011-02-20 19:00;CYHM 201900Z 12004KT 070V170 15SM SCT170 BKN230 M02/M08 A3013 RMK AC3CI2 SLP218

CYHM;2011-02-20 20:00;CYHM 202000Z 15005KT 15SM SCT090 OVC110 M02/M09 A3011 RMK AC3AC5 SLP211

CYHM;2011-02-20 21:00;CYHM 202100Z 06008KT 15SM FEW075 OVC086 M03/M09 A3011 RMK AC2AS6 SLP210

CYHM;2011-02-20 22:00;CYHM 202200Z 06011KT 15SM FEW035 OVC074 M05/M09 A3008 RMK SC1AC7 SLP200

CYHM;2011-02-20 23:00;CYHM 202300Z 07012KT 15SM FEW035 BKN074 OVC090 M05/M08 A3005 RMK SC1AC6AS2 SLP192

CYHM;2011-02-21 00:00;CYHM 210000Z 06014KT 15SM FEW030 OVC058 M05/M08 A3002 RMK SC2SC6 SLP181

CYHM;2011-02-21 00:44;CYHM 210044Z 05015KT 5SM -SN OVC022 RMK SC8

CYHM;2011-02-21 00:54;CYHM 210054Z 05014KT 1 3/4SM -SN VV014 RMK SN8

CYHM;2011-02-21 01:00;CYHM 210100Z 05014KT 1 1/4SM -SN VV009 M04/M07 A3002 RMK SN8 VIS VRB 3/4-13/4 SLP179

CYHM;2011-02-21 01:20;CYHM 210120Z 05013KT 3/4SM -SN VV005 RMK SN8 VIS VRB 1/2-1

CYHM;2011-02-21 01:41;CYHM 210141Z 05014KT 1/2SM SN VV004 RMK SN8 VIS VRB 3/8-5/8

CYHM;2011-02-21 02:00;CYHM 210200Z 05014KT 1/2SM SN DRSN VV004 M04/M07 A3001 RMK SN8 VIS VRB 3/8-5/8 /S02/ SLP176

CYHM;2011-02-21 02:14;CYHM 210214Z CCA 05013KT 5/8SM -SN DRSN VV005 RESN RMK SN8

CYHM;2011-02-21 02:19;CYHM 210219Z 05012KT 3/4SM -SN VV008 RESN RMK SN8 VIS VRB 1/2-1

CYHM;2011-02-21 02:27;CYHM 210227Z 05012KT 1 1/4SM -SN VV010 RESN RMK SN8 VIS VRB 3/4-13/4

CYHM;2011-02-21 03:00;CYHM 210300Z 05012KT 1 1/4SM -SN FEW006 VV010 M04/M06 A2996 RESN RMK CF2SN6 VIS VRB 3/4-13/4 SLP160

CYHM;2011-02-21 03:19;CYHM 210319Z 04016KT 5SM -SN OVC006 RMK SF8

CYHM;2011-02-21 04:00;CYHM 210400Z 03012KT 3SM -SN DRSN OVC005 M05/M07 A2994 RMK SF8 VIS VRB 2 - 4 SLP154

CYHM;2011-02-21 04:35;CYHM 210435Z 05012KT 1 1/2SM -SN DRSN OVC008 RMK SN2SC6 VIS VRB 1 - 2

CYHM;2011-02-21 05:00;CYHM 210500Z 04011KT 1 1/2SM -SN DRSN OVC005 M05/M06 A2991 RMK SN2SF6 VIS VRB 1 - 2 /S03/ SLP141

CYHM;2011-02-21 06:00;CYHM 210600Z 04015KT 1 1/2SM -SN DRSN OVC006 M04/M06 A2986 RMK SN2SF6 VIS VRB 1 - 2 /S04/ SLP124

CYHM;2011-02-21 06:41;CYHM 210641Z 04018KT 1SM -SN DRSN VV004 RMK SN8 VIS VRB 3/4 - 11/4

CYHM;2011-02-21 07:00;CYHM 210700Z 04017G23KT 1SM -SN DRSN VV004 M06/M08 A2986 RMK SN8 VIS VRB 3/4 - 11/4 SLP125

CYHM;2011-02-21 07:08;CYHM 210708Z 04018G23KT 1 1/2SM -SN DRSN OVC012 RMK SN2SC6 VIS VRB 1 - 2

CYHM;2011-02-21 08:00;CYHM 210800Z 03017G24KT 3SM -SN DRSN OVC012 M06/M09 A2986 RMK SC8 VIS VRB 2 - 4 SLP125

CYHM;2011-02-21 09:00;CYHM 210900Z 03017KT 8SM -SN DRSN OVC009 M06/M09 A2985 RMK SC8 CIG RAG SLP120

CYHM;2011-02-21 10:00;CYHM 211000Z 02016G21KT 6SM -SN DRSN OVC010 M06/M09 A2987 RMK SC8 SLP126

CYHM;2011-02-21 10:34;CYHM 211034Z 03018G23KT 1 1/2SM -SN DRSN OVC011 RMK SN2SC6 VIS VRB 1 - 2

CYHM;2011-02-21 11:00;CYHM 211100Z 03018KT 1 1/2SM -SN DRSN BKN011 OVC021 M06/M09 A2988 RMK SN2SC6SC1 SLP129

CYHM;2011-02-21 11:31;CYHM 211131Z 03015KT 2SM -SN DRSN OVC011 RMK SC8

CYHM;2011-02-21 12:00;CYHM 211200Z 05022G28KT 3SM -SN DRSN OVC010 M07/M11 A2990 RMK SC8 VIS VRBL 1-2SM SLP139

CYHM;2011-02-21 13:00;CYHM 211300Z 05020KT 1 1/2SM -SN DRSN OVC023 M09/M13 A2993 RMK SC8 SLP147

CYHM;2011-02-21 13:15;CYHM 211315Z 03020KT 3/4SM -SN DRSN BKN011 OVC020 RMK SN2SC5SC2

CYHM;2011-02-21 13:40;CYHM 211340Z 04020G25KT 2SM -SN DRSN OVC015 RMK SN1SC7

CYHM;2011-02-21 14:00;CYHM 211400Z 05018G25KT 4SM -SN DRSN OVC015 M10/M14 A2994 RMK SC8 SLP150

CYHM;2011-02-21 14:26;CYHM 211426Z 05025KT 1 1/2SM -SN DRSN OVC015 RMK SN2SC6 VIS VRBL 1-2

CYHM;2011-02-21 15:00;CYHM 211500Z 05025G30KT 1 1/2SM -SN DRSN OVC015 M10/M13 A2994 RMK SN1SC7 SLP151

CYHM;2011-02-21 16:00;CYHM 211600Z CCA 05022KT 3/4SM -SN DRSN BKN009 OVC019 M10/M14 A2997 RMK SN2SC5SC2 VIS VRBL 1/2-1 SM SLP162

CYHM;2011-02-21 17:00;CYHM 211700Z 04020KT 1 1/2SM -SN DRSN BKN017 OVC022 M10/M14 A2999 RMK SN1SC5SC2 SLP170

CYHM;2011-02-21 17:21;CYHM 211721Z 05020G25KT 3SM -SN DRSN OVC020 RMK SC7

CYHM;2011-02-21 18:00;CYHM 211800Z 05016G22KT 5SM -SN DRSN BKN020 OVC024 M10/M14 A3003 RMK SC6SC2 SLP184

CYHM;2011-02-21 19:00;CYHM 211900Z 05015G26KT 7SM -SHSN DRSN BKN018 M10/M15 A2996 RMK SC7 SLP161

CYHM;2011-02-21 20:00;CYHM 212000Z 06018G26KT 12SM -SHSN DRSN OVC020 M10/M14 A2997 RMK SC8 SLP164

CYHM;2011-02-21 21:00;CYHM 212100Z 06017G26KT 15SM DRSN OVC020 M09/M14 A2998 RMK SC8 SLP167

CYHM;2011-02-21 22:00;CYHM 212200Z 05015G21KT 15SM DRSN OVC024 M09/M14 A2998 RMK SC8 SLP166

CYHM;2011-02-21 23:00;CYHM 212300Z 07015G23KT 12SM DRSN SCT024 OVC150 M09/M15 A2997 RMK SC3AC5 SLP163

CYHM;2011-02-22 00:00;CYHM 220000Z 05016G24KT 15SM DRSN FEW024 OVC160 M09/M15 A2999 RMK SC2AC6 SLP170

CYHM;2011-02-22 01:00;CYHM 220100Z 06015G21KT 15SM DRSN SCT026 OVC160 M09/M15 A3000 RMK SC3AC5 SLP175

CYHM;2011-02-22 02:00;CYHM 220200Z 08010KT 15SM BKN030 OVC140 M10/M15 A3004 RMK SC6AC2 SLP187

CYHM;2011-02-22 03:00;CYHM 220300Z 08008KT 15SM SCT030 OVC140 M10/M15 A3003 RMK SC3AC5 SLP185

CYHM;2011-02-22 04:00;CYHM 220400Z 05008KT 15SM SCT030 OVC140 M09/M15 A3004 RMK SC3AC5 SLP189

CYHM;2011-02-22 05:00;CYHM 220500Z 04015KT 15SM FEW024 OVC130 M10/M18 A3005 RMK SC2AC6 SLP192

CYHM;2011-02-22 06:00;CYHM 220600Z 05017KT 15SM FEW030 OVC150 M09/M17 A3004 RMK SC2AC6 SLP188

CYHM;2011-02-22 07:00;CYHM 220700Z 06016G22KT 15SM FEW026 OVC130 M09/M15 A3005 RMK SC1AC7 SLP192

CYHM;2011-02-22 08:00;CYHM 220800Z 05014KT 15SM BKN026 OVC130 M09/M15 A3009 RMK SC6AC2 SLP205

CYHM;2011-02-22 09:00;CYHM 220900Z 02011KT 15SM BKN024 OVC130 M10/M16 A3011 RMK SC7AC1 SLP212

CYHM;2011-02-22 09:28;CYHM 220928Z 03007KT 15SM -SHSN OVC022 RMK SC8

CYHM;2011-02-22 10:00;CYHM 221000Z 04009KT 15SM -SHSN OVC022 M11/M18 A3013 RMK SC8 SLP218

CYHM;2011-02-22 11:00;CYHM 221100Z 04009KT 10SM -SHSN OVC022 M11/M18 A3015 RMK SC8 SLP226

CYHM;2011-02-22 12:00;CYHM 221200Z 03012KT 8SM -SHSN OVC017 M12/M18 A3017 RMK SC8 SLP234

CYHM;2011-02-22 13:00;CYHM 221300Z CCA 02008KT 5SM -SHSN OVC018 M12/M18 A3020 RMK SC8 SLP244

CYHM;2011-02-22 14:00;CYHM 221400Z 03012KT 4SM -SHSN OVC017 M12/M17 A3021 RMK SC8 SLP247

CYHM;2011-02-22 15:00;CYHM 221500Z 03010KT 2 1/2SM -SHSN OVC017 M12/M16 A3023 RMK SC8 SLP255

CYHM;2011-02-22 16:00;CYHM 221600Z 03014KT 6SM -SHSN FEW011 SCT017 BKN120 M10/M16 A3025 RMK SC2SC2AC1 SLP261

CYHM;2011-02-22 16:39;CYHM 221639Z 05009KT 15SM FEW018 SCT210 RMK SC1CI1

CYHM;2011-02-22 17:00;CYHM 221700Z 04011KT 15SM FEW025 FEW120 FEW210 M10/M16 A3026 RMK SC1AC1CI1 SC TR SLP265

CYHM;2011-02-22 18:00;CYHM 221800Z 06013KT 15SM FEW045 FEW210 M09/M16 A3026 RMK SC1CI1 TR CU ASOCTD SLP262

CYHM;2011-02-22 19:00;CYHM 221900Z 06011KT 15SM FEW028 FEW120 SCT250 M09/M15 A3025 RMK SC1AC1CI1 AC TR SLP261

CYHM;2011-02-22 20:00;CYHM 222000Z 06011KT 15SM FEW028 BKN250 M08/M14 A3026 RMK SC1CI2 SC TR SLP263

CYHM;2011-02-22 21:00;CYHM 222100Z 06014KT 15SM FEW030 BKN250 M08/M14 A3025 RMK SC1CI2 SC TR SLP259

CYHM;2011-02-22 22:00;CYHM 222200Z 06011KT 15SM FEW028 FEW250 M07/M14 A3026 RMK SC1CI1 SC TR CI TR SLP262

CYHM;2011-02-22 23:00;CYHM 222300Z 06008KT 15SM FEW026 M08/M14 A3028 RMK SC1 SC TR SLP269

CYHM;2011-02-23 00:00;CYHM 230000Z 07006KT 15SM FEW026 M10/M15 A3029 RMK SC1 SC TR SLP274

CYHM;2011-02-23 01:00;CYHM 230100Z 06006KT 15SM SKC M09/M14 A3030 RMK SLP277

CYHM;2011-02-23 02:00;CYHM 230200Z 11003KT 15SM SKC M10/M13 A3031 RMK SLP283

CYHM;2011-02-23 03:00;CYHM 230300Z 06006KT 15SM SKC M11/M15 A3031 RMK SLP281

CYHM;2011-02-23 04:00;CYHM 230400Z 07009KT 15SM SKC M11/M15 A3031 RMK SLP281

CYHM;2011-02-23 05:00;CYHM 230500Z 07008KT 15SM SKC M10/M14 A3030 RMK SLP280

CYHM;2011-02-23 06:00;CYHM 230600Z 06008KT 15SM SKC M10/M14 A3031 RMK SLP280

CYHM;2011-02-23 07:00;CYHM 230700Z 07010KT 15SM SKC M10/M15 A3031 RMK SLP280

CYHM;2011-02-23 08:00;CYHM 230800Z 07007KT 15SM SKC M10/M15 A3031 RMK SLP281

CYHM;2011-02-23 09:00;CYHM 230900Z 06008KT 15SM SKC M10/M15 A3032 RMK SLP283

CYHM;2011-02-23 10:00;CYHM 231000Z 07009KT 15SM SKC M10/M16 A3032 RMK SLP284

CYHM;2011-02-23 11:00;CYHM 231100Z 07010KT 15SM SKC M10/M16 A3033 RMK SLP286

CYHM;2011-02-23 12:00;CYHM 231200Z 07012KT 15SM SKC M09/M16 A3032 RMK SLP283

CYHM;2011-02-23 13:00;CYHM 231300Z 06009KT 15SM SKC M08/M14 A3033 RMK SLP286

CYHM;2011-02-23 14:00;CYHM 231400Z 06010KT 15SM SKC M06/M13 A3033 RMK SLP287

CYHM;2011-02-23 15:00;CYHM 231500Z 06006KT 15SM SKC M05/M13 A3034 RMK SLP290

CYHM;2011-02-23 16:00;CYHM 231600Z 08002KT 15SM SKC M03/M11 A3033 RMK SLP287

CYHM;2011-02-23 17:00;CYHM 231700Z 07002KT 15SM SKC M02/M10 A3033 RMK SLP286

CYHM;2011-02-23 18:00;CYHM 231800Z 00000KT 15SM SKC M00/M10 A3030 RMK SLP276

CYHM;2011-02-23 19:00;CYHM 231900Z 00000KT 15SM SKC 01/M09 A3028 RMK SLP268

CYHM;2011-02-23 20:00;CYHM 232000Z 00000KT 15SM SKC 00/M10 A3026 RMK SLP263

CYHM;2011-02-23 21:00;CYHM 232100Z 09004KT 15SM SKC M01/M10 A3025 RMK SLP257

CYHM;2011-02-23 22:00;CYHM 232200Z 06004KT 15SM SKC M01/M10 A3024 RMK SLP254

CYHM;2011-02-23 23:00;CYHM 232300Z 07003KT 15SM SKC M02/M10 A3024 RMK SLP254

CYHM;2011-02-24 00:00;CYHM 240000Z 07004KT 15SM SKC M04/M11 A3024 RMK SLP255

CYHM;2011-02-24 01:00;CYHM 240100Z 07006KT 15SM SKC M05/M12 A3022 RMK SLP248

CYHM;2011-02-24 02:00;CYHM 240200Z 10005KT 15SM SCT190 M05/M11 A3020 RMK AC1 SLP243

CYHM;2011-02-24 03:00;CYHM 240300Z 18002KT 15SM FEW220 M06/M11 A3020 RMK CI1 CI TR SLP240

CYHM;2011-02-24 04:00;CYHM 240400Z 00000KT 15SM FEW210 M06/M11 A3017 RMK CI1 SLP231

CYHM;2011-02-24 05:00;CYHM 240500Z 00000KT 15SM FEW210 M06/M11 A3015 RMK CI1 SLP223

CYHM;2011-02-24 06:00;CYHM 240600Z 00000KT 15SM FEW160 FEW220 M07/M11 A3012 RMK AC1CI1 SLP213

CYHM;2011-02-24 07:00;CYHM 240700Z 00000KT 15SM FEW100 BKN250 M06/M11 A3011 RMK AC2CI4 SLP210

CYHM;2011-02-24 08:00;CYHM 240800Z 00000KT 15SM FEW080 OVC100 M06/M11 A3010 RMK AC2AC6 SLP204

CYHM;2011-02-24 09:00;CYHM 240900Z 19003KT 12SM OVC090 M05/M10 A3007 RMK AC8 SLP196

CYHM;2011-02-24 10:00;CYHM 241000Z 16006KT 10SM -SHSN OVC015 M05/M08 A3005 RMK SC8 SLP187

CYHM;2011-02-24 10:04;CYHM 241004Z 16006KT 1 1/2SM -SHSN OVC005 RMK SN2SF6 VIS VRB 1 - 2

CYHM;2011-02-24 10:18;CYHM 241018Z 16006KT 5SM -SHSN OVC054 RMK SC8

CYHM;2011-02-24 10:28;CYHM 241028Z 17004KT 1 1/2SM -SHSN OVC012 RMK SN2SC6 VIS VRB 1 - 2

CYHM;2011-02-24 10:39;CYHM 241039Z 17006KT 5SM -SHSN OVC015 RMK SC8

CYHM;2011-02-24 11:00;CYHM 241100Z 16003KT 6SM -SHSN OVC033 M04/M07 A3003 RMK SC8 SLP180

CYHM;2011-02-24 12:00;CYHM 241200Z 20002KT 3SM -SHSN BKN008 OVC015 M04/M07 A3001 RMK SF6SC2 SLP176

CYHM;2011-02-24 12:30;CYHM 241230Z 00000KT 1 1/2SM -SHSN BKN009 OVC019 RMK SN1SF6SC2

CYHM;2011-02-24 13:00;CYHM 241300Z 00000KT 2SM -SHSN OVC020 M03/M06 A3001 RMK SN1SC7 SLP174

CYHM;2011-02-24 14:00;CYHM 241400Z 22004KT 1 1/2SM -SHSN OVC009 M03/M06 A3001 RMK SN1SC7 SLP173

CYHM;2011-02-24 15:00;CYHM 241500Z 24003KT 4SM -SHSN BKN016 OVC023 M02/M05 A3000 RMK SC6SC2 SLP170

CYHM;2011-02-24 16:00;CYHM 241600Z 25004KT 4SM -SHSN SCT003 OVC019 M01/M04 A2999 RMK SF3SC5 PCPN VRY LGT SLP168

CYHM;2011-02-24 17:00;CYHM 241700Z 26006KT 2 1/2SM -SHSN BKN006 OVC016 M01/M04 A3000 RMK SF6SC2 PCPN VRY LGT SLP171

CYHM;2011-02-24 18:00;CYHM 241800Z 28008KT 4SM -SHSN BKN007 OVC032 M01/M04 A2996 RMK SF6SC2 SLP158

CYHM;2011-02-24 18:23;CYHM 241823Z 26006KT 5SM HZ FEW007 OVC033 RMK SF2SC6

CYHM;2011-02-24 19:00;CYHM 241900Z 27008KT 5SM HZ FEW012 OVC040 00/M03 A2994 RMK SC2SC6 SLP152

CYHM;2011-02-24 20:00;CYHM 242000Z 29008KT 6SM HZ OVC029 01/M03 A2995 RMK SC8 SLP153

CYHM;2011-02-24 21:00;CYHM 242100Z 27004KT 6SM HZ FEW017 OVC038 01/M02 A2997 RMK SC2SC6 SLP158

CYHM;2011-02-24 22:00;CYHM 242200Z 31004KT 6SM HZ OVC038 01/M03 A2997 RMK SC8 SLP160

CYHM;2011-02-24 23:00;CYHM 242300Z 32004KT 6SM HZ BKN021 OVC034 01/M04 A2997 RMK SC5SC3 SLP161

CYHM;2011-02-25 00:00;CYHM 250000Z 35010KT 8SM FEW022 OVC031 00/M05 A2997 RMK SC1SC7 SLP158

CYHM;2011-02-25 01:00;CYHM 250100Z 34007KT 8SM OVC026 00/M05 A3000 RMK SC8 SLP169

CYHM;2011-02-25 02:00;CYHM 250200Z 36008KT 10SM OVC023 M00/M05 A3001 RMK SC8 SLP172

CYHM;2011-02-25 03:00;CYHM 250300Z 02009KT 12SM OVC021 M00/M05 A2998 RMK SC8 SLP163

CYHM;2011-02-25 04:00;CYHM 250400Z 02011KT 10SM OVC021 M01/M06 A2993 RMK SC8 SLP147

CYHM;2011-02-25 05:00;CYHM 250500Z 03008KT 12SM OVC024 M01/M06 A2994 RMK SC8 SLP149

CYHM;2011-02-25 06:00;CYHM 250600Z 04010KT 9SM OVC027 M01/M06 A2989 RMK SC8 SLP131

CYHM;2011-02-25 07:00;CYHM 250700Z 05012KT 10SM OVC028 M01/M06 A2987 RMK SC8 SLP124

CYHM;2011-02-25 08:00;CYHM 250800Z 05020KT 10SM OVC024 M01/M07 A2979 RMK SC8 PRESFR SLP098

CYHM;2011-02-25 09:00;CYHM 250900Z 05016G22KT 10SM OVC020 M01/M07 A2975 RMK SC8 SLP083

CYHM;2011-02-25 10:00;CYHM 251000Z 05017G24KT 9SM OVC018 M01/M07 A2973 RMK SC8 SLP077

CYHM;2011-02-25 10:25;CYHM 251025Z 05019KT 7SM -SHSN OVC018 RMK SC8

CYHM;2011-02-25 11:00;CYHM 251100Z 03017G22KT 3SM -SHSN BKN006 OVC019 M02/M06 A2971 RMK SF6SC2 SLP072

CYHM;2011-02-25 11:20;CYHM 251120Z 03016KT 2SM -SN BLSN BKN004 OVC014 RMK SF6SC2

CYHM;2011-02-25 11:45;CYHM 251145Z 02018KT 1SM -SN BLSN BKN003 OVC012 RMK SN2SF5SC2

CYHM;2011-02-25 11:53;CYHM 251153Z 03020KT 1/8SM SN +BLSN BKN003 OVC011 RMK SN3SF4SC1

CYHM;2011-02-25 12:00;CYHM 251200Z 03020KT 1/8SM SN +BLSN BKN003 OVC011 M03/M06 A2971 RMK SN3SF4SC1 SLP071

CYHM;2011-02-25 12:14;CYHM 251214Z 02020G25KT 1/2SM SN DRSN BKN004 OVC015 RMK SN2SF4SC2 VSB VRB 1/4-3/4SM

CYHM;2011-02-25 12:33;CYHM 251233Z 03024KT 1/8SM SN DRSN BKN003 OVC011 RMK SN5SF2SC1

CYHM;2011-02-25 13:00;CYHM 251300Z 02025G32KT 1/8SM SN DRSN BKN005 OVC015 M03/M05 A2968 RMK SN3SF3SC2 SLP059

CYHM;2011-02-25 13:08;CYHM 251308Z 03022G27KT 1/2SM SN DRSN BKN007 OVC020 RMK SN2SF4SC2

CYHM;2011-02-25 13:20;CYHM 251320Z 03022G30KT 1SM -SN DRSN BKN008 OVC020 RMK SN2SF4SC2 RESN

CYHM;2011-02-25 13:33;CYHM 251333Z 04018G25KT 3/4SM -SN DRSN BKN009 OVC015 RMK SN2SF4SC2

CYHM;2011-02-25 13:51;CYHM 251351Z 03018G24KT 3/8SM -SN BLSN VV006 RMK SN8

CYHM;2011-02-25 14:00;CYHM 251400Z 02019G25KT 3/8SM -SN BLSN VV005 M03/M05 A2968 RMK SN8 /S04/ SLP060

CYHM;2011-02-25 14:07;CYHM 251407Z 03019G27KT 1/4SM SN +BLSN VV004 RMK SN8 VIS VRB 1/8-3/8

CYHM;2011-02-25 15:00;CYHM 251500Z 02019G24KT 3/8SM SN BLSN BKN006 OVC010 M03/M05 A2969 RMK SN6SC1SC2 SLP066

CYHM;2011-02-25 15:54;CYHM 251554Z 02016KT 5/8SM -SN BLSN BKN007 OVC011 RESN RMK SN4SC2SC2

CYHM;2011-02-25 16:00;CYHM 251600Z 02016KT 5/8SM -SN BLSN BKN007 OVC011 M03/M05 A2971 RESN RMK SN4SC2SC2 /S06/ SLP070

CYHM;2011-02-25 16:29;CYHM 251629Z 02015KT 1SM -SN DRSN BKN008 OVC013 RMK SN3SC2SC2

CYHM;2011-02-25 17:00;CYHM 251700Z 36012KT 330V030 1 1/4SM -SN DRSN BKN010 OVC017 M02/M05 A2974 REBLSN RMK SN2SC3SC2 VIS VRB 3/4-13/4 SLP082

CYHM;2011-02-25 17:16;CYHM 251716Z 36013KT 330V030 2SM -SN DRSN BKN012 OVC019 RMK SN2SC3SC3 VIS VRB 11/2-21/2

CYHM;2011-02-25 17:32;CYHM 251732Z 36013KT 330V030 4SM -SN DRSN FEW009 BKN014 OVC022 RMK SC1SC5SC2

CYHM;2011-02-25 17:52;CYHM 251752Z 35014KT 1 3/4SM -SN DRSN VV014 RMK SN8

CYHM;2011-02-25 18:00;CYHM 251800Z 35014KT 1 3/4SM -SN DRSN VV014 M01/M05 A2978 RMK SN8 /S07/ SLP096

CYHM;2011-02-25 18:08;CYHM 251808Z 34012KT 6SM -SN FEW009 BKN015 OVC025 RMK CF1SC5SC3

CYHM;2011-02-25 19:00;CYHM 251900Z 33014KT 3SM -SN DRSN FEW009 OVC018 M01/M05 A2983 RMK CF1SC8 CF TR SLP112

CYHM;2011-02-25 20:00;CYHM 252000Z CCA 32012KT 10SM DRSN FEW016 BKN028 BKN090 M00/M06 A2987 RMK CF2SC4AC1 PRESRR SLP125

CYHM;2011-02-25 20:33;CYHM 252033Z 31017KT 7SM -SHSN DRSN BKN025 RMK SC7 CU ASOCTD

CYHM;2011-02-25 21:00;CYHM 252100Z 30016KT 10SM -SHSN DRSN BKN028 M02/M07 A2991 RMK SC6 CU ASOCTD SLP140

CYHM;2011-02-25 22:00;CYHM 252200Z CCA 30014G19KT 7SM -SHSN DRSN SCT025 BKN120 M03/M09 A2997 RMK SC4AC2 CU ASOCTD PRESRR SLP158

CYHM;2011-02-25 23:00;CYHM 252300Z 29012KT 15SM DRSN FEW025 BKN130 M04/M11 A2999 RMK SC1AC4 SLP167

CYHM;2011-02-26 00:00;CYHM 260000Z 30010KT 15SM DRSN SCT120 BKN180 M06/M12 A3003 RMK AC3AC2 SLP183

CYHM;2011-02-26 01:00;CYHM 260100Z 29013KT 15SM DRSN BKN110 M06/M12 A3005 RMK AC6 SLP189

CYHM;2011-02-26 02:00;CYHM 260200Z 29008KT 15SM BKN120 M06/M13 A3007 RMK AC6 SLP197

CYHM;2011-02-26 03:00;CYHM 260300Z 22008KT 15SM FEW110 M10/M15 A3011 RMK AC2 COLD FROPA SLP211

CYHM;2011-02-26 04:00;CYHM 260400Z 22007KT 15SM FEW210 M10/M14 A3011 RMK CI1 SLP212

CYHM;2011-02-26 05:00;CYHM 260500Z 22005KT 15SM SKC M10/M14 A3012 RMK SLP214

CYHM;2011-02-26 06:00;CYHM 260600Z 23006KT 15SM BKN028 M11/M14 A3013 RMK SC7 SLP218

CYHM;2011-02-26 07:00;CYHM 260700Z 24005KT 15SM -SHSN OVC029 M11/M14 A3014 RMK SC8 SLP222

CYHM;2011-02-26 08:00;CYHM 260800Z 22003KT 6SM -SHSN FEW025 OVC047 M09/M13 A3010 RMK SC2SC6 SLP209

CYHM;2011-02-26 09:00;CYHM 260900Z 20004KT 15SM -SHSN FEW015 BKN021 OVC043 M09/M12 A3009 RMK CF2SC5SC2 SLP204

CYHM;2011-02-26 10:00;CYHM 261000Z 26002KT 5SM -SHSN FEW010 OVC023 M09/M12 A3010 RMK CF2SC6 SLP205

CYHM;2011-02-26 11:00;CYHM 261100Z 21004KT 7SM -SHSN FEW020 BKN140 M09/M12 A3009 RMK SC2AC3 SLP202

CYHM;2011-02-26 12:00;CYHM 261200Z 21004KT 7SM -SHSN BKN035 OVC055 M10/M13 A3007 RMK SC5SC3 SLP197

CYHM;2011-02-26 13:00;CYHM 261300Z 24005KT 6SM -SHSN BKN003 OVC110 M09/M11 A3008 RMK SC6AC2 PCPN VRY LGT SLP202

CYHM;2011-02-26 13:19;CYHM 261319Z 25006KT 3/4SM -SHSN OVC003 RMK SN4SC4

CYHM;2011-02-26 13:38;CYHM 261338Z 24006KT 1 1/2SM -SHSN OVC002 RMK SN3SC5

CYHM;2011-02-26 14:00;CYHM 261400Z 24004KT 2SM -SN SCT002 BKN020 OVC028 M07/M10 A3010 RMK SN2SF2SC2SC2 SUN DIMLY VISBL SLP209

CYHM;2011-02-26 15:00;CYHM 261500Z 24005KT 4SM -SN FEW030 BKN054 OVC090 M06/M09 A3011 RMK SC2SC3AC2 PCPN VRY LGT SUN DIMLY VISBL SLP212

CYHM;2011-02-26 16:00;CYHM 261600Z 23003KT 6SM -SN BKN041 BKN110 M05/M09 A3010 RMK SC5AC2 PCPN VRY LGT SLP209

CYHM;2011-02-26 17:00;CYHM 261700Z 25003KT 3SM -SN FEW012 BKN030 OVC040 M03/M08 A3010 RMK SC2SC3SC2 PCPN VRY LGT SLP210

CYHM;2011-02-26 17:22;CYHM 261722Z 00000KT 2SM -SN FEW025 BKN030 OVC040 RMK SC2SC3SC2 PCPN VRY LGT

CYHM;2011-02-26 18:00;CYHM 261800Z 23002KT 2SM -SN FEW025 OVC030 M03/M07 A3007 RMK SC2SC6 PCPN VRY LGT SLP197

CYHM;2011-02-26 19:00;CYHM 261900Z 00000KT 1 1/2SM -SN SCT012 OVC025 M03/M06 A3004 RMK SN2SC2SC4 SLP186

CYHM;2011-02-26 19:26;CYHM 261926Z 18002KT 1 1/2SM -SN BKN010 OVC024 RMK SN2SC4SC2

CYHM;2011-02-26 19:47;CYHM 261947Z 17004KT 2SM -SN BKN014 OVC025 RMK SN2SC5SC2 VIS VRB 11/2-21/2

CYHM;2011-02-26 20:00;CYHM 262000Z 16004KT 2 1/2SM -SN BKN014 OVC022 M03/M06 A2999 RMK SN1SC5SC2 VIS VRB 13/4-4 SLP172

CYHM;2011-02-26 21:00;CYHM 262100Z 16005KT 3SM -SN SCT014 BKN020 OVC110 M03/M06 A2996 RMK SC4SC2AS2 SLP160

CYHM;2011-02-26 21:39;CYHM 262139Z 16006KT 3SM -SN BKN011 OVC020 RMK SC6SC2

CYHM;2011-02-26 22:00;CYHM 262200Z 18008KT 6SM -SHSN SCT011 BKN020 OVC060 M03/M07 A2994 RMK SC4SC2SC2 SLP153

CYHM;2011-02-26 22:37;CYHM 262237Z 18005KT 1 1/2SM -SN FEW010 VV014 RMK SC2SN6

CYHM;2011-02-26 22:49;CYHM 262249Z 18006KT 1SM -SN VV009 RMK SN8

CYHM;2011-02-26 22:55;CYHM 262255Z 18005KT 3/4SM -SN VV008 RMK SN8 VIS VRB 1/2-1

CYHM;2011-02-26 23:00;CYHM 262300Z 19005KT 3/4SM -SN VV008 M03/M06 A2993 RMK SN8 VIS VRB 1/2-1 SLP150

CYHM;2011-02-26 23:19;CYHM 262319Z 18005KT 1SM -SN VV010 RMK SN8 VIS VRB 3/4-11/4

CYHM;2011-02-26 23:40;CYHM 262340Z 18005KT 3/4SM -SN VV008 RMK SN8 VIS VRB 1/2-1

CYHM;2011-02-27 00:00;CYHM 270000Z 19006KT 3/4SM -SN VV007 M04/M06 A2994 RMK SN8 VIS VRB 1/2-1 SLP152

CYHM;2011-02-27 01:00;CYHM 270100Z 18004KT 1 1/4SM -SN VV007 M04/M06 A2992 RMK SN8 SLP147

CYHM;2011-02-27 01:30;CYHM 270130Z 18003KT 1 1/2SM -SN VV008 RMK SN8

CYHM;2011-02-27 02:00;CYHM 270200Z 17002KT 1 1/2SM -SN VV010 M04/M06 A2989 RMK SN8 SLP136

CYHM;2011-02-27 02:25;CYHM 270225Z 16002KT 3SM -SN OVC040 RMK SC8

CYHM;2011-02-27 03:00;CYHM 270300Z 16002KT 4SM -SN OVC048 M04/M06 A2987 RMK SC8 SLP128

CYHM;2011-02-27 04:00;CYHM 270400Z 17003KT 1 1/2SM -SN OVC045 M04/M06 A2985 RMK SN2SC6 VIS VRB 1 - 2 /S01/ SLP122

CYHM;2011-02-27 04:15;CYHM 270415Z 16003KT 5SM -SN OVC039 RMK SC8

CYHM;2011-02-27 04:34;CYHM 270434Z 19005KT 1 1/2SM -SN OVC012 RMK SN2SC6 VIS VRB 1 - 2

CYHM;2011-02-27 05:00;CYHM 270500Z 19005KT 1 1/2SM -SN OVC031 M04/M06 A2984 RMK SN2SC6 VIS VRB 1 - 2 SLP118

CYHM;2011-02-27 05:05;CYHM 270505Z 20005KT 4SM -SN OVC030 RMK SC8

CYHM;2011-02-27 06:00;CYHM 270600Z 22005KT 4SM -SN OVC023 M04/M06 A2985 RMK SC8 /S02/ SLP122

CYHM;2011-02-27 07:00;CYHM 270700Z 20005KT 5SM -SN FEW017 OVC043 M04/M06 A2985 RMK CF2SC6 SLP122

CYHM;2011-02-27 07:33;CYHM 270733Z 21003KT 5SM -SN SCT005 OVC012 RMK SF3SC5

CYHM;2011-02-27 08:00;CYHM 270800Z 22005KT 6SM -SN OVC007 M04/M06 A2986 RMK SF8 CIG RAG SLP124

CYHM;2011-02-27 09:00;CYHM 270900Z 21006KT 6SM -SN OVC007 M04/M06 A2985 RMK SF8 SLP121

CYHM;2011-02-27 09:35;CYHM 270935Z 21007KT 6SM -SN FEW006 OVC023 RMK SF2SC6

CYHM;2011-02-27 10:00;CYHM 271000Z 23005KT 6SM -SN FEW005 OVC017 M03/M05 A2988 RMK SF2SC6 SLP128

CYHM;2011-02-27 11:00;CYHM 271100Z 20004KT 8SM -SN OVC018 M03/M05 A2988 RMK SC8 SLP131

CYHM;2011-02-27 12:00;CYHM 271200Z 19006KT 5SM -SN BKN017 BKN080 M04/M07 A2989 RMK SC6AC2 SLP133

CYHM;2011-02-27 12:25;CYHM 271225Z 18004KT 7SM FEW017 BKN076 RMK SC2AC6

CYHM;2011-02-27 13:00;CYHM 271300Z 19006KT 6SM BR FEW017 BKN076 M03/M05 A2990 RMK SC1AC6 SLP137

CYHM;2011-02-27 13:32;CYHM 271332Z 20007KT 6SM -SHSN OVC072 RMK AC8

CYHM;2011-02-27 14:00;CYHM 271400Z 20008KT 4SM -SHSN SCT025 OVC070 M02/M05 A2992 RMK SC3AC5 SLP143

CYHM;2011-02-27 14:26;CYHM 271426Z 21007KT 5SM -SHSN BKN010 OVC070 RMK SC5AC3

CYHM;2011-02-27 15:00;CYHM 271500Z 20006KT 4SM -SHSN BKN009 OVC042 M01/M04 A2993 RMK SC6SC2 SLP146

CYHM;2011-02-27 16:00;CYHM 271600Z 20008KT 3SM -SHSN OVC006 M01/M03 A2991 RMK SC8 SLP142

CYHM;2011-02-27 17:00;CYHM 271700Z 20007KT 2 1/2SM -SHSN OVC005 M00/M02 A2991 RMK SC8 SLP141

CYHM;2011-02-27 17:48;CYHM 271748Z 20008KT 3SM -SN BKN006 OVC015 RMK SC6SC2

CYHM;2011-02-27 18:00;CYHM 271800Z 19007KT 3SM -SN BKN006 OVC015 01/M01 A2989 RMK SC6SC2 SLP132

CYHM;2011-02-27 18:51;CYHM 271851Z 20008KT 5SM -SN SCT009 OVC021 RMK SC3SC5

CYHM;2011-02-27 19:00;CYHM 271900Z 20008KT 5SM -SN SCT009 OVC021 01/M01 A2987 RMK SC3SC5 SLP125

CYHM;2011-02-27 20:00;CYHM 272000Z 20010KT 5SM HZ FEW009 OVC016 02/M01 A2986 RMK SC2SC6 SLP123

CYHM;2011-02-27 20:32;CYHM 272032Z 20010KT 4SM HZ FEW009 OVC013 RMK SC2SC6

CYHM;2011-02-27 21:00;CYHM 272100Z 20010KT 4SM HZ OVC011 02/M02 A2984 RMK SC8 SLP116

CYHM;2011-02-27 22:00;CYHM 272200Z 20008KT 4SM HZ OVC009 02/M02 A2984 RMK SC8 SLP115

CYHM;2011-02-27 23:00;CYHM 272300Z 20008KT 4SM HZ OVC009 01/M02 A2984 RMK SC8 SLP117

CYHM;2011-02-27 23:37;CYHM 272337Z 20007KT 5SM HZ BKN010 OVC026 RMK SC6SC2

CYHM;2011-02-28 00:00;CYHM 280000Z 20006KT 6SM HZ SCT012 OVC025 02/M02 A2985 RMK SC4SC4 SLP118

CYHM;2011-02-28 01:00;CYHM 280100Z 16002KT 6SM HZ FEW012 OVC026 01/M01 A2983 RMK SC2SC6 SLP113

CYHM;2011-02-28 02:00;CYHM 280200Z 13005KT 6SM HZ FEW012 OVC026 01/M01 A2980 RMK SC2SC6 SLP102

CYHM;2011-02-28 02:53;CYHM 280253Z 08002KT 5SM -SHRA HZ SCT026 BKN040 OVC072 RMK SC3SC3AC2

CYHM;2011-02-28 03:00;CYHM 280300Z 06002KT 6SM -SHRA HZ SCT026 BKN042 OVC072 01/M01 A2978 RMK SC3SC3AC2 PCPN VRY LGT SLP096

CYHM;2011-02-28 04:00;CYHM 280400Z 05007KT 7SM BKN045 OVC058 01/M01 A2974 RMK SC6SC2 SLP080

CYHM;2011-02-28 05:00;CYHM 280500Z 05007KT 9SM BKN042 OVC090 01/M01 A2972 RMK SC6AC2 SLP074

CYHM;2011-02-28 06:00;CYHM 280600Z CCA 04009KT 2SM HZ OVC039 01/M01 A2965 RMK FG1SC7 PRESFR SLP051

CYHM;2011-02-28 07:00;CYHM 280700Z 04011KT 3SM -SHRA BR OVC026 01/M01 A2962 RMK SC8 VIS VRB 2 - 4 SLP041

CYHM;2011-02-28 07:25;CYHM 280725Z 04011KT 1 1/2SM SHRA BR OVC023 RMK FG2SC6 VIS VRB 1 - 2

CYHM;2011-02-28 07:45;CYHM 280745Z 05008KT 1 1/2SM -SHRA BR SCT002 OVC019 RERA RMK FG2SF2SC5 VIS VRB 1 - 2

CYHM;2011-02-28 08:00;CYHM 280800Z 05013KT 1 1/2SM -SHRA BR FEW002 OVC017 01/M01 A2957 RERA RMK FG2SF1SC6 VIS VRB 1 - 2 PRESFR SLP023

CYHM;2011-02-28 09:00;CYHM 280900Z 03013KT 1 1/2SM -SHRA BR OVC002 01/M01 A2950 RMK FG2SF6 VIS VRB 1 - 2 PRESFR SLP999

CYHM;2011-02-28 10:00;CYHM 281000Z 01015KT 1 1/2SM SHRA BR OVC003 02/M00 A2949 RMK FG2SF6 VIS VRB 1 - 2 SLP996

CYHM;2011-02-28 10:25;CYHM 281025Z 02016KT 1 1/2SM -SHRA BR SCT002 OVC025 RERA RMK FG2SF2SC4 VIS VRB 1 - 2

CYHM;2011-02-28 11:00;CYHM 281100Z CCA 06018KT 1 1/2SM -SHRA BR SCT003 OVC020 02/M00 A2942 RERA RMK FG2SF2SC4 VIS VRB 1 - 2 PRESFR SLP972

CYHM;2011-02-28 11:13;CYHM 281113Z 04015KT 1 1/2SM -SHRA BR BKN002 OVC020 RMK FG2SF4SC2

CYHM;2011-02-28 11:34;CYHM 281134Z 04013KT 1/2SM -SHRA FG OVC001 RMK FG6SF2 VIS VRB 1/4-3/4SM

CYHM;2011-02-28 11:47;CYHM 281147Z 03012KT 1/8SM -SHRA FG VV001 RMK FG8

CYHM;2011-02-28 12:00;CYHM 281200Z CCA 02014KT 1/4SM -SHRA FG OVC001 01/M01 A2942 RMK FG6SF2 CIG 150FT SLP972

CYHM;2011-02-28 12:08;CYHM 281208Z 01015KT 1/2SM -SHRA FG OVC002 RMK FG5SF3

CYHM;2011-02-28 12:18;CYHM 281218Z 01012KT 1 1/2SM -SHRA BR OVC003 RMK FG3SF5

CYHM;2011-02-28 12:36;CYHM 281236Z 32012KT 2SM -SHRA BR OVC005 RMK FG2SF6

CYHM;2011-02-28 13:00;CYHM 281300Z 31012KT 2 1/2SM -SHRA BR SCT007 OVC038 02/M00 A2951 RMK SF3SC5 PRESRR SLP001

CYHM;2011-02-28 13:48;CYHM 281348Z 33008KT 7SM BKN040 OVC080 RMK SC6AC2

CYHM;2011-02-28 14:00;CYHM 281400Z 32012KT 6SM BR BKN007 BKN040 OVC082 03/01 A2951 RMK SF6SC2AC1 SLP999

CYHM;2011-02-28 14:27;CYHM 281427Z 32010KT 6SM BR SCT009 OVC044 RMK SF4SC4

CYHM;2011-02-28 15:00;CYHM 281500Z 32012KT 10SM FEW010 BKN028 OVC070 02/00 A2957 RMK SF2SC5AC2 PRESRR SLP022

CYHM;2011-02-28 16:00;CYHM 281600Z CCA 32012KT 15SM BKN015 OVC038 02/M01 A2964 RMK SC6SC2 SLP045

CYHM;2011-02-28 17:00;CYHM 281700Z 32014KT 15SM FEW016 BKN062 BKN210 02/M02 A2971 RMK CU2SC4CI1 PRESRR SLP066

CYHM;2011-02-28 18:00;CYHM 281800Z 32012KT 15SM FEW025 SCT055 BKN075 BKN210 01/M05 A2974 RMK CU2SC2AC2CI1 SLP080

CYHM;2011-02-28 19:00;CYHM 281900Z 30014KT 15SM FEW018 BKN024 BKN250 00/M05 A2976 RMK SF1SC6CI1 SLP087

CYHM;2011-02-28 20:00;CYHM 282000Z 31017G26KT 15SM FEW022 FEW120 SCT250 01/M07 A2981 RMK CF1AC1CI1 CUFRA SLP104

CYHM;2011-02-28 21:00;CYHM 282100Z 30010G17KT 15SM FEW028 FEW250 00/M07 A2988 RMK CF1CI1 CUFRA SLP126

CYHM;2011-02-28 22:00;CYHM 282200Z 30015G21KT 15SM FEW028 FEW250 M01/M08 A2991 RMK CF1CI1 CF TR SLP139

CYHM;2011-02-28 23:00;CYHM 282300Z 29014G21KT 15SM FEW026 FEW250 M02/M08 A2997 RMK SC1CI1 SC TR CI TR SLP156

CYHM;2011-03-01 01:00;CYHM 010100Z 31013KT 15SM FEW024 FEW250 M03/M09 A3004 RMK CF1CI1 CUFRA TR CI TR SLP184

CYHM;2011-03-01 02:00;CYHM 010200Z 33010KT 15SM FEW250 M04/M09 A3008 RMK CI1 CI TR SLP195

CYHM;2011-03-01 03:00;CYHM 010300Z 30010KT 15SM FEW250 M04/M10 A3010 RMK CI1 CI TR SLP203

CYHM;2011-03-01 04:00;CYHM 010400Z 32008KT 15SM FEW250 M04/M10 A3012 RMK CI1 CI TR SLP209

CYHM;2011-03-01 05:00;CYHM 010500Z 33009KT 15SM FEW250 M04/M10 A3014 RMK CI1 CI TR SLP216

CYHM;2011-03-01 06:00;CYHM 010600Z 31007KT 15SM FEW250 M05/M10 A3016 RMK CI1 CI TR SLP225

CYHM;2011-03-01 07:00;CYHM 010700Z 33004KT 15SM FEW250 M06/M11 A3021 RMK CI1 CI TR SLP240

CYHM;2011-03-01 08:00;CYHM 010800Z 32004KT 15SM FEW250 M06/M11 A3023 RMK CI1 CI TR SLP248

CYHM;2011-03-01 09:00;CYHM 010900Z 30003KT 15SM FEW250 M06/M11 A3025 RMK CI1 CI TR SLP255

CYHM;2011-03-01 10:00;CYHM 011000Z 29003KT 15SM FEW250 M07/M11 A3027 RMK CI1 CI TR SLP263

CYHM;2011-03-01 11:00;CYHM 011100Z 00000KT 15SM FEW250 M08/M11 A3028 RMK CI1 CI TR SLP265

CYHM;2011-03-01 12:00;CYHM 011200Z 00000KT 15SM FEW250 M08/M11 A3028 RMK CI1 SLP269

CYHM;2011-03-01 13:00;CYHM 011300Z 26002KT 15SM SCT220 M07/M10 A3029 RMK CI2 SLP272

CYHM;2011-03-01 14:00;CYHM 011400Z 24002KT 15SM SCT220 M06/M10 A3030 RMK CI2 SLP273

CYHM;2011-03-01 15:00;CYHM 011500Z 24008KT 15SM FEW025 FEW180 BKN220 M04/M09 A3030 RMK CU1AC1CI2 CU TR SLP275

CYHM;2011-03-01 16:00;CYHM 011600Z 24012KT 15SM FEW025 FEW170 BKN220 M03/M09 A3030 RMK CU2AC1CI2 SLP273

CYHM;2011-03-01 17:00;CYHM 011700Z 23012KT 15SM FEW030 FEW150 BKN220 M02/M09 A3028 RMK CU1AC1CI2 CU TR SLP268

CYHM;2011-03-01 18:00;CYHM 011800Z 24008KT 15SM FEW030 FEW130 SCT220 M01/M08 A3026 RMK CU1AC1CI2 CU TR SLP258

CYHM;2011-03-01 19:00;CYHM 011900Z 25009KT 15SM FEW035 FEW240 M01/M08 A3022 RMK CU1CI1 CU TR SLP247

CYHM;2011-03-01 20:00;CYHM 012000Z 19014KT 15SM FEW025 FEW250 M01/M07 A3020 RMK CU1CI1 CU TR SLP238

CYHM;2011-03-01 21:00;CYHM 012100Z 18015G21KT 15SM FEW025 FEW250 M01/M07 A3016 RMK CU1CI1 CU TR SLP226

CYHM;2011-03-01 22:00;CYHM 012200Z 22011KT 15SM FEW250 M01/M07 A3016 RMK CI1 SLP224

CYHM;2011-03-01 23:00;CYHM 012300Z 22013KT 15SM FEW084 FEW250 M01/M08 A3013 RMK AC1CI1 AC TR SLP216

CYHM;2011-03-02 00:00;CYHM 020000Z 21012KT 15SM FEW250 M02/M08 A3010 RMK CI1 SLP206

CYHM;2011-03-02 01:00;CYHM 020100Z 21012KT 15SM FEW250 M02/M08 A3007 RMK CI1 SLP196

CYHM;2011-03-02 02:00;CYHM 020200Z 22013KT 15SM FEW250 M02/M07 A3002 RMK CI1 SLP181

CYHM;2011-03-02 03:00;CYHM 020300Z 22013G19KT 15SM SCT200 M02/M07 A3000 RMK CI1 SLP170

CYHM;2011-03-02 04:00;CYHM 020400Z 23015KT 15SM SCT200 M01/M07 A2998 RMK CI1 SLP163

CYHM;2011-03-02 05:00;CYHM 020500Z 24015G21KT 15SM BKN200 01/M06 A2997 RMK CI2 SLP161

CYHM;2011-03-02 06:00;CYHM 020600Z 23015KT 15SM BKN200 02/M05 A2995 RMK CI1 SLP152

CYHM;2011-03-02 07:00;CYHM 020700Z 25015G21KT 15SM SCT180 BKN200 01/M04 A2994 RMK AC1CI1 SLP147

CYHM;2011-03-02 08:00;CYHM 020800Z 24015G22KT 15SM BKN036 BKN180 01/M04 A2993 RMK SC2AC1 SLP146

CYHM;2011-03-02 09:00;CYHM 020900Z 25013KT 15SM SCT036 BKN220 01/M04 A2993 RMK SC2CI1 SLP144

CYHM;2011-03-02 10:00;CYHM 021000Z 26012KT 15SM BKN037 01/M04 A2995 RMK SC6 SLP153

CYHM;2011-03-02 11:00;CYHM 021100Z 27009KT 15SM SCT038 BKN210 01/M04 A2998 RMK SC2CI2 SLP162

CYHM;2011-03-02 12:00;CYHM 021200Z 31020G25KT 15SM BKN025 BKN044 M00/M06 A3003 RMK SC6SC2 SLP178

CYHM;2011-03-02 13:00;CYHM 021300Z 28020G25KT 15SM FEW024 BKN042 BKN210 M01/M08 A3008 RMK CU2SC2CI1 SLP195

CYHM;2011-03-02 14:00;CYHM 021400Z 29020G30KT 10SM -SHSN SCT025 BKN034 BKN042 M02/M09 A3013 RMK CU3SC2SC2 SLP214

CYHM;2011-03-02 15:00;CYHM 021500Z 30022G32KT 15SM -SHSN FEW028 SCT038 M04/M13 A3019 RMK CU2SC2 PRESRRPCPN VRY LGT SLP236

CYHM;2011-03-02 15:05;CYHM 021505Z 33017G27KT 15SM FEW036 SCT042 RMK CU2SC2

CYHM;2011-03-02 16:00;CYHM 021600Z 33018G32KT 15SM FEW025 BKN035 M05/M13 A3024 RMK CU2SC6 SLP252

CYHM;2011-03-02 16:02;CYHM 021602Z 33026G34KT 15SM -SHSN FEW018 BKN038 RMK CU2SC6

CYHM;2011-03-02 16:48;CYHM 021648Z 32022G27KT 15SM FEW030 SCT042 RMK CU2SC2

CYHM;2011-03-02 17:00;CYHM 021700Z 32020G26KT 15SM FEW032 SCT042 M05/M14 A3028 RMK CU1SC3 SLP264

CYHM;2011-03-02 18:00;CYHM 021800Z 32017G22KT 15SM FEW030 FEW038 M05/M15 A3030 RMK CU1SC1 SLP272

CYHM;2011-03-02 19:00;CYHM 021900Z 31018G26KT 15SM FEW038 M06/M16 A3032 RMK CU1 SLP279

CYHM;2011-03-02 20:00;CYHM 022000Z 30015G21KT 15SM FEW038 M06/M16 A3035 RMK CU1 SLP289

CYHM;2011-03-02 21:00;CYHM 022100Z 30014G20KT 15SM FEW040 M06/M16 A3038 RMK CU1 SLP301

CYHM;2011-03-02 22:00;CYHM 022200Z 30012KT 15SM FEW038 M07/M16 A3042 RMK CU1 SLP313

CYHM;2011-03-02 23:00;CYHM 022300Z 30015G22KT 15SM FEW036 M08/M16 A3045 RMK CU1 SLP323

CYHM;2011-03-03 00:00;CYHM 030000Z 30007KT 15SM FEW034 M09/M16 A3048 RMK CU1 CU TR SLP335

CYHM;2011-03-03 01:00;CYHM 030100Z 31004KT 15SM FEW034 M10/M16 A3049 RMK CU1 CU TR SLP338

CYHM;2011-03-03 02:00;CYHM 030200Z 31002KT 15SM FEW032 M10/M16 A3050 RMK SC1 SC TR SLP343

CYHM;2011-03-03 03:00;CYHM 030300Z 00000KT 15SM FEW032 M10/M16 A3052 RMK SC1 SC TR SLP349

CYHM;2011-03-03 04:00;CYHM 030400Z 00000KT 15SM FEW030 M11/M16 A3051 RMK CF1 SLP348

CYHM;2011-03-03 05:00;CYHM 030500Z 00000KT 15SM FEW025 M12/M16 A3051 RMK CF1 SLP348

CYHM;2011-03-03 06:00;CYHM 030600Z 00000KT 15SM FEW025 M13/M16 A3053 RMK SC1 SLP355

CYHM;2011-03-03 07:00;CYHM 030700Z 24005KT 15SM FEW025 M13/M16 A3055 RMK SC1 SLP361

CYHM;2011-03-03 08:00;CYHM 030800Z 26004KT 15SM FEW025 M13/M16 A3056 RMK SC1 SLP366

CYHM;2011-03-03 09:00;CYHM 030900Z 00000KT 15SM OVC037 M12/M15 A3058 RMK SC8 SLP373

CYHM;2011-03-03 10:00;CYHM 031000Z 00000KT 15SM BKN040 M11/M15 A3060 RMK SC7 FEW CF SLP379

CYHM;2011-03-03 11:00;CYHM 031100Z 27003KT 15SM BKN038 M11/M15 A3061 RMK SC6 SLP383

CYHM;2011-03-03 12:00;CYHM 031200Z 00000KT 15SM BKN039 BKN210 M12/M15 A3061 RMK SC6CI1 CONTRAIL SLP384

CYHM;2011-03-03 13:00;CYHM 031300Z 00000KT 15SM FEW025 BKN038 M10/M14 A3063 RMK CU1SC6 CU TR SLP392

CYHM;2011-03-03 14:00;CYHM 031400Z 00000KT 15SM FEW025 SCT220 M08/M13 A3064 RMK CU1CI2 CU TR SLP393

CYHM;2011-03-03 15:00;CYHM 031500Z 18006KT 15SM FEW030 BKN220 M07/M13 A3064 RMK CU1CI2 CONTRAILS SLP394

CYHM;2011-03-03 16:00;CYHM 031600Z 16005KT 15SM FEW030 BKN220 M06/M13 A3064 RMK CU2CI2 CONTRAILS SLP393

CYHM;2011-03-03 17:00;CYHM 031700Z 16002KT 15SM FEW032 BKN210 M05/M13 A3063 RMK CU2CS3 HALO SLP389

CYHM;2011-03-03 18:00;CYHM 031800Z 15007KT 15SM SCT025 BKN032 BKN210 M05/M12 A3061 RMK CU3SC2CI2 SLP382

CYHM;2011-03-03 19:00;CYHM 031900Z 18004KT 090V220 15SM FEW025 BKN130 OVC220 M05/M12 A3058 RMK SC1AS5CI2 SLP374

CYHM;2011-03-03 20:00;CYHM 032000Z 15006KT 15SM BKN090 OVC220 M05/M11 A3056 RMK AS6CI2 SLP367

CYHM;2011-03-03 21:00;CYHM 032100Z 11006KT 15SM OVC078 M05/M12 A3055 RMK AS8 SLP363

CYHM;2011-03-03 22:00;CYHM 032200Z 10008KT 15SM BKN085 OVC240 M05/M12 A3054 RMK AS6CS2 SLP358

CYHM;2011-03-03 23:00;CYHM 032300Z 08010KT 15SM BKN089 OVC240 M05/M12 A3051 RMK AS6CS2 SLP350

CYHM;2011-03-04 00:00;CYHM 040000Z 07010KT 15SM BKN094 OVC240 M05/M11 A3051 RMK AS6CS2 SLP349

CYHM;2011-03-04 01:00;CYHM 040100Z 06013KT 15SM OVC069 M04/M11 A3050 RMK AC8 SLP345

CYHM;2011-03-04 02:00;CYHM 040200Z 08013KT 15SM FEW060 SCT073 M05/M12 A3047 RMK SC2AC1 SLP335

CYHM;2011-03-04 03:00;CYHM 040300Z 07012KT 15SM FEW180 M05/M12 A3044 RMK AC2 SLP323

CYHM;2011-03-04 04:00;CYHM 040400Z 06010KT 15SM BKN170 M06/M12 A3042 RMK AC5 SLP315

CYHM;2011-03-04 05:00;CYHM 040500Z 06009KT 15SM BKN150 M05/M12 A3040 RMK AC6 SLP311

CYHM;2011-03-04 06:00;CYHM 040600Z 06009KT 15SM BKN130 M05/M12 A3037 RMK AC6 SLP298

CYHM;2011-03-04 07:00;CYHM 040700Z 07008KT 15SM SCT140 M05/M12 A3034 RMK AC3 SLP289

CYHM;2011-03-04 08:00;CYHM 040800Z 06008KT 15SM BKN130 M05/M12 A3032 RMK AC7 SLP281

CYHM;2011-03-04 09:00;CYHM 040900Z 05007KT 15SM BKN120 M04/M11 A3030 RMK AC5 SLP275

CYHM;2011-03-04 10:00;CYHM 041000Z 06007KT 15SM BKN120 M04/M10 A3029 RMK AC6 SLP270

CYHM;2011-03-04 11:00;CYHM 041100Z 07006KT 15SM FEW140 FEW240 M05/M10 A3027 RMK AC2CI1 SLP264

CYHM;2011-03-04 12:00;CYHM 041200Z 04006KT 15SM FEW120 FEW240 M05/M11 A3027 RMK AC1CI1 CONTRAIL SLP266

CYHM;2011-03-04 13:00;CYHM 041300Z 08004KT 15SM FEW130 SCT220 M03/M10 A3028 RMK AC1CI2 CONTRAIL SLP267

CYHM;2011-03-04 14:00;CYHM 041400Z 13005KT 15SM BKN098 BKN110 M01/M09 A3027 RMK AC6AC2 SLP265

CYHM;2011-03-04 15:00;CYHM 041500Z 03003KT 15SM BKN095 BKN110 00/M09 A3026 RMK AC6AC1 SLP261

CYHM;2011-03-04 15:21;CYHM 041521Z 11003KT 15SM -SHRA BKN058 OVC068 RMK SC6AC2

CYHM;2011-03-04 15:52;CYHM 041552Z 06004KT 15SM BKN052 OVC070 RMK SC6AC2

CYHM;2011-03-04 16:00;CYHM 041600Z 07006KT 15SM BKN050 BKN080 01/M06 A3024 RMK SC5AC2 SLP254

CYHM;2011-03-04 17:00;CYHM 041700Z 11003KT 15SM OVC063 02/M06 A3025 RMK SC8 SLP256

CYHM;2011-03-04 17:39;CYHM 041739Z 10006KT 10SM -SHRA OVC060 RMK SC8

CYHM;2011-03-04 18:00;CYHM 041800Z 10003KT 15SM -SHRA OVC060 02/M04 A3023 RMK SC8 SLP250

CYHM;2011-03-04 19:00;CYHM 041900Z 14006KT 15SM -SHRA BKN023 OVC034 03/M03 A3021 RMK SC6SC2 SLP241

CYHM;2011-03-04 20:00;CYHM 042000Z 15007KT 15SM -SHRA OVC029 03/M02 A3019 RMK SC8 SLP234

CYHM;2011-03-04 21:00;CYHM 042100Z 17007KT 7SM -SHRA OVC024 03/M01 A3018 RMK SC8 SLP231

CYHM;2011-03-04 22:00;CYHM 042200Z 20010KT 7SM -SHRA OVC015 03/M00 A3018 RMK SC8 SLP232

CYHM;2011-03-04 23:00;CYHM 042300Z 19011KT 6SM -SHRA OVC018 03/00 A3018 RMK SC8 SLP231

CYHM;2011-03-05 00:00;CYHM 050000Z 19008KT 12SM -SHRA OVC020 03/M00 A3018 RMK SC8 SLP230

CYHM;2011-03-05 01:00;CYHM 050100Z 19009KT 6SM -SHRA OVC018 02/M01 A3016 RMK SC8 SLP225

CYHM;2011-03-05 02:00;CYHM 050200Z 19008KT 8SM -SHRA OVC017 02/M00 A3017 RMK SC8 SLP226

CYHM;2011-03-05 03:00;CYHM 050300Z 19007KT 15SM -SHRA OVC018 03/M01 A3015 RMK SC8 SLP220

CYHM;2011-03-05 04:00;CYHM 050400Z 19010KT 7SM -SHRA OVC018 03/M01 A3013 RMK SC8 SLP214

CYHM;2011-03-05 05:00;CYHM 050500Z 19009KT 15SM -SHRA OVC021 03/M01 A3012 RMK SC8 SLP208

CYHM;2011-03-05 06:00;CYHM 050600Z 19009KT 15SM -SHRA OVC021 03/M01 A3009 RMK SC8 SLP197

CYHM;2011-03-05 07:00;CYHM 050700Z 16010KT 10SM -SHRA OVC043 03/M00 A3006 RMK SC8 SLP187

CYHM;2011-03-05 08:00;CYHM 050800Z 20009KT 15SM -SHRA OVC048 04/M01 A3004 RMK SC8 SLP180

CYHM;2011-03-05 09:00;CYHM 050900Z 20007KT 15SM -SHRA FEW041 OVC052 04/M01 A3001 RMK SC2SC6 SLP171

CYHM;2011-03-05 10:00;CYHM 051000Z 20013KT 7SM -SHRA OVC023 04/01 A2999 RMK SC8 SLP163

CYHM;2011-03-05 11:00;CYHM 051100Z 20016G21KT 7SM -SHRA OVC020 04/02 A2997 RMK SC8 SLP156

CYHM;2011-03-05 11:43;CYHM 051143Z 20014G20KT 7SM -SHRA FEW008 OVC018 RMK CF2SC6

CYHM;2011-03-05 12:00;CYHM 051200Z 19012KT 7SM -SHRA SCT009 OVC022 04/02 A2995 RMK CF3SC5 SLP150

CYHM;2011-03-05 12:19;CYHM 051219Z 19018KT 7SM -RA BKN009 OVC023 RMK CF5SC3

CYHM;2011-03-05 13:00;CYHM 051300Z 19016G22KT 6SM -RA BKN008 OVC017 05/02 A2993 RMK CF6SC2 SLP143

CYHM;2011-03-05 14:00;CYHM 051400Z 20017G25KT 5SM -RA OVC006 05/03 A2992 RMK CF8 CIG RAG SLP139

CYHM;2011-03-05 15:00;CYHM 051500Z 20018G23KT 7SM -RA BKN007 OVC025 06/03 A2991 RMK CF7SC1 CIG RAG SLP135

CYHM;2011-03-05 16:00;CYHM 051600Z 19020G28KT 6SM -RA BKN008 OVC026 06/03 A2990 RMK CF6SC2 SLP131

CYHM;2011-03-05 17:00;CYHM 051700Z 20020G26KT 6SM -RA BKN009 OVC020 06/04 A2988 RMK CF6SC2 SLP127

CYHM;2011-03-05 18:00;CYHM 051800Z 20017G24KT 5SM -RA BKN008 OVC017 06/04 A2987 RMK CF6SC2 CIG RAG SLP121

CYHM;2011-03-05 19:00;CYHM 051900Z 21022KT 6SM -RA BKN008 OVC018 07/04 A2985 RMK CF7SC1 CIG RAG SLP116

CYHM;2011-03-05 20:00;CYHM 052000Z 21018G24KT 5SM -RA HZ BKN007 OVC012 06/04 A2985 RMK SF6SC2 SLP116

CYHM;2011-03-05 20:27;CYHM 052027Z 22015KT 5SM -RA HZ BKN005 OVC012 RMK SF6SC2

CYHM;2011-03-05 20:39;CYHM 052039Z 22014G19KT 2 1/2SM -RA BR SCT004 OVC006 RMK FG1SF2SF5

CYHM;2011-03-05 21:00;CYHM 052100Z 22013KT 2 1/2SM -RA BR SCT004 OVC006 06/04 A2985 RMK FG1SF3SF4 SLP116

CYHM;2011-03-05 21:41;CYHM 052141Z 22009KT 1 1/2SM -RA BR BKN004 OVC006 RMK FG2SF3SF2

CYHM;2011-03-05 21:50;CYHM 052150Z 22007KT 1SM -RA BR BKN003 OVC005 RMK FG3SF3SF2 VIS VRB 3/4-11/4

CYHM;2011-03-05 22:00;CYHM 052200Z 24007KT 1/2SM -RA FG BKN003 OVC005 06/05 A2986 RMK FG4SF2SF2 VIS VRB 3/8-5/8 SLP117

CYHM;2011-03-05 22:11;CYHM 052211Z 25010KT 1 1/2SM -RA BR BKN004 OVC008 RMK FG2SF4SC2

CYHM;2011-03-05 22:27;CYHM 052227Z 22008KT 1 1/4SM -RA BR SCT004 BKN008 OVC015 RMK FG2SF2SC3SC2

CYHM;2011-03-05 23:00;CYHM 052300Z 23007KT 1 1/2SM -RA BR BKN003 OVC007 05/04 A2986 RMK FG2SF5SF2 SLP118

CYHM;2011-03-05 23:07;CYHM 052307Z 23006KT 1SM -RA BR BKN003 OVC007 RMK FG2SF4SF2

CYHM;2011-03-05 23:17;CYHM 052317Z CCA 23006KT 1/2SM -RA FG BKN002 OVC006 RMK FG4SF2SF2

CYHM;2011-03-06 00:00;CYHM 060000Z 27004KT 3/4SM -RA BR BKN002 OVC007 05/04 A2988 RMK FG2SF4SF2 SLP124

CYHM;2011-03-06 00:35;CYHM 060035Z 32004KT 1 1/4SM -RA BR SCT002 BKN005 OVC014 RMK FG2SF2SF2SC2

CYHM;2011-03-06 01:00;CYHM 060100Z 02006KT 1 1/2SM -RA BR SCT002 BKN005 OVC014 04/03 A2987 RMK FG2SF2SF2SC2 SLP122

CYHM;2011-03-06 01:06;CYHM 060106Z 36010KT 330V030 3SM -RA BR SCT002 BKN006 OVC015 RMK SF3SF2SC2

CYHM;2011-03-06 02:00;CYHM 060200Z 01012KT 3SM -RA BR FEW002 BKN007 OVC016 01/00 A2988 RMK SF2SF4SC2 SLP124

CYHM;2011-03-06 03:00;CYHM 060300Z 36012KT 4SM -RA BR FEW003 BKN009 OVC017 01/M01 A2989 RMK SF2SC3SC2 SLP128

CYHM;2011-03-06 04:00;CYHM 060400Z 36012KT 6SM -RA OVC010 00/M02 A2989 RMK SC8 CIG RAG SLP130

CYHM;2011-03-06 04:46;CYHM 060446Z 36012KT 6SM -SN OVC016 RMK SC8

CYHM;2011-03-06 05:00;CYHM 060500Z 36013G19KT 1 1/2SM -SN OVC010 M00/M03 A2990 RMK SN2SC6 VIS VRB 1 - 2 SLP132

CYHM;2011-03-06 06:00;CYHM 060600Z 35012G17KT 1 1/2SM -SN OVC013 M02/M04 A2993 RMK SN2SC6 VIS VRB 1 - 2 /S04/ SLP144

CYHM;2011-03-06 07:00;CYHM 060700Z 35013KT 1 1/2SM -SN VV007 M02/M05 A2995 RMK SN8 VIS VRB 1 - 2 /S01/ SLP151

CYHM;2011-03-06 07:15;CYHM 060715Z 36015KT 1SM -SN VV004 RMK SN8 VIS VRB 3/4 - 11/4

CYHM;2011-03-06 08:00;CYHM 060800Z 35012KT 1 1/2SM -SN VV005 M03/M05 A2998 RMK SN8 VIS VRB 1 - 2 /S02/ SLP159

CYHM;2011-03-06 09:00;CYHM 060900Z 35012G17KT 1SM -SN VV005 M03/M06 A2999 RMK SN8 VIS VRB 3/4 - 11/4 /S03/ SLP165

CYHM;2011-03-06 10:00;CYHM 061000Z 35012KT 1 1/2SM -SN VV007 M03/M06 A3003 RMK SN8 VIS VRB 1 - 2 SLP177

CYHM;2011-03-06 10:20;CYHM 061020Z 35011KT 1 1/2SM -SN OVC019 RMK SN2SC6 VIS VRB 1 - 2

CYHM;2011-03-06 11:00;CYHM 061100Z 35011KT 1 1/2SM -SN SCT007 OVC020 M04/M07 A3007 RMK SN2SF2SC5 VIS VRB 1 - 2 /S04/ SLP191

CYHM;2011-03-06 11:42;CYHM 061142Z 34008KT 1 1/4SM -SN BKN008 OVC017 RMK SN3SF2SC2

CYHM;2011-03-06 12:00;CYHM 061200Z CCA 35008KT 1 1/2SM -SN SCT008 OVC018 M05/M08 A3010 RMK SN2SF2SC4 SLP202

CYHM;2011-03-06 13:00;CYHM 061300Z 01010KT 2SM -SN FEW008 OVC019 M05/M06 A3013 RMK SN2SF1SC6 SLP212

CYHM;2011-03-06 13:39;CYHM 061339Z 03008KT 6SM -SN OVC020 RMK SC8

CYHM;2011-03-06 14:00;CYHM 061400Z 02008KT 15SM -SN OVC020 M04/M06 A3013 RMK SC8 SLP214

CYHM;2011-03-06 14:27;CYHM 061427Z 02010KT 15SM OVC023 RMK SC8

CYHM;2011-03-06 15:00;CYHM 061500Z 02007KT 15SM BKN023 M04/M06 A3015 RMK SC7 SLP220

CYHM;2011-03-06 16:00;CYHM 061600Z 02008KT 15SM BKN023 M04/M07 A3017 RMK SC7 SLP227

CYHM;2011-03-06 17:00;CYHM 061700Z 02012KT 15SM FEW025 BKN220 M04/M07 A3015 RMK SC2CS5 SLP222

CYHM;2011-03-06 18:00;CYHM 061800Z 02012KT 15SM FEW025 BKN220 M03/M07 A3015 RMK SC1CS6 SLP222

CYHM;2011-03-06 19:00;CYHM 061900Z 02012KT 15SM BKN220 M03/M07 A3016 RMK CS7 SLP225

CYHM;2011-03-06 20:00;CYHM 062000Z 01011KT 15SM FEW025 BKN220 M03/M07 A3015 RMK CF1CS7 CF TR SLP222

CYHM;2011-03-06 21:00;CYHM 062100Z 02012KT 15SM FEW025 BKN220 M03/M07 A3016 RMK CF1CI6 CF TR CONTRAILS SLP225

CYHM;2011-03-06 22:00;CYHM 062200Z 01013KT 15SM BKN220 M03/M07 A3017 RMK CI6 SLP227

CYHM;2011-03-06 23:00;CYHM 062300Z 01012KT 15SM BKN220 M04/M09 A3018 RMK CI6 SLP231

CYHM;2011-03-07 00:00;CYHM 070000Z 01011KT 15SM BKN220 M05/M09 A3018 RMK CI6 SLP234

CYHM;2011-03-07 01:00;CYHM 070100Z 02012KT 15SM BKN220 M06/M09 A3018 RMK CI5 SLP233

CYHM;2011-03-07 02:00;CYHM 070200Z 36013G18KT 15SM BKN220 M06/M09 A3018 RMK CI4 SLP234

CYHM;2011-03-07 03:00;CYHM 070300Z 01014KT 15SM BKN220 M06/M09 A3017 RMK CI4 SLP229

CYHM;2011-03-07 04:00;CYHM 070400Z 02014KT 15SM DRSN SCT210 M06/M10 A3017 RMK CI3 SLP231

CYHM;2011-03-07 05:00;CYHM 070500Z 01015KT 15SM DRSN SCT220 M06/M10 A3015 RMK CI2 SLP224

CYHM;2011-03-07 06:00;CYHM 070600Z 01013KT 15SM DRSN BKN220 M07/M11 A3015 RMK CI4 SLP225

CYHM;2011-03-07 07:00;CYHM 070700Z 35011KT 15SM DRSN SCT210 M08/M12 A3016 RMK CI2 SLP228

CYHM;2011-03-07 08:00;CYHM 070800Z 35007KT 15SM FEW210 M09/M12 A3015 RMK CI2 SLP223

CYHM;2011-03-07 09:00;CYHM 070900Z 31003KT 15SM SCT210 M11/M13 A3015 RMK CI2 SLP226

CYHM;2011-03-07 10:00;CYHM 071000Z 31004KT 15SM SCT210 M12/M13 A3018 RMK CI3 SLP234

CYHM;2011-03-07 11:00;CYHM 071100Z 28002KT 15SM SCT210 M14/M14 A3019 RMK CI2 SLP239

CYHM;2011-03-07 12:00;CYHM 071200Z 30002KT 15SM FEW160 FEW220 M14/M15 A3022 RMK AC1CI1 CI TR SLP249

CYHM;2011-03-07 13:00;CYHM 071300Z 30004KT 15SM FEW160 FEW220 M13/M13 A3023 RMK AC1CI0 AC TR CI TR SLP252

CYHM;2011-03-07 14:00;CYHM 071400Z 33004KT 15SM FEW160 FEW220 M09/M14 A3023 RMK AC1CI1 SLP252

CYHM;2011-03-07 15:00;CYHM 071500Z 00000KT 15SM FEW220 M07/M14 A3023 RMK CI1 SLP253

CYHM;2011-03-07 16:00;CYHM 071600Z 00000KT 15SM FEW220 M04/M13 A3024 RMK CI1 SLP256

CYHM;2011-03-07 17:00;CYHM 071700Z 21003KT 15SM FEW240 M04/M13 A3024 RMK CI1 CI TR SLP256

CYHM;2011-03-07 18:00;CYHM 071800Z 22005KT 15SM FEW240 M04/M11 A3024 RMK CI1 CI TR SLP256

CYHM;2011-03-07 19:00;CYHM 071900Z 25006KT 15SM SKC M03/M11 A3025 RMK SLP257

CYHM;2011-03-07 20:00;CYHM 072000Z 24005KT 15SM FEW250 M01/M12 A3025 RMK CI1 SLP257

CYHM;2011-03-07 21:00;CYHM 072100Z 24006KT 15SM FEW250 M01/M11 A3027 RMK CI1 SLP265

CYHM;2011-03-07 22:00;CYHM 072200Z 23006KT 15SM FEW250 M02/M10 A3027 RMK CI1 SLP266

CYHM;2011-03-07 23:00;CYHM 072300Z 18004KT 15SM FEW250 M03/M11 A3029 RMK CI1 SLP271

CYHM;2011-03-08 00:00;CYHM 080000Z 18006KT 15SM FEW250 M04/M08 A3032 RMK CI1 CI TR SLP283

CYHM;2011-03-08 01:00;CYHM 080100Z 19004KT 15SM FEW250 M06/M08 A3033 RMK CI1 CI TR SLP288

CYHM;2011-03-08 02:00;CYHM 080200Z 08005KT 15SM FEW250 M07/M09 A3034 RMK CI1 CI TR SLP292

CYHM;2011-03-08 03:00;CYHM 080300Z 10015KT 15SM FEW250 M07/M08 A3036 RMK CI1 CI TR SLP296

CYHM;2011-03-08 04:00;CYHM 080400Z 08005KT 15SM FEW250 M07/M08 A3036 RMK CI1 SLP295

CYHM;2011-03-08 05:00;CYHM 080500Z 05004KT 15SM FEW250 M07/M11 A3036 RMK CI1 SLP298

CYHM;2011-03-08 06:00;CYHM 080600Z 06007KT 15SM FEW250 M06/M12 A3037 RMK CI1 SLP300

CYHM;2011-03-08 07:00;CYHM 080700Z 05004KT 15SM OVC088 M06/M11 A3039 RMK AS8 SLP304

CYHM;2011-03-08 08:00;CYHM 080800Z 00000KT 15SM OVC097 M06/M11 A3039 RMK AS8 SLP306

CYHM;2011-03-08 09:00;CYHM 080900Z 03003KT 15SM FEW100 OVC180 M07/M12 A3039 RMK AS2AS5 SLP305

CYHM;2011-03-08 10:00;CYHM 081000Z 05005KT 15SM FEW100 BKN180 M07/M12 A3040 RMK AC2AS1 SLP308

CYHM;2011-03-08 11:00;CYHM 081100Z 03005KT 15SM BKN086 M07/M11 A3043 RMK AC7 SLP317

CYHM;2011-03-08 12:00;CYHM 081200Z 03006KT 15SM BKN087 M06/M10 A3046 RMK AC6 SLP328

CYHM;2011-03-08 13:00;CYHM 081300Z 06007KT 15SM FEW110 FEW220 M06/M09 A3046 RMK AC1CI2 AC TR SLP329

CYHM;2011-03-08 14:00;CYHM 081400Z 06010KT 15SM FEW025 FEW180 SCT220 M03/M06 A3047 RMK CU1AC1CI1 CU TR SLP332

CYHM;2011-03-08 15:00;CYHM 081500Z 07013KT 15SM FEW025 SCT220 M02/M07 A3048 RMK CU1CI2 CU TR SLP334

CYHM;2011-03-08 16:00;CYHM 081600Z 06012KT 15SM FEW045 FEW220 M01/M07 A3048 RMK SC1CI1 SC TR SLP335

CYHM;2011-03-08 17:00;CYHM 081700Z 06012KT 15SM FEW045 SCT220 M01/M07 A3047 RMK SC1CI2 SC TR SLP332

CYHM;2011-03-08 18:00;CYHM 081800Z 05014KT 15SM FEW040 FEW220 M00/M07 A3045 RMK SC1CI2 SC TR CONTRAIL SLP325

CYHM;2011-03-08 19:00;CYHM 081900Z 05015KT 15SM FEW250 M00/M06 A3044 RMK CI1 SLP322

CYHM;2011-03-08 20:00;CYHM 082000Z 05015KT 15SM FEW250 00/M04 A3044 RMK CI1 SLP322

CYHM;2011-03-08 21:00;CYHM 082100Z 05020KT 15SM FEW024 FEW250 M00/M03 A3043 RMK SC1CI1 SLP317

CYHM;2011-03-08 22:00;CYHM 082200Z 06018KT 15SM BKN009 BKN250 M01/M02 A3042 RMK SC6CI1 SLP313

CYHM;2011-03-08 23:00;CYHM 082300Z 05018G24KT 15SM OVC008 M01/M02 A3041 RMK SC8 SLP311

CYHM;2011-03-09 00:00;CYHM 090000Z 06018G24KT 10SM OVC007 M01/M01 A3039 RMK SC8 SLP306

CYHM;2011-03-09 01:00;CYHM 090100Z 05020KT 12SM FEW008 OVC100 M01/M01 A3041 RMK SC2AC6 SF ASOCTD SLP310

CYHM;2011-03-09 02:00;CYHM 090200Z 05018G24KT 15SM FEW008 BKN100 M01/M02 A3039 RMK SC2AC6 SF ASOCTD SLP306

CYHM;2011-03-09 03:00;CYHM 090300Z 06018G24KT 15SM FEW009 SCT100 M01/M02 A3039 RMK SF1AC2 SF TR SLP303

CYHM;2011-03-09 04:00;CYHM 090400Z 05013G20KT 15SM FEW100 FEW250 M01/M03 A3038 RMK AC1CI1 SLP299

CYHM;2011-03-09 05:00;CYHM 090500Z 05015KT 15SM FEW100 FEW250 M01/M03 A3036 RMK AC1CI0 SLP293

CYHM;2011-03-09 06:00;CYHM 090600Z 05017KT 15SM FEW100 FEW250 M01/M03 A3035 RMK AC1CI0 SLP288

CYHM;2011-03-09 07:00;CYHM 090700Z 05015KT 15SM FEW100 BKN200 M01/M03 A3033 RMK AC1CI2 SLP284

CYHM;2011-03-09 08:00;CYHM 090800Z 05013KT 15SM FEW100 SCT130 BKN200 M01/M04 A3030 RMK AC2AC2CI1 SLP274

CYHM;2011-03-09 09:00;CYHM 090900Z 04010KT 15SM FEW100 BKN120 BKN240 M01/M05 A3029 RMK AC1AC5CI1 SLP267

CYHM;2011-03-09 10:00;CYHM 091000Z 04008KT 15SM FEW110 OVC150 M01/M05 A3027 RMK AC2AC6 SLP261

CYHM;2011-03-09 11:00;CYHM 091100Z 05008KT 15SM FEW100 OVC130 M01/M05 A3025 RMK AC2AC6 SLP255

CYHM;2011-03-09 12:00;CYHM 091200Z 05008KT 15SM OVC110 M01/M05 A3026 RMK AC8 SLP258

CYHM;2011-03-09 13:00;CYHM 091300Z 06010KT 15SM BKN092 OVC110 M00/M05 A3025 RMK AC6AC2 SLP254

CYHM;2011-03-09 14:00;CYHM 091400Z 06008KT 15SM FEW062 BKN088 OVC096 M00/M05 A3022 RMK SC1AC6AC2 SLP244

CYHM;2011-03-09 15:00;CYHM 091500Z 14014G19KT 15SM OVC024 02/M02 A3019 RMK SC8 SLP234

CYHM;2011-03-09 15:02;CYHM 091502Z 14016G22KT 6SM -SHSN OVC027 RMK SC8

CYHM;2011-03-09 15:49;CYHM 091549Z 11012KT 2SM -SHRASN BR BKN013 OVC023 RMK SC6SC2

CYHM;2011-03-09 16:00;CYHM 091600Z 13012KT 2SM -SHRASN BR BKN008 OVC027 01/M00 A3018 RMK SF5SC3 SLP229

CYHM;2011-03-09 16:23;CYHM 091623Z 14012KT 3SM -SN BR BKN011 OVC037 RMK SC6SC2

CYHM;2011-03-09 16:50;CYHM 091650Z 13012KT 5SM -PL BR OVC032 RMK SC8

CYHM;2011-03-09 17:00;CYHM 091700Z 12012KT 4SM -PL BR BKN033 OVC047 01/M01 A3013 RMK SC6SC2 SLP215

CYHM;2011-03-09 17:15;CYHM 091715Z 12013KT 5SM -SHRA BR OVC032 RMK SC8

CYHM;2011-03-09 18:00;CYHM 091800Z 13010KT 5SM -SHRA BR OVC028 01/M00 A3010 RMK SC8 SLP204

CYHM;2011-03-09 18:44;CYHM 091844Z CCA 08008KT 4SM -SHRASN BR OVC025 RMK SC8

CYHM;2011-03-09 19:00;CYHM 091900Z 08010KT 5SM -SHRASN BR OVC025 01/00 A3006 RMK SC8 SLP189

CYHM;2011-03-09 19:50;CYHM 091950Z 07013KT 2 1/2SM -SHRAPL BR OVC021 RMK SC8

CYHM;2011-03-09 20:00;CYHM 092000Z 07013KT 2 1/2SM -SHRAPL BR OVC019 01/01 A3004 RMK SC8 SLP182

CYHM;2011-03-09 20:42;CYHM 092042Z CCA 05010KT 2 1/2SM -SHRA BR BKN004 OVC009 RMK SF5SC3

CYHM;2011-03-09 21:00;CYHM 092100Z 05010KT 2SM -SHRA BR SCT004 OVC009 01/01 A3001 RMK SF4SC4 CIG RGD SLP173

CYHM;2011-03-09 22:00;CYHM 092200Z 07010KT 2SM -SHRA BR BKN003 OVC010 01/01 A3000 RMK SF6SC2 CIG RGD SLP168

CYHM;2011-03-09 23:00;CYHM 092300Z 05007KT 2SM -SHRA BR BKN003 OVC012 01/01 A2998 RMK SF6SC2 CIG RGD SLP162

CYHM;2011-03-10 00:00;CYHM 100000Z 07009KT 2SM -RA BR SCT003 OVC015 01/01 A2997 RMK SF4SC4 CIG RGD SLP158

CYHM;2011-03-10 01:00;CYHM 100100Z 10007KT 8SM -RA SCT004 OVC018 02/02 A2995 RMK SF3SC5 SLP153

CYHM;2011-03-10 02:00;CYHM 100200Z 13004KT 5SM -RA BR FEW006 SCT012 OVC020 03/03 A2995 RMK SF2SF2SC4 CIG RGD SLP151

CYHM;2011-03-10 03:00;CYHM 100300Z 16005KT 5SM -RA BR FEW009 OVC017 03/03 A2994 RMK SF2SC6 CIG RGD SLP148

CYHM;2011-03-10 04:00;CYHM 100400Z 17008KT 5SM -RA BR OVC015 03/03 A2993 RMK SC8 CIG RAG SLP144

CYHM;2011-03-10 05:00;CYHM 100500Z 17012KT 10SM -RA FEW012 OVC026 04/03 A2992 RMK CF2SC6 SLP141

CYHM;2011-03-10 06:00;CYHM 100600Z 17011G16KT 15SM -RA FEW011 OVC026 04/03 A2992 RMK CF1SC7 SLP139

CYHM;2011-03-10 07:00;CYHM 100700Z 18012KT 12SM -RA OVC023 04/03 A2991 RMK SC8 SLP135

CYHM;2011-03-10 08:00;CYHM 100800Z 16009KT 15SM OVC028 04/03 A2988 RMK SC8 SLP127

CYHM;2011-03-10 09:00;CYHM 100900Z 16010KT 15SM -SHRA OVC030 04/03 A2987 RMK SC8 SLP124

CYHM;2011-03-10 10:00;CYHM 101000Z 17011KT 7SM -SHRA OVC032 04/03 A2986 RMK SC8 SLP121

CYHM;2011-03-10 11:00;CYHM 101100Z 16010KT 15SM -SHRA OVC026 05/04 A2986 RMK SC8 PCPN VRY LGT SLP121

CYHM;2011-03-10 12:00;CYHM 101200Z 16008KT 7SM -SHRA OVC025 04/03 A2987 RMK SC8 SLP123

CYHM;2011-03-10 13:00;CYHM 101300Z 17008KT 15SM -SHRA OVC024 04/04 A2987 RMK SC8 SLP123

CYHM;2011-03-10 14:00;CYHM 101400Z 15005KT 10SM -SHRA SCT011 OVC017 04/04 A2986 RMK SC3SC5 SLP121

CYHM;2011-03-10 14:32;CYHM 101432Z 12004KT 15SM -SHRA BKN007 OVC027 RMK SF6SC2 PCPN VRY LGT

CYHM;2011-03-10 15:00;CYHM 101500Z 09005KT 15SM -SHRA FEW008 SCT015 OVC026 04/04 A2984 RMK CF1SC3SC4 PCPN VRY LGT SLP113

CYHM;2011-03-10 15:24;CYHM 101524Z 07006KT 15SM FEW015 OVC026 RMK CF1SC7

CYHM;2011-03-10 16:00;CYHM 101600Z 06007KT 6SM BR FEW010 BKN027 OVC032 04/04 A2983 RMK SF1SC6SC1 SLP108

CYHM;2011-03-10 16:42;CYHM 101642Z 04007KT 2SM BR OVC027 RMK FG2SC6

CYHM;2011-03-10 17:00;CYHM 101700Z 04007KT 1SM BR OVC028 04/04 A2982 RMK FG2SC6 VIS VRBL 1/2-11/2SM SLP107

CYHM;2011-03-10 17:07;CYHM 101707Z 04006KT 1/2SM FG OVC028 RMK FG3SC5

CYHM;2011-03-10 17:21;CYHM 101721Z 06006KT 1/8SM FG VV001 RMK FG8

CYHM;2011-03-10 18:00;CYHM 101800Z 05005KT 1/8SM FG VV001 04/04 A2981 RMK FG8 SLP101

CYHM;2011-03-10 19:00;CYHM 101900Z 05012KT 1/2SM FG BKN002 OVC017 03/03 A2977 RMK FG4SF2SC2 CIG 150FT SLP088

CYHM;2011-03-10 19:07;CYHM 101907Z 06010KT 3/4SM -SHRA BR BKN002 OVC017 RMK FG4SF2SC2

CYHM;2011-03-10 19:43;CYHM 101943Z 04010KT 1 1/4SM -SHRA BR BKN002 OVC017 RMK FG2SF5SC1

CYHM;2011-03-10 20:00;CYHM 102000Z 05009KT 1 1/4SM -SHRA BR BKN002 OVC014 03/03 A2975 RMK FG1SF6SC2 SLP082

CYHM;2011-03-10 20:24;CYHM 102024Z 05012KT 3/4SM -SHRA BR OVC002 RMK FG4SF4

CYHM;2011-03-10 20:45;CYHM 102045Z 05011KT 1/4SM -SHRA FG OVC002 RMK FG6SF2 PCPN VRY LGT

CYHM;2011-03-10 21:00;CYHM 102100Z 05010KT 1/8SM -SHRA FG OVC002 03/03 A2973 RMK FG7SF1 PCPN VRY LGT SLP075

CYHM;2011-03-10 22:00;CYHM 102200Z 04008KT 0SM -SHRA FG VV001 03/03 A2972 RMK FG8 SLP071

CYHM;2011-03-10 22:51;CYHM 102251Z 04007KT 1/2SM -SHRA FG OVC022 RMK FG6SC2

CYHM;2011-03-10 23:00;CYHM 102300Z 03007KT 1SM -SHRA BR OVC022 02/02 A2972 RMK FG4SC4 SLP073

CYHM;2011-03-10 23:27;CYHM 102327Z 03008KT 1 1/4SM -SHRA BR BKN002 OVC022 RMK FG3SF2SC2

CYHM;2011-03-11 00:00;CYHM 110000Z 03010KT 3/4SM -SHRA BR BKN002 OVC022 03/03 A2969 RMK FG4SF3SC1 SLP061

CYHM;2011-03-11 00:04;CYHM 110004Z 03009KT 3/8SM -SHRA FG OVC002 RMK FG6SF2

CYHM;2011-03-11 01:00;CYHM 110100Z 03010KT 1/8SM -SHRA FG VV001 03/03 A2966 RMK FG8 SLP052

CYHM;2011-03-11 02:00;CYHM 110200Z 31004KT 1/4SM -RA FG VV001 03/03 A2965 RMK FG8 SLP049

CYHM;2011-03-11 02:19;CYHM 110219Z 30004KT 3/4SM -RA BR OVC003 RMK FG4SF4

CYHM;2011-03-11 02:39;CYHM 110239Z 32004KT 1 1/4SM -RA BR OVC003 RMK FG3SF5

CYHM;2011-03-11 03:00;CYHM 110300Z 34006KT 1 1/4SM -RA BR OVC002 03/03 A2962 RMK FG3SF5 SLP038

CYHM;2011-03-11 03:23;CYHM 110323Z 35011KT 1 1/2SM -RA BR OVC002 RMK FG3SF5

CYHM;2011-03-11 04:00;CYHM 110400Z 02012KT 1 1/2SM -RA BR OVC002 03/03 A2959 RMK FG3SF5 SLP027

CYHM;2011-03-11 04:43;CYHM 110443Z 01008KT 2 1/2SM -RA BR BKN002 OVC013 RMK FG1SF6SC2

CYHM;2011-03-11 05:00;CYHM 110500Z 34004KT 2 1/2SM -RA BR BKN003 OVC013 03/03 A2958 RMK FG1SF6SC2 SLP023

CYHM;2011-03-11 06:00;CYHM 110600Z 36018KT 1 1/2SM -RA BR OVC002 03/03 A2942 RMK FG3SF5 PRESFR SLP970

CYHM;2011-03-11 06:18;CYHM 110618Z 01015G22KT 5SM -RA BR BKN003 OVC009 RMK SF6SC2 PCPN VRY LGT

CYHM;2011-03-11 06:37;CYHM 110637Z CCA 05005KT 340V080 8SM -RA FEW003 OVC007 RMK SF2SC6 PCPN VRY LGT

CYHM;2011-03-11 07:00;CYHM 110700Z 02006KT 7SM -RA OVC006 03/03 A2951 RMK SC8 PRESRR SLP000

CYHM;2011-03-11 07:18;CYHM 110718Z 36008KT 2 1/2SM -RA BR FEW004 OVC006 RMK FG1SF2SC6

CYHM;2011-03-11 07:44;CYHM 110744Z 33006KT 2SM -RA BR BKN003 OVC008 RMK FG2SF5SC2

CYHM;2011-03-11 08:00;CYHM 110800Z 26005KT 2 1/2SM -RA BR BKN003 OVC008 03/03 A2947 RMK FG1SF6SC2 SLP987

CYHM;2011-03-11 09:00;CYHM 110900Z 27007KT 6SM -RA BR OVC003 02/02 A2945 RMK SF8 SLP980

CYHM;2011-03-11 10:00;CYHM 111000Z 24007KT 7SM -RA BKN004 OVC015 02/02 A2944 RMK SF6SC2 SLP978

CYHM;2011-03-11 11:00;CYHM 111100Z 23009KT 7SM -RA OVC003 01/01 A2946 RMK SF8 SLP983

CYHM;2011-03-11 11:25;CYHM 111125Z 24006KT 2SM -RA BR BKN002 OVC012 RMK SF6SC2

CYHM;2011-03-11 11:35;CYHM 111135Z 24010KT 1 1/2SM -RA BR BKN002 OVC011 RMK FG2SF4SC2

CYHM;2011-03-11 11:38;CYHM 111138Z 24012KT 1 1/2SM -SHRASN BR BKN003 OVC010 RMK FG2SF5SC2

CYHM;2011-03-11 11:50;CYHM 111150Z 24010KT 1 1/2SM -SHSN BKN003 OVC011 RMK SN1SF6SC2

CYHM;2011-03-11 12:00;CYHM 111200Z 24010KT 1 1/2SM -SHSN BR BKN005 OVC014 00/00 A2946 RMK SN1SF6SC2 SLP984

CYHM;2011-03-11 12:27;CYHM 111227Z 24010KT 1SM -SHSN BR OVC005 RMK SN2SF6

CYHM;2011-03-11 12:40;CYHM 111240Z 24008KT 1 1/2SM -SHSN BR BKN003 OVC010 RMK SN1SF6SC2

CYHM;2011-03-11 13:00;CYHM 111300Z 23012KT 1SM -SHSN BR BKN004 OVC010 00/00 A2948 RMK SN2SF5SC2 SLP990

CYHM;2011-03-11 13:21;CYHM 111321Z 24012KT 2SM -SHSN BR BKN006 OVC013 RMK SF6SC2

CYHM;2011-03-11 13:45;CYHM 111345Z CCA 24012KT 2 1/2SM -SHSN BR BKN006 OVC012 RMK SF6SC2

CYHM;2011-03-11 14:00;CYHM 111400Z 23012KT 2 1/2SM -SHSN BR BKN007 OVC014 00/00 A2950 RMK SF6SC2 SLP998

CYHM;2011-03-11 14:04;CYHM 111404Z 22012KT 1SM -SHSN BR BKN003 OVC011 RMK SN1SF5SC2

CYHM;2011-03-11 14:11;CYHM 111411Z 24014KT 1/2SM -SHSN FG BKN003 OVC010 RMK SN2SF6SC1

CYHM;2011-03-11 14:19;CYHM 111419Z 23010KT 1SM -SHSN BR BKN003 OVC011 RMK SN2SF5SC2

CYHM;2011-03-11 14:26;CYHM 111426Z 22010KT 2SM -SHSN BR BKN006 OVC013 RMK SF6SC2

CYHM;2011-03-11 14:31;CYHM 111431Z 22012KT 1/2SM -SHSN FG BKN003 OVC010 RMK SN2SF5SC2

CYHM;2011-03-11 15:00;CYHM 111500Z 22014KT 1SM -SHSN BR BKN003 OVC012 00/00 A2952 RMK SN2SF6SC1 SLP003

CYHM;2011-03-11 15:40;CYHM 111540Z 25012KT 3/4SM -SHSN BR BKN005 OVC012 RMK SN2SF5SC2

CYHM;2011-03-11 16:00;CYHM 111600Z 22014G19KT 1SM -SHSN BR BKN005 OVC013 00/00 A2953 RMK SN2SF5SC1 SLP009

CYHM;2011-03-11 16:15;CYHM 111615Z 24016KT 1 1/2SM -SHSN BR BKN007 OVC015 RMK SN1SF6SC2

CYHM;2011-03-11 16:53;CYHM 111653Z CCA 25015G20KT 3/4SM -SHSN BR BKN008 OVC017 RMK SN2SF6SC1

CYHM;2011-03-11 17:00;CYHM 111700Z 23015KT 3/4SM -SHSN BR BKN008 OVC016 00/00 A2956 RMK SN1SF5SC2 SLP017

CYHM;2011-03-11 17:08;CYHM 111708Z 24015KT 2 1/2SM -SHSN SCT008 BKN016 OVC020 RMK SF3SC2SC2

CYHM;2011-03-11 17:32;CYHM 111732Z 25014KT 5SM -SHSN BKN016 OVC022 RMK SC6SC2

CYHM;2011-03-11 18:00;CYHM 111800Z 25018G23KT 15SM -SHSN BKN018 OVC021 01/00 A2958 RMK SC6SC2 SLP023

CYHM;2011-03-11 19:00;CYHM 111900Z 25020G25KT 5SM -SHSN BR BKN018 OVC023 01/M00 A2959 RMK SC6SC2 SLP026

CYHM;2011-03-11 19:14;CYHM 111914Z 24018G25KT 1SM -SHSN BR OVC012 RMK SN2SC6 VIS VRB 3/4 - 11/4

CYHM;2011-03-11 20:00;CYHM 112000Z 25016G26KT 2 1/2SM -SHSN BR OVC012 00/00 A2960 RMK SC8 CIG RAG SLP032

CYHM;2011-03-11 20:11;CYHM 112011Z 25017G22KT 10SM -SHSN FEW007 OVC017 RMK CF2SC6

CYHM;2011-03-11 21:00;CYHM 112100Z 25018G25KT 3SM -SHSN FEW011 OVC017 00/M01 A2963 RMK CF2SC6 VIS VRB 2 - 4 SLP042

CYHM;2011-03-11 21:42;CYHM 112142Z 25018G26KT 1 1/2SM -SHSN OVC018 RMK SN2SC6 VIS VRB 1 - 2

CYHM;2011-03-11 21:54;CYHM 112154Z 25018KT 10SM -SHSN OVC015 RMK SC8

CYHM;2011-03-11 22:00;CYHM 112200Z 25018KT 6SM -SHSN OVC015 M00/M01 A2965 RMK SC8 SLP050

CYHM;2011-03-11 23:00;CYHM 112300Z 25017G24KT 5SM -SHSN OVC016 M00/M02 A2968 RMK SC8 SLP059

CYHM;2011-03-12 00:00;CYHM 120000Z 25016G21KT 15SM -SHSN OVC017 00/M02 A2971 RMK SC8 SLP069

CYHM;2011-03-12 01:00;CYHM 120100Z 25014G19KT 15SM -SHSN OVC017 00/M02 A2973 RMK SC8 SLP077

CYHM;2011-03-12 02:00;CYHM 120200Z 26013G18KT 15SM -SHSN OVC017 M00/M02 A2975 RMK SC8 SLP083

CYHM;2011-03-12 03:00;CYHM 120300Z 26015G20KT 15SM -SHSN OVC017 M00/M02 A2975 RMK SC8 SLP085

CYHM;2011-03-12 04:00;CYHM 120400Z 26013G19KT 15SM -SHSN OVC015 M00/M02 A2976 RMK SC8 SLP086

CYHM;2011-03-12 05:00;CYHM 120500Z 26011KT 15SM OVC017 M00/M02 A2976 RMK SC8 SLP086

CYHM;2011-03-12 06:00;CYHM 120600Z 26015KT 15SM SCT015 OVC072 M00/M02 A2976 RMK SC3AC5 SLP087

CYHM;2011-03-12 07:00;CYHM 120700Z 25012KT 15SM -SHSN FEW012 OVC065 00/M01 A2978 RMK SC2SC6 SLP092

CYHM;2011-03-12 08:00;CYHM 120800Z 26016G21KT 15SM BKN015 OVC029 00/M01 A2978 RMK SC6SC2 SLP092

CYHM;2011-03-12 09:00;CYHM 120900Z 25013KT 15SM -SHSN FEW015 BKN028 M00/M02 A2977 RMK SC2SC3 SLP091

CYHM;2011-03-12 10:00;CYHM 121000Z 24008KT 15SM FEW027 FEW200 M01/M02 A2976 RMK SC1CI1 SLP088

CYHM;2011-03-12 11:00;CYHM 121100Z 25009KT 15SM BKN180 M01/M02 A2976 RMK AC5 SLP088

CYHM;2011-03-12 12:00;CYHM 121200Z 23008KT 15SM BKN160 M01/M02 A2975 RMK AC6 SLP083

CYHM;2011-03-12 13:00;CYHM 121300Z 21009KT 15SM BKN130 M01/M02 A2975 RMK AC7 VIRGA SLP085

CYHM;2011-03-12 14:00;CYHM 121400Z 20008KT 15SM BKN062 OVC120 M01/M02 A2973 RMK SC6AC2 SLP076

CYHM;2011-03-12 15:00;CYHM 121500Z 22008KT 15SM BKN057 OVC080 00/M02 A2972 RMK SC6AC2 SLP073

CYHM;2011-03-12 15:51;CYHM 121551Z 21008KT 15SM -SHSN OVC056 RMK SC8 VIS SW 5

CYHM;2011-03-12 16:00;CYHM 121600Z 21010KT 1 1/4SM -SHSN BKN016 OVC056 00/M01 A2970 RMK SN2SC2SC3 SLP068

CYHM;2011-03-12 16:04;CYHM 121604Z 21012KT 3/8SM SHSN VV006 RMK SN8

CYHM;2011-03-12 16:10;CYHM 121610Z 21012KT 1/4SM +SHSN VV003 RMK SN8

CYHM;2011-03-12 16:24;CYHM 121624Z 21008KT 1 1/2SM -SHSN BKN006 OVC015 RESN RMK SN2SF3SC2

CYHM;2011-03-12 16:38;CYHM 121638Z 20008KT 3/8SM SHSN VV006 RESN RMK SN8

CYHM;2011-03-12 16:48;CYHM 121648Z 20008KT 3/4SM -SHSN OVC004 RESN RMK SN6SF2

CYHM;2011-03-12 17:00;CYHM 121700Z 19006KT 1 1/4SM -SHSN BKN003 OVC009 00/00 A2968 RESN RMK SN2SF3SC2 SLP060

CYHM;2011-03-12 17:06;CYHM 121706Z 19006KT 2SM -SHSN BKN004 OVC010 RMK SN1SF6SC2

CYHM;2011-03-12 17:11;CYHM 121711Z 20008KT 3SM -SHSN BKN004 OVC010 RMK SF6SC2

CYHM;2011-03-12 17:32;CYHM 121732Z 21007KT 5SM -SHSN BR BKN006 OVC017 RMK SF6SC2 PCPN VRY LGT

CYHM;2011-03-12 17:47;CYHM 121747Z 20007KT 5SM BR SCT006 OVC024 RMK SF3SC5

CYHM;2011-03-12 18:00;CYHM 121800Z 19008KT 6SM BR FEW007 OVC027 01/01 A2966 RMK SF2SC6 SLP053

CYHM;2011-03-12 19:00;CYHM 121900Z 20007KT 7SM OVC026 03/02 A2964 RMK SC8 SLP047

CYHM;2011-03-12 20:00;CYHM 122000Z 21008KT 7SM SCT018 OVC028 04/03 A2964 RMK SC3SC5 SLP045

CYHM;2011-03-12 21:00;CYHM 122100Z 23010KT 200V260 8SM SCT017 OVC026 04/02 A2966 RMK SC3SC5 SLP053

CYHM;2011-03-12 21:44;CYHM 122144Z 24007KT 5SM -SHRA BR SCT017 BKN026 OVC035 RMK SC3SC3SC2

CYHM;2011-03-12 22:00;CYHM 122200Z 23007KT 6SM -SHRA BR FEW017 BKN026 OVC037 03/02 A2968 RMK SC2SC2SC3 PCPN VRY LGT SLP059

CYHM;2011-03-12 22:25;CYHM 122225Z 24006KT 7SM SCT013 OVC027 RMK SC4SC4

CYHM;2011-03-12 22:33;CYHM 122233Z 24006KT 7SM BKN012 OVC027 RMK SC6SC2

CYHM;2011-03-12 22:36;CYHM 122236Z 24006KT 6SM -SHRA BR BKN012 OVC027 RMK SC6SC2

CYHM;2011-03-12 22:54;CYHM 122254Z 24011KT 4SM -SHRA BR FEW008 BKN012 OVC019 RMK SF2SC3SC2

CYHM;2011-03-12 23:00;CYHM 122300Z 24011KT 4SM -SHRA BR FEW007 BKN012 OVC019 03/03 A2971 RMK SF2SC4SC2 PCPN VRY LGT SLP068

CYHM;2011-03-13 00:00;CYHM 130000Z 25013KT 7SM -SHRA FEW007 BKN015 OVC024 03/02 A2974 RMK SF1SC4SC3 PCPN VRY LGT SLP080

CYHM;2011-03-13 00:19;CYHM 130019Z 25012KT 9SM FEW008 BKN015 OVC040 RMK CF1SC4SC3

CYHM;2011-03-13 01:00;CYHM 130100Z 24009KT 12SM SCT015 BKN042 OVC057 02/01 A2976 RMK SC3SC3SC2 SLP087

CYHM;2011-03-13 02:00;CYHM 130200Z 25012KT 15SM SCT015 BKN022 OVC032 02/00 A2978 RMK SC3SC3SC2 SLP093

CYHM;2011-03-13 02:33;CYHM 130233Z 25014KT 12SM -SHSN SCT015 OVC022 RMK SC4SC4

CYHM;2011-03-13 03:00;CYHM 130300Z 25013KT 12SM -SHSN SCT016 BKN022 OVC035 02/M00 A2980 RMK SC3SC3SC2 SLP100

CYHM;2011-03-13 04:00;CYHM 130400Z 26014G19KT 6SM -SHSN FEW010 SCT025 OVC086 00/M00 A2981 RMK CF2SC2AC4 SLP104

CYHM;2011-03-13 05:00;CYHM 130500Z 25012G17KT 3SM -SHSN OVC013 00/M01 A2983 RMK SC8 VIS VRB 2 - 4 CIG RAG SLP109

CYHM;2011-03-13 06:00;CYHM 130600Z 25012G17KT 7SM -SHSN OVC017 00/M01 A2984 RMK SC8 SLP114

CYHM;2011-03-13 07:00;CYHM 130700Z 25013G19KT 9SM -SHSN OVC016 01/M02 A2987 RMK SC8 SLP122

CYHM;2011-03-13 08:00;CYHM 130800Z 26015G20KT 12SM -SHSN BKN015 OVC030 00/M01 A2988 RMK SC6SC2 SLP127

CYHM;2011-03-13 09:00;CYHM 130900Z 26010KT 15SM -SHSN OVC018 01/M01 A2991 RMK SC8 SLP137

CYHM;2011-03-13 10:00;CYHM 131000Z 28010G16KT 15SM -SHSN BKN015 OVC045 01/M01 A2995 RMK SC6SC2 PCPN VRY LGT SLP151

CYHM;2011-03-13 11:00;CYHM 131100Z 28008KT 15SM BKN018 BKN026 00/M02 A2999 RMK SC6SC2 SLP164

CYHM;2011-03-13 12:00;CYHM 131200Z 25006KT 15SM SCT017 BKN056 00/M02 A3002 RMK SC3SC4 SLP174

CYHM;2011-03-13 12:23;CYHM 131223Z 25006KT 15SM BKN014 OVC056 RMK SC7SC1

CYHM;2011-03-13 14:00;CYHM 131400Z 27008KT 15SM OVC010 01/M00 A3007 RMK SC8 SLP191

CYHM;2011-03-13 15:00;CYHM 131500Z 27006KT 15SM OVC012 01/M00 A3009 RMK SC8 SLP199

CYHM;2011-03-13 16:00;CYHM 131600Z 28007KT 15SM -SHSN BKN014 OVC052 02/M00 A3011 RMK SC7SC1 PCPN VRY LGT SLP207

CYHM;2011-03-13 16:24;CYHM 131624Z 27008KT 15SM -SHSN BKN016 OVC049 RMK SC6SC2 PCPN VRY LGT

CYHM;2011-03-13 17:00;CYHM 131700Z 29009KT 230V320 15SM BKN015 BKN025 OVC052 02/M01 A3013 RMK SC5SC2SC1 SLP211

CYHM;2011-03-13 18:00;CYHM 131800Z 30008KT 15SM BKN022 OVC051 02/M01 A3014 RMK SC7SC1 SLP216

CYHM;2011-03-13 19:00;CYHM 131900Z 28011KT 250V310 15SM BKN021 OVC029 02/M02 A3015 RMK SC6SC2 SLP218

CYHM;2011-03-13 20:00;CYHM 132000Z 30010KT 270V330 15SM BKN020 OVC029 02/M01 A3016 RMK SC6SC2 SLP223

CYHM;2011-03-13 21:00;CYHM 132100Z 30008KT 270V330 15SM OVC022 02/M01 A3019 RMK SC8 SLP232

CYHM;2011-03-13 22:00;CYHM 132200Z 30012KT 270V330 15SM BKN023 BKN029 OVC060 01/M02 A3021 RMK SC6SC2SC1 SLP241

CYHM;2011-03-13 22:25;CYHM 132225Z 30010KT 15SM -SHSN BKN023 BKN028 OVC061 RMK SC6SC2SC1 PCPN VRY LGT

CYHM;2011-03-13 23:00;CYHM 132300Z 31007KT 15SM BKN022 OVC028 01/M02 A3025 RMK SC6SC2 SLP252

CYHM;2011-03-14 00:00;CYHM 140000Z 30006KT 270V330 15SM OVC022 00/M02 A3026 RMK SC8 SLP259

CYHM;2011-03-14 01:00;CYHM 140100Z 31007KT 15SM OVC023 00/M03 A3028 RMK SC8 SLP264

CYHM;2011-03-14 02:00;CYHM 140200Z 31013KT 15SM -SHSN FEW018 BKN023 OVC032 M00/M03 A3030 RMK SC2SC5SC2 PCPN VRY LGT SLP269

CYHM;2011-03-14 03:00;CYHM 140300Z 34007KT 7SM -SHSN OVC015 M01/M03 A3030 RMK SC8 SLP270

CYHM;2011-03-14 04:00;CYHM 140400Z 35007KT 10SM -SHSN OVC019 M02/M04 A3030 RMK SC8 SLP271

CYHM;2011-03-14 05:00;CYHM 140500Z 35006KT 10SM -SHSN OVC017 M02/M05 A3030 RMK SC8 SLP270

CYHM;2011-03-14 06:00;CYHM 140600Z 32008KT 15SM -SHSN FEW028 OVC078 M02/M06 A3031 RMK SC2AC6 SLP276

CYHM;2011-03-14 07:00;CYHM 140700Z 34010KT 12SM -SHSN FEW027 OVC082 M03/M06 A3032 RMK SC1AC7 SLP279

CYHM;2011-03-14 08:00;CYHM 140800Z 32009KT 12SM -SHSN FEW013 OVC057 M03/M05 A3033 RMK CF2SC6 SLP281

CYHM;2011-03-14 09:00;CYHM 140900Z 33007KT 8SM -SHSN FEW017 OVC088 M03/M05 A3033 RMK CF2AC6 SLP283

CYHM;2011-03-14 10:00;CYHM 141000Z 35007KT 15SM -SHSN FEW020 BKN098 M03/M06 A3035 RMK CF1AC6 SLP287

CYHM;2011-03-14 10:54;CYHM 141054Z 33004KT 15SM FEW030 FEW095 RMK SC1AC2

CYHM;2011-03-14 11:00;CYHM 141100Z 33004KT 15SM FEW030 FEW095 M04/M07 A3038 RMK SC1AC2 SC TR SLP297

CYHM;2011-03-14 12:00;CYHM 141200Z 33006KT 15SM FEW100 FEW240 M05/M07 A3038 RMK AC1CI1 SLP300

CYHM;2011-03-14 13:00;CYHM 141300Z 33012KT 15SM FEW025 FEW240 M04/M07 A3040 RMK CU1CI1 SLP308

CYHM;2011-03-14 14:00;CYHM 141400Z 32006KT 15SM FEW030 M03/M07 A3042 RMK SC1 CU ASOCTD SLP314

CYHM;2011-03-14 15:00;CYHM 141500Z 00000KT 15SM FEW030 FEW240 M02/M07 A3043 RMK CU1CI1 SLP317

CYHM;2011-03-14 16:00;CYHM 141600Z 03004KT 15SM FEW028 FEW240 M01/M06 A3043 RMK CU1CI1 SLP316

CYHM;2011-03-14 17:00;CYHM 141700Z 03004KT 15SM FEW028 SCT240 00/M06 A3042 RMK CU1CI1 SLP313

CYHM;2011-03-14 18:00;CYHM 141800Z 21004KT 15SM FEW028 BKN250 01/M05 A3040 RMK CU2CI1 CONTRAIL SLP306

CYHM;2011-03-14 19:00;CYHM 141900Z 00000KT 15SM FEW028 BKN250 01/M05 A3038 RMK CU2CI1 SLP299

CYHM;2011-03-14 20:00;CYHM 142000Z 21007KT 15SM FEW030 BKN250 02/M05 A3037 RMK CU2CI1 SLP297

CYHM;2011-03-14 21:00;CYHM 142100Z 19008KT 15SM SCT026 SCT250 02/M03 A3036 RMK CU3CI0 SC ASOCTD SLP293

CYHM;2011-03-14 22:00;CYHM 142200Z 19010KT 15SM FEW024 BKN240 02/M03 A3036 RMK CU2CI2 SLP293

CYHM;2011-03-14 23:00;CYHM 142300Z 19009KT 15SM FEW022 BKN250 M00/M03 A3036 RMK SC1CI2 SLP292

CYHM;2011-03-15 00:00;CYHM 150000Z 19005KT 15SM FEW024 SCT250 M01/M04 A3038 RMK SC1CI1 SC TR SLP301

CYHM;2011-03-15 01:00;CYHM 150100Z 21004KT 15SM FEW250 M03/M04 A3039 RMK CI1 SLP302

CYHM;2011-03-15 02:00;CYHM 150200Z 21003KT 15SM FEW250 M03/M04 A3038 RMK CI1 SLP300

CYHM;2011-03-15 03:00;CYHM 150300Z 22002KT 15SM SKC M03/M04 A3040 RMK SLP306

CYHM;2011-03-15 04:00;CYHM 150400Z 00000KT 15SM SKC M03/M04 A3041 RMK SLP310

CYHM;2011-03-15 05:00;CYHM 150500Z 00000KT 15SM SKC M03/M04 A3040 RMK SLP308

CYHM;2011-03-15 06:00;CYHM 150600Z 00000KT 15SM SKC M03/M05 A3040 RMK SLP307

CYHM;2011-03-15 07:00;CYHM 150700Z 00000KT 15SM BKN250 M04/M05 A3039 RMK CI0 SLP303

CYHM;2011-03-15 08:00;CYHM 150800Z 00000KT 15SM BKN250 M04/M05 A3036 RMK CI0 SLP292

CYHM;2011-03-15 09:00;CYHM 150900Z 00000KT 15SM BKN250 M04/M05 A3033 RMK CI1 SLP283

CYHM;2011-03-15 10:00;CYHM 151000Z 11002KT 15SM BKN250 M04/M05 A3033 RMK CI1 SLP283

CYHM;2011-03-15 11:00;CYHM 151100Z 06006KT 15SM BKN220 M04/M06 A3033 RMK CI5 SLP280

CYHM;2011-03-15 12:00;CYHM 151200Z 06005KT 15SM BKN220 M04/M06 A3033 RMK CI5 SLP283

CYHM;2011-03-15 13:00;CYHM 151300Z 05008KT 15SM BKN220 M02/M04 A3032 RMK CI4 SLP278

CYHM;2011-03-15 14:00;CYHM 151400Z 06008KT 15SM BKN210 M00/M03 A3032 RMK CI6 CONTRAILS SLP278

CYHM;2011-03-15 15:00;CYHM 151500Z 06012KT 15SM FEW180 BKN240 01/M02 A3030 RMK AC1CI3 CONTRAILS SLP271

CYHM;2011-03-15 16:00;CYHM 151600Z 06012KT 15SM FEW180 BKN240 03/M01 A3029 RMK AC1CI3 SLP269

CYHM;2011-03-15 17:00;CYHM 151700Z 06014KT 15SM FEW180 OVC220 03/M01 A3026 RMK AC2CI6 SLP260

CYHM;2011-03-15 18:00;CYHM 151800Z 05014KT 15SM BKN250 03/M00 A3024 RMK CS6 SLP251

CYHM;2011-03-15 19:00;CYHM 151900Z 05015KT 15SM BKN250 03/M01 A3020 RMK CS6 SUN DMLY VSBL SLP238

CYHM;2011-03-15 20:00;CYHM 152000Z 05015KT 15SM BKN250 03/M00 A3018 RMK CS6 SUN DMLY VSBL SLP232

CYHM;2011-03-15 21:00;CYHM 152100Z 05015KT 15SM BKN190 BKN250 03/00 A3017 RMK AC5CS2 SLP226

CYHM;2011-03-15 22:00;CYHM 152200Z 05015KT 15SM BKN120 OVC200 02/00 A3016 RMK AC6CS2 SLP224

CYHM;2011-03-15 23:00;CYHM 152300Z 05012KT 12SM BKN060 BKN080 OVC120 02/00 A3014 RMK SC6AC1AC1 SLP218

CYHM;2011-03-16 00:00;CYHM 160000Z 05011KT 8SM FEW064 BKN083 OVC120 01/00 A3013 RMK SC2AC5AC1 SLP214

CYHM;2011-03-16 01:00;CYHM 160100Z 05009KT 8SM FEW036 OVC068 01/01 A3011 RMK SC2AC6 SLP208

CYHM;2011-03-16 02:00;CYHM 160200Z CCA 03005KT 5SM -SHRA BR FEW024 BKN035 OVC064 01/01 A3010 RMK SF2SC5SC2 SLP204

CYHM;2011-03-16 03:00;CYHM 160300Z 06005KT 4SM -SHRA BR BKN032 OVC040 01/01 A3008 RMK SC6SC2 SLP197

CYHM;2011-03-16 04:00;CYHM 160400Z 07002KT 4SM -SHRA BR OVC026 01/01 A3006 RMK SC8 SF ASOCTD SLP190

CYHM;2011-03-16 05:00;CYHM 160500Z 07004KT 5SM -SHRA BR FEW018 OVC027 01/01 A3004 RMK SF1SC7 SLP184

CYHM;2011-03-16 06:00;CYHM 160600Z 12004KT 3SM -SHRA BR FEW014 OVC022 02/02 A3003 RMK SC2SC6 SF ASOCTD SLP176

CYHM;2011-03-16 07:00;CYHM 160700Z 15003KT 2 1/2SM -SHRA BR FEW009 OVC015 02/02 A3001 RMK SF2SC6 SLP169

CYHM;2011-03-16 08:00;CYHM 160800Z 15003KT 2 1/2SM -SHRA BR OVC009 03/03 A2998 RMK SC8 SF ASOCTD SLP160

CYHM;2011-03-16 08:48;CYHM 160848Z 16003KT 2SM -RA BR OVC003 RMK SC8

CYHM;2011-03-16 09:00;CYHM 160900Z 16003KT 2SM -RA BR OVC003 03/03 A2996 RMK SC8 SLP154

CYHM;2011-03-16 10:00;CYHM 161000Z 19004KT 2 1/2SM -RA BR BKN002 OVC006 03/03 A2996 RMK SF6SC2 SLP153

CYHM;2011-03-16 10:45;CYHM 161045Z 20003KT 1 1/2SM -RA BR OVC002 RMK FG5SF3

CYHM;2011-03-16 10:53;CYHM 161053Z 20004KT 1/2SM -RA FG OVC002 RMK FG6SF2

CYHM;2011-03-16 11:00;CYHM 161100Z 20004KT 1/4SM -RA FG VV001 03/03 A2995 RMK FG8 SLP152

CYHM;2011-03-16 11:13;CYHM 161113Z 20005KT 1/8SM -RA FG VV001 RMK FG8

CYHM;2011-03-16 12:00;CYHM 161200Z 21005KT 1/8SM -RA FG VV001 03/03 A2996 RMK FG8 SLP154

CYHM;2011-03-16 13:00;CYHM 161300Z 24008KT 1/2SM -RA FG OVC002 04/04 A2997 RMK FG6SF2 SLP156

CYHM;2011-03-16 13:11;CYHM 161311Z 24008KT 1 1/2SM -RA BR OVC002 RMK FG3SF5

CYHM;2011-03-16 13:34;CYHM 161334Z 25010KT 2 1/2SM -RA BR BKN005 OVC009 RMK SF5SC3

CYHM;2011-03-16 14:00;CYHM 161400Z 26012KT 3SM -RA BR BKN007 OVC011 04/04 A2999 RMK SF6SC2 SLP164

CYHM;2011-03-16 15:00;CYHM 161500Z 26011KT 4SM -RA BR BKN008 OVC012 04/04 A3000 RMK SF6SC2 SLP166

CYHM;2011-03-16 16:00;CYHM 161600Z 28014KT 6SM -RA BR BKN009 OVC014 03/03 A3002 RMK SC6SC2 SLP173

CYHM;2011-03-16 16:02;CYHM 161602Z 26014KT 6SM BR BKN010 OVC015 RMK SC6SC2

CYHM;2011-03-16 17:00;CYHM 161700Z 24010KT 8SM BKN012 OVC028 04/03 A3002 RMK SC6SC2 SLP175

CYHM;2011-03-16 18:00;CYHM 161800Z 25012KT 15SM BKN011 OVC015 04/02 A3003 RMK SC5SC3 SLP177

CYHM;2011-03-16 19:00;CYHM 161900Z 23011KT 12SM FEW008 BKN010 BKN029 05/03 A3001 RMK CF1SC4SC2 SLP171

CYHM;2011-03-16 20:00;CYHM 162000Z 25010KT 220V280 12SM FEW009 BKN014 BKN019 06/04 A3002 RMK CF1SC4SC2 SLP173

CYHM;2011-03-16 20:22;CYHM 162022Z 25011KT 15SM SCT014 BKN019 RMK SC4SC2

CYHM;2011-03-16 21:00;CYHM 162100Z 25011KT 15SM FEW012 FEW019 08/04 A3002 RMK SC2SC1 SLP173

CYHM;2011-03-16 22:00;CYHM 162200Z 25011KT 15SM FEW012 FEW020 08/01 A3004 RMK CF1SC1 SC TR SLP179

CYHM;2011-03-16 23:00;CYHM 162300Z 25009KT 15SM FEW040 07/M00 A3007 RMK SC1 SLP187

CYHM;2011-03-17 00:00;CYHM 170000Z 21008KT 15SM FEW200 04/01 A3008 RMK CI1 SLP195

CYHM;2011-03-17 01:00;CYHM 170100Z 21009KT 11SM SKC 03/02 A3009 RMK SLP198

CYHM;2011-03-17 02:00;CYHM 170200Z 22007KT 11SM SKC 02/01 A3010 RMK SLP199

CYHM;2011-03-17 03:00;CYHM 170300Z 23007KT 10SM SKC 01/00 A3010 RMK SLP201

CYHM;2011-03-17 04:00;CYHM 170400Z 22007KT 8SM FEW200 00/M00 A3009 RMK CI1 SLP198

CYHM;2011-03-17 05:00;CYHM 170500Z 24008KT 7SM BKN200 01/00 A3010 RMK CI5 SLP201

CYHM;2011-03-17 06:00;CYHM 170600Z CCA 22007KT 7SM FEW170 SCT210 M00/M00 A3010 RMK AC1CI2 SLP201

CYHM;2011-03-17 07:00;CYHM 170700Z 23006KT 7SM BKN150 BKN210 00/00 A3010 RMK AC5CI1 SLP203

CYHM;2011-03-17 08:00;CYHM 170800Z 21005KT 7SM FEW170 BKN210 M00/M00 A3009 RMK AC1CI2 SLP199

CYHM;2011-03-17 09:00;CYHM 170900Z 21006KT 6SM BR BKN210 M00/M00 A3010 RMK CI4 SLP199

CYHM;2011-03-17 10:00;CYHM 171000Z 20005KT 5SM BR BKN140 M00/M00 A3011 RMK AC4 SLP204

CYHM;2011-03-17 11:00;CYHM 171100Z 19005KT 6SM BR FEW160 SCT220 01/01 A3011 RMK AC1CI2 SLP205

CYHM;2011-03-17 11:16;CYHM 171116Z 18006KT 2SM BR FEW150 SCT220 RMK AC1CI1

CYHM;2011-03-17 12:00;CYHM 171200Z 18007KT 2 1/2SM BR FEW045 FEW140 BKN220 02/01 A3012 RMK SC1AC2CI2 SLP209

CYHM;2011-03-17 13:00;CYHM 171300Z 21004KT 5SM BR FEW140 SCT220 03/02 A3011 RMK AC1CI1 SLP205

CYHM;2011-03-17 14:00;CYHM 171400Z 20012KT 15SM BKN220 05/04 A3010 RMK CI5 SLP202

CYHM;2011-03-17 15:00;CYHM 171500Z 21012KT 15SM BKN220 08/05 A3009 RMK CI6 SLP197

CYHM;2011-03-17 16:00;CYHM 171600Z 22016KT 15SM BKN220 10/05 A3006 RMK CI3 SLP188

CYHM;2011-03-17 17:00;CYHM 171700Z 22014G19KT 15SM SCT220 11/06 A3005 RMK CI2 SLP183

CYHM;2011-03-17 18:00;CYHM 171800Z 20015KT 15SM FEW180 BKN220 12/06 A2999 RMK AC1CI3 SLP163

CYHM;2011-03-17 19:00;CYHM 171900Z 20020KT 12SM FEW160 BKN220 13/06 A2995 RMK AC2CI5 SLP150

CYHM;2011-03-17 20:00;CYHM 172000Z 20020KT 15SM FEW150 OVC220 13/05 A2994 RMK AC2CS5 SLP145

CYHM;2011-03-17 21:00;CYHM 172100Z 20015G20KT 15SM FEW150 BKN220 13/06 A2991 RMK AC2CI6 SLP133

CYHM;2011-03-17 22:00;CYHM 172200Z 19018KT 15SM FEW160 OVC220 13/06 A2987 RMK AC2CI5 SLP120

CYHM;2011-03-17 23:00;CYHM 172300Z 19019G27KT 15SM FEW160 OVC230 12/05 A2983 RMK AC2CI5 CONTRAILS SLP108

CYHM;2011-03-18 00:00;CYHM 180000Z 19016KT 15SM FEW160 SCT230 11/05 A2981 RMK AC1CI1 SLP102

CYHM;2011-03-18 01:00;CYHM 180100Z 19017KT 15SM BKN046 12/05 A2981 RMK SC7 SLP099

CYHM;2011-03-18 02:00;CYHM 180200Z 19014KT 15SM OVC048 12/05 A2981 RMK SC8 SLP099

CYHM;2011-03-18 03:00;CYHM 180300Z 19016G22KT 15SM OVC045 12/06 A2977 RMK SC8 SLP083

CYHM;2011-03-18 04:00;CYHM 180400Z 20020G25KT 15SM OVC041 13/06 A2974 RMK SC8 SLP074

CYHM;2011-03-18 05:00;CYHM 180500Z 22020G30KT 15SM FEW028 BKN037 OVC082 14/09 A2971 RMK SC2SC5AC2 SLP064

CYHM;2011-03-18 06:00;CYHM 180600Z 23026KT 15SM FEW038 OVC071 15/09 A2970 RMK SC2AC6 SLP058

CYHM;2011-03-18 07:00;CYHM 180700Z 23023KT 15SM FEW036 OVC067 15/10 A2970 RMK SC2AC6 SLP060

CYHM;2011-03-18 08:00;CYHM 180800Z 24020KT 15SM FEW026 OVC067 14/10 A2971 RMK SC2AC6 SLP063

CYHM;2011-03-18 09:00;CYHM 180900Z 28020G30KT 15SM BKN018 OVC067 13/11 A2976 RMK SC7AC1 SLP079

CYHM;2011-03-18 10:00;CYHM 181000Z 29012G18KT 15SM FEW018 BKN250 10/07 A2982 RMK SC1CI2 PRESRR SLP100

CYHM;2011-03-18 11:00;CYHM 181100Z CCA 29008KT 15SM FEW035 BKN220 08/04 A2988 RMK SC1CI3 SLP121

CYHM;2011-03-18 12:00;CYHM 181200Z 28008KT 15SM FEW055 BKN220 06/03 A2993 RMK SC1CI4 PRESRR CONTRAILS SLP141

CYHM;2011-03-18 13:00;CYHM 181300Z 25005KT 15SM FEW120 OVC240 07/03 A2995 RMK AC1CI6 CONTRAILS SLP148

CYHM;2011-03-18 14:00;CYHM 181400Z 28007KT 15SM FEW140 BKN240 08/03 A2998 RMK AC1CI5 SLP157

CYHM;2011-03-18 15:00;CYHM 181500Z 25010KT 15SM FEW025 FEW140 BKN210 08/03 A2999 RMK CU1AC1CS4 HALO SLP159

CYHM;2011-03-18 16:00;CYHM 181600Z 25012KT 15SM FEW028 BKN210 10/04 A3000 RMK CU2CI4 HALO SLP163

CYHM;2011-03-18 17:00;CYHM 181700Z 26015KT 15SM FEW036 FEW160 BKN220 11/04 A3000 RMK CU1AC1CI3 SLP161

CYHM;2011-03-18 18:00;CYHM 181800Z 30012KT 15SM FEW035 FEW042 SCT140 BKN210 12/05 A2999 RMK CU2SC1AC2CI2 SLP156

CYHM;2011-03-18 19:00;CYHM 181900Z 27014KT 15SM SCT042 BKN200 13/06 A2996 RMK CU3CI2 SLP148

CYHM;2011-03-18 20:00;CYHM 182000Z 29018G24KT 15SM SCT030 BKN150 BKN210 11/06 A2997 RMK CU3AC2CI2 SLP150

CYHM;2011-03-18 21:00;CYHM 182100Z 29017G22KT 15SM FEW025 BKN180 08/03 A3001 RMK CU2AC4 SLP164

CYHM;2011-03-18 22:00;CYHM 182200Z 30017KT 15SM BKN032 BKN230 08/03 A3003 RMK CU5CI2 SLP172

CYHM;2011-03-18 23:00;CYHM 182300Z 30015G20KT 15SM BKN028 06/02 A3007 RMK SC7 CU ASOCTD SLP185

CYHM;2011-03-19 00:00;CYHM 190000Z 32010KT 15SM FEW025 SCT033 SCT130 04/01 A3009 RMK CF2SC2AC1 SLP196

CYHM;2011-03-19 01:00;CYHM 190100Z 31007KT 15SM FEW030 SCT058 03/M00 A3009 RMK CF2SC2 SLP197

CYHM;2011-03-19 02:00;CYHM 190200Z 33009KT 15SM BKN067 03/00 A3010 RMK AC7 SLP201

CYHM;2011-03-19 03:00;CYHM 190300Z 32006KT 15SM FEW025 BKN069 03/00 A3012 RMK CF1AC6 SLP206

CYHM;2011-03-19 04:00;CYHM 190400Z 30007KT 15SM FEW018 OVC067 02/M01 A3015 RMK CF2AC6 SLP217

CYHM;2011-03-19 05:00;CYHM 190500Z 30007KT 15SM BKN018 OVC068 02/M00 A3017 RMK SC6AC2 FEW CF SLP224

CYHM;2011-03-19 06:00;CYHM 190600Z 32009KT 15SM FEW017 BKN066 01/M02 A3020 RMK SC2AC6 SLP233

CYHM;2011-03-19 07:00;CYHM 190700Z 30011KT 15SM BKN026 BKN063 01/M02 A3024 RMK SC6SC2 SLP245

CYHM;2011-03-19 08:00;CYHM 190800Z 29009KT 15SM OVC026 00/M03 A3025 RMK SC8 SLP250

CYHM;2011-03-19 09:00;CYHM 190900Z 29009KT 15SM OVC027 01/M03 A3026 RMK SC8 SLP255

CYHM;2011-03-19 10:00;CYHM 191000Z 30008KT 15SM OVC035 M00/M04 A3029 RMK SC8 SLP263

CYHM;2011-03-19 11:00;CYHM 191100Z 29006KT 15SM BKN018 M00/M03 A3031 RMK SC7 SLP270

CYHM;2011-03-19 12:00;CYHM 191200Z 29006KT 15SM SCT021 BKN042 M00/M03 A3034 RMK SC3SC4 SLP284

CYHM;2011-03-19 13:00;CYHM 191300Z 29005KT 15SM BKN034 00/M02 A3037 RMK SC7 SLP294

CYHM;2011-03-19 14:00;CYHM 191400Z 27006KT 15SM FEW018 BKN034 01/M02 A3039 RMK CU1SC6 SLP302

CYHM;2011-03-19 15:00;CYHM 191500Z 30007KT 15SM BKN031 01/M05 A3042 RMK SC7 SLP310

CYHM;2011-03-19 16:00;CYHM 191600Z 29009KT 250V330 15SM BKN034 02/M04 A3042 RMK SC7 SLP312

CYHM;2011-03-19 17:00;CYHM 191700Z 30010KT 260V350 15SM BKN036 02/M05 A3043 RMK SC7 SLP315

CYHM;2011-03-19 18:00;CYHM 191800Z 29010KT 230V330 15SM BKN036 03/M04 A3044 RMK SC6 SLP319

CYHM;2011-03-19 19:00;CYHM 191900Z 30010KT 15SM BKN035 03/M04 A3044 RMK SC6 SLP317

CYHM;2011-03-19 20:00;CYHM 192000Z 31014KT 15SM BKN034 03/M04 A3046 RMK SC6 SLP323

CYHM;2011-03-19 21:00;CYHM 192100Z 32011KT 15SM BKN033 02/M04 A3047 RMK SC6 SLP328

CYHM;2011-03-19 22:00;CYHM 192200Z 32010KT 15SM BKN030 01/M05 A3048 RMK SC6 SLP332

CYHM;2011-03-19 23:00;CYHM 192300Z 30007KT 260V330 15SM BKN029 00/M05 A3050 RMK SC7 SLP338

CYHM;2011-03-20 00:00;CYHM 200000Z 32008KT 15SM BKN028 M00/M05 A3051 RMK SC6 SLP342

CYHM;2011-03-20 01:00;CYHM 200100Z 29004KT 15SM FEW028 M02/M06 A3053 RMK SC1 SLP351

CYHM;2011-03-20 02:00;CYHM 200200Z 29005KT 15SM FEW030 M03/M06 A3056 RMK SC1 SC TR SLP360

CYHM;2011-03-20 03:00;CYHM 200300Z 33005KT 15SM FEW200 M03/M06 A3057 RMK CI1 SLP363

CYHM;2011-03-20 04:00;CYHM 200400Z 34004KT 15SM FEW200 M03/M06 A3057 RMK CI1 SLP364

CYHM;2011-03-20 05:00;CYHM 200500Z 01005KT 15SM FEW200 M03/M07 A3056 RMK CI1 SLP361

CYHM;2011-03-20 06:00;CYHM 200600Z 01004KT 15SM FEW200 M03/M06 A3057 RMK CI1 SLP364

CYHM;2011-03-20 07:00;CYHM 200700Z 00000KT 15SM FEW200 M04/M07 A3059 RMK CI1 SLP369

CYHM;2011-03-20 08:00;CYHM 200800Z 00000KT 15SM FEW200 M05/M07 A3059 RMK CI2 SLP368

CYHM;2011-03-20 09:00;CYHM 200900Z 00000KT 15SM FEW200 M05/M07 A3060 RMK CI2 FROIN SLP376

CYHM;2011-03-20 10:00;CYHM 201000Z 00000KT 15SM FEW200 M06/M06 A3060 RMK CI2 FROIN SLP375

CYHM;2011-03-20 11:00;CYHM 201100Z 00000KT 15SM FEW200 M05/M07 A3059 RMK CI2 SLP370

CYHM;2011-03-20 12:00;CYHM 201200Z 03004KT 15SM FEW200 M05/M06 A3059 RMK CI2 SLP372

CYHM;2011-03-20 13:00;CYHM 201300Z 06006KT 15SM BKN250 M02/M05 A3058 RMK CI2 SLP369

CYHM;2011-03-20 14:00;CYHM 201400Z 06007KT 15SM BKN230 M01/M04 A3059 RMK CI3 SLP372

CYHM;2011-03-20 15:00;CYHM 201500Z 06007KT 030V130 15SM FEW170 BKN230 01/M03 A3057 RMK AC1CI2 SLP363

CYHM;2011-03-20 16:00;CYHM 201600Z 08006KT 15SM FEW160 BKN230 02/M03 A3054 RMK AC2CI2 SLP355

CYHM;2011-03-20 17:00;CYHM 201700Z 03007KT 15SM BKN130 BKN230 02/M03 A3052 RMK AC6CI2 SLP348

CYHM;2011-03-20 18:00;CYHM 201800Z 08009KT 15SM BKN130 OVC230 02/M02 A3048 RMK AC6CI2 SLP334

CYHM;2011-03-20 19:00;CYHM 201900Z 05009KT 010V080 15SM SCT130 OVC230 03/M02 A3047 RMK AC4CI3 SLP329

CYHM;2011-03-20 20:00;CYHM 202000Z 06013KT 15SM FEW100 BKN130 OVC220 03/M02 A3042 RMK AC2AC3CI2 SLP312

CYHM;2011-03-20 21:00;CYHM 202100Z 05017KT 15SM FEW100 BKN140 OVC230 02/M03 A3036 RMK AC2AC4CI2 SLP292

CYHM;2011-03-20 22:00;CYHM 202200Z 06017KT 15SM FEW100 OVC130 01/M02 A3034 RMK AC2AS6 SLP285

CYHM;2011-03-20 23:00;CYHM 202300Z 05017G22KT 15SM SCT100 OVC120 00/M02 A3031 RMK AC3AC5 SLP275

CYHM;2011-03-21 00:00;CYHM 210000Z 05018KT 15SM SCT070 OVC090 01/M02 A3030 RMK AC3AC5 SLP273

CYHM;2011-03-21 01:00;CYHM 210100Z 04018KT 15SM SCT064 OVC077 01/M02 A3025 RMK SC4AC4 VIRGA SLP257

CYHM;2011-03-21 02:00;CYHM 210200Z 05016KT 15SM SCT062 OVC082 01/M01 A3022 RMK SC3AC5 SLP247

CYHM;2011-03-21 03:00;CYHM 210300Z 04013KT 15SM OVC070 01/M01 A3021 RMK AC8 SLP241

CYHM;2011-03-21 04:00;CYHM 210400Z 05010KT 15SM OVC044 01/M01 A3015 RMK SC8 PRESFR SLP219

CYHM;2011-03-21 05:00;CYHM 210500Z 06011KT 15SM OVC056 01/M01 A3009 RMK SC8 PRESFR SLP200

CYHM;2011-03-21 06:00;CYHM 210600Z 04007KT 15SM -SHRA OVC043 02/00 A3007 RMK SC8 SLP191

CYHM;2011-03-21 07:00;CYHM 210700Z 11008KT 7SM -SHRA OVC075 02/01 A2999 RMK AC8 PRESFR SLP164

CYHM;2011-03-21 07:42;CYHM 210742Z 16006KT 6SM -SHRA OVC013 RERA RMK SC8 PRESFR

CYHM;2011-03-21 08:00;CYHM 210800Z 14008KT 6SM -SHRA OVC007 03/03 A2991 RERA RMK SF8 PRESFR SLP139

CYHM;2011-03-21 08:38;CYHM 210838Z 00000KT 4SM SHRA BR OVC004 RMK SF8

CYHM;2011-03-21 09:00;CYHM 210900Z 00000KT 6SM -SHRA BR OVC004 04/04 A2990 RERA RMK SF8 SLP132

CYHM;2011-03-21 09:54;CYHM 210954Z 17006KT 2SM SHRA BR OVC005 RMK FG1SF7 PRESFR

CYHM;2011-03-21 10:00;CYHM 211000Z 20004KT 2SM SHRA BR OVC004 04/04 A2987 RERA RMK FG1SF7 SLP122

CYHM;2011-03-21 10:17;CYHM 211017Z 00000KT 2 1/2SM -SHRA BR OVC005 RMK SF8 RERA

CYHM;2011-03-21 11:00;CYHM 211100Z CCA 35006KT 2 1/2SM -SHRA BR OVC032 03/03 A2989 RMK SF8 SLP130

CYHM;2011-03-21 12:00;CYHM 211200Z 22005KT 3SM -SHRA BKN019 OVC032 05/05 A2987 RMK SC6SC2 SLP123

CYHM;2011-03-21 12:13;CYHM 211213Z 22004KT 3SM BR BKN027 OVC032 RMK SC6SC2

CYHM;2011-03-21 13:00;CYHM 211300Z 24004KT 4SM BR OVC016 05/05 A2986 RMK SC8 SLP121

CYHM;2011-03-21 14:00;CYHM 211400Z 24006KT 5SM BR FEW005 BKN011 OVC032 06/06 A2988 RMK SF2SC6SC1 SLP125

CYHM;2011-03-21 14:19;CYHM 211419Z 25007KT 6SM BR BKN008 OVC022 RMK SF6SC2

CYHM;2011-03-21 15:00;CYHM 211500Z 25009KT 6SM BR BKN008 OVC019 07/07 A2987 RMK SF6SC2 SLP121

CYHM;2011-03-21 16:00;CYHM 211600Z 27008KT 6SM BR OVC011 08/07 A2986 RMK SC8 SLP119

CYHM;2011-03-21 17:00;CYHM 211700Z 26012KT 7SM OVC014 09/08 A2986 RMK SC8 SLP120

CYHM;2011-03-21 18:00;CYHM 211800Z 28016G22KT 7SM BKN012 OVC015 09/07 A2988 RMK SC6SC2 SLP126

CYHM;2011-03-21 19:00;CYHM 211900Z 28013G20KT 15SM FEW008 OVC013 08/06 A2990 RMK SF1SC7 SLP132

CYHM;2011-03-21 20:00;CYHM 212000Z 28012KT 15SM FEW009 OVC018 07/05 A2991 RMK SF1SC7 SLP134

CYHM;2011-03-21 21:00;CYHM 212100Z 26013KT 15SM FEW009 OVC018 07/05 A2993 RMK SF1SC7 SLP141

CYHM;2011-03-21 22:00;CYHM 212200Z 29010KT 15SM SCT015 OVC020 06/04 A2994 RMK SF3SC5 SLP146

CYHM;2011-03-21 23:00;CYHM 212300Z 28005KT 15SM OVC019 06/04 A2996 RMK SC8 SLP151

CYHM;2011-03-22 00:00;CYHM 220000Z 32004KT 15SM OVC016 06/04 A2997 RMK SC8 SLP155

CYHM;2011-03-22 01:00;CYHM 220100Z 32010KT 15SM SCT018 OVC028 05/03 A2998 RMK SC3SC5 SLP159

CYHM;2011-03-22 02:00;CYHM 220200Z 30010KT 15SM SCT018 OVC025 05/03 A3001 RMK SC3SC5 SLP167

CYHM;2011-03-22 03:00;CYHM 220300Z 31007KT 15SM FEW018 OVC026 04/02 A3001 RMK SF2SC6 SLP169

CYHM;2011-03-22 04:00;CYHM 220400Z 31013KT 15SM OVC025 04/01 A3002 RMK SC8 SLP171

CYHM;2011-03-22 05:00;CYHM 220500Z 31005KT 15SM OVC028 03/01 A3003 RMK SC8 SLP176

CYHM;2011-03-22 06:00;CYHM 220600Z 31006KT 15SM OVC035 03/01 A3004 RMK SC8 SLP180

CYHM;2011-03-22 07:00;CYHM 220700Z 30004KT 15SM OVC036 03/01 A3004 RMK SC8 SLP180

CYHM;2011-03-22 08:00;CYHM 220800Z 34005KT 15SM OVC034 03/01 A3005 RMK SC8 SLP181

CYHM;2011-03-22 09:00;CYHM 220900Z 35007KT 15SM FEW018 OVC026 03/01 A3006 RMK SF1SC7 SLP185

CYHM;2011-03-22 09:23;CYHM 220923Z 35008KT 15SM -SHRA FEW015 OVC021 RMK SF1SC7

CYHM;2011-03-22 10:00;CYHM 221000Z 35012KT 15SM -SHRA FEW016 OVC019 02/M01 A3007 RMK SC1SC7 PCPN VRY LGT SLP188

CYHM;2011-03-22 11:00;CYHM 221100Z 01010KT 15SM BKN025 02/M03 A3009 RMK SC7 SLP196

CYHM;2011-03-22 12:00;CYHM 221200Z 02009KT 15SM BKN027 02/M02 A3012 RMK SC7 SLP206

CYHM;2011-03-22 13:00;CYHM 221300Z 01008KT 15SM FEW015 OVC025 02/M02 A3012 RMK CF1SC7 SLP208

CYHM;2011-03-22 14:00;CYHM 221400Z 01007KT 15SM SCT028 BKN032 03/M02 A3012 RMK CU4SC2 SLP207

CYHM;2011-03-22 15:00;CYHM 221500Z 02008KT 15SM FEW025 BKN032 03/M03 A3012 RMK CU2SC3 SLP208

CYHM;2011-03-22 16:00;CYHM 221600Z 03012KT 15SM FEW028 BKN031 04/M01 A3010 RMK CU1SC6 SLP200

CYHM;2011-03-22 17:00;CYHM 221700Z 03007KT 15SM FEW025 BKN031 BKN100 04/M02 A3009 RMK CU1SC6AC1 SLP196

CYHM;2011-03-22 18:00;CYHM 221800Z 35007KT 15SM BKN036 BKN120 05/M02 A3008 RMK SC6AC1 SLP193

CYHM;2011-03-22 19:00;CYHM 221900Z 36007KT 15SM BKN038 BKN120 05/M02 A3006 RMK SC6AC1 SLP187

CYHM;2011-03-22 20:00;CYHM 222000Z 04011KT 15SM OVC033 04/M02 A3005 RMK SC8 SLP185

CYHM;2011-03-22 21:00;CYHM 222100Z 03008KT 15SM OVC035 04/M02 A3004 RMK SC8 SLP180

CYHM;2011-03-22 22:00;CYHM 222200Z 06006KT 15SM OVC034 04/M02 A3005 RMK SC8 SLP183

CYHM;2011-03-22 23:00;CYHM 222300Z 05006KT 15SM OVC030 03/M02 A3005 RMK SC8 SLP185

CYHM;2011-03-23 00:00;CYHM 230000Z 07008KT 15SM OVC037 03/M01 A3003 RMK SC8 SLP179

CYHM;2011-03-23 01:00;CYHM 230100Z 08009KT 15SM BKN036 OVC120 03/M02 A3002 RMK SC6AC2 SLP174

CYHM;2011-03-23 02:00;CYHM 230200Z 07007KT 15SM BKN036 OVC120 02/M02 A3003 RMK SC5AC3 SLP178

CYHM;2011-03-23 03:00;CYHM 230300Z 06013KT 15SM SCT038 OVC120 02/M02 A3000 RMK SC4AC4 SLP168

CYHM;2011-03-23 04:00;CYHM 230400Z 04010KT 15SM FEW038 BKN088 OVC110 02/M03 A2997 RMK SC2AC5AC2 SLP158

CYHM;2011-03-23 05:00;CYHM 230500Z 05013KT 15SM -SHSN SCT031 OVC080 01/M04 A2998 RMK SC3AC5 SLP160

CYHM;2011-03-23 06:00;CYHM 230600Z 07016G25KT 2SM -SN FEW008 OVC018 M00/M02 A2995 RMK SF2SC6 SLP150

CYHM;2011-03-23 07:00;CYHM 230700Z 06015G22KT 2SM -SN SCT007 OVC010 M02/M03 A2994 RMK SN2SF2SC5 SLP149

CYHM;2011-03-23 08:00;CYHM 230800Z 06018G26KT 1 1/4SM -SN BLSN SCT007 OVC012 M03/M03 A2993 RMK SN3SF1SC4 SLP143

CYHM;2011-03-23 09:00;CYHM 230900Z 06018G24KT 5/8SM -SN BLSN OVC009 M03/M04 A2988 RMK SN4SC4 VSBY VRBL 1/4-1SM SLP127

CYHM;2011-03-23 09:34;CYHM 230934Z 07020G26KT 1 1/4SM -SN BLSN SCT009 OVC022 RMK SN2SF2SC4 VSBY VRBL 3/4-13/4SM

CYHM;2011-03-23 10:00;CYHM 231000Z 06018G24KT 1 1/4SM -SN BLSN SCT012 OVC022 M04/M04 A2984 RMK SN2SF2SC4 VSBY VRBL 3/4-13/4SM SLP114

CYHM;2011-03-23 10:17;CYHM 231017Z 06018G25KT 1 1/2SM -SN BLSN BKN009 OVC022 RMK SN2SF4SC2 VIS VRBL 1-2SM

CYHM;2011-03-23 10:48;CYHM 231048Z 08018G24KT 1 1/4SM -SN DRSN BKN007 OVC020 RMK SN2SF4SC2

CYHM;2011-03-23 11:00;CYHM 231100Z 06022G28KT 1SM -SN BLSN BKN007 OVC020 M04/M04 A2982 RMK SN3SF3SC2 SLP109

CYHM;2011-03-23 11:15;CYHM 231115Z 06020G25KT 3/4SM -SN BLSN BKN007 BKN012 OVC022 RMK SN3SF2SC2SC1 VIS VRBL 1/2-1SM

CYHM;2011-03-23 11:48;CYHM 231148Z 08022G28KT 1 1/2SM -SN BLSN SCT008 BKN019 OVC044 RMK SN2SF2SC2SC2

CYHM;2011-03-23 12:00;CYHM 231200Z 06022G30KT 2SM -SN BLSN SCT006 BKN019 OVC038 M03/M03 A2982 RMK SN1SF2SC4SC1 SLP107

CYHM;2011-03-23 12:08;CYHM 231208Z 06020G25KT 2SM -SN BLSN BKN010 OVC024 RMK SN1SF5SC2

CYHM;2011-03-23 12:35;CYHM 231235Z 08022KT 1SM -SN BLSN BKN008 OVC020 RMK SN2SF4SC2

CYHM;2011-03-23 12:40;CYHM 231240Z 07020KT 3/4SM -SN BLSN BKN007 OVC018 RMK SN3SF4SC1

CYHM;2011-03-23 12:45;CYHM 231245Z 07020G25KT 1/2SM -SN BLSN OVC006 RMK SN5SF3

CYHM;2011-03-23 13:00;CYHM 231300Z 08020KT 1/8SM -SN +BLSN BKN005 OVC016 M03/M03 A2981 RMK SN5SF2SC1 SLP104

CYHM;2011-03-23 13:38;CYHM 231338Z 07024G29KT 1/2SM -SN BLSN BKN009 OVC015 RMK SN3SF3SC2

CYHM;2011-03-23 14:00;CYHM 231400Z 06028G34KT 1/2SM -SN BLSN BKN008 OVC016 M03/M03 A2975 RMK SN3SF3SC2 SLP086

CYHM;2011-03-23 14:36;CYHM 231436Z 06027G32KT 1SM -SN BLSN SCT007 OVC012 RMK SN2SF2SC4 VIS VRBL 1/2-11/2 SM

CYHM;2011-03-23 15:00;CYHM 231500Z 06028KT 1SM -SN BLSN SCT008 OVC017 M03/M03 A2974 RMK SN1SF3SC4 VIS VRBL 1/2-11/2SM SLP080

CYHM;2011-03-23 15:33;CYHM 231533Z 07027G32KT 1/8SM -SN +BLSN BKN007 OVC014 RMK SN2SF4SC2

CYHM;2011-03-23 16:00;CYHM 231600Z 05032KT 1/8SM SN +BLSN BKN003 OVC011 M03/M03 A2969 RMK SN4SF3SC1 SLP063

CYHM;2011-03-23 16:38;CYHM 231638Z 04030KT 1/2SM -SN BLSN SCT008 BKN011 OVC016 RMK SN2SF2SC2SC2

CYHM;2011-03-23 17:00;CYHM 231700Z 07025G30KT 1/2SM -SN BLSN SCT008 OVC012 M04/M04 A2968 RMK SN2SF2SC4 SLP062

CYHM;2011-03-23 17:16;CYHM 231716Z 06030KT 1/2SM -SG BLSN BKN007 OVC017 RMK SN2SF5SC2

CYHM;2011-03-23 18:00;CYHM 231800Z 04025G32KT 1/2SM -SG BLSN BKN004 OVC014 M04/M04 A2968 RMK SN2SF4SC2 SLP063

CYHM;2011-03-23 19:00;CYHM 231900Z 05024G34KT 1/2SM -SN BLSN BKN006 OVC020 M04/M05 A2965 RMK SN4SF3SC1 VSBY VRBL 3/8-5/8SM SLP051

CYHM;2011-03-23 20:00;CYHM 232000Z 06025G36KT 3/8SM -SN BLSN BKN004 OVC016 M04/M05 A2961 RMK SN4SF2SC2 VSBY VRBL 1/4-1/2SM SLP038

CYHM;2011-03-23 21:00;CYHM 232100Z 06025G35KT 3/8SM -SN BLSN BKN007 OVC015 M04/M05 A2965 RMK SN4SF2SC2 VSBY VRBL 1/4-1/2SM SLP053

CYHM;2011-03-23 22:00;CYHM 232200Z 06023G30KT 3/8SM -SN BLSN BKN007 OVC022 M04/M04 A2968 RMK SN4SF2SC2 VSBY VRBL 1/4-1/2SM SLP060

CYHM;2011-03-23 23:00;CYHM 232300Z 05025G32KT 3/8SM -SN BLSN BKN007 OVC022 M04/M04 A2965 RMK SN4SF2SC2 VSBY VRBL 1/4-1/2SM SLP052

CYHM;2011-03-24 00:00;CYHM 240000Z 05026G34KT 3/4SM -SN BLSN OVC008 M03/M04 A2966 RMK SN4SF4 VSBY VRBL 1/2-1SM SLP054

CYHM;2011-03-24 00:13;CYHM 240013Z 05026G34KT 1SM -SN BLSN OVC008 RMK SN4SF4 VSBY VRBL 3/4-11/4SM

CYHM;2011-03-24 01:00;CYHM 240100Z 05024G30KT 9SM -SHSN DRSN FEW004 OVC012 M03/M04 A2970 RMK SF2SC6 SLP069

CYHM;2011-03-24 02:00;CYHM 240200Z 05020G28KT 12SM -SHSN DRSN FEW008 OVC028 M02/M06 A2968 RMK SF2SC6 SLP063

CYHM;2011-03-24 03:00;CYHM 240300Z 05024G30KT 15SM -SHSN DRSN OVC033 M02/M08 A2970 RMK SC8 SLP067

CYHM;2011-03-24 04:00;CYHM 240400Z 04022G29KT 8SM -SHSN DRSN BKN038 OVC052 M02/M07 A2969 RMK SC6SC2 SLP066

CYHM;2011-03-24 05:00;CYHM 240500Z 05017G23KT 7SM -SHSN DRSN FEW031 BKN048 OVC072 M02/M08 A2971 RMK SC2SC5AC2 SLP071

CYHM;2011-03-24 06:00;CYHM 240600Z 04017G23KT 15SM -SHSN DRSN FEW030 SCT077 M03/M08 A2972 RMK SC2AC2 SLP077

CYHM;2011-03-24 07:00;CYHM 240700Z 05017KT 15SM -SHSN DRSN FEW033 BKN090 M03/M10 A2973 RMK SC1AC3 SLP080

CYHM;2011-03-24 08:00;CYHM 240800Z 02013G19KT 15SM DRSN FEW030 FEW080 M04/M11 A2972 RMK SC1AC1 SLP077

CYHM;2011-03-24 09:00;CYHM 240900Z 02015KT 15SM DRSN FEW080 FEW200 M05/M12 A2975 RMK AC1CI1 SLP087

CYHM;2011-03-24 10:00;CYHM 241000Z 01014KT 15SM DRSN FEW080 FEW200 M07/M13 A2981 RMK AC1CI1 SLP105

CYHM;2011-03-24 11:00;CYHM 241100Z 01012KT 15SM FEW100 FEW210 M07/M14 A2984 RMK AC1CI1 AC TR CI TR SLP115

CYHM;2011-03-24 12:00;CYHM 241200Z 01010KT 15SM FEW035 FEW100 M08/M14 A2987 RMK CU1AC1 CU TR AC TR SLP129

CYHM;2011-03-24 13:00;CYHM 241300Z 01006KT 15SM FEW100 M08/M13 A2990 RMK AC1 AC TR SLP138

CYHM;2011-03-24 14:00;CYHM 241400Z 35004KT 15SM FEW210 M06/M12 A2992 RMK CI1 CI TR SLP145

CYHM;2011-03-24 15:00;CYHM 241500Z 02004KT 15SM SKC M05/M12 A2993 RMK SLP147

CYHM;2011-03-24 16:00;CYHM 241600Z 32009KT 15SM SKC M03/M11 A2993 RMK SLP147

CYHM;2011-03-24 17:00;CYHM 241700Z 33010KT 15SM SKC M02/M12 A2993 RMK SLP148

CYHM;2011-03-24 18:00;CYHM 241800Z 30008KT 15SM FEW030 M02/M11 A2994 RMK CU1 CU TR SLP149

CYHM;2011-03-24 19:00;CYHM 241900Z 31006KT 250V350 15SM FEW030 M02/M10 A2994 RMK CU1 CU TR SLP151

CYHM;2011-03-24 20:00;CYHM 242000Z 26012KT 15SM FEW038 M02/M10 A2995 RMK CU1 SLP152

CYHM;2011-03-24 21:00;CYHM 242100Z 27008KT 15SM FEW037 M02/M09 A2996 RMK SC1 SLP157

CYHM;2011-03-24 22:00;CYHM 242200Z 31011KT 250V340 15SM FEW037 M02/M10 A2998 RMK SC2 SLP164

CYHM;2011-03-24 23:00;CYHM 242300Z 29010KT 15SM FEW035 M03/M10 A3000 RMK SC2 SLP170

CYHM;2011-03-25 00:00;CYHM 250000Z 28006KT 15SM FEW030 FEW250 M05/M10 A3002 RMK SC1CI0 SC TR SLP181

CYHM;2011-03-25 01:00;CYHM 250100Z 29009KT 15SM FEW030 M06/M11 A3004 RMK SC1 SLP186

CYHM;2011-03-25 02:00;CYHM 250200Z 31007KT 15SM SKC M06/M11 A3004 RMK SLP188

CYHM;2011-03-25 03:00;CYHM 250300Z 29006KT 15SM SKC M08/M11 A3006 RMK SLP192

CYHM;2011-03-25 04:00;CYHM 250400Z 29005KT 15SM SKC M09/M12 A3006 RMK SLP194

CYHM;2011-03-25 05:00;CYHM 250500Z 31004KT 15SM SKC M10/M12 A3004 RMK SLP188

CYHM;2011-03-25 06:00;CYHM 250600Z 27005KT 15SM SKC M10/M12 A3004 RMK SLP187

CYHM;2011-03-25 07:00;CYHM 250700Z 27005KT 15SM SKC M11/M12 A3004 RMK SLP186

CYHM;2011-03-25 08:00;CYHM 250800Z 26005KT 15SM SKC M11/M13 A3004 RMK SLP186

CYHM;2011-03-25 09:00;CYHM 250900Z 26006KT 15SM SKC M12/M13 A3007 RMK SLP196

CYHM;2011-03-25 10:00;CYHM 251000Z 26004KT 15SM SKC M13/M14 A3006 RMK SLP194

CYHM;2011-03-25 11:00;CYHM 251100Z 26004KT 15SM FEW025 FEW240 M13/M14 A3004 RMK CU1CI1 SLP189

CYHM;2011-03-25 12:00;CYHM 251200Z 26006KT 15SM FEW100 FEW240 M12/M14 A3005 RMK AC1CI1 SLP192

CYHM;2011-03-25 13:00;CYHM 251300Z 26006KT 15SM FEW052 FEW120 FEW240 M10/M12 A3006 RMK SC1AC1CI1 SLP195

CYHM;2011-03-25 14:00;CYHM 251400Z 27008KT 15SM FEW030 BKN049 BKN120 M07/M11 A3007 RMK SC1SC4AC1 SLP197

CYHM;2011-03-25 15:00;CYHM 251500Z 26006KT 15SM FEW025 FEW045 FEW120 BKN240 M05/M10 A3006 RMK CU1SC1AC1CI2 SLP192

CYHM;2011-03-25 16:00;CYHM 251600Z 26010KT 15SM FEW030 BKN036 BKN240 M03/M10 A3004 RMK CU2SC2CI1 SLP187

CYHM;2011-03-25 17:00;CYHM 251700Z 27008KT 15SM FEW032 BKN043 M03/M10 A3002 RMK CU2SC3 SLP181

CYHM;2011-03-25 17:39;CYHM 251739Z CCA 34012KT 15SM -SHSN FEW035 BKN050 RMK CU2SC3 PCPN VRY LGT

CYHM;2011-03-25 17:52;CYHM 251752Z 33009KT 15SM FEW035 BKN040 RMK CU2SC4

CYHM;2011-03-25 18:00;CYHM 251800Z 27010KT 15SM FEW035 BKN041 M03/M11 A3002 RMK CU2SC5 SLP180

CYHM;2011-03-25 19:00;CYHM 251900Z 26010KT 15SM FEW025 BKN048 M03/M13 A3002 RMK CU1SC5 SLP179

CYHM;2011-03-25 20:00;CYHM 252000Z 28012KT 15SM FEW050 M02/M12 A3001 RMK SC2 SLP177

CYHM;2011-03-25 21:00;CYHM 252100Z 31013KT 15SM SCT050 SCT120 M03/M10 A3001 RMK SC3AC1 SLP177

CYHM;2011-03-25 22:00;CYHM 252200Z 31008KT 15SM SCT055 M03/M10 A3001 RMK SC3 CU ASOCTD SLP177

CYHM;2011-03-25 22:30;CYHM 252230Z 32009KT 5SM -SHSN BKN020 RMK SC6 CU ASOCTD

CYHM;2011-03-25 23:00;CYHM 252300Z 32009KT 15SM FEW030 M04/M12 A3002 RMK SC2 VIRGA SW SLP182

CYHM;2011-03-26 00:00;CYHM 260000Z 32009KT 15SM FEW030 FEW180 M05/M14 A3005 RMK SC2AC1 SLP191

CYHM;2011-03-26 01:00;CYHM 260100Z 30008KT 15SM FEW030 FEW200 M07/M14 A3007 RMK SC1CI1 TR SC SLP198

CYHM;2011-03-26 02:00;CYHM 260200Z 32011KT 15SM FEW025 FEW200 M08/M15 A3008 RMK SC1CI1 TR SC SLP202

CYHM;2011-03-26 03:00;CYHM 260300Z 33008KT 15SM FEW025 FEW200 M08/M15 A3008 RMK SC1CI1 TR SC SLP201

CYHM;2011-03-26 04:00;CYHM 260400Z 34006KT 15SM FEW210 M10/M15 A3010 RMK CI1 SLP206

CYHM;2011-03-26 05:00;CYHM 260500Z 34006KT 15SM FEW200 M10/M15 A3010 RMK CI1 SLP207

CYHM;2011-03-26 06:00;CYHM 260600Z 32008KT 15SM FEW210 M10/M15 A3010 RMK CI1 SLP208

CYHM;2011-03-26 07:00;CYHM 260700Z 32009KT 15SM FEW210 M11/M16 A3010 RMK CI1 SLP209

CYHM;2011-03-26 08:00;CYHM 260800Z 32008KT 15SM FEW210 M12/M17 A3011 RMK CI1 SLP210

CYHM;2011-03-26 09:00;CYHM 260900Z 32008KT 15SM FEW025 M12/M17 A3012 RMK SC1 SLP214

CYHM;2011-03-26 10:00;CYHM 261000Z 30006KT 15SM FEW080 FEW200 M12/M17 A3013 RMK AC1CI1 TR AC SLP217

CYHM;2011-03-26 11:00;CYHM 261100Z 30004KT 15SM FEW020 FEW080 M13/M17 A3013 RMK CU1AC1 BOTH LYRS TR SLP220

CYHM;2011-03-26 12:00;CYHM 261200Z 27002KT 15SM FEW020 M13/M15 A3014 RMK CU1 CU TR SLP223

CYHM;2011-03-26 13:00;CYHM 261300Z 31005KT 15SM FEW020 M10/M15 A3014 RMK CU1 CU TR SLP223

CYHM;2011-03-26 14:00;CYHM 261400Z 32004KT 15SM FEW025 M07/M15 A3015 RMK CU1 CU TR SLP226

CYHM;2011-03-26 15:00;CYHM 261500Z 32004KT 15SM FEW035 M06/M15 A3016 RMK CU1 CU TR SLP228

CYHM;2011-03-26 16:00;CYHM 261600Z 32006KT 15SM FEW040 M05/M15 A3014 RMK CU1 CU TR SLP222

CYHM;2011-03-26 17:00;CYHM 261700Z CCA 27006KT 15SM FEW040 M04/M12 A3014 RMK CU1 SLP222

CYHM;2011-03-26 18:00;CYHM 261800Z 26006KT 220V300 15SM FEW042 M03/M12 A3013 RMK SC2 SLP218

CYHM;2011-03-26 19:00;CYHM 261900Z 32006KT 15SM SCT042 M03/M12 A3013 RMK SC4 SLP217

CYHM;2011-03-26 20:00;CYHM 262000Z 30009KT 260V350 15SM SCT043 M02/M11 A3012 RMK SC4 SLP214

CYHM;2011-03-26 21:00;CYHM 262100Z 31009KT 270V350 15SM BKN042 M03/M11 A3011 RMK SC5 SLP210

CYHM;2011-03-26 22:00;CYHM 262200Z 33007KT 300V360 15SM BKN041 M03/M11 A3011 RMK SC5 SLP212

CYHM;2011-03-26 23:00;CYHM 262300Z 32006KT 15SM SCT042 M04/M12 A3012 RMK SC3 VIRGA E SLP213

CYHM;2011-03-27 00:00;CYHM 270000Z 32004KT 15SM FEW040 FEW220 M05/M12 A3011 RMK SC2CI1 SLP213

CYHM;2011-03-27 01:00;CYHM 270100Z 33004KT 15SM FEW040 M05/M12 A3012 RMK SC1 SLP214

CYHM;2011-03-27 02:00;CYHM 270200Z 35008KT 15SM SKC M06/M12 A3012 RMK SLP214

CYHM;2011-03-27 03:00;CYHM 270300Z 35008KT 15SM FEW200 M07/M12 A3012 RMK CI1 SLP214

CYHM;2011-03-27 04:00;CYHM 270400Z 35010KT 15SM FEW200 M07/M12 A3011 RMK CI1 SLP212

CYHM;2011-03-27 05:00;CYHM 270500Z 33005KT 15SM FEW200 M08/M13 A3012 RMK CI1 SLP214

CYHM;2011-03-27 06:00;CYHM 270600Z 21004KT 15SM FEW200 M09/M13 A3012 RMK CI1 SLP213

CYHM;2011-03-27 07:00;CYHM 270700Z 28005KT 15SM FEW200 M10/M13 A3012 RMK CI1 SLP214

CYHM;2011-03-27 08:00;CYHM 270800Z 30004KT 15SM FEW200 M10/M13 A3012 RMK CI1 SLP214

CYHM;2011-03-27 09:00;CYHM 270900Z 33005KT 15SM FEW210 M12/M14 A3010 RMK CI1 SLP209

CYHM;2011-03-27 10:00;CYHM 271000Z 34008KT 15SM SKC M10/M14 A3011 RMK SLP210

CYHM;2011-03-27 11:00;CYHM 271100Z 35006KT 15SM SKC M10/M14 A3012 RMK SLP213

CYHM;2011-03-27 12:00;CYHM 271200Z 35006KT 15SM SKC M10/M14 A3013 RMK SLP220

CYHM;2011-03-27 13:00;CYHM 271300Z 02006KT 15SM SKC M07/M15 A3015 RMK SLP225

CYHM;2011-03-27 14:00;CYHM 271400Z 02004KT 15SM SKC M06/M16 A3013 RMK SLP219

CYHM;2011-03-27 15:00;CYHM 271500Z 00000KT 15SM SKC M05/M17 A3015 RMK SLP225

CYHM;2011-03-27 16:00;CYHM 271600Z 30004KT 15SM SKC M03/M15 A3013 RMK SLP219

CYHM;2011-03-27 17:00;CYHM 271700Z 28007KT 230V310 15SM SKC M03/M14 A3013 RMK SLP216

CYHM;2011-03-27 18:00;CYHM 271800Z 29009KT 240V330 15SM SKC M02/M14 A3012 RMK SLP212

CYHM;2011-03-27 19:00;CYHM 271900Z 30011KT 250V330 15SM FEW040 M02/M12 A3011 RMK SC1 SC TR SLP209

CYHM;2011-03-27 20:00;CYHM 272000Z 29010KT 240V320 15SM FEW040 M02/M13 A3010 RMK SC1 SC TR SLP208

CYHM;2011-03-27 21:00;CYHM 272100Z 29011KT 250V320 15SM FEW040 M02/M13 A3011 RMK SC1 SC TR SLP211

CYHM;2011-03-27 22:00;CYHM 272200Z 30012KT 270V330 15SM FEW040 M03/M14 A3011 RMK SC1 SC TR SLP210

CYHM;2011-03-27 23:00;CYHM 272300Z 30013KT 270V330 15SM FEW040 M04/M14 A3011 RMK SC1 SC TR SLP212

CYHM;2011-03-28 00:00;CYHM 280000Z 30007KT 15SM FEW040 M06/M13 A3012 RMK SC1 SC TR SLP216

CYHM;2011-03-28 01:00;CYHM 280100Z 29006KT 15SM SKC M06/M13 A3014 RMK SLP222

CYHM;2011-03-28 02:00;CYHM 280200Z 30008KT 15SM SKC M07/M13 A3014 RMK SLP223

CYHM;2011-03-28 03:00;CYHM 280300Z 31008KT 15SM SKC M08/M13 A3013 RMK SLP219

CYHM;2011-03-28 04:00;CYHM 280400Z 28005KT 15SM SKC M08/M13 A3013 RMK SLP219

CYHM;2011-03-28 05:00;CYHM 280500Z 28005KT 15SM FEW210 M10/M13 A3014 RMK CI1 SLP220

CYHM;2011-03-28 06:00;CYHM 280600Z 28005KT 15SM SKC M10/M13 A3014 RMK SLP221

CYHM;2011-03-28 07:00;CYHM 280700Z 27005KT 15SM FEW210 M11/M13 A3013 RMK CI1 SLP217

CYHM;2011-03-28 08:00;CYHM 280800Z 26007KT 15SM FEW210 M11/M13 A3013 RMK CI1 SLP216

CYHM;2011-03-28 09:00;CYHM 280900Z 26006KT 15SM SKC M11/M13 A3013 RMK SLP217

CYHM;2011-03-28 10:00;CYHM 281000Z 29006KT 15SM FEW200 M12/M13 A3013 RMK CI1 SLP217

CYHM;2011-03-28 11:00;CYHM 281100Z 28006KT 15SM SKC M11/M13 A3013 RMK SLP218

CYHM;2011-03-28 12:00;CYHM 281200Z 30004KT 15SM SKC M09/M12 A3016 RMK SLP227

CYHM;2011-03-28 13:00;CYHM 281300Z 28003KT 15SM SKC M06/M11 A3017 RMK SLP232

CYHM;2011-03-28 14:00;CYHM 281400Z 30006KT 15SM SKC M04/M11 A3017 RMK SLP232

CYHM;2011-03-28 15:00;CYHM 281500Z 27010KT 15SM FEW030 M03/M12 A3017 RMK CU1 CU TR SLP230

CYHM;2011-03-28 16:00;CYHM 281600Z 28007KT 15SM FEW030 M01/M12 A3016 RMK CU1 CU TR SLP227

CYHM;2011-03-28 17:00;CYHM 281700Z 32010KT 15SM FEW035 M01/M14 A3014 RMK CU1 CU TR SLP222

CYHM;2011-03-28 18:00;CYHM 281800Z 32008KT 15SM FEW035 M01/M12 A3014 RMK CU1 CU TR SLP219

CYHM;2011-03-28 19:00;CYHM 281900Z 26009KT 15SM FEW042 M00/M11 A3012 RMK SC1 SC TR SLP214

CYHM;2011-03-28 20:00;CYHM 282000Z 28013KT 15SM FEW042 00/M10 A3011 RMK SC1 SC TR SLP211

CYHM;2011-03-28 21:00;CYHM 282100Z 27013KT 15SM FEW040 00/M10 A3012 RMK SC1 SC TR SLP213

CYHM;2011-03-28 22:00;CYHM 282200Z 29009KT 15SM FEW040 M00/M10 A3013 RMK SC1 SC TR SLP216

CYHM;2011-03-28 23:00;CYHM 282300Z 30014KT 15SM FEW040 M01/M11 A3013 RMK SC1 SC TR SLP218

CYHM;2011-03-29 00:00;CYHM 290000Z 30009KT 15SM SKC M02/M11 A3014 RMK SLP220

CYHM;2011-03-29 01:00;CYHM 290100Z 30008KT 15SM SKC M03/M11 A3015 RMK SLP223

CYHM;2011-03-29 02:00;CYHM 290200Z 28005KT 15SM SKC M04/M11 A3015 RMK SLP225

CYHM;2011-03-29 03:00;CYHM 290300Z 27007KT 15SM SKC M05/M11 A3015 RMK SLP224

CYHM;2011-03-29 04:00;CYHM 290400Z 28006KT 15SM SKC M06/M11 A3016 RMK SLP226

CYHM;2011-03-29 05:00;CYHM 290500Z 27005KT 15SM SKC M07/M11 A3016 RMK SLP227

CYHM;2011-03-29 06:00;CYHM 290600Z 28006KT 15SM SKC M07/M11 A3016 RMK SLP227

CYHM;2011-03-29 07:00;CYHM 290700Z 25005KT 15SM SKC M08/M10 A3017 RMK SLP229

CYHM;2011-03-29 08:00;CYHM 290800Z 27005KT 15SM SKC M08/M11 A3016 RMK SLP227

CYHM;2011-03-29 09:00;CYHM 290900Z 26008KT 15SM SKC M07/M10 A3014 RMK SLP219

CYHM;2011-03-29 10:00;CYHM 291000Z 25010KT 15SM SKC M08/M10 A3018 RMK SLP232

CYHM;2011-03-29 11:00;CYHM 291100Z 26006KT 15SM FEW100 M08/M10 A3020 RMK AC1 SLP239

CYHM;2011-03-29 12:00;CYHM 291200Z 28007KT 15SM FEW150 M08/M10 A3023 RMK AC1 AC TR SLP249

CYHM;2011-03-29 13:00;CYHM 291300Z 28008KT 15SM FEW160 M05/M08 A3024 RMK AC1 AC TR SLP254

CYHM;2011-03-29 14:00;CYHM 291400Z 31008KT 15SM FEW160 FEW210 M01/M06 A3023 RMK AC1CI1 AC TR CI TR SLP251

CYHM;2011-03-29 15:00;CYHM 291500Z 33009KT 15SM FEW030 FEW210 01/M07 A3024 RMK CU1CI1 CU TR CI TR SLP251

CYHM;2011-03-29 16:00;CYHM 291600Z 32010KT 15SM FEW180 FEW210 02/M07 A3025 RMK AC1CI1 SLP255

CYHM;2011-03-29 17:00;CYHM 291700Z 30010KT 15SM FEW030 FEW180 FEW210 03/M08 A3024 RMK CU1AC1CI1 SLP253

CYHM;2011-03-29 18:00;CYHM 291800Z 27013KT 15SM FEW025 FEW250 03/M09 A3023 RMK CU1CI1 CU TR SLP250

CYHM;2011-03-29 19:00;CYHM 291900Z 30014KT 15SM FEW038 FEW250 03/M07 A3022 RMK CU1CI1 CU TR SLP246

CYHM;2011-03-29 20:00;CYHM 292000Z 27012KT 15SM FEW040 FEW250 03/M07 A3022 RMK CU1CI1 SLP244

CYHM;2011-03-29 21:00;CYHM 292100Z 29007KT 15SM FEW038 FEW250 04/M06 A3021 RMK CU1CI1 CU TR SLP241

CYHM;2011-03-29 22:00;CYHM 292200Z 29007KT 15SM FEW036 FEW250 03/M05 A3021 RMK CU1CI1 CU TR CI TR CONTRAIL SLP242

CYHM;2011-03-29 23:00;CYHM 292300Z 29008KT 15SM FEW032 FEW250 03/M05 A3020 RMK CU1CI1 CU TR CI TR SLP240

CYHM;2011-03-30 00:00;CYHM 300000Z 26006KT 15SM FEW250 01/M05 A3021 RMK CI1 CI TR SLP244

CYHM;2011-03-30 01:00;CYHM 300100Z 28004KT 15SM FEW250 00/M05 A3022 RMK CI1 CI TR SLP246

CYHM;2011-03-30 02:00;CYHM 300200Z 30005KT 15SM FEW250 M01/M05 A3022 RMK CI1 CI TR SLP246

CYHM;2011-03-30 03:00;CYHM 300300Z 31004KT 15SM FEW250 M02/M06 A3021 RMK CI1 SLP242

CYHM;2011-03-30 04:00;CYHM 300400Z 24003KT 15SM FEW250 M02/M06 A3022 RMK CI1 CI TR SLP243

CYHM;2011-03-30 05:00;CYHM 300500Z 27003KT 15SM FEW250 M03/M06 A3023 RMK CI1 CI TR SLP246

CYHM;2011-03-30 06:00;CYHM 300600Z 30002KT 15SM SKC M03/M06 A3021 RMK SLP241

CYHM;2011-03-30 07:00;CYHM 300700Z 32002KT 15SM SKC M04/M06 A3020 RMK SLP238

CYHM;2011-03-30 08:00;CYHM 300800Z 00000KT 15SM SKC M04/M07 A3018 RMK SLP232

CYHM;2011-03-30 09:00;CYHM 300900Z 00000KT 15SM FEW250 M05/M07 A3017 RMK CI1 CI TR SLP229

CYHM;2011-03-30 10:00;CYHM 301000Z 00000KT 15SM FEW250 M06/M07 A3019 RMK CI1 SLP235

CYHM;2011-03-30 11:00;CYHM 301100Z 00000KT 15SM FEW220 M05/M07 A3019 RMK CI1 SLP235

CYHM;2011-03-30 12:00;CYHM 301200Z 00000KT 15SM FEW220 M05/M07 A3019 RMK CI1 SLP235

CYHM;2011-03-30 13:00;CYHM 301300Z 03004KT 15SM FEW030 FEW220 M01/M05 A3015 RMK CU1CI1 SLP223

CYHM;2011-03-30 14:00;CYHM 301400Z 07006KT 15SM FEW240 01/M06 A3014 RMK CI1 CI TR SLP219

CYHM;2011-03-30 15:00;CYHM 301500Z 15004KT 15SM FEW240 02/M05 A3014 RMK CI1 SLP216

CYHM;2011-03-30 17:00;CYHM 301700Z 11006KT 15SM FEW180 SCT210 03/M04 A3007 RMK AC1CI2 SLP193

CYHM;2011-03-30 18:00;CYHM 301800Z 09007KT 15SM FEW030 FEW180 SCT210 04/M05 A3003 RMK CU1AC1CI2 CU TR SLP180

CYHM;2011-03-30 19:00;CYHM 301900Z 06010KT 15SM FEW030 FEW180 BKN220 04/M05 A2999 RMK CF1AC1CI3 CF TR CONTRAIL SLP167

CYHM;2011-03-30 20:00;CYHM 302000Z 06010KT 15SM FEW040 FEW160 BKN200 04/M05 A2997 RMK SC1AC2CI3 SLP160

CYHM;2011-03-30 21:00;CYHM 302100Z 06009KT 15SM FEW040 FEW130 OVC150 03/M05 A2995 RMK SC1AC1AS6 SC TR SLP154

CYHM;2011-03-30 22:00;CYHM 302200Z 05008KT 15SM OVC140 02/M04 A2994 RMK AS8 SLP151

CYHM;2011-03-30 23:00;CYHM 302300Z 03010KT 15SM OVC100 02/M03 A2993 RMK AC8 SLP146

CYHM;2011-03-31 00:00;CYHM 310000Z 05010KT 15SM OVC098 02/M04 A2992 RMK AC8 SLP144

CYHM;2011-03-31 01:00;CYHM 310100Z 04009KT 15SM OVC060 02/M03 A2993 RMK SC8 SLP145

CYHM;2011-03-31 02:00;CYHM 310200Z 07005KT 15SM FEW012 OVC057 02/M04 A2993 RMK CF1SC7 VIRGA SLP147

CYHM;2011-03-31 02:35;CYHM 310235Z 13003KT 10SM -SHSN OVC012 RMK SC8

CYHM;2011-03-31 02:46;CYHM 310246Z 11004KT 1 1/2SM -SHSN OVC010 RMK SN2SC6 VIS VRB 1 - 2

CYHM;2011-03-31 03:00;CYHM 310300Z 00000KT 4SM -SHSN OVC015 00/M01 A2993 RMK SC8 SLP144

CYHM;2011-03-31 03:35;CYHM 310335Z 36005KT 1 1/2SM -SHSN OVC008 RMK SN2SC6 VIS VRB 1 - 2

CYHM;2011-03-31 04:00;CYHM 310400Z 03006KT 3SM -SHSN BKN013 OVC022 00/M00 A2990 RMK SC6SC2 VIS VRB 2 - 4 SLP134

CYHM;2011-03-31 05:00;CYHM 310500Z 02006KT 2 1/2SM -SHSN OVC020 00/00 A2988 RMK SC8 SLP127

CYHM;2011-03-31 05:45;CYHM 310545Z 02008KT 1 1/2SM -SHSN BKN002 OVC030 RMK SN2SF6SC1 VIS VRB 1 - 2

CYHM;2011-03-31 06:00;CYHM 310600Z 02007KT 1 1/2SM -SHSN BR BKN003 OVC012 M00/M00 A2986 RMK FG2SF6SC1 VIS VRB 1 - 2 /S01/ SLP121

CYHM;2011-03-31 07:00;CYHM 310700Z 02007KT 1 1/2SM -SHSN BR OVC004 00/00 A2985 RMK SN2SF6 VIS VRB 1 - 2 SLP116

CYHM;2011-03-31 08:00;CYHM 310800Z 02007KT 5SM -SHSN BR OVC005 00/00 A2983 RMK SF8 SLP111

CYHM;2011-03-31 08:47;CYHM 310847Z 03008KT 1 1/2SM -SHSN BR OVC002 RMK SN2SF6 VIS VRB 1 - 2

CYHM;2011-03-31 09:00;CYHM 310900Z 04010KT 1 1/2SM -SHSN BR OVC003 00/00 A2982 RMK SN2SF6 VIS VRB 1 - 2 SLP108

CYHM;2011-03-31 10:00;CYHM 311000Z 04009KT 1 1/2SM -SHSN BR OVC002 00/00 A2982 RMK SN2SF6 VIS VRB 1 - 2 SLP107

CYHM;2011-03-31 11:00;CYHM 311100Z 04010KT 1 1/2SM -SHSN BR OVC002 00/00 A2982 RMK SN1SF7 SLP107

CYHM;2011-03-31 11:15;CYHM 311115Z 04010KT 1/2SM -SHRA FG OVC002 RMK FG4SF4

CYHM;2011-03-31 11:26;CYHM 311126Z 05008KT 1/2SM -SHRASN FG OVC002 RMK FG4SF4

CYHM;2011-03-31 11:40;CYHM 311140Z 05010KT 1/2SM -SHSN FG OVC002 RMK FG4SF4

CYHM;2011-03-31 12:00;CYHM 311200Z 03007KT 1 1/2SM -SHSN BR OVC002 00/00 A2982 RMK FG2SF6 PCPN VRY LGT SLP107

CYHM;2011-03-31 12:29;CYHM 311229Z 03007KT 1SM -SHSN BR OVC003 RMK FG2SF6 VIS VRBL 1/2-11/2SM

CYHM;2011-03-31 13:00;CYHM 311300Z 02008KT 3/4SM -SHSN BR OVC002 00/00 A2982 RMK SN2SF6 SLP107

CYHM;2011-03-31 13:13;CYHM 311313Z 02008KT 1/2SM -SHSN FG OVC002 RMK SN2SF6

CYHM;2011-03-31 13:43;CYHM 311343Z 02007KT 1 1/2SM -SHSN BR OVC002 RMK SN1SF7

CYHM;2011-03-31 14:00;CYHM 311400Z 02008KT 1 1/2SM -SN BR OVC003 00/00 A2982 RMK SN1SF7 CIG 250FT VIS VRBL 1-2SM SLP106

CYHM;2011-03-31 15:00;CYHM 311500Z 03006KT 1 1/2SM -SN BR OVC006 01/01 A2982 RMK SN1SF7 SLP107

CYHM;2011-03-31 16:00;CYHM 311600Z 06010KT 2 1/2SM -SHSN BR BKN006 OVC010 01/01 A2981 RMK SF5SC3 SLP103

CYHM;2011-03-31 16:24;CYHM 311624Z 04006KT 4SM -SHRA BR BKN008 OVC015 RMK SF6SC2

CYHM;2011-03-31 17:00;CYHM 311700Z 05007KT 2 1/2SM -SHRA BR BKN006 OVC010 01/01 A2978 RMK SF6SC2 SLP093

CYHM;2011-03-31 17:39;CYHM 311739Z 01005KT 1 1/2SM -SHRA BR OVC004 RMK FG2SF6

CYHM;2011-03-31 18:00;CYHM 311800Z 04005KT 1 1/2SM -SHRA BR OVC003 01/01 A2977 RMK FG2SF6 SLP091

CYHM;2011-03-31 18:42;CYHM 311842Z 06002KT 3SM BR OVC003 RMK SF8

CYHM;2011-03-31 19:00;CYHM 311900Z 04002KT 3SM BR BKN003 OVC007 02/01 A2976 RMK SF6SC2 SLP086

CYHM;2011-03-31 19:33;CYHM 311933Z 05003KT 4SM BR BKN006 BKN016 OVC055 RMK SC6SC2SC1

CYHM;2011-03-31 20:00;CYHM 312000Z 36002KT 5SM BR BKN006 OVC053 02/02 A2975 RMK SC6SC2 SLP082

CYHM;2011-03-31 21:00;CYHM 312100Z 36004KT 5SM BR BKN008 BKN024 OVC053 02/01 A2974 RMK SC5SC2SC1 SLP080

CYHM;2011-03-31 22:00;CYHM 312200Z 03002KT 5SM BR BKN008 OVC042 02/01 A2973 RMK SC6SC2 SLP075

CYHM;2011-03-31 22:20;CYHM 312220Z 00000KT 5SM BR SCT009 BKN042 OVC055 RMK SC3SC3SC2

CYHM;2011-03-31 23:00;CYHM 312300Z 03003KT 5SM BR FEW009 BKN028 OVC054 02/01 A2972 RMK SC1SC5SC2 SLP073

CYHM;2011-04-01 01:00;CYHM 010100Z 10003KT 5SM BR SCT008 BKN025 OVC058 01/01 A2972 RMK SC3SC3SC2 SLP073

CYHM;2011-04-01 02:00;CYHM 010200Z 11002KT 7SM BKN032 OVC058 01/01 A2972 RMK SC6SC2 SLP072

CYHM;2011-04-01 03:00;CYHM 010300Z 00000KT 7SM BKN033 OVC060 01/01 A2970 RMK SC6SC2 SLP066

CYHM;2011-04-01 03:41;CYHM 010341Z 00000KT 7SM BKN007 OVC033 RMK SC6SC2

CYHM;2011-04-01 04:00;CYHM 010400Z 00000KT 7SM OVC007 01/01 A2969 RMK SC8 SLP064

CYHM;2011-04-01 04:42;CYHM 010442Z 35002KT 2 1/2SM BR BKN008 OVC040 RMK SC7SC1

CYHM;2011-04-01 05:00;CYHM 010500Z 03002KT 2SM BR BKN008 OVC041 01/01 A2968 RMK FG1SC6SC2 SLP059

CYHM;2011-04-01 06:00;CYHM 010600Z 03002KT 2SM BR SCT009 OVC024 01/01 A2967 RMK FG1SC2SC5 SLP055

CYHM;2011-04-01 06:32;CYHM 010632Z CCA 06002KT 1 1/2SM BR BKN013 OVC024 RMK FG2SC4SC2

CYHM;2011-04-01 07:00;CYHM 010700Z 00000KT 1 1/2SM BR SCT002 OVC017 01/01 A2964 RMK FG2SF2SC4 SLP047

CYHM;2011-04-01 07:40;CYHM 010740Z 00000KT 1 1/2SM BR BKN002 OVC040 RMK FG2SF3SC2

CYHM;2011-04-01 08:00;CYHM 010800Z 00000KT 1 1/4SM BR OVC002 00/00 A2962 RMK FG3SF5 SLP039

CYHM;2011-04-01 08:48;CYHM 010848Z 00000KT 3/8SM FG VV001 RMK FG8

CYHM;2011-04-01 09:00;CYHM 010900Z 00000KT 1/4SM FG VV001 00/00 A2960 RMK FG8 SLP032

CYHM;2011-04-01 10:00;CYHM 011000Z 00000KT 0SM FZFG VV001 M00/M00 A2959 RMK FG8 SLP029

CYHM;2011-04-01 11:00;CYHM 011100Z 25002KT 0SM FZFG VV001 00/00 A2959 RMK FG8 SLP028

CYHM;2011-04-01 11:49;CYHM 011149Z 27003KT 1/4SM FG OVC002 RMK FG3SF5

CYHM;2011-04-01 12:00;CYHM 011200Z 28004KT 1/2SM FG SCT004 OVC062 00/00 A2959 RMK FG2SF2SC4 SLP027

CYHM;2011-04-01 12:09;CYHM 011209Z 26003KT 1/8SM FG VV001 RMK FG8

CYHM;2011-04-01 12:43;CYHM 011243Z 26002KT 1/2SM FG SCT006 BKN039 OVC070 RMK FG2SF2SC3AC1

CYHM;2011-04-01 13:00;CYHM 011300Z 28004KT 1 1/2SM BR FEW008 SCT042 OVC075 01/01 A2959 RMK FG2SF1SC2AC4 SLP028

CYHM;2011-04-01 13:22;CYHM 011322Z 29002KT 3SM BR BKN027 BKN042 OVC070 RMK SC6SC2AC1

CYHM;2011-04-01 14:00;CYHM 011400Z 29004KT 8SM BKN042 OVC082 03/00 A2958 RMK SC6AC2 SLP026

CYHM;2011-04-01 15:00;CYHM 011500Z 33003KT 15SM FEW055 BKN080 04/M03 A2957 RMK SC2AC5 SLP021

CYHM;2011-04-01 16:00;CYHM 011600Z 28007KT 15SM FEW030 SCT062 BKN081 05/M03 A2956 RMK CU1SC2AC3 SLP017

CYHM;2011-04-01 17:00;CYHM 011700Z 29008KT 15SM SCT045 BKN060 BKN081 07/M04 A2953 RMK CU3SC2AC2 SLP008

CYHM;2011-04-01 18:00;CYHM 011800Z 29008KT 15SM FEW040 BKN059 BKN071 07/M04 A2952 RMK CU2SC3AC2 SLP003

CYHM;2011-04-01 19:00;CYHM 011900Z CCA 29014KT 15SM VCSH FEW040 BKN080 07/M04 A2951 RMK CU2AC4 SHWRS E SLP999

CYHM;2011-04-01 20:00;CYHM 012000Z 33012G17KT 15SM SCT034 BKN080 06/M03 A2951 RMK CU3AC2 VIRGA SLP000

CYHM;2011-04-01 21:00;CYHM 012100Z 29013KT 15SM FEW050 BKN080 07/M03 A2952 RMK CU2AC2 VIRGA SLP002

CYHM;2011-04-01 22:00;CYHM 012200Z 28008KT 15SM FEW045 BKN081 06/M04 A2953 RMK SC2AC4 VIRGA CU ASOCTD SLP006

CYHM;2011-04-01 23:00;CYHM 012300Z 29006KT 15SM FEW036 SCT070 SCT240 06/M03 A2954 RMK SC2AC2CI1 VIRGA CU ASOCTD SLP010

CYHM;2011-04-02 00:00;CYHM 020000Z 29006KT 15SM FEW055 FEW200 04/M05 A2955 RMK SC1CI1 SLP013

CYHM;2011-04-02 01:00;CYHM 020100Z 28009KT 15SM FEW200 03/M05 A2956 RMK CI1 SLP019

CYHM;2011-04-02 02:00;CYHM 020200Z 28009KT 15SM FEW140 FEW200 03/M05 A2957 RMK AC1CI1 TR CI SLP021

CYHM;2011-04-02 03:00;CYHM 020300Z 28006KT 15SM FEW130 FEW200 01/M05 A2956 RMK AC1CI2 SLP019

CYHM;2011-04-02 04:00;CYHM 020400Z 25006KT 15SM FEW130 FEW200 01/M05 A2956 RMK AC1CI2 SLP017

CYHM;2011-04-02 05:00;CYHM 020500Z 26007KT 15SM FEW210 00/M05 A2955 RMK CI2 SLP015

CYHM;2011-04-02 06:00;CYHM 020600Z 26007KT 15SM FEW140 FEW210 M00/M05 A2955 RMK AC1CI1 SLP012

CYHM;2011-04-02 07:00;CYHM 020700Z 26008KT 15SM FEW200 M00/M04 A2953 RMK CI1 SLP008

CYHM;2011-04-02 08:00;CYHM 020800Z 26007KT 15SM FEW200 M01/M04 A2953 RMK CI1 SLP006

CYHM;2011-04-02 09:00;CYHM 020900Z 26007KT 15SM FEW200 M01/M04 A2953 RMK CI2 SLP007

CYHM;2011-04-02 10:00;CYHM 021000Z 26007KT 15SM FEW200 M01/M04 A2954 RMK CI1 SLP009

CYHM;2011-04-02 11:00;CYHM 021100Z 24006KT 15SM FEW120 FEW220 M01/M04 A2955 RMK AC1CI1 AC TR SLP013

CYHM;2011-04-02 12:00;CYHM 021200Z 24006KT 15SM FEW120 FEW220 M01/M03 A2956 RMK AC1CI0 AC TR SLP019

CYHM;2011-04-02 13:00;CYHM 021300Z 25007KT 15SM FEW230 02/M02 A2957 RMK CI1 CI TR SLP021

CYHM;2011-04-02 14:00;CYHM 021400Z 27007KT 15SM FEW230 04/M02 A2958 RMK CI1 CI TR SLP025

CYHM;2011-04-02 15:00;CYHM 021500Z 27010KT 15SM FEW250 06/M02 A2959 RMK CI0 SLP028

CYHM;2011-04-02 16:00;CYHM 021600Z 27010KT 15SM FEW052 FEW250 08/M05 A2960 RMK CU1CI1 CU TR SLP030

CYHM;2011-04-02 17:00;CYHM 021700Z 29015KT 15SM FEW052 SCT250 08/M04 A2960 RMK CU1CI1 SLP031

CYHM;2011-04-02 18:00;CYHM 021800Z 28015KT 15SM SCT065 BKN250 09/M04 A2961 RMK SC3CI2 SLP034

CYHM;2011-04-02 19:00;CYHM 021900Z 29015KT 250V320 15SM SCT055 BKN079 09/M02 A2963 RMK CU4AC2 VIRGA SLP039

CYHM;2011-04-02 20:00;CYHM 022000Z 30015G20KT 260V340 15SM SCT048 BKN075 BKN250 08/M03 A2964 RMK CU3AC3CI1 SLP044

CYHM;2011-04-02 21:00;CYHM 022100Z 29014KT 250V320 15SM FEW045 BKN072 BKN130 BKN250 07/M03 A2966 RMK CU2AC2AC1CI1 SLP052

CYHM;2011-04-02 22:00;CYHM 022200Z 28014KT 250V310 15SM FEW054 SCT120 BKN240 07/M03 A2969 RMK SC2AC2CI2 CU ASOCTD SLP061

CYHM;2011-04-02 23:00;CYHM 022300Z 27013G18KT 240V300 15SM FEW055 SCT110 BKN240 06/M04 A2972 RMK SC2AC2CI2 CONTRAIL SLP071

CYHM;2011-04-03 00:00;CYHM 030000Z 28011KT 15SM FEW055 SCT110 BKN240 05/M04 A2975 RMK SC1AC2CI1 SLP082

CYHM;2011-04-03 01:00;CYHM 030100Z 27007KT 240V300 15SM FEW055 FEW120 03/M04 A2978 RMK SC1AC1 SC TR SLP093

CYHM;2011-04-03 02:00;CYHM 030200Z 26007KT 15SM FEW120 FEW240 02/M04 A2981 RMK AC1CI1 AC TR CI TR SLP103

CYHM;2011-04-03 03:00;CYHM 030300Z 27005KT 15SM FEW200 02/M03 A2983 RMK CI1 SLP107

CYHM;2011-04-03 04:00;CYHM 030400Z 27008KT 15SM FEW210 01/M01 A2984 RMK CI1 SLP110

CYHM;2011-04-03 05:00;CYHM 030500Z 26008KT 15SM FEW210 01/M00 A2985 RMK CI1 SLP116

CYHM;2011-04-03 06:00;CYHM 030600Z 27007KT 12SM FEW200 01/M00 A2987 RMK CI1 SLP120

CYHM;2011-04-03 07:00;CYHM 030700Z 27009KT 10SM FEW200 01/M00 A2988 RMK CI1 SLP124

CYHM;2011-04-03 08:00;CYHM 030800Z 28010KT 12SM FEW210 01/M00 A2990 RMK CI1 SLP130

CYHM;2011-04-03 09:00;CYHM 030900Z 28010KT 10SM FEW200 00/M01 A2991 RMK CI1 SLP136

CYHM;2011-04-03 10:00;CYHM 031000Z 28007KT 15SM FEW200 M00/M01 A2994 RMK CI1 SLP144

CYHM;2011-04-03 11:00;CYHM 031100Z 25006KT 15SM SKC M01/M02 A2997 RMK SLP154

CYHM;2011-04-03 12:00;CYHM 031200Z 27006KT 15SM FEW220 00/M02 A2997 RMK CI1 SLP158

CYHM;2011-04-03 13:00;CYHM 031300Z 28007KT 15SM FEW220 02/M01 A3000 RMK CI1 SLP166

CYHM;2011-04-03 14:00;CYHM 031400Z 27009KT 15SM BKN210 04/00 A3001 RMK CI3 SLP170

CYHM;2011-04-03 15:00;CYHM 031500Z 25010KT 15SM BKN210 06/00 A3002 RMK CI6 SLP174

CYHM;2011-04-03 16:00;CYHM 031600Z 27008KT 15SM BKN170 07/01 A3003 RMK AC7 SLP175

CYHM;2011-04-03 17:00;CYHM 031700Z 26008KT 15SM FEW040 OVC160 07/M02 A3002 RMK CU1AC8 SLP173

CYHM;2011-04-03 18:00;CYHM 031800Z 23008KT 15SM FEW044 OVC150 08/M03 A2999 RMK CU1AC8 SLP162

CYHM;2011-04-03 19:00;CYHM 031900Z 22008KT 15SM FEW040 BKN130 OVC250 08/M03 A2996 RMK CU1AS6CS1 SLP153

CYHM;2011-04-03 20:00;CYHM 032000Z 19013KT 160V220 15SM FEW035 BKN110 OVC220 07/M01 A2991 RMK CF1AS6CS1 CF TR SLP137

CYHM;2011-04-03 21:00;CYHM 032100Z 20013KT 15SM FEW090 OVC120 06/M02 A2988 RMK AC2AC6 SLP128

CYHM;2011-04-03 22:00;CYHM 032200Z 13005KT 15SM FEW050 BKN070 OVC095 05/M01 A2985 RMK SC2AC4AC2 SLP117

CYHM;2011-04-03 22:45;CYHM 032245Z 20014KT 15SM -SHRA SCT040 OVC052 RMK SC3SC5 PCPN VRY LGT

CYHM;2011-04-03 23:00;CYHM 032300Z 20014KT 4SM -RASN BKN024 OVC040 03/01 A2983 RMK SC6SC2 SLP111

CYHM;2011-04-03 23:08;CYHM 032308Z 20013KT 2SM -RASN BR BKN010 OVC025 RMK FG1SC6SC2

CYHM;2011-04-03 23:15;CYHM 032315Z 18011KT 2SM -RASN BR FEW005 BKN011 OVC025 RMK FG1CF1SC5SC2

CYHM;2011-04-03 23:20;CYHM 032320Z 18009KT 3/4SM -RASN BR SCT005 BKN010 OVC025 RMK SN2CF1SC4SC1

CYHM;2011-04-03 23:25;CYHM 032325Z 18008KT 3/4SM -SN BR VV010 RMK SN8

CYHM;2011-04-03 23:38;CYHM 032338Z 19005KT 1/2SM SN FG VV007 RMK SN8

CYHM;2011-04-04 00:00;CYHM 040000Z CCA 32003KT 1/2SM SN FG VV006 00/00 A2990 RMK SN8 /S01/ SLP134

CYHM;2011-04-04 00:16;CYHM 040016Z 00000KT 5/8SM -SN BR FEW004 VV006 RESN RMK SF2SN6

CYHM;2011-04-04 00:39;CYHM 040039Z CCA 09003KT 3/4SM -SNPL BR FEW004 VV010 RESN RMK SF2SN6

CYHM;2011-04-04 01:00;CYHM 040100Z 10005KT 2SM -RASNPL BR FEW003 BKN014 OVC025 00/00 A2987 RESN RMK FG1SF2SC4SC2 SLP125

CYHM;2011-04-04 01:13;CYHM 040113Z CCA 10006KT 2 1/2SM -RAPL BR SCT002 OVC020 RESN RMK FG1SF3SC4

CYHM;2011-04-04 01:39;CYHM 040139Z 10009KT 3SM -RA BR BKN003 OVC019 REPL RMK SF5SC3

CYHM;2011-04-04 02:00;CYHM 040200Z 09010KT 7SM -RA SCT003 OVC021 01/01 A2983 REPL RMK SF3SC5 SLP110

CYHM;2011-04-04 02:14;CYHM 040214Z 08011KT 5SM -RA BKN004 OVC024 RMK SF6SC2

CYHM;2011-04-04 03:00;CYHM 040300Z CCA 08012KT 1 1/2SM -RA BR OVC003 01/01 A2978 RMK FG2SF6 VIS VRB 1 - 2 PRESFR SLP090

CYHM;2011-04-04 04:00;CYHM 040400Z 07013KT 1 1/2SM -RA BR OVC003 01/01 A2971 RMK FG2SF6 VIS VRB 1 - 2 PRESFR SLP069

CYHM;2011-04-04 05:00;CYHM 040500Z 05016KT 1 1/2SM -RA BR OVC002 01/01 A2963 RMK FG2SF6 VIS VRB 1 - 2 PRESFR SLP043

CYHM;2011-04-04 06:00;CYHM 040600Z 04016KT 3/4SM BR VV002 01/01 A2959 RMK FG8 VIS VRB 1/2 - 1 SLP027

CYHM;2011-04-04 06:27;CYHM 040627Z 06014KT 1SM BR SCT003 OVC084 RMK FG2SF2AC4 VIS VRB 3/4 - 11/4

CYHM;2011-04-04 06:34;CYHM 040634Z 05013KT 1SM BR OVC002 RMK FG2SF6 VIS VRB 3/4 - 11/4

CYHM;2011-04-04 06:41;CYHM 040641Z 06013KT 3/4SM BR OVC002 RMK FG3SF5 VIS VRB 1/2 - 1

CYHM;2011-04-04 07:00;CYHM 040700Z 06012KT 1 1/2SM BR BKN003 OVC097 02/02 A2950 RMK FG2SF5AC2 VIS VRB 1 - 2 PRESFR SLP998

CYHM;2011-04-04 07:41;CYHM 040741Z 05012KT 6SM BR SCT003 OVC082 RMK SF3AC5 PRESFR

CYHM;2011-04-04 08:00;CYHM 040800Z 04010KT 10SM -TSRA FEW003 OVC078 02/02 A2946 RMK SF2AC6 CB ASOCTD OCNL LTGICCC SW SLP985

CYHM;2011-04-04 08:22;CYHM 040822Z 02014KT 2SM +TSRA FEW002 OVC042CB RMK RA1SF2CB6 OCNL LTGICCCCG

CYHM;2011-04-04 08:42;CYHM 040842Z 06016KT 2SM TSRA BKN003 OVC040 RMK RA1SF4SC3 CB ASOCTD

CYHM;2011-04-04 09:00;CYHM 040900Z 06016KT 2SM -SHRA BR OVC002 02/02 A2944 RETSRA RMK FG1SF7 SLP976

CYHM;2011-04-04 09:44;CYHM 040944Z 05012KT 3/4SM -SHRA BR OVC002 RMK FG3SF5 VIS VRB 1/2 - 1

CYHM;2011-04-04 10:00;CYHM 041000Z 04009KT 3/4SM BR VV002 02/02 A2945 RMK FG8 VIS VRB 1/2 - 1 SLP978

CYHM;2011-04-04 10:34;CYHM 041034Z 08006KT 1 1/2SM BR BKN002 OVC048 RMK FG2SF4SC2 VIS VRBLE 1-2 SM

CYHM;2011-04-04 11:00;CYHM 041100Z 05004KT 1 1/2SM BR SCT008 BKN042 OVC055 03/03 A2939 RMK FG2SF2SC3SC2 SLP961

CYHM;2011-04-04 11:04;CYHM 041104Z 00000KT 1 1/2SM TSRA BR BKN042 OVC058 RMK FG2SC5SC2 CB EMBD

CYHM;2011-04-04 11:34;CYHM 041134Z 02006KT 2SM -SHRA BR SCT020 OVC045 RMK FG1SC2SC5 RETS RERA

CYHM;2011-04-04 12:00;CYHM 041200Z 02006KT 1 1/2SM -SHRA BR BKN038 OVC044 03/03 A2939 RMK FG1SC6SC2 VIS VRBL1-2SM SLP959

CYHM;2011-04-04 12:15;CYHM 041215Z 07005KT 3/4SM BR SCT008 OVC042 RMK FG2SF1SC5 VIS VRNL 1/2-11/2SM

CYHM;2011-04-04 12:47;CYHM 041247Z 00000KT 2SM BR SCT045 OVC081 RMK FG1SC3AC4

CYHM;2011-04-04 13:00;CYHM 041300Z 20008KT 3SM -SHRA BR OVC047 04/04 A2938 RMK SC8 SLP957

CYHM;2011-04-04 14:00;CYHM 041400Z CCA 20007KT 4SM -SHRA BR FEW045 OVC096 05/05 A2936 RMK SC2AC6 SLP951

CYHM;2011-04-04 14:18;CYHM 041418Z 20013KT 6SM BR FEW009 BKN016 OVC082 RMK SF2SC4AC2

CYHM;2011-04-04 15:00;CYHM 041500Z 22010KT 10SM BKN047 BKN094 09/09 A2932 RMK SC6AC2 SLP935

CYHM;2011-04-04 16:00;CYHM 041600Z 19012KT 10SM FEW035 SCT055 BKN090 OVC210 14/13 A2928 RMK CU1SC2AC2CI2 HALO SLP922

CYHM;2011-04-04 17:00;CYHM 041700Z 22014KT 15SM FEW019 FEW028 BKN120 17/14 A2925 RMK CU1SC2AC5 SLP910

CYHM;2011-04-04 18:00;CYHM 041800Z 23020G32KT 15SM BKN024 OVC120 17/14 A2925 RMK SC6AC2 SLP909

CYHM;2011-04-04 19:00;CYHM 041900Z 23025G32KT 15SM BKN020 OVC120 17/14 A2926 RMK SC7AC1 SLP910

CYHM;2011-04-04 19:20;CYHM 041920Z 22025G32KT 5SM -SHRA OVC015 RMK SF8

CYHM;2011-04-04 20:00;CYHM 042000Z 22025G32KT 8SM -SHRA OVC013 15/14 A2926 RMK SF8 SLP912

CYHM;2011-04-04 20:47;CYHM 042047Z 23020G26KT 5SM -SHRA OVC008 RMK SF8

CYHM;2011-04-04 21:00;CYHM 042100Z 22020G26KT 2 1/2SM -SHRA BR OVC008 14/14 A2923 RMK SF8 SLP902

CYHM;2011-04-04 21:39;CYHM 042139Z 23015G22KT 12SM -SHRA SCT008 OVC011 RMK SF3SC5

CYHM;2011-04-04 22:00;CYHM 042200Z 23015G22KT 3SM -SHRA BR FEW008 BKN014 OVC023 13/13 A2924 RMK SF2SF3SC3 SLP904

CYHM;2011-04-04 22:09;CYHM 042209Z 23015G22KT 2 1/2SM -SHRA BR FEW008 SCT012 OVC026 RMK SF2SF2SC4

CYHM;2011-04-04 23:00;CYHM 042300Z 27010G16KT 1 1/4SM -SHRA BR SCT008 OVC015 11/11 A2925 RMK SF4SC4 SLP908

CYHM;2011-04-05 00:00;CYHM 050000Z 26014KT 3SM -SHRA BR FEW006 BKN012 OVC026 10/10 A2925 RMK SF2SF4SC2 SLP908

CYHM;2011-04-05 00:29;CYHM 050029Z 27015KT 3SM -SHRA BR FEW006 SCT010 BKN022 OVC055 RMK SF1SF2SC2SC2

CYHM;2011-04-05 01:00;CYHM 050100Z 28013G20KT 5SM -SHRA BR FEW006 BKN012 OVC040 07/07 A2928 RMK SF1SF5SC2 SLP920

CYHM;2011-04-05 02:00;CYHM 050200Z 27012KT 12SM -SHRA FEW012 SCT058 BKN078 OVC100 06/05 A2930 RMK SF2SC2AC2AC3 SLP927

CYHM;2011-04-05 03:00;CYHM 050300Z 26015G21KT 15SM -SHRA OVC013 06/04 A2935 RMK SC8 SLP944

CYHM;2011-04-05 04:00;CYHM 050400Z 26010G16KT 15SM FEW014 OVC023 05/03 A2936 RMK SC2SC6 SLP948

CYHM;2011-04-05 05:00;CYHM 050500Z 24012KT 15SM OVC026 04/02 A2936 RMK SC8 SLP945

CYHM;2011-04-05 06:00;CYHM 050600Z 26013KT 15SM BKN018 OVC044 04/02 A2935 RMK SC6SC2 SLP942

CYHM;2011-04-05 07:00;CYHM 050700Z 28015G21KT 15SM FEW024 SCT040 OVC084 04/M01 A2937 RMK SC2SC2AC5 SLP947

CYHM;2011-04-05 08:00;CYHM 050800Z 28010KT 15SM BKN025 BKN035 OVC090 03/M00 A2936 RMK SC5SC2AC2 SLP945

CYHM;2011-04-05 09:00;CYHM 050900Z 29013KT 15SM OVC026 03/M01 A2938 RMK SC8 SLP954

CYHM;2011-04-05 10:00;CYHM 051000Z 28008KT 15SM BKN026 OVC130 02/M01 A2941 RMK SC7AC1 SLP964

CYHM;2011-04-05 11:00;CYHM 051100Z 28018G23KT 10SM BKN022 OVC035 02/M01 A2944 RMK SC6SC2 SLP974

CYHM;2011-04-05 11:53;CYHM 051153Z 29014KT 7SM -SHSN BKN011 OVC022 RMK SC6SC2

CYHM;2011-04-05 12:00;CYHM 051200Z 27014G19KT 15SM -SHSN FEW010 BKN022 OVC048 01/M00 A2949 RMK SF2SC4SC2 SLP990

CYHM;2011-04-05 12:21;CYHM 051221Z 30016G22KT 15SM BKN029 OVC044 RMK SC6SC2

CYHM;2011-04-05 13:00;CYHM 051300Z 29020G25KT 15SM BKN032 OVC170 02/M02 A2949 RMK SC5AC3 SLP991

CYHM;2011-04-05 14:00;CYHM 051400Z 28014KT 15SM -SHSN OVC022 02/M01 A2950 RMK SC8 SLP996

CYHM;2011-04-05 14:11;CYHM 051411Z 29015G20KT 15SM OVC020 RMK SC8

CYHM;2011-04-05 15:00;CYHM 051500Z 28020G26KT 15SM OVC021 01/M02 A2953 RMK SC8 SLP006

CYHM;2011-04-05 16:00;CYHM 051600Z 28020G26KT 15SM BKN029 BKN036 03/M03 A2955 RMK SC6SC2 CU ASOCTD SLP012

CYHM;2011-04-05 17:00;CYHM 051700Z 29020G25KT 15SM BKN036 BKN042 03/M03 A2956 RMK SC6SC2 SLP016

CYHM;2011-04-05 18:00;CYHM 051800Z 28020G28KT 15SM BKN040 04/M03 A2958 RMK SC7 SLP022

CYHM;2011-04-05 19:00;CYHM 051900Z CCA 27015G22KT 15SM -SHSN OVC044 02/M04 A2961 RMK SC8 SLP034

CYHM;2011-04-05 20:00;CYHM 052000Z 29013G20KT 15SM -SHSN BKN054 03/M05 A2962 RMK SC7 SLP038

CYHM;2011-04-05 21:00;CYHM 052100Z 29015G22KT 15SM -SHSN BKN050 03/M05 A2965 RMK SC7 SLP047

CYHM;2011-04-05 22:00;CYHM 052200Z 27015G22KT 15SM SCT040 BKN060 03/M04 A2968 RMK SC3SC4 SF ASOCTD SLP058

CYHM;2011-04-05 23:00;CYHM 052300Z 26014KT 15SM BKN050 03/M05 A2971 RMK SC5 SF ASOCTD SLP068

CYHM;2011-04-06 00:00;CYHM 060000Z 26011KT 15SM FEW052 03/M05 A2973 RMK SC2 CUFRA ASOCTD SLP077

CYHM;2011-04-06 01:00;CYHM 060100Z 24008KT 15SM FEW058 FEW086 02/M05 A2976 RMK SC1AC1 AC TR SLP086

CYHM;2011-04-06 02:00;CYHM 060200Z 22005KT 15SM FEW054 M00/M04 A2978 RMK SC1 SC TR SLP093

CYHM;2011-04-06 03:00;CYHM 060300Z 21006KT 15SM FEW052 M01/M04 A2978 RMK SC1 SC TR SLP095

CYHM;2011-04-06 04:00;CYHM 060400Z 23007KT 15SM FEW052 M00/M04 A2980 RMK SC1 SC TR SLP099

CYHM;2011-04-06 05:00;CYHM 060500Z 23007KT 15SM FEW072 M00/M04 A2981 RMK AC1 AC TR SLP104

CYHM;2011-04-06 06:00;CYHM 060600Z 24008KT 15SM FEW070 01/M04 A2981 RMK AC1 AC TR SLP103

CYHM;2011-04-06 07:00;CYHM 060700Z 24006KT 15SM FEW070 01/M04 A2981 RMK AC1 AC TR SLP102

CYHM;2011-04-06 08:00;CYHM 060800Z 23007KT 15SM SCT160 M00/M04 A2982 RMK AC1 AC TR SLP105

CYHM;2011-04-06 09:00;CYHM 060900Z 22007KT 15SM FEW160 M01/M05 A2983 RMK AC1 SLP109

CYHM;2011-04-06 10:00;CYHM 061000Z 22005KT 15SM FEW160 FEW240 M02/M05 A2984 RMK AC1CI1 AC TR CI TR SLP112

CYHM;2011-04-06 11:00;CYHM 061100Z 22006KT 15SM FEW120 SCT240 M02/M04 A2985 RMK AC2CI1 SLP117

CYHM;2011-04-06 12:00;CYHM 061200Z 21008KT 15SM FEW080 BKN100 OVC220 00/M02 A2985 RMK AC2AC3CI2 SLP118

CYHM;2011-04-06 13:00;CYHM 061300Z 23008KT 15SM BKN046 OVC053 01/M01 A2987 RMK SC6SC2 SLP122

CYHM;2011-04-06 13:15;CYHM 061315Z 24010KT 8SM -SHSN BKN027 OVC043 RMK SC6SC2

CYHM;2011-04-06 13:37;CYHM 061337Z 25010KT 6SM -SHRASN BKN023 OVC039 RMK SC6SC2

CYHM;2011-04-06 14:00;CYHM 061400Z 25008KT 6SM -SHRA BR BKN024 OVC036 02/01 A2986 RMK SC6SC2 SLP121

CYHM;2011-04-06 15:00;CYHM 061500Z 24008KT 5SM -SHRA BR BKN006 OVC020 02/02 A2988 RMK SF6SC2 SLP127

CYHM;2011-04-06 16:00;CYHM 061600Z 23008KT 4SM -SHRA BR BKN008 OVC035 03/02 A2988 RMK SF6SC2 SLP129

CYHM;2011-04-06 17:00;CYHM 061700Z 21008KT 5SM -SHRA BR BKN004 OVC019 03/02 A2988 RMK SF6SC2 SLP127

CYHM;2011-04-06 18:00;CYHM 061800Z 21008KT 8SM -SHRA OVC005 03/02 A2988 RMK SC8 SLP126

CYHM;2011-04-06 19:00;CYHM 061900Z 21007KT 6SM -SHRA BR OVC005 03/03 A2987 RMK SC8 SLP124

CYHM;2011-04-06 20:00;CYHM 062000Z 20005KT 8SM -SHRA OVC006 03/03 A2988 RMK SC8 SLP126

CYHM;2011-04-06 21:00;CYHM 062100Z 22004KT 8SM -SHRA OVC008 04/03 A2989 RMK SC8 SLP132

CYHM;2011-04-06 21:37;CYHM 062137Z 23003KT 9SM OVC008 RMK SC8

CYHM;2011-04-06 22:00;CYHM 062200Z 25004KT 10SM OVC008 04/03 A2991 RMK SC8 SLP138

CYHM;2011-04-06 23:00;CYHM 062300Z 22004KT 10SM OVC008 04/03 A2992 RMK SC8 SLP141

CYHM;2011-04-07 00:00;CYHM 070000Z 20003KT 8SM OVC006 03/02 A2994 RMK SC8 SLP146

CYHM;2011-04-07 01:00;CYHM 070100Z 00000KT 9SM OVC006 03/02 A2996 RMK SC8 SLP155

CYHM;2011-04-07 02:00;CYHM 070200Z 00000KT 7SM OVC004 02/02 A2997 RMK SC8 SLP157

CYHM;2011-04-07 03:00;CYHM 070300Z 00000KT 1 1/2SM BR OVC002 02/01 A2997 RMK FG2SF6 VIS VRB 1 - 2 SLP158

CYHM;2011-04-07 03:21;CYHM 070321Z 00000KT 1/2SM FG VV001 RMK FG8

CYHM;2011-04-07 03:43;CYHM 070343Z 00000KT 0SM FG VV001 RMK FG8

CYHM;2011-04-07 04:00;CYHM 070400Z 00000KT 0SM FG VV001 01/01 A2998 RMK FG8 SLP160

CYHM;2011-04-07 05:00;CYHM 070500Z 00000KT 0SM FZFG BKN002 M00/M00 A2999 RMK FG6SF2 SLP164

CYHM;2011-04-07 05:47;CYHM 070547Z 00000KT 1/4SM FZFG VV001 RMK FG8

CYHM;2011-04-07 06:00;CYHM 070600Z 00000KT 0SM FZFG VV001 M00/M00 A3001 RMK FG8 SLP170

CYHM;2011-04-07 06:20;CYHM 070620Z 00000KT 1/4SM FZFG VV001 RMK FG8

CYHM;2011-04-07 07:00;CYHM 070700Z 00000KT 1/4SM FZFG VV001 M00/M00 A3001 RMK FG8 SLP172

CYHM;2011-04-07 07:42;CYHM 070742Z 00000KT 0SM FZFG BKN001 RMK FG6SF2

CYHM;2011-04-07 08:00;CYHM 070800Z 00000KT 0SM FZFG BKN001 M01/M01 A3003 RMK FG6SF2 SLP177

CYHM;2011-04-07 08:44;CYHM 070844Z 00000KT 3/4SM BR SKC RMK FG3 VIS VRB 1/2 - 1

CYHM;2011-04-07 09:00;CYHM 070900Z 00000KT 3/4SM BR SCT090 M02/M02 A3003 RMK FG3AC1 VIS VRB 1/2 - 1 SLP177

CYHM;2011-04-07 09:25;CYHM 070925Z 04006KT 6SM BR FEW005 RMK SF2

CYHM;2011-04-07 10:00;CYHM 071000Z 04007KT 6SM BR FEW005 FEW016 M01/M01 A3004 RMK SF2SC1 SLP182

CYHM;2011-04-07 10:28;CYHM 071028Z 03006KT 1 1/2SM BR OVC002 RMK FG2SF6

CYHM;2011-04-07 10:32;CYHM 071032Z 04006KT 1/8SM FZFG VV001 RMK FG8

CYHM;2011-04-07 10:43;CYHM 071043Z 03006KT 0SM FZFG VV001 RMK FG8

CYHM;2011-04-07 11:00;CYHM 071100Z 06005KT 0SM FZFG VV001 M00/M00 A3006 RMK FG8 SLP188

CYHM;2011-04-07 12:00;CYHM 071200Z 02005KT 0SM FZFG VV001 00/00 A3008 RMK FG8 SLP196

CYHM;2011-04-07 13:00;CYHM 071300Z 05007KT 0SM FG VV001 01/01 A3010 RMK FG8 SLP200

CYHM;2011-04-07 13:22;CYHM 071322Z 05006KT 1/2SM FG OVC002 RMK FG6SF2

CYHM;2011-04-07 13:49;CYHM 071349Z 04004KT 1/8SM FG VV001 RMK FG8

CYHM;2011-04-07 14:00;CYHM 071400Z 07004KT 1/2SM FG OVC002 02/02 A3013 RMK FG6SF2 SLP210

CYHM;2011-04-07 14:10;CYHM 071410Z 29005KT 3/4SM BR OVC002 RMK FG5SF3

CYHM;2011-04-07 14:52;CYHM 071452Z 08004KT 1 1/2SM BR OVC002 RMK FG3SF5

CYHM;2011-04-07 15:00;CYHM 071500Z 06004KT 2SM BR OVC003 02/02 A3015 RMK FG2SF6 SLP218

CYHM;2011-04-07 16:00;CYHM 071600Z 03004KT 3SM BR OVC004 03/03 A3013 RMK SF8 SLP214

CYHM;2011-04-07 16:23;CYHM 071623Z 04005KT 5SM BR BKN006 BKN020 RMK SF5SC2

CYHM;2011-04-07 17:00;CYHM 071700Z 11006KT 10SM FEW008 BKN018 05/04 A3013 RMK CF2SC3 SLP214

CYHM;2011-04-07 18:00;CYHM 071800Z 00000KT 15SM FEW020 06/03 A3014 RMK CU1 SLP214

CYHM;2011-04-07 19:00;CYHM 071900Z 15002KT 15SM FEW025 FEW250 08/02 A3012 RMK CU1CI0 WND L/V SLP209

CYHM;2011-04-07 20:00;CYHM 072000Z 20004KT 15SM FEW040 SCT250 10/03 A3010 RMK CU2CI0 SLP203

CYHM;2011-04-07 21:00;CYHM 072100Z 20006KT 150V280 15SM SCT045 BKN250 11/02 A3010 RMK SC4CI0 SLP202

CYHM;2011-04-07 22:00;CYHM 072200Z 04006KT 15SM FEW045 BKN060 BKN250 08/04 A3012 RMK SC2SC3CI1 SLP208

CYHM;2011-04-07 23:00;CYHM 072300Z 06008KT 15SM FEW057 BKN250 06/03 A3013 RMK SC2CI2 SLP210

CYHM;2011-04-08 00:00;CYHM 080000Z 04006KT 9SM FEW056 BKN250 04/01 A3014 RMK SC1CI2 SLP217

CYHM;2011-04-08 01:00;CYHM 080100Z 05006KT 15SM SCT240 03/01 A3015 RMK CI2 SLP219

CYHM;2011-04-08 02:00;CYHM 080200Z 09004KT 15SM SCT240 04/00 A3017 RMK CI2 SLP226

CYHM;2011-04-08 03:00;CYHM 080300Z 07002KT 15SM FEW230 04/00 A3017 RMK CI1 SLP224

CYHM;2011-04-08 04:00;CYHM 080400Z 04004KT 12SM FEW230 03/01 A3018 RMK CI1 SLP228

CYHM;2011-04-08 05:00;CYHM 080500Z 05006KT 15SM FEW230 03/M01 A3017 RMK CI1 SLP225

CYHM;2011-04-08 06:00;CYHM 080600Z 04006KT 15SM BKN220 03/M02 A3017 RMK CI6 SLP222

CYHM;2011-04-08 07:00;CYHM 080700Z 05006KT 15SM OVC220 03/M03 A3016 RMK CI7 SLP220

CYHM;2011-04-08 08:00;CYHM 080800Z 05008KT 15SM OVC220 02/M02 A3015 RMK CI7 SLP218

CYHM;2011-04-08 09:00;CYHM 080900Z 05008KT 15SM OVC220 02/M01 A3013 RMK CI8 SLP211

CYHM;2011-04-08 10:00;CYHM 081000Z 06009KT 15SM OVC200 01/M02 A3014 RMK CI8 SLP214

CYHM;2011-04-08 11:00;CYHM 081100Z 06010KT 15SM BKN170 OVC210 01/M02 A3013 RMK AC6CI2 SLP209

CYHM;2011-04-08 12:00;CYHM 081200Z 05008KT 15SM BKN180 OVC210 01/M01 A3014 RMK AC6CI2 SLP214

CYHM;2011-04-08 13:00;CYHM 081300Z 05008KT 15SM BKN160 OVC210 03/00 A3014 RMK AC6CI2 SLP216

CYHM;2011-04-08 14:00;CYHM 081400Z 04012KT 15SM OVC150 03/00 A3012 RMK AC8 SLP209

CYHM;2011-04-08 15:00;CYHM 081500Z 04012KT 15SM OVC130 03/01 A3010 RMK AC8 SLP201

CYHM;2011-04-08 16:00;CYHM 081600Z 04013KT 15SM FEW045 OVC140 03/01 A3010 RMK SC1AS8 SC TR SLP199

CYHM;2011-04-08 17:00;CYHM 081700Z 07014KT 10SM OVC130 05/02 A3008 RMK AS8 SLP194

CYHM;2011-04-08 18:00;CYHM 081800Z 05012KT 15SM SCT120 BKN170 OVC210 04/02 A3006 RMK AC3AS4CI1 SLP187

CYHM;2011-04-08 19:00;CYHM 081900Z 04014KT 15SM FEW029 OVC160 05/02 A3006 RMK SC2AS6 SLP187

CYHM;2011-04-08 20:00;CYHM 082000Z 04014KT 15SM BKN033 OVC240 05/01 A3006 RMK SC6CI2 SLP188

CYHM;2011-04-08 21:00;CYHM 082100Z 04011KT 15SM SCT033 BKN200 06/01 A3004 RMK SC4CI2 SLP182

CYHM;2011-04-08 22:00;CYHM 082200Z 05010KT 15SM BKN038 BKN220 06/01 A3006 RMK SC6CI1 SLP186

CYHM;2011-04-08 23:00;CYHM 082300Z 03008KT 15SM SCT042 BKN220 05/01 A3006 RMK SC3CI3 SLP188

CYHM;2011-04-09 00:00;CYHM 090000Z 02006KT 15SM BKN240 04/01 A3007 RMK CI6 SLP190

CYHM;2011-04-09 01:00;CYHM 090100Z 02006KT 15SM BKN250 03/01 A3008 RMK CI5 SLP195

CYHM;2011-04-09 02:00;CYHM 090200Z 03006KT 15SM BKN230 03/00 A3010 RMK CI5 CONTRAILS SLP200

CYHM;2011-04-09 03:00;CYHM 090300Z 03007KT 15SM SCT230 03/M00 A3010 RMK CI3 SLP200

CYHM;2011-04-09 04:00;CYHM 090400Z 03007KT 15SM FEW210 02/M00 A3010 RMK CI2 SLP203

CYHM;2011-04-09 05:00;CYHM 090500Z 04007KT 15SM FEW210 02/M01 A3011 RMK CI2 SLP205

CYHM;2011-04-09 06:00;CYHM 090600Z 07007KT 15SM FEW210 01/M02 A3009 RMK CI1 SLP199

CYHM;2011-04-09 07:00;CYHM 090700Z 05007KT 15SM FEW200 02/M02 A3010 RMK CI1 SLP200

CYHM;2011-04-09 08:00;CYHM 090800Z 04006KT 15SM FEW200 02/M02 A3010 RMK CI1 SLP200

CYHM;2011-04-09 09:00;CYHM 090900Z 07006KT 15SM FEW200 02/M02 A3008 RMK CI2 SLP195

CYHM;2011-04-09 10:00;CYHM 091000Z 00000KT 15SM FEW240 02/M02 A3012 RMK CI2 SLP206

CYHM;2011-04-09 11:00;CYHM 091100Z 00000KT 15SM SCT250 M00/M03 A3012 RMK CI2 SLP207

CYHM;2011-04-09 12:00;CYHM 091200Z 00000KT 15SM FEW250 03/M00 A3015 RMK CI2 SLP219

CYHM;2011-04-09 13:00;CYHM 091300Z 15002KT 15SM SCT250 06/03 A3016 RMK CI2 SLP220

CYHM;2011-04-09 14:00;CYHM 091400Z 11004KT 060V150 15SM BKN250 07/04 A3012 RMK CI2 SLP208

CYHM;2011-04-09 15:00;CYHM 091500Z 08006KT 030V140 15SM BKN250 09/06 A3010 RMK CI2 SLP201

CYHM;2011-04-09 16:00;CYHM 091600Z 09005KT 040V140 15SM FEW030 BKN250 10/05 A3010 RMK CU1CI2 CU TR SLP201

CYHM;2011-04-09 17:00;CYHM 091700Z 07003KT 15SM FEW030 BKN250 11/06 A3008 RMK CU1CI2 CU TR WND L/V SLP193

CYHM;2011-04-09 18:00;CYHM 091800Z 07006KT 030V100 15SM BKN250 12/06 A3004 RMK CI2 SLP179

CYHM;2011-04-09 19:00;CYHM 091900Z 07007KT 030V110 15SM BKN220 12/07 A3003 RMK CI3 SLP174

CYHM;2011-04-09 20:00;CYHM 092000Z 06006KT 030V100 15SM FEW025 BKN220 12/06 A3000 RMK CF1CI2 CF TR SLP166

CYHM;2011-04-09 21:00;CYHM 092100Z 06009KT 030V090 15SM FEW025 BKN220 11/05 A3000 RMK SC1CI2 SC TR SLP164

CYHM;2011-04-09 22:00;CYHM 092200Z 06009KT 15SM FEW025 SCT220 10/05 A2998 RMK SC1CI2 SC TR SLP158

CYHM;2011-04-09 23:00;CYHM 092300Z 06008KT 15SM FEW025 FEW170 BKN230 08/04 A2997 RMK SC1AC1CI2 AC TR CONTRAIL SLP157

CYHM;2011-04-10 00:00;CYHM 100000Z 05004KT 15SM FEW030 FEW080 BKN230 07/04 A2999 RMK SC1AC1CI2 SLP164

CYHM;2011-04-10 01:00;CYHM 100100Z 05004KT 15SM BKN032 BKN230 07/04 A3004 RMK SC6CI1 SLP178

CYHM;2011-04-10 02:00;CYHM 100200Z 00000KT 15SM BKN035 07/04 A3002 RMK SC6 SLP173

CYHM;2011-04-10 03:00;CYHM 100300Z 00000KT 15SM OVC030 06/04 A3002 RMK SC8 SLP171

CYHM;2011-04-10 04:00;CYHM 100400Z 00000KT 15SM SCT026 06/04 A3002 RMK SC3 SLP170

CYHM;2011-04-10 05:00;CYHM 100500Z 00000KT 15SM FEW026 05/03 A3001 RMK SC2 SLP167

CYHM;2011-04-10 06:00;CYHM 100600Z 16006KT 15SM FEW025 05/04 A2999 RMK SC2 SLP162

CYHM;2011-04-10 07:00;CYHM 100700Z CCA 16010KT 15SM BKN140 05/05 A2995 RMK AC6 PRESFR SLP148

CYHM;2011-04-10 08:00;CYHM 100800Z 18004KT 15SM FEW140 SCT180 BKN220 06/05 A2997 RMK AC1AC2CI1 SLP154

CYHM;2011-04-10 09:00;CYHM 100900Z 23003KT 15SM FEW170 BKN230 05/04 A2999 RMK AC2CI4 SLP160

CYHM;2011-04-10 10:00;CYHM 101000Z 17005KT 15SM FEW060 OVC160 05/04 A2999 RMK SC2AC6 SLP160

CYHM;2011-04-10 11:00;CYHM 101100Z 18005KT 15SM BKN060 OVC150 06/05 A2999 RMK SC5AC3 SLP160

CYHM;2011-04-10 12:00;CYHM 101200Z 19005KT 6SM BR SCT055 OVC150 06/06 A2999 RMK SC3AC4 SLP160

CYHM;2011-04-10 13:00;CYHM 101300Z 19007KT 3SM BR FEW040 OVC120 07/06 A2996 RMK SC2AC6 SLP152

CYHM;2011-04-10 14:00;CYHM 101400Z 17009KT 2SM BR BKN130 OVC150 08/08 A2992 RMK FG2AC4AS2 SLP139

CYHM;2011-04-10 15:00;CYHM 101500Z 12006KT 1 1/2SM BR FEW030 OVC130 09/08 A2994 RMK FG2SC1AC6 SLP143

CYHM;2011-04-10 15:53;CYHM 101553Z 03011KT 1 1/2SM TS BR SCT060 BKN067 OVC120 RMK FG2SC2AC2AC2 CB EMBD LTNG N

CYHM;2011-04-10 16:00;CYHM 101600Z 04013KT 1 1/2SM TS BR SCT060 BKN067 OVC120 07/06 A2995 RMK FG2SC2AC2AC2 CB EMBD LTNG N SLP147

CYHM;2011-04-10 16:15;CYHM 101615Z CCA 08014KT 2SM -TSRA FEW007 SCT018 BKN060 OVC067 RMK SF2SC2SC2AC2 CB EMBDD

CYHM;2011-04-10 16:45;CYHM 101645Z 12011KT 1 1/2SM BR FEW018 SCT070 OVC120 RMK SC2AC2AC4 RETS

CYHM;2011-04-10 17:00;CYHM 101700Z 14007KT 2SM BR FEW018 SCT070 OVC120 10/09 A2986 RMK SC2AC2AC4 RETS PRESFR SLP117

CYHM;2011-04-10 17:40;CYHM 101740Z 16012KT 8SM FEW055 SCT070 OVC120 RMK SC2AC2AC4

CYHM;2011-04-10 18:00;CYHM 101800Z 17010KT 8SM FEW055 SCT070 OVC120 15/12 A2981 RMK SC2AC2AC4 SLP100

CYHM;2011-04-10 19:00;CYHM 101900Z 20012KT 10SM FEW050 SCT075 BKN250 19/13 A2976 RMK SC2AC2CI2 SLP081

CYHM;2011-04-10 20:00;CYHM 102000Z 21019KT 12SM FEW050 SCT075 BKN250 20/13 A2967 RMK CU1AC2CI1 PRESFR SLP052

CYHM;2011-04-10 21:00;CYHM 102100Z 22022G28KT 15SM FEW050 FEW085 FEW250 22/14 A2965 RMK CU1AC1CI1 CU TR AC TR SLP041

CYHM;2011-04-10 22:00;CYHM 102200Z 21014KT 15SM FEW250 22/15 A2964 RMK CI1 CONTRAIL SLP037

CYHM;2011-04-10 23:00;CYHM 102300Z 23014KT 15SM FEW250 24/15 A2964 RMK CI1 SLP037

CYHM;2011-04-11 00:00;CYHM 110000Z 22010KT 15SM SKC 21/15 A2963 RMK SLP036

CYHM;2011-04-11 01:00;CYHM 110100Z 06004KT 15SM SKC 16/13 A2963 RMK SLP034

CYHM;2011-04-11 02:00;CYHM 110200Z 04006KT 15SM FEW070 10/09 A2964 RMK AC1 AC TR SLP039

CYHM;2011-04-11 03:00;CYHM 110300Z 07004KT 15SM OVC060 11/09 A2962 RMK SC8 SLP035

CYHM;2011-04-11 04:00;CYHM 110400Z 05005KT 15SM OVC057 12/09 A2962 RMK SC8 SLP034

CYHM;2011-04-11 05:00;CYHM 110500Z 06007KT 15SM OVC051 11/08 A2961 RMK SC8 SLP031

CYHM;2011-04-11 06:00;CYHM 110600Z 19006KT 15SM SCT043 BKN075 11/09 A2957 RMK SC4AC3 SLP014

CYHM;2011-04-11 07:00;CYHM 110700Z 20013KT 15SM BKN058 18/14 A2952 RMK SC6 WARM FROPA SLP999

CYHM;2011-04-11 08:00;CYHM 110800Z 20010KT 15SM SCT057 BKN078 17/14 A2951 RMK SC4AC2 SLP995

CYHM;2011-04-11 09:00;CYHM 110900Z 22015G20KT 15SM BKN073 19/15 A2950 RMK AC6 SLP988

CYHM;2011-04-11 10:00;CYHM 111000Z 22017G23KT 15SM OVC080 19/15 A2950 RMK AC8 SLP988

CYHM;2011-04-11 11:00;CYHM 111100Z 23015G20KT 15SM BKN075 OVC210 18/15 A2950 RMK AC5CI3 SLP988

CYHM;2011-04-11 12:00;CYHM 111200Z 22016G22KT 15SM BKN073 OVC110 19/15 A2949 RMK AC6AC2 SLP985

CYHM;2011-04-11 13:00;CYHM 111300Z 20013KT 15SM BKN090 OVC120 18/15 A2945 RMK AC6AC2 SLP969

CYHM;2011-04-11 13:52;CYHM 111352Z 20015KT 15SM -SHRA SCT015 BKN020 OVC070 RMK SC3SC2AC2

CYHM;2011-04-11 14:00;CYHM 111400Z 21018KT 10SM -SHRA FEW012 BKN024 OVC080 17/15 A2940 RMK SC2SC4AC2 SLP954

CYHM;2011-04-11 14:15;CYHM 111415Z 20018KT 10SM FEW006 BKN015 BKN045 OVC080 RMK SF1SC4SC2AC1

CYHM;2011-04-11 15:00;CYHM 111500Z 25024G29KT 15SM FEW036 BKN042 BKN058 20/15 A2947 RMK CU1SC5SC2 SLP979

CYHM;2011-04-11 16:00;CYHM 111600Z 24030KT 15SM -SHRA FEW024 BKN038 BKN045 OVC090 19/15 A2946 RMK CU2SC3SC2AC2 SLP978

CYHM;2011-04-11 16:50;CYHM 111650Z 24026G32KT 15SM FEW020 BKN032 BKN060 RMK CU2SC3SC2

CYHM;2011-04-11 17:00;CYHM 111700Z CCA 24016G22KT 15SM FEW020 SCT032 BKN060 18/14 A2944 RMK CU1SC2SC4 SLP970

CYHM;2011-04-11 18:00;CYHM 111800Z 25026G32KT 15SM FEW022 BKN038 BKN062 19/14 A2944 RMK CU2SC4SC2 SLP971

CYHM;2011-04-11 19:00;CYHM 111900Z 23026G33KT 15SM FEW024 SCT034 BKN120 19/12 A2945 RMK CF1SC2AC4 CUFRA SLP973

CYHM;2011-04-11 20:00;CYHM 112000Z 24025G31KT 15SM FEW034 SCT120 BKN250 19/12 A2947 RMK SC2AC2CS3 SLP980

CYHM;2011-04-11 21:00;CYHM 112100Z 27020G26KT 15SM FEW034 BKN042 BKN120 16/09 A2952 RMK SF1SC5AC1 TCU EMBDD SLP996

CYHM;2011-04-11 22:00;CYHM 112200Z 27016G24KT 15SM BKN044 BKN250 14/07 A2955 RMK SC5CI2 SLP004

CYHM;2011-04-11 23:00;CYHM 112300Z 27012G20KT 15SM BKN052 BKN250 13/06 A2959 RMK SC6CI1 SLP018

CYHM;2011-04-12 00:00;CYHM 120000Z 26012G22KT 15SM BKN042 12/05 A2961 RMK SC7 SLP026

CYHM;2011-04-12 01:00;CYHM 120100Z 28018G26KT 15SM BKN034 10/05 A2967 RMK SC7 SLP048

CYHM;2011-04-12 02:00;CYHM 120200Z 28013G20KT 15SM BKN024 OVC042 08/04 A2973 RMK SC6SC2 SF ASOCTD SLP066

CYHM;2011-04-12 03:00;CYHM 120300Z 29013G20KT 15SM BKN028 07/03 A2977 RMK SC7 SLP082

CYHM;2011-04-12 04:00;CYHM 120400Z 31013KT 15SM FEW030 BKN040 07/03 A2978 RMK SC2SC6 SLP085

CYHM;2011-04-12 05:00;CYHM 120500Z 33012KT 15SM BKN021 OVC044 07/03 A2980 RMK SC6SC2 SLP093

CYHM;2011-04-12 06:00;CYHM 120600Z 33015G22KT 15SM OVC026 07/02 A2982 RMK SC8 SLP101

CYHM;2011-04-12 07:00;CYHM 120700Z 01012KT 15SM OVC028 06/01 A2984 RMK SC8 SLP107

CYHM;2011-04-12 08:00;CYHM 120800Z 02010KT 15SM OVC026 05/01 A2986 RMK SC8 SLP112

CYHM;2011-04-12 09:00;CYHM 120900Z 02015KT 15SM OVC024 04/01 A2987 RMK SC8 SLP118

CYHM;2011-04-12 10:00;CYHM 121000Z 02015KT 15SM BKN024 04/00 A2991 RMK SC7 SLP132

CYHM;2011-04-12 11:00;CYHM 121100Z 03012KT 15SM OVC025 04/00 A2994 RMK SC8 SLP141

CYHM;2011-04-12 12:00;CYHM 121200Z 03014KT 15SM FEW022 FEW045 BKN220 04/00 A2995 RMK CU1SC2CI2 SLP147

CYHM;2011-04-12 13:00;CYHM 121300Z 04018KT 15SM FEW025 BKN220 05/00 A2997 RMK CU2CI2 SLP154

CYHM;2011-04-12 14:00;CYHM 121400Z 03013KT 15SM FEW030 BKN220 06/00 A2999 RMK CU1CI2 SLP160

CYHM;2011-04-12 15:00;CYHM 121500Z 06020KT 15SM FEW035 FEW160 BKN220 07/M01 A3001 RMK CU1AC1CI2 HALO AC TR SLP167

CYHM;2011-04-12 16:00;CYHM 121600Z 06020G25KT 15SM BKN220 08/M01 A3002 RMK CI3 SLP170

CYHM;2011-04-12 17:00;CYHM 121700Z 05020G25KT 15SM FEW140 SCT220 08/M01 A3002 RMK AC1CI2 AC TR SLP170

CYHM;2011-04-12 18:00;CYHM 121800Z 06018KT 15SM FEW220 09/M01 A3002 RMK CI2 SLP172

CYHM;2011-04-12 19:00;CYHM 121900Z 05018KT 15SM FEW140 BKN240 09/M03 A3001 RMK AC1CI2 AC TR SLP169

CYHM;2011-04-12 20:00;CYHM 122000Z 06017KT 15SM FEW140 BKN250 09/M03 A3002 RMK AC1CS5 AC TR HALO SLP170

CYHM;2011-04-12 21:00;CYHM 122100Z 06017KT 15SM FEW120 BKN250 09/M05 A3001 RMK AC1CI5 SLP170

CYHM;2011-04-12 22:00;CYHM 122200Z 05012KT 15SM FEW220 BKN260 09/M04 A3003 RMK CC2CI2 SLP176

CYHM;2011-04-12 23:00;CYHM 122300Z 03008KT 15SM SCT200 BKN250 08/M02 A3004 RMK CC3CI1 SLP178

CYHM;2011-04-13 00:00;CYHM 130000Z 03009KT 15SM FEW200 BKN250 07/M04 A3004 RMK CC1CI3 SLP180

CYHM;2011-04-13 01:00;CYHM 130100Z 02009KT 15SM BKN250 06/M04 A3004 RMK CI2 SLP181

CYHM;2011-04-13 02:00;CYHM 130200Z 03006KT 15SM BKN250 06/M04 A3004 RMK CI2 SLP180

CYHM;2011-04-13 03:00;CYHM 130300Z 04005KT 15SM BKN250 06/M04 A3004 RMK CI2 SLP177

CYHM;2011-04-13 04:00;CYHM 130400Z 01007KT 15SM BKN250 06/M02 A3003 RMK CI2 SLP175

CYHM;2011-04-13 05:00;CYHM 130500Z 02007KT 15SM BKN250 06/M02 A3001 RMK CI2 SLP168

CYHM;2011-04-13 06:00;CYHM 130600Z 03013KT 15SM BKN220 07/M05 A2999 RMK CC6 SLP160

CYHM;2011-04-13 07:00;CYHM 130700Z 02009KT 15SM FEW120 BKN220 07/M06 A2997 RMK AC1CC5 SLP155

CYHM;2011-04-13 08:00;CYHM 130800Z 06014KT 15SM BKN220 07/M05 A2997 RMK CC4 SLP153

CYHM;2011-04-13 09:00;CYHM 130900Z 04015KT 15SM BKN240 06/M03 A2998 RMK CS6 SLP158

CYHM;2011-04-13 10:00;CYHM 131000Z 02008KT 15SM FEW048 SCT080 BKN250 06/M01 A2997 RMK CF2AC2CS3 CUFRA SLP155

CYHM;2011-04-13 11:00;CYHM 131100Z 03008KT 15SM BKN033 BKN055 05/M00 A2998 RMK SC5SC2 SLP159

CYHM;2011-04-13 11:23;CYHM 131123Z 03010KT 7SM -SHRA BKN036 BKN046 RMK SC6SC2

CYHM;2011-04-13 12:00;CYHM 131200Z 03010KT 10SM -SHRA OVC027 05/00 A2999 RMK SC8 SLP162

CYHM;2011-04-13 12:33;CYHM 131233Z 04010KT 8SM BKN013 OVC020 RMK SC6SC2

CYHM;2011-04-13 13:00;CYHM 131300Z 03012KT 7SM BKN008 OVC016 05/03 A2998 RMK SF6SC2 SLP160

CYHM;2011-04-13 13:11;CYHM 131311Z 03010KT 2 1/2SM -DZ BR OVC004 RMK SF8

CYHM;2011-04-13 13:33;CYHM 131333Z 03008KT 1 1/2SM -SHRA BR OVC003 RMK FG1SF7 PCPN BRY LGT

CYHM;2011-04-13 14:00;CYHM 131400Z 04014KT 1 1/2SM -SHRA BR OVC003 05/05 A2999 RMK FG2SF6 SLP161

CYHM;2011-04-13 14:15;CYHM 131415Z CCA 05012G17KT 1SM -SHRA BR OVC002 RMK FG2SF6 VIS VRBL 3/4-11/4SM CIG 150FT

CYHM;2011-04-13 15:00;CYHM 131500Z 05007KT 1/2SM -SHRA FG OVC002 05/05 A2999 RMK FG3SF5 PCPN VRY LGT CIG 150FT SLP162

CYHM;2011-04-13 15:17;CYHM 131517Z 04008KT 2SM BR OVC004 RMK FG1SF7

CYHM;2011-04-13 16:00;CYHM 131600Z 03012KT 2 1/2SM -DZ BR OVC005 05/05 A3000 RMK SF8 SLP164

CYHM;2011-04-13 16:20;CYHM 131620Z 02011KT 2SM -SHRA BR OVC007 RMK SF8

CYHM;2011-04-13 17:00;CYHM 131700Z 03008KT 2SM -SHRA BR BKN008 OVC015 06/06 A3000 RMK SF6SC2 SLP164

CYHM;2011-04-13 18:00;CYHM 131800Z 03010KT 8SM -SHRA FEW007 BKN017 OVC020 06/06 A2999 RMK SF2SC4SC2 PCPN VRY LGT SLP162

CYHM;2011-04-13 18:50;CYHM 131850Z 06015KT 15SM BKN012 BKN090 RMK SC7AC1 AC TR

CYHM;2011-04-13 19:00;CYHM 131900Z 06013KT 15SM BKN012 BKN090 08/06 A2998 RMK SC6AC1 SF ASOCTD SLP157

CYHM;2011-04-13 20:00;CYHM 132000Z 06007KT 15SM SCT012 BKN090 BKN250 08/06 A2996 RMK SC4AC1CI0 SLP152

CYHM;2011-04-13 21:00;CYHM 132100Z 07006KT 15SM FEW012 BKN050 09/06 A2996 RMK SF1SC6 SLP149

CYHM;2011-04-13 22:00;CYHM 132200Z 14004KT 15SM BKN054 09/06 A2997 RMK SC7 SLP153

CYHM;2011-04-13 23:00;CYHM 132300Z 17008KT 15SM FEW056 BKN250 08/06 A2997 RMK SC2CI2 CONTRAILS SLP154

CYHM;2011-04-14 00:00;CYHM 140000Z 17006KT 15SM FEW052 BKN250 08/06 A2997 RMK SC2CI2 SLP155

CYHM;2011-04-14 01:00;CYHM 140100Z 19008KT 15SM BKN250 06/05 A2999 RMK CI3 HALO SLP161

CYHM;2011-04-14 02:00;CYHM 140200Z 21007KT 12SM BKN250 05/04 A3000 RMK CI2 HALO SLP163

CYHM;2011-04-14 03:00;CYHM 140300Z 24005KT 15SM BKN250 04/04 A3000 RMK CI3 SLP165

CYHM;2011-04-14 04:00;CYHM 140400Z 23006KT 15SM SCT250 03/02 A3000 RMK CI2 SLP166

CYHM;2011-04-14 05:00;CYHM 140500Z 23007KT 15SM FEW250 02/02 A3000 RMK CI1 SLP167

CYHM;2011-04-14 06:00;CYHM 140600Z 25008KT 15SM SCT100 03/02 A3001 RMK AC3 SLP170

CYHM;2011-04-14 07:00;CYHM 140700Z 25005KT 15SM BKN085 03/02 A3000 RMK AC5 SLP167

CYHM;2011-04-14 08:00;CYHM 140800Z 26006KT 15SM BKN100 03/01 A3000 RMK AC5 SLP167

CYHM;2011-04-14 09:00;CYHM 140900Z 00000KT 15SM FEW100 03/01 A3002 RMK AC2 SLP171

CYHM;2011-04-14 10:00;CYHM 141000Z 22005KT 15SM BKN090 02/M00 A3003 RMK AC5 SLP175

CYHM;2011-04-14 11:00;CYHM 141100Z 00000KT 15SM BKN084 BKN090 03/M00 A3006 RMK AC5AC1 SLP186

CYHM;2011-04-14 12:00;CYHM 141200Z 00000KT 15SM FEW085 SCT120 05/01 A3008 RMK AC2AC2 SLP193

CYHM;2011-04-14 13:00;CYHM 141300Z 01010KT 15SM BKN085 08/02 A3010 RMK AC6 SLP199

CYHM;2011-04-14 14:00;CYHM 141400Z 01012KT 15SM BKN080 BKN110 09/03 A3012 RMK AC5AC2 SLP207

CYHM;2011-04-14 15:00;CYHM 141500Z 02007KT 15SM FEW030 FEW078 BKN140 10/03 A3015 RMK CU1AC2AC2 CU TR SLP215

CYHM;2011-04-14 16:00;CYHM 141600Z 03005KT 15SM FEW032 SCT220 11/04 A3016 RMK CU1CI2 SLP220

CYHM;2011-04-14 17:00;CYHM 141700Z 05009KT 15SM FEW030 FEW038 SCT220 11/03 A3017 RMK CU1SC2CI1 SLP224

CYHM;2011-04-14 18:00;CYHM 141800Z 04008KT 350V100 15SM FEW030 FEW037 SCT220 12/03 A3018 RMK CU1SC1CI1 SLP226

CYHM;2011-04-14 19:00;CYHM 141900Z 04008KT 15SM FEW036 SCT220 12/04 A3018 RMK SC2CI0 SLP225

CYHM;2011-04-14 20:00;CYHM 142000Z 06011KT 360V120 15SM FEW042 12/03 A3018 RMK SC2 SLP227

CYHM;2011-04-14 21:00;CYHM 142100Z 04010KT 350V090 15SM FEW045 13/02 A3019 RMK SC2 SLP230

CYHM;2011-04-14 22:00;CYHM 142200Z 03011KT 15SM FEW048 12/01 A3021 RMK SC1 SLP237

CYHM;2011-04-14 23:00;CYHM 142300Z 04012KT 15SM FEW050 10/01 A3022 RMK SC1 SLP240

CYHM;2011-04-15 00:00;CYHM 150000Z 03012KT 15SM FEW050 FEW250 08/M01 A3025 RMK SC1CI0 SLP249

CYHM;2011-04-15 01:00;CYHM 150100Z 02012KT 15SM FEW250 06/M02 A3027 RMK CI0 SLP258

CYHM;2011-04-15 02:00;CYHM 150200Z 02010KT 15SM FEW250 05/M03 A3030 RMK CI0 SLP266

CYHM;2011-04-15 03:00;CYHM 150300Z 03008KT 15SM FEW250 04/M05 A3032 RMK CI0 SLP274

CYHM;2011-04-15 04:00;CYHM 150400Z 04013KT 15SM FEW210 03/M06 A3033 RMK CI1 SLP278

CYHM;2011-04-15 05:00;CYHM 150500Z 05018KT 15SM FEW210 04/M05 A3035 RMK CI1 SLP284

CYHM;2011-04-15 06:00;CYHM 150600Z 06020KT 15SM FEW230 03/M04 A3035 RMK CI1 SLP285

CYHM;2011-04-15 07:00;CYHM 150700Z 07022KT 15SM FEW210 02/M04 A3036 RMK CI1 SLP287

CYHM;2011-04-15 08:00;CYHM 150800Z 06018KT 15SM FEW210 01/M06 A3037 RMK CI0 SLP291

CYHM;2011-04-15 09:00;CYHM 150900Z 06020KT 15SM FEW210 01/M08 A3038 RMK CI0 SLP294

CYHM;2011-04-15 10:00;CYHM 151000Z 06020G25KT 15SM FEW210 00/M07 A3039 RMK CI0 SLP297

CYHM;2011-04-15 11:00;CYHM 151100Z 06020G25KT 15SM FEW220 M00/M07 A3041 RMK CI1 SLP303

CYHM;2011-04-15 12:00;CYHM 151200Z 06025KT 15SM FEW220 00/M06 A3043 RMK CI1 SLP312

CYHM;2011-04-15 13:00;CYHM 151300Z 06022G27KT 15SM FEW220 01/M06 A3043 RMK CI0 SLP314

CYHM;2011-04-15 14:00;CYHM 151400Z CCA 06025G30KT 15SM FEW220 01/M06 A3042 RMK CI1 SLP309

CYHM;2011-04-15 15:00;CYHM 151500Z 08025G30KT 15SM FEW240 02/M05 A3041 RMK CI0 SLP306

CYHM;2011-04-15 16:00;CYHM 151600Z 08018G23KT 15SM SKC 02/M04 A3038 RMK SLP296

CYHM;2011-04-15 17:00;CYHM 151700Z 06027G32KT 15SM FEW250 02/M04 A3036 RMK CI1 SLP292

CYHM;2011-04-15 18:00;CYHM 151800Z 06030KT 15SM FEW240 03/M04 A3033 RMK CI1 SLP279

CYHM;2011-04-15 19:00;CYHM 151900Z 07025G31KT 15SM FEW160 BKN200 03/M05 A3031 RMK AC1CI6 CONTRAILS SLP272

CYHM;2011-04-15 20:00;CYHM 152000Z 06023G31KT 15SM BKN220 03/M07 A3028 RMK CI6 SLP264

CYHM;2011-04-15 21:00;CYHM 152100Z 06028G35KT 15SM FEW170 BKN220 03/M07 A3025 RMK AC1CI6 SLP254

CYHM;2011-04-15 22:00;CYHM 152200Z 06030G40KT 15SM FEW160 BKN220 03/M06 A3021 RMK AC1CI6 SLP240

CYHM;2011-04-15 23:00;CYHM 152300Z 05030G39KT 15SM FEW160 BKN200 03/M06 A3020 RMK AC2CI6 SLP238

CYHM;2011-04-16 00:00;CYHM 160000Z 05030G39KT 15SM BKN240 03/M06 A3017 RMK CI7 SLP226

CYHM;2011-04-16 01:00;CYHM 160100Z 05032G41KT 15SM OVC210 03/M05 A3016 RMK CI7 SLP223

CYHM;2011-04-16 02:00;CYHM 160200Z 06030G40KT 15SM OVC200 03/M04 A3016 RMK CI7 SLP222

CYHM;2011-04-16 03:00;CYHM 160300Z CCA 06028G34KT 15SM OVC180 03/M04 A3011 RMK AC7 PRESFR SLP204

CYHM;2011-04-16 04:00;CYHM 160400Z 06027G36KT 15SM OVC220 02/M03 A3006 RMK CI7 PRESFR SLP189

CYHM;2011-04-16 05:00;CYHM 160500Z 05027G36KT 15SM OVC230 02/M03 A3004 RMK CI7 SLP180

CYHM;2011-04-16 06:00;CYHM 160600Z 05024G32KT 15SM OVC130 02/M02 A2998 RMK AC7 PRESFR SLP161

CYHM;2011-04-16 07:00;CYHM 160700Z 05018G26KT 15SM FEW025 OVC180 02/M01 A2994 RMK CU1AC7 PRESFR SLP146

CYHM;2011-04-16 08:00;CYHM 160800Z 04017KT 15SM FEW025 FEW090 OVC110 02/00 A2992 RMK CU1AC2AC6 SLP141

CYHM;2011-04-16 08:39;CYHM 160839Z 05016KT 15SM -SHRA OVC052 RMK SC8

CYHM;2011-04-16 09:00;CYHM 160900Z 04015KT 15SM -SHRA FEW040 OVC064 02/01 A2990 RMK SC2SC6 SLP133

CYHM;2011-04-16 10:00;CYHM 161000Z 06012G17KT 7SM -SHRA OVC035 03/02 A2986 RMK SC8 SLP119

CYHM;2011-04-16 11:00;CYHM 161100Z 06010KT 4SM -SHRA BR SCT027 OVC052 04/04 A2981 RMK SC3SC5 SLP105

CYHM;2011-04-16 11:29;CYHM 161129Z 06010KT 2SM -SHRA BR SCT002 OVC026 RMK FG1CF2SC5

CYHM;2011-04-16 12:00;CYHM 161200Z 06010KT 2 1/2SM -SHRA BR FEW003 BKN024 OVC052 04/04 A2978 RMK CF2SC3SC2 SLP093

CYHM;2011-04-16 12:30;CYHM 161230Z 06010KT 2SM -SHRA BR BKN002 OVC014 RMK FG1CF6SC2

CYHM;2011-04-16 13:00;CYHM 161300Z 07011KT 4SM -SHRA BR FEW003 BKN008 OVC029 05/05 A2973 RMK CF2SC4SC2 SLP076

CYHM;2011-04-16 14:00;CYHM 161400Z 10012KT 6SM -SHRA BR SCT010 BKN028 OVC052 07/07 A2970 RMK CF3SC3SC2 SLP066

CYHM;2011-04-16 14:49;CYHM 161449Z 09010KT 15SM FEW010 BKN028 OVC052 RMK CF1SC6SC1

CYHM;2011-04-16 15:00;CYHM 161500Z 11009KT 15SM FEW010 BKN028 OVC052 08/08 A2968 RMK CF1SC6SC1 SLP057

CYHM;2011-04-16 16:00;CYHM 161600Z 13016G24KT 15SM -SHRA FEW010 OVC027 09/07 A2963 RMK CF1SC8 SLP040

CYHM;2011-04-16 16:45;CYHM 161645Z 13012KT 6SM -SHRA BR FEW006 OVC024 RMK CF1SC8

CYHM;2011-04-16 17:00;CYHM 161700Z 12014KT 4SM -SHRA BR FEW006 OVC022 08/07 A2961 RMK CF1SC8 SLP033

CYHM;2011-04-16 17:40;CYHM 161740Z 10007KT 2SM -SHRA BR BKN007 OVC022 RMK FG1CF5SC2

CYHM;2011-04-16 18:00;CYHM 161800Z 05007KT 2SM -SHRA BR BKN003 OVC009 07/07 A2958 RMK FG1CF6SC1 SLP023

CYHM;2011-04-16 18:30;CYHM 161830Z 05009KT 2SM -RA BR BKN002 OVC008 RMK FG2SF5SC2

CYHM;2011-04-16 19:00;CYHM 161900Z 06012KT 1 3/4SM -RA BR BKN002 BKN008 OVC016 06/06 A2953 RMK FG2SF4SC2SC1 SLP008

CYHM;2011-04-16 19:41;CYHM 161941Z 06011KT 3/4SM -RA BR BKN002 OVC008 RMK FG3SF4SC1

CYHM;2011-04-16 19:49;CYHM 161949Z 06012KT 3/8SM -RA FG VV001 RMK FG8

CYHM;2011-04-16 20:00;CYHM 162000Z 06012KT 1/2SM -RA FG VV001 06/06 A2949 RMK FG8 VIS VRB 3/8-5/8 SLP992

CYHM;2011-04-16 20:17;CYHM 162017Z 06013KT 1/4SM -RA FG VV001 RMK FG8 VIS VRB 1/8-3/8

CYHM;2011-04-16 20:33;CYHM 162033Z 06013KT 1/4SM FG VV001 RMK FG8 VIS VRB 1/8-3/8

CYHM;2011-04-16 21:00;CYHM 162100Z 05012KT 1/8SM FG VV001 05/05 A2945 RMK FG8 VIS VRB 0-1/4 SLP980

CYHM;2011-04-16 21:27;CYHM 162127Z 07010KT 1/2SM FG BKN002 OVC020 RMK FG3SF3SC2 VIS VRB 3/8-5/8

CYHM;2011-04-16 21:37;CYHM 162137Z 07010KT 1SM BR BKN002 BKN021 OVC075 RMK FG2SF2SC2AC1 VIS VRB 3/4-11/4

CYHM;2011-04-16 21:46;CYHM 162146Z 08008KT 2 1/2SM BR SCT002 BKN019 BKN070 RMK FG1SF2SC3AC1

CYHM;2011-04-16 22:00;CYHM 162200Z 11008KT 6SM -SHRA BR FEW004 BKN018 BKN066 07/07 A2943 RMK CF2SC4AC1 PCPN VRY LGT SLP973

CYHM;2011-04-16 22:20;CYHM 162220Z 18009KT 8SM FEW005 BKN017 OVC066 RMK CF2SC4AC2

CYHM;2011-04-16 23:00;CYHM 162300Z 19009KT 15SM FEW015 BKN039 BKN072 09/09 A2943 RMK SC2SC3AC2 SLP973

CYHM;2011-04-17 00:00;CYHM 170000Z 22012KT 15SM FEW015 SCT040 BKN072 BKN110 09/08 A2943 RMK CF1SC2AC2AC2 SLP970

CYHM;2011-04-17 01:00;CYHM 170100Z 22017G26KT 15SM -SHRA FEW020 SCT072 BKN110 09/07 A2945 RMK SC2AC2AC3 PCPN VRY LGT SLP976

CYHM;2011-04-17 02:00;CYHM 170200Z 23015G22KT 15SM FEW022 BKN045 BKN110 08/07 A2942 RMK CF2SC2AC2 SLP968

CYHM;2011-04-17 03:00;CYHM 170300Z 23018G30KT 15SM BKN021 BKN130 08/06 A2942 RMK SC6AC2 SLP966

CYHM;2011-04-17 04:00;CYHM 170400Z 24020G27KT 15SM -SHRA OVC017 08/06 A2941 RMK SC8 SLP963

CYHM;2011-04-17 05:00;CYHM 170500Z 23016G22KT 15SM -SHRA OVC017 07/06 A2940 RMK SC8 SLP960

CYHM;2011-04-17 06:00;CYHM 170600Z 26018G28KT 15SM -SHRA SCT025 OVC039 05/02 A2944 RMK SC3SC5 SLP974

CYHM;2011-04-17 07:00;CYHM 170700Z 25024G31KT 6SM -SHRA FEW010 OVC044 03/01 A2947 RMK CF2SC6 SLP984

CYHM;2011-04-17 08:00;CYHM 170800Z 25025G31KT 15SM -SHRA FEW020 OVC027 03/M01 A2949 RMK CF2SC6 SLP992

CYHM;2011-04-17 08:24;CYHM 170824Z 25022G29KT 15SM FEW030 FEW050 RMK CU2SC1

CYHM;2011-04-17 09:00;CYHM 170900Z 25025G31KT 15SM FEW025 BKN041 03/M02 A2952 RMK CU2SC5 SLP001

CYHM;2011-04-17 10:00;CYHM 171000Z 25018G28KT 15SM FEW025 OVC059 02/M03 A2954 RMK CF1SC7 VIRGA NW SLP010

CYHM;2011-04-17 10:08;CYHM 171008Z 24016G27KT 15SM -SHSN FEW025 BKN058 RMK CF1SC7

CYHM;2011-04-17 10:49;CYHM 171049Z 23014KT 15SM BKN062 RMK SC7

CYHM;2011-04-17 11:00;CYHM 171100Z 23013KT 15SM -SHSN FEW034 BKN058 02/M01 A2955 RMK CU1SC6 SLP012

CYHM;2011-04-17 11:41;CYHM 171141Z 24018G23KT 15SM FEW035 FEW058 BKN073 RMK CU1SC1AC3

CYHM;2011-04-17 12:00;CYHM 171200Z 24021G30KT 15SM FEW028 FEW058 SCT073 04/M00 A2954 RMK CU1SC1AC2 SLP007

CYHM;2011-04-17 13:00;CYHM 171300Z 23026G32KT 15SM BKN031 BKN038 04/M01 A2953 RMK CU6SC2 SLP005

CYHM;2011-04-17 13:15;CYHM 171315Z 23030G38KT 4SM -SHSN SCT021 OVC032 RMK CF3SC5

CYHM;2011-04-17 14:00;CYHM 171400Z 23020G33KT 15SM SCT030 BKN069 04/M00 A2954 RMK SC4AC3 SLP009

CYHM;2011-04-17 15:00;CYHM 171500Z 23028G37KT 15SM FEW032 BKN042 BKN210 06/M01 A2951 RMK CU2SC4CI1 SLP998

CYHM;2011-04-17 16:00;CYHM 171600Z 23030G44KT 15SM BKN042 BKN085 06/M02 A2951 RMK SC6AC2 SLP997

CYHM;2011-04-17 16:37;CYHM 171637Z 24026G44KT 15SM -SHRASN BKN034 OVC085 RMK SC7AC1

CYHM;2011-04-17 17:00;CYHM 171700Z 26018G28KT 4SM -SHRA FEW008 BKN028 OVC085 02/01 A2952 RMK CF2SC5AC1 SLP003

CYHM;2011-04-17 17:29;CYHM 171729Z 24018G33KT 15SM FEW012 SCT023 BKN093 BKN250 RMK CF1SC2AC2CI1

CYHM;2011-04-17 18:00;CYHM 171800Z 24024G30KT 15SM BKN018 BKN087 BKN250 06/03 A2952 RMK CU5AC2CI1 SLP001

CYHM;2011-04-17 18:13;CYHM 171813Z 24020G30KT 1SM SHRASN BKN018 BKN030 RMK SC5SC2 TCU EMBD

CYHM;2011-04-17 18:17;CYHM 171817Z 27020G30KT 1/2SM SHRASN FG OVC006 RMK FG3SF5 TCU EMBD

CYHM;2011-04-17 18:27;CYHM 171827Z 28018G26KT 3/8SM SHSN VV005 RMK SN8

CYHM;2011-04-17 18:36;CYHM 171836Z 27016G22KT 2 1/2SM -SHSN BKN017 OVC034 RMK SN1SC4SC3

CYHM;2011-04-17 19:00;CYHM 171900Z 27015G24KT 1 3/4SM -SHRASN SCT008 OVC012 01/01 A2955 RMK SN2CF2SC5 SLP012

CYHM;2011-04-17 19:06;CYHM 171906Z 28018G28KT 1SM -SHSN BR VV010 RMK SN8

CYHM;2011-04-17 19:17;CYHM 171917Z 27015G24KT 4SM -SHSN FEW009 BKN014 OVC033 RMK CF2SC4SC2

CYHM;2011-04-17 19:32;CYHM 171932Z 27020G29KT 240V310 1 3/4SM -SHSN BKN012 OVC025 RMK SN2SC5SC2

CYHM;2011-04-17 19:42;CYHM 171942Z 27016G26KT 4SM -SHRASN FEW009 BKN014 BKN025 RMK CF1CU4SC2

CYHM;2011-04-17 20:00;CYHM 172000Z 28015G22KT 1 3/4SM -SHRASN FEW009 BKN014 OVC025 02/01 A2957 RMK SN2CF1SC4SC2 SLP018

CYHM;2011-04-17 20:18;CYHM 172018Z 26018G28KT 230V300 9SM -SHRA FEW009 BKN015 BKN025 BKN100 RMK CF2CU3SC2AC1 PCPN VRY LGT

CYHM;2011-04-17 20:38;CYHM 172038Z 26022G34KT 3/4SM SHRA BR OVC009 RMK FG3SF5

CYHM;2011-04-17 20:47;CYHM 172047Z CCA 27020G30KT 3SM -SHRASN FEW009 BKN014 OVC025 RERA RMK CF1SC6SC2

CYHM;2011-04-17 21:00;CYHM 172100Z 28020G33KT 250V320 5SM -SHRASN FEW009 BKN014 OVC025 02/M00 A2959 RMK CF2SC4SC2 SLP028

CYHM;2011-04-17 21:21;CYHM 172121Z 28018G29KT 250V320 15SM FEW009 BKN015 BKN027 BKN075 RMK CF2CU3SC2AC1

CYHM;2011-04-17 21:32;CYHM 172132Z 28022G38KT 250V320 3SM -SHSN FEW009 BKN015 BKN027 RMK CF2CU4SC2

CYHM;2011-04-17 22:00;CYHM 172200Z 27016G24KT 12SM FEW008 SCT014 BKN026 BKN060 02/M02 A2963 RMK CF1CU2SC2SC2 SLP041

CYHM;2011-04-17 23:00;CYHM 172300Z 28014G20KT 250V310 15SM FEW009 SCT022 BKN046 03/M03 A2965 RMK CF1CU4SC2 CF TR SLP049

CYHM;2011-04-18 00:00;CYHM 180000Z 27015G20KT 15SM FEW022 SCT040 BKN075 02/M04 A2969 RMK CU2SC2AC2 SLP062

CYHM;2011-04-18 01:00;CYHM 180100Z 26012KT 15SM FEW030 BKN075 02/M04 A2973 RMK SC2AC3 SLP074

CYHM;2011-04-18 02:00;CYHM 180200Z 26015G20KT 15SM FEW030 BKN071 02/M04 A2975 RMK SC2AC5 SLP083

CYHM;2011-04-18 03:00;CYHM 180300Z 25013KT 15SM FEW065 FEW220 02/M04 A2977 RMK SC2CI1 SLP088

CYHM;2011-04-18 04:00;CYHM 180400Z 25011KT 15SM FEW064 01/M05 A2980 RMK SC1 SC TR SLP097

CYHM;2011-04-18 05:00;CYHM 180500Z 25008KT 15SM FEW064 FEW250 01/M05 A2981 RMK SC1CI1 CI TR SLP103

CYHM;2011-04-18 06:00;CYHM 180600Z 26010KT 15SM FEW064 FEW250 01/M05 A2984 RMK SC1CI1 CI TR SLP111

CYHM;2011-04-18 07:00;CYHM 180700Z CCA 26009KT 15SM FEW028 SCT040 BKN250 00/M05 A2985 RMK SC1SC2CI0 SLP116

CYHM;2011-04-18 08:00;CYHM 180800Z 24006KT 15SM FEW042 SCT220 M01/M05 A2988 RMK SC1CI2 SLP125

CYHM;2011-04-18 09:00;CYHM 180900Z 24007KT 15SM BKN033 M01/M04 A2991 RMK SC7 SLP137

CYHM;2011-04-18 10:00;CYHM 181000Z 25005KT 15SM FEW032 BKN180 BKN220 M01/M04 A2992 RMK SC1AC5CI2 SLP141

CYHM;2011-04-18 11:00;CYHM 181100Z 25004KT 15SM FEW038 BKN120 BKN220 M01/M04 A2992 RMK SC2AC5CI1 SLP140

CYHM;2011-04-18 12:00;CYHM 181200Z 24005KT 15SM FEW035 BKN100 OVC210 M00/M03 A2995 RMK SC1AC6CI1 SLP150

CYHM;2011-04-18 13:00;CYHM 181300Z 00000KT 15SM BKN070 OVC085 00/M04 A2991 RMK AC6AC2 SLP138

CYHM;2011-04-18 13:52;CYHM 181352Z 30008KT 1 1/2SM -SHSN BKN015 OVC021 RMK SN1SF5SC2

CYHM;2011-04-18 14:00;CYHM 181400Z 33005KT 1 1/2SM -SHSN BKN012 OVC027 M01/M03 A2994 RMK SN1SF5SC2 SLP147

CYHM;2011-04-18 14:27;CYHM 181427Z 25005KT 1SM -SHSN BKN011 OVC025 RMK SN2SF6SC1 VIS VRBL 1/2 -11/2

CYHM;2011-04-18 14:47;CYHM 181447Z 26005KT 1 1/2SM -SHSN SCT008 BKN015 OVC028 RMK SN1SF2SC3SC2

CYHM;2011-04-18 15:00;CYHM 181500Z CCA 26006KT 1SM -SHSN BKN012 OVC035 M01/M02 A2996 RMK SN2SC4SC2 VIS VRBL 1/2-11/2SM SLP155

CYHM;2011-04-18 15:18;CYHM 181518Z 26006KT 2 1/2SM -SHSN BR BKN020 OVC033 RMK SC6SC2

CYHM;2011-04-18 16:00;CYHM 181600Z 24004KT 15SM -SHSN FEW014 BKN039 OVC052 M01/M02 A2996 RMK CF2SC3SC2 SLP156

CYHM;2011-04-18 16:49;CYHM 181649Z 24005KT 2SM -SHSN BR BKN019 OVC034 RMK SC6SC2

CYHM;2011-04-18 17:00;CYHM 181700Z 22006KT 1 1/2SM -SHSN BR BKN010 BKN016 OVC035 00/M01 A2997 RMK SN2SF3SC2SC1 SLP158

CYHM;2011-04-18 18:00;CYHM 181800Z 21005KT 2SM -SHSN BR FEW010 BKN023 OVC040 00/M01 A2996 RMK SF2SC4SC2 SLP156

CYHM;2011-04-18 18:35;CYHM 181835Z 22003KT 7SM -SHSN FEW009 SCT022 OVC040 RMK SF1SC2SC5

CYHM;2011-04-18 19:00;CYHM 181900Z 20002KT 12SM FEW009 BKN023 OVC038 01/M01 A2997 RMK SF1SC6SC2 SLP157

CYHM;2011-04-18 20:00;CYHM 182000Z 23004KT 15SM FEW010 OVC018 01/M01 A2998 RMK SF2SC6 SLP161

CYHM;2011-04-18 21:00;CYHM 182100Z 25002KT 15SM FEW012 BKN024 OVC036 02/M01 A2997 RMK SF1SC5SC2 SLP159

CYHM;2011-04-18 22:00;CYHM 182200Z 23003KT 15SM BKN017 OVC038 02/M01 A2998 RMK SC5SC3 SLP161

CYHM;2011-04-18 23:00;CYHM 182300Z 20003KT 15SM FEW018 BKN040 BKN250 03/M01 A2999 RMK SF1SC6CI1 SLP165

CYHM;2011-04-19 00:00;CYHM 190000Z 00000KT 15SM BKN040 BKN250 02/M01 A3000 RMK SC5CI2 SLP169

CYHM;2011-04-19 01:00;CYHM 190100Z 00000KT 15SM FEW042 BKN160 01/M01 A3001 RMK SC1AS6 SLP171

CYHM;2011-04-19 02:00;CYHM 190200Z 00000KT 15SM FEW160 BKN200 01/M01 A3003 RMK AS2CS2 SLP178

CYHM;2011-04-19 03:00;CYHM 190300Z 00000KT 15SM FEW160 BKN220 M00/M01 A3005 RMK AC1CS2 SLP185

CYHM;2011-04-19 04:00;CYHM 190400Z 00000KT 15SM BKN160 M00/M01 A3004 RMK AC6 SLP184

CYHM;2011-04-19 05:00;CYHM 190500Z 01006KT 15SM BKN160 01/M02 A3006 RMK AC7 SLP189

CYHM;2011-04-19 06:00;CYHM 190600Z 05004KT 15SM SCT160 BKN220 00/M02 A3007 RMK AC3CS1 SLP191

CYHM;2011-04-19 07:00;CYHM 190700Z 03005KT 15SM FEW160 BKN200 M00/M02 A3008 RMK AC1CS2 SLP195

CYHM;2011-04-19 08:00;CYHM 190800Z 05004KT 15SM FEW160 BKN200 00/M03 A3009 RMK AC1CS2 SLP199

CYHM;2011-04-19 09:00;CYHM 190900Z 03007KT 15SM SCT130 BKN200 M00/M03 A3007 RMK AC1CS2 SLP193

CYHM;2011-04-19 10:00;CYHM 191000Z 05010KT 15SM FEW045 SCT140 BKN220 M01/M03 A3007 RMK SC1AC2CI2 SLP193

CYHM;2011-04-19 11:00;CYHM 191100Z 03010KT 15SM BKN120 BKN220 M01/M03 A3010 RMK AC5CI2 SLP204

CYHM;2011-04-19 12:00;CYHM 191200Z 05012KT 15SM BKN110 BKN180 OVC220 M00/M03 A3010 RMK AC5AC2CI1 SLP203

CYHM;2011-04-19 13:00;CYHM 191300Z 06010KT 15SM BKN130 OVC220 00/M03 A3010 RMK AC6CI2 SLP204

CYHM;2011-04-19 14:00;CYHM 191400Z 06022KT 15SM BKN120 BKN220 01/M02 A3009 RMK AC6CI2 SLP199

CYHM;2011-04-19 15:00;CYHM 191500Z 06018G23KT 15SM FEW020 BKN100 BKN130 BKN220 02/M02 A3009 RMK CU1AC4AC2CI1 SLP200

CYHM;2011-04-19 16:00;CYHM 191600Z 05015G20KT 15SM FEW032 BKN078 OVC130 02/M02 A3010 RMK CU1AC6AC2 SLP204

CYHM;2011-04-19 17:00;CYHM 191700Z 06017G22KT 15SM FEW035 BKN077 OVC086 02/M01 A3007 RMK CU1AC6AC1 SLP192

CYHM;2011-04-19 18:00;CYHM 191800Z 05017G22KT 15SM FEW015 BKN072 OVC082 02/M00 A3006 RMK CU1AC6AC2 SLP187

CYHM;2011-04-19 19:00;CYHM 191900Z 05018G26KT 15SM FEW012 OVC070 02/M00 A3004 RMK SC2AC6 SLP180

CYHM;2011-04-19 20:00;CYHM 192000Z 05018G26KT 15SM OVC058 02/M00 A3002 RMK SC8 SLP175

CYHM;2011-04-19 20:25;CYHM 192025Z 07018G26KT 12SM -SHRA BKN038 OVC052 RMK SC6SC2

CYHM;2011-04-19 21:00;CYHM 192100Z 06018G26KT 12SM -SHRA OVC037 03/M00 A2999 RMK SC8 SLP166

CYHM;2011-04-19 22:00;CYHM 192200Z 05015G22KT 12SM -SHRA OVC032 02/00 A2999 RMK SC8 SLP166

CYHM;2011-04-19 23:00;CYHM 192300Z 06020G28KT 7SM -SHRA OVC028 02/01 A2996 RMK SC8 SLP155

CYHM;2011-04-20 00:00;CYHM 200000Z 06018G26KT 12SM -SHRA OVC025 03/M01 A2994 RMK SC8 SLP149

CYHM;2011-04-20 01:00;CYHM 200100Z 08017G26KT 6SM -RA BR OVC026 02/01 A2996 RMK SC8 SLP153

CYHM;2011-04-20 02:00;CYHM 200200Z 06018G26KT 8SM -RA OVC020 02/01 A2989 RMK SC8 SLP131

CYHM;2011-04-20 03:00;CYHM 200300Z 06018G25KT 6SM -RA BR SCT010 OVC016 02/02 A2984 RMK SF4SC4 SLP114

CYHM;2011-04-20 04:00;CYHM 200400Z 05020G27KT 5SM -RA BR OVC003 02/02 A2978 RMK SC8 SLP093

CYHM;2011-04-20 05:00;CYHM 200500Z 06022G28KT 3SM -RA BR OVC004 02/02 A2974 RMK SC8 SLP080

CYHM;2011-04-20 06:00;CYHM 200600Z 05018G28KT 3SM -RA BR OVC004 02/02 A2967 RMK SC8 SLP054

CYHM;2011-04-20 07:00;CYHM 200700Z 05025G38KT 2 1/2SM -TSRA BR OVC003 02/02 A2958 RMK SF8 CB EMBDD SLP026

CYHM;2011-04-20 08:00;CYHM 200800Z 04020G28KT 2 1/2SM -TSRA BR OVC003 02/02 A2962 RMK SF8 CB ASOCTD SLP037

CYHM;2011-04-20 08:40;CYHM 200840Z CCA 05020G32KT 3/8SM -SHRA FG OVC002 RETS RMK SF8

CYHM;2011-04-20 09:00;CYHM 200900Z 04022G28KT 3/8SM -SHRA FG OVC002 02/02 A2955 RETS RMK SF8 SLP014

CYHM;2011-04-20 09:43;CYHM 200943Z 03013G20KT 3/4SM -SHRA BR OVC002 RMK SF8

CYHM;2011-04-20 10:00;CYHM 201000Z 03012G19KT 3/4SM -SHRA BR OVC002 03/03 A2960 RMK SF8 SLP030

CYHM;2011-04-20 10:07;CYHM 201007Z 04012KT 1 1/2SM -SHRA BR OVC002 RMK SF8

CYHM;2011-04-20 10:36;CYHM 201036Z CCA 05010KT 1/8SM -SHRA FG OVC002 RMK FG2SF6

CYHM;2011-04-20 10:42;CYHM 201042Z 05015KT 0SM -SHRA FG VV001 RMK FG8

CYHM;2011-04-20 11:00;CYHM 201100Z CCA 01012KT 1/8SM -SHRA FG VV001 03/03 A2961 RMK FG8 SLP034

CYHM;2011-04-20 11:28;CYHM 201128Z 01012KT 1/8SM -SHRA FG VV001 RMK FG8

CYHM;2011-04-20 11:44;CYHM 201144Z 03012KT 1/8SM -SHRA FG VV002 RMK FG8

CYHM;2011-04-20 12:00;CYHM 201200Z 03010KT 1/8SM -SHRA FG VV001 03/03 A2961 RMK FG8 SLP033

CYHM;2011-04-20 13:21;CYHM 201321Z 06010KT 1/8SM FG VV001 RMK FG8

CYHM;2011-04-20 13:32;CYHM 201332Z 08010KT 1/8SM -SHRA FG VV001 RMK FG8

CYHM;2011-04-20 13:43;CYHM 201343Z 06007KT 1/2SM -SHRA FG OVC002 RMK FG6SF2

CYHM;2011-04-20 13:48;CYHM 201348Z 09005KT 1SM -SHRA BR OVC003 RMK FG2SF6

CYHM;2011-04-20 14:00;CYHM 201400Z 09006KT 1 1/2SM -SHRA BR BKN005 OVC008 03/03 A2958 RMK FG2SF5SC2 SLP023

CYHM;2011-04-20 14:24;CYHM 201424Z 00000KT 3/4SM SHRA BR OVC002 RMK FG2SF6

CYHM;2011-04-20 14:33;CYHM 201433Z 02004KT 2SM -SHRA BR OVC002 RMK SF8 CIG 250FT RERA

CYHM;2011-04-20 14:50;CYHM 201450Z 00000KT 3SM -SHRA BR OVC004 RMK SF8

CYHM;2011-04-20 15:00;CYHM 201500Z 19004KT 4SM -SHRA BR OVC004 04/04 A2958 RMK SF8 CIG 450 FT SLP022

CYHM;2011-04-20 15:07;CYHM 201507Z 20005KT 5SM BR OVC003 RMK SF8

CYHM;2011-04-20 16:00;CYHM 201600Z 22008KT 4SM BR OVC003 07/07 A2959 RMK SF8 SLP025

CYHM;2011-04-20 16:26;CYHM 201626Z 26016G24KT 6SM BR SCT005 OVC009 RMK SF3SC5

CYHM;2011-04-20 17:00;CYHM 201700Z 27022G27KT 10SM BKN011 OVC018 07/07 A2964 RMK SC6SC2 SLP042

CYHM;2011-04-20 18:00;CYHM 201800Z 26022G30KT 15SM BKN013 OVC018 06/05 A2970 RMK SC6SC2 PRESRR SLP064

CYHM;2011-04-20 19:00;CYHM 201900Z 25022G32KT 15SM OVC019 06/03 A2974 RMK SC8 SLP077

CYHM;2011-04-20 20:00;CYHM 202000Z 25024G32KT 15SM OVC021 06/02 A2979 RMK SC8 PRESRR SLP094

CYHM;2011-04-20 21:00;CYHM 202100Z 26025G36KT 15SM OVC027 05/01 A2985 RMK SC8 PRESRR SLP115

CYHM;2011-04-20 22:00;CYHM 202200Z 26025G32KT 15SM BKN032 05/01 A2991 RMK SC7 PRESRR CU ASOCTD SLP134

CYHM;2011-04-20 23:00;CYHM 202300Z 26016KT 15SM FEW025 BKN049 05/01 A2993 RMK CU2SC5 SLP143

CYHM;2011-04-21 00:00;CYHM 210000Z 25015KT 15SM FEW020 BKN049 04/01 A2997 RMK CU2SC6 SLP155

CYHM;2011-04-21 01:00;CYHM 210100Z 26013KT 15SM FEW018 BKN051 03/01 A2999 RMK CF2SC5 SLP164

CYHM;2011-04-21 02:00;CYHM 210200Z 25011KT 15SM FEW018 OVC039 03/01 A3001 RMK CF2SC6 SLP170

CYHM;2011-04-21 03:00;CYHM 210300Z 25011KT 15SM -SHRA FEW020 OVC040 03/01 A3001 RMK CF2SC6 SLP171

CYHM;2011-04-21 04:00;CYHM 210400Z 26011G16KT 15SM -SHSN FEW013 OVC055 03/01 A3002 RMK CF2SC6 SLP173

CYHM;2011-04-21 05:00;CYHM 210500Z 26015G20KT 15SM -SHSN BKN021 BKN090 03/01 A3003 RMK SC6AC2 SLP177

CYHM;2011-04-21 06:00;CYHM 210600Z 27017G22KT 15SM -SHSN BKN022 03/M01 A3005 RMK SC6 CIG RAG SLP182

CYHM;2011-04-21 07:00;CYHM 210700Z 27016G21KT 15SM -SHSN FEW017 BKN042 02/M01 A3006 RMK CF2SC6 SLP186

CYHM;2011-04-21 08:00;CYHM 210800Z 28013G19KT 15SM -SHSN FEW020 BKN043 02/M01 A3008 RMK CF2SC4 SLP193

CYHM;2011-04-21 09:00;CYHM 210900Z 28012KT 15SM -SHSN FEW022 BKN032 02/M01 A3010 RMK CF2SC6 SLP201

CYHM;2011-04-21 10:00;CYHM 211000Z 28012G17KT 15SM -SHSN FEW021 OVC038 02/M01 A3014 RMK CF2SC6 SLP213

CYHM;2011-04-21 10:19;CYHM 211019Z 27010KT 15SM FEW022 BKN027 BKN042 RMK CU2SC3SC2

CYHM;2011-04-21 11:00;CYHM 211100Z 28012KT 15SM FEW023 FEW035 02/M02 A3019 RMK CU1SC2 SLP229

CYHM;2011-04-21 12:00;CYHM 211200Z 30014G19KT 15SM FEW022 FEW035 02/M02 A3022 RMK CU1SC1 SLP241

CYHM;2011-04-21 13:00;CYHM 211300Z 31012G20KT 15SM BKN029 BKN036 03/M02 A3025 RMK CU5SC2 SLP253

CYHM;2011-04-21 14:00;CYHM 211400Z 29010G15KT 15SM SCT028 BKN042 03/M02 A3029 RMK CU4SC3 SLP266

CYHM;2011-04-21 15:00;CYHM 211500Z 28010KT 15SM FEW029 BKN042 04/M01 A3031 RMK CU2SC4 SLP273

CYHM;2011-04-21 16:00;CYHM 211600Z 29015KT 15SM FEW032 BKN041 04/M02 A3034 RMK CU1SC6 SLP282

CYHM;2011-04-21 17:00;CYHM 211700Z 30015KT 15SM FEW039 BKN047 05/M02 A3035 RMK SC2SC5 SLP284

CYHM;2011-04-21 18:00;CYHM 211800Z 29012KT 15SM FEW036 BKN041 BKN046 05/M02 A3036 RMK CU2SC4SC2 SLP289

CYHM;2011-04-21 19:00;CYHM 211900Z 27011KT 15SM BKN035 BKN053 06/M02 A3036 RMK SC5SC2 CU ASOCTD SLP290

CYHM;2011-04-21 20:00;CYHM 212000Z 27009KT 15SM FEW042 BKN054 06/M02 A3036 RMK SC2SC5 SLP289

CYHM;2011-04-21 21:00;CYHM 212100Z 28007KT 240V340 15SM BKN042 BKN053 06/M01 A3036 RMK SC6SC1 SLP288

CYHM;2011-04-21 22:00;CYHM 212200Z 30010KT 270V360 15SM BKN046 06/M01 A3036 RMK SC7 SLP288

CYHM;2011-04-21 23:00;CYHM 212300Z 32008KT 15SM BKN046 05/M03 A3037 RMK SC7 SLP292

CYHM;2011-04-22 00:00;CYHM 220000Z 34007KT 15SM FEW045 BKN250 04/M03 A3036 RMK SC1CI2 SLP291

CYHM;2011-04-22 01:00;CYHM 220100Z 00000KT 15SM FEW045 FEW250 03/M03 A3038 RMK SC1CI1 SC TR SLP296

CYHM;2011-04-22 02:00;CYHM 220200Z 04004KT 15SM SKC 03/M03 A3036 RMK SLP290

CYHM;2011-04-22 03:00;CYHM 220300Z 00000KT 15SM SKC 01/M04 A3036 RMK SLP292

CYHM;2011-04-22 04:00;CYHM 220400Z 00000KT 15SM FEW210 M00/M04 A3038 RMK CI1 SLP296

CYHM;2011-04-22 05:00;CYHM 220500Z 03003KT 15SM FEW210 01/M03 A3039 RMK CI0 SLP299

CYHM;2011-04-22 06:00;CYHM 220600Z 00000KT 15SM FEW210 00/M03 A3039 RMK CI2 SLP301

CYHM;2011-04-22 07:00;CYHM 220700Z 00000KT 15SM OVC130 00/M03 A3040 RMK AC8 SLP305

CYHM;2011-04-22 08:00;CYHM 220800Z 00000KT 15SM OVC110 00/M02 A3040 RMK AC8 SLP304

CYHM;2011-04-22 09:00;CYHM 220900Z 04006KT 15SM OVC081 01/M02 A3039 RMK AC8 SLP298

CYHM;2011-04-22 10:00;CYHM 221000Z 04005KT 15SM -SHSN OVC026 02/M02 A3037 RMK SC8 SLP292

CYHM;2011-04-22 10:09;CYHM 221009Z 06005KT 2 1/2SM -SHSN BKN012 OVC022 RMK SC5SC3

CYHM;2011-04-22 10:15;CYHM 221015Z 10004KT 2SM -SHSN BR BKN008 BKN012 OVC022 RMK SF5SC2SC2

CYHM;2011-04-22 10:26;CYHM 221026Z CCA 08004KT 3SM -SHSN BR SCT009 OVC031 RMK SF3SC5

CYHM;2011-04-22 10:42;CYHM 221042Z 07008KT 5SM -SHSN BR BKN029 OVC035 RMK SC6SC2

CYHM;2011-04-22 11:00;CYHM 221100Z 07008KT 6SM -SHSN BR BKN032 OVC038 01/00 A3035 RMK SC6SC2 SLP286

CYHM;2011-04-22 11:38;CYHM 221138Z 08008KT 10SM SCT035 OVC100 RMK SC3AC5

CYHM;2011-04-22 12:00;CYHM 221200Z 06008KT 15SM SCT040 OVC095 01/00 A3035 RMK SC3AC5 SLP286

CYHM;2011-04-22 13:00;CYHM 221300Z 07012KT 10SM FEW042 OVC092 03/01 A3032 RMK SC2AC6 SLP277

CYHM;2011-04-22 14:00;CYHM 221400Z 09010KT 15SM BKN064 OVC110 04/02 A3033 RMK SC6AC2 SLP281

CYHM;2011-04-22 15:00;CYHM 221500Z 08010KT 15SM FEW020 BKN052 OVC062 04/00 A3033 RMK CU1SC6SC2 CU TR SLP281

CYHM;2011-04-22 16:00;CYHM 221600Z 06010KT 15SM BKN085 OVC098 05/02 A3031 RMK AC6AC2 SLP272

CYHM;2011-04-22 17:00;CYHM 221700Z 06012KT 15SM BKN067 BKN095 BKN220 06/02 A3025 RMK AC5AC1CI1 SLP254

CYHM;2011-04-22 18:00;CYHM 221800Z 05012KT 15SM BKN070 OVC210 06/01 A3023 RMK AC6CI2 SLP246

CYHM;2011-04-22 19:00;CYHM 221900Z 06017KT 15SM BKN073 06/02 A3022 RMK AC7 SLP242

CYHM;2011-04-22 20:00;CYHM 222000Z 05016KT 15SM OVC071 05/01 A3019 RMK AC8 SLP231

CYHM;2011-04-22 21:00;CYHM 222100Z 07014KT 15SM OVC062 05/01 A3017 RMK SC8 SLP226

CYHM;2011-04-22 22:00;CYHM 222200Z 07011KT 15SM OVC067 05/02 A3014 RMK AC8 SLP214

CYHM;2011-04-22 23:00;CYHM 222300Z 03006KT 15SM OVC045 04/02 A3013 RMK SC8 SLP210

CYHM;2011-04-22 23:41;CYHM 222341Z 12013KT 10SM -SHRA OVC040 RMK SC8

CYHM;2011-04-23 00:00;CYHM 230000Z 11012KT 5SM -SHRA OVC038 05/03 A3007 RMK SC8 PRESFR SLP192

CYHM;2011-04-23 01:00;CYHM 230100Z 09008KT 15SM -SHRA OVC021 04/03 A3006 RMK SC8 SLP188

CYHM;2011-04-23 02:00;CYHM 230200Z 10009KT 10SM -SHRA FEW009 OVC018 04/04 A3005 RMK SF2SC6 SLP184

CYHM;2011-04-23 02:34;CYHM 230234Z 10009KT 2SM -SHRA BR SCT009 OVC020 RMK FG1SF2SC5

CYHM;2011-04-23 03:00;CYHM 230300Z 08008KT 5SM -SHRA BR SCT004 OVC017 04/04 A3001 RMK SF4SC4 CIG RAG SLP168

CYHM;2011-04-23 03:26;CYHM 230326Z 09010KT 6SM -SHRA BR OVC006 RMK SF8

CYHM;2011-04-23 04:00;CYHM 230400Z 08008KT 6SM -SHRA BR OVC006 04/04 A2996 RMK SF8 CIG RAG SLP154

CYHM;2011-04-23 05:00;CYHM 230500Z 09008KT 1 1/2SM -SHRA BR FEW003 OVC010 04/04 A2992 RMK FG2SF1SC6 VIS VRB 1 - 2 SLP139

CYHM;2011-04-23 06:00;CYHM 230600Z 06008KT 1 1/2SM -SHRA BR OVC005 04/04 A2987 RMK FG2SF6 VIS VRB 1 - 2 PRESFR SLP122

CYHM;2011-04-23 07:00;CYHM 230700Z 05006KT 2SM -RA BR OVC005 04/04 A2984 RMK FG1SF7 SLP113

CYHM;2011-04-23 08:00;CYHM 230800Z 05008KT 2SM -RA BR SCT003 OVC009 05/05 A2978 RMK FG1SF2SC5 PRESFR SLP090

CYHM;2011-04-23 09:00;CYHM 230900Z 05010KT 2SM -RA BR OVC006 04/04 A2975 RERA RMK FG1SF7 SLP080

CYHM;2011-04-23 10:00;CYHM 231000Z CCA 09008KT 1 1/2SM RA BR OVC005 04/04 A2970 RMK FG2SF6 VIS VRB 1 - 2 PRESFR /R13/ SLP065

CYHM;2011-04-23 10:14;CYHM 231014Z 07004KT 3SM -RA BR OVC003 RERA RMK SF8

CYHM;2011-04-23 10:46;CYHM 231046Z 09002KT 2 1/2SM -RA BR OVC002 RERA RMK SF8

CYHM;2011-04-23 11:00;CYHM 231100Z 09003KT 2 1/2SM -RA BR OVC002 05/05 A2970 RERA RMK SF8 SLP064

CYHM;2011-04-23 11:48;CYHM 231148Z 18010KT 120V200 2SM -RA BR OVC003 RMK FG1SF7

CYHM;2011-04-23 14:00;CYHM 231400Z 22018KT 12SM BKN008 OVC012 13/13 A2968 RMK SC6SC2 SLP054

CYHM;2011-04-23 14:45;CYHM 231445Z 22021KT 15SM FEW010 SCT031 BKN250 RMK CF2SC1CI2

CYHM;2011-04-23 15:00;CYHM 231500Z 23021KT 15SM FEW012 BKN250 16/15 A2969 RMK CF2CI2 SLP059

CYHM;2011-04-23 16:00;CYHM 231600Z 23020G30KT 15SM SCT023 BKN250 17/13 A2972 RMK CU4CI2 SLP069

CYHM;2011-04-23 17:00;CYHM 231700Z 24021KT 15SM FEW030 BKN250 18/12 A2971 RMK CU2CI2 SLP066

CYHM;2011-04-23 18:00;CYHM 231800Z 24018KT 15SM FEW035 FEW170 BKN250 19/12 A2971 RMK CU1AC2CI3 CU TR SLP064

CYHM;2011-04-23 19:00;CYHM 231900Z 25017KT 15SM FEW035 SCT130 BKN230 19/10 A2973 RMK CU1AC3CI2 SLP069

CYHM;2011-04-23 20:00;CYHM 232000Z 24015G20KT 15SM FEW035 FEW130 BKN240 20/11 A2971 RMK CU1AC2CI2 SLP065

CYHM;2011-04-23 21:00;CYHM 232100Z 24015G20KT 210V270 15SM FEW035 FEW070 BKN230 19/10 A2972 RMK CU2AC1CI2 SLP068

CYHM;2011-04-23 22:00;CYHM 232200Z 24015KT 210V270 15SM FEW035 SCT052 SCT120 BKN230 19/11 A2974 RMK CU2SC2AC1CI2 SLP073

CYHM;2011-04-23 23:00;CYHM 232300Z 25014KT 15SM FEW040 FEW120 BKN250 19/11 A2975 RMK SC2AC1CI4 CU ASOCTD SLP075

CYHM;2011-04-24 00:00;CYHM 240000Z 25010KT 15SM FEW040 BKN250 18/11 A2977 RMK SC2CI4 CU ASOCTD SLP082

CYHM;2011-04-24 00:34;CYHM 240034Z 30012KT 15SM FEW045 BKN250 RMK SC2CI5 WSHFT 0020 CU ASOCTD

CYHM;2011-04-24 01:00;CYHM 240100Z 31011G17KT 280V340 15SM FEW045 BKN250 15/09 A2983 RMK SC2CI5 CU ASOCTD PRESRR SLP102

CYHM;2011-04-24 02:00;CYHM 240200Z 30010KT 15SM FEW045 FEW250 12/06 A2987 RMK SC1CI1 SLP116

CYHM;2011-04-24 03:00;CYHM 240300Z 31005KT 15SM BKN064 11/06 A2990 RMK SC5 SLP128

CYHM;2011-04-24 04:00;CYHM 240400Z 00000KT 15SM SCT057 10/06 A2991 RMK SC2 SLP131

CYHM;2011-04-24 05:00;CYHM 240500Z 30004KT 15SM BKN058 09/05 A2993 RMK SC5 SLP138

CYHM;2011-04-24 06:00;CYHM 240600Z 33004KT 15SM BKN055 09/06 A2996 RMK SC6 SLP146

CYHM;2011-04-24 07:00;CYHM 240700Z 32005KT 15SM FEW050 FEW230 07/05 A2997 RMK SC1CI1 SLP151

CYHM;2011-04-24 08:00;CYHM 240800Z 32003KT 15SM FEW050 BKN230 06/04 A3000 RMK SC1CI4 SLP161

CYHM;2011-04-24 09:00;CYHM 240900Z 00000KT 15SM BKN140 06/04 A3002 RMK AC6 SLP169

CYHM;2011-04-24 10:00;CYHM 241000Z 04005KT 15SM BKN130 06/04 A3001 RMK AC7 SLP163

CYHM;2011-04-24 11:00;CYHM 241100Z 00000KT 15SM OVC100 06/04 A3001 RMK AC8 FU ALOFT DSNT E SLP166

CYHM;2011-04-24 12:00;CYHM 241200Z 06002KT 15SM -SHRA OVC076 07/04 A3003 RMK AC8 SLP171

CYHM;2011-04-24 13:00;CYHM 241300Z 10002KT 15SM -SHRA BKN044 OVC082 07/05 A3004 RMK SC6AC2 SLP175

CYHM;2011-04-24 14:00;CYHM 241400Z 14002KT 15SM -SHRA BKN042 BKN065 OVC080 07/05 A3005 RMK SC5SC2AC2 PCPN VRY LGT SLP177

CYHM;2011-04-24 15:00;CYHM 241500Z 00000KT 15SM -SHRA BKN048 OVC085 08/05 A3005 RMK SC6AC2 PCPN VRY LGT SLP181

CYHM;2011-04-24 15:31;CYHM 241531Z 00000KT 15SM FEW026 BKN054 BKN085 RMK CU1SC5AC2

CYHM;2011-04-24 16:00;CYHM 241600Z 00000KT 15SM FEW026 OVC055 09/06 A3007 RMK CU1SC8 SLP186

CYHM;2011-04-24 17:00;CYHM 241700Z 00000KT 15SM FEW025 OVC051 10/05 A3004 RMK CU2SC6 SLP176

CYHM;2011-04-24 18:00;CYHM 241800Z 07004KT 15SM FEW025 BKN130 BKN250 10/06 A3003 RMK CU2AC4CI1 SLP173

CYHM;2011-04-24 19:00;CYHM 241900Z 00000KT 15SM SCT025 BKN110 12/06 A3003 RMK CU3AC4 SLP174

CYHM;2011-04-24 20:00;CYHM 242000Z 11002KT 15SM SCT026 BKN032 13/08 A3001 RMK CU3SC3 WND L/V SLP168

CYHM;2011-04-24 21:00;CYHM 242100Z 10005KT 070V140 15SM FEW027 BKN044 12/08 A3001 RMK CU2SC4 SLP167

CYHM;2011-04-24 22:00;CYHM 242200Z 10005KT 15SM FEW027 SCT042 BKN051 12/08 A3002 RMK CU2SC2SC2 SLP170

CYHM;2011-04-24 23:00;CYHM 242300Z 19008KT 15SM FEW027 FEW042 SCT051 BKN250 12/08 A3002 RMK CU1SC2SC2CI1 SLP171

CYHM;2011-04-25 00:00;CYHM 250000Z 20005KT 15SM FEW045 BKN220 10/08 A3004 RMK SC1CI4 SLP177

CYHM;2011-04-25 01:00;CYHM 250100Z 21007KT 15SM BKN240 08/07 A3005 RMK CI6 SLP182

CYHM;2011-04-25 02:00;CYHM 250200Z 24003KT 15SM BKN240 08/07 A3007 RMK CI6 SLP186

CYHM;2011-04-25 03:00;CYHM 250300Z 22003KT 15SM FEW160 BKN250 07/07 A3006 RMK AC1CI6 SLP185

CYHM;2011-04-25 04:00;CYHM 250400Z 22003KT 15SM OVC150 07/06 A3007 RMK AC8 SLP188

CYHM;2011-04-25 05:00;CYHM 250500Z 00000KT 15SM BKN150 BKN230 07/06 A3006 RMK AC6CI1 SLP185

CYHM;2011-04-25 06:00;CYHM 250600Z CCA 27002KT 15SM FEW160 FEW230 06/06 A3006 RMK AC1CI1 SLP183

CYHM;2011-04-25 07:00;CYHM 250700Z 00000KT 15SM MIFG BKN150 BKN230 06/05 A3003 RMK AC5CI1 SLP175

CYHM;2011-04-25 08:00;CYHM 250800Z 33004KT 15SM MIFG SCT081 BKN110 06/06 A3004 RMK AC4AC3 SLP179

CYHM;2011-04-25 09:00;CYHM 250900Z 36003KT 15SM FEW090 OVC120 08/05 A3004 RMK AC2AC6 SLP178

CYHM;2011-04-25 10:00;CYHM 251000Z 03002KT 15SM SCT110 BKN140 08/05 A3006 RMK AC3AC3 SLP184

CYHM;2011-04-25 11:00;CYHM 251100Z 06006KT 15SM BKN110 OVC150 07/06 A3007 RMK AC6AC2 SLP185

CYHM;2011-04-25 12:00;CYHM 251200Z 06008KT 15SM OVC110 08/06 A3007 RMK AC8 SLP186

CYHM;2011-04-25 13:00;CYHM 251300Z 06008KT 15SM BKN100 OVC130 08/05 A3007 RMK AC6AC2 SLP187

CYHM;2011-04-25 14:00;CYHM 251400Z 03007KT 15SM BKN099 BKN110 10/05 A3005 RMK AC6AC2 SLP182

CYHM;2011-04-25 15:00;CYHM 251500Z 04007KT 15SM BKN090 OVC140 10/04 A3006 RMK AC6AS2 SLP185

CYHM;2011-04-25 16:00;CYHM 251600Z 06008KT 10SM BKN068 OVC092 10/04 A3006 RMK AC6AS2 SLP183

CYHM;2011-04-25 16:34;CYHM 251634Z 06010KT 15SM -SHRA BKN052 OVC086 RMK SC5AC3

CYHM;2011-04-25 17:00;CYHM 251700Z 05008KT 15SM -SHRA BKN051 BKN062 OVC086 09/04 A3004 RMK SC5SC2AC2 SLP176

CYHM;2011-04-25 18:00;CYHM 251800Z 06010KT 7SM -SHRA BKN045 BKN056 OVC074 08/05 A3001 RMK SC6SC2AC1 SLP169

CYHM;2011-04-25 19:00;CYHM 251900Z 06008KT 2 1/2SM -RA BR OVC056 07/06 A3002 RMK SC8 SLP171

CYHM;2011-04-25 20:00;CYHM 252000Z 05011KT 2 1/2SM -RA BR FEW038 OVC050 07/05 A3000 RMK SF2SC6 SLP164

CYHM;2011-04-25 21:00;CYHM 252100Z 05009KT 2SM -RA BR FEW024 BKN044 OVC076 06/06 A2998 RMK SF1SC6AC2 SLP158

CYHM;2011-04-25 22:00;CYHM 252200Z 04014KT 1 3/4SM -RA BR BKN004 OVC042 06/06 A2997 RMK SF5SC3 SLP153

CYHM;2011-04-25 22:36;CYHM 252236Z 06014KT 2SM -RA BR SCT004 BKN040 OVC072 RMK SF3SC3AC2

CYHM;2011-04-25 23:00;CYHM 252300Z 06013KT 2SM -RA BR SCT004 BKN043 OVC080 05/05 A2994 RMK SF3SC4AC1 SLP145

CYHM;2011-04-25 23:32;CYHM 252332Z 06012KT 1 1/2SM -RA BR BKN004 OVC038 RMK SF6SC2

CYHM;2011-04-26 00:00;CYHM 260000Z 06013KT 1 1/2SM -RA BR OVC003 06/06 A2991 RMK SF8 SLP133

CYHM;2011-04-26 01:00;CYHM 260100Z 03013KT 1/4SM -RA FG OVC002 05/05 A2992 RMK FG2SF6 SLP139

CYHM;2011-04-26 02:00;CYHM 260200Z 05015G21KT 3/4SM -RA BR OVC002 06/06 A2988 RMK SF8 SLP125

CYHM;2011-04-26 03:00;CYHM 260300Z 05018G24KT 1/4SM -RA FG OVC002 07/07 A2991 RMK SF8 SLP132

CYHM;2011-04-26 04:00;CYHM 260400Z 05018G24KT 1/4SM -RA FG OVC002 07/07 A2989 RMK SF8 SLP126

CYHM;2011-04-26 05:00;CYHM 260500Z 05016G22KT 1/4SM -RA FG OVC002 07/07 A2988 RMK SF8 SLP122

CYHM;2011-04-26 06:00;CYHM 260600Z 05015KT 1/4SM -RA FG OVC002 06/06 A2986 RMK SF8 SLP116

CYHM;2011-04-26 07:00;CYHM 260700Z 05016G22KT 1/4SM -RA FG OVC002 06/06 A2984 RMK SF8 SLP110

CYHM;2011-04-26 08:00;CYHM 260800Z 06014KT 1/4SM -RA FG OVC002 06/06 A2984 RMK SF8 SLP111

CYHM;2011-04-26 09:00;CYHM 260900Z 05016KT 1/4SM -RA FG OVC002 07/07 A2984 RMK SF8 SLP111

CYHM;2011-04-26 09:25;CYHM 260925Z 05015KT 1/4SM DZ FG VV001 RMK FG8

CYHM;2011-04-26 10:00;CYHM 261000Z 05014KT 1/4SM DZ FG VV001 07/07 A2983 RMK FG8 SLP106

CYHM;2011-04-26 10:06;CYHM 261006Z 05016G22KT 1/8SM -DZ FG VV001 RMK FG8

CYHM;2011-04-26 11:00;CYHM 261100Z 05018KT 1/8SM -DZ FG VV001 06/06 A2984 RMK FG8 SLP110

CYHM;2011-04-26 12:00;CYHM 261200Z 06020KT 1/8SM -DZ FG VV001 06/06 A2984 RMK FG8 SLP111

CYHM;2011-04-26 13:00;CYHM 261300Z 06018G24KT 1/4SM FG VV001 06/06 A2982 RMK FG8 SLP103

CYHM;2011-04-26 14:00;CYHM 261400Z 05022KT 1/8SM -DZ FG VV001 06/06 A2979 RMK FG8 SLP094

CYHM;2011-04-26 14:50;CYHM 261450Z 06020G25KT 1/8SM -TSRA FG VV001 RMK FG8 CB EMDD

CYHM;2011-04-26 15:00;CYHM 261500Z 08020G26KT 1/2SM TSRA FG VV001 06/06 A2975 RMK FG8 CB EMBD LTNG SLP081

CYHM;2011-04-26 15:05;CYHM 261505Z 06018G23KT 1SM -TSRA BR OVC003 RMK FG6SF2 CB EMBD RERA

CYHM;2011-04-26 15:15;CYHM 261515Z 04020KT 3/4SM -TSRA BR OVC002 RMK FG6SF2 CB EMBD

CYHM;2011-04-26 15:37;CYHM 261537Z 04022KT 1/8SM -SHRA FG VV001 RMK FG8 RETS

CYHM;2011-04-26 16:00;CYHM 261600Z 05022G27KT 1/8SM -SHRA FG VV001 07/07 A2974 RMK FG8 SLP076

CYHM;2011-04-26 17:00;CYHM 261700Z 06016G22KT 1/8SM -SHRA FG VV001 06/06 A2974 RMK FG8 SLP075

CYHM;2011-04-26 18:00;CYHM 261800Z 04016KT 1/8SM -SHRA FG VV001 07/07 A2973 RMK FG8 SLP073

CYHM;2011-04-26 18:44;CYHM 261844Z 05013KT 1/8SM -TSRA FG VV001 RMK FG8 CB ASOCTD

CYHM;2011-04-26 19:00;CYHM 261900Z 05012KT 1/8SM -TSRA FG VV001 07/07 A2971 RMK FG8 CB ASOCTD SLP068

CYHM;2011-04-26 19:23;CYHM 261923Z 02014KT 1/8SM -SHRA FG VV001 RETS RMK FG8

CYHM;2011-04-26 20:00;CYHM 262000Z 04010KT 1/8SM -SHRA FG VV001 07/07 A2972 RETS RMK FG8 SLP071

CYHM;2011-04-26 20:24;CYHM 262024Z 05004KT 1/2SM -TSRA FG VV002 RMK FG8 CB ASOCTD

CYHM;2011-04-26 20:50;CYHM 262050Z 06009KT 2 1/2SM -SHRA BR FEW002 FEW022 OVC076 RETS RMK SF2SC1AC6

CYHM;2011-04-26 21:00;CYHM 262100Z 05009KT 2SM -SHRA BR SCT002 SCT022 OVC068 08/08 A2974 RETS RMK SF3SC1AC4 SLP076

CYHM;2011-04-26 21:32;CYHM 262132Z 05012KT 1SM BR BKN002 OVC084 RMK FG3SF2AC2 SUN DMLY VSBL

CYHM;2011-04-26 22:00;CYHM 262200Z 06008KT 1/4SM FG VV001 08/08 A2971 RMK FG8 SLP066

CYHM;2011-04-26 23:00;CYHM 262300Z 05004KT 1/8SM FG VV001 09/09 A2970 RMK FG8 SLP064

CYHM;2011-04-27 00:00;CYHM 270000Z 00000KT 1/8SM FG VV001 08/08 A2972 RMK FG8 SLP068

CYHM;2011-04-27 01:00;CYHM 270100Z 06004KT 1/8SM FG BKN054 08/08 A2972 RMK FG6SC1 SLP069

CYHM;2011-04-27 02:00;CYHM 270200Z 05004KT 1/4SM FG SKC 07/07 A2973 RMK FG2 SLP072

CYHM;2011-04-27 03:00;CYHM 270300Z 10003KT 2SM BR SKC 06/06 A2971 RMK FG2 SLP068

CYHM;2011-04-27 04:00;CYHM 270400Z 16003KT 15SM SKC 08/08 A2972 RMK SLP069

CYHM;2011-04-27 05:00;CYHM 270500Z 20006KT 15SM SKC 10/10 A2975 RMK SLP078

CYHM;2011-04-27 06:00;CYHM 270600Z 19007KT 15SM SKC 12/12 A2974 RMK SLP074

CYHM;2011-04-27 07:00;CYHM 270700Z 20007KT 15SM FEW250 13/13 A2974 RMK CI1 CI TR SLP073

CYHM;2011-04-27 08:00;CYHM 270800Z 19007KT 15SM FEW250 12/12 A2975 RMK CI1 CI TR SLP078

CYHM;2011-04-27 09:00;CYHM 270900Z 18004KT 15SM FEW250 11/11 A2974 RMK CI1 CI TR SLP075

CYHM;2011-04-27 10:00;CYHM 271000Z 16003KT 9SM MIFG FEW075 11/11 A2975 RMK AC2 SLP076

CYHM;2011-04-27 10:10;CYHM 271010Z 10004KT 1/4SM FG FEW008 FEW025 BKN070 RMK FG2SF1SC1AC1

CYHM;2011-04-27 10:54;CYHM 271054Z 07006KT 1/8SM FG SCT001 BKN210 RMK FG2SF2CI2

CYHM;2011-04-27 11:00;CYHM 271100Z 09004KT 1/2SM FG FEW001 BKN210 09/09 A2976 RMK FG2SF1CI1 SLP080

CYHM;2011-04-27 11:10;CYHM 271110Z 04007KT 1/8SM FG FEW002 BKN210 RMK FG2SF1CI2

CYHM;2011-04-27 12:00;CYHM 271200Z 06008KT 1/8SM FG SCT001 BKN210 08/08 A2975 RMK FG2SF2CI2 SLP077

CYHM;2011-04-27 12:43;CYHM 271243Z CCA 08008KT 3/4SM BR SCT002 BKN056 OVC210 RMK FG2SF2SC2CI2 VIS VRBL 1/2-1 SM

CYHM;2011-04-27 13:00;CYHM 271300Z 07007KT 1 1/2SM BR FEW015 BKN056 BKN210 09/09 A2974 RMK FG1CF1SC3CI2 SLP074

CYHM;2011-04-27 13:14;CYHM 271314Z 05009KT 2 1/2SM BR FEW018 FEW056 SCT210 RMK CU1SC1CI2

CYHM;2011-04-27 14:00;CYHM 271400Z 05010KT 6SM BR FEW055 BKN120 BKN210 11/11 A2969 RMK SC2AC2CI1 SLP060

CYHM;2011-04-27 15:00;CYHM 271500Z 04008KT 4SM BR SCT045 BKN120 BKN210 10/10 A2966 RMK SC3AC2CI1 SLP049

CYHM;2011-04-27 16:00;CYHM 271600Z 05010KT 5SM BR FEW062 BKN130 BKN210 15/13 A2964 RMK SC2AC2CI1 SLP040

CYHM;2011-04-27 17:00;CYHM 271700Z 10012KT 15SM FEW095 BKN160 BKN220 20/16 A2958 RMK AC2AC3CI1 SLP022

CYHM;2011-04-27 18:00;CYHM 271800Z 16015KT 15SM SCT100 BKN180 OVC210 24/16 A2955 RMK AC3AS4CI1 SLP005

CYHM;2011-04-27 19:00;CYHM 271900Z 16013KT 15SM FEW082 BKN120 OVC180 24/16 A2950 RMK AC2AC4AC2 SLP990

CYHM;2011-04-27 19:26;CYHM 271926Z 17015G22KT 3SM -SHRA SCT048 BKN060 OVC100 RMK SC4SC3AC1

CYHM;2011-04-27 20:00;CYHM 272000Z 24015G22KT 4SM -SHRA FEW042 BKN064 OVC100 18/17 A2955 RMK SF2SC6AC1 SLP006

CYHM;2011-04-27 21:00;CYHM 272100Z 21016G23KT 12SM -SHRA SCT064 SCT080 OVC110 19/15 A2953 RMK SC3AC1AC4 SLP000

CYHM;2011-04-27 21:15;CYHM 272115Z 23018G26KT 15SM FEW064 SCT080 OVC120 RMK SC2AC2AC4

CYHM;2011-04-27 22:00;CYHM 272200Z 23016G24KT 15SM FEW080 BKN100 OVC150 20/15 A2954 RMK AC2AC5AC2 SLP003

CYHM;2011-04-27 23:00;CYHM 272300Z 23015G24KT 15SM FEW082 FEW120 BKN250 20/14 A2955 RMK AC1AC1CI2 SLP005

CYHM;2011-04-28 00:00;CYHM 280000Z 23014KT 15SM FEW080 FEW110 BKN250 19/13 A2954 RMK AC1AC1CI2 SLP005

CYHM;2011-04-28 01:00;CYHM 280100Z 23013KT 15SM FEW110 BKN250 18/13 A2955 RMK AC1CI2 SLP007

CYHM;2011-04-28 02:00;CYHM 280200Z 22007KT 15SM FEW074 FEW120 SCT250 16/13 A2956 RMK AC1AC1CI1 SLP012

CYHM;2011-04-28 03:00;CYHM 280300Z 15007KT 15SM BKN050 BKN140 16/13 A2955 RMK SC6AC2 SLP008

CYHM;2011-04-28 04:00;CYHM 280400Z 15009KT 15SM FEW050 OVC089 13/12 A2953 RMK SC2AC6 SLP003

CYHM;2011-04-28 05:00;CYHM 280500Z 13006KT 15SM BKN055 OVC160 12/11 A2951 RMK SC6AC2 SLP995

CYHM;2011-04-28 06:00;CYHM 280600Z CCA 11006KT 15SM OVC044 12/12 A2946 RMK SC8 PRESFR SLP973

CYHM;2011-04-28 07:00;CYHM 280700Z 08008KT 15SM OVC043 13/12 A2938 RMK SC8 PRESFR SLP948

CYHM;2011-04-28 08:00;CYHM 280800Z 10009KT 12SM -SHRA FEW040 OVC100 14/13 A2931 RMK SC2AC6 PRESFR SLP924

CYHM;2011-04-28 09:00;CYHM 280900Z 16004KT 15SM FEW075 BKN180 15/14 A2928 RMK AC2AC6 SLP914

CYHM;2011-04-28 10:00;CYHM 281000Z 19016KT 15SM FEW030 FEW085 FEW180 16/14 A2927 RMK SC2AC1AC1 CU ASOCTD SLP910

CYHM;2011-04-28 10:42;CYHM 281042Z 20020G28KT 7SM -SHRA FEW028 BKN073 BKN110 RMK SC2AC4AC1

CYHM;2011-04-28 11:00;CYHM 281100Z 20026G34KT 6SM -SHRA BR BKN059 BKN063 BKN075 16/13 A2924 RMK SC5SC2AC1 CU ASOCTD SLP901

CYHM;2011-04-28 11:09;CYHM 281109Z 20026G34KT 1 1/2SM -SHRA BR BKN016 BKN038 RMK FG2SC4SC2 CU ASOCTD

CYHM;2011-04-28 11:14;CYHM 281114Z 20032G42KT 8SM -SHRA FEW026 SCT031 BKN059 BKN070 RMK CU2SC2SC2AC1

CYHM;2011-04-28 11:23;CYHM 281123Z 21036G44KT 15SM -SHRA FEW023 BKN033 BKN062 RMK CU2SC2SC2

CYHM;2011-04-28 11:29;CYHM 281129Z 22038G45KT 15SM FEW028 SCT034 BKN045 RMK CU2SC2SC1

CYHM;2011-04-28 12:00;CYHM 281200Z 22040G46KT 15SM FEW024 BKN034 BKN210 13/09 A2927 RMK CU2SC2CI1 SLP911

CYHM;2011-04-28 13:00;CYHM 281300Z 22045G50KT 8SM -SHRA BKN016 OVC022 10/08 A2929 RMK SC6SC2 SLP916

CYHM;2011-04-28 13:43;CYHM 281343Z 22046G52KT 2 1/2SM -SHRA BR BKN013 OVC018 RMK SC6SC2

CYHM;2011-04-28 14:00;CYHM 281400Z 22045G52KT 4SM -SHRA BR BKN011 OVC016 09/08 A2933 RMK SC6SC2 SLP929

CYHM;2011-04-28 14:25;CYHM 281425Z 22038G46KT 1 1/2SM -SHRA BR BKN010 BKN016 OVC021 RMK SF5SC2SC1

CYHM;2011-04-28 15:00;CYHM 281500Z 23040G46KT 2SM -SHRA BR BKN012 OVC017 09/08 A2945 RMK SC6SC2 PRESRR SLP973

CYHM;2011-04-28 15:20;CYHM 281520Z 23038G45KT 3SM -SHRA BR BKN012 OVC017 RMK SC6SC2

CYHM;2011-04-28 16:00;CYHM 281600Z 23036G42KT 7SM -SHRA BKN016 OVC020 08/08 A2951 RMK SC6SC2 SLP993

CYHM;2011-04-28 16:18;CYHM 281618Z 22032G42KT 15SM BKN015 OVC020 RMK SC6SC2

CYHM;2011-04-28 17:00;CYHM 281700Z 22035G40KT 15SM BKN021 OVC032 09/06 A2955 RMK SC6SC2 SLP007

CYHM;2011-04-28 18:00;CYHM 281800Z 24030G36KT 15SM FEW020 BKN026 BKN040 10/06 A2957 RMK CU2SC4SC2 SLP017

CYHM;2011-04-28 19:00;CYHM 281900Z 24028G35KT 15SM FEW031 BKN041 11/05 A2960 RMK SC2SC5 SLP026

CYHM;2011-04-28 20:00;CYHM 282000Z 24026G33KT 15SM FEW031 BKN046 10/04 A2962 RMK SC2SC5 SLP032

CYHM;2011-04-28 21:00;CYHM 282100Z 24020G28KT 15SM FEW032 SCT046 OVC060 10/05 A2963 RMK SC1SC3SC4 SLP034

CYHM;2011-04-28 22:00;CYHM 282200Z 24027G35KT 15SM FEW045 BKN063 11/04 A2964 RMK SC2SC5 SLP037

CYHM;2011-04-28 23:00;CYHM 282300Z 25020G28KT 15SM FEW028 BKN065 BKN250 10/05 A2964 RMK CU2SC3CI1 SLP039

CYHM;2011-04-29 00:00;CYHM 290000Z 25018G24KT 15SM SCT034 SCT056 10/05 A2966 RMK CU3SC1 SLP046

CYHM;2011-04-29 01:00;CYHM 290100Z 25013KT 15SM BKN065 09/04 A2968 RMK SC7 SLP052

CYHM;2011-04-29 02:00;CYHM 290200Z 26012KT 15SM BKN062 BKN097 09/04 A2967 RMK SC6AC2 SLP051

CYHM;2011-04-29 03:00;CYHM 290300Z 25006KT 15SM BKN054 BKN150 08/04 A2968 RMK SC5AC1 SLP053

CYHM;2011-04-29 04:00;CYHM 290400Z 22012KT 15SM BKN039 08/05 A2967 RMK SC7 SLP051

CYHM;2011-04-29 05:00;CYHM 290500Z 23008KT 15SM BKN032 BKN045 07/05 A2966 RMK SC6SC2 SLP049

CYHM;2011-04-29 06:00;CYHM 290600Z 25010KT 15SM FEW028 BKN051 07/04 A2966 RMK SC1SC6 SLP047

CYHM;2011-04-29 07:00;CYHM 290700Z 27012KT 15SM FEW028 06/02 A2965 RMK SC1 SLP045

CYHM;2011-04-29 08:00;CYHM 290800Z 25010KT 15SM BKN086 05/02 A2965 RMK AC6 SLP046

CYHM;2011-04-29 09:00;CYHM 290900Z 24009KT 15SM FEW081 05/03 A2965 RMK AC2 SLP046

CYHM;2011-04-29 10:00;CYHM 291000Z 23008KT 15SM BKN071 BKN100 05/03 A2966 RMK AC5AC2 SLP049

CYHM;2011-04-29 11:00;CYHM 291100Z 24010KT 15SM BKN019 BKN044 05/03 A2968 RMK SC6SC2 SLP057

CYHM;2011-04-29 12:00;CYHM 291200Z 28010KT 15SM BKN037 OVC042 05/02 A2971 RMK SC6SC2 CU ASOCTD SLP066

CYHM;2011-04-29 13:00;CYHM 291300Z 27008KT 15SM FEW020 SCT034 BKN073 05/02 A2974 RMK CU2SC2AC3 SLP074

CYHM;2011-04-29 14:00;CYHM 291400Z 30010KT 15SM BKN023 OVC028 06/02 A2976 RMK SC6SC2 CU ASOCTD SLP081

CYHM;2011-04-29 15:00;CYHM 291500Z 28013KT 15SM FEW020 BKN027 OVC092 06/02 A2977 RMK CU2SC5AC1 SLP087

CYHM;2011-04-29 16:00;CYHM 291600Z 25012KT 15SM FEW024 BKN032 BKN078 07/02 A2979 RMK CU2SC3AC2 SLP093

CYHM;2011-04-29 17:00;CYHM 291700Z 26012KT 15SM FEW025 BKN036 BKN070 08/02 A2980 RMK CU2SC3AC2 SLP097

CYHM;2011-04-29 18:00;CYHM 291800Z 28010KT 15SM FEW030 OVC039 07/02 A2983 RMK CU2SC6 SLP106

CYHM;2011-04-29 18:44;CYHM 291844Z 29008KT 7SM -SHRA FEW015 OVC023 RMK CU2SC6

CYHM;2011-04-29 19:00;CYHM 291900Z 26012KT 10SM -SHRA FEW013 BKN022 07/04 A2984 RMK CU2SC6 SLP112

CYHM;2011-04-29 20:00;CYHM 292000Z 25010KT 15SM FEW023 OVC037 07/03 A2985 RMK CU2SC6 MAMMA SLP115

CYHM;2011-04-29 21:00;CYHM 292100Z 31009KT 15SM FEW038 OVC048 08/03 A2988 RMK CU2SC6 SLP123

CYHM;2011-04-29 22:00;CYHM 292200Z 31009KT 15SM OVC033 08/02 A2991 RMK SC8 CU ASOCTD SLP132

CYHM;2011-04-29 23:00;CYHM 292300Z 34011KT 15SM BKN045 07/02 A2994 RMK SC7 CU ASOCTD SLP142

CYHM;2011-04-30 00:00;CYHM 300000Z 33012KT 15SM FEW024 FEW040 06/02 A2997 RMK CU1SC2 CONTRAILS SLP154

CYHM;2011-04-30 01:00;CYHM 300100Z 30003KT 15SM FEW040 04/02 A2999 RMK SC1 SLP163

CYHM;2011-04-30 02:00;CYHM 300200Z 33007KT 15SM FEW040 FEW210 04/02 A3002 RMK SC1CI1 SLP172

CYHM;2011-04-30 03:00;CYHM 300300Z 29005KT 15SM FEW200 04/01 A3004 RMK CI1 SLP179

CYHM;2011-04-30 04:00;CYHM 300400Z 31004KT 15SM FEW200 04/01 A3006 RMK CI1 SLP185

CYHM;2011-04-30 05:00;CYHM 300500Z 00000KT 15SM FEW030 FEW200 03/01 A3008 RMK SC1CI1 SLP193

CYHM;2011-04-30 06:00;CYHM 300600Z 28004KT 15SM FEW030 FEW200 01/00 A3010 RMK SC1CI1 SLP200

CYHM;2011-04-30 07:00;CYHM 300700Z 35003KT 15SM FEW030 FEW200 02/01 A3010 RMK SC1CI1 SLP201

CYHM;2011-04-30 08:00;CYHM 300800Z 00000KT 15SM FEW025 FEW200 02/00 A3012 RMK SC1CI1 SLP207

CYHM;2011-04-30 09:00;CYHM 300900Z 35005KT 15SM FEW200 02/00 A3013 RMK CI1 SLP210

CYHM;2011-04-30 10:00;CYHM 301000Z 35002KT 15SM FEW210 01/00 A3013 RMK CI1 SLP209

CYHM;2011-04-30 11:00;CYHM 301100Z 00000KT 15SM FEW210 02/00 A3015 RMK CI1 SLP217

CYHM;2011-04-30 12:00;CYHM 301200Z 00000KT 15SM FEW220 04/01 A3019 RMK CI1 SLP229

CYHM;2011-04-30 13:00;CYHM 301300Z 09005KT 15SM FEW250 08/03 A3021 RMK CI0 SLP236

CYHM;2011-04-30 14:00;CYHM 301400Z 07004KT 020V120 15SM FEW250 09/04 A3022 RMK CI1 SLP240

CYHM;2011-04-30 15:00;CYHM 301500Z 12007KT 080V170 15SM SCT250 11/04 A3021 RMK CI2 SLP236

CYHM;2011-04-30 16:00;CYHM 301600Z 10004KT 15SM BKN220 11/04 A3023 RMK CI2 SLP241

CYHM;2011-04-30 17:00;CYHM 301700Z 10005KT 020V160 15SM SCT220 13/06 A3022 RMK CI2 SLP238

CYHM;2011-04-30 18:00;CYHM 301800Z 08004KT 030V120 15SM BKN220 13/07 A3020 RMK CI3 SLP234

CYHM;2011-04-30 19:00;CYHM 301900Z 08005KT 030V120 15SM BKN230 13/05 A3019 RMK CI3 SLP229

CYHM;2011-04-30 20:00;CYHM 302000Z 07008KT 040V110 15SM FEW180 BKN230 13/05 A3017 RMK AC1CI3 AC TR SLP223

CYHM;2011-04-30 21:00;CYHM 302100Z 06010KT 030V090 15SM FEW180 BKN220 13/05 A3015 RMK AC1CI3 SLP216

CYHM;2011-04-30 22:00;CYHM 302200Z 06006KT 030V100 15SM FEW180 BKN230 13/05 A3016 RMK AC1CI2 SLP218

CYHM;2011-04-30 23:00;CYHM 302300Z 06009KT 15SM FEW180 BKN230 11/04 A3016 RMK AC1CI3 AC TR CONTRAILS SLP218

CYHM;2011-05-01 01:00;CYHM 010100Z 06012KT 15SM BKN150 OVC200 09/02 A3015 RMK AC5CI2 SLP215

CYHM;2011-05-01 02:00;CYHM 010200Z 06010KT 15SM OVC150 09/02 A3017 RMK AC8 SLP221

CYHM;2011-05-01 03:00;CYHM 010300Z 06012KT 15SM OVC140 10/03 A3014 RMK AC8 SLP212

CYHM;2011-05-01 04:00;CYHM 010400Z 06012KT 15SM OVC140 09/03 A3014 RMK AC8 SLP210

CYHM;2011-05-01 05:00;CYHM 010500Z 05008KT 15SM BKN140 BKN180 08/03 A3014 RMK AC5AC2 SLP212

CYHM;2011-05-01 06:00;CYHM 010600Z 04009KT 15SM FEW140 BKN180 07/04 A3013 RMK AC2AC4 SLP208

CYHM;2011-05-01 07:00;CYHM 010700Z 04009KT 15SM BKN140 OVC170 06/04 A3011 RMK AC6AC2 SLP201

CYHM;2011-05-01 08:00;CYHM 010800Z 06007KT 15SM BKN160 07/03 A3011 RMK AC5 SLP200

CYHM;2011-05-01 09:00;CYHM 010900Z 05008KT 15SM BKN150 06/03 A3009 RMK AC6 SLP193

CYHM;2011-05-01 10:00;CYHM 011000Z 03010KT 15SM BKN130 06/04 A3007 RMK AC6 SLP189

CYHM;2011-05-01 11:00;CYHM 011100Z 03005KT 15SM BKN130 BKN160 07/04 A3008 RMK AC5AC2 SLP191

CYHM;2011-05-01 12:00;CYHM 011200Z 09006KT 15SM FEW050 BKN120 BKN150 09/05 A3006 RMK SC1AC5AC2 SLP184

CYHM;2011-05-01 13:00;CYHM 011300Z 08005KT 15SM BKN110 OVC150 11/06 A3006 RMK AC7AC1 VIRGA SLP184

CYHM;2011-05-01 14:00;CYHM 011400Z 16006KT 15SM OVC110 14/05 A3007 RMK AC8 SLP188

CYHM;2011-05-01 15:00;CYHM 011500Z 17009KT 15SM -SHRA OVC084 13/06 A3008 RMK AC8 SLP191

CYHM;2011-05-01 16:00;CYHM 011600Z 18009KT 5SM -SHRA BR SCT071 OVC084 11/09 A3010 RMK AC3AC5 SLP195

CYHM;2011-05-01 16:49;CYHM 011649Z 16013KT 15SM BKN059 BKN070 OVC100 RMK SC6AC2AC1

CYHM;2011-05-01 17:00;CYHM 011700Z 16017KT 15SM SCT059 BKN070 OVC100 13/10 A3006 RMK SC4AC3AC1 SLP183

CYHM;2011-05-01 18:00;CYHM 011800Z 16018G23KT 15SM SCT036 BKN054 OVC096 14/10 A3004 RMK SC4SC2AC2 SLP177

CYHM;2011-05-01 18:54;CYHM 011854Z 17013KT 15SM -SHRA BKN025 BKN050 OVC090 RMK SC5SC2AC2

CYHM;2011-05-01 19:00;CYHM 011900Z 17015G24KT 15SM -SHRA BKN025 BKN050 OVC090 14/10 A3004 RMK SC6SC2AC1 PCPN VRY LGT SLP178

CYHM;2011-05-01 20:00;CYHM 012000Z 16014KT 12SM -SHRA BKN022 OVC045 12/10 A3001 RMK SC6SC2 SLP168

CYHM;2011-05-01 20:35;CYHM 012035Z 17011KT 3SM -SHRA BR FEW009 BKN016 OVC025 RMK SF1SC6SC2 SF TR

CYHM;2011-05-01 20:40;CYHM 012040Z 17012KT 2SM -SHRA BR FEW009 BKN014 OVC025 RMK FG2SF1SC6SC1 SF TR

CYHM;2011-05-01 21:00;CYHM 012100Z 16011KT 2SM -SHRA BR BKN009 OVC018 12/11 A3001 RMK FG2SC5SC2 VIS VRB 11/2-21/2 SLP168

CYHM;2011-05-01 21:28;CYHM 012128Z 17010KT 2 1/2SM -RADZ BR BKN005 OVC012 RMK FG1SF5SC2 VIS VRB 11/2-3

CYHM;2011-05-01 21:37;CYHM 012137Z CCA 17010KT 1 3/4SM -RA BR BKN004 OVC012 RMK FG2SF4SC2 VIS VRB 11/4-21/4

CYHM;2011-05-01 22:00;CYHM 012200Z 17010KT 2SM -RA BR SCT003 BKN005 OVC010 12/12 A3002 RMK FG2SF2SF3SC2 VIS VRB 11/2-21/2 SLP169

CYHM;2011-05-01 22:26;CYHM 012226Z 17009KT 1 3/4SM -RADZ BR BKN004 OVC008 RMK FG2SF3SF2 VIS VRB 11/4-21/4

CYHM;2011-05-01 23:00;CYHM 012300Z 17009KT 1 1/2SM -DZ BR BKN003 OVC006 12/12 A3002 RMK FG2SF2SF3 VIS VRB 1-2 SLP169

CYHM;2011-05-02 00:00;CYHM 020000Z 18006KT 1 1/2SM -DZ BR BKN003 OVC006 12/12 A3002 RMK FG2SF3SF2 VIS VRB 1-2 SLP168

CYHM;2011-05-02 00:29;CYHM 020029Z 18008KT 1 3/4SM BR SCT003 BKN006 OVC014 RMK FG2SF2SF2SC2 VIS VRB 11/4-21/4

CYHM;2011-05-02 00:38;CYHM 020038Z 17007KT 2SM -DZ BR SCT003 BKN006 OVC015 RMK FG2SF2SF2SC3 VIS VRB 11/2-21/2

CYHM;2011-05-02 01:00;CYHM 020100Z 18007KT 3SM -DZ BR FEW003 SCT006 OVC015 12/12 A3004 RMK SF2SF2SC4 PCPN VRY LGT SLP175

CYHM;2011-05-02 01:32;CYHM 020132Z 18009KT 5SM BR FEW003 SCT007 OVC016 RMK SF2SF2SC5

CYHM;2011-05-02 02:00;CYHM 020200Z 18009KT 7SM FEW005 OVC019 12/12 A3004 RMK SF2SC6 PCPN VRY LGT SLP177

CYHM;2011-05-02 03:00;CYHM 020300Z 19008KT 7SM SCT017 OVC021 13/12 A3003 RMK SC3SC5 SLP172

CYHM;2011-05-02 04:00;CYHM 020400Z 19007KT 8SM FEW016 OVC022 12/12 A3001 RMK SC2SC6 SLP166

CYHM;2011-05-02 05:00;CYHM 020500Z 19008KT 8SM OVC021 12/12 A3002 RMK SC8 SLP169

CYHM;2011-05-02 06:00;CYHM 020600Z 19010KT 8SM FEW020 BKN036 OVC068 13/12 A3001 RMK SC2SC5AC1 SLP164

CYHM;2011-05-02 07:00;CYHM 020700Z 19008KT 10SM FEW024 BKN040 BKN084 OVC240 13/12 A2997 RMK SC2SC3AC2CI2 SLP153

CYHM;2011-05-02 08:00;CYHM 020800Z 21005KT 10SM BKN016 BKN060 OVC084 12/12 A2999 RMK SC6SC2AC1 SLP157

CYHM;2011-05-02 09:00;CYHM 020900Z 22002KT 6SM -DZ BR OVC009 12/12 A2999 RMK SC8 SLP158

CYHM;2011-05-02 09:35;CYHM 020935Z 17005KT 4SM -SHRA BR OVC006 RMK SC8

CYHM;2011-05-02 10:00;CYHM 021000Z 00000KT 1 3/4SM -SHRA BR OVC005 12/12 A2997 RMK SC8 SLP152

CYHM;2011-05-02 10:17;CYHM 021017Z 13004KT 1 1/2SM -SHRA BR OVC002 RMK FG2SF6 CIG 250FT

CYHM;2011-05-02 10:35;CYHM 021035Z 00000KT 1SM -SHRA BR BKN002 OVC005 RMK FG3SF3SC2 VIS VRBL3/4-11/4SM

CYHM;2011-05-02 11:00;CYHM 021100Z 00000KT 1SM -SHRA BR BKN003 OVC006 12/12 A2998 RMK FG3SF3SC2 VIS VRBL 3/4-11/4SM SLP156

CYHM;2011-05-02 11:25;CYHM 021125Z 00000KT 3/4SM -SHRA BR BKN002 OVC011 RMK FG2SF3SC2

CYHM;2011-05-02 11:39;CYHM 021139Z 02004KT 1/2SM -SHRA FG VV001 RMK FG8

CYHM;2011-05-02 12:00;CYHM 021200Z 03012KT 1 1/2SM -SHRA BR BKN007 OVC012 09/09 A3002 RMK FG2SF4SC2 SLP168

CYHM;2011-05-02 13:00;CYHM 021300Z 03012KT 4SM -SHRA BR BKN012 OVC015 07/07 A3003 RMK SC6SC2 SLP173

CYHM;2011-05-02 14:00;CYHM 021400Z 03005KT 6SM BR SCT008 OVC015 07/07 A3004 RMK SF3SC5 SLP175

CYHM;2011-05-02 15:00;CYHM 021500Z 33004KT 5SM BR FEW011 BKN033 OVC068 08/08 A3007 RMK SC2SC4AC2 SLP186

CYHM;2011-05-02 16:00;CYHM 021600Z 33004KT 15SM FEW015 FEW035 BKN059 OVC100 08/06 A3009 RMK CF1SC2SC4AC2 SLP193

CYHM;2011-05-02 17:00;CYHM 021700Z 00000KT 15SM FEW060 BKN120 BKN140 10/06 A3007 RMK SC2AC3AC2 SLP187

CYHM;2011-05-02 18:00;CYHM 021800Z 19002KT 15SM FEW060 BKN120 BKN220 12/07 A3006 RMK SC2AC2CI2 SLP182

CYHM;2011-05-02 19:00;CYHM 021900Z 28007KT 15SM FEW056 OVC070 12/06 A3012 RMK SC2AC6 SLP202

CYHM;2011-05-02 20:00;CYHM 022000Z 26013KT 15SM FEW022 FEW064 BKN084 OVC100 13/06 A3011 RMK SC1SC2AC4AC2 1ST LYR TR SLP200

CYHM;2011-05-02 21:00;CYHM 022100Z 26009KT 15SM FEW022 FEW082 BKN120 BKN220 14/07 A3011 RMK SF1AC2AC4CS2 SF TR SUN DMLY VSBL HALO SLP199

CYHM;2011-05-02 22:00;CYHM 022200Z 28007KT 15SM FEW024 FEW036 SCT110 BKN220 13/07 A3013 RMK SF1SC2AC2CS3 SLP205

CYHM;2011-05-02 23:00;CYHM 022300Z 29008KT 15SM FEW110 SCT180 OVC220 13/05 A3013 RMK AC1AS2CS4 SLP205

CYHM;2011-05-03 00:00;CYHM 030000Z 28003KT 15SM FEW080 BKN170 OVC220 11/04 A3015 RMK AC1AS5CS2 AC TR SLP213

CYHM;2011-05-03 01:00;CYHM 030100Z 28004KT 15SM BKN160 OVC220 11/05 A3019 RMK AC6CS2 SLP228

CYHM;2011-05-03 02:00;CYHM 030200Z 00000KT 15SM OVC120 10/05 A3019 RMK AC8 SLP228

CYHM;2011-05-03 03:00;CYHM 030300Z 03009KT 15SM OVC100 09/04 A3020 RMK AC8 SLP232

CYHM;2011-05-03 04:00;CYHM 030400Z 04009KT 15SM BKN088 OVC110 08/02 A3017 RMK AC6AC2 SLP223

CYHM;2011-05-03 05:00;CYHM 030500Z 05010KT 15SM OVC088 08/02 A3017 RMK AC8 SLP223

CYHM;2011-05-03 06:00;CYHM 030600Z 05008KT 15SM OVC083 07/02 A3017 RMK AC8 SLP223

CYHM;2011-05-03 07:00;CYHM 030700Z 05007KT 15SM -SHRA OVC056 06/02 A3020 RMK SC8 SLP231

CYHM;2011-05-03 08:00;CYHM 030800Z 08004KT 15SM -SHRA SCT038 OVC074 05/03 A3018 RMK SC3AC5 SLP225

CYHM;2011-05-03 09:00;CYHM 030900Z 07006KT 15SM -SHRA BKN070 OVC110 05/04 A3017 RMK AC6AC2 SLP223

CYHM;2011-05-03 10:00;CYHM 031000Z 05013KT 12SM -SHRA FEW060 BKN090 OVC120 05/03 A3015 RMK SC2AC5AC2 SLP214

CYHM;2011-05-03 11:00;CYHM 031100Z 05012KT 15SM -SHRA BKN056 OVC080 05/03 A3012 RMK SC5AC3 SLP205

CYHM;2011-05-03 12:00;CYHM 031200Z 05008KT 15SM -SHRA OVC053 05/03 A3013 RMK SC8 SLP209

CYHM;2011-05-03 13:00;CYHM 031300Z 06010KT 4SM -SHRA BR FEW010 OVC051 04/04 A3013 RMK SF2SC6 SLP209

CYHM;2011-05-03 14:00;CYHM 031400Z 06010KT 4SM -SHRA BR FEW011 OVC049 04/04 A3013 RMK SF2SC6 RERA SLP210

CYHM;2011-05-03 14:35;CYHM 031435Z 04013KT 3SM -SHRA BR BKN008 OVC051 RMK SF6SC2

CYHM;2011-05-03 15:00;CYHM 031500Z 04014KT 4SM -SHRA BR SCT007 BKN012 OVC048 05/04 A3010 RMK SF3SC3SC2 SLP198

CYHM;2011-05-03 16:00;CYHM 031600Z 06012KT 4SM -SHRA BR BKN007 BKN016 OVC033 05/04 A3009 RMK SF6SC2SC1 SLP196

CYHM;2011-05-03 17:00;CYHM 031700Z 02014G20KT 5SM -SHRA BR BKN005 OVC012 04/04 A3005 RMK SF6SC2 SLP182

CYHM;2011-05-03 18:00;CYHM 031800Z 06014KT 5SM -SHRA BR BKN006 OVC013 05/04 A3006 RMK SF6SC2 SLP184

CYHM;2011-05-03 18:09;CYHM 031809Z 06015KT 2SM -SHRA BR OVC008 RMK SF8

CYHM;2011-05-03 19:00;CYHM 031900Z 03010G18KT 2SM -RA BR OVC006 05/05 A3004 RMK SF8 SLP177

CYHM;2011-05-03 20:00;CYHM 032000Z 04014KT 1 3/4SM -RA BR OVC004 06/06 A3004 RMK SF8 SLP177

CYHM;2011-05-03 21:00;CYHM 032100Z 03015KT 1 3/4SM -RA BR OVC006 06/06 A3004 RMK SF8 SLP178

CYHM;2011-05-03 22:00;CYHM 032200Z 03008KT 2 1/4SM -RA BR OVC004 06/06 A3004 RMK SF8 SLP180

CYHM;2011-05-03 23:00;CYHM 032300Z 01012KT 2 1/2SM -RA BR BKN007 OVC018 07/06 A3006 RMK SF6SC2 SLP185

CYHM;2011-05-04 00:00;CYHM 040000Z 01008KT 2 1/4SM -RA BR BKN008 OVC026 06/06 A3008 RMK SF5SC3 SLP194

CYHM;2011-05-04 00:37;CYHM 040037Z 36006KT 8SM -RA FEW006 BKN036 OVC070 RMK SF2SC3AS3

CYHM;2011-05-04 01:00;CYHM 040100Z 36005KT 15SM -SHRA FEW012 SCT038 OVC068 06/05 A3010 RMK SF2SC2AC5 SLP199

CYHM;2011-05-04 02:00;CYHM 040200Z 36005KT 15SM FEW012 OVC068 06/05 A3011 RMK SF1AC7 SLP203

CYHM;2011-05-04 03:00;CYHM 040300Z 32005KT 15SM FEW014 BKN054 OVC072 06/05 A3013 RMK SF2SC3AC3 SLP211

CYHM;2011-05-04 04:00;CYHM 040400Z 32003KT 15SM FEW040 BKN062 OVC082 05/04 A3016 RMK SC2SC4AC2 SLP219

CYHM;2011-05-04 05:00;CYHM 040500Z 32006KT 15SM FEW042 OVC060 05/03 A3015 RMK SC2SC6 SLP217

CYHM;2011-05-04 06:00;CYHM 040600Z 32005KT 15SM SCT019 OVC058 05/03 A3015 RMK SC3SC5 SLP217

CYHM;2011-05-04 07:00;CYHM 040700Z 32007KT 15SM FEW018 OVC067 04/03 A3013 RMK SF2AC6 SLP211

CYHM;2011-05-04 08:00;CYHM 040800Z 32007KT 15SM FEW074 BKN096 04/02 A3014 RMK AC2AC5 SLP213

CYHM;2011-05-04 09:00;CYHM 040900Z 33005KT 15SM FEW094 BKN220 03/02 A3014 RMK AC1CI3 SLP215

CYHM;2011-05-04 10:00;CYHM 041000Z 29004KT 15SM FEW090 FEW160 BKN220 03/01 A3015 RMK AC2AC1CI2 SLP217

CYHM;2011-05-04 12:00;CYHM 041200Z 29006KT 15SM FEW056 SCT210 04/03 A3018 RMK SC2CI1 SLP228

CYHM;2011-05-04 13:00;CYHM 041300Z 32007KT 15SM BKN051 BKN210 06/03 A3018 RMK SC5CI2 SLP228

CYHM;2011-05-04 14:00;CYHM 041400Z 33010KT 15SM FEW025 BKN057 BKN080 07/03 A3019 RMK CU1SC4AC2 SLP229

CYHM;2011-05-04 15:00;CYHM 041500Z 33012KT 15SM SCT030 BKN036 BKN048 08/02 A3018 RMK CU3SC2SC2 SLP225

CYHM;2011-05-04 16:00;CYHM 041600Z 33010KT 15SM FEW036 BKN055 09/03 A3017 RMK CU2SC5 SLP222

CYHM;2011-05-04 17:00;CYHM 041700Z 32012KT 15SM FEW035 BKN042 BKN073 11/03 A3016 RMK CU1SC5AC2 SLP218

CYHM;2011-05-04 18:00;CYHM 041800Z 32010KT 15SM FEW042 SCT060 BKN081 11/01 A3014 RMK CU1SC3AC3 SLP213

CYHM;2011-05-04 19:00;CYHM 041900Z 36012G18KT 15SM FEW045 BKN064 12/00 A3014 RMK CU2SC6 VIRGA SLP211

CYHM;2011-05-04 20:00;CYHM 042000Z 03008KT 15SM FEW045 BKN073 BKN230 12/M01 A3013 RMK CU2AC4CI1 VIRGA SLP209

CYHM;2011-05-04 21:00;CYHM 042100Z 02012KT 15SM FEW045 SCT097 BKN230 13/01 A3014 RMK CU1AC3CI1 SLP212

CYHM;2011-05-04 22:00;CYHM 042200Z 01010KT 15SM FEW040 SCT072 SCT120 13/M00 A3015 RMK CU2AC2AC1 SLP216

CYHM;2011-05-04 23:00;CYHM 042300Z 32015KT 15SM FEW040 FEW070 SCT230 12/M01 A3017 RMK CU2AC1CI1 SLP220

CYHM;2011-05-05 00:00;CYHM 050000Z 31008KT 15SM FEW035 FEW070 BKN180 11/M00 A3017 RMK CU1AC2AC2 CONTRAILS SLP223

CYHM;2011-05-05 01:00;CYHM 050100Z 31007KT 15SM FEW070 FEW210 09/M01 A3018 RMK AC2CI1 SLP227

CYHM;2011-05-05 02:00;CYHM 050200Z 32012G17KT 15SM FEW070 FEW210 09/M01 A3020 RMK AC1CI1 TR CI SLP234

CYHM;2011-05-05 03:00;CYHM 050300Z 31011KT 15SM FEW070 08/M01 A3021 RMK AC1 SLP236

CYHM;2011-05-05 04:00;CYHM 050400Z 32008KT 15SM FEW065 07/M01 A3021 RMK SC1 SLP236

CYHM;2011-05-05 05:00;CYHM 050500Z 31010KT 15SM SCT120 07/M01 A3020 RMK AC3 SLP233

CYHM;2011-05-05 06:00;CYHM 050600Z 31010KT 15SM BKN110 08/M02 A3020 RMK AC5 SLP230

CYHM;2011-05-05 07:00;CYHM 050700Z 29008KT 15SM BKN110 07/M02 A3018 RMK AC5 SLP226

CYHM;2011-05-05 08:00;CYHM 050800Z 29010KT 15SM FEW100 06/M03 A3018 RMK AC1 SLP226

CYHM;2011-05-05 09:00;CYHM 050900Z 29006KT 15SM FEW095 06/M02 A3017 RMK AC2 SLP223

CYHM;2011-05-05 10:00;CYHM 051000Z 29007KT 15SM FEW087 05/M02 A3017 RMK AC2 SLP221

CYHM;2011-05-05 11:00;CYHM 051100Z 30008KT 15SM FEW075 06/M00 A3018 RMK AC1 SLP224

CYHM;2011-05-05 12:00;CYHM 051200Z 33007KT 15SM FEW080 08/01 A3018 RMK AC1 AC TR SLP225

CYHM;2011-05-05 13:00;CYHM 051300Z 33002KT 15SM FEW100 10/01 A3018 RMK AC1 AC TR SLP226

CYHM;2011-05-05 14:00;CYHM 051400Z 29010KT 15SM FEW030 14/02 A3017 RMK CU1 CU TR SLP223

CYHM;2011-05-05 15:00;CYHM 051500Z 33015G20KT 15SM FEW035 14/00 A3017 RMK CU1 CU TR SLP219

CYHM;2011-05-05 16:00;CYHM 051600Z 33012KT 15SM FEW035 15/01 A3015 RMK CU1 CU TR SLP215

CYHM;2011-05-05 17:00;CYHM 051700Z 33014KT 15SM FEW035 15/M00 A3013 RMK CU1 SLP206

CYHM;2011-05-05 18:00;CYHM 051800Z 32014G20KT 15SM FEW055 FEW078 15/01 A3010 RMK CU1AC1 SLP198

CYHM;2011-05-05 19:00;CYHM 051900Z CCA 33014KT 260V010 15SM FEW071 16/01 A3008 RMK AC2 SLP190

CYHM;2011-05-05 20:00;CYHM 052000Z 30012G23KT 15SM FEW074 17/01 A3005 RMK AC2 SLP181

CYHM;2011-05-05 21:00;CYHM 052100Z 30015KT 15SM FEW075 17/02 A3003 RMK AC2 SLP173

CYHM;2011-05-05 22:00;CYHM 052200Z 32011KT 15SM FEW075 15/01 A3001 RMK AC2 SLP167

CYHM;2011-05-05 23:00;CYHM 052300Z 32011KT 15SM FEW075 FEW250 15/00 A3001 RMK AC1CI1 CI TR SLP165

CYHM;2011-05-06 00:00;CYHM 060000Z 29010KT 15SM FEW075 FEW250 14/00 A3000 RMK AC1CI0 SLP163

CYHM;2011-05-06 01:00;CYHM 060100Z 28006KT 15SM FEW250 12/00 A3000 RMK CI1 SLP163

CYHM;2011-05-06 02:00;CYHM 060200Z 27004KT 15SM SKC 11/M00 A3000 RMK SLP162

CYHM;2011-05-06 03:00;CYHM 060300Z 25004KT 15SM FEW250 09/M01 A2999 RMK CI1 SLP158

CYHM;2011-05-06 04:00;CYHM 060400Z 25006KT 15SM FEW250 08/00 A2997 RMK CI0 SLP153

CYHM;2011-05-06 05:00;CYHM 060500Z 24004KT 15SM FEW250 07/01 A2995 RMK CI0 SLP146

CYHM;2011-05-06 06:00;CYHM 060600Z 23005KT 15SM FEW250 06/01 A2992 RMK CI1 SLP136

CYHM;2011-05-06 07:00;CYHM 060700Z 24006KT 15SM FEW150 06/01 A2990 RMK AC2 SLP127

CYHM;2011-05-06 08:00;CYHM 060800Z 24006KT 15SM BKN110 06/02 A2988 RMK AC7 SLP123

CYHM;2011-05-06 09:00;CYHM 060900Z 25007KT 15SM OVC100 08/02 A2988 RMK AC8 SLP121

CYHM;2011-05-06 10:00;CYHM 061000Z 26008KT 15SM BKN076 BKN100 09/04 A2987 RMK AC5AC2 SLP118

CYHM;2011-05-06 11:00;CYHM 061100Z 25008KT 15SM BKN078 OVC095 10/06 A2988 RMK AC6AC2 SLP119

CYHM;2011-05-06 12:00;CYHM 061200Z 24008KT 15SM BKN042 OVC062 09/07 A2988 RMK SC6SC2 SLP122

CYHM;2011-05-06 12:13;CYHM 061213Z 25004KT 15SM -SHRA BKN046 OVC050 RMK SC6SC2

CYHM;2011-05-06 13:00;CYHM 061300Z 24006KT 15SM -SHRA OVC051 09/08 A2987 RMK SC8 SLP119

CYHM;2011-05-06 14:00;CYHM 061400Z 27004KT 15SM -SHRA BKN054 OVC067 09/08 A2986 RMK SC6AC2 PCPN VRY LGT SLP114

CYHM;2011-05-06 14:52;CYHM 061452Z 23010KT 15SM BKN076 OVC084 RMK AC6AC2

CYHM;2011-05-06 15:00;CYHM 061500Z 21008KT 15SM BKN075 OVC082 10/07 A2985 RMK AC6AC2 SLP112

CYHM;2011-05-06 16:00;CYHM 061600Z CCA 18010KT 15SM FEW045 BKN110 BKN130 12/07 A2983 RMK SC2AC3AC2 TR CU ASOCTD SLP106

CYHM;2011-05-06 17:00;CYHM 061700Z CCA 22012KT 15SM FEW045 SCT130 BKN210 15/07 A2981 RMK SC1AC2CI2 TR CU ASOCTD SLP099

CYHM;2011-05-06 18:00;CYHM 061800Z 21016G22KT 15SM FEW042 FEW058 BKN170 BKN220 15/07 A2979 RMK CU2SC1AC2CI2 SLP090

CYHM;2011-05-06 19:00;CYHM 061900Z 22016G21KT 15SM FEW042 SCT060 BKN150 14/07 A2978 RMK CU2SC2AC3 SLP089

CYHM;2011-05-06 20:00;CYHM 062000Z 24018G26KT 15SM -SHRA FEW033 BKN054 BKN130 14/08 A2978 RMK CU2SC5AC1 SLP087

CYHM;2011-05-06 21:00;CYHM 062100Z 24018KT 10SM -SHRA FEW016 OVC053 12/08 A2980 RMK CU2SC6 SLP095

CYHM;2011-05-06 22:00;CYHM 062200Z 24008KT 12SM -SHRA FEW015 OVC043 11/06 A2980 RMK CU2SC6 SLP095

CYHM;2011-05-06 23:00;CYHM 062300Z 23007KT 15SM VCSH FEW020 BKN076 12/07 A2981 RMK SC2AC6 SHWRS E SLP097

CYHM;2011-05-07 00:00;CYHM 070000Z 23012G17KT 15SM FEW017 SCT065 BKN110 11/07 A2981 RMK CU1SC3AC2 SLP097

CYHM;2011-05-07 01:00;CYHM 070100Z 25007KT 15SM FEW059 BKN080 10/06 A2982 RMK SC2AC5 SLP103

CYHM;2011-05-07 02:00;CYHM 070200Z 25005KT 15SM FEW050 FEW110 FEW170 08/06 A2983 RMK SC1AC1AC1 TR AC SLP104

CYHM;2011-05-07 03:00;CYHM 070300Z 22006KT 15SM SCT130 07/06 A2984 RMK AC4 SLP108

CYHM;2011-05-07 04:00;CYHM 070400Z 25007KT 15SM BKN066 BKN140 08/06 A2985 RMK AC6AC1 SLP113

CYHM;2011-05-07 05:00;CYHM 070500Z 23007KT 15SM FEW075 FEW140 07/06 A2985 RMK AC1AC1 SLP112

CYHM;2011-05-07 06:00;CYHM 070600Z 22006KT 15SM FEW075 FEW160 06/06 A2984 RMK AC1AC1 SLP108

CYHM;2011-05-07 07:00;CYHM 070700Z 23005KT 15SM FEW080 OVC120 06/06 A2983 RMK AC2AC6 SLP104

CYHM;2011-05-07 08:00;CYHM 070800Z 25004KT 15SM FEW070 BKN090 BKN170 06/06 A2983 RMK AC2AC3AC1 SLP106

CYHM;2011-05-07 08:27;CYHM 070827Z 27006KT 15SM -SHRA BKN045 OVC073 RMK SC6AC2

CYHM;2011-05-07 09:00;CYHM 070900Z 24006KT 15SM -SHRA OVC065 07/07 A2984 RMK SC8 SLP110

CYHM;2011-05-07 10:00;CYHM 071000Z 21005KT 12SM -SHRA SCT055 OVC088 07/07 A2984 RMK SC4AC4 CU ASOCTD SLP107

CYHM;2011-05-07 10:36;CYHM 071036Z 23002KT 15SM SCT058 BKN091 RMK SC4AC2

CYHM;2011-05-07 11:00;CYHM 071100Z 24002KT 15SM SCT060 BKN083 07/07 A2985 RMK SC3AC4 SLP112

CYHM;2011-05-07 12:00;CYHM 071200Z 25003KT 15SM BKN064 BKN078 BKN100 08/07 A2987 RMK SC5AC2AC1 SLP118

CYHM;2011-05-07 13:00;CYHM 071300Z 24003KT 15SM FEW064 BKN081 09/08 A2987 RMK SC1AC5 SLP120

CYHM;2011-05-07 14:00;CYHM 071400Z 25002KT 15SM FEW025 FEW080 11/07 A2987 RMK CU1AC2 CU TR SLP118

CYHM;2011-05-07 15:00;CYHM 071500Z 00000KT 15SM SCT022 13/07 A2987 RMK CU3 SLP117

CYHM;2011-05-07 16:00;CYHM 071600Z 23006KT 15SM BKN032 14/08 A2987 RMK SC7 CU ASOCTD SLP118

CYHM;2011-05-07 17:00;CYHM 071700Z 31004KT 15SM SCT035 BKN054 14/07 A2987 RMK SC4SC3 SLP119

CYHM;2011-05-07 18:00;CYHM 071800Z 31002KT 15SM FEW041 BKN064 15/07 A2987 RMK SC2SC5 WND L/V SLP117

CYHM;2011-05-07 19:00;CYHM 071900Z 30006KT 260V330 15SM SCT041 BKN067 16/06 A2987 RMK CU3AC3 SLP117

CYHM;2011-05-07 20:00;CYHM 072000Z 02005KT 340V060 15SM FEW040 BKN067 15/08 A2987 RMK CU2AC3 SLP118

CYHM;2011-05-07 21:00;CYHM 072100Z 02002KT 15SM FEW040 BKN067 16/07 A2987 RMK CU2AC3 WND L/V SLP117

CYHM;2011-05-07 22:00;CYHM 072200Z 11002KT 15SM FEW040 SCT048 BKN068 15/08 A2988 RMK CU2SC2AC2 WND L/V SLP120

CYHM;2011-05-07 23:00;CYHM 072300Z 09002KT 15SM FEW042 SCT064 15/07 A2988 RMK CU2SC2 SLP120

CYHM;2011-05-08 00:00;CYHM 080000Z 15004KT 15SM FEW042 FEW064 FEW250 13/08 A2989 RMK CU1SC1CI0 SLP125

CYHM;2011-05-08 01:00;CYHM 080100Z 16005KT 15SM FEW067 11/09 A2991 RMK AC1 SLP130

CYHM;2011-05-08 02:00;CYHM 080200Z 14004KT 15SM FEW054 10/08 A2992 RMK SC2 SLP134

CYHM;2011-05-08 03:00;CYHM 080300Z 00000KT 15SM FEW050 10/08 A2993 RMK SC1 SLP138

CYHM;2011-05-08 04:00;CYHM 080400Z 30003KT 15SM SCT054 08/07 A2994 RMK SC4 SLP140

CYHM;2011-05-08 05:00;CYHM 080500Z 04007KT 15SM FEW050 09/06 A2995 RMK SC1 SLP144

CYHM;2011-05-08 06:00;CYHM 080600Z 04006KT 15SM FEW050 08/05 A2995 RMK SC1 SLP144

CYHM;2011-05-08 07:00;CYHM 080700Z 02006KT 15SM FEW040 07/04 A2996 RMK SC1 SLP148

CYHM;2011-05-08 08:00;CYHM 080800Z 03009KT 15SM SKC 07/03 A2996 RMK SLP149

CYHM;2011-05-08 09:00;CYHM 080900Z 03007KT 15SM FEW040 07/04 A2997 RMK SC1 SLP153

CYHM;2011-05-08 10:00;CYHM 081000Z 04009KT 15SM FEW210 07/03 A2998 RMK CI1 SLP155

CYHM;2011-05-08 11:00;CYHM 081100Z 04010KT 15SM FEW220 08/04 A3000 RMK CI1 SLP160

CYHM;2011-05-08 12:00;CYHM 081200Z 05010KT 15SM SKC 10/03 A3002 RMK SLP168

CYHM;2011-05-08 13:00;CYHM 081300Z 05010KT 15SM SKC 11/04 A3003 RMK SLP172

CYHM;2011-05-08 14:00;CYHM 081400Z 06008KT 15SM SKC 12/04 A3004 RMK SLP174

CYHM;2011-05-08 15:00;CYHM 081500Z 08008KT 040V120 15SM SKC 13/04 A3004 RMK SLP175

CYHM;2011-05-08 16:00;CYHM 081600Z 02006KT 340V070 15SM FEW042 14/04 A3004 RMK CU1 SLP175

CYHM;2011-05-08 17:00;CYHM 081700Z 02006KT 320V070 15SM FEW042 15/04 A3003 RMK CU1 SLP173

CYHM;2011-05-08 18:00;CYHM 081800Z 05008KT 340V090 15SM FEW045 16/04 A3002 RMK CU1 SLP169

CYHM;2011-05-08 19:00;CYHM 081900Z 04007KT 350V090 15SM FEW045 16/04 A3001 RMK SC2 CU ASOCTD SLP167

CYHM;2011-05-08 20:00;CYHM 082000Z 05005KT 360V120 15SM FEW045 16/04 A3002 RMK SC2 CU ASOCTD SLP169

CYHM;2011-05-08 21:00;CYHM 082100Z 06008KT 030V100 15SM FEW045 16/03 A3002 RMK SC2 CU ASOCTD SLP170

CYHM;2011-05-08 22:00;CYHM 082200Z 06008KT 020V100 15SM FEW050 16/02 A3002 RMK SC2 CU ASOCTD SLP170

CYHM;2011-05-08 23:00;CYHM 082300Z 06008KT 030V100 15SM FEW050 16/03 A3004 RMK SC1 SLP175

CYHM;2011-05-09 00:00;CYHM 090000Z 07006KT 15SM FEW050 FEW200 14/04 A3005 RMK SC1CI1 CI TR SLP178

CYHM;2011-05-09 01:00;CYHM 090100Z 06004KT 15SM FEW050 FEW220 12/03 A3006 RMK SC1CI1 SC TR CI TR SLP182

CYHM;2011-05-09 02:00;CYHM 090200Z 03006KT 15SM SKC 09/05 A3007 RMK SLP186

CYHM;2011-05-09 03:00;CYHM 090300Z 03006KT 15SM SKC 09/04 A3007 RMK SLP188

CYHM;2011-05-09 04:00;CYHM 090400Z 02002KT 15SM SKC 09/04 A3009 RMK SLP192

CYHM;2011-05-09 05:00;CYHM 090500Z 34002KT 15SM SKC 07/04 A3009 RMK SLP194

CYHM;2011-05-09 06:00;CYHM 090600Z 00000KT 15SM SKC 08/04 A3009 RMK SLP193

CYHM;2011-05-09 07:00;CYHM 090700Z 03004KT 15SM SKC 08/03 A3010 RMK SLP197

CYHM;2011-05-09 08:00;CYHM 090800Z 03006KT 15SM SKC 08/02 A3011 RMK SLP200

CYHM;2011-05-09 09:00;CYHM 090900Z 03005KT 15SM SKC 07/02 A3013 RMK SLP205

CYHM;2011-05-09 10:00;CYHM 091000Z 03005KT 15SM SKC 07/02 A3014 RMK SLP210

CYHM;2011-05-09 11:00;CYHM 091100Z 03004KT 15SM FEW220 08/03 A3016 RMK CI1 SLP215

CYHM;2011-05-09 12:00;CYHM 091200Z 03004KT 15SM FEW210 11/05 A3017 RMK CI1 CI TR SLP221

CYHM;2011-05-09 13:00;CYHM 091300Z 09002KT 15SM FEW210 13/06 A3019 RMK CI1 CI TR SLP225

CYHM;2011-05-09 14:00;CYHM 091400Z 06006KT 15SM FEW025 14/05 A3018 RMK CU1 CU TR SLP224

CYHM;2011-05-09 15:00;CYHM 091500Z 06012KT 15SM FEW025 FEW220 14/03 A3018 RMK CU1CI1 SLP223

CYHM;2011-05-09 16:00;CYHM 091600Z 06012KT 15SM FEW030 FEW220 14/03 A3017 RMK CU1CI1 CU TR SLP221

CYHM;2011-05-09 17:00;CYHM 091700Z 08012KT 15SM FEW030 FEW240 15/04 A3016 RMK CU1CI1 SLP215

CYHM;2011-05-09 18:00;CYHM 091800Z 07008KT 15SM FEW240 16/04 A3014 RMK CI1 CONTRAILS SLP209

CYHM;2011-05-09 19:00;CYHM 091900Z 08007KT 15SM FEW250 16/04 A3011 RMK CI0 SLP201

CYHM;2011-05-09 20:00;CYHM 092000Z 06010KT 15SM FEW250 17/04 A3012 RMK CI1 CI TR SLP203

CYHM;2011-05-09 21:00;CYHM 092100Z 05006KT 15SM FEW250 16/03 A3011 RMK CI1 CI TR SLP199

CYHM;2011-05-09 22:00;CYHM 092200Z 06006KT 15SM FEW250 16/03 A3012 RMK CI1 CI TR SLP202

CYHM;2011-05-09 23:00;CYHM 092300Z 08007KT 15SM FEW250 16/03 A3011 RMK CI1 SLP199

CYHM;2011-05-10 00:00;CYHM 100000Z 09005KT 15SM FEW250 14/04 A3008 RMK CI1 SLP190

CYHM;2011-05-10 01:00;CYHM 100100Z 00000KT 15SM SCT250 13/03 A3007 RMK CI2 SLP185

CYHM;2011-05-10 02:00;CYHM 100200Z 09005KT 15SM BKN250 11/04 A3006 RMK CS4 SLP183

CYHM;2011-05-10 03:00;CYHM 100300Z 10004KT 15SM FEW250 11/02 A3007 RMK CI1 SLP185

CYHM;2011-05-10 04:00;CYHM 100400Z 08005KT 15SM FEW250 11/02 A3008 RMK CI1 SLP189

CYHM;2011-05-10 05:00;CYHM 100500Z 06006KT 15SM BKN250 11/02 A3008 RMK CI2 SLP189

CYHM;2011-05-10 06:00;CYHM 100600Z 04007KT 15SM BKN250 09/03 A3008 RMK CI2 SLP190

CYHM;2011-05-10 07:00;CYHM 100700Z 03006KT 15SM BKN250 09/04 A3009 RMK CI2 SLP192

CYHM;2011-05-10 08:00;CYHM 100800Z 04005KT 15SM OVC250 08/04 A3009 RMK CS3 SLP191

CYHM;2011-05-10 09:00;CYHM 100900Z 04007KT 15SM BKN200 08/04 A3008 RMK CS6 SLP189

CYHM;2011-05-10 10:00;CYHM 101000Z 05004KT 15SM BKN190 08/03 A3009 RMK AC5 SLP191

CYHM;2011-05-10 11:00;CYHM 101100Z 03009KT 15SM FEW110 BKN160 08/04 A3010 RMK AC2AS5 SLP195

CYHM;2011-05-10 12:00;CYHM 101200Z 06008KT 15SM FEW100 BKN150 OVC210 10/06 A3010 RMK AC2AS4CI2 SLP195

CYHM;2011-05-10 13:00;CYHM 101300Z 06008KT 15SM FEW120 BKN160 OVC210 12/06 A3011 RMK AC2AS4CI2 SLP199

CYHM;2011-05-10 14:00;CYHM 101400Z 07008KT 15SM FEW150 BKN220 14/06 A3010 RMK AC2CI4 SLP197

CYHM;2011-05-10 15:00;CYHM 101500Z 05015KT 15SM FEW170 BKN220 15/05 A3009 RMK AC1CI3 CONTRAILS SLP191

CYHM;2011-05-10 16:00;CYHM 101600Z 05015KT 15SM FEW170 BKN220 15/06 A3007 RMK AC1CI4 CONTRAILS SLP187

CYHM;2011-05-10 17:00;CYHM 101700Z 06015KT 15SM FEW130 BKN160 BKN220 14/05 A3007 RMK AC1AS6CI1 SLP186

CYHM;2011-05-10 18:00;CYHM 101800Z 07014KT 15SM FEW130 BKN150 BKN210 14/04 A3006 RMK AC2AC3CI2 SLP183

CYHM;2011-05-10 19:00;CYHM 101900Z 05014G20KT 15SM SCT120 BKN160 BKN220 13/02 A3005 RMK AC3AC2CS1 SLP179

CYHM;2011-05-10 20:00;CYHM 102000Z 06014G19KT 15SM BKN120 BKN150 OVC220 13/01 A3004 RMK AC5AC2CS1 SLP177

CYHM;2011-05-10 21:00;CYHM 102100Z 06015KT 15SM FEW084 BKN120 OVC160 13/M01 A3003 RMK AC2AC5AC1 SLP174

CYHM;2011-05-10 22:00;CYHM 102200Z 04015KT 15SM FEW100 OVC160 13/M00 A3004 RMK AC2AC6 SLP177

CYHM;2011-05-10 23:00;CYHM 102300Z CCA 06013KT 15SM -SHRA FEW076 BKN092 OVC160 10/02 A3004 RMK AC2AC5AC2 SLP176

CYHM;2011-05-11 00:00;CYHM 110000Z 04010KT 15SM BKN093 BKN130 09/03 A3003 RMK AC6AC1 SLP173

CYHM;2011-05-11 01:00;CYHM 110100Z 04015KT 15SM FEW090 OVC110 10/02 A3002 RMK AC2AC6 SLP170

CYHM;2011-05-11 02:00;CYHM 110200Z 04013KT 15SM FEW078 OVC110 10/02 A3003 RMK AC2AC6 SLP172

CYHM;2011-05-11 03:00;CYHM 110300Z 04012KT 15SM BKN082 BKN100 BKN130 10/03 A3004 RMK AC5AC2AC1 SLP174

CYHM;2011-05-11 04:00;CYHM 110400Z 04010KT 15SM FEW080 BKN110 BKN130 10/03 A3004 RMK AC2AC4AC1 SLP175

CYHM;2011-05-11 05:00;CYHM 110500Z 04008KT 15SM FEW092 BKN120 09/03 A3004 RMK AC2AC6 SLP175

CYHM;2011-05-11 06:00;CYHM 110600Z 04010KT 15SM FEW094 BKN120 08/04 A3002 RMK AC1AC3 SLP168

CYHM;2011-05-11 07:00;CYHM 110700Z 04014KT 15SM BKN120 09/05 A3001 RMK AC6 SLP164

CYHM;2011-05-11 08:00;CYHM 110800Z 04012KT 15SM SCT110 09/04 A3003 RMK AC3 SLP172

CYHM;2011-05-11 09:00;CYHM 110900Z 05015KT 15SM FEW084 FEW110 FEW250 09/05 A3004 RMK AC1AC2CI1 1ST LYR TR CI TR SLP175

CYHM;2011-05-11 10:00;CYHM 111000Z 04013KT 15SM FEW100 FEW250 08/05 A3004 RMK AC1CI1 CI TR SLP176

CYHM;2011-05-11 11:00;CYHM 111100Z 05010KT 15SM FEW120 FEW240 08/05 A3004 RMK AC1CI1 SLP178

CYHM;2011-05-11 12:00;CYHM 111200Z 03012KT 15SM FEW240 08/06 A3006 RMK CI1 CONTRAILS SLP183

CYHM;2011-05-11 13:00;CYHM 111300Z 03014KT 15SM FEW240 09/06 A3007 RMK CI1 SLP189

CYHM;2011-05-11 14:00;CYHM 111400Z 04014KT 15SM FEW220 11/07 A3006 RMK CI1 SLP183

CYHM;2011-05-11 15:00;CYHM 111500Z 03014KT 15SM SCT220 11/07 A3008 RMK CI2 SLP191

CYHM;2011-05-11 16:00;CYHM 111600Z 05016KT 15SM FEW170 BKN210 11/07 A3009 RMK AC1CI2 SLP193

CYHM;2011-05-11 17:00;CYHM 111700Z 04015KT 15SM FEW180 BKN220 12/08 A3010 RMK AC1CI3 SLP195

CYHM;2011-05-11 18:00;CYHM 111800Z 02018KT 15SM BKN210 12/08 A3010 RMK CI4 SLP198

CYHM;2011-05-11 19:00;CYHM 111900Z 04015KT 15SM BKN220 14/08 A3010 RMK CI6 CONTRAILS SLP197

CYHM;2011-05-11 20:00;CYHM 112000Z 04016KT 15SM FEW180 BKN210 14/07 A3007 RMK AC1CI5 SLP188

CYHM;2011-05-11 21:00;CYHM 112100Z 04015KT 15SM FEW160 BKN210 15/07 A3006 RMK AC1CI6 SLP181

CYHM;2011-05-11 22:00;CYHM 112200Z 06013KT 15SM BKN200 15/07 A3002 RMK CI4 SLP169

CYHM;2011-05-11 23:00;CYHM 112300Z 03013KT 15SM SCT200 14/07 A3002 RMK CI3 CONTRAILS SLP169

CYHM;2011-05-12 00:00;CYHM 120000Z 02013KT 15SM BKN200 11/06 A3003 RMK CI5 CONTRAILS SLP174

CYHM;2011-05-12 01:00;CYHM 120100Z 03012KT 15SM BKN250 11/06 A3002 RMK CI6 SLP171

CYHM;2011-05-12 02:00;CYHM 120200Z 02012KT 15SM FEW250 11/06 A3004 RMK CI1 SLP175

CYHM;2011-05-12 03:00;CYHM 120300Z 03009KT 15SM FEW240 10/06 A3003 RMK CI1 SLP174

CYHM;2011-05-12 04:00;CYHM 120400Z 03011KT 15SM FEW220 10/07 A3002 RMK CI2 SLP171

CYHM;2011-05-12 05:00;CYHM 120500Z 04012KT 15SM FEW220 10/07 A3002 RMK CI1 SLP170

CYHM;2011-05-12 06:00;CYHM 120600Z 04013KT 15SM FEW210 10/07 A3002 RMK CI2 SLP170

CYHM;2011-05-12 07:00;CYHM 120700Z 04010KT 15SM FEW210 10/07 A3001 RMK CI2 SLP167

CYHM;2011-05-12 08:00;CYHM 120800Z 03013KT 15SM SCT250 11/07 A3001 RMK CI3 SLP166

CYHM;2011-05-12 09:00;CYHM 120900Z 03015KT 15SM BKN250 10/07 A2998 RMK CI4 SLP156

CYHM;2011-05-12 10:00;CYHM 121000Z 03011KT 15SM BKN250 09/07 A2999 RMK CI3 SLP159

CYHM;2011-05-12 11:00;CYHM 121100Z 03008KT 15SM FEW095 SCT160 BKN220 10/08 A2999 RMK AC1AC2CI2 SLP159

CYHM;2011-05-12 12:00;CYHM 121200Z 03010KT 15SM FEW140 BKN210 10/08 A2998 RMK AC1CI6 SLP155

CYHM;2011-05-12 13:00;CYHM 121300Z 04015KT 15SM BKN170 BKN220 12/09 A2997 RMK AC5CI2 SLP153

CYHM;2011-05-12 14:00;CYHM 121400Z 05002KT 15SM FEW120 BKN160 BKN220 12/08 A2999 RMK AC2AC4CI2 SLP158

CYHM;2011-05-12 15:00;CYHM 121500Z 02008KT 15SM OVC130 13/09 A2998 RMK AC8 SLP156

CYHM;2011-05-12 16:00;CYHM 121600Z 02008KT 15SM BKN110 BKN140 OVC210 13/09 A2998 RMK AC6AC2CI1 SLP157

CYHM;2011-05-12 17:00;CYHM 121700Z 04008KT 15SM BKN083 OVC110 13/09 A2997 RMK AC6AC2 SLP154

CYHM;2011-05-12 18:00;CYHM 121800Z 05010KT 15SM BKN110 BKN140 OVC210 13/09 A2997 RMK AC5AC2CI1 SLP152

CYHM;2011-05-12 19:00;CYHM 121900Z CCA 07010KT 15SM -SHRA FEW084 OVC120 13/09 A2997 RMK AC2AC6 PCPN VRY LGT SLP151

CYHM;2011-05-12 19:40;CYHM 121940Z 06012KT 15SM BKN081 BKN120 RMK AC6AC2

CYHM;2011-05-12 20:00;CYHM 122000Z 06011KT 15SM BKN087 BKN120 15/10 A2994 RMK AC5AC2 SLP143

CYHM;2011-05-12 21:00;CYHM 122100Z 07008KT 15SM FEW120 BKN250 17/10 A2991 RMK AC2CI2 SLP130

CYHM;2011-05-12 22:00;CYHM 122200Z 04008KT 15SM SCT110 BKN250 16/09 A2989 RMK AC3CI3 SLP125

CYHM;2011-05-12 23:00;CYHM 122300Z 06008KT 15SM FEW110 BKN250 16/09 A2988 RMK AC2CI2 SLP121

CYHM;2011-05-13 00:00;CYHM 130000Z 05006KT 15SM FEW110 FEW140 BKN250 14/09 A2988 RMK AC1AC1CI2 SLP122

CYHM;2011-05-13 01:00;CYHM 130100Z 05005KT 15SM FEW070 BKN250 13/09 A2988 RMK AC1CI2 SLP120

CYHM;2011-05-13 02:00;CYHM 130200Z 05006KT 15SM FEW075 BKN250 13/09 A2988 RMK AC2CI2 SLP120

CYHM;2011-05-13 03:00;CYHM 130300Z 03007KT 15SM FEW063 SCT250 13/10 A2987 RMK SC2CI1 SLP116

CYHM;2011-05-13 04:00;CYHM 130400Z 03007KT 15SM FEW250 12/09 A2985 RMK CI1 SLP111

CYHM;2011-05-13 05:00;CYHM 130500Z 05006KT 15SM FEW250 12/09 A2983 RMK CI0 SLP104

CYHM;2011-05-13 06:00;CYHM 130600Z 06008KT 15SM SKC 12/09 A2982 RMK SLP101

CYHM;2011-05-13 07:00;CYHM 130700Z 06008KT 15SM FEW250 11/08 A2981 RMK CI0 SLP096

CYHM;2011-05-13 08:00;CYHM 130800Z 07003KT 15SM FEW160 10/08 A2981 RMK AC1 SLP096

CYHM;2011-05-13 09:00;CYHM 130900Z 00000KT 15SM FEW160 09/08 A2980 RMK AC1 SLP092

CYHM;2011-05-13 10:00;CYHM 131000Z 00000KT 15SM FEW160 FEW250 09/08 A2978 RMK AC1CI0 AC TR SLP088

CYHM;2011-05-13 11:00;CYHM 131100Z 00000KT 15SM BKN046 BKN160 BKN220 11/10 A2980 RMK SC5AC1CI1 SLP094

CYHM;2011-05-13 12:00;CYHM 131200Z 04004KT 15SM BKN055 BKN120 14/11 A2980 RMK SC5AC2 SLP093

CYHM;2011-05-13 13:00;CYHM 131300Z 13003KT 15SM FEW055 BKN220 16/10 A2980 RMK SC1CI2 SLP093

CYHM;2011-05-13 14:00;CYHM 131400Z 12002KT 15SM FEW160 BKN220 18/12 A2979 RMK AC1CI3 SLP090

CYHM;2011-05-13 15:00;CYHM 131500Z 13002KT 15SM FEW120 BKN220 20/14 A2978 RMK AC1CI2 SLP085

CYHM;2011-05-13 16:00;CYHM 131600Z 13003KT 15SM FEW130 BKN220 22/15 A2976 RMK AC1CI2 SLP079

CYHM;2011-05-13 17:00;CYHM 131700Z 12004KT 15SM FEW210 24/17 A2975 RMK CI1 SLP073

CYHM;2011-05-13 18:00;CYHM 131800Z 18005KT 15SM FEW062 FEW220 25/18 A2972 RMK SC1CI1 SLP065

CYHM;2011-05-13 19:00;CYHM 131900Z 19007KT 15SM FEW030 FEW063 SCT110 BKN170 25/19 A2969 RMK CF1SC1AC2AC2 CONTRAILS SLP055

CYHM;2011-05-13 20:00;CYHM 132000Z 22007KT 15SM FEW036 FEW110 BKN210 26/19 A2967 RMK CU2AC1CI2 SLP046

CYHM;2011-05-13 21:00;CYHM 132100Z 19005KT 15SM FEW040 FEW080 SCT170 BKN210 25/16 A2965 RMK CU2AC1AC2CI2 SLP041

CYHM;2011-05-13 22:00;CYHM 132200Z 05007KT 15SM FEW040 BKN080 BKN140 23/16 A2965 RMK CU2AC2AC2 SLP041

CYHM;2011-05-13 23:00;CYHM 132300Z 02013G25KT 7SM FEW040 BKN065 OVC140 17/11 A2968 RMK CU2SC5AC2 SHWRS SW COLD FROPA HZ PRESRR SLP050

CYHM;2011-05-13 23:49;CYHM 132349Z 04011KT 10SM -SHRA FEW030 OVC046 RMK CU2SC6

CYHM;2011-05-14 00:00;CYHM 140000Z 05013KT 6SM -SHRA FEW030 OVC044 16/12 A2970 RMK CU2SC6 SLP057

CYHM;2011-05-14 00:37;CYHM 140037Z 04012KT 4SM +SHRA BKN008TCU OVC022 RMK TCU6SC2

CYHM;2011-05-14 00:41;CYHM 140041Z 05016KT 1 1/2SM +SHRA BKN009TCU OVC026 RMK RA2TCU5SC2 VIS VRB 1 - 2

CYHM;2011-05-14 00:53;CYHM 140053Z 05013G18KT 4SM -SHRA FEW030 OVC063 RERA RMK SC2SC6 TCU ASOCTD

CYHM;2011-05-14 01:00;CYHM 140100Z 04011KT 6SM -SHRA FEW030 BKN050 OVC110 15/13 A2970 RERA RMK SC2SC6AC1 TCU ASOCTD SLP059

CYHM;2011-05-14 02:00;CYHM 140200Z 06008KT 4SM -SHRA BKN032 OVC053 14/14 A2971 RERA RMK SC6SC2 TCU ASOCTD SLP062

CYHM;2011-05-14 02:14;CYHM 140214Z 08008KT 2SM -SHRA BR BKN018 OVC036 RERA RMK FG1SC6SC2

CYHM;2011-05-14 03:00;CYHM 140300Z 00000KT 1 1/2SM -SHRA BR FEW007 OVC078 15/15 A2971 RMK FG2SF1AC6 VIS VRB 1 - 2 SLP060

CYHM;2011-05-14 03:18;CYHM 140318Z 08004KT 1 1/2SM -SHRA BR OVC002 RMK FG2SF6 VIS VRB 1 - 2

CYHM;2011-05-14 04:00;CYHM 140400Z 00000KT 1 1/2SM -SHRA BR SCT003 OVC110 15/15 A2970 RMK FG2SF2AC4 VIS VRB 1 - 2 SLP057

CYHM;2011-05-14 04:43;CYHM 140443Z 00000KT 5SM -SHRA BR OVC083 RMK AC8

CYHM;2011-05-14 05:00;CYHM 140500Z 05003KT 5SM -SHRA BR OVC077 15/15 A2969 RMK AC8 SLP053

CYHM;2011-05-14 05:44;CYHM 140544Z 03005KT 1 1/2SM -SHRA BR FEW063 OVC097 RMK FG2SC1AC6 VIS VRB 1 - 2

CYHM;2011-05-14 06:00;CYHM 140600Z 03005KT 1 1/2SM -SHRA BR SCT063 OVC130 15/15 A2967 RMK FG2SC2AC5 VIS VRB 1 - 2 /R15/ SLP046

CYHM;2011-05-14 06:16;CYHM 140616Z 02006KT 1SM -SHRA BR OVC007 RMK FG2SF6 VIS VRB 3/4 - 11/4

CYHM;2011-05-14 07:00;CYHM 140700Z 06005KT 1/8SM -SHRA FG VV001 14/14 A2967 RMK FG8 SLP045

CYHM;2011-05-14 08:00;CYHM 140800Z 04006KT 1/2SM -SHRA FG VV001 14/14 A2967 RMK FG8 SLP046

CYHM;2011-05-14 08:07;CYHM 140807Z 05007KT 1SM BR OVC065 RMK FG2SC6 VIS VRB 3/4 - 11/4

CYHM;2011-05-14 08:52;CYHM 140852Z 05007KT 1 1/2SM BR OVC002 RMK FG2SF6 VIS VRB 1 - 2

CYHM;2011-05-14 09:00;CYHM 140900Z 05009KT 3/4SM BR OVC002 14/14 A2968 RMK FG3SF5 VIS VRB 1/2 - 1 SLP047

CYHM;2011-05-14 09:09;CYHM 140909Z 05011KT 1/8SM FG VV001 RMK FG8

CYHM;2011-05-14 10:00;CYHM 141000Z 04006KT 1/8SM FG VV001 14/14 A2967 RMK FG8 SLP046

CYHM;2011-05-14 10:29;CYHM 141029Z 04004KT 1/4SM FG OVC067 RMK FG5AC3

CYHM;2011-05-14 10:44;CYHM 141044Z 04004KT 3/4SM BR OVC065 RMK FG3SC5

CYHM;2011-05-14 11:00;CYHM 141100Z 05005KT 1SM BR OVC065 15/15 A2968 RMK FG2SC6 SLP049

CYHM;2011-05-14 11:39;CYHM 141139Z 03006KT 1SM BR BKN002 OVC018 RMK FG2SF4SC2

CYHM;2011-05-14 12:00;CYHM 141200Z 02006KT 3/8SM FG BKN002 OVC018 14/14 A2969 RMK FG5SF2SC2 SLP056

CYHM;2011-05-14 12:42;CYHM 141242Z 03006KT 1/2SM -SHRA FG BKN002 OVC013 RMK FG4SF2SC2

CYHM;2011-05-14 13:00;CYHM 141300Z 03006KT 1SM -SHRA BR BKN002 OVC011 14/14 A2969 RMK FG2SF3SC2 SLP055

CYHM;2011-05-14 14:00;CYHM 141400Z 03006KT 1 1/2SM -SHRA BR BKN001 OVC010 14/14 A2969 RMK FG2SF4SC2 PCPN VRY LGT SLP054

CYHM;2011-05-14 15:00;CYHM 141500Z 05006KT 1 1/2SM BR BKN002 OVC006 15/15 A2969 RMK FG2SF3SC3 SLP054

CYHM;2011-05-14 15:28;CYHM 141528Z 05006KT 1 1/4SM -DZ BR BKN002 OVC005 RMK FG2SF3SC2

CYHM;2011-05-14 16:00;CYHM 141600Z 04005KT 1/2SM -DZ FG BKN002 OVC006 14/14 A2969 RMK FG5SF2SC2 SLP055

CYHM;2011-05-14 16:25;CYHM 141625Z 05005KT 1SM -DZ BR BKN002 OVC006 RMK FG3SF3SC2

CYHM;2011-05-14 17:00;CYHM 141700Z 05005KT 1 1/4SM -DZ BR BKN002 OVC005 14/14 A2968 RMK FG3SF3SC2 SLP051

CYHM;2011-05-14 18:00;CYHM 141800Z 03003KT 1 1/4SM -DZ BR OVC002 15/15 A2967 RMK FG3SF5 PCPN VRY LGT SLP047

CYHM;2011-05-14 18:12;CYHM 141812Z 03003KT 1 1/4SM -RA BR OVC002 RMK FG3SF5

CYHM;2011-05-14 19:00;CYHM 141900Z 02003KT 1 1/4SM -RA BR OVC002 15/15 A2966 RMK FG3ST5 SLP044

CYHM;2011-05-14 20:00;CYHM 142000Z 02005KT 1 3/4SM -RA BR OVC003 15/15 A2964 RMK FG2ST6 VIS VRB 11/4-21/4 SLP039

CYHM;2011-05-14 20:23;CYHM 142023Z 04005KT 1 1/4SM -RA BR OVC002 RMK FG3ST5

CYHM;2011-05-14 21:00;CYHM 142100Z 04007KT 1 1/4SM -RA BR OVC002 15/15 A2963 RMK FG3ST5 VIS VRB 3/4-13/4 SLP035

CYHM;2011-05-14 21:46;CYHM 142146Z 04006KT 3/4SM -RA BR OVC001 RMK FG4ST4

CYHM;2011-05-14 22:00;CYHM 142200Z 03006KT 3/4SM -RA BR OVC002 15/15 A2963 RMK FG4ST4 VIS VRB 1/2-1 SLP033

CYHM;2011-05-14 23:00;CYHM 142300Z 02009KT 3/4SM -RA BR OVC002 14/14 A2962 RMK FG4ST4 SLP032

CYHM;2011-05-14 23:35;CYHM 142335Z 03013KT 2SM -RA BR OVC005 RMK FG1SF7

CYHM;2011-05-15 00:00;CYHM 150000Z 03012KT 2SM -RA BR BKN003 OVC007 13/13 A2964 RMK FG1SF5SF2 SLP038

CYHM;2011-05-15 00:44;CYHM 150044Z 05012KT 3SM -RA BR OVC004 RMK SF8 VIS VRB 2 - 4

CYHM;2011-05-15 01:00;CYHM 150100Z 05009KT 4SM -RA BR OVC003 13/13 A2965 RMK SF8 SLP043

CYHM;2011-05-15 01:08;CYHM 150108Z 05012KT 2SM -RA BR OVC004 RMK FG1SF7

CYHM;2011-05-15 01:14;CYHM 150114Z 04013KT 5SM -RA BR OVC005 RMK SF8

CYHM;2011-05-15 01:26;CYHM 150126Z 04016KT 1 1/2SM -RA BR OVC004 RMK FG2SF6 VIS VRB 1 - 2

CYHM;2011-05-15 01:37;CYHM 150137Z 04016KT 5SM -RA BR OVC005 RMK SF8

CYHM;2011-05-15 02:00;CYHM 150200Z 05018KT 1 1/2SM -RA BR OVC003 13/13 A2965 RMK FG2SF6 VIS VRB 1 - 2 SLP043

CYHM;2011-05-15 03:00;CYHM 150300Z 05018G25KT 1 1/2SM -RA BR OVC002 12/12 A2966 RMK FG2SF6 VIS VRB 1 - 2 SLP045

CYHM;2011-05-15 04:00;CYHM 150400Z 05018G25KT 1 1/2SM -RA BR OVC003 12/12 A2967 RMK FG2SF6 VIS VRB 1 - 2 SLP047

CYHM;2011-05-15 05:00;CYHM 150500Z 05015G20KT 1 1/2SM -RA BR OVC002 12/12 A2966 RMK FG2SF6 VIS VRB 1 - 2 SLP045

CYHM;2011-05-15 05:46;CYHM 150546Z 04020G28KT 5SM -RA BR OVC007 RMK SF8

CYHM;2011-05-15 06:00;CYHM 150600Z 05020KT 4SM -RA BR OVC005 12/12 A2965 RMK SF8 CIG RAG SLP043

CYHM;2011-05-15 07:00;CYHM 150700Z 03018G23KT 6SM -RA BR OVC005 12/12 A2964 RMK SF8 SLP039

CYHM;2011-05-15 08:00;CYHM 150800Z 04020G25KT 6SM -RA BR BKN005 OVC015 11/11 A2965 RMK SF6SC2 SLP040

CYHM;2011-05-15 09:00;CYHM 150900Z 03018G27KT 4SM -RA BR OVC004 11/11 A2964 RMK SF8 SLP037

CYHM;2011-05-15 09:33;CYHM 150933Z 03022G29KT 2SM -RA BR OVC005 RMK FG1SF7

CYHM;2011-05-15 10:00;CYHM 151000Z 04024G30KT 2SM -RA BR OVC007 10/10 A2965 RMK FG1SF7 CIG RAG SLP042

CYHM;2011-05-15 10:38;CYHM 151038Z 04022G30KT 5SM -RA BR OVC006 RMK SC8

CYHM;2011-05-15 11:00;CYHM 151100Z 04023G31KT 2 1/2SM -RA BR BKN005 OVC012 09/09 A2966 RMK SC7SC1 SLP045

CYHM;2011-05-15 11:37;CYHM 151137Z 04026G32KT 2SM -RA BR BKN004 OVC010 RMK FG1SF6SC2

CYHM;2011-05-15 12:00;CYHM 151200Z 04026G36KT 1 1/2SM -RA BR BKN004 OVC009 09/09 A2966 RMK FG2SF5SC2 SLP048

CYHM;2011-05-15 13:00;CYHM 151300Z 04022G32KT 1 1/4SM -RA BR BKN004 OVC008 08/08 A2968 RMK FG2SF5SC2 SLP053

CYHM;2011-05-15 14:00;CYHM 151400Z 04023G36KT 1 1/2SM -RA BR BKN004 OVC008 09/09 A2968 RMK FG2SF5SC2 SLP054

CYHM;2011-05-15 15:00;CYHM 151500Z 05021G30KT 1 1/2SM -RA BR BKN004 OVC009 09/09 A2968 RMK FG2SF5SC2 SLP055

CYHM;2011-05-15 16:00;CYHM 151600Z 04021G31KT 2SM -RA BR BKN004 OVC009 08/08 A2969 RMK FG1SF6SC2 SLP058

CYHM;2011-05-15 17:00;CYHM 151700Z 04021KT 1 1/2SM -RA BR BKN006 OVC012 07/07 A2970 RMK FG2SF5SC2 SLP060

CYHM;2011-05-15 18:00;CYHM 151800Z 04018G26KT 1 1/2SM -RA BR BKN006 OVC012 08/08 A2970 RMK FG2SF6SC1 SLP061

CYHM;2011-05-15 19:00;CYHM 151900Z 03020G28KT 1 3/4SM -RA BR BKN006 OVC012 08/08 A2970 RMK FG2SF5SC2 VIS VRB 11/4-21/4 SLP062

CYHM;2011-05-15 19:34;CYHM 151934Z 03018G26KT 2 1/2SM -RA BR SCT004 BKN008 OVC014 RMK FG1SF2SF3SC2 VIS VRB 13/4-4

CYHM;2011-05-15 20:00;CYHM 152000Z 03017G23KT 3SM -RA BR SCT005 BKN009 OVC016 08/08 A2970 RMK SF3SF2SC2 SLP062

CYHM;2011-05-15 21:00;CYHM 152100Z 03017G22KT 4SM -RA BR FEW006 BKN012 OVC021 09/08 A2971 RMK SF2SC2SC3 SLP066

CYHM;2011-05-15 22:00;CYHM 152200Z 04017KT 5SM -RA BR FEW006 SCT014 OVC025 08/08 A2973 RMK SF2SC2SC4 SLP072

CYHM;2011-05-15 23:00;CYHM 152300Z 03015KT 6SM -RA BR FEW006 OVC027 09/08 A2975 RMK SF2SC6 SLP076

CYHM;2011-05-16 00:00;CYHM 160000Z 03017KT 9SM -RA FEW008 SCT025 OVC033 08/06 A2977 RMK SF1SC2SC5 /R10/ SLP084

CYHM;2011-05-16 01:00;CYHM 160100Z 03016KT 9SM -RA FEW025 BKN037 OVC050 08/06 A2979 RMK SC2SC4SC2 SLP091

CYHM;2011-05-16 02:00;CYHM 160200Z 03016KT 10SM -RA OVC044 07/06 A2979 RMK SC8 SLP092

CYHM;2011-05-16 03:00;CYHM 160300Z 03018G25KT 10SM -RA OVC044 07/05 A2979 RMK SC8 SLP092

CYHM;2011-05-16 04:00;CYHM 160400Z 02013G20KT 10SM -RA OVC040 07/05 A2979 RMK SC8 SLP092

CYHM;2011-05-16 05:00;CYHM 160500Z 02018G26KT 8SM -RA FEW024 OVC030 07/05 A2978 RMK SF2SC6 SLP088

CYHM;2011-05-16 06:00;CYHM 160600Z 04016G22KT 10SM -RA OVC025 06/05 A2978 RMK SC8 SLP089

CYHM;2011-05-16 07:00;CYHM 160700Z 03016G24KT 10SM -RA SCT016 OVC024 06/05 A2977 RMK SF4SC4 SLP085

CYHM;2011-05-16 08:00;CYHM 160800Z 05016G25KT 12SM -RA OVC019 07/04 A2975 RMK SC8 SLP080

CYHM;2011-05-16 09:00;CYHM 160900Z 05017G28KT 15SM -RA FEW018 OVC025 07/04 A2976 RMK SF2SC6 SLP082

CYHM;2011-05-16 09:33;CYHM 160933Z 05015KT 15SM OVC026 RMK SC8

CYHM;2011-05-16 10:00;CYHM 161000Z 06016KT 15SM -SHRA OVC030 07/04 A2977 RMK SC8 SLP085

CYHM;2011-05-16 11:00;CYHM 161100Z 06010KT 15SM OVC032 07/04 A2978 RMK SC8 SLP088

CYHM;2011-05-16 12:00;CYHM 161200Z 05010KT 15SM OVC025 07/04 A2980 RMK SC8 SLP096

CYHM;2011-05-16 13:00;CYHM 161300Z 03012KT 15SM FEW020 BKN025 OVC032 07/03 A2980 RMK CU1SC6SC2 SLP097

CYHM;2011-05-16 14:00;CYHM 161400Z 03010KT 15SM -SHRA BKN019 OVC025 07/04 A2981 RMK SC6SC2 SLP101

CYHM;2011-05-16 15:00;CYHM 161500Z 06012KT 5SM -SHRA BR FEW009 BKN023 OVC032 06/05 A2984 RMK SF2SC3SC2 SLP110

CYHM;2011-05-16 15:33;CYHM 161533Z 06010KT 6SM -SHRA BR BKN009 BKN012 OVC020 RMK SF5SC2SC1

CYHM;2011-05-16 16:00;CYHM 161600Z 06013KT 10SM -SHRA BKN012 BKN015 OVC020 06/06 A2985 RMK SF5SC2SC1 SLP113

CYHM;2011-05-16 17:00;CYHM 161700Z 07012KT 15SM -SHRA BKN012 OVC016 07/06 A2985 RMK SC6SC2 SLP115

CYHM;2011-05-16 18:00;CYHM 161800Z 06012KT 15SM -SHRA OVC010 07/06 A2986 RMK SC8 SLP116

CYHM;2011-05-16 18:11;CYHM 161811Z 05012KT 10SM -SHRA OVC007 RMK SC8

CYHM;2011-05-16 19:00;CYHM 161900Z 05012KT 4SM -SHRA BR OVC008 07/06 A2987 RMK SC8 SLP119

CYHM;2011-05-16 19:26;CYHM 161926Z 05010KT 1 1/4SM -SHRA BR OVC007 RMK SC8

CYHM;2011-05-16 20:00;CYHM 162000Z 05010KT 1 3/4SM -SHRA BR OVC007 07/07 A2988 RMK SC8 SLP123

CYHM;2011-05-16 20:27;CYHM 162027Z 06010KT 4SM -SHRA BR OVC006 RMK SC8

CYHM;2011-05-16 21:00;CYHM 162100Z 04012KT 3SM -SHRA BR OVC006 07/07 A2988 RMK SC8 SLP124

CYHM;2011-05-16 22:00;CYHM 162200Z 04010KT 2SM -SHRA BR OVC006 07/07 A2991 RMK SC8 SLP133

CYHM;2011-05-16 22:18;CYHM 162218Z 03007KT 5SM -SHRA BR OVC006 RMK SC8

CYHM;2011-05-16 23:00;CYHM 162300Z 06008KT 5SM -SHRA BR OVC007 07/07 A2991 RMK SC8 SLP135

CYHM;2011-05-17 00:00;CYHM 170000Z 06011KT 6SM -SHRA BR OVC007 07/07 A2993 RMK SC8 SLP140

CYHM;2011-05-17 01:00;CYHM 170100Z 06008KT 5SM -SHRA BR FEW003 BKN007 OVC014 07/07 A2994 RMK SF2SC6SC1 SLP144

CYHM;2011-05-17 02:00;CYHM 170200Z 06013KT 5SM BR BKN004 OVC009 07/07 A2995 RMK SF6SC2 SLP148

CYHM;2011-05-17 03:00;CYHM 170300Z 05009KT 1 3/4SM -SHRA BR OVC003 07/07 A2996 RMK SF8 SLP151

CYHM;2011-05-17 04:00;CYHM 170400Z 05008KT 1 1/4SM -SHRA BR OVC002 07/07 A2996 RMK SF8 SLP151

CYHM;2011-05-17 05:00;CYHM 170500Z 05008KT 1 1/4SM -SHRA BR OVC003 07/07 A2995 RMK SF8 SLP149

CYHM;2011-05-17 06:00;CYHM 170600Z 05011KT 2SM -SHRA BR OVC003 07/07 A2994 RMK SF8 SLP144

CYHM;2011-05-17 07:00;CYHM 170700Z 06013KT 2SM -SHRA BR OVC003 07/07 A2994 RMK SF8 SLP145

CYHM;2011-05-17 08:00;CYHM 170800Z 07012KT 1 1/4SM -SHRA BR OVC003 06/06 A2994 RMK SF8 SLP144

CYHM;2011-05-17 09:00;CYHM 170900Z 06012KT 1 1/4SM -SHRA BR OVC003 06/06 A2995 RMK SF8 SLP147

CYHM;2011-05-17 09:50;CYHM 170950Z CCA 05015KT 3/8SM -SHRA FG OVC003 RMK FG3SF5

CYHM;2011-05-17 10:00;CYHM 171000Z 06015KT 3/8SM -SHRA FG OVC003 06/06 A2994 RMK FG3SF5 SLP146

CYHM;2011-05-17 10:10;CYHM 171010Z 05015KT 1/2SM -SHRA FG OVC002 RMK FG4SF4 CIG250FT

CYHM;2011-05-17 10:47;CYHM 171047Z 06014KT 3/4SM -SHRA BR OVC002 RMK FG3SF5

CYHM;2011-05-17 11:00;CYHM 171100Z 05015KT 3/4SM -SHRA BR OVC002 06/06 A2996 RMK FG3SF5 SLP150

CYHM;2011-05-17 11:21;CYHM 171121Z 06015G20KT 1/2SM -SHRA FG OVC002 RMK FG4SF4

CYHM;2011-05-17 11:35;CYHM 171135Z 06018KT 1/8SM -SHRA FG VV001 RMK FG8

CYHM;2011-05-17 11:50;CYHM 171150Z 05022KT 1 1/2SM -SHRA BR OVC003 RMK FG2SF6

CYHM;2011-05-17 12:00;CYHM 171200Z 05022KT 3SM -SHRA BR OVC004 06/06 A2996 RMK SF8 SLP150

CYHM;2011-05-17 12:34;CYHM 171234Z 06020G25KT 1 1/2SM -SHRA BR OVC002 RMK FG3SF5

CYHM;2011-05-17 13:00;CYHM 171300Z 04018KT 1/2SM -SHRA FG OVC002 06/06 A2997 RMK FG4SF4 SLP156

CYHM;2011-05-17 14:00;CYHM 171400Z 05022KT 1/2SM -SHRA FG OVC002 07/07 A2997 RMK FG3SF5 SLP156

CYHM;2011-05-17 15:00;CYHM 171500Z 06022G28KT 1/2SM -RA FG OVC002 06/06 A2997 RMK FG4SF4 PCPN VRY LGT SLP156

CYHM;2011-05-17 16:00;CYHM 171600Z 04022KT 3/4SM -RA BR OVC002 07/07 A2997 RMK FG3SF5 CIG 250FT SLP154

CYHM;2011-05-17 17:00;CYHM 171700Z 05020G25KT 3/4SM -RA BR OVC002 08/08 A2996 RMK FG3SF5 CIG 250 FT SLP150

CYHM;2011-05-17 17:17;CYHM 171717Z 05018G24KT 1/2SM -RA FG OVC002 RMK FG3SF5

CYHM;2011-05-17 18:00;CYHM 171800Z 05017G23KT 3/4SM -RA BR OVC003 08/08 A2995 RMK FG3SF5 SLP146

CYHM;2011-05-17 19:00;CYHM 171900Z 04017G23KT 3/8SM -RA FG OVC003 08/08 A2993 RMK FG2SF6 SLP139

CYHM;2011-05-17 20:00;CYHM 172000Z 05013G20KT 3/8SM -RA FG OVC003 08/08 A2992 RMK FG3SF5 SLP136

CYHM;2011-05-17 20:39;CYHM 172039Z 06015KT 2SM -RA BR BKN003 OVC013 RMK SF6SC2

CYHM;2011-05-17 21:00;CYHM 172100Z 06013KT 2SM -RA BR OVC004 09/09 A2990 RMK SF8 SLP131

CYHM;2011-05-17 22:00;CYHM 172200Z 06017G23KT 2SM -RA BR BKN004 OVC018 09/09 A2990 RMK SF7SC1 SLP130

CYHM;2011-05-17 23:00;CYHM 172300Z 05017G24KT 2SM -RA BR OVC004 09/09 A2990 RMK SF8 SLP131

CYHM;2011-05-18 00:00;CYHM 180000Z 05018G24KT 1 1/2SM -RA BR OVC002 09/09 A2991 RMK SF8 SLP132

CYHM;2011-05-18 01:00;CYHM 180100Z 05015G22KT 1 3/4SM -RA BR OVC002 09/09 A2991 RMK SF8 SLP132

CYHM;2011-05-18 02:00;CYHM 180200Z 05017G24KT 3/4SM -SHRA BR OVC003 09/09 A2991 RMK FG4SF4 SLP134

CYHM;2011-05-18 03:00;CYHM 180300Z 06015KT 1/4SM -SHRA FG VV001 08/08 A2992 RMK FG8 SLP136

CYHM;2011-05-18 04:00;CYHM 180400Z 05015G22KT 1/4SM -SHRA FG VV001 08/08 A2991 RMK FG8 SLP133

CYHM;2011-05-18 05:00;CYHM 180500Z 05015G22KT 1/4SM -SHRA FG VV001 08/08 A2991 RMK FG8 SLP133

CYHM;2011-05-18 06:00;CYHM 180600Z 04015KT 1/4SM -SHRA FG VV001 07/07 A2990 RMK FG8 SLP130

CYHM;2011-05-18 07:00;CYHM 180700Z 04015G22KT 1/4SM -SHRA FG VV001 07/07 A2989 RMK FG8 SLP128

CYHM;2011-05-18 08:00;CYHM 180800Z 05015KT 1/4SM -SHRA FG VV001 07/07 A2990 RMK FG8 SLP129

CYHM;2011-05-18 09:00;CYHM 180900Z 03015KT 3/4SM -SHRA BR OVC004 07/07 A2990 RMK FG5SF3 SLP131

CYHM;2011-05-18 10:00;CYHM 181000Z 04013KT 3/4SM -RA BR OVC004 07/07 A2991 RMK FG5SF3 SLP135

CYHM;2011-05-18 10:39;CYHM 181039Z 04012KT 1SM -SHRA BR OVC002 RMK FG3SF5

CYHM;2011-05-18 11:00;CYHM 181100Z 04012KT 1SM -SHRA BR OVC002 07/07 A2993 RMK FG2SF6 SLP139

CYHM;2011-05-18 11:13;CYHM 181113Z 03010KT 1/2SM -SHRA FG OVC002 RMK FG4SF4

CYHM;2011-05-18 11:38;CYHM 181138Z 03014KT 1SM -SHRA BR OVC002 RMK FG3SF5

CYHM;2011-05-18 12:00;CYHM 181200Z 04012KT 1/8SM -SHRA FG VV001 08/08 A2993 RMK FG8 SLP140

CYHM;2011-05-18 13:00;CYHM 181300Z 05014KT 1/8SM -SHRA FG VV001 08/08 A2993 RMK FG8 SLP140

CYHM;2011-05-18 14:00;CYHM 181400Z 03015KT 1/8SM -SHRA FG VV001 08/08 A2993 RMK FG8 SLP141

CYHM;2011-05-18 15:00;CYHM 181500Z 03014KT 1/8SM -SHRA FG VV001 08/08 A2993 RMK FG8 SLP140

CYHM;2011-05-18 15:38;CYHM 181538Z 04014KT 1/8SM FG VV001 RMK FG8

CYHM;2011-05-18 16:00;CYHM 181600Z 03012KT 1/8SM FG VV001 09/09 A2993 RMK FG8 SLP140

CYHM;2011-05-18 16:27;CYHM 181627Z 02014KT 1/8SM -SHRA FG VV001 RMK FG8

CYHM;2011-05-18 17:00;CYHM 181700Z 03012KT 1/8SM -SHRA FG VV001 09/09 A2992 RMK FG8 SLP137

CYHM;2011-05-18 18:00;CYHM 181800Z 03014KT 1/8SM -SHRA FG VV001 08/08 A2992 RMK FG8 SLP138

CYHM;2011-05-18 19:00;CYHM 181900Z 03015G20KT 1/4SM -SHRA FG VV001 09/09 A2991 RMK FG8 SLP135

CYHM;2011-05-18 19:36;CYHM 181936Z 03015KT 1/2SM FG VV002 RMK FG8

CYHM;2011-05-18 20:00;CYHM 182000Z 04016KT 1/2SM FG VV002 10/10 A2990 RMK FG8 SLP131

CYHM;2011-05-18 20:15;CYHM 182015Z 04013G18KT 3/4SM BR VV002 RMK FG8 VIS VRB 1/2 - 1

CYHM;2011-05-18 20:24;CYHM 182024Z 04015KT 1 1/2SM BR OVC002 RMK FG2ST6 VIS VRB 1 - 2

CYHM;2011-05-18 21:00;CYHM 182100Z 03016KT 2SM BR OVC002 11/11 A2989 RMK FG1SF6 SLP126

CYHM;2011-05-18 22:00;CYHM 182200Z 04015KT 2SM BR OVC002 11/11 A2990 RMK FG1SF7 SLP130

CYHM;2011-05-18 23:00;CYHM 182300Z 04014KT 2SM BR OVC003 12/12 A2989 RMK FG1SF7 SLP127

CYHM;2011-05-18 23:23;CYHM 182323Z 03013KT 2SM -SHRA BR OVC003 RMK FG1SF7

CYHM;2011-05-18 23:45;CYHM 182345Z 03012KT 1SM +SHRA BR BKN005 OVC020TCU RMK RA2SF4TCU2 VIS VRB 3/4 - 11/4

CYHM;2011-05-19 00:00;CYHM 190000Z 03009KT 2SM -SHRA BR SCT005 OVC018TCU 12/12 A2990 RERA RMK FG1SF3TCU4 SLP129

CYHM;2011-05-19 00:14;CYHM 190014Z 04006KT 2 1/2SM -SHRA BR BKN003 OVC025 RERA RMK SF6SC2

CYHM;2011-05-19 01:00;CYHM 190100Z 35005KT 1 1/2SM -SHRA BR SCT002 OVC025 11/11 A2990 RMK FG2SF2SC4 VIS VRB 1 - 2 SLP128

CYHM;2011-05-19 02:00;CYHM 190200Z 35005KT 1 1/2SM SHRA BR OVC018 12/12 A2989 RMK FG2SC6 TCU ASOCTD VIS VRB 1 - 2 SLP126

CYHM;2011-05-19 03:00;CYHM 190300Z 03006KT 1 1/2SM -SHRA BR BKN007 OVC012 12/12 A2989 RERA RMK FG2SF5SC2 VIS VRB 1 - 2 SLP125

CYHM;2011-05-19 04:00;CYHM 190400Z 36005KT 1 1/2SM -SHRA BR BKN003 OVC015 11/11 A2988 RERA RMK FG2SF5SC2 VIS VRB 1 - 2 SLP122

CYHM;2011-05-19 04:21;CYHM 190421Z 35005KT 10SM -SHRA FEW002 SCT050 OVC084 RERA RMK SF2SC2AC4

CYHM;2011-05-19 04:47;CYHM 190447Z 02007KT 1 1/2SM -SHRA BR BKN002 OVC010 RMK FG2SF6SC1 VIS VRB 1 - 2

CYHM;2011-05-19 04:52;CYHM 190452Z 01007KT 1/2SM -SHRA FG VV001 RMK FG8

CYHM;2011-05-19 05:00;CYHM 190500Z 01006KT 1/2SM FG VV001 10/10 A2988 RMK FG8 SLP120

CYHM;2011-05-19 06:00;CYHM 190600Z 00000KT 3/4SM BR VV002 09/09 A2988 RMK FG8 VIS VRB 1/2 - 1 /R15/ SLP122

CYHM;2011-05-19 06:41;CYHM 190641Z 11005KT 1 1/2SM BR OVC002 RMK FG2SF6 VIS VRB 1 - 2

CYHM;2011-05-19 07:00;CYHM 190700Z 00000KT 1 1/2SM BR BKN003 OVC065 09/09 A2989 RMK FG2SF6SC1 VIS VRB 1 - 2 SLP126

CYHM;2011-05-19 07:41;CYHM 190741Z 00000KT 1 1/2SM BR FEW002 OVC068 RMK FG2SF1AC6 VIS VRB 1 - 2

CYHM;2011-05-19 07:51;CYHM 190751Z 00000KT 1 1/2SM BR BKN002 BKN060 RMK FG2SF4SC2 VIS VRB 1 - 2

CYHM;2011-05-19 08:00;CYHM 190800Z 00000KT 1 1/2SM BR SCT002 BKN080 10/10 A2990 RMK FG2SF2AC3 VIS VRB 1 - 2 SLP130

CYHM;2011-05-19 08:17;CYHM 190817Z 00000KT 1 1/2SM BR BKN002 RMK FG2SF6 VIS VRB 1 - 2

CYHM;2011-05-19 08:47;CYHM 190847Z 00000KT 1/8SM FG BKN001 RMK FG5SF2

CYHM;2011-05-19 09:00;CYHM 190900Z 00000KT 1/8SM FG BKN001 10/10 A2990 RMK FG5SF2 SLP129

CYHM;2011-05-19 10:00;CYHM 191000Z 17003KT 1/8SM FG VV001 11/11 A2991 RMK FG8 SLP133

CYHM;2011-05-19 11:00;CYHM 191100Z 00000KT 1/8SM FG BKN001 11/11 A2993 RMK FG2SF3 CIG 150FT SLP137

CYHM;2011-05-19 12:00;CYHM 191200Z 00000KT 1/2SM FG OVC002 12/12 A2995 RMK FG5SF3 SLP145

CYHM;2011-05-19 12:23;CYHM 191223Z 00000KT 1SM BR OVC002 RMK FG2SF6 CIG 250 FT

CYHM;2011-05-19 12:42;CYHM 191242Z 00000KT 1 1/2SM BR BKN002 BKN120 RMK FG2SF3AC2

CYHM;2011-05-19 13:00;CYHM 191300Z 16002KT 2SM BR BKN003 BKN130 BKN210 12/12 A2997 RMK SF5AC2CI1 SLP150

CYHM;2011-05-19 14:00;CYHM 191400Z 00000KT 15SM BKN009 OVC016 14/14 A2997 RMK SC6SC2 SLP152

CYHM;2011-05-19 15:00;CYHM 191500Z 21005KT 15SM BKN011 OVC021 15/13 A2998 RMK SC6SC2 SLP156

CYHM;2011-05-19 16:00;CYHM 191600Z 20006KT 15SM BKN020 OVC024 15/13 A3000 RMK SC6SC2 SLP160

CYHM;2011-05-19 17:00;CYHM 191700Z 21006KT 15SM OVC022 15/14 A3001 RMK SC8 TR CU ASOCTD SLP166

CYHM;2011-05-19 18:00;CYHM 191800Z 23004KT 15SM SCT015 OVC022 16/13 A3002 RMK SC3SC5 SLP168

CYHM;2011-05-19 19:00;CYHM 191900Z 23004KT 15SM SCT015 OVC021 15/13 A3002 RMK SC4SC4 SLP167

CYHM;2011-05-19 20:00;CYHM 192000Z 26006KT 15SM FEW015 BKN026 17/14 A3001 RMK SC2SC5 SLP164

CYHM;2011-05-19 21:00;CYHM 192100Z 23007KT 15SM FEW017 BKN026 BKN130 17/14 A3000 RMK SC2SC4AC1 SLP162

CYHM;2011-05-19 22:00;CYHM 192200Z 26006KT 15SM FEW022 BKN031 BKN140 18/14 A3000 RMK SC2SC2AC1 SLP162

CYHM;2011-05-19 23:00;CYHM 192300Z 28005KT 15SM FEW023 BKN030 17/13 A3000 RMK SC2SC3 SLP162

CYHM;2011-05-20 00:00;CYHM 200000Z 26003KT 15SM FEW026 SCT032 BKN250 17/13 A3001 RMK SC1SC2CI1 SLP163

CYHM;2011-05-20 01:00;CYHM 200100Z 27002KT 15SM FEW028 SCT240 15/13 A3001 RMK SC2CI1 SLP164

CYHM;2011-05-20 02:00;CYHM 200200Z 00000KT 15SM FEW025 FEW240 14/13 A3002 RMK SC1CI1 SLP167

CYHM;2011-05-20 03:00;CYHM 200300Z 00000KT 15SM FEW240 13/12 A3003 RMK CI2 SLP171

CYHM;2011-05-20 04:00;CYHM 200400Z 22004KT 12SM FEW120 FEW240 11/11 A3002 RMK AC1CI0 SLP169

CYHM;2011-05-20 05:00;CYHM 200500Z 25004KT 15SM BKN076 12/12 A3002 RMK AC7 SLP168

CYHM;2011-05-20 06:00;CYHM 200600Z 27004KT 15SM FEW040 BKN077 BKN240 12/12 A3001 RMK SC1AC6CI1 SLP166

CYHM;2011-05-20 07:00;CYHM 200700Z 25005KT 15SM BKN073 BKN250 12/12 A3001 RMK AC6CI1 SLP164

CYHM;2011-05-20 08:00;CYHM 200800Z 26002KT 15SM BKN070 BKN250 11/11 A3001 RMK AC6CI1 SLP164

CYHM;2011-05-20 09:00;CYHM 200900Z 27004KT 15SM BKN081 BKN240 12/12 A3001 RMK AC6CI1 SLP162

CYHM;2011-05-20 09:43;CYHM 200943Z 26004KT 2 1/2SM BR FEW081 FEW240 RMK AC2CI0

CYHM;2011-05-20 10:00;CYHM 201000Z 26006KT 2SM BR FEW082 BKN210 11/11 A3002 RMK AC2CI1 SLP167

CYHM;2011-05-20 11:00;CYHM 201100Z 28002KT 1 1/2SM BR FEW084 SCT210 12/12 A3003 RMK AC2CI1 SLP171

CYHM;2011-05-20 12:00;CYHM 201200Z 29006KT 10SM FEW010 FEW210 13/13 A3004 RMK SF1CI1 SF TR SLP174

CYHM;2011-05-20 13:00;CYHM 201300Z 33004KT 15SM FEW038 FEW210 16/14 A3004 RMK SC1CI1 SLP174

CYHM;2011-05-20 14:00;CYHM 201400Z 34008KT 15SM FEW018 SCT095 BKN210 17/14 A3004 RMK CU2AC2CI2 SLP174

CYHM;2011-05-20 15:00;CYHM 201500Z 01005KT 15SM FEW024 FEW032 SCT150 BKN210 19/15 A3004 RMK CU2SC1AC1CI2 SLP172

CYHM;2011-05-20 16:00;CYHM 201600Z 02006KT 15SM SCT028 BKN160 BKN210 20/15 A3004 RMK CU3AC2CI1 SLP173

CYHM;2011-05-20 17:00;CYHM 201700Z 05012KT 15SM SCT031 BKN210 21/14 A3004 RMK CU3CI1 SLP172

CYHM;2011-05-20 18:00;CYHM 201800Z 35004KT 15SM SCT032 BKN170 BKN210 21/15 A3002 RMK CU3AC2CI1 WINL/VRBL SLP167

CYHM;2011-05-20 19:00;CYHM 201900Z 06007KT 15SM SCT039 SCT090 22/16 A3001 RMK CU3AC1 TCU ASOCTD SLP163

CYHM;2011-05-20 20:00;CYHM 202000Z 00000KT 15SM BKN042 BKN100 22/14 A3001 RMK CU6AC1 TCU ASOCTD SLP163

CYHM;2011-05-20 21:00;CYHM 202100Z 13009KT 15SM BKN046 BKN110 23/16 A3001 RMK CU5AC1 TCU ASOCTD SLP161

CYHM;2011-05-20 22:00;CYHM 202200Z 17004KT 15SM BKN045 BKN080 21/16 A3001 RMK CU5AC1 SLP161

CYHM;2011-05-20 23:00;CYHM 202300Z 22004KT 15SM FEW050 FEW075 FEW100 21/17 A3000 RMK CU1AC1AC1 SLP160

CYHM;2011-05-21 00:00;CYHM 210000Z 20005KT 15SM FEW050TCU FEW100 20/16 A3002 RMK TCU1AC1 SLP166

CYHM;2011-05-21 01:00;CYHM 210100Z 22005KT 15SM FEW045TCU FEW100 18/16 A3003 RMK TCU1AC1 SLP169

CYHM;2011-05-21 02:00;CYHM 210200Z 25005KT 15SM FEW100 17/15 A3004 RMK AC1 SLP173

CYHM;2011-05-21 03:00;CYHM 210300Z 27005KT 15SM FEW100 17/15 A3004 RMK AC1 SLP171

CYHM;2011-05-21 04:00;CYHM 210400Z 29007KT 15SM FEW210 16/15 A3004 RMK CI1 SLP173

CYHM;2011-05-21 09:37;CYHM 210937Z 00000KT 3/4SM BR FEW100 RMK FG2AC1 VIS VRB 1/2 - 1

CYHM;2011-05-21 11:00;CYHM 211100Z 28003KT 15SM FEW100 FEW250 13/13 A3004 RMK AC1CI1 AC TR SLP172

CYHM;2011-05-21 12:00;CYHM 211200Z 29002KT 15SM FEW100 FEW250 17/15 A3004 RMK AC1CI2 AC TR SLP174

CYHM;2011-05-21 13:00;CYHM 211300Z 25002KT 15SM FEW250 19/15 A3005 RMK CI1 WND L/V SLP175

CYHM;2011-05-21 14:00;CYHM 211400Z 22003KT 15SM SCT250 21/15 A3005 RMK CI2 SLP177

CYHM;2011-05-21 15:00;CYHM 211500Z 25002KT 15SM SCT250 22/16 A3004 RMK CI2 WND L/V SLP172

CYHM;2011-05-21 16:00;CYHM 211600Z 20002KT 15SM FEW030 FEW250 23/16 A3004 RMK CU1CI1 SLP172

CYHM;2011-05-21 17:00;CYHM 211700Z 27004KT 15SM FEW030 SCT250 24/16 A3003 RMK CU1CI1 SLP168

CYHM;2011-05-21 18:00;CYHM 211800Z 22007KT 190V290 15SM FEW040 BKN250 25/15 A3003 RMK CU2CI1 SLP167

CYHM;2011-05-21 19:00;CYHM 211900Z 19003KT 15SM SCT040 BKN100 BKN220 25/15 A3001 RMK CU4AC2CI1 WND L/V SLP163

CYHM;2011-05-21 20:00;CYHM 212000Z 19007KT 160V220 15SM SCT040 SCT060 BKN095 BKN220 25/17 A3000 RMK CU3SC1AC2CI1 SLP159

CYHM;2011-05-21 21:00;CYHM 212100Z 19010KT 15SM FEW040 SCT058 BKN085 BKN200 24/17 A2999 RMK CU2SC2AC2CI2 SLP156

CYHM;2011-05-21 22:00;CYHM 212200Z 17008KT 15SM FEW035 SCT060 BKN085 BKN220 24/17 A2999 RMK CU2SC2AC2CI2 SLP154

CYHM;2011-05-21 23:00;CYHM 212300Z 17007KT 140V200 15SM FEW035 FEW060 BKN220 23/16 A2998 RMK CU1SC2CI4 SLP153

CYHM;2011-05-22 00:00;CYHM 220000Z 17006KT 15SM FEW035 FEW060 BKN220 22/16 A2999 RMK CU1SC1CI6 CU TR SLP156

CYHM;2011-05-22 01:00;CYHM 220100Z 18005KT 15SM FEW060 FEW100 OVC230 20/15 A2999 RMK SC1AC1CI7 SC TR SLP156

CYHM;2011-05-22 02:00;CYHM 220200Z 18005KT 15SM FEW060 BKN220 18/15 A3000 RMK SC1CI5 SLP159

CYHM;2011-05-22 03:00;CYHM 220300Z 20002KT 15SM BKN220 17/15 A3001 RMK CI4 SLP160

CYHM;2011-05-22 06:00;CYHM 220600Z 20004KT 15SM OVC200 16/14 A2998 RMK CI8 SLP151

CYHM;2011-05-22 07:00;CYHM 220700Z 19003KT 15SM OVC180 16/14 A2997 RMK AC8 SLP149

CYHM;2011-05-22 08:00;CYHM 220800Z 13005KT 15SM OVC160 15/14 A2997 RMK AC8 SLP147

CYHM;2011-05-22 09:00;CYHM 220900Z 10004KT 15SM OVC130 15/14 A2997 RMK AC8 SLP146

CYHM;2011-05-22 10:00;CYHM 221000Z 04002KT 15SM -SHRA FEW057 OVC110 15/14 A2996 RMK SC1AC7 PCPN VRY LGT SLP145

CYHM;2011-05-22 11:00;CYHM 221100Z 06005KT 15SM -SHRA OVC099 15/15 A2997 RMK AC8 PCPN VRY LGT SLP147

CYHM;2011-05-22 11:20;CYHM 221120Z 07003KT 15SM OVC096 RMK AC8

CYHM;2011-05-22 12:00;CYHM 221200Z 08002KT 15SM OVC091 16/14 A2997 RMK AC8 SLP149

CYHM;2011-05-22 13:00;CYHM 221300Z 00000KT 15SM OVC088 16/15 A2998 RMK AC8 SLP151

CYHM;2011-05-22 13:48;CYHM 221348Z 13003KT 15SM -SHRA FEW016 FEW059 BKN083 OVC110 RMK CF1SC1AC6AC2 CF TR

CYHM;2011-05-22 14:00;CYHM 221400Z 18004KT 15SM -SHRA FEW059 BKN083 OVC100 16/15 A2998 RMK SC1AC5AC2 SLP153

CYHM;2011-05-22 15:00;CYHM 221500Z 00000KT 15SM -SHRA FEW049 BKN080 OVC110 17/16 A2996 RMK SC2AC5AC2 SLP145

CYHM;2011-05-22 16:00;CYHM 221600Z 00000KT 15SM -SHRA FEW036 BKN095 OVC110 19/17 A2996 RMK SC2AC3AC3 SLP145

CYHM;2011-05-22 17:00;CYHM 221700Z 24007KT 8SM -SHRA BKN051 OVC110 18/17 A2997 RMK SC6AC2 SLP150

CYHM;2011-05-22 17:34;CYHM 221734Z 00000KT 10SM SCT046 BKN074 BKN110 RMK SC3AC2AC2

CYHM;2011-05-22 18:00;CYHM 221800Z 17005KT 15SM FEW045 BKN069 BKN110 20/17 A2993 RMK SC2AC2AC2 SLP136

CYHM;2011-05-22 19:00;CYHM 221900Z 18009KT 150V220 12SM FEW018 SCT050 BKN070 22/18 A2992 RMK CU2SC2AC1 SLP131

CYHM;2011-05-22 20:00;CYHM 222000Z 18012KT 140V220 15SM FEW025 FEW100 SCT220 24/17 A2990 RMK CU1AC1CI1 AC TR SLP125

CYHM;2011-05-22 21:00;CYHM 222100Z 19012KT 160V220 15SM FEW030 FEW220 24/16 A2987 RMK CU1CI1 CU TR SLP113

CYHM;2011-05-22 22:00;CYHM 222200Z 19013KT 15SM FEW220 23/17 A2986 RMK CI1 SLP110

CYHM;2011-05-22 23:00;CYHM 222300Z 18009KT 150V210 15SM FEW150 SCT220 23/17 A2983 RMK AC1CI2 AC TR SLP099

CYHM;2011-05-23 00:00;CYHM 230000Z 18005KT 150V210 15SM FEW100 BKN230 21/17 A2984 RMK AC1CI3 AC TR SLP105

CYHM;2011-05-23 01:00;CYHM 230100Z 18002KT 15SM FEW150 SCT180 BKN250 19/16 A2984 RMK AC2AC2CI2 SLP104

CYHM;2011-05-23 02:00;CYHM 230200Z 16004KT 15SM FEW140 SCT180 BKN250 18/16 A2983 RMK AC2AC2CI1 SLP102

CYHM;2011-05-23 03:00;CYHM 230300Z 16008KT 15SM FEW140 18/16 A2982 RMK AC1 SLP097

CYHM;2011-05-23 04:00;CYHM 230400Z 17008KT 15SM FEW060 FEW130 FEW230 19/16 A2981 RMK SC1AC1CI1 TR SC SLP093

CYHM;2011-05-23 05:00;CYHM 230500Z 18010KT 15SM BKN072 20/17 A2979 RMK AC6 SLP088

CYHM;2011-05-23 06:00;CYHM 230600Z 18013KT 15SM FEW063 BKN230 20/17 A2978 RMK SC2CI2 SLP082

CYHM;2011-05-23 07:00;CYHM 230700Z 19011KT 15SM SCT090 BKN230 19/16 A2977 RMK AC3CI2 SLP079

CYHM;2011-05-23 08:00;CYHM 230800Z 17014KT 15SM BKN100 BKN130 19/16 A2973 RMK AC5AC2 SLP067

CYHM;2011-05-23 09:00;CYHM 230900Z 22008KT 15SM BKN150 18/15 A2975 RMK AC6 SLP073

CYHM;2011-05-23 10:00;CYHM 231000Z 21010KT 15SM BKN042 BKN110 BKN170 18/16 A2975 RMK SC5AC2AC1 SLP073

CYHM;2011-05-23 11:00;CYHM 231100Z 20010KT 15SM FEW045 FEW160 BKN220 19/15 A2975 RMK SC1AC2CI2 SLP070

CYHM;2011-05-23 12:00;CYHM 231200Z 20016G22KT 15SM BKN073 BKN220 19/15 A2974 RMK AC5CI1 SLP069

CYHM;2011-05-23 13:00;CYHM 231300Z 19015G20KT 15SM FEW057 BKN160 BKN210 20/16 A2972 RMK SC2AC3CI2 SLP064

CYHM;2011-05-23 14:00;CYHM 231400Z 21014KT 15SM FEW051 BKN082 BKN160 21/16 A2973 RMK SC2AC3AC1 SLP065

CYHM;2011-05-23 15:00;CYHM 231500Z 21018KT 15SM FEW058 BKN100 OVC210 21/16 A2972 RMK SC2AC3CI2 SLP063

CYHM;2011-05-23 16:00;CYHM 231600Z 21012KT 15SM BKN035 OVC075 21/17 A2971 RMK SC6AC2 SLP060

CYHM;2011-05-23 16:44;CYHM 231644Z 20020G25KT 6SM -SHRA HZ BKN024 OVC045 RMK SC6SC2

CYHM;2011-05-23 17:00;CYHM 231700Z 18020G26KT 15SM -SHRA FEW024 BKN033 BKN045 20/17 A2969 RMK CU2SC4SC2 SLP054

CYHM;2011-05-23 17:21;CYHM 231721Z 21026G32KT 8SM SCT019 BKN040 OVC220 RMK CU3SC2CI2

CYHM;2011-05-23 18:00;CYHM 231800Z 22015G20KT 15SM FEW020 SCT036 BKN160 OVC210 21/17 A2965 RMK CU2SC2AS2CI2 SLP039

CYHM;2011-05-23 19:00;CYHM 231900Z 20017KT 15SM FEW025 BKN058 BKN230 22/17 A2964 RMK CU2SC4CI2 SLP036

CYHM;2011-05-23 20:00;CYHM 232000Z 18016KT 15SM BKN028 BKN230 21/17 A2962 RMK SC6CI1 CU ASOCTD SLP030

CYHM;2011-05-23 21:00;CYHM 232100Z 19012KT 15SM BKN028 22/17 A2962 RMK SC7 SLP028

CYHM;2011-05-23 22:00;CYHM 232200Z 21016KT 15SM BKN029 23/18 A2960 RMK SC7 SLP023

CYHM;2011-05-23 22:23;CYHM 232223Z 21022G27KT 160V230 15SM -SHRA BKN033 BKN099 RMK SC6AC1

CYHM;2011-05-23 23:00;CYHM 232300Z 21012KT 15SM -SHRA SCT033 BKN100 22/17 A2959 RMK SC3AC4 SLP020

CYHM;2011-05-23 23:46;CYHM 232346Z 20006KT 15SM FEW032 SCT075 BKN110 BKN220 RMK SC2AC2AC2CI1

CYHM;2011-05-24 00:00;CYHM 240000Z 18006KT 15SM FEW032 BKN074 BKN110 BKN220 20/18 A2959 RMK SC1AC5AC1CI1 SLP019

CYHM;2011-05-24 00:32;CYHM 240032Z 20011KT 15SM -SHRA SCT048 BKN075 RMK SC3AC4

CYHM;2011-05-24 01:00;CYHM 240100Z 21014G20KT 15SM FEW048 SCT075 BKN140 BKN250 20/16 A2959 RMK SC2AC2AC2CI1 CI TR SLP019

CYHM;2011-05-24 02:00;CYHM 240200Z 23010KT 15SM BKN150 BKN220 18/16 A2962 RMK AC5CI2 LTNG DSNT S SLP028

CYHM;2011-05-24 03:00;CYHM 240300Z 20007KT 15SM FEW078 FEW150 SCT220 16/15 A2962 RMK AC2AC1CI1 LTNG DSNT S SLP028

CYHM;2011-05-24 04:00;CYHM 240400Z 20008KT 15SM FEW075 FEW230 16/16 A2963 RMK AC2CI1 SLP031

CYHM;2011-05-24 05:00;CYHM 240500Z 22009KT 15SM SCT080 SCT230 16/16 A2964 RMK AC3CI1 SLP034

CYHM;2011-05-24 06:00;CYHM 240600Z 22010KT 15SM FEW070 FEW230 16/16 A2963 RMK AC1CI0 SLP034

CYHM;2011-05-24 07:00;CYHM 240700Z 23006KT 15SM SCT230 16/16 A2965 RMK CI2 SLP038

CYHM;2011-05-24 08:00;CYHM 240800Z 22010KT 15SM SCT052 BKN250 17/16 A2965 RMK SC4CI2 SLP040

CYHM;2011-05-24 09:00;CYHM 240900Z 22008KT 15SM FEW009 BKN055 BKN250 16/16 A2966 RMK SC2SC4CI1 SLP043

CYHM;2011-05-24 09:13;CYHM 240913Z 23008KT 15SM BKN008 BKN055 BKN250 RMK SC5SC2CI1

CYHM;2011-05-24 09:42;CYHM 240942Z 23008KT 10SM FEW009 SCT055 BKN250 RMK CF2SC1CI2

CYHM;2011-05-24 10:00;CYHM 241000Z 23009KT 10SM FEW009 FEW055 BKN250 16/16 A2966 RMK CF1SC1CI2 SLP044

CYHM;2011-05-24 11:00;CYHM 241100Z 25013KT 8SM FEW032 BKN080 BKN220 17/16 A2968 RMK SC2AC2CI1 SLP050

CYHM;2011-05-24 12:00;CYHM 241200Z 26012KT 15SM FEW020 BKN031 BKN100 18/16 A2971 RMK CU2SC4AC1 SLP060

CYHM;2011-05-24 13:00;CYHM 241300Z 29010G15KT 15SM FEW021 BKN025 BKN085 17/14 A2975 RMK CU1SC5AC1 SLP073

CYHM;2011-05-24 14:00;CYHM 241400Z 29012KT 15SM FEW018 BKN028 16/13 A2978 RMK CU2SC5 SLP082

CYHM;2011-05-24 15:00;CYHM 241500Z 28012KT 15SM FEW018 BKN021 BKN210 16/13 A2979 RMK CU2SC3CI1 SLP088

CYHM;2011-05-24 16:00;CYHM 241600Z 32010KT 15SM FEW020 FEW210 17/13 A2980 RMK CU1CI1 SC ASOCTD SLP092

CYHM;2011-05-24 17:00;CYHM 241700Z 31010KT 15SM FEW030 FEW220 18/14 A2981 RMK CU1CI1 CI TR SLP095

CYHM;2011-05-24 18:00;CYHM 241800Z 28012KT 15SM FEW030 SCT220 19/14 A2983 RMK CU2CI1 SLP102

CYHM;2011-05-24 19:00;CYHM 241900Z 29011KT 15SM FEW030 FEW240 20/13 A2984 RMK CU2CI1 SLP104

CYHM;2011-05-24 20:00;CYHM 242000Z 29008KT 15SM FEW033 20/13 A2985 RMK CU2 SLP107

CYHM;2011-05-24 21:00;CYHM 242100Z 30010KT 15SM FEW035 20/13 A2986 RMK CU2 SLP110

CYHM;2011-05-24 22:00;CYHM 242200Z 29007KT 15SM FEW040 20/13 A2986 RMK CU2 SLP110

CYHM;2011-05-24 23:00;CYHM 242300Z 32008KT 15SM FEW040 FEW120 19/12 A2985 RMK CU1AC1 SLP109

CYHM;2011-05-25 00:00;CYHM 250000Z 32008KT 15SM FEW035 FEW230 17/12 A2988 RMK CU1CI1 SLP119

CYHM;2011-05-25 01:00;CYHM 250100Z 33012KT 15SM FEW035 14/11 A2992 RMK SC1 PRESRR SLP133

CYHM;2011-05-25 02:00;CYHM 250200Z 32005KT 15SM FEW030 12/10 A2993 RMK SC1 SLP135

CYHM;2011-05-25 03:00;CYHM 250300Z 35004KT 15SM FEW030 FEW220 12/10 A2994 RMK SC1CI1 SLP141

CYHM;2011-05-25 04:00;CYHM 250400Z 32004KT 15SM BKN018 11/10 A2996 RMK SC6 SLP146

CYHM;2011-05-25 05:00;CYHM 250500Z 00000KT 15SM OVC018 12/10 A2997 RMK SC8 SLP149

CYHM;2011-05-25 06:00;CYHM 250600Z 02005KT 15SM FEW018 11/09 A2995 RMK SC2 SLP144

CYHM;2011-05-25 07:00;CYHM 250700Z 00000KT 15SM FEW025 10/09 A2996 RMK SC1 SLP145

CYHM;2011-05-25 08:00;CYHM 250800Z 00000KT 15SM FEW220 09/09 A2996 RMK CI1 SLP147

CYHM;2011-05-25 09:00;CYHM 250900Z 01007KT 15SM FEW023 BKN077 09/08 A2997 RMK SC2AC4 SLP151

CYHM;2011-05-25 10:00;CYHM 251000Z 00000KT 15SM FEW028 BKN078 BKN220 09/07 A2998 RMK SC1AC4CI1 SLP154

CYHM;2011-05-25 11:00;CYHM 251100Z 03008KT 15SM FEW035 SCT075 BKN210 10/08 A2997 RMK SC1AC3CI2 CONTRAILS SLP149

CYHM;2011-05-25 12:00;CYHM 251200Z 04010KT 15SM FEW080 FEW210 11/08 A2997 RMK AC1CI1 SLP151

CYHM;2011-05-25 13:00;CYHM 251300Z 05008KT 15SM FEW030 FEW060 SCT100 BKN220 12/08 A3000 RMK CU1SC2AC2CI1 SLP160

CYHM;2011-05-25 14:00;CYHM 251400Z 06006KT 15SM FEW018 FEW055 FEW160 BKN220 13/10 A3000 RMK CU1SC1AC1CI2 CU TR SLP159

CYHM;2011-05-25 15:00;CYHM 251500Z 04008KT 15SM FEW025 FEW160 BKN220 14/10 A2997 RMK CU1AC1CI2 SLP153

CYHM;2011-05-25 16:00;CYHM 251600Z 09011KT 15SM FEW030 BKN061 BKN220 15/10 A2996 RMK CU1SC4CI1 SLP149

CYHM;2011-05-25 17:00;CYHM 251700Z 03012KT 15SM FEW035 FEW140 BKN220 15/11 A2995 RMK CU1AC1CI3 SLP144

CYHM;2011-05-25 18:00;CYHM 251800Z 03012KT 15SM FEW110 SCT160 OVC210 15/10 A2994 RMK AC2AS2CI3 SLP142

CYHM;2011-05-25 18:20;CYHM 251820Z 04011KT 15SM -SHRA SCT055 BKN110 RMK SC4AC3

CYHM;2011-05-25 19:00;CYHM 251900Z 04012KT 15SM -SHRA SCT055 BKN100 13/10 A2992 RMK SC3AC4 PCPN VRY LGT SLP135

CYHM;2011-05-25 19:27;CYHM 251927Z 05012KT 15SM FEW055 BKN100 RMK SC2AC5

CYHM;2011-05-25 20:00;CYHM 252000Z 05013KT 15SM FEW060 BKN095 12/09 A2989 RMK SC2AC5 SLP125

CYHM;2011-05-25 21:00;CYHM 252100Z 05014KT 15SM FEW060 SCT095 BKN180 12/09 A2985 RMK SC2AC2AC3 SLP113

CYHM;2011-05-25 22:00;CYHM 252200Z 04015KT 15SM FEW060 OVC110 11/08 A2984 RMK SC2AC6 SLP107

CYHM;2011-05-25 23:00;CYHM 252300Z 05016KT 15SM -SHRA FEW055 SCT085 OVC100 11/07 A2981 RMK SC2AC2AC5 SLP100

CYHM;2011-05-26 00:00;CYHM 260000Z 04016KT 3SM -SHRA BKN040 OVC080 11/07 A2981 RMK SC6AC2 SLP096

CYHM;2011-05-26 00:35;CYHM 260035Z 03014KT 1 1/2SM -TSRA BR OVC020 RMK SC8 CB EMBD LTGIC

CYHM;2011-05-26 01:00;CYHM 260100Z 03017KT 1 1/2SM -TSRA BR SCT025 BKN030 OVC070 10/09 A2979 RMK SC3SC2AC2 CB EMBD MOVG SW OCNL LTGICCG SLP092

CYHM;2011-05-26 01:21;CYHM 260121Z 03013G19KT 1 1/4SM TSRA BR SCT010 BKN030CB OVC070 RMK SC3CB2AC2 CB MOVG SW OCNL LTGICCG

CYHM;2011-05-26 01:33;CYHM 260133Z 04014KT 3/4SM TSRA BR SCT012 OVC030CB RMK FG2SC2CB4 CB MOVG OVRHD LTGICCG

CYHM;2011-05-26 01:45;CYHM 260145Z CCB 30011KT 1 1/2SM TSRA BR FEW005 BKN025 OVC030CB RMK SF2SC3CB3 WND SHFT 0145 CB MOVG E - SW LTGICCG

CYHM;2011-05-26 02:00;CYHM 260200Z CCA 06012KT 1 1/2SM -TSRA BR FEW005 BKN025 OVC042CB 10/10 A2983 RERA RMK SF2SC3CB3 WND SHFT 0157 CB MOVG E - SW LTGICCC /R18/ SLP103

CYHM;2011-05-26 03:00;CYHM 260300Z 07015KT 2 1/2SM -SHRA BR SCT003 BKN040 OVC060CB 11/11 A2973 RETS RMK SF3SC2CB2 PRESFR LTNG SE SLP068

CYHM;2011-05-26 03:35;CYHM 260335Z 08013KT 4SM BR BKN003 OVC030 RMK SF5SC3

CYHM;2011-05-26 04:00;CYHM 260400Z 07012KT 4SM BR BKN003 OVC030 12/12 A2969 RMK SF5SC3 SLP056

CYHM;2011-05-26 05:00;CYHM 260500Z 00000KT 1SM BR OVC003 12/12 A2972 RMK SF8 SLP067

CYHM;2011-05-26 06:00;CYHM 260600Z 21004KT 3/4SM BR OVC002 12/12 A2974 RMK FG3ST5 SLP072

CYHM;2011-05-26 07:00;CYHM 260700Z 19003KT 1/8SM FG VV001 12/12 A2970 RMK FG8 SLP058

CYHM;2011-05-26 08:00;CYHM 260800Z 18002KT 1/2SM FG VV001 12/12 A2968 RMK FG8 SLP051

CYHM;2011-05-26 09:00;CYHM 260900Z CCB 02003KT 1/2SM FG SCT002 BKN004 OVC120 12/12 A2968 RMK SF3SF2AC2 SLP055

CYHM;2011-05-26 09:45;CYHM 260945Z CCA 28006KT 1/8SM -TSRA FG SCT002 BKN004 OVC012 RMK SF3SF2SC2 CB EMBD LTNGIC

CYHM;2011-05-26 10:00;CYHM 261000Z 27009G16KT 1/2SM TSRA FG BKN001 BKN009 OVC030 11/11 A2978 RMK SF5SC2SC2 CB EMBD LTGIC PRESRR SLP087

CYHM;2011-05-26 10:17;CYHM 261017Z 00000KT 2SM -TSRA BR FEW006 BKN015 BKN032 OVC070 RMK SF2SC3SC2AC1 RERA CB EMBD

CYHM;2011-05-26 10:27;CYHM 261027Z 00000KT 2 1/2SM -SHRA BR FEW015 BKN035 BKN080 BKN110 RMK SC2SC3AC2AC1 RETS

CYHM;2011-05-26 10:40;CYHM 261040Z 08002KT 3SM BR FEW035 BKN100 BKN140 RMK SC2AC3AC2

CYHM;2011-05-26 11:00;CYHM 261100Z 10002KT 3SM BR BKN054 BKN078 OVC110 12/12 A2973 RMK SC5AC2AC1 SLP069

CYHM;2011-05-26 11:24;CYHM 261124Z 11003KT 3SM -SHRA BR BKN058 OVC100 RMK SC6AC2

CYHM;2011-05-26 12:00;CYHM 261200Z 08004KT 2 1/2SM -SHRA BR FEW055 BKN110 OVC150 13/13 A2971 RMK SC2AC4AC2 SLP063

CYHM;2011-05-26 13:00;CYHM 261300Z 35004KT 4SM -SHRA BR SCT082 BKN110 OVC220 14/14 A2973 RMK AC4AC3CI1 SLP070

CYHM;2011-05-26 13:22;CYHM 261322Z 06003KT 1 1/2SM -SHRA BR BKN002 BKN038 OVC140 RMK FG1SF4SC2AC2

CYHM;2011-05-26 13:36;CYHM 261336Z 04004KT 3/4SM -SHRA BR OVC002 RMK FG3SF5

CYHM;2011-05-26 14:00;CYHM 261400Z CCA 04005KT 1SM BR OVC002 13/13 A2972 RMK FG3SF5 SLP066

CYHM;2011-05-26 14:23;CYHM 261423Z 06006KT 1 1/2SM BR BKN002 BKN050 BKN120 RMK FG2SF3SC2AC1 CIG 250FT

CYHM;2011-05-26 14:48;CYHM 261448Z 00000KT 5SM BR FEW006 BKN025 BKN100 RMK SF2SC3AC2

CYHM;2011-05-26 15:00;CYHM 261500Z 08002KT 6SM BR FEW008 BKN022 OVC035 16/15 A2974 RMK SF2SC4SC2 SLP071

CYHM;2011-05-26 16:00;CYHM 261600Z 23008KT 15SM BKN020 OVC028 16/15 A2974 RMK SC6SC2 SLP071

CYHM;2011-05-26 17:00;CYHM 261700Z 25012KT 15SM BKN022 BKN026 OVC042 20/16 A2975 RMK SC6SC2SC1 SLP075

CYHM;2011-05-26 18:00;CYHM 261800Z 24012KT 15SM SCT022 BKN029 BKN042 20/17 A2976 RMK SC3SC2SC2 CU ASOCTD SLP078

CYHM;2011-05-26 19:00;CYHM 261900Z 21014KT 15SM BKN029 BKN042 BKN130 21/17 A2976 RMK SC5SC1AC2 CU ASOCTD SLP078

CYHM;2011-05-26 20:00;CYHM 262000Z 22012KT 15SM FEW029 FEW042 BKN130 BKN250 22/17 A2975 RMK SC2SC1AC4CI1 CU ASOCTD SLP073

CYHM;2011-05-26 21:00;CYHM 262100Z 22011KT 15SM FEW030 BKN087 OVC130 21/16 A2975 RMK SC1AC6AC2 SC TR SLP076

CYHM;2011-05-26 22:00;CYHM 262200Z 23006KT 15SM BKN082 BKN130 BKN240 21/17 A2976 RMK AC5AC1CI2 SLP078

CYHM;2011-05-26 23:00;CYHM 262300Z 24004KT 15SM FEW042 BKN080 BKN130 21/17 A2975 RMK SC1AC5AC2 SLP076

CYHM;2011-05-27 00:00;CYHM 270000Z 00000KT 15SM FEW040 SCT098 BKN170 20/16 A2976 RMK SC1AC3AC3 SLP077

CYHM;2011-05-27 01:00;CYHM 270100Z 09005KT 15SM SCT046 OVC180 19/16 A2977 RMK SC3AC5 SLP080

CYHM;2011-05-27 02:00;CYHM 270200Z 05010KT 10SM FEW065 OVC150 15/14 A2979 RMK SC2AC6 SLP088

CYHM;2011-05-27 02:33;CYHM 270233Z 05009KT 8SM -SHRA FEW007 BKN017 OVC063 RMK CF2SC6SC1

CYHM;2011-05-27 03:00;CYHM 270300Z 02007KT 7SM -SHRA SCT005 OVC016 13/13 A2982 RMK CF3SC5 SLP099

CYHM;2011-05-27 03:49;CYHM 270349Z 02010KT 2 1/2SM -SHRA BR FEW003 BKN009 OVC034 RMK CF2SC3SC2

CYHM;2011-05-27 04:00;CYHM 270400Z 03008KT 3SM -SHRA BR FEW003 BKN009 OVC034 13/13 A2984 RMK CF2SC3SC2 SLP104

CYHM;2011-05-27 05:00;CYHM 270500Z 02013KT 6SM -SHRA BR FEW003 OVC006 13/13 A2984 RMK CF2SC6 SLP104

CYHM;2011-05-27 05:27;CYHM 270527Z 03013KT 6SM -SHRA BR OVC004 RMK SC8

CYHM;2011-05-27 06:00;CYHM 270600Z 02013KT 2 1/2SM -SHRA BR OVC002 12/12 A2983 RMK ST8 SLP103

CYHM;2011-05-27 06:17;CYHM 270617Z 02012KT 1 1/2SM -SHRA BR OVC002 RMK FG2ST6

CYHM;2011-05-27 07:00;CYHM 270700Z 04012KT 1 1/4SM -SHRA BR OVC002 12/12 A2985 RMK FG2ST6 SLP110

CYHM;2011-05-27 08:00;CYHM 270800Z 04012KT 2SM -SHRA BR OVC003 12/12 A2987 RMK FG1ST7 SLP115

CYHM;2011-05-27 09:00;CYHM 270900Z 04014KT 2SM -SHRA BR OVC003 12/12 A2988 RMK FG1ST7 SLP120

CYHM;2011-05-27 09:48;CYHM 270948Z 05014KT 2SM -DZ BR OVC003 RMK FG1ST7

CYHM;2011-05-27 10:00;CYHM 271000Z 05014KT 2SM -DZ BR OVC003 11/11 A2990 RMK FG1ST7 SLP125

CYHM;2011-05-27 11:00;CYHM 271100Z 04012KT 2SM -DZ BR BKN004 OVC012 11/11 A2991 RMK FG1SF6SC2 SLP129

CYHM;2011-05-27 11:42;CYHM 271142Z 05012KT 2 1/2SM -DZ BR OVC003 RMK SF8

CYHM;2011-05-27 12:00;CYHM 271200Z 05012KT 2SM -DZ BR OVC003 11/11 A2992 RMK SF8 SLP133

CYHM;2011-05-27 13:00;CYHM 271300Z 05010KT 4SM -DZ BR BKN004 OVC008 11/11 A2995 RMK SF6SC2 SLP142

CYHM;2011-05-27 14:00;CYHM 271400Z 06016KT 4SM -DZ BR FEW004 BKN010 OVC021 12/12 A2995 RMK SF2SC4SC2 SLP143

CYHM;2011-05-27 15:00;CYHM 271500Z 05016KT 5SM -DZ BR BKN005 BKN012 OVC021 12/12 A2996 RMK SF5SC2SC1 SLP149

CYHM;2011-05-27 16:00;CYHM 271600Z 05014KT 8SM BKN006 BKN012 OVC022 12/11 A2997 RMK SF5SC2SC1 SLP152

CYHM;2011-05-27 16:30;CYHM 271630Z 05014KT 5SM BR BKN004 OVC012 RMK SF6SC2

CYHM;2011-05-27 17:00;CYHM 271700Z 06016KT 8SM BKN006 OVC015 12/11 A2997 RMK SF6SC2 SLP153

CYHM;2011-05-27 18:00;CYHM 271800Z 06014KT 7SM OVC006 12/11 A2997 RMK SF8 SLP153

CYHM;2011-05-27 19:00;CYHM 271900Z 05015KT 7SM OVC006 12/11 A2997 RMK SF8 SLP153

CYHM;2011-05-27 20:00;CYHM 272000Z 05015KT 6SM -RA OVC005 11/11 A2996 RMK SF8 SLP149

CYHM;2011-05-27 20:18;CYHM 272018Z 05017KT 2SM -RA BR OVC003 RMK FG1SF7

CYHM;2011-05-27 21:00;CYHM 272100Z 06015G20KT 1 1/2SM -RA BR OVC003 11/11 A2996 RMK FG2SF6 VIS VRB 1 - 2 SLP149

CYHM;2011-05-27 22:00;CYHM 272200Z 05017KT 1SM -RA BR OVC003 11/11 A2997 RMK FG2SF6 VIS VRB 3/4 - 11/4 SLP151

CYHM;2011-05-27 22:10;CYHM 272210Z 04015KT 1/2SM -RA FG OVC002 RMK FG4SF4

CYHM;2011-05-27 23:00;CYHM 272300Z 05017KT 1/2SM -RA FG VV002 11/11 A2997 RMK FG8 SLP150

CYHM;2011-05-28 00:00;CYHM 280000Z 05017KT 3/4SM -RA BR VV002 11/11 A2996 RMK FG8 VIS VRB 1/2 - 1 SLP149

CYHM;2011-05-28 00:16;CYHM 280016Z 05012G19KT 2SM -RA BR OVC003 RMK FG1SF7

CYHM;2011-05-28 00:37;CYHM 280037Z 05015KT 1SM -RA BR OVC003 RMK FG2SF6 VIS VRB 3/4 - 11/4

CYHM;2011-05-28 01:00;CYHM 280100Z 06016KT 1 1/2SM -RA BR OVC003 11/11 A2996 RMK FG2SF6 VIS VRB 1 - 2 SLP149

CYHM;2011-05-28 02:00;CYHM 280200Z 06013KT 1 1/2SM -RA BR OVC002 11/11 A2997 RMK FG2SF6 VIS VRB 1 - 2 SLP152

CYHM;2011-05-28 02:18;CYHM 280218Z 06013KT 3/4SM -RA BR OVC002 RMK FG3SF5 VIS VRB 1/2 - 1

CYHM;2011-05-28 03:00;CYHM 280300Z 06013KT 1 1/2SM -RA BR OVC003 11/11 A2997 RMK FG2SF6 VIS VRB 1 - 2 SLP152

CYHM;2011-05-28 04:00;CYHM 280400Z 05013KT 1 1/2SM -RA BR OVC003 11/11 A2996 RMK FG2SF6 VIS VRB 1 - 2 SLP148

CYHM;2011-05-28 05:00;CYHM 280500Z 07013KT 1 1/2SM -RA BR OVC002 11/11 A2993 RMK FG2SF6 VIS VRB 1 - 2 SLP139

CYHM;2011-05-28 05:17;CYHM 280517Z 05013KT 1SM -RA BR OVC002 RMK FG2SF6 VIS VRB 3/4 - 11/4

CYHM;2011-05-28 05:26;CYHM 280526Z 04013KT 1/2SM -RA FG VV002 RMK FG8

CYHM;2011-05-28 06:00;CYHM 280600Z 05011KT 1/2SM -RA FG VV001 11/11 A2992 RMK FG8 SLP135

CYHM;2011-05-28 07:00;CYHM 280700Z 05012KT 1/2SM -RA FG VV001 11/11 A2990 RMK FG8 SLP128

CYHM;2011-05-28 08:00;CYHM 280800Z 04009KT 1/4SM -DZ FG VV001 11/11 A2988 RMK FG8 SLP121

CYHM;2011-05-28 09:00;CYHM 280900Z 07010KT 1/4SM -DZ FG VV001 11/11 A2989 RMK FG8 SLP124

CYHM;2011-05-28 09:25;CYHM 280925Z 04009KT 1/8SM -DZ FG VV001 RMK FG8

CYHM;2011-05-28 10:00;CYHM 281000Z 05009KT 1/8SM -DZ FG VV001 10/10 A2989 RMK FG8 SLP125

CYHM;2011-05-28 11:00;CYHM 281100Z 06003KT 1/8SM FG VV001 10/10 A2991 RMK FG8 SLP133

CYHM;2011-05-28 12:00;CYHM 281200Z 00000KT 3/8SM FG VV002 10/10 A2993 RMK FG8 SLP137

CYHM;2011-05-28 12:14;CYHM 281214Z 00000KT 1/2SM -DZ FG VV002 RMK FG8

CYHM;2011-05-28 12:25;CYHM 281225Z 00000KT 5/8SM -DZ BR OVC003 RMK FG6SF2

CYHM;2011-05-28 12:32;CYHM 281232Z 00000KT 1SM -DZ BR OVC003 RMK FG5SF3

CYHM;2011-05-28 12:48;CYHM 281248Z 26002KT 1 1/2SM -DZ BR OVC003 RMK FG3SF5

CYHM;2011-05-28 13:00;CYHM 281300Z 00000KT 1 1/2SM BR OVC003 11/11 A2991 RMK FG3SF5 SLP133

CYHM;2011-05-28 14:00;CYHM 281400Z 14003KT 2SM BR OVC002 13/13 A2990 RMK FG2SF6 SLP128

CYHM;2011-05-28 14:46;CYHM 281446Z 21006KT 4SM BR OVC004 RMK SF8

CYHM;2011-05-28 15:00;CYHM 281500Z 24005KT 4SM BR OVC004 14/14 A2993 RMK SC8 SLP139

CYHM;2011-05-28 15:21;CYHM 281521Z 23004KT 6SM BR BKN005 OVC042 RMK SC6SC2

CYHM;2011-05-28 15:43;CYHM 281543Z 18006KT 7SM BKN007 BKN044 RMK SC6SC2

CYHM;2011-05-28 16:00;CYHM 281600Z 19006KT 8SM BKN008 BKN043 16/15 A2992 RMK SC6SC2 SLP134

CYHM;2011-05-28 16:29;CYHM 281629Z 21008KT 8SM BKN014 OVC040 RMK SC6SC2

CYHM;2011-05-28 17:00;CYHM 281700Z 21011KT 12SM SCT015 OVC039 17/15 A2992 RMK SC3SC5 SLP136

CYHM;2011-05-28 18:00;CYHM 281800Z 21015KT 15SM BKN019 OVC039 18/15 A2992 RMK SC6SC2 SLP134

CYHM;2011-05-28 19:00;CYHM 281900Z 19011KT 12SM FEW020 BKN033 19/14 A2989 RMK CU2SC4 SLP122

CYHM;2011-05-28 20:00;CYHM 282000Z 21016KT 180V240 12SM FEW020 SCT032 SCT080 BKN210 20/15 A2989 RMK CU2SC2AC1CI2 CONTRAILS SLP123

CYHM;2011-05-28 21:00;CYHM 282100Z 21015KT 12SM FEW020 SCT033 SCT110 BKN210 20/15 A2990 RMK CU1SC2AC1CI1 SLP127

CYHM;2011-05-28 22:00;CYHM 282200Z 23010KT 12SM FEW033 BKN100 20/15 A2992 RMK SC2AC5 SLP132

CYHM;2011-05-28 23:00;CYHM 282300Z 24007KT 210V270 12SM SCT085 OVC100 19/15 A2992 RMK AC3AC5 SLP132

CYHM;2011-05-29 00:00;CYHM 290000Z 24002KT 12SM SCT080 BKN110 OVC220 19/15 A2991 RMK AC3AC3CI2 SLP130

CYHM;2011-05-29 01:00;CYHM 290100Z 19003KT 10SM SCT090 OVC160 17/15 A2992 RMK AC4AC4 SLP133

CYHM;2011-05-29 02:00;CYHM 290200Z 19006KT 12SM OVC080 17/15 A2996 RMK AC8 SLP146

CYHM;2011-05-29 03:00;CYHM 290300Z 20005KT 8SM FEW080 OVC120 17/15 A2994 RMK AC2AC6 SLP139

CYHM;2011-05-29 04:00;CYHM 290400Z 19005KT 7SM OVC120 16/15 A2992 RMK AC8 SLP133

CYHM;2011-05-29 05:00;CYHM 290500Z 25003KT 7SM OVC092 15/14 A2994 RMK AC8 SLP139

CYHM;2011-05-29 06:00;CYHM 290600Z 25002KT 8SM -SHRA OVC079 15/14 A2995 RMK AC8 SLP141

CYHM;2011-05-29 07:00;CYHM 290700Z 00000KT 10SM FEW050 OVC083 15/14 A2994 RMK SC2AC6 SLP139

CYHM;2011-05-29 08:00;CYHM 290800Z 00000KT 7SM -SHRA OVC033 15/15 A2994 RMK SC8 PCPN VRY LGT SLP140

CYHM;2011-05-29 09:00;CYHM 290900Z 00000KT 8SM -SHRA FEW047 OVC074 15/15 A2995 RMK SC2AC6 SLP141

CYHM;2011-05-29 10:00;CYHM 291000Z 11006KT 3SM -SHRA BR OVC062 15/15 A2994 RMK SC8 VIS VRB 2 - 4 SLP139

CYHM;2011-05-29 10:28;CYHM 291028Z 10004KT 3SM BR SCT060 BKN090 RMK SC3AC2

CYHM;2011-05-29 11:00;CYHM 291100Z 13003KT 6SM BR FEW068 SCT090 15/15 A2995 RMK AC2AC2 SLP142

CYHM;2011-05-29 12:00;CYHM 291200Z 14004KT 12SM FEW057 BKN080 17/15 A2995 RMK SC2AC5 SLP141

CYHM;2011-05-29 13:00;CYHM 291300Z 10004KT 10SM SCT052 BKN087 18/16 A2994 RMK SC4AC3 SLP139

CYHM;2011-05-29 14:00;CYHM 291400Z 17003KT 12SM BKN045 OVC085 19/17 A2995 RMK SC7AC1 SLP141

CYHM;2011-05-29 15:00;CYHM 291500Z 21008KT 160V250 12SM OVC046 21/18 A2996 RMK SC8 SLP144

CYHM;2011-05-29 16:00;CYHM 291600Z 21007KT 15SM FEW045 FEW230 23/19 A2995 RMK SC2CI0 SLP140

CYHM;2011-05-29 17:00;CYHM 291700Z 22006KT 12SM FEW027 BKN040 25/19 A2994 RMK CU2SC6 SLP136

CYHM;2011-05-29 18:00;CYHM 291800Z 05004KT 10SM BKN027 BKN038 23/19 A2994 RMK SC6SC2 SLP139

CYHM;2011-05-29 19:00;CYHM 291900Z 04007KT 8SM BKN027 OVC035 22/18 A2997 RMK SC5SC3 HZ SLP146

CYHM;2011-05-29 19:53;CYHM 291953Z 03006KT 3SM -SHRA HZ OVC028 RMK SC8

CYHM;2011-05-29 20:00;CYHM 292000Z 03006KT 4SM -SHRA HZ BKN027 OVC034 19/17 A2998 RMK SC6SC2 SLP152

CYHM;2011-05-29 20:23;CYHM 292023Z 04005KT 4SM BR BKN028 OVC035 RMK SC6SC2

CYHM;2011-05-29 21:00;CYHM 292100Z 08003KT 3SM BR SCT029 BKN038 OVC100 19/18 A2998 RMK CU3SC3AC2 SLP154

CYHM;2011-05-29 22:00;CYHM 292200Z 12004KT 4SM BR SCT038 BKN080 BKN110 21/19 A2998 RMK SC3AC2AC2 SLP152

CYHM;2011-05-29 22:54;CYHM 292254Z CCA 17002KT 4SM -SHRA BR BKN058 OVC075 RMK SC6AC2

CYHM;2011-05-29 23:00;CYHM 292300Z 17003KT 4SM -SHRA BR BKN058 OVC075 21/20 A2998 RMK SC6AC2 WND L/V SLP153

CYHM;2011-05-29 23:37;CYHM 292337Z 00000KT 4SM TS BR BKN055 OVC070 RMK SC6AC2 CB EMBD

CYHM;2011-05-29 23:40;CYHM 292340Z 00000KT 4SM -TSRA BR BKN055 OVC070 RMK SC6AC2 CB EMBD

CYHM;2011-05-30 00:00;CYHM 300000Z 06002KT 4SM -TSRA BR FEW040 BKN055 OVC075 21/20 A2996 RMK SC2SC3AC2 CB EMBD SLP143

CYHM;2011-05-30 00:31;CYHM 300031Z 08003KT 2SM -TSRA BR SCT030 OVC045 RMK SC4SC4 LTNG CB EMBD

CYHM;2011-05-30 00:35;CYHM 300035Z 08007KT 1SM TSRA BR OVC015 RMK FG3SC5 CB EMBD LTGCG

CYHM;2011-05-30 00:46;CYHM 300046Z 30010KT 1SM +TSRA BR BKN009 OVC020 RMK FG3SC4SC1 CB EMBD LTGCG

CYHM;2011-05-30 01:00;CYHM 300100Z 25009KT 1 1/4SM +TSRA BR SCT005 BKN012 OVC025 20/20 A3000 RMK FG2SF2SC2SC2 CB EMBD LTGCG SLP158

CYHM;2011-05-30 01:14;CYHM 300114Z 26003KT 1 1/2SM -TSRA BR SCT005 BKN015 OVC025 RERA RMK FG2SF2SC2SC2 CB EMBD LTGCG

CYHM;2011-05-30 01:24;CYHM 300124Z 07002KT 3SM -TSRA BR FEW005 BKN017 OVC055 RERA RMK SF2SC4SC2 CB EMBD OCNL LTGCG E

CYHM;2011-05-30 02:00;CYHM 300200Z 11008KT 3SM BR FEW005 BKN040 OVC055 19/19 A2995 RETSRA RMK SF2SC3SC2 LTNG DIST E SLP142

CYHM;2011-05-30 02:47;CYHM 300247Z 17013KT 2SM -TSRA BR SCT003 BKN046 OVC092 RMK SF3SC4AC1 CB ASOCTD

CYHM;2011-05-30 03:00;CYHM 300300Z 17013KT 4SM -TSRA BR FEW003 SCT009 BKN042 OVC090 19/19 A2997 RMK SF2SF2SC3AC1 CB ASOCTD LTNG SLP147

CYHM;2011-05-30 04:00;CYHM 300400Z 27007KT 8SM -SHRA FEW005 FEW042 BKN130 OVC190 19/19 A3003 RETS RMK SF1SC2AC2AC3 SLP166

CYHM;2011-05-30 05:00;CYHM 300500Z 25006KT 4SM BR FEW005 BKN160 BKN220 19/19 A3004 RMK SF2AC4CI1 SLP169

CYHM;2011-05-30 06:00;CYHM 300600Z 26003KT 5SM BR FEW009 BKN130 BKN220 19/19 A3004 RMK SF1AC4CI2 SLP172

CYHM;2011-05-30 07:00;CYHM 300700Z 22005KT 5SM BR FEW130 SCT220 18/18 A3004 RMK AC2CI2 SLP171

CYHM;2011-05-30 08:00;CYHM 300800Z 30004KT 6SM BR BKN130 BKN220 18/18 A3007 RMK AC5CI0 SLP179

CYHM;2011-05-30 09:00;CYHM 300900Z 03003KT 5SM BR SCT130 BKN220 18/18 A3007 RMK AC3CI1 SLP182

CYHM;2011-05-30 09:45;CYHM 300945Z 00000KT 1SM BR BKN130 BKN220 RMK FG2AC2CI1

CYHM;2011-05-30 09:54;CYHM 300954Z 00000KT 1SM BR BKN006 OVC130 RMK FG2SC5AC1

CYHM;2011-05-30 10:00;CYHM 301000Z 00000KT 1SM BR BKN007 OVC130 18/18 A3010 RMK FG2SC5AC1 SLP192

CYHM;2011-05-30 10:25;CYHM 301025Z 00000KT 3/4SM BR BKN005 OVC009 RMK FG2SF4SC2 VIS VRBL1/2-1SM

CYHM;2011-05-30 10:36;CYHM 301036Z 00000KT 1SM BR SCT006 SCT016 BKN120 RMK FG2SF2SC1AC2

CYHM;2011-05-30 11:00;CYHM 301100Z 18002KT 3/4SM BR BKN002 BKN120 18/18 A3013 RMK FG2SF3AC2 VIS VRBL1/2-1SM SLP202

CYHM;2011-05-30 11:17;CYHM 301117Z 20002KT 1/8SM FG VV001 RMK FG8

CYHM;2011-05-30 11:35;CYHM 301135Z 00000KT 3/4SM BR OVC002 RMK FG3SF5 CIG150FT

CYHM;2011-05-30 12:00;CYHM 301200Z 00000KT 1SM BR BKN003 OVC006 18/18 A3014 RMK FG2SF4SC2 SLP207

CYHM;2011-05-30 12:16;CYHM 301216Z 11002KT 1 1/2SM BR BKN002 OVC016 RMK FG1SF5SC2

CYHM;2011-05-30 12:24;CYHM 301224Z 00000KT 2SM BR BKN005 OVC018 RMK FG1SF4SC3 CIG 550 FT

CYHM;2011-05-30 13:00;CYHM 301300Z 10003KT 3SM BR BKN005 OVC020 19/19 A3015 RMK SF5SC2 SLP210

CYHM;2011-05-30 14:00;CYHM 301400Z 00000KT 4SM BR BKN006 OVC018 20/19 A3016 RMK SF6SC2 SLP212

CYHM;2011-05-30 15:00;CYHM 301500Z 07002KT 4SM BR OVC010 20/19 A3017 RMK SC8 SLP214

CYHM;2011-05-30 16:00;CYHM 301600Z 00000KT 4SM BR SCT006 BKN013 21/20 A3017 RMK SF3SC4 SLP214

CYHM;2011-05-30 17:00;CYHM 301700Z 00000KT 7SM BKN016 23/20 A3016 RMK SC7 CU ASCTD SLP213

CYHM;2011-05-30 18:00;CYHM 301800Z 06002KT 8SM FEW016 BKN021 24/20 A3016 RMK CU2SC3 WIND L/V SLP211

CYHM;2011-05-30 19:00;CYHM 301900Z 15002KT 8SM FEW016 BKN024 25/21 A3014 RMK SF1SC3 SLP205

CYHM;2011-05-30 20:00;CYHM 302000Z 07007KT 9SM SCT026 25/22 A3014 RMK SC4 SF ASOCTD SLP204

CYHM;2011-05-30 21:00;CYHM 302100Z 09007KT 10SM FEW032 26/22 A3013 RMK SC2 SLP200

CYHM;2011-05-30 22:00;CYHM 302200Z 07007KT 10SM FEW034 25/21 A3013 RMK SC1 SLP203

CYHM;2011-05-30 23:00;CYHM 302300Z 05007KT 9SM FEW034 23/20 A3014 RMK SC1 SC TR SLP204

CYHM;2011-05-31 00:00;CYHM 310000Z 05007KT 9SM FEW030 21/19 A3015 RMK SC1 SC TR SLP209

CYHM;2011-05-31 01:00;CYHM 310100Z 08004KT 5SM BR FEW030 19/18 A3015 RMK SC1 SLP209

CYHM;2011-05-31 02:00;CYHM 310200Z 10002KT 8SM FEW030 18/18 A3015 RMK SC1 SC TR SLP209

CYHM;2011-05-31 03:00;CYHM 310300Z 03003KT 7SM FEW250 18/17 A3016 RMK CI1 SLP213

CYHM;2011-05-31 04:00;CYHM 310400Z 04005KT 8SM FEW250 17/16 A3017 RMK CI1 SLP215

CYHM;2011-05-31 05:00;CYHM 310500Z 12002KT 9SM FEW250 16/16 A3016 RMK CI1 SLP213

CYHM;2011-05-31 06:00;CYHM 310600Z 00000KT 9SM FEW250 16/16 A3015 RMK CI1 SLP209

CYHM;2011-05-31 07:00;CYHM 310700Z 00000KT 9SM FEW250 16/16 A3014 RMK CI1 SLP206

CYHM;2011-05-31 08:00;CYHM 310800Z 05005KT 8SM FEW250 16/16 A3014 RMK CI1 SLP207

CYHM;2011-05-31 09:00;CYHM 310900Z 00000KT 5SM BR FEW240 16/16 A3014 RMK CI1 SLP204

CYHM;2011-05-31 09:29;CYHM 310929Z 00000KT 2SM BR SKC RMK FG2

CYHM;2011-05-31 10:00;CYHM 311000Z 06006KT 2SM BR SKC 16/15 A3016 RMK FG2 SLP212

CYHM;2011-05-31 11:00;CYHM 311100Z 03005KT 4SM BR SKC 16/15 A3019 RMK SLP221

CYHM;2011-05-31 12:00;CYHM 311200Z 07004KT 6SM BR SKC 19/17 A3020 RMK SLP225

CYHM;2011-05-31 13:00;CYHM 311300Z 00000KT 10SM SKC 21/18 A3020 RMK SLP227

CYHM;2011-05-31 14:00;CYHM 311400Z 00000KT 15SM SKC 23/20 A3020 RMK SLP227

CYHM;2011-05-31 15:00;CYHM 311500Z 23006KT 15SM SKC 26/22 A3019 RMK SLP222

CYHM;2011-05-31 16:00;CYHM 311600Z 24006KT 15SM SKC 28/24 A3018 RMK SLP217

CYHM;2011-05-31 17:00;CYHM 311700Z 24008KT 15SM FEW028 30/22 A3017 RMK CU2 SLP214

CYHM;2011-05-31 18:00;CYHM 311800Z 22009KT 15SM SCT044 30/22 A3015 RMK CU3 SLP208

CYHM;2011-05-31 19:00;CYHM 311900Z 19008KT 10SM FEW044 31/23 A3013 RMK CU2 TCU ASOCTD SLP202

CYHM;2011-05-31 20:00;CYHM 312000Z 19015KT 12SM FEW044 30/23 A3012 RMK CU1 SLP196

CYHM;2011-05-31 21:00;CYHM 312100Z 23013KT 12SM FEW046 30/22 A3011 RMK CU1 CU TR SLP193

CYHM;2011-05-31 22:00;CYHM 312200Z 23013KT 12SM BKN250 29/20 A3009 RMK CI2 CONTRAILS SLP187

CYHM;2011-05-31 23:00;CYHM 312300Z 21011KT 12SM BKN250 29/21 A3005 RMK CI2 CONTRAILS SLP175

CYHM;2011-06-01 01:00;CYHM 010100Z 21007KT 12SM SCT250 24/21 A3005 RMK CI1 SLP172

CYHM;2011-06-01 02:00;CYHM 010200Z 21008KT 12SM SCT250 23/21 A3004 RMK CI1 SLP170

CYHM;2011-06-01 03:00;CYHM 010300Z 24006KT 15SM FEW250 23/20 A3006 RMK CI1 SLP176

CYHM;2011-06-01 04:00;CYHM 010400Z 22007KT 15SM FEW250 23/20 A3004 RMK CI1 SLP170

CYHM;2011-06-01 05:00;CYHM 010500Z 22010KT 15SM BKN250 24/20 A3001 RMK CI2 SLP161

CYHM;2011-06-01 06:00;CYHM 010600Z 23013KT 15SM BKN250 24/19 A3000 RMK CI2 SLP155

CYHM;2011-06-01 07:00;CYHM 010700Z 22008KT 15SM FEW250 24/19 A2999 RMK CI1 SLP150

CYHM;2011-06-01 08:00;CYHM 010800Z 22008KT 15SM FEW250 24/19 A3000 RMK CI1 SLP154

CYHM;2011-06-01 09:00;CYHM 010900Z 26013KT 15SM FEW250 23/19 A3001 RMK CI1 SLP158

CYHM;2011-06-01 10:00;CYHM 011000Z 25008KT 15SM FEW080 FEW250 22/17 A3002 RMK AC1CI1 AC TR SLP160

CYHM;2011-06-01 11:00;CYHM 011100Z 24009KT 15SM FEW250 22/17 A3002 RMK CI1 CI TR SLP162

CYHM;2011-06-01 12:00;CYHM 011200Z 23014KT 15SM FEW025 FEW100 23/17 A3002 RMK CU1AC1 TCU TR SE AC TR SLP161

CYHM;2011-06-01 13:00;CYHM 011300Z 26016G22KT 15SM FEW030 23/16 A3001 RMK CU1 TCU SE SLP160

CYHM;2011-06-01 14:00;CYHM 011400Z 24018G28KT 15SM FEW030 24/13 A3000 RMK CU1 TR CU SE SLP154

CYHM;2011-06-01 15:00;CYHM 011500Z 26022G30KT 15SM FEW220 24/12 A2999 RMK CI1 CI TR SLP151

CYHM;2011-06-01 16:00;CYHM 011600Z 25016G26KT 15SM SKC 24/13 A2997 RMK SLP147

CYHM;2011-06-01 17:00;CYHM 011700Z 29018G26KT 15SM SKC 24/09 A2997 RMK SLP145

CYHM;2011-06-01 18:00;CYHM 011800Z 26020G26KT 15SM SKC 25/12 A2996 RMK SLP141

CYHM;2011-06-01 19:00;CYHM 011900Z 27025G36KT 15SM SKC 25/09 A2994 RMK SLP136

CYHM;2011-06-01 20:00;CYHM 012000Z 24020G27KT 15SM FEW250 25/11 A2993 RMK CI1 SLP132

CYHM;2011-06-01 21:00;CYHM 012100Z 25020G28KT 15SM SKC 25/09 A2992 RMK SLP130

CYHM;2011-06-01 22:00;CYHM 012200Z 28018G26KT 15SM FEW050 25/08 A2992 RMK CU1 CONTRAILS SLP129

CYHM;2011-06-01 23:00;CYHM 012300Z 28020G27KT 15SM SKC 23/06 A2993 RMK SLP133

CYHM;2011-06-02 00:00;CYHM 020000Z 28020G26KT 15SM SKC 22/05 A2996 RMK SLP142

CYHM;2011-06-02 01:00;CYHM 020100Z 28016KT 15SM FEW240 20/06 A2997 RMK CI1 SLP146

CYHM;2011-06-02 02:00;CYHM 020200Z 28011KT 15SM SKC 19/06 A2999 RMK SLP152

CYHM;2011-06-02 03:00;CYHM 020300Z 26007KT 15SM SKC 17/06 A3000 RMK SLP156

CYHM;2011-06-02 04:00;CYHM 020400Z 27007KT 15SM SKC 16/07 A3000 RMK SLP157

CYHM;2011-06-02 05:00;CYHM 020500Z 33013G18KT 15SM SKC 14/07 A3003 RMK SLP166

CYHM;2011-06-02 06:00;CYHM 020600Z 30008KT 15SM FEW210 12/06 A3004 RMK CI1 SLP173

CYHM;2011-06-02 07:00;CYHM 020700Z 29011KT 15SM FEW200 11/05 A3005 RMK CI1 SLP175

CYHM;2011-06-02 08:00;CYHM 020800Z 29014KT 15SM SKC 11/05 A3005 RMK SLP174

CYHM;2011-06-02 09:00;CYHM 020900Z 28008KT 15SM SKC 10/04 A3006 RMK SLP180

CYHM;2011-06-02 10:00;CYHM 021000Z 28009KT 15SM SKC 09/04 A3009 RMK SLP189

CYHM;2011-06-02 11:00;CYHM 021100Z 29008KT 15SM FEW025 10/05 A3011 RMK CU1 CU TR SLP196

CYHM;2011-06-02 12:00;CYHM 021200Z CCA 30010KT 15SM FEW025 11/05 A3013 RMK CU1 SLP206

CYHM;2011-06-02 13:00;CYHM 021300Z 32010KT 15SM FEW032 12/06 A3016 RMK CU2 SLP214

CYHM;2011-06-02 14:00;CYHM 021400Z 32012KT 15SM SCT032 12/06 A3018 RMK CU4 SLP221

CYHM;2011-06-02 15:00;CYHM 021500Z 31006KT 15SM FEW035 14/07 A3018 RMK CU2 SLP220

CYHM;2011-06-02 16:00;CYHM 021600Z 29010KT 15SM SCT042 15/07 A3019 RMK CU3 SLP224

CYHM;2011-06-02 17:00;CYHM 021700Z 29008KT 15SM FEW042 15/07 A3019 RMK CU2 SLP224

CYHM;2011-06-02 18:00;CYHM 021800Z 32010KT 15SM FEW045 17/08 A3017 RMK CU1 SLP219

CYHM;2011-06-02 19:00;CYHM 021900Z 27014KT 230V320 15SM FEW044 18/07 A3017 RMK CU1 SLP217

CYHM;2011-06-02 20:00;CYHM 022000Z 28012KT 240V320 15SM FEW050 18/05 A3016 RMK CU1 CU TR SLP215

CYHM;2011-06-02 21:00;CYHM 022100Z 27012KT 230V320 15SM FEW045 18/05 A3014 RMK CU1 CU TR SLP210

CYHM;2011-06-02 22:00;CYHM 022200Z 28012KT 240V320 15SM FEW045 18/05 A3014 RMK CU1 CU TR SLP209

CYHM;2011-06-02 23:00;CYHM 022300Z 29012KT 240V340 15SM SKC 17/03 A3015 RMK SLP211

CYHM;2011-06-03 00:00;CYHM 030000Z 30010KT 260V340 15SM FEW250 15/03 A3016 RMK CI1 SLP214

CYHM;2011-06-03 01:00;CYHM 030100Z 28007KT 15SM FEW250 12/05 A3016 RMK CI0 SLP214

CYHM;2011-06-03 02:00;CYHM 030200Z 30008KT 15SM SKC 11/05 A3017 RMK SLP220

CYHM;2011-06-03 03:00;CYHM 030300Z 29008KT 15SM SKC 10/05 A3019 RMK SLP225

CYHM;2011-06-03 05:00;CYHM 030500Z 31008KT 15SM SKC 10/03 A3019 RMK SLP226

CYHM;2011-06-03 06:00;CYHM 030600Z 28007KT 15SM SKC 09/04 A3020 RMK SLP228

CYHM;2011-06-03 07:00;CYHM 030700Z 12002KT 15SM SKC 08/03 A3019 RMK SLP226

CYHM;2011-06-03 08:00;CYHM 030800Z 25004KT 15SM SKC 08/04 A3020 RMK SLP228

CYHM;2011-06-03 09:00;CYHM 030900Z 23002KT 15SM FEW250 07/04 A3020 RMK CI0 SLP230

CYHM;2011-06-03 10:00;CYHM 031000Z 32005KT 15SM FEW250 08/04 A3022 RMK CI0 SLP236

CYHM;2011-06-03 11:00;CYHM 031100Z 00000KT 15SM FEW250 09/06 A3024 RMK CI1 SLP244

CYHM;2011-06-03 12:00;CYHM 031200Z 00000KT 15SM FEW250 12/06 A3026 RMK CI1 SLP250

CYHM;2011-06-03 13:00;CYHM 031300Z 01002KT 15SM FEW250 15/07 A3027 RMK CI1 SLP254

CYHM;2011-06-03 14:00;CYHM 031400Z 00000KT 15SM FEW250 17/05 A3027 RMK CI1 CI TR SLP254

CYHM;2011-06-03 15:00;CYHM 031500Z 01002KT 15SM FEW250 19/04 A3027 RMK CI1 CI TR SLP253

CYHM;2011-06-03 16:00;CYHM 031600Z 03002KT 15SM FEW250 19/05 A3026 RMK CI1 SLP248

CYHM;2011-06-03 17:00;CYHM 031700Z 10004KT 15SM FEW240 20/07 A3024 RMK CI1 CI TR SLP244

CYHM;2011-06-03 18:00;CYHM 031800Z 21003KT 15SM FEW240 21/06 A3023 RMK CI1 CI TR WIND L/V SLP237

CYHM;2011-06-03 19:00;CYHM 031900Z 20004KT 15SM FEW160 BKN240 22/07 A3021 RMK AC1CI2 CONTRAILS SLP231

CYHM;2011-06-03 20:00;CYHM 032000Z 00000KT 15SM FEW240 22/06 A3019 RMK CI1 CONTRAILS SLP224

CYHM;2011-06-03 21:00;CYHM 032100Z 25004KT 15SM FEW140 23/08 A3017 RMK AC2 SLP218

CYHM;2011-06-03 22:00;CYHM 032200Z 19011KT 15SM FEW140 FEW230 21/09 A3017 RMK AC2CI1 SLP217

CYHM;2011-06-03 23:00;CYHM 032300Z 20011KT 15SM BKN170 18/08 A3016 RMK AC6 SLP215

CYHM;2011-06-04 00:00;CYHM 040000Z 20009KT 15SM FEW180 SCT220 17/07 A3015 RMK AC2CI1 SLP210

CYHM;2011-06-04 01:00;CYHM 040100Z 22007KT 15SM BKN190 15/08 A3014 RMK AC6 SLP207

CYHM;2011-06-04 02:00;CYHM 040200Z 23006KT 15SM -SHRA OVC170 15/07 A3016 RMK AC8 SLP215

CYHM;2011-06-04 02:35;CYHM 040235Z 25007KT 15SM FEW180 RMK AC2

CYHM;2011-06-04 03:00;CYHM 040300Z 24007KT 15SM FEW170 12/08 A3019 RMK AC1 SLP223

CYHM;2011-06-04 04:00;CYHM 040400Z 22005KT 15SM FEW200 13/07 A3017 RMK CI1 SLP218

CYHM;2011-06-04 05:00;CYHM 040500Z 24007KT 15SM FEW200 12/08 A3016 RMK CI1 SLP215

CYHM;2011-06-04 06:00;CYHM 040600Z 24005KT 15SM SCT190 11/08 A3015 RMK AC4 SLP210

CYHM;2011-06-04 07:00;CYHM 040700Z 24005KT 15SM SCT130 12/08 A3013 RMK AC3 SLP203

CYHM;2011-06-04 08:00;CYHM 040800Z 27004KT 15SM BKN130 OVC170 13/08 A3013 RMK AC6AC2 SLP204

CYHM;2011-06-04 10:00;CYHM 041000Z 00000KT 15SM -SHRA FEW017 BKN081 14/11 A3012 RMK CF1AC6 PCPN VRY LGT SLP200

CYHM;2011-06-04 11:00;CYHM 041100Z 13006KT 15SM SCT070 BKN100 13/10 A3012 RMK AC3AC4 SLP198

CYHM;2011-06-04 12:00;CYHM 041200Z 18008KT 15SM FEW075 BKN110 BKN220 15/09 A3010 RMK AC2AC3CI1 SLP192

CYHM;2011-06-04 13:00;CYHM 041300Z 18004KT 15SM FEW045 SCT100 BKN180 OVC220 16/09 A3009 RMK SC2AC2AC2CI2 SLP189

CYHM;2011-06-04 14:00;CYHM 041400Z 16005KT 15SM SCT062 BKN075 OVC160 16/10 A3006 RMK SC3AC3AC2 SLP181

CYHM;2011-06-04 14:10;CYHM 041410Z 15005KT 10SM -SHRA SCT060 BKN073 OVC140 RMK SC3AC4AC1

CYHM;2011-06-04 14:13;CYHM 041413Z 14008KT 10SM -TSRA BKN048 BKN075 OVC120 RMK SC5AC2AC1 CB EMBD

CYHM;2011-06-04 14:22;CYHM 041422Z 17003KT 7SM -TSRA BKN048 BKN053 OVC072 RMK SC6SC2AC1 CB EMBD LTNGW-SW

CYHM;2011-06-04 14:31;CYHM 041431Z 00000KT 2 1/2SM TSRA BKN025 OVC043 RMK SC6SC2 CB EMDB LTNG

CYHM;2011-06-04 14:47;CYHM 041447Z 07002KT 3SM -TSRA BKN025 BKN034 OVC092 RMK SC6SC2AC1 CB EMBD RERA LTNG

CYHM;2011-06-04 15:00;CYHM 041500Z 02022G40KT 3/4SM TSRA BR BKN015 OVC035 12/12 A3017 RMK FG2SF5SC2 CB EMBD LTNG PRESRR SLP221

CYHM;2011-06-04 15:05;CYHM 041505Z 06009KT 1SM TSRA BR BKN007 OVC021 RMK FG1SF6SC2 CB EMBD LTNG

CYHM;2011-06-04 15:13;CYHM 041513Z 07008KT 2SM -TSRA BR BKN027 OVC062 RMK SC6SC2 CB EMBD RERA LTNG

CYHM;2011-06-04 15:35;CYHM 041535Z 10011KT 2SM TSRA BR BKN015 OVC035 RMK SC6SC2 CB EMBD LTNG

CYHM;2011-06-04 16:00;CYHM 041600Z 13004KT 5SM -TSRA BR SCT035 OVC088 12/12 A3013 RMK SC4AC4 CB EMBD RERA LTNG SLP205

CYHM;2011-06-04 16:35;CYHM 041635Z 16010KT 6SM -SHRA BR FEW060 OVC090 RMK SC2AC6 RETS

CYHM;2011-06-04 17:00;CYHM 041700Z 18013KT 6SM BR FEW090 BKN140 OVC220 15/14 A3001 RMK AC2AC4CI2 PRESFR SLP168

CYHM;2011-06-04 18:00;CYHM 041800Z 18002KT 15SM BKN130 BKN170 OVC210 17/15 A3003 RMK AC5AS2CI1 PRESFR SLP169

CYHM;2011-06-04 19:00;CYHM 041900Z 18012KT 15SM FEW045 BKN110 19/15 A3001 RMK SC2AC3 CU ASOCTD SLP163

CYHM;2011-06-04 20:00;CYHM 042000Z 22008KT 15SM FEW030 FEW120 20/15 A2997 RMK CU2AC1 SLP150

CYHM;2011-06-04 21:00;CYHM 042100Z 25006KT 15SM BKN037 OVC080 20/16 A2998 RMK SC6AC2 SLP153

CYHM;2011-06-04 21:39;CYHM 042139Z 05012KT 12SM OVC032 RMK SC8 WSHFT 2124

CYHM;2011-06-04 22:00;CYHM 042200Z 05012KT 10SM BKN030 OVC050 15/13 A3001 RMK SC6SC2 SLP160

CYHM;2011-06-04 23:00;CYHM 042300Z 05011KT 10SM SCT030 BKN250 14/13 A2999 RMK SC3CI1 SLP154

CYHM;2011-06-05 00:00;CYHM 050000Z 05009KT 10SM OVC028 14/13 A2999 RMK SC8 SLP156

CYHM;2011-06-05 01:00;CYHM 050100Z 05008KT 10SM BKN028 OVC038 13/12 A3000 RMK SC6SC2 SLP161

CYHM;2011-06-05 02:00;CYHM 050200Z 04005KT 12SM OVC024 13/12 A3001 RMK SC8 SLP164

CYHM;2011-06-05 03:00;CYHM 050300Z 32003KT 9SM OVC026 13/12 A3004 RMK SC8 SLP173

CYHM;2011-06-05 04:00;CYHM 050400Z 02009KT 7SM BKN037 13/12 A3004 RMK SC6 SLP174

CYHM;2011-06-05 05:00;CYHM 050500Z 36003KT 10SM FEW030 SCT230 12/11 A3002 RMK SC1CI2 SLP169

CYHM;2011-06-05 06:00;CYHM 050600Z 00000KT 10SM FEW230 12/11 A3002 RMK CI2 SLP167

CYHM;2011-06-05 07:00;CYHM 050700Z 27005KT 7SM FEW230 11/11 A3004 RMK CI2 SLP172

CYHM;2011-06-05 08:00;CYHM 050800Z 26004KT 7SM FEW230 11/11 A3004 RMK CI2 SLP173

CYHM;2011-06-05 09:00;CYHM 050900Z 28006KT 8SM FEW220 12/12 A3004 RMK CI2 SLP173

CYHM;2011-06-05 11:00;CYHM 051100Z 28007KT 7SM BKN250 15/14 A3005 RMK CI2 SLP177

CYHM;2011-06-05 12:00;CYHM 051200Z 28007KT 12SM FEW250 17/14 A3006 RMK CI2 SLP181

CYHM;2011-06-05 13:00;CYHM 051300Z 28007KT 15SM FEW250 19/14 A3007 RMK CI1 SLP182

CYHM;2011-06-05 14:00;CYHM 051400Z 28006KT 240V350 15SM FEW250 20/15 A3006 RMK CI0 SLP181

CYHM;2011-06-05 15:00;CYHM 051500Z 28007KT 15SM FEW250 22/15 A3006 RMK CI0 SLP179

CYHM;2011-06-05 16:00;CYHM 051600Z 28008KT 15SM FEW250 23/15 A3006 RMK CI0 SLP178

CYHM;2011-06-05 17:00;CYHM 051700Z 29010KT 260V340 15SM FEW040 FEW250 25/15 A3005 RMK SC1CI0 SC TR SLP177

CYHM;2011-06-05 18:00;CYHM 051800Z 30014KT 270V360 15SM FEW045 FEW250 25/15 A3006 RMK CU1CI0 SLP179

CYHM;2011-06-05 19:00;CYHM 051900Z 30010KT 270V340 15SM FEW040 FEW220 25/14 A3006 RMK CU1CI1 SLP179

CYHM;2011-06-05 20:00;CYHM 052000Z 30010KT 270V340 15SM FEW045 FEW220 26/15 A3006 RMK CU2CI1 CI TR SLP178

CYHM;2011-06-05 21:00;CYHM 052100Z 30010KT 260V350 15SM FEW045 FEW056 FEW220 26/15 A3005 RMK CU2SC1CI1 CI TR SLP175

CYHM;2011-06-05 22:00;CYHM 052200Z 34009KT 300V020 15SM FEW055 25/14 A3005 RMK CU2 SLP175

CYHM;2011-06-05 23:00;CYHM 052300Z 31006KT 270V350 15SM FEW055 25/14 A3005 RMK CU2 SLP174

CYHM;2011-06-06 00:00;CYHM 060000Z 29005KT 15SM FEW055 FEW220 23/14 A3005 RMK CU2CI1 CI TR SLP174

CYHM;2011-06-06 01:00;CYHM 060100Z 06002KT 15SM FEW058 SCT250 21/14 A3005 RMK SC2CI1 CU ASOCTD SLP176

CYHM;2011-06-06 02:00;CYHM 060200Z 36002KT 15SM FEW057 FEW250 19/14 A3007 RMK SC2CI1 CU ASOCTD CI TR SLP181

CYHM;2011-06-06 03:00;CYHM 060300Z 02005KT 15SM FEW058 18/13 A3007 RMK SC2 SLP183

CYHM;2011-06-06 04:00;CYHM 060400Z 03007KT 15SM FEW056 18/13 A3006 RMK SC1 SLP179

CYHM;2011-06-06 05:00;CYHM 060500Z 03005KT 15SM FEW054 16/13 A3006 RMK SC1 SLP179

CYHM;2011-06-06 06:00;CYHM 060600Z 05005KT 15SM SKC 16/13 A3007 RMK SLP182

CYHM;2011-06-06 07:00;CYHM 060700Z 36002KT 15SM SKC 15/12 A3007 RMK SLP181

CYHM;2011-06-06 09:00;CYHM 060900Z 01005KT 15SM SKC 14/12 A3007 RMK SLP180

CYHM;2011-06-06 10:00;CYHM 061000Z 03003KT 15SM SKC 14/12 A3007 RMK SLP181

CYHM;2011-06-06 11:00;CYHM 061100Z 03002KT 15SM SKC 16/13 A3007 RMK SLP182

CYHM;2011-06-06 12:00;CYHM 061200Z 02004KT 15SM FEW220 19/14 A3008 RMK CI1 CI TR SLP183

CYHM;2011-06-06 13:00;CYHM 061300Z 02002KT 15SM FEW220 20/14 A3009 RMK CI0 CI TR SLP186

CYHM;2011-06-06 15:00;CYHM 061500Z 13004KT 15SM FEW240 23/13 A3007 RMK CI1 SLP181

CYHM;2011-06-06 16:00;CYHM 061600Z 24004KT 15SM FEW035 FEW240 24/15 A3007 RMK CU1CI1 SLP180

CYHM;2011-06-06 17:00;CYHM 061700Z 27002KT 15SM FEW035 24/15 A3006 RMK CU1 SLP179

CYHM;2011-06-06 18:00;CYHM 061800Z 22003KT 15SM FEW035 25/15 A3004 RMK CU1 CU TR SLP172

CYHM;2011-06-06 19:00;CYHM 061900Z 00000KT 15SM FEW052 26/12 A3003 RMK CU1 SLP166

CYHM;2011-06-06 20:00;CYHM 062000Z 19005KT 15SM FEW048 27/15 A3001 RMK CU1 SLP161

CYHM;2011-06-06 21:00;CYHM 062100Z 00000KT 15SM FEW050 FEW250 27/13 A2999 RMK CU1CI1 CI TR SLP155

CYHM;2011-06-06 22:00;CYHM 062200Z 00000KT 15SM FEW050 FEW250 26/10 A2998 RMK CU1CI2 CU TR SLP150

CYHM;2011-06-06 23:00;CYHM 062300Z 20007KT 15SM SCT250 25/15 A2997 RMK CI2 SLP147

CYHM;2011-06-07 00:00;CYHM 070000Z 20005KT 15SM FEW140 SCT250 23/12 A2997 RMK AC1CI1 AC TR SLP146

CYHM;2011-06-07 01:00;CYHM 070100Z 20003KT 15SM FEW180 FEW250 20/12 A2997 RMK AC1CI1 AC TR SLP146

CYHM;2011-06-07 02:00;CYHM 070200Z 16004KT 15SM FEW250 19/14 A2997 RMK CI1 CI TR SLP147

CYHM;2011-06-07 03:00;CYHM 070300Z 18006KT 15SM FEW250 17/14 A2997 RMK CI1 CI TR SLP148

CYHM;2011-06-07 04:00;CYHM 070400Z 17005KT 15SM FEW250 17/13 A2996 RMK CI1 CI TR SLP144

CYHM;2011-06-07 05:00;CYHM 070500Z 19005KT 15SM FEW130 BKN250 16/14 A2995 RMK AC2CI2 SLP141

CYHM;2011-06-07 06:00;CYHM 070600Z 15003KT 15SM BKN120 BKN250 18/13 A2992 RMK AC5CI2 SLP131

CYHM;2011-06-07 07:00;CYHM 070700Z 16007KT 15SM FEW110 SCT180 BKN250 17/12 A2990 RMK AC2AC2CI2 SLP122

CYHM;2011-06-07 08:42;CYHM 070842Z 18009KT 15SM -TSRA FEW110 BKN130 OVC240 RMK AC2AC4CI2 LTNG CB ASOCTD

CYHM;2011-06-07 09:00;CYHM 070900Z 19006KT 15SM -TSRA BKN110 OVC130 17/14 A2987 RMK AC5AC3 LTNG CB ASOCTD SLP113

CYHM;2011-06-07 10:00;CYHM 071000Z 35008KT 8SM -TSRA FEW048 SCT060 BKN084 OVC110 16/14 A2999 RMK SC2SC1AC2AC3 CB ASOCTD LTNG SLP152

CYHM;2011-06-07 10:24;CYHM 071024Z 00000KT 5SM -TSRA BR BKN061 BKN077 OVC110 RMK SC5AC2AC1 CB ASOCTD LTNG

CYHM;2011-06-07 10:37;CYHM 071037Z 12012KT 4SM -TSRA BR BKN035 OVC057 RMK SC6SC2 CB EMBDLTNG

CYHM;2011-06-07 11:00;CYHM 071100Z 12012KT 7SM -TSRA FEW018 SCT035 BKN110 BKN130 16/15 A2983 RMK SC1SC3AC2AC1 CB ASOCTD LTNG SLP100

CYHM;2011-06-07 11:29;CYHM 071129Z 18015G20KT 10SM -SHRA SCT045 BKN120 BKN140 RMK SC3AC3AC1 RETS LTNG S-SE

CYHM;2011-06-07 11:45;CYHM 071145Z 18012G22KT 15SM FEW035 BKN120 BKN180 RMK SC2AC3AC2 TR CU ASOCTD

CYHM;2011-06-07 12:00;CYHM 071200Z 28006KT 15SM FEW045 BKN140 OVC220 17/15 A2985 RMK SC2AC6CI1 SLP108

CYHM;2011-06-07 13:00;CYHM 071300Z 21012KT 15SM FEW045 SCT110 BKN160 19/17 A2988 RMK SC1AC2AS4 SLP118

CYHM;2011-06-07 14:00;CYHM 071400Z 22018G23KT 15SM FEW025 BKN210 20/17 A2990 RMK CU1CI6 CU TR SLP123

CYHM;2011-06-07 15:00;CYHM 071500Z 24014KT 15SM BKN220 22/18 A2989 RMK CI4 SLP119

CYHM;2011-06-07 16:00;CYHM 071600Z 24008KT 15SM FEW035 SCT220 24/20 A2990 RMK CU1CI2 CU TR SLP123

CYHM;2011-06-07 17:00;CYHM 071700Z 26015G22KT 15SM BKN019 BKN024 25/21 A2990 RMK SC5SC2 SLP123

CYHM;2011-06-07 18:00;CYHM 071800Z 26012KT 10SM SCT020 OVC025 25/21 A2991 RMK SC4SC4 SLP126

CYHM;2011-06-07 19:00;CYHM 071900Z 25012KT 8SM BKN024 25/21 A2988 RMK SC7 SLP117

CYHM;2011-06-07 20:00;CYHM 072000Z 26007KT 10SM BKN027 25/21 A2987 RMK SC7 SLP114

CYHM;2011-06-07 21:00;CYHM 072100Z 25012KT 15SM SCT026 27/21 A2984 RMK SC2 SLP101

CYHM;2011-06-07 22:00;CYHM 072200Z 26008KT 15SM FEW032 FEW250 27/22 A2985 RMK CU1CI1 CU TR SLP107

CYHM;2011-06-07 23:00;CYHM 072300Z 24007KT 12SM FEW032 FEW250 27/21 A2986 RMK CU1CI1 CU TR SLP108

CYHM;2011-06-08 00:00;CYHM 080000Z 22003KT 12SM FEW250 25/22 A2986 RMK CI1 SLP110

CYHM;2011-06-08 01:00;CYHM 080100Z 21004KT 6SM BR FEW250 23/21 A2987 RMK CI1 SLP114

CYHM;2011-06-08 02:00;CYHM 080200Z 17002KT 8SM FEW250 22/21 A2990 RMK CI1 SLP123

CYHM;2011-06-08 03:00;CYHM 080300Z 18003KT 8SM FEW250 22/21 A2991 RMK CI1 SLP125

CYHM;2011-06-08 04:00;CYHM 080400Z 00000KT 8SM BKN028 BKN250 21/20 A2993 RMK SC3CI1 SLP131

CYHM;2011-06-08 05:00;CYHM 080500Z 15007KT 9SM FEW028 BKN058 BKN180 21/20 A2990 RMK SC2SC3AC1 LTNG CB ASOCTD SLP121

CYHM;2011-06-08 05:25;CYHM 080525Z 34020G30KT 1SM +TSRA SCT004 BKN013CB OVC028 RMK SF3CB4SC1

CYHM;2011-06-08 06:00;CYHM 080600Z 36010KT 10SM -TSRA FEW004 FEW018 BKN058 BKN072 OVC120 18/18 A2995 RMK SF1SF2SC2AC2AC1 LTNG CB ASOCTD SLP140

CYHM;2011-06-08 07:00;CYHM 080700Z 20007KT 15SM FEW054 BKN080 OVC250 19/19 A2990 RETS RMK SC2AC3CI1 SLP124

CYHM;2011-06-08 08:00;CYHM 080800Z 22008KT 15SM FEW050 FEW080 SCT250 18/18 A2989 RMK SC1AC2CI1 SLP120

CYHM;2011-06-08 09:00;CYHM 080900Z 20009KT 15SM FEW052 SCT250 19/19 A2988 RMK SC1CI2 SLP117

CYHM;2011-06-08 10:00;CYHM 081000Z 20007KT 12SM FEW250 18/18 A2989 RMK CI1 SLP119

CYHM;2011-06-08 11:00;CYHM 081100Z 21008KT 6SM BR SKC 19/19 A2989 RMK SLP120

CYHM;2011-06-08 12:00;CYHM 081200Z 21010KT 10SM SKC 21/21 A2989 RMK SLP118

CYHM;2011-06-08 13:00;CYHM 081300Z 21012KT 10SM SKC 23/23 A2989 RMK SLP118

CYHM;2011-06-08 14:00;CYHM 081400Z 22010KT 12SM SKC 25/25 A2988 RMK SLP117

CYHM;2011-06-08 15:00;CYHM 081500Z 24014KT 15SM FEW240 27/22 A2988 RMK CI1 CI TR SLP113

CYHM;2011-06-08 16:00;CYHM 081600Z 24011KT 15SM SKC 28/23 A2988 RMK SLP113

CYHM;2011-06-08 17:00;CYHM 081700Z 25014KT 15SM SKC 30/23 A2987 RMK SLP112

CYHM;2011-06-08 18:00;CYHM 081800Z 25013KT 15SM FEW035 30/22 A2986 RMK CU1 CU TR SLP108

CYHM;2011-06-08 19:00;CYHM 081900Z 25015KT 15SM FEW045 FEW190 31/23 A2984 RMK CU2AC1 SLP102

CYHM;2011-06-08 20:00;CYHM 082000Z 24016KT 15SM FEW045 31/23 A2983 RMK CU2 SLP099

CYHM;2011-06-08 21:00;CYHM 082100Z 21018KT 15SM FEW180 FEW230 30/23 A2982 RMK AC1CI1 TR AC SLP095

CYHM;2011-06-08 22:00;CYHM 082200Z 23013G18KT 15SM FEW200 30/22 A2984 RMK CI1 SLP101

CYHM;2011-06-08 23:00;CYHM 082300Z 22012KT 15SM FEW150 29/22 A2982 RMK AC1 SLP094

CYHM;2011-06-09 00:00;CYHM 090000Z 22008KT 10SM SCT170 28/21 A2984 RMK AC3 SLP100

CYHM;2011-06-09 01:00;CYHM 090100Z 20007KT 8SM SCT170 26/20 A2984 RMK AC2 SLP101

CYHM;2011-06-09 02:00;CYHM 090200Z 23003KT 12SM BKN210 25/20 A2985 RMK CI3 SLP106

CYHM;2011-06-09 03:00;CYHM 090300Z 20007KT 15SM SCT200 23/20 A2984 RMK CI2 SLP101

CYHM;2011-06-09 04:00;CYHM 090400Z 23007KT 15SM FEW200 23/20 A2982 RMK CI2 SLP095

CYHM;2011-06-09 05:00;CYHM 090500Z 22008KT 15SM FEW200 23/20 A2980 RMK CI1 SLP088

CYHM;2011-06-09 06:00;CYHM 090600Z 22010KT 8SM BKN230 23/21 A2981 RMK CI4 SLP088

CYHM;2011-06-09 07:00;CYHM 090700Z 23013KT 7SM FEW043 BKN230 24/21 A2981 RMK SC1CI2 SLP091

CYHM;2011-06-09 08:00;CYHM 090800Z 23009KT 8SM SCT084 BKN230 24/20 A2981 RMK AC3CI2 SLP088

CYHM;2011-06-09 09:00;CYHM 090900Z 29007KT 12SM FEW070 OVC190 23/17 A2982 RMK AC2AC6 SLP093

CYHM;2011-06-09 10:00;CYHM 091000Z 26007KT 15SM FEW110 BKN230 22/17 A2984 RMK AC2CI6 SLP099

CYHM;2011-06-09 11:00;CYHM 091100Z 25014KT 15SM FEW110 BKN170 OVC220 21/17 A2986 RMK AC2AC5CI2 SLP106

CYHM;2011-06-09 12:00;CYHM 091200Z 23007KT 15SM FEW100 BKN160 OVC220 21/17 A2982 RMK AC2AC4CI2 SLP094

CYHM;2011-06-09 13:00;CYHM 091300Z 33014KT 15SM FEW045 BKN140 BKN170 22/16 A2987 RMK CU1AC5AC1 CU TR SLP110

CYHM;2011-06-09 14:00;CYHM 091400Z 29007KT 15SM FEW090 BKN120 BKN210 23/17 A2990 RMK AC2AC3CI1 SLP120

CYHM;2011-06-09 15:00;CYHM 091500Z 30003KT 15SM BKN150 BKN180 23/17 A2990 RMK AC6AC2 SLP123

CYHM;2011-06-09 16:00;CYHM 091600Z 26004KT 15SM BKN150 BKN170 22/18 A2991 RMK AC5AC2 SLP127

CYHM;2011-06-09 17:00;CYHM 091700Z 26007KT 15SM FEW025 SCT210 25/19 A2992 RMK CU1CI2 CU TR SLP130

CYHM;2011-06-09 18:00;CYHM 091800Z 25006KT 15SM FEW039 FEW160 BKN210 26/18 A2993 RMK CU2AC1CI2 SLP130

CYHM;2011-06-09 19:00;CYHM 091900Z 28013KT 240V320 15SM BKN046 BKN220 26/18 A2992 RMK SC5CI1 SLP127

CYHM;2011-06-09 20:00;CYHM 092000Z 28011KT 15SM BKN042 BKN230 25/19 A2991 RMK SC5CI1 SLP126

CYHM;2011-06-09 21:00;CYHM 092100Z 31014KT 260V350 15SM FEW036 BKN230 25/19 A2991 RMK SC2CI2 SLP123

CYHM;2011-06-09 22:00;CYHM 092200Z 30012KT 260V350 15SM FEW036 BKN230 24/17 A2991 RMK CU1CI3 SLP126

CYHM;2011-06-09 23:00;CYHM 092300Z 30008KT 250V340 15SM SCT036 BKN230 23/17 A2993 RMK CU3CI2 SLP131

CYHM;2011-06-10 00:00;CYHM 100000Z 31008KT 15SM FEW038 BKN240 21/17 A2995 RMK SC2CI2 SLP140

CYHM;2011-06-10 01:00;CYHM 100100Z 31010KT 260V350 15SM FEW042 BKN250 18/15 A2999 RMK SC1CI2 SLP153

CYHM;2011-06-10 02:00;CYHM 100200Z 31008KT 15SM FEW040 BKN250 17/14 A3002 RMK SC1CI2 SLP163

CYHM;2011-06-10 03:00;CYHM 100300Z 33006KT 15SM FEW040 BKN250 15/13 A3005 RMK SC1CI2 SLP175

CYHM;2011-06-10 04:00;CYHM 100400Z 35010KT 15SM FEW018 BKN250 14/11 A3007 RMK SC2CI2 SLP181

CYHM;2011-06-10 05:00;CYHM 100500Z 34006KT 15SM FEW018 BKN250 13/10 A3007 RMK SC2CI2 SLP180

CYHM;2011-06-10 06:00;CYHM 100600Z 36005KT 15SM FEW020 BKN250 12/11 A3005 RMK SC2CI2 SLP176

CYHM;2011-06-10 07:00;CYHM 100700Z CCA 01008KT 15SM FEW020 BKN250 12/11 A3005 RMK SC2CI2 SLP174

CYHM;2011-06-10 08:00;CYHM 100800Z 03008KT 15SM FEW018 BKN250 12/11 A3004 RMK SC2CI2 SLP172

CYHM;2011-06-10 09:00;CYHM 100900Z 03007KT 12SM BKN022 13/11 A3005 RMK SC7 SLP175

CYHM;2011-06-10 10:00;CYHM 101000Z 02006KT 15SM BKN022 BKN090 BKN220 12/11 A3006 RMK SC5AC1CI1 SLP178

CYHM;2011-06-10 11:00;CYHM 101100Z 01005KT 15SM FEW022 FEW100 SCT220 13/11 A3009 RMK SC2AC1CI1 SLP187

CYHM;2011-06-10 12:00;CYHM 101200Z 05009KT 15SM BKN024 BKN090 BKN210 14/11 A3009 RMK SC5AC1CI1 SLP188

CYHM;2011-06-10 13:00;CYHM 101300Z 03012KT 15SM FEW024 FEW085 BKN210 15/11 A3008 RMK SC2AC1CI2 SLP186

CYHM;2011-06-10 14:00;CYHM 101400Z 05012KT 15SM SCT024 BKN075 BKN210 15/11 A3010 RMK SC3AC2CI1 SLP191

CYHM;2011-06-10 15:00;CYHM 101500Z 06010KT 15SM FEW025 FEW160 SCT240 17/11 A3010 RMK CU1AC2CI1 SLP195

CYHM;2011-06-10 16:00;CYHM 101600Z 05006KT 15SM FEW025 BKN160 BKN240 16/12 A3013 RMK CU2AC3CI2 SLP202

CYHM;2011-06-10 17:00;CYHM 101700Z 03006KT 15SM FEW025 SCT140 BKN210 17/12 A3010 RMK CU2AC2CI3 SLP195

CYHM;2011-06-10 18:00;CYHM 101800Z 02010KT 15SM FEW030 BKN071 OVC210 18/11 A3008 RMK CU2AC4CI2 SLP187

CYHM;2011-06-10 19:00;CYHM 101900Z 07013KT 15SM FEW035 BKN074 BKN200 17/12 A3004 RMK CU1AC6CI1 SLP175

CYHM;2011-06-10 20:00;CYHM 102000Z 05013KT 15SM FEW070 BKN130 BKN200 17/11 A3001 RMK AC2AC2CI2 CONTRAILS SLP165

CYHM;2011-06-10 21:00;CYHM 102100Z 05013KT 15SM OVC120 15/10 A3001 RMK AC8 SLP166

CYHM;2011-06-10 22:00;CYHM 102200Z 05010KT 15SM OVC080 15/10 A3004 RMK AC8 SLP174

CYHM;2011-06-10 23:00;CYHM 102300Z 04009KT 15SM -SHRA SCT055 OVC092 15/10 A3004 RMK SC3AC5 PCPN VRY LGT SLP174

CYHM;2011-06-11 00:00;CYHM 110000Z 05011KT 15SM -SHRA FEW056 SCT090 OVC110 14/11 A3002 RMK SC2AC2AC5 PCPN VRY LGT SLP167

CYHM;2011-06-11 01:00;CYHM 110100Z 05010KT 15SM FEW070 BKN110 14/11 A3001 RMK AC2AC6 SLP165

CYHM;2011-06-11 02:00;CYHM 110200Z 05009KT 15SM FEW070 BKN100 14/11 A3001 RMK AC2AC6 SLP164

CYHM;2011-06-11 03:00;CYHM 110300Z 05007KT 15SM BKN080 14/12 A3001 RMK AC7 SLP165

CYHM;2011-06-11 04:00;CYHM 110400Z 03009KT 15SM BKN079 OVC093 14/12 A3001 RMK AC6AC2 SLP162

CYHM;2011-06-11 05:00;CYHM 110500Z 05007KT 15SM SCT090 BKN220 14/12 A2999 RMK AC3CI2 SLP157

CYHM;2011-06-11 06:00;CYHM 110600Z 04009KT 15SM FEW070 BKN220 14/12 A2997 RMK AC1CI3 SLP150

CYHM;2011-06-11 07:00;CYHM 110700Z 05010KT 15SM FEW095 FEW110 BKN220 13/12 A2994 RMK AC1AC2CI2 SLP141

CYHM;2011-06-11 08:00;CYHM 110800Z 04011KT 15SM FEW110 BKN220 14/11 A2992 RMK AC1CI3 SLP133

CYHM;2011-06-11 09:00;CYHM 110900Z 05012KT 15SM BKN240 14/11 A2992 RMK CI7 SLP133

CYHM;2011-06-11 10:00;CYHM 111000Z 05012KT 15SM BKN059 OVC200 14/12 A2994 RMK SC6CI2 SLP139

CYHM;2011-06-11 11:00;CYHM 111100Z 05012KT 15SM OVC056 15/12 A2994 RMK SC8 SLP141

CYHM;2011-06-11 12:00;CYHM 111200Z 04014KT 15SM BKN063 BKN250 15/11 A2992 RMK SC5CI2 SLP133

CYHM;2011-06-11 13:00;CYHM 111300Z 05011KT 15SM BKN060 OVC230 16/12 A2992 RMK SC5CI3 SLP132

CYHM;2011-06-11 14:00;CYHM 111400Z 06006KT 15SM FEW036 BKN056 OVC230 16/12 A2992 RMK SC2SC6CI1 SLP133

CYHM;2011-06-11 15:00;CYHM 111500Z 05006KT 360V090 15SM BKN034 BKN050 OVC230 17/14 A2991 RMK SC5SC2CI2 SLP129

CYHM;2011-06-11 16:00;CYHM 111600Z 05007KT 010V090 15SM SCT045 BKN071 OVC230 18/14 A2990 RMK SC3AC4CI1 SLP125

CYHM;2011-06-11 17:00;CYHM 111700Z 04002KT 15SM FEW018 BKN041 OVC060 18/15 A2989 RMK CU2SC6SC1 SLP122

CYHM;2011-06-11 18:00;CYHM 111800Z 00000KT 15SM OVC018 20/17 A2987 RMK SC8 SLP114

CYHM;2011-06-11 19:00;CYHM 111900Z 23007KT 15SM BKN016 OVC025 21/18 A2986 RMK SC6SC2 SLP112

CYHM;2011-06-11 20:00;CYHM 112000Z 25005KT 15SM BKN018 BKN043 22/19 A2984 RMK SC6SC2 SLP106

CYHM;2011-06-11 21:00;CYHM 112100Z 24007KT 180V280 15SM BKN022 OVC045 23/19 A2984 RMK SC7SC1 SLP103

CYHM;2011-06-11 22:00;CYHM 112200Z 26007KT 12SM OVC022 23/19 A2983 RMK SC8 SLP102

CYHM;2011-06-11 23:00;CYHM 112300Z 27006KT 10SM OVC022 22/19 A2984 RMK SC8 SLP105

CYHM;2011-06-12 00:00;CYHM 120000Z 27008KT 7SM BKN022 BKN035 21/18 A2984 RMK SC6SC2 SLP106

CYHM;2011-06-12 01:00;CYHM 120100Z 29010KT 7SM BKN025 BKN230 19/17 A2985 RMK SC6CI2 SLP107

CYHM;2011-06-12 02:00;CYHM 120200Z 32003KT 12SM FEW025 FEW090 17/16 A2985 RMK SC1AC1 SLP108

CYHM;2011-06-12 03:00;CYHM 120300Z 00000KT 7SM FEW090 FEW230 17/16 A2987 RMK AC1CI1 SLP114

CYHM;2011-06-12 04:00;CYHM 120400Z 00000KT 6SM BR FEW070 SCT230 15/15 A2987 RMK AC1CI1 SLP115

CYHM;2011-06-12 05:00;CYHM 120500Z 00000KT 6SM BR SCT090 15/15 A2986 RMK AC4 SLP112

CYHM;2011-06-12 06:00;CYHM 120600Z 00000KT 7SM BKN085 15/15 A2985 RMK AC6 SLP109

CYHM;2011-06-12 07:00;CYHM 120700Z 31004KT 7SM OVC045 16/15 A2986 RMK SC8 SLP110

CYHM;2011-06-12 08:00;CYHM 120800Z 32005KT 10SM FEW018 OVC025 16/14 A2987 RMK CF2SC6 SLP114

CYHM;2011-06-12 09:00;CYHM 120900Z 32007KT 7SM FEW025 OVC035 15/14 A2987 RMK CF2SC6 SLP113

CYHM;2011-06-12 09:30;CYHM 120930Z 29004KT 5SM BR BKN011 OVC045 RMK CF6SC2

CYHM;2011-06-12 10:00;CYHM 121000Z 32008KT 5SM BR BKN013 OVC024 15/14 A2987 RMK CF6SC2 SLP114

CYHM;2011-06-12 11:00;CYHM 121100Z 30008KT 15SM FEW013 SCT025 BKN042 14/13 A2988 RMK CF2SC2SC2 SLP118

CYHM;2011-06-12 12:00;CYHM 121200Z 30010KT 260V340 15SM BKN014 BKN075 14/12 A2990 RMK SC5AC2 SLP126

CYHM;2011-06-12 12:19;CYHM 121219Z 28010KT 240V330 15SM SCT015 BKN074 RMK SC4AC2

CYHM;2011-06-12 13:00;CYHM 121300Z 28012KT 15SM FEW018 SCT036 BKN072 15/11 A2991 RMK SC2SC2AC1 SLP130

CYHM;2011-06-12 14:00;CYHM 121400Z 30012KT 240V360 15SM FEW025 FEW070 16/11 A2990 RMK SC1AC1 AC TR SLP125

CYHM;2011-06-12 15:00;CYHM 121500Z CCA 28013KT 15SM SCT023 16/11 A2992 RMK SC3 SLP133

CYHM;2011-06-12 16:00;CYHM 121600Z 29010KT 15SM BKN024 16/11 A2993 RMK SC7 SLP136

CYHM;2011-06-12 17:00;CYHM 121700Z 27013KT 15SM BKN027 16/11 A2993 RMK SC6 SLP136

CYHM;2011-06-12 18:00;CYHM 121800Z 27013KT 15SM BKN031 16/10 A2993 RMK SC7 SLP136

CYHM;2011-06-12 19:00;CYHM 121900Z 28013KT 15SM BKN030 16/11 A2993 RMK SC7 SLP137

CYHM;2011-06-12 20:00;CYHM 122000Z 29009KT 15SM BKN030 15/10 A2995 RMK SC7 SLP142

CYHM;2011-06-12 21:00;CYHM 122100Z 30011KT 15SM SCT030 OVC040 16/11 A2995 RMK SC4SC4 SLP142

CYHM;2011-06-12 22:00;CYHM 122200Z 28010KT 15SM BKN030 OVC035 16/10 A2995 RMK SC5SC3 SLP143

CYHM;2011-06-12 23:00;CYHM 122300Z 28010KT 15SM SCT030 BKN035 15/10 A2996 RMK SC3SC4 SLP146

CYHM;2011-06-13 00:00;CYHM 130000Z 29007KT 15SM SCT035 BKN040 15/10 A2997 RMK SC3SC4 SLP152

CYHM;2011-06-13 01:00;CYHM 130100Z 24004KT 15SM SCT040 BKN080 BKN250 14/10 A2997 RMK SC3AC2CI1 SLP152

CYHM;2011-06-13 02:00;CYHM 130200Z 26004KT 15SM FEW040 SCT050 BKN080 BKN230 13/10 A2999 RMK SC2SC2AC2CI1 SLP157

CYHM;2011-06-13 03:00;CYHM 130300Z 26005KT 15SM FEW054 FEW240 12/10 A2999 RMK SC1CI1 SLP158

CYHM;2011-06-13 04:00;CYHM 130400Z 27003KT 15SM FEW054 FEW240 12/10 A2998 RMK SC1CI1 CI TR SLP154

CYHM;2011-06-13 05:00;CYHM 130500Z 27004KT 15SM FEW240 11/10 A2998 RMK CI1 CI TR SLP153

CYHM;2011-06-13 06:00;CYHM 130600Z 25005KT 15SM FEW240 11/10 A2997 RMK CI1 CI TR SLP150

CYHM;2011-06-13 07:00;CYHM 130700Z 27005KT 15SM FEW240 11/09 A2997 RMK CI1 CI TR SLP149

CYHM;2011-06-13 08:00;CYHM 130800Z 27005KT 15SM FEW056 10/09 A2997 RMK SC1 SLP149

CYHM;2011-06-13 09:00;CYHM 130900Z 26006KT 15SM FEW056 09/08 A2996 RMK SC1 SLP149

CYHM;2011-06-13 10:00;CYHM 131000Z 27008KT 15SM FEW056 FEW250 09/08 A2995 RMK SC1CI1 SC TR CI TR SLP146

CYHM;2011-06-13 11:00;CYHM 131100Z 28008KT 15SM FEW220 10/09 A2997 RMK CI1 SLP151

CYHM;2011-06-13 12:00;CYHM 131200Z 29006KT 15SM SKC 12/09 A2997 RMK SLP152

CYHM;2011-06-13 13:00;CYHM 131300Z 28007KT 15SM SKC 14/10 A2998 RMK SLP153

CYHM;2011-06-13 14:00;CYHM 131400Z 27004KT 15SM SKC 16/11 A2997 RMK SLP149

CYHM;2011-06-13 15:00;CYHM 131500Z 32008KT 15SM FEW036 18/11 A2996 RMK CU2 SLP146

CYHM;2011-06-13 16:00;CYHM 131600Z 30010KT 15SM FEW038 BKN051 18/11 A2995 RMK CU2SC5 SLP143

CYHM;2011-06-13 17:00;CYHM 131700Z 32012KT 15SM FEW042 BKN053 17/11 A2996 RMK CU2SC6 SLP146

CYHM;2011-06-13 18:00;CYHM 131800Z 32012KT 15SM FEW038 OVC042 16/11 A2997 RMK CU2SC6 SLP149

CYHM;2011-06-13 19:00;CYHM 131900Z 32007KT 15SM FEW044 OVC056 17/11 A2997 RMK SF2SC6 SLP150

CYHM;2011-06-13 20:00;CYHM 132000Z 33013KT 15SM FEW032 BKN058 17/12 A2997 RMK SC2SC5 SF ASOCTD SLP151

CYHM;2011-06-13 21:00;CYHM 132100Z 34009KT 15SM FEW024 OVC054 16/13 A2998 RMK SC2SC6 SF ASOCTD SLP156

CYHM;2011-06-13 22:00;CYHM 132200Z 32005KT 15SM FEW024 OVC038 15/13 A2998 RMK SC2SC6 SLP156

CYHM;2011-06-13 23:00;CYHM 132300Z 00000KT 15SM FEW022 BKN034 BKN058 16/13 A2999 RMK SC2SC4SC2 SLP158

CYHM;2011-06-14 00:00;CYHM 140000Z 35008KT 15SM FEW022 BKN034 17/12 A3000 RMK SC2SC6 SLP159

CYHM;2011-06-14 01:00;CYHM 140100Z 29002KT 15SM BKN030 BKN062 BKN096 16/12 A3001 RMK SC5SC2AC1 SLP164

CYHM;2011-06-14 02:00;CYHM 140200Z 29003KT 15SM BKN036 BKN060 BKN096 15/12 A3002 RMK SC5SC1AC2 SLP167

CYHM;2011-06-14 03:00;CYHM 140300Z 32007KT 15SM FEW034 BKN054 BKN096 15/12 A3001 RMK SC2SC5AC1 SLP162

CYHM;2011-06-14 04:00;CYHM 140400Z 36011KT 15SM FEW018 SCT064 15/12 A3000 RMK SC2SC2 SLP158

CYHM;2011-06-14 05:00;CYHM 140500Z 01010KT 15SM FEW024 SCT044 14/12 A2999 RMK SC1SC2 SLP156

CYHM;2011-06-14 06:00;CYHM 140600Z 36008KT 15SM FEW022 FEW044 14/11 A3001 RMK SC1SC2 SLP162

CYHM;2011-06-14 07:00;CYHM 140700Z 35013KT 15SM BKN046 14/11 A3001 RMK SC6 SLP162

CYHM;2011-06-14 08:00;CYHM 140800Z 02009KT 15SM FEW028 13/10 A3000 RMK SC2 SLP160

CYHM;2011-06-14 09:00;CYHM 140900Z 36008KT 15SM FEW030 12/10 A3002 RMK SC2 SLP167

CYHM;2011-06-14 10:00;CYHM 141000Z 34010KT 15SM FEW032 FEW210 11/10 A3005 RMK SC1CI1 CI TR SLP177

CYHM;2011-06-14 11:00;CYHM 141100Z 01006KT 15SM FEW035 FEW100 SCT210 13/11 A3006 RMK SC2AC1CI1 SLP181

CYHM;2011-06-14 12:00;CYHM 141200Z 02007KT 15SM FEW030 BKN035 BKN120 13/11 A3007 RMK CU2SC4AC1 SLP184

CYHM;2011-06-14 13:00;CYHM 141300Z 03010KT 15SM SCT023 BKN029 13/10 A3008 RMK CU3SC4 SLP188

CYHM;2011-06-14 14:00;CYHM 141400Z 03006KT 15SM BKN025 OVC032 14/10 A3008 RMK CU5SC3 SLP187

CYHM;2011-06-14 15:00;CYHM 141500Z 07009KT 15SM SCT028 BKN038 16/12 A3009 RMK CU3SC3 SLP190

CYHM;2011-06-14 16:00;CYHM 141600Z 07012KT 15SM FEW022 BKN038 17/13 A3010 RMK CU2SC4 SLP195

CYHM;2011-06-14 17:00;CYHM 141700Z 03010KT 15SM SCT025 BKN038 17/13 A3009 RMK CU3SC2 SLP191

CYHM;2011-06-14 18:00;CYHM 141800Z 05007KT 15SM FEW023 17/12 A3008 RMK CU2 SLP186

CYHM;2011-06-14 19:00;CYHM 141900Z 05010KT 15SM FEW028 FEW250 18/13 A3007 RMK CU1CI1 CI TR SLP183

CYHM;2011-06-14 20:00;CYHM 142000Z 06008KT 15SM FEW032 FEW250 19/12 A3006 RMK CU1CI1 CI TR SLP181

CYHM;2011-06-14 21:00;CYHM 142100Z 07010KT 15SM FEW034 FEW250 19/12 A3005 RMK CU1CI1 CI TR SLP178

CYHM;2011-06-14 22:00;CYHM 142200Z 05010KT 15SM FEW036 FEW250 19/12 A3005 RMK CU1CI1 CU TR CI TR SLP178

CYHM;2011-06-14 23:00;CYHM 142300Z 07004KT 15SM FEW036 FEW250 19/12 A3005 RMK CU1CI0 CU TR SLP177

CYHM;2011-06-15 00:00;CYHM 150000Z 08003KT 15SM FEW250 18/12 A3007 RMK CI0 SLP182

CYHM;2011-06-15 01:00;CYHM 150100Z 00000KT 15SM FEW250 16/12 A3007 RMK CI1 CONTRAILS SLP183

CYHM;2011-06-15 02:00;CYHM 150200Z 05003KT 15SM FEW250 15/11 A3007 RMK CI1 CI TR SLP183

CYHM;2011-06-15 03:00;CYHM 150300Z 06004KT 15SM FEW250 14/11 A3007 RMK CI1 CI TR SLP183

CYHM;2011-06-15 04:00;CYHM 150400Z 10003KT 15SM SKC 13/10 A3005 RMK SLP177

CYHM;2011-06-15 05:00;CYHM 150500Z 24005KT 15SM SKC 10/10 A3006 RMK SLP180

CYHM;2011-06-15 06:00;CYHM 150600Z 28004KT 15SM SKC 12/10 A3006 RMK SLP180

CYHM;2011-06-15 07:00;CYHM 150700Z 27004KT 15SM SKC 12/10 A3004 RMK SLP176

CYHM;2011-06-15 08:00;CYHM 150800Z 25004KT 15SM SKC 11/10 A3004 RMK SLP173

CYHM;2011-06-15 09:00;CYHM 150900Z 30005KT 15SM SKC 10/10 A3003 RMK SLP171

CYHM;2011-06-15 10:00;CYHM 151000Z 00000KT 15SM FEW250 09/09 A3002 RMK CI1 CI TR CONTRAILS SLP168

CYHM;2011-06-15 11:00;CYHM 151100Z 00000KT 15SM SCT240 13/12 A3002 RMK CI2 CONTRAIL SLP167

CYHM;2011-06-15 12:00;CYHM 151200Z 00000KT 15SM SCT240 15/13 A3003 RMK CI2 SLP169

CYHM;2011-06-15 13:00;CYHM 151300Z 24004KT 15SM SKC 18/13 A3004 RMK SLP174

CYHM;2011-06-15 14:00;CYHM 151400Z 00000KT 15SM SKC 20/12 A3003 RMK SLP168

CYHM;2011-06-15 15:00;CYHM 151500Z 26005KT 15SM SKC 22/14 A3001 RMK SLP163

CYHM;2011-06-15 16:00;CYHM 151600Z 22002KT 15SM FEW240 22/13 A3000 RMK CI1 SLP160

CYHM;2011-06-15 17:00;CYHM 151700Z 27004KT 15SM FEW160 BKN240 23/13 A2999 RMK AC1CI2 SLP155

CYHM;2011-06-15 18:00;CYHM 151800Z 23003KT 15SM FEW038 FEW170 BKN240 24/13 A2998 RMK CU1AC1CI2 CU TR SLP152

CYHM;2011-06-15 19:00;CYHM 151900Z 21003KT 15SM FEW040 FEW150 BKN230 25/14 A2997 RMK CU1AC1CI2 CONTRAILS SLP148

CYHM;2011-06-15 20:00;CYHM 152000Z 22007KT 15SM FEW045 FEW065 FEW170 BKN210 25/12 A2994 RMK CU1SC1AC1CI2 SLP140

CYHM;2011-06-15 21:00;CYHM 152100Z 19007KT 15SM FEW050 FEW065 SCT170 BKN230 25/12 A2993 RMK CU1SC1AC2CI3 SLP134

CYHM;2011-06-15 22:00;CYHM 152200Z 17005KT 15SM FEW170 BKN250 24/11 A2991 RMK AC2CI5 SLP127

CYHM;2011-06-15 23:00;CYHM 152300Z 00000KT 15SM SCT180 BKN230 24/12 A2989 RMK AC3CI2 CONTRAILS SLP122

CYHM;2011-06-16 00:00;CYHM 160000Z 08005KT 15SM FEW180 SCT230 22/12 A2987 RMK AC1CI2 SLP115

CYHM;2011-06-16 01:00;CYHM 160100Z 08004KT 15SM FEW160 SCT230 21/11 A2987 RMK AC1CI2 CONTRAILS SLP115

CYHM;2011-06-16 02:00;CYHM 160200Z 07003KT 15SM FEW150 FEW220 19/11 A2989 RMK AC1CI1 SLP120

CYHM;2011-06-16 03:00;CYHM 160300Z 00000KT 15SM FEW130 SCT210 17/12 A2989 RMK AC2CI1 SLP121

CYHM;2011-06-16 04:00;CYHM 160400Z 10007KT 15SM BKN250 18/11 A2987 RMK CI6 SLP113

CYHM;2011-06-16 05:00;CYHM 160500Z 12006KT 15SM OVC250 17/12 A2986 RMK CI7 SLP112

CYHM;2011-06-16 06:00;CYHM 160600Z 13007KT 15SM FEW085 OVC240 17/13 A2985 RMK AC1CI6 SLP108

CYHM;2011-06-16 07:00;CYHM 160700Z 11007KT 15SM BKN240 16/13 A2984 RMK CI7 CS ASOCTD SLP104

CYHM;2011-06-16 08:00;CYHM 160800Z 13005KT 15SM BKN230 16/13 A2984 RMK CI7 SLP103

CYHM;2011-06-16 09:00;CYHM 160900Z 13005KT 15SM BKN240 16/13 A2983 RMK CI7 SLP101

CYHM;2011-06-16 10:00;CYHM 161000Z 07005KT 15SM BKN230 15/13 A2983 RMK CI5 SLP100

CYHM;2011-06-16 11:00;CYHM 161100Z 11004KT 15SM SCT100 BKN220 17/14 A2983 RMK AC3CI4 SLP100

CYHM;2011-06-16 12:00;CYHM 161200Z 12008KT 15SM FEW110 BKN210 18/13 A2983 RMK AC2CI4 SLP100

CYHM;2011-06-16 13:00;CYHM 161300Z 13010KT 15SM FEW110 BKN220 20/14 A2982 RMK AC2CI4 SLP098

CYHM;2011-06-16 14:00;CYHM 161400Z 15010KT 15SM FEW090 SCT170 BKN210 21/14 A2982 RMK AC2AC2CI2 SLP097

CYHM;2011-06-16 15:00;CYHM 161500Z 16007KT 15SM BKN170 BKN210 21/13 A2981 RMK AC5CI1 SLP095

CYHM;2011-06-16 16:00;CYHM 161600Z 16010KT 15SM FEW025 FEW120 BKN160 22/16 A2981 RMK CU1AC2AC3 SLP095

CYHM;2011-06-16 17:00;CYHM 161700Z 21007KT 15SM FEW036 SCT058 BKN210 23/16 A2980 RMK CU2SC1CI1 SLP091

CYHM;2011-06-16 18:00;CYHM 161800Z 14013KT 15SM FEW036 SCT100 BKN210 23/16 A2979 RMK CU2AC2CI2 SLP086

CYHM;2011-06-16 19:00;CYHM 161900Z 17012KT 15SM FEW038 BKN067 21/15 A2980 RMK SC2AC5 SLP090

CYHM;2011-06-16 20:00;CYHM 162000Z 15012KT 15SM FEW038 OVC065 20/15 A2980 RMK SC2SC6 SLP090

CYHM;2011-06-16 21:00;CYHM 162100Z 14009KT 15SM FEW024 BKN062 BKN098 19/16 A2980 RMK CU1SC6AC1 SLP091

CYHM;2011-06-16 22:00;CYHM 162200Z 18006KT 15SM BKN017 BKN080 19/16 A2978 RMK SC5AC2 SLP086

CYHM;2011-06-16 23:00;CYHM 162300Z 21002KT 15SM BKN018 OVC078 19/16 A2978 RMK SC7AC1 SLP086

CYHM;2011-06-17 00:00;CYHM 170000Z 20005KT 12SM FEW011 OVC017 18/16 A2979 RMK CF2SC6 SLP088

CYHM;2011-06-17 01:00;CYHM 170100Z 19006KT 12SM SCT017 BKN028 18/16 A2979 RMK SC3SC3 SLP086

CYHM;2011-06-17 02:00;CYHM 170200Z 18005KT 8SM BKN029 17/16 A2979 RMK SC7 SLP087

CYHM;2011-06-17 03:00;CYHM 170300Z 20002KT 8SM OVC032 17/16 A2980 RMK SC8 SLP090

CYHM;2011-06-17 04:00;CYHM 170400Z 21006KT 8SM OVC037 17/16 A2980 RMK SC8 SLP091

CYHM;2011-06-17 04:51;CYHM 170451Z 20004KT 8SM BKN014 OVC042 RMK SC5SC3

CYHM;2011-06-17 05:00;CYHM 170500Z 21004KT 8SM FEW005 BKN014 BKN042 17/16 A2980 RMK CF1SC5SC2 SLP090

CYHM;2011-06-17 05:26;CYHM 170526Z 21004KT 7SM FEW014 BKN026 RMK SC2SC3

CYHM;2011-06-17 06:00;CYHM 170600Z 25002KT 4SM BR FEW014 BKN025 15/15 A2980 RMK SC2SC6 SLP091

CYHM;2011-06-17 07:00;CYHM 170700Z 18005KT 2 1/2SM BR FEW003 BKN029 16/16 A2981 RMK CF1SC6 SLP092

CYHM;2011-06-17 08:00;CYHM 170800Z 21005KT 1 1/2SM BR FEW008 BKN017 BKN038 15/15 A2981 RMK FG1CF1SC5SC1 SLP094

CYHM;2011-06-17 08:42;CYHM 170842Z 20005KT 2SM BR BKN007 OVC035 RMK FG1SC6SC2

CYHM;2011-06-17 09:00;CYHM 170900Z 20004KT 2SM BR SCT003 OVC008 16/16 A2983 RMK FG1CF2SC5 SLP101

CYHM;2011-06-17 09:19;CYHM 170919Z 23005KT 1 1/2SM BR BKN002 OVC009 RMK FG1CF6SC2

CYHM;2011-06-17 09:49;CYHM 170949Z 22004KT 1SM BR OVC002 RMK FG2CF6

CYHM;2011-06-17 10:00;CYHM 171000Z 22003KT 1SM BR OVC002 16/16 A2984 RMK FG2CF6 SLP103

CYHM;2011-06-17 11:00;CYHM 171100Z 24005KT 1SM BR OVC002 16/16 A2985 RMK FG2SF6 CIG 250 FT SLP109

CYHM;2011-06-17 11:48;CYHM 171148Z 23005KT 1/2SM FG OVC001 RMK FG5SF3

CYHM;2011-06-17 12:00;CYHM 171200Z 28007KT 3/4SM BR OVC001 16/16 A2986 RMK FG3SF5 CIG 150FT SLP111

CYHM;2011-06-17 12:20;CYHM 171220Z 26003KT 3/4SM BR OVC003 RMK FG2SF6

CYHM;2011-06-17 12:29;CYHM 171229Z 25006KT 1 1/2SM BR OVC002 RMK FG2SF6 CIG 250 FT

CYHM;2011-06-17 12:49;CYHM 171249Z 24007KT 2SM BR BKN006 BKN015 RMK SF5SC2

CYHM;2011-06-17 13:00;CYHM 171300Z 24010KT 2SM BR BKN006 BKN010 BKN017 18/17 A2987 RMK SF5SC2SC1 SLP113

CYHM;2011-06-17 14:00;CYHM 171400Z 00000KT 8SM FEW015 SCT020 20/17 A2986 RMK CU2SC1 SLP111

CYHM;2011-06-17 15:00;CYHM 171500Z 34008KT 10SM FEW028 BKN036 21/16 A2985 RMK CU2SC3 SLP108

CYHM;2011-06-17 16:00;CYHM 171600Z 30008KT 15SM FEW032 BKN060 BKN068 22/16 A2986 RMK CU2SC3AC2 SLP109

CYHM;2011-06-17 17:00;CYHM 171700Z 33008KT 15SM FEW038 SCT062 BKN078 22/16 A2986 RMK CU2SC2AC3 SLP110

CYHM;2011-06-17 18:00;CYHM 171800Z 31007KT 15SM FEW030 SCT052 BKN070 22/16 A2986 RMK CU2SC2AC3 SLP109

CYHM;2011-06-17 19:00;CYHM 171900Z 28004KT 15SM FEW033 BKN081 22/16 A2986 RMK CU2AC5 SLP109

CYHM;2011-06-17 20:00;CYHM 172000Z 00000KT 15SM SCT032 BKN082 24/17 A2986 RMK CU3AC3 TCU ASOCTD SLP110

CYHM;2011-06-17 21:00;CYHM 172100Z 35005KT 15SM FEW035TCU SCT055 BKN073 23/17 A2986 RMK TCU2SC2AC2 SLP111

CYHM;2011-06-17 22:00;CYHM 172200Z 00000KT 15SM FEW040TCU SCT075 23/15 A2985 RMK TCU2AC2 SLP107

CYHM;2011-06-17 23:00;CYHM 172300Z 00000KT 15SM FEW035 FEW075 23/16 A2985 RMK CU1AC2 SLP107

CYHM;2011-06-18 00:00;CYHM 180000Z 00000KT 15SM FEW037 FEW064 23/16 A2985 RMK CU1SC1 SLP107

CYHM;2011-06-18 01:00;CYHM 180100Z 00000KT 15SM SCT035 BKN060 21/16 A2986 RMK CU3SC2 SLP110

CYHM;2011-06-18 02:00;CYHM 180200Z 22002KT 15SM FEW035 FEW075 19/16 A2988 RMK SC1AC1 SLP117

CYHM;2011-06-18 03:00;CYHM 180300Z 32007KT 15SM FEW035 FEW230 18/16 A2988 RMK SC1CI1 SLP117

CYHM;2011-06-18 04:00;CYHM 180400Z 33006KT 15SM SKC 19/16 A2988 RMK SLP118

CYHM;2011-06-18 05:00;CYHM 180500Z 35006KT 15SM SKC 18/16 A2988 RMK SLP115

CYHM;2011-06-18 06:00;CYHM 180600Z 34005KT 15SM SKC 17/15 A2989 RMK SLP121

CYHM;2011-06-18 07:00;CYHM 180700Z 00000KT 15SM FEW220 16/15 A2988 RMK CI1 SLP118

CYHM;2011-06-18 08:00;CYHM 180800Z 27005KT 15SM FEW220 15/15 A2988 RMK CI1 SLP118

CYHM;2011-06-18 09:00;CYHM 180900Z 27006KT 15SM FEW035 FEW070 SCT210 15/15 A2990 RMK SC1AC2CI1 SLP124

CYHM;2011-06-18 10:00;CYHM 181000Z 35003KT 15SM FEW040 FEW090 SCT230 15/14 A2991 RMK SC2AC1CI2 CU ASOCTD CONTRAILS SLP129

CYHM;2011-06-18 11:00;CYHM 181100Z 18004KT 15SM FEW045 FEW090 BKN230 17/15 A2992 RMK SC2AC1CI2 CU ASOCTD CONTRAIL SLP130

CYHM;2011-06-18 12:00;CYHM 181200Z CCA 00000KT 15SM FEW045 FEW090 SCT250 19/15 A2992 RMK CU1AC1CI1 CU TR SLP131

CYHM;2011-06-18 13:00;CYHM 181300Z CCA 33006KT 15SM FEW045 FEW090 BKN230 20/14 A2993 RMK CU1AC1CI2 CU TR SLP134

CYHM;2011-06-18 14:00;CYHM 181400Z 32004KT 15SM BKN230 21/15 A2993 RMK CI2 SLP133

CYHM;2011-06-18 15:00;CYHM 181500Z 32002KT 15SM FEW230 23/15 A2993 RMK CI1 SLP132

CYHM;2011-06-18 16:00;CYHM 181600Z 00000KT 15SM SCT230 24/15 A2993 RMK CI2 SLP134

CYHM;2011-06-18 17:00;CYHM 181700Z 00000KT 15SM SCT230 25/15 A2991 RMK CI2 SLP127

CYHM;2011-06-18 18:00;CYHM 181800Z 00000KT 15SM BKN230 27/17 A2990 RMK CI2 SLP122

CYHM;2011-06-18 19:00;CYHM 181900Z CCC 00000KT 15SM FEW045 BKN250 27/17 A2989 RMK CU2CI1 SLP119

CYHM;2011-06-18 20:00;CYHM 182000Z 10004KT 15SM FEW060 SCT250 26/15 A2988 RMK CU2CI1 SLP114

CYHM;2011-06-18 21:00;CYHM 182100Z 09005KT 15SM FEW060 SCT070 BKN230 26/16 A2987 RMK CU2AC2CI1 SLP113

CYHM;2011-06-18 22:00;CYHM 182200Z 18007KT 15SM FEW060TCU BKN080 BKN230 25/17 A2988 RMK TCU2AC3CI1 SLP118

CYHM;2011-06-18 23:00;CYHM 182300Z 16006KT 15SM FEW060TCU SCT075 BKN100 BKN230 24/16 A2988 RMK TCU2AC2AC2CI1 SLP117

CYHM;2011-06-19 00:00;CYHM 190000Z 15004KT 15SM FEW062TCU BKN070 BKN100 23/16 A2988 RMK TCU1AC5AC2 SLP116

CYHM;2011-06-19 01:00;CYHM 190100Z 02007KT 15SM FEW050 FEW070 BKN240 22/12 A2989 RMK SC1AC2CI1 SLP121

CYHM;2011-06-19 02:00;CYHM 190200Z 01007KT 15SM FEW070 FEW220 20/10 A2991 RMK AC1CI1 SLP128

CYHM;2011-06-19 03:00;CYHM 190300Z 02007KT 15SM FEW050 18/09 A2993 RMK SC2 SLP134

CYHM;2011-06-19 04:00;CYHM 190400Z 02009KT 15SM SCT050 18/05 A2993 RMK SC3 SLP132

CYHM;2011-06-19 05:00;CYHM 190500Z 04009KT 15SM FEW060 FEW210 18/05 A2993 RMK SC2CI1 SLP134

CYHM;2011-06-19 06:00;CYHM 190600Z 03012KT 15SM SCT062 SCT210 17/06 A2994 RMK SC3CI1 SLP137

CYHM;2011-06-19 07:00;CYHM 190700Z 04012KT 15SM FEW063 BKN220 16/07 A2994 RMK SC1CI4 SLP136

CYHM;2011-06-19 08:00;CYHM 190800Z 05015KT 15SM BKN230 16/07 A2993 RMK CI6 SLP133

CYHM;2011-06-19 09:00;CYHM 190900Z 06011KT 15SM BKN230 16/08 A2993 RMK CI6 SLP134

CYHM;2011-06-19 10:00;CYHM 191000Z 05010KT 15SM FEW055 BKN230 15/10 A2995 RMK SC1CI4 SLP140

CYHM;2011-06-19 11:00;CYHM 191100Z 05012KT 15SM BKN250 16/10 A2994 RMK CI5 SLP137

CYHM;2011-06-19 12:00;CYHM 191200Z CCA 06012KT 15SM BKN250 17/11 A2994 RMK CI6 SLP137

CYHM;2011-06-19 13:00;CYHM 191300Z 06010KT 15SM BKN250 17/11 A2995 RMK CI5 SLP141

CYHM;2011-06-19 14:00;CYHM 191400Z 06015KT 15SM BKN250 17/12 A2994 RMK CI4 SLP138

CYHM;2011-06-19 15:00;CYHM 191500Z 05014KT 010V100 15SM SCT250 18/12 A2995 RMK CI2 SLP141

CYHM;2011-06-19 16:00;CYHM 191600Z 06012KT 15SM SCT230 18/12 A2996 RMK CC2 SLP144

CYHM;2011-06-19 17:00;CYHM 191700Z 05012KT 15SM BKN230 19/11 A2994 RMK CI5 SLP140

CYHM;2011-06-19 18:00;CYHM 191800Z 05013KT 15SM BKN250 19/11 A2993 RMK CI3 SLP134

CYHM;2011-06-19 19:00;CYHM 191900Z 06011KT 15SM BKN250 20/09 A2993 RMK CI2 SLP134

CYHM;2011-06-19 20:00;CYHM 192000Z 06012KT 15SM BKN250 21/10 A2993 RMK CI4 SLP134

CYHM;2011-06-19 21:00;CYHM 192100Z 06012KT 15SM BKN220 20/08 A2991 RMK CC6 SLP128

CYHM;2011-06-19 22:00;CYHM 192200Z 06016KT 15SM BKN220 20/09 A2989 RMK CC6 SLP122

CYHM;2011-06-19 23:00;CYHM 192300Z 05015KT 15SM BKN220 19/10 A2988 RMK CC6 SLP117

CYHM;2011-06-20 00:00;CYHM 200000Z 05012KT 15SM BKN210 18/09 A2987 RMK CC7 SLP115

CYHM;2011-06-20 01:00;CYHM 200100Z 05012KT 15SM BKN190 BKN220 17/10 A2987 RMK AC6CI1 SLP115

CYHM;2011-06-20 02:00;CYHM 200200Z 05009KT 15SM FEW180 BKN220 16/11 A2989 RMK AC2CI2 SLP122

CYHM;2011-06-20 03:00;CYHM 200300Z 06008KT 15SM BKN120 16/12 A2989 RMK AC6 SLP122

CYHM;2011-06-20 04:00;CYHM 200400Z 05009KT 15SM BKN210 15/12 A2989 RMK CI4 SLP122

CYHM;2011-06-20 05:00;CYHM 200500Z 05007KT 15SM BKN210 14/13 A2989 RMK CI5 SLP122

CYHM;2011-06-20 06:00;CYHM 200600Z 04007KT 15SM BKN210 14/13 A2989 RMK CI4 SLP122

CYHM;2011-06-20 07:00;CYHM 200700Z 05007KT 15SM BKN210 14/13 A2988 RMK CI5 SLP119

CYHM;2011-06-20 08:00;CYHM 200800Z 04007KT 15SM BKN180 15/13 A2988 RMK AC7 SLP118

CYHM;2011-06-20 09:00;CYHM 200900Z 04010KT 15SM BKN180 14/13 A2988 RMK AC4 SLP117

CYHM;2011-06-20 10:00;CYHM 201000Z 05008KT 15SM FEW035 SCT075 BKN230 15/13 A2988 RMK CU1AC2CI2 SLP118

CYHM;2011-06-20 11:00;CYHM 201100Z 05012KT 15SM FEW055 BKN078 BKN210 15/14 A2990 RMK SC2AC2CI1 SLP123

CYHM;2011-06-20 12:00;CYHM 201200Z 05012KT 15SM SCT220 16/14 A2990 RMK CI2 SLP124

CYHM;2011-06-20 13:00;CYHM 201300Z 04008KT 15SM FEW220 18/14 A2989 RMK CI1 SLP122

CYHM;2011-06-20 14:00;CYHM 201400Z 05012KT 15SM BKN240 18/14 A2990 RMK CI4 SLP124

CYHM;2011-06-20 15:00;CYHM 201500Z 05010KT 15SM BKN220 20/14 A2988 RMK CI5 SLP118

CYHM;2011-06-20 16:00;CYHM 201600Z 04006KT 15SM BKN220 20/15 A2991 RMK CI6 SLP127

CYHM;2011-06-20 18:00;CYHM 201800Z 05008KT 15SM FEW170 OVC240 20/15 A2991 RMK AC2CI5 SLP129

CYHM;2011-06-20 19:00;CYHM 201900Z 05012KT 15SM FEW072 FEW180 BKN250 20/15 A2989 RMK AC1AC1CI4 SLP121

CYHM;2011-06-20 20:00;CYHM 202000Z 07008KT 15SM FEW130 BKN250 21/14 A2989 RMK AC1CI2 SLP121

CYHM;2011-06-20 21:00;CYHM 202100Z 07013KT 15SM FEW180 BKN250 21/14 A2987 RMK AC1CI2 SLP114

CYHM;2011-06-20 22:00;CYHM 202200Z 06007KT 15SM FEW074 FEW180 BKN250 20/13 A2987 RMK AC1AC1CI5 SLP113

CYHM;2011-06-20 23:00;CYHM 202300Z 04008KT 15SM BKN160 BKN250 19/13 A2985 RMK AC5CI2 SLP109

CYHM;2011-06-21 00:00;CYHM 210000Z 04006KT 15SM BKN160 BKN250 19/12 A2987 RMK AC5CI2 SLP115

CYHM;2011-06-21 01:00;CYHM 210100Z 03007KT 15SM FEW048 SCT160 BKN250 18/13 A2987 RMK SC2AC1CI1 CONTRAILS SLP115

CYHM;2011-06-21 02:00;CYHM 210200Z 05005KT 15SM FEW160 BKN250 17/12 A2988 RMK AC1CI2 SLP118

CYHM;2011-06-21 03:00;CYHM 210300Z 04005KT 15SM FEW160 BKN250 18/12 A2989 RMK AC1CI2 SLP122

CYHM;2011-06-21 04:00;CYHM 210400Z 04007KT 15SM FEW038 SCT100 OVC240 18/13 A2990 RMK SC1AC2CI3 SLP124

CYHM;2011-06-21 05:00;CYHM 210500Z 00000KT 15SM FEW034 SCT100 OVC230 18/12 A2989 RMK SC1AC3CI4 SLP122

CYHM;2011-06-21 06:00;CYHM 210600Z 00000KT 15SM FEW034 FEW100 OVC230 16/13 A2988 RMK SC1AC2CI5 SLP119

CYHM;2011-06-21 07:00;CYHM 210700Z 06002KT 15SM FEW180 SCT230 16/13 A2989 RMK AC1CI2 SLP120

CYHM;2011-06-21 08:00;CYHM 210800Z 04004KT 15SM FEW180 SCT230 16/12 A2989 RMK AC2CI1 SLP121

CYHM;2011-06-21 09:00;CYHM 210900Z 04003KT 15SM FEW130 SCT240 16/13 A2990 RMK AC2CI1 SLP125

CYHM;2011-06-21 10:00;CYHM 211000Z 04004KT 15SM FEW120 SCT240 15/13 A2991 RMK AC2CI1 SLP127

CYHM;2011-06-21 11:00;CYHM 211100Z 01003KT 15SM FEW240 17/14 A2991 RMK CI0 CI TR SLP128

CYHM;2011-06-21 12:00;CYHM 211200Z 03002KT 15SM FEW220 19/15 A2992 RMK CI1 CI TR SLP130

CYHM;2011-06-21 13:00;CYHM 211300Z 00000KT 15SM FEW140 FEW220 20/15 A2992 RMK AC1CI1 SLP130

CYHM;2011-06-21 14:00;CYHM 211400Z 00000KT 15SM FEW130 SCT220 21/16 A2993 RMK AC1CI1 SLP134

CYHM;2011-06-21 15:00;CYHM 211500Z 00000KT 15SM FEW140 BKN220 24/18 A2991 RMK AC2CI2 SLP128

CYHM;2011-06-21 16:00;CYHM 211600Z 08002KT 15SM FEW028 FEW150 BKN220 25/19 A2991 RMK CU1AC1CI2 SLP126

CYHM;2011-06-21 17:00;CYHM 211700Z 03006KT 15SM FEW025 FEW036 SCT150 BKN220 24/18 A2992 RMK CU1SC2AC1CI1 SLP131

CYHM;2011-06-21 18:00;CYHM 211800Z 05008KT 15SM FEW032 SCT042 BKN140 BKN220 24/18 A2994 RMK CU1SC3AC2CI1 SLP137

CYHM;2011-06-21 18:50;CYHM 211850Z 07011KT 15SM -SHRA FEW024 BKN042 OVC130 RMK SC2SC3AC3

CYHM;2011-06-21 19:00;CYHM 211900Z 08011KT 15SM -SHRA FEW024 BKN042 OVC130 21/17 A2990 RMK SC2SC3AC3 SLP123

CYHM;2011-06-21 19:31;CYHM 211931Z 06009KT 15SM FEW042 BKN150 BKN180 BKN250 RMK SC2AC3AC1CI1

CYHM;2011-06-21 20:00;CYHM 212000Z 06014KT 15SM FEW052 FEW140 BKN250 23/17 A2989 RMK SC1AC1CI2 SLP121

CYHM;2011-06-21 21:00;CYHM 212100Z 06011KT 15SM FEW140 BKN250 23/15 A2990 RMK AC2CI1 SLP123

CYHM;2011-06-21 22:00;CYHM 212200Z 06013KT 15SM FEW140 BKN250 23/14 A2987 RMK AC1CI2 SLP114

CYHM;2011-06-21 23:00;CYHM 212300Z 05013KT 15SM FEW150 BKN250 21/13 A2987 RMK AC1CI3 SLP115

CYHM;2011-06-22 00:00;CYHM 220000Z 06013KT 15SM SCT086 SCT110 BKN250 21/12 A2987 RMK AC3AC1CI1 SLP112

CYHM;2011-06-22 01:00;CYHM 220100Z 04012KT 15SM BKN046 BKN080 OVC110 21/10 A2988 RMK SC5AC2AC1 SLP116

CYHM;2011-06-22 01:50;CYHM 220150Z 05013KT 15SM -SHRA BKN042 OVC070 RMK SC6AC2

CYHM;2011-06-22 02:00;CYHM 220200Z 05013KT 15SM -SHRA BKN042 OVC070 19/13 A2988 RMK SC6AC2 SLP117

CYHM;2011-06-22 02:40;CYHM 220240Z 09006KT 6SM -TSRA BR BKN042 BKN052 OVC080 RMK SC5SC2AC1 CB ASOCTD LTNG

CYHM;2011-06-22 03:00;CYHM 220300Z 03015KT 6SM -TSRA BR BKN047 OVC080 17/15 A2989 RMK SC6AC2 CB ASOCTD LTNG SLP121

CYHM;2011-06-22 04:00;CYHM 220400Z 04007KT 15SM TS BKN044 BKN080 OVC110 16/14 A2987 RMK SC5AC2AC2 LTNG CB ASOCTD SLP113

CYHM;2011-06-22 06:00;CYHM 220600Z 00000KT 6SM -TSRA FEW040CB BKN076 OVC120 16/15 A2987 RMK CB1AC6AC2 SLP112

CYHM;2011-06-22 07:00;CYHM 220700Z 03007KT 15SM -TSRA FEW042CB SCT082 OVC140 16/15 A2981 RMK CB1AC3AC4 LTNG SLP092

CYHM;2011-06-22 08:00;CYHM 220800Z 07010KT 6SM BR BKN007 OVC140 16/16 A2980 RETS RMK SF6AC2 SLP089

CYHM;2011-06-22 09:00;CYHM 220900Z 09003KT 6SM BR OVC007 16/16 A2982 RMK SC8 SLP096

CYHM;2011-06-22 10:00;CYHM 221000Z 00000KT 2 1/2SM BR OVC003 17/17 A2982 RMK SC8 SLP096

CYHM;2011-06-22 10:51;CYHM 221051Z 00000KT 2SM BR FEW003 BKN038 OVC045 RMK SF2SC4SC2

CYHM;2011-06-22 11:00;CYHM 221100Z 00000KT 2 1/2SM BR SCT009 BKN013 OVC038 18/18 A2983 RMK SF3SC4SC1 SLP099

CYHM;2011-06-22 11:23;CYHM 221123Z 14004KT 2 1/2SM -SHRA BR BKN005 OVC022 RMK SF6SC2

CYHM;2011-06-22 12:00;CYHM 221200Z 14004KT 2SM -SHRA BR BKN003 OVC012 18/18 A2982 RMK SF6SC2 RERA SLP097

CYHM;2011-06-22 13:00;CYHM 221300Z 20005KT 3SM -SHRA BR BKN006 OVC011 20/20 A2982 RMK SF6SC2 SLP097

CYHM;2011-06-22 13:18;CYHM 221318Z 21004KT 4SM BR BKN006 OVC014 RMK SF5SC3

CYHM;2011-06-22 14:00;CYHM 221400Z 18004KT 5SM BR BKN006 OVC012 21/21 A2981 RMK SF6SC2 SLP092

CYHM;2011-06-22 14:49;CYHM 221449Z 20007KT 6SM BR FEW007 BKN012 OVC022 RMK SF2SC4SC2

CYHM;2011-06-22 15:00;CYHM 221500Z 22008KT 6SM BR BKN012 OVC016 22/21 A2980 RMK SC6SC2 SLP090

CYHM;2011-06-22 16:00;CYHM 221600Z 21008KT 8SM BKN012 OVC022 22/21 A2980 RMK SC6SC2 SLP090

CYHM;2011-06-22 17:00;CYHM 221700Z 22008KT 10SM FEW018 BKN029 OVC034 23/21 A2979 RMK CU2SC5SC2 SLP087

CYHM;2011-06-22 18:00;CYHM 221800Z 22008KT 15SM SCT018 OVC031 23/21 A2978 RMK SC3SC5 CU ASOCTD SLP082

CYHM;2011-06-22 19:00;CYHM 221900Z 21010KT 15SM FEW022 OVC034 23/20 A2977 RMK SC2SC6 SF ASOCTD SLP079

CYHM;2011-06-22 20:00;CYHM 222000Z 20009KT 12SM FEW020 OVC036 23/21 A2977 RMK SC2SC6 SF ASOCTD SLP079

CYHM;2011-06-22 21:00;CYHM 222100Z 19008KT 12SM FEW028 OVC040 25/21 A2975 RMK SC2SC6 SF ASOCTD SLP073

CYHM;2011-06-22 22:00;CYHM 222200Z 20008KT 10SM FEW018 BKN024 BKN044 25/21 A2974 RMK SF2SC5SC1 TCU ASOCTD SLP069

CYHM;2011-06-22 23:00;CYHM 222300Z 19004KT 12SM FEW026 BKN040 25/20 A2973 RMK SC2SC5 SF ASOCTD TCU EMBDD SLP066

CYHM;2011-06-23 00:00;CYHM 230000Z 07004KT 10SM FEW024TCU FEW038 SCT250 21/20 A2972 RMK TCU1SC1CI1 TCU TR SLP064

CYHM;2011-06-23 00:20;CYHM 230020Z 04004KT 2 1/4SM BR FEW024TCU FEW140 FEW250 RMK TCU1AC2CI1 TCU TR

CYHM;2011-06-23 00:48;CYHM 230048Z 07003KT 1 1/4SM BR FEW140 SCT250 RMK FG1AC1CI1

CYHM;2011-06-23 01:00;CYHM 230100Z 06006KT 1 1/4SM BR FEW140 SCT250 19/19 A2972 RMK FG1AC1CI1 SLP064

CYHM;2011-06-23 01:24;CYHM 230124Z 06004KT 3/4SM BR SCT140 RMK FG2AC1

CYHM;2011-06-23 02:00;CYHM 230200Z 08003KT 1 1/2SM BR FEW030 SCT240 18/18 A2972 RMK FG2SC1CI2 VIS VRB 1 - 2 SLP062

CYHM;2011-06-23 02:11;CYHM 230211Z 05007KT 1/2SM FG SCT027 RMK FG3SC1

CYHM;2011-06-23 03:00;CYHM 230300Z 08007KT 1/8SM FG SCT002 BKN070 18/18 A2971 RMK FG4SF1AC2 SLP058

CYHM;2011-06-23 03:12;CYHM 230312Z 07005KT 1 1/2SM BR OVC007 RMK FG2SF6 OCNL LTNG VIS VRB 1 - 2

CYHM;2011-06-23 03:33;CYHM 230333Z 29015G20KT 2 1/2SM BR FEW007 BKN029 OVC070 RMK SF2SC5AC2 OCNL LTNG

CYHM;2011-06-23 03:43;CYHM 230343Z 29016KT 4SM +TSRA BR FEW013CB OVC055 RMK CB2SC6 OCNL LTGIC

CYHM;2011-06-23 05:00;CYHM 230500Z 18005KT 12SM -TSRA FEW015 BKN080 OVC120 18/18 A2971 RERA RMK SC2AC5AC2 CB ASOCTD SLP060

CYHM;2011-06-23 06:00;CYHM 230600Z 17009KT 15SM FEW025 SCT090 OVC120 18/18 A2969 RETS RMK CF2AC2AC4 /R10/ SLP051

CYHM;2011-06-23 07:00;CYHM 230700Z 20005KT 15SM -SHRA FEW002 OVC095 18/18 A2968 RMK CF2AC6 SLP049

CYHM;2011-06-23 08:00;CYHM 230800Z 19008KT 15SM FEW011 SCT080 BKN130 18/18 A2969 RMK CF1AC2AC3 SLP052

CYHM;2011-06-23 08:25;CYHM 230825Z 19007KT 10SM OVC005 RMK SF8 CIG RAG

CYHM;2011-06-23 09:00;CYHM 230900Z 19012KT 6SM BR OVC004 19/19 A2970 RMK SF8 SLP055

CYHM;2011-06-23 10:00;CYHM 231000Z 21007KT 5SM BR BKN005 19/19 A2970 RMK SF6 CIG RAG SLP054

CYHM;2011-06-23 11:00;CYHM 231100Z 19007KT 4SM BR BKN004 19/19 A2969 RMK SF7 CIG RAG SLP053

CYHM;2011-06-23 12:00;CYHM 231200Z 20012KT 10SM FEW005 SCT045 BKN085 20/19 A2968 RMK SF2SC2AC3 SLP049

CYHM;2011-06-23 13:00;CYHM 231300Z 21010KT 15SM FEW016 FEW050 BKN110 21/19 A2968 RMK CU2SC1AC2 SLP047

CYHM;2011-06-23 14:00;CYHM 231400Z 20013KT 15SM FEW030 FEW060 BKN130 22/19 A2967 RMK CU2SC1AC3 SLP045

CYHM;2011-06-23 15:00;CYHM 231500Z 22010KT 15SM FEW030 FEW036 SCT094 BKN220 23/19 A2966 RMK CU2SC1AC1CI1 SLP042

CYHM;2011-06-23 16:00;CYHM 231600Z 21018G24KT 15SM FEW032 SCT038 24/17 A2964 RMK CU2SC2 SLP036

CYHM;2011-06-23 17:00;CYHM 231700Z 20018KT 15SM FEW032 SCT042 BKN100 BKN160 25/18 A2962 RMK CU2SC2AC2AC1 TCU ASOCTD SLP028

CYHM;2011-06-23 17:11;CYHM 231711Z 20018KT 8SM -SHRA SCT030 BKN081 RMK SC4AC2 CU ASOCTD

CYHM;2011-06-23 17:35;CYHM 231735Z 21012KT 15SM FEW035 SCT048 BKN170 RMK CU2SC2AC3

CYHM;2011-06-23 18:00;CYHM 231800Z 23014KT 15SM FEW030 SCT045 BKN085 24/20 A2961 RMK CU2SC2AC3 SLP025

CYHM;2011-06-23 18:48;CYHM 231848Z 18012KT 10SM -SHRA SCT030 OVC035 RMK CU3SC5 TCU ASOCTD

CYHM;2011-06-23 19:00;CYHM 231900Z 18011KT 4SM -SHRA BR FEW025 SCT030 OVC035 20/19 A2962 RMK CU2SC2SC4 TCU ASOCTD DARK TWD E SLP029

CYHM;2011-06-23 19:35;CYHM 231935Z CCA 18010KT 12SM FEW045 BKN055 BKN075 BKN150 RMK CU2SC2AC2AC1 TCU ASOCTD

CYHM;2011-06-23 20:00;CYHM 232000Z 20009KT 12SM FEW025 BKN045 BKN095 22/19 A2961 RMK CU2SC3AC2 TCU ASOCTD SLP023

CYHM;2011-06-23 21:00;CYHM 232100Z 20009KT 12SM FEW030 BKN050 BKN095 22/18 A2959 RMK CU2SC3AC2 TCU ASOCTD SLP018

CYHM;2011-06-23 22:00;CYHM 232200Z 21014KT 12SM FEW045 BKN050 BKN150 22/17 A2959 RMK CU2SC3AC2 TCU ASOCTD SLP017

CYHM;2011-06-23 23:00;CYHM 232300Z 21015KT 15SM FEW035 BKN045 BKN095 21/18 A2959 RMK CU2SC3AC2 TCU ASOCTD SLP017

CYHM;2011-06-24 00:00;CYHM 240000Z 22009KT 15SM FEW030 SCT045 BKN080 BKN150 21/18 A2959 RMK CU2SC2AC2AC2 SLP018

CYHM;2011-06-24 01:00;CYHM 240100Z 21006KT 15SM FEW050 BKN069 BKN090 20/18 A2959 RMK SC2AC4AC2 SLP016

CYHM;2011-06-24 02:00;CYHM 240200Z 20006KT 15SM FEW050 BKN090 BKN130 20/18 A2959 RMK SC2AC4AC2 SLP018

CYHM;2011-06-24 03:00;CYHM 240300Z 21007KT 15SM FEW047 FEW092 SCT170 19/18 A2959 RMK SC1AC2AC1 SLP019

CYHM;2011-06-24 04:00;CYHM 240400Z 20006KT 15SM FEW032 BKN075 18/18 A2959 RMK SC1AC4 SLP019

CYHM;2011-06-24 04:32;CYHM 240432Z 20008KT 9SM -SHRA FEW036 BKN063 BKN120 RMK SC2SC3AC2

CYHM;2011-06-24 05:00;CYHM 240500Z 20007KT 15SM FEW036 FEW065 SCT130 19/18 A2959 RMK SC1SC1AC2 SLP017

CYHM;2011-06-24 06:00;CYHM 240600Z 21008KT 15SM FEW018 FEW060 SCT140 18/18 A2959 RMK CU1SC1AC2 SLP016

CYHM;2011-06-24 07:00;CYHM 240700Z 22008KT 9SM BKN009 BKN140 19/18 A2958 RMK SC6AC2 SLP013

CYHM;2011-06-24 07:49;CYHM 240749Z 21006KT 9SM FEW007 BKN160 RMK SC2AC6

CYHM;2011-06-24 08:00;CYHM 240800Z 20006KT 8SM FEW007 BKN160 18/18 A2957 RMK SC2AC6 SLP011

CYHM;2011-06-24 09:00;CYHM 240900Z 20006KT 15SM FEW011 BKN084 BKN160 18/18 A2958 RMK SC2AC5AC1 SLP013

CYHM;2011-06-24 10:00;CYHM 241000Z 22006KT 6SM BR FEW010 SCT078 BKN120 18/18 A2958 RMK SC1AC3AC2 SLP013

CYHM;2011-06-24 10:53;CYHM 241053Z 21004KT 10SM -SHRA FEW030 BKN054 BKN110 RMK SC2SC3AC2

CYHM;2011-06-24 11:00;CYHM 241100Z 22006KT 8SM FEW005 BKN043 BKN057 BKN100 18/18 A2959 RMK SF2SC3SC2AC1 SLP016

CYHM;2011-06-24 12:00;CYHM 241200Z 19008KT 10SM SCT006 BKN040 OVC042 19/18 A2959 RMK SF3SC3SC2 SLP016

CYHM;2011-06-24 13:00;CYHM 241300Z 21008KT 15SM SCT008 BKN024 BKN032 19/19 A2959 RMK SF3SC2SC2 SLP018

CYHM;2011-06-24 14:00;CYHM 241400Z 24008KT 15SM FEW008 BKN037 BKN042 19/18 A2959 RMK SF2SC4SC1 SLP018

CYHM;2011-06-24 14:30;CYHM 241430Z 27010KT 8SM -SHRA SCT012 OVC028 RMK CF3SC5

CYHM;2011-06-24 15:00;CYHM 241500Z 25010KT 15SM -SHRA FEW018 BKN036 BKN040 19/17 A2960 RMK CU2SC4SC2 SLP023

CYHM;2011-06-24 15:20;CYHM 241520Z 24010KT 15SM FEW020 SCT038 BKN140 RMK CU1SC2AC4

CYHM;2011-06-24 16:00;CYHM 241600Z 24010KT 15SM FEW015 SCT022 BKN038 BKN130 20/18 A2960 RMK CU2SC2SC2AC2 SLP022

CYHM;2011-06-24 16:49;CYHM 241649Z 28008KT 15SM -SHRA SCT015 BKN020 OVC032 RMK CU3SC2SC2

CYHM;2011-06-24 17:00;CYHM 241700Z 25012KT 15SM -SHRA FEW020 BKN027 BKN034 19/17 A2961 RMK CU2SC4SC2 SLP024

CYHM;2011-06-24 17:16;CYHM 241716Z CCA 25007KT 15SM FEW024 BKN058 BKN085 RMK CU2SC5AC1

CYHM;2011-06-24 18:00;CYHM 241800Z 26012KT 15SM FEW024 BKN037 BKN062 BKN120 22/17 A2959 RMK CU2SC3SC1AC1 SLP019

CYHM;2011-06-24 19:00;CYHM 241900Z 26012G17KT 15SM SCT020 BKN077 21/17 A2960 RMK CU4AC3 TCU ASOCTD SLP021

CYHM;2011-06-24 20:00;CYHM 242000Z 26012KT 15SM -SHRA BKN015 BKN045 20/18 A2962 RMK CU6SC2 TCU ASOCTD SLP026

CYHM;2011-06-24 20:17;CYHM 242017Z 25012KT 15SM -SHRA BKN010 BKN020 BKN045 RMK CU5SC1SC2 TCU ASOCTD

CYHM;2011-06-24 21:00;CYHM 242100Z 26008KT 15SM -SHRA SCT012 BKN036 BKN045 20/18 A2962 RMK CU4SC2SC2 TCU ASOCTD SLP028

CYHM;2011-06-24 22:00;CYHM 242200Z 27007KT 15SM SCT017 SCT030 BKN060 BKN170 20/17 A2962 RMK CU3SC1SC1AC1 FEW TCU SLP030

CYHM;2011-06-24 23:00;CYHM 242300Z 28012G17KT 15SM FEW019 BKN031 19/16 A2964 RMK CU2SC5 SLP035

CYHM;2011-06-25 00:00;CYHM 250000Z 26010KT 15SM FEW021 BKN050 BKN160 19/16 A2966 RMK CU2SC4AC2 SLP042

CYHM;2011-06-25 01:00;CYHM 250100Z 28007KT 15SM BKN021 BKN057 19/16 A2966 RMK SC6SC2 FEW CU SLP043

CYHM;2011-06-25 02:00;CYHM 250200Z 27008KT 15SM FEW020 BKN042 OVC078 18/15 A2968 RMK CU1SC6AC2 SLP049

CYHM;2011-06-25 03:00;CYHM 250300Z 27012KT 15SM BKN019 OVC037 18/15 A2970 RMK SC6SC2 SLP056

CYHM;2011-06-25 04:00;CYHM 250400Z 26011KT 15SM FEW015 SCT040 OVC087 17/15 A2970 RMK CF1SC2AC5 SLP056

CYHM;2011-06-25 05:00;CYHM 250500Z 27008KT 15SM BKN038 OVC086 17/15 A2971 RMK SC6AC2 SLP058

CYHM;2011-06-25 06:00;CYHM 250600Z 25010KT 15SM FEW013 BKN037 OVC130 17/15 A2970 RMK CF2SC6AC1 SLP056

CYHM;2011-06-25 07:00;CYHM 250700Z 26010KT 15SM BKN020 OVC038 16/15 A2970 RMK SC6SC2 SLP055

CYHM;2011-06-25 08:00;CYHM 250800Z 24007KT 15SM BKN023 OVC048 16/15 A2970 RMK SC6SC2 SLP056

CYHM;2011-06-25 09:00;CYHM 250900Z 24009KT 15SM BKN017 OVC045 16/15 A2971 RMK SC7SC1 SLP061

CYHM;2011-06-25 10:00;CYHM 251000Z 24010KT 10SM BKN014 OVC045 16/15 A2974 RMK SC6SC2 CIG RAG SLP069

CYHM;2011-06-25 10:52;CYHM 251052Z 23011KT 5SM -DZ BR BKN009 OVC043 RMK SC6SC2 CIG RAG

CYHM;2011-06-25 11:00;CYHM 251100Z 23011KT 5SM -DZ BR SCT009 BKN043 BKN062 16/15 A2974 RMK SC3SC2SC2 PCPN VRY LGT SLP070

CYHM;2011-06-25 11:21;CYHM 251121Z 23009KT 8SM BKN009 BKN062 RMK SC6SC2

CYHM;2011-06-25 12:00;CYHM 251200Z 23012KT 12SM BKN011 OVC062 16/15 A2975 RMK SC7SC1 SLP072

CYHM;2011-06-25 13:00;CYHM 251300Z 24010KT 15SM BKN012 OVC019 16/15 A2976 RMK SC6SC2 SLP078

CYHM;2011-06-25 13:49;CYHM 251349Z 24014KT 15SM FEW013 SCT021 BKN071 RMK SC2SC2AC3

CYHM;2011-06-25 14:00;CYHM 251400Z 24014KT 15SM -SHRA FEW013 BKN021 OVC069 17/15 A2978 RMK SC2SC3AC3 SLP082

CYHM;2011-06-25 14:27;CYHM 251427Z 28012KT 220V340 15SM BKN014 BKN022 OVC070 RMK SC6SC2AC1

CYHM;2011-06-25 15:00;CYHM 251500Z 28012KT 15SM SCT015 BKN024 OVC068 17/14 A2978 RMK SC3SC2AC2 SLP086

CYHM;2011-06-25 16:00;CYHM 251600Z 27008KT 240V320 15SM BKN019 OVC068 17/14 A2979 RMK SC6AC2 SLP087

CYHM;2011-06-25 17:00;CYHM 251700Z 27007KT 230V320 15SM BKN017 OVC068 17/14 A2980 RMK SC6AC2 SLP092

CYHM;2011-06-25 18:00;CYHM 251800Z 23008KT 180V270 15SM BKN019 OVC028 18/15 A2981 RMK SC5SC3 SLP094

CYHM;2011-06-25 19:00;CYHM 251900Z 24009KT 190V280 15SM SCT023 BKN035 18/14 A2983 RMK SC3SC4 SLP100

CYHM;2011-06-25 20:00;CYHM 252000Z 25014KT 210V290 15SM SCT024 BKN037 19/14 A2984 RMK SC4SC3 SLP105

CYHM;2011-06-25 21:00;CYHM 252100Z 29012KT 15SM SCT024 BKN043 19/14 A2985 RMK SC3SC4 SLP108

CYHM;2011-06-25 22:00;CYHM 252200Z 27008KT 15SM BKN027 BKN052 19/15 A2985 RMK SC5SC2 SLP108

CYHM;2011-06-25 23:00;CYHM 252300Z 28005KT 15SM FEW025 BKN034 19/15 A2987 RMK SC2SC5 SLP113

CYHM;2011-06-26 00:00;CYHM 260000Z 30003KT 15SM BKN028 19/15 A2989 RMK SC7 SLP121

CYHM;2011-06-26 01:00;CYHM 260100Z 31005KT 15SM BKN041 OVC080 18/15 A2990 RMK SC7AC1 SLP124

CYHM;2011-06-26 02:00;CYHM 260200Z 30005KT 15SM OVC034 17/14 A2991 RMK SC8 SLP128

CYHM;2011-06-26 03:00;CYHM 260300Z 30006KT 15SM OVC031 17/14 A2992 RMK SC8 SLP131

CYHM;2011-06-26 04:00;CYHM 260400Z 31005KT 15SM BKN034 16/14 A2992 RMK SC7 SLP133

CYHM;2011-06-26 05:00;CYHM 260500Z 28004KT 15SM BKN045 15/14 A2992 RMK SC6 SLP132

CYHM;2011-06-26 06:00;CYHM 260600Z 31005KT 15SM BKN038 OVC057 16/14 A2992 RMK SC7SC1 SLP131

CYHM;2011-06-26 07:00;CYHM 260700Z 33007KT 15SM OVC034 16/15 A2994 RMK SC8 SLP137

CYHM;2011-06-26 08:00;CYHM 260800Z 31005KT 15SM OVC032 16/15 A2992 RMK SC8 SLP131

CYHM;2011-06-26 09:00;CYHM 260900Z 27007KT 15SM OVC030 16/15 A2993 RMK SC8 SLP136

CYHM;2011-06-26 09:52;CYHM 260952Z 31006KT 12SM -SHRA OVC030 RMK SC8

CYHM;2011-06-26 10:00;CYHM 261000Z 32007KT 8SM -SHRA BKN032 16/16 A2994 RMK SC7 PCPN VRY LGT SLP140

CYHM;2011-06-26 10:28;CYHM 261028Z CCA 31005KT 15SM FEW025 BKN037 BKN250 RMK SC2SC3CI1

CYHM;2011-06-26 11:00;CYHM 261100Z 30004KT 15SM BKN040 BKN250 17/16 A2996 RMK SC6CI1 SLP146

CYHM;2011-06-26 12:00;CYHM 261200Z 32005KT 15SM FEW040 BKN250 17/15 A2998 RMK SC1CI3 CONTRAILS SLP151

CYHM;2011-06-26 13:00;CYHM 261300Z 33004KT 240V360 15SM FEW025 BKN250 19/16 A2999 RMK CU1CI2 SLP155

CYHM;2011-06-26 14:00;CYHM 261400Z 36005KT 15SM BKN023 BKN050 BKN250 20/15 A2998 RMK CU5SC1CI0 SLP152

CYHM;2011-06-26 15:00;CYHM 261500Z 33003KT 15SM BKN029 OVC041 20/15 A3000 RMK SC6SC2 CU ASOCTD SLP157

CYHM;2011-06-26 16:00;CYHM 261600Z 04005KT 320V070 15SM BKN032 BKN055 21/14 A3000 RMK SC5SC2 CU ASOCTD SLP158

CYHM;2011-06-26 17:00;CYHM 261700Z 08002KT 15SM BKN030 BKN048 21/15 A2999 RMK SC5SC2 CU ASOCTD SLP156

CYHM;2011-06-26 18:00;CYHM 261800Z 34002KT 15SM BKN034 22/15 A2999 RMK SC6 WND L/V SLP154

CYHM;2011-06-26 19:00;CYHM 261900Z 00000KT 15SM BKN041 BKN056 22/13 A2999 RMK SC6SC2 SLP156

CYHM;2011-06-26 20:00;CYHM 262000Z 00000KT 15SM SCT037 BKN057 22/14 A2999 RMK SC3SC4 SLP155

CYHM;2011-06-26 21:00;CYHM 262100Z 36003KT 15SM FEW035 BKN054 22/15 A2999 RMK SC2SC4 SLP156

CYHM;2011-06-26 22:00;CYHM 262200Z 05006KT 15SM FEW041 BKN053 21/15 A2999 RMK SC2SC5 SLP156

CYHM;2011-06-26 23:00;CYHM 262300Z 10006KT 15SM SCT053 21/15 A3000 RMK SC3 SLP157

CYHM;2011-06-27 00:00;CYHM 270000Z 09002KT 15SM FEW052 FEW250 20/14 A3000 RMK SC1CI1 CI TR SLP158

CYHM;2011-06-27 01:00;CYHM 270100Z 20004KT 15SM FEW050 FEW250 19/15 A3001 RMK SC1CI1 CI TR SLP162

CYHM;2011-06-27 02:00;CYHM 270200Z 00000KT 15SM FEW250 17/15 A3002 RMK CI1 CI TR SLP166

CYHM;2011-06-27 03:00;CYHM 270300Z 00000KT 15SM FEW250 16/15 A3004 RMK CI1 CI TR SLP171

CYHM;2011-06-27 04:00;CYHM 270400Z 00000KT 15SM FEW250 15/15 A3003 RMK CI1 CI TR SLP170

CYHM;2011-06-27 05:00;CYHM 270500Z 00000KT 15SM FEW250 15/14 A3004 RMK CI1 CI TR SLP173

CYHM;2011-06-27 06:00;CYHM 270600Z 00000KT 15SM BKN048 16/15 A3004 RMK SC6 SLP171

CYHM;2011-06-27 07:00;CYHM 270700Z 33002KT 15SM BKN054 16/15 A3005 RMK SC7 SLP174

CYHM;2011-06-27 08:00;CYHM 270800Z 00000KT 15SM FEW032 BKN054 16/15 A3004 RMK SF1SC3 SLP170

CYHM;2011-06-27 09:00;CYHM 270900Z 00000KT 15SM SCT034 SCT250 15/15 A3004 RMK SC4CI1 CI TR SLP170

CYHM;2011-06-27 10:00;CYHM 271000Z 00000KT 15SM FEW030 FEW160 FEW250 14/14 A3004 RMK SC1AC1CI1 AC TR SLP172

CYHM;2011-06-27 11:00;CYHM 271100Z 00000KT 15SM FEW035 FEW140 FEW220 16/15 A3006 RMK SC1AC1CI1 SC TR AC TR SLP178

CYHM;2011-06-27 12:00;CYHM 271200Z 09002KT 15SM FEW140 FEW220 19/16 A3005 RMK AC1CI1 AC TR SLP175

CYHM;2011-06-27 13:00;CYHM 271300Z 10004KT 15SM FEW025 SCT220 20/16 A3004 RMK CU1CI2 SLP170

CYHM;2011-06-27 14:00;CYHM 271400Z 12008KT 15SM FEW025 FEW032 BKN220 21/16 A3004 RMK CU1SC1CI2 SLP170

CYHM;2011-06-27 15:00;CYHM 271500Z 14010KT 15SM SCT025 BKN032 BKN210 22/17 A3001 RMK CU3SC2CI1 SLP161

CYHM;2011-06-27 16:00;CYHM 271600Z 15011KT 15SM SCT030 BKN035 BKN220 23/17 A3002 RMK CU3SC2CI1 SLP165

CYHM;2011-06-27 17:00;CYHM 271700Z 17007KT 15SM FEW036 SCT042 SCT140 BKN210 23/15 A3001 RMK CU2SC2AC1CI1 SLP161

CYHM;2011-06-27 18:00;CYHM 271800Z 21010KT 15SM FEW028 FEW042 SCT150 BKN210 24/16 A2999 RMK CU1SC1AC1CI2 SLP153

CYHM;2011-06-27 19:00;CYHM 271900Z 20009KT 15SM FEW045 BKN250 24/15 A2998 RMK CU1CS3 SLP152

CYHM;2011-06-27 20:00;CYHM 272000Z 18008KT 15SM FEW044 BKN250 24/15 A2995 RMK CU1CS5 SLP140

CYHM;2011-06-27 21:00;CYHM 272100Z 17009KT 15SM FEW140 BKN250 23/16 A2991 RMK AC1CC6 SLP129

CYHM;2011-06-27 22:00;CYHM 272200Z 15003KT 15SM FEW160 BKN250 24/17 A2991 RMK AC1CS6 CONTRAILS SLP128

CYHM;2011-06-27 23:00;CYHM 272300Z 02004KT 15SM BKN160 BKN250 22/18 A2991 RMK AC6CS1 SLP127

CYHM;2011-06-28 00:00;CYHM 280000Z 04006KT 15SM FEW140 BKN160 BKN230 21/17 A2990 RMK AC2AC3CI2 SLP124

CYHM;2011-06-28 01:00;CYHM 280100Z 05006KT 15SM FEW120 BKN140 BKN230 19/17 A2990 RMK AC2AC3CI2 SLP123

CYHM;2011-06-28 02:00;CYHM 280200Z 06007KT 15SM FEW110 BKN120 BKN230 19/18 A2989 RMK AC2AC5CI1 SLP121

CYHM;2011-06-28 03:00;CYHM 280300Z 06006KT 15SM FEW064 BKN110 BKN160 19/18 A2988 RMK SC2AC5AC1 SLP116

CYHM;2011-06-28 04:00;CYHM 280400Z 06003KT 15SM SCT058 BKN120 19/18 A2986 RMK SC3AC4 SLP110

CYHM;2011-06-28 05:00;CYHM 280500Z 09002KT 15SM FEW052 SCT110 BKN140 19/18 A2984 RMK SC2AC2AC3 SLP103

CYHM;2011-06-28 06:00;CYHM 280600Z 16002KT 15SM FEW090 SCT110 BKN160 19/18 A2982 RMK AC1AC2AC1 SLP097

CYHM;2011-06-28 07:00;CYHM 280700Z 20005KT 15SM FEW052 SCT110 BKN160 18/17 A2981 RMK SC2AC1AC2 SLP094

CYHM;2011-06-28 08:00;CYHM 280800Z 20006KT 15SM FEW030 SCT042 BKN110 20/18 A2980 RMK SF1SC2AC2 SLP090

CYHM;2011-06-28 09:00;CYHM 280900Z 20005KT 8SM FEW110 SCT180 BKN250 19/19 A2980 RMK AC1AC1CC2 SLP089

CYHM;2011-06-28 10:00;CYHM 281000Z 21005KT 3SM BR BKN076 BKN160 BKN250 19/19 A2980 RMK AC5AC1CI1 SLP089

CYHM;2011-06-28 11:00;CYHM 281100Z 21007KT 6SM BR BKN071 BKN150 20/19 A2980 RMK AC5AC2 SLP089

CYHM;2011-06-28 12:00;CYHM 281200Z 22008KT 4SM BR FEW070 SCT140 BKN210 21/20 A2980 RMK AC2AC2CI2 SLP088

CYHM;2011-06-28 13:00;CYHM 281300Z 24006KT 3SM BR SCT006 OVC066 22/21 A2980 RMK SF3AC5 SLP090

CYHM;2011-06-28 14:00;CYHM 281400Z CCA 22008KT 7SM FEW018 BKN072 23/21 A2979 RMK SC2AC6 SLP087

CYHM;2011-06-28 15:00;CYHM 281500Z 23010KT 10SM FEW020 BKN063 BKN078 25/22 A2979 RMK CU2SC2AC2 TCU ASOCTD SLP084

CYHM;2011-06-28 16:00;CYHM 281600Z 23012KT 15SM FEW033 BKN041 BKN082 26/21 A2977 RMK CU2SC3AC1 SLP077

CYHM;2011-06-28 17:00;CYHM 281700Z 27008KT 15SM SCT034 SCT042 BKN220 27/20 A2975 RMK CU3SC1CI1 TCU ASOCTD SLP071

CYHM;2011-06-28 18:00;CYHM 281800Z 29016G24KT 15SM FEW038 BKN054 BKN160 26/18 A2976 RMK CU2SC2AC1 SLP076

CYHM;2011-06-28 19:00;CYHM 281900Z 28017G23KT 15SM FEW034 FEW042TCU 26/13 A2977 RMK CU1TCU2 CU TR SC ASOCTD SLP077

CYHM;2011-06-28 20:00;CYHM 282000Z 30012G18KT 15SM FEW036 SCT044 25/14 A2978 RMK CU1SC4 CU TR TCU EMBDD SLP082

CYHM;2011-06-28 21:00;CYHM 282100Z 29015G22KT 15SM BKN056 BKN090 24/14 A2979 RMK SC6AC1 TCU EMBDD AC TR SLP087

CYHM;2011-06-28 22:00;CYHM 282200Z 29012G20KT 15SM SCT056 SCT080 23/14 A2981 RMK SC3AC1 TCU EMBDD CU ASOCTD AC TR SLP091

CYHM;2011-06-28 23:00;CYHM 282300Z 30013G19KT 15SM SCT062 SCT084 22/14 A2982 RMK SC3AC1 CUFRA ASOCTD AC TR SLP096

CYHM;2011-06-29 00:00;CYHM 290000Z 28015G22KT 15SM FEW054 BKN064 20/14 A2984 RMK CU1SC6 SLP103

CYHM;2011-06-29 01:00;CYHM 290100Z 28015G23KT 15SM FEW044 BKN064 19/13 A2986 RMK SF1SC6 SLP108

CYHM;2011-06-29 02:00;CYHM 290200Z 28012KT 15SM BKN032 18/13 A2988 RMK SC7 SLP116

CYHM;2011-06-29 03:00;CYHM 290300Z 28013KT 15SM BKN027 18/13 A2988 RMK SC7 SLP118

CYHM;2011-06-29 04:00;CYHM 290400Z 27010KT 15SM BKN026 17/12 A2989 RMK SC7 SLP121

CYHM;2011-06-29 05:00;CYHM 290500Z 27010KT 15SM OVC025 16/12 A2989 RMK SC8 SLP121

CYHM;2011-06-29 06:00;CYHM 290600Z 27004KT 15SM OVC021 16/12 A2990 RMK SC8 SLP124

CYHM;2011-06-29 07:00;CYHM 290700Z 27008KT 15SM OVC022 15/12 A2991 RMK SC8 SLP126

CYHM;2011-06-29 08:00;CYHM 290800Z 26009KT 15SM BKN017 OVC032 15/12 A2991 RMK SC6SC2 SLP127

CYHM;2011-06-29 09:00;CYHM 290900Z 27010KT 15SM OVC017 14/12 A2992 RMK SC8 SLP130

CYHM;2011-06-29 10:00;CYHM 291000Z 27008KT 15SM SCT012 BKN018 BKN032 14/12 A2993 RMK SC3SC2SC2 SF ASOCTD SLP133

CYHM;2011-06-29 11:00;CYHM 291100Z 28012KT 15SM BKN010 OVC018 13/12 A2994 RMK SC6SC2 SLP137

CYHM;2011-06-29 12:00;CYHM 291200Z 26010G15KT 15SM BKN011 BKN024 13/12 A2996 RMK SC6SC2 SLP145

CYHM;2011-06-29 13:00;CYHM 291300Z 30008KT 15SM OVC015 14/11 A2998 RMK SC8 SLP153

CYHM;2011-06-29 14:00;CYHM 291400Z 27012KT 15SM OVC018 14/11 A2999 RMK SC8 SLP156

CYHM;2011-06-29 15:00;CYHM 291500Z 28015KT 15SM FEW016 BKN020 BKN160 16/12 A3000 RMK SC2SC3AC2 SLP160

CYHM;2011-06-29 16:00;CYHM 291600Z 29012KT 15SM FEW018 SCT021 BKN210 17/13 A3001 RMK CU1SC2CI1 SLP163

CYHM;2011-06-29 17:00;CYHM 291700Z 29014KT 15SM FEW021 SCT032 BKN160 19/13 A3002 RMK CU1SC2AC1 SLP165

CYHM;2011-06-29 18:00;CYHM 291800Z 28010G15KT 15SM FEW022 SCT034 BKN210 18/13 A3001 RMK CU2SC2CI1 SLP164

CYHM;2011-06-29 19:00;CYHM 291900Z 26012KT 15SM FEW023 19/14 A3001 RMK CU2 SLP162

CYHM;2011-06-29 20:00;CYHM 292000Z 31011KT 15SM FEW027 21/14 A3001 RMK CU1 SLP161

CYHM;2011-06-29 21:00;CYHM 292100Z 29012KT 15SM FEW037 21/14 A3001 RMK CU2 SLP162

CYHM;2011-06-29 22:00;CYHM 292200Z 29013KT 15SM FEW038 22/14 A3001 RMK CU2 SLP163

CYHM;2011-06-29 23:00;CYHM 292300Z 28011KT 15SM FEW043 21/13 A3001 RMK CU1 SLP162

CYHM;2011-06-30 00:00;CYHM 300000Z 28010KT 15SM FEW040 20/13 A3001 RMK CU1 SLP164

CYHM;2011-06-30 01:00;CYHM 300100Z 28007KT 15SM SKC 18/13 A3002 RMK SLP165

CYHM;2011-06-30 02:00;CYHM 300200Z 28007KT 15SM SKC 17/12 A3003 RMK SLP170

CYHM;2011-06-30 03:00;CYHM 300300Z 27007KT 15SM SKC 16/12 A3004 RMK SLP173

CYHM;2011-06-30 04:00;CYHM 300400Z 28007KT 15SM FEW140 15/12 A3004 RMK AC1 SLP175

CYHM;2011-06-30 05:00;CYHM 300500Z 29009KT 15SM SKC 14/12 A3003 RMK SLP171

CYHM;2011-06-30 06:00;CYHM 300600Z 28005KT 15SM SKC 13/11 A3003 RMK SLP171

CYHM;2011-06-30 07:00;CYHM 300700Z 25005KT 15SM SKC 10/10 A3005 RMK SLP176

CYHM;2011-06-30 08:00;CYHM 300800Z 26006KT 15SM SKC 11/11 A3005 RMK SLP177

CYHM;2011-06-30 09:00;CYHM 300900Z 28004KT 15SM FEW240 11/11 A3006 RMK CI1 SLP181

CYHM;2011-06-30 10:00;CYHM 301000Z 28005KT 15SM FEW100 FEW240 11/10 A3007 RMK AC1CI1 CONTRAILS SLP182

CYHM;2011-06-30 11:00;CYHM 301100Z 28004KT 15SM FEW240 11/10 A3007 RMK CI1 CONTRAILS SLP185

CYHM;2011-06-30 12:00;CYHM 301200Z 28008KT 15SM SCT240 13/10 A3008 RMK CI2 CONTRAILS SLP187

CYHM;2011-06-30 13:00;CYHM 301300Z 26008KT 15SM BKN240 16/10 A3010 RMK CI4 CONTRAILS SLP192

CYHM;2011-06-30 14:00;CYHM 301400Z 30004KT 15SM BKN240 19/11 A3009 RMK CI4 SLP190

CYHM;2011-06-30 15:00;CYHM 301500Z 28007KT 15SM BKN220 21/11 A3009 RMK CI3 SLP190

CYHM;2011-06-30 16:00;CYHM 301600Z 28008KT 15SM SCT220 23/09 A3007 RMK CI2 SLP184

CYHM;2011-06-30 17:00;CYHM 301700Z 32010KT 15SM FEW240 24/08 A3006 RMK CI1 SLP180

CYHM;2011-06-30 18:00;CYHM 301800Z 30008KT 15SM SCT240 25/09 A3005 RMK CI2 SLP176

CYHM;2011-06-30 19:00;CYHM 301900Z 30007KT 260V350 15SM BKN250 25/09 A3004 RMK CI2 CONTRAILS SLP171

CYHM;2011-06-30 20:00;CYHM 302000Z 28008KT 250V350 15SM BKN250 25/09 A3003 RMK CI2 SLP168

CYHM;2011-06-30 21:00;CYHM 302100Z 27009KT 15SM BKN250 25/09 A3002 RMK CI2 SLP164

CYHM;2011-06-30 22:00;CYHM 302200Z 26008KT 15SM SCT250 25/10 A3000 RMK CI2 SLP159

CYHM;2011-06-30 23:00;CYHM 302300Z 27007KT 15SM FEW250 25/11 A3001 RMK CI1 SLP161

CYHM;2011-07-01 01:00;CYHM 010100Z 31002KT 15SM FEW250 21/10 A3001 RMK CI1 SLP163

CYHM;2011-07-01 02:00;CYHM 010200Z 33002KT 15SM FEW250 18/11 A3002 RMK CI0 SLP166

CYHM;2011-07-01 03:00;CYHM 010300Z 36004KT 15SM SKC 14/11 A3004 RMK SLP171

CYHM;2011-07-01 04:00;CYHM 010400Z 03006KT 15SM FEW250 17/10 A3004 RMK CI1 SLP171

CYHM;2011-07-01 05:00;CYHM 010500Z 02004KT 15SM SKC 16/10 A3005 RMK SLP176

CYHM;2011-07-01 06:00;CYHM 010600Z 00000KT 15SM SKC 14/09 A3006 RMK SLP177

CYHM;2011-07-01 07:00;CYHM 010700Z 00000KT 15SM SKC 12/09 A3006 RMK SLP179

CYHM;2011-07-01 08:00;CYHM 010800Z 00000KT 15SM SKC 11/09 A3006 RMK SLP179

CYHM;2011-07-01 09:00;CYHM 010900Z 00000KT 15SM SKC 11/09 A3006 RMK SLP179

CYHM;2011-07-01 10:00;CYHM 011000Z 33002KT 15SM SKC 11/09 A3007 RMK SLP182

CYHM;2011-07-01 11:00;CYHM 011100Z 00000KT 15SM SKC 14/11 A3009 RMK SLP189

CYHM;2011-07-01 12:00;CYHM 011200Z 04005KT 15SM FEW240 18/11 A3010 RMK CI1 SLP190

CYHM;2011-07-01 13:00;CYHM 011300Z 07006KT 15SM SKC 20/10 A3010 RMK SLP193

CYHM;2011-07-01 14:00;CYHM 011400Z 10004KT 15SM SKC 21/10 A3010 RMK SLP191

CYHM;2011-07-01 15:00;CYHM 011500Z 11005KT 15SM SKC 23/09 A3010 RMK SLP191

CYHM;2011-07-01 16:00;CYHM 011600Z 16003KT 15SM FEW240 23/10 A3009 RMK CI0 SLP188

CYHM;2011-07-01 17:00;CYHM 011700Z 00000KT 15SM FEW240 24/09 A3008 RMK CI1 SLP186

CYHM;2011-07-01 18:00;CYHM 011800Z 25006KT 15SM SCT220 25/09 A3007 RMK CI2 SLP182

CYHM;2011-07-01 19:00;CYHM 011900Z 25003KT 15SM BKN230 26/10 A3007 RMK CI5 CONTRAILS SLP181

CYHM;2011-07-01 20:00;CYHM 012000Z 19007KT 15SM BKN230 27/10 A3007 RMK CI6 CONTRAILS SLP181

CYHM;2011-07-01 21:00;CYHM 012100Z 24009KT 15SM BKN200 26/12 A3007 RMK CI6 CONTRAILS SLP183

CYHM;2011-07-01 22:00;CYHM 012200Z 19003KT 15SM BKN220 26/11 A3007 RMK CI6 CONTRAILS SLP181

CYHM;2011-07-01 23:00;CYHM 012300Z 20005KT 15SM BKN230 25/11 A3006 RMK CI6 CONTRAILS SLP180

CYHM;2011-07-02 00:00;CYHM 020000Z 17005KT 15SM BKN200 23/07 A3006 RMK CI5 CONTRAILS SLP178

CYHM;2011-07-02 01:00;CYHM 020100Z 16006KT 15SM BKN200 21/06 A3007 RMK CI5 CONTRAILS SLP180

CYHM;2011-07-02 02:00;CYHM 020200Z 17005KT 15SM FEW220 20/05 A3006 RMK CI2 SLP179

CYHM;2011-07-02 03:00;CYHM 020300Z 20005KT 15SM FEW220 17/07 A3006 RMK CI1 SLP179

CYHM;2011-07-02 04:00;CYHM 020400Z 18002KT 15SM FEW200 17/07 A3006 RMK CI1 SLP177

CYHM;2011-07-02 05:00;CYHM 020500Z 17006KT 15SM FEW200 16/10 A3005 RMK CI1 SLP174

CYHM;2011-07-02 06:00;CYHM 020600Z 00000KT 15SM FEW200 16/09 A3005 RMK CI1 SLP173

CYHM;2011-07-02 07:00;CYHM 020700Z 00000KT 15SM FEW170 16/10 A3005 RMK AC2 SLP173

CYHM;2011-07-02 08:00;CYHM 020800Z 00000KT 15SM BKN080 16/11 A3004 RMK AC6 SLP171

CYHM;2011-07-02 09:00;CYHM 020900Z 00000KT 15SM FEW085 BKN120 16/13 A3004 RMK AC2AC3 SLP172

CYHM;2011-07-02 10:00;CYHM 021000Z 00000KT 15SM BKN085 BKN120 16/13 A3003 RMK AC5AC1 SLP166

CYHM;2011-07-02 11:00;CYHM 021100Z 17006KT 15SM FEW078 FEW120 17/15 A3001 RMK AC2AC1 SLP161

CYHM;2011-07-02 12:00;CYHM 021200Z 20006KT 15SM BKN100 19/16 A3002 RMK AC7 SLP164

CYHM;2011-07-02 13:00;CYHM 021300Z 18006KT 15SM BKN082 BKN110 21/16 A3002 RMK AC5AC2 SLP163

CYHM;2011-07-02 14:00;CYHM 021400Z 19004KT 15SM BKN079 BKN100 22/17 A3002 RMK AC6AC1 SLP164

CYHM;2011-07-02 15:00;CYHM 021500Z 17011KT 15SM FEW079 FEW110 BKN250 23/17 A2997 RMK AC1AC1CI4 SLP146

CYHM;2011-07-02 16:00;CYHM 021600Z 19006KT 140V220 15SM FEW110 OVC250 26/19 A2998 RMK AC1CI6 SLP152

CYHM;2011-07-02 17:00;CYHM 021700Z 23006KT 15SM FEW110 OVC250 27/21 A2998 RMK AC2CI5 SLP150

CYHM;2011-07-02 18:00;CYHM 021800Z 23014KT 15SM BKN035 OVC250 28/20 A2997 RMK SC6CI2 SLP146

CYHM;2011-07-02 19:00;CYHM 021900Z 22011G17KT 15SM SCT034 BKN250 28/20 A2995 RMK SC3CI3 SLP141

CYHM;2011-07-02 20:00;CYHM 022000Z 21010KT 15SM FEW030 SCT180 BKN250 29/22 A2994 RMK SC2AC2CI2 SLP135

CYHM;2011-07-02 21:00;CYHM 022100Z 19012KT 15SM SCT031 SCT180 BKN250 29/23 A2991 RMK SC3AC1CI2 SLP127

CYHM;2011-07-02 22:00;CYHM 022200Z 19010KT 15SM FEW030 FEW180 BKN230 27/22 A2989 RMK SC1AC2CI2 SLP118

CYHM;2011-07-02 23:00;CYHM 022300Z 22012KT 15SM FEW030 FEW077 BKN170 27/23 A2988 RMK SC2AC1AC2 SLP117

CYHM;2011-07-03 00:00;CYHM 030000Z 23010KT 15SM FEW035 BKN230 26/23 A2989 RMK SC2CI5 SLP119

CYHM;2011-07-03 01:00;CYHM 030100Z 23012KT 8SM BKN031 OVC090 26/22 A2991 RMK SC6AC2 SLP125

CYHM;2011-07-03 01:13;CYHM 030113Z 24012KT 7SM -SHRA SCT030 OVC220 RMK SC4CI4 TCU ASOCTD

CYHM;2011-07-03 02:00;CYHM 030200Z 27010G16KT 15SM -TSRA FEW030CB SCT100 OVC240 24/18 A2992 RMK CB2AC2CI5 OCNL LTGIC N SLP128

CYHM;2011-07-03 03:00;CYHM 030300Z 20007KT 15SM TS FEW030CB OVC150 22/18 A2988 RMK CB2AC6 OCNL LTGIC ENE SLP115

CYHM;2011-07-03 03:30;CYHM 030330Z 33013KT 15SM -TSRA FEW030CB OVC080 RMK CB1AC7 OCNL LTNG

CYHM;2011-07-03 04:00;CYHM 030400Z 00000KT 15SM -SHRA OVC140 22/19 A2990 RETS RMK AC8 SLP123

CYHM;2011-07-03 05:00;CYHM 030500Z 25011KT 15SM FEW015TCU OVC230 21/19 A2993 RMK TCU2CI6 SLP131

CYHM;2011-07-03 06:00;CYHM 030600Z 29007KT 15SM FEW015 OVC230 21/19 A2992 RMK SC1CI7 SLP129

CYHM;2011-07-03 08:00;CYHM 030800Z 26007KT 15SM BKN090 21/20 A2988 RMK AC6 SLP115

CYHM;2011-07-03 09:00;CYHM 030900Z 00000KT 15SM FEW090 BKN150 20/19 A2990 RMK AC2AC6 SLP120

CYHM;2011-07-03 10:00;CYHM 031000Z 29005KT 15SM BKN078 BKN220 20/19 A2991 RMK AC5CI1 CONTRAILS SLP125

CYHM;2011-07-03 11:00;CYHM 031100Z 32008KT 15SM FEW078 SCT240 20/17 A2992 RMK AC1CI2 SLP128

CYHM;2011-07-03 12:00;CYHM 031200Z 31006KT 15SM FEW080 FEW250 22/17 A2994 RMK AC1CI1 SLP134

CYHM;2011-07-03 13:00;CYHM 031300Z 28005KT 230V320 15SM FEW080 FEW250 24/16 A2994 RMK AC1CI0 AC TR SLP135

CYHM;2011-07-03 14:00;CYHM 031400Z 32004KT 220V350 15SM FEW250 25/16 A2994 RMK CI0 SLP134

CYHM;2011-07-03 15:00;CYHM 031500Z 27007KT 240V010 15SM FEW250 27/16 A2994 RMK CI1 SLP135

CYHM;2011-07-03 16:00;CYHM 031600Z 30008KT 260V340 15SM SCT250 29/16 A2993 RMK CI2 CONTRAILS SLP132

CYHM;2011-07-03 17:00;CYHM 031700Z 30012KT 250V340 15SM FEW250 29/15 A2992 RMK CI1 CONTRAILS SLP130

CYHM;2011-07-03 18:00;CYHM 031800Z 35011KT 260V350 15SM FEW055 BKN250 29/15 A2992 RMK CU1CI2 CU TR SLP129

CYHM;2011-07-03 19:00;CYHM 031900Z 28013G18KT 220V330 15SM FEW055 FEW250 29/15 A2992 RMK CU1CI2 CU TR SLP127

CYHM;2011-07-03 20:00;CYHM 032000Z 29011KT 230V340 15SM FEW055 BKN250 29/14 A2991 RMK CU1CI2 CU TR SLP125

CYHM;2011-07-03 21:00;CYHM 032100Z 27011KT 15SM FEW055 BKN250 29/14 A2991 RMK CU1CI4 CU TR SLP123

CYHM;2011-07-03 22:00;CYHM 032200Z 31011KT 15SM FEW050 SCT250 27/14 A2990 RMK SC1CI2 SC TR SLP120

CYHM;2011-07-03 23:00;CYHM 032300Z 34010KT 15SM FEW052 BKN250 26/13 A2989 RMK CU1CI1 CU TR CONTRAILS SLP118

CYHM;2011-07-04 00:00;CYHM 040000Z 30005KT 15SM BKN250 24/14 A2989 RMK CI1 CONTRAILS SLP119

CYHM;2011-07-04 01:00;CYHM 040100Z 29004KT 15SM BKN250 23/14 A2990 RMK CI3 SLP121

CYHM;2011-07-04 02:00;CYHM 040200Z 28006KT 15SM BKN250 21/13 A2991 RMK CI2 SLP126

CYHM;2011-07-04 03:00;CYHM 040300Z 28006KT 15SM BKN250 20/13 A2992 RMK CI2 SLP129

CYHM;2011-07-04 04:00;CYHM 040400Z 28005KT 15SM BKN250 19/12 A2993 RMK CI2 SLP131

CYHM;2011-07-04 05:00;CYHM 040500Z 27003KT 15SM BKN250 18/11 A2993 RMK CI2 SLP133

CYHM;2011-07-04 06:00;CYHM 040600Z 27003KT 15SM BKN250 17/11 A2992 RMK CI1 SLP130

CYHM;2011-07-04 07:00;CYHM 040700Z 29004KT 15SM BKN250 16/11 A2993 RMK CI2 SLP131

CYHM;2011-07-04 08:00;CYHM 040800Z 28005KT 15SM BKN250 16/11 A2993 RMK CI1 SLP132

CYHM;2011-07-04 09:00;CYHM 040900Z 30003KT 15SM SCT250 16/11 A2992 RMK CI1 SLP129

CYHM;2011-07-04 10:00;CYHM 041000Z 31005KT 15SM SCT240 16/10 A2993 RMK CI3 SLP133

CYHM;2011-07-04 11:00;CYHM 041100Z 29004KT 15SM FEW180 SCT240 16/11 A2994 RMK AC1CI2 SLP135

CYHM;2011-07-04 12:00;CYHM 041200Z 28004KT 15SM FEW160 BKN240 19/12 A2995 RMK AC1CI4 SLP139

CYHM;2011-07-04 13:00;CYHM 041300Z 28004KT 15SM FEW160 SCT240 22/11 A2995 RMK AC1CI2 SLP141

CYHM;2011-07-04 14:00;CYHM 041400Z 31007KT 15SM SCT240 24/11 A2995 RMK CI2 SLP139

CYHM;2011-07-04 15:00;CYHM 041500Z 28007KT 15SM FEW240 25/11 A2995 RMK CI1 SLP139

CYHM;2011-07-04 16:00;CYHM 041600Z 28011KT 15SM FEW240 26/11 A2995 RMK CI1 SLP139

CYHM;2011-07-04 17:00;CYHM 041700Z 30011KT 15SM FEW240 27/11 A2994 RMK CI1 SLP138

CYHM;2011-07-04 18:00;CYHM 041800Z 28012G17KT 240V320 15SM FEW045 FEW240 27/11 A2994 RMK CU1CI1 CU TR CI TR SLP136

CYHM;2011-07-04 19:00;CYHM 041900Z 30011KT 15SM FEW052 FEW250 27/10 A2993 RMK CU1CI1 CU TR SLP134

CYHM;2011-07-04 20:00;CYHM 042000Z 26009KT 15SM FEW250 27/08 A2993 RMK CI1 CI TR SLP134

CYHM;2011-07-04 21:00;CYHM 042100Z 30011KT 15SM FEW250 27/09 A2992 RMK CI1 CI TR SLP130

CYHM;2011-07-04 22:00;CYHM 042200Z 32010KT 15SM FEW250 26/09 A2991 RMK CI1 CI TR SLP127

CYHM;2011-07-04 23:00;CYHM 042300Z 30008KT 15SM SKC 26/11 A2991 RMK SLP125

CYHM;2011-07-05 00:00;CYHM 050000Z 30007KT 15SM SKC 25/11 A2991 RMK SLP125

CYHM;2011-07-05 01:00;CYHM 050100Z 30004KT 15SM SKC 22/11 A2991 RMK SLP127

CYHM;2011-07-05 02:00;CYHM 050200Z 31004KT 15SM SKC 20/11 A2993 RMK SLP132

CYHM;2011-07-05 03:00;CYHM 050300Z 30005KT 15SM SKC 18/11 A2994 RMK SLP136

CYHM;2011-07-05 04:00;CYHM 050400Z 31002KT 15SM SKC 18/11 A2995 RMK SLP140

CYHM;2011-07-05 05:00;CYHM 050500Z 00000KT 15SM SKC 16/11 A2996 RMK SLP142

CYHM;2011-07-05 06:00;CYHM 050600Z 28002KT 15SM SKC 15/12 A2997 RMK SLP145

CYHM;2011-07-05 07:00;CYHM 050700Z 26003KT 15SM SKC 14/12 A2997 RMK SLP147

CYHM;2011-07-05 08:00;CYHM 050800Z 25003KT 15SM SKC 14/11 A2997 RMK SLP146

CYHM;2011-07-05 09:00;CYHM 050900Z 28005KT 15SM FEW250 13/11 A2997 RMK CI1 CI TR SLP149

CYHM;2011-07-05 10:00;CYHM 051000Z 26003KT 15SM FEW250 13/11 A2998 RMK CI1 CI TR SLP150

CYHM;2011-07-05 11:00;CYHM 051100Z 28004KT 15SM SKC 15/12 A2999 RMK SLP153

CYHM;2011-07-05 12:00;CYHM 051200Z 29004KT 15SM SKC 19/13 A2998 RMK SLP151

CYHM;2011-07-05 13:00;CYHM 051300Z 28004KT 15SM FEW140 SCT210 22/13 A2999 RMK AC2CI1 SLP154

CYHM;2011-07-05 14:00;CYHM 051400Z 27007KT 15SM SCT140 BKN210 24/13 A3001 RMK AC3CI2 SLP158

CYHM;2011-07-05 15:00;CYHM 051500Z 29006KT 15SM SCT140 BKN210 25/12 A3000 RMK AC3CI1 SLP155

CYHM;2011-07-05 16:00;CYHM 051600Z 27006KT 15SM FEW095 BKN120 BKN210 26/12 A3000 RMK AC2AC3CI1 SLP155

CYHM;2011-07-05 17:00;CYHM 051700Z 21008KT 15SM BKN140 BKN170 25/15 A2998 RMK AC5AC1 SLP151

CYHM;2011-07-05 18:00;CYHM 051800Z 25010KT 15SM FEW089 BKN160 BKN220 27/15 A2998 RMK AC2AC3CI1 SLP150

CYHM;2011-07-05 19:00;CYHM 051900Z 19009KT 15SM FEW092 FEW150 BKN250 27/15 A2996 RMK AC2AC1CI2 SLP144

CYHM;2011-07-05 20:00;CYHM 052000Z 20009KT 15SM FEW062 FEW160 BKN250 27/17 A2994 RMK SC2AC1CI2 AC TR SLP139

CYHM;2011-07-05 21:00;CYHM 052100Z 21013KT 15SM FEW180 BKN250 28/17 A2993 RMK AC1CI4 AC TR SLP134

CYHM;2011-07-05 22:00;CYHM 052200Z 22011KT 15SM SCT160 BKN250 27/18 A2993 RMK AC3CI1 SLP133

CYHM;2011-07-05 23:00;CYHM 052300Z 22009KT 15SM FEW040 FEW150 FEW250 27/18 A2992 RMK CU1AC1CI1 CU TR SLP131

CYHM;2011-07-06 00:00;CYHM 060000Z 23011KT 15SM FEW150 FEW250 25/17 A2992 RMK AC1CI1 AC TR CI TR SLP129

CYHM;2011-07-06 01:00;CYHM 060100Z 21005KT 15SM FEW250 23/16 A2993 RMK CI1 CI TR SLP131

CYHM;2011-07-06 02:00;CYHM 060200Z 21005KT 15SM FEW250 21/15 A2993 RMK CI1 CI TR SLP133

CYHM;2011-07-06 03:00;CYHM 060300Z 21005KT 15SM FEW250 20/15 A2994 RMK CI1 CI TR SLP135

CYHM;2011-07-06 04:00;CYHM 060400Z 22003KT 15SM FEW250 20/15 A2994 RMK CI1 CI TR SLP136

CYHM;2011-07-06 05:00;CYHM 060500Z 22004KT 15SM FEW250 18/15 A2993 RMK CI1 SLP133

CYHM;2011-07-06 06:00;CYHM 060600Z 22003KT 15SM FEW250 18/15 A2992 RMK CI1 SLP130

CYHM;2011-07-06 07:00;CYHM 060700Z 23004KT 15SM FEW250 18/15 A2992 RMK CI1 SLP130

CYHM;2011-07-06 08:00;CYHM 060800Z CCA 23004KT 15SM FEW250 18/14 A2992 RMK CI1 SLP130

CYHM;2011-07-06 09:00;CYHM 060900Z 23003KT 15SM SCT064 BKN160 18/15 A2992 RMK SC4AC2 SLP129

CYHM;2011-07-06 10:00;CYHM 061000Z 26005KT 15SM FEW062 FEW160 BKN250 19/16 A2992 RMK SC2AC1CI2 AC TR CONTRAILS SLP130

CYHM;2011-07-06 11:00;CYHM 061100Z 26006KT 15SM FEW030 FEW080 BKN140 BKN220 20/17 A2991 RMK CU1AC2AC3CI2 CU TR SLP127

CYHM;2011-07-06 12:00;CYHM 061200Z 24006KT 15SM FEW100 BKN180 BKN220 20/18 A2991 RMK AC1AC4CI1 SLP124

CYHM;2011-07-06 13:00;CYHM 061300Z 24008KT 15SM FEW035 SCT082 BKN180 BKN220 23/19 A2991 RMK CU1AC2AC2CI2 SLP124

CYHM;2011-07-06 14:00;CYHM 061400Z 24008KT 15SM FEW080 BKN140 OVC210 24/20 A2991 RMK AC1AC4CI3 SLP125

CYHM;2011-07-06 15:00;CYHM 061500Z 29006KT 15SM FEW035 BKN110 BKN150 24/19 A2993 RMK CU1AC5AC2 CU TR SLP132

CYHM;2011-07-06 16:00;CYHM 061600Z 30010KT 15SM FEW036 FEW130 FEW240 26/18 A2992 RMK CU1AC1CI1 CU TR SLP131

CYHM;2011-07-06 17:00;CYHM 061700Z 28007KT 15SM FEW040 FEW140 FEW240 28/18 A2992 RMK CU1AC1CI1 CI TR SLP130

CYHM;2011-07-06 18:00;CYHM 061800Z 32010KT 15SM FEW042 FEW140 SCT240 29/18 A2993 RMK CU2AC1CI1 CI TR SLP133

CYHM;2011-07-06 19:00;CYHM 061900Z 30011KT 15SM SCT046 BKN062 BKN190 28/18 A2990 RMK CU3SC2AC1 TCU ASOCTD SLP123

CYHM;2011-07-06 20:00;CYHM 062000Z 30012KT 15SM SCT047 SCT110 30/19 A2989 RMK CU3AC1 TCU ASOCTD SLP120

CYHM;2011-07-06 21:00;CYHM 062100Z 30013KT 15SM FEW050TCU FEW068 29/18 A2988 RMK TCU2AC1 SLP117

CYHM;2011-07-06 22:00;CYHM 062200Z 30008KT 15SM FEW047TCU 28/18 A2988 RMK TCU2 SLP116

CYHM;2011-07-06 23:00;CYHM 062300Z 27008G15KT 15SM FEW045 FEW063 28/16 A2989 RMK CU2SC1 TCU ASOCTD SLP119

CYHM;2011-07-07 00:00;CYHM 070000Z 32012KT 15SM FEW050 FEW080 26/17 A2989 RMK CU2AC1 SLP120

CYHM;2011-07-07 01:00;CYHM 070100Z 33007KT 15SM FEW050 FEW075 23/17 A2992 RMK SC1AC1 TR AC SLP129

CYHM;2011-07-07 02:00;CYHM 070200Z 32005KT 15SM SKC 21/14 A2994 RMK SLP134

CYHM;2011-07-07 03:00;CYHM 070300Z 33005KT 15SM SKC 20/14 A2995 RMK SLP140

CYHM;2011-07-07 04:00;CYHM 070400Z 32004KT 15SM SKC 20/15 A2996 RMK SLP142

CYHM;2011-07-07 05:00;CYHM 070500Z 04003KT 15SM FEW220 18/15 A2997 RMK CI1 SLP146

CYHM;2011-07-07 06:00;CYHM 070600Z 00000KT 15SM SKC 17/15 A2997 RMK SLP148

CYHM;2011-07-07 07:00;CYHM 070700Z 34004KT 15SM FEW220 16/15 A2997 RMK CI1 SLP148

CYHM;2011-07-07 08:00;CYHM 070800Z 34005KT 15SM FEW220 17/16 A2998 RMK CI1 SLP149

CYHM;2011-07-07 09:00;CYHM 070900Z 31003KT 15SM FEW220 16/15 A2998 RMK CI1 SLP151

CYHM;2011-07-07 10:00;CYHM 071000Z 33005KT 8SM MIFG FEW100 FEW220 15/15 A3000 RMK AC1CI1 CONTRAILS SLP156

CYHM;2011-07-07 11:00;CYHM 071100Z 00000KT 10SM BKN240 17/16 A3001 RMK CI3 SLP159

CYHM;2011-07-07 12:00;CYHM 071200Z 04004KT 15SM FEW160 BKN240 19/17 A3001 RMK AC1CI3 CONTRAILS SLP161

CYHM;2011-07-07 13:00;CYHM 071300Z 04004KT 15SM FEW160 BKN220 21/17 A3002 RMK AC2CI4 SLP163

CYHM;2011-07-07 14:00;CYHM 071400Z CCA 08006KT 15SM FEW030 FEW170 OVC220 22/17 A3002 RMK CU1AC2CI4 SLP162

CYHM;2011-07-07 15:00;CYHM 071500Z 08005KT 15SM FEW032 FEW150 BKN210 23/17 A3001 RMK CU2AC1CI3 SLP162

CYHM;2011-07-07 16:00;CYHM 071600Z 07002KT 15SM SCT029 BKN033 BKN210 24/17 A3002 RMK CU3SC2CI2 SLP165

CYHM;2011-07-07 17:00;CYHM 071700Z 11004KT 15SM SCT034 SCT110 BKN210 25/16 A3002 RMK CU3AC1CI2 SLP165

CYHM;2011-07-07 18:00;CYHM 071800Z 00000KT 15SM FEW038 FEW130 OVC210 24/16 A3001 RMK CU2AC1CS5 HALO SLP162

CYHM;2011-07-07 19:00;CYHM 071900Z 00000KT 15SM FEW037 SCT140 BKN210 25/14 A3000 RMK CU2AC2CI3 SLP156

CYHM;2011-07-07 20:00;CYHM 072000Z 29002KT 15SM FEW037 SCT140 BKN210 26/14 A2999 RMK CU2AC1CI4 SLP153

CYHM;2011-07-07 21:00;CYHM 072100Z 08004KT 15SM FEW038 SCT150 BKN220 25/14 A2997 RMK CU2AC1CI4 SLP147

CYHM;2011-07-07 22:00;CYHM 072200Z 07006KT 15SM FEW040 BKN220 24/15 A2996 RMK CU2CI5 SLP144

CYHM;2011-07-07 23:00;CYHM 072300Z 08005KT 15SM FEW040 BKN220 24/14 A2994 RMK SC2CI6 CU ASOCTD SLP136

CYHM;2011-07-08 00:00;CYHM 080000Z 09006KT 15SM FEW040 BKN230 23/15 A2993 RMK CU1CI6 CU TR SLP134

CYHM;2011-07-08 01:00;CYHM 080100Z 08004KT 15SM FEW140 BKN240 21/15 A2993 RMK AC1CI3 SLP134

CYHM;2011-07-08 02:00;CYHM 080200Z 00000KT 15SM BKN240 21/16 A2994 RMK CI6 SLP136

CYHM;2011-07-08 03:00;CYHM 080300Z 07004KT 15SM BKN240 19/17 A2994 RMK CC6 SLP136

CYHM;2011-07-08 04:00;CYHM 080400Z 00000KT 15SM BKN220 19/16 A2994 RMK CI5 CC ASOCTD SLP138

CYHM;2011-07-08 05:00;CYHM 080500Z 04002KT 15SM BKN210 19/16 A2994 RMK CI6 SLP136

CYHM;2011-07-08 06:00;CYHM 080600Z 04002KT 15SM BKN210 18/17 A2992 RMK CI6 SLP130

CYHM;2011-07-08 07:00;CYHM 080700Z 00000KT 15SM BKN210 18/17 A2990 RMK CI6 SLP124

CYHM;2011-07-08 08:00;CYHM 080800Z 04003KT 15SM FEW170 SCT210 18/17 A2988 RMK AC1CI2 SLP118

CYHM;2011-07-08 09:00;CYHM 080900Z 34003KT 15SM MIFG FEW170 FEW210 17/17 A2989 RMK AC1CI2 SLP120

CYHM;2011-07-08 09:43;CYHM 080943Z 00000KT 1SM BR FEW170 SCT210 RMK FG1AC1CI2

CYHM;2011-07-08 10:00;CYHM 081000Z 00000KT 3SM BR MIFG FEW170 FEW210 17/17 A2989 RMK AC1CI2 VIS SE 1 SLP120

CYHM;2011-07-08 11:00;CYHM 081100Z 01004KT 15SM FEW100 SCT230 18/18 A2988 RMK AC1CI2 SLP118

CYHM;2011-07-08 12:00;CYHM 081200Z 03002KT 15SM FEW140 FEW220 20/17 A2989 RMK AC1CI1 SLP121

CYHM;2011-07-08 13:00;CYHM 081300Z 04004KT 15SM FEW160 FEW220 22/18 A2988 RMK AC1CI1 SLP117

CYHM;2011-07-08 14:00;CYHM 081400Z 04005KT 15SM FEW170 FEW220 24/16 A2987 RMK AC1CI1 SLP113

CYHM;2011-07-08 15:00;CYHM 081500Z 06008KT 15SM FEW035 FEW210 25/15 A2987 RMK CU1CI1 CI TR SLP111

CYHM;2011-07-08 16:00;CYHM 081600Z 15002KT 15SM FEW038 FEW210 25/15 A2987 RMK CU1CI1 SLP112

CYHM;2011-07-08 17:00;CYHM 081700Z 00000KT 15SM FEW038 SCT220 26/14 A2986 RMK CU1CI1 SLP108

CYHM;2011-07-08 18:00;CYHM 081800Z 05004KT 15SM FEW040 FEW150 SCT240 27/14 A2985 RMK CU1AC1CI1 SLP106

CYHM;2011-07-08 19:00;CYHM 081900Z 08003KT 15SM FEW045 SCT210 27/14 A2983 RMK CU2CI2 WND L/V SLP100

CYHM;2011-07-08 20:00;CYHM 082000Z 09003KT 15SM FEW058 SCT210 27/14 A2983 RMK CU2CI2 WND L/V SLP099

CYHM;2011-07-08 21:00;CYHM 082100Z 04002KT 15SM FEW058 FEW210 28/15 A2981 RMK CU2CI1 WND L/V SLP093

CYHM;2011-07-08 22:00;CYHM 082200Z 27002KT 15SM FEW058 FEW210 28/13 A2981 RMK CU2CI1 SLP090

CYHM;2011-07-08 23:00;CYHM 082300Z 20008KT 15SM FEW062 FEW210 26/17 A2981 RMK SC2CI1 CU ASOCTD SLP091

CYHM;2011-07-09 00:00;CYHM 090000Z 22009KT 15SM FEW065 24/17 A2982 RMK SC2 TCU ASOCTD SLP095

CYHM;2011-07-09 01:00;CYHM 090100Z 26003KT 15SM FEW063 BKN068 23/16 A2983 RMK SC2AC3 SLP099

CYHM;2011-07-09 02:00;CYHM 090200Z 00000KT 15SM FEW063 22/16 A2986 RMK SC2 SLP108

CYHM;2011-07-09 03:00;CYHM 090300Z 35008KT 15SM SCT063 22/15 A2987 RMK SC3 SLP111

CYHM;2011-07-09 04:00;CYHM 090400Z 35007KT 15SM FEW230 20/15 A2987 RMK CI1 SLP111

CYHM;2011-07-09 05:00;CYHM 090500Z 02006KT 15SM FEW230 20/15 A2988 RMK CI1 SLP114

CYHM;2011-07-09 06:00;CYHM 090600Z 35006KT 15SM FEW210 18/15 A2988 RMK CI1 SLP117

CYHM;2011-07-09 07:00;CYHM 090700Z 01006KT 15SM FEW220 18/14 A2989 RMK CI1 SLP119

CYHM;2011-07-09 08:00;CYHM 090800Z 34005KT 15SM FEW220 17/13 A2991 RMK CI1 SLP126

CYHM;2011-07-09 09:00;CYHM 090900Z 32004KT 15SM SKC 16/14 A2993 RMK SLP132

CYHM;2011-07-09 10:00;CYHM 091000Z 33005KT 15SM FEW100 FEW210 15/13 A2996 RMK AC1CI1 SLP142

CYHM;2011-07-09 11:00;CYHM 091100Z 36003KT 15SM FEW100 18/15 A2997 RMK AC1 SLP147

CYHM;2011-07-09 12:00;CYHM 091200Z 03007KT 15SM SKC 20/16 A2998 RMK SLP149

CYHM;2011-07-09 13:00;CYHM 091300Z 04007KT 15SM SKC 21/16 A2998 RMK SLP151

CYHM;2011-07-09 14:00;CYHM 091400Z 05006KT 15SM SKC 23/15 A3000 RMK SLP157

CYHM;2011-07-09 15:00;CYHM 091500Z 07008KT 360V100 15SM FEW030 23/16 A3000 RMK CU1 SLP156

CYHM;2011-07-09 16:00;CYHM 091600Z 08004KT 020V140 15SM FEW030 24/17 A3001 RMK CU1 SLP161

CYHM;2011-07-09 17:00;CYHM 091700Z 18002KT 15SM FEW035 25/16 A3001 RMK CU1 WND L/V SLP160

CYHM;2011-07-09 18:00;CYHM 091800Z 00000KT 15SM FEW040 FEW250 25/15 A3001 RMK CU1CI1 CI TR SLP160

CYHM;2011-07-09 19:00;CYHM 091900Z 08005KT 050V110 15SM FEW045 SCT070 SCT250 26/15 A3000 RMK CU2AC2CI1 CI TR SLP157

CYHM;2011-07-09 20:00;CYHM 092000Z 11005KT 060V150 15SM FEW050 SCT072 BKN250 26/15 A2999 RMK CU2AC2CI1 SLP155

CYHM;2011-07-09 21:00;CYHM 092100Z 18003KT 15SM FEW050 BKN072 BKN220 26/15 A3000 RMK CU2AC3CI1 WND L/V SLP156

CYHM;2011-07-09 22:00;CYHM 092200Z 18007KT 150V210 15SM FEW050 SCT070 BKN220 26/16 A3000 RMK CU2AC2CI2 SLP156

CYHM;2011-07-09 23:00;CYHM 092300Z 19009KT 160V230 15SM FEW050 FEW070 BKN220 26/16 A3000 RMK CU1AC1CI2 SLP156

CYHM;2011-07-10 00:00;CYHM 100000Z 18007KT 15SM FEW050 FEW070 BKN220 24/14 A3000 RMK CU1AC1CI2 SLP157

CYHM;2011-07-10 01:00;CYHM 100100Z 17007KT 15SM FEW050 FEW080 BKN240 23/13 A3000 RMK CU1AC1CI3 CU TR SLP156

CYHM;2011-07-10 02:00;CYHM 100200Z 18007KT 15SM FEW050 FEW080 BKN220 22/14 A3001 RMK SC1AC1CI5 SC TR AC TR SLP159

CYHM;2011-07-10 03:00;CYHM 100300Z 20005KT 15SM OVC150 20/14 A3001 RMK AC8 SLP162

CYHM;2011-07-10 04:00;CYHM 100400Z 22007KT 15SM OVC160 20/16 A3001 RMK AC8 SLP160

CYHM;2011-07-10 05:00;CYHM 100500Z 21004KT 15SM BKN160 20/17 A3001 RMK AC6 SLP160

CYHM;2011-07-10 10:00;CYHM 101000Z 21005KT 15SM -SHRA BKN150 18/17 A3002 RMK AC6 PCPN VRY LGT SLP162

CYHM;2011-07-10 10:48;CYHM 101048Z 18002KT 15SM BKN140 RMK AC7

CYHM;2011-07-10 11:00;CYHM 101100Z 18003KT 15SM BKN140 19/18 A3002 RMK AC7 SLP164

CYHM;2011-07-10 12:00;CYHM 101200Z 20003KT 15SM -SHRA BKN140 21/19 A3003 RMK AC7 PCPN VRY LGT SLP166

CYHM;2011-07-10 12:40;CYHM 101240Z 20008KT 15SM BKN150 RMK AC7

CYHM;2011-07-10 13:00;CYHM 101300Z 21010KT 15SM BKN150 24/20 A3003 RMK AC7 SLP165

CYHM;2011-07-10 14:00;CYHM 101400Z 21010KT 15SM BKN150 26/20 A3002 RMK AC6 SLP162

CYHM;2011-07-10 15:00;CYHM 101500Z 22011KT 15SM BKN130 26/19 A3001 RMK AC7 SLP159

CYHM;2011-07-10 16:00;CYHM 101600Z 22012KT 15SM BKN130 28/19 A3001 RMK AC7 SLP158

CYHM;2011-07-10 17:00;CYHM 101700Z 23011KT 190V280 15SM SCT130 BKN190 30/15 A3000 RMK AC3AC3 SLP155

CYHM;2011-07-10 18:00;CYHM 101800Z 23011KT 15SM FEW040 BKN120 BKN180 29/19 A3000 RMK CU2AC5AC1 SLP154

CYHM;2011-07-10 19:00;CYHM 101900Z 22009KT 15SM FEW045 BKN082 BKN120 29/19 A2998 RMK CU2AC3AC2 SLP149

CYHM;2011-07-10 19:05;CYHM 101905Z 22010KT 15SM -SHRA SCT044 BKN080 BKN120 RMK CU3AC2AC2 PCPN VRY LGT

CYHM;2011-07-10 19:38;CYHM 101938Z 25007KT 15SM FEW045 SCT080 BKN120 BKN170 RMK CU2AC2AC2AC2

CYHM;2011-07-10 20:00;CYHM 102000Z 22010KT 170V250 15SM FEW045 SCT084 BKN120 BKN170 31/19 A2997 RMK CU2AC2AC2AC1 SLP144

CYHM;2011-07-10 21:00;CYHM 102100Z 22011KT 15SM FEW045 FEW070 BKN087 BKN120 29/17 A2997 RMK CU1AC2AC3AC2 SLP145

CYHM;2011-07-10 22:00;CYHM 102200Z 22012KT 15SM FEW045 BKN085 BKN230 29/17 A2997 RMK CU1AC4CI1 SLP144

CYHM;2011-07-10 23:00;CYHM 102300Z 22013KT 15SM FEW045 FEW085 BKN150 28/17 A2997 RMK CU1AC2AC5 CU TR SLP144

CYHM;2011-07-11 00:00;CYHM 110000Z 22007KT 15SM FEW045 SCT082 BKN150 27/16 A2996 RMK CU1AC3AC3 CU TR SLP141

CYHM;2011-07-11 01:00;CYHM 110100Z 21006KT 15SM FEW085 SCT150 BKN250 24/17 A2995 RMK AC2AC2CI1 SLP140

CYHM;2011-07-11 02:00;CYHM 110200Z 22005KT 15SM FEW085 BKN140 BKN250 23/17 A2996 RMK AC2AC3CI1 CI TR SLP143

CYHM;2011-07-11 03:00;CYHM 110300Z 21005KT 15SM FEW150 SCT250 22/16 A2996 RMK AC1CI1 SLP141

CYHM;2011-07-11 04:00;CYHM 110400Z 21005KT 15SM SCT150 BKN250 21/16 A2995 RMK AC3CI1 SLP138

CYHM;2011-07-11 06:00;CYHM 110600Z 22003KT 15SM SCT150 BKN250 21/17 A2993 RMK AC4CI0 SLP130

CYHM;2011-07-11 07:00;CYHM 110700Z 22003KT 15SM FEW170 FEW250 20/16 A2992 RMK AC1CI1 SLP127

CYHM;2011-07-11 08:00;CYHM 110800Z 22002KT 15SM BKN170 20/17 A2991 RMK AC5 SLP126

CYHM;2011-07-11 09:00;CYHM 110900Z 00000KT 15SM SCT130 BKN250 20/17 A2992 RMK AC3CI1 SLP127

CYHM;2011-07-11 10:00;CYHM 111000Z 00000KT 15SM SCT120 BKN220 19/18 A2992 RMK AC3CI2 SLP127

CYHM;2011-07-11 11:00;CYHM 111100Z CCA 21004KT 15SM SCT120 BKN160 BKN220 20/19 A2991 RMK AC3AC2CI1 SLP125

CYHM;2011-07-11 12:00;CYHM 111200Z 21004KT 15SM SCT150 BKN220 23/20 A2990 RMK AC3CI1 SLP122

CYHM;2011-07-11 13:00;CYHM 111300Z 22008KT 15SM FEW160 FEW220 25/21 A2989 RMK AC1CI0 CI TR SLP119

CYHM;2011-07-11 14:00;CYHM 111400Z 23006KT 15SM FEW110 FEW220 27/21 A2989 RMK AC1CI1 AC TR SLP118

CYHM;2011-07-11 15:00;CYHM 111500Z 22008KT 15SM SCT130 BKN220 30/21 A2988 RMK AC3CI2 SLP113

CYHM;2011-07-11 16:00;CYHM 111600Z 23010KT 15SM FEW045 SCT240 32/20 A2986 RMK CU1CI1 CU TR SLP106

CYHM;2011-07-11 17:00;CYHM 111700Z 24014KT 15SM FEW045 FEW160 BKN240 32/19 A2987 RMK CU1AC1CI2 SLP109

CYHM;2011-07-11 18:00;CYHM 111800Z CCA 22015G20KT 15SM BKN130 BKN170 BKN240 31/19 A2980 RMK AC5AC2CI1 PRESFR SLP086

CYHM;2011-07-11 19:00;CYHM 111900Z 22018G28KT 15SM FEW110 BKN160 OVC250 29/19 A2979 RMK AC2AC6CI1 SLP084

CYHM;2011-07-11 20:00;CYHM 112000Z 21015G26KT 15SM FEW110 BKN160 BKN250 29/19 A2974 RMK AC2AC4CI1 SLP066

CYHM;2011-07-11 21:00;CYHM 112100Z 22015G23KT 15SM FEW110 FEW160 BKN250 29/19 A2971 RMK AC1AC2CS5 SUN DMLY VSBL SLP057

CYHM;2011-07-11 22:00;CYHM 112200Z 25015G23KT 15SM FEW120 FEW180 BKN250 27/18 A2970 RMK AC1AC1CS5 CC ASOCTD CONTRAILS SLP055

CYHM;2011-07-11 23:00;CYHM 112300Z 24015G22KT 15SM FEW110 FEW180 BKN250 26/19 A2969 RMK AC1AC2CS5 SLP050

CYHM;2011-07-12 00:00;CYHM 120000Z 25014G21KT 15SM FEW110 BKN250 25/20 A2971 RMK AC1CS6 AC TR CC ASOCTD CONTRAILS SLP058

CYHM;2011-07-12 01:00;CYHM 120100Z 25010G17KT 15SM FEW022 BKN250 25/20 A2974 RMK CU1CI2 CU TR CONTRAILS SLP066

CYHM;2011-07-12 02:00;CYHM 120200Z 23007KT 15SM FEW024 FEW140 BKN250 24/20 A2975 RMK SC1AC1CI2 SC TR AC TR CONTRAILS SLP069

CYHM;2011-07-12 03:00;CYHM 120300Z 23007KT 15SM FEW026 FEW140 SCT250 22/20 A2976 RMK SC1AC1CI2 SC TR AC TR SLP074

CYHM;2011-07-12 04:00;CYHM 120400Z 21005KT 15SM SCT034 BKN250 21/20 A2977 RMK SC3CI0 SLP075

CYHM;2011-07-12 05:00;CYHM 120500Z 22007KT 15SM FEW036 FEW140 SCT250 21/20 A2978 RMK SC1AC1CI2 SLP080

CYHM;2011-07-12 06:00;CYHM 120600Z 23005KT 15SM SCT026 BKN250 21/20 A2977 RMK SC3CI1 SLP077

CYHM;2011-07-12 07:00;CYHM 120700Z 24006KT 15SM FEW028 SCT250 21/21 A2978 RMK SC1CI2 SLP079

CYHM;2011-07-12 08:00;CYHM 120800Z 24006KT 15SM FEW028 SCT250 21/21 A2979 RMK SC1CI1 SLP084

CYHM;2011-07-12 09:00;CYHM 120900Z 24003KT 12SM FEW250 20/20 A2979 RMK CI2 SLP083

CYHM;2011-07-12 09:45;CYHM 120945Z 25003KT 2 1/2SM BR FEW140 FEW250 RMK AC1CI1 AC TR

CYHM;2011-07-12 10:00;CYHM 121000Z 24004KT 2 1/4SM BR FEW140 FEW250 20/20 A2979 RMK AC1CI1 AC TR SLP083

CYHM;2011-07-12 11:00;CYHM 121100Z 25006KT 4SM BR FEW160 FEW240 21/21 A2980 RMK AC1CI1 AC TR CI TR SLP087

CYHM;2011-07-12 12:00;CYHM 121200Z 27008KT 15SM FEW084 SCT240 23/21 A2981 RMK AC2CI2 SLP093

CYHM;2011-07-12 13:00;CYHM 121300Z 27012KT 15SM FEW080 24/21 A2982 RMK AC2 SLP095

CYHM;2011-07-12 14:00;CYHM 121400Z 29008KT 15SM FEW078 SCT220 26/18 A2983 RMK AC2CI1 SLP098

CYHM;2011-07-12 15:00;CYHM 121500Z 30008KT 15SM FEW080 FEW220 28/18 A2983 RMK AC1CI1 SLP096

CYHM;2011-07-12 16:00;CYHM 121600Z 30007KT 15SM FEW045 FEW150 SCT240 29/17 A2983 RMK CU1AC1CI2 CU TR SLP098

CYHM;2011-07-12 17:00;CYHM 121700Z 28013KT 15SM FEW055 SCT240 30/17 A2983 RMK CU2CI1 SLP098

CYHM;2011-07-12 18:00;CYHM 121800Z 30010KT 15SM SCT048 BKN240 30/16 A2983 RMK CU3CI1 SLP097

CYHM;2011-07-12 19:00;CYHM 121900Z 28011KT 15SM SCT065 30/15 A2983 RMK CU4 SLP096

CYHM;2011-07-12 20:00;CYHM 122000Z 28013KT 15SM SCT070 30/15 A2982 RMK AC4 SLP095

CYHM;2011-07-12 21:00;CYHM 122100Z 29008KT 15SM SCT070 30/15 A2983 RMK AC4 SLP096

CYHM;2011-07-12 22:00;CYHM 122200Z 30011KT 15SM FEW065 FEW250 29/15 A2982 RMK CU2CI1 CI TR SLP094

CYHM;2011-07-12 23:00;CYHM 122300Z 31011KT 15SM FEW064 FEW250 28/16 A2981 RMK CU1CI1 CI TR SLP092

CYHM;2011-07-13 00:00;CYHM 130000Z 31006KT 15SM FEW062 FEW250 26/16 A2984 RMK CU1CI1 CU TR CI TR SLP101

CYHM;2011-07-13 01:00;CYHM 130100Z 32003KT 15SM FEW120 24/15 A2985 RMK AC1 SLP105

CYHM;2011-07-13 02:00;CYHM 130200Z 30005KT 15SM FEW120 22/15 A2989 RMK AC1 SLP117

CYHM;2011-07-13 03:00;CYHM 130300Z 30007KT 15SM FEW140 SCT220 22/13 A2990 RMK AC2CI2 SLP121

CYHM;2011-07-13 04:00;CYHM 130400Z 33005KT 15SM BKN180 BKN230 21/13 A2989 RMK AC5CI1 SLP119

CYHM;2011-07-13 05:00;CYHM 130500Z 29006KT 15SM BKN180 BKN220 20/13 A2986 RMK AC5CI1 SLP108

CYHM;2011-07-13 06:00;CYHM 130600Z 27005KT 15SM BKN160 BKN250 19/13 A2988 RMK AC5CI1 SLP114

CYHM;2011-07-13 07:00;CYHM 130700Z 29008KT 15SM FEW150 BKN250 18/13 A2986 RMK AC2CI2 SLP107

CYHM;2011-07-13 08:00;CYHM 130800Z 26006KT 15SM FEW130 FEW250 17/12 A2987 RMK AC1CI1 SLP110

CYHM;2011-07-13 09:00;CYHM 130900Z 28005KT 15SM FEW024 FEW130 16/13 A2987 RMK SC1AC1 SC TR SLP113

CYHM;2011-07-13 10:00;CYHM 131000Z 29007KT 15SM FEW130 FEW250 15/13 A2988 RMK AC1CI1 SLP115

CYHM;2011-07-13 11:00;CYHM 131100Z 29004KT 15SM FEW120 16/14 A2989 RMK AC1 SLP120

CYHM;2011-07-13 12:00;CYHM 131200Z 30004KT 15SM FEW035 FEW056 BKN080 17/14 A2991 RMK CU1SC2AC3 SLP125

CYHM;2011-07-13 13:00;CYHM 131300Z 33002KT 15SM FEW025 FEW058 FEW075 SCT210 19/15 A2992 RMK CU1SC1AC2CI1 SLP131

CYHM;2011-07-13 14:00;CYHM 131400Z 30004KT 15SM FEW025 FEW050 FEW080 22/16 A2993 RMK CU1SC1AC1 CU TR SLP132

CYHM;2011-07-13 15:00;CYHM 131500Z 32010KT 15SM FEW038 FEW084 23/16 A2993 RMK CU2AC1 SLP132

CYHM;2011-07-13 16:00;CYHM 131600Z 34012KT 15SM SCT042 BKN075 25/15 A2994 RMK CU4AC1 SLP136

CYHM;2011-07-13 17:00;CYHM 131700Z 34010G15KT 15SM SCT045 25/14 A2994 RMK CU4 SLP137

CYHM;2011-07-13 18:00;CYHM 131800Z 32010KT 15SM SCT054 SCT062 BKN075 26/14 A2995 RMK CU3SC1AC2 SLP140

CYHM;2011-07-13 19:00;CYHM 131900Z 35012KT 15SM SCT055 SCT075 SCT230 25/12 A2996 RMK CU3AC1CI1 TCU ASOCTD TR AC SLP143

CYHM;2011-07-13 20:00;CYHM 132000Z 34013KT 15SM SCT057 SCT075 SCT210 26/12 A2997 RMK CU3AC1CI1 TCU ASOCTD SLP145

CYHM;2011-07-13 21:00;CYHM 132100Z 33014KT 15SM FEW058 26/12 A2997 RMK CU2 TCU ASOCTD SLP147

CYHM;2011-07-13 22:00;CYHM 132200Z 35015KT 15SM FEW062 25/11 A2998 RMK CU2 FEW TCU SLP151

CYHM;2011-07-13 23:00;CYHM 132300Z 35013KT 15SM FEW062 24/11 A3000 RMK CU2 SLP155

CYHM;2011-07-14 00:00;CYHM 140000Z 36013KT 15SM FEW055 23/11 A3001 RMK CU1 SLP160

CYHM;2011-07-14 01:00;CYHM 140100Z 36012KT 15SM FEW050 21/10 A3002 RMK SC1 SLP165

CYHM;2011-07-14 02:00;CYHM 140200Z 01011KT 15SM FEW045 20/10 A3004 RMK SC1 SLP170

CYHM;2011-07-14 03:00;CYHM 140300Z 35009KT 15SM FEW220 18/10 A3006 RMK CI1 SLP178

CYHM;2011-07-14 04:00;CYHM 140400Z 01010KT 15SM FEW210 18/09 A3005 RMK CI1 SLP175

CYHM;2011-07-14 05:00;CYHM 140500Z 35006KT 15SM FEW040 FEW220 17/10 A3008 RMK SC1CI1 SLP183

CYHM;2011-07-14 06:00;CYHM 140600Z 01007KT 15SM FEW210 16/10 A3007 RMK CI1 SLP180

CYHM;2011-07-14 07:00;CYHM 140700Z 35005KT 15SM FEW200 15/11 A3008 RMK CI1 SLP184

CYHM;2011-07-14 08:00;CYHM 140800Z 35007KT 15SM FEW230 15/11 A3009 RMK CI2 SLP187

CYHM;2011-07-14 09:00;CYHM 140900Z 00000KT 15SM FEW210 15/12 A3011 RMK CI2 SLP196

CYHM;2011-07-14 10:00;CYHM 141000Z 00000KT 15SM FEW210 13/11 A3012 RMK CI2 CONTRAILS SLP198

CYHM;2011-07-14 11:00;CYHM 141100Z 00000KT 15SM FEW240 16/13 A3013 RMK CI1 SLP201

CYHM;2011-07-14 12:00;CYHM 141200Z 03007KT 15SM FEW240 19/13 A3013 RMK CI1 SLP203

CYHM;2011-07-14 13:00;CYHM 141300Z 04008KT 15SM FEW240 21/13 A3013 RMK CI1 SLP203

CYHM;2011-07-14 14:00;CYHM 141400Z 06008KT 15SM FEW240 22/12 A3013 RMK CI1 CONTRAILS SLP203

CYHM;2011-07-14 15:00;CYHM 141500Z 05012KT 15SM FEW035 FEW240 23/13 A3013 RMK CU1CI1 SLP201

CYHM;2011-07-14 16:00;CYHM 141600Z 08010KT 15SM FEW040 SCT240 24/13 A3013 RMK CU1CI2 CONTRAILS SLP202

CYHM;2011-07-14 17:00;CYHM 141700Z 07009KT 15SM FEW045 BKN230 25/12 A3013 RMK CU1CI2 SLP200

CYHM;2011-07-14 18:00;CYHM 141800Z 06008KT 15SM FEW045 FEW180 BKN220 25/10 A3011 RMK CU1AC1CI2 SLP196

CYHM;2011-07-14 19:00;CYHM 141900Z 08010KT 15SM FEW050 BKN240 26/08 A3010 RMK SC1CI2 SLP191

CYHM;2011-07-14 20:00;CYHM 142000Z 08009KT 15SM FEW060 BKN250 26/06 A3009 RMK SC1CI3 SLP188

CYHM;2011-07-14 21:00;CYHM 142100Z 07006KT 020V100 15SM FEW060 BKN250 26/06 A3008 RMK SC1CI3 SLP184

CYHM;2011-07-14 22:00;CYHM 142200Z 08005KT 360V100 15SM FEW060 BKN250 25/09 A3007 RMK SC1CI3 SLP182

CYHM;2011-07-14 23:00;CYHM 142300Z 09005KT 15SM FEW160 BKN250 25/09 A3007 RMK AC1CI4 SLP182

CYHM;2011-07-15 00:00;CYHM 150000Z 09004KT 15SM FEW160 BKN250 22/10 A3007 RMK AC1CI5 SLP181

CYHM;2011-07-15 01:00;CYHM 150100Z 08003KT 15SM FEW160 BKN250 22/09 A3007 RMK AC2CI3 SLP181

CYHM;2011-07-15 02:00;CYHM 150200Z 06004KT 15SM FEW160 BKN250 21/08 A3007 RMK AC2CI3 SLP180

CYHM;2011-07-15 03:00;CYHM 150300Z 05005KT 15SM FEW150 BKN250 20/07 A3007 RMK AC2CI4 SLP179

CYHM;2011-07-15 04:00;CYHM 150400Z 04004KT 15SM FEW150 BKN250 18/09 A3007 RMK AC1CI4 SLP180

CYHM;2011-07-15 05:00;CYHM 150500Z 05004KT 15SM BKN250 18/12 A3007 RMK CI4 SLP182

CYHM;2011-07-15 06:00;CYHM 150600Z 04004KT 15SM SCT250 16/13 A3007 RMK CI2 SLP183

CYHM;2011-07-15 07:00;CYHM 150700Z 03006KT 15SM FEW250 15/13 A3007 RMK CI1 SLP183

CYHM;2011-07-15 08:00;CYHM 150800Z 03006KT 15SM FEW250 15/13 A3008 RMK CI1 SLP185

CYHM;2011-07-15 09:00;CYHM 150900Z 04006KT 15SM FEW210 15/11 A3008 RMK CI1 SLP185

CYHM;2011-07-15 10:00;CYHM 151000Z 02005KT 15SM FEW150 FEW210 15/12 A3009 RMK AC1CI0 SLP189

CYHM;2011-07-15 11:00;CYHM 151100Z 03008KT 15SM FEW140 FEW240 17/13 A3010 RMK CU1CI1 SLP191

CYHM;2011-07-15 12:00;CYHM 151200Z 03008KT 15SM FEW140 FEW240 19/14 A3011 RMK AC1CI1 AC TR SLP194

CYHM;2011-07-15 13:00;CYHM 151300Z 03010KT 15SM FEW120 FEW240 22/14 A3011 RMK AC1CI1 SLP196

CYHM;2011-07-15 14:00;CYHM 151400Z 04010KT 15SM FEW120 FEW240 23/12 A3010 RMK AC1CI1 AC TR CI TR SLP193

CYHM;2011-07-15 15:00;CYHM 151500Z 08012KT 15SM FEW150 FEW240 25/11 A3010 RMK AC1CI1 AC TR CI TR SLP191

CYHM;2011-07-15 16:00;CYHM 151600Z 06012KT 15SM FEW150 25/12 A3010 RMK AC1 AC TR SLP191

CYHM;2011-07-15 17:00;CYHM 151700Z 06013KT 15SM FEW038 FEW150 26/13 A3009 RMK CU1AC1 TR CU SE AC TR SLP187

CYHM;2011-07-15 18:00;CYHM 151800Z 04012KT 15SM FEW045 26/11 A3009 RMK CU1 CU TR SLP187

CYHM;2011-07-15 19:00;CYHM 151900Z 05013KT 15SM FEW050 27/11 A3007 RMK CU1 SLP181

CYHM;2011-07-15 20:00;CYHM 152000Z 04011G16KT 15SM FEW050 27/09 A3007 RMK CU1 SLP180

CYHM;2011-07-15 21:00;CYHM 152100Z 05012G18KT 15SM FEW050 FEW240 26/10 A3006 RMK CU1CI1 SLP178

CYHM;2011-07-15 22:00;CYHM 152200Z 06013KT 15SM FEW050 FEW240 26/11 A3006 RMK CU1CI1 SLP178

CYHM;2011-07-15 23:00;CYHM 152300Z 05010KT 15SM FEW045 FEW120 FEW240 25/13 A3006 RMK SC1AC1CI1 SLP177

CYHM;2011-07-16 00:00;CYHM 160000Z 05009KT 15SM FEW120 FEW240 23/12 A3005 RMK AC1CI1 SLP175

CYHM;2011-07-16 01:00;CYHM 160100Z 05007KT 15SM FEW100 FEW230 21/13 A3005 RMK AC1CI1 SLP174

CYHM;2011-07-16 02:00;CYHM 160200Z 05008KT 15SM FEW230 20/14 A3007 RMK CI1 SLP179

CYHM;2011-07-16 03:00;CYHM 160300Z 04006KT 15SM FEW210 20/15 A3008 RMK CI1 SLP183

CYHM;2011-07-16 04:00;CYHM 160400Z 05006KT 15SM SKC 19/15 A3008 RMK SLP184

CYHM;2011-07-16 05:00;CYHM 160500Z 05007KT 15SM FEW220 20/15 A3009 RMK CI1 SLP187

CYHM;2011-07-16 06:00;CYHM 160600Z 05006KT 15SM SKC 19/15 A3008 RMK SLP184

CYHM;2011-07-16 07:00;CYHM 160700Z 05005KT 15SM SKC 18/15 A3008 RMK SLP183

CYHM;2011-07-16 08:00;CYHM 160800Z 04004KT 15SM SKC 18/16 A3008 RMK SLP185

CYHM;2011-07-16 09:00;CYHM 160900Z 04005KT 15SM SKC 17/15 A3009 RMK SLP186

CYHM;2011-07-16 10:00;CYHM 161000Z 02003KT 15SM FEW230 17/16 A3010 RMK CI1 SLP191

CYHM;2011-07-16 11:00;CYHM 161100Z 03005KT 15SM FEW150 FEW230 18/17 A3011 RMK AC1CI1 CI TR SLP193

CYHM;2011-07-16 12:00;CYHM 161200Z 03005KT 15SM SCT250 20/17 A3012 RMK CC2 SLP197

CYHM;2011-07-16 13:00;CYHM 161300Z 06004KT 15SM BKN250 22/17 A3012 RMK CC6 SLP199

CYHM;2011-07-16 14:00;CYHM 161400Z 11005KT 15SM FEW250 23/17 A3013 RMK CC2 SLP200

CYHM;2011-07-16 15:00;CYHM 161500Z 20002KT 15SM FEW250 26/18 A3012 RMK CC1 SLP198

CYHM;2011-07-16 16:00;CYHM 161600Z 21004KT 15SM FEW042 FEW250 28/18 A3011 RMK CU1CC1 BOTH LYRS TR SLP195

CYHM;2011-07-16 17:00;CYHM 161700Z 20002KT 15SM FEW052 29/17 A3010 RMK CU2 SLP192

CYHM;2011-07-16 18:00;CYHM 161800Z 32002KT 15SM BKN063 30/15 A3010 RMK CU5 SLP188

CYHM;2011-07-16 19:00;CYHM 161900Z 22005KT 15SM SCT062 BKN077 BKN180 29/17 A3009 RMK CU4AC1AC1 SLP187

CYHM;2011-07-16 20:00;CYHM 162000Z 18005KT 15SM SCT064 BKN078 BKN200 30/15 A3009 RMK CU3AC2CI1 CI TR SLP186

CYHM;2011-07-16 21:00;CYHM 162100Z 22006KT 15SM FEW068 FEW200 30/14 A3009 RMK AC2CI1 CI TR SLP185

CYHM;2011-07-16 22:00;CYHM 162200Z 21011KT 15SM FEW064 FEW200 30/13 A3008 RMK CU1CI1 CI TR SLP184

CYHM;2011-07-16 23:00;CYHM 162300Z 21008KT 15SM FEW064 FEW075 FEW200 29/13 A3009 RMK CU1AC1CI1 CU TR CI TR SLP185

CYHM;2011-07-17 00:00;CYHM 170000Z 20007KT 15SM FEW075 FEW200 27/13 A3008 RMK AC1CI1 SLP184

CYHM;2011-07-17 01:00;CYHM 170100Z 20005KT 15SM FEW080 FEW220 25/14 A3009 RMK AC2CI1 CI TR SLP185

CYHM;2011-07-17 02:00;CYHM 170200Z 24004KT 15SM FEW080 FEW220 24/13 A3010 RMK AC1CI1 CI TR SLP189

CYHM;2011-07-17 03:00;CYHM 170300Z 27003KT 15SM SKC 22/14 A3010 RMK SLP191

CYHM;2011-07-17 04:00;CYHM 170400Z 20004KT 15SM FEW090 20/14 A3011 RMK AC2 SLP192

CYHM;2011-07-17 05:00;CYHM 170500Z 24005KT 15SM SKC 22/12 A3010 RMK SLP191

CYHM;2011-07-17 06:00;CYHM 170600Z 23004KT 15SM SKC 19/14 A3010 RMK SLP188

CYHM;2011-07-17 07:00;CYHM 170700Z 24004KT 15SM SKC 19/14 A3010 RMK SLP188

CYHM;2011-07-17 08:00;CYHM 170800Z 24004KT 15SM FEW210 19/14 A3010 RMK CI1 SLP190

CYHM;2011-07-17 09:00;CYHM 170900Z 25005KT 15SM FEW210 20/14 A3011 RMK CI1 SLP194

CYHM;2011-07-17 10:00;CYHM 171000Z 25005KT 15SM FEW230 18/14 A3013 RMK CI1 SLP198

CYHM;2011-07-17 11:00;CYHM 171100Z 24005KT 15SM FEW250 19/16 A3013 RMK CI0 SLP199

CYHM;2011-07-17 12:00;CYHM 171200Z 23005KT 15SM FEW250 21/17 A3014 RMK CI0 SLP204

CYHM;2011-07-17 13:00;CYHM 171300Z 24005KT 15SM SKC 24/20 A3014 RMK SLP205

CYHM;2011-07-17 14:00;CYHM 171400Z 25009KT 15SM FEW120 FEW150 28/21 A3014 RMK AC1AC2 SLP204

CYHM;2011-07-17 15:00;CYHM 171500Z CCA 25008KT 15SM FEW030 FEW170 30/20 A3014 RMK CU1AC2 CU TR SLP203

CYHM;2011-07-17 16:00;CYHM 171600Z 23006KT 15SM FEW050 SCT170 31/19 A3014 RMK CU2AC1 SLP202

CYHM;2011-07-17 17:00;CYHM 171700Z 22007KT 15SM SCT050 32/20 A3013 RMK CU4 TCU ASOCTD SLP199

CYHM;2011-07-17 18:00;CYHM 171800Z CCA 25008KT 15SM BKN055 32/19 A3012 RMK CU5 TCU ASOCTD SLP197

CYHM;2011-07-17 19:00;CYHM 171900Z 24013G19KT 15SM BKN055 32/20 A3009 RMK CU5 SLP187

CYHM;2011-07-17 20:00;CYHM 172000Z 24012G21KT 15SM SCT056 32/19 A3008 RMK CU4 SLP183

CYHM;2011-07-17 21:00;CYHM 172100Z 22015G22KT 15SM FEW055 FEW120 31/18 A3006 RMK CU2AC1 AC TR SLP176

CYHM;2011-07-17 22:00;CYHM 172200Z 22014G20KT 15SM FEW055 FEW140 FEW200 31/18 A3005 RMK CU1AC1CI1 CU TR CI TR SLP171

CYHM;2011-07-17 23:00;CYHM 172300Z 22013KT 15SM FEW140 FEW250 30/17 A3005 RMK AC1CI1 AC TR SLP173

CYHM;2011-07-18 00:00;CYHM 180000Z 23013KT 15SM FEW200 29/15 A3006 RMK CI1 SLP174

CYHM;2011-07-18 01:00;CYHM 180100Z 22007KT 15SM FEW220 25/15 A3006 RMK CI2 SLP176

CYHM;2011-07-18 02:00;CYHM 180200Z 22005KT 15SM FEW220 24/16 A3007 RMK CI1 CI TR SLP178

CYHM;2011-07-18 03:00;CYHM 180300Z 21006KT 15SM SKC 22/17 A3005 RMK SLP171

CYHM;2011-07-18 04:00;CYHM 180400Z 21006KT 15SM SKC 22/17 A3003 RMK SLP166

CYHM;2011-07-18 05:00;CYHM 180500Z 21005KT 15SM FEW210 21/17 A3002 RMK CI1 SLP161

CYHM;2011-07-18 06:00;CYHM 180600Z 21007KT 15SM BKN210 20/17 A3000 RMK CI4 SLP153

CYHM;2011-07-18 07:00;CYHM 180700Z 23005KT 15SM OVC057 21/18 A3001 RMK SC8 SLP158

CYHM;2011-07-18 08:00;CYHM 180800Z 21005KT 15SM BKN063 21/19 A2999 RMK SC7 SLP150

CYHM;2011-07-18 09:00;CYHM 180900Z 25008KT 15SM FEW055 OVC073 24/21 A2998 RMK SC2AC6 SLP147

CYHM;2011-07-18 10:00;CYHM 181000Z 25008KT 7SM BKN048 OVC092 24/21 A2998 RMK SC6AC2 TCU EMBDD SLP147

CYHM;2011-07-18 11:00;CYHM 181100Z 27003KT 15SM BKN052 OVC073 24/21 A3002 RMK SC5AC3 SLP161

CYHM;2011-07-18 12:00;CYHM 181200Z CCA 00000KT 15SM BKN170 OVC190 23/21 A2998 RMK AC6AC2 SLP148

CYHM;2011-07-18 13:00;CYHM 181300Z 21005KT 15SM BKN170 OVC180 24/21 A2997 RMK AC6AC2 SLP144

CYHM;2011-07-18 14:00;CYHM 181400Z 28003KT 15SM BKN160 OVC180 24/22 A2997 RMK AC6AC2 SLP144

CYHM;2011-07-18 15:00;CYHM 181500Z 21009KT 15SM FEW170 BKN210 26/22 A2997 RMK AC2CI3 SLP145

CYHM;2011-07-18 16:00;CYHM 181600Z 28007KT 15SM FEW035 BKN240 29/20 A2996 RMK CU1CI3 CU TR SLP142

CYHM;2011-07-18 17:00;CYHM 181700Z 25011KT 15SM FEW040 SCT240 30/21 A2995 RMK CU1CI1 SLP140

CYHM;2011-07-18 18:00;CYHM 181800Z 29011G16KT 15SM FEW040 SCT240 31/21 A2993 RMK CU1CI1 SLP131

CYHM;2011-07-18 19:00;CYHM 181900Z 31012KT 15SM BKN043 BKN120 BKN240 31/21 A2993 RMK CU5AC1CI1 AC TR SLP131

CYHM;2011-07-18 20:00;CYHM 182000Z 28008G16KT 15SM BKN048 BKN170 BKN240 32/21 A2992 RMK CU5AC1CI1 SLP127

CYHM;2011-07-18 21:00;CYHM 182100Z 26012KT 15SM FEW052 SCT210 BKN250 32/20 A2989 RMK CU1CC2CI2 SLP115

CYHM;2011-07-18 22:00;CYHM 182200Z 27007G15KT 15SM FEW055 BKN200 BKN250 30/21 A2989 RMK CU1CC6CI2 SLP117

CYHM;2011-07-18 23:00;CYHM 182300Z 30005KT 15SM BKN170 30/21 A2988 RMK AC7 SLP111

CYHM;2011-07-19 00:00;CYHM 190000Z 30003KT 15SM FEW050 BKN160 29/20 A2987 RMK CU1AC7 SLP111

CYHM;2011-07-19 01:00;CYHM 190100Z 28005KT 15SM SCT140 BKN170 BKN230 27/20 A2988 RMK AC3AC2CI1 SLP112

CYHM;2011-07-19 02:00;CYHM 190200Z 28004KT 15SM FEW170 FEW230 26/20 A2988 RMK AC2CI0 SLP114

CYHM;2011-07-19 03:00;CYHM 190300Z 28003KT 15SM FEW160 25/20 A2988 RMK AC1 SLP116

CYHM;2011-07-19 04:00;CYHM 190400Z 30003KT 15SM FEW160 24/20 A2988 RMK AC1 SLP116

CYHM;2011-07-19 05:00;CYHM 190500Z 32005KT 15SM BKN072 23/21 A2988 RMK AC5 SLP116

CYHM;2011-07-19 06:00;CYHM 190600Z 03006KT 15SM FEW070 24/21 A2987 RMK AC1 SLP111

CYHM;2011-07-19 07:00;CYHM 190700Z 36003KT 15SM SKC 22/21 A2987 RMK SLP111

CYHM;2011-07-19 08:00;CYHM 190800Z 01004KT 15SM FEW070 22/21 A2987 RMK AC1 SLP111

CYHM;2011-07-19 09:00;CYHM 190900Z 02005KT 15SM FEW070 22/21 A2988 RMK AC1 SLP112

CYHM;2011-07-19 10:00;CYHM 191000Z 04008KT 10SM FEW250 22/21 A2988 RMK CI1 SLP115

CYHM;2011-07-19 11:00;CYHM 191100Z 05010KT 15SM FEW250 22/20 A2990 RMK CI1 CI TR SLP119

CYHM;2011-07-19 12:00;CYHM 191200Z 04013KT 15SM SKC 23/20 A2990 RMK SLP121

CYHM;2011-07-19 13:00;CYHM 191300Z 07010G15KT 15SM FEW010 23/21 A2991 RMK CF2 SLP125

CYHM;2011-07-19 14:00;CYHM 191400Z 08010KT 15SM SCT012 BKN031 24/21 A2992 RMK CU3SC3 SLP127

CYHM;2011-07-19 15:00;CYHM 191500Z 04010KT 15SM FEW015 SCT032 SCT140 25/21 A2992 RMK CU2SC1AC1 SLP128

CYHM;2011-07-19 16:00;CYHM 191600Z 06008KT 15SM FEW030 26/21 A2992 RMK CU1 SLP127

CYHM;2011-07-19 17:00;CYHM 191700Z 07010KT 15SM FEW020 FEW240 27/21 A2992 RMK CU1CI1 SLP128

CYHM;2011-07-19 18:00;CYHM 191800Z 05005KT 15SM FEW025 28/20 A2991 RMK CU1 CU TR SLP125

CYHM;2011-07-19 19:00;CYHM 191900Z 07005KT 15SM FEW028 28/21 A2990 RMK CU1 TCU ASOCTD S SLP121

CYHM;2011-07-19 20:00;CYHM 192000Z 07007KT 15SM FEW030 29/21 A2988 RMK CU1 SLP116

CYHM;2011-07-19 21:00;CYHM 192100Z 10006KT 15SM FEW030 29/21 A2987 RMK CU1 SLP112

CYHM;2011-07-19 22:00;CYHM 192200Z 10005KT 15SM FEW030TCU FEW100 FEW200 28/21 A2987 RMK TCU1AC1CI1 AC TR CI TR SLP110

CYHM;2011-07-19 22:51;CYHM 192251Z 08004KT 15SM TS FEW030CB FEW040 FEW200 RMK CB1SC1CI1 CB S CI TR

CYHM;2011-07-19 23:00;CYHM 192300Z 09004KT 15SM TS FEW030TCU FEW040 SCT060 SCT200 28/21 A2986 RMK TCU2SC1SC1CI1 CB ASOCTD S CI TR SLP108

CYHM;2011-07-19 23:16;CYHM 192316Z 07003KT 15SM FEW028TCU SCT055 SCT200 RETS RMK TCU2SC2CI1 TCU S CI TR

CYHM;2011-07-20 00:00;CYHM 200000Z 06002KT 15SM FEW030TCU FEW066 27/21 A2985 RETS RMK TCU1AC2 TCU SW SLP106

CYHM;2011-07-20 01:00;CYHM 200100Z 06005KT 15SM FEW035TCU FEW055 SCT220 24/21 A2985 RMK TCU2SC1CI2 SLP106

CYHM;2011-07-20 02:00;CYHM 200200Z 07005KT 15SM FEW035 SCT049 23/21 A2987 RMK CU2SC2 SLP111

CYHM;2011-07-20 03:00;CYHM 200300Z 03004KT 15SM FEW035 23/20 A2988 RMK CU2 SLP115

CYHM;2011-07-20 04:00;CYHM 200400Z 03004KT 15SM FEW036 22/21 A2988 RMK CU1 SLP115

CYHM;2011-07-20 05:00;CYHM 200500Z 05004KT 15SM SKC 22/21 A2987 RMK SLP112

CYHM;2011-07-20 06:00;CYHM 200600Z 00000KT 15SM SKC 20/20 A2988 RMK SLP115

CYHM;2011-07-20 07:00;CYHM 200700Z 28004KT 15SM SKC 20/20 A2988 RMK SLP113

CYHM;2011-07-20 08:00;CYHM 200800Z 28002KT 15SM SKC 19/19 A2987 RMK SLP110

CYHM;2011-07-20 09:00;CYHM 200900Z 25003KT 15SM MIFG SKC 18/18 A2987 RMK SLP112

CYHM;2011-07-20 10:00;CYHM 201000Z 29003KT 12SM BKN220 18/18 A2987 RMK CI2 SLP111

CYHM;2011-07-20 11:00;CYHM 201100Z 21003KT 5SM BR FEW160 BKN220 19/19 A2987 RMK AC1CI4 SLP110

CYHM;2011-07-20 12:00;CYHM 201200Z 23005KT 7SM BKN230 21/20 A2988 RMK CI3 SLP113

CYHM;2011-07-20 13:00;CYHM 201300Z 24007KT 10SM SCT230 24/21 A2988 RMK CI2 SLP115

CYHM;2011-07-20 14:00;CYHM 201400Z 24008KT 15SM SCT240 27/21 A2988 RMK CI2 SLP114

CYHM;2011-07-20 15:00;CYHM 201500Z 22009KT 15SM BKN230 30/21 A2988 RMK CI2 SLP114

CYHM;2011-07-20 16:00;CYHM 201600Z 26010KT 15SM FEW170 BKN240 31/20 A2987 RMK AC1CI2 SLP111

CYHM;2011-07-20 17:00;CYHM 201700Z 24007KT 15SM FEW042 FEW160 BKN240 32/19 A2985 RMK CU1AC1CI3 CONTRAILS SLP104

CYHM;2011-07-20 18:00;CYHM 201800Z 26011KT 15SM FEW050 FEW170 BKN220 32/19 A2984 RMK CU1AC1CI3 SLP101

CYHM;2011-07-20 19:00;CYHM 201900Z 23010KT 15SM FEW050 BKN240 33/19 A2983 RMK CU1CI3 CU TR SLP096

CYHM;2011-07-20 20:00;CYHM 202000Z 22010KT 15SM FEW055 BKN240 34/19 A2982 RMK CU1CI2 SLP094

CYHM;2011-07-20 21:00;CYHM 202100Z 22013G19KT 15SM FEW055 SCT240 33/18 A2980 RMK CU1CI2 CU TR CONTRAILS SLP088

CYHM;2011-07-20 22:00;CYHM 202200Z 22011G16KT 15SM FEW055 FEW220 33/18 A2979 RMK CU1CI2 CU TR SLP083

CYHM;2011-07-21 00:00;CYHM 210000Z 23010KT 15SM FEW150 FEW220 30/21 A2978 RMK AC2CI1 CI TR SLP081

CYHM;2011-07-21 01:00;CYHM 210100Z 23008KT 15SM FEW150 FEW220 27/20 A2979 RMK AC1CI1 CI TR SLP083

CYHM;2011-07-21 02:00;CYHM 210200Z 23010KT 15SM SKC 25/20 A2979 RMK SLP083

CYHM;2011-07-21 03:00;CYHM 210300Z 21008KT 15SM SKC 25/19 A2978 RMK SLP080

CYHM;2011-07-21 04:00;CYHM 210400Z 22009KT 15SM SKC 25/20 A2977 RMK SLP077

CYHM;2011-07-21 05:00;CYHM 210500Z 24006KT 15SM SKC 25/21 A2977 RMK SLP077

CYHM;2011-07-21 06:00;CYHM 210600Z 22007KT 15SM SKC 24/21 A2976 RMK SLP071

CYHM;2011-07-21 07:00;CYHM 210700Z 22008KT 15SM SKC 24/22 A2975 RMK SLP069

CYHM;2011-07-21 08:00;CYHM 210800Z 22008KT 15SM SKC 25/23 A2975 RMK SLP067

CYHM;2011-07-21 09:00;CYHM 210900Z 21009KT 15SM FEW036 FEW220 25/23 A2972 RMK SC1CI1 TR SC SLP058

CYHM;2011-07-21 10:00;CYHM 211000Z 21011KT 8SM FEW230 25/24 A2971 RMK CI2 SLP053

CYHM;2011-07-21 11:00;CYHM 211100Z 21013KT 10SM FEW230 27/24 A2971 RMK CI2 SLP055

CYHM;2011-07-21 12:00;CYHM 211200Z 22011KT 15SM FEW260 28/25 A2971 RMK CI0 SLP057

CYHM;2011-07-21 13:00;CYHM 211300Z 23013KT 15SM FEW260 30/25 A2971 RMK CI0 SLP056

CYHM;2011-07-21 14:00;CYHM 211400Z 25013KT 15SM FEW050 31/25 A2971 RMK CU1 SLP054

CYHM;2011-07-21 15:00;CYHM 211500Z 24017KT 15SM FEW050 33/26 A2971 RMK CU1 SLP053

CYHM;2011-07-21 16:00;CYHM 211600Z CCA 24018KT 15SM FEW050 34/26 A2970 RMK CU2 SLP052

CYHM;2011-07-21 17:00;CYHM 211700Z 24015KT 15SM SCT045 34/26 A2970 RMK CU4 SLP052

CYHM;2011-07-21 18:00;CYHM 211800Z 26012KT 15SM BKN055 34/25 A2971 RMK CU6 TCU ASOCTD SLP053

CYHM;2011-07-21 19:00;CYHM 211900Z 25015KT 15SM BKN050 36/25 A2970 RMK CU6 TCU ASOCTD SLP052

CYHM;2011-07-21 20:00;CYHM 212000Z 26011KT 15SM BKN050TCU 35/24 A2970 RMK TCU6 SLP052

CYHM;2011-07-21 21:00;CYHM 212100Z 27012G18KT 15SM BKN040 35/25 A2971 RMK CU5 TCU ASOCTD E SLP053

CYHM;2011-07-21 22:00;CYHM 212200Z 28011G17KT 15SM BKN045 35/24 A2971 RMK CU5 TCU ASOCTD E SLP054

CYHM;2011-07-21 23:00;CYHM 212300Z 24014KT 15SM SCT040 SCT250 34/26 A2972 RMK CU3CI1 TCU ASOCTD SLP058

CYHM;2011-07-22 00:00;CYHM 220000Z 24005KT 15SM FEW040 FEW250 33/23 A2973 RMK CU1CI1 SLP061

CYHM;2011-07-22 01:00;CYHM 220100Z 24006KT 15SM FEW040 FEW250 31/26 A2975 RMK CU1CI1 CU TR SLP067

CYHM;2011-07-22 02:00;CYHM 220200Z 22004KT 15SM FEW040 FEW250 29/26 A2977 RMK CU1CI1 CU TR CI TR SLP073

CYHM;2011-07-22 03:00;CYHM 220300Z 23004KT 15SM SKC 28/26 A2979 RMK SLP081

CYHM;2011-07-22 04:00;CYHM 220400Z 31005KT 15SM SKC 27/24 A2981 RMK SLP088

CYHM;2011-07-22 05:00;CYHM 220500Z 31006KT 15SM FEW250 26/23 A2982 RMK CI1 SLP093

CYHM;2011-07-22 06:00;CYHM 220600Z 32006KT 15SM FEW250 25/23 A2984 RMK CI0 SLP099

CYHM;2011-07-22 07:00;CYHM 220700Z 33004KT 15SM FEW150 24/20 A2985 RMK AC1 SLP103

CYHM;2011-07-22 08:00;CYHM 220800Z 32003KT 15SM SKC 23/18 A2987 RMK SLP108

CYHM;2011-07-22 09:00;CYHM 220900Z 30002KT 15SM FEW150 21/19 A2989 RMK AC1 SLP116

CYHM;2011-07-22 10:00;CYHM 221000Z 00000KT 15SM FEW150 FEW250 20/19 A2991 RMK AC1CI0 AC TR SLP123

CYHM;2011-07-22 11:00;CYHM 221100Z 23002KT 15SM FEW140 SCT240 20/19 A2993 RMK AC1CI1 SLP129

CYHM;2011-07-22 12:00;CYHM 221200Z 32002KT 15SM FEW120 SCT240 24/20 A2994 RMK AC1CI1 SLP133

CYHM;2011-07-22 13:00;CYHM 221300Z 22002KT 15SM FEW120 FEW230 26/19 A2994 RMK AC1CI1 SLP134

CYHM;2011-07-22 14:00;CYHM 221400Z 11002KT 15SM FEW140 SCT240 28/17 A2994 RMK AC1CI1 SLP133

CYHM;2011-07-22 15:00;CYHM 221500Z 21005KT 15SM FEW140 BKN210 29/17 A2994 RMK AC2CI4 SLP135

CYHM;2011-07-22 16:00;CYHM 221600Z 20006KT 15SM FEW120 BKN230 30/18 A2994 RMK AC2CI2 SLP135

CYHM;2011-07-22 17:00;CYHM 221700Z 24006KT 15SM FEW120 BKN180 BKN220 30/18 A2995 RMK AC2AC3CI1 SLP137

CYHM;2011-07-22 18:00;CYHM 221800Z 27007KT 15SM FEW130 SCT180 BKN220 32/19 A2994 RMK AC1AC2CI2 SLP134

CYHM;2011-07-22 19:00;CYHM 221900Z 28006KT 15SM FEW100 BKN190 32/18 A2993 RMK AC2AC4 SLP129

CYHM;2011-07-22 20:00;CYHM 222000Z 27004KT 15SM FEW097 BKN190 33/20 A2991 RMK AC2AC5 ACC ASOCTD SLP122

CYHM;2011-07-22 21:00;CYHM 222100Z 30006KT 15SM SCT110 BKN230 32/20 A2990 RMK AC3CI4 SLP120

CYHM;2011-07-22 22:00;CYHM 222200Z 30006KT 15SM BKN084 BKN230 31/20 A2991 RMK AC6CI2 SLP125

CYHM;2011-07-22 23:00;CYHM 222300Z 30003KT 15SM BKN072 BKN160 OVC220 30/21 A2989 RMK AC6AC1CI2 SLP117

CYHM;2011-07-23 00:00;CYHM 230000Z 00000KT 15SM SCT070 BKN120 OVC220 30/20 A2988 RMK AC3AC3CI2 SLP114

CYHM;2011-07-23 01:00;CYHM 230100Z 22007KT 15SM FEW070 BKN140 BKN200 27/23 A2990 RMK AC1AC5CI1 SLP121

CYHM;2011-07-23 02:00;CYHM 230200Z 27004KT 15SM OVC110 27/18 A2992 RMK AC8 SLP128

CYHM;2011-07-23 03:00;CYHM 230300Z 25003KT 15SM FEW065 FEW100 BKN140 26/18 A2993 RMK SC1AC2AC4 SLP131

CYHM;2011-07-23 04:00;CYHM 230400Z 23007KT 15SM FEW097 SCT160 25/22 A2994 RMK AC2AC2 SLP134

CYHM;2011-07-23 05:00;CYHM 230500Z 24007KT 15SM SCT091 BKN160 24/23 A2993 RMK AC3AC2 SLP130

CYHM;2011-07-23 06:00;CYHM 230600Z 24007KT 15SM FEW090 23/23 A2991 RMK AC1 SLP123

CYHM;2011-07-23 07:00;CYHM 230700Z 22006KT 12SM FEW090 23/22 A2993 RMK AC1 SLP129

CYHM;2011-07-23 07:36;CYHM 230736Z 23007KT 7SM FEW007 RMK SF2

CYHM;2011-07-23 08:00;CYHM 230800Z 24006KT 8SM FEW007 FEW090 23/23 A2994 RMK SF1AC1 SLP132

CYHM;2011-07-23 08:51;CYHM 230851Z 26008KT 6SM BR BKN004 RMK SF7

CYHM;2011-07-23 09:00;CYHM 230900Z 26008KT 6SM BR BKN005 23/23 A2995 RMK SF7 SLP137

CYHM;2011-07-23 09:47;CYHM 230947Z 25006KT 2SM BR SCT006 BKN050 BKN100 RMK FG1SF2SC2AC1

CYHM;2011-07-23 10:00;CYHM 231000Z 22005KT 2SM BR FEW007 BKN250 23/23 A2997 RMK FG1SF1CI2 SLP144

CYHM;2011-07-23 10:47;CYHM 231047Z 23005KT 3SM BR FEW006 BKN250 RMK SF1CI2

CYHM;2011-07-23 11:00;CYHM 231100Z 24006KT 3SM BR FEW006 BKN250 23/23 A2997 RMK SF1CI2 SLP143

CYHM;2011-07-23 12:00;CYHM 231200Z 26008KT 3SM BR FEW005 FEW120 BKN250 23/23 A2997 RMK SF2AC1CI3 SLP144

CYHM;2011-07-23 13:00;CYHM 231300Z 26008KT 7SM FEW008 BKN260 25/23 A2998 RMK SF1CI4 SLP149

CYHM;2011-07-23 14:00;CYHM 231400Z 25008KT 10SM FEW012 BKN260 27/23 A2998 RMK CU1CI2 SLP148

CYHM;2011-07-23 15:00;CYHM 231500Z 24009KT 15SM FEW023 BKN260 29/23 A3000 RMK CU2CI2 SLP153

CYHM;2011-07-23 16:00;CYHM 231600Z 25006KT 15SM FEW032 BKN250 30/22 A2999 RMK CU1CC4 SLP151

CYHM;2011-07-23 17:00;CYHM 231700Z 27009KT 15SM FEW042 BKN220 31/21 A2997 RMK CU1CC4 SLP144

CYHM;2011-07-23 18:00;CYHM 231800Z 26005KT 15SM FEW045 BKN220 32/21 A2995 RMK CU2CC3 SLP137

CYHM;2011-07-23 19:00;CYHM 231900Z 25009G15KT 15SM SCT045 BKN180 BKN220 31/21 A2995 RMK CU3AC2CC1 SLP137

CYHM;2011-07-23 20:00;CYHM 232000Z 25009KT 15SM FEW042 BKN140 BKN180 31/21 A2994 RMK CU2AC2AC2 TCU ASOCTD NE SLP132

CYHM;2011-07-23 21:00;CYHM 232100Z 26008KT 15SM FEW042 SCT080 BKN140 BKN170 31/21 A2992 RMK CU2AC2AC2AC1 SLP128

CYHM;2011-07-23 22:00;CYHM 232200Z 26006KT 15SM FEW040 BKN140 BKN170 30/21 A2993 RMK CU2AC3AC2 SLP131

CYHM;2011-07-23 23:00;CYHM 232300Z 27007KT 15SM FEW040TCU BKN120 BKN160 29/22 A2993 RMK TCU2AC4AC2 SLP130

CYHM;2011-07-24 00:00;CYHM 240000Z 24007KT 15SM FEW035TCU SCT080 BKN110 BKN170 29/22 A2993 RMK TCU2AC2AC2AC1 SLP132

CYHM;2011-07-24 01:00;CYHM 240100Z 24009KT 15SM FEW035TCU FEW080 BKN110 BKN170 28/22 A2995 RMK TCU1AC2AC3AC2 SLP137

CYHM;2011-07-24 02:00;CYHM 240200Z 26007KT 15SM FEW035TCU FEW080 BKN110 27/21 A2996 RMK TCU1AC2AC5 DIST OCNL LTNG S SLP140

CYHM;2011-07-24 03:00;CYHM 240300Z 26007KT 15SM FEW090 OVC110 26/22 A2997 RMK AC2AC6 SLP142

CYHM;2011-07-24 04:00;CYHM 240400Z 32002KT 15SM OVC110 26/22 A2998 RMK AC8 SLP148

CYHM;2011-07-24 05:00;CYHM 240500Z 22012KT 15SM -TSRA BKN022 OVC032 25/21 A2999 RMK SC5SC3 CB ASOCTD OCNL LTGIC SLP151

CYHM;2011-07-24 06:00;CYHM 240600Z 29006KT 2SM +TSRA SCT012CB OVC040 22/22 A2999 RMK RA1CB3SC4 OCNL LTGIC /R24/ SLP150

CYHM;2011-07-24 06:31;CYHM 240631Z 18003KT 5SM -TSRA FEW030CB BKN090 OVC140 RERA RMK CB2AC5AC2

CYHM;2011-07-24 07:00;CYHM 240700Z 25003KT 15SM -SHRA FEW030 BKN077 22/22 A2996 RETSRA RMK SC2AC6 SLP140

CYHM;2011-07-24 08:00;CYHM 240800Z 31002KT 10SM MIFG FEW022 SCT080 BKN100 22/22 A2996 RMK SC2AC2AC3 SLP141

CYHM;2011-07-24 09:00;CYHM 240900Z 32002KT 8SM FEW023 FEW046 22/22 A2997 RMK SC1SC1 SLP143

CYHM;2011-07-24 10:00;CYHM 241000Z 04002KT 2 1/2SM BR FEW030 FEW110 FEW230 22/22 A2997 RMK SC1AC1CI1 TR SC SLP145

CYHM;2011-07-24 10:41;CYHM 241041Z 01004KT 7SM FEW030 BKN250 RMK CU1CI2 CU TR

CYHM;2011-07-24 11:00;CYHM 241100Z 04005KT 7SM FEW030 SCT250 22/22 A2999 RMK CU1CI2 CU TR SLP151

CYHM;2011-07-24 11:33;CYHM 241133Z 03006KT 7SM FEW006 BKN250 RMK CF2CI2

CYHM;2011-07-24 11:45;CYHM 241145Z 03011KT 7SM BKN008 BKN250 RMK CF5CI1

CYHM;2011-07-24 11:52;CYHM 241152Z 03010KT 12SM FEW008 BKN250 RMK CF2CI1

CYHM;2011-07-24 12:00;CYHM 241200Z 03011KT 12SM FEW008 BKN250 22/21 A3001 RMK CU2CI1 SLP157

CYHM;2011-07-24 13:00;CYHM 241300Z 05014KT 15SM FEW011 SCT016 BKN250 22/20 A3001 RMK CU1SC4CI2 CU TR SLP159

CYHM;2011-07-24 14:00;CYHM 241400Z 04014KT 15SM FEW015 BKN250 22/19 A3001 RMK SC2CI1 SLP159

CYHM;2011-07-24 14:49;CYHM 241449Z 06015KT 15SM BKN014 BKN250 RMK SC6CI1

CYHM;2011-07-24 15:00;CYHM 241500Z 07015KT 15SM BKN014 BKN250 23/19 A3004 RMK SC6CI1 SLP167

CYHM;2011-07-24 16:00;CYHM 241600Z 06010KT 15SM FEW015 SCT250 22/18 A3004 RMK SC2CI1 SLP170

CYHM;2011-07-24 17:00;CYHM 241700Z 05011KT 15SM FEW020 SCT250 24/19 A3003 RMK SC1CI2 SLP166

CYHM;2011-07-24 18:00;CYHM 241800Z 07011KT 15SM FEW150 SCT250 26/20 A3002 RMK AC1CI1 SLP162

CYHM;2011-07-24 19:00;CYHM 241900Z 04007KT 15SM FEW025 FEW080 BKN150 BKN250 25/20 A3001 RMK CU1AC2AC2CI1 SLP161

CYHM;2011-07-24 20:00;CYHM 242000Z 05007KT 15SM FEW025 FEW080 SCT160 BKN250 26/20 A3000 RMK CU1AC2AC2CI1 SLP157

CYHM;2011-07-24 21:00;CYHM 242100Z 05007KT 15SM FEW030 FEW090 FEW160 BKN250 25/20 A2999 RMK CU1AC1AC2CI2 CU TR SLP151

CYHM;2011-07-24 22:00;CYHM 242200Z 06007KT 15SM FEW030 FEW160 BKN250 25/20 A2997 RMK CU1AC2CI2 SLP147

CYHM;2011-07-24 23:00;CYHM 242300Z 06006KT 15SM FEW030 FEW150 BKN220 25/20 A2997 RMK CU1AC1CI6 CU TR SLP146

CYHM;2011-07-25 00:00;CYHM 250000Z 09005KT 15SM FEW062 FEW090 BKN180 24/20 A2998 RMK SC2AC1AC5 SLP151

CYHM;2011-07-25 01:00;CYHM 250100Z 07004KT 15SM FEW062 BKN140 23/20 A2997 RMK SC1AC5 CONTRAILS SLP148

CYHM;2011-07-25 02:00;CYHM 250200Z 08003KT 15SM BKN200 22/20 A2997 RMK CI6 SLP148

CYHM;2011-07-25 03:00;CYHM 250300Z 07005KT 15SM FEW230 22/20 A2996 RMK CI2 SLP143

CYHM;2011-07-25 04:00;CYHM 250400Z 09002KT 15SM BKN022 OVC230 22/20 A2995 RMK SC6CI2 SLP139

CYHM;2011-07-25 05:00;CYHM 250500Z 07002KT 15SM FEW022 SCT230 22/20 A2993 RMK SC2CI1 SLP134

CYHM;2011-07-25 06:00;CYHM 250600Z 12003KT 15SM FEW025 FEW230 21/20 A2992 RMK SC1CI2 SLP128

CYHM;2011-07-25 07:00;CYHM 250700Z 15002KT 15SM FEW230 21/20 A2990 RMK CI2 SLP123

CYHM;2011-07-25 08:00;CYHM 250800Z 17006KT 15SM BKN210 21/20 A2989 RMK CI3 SLP118

CYHM;2011-07-25 09:00;CYHM 250900Z 21005KT 10SM FEW055 OVC077 21/20 A2987 RMK SC2AC6 OCNL LTGIC SLP113

CYHM;2011-07-25 09:33;CYHM 250933Z 26003KT 7SM TS FEW003 BKN070 RMK SF2AC5 CB ASOCTD OCNL LTGICCG N

CYHM;2011-07-25 10:00;CYHM 251000Z 19005KT 7SM FEW004 SCT070 SCT130 BKN230 21/20 A2985 RETS RMK SF1AC2AC1CI2 SLP105

CYHM;2011-07-25 11:00;CYHM 251100Z 24004KT 5SM BR SCT006 BKN019 BKN032 21/21 A2985 RMK SF3SC2SC2 SLP107

CYHM;2011-07-25 12:00;CYHM 251200Z 26005KT 3SM BR BKN004 BKN016 BKN042 23/22 A2985 RMK SF5SC2SC1 CU ASOCTD SLP106

CYHM;2011-07-25 13:00;CYHM 251300Z 28009KT 5SM BR FEW007 BKN014 BKN062 24/22 A2985 RMK SF2SC3SC2 SLP104

CYHM;2011-07-25 14:00;CYHM 251400Z 31008KT 8SM BKN014 BKN018 BKN072 25/22 A2984 RMK SC5SC2AC1 SLP102

CYHM;2011-07-25 15:00;CYHM 251500Z 29006KT 10SM FEW018 BKN023 BKN075 BKN090 25/22 A2984 RMK CU2SC2AC1AC1 SLP102

CYHM;2011-07-25 16:00;CYHM 251600Z 29008KT 15SM SCT036 BKN042 BKN082 28/22 A2983 RMK CU3SC2AC1 SLP097

CYHM;2011-07-25 17:00;CYHM 251700Z 32010KT 15SM SCT032 BKN054 BKN092 28/20 A2982 RMK CU3SC2AC2 SLP096

CYHM;2011-07-25 18:00;CYHM 251800Z 32011KT 15SM FEW035 SCT043 SCT092 29/19 A2982 RMK CU2SC1AC1 SLP095

CYHM;2011-07-25 19:00;CYHM 251900Z 30012KT 15SM BKN052 27/17 A2981 RMK CU5 TCU ASOCTD SLP089

CYHM;2011-07-25 20:00;CYHM 252000Z 27015KT 15SM SCT053 29/17 A2979 RMK CU3 SLP085

CYHM;2011-07-25 21:00;CYHM 252100Z 28013KT 15SM FEW054 28/13 A2978 RMK CU2 SLP082

CYHM;2011-07-25 22:00;CYHM 252200Z 28013KT 15SM FEW056 27/15 A2979 RMK CU1 SLP083

CYHM;2011-07-25 23:00;CYHM 252300Z 25011KT 15SM FEW058 26/13 A2978 RMK CU1 CU TR SLP082

CYHM;2011-07-26 00:00;CYHM 260000Z 27007KT 15SM FEW058 24/13 A2979 RMK CU1 CU TR SLP085

CYHM;2011-07-26 01:00;CYHM 260100Z 24006KT 15SM FEW054 22/12 A2980 RMK CU1 CU TR SLP088

CYHM;2011-07-26 02:00;CYHM 260200Z 28007KT 15SM SKC 20/12 A2981 RMK SLP090

CYHM;2011-07-26 03:00;CYHM 260300Z 22005KT 15SM SKC 17/14 A2980 RMK SLP090

CYHM;2011-07-26 04:00;CYHM 260400Z 21006KT 15SM SKC 16/14 A2980 RMK SLP088

CYHM;2011-07-26 05:00;CYHM 260500Z 21005KT 15SM SKC 16/14 A2978 RMK SLP082

CYHM;2011-07-26 06:00;CYHM 260600Z 21006KT 15SM SKC 16/14 A2977 RMK SLP078

CYHM;2011-07-26 07:00;CYHM 260700Z 24005KT 15SM SKC 17/12 A2976 RMK SLP076

CYHM;2011-07-26 08:00;CYHM 260800Z 24005KT 15SM FEW080 16/13 A2975 RMK AC1 AC TR SLP073

CYHM;2011-07-26 09:00;CYHM 260900Z 23005KT 15SM FEW080 15/13 A2974 RMK AC1 AC TR SLP069

CYHM;2011-07-26 10:00;CYHM 261000Z 21002KT 15SM FEW026 FEW080 17/15 A2974 RMK CU1AC1 CU TR SLP067

CYHM;2011-07-26 11:00;CYHM 261100Z 25005KT 15SM FEW045 FEW110 18/16 A2973 RMK SC1AC2 CU ASOCTD SLP065

CYHM;2011-07-26 12:00;CYHM 261200Z 26007KT 15SM FEW035 FEW100 20/17 A2973 RMK SC1AC1 SLP066

CYHM;2011-07-26 13:00;CYHM 261300Z 27009KT 15SM FEW100 22/18 A2974 RMK AC2 SLP067

CYHM;2011-07-26 14:00;CYHM 261400Z 27011KT 15SM FEW062 FEW085 FEW120 23/18 A2974 RMK SC1AC1AC1 SLP067

CYHM;2011-07-26 15:00;CYHM 261500Z 30014KT 15SM FEW030 FEW045 SCT090 BKN220 25/17 A2975 RMK CU2SC1AC1CI1 SLP073

CYHM;2011-07-26 16:00;CYHM 261600Z 30015KT 15SM SCT042 BKN056 BKN220 25/14 A2975 RMK CU3SC2CI1 SLP073

CYHM;2011-07-26 17:00;CYHM 261700Z CCA 27013G23KT 15SM FEW045 SCT058 26/14 A2977 RMK CU2SC1 SLP078

CYHM;2011-07-26 18:00;CYHM 261800Z 29012G20KT 15SM FEW045 SCT056 25/13 A2977 RMK CU2SC1 SLP079

CYHM;2011-07-26 19:00;CYHM 261900Z 26015G21KT 15SM SCT058 26/13 A2977 RMK CU3 SLP080

CYHM;2011-07-26 20:00;CYHM 262000Z 27012G19KT 15SM SCT062 25/12 A2978 RMK CU3 TCU ASOCTD SLP082

CYHM;2011-07-26 21:00;CYHM 262100Z 29014G21KT 15SM FEW057 25/13 A2979 RMK CU2 SLP086

CYHM;2011-07-26 22:00;CYHM 262200Z 28014G23KT 15SM FEW056 24/13 A2980 RMK CU2 SLP089

CYHM;2011-07-26 23:00;CYHM 262300Z 29011G18KT 15SM FEW054 23/12 A2981 RMK CU1 SLP092

CYHM;2011-07-27 00:00;CYHM 270000Z 31012KT 15SM FEW054 22/12 A2983 RMK SC1 SC TR SLP100

CYHM;2011-07-27 01:00;CYHM 270100Z 32008KT 15SM FEW054 20/13 A2985 RMK SC1 SC TR SLP105

CYHM;2011-07-27 02:00;CYHM 270200Z 32005KT 15SM FEW052 19/13 A2988 RMK SC1 SC TR SLP115

CYHM;2011-07-27 03:00;CYHM 270300Z 32005KT 15SM SKC 18/13 A2988 RMK SLP117

CYHM;2011-07-27 04:00;CYHM 270400Z 27005KT 15SM SKC 17/14 A2990 RMK SLP123

CYHM;2011-07-27 05:00;CYHM 270500Z 31007KT 15SM SKC 16/14 A2991 RMK SLP126

CYHM;2011-07-27 06:00;CYHM 270600Z 31008KT 15SM SKC 17/14 A2991 RMK SLP125

CYHM;2011-07-27 07:00;CYHM 270700Z 27003KT 15SM SKC 15/14 A2991 RMK SLP128

CYHM;2011-07-27 08:00;CYHM 270800Z 26005KT 15SM SKC 15/14 A2994 RMK SLP135

CYHM;2011-07-27 09:00;CYHM 270900Z 29005KT 15SM SKC 14/14 A2996 RMK SLP145

CYHM;2011-07-27 10:00;CYHM 271000Z 30006KT 15SM FEW250 15/14 A2997 RMK CI1 CI TR SLP146

CYHM;2011-07-27 11:00;CYHM 271100Z 30004KT 15SM FEW220 17/15 A2998 RMK CI0 SLP152

CYHM;2011-07-27 12:00;CYHM 271200Z 31005KT 15SM SKC 20/15 A2999 RMK SLP153

CYHM;2011-07-27 13:00;CYHM 271300Z 32004KT 15SM FEW240 22/15 A2999 RMK CI1 SLP153

CYHM;2011-07-27 14:00;CYHM 271400Z 34006KT 15SM FEW240 24/15 A2999 RMK CI2 SLP155

CYHM;2011-07-27 15:00;CYHM 271500Z 31004KT 15SM FEW045 BKN220 25/14 A3001 RMK CU1CI3 CONTRAILS SLP159

CYHM;2011-07-27 16:00;CYHM 271600Z 26003KT 15SM FEW045 FEW170 BKN220 25/13 A3001 RMK CU2AC1CI2 SLP161

CYHM;2011-07-27 17:00;CYHM 271700Z 23004KT 15SM FEW045 FEW062 SCT180 BKN220 25/13 A3001 RMK CU2SC1AC1CI2 CONTRAILS SLP160

CYHM;2011-07-27 18:00;CYHM 271800Z 15004KT 15SM FEW057 SCT160 BKN220 26/13 A2999 RMK CU2AC1CI3 CONTRAILS SLP154

CYHM;2011-07-27 19:00;CYHM 271900Z 26002KT 15SM FEW058 FEW180 BKN250 BKN280 27/13 A3000 RMK CU2AC1CS4CC1 AC TR CC TR SUN DMLY VSBL SLP156

CYHM;2011-07-27 20:00;CYHM 272000Z 19003KT 15SM FEW062 SCT180 OVC250 26/14 A3000 RMK CU2AC2CS4 SUN DMLY VSBL SLP157

CYHM;2011-07-27 21:00;CYHM 272100Z 20011KT 15SM FEW056 FEW130 BKN250 26/16 A2999 RMK CU1AC1CS3 SLP153

CYHM;2011-07-27 22:00;CYHM 272200Z 19011KT 15SM FEW056 BKN190 BKN250 25/15 A3000 RMK CU1AC6CS1 CU TR SLP156

CYHM;2011-07-27 23:00;CYHM 272300Z 22007KT 15SM FEW050 BKN170 BKN190 24/15 A2999 RMK CU1AC5AC2 CU TR SLP154

CYHM;2011-07-28 00:00;CYHM 280000Z 18006KT 15SM FEW130 BKN150 23/15 A2999 RMK AC2AC5 SLP155

CYHM;2011-07-28 01:00;CYHM 280100Z 18004KT 15SM OVC130 22/15 A2999 RMK AC8 SLP155

CYHM;2011-07-28 02:00;CYHM 280200Z 23006KT 15SM BKN120 OVC140 21/16 A3001 RMK AC5AC3 SLP159

CYHM;2011-07-28 03:00;CYHM 280300Z 17005KT 15SM OVC110 22/14 A3001 RMK AC8 SLP161

CYHM;2011-07-28 04:00;CYHM 280400Z 16005KT 15SM OVC120 21/15 A3001 RMK AC8 SLP158

CYHM;2011-07-28 05:00;CYHM 280500Z 15005KT 15SM OVC089 22/15 A3000 RMK AC8 SLP156

CYHM;2011-07-28 06:00;CYHM 280600Z 16006KT 15SM OVC078 21/16 A2999 RMK AC8 SLP153

CYHM;2011-07-28 07:00;CYHM 280700Z 15005KT 15SM FEW065 BKN080 OVC150 21/17 A2998 RMK SC2AC4AC2 SLP150

CYHM;2011-07-28 08:00;CYHM 280800Z 15005KT 15SM OVC061 21/18 A2997 RMK SC8 SLP147

CYHM;2011-07-28 09:00;CYHM 280900Z 14005KT 15SM FEW055 FEW070 OVC110 21/18 A2996 RMK SC1AC2AC6 SLP141

CYHM;2011-07-28 10:00;CYHM 281000Z 15007KT 15SM BKN052 OVC120 22/19 A2996 RMK SC6AC2 CU ASOCTD SLP142

CYHM;2011-07-28 11:00;CYHM 281100Z 18005KT 15SM -SHRA BKN032 BKN052 OVC076 21/19 A2998 RMK SC5SC2AC2 SLP148

CYHM;2011-07-28 12:00;CYHM 281200Z 19007KT 5SM -SHRA BR SCT007 BKN010 OVC022 20/19 A2997 RMK SF3SC4SC1 SLP147

CYHM;2011-07-28 13:00;CYHM 281300Z CCA 16006KT 5SM -SHRA BR BKN005 BKN015 OVC021 20/19 A2996 RMK SF6SC2SC1 SLP144

CYHM;2011-07-28 13:40;CYHM 281340Z 21003KT 2 1/2SM -SHRA BR BKN004 OVC014 RMK SF6SC2

CYHM;2011-07-28 14:00;CYHM 281400Z 17006KT 2 1/2SM -SHRA BR SCT005 BKN015 OVC039 20/20 A2996 RMK SF3SC2SC2 SLP142

CYHM;2011-07-28 15:00;CYHM 281500Z 19007KT 5SM -SHRA BR FEW006 BKN013 OVC024 22/22 A2995 RMK SF2SC4SC2 SLP141

CYHM;2011-07-28 15:03;CYHM 281503Z 20008KT 6SM BR SCT010 BKN025 OVC039 RMK SF3SC3SC2

CYHM;2011-07-28 16:00;CYHM 281600Z 28008KT 8SM BKN008 OVC015 23/22 A2995 RMK SF6SC2 SLP140

CYHM;2011-07-28 17:00;CYHM 281700Z 21010KT 10SM FEW012 BKN018 OVC040 24/22 A2994 RMK CF2SC4SC2 SLP138

CYHM;2011-07-28 18:00;CYHM 281800Z 22008KT 10SM FEW017 BKN021 OVC032 25/22 A2994 RMK SC2SC5SC1 SLP135

CYHM;2011-07-28 19:00;CYHM 281900Z 21010KT 12SM BKN018 BKN037 27/23 A2994 RMK SC5SC2 SLP135

CYHM;2011-07-28 20:00;CYHM 282000Z 22008KT 15SM FEW018 SCT034 OVC052 26/23 A2994 RMK SC2SC2SC4 SLP135

CYHM;2011-07-28 21:00;CYHM 282100Z 20003KT 15SM BKN018 BKN055 27/23 A2993 RMK SC6SC2 SLP132

CYHM;2011-07-28 22:00;CYHM 282200Z 26004KT 15SM BKN018 BKN030 BKN058 27/23 A2994 RMK SC5SC2SC1 SLP134

CYHM;2011-07-28 23:00;CYHM 282300Z 07006KT 12SM FEW018 BKN054 25/22 A2994 RMK SC1SC6 SLP134

CYHM;2011-07-29 00:00;CYHM 290000Z 07005KT 8SM FEW018 FEW055 BKN250 24/22 A2994 RMK CU1SC2CI3 SLP137

CYHM;2011-07-29 01:00;CYHM 290100Z 05005KT 5SM BR FEW055 BKN210 23/21 A2994 RMK SC1CC6 SLP136

CYHM;2011-07-29 02:00;CYHM 290200Z 07004KT 3SM BR BKN180 22/21 A2995 RMK AC6 SLP140

CYHM;2011-07-29 03:00;CYHM 290300Z 06004KT 2 1/2SM BR FEW180 21/21 A2995 RMK AC2 SLP141

CYHM;2011-07-29 04:00;CYHM 290400Z 03002KT 1 1/2SM BR FEW048 SCT180 21/21 A2997 RMK FG2SC1AC2 SLP146

CYHM;2011-07-29 04:23;CYHM 290423Z 09002KT 1 1/4SM BR BKN180 RMK FG2AC3

CYHM;2011-07-29 05:00;CYHM 290500Z 06004KT 1 1/4SM BR BKN170 21/21 A2994 RMK FG2AC4 SLP137

CYHM;2011-07-29 05:34;CYHM 290534Z 07004KT 1 1/4SM TS BR SCT055 OVC160 RMK FG2SC2AC4 CB EMBDD

CYHM;2011-07-29 05:48;CYHM 290548Z 05004KT 1 1/4SM -TSRA BR SCT055 OVC150 RMK FG2SC2AC4 CB EMBDD

CYHM;2011-07-29 06:00;CYHM 290600Z 08002KT 1 1/4SM -TSRA BR BKN042CB OVC150 22/21 A2992 RMK FG2CB2AC3 SLP130

CYHM;2011-07-29 07:00;CYHM 290700Z 20007KT 1 1/4SM -TSRA BR BKN002 OVC010CB 22/22 A2991 RMK FG2CF3CB2 SLP127

CYHM;2011-07-29 07:23;CYHM 290723Z 22005KT 5SM -TSRA BR BKN003 BKN010CB OVC120 RMK CF5CB1AC2

CYHM;2011-07-29 07:37;CYHM 290737Z 26004KT 15SM FEW003 OVC093 RETS RMK CF1AC7

CYHM;2011-07-29 08:00;CYHM 290800Z 29004KT 15SM BKN098 22/22 A2991 RMK AC7 SLP124

CYHM;2011-07-29 09:00;CYHM 290900Z 21004KT 15SM -TSRA FEW040CB OVC094 21/21 A2988 RMK CB2AC6 SLP115

CYHM;2011-07-29 09:25;CYHM 290925Z 21010KT 9SM -TSRA FEW004 OVC045CB RMK CF2CB6

CYHM;2011-07-29 10:00;CYHM 291000Z 10002KT 7SM -TSRA FEW008 FEW048CB OVC140 21/21 A2987 RERA RMK CF1CB1AC6 SLP112

CYHM;2011-07-29 10:23;CYHM 291023Z CCA 16006KT 5SM -SHRA BR FEW038 BKN051 BKN075 OVC110 RMK CU1SC4AC2AC1 RETS

CYHM;2011-07-29 11:00;CYHM 291100Z 22004KT 10SM -SHRA FEW035 BKN088 OVC160 21/21 A2987 RMK SC2AC4AC2 SLP111

CYHM;2011-07-29 11:04;CYHM 291104Z 22003KT 15SM FEW035 BKN085 OVC160 RMK SC2AC5AC2

CYHM;2011-07-29 12:00;CYHM 291200Z 20007KT 10SM BKN038 BKN062 OVC075 22/21 A2988 RMK SC5SC2AC2 SLP116

CYHM;2011-07-29 12:05;CYHM 291205Z 21009KT 5SM -SHRA BR BKN019 OVC026 RMK SC6SC2

CYHM;2011-07-29 12:48;CYHM 291248Z 23008KT 8SM BKN016 OVC020 RMK SC6SC2

CYHM;2011-07-29 13:00;CYHM 291300Z 23008KT 7SM BKN019 OVC025 23/22 A2989 RMK SC6SC2 SLP118

CYHM;2011-07-29 14:00;CYHM 291400Z 24012KT 10SM FEW006 BKN032 OVC160 24/23 A2986 RMK SF2SC3AC2 SLP109

CYHM;2011-07-29 15:00;CYHM 291500Z 25013KT 15SM BKN021 OVC026 24/22 A2985 RMK SC6SC2 SLP106

CYHM;2011-07-29 16:00;CYHM 291600Z 27010KT 15SM BKN031 BKN038 25/23 A2986 RMK SC6SC2 CU ASOCTD SLP109

CYHM;2011-07-29 17:00;CYHM 291700Z 27012KT 15SM BKN036 BKN042 25/22 A2988 RMK SC6SC2 CU ASOCTD SLP115

CYHM;2011-07-29 18:00;CYHM 291800Z 26014KT 15SM SCT020 BKN028 BKN120 BKN210 27/23 A2987 RMK CU3SC2AC1CI1 SLP112

CYHM;2011-07-29 19:00;CYHM 291900Z 29011G16KT 15SM SCT040 SCT230 29/21 A2989 RMK CU3CI1 SLP118

CYHM;2011-07-29 20:00;CYHM 292000Z 31010G16KT 15SM FEW043 FEW210 30/20 A2989 RMK CU2CI1 SLP117

CYHM;2011-07-29 21:00;CYHM 292100Z 28010KT 15SM FEW050 FEW210 30/20 A2989 RMK CU1CI1 TR CI SLP118

CYHM;2011-07-29 22:00;CYHM 292200Z 29007KT 15SM FEW053 FEW220 30/20 A2989 RMK CU2CI1 FEW TCU TR CI SLP117

CYHM;2011-07-29 23:00;CYHM 292300Z 27010G18KT 15SM FEW039 BKN230 28/21 A2991 RMK CU2CI2 TCU ASOCTD SLP123

CYHM;2011-07-30 00:00;CYHM 300000Z 31007KT 15SM FEW035TCU BKN240 26/19 A2992 RMK TCU1CI2 SLP129

CYHM;2011-07-30 01:00;CYHM 300100Z 29005KT 15SM FEW030TCU BKN240 23/18 A2994 RMK TCU1CI4 CONTRAILS SLP137

CYHM;2011-07-30 02:00;CYHM 300200Z 27007KT 15SM FEW030TCU FEW230 23/17 A2996 RMK TCU1CI1 SLP143

CYHM;2011-07-30 03:00;CYHM 300300Z 28006KT 15SM SKC 22/18 A2997 RMK SLP148

CYHM;2011-07-30 04:00;CYHM 300400Z 29004KT 15SM SKC 21/17 A3000 RMK SLP156

CYHM;2011-07-30 05:00;CYHM 300500Z 23005KT 15SM SKC 19/17 A3001 RMK SLP159

CYHM;2011-07-30 06:00;CYHM 300600Z 25006KT 15SM SKC 19/17 A3001 RMK SLP161

CYHM;2011-07-30 07:00;CYHM 300700Z 28007KT 15SM FEW230 18/16 A3002 RMK CI1 SLP163

CYHM;2011-07-30 08:00;CYHM 300800Z 28007KT 15SM SKC 19/15 A3002 RMK SLP164

CYHM;2011-07-30 09:00;CYHM 300900Z 29006KT 15SM SKC 18/15 A3002 RMK SLP163

CYHM;2011-07-30 10:00;CYHM 301000Z 28006KT 15SM FEW080 17/15 A3004 RMK AC1 AC TR SLP169

CYHM;2011-07-30 11:00;CYHM 301100Z 30007KT 15SM FEW080 18/15 A3004 RMK AC1 AC TR SLP170

CYHM;2011-07-30 12:00;CYHM 301200Z 29005KT 15SM FEW100 20/16 A3006 RMK AC1 AC TR SLP176

CYHM;2011-07-30 13:00;CYHM 301300Z 30005KT 15SM SKC 23/15 A3007 RMK SLP179

CYHM;2011-07-30 14:00;CYHM 301400Z 31008KT 15SM SKC 25/15 A3007 RMK SLP180

CYHM;2011-07-30 15:00;CYHM 301500Z 31006KT 15SM SKC 26/15 A3009 RMK SLP185

CYHM;2011-07-30 16:00;CYHM 301600Z 36005KT 15SM FEW035 27/14 A3009 RMK CU1 CU TR SLP186

CYHM;2011-07-30 17:00;CYHM 301700Z 30004KT 15SM FEW050 29/15 A3008 RMK CU1 SLP184

CYHM;2011-07-30 18:00;CYHM 301800Z 27008KT 15SM FEW060 28/13 A3007 RMK CU1 SLP180

CYHM;2011-07-30 19:00;CYHM 301900Z 26005KT 15SM FEW060 29/12 A3006 RMK CU2 SLP177

CYHM;2011-07-30 20:00;CYHM 302000Z 27007KT 15SM FEW060 FEW250 30/12 A3004 RMK CU2CI1 SLP171

CYHM;2011-07-30 21:00;CYHM 302100Z 26009KT 15SM FEW060 FEW250 30/13 A3003 RMK CU2CI1 SLP167

CYHM;2011-07-30 22:00;CYHM 302200Z 27009KT 15SM FEW060 FEW250 29/14 A3002 RMK CU2CI0 SLP163

CYHM;2011-07-30 23:00;CYHM 302300Z 27009KT 15SM FEW055 FEW080 28/15 A3002 RMK CU1AC1 AC TR SLP164

CYHM;2011-07-31 00:00;CYHM 310000Z 28005KT 15SM FEW050 FEW064 FEW220 26/15 A3003 RMK CU1SC1CI1 CU TR SC TR CI TR SLP167

CYHM;2011-07-31 01:00;CYHM 310100Z 27005KT 15SM FEW045 FEW230 24/15 A3005 RMK CU1CI1 CU TR SLP172

CYHM;2011-07-31 02:00;CYHM 310200Z 27005KT 15SM FEW060 23/15 A3007 RMK SC1 SC TR SLP178

CYHM;2011-07-31 03:00;CYHM 310300Z 24004KT 15SM FEW240 21/15 A3006 RMK CI1 SLP176

CYHM;2011-07-31 04:00;CYHM 310400Z 26003KT 15SM SKC 21/16 A3006 RMK SLP176

CYHM;2011-07-31 05:00;CYHM 310500Z 25005KT 15SM FEW080 FEW230 18/16 A3006 RMK AC1CI1 SLP176

CYHM;2011-07-31 06:00;CYHM 310600Z 25002KT 15SM FEW080 FEW120 FEW220 19/17 A3005 RMK AC1AC1CI1 SLP172

CYHM;2011-07-31 07:00;CYHM 310700Z 25004KT 15SM BKN110 18/17 A3004 RMK AC6 SLP168

CYHM;2011-07-31 07:17;CYHM 310717Z 24004KT 15SM -SHRA OVC065 RMK SC8

CYHM;2011-07-31 08:00;CYHM 310800Z 24004KT 15SM BKN058 OVC120 20/18 A3004 RMK SC6AC2 SLP169

CYHM;2011-07-31 09:00;CYHM 310900Z 25003KT 15SM SCT058 BKN140 20/18 A3004 RMK SC3AC2 OCNL LTNG E SLP169

CYHM;2011-07-31 10:00;CYHM 311000Z 20004KT 15SM FEW055 FEW140 18/18 A3005 RMK CU1AC2 SLP172

CYHM;2011-07-31 11:00;CYHM 311100Z 21004KT 15SM FEW055 FEW140 19/19 A3006 RMK SC1AC1 SLP174

CYHM;2011-07-31 12:00;CYHM 311200Z 25008KT 15SM FEW057 BKN130 21/20 A3007 RMK SC2AC6 SLP179

CYHM;2011-07-31 13:00;CYHM 311300Z 26011KT 15SM FEW050 BKN120 23/20 A3007 RMK SC1AC6 SLP180

CYHM;2011-07-31 14:00;CYHM 311400Z 27008KT 15SM FEW050 BKN120 23/19 A3007 RMK SC1AC6 SLP180

CYHM;2011-07-31 15:00;CYHM 311500Z 29008KT 15SM FEW030 FEW130 FEW250 25/19 A3006 RMK CU1AC2CI1 CI TR SLP176

CYHM;2011-07-31 16:00;CYHM 311600Z 28011KT 15SM FEW032 FEW130 27/19 A3005 RMK CU2AC1 SLP174

CYHM;2011-07-31 17:00;CYHM 311700Z 29010KT 15SM FEW040 FEW250 28/20 A3005 RMK CU2CI1 CI TR SLP172

CYHM;2011-07-31 18:00;CYHM 311800Z 27011KT 15SM SCT048 30/20 A3004 RMK CU4 SLP168

CYHM;2011-07-31 19:00;CYHM 311900Z 26010G16KT 15SM SCT048 30/19 A3003 RMK CU4 SLP165

CYHM;2011-07-31 20:00;CYHM 312000Z 27013G19KT 15SM SCT045 30/20 A3001 RMK CU3 SLP160

CYHM;2011-07-31 21:00;CYHM 312100Z 27012G18KT 15SM SCT042 30/21 A3000 RMK CU4 TCU ASOCTD SLP156

CYHM;2011-07-31 22:00;CYHM 312200Z 27012G18KT 15SM SCT042 30/21 A3000 RMK CU3 TCU ASOCTD SLP154

CYHM;2011-07-31 23:00;CYHM 312300Z 27009KT 15SM FEW040 29/20 A2999 RMK CU2 SLP153

CYHM;2011-08-01 01:00;CYHM 010100Z 24006KT 15SM FEW040 FEW055 FEW250 26/21 A2998 RMK CU1SC1CI1 CU TR SC TR CI TR SLP149

CYHM;2011-08-01 02:00;CYHM 010200Z 23006KT 15SM FEW060 24/21 A2998 RMK SC1 SC TR SLP150

CYHM;2011-08-01 03:00;CYHM 010300Z 23005KT 15SM SKC 23/21 A2999 RMK SLP151

CYHM;2011-08-01 04:00;CYHM 010400Z 24005KT 15SM SCT054 23/21 A2999 RMK SC2 SLP152

CYHM;2011-08-01 05:00;CYHM 010500Z 23005KT 15SM TS FEW064 BKN220 23/21 A2998 RMK SC2CI2 LTNG S/W CB ASOCTD SLP150

CYHM;2011-08-01 06:00;CYHM 010600Z 24008KT 15SM FEW062 SCT100 BKN180 BKN220 23/21 A2997 RETS RMK SC1AC2AC2CI2 SLP143

CYHM;2011-08-01 07:00;CYHM 010700Z 23007KT 15SM FEW044 FEW090 SCT220 22/21 A2996 RMK SC1AC2CI2 SLP141

CYHM;2011-08-01 08:00;CYHM 010800Z 25006KT 15SM FEW042 FEW080 SCT220 22/21 A2995 RMK SC1AC2CI0 SLP139

CYHM;2011-08-01 09:00;CYHM 010900Z 27006KT 15SM FEW042 FEW078 SCT220 22/20 A2996 RMK SC1AC2CI0 SLP141

CYHM;2011-08-01 10:00;CYHM 011000Z 27006KT 12SM FEW042 FEW080 SCT220 21/20 A2996 RMK SC1AC1CI1 AC TR SLP140

CYHM;2011-08-01 11:00;CYHM 011100Z 27004KT 15SM FEW040 FEW100 SCT220 21/20 A2996 RMK SC1AC1CI2 CU ASOCTD SLP142

CYHM;2011-08-01 12:00;CYHM 011200Z 26003KT 15SM FEW045 FEW220 23/21 A2996 RMK SC1CI1 SLP141

CYHM;2011-08-01 13:00;CYHM 011300Z CCA 25006KT 15SM FEW045 FEW080 SCT220 25/21 A2998 RMK SC1AC1CI1 SC TR SLP148

CYHM;2011-08-01 14:00;CYHM 011400Z 28005KT 15SM FEW026 FEW120 FEW220 26/21 A2997 RMK CU1AC1CI1 CU TR SLP145

CYHM;2011-08-01 15:00;CYHM 011500Z 25012KT 15SM FEW032 28/21 A2996 RMK CU2 SC ASOCTD SLP140

CYHM;2011-08-01 16:00;CYHM 011600Z 25012KT 15SM SCT032 SCT038 29/22 A2994 RMK CU3SC1 SLP134

CYHM;2011-08-01 17:00;CYHM 011700Z 28010KT 15SM SCT042 SCT060 BKN078 30/21 A2991 RMK CU3SC1AC1 SLP126

CYHM;2011-08-01 18:00;CYHM 011800Z 26012G18KT 15SM SCT042 BKN075 30/21 A2991 RMK CU4AC1 TCU ASOCTD SLP124

CYHM;2011-08-01 19:00;CYHM 011900Z 27013G19KT 15SM SCT045TCU 30/20 A2990 RMK TCU4 SC ASOCTD CU ASOCTD SLP119

CYHM;2011-08-01 20:00;CYHM 012000Z 28012G20KT 15SM FEW048TCU 31/20 A2988 RMK TCU2 CU ASOCTS SLP114

CYHM;2011-08-01 21:00;CYHM 012100Z 28012G19KT 15SM FEW048TCU 30/16 A2988 RMK TCU1 CU ASOCTD SLP112

CYHM;2011-08-01 22:00;CYHM 012200Z 29010G18KT 15SM FEW052TCU 29/15 A2988 RMK TCU1 CU ASOCTD SLP113

CYHM;2011-08-01 23:00;CYHM 012300Z 28010G16KT 15SM FEW052TCU 28/15 A2988 RMK TCU1 SLP115

CYHM;2011-08-02 00:00;CYHM 020000Z 29007KT 15SM FEW050TCU 26/13 A2989 RMK TCU1 TCU TR SLP119

CYHM;2011-08-02 01:00;CYHM 020100Z 33008KT 15SM FEW050TCU FEW240 24/12 A2991 RMK TCU1CI1 TCU TR CI TR SLP126

CYHM;2011-08-02 02:00;CYHM 020200Z 30002KT 15SM FEW250 22/12 A2991 RMK CI0 SLP125

CYHM;2011-08-02 03:00;CYHM 020300Z 26004KT 15SM FEW250 20/13 A2992 RMK CI1 SLP128

CYHM;2011-08-02 04:00;CYHM 020400Z 26005KT 15SM FEW250 19/13 A2991 RMK CI1 CI TR SLP125

CYHM;2011-08-02 05:00;CYHM 020500Z 25004KT 15SM FEW250 17/13 A2990 RMK CI1 CI TR SLP122

CYHM;2011-08-02 06:00;CYHM 020600Z 25003KT 15SM SKC 17/13 A2989 RMK SLP120

CYHM;2011-08-02 07:00;CYHM 020700Z 25003KT 15SM SKC 16/13 A2989 RMK SLP118

CYHM;2011-08-02 08:00;CYHM 020800Z 26004KT 15SM FEW250 16/13 A2988 RMK CI1 CI TR SLP115

CYHM;2011-08-02 09:00;CYHM 020900Z 25003KT 15SM FEW250 14/13 A2987 RMK CI1 CI TR SLP112

CYHM;2011-08-02 10:00;CYHM 021000Z 25005KT 15SM FEW250 15/13 A2988 RMK CI1 CI TR SLP115

CYHM;2011-08-02 11:00;CYHM 021100Z 25006KT 15SM FEW220 16/13 A2989 RMK CI1 CI TR SLP118

CYHM;2011-08-02 12:00;CYHM 021200Z 27005KT 15SM FEW220 19/15 A2989 RMK CI2 SLP120

CYHM;2011-08-02 13:00;CYHM 021300Z 25005KT 15SM FEW160 BKN220 21/15 A2989 RMK AC1CI2 SLP120

CYHM;2011-08-02 14:00;CYHM 021400Z 29009KT 15SM BKN220 24/15 A2988 RMK CI4 SLP117

CYHM;2011-08-02 15:00;CYHM 021500Z 27009KT 15SM FEW160 BKN220 26/15 A2987 RMK AC2CI4 SLP113

CYHM;2011-08-02 16:00;CYHM 021600Z 28009KT 15SM BKN220 27/16 A2986 RMK CI4 SLP110

CYHM;2011-08-02 17:00;CYHM 021700Z 26004KT 15SM FEW170 BKN230 28/15 A2984 RMK AC2CI3 SLP103

CYHM;2011-08-02 18:00;CYHM 021800Z 24005KT 15SM BKN250 29/14 A2983 RMK CS4 CONTRAIL SLP097

CYHM;2011-08-02 19:00;CYHM 021900Z 26008KT 15SM FEW190 BKN250 30/16 A2981 RMK AC1CS4 SLP091

CYHM;2011-08-02 20:00;CYHM 022000Z 28009KT 15SM FEW130 BKN250 28/16 A2981 RMK AC2CS5 CONTRAILS SUN DMLY VSBL SLP091

CYHM;2011-08-02 21:00;CYHM 022100Z 27009KT 15SM FEW042 FEW130 OVC220 27/16 A2981 RMK SC1AC1CC6 SC TR SUN DMLY VSBL SLP093

CYHM;2011-08-02 22:00;CYHM 022200Z 28008KT 15SM FEW040 FEW110 SCT140 OVC220 27/17 A2980 RMK SC1AC1AC2CC5 SC TR SUN DMLY VSBL SLP089

CYHM;2011-08-02 23:00;CYHM 022300Z 25005KT 15SM FEW040 FEW120 SCT180 OVC220 26/18 A2979 RMK SC1AC1AC2CC5 SC TR SUN DMLY VSBL SLP086

CYHM;2011-08-03 00:00;CYHM 030000Z 27005KT 15SM FEW082 SCT110 BKN180 BKN220 25/16 A2979 RMK AC1AC2AC2CS2 SLP085

CYHM;2011-08-03 01:00;CYHM 030100Z 26006KT 15SM FEW048 FEW084 BKN160 OVC220 23/14 A2978 RMK SC1AC2AC4CS2 SLP081

CYHM;2011-08-03 02:00;CYHM 030200Z 27006KT 15SM FEW042 BKN100 BKN170 BKN220 22/15 A2978 RMK SC1AC4AC2CS1 SLP082

CYHM;2011-08-03 03:00;CYHM 030300Z 29004KT 15SM FEW094 BKN180 BKN210 22/15 A2978 RMK AC2AC4CS2 SLP081

CYHM;2011-08-03 04:00;CYHM 030400Z 23003KT 15SM FEW080 BKN095 OVC150 21/15 A2978 RMK AC2AC4AC2 SLP079

CYHM;2011-08-03 05:00;CYHM 030500Z 00000KT 15SM BKN074 BKN084 OVC140 21/16 A2976 RMK AC5AC2AC1 SLP074

CYHM;2011-08-03 06:00;CYHM 030600Z 26002KT 15SM BKN056 BKN075 OVC090 21/16 A2974 RMK SC6AC2AC1 SLP066

CYHM;2011-08-03 07:00;CYHM 030700Z 19003KT 15SM BKN060 OVC086 21/17 A2973 RMK SC6AC2 SLP064

CYHM;2011-08-03 08:00;CYHM 030800Z 19003KT 15SM BKN050 OVC074 20/18 A2971 RMK SC6AC2 SLP058

CYHM;2011-08-03 09:00;CYHM 030900Z 05003KT 8SM -SHRA FEW032 OVC042 20/19 A2971 RMK SF2SC6 SLP057

CYHM;2011-08-03 10:00;CYHM 031000Z 06005KT 4SM -SHRA BR BKN026 OVC042 20/19 A2971 RMK SC6SC2 SLP057

CYHM;2011-08-03 10:42;CYHM 031042Z 07005KT 1 1/2SM -SHRA BR BKN002 BKN015 OVC075 RMK FG2SF3SC2AC1

CYHM;2011-08-03 10:53;CYHM 031053Z CCA 08008KT 1SM BR OVC002 RMK FG4SF4

CYHM;2011-08-03 11:00;CYHM 031100Z 08005KT 1SM BR BKN002 OVC010 20/20 A2970 RMK FG3SF3SC2 SLP054

CYHM;2011-08-03 11:49;CYHM 031149Z 05006KT 2SM BR FEW002 SCT019 BKN092 RMK FG1SF2SC2AC3

CYHM;2011-08-03 12:00;CYHM 031200Z 04006KT 2SM BR FEW002 BKN008 BKN120 20/20 A2969 RMK FG1SF2SC3AC2 SLP051

CYHM;2011-08-03 13:00;CYHM 031300Z 04005KT 3SM BR BKN006 OVC019 22/21 A2968 RMK SF6SC2 SLP048

CYHM;2011-08-03 14:00;CYHM 031400Z 06009KT 10SM BKN013 BKN019 OVC035 23/21 A2967 RMK SC5SC2SC1 SLP043

CYHM;2011-08-03 15:00;CYHM 031500Z 20008KT 10SM BKN011 OVC035 24/21 A2965 RMK SC6SC2 SLP039

CYHM;2011-08-03 16:00;CYHM 031600Z 22006KT 5SM HZ BKN012 OVC032 24/22 A2966 RMK SC6SC2 CU ASOCTD SLP040

CYHM;2011-08-03 17:00;CYHM 031700Z 29002KT 4SM -SHRA BR BKN012 OVC018 23/21 A2967 RMK SC6SC2 SLP043

CYHM;2011-08-03 17:14;CYHM 031714Z 04004KT 1 1/2SM -SHRA BR BKN010 OVC028 RMK FG2SF5SC2

CYHM;2011-08-03 17:34;CYHM 031734Z 08003KT 1/2SM SHRA FG BKN006 OVC020 RMK FG4SF3SC1

CYHM;2011-08-03 17:44;CYHM 031744Z CCA 07004KT 1 1/2SM -SHRA BR FEW006 BKN024 OVC034 RMK FG1SF2SC4SC2 RERA

CYHM;2011-08-03 18:00;CYHM 031800Z 08004KT 1 1/2SM -SHRA BR BKN006 OVC018 22/21 A2966 RMK FG2SF5SC2 SLP042

CYHM;2011-08-03 18:12;CYHM 031812Z 02005KT 1 1/2SM -SHRA BR BKN004 OVC009 RMK FG2SF4SC2

CYHM;2011-08-03 18:42;CYHM 031842Z 05007KT 2SM -SHRA BR SCT004 OVC010 RMK FG1SF3SC4

CYHM;2011-08-03 19:00;CYHM 031900Z 04006KT 1SM -SHRA BR SCT007 OVC041 22/22 A2966 RMK FG2SF2SC4 VIS VRB 3/4 - 11/4 SLP042

CYHM;2011-08-03 20:00;CYHM 032000Z 04010KT 3SM BR OVC005 22/22 A2966 RMK SF8 VIS VRB 2 - 4 CIG RAG SLP042

CYHM;2011-08-03 20:33;CYHM 032033Z 04013KT 1SM BR OVC002 RMK FG2SF6 VIS VRB 3/4 - 11/4

CYHM;2011-08-03 21:00;CYHM 032100Z 04010G17KT 1/2SM -RA FG VV002 20/20 A2967 RMK FG8 SLP046

CYHM;2011-08-03 22:00;CYHM 032200Z 02012G17KT 1 1/2SM -RA BR OVC003 20/20 A2970 RMK FG2SF6 VIS VRB 1 - 2 SLP054

CYHM;2011-08-03 23:00;CYHM 032300Z 04013G22KT 2 1/2SM -RA BR OVC005 19/18 A2972 RMK SF8 CIG RAG SLP062

CYHM;2011-08-03 23:34;CYHM 032334Z 04017KT 1 1/2SM -RA BR OVC002 RMK FG2SF6 VIS VRB 1 - 2

CYHM;2011-08-04 00:00;CYHM 040000Z 04014G21KT 1 1/2SM -RA BR OVC002 19/18 A2974 RMK FG2SF6 VIS VRB 1 - 2 SLP070

CYHM;2011-08-04 01:00;CYHM 040100Z 03017G24KT 1 1/2SM -RA BR OVC004 18/17 A2977 RMK FG2SF6 VIS VRB 1 - 2 SLP078

CYHM;2011-08-04 01:11;CYHM 040111Z 03020KT 1 1/2SM -RA BR OVC007 RMK FG2SF6 VIS VRB 1 - 2

CYHM;2011-08-04 01:22;CYHM 040122Z 03017G24KT 1 1/2SM -RA BR OVC004 RMK FG2SF6 VIS VRB 1 - 2

CYHM;2011-08-04 02:00;CYHM 040200Z 03015KT 1 1/2SM -RA BR OVC005 17/17 A2979 RMK FG2SF6 VIS VRB 1 - 2 CIG RAG SLP087

CYHM;2011-08-04 03:00;CYHM 040300Z 04013G21KT 2 1/2SM -RA BR OVC006 18/18 A2981 RMK SF8 CIG RAG SLP092

CYHM;2011-08-04 03:24;CYHM 040324Z 03011G16KT 1 1/2SM -RA BR OVC003 RMK FG2SF6 VIS VRB 1 - 2

CYHM;2011-08-04 04:00;CYHM 040400Z 04011KT 4SM -RA BR OVC003 18/18 A2982 RMK SF8 SLP096

CYHM;2011-08-04 04:25;CYHM 040425Z 03010KT 15SM -RA OVC009 RMK SC8

CYHM;2011-08-04 05:00;CYHM 040500Z 02008KT 15SM FEW009 OVC013 18/17 A2983 RMK SC1SC7 SLP098

CYHM;2011-08-04 06:00;CYHM 040600Z 01006KT 15SM OVC015 18/17 A2985 RMK SC8 MAMMA SLP106

CYHM;2011-08-04 07:00;CYHM 040700Z 01006KT 15SM FEW025 BKN037 18/16 A2985 RMK SC2SC4 SLP108

CYHM;2011-08-04 08:00;CYHM 040800Z 03006KT 15SM BKN016 BKN033 18/17 A2986 RMK SC5SC2 SLP110

CYHM;2011-08-04 09:00;CYHM 040900Z 02005KT 15SM OVC018 18/17 A2988 RMK SC8 SLP116

CYHM;2011-08-04 10:00;CYHM 041000Z 01007KT 15SM FEW011 BKN018 18/17 A2991 RMK CF2SC6 SLP127

CYHM;2011-08-04 11:00;CYHM 041100Z 35006KT 15SM BKN018 18/17 A2995 RMK SC6 SLP141

CYHM;2011-08-04 12:00;CYHM 041200Z 13007KT 15SM FEW013 BKN020 BKN075 18/17 A2997 RMK CU2SC3AC1 SLP147

CYHM;2011-08-04 13:00;CYHM 041300Z 34008KT 15SM FEW016 BKN022 20/17 A2997 RMK CU2SC4 SLP148

CYHM;2011-08-04 14:00;CYHM 041400Z 06009KT 15SM FEW012 BKN015 20/18 A2997 RMK CU2SC5 SLP148

CYHM;2011-08-04 15:00;CYHM 041500Z 06009KT 15SM SCT015 SCT025 21/18 A2997 RMK CU3SC1 SLP149

CYHM;2011-08-04 16:00;CYHM 041600Z 03009KT 15SM FEW020 23/18 A2999 RMK CU2 SLP155

CYHM;2011-08-04 17:00;CYHM 041700Z 03009KT 15SM FEW025 23/18 A3000 RMK CU2 SLP158

CYHM;2011-08-04 18:00;CYHM 041800Z 04006KT 15SM FEW025 24/18 A3001 RMK CU1 SLP159

CYHM;2011-08-04 19:00;CYHM 041900Z 05008KT 15SM FEW032 FEW250 25/17 A3001 RMK CU1CI1 CI TR SLP160

CYHM;2011-08-04 20:00;CYHM 042000Z 05010KT 15SM FEW040 FEW250 25/15 A3001 RMK CU1CI1 BOTH LYRS TR SLP160

CYHM;2011-08-04 21:00;CYHM 042100Z 04008KT 15SM FEW040 FEW250 25/16 A3001 RMK CU1CI1 BOTH LYRS TR SLP158

CYHM;2011-08-04 22:00;CYHM 042200Z 07008KT 15SM FEW040 FEW250 25/15 A3000 RMK CU1CI1 CU TR SLP157

CYHM;2011-08-04 23:00;CYHM 042300Z 07008KT 15SM FEW250 25/15 A3001 RMK CI1 SLP159

CYHM;2011-08-05 00:00;CYHM 050000Z 07005KT 15SM SCT250 23/16 A3001 RMK CI2 CONTRAILS SLP162

CYHM;2011-08-05 01:00;CYHM 050100Z 06004KT 15SM FEW250 21/15 A3002 RMK CI2 SLP163

CYHM;2011-08-05 02:00;CYHM 050200Z 04005KT 15SM FEW250 20/15 A3001 RMK CI1 SLP162

CYHM;2011-08-05 03:00;CYHM 050300Z 04004KT 15SM FEW250 19/15 A3001 RMK CI1 SLP162

CYHM;2011-08-05 04:00;CYHM 050400Z 03005KT 15SM FEW250 18/16 A3002 RMK CI1 SLP165

CYHM;2011-08-05 05:00;CYHM 050500Z 03004KT 15SM FEW220 18/16 A3003 RMK CI1 SLP167

CYHM;2011-08-05 06:00;CYHM 050600Z 03004KT 15SM FEW220 18/17 A3004 RMK CI1 SLP171

CYHM;2011-08-05 07:00;CYHM 050700Z 03005KT 15SM SKC 18/16 A3004 RMK SLP170

CYHM;2011-08-05 08:00;CYHM 050800Z 03006KT 15SM FEW220 18/16 A3004 RMK CI1 SLP169

CYHM;2011-08-05 09:00;CYHM 050900Z 03006KT 15SM FEW240 17/16 A3003 RMK CI2 SLP168

CYHM;2011-08-05 10:00;CYHM 051000Z 03007KT 15SM SCT240 18/17 A3003 RMK CC2 SLP168

CYHM;2011-08-05 11:00;CYHM 051100Z 04006KT 15SM FEW120 BKN230 19/17 A3004 RMK AC2CI2 SLP172

CYHM;2011-08-05 12:00;CYHM 051200Z 04007KT 15SM FEW047 FEW120 BKN220 20/18 A3006 RMK SC1AC2CI4 SLP176

CYHM;2011-08-05 13:00;CYHM 051300Z 05011KT 15SM BKN048 BKN110 BKN220 21/18 A3007 RMK SC5AC2CI1 SLP179

CYHM;2011-08-05 14:00;CYHM 051400Z 08009KT 15SM FEW045 FEW150 BKN220 23/17 A3007 RMK SC1AC2CI2 SLP179

CYHM;2011-08-05 15:00;CYHM 051500Z 05011KT 15SM FEW025 FEW140 SCT220 24/17 A3006 RMK CU1AC1CI2 CU TR SLP178

CYHM;2011-08-05 16:00;CYHM 051600Z 05011KT 15SM FEW025 FEW150 SCT220 25/19 A3006 RMK CU1AC1CI2 SLP176

CYHM;2011-08-05 17:00;CYHM 051700Z 05010KT 15SM FEW030 SCT110 BKN210 25/19 A3006 RMK CU1AC3CI2 SLP176

CYHM;2011-08-05 18:00;CYHM 051800Z 04012KT 15SM FEW025 FEW055 SCT110 BKN210 25/19 A3005 RMK CU1SC2AC2CI3 SLP174

CYHM;2011-08-05 19:00;CYHM 051900Z 04012KT 15SM FEW030 BKN110 BKN210 25/19 A3004 RMK CU1AC5CI1 SLP169

CYHM;2011-08-05 20:00;CYHM 052000Z 03011KT 15SM FEW035 BKN140 BKN210 26/20 A3003 RMK CU1AC4CI2 SLP166

CYHM;2011-08-05 21:00;CYHM 052100Z 06012KT 15SM FEW040 SCT140 BKN230 25/19 A3002 RMK CU1AC3CI2 TR CU SLP164

CYHM;2011-08-05 22:00;CYHM 052200Z 05008KT 15SM FEW040 BKN150 BKN210 24/19 A3001 RMK CU1AC5CI1 TR CU SLP161

CYHM;2011-08-05 23:00;CYHM 052300Z 04011KT 15SM FEW035 BKN140 BKN230 23/19 A3001 RMK CU1AC6CI1 TR CU SLP159

CYHM;2011-08-06 00:00;CYHM 060000Z 05009KT 15SM BKN130 BKN200 22/19 A3000 RMK AC5CI1 SLP158

CYHM;2011-08-06 01:00;CYHM 060100Z 04007KT 15SM SCT120 BKN200 22/19 A3000 RMK AC4CI2 SLP157

CYHM;2011-08-06 02:00;CYHM 060200Z 04007KT 15SM FEW120 FEW200 21/19 A2999 RMK AC1CI1 SLP154

CYHM;2011-08-06 03:00;CYHM 060300Z 05008KT 15SM FEW200 21/19 A2999 RMK CI1 SLP153

CYHM;2011-08-06 04:00;CYHM 060400Z 04006KT 15SM FEW210 21/19 A2999 RMK CI2 SLP154

CYHM;2011-08-06 05:00;CYHM 060500Z 03006KT 15SM BKN170 21/20 A2998 RMK AC6 SLP149

CYHM;2011-08-06 06:00;CYHM 060600Z 04005KT 15SM OVC160 21/20 A2996 RMK AC8 SLP143

CYHM;2011-08-06 07:00;CYHM 060700Z 02005KT 15SM OVC170 21/20 A2996 RMK AC8 SLP141

CYHM;2011-08-06 08:00;CYHM 060800Z 04006KT 10SM FEW090 OVC170 21/20 A2995 RMK AC1AC7 SLP139

CYHM;2011-08-06 09:00;CYHM 060900Z 05006KT 10SM OVC095 21/20 A2995 RMK AC8 SLP138

CYHM;2011-08-06 10:00;CYHM 061000Z 05006KT 8SM BKN100 OVC210 20/19 A2994 RMK AC6CI2 SLP134

CYHM;2011-08-06 11:00;CYHM 061100Z 04005KT 15SM FEW100 BKN180 20/19 A2993 RMK AC2AC6 SLP132

CYHM;2011-08-06 12:00;CYHM 061200Z 03007KT 15SM BKN180 BKN230 21/18 A2992 RMK AC5CI2 SLP131

CYHM;2011-08-06 13:00;CYHM 061300Z 05007KT 12SM BKN083 OVC180 22/19 A2991 RMK AC6AC2 SLP128

CYHM;2011-08-06 14:00;CYHM 061400Z 07005KT 10SM BKN078 BKN220 23/20 A2993 RMK AC6CI1 SLP132

CYHM;2011-08-06 15:00;CYHM 061500Z 08006KT 10SM SCT013 BKN070 25/21 A2992 RMK SC4AC3 SLP128

CYHM;2011-08-06 16:00;CYHM 061600Z 09005KT 15SM FEW016 BKN072 BKN230 25/21 A2991 RMK SC2AC4CI1 SLP125

CYHM;2011-08-06 17:00;CYHM 061700Z 01003KT 12SM FEW020 SCT053 OVC140 26/21 A2990 RMK SC2SC2AC4 SLP121

CYHM;2011-08-06 18:00;CYHM 061800Z 35004KT 10SM FEW020 BKN130 27/22 A2988 RMK CU2AC5 TCU ASOCTD SLP113

CYHM;2011-08-06 19:00;CYHM 061900Z 14005KT 10SM SCT024TCU BKN140 27/22 A2986 RMK TCU4AC2 SLP108

CYHM;2011-08-06 19:38;CYHM 061938Z 12009KT 10SM TS SCT024TCU BKN040 RMK TCU4SC3 CB EMBD

CYHM;2011-08-06 19:50;CYHM 061950Z 16011KT 8SM -TSRA FEW015 BKN027 BKN060 RMK CF2SC4SC2 CB EMBD

CYHM;2011-08-06 20:00;CYHM 062000Z 18014KT 3SM -TSRA FEW015 BKN025 OVC062 23/20 A2985 RMK SF2SC4SC2 CB EMBD SLP106

CYHM;2011-08-06 20:08;CYHM 062008Z 17013KT 2 1/2SM +TSRA FEW015 BKN028 OVC045 RMK FG1SF2SC4SC2 CB EMBD

CYHM;2011-08-06 20:30;CYHM 062030Z 05006KT 4SM -SHRA BR FEW015 BKN028 OVC045 RETSRA RMK SF2SC4SC2

CYHM;2011-08-06 21:00;CYHM 062100Z CCA 04005KT 5SM BR FEW015 SCT028 BKN045 BKN075 23/21 A2984 RETSRA RMK CF1SC2SC2AC2 SLP102

CYHM;2011-08-06 22:00;CYHM 062200Z 11003KT 7SM SCT040 BKN082 BKN150 24/21 A2983 RMK SC3AC2AC2 SLP098

CYHM;2011-08-06 22:56;CYHM 062256Z 10003KT 6SM -SHRA BR SCT040 BKN080 BKN150 RMK SC3AC2AC2

CYHM;2011-08-06 23:00;CYHM 062300Z 11002KT 5SM -SHRA BR SCT040 BKN080 BKN150 24/23 A2981 RMK SC3AC2AC2 SLP094

CYHM;2011-08-07 00:00;CYHM 070000Z 04004KT 3SM BR OVC130 23/23 A2981 RMK AC8 VIS VRB 2 - 4 SLP090

CYHM;2011-08-07 01:00;CYHM 070100Z 03003KT 4SM BR FEW023 SCT150 BKN210 23/22 A2981 RMK SC1AC2CI4 SLP092

CYHM;2011-08-07 02:00;CYHM 070200Z 04004KT 5SM BR FEW010 OVC110 22/22 A2981 RMK CF2AC6 SLP093

CYHM;2011-08-07 03:00;CYHM 070300Z 05002KT 6SM BR OVC100 23/22 A2981 RMK AC8 SLP092

CYHM;2011-08-07 04:00;CYHM 070400Z 06004KT 4SM BR OVC099 22/22 A2979 RMK AC8 SLP084

CYHM;2011-08-07 05:00;CYHM 070500Z 03003KT 3SM BR FEW090 OVC110 22/22 A2978 RMK AC1AC7 VIS VRB 2 - 4 SLP081

CYHM;2011-08-07 06:00;CYHM 070600Z 00000KT 1 1/2SM BR OVC092 22/22 A2976 RMK FG2AC6 VIS VRB 1 - 2 SLP075

CYHM;2011-08-07 07:00;CYHM 070700Z 13003KT 3SM BR FEW020 OVC080 22/22 A2974 RMK SC2AC6 VIS VRB 2 - 4 SLP068

CYHM;2011-08-07 08:00;CYHM 070800Z 00000KT 1 1/2SM BR SCT008 OVC013 22/22 A2973 RMK FG2SF2SC4 VIS VRB 1 - 2 SLP065

CYHM;2011-08-07 09:00;CYHM 070900Z 09002KT 3SM BR FEW008 OVC084 22/22 A2972 RMK SF2AC6 VIS VRB 2 - 4 SLP063

CYHM;2011-08-07 10:00;CYHM 071000Z 08003KT 1 1/2SM BR OVC050 22/22 A2972 RMK FG2SC6 VIS VRB 1 - 2 SLP061

CYHM;2011-08-07 10:02;CYHM 071002Z 08004KT 1 1/2SM BR SCT003 OVC051 RMK FG2SF2SC5 VIS VRB 1 - 2

CYHM;2011-08-07 10:11;CYHM 071011Z 09002KT 1SM -RA BR OVC003 RMK FG2SF6 VIS VRB 3/4 - 11/4

CYHM;2011-08-07 10:39;CYHM 071039Z 35002KT 1SM -RA BR SCT003 OVC057 RMK FG2SF2SC4 PCPN VRY LGT

CYHM;2011-08-07 11:00;CYHM 071100Z 02004KT 1SM BR SCT002 BKN061 22/22 A2971 RMK FG2SF2SC3 VIS VRB 3/4 - 11/4 SLP058

CYHM;2011-08-07 12:00;CYHM 071200Z CCA 00000KT 1 1/4SM BR SCT021 OVC060 23/22 A2971 RMK FG2SF2SC4 VIS VRB 3/4 - 13/4 SLP059

CYHM;2011-08-07 12:44;CYHM 071244Z 00000KT 2SM BR BKN006 OVC010 RMK FG2SF4SC2

CYHM;2011-08-07 13:00;CYHM 071300Z 19002KT 3SM BR SCT006 OVC010 24/22 A2971 RMK FG2SF2SC4 SLP057

CYHM;2011-08-07 14:00;CYHM 071400Z 17003KT 3SM BR BKN010 OVC030 24/23 A2970 RMK FG2SF4SC2 SLP053

CYHM;2011-08-07 15:00;CYHM 071500Z 29003KT 1 1/2SM HZ SCT025 OVC045 25/23 A2969 RMK FG2CU2SC4 SLP050

CYHM;2011-08-07 16:00;CYHM 071600Z 31005KT 3SM HZ FEW018 SCT035TCU OVC045 26/23 A2968 RMK CU2TCU2SC4 SLP048

CYHM;2011-08-07 17:00;CYHM 071700Z CCA 30007KT 3SM HZ SCT030 BKN035 OVC050 27/22 A2967 RMK CU3SC2SC2 TCU ASOCTD SLP044

CYHM;2011-08-07 18:00;CYHM 071800Z 29012KT 6SM HZ SCT035TCU BKN045 28/22 A2965 RMK TCU3SC3 SLP038

CYHM;2011-08-07 19:00;CYHM 071900Z 30009KT 8SM SCT034 BKN043 28/22 A2965 RMK CU4SC2 TCU ASOCTD SLP038

CYHM;2011-08-07 20:00;CYHM 072000Z CCA 28008KT 12SM SCT032 BKN049 BKN190 28/22 A2964 RMK CU3SC2AC1 TCU ASOCTD SLP032

CYHM;2011-08-07 21:00;CYHM 072100Z 27011KT 15SM FEW035 SCT180 SCT250 28/21 A2964 RMK CU2AC1CI0 SLP031

CYHM;2011-08-07 22:00;CYHM 072200Z 26010G17KT 15SM FEW032TCU SCT180 SCT250 28/20 A2963 RMK TCU1AC2CI1 SLP030

CYHM;2011-08-07 23:00;CYHM 072300Z 26009G15KT 15SM FEW030TCU SCT130 BKN180 26/19 A2965 RMK TCU1AC2AC4 SLP035

CYHM;2011-08-08 00:00;CYHM 080000Z 27008KT 12SM FEW030TCU BKN140 25/20 A2965 RMK TCU1AC6 SLP035

CYHM;2011-08-08 01:00;CYHM 080100Z 26006KT 12SM FEW030TCU FEW130 BKN180 24/21 A2965 RMK TCU1AC2AC5 TCU TR SLP036

CYHM;2011-08-08 02:00;CYHM 080200Z 24004KT 12SM SCT170 BKN210 22/21 A2967 RMK AC4CI2 SLP043

CYHM;2011-08-08 03:00;CYHM 080300Z 25005KT 8SM FEW026 FEW180 SCT240 22/21 A2966 RMK SC1AC2CI1 SC TR SLP041

CYHM;2011-08-08 04:00;CYHM 080400Z 28005KT 9SM FEW024 SCT092 BKN240 21/21 A2968 RMK SC1AC2CI1 SLP045

CYHM;2011-08-08 05:00;CYHM 080500Z 24005KT 10SM FEW024 SCT090 BKN240 21/20 A2967 RMK SC1AC2CI2 SLP043

CYHM;2011-08-08 06:00;CYHM 080600Z 29004KT 12SM FEW160 SCT240 20/20 A2966 RMK AC1CI2 SLP041

CYHM;2011-08-08 07:00;CYHM 080700Z 28003KT 15SM FEW180 SCT240 20/19 A2966 RMK AC1CI1 SLP041

CYHM;2011-08-08 08:00;CYHM 080800Z 32003KT 10SM FEW074 FEW240 19/18 A2967 RMK AC1CI1 SLP043

CYHM;2011-08-08 09:00;CYHM 080900Z 36003KT 12SM FEW180 BKN250 19/18 A2968 RMK AC1CI2 AC TR SLP046

CYHM;2011-08-08 10:00;CYHM 081000Z 10004KT 8SM FEW015 FEW250 19/18 A2968 RMK SC2CI1 CI TR SLP048

CYHM;2011-08-08 11:00;CYHM 081100Z CCA 35004KT 10SM FEW018 FEW210 19/18 A2970 RMK SC1CI1 TR CU ASOCTD SLP053

CYHM;2011-08-08 12:00;CYHM 081200Z 01008KT 15SM FEW016 20/19 A2971 RMK CU1 SLP058

CYHM;2011-08-08 13:00;CYHM 081300Z 05008KT 15SM BKN017 BKN020 22/19 A2972 RMK CU5SC1 SLP061

CYHM;2011-08-08 14:00;CYHM 081400Z 28006KT 15SM SCT016 BKN020 23/19 A2973 RMK CU3SC2 SLP063

CYHM;2011-08-08 15:00;CYHM 081500Z 05007KT 15SM SCT020 BKN028 24/19 A2972 RMK CU3SC2 SLP062

CYHM;2011-08-08 16:00;CYHM 081600Z 02005KT 15SM FEW025 SCT042 24/19 A2975 RMK CU2SC2 TCU ASOCTD SLP069

CYHM;2011-08-08 17:00;CYHM 081700Z 05004KT 15SM SCT032 BKN048 BKN057 24/18 A2974 RMK CU3SC2SC2 SLP067

CYHM;2011-08-08 18:00;CYHM 081800Z 04008KT 15SM SCT032 BKN043 BKN082 25/19 A2973 RMK CU3SC2AC1 SLP065

CYHM;2011-08-08 19:00;CYHM 081900Z 05007KT 15SM BKN034TCU BKN110 26/19 A2972 RMK TCU6AC1 CU ASOCTD AC TR SLP062

CYHM;2011-08-08 20:00;CYHM 082000Z 04006KT 15SM FEW034TCU BKN076 25/18 A2972 RMK TCU2AC4 CU ASOCTD SLP061

CYHM;2011-08-08 21:00;CYHM 082100Z 06005KT 15SM FEW038TCU SCT082 SCT250 26/17 A2971 RMK TCU1AC2CI0 SLP058

CYHM;2011-08-08 22:00;CYHM 082200Z 06005KT 15SM FEW044TCU FEW090 SCT250 26/17 A2969 RMK TCU1AC1CI1 CU ASOCTD SLP052

CYHM;2011-08-08 23:00;CYHM 082300Z 10006KT 15SM SCT048 SCT180 BKN250 25/17 A2970 RMK SC3AC1CI0 SLP053

CYHM;2011-08-09 00:00;CYHM 090000Z 10006KT 15SM BKN056 BKN094 BKN250 24/17 A2970 RMK SC5AC1CI1 SLP053

CYHM;2011-08-09 01:00;CYHM 090100Z 13003KT 15SM SCT054 SCT084 BKN250 23/17 A2970 RMK SC3AC1CI1 AC TR SLP055

CYHM;2011-08-09 02:00;CYHM 090200Z 10005KT 15SM FEW054 SCT084 BKN250 22/17 A2972 RMK SC2AC1CI1 SLP060

CYHM;2011-08-09 03:00;CYHM 090300Z 06004KT 15SM FEW058 FEW084 BKN250 21/17 A2969 RMK SC2AC1CI1 SLP052

CYHM;2011-08-09 04:00;CYHM 090400Z 09004KT 15SM BKN058 BKN084 21/17 A2969 RMK SC6AC1 SLP051

CYHM;2011-08-09 05:00;CYHM 090500Z 04004KT 15SM FEW058 SCT094 BKN230 21/17 A2968 RMK SC2AC2CS3 SLP047

CYHM;2011-08-09 06:00;CYHM 090600Z 05003KT 15SM FEW062 SCT084 BKN220 20/17 A2966 RMK SC2AC2CS2 SLP040

CYHM;2011-08-09 07:00;CYHM 090700Z 04003KT 15SM BKN088 BKN220 20/17 A2964 RMK AC5CI1 SLP033

CYHM;2011-08-09 08:00;CYHM 090800Z 04004KT 15SM OVC082 20/18 A2963 RMK AC8 SLP030

CYHM;2011-08-09 09:00;CYHM 090900Z 05007KT 15SM -SHRA FEW084 OVC120 20/18 A2959 RMK AC2AC6 SLP016

CYHM;2011-08-09 10:00;CYHM 091000Z 04007KT 15SM -SHRA FEW084 OVC110 20/19 A2956 RMK AC2AC6 SLP008

CYHM;2011-08-09 11:00;CYHM 091100Z 08005KT 5SM -SHRA FEW035 OVC091 20/19 A2960 RMK SC2AC6 SLP019

CYHM;2011-08-09 12:00;CYHM 091200Z 03006KT 3SM -SHRA BR SCT028 BKN039 OVC068 20/20 A2955 RMK SC4SC3AC1 CU ASOCTD SLP003

CYHM;2011-08-09 12:27;CYHM 091227Z 02003KT 1 1/2SM SHRA BR BKN009 OVC020 RMK FG1SF6SC2

CYHM;2011-08-09 13:00;CYHM 091300Z 06010KT 1/2SM TSRA FG BKN006 OVC010 20/19 A2954 RMK FG3SF3SC2 CB EMBD SLP001

CYHM;2011-08-09 13:08;CYHM 091308Z 02010KT 1SM +TSRA BR BKN011 OVC028 RMK FG2SF3SC2 CB EMBD

CYHM;2011-08-09 13:15;CYHM 091315Z 01002KT 1SM TSRA BR BKN006 OVC020 RMK FG2SF3SC2 CB EMBD RERA

CYHM;2011-08-09 13:20;CYHM 091320Z CCA 24003KT 1 1/2SM SHRA BR BKN011 OVC021 RMK FG2SF5SC2 RETS

CYHM;2011-08-09 13:33;CYHM 091333Z 04009KT 2SM -SHRA BR SCT006 BKN021 OVC041 RMK FG1SF3SC2SC2 RERA

CYHM;2011-08-09 13:52;CYHM 091352Z 04005KT 1SM SHRA BR BKN008 OVC023 RMK FG2SF4SC2

CYHM;2011-08-09 14:00;CYHM 091400Z 03009KT 1 1/2SM SHRA BR BKN011 OVC027 19/19 A2952 RMK FG1SF4SC3 SLP992

CYHM;2011-08-09 14:10;CYHM 091410Z CCA 31007KT 3SM -SHRA BR BKN005 OVC020 RMK SF5SC3 RERA

CYHM;2011-08-09 15:00;CYHM 091500Z 32003KT 4SM -SHRA BR BKN040 OVC062 20/19 A2955 RMK SC6SC2 CU ASOCTD SLP003

CYHM;2011-08-09 16:00;CYHM 091600Z 08002KT 6SM -SHRA BR FEW015 BKN021 OVC042 20/19 A2954 RMK CF2SC5SC2 SLP002

CYHM;2011-08-09 16:55;CYHM 091655Z 19002KT 8SM BKN013 OVC038 RMK SC6SC2

CYHM;2011-08-09 17:00;CYHM 091700Z 18003KT 10SM FEW011 BKN020 OVC042 21/19 A2954 RMK CF2SC4SC2 SLP000

CYHM;2011-08-09 18:00;CYHM 091800Z 02004KT 15SM SCT014 BKN025 BKN038 BKN110 22/19 A2953 RMK CU3SC2SC2AC1 SLP997

CYHM;2011-08-09 19:00;CYHM 091900Z 31008KT 15SM FEW015 BKN064 24/20 A2953 RMK SC2SC4 SF ASOCTD TCU EMBDD SLP998

CYHM;2011-08-09 20:00;CYHM 092000Z 32010KT 15SM BKN022 BKN120 24/20 A2954 RMK SC6AC1 SF ASOCTD TCU EMBDD AC TR SLP001

CYHM;2011-08-09 21:00;CYHM 092100Z 35009KT 15SM BKN032 24/17 A2954 RMK SC5 TCU EMBDD SF ASOCTD SLP001

CYHM;2011-08-09 22:00;CYHM 092200Z 30006KT 15SM SCT034 SCT090 25/18 A2955 RMK SC3AC1 TCU ASOCTD SLP002

CYHM;2011-08-09 23:00;CYHM 092300Z 29005KT 15SM FEW038 SCT056TCU BKN250 25/17 A2955 RMK SC2TCU2CI1 SLP005

CYHM;2011-08-10 00:00;CYHM 100000Z 24004KT 15SM FEW044 BKN250 23/17 A2956 RMK SC2CI2 TCU EMBDD SLP006

CYHM;2011-08-10 01:00;CYHM 100100Z 23003KT 15SM FEW042 BKN250 21/17 A2955 RMK SC2CI2 TCU ASOCTD SLP005

CYHM;2011-08-10 02:00;CYHM 100200Z 21003KT 15SM FEW042 BKN100 BKN250 20/17 A2955 RMK SC1AC4CI1 SLP005

CYHM;2011-08-10 03:00;CYHM 100300Z 21004KT 15SM FEW034 SCT064 BKN100 BKN250 19/18 A2955 RMK SC1SC2AC2CI0 LTNG S-S/E SLP006

CYHM;2011-08-10 04:00;CYHM 100400Z 28006KT 15SM TS FEW032 SCT096 BKN230 19/17 A2955 RMK SC2AC2CI1 LTNG CB ASOCTD SLP003

CYHM;2011-08-10 05:00;CYHM 100500Z 23004KT 15SM TS FEW040 FEW082 BKN230 17/16 A2955 RMK SC1AC2CI1 LTNG CB ASOCTD SLP005

CYHM;2011-08-10 06:00;CYHM 100600Z 24005KT 15SM BKN250 17/16 A2956 RETS RMK CI2 SLP007

CYHM;2011-08-10 07:00;CYHM 100700Z 25006KT 15SM FEW250 18/17 A2957 RMK CI1 SLP010

CYHM;2011-08-10 08:00;CYHM 100800Z 24006KT 15SM FEW250 17/16 A2958 RMK CI1 CI TR SLP013

CYHM;2011-08-10 09:00;CYHM 100900Z 25005KT 15SM FEW070 17/16 A2958 RMK AC2 SLP015

CYHM;2011-08-10 10:00;CYHM 101000Z 24006KT 15SM FEW024 FEW080 17/16 A2959 RMK SC1AC1 SC TR SLP017

CYHM;2011-08-10 11:00;CYHM 101100Z 22006KT 15SM FEW020 FEW100 16/16 A2959 RMK SC1AC1 CU TR SLP019

CYHM;2011-08-10 12:00;CYHM 101200Z 25009KT 15SM FEW025 FEW100 18/16 A2960 RMK SC1AC1 SLP021

CYHM;2011-08-10 13:00;CYHM 101300Z 25010KT 15SM FEW020 FEW085 20/17 A2959 RMK CU1AC1 SC ASOCTD SLP019

CYHM;2011-08-10 14:00;CYHM 101400Z 27010KT 15SM BKN022 BKN027 21/17 A2960 RMK CU6SC2 SLP022

CYHM;2011-08-10 15:00;CYHM 101500Z 27011G21KT 15SM SCT025 BKN035 BKN110 22/17 A2961 RMK CU3SC2AC1 SLP023

CYHM;2011-08-10 16:00;CYHM 101600Z 25016G22KT 15SM FEW032 BKN038 BKN045 BKN080 23/15 A2962 RMK CU2SC2SC1AC1 SLP027

CYHM;2011-08-10 17:00;CYHM 101700Z 29014G25KT 15SM FEW028 BKN038 BKN054 21/15 A2964 RMK CU2SC3SC2 SLP035

CYHM;2011-08-10 18:00;CYHM 101800Z 30016G25KT 15SM FEW034 SCT042 BKN068 23/16 A2965 RMK CU2SC2AC2 SLP038

CYHM;2011-08-10 19:00;CYHM 101900Z 28015G26KT 15SM FEW040 FEW090 23/13 A2966 RMK CU2AC1 SLP041

CYHM;2011-08-10 20:00;CYHM 102000Z 28017G26KT 15SM FEW050 FEW070 23/11 A2966 RMK CU2AC1 FEW TCU SLP042

CYHM;2011-08-10 21:00;CYHM 102100Z 28013G22KT 15SM FEW050 23/12 A2968 RMK CU2 FEW TCU SLP048

CYHM;2011-08-10 22:00;CYHM 102200Z 27017G27KT 15SM FEW040 FEW080 21/12 A2970 RMK CU2AC1 SLP056

CYHM;2011-08-10 23:00;CYHM 102300Z 27010G18KT 15SM FEW037 FEW078 21/12 A2972 RMK CU2AC1 FEW TCU SLP063

CYHM;2011-08-11 00:00;CYHM 110000Z 27008G16KT 15SM FEW035 FEW048 19/12 A2974 RMK CU1SC2 SLP071

CYHM;2011-08-11 01:00;CYHM 110100Z 24005KT 15SM FEW035 17/10 A2976 RMK SC1 SLP076

CYHM;2011-08-11 02:00;CYHM 110200Z 25006KT 15SM FEW030 16/10 A2978 RMK SC1 SLP082

CYHM;2011-08-11 03:00;CYHM 110300Z 26007KT 15SM FEW030 16/10 A2978 RMK SC1 SLP084

CYHM;2011-08-11 04:00;CYHM 110400Z 26005KT 15SM FEW030 15/11 A2979 RMK SC1 SLP088

CYHM;2011-08-11 05:00;CYHM 110500Z 24004KT 15SM FEW025 13/11 A2980 RMK SC1 SLP089

CYHM;2011-08-11 06:00;CYHM 110600Z 28005KT 15SM FEW070 14/11 A2980 RMK AC2 SLP089

CYHM;2011-08-11 07:00;CYHM 110700Z 28004KT 15SM BKN060 15/13 A2981 RMK SC7 SLP093

CYHM;2011-08-11 08:00;CYHM 110800Z 24004KT 15SM FEW070 14/13 A2981 RMK AC2 SLP094

CYHM;2011-08-11 09:00;CYHM 110900Z 25006KT 15SM FEW070 14/12 A2982 RMK AC1 SLP098

CYHM;2011-08-11 10:00;CYHM 111000Z 25006KT 15SM FEW050 13/11 A2984 RMK SC1 SLP102

CYHM;2011-08-11 11:00;CYHM 111100Z 26006KT 15SM SKC 13/11 A2986 RMK SLP110

CYHM;2011-08-11 12:00;CYHM 111200Z 26006KT 15SM SKC 15/12 A2988 RMK SLP117

CYHM;2011-08-11 13:00;CYHM 111300Z 25008KT 15SM SKC 17/12 A2988 RMK SLP120

CYHM;2011-08-11 14:00;CYHM 111400Z 27010KT 15SM FEW028 20/13 A2988 RMK CU1 SLP120

CYHM;2011-08-11 15:00;CYHM 111500Z 28009KT 15SM SCT040 BKN055 21/12 A2989 RMK CU4SC2 SLP120

CYHM;2011-08-11 16:00;CYHM 111600Z 26013G19KT 15SM FEW048 SCT057 23/10 A2989 RMK CU2SC2 SLP122

CYHM;2011-08-11 17:00;CYHM 111700Z 28013KT 15SM FEW048 BKN058 BKN072 23/11 A2990 RMK CU2SC3AC1 SLP124

CYHM;2011-08-11 18:00;CYHM 111800Z 29010G16KT 15SM FEW045 BKN062 BKN078 23/10 A2990 RMK CU2SC2AC1 SLP125

CYHM;2011-08-11 19:00;CYHM 111900Z 27011KT 15SM BKN063 24/10 A2991 RMK SC5 SLP126

CYHM;2011-08-11 20:00;CYHM 112000Z 28011KT 15SM BKN068 24/10 A2990 RMK AC5 SLP125

CYHM;2011-08-11 21:00;CYHM 112100Z 27013KT 15SM SCT064 24/11 A2991 RMK SC4 SLP126

CYHM;2011-08-11 22:00;CYHM 112200Z 27012G18KT 15SM FEW064 24/11 A2991 RMK SC2 SLP128

CYHM;2011-08-11 23:00;CYHM 112300Z 28012KT 15SM FEW060 23/09 A2993 RMK SC1 SLP133

CYHM;2011-08-12 00:00;CYHM 120000Z 27006KT 15SM FEW060 21/07 A2993 RMK SC1 SLP135

CYHM;2011-08-12 01:00;CYHM 120100Z 26004KT 15SM SKC 19/07 A2994 RMK SLP138

CYHM;2011-08-12 02:00;CYHM 120200Z 26004KT 15SM SKC 17/08 A2996 RMK SLP145

CYHM;2011-08-12 03:00;CYHM 120300Z 25004KT 15SM SKC 16/08 A2996 RMK SLP145

CYHM;2011-08-12 04:00;CYHM 120400Z 22006KT 15SM BKN070 13/11 A2997 RMK AC5 SLP148

CYHM;2011-08-12 05:00;CYHM 120500Z 23004KT 15SM SCT055 BKN072 16/12 A2998 RMK SC3AC2 SLP151

CYHM;2011-08-12 06:00;CYHM 120600Z 19002KT 15SM FEW055 BKN089 16/12 A2998 RMK SC2AC6 SLP150

CYHM;2011-08-12 07:00;CYHM 120700Z 24005KT 15SM FEW055 BKN091 16/13 A2997 RMK SC2AC3 SLP148

CYHM;2011-08-12 08:00;CYHM 120800Z 23004KT 15SM FEW058 FEW090 15/13 A2997 RMK SC1AC2 SLP146

CYHM;2011-08-12 09:00;CYHM 120900Z 25006KT 15SM BKN094 16/13 A2998 RMK AC6 SLP152

CYHM;2011-08-12 10:00;CYHM 121000Z 24004KT 15SM BKN097 15/13 A2998 RMK AC5 SLP151

CYHM;2011-08-12 11:00;CYHM 121100Z 26004KT 15SM FEW075 FEW100 15/13 A3000 RMK AC2AC1 SLP158

CYHM;2011-08-12 12:00;CYHM 121200Z 27005KT 15SM FEW025 FEW100 17/15 A3001 RMK CU1AC1 SLP163

CYHM;2011-08-12 13:00;CYHM 121300Z 27005KT 15SM FEW025 FEW110 20/16 A3002 RMK CU1AC1 CU TR AC TR SLP166

CYHM;2011-08-12 14:00;CYHM 121400Z 28008KT 15SM FEW110 FEW240 22/18 A3004 RMK AC1CI1 SLP170

CYHM;2011-08-12 15:00;CYHM 121500Z 28007KT 15SM FEW030 FEW220 24/17 A3004 RMK CU1CI1 SLP173

CYHM;2011-08-12 16:00;CYHM 121600Z 28009KT 15SM SCT038 SCT055 25/16 A3005 RMK CU3SC1 SLP175

CYHM;2011-08-12 17:00;CYHM 121700Z 26011KT 15SM FEW040 SCT220 26/16 A3004 RMK CU2CI0 CI TR SLP172

CYHM;2011-08-12 18:00;CYHM 121800Z 25007G15KT 15SM FEW045 BKN240 26/14 A3003 RMK CU2CI1 SLP168

CYHM;2011-08-12 19:00;CYHM 121900Z 24011G17KT 15SM FEW055 SCT170 BKN220 27/14 A3003 RMK CU2AC1CI2 FEW TCU SLP168

CYHM;2011-08-12 20:00;CYHM 122000Z 26011G16KT 15SM FEW057 FEW150 BKN230 27/14 A3003 RMK CU2AC1CI4 TCU ASOCTD SLP167

CYHM;2011-08-12 21:00;CYHM 122100Z 24009KT 15SM FEW053 FEW140 BKN220 26/15 A3002 RMK CU2AC1CI3 TCU ASOCTD SLP165

CYHM;2011-08-12 22:00;CYHM 122200Z 22010KT 15SM FEW050 FEW140 BKN250 26/16 A3001 RMK CU1AC1CI3 CONTRAILS SLP159

CYHM;2011-08-12 23:00;CYHM 122300Z 22009KT 15SM FEW045 BKN250 25/16 A3000 RMK CU1CI3 CONTRAILS SLP158

CYHM;2011-08-13 00:00;CYHM 130000Z 21005KT 15SM FEW240 22/16 A3001 RMK CI2 SLP161

CYHM;2011-08-13 01:00;CYHM 130100Z 22004KT 15SM FEW220 20/16 A3001 RMK CI2 SLP161

CYHM;2011-08-13 02:00;CYHM 130200Z 24004KT 15SM BKN220 20/16 A3003 RMK CI5 CONTRAILS SLP167

CYHM;2011-08-13 03:00;CYHM 130300Z 26004KT 15SM BKN240 19/15 A3003 RMK CI6 CONTRAILS SLP168

CYHM;2011-08-13 04:00;CYHM 130400Z 23003KT 15SM BKN240 17/15 A3004 RMK CI4 SLP169

CYHM;2011-08-13 05:00;CYHM 130500Z 19003KT 15SM SCT220 17/15 A3003 RMK CI2 SLP167

CYHM;2011-08-13 06:00;CYHM 130600Z 21003KT 15SM FEW220 16/14 A3002 RMK CI2 SLP163

CYHM;2011-08-13 07:00;CYHM 130700Z 18003KT 15SM FEW170 BKN210 16/14 A3001 RMK AC2CI2 SLP159

CYHM;2011-08-13 08:00;CYHM 130800Z 15003KT 15SM FEW180 BKN250 16/14 A2999 RMK AC2CI3 SLP155

CYHM;2011-08-13 09:00;CYHM 130900Z 15006KT 15SM FEW180 BKN220 17/14 A2999 RMK AC2CI3 SLP153

CYHM;2011-08-13 10:00;CYHM 131000Z 13005KT 15SM BKN170 BKN210 18/14 A2999 RMK AC6CI2 SLP152

CYHM;2011-08-13 11:00;CYHM 131100Z 09002KT 15SM BKN170 BKN210 18/15 A2999 RMK AC6CI2 SLP153

CYHM;2011-08-13 12:00;CYHM 131200Z 02004KT 15SM FEW090 BKN180 BKN220 18/16 A2998 RMK AC2AC3CI2 SLP152

CYHM;2011-08-13 13:00;CYHM 131300Z 07005KT 15SM FEW090 SCT180 BKN240 21/17 A2997 RMK AC1AC3CI2 SLP149

CYHM;2011-08-13 14:00;CYHM 131400Z 10006KT 15SM FEW090 SCT180 BKN240 23/17 A2997 RMK AC1AC3CI2 SLP148

CYHM;2011-08-13 15:00;CYHM 131500Z 06006KT 15SM FEW030 SCT180 BKN240 24/18 A2997 RMK CU1AC3CI1 SLP145

CYHM;2011-08-13 16:00;CYHM 131600Z 04005KT 15SM FEW030 SCT180 BKN240 24/18 A2995 RMK CU1AC3CI1 SLP140

CYHM;2011-08-13 17:00;CYHM 131700Z 01006KT 15SM FEW030 BKN150 BKN180 BKN240 24/19 A2994 RMK CU2AC3AC2CI1 SLP138

CYHM;2011-08-13 18:00;CYHM 131800Z 01006KT 15SM FEW035 BKN150 BKN240 25/18 A2992 RMK CU2AC4CI1 TCU ASOCTD SLP131

CYHM;2011-08-13 19:00;CYHM 131900Z 36005KT 15SM FEW030 BKN130 BKN170 26/18 A2991 RMK CU2AC3AC1 TCU ASOCTD S SLP128

CYHM;2011-08-13 20:00;CYHM 132000Z 07004KT 15SM FEW030 SCT044 BKN130 25/19 A2990 RMK CU2SC2AC2 SLP122

CYHM;2011-08-13 21:00;CYHM 132100Z 05005KT 15SM SCT032 BKN044 BKN130 25/19 A2989 RMK CU3SC2AC1 TCU ASOCTD SLP119

CYHM;2011-08-13 21:21;CYHM 132121Z 07003KT 15SM -SHRA SCT032 BKN044 RMK CU3SC3 TCU ASOCTD PCPN VRY LGT

CYHM;2011-08-13 22:00;CYHM 132200Z 12003KT 15SM SCT032 BKN042 26/18 A2988 RMK CU3SC3 TCU ASOCTD SLP117

CYHM;2011-08-13 23:00;CYHM 132300Z 17002KT 15SM VCSH SCT039TCU BKN050 BKN100 24/19 A2988 RMK TCU3SC2AC1 SLP117

CYHM;2011-08-13 23:06;CYHM 132306Z 09002KT 12SM -SHRA SCT036TCU BKN046 RMK TCU3SC3 CB EMBD

CYHM;2011-08-13 23:14;CYHM 132314Z 04003KT 12SM -TSRA SCT036TCU BKN046 RMK TCU3SC3 CB EMBD

CYHM;2011-08-13 23:28;CYHM 132328Z 02006KT 12SM TS FEW036TCU BKN045 BKN080 RMK TCU2SC3AC1 CB ASOCTD N-NE AC TR

CYHM;2011-08-14 00:00;CYHM 140000Z 19004KT 15SM FEW035TCU SCT048 BKN130 24/17 A2987 RETS RMK TCU2SC2AC1 SLP114

CYHM;2011-08-14 01:00;CYHM 140100Z 15002KT 15SM FEW030 FEW060 FEW250 22/18 A2988 RMK CU1SC1CI1 CU TR SLP115

CYHM;2011-08-14 02:00;CYHM 140200Z 14003KT 15SM FEW060 FEW130 19/17 A2988 RMK SC1AC1 SLP115

CYHM;2011-08-14 03:00;CYHM 140300Z 20004KT 15SM FEW100 19/16 A2988 RMK AC2 SLP114

CYHM;2011-08-14 04:00;CYHM 140400Z 17002KT 15SM FEW110 19/16 A2987 RMK AC2 SLP112

CYHM;2011-08-14 05:00;CYHM 140500Z 21003KT 15SM SCT090 17/15 A2986 RMK AC2 SLP110

CYHM;2011-08-14 06:00;CYHM 140600Z 35004KT 15SM FEW090 FEW220 16/14 A2985 RMK AC2CI1 SLP107

CYHM;2011-08-14 07:00;CYHM 140700Z 09003KT 15SM BKN140 BKN220 16/15 A2983 RMK AC6CI1 SLP099

CYHM;2011-08-14 08:00;CYHM 140800Z 12003KT 15SM BKN100 17/15 A2982 RMK AC7 SLP098

CYHM;2011-08-14 09:00;CYHM 140900Z 36005KT 15SM SCT110 BKN220 16/15 A2983 RMK AC3CI2 SLP098

CYHM;2011-08-14 10:00;CYHM 141000Z 04003KT 10SM MIFG FEW040 BKN120 17/16 A2982 RMK SC1AC3 SLP097

CYHM;2011-08-14 10:47;CYHM 141047Z 01005KT 1 1/4SM BR FEW040 BKN120 RMK FG2SC1AC4

CYHM;2011-08-14 11:00;CYHM 141100Z 02005KT 3/8SM FG BKN001 OVC120 17/17 A2983 RMK FG4SF2AC2 SLP099

CYHM;2011-08-14 11:32;CYHM 141132Z 04006KT 1/2SM FG BKN002 BKN040 BKN120 RMK FG3SF2SC1AC1

CYHM;2011-08-14 11:51;CYHM 141151Z 06006KT 1SM BR BKN002 BKN120 RMK FG2SF3AC2

CYHM;2011-08-14 12:00;CYHM 141200Z 06004KT 1 1/2SM BR FEW002 BKN110 19/19 A2984 RMK FG2SF1AC5 SLP103

CYHM;2011-08-14 12:17;CYHM 141217Z 06003KT 3SM BR BKN110 BKN230 RMK AC6CI2

CYHM;2011-08-14 13:00;CYHM 141300Z 04004KT 3SM BR BKN096 BKN130 OVC230 19/18 A2985 RMK AC6AC2CI1 SLP105

CYHM;2011-08-14 14:00;CYHM 141400Z 11002KT 3SM BR FEW006 FEW044 BKN095 OVC230 20/19 A2985 RMK CF2SC1AC4CI2 SLP106

CYHM;2011-08-14 15:00;CYHM 141500Z 04002KT 6SM HZ FEW009 FEW045 OVC095 22/20 A2985 RMK CF1SC1AC6 SLP106

CYHM;2011-08-14 16:00;CYHM 141600Z 03006KT 7SM FEW013 BKN095 BKN240 23/20 A2984 RMK CU1AC5CI2 SLP102

CYHM;2011-08-14 17:00;CYHM 141700Z 05008KT 8SM FEW015 BKN097 BKN190 23/20 A2983 RMK CU2AC4AC2 SLP100

CYHM;2011-08-14 18:00;CYHM 141800Z 06010KT 8SM FEW016 BKN098 OVC190 22/19 A2982 RMK CU1AC6AC1 SLP098

CYHM;2011-08-14 19:00;CYHM 141900Z 08008KT 9SM FEW017 SCT098 OVC120 22/19 A2982 RMK CU1AC2AC5 SLP098

CYHM;2011-08-14 20:00;CYHM 142000Z 07008KT 9SM FEW018 BKN054 OVC110 22/18 A2982 RMK CU1SC4AC3 SLP098

CYHM;2011-08-14 21:00;CYHM 142100Z CCA 05006KT 8SM FEW008 FEW018 FEW055 OVC120 22/20 A2982 RMK CF1CU1SC2AC6 CF TR SLP096

CYHM;2011-08-14 21:37;CYHM 142137Z 03007KT 7SM -SHRA FEW011 BKN050 OVC110 RMK CF1SC6AC2

CYHM;2011-08-14 22:00;CYHM 142200Z 01007KT 6SM -SHRA BR SCT009 BKN046 OVC110 21/20 A2983 RMK CF3SC4AC1 SLP101

CYHM;2011-08-14 22:10;CYHM 142210Z 04008KT 5SM -SHRA BR FEW007 BKN012 OVC050 RMK CF2SC5SC1

CYHM;2011-08-14 22:37;CYHM 142237Z 02006KT 4SM -SHRA BR FEW007 OVC052 RMK SF2SC6

CYHM;2011-08-14 23:00;CYHM 142300Z 02006KT 3SM -SHRA BR FEW007 SCT050TCU OVC085 20/20 A2984 RMK SF1TCU2AC5 VIS VRB 2 - 4 SLP103

CYHM;2011-08-15 00:00;CYHM 150000Z 36006KT 3SM -SHRA BR FEW006 FEW050 OVC120 19/18 A2984 RMK SF2SC1AC6 VIS VRB 2 - 4 SLP103

CYHM;2011-08-15 01:00;CYHM 150100Z 36005KT 7SM -SHRA FEW040 OVC110 19/18 A2984 RMK SC2AC6 SLP102

CYHM;2011-08-15 02:00;CYHM 150200Z 01007KT 15SM -SHRA BKN100 OVC150 19/17 A2982 RMK AC6AC2 PCPN VRY LGT SLP096

CYHM;2011-08-15 03:00;CYHM 150300Z 02007KT 15SM -SHRA OVC110 19/17 A2982 RMK AC8 PCPN VRY LGT SLP097

CYHM;2011-08-15 04:00;CYHM 150400Z 02006KT 15SM OVC110 19/17 A2983 RMK AC8 SLP098

CYHM;2011-08-15 05:00;CYHM 150500Z 02005KT 15SM FEW015 OVC100 19/17 A2983 RMK SC2AC6 SLP099

CYHM;2011-08-15 06:00;CYHM 150600Z 02007KT 7SM BKN013 OVC100 19/18 A2982 RMK SC6AC2 CIG RAG SLP097

CYHM;2011-08-15 07:00;CYHM 150700Z 36007KT 6SM BR OVC011 19/18 A2981 RMK SC8 SLP094

CYHM;2011-08-15 07:46;CYHM 150746Z 02005KT 6SM BR FEW010 FEW080 BKN140 RMK SC2AC1AC3

CYHM;2011-08-15 08:00;CYHM 150800Z 02005KT 7SM FEW010 BKN100 19/18 A2981 RMK SC1AC5 SLP093

CYHM;2011-08-15 08:49;CYHM 150849Z 02004KT 10SM OVC009 RMK SC8

CYHM;2011-08-15 09:00;CYHM 150900Z 02004KT 10SM -SHRA BKN009 OVC110 19/18 A2981 RMK SC5AC3 PCPN VRY LGT SLP093

CYHM;2011-08-15 10:00;CYHM 151000Z 35006KT 6SM BR OVC006 19/18 A2983 RMK SF8 SLP098

CYHM;2011-08-15 11:00;CYHM 151100Z 36009KT 6SM BR BKN008 OVC016 19/18 A2984 RMK SF6SC2 SLP102

CYHM;2011-08-15 12:00;CYHM 151200Z 01006KT 10SM FEW018 SCT035 BKN130 BKN160 19/17 A2985 RMK SC2SC2AC2AC2 SLP106

CYHM;2011-08-15 13:00;CYHM 151300Z 02009KT 15SM FEW020 BKN110 BKN150 20/18 A2984 RMK CU1AC5AC1 SLP105

CYHM;2011-08-15 14:00;CYHM 151400Z 03005KT 15SM FEW014 BKN110 BKN160 20/18 A2985 RMK CU2AC3AC2 SLP107

CYHM;2011-08-15 15:00;CYHM 151500Z 03009KT 15SM FEW018 BKN025 BKN110 22/18 A2986 RMK CU2SC2AC2 SLP110

CYHM;2011-08-15 16:00;CYHM 151600Z 04008KT 15SM FEW023 BKN028 BKN090 23/18 A2986 RMK CU2SC2AC1 TCU ASOCTD SLP111

CYHM;2011-08-15 17:00;CYHM 151700Z 04007KT 15SM SCT032 SCT048 BKN140 BKN220 24/19 A2985 RMK CU3SC1AC1CI1 TCU ASOCTD SLP108

CYHM;2011-08-15 18:00;CYHM 151800Z 02008KT 15SM SCT032 BKN062 BKN075 24/18 A2984 RMK CU4SC1AC1 TCU ASOCTD SLP102

CYHM;2011-08-15 19:00;CYHM 151900Z 35011KT 15SM BKN038 BKN055 26/16 A2982 RMK CU5SC1 TCU ASOCTD SLP097

CYHM;2011-08-15 20:00;CYHM 152000Z 35010KT 15SM BKN045 BKN080 27/15 A2981 RMK CU5AC1 TCU ASOCTD N-NE SLP091

CYHM;2011-08-15 21:00;CYHM 152100Z 01009KT 15SM SCT040TCU BKN052 BKN072 26/17 A2981 RMK TCU4SC2AC1 AC TR SLP091

CYHM;2011-08-15 21:12;CYHM 152112Z 03010KT 15SM -SHRA SCT036TCU BKN050 RMK TCU3SC3 PCPN VRY LGT

CYHM;2011-08-15 22:00;CYHM 152200Z 05013KT 15SM FEW035TCU BKN050 BKN070 23/18 A2983 RMK TCU2SC3AC2 SLP097

CYHM;2011-08-15 23:00;CYHM 152300Z 07004KT 15SM VCSH FEW035TCU SCT050 BKN075 BKN100 23/18 A2984 RMK TCU2SC2AC2AC1 SLP100

CYHM;2011-08-16 00:00;CYHM 160000Z 36007KT 15SM FEW030 SCT050 BKN090 23/17 A2985 RMK CU1SC3AC2 TCU EMBD SLP106

CYHM;2011-08-16 01:00;CYHM 160100Z 01005KT 15SM SCT050 BKN085 BKN110 22/16 A2986 RMK SC3AC2AC2 SLP110

CYHM;2011-08-16 02:00;CYHM 160200Z 34004KT 15SM FEW090 20/16 A2989 RMK AC2 SLP118

CYHM;2011-08-16 03:00;CYHM 160300Z 34008KT 15SM FEW110 20/14 A2989 RMK AC2 SLP120

CYHM;2011-08-16 04:00;CYHM 160400Z 35005KT 15SM FEW110 19/11 A2988 RMK AC1 SLP118

CYHM;2011-08-16 05:00;CYHM 160500Z 32004KT 15SM FEW110 17/10 A2989 RMK AC1 SLP119

CYHM;2011-08-16 06:00;CYHM 160600Z 33006KT 15SM FEW100 17/11 A2989 RMK AC1 SLP119

CYHM;2011-08-16 07:00;CYHM 160700Z 32006KT 15SM FEW069 17/12 A2990 RMK AC2 SLP122

CYHM;2011-08-16 08:00;CYHM 160800Z 31008KT 15SM FEW071 17/12 A2991 RMK AC2 SLP126

CYHM;2011-08-16 09:00;CYHM 160900Z 32009KT 15SM SKC 16/12 A2992 RMK SLP130

CYHM;2011-08-16 10:00;CYHM 161000Z 32007KT 15SM FEW070 16/12 A2994 RMK AC1 SLP135

CYHM;2011-08-16 11:00;CYHM 161100Z 33007KT 15SM FEW100 16/12 A2995 RMK AC1 AC TR SLP141

CYHM;2011-08-16 12:00;CYHM 161200Z 32006KT 15SM FEW025 FEW210 18/13 A2997 RMK CU1CI1 CU TR CI TR SLP146

CYHM;2011-08-16 13:00;CYHM 161300Z 33007KT 15SM FEW025 21/14 A2998 RMK CU1 CU TR SLP152

CYHM;2011-08-16 14:00;CYHM 161400Z 34008KT 15SM SKC 23/14 A2999 RMK SLP155

CYHM;2011-08-16 15:00;CYHM 161500Z 01007KT 15SM SKC 25/15 A3000 RMK SLP156

CYHM;2011-08-16 16:00;CYHM 161600Z 03008KT 15SM FEW045 26/12 A3000 RMK CU1 SLP157

CYHM;2011-08-16 17:00;CYHM 161700Z 36005KT 15SM FEW048 27/13 A3000 RMK CU1 SLP155

CYHM;2011-08-16 18:00;CYHM 161800Z 01006KT 15SM FEW055 27/12 A3001 RMK CU2 SLP158

CYHM;2011-08-16 19:00;CYHM 161900Z 34004KT 15SM FEW055 27/11 A3000 RMK CU2 SLP157

CYHM;2011-08-16 20:00;CYHM 162000Z 20005KT 15SM FEW060 SCT070 29/12 A3001 RMK CU2AC1 SLP158

CYHM;2011-08-16 21:00;CYHM 162100Z 20004KT 15SM FEW060 SCT080 28/12 A3001 RMK CU2AC2 SLP161

CYHM;2011-08-16 22:00;CYHM 162200Z 28004KT 15SM FEW060 SCT082 29/13 A3002 RMK CU2AC2 SLP163

CYHM;2011-08-16 23:00;CYHM 162300Z 19008KT 15SM FEW050 BKN075 25/15 A3003 RMK CU2AC4 SLP167

CYHM;2011-08-17 00:00;CYHM 170000Z 19006KT 15SM FEW045 SCT075 BKN110 23/17 A3003 RMK CU2AC2AC1 SLP168

CYHM;2011-08-17 01:00;CYHM 170100Z 20005KT 15SM SCT072 BKN092 22/17 A3004 RMK AC3AC2 SLP172

CYHM;2011-08-17 02:00;CYHM 170200Z 27005KT 15SM FEW072 21/17 A3006 RMK AC2 SLP176

CYHM;2011-08-17 03:00;CYHM 170300Z 28006KT 15SM FEW070 21/16 A3006 RMK AC1 SLP177

CYHM;2011-08-17 04:00;CYHM 170400Z 30007KT 15SM SCT068 19/15 A3008 RMK AC3 SLP183

CYHM;2011-08-17 05:00;CYHM 170500Z 25003KT 15SM SKC 19/15 A3008 RMK SLP183

CYHM;2011-08-17 06:00;CYHM 170600Z 24004KT 15SM SKC 18/15 A3010 RMK SLP190

CYHM;2011-08-17 07:00;CYHM 170700Z 26003KT 15SM BKN098 16/15 A3011 RMK AC5 SLP193

CYHM;2011-08-17 08:00;CYHM 170800Z 26003KT 15SM FEW095 16/15 A3012 RMK AC1 SLP197

CYHM;2011-08-17 09:00;CYHM 170900Z 26004KT 15SM FEW095 15/15 A3013 RMK AC1 SLP200

CYHM;2011-08-17 10:00;CYHM 171000Z 28002KT 15SM FEW095 15/14 A3013 RMK AC1 SLP200

CYHM;2011-08-17 11:00;CYHM 171100Z 23003KT 15SM SKC 15/14 A3013 RMK SLP201

CYHM;2011-08-17 12:00;CYHM 171200Z 24004KT 15SM SKC 17/16 A3013 RMK SLP203

CYHM;2011-08-17 13:00;CYHM 171300Z 24004KT 15SM SKC 21/16 A3014 RMK SLP206

CYHM;2011-08-17 14:00;CYHM 171400Z 23005KT 15SM FEW030 FEW110 23/15 A3014 RMK CU1AC1 CU TR AC TR SLP206

CYHM;2011-08-17 15:00;CYHM 171500Z 23007KT 15SM FEW040 FEW150 FEW210 25/14 A3014 RMK CU1AC1CI1 CU TR AC TR CI TR SLP203

CYHM;2011-08-17 16:00;CYHM 171600Z 23010KT 15SM FEW040 FEW150 SCT210 27/15 A3014 RMK CU2AC1CI1 SLP204

CYHM;2011-08-17 17:00;CYHM 171700Z 19011G17KT 15SM FEW042 BKN120 BKN210 27/15 A3012 RMK CU2AC3CI1 SLP196

CYHM;2011-08-17 18:00;CYHM 171800Z 20011KT 15SM FEW045 FEW120 BKN220 27/14 A3010 RMK CU1AC2CI2 SLP190

CYHM;2011-08-17 19:00;CYHM 171900Z 20012KT 15SM SCT048 SCT160 BKN220 27/16 A3008 RMK CU3AC1CI2 SLP185

CYHM;2011-08-17 20:00;CYHM 172000Z 21012KT 15SM BKN046 BKN220 27/16 A3007 RMK CU5CI2 TCU ASOCTD NW SLP182

CYHM;2011-08-17 21:00;CYHM 172100Z 21013G19KT 15SM FEW047 SCT060 SCT150 BKN220 26/16 A3006 RMK CU2SC1AC1CI2 SLP178

CYHM;2011-08-17 22:00;CYHM 172200Z 22011KT 15SM FEW045 FEW055 FEW100 BKN220 26/15 A3005 RMK CU1SC1AC1CI2 SLP174

CYHM;2011-08-17 23:00;CYHM 172300Z 22010KT 15SM FEW045 FEW080 FEW120 SCT220 24/15 A3004 RMK CU1AC2AC1CI2 CU TR SLP173

CYHM;2011-08-18 00:00;CYHM 180000Z 20005KT 15SM FEW080 BKN130 BKN220 22/16 A3004 RMK AC2AC2CI2 VIRGA SLP171

CYHM;2011-08-18 01:00;CYHM 180100Z 20005KT 15SM FEW100 BKN130 20/15 A3003 RMK AC2AC5 SLP169

CYHM;2011-08-18 02:00;CYHM 180200Z 20005KT 15SM FEW120 BKN150 19/15 A3004 RMK AC2AC3 SLP170

CYHM;2011-08-18 03:00;CYHM 180300Z 20004KT 15SM BKN160 19/15 A3003 RMK AC6 SLP168

CYHM;2011-08-18 04:00;CYHM 180400Z 20005KT 15SM BKN130 19/16 A3002 RMK AC6 SLP164

CYHM;2011-08-18 05:00;CYHM 180500Z 22005KT 15SM FEW120 18/16 A3002 RMK AC2 SLP163

CYHM;2011-08-18 06:00;CYHM 180600Z 19004KT 15SM FEW240 18/17 A3002 RMK CI1 SLP162

CYHM;2011-08-18 07:00;CYHM 180700Z 22004KT 15SM SCT069 BKN210 18/17 A3001 RMK AC4CI1 SLP160

CYHM;2011-08-18 08:00;CYHM 180800Z 22003KT 10SM MIFG FEW060 18/17 A3001 RMK SC2 SLP160

CYHM;2011-08-18 09:00;CYHM 180900Z 24003KT 15SM MIFG FEW057 BKN079 BKN220 17/17 A3000 RMK SC2AC3CI1 SLP157

CYHM;2011-08-18 10:00;CYHM 181000Z 25004KT 15SM MIFG SCT078 BKN220 18/17 A3000 RMK AC4CI1 SLP156

CYHM;2011-08-18 11:00;CYHM 181100Z 23003KT 8SM MIFG FEW080 17/17 A3000 RMK AC1 SLP155

CYHM;2011-08-18 12:00;CYHM 181200Z CCA 24005KT 10SM SKC 19/18 A3001 RMK SLP159

CYHM;2011-08-18 13:00;CYHM 181300Z 25008KT 15SM FEW075 22/19 A3000 RMK AC1 AC TR SLP158

CYHM;2011-08-18 14:00;CYHM 181400Z 24008KT 15SM SKC 24/19 A2999 RMK SLP155

CYHM;2011-08-18 15:00;CYHM 181500Z 25008KT 15SM FEW025 FEW058 FEW100 26/19 A2999 RMK CU1SC1AC1 SLP153

CYHM;2011-08-18 16:00;CYHM 181600Z 26008KT 15SM SCT037 BKN050 BKN180 26/18 A2997 RMK CU3SC2AC1 TCU ASOCTD SLP148

CYHM;2011-08-18 17:00;CYHM 181700Z 22012KT 15SM SCT040 BKN047 BKN070 27/18 A2996 RMK CU3SC2AC2 TCU ASOCTD SLP143

CYHM;2011-08-18 18:00;CYHM 181800Z 21010KT 15SM FEW038 BKN044 BKN070 28/18 A2994 RMK CU2SC2AC1 TCU ASOCTD SLP137

CYHM;2011-08-18 18:14;CYHM 181814Z 24010KT 12SM TS BKN039TCU BKN060 RMK TCU5SC2 CB ASOCTD

CYHM;2011-08-18 19:00;CYHM 181900Z 25011KT 12SM SCT040TCU BKN060 29/18 A2993 RETS RMK TCU4SC2 CB ASOCTD E SLP132

CYHM;2011-08-18 20:00;CYHM 182000Z 24012KT 12SM SCT041TCU BKN055 BKN075 27/18 A2991 RMK TCU4SC2AC1 SLP124

CYHM;2011-08-18 21:00;CYHM 182100Z 24012KT 15SM FEW040TCU SCT055 28/18 A2989 RMK TCU2SC1 CB ASOCTD SLP118

CYHM;2011-08-18 21:30;CYHM 182130Z 30014G19KT 15SM TS SCT043CB BKN210 RMK CB4CI1

CYHM;2011-08-18 22:00;CYHM 182200Z 24011KT 12SM TS VCSH BKN043CB BKN064 25/17 A2991 RMK CB6SC1 SLP126

CYHM;2011-08-18 22:32;CYHM 182232Z 25013KT 12SM -TSRA BKN043CB BKN140 RMK CB6AC2

CYHM;2011-08-18 23:00;CYHM 182300Z 26004KT 15SM -TSRA FEW022 BKN045CB BKN130 21/16 A2991 RMK CF2CB3AC2 PCPN VRY LGT SLP125

CYHM;2011-08-18 23:22;CYHM 182322Z 24005KT 15SM -SHRA FEW030 FEW043CB BKN130 BKN210 RETS RMK SC1CB2AC3CI2 PCPN VRY LGT

CYHM;2011-08-18 23:46;CYHM 182346Z 25004KT 15SM FEW040TCU SCT130 BKN240 RETS RMK TCU1AC3CI3

CYHM;2011-08-19 00:00;CYHM 190000Z 25005KT 12SM FEW040TCU FEW130 BKN240 21/18 A2990 RMK TCU1AC2CI3 TCU TR SLP124

CYHM;2011-08-19 01:00;CYHM 190100Z 28005KT 15SM BKN250 20/17 A2991 RMK CI5 SLP126

CYHM;2011-08-19 02:00;CYHM 190200Z 26005KT 15SM FEW250 20/17 A2991 RMK CI0 SLP128

CYHM;2011-08-19 03:00;CYHM 190300Z 26004KT 15SM FEW250 19/17 A2991 RMK CI1 SLP126

CYHM;2011-08-19 04:00;CYHM 190400Z 28006KT 15SM SCT250 18/16 A2991 RMK CI2 SLP127

CYHM;2011-08-19 05:00;CYHM 190500Z 32005KT 15SM SCT250 18/16 A2991 RMK CI2 SLP124

CYHM;2011-08-19 06:00;CYHM 190600Z 34004KT 15SM BKN230 19/16 A2991 RMK CI6 SLP125

CYHM;2011-08-19 07:00;CYHM 190700Z 22005KT 12SM BKN220 15/15 A2991 RMK CI3 SLP125

CYHM;2011-08-19 08:00;CYHM 190800Z 27004KT 15SM FEW220 15/15 A2991 RMK CI1 SLP126

CYHM;2011-08-19 09:00;CYHM 190900Z 23004KT 12SM FEW220 14/14 A2990 RMK CI0 SLP122

CYHM;2011-08-19 10:00;CYHM 191000Z 24004KT 10SM FEW220 15/15 A2989 RMK CI1 SLP121

CYHM;2011-08-19 10:07;CYHM 191007Z 21004KT 1 1/2SM BR FEW120 FEW220 RMK AC1CI1

CYHM;2011-08-19 10:28;CYHM 191028Z 28003KT 3SM BR FEW100 FEW210 RMK AC1CI1 AC TR

CYHM;2011-08-19 10:50;CYHM 191050Z 00000KT 1SM BR FEW100 FEW220 RMK FG1AC1CI1

CYHM;2011-08-19 11:00;CYHM 191100Z 30002KT 10SM MIFG FEW100 FEW210 14/14 A2991 RMK AC1CI1 SLP127

CYHM;2011-08-19 12:00;CYHM 191200Z 29003KT 15SM FEW020 FEW080 FEW210 17/16 A2993 RMK CU1AC1CI1 CU TR AC TR SLP133

CYHM;2011-08-19 13:00;CYHM 191300Z 32003KT 15SM FEW025 22/15 A2993 RMK CU1 SLP134

CYHM;2011-08-19 14:00;CYHM 191400Z 00000KT 15SM FEW025 FEW220 24/14 A2992 RMK CU1CI1 SLP132

CYHM;2011-08-19 15:00;CYHM 191500Z 29002KT 15SM FEW035 26/13 A2993 RMK CU1 CU TR SLP131

CYHM;2011-08-19 16:00;CYHM 191600Z 12004KT 15SM FEW040 FEW220 26/13 A2992 RMK CU1CI1 SLP130

CYHM;2011-08-19 17:00;CYHM 191700Z 27006KT 15SM FEW045 FEW220 27/12 A2991 RMK CU1CI1 SLP127

CYHM;2011-08-19 18:00;CYHM 191800Z CCA 31006KT 15SM FEW035 28/12 A2991 RMK CU1 TCU ASOCTD SLP126

CYHM;2011-08-19 19:00;CYHM 191900Z 25006KT 15SM FEW050 28/13 A2990 RMK CU2 TCU ASOCTD E SLP123

CYHM;2011-08-19 20:00;CYHM 192000Z 27006KT 15SM FEW050 28/13 A2989 RMK CU2 SLP118

CYHM;2011-08-19 21:00;CYHM 192100Z 26006KT 15SM FEW050 FEW070 29/13 A2988 RMK CU2AC1 SLP116

CYHM;2011-08-19 22:00;CYHM 192200Z 27004KT 15SM FEW050 FEW070 28/13 A2988 RMK CU2AC1 AC TR SLP114

CYHM;2011-08-19 23:00;CYHM 192300Z 22004KT 15SM FEW050 27/14 A2988 RMK CU2 SLP114

CYHM;2011-08-20 00:00;CYHM 200000Z 23005KT 15SM FEW050 SCT081 24/16 A2988 RMK CU2AC2 SLP118

CYHM;2011-08-20 01:00;CYHM 200100Z 22008KT 15SM FEW050 SCT080 22/17 A2991 RMK CU1AC2 SLP125

CYHM;2011-08-20 02:00;CYHM 200200Z 25009KT 15SM FEW100 FEW230 22/18 A2991 RMK AC1CI1 SLP126

CYHM;2011-08-20 03:00;CYHM 200300Z 27006KT 15SM FEW230 21/18 A2991 RMK CI1 SLP127

CYHM;2011-08-20 04:00;CYHM 200400Z 21006KT 15SM FEW080 FEW220 19/17 A2992 RMK AC1CI2 SLP130

CYHM;2011-08-20 05:00;CYHM 200500Z 26004KT 15SM BKN130 20/18 A2993 RMK AC6 SLP132

CYHM;2011-08-20 06:00;CYHM 200600Z 27004KT 15SM BKN150 19/17 A2992 RMK AC6 SLP128

CYHM;2011-08-20 07:00;CYHM 200700Z 26004KT 15SM OVC140 19/16 A2993 RMK AC8 SLP131

CYHM;2011-08-20 08:00;CYHM 200800Z 25004KT 15SM FEW130 18/16 A2992 RMK AC2 SLP129

CYHM;2011-08-20 09:00;CYHM 200900Z 25004KT 15SM FEW220 18/16 A2993 RMK CI1 SLP133

CYHM;2011-08-20 10:00;CYHM 201000Z 25004KT 15SM FEW090 16/15 A2995 RMK AC2 SLP139

CYHM;2011-08-20 11:00;CYHM 201100Z 26005KT 15SM FEW140 FEW250 17/16 A2997 RMK AC2CI0 SLP146

CYHM;2011-08-20 12:00;CYHM 201200Z 22004KT 15SM FEW140 FEW250 18/16 A2997 RMK AC1CI1 AC TR SLP149

CYHM;2011-08-20 13:00;CYHM 201300Z 21004KT 15SM FEW220 22/17 A2998 RMK CI1 SLP150

CYHM;2011-08-20 14:00;CYHM 201400Z 23008KT 15SM FEW220 24/17 A2999 RMK CC1 SLP154

CYHM;2011-08-20 15:00;CYHM 201500Z 23011KT 15SM BKN150 27/17 A2998 RMK AC4 SLP148

CYHM;2011-08-20 16:00;CYHM 201600Z 24010G16KT 15SM FEW045 FEW150 SCT240 27/16 A2996 RMK CU1AC1CI2 CU AC TR SLP143

CYHM;2011-08-20 17:00;CYHM 201700Z 22011KT 15SM FEW050 SCT150 BKN240 28/18 A2996 RMK CU1AC2CI2 SLP142

CYHM;2011-08-20 18:00;CYHM 201800Z 22011KT 15SM FEW045 BKN160 28/18 A2996 RMK CU2AC6 SLP141

CYHM;2011-08-20 19:00;CYHM 201900Z 20008KT 15SM SCT045 BKN150 BKN200 28/18 A2995 RMK CU3AC2CI2 SLP138

CYHM;2011-08-20 20:00;CYHM 202000Z 21007KT 15SM FEW048 SCT100 BKN160 OVC220 27/17 A2994 RMK CU2AC2AC3CS2 SLP137

CYHM;2011-08-20 21:00;CYHM 202100Z 19010KT 15SM FEW040 SCT150 OVC220 25/20 A2992 RMK CU1AC3CS4 SLP130

CYHM;2011-08-20 22:00;CYHM 202200Z 19007KT 15SM FEW040 FEW100 OVC170 24/19 A2992 RMK CU1AC2AC6 CU TR SLP129

CYHM;2011-08-20 23:00;CYHM 202300Z 23007KT 15SM FEW040 BKN120 OVC160 23/19 A2993 RMK CU2AC5AC2 SLP134

CYHM;2011-08-21 00:00;CYHM 210000Z 27008KT 10SM -SHRA FEW050 SCT100 OVC160 23/18 A2995 RMK CU2AC2AC4 TCU ASOCTD SLP141

CYHM;2011-08-21 01:00;CYHM 210100Z 28009G15KT 15SM -TSRA FEW050CB OVC110 20/17 A2997 RMK CB2AC6 OCNL LTGIC ESE PRESRR SLP148

CYHM;2011-08-21 02:00;CYHM 210200Z 24007KT 12SM -SHRA FEW050 BKN068 OVC110 18/17 A2996 RETS RMK SC2AC5AC2 SLP144

CYHM;2011-08-21 03:00;CYHM 210300Z 26004KT 15SM FEW045 OVC110 18/17 A2991 RMK SC2AC6 SLP126

CYHM;2011-08-21 04:00;CYHM 210400Z 19005KT 15SM FEW085 OVC110 18/17 A2991 RMK AC2AC6 SLP126

CYHM;2011-08-21 05:00;CYHM 210500Z 23005KT 15SM FEW080 BKN130 18/17 A2991 RMK AC2AC6 SLP125

CYHM;2011-08-21 05:34;CYHM 210534Z 22006KT 15SM -SHRA OVC071 RMK AC8

CYHM;2011-08-21 06:00;CYHM 210600Z 24005KT 15SM -SHRA BKN065 18/17 A2991 RMK SC7 SLP126

CYHM;2011-08-21 07:00;CYHM 210700Z 25005KT 15SM BKN065 BKN130 18/17 A2991 RMK SC6AC1 TCU ASOCTD OCNL LTGICCG E SLP124

CYHM;2011-08-21 08:00;CYHM 210800Z 28005KT 15SM BKN072 OVC130 18/17 A2991 RMK AC6AC2 OCNL LTGIC E - SE SLP125

CYHM;2011-08-21 09:00;CYHM 210900Z 30003KT 15SM -SHRA FEW030 BKN058 OVC120 18/17 A2990 RMK SC1SC6AC2 OCNL LTGIC E SLP123

CYHM;2011-08-21 10:00;CYHM 211000Z 02002KT 15SM FEW028 FEW055 BKN150 18/16 A2989 RMK SC1SC1AC6 SLP119

CYHM;2011-08-21 11:00;CYHM 211100Z 19002KT 15SM SCT056 BKN073 BKN140 18/17 A2990 RMK SC3AC2AC2 SLP121

CYHM;2011-08-21 12:00;CYHM 211200Z 22003KT 15SM SCT028 BKN061 BKN140 18/17 A2991 RMK SC4SC2AC1 SLP126

CYHM;2011-08-21 13:00;CYHM 211300Z 11002KT 15SM FEW029 FEW060 BKN250 19/18 A2988 RMK SC1SC2CI3 SLP118

CYHM;2011-08-21 14:00;CYHM 211400Z 35002KT 15SM FEW028 SCT045 BKN100 20/18 A2988 RMK SC2SC2AC3 SLP117

CYHM;2011-08-21 14:47;CYHM 211447Z 24002KT 15SM -SHRA FEW012 OVC041 RMK CU2SC6

CYHM;2011-08-21 15:00;CYHM 211500Z 24004KT 15SM -SHRA FEW012 SCT030 OVC041 20/18 A2990 RMK CU2SC2SC5 SLP123

CYHM;2011-08-21 16:00;CYHM 211600Z 29003KT 15SM FEW015 FEW040 BKN110 20/19 A2986 RMK CU1SC2AC5 SLP112

CYHM;2011-08-21 16:53;CYHM 211653Z 23007KT 15SM SCT008 BKN150 BKN240 RMK CU3AC2CI1

CYHM;2011-08-21 17:00;CYHM 211700Z 22009KT 15SM FEW008 BKN150 BKN240 21/19 A2982 RMK CU2AC2CI1 SLP098

CYHM;2011-08-21 18:00;CYHM 211800Z 24014KT 15SM FEW022 SCT170 BKN240 23/18 A2981 RMK CU2AC1CI2 SLP091

CYHM;2011-08-21 19:00;CYHM 211900Z 25012G18KT 15SM FEW032 FEW130 BKN240 24/17 A2978 RMK CU2AC1CI2 SLP084

CYHM;2011-08-21 19:44;CYHM 211944Z 29009KT 15SM TS VCSH BKN033 BKN130 RMK CU6AC1 CB EMBDD

CYHM;2011-08-21 20:00;CYHM 212000Z 33007KT 15SM TS VCSH BKN037 BKN100 22/17 A2978 RMK CU5AC1 CB ASOCTD NE SLP082

CYHM;2011-08-21 20:36;CYHM 212036Z 32010KT 15SM SCT035 SCT070 BKN180 RETS RMK CU3AC1AC2 CB TOPS NE - E

CYHM;2011-08-21 21:00;CYHM 212100Z 30017G22KT 15SM BKN026TCU BKN081 BKN180 23/16 A2979 RMK TCU5AC1AC1 CB ASOCTD SLP087

CYHM;2011-08-21 22:00;CYHM 212200Z 32011G21KT 4SM +SHRA BKN019TCU BKN053 16/14 A2984 RMK TCU6SC2 CB EMBDD COLD FROPA PRESRR SLP101

CYHM;2011-08-21 23:00;CYHM 212300Z 28004KT 15SM FEW030TCU SCT050 BKN120 BKN210 17/15 A2984 RERA RMK TCU2SC2AC2CI1 VIRGA S SLP103

CYHM;2011-08-22 00:00;CYHM 220000Z 25005KT 15SM VCSH FEW030TCU BKN110 BKN150 17/15 A2984 RMK TCU1AC4AC2 SLP104

CYHM;2011-08-22 01:00;CYHM 220100Z 26005KT 15SM FEW110 SCT200 16/14 A2985 RMK AC2CI1 SLP108

CYHM;2011-08-22 02:00;CYHM 220200Z 27006KT 15SM FEW050 FEW210 15/13 A2987 RMK SC1CI1 SLP114

CYHM;2011-08-22 03:00;CYHM 220300Z 24005KT 15SM FEW180 FEW250 14/13 A2988 RMK AC1CI1 SLP117

CYHM;2011-08-22 04:00;CYHM 220400Z 23005KT 15SM FEW180 FEW250 14/12 A2987 RMK AC1CI1 AC TR CI TR SLP114

CYHM;2011-08-22 05:00;CYHM 220500Z 26006KT 15SM FEW180 FEW250 14/12 A2988 RMK AC1CI1 AC TR CI TR SLP118

CYHM;2011-08-22 06:00;CYHM 220600Z 25006KT 15SM FEW160 13/12 A2989 RMK AC1 AC TR SLP121

CYHM;2011-08-22 07:00;CYHM 220700Z 25005KT 15SM FEW160 13/12 A2990 RMK AC1 AC TR SLP124

CYHM;2011-08-22 08:00;CYHM 220800Z 26007KT 15SM FEW024 13/11 A2991 RMK SC1 SC TR SLP127

CYHM;2011-08-22 09:00;CYHM 220900Z 26009KT 15SM SKC 12/11 A2991 RMK SLP130

CYHM;2011-08-22 10:00;CYHM 221000Z 27007KT 15SM FEW024 12/11 A2992 RMK SC1 SC TR SLP133

CYHM;2011-08-22 11:00;CYHM 221100Z 28006KT 15SM FEW030 12/11 A2994 RMK CU1 CU TR S-SE SLP138

CYHM;2011-08-22 12:00;CYHM 221200Z 28007KT 15SM FEW030 13/12 A2996 RMK CU1 CU TR SLP145

CYHM;2011-08-22 13:00;CYHM 221300Z 31010G16KT 15SM FEW025 FEW220 16/13 A2997 RMK CU1CI1 SLP150

CYHM;2011-08-22 14:00;CYHM 221400Z 33014G19KT 15SM FEW025 FEW220 17/12 A2999 RMK CU1CI1 SLP156

CYHM;2011-08-22 15:00;CYHM 221500Z 30010G16KT 15SM FEW032 FEW220 19/12 A3000 RMK CU1CI1 SLP160

CYHM;2011-08-22 16:00;CYHM 221600Z 31009G16KT 15SM FEW042 SCT220 20/11 A3000 RMK CU2CI1 SLP160

CYHM;2011-08-22 17:00;CYHM 221700Z 30006G16KT 15SM SCT044 SCT052 21/10 A3000 RMK CU3SC1 SLP159

CYHM;2011-08-22 18:00;CYHM 221800Z 33012G17KT 15SM FEW045 SCT062 BKN220 22/09 A2999 RMK CU2SC2CI1 SLP154

CYHM;2011-08-22 19:00;CYHM 221900Z 29012KT 15SM BKN062 BKN250 22/08 A2999 RMK SC5CI1 CI TR CONTRAILS SLP154

CYHM;2011-08-22 20:00;CYHM 222000Z 33006KT 15SM SCT065 BKN081 BKN250 21/07 A2998 RMK SC4AC1CI1 CONTRAILS SLP153

CYHM;2011-08-22 21:00;CYHM 222100Z 27008KT 15SM SCT062 BKN250 22/08 A2997 RMK CU3CI1 SLP151

CYHM;2011-08-22 22:00;CYHM 222200Z 28009KT 15SM FEW062 SCT250 21/08 A2997 RMK CU1CI1 CONTRAILS SLP150

CYHM;2011-08-22 23:00;CYHM 222300Z 28011KT 15SM FEW062 BKN250 20/09 A2998 RMK CU1CI3 CONTRAILS SLP153

CYHM;2011-08-23 00:00;CYHM 230000Z 28007KT 15SM FEW058 BKN250 18/09 A2999 RMK CU1CS4 SLP156

CYHM;2011-08-23 01:00;CYHM 230100Z 28006KT 15SM FEW078 BKN240 17/09 A3000 RMK AC1CS4 AC TR SLP159

CYHM;2011-08-23 02:00;CYHM 230200Z 24004KT 15SM FEW072 SCT240 15/09 A3001 RMK AC1CI2 AC TR SLP161

CYHM;2011-08-23 03:00;CYHM 230300Z 24004KT 15SM FEW190 FEW250 14/09 A3001 RMK AC1CI1 AC TR SLP161

CYHM;2011-08-23 04:00;CYHM 230400Z 23005KT 15SM FEW084 FEW190 FEW250 12/09 A3000 RMK AC1AC1CI1 2ND LYR TR SLP160

CYHM;2011-08-23 05:00;CYHM 230500Z 24004KT 15SM FEW064 FEW250 13/09 A3001 RMK CU1CI1 SLP162

CYHM;2011-08-23 06:00;CYHM 230600Z 23003KT 15SM FEW064 FEW250 12/09 A3000 RMK CU1CI1 SLP160

CYHM;2011-08-23 07:00;CYHM 230700Z 00000KT 15SM BKN062 12/10 A3000 RMK SC5 SLP159

CYHM;2011-08-23 08:00;CYHM 230800Z 00000KT 15SM FEW062 FEW250 12/09 A3000 RMK SC1CI1 CI TR SLP160

CYHM;2011-08-23 09:00;CYHM 230900Z 25006KT 15SM SCT250 13/09 A3000 RMK CI0 SLP160

CYHM;2011-08-23 10:00;CYHM 231000Z 27006KT 15SM FEW024 FEW250 12/09 A3001 RMK SC1CI1 SC TR CONTRAILS SLP163

CYHM;2011-08-23 11:00;CYHM 231100Z 28008KT 15SM FEW025 FEW220 13/10 A3002 RMK SC1CI1 SC TR SLP166

CYHM;2011-08-23 12:00;CYHM 231200Z 27008KT 15SM FEW025 FEW220 15/11 A3003 RMK CU1CI1 TR CU S-SE CONTRAILS SLP168

CYHM;2011-08-23 13:00;CYHM 231300Z 26007KT 15SM FEW025 FEW230 17/12 A3003 RMK CU1CI1 SLP168

CYHM;2011-08-23 14:00;CYHM 231400Z 24008KT 15SM FEW025 FEW230 20/13 A3002 RMK CU1CI1 SLP165

CYHM;2011-08-23 15:00;CYHM 231500Z 25008KT 15SM FEW025 FEW240 23/13 A3002 RMK CU1CI1 SLP166

CYHM;2011-08-23 16:00;CYHM 231600Z 26008KT 15SM FEW040 FEW250 24/13 A3001 RMK CU1CI1 CU TR SLP163

CYHM;2011-08-23 17:00;CYHM 231700Z 23010G16KT 15SM FEW045 SCT250 25/12 A3001 RMK CU1CI2 CU TR CONTRAILS SLP160

CYHM;2011-08-23 18:00;CYHM 231800Z 25010G15KT 15SM FEW048 SCT250 25/11 A2999 RMK CU1CI1 SLP155

CYHM;2011-08-23 19:00;CYHM 231900Z 24012KT 15SM FEW058 BKN250 26/14 A2998 RMK CU2CI1 SLP153

CYHM;2011-08-23 20:00;CYHM 232000Z 24010KT 15SM FEW046 BKN250 25/15 A2997 RMK CU2CI2 SLP150

CYHM;2011-08-23 21:00;CYHM 232100Z 22012KT 15SM FEW044 BKN250 25/15 A2997 RMK CU1CS4 CU TR SLP147

CYHM;2011-08-23 22:00;CYHM 232200Z 21013KT 15SM FEW160 BKN250 23/13 A2997 RMK AC1CS5 AC TR CONTRAILS SLP148

CYHM;2011-08-23 23:00;CYHM 232300Z 21010KT 15SM BKN250 22/12 A2996 RMK CS6 SLP144

CYHM;2011-08-24 00:00;CYHM 240000Z 21007KT 15SM FEW180 BKN250 20/13 A2995 RMK AC1CS6 AC TR SLP142

CYHM;2011-08-24 01:00;CYHM 240100Z 18007KT 15SM FEW180 BKN250 20/13 A2995 RMK AC1CI4 AC TR SLP142

CYHM;2011-08-24 02:00;CYHM 240200Z 17006KT 15SM BKN250 19/14 A2996 RMK CI3 SLP146

CYHM;2011-08-24 03:00;CYHM 240300Z 16007KT 15SM BKN250 18/14 A2994 RMK CI2 SLP137

CYHM;2011-08-24 04:00;CYHM 240400Z 15008KT 15SM BKN230 19/15 A2992 RMK CI4 SLP130

CYHM;2011-08-24 05:00;CYHM 240500Z 19007KT 15SM SCT160 BKN230 19/16 A2992 RMK AC4CI2 SLP130

CYHM;2011-08-24 06:00;CYHM 240600Z 18010KT 15SM FEW160 BKN190 21/16 A2989 RMK AC1AC4 SLP120

CYHM;2011-08-24 07:00;CYHM 240700Z 19010KT 15SM FEW140 BKN230 20/16 A2986 RMK AC2CI1 SLP109

CYHM;2011-08-24 08:00;CYHM 240800Z 19010KT 15SM FEW130 BKN190 20/16 A2984 RMK AC1AC6 SLP103

CYHM;2011-08-24 09:00;CYHM 240900Z 19015KT 15SM FEW160 BKN190 21/16 A2982 RMK AC2AC5 SLP096

CYHM;2011-08-24 10:00;CYHM 241000Z 19019G26KT 15SM BKN130 BKN180 22/16 A2979 RMK AC6AC2 SLP084

CYHM;2011-08-24 11:00;CYHM 241100Z 21020G28KT 15SM -SHRA BKN130 BKN170 21/16 A2978 RMK AC6AC2 SLP081

CYHM;2011-08-24 11:20;CYHM 241120Z 21017G27KT 15SM BKN150 OVC180 RMK AC6AC2

CYHM;2011-08-24 12:00;CYHM 241200Z 21015G22KT 15SM FEW023 FEW085 BKN140 BKN220 21/17 A2978 RMK SC1AC2AC3CI2 SLP082

CYHM;2011-08-24 13:00;CYHM 241300Z 21013G24KT 15SM FEW023 FEW035 BKN086 BKN220 22/17 A2978 RMK CU1SC2AC4CI1 SLP081

CYHM;2011-08-24 14:00;CYHM 241400Z 21015G21KT 15SM FEW023 BKN050 BKN085 OVC120 21/17 A2977 RMK SC2SC4AC2AC1 SLP080

CYHM;2011-08-24 15:00;CYHM 241500Z 20012G19KT 15SM SCT027 BKN034 OVC080 21/18 A2976 RMK SC3SC3AC2 CU ASOCTD SLP075

CYHM;2011-08-24 16:00;CYHM 241600Z 21016G22KT 15SM BKN022 BKN034 OVC085 22/18 A2975 RMK SC6SC2AC1 SLP072

CYHM;2011-08-24 17:00;CYHM 241700Z 22017G24KT 15SM BKN024 OVC030 23/18 A2973 RMK SC6SC2 SLP065

CYHM;2011-08-24 18:00;CYHM 241800Z 21020G35KT 15SM OVC025 24/18 A2969 RMK SC8 SLP052

CYHM;2011-08-24 19:00;CYHM 241900Z 22022G29KT 15SM BKN032 26/19 A2967 RMK SC5 CONTRAILS SLP045

CYHM;2011-08-24 20:00;CYHM 242000Z 23025G34KT 15SM FEW034 FEW250 27/19 A2966 RMK CU2CI1 SLP042

CYHM;2011-08-24 21:00;CYHM 242100Z 19020G26KT 15SM FEW030 FEW250 27/20 A2965 RMK CU1CI1 TR CU SLP035

CYHM;2011-08-24 22:00;CYHM 242200Z 20016G26KT 15SM BKN036 26/19 A2964 RMK SC6 SLP033

CYHM;2011-08-24 23:00;CYHM 242300Z 20013G18KT 15SM BKN037 26/20 A2961 RMK SC7 SLP022

CYHM;2011-08-25 00:00;CYHM 250000Z 21013G21KT 15SM OVC039 25/20 A2962 RMK SC8 SLP027

CYHM;2011-08-25 01:00;CYHM 250100Z 20016G21KT 6SM HZ OVC038 25/20 A2959 RMK SC8 OCNL LTNG S PRESFR SLP015

CYHM;2011-08-25 01:11;CYHM 250111Z 19015G23KT 12SM -TSRA BKN038 OVC130 RMK SC6AC2 CB ASOCTD OCNL LTGIC S

CYHM;2011-08-25 01:28;CYHM 250128Z 28032G50KT 10SM -TSRA BKN036CB OVC053 RMK CB6SC2 OCNL LTGICCG PRESRR

CYHM;2011-08-25 01:44;CYHM 250144Z 26016G27KT 2SM +TSRA OVC017CB RMK RA1CB7 FQT LTGICCCCG PRESRR

CYHM;2011-08-25 02:00;CYHM 250200Z 23012G23KT 5SM TSRA OVC040CB 18/17 A2964 RMK CB8 FQT LTGICCCCG PRESFR SLP032

CYHM;2011-08-25 03:00;CYHM 250300Z 18011G17KT 15SM -TSRA FEW035CB OVC110 18/17 A2961 RERA RMK CB2AC6 OCNL LTGICCCCG PRESFR SLP026

CYHM;2011-08-25 04:00;CYHM 250400Z 22011KT 15SM TS FEW040CB OVC170 18/17 A2963 RMK CB2AC6 OCNL LTGICCCCG SLP032

CYHM;2011-08-25 04:41;CYHM 250441Z 24007KT 12SM -TSRA SCT040CB OVC072 RMK CB3AC5 OCNL LTGICCCCG

CYHM;2011-08-25 05:00;CYHM 250500Z 21009KT 8SM TSRA FEW035CB OVC082 18/18 A2965 RMK CB2AC6 OCNL LTGICCCCG SLP039

CYHM;2011-08-25 06:00;CYHM 250600Z CCA 20009KT 12SM TS FEW030 SCT090 OVC150 19/18 A2966 RERA RMK SC2AC2AC4 CB ASOCTD OCNL LTGICCG /R11/ SLP040

CYHM;2011-08-25 06:23;CYHM 250623Z 22010KT 6SM TS BR SCT004 OVC090 RMK SF3AC5 CB EMBDD OCNL LTGIC

CYHM;2011-08-25 06:47;CYHM 250647Z 22012KT 5SM TS BR BKN003 OVC080 RMK SF6AC2 CB EMBDD OCNL LTGIC

CYHM;2011-08-25 07:00;CYHM 250700Z 20013G21KT 5SM TS BR OVC004 19/19 A2967 RMK SF8 CB EMBDD OCNL LTGIC CIG RAG SLP044

CYHM;2011-08-25 08:00;CYHM 250800Z 19009KT 10SM BKN008 OVC035 20/19 A2966 RETS RMK SF6SC2 SLP040

CYHM;2011-08-25 09:00;CYHM 250900Z 23006KT 7SM FEW003 OVC008 20/19 A2964 RMK SF2SF6 LTNG DSNT E SLP032

CYHM;2011-08-25 10:00;CYHM 251000Z 25006KT 6SM BR FEW002 SCT013 19/19 A2966 RMK SF2SC1 SLP039

CYHM;2011-08-25 11:00;CYHM 251100Z 25005KT 6SM BR FEW006 FEW015 SCT120 19/19 A2969 RMK SF2SC1AC1 AC TR SLP049

CYHM;2011-08-25 12:00;CYHM 251200Z 27005KT 8SM FEW006 FEW210 19/19 A2972 RMK SF1CI1 SLP063

CYHM;2011-08-25 13:00;CYHM 251300Z 26007KT 15SM FEW010 SCT015 21/19 A2975 RMK CU2SC2 SLP073

CYHM;2011-08-25 14:00;CYHM 251400Z 29010KT 15SM SCT016 SCT019 22/19 A2978 RMK CU3SC1 SLP080

CYHM;2011-08-25 15:00;CYHM 251500Z 29010G17KT 15SM FEW025 FEW036 SCT180 23/18 A2981 RMK CU2SC1AC1 AC TR SLP091

CYHM;2011-08-25 16:00;CYHM 251600Z 27013KT 15SM FEW030 SCT037 SCT160 24/17 A2981 RMK CU2SC2AC1 AC TR SLP093

CYHM;2011-08-25 17:00;CYHM 251700Z 29012KT 15SM FEW036 BKN052 BKN075 23/16 A2982 RMK CU2SC3AC2 SLP096

CYHM;2011-08-25 17:12;CYHM 251712Z 31012KT 10SM -SHRA FEW036 BKN045 BKN062 RMK CU2SC4SC2

CYHM;2011-08-25 17:27;CYHM 251727Z 31006KT 15SM FEW042 BKN048 BKN062 RMK CU2SC3SC2

CYHM;2011-08-25 18:00;CYHM 251800Z 25014KT 15SM BKN060 BKN073 23/18 A2984 RMK SC6AC2 SLP102

CYHM;2011-08-25 19:00;CYHM 251900Z 27009KT 15SM -SHRA BKN040 BKN072 23/18 A2985 RMK SC5AC2 CU ASOCTD PCPN VRY LGT SLP107

CYHM;2011-08-25 19:49;CYHM 251949Z 26015G21KT 15SM FEW026 BKN038 BKN070 RMK CF2SC4AC2

CYHM;2011-08-25 20:00;CYHM 252000Z 26012G18KT 15SM FEW026 BKN038 BKN070 23/18 A2986 RMK CU2SC4AC2 SLP110

CYHM;2011-08-25 21:00;CYHM 252100Z 27015KT 15SM FEW030 BKN042 BKN068 23/17 A2988 RMK CU1SC4AC2 SLP115

CYHM;2011-08-25 22:00;CYHM 252200Z 30010G18KT 15SM SCT028 SCT042 23/17 A2990 RMK CU3SC1 SLP121

CYHM;2011-08-25 23:00;CYHM 252300Z 30010G18KT 15SM FEW026 FEW045 21/16 A2991 RMK CU1SC2 SLP127

CYHM;2011-08-26 00:00;CYHM 260000Z 31012G19KT 15SM FEW025 FEW045 20/16 A2993 RMK CU1SC2 SLP133

CYHM;2011-08-26 01:00;CYHM 260100Z 29006KT 15SM FEW039 18/16 A2995 RMK SC1 SLP142

CYHM;2011-08-26 03:00;CYHM 260300Z 29004KT 15SM FEW035 17/15 A3000 RMK SC1 SLP156

CYHM;2011-08-26 04:00;CYHM 260400Z 26004KT 15SM BKN034 16/15 A3001 RMK SC5 SLP162

CYHM;2011-08-26 05:00;CYHM 260500Z 26003KT 15SM FEW034 16/15 A3003 RMK SC2 SLP166

CYHM;2011-08-26 06:00;CYHM 260600Z 27004KT 15SM BKN044 16/15 A3003 RMK SC7 SLP168

CYHM;2011-08-26 07:00;CYHM 260700Z 28004KT 15SM FEW032 BKN042 16/15 A3003 RMK SC2SC6 SLP168

CYHM;2011-08-26 08:00;CYHM 260800Z 27002KT 15SM FEW034 OVC041 16/15 A3003 RMK SC1SC7 SLP167

CYHM;2011-08-26 09:00;CYHM 260900Z 27003KT 15SM SCT027 OVC042 16/15 A3003 RMK SC3SC5 SLP168

CYHM;2011-08-26 10:00;CYHM 261000Z 31003KT 15SM FEW027 BKN042 16/15 A3004 RMK SC2SC2 SLP170

CYHM;2011-08-26 11:00;CYHM 261100Z 30002KT 15SM FEW030 FEW055 15/14 A3004 RMK SC1SC1 SLP172

CYHM;2011-08-26 12:00;CYHM 261200Z 27002KT 15SM BKN038 BKN044 16/15 A3006 RMK SC5SC2 SLP178

CYHM;2011-08-26 13:00;CYHM 261300Z 35002KT 15SM BKN041 18/16 A3006 RMK SC7 TR CU ASOCTD SLP180

CYHM;2011-08-26 14:00;CYHM 261400Z 07004KT 15SM BKN043 20/16 A3008 RMK SC7 SLP185

CYHM;2011-08-26 15:00;CYHM 261500Z 11003KT 15SM SCT016 BKN024 BKN042 20/17 A3008 RMK CU4SC2SC2 SLP185

CYHM;2011-08-26 16:00;CYHM 261600Z 10004KT 15SM FEW025 BKN037 BKN045 21/16 A3007 RMK CU2SC2SC2 SLP183

CYHM;2011-08-26 17:00;CYHM 261700Z 18004KT 15SM FEW036 BKN048 22/15 A3006 RMK CU2SC4 SLP180

CYHM;2011-08-26 18:00;CYHM 261800Z 09004KT 15SM FEW035 BKN042 BKN140 23/15 A3005 RMK CU2SC2AC1 SLP174

CYHM;2011-08-26 19:00;CYHM 261900Z 09003KT 15SM BKN039 24/15 A3004 RMK CU6 SLP171

CYHM;2011-08-26 20:00;CYHM 262000Z 18009KT 15SM SCT050 BKN240 24/16 A3002 RMK SC3CI1 CU ASOCTD SLP164

CYHM;2011-08-26 21:00;CYHM 262100Z 24004KT 15SM SCT040 BKN240 24/15 A3000 RMK SC3CI1 CU ASOCTD SLP156

CYHM;2011-08-26 22:00;CYHM 262200Z 18006KT 15SM SCT042 BKN240 23/15 A2999 RMK SC3CI1 TCU ASOCTD SLP153

CYHM;2011-08-26 23:00;CYHM 262300Z 21005KT 15SM FEW043 23/15 A2998 RMK CU1 SLP150

CYHM;2011-08-27 00:00;CYHM 270000Z 21005KT 15SM FEW038 FEW250 19/15 A2997 RMK CU1CI1 SLP147

CYHM;2011-08-27 01:00;CYHM 270100Z 17006KT 15SM FEW230 19/15 A2996 RMK CI1 SLP146

CYHM;2011-08-27 02:00;CYHM 270200Z 17002KT 15SM FEW220 17/15 A2997 RMK CI1 SLP150

CYHM;2011-08-27 03:00;CYHM 270300Z 23004KT 15SM FEW210 16/15 A2997 RMK CI1 SLP148

CYHM;2011-08-27 04:00;CYHM 270400Z 20003KT 15SM FEW210 16/15 A2996 RMK CI1 SLP144

CYHM;2011-08-27 05:00;CYHM 270500Z 19004KT 15SM MIFG FEW200 15/15 A2995 RMK CI1 SLP143

CYHM;2011-08-27 06:00;CYHM 270600Z 25003KT 15SM MIFG FEW100 14/14 A2994 RMK AC1 SLP138

CYHM;2011-08-27 07:00;CYHM 270700Z 23003KT 4SM BR SKC 14/14 A2993 RMK VIS SE 1 MI SLP135

CYHM;2011-08-27 07:46;CYHM 270746Z 24002KT 1/8SM FG SCT100 RMK FG3AC1

CYHM;2011-08-27 07:51;CYHM 270751Z 22002KT 1/2SM FG SKC RMK FG2

CYHM;2011-08-27 08:00;CYHM 270800Z 19003KT 1/2SM FG SCT003 13/13 A2993 RMK FG2SF1 SLP134

CYHM;2011-08-27 08:10;CYHM 270810Z 20003KT 5SM BR MIFG FEW002 RMK SF2

CYHM;2011-08-27 08:18;CYHM 270818Z 20004KT 3/4SM BR FEW002 RMK FG2SF1 VIS VRB 1/2 - 1

CYHM;2011-08-27 08:34;CYHM 270834Z 21003KT 1/4SM FG SCT004 RMK FG2SF1

CYHM;2011-08-27 08:50;CYHM 270850Z 21004KT 3/4SM BR SKC RMK FG2 VIS VRB 1/2 - 1

CYHM;2011-08-27 09:00;CYHM 270900Z 23003KT 1/2SM FG SCT004 13/13 A2992 RMK FG3SF1 SLP131

CYHM;2011-08-27 10:00;CYHM 271000Z 25004KT 1/2SM FG SCT005 12/12 A2992 RMK FG3SF1 SLP130

CYHM;2011-08-27 11:00;CYHM 271100Z 28003KT 1/2SM FG SCT160 12/12 A2992 RMK FG3AC1 SLP131

CYHM;2011-08-27 11:25;CYHM 271125Z 25003KT 4SM BR FEW120 FEW250 RMK AC1CI1

CYHM;2011-08-27 12:00;CYHM 271200Z 26002KT 6SM BR FEW120 FEW250 15/15 A2993 RMK AC2CI1 SLP134

CYHM;2011-08-27 13:00;CYHM 271300Z CCA 29003KT 15SM FEW120 FEW250 19/17 A2992 RMK AC2CI1 SLP131

CYHM;2011-08-27 14:00;CYHM 271400Z CCA 33004KT 15SM FEW130 SCT250 22/16 A2992 RMK AC2CI1 SLP131

CYHM;2011-08-27 15:00;CYHM 271500Z CCB 25004KT 15SM FEW040 FEW130 SCT250 23/16 A2992 RMK CU1AC2CI1 CU TR SLP130

CYHM;2011-08-27 16:00;CYHM 271600Z 36005KT 15SM FEW040 FEW130 SCT250 23/15 A2990 RMK CU1AC2CI1 SLP124

CYHM;2011-08-27 17:00;CYHM 271700Z 31005KT 15SM FEW035 FEW130 SCT250 25/16 A2989 RMK CU1AC2CI1 SLP121

CYHM;2011-08-27 18:00;CYHM 271800Z 33005KT 15SM FEW035 SCT130 SCT250 25/15 A2988 RMK CU1AC2CI1 SLP118

CYHM;2011-08-27 19:00;CYHM 271900Z 22004KT 15SM FEW040 SCT130 SCT250 26/16 A2986 RMK CU1AC2CI1 SLP111

CYHM;2011-08-27 20:00;CYHM 272000Z 12002KT 15SM FEW040 FEW110 SCT150 SCT240 26/16 A2984 RMK CU1AC2AC1CI1 SLP103

CYHM;2011-08-27 21:00;CYHM 272100Z 09004KT 15SM FEW040 FEW110 SCT230 26/16 A2982 RMK CU1AC2CI1 SLP097

CYHM;2011-08-27 22:00;CYHM 272200Z 06008KT 15SM FEW040 FEW110 SCT230 25/15 A2982 RMK CU1AC2CI1 SLP097

CYHM;2011-08-27 23:00;CYHM 272300Z 06007KT 15SM FEW058 SCT080 BKN230 23/15 A2983 RMK SC2AC2CI2 SLP101

CYHM;2011-08-28 00:00;CYHM 280000Z 05005KT 15SM FEW057 BKN230 22/14 A2984 RMK SC2CI2 SLP104

CYHM;2011-08-28 01:00;CYHM 280100Z 04007KT 15SM SCT051 BKN230 20/17 A2984 RMK SC4CI2 SLP106

CYHM;2011-08-28 02:00;CYHM 280200Z 05009KT 15SM SCT057 SCT080 BKN220 20/17 A2984 RMK SC3AC1CI1 SLP105

CYHM;2011-08-28 03:00;CYHM 280300Z 02008KT 15SM FEW057 BKN086 19/16 A2983 RMK SC1AC6 SLP099

CYHM;2011-08-28 04:00;CYHM 280400Z 01006KT 15SM SCT090 BKN210 18/14 A2981 RMK AC3CI2 SLP091

CYHM;2011-08-28 05:00;CYHM 280500Z 01008KT 15SM FEW090 FEW210 19/16 A2980 RMK AC1CI1 SLP088

CYHM;2011-08-28 06:00;CYHM 280600Z 36007KT 15SM BKN210 18/16 A2976 RMK CI4 SLP074

CYHM;2011-08-28 07:00;CYHM 280700Z 01007KT 15SM BKN210 18/17 A2974 RMK CI6 SLP067

CYHM;2011-08-28 08:00;CYHM 280800Z 01010KT 15SM OVC170 19/17 A2973 RMK AC8 SLP064

CYHM;2011-08-28 09:00;CYHM 280900Z 01008KT 15SM FEW040 OVC150 19/17 A2972 RMK SC1AC7 SLP061

CYHM;2011-08-28 10:00;CYHM 281000Z 01012KT 15SM FEW055 BKN100 19/16 A2971 RMK SC2AC5 SLP059

CYHM;2011-08-28 11:00;CYHM 281100Z 01012G19KT 15SM SCT061 BKN150 18/16 A2971 RMK SC3AC4 SLP058

CYHM;2011-08-28 12:00;CYHM 281200Z 01013G21KT 15SM BKN052 BKN070 OVC150 18/15 A2971 RMK SC6AC1AC2 SLP061

CYHM;2011-08-28 13:00;CYHM 281300Z 01013G20KT 15SM BKN061 BKN090 OVC150 19/14 A2971 RMK SC6AC2AC1 SLP060

CYHM;2011-08-28 14:00;CYHM 281400Z 35013KT 15SM BKN064 BKN090 OVC230 19/14 A2971 RMK SC6AC1CS2 SLP058

CYHM;2011-08-28 15:00;CYHM 281500Z 01012G21KT 15SM SCT065 BKN180 BKN240 20/13 A2972 RMK SC3AC2CS2 SLP064

CYHM;2011-08-28 16:00;CYHM 281600Z 01018KT 15SM FEW065 SCT180 BKN250 20/12 A2972 RMK SC2AC2CS4 SLP062

CYHM;2011-08-28 17:00;CYHM 281700Z 35012G21KT 15SM BKN190 BKN240 20/12 A2972 RMK AC6CS2 SLP062

CYHM;2011-08-28 18:00;CYHM 281800Z 36009G18KT 15SM FEW040 BKN190 BKN240 21/12 A2973 RMK CU1AC5CS2 SLP066

CYHM;2011-08-28 19:00;CYHM 281900Z 35014KT 15SM FEW042 SCT190 BKN250 21/10 A2974 RMK CU1AC4CS2 SLP069

CYHM;2011-08-28 20:00;CYHM 282000Z 34016KT 15SM FEW048 FEW190 SCT250 22/11 A2974 RMK CU1AC2CI2 SLP069

CYHM;2011-08-28 21:00;CYHM 282100Z 34011G20KT 15SM FEW052 FEW250 22/11 A2976 RMK SC2CI1 SLP076

CYHM;2011-08-28 22:00;CYHM 282200Z 33014G20KT 15SM FEW052 SCT250 21/10 A2978 RMK SC2CI1 SLP084

CYHM;2011-08-28 23:00;CYHM 282300Z 33011KT 15SM FEW050 FEW250 20/10 A2980 RMK SC2CI0 SLP090

CYHM;2011-08-29 00:00;CYHM 290000Z 35008KT 15SM FEW050 FEW250 18/09 A2981 RMK SC1CI1 SLP095

CYHM;2011-08-29 01:00;CYHM 290100Z 34006KT 15SM SKC 16/09 A2983 RMK SLP101

CYHM;2011-08-29 02:00;CYHM 290200Z 32006KT 15SM SKC 14/09 A2984 RMK SLP104

CYHM;2011-08-29 03:00;CYHM 290300Z 29004KT 15SM SKC 13/09 A2985 RMK SLP108

CYHM;2011-08-29 04:00;CYHM 290400Z 28005KT 15SM SKC 13/10 A2987 RMK SLP114

CYHM;2011-08-29 05:00;CYHM 290500Z 31006KT 15SM SKC 13/09 A2987 RMK SLP115

CYHM;2011-08-29 06:00;CYHM 290600Z 31007KT 15SM SKC 13/09 A2988 RMK SLP116

CYHM;2011-08-29 08:00;CYHM 290800Z 29004KT 15SM FEW230 12/11 A2990 RMK CI1 SLP126

CYHM;2011-08-29 09:00;CYHM 290900Z 24004KT 15SM BKN240 10/10 A2992 RMK CI5 SLP132

CYHM;2011-08-29 10:00;CYHM 291000Z 25005KT 15SM FEW080 BKN210 11/10 A2994 RMK AC2CI2 SLP139

CYHM;2011-08-29 11:00;CYHM 291100Z 25005KT 15SM FEW120 BKN210 10/09 A2996 RMK AC2CI2 SLP147

CYHM;2011-08-29 12:00;CYHM 291200Z 27003KT 15SM FEW120 BKN210 14/12 A2998 RMK AC2CI3 SLP154

CYHM;2011-08-29 13:00;CYHM 291300Z 24005KT 15SM FEW100 BKN210 15/13 A2999 RMK AC2CI3 SLP157

CYHM;2011-08-29 14:00;CYHM 291400Z 25005KT 15SM FEW120 SCT210 18/15 A3000 RMK AC1CI2 AC TR SLP158

CYHM;2011-08-29 15:00;CYHM 291500Z 26008KT 15SM FEW024 FEW083 SCT210 20/16 A3001 RMK CU1AC1CI2 SLP161

CYHM;2011-08-29 16:00;CYHM 291600Z 26007KT 15SM FEW028 FEW082 SCT210 23/16 A3000 RMK CU2AC1CI0 SLP160

CYHM;2011-08-29 17:00;CYHM 291700Z 26008KT 15SM SCT036 BKN051 BKN085 23/14 A2999 RMK CU3SC2AC1 SLP157

CYHM;2011-08-29 18:00;CYHM 291800Z 27005KT 15SM SCT036 BKN047 BKN100 23/14 A3000 RMK CU3SC2AC1 SLP157

CYHM;2011-08-29 19:00;CYHM 291900Z 24008KT 15SM SCT044TCU SCT100 25/12 A2998 RMK TCU3AC1 SC ASOCTD SLP153

CYHM;2011-08-29 20:00;CYHM 292000Z 24006KT 15SM SCT058 BKN100 23/12 A2998 RMK SC3AC2 TCU EMBDD SLP151

CYHM;2011-08-29 20:32;CYHM 292032Z 33015KT 12SM -SHRA BKN056 BKN100 RMK SC5AC2 TCU EMBDD

CYHM;2011-08-29 21:00;CYHM 292100Z 36005KT 15SM FEW048 SCT060 BKN110 20/15 A2998 RMK SC2SC2AC4 TCU EMBDD SLP154

CYHM;2011-08-29 22:00;CYHM 292200Z 31003KT 15SM SCT062 BKN098 22/16 A2999 RMK SC3AC2 TCU ASOCTD SLP157

CYHM;2011-08-29 23:00;CYHM 292300Z 19002KT 15SM SCT060 BKN078 23/15 A2999 RMK SC3AC2 TCU ASOCTD SLP158

CYHM;2011-08-30 00:00;CYHM 300000Z 27005KT 15SM FEW058 FEW090 20/12 A3000 RMK SC1AC1 TCU EMBDD SLP160

CYHM;2011-08-30 01:00;CYHM 300100Z 27005KT 15SM FEW048 FEW080 19/11 A3003 RMK SC1AC1 AC TR SLP168

CYHM;2011-08-30 02:00;CYHM 300200Z 25004KT 15SM FEW074 16/11 A3004 RMK AC1 AC TR SLP173

CYHM;2011-08-30 03:00;CYHM 300300Z 25004KT 15SM SKC 15/11 A3004 RMK SLP173

CYHM;2011-08-30 04:00;CYHM 300400Z 25005KT 15SM SKC 14/11 A3006 RMK SLP178

CYHM;2011-08-30 05:00;CYHM 300500Z 24005KT 15SM SKC 13/11 A3007 RMK SLP181

CYHM;2011-08-30 06:00;CYHM 300600Z 25005KT 15SM SKC 14/11 A3007 RMK SLP182

CYHM;2011-08-30 07:00;CYHM 300700Z 25004KT 15SM SKC 12/11 A3007 RMK SLP181

CYHM;2011-08-30 08:00;CYHM 300800Z 25005KT 15SM SKC 12/11 A3007 RMK SLP182

CYHM;2011-08-30 09:00;CYHM 300900Z 24005KT 15SM SKC 11/11 A3008 RMK SLP186

CYHM;2011-08-30 10:00;CYHM 301000Z 25005KT 15SM MIFG FEW100 13/13 A3009 RMK AC1 AC TR VIS W-SW 2-3SM SLP191

CYHM;2011-08-30 11:00;CYHM 301100Z 27005KT 10SM FEW020 FEW100 13/13 A3010 RMK CU1AC1 TR CU SE AC TR SLP195

CYHM;2011-08-30 12:00;CYHM 301200Z 24005KT 15SM FEW020 14/14 A3012 RMK CU1 CU TR SE SLP199

CYHM;2011-08-30 13:00;CYHM 301300Z 24005KT 15SM FEW024 17/14 A3012 RMK CU1 TR CU S-SE SLP201

CYHM;2011-08-30 14:00;CYHM 301400Z 24007KT 15SM FEW024 20/15 A3013 RMK CU1 SLP203

CYHM;2011-08-30 15:00;CYHM 301500Z 22008KT 15SM FEW024 23/15 A3013 RMK CU1 TR CU SE SLP204

CYHM;2011-08-30 16:00;CYHM 301600Z 26011G18KT 15SM FEW040 24/15 A3014 RMK CU2 SLP205

CYHM;2011-08-30 17:00;CYHM 301700Z 24010G17KT 15SM SCT044 BKN058 25/15 A3012 RMK CU3SC2 SLP199

CYHM;2011-08-30 18:00;CYHM 301800Z 26009KT 15SM SCT052 25/14 A3012 RMK CU3 SLP198

CYHM;2011-08-30 19:00;CYHM 301900Z 26009KT 15SM FEW054 FEW250 25/13 A3011 RMK CU2CI1 CI TR CONTRAIL SLP195

CYHM;2011-08-30 20:00;CYHM 302000Z 25010KT 15SM FEW056 FEW250 26/13 A3010 RMK CU1CI0 CONTRAILS SLP191

CYHM;2011-08-30 21:00;CYHM 302100Z 24011KT 15SM FEW058 FEW250 26/14 A3010 RMK CU1CI0 CONTRAILS SLP191

CYHM;2011-08-30 22:00;CYHM 302200Z 23008KT 15SM FEW060 SCT250 25/13 A3009 RMK CU1CI1 CU TR CONTRAILS SLP189

CYHM;2011-08-30 23:00;CYHM 302300Z 25007KT 15SM FEW060 BKN250 24/13 A3010 RMK CU1CI1 CU TR SLP192

CYHM;2011-08-31 00:00;CYHM 310000Z 21006KT 15SM BKN250 19/14 A3011 RMK CI2 CONTRAILS SLP197

CYHM;2011-08-31 01:00;CYHM 310100Z 21006KT 15SM BKN250 17/13 A3013 RMK CI2 SLP204

CYHM;2011-08-31 02:00;CYHM 310200Z 22004KT 15SM BKN250 17/13 A3014 RMK CI2 SLP208

CYHM;2011-08-31 03:00;CYHM 310300Z 22003KT 15SM BKN250 17/13 A3015 RMK CI2 SLP208

CYHM;2011-08-31 04:00;CYHM 310400Z 24005KT 15SM BKN250 16/13 A3016 RMK CI2 SLP213

CYHM;2011-08-31 05:00;CYHM 310500Z 29002KT 15SM BKN250 16/13 A3015 RMK CI2 SLP210

CYHM;2011-08-31 06:00;CYHM 310600Z 29002KT 15SM BKN250 15/13 A3016 RMK CI2 SLP211

CYHM;2011-08-31 07:00;CYHM 310700Z 29004KT 15SM BKN250 17/12 A3016 RMK CI2 SLP213

CYHM;2011-08-31 08:00;CYHM 310800Z 13002KT 15SM BKN220 15/12 A3017 RMK CS4 WND L/V SLP214

CYHM;2011-08-31 09:00;CYHM 310900Z 12003KT 15SM BKN210 15/13 A3016 RMK CS2 SLP213

CYHM;2011-08-31 10:00;CYHM 311000Z 06002KT 15SM FEW180 BKN200 15/13 A3017 RMK AC1CS6 SLP215

CYHM;2011-08-31 11:00;CYHM 311100Z 02002KT 15SM SCT150 BKN220 15/13 A3019 RMK AC3CI4 SLP221

CYHM;2011-08-31 12:00;CYHM 311200Z 08005KT 15SM FEW120 SCT160 BKN220 17/13 A3019 RMK AC2AC2CI3 SLP222

CYHM;2011-08-31 13:00;CYHM 311300Z 03004KT 15SM SCT140 BKN220 19/14 A3019 RMK AC3CI4 SLP224

CYHM;2011-08-31 14:00;CYHM 311400Z 06007KT 15SM FEW140 BKN210 21/15 A3018 RMK AC2CI5 SLP220

CYHM;2011-08-31 15:00;CYHM 311500Z 08009G16KT 15SM FEW170 BKN210 22/14 A3017 RMK AC2CI6 SLP216

CYHM;2011-08-31 16:00;CYHM 311600Z 07007KT 15SM SCT180 BKN220 23/15 A3016 RMK AC3CI3 SLP213

CYHM;2011-08-31 17:00;CYHM 311700Z 03007KT 15SM BKN170 OVC220 23/16 A3016 RMK AC5CI2 SLP213

CYHM;2011-08-31 18:00;CYHM 311800Z 07009KT 15SM BKN160 BKN180 BKN220 24/17 A3014 RMK AC5AC2CI1 SLP205

CYHM;2011-08-31 19:00;CYHM 311900Z 04011KT 15SM BKN170 23/17 A3012 RMK AC7 SLP200

CYHM;2011-08-31 20:00;CYHM 312000Z 04009KT 15SM FEW054 BKN150 BKN260 24/17 A3011 RMK CU1AC6CC1 CU TR SLP197

CYHM;2011-08-31 21:00;CYHM 312100Z 04008KT 15SM FEW054 BKN140 23/18 A3011 RMK SC1AC6 SC TR SLP195

CYHM;2011-08-31 22:00;CYHM 312200Z 06008KT 15SM FEW074 BKN130 22/18 A3010 RMK AC1AC6 1ST LYR TR SLP193

CYHM;2011-08-31 23:00;CYHM 312300Z 03007KT 15SM FEW110 BKN150 22/18 A3009 RMK AC2AC5 SLP190

CYHM;2011-09-01 01:00;CYHM 010100Z 02003KT 10SM FEW110 BKN130 19/18 A3010 RMK AC2AC4 SLP191

CYHM;2011-09-01 02:00;CYHM 010200Z 02003KT 12SM FEW110 SCT140 19/18 A3009 RMK AC2AC1 SLP189

CYHM;2011-09-01 03:00;CYHM 010300Z 04004KT 15SM FEW120 18/17 A3008 RMK AC1 SLP186

CYHM;2011-09-01 04:00;CYHM 010400Z 04004KT 10SM MIFG FEW140 18/17 A3009 RMK AC2 SLP188

CYHM;2011-09-01 05:00;CYHM 010500Z 03005KT 8SM MIFG BKN130 BKN160 18/18 A3009 RMK AC5AC1 SLP189

CYHM;2011-09-01 05:44;CYHM 010544Z 36004KT 5SM -TSRA OVC047 RMK SC8 CB ASOCTD OCNL LTGICCG

CYHM;2011-09-01 06:00;CYHM 010600Z 02010KT 5SM -TSRA OVC054 19/18 A3009 RMK SC8 CB ASOCTD OCNL LTGICCCCG SLP186

CYHM;2011-09-01 06:48;CYHM 010648Z 01010KT 1 1/2SM +TSRA OVC007CB RMK RA2CB6 OCNL LTGICCG VIS VRB 1 - 2

CYHM;2011-09-01 07:00;CYHM 010700Z 08009KT 4SM -TSRA FEW035CB OVC088 18/18 A3008 RERA RMK CB2AC6 OCNL LTGICCG SLP184

CYHM;2011-09-01 08:00;CYHM 010800Z 08005KT 15SM TS FEW055 SCT110 18/18 A3005 RMK SC2AC1 CB ASOCTD LTNG N - ENE SLP175

CYHM;2011-09-01 09:00;CYHM 010900Z 14008KT 10SM BKN086 19/18 A3005 RETS RMK AC6 SLP175

CYHM;2011-09-01 09:54;CYHM 010954Z 05004KT 2SM BR SCT080 RMK FG1AC2

CYHM;2011-09-01 10:00;CYHM 011000Z 05004KT 1 1/2SM BR BKN022 BKN080 18/18 A3006 RMK FG2SC4AC1 VIS VRB 1 - 2 SLP177

CYHM;2011-09-01 10:26;CYHM 011026Z 08005KT 1SM BR OVC002 RMK FG3SF5

CYHM;2011-09-01 10:35;CYHM 011035Z 07005KT 1/8SM FG VV001 RMK FG8

CYHM;2011-09-01 11:00;CYHM 011100Z 06004KT 1/8SM FG VV001 18/18 A3007 RMK FG8 SLP180

CYHM;2011-09-01 11:24;CYHM 011124Z 08006KT 1/2SM FG OVC004 RMK FG2SF6

CYHM;2011-09-01 11:35;CYHM 011135Z 07004KT 1 1/2SM BR OVC003 RMK FG2SF6

CYHM;2011-09-01 12:00;CYHM 011200Z 10004KT 2SM BR SCT002 BKN090 19/19 A3006 RMK FG1SF2AC4 SLP177

CYHM;2011-09-01 12:39;CYHM 011239Z 15007KT 6SM BR FEW030 SCT100 RMK SC1AC2

CYHM;2011-09-01 13:00;CYHM 011300Z 16009KT 6SM BR SCT014 BKN100 21/20 A3005 RMK SC4AC2 SLP174

CYHM;2011-09-01 13:14;CYHM 011314Z 16008KT 6SM BR BKN007 BKN015 RMK SF5SC2

CYHM;2011-09-01 14:00;CYHM 011400Z 20009KT 8SM FEW007 FEW014 SCT019 23/21 A3005 RMK SF1SC2SC2 SLP175

CYHM;2011-09-01 15:00;CYHM 011500Z 21009KT 10SM FEW020 FEW120 24/19 A3004 RMK CU1AC1 SLP172

CYHM;2011-09-01 16:00;CYHM 011600Z 21004KT 12SM FEW025 FEW120 BKN210 25/19 A3005 RMK CU1AC2CI2 SLP173

CYHM;2011-09-01 17:00;CYHM 011700Z 19005KT 15SM BKN028 BKN036 26/20 A3002 RMK CU5SC2 SLP165

CYHM;2011-09-01 18:00;CYHM 011800Z 21006KT 15SM SCT028 BKN034 26/19 A3001 RMK CU3SC3 SLP158

CYHM;2011-09-01 19:00;CYHM 011900Z 23004KT 15SM BKN032 BKN054 27/20 A3000 RMK CU6SC2 SLP156

CYHM;2011-09-01 20:00;CYHM 012000Z 23005KT 15SM BKN025 BKN038 26/21 A2999 RMK CU5SC2 SLP154

CYHM;2011-09-01 21:00;CYHM 012100Z 05007KT 15SM BKN024 BKN039 23/20 A2999 RMK CU5SC2 SLP153

CYHM;2011-09-01 22:00;CYHM 012200Z 05010KT 12SM SCT026 BKN041 23/20 A2999 RMK CU3SC2 SLP155

CYHM;2011-09-01 23:00;CYHM 012300Z 04009KT 12SM BKN026 BKN250 22/20 A2999 RMK CU5CS1 SLP154

CYHM;2011-09-02 00:00;CYHM 020000Z 05009KT 6SM BR FEW027 BKN250 21/19 A2999 RMK CU2CS2 SLP155

CYHM;2011-09-02 01:00;CYHM 020100Z 04008KT 4SM BR FEW024 SCT250 20/19 A3000 RMK CU1CI1 SLP158

CYHM;2011-09-02 02:00;CYHM 020200Z 03005KT 2 1/2SM BR BKN025 20/19 A3001 RMK SC7 SLP160

CYHM;2011-09-02 03:00;CYHM 020300Z 05004KT 2SM BR FEW025 19/19 A3000 RMK FG1SC1 SLP157

CYHM;2011-09-02 03:40;CYHM 020340Z 04003KT 1 1/2SM BR SKC RMK FG2

CYHM;2011-09-02 04:00;CYHM 020400Z 01003KT 5/8SM BR SKC 19/19 A3001 RMK FG5 SLP160

CYHM;2011-09-02 04:09;CYHM 020409Z 01002KT 1SM BR SKC RMK FG3

CYHM;2011-09-02 05:00;CYHM 020500Z 05005KT 1SM BR SKC 18/18 A3000 RMK FG2 SLP157

CYHM;2011-09-02 05:14;CYHM 020514Z 05004KT 3/8SM FG SKC RMK FG4

CYHM;2011-09-02 06:00;CYHM 020600Z 05005KT 3/4SM BR BKN170 19/19 A2999 RMK FG3AC2 SLP154

CYHM;2011-09-02 07:00;CYHM 020700Z 03005KT 3/4SM BR SKC 18/18 A2999 RMK FG2 SLP153

CYHM;2011-09-02 07:29;CYHM 020729Z 03004KT 1 1/4SM BR BKN160 RMK FG2AC3

CYHM;2011-09-02 08:00;CYHM 020800Z 05004KT 1 1/4SM BR BKN160 18/18 A2998 RMK FG2AC6 SLP149

CYHM;2011-09-02 09:00;CYHM 020900Z 02003KT 1 1/4SM BR BKN160 19/19 A2998 RMK FG2AC6 SLP150

CYHM;2011-09-02 10:00;CYHM 021000Z 29003KT 1 1/4SM BR BKN160 18/18 A3000 RMK FG2AC5 SLP157

CYHM;2011-09-02 10:26;CYHM 021026Z 03002KT 1/8SM FG BKN150 RMK FG3AC4

CYHM;2011-09-02 10:34;CYHM 021034Z 06002KT 1SM BR SCT150 RMK FG2AC2

CYHM;2011-09-02 10:49;CYHM 021049Z 08003KT 1/2SM FG BKN140 RMK FG2AC3

CYHM;2011-09-02 11:00;CYHM 021100Z 08005KT 1/2SM FG BKN140 17/17 A3000 RMK FG2AC3 VIS VRBL 1/4-3/4 SLP156

CYHM;2011-09-02 11:29;CYHM 021129Z 10002KT 1 1/2SM BR SCT120 RMK FG1AC2 VIS VRBL1-2SM

CYHM;2011-09-02 12:00;CYHM 021200Z 05002KT 1 1/2SM BR FEW002 SCT100 19/19 A3000 RMK FG1SF2AC2 SLP156

CYHM;2011-09-02 12:15;CYHM 021215Z 08002KT 1SM BR BKN002 RMK FG2SF3

CYHM;2011-09-02 12:52;CYHM 021252Z 12002KT 1 1/2SM BR SCT002 RMK FG1SF2

CYHM;2011-09-02 13:00;CYHM 021300Z 16002KT 2SM BR BKN005 22/20 A3000 RMK FG2SF3 SLP158

CYHM;2011-09-02 13:45;CYHM 021345Z 18004KT 2SM BR FEW003 RMK SF2

CYHM;2011-09-02 14:00;CYHM 021400Z 20003KT 2 1/2SM BR FEW005 23/21 A3000 RMK SF2 SLP158

CYHM;2011-09-02 15:00;CYHM 021500Z 16006KT 6SM HZ SKC 25/22 A2998 RMK SLP150

CYHM;2011-09-02 16:00;CYHM 021600Z 16008KT 8SM FEW030 FEW210 27/23 A2997 RMK CU1CI1 SLP147

CYHM;2011-09-02 17:00;CYHM 021700Z 20012KT 10SM SKC 29/22 A2994 RMK SLP137

CYHM;2011-09-02 18:00;CYHM 021800Z 17011G16KT 15SM FEW180 SCT220 29/21 A2994 RMK AC2CI1 SLP135

CYHM;2011-09-02 19:00;CYHM 021900Z 19014G21KT 15SM SCT190 29/21 A2993 RMK AC3 SLP132

CYHM;2011-09-02 20:00;CYHM 022000Z 21012G17KT 15SM FEW110 BKN150 28/21 A2993 RMK AC1AC6 SLP133

CYHM;2011-09-02 21:00;CYHM 022100Z 19008KT 15SM BKN140 29/22 A2993 RMK AC6 SLP131

CYHM;2011-09-02 22:00;CYHM 022200Z 20007KT 15SM BKN160 28/22 A2993 RMK AC7 SLP131

CYHM;2011-09-02 23:00;CYHM 022300Z 19008KT 15SM BKN170 28/23 A2990 RMK AC5 CONTRAILS SLP123

CYHM;2011-09-03 00:00;CYHM 030000Z 21007KT 10SM FEW160 26/23 A2990 RMK AC2 SLP122

CYHM;2011-09-03 01:00;CYHM 030100Z 19009KT 6SM HZ FEW160 26/23 A2988 RMK AC1 SLP114

CYHM;2011-09-03 02:00;CYHM 030200Z 23006KT 7SM FEW170 FEW240 25/23 A2989 RMK AC1CI1 SLP118

CYHM;2011-09-03 03:00;CYHM 030300Z 23006KT 7SM SKC 24/22 A2989 RMK SLP119

CYHM;2011-09-03 04:00;CYHM 030400Z 26006KT 6SM BR FEW160 FEW240 24/22 A2990 RMK AC1CI1 SLP120

CYHM;2011-09-03 05:00;CYHM 030500Z 25004KT 7SM BKN160 23/22 A2990 RMK AC6 SLP122

CYHM;2011-09-03 06:00;CYHM 030600Z 24004KT 7SM BKN170 23/22 A2991 RMK AC7 SLP124

CYHM;2011-09-03 07:00;CYHM 030700Z 21005KT 7SM FEW180 22/21 A2991 RMK AC2 SLP123

CYHM;2011-09-03 08:00;CYHM 030800Z 22004KT 3SM BR FEW170 22/21 A2991 RMK AC1 VIS SE 1 MI SLP123

CYHM;2011-09-03 08:12;CYHM 030812Z CCA 22004KT 3/4SM BR SKC RMK FG2 VIS VRB 1/2 - 1

CYHM;2011-09-03 09:00;CYHM 030900Z 26004KT 5SM BR FEW150 21/21 A2991 RMK AC1 VIS SE 11/2 MI SLP124

CYHM;2011-09-03 10:00;CYHM 031000Z 00000KT 2SM BR BKN150 21/21 A2992 RMK FG1AC6 VIS NE 4 SLP127

CYHM;2011-09-03 10:43;CYHM 031043Z 24003KT 1 1/4SM BR MIFG BKN140 RMK FG2AC5

CYHM;2011-09-03 11:00;CYHM 031100Z 27003KT 1 1/2SM BR MIFG BKN140 21/21 A2993 RMK FG1AC6 SLP131

CYHM;2011-09-03 11:20;CYHM 031120Z 29002KT 3SM BR SCT140 BKN170 RMK AC3AC2

CYHM;2011-09-03 12:00;CYHM 031200Z 24003KT 3SM BR SCT110 BKN170 22/21 A2993 RMK AC4AC1 SLP133

CYHM;2011-09-03 13:00;CYHM 031300Z 24004KT 8SM FEW110 23/21 A2992 RMK AC1 SLP130

CYHM;2011-09-03 14:00;CYHM 031400Z 22005KT 9SM FEW040 25/22 A2992 RMK SC1 SLP129

CYHM;2011-09-03 15:00;CYHM 031500Z 21003KT 12SM FEW040 27/22 A2992 RMK SC1 SLP128

CYHM;2011-09-03 16:00;CYHM 031600Z 28007KT 12SM SKC 28/22 A2992 RMK SLP128

CYHM;2011-09-03 17:00;CYHM 031700Z 25006KT 15SM FEW072 29/22 A2991 RMK AC2 SLP126

CYHM;2011-09-03 18:00;CYHM 031800Z 25007KT 15SM FEW072 FEW230 30/22 A2990 RMK AC1CI1 SLP119

CYHM;2011-09-03 19:00;CYHM 031900Z 24004KT 15SM FEW044 31/22 A2988 RMK CU2 SLP113

CYHM;2011-09-03 20:00;CYHM 032000Z 31013KT 15SM VCSH BKN041 28/20 A2988 RMK SC7 CU ASOCTD SLP115

CYHM;2011-09-03 21:00;CYHM 032100Z 04007KT 15SM FEW040CB FEW080 29/20 A2988 RMK CB1AC1 CB E SLP114

CYHM;2011-09-03 22:00;CYHM 032200Z 08004KT 15SM FEW210 27/22 A2986 RMK CI1 CB TOP DSNT E SLP108

CYHM;2011-09-03 23:00;CYHM 032300Z 11003KT 15SM FEW210 27/22 A2984 RMK CI1 CB TOP DSNT SE SLP103

CYHM;2011-09-04 00:00;CYHM 040000Z 28002KT 15SM FEW100 24/21 A2984 RMK AC2 SLP103

CYHM;2011-09-04 01:00;CYHM 040100Z 17007KT 12SM TS BKN220 25/21 A2985 RMK CI7 CB W OCNL LTGIC W SLP106

CYHM;2011-09-04 02:00;CYHM 040200Z 17006KT 8SM FEW150 BKN220 23/21 A2986 RETS RMK AC2CI3 SLP107

CYHM;2011-09-04 03:00;CYHM 040300Z 20006KT 10SM BKN220 22/21 A2984 RMK CI5 SLP103

CYHM;2011-09-04 04:00;CYHM 040400Z 22005KT 7SM FEW140 OVC250 22/22 A2983 RMK AC1CI7 OCNL LTGIC WSW SLP099

CYHM;2011-09-04 04:23;CYHM 040423Z 24005KT 4SM TS BR FEW030CB OVC250 RMK CB2CI6 OCNL LTGICCC

CYHM;2011-09-04 05:00;CYHM 040500Z 20006KT 8SM TS FEW037CB SCT120 BKN240 23/22 A2981 RMK CB1AC2CI2 OCNL LTGIC SLP093

CYHM;2011-09-04 06:00;CYHM 040600Z 20005KT 8SM TS FEW035CB BKN073 23/22 A2979 RMK CB2AC3 OCNL LTGICCCCG SLP083

CYHM;2011-09-04 06:17;CYHM 040617Z 25011G20KT 8SM -TSRA SCT035CB OVC120 RMK CB3AC5 OCNL LTGICCCCG

CYHM;2011-09-04 07:00;CYHM 040700Z 19007KT 15SM TS FEW040CB BKN140 22/21 A2978 RMK CB1AC3 OCNL LTGIC SW SLP078

CYHM;2011-09-04 07:37;CYHM 040737Z 22019G27KT 15SM -TSRA FEW050CB OVC110 RMK CB2AC6 OCNL LTGICCCCG

CYHM;2011-09-04 08:00;CYHM 040800Z 25015G25KT 12SM -TSRA SCT034CB OVC057 21/20 A2979 RMK CB3SC5 OCNL LTGICCG E PRESFR SLP084

CYHM;2011-09-04 09:00;CYHM 040900Z 18013KT 15SM -SHRA OVC120 21/20 A2981 RETS RMK AC8 LTNG E SLP089

CYHM;2011-09-04 10:00;CYHM 041000Z 20011KT 15SM OVC140 21/20 A2983 RMK AC8 SLP096

CYHM;2011-09-04 11:00;CYHM 041100Z 21013KT 15SM BKN110 BKN160 21/20 A2981 RMK AC5AC2 SLP092

CYHM;2011-09-04 12:00;CYHM 041200Z 22010KT 8SM SCT098 BKN140 22/21 A2981 RMK AC3AC4 SLP090

CYHM;2011-09-04 13:00;CYHM 041300Z 26012G17KT 10SM FEW098 BKN170 BKN220 22/21 A2981 RMK AC2AC2CI2 SLP090

CYHM;2011-09-04 14:00;CYHM 041400Z 24009KT 15SM FEW015 FEW100 BKN160 23/20 A2981 RMK CF1AC2AC6 CF TR SLP092

CYHM;2011-09-04 15:00;CYHM 041500Z 24010KT 15SM SCT020 BKN120 BKN170 24/20 A2980 RMK CU3AC2AC2 SLP089

CYHM;2011-09-04 16:00;CYHM 041600Z 25012KT 15SM BKN021 BKN110 24/20 A2981 RMK CU6AC2 CIG RAG SLP090

CYHM;2011-09-04 17:00;CYHM 041700Z 23009KT 15SM BKN023 OVC072 25/20 A2980 RMK CU5AC3 SLP088

CYHM;2011-09-04 18:00;CYHM 041800Z 27006KT 12SM -SHRA FEW024 SCT075 OVC110 24/21 A2978 RMK CU2AC2AC4 SLP083

CYHM;2011-09-04 18:41;CYHM 041841Z CCA 24013KT 15SM FEW024 FEW038 OVC093 RMK CU2SC1AC6

CYHM;2011-09-04 19:00;CYHM 041900Z 24010KT 15SM FEW024 FEW038 OVC093 25/21 A2980 RMK CU2SC1AC6 SLP089

CYHM;2011-09-04 20:00;CYHM 042000Z 22012KT 15SM SCT026 BKN045 OVC180 25/20 A2979 RMK CU3SC3AC2 SLP084

CYHM;2011-09-04 20:29;CYHM 042029Z 27009KT 4SM SHRA BKN017 OVC042 RMK CU6SC2 VIS NE 12

CYHM;2011-09-04 20:37;CYHM 042037Z 27009KT 10SM -TSRA BKN017 OVC042 RERA RMK CU6SC2 CB EMBD

CYHM;2011-09-04 21:00;CYHM 042100Z 26006KT 15SM -TSRA BKN023 OVC042 21/20 A2979 RERA RMK CU5SC3 CB EMBD SLP086

CYHM;2011-09-04 21:17;CYHM 042117Z 22003KT 15SM -SHRA FEW023 SCT045 BKN075 OVC170 RETSRA RMK CU2SC2AC2AC2

CYHM;2011-09-04 22:00;CYHM 042200Z 24004KT 15SM BKN024 OVC072 22/20 A2978  RMK SC6AC2 SLP081

CYHM;2011-09-04 23:00;CYHM 042300Z 23007KT 12SM FEW017 FEW072 SCT110 BKN250 22/20 A2976 RMK CU1AC2AC1CI3 SLP075

CYHM;2011-09-05 00:00;CYHM 050000Z 25006KT 8SM BKN063 OVC100 22/20 A2978 RMK SC6AC2 SLP080

CYHM;2011-09-05 00:03;CYHM 050003Z 25006KT 8SM -SHRA BKN063 OVC100 RMK SC6AC2

CYHM;2011-09-05 01:00;CYHM 050100Z 28004KT 15SM -SHRA FEW038 BKN056 OVC110 19/18 A2980 RMK SC1SC5AC2 SLP087

CYHM;2011-09-05 01:47;CYHM 050147Z 31005KT 15SM BKN049 OVC120 RMK SC6AC2

CYHM;2011-09-05 02:00;CYHM 050200Z 32005KT 15SM -SHRA BKN049 OVC120 19/18 A2981 RMK SC6AC2 SLP093

CYHM;2011-09-05 03:00;CYHM 050300Z 31003KT 12SM -SHRA FEW010 BKN053 OVC110 19/18 A2982 RMK SF1SC6AC1 SF TR SLP095

CYHM;2011-09-05 04:00;CYHM 050400Z 00000KT 15SM FEW054 FEW090 OVC150 18/17 A2981 RMK SC1AC1AC6 SLP094

CYHM;2011-09-05 05:00;CYHM 050500Z 33005KT 15SM FEW120 SCT140 OVC240 17/16 A2983 RMK AC2AC2CS5 SLP098

CYHM;2011-09-05 06:00;CYHM 050600Z 32004KT 15SM SCT140 OVC240 17/16 A2983 RMK AC3CS4 SLP099

CYHM;2011-09-05 07:00;CYHM 050700Z 30003KT 15SM FEW140 BKN220 16/15 A2983 RMK AC2CS5 SLP100

CYHM;2011-09-05 08:00;CYHM 050800Z 27004KT 15SM FEW140 BKN240 16/15 A2984 RMK AC1CS6 SLP102

CYHM;2011-09-05 09:00;CYHM 050900Z 28004KT 15SM BKN220 16/15 A2984 RMK CS4 SLP102

CYHM;2011-09-05 10:00;CYHM 051000Z 33007KT 15SM FEW120 SCT230 15/15 A2984 RMK AC2CI1 SLP102

CYHM;2011-09-05 11:00;CYHM 051100Z 33005KT 15SM FEW110 BKN230 15/14 A2986 RMK AC2CI6 SLP109

CYHM;2011-09-05 12:00;CYHM 051200Z 34008KT 15SM FEW120 OVC220 15/14 A2988 RMK AC2CI6 SLP117

CYHM;2011-09-05 13:00;CYHM 051300Z 35012KT 15SM FEW014 SCT100 OVC230 15/14 A2988 RMK CF1AC2CI5 SLP119

CYHM;2011-09-05 14:00;CYHM 051400Z 35010KT 15SM FEW015 SCT020 BKN032 BKN220 15/13 A2990 RMK CF2SC2SC2CI2 SLP125

CYHM;2011-09-05 15:00;CYHM 051500Z 32010KT 15SM FEW018 BKN026 OVC130 16/13 A2991 RMK CU2SC5AC2 SLP130

CYHM;2011-09-05 16:00;CYHM 051600Z 33011KT 15SM FEW020 BKN023 BKN030 16/12 A2992 RMK CU2SC4SC2 SLP133

CYHM;2011-09-05 17:00;CYHM 051700Z 32011KT 15SM FEW020 OVC025 16/12 A2993 RMK SC2SC6 SLP135

CYHM;2011-09-05 18:00;CYHM 051800Z 31009KT 15SM BKN022 OVC030 16/12 A2994 RMK SC6SC2 SLP140

CYHM;2011-09-05 19:00;CYHM 051900Z 33013KT 15SM FEW022 OVC034 15/11 A2995 RMK SF2SC6 SLP142

CYHM;2011-09-05 20:00;CYHM 052000Z 33009KT 15SM FEW022 OVC030 15/11 A2995 RMK SF2SC6 SLP142

CYHM;2011-09-05 21:00;CYHM 052100Z 34012KT 15SM FEW020 OVC027 14/11 A2996 RMK SF2SC6 SLP146

CYHM;2011-09-05 22:00;CYHM 052200Z 01010KT 15SM FEW020 OVC028 14/10 A2997 RMK SF2SC6 SLP149

CYHM;2011-09-05 23:00;CYHM 052300Z 02008KT 15SM FEW020 OVC028 14/10 A2998 RMK SF2SC6 SLP153

CYHM;2011-09-06 00:00;CYHM 060000Z 36008KT 15SM OVC021 14/10 A2999 RMK SC8 SLP158

CYHM;2011-09-06 01:00;CYHM 060100Z 01009KT 15SM FEW030 OVC038 13/09 A3001 RMK SC2SC6 SLP163

CYHM;2011-09-06 02:00;CYHM 060200Z 34005KT 15SM BKN018 OVC034 13/10 A3003 RMK SC6SC2 SLP169

CYHM;2011-09-06 03:00;CYHM 060300Z 35008KT 15SM FEW026 BKN038 OVC046 13/10 A3004 RMK SF1SC6SC2 SLP174

CYHM;2011-09-06 04:00;CYHM 060400Z 01009KT 15SM FEW018 SCT030 OVC038 12/10 A3004 RMK SF1SC3SC4 SLP174

CYHM;2011-09-06 05:00;CYHM 060500Z 35008KT 15SM FEW018 OVC034 12/10 A3004 RMK SF2SC6 SLP176

CYHM;2011-09-06 06:00;CYHM 060600Z 02008KT 15SM BKN016 OVC034 12/10 A3005 RMK SC6SC2 SF ASOCTD SLP177

CYHM;2011-09-06 07:00;CYHM 060700Z 35007KT 15SM FEW016 OVC023 12/10 A3005 RMK SC2SC6 SLP179

CYHM;2011-09-06 08:00;CYHM 060800Z 07006KT 15SM FEW012 OVC021 12/10 A3006 RMK SC2SC6 SLP181

CYHM;2011-09-06 09:00;CYHM 060900Z 01009KT 15SM FEW012 OVC021 12/10 A3007 RMK SF2SC6 SLP185

CYHM;2011-09-06 10:00;CYHM 061000Z 01011KT 15SM SCT012 OVC021 11/10 A3008 RMK SC3SC5 SF ASOCTD SLP190

CYHM;2011-09-06 11:00;CYHM 061100Z 01010KT 15SM BKN014 OVC020 11/09 A3011 RMK SC6SC2 SLP199

CYHM;2011-09-06 12:00;CYHM 061200Z 01008KT 15SM OVC015 11/09 A3013 RMK SC8 SLP205

CYHM;2011-09-06 13:00;CYHM 061300Z 01012KT 15SM OVC014 12/09 A3013 RMK SC8 SLP204

CYHM;2011-09-06 14:00;CYHM 061400Z 02010KT 15SM OVC013 12/10 A3015 RMK SC8 SLP211

CYHM;2011-09-06 15:00;CYHM 061500Z 03010KT 15SM OVC016 13/10 A3016 RMK SC8 SLP217

CYHM;2011-09-06 16:00;CYHM 061600Z 03010KT 15SM OVC016 13/10 A3017 RMK SC8 SLP220

CYHM;2011-09-06 17:00;CYHM 061700Z 04008KT 15SM OVC017 14/10 A3018 RMK SC8 SLP223

CYHM;2011-09-06 18:00;CYHM 061800Z 04011G16KT 15SM FEW020 OVC026 15/11 A3017 RMK CU2SC6 SLP219

CYHM;2011-09-06 19:00;CYHM 061900Z 05015KT 15SM FEW018 BKN032 BKN090 16/12 A3016 RMK SF2SC5AC1 AC TR SLP216

CYHM;2011-09-06 20:00;CYHM 062000Z 05012KT 15SM FEW022 OVC032 16/12 A3017 RMK SF2SC6 SLP218

CYHM;2011-09-06 21:00;CYHM 062100Z 06013KT 15SM FEW024 BKN034 BKN250 16/11 A3016 RMK SF1SC6CI1 CI TR SLP214

CYHM;2011-09-06 22:00;CYHM 062200Z 06013KT 15SM FEW022 FEW034 BKN140 BKN250 16/10 A3016 RMK SF1SC1AC3CI2 CC ASOCTD SLP214

CYHM;2011-09-06 23:00;CYHM 062300Z 05009KT 15SM FEW034 SCT180 BKN250 15/11 A3015 RMK SC1AC2CC2 CI ASOCTD SLP211

CYHM;2011-09-07 00:00;CYHM 070000Z 04007KT 15SM FEW180 BKN250 BKN280 15/11 A3015 RMK AC1CC4CI1 SLP211

CYHM;2011-09-07 01:00;CYHM 070100Z 05006KT 15SM FEW140 BKN250 14/11 A3016 RMK AC1CC6 AC TR SLP216

CYHM;2011-09-07 02:00;CYHM 070200Z 06006KT 15SM FEW140 BKN250 13/11 A3017 RMK AC1CC6 AC TR SLP219

CYHM;2011-09-07 03:00;CYHM 070300Z 04007KT 15SM FEW022 BKN250 14/12 A3015 RMK SC1CS6 SC TR SLP212

CYHM;2011-09-07 04:00;CYHM 070400Z 03006KT 15SM BKN041 BKN250 15/13 A3014 RMK SC6CS2 SLP209

CYHM;2011-09-07 05:00;CYHM 070500Z 03009KT 15SM BKN024 BKN040 BKN240 15/12 A3013 RMK SC5SC2CS1 SF ASOCTD SLP204

CYHM;2011-09-07 06:00;CYHM 070600Z 03012KT 15SM SCT025 SCT040 BKN220 15/12 A3011 RMK SC3SC1CS3 SLP199

CYHM;2011-09-07 07:00;CYHM 070700Z 02011KT 15SM BKN018 OVC040 15/13 A3010 RMK SC6SC2 SLP195

CYHM;2011-09-07 08:00;CYHM 070800Z 04015KT 15SM OVC014 16/14 A3009 RMK SC8 SLP190

CYHM;2011-09-07 09:00;CYHM 070900Z 04016KT 15SM OVC012 16/14 A3010 RMK SC8 SLP193

CYHM;2011-09-07 09:15;CYHM 070915Z 04016G24KT 12SM -SHRA OVC011 RMK SC8

CYHM;2011-09-07 10:00;CYHM 071000Z 04016G23KT 12SM -SHRA OVC011 15/14 A3008 RMK SC8 SLP187

CYHM;2011-09-07 11:00;CYHM 071100Z 05015G21KT 10SM -SHRA BKN011 OVC018 16/14 A3009 RMK SC6SC2 PCPN VRY LGT SLP190

CYHM;2011-09-07 12:00;CYHM 071200Z 05017G23KT 6SM -SHRA BR SCT007 BKN010 OVC019 15/14 A3010 RMK SF3SC2SC2 SLP195

CYHM;2011-09-07 13:00;CYHM 071300Z 05014G21KT 8SM -SHRA BKN008 OVC018 16/15 A3007 RMK SF6SC2 SLP185

CYHM;2011-09-07 13:25;CYHM 071325Z 05017G22KT 2 1/2SM -SHRA BR BKN005 OVC011 RMK SF6SC2

CYHM;2011-09-07 14:00;CYHM 071400Z 05015KT 2 1/2SM -SHRA BR OVC005 15/15 A3011 RMK SF8 SLP197

CYHM;2011-09-07 15:00;CYHM 071500Z 05012G19KT 2SM -SHRA BR OVC005 15/15 A3012 RMK SF8 SLP200

CYHM;2011-09-07 15:24;CYHM 071524Z 04016KT 1 1/2SM -SHRA BR BKN004 OVC009 RMK FG1SF6SC1 PCPN VRY LGT

CYHM;2011-09-07 16:00;CYHM 071600Z 05017G23KT 1 1/2SM -SHRA BR BKN004 OVC009 15/15 A3010 RMK FG1SF6SC2 SLP195

CYHM;2011-09-07 17:00;CYHM 071700Z 04017G23KT 2 1/2SM -SHRA BR OVC005 15/15 A3009 RMK SF8 SLP192

CYHM;2011-09-07 18:00;CYHM 071800Z 04014G28KT 4SM -SHRA BR OVC003 16/15 A3007 RMK SF8 SLP185

CYHM;2011-09-07 19:00;CYHM 071900Z 04019G26KT 4SM -RA BR OVC002 16/15 A3006 RMK SF8 SLP181

CYHM;2011-09-07 19:27;CYHM 071927Z 04017G23KT 3SM -RA BR OVC005 RMK SF8 VIS VRB 2 - 4 CIG RAG

CYHM;2011-09-07 20:00;CYHM 072000Z 04019G24KT 3SM -RA BR OVC005 16/15 A3005 RMK SF8 VIS VRB 2 - 4 SLP177

CYHM;2011-09-07 21:00;CYHM 072100Z 04019G24KT 8SM -RA OVC008 15/15 A3005 RMK SF8 SLP178

CYHM;2011-09-07 21:11;CYHM 072111Z 04019G26KT 10SM -RA OVC012 RMK SC8

CYHM;2011-09-07 22:00;CYHM 072200Z 05015G23KT 3SM -RA BR FEW008 OVC016 16/15 A3005 RMK SF2SC6 VIS VRB 2 - 4 SLP176

CYHM;2011-09-07 22:32;CYHM 072232Z 04018G27KT 1 1/2SM -RA BR OVC009 RMK FG2SC6 VIS VRB 1 - 2

CYHM;2011-09-07 23:00;CYHM 072300Z 04021G26KT 1 1/2SM -RA BR BKN008 OVC012 16/15 A3004 RMK FG2SF6SC1 VIS VRB 1 - 2 SLP174

CYHM;2011-09-08 00:00;CYHM 080000Z 04019G26KT 1 1/2SM -RA BR BKN007 OVC018 15/15 A3004 RMK FG2SF5SC2 VIS VRB 1 - 2 SLP174

CYHM;2011-09-08 01:00;CYHM 080100Z 05018G24KT 3SM -RA BR BKN005 OVC012 15/15 A3006 RMK SF6SC2 VIS VRB 2 - 4 SLP180

CYHM;2011-09-08 02:00;CYHM 080200Z 05018G24KT 5SM -RA BR SCT006 OVC012 15/15 A3006 RMK SF3SC5 SLP180

CYHM;2011-09-08 02:27;CYHM 080227Z 05016G24KT 5SM -RA BR BKN005 OVC014 RMK SF6SC2

CYHM;2011-09-08 03:00;CYHM 080300Z 05017G23KT 4SM -RA BR BKN005 OVC011 15/15 A3006 RMK SF5SC3 SLP180

CYHM;2011-09-08 04:00;CYHM 080400Z 05016G22KT 5SM -RA BR OVC005 15/15 A3005 RMK SF8 CIG RAG SLP178

CYHM;2011-09-08 05:00;CYHM 080500Z 06015G21KT 7SM -RA OVC006 15/15 A3005 RMK SF8 SLP176

CYHM;2011-09-08 06:00;CYHM 080600Z 05013G19KT 6SM -RA OVC006 16/15 A3003 RMK SF8 SLP170

CYHM;2011-09-08 07:00;CYHM 080700Z 04015G20KT 2SM -RA BR OVC006 16/15 A3003 RMK FG1SF7 SLP169

CYHM;2011-09-08 08:00;CYHM 080800Z 06013G21KT 4SM -RA BR OVC006 16/15 A3003 RMK SF8 SLP171

CYHM;2011-09-08 09:00;CYHM 080900Z 05015G21KT 5SM -RA BR BKN006 OVC011 16/15 A3003 RMK SF6SC2 SLP171

CYHM;2011-09-08 09:20;CYHM 080920Z 05015KT 1 1/2SM -RA BR OVC002 RMK FG2SF6 VIS VRB 1 - 2

CYHM;2011-09-08 10:00;CYHM 081000Z 04015KT 2SM -RA BR OVC004 16/15 A3003 RMK FG1SF7 SLP170

CYHM;2011-09-08 10:47;CYHM 081047Z 04015G20KT 1SM -RA BR BKN005 OVC011 RMK FG1SF6SC2

CYHM;2011-09-08 11:00;CYHM 081100Z 04012G21KT 1 1/2SM -RA BR BKN005 OVC010 16/15 A3004 RMK FG2SF5SC2 SLP174

CYHM;2011-09-08 11:12;CYHM 081112Z 04016G21KT 1 1/2SM -RA BR BKN005 OVC010 RMK FG2SF6SC1 VIS VRBL 1-2SM

CYHM;2011-09-08 11:25;CYHM 081125Z 04014G20KT 2 1/2SM -RA BR BKN006 OVC009 RMK SF6SC2 CIG RAGD

CYHM;2011-09-08 11:42;CYHM 081142Z 04016KT 1 1/2SM -RA BR BKN005 OVC011 RMK FG1SF6SC2 VIS VRBL 1-2SM CIG RAGD

CYHM;2011-09-08 12:00;CYHM 081200Z 04012G18KT 1SM -RA BR OVC003 16/15 A3005 RMK FG2SF6 VIS VRBL 3/4-11/4SM CIG RAGD SLP177

CYHM;2011-09-08 12:16;CYHM 081216Z 05013G20KT 2 1/2SM -RA BR OVC004 RMK SF8

CYHM;2011-09-08 12:46;CYHM 081246Z 04014G20KT 1SM -RA BR OVC003 RMK FG2SF6

CYHM;2011-09-08 13:00;CYHM 081300Z 05015KT 1SM -RA BR OVC003 16/16 A3006 RMK FG2SF6 SLP181

CYHM;2011-09-08 13:51;CYHM 081351Z 05013G21KT 2SM -RA BR BKN004 OVC008 RMK FG1SF6SC2

CYHM;2011-09-08 14:00;CYHM 081400Z 05018KT 2 1/2SM -RA BR OVC005 16/16 A3007 RMK SF8 SLP184

CYHM;2011-09-08 14:23;CYHM 081423Z 05015KT 1 1/2SM -RA BR OVC003 RMK FG2SF6 VIS VRBL 1-2SM CIG RGD

CYHM;2011-09-08 15:00;CYHM 081500Z 04015KT 1 1/2SM -RA BR BKN003 OVC008 16/16 A3007 RMK FG2SF4SC2 VIS VRBL 1-2SM CIG RGD SLP185

CYHM;2011-09-08 15:22;CYHM 081522Z 04016KT 3SM -RA BR BKN003 OVC008 RMK SF6SC2

CYHM;2011-09-08 16:00;CYHM 081600Z 05016KT 2SM -RA BR OVC004 16/16 A3008 RMK FG2SF6 SLP187

CYHM;2011-09-08 16:31;CYHM 081631Z 04015KT 1 1/2SM -RA BR OVC002 RMK FG2SF6 CIG RGD

CYHM;2011-09-08 17:00;CYHM 081700Z 06016KT 1 1/2SM -RA BR BKN004 OVC008 16/16 A3007 RMK FG2SF6SC1 VIS VRBL 1-2SM SLP183

CYHM;2011-09-08 18:00;CYHM 081800Z 05016KT 1 1/2SM -RA BR BKN005 OVC009 16/16 A3007 RMK FG2SF4SC2 SLP182

CYHM;2011-09-08 19:00;CYHM 081900Z 04013G21KT 6SM -RA BR OVC005 17/16 A3005 RMK SC8 PCPN VRY LGT SLP178

CYHM;2011-09-08 20:00;CYHM 082000Z 05016KT 7SM -RA OVC006 16/16 A3005 RMK SC8 PCPN VRY LGT SLP176

CYHM;2011-09-08 21:00;CYHM 082100Z 06014G21KT 8SM -RA FEW006 SCT032 BKN054 17/16 A3003 RMK CF2SC2SC4 SLP168

CYHM;2011-09-08 21:42;CYHM 082142Z 06014KT 15SM FEW006 FEW032 BKN054 RMK CF1SC1SC6

CYHM;2011-09-08 22:00;CYHM 082200Z 06016KT 15SM FEW006 FEW032 BKN055 18/16 A3001 RMK CF1SC1SC6 CF TR SLP164

CYHM;2011-09-08 23:00;CYHM 082300Z 05011KT 15SM FEW020 FEW055 FEW090 18/16 A3000 RMK CU1SC1AC1 CU TR SLP160

CYHM;2011-09-09 00:00;CYHM 090000Z 05015KT 15SM FEW020 FEW090 17/16 A3000 RMK CU1AC1 CU TR SLP159

CYHM;2011-09-09 00:53;CYHM 090053Z 05008KT 9SM FEW004 FEW110 RMK CF1AC1

CYHM;2011-09-09 01:00;CYHM 090100Z 05008KT 9SM FEW004 FEW110 16/16 A3001 RMK CF1AC2 SLP163

CYHM;2011-09-09 02:00;CYHM 090200Z 04008KT 8SM FEW004 BKN100 16/16 A3001 RMK CF1AC7 SLP162

CYHM;2011-09-09 03:00;CYHM 090300Z 05007KT 8SM BKN110 17/16 A3001 RMK AC7 SLP161

CYHM;2011-09-09 04:00;CYHM 090400Z 04008KT 8SM FEW005 BKN110 17/16 A3000 RMK CF1AC6 SLP160

CYHM;2011-09-09 05:00;CYHM 090500Z 03008KT 8SM FEW004 BKN110 BKN240 16/16 A3000 RMK CF2AC3CI2 SLP159

CYHM;2011-09-09 06:00;CYHM 090600Z 29009KT 8SM BKN120 16/16 A2999 RMK AC7 SLP156

CYHM;2011-09-09 06:31;CYHM 090631Z 04009KT 8SM BKN009 OVC110 RMK SC6AC2

CYHM;2011-09-09 07:00;CYHM 090700Z 04009KT 8SM BKN009 OVC110 17/16 A2999 RMK SC6AC2 SLP155

CYHM;2011-09-09 07:42;CYHM 090742Z 04009KT 9SM -SHRA SCT009 OVC110 RMK SC3AC5

CYHM;2011-09-09 08:00;CYHM 090800Z 04007KT 8SM -SHRA FEW009 OVC100 17/16 A2998 RMK SC2AC6 SLP153

CYHM;2011-09-09 09:00;CYHM 090900Z 04007KT 10SM BKN009 OVC100 17/16 A2997 RMK SC6AC2 SLP150

CYHM;2011-09-09 10:00;CYHM 091000Z 04005KT 10SM OVC008 16/15 A2997 RMK SC8 SLP148

CYHM;2011-09-09 11:00;CYHM 091100Z 05005KT 10SM OVC010 16/15 A2997 RMK SC8 SLP149

CYHM;2011-09-09 12:00;CYHM 091200Z 05006KT 15SM BKN011 OVC054 17/15 A2997 RMK SC6SC2 SLP151

CYHM;2011-09-09 13:00;CYHM 091300Z 05008KT 15SM OVC011 17/16 A2997 RMK SC8 SLP151

CYHM;2011-09-09 14:00;CYHM 091400Z 07009KT 15SM FEW015 BKN054 BKN075 19/17 A2998 RMK CU2SC4AC2 SLP152

CYHM;2011-09-09 15:00;CYHM 091500Z 05009KT 15SM FEW018 BKN054 BKN075 19/17 A2997 RMK CU2SC3AC1 SLP150

CYHM;2011-09-09 16:00;CYHM 091600Z 04010KT 15SM FEW018 FEW056 BKN220 21/17 A2997 RMK CU1SC1CI2 SLP147

CYHM;2011-09-09 17:00;CYHM 091700Z 03011KT 15SM FEW020 FEW056 SCT220 22/15 A2995 RMK CU1SC1CI2 CU TR SLP143

CYHM;2011-09-09 18:00;CYHM 091800Z 04009KT 15SM FEW025 FEW060 SCT220 23/14 A2994 RMK CU1SC1CI2 CU TR SLP139

CYHM;2011-09-09 19:00;CYHM 091900Z 07007KT 15SM FEW025 FEW080 SCT230 23/14 A2994 RMK CU1AC2CI2 SLP139

CYHM;2011-09-09 20:00;CYHM 092000Z 04006KT 15SM FEW100 SCT240 23/14 A2991 RMK AC2CI1 CONTRAILS SLP129

CYHM;2011-09-09 21:00;CYHM 092100Z 07004KT 15SM FEW130 SCT250 23/14 A2992 RMK AC2CI1 SLP129

CYHM;2011-09-09 22:00;CYHM 092200Z 08004KT 15SM SCT180 BKN250 23/14 A2991 RMK AC4CI1 SLP128

CYHM;2011-09-09 23:00;CYHM 092300Z 09004KT 15SM SCT180 BKN250 22/15 A2992 RMK AC3CI2 SLP131

CYHM;2011-09-10 00:00;CYHM 100000Z 05003KT 15SM BKN140 BKN230 19/14 A2992 RMK AC5CI1 SLP133

CYHM;2011-09-10 01:00;CYHM 100100Z 03003KT 15SM BKN140 BKN230 19/14 A2994 RMK AC6CI1 SLP139

CYHM;2011-09-10 02:00;CYHM 100200Z 02004KT 15SM FEW160 18/14 A2995 RMK AC2 SLP141

CYHM;2011-09-10 03:00;CYHM 100300Z 02003KT 15SM FEW140 SCT170 BKN220 17/11 A2996 RMK AC2AC2CI1 SLP145

CYHM;2011-09-10 04:00;CYHM 100400Z 34003KT 15SM FEW170 SCT220 16/10 A2996 RMK AC2CI1 SLP144

CYHM;2011-09-10 05:00;CYHM 100500Z 33002KT 15SM FEW160 BKN210 15/11 A2996 RMK AC2CI2 SLP144

CYHM;2011-09-10 06:00;CYHM 100600Z 36003KT 15SM FEW160 BKN210 13/12 A2996 RMK AC1CI5 SLP145

CYHM;2011-09-10 07:00;CYHM 100700Z 01004KT 15SM FEW120 BKN210 14/12 A2995 RMK AC1CI4 SLP143

CYHM;2011-09-10 08:00;CYHM 100800Z 01004KT 15SM BKN210 14/11 A2995 RMK CI5 SLP143

CYHM;2011-09-10 09:00;CYHM 100900Z 02007KT 15SM BKN210 15/12 A2996 RMK CI5 SLP145

CYHM;2011-09-10 10:00;CYHM 101000Z CCA 02007KT 15SM BKN210 15/09 A2996 RMK CI5 SLP145

CYHM;2011-09-10 11:00;CYHM 101100Z 04006KT 15SM SCT120 BKN210 15/12 A2999 RMK AC3CI1 CONTRAIL SLP154

CYHM;2011-09-10 12:00;CYHM 101200Z 04010KT 15SM FEW140 BKN230 17/13 A3000 RMK AC1CI1 CONTRIAL SLP157

CYHM;2011-09-10 13:00;CYHM 101300Z 05014KT 15SM FEW080 FEW120 BKN240 19/14 A3001 RMK AC1AC1CI1 CONTRAIL SLP163

CYHM;2011-09-10 14:00;CYHM 101400Z 05013KT 15SM FEW120 SCT260 20/14 A3003 RMK AC1CI1 SLP168

CYHM;2011-09-10 15:00;CYHM 101500Z 06015KT 15SM FEW090 SCT260 20/14 A3004 RMK AC2CI1 SLP173

CYHM;2011-09-10 16:00;CYHM 101600Z 04014KT 15SM FEW055 FEW090 SCT260 20/15 A3005 RMK SC1AC2CI1 SC TR SLP175

CYHM;2011-09-10 17:00;CYHM 101700Z 05013KT 15SM FEW030 FEW090 SCT260 21/15 A3005 RMK CU1AC1CI1 SLP175

CYHM;2011-09-10 18:00;CYHM 101800Z 05012KT 15SM FEW030 FEW100 SCT260 21/15 A3005 RMK CU1AC1CI1 SLP175

CYHM;2011-09-10 19:00;CYHM 101900Z 04012KT 15SM FEW035 FEW100 SCT260 21/15 A3004 RMK CU2AC1CI1 SLP173

CYHM;2011-09-10 20:00;CYHM 102000Z 06011KT 15SM FEW035 FEW100 SCT260 21/15 A3003 RMK CU2AC1CI1 SLP168

CYHM;2011-09-10 21:00;CYHM 102100Z 04011KT 15SM FEW035 FEW100 SCT260 21/14 A3002 RMK CU2AC1CI1 SLP167

CYHM;2011-09-10 22:00;CYHM 102200Z 06008KT 15SM FEW040 FEW120 SCT250 21/13 A3002 RMK CU1AC1CI1 SLP165

CYHM;2011-09-10 23:00;CYHM 102300Z 07006KT 15SM FEW040 FEW120 SCT250 19/14 A3003 RMK CU1AC1CI1 SLP169

CYHM;2011-09-11 00:00;CYHM 110000Z 04003KT 15SM FEW100 FEW230 17/12 A3004 RMK AC1CI0 SLP171

CYHM;2011-09-11 01:00;CYHM 110100Z CCA 05004KT 15SM FEW100 FEW230 16/12 A3006 RMK AC1CI0 SLP178

CYHM;2011-09-11 02:00;CYHM 110200Z 04004KT 15SM FEW080 15/12 A3006 RMK AC1 SLP180

CYHM;2011-09-11 03:00;CYHM 110300Z 04005KT 15SM FEW150 FEW200 14/13 A3006 RMK AC2CI1 SLP180

CYHM;2011-09-11 04:00;CYHM 110400Z 05004KT 15SM FEW150 14/13 A3005 RMK AC2 SLP177

CYHM;2011-09-11 05:00;CYHM 110500Z 07003KT 15SM SCT160 14/13 A3005 RMK AC2 SLP177

CYHM;2011-09-11 06:00;CYHM 110600Z 05004KT 15SM FEW160 14/12 A3004 RMK AC2 SLP174

CYHM;2011-09-11 07:00;CYHM 110700Z 05004KT 15SM FEW170 13/12 A3004 RMK AC2 SLP172

CYHM;2011-09-11 08:00;CYHM 110800Z 05006KT 15SM BKN140 BKN170 13/13 A3004 RMK AC5AC2 SLP172

CYHM;2011-09-11 09:00;CYHM 110900Z 02005KT 15SM SCT160 BKN210 14/12 A3004 RMK AC3CI2 SLP171

CYHM;2011-09-11 10:00;CYHM 111000Z 02005KT 15SM BKN130 13/12 A3004 RMK AC5 SLP173

CYHM;2011-09-11 11:00;CYHM 111100Z 04005KT 15SM SCT120 BKN150 BKN250 13/12 A3005 RMK AC3AC2CI0 VIRGA SLP175

CYHM;2011-09-11 12:00;CYHM 111200Z 04005KT 15SM BKN130 BKN250 16/15 A3005 RMK AC6CI1 SLP175

CYHM;2011-09-11 13:00;CYHM 111300Z 06003KT 15SM BKN130 BKN170 17/15 A3005 RMK AC6AC1 SLP177

CYHM;2011-09-11 14:00;CYHM 111400Z 06004KT 15SM BKN130 19/15 A3005 RMK AC7 ACC ASOCTD SLP176

CYHM;2011-09-11 15:00;CYHM 111500Z 00000KT 15SM BKN140 20/15 A3005 RMK AC7 SLP176

CYHM;2011-09-11 16:00;CYHM 111600Z 00000KT 15SM FEW030 BKN130 21/15 A3004 RMK CU1AC7 SLP173

CYHM;2011-09-11 17:00;CYHM 111700Z 22003KT 15SM FEW030 BKN150 23/15 A3002 RMK CU1AC6 SLP166

CYHM;2011-09-11 18:00;CYHM 111800Z CCA 21002KT 15SM FEW040 BKN160 23/14 A3000 RMK CU1AC4 SLP158

CYHM;2011-09-11 19:00;CYHM 111900Z 28005KT 15SM FEW040 FEW060 FEW140 SCT250 24/12 A2998 RMK CU1SC1AC1CI0 SLP151

CYHM;2011-09-11 20:00;CYHM 112000Z 30002KT 15SM FEW040 FEW060 SCT140 BKN250 25/14 A2996 RMK CU1SC2AC1CI1 CB ASOCTD TOP DSNT S SLP146

CYHM;2011-09-11 21:00;CYHM 112100Z 18006KT 15SM FEW040 FEW140 SCT250 24/17 A2996 RMK CU1AC2CI1 SLP143

CYHM;2011-09-11 22:00;CYHM 112200Z 21010KT 15SM FEW042 FEW054 FEW140 SCT250 22/17 A2996 RMK CU1SC2AC1CI0 AC TR SLP145

CYHM;2011-09-11 23:00;CYHM 112300Z 20004KT 15SM FEW040TCU FEW062 20/17 A2996 RMK TCU1SC2 CB ASOCTD TOP DNST E SLP145

CYHM;2011-09-12 00:00;CYHM 120000Z 20007KT 15SM FEW060 FEW250 19/17 A2996 RMK SC1CI0 SLP144

CYHM;2011-09-12 01:00;CYHM 120100Z 21007KT 15SM FEW060 FEW250 18/17 A2998 RMK SC1CI0 SLP151

CYHM;2011-09-12 02:00;CYHM 120200Z 22006KT 15SM FEW060 16/16 A2998 RMK SC1 SLP152

CYHM;2011-09-12 03:00;CYHM 120300Z 23006KT 15SM FEW250 16/16 A2997 RMK CI1 CI TR SLP150

CYHM;2011-09-12 04:00;CYHM 120400Z 24005KT 10SM BCFG FEW250 16/15 A2997 RMK CI1 CI TR SLP150

CYHM;2011-09-12 04:45;CYHM 120445Z 22006KT 1 1/2SM BR SKC RMK FG2

CYHM;2011-09-12 05:00;CYHM 120500Z 22006KT 1 1/2SM BR SKC 15/15 A2998 RMK FG2 SLP151

CYHM;2011-09-12 06:00;CYHM 120600Z 23005KT 1/4SM FG SKC 15/15 A2997 RMK FG5 SLP149

CYHM;2011-09-12 07:00;CYHM 120700Z 23005KT 1/4SM FG SKC 15/15 A2997 RMK FG5 SLP148

CYHM;2011-09-12 08:00;CYHM 120800Z 20005KT 1/4SM FG SKC 16/16 A2997 RMK FG5 SLP148

CYHM;2011-09-12 09:00;CYHM 120900Z 21006KT 1/4SM FG VV001 16/16 A2998 RMK FG8 SLP150

CYHM;2011-09-12 10:00;CYHM 121000Z 23007KT 1/4SM FG VV001 17/17 A2997 RMK FG8 SLP149

CYHM;2011-09-12 11:00;CYHM 121100Z 24006KT 1/4SM FG VV001 17/17 A2998 RMK FG8 SLP151

CYHM;2011-09-12 11:06;CYHM 121106Z 25009KT 1/2SM FG OVC002 RMK FG6SF2

CYHM;2011-09-12 12:00;CYHM 121200Z 22009KT 1/2SM FG OVC002 17/17 A3000 RMK FG5SF3 VIS VRBL 1/4-3/4SM SLP158

CYHM;2011-09-12 12:27;CYHM 121227Z 23007KT 1/4SM FG VV001 RMK FG8

CYHM;2011-09-12 12:50;CYHM 121250Z 02007KT 1/2SM FG OVC002 RMK FG6SF2

CYHM;2011-09-12 13:00;CYHM 121300Z 23009KT 1SM BR BKN002 17/17 A3000 RMK FG3SF4 CIG 250FT SLP159

CYHM;2011-09-12 13:20;CYHM 121320Z 22010KT 1 1/2SM BR BKN002 RMK FG4SF3

CYHM;2011-09-12 13:34;CYHM 121334Z 22011KT 2SM BR OVC002 RMK FG1SF7

CYHM;2011-09-12 14:00;CYHM 121400Z CCA 21009KT 2SM BR BKN003 18/18 A3000 RMK FG1SF6 CIG 350FT SLP159

CYHM;2011-09-12 14:31;CYHM 121431Z 22009KT 5SM BR FEW005 BKN009 RMK SF2SC4

CYHM;2011-09-12 15:00;CYHM 121500Z 25008KT 10SM FEW008 BKN013 BKN025 20/19 A3001 RMK CF2SC3SC1 SLP163

CYHM;2011-09-12 16:00;CYHM 121600Z 22010KT 10SM FEW024 23/19 A3000 RMK CU1 SLP157

CYHM;2011-09-12 17:00;CYHM 121700Z 23013G18KT 15SM SCT026 BKN031 24/18 A2997 RMK CU3SC2 SLP149

CYHM;2011-09-12 18:00;CYHM 121800Z 21011G17KT 15SM FEW036 SCT042 BKN220 25/17 A2995 RMK CU2SC2CI0 CI TR SLP142

CYHM;2011-09-12 19:00;CYHM 121900Z 23011KT 15SM SCT044 25/17 A2994 RMK CU3 SLP136

CYHM;2011-09-12 20:00;CYHM 122000Z 22013KT 15SM FEW044TCU FEW240 25/16 A2992 RMK TCU1CI1 CI TR CU ASOCTD SLP131

CYHM;2011-09-12 21:00;CYHM 122100Z 20012KT 15SM FEW058TCU FEW072 25/17 A2991 RMK TCU1AC1 AC TR SLP125

CYHM;2011-09-12 22:00;CYHM 122200Z 22013KT 15SM FEW058TCU FEW074 FEW250 24/17 A2989 RMK TCU1AC1CI2 TCU TR AC TR CONTRAILS SLP121

CYHM;2011-09-12 23:00;CYHM 122300Z 22008KT 15SM SCT130 BKN250 23/17 A2990 RMK AC3CI1 SLP123

CYHM;2011-09-13 00:00;CYHM 130000Z 21008KT 15SM FEW054 FEW130 OVC250 20/17 A2989 RMK SC1AC1CS5 SC TR SLP122

CYHM;2011-09-13 01:00;CYHM 130100Z 20004KT 15SM FEW130 BKN250 20/17 A2990 RMK AC1CS5 SLP124

CYHM;2011-09-13 02:00;CYHM 130200Z 21006KT 15SM FEW140 SCT250 19/17 A2990 RMK AC2CI2 SLP123

CYHM;2011-09-13 03:00;CYHM 130300Z 21006KT 15SM FEW140 FEW250 18/17 A2989 RMK AC1CI1 AC TR SLP119

CYHM;2011-09-13 04:00;CYHM 130400Z 20007KT 15SM BKN063 BKN110 BKN250 19/17 A2988 RMK SC5AC1CI0 SLP116

CYHM;2011-09-13 05:00;CYHM 130500Z 20008KT 15SM FEW060 FEW140 SCT250 19/17 A2987 RMK SC2AC1CI1 SLP113

CYHM;2011-09-13 06:00;CYHM 130600Z 21008KT 15SM FEW064 SCT100 BKN250 20/18 A2986 RMK SC2AC2CI1 SLP108

CYHM;2011-09-13 07:00;CYHM 130700Z 20008KT 15SM FEW060 SCT100 19/17 A2984 RMK SC2AC2 SLP101

CYHM;2011-09-13 08:00;CYHM 130800Z 21009KT 15SM SCT084 SCT250 19/17 A2982 RMK AC3CI0 SLP095

CYHM;2011-09-13 09:00;CYHM 130900Z 21008KT 15SM FEW084 FEW250 19/18 A2980 RMK AC1CI1 AC TR SLP087

CYHM;2011-09-13 10:00;CYHM 131000Z 21012KT 15SM FEW250 19/17 A2977 RMK CI1 SLP079

CYHM;2011-09-13 11:00;CYHM 131100Z 21014KT 15SM FEW110 BKN220 19/17 A2977 RMK AC2CI2 SLP078

CYHM;2011-09-13 12:00;CYHM 131200Z 21015G22KT 15SM FEW045 FEW100 FEW220 20/17 A2977 RMK SC1AC1CI1 SC TR SLP079

CYHM;2011-09-13 13:00;CYHM 131300Z 22017G25KT 15SM FEW100 22/18 A2977 RMK AC1 AC TR SLP078

CYHM;2011-09-13 14:00;CYHM 131400Z CCA 23020KT 15SM FEW110 23/17 A2977 RMK AC1 WIND EST SLP078

CYHM;2011-09-13 15:00;CYHM 131500Z 23018KT 15SM FEW035 FEW150 FEW220 24/17 A2977 RMK CU1AC1CI0 CU TR CI TR WIND EST SLP078

CYHM;2011-09-13 16:00;CYHM 131600Z 27015KT 15SM FEW030 FEW078 24/18 A2976 RMK CU1AC1 WIND EST SLP076

CYHM;2011-09-13 17:00;CYHM 131700Z 23018KT 15SM FEW034 FEW140 SCT220 26/19 A2975 RMK CU2AC1CI1 WIND EST SLP072

CYHM;2011-09-13 18:00;CYHM 131800Z 27018KT 15SM FEW030 FEW062 SCT220 25/18 A2975 RMK CU1SC1CI1 SLP071

CYHM;2011-09-13 19:00;CYHM 131900Z 23016KT 15SM FEW026 BKN046 25/18 A2974 RMK SF1SC6 TCU EMBDD SLP069

CYHM;2011-09-13 19:30;CYHM 131930Z 23016KT 15SM -SHRA FEW022 OVC028 RMK SF1SC7 TCU EMBDD

CYHM;2011-09-13 20:00;CYHM 132000Z 32009KT 10SM -SHRA SCT024 OVC032 21/18 A2976 RMK SF3SC5 TCU EMBDD SLP075

CYHM;2011-09-13 20:38;CYHM 132038Z 31014KT 12SM FEW026 BKN034 RMK SF2SC6 TCU EMBDD

CYHM;2011-09-13 21:00;CYHM 132100Z 33013KT 12SM FEW026 BKN034 19/15 A2979 RMK SF2SC5 TCU EMBDD SLP088

CYHM;2011-09-13 22:00;CYHM 132200Z 31007KT 10SM OVC028 18/13 A2983 RMK SC8 TCU EMBDD SLP099

CYHM;2011-09-13 23:00;CYHM 132300Z 31006KT 10SM FEW026 SCT042 17/13 A2984 RMK SC2SC2 TCU ASOCTD SLP102

CYHM;2011-09-14 00:00;CYHM 140000Z 32006KT 10SM SCT044 SCT220 16/13 A2985 RMK SC2CI0 SLP109

CYHM;2011-09-14 01:00;CYHM 140100Z 32006KT 15SM SCT052 15/12 A2987 RMK SC2 SLP114

CYHM;2011-09-14 02:00;CYHM 140200Z 32005KT 15SM FEW060 FEW220 14/11 A2989 RMK SC2CI1 CI TR SLP122

CYHM;2011-09-14 03:00;CYHM 140300Z 32004KT 15SM SCT063 13/10 A2991 RMK SC3 SLP127

CYHM;2011-09-14 04:00;CYHM 140400Z 21002KT 15SM FEW064 12/10 A2994 RMK SC1 SLP138

CYHM;2011-09-14 05:00;CYHM 140500Z 23003KT 15SM FEW064 11/10 A2995 RMK SC1 SLP141

CYHM;2011-09-14 06:00;CYHM 140600Z 35002KT 15SM BKN044 11/10 A2995 RMK SC6 SLP141

CYHM;2011-09-14 07:00;CYHM 140700Z 22003KT 15SM SCT046 10/09 A2995 RMK SC3 SLP142

CYHM;2011-09-14 08:00;CYHM 140800Z 30002KT 15SM FEW046 09/09 A2994 RMK SC1 SC TR SLP138

CYHM;2011-09-14 09:00;CYHM 140900Z 20003KT 15SM FEW046 08/08 A2994 RMK SC1 SC TR SLP140

CYHM;2011-09-14 10:00;CYHM 141000Z 26003KT 15SM MIFG FEW240 08/08 A2995 RMK CI1 CI TR SLP144

CYHM;2011-09-14 11:00;CYHM 141100Z 28003KT 1SM BR FEW120 08/08 A2996 RMK FG1AC1 SLP148

CYHM;2011-09-14 11:06;CYHM 141106Z 26004KT 1/8SM FG SKC RMK FG2

CYHM;2011-09-14 11:28;CYHM 141128Z 28003KT 2SM BR FEW220 RMK FG1CI1

CYHM;2011-09-14 11:32;CYHM 141132Z 30003KT 10SM MIFG FEW120 FEW220 RMK AC1CI0

CYHM;2011-09-14 12:00;CYHM 141200Z 29004KT 15SM FEW015 FEW120 FEW220 09/09 A2998 RMK CU1AC1CI1 CU TR AC TR CI TR SLP155

CYHM;2011-09-14 13:00;CYHM 141300Z 26005KT 15SM SKC 13/10 A2999 RMK SLP158

CYHM;2011-09-14 14:00;CYHM 141400Z 24005KT 15SM SKC 15/09 A3000 RMK SLP160

CYHM;2011-09-14 15:00;CYHM 141500Z 26006KT 15SM FEW025 16/11 A3001 RMK CU2 SLP162

CYHM;2011-09-14 16:00;CYHM 141600Z 28009KT 15SM FEW036 17/10 A3001 RMK CU2 SLP163

CYHM;2011-09-14 17:00;CYHM 141700Z 28006KT 15SM FEW036 FEW042 18/10 A2999 RMK CU2SC1 SLP158

CYHM;2011-09-14 18:00;CYHM 141800Z 27008KT 15SM FEW040 19/09 A2998 RMK CU2 SLP154

CYHM;2011-09-14 19:00;CYHM 141900Z 24005KT 15SM FEW055 FEW240 20/09 A2995 RMK CU2CI1 CONTRAILS SLP145

CYHM;2011-09-14 20:00;CYHM 142000Z 30004KT 15SM FEW055 FEW240 20/09 A2995 RMK CU2CI1 SLP143

CYHM;2011-09-14 21:00;CYHM 142100Z 27009KT 15SM FEW060 BKN230 20/08 A2997 RMK SC2CI3 CU ASOCTD SLP149

CYHM;2011-09-14 22:00;CYHM 142200Z 28005KT 15SM FEW060 SCT070 BKN120 18/09 A2997 RMK SC2AC2AC4 CU ASOCTD SLP149

CYHM;2011-09-14 23:00;CYHM 142300Z 27003KT 15SM FEW050 FEW070 OVC120 17/09 A2996 RMK SC1AC2AC6 SLP146

CYHM;2011-09-15 00:00;CYHM 150000Z 21004KT 15SM BKN073 OVC096 16/10 A2997 RMK AC6AC2 SMK NNE SLP153

CYHM;2011-09-15 00:36;CYHM 150036Z 29010KT 15SM -SHRA FEW037 OVC054 RMK SC2SC6

CYHM;2011-09-15 01:00;CYHM 150100Z 30007KT 15SM -SHRA FEW033 OVC084 14/12 A2999 RMK SC1AC7 SLP159

CYHM;2011-09-15 02:00;CYHM 150200Z 32009G17KT 15SM -SHRA OVC075 13/12 A3000 RMK AC8 SLP161

CYHM;2011-09-15 03:00;CYHM 150300Z 33009G16KT 15SM -SHRA OVC029 11/09 A3002 RMK SC8 SLP168

CYHM;2011-09-15 04:00;CYHM 150400Z 34005KT 10SM -SHRA OVC039 10/09 A3004 RMK SC8 SLP173

CYHM;2011-09-15 04:34;CYHM 150434Z 35006KT 10SM -SHRA FEW007 OVC014 RMK CF2SC6 CIG RAG

CYHM;2011-09-15 05:00;CYHM 150500Z 36006KT 15SM -SHRA FEW012 OVC060 10/09 A3005 RMK CF2SC6 SLP177

CYHM;2011-09-15 06:00;CYHM 150600Z 01004KT 15SM -SHRA OVC052 09/08 A3004 RMK SC8 SLP176

CYHM;2011-09-15 07:00;CYHM 150700Z 35004KT 15SM -SHRA OVC051 09/08 A3004 RMK SC8 SLP174

CYHM;2011-09-15 08:00;CYHM 150800Z 35009KT 15SM -SHRA OVC063 10/07 A3004 RMK SC8 SLP173

CYHM;2011-09-15 09:00;CYHM 150900Z 33008KT 15SM OVC083 09/06 A3005 RMK AC8 SLP176

CYHM;2011-09-15 10:00;CYHM 151000Z 35008KT 15SM BKN069 OVC110 08/03 A3006 RMK AC6AC2 SLP180

CYHM;2011-09-15 11:00;CYHM 151100Z 34009KT 15SM FEW025 BKN074 08/02 A3008 RMK CU1AC7 CU TR SLP186

CYHM;2011-09-15 12:00;CYHM 151200Z 33008KT 15SM FEW070 BKN080 08/01 A3010 RMK AC2AC5 SLP195

CYHM;2011-09-15 13:00;CYHM 151300Z 31006KT 15SM FEW025 FEW075 FEW100 09/02 A3012 RMK CU1AC1AC2 CU TR SLP201

CYHM;2011-09-15 14:00;CYHM 151400Z CCA 33005KT 15SM FEW032 FEW085 11/03 A3012 RMK CU1AC1 CU TR SLP203

CYHM;2011-09-15 15:00;CYHM 151500Z 31012G18KT 15SM FEW032 SCT100 12/04 A3013 RMK CU2AC1 SLP208

CYHM;2011-09-15 16:00;CYHM 151600Z 31017G25KT 15SM SCT045 BKN052 BKN120 13/05 A3015 RMK CU3SC2AC1 SLP213

CYHM;2011-09-15 17:00;CYHM 151700Z 31016G22KT 15SM FEW045 BKN052 BKN075 BKN110 12/04 A3016 RMK CU2SC2AC1AC1 SLP217

CYHM;2011-09-15 18:00;CYHM 151800Z 31015G24KT 15SM FEW045 SCT050 BKN110 13/03 A3016 RMK CU2SC2AC2 SLP217

CYHM;2011-09-15 19:00;CYHM 151900Z 30012G23KT 15SM VCSH BKN045 BKN075 14/03 A3016 RMK CU5AC1 SLP217

CYHM;2011-09-15 20:00;CYHM 152000Z 30014G24KT 15SM SCT050 SCT075 13/04 A3018 RMK CU4AC1 AC TR VIRGA SLP222

CYHM;2011-09-15 21:00;CYHM 152100Z 31018G28KT 15SM SCT045 13/04 A3018 RMK CU3 SLP224

CYHM;2011-09-15 22:00;CYHM 152200Z 31012G22KT 15SM SCT044 BKN054 12/04 A3019 RMK CU3SC2 SLP227

CYHM;2011-09-15 23:00;CYHM 152300Z 31008KT 15SM FEW042 BKN052 11/05 A3021 RMK CU2SC2 SLP233

CYHM;2011-09-16 00:00;CYHM 160000Z 29007KT 15SM FEW052 10/04 A3023 RMK SC1 SLP241

CYHM;2011-09-16 01:00;CYHM 160100Z 28006KT 15SM FEW050 08/04 A3025 RMK SC1 SLP248

CYHM;2011-09-16 02:00;CYHM 160200Z 28005KT 15SM FEW048 08/04 A3027 RMK SC2 SLP255

CYHM;2011-09-16 03:00;CYHM 160300Z 28004KT 15SM FEW052 07/04 A3027 RMK SC1 SLP257

CYHM;2011-09-16 04:00;CYHM 160400Z 25004KT 15SM FEW052 05/04 A3028 RMK SC1 SLP260

CYHM;2011-09-16 05:00;CYHM 160500Z 24005KT 15SM FEW050 05/04 A3029 RMK SC1 SLP261

CYHM;2011-09-16 06:00;CYHM 160600Z 27006KT 15SM FEW050 05/04 A3029 RMK SC1 SLP262

CYHM;2011-09-16 07:00;CYHM 160700Z 27006KT 15SM FEW050 05/04 A3029 RMK SC1 SLP261

CYHM;2011-09-16 08:00;CYHM 160800Z 29005KT 15SM FEW050 04/04 A3029 RMK SC1 SLP262

CYHM;2011-09-16 09:00;CYHM 160900Z 26006KT 15SM FEW050 04/03 A3030 RMK SC1 SLP267

CYHM;2011-09-16 10:00;CYHM 161000Z 27006KT 15SM FEW050 04/03 A3032 RMK SC1 SLP273

CYHM;2011-09-16 11:00;CYHM 161100Z 25005KT 15SM FEW045 FEW100 04/03 A3033 RMK SC1AC1 CU ASOCTD SLP277

CYHM;2011-09-16 12:00;CYHM 161200Z 26006KT 15SM FEW045 FEW220 04/04 A3036 RMK SC1CI1 CU ASOCTD SLP289

CYHM;2011-09-16 13:00;CYHM 161300Z 29005KT 15SM FEW025 FEW100 SCT220 07/06 A3037 RMK CU1AC1CI2 CU TR SLP292

CYHM;2011-09-16 14:00;CYHM 161400Z 01004KT 15SM FEW025 FEW150 SCT220 10/06 A3038 RMK CU1AC1CI2 SLP294

CYHM;2011-09-16 15:00;CYHM 161500Z CCA 35005KT 15SM FEW030 BKN220 12/03 A3038 RMK CU2CI2 CONTRAILS SLP294

CYHM;2011-09-16 16:00;CYHM 161600Z 29005KT 15SM SCT040 SCT062 BKN210 13/05 A3038 RMK CU3SC1CI2 SLP292

CYHM;2011-09-16 17:00;CYHM 161700Z 27008KT 15SM SCT046 BKN210 14/05 A3037 RMK CU3CI2 SLP289

CYHM;2011-09-16 18:00;CYHM 161800Z 33006KT 15SM SCT042 BKN220 15/04 A3037 RMK CU3CI1 SLP288

CYHM;2011-09-16 19:00;CYHM 161900Z 26007KT 15SM SCT050 BKN220 15/03 A3036 RMK CU3CI2 SLP285

CYHM;2011-09-16 20:00;CYHM 162000Z 30007KT 15SM FEW050 BKN220 15/03 A3035 RMK CU2CI3 SLP282

CYHM;2011-09-16 21:00;CYHM 162100Z 33006KT 15SM FEW050 FEW100 BKN220 15/03 A3034 RMK SC2AC1CI2 CU ASOCTD AC TR SLP279

CYHM;2011-09-16 22:00;CYHM 162200Z 33005KT 15SM FEW040 FEW050 BKN200 14/02 A3033 RMK CU1SC1CI4 CU TR SLP277

CYHM;2011-09-16 23:00;CYHM 162300Z 31004KT 15SM FEW045 BKN210 13/04 A3033 RMK SC1CC5 SLP276

CYHM;2011-09-17 00:00;CYHM 170000Z 31004KT 15SM FEW045 BKN200 11/05 A3033 RMK SC1CI6 SLP276

CYHM;2011-09-17 01:00;CYHM 170100Z 33005KT 15SM BKN170 10/04 A3035 RMK AC6 SLP282

CYHM;2011-09-17 02:00;CYHM 170200Z 01006KT 15SM BKN170 10/04 A3035 RMK AC6 SLP283

CYHM;2011-09-17 03:00;CYHM 170300Z 02005KT 15SM OVC160 10/05 A3036 RMK AC8 SLP286

CYHM;2011-09-17 04:00;CYHM 170400Z 03007KT 15SM BKN150 09/04 A3037 RMK AC7 SLP289

CYHM;2011-09-17 05:00;CYHM 170500Z 02007KT 15SM BKN048 BKN150 09/02 A3038 RMK SC6AC2 SLP291

CYHM;2011-09-17 06:00;CYHM 170600Z 02006KT 15SM BKN050 BKN140 09/02 A3039 RMK SC6AC2 SLP293

CYHM;2011-09-17 07:00;CYHM 170700Z 03009KT 15SM FEW050 BKN140 09/01 A3038 RMK SC2AC5 SLP290

CYHM;2011-09-17 08:00;CYHM 170800Z 04006KT 15SM FEW150 BKN230 09/03 A3039 RMK AC2CS6 HALO SLP294

CYHM;2011-09-17 09:00;CYHM 170900Z 04006KT 15SM FEW150 BKN230 09/04 A3039 RMK AC2CS5 HALO SLP294

CYHM;2011-09-17 10:00;CYHM 171000Z 05006KT 15SM FEW035 OVC120 09/04 A3039 RMK SC2AS6 SLP294

CYHM;2011-09-17 11:00;CYHM 171100Z 04006KT 15SM FEW035 OVC120 09/05 A3039 RMK SC2AC6 SLP296

CYHM;2011-09-17 12:00;CYHM 171200Z 05008KT 15SM FEW030 OVC110 10/06 A3039 RMK SC1AC7 SLP296

CYHM;2011-09-17 13:00;CYHM 171300Z 03005KT 15SM FEW030 BKN100 BKN170 11/07 A3042 RMK SC1AC4AC2 SLP304

CYHM;2011-09-17 14:00;CYHM 171400Z 04005KT 15SM BKN036 BKN140 13/06 A3043 RMK SC6AC2 SLP308

CYHM;2011-09-17 15:00;CYHM 171500Z 05007KT 15SM FEW038 SCT140 BKN170 14/06 A3043 RMK SC2AC1AC4 SLP307

CYHM;2011-09-17 16:00;CYHM 171600Z 06012KT 15SM FEW040 FEW140 BKN180 16/07 A3042 RMK SC1AC2AC3 SLP304

CYHM;2011-09-17 17:00;CYHM 171700Z 07009KT 15SM FEW040 BKN160 15/05 A3041 RMK SC1AC5 SLP301

CYHM;2011-09-17 18:00;CYHM 171800Z 05011KT 15SM FEW040 BKN170 17/07 A3039 RMK SC1AC4 SLP296

CYHM;2011-09-17 19:00;CYHM 171900Z 05010KT 15SM FEW040 BKN160 BKN200 16/07 A3039 RMK SC2AC4CI1 CI TR CU ASOCTD SLP294

CYHM;2011-09-17 20:00;CYHM 172000Z 05012G19KT 15SM FEW040 SCT170 BKN200 15/07 A3038 RMK CU1AC3CC1 SLP292

CYHM;2011-09-17 21:00;CYHM 172100Z 06012KT 15SM FEW035 BKN170 BKN200 15/07 A3038 RMK CU1AC4CC1 CC TR SLP290

CYHM;2011-09-17 22:00;CYHM 172200Z 05012KT 15SM FEW035 FEW120 SCT170 15/07 A3037 RMK CU1AC1AC2 CU TR SLP289

CYHM;2011-09-17 23:00;CYHM 172300Z 05012KT 15SM FEW120 FEW170 13/07 A3038 RMK AC2AC1 SLP290

CYHM;2011-09-18 00:00;CYHM 180000Z 05007KT 15SM FEW120 FEW170 12/06 A3038 RMK AC2AC1 SLP292

CYHM;2011-09-18 01:00;CYHM 180100Z 05006KT 15SM FEW140 11/06 A3039 RMK AC2 SLP297

CYHM;2011-09-18 02:00;CYHM 180200Z 05006KT 15SM FEW140 11/06 A3039 RMK AC1 SLP297

CYHM;2011-09-18 03:00;CYHM 180300Z 08006KT 15SM FEW120 10/06 A3039 RMK AC1 SLP296

CYHM;2011-09-18 04:00;CYHM 180400Z 07007KT 15SM SKC 09/06 A3039 RMK SLP295

CYHM;2011-09-18 05:00;CYHM 180500Z 05008KT 15SM FEW100 10/06 A3038 RMK AC1 SLP292

CYHM;2011-09-18 06:00;CYHM 180600Z 05008KT 15SM FEW090 10/06 A3038 RMK AC1 SLP290

CYHM;2011-09-18 07:00;CYHM 180700Z 04005KT 15SM SKC 09/06 A3038 RMK SLP290

CYHM;2011-09-18 08:00;CYHM 180800Z 03006KT 15SM SKC 09/07 A3038 RMK SLP290

CYHM;2011-09-18 09:00;CYHM 180900Z 04007KT 15SM SKC 08/07 A3039 RMK SLP293

CYHM;2011-09-18 10:00;CYHM 181000Z 04006KT 15SM FEW080 07/07 A3039 RMK AC1 SLP296

CYHM;2011-09-18 11:00;CYHM 181100Z 04005KT 15SM FEW080 07/07 A3040 RMK AC1 SLP299

CYHM;2011-09-18 12:00;CYHM 181200Z 05005KT 15SM FEW030 09/08 A3041 RMK SC1 SLP303

CYHM;2011-09-18 13:00;CYHM 181300Z 08007KT 15SM FEW030 12/11 A3041 RMK CU1 SLP303

CYHM;2011-09-18 14:00;CYHM 181400Z 12005KT 15SM FEW030 15/11 A3041 RMK CU1 SLP302

CYHM;2011-09-18 15:00;CYHM 181500Z 09007KT 15SM FEW028 16/11 A3041 RMK CU2 SLP301

CYHM;2011-09-18 16:00;CYHM 181600Z 14009KT 15SM BKN040 17/08 A3040 RMK CU5 SLP297

CYHM;2011-09-18 17:00;CYHM 181700Z 12010G20KT 15SM FEW040 FEW250 18/08 A3038 RMK CU2CI1 SLP291

CYHM;2011-09-18 18:00;CYHM 181800Z 11009KT 15SM FEW048 FEW250 19/07 A3036 RMK CU1CI1 SLP284

CYHM;2011-09-18 19:00;CYHM 181900Z 12010KT 15SM FEW045 FEW250 19/07 A3033 RMK CU1CI1 SLP275

CYHM;2011-09-18 20:00;CYHM 182000Z 05015KT 15SM FEW045 FEW250 18/11 A3032 RMK CU1CI2 CU TR SLP269

CYHM;2011-09-18 21:00;CYHM 182100Z 07012KT 15SM FEW035 SCT240 17/11 A3031 RMK CU1CI2 CU TR SLP266

CYHM;2011-09-18 22:00;CYHM 182200Z 06011KT 15SM BKN250 16/10 A3030 RMK CI3 SLP265

CYHM;2011-09-18 23:00;CYHM 182300Z 06009KT 15SM BKN250 15/10 A3029 RMK CI3 SLP260

CYHM;2011-09-19 00:00;CYHM 190000Z 05008KT 15SM BKN250 14/11 A3028 RMK CI3 SLP257

CYHM;2011-09-19 01:00;CYHM 190100Z 06008KT 15SM SCT250 14/12 A3027 RMK CI2 SLP254

CYHM;2011-09-19 02:00;CYHM 190200Z 07006KT 15SM FEW250 12/10 A3027 RMK CI2 SLP253

CYHM;2011-09-19 03:00;CYHM 190300Z 07008KT 15SM FEW250 11/08 A3026 RMK CI1 SLP250

CYHM;2011-09-19 04:00;CYHM 190400Z 10007KT 15SM FEW250 11/08 A3024 RMK CI1 SLP244

CYHM;2011-09-19 05:00;CYHM 190500Z 14007KT 15SM FEW250 11/09 A3023 RMK CI1 SLP238

CYHM;2011-09-19 06:00;CYHM 190600Z 13004KT 15SM FEW250 11/08 A3021 RMK CI1 SLP232

CYHM;2011-09-19 07:00;CYHM 190700Z 14005KT 15SM FEW250 10/08 A3019 RMK CI1 CI TR SLP226

CYHM;2011-09-19 08:00;CYHM 190800Z 13005KT 15SM FEW250 10/08 A3017 RMK CI1 CI TR SLP220

CYHM;2011-09-19 09:00;CYHM 190900Z 14005KT 15SM SCT250 10/08 A3015 RMK CI2 SLP213

CYHM;2011-09-19 10:00;CYHM 191000Z 15006KT 15SM SCT210 10/08 A3014 RMK CI2 SLP209

CYHM;2011-09-19 11:00;CYHM 191100Z 14006KT 15SM FEW160 BKN210 10/09 A3013 RMK AC1CI3 SLP207

CYHM;2011-09-19 12:00;CYHM 191200Z 15007KT 15SM BKN180 BKN210 13/11 A3013 RMK AC5CI2 CONTRAILS SLP204

CYHM;2011-09-19 13:00;CYHM 191300Z 15008KT 15SM SCT140 BKN220 15/12 A3010 RMK AC3CI3 SLP197

CYHM;2011-09-19 14:00;CYHM 191400Z 17010KT 15SM FEW030 SCT130 OVC220 16/13 A3009 RMK CU1AC3CI4 SLP192

CYHM;2011-09-19 14:51;CYHM 191451Z 17014KT 15SM -SHRA FEW026 FEW034 BKN041 OVC055 RMK CU1SC2SC4SC2

CYHM;2011-09-19 15:00;CYHM 191500Z 18016G21KT 15SM -SHRA FEW023 BKN042 OVC060 16/13 A3007 RMK SC2SC4SC2 SLP186

CYHM;2011-09-19 16:00;CYHM 191600Z 17013G19KT 10SM -SHRA FEW015 BKN028 OVC078 16/13 A3006 RMK CU1SC6AC2 SLP180

CYHM;2011-09-19 17:00;CYHM 191700Z 18010KT 15SM FEW017 OVC039 16/13 A3003 RMK CU1SC7 SLP171

CYHM;2011-09-19 17:36;CYHM 191736Z 17011KT 10SM -SHRA BKN031 OVC038 RMK SC6SC2

CYHM;2011-09-19 18:00;CYHM 191800Z 17008KT 10SM -SHRA OVC034 16/14 A3000 RMK SC8 SLP162

CYHM;2011-09-19 19:00;CYHM 191900Z 17010KT 5SM -SHRA BR OVC024 16/14 A2998 RMK SC8 SLP154

CYHM;2011-09-19 20:00;CYHM 192000Z 17010KT 4SM -SHRA BR FEW018 OVC028 16/15 A2995 RMK SF2SC6 SLP144

CYHM;2011-09-19 21:00;CYHM 192100Z 19012KT 4SM -SHRA BR FEW012 OVC019 16/15 A2994 RMK SF2SC6 SLP139

CYHM;2011-09-19 21:17;CYHM 192117Z 19014KT 2 1/2SM -RA BR SCT009 OVC018 RMK SF3SC5

CYHM;2011-09-19 22:00;CYHM 192200Z 19011KT 2SM -RA BR BKN006 OVC018 16/15 A2993 RMK SF6SC2 SLP136

CYHM;2011-09-19 23:00;CYHM 192300Z 19012KT 2 1/2SM -RA BR BKN007 OVC013 16/16 A2992 RMK SF6SC2 SLP134

CYHM;2011-09-19 23:25;CYHM 192325Z 20014G20KT 5SM -SHRA BR OVC007 RMK SF8

CYHM;2011-09-20 00:00;CYHM 200000Z 20015KT 8SM -SHRA OVC007 16/16 A2991 RMK SF8 SLP130

CYHM;2011-09-20 01:00;CYHM 200100Z 20013G19KT 6SM -SHRA BR BKN009 OVC024 16/16 A2992 RMK SF6SC2 SLP132

CYHM;2011-09-20 02:00;CYHM 200200Z 20013G19KT 5SM -SHRA BR BKN006 OVC018 16/16 A2991 RMK SF7SC1 SLP130

CYHM;2011-09-20 03:00;CYHM 200300Z 19013KT 5SM -SHRA BR BKN008 OVC024 16/16 A2990 RMK SF6SC2 SLP126

CYHM;2011-09-20 04:00;CYHM 200400Z 21009G17KT 6SM -SHRA BR OVC004 17/16 A2991 RMK SF8 SLP130

CYHM;2011-09-20 05:00;CYHM 200500Z 30008KT 12SM -SHRA SCT004 OVC010 16/16 A2993 RMK SF3SF5 SLP134

CYHM;2011-09-20 06:00;CYHM 200600Z 30007KT 15SM FEW012 OVC047 15/15 A2994 RMK SF1SC7 SLP140

CYHM;2011-09-20 07:00;CYHM 200700Z 28004KT 15SM FEW018 BKN047 15/14 A2995 RMK SC2SC5 SLP143

CYHM;2011-09-20 08:00;CYHM 200800Z 29003KT 15SM FEW018 14/13 A2996 RMK SC2 SLP147

CYHM;2011-09-20 09:00;CYHM 200900Z 27005KT 15SM OVC017 14/13 A2999 RMK SC8 SLP156

CYHM;2011-09-20 10:00;CYHM 201000Z 33007KT 15SM OVC016 13/11 A3001 RMK SC8 SLP164

CYHM;2011-09-20 11:00;CYHM 201100Z 29007KT 15SM FEW020 12/11 A3004 RMK SC2 SLP173

CYHM;2011-09-20 12:00;CYHM 201200Z 29004KT 15SM FEW030 12/11 A3006 RMK SC1 SLP181

CYHM;2011-09-20 13:00;CYHM 201300Z 30006KT 15SM FEW030 14/12 A3008 RMK SC1 SC TR SLP188

CYHM;2011-09-20 14:00;CYHM 201400Z 31007KT 15SM FEW025 15/11 A3010 RMK CU1 SLP193

CYHM;2011-09-20 15:00;CYHM 201500Z 31006KT 15SM FEW022 FEW035 16/12 A3011 RMK CU1SC2 SLP197

CYHM;2011-09-20 16:00;CYHM 201600Z 26006KT 15SM FEW022 FEW036 BKN220 18/11 A3011 RMK CU1SC1CI2 SLP196

CYHM;2011-09-20 17:00;CYHM 201700Z 31002KT 15SM FEW025 BKN220 18/13 A3009 RMK CU1CI3 SLP191

CYHM;2011-09-20 18:00;CYHM 201800Z 26006KT 15SM FEW032 SCT250 19/11 A3009 RMK CU1CI1 CU TR SLP189

CYHM;2011-09-20 19:00;CYHM 201900Z 25009KT 15SM FEW036 FEW250 20/11 A3009 RMK CU1CI1 CU TR CI TR SLP189

CYHM;2011-09-20 20:00;CYHM 202000Z 24007KT 15SM FEW040 FEW250 21/11 A3008 RMK CU1CI1 CU TR CI TR SLP187

CYHM;2011-09-20 21:00;CYHM 202100Z 28005KT 15SM FEW038 FEW250 21/12 A3008 RMK CU1CI1 CU TR CI TR SLP185

CYHM;2011-09-20 22:00;CYHM 202200Z 22004KT 15SM FEW036 FEW250 20/11 A3008 RMK CU1CI1 CU TR CI TR SLP187

CYHM;2011-09-20 23:00;CYHM 202300Z 19006KT 15SM FEW036 FEW250 18/14 A3009 RMK CU1CI1 CU TR SLP188

CYHM;2011-09-21 00:00;CYHM 210000Z 16005KT 15SM FEW250 16/14 A3009 RMK CI1 CI TR SLP191

CYHM;2011-09-21 01:00;CYHM 210100Z 16005KT 15SM FEW250 14/13 A3010 RMK CI1 CI TR SLP195

CYHM;2011-09-21 02:00;CYHM 210200Z 16003KT 15SM FEW250 14/13 A3010 RMK CI1 CI TR SLP196

CYHM;2011-09-21 03:00;CYHM 210300Z 15002KT 15SM BKN038 BKN250 14/13 A3011 RMK SC5CI0 SLP199

CYHM;2011-09-21 04:00;CYHM 210400Z 14006KT 15SM FEW036 13/13 A3011 RMK SC2 SLP198

CYHM;2011-09-21 06:00;CYHM 210600Z 10003KT 15SM BKN048 BKN074 13/13 A3010 RMK SC5AC2 SLP194

CYHM;2011-09-21 07:00;CYHM 210700Z 10004KT 15SM FEW044 BKN070 13/13 A3009 RMK SC2AC4 SLP191

CYHM;2011-09-21 08:00;CYHM 210800Z 11004KT 15SM FEW042 BKN078 13/13 A3008 RMK SC1AC6 SLP187

CYHM;2011-09-21 09:00;CYHM 210900Z 34003KT 15SM FEW038 OVC084 14/14 A3008 RMK SC2AC6 SLP186

CYHM;2011-09-21 10:00;CYHM 211000Z 10004KT 15SM FEW036 BKN084 14/14 A3008 RMK SC1AC6 SLP185

CYHM;2011-09-21 11:00;CYHM 211100Z 08003KT 5SM BR FEW007 SCT035 BKN082 14/14 A3008 RMK SF2SC2AC4 SLP186

CYHM;2011-09-21 12:00;CYHM 211200Z 09004KT 2SM BR FEW005 FEW085 BKN220 14/14 A3008 RMK SF1AC1CI2 CONTRAIL SLP187

CYHM;2011-09-21 12:12;CYHM 211212Z 01003KT 1 1/2SM BR BKN002 BKN210 RMK FG2SF4CI1

CYHM;2011-09-21 12:38;CYHM 211238Z 04002KT 1/2SM FG OVC002 RMK FG3SF5 VIS S-SW 2SM

CYHM;2011-09-21 12:54;CYHM 211254Z 15003KT 1/8SM FG VV001 RMK FG8

CYHM;2011-09-21 13:00;CYHM 211300Z 16003KT 1/8SM FG VV001 17/17 A3008 RMK FG8 SLP189

CYHM;2011-09-21 13:19;CYHM 211319Z 17004KT 1 1/2SM BR OVC003 RMK FG4SF4

CYHM;2011-09-21 13:27;CYHM 211327Z 17005KT 2SM BR OVC003 RMK FG2SF6

CYHM;2011-09-21 13:45;CYHM 211345Z 17006KT 3SM BR OVC005 RMK SF8

CYHM;2011-09-21 14:00;CYHM 211400Z 18009KT 4SM BR FEW006 BKN015 BKN070 18/18 A3007 RMK SF2SC3AC2 CU ASOCTD SLP186

CYHM;2011-09-21 15:00;CYHM 211500Z 19010KT 15SM BKN017 BKN023 21/18 A3006 RMK SC6SC2 SLP180

CYHM;2011-09-21 16:00;CYHM 211600Z 17011KT 15SM FEW027 BKN038 BKN085 23/18 A3004 RMK CU2SC2AC2 SLP174

CYHM;2011-09-21 17:00;CYHM 211700Z 21008KT 15SM FEW024 BKN045 BKN062 OVC085 22/16 A3004 RMK CU1SC4SC2AC2 SLP171

CYHM;2011-09-21 18:00;CYHM 211800Z 19015KT 15SM BKN046 BKN062 OVC095 22/17 A3002 RMK SC6SC2AC1 SLP165

CYHM;2011-09-21 18:15;CYHM 211815Z 19010KT 15SM -SHRA BKN034 OVC070 RMK SC6AC2

CYHM;2011-09-21 19:00;CYHM 211900Z 17005KT 7SM -SHRA BKN035 OVC070 20/18 A3000 RMK SC7AC1 SLP160

CYHM;2011-09-21 20:00;CYHM 212000Z 18007KT 5SM -SHRA FEW015 OVC047 19/18 A3000 RMK CF1SC7 SLP159

CYHM;2011-09-21 21:00;CYHM 212100Z 16007KT 8SM -SHRA FEW032 OVC041 19/18 A2998 RMK SC2SC6 SLP154

CYHM;2011-09-21 21:39;CYHM 212139Z 24004KT 2SM +SHRA BR SCT007 OVC021 RMK RA1SF2SC5

CYHM;2011-09-21 22:00;CYHM 212200Z 21005KT 5SM -SHRA BR FEW004 BKN024 OVC056 19/18 A2998 RERA RMK CF2SC5SC2 SLP152

CYHM;2011-09-21 23:00;CYHM 212300Z 18005KT 5SM -TSRA BR FEW014 BKN031 OVC160 19/18 A2999 RMK CF2SC6AC1 CB ASOCTD OCNL LTGIC E SLP155

CYHM;2011-09-21 23:19;CYHM 212319Z 18009KT 2SM +TSRA BR FEW020CB OVC037 RMK RA1CB2SC6

CYHM;2011-09-21 23:45;CYHM 212345Z 19008KT 6SM -TSRA BR FEW007 SCT035 BKN095 RERA RMK CF2SC2AC3 CB ASOCTD

CYHM;2011-09-22 00:00;CYHM 220000Z 20007KT 7SM -TSRA BKN007 OVC090 19/18 A2998 RERA RMK CU6AC2 CB ASOCTD /R28/ SLP153

CYHM;2011-09-22 00:15;CYHM 220015Z 18008KT 15SM -SHRA SCT006 BKN120 RETS RMK CU3AC4

CYHM;2011-09-22 01:00;CYHM 220100Z 18009KT 15SM FEW050 FEW120 BKN230 18/17 A2998 RMK SC2AC1CI2 SLP154

CYHM;2011-09-22 02:00;CYHM 220200Z 18008KT 15SM BKN044 18/17 A2998 RMK SC7 CU ASOCTD SLP152

CYHM;2011-09-22 03:00;CYHM 220300Z 18008KT 15SM FEW025 SCT052 BKN077 18/17 A2999 RMK CU2SC2AC2 SLP153

CYHM;2011-09-22 04:00;CYHM 220400Z 20008KT 15SM FEW025 BKN070 18/18 A2999 RMK CU2AC3 SLP154

CYHM;2011-09-22 05:00;CYHM 220500Z 21008KT 15SM SCT018 SCT070 18/18 A2998 RMK SC3AC1 SLP151

CYHM;2011-09-22 05:33;CYHM 220533Z 21007KT 7SM FEW006 BKN012 RMK SF1SC6

CYHM;2011-09-22 06:00;CYHM 220600Z 21007KT 7SM OVC008 19/18 A2998 RMK SF8 SLP152

CYHM;2011-09-22 07:00;CYHM 220700Z 23006KT 5SM BR OVC008 19/18 A2998 RMK SF8 DRK N SLP151

CYHM;2011-09-22 07:42;CYHM 220742Z 32006KT 8SM FEW003 SCT015 BKN070 RMK SF1SC3AC1

CYHM;2011-09-22 08:00;CYHM 220800Z 30007KT 15SM FEW017 OVC077 16/12 A3000 RMK SC2AC6 SLP157

CYHM;2011-09-22 09:00;CYHM 220900Z 29003KT 15SM FEW043 BKN063 15/13 A3000 RMK SC2SC6 SLP159

CYHM;2011-09-22 10:00;CYHM 221000Z 26003KT 15SM BKN065 15/13 A3002 RMK SC7 SLP165

CYHM;2011-09-22 11:00;CYHM 221100Z 26003KT 15SM BKN074 14/13 A3003 RMK AC6 SLP169

CYHM;2011-09-22 12:00;CYHM 221200Z 21004KT 15SM FEW045 FEW075 13/13 A3005 RMK SC1AC1 SLP177

CYHM;2011-09-22 13:00;CYHM 221300Z 22004KT 15SM FEW210 16/14 A3006 RMK CI1 SLP181

CYHM;2011-09-22 14:00;CYHM 221400Z 22006KT 15SM FEW220 18/13 A3007 RMK CI1 SLP185

CYHM;2011-09-22 15:00;CYHM 221500Z 24009KT 15SM FEW220 19/13 A3008 RMK CI1 CI TR SLP186

CYHM;2011-09-22 16:00;CYHM 221600Z 23008KT 15SM FEW140 FEW220 20/12 A3008 RMK AC1CI1 CI TR SLP185

CYHM;2011-09-22 17:00;CYHM 221700Z 22012G18KT 15SM FEW040 FEW130 SCT220 21/12 A3009 RMK CU1AC1CI1 CU TR SLP189

CYHM;2011-09-22 18:00;CYHM 221800Z 24012KT 15SM FEW040 FEW130 SCT240 22/12 A3009 RMK CU2AC1CI1 SLP188

CYHM;2011-09-22 19:00;CYHM 221900Z 25011KT 15SM FEW049 BKN120 21/12 A3009 RMK CU2AC5 SLP188

CYHM;2011-09-22 20:00;CYHM 222000Z 25008KT 15SM FEW049 SCT150 22/12 A3008 RMK CU1AC3 SLP185

CYHM;2011-09-22 21:00;CYHM 222100Z 25008KT 15SM FEW049 SCT150 21/12 A3009 RMK CU1AC2 SLP188

CYHM;2011-09-22 22:00;CYHM 222200Z 25008KT 15SM FEW045 FEW150 21/11 A3008 RMK CU1AC1 CU TR SLP185

CYHM;2011-09-22 23:00;CYHM 222300Z 19004KT 15SM FEW040 FEW150 19/12 A3008 RMK CU1AC1 CU TR SLP187

CYHM;2011-09-23 00:00;CYHM 230000Z 22002KT 15SM FEW150 17/12 A3010 RMK AC1 SLP194

CYHM;2011-09-23 01:00;CYHM 230100Z 19003KT 15SM FEW150 15/12 A3011 RMK AC1 SLP197

CYHM;2011-09-23 02:00;CYHM 230200Z 20002KT 15SM FEW150 14/11 A3011 RMK AC1 SLP198

CYHM;2011-09-23 03:00;CYHM 230300Z 17002KT 15SM BKN069 BKN150 14/12 A3011 RMK AC5AC2 SLP198

CYHM;2011-09-23 04:00;CYHM 230400Z 24002KT 15SM SCT064 BKN077 14/13 A3012 RMK SC4AC3 SLP200

CYHM;2011-09-23 05:00;CYHM 230500Z 36003KT 15SM FEW064 BKN082 BKN130 15/13 A3011 RMK SC2AC3AC2 SLP198

CYHM;2011-09-23 06:00;CYHM 230600Z 36003KT 15SM BKN062 OVC086 15/13 A3011 RMK SC5AC3 SLP195

CYHM;2011-09-23 07:00;CYHM 230700Z 03002KT 15SM BKN060 OVC085 15/13 A3010 RMK SC7AC1 SLP192

CYHM;2011-09-23 08:00;CYHM 230800Z 01003KT 15SM OVC061 15/13 A3008 RMK SC8 SLP185

CYHM;2011-09-23 09:00;CYHM 230900Z 03005KT 15SM BKN056 OVC077 15/13 A3007 RMK SC5AC3 SLP182

CYHM;2011-09-23 10:00;CYHM 231000Z 04007KT 15SM BKN050 OVC072 16/14 A3005 RMK SC6AC2 SLP175

CYHM;2011-09-23 11:00;CYHM 231100Z 06007KT 15SM SCT048 BKN059 OVC085 16/15 A3004 RMK SC3SC2AC2 SLP172

CYHM;2011-09-23 12:00;CYHM 231200Z 05013KT 8SM FEW006 BKN056 BKN078 17/16 A3003 RMK SF2SC3AC2 SLP170

CYHM;2011-09-23 13:00;CYHM 231300Z 04013KT 15SM FEW008 BKN029 OVC038 17/15 A3002 RMK CF2SC3SC2 SLP166

CYHM;2011-09-23 14:00;CYHM 231400Z 04015G22KT 15SM FEW011 SCT120 BKN170 OVC210 18/15 A2999 RMK SC2AC2AC3CI1 SLP157

CYHM;2011-09-23 15:03;CYHM 231503Z 05011KT 10SM -SHRA BKN014 OVC036 RMK SC6SC2

CYHM;2011-09-23 15:23;CYHM 231523Z 04010KT 3SM -SHRA BR OVC014 RMK SC8

CYHM;2011-09-23 16:00;CYHM 231600Z 04010KT 2 1/2SM -SHRA BR BKN006 OVC016 16/16 A2997 RMK SF6SC2 SLP149

CYHM;2011-09-23 16:32;CYHM 231632Z 03011KT 2 1/2SM -SHRA BR BKN003 OVC014 RMK SF6SC2

CYHM;2011-09-23 16:39;CYHM 231639Z 03010KT 1 1/2SM -SHRA BR OVC002 RMK FG2SF6 CIG 150 FT VIS VRBL 1-2SM

CYHM;2011-09-23 17:00;CYHM 231700Z 04010KT 2SM -SHRA BR OVC003 16/16 A2995 RMK FG1SF7 CIG 250 FT SLP143

CYHM;2011-09-23 18:00;CYHM 231800Z 04010KT 1 1/2SM -SHRA BR BKN003 OVC011 16/16 A2993 RMK FG1SF6SC1 SLP136

CYHM;2011-09-23 18:06;CYHM 231806Z 05010KT 3/4SM -SHRA BR OVC002 RMK FG3SF5 VIS VRB 1/2 - 1

CYHM;2011-09-23 18:19;CYHM 231819Z 05011KT 1 1/2SM -SHRA BR OVC002 RMK FG2SF6 VIS VRB 1 - 2

CYHM;2011-09-23 19:00;CYHM 231900Z 04009G15KT 1 1/2SM -SHRA BR OVC002 17/16 A2990 RMK FG2SF6 VIS VRB 1 - 2 SLP126

CYHM;2011-09-23 19:21;CYHM 231921Z 05010KT 1SM -SHRA BR OVC002 RMK FG2SF6 VIS VRB 3/4 - 11/4

CYHM;2011-09-23 20:00;CYHM 232000Z 04008KT 1/2SM -RA FG VV002 17/17 A2988 RMK FG8 SLP120

CYHM;2011-09-23 20:09;CYHM 232009Z 03010KT 3/4SM -RA BR OVC003 RMK FG3SF5 VIS VRB 1/2 - 1

CYHM;2011-09-23 20:42;CYHM 232042Z 32004KT 1 1/2SM -RA BR OVC002 RERA RMK FG2SF6 VIS VRB 1 - 2

CYHM;2011-09-23 21:00;CYHM 232100Z 34003KT 1 1/2SM -RA BR OVC003 17/17 A2987 RERA RMK FG2SF6 VIS VRB 1 - 2 SLP114

CYHM;2011-09-23 21:27;CYHM 232127Z 01004KT 2SM -RA BR OVC008 RERA RMK FG1SC7

CYHM;2011-09-23 22:00;CYHM 232200Z 05004KT 2SM -RA BR FEW010 BKN025 OVC150 18/17 A2985 RERA RMK FG1CF2SC3AC2 SLP110

CYHM;2011-09-23 22:16;CYHM 232216Z 34002KT 2SM -RA BR FEW002 BKN006 OVC012 RERA RMK FG1SF1SF5SC2

CYHM;2011-09-23 23:00;CYHM 232300Z 25006KT 1/2SM -RA FG OVC002 17/17 A2987 RMK FG4SF4 SLP115

CYHM;2011-09-23 23:31;CYHM 232331Z 23010KT 1SM -RA BR OVC002 RMK FG2SF6 VIS VRB 3/4 - 11/4

CYHM;2011-09-23 23:45;CYHM 232345Z 23008KT 2SM -RA BR OVC002 RMK FG1SF7

CYHM;2011-09-24 00:00;CYHM 240000Z 23007KT 1 1/2SM -RA BR OVC003 15/15 A2989 RMK FG2SF6 VIS VRB 1 - 2 SLP122

CYHM;2011-09-24 01:00;CYHM 240100Z 24009KT 5SM -RA BR OVC004 14/14 A2990 RMK SF8 CIG RAG SLP126

CYHM;2011-09-24 02:00;CYHM 240200Z 24009KT 6SM BR OVC003 14/14 A2993 RMK SF8 SLP134

CYHM;2011-09-24 02:44;CYHM 240244Z 25011KT 6SM BR OVC005 RMK SF8

CYHM;2011-09-24 03:00;CYHM 240300Z 25013G18KT 6SM BR OVC005 13/13 A2994 RMK SF8 CIG RAG SLP141

CYHM;2011-09-24 04:00;CYHM 240400Z 26012G18KT 10SM BKN009 13/13 A2997 RMK SC7 SLP149

CYHM;2011-09-24 04:42;CYHM 240442Z 26009KT 15SM FEW008 FEW140 RMK CF1AC1

CYHM;2011-09-24 05:00;CYHM 240500Z 25009KT 15SM FEW010 FEW140 12/12 A2997 RMK SC1AC2 SLP148

CYHM;2011-09-24 06:00;CYHM 240600Z 26005KT 15SM FEW015 SCT140 12/12 A2997 RMK SC1AC2 SLP151

CYHM;2011-09-24 06:18;CYHM 240618Z 24009KT 15SM SCT005 BKN120 RMK CF3AC1

CYHM;2011-09-24 06:30;CYHM 240630Z 25007KT 7SM BKN004 RMK SF6

CYHM;2011-09-24 06:45;CYHM 240645Z 26007KT 2 1/2SM BR OVC003 RMK SF8

CYHM;2011-09-24 07:00;CYHM 240700Z 26007KT 2SM BR OVC002 12/12 A2999 RMK FG1SF7 SLP157

CYHM;2011-09-24 07:47;CYHM 240747Z 26006KT 5SM BR OVC004 RMK SF8

CYHM;2011-09-24 08:00;CYHM 240800Z 25008KT 6SM BR OVC003 12/12 A3000 RMK SF8 SLP160

CYHM;2011-09-24 09:00;CYHM 240900Z 24005KT 6SM BR OVC006 13/12 A3002 RMK SF8 SLP167

CYHM;2011-09-24 10:00;CYHM 241000Z 26005KT 6SM BR BKN004 BKN240 12/12 A3004 RMK SF6CI1 SLP172

CYHM;2011-09-24 10:23;CYHM 241023Z 26004KT 8SM FEW004 SCT240 RMK SF1CI2

CYHM;2011-09-24 11:00;CYHM 241100Z 28005KT 4SM BR BKN240 11/11 A3005 RMK CI5 SLP176

CYHM;2011-09-24 12:00;CYHM 241200Z 00000KT 4SM BR FEW120 BKN240 11/11 A3006 RMK AC1CI5 SLP183

CYHM;2011-09-24 12:48;CYHM 241248Z 26006KT 5SM BR BKN004 BKN240 RMK SF6CI2

CYHM;2011-09-24 13:00;CYHM 241300Z 28006KT 5SM BR BKN005 OVC240 12/12 A3008 RMK SF7CI1 SLP188

CYHM;2011-09-24 14:00;CYHM 241400Z 23003KT 6SM BR BKN005 BKN240 13/12 A3010 RMK SC6CI1 SLP195

CYHM;2011-09-24 14:38;CYHM 241438Z 19004KT 8SM BKN007 RMK SC6

CYHM;2011-09-24 15:00;CYHM 241500Z 22004KT 12SM FEW008 SCT120 14/12 A3011 RMK SC2AC1 SLP198

CYHM;2011-09-24 16:00;CYHM 241600Z 24006KT 15SM FEW015 FEW150 17/13 A3010 RMK SC1AC1 AC TR SLP196

CYHM;2011-09-24 17:00;CYHM 241700Z 20006KT 15SM FEW025 FEW150 19/12 A3010 RMK CU1AC1 SLP195

CYHM;2011-09-24 18:00;CYHM 241800Z 22005KT 15SM BKN029 BKN150 19/13 A3009 RMK CU5AC1 SLP189

CYHM;2011-09-24 19:00;CYHM 241900Z 18007KT 15SM BKN032 BKN048 BKN100 20/13 A3008 RMK CU6SC2AC1 AC TR SLP186

CYHM;2011-09-24 20:00;CYHM 242000Z 15005KT 15SM SCT032 BKN045 BKN068 20/14 A3007 RMK CU3SC2AC2 SLP185

CYHM;2011-09-24 21:00;CYHM 242100Z 21007KT 15SM FEW032 SCT070 20/13 A3007 RMK CU2AC2 SLP184

CYHM;2011-09-24 22:00;CYHM 242200Z 20006KT 15SM FEW030 FEW080 FEW200 19/13 A3008 RMK CU1AC2CC1 CC TR SLP187

CYHM;2011-09-24 23:00;CYHM 242300Z 24003KT 15SM FEW030 BKN068 18/13 A3009 RMK CU1AC5 CU TR SLP191

CYHM;2011-09-25 00:00;CYHM 250000Z 03004KT 15SM FEW068 15/13 A3009 RMK AC2 SLP193

CYHM;2011-09-25 01:00;CYHM 250100Z 05004KT 15SM BKN058 15/13 A3010 RMK SC6 SLP197

CYHM;2011-09-25 02:00;CYHM 250200Z 05004KT 15SM SCT045 BKN057 15/14 A3011 RMK SC3SC3 SLP199

CYHM;2011-09-25 03:00;CYHM 250300Z 05005KT 15SM BKN044 15/14 A3011 RMK SC6 SLP199

CYHM;2011-09-25 04:00;CYHM 250400Z 05005KT 15SM FEW045 15/13 A3012 RMK SC2 SLP200

CYHM;2011-09-25 05:00;CYHM 250500Z 04003KT 15SM FEW043 SCT051 14/12 A3011 RMK SC2SC2 SLP199

CYHM;2011-09-25 06:00;CYHM 250600Z 05006KT 15SM SCT040 SCT200 13/12 A3011 RMK SC4CI1 SLP198

CYHM;2011-09-25 06:29;CYHM 250629Z 04008KT 2 1/2SM BR SCT050 RMK SC3

CYHM;2011-09-25 07:00;CYHM 250700Z 04009KT 5SM BR MIFG FEW055 15/14 A3010 RMK SC2 SLP193

CYHM;2011-09-25 08:00;CYHM 250800Z 03009KT 5SM BR MIFG BKN057 15/14 A3010 RMK SC5 SLP193

CYHM;2011-09-25 08:44;CYHM 250844Z 04009KT 6SM BR FEW004 BKN045 RMK SF2SC4

CYHM;2011-09-25 09:00;CYHM 250900Z 04009KT 6SM BR FEW004 FEW055 14/13 A3010 RMK SF1SC2 SLP195

CYHM;2011-09-25 10:00;CYHM 251000Z 04008KT 6SM BR FEW005 SCT043 14/14 A3011 RMK SF2SC2 SLP196

CYHM;2011-09-25 11:00;CYHM 251100Z 04008KT 2 1/2SM BR FEW005 BKN042 BKN100 15/14 A3012 RMK SF2SC6AC1 SLP201

CYHM;2011-09-25 11:29;CYHM 251129Z 03009KT 4SM BR SCT042 BKN100 BKN250 RMK SC3AC2CI2

CYHM;2011-09-25 12:00;CYHM 251200Z 03009KT 4SM BR FEW045 FEW110 BKN240 15/15 A3012 RMK SC2AC1CI2 SLP202

CYHM;2011-09-25 13:00;CYHM 251300Z 04012KT 8SM FEW045 FEW110 16/15 A3012 RMK SC1AC1 SC TR SLP202

CYHM;2011-09-25 14:00;CYHM 251400Z 04009KT 15SM BKN041 BKN110 18/16 A3013 RMK SC6AC2 SLP204

CYHM;2011-09-25 15:00;CYHM 251500Z 03010KT 15SM SCT100 19/16 A3011 RMK AC3 SLP197

CYHM;2011-09-25 16:00;CYHM 251600Z 06008KT 15SM FEW045 FEW090 21/17 A3011 RMK SC1AC2 SLP196

CYHM;2011-09-25 17:00;CYHM 251700Z 04009KT 15SM FEW055 FEW090 21/17 A3009 RMK SC1AC1 SLP191

CYHM;2011-09-25 18:00;CYHM 251800Z 04011KT 15SM FEW055 FEW095 21/17 A3007 RMK CU1AC1 AC TR SLP183

CYHM;2011-09-25 19:00;CYHM 251900Z 05013KT 15SM FEW035 FEW055 FEW100 21/18 A3006 RMK CU1SC1AC1 AC TR SLP179

CYHM;2011-09-25 20:00;CYHM 252000Z 04013KT 15SM FEW035 FEW060 SCT200 20/17 A3004 RMK CU1SC2CC1 SLP173

CYHM;2011-09-25 21:00;CYHM 252100Z 05012KT 15SM FEW035 FEW060 BKN100 19/16 A3002 RMK CU1SC2AC2 SLP167

CYHM;2011-09-25 22:00;CYHM 252200Z 04012KT 15SM FEW060 BKN090 19/16 A3002 RMK SC2AC3 SLP166

CYHM;2011-09-25 23:00;CYHM 252300Z 04010KT 15SM FEW040 SCT060 BKN086 BKN250 18/16 A3001 RMK SC1SC2AC2CI1 SLP163

CYHM;2011-09-26 00:00;CYHM 260000Z 04012KT 15SM FEW060 SCT085 BKN170 BKN200 17/15 A3000 RMK SC2AC2AS2CS2 SLP160

CYHM;2011-09-26 01:00;CYHM 260100Z 04011KT 15SM FEW085 SCT180 BKN210 17/15 A2999 RMK AC2AC2CI1 SLP157

CYHM;2011-09-26 02:00;CYHM 260200Z 03010KT 15SM FEW190 SCT220 17/15 A2999 RMK AC2CI1 SLP155

CYHM;2011-09-26 03:00;CYHM 260300Z 04011KT 15SM FEW058 FEW090 BKN200 17/15 A2998 RMK SC1AC1CI2 SLP152

CYHM;2011-09-26 04:00;CYHM 260400Z 32009KT 15SM FEW090 SCT210 17/16 A2998 RMK AC1CI2 SLP151

CYHM;2011-09-26 05:00;CYHM 260500Z 04009KT 15SM FEW056 FEW090 SCT210 17/16 A2998 RMK SC1AC1CI1 SLP152

CYHM;2011-09-26 06:00;CYHM 260600Z 04008KT 15SM BKN170 BKN220 17/16 A2998 RMK AC5CI0 SLP151

CYHM;2011-09-26 07:00;CYHM 260700Z 02010KT 15SM FEW160 FEW190 SCT220 17/16 A2996 RMK AC1AC1CI1 SLP146

CYHM;2011-09-26 08:00;CYHM 260800Z 03010KT 2 1/2SM BR BKN200 17/16 A2996 RMK FG5CI1 SLP144

CYHM;2011-09-26 09:00;CYHM 260900Z 04011KT 1 1/2SM BR SKC 17/17 A2995 RMK FG7 SLP143

CYHM;2011-09-26 10:00;CYHM 261000Z 04009KT 1 1/2SM BR VV002 17/17 A2996 RMK FG8 SLP144

CYHM;2011-09-26 10:08;CYHM 261008Z 05010KT 1 1/2SM BR OVC002 RMK FG2SF6

CYHM;2011-09-26 10:51;CYHM 261051Z 04007KT 2SM BR FEW002 SCT012 BKN110 RMK FG1SF2SC2AC1

CYHM;2011-09-26 11:00;CYHM 261100Z 04007KT 1 1/2SM BR BKN002 BKN012 17/17 A2997 RMK FG2SF3SC2 VIS VRBL 1-2SM SLP147

CYHM;2011-09-26 11:10;CYHM 261110Z 05008KT 3/4SM BR OVC002 RMK FG3SF5 VIS VRBL 1/2-1 SM

CYHM;2011-09-26 11:19;CYHM 261119Z 04009KT 1/8SM FG VV001 RMK FG8

CYHM;2011-09-26 12:00;CYHM 261200Z 04008KT 2SM BR BKN002 BKN030 17/17 A2997 RMK FG2SF4SC2 SLP147

CYHM;2011-09-26 12:44;CYHM 261244Z 03008KT 4SM BR FEW004 FEW015 SCT120 BKN210 RMK SF1SC2AC2CI1 TR CU ASOCTD CONTRAILS

CYHM;2011-09-26 13:00;CYHM 261300Z 04007KT 6SM BR FEW006 FEW062 SCT120 BKN210 19/17 A2995 RMK SF1SC2AC2CI2 CU ASOCTD CONTRAILS SLP143

CYHM;2011-09-26 14:00;CYHM 261400Z 05007KT 10SM FEW016 FEW120 BKN210 20/18 A2995 RMK SC1AC1CI2 TR CU ASOCTD SLP143

CYHM;2011-09-26 15:00;CYHM 261500Z 06010KT 15SM FEW018 FEW150 SCT210 21/19 A2994 RMK SC1AC1CI1 CU TR ASOCTD SLP139

CYHM;2011-09-26 16:00;CYHM 261600Z 05008KT 15SM FEW025 SCT160 BKN210 23/19 A2994 RMK CU1AC2CI2 SLP136

CYHM;2011-09-26 17:00;CYHM 261700Z 03010KT 15SM FEW030 SCT140 BKN210 23/19 A2994 RMK CU1AC3CI2 SLP138

CYHM;2011-09-26 18:00;CYHM 261800Z 04015KT 15SM FEW030 FEW180 BKN250 23/19 A2992 RMK SC1AC1CI2 AC TR CONTRAILS SLP130

CYHM;2011-09-26 19:00;CYHM 261900Z 05013KT 15SM FEW032 BKN110 BKN250 21/18 A2988 RMK CU1AC6CI1 CU TR CONTRAILS SLP119

CYHM;2011-09-26 20:00;CYHM 262000Z 06012KT 10SM SCT100 BKN120 20/18 A2988 RMK AC3AC4 SLP116

CYHM;2011-09-26 21:00;CYHM 262100Z 04011KT 2 1/2SM BR FEW004 BKN110 19/18 A2986 RMK SF2AC5 SLP110

CYHM;2011-09-26 22:00;CYHM 262200Z 04008KT 2 1/2SM BR FEW004 BKN120 19/18 A2984 RMK SF1AC7 SF TR SLP106

CYHM;2011-09-26 23:00;CYHM 262300Z 03009KT 1 3/4SM BR FEW002 OVC120 18/18 A2984 RMK SF2AC6 SLP105

CYHM;2011-09-27 00:00;CYHM 270000Z 03010KT 2 1/2SM BR FEW002 OVC120 18/18 A2983 RMK SF2AC6 SLP102

CYHM;2011-09-27 01:00;CYHM 270100Z 03007KT 8SM FEW002 BKN120 OVC180 19/18 A2986 RMK SF1AC6AC2 SLP112

CYHM;2011-09-27 02:00;CYHM 270200Z 29004KT 2SM -SHRA BR FEW002 BKN120 OVC150 18/18 A2987 RMK SF1AC6AC2 SLP113

CYHM;2011-09-27 03:00;CYHM 270300Z 33005KT 2 1/2SM BR FEW036 SCT120 BKN220 18/18 A2986 RMK SC1AC2CI2 SLP109

CYHM;2011-09-27 04:00;CYHM 270400Z 03007KT 2 1/2SM BR FEW002 SCT120 BKN180 18/18 A2984 RMK SF1AC2AC2 SLP102

CYHM;2011-09-27 05:00;CYHM 270500Z 04005KT 2 1/2SM BR FEW036 SCT100 OVC120 18/18 A2985 RMK SC1AC3AC4 SLP107

CYHM;2011-09-27 06:00;CYHM 270600Z 01003KT 2 1/2SM BR FEW034 BKN043 OVC110 19/18 A2987 RMK SF1SC6AC2 SLP112

CYHM;2011-09-27 07:00;CYHM 270700Z 29003KT 2 1/2SM -SHRA BR FEW038 BKN100 OVC120 18/18 A2985 RMK SC1AC6AC2 SLP106

CYHM;2011-09-27 08:00;CYHM 270800Z 04007KT 2SM -SHRA BR FEW042 OVC110 18/18 A2981 RMK SC2AC6 SLP095

CYHM;2011-09-27 08:39;CYHM 270839Z 09004KT 1 1/2SM -SHRA BR FEW002 FEW024 OVC098 RMK SF1SC1AC6

CYHM;2011-09-27 09:00;CYHM 270900Z 07005KT 1 1/2SM -SHRA BR FEW002 FEW024 OVC110 18/18 A2983 RMK SF1SC1AC6 SLP101

CYHM;2011-09-27 09:10;CYHM 270910Z 07005KT 2 1/2SM -SHRA BR BKN002 BKN024 OVC110 RMK SF5SC2AC1

CYHM;2011-09-27 09:35;CYHM 270935Z 06004KT 2 1/2SM -SHRA BR FEW002 BKN024 OVC096 RMK SF2SC4AC2

CYHM;2011-09-27 10:00;CYHM 271000Z 12003KT 2SM BR FEW007 BKN023 OVC085 18/18 A2985 RMK SF2SC3AC2 SLP108

CYHM;2011-09-27 10:15;CYHM 271015Z 12003KT 3SM BR BKN006 BKN024 OVC110 RMK SF5SC2AC2

CYHM;2011-09-27 11:00;CYHM 271100Z 22007KT 2SM BR BKN002 OVC025 18/18 A2985 RMK SF6SC2 SLP108

CYHM;2011-09-27 11:07;CYHM 271107Z 20006KT 1 1/2SM BR OVC002 RMK FG2SF6 VIS VRBL 1-2 SM CIG RGD

CYHM;2011-09-27 11:19;CYHM 271119Z 21004KT 3/4SM BR OVC002 RMK FG3SF5 CIG RGD

CYHM;2011-09-27 11:47;CYHM 271147Z 22006KT 1 1/2SM BR BKN002 OVC008 RMK FG2SF5SC2

CYHM;2011-09-27 11:51;CYHM 271151Z 23006KT 1 1/2SM -DZ BR OVC003 RMK FG2SF6

CYHM;2011-09-27 12:00;CYHM 271200Z 23007KT 2SM -DZ BR BKN004 OVC009 18/18 A2987 RMK SF6SC2 SLP115

CYHM;2011-09-27 12:15;CYHM 271215Z 24006KT 3SM BR BKN005 OVC014 RMK SF6SC2

CYHM;2011-09-27 13:00;CYHM 271300Z 24007KT 10SM FEW007 BKN015 OVC046 18/17 A2987 RMK SF2SC4SC2 SLP115

CYHM;2011-09-27 14:00;CYHM 271400Z 24008KT 15SM FEW006 BKN057 BKN075 18/17 A2988 RMK SF2SC5AC1 SLP118

CYHM;2011-09-27 15:00;CYHM 271500Z 24007KT 15SM FEW018 BKN030 BKN057 19/17 A2989 RMK CU2SC3SC2 SLP120

CYHM;2011-09-27 16:00;CYHM 271600Z 22003KT 15SM SCT026 BKN034 BKN100 20/16 A2990 RMK CU3SC2AC1 SLP124

CYHM;2011-09-27 17:00;CYHM 271700Z 22003KT 15SM FEW030 BKN041 BKN060 20/15 A2990 RMK CU2SC3SC2 SLP124

CYHM;2011-09-27 18:00;CYHM 271800Z 17008KT 15SM FEW028 BKN038 21/16 A2990 RMK CU2SC2 SLP122

CYHM;2011-09-27 19:00;CYHM 271900Z 19009KT 15SM FEW030 SCT045 SCT150 SCT220 22/14 A2987 RMK CU2SC2AC1CI1 CI TR SLP114

CYHM;2011-09-27 20:00;CYHM 272000Z 19006KT 15SM FEW030 SCT046 SCT150 23/14 A2986 RMK CU1SC2AC1 SLP111

CYHM;2011-09-27 21:00;CYHM 272100Z 20005KT 15SM FEW030 FEW045 FEW150 22/12 A2985 RMK CU1SC2AC1 CU TR SLP108

CYHM;2011-09-27 22:00;CYHM 272200Z 20007KT 15SM FEW030 FEW045 FEW150 21/13 A2986 RMK CU1SC2AC1 CU TR AC TR SLP111

CYHM;2011-09-27 23:00;CYHM 272300Z 19005KT 15SM FEW050 FEW150 19/11 A2987 RMK SC2AC1 AC TR SLP113

CYHM;2011-09-28 00:00;CYHM 280000Z 19004KT 15SM FEW050 17/11 A2989 RMK SC2 SLP121

CYHM;2011-09-28 01:00;CYHM 280100Z 20004KT 15SM FEW050 16/11 A2991 RMK SC2 SLP127

CYHM;2011-09-28 02:00;CYHM 280200Z 25005KT 15SM FEW040 15/11 A2991 RMK SC1 SLP127

CYHM;2011-09-28 03:00;CYHM 280300Z 30004KT 15SM FEW040 14/11 A2991 RMK SC1 SLP127

CYHM;2011-09-28 04:00;CYHM 280400Z 33003KT 15SM FEW120 13/11 A2988 RMK AC2 SLP120

CYHM;2011-09-28 05:00;CYHM 280500Z 00000KT 15SM FEW031 BKN094 BKN140 14/11 A2988 RMK SC1AC5AC2 SLP119

CYHM;2011-09-28 05:52;CYHM 280552Z 32002KT 15SM -SHRA SCT032 BKN088 BKN110 RMK SC3AC2AC2

CYHM;2011-09-28 06:00;CYHM 280600Z CCA 00000KT 15SM -SHRA FEW032 BKN086 BKN100 14/12 A2988 RMK SC2AC2AC2 SLP119

CYHM;2011-09-28 07:00;CYHM 280700Z 03003KT 15SM -SHRA FEW028 BKN084 BKN110 14/12 A2986 RMK SC1AC5AC2 PCPN VRY LGT SLP112

CYHM;2011-09-28 08:00;CYHM 280800Z 01004KT 15SM -SHRA FEW034 OVC081 14/12 A2986 RMK SC2AC6 SLP112

CYHM;2011-09-28 08:50;CYHM 280850Z 05007KT 15SM BKN088 RMK AC7

CYHM;2011-09-28 09:00;CYHM 280900Z 05005KT 15SM BKN088 14/13 A2986 RMK AC6 SLP112

CYHM;2011-09-28 10:00;CYHM 281000Z 08003KT 15SM SCT095 13/13 A2987 RMK AC4 SLP113

CYHM;2011-09-28 10:38;CYHM 281038Z 22002KT 1 1/2SM BR SCT100 RMK FG2AC2

CYHM;2011-09-28 10:45;CYHM 281045Z 21002KT 1/8SM FG FEW090 SCT210 RMK FG1AC2CI0 CI TR

CYHM;2011-09-28 11:00;CYHM 281100Z 13002KT 1/8SM FG SCT100 12/12 A2988 RMK FG2AC1 SLP118

CYHM;2011-09-28 11:44;CYHM 281144Z 07002KT 1/2SM FG FEW100 RMK FG1AC2

CYHM;2011-09-28 12:00;CYHM 281200Z 27002KT 10SM MIFG FEW045 FEW100 12/12 A2989 RMK SC1AC1 SLP124

CYHM;2011-09-28 13:00;CYHM 281300Z 09006KT 15SM FEW025 BKN110 15/14 A2989 RMK CU1AC6 CU TR SLP124

CYHM;2011-09-28 14:00;CYHM 281400Z 14006KT 15SM SCT110 BKN180 18/15 A2990 RMK AC3AC2 SLP125

CYHM;2011-09-28 15:00;CYHM 281500Z 14008KT 15SM FEW025 BKN110 19/16 A2989 RMK CU2AC4 SLP121

CYHM;2011-09-28 16:00;CYHM 281600Z 27004KT 15SM FEW030 SCT120 BKN210 20/16 A2988 RMK CU2AC1CI1 SLP117

CYHM;2011-09-28 17:00;CYHM 281700Z 14005KT 15SM FEW022 SCT120 BKN210 22/14 A2985 RMK CU2AC2CI1 SLP110

CYHM;2011-09-28 18:00;CYHM 281800Z 18005KT 15SM FEW032 SCT098 SCT160 BKN210 22/13 A2984 RMK CU2AC2AC1CI1 SLP105

CYHM;2011-09-28 19:00;CYHM 281900Z 17006KT 15SM -SHRA FEW033 BKN082 21/14 A2982 RMK CU2AC6 SLP099

CYHM;2011-09-28 20:00;CYHM 282000Z 15006KT 15SM FEW033 OVC065 20/14 A2982 RMK CU1SC7 SLP099

CYHM;2011-09-28 21:00;CYHM 282100Z 11007KT 15SM FEW040 BKN094 20/12 A2981 RMK CU1AC6 SLP094

CYHM;2011-09-28 22:00;CYHM 282200Z 06006KT 15SM FEW040 FEW090 FEW130 18/16 A2980 RMK CU1AC2AC1 SLP092

CYHM;2011-09-28 23:00;CYHM 282300Z 04004KT 10SM FEW035 SCT090 BKN160 18/16 A2981 RMK CU1AC4AC1 TR CU SLP094

CYHM;2011-09-28 23:54;CYHM 282354Z 24007KT 8SM -SHRA FEW008 OVC038 RMK CF2SC6

CYHM;2011-09-29 00:00;CYHM 290000Z 24012G23KT 2SM +SHRA SCT004 OVC016 16/15 A2983 RMK RA1SF2SC5 TCU EMBDD PRESRR SLP103

CYHM;2011-09-29 00:12;CYHM 290012Z 26005KT 5SM -SHRA FEW006 OVC060 RERA RMK CF2SC6 PRESRR

CYHM;2011-09-29 01:00;CYHM 290100Z 33002KT 15SM FEW010 OVC060 15/15 A2981 RERA RMK SC1SC7 MAMMA SLP098

CYHM;2011-09-29 02:00;CYHM 290200Z 24004KT 10SM MIFG FEW050 SCT070 15/15 A2982 RMK SC2AC2 SLP099

CYHM;2011-09-29 02:35;CYHM 290235Z 27004KT 1/2SM FG BKN006 RMK FG3SF1

CYHM;2011-09-29 02:53;CYHM 290253Z 27003KT 1/4SM FG BKN005 RMK FG4SF1

CYHM;2011-09-29 03:00;CYHM 290300Z 29002KT 1/8SM FG SKC 13/13 A2981 RMK FG5 SLP096

CYHM;2011-09-29 03:48;CYHM 290348Z 32002KT 1/2SM FG SKC RMK FG4

CYHM;2011-09-29 04:00;CYHM 290400Z 29002KT 1/2SM FG SKC 12/12 A2981 RMK FG4 SLP093

CYHM;2011-09-29 04:13;CYHM 290413Z 27003KT 1SM BR SCT057 RMK FG2SC1 VIS VRB 3/4 - 11/4 VIS HIER NE

CYHM;2011-09-29 04:51;CYHM 290451Z 27004KT 6SM BR MIFG FEW057 SCT075 RMK SC1AC2 VIS HIER NE

CYHM;2011-09-29 05:00;CYHM 290500Z 26003KT 12SM MIFG FEW075 SCT230 12/12 A2979 RMK AC1CI2 SLP088

CYHM;2011-09-29 06:00;CYHM 290600Z 26005KT 12SM MIFG BKN100 13/13 A2978 RMK AC6 VIS LWR SE SLP085

CYHM;2011-09-29 07:00;CYHM 290700Z 27003KT 15SM MIFG FEW110 12/12 A2976 RMK AC2 SLP077

CYHM;2011-09-29 08:00;CYHM 290800Z 26004KT 15SM MIFG BKN065 BKN200 12/12 A2975 RMK SC6CI2 SLP074

CYHM;2011-09-29 09:00;CYHM 290900Z 21004KT 15SM MIFG FEW063 OVC098 12/12 A2974 RMK SC2AC6 SLP072

CYHM;2011-09-29 10:00;CYHM 291000Z 24004KT 15SM MIFG FEW055 OVC083 13/13 A2974 RMK SC2AC6 SLP070

CYHM;2011-09-29 10:45;CYHM 291045Z 25003KT 10SM -SHRA SCT045 BKN068 OVC080 RMK SC4AC2AC2

CYHM;2011-09-29 11:00;CYHM 291100Z 20003KT 8SM -SHRA SCT045 BKN073 OVC087 13/12 A2973 RMK SC3AC3AC2 SLP069

CYHM;2011-09-29 11:36;CYHM 291136Z 21003KT 5SM BR FEW050 BKN074 BKN085 RMK SC2AC3AC2

CYHM;2011-09-29 12:00;CYHM 291200Z 18004KT 5SM BR BKN026 BKN054 OVC078 13/12 A2973 RMK SC5SC2AC1 SLP070

CYHM;2011-09-29 13:00;CYHM 291300Z 15005KT 10SM SCT035 BKN048 13/13 A2973 RMK SC3SC4 SLP069

CYHM;2011-09-29 14:00;CYHM 291400Z 16006KT 10SM SCT042 BKN110 BKN210 14/14 A2972 RMK SC3AC3CI1 SLP065

CYHM;2011-09-29 15:00;CYHM 291500Z 21008KT 10SM FEW048 BKN070 BKN110 15/14 A2969 RMK SC2AC3AC2 CU ASOCTD SLP055

CYHM;2011-09-29 15:17;CYHM 291517Z 20005KT 10SM -SHRA FEW017 BKN058 OVC076 RMK SC2SC5AC2

CYHM;2011-09-29 16:00;CYHM 291600Z 17007KT 15SM FEW016 SCT024 BKN094 15/14 A2968 RMK CU2SC2AC4 SLP052

CYHM;2011-09-29 16:27;CYHM 291627Z 23011KT 15SM -SHRA FEW016 SCT045 BKN084 RMK CU2SC2AC3

CYHM;2011-09-29 16:45;CYHM 291645Z 22007G15KT 15SM FEW018 SCT043 BKN078 BKN210 RMK CU2SC2AC1CI1 T CU ASOCTD

CYHM;2011-09-29 17:00;CYHM 291700Z 21006KT 15SM FEW020 FEW048 SCT098 BKN220 17/13 A2966 RMK CU2SC1AC1CI1 SLP045

CYHM;2011-09-29 18:00;CYHM 291800Z 20008KT 15SM FEW022 FEW042 SCT085 BKN240 17/12 A2964 RMK CU2SC1AC2CI1 SLP036

CYHM;2011-09-29 19:00;CYHM 291900Z 18009KT 15SM BKN026 BKN079 18/13 A2962 RMK CU5AC1 SLP030

CYHM;2011-09-29 20:00;CYHM 292000Z 21010KT 15SM VCSH FEW024 BKN077 16/13 A2960 RMK CU2AC6 SLP024

CYHM;2011-09-29 21:00;CYHM 292100Z 25008KT 15SM FEW024 FEW075 BKN250 17/13 A2958 RMK CU1AC2CI1 SLP016

CYHM;2011-09-29 22:00;CYHM 292200Z 26010KT 15SM FEW026 FEW040 BKN250 16/12 A2958 RMK CU1SC2CI2 SLP017

CYHM;2011-09-29 23:00;CYHM 292300Z 21009KT 15SM FEW029 BKN048 BKN240 15/12 A2958 RMK CU2SC2CI2 SLP018

CYHM;2011-09-30 00:00;CYHM 300000Z 21008KT 15SM FEW046 FEW080 BKN230 14/12 A2958 RMK SC2AC1CI5 SLP018

CYHM;2011-09-30 01:00;CYHM 300100Z 20007KT 15SM FEW080 BKN180 BKN240 14/12 A2957 RMK AC2AC3CI2 SLP015

CYHM;2011-09-30 02:00;CYHM 300200Z 22012KT 15SM FEW052 OVC086 14/13 A2955 RMK SC2AC6 SLP010

CYHM;2011-09-30 03:00;CYHM 300300Z 21006KT 15SM FEW050 BKN072 14/13 A2954 RMK SC2AC6 SLP003

CYHM;2011-09-30 03:50;CYHM 300350Z 18007KT 15SM -SHRA FEW021 BKN042 OVC070 RMK SC2SC4AC2

CYHM;2011-09-30 04:00;CYHM 300400Z 19007KT 9SM -SHRA FEW021 BKN042 OVC074 14/13 A2951 RMK SC2SC4AC2 SLP995

CYHM;2011-09-30 05:00;CYHM 300500Z 14005KT 7SM -SHRA FEW025 OVC054 14/14 A2947 RMK SC2SC6 SLP980

CYHM;2011-09-30 06:00;CYHM 300600Z 22007KT 15SM -SHRA FEW028 OVC068 13/12 A2949 RMK SC2AC6 SLP987

CYHM;2011-09-30 06:42;CYHM 300642Z 22008KT 15SM FEW008 BKN019 BKN120 RMK CF1SC6AC1

CYHM;2011-09-30 07:00;CYHM 300700Z 22007KT 15SM BKN015 BKN031 12/12 A2951 RMK SC6SC2 SLP992

CYHM;2011-09-30 08:00;CYHM 300800Z 21006KT 15SM FEW027 10/10 A2950 RMK SC1 SLP990

CYHM;2011-09-30 09:00;CYHM 300900Z 22007KT 15SM FEW180 10/10 A2951 RMK AC2 SLP994

CYHM;2011-09-30 10:00;CYHM 301000Z 28007KT 15SM BKN110 12/11 A2950 RMK AC7 SLP991

CYHM;2011-09-30 11:00;CYHM 301100Z 21008KT 15SM FEW060 BKN130 BKN170 11/10 A2952 RMK SC1AC5AC2 SLP999

CYHM;2011-09-30 11:39;CYHM 301139Z 22004KT 15SM -SHRA BKN068 OVC085 RMK AC6AC2

CYHM;2011-09-30 12:00;CYHM 301200Z 20005KT 10SM -SHRA FEW062 BKN073 BKN130 11/10 A2952 RMK SC1AC4AC2 SLP000

CYHM;2011-09-30 12:06;CYHM 301206Z 19005KT 10SM BKN074 BKN130 RMK AC5AC2

CYHM;2011-09-30 13:00;CYHM 301300Z 21006KT 15SM FEW060 BKN110 11/11 A2954 RMK SC2AC6 SLP004

CYHM;2011-09-30 14:00;CYHM 301400Z 20007KT 15SM FEW015 FEW060 BKN071 BKN080 12/12 A2954 RMK CF1SC2AC4AC1 SLP004

CYHM;2011-09-30 15:00;CYHM 301500Z 20005KT 15SM FEW012 SCT055 BKN069 13/12 A2953 RMK CF2SC2AC4 SLP002

CYHM;2011-09-30 16:00;CYHM 301600Z 21007KT 15SM FEW018 BKN024 BKN110 BKN180 14/12 A2954 RMK CU2SC2AC2AC1 SLP004

CYHM;2011-09-30 17:00;CYHM 301700Z 22010KT 15SM FEW020 SCT045 BKN069 14/12 A2954 RMK CU2SC2AC3 SLP005

CYHM;2011-09-30 18:00;CYHM 301800Z 18010G15KT 15SM SCT015 BKN032 BKN120 16/13 A2953 RMK CU3SC2AC2 SLP001

CYHM;2011-09-30 19:00;CYHM 301900Z 19007KT 15SM FEW023 BKN047 BKN100 15/11 A2953 RMK CU2SC5AC1 TCU ASOCTD SLP001

CYHM;2011-09-30 20:00;CYHM 302000Z 19009KT 15SM FEW022TCU BKN070 BKN090 15/12 A2954 RMK TCU2AC4AC1 SLP003

CYHM;2011-09-30 21:00;CYHM 302100Z 24010KT 15SM FEW017TCU SCT060 BKN110 15/12 A2955 RMK TCU2SC2AC2 SLP008

CYHM;2011-09-30 22:00;CYHM 302200Z 23007KT 15SM SCT018TCU BKN026 BKN100 15/12 A2956 RMK TCU3SC2AC2 SLP013

CYHM;2011-09-30 23:00;CYHM 302300Z 28003KT 15SM SCT025 BKN096 13/11 A2959 RMK SC3AC3 TCU ASOCTD SLP020

CYHM;2011-10-01 01:00;CYHM 010100Z 01016KT 10SM -SHRA OVC011 10/08 A2966 RMK SC8 TCU EMBDD PRESRR SLP047

CYHM;2011-10-01 01:42;CYHM 010142Z 36014KT 10SM -SHRA OVC009 RMK SC8 TCU EMBDD PRESRR

CYHM;2011-10-01 02:00;CYHM 010200Z 02012G22KT 10SM -SHRA OVC008 09/08 A2971 RMK SC8 FEW TCU SLP061

CYHM;2011-10-01 02:20;CYHM 010220Z 01014G21KT 8SM -SHRA FEW007 OVC013 RMK SF2SC6 FEW TCU

CYHM;2011-10-01 03:00;CYHM 010300Z 02015G22KT 12SM -SHRA FEW008 OVC011 08/08 A2972 RMK SF2SC6 SLP069

CYHM;2011-10-01 04:00;CYHM 010400Z 02016G26KT 15SM -SHRA OVC012 08/07 A2974 RMK SC8 SLP074

CYHM;2011-10-01 05:00;CYHM 010500Z 02018G25KT 7SM -SHRA OVC014 08/07 A2976 RMK SC8 PRESRR SLP082

CYHM;2011-10-01 06:00;CYHM 010600Z 02021G27KT 10SM -SHRA OVC017 08/06 A2978 RMK SC8 SLP088

CYHM;2011-10-01 07:00;CYHM 010700Z 02020G28KT 6SM -SHRA OVC018 08/06 A2981 RMK SC8 SLP096

CYHM;2011-10-01 08:00;CYHM 010800Z 02016G25KT 8SM -SHRA OVC020 07/05 A2984 RMK SC8 MAMMA PRESRR SLP106

CYHM;2011-10-01 09:00;CYHM 010900Z 02015G21KT 15SM -SHRA OVC019 08/05 A2986 RMK SC8 SLP114

CYHM;2011-10-01 10:00;CYHM 011000Z 01015G22KT 15SM -SHRA BKN019 OVC083 07/05 A2988 RMK SC7AC1 SLP122

CYHM;2011-10-01 11:00;CYHM 011100Z 01018G24KT 6SM -SHRA BR BKN013 OVC028 06/05 A2991 RMK SC6SC2 SLP132

CYHM;2011-10-01 12:00;CYHM 011200Z 01018G27KT 3SM -SHRA BR BKN013 OVC023 06/04 A2995 RMK CF6SC2 SLP147

CYHM;2011-10-01 12:24;CYHM 011224Z 01021G29KT 15SM FEW014 BKN023 BKN031 RMK CF2SC4SC1

CYHM;2011-10-01 13:00;CYHM 011300Z 36022G29KT 15SM FEW015 FEW025 BKN087 06/03 A2995 RMK CF1SC2AC3 SLP147

CYHM;2011-10-01 14:00;CYHM 011400Z 02020G30KT 15SM FEW018 BKN031 BKN065 07/03 A2998 RMK CF1SC5SC2 SLP157

CYHM;2011-10-01 15:00;CYHM 011500Z 01020G27KT 15SM BKN020 OVC038 06/02 A3001 RMK SC6SC2 SLP166

CYHM;2011-10-01 16:00;CYHM 011600Z 01013G20KT 15SM BKN024 BKN075 07/03 A3002 RMK SC6AC2 SLP170

CYHM;2011-10-01 17:00;CYHM 011700Z 02020G25KT 15SM BKN027 08/03 A3002 RMK SC7 SLP170

CYHM;2011-10-01 18:00;CYHM 011800Z 03015KT 15SM FEW032 FEW250 10/03 A3000 RMK SC2CI1 SLP163

CYHM;2011-10-01 19:00;CYHM 011900Z 01015G21KT 15SM FEW034 FEW250 11/02 A3001 RMK SC2CI1 CI TR SLP165

CYHM;2011-10-01 20:00;CYHM 012000Z 36013G19KT 15SM FEW034 11/02 A3002 RMK SC2 SLP169

CYHM;2011-10-01 21:00;CYHM 012100Z 01014G19KT 15SM FEW034 10/01 A3002 RMK SC2 SLP171

CYHM;2011-10-01 22:00;CYHM 012200Z 35012G19KT 15SM FEW034 09/00 A3003 RMK SC2 SLP174

CYHM;2011-10-01 23:00;CYHM 012300Z 35012G17KT 15SM FEW034 08/00 A3005 RMK SC2 SLP181

CYHM;2011-10-02 00:00;CYHM 020000Z 34009KT 15SM FEW034 07/00 A3006 RMK SC2 SLP185

CYHM;2011-10-02 01:00;CYHM 020100Z 34009KT 15SM FEW034 06/00 A3007 RMK SC2 SLP188

CYHM;2011-10-02 02:00;CYHM 020200Z 36009KT 15SM FEW030 06/M00 A3007 RMK SC2 SLP188

CYHM;2011-10-02 03:00;CYHM 020300Z 01011KT 15SM FEW030 FEW200 06/M01 A3007 RMK SC1CI1 TR CI SLP190

CYHM;2011-10-02 04:00;CYHM 020400Z 36009KT 15SM FEW030 FEW200 05/M01 A3006 RMK SC1CI1 TR CI SLP187

CYHM;2011-10-02 05:00;CYHM 020500Z 36010G17KT 15SM FEW030 05/M01 A3005 RMK SC1 SLP183

CYHM;2011-10-02 06:00;CYHM 020600Z 02012G20KT 15SM FEW030 FEW200 05/M01 A3004 RMK SC1CI1 SLP178

CYHM;2011-10-02 07:00;CYHM 020700Z 36010G15KT 15SM FEW030 FEW140 BKN180 04/M01 A3003 RMK SC1AC2AC2 SLP173

CYHM;2011-10-02 08:00;CYHM 020800Z 36010KT 15SM FEW030 FEW100 BKN180 04/M01 A3001 RMK SC1AC1AC5 SLP168

CYHM;2011-10-02 09:00;CYHM 020900Z 35011KT 15SM BKN097 BKN190 04/M00 A3001 RMK AC5AC2 SLP168

CYHM;2011-10-02 09:47;CYHM 020947Z 36011KT 15SM -SHRA BKN036 BKN059 BKN140 RMK SC5SC1AC1

CYHM;2011-10-02 10:00;CYHM 021000Z 36009G18KT 15SM -SHRA OVC023 04/01 A3001 RMK SC8 SLP169

CYHM;2011-10-02 11:00;CYHM 021100Z 35015KT 15SM BKN024 BKN120 04/00 A3000 RMK SC6AC2 SLP163

CYHM;2011-10-02 11:11;CYHM 021111Z 36013KT 15SM -SHRA SCT026 BKN110 RMK SC4AC3

CYHM;2011-10-02 11:43;CYHM 021143Z 36011G17KT 15SM FEW030 BKN098 RMK SC1AC6

CYHM;2011-10-02 12:00;CYHM 021200Z 36011G16KT 15SM FEW030 BKN095 04/01 A2999 RMK SC1AC6 SLP162

CYHM;2011-10-02 13:00;CYHM 021300Z 36014G19KT 15SM BKN049 OVC100 04/02 A2998 RMK SC7AC1 SLP158

CYHM;2011-10-02 13:27;CYHM 021327Z 35013KT 15SM -SHRA SCT021 OVC048 RMK SC3SC5

CYHM;2011-10-02 14:00;CYHM 021400Z 36010G16KT 15SM -SHRA OVC023 05/02 A2998 RMK SC8 PCPN VRY LGT SLP159

CYHM;2011-10-02 14:41;CYHM 021441Z 35013G18KT 15SM OVC024 RMK SC8

CYHM;2011-10-02 15:00;CYHM 021500Z 36011KT 15SM OVC024 06/02 A2997 RMK SC8 SLP156

CYHM;2011-10-02 15:26;CYHM 021526Z 01012KT 15SM -SHRA OVC025 RMK SC8

CYHM;2011-10-02 16:00;CYHM 021600Z 01013G18KT 8SM -SHRA OVC024 07/03 A2996 RMK SC8 SLP153

CYHM;2011-10-02 17:00;CYHM 021700Z 36013KT 8SM -SHRA OVC017 06/04 A2996 RMK SC8 SLP153

CYHM;2011-10-02 17:34;CYHM 021734Z 36009KT 3SM -SHRA BR SCT008 OVC014 RMK CF3SC5

CYHM;2011-10-02 18:00;CYHM 021800Z 35010KT 6SM -SHRA BR BKN007 OVC016 05/04 A2993 RMK CF6SC2 SLP143

CYHM;2011-10-02 18:23;CYHM 021823Z 36011G19KT 8SM -SHRA SCT007 BKN016 OVC025 RMK SF4SC2SC2

CYHM;2011-10-02 18:39;CYHM 021839Z 36011G18KT 12SM SCT007 BKN015 OVC024 RMK SF3SC3SC2

CYHM;2011-10-02 19:00;CYHM 021900Z 01009KT 15SM FEW007 BKN014 OVC024 06/05 A2997 RMK SF2SC4SC2 SLP154

CYHM;2011-10-02 20:00;CYHM 022000Z 36013G18KT 15SM FEW008 BKN015 OVC022 06/05 A2996 RMK SF2SC5SC2 SLP153

CYHM;2011-10-02 20:16;CYHM 022016Z 36011G18KT 15SM FEW008 BKN013 OVC021 RMK SF2SC5SC2

CYHM;2011-10-02 21:00;CYHM 022100Z 36012KT 15SM FEW008 OVC013 06/05 A2996 RMK SF2SC6 SLP153

CYHM;2011-10-02 22:00;CYHM 022200Z 36010KT 15SM SCT008 BKN012 OVC020 07/06 A2998 RMK SF3SC4SC1 SLP159

CYHM;2011-10-02 23:00;CYHM 022300Z 35011KT 15SM FEW008 BKN013 OVC018 07/06 A3000 RMK CF2SC3SC2 SLP165

CYHM;2011-10-03 00:00;CYHM 030000Z 36010G17KT 15SM FEW008 BKN013 OVC021 08/06 A3001 RMK CF2SC3SC3 SLP169

CYHM;2011-10-03 01:00;CYHM 030100Z 01010KT 15SM OVC011 08/07 A3003 RMK SC8 SLP176

CYHM;2011-10-03 02:00;CYHM 030200Z 34005KT 15SM FEW008 BKN012 OVC017 08/07 A3001 RMK SF2SC4SC2 SLP169

CYHM;2011-10-03 03:00;CYHM 030300Z 32005KT 15SM FEW008 OVC012 08/07 A3000 RMK SF2SC6 SLP165

CYHM;2011-10-03 04:00;CYHM 030400Z 32005KT 10SM FEW008 OVC011 08/08 A3000 RMK SF2SC6 SLP163

CYHM;2011-10-03 04:33;CYHM 030433Z 34007KT 7SM OVC015 RMK SC8

CYHM;2011-10-03 05:00;CYHM 030500Z 34009KT 5SM -SHRA OVC017 08/08 A2998 RMK SC8 SLP158

CYHM;2011-10-03 06:00;CYHM 030600Z 34007KT 10SM -SHRA FEW009 BKN016 OVC032 09/08 A2997 RMK SF1SC6SC2 SLP154

CYHM;2011-10-03 07:00;CYHM 030700Z 35003KT 2SM -SHRA BR OVC010 09/09 A2997 RMK FG1SC7 CIG RAG SLP153

CYHM;2011-10-03 07:25;CYHM 030725Z 31003KT 5SM -SHRA BR OVC010 RMK SC8 CIG RAG

CYHM;2011-10-03 08:00;CYHM 030800Z 35005KT 4SM -SHRA BR OVC007 09/09 A2997 RMK SF8 SLP154

CYHM;2011-10-03 09:00;CYHM 030900Z 02009KT 5SM -SHRA BR OVC004 10/10 A2996 RMK ST8 SLP149

CYHM;2011-10-03 10:00;CYHM 031000Z 01008KT 6SM -SHRA BR OVC005 10/10 A2997 RMK SF8 SLP152

CYHM;2011-10-03 10:43;CYHM 031043Z 01009KT 6SM BR BKN005 OVC010 RMK SF6SC2

CYHM;2011-10-03 11:00;CYHM 031100Z 01009KT 8SM FEW007 BKN013 OVC052 10/10 A2998 RMK SF2SC5SC1 SLP157

CYHM;2011-10-03 12:00;CYHM 031200Z 01009KT 8SM SCT006 OVC018 10/10 A3000 RMK SF4SC4 SLP164

CYHM;2011-10-03 12:12;CYHM 031212Z 02009KT 6SM -DZ BKN007 OVC021 RMK SF6SC2

CYHM;2011-10-03 13:00;CYHM 031300Z 02010G15KT 10SM BKN007 BKN010 OVC032 11/10 A3002 RMK SF5SC2SC1 SLP170

CYHM;2011-10-03 13:38;CYHM 031338Z 02007KT 6SM -DZ BR BKN006 BKN013 OVC038 RMK SF5SC2SC1

CYHM;2011-10-03 14:00;CYHM 031400Z 06010G15KT 6SM -DZ BR OVC008 11/11 A3002 RMK SF8 SLP170

CYHM;2011-10-03 14:52;CYHM 031452Z 02008KT 4SM -SHRA BR BKN007 OVC015 RMK SF6SC2 PCPN VERY LGT

CYHM;2011-10-03 15:00;CYHM 031500Z 03009KT 2 1/2SM -SHRA BR BKN008 OVC016 11/11 A3004 RMK SF6SC2 SLP176

CYHM;2011-10-03 15:49;CYHM 031549Z 02009KT 5SM -DZ BR OVC007 RMK SF8

CYHM;2011-10-03 16:00;CYHM 031600Z 03008KT 3SM -DZ BR OVC008 12/11 A3005 RMK SF8 CIG RGD SLP181

CYHM;2011-10-03 16:52;CYHM 031652Z 02007KT 3SM -SHRA BR OVC007 RMK SF8

CYHM;2011-10-03 17:00;CYHM 031700Z 02008KT 3SM -SHRA BR OVC008 12/11 A3006 RMK SF8 SLP183

CYHM;2011-10-03 18:00;CYHM 031800Z 02008KT 5SM -SHRA BR BKN005 OVC009 12/11 A3006 RMK SF6SC2 PCPN VERY LGT CIG RGD SLP182

CYHM;2011-10-03 18:45;CYHM 031845Z CCA 02008KT 8SM -DZ FEW007 OVC010 RMK SF2SC6

CYHM;2011-10-03 19:00;CYHM 031900Z 02008KT 8SM -DZ FEW007 OVC010 12/12 A3006 RMK SF2SC6 SLP183

CYHM;2011-10-03 20:00;CYHM 032000Z 02005KT 9SM -DZ FEW009 OVC012 13/11 A3007 RMK SF2SC6 SLP186

CYHM;2011-10-03 21:00;CYHM 032100Z 03005KT 12SM -DZ FEW008 BKN011 OVC022 13/11 A3008 RMK SF1SC6SC1 SLP191

CYHM;2011-10-03 21:46;CYHM 032146Z 34006KT 12SM FEW009 BKN015 OVC024 RMK SF1SC5SC2

CYHM;2011-10-03 22:00;CYHM 032200Z 34006KT 12SM FEW009 BKN015 OVC024 13/11 A3010 RMK SF1SC5SC2 SLP196

CYHM;2011-10-03 23:00;CYHM 032300Z 34007KT 12SM FEW009 BKN022 BKN032 OVC060 12/11 A3011 RMK SF1SC4SC2SC1 SF TR SLP199

CYHM;2011-10-04 00:00;CYHM 040000Z 33007KT 12SM FEW012 BKN022 OVC180 12/12 A3011 RMK SF1SC6AC1 SLP199

CYHM;2011-10-04 01:00;CYHM 040100Z 32004KT 15SM BKN014 BKN056 OVC080 12/12 A3012 RMK SC6SC2AC1 SLP202

CYHM;2011-10-04 02:00;CYHM 040200Z 30004KT 12SM -SHRA FEW014 BKN058 OVC110 12/12 A3011 RMK SF2SC5AC2 SLP201

CYHM;2011-10-04 03:00;CYHM 040300Z 31005KT 6SM -SHRA BR SCT013 BKN042 BKN078 OVC100 12/12 A3012 RMK SF3SC2AC2AC1 SLP203

CYHM;2011-10-04 04:00;CYHM 040400Z 33004KT 4SM -SHRA BR FEW004 SCT007 OVC018 12/12 A3013 RMK SF2SF2SC4 SLP208

CYHM;2011-10-04 05:00;CYHM 040500Z 31003KT 4SM -SHRA BR FEW004 SCT013 BKN020 OVC060 11/11 A3013 RMK SF2SF2SC3SC1 SLP205

CYHM;2011-10-04 06:00;CYHM 040600Z 31003KT 4SM -SHRA BR FEW004 BKN011 OVC022 12/12 A3013 RMK SF1SC6SC2 SLP206

CYHM;2011-10-04 07:00;CYHM 040700Z 31006KT 6SM -SHRA BR FEW004 SCT018 OVC026 12/11 A3012 RMK SF1SC3SC4 SLP203

CYHM;2011-10-04 08:00;CYHM 040800Z 34004KT 8SM -SHRA FEW004 BKN016 OVC024 12/12 A3012 RMK SF1SC5SC2 SLP204

CYHM;2011-10-04 09:00;CYHM 040900Z 31004KT 6SM -SHRA BR FEW004 OVC015 12/12 A3013 RMK SF1SC7 SLP205

CYHM;2011-10-04 10:00;CYHM 041000Z 28004KT 15SM -SHRA FEW004 FEW014 OVC022 12/12 A3013 RMK SF1SC2SC6 SF TR SLP207

CYHM;2011-10-04 10:27;CYHM 041027Z 28006KT 15SM FEW015 BKN021 BKN045 RMK CU1SC5SC1

CYHM;2011-10-04 11:00;CYHM 041100Z 29004KT 15SM BKN023 BKN031 12/11 A3014 RMK SC6SC2 SLP211

CYHM;2011-10-04 12:00;CYHM 041200Z 32007KT 15SM BKN021 BKN050 11/11 A3017 RMK SC5SC2 SLP218

CYHM;2011-10-04 13:00;CYHM 041300Z 33005KT 15SM FEW045 FEW220 12/11 A3018 RMK SC1CI1 SLP223

CYHM;2011-10-04 14:00;CYHM 041400Z 36005KT 15SM FEW040 FEW160 13/11 A3020 RMK SC1AC1 SLP228

CYHM;2011-10-04 15:00;CYHM 041500Z 36006KT 15SM FEW024 FEW160 15/11 A3021 RMK CU1AC1 SLP233

CYHM;2011-10-04 16:00;CYHM 041600Z 32005KT 15SM FEW022 SCT210 16/12 A3021 RMK CU2CI1 SLP234

CYHM;2011-10-04 17:00;CYHM 041700Z 36003KT 15SM FEW032 FEW220 18/11 A3020 RMK CU1CI1 SLP231

CYHM;2011-10-04 18:00;CYHM 041800Z 32009KT 15SM FEW032 FEW210 19/10 A3019 RMK CU1CI1 CI TR SLP224

CYHM;2011-10-04 19:00;CYHM 041900Z 29007KT 15SM FEW036 FEW250 20/09 A3017 RMK CU1CI1 CI TR SLP220

CYHM;2011-10-04 20:00;CYHM 042000Z 27007KT 15SM FEW042 20/09 A3017 RMK CU1 CU TR SLP217

CYHM;2011-10-04 21:00;CYHM 042100Z 31007KT 15SM FEW045 20/08 A3016 RMK CU1 CU TR SLP215

CYHM;2011-10-04 22:00;CYHM 042200Z 29005KT 15SM SKC 19/09 A3017 RMK SLP216

CYHM;2011-10-04 23:00;CYHM 042300Z 29005KT 15SM SKC 16/09 A3017 RMK SLP218

CYHM;2011-10-05 00:00;CYHM 050000Z 30005KT 15SM SKC 14/09 A3018 RMK SLP223

CYHM;2011-10-05 01:00;CYHM 050100Z 31006KT 15SM SKC 12/08 A3018 RMK SLP224

CYHM;2011-10-05 02:00;CYHM 050200Z 35002KT 15SM SKC 12/07 A3019 RMK SLP227

CYHM;2011-10-05 03:00;CYHM 050300Z 28002KT 15SM SKC 10/07 A3019 RMK SLP227

CYHM;2011-10-05 04:00;CYHM 050400Z 25003KT 15SM SKC 09/06 A3020 RMK SLP228

CYHM;2011-10-05 05:00;CYHM 050500Z 24004KT 15SM SKC 09/06 A3019 RMK SLP227

CYHM;2011-10-05 06:00;CYHM 050600Z 29007KT 15SM SKC 08/07 A3019 RMK SLP226

CYHM;2011-10-05 07:00;CYHM 050700Z 30006KT 15SM SKC 08/06 A3019 RMK SLP226

CYHM;2011-10-05 08:00;CYHM 050800Z 31007KT 15SM SKC 07/06 A3019 RMK SLP225

CYHM;2011-10-05 09:00;CYHM 050900Z 30007KT 15SM SKC 07/06 A3020 RMK SLP230

CYHM;2011-10-05 10:00;CYHM 051000Z 31006KT 15SM FEW220 08/06 A3022 RMK CI1 SLP235

CYHM;2011-10-05 11:00;CYHM 051100Z 29007KT 15SM FEW220 07/06 A3023 RMK CI1 CI TR SLP238

CYHM;2011-10-05 12:00;CYHM 051200Z 30005KT 15SM FEW100 FEW220 07/06 A3023 RMK AC1CI1 SLP242

CYHM;2011-10-05 13:00;CYHM 051300Z 21004KT 15SM FEW220 11/08 A3025 RMK CI1 CI TR SLP248

CYHM;2011-10-05 14:00;CYHM 051400Z 24003KT 15SM FEW025 FEW220 14/08 A3026 RMK CU1CI1 CU TR CI TR SLP251

CYHM;2011-10-05 15:00;CYHM 051500Z 34003KT 15SM FEW220 17/10 A3027 RMK CI1 SLP252

CYHM;2011-10-05 16:00;CYHM 051600Z 05009KT 15SM FEW240 18/09 A3028 RMK CI1 CI TR SLP255

CYHM;2011-10-05 17:00;CYHM 051700Z 07008KT 15SM SKC 18/10 A3028 RMK SLP255

CYHM;2011-10-05 18:00;CYHM 051800Z 04010KT 15SM FEW035 FEW240 18/10 A3027 RMK CU1CI1 SLP252

CYHM;2011-10-05 19:00;CYHM 051900Z 06007KT 15SM FEW045 FEW220 17/06 A3027 RMK CU1CI1 CU TR CI TR SLP254

CYHM;2011-10-05 20:00;CYHM 052000Z 06007KT 15SM FEW045 FEW220 18/07 A3027 RMK CU1CI1 CU TR CI TR SLP254

CYHM;2011-10-05 21:00;CYHM 052100Z 06009KT 15SM FEW040 17/06 A3028 RMK CU1 CU TR SLP256

CYHM;2011-10-05 22:00;CYHM 052200Z 06007KT 15SM FEW240 16/05 A3029 RMK CI1 CI TR SLP260

CYHM;2011-10-05 23:00;CYHM 052300Z 07005KT 15SM FEW240 14/05 A3030 RMK CI1 CI TR SLP263

CYHM;2011-10-06 00:00;CYHM 060000Z 05004KT 15SM FEW240 12/05 A3030 RMK CI1 CI TR SLP267

CYHM;2011-10-06 01:00;CYHM 060100Z 06004KT 15SM FEW240 11/05 A3032 RMK CI1 SLP273

CYHM;2011-10-06 02:00;CYHM 060200Z 07005KT 15SM FEW240 11/05 A3033 RMK CI1 CI TR SLP276

CYHM;2011-10-06 03:00;CYHM 060300Z 06005KT 15SM FEW240 11/03 A3034 RMK CI1 SLP277

CYHM;2011-10-06 04:00;CYHM 060400Z 06005KT 15SM SKC 09/03 A3035 RMK SLP279

CYHM;2011-10-06 05:00;CYHM 060500Z 08006KT 15SM FEW230 08/03 A3035 RMK CI1 SLP279

CYHM;2011-10-06 06:00;CYHM 060600Z 08004KT 15SM SKC 09/02 A3036 RMK SLP282

CYHM;2011-10-06 07:00;CYHM 060700Z 08003KT 15SM FEW210 08/02 A3036 RMK CI1 SLP283

CYHM;2011-10-06 08:00;CYHM 060800Z 09004KT 15SM SKC 07/02 A3037 RMK SLP286

CYHM;2011-10-06 09:00;CYHM 060900Z 09003KT 15SM SKC 06/03 A3037 RMK SLP289

CYHM;2011-10-06 10:00;CYHM 061000Z 09004KT 15SM SKC 06/03 A3037 RMK SLP289

CYHM;2011-10-06 11:00;CYHM 061100Z 10004KT 15SM FEW025 FEW220 06/04 A3038 RMK CU1CI1 SLP291

CYHM;2011-10-06 12:00;CYHM 061200Z 09004KT 15SM FEW100 FEW220 07/04 A3039 RMK AC1CI1 SLP296

CYHM;2011-10-06 13:00;CYHM 061300Z 11003KT 15SM SKC 11/07 A3040 RMK SLP300

CYHM;2011-10-06 14:00;CYHM 061400Z 12003KT 15SM SKC 13/07 A3041 RMK SLP302

CYHM;2011-10-06 15:00;CYHM 061500Z 16005KT 15SM SKC 15/07 A3040 RMK SLP297

CYHM;2011-10-06 16:00;CYHM 061600Z 22002KT 15SM SKC 16/06 A3039 RMK SLP294

CYHM;2011-10-06 17:00;CYHM 061700Z 13002KT 15SM SKC 18/07 A3038 RMK SLP291

CYHM;2011-10-06 18:00;CYHM 061800Z 20002KT 15SM SKC 18/06 A3036 RMK SLP282

CYHM;2011-10-06 19:00;CYHM 061900Z 29002KT 15SM SKC 19/07 A3034 RMK SLP278

CYHM;2011-10-06 20:00;CYHM 062000Z 10004KT 15SM SKC 18/09 A3033 RMK SLP275

CYHM;2011-10-06 21:00;CYHM 062100Z CCA 10004KT 15SM SKC 18/10 A3033 RMK SLP275

CYHM;2011-10-06 22:00;CYHM 062200Z 08005KT 15SM SKC 17/10 A3033 RMK SLP275

CYHM;2011-10-06 23:00;CYHM 062300Z 10004KT 15SM SKC 14/08 A3033 RMK SLP276

CYHM;2011-10-07 00:00;CYHM 070000Z 12004KT 15SM SKC 13/08 A3034 RMK SLP279

CYHM;2011-10-07 01:00;CYHM 070100Z 00000KT 15SM SKC 12/09 A3035 RMK SLP282

CYHM;2011-10-07 02:00;CYHM 070200Z 00000KT 15SM SKC 10/08 A3036 RMK SLP285

CYHM;2011-10-07 03:00;CYHM 070300Z 00000KT 15SM SKC 09/08 A3036 RMK SLP286

CYHM;2011-10-07 04:00;CYHM 070400Z 00000KT 15SM SKC 10/07 A3036 RMK SLP283

CYHM;2011-10-07 05:00;CYHM 070500Z 20003KT 15SM SKC 10/06 A3036 RMK SLP283

CYHM;2011-10-07 06:00;CYHM 070600Z CCA 21003KT 15SM SKC 09/05 A3036 RMK SLP283

CYHM;2011-10-07 07:00;CYHM 070700Z 24003KT 15SM SKC 08/05 A3036 RMK SLP284

CYHM;2011-10-07 08:00;CYHM 070800Z 28002KT 15SM SKC 08/05 A3036 RMK SLP284

CYHM;2011-10-07 09:00;CYHM 070900Z 35002KT 15SM SKC 08/06 A3038 RMK SLP289

CYHM;2011-10-07 10:00;CYHM 071000Z 28004KT 15SM SKC 07/06 A3039 RMK SLP293

CYHM;2011-10-07 11:00;CYHM 071100Z 33002KT 15SM FEW240 07/06 A3040 RMK CI1 CI TR SLP298

CYHM;2011-10-07 12:00;CYHM 071200Z 28002KT 15SM SKC 07/06 A3042 RMK SLP305

CYHM;2011-10-07 13:00;CYHM 071300Z 22002KT 15SM SKC 11/09 A3044 RMK SLP312

CYHM;2011-10-07 14:00;CYHM 071400Z 22003KT 15SM SKC 15/10 A3045 RMK SLP315

CYHM;2011-10-07 15:00;CYHM 071500Z 16004KT 15SM SKC 18/09 A3045 RMK SLP314

CYHM;2011-10-07 16:00;CYHM 071600Z 21003KT 15SM SKC 20/08 A3044 RMK SLP312

CYHM;2011-10-07 17:00;CYHM 071700Z 27002KT 15SM SKC 22/11 A3043 RMK SLP307

CYHM;2011-10-07 18:00;CYHM 071800Z 22006KT 15SM SKC 22/11 A3041 RMK SLP300

CYHM;2011-10-07 19:00;CYHM 071900Z 00000KT 15SM SKC 23/11 A3040 RMK SLP295

CYHM;2011-10-07 20:00;CYHM 072000Z 17006KT 15SM SKC 23/12 A3040 RMK SLP295

CYHM;2011-10-07 21:00;CYHM 072100Z 18008KT 15SM FEW240 22/12 A3039 RMK CI1 SLP295

CYHM;2011-10-07 22:00;CYHM 072200Z 17006KT 15SM FEW240 20/11 A3039 RMK CI1 SLP294

CYHM;2011-10-07 23:00;CYHM 072300Z 18006KT 15SM FEW100 FEW230 18/08 A3040 RMK AC1CI1 SLP296

CYHM;2011-10-08 00:00;CYHM 080000Z 17004KT 15SM FEW090 FEW220 16/07 A3041 RMK AC1CI1 SLP301

CYHM;2011-10-08 01:00;CYHM 080100Z 18005KT 15SM FEW220 14/06 A3041 RMK CI1 SLP303

CYHM;2011-10-08 02:00;CYHM 080200Z 21002KT 15SM SKC 13/05 A3042 RMK SLP304

CYHM;2011-10-08 03:00;CYHM 080300Z 18005KT 15SM SKC 13/07 A3041 RMK SLP299

CYHM;2011-10-08 04:00;CYHM 080400Z 25004KT 15SM SKC 11/08 A3042 RMK SLP301

CYHM;2011-10-08 05:00;CYHM 080500Z 25004KT 15SM SKC 10/08 A3041 RMK SLP298

CYHM;2011-10-08 06:00;CYHM 080600Z 22005KT 15SM FEW210 11/10 A3040 RMK CI1 SLP296

CYHM;2011-10-08 07:00;CYHM 080700Z 23005KT 15SM FEW210 11/10 A3039 RMK CI1 SLP294

CYHM;2011-10-08 08:00;CYHM 080800Z 23005KT 15SM FEW210 10/09 A3040 RMK CI1 SLP295

CYHM;2011-10-08 10:26;CYHM 081026Z 22004KT 3/8SM FG SKC RMK FG2

CYHM;2011-10-08 10:48;CYHM 081048Z 26005KT 10SM MIFG FEW220 RMK CI1

CYHM;2011-10-08 11:00;CYHM 081100Z 24005KT 1/2SM FG FEW220 09/09 A3043 RMK FG2CI1 SLP306

CYHM;2011-10-08 11:07;CYHM 081107Z 24004KT 3/8SM FG FEW220 RMK FG2CI1

CYHM;2011-10-08 12:00;CYHM 081200Z 26004KT 3SM BR FEW220 10/10 A3045 RMK CI1 VIS E-SW 3/8 SLP313

CYHM;2011-10-08 13:00;CYHM 081300Z 25004KT 15SM FEW230 13/12 A3046 RMK CI1 SLP317

CYHM;2011-10-08 14:00;CYHM 081400Z CCA 23008KT 15SM FEW230 16/13 A3046 RMK CI1 SLP318

CYHM;2011-10-08 15:00;CYHM 081500Z 23007KT 15SM FEW250 18/13 A3046 RMK CI1 SLP316

CYHM;2011-10-08 16:00;CYHM 081600Z 21006KT 15SM FEW250 21/15 A3045 RMK CI1 SLP312

CYHM;2011-10-08 17:00;CYHM 081700Z 21005KT 15SM FEW250 23/14 A3043 RMK CI1 SLP306

CYHM;2011-10-08 18:00;CYHM 081800Z 23007KT 15SM FEW250 24/13 A3041 RMK CI1 SLP298

CYHM;2011-10-08 19:00;CYHM 081900Z 19007KT 15SM FEW250 25/15 A3040 RMK CI1 CONTRAIL CI TR SLP294

CYHM;2011-10-08 20:00;CYHM 082000Z 18007KT 15SM FEW250 24/15 A3039 RMK CI1 CONTRAIL CI TR SLP290

CYHM;2011-10-08 21:00;CYHM 082100Z 19007KT 15SM FEW250 23/15 A3038 RMK CI1 CONTRAIL CI TR SLP289

CYHM;2011-10-08 22:00;CYHM 082200Z 18007KT 15SM FEW200 22/14 A3038 RMK CI1 CI TR SLP289

CYHM;2011-10-08 23:00;CYHM 082300Z 18006KT 15SM FEW220 19/13 A3039 RMK CI1 CI TR SLP292

CYHM;2011-10-09 00:00;CYHM 090000Z 20006KT 15SM SKC 15/13 A3039 RMK SLP296

CYHM;2011-10-09 01:00;CYHM 090100Z 20006KT 15SM SKC 14/12 A3040 RMK SLP298

CYHM;2011-10-09 02:00;CYHM 090200Z 21006KT 15SM SKC 13/12 A3040 RMK SLP297

CYHM;2011-10-09 03:00;CYHM 090300Z 21006KT 15SM FEW210 12/11 A3040 RMK CI1 SLP296

CYHM;2011-10-09 04:00;CYHM 090400Z 21004KT 12SM SKC 12/12 A3039 RMK SLP293

CYHM;2011-10-09 05:00;CYHM 090500Z 25003KT 12SM MIFG SKC 13/12 A3039 RMK SLP294

CYHM;2011-10-09 06:00;CYHM 090600Z 25004KT 15SM MIFG SKC 12/11 A3039 RMK SLP293

CYHM;2011-10-09 07:00;CYHM 090700Z 25005KT 15SM MIFG SKC 12/11 A3040 RMK SLP294

CYHM;2011-10-09 08:00;CYHM 090800Z 26004KT 15SM MIFG SKC 12/11 A3039 RMK SLP293

CYHM;2011-10-09 09:00;CYHM 090900Z 25004KT 15SM MIFG SKC 11/11 A3041 RMK SLP298

CYHM;2011-10-09 10:00;CYHM 091000Z 25004KT 15SM MIFG SKC 10/10 A3042 RMK SLP301

CYHM;2011-10-09 11:00;CYHM 091100Z 24003KT 15SM MIFG SKC 11/11 A3042 RMK SLP301

CYHM;2011-10-09 11:34;CYHM 091134Z 22004KT 3/8SM FG FEW250 RMK FG2CI1

CYHM;2011-10-09 11:49;CYHM 091149Z 22004KT 8SM MIFG SKC

CYHM;2011-10-09 12:00;CYHM 091200Z 21005KT 8SM MIFG SKC 10/10 A3042 RMK SLP305

CYHM;2011-10-09 13:00;CYHM 091300Z 22005KT 12SM SKC 14/13 A3044 RMK SLP312

CYHM;2011-10-09 14:00;CYHM 091400Z 22006KT 15SM SKC 17/14 A3044 RMK SLP312

CYHM;2011-10-09 15:00;CYHM 091500Z 22005KT 15SM SKC 20/15 A3044 RMK SLP310

CYHM;2011-10-09 16:00;CYHM 091600Z 23006KT 15SM SKC 23/15 A3042 RMK SLP305

CYHM;2011-10-09 17:00;CYHM 091700Z 27005KT 15SM SKC 24/15 A3041 RMK SLP299

CYHM;2011-10-09 18:00;CYHM 091800Z 22003KT 15SM SKC 26/15 A3038 RMK SLP289

CYHM;2011-10-09 19:00;CYHM 091900Z 29003KT 15SM SKC 26/13 A3036 RMK SLP283

CYHM;2011-10-09 20:00;CYHM 092000Z 17009KT 15SM SKC 25/16 A3035 RMK SLP278

CYHM;2011-10-09 21:00;CYHM 092100Z 20010KT 15SM SKC 24/14 A3035 RMK SLP279

CYHM;2011-10-09 22:00;CYHM 092200Z 19007KT 15SM FEW200 22/14 A3035 RMK CI1 SLP277

CYHM;2011-10-09 23:00;CYHM 092300Z 23005KT 15SM FEW200 20/14 A3034 RMK CI1 SLP276

CYHM;2011-10-10 00:00;CYHM 100000Z 19004KT 15SM FEW220 18/14 A3034 RMK CI1 SLP277

CYHM;2011-10-10 01:00;CYHM 100100Z 21004KT 15SM FEW220 17/14 A3034 RMK CI1 SLP277

CYHM;2011-10-10 02:00;CYHM 100200Z 24004KT 15SM SCT220 16/13 A3034 RMK CI1 SLP277

CYHM;2011-10-10 03:00;CYHM 100300Z 25005KT 15SM FEW220 13/12 A3034 RMK CI1 SLP277

CYHM;2011-10-10 04:00;CYHM 100400Z 25003KT 15SM FEW220 12/11 A3034 RMK CI1 CI TR SLP277

CYHM;2011-10-10 05:00;CYHM 100500Z 24005KT 15SM FEW220 11/11 A3034 RMK CI1 CI TR SLP275

CYHM;2011-10-10 06:00;CYHM 100600Z 00000KT 15SM FEW220 11/11 A3034 RMK CI1 CI TR SLP274

CYHM;2011-10-10 07:00;CYHM 100700Z 28005KT 15SM SKC 10/10 A3033 RMK SLP271

CYHM;2011-10-10 08:00;CYHM 100800Z 27004KT 15SM MIFG SKC 11/10 A3033 RMK SLP269

CYHM;2011-10-10 09:00;CYHM 100900Z 23004KT 15SM BCFG SKC 09/09 A3033 RMK SLP270

CYHM;2011-10-10 10:00;CYHM 101000Z 28003KT 15SM MIFG SKC 09/09 A3033 RMK SLP270

CYHM;2011-10-10 11:00;CYHM 101100Z 32005KT 15SM FEW050 SCT220 13/10 A3033 RMK SC1CI2 SLP270

CYHM;2011-10-10 12:00;CYHM 101200Z 23004KT 15SM FEW100 BKN220 10/09 A3033 RMK AC1CI3 SLP271

CYHM;2011-10-10 13:00;CYHM 101300Z 25004KT 15SM FEW100 SCT220 13/12 A3037 RMK AC1CI2 SLP285

CYHM;2011-10-10 14:00;CYHM 101400Z 28003KT 15SM FEW120 SCT220 16/14 A3034 RMK AC2CI2 SLP275

CYHM;2011-10-10 15:00;CYHM 101500Z 28004KT 15SM FEW160 FEW230 22/14 A3033 RMK AC1CI2 AC TR SLP272

CYHM;2011-10-10 16:00;CYHM 101600Z 21003KT 15SM SCT230 24/12 A3033 RMK CI2 SLP270

CYHM;2011-10-10 17:00;CYHM 101700Z 20003KT 15SM SCT230 25/14 A3031 RMK CI2 SLP266

CYHM;2011-10-10 18:00;CYHM 101800Z 33002KT 15SM SCT230 25/13 A3029 RMK CI3 SLP257

CYHM;2011-10-10 19:00;CYHM 101900Z 22002KT 15SM BKN220 25/11 A3027 RMK CS5 SLP250

CYHM;2011-10-10 20:00;CYHM 102000Z 21002KT 15SM BKN250 25/12 A3025 RMK CS7 SUN DMLY VSBL SLP245

CYHM;2011-10-10 21:00;CYHM 102100Z 08004KT 15SM BKN250 23/14 A3024 RMK CS7 SUN DMLY VSBL SLP243

CYHM;2011-10-10 22:00;CYHM 102200Z 21005KT 15SM BKN250 22/15 A3023 RMK CS7 SLP239

CYHM;2011-10-10 23:00;CYHM 102300Z 17004KT 12SM FEW190 BKN250 20/14 A3022 RMK AC1CS6 AC TR SLP235

CYHM;2011-10-11 00:00;CYHM 110000Z 22003KT 15SM FEW190 BKN250 18/13 A3022 RMK AC1CI2 SLP237

CYHM;2011-10-11 01:00;CYHM 110100Z 22002KT 15SM FEW190 BKN240 17/13 A3022 RMK AC1CS5 SLP237

CYHM;2011-10-11 02:00;CYHM 110200Z 14002KT 15SM FEW190 BKN230 16/13 A3022 RMK AC1CI2 SLP237

CYHM;2011-10-11 03:00;CYHM 110300Z 26002KT 15SM FEW190 SCT240 14/12 A3022 RMK AC1CI2 AC TR SLP233

CYHM;2011-10-11 04:00;CYHM 110400Z 29004KT 15SM FEW240 13/12 A3021 RMK CI1 SLP231

CYHM;2011-10-11 05:00;CYHM 110500Z 33005KT 15SM SCT240 14/12 A3020 RMK CI2 CC ASOCTD SLP227

CYHM;2011-10-11 06:00;CYHM 110600Z 01003KT 15SM BKN230 13/11 A3020 RMK CI3 CC ASOCTD SLP225

CYHM;2011-10-11 07:00;CYHM 110700Z 09005KT 15SM FEW250 11/10 A3019 RMK CI1 SLP224

CYHM;2011-10-11 08:00;CYHM 110800Z 04003KT 15SM FEW250 12/10 A3019 RMK CI1 CI TR SLP222

CYHM;2011-10-11 09:00;CYHM 110900Z 04004KT 15SM FEW250 11/10 A3019 RMK CI1 CI TR SLP223

CYHM;2011-10-11 10:00;CYHM 111000Z 06004KT 15SM FEW250 12/10 A3019 RMK CI1 CI TR SLP224

CYHM;2011-10-11 11:00;CYHM 111100Z 05007KT 15SM BKN230 11/10 A3019 RMK CI4 CONTRAILS SLP224

CYHM;2011-10-11 12:00;CYHM 111200Z 05007KT 15SM FEW160 BKN230 12/11 A3020 RMK AC1CI4 SLP227

CYHM;2011-10-11 13:00;CYHM 111300Z 05006KT 15SM FEW160 BKN210 15/13 A3020 RMK AC2CI4 SLP227

CYHM;2011-10-11 14:00;CYHM 111400Z 05008KT 15SM FEW150 BKN210 18/15 A3019 RMK AC2CI3 SLP226

CYHM;2011-10-11 15:00;CYHM 111500Z 05007KT 15SM FEW140 FEW180 BKN220 19/15 A3018 RMK AC1AC2CI4 SLP222

CYHM;2011-10-11 16:00;CYHM 111600Z 05007KT 6SM HZ FEW120 SCT150 BKN230 19/16 A3017 RMK AC1AC2CI5 SLP219

CYHM;2011-10-11 17:00;CYHM 111700Z 04009KT 6SM HZ FEW140 OVC210 19/16 A3017 RMK AC2CI6 SLP216

CYHM;2011-10-11 18:00;CYHM 111800Z 05008KT 8SM FEW160 BKN210 19/16 A3014 RMK AC2CI4 SLP208

CYHM;2011-10-11 19:00;CYHM 111900Z 05010KT 5SM HZ FEW180 BKN200 BKN260 18/16 A3013 RMK AC1CS4CI1 SLP205

CYHM;2011-10-11 19:48;CYHM 111948Z 03009KT 2 1/2SM BR FEW190 BKN220 OVC260 RMK AC2CS4CI2 SUN DMLY VSBL

CYHM;2011-10-11 20:00;CYHM 112000Z 04008KT 2SM BR FEW190 BKN220 OVC260 17/15 A3012 RMK AC2CS4CI2 SUN DMLY VSBL SLP202

CYHM;2011-10-11 20:35;CYHM 112035Z 04012KT 1 1/4SM BR FEW003 SCT180 OVC250 RMK SF2AC2CS4 SUN DMLY VSBL

CYHM;2011-10-11 21:00;CYHM 112100Z 04011KT 1SM BR BKN003 OVC250 16/15 A3011 RMK SF6CS2 SUN DMLY VSBL SLP200

CYHM;2011-10-11 22:00;CYHM 112200Z 04007KT 1 3/4SM BR SCT003 SCT180 OVC250 16/15 A3011 RMK SF3AC1CS2 SUN DMLY VSBL SLP199

CYHM;2011-10-11 23:00;CYHM 112300Z 04007KT 1 3/4SM BR FEW180 BKN210 15/15 A3010 RMK AC2CS5 SLP195

CYHM;2011-10-12 00:00;CYHM 120000Z 04010KT 1 3/4SM BR FEW003 BKN180 OVC220 15/15 A3010 RMK SF2AC4CS2 SLP194

CYHM;2011-10-12 01:00;CYHM 120100Z 03009KT 1 3/4SM BR FEW004 BKN210 16/15 A3009 RMK SF1CS4 SLP191

CYHM;2011-10-12 02:00;CYHM 120200Z 03010KT 3SM BR FEW190 BKN240 15/15 A3009 RMK AC1CI2 SLP192

CYHM;2011-10-12 03:00;CYHM 120300Z 04007KT 5SM BR BKN190 BKN220 16/15 A3008 RMK AC6CS2 SLP187

CYHM;2011-10-12 04:00;CYHM 120400Z 04009KT 5SM BR OVC170 16/15 A3008 RMK AC8 SLP185

CYHM;2011-10-12 05:00;CYHM 120500Z 02006KT 5SM BR BKN170 BKN200 15/15 A3007 RMK AC6CI2 SLP183

CYHM;2011-10-12 06:00;CYHM 120600Z 04006KT 5SM BR BKN160 BKN200 15/15 A3006 RMK AC5CI2 SLP180

CYHM;2011-10-12 07:00;CYHM 120700Z 02007KT 5SM BR OVC190 15/15 A3005 RMK AC8 SLP175

CYHM;2011-10-12 08:00;CYHM 120800Z 06004KT 2 1/2SM BR BKN180 15/14 A3004 RMK AC7 SLP174

CYHM;2011-10-12 09:00;CYHM 120900Z 02006KT 2SM BR OVC160 15/15 A3004 RMK AC8 SLP174

CYHM;2011-10-12 10:00;CYHM 121000Z 04005KT 2 1/2SM BR BKN150 BKN180 15/15 A3005 RMK AC5AC2 SLP176

CYHM;2011-10-12 10:15;CYHM 121015Z 04005KT 3SM BR SCT002 OVC140 RMK SF3AC5

CYHM;2011-10-12 11:00;CYHM 121100Z 04005KT 4SM BR FEW005 BKN140 15/15 A3004 RMK SF2AC6 SLP175

CYHM;2011-10-12 11:24;CYHM 121124Z 04004KT 1 1/2SM BR SCT006 OVC140 RMK FG2SF2AC5

CYHM;2011-10-12 12:00;CYHM 121200Z 02004KT 1 1/2SM BR BKN140 OVC160 15/15 A3004 RMK FG2AC5AC2 SLP175

CYHM;2011-10-12 13:00;CYHM 121300Z 04005KT 2SM BR FEW002 SCT082 OVC140 16/15 A3005 RMK FG1SF2AC2AC4 SLP176

CYHM;2011-10-12 14:00;CYHM 121400Z 00000KT 2 1/2SM -SHRA BR FEW045 SCT062 OVC087 16/16 A3004 RMK SC2SC2AC4 SLP173

CYHM;2011-10-12 15:00;CYHM 121500Z 07006KT 2 1/2SM -SHRA BR BKN058 OVC068 17/16 A3005 RMK SC6AC2 SLP176

CYHM;2011-10-12 16:00;CYHM 121600Z 06004KT 5SM -SHRA BR FEW042 SCT062 OVC082 17/16 A3003 RMK SC2SC2AC4 SLP170

CYHM;2011-10-12 17:00;CYHM 121700Z 09002KT 6SM -SHRA BR FEW017 SCT022 OVC078 17/15 A3001 RMK CU2SC2AC5 SLP165

CYHM;2011-10-12 18:00;CYHM 121800Z 13003KT 8SM -SHRA FEW032 BKN062 OVC078 17/14 A2998 RMK SC2SC4AC2 SLP153

CYHM;2011-10-12 19:00;CYHM 121900Z 15009KT 6SM -SHRA FEW024 OVC037 16/14 A2995 RMK SC2SC6 SLP144

CYHM;2011-10-12 20:00;CYHM 122000Z 10008KT 7SM -SHRA FEW027 OVC044 15/14 A2993 RMK SC1SC7 SLP136

CYHM;2011-10-12 20:45;CYHM 122045Z 08013KT 3SM -SHRA BR SCT007 OVC012 RMK SF3SC5 VIS VRB 2 - 4

CYHM;2011-10-12 21:00;CYHM 122100Z 07014KT 2SM -SHRA BR SCT006 OVC012 15/14 A2991 RMK FG1SF2SC5 SLP128

CYHM;2011-10-12 22:00;CYHM 122200Z 08013KT 3SM -SHRA BR FEW006 OVC013 14/14 A2988 RMK SF2SC6 VIS VRB 2 - 4 PRESFR SLP120

CYHM;2011-10-12 23:00;CYHM 122300Z 08014KT 4SM -SHRA BR SCT004 OVC012 14/14 A2987 RMK SF4SC4 SLP116

CYHM;2011-10-13 00:00;CYHM 130000Z 09012G18KT 5SM -SHRA BR FEW007 OVC015 13/13 A2986 RMK SF2SC6 SLP112

CYHM;2011-10-13 01:00;CYHM 130100Z 08012KT 5SM -RA BR SCT006 OVC012 13/13 A2984 RMK SF3SC5 SLP107

CYHM;2011-10-13 02:00;CYHM 130200Z 10010G15KT 6SM -RA BR OVC004 13/13 A2983 RMK SF8 CIG RAG SLP103

CYHM;2011-10-13 03:00;CYHM 130300Z 10009KT 6SM -RA BR OVC005 13/13 A2981 RMK SF8 CIG RAG SLP097

CYHM;2011-10-13 04:00;CYHM 130400Z 10007KT 6SM -RA BR OVC005 13/13 A2980 RMK SF8 SLP092

CYHM;2011-10-13 05:00;CYHM 130500Z 13007KT 1 1/2SM -RA BR OVC004 13/13 A2978 RMK FG2SF6 VIS VRB 1 - 2 SLP087

CYHM;2011-10-13 06:00;CYHM 130600Z 12007KT 4SM -RA BR SCT003 OVC015 13/13 A2978 RMK SF3SC5 SLP084

CYHM;2011-10-13 07:00;CYHM 130700Z 14006KT 3SM -RA BR FEW007 OVC015 14/14 A2976 RMK SF1SC7 VIS VRB 2 - 4 SLP078

CYHM;2011-10-13 07:20;CYHM 130720Z 13005KT 2SM -RA BR FEW002 OVC013 RMK FG1SF2SC6

CYHM;2011-10-13 07:24;CYHM 130724Z 13006KT 4SM -RA BR FEW002 OVC013 RMK SF2SC6

CYHM;2011-10-13 08:00;CYHM 130800Z 13005KT 8SM -RA FEW002 OVC011 14/14 A2975 RMK SF1SC7 SLP074

CYHM;2011-10-13 09:00;CYHM 130900Z 15005KT 7SM -RA BKN013 OVC043 14/14 A2974 RMK SC6SC2 SLP071

CYHM;2011-10-13 10:00;CYHM 131000Z 16006KT 15SM -RA BKN014 OVC043 14/14 A2973 RMK SC6SC2 SLP070

CYHM;2011-10-13 10:31;CYHM 131031Z 16006KT 15SM SCT016 OVC040 RMK SC3SC5

CYHM;2011-10-13 11:00;CYHM 131100Z 16006KT 15SM FEW018 OVC041 14/14 A2973 RMK SC2SC6 SLP068

CYHM;2011-10-13 12:00;CYHM 131200Z 15005KT 15SM BKN033 OVC040 15/14 A2972 RMK SC6SC2 SLP067

CYHM;2011-10-13 13:00;CYHM 131300Z 15005KT 15SM FEW018 BKN042 OVC060 15/14 A2972 RMK CU1SC6SC2 SLP066

CYHM;2011-10-13 14:00;CYHM 131400Z 15005KT 15SM BKN033 OVC042 15/15 A2972 RMK SC6SC2 SLP065

CYHM;2011-10-13 15:00;CYHM 131500Z 14006KT 15SM FEW010 BKN050 16/15 A2971 RMK SC2SC6 SLP060

CYHM;2011-10-13 16:00;CYHM 131600Z 16007KT 15SM FEW010 BKN018 OVC042 16/15 A2970 RMK CU2SC3SC2 SLP058

CYHM;2011-10-13 17:00;CYHM 131700Z 15007KT 15SM SCT015 BKN028 BKN056 17/15 A2968 RMK CU3SC3SC1 SLP050

CYHM;2011-10-13 18:00;CYHM 131800Z 16008KT 15SM SCT018 BKN038 18/15 A2965 RMK CU3SC4 SLP040

CYHM;2011-10-13 19:00;CYHM 131900Z 15005KT 15SM FEW018 BKN034 BKN250 18/15 A2963 RMK CU2SC5CI0 SLP034

CYHM;2011-10-13 20:00;CYHM 132000Z 14004KT 15SM FEW018 OVC031 18/14 A2961 RMK CU2SC6 SLP026

CYHM;2011-10-13 21:00;CYHM 132100Z 06010KT 15SM FEW018 SCT029 BKN052 17/15 A2959 RMK CU1SC2SC4 SLP021

CYHM;2011-10-13 22:00;CYHM 132200Z 05009KT 15SM FEW008 BKN029 BKN051 16/15 A2958 RMK CF1SC5SC2 SLP017

CYHM;2011-10-13 23:00;CYHM 132300Z 07012KT 8SM FEW008 FEW029 BKN051 16/15 A2956 RMK CF2SC1SC5 SLP010

CYHM;2011-10-13 23:26;CYHM 132326Z 05014KT 8SM BKN003 OVC050 RMK CF6SC2

CYHM;2011-10-14 00:00;CYHM 140000Z 05012KT 7SM OVC003 15/15 A2954 RMK CF8 SLP004

CYHM;2011-10-14 00:45;CYHM 140045Z 05011KT 2SM BR OVC002 RMK FG1CF7

CYHM;2011-10-14 01:00;CYHM 140100Z 05011KT 1 1/2SM BR OVC002 15/15 A2951 RMK FG2CF6 SLP994

CYHM;2011-10-14 02:00;CYHM 140200Z 05007KT 1 1/2SM -SHRA BR OVC002 16/16 A2949 RMK FG2CF6 SLP988

CYHM;2011-10-14 02:09;CYHM 140209Z 04007KT 2 1/2SM -SHRA BR SCT002 BKN042 BKN070 RMK CF3SC2AC2 PCPN VRY LGT

CYHM;2011-10-14 02:25;CYHM 140225Z 04008KT 2 1/2SM -TSRA BR FEW003 BKN023 OVC041 RMK CF2SC4SC2 CB EMBD

CYHM;2011-10-14 03:00;CYHM 140300Z 11006KT 12SM -TSRA SCT004 OVC017 16/16 A2946 RERA RMK CF3SC5 CB EMBD SLP977

CYHM;2011-10-14 03:30;CYHM 140330Z 08004KT 9SM -SHRA OVC021 RETS RMK SC8

CYHM;2011-10-14 03:52;CYHM 140352Z 05005KT 15SM OVC022 RETS RMK SC8

CYHM;2011-10-14 04:00;CYHM 140400Z 05004KT 15SM OVC022 16/16 A2942 RETS RMK SC8 SLP964

CYHM;2011-10-14 05:00;CYHM 140500Z 06006KT 15SM BKN023 OVC046 16/16 A2939 RMK SC5SC3 SLP953

CYHM;2011-10-14 06:00;CYHM 140600Z 07004KT 15SM OVC023 16/16 A2937 RMK SC8 SLP944

CYHM;2011-10-14 06:27;CYHM 140627Z 12007KT 15SM -SHRA OVC022 RMK SC8

CYHM;2011-10-14 07:00;CYHM 140700Z 16007KT 15SM -SHRA OVC017 17/16 A2936 RMK SC8 PCPN VRY LGT SLP941

CYHM;2011-10-14 07:44;CYHM 140744Z 18011KT 15SM FEW010 BKN024 OVC042 RMK CF2SC5SC2

CYHM;2011-10-14 08:00;CYHM 140800Z 18009KT 15SM FEW010 BKN021 OVC042 17/16 A2935 RMK CF1SC6SC1 SLP937

CYHM;2011-10-14 08:12;CYHM 140812Z 18011KT 15SM -SHRA FEW012 OVC019 RMK CF2SC6

CYHM;2011-10-14 09:00;CYHM 140900Z 19010G16KT 15SM BKN010 OVC017 16/15 A2932 RMK CF5SC3 SLP927

CYHM;2011-10-14 09:18;CYHM 140918Z 19011G16KT 15SM BKN009 OVC017 RMK CF6SC2

CYHM;2011-10-14 10:00;CYHM 141000Z 19012KT 15SM OVC011 16/15 A2931 RMK CF8 SLP926

CYHM;2011-10-14 11:00;CYHM 141100Z 20011KT 15SM FEW009 BKN054 OVC062 15/15 A2931 RMK SF2SC4SC2 SLP926

CYHM;2011-10-14 11:50;CYHM 141150Z 20008G15KT 10SM -SHRA SCT018 OVC041 RMK SC3SC5

CYHM;2011-10-14 12:00;CYHM 141200Z 20008KT 6SM -SHRA BR FEW010 BKN029 OVC041 15/14 A2931 RMK SF2SC4SC2 SLP925

CYHM;2011-10-14 12:46;CYHM 141246Z 21006KT 6SM -SHRA BR BKN007 OVC022 RMK SF6SC2

CYHM;2011-10-14 13:00;CYHM 141300Z 17007KT 8SM -SHRA SCT007 BKN018 BKN024 15/15 A2930 RMK SF3SC3SC1 SLP922

CYHM;2011-10-14 13:22;CYHM 141322Z 20011KT 10SM FEW005 BKN023 BKN037 RMK SF2SC4SC2

CYHM;2011-10-14 14:00;CYHM 141400Z 20008KT 15SM BKN008 BKN014 OVC041 16/15 A2929 RMK SF6SC2SC1 SLP919

CYHM;2011-10-14 14:35;CYHM 141435Z 20009KT 6SM -SHRA BR BKN010 OVC016 RMK SC6SC2

CYHM;2011-10-14 15:00;CYHM 141500Z 21022G30KT 10SM FEW008 BKN012 OVC024 14/13 A2930 RMK CF2SC4SC2 SLP922

CYHM;2011-10-14 16:00;CYHM 141600Z 24014G21KT 15SM BKN020 OVC025 14/12 A2932 RMK SC6SC2 SLP928

CYHM;2011-10-14 16:10;CYHM 141610Z 24013G19KT 15SM -SHRA BKN014 OVC022 RMK SC6SC2

CYHM;2011-10-14 16:41;CYHM 141641Z 23013G21KT 15SM FEW015 BKN019 OVC025 RMK CU2SC4SC2

CYHM;2011-10-14 17:00;CYHM 141700Z 24016G22KT 15SM -SHRA BKN028 OVC043 14/12 A2933 RMK SC6SC2 PCPN VRY LGT SLP930

CYHM;2011-10-14 17:37;CYHM 141737Z 24016G26KT 15SM FEW018 BKN028 BKN032 RMK CU2SC3SC2

CYHM;2011-10-14 18:00;CYHM 141800Z 26020G29KT 15SM FEW020 BKN029 BKN034 15/11 A2931 RMK CU2SC3SC2 SLP926

CYHM;2011-10-14 19:00;CYHM 141900Z 25019G29KT 15SM FEW027 BKN045 BKN210 16/11 A2932 RMK CU2SC2CI2 SLP927

CYHM;2011-10-14 20:00;CYHM 142000Z 25016G23KT 15SM VCSH SCT035 BKN065 BKN150 BKN210 15/10 A2933 RMK CU3SC2AC1CI1 TCU ASOCTD SLP932

CYHM;2011-10-14 20:25;CYHM 142025Z 23017G25KT 8SM -SHRA FEW030 BKN065 BKN150 RMK CU2SC5AC1 TCU ASOCTD

CYHM;2011-10-14 21:00;CYHM 142100Z 26016G21KT 7SM -SHRA FEW018 BKN051 13/11 A2936 RMK CU2SC6 TCU ASOCTD SLP943

CYHM;2011-10-14 22:00;CYHM 142200Z 24013G20KT 7SM -SHRA FEW022 BKN059 BKN072 12/10 A2938 RMK CU1SC5AC2 SLP948

CYHM;2011-10-14 23:00;CYHM 142300Z 23009G16KT 7SM -SHRA FEW018 BKN039 OVC110 12/11 A2939 RMK CU2SC6AC1 SLP953

CYHM;2011-10-15 00:00;CYHM 150000Z 25022G30KT 15SM FEW025 BKN040 12/09 A2940 RMK CU2SC6 SLP958

CYHM;2011-10-15 01:00;CYHM 150100Z 26017G24KT 15SM BKN039 BKN090 11/08 A2942 RMK SC6AC2 SLP962

CYHM;2011-10-15 02:00;CYHM 150200Z 25017G24KT 15SM BKN037 BKN079 10/07 A2942 RMK SC5AC2 SLP963

CYHM;2011-10-15 03:00;CYHM 150300Z 25014G21KT 15SM FEW030 BKN083 10/06 A2942 RMK SC2AC4 SLP963

CYHM;2011-10-15 04:00;CYHM 150400Z 24013G18KT 15SM FEW027 FEW078 09/06 A2941 RMK SC1AC1 SLP962

CYHM;2011-10-15 05:00;CYHM 150500Z 23013G19KT 15SM FEW025 FEW080 08/05 A2941 RMK SC1AC1 SLP961

CYHM;2011-10-15 06:00;CYHM 150600Z 23013G19KT 15SM FEW025 FEW080 08/05 A2941 RMK SC1AC2 SLP961

CYHM;2011-10-15 07:00;CYHM 150700Z 23013KT 15SM SCT064 SCT210 08/05 A2941 RMK SC4CI1 SLP962

CYHM;2011-10-15 08:00;CYHM 150800Z 24015KT 15SM BKN059 09/05 A2940 RMK SC7 SLP959

CYHM;2011-10-15 09:00;CYHM 150900Z 24015G23KT 15SM FEW042 BKN059 08/04 A2941 RMK SC1SC4 SLP961

CYHM;2011-10-15 10:00;CYHM 151000Z 24018G24KT 15SM FEW050 FEW070 FEW090 08/04 A2939 RMK SC1AC1AC1 TR HIER AC SLP957

CYHM;2011-10-15 11:00;CYHM 151100Z 24016G26KT 15SM FEW025 FEW045 BKN088 08/04 A2938 RMK CU1SC1AC5 CB TOPS DSNT ESE SLP952

CYHM;2011-10-15 12:00;CYHM 151200Z 25017G24KT 15SM FEW021 SCT090 BKN130 08/05 A2937 RMK CU2AC1AC4 SLP950

CYHM;2011-10-15 13:00;CYHM 151300Z 24020G27KT 15SM BKN020 BKN110 08/05 A2938 RMK CU6AC1 SLP951

CYHM;2011-10-15 14:00;CYHM 151400Z 24020G30KT 15SM BKN023 OVC110 08/05 A2938 RMK SC7AC1 SLP953

CYHM;2011-10-15 15:00;CYHM 151500Z 25017G30KT 15SM OVC022 09/05 A2939 RMK SC8 SLP956

CYHM;2011-10-15 15:28;CYHM 151528Z 25020G35KT 15SM -SHRA OVC023 RMK SC8

CYHM;2011-10-15 16:00;CYHM 151600Z 24022G31KT 15SM -SHRA OVC022 09/05 A2941 RMK SC8 SLP961

CYHM;2011-10-15 17:00;CYHM 151700Z 24022G29KT 15SM -SHRA OVC020 08/06 A2942 RMK SC8 SLP965

CYHM;2011-10-15 18:00;CYHM 151800Z 25026G38KT 12SM BKN023 OVC035 08/05 A2944 RMK SC7SC1 SLP973

CYHM;2011-10-15 18:10;CYHM 151810Z 26021G33KT 10SM -SHRA BKN022 OVC034 RMK SC6SC2

CYHM;2011-10-15 19:00;CYHM 151900Z 25022G32KT 15SM -SHRA FEW014 BKN022 OVC034 08/06 A2946 RMK SF1SC5SC2 PCPN VRY LGT SLP978

CYHM;2011-10-15 19:41;CYHM 151941Z 26024G38KT 15SM BKN024 OVC037 RMK SC6SC2

CYHM;2011-10-15 20:00;CYHM 152000Z 25019G31KT 15SM BKN024 OVC035 09/05 A2949 RMK SC6SC2 SLP988

CYHM;2011-10-15 21:00;CYHM 152100Z 25024G40KT 15SM SCT024 BKN034 OVC210 09/04 A2951 RMK SC3SC3CI2 SLP998

CYHM;2011-10-15 21:38;CYHM 152138Z 26023G38KT 15SM -SHRA FEW024 BKN034 OVC055 RMK SC2SC2SC3

CYHM;2011-10-15 22:00;CYHM 152200Z 26020G33KT 15SM FEW024 SCT034 OVC054 09/04 A2955 RMK SC2SC2SC5 SLP010

CYHM;2011-10-15 23:00;CYHM 152300Z 25017G26KT 15SM FEW025 BKN040 BKN075 09/03 A2958 RMK SC2SC3AC2 SLP020

CYHM;2011-10-16 00:00;CYHM 160000Z 25013G18KT 15SM FEW035 SCT055 BKN070 BKN092 09/04 A2961 RMK SC1SC2AC2AC2 SLP029

CYHM;2011-10-16 01:00;CYHM 160100Z 26014G24KT 15SM SCT044 BKN070 09/04 A2964 RMK SC3AC3 SLP040

CYHM;2011-10-16 02:00;CYHM 160200Z 26014KT 15SM FEW045 BKN069 10/04 A2966 RMK SC2AC5 SLP046

CYHM;2011-10-16 03:00;CYHM 160300Z 24014G20KT 15SM BKN067 10/03 A2966 RMK AC7 SLP048

CYHM;2011-10-16 04:00;CYHM 160400Z 23016G22KT 15SM BKN064 10/03 A2968 RMK SC7 SLP053

CYHM;2011-10-16 05:00;CYHM 160500Z 24015G20KT 15SM BKN056 09/03 A2969 RMK SC5 SLP058

CYHM;2011-10-16 06:00;CYHM 160600Z 24013G21KT 15SM FEW053 08/03 A2971 RMK SC2 SLP066

CYHM;2011-10-16 07:00;CYHM 160700Z 24013G19KT 15SM SCT058 08/03 A2972 RMK SC4 SLP070

CYHM;2011-10-16 08:00;CYHM 160800Z 24014G19KT 15SM SCT057 09/04 A2973 RMK SC3 SLP071

CYHM;2011-10-16 09:00;CYHM 160900Z 24014KT 15SM FEW057 BKN240 09/04 A2974 RMK SC2CI3 SLP076

CYHM;2011-10-16 10:00;CYHM 161000Z 24014KT 15SM FEW150 BKN200 09/04 A2974 RMK AC1CI3 SLP075

CYHM;2011-10-16 11:00;CYHM 161100Z 24014G22KT 15SM FEW030 BKN120 10/04 A2975 RMK SC1AC7 SLP078

CYHM;2011-10-16 12:00;CYHM 161200Z 24016G24KT 15SM FEW030 BKN110 10/04 A2975 RMK SC1AC7 SLP077

CYHM;2011-10-16 13:00;CYHM 161300Z 23016KT 15SM BKN078 BKN120 11/05 A2975 RMK AC6AC2 SLP076

CYHM;2011-10-16 14:00;CYHM 161400Z 24016G24KT 15SM BKN070 12/05 A2974 RMK AC7 VIRGA SLP074

CYHM;2011-10-16 14:17;CYHM 161417Z 23020G28KT 15SM -SHRA FEW051 BKN070 RMK SC2AC6

CYHM;2011-10-16 15:00;CYHM 161500Z 23027G32KT 15SM -SHRA BKN046 OVC070 12/06 A2974 RMK SC6AC2 SLP075

CYHM;2011-10-16 16:00;CYHM 161600Z CCA 23015G23KT 15SM -SHRA FEW028 BKN048 OVC068 11/08 A2972 RMK CU2SC4AC2 SLP069

CYHM;2011-10-16 17:00;CYHM 161700Z 23018G28KT 15SM -SHRA BKN018 OVC050 11/09 A2970 RMK CU6SC2 SLP060

CYHM;2011-10-16 18:00;CYHM 161800Z 22018KT 15SM -SHRA BKN016 OVC053 11/09 A2965 RMK SC6SC2 PCPN VRY LGT SLP045

CYHM;2011-10-16 19:00;CYHM 161900Z 21012KT 6SM -SHRA BR FEW012 BKN032 OVC044 10/09 A2963 RMK CF2SC3SC2 SLP036

CYHM;2011-10-16 19:32;CYHM 161932Z 20011G16KT 12SM FEW012 SCT028 OVC037 RMK CF2SC2SC4

CYHM;2011-10-16 20:00;CYHM 162000Z 21011KT 15SM FEW012 FEW025 BKN035 BKN070 11/10 A2960 RMK CF1SC2SC4AC1 SLP028

CYHM;2011-10-16 21:00;CYHM 162100Z 22011G18KT 15SM SCT018 BKN050 12/10 A2959 RMK CU3SC2 SLP021

CYHM;2011-10-16 22:00;CYHM 162200Z 22012G17KT 15SM FEW020 SCT050 SCT120 12/09 A2957 RMK CU2SC2AC1 SLP017

CYHM;2011-10-16 23:00;CYHM 162300Z 22009KT 15SM FEW040 SCT055 10/07 A2957 RMK SC2SC2 SLP017

CYHM;2011-10-16 23:45;CYHM 162345Z 29010KT 15SM -SHRA FEW016 BKN045 BKN075 RMK SC2SC3AC1

CYHM;2011-10-17 00:00;CYHM 170000Z 26007KT 15SM FEW016 SCT042 BKN075 10/08 A2960 RMK SC1SC3AC1 SLP026

CYHM;2011-10-17 01:00;CYHM 170100Z 25009KT 15SM FEW045 FEW100 10/07 A2961 RMK SC1AC1 AC TR SLP030

CYHM;2011-10-17 02:00;CYHM 170200Z 24009KT 15SM SKC 09/07 A2962 RMK SLP033

CYHM;2011-10-17 03:00;CYHM 170300Z 24010KT 15SM SKC 09/06 A2963 RMK SLP037

CYHM;2011-10-17 04:00;CYHM 170400Z 24013KT 15SM SKC 09/05 A2964 RMK SLP040

CYHM;2011-10-17 05:00;CYHM 170500Z 24013KT 15SM SKC 08/03 A2964 RMK SLP039

CYHM;2011-10-17 06:00;CYHM 170600Z 25013KT 15SM SKC 08/03 A2964 RMK SLP039

CYHM;2011-10-17 07:00;CYHM 170700Z 24010KT 15SM SKC 08/03 A2963 RMK SLP038

CYHM;2011-10-17 08:00;CYHM 170800Z 23014KT 15SM SKC 08/02 A2962 RMK SLP032

CYHM;2011-10-17 09:00;CYHM 170900Z 24014KT 15SM SKC 08/02 A2962 RMK SLP035

CYHM;2011-10-17 10:00;CYHM 171000Z 24013KT 15SM SKC 08/02 A2963 RMK SLP037

CYHM;2011-10-17 11:00;CYHM 171100Z 24017G22KT 15SM FEW220 08/02 A2963 RMK CI1 SLP038

CYHM;2011-10-17 12:00;CYHM 171200Z 24017G25KT 15SM FEW025 FEW220 08/02 A2963 RMK SC1CI1 CI TR SLP037

CYHM;2011-10-17 13:00;CYHM 171300Z 25017G25KT 15SM FEW025 FEW220 09/02 A2964 RMK SC1CI1 TR CU ASOCTD SE CI TR SLP042

CYHM;2011-10-17 14:00;CYHM 171400Z 24020G29KT 15SM FEW025 FEW240 10/02 A2964 RMK CU1CI1 CU TR SE CI TR SLP042

CYHM;2011-10-17 15:00;CYHM 171500Z 24020G30KT 15SM FEW032 SCT220 11/02 A2964 RMK CU2CI1 SLP041

CYHM;2011-10-17 16:00;CYHM 171600Z 24021G30KT 15SM SCT042 BKN050 11/02 A2963 RMK CU4SC2 SLP038

CYHM;2011-10-17 17:00;CYHM 171700Z 23024G32KT 15SM SCT045 BKN055 13/02 A2962 RMK CU4SC2 SLP035

CYHM;2011-10-17 18:00;CYHM 171800Z 24023G33KT 15SM SCT048 13/03 A2961 RMK CU4 SLP029

CYHM;2011-10-17 19:00;CYHM 171900Z 23018G32KT 15SM SCT047 13/03 A2960 RMK CU4 SLP028

CYHM;2011-10-17 20:00;CYHM 172000Z 23018G29KT 15SM BKN042 13/04 A2960 RMK CU6 SC ASOCTD SLP028

CYHM;2011-10-17 21:00;CYHM 172100Z 25019G28KT 15SM BKN057 13/03 A2962 RMK SC7 SLP033

CYHM;2011-10-17 22:00;CYHM 172200Z 24016G24KT 15SM BKN065 13/03 A2962 RMK SC7 SLP035

CYHM;2011-10-17 23:00;CYHM 172300Z 22012KT 15SM BKN068 12/04 A2964 RMK AC7 SLP039

CYHM;2011-10-18 00:00;CYHM 180000Z 23010KT 15SM BKN068 11/04 A2966 RMK AC7 SLP046

CYHM;2011-10-18 01:00;CYHM 180100Z 25010G17KT 15SM BKN066 12/03 A2967 RMK AC7 SLP051

CYHM;2011-10-18 02:00;CYHM 180200Z 24013KT 15SM BKN061 12/03 A2970 RMK SC7 SLP059

CYHM;2011-10-18 03:00;CYHM 180300Z 31006KT 15SM OVC054 10/05 A2973 RMK SC8 SLP071

CYHM;2011-10-18 04:00;CYHM 180400Z 22004KT 15SM FEW044 OVC060 09/05 A2973 RMK SC2SC6 SLP072

CYHM;2011-10-18 05:00;CYHM 180500Z 19006KT 15SM SCT058 06/04 A2973 RMK SC2 SLP070

CYHM;2011-10-18 06:00;CYHM 180600Z 21007KT 15SM FEW056 07/03 A2972 RMK SC2 SLP069

CYHM;2011-10-18 07:00;CYHM 180700Z 23008KT 15SM BKN060 08/03 A2973 RMK SC6 SLP070

CYHM;2011-10-18 08:00;CYHM 180800Z 23007KT 15SM BKN062 08/02 A2972 RMK SC6 SLP069

CYHM;2011-10-18 09:00;CYHM 180900Z 25007KT 15SM FEW058 BKN250 06/02 A2974 RMK SC2CI0 SLP074

CYHM;2011-10-18 10:00;CYHM 181000Z 25006KT 15SM FEW056 SCT250 05/02 A2975 RMK SC1CI1 HALO SLP076

CYHM;2011-10-18 11:00;CYHM 181100Z 23006KT 15SM FEW055 FEW220 04/02 A2976 RMK SC1CI1 SLP081

CYHM;2011-10-18 12:00;CYHM 181200Z 24006KT 15SM FEW058 SCT240 05/02 A2977 RMK SC1CI2 SLP084

CYHM;2011-10-18 13:00;CYHM 181300Z 23006KT 15SM FEW060 FEW160 BKN220 06/03 A2979 RMK SC1AC2CI2 SLP092

CYHM;2011-10-18 14:00;CYHM 181400Z 24008KT 15SM FEW060 SCT170 BKN220 08/05 A2980 RMK SC1AC2CI3 SLP096

CYHM;2011-10-18 15:00;CYHM 181500Z 23006KT 15SM FEW060 SCT160 BKN210 10/06 A2981 RMK SC1AC2CI3 SLP097

CYHM;2011-10-18 16:00;CYHM 181600Z 23006KT 15SM FEW100 SCT160 OVC210 12/06 A2981 RMK AC1AC2CI4 SLP099

CYHM;2011-10-18 17:00;CYHM 181700Z 25010G16KT 15SM FEW045 FEW100 SCT180 BKN220 13/03 A2981 RMK CU1AC2AC2CI2 SLP098

CYHM;2011-10-18 18:00;CYHM 181800Z 22008G15KT 15SM FEW045 SCT100 BKN170 14/04 A2979 RMK CU2AC2AC2 SLP092

CYHM;2011-10-18 19:00;CYHM 181900Z 25013KT 15SM FEW048 FEW150 OVC250 14/02 A2980 RMK SC1AC2CS5 SUN DMLY VSBL SLP094

CYHM;2011-10-18 20:00;CYHM 182000Z 27007KT 15SM FEW048 OVC130 14/03 A2981 RMK SC1AC6 SUN DMLY VSBL SLP096

CYHM;2011-10-18 21:00;CYHM 182100Z 29005KT 15SM FEW054 OVC130 13/03 A2980 RMK SC1AC6 SLP095

CYHM;2011-10-18 22:00;CYHM 182200Z 28005KT 15SM FEW070 OVC110 12/04 A2983 RMK AC2AC6 SLP104

CYHM;2011-10-18 23:00;CYHM 182300Z 18004KT 15SM BKN070 OVC120 11/04 A2984 RMK AC7AC1 SLP108

CYHM;2011-10-19 00:00;CYHM 190000Z 16005KT 15SM -SHRA OVC078 11/07 A2982 RMK AC8 SLP104

CYHM;2011-10-19 01:00;CYHM 190100Z 25004KT 15SM -SHRA BKN083 OVC120 10/07 A2985 RMK AC6AC2 SLP112

CYHM;2011-10-19 02:00;CYHM 190200Z 05002KT 15SM BKN078 OVC130 09/08 A2984 RMK AC6AC2 SLP110

CYHM;2011-10-19 03:00;CYHM 190300Z 03005KT 15SM OVC078 09/08 A2983 RMK AC8 SLP106

CYHM;2011-10-19 04:00;CYHM 190400Z 32005KT 15SM SCT060 OVC076 09/08 A2986 RMK SC3AC5 SLP115

CYHM;2011-10-19 05:00;CYHM 190500Z 04009KT 15SM FEW064 BKN110 09/09 A2980 RMK SC2AC2 SLP094

CYHM;2011-10-19 06:00;CYHM 190600Z 03012KT 12SM FEW004 SCT064 BKN140 09/08 A2978 RMK SF1SC2AC2 SLP089

CYHM;2011-10-19 07:00;CYHM 190700Z 04013KT 5SM BR BKN004 OVC013 09/08 A2977 RMK SF6SC2 SLP085

CYHM;2011-10-19 08:00;CYHM 190800Z 06008KT 3SM -SHRA BR BKN004 OVC022 08/08 A2979 RMK SF6SC2 SLP091

CYHM;2011-10-19 09:00;CYHM 190900Z 05016G26KT 5SM -SHRA BR BKN004 OVC044 08/08 A2976 RMK SF7SC1 SLP081

CYHM;2011-10-19 09:29;CYHM 190929Z 05020G27KT 15SM BKN006 BKN011 OVC020 RMK SF5SC2SC1

CYHM;2011-10-19 10:00;CYHM 191000Z 04016G23KT 15SM BKN005 BKN010 OVC018 09/08 A2976 RMK SF5SC2SC2 SLP082

CYHM;2011-10-19 11:00;CYHM 191100Z 04022G30KT 7SM -SHRA SCT007 BKN015 BKN042 OVC080 08/07 A2972 RMK SF3SC2SC2AC1 SLP068

CYHM;2011-10-19 11:37;CYHM 191137Z 04021G31KT 10SM FEW008 BKN013 OVC022 RMK SF2SC4SC2

CYHM;2011-10-19 12:00;CYHM 191200Z 05019G27KT 15SM BKN012 OVC018 08/07 A2971 RMK SC6SC2 CU ASOCTD SLP065

CYHM;2011-10-19 13:00;CYHM 191300Z 05020G28KT 15SM BKN010 OVC015 10/09 A2972 RMK SC6SC2 SLP067

CYHM;2011-10-19 14:00;CYHM 191400Z 05021G29KT 15SM OVC009 10/09 A2971 RMK SC8 SLP065

CYHM;2011-10-19 14:35;CYHM 191435Z 05017G30KT 15SM -SHRA BKN009 OVC016 RMK SC6SC2

CYHM;2011-10-19 15:00;CYHM 191500Z 05023G31KT 15SM -SHRA OVC011 10/08 A2969 RMK SC8 SLP058

CYHM;2011-10-19 15:03;CYHM 191503Z 05021G31KT 1 1/2SM -SHRA BR OVC010 RMK FG2SC6

CYHM;2011-10-19 15:12;CYHM 191512Z 05022G30KT 2SM -SHRA BR OVC010 RMK SC8

CYHM;2011-10-19 15:32;CYHM 191532Z 04022G30KT 4SM -SHRA BR SCT007 BKN010 BKN038 OVC067 RMK SF3SC2SC2AC1

CYHM;2011-10-19 16:00;CYHM 191600Z 05021G30KT 8SM -SHRA BKN008 OVC012 09/09 A2971 RMK SF6SC2 SLP063

CYHM;2011-10-19 16:55;CYHM 191655Z 04022G30KT 15SM BKN007 OVC010 RMK SF6SC2

CYHM;2011-10-19 17:00;CYHM 191700Z 04023G30KT 10SM OVC007 09/08 A2964 RMK SF8 SLP040

CYHM;2011-10-19 18:00;CYHM 191800Z 04021G30KT 5SM BR OVC004 09/09 A2961 RMK SF8 SLP029

CYHM;2011-10-19 19:00;CYHM 191900Z 04022KT 10SM OVC004 10/09 A2959 RMK SF8 SLP023

CYHM;2011-10-19 19:12;CYHM 191912Z 05021KT 10SM OVC007 RMK SF8

CYHM;2011-10-19 20:00;CYHM 192000Z 04024G30KT 8SM -SHRA OVC008 10/09 A2955 RMK SC8 PRESFR SLP010

CYHM;2011-10-19 21:00;CYHM 192100Z 05024G33KT 2SM SHRA BR OVC007 10/10 A2952 RMK FG1SC7 PRESFR SLP000

CYHM;2011-10-19 22:00;CYHM 192200Z 05026G33KT 1 1/2SM SHRA BR OVC004 10/10 A2950 RMK FG2SF6 VIS VRB 1 - 2 SLP993

CYHM;2011-10-19 23:00;CYHM 192300Z 05027G40KT 3SM -SHRA BR OVC006 10/10 A2946 RERA RMK SF8 VIS VRB 2 - 4 PRESFR CIG RAG SLP979

CYHM;2011-10-20 00:00;CYHM 200000Z 05032G40KT 4SM -SHRA BR OVC003 10/10 A2943 RMK SF8 PRESFR CIG RAG SLP970

CYHM;2011-10-20 00:17;CYHM 200017Z 05030G42KT 1 1/2SM -SHRA BR OVC004 RMK FG2SF6 VIS VRB 1 - 2

CYHM;2011-10-20 00:22;CYHM 200022Z 05030G42KT 1 1/2SM -SHRA BR OVC006 RMK FG2SF6 VIS VRB 1 - 2 CIG RAG

CYHM;2011-10-20 00:37;CYHM 200037Z 05033G42KT 4SM -SHRA BR OVC007 RMK SF8

CYHM;2011-10-20 01:00;CYHM 200100Z 05032G42KT 6SM -SHRA BR OVC006 09/09 A2940 RMK SF8 CIG RAG SLP960

CYHM;2011-10-20 02:00;CYHM 200200Z 05030G40KT 6SM -SHRA BR OVC005 10/10 A2938 RERA RMK SF8 CIG RAG SLP952

CYHM;2011-10-20 02:30;CYHM 200230Z 05029G40KT 1 1/2SM -SHRA BR OVC002 RERA RMK FG2SF6 VIS VRB 1 - 2

CYHM;2011-10-20 03:00;CYHM 200300Z 05025G38KT 4SM -SHRA BR FEW003 OVC006 10/10 A2934 RERA RMK SF2SF6 TCU EMBDD CIG RAG SLP937

CYHM;2011-10-20 03:19;CYHM 200319Z 05026G37KT 1 1/2SM -SHRA BR OVC002 RERA RMK FG2SF6 VIS VRB 1 - 2

CYHM;2011-10-20 03:44;CYHM 200344Z 05030G39KT 5SM -SHRA BR BKN005 OVC030 RMK SF7SC1

CYHM;2011-10-20 04:00;CYHM 200400Z 05031G41KT 2SM -SHRA BR OVC004 10/10 A2928 RMK FG1SF7 CIG RAG PRESFR SLP919

CYHM;2011-10-20 04:08;CYHM 200408Z 04026G41KT 4SM -SHRA BR OVC007 RMK SF8 CIG RAG

CYHM;2011-10-20 04:13;CYHM 200413Z 05032G42KT 1SM +SHRA BR OVC003 RMK RA2SF6 TCU EMBDD VIS VRB 3/4 - 11/4 PRESFR

CYHM;2011-10-20 05:00;CYHM 200500Z 05028G40KT 1 1/2SM SHRA BR OVC004 10/10 A2925 RMK FG2SF6 CIG RAG VIS VRB 1 - 2 SLP908

CYHM;2011-10-20 06:00;CYHM 200600Z 05022G31KT 1 1/2SM SHRA BR OVC003 10/10 A2924 RERA RMK FG2SF6 VIS VRB 1 - 2 /R48/ SLP903

CYHM;2011-10-20 06:33;CYHM 200633Z 05021G29KT 4SM SHRA BR OVC005 RMK SF8 CIG RAG

CYHM;2011-10-20 07:00;CYHM 200700Z 06021G29KT 1 1/2SM -SHRA BR OVC003 10/10 A2922 RERA RMK FG2SF6 VIS VRB 1 - 2 SLP897

CYHM;2011-10-20 08:00;CYHM 200800Z 03010KT 1 1/2SM -SHRA BR OVC002 10/10 A2920 RMK FG2SF6 VIS VRB 1 - 2 SLP890

CYHM;2011-10-20 09:00;CYHM 200900Z 06007KT 1 1/2SM SHRA BR OVC002 10/10 A2920 RMK FG2SF6 VIS VRB 1 - 2 SLP891

CYHM;2011-10-20 09:34;CYHM 200934Z 16002KT 5SM -SHRA BR BKN006 OVC015 RERA RMK SF6SC2

CYHM;2011-10-20 09:53;CYHM 200953Z 24005KT 12SM -SHRA FEW003 SCT010 BKN022 OVC100 RMK SF1SC3SC2AC2

CYHM;2011-10-20 10:00;CYHM 201000Z 20006KT 15SM -SHRA FEW003 BKN012 OVC020 11/11 A2919 RMK SF2SC5SC2 SLP886

CYHM;2011-10-20 11:00;CYHM 201100Z 20015G23KT 15SM -SHRA SCT012 OVC016 11/10 A2919 RMK SC4SC4 PCPN VERY LGT SLP887

CYHM;2011-10-20 11:31;CYHM 201131Z 20015G20KT 15SM FEW016 OVC022 RMK SC2SC6

CYHM;2011-10-20 12:00;CYHM 201200Z 20015G22KT 15SM OVC025 10/08 A2920 RMK SC8 SLP891

CYHM;2011-10-20 13:00;CYHM 201300Z 20010G18KT 15SM FEW023 OVC029 10/07 A2922 RMK SC2SC6 SLP896

CYHM;2011-10-20 14:00;CYHM 201400Z 20013G19KT 15SM FEW022 OVC027 10/07 A2922 RMK CU1SC7 SLP898

CYHM;2011-10-20 15:00;CYHM 201500Z 20017G27KT 15SM FEW017 FEW032 BKN060 BKN082 10/08 A2923 RMK CU2SC1SC2AC1 SLP900

CYHM;2011-10-20 16:00;CYHM 201600Z 19019G24KT 15SM BKN015 OVC044 09/07 A2925 RMK SC6SC2 CU ASOCTD SLP908

CYHM;2011-10-20 16:18;CYHM 201618Z 20016G22KT 15SM -SHRA BKN013 OVC030 RMK SC6SC2

CYHM;2011-10-20 17:00;CYHM 201700Z 20017G24KT 15SM BKN015 OVC022 09/07 A2926 RMK SC6SC2 SLP910

CYHM;2011-10-20 17:17;CYHM 201717Z 20016G25KT 15SM -SHRA FEW013 BKN028 OVC036 RMK CU2SC5SC2

CYHM;2011-10-20 18:00;CYHM 201800Z 20016G25KT 15SM -SHRA BKN017 OVC027 09/07 A2927 RMK SC5SC3 CU ASOCTD PCPN VRY LGT SLP914

CYHM;2011-10-20 19:00;CYHM 201900Z 19017KT 15SM FEW018 OVC028 09/05 A2928 RMK SC1SC7 PCPN VRY LGT SLP918

CYHM;2011-10-20 20:00;CYHM 202000Z CCA 20019G25KT 15SM -SHRA OVC025 09/05 A2929 RMK SC8 PCPN VRY LGT SLP923

CYHM;2011-10-20 21:00;CYHM 202100Z CCA 20015G21KT 15SM -SHRA BKN023 OVC032 08/05 A2933 RMK SC6SC2 SLP935

CYHM;2011-10-20 22:00;CYHM 202200Z 20011G17KT 15SM -SHRA SCT014 OVC029 07/06 A2936 RMK SC4SC4 SLP944

CYHM;2011-10-20 23:00;CYHM 202300Z 19009KT 15SM -SHRA FEW009 SCT027 BKN072 07/06 A2936 RMK SC2SC2AC4 SLP947

CYHM;2011-10-20 23:27;CYHM 202327Z 18006KT 15SM -SHRA BKN009 OVC072 RMK SC6AC2

CYHM;2011-10-21 00:00;CYHM 210000Z 16005KT 15SM -SHRA FEW009 OVC065 07/07 A2937 RMK SC2SC6 SLP949

CYHM;2011-10-21 01:00;CYHM 210100Z 36003KT 15SM -SHRA OVC065 07/07 A2938 RMK SC8 SLP952

CYHM;2011-10-21 02:00;CYHM 210200Z 27003KT 15SM -SHRA FEW034 BKN051 OVC070 07/07 A2941 RMK SC2SC4AC2 SLP962

CYHM;2011-10-21 02:30;CYHM 210230Z 24003KT 15SM -SHRA FEW003 BKN019 OVC040 RMK CF1SC5SC2

CYHM;2011-10-21 02:45;CYHM 210245Z 23004KT 15SM -SHRA FEW002 BKN011 OVC043 RMK CF1SC5SC2

CYHM;2011-10-21 03:00;CYHM 210300Z 21004KT 15SM -SHRA FEW002 OVC009 08/08 A2944 RMK CF2SC6 SLP973

CYHM;2011-10-21 03:13;CYHM 210313Z 22008KT 4SM -SHRA BR BKN002 OVC007 RMK CF6SC2

CYHM;2011-10-21 03:33;CYHM 210333Z 23010KT 7SM -SHRA OVC004 RMK CF8

CYHM;2011-10-21 04:00;CYHM 210400Z 24016KT 8SM -SHRA OVC005 08/08 A2946 RMK CF8 SLP979

CYHM;2011-10-21 05:00;CYHM 210500Z 24015G21KT 2 1/2SM -SHRA BR OVC005 08/08 A2949 RMK CF8 SLP991

CYHM;2011-10-21 06:00;CYHM 210600Z 24017G24KT 5SM -SHRA BR OVC004 07/07 A2953 RMK CF8 SLP005

CYHM;2011-10-21 07:00;CYHM 210700Z 25013G19KT 8SM -SHRA BKN005 OVC011 07/07 A2957 RMK CF7SC1 SLP018

CYHM;2011-10-21 07:20;CYHM 210720Z 24013KT 9SM BKN006 OVC014 RMK CF6SC2

CYHM;2011-10-21 08:00;CYHM 210800Z 25011KT 15SM BKN009 OVC076 08/07 A2960 RMK CF7AC1 SLP028

CYHM;2011-10-21 08:25;CYHM 210825Z 26011KT 15SM BKN014 BKN074 RMK SC6AC2

CYHM;2011-10-21 09:00;CYHM 210900Z 24013KT 15SM SCT012 BKN078 07/07 A2964 RMK SC3AC4 SLP040

CYHM;2011-10-21 10:00;CYHM 211000Z 24013KT 15SM FEW008 BKN014 BKN071 07/06 A2967 RMK CF1SC4AC2 SLP052

CYHM;2011-10-21 11:00;CYHM 211100Z 24012KT 15SM FEW010 BKN016 OVC022 07/06 A2971 RMK SF2SC4SC2 SLP063

CYHM;2011-10-21 12:00;CYHM 211200Z CCA 24013KT 15SM FEW015 BKN020 BKN075 07/06 A2974 RMK SC2SC4AC1 SLP077

CYHM;2011-10-21 13:00;CYHM 211300Z 25012G18KT 15SM FEW009 BKN017 OVC025 07/06 A2978 RMK SF2SC4SC2 SLP089

CYHM;2011-10-21 14:00;CYHM 211400Z 26013G20KT 15SM FEW016 BKN022 OVC077 08/05 A2980 RMK CF2SC4AC2 SLP096

CYHM;2011-10-21 15:00;CYHM 211500Z 28014G21KT 15SM FEW021 BKN030 OVC077 08/05 A2982 RMK SC2SC4AC2 SLP104

CYHM;2011-10-21 16:00;CYHM 211600Z 26010G16KT 15SM FEW020 SCT035 BKN078 09/05 A2984 RMK CU2SC2AC3 SLP111

CYHM;2011-10-21 17:00;CYHM 211700Z 26010G16KT 15SM BKN038 OVC050 09/05 A2986 RMK SC6SC2 SLP116

CYHM;2011-10-21 17:29;CYHM 211729Z 28016G23KT 10SM -SHRA FEW016 BKN026 OVC075 RMK SC2SC5AC1

CYHM;2011-10-21 18:00;CYHM 211800Z 26010G15KT 15SM -SHRA FEW024 BKN039 OVC048 09/07 A2987 RMK SC2SC5SC2 PCPN VRY LGT CU ASOCTD SLP120

CYHM;2011-10-21 19:00;CYHM 211900Z 26010KT 15SM FEW013 BKN039 BKN063 08/07 A2989 RMK CU1SC5SC2 SLP127

CYHM;2011-10-21 19:27;CYHM 211927Z 26014G19KT 15SM -SHRA BKN018 OVC040 RMK SC6SC2 CU ASOCTD

CYHM;2011-10-21 20:00;CYHM 212000Z 27011G16KT 15SM FEW013 BKN035 BKN093 08/07 A2991 RMK SC2SC4AC2 CU ASOCTD SLP133

CYHM;2011-10-21 21:00;CYHM 212100Z 28013G18KT 15SM -SHRA FEW013 OVC039 08/06 A2994 RMK CU2SC6 SLP142

CYHM;2011-10-21 22:00;CYHM 212200Z 28008G17KT 15SM -SHRA FEW016 OVC040 08/05 A2995 RMK CU2SC6 PCPN VRY LGT SLP148

CYHM;2011-10-21 23:00;CYHM 212300Z 28009G17KT 15SM FEW018 BKN037 BKN076 07/05 A2998 RMK CU1SC5AC2 SLP156

CYHM;2011-10-22 00:00;CYHM 220000Z 25006KT 15SM FEW015 BKN040 OVC075 07/05 A3000 RMK CU1SC6AC2 SLP163

CYHM;2011-10-22 01:00;CYHM 220100Z 25007KT 15SM BKN038 BKN072 07/05 A3001 RMK SC6AC2 FEW CU SLP168

CYHM;2011-10-22 02:00;CYHM 220200Z 26007KT 15SM BKN035 BKN070 07/05 A3003 RMK SC6AC1 SLP173

CYHM;2011-10-22 03:00;CYHM 220300Z 24006KT 15SM FEW020 OVC037 07/05 A3003 RMK CF1SC7 SLP175

CYHM;2011-10-22 04:00;CYHM 220400Z 24007KT 15SM FEW025 OVC038 06/05 A3003 RMK CF1SC7 SLP175

CYHM;2011-10-22 05:00;CYHM 220500Z 25007KT 15SM BKN040 06/04 A3004 RMK SC7 SLP176

CYHM;2011-10-22 06:00;CYHM 220600Z 24006KT 15SM OVC039 06/04 A3004 RMK SC8 SLP177

CYHM;2011-10-22 07:00;CYHM 220700Z 23006KT 15SM OVC040 06/04 A3004 RMK SC8 SLP179

CYHM;2011-10-22 08:00;CYHM 220800Z 23005KT 15SM OVC037 06/04 A3004 RMK SC8 SLP178

CYHM;2011-10-22 09:00;CYHM 220900Z 22006KT 15SM OVC039 06/04 A3004 RMK SC8 SLP180

CYHM;2011-10-22 10:00;CYHM 221000Z 23005KT 15SM OVC039 06/04 A3005 RMK SC8 SLP182

CYHM;2011-10-22 11:00;CYHM 221100Z 24005KT 15SM BKN038 06/03 A3006 RMK SC7 SLP185

CYHM;2011-10-22 12:00;CYHM 221200Z 24005KT 15SM BKN038 06/03 A3007 RMK SC7 SLP188

CYHM;2011-10-22 13:00;CYHM 221300Z 26005KT 15SM BKN039 BKN150 06/03 A3008 RMK SC6AC1 SLP192

CYHM;2011-10-22 14:00;CYHM 221400Z 26011KT 15SM BKN039 BKN150 09/02 A3008 RMK SC6AC1 SLP191

CYHM;2011-10-22 15:00;CYHM 221500Z 26007KT 15SM BKN034 08/01 A3008 RMK SC7 SLP193

CYHM;2011-10-22 16:00;CYHM 221600Z 26009KT 15SM BKN037 09/03 A3008 RMK SC7 SLP192

CYHM;2011-10-22 17:00;CYHM 221700Z 28010G15KT 15SM BKN037 09/03 A3007 RMK SC7 SLP188

CYHM;2011-10-22 18:00;CYHM 221800Z 27010KT 15SM BKN037 09/02 A3006 RMK SC7 SLP185

CYHM;2011-10-22 19:00;CYHM 221900Z 28009KT 15SM BKN037 09/02 A3007 RMK SC7 SLP187

CYHM;2011-10-22 20:00;CYHM 222000Z 28009KT 15SM BKN038 09/03 A3006 RMK SC7 SLP186

CYHM;2011-10-22 21:00;CYHM 222100Z 29007KT 15SM FEW030 BKN039 09/02 A3007 RMK CU1SC7 CU TR SLP187

CYHM;2011-10-22 22:00;CYHM 222200Z 30004KT 15SM FEW038 SCT150 BKN250 07/02 A3007 RMK SC2AC1CI2 SLP189

CYHM;2011-10-22 23:00;CYHM 222300Z 34003KT 15SM FEW038 FEW180 BKN220 06/01 A3008 RMK SC2AC1CI2 SLP191

CYHM;2011-10-23 00:00;CYHM 230000Z 07002KT 15SM FEW038 FEW180 BKN220 05/02 A3008 RMK SC1AC1CI2 SLP193

CYHM;2011-10-23 01:00;CYHM 230100Z 19002KT 15SM FEW180 BKN230 04/02 A3008 RMK AC2CI2 SLP193

CYHM;2011-10-23 02:00;CYHM 230200Z 00000KT 15SM SCT190 BKN230 04/02 A3009 RMK AC3CI2 SLP195

CYHM;2011-10-23 03:00;CYHM 230300Z 15002KT 15SM BKN190 04/02 A3009 RMK AC4 SLP195

CYHM;2011-10-23 04:00;CYHM 230400Z 15002KT 15SM BKN150 03/02 A3007 RMK AC5 SLP191

CYHM;2011-10-23 05:00;CYHM 230500Z 00000KT 15SM FEW150 BKN220 04/02 A3007 RMK AC1CI2 SLP190

CYHM;2011-10-23 06:00;CYHM 230600Z 17002KT 15SM FEW240 03/02 A3007 RMK CI1 SLP187

CYHM;2011-10-23 07:00;CYHM 230700Z 00000KT 15SM FEW210 03/01 A3006 RMK CI2 SLP184

CYHM;2011-10-23 08:00;CYHM 230800Z 13002KT 15SM FEW210 03/01 A3005 RMK CI2 SLP182

CYHM;2011-10-23 09:00;CYHM 230900Z 11002KT 15SM FEW210 02/01 A3004 RMK CI1 FROIN SLP180

CYHM;2011-10-23 10:00;CYHM 231000Z 07003KT 15SM FEW170 FEW210 01/01 A3005 RMK AC1CI1 FROIN SLP183

CYHM;2011-10-23 11:00;CYHM 231100Z 10005KT 15SM FEW019 BKN032 02/02 A3006 RMK CU2SC4 SLP185

CYHM;2011-10-23 12:00;CYHM 231200Z 11003KT 15SM FEW019 FEW170 04/02 A3007 RMK CU2AC1 SLP190

CYHM;2011-10-23 13:00;CYHM 231300Z 00000KT 15SM FEW025 06/05 A3007 RMK SC1 CU ASOCTD SLP192

CYHM;2011-10-23 14:00;CYHM 231400Z 20009KT 12SM SKC 09/08 A3008 RMK SLP193

CYHM;2011-10-23 15:00;CYHM 231500Z CCA 20009KT 15SM FEW012 FEW250 12/09 A3007 RMK CU1CI1 CI TR SLP186

CYHM;2011-10-23 16:00;CYHM 231600Z 22006KT 15SM BKN017 13/09 A3006 RMK CU5 SLP184

CYHM;2011-10-23 17:00;CYHM 231700Z 21007KT 15SM BKN028 BKN042 13/08 A3004 RMK CU5SC2 SLP178

CYHM;2011-10-23 18:00;CYHM 231800Z 19010KT 15SM FEW032 FEW042 BKN110 14/07 A3003 RMK CU1SC2AC5 SLP173

CYHM;2011-10-23 19:00;CYHM 231900Z 20011KT 15SM FEW034 BKN044 BKN110 14/05 A3001 RMK CU2SC3AC2 SLP169

CYHM;2011-10-23 20:00;CYHM 232000Z 18013KT 15SM FEW034 FEW044 BKN110 13/05 A3001 RMK CU1SC1AC3 SLP166

CYHM;2011-10-23 21:00;CYHM 232100Z 19014KT 15SM FEW045 SCT110 SCT220 13/04 A3000 RMK SC1AC2CI1 SLP163

CYHM;2011-10-23 22:00;CYHM 232200Z 18009KT 15SM FEW045 SCT075 BKN100 12/04 A2999 RMK SC2AC2AC2 SLP162

CYHM;2011-10-23 23:00;CYHM 232300Z 17007KT 15SM FEW045 BKN075 BKN100 11/05 A2999 RMK SC1AC5AC2 SLP162

CYHM;2011-10-24 00:00;CYHM 240000Z 17006KT 15SM FEW075 BKN100 10/05 A2999 RMK AC2AC5 SLP160

CYHM;2011-10-24 01:00;CYHM 240100Z 16006KT 15SM FEW077 BKN100 09/05 A2999 RMK AC2AC4 SLP160

CYHM;2011-10-24 02:00;CYHM 240200Z 16009KT 15SM SCT070 BKN100 10/07 A2998 RMK AC3AC4 SLP159

CYHM;2011-10-24 03:00;CYHM 240300Z 17007KT 15SM FEW070 SCT100 10/07 A2997 RMK AC2AC2 SLP154

CYHM;2011-10-24 04:00;CYHM 240400Z 19009KT 15SM FEW070 FEW100 11/06 A2996 RMK AC1AC1 SLP148

CYHM;2011-10-24 05:00;CYHM 240500Z 19011KT 15SM FEW080 FEW100 11/06 A2995 RMK AC1AC1 SLP145

CYHM;2011-10-24 06:00;CYHM 240600Z 19011KT 15SM FEW074 BKN210 11/07 A2994 RMK AC1CS3 SLP140

CYHM;2011-10-24 07:00;CYHM 240700Z 19011KT 15SM FEW074 SCT220 10/07 A2991 RMK AC1CI1 AC TR SLP133

CYHM;2011-10-24 08:00;CYHM 240800Z 19009KT 15SM SCT220 10/07 A2989 RMK CI1 SLP125

CYHM;2011-10-24 09:00;CYHM 240900Z 19011KT 15SM FEW220 10/07 A2988 RMK CI1 SLP119

CYHM;2011-10-24 10:00;CYHM 241000Z 18011KT 15SM SCT100 11/07 A2985 RMK AC3 SLP110

CYHM;2011-10-24 11:00;CYHM 241100Z 19012KT 15SM FEW050 BKN074 BKN100 11/07 A2983 RMK SC2AC4AC1 SLP104

CYHM;2011-10-24 12:00;CYHM 241200Z 20011KT 10SM -SHRA BKN017 OVC024 10/09 A2984 RMK SC6SC2 SLP110

CYHM;2011-10-24 12:10;CYHM 241210Z 22010KT 10SM -SHRA BKN017 OVC034 RMK SC6SC2

CYHM;2011-10-24 13:00;CYHM 241300Z 19008KT 10SM -SHRA SCT042 OVC057 10/10 A2985 RMK SC3SC5 SLP111

CYHM;2011-10-24 14:00;CYHM 241400Z 21009KT 6SM -SHRA BR SCT042 OVC053 10/10 A2986 RMK SC3SC5 SLP116

CYHM;2011-10-24 14:21;CYHM 241421Z 22011KT 10SM BKN044 OVC075 RMK SC6AC2

CYHM;2011-10-24 15:00;CYHM 241500Z 22010G15KT 10SM FEW015 BKN025 OVC038 11/09 A2987 RMK CU1SC6SC2 CU TR SLP119

CYHM;2011-10-24 16:00;CYHM 241600Z 23012KT 15SM FEW025 SCT034 BKN044 11/09 A2988 RMK CU1SC2SC4 SLP120

CYHM;2011-10-24 17:00;CYHM 241700Z 24018KT 15SM FEW022 SCT042 12/09 A2986 RMK CU1SC2 SLP115

CYHM;2011-10-24 18:00;CYHM 241800Z 24018KT 15SM FEW024 BKN044 13/08 A2985 RMK CU2SC3 TCU EMBDD SLP111

CYHM;2011-10-24 19:00;CYHM 241900Z 24016KT 15SM FEW026 SCT046 14/04 A2987 RMK SF1SC3 CU ASOCTD TCU EMBDD SLP116

CYHM;2011-10-24 20:00;CYHM 242000Z 24015KT 15SM FEW048 14/02 A2989 RMK CU2 TCU ASOCTD SLP123

CYHM;2011-10-24 21:00;CYHM 242100Z 25018G24KT 15SM FEW064 13/01 A2990 RMK CU2 TCU ASOCTD SLP129

CYHM;2011-10-24 22:00;CYHM 242200Z 25012G20KT 15SM SCT070 13/02 A2992 RMK AC3 SLP134

CYHM;2011-10-24 23:00;CYHM 242300Z 27007KT 15SM FEW070 11/03 A2995 RMK AC1 SLP144

CYHM;2011-10-25 00:00;CYHM 250000Z 26006KT 15SM FEW072 10/03 A2996 RMK AC1 SLP149

CYHM;2011-10-25 01:00;CYHM 250100Z 23006KT 15SM FEW074 08/03 A2997 RMK AC1 AC TR SLP153

CYHM;2011-10-25 02:00;CYHM 250200Z 23006KT 15SM FEW076 08/03 A2999 RMK AC1 AC TR SLP159

CYHM;2011-10-25 03:00;CYHM 250300Z 30007KT 15SM SKC 07/04 A3002 RMK SLP169

CYHM;2011-10-25 04:00;CYHM 250400Z 26004KT 15SM SKC 07/03 A3003 RMK SLP174

CYHM;2011-10-25 05:00;CYHM 250500Z 24005KT 15SM SKC 04/03 A3004 RMK SLP176

CYHM;2011-10-25 06:00;CYHM 250600Z 25005KT 15SM SKC 05/03 A3005 RMK SLP182

CYHM;2011-10-25 07:00;CYHM 250700Z 25005KT 15SM SKC 04/03 A3007 RMK SLP188

CYHM;2011-10-25 08:00;CYHM 250800Z 23005KT 15SM SKC 03/02 A3009 RMK SLP193

CYHM;2011-10-25 09:00;CYHM 250900Z 24006KT 15SM SKC 03/02 A3012 RMK SLP204

CYHM;2011-10-25 10:00;CYHM 251000Z 24004KT 15SM FEW250 03/02 A3012 RMK CI1 SLP206

CYHM;2011-10-25 11:00;CYHM 251100Z 22005KT 15SM FEW250 01/01 A3013 RMK CI1 SLP208

CYHM;2011-10-25 12:00;CYHM 251200Z 24005KT 15SM FEW100 FEW250 02/02 A3013 RMK AC1CI1 SLP211

CYHM;2011-10-25 13:00;CYHM 251300Z 23005KT 15SM FEW100 FEW240 04/03 A3013 RMK AC1CI1 SLP211

CYHM;2011-10-25 14:00;CYHM 251400Z 26007KT 15SM FEW084 FEW120 BKN240 07/04 A3013 RMK AC1AC2CI2 SLP211

CYHM;2011-10-25 15:00;CYHM 251500Z 27008KT 15SM FEW092 BKN220 09/05 A3014 RMK AC2CI3 SLP212

CYHM;2011-10-25 16:00;CYHM 251600Z 25007KT 15SM FEW075 SCT140 BKN220 11/06 A3013 RMK AC1AC2CI2 SLP209

CYHM;2011-10-25 17:00;CYHM 251700Z 27007G16KT 15SM FEW066 BKN096 BKN220 13/04 A3012 RMK AC2AC3CI2 SLP204

CYHM;2011-10-25 17:43;CYHM 251743Z CCA 26010G16KT 10SM -SHRA FEW025 BKN043 OVC055 RMK CU1SC6SC2 CU TR

CYHM;2011-10-25 18:00;CYHM 251800Z 25009KT 12SM -SHRA FEW030 BKN050 OVC086 11/05 A3010 RMK CU1SC6AC1 CU TR SLP197

CYHM;2011-10-25 19:00;CYHM 251900Z 27007KT 15SM -SHRA OVC048 10/05 A3009 RMK SC8 SLP195

CYHM;2011-10-25 20:00;CYHM 252000Z 24005KT 8SM BKN042 OVC093 09/07 A3008 RMK SC6AC2 SLP193

CYHM;2011-10-25 21:00;CYHM 252100Z 20003KT 12SM -SHRA BKN060 OVC094 08/07 A3007 RMK SC6AC2 SLP191

CYHM;2011-10-25 22:00;CYHM 252200Z 05005KT 8SM -SHRA FEW044 OVC080 08/08 A3005 RMK SC2AC6 SLP183

CYHM;2011-10-25 22:25;CYHM 252225Z 06004KT 8SM FEW054 OVC082 RMK SC2AC6

CYHM;2011-10-25 23:00;CYHM 252300Z 05008KT 6SM BR FEW012 OVC080 08/07 A3004 RMK SF2AC6 SLP178

CYHM;2011-10-25 23:12;CYHM 252312Z 05010KT 8SM -SHRA BKN008 OVC080 RMK SF6AC2

CYHM;2011-10-26 00:00;CYHM 260000Z 05010KT 8SM -SHRA FEW008 FEW034 BKN078 OVC090 07/07 A3004 RMK SF2SC1AC4AC2 SLP178

CYHM;2011-10-26 01:00;CYHM 260100Z 04011KT 6SM -SHRA BR FEW004 SCT052 OVC070 07/07 A3001 RMK SF2SC2AC5 SLP171

CYHM;2011-10-26 02:00;CYHM 260200Z 06009KT 5SM -SHRA BR BKN004 OVC076 07/07 A3001 RMK SF6AC2 SLP170

CYHM;2011-10-26 03:00;CYHM 260300Z 07009KT 3SM -SHRA BR OVC002 07/07 A2999 RMK SF8 SLP161

CYHM;2011-10-26 04:00;CYHM 260400Z 06014KT 3SM -SHRA BR OVC002 07/07 A2994 RMK SF8 SLP146

CYHM;2011-10-26 05:00;CYHM 260500Z 06012KT 3SM -SHRA BR OVC004 07/07 A2991 RMK SF8 SLP136

CYHM;2011-10-26 06:00;CYHM 260600Z 05011KT 2 1/2SM -SHRA BR OVC003 08/07 A2989 RMK SF8 SLP126

CYHM;2011-10-26 07:00;CYHM 260700Z 05010KT 2 1/2SM -SHRA BR OVC003 08/08 A2988 RMK SF8 SLP123

CYHM;2011-10-26 08:00;CYHM 260800Z 05011KT 2 1/4SM -SHRA BR OVC003 08/08 A2984 RMK SF8 SLP110

CYHM;2011-10-26 09:00;CYHM 260900Z 04012KT 2SM -SHRA BR BKN003 OVC030 08/08 A2982 RMK SF7SC1 SLP102

CYHM;2011-10-26 09:22;CYHM 260922Z 05010G15KT 1 1/2SM BR OVC002 RMK FG6SF2 CIG RGD

CYHM;2011-10-26 10:00;CYHM 261000Z 03008KT 2SM BR OVC002 08/08 A2982 RMK FG3SF5 CIG 150FT SLP102

CYHM;2011-10-26 10:50;CYHM 261050Z 04010KT 1/8SM FG VV001 RMK FG8

CYHM;2011-10-26 11:00;CYHM 261100Z 04012KT 0SM FG VV001 08/08 A2980 RMK FG8 SLP096

CYHM;2011-10-26 11:39;CYHM 261139Z 04012KT 1/2SM FG OVC001 RMK FG5SF3

CYHM;2011-10-26 11:56;CYHM 261156Z 03013KT 1/8SM -SHRA FG VV001 RMK FG8

CYHM;2011-10-26 12:00;CYHM 261200Z 02009G15KT 1/8SM -SHRA FG VV001 07/07 A2981 RMK FG8 PCPN VRY LGT SLP098

CYHM;2011-10-26 13:00;CYHM 261300Z 03014KT 1/4SM -SHRA FG VV001 07/07 A2981 RMK FG8 SLP100

CYHM;2011-10-26 13:18;CYHM 261318Z 03017KT 1/2SM -SHRA FG OVC002 RMK FG3SF5 CIG150FT

CYHM;2011-10-26 13:43;CYHM 261343Z 02012G18KT 1 1/2SM -SHRA BR OVC002 RMK FG2SF6

CYHM;2011-10-26 14:00;CYHM 261400Z 03016G21KT 1 1/2SM -SHRA BR OVC003 06/06 A2982 RMK FG2SF6 CIG250FT SLP104

CYHM;2011-10-26 14:26;CYHM 261426Z 03015G20KT 1/2SM -SHRA FG OVC002 RMK FG3SF5 CIG RGD

CYHM;2011-10-26 15:00;CYHM 261500Z 03013KT 1SM -SHRA BR OVC002 06/06 A2981 RMK FG3SF5 CIG150FT SLP099

CYHM;2011-10-26 16:00;CYHM 261600Z 05015G20KT 1 1/2SM -SHRA BR OVC002 06/06 A2981 RMK FG2SF6 CIG250FT SLP102

CYHM;2011-10-26 16:50;CYHM 261650Z 04015G20KT 2SM -SHRA BR OVC003 RMK FG1SF7

CYHM;2011-10-26 17:00;CYHM 261700Z 04014G19KT 2SM -SHRA BR OVC003 06/06 A2980 RMK FG1SF7 SLP096

CYHM;2011-10-26 18:00;CYHM 261800Z 04014G25KT 2 1/2SM -SHRA BR OVC004 06/06 A2979 RMK SF8 CIG RGD PCPN VRY LGT SLP094

CYHM;2011-10-26 19:00;CYHM 261900Z 04017G23KT 2SM -SHRA BR OVC005 05/05 A2978 RMK FG1SF7 SLP092

CYHM;2011-10-26 20:00;CYHM 262000Z 03017G22KT 2SM -SHRA BR OVC005 05/05 A2981 RMK FG1SF7 SLP099

CYHM;2011-10-26 20:12;CYHM 262012Z 03013G20KT 2SM -SHRA BR OVC003 RMK FG1SF7

CYHM;2011-10-26 21:00;CYHM 262100Z 04018KT 2 1/2SM -SHRA BR BKN005 OVC012 05/05 A2980 RMK SF6SC2 SLP096

CYHM;2011-10-26 22:00;CYHM 262200Z 04013KT 2SM -RA BR OVC005 05/05 A2982 RMK FG1SF7 SLP105

CYHM;2011-10-26 22:41;CYHM 262241Z 04011G17KT 4SM -RA BR OVC004 RMK SF8 CIG RAG

CYHM;2011-10-26 23:00;CYHM 262300Z 05013G19KT 6SM -RA BR SCT007 OVC013 05/05 A2983 RMK SF3SC5 SLP106

CYHM;2011-10-26 23:21;CYHM 262321Z 04013G19KT 3SM -RA BR OVC005 RMK SF8 VIS VRB 2 - 4

CYHM;2011-10-27 00:00;CYHM 270000Z 04013G20KT 1 1/2SM -RA BR OVC005 05/05 A2983 RMK FG2SF6 VIS VRB 1 - 2 SLP107

CYHM;2011-10-27 01:00;CYHM 270100Z 04012KT 4SM -RA BR OVC003 05/05 A2984 RMK SF8 CIG RAG SLP112

CYHM;2011-10-27 02:00;CYHM 270200Z 02013KT 5SM -RA BR OVC005 04/04 A2984 RMK SF8 CIG RAG SLP109

CYHM;2011-10-27 03:00;CYHM 270300Z 02015G20KT 6SM -RA BR OVC006 04/04 A2985 RMK SF8 SLP114

CYHM;2011-10-27 03:46;CYHM 270346Z 03013G18KT 8SM -RA OVC012 RMK SC8

CYHM;2011-10-27 04:00;CYHM 270400Z 03013KT 10SM -RA OVC010 04/03 A2985 RMK SC8 SLP115

CYHM;2011-10-27 05:00;CYHM 270500Z 04011KT 12SM -RA OVC009 04/03 A2984 RMK SC8 CIG RAG SLP111

CYHM;2011-10-27 06:00;CYHM 270600Z 03007KT 12SM -RA OVC008 04/03 A2985 RMK SC8 SLP114

CYHM;2011-10-27 07:00;CYHM 270700Z 03013KT 12SM -RA OVC011 04/03 A2985 RMK SC8 SLP114

CYHM;2011-10-27 08:00;CYHM 270800Z 03010KT 15SM -RA SCT009 BKN024 OVC060 03/02 A2985 RMK SF3SC3SC2 SLP115

CYHM;2011-10-27 08:17;CYHM 270817Z 04009KT 15SM -RA BKN011 OVC018 RMK SC6SC2

CYHM;2011-10-27 09:00;CYHM 270900Z 03007KT 15SM -RA BKN020 OVC072 03/02 A2984 RMK SC6AC2 PCPN VRY LGT SLP113

CYHM;2011-10-27 10:00;CYHM 271000Z 03010G16KT 15SM -RA BKN020 OVC043 03/02 A2984 RMK SC7SC1 PCPN VRY LGT SLP111

CYHM;2011-10-27 11:00;CYHM 271100Z 02008KT 15SM SCT020 BKN026 04/02 A2984 RMK SC3SC4 CU ASOCTD SLP113

CYHM;2011-10-27 12:00;CYHM 271200Z 02009KT 15SM SCT018 OVC024 03/01 A2987 RMK SC3SC5 SLP121

CYHM;2011-10-27 13:00;CYHM 271300Z 03010KT 15SM BKN019 OVC024 03/01 A2986 RMK SC6SC2 SLP119

CYHM;2011-10-27 14:00;CYHM 271400Z 03011G17KT 15SM BKN020 OVC025 03/01 A2988 RMK SC6SC2 SLP124

CYHM;2011-10-27 15:00;CYHM 271500Z 03010G15KT 15SM BKN023 OVC058 03/M00 A2988 RMK SC6SC2 SLP127

CYHM;2011-10-27 16:00;CYHM 271600Z 05014KT 15SM SCT023 BKN050 OVC070 04/M00 A2987 RMK SC3SC3AC2 CU ASOCTD SLP123

CYHM;2011-10-27 17:00;CYHM 271700Z 06013KT 15SM FEW020 SCT026 BKN060 OVC085 04/M01 A2986 RMK CU2SC2SC3AC1 SLP119

CYHM;2011-10-27 18:00;CYHM 271800Z 35007KT 15SM FEW026 BKN036 BKN060 OVC075 04/M01 A2988 RMK CU2SC3SC2AC2 SLP124

CYHM;2011-10-27 19:00;CYHM 271900Z 35009KT 15SM BKN028 OVC037 04/M01 A2989 RMK SC6SC2 SLP128

CYHM;2011-10-27 20:00;CYHM 272000Z 35008KT 15SM SCT032 OVC074 04/M02 A2992 RMK SC4AC4 SLP138

CYHM;2011-10-27 21:00;CYHM 272100Z 36005KT 15SM FEW032 FEW075 BKN110 BKN250 04/M02 A2994 RMK SC1AC2AC3CI1 SLP146

CYHM;2011-10-27 22:00;CYHM 272200Z 35002KT 15SM FEW035 FEW078 BKN250 03/M02 A2996 RMK SC1AC2CI2 SLP154

CYHM;2011-10-27 23:00;CYHM 272300Z 33004KT 15SM BKN028 BKN250 03/M01 A3000 RMK SC5CI0 SLP167

CYHM;2011-10-28 00:00;CYHM 280000Z 00000KT 15SM FEW250 02/M01 A3003 RMK CI1 SLP178

CYHM;2011-10-28 01:00;CYHM 280100Z 24002KT 15SM SKC 01/M02 A3007 RMK SLP191

CYHM;2011-10-28 02:00;CYHM 280200Z 32003KT 15SM FEW030 M01/M03 A3008 RMK SC1 SLP195

CYHM;2011-10-28 03:00;CYHM 280300Z 27004KT 15SM SKC M01/M02 A3010 RMK SLP204

CYHM;2011-10-28 04:00;CYHM 280400Z 27002KT 15SM SKC M01/M02 A3010 RMK FROIN SLP203

CYHM;2011-10-28 05:00;CYHM 280500Z 23004KT 15SM SKC M02/M03 A3011 RMK FROIN SLP207

CYHM;2011-10-28 06:00;CYHM 280600Z 28003KT 15SM FEW150 M03/M03 A3012 RMK AC1 SLP210

CYHM;2011-10-28 07:00;CYHM 280700Z 26003KT 15SM SCT075 M01/M02 A3013 RMK AC3 FROIN SLP212

CYHM;2011-10-28 08:00;CYHM 280800Z 26003KT 15SM FEW075 M03/M04 A3014 RMK AC1 FROIN SLP215

CYHM;2011-10-28 09:00;CYHM 280900Z 24002KT 15SM FEW075 M03/M03 A3014 RMK AC1 FROIN SLP217

CYHM;2011-10-28 10:00;CYHM 281000Z 25005KT 15SM FEW075 M04/M05 A3017 RMK AC1 FROIN SLP226

CYHM;2011-10-28 11:00;CYHM 281100Z 25002KT 15SM FEW090 SCT240 M04/M05 A3017 RMK AC1CI1 CONTRAILS FROIN SLP226

CYHM;2011-10-28 12:00;CYHM 281200Z 29003KT 15SM FEW020 FEW100 SCT240 M04/M04 A3018 RMK CU1AC1CI2 CU TRE-SE SLP232

CYHM;2011-10-28 13:00;CYHM 281300Z 24002KT 15SM FEW020 FEW120 SCT240 M02/M02 A3020 RMK CU1AC1CI2 CU TR SE SLP239

CYHM;2011-10-28 14:00;CYHM 281400Z 25005KT 15SM FEW025 BKN076 BKN120 BKN220 03/01 A3022 RMK CU1AC5AC1CI1 CU TR SE SLP244

CYHM;2011-10-28 15:00;CYHM 281500Z 23005KT 15SM FEW025 FEW042 SCT068 BKN220 04/01 A3022 RMK CU1SC1AC2CI1 SLP243

CYHM;2011-10-28 16:00;CYHM 281600Z 25006KT 15SM FEW025 FEW070 SCT240 07/M00 A3022 RMK CU1AC1CI1 SLP242

CYHM;2011-10-28 17:00;CYHM 281700Z 25008KT 15SM FEW030 FEW100 SCT220 08/02 A3021 RMK CU2AC1CI1 SLP239

CYHM;2011-10-28 18:00;CYHM 281800Z 24006KT 15SM SCT030 SCT038 BKN072 BKN220 08/01 A3019 RMK CU3SC1AC2CI1 SLP232

CYHM;2011-10-28 19:00;CYHM 281900Z 17005KT 15SM SCT035 SCT068 BKN230 09/01 A3017 RMK CU3AC1CI1 TCU ASOCTD TR AC SLP224

CYHM;2011-10-28 20:00;CYHM 282000Z 18006KT 15SM FEW035 BKN065 BKN200 08/M00 A3015 RMK CU2SC4CI1 FEW TCU SLP219

CYHM;2011-10-28 21:00;CYHM 282100Z 20008G16KT 12SM -SHRA FEW038 BKN063 06/03 A3015 RMK CU2SC6 SLP220

CYHM;2011-10-28 22:00;CYHM 282200Z 19006KT 15SM FEW035 BKN050 BKN077 06/03 A3015 RMK CU2SC4AC1 TCU ASOCTD SLP220

CYHM;2011-10-28 23:00;CYHM 282300Z 20006KT 15SM FEW050 BKN080 04/02 A3017 RMK SC2AC3 CONTRAILS SLP225

CYHM;2011-10-29 00:00;CYHM 290000Z 17005KT 15SM BKN057 05/02 A3017 RMK SC7 SLP228

CYHM;2011-10-29 01:00;CYHM 290100Z 18004KT 15SM OVC057 05/02 A3017 RMK SC8 SLP227

CYHM;2011-10-29 02:00;CYHM 290200Z 19002KT 15SM BKN064 OVC240 04/02 A3017 RMK SC7CI1 SLP226

CYHM;2011-10-29 03:00;CYHM 290300Z 18002KT 15SM FEW044 OVC073 05/02 A3017 RMK SC2AC6 FEW CF SLP222

CYHM;2011-10-29 04:00;CYHM 290400Z 14002KT 15SM FEW044 OVC076 04/02 A3015 RMK SC2AC6 SLP217

CYHM;2011-10-29 05:00;CYHM 290500Z 00000KT 15SM FEW044 OVC082 04/02 A3015 RMK SC1AC7 SLP217

CYHM;2011-10-29 06:00;CYHM 290600Z 13003KT 15SM BKN085 03/02 A3014 RMK AC7 SLP212

CYHM;2011-10-29 07:00;CYHM 290700Z 11003KT 15SM FEW044 SCT082 03/01 A3013 RMK SC2AC1 SLP208

CYHM;2011-10-29 08:00;CYHM 290800Z 10003KT 15SM FEW044 FEW082 FEW200 01/M01 A3012 RMK SC1AC1CI1 TR CI SLP205

CYHM;2011-10-29 09:00;CYHM 290900Z 09004KT 15SM FEW080 01/M01 A3011 RMK AC1 FROIN SLP204

CYHM;2011-10-29 10:00;CYHM 291000Z 12005KT 15SM FEW080 02/M00 A3011 RMK AC1 FROIN SLP204

CYHM;2011-10-29 11:00;CYHM 291100Z 12004KT 15SM FEW080 FEW210 M00/M02 A3010 RMK AC1CI1 FROIN SLP202

CYHM;2011-10-29 12:00;CYHM 291200Z 13004KT 15SM FEW030 FEW090 FEW210 00/M02 A3010 RMK CU1AC1CI1 CONTRAILS CU TR SLP202

CYHM;2011-10-29 13:00;CYHM 291300Z 13005KT 15SM FEW030 FEW120 FEW210 02/M01 A3010 RMK CU1AC2CI1 SLP201

CYHM;2011-10-29 14:00;CYHM 291400Z 13005KT 15SM FEW030 FEW040 FEW120 SCT220 05/01 A3010 RMK CU1SC1AC1CI2 CU TR SLP203

CYHM;2011-10-29 15:00;CYHM 291500Z 13006KT 15SM FEW025 FEW040 BKN054 BKN220 06/02 A3011 RMK CU1SC1SC5CI1 SLP202

CYHM;2011-10-29 16:00;CYHM 291600Z 13007KT 15SM VCSH FEW025 SCT040 BKN058 BKN220 06/01 A3010 RMK CU2SC2SC3CI1 CI TR SLP201

CYHM;2011-10-29 17:00;CYHM 291700Z 15012KT 15SM -SHRA SCT022 BKN034 BKN055 06/02 A3010 RMK CU4SC2SC2 PCPN VRY LGT SLP199

CYHM;2011-10-29 18:00;CYHM 291800Z 16012KT 15SM SCT022 BKN035 OVC055 05/03 A3009 RMK CU3SC2SC2 VIRGA SLP196

CYHM;2011-10-29 18:07;CYHM 291807Z 16010KT 15SM -SHRA BKN016 OVC033 RMK SC5SC3

CYHM;2011-10-29 19:00;CYHM 291900Z 10006KT 15SM -SHRA FEW012 SCT022 BKN034 BKN052 05/02 A3008 RMK CF2CU2SC2SC1 PCPN VRY LGT SLP193

CYHM;2011-10-29 20:00;CYHM 292000Z 16007KT 15SM -SHRA FEW014 BKN034 OVC050 05/02 A3008 RMK CF2SC4SC2 PCPN VRY LGT SLP195

CYHM;2011-10-29 20:32;CYHM 292032Z 16009KT 12SM -SHRA BKN014 OVC026 RMK SF5SC3

CYHM;2011-10-29 21:00;CYHM 292100Z 17004KT 15SM -SHRA SCT014 BKN026 OVC037 04/02 A3009 RMK SF4SC2SC2 PCPN VRY LGT SLP199

CYHM;2011-10-29 22:00;CYHM 292200Z 09004KT 15SM -SHRA SCT014 BKN024 BKN035 04/02 A3010 RMK SC3SC2SC2 PCPN VRY LGT SLP203

CYHM;2011-10-29 22:49;CYHM 292249Z 13006KT 15SM -SHRA BKN012 OVC022 RMK SC5SC3

CYHM;2011-10-29 23:00;CYHM 292300Z 13006KT 15SM -SHRA FEW008 BKN012 OVC022 03/02 A3012 RMK CF2SC5SC2 SLP207

CYHM;2011-10-29 23:37;CYHM 292337Z 11007KT 15SM -SHRA FEW008 SCT012 BKN022 OVC034 RMK CF1SC3SC2SC2 CF TR PCPN VRY LGT

CYHM;2011-10-30 00:00;CYHM 300000Z 12007KT 15SM -SHRA FEW012 BKN024 BKN035 03/02 A3012 RMK SC2SC4SC2 PCPN VRY LGT SLP210

CYHM;2011-10-30 00:10;CYHM 300010Z 13006KT 15SM FEW014 SCT024 BKN033 RMK SC1SC3SC3

CYHM;2011-10-30 01:00;CYHM 300100Z 19003KT 15SM FEW033 BKN060 BKN075 02/01 A3012 RMK SC2SC2AC2 SLP210

CYHM;2011-10-30 02:00;CYHM 300200Z 26004KT 15SM FEW033 FEW054 01/00 A3013 RMK SC2SC1 SLP212

CYHM;2011-10-30 03:00;CYHM 300300Z 26004KT 15SM BKN055 01/M00 A3013 RMK SC6 SLP211

CYHM;2011-10-30 04:00;CYHM 300400Z 31004KT 15SM FEW050 M00/M00 A3013 RMK SC2 SLP211

CYHM;2011-10-30 05:00;CYHM 300500Z 32002KT 15SM MIFG FEW050 FEW200 M00/M00 A3013 RMK SC1CI1 SLP211

CYHM;2011-10-30 06:00;CYHM 300600Z 32002KT 15SM MIFG FEW210 M01/M01 A3013 RMK CI1 SLP212

CYHM;2011-10-30 07:00;CYHM 300700Z 27002KT 15SM FEW200 M01/M01 A3014 RMK CI1 SLP215

CYHM;2011-10-30 08:00;CYHM 300800Z 19002KT 15SM MIFG SKC M02/M02 A3015 RMK FROIN SLP219

CYHM;2011-10-30 09:00;CYHM 300900Z 16002KT 15SM MIFG FEW210 M02/M03 A3015 RMK CI1 FROIN SLP219

CYHM;2011-10-30 10:00;CYHM 301000Z 23003KT 15SM FEW210 M03/M03 A3017 RMK CI1 FROIN SLP227

CYHM;2011-10-30 11:00;CYHM 301100Z 23003KT 15SM FEW025 M03/M03 A3019 RMK SC1 FROIN SLP231

CYHM;2011-10-30 11:41;CYHM 301141Z 19002KT 1SM BR FEW025 RMK FG1SC1

CYHM;2011-10-30 12:00;CYHM 301200Z 20002KT 1/2SM FZFG FEW025 M02/M03 A3020 RMK FG1SC1 FROIN SLP237

CYHM;2011-10-30 12:22;CYHM 301222Z 21003KT 4SM BR FEW025 RMK SC1 VIS SSE 1 FROIN

CYHM;2011-10-30 13:00;CYHM 301300Z 22003KT 15SM FEW025 FEW250 M01/M01 A3022 RMK SC1CI1 CI TR SLP244

CYHM;2011-10-30 14:00;CYHM 301400Z 19004KT 15SM FEW025 FEW250 03/02 A3024 RMK SC1CI1 SLP249

CYHM;2011-10-30 15:00;CYHM 301500Z 20010KT 15SM FEW025 FEW250 06/04 A3024 RMK SC1CI1 SC TR SLP249

CYHM;2011-10-30 16:00;CYHM 301600Z 20007KT 15SM FEW012 SCT250 08/04 A3024 RMK CU1CI1 SLP248

CYHM;2011-10-30 17:00;CYHM 301700Z 22008KT 15SM BKN022 BKN044 BKN250 09/03 A3023 RMK CU6SC1CI1 CI TR SLP246

CYHM;2011-10-30 18:00;CYHM 301800Z 21009KT 15SM BKN030 BKN047 08/04 A3022 RMK CU5SC2 SLP240

CYHM;2011-10-30 19:00;CYHM 301900Z 19011KT 15SM SCT032 BKN046 BKN220 09/02 A3020 RMK CU4SC1CI1 CI TR SLP236

CYHM;2011-10-30 20:00;CYHM 302000Z 20012KT 15SM SCT032 BKN046 BKN220 08/03 A3020 RMK CU4SC1CI1 SLP234

CYHM;2011-10-30 21:00;CYHM 302100Z 19009KT 15SM FEW031 FEW046 BKN210 08/03 A3020 RMK CU2SC1CI4 SLP236

CYHM;2011-10-30 22:00;CYHM 302200Z 19007KT 15SM FEW030 FEW047 FEW170 BKN200 07/03 A3020 RMK CU1SC1AC1CI6 CU TR AC TR SLP235

CYHM;2011-10-30 23:00;CYHM 302300Z 20008KT 15SM FEW050 SCT170 BKN200 06/03 A3021 RMK SC2AC2CI3 SLP239

CYHM;2011-10-31 00:00;CYHM 310000Z 18006KT 15SM FEW050 FEW130 BKN220 06/03 A3021 RMK SC1AC2CI2 SLP238

CYHM;2011-10-31 01:00;CYHM 310100Z 17007KT 15SM FEW032 FEW130 BKN230 04/02 A3020 RMK SC2AC1CI1 SLP237

CYHM;2011-10-31 02:00;CYHM 310200Z 18007KT 15SM FEW120 BKN230 05/03 A3021 RMK AC2CI2 SLP238

CYHM;2011-10-31 03:00;CYHM 310300Z 19007KT 15SM SCT180 BKN220 04/03 A3022 RMK AS1CS2 SLP239

CYHM;2011-10-31 04:00;CYHM 310400Z 17006KT 15SM BKN180 04/03 A3021 RMK AS3 SLP238

CYHM;2011-10-31 05:00;CYHM 310500Z 00000KT 15SM FEW110 SCT140 BKN180 04/03 A3022 RMK AS1AS2AS1 SLP240

CYHM;2011-10-31 06:00;CYHM 310600Z 00000KT 15SM BKN100 04/03 A3021 RMK AC6 SLP238

CYHM;2011-10-31 07:00;CYHM 310700Z 17005KT 15SM BKN096 04/03 A3021 RMK AC6 SLP237

CYHM;2011-10-31 08:00;CYHM 310800Z 17006KT 15SM BKN100 04/04 A3020 RMK AC7 SLP233

CYHM;2011-10-31 09:00;CYHM 310900Z 15005KT 15SM FEW076 FEW100 BKN180 03/03 A3020 RMK AS1AS1AS1 SLP232

CYHM;2011-10-31 10:00;CYHM 311000Z 14004KT 15SM FEW076 BKN150 03/03 A3019 RMK AS1AS2 SLP230

CYHM;2011-10-31 11:00;CYHM 311100Z 13005KT 15SM FEW120 SCT170 BKN220 03/02 A3017 RMK AC1AC1CI2 SLP225

CYHM;2011-10-31 12:00;CYHM 311200Z 11004KT 5SM BR FEW120 BKN170 BKN210 02/02 A3018 RMK AC2AS2CI2 SLP227

CYHM;2011-10-31 13:00;CYHM 311300Z 09004KT 6SM BR FEW140 SCT180 OVC210 03/03 A3018 RMK AC1AS2CI4 SLP227

CYHM;2011-10-31 14:00;CYHM 311400Z 14005KT 8SM FEW100 BKN160 OVC210 07/05 A3017 RMK AC2AS3CI2 SLP225

CYHM;2011-10-31 15:00;CYHM 311500Z 13006KT 10SM SCT130 BKN170 OVC220 09/06 A3016 RMK AC3AS2CI2 SLP219

CYHM;2011-10-31 16:00;CYHM 311600Z 14006KT 10SM FEW140 BKN160 OVC220 09/05 A3016 RMK AC2AS2CS3 HALO SLP218

CYHM;2011-10-31 17:00;CYHM 311700Z 10006KT 10SM FEW030 SCT130 OVC210 10/05 A3013 RMK CU2AC2CI3 SLP210

CYHM;2011-10-31 18:00;CYHM 311800Z 11007KT 15SM FEW032 SCT048 SCT120 BKN210 10/05 A3012 RMK CU2SC2AC1CS2 SLP204

CYHM;2011-10-31 19:00;CYHM 311900Z 13006KT 15SM FEW030 OVC120 10/04 A3011 RMK SC2AS6 SLP202

CYHM;2011-10-31 20:00;CYHM 312000Z 06008KT 12SM FEW032 BKN065 OVC120 08/05 A3012 RMK SC1ST6AS2 SLP206

CYHM;2011-10-31 21:00;CYHM 312100Z 06008KT 10SM OVC046 08/05 A3013 RMK SC8 SLP209

CYHM;2011-10-31 22:00;CYHM 312200Z 07005KT 12SM OVC075 07/05 A3014 RMK AC8 SLP214

CYHM;2011-10-31 22:35;CYHM 312235Z 06005KT 12SM -SHRA BKN030 OVC072 RMK SC6AC2

CYHM;2011-10-31 23:00;CYHM 312300Z 07006KT 12SM -SHRA BKN032 OVC064 07/05 A3017 RMK SC6SC2 SLP221

CYHM;2011-11-01 01:00;CYHM 010100Z 09004KT 12SM -SHRA BKN022 OVC036 07/06 A3018 RMK SC6SC2 SLP228

CYHM;2011-11-01 02:00;CYHM 010200Z 11004KT 12SM -SHRA OVC024 07/06 A3018 RMK SC8 SLP229

CYHM;2011-11-01 02:34;CYHM 010234Z 23005KT 9SM -SHRA SCT008 OVC026 RMK SF3SC5

CYHM;2011-11-01 03:00;CYHM 010300Z 20006KT 10SM -SHRA FEW009 BKN026 OVC042 07/06 A3019 RMK SF1SC5SC2 SLP230

CYHM;2011-11-01 04:00;CYHM 010400Z 20004KT 12SM -SHRA FEW024 BKN034 OVC042 07/06 A3020 RMK SF1SC6SC2 SLP231

CYHM;2011-11-01 05:00;CYHM 010500Z 18005KT 15SM FEW032 BKN056 06/06 A3019 RMK SC1SC3 SLP229

CYHM;2011-11-01 06:00;CYHM 010600Z 20004KT 15SM FEW018 BKN038 06/06 A3020 RMK SC2SC6 SLP233

CYHM;2011-11-01 07:00;CYHM 010700Z 20005KT 15SM BKN022 BKN044 06/06 A3021 RMK SC5SC1 SLP236

CYHM;2011-11-01 08:00;CYHM 010800Z 20006KT 15SM FEW024 OVC044 06/06 A3021 RMK SC2SC6 SLP237

CYHM;2011-11-01 09:00;CYHM 010900Z 19006KT 15SM FEW032 SCT044 06/05 A3022 RMK SC1SC1 SLP238

CYHM;2011-11-01 10:00;CYHM 011000Z 20006KT 15SM FEW030 SCT052 04/03 A3023 RMK SC1SC1 SLP242

CYHM;2011-11-01 11:00;CYHM 011100Z 21003KT 15SM FEW030 SCT059 05/05 A3023 RMK SC2SC2 SLP244

CYHM;2011-11-01 12:00;CYHM 011200Z 18007KT 15SM FEW020 SCT058 SCT140 05/04 A3025 RMK SC1SC2AC1 SLP251

CYHM;2011-11-01 13:00;CYHM 011300Z 19006KT 15SM FEW022 BKN054 BKN100 06/06 A3026 RMK SC2SC3AC1 SLP256

CYHM;2011-11-01 14:00;CYHM 011400Z 21006KT 15SM SCT025 BKN036 OVC056 08/07 A3027 RMK SC3SC2SC2 SLP259

CYHM;2011-11-01 15:00;CYHM 011500Z 21008KT 6SM BR FEW008 BKN035 OVC053 08/07 A3029 RMK SF2SC5SC2 SLP262

CYHM;2011-11-01 16:00;CYHM 011600Z 24006KT 15SM FEW016 BKN032 10/07 A3029 RMK CU2SC3 SLP262

CYHM;2011-11-01 17:00;CYHM 011700Z 23007KT 15SM FEW030 SCT038 12/05 A3026 RMK CU2SC2 SLP255

CYHM;2011-11-01 18:00;CYHM 011800Z 24007KT 15SM FEW022 BKN036 11/04 A3025 RMK SF1CU4 SC ASOCTD SLP249

CYHM;2011-11-01 19:00;CYHM 011900Z 24008KT 15SM SCT042 12/04 A3023 RMK SC4 CU ASOCTD SLP244

CYHM;2011-11-01 20:00;CYHM 012000Z 21007KT 15SM BKN048 12/05 A3024 RMK SC5 CU ASOCTD SLP247

CYHM;2011-11-01 21:00;CYHM 012100Z 23008KT 15SM FEW052 FEW110 11/07 A3024 RMK CU1AC1 AC TR SLP245

CYHM;2011-11-01 22:00;CYHM 012200Z 22002KT 15SM FEW050 10/05 A3024 RMK CU1 CU TR SLP246

CYHM;2011-11-01 23:00;CYHM 012300Z 19008KT 15SM FEW080 08/04 A3025 RMK AC1 AC TR SLP248

CYHM;2011-11-02 00:00;CYHM 020000Z 18007KT 15SM FEW080 07/04 A3025 RMK AC1 AC TR SLP251

CYHM;2011-11-02 01:00;CYHM 020100Z 18005KT 15SM FEW190 05/03 A3024 RMK AC1 SLP249

CYHM;2011-11-02 02:00;CYHM 020200Z 16009KT 15SM FEW190 06/04 A3024 RMK AC2 SLP247

CYHM;2011-11-02 03:00;CYHM 020300Z 16008KT 15SM FEW090 06/05 A3024 RMK AC1 AC TR SLP245

CYHM;2011-11-02 04:00;CYHM 020400Z 17009KT 15SM FEW090 08/05 A3023 RMK AC1 AC TR SLP241

CYHM;2011-11-02 05:00;CYHM 020500Z 19007KT 15SM FEW080 06/04 A3023 RMK AC1 AC TR SLP241

CYHM;2011-11-02 06:00;CYHM 020600Z 18008KT 15SM FEW080 07/05 A3022 RMK AC1 AC TR SLP239

CYHM;2011-11-02 07:00;CYHM 020700Z 19008KT 15SM FEW080 07/05 A3022 RMK AC1 AC TR SLP239

CYHM;2011-11-02 08:00;CYHM 020800Z 20008KT 15SM SKC 06/05 A3022 RMK SLP239

CYHM;2011-11-02 09:00;CYHM 020900Z 19007KT 15SM FEW110 FEW250 06/04 A3023 RMK AC1CI1 AC TR CI TR SLP243

CYHM;2011-11-02 10:00;CYHM 021000Z 21008KT 15SM SKC 06/05 A3024 RMK SLP245

CYHM;2011-11-02 11:00;CYHM 021100Z 20008KT 15SM FEW240 06/05 A3023 RMK CI1 SLP243

CYHM;2011-11-02 12:00;CYHM 021200Z 20008KT 15SM FEW180 BKN240 06/05 A3023 RMK AC1CI2 SLP243

CYHM;2011-11-02 13:00;CYHM 021300Z 19008KT 15SM BKN240 08/06 A3024 RMK CI4 CONTRAILS SLP246

CYHM;2011-11-02 14:00;CYHM 021400Z 21010KT 15SM BKN220 11/07 A3023 RMK CI5 SLP244

CYHM;2011-11-02 15:00;CYHM 021500Z 21010G15KT 15SM BKN220 13/08 A3022 RMK CI6 SLP239

CYHM;2011-11-02 16:00;CYHM 021600Z 21014KT 15SM FEW170 BKN220 14/07 A3021 RMK AC2CI4 SLP235

CYHM;2011-11-02 17:00;CYHM 021700Z 19011KT 14SM FEW130 SCT180 BKN220 14/08 A3017 RMK AC1AC2CI2 SLP223

CYHM;2011-11-02 18:00;CYHM 021800Z 21011KT 15SM FEW160 FEW220 16/09 A3015 RMK AC1CI1 AC TR SLP213

CYHM;2011-11-02 19:00;CYHM 021900Z 23012KT 15SM FEW160 FEW220 17/06 A3013 RMK AC1CI1 CONTRAILS SLP208

CYHM;2011-11-02 20:00;CYHM 022000Z 22016G21KT 15SM FEW140 SCT240 16/04 A3012 RMK AC2CI1 SLP204

CYHM;2011-11-02 21:00;CYHM 022100Z 19012KT 15SM FEW150 BKN220 16/06 A3011 RMK AC2CI3 SLP200

CYHM;2011-11-02 22:00;CYHM 022200Z 19010KT 15SM FEW150 FEW250 13/05 A3010 RMK AC1CI1 CONTRAILS SLP198

CYHM;2011-11-02 23:00;CYHM 022300Z 20006KT 15SM FEW140 FEW240 10/04 A3010 RMK AC1CI1 CONTRAILS SLP196

CYHM;2011-11-03 00:00;CYHM 030000Z 20009KT 15SM SCT230 11/05 A3009 RMK CI3 SLP194

CYHM;2011-11-03 01:00;CYHM 030100Z 20009KT 15SM FEW230 10/06 A3007 RMK CI2 SLP188

CYHM;2011-11-03 02:00;CYHM 030200Z 20011KT 15SM BKN150 11/06 A3006 RMK AC6 SLP184

CYHM;2011-11-03 03:00;CYHM 030300Z 20011KT 15SM FEW130 BKN180 11/05 A3005 RMK AC1AC5 SLP180

CYHM;2011-11-03 04:00;CYHM 030400Z 20012KT 15SM SCT170 11/05 A3004 RMK AC3 SLP175

CYHM;2011-11-03 05:00;CYHM 030500Z 21009KT 15SM FEW170 10/05 A3003 RMK AC2 SLP173

CYHM;2011-11-03 06:00;CYHM 030600Z 21009KT 15SM FEW170 SCT240 10/05 A3002 RMK AC1CI2 SLP169

CYHM;2011-11-03 07:00;CYHM 030700Z 19008KT 15SM FEW200 09/04 A3001 RMK CI2 SLP165

CYHM;2011-11-03 08:00;CYHM 030800Z 20008KT 15SM FEW190 10/05 A3000 RMK AC2 SLP160

CYHM;2011-11-03 09:00;CYHM 030900Z 20008KT 15SM FEW200 09/05 A2999 RMK CI1 SLP158

CYHM;2011-11-03 10:00;CYHM 031000Z 23005KT 15SM BKN230 08/04 A3000 RMK CI5 SLP160

CYHM;2011-11-03 11:00;CYHM 031100Z 21007KT 15SM FEW130 BKN240 07/04 A2998 RMK AC2CI2 SLP156

CYHM;2011-11-03 12:00;CYHM 031200Z 24005KT 15SM FEW120 FEW160 BKN240 07/04 A2998 RMK AC2AC1CI2 SLP157

CYHM;2011-11-03 13:00;CYHM 031300Z 25005KT 15SM FEW130 BKN170 BKN210 08/06 A3000 RMK AC2AS2CI2 SLP163

CYHM;2011-11-03 14:00;CYHM 031400Z 28004KT 15SM SCT140 BKN170 OVC210 09/07 A3000 RMK AC3AS2CI2 SLP164

CYHM;2011-11-03 15:00;CYHM 031500Z 34005KT 15SM FEW060 BKN120 BKN160 OVC210 11/07 A3002 RMK SC2AC2AS2CI1 SLP169

CYHM;2011-11-03 16:00;CYHM 031600Z 21006KT 10SM FEW063 BKN130 BKN170 OVC210 11/08 A3003 RMK SC2AC3AS2CI1 SLP172

CYHM;2011-11-03 17:00;CYHM 031700Z CCA 02007KT 15SM BKN017 BKN068 OVC150 11/08 A3002 RMK SC5AC2AC1 TR CU ASOCTD SLP168

CYHM;2011-11-03 18:00;CYHM 031800Z 03009KT 15SM BKN019 BKN055 OVC100 11/08 A3001 RMK SC6SC2AC1 SLP166

CYHM;2011-11-03 19:00;CYHM 031900Z 36012KT 15SM FEW024 OVC038 10/05 A3000 RMK SC2SC6 SLP164

CYHM;2011-11-03 20:00;CYHM 032000Z 01010KT 15SM FEW025 OVC039 09/05 A3001 RMK SC1SC8 SLP165

CYHM;2011-11-03 21:00;CYHM 032100Z 04009KT 15SM FEW030 OVC051 08/05 A3001 RMK SC1SC8 SLP165

CYHM;2011-11-03 22:00;CYHM 032200Z 36010KT 15SM SCT016 OVC053 08/05 A3002 RMK SC3SC5 SLP170

CYHM;2011-11-03 23:00;CYHM 032300Z CCA 02010G16KT 15SM FEW017 OVC055 07/05 A3004 RMK SC1SC7 SLP178

CYHM;2011-11-04 00:00;CYHM 040000Z 02013KT 15SM FEW017 OVC065 07/03 A3006 RMK SC1SC7 SLP186

CYHM;2011-11-04 01:00;CYHM 040100Z 02013G19KT 15SM FEW018 BKN068 BKN230 06/03 A3008 RMK SC1AC5CI2 SLP191

CYHM;2011-11-04 02:00;CYHM 040200Z 02011KT 15SM FEW070 BKN250 05/02 A3010 RMK AC1CI4 SLP197

CYHM;2011-11-04 03:00;CYHM 040300Z 02010KT 15SM FEW070 BKN250 05/02 A3010 RMK AC1CI5 SLP199

CYHM;2011-11-04 04:00;CYHM 040400Z 02009KT 15SM BKN028 BKN250 05/02 A3010 RMK SC5CI1 SLP200

CYHM;2011-11-04 05:00;CYHM 040500Z 02007KT 15SM FEW028 FEW250 04/01 A3013 RMK SC2CI0 SLP207

CYHM;2011-11-04 06:00;CYHM 040600Z 01010KT 15SM FEW025 FEW250 03/01 A3013 RMK SC1CI0 SLP209

CYHM;2011-11-04 07:00;CYHM 040700Z 01013KT 15SM FEW025 02/M00 A3013 RMK SC1 SLP208

CYHM;2011-11-04 08:00;CYHM 040800Z 01012KT 15SM FEW025 01/M01 A3013 RMK SC1 SLP210

CYHM;2011-11-04 09:00;CYHM 040900Z 03009KT 15SM FEW025 01/M02 A3016 RMK SC1 SLP221

CYHM;2011-11-04 10:00;CYHM 041000Z 05008KT 15SM SKC 01/M02 A3018 RMK SLP228

CYHM;2011-11-04 11:00;CYHM 041100Z 03006KT 15SM FEW050 FEW220 01/M02 A3020 RMK SC1CI1 SC TR CI TR SLP232

CYHM;2011-11-04 12:00;CYHM 041200Z 01005KT 15SM FEW025 FEW240 00/M02 A3021 RMK SC1CI1 SC TR CI TR SLP238

CYHM;2011-11-04 13:00;CYHM 041300Z 02004KT 15SM SKC 02/M01 A3023 RMK SLP244

CYHM;2011-11-04 14:00;CYHM 041400Z 03008KT 15SM SKC 04/M01 A3025 RMK SLP251

CYHM;2011-11-04 15:00;CYHM 041500Z 03008KT 15SM FEW025 06/M01 A3026 RMK CU1 CU TR SLP253

CYHM;2011-11-04 16:00;CYHM 041600Z 02010G16KT 15SM FEW032 08/M01 A3026 RMK CU1 SLP254

CYHM;2011-11-04 17:00;CYHM 041700Z 01009G15KT 15SM FEW030 08/M03 A3025 RMK CU1 SLP251

CYHM;2011-11-04 18:00;CYHM 041800Z 01011G17KT 15SM FEW040 09/M03 A3025 RMK CU2 SLP249

CYHM;2011-11-04 19:00;CYHM 041900Z 03009KT 15SM FEW050 09/M02 A3025 RMK CU1 SLP249

CYHM;2011-11-04 20:00;CYHM 042000Z 02012KT 15SM FEW050 08/M03 A3026 RMK CU1 SLP254

CYHM;2011-11-04 21:00;CYHM 042100Z 03010KT 15SM FEW045 08/M04 A3028 RMK CU1 SLP260

CYHM;2011-11-04 22:00;CYHM 042200Z 02008KT 15SM FEW040 FEW100 06/M03 A3030 RMK CU1AC1 SLP266

CYHM;2011-11-04 23:00;CYHM 042300Z 05006KT 15SM FEW035 FEW090 04/M02 A3031 RMK CU1AC1 SLP272

CYHM;2011-11-05 00:00;CYHM 050000Z 01008KT 15SM FEW240 04/M03 A3033 RMK CI1 SLP279

CYHM;2011-11-05 01:00;CYHM 050100Z 01006KT 15SM SKC 02/M03 A3033 RMK SLP280

CYHM;2011-11-05 02:00;CYHM 050200Z 02006KT 15SM FEW210 02/M03 A3034 RMK CI1 CONTRAILS SLP285

CYHM;2011-11-05 03:00;CYHM 050300Z 03003KT 15SM FEW200 02/M03 A3035 RMK CI1 SLP286

CYHM;2011-11-05 04:00;CYHM 050400Z 01004KT 15SM FEW220 00/M03 A3036 RMK CI1 FROIN SLP289

CYHM;2011-11-05 05:00;CYHM 050500Z 36002KT 15SM FEW200 01/M02 A3038 RMK CI1 FROIN SLP297

CYHM;2011-11-05 06:00;CYHM 050600Z 09004KT 15SM FEW200 02/M03 A3040 RMK CI1 FROIN SLP301

CYHM;2011-11-05 07:00;CYHM 050700Z 10007KT 15SM FEW200 01/M04 A3039 RMK CI1 FROIN SLP300

CYHM;2011-11-05 08:00;CYHM 050800Z 09005KT 15SM FEW080 00/M04 A3039 RMK AC1 FROIN SLP300

CYHM;2011-11-05 09:00;CYHM 050900Z 09006KT 15SM FEW200 M01/M04 A3039 RMK CI1 FROIN SLP299

CYHM;2011-11-05 10:00;CYHM 051000Z 10004KT 15SM FEW200 M00/M04 A3041 RMK CI1 FROIN SLP305

CYHM;2011-11-05 11:00;CYHM 051100Z 11006KT 15SM SKC M01/M05 A3041 RMK SLP306

CYHM;2011-11-05 12:00;CYHM 051200Z 11006KT 15SM FEW220 M00/M04 A3041 RMK CI1 SLP308

CYHM;2011-11-05 13:00;CYHM 051300Z 11005KT 15SM FEW250 00/M03 A3042 RMK CI1 SLP311

CYHM;2011-11-05 14:00;CYHM 051400Z 10007KT 15SM SCT250 04/M01 A3043 RMK CI1 SLP314

CYHM;2011-11-05 15:00;CYHM 051500Z 10010KT 15SM FEW250 05/M01 A3044 RMK CI1 SLP317

CYHM;2011-11-05 16:00;CYHM 051600Z 10009KT 15SM FEW250 06/M02 A3043 RMK CI1 SLP313

CYHM;2011-11-05 17:00;CYHM 051700Z 10005KT 15SM FEW250 07/M02 A3041 RMK CI1 SLP306

CYHM;2011-11-05 18:00;CYHM 051800Z 10004KT 15SM FEW250 08/M02 A3039 RMK CI1 CONTRAILS SLP298

CYHM;2011-11-05 19:00;CYHM 051900Z 07008KT 15SM FEW150 SCT250 08/M00 A3037 RMK AC1CI1 AC TR CONTRAILS SLP291

CYHM;2011-11-05 20:00;CYHM 052000Z 06009KT 15SM FEW250 07/M00 A3036 RMK CI1 SLP287

CYHM;2011-11-05 21:00;CYHM 052100Z 05009KT 15SM FEW220 06/M01 A3035 RMK CI1 SLP286

CYHM;2011-11-05 22:00;CYHM 052200Z 05009KT 15SM FEW220 04/M00 A3034 RMK CI1 CONTRAILS SLP282

CYHM;2011-11-05 23:00;CYHM 052300Z 05008KT 15SM FEW240 03/00 A3033 RMK CI1 SLP278

CYHM;2011-11-06 00:00;CYHM 060000Z 05008KT 15SM FEW220 02/01 A3032 RMK CI1 SLP277

CYHM;2011-11-06 01:00;CYHM 060100Z 05009KT 15SM SKC 03/02 A3031 RMK SLP273

CYHM;2011-11-06 02:00;CYHM 060200Z 05009KT 15SM SKC 02/01 A3031 RMK SLP273

CYHM;2011-11-06 03:00;CYHM 060300Z 05007KT 15SM MIFG FEW210 03/03 A3030 RMK CI1 SLP267

CYHM;2011-11-06 04:00;CYHM 060400Z 06005KT 3SM BR FEW200 01/01 A3029 RMK CI1 VIS HIER NE SLP265

CYHM;2011-11-06 05:00;CYHM 060500Z 14004KT 15SM MIFG FEW200 02/01 A3029 RMK CI1 SLP264

CYHM;2011-11-06 06:00;CYHM 060600Z 18005KT 15SM FEW250 03/M02 A3028 RMK CI1 SLP262

CYHM;2011-11-06 07:00;CYHM 060700Z 19005KT 15SM FEW220 01/M02 A3028 RMK CI1 SLP262

CYHM;2011-11-06 08:00;CYHM 060800Z 19006KT 15SM FEW200 02/M02 A3028 RMK CI1 SLP261

CYHM;2011-11-06 09:00;CYHM 060900Z 19005KT 15SM SKC 02/M02 A3028 RMK SLP263

CYHM;2011-11-06 10:00;CYHM 061000Z 20006KT 15SM FEW200 00/M03 A3030 RMK CI1 SLP267

CYHM;2011-11-06 11:00;CYHM 061100Z 19008KT 15SM FEW100 FEW200 01/M03 A3030 RMK AC1CI1 FROIN TR AC SLP267

CYHM;2011-11-06 12:00;CYHM 061200Z 19009KT 15SM FEW025 FEW220 03/M01 A3029 RMK SC1CI0 SLP266

CYHM;2011-11-06 13:00;CYHM 061300Z 20008KT 15SM FEW025 FEW220 04/M00 A3031 RMK SC1CI1 SLP273

CYHM;2011-11-06 14:00;CYHM 061400Z 20012KT 15SM FEW030 FEW250 07/02 A3031 RMK SC1CI1 SLP272

CYHM;2011-11-06 15:00;CYHM 061500Z 20013KT 15SM FEW035 FEW250 10/00 A3030 RMK SC1CI1 SC TR SLP268

CYHM;2011-11-06 16:00;CYHM 061600Z 19014KT 15SM FEW250 11/01 A3028 RMK CI1 SLP262

CYHM;2011-11-06 17:00;CYHM 061700Z 19013KT 15SM FEW250 12/02 A3026 RMK CI1 SLP254

CYHM;2011-11-06 18:00;CYHM 061800Z 20011G18KT 15SM BKN250 13/03 A3023 RMK CI2 SLP244

CYHM;2011-11-06 19:00;CYHM 061900Z 19013G19KT 15SM SCT250 13/03 A3021 RMK CI2 SLP236

CYHM;2011-11-06 20:00;CYHM 062000Z 19012G18KT 15SM SCT250 14/03 A3020 RMK CI2 SLP233

CYHM;2011-11-06 21:00;CYHM 062100Z 20010G15KT 15SM BKN250 13/02 A3020 RMK CI3 CONTRAILS SLP232

CYHM;2011-11-06 22:00;CYHM 062200Z 19008KT 15SM BKN250 11/02 A3020 RMK CI4 CONTRAILS SLP231

CYHM;2011-11-06 23:00;CYHM 062300Z 18008KT 15SM BKN250 10/03 A3019 RMK CI3 SLP230

CYHM;2011-11-07 00:00;CYHM 070000Z 19008KT 15SM SCT250 09/03 A3019 RMK CI2 SLP229

CYHM;2011-11-07 01:00;CYHM 070100Z 20011KT 15SM SCT200 09/03 A3017 RMK CI2 SLP223

CYHM;2011-11-07 02:00;CYHM 070200Z 20011KT 15SM BKN220 09/02 A3019 RMK CI2 SLP229

CYHM;2011-11-07 03:00;CYHM 070300Z 21014KT 15SM SCT220 10/02 A3019 RMK CI2 SLP227

CYHM;2011-11-07 04:00;CYHM 070400Z 21013KT 15SM SCT250 10/04 A3018 RMK CI2 CC ASOCTD SLP224

CYHM;2011-11-07 05:00;CYHM 070500Z 20010KT 15SM SCT250 09/04 A3018 RMK CI2 SLP225

CYHM;2011-11-07 06:00;CYHM 070600Z 21012KT 15SM SCT240 09/05 A3019 RMK CI2 SLP227

CYHM;2011-11-07 07:00;CYHM 070700Z 21009KT 15SM BKN038 10/05 A3019 RMK SC7 SLP227

CYHM;2011-11-07 08:00;CYHM 070800Z 22010KT 15SM OVC036 10/05 A3019 RMK SC8 SLP227

CYHM;2011-11-07 09:00;CYHM 070900Z 23009KT 15SM FEW036 BKN080 11/05 A3019 RMK SC2AC5 SLP225

CYHM;2011-11-07 10:00;CYHM 071000Z 23009KT 15SM BKN036 OVC078 12/05 A3019 RMK SC6AC2 SLP227

CYHM;2011-11-07 11:00;CYHM 071100Z 23011KT 15SM BKN040 OVC078 12/05 A3020 RMK SC6AC2 SLP228

CYHM;2011-11-07 12:00;CYHM 071200Z 22008KT 15SM BKN036 OVC045 12/06 A3020 RMK SC6SC2 SLP232

CYHM;2011-11-07 13:00;CYHM 071300Z 22008KT 15SM SCT042 OVC077 12/06 A3022 RMK SC3AC5 SLP236

CYHM;2011-11-07 14:00;CYHM 071400Z 23012KT 15SM BKN041 BKN075 13/07 A3023 RMK SC6AC2 SLP241

CYHM;2011-11-07 15:00;CYHM 071500Z 25011KT 15SM FEW045 FEW120 BKN240 14/07 A3023 RMK SC1AC1CI2 CONTRAILS SLP239

CYHM;2011-11-07 16:00;CYHM 071600Z 23010KT 15SM FEW042 FEW140 BKN240 15/08 A3021 RMK SC1AC1CI2 SLP235

CYHM;2011-11-07 17:00;CYHM 071700Z 25013G20KT 15SM FEW042 BKN110 BKN220 17/08 A3021 RMK SC2AC3CI1 SLP233

CYHM;2011-11-07 18:00;CYHM 071800Z 22011G16KT 15SM SCT039 BKN088 OVC160 16/08 A3020 RMK SC3AC3AC2 SLP229

CYHM;2011-11-07 19:00;CYHM 071900Z 23013KT 15SM OVC032 15/08 A3020 RMK SC8 SLP229

CYHM;2011-11-07 20:00;CYHM 072000Z 23012KT 15SM OVC033 14/08 A3019 RMK SC8 SLP226

CYHM;2011-11-07 21:00;CYHM 072100Z 23010KT 15SM OVC032 13/09 A3020 RMK SC8 SLP231

CYHM;2011-11-07 22:00;CYHM 072200Z 21008KT 15SM FEW036 BKN130 12/09 A3020 RMK SC2AC3 SLP230

CYHM;2011-11-07 23:00;CYHM 072300Z 21009KT 15SM BKN110 12/09 A3021 RMK AC7 SLP233

CYHM;2011-11-08 00:00;CYHM 080000Z 22009KT 15SM SCT110 11/09 A3021 RMK AC2 SLP233

CYHM;2011-11-08 01:00;CYHM 080100Z 22008KT 15SM FEW076 SCT210 10/09 A3022 RMK AC1CI1 SLP236

CYHM;2011-11-08 02:00;CYHM 080200Z 23009KT 15SM FEW094 BKN200 10/10 A3023 RMK AC1CC4 SLP239

CYHM;2011-11-08 03:00;CYHM 080300Z 22007KT 15SM BKN061 BKN098 11/10 A3023 RMK SC6AC2 SLP240

CYHM;2011-11-08 04:00;CYHM 080400Z 24007KT 15SM FEW062 OVC087 11/10 A3022 RMK SC2AC6 SLP237

CYHM;2011-11-08 05:00;CYHM 080500Z 24007KT 12SM OVC080 11/10 A3022 RMK AC8 SLP237

CYHM;2011-11-08 06:00;CYHM 080600Z 25006KT 15SM OVC037 11/10 A3023 RMK SC8 SLP238

CYHM;2011-11-08 07:00;CYHM 080700Z 23004KT 12SM OVC036 11/10 A3023 RMK SC8 SLP239

CYHM;2011-11-08 08:00;CYHM 080800Z 20004KT 12SM OVC027 11/10 A3023 RMK SC8 SLP240

CYHM;2011-11-08 09:00;CYHM 080900Z 16004KT 2 1/2SM -SHRA BR FEW006 BKN026 OVC074 11/11 A3021 RMK SF1SC6AC1 SLP235

CYHM;2011-11-08 10:00;CYHM 081000Z 16005KT 2 1/2SM -SHRA BR FEW008 OVC023 11/11 A3022 RMK SF1SC7 SLP236

CYHM;2011-11-08 10:21;CYHM 081021Z 19004KT 2 1/2SM -DZ BR FEW009 OVC022 RMK SF1SC7

CYHM;2011-11-08 11:00;CYHM 081100Z 16003KT 2SM -DZ BR FEW008 OVC019 11/11 A3022 RMK SF1SC7 SLP237

CYHM;2011-11-08 11:34;CYHM 081134Z 13002KT 1 1/2SM -SHRA BR SCT005 OVC017 RMK FG2SF2SC4

CYHM;2011-11-08 11:50;CYHM 081150Z 16002KT 1SM -SHRA BR SCT006 OVC015 RMK FG2SF2SC5 VIS VRBL 3/4-11/4SM

CYHM;2011-11-08 12:00;CYHM 081200Z 15002KT 1SM -SHRA BR SCT006 OVC015 11/11 A3022 RMK FG2SF2SC4 VIS VRBL 3/4-11/4SM SLP236

CYHM;2011-11-08 12:10;CYHM 081210Z 12002KT 1 1/2SM BR SCT008 OVC013 RMK FG2SF2SC5

CYHM;2011-11-08 12:20;CYHM 081220Z 10002KT 1SM BR OVC011 RMK FG2SC6 VIS VRBL 3/4-11/4SM

CYHM;2011-11-08 13:00;CYHM 081300Z 14003KT 1 1/2SM BR SCT017 BKN055 BKN120 11/11 A3021 RMK FG1SC2SC3AC1 SLP233

CYHM;2011-11-08 13:23;CYHM 081323Z 17003KT 1SM BR BKN004 OVC020 RMK FG2SF5SC2 VIS VRBL 3/4-11/4SM

CYHM;2011-11-08 14:00;CYHM 081400Z 18005KT 1 1/2SM BR OVC002 11/11 A3021 RMK FG2SF6 CIG RGD SLP233

CYHM;2011-11-08 15:00;CYHM 081500Z 18004KT 2SM BR SCT002 OVC049 12/12 A3019 RMK SF4SC4 SLP228

CYHM;2011-11-08 16:00;CYHM 081600Z 18005KT 5SM BR FEW016 BKN063 BKN080 13/12 A3018 RMK SC2SC3AC2 SLP225

CYHM;2011-11-08 17:00;CYHM 081700Z 18003KT 15SM FEW120 FEW220 17/11 A3015 RMK AC1CI2 AC TR SLP214

CYHM;2011-11-08 18:00;CYHM 081800Z 21006KT 15SM FEW120 FEW240 18/11 A3013 RMK AC1CI1 AC TR SLP206

CYHM;2011-11-08 19:00;CYHM 081900Z 04012KT 5SM BR FEW006 SCT067 BKN250 13/11 A3013 RMK SF1AC2CI2 CC ASOCTD SLP203

CYHM;2011-11-08 19:37;CYHM 081937Z 05011KT 1 3/4SM BR BKN002 BKN064 RMK SF6SC1

CYHM;2011-11-08 20:00;CYHM 082000Z 05011KT 1SM BR OVC003 11/11 A3012 RMK SF6 SLP201

CYHM;2011-11-08 21:00;CYHM 082100Z 04009KT 1/2SM FG OVC002 11/11 A3012 RMK FG2SF6 SLP203

CYHM;2011-11-08 22:00;CYHM 082200Z 03007KT 3/8SM FG OVC003 10/10 A3012 RMK FG3SF5 SLP203

CYHM;2011-11-08 23:00;CYHM 082300Z 04009KT 1/4SM FG VV002 10/10 A3011 RMK FG8 SLP200

CYHM;2011-11-09 00:00;CYHM 090000Z 04009KT 1/8SM FG VV001 09/09 A3012 RMK FG8 SLP204

CYHM;2011-11-09 01:00;CYHM 090100Z 07007KT 1/8SM FG VV001 09/09 A3010 RMK FG8 SLP199

CYHM;2011-11-09 02:00;CYHM 090200Z 03004KT 1/8SM FG VV001 09/09 A3012 RMK FG8 SLP204

CYHM;2011-11-09 03:00;CYHM 090300Z 04005KT 1/8SM FG VV001 09/09 A3010 RMK FG8 SLP198

CYHM;2011-11-09 04:00;CYHM 090400Z 05005KT 1/8SM FG SKC 08/08 A3008 RMK FG7 SLP189

CYHM;2011-11-09 05:00;CYHM 090500Z 06006KT 1/4SM FG BKN080 07/07 A3007 RMK FG2AC2 SLP185

CYHM;2011-11-09 05:42;CYHM 090542Z 06003KT 12SM SCT052 BKN250 RMK SC3CI1

CYHM;2011-11-09 06:00;CYHM 090600Z 08006KT 8SM BCFG FEW052 SCT160 BKN250 07/07 A3005 RMK SC2AC1CI1 SLP179

CYHM;2011-11-09 07:00;CYHM 090700Z 06005KT 12SM BKN160 BKN250 07/07 A3003 RMK AC6CI1 SLP173

CYHM;2011-11-09 08:00;CYHM 090800Z 06003KT 15SM BKN052 OVC160 08/08 A3004 RMK SC7AC1 SLP175

CYHM;2011-11-09 09:00;CYHM 090900Z 04003KT 15SM OVC050 09/09 A3003 RMK SC8 SLP173

CYHM;2011-11-09 10:00;CYHM 091000Z 13003KT 15SM OVC051 09/09 A3001 RMK SC8 SLP166

CYHM;2011-11-09 11:00;CYHM 091100Z 15006KT 15SM BKN052 OVC140 10/09 A2999 RMK SC6AC2 SLP160

CYHM;2011-11-09 12:00;CYHM 091200Z 17007KT 15SM FEW052 SCT063 BKN150 11/09 A2999 RMK SC2SC2AC2 SLP159

CYHM;2011-11-09 13:00;CYHM 091300Z 18006KT 15SM FEW052 BKN056 BKN150 11/08 A2999 RMK SC2SC3AC2 SLP159

CYHM;2011-11-09 14:00;CYHM 091400Z 18008KT 15SM FEW050 SCT062 BKN150 13/09 A2997 RMK SC2SC2AC2 SLP153

CYHM;2011-11-09 15:00;CYHM 091500Z 16008KT 15SM FEW060 SCT140 BKN180 OVC240 14/09 A2994 RMK SC2AC2AC2CI1 SLP143

CYHM;2011-11-09 16:00;CYHM 091600Z 19011KT 15SM FEW060 BKN150 BKN180 OVC230 16/07 A2992 RMK SC2AC3AC2CI1 SLP136

CYHM;2011-11-09 17:00;CYHM 091700Z 18014KT 15SM FEW056 BKN150 OVC220 15/06 A2987 RMK SC2AC5CI2 SLP119

CYHM;2011-11-09 18:00;CYHM 091800Z 18007KT 15SM FEW058 BKN140 OVC180 16/07 A2984 RMK SC2AC4AC2 SLP106

CYHM;2011-11-09 19:00;CYHM 091900Z 17014G19KT 15SM FEW055 BKN095 OVC160 17/07 A2980 RMK SC2AC3AC2 SLP095

CYHM;2011-11-09 19:04;CYHM 091904Z 17012G19KT 15SM -SHRA SCT043 BKN078 OVC092 RMK SC4AC3AC1

CYHM;2011-11-09 20:00;CYHM 092000Z 19010KT 10SM -SHRA FEW035 OVC061 14/10 A2979 RMK SC2SC6 SLP090

CYHM;2011-11-09 21:00;CYHM 092100Z 19008KT 10SM -SHRA FEW045 OVC076 13/11 A2977 RMK SC2AC6 SLP083

CYHM;2011-11-09 22:00;CYHM 092200Z 20006KT 8SM -SHRA OVC050 13/11 A2975 RMK SC8 SLP076

CYHM;2011-11-09 23:00;CYHM 092300Z 23004KT 7SM -SHRA BKN046 OVC080 12/12 A2973 RMK SC6AC2 SLP072

CYHM;2011-11-10 00:00;CYHM 100000Z 17010KT 6SM -SHRA BR FEW019 OVC040 13/12 A2972 RMK SC2SC6 SLP068

CYHM;2011-11-10 01:00;CYHM 100100Z 18016KT 15SM FEW012 BKN035 13/12 A2968 RMK CF1SC6 PRESFR SLP053

CYHM;2011-11-10 02:00;CYHM 100200Z 19019G28KT 15SM BKN026 14/12 A2966 RMK SC6 SLP047

CYHM;2011-11-10 03:00;CYHM 100300Z 24027G44KT 15SM FEW013 BKN027 11/08 A2969 RMK CF1SC6 SLP056

CYHM;2011-11-10 04:00;CYHM 100400Z 23021G33KT 15SM BKN029 09/05 A2972 RMK SC7 SLP067

CYHM;2011-11-10 05:00;CYHM 100500Z 24024G34KT 15SM FEW025 BKN044 08/03 A2975 RMK CU2SC6 SLP075

CYHM;2011-11-10 06:00;CYHM 100600Z 23019G37KT 15SM FEW030 FEW060 06/01 A2978 RMK CU1SC1 SLP089

CYHM;2011-11-10 07:00;CYHM 100700Z 24022G30KT 15SM FEW027 06/01 A2981 RMK SC1 SLP098

CYHM;2011-11-10 08:00;CYHM 100800Z 24014G21KT 15SM FEW025 05/01 A2982 RMK SC1 SLP100

CYHM;2011-11-10 09:00;CYHM 100900Z 25016G30KT 15SM FEW038 SCT200 05/01 A2983 RMK SC1CI1 SLP107

CYHM;2011-11-10 10:00;CYHM 101000Z 25019G26KT 15SM FEW025 FEW210 04/01 A2984 RMK SC1CI1 SLP110

CYHM;2011-11-10 11:00;CYHM 101100Z 24014G21KT 15SM FEW025 FEW210 04/00 A2986 RMK SC2CI1 SLP115

CYHM;2011-11-10 12:00;CYHM 101200Z 25013KT 15SM BKN032 BKN210 04/00 A2988 RMK SC5CI1 SLP124

CYHM;2011-11-10 13:00;CYHM 101300Z 24010KT 15SM BKN028 BKN210 04/00 A2989 RMK SC6CI1 SLP128

CYHM;2011-11-10 14:00;CYHM 101400Z 23014KT 15SM FEW020 SCT032 BKN120 BKN220 05/01 A2991 RMK CU1SC2AC2CI2 SLP132

CYHM;2011-11-10 15:00;CYHM 101500Z 25013G19KT 15SM FEW024 FEW055 SCT120 BKN210 06/01 A2989 RMK CU2SC1AC2CI2 SLP127

CYHM;2011-11-10 16:00;CYHM 101600Z 27015G20KT 15SM SCT030 BKN050 BKN210 07/M00 A2988 RMK CU3SC2CI1 SLP124

CYHM;2011-11-10 17:00;CYHM 101700Z 26012KT 15SM FEW032 SCT045 BKN140 BKN220 07/M00 A2987 RMK CU2SC2AC2CI1 SLP120

CYHM;2011-11-10 18:00;CYHM 101800Z 24013KT 15SM FEW030 BKN058 BKN130 BKN210 07/00 A2985 RMK CU2SC2AC2CI1 SLP113

CYHM;2011-11-10 19:00;CYHM 101900Z 23010G16KT 15SM FEW035 SCT050 BKN070 BKN210 08/00 A2984 RMK CU2SC2AC2CI1 SLP109

CYHM;2011-11-10 20:00;CYHM 102000Z 24012KT 15SM VCSH FEW038 BKN072 BKN230 07/M02 A2982 RMK CU2AC3CI0 SLP105

CYHM;2011-11-10 21:00;CYHM 102100Z 23008KT 15SM FEW035 FEW065 FEW230 06/M01 A2982 RMK CU2SC1CI1 CI TR SLP103

CYHM;2011-11-10 22:00;CYHM 102200Z 21007KT 15SM BKN035 BKN060 05/01 A2981 RMK SC5SC2 VIRGA SLP102

CYHM;2011-11-10 23:00;CYHM 102300Z 23005KT 15SM FEW060 03/M01 A2981 RMK SC1 SLP100

CYHM;2011-11-11 00:00;CYHM 110000Z 24010KT 15SM FEW060 03/M01 A2981 RMK SC1 SLP100

CYHM;2011-11-11 01:00;CYHM 110100Z 26007KT 15SM SKC 03/M02 A2980 RMK SLP098

CYHM;2011-11-11 02:00;CYHM 110200Z 25010KT 15SM FEW045 02/M03 A2979 RMK SC2 SLP094

CYHM;2011-11-11 03:00;CYHM 110300Z 25007KT 15SM FEW045 01/M03 A2979 RMK SC1 SLP095

CYHM;2011-11-11 04:00;CYHM 110400Z 24004KT 15SM FEW045 M00/M03 A2978 RMK SC1 SLP092

CYHM;2011-11-11 05:00;CYHM 110500Z 26007KT 15SM SKC 00/M02 A2977 RMK SLP087

CYHM;2011-11-11 06:00;CYHM 110600Z 25007KT 15SM SKC M00/M02 A2975 RMK SLP082

CYHM;2011-11-11 12:00;CYHM 111200Z 25008KT 15SM FEW020 FEW110 M00/M01 A2976 RMK SC1AC1 SLP086

CYHM;2011-11-11 12:21;CYHM 111221Z 25010KT 8SM BKN004 BKN025 BKN120 RMK SF5SC1AC1

CYHM;2011-11-11 12:30;CYHM 111230Z 25010KT 10SM FEW005 FEW035 SCT120 RMK SF2SC1AC2

CYHM;2011-11-11 13:00;CYHM 111300Z 25009KT 15SM FEW030 FEW110 00/M01 A2978 RMK SC1AC1 SLP093

CYHM;2011-11-11 14:00;CYHM 111400Z 26012G19KT 15SM FEW010 FEW030 SCT130 02/00 A2979 RMK SF1SC2AC1 SLP096

CYHM;2011-11-11 15:00;CYHM 111500Z 26014G20KT 15SM FEW019 BKN028 BKN075 04/00 A2980 RMK CU2SC3AC1 SLP098

CYHM;2011-11-11 15:48;CYHM 111548Z 28016G21KT 15SM -SHRASN FEW025 BKN035 BKN042 RMK CU2SC3SC2

CYHM;2011-11-11 16:00;CYHM 111600Z 29013G24KT 15SM -SHRA FEW025 BKN056 BKN060 04/M01 A2981 RMK CU1SC4SC2 PCPN VRY LGT SLP101

CYHM;2011-11-11 16:23;CYHM 111623Z 30015G21KT 15SM FEW025 BKN039 BKN055 RMK CU2SC3SC1

CYHM;2011-11-11 17:00;CYHM 111700Z 30016G22KT 15SM FEW025 BKN034 BKN042 04/M01 A2981 RMK CU1SC5SC2 SLP102

CYHM;2011-11-11 18:00;CYHM 111800Z 29010G16KT 15SM FEW032 BKN045 04/M02 A2981 RMK CU2SC5 SLP103

CYHM;2011-11-11 19:00;CYHM 111900Z 26019G27KT 15SM BKN026 BKN032 BKN060 04/M01 A2982 RMK SC5SC2SC1 CU ASOCTD SLP107

CYHM;2011-11-11 20:00;CYHM 112000Z 28017G27KT 15SM -SHRA FEW018 BKN060 03/M01 A2984 RMK CU2SC4 FEW TCU SLP114

CYHM;2011-11-11 20:22;CYHM 112022Z 27015G22KT 15SM VCSH FEW025 SCT058 RMK CU1SC3

CYHM;2011-11-11 21:00;CYHM 112100Z 26010G16KT 15SM FEW030 SCT068 04/M01 A2986 RMK CU2AC2 SLP119

CYHM;2011-11-11 22:00;CYHM 112200Z 25013KT 15SM FEW033 BKN065 03/M03 A2987 RMK CU2SC5 SLP122

CYHM;2011-11-11 23:00;CYHM 112300Z 24008KT 15SM BKN063 03/M03 A2988 RMK SC7 SLP125

CYHM;2011-11-12 00:00;CYHM 120000Z 23008KT 15SM FEW058 FEW160 BKN250 02/M03 A2989 RMK SC1AC2CI2 SLP130

CYHM;2011-11-12 01:00;CYHM 120100Z 23009KT 15SM BKN053 OVC150 02/M03 A2988 RMK SC6AC2 SLP128

CYHM;2011-11-12 02:00;CYHM 120200Z 23010KT 15SM FEW052 OVC120 02/M03 A2988 RMK SC2AS6 SLP126

CYHM;2011-11-12 03:00;CYHM 120300Z 25012KT 15SM FEW050 BKN150 03/M03 A2988 RMK SC1AC6 SLP125

CYHM;2011-11-12 04:00;CYHM 120400Z 24008KT 15SM FEW034 BKN140 BKN230 03/M03 A2988 RMK SC1AC4CS2 HALO SLP125

CYHM;2011-11-12 05:00;CYHM 120500Z 24009KT 15SM FEW034 BKN150 02/M03 A2988 RMK SC2AC6 SLP125

CYHM;2011-11-12 06:00;CYHM 120600Z 23009KT 15SM FEW030 SCT150 02/M02 A2987 RMK SC1AC2 SLP123

CYHM;2011-11-12 07:00;CYHM 120700Z 21008KT 15SM FEW070 BKN200 01/M02 A2985 RMK AC1CS6 HALO SLP116

CYHM;2011-11-12 08:00;CYHM 120800Z 21006KT 15SM OVC210 01/M01 A2982 RMK CS7 HALO SLP108

CYHM;2011-11-12 09:00;CYHM 120900Z 20009KT 15SM OVC210 03/M00 A2980 RMK CS7 HALO SLP097

CYHM;2011-11-12 10:00;CYHM 121000Z 20011KT 15SM FEW180 OVC240 04/01 A2980 RMK AC2CS6 HALO SLP097

CYHM;2011-11-12 11:00;CYHM 121100Z 20011KT 15SM FEW150 BKN220 04/00 A2979 RMK AC1CI3 CS ASOCTD SLP095

CYHM;2011-11-12 12:00;CYHM 121200Z 20010G17KT 15SM FEW230 04/00 A2979 RMK CI2 SLP096

CYHM;2011-11-12 13:00;CYHM 121300Z 22011KT 15SM FEW020 FEW230 04/02 A2981 RMK SC1CI1 BOTH LYRS TR SLP102

CYHM;2011-11-12 14:00;CYHM 121400Z 23014KT 15SM FEW028 FEW250 07/03 A2981 RMK SC1CI1 BOTH LYRS TR SLP102

CYHM;2011-11-12 15:00;CYHM 121500Z 23018G23KT 15SM FEW030 08/02 A2983 RMK SC1 SLP106

CYHM;2011-11-12 16:00;CYHM 121600Z 24016G24KT 15SM FEW030 10/03 A2985 RMK SC1 SLP114

CYHM;2011-11-12 17:00;CYHM 121700Z 23018G25KT 15SM FEW250 11/03 A2985 RMK CI0 SLP113

CYHM;2011-11-12 18:00;CYHM 121800Z 22015G22KT 15SM FEW035 FEW250 12/03 A2985 RMK SC1CI0 SC TR SLP115

CYHM;2011-11-12 19:00;CYHM 121900Z 22018G24KT 15SM FEW250 12/04 A2985 RMK CI0 SLP115

CYHM;2011-11-12 20:00;CYHM 122000Z 22018KT 15SM FEW030 FEW240 12/05 A2986 RMK CU1CI1 CU TR SLP117

CYHM;2011-11-12 21:00;CYHM 122100Z 23020KT 15SM FEW160 FEW240 11/05 A2987 RMK AC1CI1 AC TR SLP121

CYHM;2011-11-12 22:00;CYHM 122200Z 22012G17KT 15SM FEW180 FEW240 09/04 A2988 RMK AC1CI1 AC TR SLP124

CYHM;2011-11-12 23:00;CYHM 122300Z 21009KT 15SM FEW240 07/03 A2990 RMK CI1 SLP129

CYHM;2011-11-13 00:00;CYHM 130000Z 21008KT 15SM SKC 06/03 A2989 RMK SLP129

CYHM;2011-11-13 01:00;CYHM 130100Z 22008KT 15SM FEW250 05/03 A2989 RMK CI1 CONTRAILS SLP129

CYHM;2011-11-13 02:00;CYHM 130200Z 20010KT 15SM SCT250 08/05 A2989 RMK CI2 SLP127

CYHM;2011-11-13 03:00;CYHM 130300Z 20009KT 15SM SCT250 08/06 A2988 RMK CI2 CONTRAILS SLP123

CYHM;2011-11-13 04:00;CYHM 130400Z 20009KT 15SM BKN250 09/04 A2987 RMK CS6 HALO SLP120

CYHM;2011-11-13 05:00;CYHM 130500Z 19009KT 15SM BKN230 09/03 A2987 RMK CS6 HALO SLP118

CYHM;2011-11-13 06:00;CYHM 130600Z 20012KT 15SM BKN230 09/03 A2985 RMK CS5 HALO SLP112

CYHM;2011-11-13 07:00;CYHM 130700Z 20013KT 15SM FEW160 BKN210 09/04 A2985 RMK AC2CS5 HALO SLP111

CYHM;2011-11-13 08:00;CYHM 130800Z 20012KT 15SM OVC150 10/04 A2983 RMK AS7 SLP106

CYHM;2011-11-13 09:00;CYHM 130900Z 20013KT 15SM FEW150 OVC170 10/03 A2982 RMK AC2AS6 SLP101

CYHM;2011-11-13 10:00;CYHM 131000Z 20014KT 15SM FEW140 BKN190 09/03 A2980 RMK AC1AC4 SLP096

CYHM;2011-11-13 11:00;CYHM 131100Z 20016G21KT 15SM BKN052 OVC100 11/02 A2979 RMK SC7AC1 SLP091

CYHM;2011-11-13 12:00;CYHM 131200Z 20017G22KT 15SM BKN053 11/02 A2978 RMK SC6 SLP088

CYHM;2011-11-13 13:00;CYHM 131300Z 20020G26KT 15SM BKN051 11/02 A2977 RMK SC7 SLP086

CYHM;2011-11-13 14:00;CYHM 131400Z 21016G27KT 15SM FEW043 BKN058 BKN071 11/03 A2976 RMK SC2SC3AC2 SLP081

CYHM;2011-11-13 15:00;CYHM 131500Z 21023G29KT 15SM FEW052 BKN076 13/03 A2974 RMK SC2AC5 SLP073

CYHM;2011-11-13 16:00;CYHM 131600Z 21024G32KT 15SM BKN076 12/03 A2974 RMK AC7 SLP073

CYHM;2011-11-13 17:00;CYHM 131700Z 21019G27KT 15SM FEW056 OVC071 13/04 A2972 RMK SC2AC6 SLP067

CYHM;2011-11-13 18:00;CYHM 131800Z 21025G34KT 15SM FEW040 SCT071 OVC250 14/05 A2965 RMK SC1AC2CS4 PRESFR SLP045

CYHM;2011-11-13 19:00;CYHM 131900Z 20021G30KT 15SM OVC039 14/05 A2964 RMK SC8 SLP040

CYHM;2011-11-13 20:00;CYHM 132000Z 20016G23KT 15SM OVC040 14/06 A2964 RMK SC8 SLP039

CYHM;2011-11-13 21:00;CYHM 132100Z 20018G25KT 15SM OVC040 14/06 A2962 RMK SC8 SLP034

CYHM;2011-11-13 22:00;CYHM 132200Z 21016G24KT 15SM BKN041 OVC055 14/07 A2962 RMK SC6SC2 SLP031

CYHM;2011-11-13 23:00;CYHM 132300Z 20017G25KT 15SM -SHRA BKN042 OVC054 14/08 A2962 RMK SC6SC2 PCPN VRY LGT SLP032

CYHM;2011-11-13 23:36;CYHM 132336Z 20019G27KT 15SM BKN043 OVC057 RMK SC5SC3

CYHM;2011-11-14 00:00;CYHM 140000Z 21019G28KT 15SM BKN043 BKN057 OVC075 15/08 A2961 RMK SC5SC2AC1 SLP028

CYHM;2011-11-14 01:00;CYHM 140100Z 20019G27KT 15SM BKN044 BKN060 OVC170 15/08 A2958 RMK SC5SC2AC2 SLP019

CYHM;2011-11-14 02:00;CYHM 140200Z 21023G33KT 15SM FEW044 SCT060 OVC160 16/08 A2957 RMK SC2SC2AS4 SLP016

CYHM;2011-11-14 03:00;CYHM 140300Z 20020G30KT 15SM BKN046 BKN190 15/08 A2956 RMK SC6AC1 SLP011

CYHM;2011-11-14 04:00;CYHM 140400Z 21024G33KT 15SM BKN054 BKN180 16/08 A2956 RMK SC6AC2 SLP012

CYHM;2011-11-14 05:00;CYHM 140500Z 21024G34KT 15SM BKN044 BKN170 16/09 A2956 RMK SC6AC2 SLP010

CYHM;2011-11-14 06:00;CYHM 140600Z 21022G32KT 15SM BKN037 16/09 A2954 RMK SC7 SLP005

CYHM;2011-11-14 07:00;CYHM 140700Z 22019G28KT 15SM BKN036 BKN064 BKN084 16/10 A2955 RMK SC5SC2AC1 SLP009

CYHM;2011-11-14 08:00;CYHM 140800Z 23024G38KT 15SM FEW036 SCT080 17/11 A2958 RMK SC1AC3 SLP018

CYHM;2011-11-14 09:00;CYHM 140900Z 23022G31KT 15SM FEW024 16/11 A2960 RMK SC1 SC TR SLP025

CYHM;2011-11-14 10:00;CYHM 141000Z 23014G23KT 15SM FEW026 15/11 A2962 RMK SC2 SLP031

CYHM;2011-11-14 11:00;CYHM 141100Z 22015KT 15SM FEW026 FEW120 13/11 A2963 RMK SC1AC1 SLP035

CYHM;2011-11-14 12:00;CYHM 141200Z 23013KT 15SM FEW030 FEW120 BKN180 13/11 A2965 RMK SC1AC2AC2 SLP042

CYHM;2011-11-14 13:00;CYHM 141300Z 21007KT 15SM FEW024 BKN180 12/11 A2968 RMK SC2AC6 SLP050

CYHM;2011-11-14 14:00;CYHM 141400Z 21013KT 15SM FEW019 BKN023 BKN180 13/12 A2967 RMK SC2SC3AC2 SLP049

CYHM;2011-11-14 15:00;CYHM 141500Z 22015G20KT 15SM SCT024 BKN140 OVC170 14/11 A2968 RMK SC4AC2AC2 SLP050

CYHM;2011-11-14 16:00;CYHM 141600Z 23016G23KT 15SM FEW018 SCT023 OVC150 15/12 A2968 RMK SC2SC2AC4 SLP051

CYHM;2011-11-14 17:00;CYHM 141700Z 23020G27KT 15SM SCT018 BKN023 BKN140 OVC210 16/12 A2971 RMK SC3SC2AC2CI1 SLP063

CYHM;2011-11-14 18:00;CYHM 141800Z 21013KT 15SM SCT018 BKN024 OVC150 15/13 A2962 RMK SC3SC3AC2 SLP030

CYHM;2011-11-14 19:00;CYHM 141900Z 21015KT 15SM BKN012 OVC022 14/13 A2959 RMK SC6SC2 SLP021

CYHM;2011-11-14 19:50;CYHM 141950Z 20009KT 9SM -SHRA OVC007 RMK SC8 SF ASOCTD

CYHM;2011-11-14 20:00;CYHM 142000Z 20009KT 8SM -SHRA OVC008 14/13 A2956 RMK SC8 SF ASOCTD SLP010

CYHM;2011-11-14 20:39;CYHM 142039Z 21010G16KT 2 1/2SM -SHRA BR OVC007 RMK SC8 SF ASOCTD

CYHM;2011-11-14 21:00;CYHM 142100Z 20005KT 2 1/2SM -SHRA BR OVC008 13/13 A2953 RMK SC8 SF ASOCTD SLP000

CYHM;2011-11-14 21:43;CYHM 142143Z 35011G17KT 3SM -SHRA BR SCT006 OVC012 RMK SF3SC5

CYHM;2011-11-14 22:00;CYHM 142200Z 34012KT 6SM -SHRA BR SCT006 OVC012 09/08 A2955 RMK SF3SC5 SLP009

CYHM;2011-11-14 22:31;CYHM 142231Z 03006KT 12SM -SHRA FEW009 OVC018 RMK SF1SC7

CYHM;2011-11-14 23:00;CYHM 142300Z 01005KT 15SM -SHRA OVC022 09/08 A2958 RMK SC8 SLP017

CYHM;2011-11-15 00:00;CYHM 150000Z 35004KT 15SM OVC026 09/08 A2958 RMK SC8 SLP020

CYHM;2011-11-15 01:00;CYHM 150100Z 31003KT 15SM OVC025 09/08 A2958 RMK SC8 SLP020

CYHM;2011-11-15 02:00;CYHM 150200Z 25001KT 15SM OVC030 09/08 A2960 RMK SC8 SLP026

CYHM;2011-11-15 03:00;CYHM 150300Z 24004KT 15SM OVC032 08/08 A2963 RMK SC8 SLP037

CYHM;2011-11-15 04:00;CYHM 150400Z 28005KT 15SM FEW030 OVC230 07/07 A2964 RMK SC1CS3 SLP038

CYHM;2011-11-15 05:00;CYHM 150500Z 28004KT 15SM FEW030 OVC230 07/07 A2966 RMK SC1CS3 SLP045

CYHM;2011-11-15 06:00;CYHM 150600Z 26006KT 15SM BKN190 07/07 A2968 RMK AC7 SLP053

CYHM;2011-11-15 07:00;CYHM 150700Z 26006KT 15SM FEW190 BKN230 06/06 A2972 RMK AC2CS2 SLP068

CYHM;2011-11-15 08:00;CYHM 150800Z 26006KT 15SM FEW190 BKN230 06/05 A2971 RMK AC2CS2 SLP063

CYHM;2011-11-15 09:00;CYHM 150900Z 25006KT 15SM BKN210 05/05 A2974 RMK CS3 SLP074

CYHM;2011-11-15 10:00;CYHM 151000Z 25006KT 15SM OVC210 05/05 A2974 RMK CS6 SLP074

CYHM;2011-11-15 11:00;CYHM 151100Z 25007KT 15SM FEW200 OVC250 05/05 A2974 RMK CS2CS3 SLP075

CYHM;2011-11-15 12:00;CYHM 151200Z 23006KT 15SM FEW180 OVC220 05/04 A2976 RMK AC2CI6 SLP084

CYHM;2011-11-15 13:00;CYHM 151300Z 24006KT 8SM OVC210 06/05 A2980 RMK CI8 SLP096

CYHM;2011-11-15 14:00;CYHM 151400Z 25005KT 10SM SCT180 BKN210 07/05 A2981 RMK AC3CI4 SLP098

CYHM;2011-11-15 15:00;CYHM 151500Z 24006KT 15SM BKN160 BKN220 07/06 A2982 RMK AC5CI2 SLP103

CYHM;2011-11-15 16:00;CYHM 151600Z 25006KT 15SM FEW160 SCT180 BKN220 08/07 A2984 RMK AC2AS2CI2 SLP108

CYHM;2011-11-15 17:00;CYHM 151700Z 24006KT 15SM FEW180 SCT220 09/07 A2982 RMK AC1CI2 CONTRAIL SLP104

CYHM;2011-11-15 18:00;CYHM 151800Z 20006KT 15SM BKN230 10/07 A2981 RMK CI2 CONTRAIL SLP099

CYHM;2011-11-15 19:00;CYHM 151900Z 18010KT 15SM BKN230 11/07 A2981 RMK CI3 SLP098

CYHM;2011-11-15 20:00;CYHM 152000Z 21011KT 15SM SCT240 12/07 A2981 RMK CI2 SLP097

CYHM;2011-11-15 21:00;CYHM 152100Z 20008KT 15SM FEW220 11/07 A2981 RMK CI1 SLP100

CYHM;2011-11-15 22:00;CYHM 152200Z 19007KT 12SM FEW220 09/07 A2982 RMK CI2 SLP104

CYHM;2011-11-15 23:00;CYHM 152300Z 19009KT 15SM FEW220 08/07 A2983 RMK CI1 SLP105

CYHM;2011-11-16 00:00;CYHM 160000Z 22007KT 15SM FEW240 07/06 A2984 RMK CI1 CI TR SLP111

CYHM;2011-11-16 01:00;CYHM 160100Z 20007KT 15SM BKN032 09/08 A2984 RMK SC7 SLP111

CYHM;2011-11-16 02:00;CYHM 160200Z 20010KT 15SM BKN028 10/09 A2984 RMK SC7 SLP112

CYHM;2011-11-16 03:00;CYHM 160300Z 21011KT 15SM BKN026 10/09 A2984 RMK SC6 SLP109

CYHM;2011-11-16 04:00;CYHM 160400Z 21011KT 15SM BKN026 10/09 A2983 RMK SC7 SLP107

CYHM;2011-11-16 05:00;CYHM 160500Z 21010KT 15SM FEW028 09/08 A2982 RMK SC2 SLP103

CYHM;2011-11-16 06:00;CYHM 160600Z 21010KT 15SM BKN026 09/09 A2981 RMK SC7 SLP100

CYHM;2011-11-16 07:00;CYHM 160700Z 20010KT 15SM FEW008 BKN037 09/09 A2981 RMK SF1SC6 SLP098

CYHM;2011-11-16 08:00;CYHM 160800Z 21008KT 15SM FEW010 BKN043 10/09 A2980 RMK SF1SC7 SLP095

CYHM;2011-11-16 09:00;CYHM 160900Z 20009KT 15SM BKN048 10/09 A2978 RMK SC7 SLP088

CYHM;2011-11-16 10:00;CYHM 161000Z 21006KT 15SM SCT048 09/08 A2978 RMK SC3 SLP086

CYHM;2011-11-16 11:00;CYHM 161100Z 22007KT 15SM FEW050 FEW160 BKN240 08/08 A2977 RMK SC1AC1CS6 HALO SC TR SLP084

CYHM;2011-11-16 12:00;CYHM 161200Z 20006KT 15SM FEW051 SCT120 BKN240 08/08 A2978 RMK SC2AC2CI2 SLP089

CYHM;2011-11-16 13:00;CYHM 161300Z 24008KT 3SM BR FEW018 SCT024 OVC230 09/09 A2979 RMK SC1SC2CI4 SLP092

CYHM;2011-11-16 14:00;CYHM 161400Z 24009KT 5SM BR FEW008 OVC018 10/09 A2980 RMK SF2SC6 SLP095

CYHM;2011-11-16 15:00;CYHM 161500Z 23009KT 5SM BR BKN015 OVC160 10/09 A2980 RMK SC6AC2 SLP094

CYHM;2011-11-16 16:00;CYHM 161600Z 26013KT 7SM FEW015 BKN020 OVC160 10/08 A2981 RMK SC2SC4AC2 SLP098

CYHM;2011-11-16 17:00;CYHM 161700Z 26011KT 7SM SCT020 OVC160 10/06 A2978 RMK SC3AC5 SLP090

CYHM;2011-11-16 18:00;CYHM 161800Z 26011G16KT 15SM FEW024 BKN170 OVC210 09/04 A2979 RMK SC1AC6CI2 SLP093

CYHM;2011-11-16 19:00;CYHM 161900Z 28014G25KT 15SM FEW035 SCT120 BKN180 OVC230 08/M02 A2980 RMK SC1AC2AC3CI2 SLP094

CYHM;2011-11-16 20:00;CYHM 162000Z 29011G18KT 15SM OVC230 08/M05 A2981 RMK CI7 SLP099

CYHM;2011-11-16 21:00;CYHM 162100Z 28009G15KT 15SM OVC230 07/M05 A2984 RMK CI8 SLP110

CYHM;2011-11-16 22:00;CYHM 162200Z 29012G19KT 15SM BKN210 06/M06 A2987 RMK CI6 SLP118

CYHM;2011-11-16 23:00;CYHM 162300Z 28012G17KT 15SM FEW100 BKN240 05/M04 A2991 RMK AC1CI5 SLP131

CYHM;2011-11-17 00:00;CYHM 170000Z 28008KT 15SM FEW100 BKN250 04/M03 A2993 RMK AC2CI5 SLP142

CYHM;2011-11-17 01:00;CYHM 170100Z 26004KT 15SM BKN170 BKN230 03/M03 A2994 RMK AC6CI2 SLP143

CYHM;2011-11-17 02:00;CYHM 170200Z 22005KT 15SM FEW095 OVC230 01/M02 A2993 RMK AC1CI7 SLP141

CYHM;2011-11-17 03:00;CYHM 170300Z 22007KT 15SM SCT210 00/M03 A2993 RMK CI2 SLP143

CYHM;2011-11-17 04:00;CYHM 170400Z 26007KT 15SM BKN220 02/M03 A2994 RMK CI4 SLP147

CYHM;2011-11-17 05:00;CYHM 170500Z 27008KT 15SM FEW210 02/M04 A2996 RMK CI2 SLP152

CYHM;2011-11-17 06:00;CYHM 170600Z 27010KT 15SM FEW050 FEW210 01/M05 A2996 RMK SC1CI1 SLP151

CYHM;2011-11-17 07:00;CYHM 170700Z 26008KT 15SM SCT230 01/M05 A2997 RMK CI3 SLP155

CYHM;2011-11-17 08:00;CYHM 170800Z 26004KT 15SM FEW043 FEW210 00/M05 A2997 RMK SC1CI2 SLP156

CYHM;2011-11-17 09:00;CYHM 170900Z 23006KT 15SM FEW040 FEW150 FEW210 M01/M05 A2997 RMK SC1AC1CI1 TR SC SLP158

CYHM;2011-11-17 10:00;CYHM 171000Z 23006KT 15SM FEW130 BKN220 M01/M04 A2998 RMK AC2CS2 HALO SLP160

CYHM;2011-11-17 11:00;CYHM 171100Z 24007KT 15SM SCT140 BKN220 M01/M04 A2997 RMK AC3CI1 SLP157

CYHM;2011-11-17 12:00;CYHM 171200Z 24007KT 15SM FEW100 BKN140 BKN210 M01/M04 A2997 RMK AC1AC4CI1 SLP159

CYHM;2011-11-17 13:00;CYHM 171300Z 24009KT 15SM FEW045 SCT100 BKN130 BKN220 M01/M04 A2998 RMK SC1AC3AC2CI2 SC TR SLP162

CYHM;2011-11-17 14:00;CYHM 171400Z 25010KT 15SM BKN170 BKN210 M00/M04 A2999 RMK AC5CI1 SLP164

CYHM;2011-11-17 15:00;CYHM 171500Z 25014KT 15SM FEW160 BKN220 01/M05 A2998 RMK AC1CI2 SLP162

CYHM;2011-11-17 16:00;CYHM 171600Z 24015G22KT 15SM FEW025 FEW170 FEW220 03/M06 A2997 RMK SC1AC1CI1 CU TR ASOCTD SLP160

CYHM;2011-11-17 17:00;CYHM 171700Z 24016G26KT 15SM FEW036 SCT052 BKN210 03/M08 A2994 RMK CU2SC1CI1 SLP150

CYHM;2011-11-17 18:00;CYHM 171800Z 25013G20KT 15SM FEW038 SCT050 BKN080 04/M07 A2991 RMK CU2SC2AC1 SLP137

CYHM;2011-11-17 18:47;CYHM 171847Z CCA 26013G23KT 15SM -SHSN BKN025 BKN040 BKN082 RMK SC5SC2AC1 CU ASOCTD

CYHM;2011-11-17 19:00;CYHM 171900Z 24016G21KT 15SM FEW040 SCT052 BKN060 BKN072 03/M06 A2990 RMK CU1SC3SC2AC1 SLP133

CYHM;2011-11-17 19:22;CYHM 171922Z 27023G32KT 12SM -SHSN BKN045 BKN080 RMK CU6AC2

CYHM;2011-11-17 20:00;CYHM 172000Z 28014G24KT 15SM -SHSN BKN046 BKN082 03/M05 A2990 RMK CU5AC2 PCPN VRY LGT SLP133

CYHM;2011-11-17 21:00;CYHM 172100Z 27021G30KT 15SM -SHSN BKN027 BKN042 BKN090 01/M05 A2994 RMK CU5SC2AC1 VIS N 5 SLP147

CYHM;2011-11-17 21:07;CYHM 172107Z 28016G30KT 1 1/4SM -SHSN BKN027 BKN042 RMK SN2CU5SC1

CYHM;2011-11-17 21:20;CYHM 172120Z 27009KT 15SM -SHSN FEW027 SCT040 SCT090 BKN250 RMK CU2SC1AC1CI1

CYHM;2011-11-17 22:00;CYHM 172200Z 27013G22KT 15SM FEW025 FEW082 00/M05 A2995 RMK CU1AC2 SLP153

CYHM;2011-11-17 23:00;CYHM 172300Z 26011G17KT 15SM FEW080 M00/M06 A2997 RMK AC1 SLP160

CYHM;2011-11-18 00:00;CYHM 180000Z 27016G23KT 15SM FEW035 M01/M05 A3001 RMK SC2 SLP171

CYHM;2011-11-18 01:00;CYHM 180100Z 26013G18KT 15SM FEW040 M01/M05 A3002 RMK SC1 SLP176

CYHM;2011-11-18 02:00;CYHM 180200Z 26016G22KT 15SM FEW040 M01/M07 A3004 RMK SC1 SLP184

CYHM;2011-11-18 03:00;CYHM 180300Z 25011KT 15SM FEW040 M02/M06 A3007 RMK SC1 SLP193

CYHM;2011-11-18 04:00;CYHM 180400Z 25011KT 15SM FEW042 M02/M06 A3008 RMK SC1 SLP195

CYHM;2011-11-18 05:00;CYHM 180500Z 25014KT 15SM FEW042 M02/M06 A3010 RMK SC1 SLP203

CYHM;2011-11-18 06:00;CYHM 180600Z 24013KT 15SM SKC M02/M06 A3011 RMK SLP206

CYHM;2011-11-18 07:00;CYHM 180700Z 25013KT 15SM SKC M02/M06 A3013 RMK SLP213

CYHM;2011-11-18 08:00;CYHM 180800Z 25015KT 15SM SKC M02/M06 A3017 RMK SLP227

CYHM;2011-11-18 09:00;CYHM 180900Z 25012G18KT 15SM SKC M03/M06 A3020 RMK SLP238

CYHM;2011-11-18 10:00;CYHM 181000Z 24013KT 15SM SKC M03/M07 A3023 RMK SLP247

CYHM;2011-11-18 11:00;CYHM 181100Z 24010G16KT 15SM FEW120 M03/M06 A3024 RMK AC1 SLP252

CYHM;2011-11-18 12:00;CYHM 181200Z 23009KT 15SM FEW030 FEW120 FEW220 M04/M07 A3026 RMK SC1AC1CI1 SLP258

CYHM;2011-11-18 13:00;CYHM 181300Z 23009KT 15SM BKN210 M03/M06 A3028 RMK CI2 CONTRAILS SLP266

CYHM;2011-11-18 14:00;CYHM 181400Z 23011KT 15SM FEW170 BKN220 M01/M06 A3029 RMK AC1CI3 CONTRAILS AC TR SLP269

CYHM;2011-11-18 15:00;CYHM 181500Z 23012KT 15SM SCT220 01/M07 A3027 RMK CI2 SLP263

CYHM;2011-11-18 16:00;CYHM 181600Z 24015G20KT 15SM FEW035 FEW100 BKN130 BKN240 03/M06 A3027 RMK SC1AC2AC2CI1 TR CU ASOCTD SLP263

CYHM;2011-11-18 17:00;CYHM 181700Z 24011G18KT 15SM FEW036 FEW110 SCT150 05/M03 A3025 RMK CU1AC1AC1 SLP255

CYHM;2011-11-18 18:00;CYHM 181800Z 22020G25KT 15SM FEW042 SCT220 06/M04 A3022 RMK CU2CI1 SC ASOCTD SLP242

CYHM;2011-11-18 19:00;CYHM 181900Z 24020G26KT 15SM FEW038 FEW220 06/M03 A3020 RMK CU1CI1 SLP234

CYHM;2011-11-18 20:00;CYHM 182000Z 22014G22KT 15SM FEW038 BKN092 06/M04 A3017 RMK CU1AC6 TR CU SLP227

CYHM;2011-11-18 21:00;CYHM 182100Z 21019G25KT 15SM FEW095 SCT240 05/M05 A3017 RMK AC1CI2 SLP225

CYHM;2011-11-18 22:00;CYHM 182200Z 20016G22KT 15SM FEW075 FEW210 04/M05 A3015 RMK AC1CI2 CONTRAILS SLP220

CYHM;2011-11-18 23:00;CYHM 182300Z 20015G20KT 15SM FEW070 FEW210 04/M05 A3014 RMK AC1CI2 SLP215

CYHM;2011-11-19 00:00;CYHM 190000Z 20018G24KT 15SM BKN220 04/M05 A3012 RMK CI6 SLP209

CYHM;2011-11-19 01:00;CYHM 190100Z 20017G24KT 15SM BKN180 05/M05 A3010 RMK AC7 SLP203

CYHM;2011-11-19 02:00;CYHM 190200Z 21018G30KT 15SM SCT089 BKN250 05/M05 A3009 RMK AC3CI2 SLP200

CYHM;2011-11-19 03:00;CYHM 190300Z 20017G30KT 15SM BKN092 05/M04 A3008 RMK AC7 SLP194

CYHM;2011-11-19 04:00;CYHM 190400Z 20018G27KT 15SM FEW083 BKN110 05/M04 A3008 RMK AC1AC4 SLP193

CYHM;2011-11-19 05:00;CYHM 190500Z 21016G26KT 15SM BKN110 05/M03 A3007 RMK AC6 SLP192

CYHM;2011-11-19 06:00;CYHM 190600Z 22016G24KT 15SM BKN095 05/M04 A3007 RMK AC7 SLP190

CYHM;2011-11-19 07:00;CYHM 190700Z 21017KT 15SM FEW085 FEW120 05/M03 A3007 RMK AC1AC1 SLP190

CYHM;2011-11-19 08:00;CYHM 190800Z 21014KT 15SM FEW110 05/M03 A3007 RMK AC2 SLP191

CYHM;2011-11-19 09:00;CYHM 190900Z 21011KT 15SM BKN120 04/M03 A3007 RMK AC5 SLP191

CYHM;2011-11-19 10:00;CYHM 191000Z 20010KT 15SM SCT130 BKN210 05/M02 A3008 RMK AC4CI2 SLP193

CYHM;2011-11-19 11:00;CYHM 191100Z 19012KT 15SM SCT130 BKN200 05/M00 A3008 RMK AC4CI1 SLP192

CYHM;2011-11-19 12:00;CYHM 191200Z 20011KT 15SM FEW110 BKN130 BKN210 06/01 A3008 RMK AC2AC3CI1 SLP192

CYHM;2011-11-19 13:00;CYHM 191300Z 20012KT 15SM SCT120 BKN250 06/01 A3008 RMK AC3CI1 SLP192

CYHM;2011-11-19 14:00;CYHM 191400Z 20014KT 15SM FEW120 BKN250 08/01 A3007 RMK AC2CI1 SLP189

CYHM;2011-11-19 15:00;CYHM 191500Z 20015KT 15SM FEW120 BKN250 09/01 A3007 RMK AC2CI1 CONTRAIL SLP187

CYHM;2011-11-19 16:00;CYHM 191600Z 22019KT 15SM FEW120 BKN250 10/01 A3007 RMK AC2CI1 CONTRAIL SLP187

CYHM;2011-11-19 17:00;CYHM 191700Z 20019KT 15SM FEW120 BKN250 11/01 A3004 RMK AC1CI1 CONTRAIL SLP177

CYHM;2011-11-19 18:00;CYHM 191800Z CCA 21018KT 15SM BKN220 10/02 A3002 RMK CI3 SLP171

CYHM;2011-11-19 19:00;CYHM 191900Z 22023G32KT 15SM FEW050 FEW120 BKN220 11/01 A3002 RMK CF1AC1CI2 CONTRAIL CF TR SLP171

CYHM;2011-11-19 20:00;CYHM 192000Z 21018G25KT 15SM FEW080 FEW110 BKN220 10/01 A3000 RMK AC2AC1CI2 CONTRAILS SLP163

CYHM;2011-11-19 21:00;CYHM 192100Z 21013G18KT 15SM SCT064 BKN095 OVC220 10/01 A3000 RMK SC3AC4CI1 SLP164

CYHM;2011-11-19 22:00;CYHM 192200Z 21012KT 15SM SCT050 OVC060 10/02 A2999 RMK SC3SC5 SLP161

CYHM;2011-11-19 23:00;CYHM 192300Z 21015G21KT 15SM BKN052 OVC080 10/03 A2998 RMK SC6AC2 SLP157

CYHM;2011-11-19 23:49;CYHM 192349Z 21017G27KT 15SM -SHRA BKN041 OVC052 RMK SC6SC2

CYHM;2011-11-20 00:00;CYHM 200000Z 21017G26KT 15SM -SHRA BKN041 OVC052 10/05 A2997 RMK SC6SC2 PCPN VRY LGT SLP156

CYHM;2011-11-20 01:00;CYHM 200100Z 22018G26KT 15SM FEW032 BKN050 OVC060 10/05 A2996 RMK SC2SC5SC2 OCNL -SHRA SLP151

CYHM;2011-11-20 02:00;CYHM 200200Z 21014G20KT 15SM FEW040 BKN057 OVC072 10/06 A2993 RMK SC2SC4AC2 SLP142

CYHM;2011-11-20 03:00;CYHM 200300Z 19015G22KT 15SM BKN052 OVC070 11/06 A2990 RMK SC6AC2 SLP128

CYHM;2011-11-20 04:00;CYHM 200400Z 21016G22KT 15SM OVC042 11/06 A2988 RMK SC8 SLP123

CYHM;2011-11-20 05:00;CYHM 200500Z 20017G25KT 15SM SCT039 OVC065 12/05 A2985 RMK SC3SC5 SLP113

CYHM;2011-11-20 06:00;CYHM 200600Z 21017G24KT 15SM BKN049 OVC077 13/06 A2984 RMK SC6AC2 SLP106

CYHM;2011-11-20 07:00;CYHM 200700Z 21016G23KT 15SM FEW045 BKN060 BKN090 12/06 A2982 RMK SC2SC4AC1 SLP102

CYHM;2011-11-20 08:00;CYHM 200800Z 23024G39KT 15SM OVC035 15/08 A2982 RMK SC8 SLP102

CYHM;2011-11-20 08:49;CYHM 200849Z 24026G35KT 15SM -SHRA OVC035 RMK SC8

CYHM;2011-11-20 09:00;CYHM 200900Z 24022G37KT 15SM -SHRA OVC032 15/09 A2982 RMK SC8 SLP102

CYHM;2011-11-20 10:00;CYHM 201000Z 24022G32KT 15SM -SHRA OVC028 13/10 A2985 RMK SC8 PCPN VRY LGT SLP112

CYHM;2011-11-20 11:00;CYHM 201100Z 24019G28KT 15SM FEW027 OVC074 14/10 A2986 RMK SC2AC6 SLP115

CYHM;2011-11-20 12:00;CYHM 201200Z 24020G28KT 15SM FEW030 BKN076 13/10 A2988 RMK SC1AC7 SLP122

CYHM;2011-11-20 13:00;CYHM 201300Z 23017G27KT 15SM FEW036 FEW072 BKN250 13/10 A2991 RMK SC1AC2CI1 SLP129

CYHM;2011-11-20 14:00;CYHM 201400Z 24018G27KT 15SM SCT022 BKN036 BKN068 14/10 A2994 RMK CU3SC2AC2 SLP141

CYHM;2011-11-20 15:00;CYHM 201500Z 28012G22KT 15SM FEW027 BKN037 11/07 A3001 RMK CU2SC6 PRESRR SLP164

CYHM;2011-11-20 16:00;CYHM 201600Z 29015G23KT 15SM FEW021 BKN040 10/05 A3006 RMK CU2SC6 SLP181

CYHM;2011-11-20 17:00;CYHM 201700Z 27016G22KT 15SM FEW022 FEW048 BKN250 10/04 A3006 RMK CU1SC2CI1 SLP181

CYHM;2011-11-20 18:00;CYHM 201800Z 29011G20KT 15SM FEW025 FEW044 BKN250 10/03 A3008 RMK CU2SC1CI2 SLP189

CYHM;2011-11-20 19:00;CYHM 201900Z 28010G16KT 15SM FEW029 BKN250 10/03 A3009 RMK SC2CI2 SLP193

CYHM;2011-11-20 20:00;CYHM 202000Z 30011G16KT 15SM FEW032 BKN250 09/02 A3012 RMK SC2CI4 CONTRAILS SLP202

CYHM;2011-11-20 21:00;CYHM 202100Z 31010G15KT 15SM BKN030 BKN240 08/02 A3015 RMK SC5CI2 CONTRAILS SLP213

CYHM;2011-11-20 22:00;CYHM 202200Z 32012KT 15SM BKN031 OVC240 06/01 A3018 RMK SC6CI1 SLP222

CYHM;2011-11-20 23:00;CYHM 202300Z 35011KT 15SM SCT026 OVC031 06/01 A3021 RMK SC3SC5 SLP232

CYHM;2011-11-21 00:00;CYHM 210000Z 35009KT 15SM BKN024 OVC029 05/00 A3023 RMK SC6SC2 SLP243

CYHM;2011-11-21 01:00;CYHM 210100Z 35008KT 15SM BKN024 OVC028 04/M01 A3026 RMK SC6SC2 SLP250

CYHM;2011-11-21 02:00;CYHM 210200Z 34010KT 15SM BKN024 OVC140 03/M02 A3027 RMK SC6AC2 SLP255

CYHM;2011-11-21 03:00;CYHM 210300Z 35008KT 15SM BKN024 02/M02 A3028 RMK SC5 SLP260

CYHM;2011-11-21 04:00;CYHM 210400Z 03006KT 15SM BKN024 02/M03 A3029 RMK SC7 SLP264

CYHM;2011-11-21 05:00;CYHM 210500Z 34006KT 15SM SCT024 00/M04 A3030 RMK SC3 SLP268

CYHM;2011-11-21 06:00;CYHM 210600Z 34006KT 15SM BKN022 00/M04 A3030 RMK SC6 SLP269

CYHM;2011-11-21 07:00;CYHM 210700Z 01005KT 15SM FEW022 BKN240 M01/M05 A3031 RMK SC2CI2 SLP270

CYHM;2011-11-21 08:00;CYHM 210800Z 36006KT 15SM FEW220 M01/M05 A3032 RMK CI1 SLP273

CYHM;2011-11-21 09:00;CYHM 210900Z 02005KT 15SM BKN024 M01/M05 A3032 RMK SC6 SLP275

CYHM;2011-11-21 10:00;CYHM 211000Z 03010KT 15SM BKN023 M00/M04 A3033 RMK SC7 SLP278

CYHM;2011-11-21 11:00;CYHM 211100Z 04006KT 15SM BKN022 M00/M04 A3034 RMK SC7 SLP284

CYHM;2011-11-21 12:00;CYHM 211200Z 03008KT 15SM OVC021 M01/M05 A3036 RMK SC8 SLP292

CYHM;2011-11-21 13:00;CYHM 211300Z 01009KT 15SM BKN020 M01/M06 A3037 RMK SC7 SLP294

CYHM;2011-11-21 14:00;CYHM 211400Z 02005KT 15SM BKN018 M01/M05 A3039 RMK SC7 SLP300

CYHM;2011-11-21 15:00;CYHM 211500Z 07006KT 15SM FEW020 SCT060 BKN100 01/M04 A3038 RMK SC2SC1AC2 SLP298

CYHM;2011-11-21 16:00;CYHM 211600Z CCA 07005KT 15SM BKN022 BKN060 BKN085 02/M03 A3038 RMK SC5SC1AC1 SLP297

CYHM;2011-11-21 17:00;CYHM 211700Z 02008KT 15SM BKN020 BKN085 02/M03 A3034 RMK SC5AC2 SLP285

CYHM;2011-11-21 18:00;CYHM 211800Z 05007KT 15SM FEW018 FEW026 SCT220 02/M03 A3032 RMK CU1SC2CI1 CI TR SLP278

CYHM;2011-11-21 19:00;CYHM 211900Z 04007KT 15SM FEW020 FEW030 FEW220 02/M03 A3031 RMK CU1SC1CI1 CI TR SLP275

CYHM;2011-11-21 20:00;CYHM 212000Z 04008KT 15SM BKN018 02/M02 A3031 RMK SC6 SLP274

CYHM;2011-11-21 21:00;CYHM 212100Z 06007KT 15SM BKN016 02/M02 A3031 RMK SC6 SLP276

CYHM;2011-11-21 22:00;CYHM 212200Z 04006KT 15SM BKN015 02/M02 A3033 RMK SC7 SLP281

CYHM;2011-11-21 23:00;CYHM 212300Z 05010KT 15SM BKN015 02/M02 A3032 RMK SC7 SLP278

CYHM;2011-11-22 00:00;CYHM 220000Z 03008KT 15SM FEW015 SCT210 01/M02 A3033 RMK SC2CI0 SLP280

CYHM;2011-11-22 01:00;CYHM 220100Z 04009KT 15SM SCT015 BKN220 01/M01 A3032 RMK SC3CI1 SLP279

CYHM;2011-11-22 02:00;CYHM 220200Z 07007KT 15SM FEW016 00/M01 A3032 RMK SC2 SLP279

CYHM;2011-11-22 03:00;CYHM 220300Z 07006KT 15SM FEW018 M01/M02 A3033 RMK SC2 SLP280

CYHM;2011-11-22 04:00;CYHM 220400Z 07005KT 15SM BKN014 M00/M02 A3033 RMK SC4 SLP281

CYHM;2011-11-22 05:00;CYHM 220500Z 06008KT 15SM BKN012 00/M01 A3029 RMK SC6 SLP269

CYHM;2011-11-22 06:00;CYHM 220600Z 06009KT 15SM BKN012 01/M01 A3030 RMK SC6 SLP272

CYHM;2011-11-22 07:00;CYHM 220700Z 02005KT 15SM BKN013 00/M01 A3033 RMK SC6 SLP281

CYHM;2011-11-22 08:00;CYHM 220800Z 04007KT 15SM FEW009 BKN013 M00/M02 A3035 RMK SF1SC6 SLP288

CYHM;2011-11-22 09:00;CYHM 220900Z 04010KT 15SM FEW009 OVC012 00/M02 A3034 RMK SF1SC7 SLP285

CYHM;2011-11-22 10:00;CYHM 221000Z 05011KT 15SM OVC011 01/M02 A3033 RMK SC8 SLP281

CYHM;2011-11-22 11:00;CYHM 221100Z 04012KT 15SM OVC012 00/M02 A3034 RMK SC8 SLP283

CYHM;2011-11-22 12:00;CYHM 221200Z 04012KT 15SM BKN011 00/M01 A3033 RMK SC7 SLP282

CYHM;2011-11-22 13:00;CYHM 221300Z 06015KT 15SM BKN014 02/M00 A3032 RMK SC7 SLP278

CYHM;2011-11-22 14:00;CYHM 221400Z 05018G24KT 15SM BKN017 02/M02 A3032 RMK SC7 SLP277

CYHM;2011-11-22 15:00;CYHM 221500Z 06018G24KT 15SM BKN016 BKN020 02/M01 A3030 RMK SC6SC2 TR CU ASOCTD SE SLP272

CYHM;2011-11-22 16:00;CYHM 221600Z 06019G24KT 15SM BKN014 BKN018 02/M01 A3029 RMK SC6SC2 SLP266

CYHM;2011-11-22 17:00;CYHM 221700Z 06018G26KT 15SM FEW018 BKN180 OVC230 02/M02 A3023 RMK SC2AC4CI2 SLP248

CYHM;2011-11-22 18:00;CYHM 221800Z 05022G29KT 15SM BKN013 BKN019 OVC170 02/M01 A3018 RMK SC5SC2AC2 SLP231

CYHM;2011-11-22 19:00;CYHM 221900Z 04024G34KT 15SM FEW012 SCT018 OVC150 02/M01 A3014 RMK CU1SC3AC4 SLP218

CYHM;2011-11-22 20:00;CYHM 222000Z 05022G29KT 15SM BKN011 OVC140 02/00 A3011 RMK SC6AC2 SLP207

CYHM;2011-11-22 21:00;CYHM 222100Z 05024G34KT 15SM SCT012 OVC024 03/M00 A3007 RMK SC3SC5 SLP192

CYHM;2011-11-22 22:00;CYHM 222200Z 06027G36KT 15SM SCT015 OVC023 03/M00 A3003 RMK SC3SC5 SLP177

CYHM;2011-11-22 22:47;CYHM 222247Z 05024G32KT 15SM -SHRA BKN017 OVC024 RMK SF6SC2

CYHM;2011-11-22 23:00;CYHM 222300Z 06023G35KT 15SM -SHRA SCT016 OVC023 03/00 A3001 RMK SF3SC5 SLP171

CYHM;2011-11-23 00:00;CYHM 230000Z 05024G34KT 15SM -SHRA SCT013 OVC020 02/01 A2999 RMK SF4SC4 SLP164

CYHM;2011-11-23 01:00;CYHM 230100Z 04026G35KT 6SM -SHRA BR BKN004 OVC012 02/02 A2994 RMK SF6SC2 SLP147

CYHM;2011-11-23 02:00;CYHM 230200Z 05025G35KT 6SM -SHRA BR OVC004 02/01 A2988 RMK SF8 SLP129

CYHM;2011-11-23 03:00;CYHM 230300Z 04025G32KT 5SM -SHRA BR OVC003 02/01 A2984 RMK SF8 SLP114

CYHM;2011-11-23 04:00;CYHM 230400Z 36027G37KT 2 1/2SM -RA BR OVC004 01/01 A2979 RMK SF8 SLP097

CYHM;2011-11-23 05:00;CYHM 230500Z 34024G32KT 2 1/2SM -RA BR OVC003 01/01 A2977 RMK SC8 SLP090

CYHM;2011-11-23 06:00;CYHM 230600Z 03026G36KT 2SM -RA BR OVC003 01/01 A2973 RMK SF8 SLP076

CYHM;2011-11-23 07:00;CYHM 230700Z 03020G32KT 2SM -RA BR OVC004 01/01 A2974 RMK SC8 SLP078

CYHM;2011-11-23 08:00;CYHM 230800Z 02017G34KT 2SM -RA BR OVC004 01/01 A2969 RMK SF8 SLP064

CYHM;2011-11-23 09:00;CYHM 230900Z 01018KT 2SM -RA BR OVC004 01/01 A2971 RMK SF8 SLP070

CYHM;2011-11-23 09:26;CYHM 230926Z 02018G27KT 4SM -SHRASN BR OVC004 RMK SF8

CYHM;2011-11-23 10:00;CYHM 231000Z 02019G26KT 5SM -SHRASN BR OVC004 01/01 A2971 RMK SF8 SLP069

CYHM;2011-11-23 10:31;CYHM 231031Z 01015G21KT 8SM -SHRA OVC004 RMK SF8

CYHM;2011-11-23 10:45;CYHM 231045Z 01015G26KT 8SM OVC006 RMK SF8

CYHM;2011-11-23 11:00;CYHM 231100Z 01015KT 10SM OVC006 02/01 A2979 RMK SF8 SLP095

CYHM;2011-11-23 12:00;CYHM 231200Z 35011G16KT 10SM FEW006 OVC010 02/01 A2983 RMK SF2SC6 SLP111

CYHM;2011-11-23 13:00;CYHM 231300Z 35010KT 8SM OVC007 02/01 A2989 RMK SF8 SLP129

CYHM;2011-11-23 14:00;CYHM 231400Z 01010G16KT 8SM OVC007 02/02 A2993 RMK SF8 SLP144

CYHM;2011-11-23 15:00;CYHM 231500Z 34011KT 15SM OVC007 02/02 A2997 RMK SF8 SLP156

CYHM;2011-11-23 16:00;CYHM 231600Z 33009KT 15SM BKN008 BKN010 03/02 A2999 RMK SF5SF2 SLP164

CYHM;2011-11-23 16:19;CYHM 231619Z 33008KT 15SM FEW008 SCT011 SCT080 RMK CF2CU2AC1

CYHM;2011-11-23 17:00;CYHM 231700Z 33008KT 15SM FEW009 FEW100 FEW200 06/02 A2999 RMK CF1AC1CI1 AC TR SLP163

CYHM;2011-11-23 18:00;CYHM 231800Z 34011KT 15SM FEW010 FEW120 FEW200 07/M00 A2998 RMK CF1AC1CI1 CF TR AC TR SLP161

CYHM;2011-11-23 19:00;CYHM 231900Z 32008KT 15SM FEW015 FEW200 08/M01 A3000 RMK CF1CI1 CF TR SLP167

CYHM;2011-11-23 20:00;CYHM 232000Z 28004KT 15SM FEW220 09/M02 A3003 RMK CI1 SLP175

CYHM;2011-11-23 21:00;CYHM 232100Z 29006KT 15SM FEW220 08/M01 A3004 RMK CI1 SLP181

CYHM;2011-11-23 22:00;CYHM 232200Z 24005KT 15SM SKC 07/M03 A3005 RMK SLP183

CYHM;2011-11-23 23:00;CYHM 232300Z 26005KT 15SM SKC 05/M02 A3008 RMK SLP192

CYHM;2011-11-24 00:00;CYHM 240000Z 27008KT 15SM SKC 04/M01 A3009 RMK SLP198

CYHM;2011-11-24 01:00;CYHM 240100Z 26008KT 15SM FEW200 03/00 A3010 RMK CI1 SLP202

CYHM;2011-11-24 02:00;CYHM 240200Z 25006KT 15SM FEW040 02/M00 A3011 RMK SC1 SLP204

CYHM;2011-11-24 03:00;CYHM 240300Z 24006KT 15SM FEW040 01/M00 A3012 RMK SC1 SLP208

CYHM;2011-11-24 04:00;CYHM 240400Z 22007KT 15SM SKC M01/M01 A3011 RMK SLP206

CYHM;2011-11-24 05:00;CYHM 240500Z 21007KT 15SM FEW210 M01/M01 A3010 RMK CI1 SLP204

CYHM;2011-11-24 06:00;CYHM 240600Z 20007KT 15SM FEW200 M01/M02 A3010 RMK CI1 FROIN SLP200

CYHM;2011-11-24 07:00;CYHM 240700Z CCA 22007KT 10SM FEW210 M02/M02 A3010 RMK CI1 FROIN SLP202

CYHM;2011-11-24 08:00;CYHM 240800Z 22009KT 10SM FEW210 M01/M01 A3010 RMK CI1 FROIN SLP200

CYHM;2011-11-24 09:00;CYHM 240900Z 23009KT 12SM FEW210 00/00 A3009 RMK CI1 FROIN SLP196

CYHM;2011-11-24 10:00;CYHM 241000Z 24013KT 7SM FEW070 FEW200 01/00 A3010 RMK AC1CI1 FROIN TR AC SLP199

CYHM;2011-11-24 10:13;CYHM 241013Z 25012KT 7SM BKN008 RMK SF5 FROIN

CYHM;2011-11-24 11:00;CYHM 241100Z 26012KT 5SM BR OVC007 01/01 A3012 RMK SF8 SLP206

CYHM;2011-11-24 12:00;CYHM 241200Z 25012G19KT 4SM BR OVC006 01/01 A3012 RMK SF8 SLP209

CYHM;2011-11-24 13:00;CYHM 241300Z 24012G17KT 2 1/2SM BR OVC005 02/01 A3015 RMK SF8 SLP218

CYHM;2011-11-24 14:00;CYHM 241400Z 23010KT 1 1/2SM BR OVC004 02/02 A3017 RMK SF8 CIG350FT SLP224

CYHM;2011-11-24 14:34;CYHM 241434Z 23012KT 3/4SM BR OVC002 RMK SF8 CIG250FT VIS VRBL 1/2-11/2SM

CYHM;2011-11-24 15:00;CYHM 241500Z 23012KT 1/2SM FG OVC002 03/02 A3018 RMK SF8 SLP230

CYHM;2011-11-24 15:20;CYHM 241520Z 22013KT 1SM BR OVC002 RMK SF8 CIG 250FT

CYHM;2011-11-24 15:28;CYHM 241528Z 24012KT 2SM BR OVC007 RMK SF8

CYHM;2011-11-24 16:00;CYHM 241600Z 23014KT 2SM BR OVC005 04/03 A3018 RMK SF8 SLP230

CYHM;2011-11-24 16:19;CYHM 241619Z 24016KT 3SM BR BKN007 BKN012 RMK SF6SC2

CYHM;2011-11-24 17:00;CYHM 241700Z 25017KT 7SM FEW008 BKN013 BKN220 05/03 A3016 RMK SF2SC3CI1 SLP223

CYHM;2011-11-24 18:00;CYHM 241800Z 22014KT 7SM BKN015 BKN018 07/04 A3014 RMK SC6SC2 SLP215

CYHM;2011-11-24 19:00;CYHM 241900Z 23015G23KT 8SM BKN016 BKN020 07/04 A3012 RMK SC6SC2 VCSH SLP209

CYHM;2011-11-24 20:00;CYHM 242000Z 24016G23KT 7SM OVC015 06/04 A3014 RMK SC8 SLP214

CYHM;2011-11-24 20:13;CYHM 242013Z 24016KT 7SM OVC013 RMK SC8

CYHM;2011-11-24 21:00;CYHM 242100Z 24014KT 6SM HZ OVC013 06/03 A3013 RMK SC8 SLP211

CYHM;2011-11-24 22:00;CYHM 242200Z 24015KT 6SM BR OVC012 05/04 A3013 RMK SC8 SLP210

CYHM;2011-11-24 23:00;CYHM 242300Z 24015G21KT 7SM BKN011 05/03 A3012 RMK SC7 SLP209

CYHM;2011-11-25 00:00;CYHM 250000Z 23014G20KT 7SM BKN010 05/04 A3011 RMK SC7 SLP206

CYHM;2011-11-25 00:26;CYHM 250026Z 23015G21KT 7SM OVC009 RMK SC8

CYHM;2011-11-25 01:00;CYHM 250100Z 23015G22KT 7SM BKN009 06/04 A3011 RMK SC7 SLP206

CYHM;2011-11-25 03:00;CYHM 250300Z 24015G21KT 7SM BKN014 07/05 A3011 RMK SC7 SLP204

CYHM;2011-11-25 04:00;CYHM 250400Z 24016KT 8SM BKN015 07/05 A3010 RMK SC7 SLP200

CYHM;2011-11-25 05:00;CYHM 250500Z 23019G25KT 8SM BKN015 08/05 A3009 RMK SC7 SLP197

CYHM;2011-11-25 06:00;CYHM 250600Z 23022G28KT 9SM BKN015 08/05 A3007 RMK SC7 SLP190

CYHM;2011-11-25 07:00;CYHM 250700Z 24018KT 10SM BKN015 08/06 A3007 RMK SC7 SLP190

CYHM;2011-11-25 08:00;CYHM 250800Z 23018KT 15SM FEW015 07/05 A3007 RMK SC2 SLP189

CYHM;2011-11-25 09:00;CYHM 250900Z 22015KT 15SM FEW013 FEW250 06/05 A3007 RMK SC1CI2 SLP190

CYHM;2011-11-25 10:00;CYHM 251000Z 21011G16KT 9SM FEW012 FEW250 05/04 A3007 RMK SC1CI1 SLP188

CYHM;2011-11-25 11:00;CYHM 251100Z 19010KT 9SM FEW014 FEW250 05/04 A3006 RMK SC1CI1 SLP186

CYHM;2011-11-25 12:00;CYHM 251200Z 22009KT 10SM FEW018 FEW220 05/04 A3006 RMK SC1CI1 SC TR SLP187

CYHM;2011-11-25 13:00;CYHM 251300Z 21010KT 15SM FEW020 BKN220 06/05 A3006 RMK SC1CI4 SLP186

CYHM;2011-11-25 14:00;CYHM 251400Z CCA 21012KT 15SM FEW180 BKN230 07/06 A3006 RMK AC1CI5 CONTRAILS SLP186

CYHM;2011-11-25 15:00;CYHM 251500Z 22017KT 15SM FEW180 BKN220 10/07 A3005 RMK AC2CI5 SLP182

CYHM;2011-11-25 16:00;CYHM 251600Z 23014G23KT 15SM FEW180 BKN210 12/06 A3004 RMK AC2CI4 SLP177

CYHM;2011-11-25 17:00;CYHM 251700Z 23014G21KT 15SM FEW170 BKN230 13/06 A3002 RMK AC2CI3 SLP170

CYHM;2011-11-25 18:00;CYHM 251800Z 23018G23KT 15SM FEW170 SCT220 14/06 A3000 RMK AC1CI2 SLP161

CYHM;2011-11-25 19:00;CYHM 251900Z 22020G26KT 15SM FEW170 FEW220 13/05 A2998 RMK AC1CI1 CI TR SLP155

CYHM;2011-11-25 20:00;CYHM 252000Z 22020G27KT 15SM FEW170 SCT230 12/04 A2997 RMK AC1CI2 CONTRAILS SLP154

CYHM;2011-11-25 21:00;CYHM 252100Z 23019G27KT 15SM FEW170 FEW230 12/04 A2998 RMK AC1CI1 CONTRAILS SLP156

CYHM;2011-11-25 22:00;CYHM 252200Z 22015G22KT 15SM FEW160 FEW220 11/03 A2998 RMK AC1CI1 SLP157

CYHM;2011-11-25 23:00;CYHM 252300Z 21011KT 15SM FEW150 FEW220 10/03 A2998 RMK AC1CI1 TR AC SLP158

CYHM;2011-11-26 00:00;CYHM 260000Z 19008KT 15SM FEW210 09/03 A2999 RMK CI2 SLP161

CYHM;2011-11-26 01:00;CYHM 260100Z 20008KT 15SM FEW210 08/03 A3000 RMK CI2 SLP164

CYHM;2011-11-26 02:00;CYHM 260200Z 21008KT 15SM SCT250 07/03 A3001 RMK CI2 SLP169

CYHM;2011-11-26 03:00;CYHM 260300Z 20008KT 15SM BKN200 09/04 A3002 RMK CI7 SLP169

CYHM;2011-11-26 04:00;CYHM 260400Z 22010KT 15SM BKN220 10/04 A3003 RMK CI7 SLP173

CYHM;2011-11-26 05:00;CYHM 260500Z 23010KT 15SM BKN210 09/04 A3005 RMK CI6 SLP179

CYHM;2011-11-26 06:00;CYHM 260600Z 23008KT 15SM FEW200 08/04 A3005 RMK CI2 SLP181

CYHM;2011-11-26 07:00;CYHM 260700Z 22006KT 15SM FEW200 06/04 A3005 RMK CI1 SLP181

CYHM;2011-11-26 08:00;CYHM 260800Z 21006KT 15SM FEW240 05/03 A3006 RMK CI2 SLP182

CYHM;2011-11-26 09:00;CYHM 260900Z 20005KT 15SM BKN230 06/03 A3006 RMK CI6 SLP184

CYHM;2011-11-26 10:00;CYHM 261000Z 20005KT 15SM BKN250 06/04 A3006 RMK CI7 SLP184

CYHM;2011-11-26 11:00;CYHM 261100Z 20005KT 15SM BKN220 06/04 A3007 RMK CI5 SLP186

CYHM;2011-11-26 12:00;CYHM 261200Z 21003KT 15SM BKN210 06/04 A3008 RMK CI6 SLP192

CYHM;2011-11-26 13:00;CYHM 261300Z 19004KT 15SM BKN210 07/04 A3008 RMK CI5 CONTRAILS SLP192

CYHM;2011-11-26 14:00;CYHM 261400Z 19007KT 15SM FEW170 BKN210 09/05 A3008 RMK AC2CI5 SLP192

CYHM;2011-11-26 15:00;CYHM 261500Z 21011KT 15SM BKN160 OVC220 11/05 A3008 RMK AC5CI2 SLP191

CYHM;2011-11-26 16:00;CYHM 261600Z 21010KT 15SM BKN160 OVC220 11/05 A3008 RMK AC7CI1 SLP191

CYHM;2011-11-26 17:00;CYHM 261700Z 19011KT 15SM BKN160 OVC220 11/05 A3007 RMK AC7CI1 SLP186

CYHM;2011-11-26 18:00;CYHM 261800Z 19011KT 15SM BKN170 OVC230 12/05 A3004 RMK AC6CI2 SLP176

CYHM;2011-11-26 19:00;CYHM 261900Z 21015KT 15SM SCT170 OVC220 13/06 A3003 RMK AC3CI3 SLP174

CYHM;2011-11-26 20:00;CYHM 262000Z 20011KT 15SM FEW049 BKN170 OVC220 13/06 A3003 RMK SC2AC3CI2 SLP172

CYHM;2011-11-26 21:00;CYHM 262100Z 19011KT 15SM SCT031 BKN055 BKN170 BKN220 12/06 A3003 RMK SC3SC2AC1CI1 SLP175

CYHM;2011-11-26 22:00;CYHM 262200Z 20010KT 15SM SCT031 BKN064 BKN230 11/07 A3003 RMK SC3SC2CI2 SLP174

CYHM;2011-11-26 23:00;CYHM 262300Z 19007KT 15SM FEW032 BKN066 BKN240 10/07 A3002 RMK SC2AC2CI1 SLP171

CYHM;2011-11-27 00:00;CYHM 270000Z 18012KT 15SM FEW032 SCT064 BKN240 11/07 A3001 RMK SC1SC3CI1 SLP168

CYHM;2011-11-27 01:00;CYHM 270100Z 19011KT 15SM FEW070 BKN082 BKN240 12/07 A3002 RMK AC2AC4CI1 SLP169

CYHM;2011-11-27 02:00;CYHM 270200Z 18013KT 15SM FEW080 BKN240 12/07 A3000 RMK AC2CI5 SLP164

CYHM;2011-11-27 03:00;CYHM 270300Z 19014KT 15SM FEW080 OVC210 12/07 A2999 RMK AC2CI6 SLP158

CYHM;2011-11-27 04:00;CYHM 270400Z 19011G17KT 15SM FEW075 FEW100 BKN220 12/07 A2997 RMK AC1AC2CI5 SLP154

CYHM;2011-11-27 05:00;CYHM 270500Z 19010KT 15SM FEW078 SCT090 BKN240 11/07 A2996 RMK AC2AC2CI2 SLP150

CYHM;2011-11-27 06:00;CYHM 270600Z 19011G16KT 15SM BKN089 BKN110 OVC250 12/07 A2994 RMK AC5AC2CI2 SLP141

CYHM;2011-11-27 07:00;CYHM 270700Z 20009KT 15SM FEW077 SCT110 OVC180 12/07 A2993 RMK AC2AC2AC4 SLP137

CYHM;2011-11-27 08:00;CYHM 270800Z 18012G17KT 15SM BKN069 OVC140 12/07 A2991 RMK AC6AC2 SLP131

CYHM;2011-11-27 09:00;CYHM 270900Z 19011KT 15SM SCT090 OVC250 12/07 A2988 RMK AC3CI5 SLP119

CYHM;2011-11-27 10:00;CYHM 271000Z 19014KT 15SM BKN084 OVC160 12/07 A2986 RMK AC6AC2 SLP114

CYHM;2011-11-27 11:00;CYHM 271100Z 20015KT 15SM FEW035 BKN096 OVC120 12/07 A2986 RMK SC2AC4AC2 SLP113

CYHM;2011-11-27 12:00;CYHM 271200Z 20011KT 15SM FEW030 SCT096 OVC150 12/07 A2984 RMK SC2AC2AC4 SLP109

CYHM;2011-11-27 12:42;CYHM 271242Z 20016G22KT 15SM -SHRA OVC026 RMK SC8

CYHM;2011-11-27 13:00;CYHM 271300Z 26016G25KT 12SM -SHRA OVC027 12/08 A2985 RMK SC8 SLP112

CYHM;2011-11-27 14:00;CYHM 271400Z 20016G24KT 7SM -SHRA BKN018 OVC032 10/09 A2987 RMK SC6SC2 SLP116

CYHM;2011-11-27 15:00;CYHM 271500Z 20015G23KT 12SM -SHRA BKN008 OVC013 11/10 A2986 RMK SC6SC2 SLP114

CYHM;2011-11-27 15:46;CYHM 271546Z 21018G24KT 10SM -SHRA FEW008 OVC017 RMK SC2SC6

CYHM;2011-11-27 16:00;CYHM 271600Z 21015G23KT 8SM -SHRA FEW008 BKN017 OVC032 11/10 A2985 RMK SC2SC4SC2 SLP112

CYHM;2011-11-27 16:45;CYHM 271645Z 21015G24KT 12SM -SHRA FEW008 OVC014 RMK SC2SC6

CYHM;2011-11-27 17:00;CYHM 271700Z 21015G20KT 10SM -SHRA FEW008 OVC012 11/10 A2983 RMK SC2SC6 SLP104

CYHM;2011-11-27 17:11;CYHM 271711Z 21013G21KT 9SM -SHRA BKN008 OVC012 RMK SC6SC2

CYHM;2011-11-27 18:00;CYHM 271800Z 21015G22KT 7SM -SHRA BKN007 OVC011 11/11 A2981 RMK SC7SC1 SLP097

CYHM;2011-11-27 19:00;CYHM 271900Z 20019G27KT 6SM -RA BR FEW005 BKN008 OVC012 12/11 A2979 RMK SF2SF4SC2 SLP090

CYHM;2011-11-27 20:00;CYHM 272000Z 21016G26KT 4SM -DZ BR FEW005 BKN008 OVC012 12/11 A2978 RMK SF2SF4SC2 SLP089

CYHM;2011-11-27 21:00;CYHM 272100Z 21015G23KT 7SM -DZ FEW006 BKN009 OVC013 12/12 A2979 RMK SF2SF3SC2 PCPN VRY LGT SLP090

CYHM;2011-11-27 21:41;CYHM 272141Z 20017G25KT 4SM -RA BR FEW006 BKN010 OVC015 RMK SF2SF4SC2

CYHM;2011-11-27 22:00;CYHM 272200Z 21013G22KT 5SM -RA BR SCT007 BKN011 OVC017 12/11 A2980 RMK SF3SC2SC2 SLP092

CYHM;2011-11-27 22:19;CYHM 272219Z 21014G22KT 7SM -RA FEW007 SCT012 OVC018 RMK SF2SC2SC4

CYHM;2011-11-27 23:00;CYHM 272300Z 21014G19KT 7SM -RA FEW007 SCT011 OVC020 12/11 A2981 RMK SF2SC2SC4 SLP095

CYHM;2011-11-27 23:24;CYHM 272324Z 20016G22KT 7SM -RA BKN008 OVC019 RMK SF5SC3

CYHM;2011-11-28 00:00;CYHM 280000Z 21016G22KT 6SM -RA BR BKN008 OVC018 12/11 A2982 RMK SF6SC2 SLP101

CYHM;2011-11-28 01:00;CYHM 280100Z 23010KT 6SM -RA BR FEW004 BKN008 OVC016 12/12 A2984 RMK SF2SF4SC2 SLP106

CYHM;2011-11-28 01:43;CYHM 280143Z 29008G16KT 10SM SCT005 OVC011 RMK SF3SC5

CYHM;2011-11-28 02:00;CYHM 280200Z 30010KT 10SM -SHRA BKN007 OVC013 08/07 A2988 RMK SF5SC3 SLP119

CYHM;2011-11-28 02:38;CYHM 280238Z 30007KT 10SM -SHRA SCT007 OVC014 RMK SF4SC4

CYHM;2011-11-28 03:00;CYHM 280300Z 29007KT 10SM -SHRA FEW007 OVC018 07/06 A2990 RMK SF2SC6 SLP129

CYHM;2011-11-28 04:00;CYHM 280400Z 31008KT 15SM -SHRA FEW008 BKN022 OVC070 06/05 A2991 RMK SF1SC6AC1 SLP134

CYHM;2011-11-28 04:50;CYHM 280450Z 29009KT 15SM SCT009 OVC025 RMK SF3SC5

CYHM;2011-11-28 05:00;CYHM 280500Z 30010KT 15SM SCT009 OVC025 05/04 A2994 RMK SF3SC5 SLP144

CYHM;2011-11-28 06:00;CYHM 280600Z 30009KT 15SM -SHRA FEW008 SCT025 BKN080 OVC120 05/04 A2997 RMK SF1SC3AC2AC2 SLP153

CYHM;2011-11-28 07:00;CYHM 280700Z 30007KT 15SM -SHRA FEW009 FEW024 BKN080 OVC110 04/03 A2999 RMK SF1SF2AS4AS2 SLP160

CYHM;2011-11-28 08:00;CYHM 280800Z 30007KT 15SM -SHRA FEW009 FEW024 BKN094 OVC120 04/03 A3000 RMK SF1SF2AS4AS2 SLP163

CYHM;2011-11-28 09:00;CYHM 280900Z 30009KT 15SM -SHRA FEW013 BKN084 OVC110 04/02 A3004 RMK SF2AS5AS2 SLP177

CYHM;2011-11-28 10:00;CYHM 281000Z CCA 33007KT 15SM -SHRA SCT012 BKN084 OVC110 03/02 A3004 RMK SC3AS3AS2 SLP179

CYHM;2011-11-28 11:00;CYHM 281100Z 32004KT 15SM FEW012 OVC110 03/01 A3007 RMK SF1AC7 SLP189

CYHM;2011-11-28 12:00;CYHM 281200Z 33003KT 15SM BKN047 BKN120 03/01 A3010 RMK SC6AC2 SLP200

CYHM;2011-11-28 13:00;CYHM 281300Z 28003KT 15SM BKN051 BKN110 03/01 A3013 RMK SC6AC2 SLP207

CYHM;2011-11-28 14:00;CYHM 281400Z 36004KT 15SM FEW046 SCT110 BKN220 03/01 A3012 RMK SC2AC2CI3 SLP206

CYHM;2011-11-28 15:00;CYHM 281500Z 05005KT 15SM FEW045 BKN100 BKN220 04/01 A3012 RMK SC2AC4CI2 SLP207

CYHM;2011-11-28 16:00;CYHM 281600Z 04005KT 15SM FEW035 BKN058 BKN120 BKN220 04/01 A3010 RMK SC2SC3AC1CI1 SLP200

CYHM;2011-11-28 17:00;CYHM 281700Z 04005KT 15SM BKN051 BKN100 05/01 A3007 RMK SC6AC2 SLP189

CYHM;2011-11-28 18:00;CYHM 281800Z 05008KT 15SM FEW035 BKN047 OVC100 06/01 A3006 RMK SC1SC6AC2 SLP186

CYHM;2011-11-28 19:00;CYHM 281900Z 06007KT 15SM BKN044 OVC100 05/01 A3006 RMK SC7AC1 SLP186

CYHM;2011-11-28 20:00;CYHM 282000Z 07009KT 15SM OVC040 05/01 A3005 RMK SC8 SLP183

CYHM;2011-11-28 21:00;CYHM 282100Z 05006KT 15SM OVC034 05/01 A3006 RMK SC8 SLP185

CYHM;2011-11-28 22:00;CYHM 282200Z 04010KT 15SM BKN028 OVC042 05/01 A3003 RMK SC6SC2 SLP177

CYHM;2011-11-28 23:00;CYHM 282300Z 04012KT 15SM FEW016 OVC022 05/02 A3003 RMK SF2SC6 SLP177

CYHM;2011-11-29 00:00;CYHM 290000Z 05012G18KT 15SM FEW022 OVC040 05/02 A3003 RMK SC2SC6 SLP177

CYHM;2011-11-29 00:50;CYHM 290050Z 04012G18KT 12SM -SHRA BKN018 OVC042 RMK SC6SC2 SF ASOCTD

CYHM;2011-11-29 01:00;CYHM 290100Z 04012G18KT 6SM -SHRA BR BKN018 OVC042 04/03 A3002 RMK SC6SC2 SF ASOCTD SLP174

CYHM;2011-11-29 02:00;CYHM 290200Z 05014KT 6SM -SHRA BR SCT006 BKN017 OVC054 04/04 A2999 RMK SF3SC4SC1 SLP162

CYHM;2011-11-29 02:23;CYHM 290223Z 05015KT 6SM -SHRA BR BKN004 BKN016 OVC040 RMK SF5SC2SC1

CYHM;2011-11-29 03:00;CYHM 290300Z 04012G18KT 5SM -SHRA BR BKN004 OVC034 04/04 A2997 RMK SF6SC2 SLP156

CYHM;2011-11-29 04:00;CYHM 290400Z 05014G20KT 3SM -RA BR OVC004 04/04 A2996 RMK SF8 SLP153

CYHM;2011-11-29 05:00;CYHM 290500Z 05014G20KT 2SM -RA BR OVC002 04/04 A2994 RMK SF8 SLP147

CYHM;2011-11-29 06:00;CYHM 290600Z 05012G18KT 2SM -RA BR OVC003 04/04 A2992 RMK SF8 SLP139

CYHM;2011-11-29 07:00;CYHM 290700Z 04012KT 2SM -RA BR OVC002 05/05 A2990 RMK SF8 SLP132

CYHM;2011-11-29 08:00;CYHM 290800Z 04015KT 2SM -RA BR OVC003 05/05 A2988 RMK SF8 SLP125

CYHM;2011-11-29 09:00;CYHM 290900Z 04015KT 2SM -RA BR OVC002 05/05 A2986 RMK SF8 SLP117

CYHM;2011-11-29 10:00;CYHM 291000Z 04012G19KT 2SM -RA BR OVC003 05/05 A2984 RMK SF8 SLP112

CYHM;2011-11-29 11:00;CYHM 291100Z 03015KT 2SM -RA BR OVC003 05/05 A2984 RMK SF8 SLP110

CYHM;2011-11-29 11:33;CYHM 291133Z 03015KT 2SM RA BR BKN003 OVC015 RMK SF6SC2

CYHM;2011-11-29 12:00;CYHM 291200Z 03015G20KT 3SM -RA BR BKN003 OVC019 05/04 A2982 RMK SF5SC3 CIG350FT RERA SLP105

CYHM;2011-11-29 12:26;CYHM 291226Z 03016G22KT 2SM -RA BR BKN003 OVC020 RMK SF6SC2

CYHM;2011-11-29 13:00;CYHM 291300Z 03018G25KT 3SM -RA BR BKN004 OVC018 04/04 A2981 RMK SF7SC1 SLP103

CYHM;2011-11-29 14:00;CYHM 291400Z 03018G25KT 5SM -RA BR BKN003 OVC016 04/04 A2981 RMK SF6SC2 SLP103

CYHM;2011-11-29 15:00;CYHM 291500Z 03019G26KT 4SM -RA BR BKN004 OVC009 04/04 A2980 RMK SF6SC2 SLP098

CYHM;2011-11-29 16:00;CYHM 291600Z 03018G28KT 4SM -RA BR BKN005 BKN016 OVC033 05/04 A2977 RMK SF6SC2SC1 SLP089

CYHM;2011-11-29 17:00;CYHM 291700Z 03020G27KT 4SM -RA BR OVC004 05/04 A2974 RMK SF8 CIG RGD RERA SLP077

CYHM;2011-11-29 18:00;CYHM 291800Z CCA 02025G30KT 2SM RA BR OVC006 04/04 A2967 RMK SF8 PRESFR SLP054

CYHM;2011-11-29 19:00;CYHM 291900Z 02025G30KT 2 1/2SM -RA BR BKN004 OVC032 04/04 A2965 RMK SF6SC2 SLP046

CYHM;2011-11-29 20:00;CYHM 292000Z 03022G32KT 5SM -RA BR OVC004 05/04 A2962 RMK SF8 SLP039

CYHM;2011-11-29 21:00;CYHM 292100Z 02020G30KT 6SM -SHRA BR BKN006 OVC032 05/04 A2960 RMK SF6SC2 SLP029

CYHM;2011-11-29 21:50;CYHM 292150Z 03023G32KT 2 1/4SM -SHRA BR OVC006 RMK SF8

CYHM;2011-11-29 22:00;CYHM 292200Z 03020G31KT 2SM -SHRA BR OVC006 04/04 A2959 RMK SF8 SLP026

CYHM;2011-11-29 23:00;CYHM 292300Z 03019G30KT 2SM -RA BR OVC003 04/03 A2956 RMK SF8 SLP018

CYHM;2011-11-29 23:52;CYHM 292352Z 04013G19KT 5SM -RA BR OVC004 RMK SF8

CYHM;2011-11-30 00:00;CYHM 300000Z 04013G19KT 5SM -RA BR OVC004 04/04 A2959 RMK SF8 SLP025

CYHM;2011-11-30 00:20;CYHM 300020Z 05007KT 2SM -RA BR OVC003 RMK SF8

CYHM;2011-11-30 01:00;CYHM 300100Z 04006KT 2SM -RA BR OVC003 04/04 A2959 RMK SF8 SLP028

CYHM;2011-11-30 02:00;CYHM 300200Z 05007KT 2SM -RA BR OVC004 04/03 A2959 RMK SF8 SLP027

CYHM;2011-11-30 03:00;CYHM 300300Z 30004KT 2SM -RA BR OVC004 03/03 A2957 RMK SF8 SLP021

CYHM;2011-11-30 04:00;CYHM 300400Z 32005KT 2SM -RA BR BKN006 OVC020 03/03 A2953 RMK SF7SC1 SLP008

CYHM;2011-11-30 05:00;CYHM 300500Z 29002KT 5SM -SHRA BR BKN004 OVC011 03/03 A2952 RMK SF7SC1 SLP005

CYHM;2011-11-30 06:00;CYHM 300600Z CCA 24004KT 4SM -SHRA BR OVC004 03/03 A2951 RMK SF8 SLP999

CYHM;2011-11-30 07:00;CYHM 300700Z 23005KT 4SM -SHRA BR BKN004 BKN009 OVC018 03/03 A2949 RMK SF6SF1SC1 SLP993

CYHM;2011-11-30 08:00;CYHM 300800Z 25007KT 5SM -SHRA BR BKN003 OVC007 03/03 A2949 RMK SF6SF2 SLP992

CYHM;2011-11-30 09:00;CYHM 300900Z 20012KT 15SM -SHRA FEW003 FEW022 SCT034 BKN130 04/03 A2946 RMK SF1SC2SC2AC2 SLP983

CYHM;2011-11-30 10:00;CYHM 301000Z 22018KT 15SM FEW004 BKN026 04/03 A2946 RMK SF1SC6 SF TR SLP982

CYHM;2011-11-30 11:00;CYHM 301100Z 27011G19KT 4SM -SHSN BKN006 OVC018 02/01 A2948 RMK SF6SC2 SLP990

CYHM;2011-11-30 11:13;CYHM 301113Z 27011KT 6SM -SHRASN BKN006 BKN024 BKN033 RMK SF5SC2SC1

CYHM;2011-11-30 11:36;CYHM 301136Z 27009KT 15SM -SHRA BKN008 BKN032 OVC042 RMK SF5SC2SC2

CYHM;2011-11-30 12:00;CYHM 301200Z 27013KT 15SM FEW008 BKN013 OVC039 02/01 A2950 RMK SF2SC4SC2 SLP998

CYHM;2011-11-30 13:00;CYHM 301300Z 28012KT 15SM BKN013 OVC016 01/00 A2953 RMK SC6SC2 SLP006

CYHM;2011-11-30 14:00;CYHM 301400Z 28011KT 4SM -SHSN BR BKN015 OVC030 01/M01 A2957 RMK SC6SC2 SLP021

CYHM;2011-11-30 15:00;CYHM 301500Z 30011G17KT 15SM -SHSN SCT018 BKN025 OVC062 01/M01 A2962 RMK SC3SC3SC2 CU ASOCTD PCPN VERY LGT SLP038

CYHM;2011-11-30 15:38;CYHM 301538Z 29010G17KT 2SM -SHSN BR BKN012 OVC023 RMK SC6SC2

CYHM;2011-11-30 15:46;CYHM 301546Z 27013G18KT 3/4SM -SHSN BR BKN011 OVC018 RMK SN2SC5SC2

CYHM;2011-11-30 16:00;CYHM 301600Z 28009KT 3/4SM -SHSN BR BKN005 OVC016 00/M01 A2968 RMK SN2SF4SC2 VIS VRBL 1/2-1SM SLP056

CYHM;2011-11-30 16:27;CYHM 301627Z 27009G16KT 1/2SM SN FG BKN006 OVC018 RMK SN2SF4SC2

CYHM;2011-11-30 17:00;CYHM 301700Z 26007KT 1 1/2SM -SN BR SCT006 BKN020 OVC031 00/M00 A2970 RMK SN1SF2SC3SC2 SLP063

CYHM;2011-11-30 17:09;CYHM 301709Z 27007KT 15SM -SN BKN020 OVC030 RMK SC6SC2

CYHM;2011-11-30 17:28;CYHM 301728Z 30012G20KT 15SM SCT025 BKN057 OVC068 RMK SC3SC2AC2

CYHM;2011-11-30 18:00;CYHM 301800Z 29012G20KT 15SM SCT022 BKN120 BKN140 01/M01 A2972 RMK SC3AC2AC2 SLP073

CYHM;2011-11-30 19:00;CYHM 301900Z 29009G15KT 15SM FEW025 BKN160 BKN180 01/M03 A2977 RMK SC2AC4AC2 SLP089

CYHM;2011-11-30 20:00;CYHM 302000Z 30010G16KT 15SM FEW160 BKN220 02/M04 A2982 RMK AC2CI2 CONTRAILS SLP105

CYHM;2011-11-30 21:00;CYHM 302100Z 29010G17KT 15SM FEW140 BKN220 01/M05 A2988 RMK AC2CI2 PRESRR CONTRAILS SLP125

CYHM;2011-11-30 22:00;CYHM 302200Z 28006KT 15SM FEW120 BKN240 01/M05 A2992 RMK AC2CI5 CONTRAILS SLP139

CYHM;2011-11-30 23:00;CYHM 302300Z 28008KT 15SM FEW220 01/M04 A2996 RMK CI1 SLP152

CYHM;2011-12-01 01:00;CYHM 010100Z CCA 28007KT 15SM SKC M00/M04 A3003 RMK PRESRR SLP177

CYHM;2011-12-01 02:00;CYHM 010200Z 27006KT 15SM SKC M00/M03 A3005 RMK SLP185

CYHM;2011-12-01 03:00;CYHM 010300Z 22005KT 15SM FEW080 M02/M04 A3007 RMK AC1 SLP193

CYHM;2011-12-01 04:00;CYHM 010400Z 19005KT 15SM FEW080 FEW200 M01/M03 A3010 RMK AC1CI1 SLP201

CYHM;2011-12-01 05:00;CYHM 010500Z 19006KT 15SM FEW070 M03/M04 A3012 RMK AC1 SLP208

CYHM;2011-12-01 06:00;CYHM 010600Z 20006KT 15SM FEW060 M03/M04 A3013 RMK SC1 SLP215

CYHM;2011-12-01 07:00;CYHM 010700Z 20006KT 15SM FEW050 M03/M04 A3014 RMK SC1 FROIN SLP217

CYHM;2011-12-01 08:00;CYHM 010800Z 20007KT 15SM BKN170 M03/M04 A3016 RMK AC5 FROIN SLP225

CYHM;2011-12-01 09:00;CYHM 010900Z 21006KT 15SM FEW180 M03/M04 A3017 RMK AC2 FROIN SLP229

CYHM;2011-12-01 10:00;CYHM 011000Z 22006KT 15SM FEW120 M03/M04 A3018 RMK AC2 FROIN SLP232

CYHM;2011-12-01 11:00;CYHM 011100Z 23007KT 15SM FEW120 FEW180 M03/M04 A3021 RMK AC1AC1 FROIN SLP240

CYHM;2011-12-01 12:00;CYHM 011200Z 24006KT 15SM FEW160 FEW210 M03/M04 A3022 RMK AC1CI1 FRION SLP246

CYHM;2011-12-01 13:00;CYHM 011300Z 24005KT 15SM FEW025 FEW110 M03/M04 A3024 RMK CU1AC2 CU TR SLP251

CYHM;2011-12-01 14:00;CYHM 011400Z 22005KT 15SM FEW025 FEW120 M01/M02 A3026 RMK CU1AC1 CU TR SE SLP257

CYHM;2011-12-01 15:00;CYHM 011500Z 23008KT 15SM FEW025 BKN100 BKN180 01/M01 A3024 RMK SC1AC5AC1 SC TR SLP251

CYHM;2011-12-01 16:00;CYHM 011600Z 24012KT 15SM BKN100 BKN160 04/M02 A3028 RMK AC5AC1 SLP263

CYHM;2011-12-01 17:00;CYHM 011700Z 24012KT 15SM FEW025 FEW110 05/M03 A3025 RMK CU1AC1 SLP254

CYHM;2011-12-01 18:00;CYHM 011800Z 25013G18KT 15SM FEW030 FEW120 05/M02 A3024 RMK CU1AC1 SLP249

CYHM;2011-12-01 19:00;CYHM 011900Z 25013KT 15SM FEW025 FEW100 FEW210 06/M03 A3023 RMK CU1AC1CI1 SLP247

CYHM;2011-12-01 20:00;CYHM 012000Z 24010KT 15SM FEW035 06/M03 A3022 RMK SC1 SLP244

CYHM;2011-12-01 21:00;CYHM 012100Z 21012G17KT 15SM FEW035 05/M01 A3022 RMK SC1 SLP242

CYHM;2011-12-01 22:00;CYHM 012200Z 23008KT 15SM FEW030 FEW150 03/M02 A3023 RMK SC1AC1 SC TR SLP247

CYHM;2011-12-01 23:00;CYHM 012300Z 24009KT 15SM FEW150 03/M02 A3025 RMK AC1 SLP253

CYHM;2011-12-02 00:00;CYHM 020000Z 22008KT 15SM BKN210 00/M02 A3025 RMK CI5 SLP255

CYHM;2011-12-02 01:00;CYHM 020100Z 22009KT 15SM FEW220 01/M01 A3023 RMK CI2 SLP250

CYHM;2011-12-02 02:00;CYHM 020200Z 22008KT 15SM BKN230 01/M01 A3023 RMK CI3 SLP250

CYHM;2011-12-02 03:00;CYHM 020300Z 23007KT 15SM FEW220 00/M01 A3023 RMK CI1 SLP246

CYHM;2011-12-02 04:00;CYHM 020400Z 23007KT 15SM FEW220 00/M01 A3022 RMK CI2 SLP244

CYHM;2011-12-02 05:00;CYHM 020500Z 23006KT 15SM FEW220 M00/M01 A3021 RMK CI2 SLP241

CYHM;2011-12-02 06:00;CYHM 020600Z 23007KT 15SM BKN120 01/M01 A3021 RMK AC6 SLP238

CYHM;2011-12-02 07:00;CYHM 020700Z 25005KT 15SM FEW028 OVC100 01/M01 A3021 RMK SC1AC7 SLP238

CYHM;2011-12-02 08:00;CYHM 020800Z 22006KT 15SM OVC098 00/M01 A3020 RMK AC8 SLP237

CYHM;2011-12-02 09:00;CYHM 020900Z 23005KT 15SM OVC083 01/M01 A3019 RMK AC8 SLP233

CYHM;2011-12-02 10:00;CYHM 021000Z 22005KT 15SM OVC076 00/M01 A3019 RMK AC8 SLP233

CYHM;2011-12-02 11:00;CYHM 021100Z 24004KT 15SM OVC052 01/M01 A3020 RMK SC8 VIRGA SLP235

CYHM;2011-12-02 11:38;CYHM 021138Z 25005KT 15SM -SHSN BKN019 OVC038 RMK SC6SC2

CYHM;2011-12-02 11:47;CYHM 021147Z 25005KT 8SM -SHSN BKN009 OVC024 RMK SF5SC3

CYHM;2011-12-02 12:00;CYHM 021200Z 25005KT 6SM -SHSN BKN013 OVC026 01/M01 A3022 RMK SC5SC3 SLP243

CYHM;2011-12-02 12:19;CYHM 021219Z 23005KT 1 1/2SM -SHSN BKN012 OVC025 RMK SN1SC6SC2

CYHM;2011-12-02 12:36;CYHM 021236Z 23005KT 1SM -SHSN BR BKN008 OVC026 RMK SN2SF5SC2

CYHM;2011-12-02 13:00;CYHM 021300Z 23005KT 1SM -SHSN BR BKN006 OVC022 00/M00 A3024 RMK SN2SF5SC2 CIG RGD SLP249

CYHM;2011-12-02 13:17;CYHM 021317Z 23006KT 3/4SM -SHSN BR OVC003 RMK SN2SF6 CIG RGD

CYHM;2011-12-02 14:00;CYHM 021400Z 23006KT 3/4SM -SHSN BR OVC005 00/00 A3025 RMK SN2SF6 SLP253

CYHM;2011-12-02 15:00;CYHM 021500Z CCA 26009KT 1 1/2SM -SHSN BR OVC003 00/00 A3027 RMK FG1SF7 SLP261

CYHM;2011-12-02 15:28;CYHM 021528Z 28006KT 2SM -SHSN BR SCT003 BKN010 BKN015 RMK FG1SF3SC2SC2

CYHM;2011-12-02 15:41;CYHM 021541Z 28005KT 3SM BR FEW006 BKN015 BKN025 BKN080 RMK SF2SC3SC2AC1

CYHM;2011-12-02 16:00;CYHM 021600Z 31008KT 5SM BR FEW007 SCT015 BKN025 BKN100 02/01 A3030 RMK CF1SC2SC2AC2 SLP270

CYHM;2011-12-02 17:00;CYHM 021700Z 30010KT 15SM FEW010 BKN015 BKN100 03/01 A3033 RMK CF2CU5AC1 SLP279

CYHM;2011-12-02 18:00;CYHM 021800Z 31010KT 15SM FEW016 BKN070 03/M00 A3034 RMK CF2AC5 SLP284

CYHM;2011-12-02 19:00;CYHM 021900Z 29009KT 15SM BKN028 04/M01 A3037 RMK SC5 CU ASOCTD SLP293

CYHM;2011-12-02 20:00;CYHM 022000Z 30006KT 15SM FEW030 03/M03 A3039 RMK SC2 CU ASOCTD SLP301

CYHM;2011-12-02 21:00;CYHM 022100Z 30006KT 15SM FEW035 02/M03 A3043 RMK SC2 CU ASOCTD SLP314

CYHM;2011-12-02 22:00;CYHM 022200Z 30005KT 15SM SCT038 01/M04 A3046 RMK SC4 CU ASOCTD SLP325

CYHM;2011-12-02 23:00;CYHM 022300Z 29002KT 15SM FEW030 FEW220 00/M04 A3047 RMK SC1CI1 TR SC SLP328

CYHM;2011-12-03 00:00;CYHM 030000Z 18002KT 15SM FEW030 FEW210 M01/M04 A3049 RMK SC1CI1 TR SC SLP334

CYHM;2011-12-03 01:00;CYHM 030100Z 26004KT 15SM FEW025 FEW200 M02/M04 A3052 RMK CU1CI1 TR CU SLP345

CYHM;2011-12-03 02:00;CYHM 030200Z 27003KT 15SM FEW200 M02/M04 A3053 RMK CI1 SLP349

CYHM;2011-12-03 03:00;CYHM 030300Z 00000KT 15SM FEW210 M03/M04 A3053 RMK CI1 SLP351

CYHM;2011-12-03 04:00;CYHM 030400Z 08002KT 15SM FEW200 M03/M05 A3052 RMK CI1 SLP349

CYHM;2011-12-03 05:00;CYHM 030500Z 19002KT 15SM FEW200 M04/M05 A3053 RMK CI1 SLP352

CYHM;2011-12-03 06:00;CYHM 030600Z 00000KT 15SM FEW210 M03/M04 A3052 RMK CI1 SLP348

CYHM;2011-12-03 07:00;CYHM 030700Z 25003KT 15SM FEW200 M04/M05 A3053 RMK CI1 SLP349

CYHM;2011-12-03 08:00;CYHM 030800Z 24003KT 15SM FEW200 M03/M05 A3053 RMK CI1 FROIN SLP350

CYHM;2011-12-03 09:00;CYHM 030900Z 00000KT 15SM BKN026 M04/M05 A3054 RMK SC6 FROIN SLP352

CYHM;2011-12-03 10:00;CYHM 031000Z 13002KT 15SM BKN026 M04/M05 A3053 RMK SC6 FROIN SLP350

CYHM;2011-12-03 11:00;CYHM 031100Z 13006KT 15SM FEW025 M03/M05 A3052 RMK SC1 FROIN SLP348

CYHM;2011-12-03 12:00;CYHM 031200Z 13006KT 15SM SCT240 M03/M05 A3051 RMK CI2 SLP345

CYHM;2011-12-03 13:00;CYHM 031300Z 16007KT 15SM BKN240 M01/M03 A3051 RMK CI3 CONTRAILS SLP344

CYHM;2011-12-03 14:00;CYHM 031400Z 17006KT 15SM BKN250 00/M02 A3049 RMK CI3 CONTRAILS SLP338

CYHM;2011-12-03 15:00;CYHM 031500Z 19006KT 15SM BKN220 03/00 A3049 RMK CI6 SLP334

CYHM;2011-12-03 16:00;CYHM 031600Z 20012G17KT 15SM FEW180 BKN220 04/01 A3048 RMK AC1CI5 SLP333

CYHM;2011-12-03 17:00;CYHM 031700Z 20012KT 15SM FEW170 BKN240 06/02 A3045 RMK AC1CI6 SLP322

CYHM;2011-12-03 18:00;CYHM 031800Z 20012KT 15SM BKN250 06/02 A3043 RMK CI5 SLP316

CYHM;2011-12-03 19:00;CYHM 031900Z 20011KT 15SM BKN250 06/02 A3041 RMK CI4 SLP308

CYHM;2011-12-03 20:00;CYHM 032000Z 19009KT 15SM FEW120 BKN250 06/02 A3040 RMK AC1CI4 SLP304

CYHM;2011-12-03 21:00;CYHM 032100Z 21006KT 15SM SCT049 BKN250 05/02 A3041 RMK SC4CI2 SLP307

CYHM;2011-12-03 22:00;CYHM 032200Z 19006KT 15SM SCT049 BKN067 OVC250 05/02 A3039 RMK SC3AC3CI1 SLP302

CYHM;2011-12-03 23:00;CYHM 032300Z 16008KT 15SM SCT054 BKN070 05/02 A3037 RMK SC3AC4 SLP296

CYHM;2011-12-04 00:00;CYHM 040000Z 16008KT 15SM SCT052 BKN076 05/02 A3035 RMK SC4AC3 SLP287

CYHM;2011-12-04 01:00;CYHM 040100Z 17010KT 15SM FEW050 SCT075 06/02 A3033 RMK SC2AC2 SLP279

CYHM;2011-12-04 02:00;CYHM 040200Z 19008KT 15SM FEW075 SCT210 05/02 A3032 RMK AC1CI2 SLP276

CYHM;2011-12-04 03:00;CYHM 040300Z 19007KT 15SM SCT140 BKN170 05/02 A3030 RMK AC3AC3 SLP270

CYHM;2011-12-04 04:00;CYHM 040400Z 19008KT 15SM FEW052 BKN170 06/02 A3030 RMK SC1AC4 SLP269

CYHM;2011-12-04 05:00;CYHM 040500Z 17006KT 15SM BKN180 06/02 A3028 RMK AC6 SLP261

CYHM;2011-12-04 06:00;CYHM 040600Z 19007KT 15SM FEW170 BKN240 05/02 A3026 RMK AC2CI2 SLP255

CYHM;2011-12-04 07:00;CYHM 040700Z 17008KT 15SM OVC180 06/03 A3022 RMK AC8 SLP242

CYHM;2011-12-04 08:00;CYHM 040800Z 17011KT 15SM OVC170 06/03 A3019 RMK AC8 SLP232

CYHM;2011-12-04 09:00;CYHM 040900Z 18011KT 15SM OVC180 07/03 A3017 RMK AC8 SLP222

CYHM;2011-12-04 10:00;CYHM 041000Z 19012G18KT 15SM BKN170 07/02 A3015 RMK AC6 SLP215

CYHM;2011-12-04 11:00;CYHM 041100Z 19011KT 15SM FEW150 07/02 A3013 RMK AC2 SLP211

CYHM;2011-12-04 12:00;CYHM 041200Z 19012G18KT 15SM BKN140 08/02 A3012 RMK AC7 SLP207

CYHM;2011-12-04 13:00;CYHM 041300Z 20015KT 15SM FEW071 BKN097 08/02 A3013 RMK AC2AC6 SLP208

CYHM;2011-12-04 14:00;CYHM 041400Z 21016G22KT 15SM -SHRA BKN034 BKN064 09/02 A3015 RMK SC5SC2 SLP215

CYHM;2011-12-04 14:17;CYHM 041417Z 21022G32KT 2SM -SHRA BR OVC033 RMK FG1SC7

CYHM;2011-12-04 14:25;CYHM 041425Z 22016G27KT 6SM -SHRA BR BKN031 OVC046 RMK SC7SC1

CYHM;2011-12-04 14:54;CYHM 041454Z 21011G21KT 15SM SCT031 OVC043 RMK SC3SC5

CYHM;2011-12-04 15:00;CYHM 041500Z 20015G20KT 15SM SCT031 OVC043 08/04 A3013 RMK SC3SC5 SLP211

CYHM;2011-12-04 15:21;CYHM 041521Z 21016G22KT 15SM -SHRA BKN028 OVC044 RMK SC5SC3

CYHM;2011-12-04 16:00;CYHM 041600Z 22016G27KT 12SM -SHRA BKN023 OVC042 08/04 A3014 RMK SC6SC2 SLP213

CYHM;2011-12-04 16:43;CYHM 041643Z 20011G20KT 15SM FEW025 BKN047 OVC075 RMK SC2SC3AC2

CYHM;2011-12-04 17:00;CYHM 041700Z 20014G22KT 15SM FEW025 FEW045 BKN078 BKN093 09/04 A3008 RMK SC1SC2AC3AC2 SLP194

CYHM;2011-12-04 18:00;CYHM 041800Z 21015G20KT 15SM BKN032 BKN092 10/03 A3009 RMK SC6AC2 SLP196

CYHM;2011-12-04 19:00;CYHM 041900Z 22015G22KT 15SM BKN036 BKN080 11/03 A3010 RMK SC6AC2 SLP197

CYHM;2011-12-04 19:19;CYHM 041919Z 21012G19KT 12SM -SHRA BKN035 OVC078 RMK SC6AC2

CYHM;2011-12-04 20:00;CYHM 042000Z 22012G18KT 10SM -SHRA OVC029 10/05 A3011 RMK SC8 SLP202

CYHM;2011-12-04 21:00;CYHM 042100Z 22013G19KT 10SM -RA BKN026 OVC060 09/07 A3013 RMK SC7SC1 SLP207

CYHM;2011-12-04 22:00;CYHM 042200Z 21014KT 15SM -SHRA OVC025 09/07 A3013 RMK SC8 PCPN VRY LGT SLP210

CYHM;2011-12-04 23:00;CYHM 042300Z 21013G20KT 10SM -RA FEW010 OVC025 09/08 A3014 RMK CF1SC8 CF TR SLP211

CYHM;2011-12-04 23:32;CYHM 042332Z 20012G18KT 10SM -RA FEW009 BKN014 OVC025 RMK CF2SC3SC3

CYHM;2011-12-04 23:44;CYHM 042344Z 20012KT 10SM -RA FEW006 BKN009 OVC020 RMK SF2SF4SC2

CYHM;2011-12-05 00:00;CYHM 050000Z 20013G19KT 12SM -RA FEW006 BKN010 OVC020 09/08 A3014 RMK SF2SF4SC2 SLP211

CYHM;2011-12-05 00:50;CYHM 050050Z 20014G21KT 10SM -RA FEW006 OVC009 RMK SF2SF6

CYHM;2011-12-05 01:00;CYHM 050100Z 21016KT 12SM -SHRA SCT007 OVC010 09/09 A3014 RMK SF3SF5 SLP213

CYHM;2011-12-05 01:16;CYHM 050116Z 20015KT 10SM -SHRA SCT005 OVC008 RMK SF3SF5

CYHM;2011-12-05 02:00;CYHM 050200Z 20014G20KT 9SM -RA SCT006 BKN009 OVC014 09/08 A3015 RMK SF3SF3SC2 SLP216

CYHM;2011-12-05 03:00;CYHM 050300Z 22013KT 9SM -RA SCT006 OVC009 09/08 A3017 RMK SF4SF4 SLP221

CYHM;2011-12-05 04:00;CYHM 050400Z 22011KT 6SM -RA BR OVC008 09/09 A3017 RMK SF8 SLP220

CYHM;2011-12-05 05:00;CYHM 050500Z 22011KT 6SM -RA BR OVC008 09/09 A3016 RMK SF8 SLP219

CYHM;2011-12-05 06:00;CYHM 050600Z 22009KT 6SM -RA BR BKN007 OVC040 09/09 A3015 RMK SF7SC1 SLP214

CYHM;2011-12-05 07:00;CYHM 050700Z 23009KT 6SM -RA BR BKN008 OVC040 09/09 A3015 RMK SF6SC2 SLP215

CYHM;2011-12-05 08:00;CYHM 050800Z 22006KT 8SM -SHRA SCT007 BKN012 OVC040 09/09 A3016 RMK SF3SF4SC1 SLP218

CYHM;2011-12-05 09:00;CYHM 050900Z 19006KT 2 1/2SM -SHRA BR BKN003 OVC012 09/09 A3016 RMK SF6SF2 SLP218

CYHM;2011-12-05 10:00;CYHM 051000Z 33006KT 5SM -SHRA BR SCT003 OVC008 08/07 A3017 RMK SF3SF5 SLP220

CYHM;2011-12-05 11:00;CYHM 051100Z 31002KT 5SM -SHRA BR FEW003 BKN008 OVC014 07/07 A3018 RMK SF2SF5SC1 SLP225

CYHM;2011-12-05 12:00;CYHM 051200Z 28002KT 10SM -SHRA BKN049 OVC059 07/06 A3019 RMK SC6SC2 SLP228

CYHM;2011-12-05 13:00;CYHM 051300Z 29004KT 2 1/2SM -SHRA BR OVC014 06/06 A3020 RMK SC8 SLP232

CYHM;2011-12-05 14:00;CYHM 051400Z 29003KT 3SM -SHRA BR BKN015 OVC022 06/06 A3022 RMK SC6SC2 SLP238

CYHM;2011-12-05 15:00;CYHM 051500Z 33005KT 3SM -SHRA BR BKN020 OVC031 06/06 A3022 RMK SC6SC2 SLP240

CYHM;2011-12-05 16:00;CYHM 051600Z 35004KT 4SM -SHRA BR FEW006 BKN009 OVC020 07/06 A3019 RMK SF2SC5SC2 PCPN VRY LGT SLP229

CYHM;2011-12-05 17:00;CYHM 051700Z 34005KT 3SM -SHRA BR BKN005 OVC015 07/06 A3018 RMK SF6SC2 SLP225

CYHM;2011-12-05 17:29;CYHM 051729Z 34006KT 2SM -SHRA BR OVC004 RMK FG1SF7 CIG350FT

CYHM;2011-12-05 18:00;CYHM 051800Z 35006KT 2 1/2SM -SHRA BR BKN005 OVC015 06/06 A3016 RMK SF6SC2 CIG550FT SLP218

CYHM;2011-12-05 19:00;CYHM 051900Z CCB 34008KT 3SM -SHRA BR OVC005 05/05 A3015 RMK SF8 CIG RGD SLP216

CYHM;2011-12-05 20:00;CYHM 052000Z 34007KT 2SM -SHRA BR BKN008 OVC016 05/04 A3015 RMK SF6SC2 SLP214

CYHM;2011-12-05 21:00;CYHM 052100Z 36009KT 2 1/2SM -SHRA BR BKN009 OVC036 04/04 A3016 RMK SF5SC3 SLP218

CYHM;2011-12-05 21:38;CYHM 052138Z 07009KT 4SM -SHRA BR FEW007 SCT014 OVC024 RMK SF2SF1SC5

CYHM;2011-12-05 22:00;CYHM 052200Z 01005KT 4SM -SHRA BR BKN007 OVC024 04/03 A3017 RMK SF6SC2 SLP223

CYHM;2011-12-05 22:50;CYHM 052250Z 02006KT 8SM -SHRA FEW007 SCT018 OVC026 RMK SF2SF2SC5

CYHM;2011-12-05 23:00;CYHM 052300Z CCA 02007KT 8SM -SHRA FEW007 SCT018 OVC026 04/03 A3019 RMK SF2SF2SC5 SLP228

CYHM;2011-12-06 00:00;CYHM 060000Z 02008KT 6SM -RA BR FEW006 BKN024 OVC040 04/03 A3017 RMK SF2SC3SC2 SLP223

CYHM;2011-12-06 01:00;CYHM 060100Z 02014KT 5SM -RA BR FEW006 BKN030 OVC042 03/02 A3017 RMK SF2SC3SC2 SLP225

CYHM;2011-12-06 02:00;CYHM 060200Z 01011KT 4SM -RA BR SCT008 BKN031 OVC040 01/01 A3018 RMK SF4SC2SC2 SLP226

CYHM;2011-12-06 03:00;CYHM 060300Z 01010KT 2 1/2SM -SN BR BKN003 BKN018 OVC034 00/00 A3017 RMK SF6SC2SC1 SLP224

CYHM;2011-12-06 04:00;CYHM 060400Z 02011KT 1 3/4SM -SN BKN004 OVC018 00/00 A3016 RMK SF6SC2 SLP222

CYHM;2011-12-06 05:00;CYHM 060500Z 01009KT 2SM -SN BKN003 OVC008 00/00 A3016 RMK SF6SC2 SLP221

CYHM;2011-12-06 06:00;CYHM 060600Z 02011KT 2SM -SN BKN004 OVC008 00/00 A3013 RMK SF6SC2 SLP210

CYHM;2011-12-06 07:00;CYHM 060700Z 03010KT 2 1/4SM -SN OVC004 00/00 A3011 RMK SF8 SLP204

CYHM;2011-12-06 08:00;CYHM 060800Z 02009KT 2 1/2SM -SN OVC004 00/00 A3012 RMK SF8 SLP208

CYHM;2011-12-06 09:00;CYHM 060900Z 02009KT 2 1/2SM -SN OVC004 01/00 A3011 RMK SF8 SLP204

CYHM;2011-12-06 09:52;CYHM 060952Z 35006KT 6SM -SHSN OVC006 RMK SF8

CYHM;2011-12-06 10:00;CYHM 061000Z 35007KT 6SM -SHSN BR OVC006 01/00 A3012 RMK SF8 SLP207

CYHM;2011-12-06 11:00;CYHM 061100Z 35008KT 5SM -SHSN BR OVC008 01/00 A3012 RMK SF8 SLP208

CYHM;2011-12-06 11:18;CYHM 061118Z 35007KT 8SM -SHSN OVC008 RMK SF8 PCPN VRY LGT

CYHM;2011-12-06 12:00;CYHM 061200Z 36009KT 8SM -SHSN OVC008 01/00 A3013 RMK SF8 PCPN VRY LGT SLP211

CYHM;2011-12-06 12:49;CYHM 061249Z 35010KT 7SM OVC010 RMK SF8

CYHM;2011-12-06 13:00;CYHM 061300Z 35011KT 8SM OVC011 01/00 A3013 RMK SC8 SLP213

CYHM;2011-12-06 14:00;CYHM 061400Z 02007KT 4SM BR OVC013 01/00 A3013 RMK SC8 SLP210

CYHM;2011-12-06 15:00;CYHM 061500Z 01008KT 4SM BR BKN008 OVC012 01/00 A3014 RMK SF6SC2 SLP217

CYHM;2011-12-06 15:23;CYHM 061523Z 01008KT 2 1/2SM BR OVC009 RMK SF8

CYHM;2011-12-06 16:00;CYHM 061600Z 36006KT 2SM -SHSN BR OVC005 01/00 A3015 RMK SF8 SLP220

CYHM;2011-12-06 17:00;CYHM 061700Z 02006KT 2 1/2SM -SN BR BKN007 OVC025 01/00 A3012 RMK SF6SC2 PCPN VRY LGT SLP211

CYHM;2011-12-06 17:39;CYHM 061739Z 02008KT 3SM -SN BR SCT006 OVC011 RMK SF3SC5

CYHM;2011-12-06 18:00;CYHM 061800Z 02008KT 5SM -SN BR SCT005 OVC010 01/01 A3010 RMK SF3SC5 SLP201

CYHM;2011-12-06 18:48;CYHM 061848Z 01006KT 4SM -DZ BR OVC009 RMK SF8

CYHM;2011-12-06 19:00;CYHM 061900Z 02007KT 2SM -DZ BR OVC007 02/01 A3008 RMK SF8 SLP197

CYHM;2011-12-06 20:00;CYHM 062000Z 03005KT 4SM -DZ BR OVC008 02/01 A3007 RMK SF8 SLP192

CYHM;2011-12-06 21:00;CYHM 062100Z 01006KT 5SM -DZ BR OVC007 02/01 A3007 RMK SF8 SLP192

CYHM;2011-12-06 21:21;CYHM 062121Z 03005KT 4SM BR OVC008 RMK SF8

CYHM;2011-12-06 22:00;CYHM 062200Z 34005KT 5SM BR OVC007 02/01 A3007 RMK SF8 SLP192

CYHM;2011-12-06 23:00;CYHM 062300Z 34007KT 8SM OVC008 01/00 A3007 RMK SF8 SLP193

CYHM;2011-12-07 00:00;CYHM 070000Z 35003KT 8SM OVC009 01/00 A3007 RMK SF8 SLP192

CYHM;2011-12-07 01:00;CYHM 070100Z 02003KT 9SM OVC010 01/00 A3007 RMK SC8 SLP194

CYHM;2011-12-07 01:37;CYHM 070137Z 04005KT 6SM BR OVC008 RMK SF8

CYHM;2011-12-07 02:00;CYHM 070200Z 02003KT 6SM BR OVC007 01/00 A3006 RMK SF8 SLP188

CYHM;2011-12-07 03:00;CYHM 070300Z 34003KT 5SM BR OVC007 01/00 A3004 RMK SF8 SLP183

CYHM;2011-12-07 04:00;CYHM 070400Z 36004KT 5SM BR OVC006 01/00 A3002 RMK SF8 SLP175

CYHM;2011-12-07 05:00;CYHM 070500Z 34004KT 2 1/2SM -SHSN BR OVC003 01/00 A3001 RMK SF8 SLP170

CYHM;2011-12-07 06:00;CYHM 070600Z 28002KT 2SM -SHSN BR OVC002 01/00 A3002 RMK SF8 SLP174

CYHM;2011-12-07 07:00;CYHM 070700Z 30003KT 2SM -SHSN BR OVC004 01/00 A3001 RMK SF8 SLP170

CYHM;2011-12-07 08:00;CYHM 070800Z 30003KT 4SM -SHSN BR OVC008 01/00 A3001 RMK SF8 SLP170

CYHM;2011-12-07 09:00;CYHM 070900Z 32006KT 6SM -SHSN BR OVC008 00/M01 A2998 RMK SF8 SLP161

CYHM;2011-12-07 10:00;CYHM 071000Z 32005KT 8SM -SHSN FEW008 OVC019 M00/M02 A2997 RMK SF2SC6 PCPN VRY LGT SLP160

CYHM;2011-12-07 10:24;CYHM 071024Z 35006KT 15SM SCT020 BKN078 RMK SC3AC4

CYHM;2011-12-07 11:00;CYHM 071100Z 34004KT 15SM SCT022 BKN077 M00/M02 A2997 RMK SC3AC4 SLP158

CYHM;2011-12-07 12:00;CYHM 071200Z 03003KT 15SM OVC055 M00/M03 A2997 RMK SC8 SLP159

CYHM;2011-12-07 13:00;CYHM 071300Z 03003KT 15SM BKN029 BKN050 M00/M02 A2997 RMK SC6SC2 SLP157

CYHM;2011-12-07 14:00;CYHM 071400Z 03003KT 15SM OVC025 00/M03 A2994 RMK SC8 SLP150

CYHM;2011-12-07 15:00;CYHM 071500Z 11002KT 15SM OVC023 00/M03 A2995 RMK SC8 TR CU ASOCTD SLP151

CYHM;2011-12-07 16:00;CYHM 071600Z 26005KT 15SM BKN022 OVC026 00/M02 A2994 RMK SC6SC2 SLP148

CYHM;2011-12-07 17:00;CYHM 071700Z 22005KT 15SM OVC024 00/M02 A2991 RMK SC8 SLP139

CYHM;2011-12-07 18:00;CYHM 071800Z 23005KT 15SM SCT018 OVC022 01/M02 A2988 RMK SC3SC5 SLP128

CYHM;2011-12-07 19:00;CYHM 071900Z 22006KT 15SM OVC025 01/M02 A2985 RMK SC8 SLP119

CYHM;2011-12-07 20:00;CYHM 072000Z 27010KT 15SM FEW016 BKN029 01/M04 A2985 RMK CF2SC6 SLP119

CYHM;2011-12-07 21:00;CYHM 072100Z 28010KT 15SM BKN026 M00/M04 A2983 RMK SC7 SLP111

CYHM;2011-12-07 22:00;CYHM 072200Z 28008KT 15SM BKN023 M01/M04 A2986 RMK SC7 SLP121

CYHM;2011-12-07 23:00;CYHM 072300Z 27008KT 15SM BKN025 M01/M05 A2984 RMK SC7 SLP115

CYHM;2011-12-08 00:00;CYHM 080000Z 29009G16KT 15SM OVC028 M01/M06 A2988 RMK SC8 SLP127

CYHM;2011-12-08 01:00;CYHM 080100Z 25004KT 15SM FEW037 M02/M06 A2987 RMK SC2 SLP125

CYHM;2011-12-08 02:00;CYHM 080200Z 21005KT 15SM BKN040 M03/M06 A2986 RMK SC6 SLP121

CYHM;2011-12-08 03:00;CYHM 080300Z 21006KT 15SM FEW040 BKN130 M03/M06 A2987 RMK SC1AC5 SLP124

CYHM;2011-12-08 04:00;CYHM 080400Z 23007KT 15SM FEW044 OVC099 M02/M05 A2985 RMK SC1AC7 SLP119

CYHM;2011-12-08 05:00;CYHM 080500Z 22008KT 15SM BKN098 M01/M04 A2986 RMK AC7 SLP122

CYHM;2011-12-08 06:00;CYHM 080600Z 25011KT 15SM SCT062 BKN097 M01/M05 A2987 RMK SC3AC4 SLP124

CYHM;2011-12-08 07:00;CYHM 080700Z 24012KT 15SM OVC041 M00/M05 A2988 RMK SC8 SLP127

CYHM;2011-12-08 08:00;CYHM 080800Z 25011KT 12SM -SHSN OVC038 M00/M04 A2991 RMK SC8 SLP136

CYHM;2011-12-08 09:00;CYHM 080900Z 25009KT 12SM -SHSN FEW022 OVC033 00/M03 A2992 RMK SC2SC6 SLP142

CYHM;2011-12-08 10:00;CYHM 081000Z 25011KT 10SM -SHSN BKN021 OVC045 00/M03 A2994 RMK SC6SC2 SLP150

CYHM;2011-12-08 11:00;CYHM 081100Z 27015G20KT 15SM -SHSN FEW020 OVC040 00/M04 A2999 RMK CF2SC6 SLP164

CYHM;2011-12-08 11:37;CYHM 081137Z 26014G21KT 15SM FEW045 RMK SC2

CYHM;2011-12-08 12:00;CYHM 081200Z 25011G16KT 15SM FEW040 M01/M05 A3002 RMK SC2 SLP177

CYHM;2011-12-08 13:00;CYHM 081300Z 25010KT 15SM FEW025 M01/M05 A3005 RMK CU1 CU TR SLP185

CYHM;2011-12-08 14:00;CYHM 081400Z 25012G17KT 15SM FEW025 M01/M05 A3007 RMK CU1 CU TR SLP193

CYHM;2011-12-08 15:00;CYHM 081500Z 24017KT 15SM FEW025 FEW230 M00/M05 A3009 RMK CU1CI1 SLP202

CYHM;2011-12-08 16:00;CYHM 081600Z 24018G26KT 15SM FEW030 FEW120 FEW220 00/M06 A3010 RMK CU1AC1CI1 CU TR AC TR CI TR SLP206

CYHM;2011-12-08 17:00;CYHM 081700Z 24018G26KT 15SM FEW032 FEW120 01/M07 A3009 RMK CU1AC1 SLP201

CYHM;2011-12-08 18:00;CYHM 081800Z 24016G22KT 15SM FEW033 FEW150 02/M06 A3008 RMK CU1AC1 CU TR AC TR SLP195

CYHM;2011-12-08 19:00;CYHM 081900Z 24020G26KT 15SM FEW035 FEW160 03/M07 A3007 RMK CU1AC1 SLP191

CYHM;2011-12-08 20:00;CYHM 082000Z 24021G26KT 15SM FEW035 BKN100 03/M07 A3007 RMK CU1AC5 CU TR SLP194

CYHM;2011-12-08 21:00;CYHM 082100Z 24011G21KT 15SM FEW030 BKN099 02/M06 A3009 RMK CU1AC6 CU TR SLP199

CYHM;2011-12-08 22:00;CYHM 082200Z 23015KT 15SM FEW025 FEW096 FEW250 01/M04 A3010 RMK CU1AC1CI0 CU TR SLP202

CYHM;2011-12-08 23:00;CYHM 082300Z 24014KT 15SM FEW072 FEW250 01/M03 A3012 RMK AC1CI0 SLP209

CYHM;2011-12-09 00:00;CYHM 090000Z 24015G21KT 15SM BKN069 01/M03 A3012 RMK AC4 SLP210

CYHM;2011-12-09 01:00;CYHM 090100Z 23013G18KT 15SM FEW068 01/M05 A3012 RMK AC1 SLP209

CYHM;2011-12-09 02:00;CYHM 090200Z 23011KT 15SM SCT250 01/M03 A3013 RMK CI1 SLP213

CYHM;2011-12-09 03:00;CYHM 090300Z 24011KT 15SM FEW210 00/M03 A3013 RMK CI1 SLP215

CYHM;2011-12-09 04:00;CYHM 090400Z 25007KT 15SM FEW210 M01/M03 A3015 RMK CI1 SLP220

CYHM;2011-12-09 05:00;CYHM 090500Z 24010KT 15SM FEW210 M00/M03 A3015 RMK CI1 SLP221

CYHM;2011-12-09 06:00;CYHM 090600Z 23009KT 15SM FEW120 BKN210 M01/M03 A3015 RMK AC1CS2 HALO SLP220

CYHM;2011-12-09 07:00;CYHM 090700Z 25008KT 15SM OVC130 M01/M03 A3015 RMK AS6 SLP220

CYHM;2011-12-09 08:00;CYHM 090800Z 25007KT 15SM OVC110 M00/M03 A3015 RMK AS8 SLP220

CYHM;2011-12-09 09:00;CYHM 090900Z 24007KT 15SM OVC076 M00/M03 A3014 RMK AS8 SLP218

CYHM;2011-12-09 10:00;CYHM 091000Z 25006KT 15SM OVC061 M00/M03 A3013 RMK SC8 SLP214

CYHM;2011-12-09 10:46;CYHM 091046Z 24010G16KT 8SM -SHSN OVC032 RMK SC8

CYHM;2011-12-09 11:00;CYHM 091100Z 25012G17KT 7SM -SHSN OVC033 M00/M04 A3014 RMK SC8 SLP217

CYHM;2011-12-09 11:30;CYHM 091130Z 25009KT 2 1/2SM -SHSN BKN009 OVC025 RMK SF6SC2

CYHM;2011-12-09 11:50;CYHM 091150Z 25008KT 2SM -SHSN BR BKN007 OVC018 RMK SF6SC2

CYHM;2011-12-09 12:00;CYHM 091200Z 26010KT 2SM -SHSN BR BKN009 OVC025 M01/M03 A3015 RMK SF6SC2 SLP219

CYHM;2011-12-09 12:28;CYHM 091228Z 24008KT 2 1/2SM -SHSN BR FEW009 SCT025 BKN062 OVC081 RMK SF2SC2SC4AC1

CYHM;2011-12-09 12:36;CYHM 091236Z 24009KT 5SM -SHSN BR BKN061 OVC072 RMK SC6AC2

CYHM;2011-12-09 13:00;CYHM 091300Z 24007KT 15SM -SHSN BKN050 OVC070 M02/M03 A3014 RMK SC6AC2 PCPN VRY LGT SLP216

CYHM;2011-12-09 13:36;CYHM 091336Z 24005KT 2 1/2SM -SHSN BR BKN025 OVC044 RMK SC6SC2

CYHM;2011-12-09 14:00;CYHM 091400Z 23006KT 2 1/2SM -SHSN BR BKN030 OVC045 M01/M03 A3014 RMK SC6SC2 SLP217

CYHM;2011-12-09 14:37;CYHM 091437Z 22009KT 1 1/2SM -SHSN BR BKN013 OVC029 RMK SN1SC6SC2

CYHM;2011-12-09 15:00;CYHM 091500Z 21007KT 2 1/2SM -SHSN BR BKN026 OVC038 M01/M02 A3014 RMK SC6SC2 SLP216

CYHM;2011-12-09 16:00;CYHM 091600Z 23008KT 2 1/2SM -SHSN BR SCT009 BKN038 OVC051 M00/M01 A3013 RMK SF3SC3SC2 SLP214

CYHM;2011-12-09 16:50;CYHM 091650Z 24011KT 5SM -SHSN BR FEW008 BKN022 OVC031 RMK SF2SC4SC2 PCPN VRY LGT

CYHM;2011-12-09 17:00;CYHM 091700Z 24011KT 5SM -SHSN BR FEW007 BKN033 OVC042 01/M01 A3011 RMK SF2SC5SC2 PCPN VRY LGT SLP208

CYHM;2011-12-09 18:00;CYHM 091800Z 26009KT 4SM -SHSN BR FEW019 BKN042 OVC056 01/M01 A3010 RMK CF2SC5SC2 SLP203

CYHM;2011-12-09 19:00;CYHM 091900Z 25011KT 7SM -SHSN SCT018 OVC031 01/M01 A3010 RMK SC3SC5 SLP201

CYHM;2011-12-09 20:00;CYHM 092000Z 27008KT 7SM -SHSN SCT013 OVC022 01/M01 A3009 RMK CF3SC5 SLP200

CYHM;2011-12-09 21:00;CYHM 092100Z 26010KT 8SM -SHSN SCT027 BKN110 00/M02 A3011 RMK SC3AC4 SLP207

CYHM;2011-12-09 22:00;CYHM 092200Z 27010KT 4SM -SHSN FEW010 BKN039 OVC065 M01/M02 A3014 RMK CF2SC5SC2 SLP217

CYHM;2011-12-09 23:00;CYHM 092300Z 28008KT 6SM -SHSN FEW009 OVC034 M01/M03 A3016 RMK CF1SC6 SLP223

CYHM;2011-12-10 00:00;CYHM 100000Z 27009KT 5SM -SHSN BKN016 M02/M03 A3019 RMK SC7 CIG RAG /S01/ SLP234

CYHM;2011-12-10 01:00;CYHM 100100Z 29014G20KT 6SM -SHSN FEW013 BKN030 BKN055 M02/M07 A3021 RMK CF1SC6SC1 SLP242

CYHM;2011-12-10 01:28;CYHM 100128Z 28009G17KT 15SM FEW030 FEW130 RMK SC1AC2

CYHM;2011-12-10 02:00;CYHM 100200Z 28009G16KT 15SM FEW030 FEW130 M03/M08 A3023 RMK SC1AC1 SLP246

CYHM;2011-12-10 03:00;CYHM 100300Z 27009KT 15SM FEW030 FEW130 M04/M08 A3024 RMK SC2AC1 SLP252

CYHM;2011-12-10 04:00;CYHM 100400Z 25007KT 15SM FEW030 FEW200 M04/M08 A3025 RMK SC1CI2 SLP256

CYHM;2011-12-10 05:00;CYHM 100500Z 24008KT 15SM FEW030 FEW200 M05/M08 A3026 RMK SC1CI1 TR CI SLP259

CYHM;2011-12-10 06:00;CYHM 100600Z 24008KT 15SM FEW220 M05/M09 A3026 RMK CI1 SLP259

CYHM;2011-12-10 07:00;CYHM 100700Z 25009KT 15SM FEW200 M06/M09 A3027 RMK CI1 SLP262

CYHM;2011-12-10 08:00;CYHM 100800Z 25007KT 15SM SKC M06/M10 A3029 RMK SLP269

CYHM;2011-12-10 09:00;CYHM 100900Z 25009KT 15SM SKC M06/M10 A3030 RMK SLP271

CYHM;2011-12-10 10:00;CYHM 101000Z 24008KT 15SM SKC M07/M10 A3031 RMK SLP276

CYHM;2011-12-10 11:00;CYHM 101100Z 24008KT 15SM SKC M07/M10 A3033 RMK SLP283

CYHM;2011-12-10 12:00;CYHM 101200Z 23007KT 15SM FEW025 M08/M11 A3035 RMK CU1 SLP290

CYHM;2011-12-10 13:00;CYHM 101300Z 23007KT 15SM FEW025 FEW040 M08/M11 A3036 RMK CU1SC1 SLP294

CYHM;2011-12-10 14:00;CYHM 101400Z 24010KT 15SM FEW025 M07/M10 A3037 RMK CU1 SLP297

CYHM;2011-12-10 15:00;CYHM 101500Z 24016KT 15SM FEW025 M05/M10 A3039 RMK CU1 SLP303

CYHM;2011-12-10 16:00;CYHM 101600Z 25012G20KT 15SM SCT027 M04/M10 A3040 RMK CU3 SLP307

CYHM;2011-12-10 17:00;CYHM 101700Z 25015G21KT 15SM BKN028 M04/M11 A3039 RMK CU5 SLP305

CYHM;2011-12-10 18:00;CYHM 101800Z 26018KT 15SM SCT032 M03/M11 A3039 RMK CU3 SLP303

CYHM;2011-12-10 19:00;CYHM 101900Z CCA 26014G20KT 15SM FEW032 FEW070 M04/M11 A3038 RMK SC2AC1 CU ASOCTD AC TR SLP302

CYHM;2011-12-10 20:00;CYHM 102000Z 26014KT 15SM FEW032 M04/M11 A3037 RMK SC2 CU ASOCTD SLP299

CYHM;2011-12-10 21:00;CYHM 102100Z 26011G16KT 15SM FEW032 M04/M12 A3039 RMK SC1 CU ASOCTD SLP305

CYHM;2011-12-10 22:00;CYHM 102200Z 26012KT 15SM FEW030 M05/M12 A3040 RMK SC1 SLP309

CYHM;2011-12-10 23:00;CYHM 102300Z 28006KT 15SM FEW035 M06/M11 A3041 RMK SC1 SC TR SLP312

CYHM;2011-12-11 00:00;CYHM 110000Z 25004KT 15SM FEW040 M07/M11 A3042 RMK SC1 SC TR SLP318

CYHM;2011-12-11 01:00;CYHM 110100Z 23005KT 15SM FEW040 M08/M11 A3043 RMK SC1 SC TR SLP322

CYHM;2011-12-11 02:00;CYHM 110200Z 23007KT 15SM FEW040 M08/M11 A3043 RMK SC1 SC TR SLP321

CYHM;2011-12-11 03:00;CYHM 110300Z 23010KT 15SM FEW050 M06/M10 A3043 RMK SC1 SC TR SLP318

CYHM;2011-12-11 04:00;CYHM 110400Z 25012KT 15SM FEW045 M05/M10 A3042 RMK SC1 SLP315

CYHM;2011-12-11 05:00;CYHM 110500Z 25010KT 15SM FEW045 M06/M10 A3042 RMK SC1 SLP316

CYHM;2011-12-11 06:00;CYHM 110600Z 25008KT 15SM FEW040 M06/M10 A3043 RMK SC1 SLP320

CYHM;2011-12-11 07:00;CYHM 110700Z 25010KT 15SM SCT083 BKN200 M06/M10 A3044 RMK AC3CI1 SLP322

CYHM;2011-12-11 08:00;CYHM 110800Z 24007KT 15SM FEW080 FEW200 M06/M10 A3046 RMK AC2CI1 SLP327

CYHM;2011-12-11 09:00;CYHM 110900Z 24007KT 15SM BKN074 M05/M10 A3045 RMK AC7 SLP324

CYHM;2011-12-11 10:00;CYHM 111000Z 23009KT 15SM FEW070 FEW200 M06/M11 A3045 RMK AC1CI1 SLP325

CYHM;2011-12-11 11:00;CYHM 111100Z 22008KT 15SM SKC M07/M11 A3046 RMK SLP328

CYHM;2011-12-11 12:00;CYHM 111200Z 22009KT 15SM FEW070 M07/M12 A3047 RMK AC1 SLP333

CYHM;2011-12-11 13:00;CYHM 111300Z 22010KT 15SM FEW030 FEW210 M06/M11 A3048 RMK SC1CI1 SLP336

CYHM;2011-12-11 14:00;CYHM 111400Z 23011KT 15SM FEW030 FEW080 M04/M11 A3049 RMK SC1AC1 SLP341

CYHM;2011-12-11 15:00;CYHM 111500Z 23012KT 15SM FEW030 M02/M10 A3050 RMK SC1 SLP343

CYHM;2011-12-11 16:00;CYHM 111600Z 21015KT 15SM FEW030 00/M06 A3049 RMK SC1 SLP340

CYHM;2011-12-11 17:00;CYHM 111700Z 23018G25KT 15SM FEW030 02/M06 A3047 RMK SC1 SLP333

CYHM;2011-12-11 18:00;CYHM 111800Z 22018KT 15SM FEW032 03/M05 A3045 RMK CU1 SLP324

CYHM;2011-12-11 19:00;CYHM 111900Z 21018G25KT 15SM FEW040 03/M04 A3045 RMK SC1 SC TR SLP322

CYHM;2011-12-11 20:00;CYHM 112000Z 21016G22KT 15SM FEW040 FEW080 02/M04 A3044 RMK SC1AC1 SC TR AC TR SLP319

CYHM;2011-12-11 21:00;CYHM 112100Z 21016KT 15SM FEW060 01/M05 A3043 RMK SC1 SC TR SLP318

CYHM;2011-12-11 22:00;CYHM 112200Z 22012KT 15SM SKC M00/M06 A3044 RMK SLP319

CYHM;2011-12-11 23:00;CYHM 112300Z 22012KT 15SM SKC M01/M05 A3044 RMK SLP321

CYHM;2011-12-12 00:00;CYHM 120000Z 22011KT 15SM SKC M01/M06 A3044 RMK SLP322

CYHM;2011-12-12 01:00;CYHM 120100Z 22010KT 15SM SKC M02/M06 A3044 RMK SLP321

CYHM;2011-12-12 02:00;CYHM 120200Z 22009KT 15SM SKC M01/M07 A3044 RMK SLP322

CYHM;2011-12-12 03:00;CYHM 120300Z 22011KT 15SM SKC M00/M06 A3044 RMK SLP320

CYHM;2011-12-12 04:00;CYHM 120400Z 21012KT 15SM SKC M00/M06 A3044 RMK SLP319

CYHM;2011-12-12 05:00;CYHM 120500Z 21011KT 15SM SKC M00/M06 A3044 RMK SLP319

CYHM;2011-12-12 06:00;CYHM 120600Z 21009KT 15SM SKC M00/M06 A3043 RMK SLP316

CYHM;2011-12-12 07:00;CYHM 120700Z 23007KT 15SM SKC M02/M06 A3043 RMK SLP315

CYHM;2011-12-12 08:00;CYHM 120800Z 22009KT 15SM SKC M03/M06 A3043 RMK SLP316

CYHM;2011-12-12 09:00;CYHM 120900Z 22008KT 15SM SKC M03/M06 A3043 RMK SLP317

CYHM;2011-12-12 10:00;CYHM 121000Z 22007KT 15SM SKC M04/M07 A3043 RMK SLP316

CYHM;2011-12-12 11:00;CYHM 121100Z 22007KT 15SM SKC M04/M07 A3044 RMK SLP319

CYHM;2011-12-12 12:00;CYHM 121200Z 23007KT 15SM SKC M04/M06 A3044 RMK SLP321

CYHM;2011-12-12 13:00;CYHM 121300Z 21007KT 15SM SKC M04/M06 A3044 RMK SLP320

CYHM;2011-12-12 14:00;CYHM 121400Z 22007KT 15SM SKC M01/M05 A3044 RMK SLP319

CYHM;2011-12-12 15:00;CYHM 121500Z 23009KT 15SM SKC 01/M06 A3044 RMK SLP319

CYHM;2011-12-12 16:00;CYHM 121600Z 23013KT 15SM SKC 03/M05 A3044 RMK SLP319

CYHM;2011-12-12 17:00;CYHM 121700Z 24012KT 15SM SKC 04/M05 A3042 RMK SLP314

CYHM;2011-12-12 18:00;CYHM 121800Z 24013KT 15SM SKC 05/M04 A3041 RMK SLP308

CYHM;2011-12-12 19:00;CYHM 121900Z 25009KT 15SM FEW230 05/M05 A3041 RMK CI1 CI TR SLP306

CYHM;2011-12-12 20:00;CYHM 122000Z 25007KT 15SM FEW220 05/M05 A3039 RMK CI1 CI TR SLP300

CYHM;2011-12-12 21:00;CYHM 122100Z 24006KT 15SM FEW220 04/M04 A3039 RMK CI1 CI TR SLP302

CYHM;2011-12-12 22:00;CYHM 122200Z 21004KT 15SM FEW220 02/M04 A3040 RMK CI1 CI TR SLP304

CYHM;2011-12-12 23:00;CYHM 122300Z 20007KT 15SM FEW220 M01/M03 A3040 RMK CI1 CI TR SLP304

CYHM;2011-12-13 00:00;CYHM 130000Z 22008KT 15SM FEW220 M01/M03 A3040 RMK CI1 CI TR SLP308

CYHM;2011-12-13 01:00;CYHM 130100Z 25005KT 15SM FEW220 M00/M03 A3042 RMK CI1 CI TR SLP312

CYHM;2011-12-13 02:00;CYHM 130200Z 22004KT 15SM SCT220 M02/M04 A3041 RMK CI1 SLP311

CYHM;2011-12-13 03:00;CYHM 130300Z 23005KT 15SM BKN220 M02/M03 A3040 RMK CI2 SLP306

CYHM;2011-12-13 04:00;CYHM 130400Z 23006KT 15SM BKN210 M02/M03 A3040 RMK CI3 SLP307

CYHM;2011-12-13 05:00;CYHM 130500Z 25007KT 15SM BKN210 M01/M03 A3041 RMK CI2 SLP309

CYHM;2011-12-13 06:00;CYHM 130600Z 23006KT 15SM SCT220 M03/M04 A3041 RMK CI1 SLP307

CYHM;2011-12-13 07:00;CYHM 130700Z 22006KT 15SM SCT220 M04/M05 A3040 RMK CI1 SLP304

CYHM;2011-12-13 08:00;CYHM 130800Z 25007KT 15SM FEW022 BKN250 M02/M04 A3041 RMK SC2CI2 SLP309

CYHM;2011-12-13 09:00;CYHM 130900Z 24006KT 15SM SCT022 BKN220 M02/M04 A3040 RMK SC2CI2 SLP304

CYHM;2011-12-13 10:00;CYHM 131000Z 23007KT 15SM FEW022 SCT220 M03/M05 A3041 RMK SC1CI2 SC TR SLP308

CYHM;2011-12-13 11:00;CYHM 131100Z 21006KT 15SM BKN150 BKN220 M04/M06 A3040 RMK AC5CI1 SLP306

CYHM;2011-12-13 12:00;CYHM 131200Z 25006KT 15SM SCT076 BKN140 M03/M05 A3042 RMK AC3AC3 SLP313

CYHM;2011-12-13 13:00;CYHM 131300Z 23005KT 15SM SCT070 BKN088 M02/M05 A3042 RMK AC3AC4 SLP312

CYHM;2011-12-13 14:00;CYHM 131400Z 24006KT 15SM BKN061 BKN100 BKN140 M01/M04 A3042 RMK SC5AC2AC1 SLP315

CYHM;2011-12-13 15:00;CYHM 131500Z 25008KT 10SM SCT059 BKN100 BKN220 01/M03 A3042 RMK SC4AC2CI1 SLP313

CYHM;2011-12-13 16:00;CYHM 131600Z 25009KT 15SM FEW060 FEW120 03/M02 A3043 RMK SC1AC1 SLP316

CYHM;2011-12-13 17:00;CYHM 131700Z 25007KT 15SM FEW110 FEW220 05/M01 A3042 RMK AC1CI1 AC TR SLP312

CYHM;2011-12-13 18:00;CYHM 131800Z 24006KT 15SM FEW140 BKN230 07/M01 A3039 RMK AC1CI3 SLP300

CYHM;2011-12-13 19:00;CYHM 131900Z 24006KT 12SM FEW100 BKN250 07/M01 A3037 RMK AC2CS2 SLP295

CYHM;2011-12-13 20:00;CYHM 132000Z 25006KT 12SM FEW078 BKN100 BKN250 07/M01 A3037 RMK AC1AC6CS1 SLP294

CYHM;2011-12-13 21:00;CYHM 132100Z 23006KT 12SM FEW080 BKN096 BKN250 05/M01 A3039 RMK AC1AC6CI1 SLP299

CYHM;2011-12-13 22:00;CYHM 132200Z 24006KT 12SM FEW078 BKN094 04/M02 A3039 RMK AC1AC6 SLP301

CYHM;2011-12-13 23:00;CYHM 132300Z 23004KT 12SM BKN082 BKN092 03/M02 A3039 RMK AC5AC2 SLP299

CYHM;2011-12-14 00:00;CYHM 140000Z 23006KT 15SM BKN088 02/M02 A3039 RMK AC7 SLP303

CYHM;2011-12-14 01:00;CYHM 140100Z 21006KT 15SM BKN090 02/M02 A3039 RMK AC7 SLP300

CYHM;2011-12-14 02:00;CYHM 140200Z 19003KT 15SM BKN090 02/M01 A3037 RMK AC7 SLP294

CYHM;2011-12-14 03:00;CYHM 140300Z 18004KT 15SM BKN090 03/M01 A3036 RMK AC7 SLP292

CYHM;2011-12-14 04:00;CYHM 140400Z 23002KT 15SM BKN090 02/M01 A3038 RMK AC7 SLP296

CYHM;2011-12-14 05:00;CYHM 140500Z 21002KT 15SM BKN090 02/M00 A3035 RMK AC7 SLP287

CYHM;2011-12-14 06:00;CYHM 140600Z 21003KT 15SM BKN090 02/M00 A3034 RMK AC7 SLP282

CYHM;2011-12-14 07:00;CYHM 140700Z 21002KT 15SM BKN060 OVC090 02/00 A3034 RMK SC6AC2 SLP282

CYHM;2011-12-14 08:00;CYHM 140800Z 21003KT 15SM OVC054 02/00 A3033 RMK SC8 SLP280

CYHM;2011-12-14 09:00;CYHM 140900Z 20003KT 15SM OVC048 02/00 A3033 RMK SC8 SLP280

CYHM;2011-12-14 10:00;CYHM 141000Z 21003KT 12SM OVC044 02/00 A3032 RMK SC8 SLP275

CYHM;2011-12-14 11:00;CYHM 141100Z 17004KT 10SM BKN035 OVC041 02/01 A3031 RMK SC6SC2 SLP274

CYHM;2011-12-14 12:00;CYHM 141200Z 16004KT 15SM OVC035 03/01 A3031 RMK SC8 SLP273

CYHM;2011-12-14 13:00;CYHM 141300Z 15004KT 5SM BR SCT035 BKN062 02/00 A3030 RMK SC3SC3 SLP269

CYHM;2011-12-14 14:00;CYHM 141400Z 13005KT 6SM BR FEW036 BKN062 03/02 A3029 RMK SC2SC6 SLP267

CYHM;2011-12-14 15:00;CYHM 141500Z 15006KT 8SM OVC038 04/02 A3029 RMK SC8 SLP264

CYHM;2011-12-14 16:00;CYHM 141600Z 16006KT 15SM OVC043 05/02 A3026 RMK SC8 SLP257

CYHM;2011-12-14 16:39;CYHM 141639Z 16006KT 8SM -SHRA OVC034 RMK SC8

CYHM;2011-12-14 17:00;CYHM 141700Z 18007KT 5SM -SHRA OVC031 05/03 A3023 RMK SC8 SLP246

CYHM;2011-12-14 18:00;CYHM 141800Z 18008KT 6SM -SHRA BR BKN023 OVC038 05/03 A3018 RMK SC6SC2 SLP227

CYHM;2011-12-14 19:00;CYHM 141900Z 18009KT 6SM -SHRA BR OVC010 05/04 A3016 RMK SC8 PCPN VERY LGT SLP221

CYHM;2011-12-14 20:00;CYHM 142000Z 18008KT 2SM -SHRA BR OVC008 05/04 A3015 RMK FG1SC7 SLP218

CYHM;2011-12-14 20:46;CYHM 142046Z 16008KT 3SM -SHRA BR OVC005 RMK SF8 VIS VRB 2 - 4

CYHM;2011-12-14 21:00;CYHM 142100Z CCA 15008KT 2 1/2SM -SHRA BR OVC003 04/04 A3010 RMK SF8 PRESFR SLP203

CYHM;2011-12-14 21:12;CYHM 142112Z 14008KT 1 1/2SM -SHRA BR OVC003 RMK FG2SF6 VIS VRB 1 - 2

CYHM;2011-12-14 22:00;CYHM 142200Z 15008KT 2SM -SHRA BR OVC003 05/05 A3006 RMK FG1SF7 PRESFR SLP187

CYHM;2011-12-14 23:00;CYHM 142300Z 16006KT 2SM -SHRA BR SCT002 OVC009 05/05 A3003 RMK FG1SF2SC5 SLP179

CYHM;2011-12-14 23:37;CYHM 142337Z 14005KT 1 1/2SM -SHRA BR OVC003 RMK FG2SF6 VIS VRB 1 - 2

CYHM;2011-12-15 00:00;CYHM 150000Z 17006KT 3SM -SHRA BR BKN006 OVC013 05/05 A3001 RMK SF6SC2 VIS VRB 2 - 4 SLP170

CYHM;2011-12-15 00:39;CYHM 150039Z 20006KT 5SM -SHRA BR FEW003 OVC016 RMK SF2SC6

CYHM;2011-12-15 01:00;CYHM 150100Z 20007KT 5SM -SHRA BR OVC015 06/06 A2999 RMK SC8 SLP163

CYHM;2011-12-15 02:00;CYHM 150200Z 20014G20KT 7SM -SHRA OVC011 07/07 A2995 RMK SC8 SLP151

CYHM;2011-12-15 02:36;CYHM 150236Z 20017G23KT 7SM -SHRA OVC009 RMK SC8

CYHM;2011-12-15 03:00;CYHM 150300Z 21017G23KT 6SM -SHRA BR OVC008 08/07 A2994 RMK SC8 SLP144

CYHM;2011-12-15 04:00;CYHM 150400Z 21017G24KT 5SM -SHRA BR OVC005 08/08 A2990 RMK SF8 SLP132

CYHM;2011-12-15 05:00;CYHM 150500Z 20020G28KT 5SM -SHRA BR OVC007 09/09 A2987 RMK SF8 SLP121

CYHM;2011-12-15 06:00;CYHM 150600Z 20020G25KT 6SM -SHRA BR BKN008 OVC024 10/09 A2982 RMK SC6SC2 PRESFR SLP104

CYHM;2011-12-15 06:20;CYHM 150620Z 20016G21KT 15SM SCT013 OVC026 RMK CF3SC5

CYHM;2011-12-15 06:45;CYHM 150645Z 20018G27KT 6SM -SHRA BR SCT012 OVC024 RMK CF3SC5

CYHM;2011-12-15 07:00;CYHM 150700Z 20020G30KT 7SM -SHRA SCT013 OVC028 10/09 A2979 RMK CF3SC5 PRESFR SLP094

CYHM;2011-12-15 08:00;CYHM 150800Z 21018G26KT 12SM -SHRA SCT010 OVC023 10/09 A2977 RMK CF3SC5 SLP086

CYHM;2011-12-15 09:00;CYHM 150900Z 21020G25KT 10SM -SHRA FEW007 OVC013 10/09 A2974 RMK CF2SC6 SLP075

CYHM;2011-12-15 09:23;CYHM 150923Z 20022G30KT 8SM -SHRA OVC008 RMK SF8 CIG RAG

CYHM;2011-12-15 10:00;CYHM 151000Z 20022G28KT 6SM -SHRA BR OVC006 10/10 A2970 RMK SF8 SLP064

CYHM;2011-12-15 11:00;CYHM 151100Z 21020G26KT 3SM -SHRA BR OVC006 10/10 A2969 RMK SF8 VIS VRB 2 - 4 SLP059

CYHM;2011-12-15 12:00;CYHM 151200Z 20016G23KT 6SM -SHRA BR BKN005 OVC010 10/10 A2966 RMK SF6SC2 SLP050

CYHM;2011-12-15 13:00;CYHM 151300Z CCA 20015KT 2SM -SHRA BR OVC007 10/10 A2965 RMK SF8 SLP044

CYHM;2011-12-15 13:50;CYHM 151350Z 22017G24KT 2 1/2SM -SHRA BR BKN008 OVC013 RMK SF6SC2

CYHM;2011-12-15 14:00;CYHM 151400Z 22022G29KT 2SM -SHRA BR BKN008 OVC013 12/11 A2964 RMK SF6SC2 SLP041

CYHM;2011-12-15 14:41;CYHM 151441Z 22018G30KT 4SM -SHRA BR BKN008 OVC014 RMK SF6SC2

CYHM;2011-12-15 15:00;CYHM 151500Z CCA 23020G28KT 5SM -SHRA BR BKN008 OVC012 12/11 A2963 RMK SF6SC2 PCPN VRY LGT SLP038

CYHM;2011-12-15 15:41;CYHM 151541Z 23021G32KT 2SM -SHRA BR BKN004 OVC011 RMK SF6SC2

CYHM;2011-12-15 16:00;CYHM 151600Z 23017G26KT 1 1/2SM -SHRA BR BKN006 OVC011 12/12 A2962 RMK FG1SF6SC2 SLP034

CYHM;2011-12-15 16:07;CYHM 151607Z 22018KT 2 1/2SM -SHRA BR BKN008 OVC011 RMK SF6SC2

CYHM;2011-12-15 16:33;CYHM 151633Z 23020G26KT 1 1/2SM -SHRA BR BKN006 OVC011 RMK FG1SF6SC2

CYHM;2011-12-15 17:00;CYHM 151700Z 24019G27KT 1 1/2SM -SHRA BR BKN007 OVC012 12/12 A2959 RMK FG1SF6SC1 SLP024

CYHM;2011-12-15 17:19;CYHM 151719Z 23021G29KT 8SM -SHRA SCT006 OVC014 RMK SF4SC4

CYHM;2011-12-15 18:00;CYHM 151800Z 22020G30KT 9SM -SHRA FEW008 BKN014 OVC020 13/12 A2955 RMK SF2SC6SC1 SLP010

CYHM;2011-12-15 18:04;CYHM 151804Z 23020G30KT 2SM -SHRA BR SCT008 BKN014 OVC020 RMK FG1SF2SC4SC1

CYHM;2011-12-15 18:19;CYHM 151819Z 23018G28KT 5SM -SHRA BR FEW007 OVC014 RMK SF2SC6

CYHM;2011-12-15 18:45;CYHM 151845Z 23020G28KT 7SM -SHRA FEW008 BKN020 OVC078 RMK CF2SC5AC2

CYHM;2011-12-15 20:00;CYHM 152000Z 23013G20KT 10SM -SHRA FEW012 BKN062 BKN098 11/10 A2953 RMK CF1SC5AC1 SLP002 DENSITY ALT 900FT

CYHM;2011-12-15 21:00;CYHM 152100Z 26013G21KT 15SM -SHRA FEW012 BKN026 11/09 A2959 RMK CF1SC6 PCPN TR SLP021 DENSITY ALT 800FT

CYHM;2011-12-15 21:40;CYHM 152140Z 27015G21KT 15SM FEW027 FEW038 10/07 A2960 RMK SC1SC1 SLP026

CYHM;2011-12-15 22:00;CYHM 152200Z 25013G22KT 15SM BKN046 10/06 A2961 RMK SC7 SLP030

CYHM;2011-12-15 23:00;CYHM 152300Z 26019G27KT 15SM FEW054 09/05 A2964 RMK SC2 SLP039

CYHM;2011-12-16 00:00;CYHM 160000Z 25019KT 15SM BKN063 08/03 A2966 RMK SC6 SLP049

CYHM;2011-12-16 00:28;CYHM 160028Z 27010G18KT 15SM SHRA SCT025 BKN061 08/04 A2969 RMK SC3SC4 SLP058

CYHM;2011-12-16 01:00;CYHM 160100Z 25018G24KT 15SM -SHRA BKN032 OVC062 06/04 A2970 RMK SC6SC2 SLP062

CYHM;2011-12-16 01:27;CYHM 160127Z 25016G23KT 15SM FEW019 OVC036 06/04 A2971 RMK CF1SC7 SLP065

CYHM;2011-12-16 02:00;CYHM 160200Z 24017G24KT 15SM FEW017 BKN028 OVC041 06/04 A2972 RMK CF1SC5SC2 SLP066

CYHM;2011-12-16 02:41;CYHM 160241Z 26017G26KT 15SM -SHRA FEW019 BKN032 BKN063 06/03 A2973 RMK CF1SC5SC1 SLP071

CYHM;2011-12-16 03:00;CYHM 160300Z 26017G27KT 15SM -SHRA BKN018 OVC032 06/03 A2974 RMK SC5SC3 SLP076

CYHM;2011-12-16 04:00;CYHM 160400Z 26020G27KT 15SM -SHRA BKN018 BKN037 OVC052 04/02 A2977 RMK SC6SC1SC1 SLP085

CYHM;2011-12-16 05:00;CYHM 160500Z 28020G37KT 15SM FEW015 OVC028 02/M01 A2983 RMK SC2SC6 SLP108

CYHM;2011-12-16 06:00;CYHM 160600Z 26021G30KT 15SM FEW028 OVC041 01/M03 A2988 RMK SC2SC6 SLP123

CYHM;2011-12-16 07:00;CYHM 160700Z 26017G32KT 15SM BKN028 OVC039 01/M04 A2992 RMK SC5SC3 SLP139

CYHM;2011-12-16 08:00;CYHM 160800Z 26021G29KT 15SM FEW032 BKN051 01/M05 A2998 RMK SC2SC4 SLP158

CYHM;2011-12-16 09:00;CYHM 160900Z 26022G31KT 15SM OVC043 01/M04 A3002 RMK SC8 SLP172

CYHM;2011-12-16 10:00;CYHM 161000Z 27017G25KT 15SM OVC041 01/M04 A3006 RMK SC8 SLP185

CYHM;2011-12-16 11:00;CYHM 161100Z 27015G27KT 15SM BKN043 01/M05 A3009 RMK SC7 SLP197

CYHM;2011-12-16 12:00;CYHM 161200Z 26014G19KT 15SM BKN045 00/M04 A3014 RMK SC7 SLP212

CYHM;2011-12-16 13:00;CYHM 161300Z 25011G17KT 15SM BKN034 BKN045 00/M04 A3016 RMK SC5SC2 SLP220

CYHM;2011-12-16 14:00;CYHM 161400Z 25011KT 15SM BKN028 BKN034 01/M03 A3019 RMK SC6SC1 SLP233

CYHM;2011-12-16 15:00;CYHM 161500Z CCA 27008KT 15SM BKN022 BKN034 01/M03 A3019 RMK SC6SC1 TR CU ASOCTD NW SLP232

CYHM;2011-12-16 16:00;CYHM 161600Z 26010G16KT 15SM FEW025 SCT055 BKN220 03/M02 A3016 RMK CU2SC1CI3 SLP223

CYHM;2011-12-16 17:00;CYHM 161700Z 26010KT 15SM FEW018 BKN023 BKN028 03/M02 A3016 RMK CU1SC5SC1 SLP222

CYHM;2011-12-16 18:00;CYHM 161800Z CCA 25013G19KT 15SM BKN019 OVC025 02/M01 A3017 RMK SC7SC1 SLP225

CYHM;2011-12-16 18:17;CYHM 161817Z 26010G15KT 15SM OVC020 02/M01 A3017 RMK SC8 SLP227

CYHM;2011-12-16 19:00;CYHM 161900Z 25012KT 15SM OVC018 02/M01 A3018 RMK SC8 SLP229

CYHM;2011-12-16 19:06;CYHM 161906Z 25014KT 15SM -SHSN OVC019 02/M01 A3018 RMK SC8 PCPN VRY LGT SLP228

CYHM;2011-12-16 20:00;CYHM 162000Z 25012G17KT 15SM -SHSN OVC016 01/M01 A3017 RMK SC8 PCPN VRY LGT SLP226

CYHM;2011-12-16 21:00;CYHM 162100Z 25012G17KT 15SM -SHSN OVC014 01/M01 A3018 RMK SC8 PCPN VRY LGT SLP229

CYHM;2011-12-16 22:00;CYHM 162200Z 26010G15KT 15SM FEW012 OVC019 01/M02 A3017 RMK CF1SC7 SLP228

CYHM;2011-12-16 23:00;CYHM 162300Z 25009KT 15SM -SHSN OVC017 00/M02 A3018 RMK SC8 SLP230

CYHM;2011-12-17 00:00;CYHM 170000Z 26009KT 15SM -SHSN FEW013 OVC020 00/M02 A3017 RMK CF2SC6 SLP228

CYHM;2011-12-17 00:26;CYHM 170026Z 27006KT 8SM -SHSN OVC013 00/M02 A3017 RMK SC8 SLP228

CYHM;2011-12-17 01:00;CYHM 170100Z 27007KT 7SM -SHSN FEW007 BKN014 OVC045 M00/M01 A3018 RMK CF2SC4SC2 SLP229

CYHM;2011-12-17 01:16;CYHM 170116Z 26008KT 12SM -SHSN FEW013 OVC050 M00/M01 A3018 RMK CF2SC6 SLP229

CYHM;2011-12-17 02:00;CYHM 170200Z 26008KT 15SM -SHSN FEW015 OVC049 M00/M01 A3017 RMK CF1SC7 SLP228

CYHM;2011-12-17 03:00;CYHM 170300Z 27007KT 15SM -SHSN OVC049 M01/M02 A3017 RMK SC8 CU ASOCTD SLP228

CYHM;2011-12-17 04:00;CYHM 170400Z 27007KT 10SM -SHSN FEW009 OVC023 M01/M02 A3018 RMK CF2SC6 SLP228

CYHM;2011-12-17 05:00;CYHM 170500Z 29006KT 15SM -SHSN FEW015 OVC044 M01/M02 A3018 RMK CF2SC6 SLP230

CYHM;2011-12-17 06:00;CYHM 170600Z 31008KT 15SM -SHSN FEW018 BKN054 M01/M04 A3017 RMK CF2SC3 SLP228

CYHM;2011-12-17 07:00;CYHM 170700Z 33013G18KT 15SM -SHSN FEW013 OVC033 M02/M05 A3018 RMK CF2SC6 SLP231

CYHM;2011-12-17 08:00;CYHM 170800Z 32008KT 15SM -SHSN FEW013 BKN050 M03/M06 A3019 RMK CF2SC3 SLP235

CYHM;2011-12-17 09:00;CYHM 170900Z 31008KT 15SM -SHSN FEW020 BKN048 M03/M07 A3019 RMK CF1SC6 SLP236

CYHM;2011-12-17 10:00;CYHM 171000Z 31010KT 15SM FEW020 FEW050 M04/M08 A3022 RMK CF1SC1 SLP243

CYHM;2011-12-17 11:00;CYHM 171100Z 30006KT 15SM FEW025 BKN200 M04/M08 A3024 RMK SC2CI4 SLP250

CYHM;2011-12-17 12:00;CYHM 171200Z 33011KT 15SM FEW040 BKN240 M04/M09 A3024 RMK SC2CI4 SLP252

CYHM;2011-12-17 13:00;CYHM 171300Z 34012KT 15SM FEW039 BKN230 M05/M10 A3025 RMK SC2CI5 SLP257

CYHM;2011-12-17 14:00;CYHM 171400Z 34010KT 15SM FEW025 BKN230 M05/M12 A3026 RMK SC1CI5 CU ASOCTD SLP259

CYHM;2011-12-17 15:00;CYHM 171500Z 34013G19KT 15SM FEW035 BKN250 M05/M13 A3026 RMK CU1CI4 SLP259

CYHM;2011-12-17 16:00;CYHM 171600Z 35014KT 15SM FEW035 BKN250 M04/M14 A3026 RMK CU1CI6 SLP260

CYHM;2011-12-17 17:00;CYHM 171700Z 36010KT 15SM FEW040 BKN250 M04/M14 A3024 RMK CU1CI6 SLP253

CYHM;2011-12-17 18:00;CYHM 171800Z 35007KT 15SM FEW035 SCT045 BKN250 M03/M13 A3023 RMK CU1SC2CI4 SLP249

CYHM;2011-12-17 19:00;CYHM 171900Z 34005KT 15SM FEW035 BKN048 BKN250 M04/M13 A3021 RMK CU1SC4CI2 SLP243

CYHM;2011-12-17 20:00;CYHM 172000Z 02004KT 15SM FEW030 BKN047 M04/M13 A3021 RMK CU1SC6 SLP244

CYHM;2011-12-17 21:00;CYHM 172100Z 09007KT 15SM FEW030 BKN048 BKN220 M05/M10 A3022 RMK CU1SC5CI1 SLP245

CYHM;2011-12-17 22:00;CYHM 172200Z 08005KT 15SM FEW030 BKN050 BKN220 M05/M10 A3022 RMK CU1SC5CI1 SLP249

CYHM;2011-12-17 23:00;CYHM 172300Z 12006KT 15SM FEW030 BKN048 M06/M10 A3022 RMK CU1SC6 SLP249

CYHM;2011-12-18 00:00;CYHM 180000Z 11005KT 15SM FEW030 SCT048 M07/M10 A3022 RMK SC1SC2 SLP246

CYHM;2011-12-18 01:00;CYHM 180100Z 13005KT 15SM FEW040 M07/M11 A3021 RMK SC1 SLP244

CYHM;2011-12-18 02:00;CYHM 180200Z 02004KT 15SM BKN045 M08/M11 A3021 RMK SC6 SLP245

CYHM;2011-12-18 03:00;CYHM 180300Z 04003KT 15SM BKN046 BKN150 M07/M11 A3021 RMK SC6AC1 SLP243

CYHM;2011-12-18 04:00;CYHM 180400Z 06003KT 15SM BKN043 M07/M10 A3020 RMK SC7 SLP240

CYHM;2011-12-18 05:00;CYHM 180500Z 09005KT 15SM SCT042 BKN150 M07/M10 A3018 RMK SC4AC1 SLP233

CYHM;2011-12-18 06:00;CYHM 180600Z 13006KT 15SM SCT061 BKN180 M07/M10 A3017 RMK SC4AC2 SLP230

CYHM;2011-12-18 07:00;CYHM 180700Z 10004KT 15SM OVC042 M06/M10 A3017 RMK SC8 SLP229

CYHM;2011-12-18 08:00;CYHM 180800Z 10006KT 12SM -SHSN FEW030 OVC070 M06/M09 A3016 RMK SC2AC6 SLP228

CYHM;2011-12-18 09:00;CYHM 180900Z 12006KT 6SM -SHSN FEW021 SCT050 OVC074 M05/M08 A3015 RMK CF1SC3AC4 SLP224

CYHM;2011-12-18 10:00;CYHM 181000Z 13008KT 6SM -SHSN BKN025 BKN055 M05/M07 A3015 RMK SC5SC2 SLP223

CYHM;2011-12-18 11:00;CYHM 181100Z 12008KT 6SM -SHSN BKN028 BKN060 M05/M06 A3014 RMK SC6SC1 SLP221

CYHM;2011-12-18 12:00;CYHM 181200Z 12007KT 5SM -SHSN SCT028 BKN037 M04/M06 A3015 RMK SC3SC4 SLP223

CYHM;2011-12-18 12:39;CYHM 181239Z 13007KT 1 3/4SM -SHSN SCT031 BKN130 M04/M05 A3015 RMK SN1SC3AC1 SLP223

CYHM;2011-12-18 13:00;CYHM 181300Z 12005KT 2 1/2SM -SHSN FEW023 BKN031 BKN130 M04/M06 A3015 RMK SC2SC3AC1 SLP223

CYHM;2011-12-18 13:17;CYHM 181317Z 11005KT 5SM -SHSN FEW012 SCT023 BKN040 M04/M05 A3015 RMK CF1SC2SC4 SLP223

CYHM;2011-12-18 13:30;CYHM 181330Z 11003KT 10SM -SHSN SCT009 BKN037 M04/M05 A3014 RMK CF3SC4 SLP221

CYHM;2011-12-18 14:00;CYHM 181400Z 13004KT 10SM -SHSN FEW009 BKN032 M03/M04 A3014 RMK CF1SC6 SLP221

CYHM;2011-12-18 14:52;CYHM 181452Z 18004KT 15SM BKN005 BKN027 M02/M03 A3016 RMK CF5SC2 SLP226

CYHM;2011-12-18 15:00;CYHM 181500Z 19004KT 15SM BKN005 BKN027 M02/M03 A3016 RMK CF5SC2 SLP227

CYHM;2011-12-18 15:38;CYHM 181538Z 19003KT 15SM SCT005 BKN024 M01/M02 A3016 RMK CF3SC4 SLP228

CYHM;2011-12-18 16:00;CYHM 181600Z 23004KT 15SM FEW006 OVC019 M01/M02 A3016 RMK CF1SC7 SLP228

CYHM;2011-12-18 17:00;CYHM 181700Z 26009KT 15SM BKN012 M01/M03 A3016 RMK SC7 SLP225

CYHM;2011-12-18 17:50;CYHM 181750Z 24007KT 15SM BKN016 BKN053 M01/M03 A3016 RMK SC5SC2 SLP226

CYHM;2011-12-18 18:00;CYHM 181800Z 25008KT 15SM BKN015 BKN053 M00/M02 A3016 RMK SC5SC2 SLP225

CYHM;2011-12-18 18:14;CYHM 181814Z 24008KT 15SM -SHSN BKN014 BKN052 M01/M03 A3016 RMK SC5SC2 SLP224

CYHM;2011-12-18 19:00;CYHM 181900Z 22008KT 12SM -SHSN SCT013 BKN048 M00/M02 A3014 RMK SC3SC4 SLP220

CYHM;2011-12-18 20:00;CYHM 182000Z 22005KT 10SM FEW015 BKN025 BKN180 M00/M02 A3014 RMK CU2SC4AC1 SLP220

CYHM;2011-12-18 20:04;CYHM 182004Z 22006KT 10SM FEW015 BKN025 BKN180 M00/M02 A3014 RMK CU2SC4AC1 SLP220

CYHM;2011-12-18 21:00;CYHM 182100Z 24008KT 12SM FEW018 BKN035 BKN100 M00/M03 A3015 RMK SC2SC4AC1 SLP221

CYHM;2011-12-18 22:00;CYHM 182200Z 21007KT 12SM FEW018 OVC032 M01/M03 A3014 RMK SC1SC7 SLP217

CYHM;2011-12-18 23:00;CYHM 182300Z 20006KT 15SM BKN031 BKN210 M01/M04 A3013 RMK SC5CI2 SLP213

CYHM;2011-12-19 00:00;CYHM 190000Z 21005KT 15SM BKN030 OVC200 M01/M04 A3012 RMK SC6CI2 SLP212

CYHM;2011-12-19 01:00;CYHM 190100Z 20007KT 15SM BKN031 BKN190 M01/M04 A3010 RMK SC5AC2 SLP204

CYHM;2011-12-19 02:00;CYHM 190200Z 21012KT 15SM SCT022 BKN030 01/M02 A3007 RMK SC4SC3 SLP195

CYHM;2011-12-19 03:00;CYHM 190300Z 21015G24KT 15SM BKN031 01/M03 A3005 RMK SC7 SLP187

CYHM;2011-12-19 04:00;CYHM 190400Z 21013G20KT 15SM FEW030 BKN150 01/M02 A3003 RMK SC2AC5 SLP180

CYHM;2011-12-19 05:00;CYHM 190500Z 21015KT 15SM FEW022 BKN140 01/M02 A2999 RMK SC2AC5 SLP166

CYHM;2011-12-19 06:00;CYHM 190600Z 21015KT 15SM FEW022 OVC080 01/M01 A2996 RMK SC1AC7 SLP156

CYHM;2011-12-19 07:00;CYHM 190700Z 21016G23KT 15SM OVC090 02/M00 A2993 RMK AC8 SLP145

CYHM;2011-12-19 08:00;CYHM 190800Z 20016KT 15SM FEW090 02/M00 A2991 RMK AC1 SLP138

CYHM;2011-12-19 09:00;CYHM 190900Z 21017G22KT 15SM FEW094 02/M00 A2988 RMK AC1 AC TR SLP128

CYHM;2011-12-19 10:00;CYHM 191000Z 21018G25KT 15SM FEW100 03/00 A2985 RMK AC1 AC TR SLP115

CYHM;2011-12-19 11:00;CYHM 191100Z 21019G25KT 15SM BKN064 03/01 A2984 RMK SC6 SLP114

CYHM;2011-12-19 12:00;CYHM 191200Z 22018G24KT 15SM BKN068 04/01 A2982 RMK AC6 SLP108

CYHM;2011-12-19 13:00;CYHM 191300Z 22021G27KT 15SM FEW045 BKN071 05/01 A2981 RMK SC1AC5 SLP104

CYHM;2011-12-19 14:00;CYHM 191400Z 23018G28KT 15SM FEW062 BKN084 BKN160 05/02 A2982 RMK SC1AC4AC1 SLP107

CYHM;2011-12-19 15:00;CYHM 191500Z 23016KT 15SM OVC043 06/02 A2983 RMK SC8 SLP110

CYHM;2011-12-19 16:00;CYHM 191600Z 23018G24KT 15SM BKN038 OVC060 06/02 A2983 RMK SC7SC1 SLP111

CYHM;2011-12-19 17:00;CYHM 191700Z 24019G25KT 15SM BKN038 OVC042 06/02 A2982 RMK SC6SC2 SLP107

CYHM;2011-12-19 18:00;CYHM 191800Z 24019G25KT 15SM BKN029 OVC046 06/02 A2982 RMK SC7SC1 SLP106

CYHM;2011-12-19 19:00;CYHM 191900Z 24016KT 15SM OVC028 06/02 A2983 RMK SC8 SLP109

CYHM;2011-12-19 20:00;CYHM 192000Z 24010KT 15SM OVC025 06/02 A2985 RMK SC8 SLP114

CYHM;2011-12-19 21:00;CYHM 192100Z 26012KT 15SM BKN020 OVC038 06/03 A2988 RMK SC5SC3 SLP125

CYHM;2011-12-19 21:49;CYHM 192149Z 27014KT 5SM -SHRA BR OVC026 05/03 A2990 RMK SC8 SLP133

CYHM;2011-12-19 22:00;CYHM 192200Z 25010G15KT 5SM -SHRA BR FEW020 OVC028 05/03 A2991 RMK SF2SC6 SLP134

CYHM;2011-12-19 22:35;CYHM 192235Z 26010KT 12SM FEW016 OVC036 05/03 A2992 RMK SF1SC7 SLP138

CYHM;2011-12-19 23:00;CYHM 192300Z 27010KT 12SM FEW016 OVC036 05/03 A2992 RMK SF1SC7 SLP140

CYHM;2011-12-20 00:00;CYHM 200000Z 29009KT 6SM -SHRA BR BKN014 OVC032 04/03 A2995 RMK SF5SC3 SLP149

CYHM;2011-12-20 00:45;CYHM 200045Z 32010KT 10SM -SHRA FEW014 OVC037 03/01 A2998 RMK SF1SC7 SLP161

CYHM;2011-12-20 01:00;CYHM 200100Z 33009G15KT 10SM -SHRA FEW016 OVC038 03/01 A2998 RMK SF1SC7 SLP161

CYHM;2011-12-20 01:27;CYHM 200127Z 32007KT 15SM -DZ BKN014 OVC036 03/01 A3000 RMK SF5SC3 SLP166

CYHM;2011-12-20 01:52;CYHM 200152Z 32010KT 15SM FEW012 SCT022 OVC037 03/M00 A3001 RMK SF1SC2SC5 SLP170

CYHM;2011-12-20 02:00;CYHM 200200Z 32010KT 15SM FEW012 SCT022 OVC036 03/M01 A3001 RMK SF1SF2SC5 SLP169

CYHM;2011-12-20 03:00;CYHM 200300Z 29006KT 15SM BKN042 BKN052 02/M02 A3003 RMK SC5SC2 SLP178

CYHM;2011-12-20 04:00;CYHM 200400Z 27005KT 15SM OVC050 02/M02 A3005 RMK SC8 SLP184

CYHM;2011-12-20 05:00;CYHM 200500Z 32009KT 15SM SCT022 BKN044 BKN210 01/M01 A3008 RMK SC4SC2CC1 SLP195

CYHM;2011-12-20 06:00;CYHM 200600Z 34007KT 15SM FEW022 SCT044 00/M03 A3011 RMK SC1SC2 SLP203

CYHM;2011-12-20 07:00;CYHM 200700Z 33004KT 15SM SCT022 BKN160 M01/M03 A3012 RMK SC4AC2 SLP207

CYHM;2011-12-20 08:00;CYHM 200800Z 35005KT 15SM FEW160 SCT220 M02/M05 A3013 RMK AC1CI3 SLP211

CYHM;2011-12-20 09:00;CYHM 200900Z 02006KT 15SM FEW110 SCT210 M03/M06 A3015 RMK AC1CI2 SLP220

CYHM;2011-12-20 10:00;CYHM 201000Z 01003KT 15SM FEW220 M04/M07 A3018 RMK CI2 SLP230

CYHM;2011-12-20 11:00;CYHM 201100Z 01004KT 15SM FEW100 SCT220 M04/M07 A3019 RMK AC1CI2 AC TR SLP234

CYHM;2011-12-20 12:00;CYHM 201200Z 03006KT 15SM FEW030 SCT090 BKN220 M05/M07 A3022 RMK CU1AC3CI1 CU TR SLP243

CYHM;2011-12-20 13:00;CYHM 201300Z 01007KT 15SM SCT016 BKN080 BKN220 M05/M07 A3021 RMK SC4AC1CI1 SLP242

CYHM;2011-12-20 14:00;CYHM 201400Z 05010KT 15SM BKN016 BKN050 M04/M06 A3021 RMK SC5SC2 SLP241

CYHM;2011-12-20 15:00;CYHM 201500Z 04010KT 15SM SCT018 BKN045 M02/M06 A3021 RMK SC4SC2 SLP240

CYHM;2011-12-20 16:00;CYHM 201600Z 06009KT 15SM SCT017 BKN050 M02/M06 A3020 RMK SC4SC1 SLP237

CYHM;2011-12-20 17:00;CYHM 201700Z 07008KT 15SM BKN018 BKN045 M02/M05 A3017 RMK SC5SC2 SLP226

CYHM;2011-12-20 18:00;CYHM 201800Z CCA 07009KT 15SM FEW020 FEW180 BKN210 M01/M06 A3013 RMK SC1AC1CI5 CONTRAILS SLP214

CYHM;2011-12-20 19:00;CYHM 201900Z 08006KT 15SM FEW022 SCT180 BKN210 M01/M05 A3010 RMK SC1AC2CI4 SLP203

CYHM;2011-12-20 20:00;CYHM 202000Z 06005KT 15SM FEW026 BKN220 BKN260 M00/M05 A3009 RMK CU1CC5CS1 CU TR SLP199

CYHM;2011-12-20 21:00;CYHM 202100Z 00000KT 15SM FEW022 BKN230 M01/M05 A3008 RMK CU1CC6 SLP197

CYHM;2011-12-20 22:00;CYHM 202200Z 04004KT 15SM BKN028 OVC230 M01/M04 A3007 RMK SC7CC1 SLP194

CYHM;2011-12-20 23:00;CYHM 202300Z 05006KT 15SM BKN030 OVC230 M02/M04 A3006 RMK SC7CI1 SLP190

CYHM;2011-12-21 00:00;CYHM 210000Z 07006KT 15SM FEW018 SCT026 BKN037 M02/M04 A3003 RMK SC1SC2SC4 SLP182

CYHM;2011-12-21 01:00;CYHM 210100Z 08004KT 15SM BKN028 BKN220 M02/M04 A3002 RMK SC6CI1 SLP178

CYHM;2011-12-21 02:00;CYHM 210200Z 08004KT 15SM BKN016 OVC033 M01/M03 A3001 RMK SC6SC2 SLP172

CYHM;2011-12-21 03:00;CYHM 210300Z 11004KT 15SM BKN013 OVC028 M01/M03 A2998 RMK SC6SC2 SLP164

CYHM;2011-12-21 04:00;CYHM 210400Z 07003KT 15SM SCT012 BKN028 OVC100 M01/M03 A2996 RMK SC4SC3AC1 SLP156

CYHM;2011-12-21 05:00;CYHM 210500Z 09004KT 15SM BKN016 OVC026 M00/M02 A2992 RMK SC6SC2 SLP142

CYHM;2011-12-21 06:00;CYHM 210600Z 11002KT 15SM OVC006 01/M02 A2991 RMK SC8 SLP137

CYHM;2011-12-21 07:00;CYHM 210700Z 05005KT 10SM OVC006 01/M01 A2988 RMK SF8 SLP128

CYHM;2011-12-21 08:00;CYHM 210800Z 06005KT 10SM BKN006 OVC038 01/M01 A2988 RMK SF6SC2 SLP126

CYHM;2011-12-21 09:00;CYHM 210900Z 05005KT 15SM SCT006 OVC035 01/M01 A2985 RMK SF4SC4 SLP116

CYHM;2011-12-21 10:00;CYHM 211000Z 04006KT 8SM -SHRA FEW006 OVC024 01/M00 A2980 RMK SF2SC6 SLP103

CYHM;2011-12-21 10:56;CYHM 211056Z 05006KT 10SM OVC019 01/00 A2980 RMK SC8 SLP099

CYHM;2011-12-21 11:00;CYHM 211100Z 05006KT 10SM OVC019 01/00 A2980 RMK SC8 SLP101

CYHM;2011-12-21 11:06;CYHM 211106Z 04007KT 10SM -SHRA OVC018 01/00 A2980 RMK SC8 SLP100

CYHM;2011-12-21 11:48;CYHM 211148Z 06006KT 3SM -SHRA BR OVC011 01/01 A2978 RMK SC8 SLP094

CYHM;2011-12-21 12:00;CYHM 211200Z CCA 06008KT 3SM -SHRA BR OVC010 01/01 A2976 RMK SC8 PCPN VRY LGT SLP088

CYHM;2011-12-21 12:08;CYHM 211208Z 05007KT 2 1/2SM -SHRA BR BKN002 OVC010 01/01 A2977 RMK SF5SC3 SLP089

CYHM;2011-12-21 12:37;CYHM 211237Z 05005KT 1 1/2SM -SHRA BR OVC003 01/01 A2976 RMK FG2SF6 PCPN VRY LGT SLP087

CYHM;2011-12-21 13:00;CYHM 211300Z CCA 05007KT 1 1/2SM -SHRA BR OVC002 01/01 A2975 RMK FG3SF5 PCPN VRY LGT SLP083

CYHM;2011-12-21 13:25;CYHM 211325Z 04005KT 1SM -SHRA BR OVC002 02/01 A2975 RMK FG3SF5 PCPN VRY LGT SLP083

CYHM;2011-12-21 13:41;CYHM 211341Z 07005KT 3/8SM -SHRA FG OVC002 02/02 A2975 RMK FG4SF4 VIS VRBL 1/4-3/4SM SLP083

CYHM;2011-12-21 14:00;CYHM 211400Z 07005KT 3/8SM -SHRA FG OVC002 02/02 A2974 RMK FG6SF2 VIS VRBL 1/4-3/4SM SLP079

CYHM;2011-12-21 15:00;CYHM 211500Z 02006KT 3/8SM -SHRA FG OVC003 02/02 A2972 RMK FG3SF5 SLP074

CYHM;2011-12-21 15:25;CYHM 211525Z 05006KT 1/8SM -RA FG OVC002 03/03 A2970 RMK FG6SF2 SLP067

CYHM;2011-12-21 15:37;CYHM 211537Z 08008KT 3/8SM -RA FG OVC002 03/03 A2968 RMK FG4SF4 SLP060

CYHM;2011-12-21 15:46;CYHM 211546Z 10010KT 1/8SM -RA FG OVC005 03/03 A2967 RMK FG4SF4 SLP058

CYHM;2011-12-21 16:00;CYHM 211600Z 11008KT 3/8SM -RA FG OVC004 03/03 A2966 RMK FG3SF5 PCPN VRY LGT VIS VRBL 1/4-3/4SM SLP052

CYHM;2011-12-21 16:09;CYHM 211609Z 09007KT 1SM BR OVC002 03/03 A2965 RMK FG2SF6 SLP049

CYHM;2011-12-21 16:43;CYHM 211643Z 03004KT 1/4SM FG OVC002 04/04 A2965 RMK FG3SF5 SLP047

CYHM;2011-12-21 17:00;CYHM 211700Z 36005KT 1/8SM -RA FG OVC002 04/04 A2964 RMK FG6SF2 PCPN VRY LGT SLP046

CYHM;2011-12-21 17:18;CYHM 211718Z 03007KT 0SM -RA FG VV001 04/04 A2962 RMK SLP039

CYHM;2011-12-21 17:38;CYHM 211738Z 05006KT 1/8SM -RA FG OVC002 04/04 A2961 RMK FG4SF4 SLP034

CYHM;2011-12-21 18:00;CYHM 211800Z 06007KT 1/8SM -RA FG OVC002 04/04 A2958 RMK FG6SF2 SLP024

CYHM;2011-12-21 18:44;CYHM 211844Z CCA 07007KT 0SM -RA FG VV001 04/04 A2955 RMK SLP014

CYHM;2011-12-21 19:00;CYHM 211900Z 07005KT 1/8SM -RA FG OVC002 04/04 A2954 RMK FG5SF3 SLP012

CYHM;2011-12-21 19:11;CYHM 211911Z 06006KT 3/8SM -RA FG VV002 04/04 A2953 RMK SLP008

CYHM;2011-12-21 19:19;CYHM 211919Z 06005KT 3/4SM -RA BR OVC003 04/04 A2953 RMK FG3SF5 VIS VRB 1/2 - 1 SLP006

CYHM;2011-12-21 19:25;CYHM 211925Z 06007KT 1 1/2SM -RA BR OVC003 04/04 A2952 RMK FG2SF6 VIS VRB 1 - 2 SLP005

CYHM;2011-12-21 20:00;CYHM 212000Z 09004KT 1 1/2SM -RA BR OVC002 04/04 A2952 RMK FG2SF6 VIS VRB 1 - 2 SLP002

CYHM;2011-12-21 20:12;CYHM 212012Z 12003KT 3/4SM -RA BR OVC002 05/05 A2952 RMK FG3SF5 VIS VRB 1/2 - 1 SLP002

CYHM;2011-12-21 20:26;CYHM 212026Z 18006KT 1 1/2SM -RA BR BKN002 07/07 A2951 RMK FG2SF5 VIS VRB 1 - 2 SLP000

CYHM;2011-12-21 20:40;CYHM 212040Z 19006KT 2 1/2SM BR FEW003 BKN021 BKN046 08/08 A2951 RMK SF2CU3SC1 SLP999

CYHM;2011-12-21 21:00;CYHM 212100Z 19006KT 10SM FEW010 BKN022 BKN076 09/09 A2950 RMK SF2CU3AC1 TCU ASOCTD WARM FROPA SLP996

CYHM;2011-12-21 22:00;CYHM 212200Z 23011KT 15SM BKN013 BKN025 10/10 A2951 RMK SC6SC1 SLP999 DENSITY ALT 800FT

CYHM;2011-12-21 23:00;CYHM 212300Z 27017KT 15SM BKN015 10/09 A2955 RMK SC7 SLP014

CYHM;2011-12-21 23:19;CYHM 212319Z 26014G22KT 15SM OVC011 09/08 A2957 RMK SC8 SLP020

CYHM;2011-12-21 23:40;CYHM 212340Z 27016G24KT 15SM OVC008 08/07 A2960 RMK SC8 CIG RAG SLP030

CYHM;2011-12-22 00:00;CYHM 220000Z 27014G19KT 15SM OVC010 07/06 A2962 RMK SC8 SLP038

CYHM;2011-12-22 00:31;CYHM 220031Z 27016G23KT 15SM OVC008 05/04 A2968 RMK SC8 SLP057

CYHM;2011-12-22 01:00;CYHM 220100Z 28013G22KT 10SM OVC010 05/04 A2970 RMK SC8 SLP066

CYHM;2011-12-22 02:00;CYHM 220200Z 27009KT 8SM OVC011 05/04 A2976 RMK SC8 SLP084

CYHM;2011-12-22 03:00;CYHM 220300Z 26009KT 8SM OVC009 04/03 A2980 RMK SC8 SLP099

CYHM;2011-12-22 03:32;CYHM 220332Z 26010G15KT 8SM SCT010 BKN068 04/03 A2981 RMK SC4AC2 SLP104

CYHM;2011-12-22 04:00;CYHM 220400Z 26012G17KT 9SM OVC009 05/04 A2984 RMK SC8 SLP111

CYHM;2011-12-22 05:00;CYHM 220500Z 26013KT 7SM OVC008 05/04 A2986 RMK SC8 SLP119

CYHM;2011-12-22 06:00;CYHM 220600Z 27012KT 8SM OVC009 05/03 A2989 RMK SC8 SLP128

CYHM;2011-12-22 07:00;CYHM 220700Z 26012KT 6SM BR BKN008 OVC019 04/03 A2991 RMK SC7SC1 SLP135

CYHM;2011-12-22 07:21;CYHM 220721Z 26010KT 7SM BKN013 BKN042 04/03 A2990 RMK SC5SC1 SLP133

CYHM;2011-12-22 07:36;CYHM 220736Z 25010KT 12SM FEW009 SCT043 03/02 A2991 RMK CF2SC1 SLP135

CYHM;2011-12-22 08:00;CYHM 220800Z 26010G16KT 15SM BKN012 OVC041 04/02 A2993 RMK SC7SC1 SLP142

CYHM;2011-12-22 08:36;CYHM 220836Z 27006KT 15SM SCT010 OVC040 03/02 A2993 RMK SC3SC5 SLP143

CYHM;2011-12-22 09:00;CYHM 220900Z 25007KT 15SM FEW012 OVC045 03/02 A2995 RMK SC2SC6 SLP147

CYHM;2011-12-22 09:21;CYHM 220921Z 26007KT 12SM -SHRA BKN010 OVC035 03/02 A2996 RMK SC6SC2 SLP152

CYHM;2011-12-22 09:48;CYHM 220948Z 26006KT 10SM -SHRA FEW008 BKN021 OVC035 03/02 A2997 RMK CF2SC5SC1 SLP155

CYHM;2011-12-22 10:00;CYHM 221000Z 26006KT 10SM -SHRA FEW008 BKN032 OVC050 03/02 A2997 RMK CF1SC5SC2 SLP154

CYHM;2011-12-22 10:31;CYHM 221031Z 26004KT 12SM -SHRA OVC012 03/02 A2997 RMK SC8 SLP155

CYHM;2011-12-22 11:00;CYHM 221100Z 25008KT 9SM OVC011 03/02 A2999 RMK SC8 SLP161

CYHM;2011-12-22 12:00;CYHM 221200Z 23006KT 15SM SCT033 BKN047 03/02 A3002 RMK SC4SC3 SLP172

CYHM;2011-12-22 13:00;CYHM 221300Z 23006KT 8SM BKN046 02/01 A3003 RMK SC7 SLP178

CYHM;2011-12-22 14:00;CYHM 221400Z 25005KT 10SM BKN035 BKN055 03/02 A3004 RMK SC5SC2 SLP179

CYHM;2011-12-22 15:00;CYHM 221500Z 24005KT 10SM FEW012 SCT022 BKN052 04/03 A3005 RMK CU1SC3SC3 SLP183

CYHM;2011-12-22 16:00;CYHM 221600Z 25007KT 10SM SCT013 BKN026 05/03 A3006 RMK SC4SC3 SLP187

CYHM;2011-12-22 17:00;CYHM 221700Z 26010KT 15SM FEW016 SCT020 BKN027 05/02 A3003 RMK CU2SC2SC3 SLP178

CYHM;2011-12-22 18:00;CYHM 221800Z CCB 26007KT 15SM OVC032 05/01 A3003 RMK SC8 SLP177

CYHM;2011-12-22 19:00;CYHM 221900Z 27007KT 15SM FEW032 SCT042 OVC210 06/01 A3003 RMK SC1SC3CI4 SLP178

CYHM;2011-12-22 20:00;CYHM 222000Z 27007KT 15SM FEW042 OVC210 05/00 A3004 RMK SC2CI6 SLP181

CYHM;2011-12-22 21:00;CYHM 222100Z 25004KT 15SM FEW028 SCT042 BKN170 04/00 A3005 RMK SC2SC1AC3 SLP183

CYHM;2011-12-22 22:00;CYHM 222200Z 22004KT 15SM BKN030 OVC170 04/01 A3005 RMK SC6AC2 SLP184

CYHM;2011-12-22 23:00;CYHM 222300Z 28003KT 15SM OVC031 04/01 A3003 RMK SC8 SLP178

CYHM;2011-12-23 00:00;CYHM 230000Z 31003KT 15SM SCT028 OVC036 04/00 A3001 RMK SC4SC4 SLP171

CYHM;2011-12-23 01:00;CYHM 230100Z 25002KT 15SM OVC037 03/01 A3002 RMK SC8 SLP173

CYHM;2011-12-23 02:00;CYHM 230200Z 31003KT 8SM -SHRA OVC038 03/01 A3001 RMK SC8 SLP172

CYHM;2011-12-23 03:00;CYHM 230300Z 32004KT 8SM -SHRA BKN017 OVC028 03/01 A3002 RMK SC5SC3 SLP175

CYHM;2011-12-23 04:00;CYHM 230400Z 29003KT 7SM -SHRA SCT008 BKN018 OVC028 02/01 A3002 RMK CF3SC3SC2 SLP175

CYHM;2011-12-23 04:49;CYHM 230449Z 29003KT 3SM -SHRA BR SCT003 OVC014 01/01 A3001 RMK CF3SC5 SLP171

CYHM;2011-12-23 05:00;CYHM 230500Z 30004KT 2 1/2SM -SHRA BR FEW003 OVC014 01/00 A3001 RMK CF2SC6 SLP170

CYHM;2011-12-23 05:27;CYHM 230527Z 29004KT 2 1/2SM -SHRA -SHSN BR FEW002 BKN012 OVC022 01/00 A3000 RMK CF2SC4SC2 SLP168

CYHM;2011-12-23 05:49;CYHM 230549Z 29005KT 1 3/4SM -SHSN BR SCT002 BKN009 OVC023 01/00 A3000 RMK SN1CF2SC3SC2 SLP166

CYHM;2011-12-23 06:00;CYHM 230600Z 29004KT 1 3/4SM -SHSN BR SCT002 BKN008 OVC023 01/00 A3000 RMK SN1CF3SC3SC1 SLP166

CYHM;2011-12-23 07:00;CYHM 230700Z 29006KT 4SM -SHSN BR FEW004 BKN014 OVC023 01/01 A3000 RMK CF2SC4SC2 PCPN VRY LGT SLP168

CYHM;2011-12-23 07:13;CYHM 230713Z 31007KT 2 1/2SM -SHSN BR FEW005 OVC015 01/00 A3001 RMK CF2SC6 SLP170

CYHM;2011-12-23 08:00;CYHM 230800Z 31006KT 8SM FEW005 BKN021 OVC031 01/00 A3002 RMK CF1SC5SC2 SLP174

CYHM;2011-12-23 09:00;CYHM 230900Z 30007KT 15SM FEW025 BKN049 OVC130 00/M00 A3002 RMK SC1SC5AC2 SLP175

CYHM;2011-12-23 10:00;CYHM 231000Z 30008KT 15SM FEW025 OVC050 01/M01 A3004 RMK SC1SC7 SLP181

CYHM;2011-12-23 11:00;CYHM 231100Z 31010KT 15SM BKN014 OVC048 00/M02 A3007 RMK SC6SC2 SLP192

CYHM;2011-12-23 12:00;CYHM 231200Z 31011G16KT 15SM BKN014 OVC045 M01/M02 A3012 RMK SC6SC2 SLP209

CYHM;2011-12-23 13:00;CYHM 231300Z 32011KT 15SM BKN016 OVC042 M01/M03 A3015 RMK SC6SC2 SLP219

CYHM;2011-12-23 14:00;CYHM 231400Z 31010KT 15SM BKN023 M02/M05 A3017 RMK SC7 SLP227

CYHM;2011-12-23 15:00;CYHM 231500Z 33016KT 15SM -SHSN BKN024 BKN028 M03/M05 A3020 RMK SC5SC2 SLP237

CYHM;2011-12-23 15:36;CYHM 231536Z 31012G18KT 15SM SCT028 M03/M07 A3022 RMK SC4 CU ASOCTD SLP244

CYHM;2011-12-23 16:00;CYHM 231600Z 31010G19KT 15SM FEW028 M03/M09 A3023 RMK SC1 TR CU ASOCTD SLP247

CYHM;2011-12-23 17:00;CYHM 231700Z 32014G20KT 15SM FEW030 SCT220 M04/M12 A3023 RMK SC1CI2 CU TR ASOCTD SLP247

CYHM;2011-12-23 18:00;CYHM 231800Z 30013KT 15SM FEW035 FEW220 M03/M11 A3022 RMK SC1CI1 SC TR SLP245

CYHM;2011-12-23 19:00;CYHM 231900Z 30007KT 15SM FEW035 FEW220 M03/M12 A3023 RMK SC1CI1 SC TR CI TR SLP247

CYHM;2011-12-23 20:00;CYHM 232000Z 30009KT 15SM FEW030 M04/M12 A3024 RMK SC1 SLP252

CYHM;2011-12-23 21:00;CYHM 232100Z 30007KT 15SM FEW030 M04/M13 A3025 RMK SC1 SLP255

CYHM;2011-12-23 22:00;CYHM 232200Z 32006KT 15SM FEW030 FEW210 M06/M12 A3026 RMK SC1CI1 SLP260

CYHM;2011-12-23 23:00;CYHM 232300Z 33006KT 15SM FEW025 FEW210 M07/M12 A3027 RMK SC1CI1 SLP263

CYHM;2011-12-24 00:00;CYHM 240000Z 01003KT 15SM FEW025 SCT210 M07/M12 A3029 RMK SC1CI2 SLP270

CYHM;2011-12-24 01:00;CYHM 240100Z 35007KT 15SM BKN160 M07/M12 A3030 RMK AC6 SLP274

CYHM;2011-12-24 02:00;CYHM 240200Z 35002KT 15SM BKN140 M07/M11 A3030 RMK AC7 SLP273

CYHM;2011-12-24 03:00;CYHM 240300Z 02002KT 15SM BKN160 M07/M11 A3029 RMK AC7 FEW CU SLP272

CYHM;2011-12-24 04:00;CYHM 240400Z 35004KT 15SM BKN140 M07/M11 A3031 RMK AC7 SLP277

CYHM;2011-12-24 05:00;CYHM 240500Z 04006KT 15SM OVC130 M07/M10 A3029 RMK AC8 SLP273

CYHM;2011-12-24 06:00;CYHM 240600Z 02006KT 15SM OVC110 M07/M11 A3030 RMK AC8 SLP275

CYHM;2011-12-24 07:00;CYHM 240700Z 04004KT 15SM OVC070 M07/M11 A3031 RMK AC8 SLP279

CYHM;2011-12-24 08:00;CYHM 240800Z 00000KT 15SM OVC095 M07/M11 A3034 RMK AC8 SLP287

CYHM;2011-12-24 09:00;CYHM 240900Z 03002KT 15SM FEW070 M07/M10 A3034 RMK AC1 SLP289

CYHM;2011-12-24 10:00;CYHM 241000Z 29003KT 15SM FEW070 M08/M11 A3035 RMK AC2 SLP294

CYHM;2011-12-24 11:00;CYHM 241100Z 00000KT 15SM OVC047 M07/M09 A3037 RMK SC8 FROIN SLP299

CYHM;2011-12-24 12:00;CYHM 241200Z 00000KT 15SM SCT040 M08/M10 A3040 RMK SC4 FROIN SLP308

CYHM;2011-12-24 13:00;CYHM 241300Z CCA 01003KT 15SM FEW040 M08/M10 A3042 RMK SC2 FROIN SLP316

CYHM;2011-12-24 14:00;CYHM 241400Z 08003KT 15SM FEW025 FEW040 M06/M09 A3041 RMK CU1SC1 CU TR SLP314

CYHM;2011-12-24 15:00;CYHM 241500Z 11004KT 15SM FEW025 M04/M07 A3044 RMK CU2 SLP323

CYHM;2011-12-24 16:00;CYHM 241600Z 15006KT 15SM FEW025 M02/M07 A3044 RMK CU2 SLP323

CYHM;2011-12-24 17:00;CYHM 241700Z 15004KT 15SM FEW025 M01/M08 A3042 RMK CU1 SLP314

CYHM;2011-12-24 18:00;CYHM 241800Z CCA 16007KT 15SM FEW025 SCT030 M00/M08 A3039 RMK CU1SC2 SLP303

CYHM;2011-12-24 19:00;CYHM 241900Z 13006KT 15SM FEW025 SCT030 00/M08 A3036 RMK CU1SC2 SLP293

CYHM;2011-12-24 20:00;CYHM 242000Z 12008KT 15SM FEW030 FEW070 M00/M09 A3033 RMK SC1AC1 CU ASOCTD SLP285

CYHM;2011-12-24 21:00;CYHM 242100Z 16010KT 15SM FEW030 SCT060 M01/M08 A3033 RMK SC2SC2 SLP284

CYHM;2011-12-24 22:00;CYHM 242200Z 12011KT 15SM FEW030 BKN049 M02/M07 A3031 RMK SC1SC6 SLP279

CYHM;2011-12-24 23:00;CYHM 242300Z 13008KT 15SM OVC049 M02/M07 A3031 RMK SC8 SLP278

CYHM;2011-12-25 00:00;CYHM 250000Z 12007KT 15SM OVC044 M02/M07 A3029 RMK SC8 SLP269

CYHM;2011-12-25 01:00;CYHM 250100Z 12005KT 15SM -SHSN BKN031 OVC041 M02/M07 A3027 RMK SC5SC3 SLP264

CYHM;2011-12-25 02:00;CYHM 250200Z 14005KT 15SM -SHSN BKN027 OVC034 M01/M06 A3024 RMK SC5SC3 PCPN VRY LGT SLP252

CYHM;2011-12-25 03:00;CYHM 250300Z 19007KT 15SM -SHSN OVC026 M00/M04 A3020 RMK SC8 PCPN VRY LGT SLP240

CYHM;2011-12-25 04:00;CYHM 250400Z 21012KT 15SM OVC029 01/M03 A3018 RMK SC8 SLP230

CYHM;2011-12-25 05:00;CYHM 250500Z 21012G18KT 15SM OVC035 01/M03 A3015 RMK SC8 SLP220

CYHM;2011-12-25 06:00;CYHM 250600Z 21013G18KT 15SM BKN044 01/M03 A3013 RMK SC7 SLP213

CYHM;2011-12-25 07:00;CYHM 250700Z 21012KT 15SM BKN028 OVC043 01/M02 A3009 RMK SC6SC2 SLP201

CYHM;2011-12-25 08:00;CYHM 250800Z 21011KT 15SM FEW027 FEW200 00/M02 A3007 RMK SC1CI1 SLP194

CYHM;2011-12-25 09:00;CYHM 250900Z 22012KT 15SM FEW025 SCT150 01/M02 A3004 RMK SC1AC2 SLP182

CYHM;2011-12-25 10:00;CYHM 251000Z 23012KT 15SM BKN029 OVC150 01/M02 A3002 RMK SC7AC1 SLP177

CYHM;2011-12-25 11:00;CYHM 251100Z 23012G17KT 15SM FEW032 SCT230 01/M02 A3001 RMK SC2CI2 SLP174

CYHM;2011-12-25 12:00;CYHM 251200Z 23012KT 15SM BKN029 BKN230 01/M02 A3002 RMK SC5CI1 SLP175

CYHM;2011-12-25 13:00;CYHM 251300Z 21014KT 15SM FEW030 SCT230 01/M01 A2998 RMK SC1CI3 SLP163

CYHM;2011-12-25 14:00;CYHM 251400Z 22013G18KT 15SM OVC015 02/M00 A2996 RMK SC8 SLP157

CYHM;2011-12-25 15:00;CYHM 251500Z 21017KT 15SM BKN018 BKN090 BKN230 03/00 A2993 RMK SC5AC1CI1 SLP145

CYHM;2011-12-25 16:00;CYHM 251600Z 23015G24KT 15SM BKN018 04/00 A2993 RMK SC7 SLP143

CYHM;2011-12-25 17:00;CYHM 251700Z 23021G28KT 15SM SCT023 BKN210 04/M00 A2988 RMK SC4CI3 CU ASOCTD SLP124

CYHM;2011-12-25 18:00;CYHM 251800Z 23020G31KT 15SM BKN022 BKN210 05/M00 A2985 RMK SC6CI1 CU ASOCTD SLP117

CYHM;2011-12-25 19:00;CYHM 251900Z 25017G24KT 15SM BKN023 BKN110 05/M01 A2983 RMK SC6AC1 CU ASOCTD SLP110

CYHM;2011-12-25 20:00;CYHM 252000Z 25015G22KT 15SM BKN025 OVC031 04/M01 A2985 RMK SC6SC2 SLP115

CYHM;2011-12-25 20:10;CYHM 252010Z 24015G21KT 12SM -SHRA BKN024 OVC029 04/M01 A2985 RMK SC6SC2 SLP116

CYHM;2011-12-25 21:00;CYHM 252100Z 26015KT 15SM FEW021 BKN026 OVC031 03/M01 A2987 RMK CU1SC5SC2 SLP122

CYHM;2011-12-25 22:00;CYHM 252200Z 25010KT 15SM BKN028 OVC036 03/M01 A2988 RMK SC6SC2 SLP127

CYHM;2011-12-25 22:47;CYHM 252247Z /////KT 12SM -SHRA BKN027 OVC036 RMK SC6SC2

CYHM;2011-12-25 23:00;CYHM 252300Z 24012KT 15SM -SHRA BKN026 OVC033 03/M01 A2990 RMK SC6SC2 PCPN VRY LGT SLP132

CYHM;2011-12-25 23:19;CYHM 252319Z 25011KT 9SM -SHRA -SHSN BKN020 OVC030 02/M01 A2991 RMK SC7SC1 SLP136

CYHM;2011-12-25 23:22;CYHM 252322Z 25010KT 7SM -SHSN SCT007 OVC017 02/M01 A2991 RMK CF3SC5 SLP137

CYHM;2011-12-25 23:34;CYHM 252334Z 25014G23KT 2 1/2SM -SHSN SCT007 OVC014 01/M00 A2992 RMK SN1CF2SC5 SLP141

CYHM;2011-12-26 00:16;CYHM 260016Z 26012KT 6SM -SHRA -SHSN BKN016 OVC028 01/00 A2993 RMK SC5SC3 PCPN VRY LGT SLP144

CYHM;2011-12-26 00:39;CYHM 260039Z 26011KT 8SM SCT017 BKN029 OVC042 01/00 A2993 RMK SC3SC3SC2 SLP146

CYHM;2011-12-26 01:00;CYHM 260100Z 27010KT 10SM FEW019 SCT028 BKN055 01/00 A2994 RMK SC2SC2SC3 SLP149

CYHM;2011-12-26 02:00;CYHM 260200Z 27009G17KT 15SM SCT019 SCT036 BKN058 02/M00 A2996 RMK SC3SC1SC3 SLP154

CYHM;2011-12-26 03:00;CYHM 260300Z 27010G18KT 15SM BKN019 OVC060 02/M00 A2998 RMK SC6SC2 SLP161

CYHM;2011-12-26 04:00;CYHM 260400Z 28010KT 15SM SCT012 BKN020 OVC060 02/00 A3001 RMK SF4SC3SC1 SLP170

CYHM;2011-12-26 05:00;CYHM 260500Z 29013G20KT 15SM SCT022 BKN064 02/M01 A3003 RMK SF4SC3 SLP179

CYHM;2011-12-26 06:00;CYHM 260600Z 30009KT 15SM BKN017 BKN026 OVC060 02/M00 A3006 RMK SC5SC2SC1 SLP189

CYHM;2011-12-26 07:00;CYHM 260700Z 29008KT 15SM FEW022 SCT034 OVC048 02/M00 A3009 RMK SC1SC2SC5 SLP199

CYHM;2011-12-26 08:00;CYHM 260800Z 26005KT 15SM SCT024 OVC054 01/M00 A3014 RMK SC3SC5 SLP215

CYHM;2011-12-26 09:00;CYHM 260900Z 26009KT 15SM SCT024 OVC055 01/M01 A3016 RMK SC3SC5 SLP223

CYHM;2011-12-26 10:00;CYHM 261000Z 26005KT 15SM FEW022 OVC044 01/M02 A3017 RMK SC2SC6 SLP226

CYHM;2011-12-26 11:00;CYHM 261100Z 25005KT 15SM OVC043 01/M01 A3019 RMK SC8 SLP232

CYHM;2011-12-26 12:00;CYHM 261200Z 25005KT 15SM BKN040 01/M01 A3022 RMK SC7 SLP243

CYHM;2011-12-26 13:00;CYHM 261300Z 24007KT 15SM BKN032 01/M01 A3024 RMK SC6 SLP250

CYHM;2011-12-26 14:00;CYHM 261400Z 25011KT 15SM BKN032 01/M03 A3027 RMK SC7 SLP258

CYHM;2011-12-26 15:00;CYHM 261500Z 25011KT 15SM OVC026 01/M03 A3028 RMK SC8 SLP263

CYHM;2011-12-26 16:00;CYHM 261600Z 25012KT 15SM BKN028 01/M03 A3027 RMK SC7 SLP259

CYHM;2011-12-26 17:00;CYHM 261700Z 24017KT 15SM BKN027 02/M03 A3023 RMK SC7 SLP246

CYHM;2011-12-26 18:00;CYHM 261800Z 24015G20KT FEW022 SCT220 03/M04 A3018 RMK SC2CI1 SLP230

CYHM;2011-12-26 19:00;CYHM 261900Z 23012G18KT 15SM FEW025 04/M03 A3016 RMK SC1 SLP221

CYHM;2011-12-26 20:00;CYHM 262000Z 23013G21KT 15SM FEW024 FEW250 04/M03 A3014 RMK CU1CI1 CU TR CI TR SLP214

CYHM;2011-12-26 21:00;CYHM 262100Z 22014G20KT 15SM FEW024 FEW120 SCT250 03/M03 A3013 RMK CU1AC1CI1 CU TR AC TR CI TR CONTRAILS SLP211

CYHM;2011-12-26 22:00;CYHM 262200Z 23019G25KT 15SM BKN026 03/M02 A3015 RMK SC7 SLP219

CYHM;2011-12-26 23:00;CYHM 262300Z 21011KT 15SM FEW024 01/M02 A3011 RMK SC1 SC TR SLP207

CYHM;2011-12-27 00:00;CYHM 270000Z 20011KT 15SM FEW250 01/M02 A3008 RMK CI1 CI TR SLP196

CYHM;2011-12-27 01:00;CYHM 270100Z 21009KT 15SM FEW250 00/M02 A3008 RMK CI1 CI TR SLP196

CYHM;2011-12-27 02:00;CYHM 270200Z 21009KT 15SM FEW250 00/M01 A3006 RMK CI1 CI TR SLP188

CYHM;2011-12-27 03:00;CYHM 270300Z 20011KT 15SM FEW210 01/M00 A3002 RMK CI1 CI TR SLP176

CYHM;2011-12-27 04:00;CYHM 270400Z 20012KT 15SM FEW220 02/M01 A2999 RMK CI1 SLP166

CYHM;2011-12-27 05:00;CYHM 270500Z 21012KT 15SM SCT240 02/M01 A2998 RMK CI4 SLP159

CYHM;2011-12-27 06:00;CYHM 270600Z 21012KT 15SM SCT240 01/M01 A2993 RMK CI3 SLP146

CYHM;2011-12-27 07:00;CYHM 270700Z 21011KT 15SM BKN200 01/M01 A2991 RMK CI6 SLP136

CYHM;2011-12-27 08:00;CYHM 270800Z 20011KT 15SM SCT200 01/M01 A2988 RMK CI4 SLP128

CYHM;2011-12-27 09:00;CYHM 270900Z 20010KT 15SM BKN210 01/M01 A2984 RMK CI5 SLP113

CYHM;2011-12-27 10:00;CYHM 271000Z 19010G17KT 15SM BKN160 01/M01 A2979 RMK AS5 SLP096

CYHM;2011-12-27 11:00;CYHM 271100Z 21010KT 15SM BKN130 BKN200 02/M01 A2978 RMK AS6CI1 SLP091

CYHM;2011-12-27 12:00;CYHM 271200Z 20007KT 15SM BKN100 OVC140 01/M01 A2975 RMK AC5AC3 SLP082

CYHM;2011-12-27 13:00;CYHM 271300Z 26006KT 15SM BKN079 OVC090 02/M01 A2974 RMK AC6AC2 SLP079

CYHM;2011-12-27 14:00;CYHM 271400Z 20006KT 15SM FEW056 BKN082 OVC100 02/M00 A2972 RMK SC1AC6AC1 SLP073

CYHM;2011-12-27 15:00;CYHM 271500Z 27005KT 7SM -SHRA OVC043 02/00 A2967 RMK SC8 SLP055

CYHM;2011-12-27 16:00;CYHM 271600Z 16006KT 10SM -SHRA BKN025 OVC040 03/00 A2965 RMK SC6SC2 SLP049

CYHM;2011-12-27 17:00;CYHM 271700Z 15005KT 5SM -SHRA BR BKN020 OVC037 02/01 A2958 RMK SC6SC2 SLP025

CYHM;2011-12-27 18:00;CYHM 271800Z 08005KT 5SM -SHRA BR BKN019 OVC033 02/01 A2951 RMK SC5SC3 PCPN VRY LGT SLP001

CYHM;2011-12-27 19:00;CYHM 271900Z 11012KT 5SM -RA BR FEW008 BKN012 OVC024 02/01 A2945 RMK SF1SF5SC2 SLP981

CYHM;2011-12-27 19:50;CYHM 271950Z 12009KT 2 1/2SM -RA BR OVC006 01/01 A2941 RMK SF8 SLP969

CYHM;2011-12-27 20:00;CYHM 272000Z 11008KT 1 3/4SM -RA BR OVC004 01/01 A2940 RMK SF8 SLP965

CYHM;2011-12-27 20:18;CYHM 272018Z 10007KT 2 1/4SM -SHSN BR OVC004 01/01 A2939 RMK SF8 SLP961

CYHM;2011-12-27 21:00;CYHM 272100Z 10005KT 1 3/4SM -SHSN BR OVC003 00/00 A2938 RMK SF8 SLP957

CYHM;2011-12-27 22:00;CYHM 272200Z 02003KT 3/4SM -SN OVC004 00/M00 A2936 RMK SN2SF6 SLP952

CYHM;2011-12-27 23:00;CYHM 272300Z 01003KT 3/4SM -SN OVC006 00/00 A2935 RMK SN2SF6 SLP947

CYHM;2011-12-28 00:00;CYHM 280000Z 30003KT 1SM -SN BKN006 OVC018 00/00 A2935 RMK SN2SF5SC1 SLP946

CYHM;2011-12-28 01:00;CYHM 280100Z 29004KT 1SM -SN SCT003 OVC008 00/00 A2934 RMK SN1SF2SC5 SLP942

CYHM;2011-12-28 02:00;CYHM 280200Z 28005KT 1 1/2SM -SN BKN003 OVC012 00/00 A2935 RMK SN1SF5SC2 SLP946

CYHM;2011-12-28 03:00;CYHM 280300Z 26007KT 1 1/2SM -SN OVC003 00/00 A2936 RMK SN1SF7 SLP952

CYHM;2011-12-28 04:00;CYHM 280400Z 26009KT 1 3/4SM -SN OVC004 00/00 A2938 RMK SN1SF7 SLP958

CYHM;2011-12-28 05:00;CYHM 280500Z 27009KT 6SM -SHSN FEW006 BKN015 OVC084 01/00 A2940 RMK SF2SC5AC1 SLP963

CYHM;2011-12-28 06:00;CYHM 280600Z 27009G16KT 15SM -SHSN FEW008 BKN018 OVC038 01/00 A2941 RMK SF1SC6SC1 SLP969

CYHM;2011-12-28 07:00;CYHM 280700Z 30014G21KT 15SM -SHSN BKN016 OVC094 M00/M02 A2947 RMK SC7AC1 SLP987

CYHM;2011-12-28 08:00;CYHM 280800Z 30014G30KT 15SM -SHSN BKN017 BKN110 OVC140 M03/M05 A2953 RMK SC5AC2AC1 SLP010

CYHM;2011-12-28 09:00;CYHM 280900Z 30019G27KT 15SM -SHSN OVC017 M04/M06 A2956 RMK SC8 SLP021

CYHM;2011-12-28 10:00;CYHM 281000Z 29016G24KT 15SM BKN019 OVC094 M04/M07 A2959 RMK SC7AC1 SLP031

CYHM;2011-12-28 10:22;CYHM 281022Z 29017G31KT 15SM -SHSN BKN018 OVC034 M05/M08 A2960 RMK SC6SC2 SLP035

CYHM;2011-12-28 11:00;CYHM 281100Z 29015G22KT 15SM -SHSN OVC020 M05/M08 A2963 RMK SC8 SLP044

CYHM;2011-12-28 12:00;CYHM 281200Z 30020G29KT 15SM -SHSN BKN021 OVC025 M06/M09 A2967 RMK SC5SC3 PCPN VRY LGT SLP058

CYHM;2011-12-28 12:43;CYHM 281243Z 29017G25KT 10SM BKN028 OVC033 M06/M10 A2970 RMK SC6SC2 SLP068

CYHM;2011-12-28 13:00;CYHM 281300Z 31017G28KT 10SM -SHSN BKN028 OVC038 M07/M11 A2971 RMK SC6SC2 SLP072

CYHM;2011-12-28 14:00;CYHM 281400Z 30018G30KT 8SM -SHSN OVC025 M07/M11 A2975 RMK SC8 PCPN VERY LGT SLP087

CYHM;2011-12-28 15:00;CYHM 281500Z 31016G26KT 15SM -SHSN FEW022 BKN026 M08/M12 A2980 RMK CU1SC6 SLP104

CYHM;2011-12-28 15:10;CYHM 281510Z 31017G24KT 15SM FEW022 SCT035 M08/M12 A2980 RMK CU1SC3 SLP105

CYHM;2011-12-28 16:00;CYHM 281600Z 31017G24KT 15SM FEW025 SCT045 SCT220 M07/M12 A2983 RMK CU1SC2CI1 SLP112

CYHM;2011-12-28 17:00;CYHM 281700Z 30014KT 10SM -SHSN BKN022 M07/M11 A2982 RMK SC7 CU ASOCTD SLP110

CYHM;2011-12-28 18:00;CYHM 281800Z CCA 30016G23KT 15SM -SHSN OVC021 M06/M10 A2982 RMK SC8 SLP109

CYHM;2011-12-28 19:00;CYHM 281900Z 30012G18KT 15SM -SHSN BKN021 BKN028 M06/M09 A2984 RMK SC5SC2 SLP117

CYHM;2011-12-28 20:00;CYHM 282000Z 29013G22KT 15SM -SHSN BKN026 M05/M10 A2987 RMK SC5 SLP128

CYHM;2011-12-28 21:00;CYHM 282100Z 29010G19KT 15SM -SHSN SCT023 M06/M11 A2991 RMK SC4 SLP141

CYHM;2011-12-28 21:32;CYHM 282132Z 30011G21KT 15SM FEW015 FEW025 M07/M12 A2992 RMK CF1SC1 SLP146

CYHM;2011-12-28 22:00;CYHM 282200Z 29011KT 15SM FEW020 FEW220 M08/M12 A2994 RMK SC1CI1 FEW CF SLP154

CYHM;2011-12-28 23:00;CYHM 282300Z 29008KT 15SM FEW025 SCT220 M09/M12 A2996 RMK SC2CI1 SLP162

CYHM;2011-12-29 00:00;CYHM 290000Z 28007KT 15SM FEW025 M10/M13 A2999 RMK SC1 SLP169

CYHM;2011-12-29 01:00;CYHM 290100Z 26004KT 15SM -SHSN FEW035 M11/M14 A3001 RMK SC2 FEW CF SLP176

CYHM;2011-12-29 02:00;CYHM 290200Z 26004KT 15SM -SHSN BKN027 M10/M13 A3000 RMK SC7 SLP175

CYHM;2011-12-29 03:00;CYHM 290300Z 30006KT 0SM -SHSN BKN027 M09/M13 A2999 RMK SC7 SLP172

CYHM;2011-12-29 04:00;CYHM 290400Z 31004KT 15SM -SHSN OVC028 M08/M12 A2998 RMK SC8 SLP168

CYHM;2011-12-29 05:00;CYHM 290500Z 21004KT 15SM -SHSN OVC028 M08/M11 A2998 RMK SC8 SLP166

CYHM;2011-12-29 06:00;CYHM 290600Z 00000KT 15SM -SHSN FEW013 BKN026 M08/M11 A2997 RMK CF1SC6 SLP163

CYHM;2011-12-29 07:00;CYHM 290700Z 19003KT 15SM SCT019 M10/M12 A2996 RMK SC3 SLP161

CYHM;2011-12-29 08:00;CYHM 290800Z 18003KT 15SM FEW018 BKN120 M10/M12 A2996 RMK SC2AC4 SLP162

CYHM;2011-12-29 09:00;CYHM 290900Z 00000KT 15SM FEW020 BKN140 M10/M12 A2995 RMK SC1AC4 SLP158

CYHM;2011-12-29 10:00;CYHM 291000Z 17003KT 15SM FEW030 BKN130 M10/M11 A2993 RMK SC2AC4 SLP153

CYHM;2011-12-29 11:00;CYHM 291100Z 00000KT 15SM FEW030 BKN140 OVC200 M10/M11 A2992 RMK SC2AC5CI1 SLP148

CYHM;2011-12-29 12:00;CYHM 291200Z 11003KT 15SM FEW032 BKN083 OVC130 M09/M10 A2992 RMK SC1AC4AC3 SLP148

CYHM;2011-12-29 13:00;CYHM 291300Z 10004KT 15SM FEW032 BKN047 OVC073 M08/M10 A2992 RMK SC1SC5AC2 SLP147

CYHM;2011-12-29 13:57;CYHM 291357Z 10006KT 10SM -SHSN OVC028 M07/M10 A2992 RMK SC8 SLP149

CYHM;2011-12-29 14:00;CYHM 291400Z 11005KT 10SM -SHSN OVC028 M07/M10 A2992 RMK SC8 SLP148

CYHM;2011-12-29 15:00;CYHM 291500Z 10006KT 8SM -SHSN SCT026 BKN042 M07/M09 A2991 RMK SC4SC2 SLP145

CYHM;2011-12-29 16:00;CYHM 291600Z 11008KT 8SM -SHSN BKN011 OVC015 M05/M07 A2988 RMK SC5SC3 SLP134

CYHM;2011-12-29 17:00;CYHM 291700Z 09005KT 10SM -SHSN SCT025 OVC061 M04/M05 A2985 RMK SC4SC4 TR CU ASOCTD PCPN VRY LGT SLP120

CYHM;2011-12-29 17:45;CYHM 291745Z 07006KT 10SM BKN048 OVC068 M03/M04 A2981 RMK SC5AC3 SLP109

CYHM;2011-12-29 18:00;CYHM 291800Z CCA 06006KT 15SM SCT058 OVC070 M03/M04 A2981 RMK SC3AC5 SLP108

CYHM;2011-12-29 18:34;CYHM 291834Z 05007KT 7SM -SHSN BKN020 OVC031 M02/M04 A2979 RMK SC6SC2 SLP102

CYHM;2011-12-29 18:50;CYHM 291850Z 06008KT 1 3/4SM -SHSN BR FEW009 BKN018 OVC026 M02/M04 A2979 RMK SF1SC5SC2 SLP101

CYHM;2011-12-29 19:00;CYHM 291900Z 06009KT 1 3/4SM -SHSN BR FEW010 BKN017 OVC025 M02/M04 A2978 RMK SF1SC6SC1 SLP099

CYHM;2011-12-29 19:20;CYHM 291920Z 06008KT 7SM -SHSN OVC014 M02/M03 A2978 RMK SC8 SLP098

CYHM;2011-12-29 19:47;CYHM 291947Z 06010KT 1 1/2SM -SHSN OVC015 M02/M03 A2978 RMK SN2SC6 SLP097

CYHM;2011-12-29 20:00;CYHM 292000Z 07008KT 3SM -SHSN OVC014 M02/M03 A2978 RMK SC8 SLP096

CYHM;2011-12-29 20:21;CYHM 292021Z 07009KT 1 3/4SM -SHSN OVC014 M02/M03 A2977 RMK SN1SC7 SLP094

CYHM;2011-12-29 20:41;CYHM 292041Z 08008KT 1 1/2SM -SHSN OVC015 M02/M02 A2977 RMK SN2SC6 SLP093

CYHM;2011-12-29 21:00;CYHM 292100Z 08010KT 1 1/2SM -SHSN OVC015 M02/M03 A2976 RMK SN2SC6 SLP091

CYHM;2011-12-29 21:16;CYHM 292116Z 07010KT 1 3/4SM -SHSN FEW008 OVC014 M02/M03 A2976 RMK SN1CF1SC6 SLP092

CYHM;2011-12-29 22:00;CYHM 292200Z 07009KT 1 1/2SM -SHSN SCT006 OVC013 M02/M03 A2976 RMK SN2CF1SC5 SLP092

CYHM;2011-12-29 23:00;CYHM 292300Z 06011KT 1SM -SHSN SCT005 OVC014 M02/M03 A2976 RMK SN2CF2SC4 SLP090

CYHM;2011-12-29 23:48;CYHM 292348Z 06010KT 1 3/4SM -SHSN BKN009 OVC019 M02/M02 A2975 RMK SN1SC5SC2 SLP088

CYHM;2011-12-30 00:00;CYHM 300000Z CCA 06010KT 2 1/2SM -SHSN BKN008 OVC019 M02/M02 A2975 RMK SC6SC2 SLP089

CYHM;2011-12-30 01:00;CYHM 300100Z 06008KT 1 3/4SM -SHSN OVC006 M02/M02 A2975 RMK SN1SC7 SLP088

CYHM;2011-12-30 01:21;CYHM 300121Z 05008KT 3SM -SHSN OVC004 M02/M02 A2975 RMK SC8 SLP087

CYHM;2011-12-30 02:00;CYHM 300200Z 05008KT 2 1/2SM -SHSN OVC003 M02/M02 A2975 RMK SC8 SLP085

CYHM;2011-12-30 03:00;CYHM 300300Z 04007KT 2 1/2SM -SHSN BR OVC003 M02/M02 A2974 RMK SC8 SLP082

CYHM;2011-12-30 03:46;CYHM 300346Z 03008KT 1 1/2SM -SN BR OVC002 M01/M01 A2974 RMK SN2SC6 SLP081

CYHM;2011-12-30 04:00;CYHM 300400Z 04008KT 1 1/2SM -SN BR OVC002 M01/M01 A2974 RMK SN2SC6 SLP081

CYHM;2011-12-30 04:38;CYHM 300438Z 06008KT 1SM -SN BR OVC002 M01/M01 A2973 RMK FG4SC4 SLP078

CYHM;2011-12-30 05:00;CYHM 300500Z 05008KT 1SM R12/5000FT/N -SN BR OVC002 M00/M00 A2973 RMK FG4SC4 SLP078

CYHM;2011-12-30 05:29;CYHM 300529Z 05007KT 1/2SM R12/4000V5000FT/N -SN -FZDZ BR VV002 M00/M00 A2972 RMK SLP075

CYHM;2011-12-30 06:00;CYHM 300600Z CCA 05006KT 1/4SM R12/2800V4000FT/D -FZDZ FG VV002 00/00 A2973 RMK SLP077

CYHM;2011-12-30 06:20;CYHM 300620Z 05008KT 1/4SM R12/1800FT/N -FZDZ FG VV001 00/00 A2973 RMK SLP077

CYHM;2011-12-30 07:00;CYHM 300700Z 04007KT 1/4SM R12/2000FT/N -DZ FG VV001 00/00 A2973 RMK SLP076

CYHM;2011-12-30 08:00;CYHM 300800Z 05005KT 1/4SM R12/2200FT/N -DZ FG VV001 01/01 A2974 RMK PCPN VRY LGT SLP081

CYHM;2011-12-30 09:00;CYHM 300900Z 04007KT 1/4SM R12/1800FT/N -DZ FG VV001 01/01 A2975 RMK SLP084

CYHM;2011-12-30 10:00;CYHM 301000Z 02004KT 1/8SM R12/1400FT/N -DZ FG VV001 01/01 A2976 RMK SLP089

CYHM;2011-12-30 11:00;CYHM 301100Z 04007KT 1/4SM R12/1600V2200FT/N FG -DZ VV001 01/01 A2978 RMK SLP095

CYHM;2011-12-30 11:48;CYHM 301148Z 03005KT 1/4SM R12/2200FT/N FG VV002 00/00 A2980 RMK SLP100

CYHM;2011-12-30 12:00;CYHM 301200Z 03006KT 1/4SM R12/1800FT/N FG VV002 00/00 A2980 RMK SLP100

CYHM;2011-12-30 12:14;CYHM 301214Z 02006KT 1/8SM R12/1400FT/N FG VV001 00/00 A2980 RMK SLP101

CYHM;2011-12-30 13:00;CYHM 301300Z 04005KT 0SM R12/1200FT/N FG VV001 00/00 A2981 RMK SLP104

CYHM;2011-12-30 14:00;CYHM 301400Z 05007KT 0SM R12/1200FT/N FG VV001 00/00 A2982 RMK SLP108

CYHM;2011-12-30 15:00;CYHM 301500Z 06006KT 0SM R12/0900FT/N FG VV001 00/00 A2983 RMK SLP111

CYHM;2011-12-30 16:00;CYHM 301600Z 06007KT 0SM R12/0800FT/N FG VV001 00/00 A2983 RMK SLP113

CYHM;2011-12-30 17:00;CYHM 301700Z 07006KT 0SM R12/0800FT/N FG VV001 01/01 A2981 RMK SLP106

CYHM;2011-12-30 18:00;CYHM 301800Z 06007KT 1/8SM R12/1000FT/N FG VV001 01/01 A2979 RMK SLP098

CYHM;2011-12-30 18:05;CYHM 301805Z 07004KT 3/8SM R12/1000V1800FT/N FG OVC012 01/01 A2979 RMK FG5SC3 SLP098

CYHM;2011-12-30 18:42;CYHM 301842Z 07006KT 1/4SM R12/3000V5000FT/U FG VV002 02/02 A2978 RMK SLP093

CYHM;2011-12-30 19:00;CYHM 301900Z 07006KT 1/4SM R12/6000FT/D FG BKN015 01/01 A2978 RMK FG6SC1 SLP092

CYHM;2011-12-30 19:21;CYHM 301921Z 07007KT 3/4SM R12/5000FT/D BR VV002 01/01 A2977 RMK VIS VRB 1/2 - 1 SLP089

CYHM;2011-12-30 19:54;CYHM 301954Z 06007KT 3/8SM R12/3500FT/D FG VV002 01/01 A2976 RMK SLP088

CYHM;2011-12-30 20:00;CYHM 302000Z 05007KT 3/8SM R12/2400FT/N FG VV002 01/01 A2976 RMK SLP087

CYHM;2011-12-30 20:31;CYHM 302031Z 06008KT 1/4SM R12/2400FT/N FG VV001 01/01 A2977 RMK SLP089

CYHM;2011-12-30 21:00;CYHM 302100Z 06007KT 1/4SM R12/1200FT/N -RA FG VV001 01/01 A2976 RMK SLP088

CYHM;2011-12-30 22:00;CYHM 302200Z 07007KT 3/8SM R12/3000FT/N -RA FG VV002 02/02 A2975 RMK SLP083

CYHM;2011-12-30 23:00;CYHM 302300Z 05010KT 3/8SM R12/2600FT/N -RA FG VV002 02/ A2973 RMK SLP075

CYHM;2011-12-30 23:25;CYHM 302325Z 06009KT 1/4SM R12/1400V2000FT/N -RA FG VV001 02/02 A2973 RMK SLP075

CYHM;2011-12-30 23:46;CYHM 302346Z 04010KT 1/8SM R12/1200FT/N -RA FG VV001 02/02 A2973 RMK SLP076

CYHM;2011-12-31 00:00;CYHM 310000Z 04011KT 1/4SM R12/1600V2200FT/N -RA FG VV002 02/ A2973 RMK SLP075

CYHM;2011-12-31 00:10;CYHM 310010Z 04010KT 3/8SM R12/3000FT/N FG OVC029 02/ A2973 RMK FG6SC2 SLP076

CYHM;2011-12-31 00:14;CYHM 310014Z 04010KT 3/8SM R12/2200FT/N FG VV001 02/ A2973 RMK SLP075

CYHM;2011-12-31 01:00;CYHM 310100Z 03011KT 1/4SM R12/1800FT/N FG VV001 03/ A2973 RMK SLP077

CYHM;2011-12-31 01:31;CYHM 310131Z 05007KT 3/8SM R12/3000FT/N -RA FG VV002 02/ A2974 RMK SLP078

CYHM;2011-12-31 01:53;CYHM 310153Z 05009KT 3/4SM R12/4000VP6000FT/U +RA BR OVC016 02/ A2973 RMK FG4SC4 VIS VRB 1/2 - 1 SLP077

CYHM;2011-12-31 02:00;CYHM 310200Z 05009KT 1SM +RA BR OVC015 02/ A2973 RMK FG3SC5 VIS VRB 3/4 - 11/4 SLP076

CYHM;2011-12-31 02:16;CYHM 310216Z 04010KT 1 1/2SM -RA BR OVC021 02/ A2972 RERA RMK FG2SC6 VIS VRB 1 - 2 SLP073

CYHM;2011-12-31 02:26;CYHM 310226Z 05011KT 1 1/2SM -RA BR BKN002 OVC019 02/ A2971 RERA RMK FG2SF4SC2 VIS VRB 1 - 2 SLP069

CYHM;2011-12-31 03:00;CYHM 310300Z 05010G15KT 1 3/4SM -RA BR OVC002 03/ A2970 RERA RMK FG1SF7 SLP065

CYHM;2011-12-31 03:37;CYHM 310337Z 05011KT 3/8SM R12/2200FT/N -RA FG VV001 03/ A2969 RMK SLP062

CYHM;2011-12-31 03:41;CYHM 310341Z 05011KT 1/4SM R12/2000FT/N -RA FG VV001 03/03 A2969 RMK SLP062

CYHM;2011-12-31 04:00;CYHM 310400Z 05011KT 1/8SM R12/1200FT/N -RA FG VV001 03/ A2968 RMK SLP059

CYHM;2011-12-31 05:00;CYHM 310500Z 05011KT 1/8SM R12/1000FT/N -RA FG VV001 03/ A2966 RMK SLP053

CYHM;2011-12-31 06:00;CYHM 310600Z 00000KT 1/8SM R12/1200FT/N -RA FG VV001 02/ A2965 RMK SLP050

CYHM;2011-12-31 06:11;CYHM 310611Z VRB09KT 3/8SM R12/1400V2000FT/U -RA FG BKN004 OVC014 03/ A2965 RMK FG6SF1SC1 SLP049

CYHM;2011-12-31 06:32;CYHM 310632Z 02005KT 1SM R12/6000FT/D -RA BR OVC002 03/ A2965 RMK FG3SF5 VIS VRB 3/4 - 11/4 SLP049

CYHM;2011-12-31 06:40;CYHM 310640Z 02005KT 1/4SM R12/2400FT/N -RA FG VV001 02/ A2965 RMK SLP050

CYHM;2011-12-31 07:00;CYHM 310700Z 03005KT 1/8SM R12/2000FT/N FG VV001 02/ A2965 RMK SLP050

CYHM;2011-12-31 07:46;CYHM 310746Z 05003KT 1/8SM R12/1200FT/N -RA FG VV001 02/ A2967 RMK SLP055

CYHM;2011-12-31 08:00;CYHM 310800Z 06005KT 1/8SM R12/1200FT/N -RA FG BKN002 OVC010 02/ A2967 RMK FG6SF1SC1 SLP056

CYHM;2011-12-31 08:33;CYHM 310833Z 08004KT 1/4SM R12/1600FT/N -RA FG OVC009 02/ A2967 RMK FG5SF3 SLP057

CYHM;2011-12-31 09:00;CYHM 310900Z 05004KT 1/4SM R12/2200FT/N -RA FG BKN005 OVC016 02/ A2967 RMK FG5SF2SC1 SLP057

CYHM;2011-12-31 09:18;CYHM 310918Z 08004KT 3/8SM R12/2400FT/N -RA FG BKN003 OVC015 02/ A2967 RMK FG4SF3SC1 SLP057

CYHM;2011-12-31 09:33;CYHM 310933Z 10003KT 3/4SM R12/3000FT/U -RA BR BKN002 OVC008 02/ A2967 RMK FG3SF3SC2 VIS VRB 1/2 - 1 SLP057

CYHM;2011-12-31 10:00;CYHM 311000Z 16006KT 1SM R12/4000V5500FT/U -RA BR BKN002 OVC010 03/ A2967 RMK FG3SF3SC2 VIS VRB 3/4 - 11/4 SLP057

CYHM;2011-12-31 10:12;CYHM 311012Z 18007KT 1 1/2SM -RA BR BKN002 OVC016 04/ A2967 RMK FG2SF5SC1 VIS VRB 1 - 2 SLP057

CYHM;2011-12-31 10:30;CYHM 311030Z 18006KT 4SM BR FEW002 SCT008 OVC024 04/ A2968 RMK SF2SC2SC4 SLP060

CYHM;2011-12-31 11:00;CYHM 311100Z 20008KT 10SM FEW003 BKN014 OVC040 04/ A2969 RMK SF1SC6SC1 SLP062

CYHM;2011-12-31 11:42;CYHM 311142Z 20005KT 12SM OVC008 04/ A2971 RMK SC8 SLP068

CYHM;2011-12-31 12:00;CYHM 311200Z 00000KT 8SM FEW002 OVC008 04/ A2972 RMK SF2SC6 SLP070

CYHM;2011-12-31 13:00;CYHM 311300Z 19004KT 6SM BR OVC005 04/ A2974 RMK SC8 SLP079

CYHM;2011-12-31 13:13;CYHM 311313Z 19005KT 2 1/2SM BR OVC004 04/ A2975 RMK SC8 SLP081

CYHM;2011-12-31 13:28;CYHM 311328Z 21004KT 1SM BR OVC003 04/ A2976 RMK FG2SC6 SLP084

CYHM;2011-12-31 14:00;CYHM 311400Z 20003KT 1SM R12/6000FT/U BR OVC003 04/ A2978 RMK FG3SC5 SLP090

CYHM;2011-12-31 14:19;CYHM 311419Z 00000KT 1/2SM R12/2800V4500FT/D BR OVC003 04/ A2979 RMK FG6SC2 SLP094

CYHM;2011-12-31 14:31;CYHM 311431Z 00000KT 1/4SM R12/2600FT/N FG VV002 04/ A2979 RMK SLP096

CYHM;2011-12-31 15:00;CYHM 311500Z 22002KT 1/8SM R12/1800FT/N FG VV002 04/ A2980 RMK SLP099

CYHM;2011-12-31 15:05;CYHM 311505Z 21002KT 1/8SM R12/1800FT/N -DZ FG VV002 04/ A2980 RMK SLP100

CYHM;2011-12-31 16:00;CYHM 311600Z 26007KT 1/4SM R12/2200FT/N -DZ FG VV002 05/ A2982 RMK SLP107

CYHM;2011-12-31 16:37;CYHM 311637Z 28007KT 2 1/2SM R12/3000VP6000FT/U BR OVC002 05/ A2983 RMK ST8 SLP107

CYHM;2011-12-31 17:00;CYHM 311700Z 29010KT 4SM BR BKN003 OVC006 05/ A2983 RMK SF5SC3 SLP110

CYHM;2011-12-31 17:13;CYHM 311713Z 29007KT 5SM BR BKN002 OVC006 04/ A2983 RMK SF6SC2 SLP109

CYHM;2011-12-31 18:00;CYHM 311800Z 31006KT 8SM FEW005 BKN048 04/04 A2983 RMK CF1SC6 SLP110

CYHM;2011-12-31 18:26;CYHM 311826Z 29007KT 8SM BKN007 BKN022 OVC048 04/04 A2986 RMK SC5SC2SC1 SLP118

CYHM;2011-12-31 19:00;CYHM 311900Z 28006KT 7SM BKN007 OVC022 04/03 A2988 RMK SC6SC2 SLP124

CYHM;2011-12-31 19:47;CYHM 311947Z 30007KT 7SM SCT007 BKN012 OVC025 04/03 A2990 RMK SC4SC2SC2 SLP132

CYHM;2011-12-31 20:00;CYHM 312000Z 29008KT 7SM SCT007 BKN010 OVC025 04/03 A2991 RMK SC4SC3SC1 SLP136

CYHM;2011-12-31 21:00;CYHM 312100Z 29007KT 8SM FEW007 BKN010 OVC027 03/02 A2993 RMK SC2SC5SC1 SLP145

CYHM;2011-12-31 21:18;CYHM 312118Z 27009KT 8SM BKN007 OVC011 03/02 A2995 RMK SC5SC3 SLP150

CYHM;2011-12-31 22:00;CYHM 312200Z 27010KT 8SM BKN007 OVC011 02/01 A2997 RMK SC6SC2 SLP157

CYHM;2011-12-31 22:35;CYHM 312235Z 29009KT 8SM OVC007 02/01 A2999 RMK SC8 SLP165

CYHM;2011-12-31 23:00;CYHM 312300Z 27008KT 9SM SCT005 OVC007 02/01 A3001 RMK SF3SC5 SLP169

