CYHM;2008-01-01 01:00;CYHM 010100Z 06004KT 12SM OVC030 M01/M03 A2995 RMK SC8 SLP154

CYHM;2008-01-01 02:00;CYHM 010200Z 05005KT 12SM OVC027 M01/M03 A2994 RMK SC8 SLP151

CYHM;2008-01-01 03:00;CYHM 010300Z 07005KT 2 1/2SM -SN OVC028 M01/M03 A2993 RMK SN3SC5 SLP147

CYHM;2008-01-01 03:14;CYHM 010314Z 07006KT 5SM -SN BKN024 OVC048 RMK SC5SC3

CYHM;2008-01-01 04:00;CYHM 010400Z 06008KT 6SM -SN OVC038 M01/M02 A2991 RMK SC8 SLP140

CYHM;2008-01-01 05:00;CYHM 010500Z 06009KT 5SM -SN BKN026 OVC086 M01/M02 A2989 RMK SC6AC2 SLP132

CYHM;2008-01-01 06:00;CYHM 010600Z 05009KT 2 1/2SM -SN OVC003 M00/M00 A2985 RMK SN3SC5 SLP118

CYHM;2008-01-01 07:00;CYHM 010700Z 05014KT 2SM -SN OVC003 M00/M00 A2979 RMK SN3SC5 SLP098

CYHM;2008-01-01 08:00;CYHM 010800Z 06012KT 2SM -SN OVC008 00/M00 A2976 RMK SN3SC5 SLP087

CYHM;2008-01-01 09:00;CYHM 010900Z 07012KT 4SM -SN BKN035 OVC052 01/M00 A2971 RMK SC5SC3 SLP069

CYHM;2008-01-01 10:00;CYHM 011000Z 07012KT 2SM -SN OVC004 M00/M00 A2967 RMK SN5SC3 SLP055

CYHM;2008-01-01 11:00;CYHM 011100Z 07009KT 2SM -SN BKN004 OVC026 M00/M00 A2963 RMK SN2SC3SC3 /S02/ SLP044

CYHM;2008-01-01 11:15;CYHM 011115Z 07011KT 1 1/4SM -SN OVC004 RMK SN3SC5

CYHM;2008-01-01 12:00;CYHM 011200Z 07010KT 3/4SM -SN OVC003 M01/M01 A2961 RMK SN6SC2 SLP037

CYHM;2008-01-01 12:47;CYHM 011247Z 08008KT 1 1/2SM -SN SCT005 OVC016 RESN RMK SN2CF2SC4

CYHM;2008-01-01 13:00;CYHM 011300Z 10007KT 2 1/2SM -SN FEW005 OVC013 M01/M01 A2961 RESN RMK CF2SC6 /S01/ SLP038

CYHM;2008-01-01 13:20;CYHM 011320Z 16005KT 3SM -SN BR SCT009 OVC021 RMK SC3SC5 PCPN VRY LGT

CYHM;2008-01-01 14:00;CYHM 011400Z 19004KT 2 1/2SM -SN BR OVC016 M00/M00 A2962 RMK SC8 SLP039

CYHM;2008-01-01 14:26;CYHM 011426Z 20005KT 2SM -SN BR FEW008 OVC015 RMK SN2CF1SC6

CYHM;2008-01-01 14:32;CYHM 011432Z CCA 20006KT 1 1/2SM -SN BR SCT008 OVC015 RMK SN2CF1SC5

CYHM;2008-01-01 15:00;CYHM 011500Z 20007KT 2 1/2SM -SN BR FEW008 OVC017 00/00 A2962 RMK CF2SC6 SLP038

CYHM;2008-01-01 15:23;CYHM 011523Z 20008KT 4SM -SN BR BKN008 BKN022 OVC039 RMK CF6SC2SC1

CYHM;2008-01-01 16:00;CYHM 011600Z 20006KT 4SM -SN BR OVC007 00/00 A2961 RMK SC8 SLP037

CYHM;2008-01-01 16:33;CYHM 011633Z 21008KT 2 1/2SM -SN BR OVC008 RMK SC8

CYHM;2008-01-01 16:38;CYHM 011638Z 20008KT 1 1/2SM -SN BR OVC008 RMK SN2SC6

CYHM;2008-01-01 17:00;CYHM 011700Z 21006KT 1 1/2SM -SN BR OVC007 00/00 A2960 RMK SN2SC6 SLP033

CYHM;2008-01-01 17:33;CYHM 011733Z 25004KT 1 1/2SM -SN BR OVC004 RMK SN2SC6

CYHM;2008-01-01 17:47;CYHM 011747Z 36014KT 1/2SM SN FG BKN004 OVC018 RMK SN5SC2SC1 WND SHFT 1735Z

CYHM;2008-01-01 18:00;CYHM 011800Z 36013KT 5/8SM -SN BR BKN005 OVC017 M01/M02 A2961 RESN RMK SN5SC2SC2 /S03/ SLP036

CYHM;2008-01-01 18:17;CYHM 011817Z 36010KT 2SM -SN BR BKN008 OVC016 RMK SN2SC5SC2

CYHM;2008-01-01 18:38;CYHM 011838Z 36010KT 1 1/4SM -SN BR SCT008 OVC014 RMK SN2SC2SC4

CYHM;2008-01-01 19:00;CYHM 011900Z 36015KT 2SM -SN BR FEW009 BKN014 OVC032 M02/M03 A2964 RMK SN2CF1SC5SC1 SLP045

CYHM;2008-01-01 20:00;CYHM 012000Z 35014G21KT 5SM -SN BKN016 OVC026 M02/M04 A2968 RMK SC6SC2 SLP059

CYHM;2008-01-01 21:00;CYHM 012100Z 35012G18KT 12SM -SHSN BKN016 OVC024 M02/M04 A2973 RMK SC6SC2 SLP076

CYHM;2008-01-01 22:00;CYHM 012200Z 36012G18KT 12SM -SHSN BKN016 OVC024 M02/M04 A2977 RMK SC6SC2 SLP089

CYHM;2008-01-01 23:00;CYHM 012300Z 35012G18KT 15SM -SHSN FEW018 OVC036 M02/M05 A2981 RMK SC1SC7 SLP102

CYHM;2008-01-01 23:45;CYHM 012345Z 34011KT 15SM FEW022 BKN072 OVC110 RMK SC2AC4AC1

CYHM;2008-01-02 00:00;CYHM 020000Z 35011KT 15SM FEW022 BKN060 OVC082 M02/M06 A2985 RMK SC2SC4AC2 SLP118

CYHM;2008-01-02 01:00;CYHM 020100Z 33008KT 15SM FEW020 SCT028 OVC042 M02/M06 A2988 RMK SC1SC2SC5 SLP129

CYHM;2008-01-02 02:00;CYHM 020200Z 35010KT 15SM FEW018 BKN028 OVC050 M03/M07 A2991 RMK CF1SC5SC2 CUFRA SLP137

CYHM;2008-01-02 03:00;CYHM 020300Z 35008KT 12SM -SHSN FEW022 OVC045 M04/M08 A2992 RMK CF1SC7 CUFRA SLP144

CYHM;2008-01-02 04:00;CYHM 020400Z 34007KT 15SM BKN064 M05/M09 A2994 RMK SC4 SLP149

CYHM;2008-01-02 05:00;CYHM 020500Z 34006KT 15SM SCT074 M07/M10 A2996 RMK AC4 SLP155

CYHM;2008-01-02 06:00;CYHM 020600Z 33004KT 15SM FEW080 M07/M11 A2997 RMK AC2 SLP161

CYHM;2008-01-02 07:00;CYHM 020700Z 35004KT 15SM FEW080 M08/M12 A2999 RMK AC2 SLP168

CYHM;2008-01-02 08:00;CYHM 020800Z 35004KT 15SM FEW080 M09/M14 A3002 RMK AC1 SLP177

CYHM;2008-01-02 09:00;CYHM 020900Z 35003KT 15SM FEW110 M10/M15 A3004 RMK AC1 AC TR SLP187

CYHM;2008-01-02 10:00;CYHM 021000Z 35002KT 15SM FEW100 FEW200 M11/M16 A3007 RMK AC1CI1 AC TR SLP198

CYHM;2008-01-02 11:00;CYHM 021100Z 33002KT 15SM FEW110 FEW250 M11/M16 A3011 RMK AC1CI1 AC TR SLP211

CYHM;2008-01-02 12:00;CYHM 021200Z 33002KT 15SM SCT210 M12/M17 A3016 RMK CI2 SLP227

CYHM;2008-01-02 13:00;CYHM 021300Z 33004KT 15SM FEW180 SCT210 M13/M18 A3018 RMK AC1CI2 AC TR SLP236

CYHM;2008-01-02 14:00;CYHM 021400Z 34004KT 15SM FEW180 FEW210 M13/M17 A3023 RMK AC1CI1 AC TR SLP251

CYHM;2008-01-02 15:00;CYHM 021500Z 33005KT 15SM FEW210 M12/M17 A3026 RMK CI1 SLP264

CYHM;2008-01-02 16:00;CYHM 021600Z 34006KT 15SM FEW025 FEW220 M11/M17 A3029 RMK CU1CI1 SLP272

CYHM;2008-01-02 17:00;CYHM 021700Z 34008KT 15SM FEW025 FEW220 M10/M18 A3030 RMK CU1CI1 CU TR CI TR CONTRAIL SLP276

CYHM;2008-01-02 18:00;CYHM 021800Z 32011KT 15SM FEW025 FEW220 M10/M20 A3031 RMK CU1CI1 SLP280

CYHM;2008-01-02 19:00;CYHM 021900Z 34010KT 15SM FEW025 FEW220 M10/M20 A3033 RMK CU1CI1 SLP285

CYHM;2008-01-02 20:00;CYHM 022000Z 31007KT 15SM SKC M09/M19 A3036 RMK SLP296

CYHM;2008-01-02 21:00;CYHM 022100Z 30008KT 15SM SCT190 M10/M17 A3039 RMK AC3 SLP307

CYHM;2008-01-02 22:00;CYHM 022200Z 28005KT 15SM FEW090 M11/M18 A3041 RMK AC1 AC TR SLP314

CYHM;2008-01-02 23:00;CYHM 022300Z 30006KT 15SM FEW024 FEW220 M11/M17 A3043 RMK SC1CI1 SC TR CI TR SLP322

CYHM;2008-01-03 00:00;CYHM 030000Z 31009KT 15SM FEW200 M12/M17 A3045 RMK CI1 SLP331

CYHM;2008-01-03 01:00;CYHM 030100Z 29006KT 15SM FEW120 SCT250 M12/M17 A3048 RMK AC1CI0 SLP339

CYHM;2008-01-03 02:00;CYHM 030200Z 29004KT 15SM FEW080 SCT220 M14/M18 A3048 RMK AC1CI1 SLP341

CYHM;2008-01-03 03:00;CYHM 030300Z 28003KT 15SM BKN056 M13/M16 A3049 RMK SC5 SLP345

CYHM;2008-01-03 04:00;CYHM 030400Z 29002KT 15SM FEW040 FEW200 M14/M17 A3051 RMK SC1CI1 TR SC SLP350

CYHM;2008-01-03 05:00;CYHM 030500Z 32002KT 15SM FEW055 FEW085 FEW200 M15/M17 A3053 RMK SC1AC1CI1 TR AC SLP359

CYHM;2008-01-03 06:00;CYHM 030600Z 33003KT 15SM FEW037 BKN059 M14/M16 A3054 RMK CF1SC6 SLP361

CYHM;2008-01-03 07:00;CYHM 030700Z 02007KT 15SM OVC046 M13/M17 A3055 RMK SC7 SLP365

CYHM;2008-01-03 08:00;CYHM 030800Z 36006KT 15SM OVC042 M14/M18 A3057 RMK SC8 SLP371

CYHM;2008-01-03 09:00;CYHM 030900Z 00000KT 15SM OVC043 M14/M17 A3058 RMK SC8 SLP374

CYHM;2008-01-03 10:00;CYHM 031000Z 36003KT 15SM OVC041 M14/M18 A3060 RMK SC8 SLP382

CYHM;2008-01-03 11:00;CYHM 031100Z 05002KT 15SM OVC043 M13/M16 A3061 RMK SC8 SLP385

CYHM;2008-01-03 12:00;CYHM 031200Z 03002KT 15SM BKN046 M13/M16 A3062 RMK SC7 SLP390

CYHM;2008-01-03 13:00;CYHM 031300Z 00000KT 15SM BKN045 M13/M17 A3064 RMK SC6 SLP396

CYHM;2008-01-03 14:00;CYHM 031400Z 00000KT 15SM BKN042 BKN082 M14/M16 A3067 RMK SC5AC1 SLP406

CYHM;2008-01-03 15:00;CYHM 031500Z 00000KT 15SM FEW020 BKN041 M12/M15 A3068 RMK CU1SC6 CU TR SLP411

CYHM;2008-01-03 16:00;CYHM 031600Z 11003KT 15SM FEW042 SCT220 M12/M15 A3067 RMK SC2CI1 SLP406

CYHM;2008-01-03 17:00;CYHM 031700Z 16004KT 15SM FEW020 FEW042 SCT220 M11/M19 A3065 RMK CU1SC1CI1 CU TR SLP398

CYHM;2008-01-03 18:00;CYHM 031800Z 16006KT 15SM FEW020 FEW160 BKN220 M10/M13 A3063 RMK CU1AC1CI2 CONTRAIL SLP391

CYHM;2008-01-03 19:00;CYHM 031900Z 21007KT 15SM FEW020 BKN042 M08/M11 A3060 RMK CU1SC6 SLP383

CYHM;2008-01-03 20:00;CYHM 032000Z 19004KT 15SM FEW020 FEW042 BKN140 M07/M10 A3059 RMK CU1SC1AC5 CU TR SLP380

CYHM;2008-01-03 21:00;CYHM 032100Z 22007KT 15SM FEW025 FEW140 SCT250 M07/M12 A3055 RMK CU1AC2CI0 CU TR SLP362

CYHM;2008-01-03 22:00;CYHM 032200Z 20006KT 15SM FEW030 SCT120 BKN180 M08/M12 A3053 RMK SC1AC3AC2 SLP357

CYHM;2008-01-03 23:00;CYHM 032300Z 22008KT 15SM BKN033 BKN130 M07/M09 A3053 RMK SC6AC2 SLP358

CYHM;2008-01-04 00:00;CYHM 040000Z 20010KT 15SM OVC024 M06/M08 A3052 RMK SC8 SLP351

CYHM;2008-01-04 00:52;CYHM 040052Z 22017G22KT 15SM -SHSN DRSN OVC021 RMK SC8

CYHM;2008-01-04 01:00;CYHM 040100Z 22014G22KT 15SM -SHSN DRSN OVC020 M05/M08 A3049 RMK SC8 SLP342

CYHM;2008-01-04 02:00;CYHM 040200Z 21016G23KT 15SM -SHSN DRSN BKN019 M05/M08 A3045 RMK SC7 SLP330

CYHM;2008-01-04 03:00;CYHM 040300Z 22018G23KT 15SM -SHSN DRSN BKN022 M05/M08 A3043 RMK SC7 SLP321

CYHM;2008-01-04 04:00;CYHM 040400Z 22018G23KT 15SM DRSN SCT022 M05/M09 A3042 RMK SC4 SLP318

CYHM;2008-01-04 05:00;CYHM 040500Z 23018G24KT 15SM -SHSN DRSN FEW022 BKN180 M06/M09 A3040 RMK SC2AC2 SLP312

CYHM;2008-01-04 06:00;CYHM 040600Z 21017G22KT 15SM -SHSN DRSN FEW020 SCT070 M06/M09 A3038 RMK SC2AC1 SLP303

CYHM;2008-01-04 07:00;CYHM 040700Z 21017G22KT 15SM -SHSN DRSN BKN022 M05/M08 A3037 RMK SC5 SLP299

CYHM;2008-01-04 08:00;CYHM 040800Z 22019G26KT 15SM -SHSN DRSN BKN022 M05/M07 A3037 RMK SC6 SLP299

CYHM;2008-01-04 09:00;CYHM 040900Z 22018G27KT 15SM -SHSN DRSN BKN024 M04/M07 A3036 RMK SC7 SLP297

CYHM;2008-01-04 10:00;CYHM 041000Z 22016G21KT 15SM -SHSN DRSN FEW027 BKN080 M04/M07 A3036 RMK SC2AC4 SLP295

CYHM;2008-01-04 11:00;CYHM 041100Z 23015G20KT 15SM DRSN FEW023 SCT080 M04/M08 A3036 RMK SC2AC2 SLP296

CYHM;2008-01-04 12:00;CYHM 041200Z 26010KT 15SM FEW025 FEW080 M05/M09 A3037 RMK SC2AC1 SLP299

CYHM;2008-01-04 13:00;CYHM 041300Z CCA 25008KT 15SM FEW025 FEW140 BKN220 M06/M09 A3037 RMK SC1AC1CI2 CONTRAIL SLP299

CYHM;2008-01-04 14:00;CYHM 041400Z 25007KT 15SM FEW045 BKN220 M06/M09 A3037 RMK SC1CI2 SLP299

CYHM;2008-01-04 15:00;CYHM 041500Z 25008KT 15SM FEW088 SCT220 M04/M08 A3037 RMK AC1CI2 SLP298

CYHM;2008-01-04 16:00;CYHM 041600Z 24009KT 15SM BKN071 BKN092 BKN220 M03/M07 A3037 RMK AC5AC1CI1 SLP297

CYHM;2008-01-04 17:00;CYHM 041700Z 24010KT 15SM SCT072 BKN096 OVC220 M02/M07 A3033 RMK AC3AC3CI2 SLP286

CYHM;2008-01-04 18:00;CYHM 041800Z 24012KT 15SM FEW045 BKN093 OVC160 M02/M06 A3032 RMK CU1AC6AC2 SLP280

CYHM;2008-01-04 19:00;CYHM 041900Z 24014KT 15SM FEW045 BKN091 BKN220 M01/M06 A3030 RMK CU2AC4CI1 SLP275

CYHM;2008-01-04 20:00;CYHM 042000Z 23013KT 15SM FEW036 BKN073 M01/M06 A3029 RMK SC2AC3 SLP269

CYHM;2008-01-04 21:00;CYHM 042100Z 23012KT 15SM FEW037 FEW075 BKN230 M01/M07 A3029 RMK SC1AC1CI3 SLP268

CYHM;2008-01-04 22:00;CYHM 042200Z 22011KT 15SM FEW075 BKN230 M02/M06 A3028 RMK AC1CI3 CONTRAILS SLP267

CYHM;2008-01-04 23:00;CYHM 042300Z 20009KT 15SM FEW075 SCT230 M02/M07 A3027 RMK AC1CI2 SLP262

CYHM;2008-01-05 00:00;CYHM 050000Z 22010KT 15SM BKN240 M02/M07 A3026 RMK CI4 SLP261

CYHM;2008-01-05 01:00;CYHM 050100Z 22008KT 15SM FEW240 M03/M07 A3026 RMK CI1 SLP259

CYHM;2008-01-05 02:00;CYHM 050200Z 21008KT 15SM FEW230 M05/M08 A3025 RMK CI1 SLP256

CYHM;2008-01-05 03:00;CYHM 050300Z 20008KT 15SM FEW230 M05/M08 A3024 RMK CI0 SLP255

CYHM;2008-01-05 04:00;CYHM 050400Z 20009KT 15SM SCT230 M04/M08 A3023 RMK CI2 CONTRAILS SLP251

CYHM;2008-01-05 05:00;CYHM 050500Z 20008KT 15SM BKN210 M03/M08 A3023 RMK CI5 SLP249

CYHM;2008-01-05 06:00;CYHM 050600Z 19009KT 15SM BKN200 M02/M06 A3021 RMK CI7 SLP242

CYHM;2008-01-05 07:00;CYHM 050700Z 20008KT 15SM FEW110 OVC180 M01/M06 A3019 RMK AC1AC7 SLP236

CYHM;2008-01-05 08:00;CYHM 050800Z 20009KT 15SM OVC200 M01/M06 A3019 RMK CI8 SLP234

CYHM;2008-01-05 09:00;CYHM 050900Z 20009KT 15SM BKN190 M01/M05 A3017 RMK AC5 SLP226

CYHM;2008-01-05 10:00;CYHM 051000Z 21009KT 15SM OVC180 M00/M06 A3015 RMK AC8 SLP221

CYHM;2008-01-05 11:00;CYHM 051100Z 21010KT 15SM OVC150 00/M05 A3014 RMK AC8 SLP219

CYHM;2008-01-05 12:00;CYHM 051200Z 20010KT 15SM BKN043 OVC150 00/M05 A3014 RMK SC6AC2 SLP217

CYHM;2008-01-05 13:00;CYHM 051300Z 21012KT 15SM OVC043 01/M05 A3013 RMK SC8 SLP214

CYHM;2008-01-05 14:00;CYHM 051400Z 20014KT 15SM BKN043 OVC110 01/M04 A3011 RMK SC6AC2 SLP207

CYHM;2008-01-05 15:00;CYHM 051500Z 21015KT 15SM BKN046 OVC110 02/M04 A3010 RMK SC7AC1 SLP205

CYHM;2008-01-05 16:00;CYHM 051600Z 21016KT 15SM FEW048 FEW110 SCT150 OVC220 02/M03 A3008 RMK SC1AC2AC2CI3 SLP198

CYHM;2008-01-05 17:00;CYHM 051700Z 21014KT 15SM FEW045 BKN058 OVC110 03/M03 A3006 RMK SC2SC5AC2 SLP189

CYHM;2008-01-05 18:00;CYHM 051800Z 21016KT 15SM OVC034 03/M02 A3004 RMK SC8 SLP184

CYHM;2008-01-05 18:09;CYHM 051809Z 21017KT 15SM -SHSN OVC035 RMK SC8

CYHM;2008-01-05 19:00;CYHM 051900Z 21014KT 3SM -SHSN BKN021 OVC027 02/M01 A3004 RMK SC6SC2 SLP184

CYHM;2008-01-05 19:44;CYHM 051944Z 21013KT 3SM -RASN BR BKN013 OVC022 RMK SC6SC2

CYHM;2008-01-05 20:00;CYHM 052000Z 21013KT 4SM -SHRASN BR BKN012 OVC020 02/01 A3004 RMK SC6SC2 SLP182

CYHM;2008-01-05 20:18;CYHM 052018Z 21014KT 3SM -SHSN BR FEW008 BKN012 OVC019 RMK SC2SC4SC2

CYHM;2008-01-05 20:25;CYHM 052025Z 21014KT 2 1/2SM -SHSN BR FEW008 BKN012 OVC019 RMK SC2SC5SC1

CYHM;2008-01-05 20:35;CYHM 052035Z 20014KT 2SM -SN BR BKN007 OVC012 RMK SN2SC5SC2

CYHM;2008-01-05 21:00;CYHM 052100Z 21014KT 2 1/2SM -SHSN BR BKN007 OVC012 01/00 A3004 RMK SN1SC6SC2 SLP181

CYHM;2008-01-05 21:28;CYHM 052128Z 20015KT 4SM BR BKN007 OVC012 RMK SC6SC2

CYHM;2008-01-05 22:00;CYHM 052200Z CCA 21015KT 4SM -SHRA BR OVC007 01/01 A3003 RMK SC8 PCPN VRY LGT SLP179

CYHM;2008-01-05 23:00;CYHM 052300Z 21015KT 4SM BR OVC006 02/01 A3004 RMK ST8 SLP181

CYHM;2008-01-06 00:00;CYHM 060000Z 21014KT 4SM BR OVC006 02/01 A3004 RMK ST8 SLP182

CYHM;2008-01-06 00:31;CYHM 060031Z CCA 20014KT 2 1/2SM -DZ BR OVC004 RMK FG1ST7

CYHM;2008-01-06 01:00;CYHM 060100Z 21014KT 2 1/2SM -RADZ BR OVC004 02/02 A3004 RMK FG1ST7 SLP181

CYHM;2008-01-06 01:27;CYHM 060127Z 21014KT 3SM -DZ BR OVC004 RMK ST8

CYHM;2008-01-06 02:00;CYHM 060200Z 21012KT 2 1/2SM BR OVC004 02/02 A3004 RMK FG1ST7 SLP182

CYHM;2008-01-06 02:27;CYHM 060227Z 21012KT 1 3/4SM -DZ BR OVC003 RMK FG2ST6

CYHM;2008-01-06 02:52;CYHM 060252Z 21012KT 1 1/2SM -DZ BR OVC002 RMK FG2ST6

CYHM;2008-01-06 03:00;CYHM 060300Z 21012KT 1SM -DZ BR OVC003 02/02 A3004 RMK FG3ST5 SLP183

CYHM;2008-01-06 04:00;CYHM 060400Z 21011KT 1 1/2SM -DZ BR OVC002 02/02 A3004 RMK FG2ST6 VIS VRB 1 - 2 SLP183

CYHM;2008-01-06 05:00;CYHM 060500Z 20010KT 3/4SM -DZ BR OVC003 02/02 A3003 RMK FG3ST5 VIS VRB 1/2 - 1 SLP179

CYHM;2008-01-06 06:00;CYHM 060600Z 21008KT 1/2SM -DZ FG OVC002 02/02 A3003 RMK FG4ST4 SLP178

CYHM;2008-01-06 07:00;CYHM 060700Z 20008KT 1/2SM -DZ FG OVC002 02/02 A3004 RMK FG4ST4 SLP180

CYHM;2008-01-06 08:00;CYHM 060800Z 21009KT 1/2SM -DZ FG OVC002 02/02 A3004 RMK FG4ST4 SLP179

CYHM;2008-01-06 09:00;CYHM 060900Z 21007KT 1/4SM -DZ FG VV002 03/03 A3004 RMK FG8 SLP181

CYHM;2008-01-06 10:00;CYHM 061000Z 21007KT 1/8SM -DZ FG VV002 03/03 A3003 RMK FG8 SLP177

CYHM;2008-01-06 11:00;CYHM 061100Z 20005KT 1/8SM -DZ FG VV002 03/03 A3003 RMK FG8 SLP179

CYHM;2008-01-06 11:34;CYHM 061134Z 21006KT 1/4SM -DZ FG VV002 RMK FG8

CYHM;2008-01-06 11:53;CYHM 061153Z 21008KT 1/8SM -DZ FG VV002 RMK FG8

CYHM;2008-01-06 12:00;CYHM 061200Z 20007KT 1/8SM -DZ FG VV002 03/03 A3004 RMK FG8 SLP181

CYHM;2008-01-06 12:30;CYHM 061230Z 20005KT 0SM -DZ FG VV001 RMK FG8

CYHM;2008-01-06 13:00;CYHM 061300Z 20006KT 1/8SM -DZ FG VV001 03/03 A3005 RMK FG8 SLP183

CYHM;2008-01-06 14:00;CYHM 061400Z 19008KT 1/4SM -DZ FG VV001 03/03 A3004 RMK FG8 SLP181

CYHM;2008-01-06 15:00;CYHM 061500Z 21011KT 3/4SM BR OVC003 04/04 A3005 RMK FG2SF6 SLP184

CYHM;2008-01-06 15:22;CYHM 061522Z 20010KT 1SM BR OVC003 RMK FG3SF5

CYHM;2008-01-06 16:00;CYHM 061600Z 20010KT 1 1/2SM BR OVC003 04/04 A3005 RMK FG2SF6 SLP183

CYHM;2008-01-06 17:00;CYHM 061700Z 20010KT 1 1/2SM BR OVC002 05/04 A3003 RMK FG2SF6 SLP176

CYHM;2008-01-06 18:00;CYHM 061800Z 20008KT 1 1/2SM BR OVC002 05/05 A3001 RMK FG2SF6 SLP170

CYHM;2008-01-06 19:00;CYHM 061900Z 20008KT 1 1/2SM BR OVC003 05/05 A3000 RMK FG2SF6 SLP165

CYHM;2008-01-06 20:00;CYHM 062000Z 20011KT 1 1/2SM BR BKN003 OVC010 05/05 A2998 RMK FG2SF3SC2 SLP160

CYHM;2008-01-06 21:00;CYHM 062100Z 19008KT 1 1/4SM BR BKN004 OVC012 05/05 A2998 RMK FG2SF3SC2 SLP160

CYHM;2008-01-06 21:24;CYHM 062124Z 19009KT 1 1/2SM BR SCT004 OVC012 RMK FG2SF2SC4

CYHM;2008-01-06 22:00;CYHM 062200Z 19011KT 1 3/4SM BR SCT004 OVC012 06/06 A2997 RMK FG2SF2SC5 SLP158

CYHM;2008-01-06 22:50;CYHM 062250Z 18010KT 1 1/2SM -DZ BR OVC007 RMK FG2ST6

CYHM;2008-01-06 23:00;CYHM 062300Z 18010KT 1 1/4SM -DZ BR BKN005 OVC010 06/06 A2997 RMK FG2SF2ST3 SLP155

CYHM;2008-01-07 00:00;CYHM 070000Z 18009KT 1 1/4SM -DZ BR BKN004 OVC010 06/06 A2997 RMK FG2SF2ST3 SLP156

CYHM;2008-01-07 00:26;CYHM 070026Z 19010KT 1 1/4SM -DZ BR BKN005 OVC010 RMK FG2SF2ST3

CYHM;2008-01-07 01:00;CYHM 070100Z 19013KT 1 1/2SM -DZ BR SCT004 OVC012 07/07 A2997 RMK FG2SF2ST4 SLP156

CYHM;2008-01-07 01:21;CYHM 070121Z 19013KT 1 1/2SM -DZ BR SCT004 OVC008 RMK FG2SF2ST4

CYHM;2008-01-07 02:00;CYHM 070200Z 19013KT 1 1/4SM -DZ BR SCT004 OVC007 08/08 A2997 RMK FG2SF2ST4 SLP154

CYHM;2008-01-07 02:22;CYHM 070222Z 20013KT 1 1/2SM -DZ BR SCT004 BKN008 OVC015 RMK FG2SF2SF2SC2

CYHM;2008-01-07 02:30;CYHM 070230Z 20013KT 1 1/2SM -RADZ BR SCT004 BKN009 OVC016 RMK FG2SF2SF2SC2

CYHM;2008-01-07 03:00;CYHM 070300Z 19013KT 1 3/4SM -DZ BR SCT004 BKN008 OVC016 08/08 A2995 RMK FG2SF2SF2SC2 SLP150

CYHM;2008-01-07 03:14;CYHM 070314Z 20014KT 5SM -DZ BR SCT005 OVC018 RMK SF3SC5

CYHM;2008-01-07 04:00;CYHM 070400Z 20014KT 5SM BR FEW004 OVC017 08/08 A2994 RMK SF2SC6 SLP146

CYHM;2008-01-07 05:00;CYHM 070500Z 20013KT 6SM BR FEW006 OVC016 09/08 A2994 RMK SF1SC7 SLP145

CYHM;2008-01-07 06:00;CYHM 070600Z 20013KT 6SM BR OVC020 09/09 A2992 RMK SC8 SLP139

CYHM;2008-01-07 07:00;CYHM 070700Z 20010KT 8SM OVC021 09/08 A2992 RMK SC8 SLP139

CYHM;2008-01-07 08:00;CYHM 070800Z 21012KT 8SM -SHRA OVC020 09/09 A2994 RMK SC8 SLP146

CYHM;2008-01-07 09:00;CYHM 070900Z 21009KT 6SM -SHRA SCT007 OVC015 09/09 A2995 RMK SF3SC5 SLP147

CYHM;2008-01-07 10:00;CYHM 071000Z 21009KT 6SM -SHRA FEW006 OVC016 10/10 A2996 RMK SF2SC6 SLP150

CYHM;2008-01-07 11:00;CYHM 071100Z 22011KT 8SM -SHRA FEW013 OVC018 09/09 A2998 RMK CF2SC6 SLP157

CYHM;2008-01-07 11:38;CYHM 071138Z 22008KT 8SM BKN013 OVC018 RMK SF6SC2

CYHM;2008-01-07 12:00;CYHM 071200Z 22009KT 8SM SCT016 OVC022 10/10 A2999 RMK SC3SC5 SLP160

CYHM;2008-01-07 13:00;CYHM 071300Z 22010KT 4SM BR SCT007 OVC017 10/10 A3000 RMK SF3SC5 SLP164

CYHM;2008-01-07 14:00;CYHM 071400Z 21009KT 6SM BR OVC017 10/10 A3001 RMK SC8 SLP169

CYHM;2008-01-07 15:00;CYHM 071500Z 22014KT 8SM OVC017 11/11 A3003 RMK SC8 SLP174

CYHM;2008-01-07 16:00;CYHM 071600Z 21012KT 8SM OVC017 12/11 A3003 RMK SC8 SLP173

CYHM;2008-01-07 17:00;CYHM 071700Z 22012KT 8SM OVC017 12/11 A3001 RMK SC8 SLP167

CYHM;2008-01-07 18:00;CYHM 071800Z 22010KT 10SM OVC017 12/11 A3000 RMK SC8 SLP161

CYHM;2008-01-07 19:00;CYHM 071900Z 21009KT 10SM OVC017 13/12 A2997 RMK SC8 SLP154

CYHM;2008-01-07 20:00;CYHM 072000Z 20009KT 10SM OVC020 14/12 A2995 RMK SC8 SLP147

CYHM;2008-01-07 21:00;CYHM 072100Z 20009KT 10SM OVC024 13/11 A2996 RMK SC8 SLP149

CYHM;2008-01-07 22:00;CYHM 072200Z 20014KT 15SM OVC026 13/11 A2996 RMK SC8 SLP149

CYHM;2008-01-07 23:00;CYHM 072300Z 20013KT 15SM FEW034 BKN065 13/11 A2996 RMK SC2SC6 SLP149

CYHM;2008-01-08 00:00;CYHM 080000Z 20012KT 15SM FEW036 OVC057 13/11 A2996 RMK SC2SC6 SLP147

CYHM;2008-01-08 01:00;CYHM 080100Z 21012KT 15SM FEW044 BKN073 13/11 A2995 RMK SC1AC6 SLP146

CYHM;2008-01-08 02:00;CYHM 080200Z 21012KT 15SM BKN032 OVC044 13/11 A2996 RMK SC6SC2 SLP148

CYHM;2008-01-08 03:00;CYHM 080300Z 21013KT 15SM BKN032 OVC054 14/12 A2996 RMK SC6SC2 SLP147

CYHM;2008-01-08 04:00;CYHM 080400Z 21013KT 15SM BKN034 OVC044 14/12 A2995 RMK SC6SC2 SLP144

CYHM;2008-01-08 05:00;CYHM 080500Z 20009KT 15SM BKN035 OVC094 14/12 A2994 RMK SC7AC1 SLP141

CYHM;2008-01-08 06:00;CYHM 080600Z 20013KT 15SM OVC035 15/12 A2992 RMK SC8 SLP134

CYHM;2008-01-08 07:00;CYHM 080700Z 20012KT 15SM BKN038 OVC084 14/12 A2992 RMK SC7AC1 SLP133

CYHM;2008-01-08 08:00;CYHM 080800Z 19012G20KT 15SM BKN064 BKN092 OVC180 13/11 A2991 RMK SC5AC1AC2 SLP132

CYHM;2008-01-08 09:00;CYHM 080900Z 23012G18KT 15SM FEW024 OVC077 13/11 A2993 RMK SC2AC6 SLP137

CYHM;2008-01-08 10:00;CYHM 081000Z 21009KT 15SM BKN074 BKN092 12/10 A2993 RMK AC5AC2 SLP137

CYHM;2008-01-08 11:00;CYHM 081100Z 22009KT 15SM BKN075 BKN100 12/09 A2994 RMK AC6AC2 SLP142

CYHM;2008-01-08 12:00;CYHM 081200Z 22010KT 15SM BKN062 BKN080 OVC110 12/10 A2995 RMK SC5AC2AC2 SLP145

CYHM;2008-01-08 13:00;CYHM 081300Z 19006KT 15SM BKN047 BKN064 BKN100 11/09 A2994 RMK SC5SC2AC1 SLP141

CYHM;2008-01-08 14:00;CYHM 081400Z 18007KT 15SM SCT047 BKN078 BKN110 10/09 A2993 RMK SC3AC3AC1 SLP138

CYHM;2008-01-08 15:00;CYHM 081500Z 20008KT 15SM SCT038 OVC088 11/10 A2991 RMK SC3AC5 SLP129

CYHM;2008-01-08 16:00;CYHM 081600Z 20014KT 15SM BKN033 OVC100 13/10 A2987 RMK SC6AC2 SLP118

CYHM;2008-01-08 17:00;CYHM 081700Z 22014KT 15SM FEW038 BKN097 OVC180 14/10 A2982 RMK SC2AC4AC1 SLP100

CYHM;2008-01-08 18:00;CYHM 081800Z 20015KT 15SM -SHRA BKN041 BKN082 OVC160 13/10 A2980 RMK SC6AC2AC1 SLP091

CYHM;2008-01-08 19:00;CYHM 081900Z 20015KT 15SM -SHRA SCT040 OVC100 13/10 A2975 RMK SC4AC4 SLP074

CYHM;2008-01-08 20:00;CYHM 082000Z 20015G22KT 12SM -SHRA BKN040 BKN060 OVC100 14/11 A2971 RMK SC5SC2AC2 SLP064

CYHM;2008-01-08 20:50;CYHM 082050Z 20014G22KT 15SM OVC042 RMK SC8

CYHM;2008-01-08 21:00;CYHM 082100Z 20014G22KT 15SM OVC042 14/11 A2971 RMK SC8 SLP063

CYHM;2008-01-08 22:00;CYHM 082200Z 20015G23KT 15SM SCT050 BKN120 OVC180 15/10 A2971 RMK SC4AC3AC1 SLP064

CYHM;2008-01-08 23:00;CYHM 082300Z 21014G20KT 15SM FEW038 BKN058 BKN120 OVC200 15/11 A2972 RMK SC1SC4AC2CI1 SLP067

CYHM;2008-01-08 23:15;CYHM 082315Z 21015G21KT 12SM -SHRA BKN044 BKN082 OVC100 RMK SC6AC2AC1

CYHM;2008-01-09 00:00;CYHM 090000Z 21014KT 15SM -SHRA FEW042 BKN082 OVC110 14/12 A2970 RMK SC2AC5AC2 SLP058

CYHM;2008-01-09 01:00;CYHM 090100Z 21014G20KT 15SM -SHRA FEW096 OVC120 13/11 A2970 RMK AC2AC6 SLP059

CYHM;2008-01-09 02:00;CYHM 090200Z 21012KT 12SM -SHRA BKN060 OVC094 12/11 A2967 RMK SC6AC2 SLP050

CYHM;2008-01-09 03:00;CYHM 090300Z 20014KT 10SM -RA FEW010 SCT024 OVC060 12/12 A2965 RMK SF1SC3SC4 SLP042

CYHM;2008-01-09 04:00;CYHM 090400Z 20008KT 12SM -RA FEW010 BKN060 OVC075 12/12 A2961 RMK SF2SC4AC2 SLP028

CYHM;2008-01-09 05:00;CYHM 090500Z 20010KT 6SM -RA BR BKN004 OVC025 11/11 A2953 RMK SC6SC2 SLP003

CYHM;2008-01-09 06:00;CYHM 090600Z CCA 18009KT 5SM -RA BR BKN004 BKN015 OVC040 11/11 A2946 RMK SC5SC2SC2 SLP979

CYHM;2008-01-09 07:00;CYHM 090700Z 17009KT 5SM -RA BR BKN004 OVC030 11/11 A2938 RMK SC7SC1 SLP952

CYHM;2008-01-09 08:00;CYHM 090800Z 15009KT 3SM -RA BR BKN003 OVC040 11/11 A2929 RMK SC6SC2 SLP923

CYHM;2008-01-09 09:00;CYHM 090900Z 23026G42KT 12SM -SHRA OVC018 12/10 A2931 RMK SC8 SLP927

CYHM;2008-01-09 10:00;CYHM 091000Z 22012G20KT 15SM FEW018 BKN094 BKN130 10/08 A2936 RMK SC1AC4AC2 SLP941

CYHM;2008-01-09 10:22;CYHM 091022Z 21016G24KT 9SM -SHRA SCT018 OVC044 RMK SC3SC5

CYHM;2008-01-09 11:00;CYHM 091100Z 26022G40KT 5SM -RA BR FEW010 BKN018 OVC032 06/05 A2945 RMK SF2SC3SC3 SLP973

CYHM;2008-01-09 12:00;CYHM 091200Z 26026G36KT 15SM -RA SCT015 OVC022 04/02 A2958 RMK SC3SC5 PRSURR SLP020

CYHM;2008-01-09 12:32;CYHM 091232Z 25022G28KT 15SM FEW016 BKN023 OVC085 RMK SC2SC4AC2

CYHM;2008-01-09 13:00;CYHM 091300Z 26022G32KT 15SM BKN021 OVC029 04/02 A2966 RMK SC6SC2 PRSURR SLP046

CYHM;2008-01-09 14:00;CYHM 091400Z 26026G36KT 15SM BKN025 BKN042 04/01 A2973 RMK SC6SC2 SLP070

CYHM;2008-01-09 15:00;CYHM 091500Z 26024G34KT 15SM SCT025 BKN027 04/M00 A2979 RMK SC3SC4 CU ASOCTD PRSURR SLP094

CYHM;2008-01-09 16:00;CYHM 091600Z 27022G32KT 15SM BKN034 04/M01 A2984 RMK SC7 CU ASOCTD SLP110

CYHM;2008-01-09 17:00;CYHM 091700Z 25028G34KT 15SM FEW032 SCT042 05/M02 A2985 RMK CU2SC2 SLP114

CYHM;2008-01-09 18:00;CYHM 091800Z 26018G26KT 15SM FEW034 SCT041 06/M02 A2986 RMK CU2SC1 SLP117

CYHM;2008-01-09 19:00;CYHM 091900Z 26022G28KT 15SM FEW034 FEW048 06/M03 A2989 RMK CU2SC1 SLP126

CYHM;2008-01-09 20:00;CYHM 092000Z 25015G26KT 15SM BKN050 06/M03 A2993 RMK CU6 SLP138

CYHM;2008-01-09 21:00;CYHM 092100Z 25015G24KT 15SM BKN044 05/M02 A2997 RMK SC6 CU ASOCTD SLP153

CYHM;2008-01-09 22:00;CYHM 092200Z 25014KT 15SM SCT046 SCT250 04/M01 A3000 RMK SC4CI1 CI TR SLP164

CYHM;2008-01-09 23:00;CYHM 092300Z 25010KT 15SM FEW044 FEW250 04/M03 A3003 RMK SC1CI1 SC TR SLP173

CYHM;2008-01-10 00:00;CYHM 100000Z 24014KT 15SM FEW040 FEW200 03/M03 A3005 RMK SC1CI1 SLP184

CYHM;2008-01-10 01:00;CYHM 100100Z 23007KT 15SM FEW200 02/M03 A3007 RMK CI1 SLP192

CYHM;2008-01-10 02:00;CYHM 100200Z 21005KT 15SM SCT210 00/M02 A3010 RMK CI2 SLP199

CYHM;2008-01-10 03:00;CYHM 100300Z 22007KT 15SM SCT200 M00/M02 A3010 RMK CI2 SLP200

CYHM;2008-01-10 04:00;CYHM 100400Z 24008KT 15SM FEW230 01/M01 A3010 RMK CI2 SLP203

CYHM;2008-01-10 05:00;CYHM 100500Z 25008KT 15SM FEW200 00/M02 A3011 RMK CI1 SLP204

CYHM;2008-01-10 06:00;CYHM 100600Z 26011KT 15SM FEW190 00/M02 A3011 RMK AC1 SLP204

CYHM;2008-01-10 07:00;CYHM 100700Z 26007KT 15SM FEW200 00/M02 A3011 RMK CI1 SLP205

CYHM;2008-01-10 08:00;CYHM 100800Z 25006KT 15SM FEW160 FEW210 M00/M02 A3013 RMK AC1CI1 TR AC SLP212

CYHM;2008-01-10 09:00;CYHM 100900Z 00000KT 15SM FEW200 M01/M02 A3013 RMK CI2 SLP211

CYHM;2008-01-10 10:00;CYHM 101000Z 15004KT 15SM BKN150 M01/M02 A3012 RMK AS4 SLP209

CYHM;2008-01-10 11:00;CYHM 101100Z 18005KT 15SM BKN180 M01/M02 A3014 RMK AS5 SLP215

CYHM;2008-01-10 12:00;CYHM 101200Z 18005KT 15SM BKN170 OVC190 M01/M02 A3015 RMK AC6AC2 SLP220

CYHM;2008-01-10 13:00;CYHM 101300Z 20003KT 15SM BKN180 BKN220 M01/M02 A3016 RMK AC6CI2 SLP222

CYHM;2008-01-10 14:00;CYHM 101400Z 00000KT 15SM SCT180 OVC220 M01/M02 A3017 RMK AC3CI5 SLP225

CYHM;2008-01-10 15:00;CYHM 101500Z 28002KT 15SM FEW180 OVC210 00/M01 A3017 RMK AC2CI6 SLP226

CYHM;2008-01-10 16:00;CYHM 101600Z 00000KT 15SM FEW180 OVC220 02/M00 A3015 RMK AC2CI6 SLP219

CYHM;2008-01-10 17:00;CYHM 101700Z 12003KT 15SM FEW180 OVC220 03/M01 A3007 RMK AC2CI6 SLP194

CYHM;2008-01-10 18:00;CYHM 101800Z 07006KT 15SM FEW150 BKN180 OVC220 03/00 A3007 RMK AC1AC6CI2 SLP190

CYHM;2008-01-10 19:00;CYHM 101900Z 06008KT 15SM FEW016 BKN160 OVC220 03/01 A3004 RMK CU1AC4CI2 SLP180

CYHM;2008-01-10 20:00;CYHM 102000Z 06011KT 15SM FEW012 SCT150 OVC240 02/00 A3001 RMK CU1AC2CI4 SLP171

CYHM;2008-01-10 21:00;CYHM 102100Z 06012KT 12SM BKN160 OVC240 02/00 A2999 RMK AC6CI2 SLP165

CYHM;2008-01-10 22:00;CYHM 102200Z 07014KT 10SM FEW010 BKN190 OVC240 02/00 A2996 RMK CU2AC5CI2 SLP154

CYHM;2008-01-10 22:22;CYHM 102222Z 07015KT 8SM FEW009 OVC190 RMK CU2AC6

CYHM;2008-01-10 23:00;CYHM 102300Z 07019KT 9SM FEW009 OVC130 02/01 A2991 RMK CU2AC6 SLP140

CYHM;2008-01-11 00:00;CYHM 110000Z 07018KT 9SM SCT007 OVC110 02/01 A2988 RMK CU3AC5 SLP128

CYHM;2008-01-11 01:00;CYHM 110100Z 06017KT 9SM FEW008 SCT079 OVC100 02/01 A2984 RMK CU1AC3AC4 SLP115

CYHM;2008-01-11 02:00;CYHM 110200Z CCA 07017KT 10SM FEW008 OVC080 02/00 A2975 RMK CU1AC7 PRESFR SLP085

CYHM;2008-01-11 03:00;CYHM 110300Z 05013KT 9SM -SHRA OVC055 02/00 A2974 RMK SC8 SLP078

CYHM;2008-01-11 04:00;CYHM 110400Z 03014KT 8SM -SHRA OVC027 02/01 A2967 RMK SC8 PRESFR SLP055

CYHM;2008-01-11 05:00;CYHM 110500Z 06013KT 7SM -SHRA OVC021 02/01 A2959 RMK SC8 PRESFR SLP031

CYHM;2008-01-11 06:00;CYHM 110600Z 07013KT 7SM -SHRA FEW006 OVC012 02/01 A2955 RMK CF1SC7 SLP014

CYHM;2008-01-11 06:41;CYHM 110641Z 06013KT 6SM -SHRA OVC009 RMK SC8

CYHM;2008-01-11 07:00;CYHM 110700Z 05013KT 6SM -SHRA FEW005 OVC008 02/02 A2949 RMK SF2SC6 SLP996

CYHM;2008-01-11 07:17;CYHM 110717Z 05014KT 2SM SHRA BR SCT005 OVC020 RMK FG1SF3SC4

CYHM;2008-01-11 07:24;CYHM 110724Z 06011KT 5SM SHRA BR SCT008 OVC016 RERA RMK SF3SC5

CYHM;2008-01-11 08:00;CYHM 110800Z 05011KT 2 1/2SM -SHRA BR FEW003 OVC007 02/02 A2947 RERA RMK SF2SF6 SLP987

CYHM;2008-01-11 08:38;CYHM 110838Z 07009KT 3/4SM -SHRA BR OVC003 RMK FG2SF6 VIS VRB 1/2 - 1

CYHM;2008-01-11 09:00;CYHM 110900Z 06010KT 1SM -SHRA BR BKN002 OVC012 03/03 A2943 RMK FG2SF5SC2 VIS VRB 3/4 - 11/4 SLP975

CYHM;2008-01-11 09:39;CYHM 110939Z 03008KT 1/4SM -RA FG VV002 RMK FG8

CYHM;2008-01-11 10:00;CYHM 111000Z 05007KT 1/4SM -RA FG OVC006 03/03 A2942 RMK FG5SF3 SLP971

CYHM;2008-01-11 11:00;CYHM 111100Z 06005KT 1/2SM -RA FG OVC004 03/03 A2939 RMK FG4SF4 SLP961

CYHM;2008-01-11 11:06;CYHM 111106Z 06005KT 1 1/2SM -RA BR OVC006 RMK FG2SF6

CYHM;2008-01-11 11:46;CYHM 111146Z 00000KT 1 1/2SM BR FEW007 BKN022 BKN045 RMK FG1SF2SC3SC2

CYHM;2008-01-11 12:00;CYHM 111200Z 23006KT 5SM BR FEW018 BKN034 BKN130 03/03 A2940 RMK SC2SC3AC2 SLP964

CYHM;2008-01-11 13:00;CYHM 111300Z 23012KT 15SM SCT038 BKN046 BKN140 06/04 A2940 RMK SC3SC3AC1 SLP964

CYHM;2008-01-11 14:00;CYHM 111400Z CCA 23016KT 15SM -SHRA BKN018 OVC024 06/04 A2942 RMK SC6SC2 SLP968

CYHM;2008-01-11 14:54;CYHM 111454Z 22015KT 15SM FEW018 BKN026 BKN062 RMK CU2SC3SC2

CYHM;2008-01-11 15:00;CYHM 111500Z 23018G23KT 15SM FEW018 BKN024 BKN064 06/03 A2943 RMK CU2SC3SC1 SLP974

CYHM;2008-01-11 16:00;CYHM 111600Z 24024G29KT 15SM BKN020 OVC036 06/03 A2945 RMK SC6SC2 CU ASOCTD SLP978

CYHM;2008-01-11 17:00;CYHM 111700Z 23026G34KT 15SM BKN014 OVC020 05/03 A2944 RMK SC6SC2 SLP975

CYHM;2008-01-11 18:00;CYHM 111800Z 24025G30KT 15SM BKN021 OVC042 05/02 A2944 RMK SC7SC1 SLP976

CYHM;2008-01-11 19:00;CYHM 111900Z 24026G32KT 15SM BKN036 OVC045 04/01 A2946 RMK SC6SC2 SLP984

CYHM;2008-01-11 19:52;CYHM 111952Z 23026KT 15SM -SHRA BKN018 OVC041 RMK SC6SC2

CYHM;2008-01-11 20:00;CYHM 112000Z 23024KT 15SM -SHRA BKN018 OVC041 04/01 A2950 RMK SC6SC2 SLP996

CYHM;2008-01-11 21:00;CYHM 112100Z 24017G25KT 15SM FEW017 BKN038 OVC049 03/01 A2955 RMK CU2SC6SC1 SLP015

CYHM;2008-01-11 22:00;CYHM 112200Z 26020G28KT 15SM OVC026 03/M02 A2960 RMK SC8 SLP031

CYHM;2008-01-11 23:00;CYHM 112300Z 25020G30KT 15SM OVC026 02/M03 A2966 RMK SC8 SLP050

CYHM;2008-01-12 00:00;CYHM 120000Z 26018G26KT 15SM FEW029 BKN046 02/M03 A2971 RMK SC1SC6 SLP067

CYHM;2008-01-12 01:00;CYHM 120100Z 23015KT 15SM BKN048 02/M02 A2973 RMK SC7 SLP075

CYHM;2008-01-12 02:00;CYHM 120200Z 24016KT 15SM FEW028 BKN046 02/M02 A2975 RMK SC2SC6 SLP080

CYHM;2008-01-12 03:00;CYHM 120300Z 26016KT 15SM BKN035 OVC041 02/M03 A2977 RMK SC6SC2 SLP089

CYHM;2008-01-12 04:00;CYHM 120400Z 25013G18KT 15SM OVC034 02/M04 A2979 RMK SC8 SLP096

CYHM;2008-01-12 05:00;CYHM 120500Z 26012KT 15SM OVC034 02/M03 A2982 RMK SC8 SLP105

CYHM;2008-01-12 06:00;CYHM 120600Z 26013G18KT 15SM OVC034 02/M03 A2984 RMK SC8 SLP113

CYHM;2008-01-12 07:00;CYHM 120700Z 26012KT 15SM -SHSN OVC033 02/M03 A2987 RMK SC8 SLP122

CYHM;2008-01-12 08:00;CYHM 120800Z 23008KT 15SM OVC039 01/M02 A2989 RMK SC8 SLP129

CYHM;2008-01-12 09:00;CYHM 120900Z 23007KT 15SM BKN049 01/M02 A2991 RMK SC7 SLP135

CYHM;2008-01-12 10:00;CYHM 121000Z 23008KT 15SM OVC051 01/M01 A2993 RMK SC8 SLP143

CYHM;2008-01-12 10:49;CYHM 121049Z 24007KT 15SM -SHSN OVC052 RMK SC8

CYHM;2008-01-12 11:00;CYHM 121100Z 23006KT 15SM -SHSN OVC052 01/M01 A2995 RMK SC8 SLP150

CYHM;2008-01-12 12:00;CYHM 121200Z 22006KT 15SM -SHSN FEW012 OVC056 01/M00 A2997 RMK CU1SC8 PCPN VRY LGT SLP156

CYHM;2008-01-12 13:00;CYHM 121300Z 24007KT 12SM -SHSN OVC049 01/00 A2998 RMK SC8 PCPN VRY LGT SLP162

CYHM;2008-01-12 14:00;CYHM 121400Z 23010KT 7SM -SHSN BKN029 OVC042 02/00 A3001 RMK SC6SC2 SLP170

CYHM;2008-01-12 14:34;CYHM 121434Z 23007KT 5SM -SHSN BR BKN011 OVC031 RMK SC5SC3

CYHM;2008-01-12 14:51;CYHM 121451Z 23008KT 4SM -SHSN BR SCT008 OVC033 RMK SC3SC5

CYHM;2008-01-12 15:00;CYHM 121500Z 23008KT 5SM -SHSN BR FEW008 OVC033 01/01 A3003 RMK SC2SC6 SLP179

CYHM;2008-01-12 15:48;CYHM 121548Z 24008KT 5SM BR BKN032 OVC054 RMK SC6SC2

CYHM;2008-01-12 16:00;CYHM 121600Z 24009KT 5SM BR BKN031 OVC054 02/01 A3004 RMK SC6SC2 SLP181

CYHM;2008-01-12 17:00;CYHM 121700Z 25009KT 5SM BR FEW012 SCT028 BKN049 03/01 A3003 RMK CU2SC2SC3 SLP179

CYHM;2008-01-12 18:00;CYHM 121800Z 25010KT 6SM HZ FEW014 BKN043 OVC051 03/00 A3003 RMK CU2SC6SC1 SLP177

CYHM;2008-01-12 19:00;CYHM 121900Z 25007KT 8SM FEW023 OVC038 03/M01 A3004 RMK CU1SC7 SLP181

CYHM;2008-01-12 20:00;CYHM 122000Z 24007KT 7SM FEW024 OVC036 03/M01 A3006 RMK CU2SC6 HZ SLP186

CYHM;2008-01-12 21:00;CYHM 122100Z 23006KT 7SM FEW025 BKN042 03/M01 A3007 RMK SC1SC6 HZ SLP193

CYHM;2008-01-12 22:00;CYHM 122200Z 23006KT 7SM BKN041 02/M01 A3009 RMK SC7 HZ SLP198

CYHM;2008-01-12 23:00;CYHM 122300Z 27003KT 8SM SCT027 BKN041 02/M01 A3011 RMK SC3SC4 HZ SLP205

CYHM;2008-01-13 00:00;CYHM 130000Z 29002KT 9SM SCT027 OVC035 02/M01 A3011 RMK SC4SC4 SLP207

CYHM;2008-01-13 01:00;CYHM 130100Z 17005KT 8SM FEW026 OVC037 01/M01 A3013 RMK SC2SC5 HZ SLP211

CYHM;2008-01-13 02:00;CYHM 130200Z 23005KT 9SM OVC031 01/M00 A3013 RMK SC8 SLP212

CYHM;2008-01-13 03:00;CYHM 130300Z 21004KT 10SM SCT035 M00/M02 A3012 RMK SC3 SLP210

CYHM;2008-01-13 04:00;CYHM 130400Z 00000KT 12SM FEW200 M01/M02 A3012 RMK CI1 SLP209

CYHM;2008-01-13 05:00;CYHM 130500Z 00000KT 8SM FEW200 M01/M02 A3012 RMK CI1 SLP210

CYHM;2008-01-13 06:00;CYHM 130600Z 04002KT 7SM FEW100 FEW200 M02/M03 A3012 RMK AC1CI1 SLP210

CYHM;2008-01-13 07:00;CYHM 130700Z 06004KT 7SM FEW100 M02/M02 A3012 RMK AC2 SLP209

CYHM;2008-01-13 08:00;CYHM 130800Z 12004KT 7SM BKN090 M02/M03 A3013 RMK AC5 FU SE SLP212

CYHM;2008-01-13 09:00;CYHM 130900Z 10004KT 12SM BKN098 M02/M02 A3012 RMK AC6 FU SE SLP210

CYHM;2008-01-13 10:00;CYHM 131000Z 08005KT 12SM BKN100 BKN160 M02/M03 A3011 RMK AC5AC1 SLP206

CYHM;2008-01-13 11:00;CYHM 131100Z 07007KT 15SM BKN100 M02/M03 A3010 RMK AC3 FROIN SLP202

CYHM;2008-01-13 12:00;CYHM 131200Z 05009KT 15SM BKN100 M01/M02 A3009 RMK AC6 SLP200

CYHM;2008-01-13 13:00;CYHM 131300Z 07002KT 9SM BKN110 BKN250 M00/M02 A3008 RMK AC6CI1 SLP196

CYHM;2008-01-13 14:00;CYHM 131400Z 07011KT 9SM BKN130 BKN250 M00/M02 A3007 RMK AC6CI1 SLP194

CYHM;2008-01-13 15:00;CYHM 131500Z 08009KT 15SM OVC078 00/M02 A3008 RMK AC8 SLP196

CYHM;2008-01-13 16:00;CYHM 131600Z 08011KT 15SM FEW085 BKN140 OVC250 01/M02 A3007 RMK AC2AC2CI2 SLP193

CYHM;2008-01-13 17:00;CYHM 131700Z 09010KT 15SM FEW081 SCT140 BKN250 02/M01 A3004 RMK AC2AC2CI2 SLP181

CYHM;2008-01-13 18:00;CYHM 131800Z 09011KT 15SM FEW090 SCT130 OVC250 03/M01 A2999 RMK AC2AC2CS3 SLP165

CYHM;2008-01-13 19:00;CYHM 131900Z 09011KT 15SM BKN120 OVC250 03/M01 A2996 RMK AC6CS2 SLP155

CYHM;2008-01-13 20:00;CYHM 132000Z 09011KT 12SM OVC110 03/M01 A2994 RMK AS8 SLP149

CYHM;2008-01-13 21:00;CYHM 132100Z 06011KT 9SM OVC059 02/00 A2992 RMK SC8 SLP141

CYHM;2008-01-13 22:00;CYHM 132200Z 05010KT 8SM SCT027 OVC040 02/M00 A2991 RMK SC4SC4 HZ SLP140

CYHM;2008-01-13 22:24;CYHM 132224Z 05010KT 7SM -RA OVC027 RMK SC8

CYHM;2008-01-13 23:00;CYHM 132300Z 07010KT 6SM -RA BR BKN027 OVC045 02/01 A2991 RMK SC5SC3 SLP140

CYHM;2008-01-13 23:31;CYHM 132331Z 11011KT 3SM -RASN BR FEW006 BKN012 OVC020 RMK CF2SC3SC2

CYHM;2008-01-13 23:39;CYHM 132339Z 12010KT 2SM -SN BR SCT005 OVC010 RMK SN2SF2SC4

CYHM;2008-01-13 23:44;CYHM 132344Z 12009KT 1 1/2SM -SN BR BKN005 OVC010 RMK SN2SF2SC3

CYHM;2008-01-14 00:00;CYHM 140000Z 12008KT 1 1/2SM -SN BR BKN004 OVC011 00/00 A2991 RMK SN2SF4SC2 SLP139

CYHM;2008-01-14 00:11;CYHM 140011Z 12007KT 1SM -SN BR OVC003 RMK SN3NS5

CYHM;2008-01-14 01:00;CYHM 140100Z 13008KT 1SM -SN BR BKN002 OVC014 00/00 A2990 RMK SN3SF2SC2 SLP135

CYHM;2008-01-14 02:00;CYHM 140200Z 10006KT 3/4SM -SN BR VV003 00/00 A2988 RMK SN8 /S01/ SLP128

CYHM;2008-01-14 03:00;CYHM 140300Z 09006KT 3/4SM -SN BR BKN003 OVC007 00/00 A2985 RMK SN3SF2SC2 SLP118

CYHM;2008-01-14 03:41;CYHM 140341Z 11007KT 1 1/2SM -SN BR OVC003 RMK SN2SF6 VIS VRB 1 - 2

CYHM;2008-01-14 04:00;CYHM 140400Z 12008KT 2SM -SN OVC003 00/00 A2983 RMK SN1SF7 SLP110

CYHM;2008-01-14 05:00;CYHM 140500Z 13008KT 1 1/2SM -SN OVC004 00/00 A2981 RMK SN2SF6 VIS VRB 1 - 2 /S02/ SLP106

CYHM;2008-01-14 06:00;CYHM 140600Z 14005KT 1 1/2SM -SN OVC003 00/00 A2980 RMK SN2SF6 VIS VRB 1 - 2 /S03/ SLP100

CYHM;2008-01-14 06:30;CYHM 140630Z 16005KT 1 1/2SM -SN OVC005 RMK SN2SF6 VIS VRB 1 - 2

CYHM;2008-01-14 06:37;CYHM 140637Z 18005KT 1SM -SN VV003 RMK SN8 VIS VRB 3/4 -11/4

CYHM;2008-01-14 07:00;CYHM 140700Z 19006KT 2SM -SN OVC004 00/00 A2979 RMK SN1SF7 /S01/ SLP097

CYHM;2008-01-14 08:00;CYHM 140800Z 23005KT 3SM -SN OVC003 00/00 A2978 RMK SF8 VIS VRB 2 - 4 SLP095

CYHM;2008-01-14 08:18;CYHM 140818Z 24007KT 5SM -SN OVC007 RMK SF8

CYHM;2008-01-14 09:00;CYHM 140900Z 23006KT 4SM -SN OVC006 00/00 A2978 RMK SF8 SLP094

CYHM;2008-01-14 10:00;CYHM 141000Z 24005KT 3SM -SN OVC006 00/00 A2978 RMK SF8 VIS VRB 2 - 4 CIG RAG SLP093

CYHM;2008-01-14 10:28;CYHM 141028Z 22005KT 2SM -SN OVC003 RMK SN1SF7

CYHM;2008-01-14 11:00;CYHM 141100Z 23005KT 3SM -SN OVC003 00/00 A2978 RMK SF8 VIS VRB 2 - 4 /S02/ SLP095

CYHM;2008-01-14 12:00;CYHM 141200Z 23009KT 2 1/2SM -SN BR OVC003 00/00 A2979 RMK SF8 SLP097

CYHM;2008-01-14 13:00;CYHM 141300Z CCA 25010KT 1 1/2SM -SN BR OVC005 00/00 A2980 RMK SN1SF7 SLP100

CYHM;2008-01-14 14:00;CYHM 141400Z 25008KT 2SM -SN BR FEW008 BKN024 OVC035 M00/M00 A2981 RMK SF2SC4SC2 SLP105

CYHM;2008-01-14 15:00;CYHM 141500Z 24008KT 4SM -SN BR SCT005 BKN010 OVC026 00/M00 A2982 RMK SF3SC4SC1 SLP109

CYHM;2008-01-14 15:13;CYHM 141513Z 24008KT 4SM BR FEW008 BKN014 OVC028 RMK SF2SC4SC2

CYHM;2008-01-14 16:00;CYHM 141600Z 25009KT 5SM BR FEW010 BKN015 BKN032 01/M01 A2982 RMK SF1SC4SC2 SLP107

CYHM;2008-01-14 17:00;CYHM 141700Z 24011KT 6SM BR FEW011 OVC036 01/M01 A2980 RMK SF2SC6 SLP101

CYHM;2008-01-14 18:00;CYHM 141800Z 24008KT 6SM BR FEW018 BKN024 OVC052 01/M01 A2979 RMK CU2SC5SC2 SLP097

CYHM;2008-01-14 18:14;CYHM 141814Z 24011KT 4SM -SHSN BR FEW010 BKN017 OVC026 RMK SF2SC5SC2

CYHM;2008-01-14 19:00;CYHM 141900Z 24010KT 3SM -SHSN BR SCT006 BKN010 OVC018 00/M01 A2978 RMK SF3SC3SC2 SLP094

CYHM;2008-01-14 20:00;CYHM 142000Z 24012KT 3SM -SHSN BR FEW008 BKN014 OVC056 00/M01 A2979 RMK SF2SC6SC1 SLP098

CYHM;2008-01-14 20:43;CYHM 142043Z 25012KT 2 1/2SM -SHSN BR FEW008 BKN012 OVC026 RMK SF2SC5SC2

CYHM;2008-01-14 21:00;CYHM 142100Z 24008KT 2 1/2SM -SHSN BR FEW008 BKN012 OVC026 M00/M01 A2980 RMK SF2SC6SC1 SLP102

CYHM;2008-01-14 22:00;CYHM 142200Z 23012KT 2 1/2SM -SHSN BR FEW008 BKN026 OVC048 M01/M02 A2981 RMK SF2SC6SC1 SLP106

CYHM;2008-01-14 22:53;CYHM 142253Z 24010KT 2 1/2SM -SHSN BR FEW008 BKN014 OVC032 RMK SF2SC6SC1

CYHM;2008-01-14 23:00;CYHM 142300Z 24010KT 2 1/2SM -SHSN BR FEW008 BKN014 OVC032 M01/M01 A2982 RMK SF2SC6SC1 SLP109

CYHM;2008-01-15 00:00;CYHM 150000Z 24011KT 5SM -SHSN FEW007 SCT012 BKN024 OVC055 M01/M02 A2983 RMK SF1SC3SC3SC1 SLP110

CYHM;2008-01-15 01:00;CYHM 150100Z 24010KT 8SM -SHSN FEW014 BKN030 OVC072 M01/M03 A2983 RMK SF2SC5AC1 SLP111

CYHM;2008-01-15 02:00;CYHM 150200Z 23008KT 6SM -SN BKN033 OVC070 M01/M03 A2983 RMK SC6AC2 SLP110

CYHM;2008-01-15 03:00;CYHM 150300Z 24007KT 12SM -SHSN FEW022 BKN068 OVC120 M01/M03 A2982 RMK SC2AC5AC2 SLP109

CYHM;2008-01-15 04:00;CYHM 150400Z 23010KT 8SM -SHSN FEW022 BKN040 OVC080 M01/M03 A2982 RMK SF1SC6AC2 SLP107

CYHM;2008-01-15 05:00;CYHM 150500Z 23005KT 6SM -SN SCT007 OVC016 M01/M02 A2981 RMK SF3SC5 SLP105

CYHM;2008-01-15 06:00;CYHM 150600Z 24005KT 4SM -SN FEW007 BKN012 OVC020 M01/M02 A2980 RMK SF2SC5SC1 SLP100

CYHM;2008-01-15 07:00;CYHM 150700Z 23009KT 5SM -SN FEW007 OVC022 M01/M02 A2979 RMK SF2SC6 SLP099

CYHM;2008-01-15 08:00;CYHM 150800Z 24008KT 12SM -SHSN OVC025 M01/M03 A2980 RMK SC8 SLP100

CYHM;2008-01-15 09:00;CYHM 150900Z 23010KT 15SM -SHSN OVC027 M01/M04 A2980 RMK SC8 SLP100

CYHM;2008-01-15 09:14;CYHM 150914Z 24009KT 15SM OVC021 RMK SC8

CYHM;2008-01-15 10:00;CYHM 151000Z 23009KT 15SM SCT010 BKN020 OVC026 M01/M03 A2979 RMK SF3SC3SC2 SLP098

CYHM;2008-01-15 10:45;CYHM 151045Z 24007KT 12SM -SHSN BKN026 OVC047 RMK SC6SC2

CYHM;2008-01-15 11:00;CYHM 151100Z 24005KT 9SM -SHSN FEW026 OVC060 M02/M04 A2979 RMK SC2SC6 SLP099

CYHM;2008-01-15 12:00;CYHM 151200Z 24006KT 8SM -SHSN BKN013 BKN045 M02/M04 A2980 RMK SC6SC2 SLP102

CYHM;2008-01-15 13:00;CYHM 151300Z 25007KT 15SM -SHSN SCT015 BKN027 M03/M04 A2981 RMK SC3SC4 SLP106

CYHM;2008-01-15 13:47;CYHM 151347Z 25008KT 15SM FEW025 BKN045 BKN084 RMK CU1SC4AC2

CYHM;2008-01-15 14:00;CYHM 151400Z 26006KT 15SM -SHSN FEW025 BKN050 BKN082 M02/M04 A2983 RMK CU1SC5AC2 SLP111

CYHM;2008-01-15 15:00;CYHM 151500Z 26008KT 2SM -SHSN BR BKN016 OVC032 M02/M04 A2984 RMK SC5SC3 SLP117

CYHM;2008-01-15 15:28;CYHM 151528Z 26006KT 1SM -SHSN BR BKN007 OVC021 RMK SN2SF4SC2

CYHM;2008-01-15 16:00;CYHM 151600Z 26008KT 1 1/2SM -SHSN BR SCT007 OVC030 M02/M03 A2986 RMK SN1SF3SC4 SLP123

CYHM;2008-01-15 17:00;CYHM 151700Z 27008KT 6SM -SHSN BR BKN033 OVC042 M02/M04 A2986 RMK SC6SC2 SLP123

CYHM;2008-01-15 18:00;CYHM 151800Z 25010KT 4SM -SHSN BR BKN013 BKN035 OVC042 M02/M04 A2986 RMK SC5SC2SC1 SLP122

CYHM;2008-01-15 19:00;CYHM 151900Z 28005KT 4SM -SHSN BKN014 OVC018 M01/M03 A2987 RMK SC6SC2 SLP124

CYHM;2008-01-15 20:00;CYHM 152000Z 28005KT 2 1/2SM -SHSN FEW012 OVC018 M01/M03 A2988 RMK SF2SC6 SLP130

CYHM;2008-01-15 20:50;CYHM 152050Z 03006KT 2 1/2SM -SHSN BR OVC013 RMK SC8

CYHM;2008-01-15 21:00;CYHM 152100Z 03006KT 2 1/2SM -SHSN BR OVC013 M01/M03 A2991 RMK SC8 SLP137

CYHM;2008-01-15 21:42;CYHM 152142Z 04006KT 3SM -SHSN BR OVC008 RMK SC8

CYHM;2008-01-15 22:00;CYHM 152200Z 04007KT 2 1/2SM -SHSN BR FEW006 OVC011 M02/M03 A2994 RMK SF2SC6 SLP150

CYHM;2008-01-15 22:42;CYHM 152242Z 01004KT 12SM -SHSN BKN018 OVC034 RMK SC6SC2

CYHM;2008-01-15 23:00;CYHM 152300Z 02006KT 12SM -SHSN OVC016 M02/M04 A2998 RMK SC8 SLP161

CYHM;2008-01-16 00:00;CYHM 160000Z 01005KT 12SM -SHSN FEW015 OVC020 M02/M05 A3001 RMK SF2SC6 SLP172

CYHM;2008-01-16 02:00;CYHM 160200Z 35004KT 15SM -SHSN OVC025 M03/M06 A3006 RMK SC8 SLP189

CYHM;2008-01-16 03:00;CYHM 160300Z 30004KT 15SM -SHSN OVC022 M02/M05 A3007 RMK SC8 SLP196

CYHM;2008-01-16 04:00;CYHM 160400Z 30007KT 15SM OVC025 M02/M06 A3010 RMK SC8 SLP204

CYHM;2008-01-16 05:00;CYHM 160500Z 31006KT 15SM OVC026 M03/M06 A3010 RMK SC8 SLP205

CYHM;2008-01-16 06:00;CYHM 160600Z 26003KT 15SM SCT024 M03/M07 A3012 RMK SC4 SLP211

CYHM;2008-01-16 07:00;CYHM 160700Z 28004KT 15SM FEW028 M04/M06 A3017 RMK SC2 SLP229

CYHM;2008-01-16 08:00;CYHM 160800Z 27004KT 15SM OVC028 M05/M06 A3019 RMK SC8 SLP235

CYHM;2008-01-16 09:00;CYHM 160900Z 25003KT 15SM FEW018 M06/M07 A3020 RMK SC1 SC TR SLP241

CYHM;2008-01-16 10:00;CYHM 161000Z 24004KT 15SM BKN034 M06/M07 A3022 RMK SC7 SLP246

CYHM;2008-01-16 11:00;CYHM 161100Z 00000KT 15SM OVC031 M05/M07 A3023 RMK SC8 SLP249

CYHM;2008-01-16 12:00;CYHM 161200Z 25006KT 15SM BKN031 BKN045 M05/M06 A3025 RMK SC6SC2 SLP257

CYHM;2008-01-16 13:00;CYHM 161300Z 25004KT 15SM FEW025 BKN034 M05/M06 A3027 RMK CU1SC7 CU TR SLP262

CYHM;2008-01-16 14:00;CYHM 161400Z 25005KT 15SM FEW025 FEW032 M05/M06 A3028 RMK CU1SC2 SLP267

CYHM;2008-01-16 15:00;CYHM 161500Z 25006KT 15SM FEW018 BKN032 M03/M05 A3029 RMK CU1SC5 CU TR SLP270

CYHM;2008-01-16 16:00;CYHM 161600Z 24006KT 15SM FEW025 BKN027 M02/M05 A3030 RMK CU2SC6 SLP273

CYHM;2008-01-16 17:00;CYHM 161700Z 25010KT 15SM FEW020 OVC027 M02/M06 A3030 RMK SC2SC6 CU ASOCTD SLP273

CYHM;2008-01-16 18:00;CYHM 161800Z 24008KT 15SM BKN023 OVC030 M02/M06 A3026 RMK SC6SC2 SLP260

CYHM;2008-01-16 19:00;CYHM 161900Z 28006KT 15SM OVC026 M02/M07 A3026 RMK SC8 SLP259

CYHM;2008-01-16 20:00;CYHM 162000Z 25007KT 15SM OVC025 M02/M06 A3027 RMK SC8 SLP262

CYHM;2008-01-16 21:00;CYHM 162100Z 19003KT 15SM OVC025 M02/M06 A3026 RMK SC8 SLP262

CYHM;2008-01-16 22:00;CYHM 162200Z 19005KT 15SM OVC023 M01/M05 A3029 RMK SC8 SLP269

CYHM;2008-01-16 23:00;CYHM 162300Z 20006KT 15SM OVC022 M01/M05 A3029 RMK SC8 SLP271

CYHM;2008-01-17 00:00;CYHM 170000Z 19005KT 15SM OVC017 M01/M04 A3029 RMK SC8 SLP271

CYHM;2008-01-17 01:00;CYHM 170100Z 17004KT 15SM OVC025 M02/M03 A3027 RMK SC8 SLP264

CYHM;2008-01-17 02:00;CYHM 170200Z 20003KT 15SM OVC023 M01/M03 A3026 RMK SC8 SLP262

CYHM;2008-01-17 03:00;CYHM 170300Z 19004KT 15SM OVC024 M01/M04 A3025 RMK SC8 SLP257

CYHM;2008-01-17 04:00;CYHM 170400Z 18006KT 15SM OVC023 OVC140 M01/M05 A3025 RMK SC7AC1 SLP255

CYHM;2008-01-17 05:00;CYHM 170500Z 19006KT 15SM OVC021 M01/M05 A3024 RMK SC7 SLP252

CYHM;2008-01-17 06:00;CYHM 170600Z 16005KT 15SM FEW020 OVC140 M02/M05 A3020 RMK SC1AS6 SLP240

CYHM;2008-01-17 07:00;CYHM 170700Z 15003KT 15SM OVC130 M02/M05 A3020 RMK AS8 SLP239

CYHM;2008-01-17 08:00;CYHM 170800Z 16004KT 15SM OVC110 M02/M04 A3020 RMK AS8 SLP239

CYHM;2008-01-17 09:00;CYHM 170900Z 15004KT 15SM OVC120 M02/M04 A3017 RMK AS8 SLP228

CYHM;2008-01-17 10:00;CYHM 171000Z 12003KT 15SM OVC140 M02/M04 A3016 RMK AS8 SLP224

CYHM;2008-01-17 11:00;CYHM 171100Z 10004KT 15SM BKN170 M03/M05 A3012 RMK AS4 SLP212

CYHM;2008-01-17 12:00;CYHM 171200Z 10004KT 15SM FEW110 BKN140 M03/M05 A3010 RMK AC2AC3 SLP205

CYHM;2008-01-17 13:00;CYHM 171300Z 13004KT 15SM BKN090 OVC110 M03/M04 A3008 RMK AC6AC2 SLP198

CYHM;2008-01-17 14:00;CYHM 171400Z 15004KT 8SM BKN087 OVC100 M01/M04 A3007 RMK AC6AC2 SLP193

CYHM;2008-01-17 15:00;CYHM 171500Z 16005KT 15SM OVC090 M01/M03 A3006 RMK AC8 SLP190

CYHM;2008-01-17 16:00;CYHM 171600Z 20008KT 15SM BKN060 OVC084 00/M03 A3006 RMK SC7AC1 SLP189

CYHM;2008-01-17 17:00;CYHM 171700Z 21007KT 10SM BKN043 OVC058 01/M03 A3002 RMK SC6SC2 SLP177

CYHM;2008-01-17 18:00;CYHM 171800Z 18008KT 15SM BKN059 BKN085 02/M03 A2999 RMK SC6AS2 SLP164

CYHM;2008-01-17 19:00;CYHM 171900Z 17008KT 15SM FEW058 BKN064 OVC089 01/M03 A2995 RMK SC2SC4AC2 SLP151

CYHM;2008-01-17 20:00;CYHM 172000Z 17010KT 15SM FEW052 SCT100 OVC250 02/M02 A2991 RMK SC1AC3CI3 SLP140

CYHM;2008-01-17 21:00;CYHM 172100Z 17011KT 15SM SCT048 BKN091 OVC250 02/M04 A2988 RMK SC4AC2CI1 SLP129

CYHM;2008-01-17 22:00;CYHM 172200Z 16010KT 15SM OVC041 01/M02 A2987 RMK SC8 SLP123

CYHM;2008-01-17 23:00;CYHM 172300Z 16009KT 15SM -SHSN OVC033 01/M01 A2985 RMK SC8 SLP119

CYHM;2008-01-18 00:00;CYHM 180000Z 15008KT 10SM -SHSN OVC023 01/M01 A2982 RMK SC8 SLP110

CYHM;2008-01-18 01:00;CYHM 180100Z 15008KT 9SM -SHSN OVC019 01/M01 A2980 RMK SC8 SLP103

CYHM;2008-01-18 02:54;CYHM 180254Z 18013KT 8SM -SHRASN OVC007 RMK CF8

CYHM;2008-01-18 03:00;CYHM 180300Z 18012KT 8SM -SHRASN OVC007 01/01 A2973 RMK CF8 SLP076

CYHM;2008-01-18 04:00;CYHM 180400Z 19016G22KT 5SM -SHSN OVC008 01/01 A2971 RMK CF8 CIG RAG SLP069

CYHM;2008-01-18 05:00;CYHM 180500Z 19016G21KT 6SM -SHSN OVC005 02/01 A2967 RMK SF8 SLP058

CYHM;2008-01-18 06:00;CYHM 180600Z 20018G25KT 5SM -SHSN OVC008 02/02 A2964 RMK SF8 SLP046

CYHM;2008-01-18 07:00;CYHM 180700Z 23020G30KT 5SM -SHSN OVC012 01/01 A2964 RMK SC8 SLP045

CYHM;2008-01-18 08:00;CYHM 180800Z 23022G29KT 6SM -SHSN SCT007 OVC018 02/00 A2964 RMK CF3SC5 SLP046

CYHM;2008-01-18 08:13;CYHM 180813Z 24022G30KT 15SM FEW015 SCT090 BKN110 RMK CF2AC2AC2

CYHM;2008-01-18 09:00;CYHM 180900Z 23023G33KT 15SM SCT020 SCT120 BKN200 00/M03 A2967 RMK CF3AC1CI2 SLP054

CYHM;2008-01-18 10:00;CYHM 181000Z 25020G32KT 15SM SCT025 M02/M07 A2971 RMK CF3 SLP069

CYHM;2008-01-18 11:00;CYHM 181100Z 24025G34KT 15SM FEW030 M03/M09 A2975 RMK CF1 SLP082

CYHM;2008-01-18 12:00;CYHM 181200Z 26020G29KT 15SM BKN032 M04/M09 A2980 RMK SC6 SLP101

CYHM;2008-01-18 12:53;CYHM 181253Z 26022KT 15SM -SHSN BKN025 RMK SC7

CYHM;2008-01-18 13:00;CYHM 181300Z 25018G24KT 15SM -SHSN BKN024 M05/M09 A2983 RMK SC7 SLP113

CYHM;2008-01-18 14:00;CYHM 181400Z 24025G31KT 8SM -SHSN SCT025 BKN036 M05/M10 A2986 RMK SC3SC3 SLP123

CYHM;2008-01-18 15:00;CYHM 181500Z 23023G31KT 15SM FEW034 M05/M11 A2987 RMK SC1 SLP124

CYHM;2008-01-18 16:00;CYHM 181600Z 23027G34KT 15SM BKN030 BKN250 M05/M11 A2990 RMK SC6CI1 SLP135

CYHM;2008-01-18 17:00;CYHM 181700Z 24024G34KT 15SM BKN032 M05/M11 A2991 RMK SC7 SLP137

CYHM;2008-01-18 18:00;CYHM 181800Z 25018G24KT 15SM FEW032 BKN250 M04/M11 A2991 RMK SC2CI1 SLP138

CYHM;2008-01-18 19:00;CYHM 181900Z 23018G26KT 15SM FEW036 M04/M12 A2991 RMK SC2 SLP140

CYHM;2008-01-18 20:00;CYHM 182000Z 24016G22KT 15SM FEW032 SCT042 M03/M12 A2993 RMK CU2SC2 SLP146

CYHM;2008-01-18 21:00;CYHM 182100Z 25015KT 15SM FEW032 FEW038 M04/M12 A2995 RMK CU1SC2 SLP152

CYHM;2008-01-18 22:00;CYHM 182200Z 24014KT 15SM FEW035 M04/M12 A2996 RMK SC2 CU ASOCTD SLP157

CYHM;2008-01-18 23:00;CYHM 182300Z 24008KT 15SM FEW036 FEW240 M05/M11 A2997 RMK SC1CI0 SLP161

CYHM;2008-01-19 00:00;CYHM 190000Z 24014KT 15SM FEW036 FEW240 M05/M12 A2999 RMK CU1CI1 CU TR CI TR SLP169

CYHM;2008-01-19 01:00;CYHM 190100Z 24014KT 15SM FEW210 M05/M12 A2999 RMK CI2 SLP168

CYHM;2008-01-19 02:00;CYHM 190200Z 24016KT 14SM FEW180 SCT220 M05/M11 A2998 RMK AC1CI2 SLP165

CYHM;2008-01-19 03:00;CYHM 190300Z 24010KT 15SM FEW210 M05/M11 A2998 RMK CI1 SLP164

CYHM;2008-01-19 04:00;CYHM 190400Z 23012KT 15SM BKN160 M04/M10 A2997 RMK AC4 SLP163

CYHM;2008-01-19 05:00;CYHM 190500Z 23010KT 15SM FEW080 SCT200 M05/M09 A2997 RMK AC1CS2 HALO SLP160

CYHM;2008-01-19 06:00;CYHM 190600Z 23012KT 15SM BKN050 M04/M09 A2995 RMK SC7 SLP154

CYHM;2008-01-19 07:00;CYHM 190700Z 23011KT 15SM FEW030 FEW100 SCT130 M04/M08 A2993 RMK SC1AC1AC1 SLP149

CYHM;2008-01-19 07:27;CYHM 190727Z 23011KT 5SM -SHSN BKN020 RMK SC7

CYHM;2008-01-19 08:00;CYHM 190800Z 23010KT 6SM -SHSN OVC035 M04/M06 A2993 RMK SC8 SLP147

CYHM;2008-01-19 09:00;CYHM 190900Z 23011KT 3SM -SHSN OVC020 M04/M05 A2991 RMK SC8 VIS VRB 2 - 4 SLP142

CYHM;2008-01-19 10:00;CYHM 191000Z 23013KT 10SM -SHSN FEW014 OVC053 M03/M06 A2991 RMK CF1SC7 SLP140

CYHM;2008-01-19 10:19;CYHM 191019Z 24012KT 15SM OVC057 RMK SC8

CYHM;2008-01-19 11:00;CYHM 191100Z 24013KT 15SM OVC064 M03/M07 A2991 RMK SC8 SLP139

CYHM;2008-01-19 11:55;CYHM 191155Z 26020KT 5/8SM -SHSN VV003 RMK SN8

CYHM;2008-01-19 12:00;CYHM 191200Z 26018G24KT 1SM -SHSN VV005 M05/M06 A2993 RMK SN8 SLP148

CYHM;2008-01-19 12:09;CYHM 191209Z 27014G24KT 2 1/2SM -SHSN FEW012 OVC048 RMK CF1SC7

CYHM;2008-01-19 12:16;CYHM 191216Z 27019G25KT 7SM -SHSN FEW012 SCT018 OVC038 RMK CF1SC2SC5

CYHM;2008-01-19 13:00;CYHM 191300Z 26012G20KT 15SM -SHSN FEW017 BKN028 BKN053 M06/M09 A2994 RMK CF2SC5SC1 PCPN VRY LGT SLP153

CYHM;2008-01-19 13:27;CYHM 191327Z 27018KT 15SM FEW028 FEW054 RMK SC1SC1 TR SC AT 5400

CYHM;2008-01-19 14:00;CYHM 191400Z 28016KT 15SM FEW028 FEW054 M07/M12 A2995 RMK SC1SC1 BOTH LYRS TR SLP155

CYHM;2008-01-19 15:00;CYHM 191500Z 26018KT 15SM SCT028 SCT055 M07/M13 A2997 RMK CU3SC1 SLP162

CYHM;2008-01-19 16:00;CYHM 191600Z 26017KT 15SM BKN025 M07/M12 A2999 RMK CU5 SLP170

CYHM;2008-01-19 17:00;CYHM 191700Z 27018KT 15SM BKN036 M07/M14 A2997 RMK SC6 SLP163

CYHM;2008-01-19 18:00;CYHM 191800Z 26018KT 15SM BKN036 BKN250 M07/M14 A2997 RMK SC7CI1 SLP161

CYHM;2008-01-19 19:00;CYHM 191900Z 26017G24KT 210V310 15SM VCSH BKN037 BKN250 M07/M15 A2997 RMK SC7CI1 SLP163

CYHM;2008-01-19 19:22;CYHM 191922Z 27017KT 10SM -SHSN BKN036 BKN048 RMK SC6SC2

CYHM;2008-01-19 20:00;CYHM 192000Z 28015KT 12SM -SHSN FEW028 BKN036 BKN250 M07/M14 A2998 RMK CU2SC5CI1 CI TR PCPN VRY LGT SLP166

CYHM;2008-01-19 21:00;CYHM 192100Z 28015G20KT 15SM VCSH FEW028 BKN038 M08/M16 A2999 RMK CU2SC4 SLP169

CYHM;2008-01-19 22:00;CYHM 192200Z 27014KT 15SM VCSH FEW028 BKN039 M09/M15 A2999 RMK CU2SC3 SLP170

CYHM;2008-01-19 23:00;CYHM 192300Z 28012G17KT 15SM FEW028 SCT040 M10/M15 A3002 RMK SC1SC2 SLP178

CYHM;2008-01-20 00:00;CYHM 200000Z 27011KT 15SM FEW030 M11/M16 A3003 RMK SC1 SLP183

CYHM;2008-01-20 01:00;CYHM 200100Z 27009KT 15SM FEW030 M11/M15 A3004 RMK SC1 SLP186

CYHM;2008-01-20 02:00;CYHM 200200Z 26010KT 15SM FEW030 M12/M16 A3005 RMK SC1 SLP190

CYHM;2008-01-20 03:00;CYHM 200300Z 26012KT 15SM FEW030 M12/M16 A3005 RMK SC1 SC TR SLP191

CYHM;2008-01-20 04:00;CYHM 200400Z 25013G18KT 15SM SKC M12/M16 A3004 RMK SLP190

CYHM;2008-01-20 05:00;CYHM 200500Z 25014KT 15SM SKC M12/M15 A3004 RMK SLP188

CYHM;2008-01-20 06:00;CYHM 200600Z 27015KT 15SM FEW220 M13/M16 A3003 RMK CI1 SLP184

CYHM;2008-01-20 07:00;CYHM 200700Z 25013G18KT 15SM FEW030 M13/M17 A3003 RMK CF1 SLP184

CYHM;2008-01-20 08:00;CYHM 200800Z 26013KT 15SM SKC M14/M17 A3003 RMK SLP186

CYHM;2008-01-20 09:00;CYHM 200900Z 25015KT 15SM SKC M14/M18 A3004 RMK SLP190

CYHM;2008-01-20 10:00;CYHM 201000Z 25014KT 15SM FEW220 M14/M18 A3006 RMK CI1 SLP195

CYHM;2008-01-20 11:00;CYHM 201100Z 25013G19KT 15SM SKC M15/M18 A3007 RMK SLP200

CYHM;2008-01-20 12:00;CYHM 201200Z 25014G19KT 15SM FEW025 M15/M18 A3009 RMK SC1 SLP209

CYHM;2008-01-20 13:00;CYHM 201300Z 25016G22KT 15SM FEW025 M15/M18 A3011 RMK CU1 SLP215

CYHM;2008-01-20 14:00;CYHM 201400Z 25018KT 15SM FEW025 M14/M18 A3013 RMK CU1 SLP222

CYHM;2008-01-20 15:00;CYHM 201500Z 26017G22KT 15SM FEW025 M13/M17 A3016 RMK CU1 SLP232

CYHM;2008-01-20 16:00;CYHM 201600Z 25020G26KT 15SM FEW027 M12/M18 A3018 RMK CU1 SLP239

CYHM;2008-01-20 17:00;CYHM 201700Z 25022G27KT 15SM FEW028 M11/M17 A3018 RMK CU2 SLP239

CYHM;2008-01-20 18:00;CYHM 201800Z 25016G26KT 15SM BKN031 M11/M18 A3019 RMK CU6 SLP242

CYHM;2008-01-20 19:00;CYHM 201900Z 26022G29KT 15SM BKN029 M10/M17 A3020 RMK CU6 SLP244

CYHM;2008-01-20 20:00;CYHM 202000Z 27020G27KT 15SM VCSH SCT030 M10/M18 A3022 RMK CU4 SLP251

CYHM;2008-01-20 21:00;CYHM 202100Z 25021G29KT 15SM VCSH SCT032 M11/M18 A3025 RMK CU4 SLP261

CYHM;2008-01-20 22:00;CYHM 202200Z 26019G26KT 15SM FEW025 SCT034 M12/M17 A3028 RMK CU2SC2 VIRGA SLP272

CYHM;2008-01-20 23:00;CYHM 202300Z 25019KT 15SM FEW030 M12/M18 A3032 RMK SC2 CU ASOCTD SLP284

CYHM;2008-01-21 00:00;CYHM 210000Z 25017KT 15SM FEW030 M12/M18 A3034 RMK SC1 SC TR SLP294

CYHM;2008-01-21 01:00;CYHM 210100Z 24015G20KT 15SM FEW030 M12/M17 A3037 RMK SC1 SC TR SLP303

CYHM;2008-01-21 02:00;CYHM 210200Z 24013KT 15SM FEW030 M12/M17 A3039 RMK SC1 SC TR SLP310

CYHM;2008-01-21 03:00;CYHM 210300Z CCA 24013KT 15SM FEW030 M12/M17 A3040 RMK SC1 SC TR SLP315

CYHM;2008-01-21 04:00;CYHM 210400Z 24013KT 15SM SKC M12/M16 A3042 RMK SLP320

CYHM;2008-01-21 05:00;CYHM 210500Z 25014KT 15SM FEW220 M13/M16 A3044 RMK CI1 SLP328

CYHM;2008-01-21 06:00;CYHM 210600Z 24015G21KT 15SM SKC M13/M17 A3046 RMK SLP333

CYHM;2008-01-21 07:00;CYHM 210700Z 25013KT 15SM FEW220 M13/M17 A3048 RMK CI1 SLP340

CYHM;2008-01-21 08:00;CYHM 210800Z 25013KT 15SM SKC M13/M18 A3050 RMK SLP348

CYHM;2008-01-21 09:00;CYHM 210900Z 25010KT 15SM FEW025 FEW220 M13/M18 A3051 RMK SC1CI1 TR SC SLP352

CYHM;2008-01-21 10:00;CYHM 211000Z 24009KT 15SM FEW025 M14/M18 A3053 RMK SC1 SLP358

CYHM;2008-01-21 11:00;CYHM 211100Z 23008KT 15SM FEW025 M14/M19 A3055 RMK SC2 SLP365

CYHM;2008-01-21 12:00;CYHM 211200Z 22008KT 15SM BKN030 M14/M18 A3058 RMK SC6 SLP374

CYHM;2008-01-21 13:00;CYHM 211300Z 22012KT 15SM BKN032 M13/M17 A3060 RMK SC6 SLP382

CYHM;2008-01-21 14:00;CYHM 211400Z 23015KT 15SM BKN032 M12/M17 A3061 RMK SC6 SLP384

CYHM;2008-01-21 15:00;CYHM 211500Z 24013KT 15SM BKN032 M11/M17 A3062 RMK SC6 SLP390

CYHM;2008-01-21 16:00;CYHM 211600Z 23014KT 15SM FEW029 FEW038 SCT110 BKN240 M10/M17 A3062 RMK CU1SC2AC1CI1 CONTRAIL SLP389

CYHM;2008-01-21 17:00;CYHM 211700Z 26014KT 15SM FEW028 BKN036 M09/M16 A3060 RMK CU2SC3 SLP383

CYHM;2008-01-21 18:00;CYHM 211800Z 25013G18KT 15SM FEW028 FEW036 SCT220 M09/M16 A3057 RMK CU1SC1CI1 SLP370

CYHM;2008-01-21 19:00;CYHM 211900Z 25017KT 15SM FEW026 SCT034 BKN220 M08/M17 A3054 RMK CU2SC2CI2 SLP359

CYHM;2008-01-21 20:00;CYHM 212000Z 24013KT 15SM FEW034 BKN250 M07/M16 A3051 RMK CU1CS2 CU TR SLP351

CYHM;2008-01-21 21:00;CYHM 212100Z 24012KT 15SM FEW034 FEW080 BKN150 BKN250 M07/M16 A3050 RMK CU1AC1AS2CS1 CU TR CONTRAILS SLP348

CYHM;2008-01-21 22:00;CYHM 212200Z 24011KT 15SM FEW030 FEW050 SCT080 BKN250 M08/M15 A3050 RMK CU1ST1AS2CS1 CU TR CONTRAILS SLP346

CYHM;2008-01-21 23:00;CYHM 212300Z 22009KT 10SM -SHSN BKN044 BKN100 OVC250 M08/M12 A3049 RMK ST5AS1CS1 SLP342

CYHM;2008-01-22 00:00;CYHM 220000Z 20007KT 4SM -SHSN BKN022 OVC044 M08/M09 A3047 RMK ST5ST2 SLP338

CYHM;2008-01-22 01:00;CYHM 220100Z 21011KT 12SM -SHSN FEW054 BKN078 M08/M09 A3044 RMK SC1AC6 SLP326

CYHM;2008-01-22 01:50;CYHM 220150Z 22006KT 15SM BKN160 RMK AC7

CYHM;2008-01-22 02:00;CYHM 220200Z 22006KT 15SM BKN160 M08/M10 A3040 RMK AC7 SLP315

CYHM;2008-01-22 03:00;CYHM 220300Z 17007KT 15SM SCT160 M08/M11 A3033 RMK AC4 SLP287

CYHM;2008-01-22 04:00;CYHM 220400Z 02003KT 15SM BKN070 BKN130 BKN250 M10/M12 A3033 RMK AC6AC1CI1 SLP288

CYHM;2008-01-22 05:00;CYHM 220500Z 07004KT 15SM FEW074 SCT110 BKN250 M10/M12 A3029 RMK AC2AC1CI1 SLP273

CYHM;2008-01-22 06:00;CYHM 220600Z 34004KT 15SM BKN078 M09/M11 A3024 RMK AC7 SLP257

CYHM;2008-01-22 07:00;CYHM 220700Z 09003KT 15SM FEW073 BKN084 BKN250 M07/M11 A3020 RMK AC2AC4CI1 SLP243

CYHM;2008-01-22 08:00;CYHM 220800Z 04002KT 15SM BKN070 OVC082 M08/M10 A3017 RMK AC6AC2 SLP232

CYHM;2008-01-22 09:00;CYHM 220900Z 09003KT 15SM BKN070 OVC120 M07/M10 A3011 RMK AC6AC2 SLP211

CYHM;2008-01-22 10:00;CYHM 221000Z 15004KT 15SM FEW072 BKN100 OVC150 M07/M10 A3004 RMK AC2AC4AC2 SLP189

CYHM;2008-01-22 11:00;CYHM 221100Z 15002KT 15SM BKN078 OVC120 M06/M10 A3000 RMK AS6AC1 SLP174

CYHM;2008-01-22 12:00;CYHM 221200Z 16002KT 15SM BKN039 OVC060 M05/M09 A2997 RMK SC6SC2 SLP165

CYHM;2008-01-22 12:24;CYHM 221224Z CCA 21008KT 6SM -SHSN BKN017 OVC032 RMK SC6SC2

CYHM;2008-01-22 12:35;CYHM 221235Z 20008KT 1SM -SHSN BKN006 OVC019 RMK SN2SF5SC2

CYHM;2008-01-22 12:44;CYHM 221244Z 21010KT 3/4SM -SHSN BR BKN005 OVC015 RMK SN2SF5SC1

CYHM;2008-01-22 13:00;CYHM 221300Z 21008KT 1/2SM -SHSN FZFG BKN004 OVC013 M05/M06 A2994 RMK SN3SF4SC1 SLP153

CYHM;2008-01-22 13:23;CYHM 221323Z 22010KT 1/2SM SHSN FZFG BKN003 OVC010 RMK SN4SF3SC1

CYHM;2008-01-22 13:39;CYHM 221339Z 22008KT 1/2SM -SHSN FZFG BKN006 OVC019 RMK SN2SF5SC2

CYHM;2008-01-22 13:48;CYHM 221348Z 22008KT 1SM -SHSN BR BKN009 OVC025 RMK SN1SF5SC2

CYHM;2008-01-22 14:00;CYHM 221400Z 22009KT 1 3/4SM -SHSN BR BKN012 OVC032 M04/M05 A2991 RMK SN1SF5SC2 /S02/ SLP143

CYHM;2008-01-22 14:14;CYHM 221414Z 22010KT 3SM -SHSN BR FEW010 BKN017 OVC032 RMK SF2SC4SC2

CYHM;2008-01-22 15:00;CYHM 221500Z 22014KT 4SM -SN BR BKN010 OVC028 M03/M04 A2989 RMK SC5SC3 SLP134

CYHM;2008-01-22 15:12;CYHM 221512Z 22015KT 2SM -SN BR BKN008 OVC018 RMK SF6SC2

CYHM;2008-01-22 15:21;CYHM 221521Z 23015KT 1 3/4SM -SN BR SCT010 BKN015 OVC019 RMK SN1SF3SC3SC1

CYHM;2008-01-22 16:00;CYHM 221600Z 22016KT 2 1/2SM -SN BR BKN008 OVC015 M02/M03 A2987 RMK SF6SC2 SLP128

CYHM;2008-01-22 16:26;CYHM 221626Z 22016KT 2SM -SN BR SCT010 BKN016 OVC022 RMK SF4SC3SC1

CYHM;2008-01-22 17:00;CYHM 221700Z 24018KT 1 1/2SM -SN BR BKN009 OVC016 M01/M02 A2983 RMK SN1SF4SC3 SLP116

CYHM;2008-01-22 18:00;CYHM 221800Z 22018KT 1 1/2SM -SN BR BKN009 BKN013 OVC019 M01/M02 A2979 RMK SN1SF4SC2SC1 SLP100

CYHM;2008-01-22 19:00;CYHM 221900Z 23017G22KT 1 1/2SM -SN BR BKN008 BKN017 OVC022 M01/M01 A2976 RMK SN1SF5SC2SC1 SLP092

CYHM;2008-01-22 20:00;CYHM 222000Z 23016G24KT 2SM -SN BKN009 OVC026 M01/M01 A2975 RMK SC6SC2 SF ASOCTD SLP086

CYHM;2008-01-22 21:00;CYHM 222100Z 23015G23KT 2SM -SN BKN009 OVC020 M01/M01 A2975 RMK SC5SC3 SF ASOCTD SLP084

CYHM;2008-01-22 21:25;CYHM 222125Z 27020G38KT 1/2SM -SN BLSN BKN008 OVC022 RMK SN3SC4SC1 VSBY VRBL 3/8-5/8 SM

CYHM;2008-01-22 22:00;CYHM 222200Z 28016G25KT 5/8SM -SN BLSN BKN008 OVC026 M03/M04 A2978 RMK SN2SC2SC3 VSBY VRBL 1/4-1 SM SF ASOCTD SLP096

CYHM;2008-01-22 22:11;CYHM 222211Z 25012G22KT 5SM -SN FEW012 SCT024 BKN045 RMK SF2SC2SC3

CYHM;2008-01-22 23:00;CYHM 222300Z 27010KT 12SM -SN BKN018 BKN080 BKN094 M04/M06 A2982 RMK SC5AC1AC2 SLP109

CYHM;2008-01-22 23:50;CYHM 222350Z 28014G20KT 15SM FEW024 FEW080 RMK SC2AC1 AC TR

CYHM;2008-01-23 00:00;CYHM 230000Z 28012G18KT 15SM FEW024 FEW080 M05/M10 A2987 RMK SC2AC1 AC TR SLP128

CYHM;2008-01-23 01:00;CYHM 230100Z 26013KT 15SM FEW024 M06/M11 A2990 RMK SC1 SLP139

CYHM;2008-01-23 02:00;CYHM 230200Z 24012KT 15SM SCT034 M07/M10 A2992 RMK SC4 SLP144

CYHM;2008-01-23 03:00;CYHM 230300Z 24014KT 15SM FEW034 M08/M11 A2992 RMK SC1 SC TR SLP145

CYHM;2008-01-23 04:00;CYHM 230400Z 23014KT 15SM SKC M08/M12 A2992 RMK SLP145

CYHM;2008-01-23 05:00;CYHM 230500Z 24014KT 15SM SKC M09/M13 A2992 RMK SLP144

CYHM;2008-01-23 06:00;CYHM 230600Z 24012KT 15SM BKN025 M09/M13 A2992 RMK SC6 SLP144

CYHM;2008-01-23 07:00;CYHM 230700Z 24014G20KT 15SM BKN030 M09/M13 A2991 RMK SC6 SLP142

CYHM;2008-01-23 08:00;CYHM 230800Z 23015G22KT 15SM SCT032 BKN100 M09/M12 A2990 RMK SC3AC1 SLP138

CYHM;2008-01-23 09:00;CYHM 230900Z 24015G22KT 15SM FEW034 BKN087 M09/M13 A2989 RMK SC2AC3 SLP133

CYHM;2008-01-23 10:00;CYHM 231000Z 24012G19KT 15SM FEW034 BKN076 M09/M13 A2990 RMK SC1AC4 SC TR SLP136

CYHM;2008-01-23 11:00;CYHM 231100Z 24013KT 15SM FEW036 BKN076 BKN110 M09/M13 A2991 RMK SC2AC3AC1 SLP140

CYHM;2008-01-23 12:00;CYHM 231200Z 25015KT 15SM BKN020 BKN039 BKN098 M10/M13 A2993 RMK SC5SC1AC1 SLP150

CYHM;2008-01-23 13:00;CYHM 231300Z 25014KT 15SM BKN039 M10/M13 A2996 RMK SC7 SLP159

CYHM;2008-01-23 14:00;CYHM 231400Z 25012KT 15SM OVC037 M09/M13 A2998 RMK SC8 SLP166

CYHM;2008-01-23 15:00;CYHM 231500Z 24014KT 15SM FEW029 SCT037 BKN110 M09/M12 A2999 RMK CU1SC3AC2 SLP170

CYHM;2008-01-23 16:00;CYHM 231600Z 25014KT 15SM FEW021 SCT036 BKN110 M08/M12 A3000 RMK CU2SC2AC2 SLP174

CYHM;2008-01-23 17:00;CYHM 231700Z CCA 25012KT 15SM FEW026 BKN045 BKN140 M08/M13 A2999 RMK CU2SC2AC1 SLP172

CYHM;2008-01-23 17:09;CYHM 231709Z 25014KT 15SM -SHSN FEW021 BKN029 BKN120 RMK CU2SC3AC1

CYHM;2008-01-23 18:00;CYHM 231800Z 25014KT 15SM -SHSN FEW020 BKN028 BKN100 M08/M13 A2999 RMK CU2SC5AC1 SLP172

CYHM;2008-01-23 19:00;CYHM 231900Z 26014KT 15SM FEW020 BKN028 BKN100 M08/M13 A3000 RMK CU2SC3AC1 SLP173

CYHM;2008-01-23 20:00;CYHM 232000Z 25010KT 15SM -SHSN FEW024 BKN250 M08/M13 A3000 RMK SC2CS2 SUN DMLY VSBL HALO SLP174

CYHM;2008-01-23 21:00;CYHM 232100Z 24011KT 15SM -SHSN FEW028 FEW100 OVC250 M08/M13 A3001 RMK SC2AC1CS5 SUN DMLY VSBL AC TR SLP176

CYHM;2008-01-23 22:00;CYHM 232200Z 24009KT 15SM -SHSN FEW030 SCT100 BKN250 M08/M13 A3001 RMK SC1AS2CS2 SLP179

CYHM;2008-01-23 22:42;CYHM 232242Z 24010KT 15SM FEW070 BKN080 OVC120 RMK AS2AS5AS1

CYHM;2008-01-23 23:00;CYHM 232300Z 24010KT 15SM BKN076 OVC110 M09/M14 A3002 RMK AS6AS2 SLP182

CYHM;2008-01-23 23:43;CYHM 232343Z CCA 24007KT 12SM -SHSN BKN038 RMK ST6

CYHM;2008-01-24 00:00;CYHM 240000Z 25005KT 12SM -SHSN BKN044 BKN060 M09/M12 A3001 RMK ST5ST2 SLP180

CYHM;2008-01-24 01:00;CYHM 240100Z 24005KT 12SM -SHSN BKN042 BKN062 M10/M12 A3002 RMK ST5ST2 SLP181

CYHM;2008-01-24 02:00;CYHM 240200Z 26006KT 12SM -SHSN FEW018 BKN030 BKN084 M10/M11 A3001 RMK SF1ST5AS1 SLP179

CYHM;2008-01-24 03:00;CYHM 240300Z CCA 25004KT 15SM -SHSN BKN072 M10/M11 A3001 RMK AS4 SLP178

CYHM;2008-01-24 04:00;CYHM 240400Z 23003KT 10SM -SHSN OVC045 M10/M11 A2999 RMK SC7 SLP173

CYHM;2008-01-24 05:00;CYHM 240500Z 21003KT 8SM -SHSN OVC050 M11/M12 A2998 RMK SC7 SLP168

CYHM;2008-01-24 06:00;CYHM 240600Z 20003KT 5SM -SHSN OVC030 M10/M11 A2996 RMK SC7 SLP162

CYHM;2008-01-24 07:00;CYHM 240700Z 20003KT 2SM -SHSN OVC015 M10/M11 A2997 RMK SN1SC6 SLP164

CYHM;2008-01-24 07:36;CYHM 240736Z 20003KT 3SM -SHSN OVC020 RMK SC7 VIS VRB 2 - 4

CYHM;2008-01-24 08:00;CYHM 240800Z 20004KT 3SM -SHSN OVC020 M10/M11 A2997 RMK SC7 VIS VRB 2 - 4 SLP165

CYHM;2008-01-24 09:00;CYHM 240900Z 19003KT 4SM -SHSN OVC030 M10/M11 A2995 RMK SC7 /S01/ SLP157

CYHM;2008-01-24 10:00;CYHM 241000Z 19003KT 5SM -SHSN OVC030 M10/M11 A2994 RMK SC7 SLP156

CYHM;2008-01-24 11:00;CYHM 241100Z 21003KT 7SM -SHSN BKN040 M11/M12 A2995 RMK SC6 SLP158

CYHM;2008-01-24 12:00;CYHM 241200Z 24004KT 6SM -SHSN BR FEW029 SCT140 M11/M12 A2997 RMK SC2AC2 SLP166

CYHM;2008-01-24 12:15;CYHM 241215Z 25004KT 6SM BR FEW029 SCT130 RMK SC1AC2

CYHM;2008-01-24 13:00;CYHM 241300Z 26005KT 5SM BR FEW056 BKN110 M11/M12 A2999 RMK SC2AC2 SLP171

CYHM;2008-01-24 14:00;CYHM 241400Z 25005KT 4SM BR FEW045 FEW110 M11/M12 A3001 RMK SC1AC2 SC TR SLP179

CYHM;2008-01-24 15:00;CYHM 241500Z 28005KT 6SM BR FEW045 FEW110 FEW220 M10/M11 A3003 RMK SC1AC1CI1 SC TR AC TR SLP186

CYHM;2008-01-24 16:00;CYHM 241600Z 29005KT 8SM FEW025 FEW150 FEW220 M08/M11 A3006 RMK CU1AC1CI1 CU TR AC TR CONTRAIL SLP194

CYHM;2008-01-24 16:52;CYHM 241652Z 29008KT 15SM -SHSN FEW025 BKN032 BKN210 RMK CU2SC4CI1

CYHM;2008-01-24 17:00;CYHM 241700Z 27007KT 15SM FEW025 BKN032 BKN220 M07/M11 A3005 RMK CU2SC5CI1 SLP193

CYHM;2008-01-24 18:00;CYHM 241800Z 29006KT 3SM -SHSN FEW010 SCT017 OVC034 M07/M10 A3006 RMK SF2SC2SC4 SLP195

CYHM;2008-01-24 18:23;CYHM 241823Z 32007KT 15SM FEW023 BKN062 BKN210 RMK CU2SC2CI1

CYHM;2008-01-24 18:48;CYHM 241848Z 30006KT 15SM -SHSN SCT025 BKN062 RMK CU3SC2

CYHM;2008-01-24 19:00;CYHM 241900Z 32005KT 15SM -SHSN FEW020 BKN029 BKN210 M07/M11 A3007 RMK CU2SC2CI1 SLP197

CYHM;2008-01-24 19:44;CYHM 241944Z 33007KT 15SM FEW025 RMK CU2

CYHM;2008-01-24 20:00;CYHM 242000Z 32007KT 15SM FEW030 M06/M14 A3010 RMK CU2 SLP207

CYHM;2008-01-24 21:00;CYHM 242100Z 32009KT 15SM FEW036 M06/M16 A3013 RMK CU1 SLP217

CYHM;2008-01-24 22:00;CYHM 242200Z 29006KT 15SM FEW036 FEW052 M07/M16 A3016 RMK CU1SC1 CU TR SLP229

CYHM;2008-01-24 23:00;CYHM 242300Z 29005KT 15SM BKN047 M08/M15 A3020 RMK SC7 SLP240

CYHM;2008-01-25 00:00;CYHM 250000Z 27007KT 15SM BKN045 M08/M15 A3022 RMK SC7 SLP251

CYHM;2008-01-25 01:00;CYHM 250100Z 24006KT 15SM FEW048 M10/M16 A3024 RMK SC2 SLP256

CYHM;2008-01-25 02:00;CYHM 250200Z 25007KT 15SM BKN041 M09/M15 A3024 RMK SC7 SLP258

CYHM;2008-01-25 03:00;CYHM 250300Z 24007KT 15SM FEW040 M11/M14 A3025 RMK SC1 SLP260

CYHM;2008-01-25 04:00;CYHM 250400Z 24009KT 15SM FEW040 M11/M14 A3025 RMK SC1 SLP262

CYHM;2008-01-25 05:00;CYHM 250500Z 25011KT 15SM FEW030 M11/M14 A3027 RMK SC1 SLP267

CYHM;2008-01-25 06:00;CYHM 250600Z 25013KT 15SM BKN027 M11/M15 A3028 RMK SC6 SLP269

CYHM;2008-01-25 07:00;CYHM 250700Z 25015KT 15SM FEW025 M11/M15 A3028 RMK SC2 SLP270

CYHM;2008-01-25 08:00;CYHM 250800Z 25014KT 15SM BKN130 M12/M15 A3030 RMK AC6 SLP277

CYHM;2008-01-25 09:00;CYHM 250900Z 25013KT 15SM FEW120 M13/M16 A3030 RMK AC2 SLP278

CYHM;2008-01-25 10:00;CYHM 251000Z 25014KT 15SM FEW120 FEW210 M13/M16 A3031 RMK AC1CI1 SLP280

CYHM;2008-01-25 11:00;CYHM 251100Z 23015G20KT 15SM FEW210 M13/M16 A3030 RMK CI1 SLP278

CYHM;2008-01-25 12:00;CYHM 251200Z CCA 25016KT 15SM FEW020 FEW220 M13/M16 A3029 RMK CU1CI1 CU TR CI TR SLP276

CYHM;2008-01-25 13:00;CYHM 251300Z 26015KT 15SM FEW025 FEW220 M13/M15 A3030 RMK CU1CI1 CU TR CI TR SLP278

CYHM;2008-01-25 14:00;CYHM 251400Z 25018KT 15SM FEW025 FEW120 FEW220 M12/M15 A3030 RMK CU1AC1CI1 CU TR SLP277

CYHM;2008-01-25 15:00;CYHM 251500Z 26021G26KT 15SM FEW025 FEW220 M11/M14 A3030 RMK CU1CI0 SLP278

CYHM;2008-01-25 16:00;CYHM 251600Z 25022KT 15SM FEW025 FEW220 M10/M14 A3030 RMK CU1CI1 CU TR CI TR SLP278

CYHM;2008-01-25 17:00;CYHM 251700Z 25024KT 15SM FEW025 M10/M14 A3028 RMK CU1 CU TR SLP273

CYHM;2008-01-25 18:00;CYHM 251800Z 25022KT 15SM FEW025 M09/M14 A3026 RMK CU1 SLP264

CYHM;2008-01-25 19:00;CYHM 251900Z 25022G28KT 15SM FEW025 FEW240 M08/M14 A3025 RMK CU1CI1 SLP262

CYHM;2008-01-25 20:00;CYHM 252000Z 24020KT 15SM FEW025 FEW250 M08/M14 A3025 RMK CU1CI1 BOTH LYRS TR SLP262

CYHM;2008-01-25 21:00;CYHM 252100Z 25017KT 15SM FEW025 FEW250 M08/M14 A3026 RMK CU1CI1 BOTH LYRS TR SLP265

CYHM;2008-01-25 22:00;CYHM 252200Z 25016KT 15SM FEW025 FEW240 M08/M14 A3026 RMK CU1CC1 CU TR SLP266

CYHM;2008-01-25 23:00;CYHM 252300Z 24014KT 15SM FEW240 M09/M14 A3026 RMK CI1 SLP263

CYHM;2008-01-26 00:00;CYHM 260000Z 24015KT 15SM FEW250 M09/M13 A3025 RMK CI1 SLP262

CYHM;2008-01-26 01:00;CYHM 260100Z CCA 24013KT 15SM SCT220 M10/M13 A3026 RMK CI2 SLP265

CYHM;2008-01-26 02:00;CYHM 260200Z 25010KT 15SM SCT210 M10/M14 A3025 RMK CI3 SLP263

CYHM;2008-01-26 03:00;CYHM 260300Z 24006KT 15SM FEW210 M10/M15 A3025 RMK CI1 SLP261

CYHM;2008-01-26 04:00;CYHM 260400Z 21006KT 15SM BKN160 M11/M15 A3026 RMK AS6 SLP263

CYHM;2008-01-26 05:00;CYHM 260500Z 22005KT 15SM FEW160 BKN220 M12/M16 A3025 RMK AC2CI5 SLP260

CYHM;2008-01-26 06:00;CYHM 260600Z 23007KT 15SM FEW160 BKN210 M11/M15 A3024 RMK AC2CI2 SLP258

CYHM;2008-01-26 07:00;CYHM 260700Z 25008KT 15SM FEW140 SCT200 M10/M15 A3023 RMK AC1CS2 HALO SLP254

CYHM;2008-01-26 08:00;CYHM 260800Z 27005KT 15SM BKN150 BKN240 M11/M16 A3023 RMK AC5CI1 SLP253

CYHM;2008-01-26 09:00;CYHM 260900Z 26005KT 15SM BKN150 M10/M15 A3021 RMK AC7 SLP248

CYHM;2008-01-26 10:00;CYHM 261000Z 25004KT 15SM OVC120 M10/M15 A3020 RMK AC7 SLP242

CYHM;2008-01-26 11:00;CYHM 261100Z 28006KT 15SM OVC100 M10/M15 A3020 RMK AC7 SLP242

CYHM;2008-01-26 12:00;CYHM 261200Z 22005KT 15SM OVC092 M10/M14 A3019 RMK AC7 SLP241

CYHM;2008-01-26 13:00;CYHM 261300Z 22006KT 15SM OVC096 M10/M14 A3018 RMK AC7 SLP237

CYHM;2008-01-26 14:00;CYHM 261400Z 29004KT 15SM OVC087 M09/M14 A3017 RMK AC8 SLP233

CYHM;2008-01-26 15:00;CYHM 261500Z 21004KT 15SM OVC052 M09/M14 A3017 RMK SC7 SUN DIMMLY VSBL SLP234

CYHM;2008-01-26 16:00;CYHM 261600Z 21003KT 12SM OVC042 M07/M13 A3016 RMK SC7 SLP230

CYHM;2008-01-26 16:19;CYHM 261619Z 20003KT 8SM -SHSN OVC035 RMK SC7

CYHM;2008-01-26 17:13;CYHM 261713Z 20003KT 2SM -SHSN OVC030 RMK SN2SC6

CYHM;2008-01-26 17:22;CYHM 261722Z 23002KT 1 1/2SM -SHSN OVC030 RMK SN5SC3

CYHM;2008-01-26 17:51;CYHM 261751Z 16002KT 1 1/4SM -SHSN OVC022 RMK SN6SC2

CYHM;2008-01-26 18:00;CYHM 261800Z 21002KT 1 1/4SM -SHSN OVC022 M06/M08 A3010 RMK SN5SC3 SLP210

CYHM;2008-01-26 18:52;CYHM 261852Z 14003KT 5/8SM -SHSN VV005 RMK SN8

CYHM;2008-01-26 19:00;CYHM 261900Z 14003KT 3/4SM -SHSN VV007 M06/M07 A3007 RMK SN8 SLP197

CYHM;2008-01-26 19:08;CYHM 261908Z 14003KT 1 1/4SM -SHSN BKN012 OVC020 RMK SN2SC2SC3

CYHM;2008-01-26 19:20;CYHM 261920Z 11004KT 2 1/4SM -SHSN FEW007 BKN015 BKN022 RMK SN2CF1SC3SC2

CYHM;2008-01-26 19:47;CYHM 261947Z 11004KT 4SM -SHSN SCT009 BKN018 RMK SC4SC2

CYHM;2008-01-26 20:00;CYHM 262000Z 12005KT 2 1/2SM -SHSN SCT008 BKN018 BKN028 M05/M07 A3005 RMK SC3SC2SC2 SLP191

CYHM;2008-01-26 20:10;CYHM 262010Z 12005KT 1 3/4SM -SHSN SCT008 BKN018 RMK SN2SC2SC3

CYHM;2008-01-26 21:00;CYHM 262100Z 13006KT 1 1/2SM -SN SCT009 OVC014 M05/M06 A3004 RMK SN2SC2SC4 SLP189

CYHM;2008-01-26 21:17;CYHM 262117Z 13005KT 2 1/2SM -SN SCT009 BKN014 OVC021 RMK SN1SC2SC3SC2

CYHM;2008-01-26 22:00;CYHM 262200Z 12005KT 1 1/2SM -SN SCT009 BKN014 OVC020 M04/M06 A3005 RMK SN2SC2SC2SC2 SLP190

CYHM;2008-01-26 22:21;CYHM 262221Z 15004KT 1SM -SN SCT008 BKN012 OVC019 RMK SN2SC2SC2SC2

CYHM;2008-01-26 23:00;CYHM 262300Z 14005KT 1 1/2SM -SN SCT009 BKN014 OVC020 M05/M06 A3005 RMK SN2SC2SC3SC2 /S01/ SLP190

CYHM;2008-01-26 23:24;CYHM 262324Z 15004KT 1 3/4SM -SN FEW009 BKN016 OVC025 RMK SN2SC1SC4SC2

CYHM;2008-01-27 00:00;CYHM 270000Z 11003KT 2 1/4SM -SN SCT010 BKN017 OVC026 M05/M06 A3005 RMK SN1SC2SC3SC2 /S02/ SLP192

CYHM;2008-01-27 01:00;CYHM 270100Z 09004KT 2SM -SN BKN017 OVC028 M05/M06 A3004 RMK SN2SC3SC3 SLP189

CYHM;2008-01-27 01:44;CYHM 270144Z 09004KT 3SM -SN SCT018 BKN033 OVC075 RMK SC4SC2AC2

CYHM;2008-01-27 02:00;CYHM 270200Z 09004KT 3SM -SN BKN020 BKN033 OVC075 M05/M06 A3003 RMK SC5SC2AC2 SLP183

CYHM;2008-01-27 02:34;CYHM 270234Z 09003KT 2 1/4SM -SN SCT014 OVC021 RMK SN1SC3SC4

CYHM;2008-01-27 03:00;CYHM 270300Z 09003KT 2SM -SN SCT012 OVC018 M05/M06 A3002 RMK SN2SC2SC4 SLP180

CYHM;2008-01-27 03:25;CYHM 270325Z 00000KT 4SM -SN OVC018 RMK SC8

CYHM;2008-01-27 04:00;CYHM 270400Z 00000KT 3SM -SN OVC012 M05/M06 A3002 RMK SC8 VIS VRB 2 - 4 /S02/ SLP179

CYHM;2008-01-27 04:29;CYHM 270429Z 12002KT 7SM -SN FEW015 OVC060 RMK CF2SC6

CYHM;2008-01-27 05:00;CYHM 270500Z 00000KT 5SM -SN FEW015 OVC060 M05/M06 A3001 RMK CF2SC6 SLP178

CYHM;2008-01-27 06:00;CYHM 270600Z 00000KT 4SM -SN FEW013 OVC035 M05/M06 A3000 RMK CF1SC7 SLP171

CYHM;2008-01-27 07:00;CYHM 270700Z 00000KT 4SM -SN OVC035 M06/M06 A2999 RMK SC7 SLP170

CYHM;2008-01-27 08:00;CYHM 270800Z 00000KT 3SM -SN FEW017 OVC025 M06/M07 A3000 RMK CF2SC6 VIS VRB 2 - 4 SLP173

CYHM;2008-01-27 09:00;CYHM 270900Z 00000KT 3SM -SN BR FEW015 OVC026 M06/M06 A3001 RMK CF2SC6 VIS VRB 2 - 4 SLP175

CYHM;2008-01-27 09:21;CYHM 270921Z 00000KT 4SM BR OVC022 RMK SC8

CYHM;2008-01-27 10:00;CYHM 271000Z 00000KT 5SM -SHSN BR OVC020 M05/M06 A3002 RMK SC8 SLP178

CYHM;2008-01-27 11:00;CYHM 271100Z 00000KT 5SM -SHSN BR OVC014 M05/M06 A3003 RMK SC8 SLP183

CYHM;2008-01-27 11:44;CYHM 271144Z 03003KT 6SM -SHSN BR SCT013 BKN035 RMK SC4SC3 PCPN VRY LGT

CYHM;2008-01-27 12:00;CYHM 271200Z 05003KT 5SM -SHSN BR FEW013 BKN039 M06/M07 A3003 RMK SC2SC5 PCPN VRY LGT SLP182

CYHM;2008-01-27 12:32;CYHM 271232Z 09004KT 2SM BR FEW013 BKN041 OVC047 RMK FG1SC1SC5SC2

CYHM;2008-01-27 13:00;CYHM 271300Z 16002KT 2SM BR OVC044 M06/M06 A3004 RMK SC8 SLP186

CYHM;2008-01-27 13:48;CYHM 271348Z 14003KT 2SM -SHSN BR BKN023 OVC045 RMK FG1SC6SC2

CYHM;2008-01-27 14:00;CYHM 271400Z 15003KT 2SM -SHSN BR OVC021 M05/M06 A3006 RMK FG1SC7 SLP192

CYHM;2008-01-27 15:00;CYHM 271500Z 14004KT 2SM -SHSN BR SCT023 OVC044 M04/M05 A3006 RMK FG1SC2SC5 SLP193

CYHM;2008-01-27 16:00;CYHM 271600Z 15004KT 3SM -SHSN BR FEW026 OVC051 M03/M05 A3009 RMK SC2SC6 SLP202

CYHM;2008-01-27 17:00;CYHM 271700Z 12004KT 4SM -SHSN BR OVC051 M02/M04 A3007 RMK SC7 SLP197

CYHM;2008-01-27 18:00;CYHM 271800Z 10003KT 4SM -SHSN BR BKN008 BKN016 OVC051 M02/M04 A3006 RMK SC6SC2SC1 SLP192

CYHM;2008-01-27 18:43;CYHM 271843Z 19004KT 6SM -SHSN BKN011 OVC019 RMK SC5SC3

CYHM;2008-01-27 19:00;CYHM 271900Z 24003KT 7SM BKN012 OVC018 M01/M04 A3007 RMK SC6SC2 SLP194

CYHM;2008-01-27 20:00;CYHM 272000Z 13002KT 6SM HZ FEW015 BKN033 BKN046 M01/M04 A3006 RMK SC2SC2SC2 SLP192

CYHM;2008-01-27 21:00;CYHM 272100Z 16002KT 6SM -SHSN HZ FEW014 BKN022 OVC042 M01/M04 A3008 RMK SC2SC3SC2 SLP197

CYHM;2008-01-27 22:00;CYHM 272200Z 11002KT 6SM -SHSN BR FEW012 BKN026 OVC044 M02/M03 A3009 RMK SC2SC2SC3 PCPN VRY LGT SLP201

CYHM;2008-01-27 23:00;CYHM 272300Z 11002KT 5SM -SHSN BR SCT020 OVC033 M02/M03 A3010 RMK SC4SC4 PCPN VRY LGT SLP204

CYHM;2008-01-28 00:00;CYHM 280000Z 14002KT 5SM BR FEW012 BKN025 OVC035 M02/M03 A3012 RMK SC2SC2SC3 SLP213

CYHM;2008-01-28 01:00;CYHM 280100Z 17002KT 5SM BR SCT012 OVC025 M02/M03 A3014 RMK SC4SC4 SLP219

CYHM;2008-01-28 02:00;CYHM 280200Z 18004KT 4SM BR SCT014 OVC025 M02/M03 A3014 RMK SC3SC5 SLP219

CYHM;2008-01-28 02:40;CYHM 280240Z 21003KT 4SM BR BKN010 OVC022 RMK SC5SC3

CYHM;2008-01-28 02:48;CYHM 280248Z 21002KT 4SM BR FEW008 BKN011 OVC020 RMK SC2SC5SC2

CYHM;2008-01-28 03:00;CYHM 280300Z 21002KT 3SM BR SCT008 OVC014 M02/M03 A3016 RMK SC4SC4 SLP225

CYHM;2008-01-28 04:00;CYHM 280400Z 23003KT 5SM -SHSN BR OVC009 M02/M03 A3015 RMK SC8 SLP222

CYHM;2008-01-28 05:00;CYHM 280500Z 00000KT 3SM BR OVC006 M02/M03 A3015 RMK SF8 VIS VRB 2 - 4 SLP222

CYHM;2008-01-28 05:21;CYHM 280521Z 00000KT 4SM BR BKN010 OVC035 RMK SC7SC1

CYHM;2008-01-28 05:44;CYHM 280544Z 00000KT 6SM BR FEW010 OVC037 RMK CF2SC6

CYHM;2008-01-28 06:00;CYHM 280600Z 00000KT 6SM BR OVC036 M03/M04 A3014 RMK SC8 SLP218

CYHM;2008-01-28 07:00;CYHM 280700Z 00000KT 6SM BR OVC034 M03/M04 A3015 RMK SC8 SLP220

CYHM;2008-01-28 08:00;CYHM 280800Z 00000KT 2SM BR FEW018 OVC035 M03/M03 A3015 RMK FG1CF1SC6 SLP222

CYHM;2008-01-28 08:54;CYHM 280854Z 23002KT 3/4SM BR BKN034 RMK FG3SC4 VIS VRB 1/2 - 1

CYHM;2008-01-28 09:00;CYHM 280900Z 00000KT 3/4SM BR BKN033 M04/M04 A3014 RMK FG3SC4 VIS VRB 1/2 - 1 SLP219

CYHM;2008-01-28 09:24;CYHM 280924Z 21005KT 1/2SM FZFG BKN030 RMK FG4SC3

CYHM;2008-01-28 09:35;CYHM 280935Z 22005KT 1 1/2SM BR BKN030 RMK FG2SC6 VIS VRB 1 - 2

CYHM;2008-01-28 10:00;CYHM 281000Z 22003KT 2SM BR BKN030 M04/M04 A3014 RMK FG1SC6 SLP218

CYHM;2008-01-28 10:35;CYHM 281035Z 20003KT 3/4SM BR BKN030 RMK FG2SC2 VIS VRB 1/2 - 1

CYHM;2008-01-28 11:00;CYHM 281100Z 22003KT 3/4SM BR BKN030 M05/M05 A3014 RMK FG2SC5 VIS VRB 1/2 - 1 SLP219

CYHM;2008-01-28 11:27;CYHM 281127Z 00000KT 1 1/2SM BR BKN026 RMK FG1SC6

CYHM;2008-01-28 12:00;CYHM 281200Z 20003KT 6SM BR OVC023 M04/M05 A3015 RMK SC8 SLP223

CYHM;2008-01-28 13:00;CYHM 281300Z 20004KT 4SM BR OVC022 M04/M04 A3016 RMK SC8 SLP225

CYHM;2008-01-28 14:00;CYHM 281400Z 21005KT 5SM BR OVC021 M02/M04 A3016 RMK SC8 SLP224

CYHM;2008-01-28 15:00;CYHM 281500Z 21007KT 7SM BKN021 BKN220 M02/M05 A3013 RMK SC6CI1 SLP215

CYHM;2008-01-28 16:00;CYHM 281600Z 20010KT 8SM BKN012 BKN021 M01/M04 A3011 RMK SC5SC2 SLP209

CYHM;2008-01-28 17:00;CYHM 281700Z 19008KT 8SM BKN017 BKN022 M01/M05 A3010 RMK SC6SC2 SLP204

CYHM;2008-01-28 18:00;CYHM 281800Z 17008KT 15SM FEW018 M01/M04 A3006 RMK SC2 CU ASOCTD SLP189

CYHM;2008-01-28 19:00;CYHM 281900Z 17008KT 15SM FEW018 SCT150 M00/M04 A3002 RMK CU1AC2 SLP178

CYHM;2008-01-28 20:00;CYHM 282000Z 20008KT 8SM BKN200 BKN250 00/M04 A3001 RMK CC6CI1 CI TR SLP175

CYHM;2008-01-28 21:00;CYHM 282100Z 19007KT 10SM BKN200 BKN250 M00/M04 A2999 RMK CC5CI1 SLP168

CYHM;2008-01-28 22:00;CYHM 282200Z 15005KT 8SM FEW200 BKN250 M01/M05 A2998 RMK CC2CI2 CONTRAIL SLP165

CYHM;2008-01-28 23:00;CYHM 282300Z CCA 15005KT 9SM FEW190 BKN250 M03/M05 A2997 RMK AC1CI2 AC TR SLP160

CYHM;2008-01-29 00:00;CYHM 290000Z 14007KT 12SM FEW120 BKN250 M02/M05 A2994 RMK AC1CI3 AC TR SLP151

CYHM;2008-01-29 01:00;CYHM 290100Z 14007KT 12SM BKN190 M02/M05 A2991 RMK AS6 SLP140

CYHM;2008-01-29 02:00;CYHM 290200Z 17005KT 12SM BKN190 M00/M04 A2988 RMK AS6 SLP130

CYHM;2008-01-29 03:00;CYHM 290300Z 17006KT 15SM BKN160 M00/M03 A2985 RMK AS5 SLP119

CYHM;2008-01-29 04:00;CYHM 290400Z 19008KT 15SM BKN130 01/M03 A2981 RMK AC7 SLP107

CYHM;2008-01-29 05:00;CYHM 290500Z 19012KT 8SM -SHRA OVC062 02/M01 A2977 RMK SC8 SLP092

CYHM;2008-01-29 06:00;CYHM 290600Z 17012KT 7SM -SHRA OVC064 02/00 A2972 RMK SC8 SLP073

CYHM;2008-01-29 07:00;CYHM 290700Z 18007KT 15SM -SHRA OVC085 02/01 A2968 RMK AC8 SLP060

CYHM;2008-01-29 08:00;CYHM 290800Z 17010KT 15SM -SHRA OVC086 02/01 A2964 RMK AC8 SLP047

CYHM;2008-01-29 09:00;CYHM 290900Z 19014KT 12SM -SHRA OVC068 03/01 A2962 RMK AC8 SLP038

CYHM;2008-01-29 10:00;CYHM 291000Z 18013KT 15SM -SHRA OVC053 04/00 A2957 RMK SC8 SLP023

CYHM;2008-01-29 10:47;CYHM 291047Z 18015G23KT 15SM OVC048 RMK SC8

CYHM;2008-01-29 11:00;CYHM 291100Z 19015G21KT 15SM OVC050 04/M00 A2956 RMK SC8 SLP019

CYHM;2008-01-29 12:00;CYHM 291200Z 20012KT 15SM BKN039 BKN052 04/M00 A2955 RMK SC6SC2 SLP017

CYHM;2008-01-29 13:00;CYHM 291300Z 20015KT 15SM OVC035 05/M00 A2956 RMK SC8 SLP018

CYHM;2008-01-29 14:00;CYHM 291400Z 22013KT 15SM OVC032 05/M00 A2955 RMK SC8 SLP016

CYHM;2008-01-29 15:00;CYHM 291500Z 22015KT 15SM BKN036 BKN052 05/01 A2955 RMK SC6SC2 SLP016

CYHM;2008-01-29 16:00;CYHM 291600Z 22014KT 15SM BKN026 BKN036 06/01 A2954 RMK SC5SC2 SLP010

CYHM;2008-01-29 17:00;CYHM 291700Z 22015KT 15SM OVC022 06/01 A2952 RMK SC8 SLP004

CYHM;2008-01-29 18:00;CYHM 291800Z CCA 19016KT 15SM OVC021 06/02 A2950 RMK SC8 SLP995

CYHM;2008-01-29 19:00;CYHM 291900Z 21014KT 15SM OVC018 06/03 A2948 RMK SC8 SLP989

CYHM;2008-01-29 20:00;CYHM 292000Z 20015G22KT 8SM OVC010 05/04 A2946 RMK SC8 SLP983

CYHM;2008-01-29 20:40;CYHM 292040Z 20013G20KT 4SM -DZ BR OVC005 RMK SC8

CYHM;2008-01-29 21:00;CYHM 292100Z 21014G20KT 3SM -DZ BR OVC005 04/04 A2945 RMK SC8 SLP978

CYHM;2008-01-29 21:44;CYHM 292144Z 20011KT 1 1/2SM -DZ BR BKN003 OVC012 RMK SF6SC2

CYHM;2008-01-29 22:00;CYHM 292200Z 19011KT 1 1/2SM -DZ BR BKN004 OVC016 04/04 A2943 RMK SF5SC3 SLP974

CYHM;2008-01-29 22:31;CYHM 292231Z 17008KT 1 1/2SM -RA BR BKN006 OVC012 RMK SF6SC2

CYHM;2008-01-29 23:00;CYHM 292300Z 17009KT 1 1/2SM -RA BR FEW003 OVC007 04/04 A2941 RMK SF2SC6 SLP965

CYHM;2008-01-29 23:38;CYHM 292338Z 18007KT 5SM BR FEW004 OVC009 RMK SF2SC6

CYHM;2008-01-30 00:00;CYHM 300000Z 17007KT 5SM BR FEW004 OVC009 04/04 A2939 RMK SF2SC6 SLP957

CYHM;2008-01-30 00:30;CYHM 300030Z 17007KT 8SM FEW009 OVC013 RMK SF1SC7

CYHM;2008-01-30 01:00;CYHM 300100Z 18010KT 10SM FEW009 OVC015 05/04 A2934 RMK SF1SC7 SLP942

CYHM;2008-01-30 02:00;CYHM 300200Z 17008KT 8SM -SHRA FEW009 OVC012 05/05 A2928 RMK SF1SC7 SLP922

CYHM;2008-01-30 03:00;CYHM 300300Z 17008KT 12SM -SHRA FEW010 BKN021 BKN034 OVC080 06/05 A2923 RMK SC1SC4SC2AC1 SLP903

CYHM;2008-01-30 04:00;CYHM 300400Z 15012KT 15SM BKN017 OVC070 07/06 A2916 RMK SC7AC1 SLP880

CYHM;2008-01-30 05:00;CYHM 300500Z 16009KT 15SM -SHRA SCT020 OVC080 07/06 A2910 RMK SC3AC5 SLP859

CYHM;2008-01-30 06:00;CYHM 300600Z 18014KT 12SM -SHRA BKN036 OVC056 08/07 A2903 RMK SC6SC2 SLP834

CYHM;2008-01-30 07:00;CYHM 300700Z 18018G28KT 15SM FEW030 BKN040 OVC080 10/08 A2896 RMK SC2SC4AC2 SLP812

CYHM;2008-01-30 08:00;CYHM 300800Z 23015G26KT 12SM -SHRA BKN015 OVC056 07/05 A2901 RMK SC6SC2 SLP828

CYHM;2008-01-30 09:00;CYHM 300900Z 24020G36KT 6SM -SHRASN BR FEW009 BKN017 OVC040 M01/M01 A2910 RMK SF2SC5SC2 SLP862

CYHM;2008-01-30 09:35;CYHM 300935Z 23024G38KT 12SM -SHSN FEW007 OVC010 RMK SF2SC6

CYHM;2008-01-30 10:00;CYHM 301000Z 24024G42KT 8SM -SHSN FEW009 OVC013 M03/M05 A2917 RMK SF1SC7 SLP883

CYHM;2008-01-30 10:37;CYHM 301037Z 23028G40KT 1 1/2SM -SHSN FEW012 OVC019 RMK SF2SC6

CYHM;2008-01-30 11:00;CYHM 301100Z 23026G38KT 4SM -SHSN FEW012 BKN022 OVC044 M05/M07 A2930 RMK SF2SC6SC1 SLP928

CYHM;2008-01-30 12:00;CYHM 301200Z 25032G42KT 15SM -SHSN BKN032 OVC040 M07/M12 A2940 RMK SC5SC3 PRESRR SLP964

CYHM;2008-01-30 12:50;CYHM 301250Z 25028G36KT 1SM -SHSN BKN012 OVC023 RMK SN2SF4SC2

CYHM;2008-01-30 12:53;CYHM 301253Z 24025G34KT 3/4SM -SHSN BKN007 OVC024 RMK SN2SF5SC2

CYHM;2008-01-30 13:00;CYHM 301300Z 25020G26KT 1 1/2SM -SHSN BKN008 BKN023 BKN041 M09/M11 A2948 RMK SN2SF3SC2SC1 PRESRR SLP991

CYHM;2008-01-30 13:08;CYHM 301308Z 24030G38KT 7SM -SHSN FEW008 FEW026 BKN048 RMK SF1CU2SC5

CYHM;2008-01-30 14:00;CYHM 301400Z 23032G40KT 7SM -SHSN FEW018 BKN027 BKN048 M10/M13 A2952 RMK CU2SC3SC2 PRESRR SLP004

CYHM;2008-01-30 15:00;CYHM 301500Z 24035G46KT 10SM -SHSN FEW021 BKN031 M10/M14 A2956 RMK CU2SC5 SLP022

CYHM;2008-01-30 16:00;CYHM 301600Z 25030G40KT 15SM FEW020 BKN032 M11/M16 A2962 RMK CU2SC4 SLP039

CYHM;2008-01-30 17:00;CYHM 301700Z 25030G38KT 10SM FEW018 BKN027 BKN032 M10/M14 A2965 RMK CU2SC4SC2 SLP052

CYHM;2008-01-30 18:00;CYHM 301800Z 24026G36KT 8SM SCT019 BKN029 M10/M14 A2970 RMK SC4SC2 SLP066

CYHM;2008-01-30 19:00;CYHM 301900Z 24026G38KT 10SM FEW021 BKN031 BKN041 M09/M15 A2974 RMK CU2SC3SC2 SLP079

CYHM;2008-01-30 20:00;CYHM 302000Z 24030G42KT 12SM BKN022 BKN042 M08/M14 A2978 RMK SC5SC2 CU ASOCTD SLP095

CYHM;2008-01-30 21:00;CYHM 302100Z 24024G38KT 15SM -SHSN FEW024 BKN034 M09/M15 A2985 RMK CF2SC5 CUFRA CU ASOCTD SLP122

CYHM;2008-01-30 22:00;CYHM 302200Z 24025G32KT 15SM SCT034 SCT190 SCT250 M09/M16 A2990 RMK SC3AC1CI1 AC TR CI TR CU ASOCTD SLP137

CYHM;2008-01-30 23:00;CYHM 302300Z 23024G34KT 15SM FEW034 FEW250 M09/M15 A2995 RMK CU2CI1 CI TR SC ASOCTD SLP154

CYHM;2008-01-31 00:00;CYHM 310000Z 23020G26KT 15SM FEW026 M09/M15 A3000 RMK CU1 CUFRA ASOCTD SLP174

CYHM;2008-01-31 01:00;CYHM 310100Z 23016G24KT 15SM FEW024 M09/M14 A3006 RMK CF1 CUFRA TR SLP193

CYHM;2008-01-31 02:00;CYHM 310200Z 24015G22KT 15SM FEW024 M09/M15 A3009 RMK CF1 CUFRA SLP205

CYHM;2008-01-31 03:00;CYHM 310300Z 25014KT 15SM FEW034 FEW250 M10/M15 A3014 RMK CF1CI1 CUFRA TR CI TR SLP223

CYHM;2008-01-31 04:00;CYHM 310400Z 25012KT 15SM SCT035 M10/M15 A3020 RMK SC4 PRESRR SLP244

CYHM;2008-01-31 05:00;CYHM 310500Z 26011KT 15SM FEW030 M10/M16 A3023 RMK SC1 SLP252

CYHM;2008-01-31 06:00;CYHM 310600Z 24012KT 15SM SKC M11/M15 A3025 RMK SLP260

CYHM;2008-01-31 07:00;CYHM 310700Z 24011KT 15SM SKC M11/M15 A3027 RMK SLP268

CYHM;2008-01-31 08:00;CYHM 310800Z 25009KT 15SM SKC M11/M15 A3031 RMK SLP282

CYHM;2008-01-31 09:00;CYHM 310900Z 23008KT 15SM SKC M11/M15 A3033 RMK SLP290

CYHM;2008-01-31 10:00;CYHM 311000Z 23007KT 15SM SKC M12/M15 A3037 RMK SLP301

CYHM;2008-01-31 11:00;CYHM 311100Z 21004KT 15SM FEW023 M12/M15 A3041 RMK SC1 FROIN SLP314

CYHM;2008-01-31 12:00;CYHM 311200Z 20004KT 15SM FEW025 M13/M15 A3045 RMK SC1 SLP328

CYHM;2008-01-31 13:00;CYHM 311300Z 20004KT 15SM -SHSN BKN021 BKN220 M12/M14 A3049 RMK SC5CI0 SLP343

CYHM;2008-01-31 14:00;CYHM 311400Z 21005KT 15SM FEW025 FEW220 M11/M13 A3051 RMK CU1CI1 SLP348

CYHM;2008-01-31 15:00;CYHM 311500Z 27003KT 15SM FEW025 SCT220 M09/M13 A3054 RMK CU1CI1 SLP359

CYHM;2008-01-31 16:00;CYHM 311600Z 24006KT 15SM BKN020 BKN220 M08/M13 A3056 RMK SC5CI1 CU ASOCTD SLP366

CYHM;2008-01-31 17:00;CYHM 311700Z 23005KT 15SM FEW022 SCT026 BKN220 M07/M12 A3056 RMK CU2SC1CI1 SLP367

CYHM;2008-01-31 18:00;CYHM 311800Z 23002KT 15SM FEW020 FEW032 SCT220 M06/M12 A3054 RMK CU1SC1CI2 SLP357

CYHM;2008-01-31 19:00;CYHM 311900Z 14003KT 15SM FEW032 SCT220 M05/M12 A3052 RMK SC1CI1 SLP350

CYHM;2008-01-31 20:00;CYHM 312000Z 14004KT 15SM FEW035 FEW120 SCT160 BKN220 M05/M12 A3050 RMK SC1AC1AC2CI1 SC TR SLP346

CYHM;2008-01-31 21:00;CYHM 312100Z 09004KT 15SM FEW120 SCT150 BKN220 M05/M11 A3049 RMK AC2AC2CI1 SLP342

CYHM;2008-01-31 22:00;CYHM 312200Z 11005KT 15SM FEW110 SCT150 BKN220 M05/M12 A3050 RMK AC2AC2CI1 SLP345

CYHM;2008-01-31 23:00;CYHM 312300Z 06007KT 15SM SCT110 BKN220 M06/M10 A3051 RMK AC4CI1 SLP347

CYHM;2008-02-01 01:00;CYHM 010100Z 06010KT 15SM BKN130 M06/M09 A3048 RMK AC7 SLP340

CYHM;2008-02-01 02:00;CYHM 010200Z 05013KT 15SM BKN120 BKN210 M05/M09 A3045 RMK AC6CI2 SLP329

CYHM;2008-02-01 03:00;CYHM 010300Z CCA 06014KT 15SM FEW030 SCT100 BKN110 M04/M08 A3042 RMK SC1AC3AC4 SC TR SLP315

CYHM;2008-02-01 04:00;CYHM 010400Z CCA 06017KT 15SM OVC083 M04/M09 A3036 RMK AC8 PRESFR SLP296

CYHM;2008-02-01 05:00;CYHM 010500Z 06017KT 15SM OVC088 M04/M09 A3036 RMK AC8 SLP295

CYHM;2008-02-01 06:00;CYHM 010600Z 06018KT 15SM OVC083 M03/M08 A3031 RMK AC8 SLP277

CYHM;2008-02-01 07:00;CYHM 010700Z 06020KT 15SM OVC078 M02/M07 A3026 RMK AC8 SLP263

CYHM;2008-02-01 08:00;CYHM 010800Z 06018KT 15SM OVC040 M03/M08 A3022 RMK SC8 SLP248

CYHM;2008-02-01 09:00;CYHM 010900Z 06017G22KT 15SM OVC030 M02/M08 A3017 RMK SC8 SLP228

CYHM;2008-02-01 09:12;CYHM 010912Z 06017G23KT 6SM -SHSN OVC040 RMK SC8

CYHM;2008-02-01 09:44;CYHM 010944Z 08020KT 2 1/2SM -SHSN OVC015 RMK SC8

CYHM;2008-02-01 10:00;CYHM 011000Z 07016KT 1 1/2SM -SHSN VV007 M04/M06 A3014 RMK SN8 VIS VRB 1 - 2 SLP218

CYHM;2008-02-01 10:21;CYHM 011021Z 07014KT 1SM -SN VV005 RMK SN8 VIS VRB 3/4 - 11/4

CYHM;2008-02-01 11:00;CYHM 011100Z 06016KT 1SM -SN DRSN VV008 M04/M05 A3010 RMK SN8 VIS VRB 3/4 - 11/4 /S01/ SLP206

CYHM;2008-02-01 11:38;CYHM 011138Z CCA 08015KT 1 1/2SM -SN DRSN BKN004 OVC015 RMK SN2SF4SC2

CYHM;2008-02-01 12:00;CYHM 011200Z 07017KT 1 1/2SM -SN DRSN BKN004 OVC014 M04/M04 A3008 RMK SN2SF5SC2 SLP201

CYHM;2008-02-01 12:30;CYHM 011230Z 07016KT 1SM -SN DRSN BR BKN006 OVC017 RMK SN2SF5SC2 VIS VRB 3/4 -11/4 SM

CYHM;2008-02-01 13:00;CYHM 011300Z 07016KT 1 1/2SM -SN DRSN BR BKN006 OVC027 M03/M04 A3004 RMK SN2SF4SC2 VIS VRB 1-2SM SLP186

CYHM;2008-02-01 13:14;CYHM 011314Z 07018KT 3SM -SN DRSN BR BKN006 OVC025 RMK SF5SC3

CYHM;2008-02-01 13:27;CYHM 011327Z 07018KT 2SM -SN DRSN BR BKN006 OVC026 RMK SN1SF5SC2

CYHM;2008-02-01 13:40;CYHM 011340Z 07018KT 1SM -SN DRSN BR BKN006 OVC021 RMK SN2SF4SC2

CYHM;2008-02-01 13:53;CYHM 011353Z 07015KT 2 1/2SM -SN -FZRA BR BKN005 OVC018 RMK SF5SC3

CYHM;2008-02-01 14:00;CYHM 011400Z 06018KT 3SM -SN -FZRA BR BKN005 OVC018 M03/M04 A3001 RMK SF5SC3 SLP175

CYHM;2008-02-01 14:45;CYHM 011445Z 07016KT 2SM -SN -FZRA BR BKN005 OVC017 RMK SF6SC2

CYHM;2008-02-01 15:00;CYHM 011500Z 06015KT 1 1/2SM -SN -FZRA BR BKN004 OVC018 M02/M03 A2998 RMK SN1SF6SC2 SLP163

CYHM;2008-02-01 15:36;CYHM 011536Z 07016KT 1SM -SN -FZRA BR BKN006 OVC028 RMK SN1SF6SC2

CYHM;2008-02-01 16:00;CYHM 011600Z 06016KT 1 1/2SM -SN -FZRA BR BKN006 OVC022 M02/M03 A2991 RMK SN2SF5SC2 SLP142

CYHM;2008-02-01 16:18;CYHM 011618Z 07018KT 4SM -SN -FZRA BR BKN004 OVC021 RMK SF6SC2

CYHM;2008-02-01 16:34;CYHM 011634Z 07016KT 1SM -SG BR BKN005 OVC018 RMK SN2SF6SC1

CYHM;2008-02-01 17:00;CYHM 011700Z 06015KT 3/4SM -SN BR BKN004 OVC022 M02/M02 A2987 RMK SN2SF6SC1 SLP126

CYHM;2008-02-01 17:11;CYHM 011711Z 06015KT 4SM -SNPL BR BKN004 OVC018 RMK SF5SC3

CYHM;2008-02-01 17:30;CYHM 011730Z 07014KT 1SM -SNPL BR BKN005 OVC017 RMK SN2SF5SC1 VIB VRB 3/4-11/4SM

CYHM;2008-02-01 17:35;CYHM 011735Z 06015KT 1/2SM SN FZFG OVC006 RMK SN4SF4

CYHM;2008-02-01 18:00;CYHM 011800Z 06014KT 3/4SM -SN BR BKN004 OVC014 M02/M02 A2982 RMK SN3SF4SC1 SLP110

CYHM;2008-02-01 19:00;CYHM 011900Z 06013KT 3/4SM -SN BR BKN005 OVC020 M01/M02 A2981 RMK SN3SF3SC2 SLP105

CYHM;2008-02-01 19:08;CYHM 011908Z 05014KT 1 1/2SM -SN BR BKN005 OVC017 RMK SN2SF5SC2

CYHM;2008-02-01 19:44;CYHM 011944Z 04012KT 1SM -SN BR BKN004 OVC013 RMK SN2SF4SC2

CYHM;2008-02-01 20:00;CYHM 012000Z 05012KT 1 1/2SM -SN BR BKN003 OVC012 M01/M02 A2977 RMK SN2SF6SC1 SLP092

CYHM;2008-02-01 21:00;CYHM 012100Z 06010KT 1 1/4SM -SN BR BKN003 OVC013 M01/M02 A2974 RMK SN2SF5SC1 /S03/ SLP082

CYHM;2008-02-01 21:33;CYHM 012133Z 04010KT 1 3/4SM -SN BR BKN003 OVC017 RMK SN2SF4SC2

CYHM;2008-02-01 21:46;CYHM 012146Z 04010KT 2SM -SN BR BKN003 OVC017 RMK SN1SF5SC2

CYHM;2008-02-01 22:00;CYHM 012200Z 04008KT 1 1/2SM -SN BR BKN003 OVC015 M01/M01 A2973 RMK SN2SF4SC2 SLP077

CYHM;2008-02-01 22:04;CYHM 012204Z 03008KT 3/4SM -SN BR BKN003 OVC015 RMK SN3SF4SC1

CYHM;2008-02-01 22:29;CYHM 012229Z 04006KT 1 1/4SM -SN BR OVC005 RMK SN2SF6

CYHM;2008-02-01 23:00;CYHM 012300Z 03005KT 1SM -SN BR OVC005 M01/M01 A2974 RMK SN2SF6 SLP081

CYHM;2008-02-01 23:44;CYHM 012344Z 33004KT 2SM -SN BR SCT004 BKN012 OVC026 RMK SN1SF3SC2SC2

CYHM;2008-02-02 00:00;CYHM 020000Z 34004KT 2 1/2SM -SN BR BKN006 OVC018 M01/M01 A2975 RMK SN1SF6SC2 /S06/ SLP084

CYHM;2008-02-02 00:30;CYHM 020030Z 31004KT 3SM -SN BR OVC007 RMK SF8

CYHM;2008-02-02 01:00;CYHM 020100Z 29003KT 3SM -SN BR OVC007 M01/M01 A2976 RMK SF8 SLP088

CYHM;2008-02-02 02:00;CYHM 020200Z 30003KT 4SM -SN BR FEW002 OVC007 M01/M01 A2977 RMK CF2SC6 SLP090

CYHM;2008-02-02 03:00;CYHM 020300Z 23005KT 3SM -SN BR FEW002 OVC007 M01/M01 A2978 RMK CF2SC6 SLP096

CYHM;2008-02-02 03:19;CYHM 020319Z 24006KT 2SM -SN BR OVC004 RMK SN1ST7

CYHM;2008-02-02 03:34;CYHM 020334Z 25007KT 3SM -SN BR OVC006 RMK ST8 VIS VRB 2 - 4

CYHM;2008-02-02 04:00;CYHM 020400Z 26008KT 2SM -SN BR OVC003 M00/M01 A2981 RMK FG1ST7 SLP103

CYHM;2008-02-02 04:40;CYHM 020440Z 26007KT 4SM -SN BR OVC005 RMK ST8

CYHM;2008-02-02 05:00;CYHM 020500Z 26012KT 5SM -SN BR OVC006 00/M00 A2984 RMK ST8 SLP116

CYHM;2008-02-02 06:00;CYHM 020600Z 26013KT 6SM BR OVC007 00/M01 A2988 RMK ST8 SLP130

CYHM;2008-02-02 07:00;CYHM 020700Z 25015KT 8SM OVC012 M00/M02 A2993 RMK SC8 HZ SLP145

CYHM;2008-02-02 08:00;CYHM 020800Z 26012KT 12SM -SHSN OVC018 M01/M03 A2997 RMK SC8 SLP160

CYHM;2008-02-02 08:35;CYHM 020835Z 26011KT 15SM OVC013 RMK SC8

CYHM;2008-02-02 09:00;CYHM 020900Z 26009KT 12SM -SHSN OVC011 M01/M03 A3001 RMK SC8 SLP173

CYHM;2008-02-02 10:00;CYHM 021000Z 26007KT 5SM -SHSN OVC007 M01/M02 A3004 RMK ST8 SLP183

CYHM;2008-02-02 10:25;CYHM 021025Z 26011KT 4SM -SHSN OVC004 RMK ST8

CYHM;2008-02-02 10:37;CYHM 021037Z 26012KT 5SM -SHSN OVC007 RMK ST8

CYHM;2008-02-02 11:00;CYHM 021100Z 26010KT 5SM -SHSN OVC006 M01/M01 A3007 RMK ST8 SLP191

CYHM;2008-02-02 11:22;CYHM 021122Z 24011KT 5SM -SG OVC006 RMK ST8

CYHM;2008-02-02 12:00;CYHM 021200Z 23011KT 5SM -SG -FZDZ OVC006 M01/M02 A3009 RMK ST8 SLP201

CYHM;2008-02-02 12:35;CYHM 021235Z CCA 23011KT 2 1/2SM -SG -FZDZ BR OVC005 RMK ST8

CYHM;2008-02-02 13:00;CYHM 021300Z 23010KT 3SM -SG -FZDZ BR OVC005 M01/M02 A3011 RMK ST8 SLP207

CYHM;2008-02-02 13:48;CYHM 021348Z 23011KT 4SM -SG -FZDZ BR OVC007 RMK ST8

CYHM;2008-02-02 14:00;CYHM 021400Z 23010KT 4SM -SG BR OVC007 M01/M02 A3012 REFZDZ RMK ST8 SLP210

CYHM;2008-02-02 15:00;CYHM 021500Z 23012KT 5SM -SG BR OVC008 M01/M02 A3013 RMK ST8 SLP213

CYHM;2008-02-02 15:38;CYHM 021538Z 23011KT 7SM -SG BKN010 OVC032 RMK SC6SC2 PCPN VRY LGT

CYHM;2008-02-02 16:00;CYHM 021600Z 23011KT 7SM -SG BKN010 OVC032 M01/M03 A3013 RMK SC6SC2 PCPN VRY LGT SLP215

CYHM;2008-02-02 17:00;CYHM 021700Z 23012KT 7SM -SG BKN010 OVC032 M01/M03 A3014 RMK SC6SC2 SLP216

CYHM;2008-02-02 18:00;CYHM 021800Z 22009KT 8SM -SG BKN010 OVC032 M01/M02 A3010 RMK SC6SC2 SLP204

CYHM;2008-02-02 19:00;CYHM 021900Z 22013KT 7SM -SG OVC011 M01/M03 A3008 RMK SC8 SLP198

CYHM;2008-02-02 19:44;CYHM 021944Z 22012KT 7SM -SHSN FEW008 OVC012 RMK SC2SC6

CYHM;2008-02-02 20:00;CYHM 022000Z 21012KT 7SM -SG FEW008 OVC013 M01/M03 A3009 RMK SC2SC6 SLP201

CYHM;2008-02-02 21:00;CYHM 022100Z 22009KT 8SM -SG BKN014 OVC029 M01/M03 A3009 RMK SC5SC3 SLP200

CYHM;2008-02-02 22:00;CYHM 022200Z 22010KT 9SM SCT014 OVC030 M01/M04 A3010 RMK SC4SC4 SLP203

CYHM;2008-02-02 23:00;CYHM 022300Z 22010KT 10SM FEW014 OVC028 M02/M04 A3010 RMK SC2SC6 SLP204

CYHM;2008-02-03 00:00;CYHM 030000Z 21008KT 10SM SCT014 OVC024 M02/M04 A3010 RMK SC3SC5 SLP204

CYHM;2008-02-03 01:00;CYHM 030100Z 21008KT 10SM FEW014 OVC024 M02/M03 A3010 RMK SC2SC6 SLP205

CYHM;2008-02-03 02:00;CYHM 030200Z 21008KT 9SM SCT012 OVC022 M02/M03 A3010 RMK SC3SC5 SLP205

CYHM;2008-02-03 03:00;CYHM 030300Z 22007KT 6SM BR FEW014 OVC025 M02/M03 A3011 RMK SC2SC6 SLP208

CYHM;2008-02-03 03:51;CYHM 030351Z 23005KT 6SM BR FEW006 OVC026 RMK SF2SC6

CYHM;2008-02-03 04:00;CYHM 030400Z 22007KT 6SM BR FEW006 OVC026 M02/M03 A3012 RMK SF1SC7 SLP210

CYHM;2008-02-03 05:00;CYHM 030500Z 22005KT 6SM BR OVC023 M02/M03 A3011 RMK SC8 SLP207

CYHM;2008-02-03 06:00;CYHM 030600Z 22003KT 5SM BR OVC020 M02/M03 A3010 RMK SC8 SLP204

CYHM;2008-02-03 07:00;CYHM 030700Z 19002KT 6SM BR BKN024 OVC050 M02/M03 A3010 RMK SC7SC1 SLP204

CYHM;2008-02-03 08:00;CYHM 030800Z 17002KT 6SM BR OVC021 M02/M03 A3010 RMK SC8 SLP205

CYHM;2008-02-03 09:00;CYHM 030900Z 00000KT 6SM BR OVC018 M02/M03 A3010 RMK SC8 SLP203

CYHM;2008-02-03 10:00;CYHM 031000Z 19003KT 6SM BR OVC018 M02/M03 A3010 RMK SC8 SLP205

CYHM;2008-02-03 11:00;CYHM 031100Z 20003KT 6SM BR OVC017 M02/M03 A3012 RMK SC8 SLP209

CYHM;2008-02-03 11:37;CYHM 031137Z 18005KT 6SM BR BKN011 OVC016 RMK SC5SC3

CYHM;2008-02-03 12:00;CYHM 031200Z 19005KT 6SM BR OVC013 M02/M03 A3014 RMK SC8 SLP218

CYHM;2008-02-03 12:49;CYHM 031249Z 20004KT 2 1/2SM BR OVC011 RMK SC8

CYHM;2008-02-03 13:00;CYHM 031300Z 20004KT 2 1/2SM BR OVC011 M02/M03 A3015 RMK SC8 SLP222

CYHM;2008-02-03 14:00;CYHM 031400Z 22004KT 3SM BR BKN013 BKN032 M02/M03 A3017 RMK SC6SC1 SLP227

CYHM;2008-02-03 15:00;CYHM 031500Z 25006KT 6SM BR OVC012 M01/M03 A3019 RMK SC8 SLP235

CYHM;2008-02-03 16:00;CYHM 031600Z 26008KT 7SM OVC011 M00/M03 A3020 RMK SC8 SLP238

CYHM;2008-02-03 17:00;CYHM 031700Z 26008KT 7SM BKN012 OVC028 00/M02 A3021 RMK SC5SC3 SLP240

CYHM;2008-02-03 17:44;CYHM 031744Z 29010KT 8SM BKN015 BKN028 RMK SC5SC2

CYHM;2008-02-03 18:00;CYHM 031800Z 28009KT 9SM FEW015 BKN027 00/M03 A3020 RMK SC2SC5 SLP239

CYHM;2008-02-03 19:00;CYHM 031900Z 29009KT 230V320 12SM OVC018 M00/M03 A3021 RMK SC8 SLP240

CYHM;2008-02-03 20:00;CYHM 032000Z 31008KT 10SM OVC018 M01/M04 A3021 RMK SC8 SLP242

CYHM;2008-02-03 21:00;CYHM 032100Z 29005KT 250V320 12SM OVC019 M00/M04 A3023 RMK SC8 SLP247

CYHM;2008-02-03 22:00;CYHM 032200Z 21004KT 12SM OVC021 M00/M05 A3023 RMK SC8 SLP248

CYHM;2008-02-03 23:00;CYHM 032300Z 20004KT 12SM OVC022 M00/M04 A3025 RMK SC8 SLP256

CYHM;2008-02-04 00:00;CYHM 040000Z 17004KT 14SM OVC023 M01/M04 A3026 RMK SC8 SLP259

CYHM;2008-02-04 01:00;CYHM 040100Z 16006KT 14SM OVC024 M01/M04 A3027 RMK SC8 SLP263

CYHM;2008-02-04 02:00;CYHM 040200Z 15007KT 14SM OVC024 M01/M04 A3027 RMK SC8 SLP263

CYHM;2008-02-04 03:00;CYHM 040300Z 11006KT 14SM OVC023 M02/M04 A3023 RMK SC8 SLP246

CYHM;2008-02-04 04:00;CYHM 040400Z 09004KT 12SM OVC026 M02/M05 A3023 RMK SC8 SLP249

CYHM;2008-02-04 05:00;CYHM 040500Z 15003KT 12SM FEW025 OVC120 M01/M05 A3026 RMK SC2AC6 SLP257

CYHM;2008-02-04 06:00;CYHM 040600Z 12004KT 10SM OVC090 M02/M05 A3025 RMK AC8 SLP253

CYHM;2008-02-04 07:00;CYHM 040700Z 09007KT 15SM FEW018 OVC070 M01/M05 A3021 RMK SC2AC6 SLP242

CYHM;2008-02-04 08:00;CYHM 040800Z 04007KT 12SM -SHSN OVC030 M01/M05 A3021 RMK SC8 SLP242

CYHM;2008-02-04 09:00;CYHM 040900Z 07013KT 5SM -SHSN SCT022 OVC100 M01/M03 A3020 RMK SC3AC5 SLP237

CYHM;2008-02-04 10:00;CYHM 041000Z 06013KT 6SM -SHSN FEW005 OVC018 M01/M02 A3019 RMK CF2SC6 SLP234

CYHM;2008-02-04 11:00;CYHM 041100Z 06014KT 6SM -SHSN DRSN FEW006 OVC023 M01/M02 A3018 RMK CF2SC6 SLP230

CYHM;2008-02-04 12:00;CYHM 041200Z 06012KT 6SM -SHSN FEW010 BKN021 OVC035 M01/M02 A3018 RMK SF2SC5SC2 SLP231

CYHM;2008-02-04 13:00;CYHM 041300Z 07014KT 6SM -SHSN SCT024 OVC077 M01/M02 A3017 RMK SC4AC4 SLP229

CYHM;2008-02-04 13:54;CYHM 041354Z 06012KT 8SM FEW025 BKN075 OVC090 RMK SC1AC5AC2

CYHM;2008-02-04 14:00;CYHM 041400Z 05012KT 8SM BKN085 OVC096 M01/M02 A3017 RMK AC6AC2 SLP227

CYHM;2008-02-04 15:00;CYHM 041500Z 07012KT 7SM BKN071 OVC090 M00/M02 A3016 RMK AC6AC2 SLP223

CYHM;2008-02-04 17:00;CYHM 041700Z 05010KT 8SM BKN051 BKN090 BKN210 01/M01 A3011 RMK SC5AC2CI1 SLP207

CYHM;2008-02-04 18:00;CYHM 041800Z 05013KT 8SM BKN050 BKN080 BKN180 01/M01 A3007 RMK SC5AC1AC1 SLP193

CYHM;2008-02-04 19:00;CYHM 041900Z 05014KT 10SM FEW052 SCT070 BKN210 02/M00 A3006 RMK SC2AC1CI1 SLP188

CYHM;2008-02-04 20:00;CYHM 042000Z 06011KT 5SM BR FEW008 SCT180 SCT250 02/M00 A3005 RMK SC1AC2CI1 CI TR SLP187

CYHM;2008-02-04 21:00;CYHM 042100Z 06010KT 4SM BR FEW007 BKN040 OVC070 02/00 A3006 RMK SC1ST6AC1 SLP188

CYHM;2008-02-04 21:45;CYHM 042145Z 06012KT 2 1/2SM BR FEW005 OVC035 RMK SC2ST6

CYHM;2008-02-04 22:00;CYHM 042200Z 06012KT 2 1/2SM BR FEW005 OVC033 02/01 A3002 RMK SC2ST6 SLP175

CYHM;2008-02-04 23:00;CYHM 042300Z 06011KT 2 1/2SM BR FEW005 OVC027 02/01 A3001 RMK SC1SC7 SLP174

CYHM;2008-02-04 23:40;CYHM 042340Z 06010KT 6SM BR BKN016 OVC024 RMK SC6SC2

CYHM;2008-02-05 00:00;CYHM 050000Z 05012KT 6SM BR OVC018 02/01 A3000 RMK SC8 SLP168

CYHM;2008-02-05 01:00;CYHM 050100Z 05012KT 6SM BR FEW005 OVC016 01/01 A2994 RMK SC1SC7 SLP150

CYHM;2008-02-05 01:45;CYHM 050145Z 06009KT 5SM -RA BR FEW006 OVC010 RMK SF1SC7

CYHM;2008-02-05 02:00;CYHM 050200Z 05007KT 2 1/2SM -RA BR FEW006 OVC011 01/01 A2991 RMK SF2SC6 SLP140

CYHM;2008-02-05 03:00;CYHM 050300Z 04008KT 1 1/4SM -RA BR FEW002 OVC007 01/01 A2988 RMK SF2SC6 SLP128

CYHM;2008-02-05 03:16;CYHM 050316Z 06009KT 1SM -RA BR BKN002 OVC007 RMK SF6SC2

CYHM;2008-02-05 04:00;CYHM 050400Z 05008KT 1SM -RA BR BKN002 OVC007 01/01 A2985 RMK SF6SC2 SLP117

CYHM;2008-02-05 05:00;CYHM 050500Z 05007KT 1SM -RA BR BKN002 OVC006 01/01 A2982 RMK SF6SC2 SLP109

CYHM;2008-02-05 06:00;CYHM 050600Z 07007KT 3/4SM -RA BR OVC003 01/01 A2978 RMK SC8 SLP094

CYHM;2008-02-05 07:00;CYHM 050700Z 05005KT 1 1/4SM -RA BR BKN002 OVC007 02/02 A2978 RMK SF6SC2 SLP093

CYHM;2008-02-05 08:00;CYHM 050800Z 02005KT 1 1/4SM -RA BR OVC003 01/01 A2976 RMK SC8 SLP086

CYHM;2008-02-05 09:00;CYHM 050900Z 06003KT 3SM -RA BR FEW002 BKN010 OVC020 02/02 A2973 RMK SF2SC4SC2 SLP077

CYHM;2008-02-05 09:33;CYHM 050933Z 05002KT 2 1/2SM -RA BR BKN002 OVC006 RMK SF5SC3

CYHM;2008-02-05 10:00;CYHM 051000Z 34002KT 2 1/2SM -RA BR OVC002 02/02 A2973 RMK SF8 SLP076

CYHM;2008-02-05 10:45;CYHM 051045Z 22003KT 3/8SM -RA FG OVC002 RMK FG4SF4

CYHM;2008-02-05 11:00;CYHM 051100Z 21004KT 1/4SM -RA FG OVC002 01/01 A2971 RMK FG6SF2 SLP069

CYHM;2008-02-05 11:15;CYHM 051115Z 22004KT 1/8SM -RA FG OVC001 RMK FG6SF2

CYHM;2008-02-05 11:28;CYHM 051128Z 22004KT 1/8SM FG OVC001 RMK FG6SF2

CYHM;2008-02-05 12:00;CYHM 051200Z 23004KT 1/8SM FG OVC001 02/02 A2971 RMK FG6SF2 SLP071

CYHM;2008-02-05 13:00;CYHM 051300Z 24008KT 1/8SM FG OVC001 05/05 A2975 RMK FG6SF2 SLP082

CYHM;2008-02-05 14:00;CYHM 051400Z 26008KT 1/4SM FG OVC001 06/06 A2975 RMK FG6SF2 SLP083

CYHM;2008-02-05 15:00;CYHM 051500Z 24008KT 1/4SM FG OVC002 06/06 A2976 RMK FG6SF2 SLP085

CYHM;2008-02-05 15:54;CYHM 051554Z 26008KT 1/2SM FG OVC002 RMK FG5SF3

CYHM;2008-02-05 16:00;CYHM 051600Z 26007KT 1/2SM FG OVC002 06/06 A2978 RMK FG5SF3 SLP091

CYHM;2008-02-05 16:16;CYHM 051616Z 26008KT 1 1/2SM BR BKN003 OVC008 RMK FG2SF4SC2

CYHM;2008-02-05 16:22;CYHM 051622Z 27007KT 4SM BR BKN003 OVC009 RMK SF6SC2

CYHM;2008-02-05 17:00;CYHM 051700Z 28008KT 10SM SCT007 BKN020 06/06 A2979 RMK SF3SC3 SLP094

CYHM;2008-02-05 18:00;CYHM 051800Z 29008KT 6SM BR BKN007 BKN018 06/06 A2981 RMK SF5SC2 SLP101

CYHM;2008-02-05 19:00;CYHM 051900Z 29007KT 8SM OVC008 04/03 A2982 RMK SC8 SLP105

CYHM;2008-02-05 20:00;CYHM 052000Z 29005KT 6SM BR OVC008 03/02 A2984 RMK SC8 SLP111

CYHM;2008-02-05 21:00;CYHM 052100Z 28005KT 6SM BR OVC010 03/02 A2984 RMK SC8 SLP114

CYHM;2008-02-05 22:00;CYHM 052200Z 30005KT 6SM BR OVC009 03/01 A2987 RMK SC8 SLP123

CYHM;2008-02-05 23:00;CYHM 052300Z 32004KT 4SM BR OVC008 02/01 A2989 RMK SC8 SLP129

CYHM;2008-02-06 00:00;CYHM 060000Z 33004KT 8SM OVC009 02/01 A2991 RMK SC8 SLP137

CYHM;2008-02-06 01:00;CYHM 060100Z 36004KT 9SM BKN009 OVC014 02/01 A2989 RMK SC5SC3 SLP130

CYHM;2008-02-06 02:00;CYHM 060200Z 03002KT 6SM BR FEW008 OVC012 02/00 A2989 RMK SF2SC6 SLP129

CYHM;2008-02-06 03:00;CYHM 060300Z 06007KT 5SM BR OVC004 01/00 A2985 RMK SC8 SLP115

CYHM;2008-02-06 04:00;CYHM 060400Z 05006KT 5SM -SHRASN OVC009 01/M00 A2985 RMK SC8 SLP115

CYHM;2008-02-06 05:00;CYHM 060500Z 03009KT 5SM -RASN OVC009 00/M01 A2981 RMK SC8 SLP102

CYHM;2008-02-06 06:00;CYHM 060600Z 03007KT 4SM -RASN OVC005 00/M01 A2977 RMK SC8 SLP088

CYHM;2008-02-06 06:13;CYHM 060613Z 05012KT 2 1/2SM -RASN OVC004 RMK SC8

CYHM;2008-02-06 07:00;CYHM 060700Z 05010KT 2 1/2SM -RASN BKN003 OVC008 00/M00 A2974 RMK SC6SC2 SLP077

CYHM;2008-02-06 08:00;CYHM 060800Z 04012KT 2 1/2SM -RASN OVC004 00/M00 A2970 RMK SC8 SLP065

CYHM;2008-02-06 09:00;CYHM 060900Z 03015KT 2 1/2SM -SN -FZRA OVC004 M00/M01 A2963 RMK SC8 SLP042

CYHM;2008-02-06 09:33;CYHM 060933Z 03011KT 2 1/2SM -PL -FZRA OVC004 RMK SC8

CYHM;2008-02-06 10:00;CYHM 061000Z 04012KT 2 1/4SM -PL -FZRA OVC003 M00/M00 A2962 RMK SC8 SLP038

CYHM;2008-02-06 10:50;CYHM 061050Z 06015G22KT 1SM -RA BR OVC002 RMK SF8

CYHM;2008-02-06 11:00;CYHM 061100Z 06015G22KT 2 1/2SM -RA BR OVC002 00/M00 A2954 RMK SF8 SLP011

CYHM;2008-02-06 11:06;CYHM 061106Z 05016KT 8SM -RA OVC004 RMK SF8

CYHM;2008-02-06 11:47;CYHM 061147Z 05014KT 10SM BKN005 OVC012 RMK SF6SC2

CYHM;2008-02-06 12:00;CYHM 061200Z 05012KT 4SM BR BKN005 OVC014 00/M00 A2968 RMK SF6SC2 PRESRR SLP061

CYHM;2008-02-06 12:14;CYHM 061214Z CCA 04014KT 2SM -SN -FZRA BR BKN004 OVC014 RMK SN1SF5SC2

CYHM;2008-02-06 13:00;CYHM 061300Z 06010KT 3SM -SN -FZRA BR BKN005 OVC012 M00/M01 A2966 RMK SF6SC2 SLP053

CYHM;2008-02-06 13:21;CYHM 061321Z 05012KT 5SM -FZRA BR BKN005 OVC013 RMK SF6SC2

CYHM;2008-02-06 13:37;CYHM 061337Z 05010KT 5SM -FZDZ BR BKN005 OVC013 RMK SF6SC2

CYHM;2008-02-06 14:00;CYHM 061400Z 05013KT 5SM -FZDZ BR BKN006 OVC013 M01/M02 A2968 RMK SF6SC2 SLP058

CYHM;2008-02-06 14:21;CYHM 061421Z 05014KT 5SM -SN -FZDZ BR BKN005 OVC010 RMK SF6SC2

CYHM;2008-02-06 15:00;CYHM 061500Z 05012KT 4SM -SN BR BKN005 OVC010 M01/M02 A2970 RMK SF6SC2 SLP067

CYHM;2008-02-06 16:00;CYHM 061600Z 05014KT 3SM -SN BR BKN006 OVC010 M01/M02 A2967 RMK SF6SC2 SLP058

CYHM;2008-02-06 17:00;CYHM 061700Z 05012KT 4SM -SN BR BKN005 OVC008 M01/M02 A2969 RMK SF6SC2 SLP063

CYHM;2008-02-06 18:00;CYHM 061800Z CCA 06014KT 1 1/2SM -SN BR BKN006 OVC012 M01/M02 A2968 RMK SN1SF6SC2 SLP059

CYHM;2008-02-06 18:19;CYHM 061819Z 05014KT 3/4SM -SN BR BKN008 OVC020 RMK SN1SF6SC2

CYHM;2008-02-06 18:44;CYHM 061844Z 06013KT 1 1/2SM -SN BR BKN007 OVC018 RMK SN1SF6SC2

CYHM;2008-02-06 19:00;CYHM 061900Z 05012KT 2SM -SN BR BKN005 OVC012 M02/M03 A2965 RMK SN1SF6SC2 SLP050

CYHM;2008-02-06 20:00;CYHM 062000Z 06015G21KT 2SM -SN BR BKN006 OVC018 M02/M03 A2957 RMK SF5SC3 SLP024

CYHM;2008-02-06 21:00;CYHM 062100Z 06016G22KT 2 1/2SM -SN BR OVC006 M02/M03 A2953 RMK SC8 SLP009

CYHM;2008-02-06 21:22;CYHM 062122Z 06014G20KT 1 3/4SM -PLSN BR OVC007 RMK SC8

CYHM;2008-02-06 22:00;CYHM 062200Z 06016G22KT 3/4SM -PLSN BR BKN006 OVC014 M02/M03 A2950 RMK SC6SC2 VSBY VRBL 1/2-1SM SLP000

CYHM;2008-02-06 23:00;CYHM 062300Z 07016G22KT 3/4SM -PLSN BR BKN006 OVC018 M02/M02 A2950 RMK PL1SC6SC1 VSBY VRBL 1/2-1SM SLP999

CYHM;2008-02-07 00:00;CYHM 070000Z 06020G28KT 3/4SM -PLSN BR OVC007 M01/M02 A2942 RMK PL2SC6 VSBY VRBL 1/2-1SM SLP972

CYHM;2008-02-07 01:00;CYHM 070100Z 06018G24KT 1SM -PLSN BR BKN004 OVC012 M01/M02 A2940 RMK SN2SF5SC1 VSBY VRBL 3/4-11/4SM SLP964

CYHM;2008-02-07 02:00;CYHM 070200Z 06022G32KT 1SM -PLSN BLSN BR OVC007 M01/M02 A2941 RMK SN3SF5 VSBY VRBL 3/4-11/4SM SLP968

CYHM;2008-02-07 03:00;CYHM 070300Z 06015G24KT 1SM -PLSN BLSN BR BKN006 OVC022 M01/M02 A2946 RMK SN2SF6SC1 VSBY VRBL 3/4-11/4SM SLP986

CYHM;2008-02-07 04:00;CYHM 070400Z 06015KT 3/4SM -PLSN BLSN VV003 M02/M02 A2948 RMK SN8 VIS VRB 1/2 - 1 /S02/ SLP993

CYHM;2008-02-07 05:00;CYHM 070500Z 35012G21KT 3/4SM -PLSN DRSN OVC006 M03/M04 A2949 RMK SN4ST4 VIS VRB 1/2 - 1 /S03/ SLP997

CYHM;2008-02-07 06:00;CYHM 070600Z 02014KT 3SM -PLSN DRSN BKN009 OVC020 M04/M05 A2951 RMK SF6SC2 VIS VRB 2 - 4 SLP003

CYHM;2008-02-07 06:40;CYHM 070640Z 35007KT 5SM -SN OVC010 RMK SC8

CYHM;2008-02-07 07:00;CYHM 070700Z CCA 36007KT 6SM -SN OVC014 M06/M07 A2957 RMK SC8 PRESRR SLP023

CYHM;2008-02-07 07:35;CYHM 070735Z 36007KT 2SM -SN SCT016 OVC022 RMK SN1SC2SC5

CYHM;2008-02-07 07:44;CYHM 070744Z 36005KT 1 1/2SM -SN OVC010 RMK SN2SC6 VIS VRB 1 - 2

CYHM;2008-02-07 08:00;CYHM 070800Z 02008KT 1 1/2SM -SN OVC010 M06/M08 A2959 RMK SN2SC6 VIS VRB 1 - 2 SLP029

CYHM;2008-02-07 09:00;CYHM 070900Z 02007KT 1 1/2SM -SN SCT008 OVC034 M07/M09 A2960 RMK SN2SF2SC4 VIS VRB 1 - 2 /S01/ SLP037

CYHM;2008-02-07 10:00;CYHM 071000Z 02007KT 5SM -SN FEW012 OVC035 M07/M09 A2963 RMK CF2SC6 /S02/ SLP047

CYHM;2008-02-07 11:00;CYHM 071100Z 01005KT 10SM -SN FEW014 OVC030 M07/M09 A2967 RMK CF2SC6 SLP060

CYHM;2008-02-07 12:00;CYHM 071200Z CCA 35006KT 15SM -SN BKN018 BKN032 OVC100 M08/M10 A2972 RMK SC6SC2AC1 SLP076

CYHM;2008-02-07 13:00;CYHM 071300Z 02004KT 8SM -SN SCT036 BKN091 M08/M10 A2976 RMK SC4AC3 SLP090

CYHM;2008-02-07 14:00;CYHM 071400Z 00000KT 15SM FEW035 SCT100 M08/M10 A2981 RMK SC2AC2 SLP106

CYHM;2008-02-07 15:00;CYHM 071500Z 26004KT 10SM BKN012 BKN021 M07/M09 A2984 RMK SC6SC2 SLP117

CYHM;2008-02-07 15:28;CYHM 071528Z 25005KT 7SM -SHSN OVC016 RMK SC8

CYHM;2008-02-07 16:00;CYHM 071600Z 27005KT 15SM -SHSN FEW013 BKN018 BKN170 M07/M10 A2987 RMK SC2SC3AC1 SLP127

CYHM;2008-02-07 17:00;CYHM 071700Z CCA 27010KT 10SM -SHSN OVC015 M06/M09 A2988 RMK SC8 WIND ESTD DU TO ICE ACCRETION SLP131

CYHM;2008-02-07 18:00;CYHM 071800Z 27010KT 10SM -SHSN FEW016 BKN020 M05/M08 A2988 RMK SC2SC5 WND ESTD DUE ICE ACCRETION SLP132

CYHM;2008-02-07 18:34;CYHM 071834Z 27007KT 15SM FEW018 FEW032 SCT210 RMK CU1SC2CI1 CU TR WND ESTD DUE ICE ACCRETION

CYHM;2008-02-07 19:00;CYHM 071900Z 27006KT 15SM FEW018 FEW032 FEW210 M05/M08 A2987 RMK CU1SC1CI1 CU TR WND ESTD DUE ICE ACCRETION SLP126

CYHM;2008-02-07 20:00;CYHM 072000Z 23006KT 15SM FEW020 FEW220 M04/M08 A2987 RMK CU1CI1 CU TR WND ESTD DUE ICE ACCRETION SLP127

CYHM;2008-02-07 21:00;CYHM 072100Z 23006KT 15SM FEW020 FEW220 M04/M08 A2989 RMK CU1CI1 CU TR WND ESTD DUE ICE ACCRETION SLP135

CYHM;2008-02-07 22:00;CYHM 072200Z 23007KT 15SM FEW025 FEW240 M05/M08 A2991 RMK SC1CI1 WND ESTD DUE ICE ACCRETION SLP140

CYHM;2008-02-07 23:00;CYHM 072300Z CCA 23006KT 15SM FEW025 BKN240 M06/M08 A2992 RMK SC1CI2 WND ESTD DUE ICE ACCRETION SLP145

CYHM;2008-02-08 00:00;CYHM 080000Z 23008KT 15SM BKN240 M07/M09 A2993 RMK CI2 WND ESTD DUE ICE ACCRETION SLP150

CYHM;2008-02-08 00:26;CYHM 080026Z 23008KT 15SM BKN014 RMK SC7 WND ESTD DUE ICE ACCRETION

CYHM;2008-02-08 01:00;CYHM 080100Z 23008KT 15SM OVC011 M06/M07 A2993 RMK SC8 WND ESTD DUE ICE ACCRETION SLP151

CYHM;2008-02-08 02:00;CYHM 080200Z 23008KT 15SM OVC012 M05/M07 A2993 RMK SC8 WND ESTD DUE ICE ACCRETION SLP150

CYHM;2008-02-08 03:00;CYHM 080300Z 23008KT 15SM OVC011 M05/M06 A2992 RMK SC8 WND ESTD DUE ICE ACCRETION SLP146

CYHM;2008-02-08 04:00;CYHM 080400Z 23004KT 15SM OVC014 M04/M06 A2992 RMK SC8 WND ESTD DUE ICE ACCRETION SLP146

CYHM;2008-02-08 05:00;CYHM 080500Z 23006KT 15SM OVC017 M04/M06 A2991 RMK SC8 WND ESTD DUE ICE ACCRETION SLP141

CYHM;2008-02-08 06:00;CYHM 080600Z 23006KT 15SM OVC016 M04/M06 A2991 RMK SC8 WND ESTD DUE ICE ACCRETION SLP141

CYHM;2008-02-08 07:00;CYHM 080700Z 23004KT 15SM OVC014 M04/M06 A2991 RMK SC8 WND ESTD DUE ICE ACCRETION SLP143

CYHM;2008-02-08 08:00;CYHM 080800Z 23002KT 15SM OVC012 M04/M05 A2989 RMK SC8 WND ESTD DUE ICE ACCRETION SLP135

CYHM;2008-02-08 09:00;CYHM 080900Z 05002KT 15SM OVC015 M04/M05 A2989 RMK SC8 WND ESTD DUE ICE ACCRETION SLP134

CYHM;2008-02-08 10:00;CYHM 081000Z 18002KT 15SM FEW010 OVC018 M04/M05 A2990 RMK CF2SC6 WND ESTD DUE ICE ACCRETION SLP137

CYHM;2008-02-08 10:39;CYHM 081039Z 18002KT 5SM -SHSN OVC018 RMK SC8 WND ESTD DUE ICE ACCRETION

CYHM;2008-02-08 10:48;CYHM 081048Z 18002KT 2SM -SHSN OVC012 RMK SN1SC7 WND ESTD DUE ICE ACCRETION

CYHM;2008-02-08 11:00;CYHM 081100Z 18002KT 1 1/2SM -SHSN VV013 M04/M05 A2990 RMK SN8 WND ESTD DUE ICE ACCRETION SLP137

CYHM;2008-02-08 11:10;CYHM 081110Z 18003KT 1 1/2SM -SHSN BR BKN011 OVC028 RMK SN2SF5SC2 WND ESTD DUE ICE ACCRETION

CYHM;2008-02-08 11:23;CYHM 081123Z 18002KT 4SM -SHSN BR FEW012 BKN029 OVC061 RMK SF2SC4SC2 WND ESTD DU ICE ACCRETION

CYHM;2008-02-08 11:47;CYHM 081147Z 18002KT 2 1/2SM -SHSN BR BKN015 OVC044 RMK SC6SC2 WND ESTD DU ICE ACCRETION

CYHM;2008-02-08 12:00;CYHM 081200Z 18004KT 3SM -SHSN BR FEW010 BKN018 OVC045 M04/M05 A2991 RMK SF2SC5SC2 WND ESTD DUE ICE ACCRETION SLP142

CYHM;2008-02-08 12:26;CYHM 081226Z CCA 14004KT 2SM -SHSN BR BKN021 OVC047 RMK SC6SC2 WND ESTD DU ICE ACCRETION

CYHM;2008-02-08 13:00;CYHM 081300Z 14002KT 2 1/2SM -SN BR BKN026 OVC057 M04/M05 A2992 RMK SC6SC2 WND ESTD DU ICE ACCRETION SLP144

CYHM;2008-02-08 14:00;CYHM 081400Z 14004KT 4SM -SN BR BKN049 OVC058 M04/M05 A2992 RMK SC6SC2 WND ESTD DUE ICE ACCRETION SLP146

CYHM;2008-02-08 15:00;CYHM 081500Z 14002KT 4SM -SN BR BKN019 OVC033 M04/M04 A2992 RMK SC6SC2 WND ESTD DU ACE ACCRETION SLP145

CYHM;2008-02-08 15:43;CYHM 081543Z CCA 18005KT 4SM -SN BR BKN010 OVC018 RMK SF5SC3 WND ESTD DUE ICE ACCRETION

CYHM;2008-02-08 16:00;CYHM 081600Z 14005KT 5SM -SN BR BKN007 BKN012 OVC021 M03/M04 A2993 RMK SF6SC2SC1 WND ESTSD DUE ICE ACCRETION SLP146

CYHM;2008-02-08 17:00;CYHM 081700Z 20004KT 6SM -SN SCT010 BKN018 OVC042 M02/M03 A2992 RMK SF3SC4SC1 SLP143

CYHM;2008-02-08 18:00;CYHM 081800Z 20006KT 5SM -SN BR BKN010 OVC018 M01/M03 A2990 RMK SF6SC2 SLP137

CYHM;2008-02-08 19:00;CYHM 081900Z 22007KT 5SM -SN BR SCT012 OVC017 M01/M02 A2989 RMK SF4SC4 SLP133

CYHM;2008-02-08 20:00;CYHM 082000Z 19007KT 7SM -SN SCT011 BKN016 OVC024 M01/M02 A2989 RMK SF4SC3SC1 SLP133

CYHM;2008-02-08 21:00;CYHM 082100Z 22010KT 3SM -SN FEW011 BKN018 OVC031 M01/M03 A2991 RMK SF2SC5SC2 SLP139

CYHM;2008-02-08 22:00;CYHM 082200Z 21010KT 10SM FEW019 BKN047 M01/M03 A2991 RMK SC2SC6 SLP141

CYHM;2008-02-08 23:00;CYHM 082300Z 21012KT 8SM BKN041 M01/M03 A2995 RMK SC7 SLP152

CYHM;2008-02-09 00:00;CYHM 090000Z CCA 21008KT 15SM BKN034 M02/M03 A2995 RMK SC7 SLP153

CYHM;2008-02-09 01:00;CYHM 090100Z 19006KT 15SM BKN029 OVC058 M02/M03 A2995 RMK SC6SC2 SLP154

CYHM;2008-02-09 02:00;CYHM 090200Z 18005KT 15SM BKN021 BKN032 OVC057 M02/M03 A2994 RMK SC6SC2SC1 SLP152

CYHM;2008-02-09 03:00;CYHM 090300Z 17007KT 12SM OVC023 M01/M03 A2994 RMK SC8 SLP152

CYHM;2008-02-09 03:08;CYHM 090308Z 18004KT 8SM -SHSN OVC020 RMK SC8

CYHM;2008-02-09 04:00;CYHM 090400Z 16005KT 5SM -SHSN OVC015 M01/M02 A2993 RMK SC8 SLP148

CYHM;2008-02-09 05:00;CYHM 090500Z 16005KT 5SM -SHSN FEW008 BKN030 OVC051 M01/M02 A2993 RMK CF1SC6SC1 SLP147

CYHM;2008-02-09 05:21;CYHM 090521Z 15005KT 6SM -SHSN BKN004 OVC052 RMK CF6SC2

CYHM;2008-02-09 06:00;CYHM 090600Z 16006KT 4SM -SHSN FEW003 SCT033 OVC056 M01/M02 A2992 RMK CF2SC2SC4 SLP143

CYHM;2008-02-09 07:00;CYHM 090700Z 15004KT 3SM -SHSN BKN025 OVC055 M01/M02 A2991 RMK SC6SC2 VIS VRB 2 - 4 SLP139

CYHM;2008-02-09 08:00;CYHM 090800Z 14007KT 7SM -SHSN BKN025 OVC036 M01/M02 A2989 RMK SC7SC1 SLP132

CYHM;2008-02-09 09:00;CYHM 090900Z 13008KT 5SM -SN OVC035 M01/M01 A2986 RMK SC8 SLP121

CYHM;2008-02-09 10:00;CYHM 091000Z 13005KT 3SM -SN OVC017 M01/M01 A2984 RMK SC8 VIS VRB 2 - 4 SLP115

CYHM;2008-02-09 10:10;CYHM 091010Z 13007KT 1 1/2SM -SN OVC022 RMK SN2SC6 VIS VRB 1 - 2

CYHM;2008-02-09 10:30;CYHM 091030Z 12007KT 1SM -SN VV006 RMK SN8 VIS VRB 3/4 -11/4

CYHM;2008-02-09 11:00;CYHM 091100Z 13007KT 1 1/2SM -SN VV008 M00/M01 A2982 RMK SN8 VIS VRB 1 - 2 /S01/ SLP110

CYHM;2008-02-09 11:51;CYHM 091151Z 14010KT 1 1/2SM -SN OVC004 RMK SN5SF3

CYHM;2008-02-09 12:00;CYHM 091200Z 14010KT 1 1/2SM -SN OVC004 M00/M02 A2981 RMK SN5SF3 SLP105

CYHM;2008-02-09 12:13;CYHM 091213Z 15011KT 1SM -SN OVC004 RMK SN6SF2

CYHM;2008-02-09 13:00;CYHM 091300Z 16011KT 1SM -SN OVC004 00/00 A2980 RMK SN6SF2 SLP100

CYHM;2008-02-09 13:44;CYHM 091344Z 17011KT 2SM -SN OVC004 RMK SN2SF6

CYHM;2008-02-09 14:00;CYHM 091400Z 17010KT 1 1/2SM -SN OVC004 00/00 A2977 RMK SN2SF6 SLP092

CYHM;2008-02-09 14:18;CYHM 091418Z 16012KT 2 1/2SM -SN OVC005 RMK SN1SF7

CYHM;2008-02-09 14:48;CYHM 091448Z 15010KT 1 1/4SM -SN OVC005 RMK SN4SF4

CYHM;2008-02-09 15:00;CYHM 091500Z 15010KT 1 1/4SM -SN OVC004 00/00 A2974 RMK SN4SF4 SLP080

CYHM;2008-02-09 15:35;CYHM 091535Z 16012KT 2SM -SN OVC004 RMK SN2SF6

CYHM;2008-02-09 16:00;CYHM 091600Z 16011KT 2 1/2SM -SN BKN004 OVC018 00/00 A2972 RMK SN1SF6SC2 SLP075

CYHM;2008-02-09 16:17;CYHM 091617Z 16012KT 1 1/2SM -SN BKN004 OVC015 RMK SN2SF4SC2

CYHM;2008-02-09 17:00;CYHM 091700Z 17012KT 2SM -SN OVC004 01/00 A2970 RMK SN2SF6 SLP067

CYHM;2008-02-09 17:33;CYHM 091733Z 18012KT 1 1/4SM -SN OVC004 RMK SN3SF5

CYHM;2008-02-09 18:00;CYHM 091800Z 18011KT 1 1/2SM -SN OVC004 01/00 A2966 RMK SN2SF6 SLP054

CYHM;2008-02-09 18:41;CYHM 091841Z 19011KT 2 1/2SM -SN BR OVC004 RMK SN1SF7

CYHM;2008-02-09 19:00;CYHM 091900Z 18013KT 4SM -SN BR OVC005 01/01 A2964 RMK SF8 PCPN VRY LGT SLP045

CYHM;2008-02-09 19:41;CYHM 091941Z 19013KT 4SM -SHRASN BR BKN006 OVC012 RMK SF5SC3

CYHM;2008-02-09 20:00;CYHM 092000Z 19013KT 4SM -SHRA BR BKN007 OVC012 02/01 A2962 RMK SF5SC3 SLP041

CYHM;2008-02-09 21:00;CYHM 092100Z 20015KT 5SM -SHRA BR SCT006 BKN012 OVC020 02/01 A2962 RMK SF3SC2SC2 SLP039

CYHM;2008-02-09 21:05;CYHM 092105Z 20016KT 3SM -SHRASN BR SCT006 BKN012 OVC019 RMK SF3SC3SC2

CYHM;2008-02-09 21:21;CYHM 092121Z 21016KT 7SM SCT007 BKN015 BKN025 BKN072 RMK CF3SC2SC1AC1

CYHM;2008-02-09 22:00;CYHM 092200Z 22015KT 8SM FEW008 SCT016 BKN050 02/00 A2963 RMK CF2SC2SC2 SLP041

CYHM;2008-02-09 23:00;CYHM 092300Z 22022G30KT 10SM BKN018 OVC030 01/M01 A2964 RMK SC6SC2 SLP046

CYHM;2008-02-09 23:51;CYHM 092351Z 22022G29KT 7SM -SHSN BKN016 OVC025 RMK SC6SC2

CYHM;2008-02-10 00:00;CYHM 100000Z 23022G29KT 8SM -SHSN BKN016 OVC024 01/M02 A2966 RMK SC6SC2 SLP053

CYHM;2008-02-10 00:38;CYHM 100038Z 23022G28KT 10SM BKN017 OVC025 RMK SC6SC2

CYHM;2008-02-10 01:00;CYHM 100100Z 23022G29KT 12SM BKN018 BKN025 OVC034 01/M03 A2967 RMK SC5SC2SC2 SLP056

CYHM;2008-02-10 02:00;CYHM 100200Z 22020KT 10SM SCT018 BKN026 OVC045 00/M03 A2968 RMK SC3SC3SC2 SLP058

CYHM;2008-02-10 03:00;CYHM 100300Z 23021KT 10SM FEW018 BKN024 OVC044 M00/M03 A2968 RMK CF2SC3SC3 SLP058

CYHM;2008-02-10 04:00;CYHM 100400Z 23022KT 12SM FEW025 OVC043 M00/M05 A2966 RMK CF2SC6 SLP053

CYHM;2008-02-10 05:00;CYHM 100500Z 23017KT 15SM FEW042 M01/M05 A2963 RMK SC1 SLP043

CYHM;2008-02-10 06:00;CYHM 100600Z 22015KT 15SM SCT033 SCT060 BKN180 M01/M05 A2960 RMK CF3SC1AC1 SLP032

CYHM;2008-02-10 06:35;CYHM 100635Z 21016KT 7SM -SHSN OVC026 RMK SC8

CYHM;2008-02-10 06:48;CYHM 100648Z 21015G20KT 1SM -SHSN DRSN VV007 RMK SN8 VIS VRB 3/4 - 11/4

CYHM;2008-02-10 07:00;CYHM 100700Z 22017KT 1 1/2SM -SHSN DRSN OVC012 M02/M03 A2957 RMK SN2SC6 VIS VRB 1 - 2 SLP023

CYHM;2008-02-10 07:15;CYHM 100715Z 21016KT 4SM -SHSN DRSN FEW008 OVC035 RMK CF2SC6

CYHM;2008-02-10 07:30;CYHM 100730Z 22016KT 1 1/2SM -SHSN DRSN VV009 RMK SN8 VIS VRB 1 - 2

CYHM;2008-02-10 07:45;CYHM 100745Z 22017KT 3SM -SHSN DRSN OVC014 RMK SC8 VIS VRB 2 - 4

CYHM;2008-02-10 08:00;CYHM 100800Z 23016KT 3SM -SHSN DRSN OVC011 M02/M03 A2956 RMK SC8 VIS VRB 2 - 4 /S01/ SLP020

CYHM;2008-02-10 08:16;CYHM 100816Z 23018KT 2SM -SHSN DRSN OVC010 RMK SN1SC7

CYHM;2008-02-10 08:27;CYHM 100827Z 25017KT 5SM -SHSN DRSN FEW010 OVC018 RMK CF2SC6

CYHM;2008-02-10 09:00;CYHM 100900Z 25020G29KT 10SM -SHSN DRSN FEW017 SCT050 BKN090 M02/M04 A2958 RMK CF2SC1AC2 SLP025

CYHM;2008-02-10 10:00;CYHM 101000Z 25022G30KT 12SM -SHSN DRSN FEW038 BKN120 M03/M08 A2959 RMK SC2AC3 SLP027

CYHM;2008-02-10 11:00;CYHM 101100Z CCA 24020G33KT 15SM FEW035 FEW170 M03/M09 A2959 RMK SC2AC1 SLP028

CYHM;2008-02-10 12:00;CYHM 101200Z 23022G28KT 15SM DRSN FEW028 BKN036 BKN140 M04/M09 A2959 RMK CU2SC4AC2 SLP030

CYHM;2008-02-10 12:21;CYHM 101221Z 25026G36KT 8SM -SHSN DRSN FEW027 BKN035 BKN140 RMK CU2SC4AC1

CYHM;2008-02-10 12:36;CYHM 101236Z 28023G36KT 3/8SM -SN BLSN VV009 RMK SN8

CYHM;2008-02-10 12:44;CYHM 101244Z 27025G33KT 4SM -SHSN BLSN FEW023 BKN038 BKN140 RMK CU2SC3AC2

CYHM;2008-02-10 12:53;CYHM 101253Z 27028G42KT 3/4SM -SHSN BLSN FEW023 BKN039 BKN140 RMK SN2CU1SC4AC2

CYHM;2008-02-10 13:00;CYHM 101300Z 28026G42KT 1SM -SHSN BLSN FEW023 BKN039 BKN140 M08/M11 A2963 RMK SN2CU1SC4AC2 VIS VRBL 5/8-11/2 SLP044

CYHM;2008-02-10 13:14;CYHM 101314Z 27023G28KT 15SM -SHSN DRSN FEW023 BKN039 BKN140 RMK CF1SC4AC2

CYHM;2008-02-10 13:44;CYHM 101344Z 28018G30KT 15SM DRSN FEW025 FEW040 BKN054 RMK CF1SC2SC5

CYHM;2008-02-10 14:00;CYHM 101400Z 29023G34KT 15SM DRSN FEW025 BKN058 BKN130 M10/M16 A2964 RMK CF1SC6AC1 CF TR SLP047

CYHM;2008-02-10 15:00;CYHM 101500Z 27029G38KT 15SM DRSN FEW030 FEW060 M11/M17 A2968 RMK CU2SC1 SLP063

CYHM;2008-02-10 15:53;CYHM 101553Z 28026G41KT 1/4SM -SHSN +BLSN VV008 RMK BLSN8

CYHM;2008-02-10 16:00;CYHM 101600Z 27029G41KT 1/2SM -SHSN BLSN BKN022 M12/M15 A2972 RMK BLSN5CU2 SLP078

CYHM;2008-02-10 16:05;CYHM 101605Z 26028G40KT 12SM -SHSN DRSN SCT021 RMK CU3

CYHM;2008-02-10 17:00;CYHM 101700Z CCA 27028G42KT 15SM -SHSN DRSN BKN035 M12/M19 A2977 RMK CU5 SLP094

CYHM;2008-02-10 18:00;CYHM 101800Z 27023G34KT 15SM -SHSN DRSN BKN035 BKN046 M13/M23 A2981 RMK CU5SC1 PCPN VRY LGT SLP107

CYHM;2008-02-10 19:00;CYHM 101900Z 27030G38KT 15SM -SHSN DRSN SCT037 M15/M21 A2984 RMK CU4 SLP120

CYHM;2008-02-10 20:00;CYHM 102000Z 27027G35KT 15SM -SHSN DRSN SCT025 BKN035 M15/M25 A2990 RMK CU3SC2 SLP138

CYHM;2008-02-10 21:00;CYHM 102100Z 26028G36KT 15SM DRSN VCSH SCT027 BKN035 M16/M23 A2995 RMK CU3SC2 SLP158

CYHM;2008-02-10 21:19;CYHM 102119Z 26026G34KT 3SM -SHSN BLSN SCT025 BKN034 RMK CU3SC2

CYHM;2008-02-10 21:35;CYHM 102135Z 26028G34KT 1 1/2SM -SHSN BLSN BKN024 RMK BLSN2SC5

CYHM;2008-02-10 21:48;CYHM 102148Z 26025G33KT 3SM -SHSN BLSN BKN024 BKN031 RMK SC5SC1 CU ASOCTD

CYHM;2008-02-10 21:52;CYHM 102152Z 26030G42KT 3/4SM -SHSN BLSN VV012 RMK BLSN8

CYHM;2008-02-10 22:00;CYHM 102200Z 26028G36KT 4SM -SHSN BLSN BKN024 BKN030 M16/M22 A3000 RMK SC5SC1 SLP173

CYHM;2008-02-10 22:10;CYHM 102210Z CCA 26026G33KT 12SM DRSN SCT024 REBLSN RMK SC4

CYHM;2008-02-10 23:00;CYHM 102300Z 25028G34KT 15SM DRSN FEW025 SCT035 M17/M24 A3004 RMK SC2SC2 SLP189

CYHM;2008-02-11 00:00;CYHM 110000Z 24025KT 15SM DRSN FEW025 M18/M24 A3007 RMK SC2 SLP201

CYHM;2008-02-11 01:00;CYHM 110100Z 24025G31KT 15SM FEW025 M18/M25 A3010 RMK SC1 SLP210

CYHM;2008-02-11 02:00;CYHM 110200Z 24024KT 15SM FEW030 M18/M25 A3013 RMK SC1 SC TR SLP219

CYHM;2008-02-11 03:00;CYHM 110300Z 24023G28KT 15SM FEW035 FEW200 M18/M26 A3015 RMK SC1CI1 SC TR SLP231

CYHM;2008-02-11 04:00;CYHM 110400Z 23022G29KT 15SM FEW220 M19/M26 A3015 RMK CI1 SLP231

CYHM;2008-02-11 05:00;CYHM 110500Z 24022KT 15SM FEW210 M19/M25 A3016 RMK CI1 SLP232

CYHM;2008-02-11 06:00;CYHM 110600Z 23022KT 15SM FEW210 M19/M25 A3016 RMK CI1 SLP235

CYHM;2008-02-11 07:00;CYHM 110700Z 23022KT 15SM FEW220 M19/M25 A3018 RMK CI1 SLP241

CYHM;2008-02-11 08:00;CYHM 110800Z 24018KT 15SM FEW210 M18/M25 A3018 RMK CI1 SLP241

CYHM;2008-02-11 09:00;CYHM 110900Z 24020KT 15SM FEW210 M18/M24 A3019 RMK CI1 SLP246

CYHM;2008-02-11 10:00;CYHM 111000Z 25018KT 15SM FEW220 M18/M24 A3020 RMK CI1 SLP250

CYHM;2008-02-11 11:00;CYHM 111100Z 24016KT 15SM FEW210 M18/M23 A3023 RMK CI1 SLP257

CYHM;2008-02-11 12:00;CYHM 111200Z 25014KT 15SM FEW025 SCT210 M18/M23 A3025 RMK SC1CI2 SC TR SLP266

CYHM;2008-02-11 13:00;CYHM 111300Z 24015KT 15SM FEW025 FEW210 M18/M23 A3027 RMK CU1CI1 SLP273

CYHM;2008-02-11 14:00;CYHM 111400Z 25014KT 15SM FEW025 FEW210 M17/M22 A3029 RMK CU1CI1 CU TR CI TR SLP279

CYHM;2008-02-11 15:00;CYHM 111500Z 24015KT 15SM FEW025 FEW210 M15/M20 A3030 RMK CU1CI1 SLP282

CYHM;2008-02-11 16:00;CYHM 111600Z 25018G23KT 15SM FEW025 FEW220 M14/M19 A3030 RMK CU1CI1 CU TR CI TR SLP283

CYHM;2008-02-11 17:00;CYHM 111700Z 25018KT 15SM FEW025 FEW220 M13/M19 A3030 RMK CU1CI1 CU TR CI TR SLP284

CYHM;2008-02-11 18:00;CYHM 111800Z 24024KT 15SM FEW025 FEW210 M12/M18 A3029 RMK CU1CI1 CU TR SLP278

CYHM;2008-02-11 19:00;CYHM 111900Z 25020KT 15SM FEW025 SCT220 M12/M18 A3029 RMK CU2CI1 SLP278

CYHM;2008-02-11 20:00;CYHM 112000Z 24015G21KT 15SM FEW028 FEW250 M11/M18 A3030 RMK CU1CI1 SLP282

CYHM;2008-02-11 21:00;CYHM 112100Z 25012G19KT 15SM FEW028 SCT250 M11/M18 A3031 RMK CU1CI1 CU TR CONTRAILS SLP286

CYHM;2008-02-11 22:00;CYHM 112200Z 25013KT 15SM FEW028 SCT250 M11/M19 A3032 RMK CU1CI1 CU TR CONTRAILS SLP289

CYHM;2008-02-11 23:00;CYHM 112300Z 25011KT 15SM FEW028 FEW250 M12/M19 A3034 RMK CU1CI1 CU TR CONTRAILS SLP296

CYHM;2008-02-12 00:00;CYHM 120000Z 22009KT 15SM FEW250 M14/M19 A3036 RMK CI1 SLP301

CYHM;2008-02-12 01:00;CYHM 120100Z 23009KT 15SM FEW250 M14/M19 A3036 RMK CI1 CI TR SLP303

CYHM;2008-02-12 02:00;CYHM 120200Z 23007KT 15SM FEW250 M14/M20 A3037 RMK CI1 SLP306

CYHM;2008-02-12 03:00;CYHM 120300Z 23007KT 15SM FEW250 M15/M20 A3036 RMK CI1 SLP302

CYHM;2008-02-12 04:00;CYHM 120400Z 23005KT 15SM FEW250 M16/M21 A3036 RMK CI1 CI TR SLP303

CYHM;2008-02-12 05:00;CYHM 120500Z 25005KT 15SM FEW250 M15/M20 A3036 RMK CI1 CI TR SLP303

CYHM;2008-02-12 06:00;CYHM 120600Z 22007KT 15SM FEW250 M17/M21 A3037 RMK CI1 CI TR SLP305

CYHM;2008-02-12 07:00;CYHM 120700Z 25003KT 15SM FEW250 M16/M21 A3036 RMK CI1 CI TR SLP301

CYHM;2008-02-12 08:00;CYHM 120800Z 26004KT 15SM FEW250 M16/M20 A3035 RMK CI1 SLP297

CYHM;2008-02-12 09:00;CYHM 120900Z 29002KT 15SM FEW250 M17/M21 A3033 RMK CI1 SLP290

CYHM;2008-02-12 10:00;CYHM 121000Z 04006KT 15SM SCT250 M16/M20 A3033 RMK CI1 SLP290

CYHM;2008-02-12 11:00;CYHM 121100Z 04004KT 15SM FEW020 BKN190 M15/M19 A3033 RMK SC1AC4 SC TR SLP291

CYHM;2008-02-12 12:00;CYHM 121200Z 05004KT 15SM FEW035 BKN160 BKN180 M15/M18 A3033 RMK SC2AC3AC2 SLP290

CYHM;2008-02-12 13:00;CYHM 121300Z 08006KT 10SM SCT016 BKN150 OVC180 M13/M16 A3030 RMK SC3AC3AC2 SLP281

CYHM;2008-02-12 14:00;CYHM 121400Z 08006KT 15SM SCT018 BKN026 OVC180 M12/M15 A3029 RMK SC3SC3AC2 SLP279

CYHM;2008-02-12 15:00;CYHM 121500Z 10014KT 15SM SCT025 BKN078 OVC110 M10/M14 A3027 RMK SC3AC2AS2 SLP271

CYHM;2008-02-12 16:00;CYHM 121600Z 06014KT 15SM FEW025 BKN075 OVC091 M10/M13 A3023 RMK SC2AC5AC2 SLP256

CYHM;2008-02-12 17:00;CYHM 121700Z 08020KT 15SM FEW035 BKN062 OVC110 M08/M13 A3018 RMK SC2SC4AC2 SLP241

CYHM;2008-02-12 18:00;CYHM 121800Z 07020KT 15SM FEW041 BKN049 BKN082 OVC100 M08/M12 A3013 RMK SC2SC3AC2AC1 SLP222

CYHM;2008-02-12 18:05;CYHM 121805Z 07018G24KT 10SM -SHSN BKN042 BKN049 OVC082 RMK SC5SC2AC1

CYHM;2008-02-12 19:00;CYHM 121900Z 08022KT 7SM -SHSN BKN060 OVC076 M08/M11 A3007 RMK SC7AC1 SLP201

CYHM;2008-02-12 19:23;CYHM 121923Z 07015G24KT 2 1/2SM -SN BKN027 OVC064 RMK SN2SC3ST3

CYHM;2008-02-12 20:00;CYHM 122000Z 07020G27KT 1 3/4SM -SN OVC024 M08/M10 A3003 RMK SN2SC6 SLP188

CYHM;2008-02-12 21:00;CYHM 122100Z 07015G22KT 1SM -SN OVC023 M08/M10 A3000 RMK SN4SC4 SLP177

CYHM;2008-02-12 21:46;CYHM 122146Z 07020G26KT 3/4SM -SN OVC020 RMK SN4SC4

CYHM;2008-02-12 22:00;CYHM 122200Z 06018G25KT 3/4SM -SN OVC020 M08/M09 A2994 RMK SN4SC4 SLP159

CYHM;2008-02-12 23:00;CYHM 122300Z 06018G28KT 3/4SM -SN DRSN OVC020 M07/M09 A2990 RMK SN4SC4 SLP143

CYHM;2008-02-13 00:00;CYHM 130000Z 06022G27KT 3/4SM -SN DRSN OVC021 M07/M08 A2987 RMK SN4SC4 SLP131

CYHM;2008-02-13 01:00;CYHM 130100Z 06018G29KT 1 1/4SM -SN DRSN OVC030 M07/M08 A2981 RMK SN4SC4 SLP113

CYHM;2008-02-13 02:00;CYHM 130200Z 06018G24KT 2SM -SN DRSN OVC025 M07/M08 A2976 RMK SN3SC5 SLP097

CYHM;2008-02-13 03:00;CYHM 130300Z 07015G21KT 2SM -SN DRSN OVC022 M06/M07 A2973 RMK SN4SC4 SLP082

CYHM;2008-02-13 04:00;CYHM 130400Z 07014KT 2SM -SN DRSN OVC018 M06/M07 A2970 RMK SN3SC5 SLP072

CYHM;2008-02-13 05:00;CYHM 130500Z 06012KT 3SM -SN DRSN OVC018 M06/M07 A2967 RMK SC8 SLP063

CYHM;2008-02-13 06:00;CYHM 130600Z 05008KT 4SM -SN OVC010 M05/M06 A2965 RMK SC8 SLP054

CYHM;2008-02-13 07:00;CYHM 130700Z 03002KT 6SM -SN OVC007 M05/M06 A2963 RMK SC8 SLP048

CYHM;2008-02-13 08:00;CYHM 130800Z 27003KT 6SM -SHSN OVC005 M05/M05 A2962 RMK SC8 SLP044

CYHM;2008-02-13 09:00;CYHM 130900Z CCA 27007KT 6SM -SHSN OVC006 M05/M05 A2964 RMK SC8 SLP050

CYHM;2008-02-13 09:37;CYHM 130937Z 28008KT 6SM BR OVC008 RMK SC8

CYHM;2008-02-13 10:00;CYHM 131000Z 27008KT 6SM BR OVC007 M05/M06 A2966 RMK SC8 SLP056

CYHM;2008-02-13 11:00;CYHM 131100Z 26010KT 6SM BR FEW007 OVC012 M05/M07 A2969 RMK SC2SC6 SLP067

CYHM;2008-02-13 12:00;CYHM 131200Z 28012KT 6SM BR BKN013 OVC062 M06/M08 A2971 RMK SC6SC2 SLP074

CYHM;2008-02-13 13:00;CYHM 131300Z 28007KT 7SM FEW014 BKN065 OVC150 M07/M10 A2973 RMK SC2SC3AC2 SLP080

CYHM;2008-02-13 14:00;CYHM 131400Z 30010KT 10SM FEW036 FEW065 BKN150 BKN220 M08/M11 A2976 RMK CU1SC2AC2CI1 CU TR CONTRAIL SLP090

CYHM;2008-02-13 15:00;CYHM 131500Z 32012KT 10SM FEW060 SCT150 BKN220 M08/M11 A2978 RMK SC2AC2CI2 SLP098

CYHM;2008-02-13 16:00;CYHM 131600Z 32012KT 10SM FEW060 BKN170 BKN220 M06/M11 A2979 RMK SC1AC4CI2 SLP101

CYHM;2008-02-13 17:00;CYHM 131700Z 32010KT 10SM -SHSN FEW045 BKN140 BKN220 M07/M11 A2978 RMK SC2AC3CI2 SLP100

CYHM;2008-02-13 17:45;CYHM 131745Z 32009KT 15SM FEW060 FEW180 BKN210 RMK SC1AC1CI2

CYHM;2008-02-13 18:00;CYHM 131800Z 32010KT 15SM FEW060 FEW180 BKN210 M06/M11 A2978 RMK SC1AC1CI2 SLP097

CYHM;2008-02-13 19:00;CYHM 131900Z 29009KT 15SM FEW170 SCT220 M05/M11 A2978 RMK AC1CI2 SLP098

CYHM;2008-02-13 20:00;CYHM 132000Z 30012KT 15SM FEW024 FEW200 M04/M11 A2979 RMK CU1CI1 CU TR CONTRAIL SLP100

CYHM;2008-02-13 21:00;CYHM 132100Z 27012KT 15SM FEW024 FEW200 M05/M11 A2981 RMK CU1CI1 CU TR SLP106

CYHM;2008-02-13 22:00;CYHM 132200Z 30009KT 15SM FEW022 FEW200 M06/M11 A2983 RMK CU1CI1 CU TR CI TR SLP113

CYHM;2008-02-13 23:00;CYHM 132300Z 29003KT 15SM FEW022 M07/M11 A2986 RMK SC1 SC TR SLP123

CYHM;2008-02-14 00:00;CYHM 140000Z 28004KT 15SM FEW022 M08/M12 A2989 RMK SC1 SC TR SLP136

CYHM;2008-02-14 01:00;CYHM 140100Z 24003KT 15SM FEW024 M10/M13 A2992 RMK SC1 SLP145

CYHM;2008-02-14 02:00;CYHM 140200Z 27008KT 15SM FEW024 FEW220 M09/M11 A2993 RMK SC1CI1 SC TR CI TR SLP148

CYHM;2008-02-14 03:00;CYHM 140300Z 28006KT 15SM FEW024 FEW220 M09/M11 A2993 RMK SC1CI1 CI TR SLP150

CYHM;2008-02-14 04:00;CYHM 140400Z 22004KT 15SM OVC037 M10/M11 A2994 RMK SC8 SLP154

CYHM;2008-02-14 05:00;CYHM 140500Z 23005KT 15SM OVC034 M09/M11 A2995 RMK SC8 SLP157

CYHM;2008-02-14 06:00;CYHM 140600Z 23007KT 15SM OVC033 M08/M11 A2996 RMK SC8 SLP161

CYHM;2008-02-14 07:00;CYHM 140700Z 23007KT 15SM OVC034 M08/M11 A2998 RMK SC8 SLP167

CYHM;2008-02-14 08:00;CYHM 140800Z 22007KT 15SM OVC034 M08/M11 A3000 RMK SC8 SLP172

CYHM;2008-02-14 09:00;CYHM 140900Z 24007KT 15SM OVC034 M07/M11 A3002 RMK SC8 SLP180

CYHM;2008-02-14 10:00;CYHM 141000Z 22005KT 15SM OVC033 M07/M10 A3003 RMK SC8 SLP182

CYHM;2008-02-14 11:00;CYHM 141100Z 22007KT 15SM OVC033 M07/M10 A3004 RMK SC8 SLP185

CYHM;2008-02-14 12:00;CYHM 141200Z 22008KT 15SM OVC034 M07/M10 A3005 RMK SC8 SLP190

CYHM;2008-02-14 13:00;CYHM 141300Z 22010KT 15SM FEW034 BKN220 M07/M10 A3006 RMK SC2CI2 SLP195

CYHM;2008-02-14 14:00;CYHM 141400Z 22012KT 15SM FEW035 FEW180 BKN220 M07/M10 A3006 RMK SC1AC1CI2 SLP195

CYHM;2008-02-14 15:00;CYHM 141500Z 23014KT 15SM FEW035 SCT180 BKN220 M06/M09 A3007 RMK SC1AC2CI3 CONTRAIL SLP199

CYHM;2008-02-14 16:00;CYHM 141600Z 24012KT 15SM FEW160 SCT220 M05/M08 A3007 RMK AC1CI2 CONTARIL SLP196

CYHM;2008-02-14 17:00;CYHM 141700Z 22017KT 15SM FEW130 FEW180 BKN220 M04/M09 A3004 RMK AC1AC1CI2 SLP187

CYHM;2008-02-14 18:00;CYHM 141800Z 23017G22KT 15SM FEW035 FEW130 BKN220 M03/M10 A3003 RMK CU1AC1CS5 CU TR HALO SLP183

CYHM;2008-02-14 19:00;CYHM 141900Z 22017KT 15SM FEW035 FEW160 BKN210 M04/M10 A3002 RMK CU1AC1CI6 CU TR SLP179

CYHM;2008-02-14 20:00;CYHM 142000Z 21020G26KT 15SM BKN082 OVC140 M03/M08 A3000 RMK AC6AC2 SLP173

CYHM;2008-02-14 21:00;CYHM 142100Z 21018KT 15SM BKN082 OVC140 M03/M08 A2998 RMK AC7AC1 SLP167

CYHM;2008-02-14 22:00;CYHM 142200Z 20013KT 15SM BKN085 OVC120 M03/M07 A2998 RMK AC7AC1 SLP166

CYHM;2008-02-14 23:00;CYHM 142300Z 21014KT 12SM BKN088 OVC120 M03/M06 A2998 RMK AC6AC2 SLP166

CYHM;2008-02-15 00:00;CYHM 150000Z 19016KT 15SM FEW084 BKN120 OVC210 M02/M06 A2996 RMK AC2AC4CI1 SLP158

CYHM;2008-02-15 01:00;CYHM 150100Z 19019G24KT 15SM OVC100 M02/M06 A2992 RMK AC7 SLP146

CYHM;2008-02-15 02:00;CYHM 150200Z 20018KT 15SM BKN100 M01/M06 A2991 RMK AC7 SLP140

CYHM;2008-02-15 03:00;CYHM 150300Z 20019KT 15SM OVC100 M01/M06 A2989 RMK AC7 SLP133

CYHM;2008-02-15 04:00;CYHM 150400Z 21020KT 15SM OVC120 M01/M06 A2987 RMK AC8 SLP128

CYHM;2008-02-15 05:00;CYHM 150500Z 22020KT 15SM OVC033 M01/M06 A2986 RMK SC8 SLP125

CYHM;2008-02-15 06:00;CYHM 150600Z 23025G33KT 15SM -SHSN DRSN FEW027 SCT035 OVC055 M00/M05 A2986 RMK CF2SC2SC4 SLP123

CYHM;2008-02-15 07:00;CYHM 150700Z 24022KT 12SM -SHSN DRSN FEW022 OVC046 M01/M05 A2988 RMK CF2SC6 SLP128

CYHM;2008-02-15 08:00;CYHM 150800Z 24020KT 10SM -SHSN DRSN OVC020 M01/M04 A2990 RMK SC8 SLP135

CYHM;2008-02-15 09:00;CYHM 150900Z 24015KT 7SM -SHSN DRSN OVC019 M01/M04 A2990 RMK SC8 SLP137

CYHM;2008-02-15 10:00;CYHM 151000Z 25012KT 4SM -SN OVC018 M02/M03 A2993 RMK SC8 SLP146

CYHM;2008-02-15 11:00;CYHM 151100Z 25010KT 6SM -SN OVC014 M02/M03 A2995 RMK SC8 CIG RAG SLP154

CYHM;2008-02-15 12:00;CYHM 151200Z 32008KT 15SM -SN FEW011 OVC025 M04/M08 A3000 RMK SF2SC6 SLP171

CYHM;2008-02-15 13:00;CYHM 151300Z 32010KT 15SM -SN OVC026 M05/M10 A3005 RMK SC8 SLP187

CYHM;2008-02-15 13:41;CYHM 151341Z 30008KT 15SM FEW025 SCT058 RMK SC2SC2

CYHM;2008-02-15 14:00;CYHM 151400Z 32010KT 15SM FEW025 SCT052 M06/M11 A3009 RMK SC2SC2 SLP202

CYHM;2008-02-15 15:00;CYHM 151500Z 29012G17KT 15SM FEW022 SCT052 SCT220 M05/M10 A3011 RMK CU2SC2CI1 SLP209

CYHM;2008-02-15 16:00;CYHM 151600Z 28018G24KT 15SM FEW025 SCT052 SCT220 M05/M11 A3012 RMK CU2SC2CI0 SLP213

CYHM;2008-02-15 17:00;CYHM 151700Z 29014G24KT 15SM FEW025 FEW052 SCT220 M05/M12 A3014 RMK CU2SC1CI0 SLP220

CYHM;2008-02-15 17:54;CYHM 151754Z 32014KT 15SM -SHSN FEW022 BKN037 BKN220 RMK CU2SC2CI1

CYHM;2008-02-15 18:00;CYHM 151800Z 32014KT 15SM -SHSN FEW022 BKN037 BKN220 M05/M11 A3014 RMK CU2SC2CI1 SLP219

CYHM;2008-02-15 19:00;CYHM 151900Z 32010KT 15SM -SHSN FEW024 BKN041 BKN056 M06/M12 A3017 RMK CU2SC3SC2 SLP227

CYHM;2008-02-15 20:00;CYHM 152000Z 28014G20KT 15SM -SHSN BKN040 BKN250 M06/M13 A3018 RMK SC7CI1 PCPN VRY LGT SLP233

CYHM;2008-02-15 20:50;CYHM 152050Z 27015KT 15SM BKN034 BKN250 RMK SC5CI0

CYHM;2008-02-15 21:00;CYHM 152100Z 28014KT 15SM BKN036 BKN250 M06/M14 A3019 RMK SC5CI0 SLP236

CYHM;2008-02-15 22:00;CYHM 152200Z 29012KT 15SM BKN035 BKN250 M08/M14 A3022 RMK SC6CI1 SLP247

CYHM;2008-02-15 23:00;CYHM 152300Z 29012KT 15SM SCT037 BKN250 M08/M15 A3025 RMK SC3CI1 SLP255

CYHM;2008-02-16 00:00;CYHM 160000Z 29007KT 15SM BKN037 M08/M14 A3026 RMK SC7 SLP262

CYHM;2008-02-16 01:00;CYHM 160100Z 28006KT 15SM BKN036 M08/M14 A3026 RMK SC7 SLP263

CYHM;2008-02-16 02:00;CYHM 160200Z 25005KT 15SM BKN036 M08/M13 A3028 RMK SC7 SLP268

CYHM;2008-02-16 03:00;CYHM 160300Z 24006KT 15SM OVC036 M08/M11 A3029 RMK SC8 SLP272

CYHM;2008-02-16 04:00;CYHM 160400Z 23004KT 15SM -SHSN OVC037 M08/M12 A3029 RMK SC8 SLP272

CYHM;2008-02-16 05:00;CYHM 160500Z 22005KT 15SM OVC038 M09/M13 A3030 RMK SC8 SLP274

CYHM;2008-02-16 06:00;CYHM 160600Z 24005KT 15SM SCT038 M10/M14 A3028 RMK SC4 SLP268

CYHM;2008-02-16 07:00;CYHM 160700Z 26003KT 15SM BKN039 M12/M14 A3028 RMK SC5 SLP269

CYHM;2008-02-16 08:00;CYHM 160800Z 24005KT 15SM FEW037 M13/M15 A3028 RMK SC2 SLP269

CYHM;2008-02-16 09:00;CYHM 160900Z 25005KT 15SM FEW037 M13/M15 A3028 RMK SC2 SLP271

CYHM;2008-02-16 10:00;CYHM 161000Z 25005KT 15SM FEW082 BKN140 M13/M15 A3029 RMK AC1AC3 SLP273

CYHM;2008-02-16 11:00;CYHM 161100Z 26005KT 15SM FEW130 FEW220 M14/M15 A3029 RMK AC1CI1 SLP274

CYHM;2008-02-16 12:00;CYHM 161200Z 24006KT 15SM FEW130 M16/M17 A3029 RMK AC1 SLP276

CYHM;2008-02-16 13:00;CYHM 161300Z 24007KT 15SM FEW025 FEW083 M14/M16 A3030 RMK CU1AC1 CU TR SLP280

CYHM;2008-02-16 14:00;CYHM 161400Z 24006KT 15SM FEW025 BKN076 M12/M14 A3030 RMK CU1AC6 CU TR SLP280

CYHM;2008-02-16 15:00;CYHM 161500Z 25007KT 15SM FEW025 SCT071 M11/M14 A3030 RMK CU1AC3 CU TR SLP279

CYHM;2008-02-16 16:00;CYHM 161600Z 25006KT 15SM FEW070 M09/M14 A3029 RMK AC2 SLP275

CYHM;2008-02-16 17:00;CYHM 161700Z 27010KT 15SM FEW070 M07/M13 A3029 RMK AC1 SLP275

CYHM;2008-02-16 18:00;CYHM 161800Z 25013KT 15SM FEW040 M06/M13 A3028 RMK SC1 SLP269

CYHM;2008-02-16 19:00;CYHM 161900Z 26010KT 15SM BKN061 M06/M13 A3025 RMK SC5 SLP260

CYHM;2008-02-16 20:00;CYHM 162000Z 26007KT 230V300 15SM SCT060 M05/M14 A3023 RMK SC3 SLP253

CYHM;2008-02-16 21:00;CYHM 162100Z 22011KT 15SM FEW060 SCT150 M05/M13 A3022 RMK SC2AC1 SLP249

CYHM;2008-02-16 22:00;CYHM 162200Z 22009KT 15SM FEW060 SCT220 M06/M12 A3020 RMK SC1CI2 SLP245

CYHM;2008-02-16 23:00;CYHM 162300Z 20006KT 15SM FEW060 SCT230 M07/M11 A3021 RMK SC1CI2 SC TR SLP246

CYHM;2008-02-17 00:00;CYHM 170000Z 21005KT 15SM FEW060 FEW230 M08/M12 A3021 RMK SC1CI2 SC TR SLP248

CYHM;2008-02-17 01:00;CYHM 170100Z 21006KT 15SM BKN240 M08/M12 A3018 RMK CI2 SLP239

CYHM;2008-02-17 02:00;CYHM 170200Z 18008KT 15SM SCT240 M08/M12 A3016 RMK CI2 SLP232

CYHM;2008-02-17 03:00;CYHM 170300Z 20007KT 15SM SCT250 M09/M13 A3013 RMK CI2 SLP219

CYHM;2008-02-17 04:00;CYHM 170400Z 15005KT 15SM SKC M08/M13 A3007 RMK PRESFR SLP200

CYHM;2008-02-17 05:00;CYHM 170500Z 15005KT 15SM FEW250 M09/M11 A3004 RMK CI1 SLP188

CYHM;2008-02-17 06:00;CYHM 170600Z 12007KT 15SM SKC M08/M09 A3001 RMK SLP177

CYHM;2008-02-17 07:00;CYHM 170700Z 11003KT 15SM SCT270 M09/M10 A2999 RMK CI2 SLP170

CYHM;2008-02-17 08:00;CYHM 170800Z 06007KT 15SM BKN270 M10/M11 A2997 RMK CI4 SLP164

CYHM;2008-02-17 09:00;CYHM 170900Z 06008KT 15SM FEW270 M08/M10 A2994 RMK CI1 SLP152

CYHM;2008-02-17 10:00;CYHM 171000Z 06005KT 15SM FEW240 M08/M10 A2994 RMK CI2 SLP151

CYHM;2008-02-17 11:00;CYHM 171100Z 08005KT 15SM BKN240 M07/M09 A2990 RMK CI4 FROIN SLP139

CYHM;2008-02-17 12:00;CYHM 171200Z 08005KT 15SM BKN058 OVC240 M06/M08 A2987 RMK SC7CI1 SLP129

CYHM;2008-02-17 13:00;CYHM 171300Z 10006KT 060V130 15SM OVC034 M05/M07 A2985 RMK SC8 SLP123

CYHM;2008-02-17 13:31;CYHM 171331Z 14009KT 5SM -FZRA BR OVC030 RMK SC8

CYHM;2008-02-17 14:00;CYHM 171400Z CCA 15008KT 6SM -FZRA BR BKN013 OVC029 M01/M03 A2982 RMK CF6SC2 SLP112

CYHM;2008-02-17 14:28;CYHM 171428Z 15009KT 2SM -FZRA BR OVC011 RMK FG1CF7

CYHM;2008-02-17 15:00;CYHM 171500Z 13008KT 2 1/2SM -FZRA BR OVC011 M00/M01 A2977 RMK SC8 SLP094

CYHM;2008-02-17 15:25;CYHM 171525Z 15007KT 2SM -RA BR SCT005 OVC012 REFZRA RMK FG1CF3SC4

CYHM;2008-02-17 15:44;CYHM 171544Z 16008KT 2SM -RA BR BKN004 OVC012 REFZRA RMK FG1CF5SC2

CYHM;2008-02-17 16:00;CYHM 171600Z 15009KT 2SM -RA BR BKN004 OVC012 01/01 A2975 REFZRA RMK FG1CF6SC1 SLP086

CYHM;2008-02-17 17:00;CYHM 171700Z 18012KT 2SM -RA BR BKN003 OVC022 02/02 A2970 RMK FG1CF6SC1 SLP070

CYHM;2008-02-17 17:47;CYHM 171747Z 14015KT 3SM -RA BR BKN005 OVC110 RMK CF6AC2 PCPN VRY LGT

CYHM;2008-02-17 18:00;CYHM 171800Z CCA 14014G20KT 4SM -RA BR BKN006 OVC110 03/03 A2960 RMK CF5AC3 PCPN VRY LGT PRESFR SLP035

CYHM;2008-02-17 18:23;CYHM 171823Z 15015KT 7SM FEW007 BKN064 OVC110 RMK CF1SC6AC1

CYHM;2008-02-17 18:55;CYHM 171855Z 17015KT 7SM -RA BKN048 OVC071 RMK SC6AC2

CYHM;2008-02-17 19:00;CYHM 171900Z 17015KT 4SM -RA BR BKN048 OVC071 04/03 A2958 RMK SC6AC2 SLP027

CYHM;2008-02-17 19:23;CYHM 171923Z 17014KT 2 1/2SM -RA BR SCT030 OVC045 RMK FG1SC3SC4

CYHM;2008-02-17 19:49;CYHM 171949Z 16014KT 1 3/4SM -RA BR SCT028 OVC038 RMK FG2SC2SC4

CYHM;2008-02-17 20:00;CYHM 172000Z 16013KT 2SM -RA BR SCT028 OVC038 03/03 A2952 RMK FG2SC2SC4 PRESFR SLP006

CYHM;2008-02-17 21:00;CYHM 172100Z 15013KT 2 1/2SM -RA BR SCT028 BKN042 OVC071 03/03 A2946 RMK FG1SC2SC2AC2 SLP986

CYHM;2008-02-17 21:18;CYHM 172118Z 15014KT 3SM -RA BR FEW028 BKN045 OVC072 RMK SC2SC3AC2

CYHM;2008-02-17 22:00;CYHM 172200Z 16015KT 3SM -RA BR FEW027 BKN043 OVC052 04/03 A2941 RMK SC2SC3SC3 SLP970

CYHM;2008-02-17 23:00;CYHM 172300Z 18016G23KT 7SM FEW040 BKN054 OVC088 06/03 A2939 RMK SC2SC3AC2 SLP964

CYHM;2008-02-18 00:00;CYHM 180000Z 18015KT 9SM BKN052 OVC072 06/03 A2935 RMK SC5AC3 SLP947

CYHM;2008-02-18 01:00;CYHM 180100Z 17018KT 10SM SCT054 BKN100 07/03 A2931 RMK SC4AC2 SLP934

CYHM;2008-02-18 02:00;CYHM 180200Z 18023G32KT 12SM FEW030 BKN050 BKN085 07/04 A2927 RMK SC2SC3AC2 SLP922

CYHM;2008-02-18 02:22;CYHM 180222Z 27020KT 10SM -SHRA SCT019 BKN042 OVC067 RMK SC3SC3AC2

CYHM;2008-02-18 02:40;CYHM 180240Z 24014G21KT 7SM -SHRA FEW009 BKN024 OVC050 RMK CF1SC6SC2 CF TR

CYHM;2008-02-18 03:00;CYHM 180300Z 23009KT 6SM -SHRA BR SCT024 OVC038 05/05 A2934 RMK SC4SC4 PRESRR SLP943

CYHM;2008-02-18 04:00;CYHM 180400Z 16017KT 5SM SHRA BR FEW030 OVC050 05/05 A2927 RMK CF1SC7 PRESFR SLP919

CYHM;2008-02-18 05:00;CYHM 180500Z 19014KT 5SM -SHRA BR FEW015 OVC039 07/07 A2925 RERA RMK CF2SC6 SLP914

CYHM;2008-02-18 05:21;CYHM 180521Z 20013KT 2SM SHRA BR OVC006 RMK FG1SF7

CYHM;2008-02-18 05:28;CYHM 180528Z 20013KT 1SM -SHRA BR OVC003 RERA RMK FG2SF6 VIS VRB 3/4 - 11/4

CYHM;2008-02-18 06:00;CYHM 180600Z 20013KT 4SM -SHRA BR FEW003 OVC058 07/07 A2924 RERA RMK SF2SC6 SLP908

CYHM;2008-02-18 07:00;CYHM 180700Z 22018KT 6SM -SHRA BR FEW010 OVC052 07/07 A2925 RMK CF2SC6 SLP911

CYHM;2008-02-18 08:00;CYHM 180800Z 23032G47KT 15SM FEW013 OVC020 06/04 A2926 RMK CF2SC6 SLP914

CYHM;2008-02-18 09:00;CYHM 180900Z 22036G45KT 15SM OVC016 03/00 A2930 RMK SC8 SLP929

CYHM;2008-02-18 10:00;CYHM 181000Z 22030G40KT 15SM OVC013 01/M01 A2934 RMK SC8 SLP941

CYHM;2008-02-18 11:00;CYHM 181100Z 23027G35KT 15SM OVC016 01/M01 A2937 RMK SC8 SLP953

CYHM;2008-02-18 12:00;CYHM 181200Z CCA 25035G45KT 15SM SCT012 OVC018 01/M02 A2941 RMK SC3SC5 SLP965

CYHM;2008-02-18 13:00;CYHM 181300Z 24026G36KT 15SM OVC021 01/M02 A2944 RMK SC8 SLP975

CYHM;2008-02-18 14:00;CYHM 181400Z 23028KT 6SM -SHSN BKN015 OVC025 01/M02 A2947 RMK SC6SC2 SLP987

CYHM;2008-02-18 14:34;CYHM 181434Z 22028KT 5SM -SG BR BKN011 OVC018 RMK SF5SC3

CYHM;2008-02-18 15:00;CYHM 181500Z 23028KT 5SM -SN BR BKN009 OVC018 00/M01 A2949 RMK SF6SC2 SLP994

CYHM;2008-02-18 16:00;CYHM 181600Z 22026KT 6SM -SN BR FEW009 BKN018 OVC036 01/M01 A2951 RMK SF2SC4SC2 SLP001

CYHM;2008-02-18 17:00;CYHM 181700Z 23024KT 10SM -SN SCT016 OVC032 00/M02 A2953 RMK SC3SC5 SLP006

CYHM;2008-02-18 18:00;CYHM 181800Z 24022G32KT 10SM -SN SCT018 OVC028 01/M03 A2953 RMK SC3SC5 SLP007

CYHM;2008-02-18 18:29;CYHM 181829Z 24020KT 15SM FEW019 BKN034 BKN042 RMK CU1SC4SC2

CYHM;2008-02-18 19:00;CYHM 181900Z 23024KT 8SM -SHSN BKN019 OVC034 01/M02 A2954 RMK SC5SC3 SLP010

CYHM;2008-02-18 19:25;CYHM 181925Z 22016G22KT 2SM -SHSN BKN015 OVC026 RMK SC6SC2

CYHM;2008-02-18 20:00;CYHM 182000Z 23015G22KT 2 1/4SM -SHSN OVC016 01/M01 A2955 RMK SC8 SLP013

CYHM;2008-02-18 20:28;CYHM 182028Z 24015G22KT 4SM -SHSN BKN018 OVC030 RMK SC6SC2

CYHM;2008-02-18 21:00;CYHM 182100Z 22016G22KT 2SM -SHSN BKN015 OVC034 00/M01 A2955 RMK SC6SC2 VSBY VRBL 11/2-21/2SM SLP016

CYHM;2008-02-18 21:27;CYHM 182127Z 22018KT 8SM -SHSN SCT016 BKN074 RMK SC4AC3

CYHM;2008-02-18 22:00;CYHM 182200Z 23015G24KT 2 1/4SM -SHSN BKN015 OVC042 01/M02 A2957 RMK SC6SC2 VSBY VRBL 11/2-3SM SLP021

CYHM;2008-02-18 22:40;CYHM 182240Z 23015G26KT 12SM -SHSN BKN017 BKN084 RMK SC5AC2

CYHM;2008-02-18 23:00;CYHM 182300Z 23016G24KT 10SM -SHSN SCT012 BKN092 00/M02 A2958 RMK SC3AC3 SLP023

CYHM;2008-02-19 00:00;CYHM 190000Z 23015G22KT 12SM -SHSN FEW018 SCT050 BKN090 M00/M03 A2959 RMK SC1SC2AC4 SLP028

CYHM;2008-02-19 01:00;CYHM 190100Z 24028G45KT 15SM -SHSN BKN052 BKN092 M01/M08 A2959 RMK SC5AC2 SLP029

CYHM;2008-02-19 02:00;CYHM 190200Z 24020G32KT 15SM FEW046 M02/M09 A2960 RMK SC2 SLP031

CYHM;2008-02-19 03:00;CYHM 190300Z 24016G22KT 15SM FEW050 M02/M09 A2960 RMK SC2 SLP034

CYHM;2008-02-19 04:00;CYHM 190400Z 24024G30KT 15SM FEW040 M03/M10 A2962 RMK SC2 SLP038

CYHM;2008-02-19 05:00;CYHM 190500Z 24014G20KT 15SM FEW046 M03/M10 A2963 RMK SC2 SLP043

CYHM;2008-02-19 06:00;CYHM 190600Z 24018G24KT 6SM -SHSN BKN027 BKN044 M04/M09 A2964 RMK SC5SC2 SLP047

CYHM;2008-02-19 07:00;CYHM 190700Z 26014G20KT 1SM -SHSN OVC024 M07/M08 A2966 RMK SN2SC6 VSBY VRBL 3/4-11/4SM SLP053

CYHM;2008-02-19 08:00;CYHM 190800Z 25015G22KT 6SM -SHSN BKN058 M07/M10 A2967 RMK SC7 SLP058

CYHM;2008-02-19 09:00;CYHM 190900Z 25015G22KT 6SM -SHSN BKN022 BKN038 M08/M12 A2969 RMK SC5SC2 SLP066

CYHM;2008-02-19 09:39;CYHM 190939Z 25022G32KT 15SM FEW038 FEW250 RMK SC2CI1 CI TR

CYHM;2008-02-19 10:00;CYHM 191000Z 24018G30KT 15SM FEW038 FEW250 M09/M14 A2971 RMK SC2CI1 CI TR SLP071

CYHM;2008-02-19 10:49;CYHM 191049Z 25018G24KT 15SM -SHSN SCT036 RMK SC4

CYHM;2008-02-19 11:00;CYHM 191100Z 23018G25KT 15SM -SHSN SCT035 M09/M14 A2971 RMK SC3 SLP074

CYHM;2008-02-19 11:12;CYHM 191112Z 25020KT 15SM DRSN FEW035 RMK SC2

CYHM;2008-02-19 12:00;CYHM 191200Z 25020G25KT 15SM FEW035 M09/M14 A2972 RMK SC2 SLP076

CYHM;2008-02-19 13:00;CYHM 191300Z 26018KT 15SM FEW035 SCT220 M09/M13 A2974 RMK SC2CI1 SLP082

CYHM;2008-02-19 13:48;CYHM 191348Z 26020G25KT 7SM -SHSN FEW016 BKN023 BKN052 RMK CU1SC4SC1

CYHM;2008-02-19 14:00;CYHM 191400Z 27022G28KT 15SM -SHSN FEW024 FEW037 SCT054 M09/M13 A2974 RMK CU1SC2SC2 SLP084

CYHM;2008-02-19 14:41;CYHM 191441Z 25020G25KT 2SM -SHSN FEW011 SCT016 BKN023 RMK SF2SC2SC2

CYHM;2008-02-19 15:00;CYHM 191500Z 25020G25KT 6SM -SHSN FEW016 BKN023 BKN078 M08/M11 A2975 RMK CU2SC3AC2 SLP089

CYHM;2008-02-19 16:00;CYHM 191600Z 25023KT 4SM -SHSN DRSN BKN020 OVC036 M09/M12 A2978 RMK SC6SC2 SLP098

CYHM;2008-02-19 17:00;CYHM 191700Z 26020G25KT 6SM -SHSN DRSN FEW017 BKN023 BKN072 M09/M12 A2980 RMK SC2SC2AC2 SLP103

CYHM;2008-02-19 18:00;CYHM 191800Z 25022G27KT 7SM -SHSN DRSN SCT018 BKN024 M08/M11 A2981 RMK SC4SC3 SLP107

CYHM;2008-02-19 19:00;CYHM 191900Z 25022KT 8SM -SHSN DRSN FEW018 SCT029 M07/M12 A2981 RMK CU2SC2 SLP110

CYHM;2008-02-19 20:00;CYHM 192000Z 24018G24KT 15SM -SHSN BKN024 BKN250 M07/M12 A2983 RMK SC6CI1 CI TR SLP115

CYHM;2008-02-19 21:00;CYHM 192100Z 25017G28KT 15SM -SHSN BKN026 BKN250 M07/M12 A2985 RMK SC5CI1 SLP124

CYHM;2008-02-19 21:55;CYHM 192155Z 24015G26KT 15SM FEW024 BKN250 RMK SC2CI1 CU ASOCTD CC ASOCTD CONTRAILS

CYHM;2008-02-19 22:00;CYHM 192200Z 24015G26KT 15SM FEW024 BKN250 M07/M11 A2988 RMK SC2CI1 CU ASOCTD CC ASOCTD CONTRAILS SLP132

CYHM;2008-02-19 23:00;CYHM 192300Z 24014G20KT 15SM FEW024 SCT170 BKN250 M07/M11 A2989 RMK SC1AC2CI1 SLP137

CYHM;2008-02-20 00:00;CYHM 200000Z 24013KT 15SM FEW024 FEW100 SCT250 M07/M11 A2991 RMK SC1AC1CI0 SLP144

CYHM;2008-02-20 01:00;CYHM 200100Z 24015KT 15SM FEW078 SCT250 M08/M11 A2992 RMK AC1CI1 SLP147

CYHM;2008-02-20 02:00;CYHM 200200Z 24015KT 6SM -SHSN BKN054 BKN072 M08/M10 A2993 RMK SC5AC1 SLP151

CYHM;2008-02-20 03:00;CYHM 200300Z 24012KT 10SM -SHSN BKN054 BKN080 BKN110 M08/M11 A2993 RMK SC5AC1AC0 SLP149

CYHM;2008-02-20 04:00;CYHM 200400Z 24011KT 6SM -SHSN FEW015 BKN034 BKN050 M08/M11 A2992 RMK SC2SC4SC1 SLP148

CYHM;2008-02-20 05:00;CYHM 200500Z 28014KT 6SM -SHSN BKN019 BKN034 OVC060 M08/M11 A2993 RMK SC5SC2SC1 SLP150

CYHM;2008-02-20 06:00;CYHM 200600Z 29015G22KT 15SM FEW026 SCT046 M09/M13 A2993 RMK SC2SC2 SLP152

CYHM;2008-02-20 07:00;CYHM 200700Z 25011KT 15SM FEW074 FEW250 M10/M14 A2995 RMK AC1CI1 AC TR SLP157

CYHM;2008-02-20 08:00;CYHM 200800Z 24011KT 15SM FEW054 FEW120 BKN250 M11/M15 A2996 RMK SC1AC2CI0 SLP161

CYHM;2008-02-20 09:00;CYHM 200900Z 24012KT 15SM FEW110 BKN250 M11/M15 A2997 RMK AC1CI2 AC TR SLP165

CYHM;2008-02-20 10:00;CYHM 201000Z 24013KT 15SM SCT110 BKN250 M12/M16 A2998 RMK AC2CI2 SLP168

CYHM;2008-02-20 11:00;CYHM 201100Z 24014G20KT 15SM FEW110 SCT250 M12/M16 A2999 RMK AC1CI2 AC TR SLP171

CYHM;2008-02-20 12:00;CYHM 201200Z 24012KT 15SM FEW025 FEW110 M13/M16 A3000 RMK CU1AC1 SLP174

CYHM;2008-02-20 13:00;CYHM 201300Z 25012KT 15SM FEW025 FEW110 M13/M16 A3001 RMK CU1AC1 SLP177

CYHM;2008-02-20 14:00;CYHM 201400Z 26012KT 15SM FEW025 FEW110 M12/M15 A3003 RMK CU1AC1 CU TR AC TR SLP184

CYHM;2008-02-20 15:00;CYHM 201500Z 26014KT 15SM FEW025 FEW110 M10/M15 A3004 RMK CU1AC2 CU TR SLP190

CYHM;2008-02-20 16:00;CYHM 201600Z 26015KT 15SM FEW025 FEW120 FEW240 M09/M15 A3005 RMK CU1AC1CI0 SLP193

CYHM;2008-02-20 17:00;CYHM 201700Z 26016KT 15SM FEW030 FEW240 M08/M15 A3006 RMK SC1CI0 CU ASOCTD SLP194

CYHM;2008-02-20 18:00;CYHM 201800Z CCA 27015KT 15SM FEW025 SCT045 BKN240 M08/M14 A3006 RMK CU2SC2CI0 SLP195

CYHM;2008-02-20 19:00;CYHM 201900Z 26015KT 15SM FEW028 BKN034 BKN220 M07/M14 A3007 RMK CU2SC4CI1 SLP197

CYHM;2008-02-20 20:00;CYHM 202000Z 28013KT 15SM BKN035 M07/M13 A3008 RMK SC7 SLP203

CYHM;2008-02-20 21:00;CYHM 202100Z 24010KT 15SM SCT030 M07/M13 A3011 RMK SC4 CUFRA ASOCTD SLP213

CYHM;2008-02-20 22:00;CYHM 202200Z 27012KT 15SM BKN038 M08/M13 A3015 RMK SC6 SLP225

CYHM;2008-02-20 23:00;CYHM 202300Z 29007KT 15SM FEW030 M09/M15 A3017 RMK SC1 SLP234

CYHM;2008-02-21 00:00;CYHM 210000Z 28007KT 15SM FEW028 M10/M16 A3021 RMK SC1 SLP247

CYHM;2008-02-21 01:00;CYHM 210100Z 30005KT 15SM FEW024 M11/M15 A3024 RMK SC1 SC TR SLP259

CYHM;2008-02-21 02:00;CYHM 210200Z 26003KT 15SM FEW024 M11/M16 A3027 RMK SC1 SC TR SLP267

CYHM;2008-02-21 03:00;CYHM 210300Z 25005KT 15SM FEW024 FEW250 M12/M15 A3029 RMK SC1CI1 SC TR CI TR SLP275

CYHM;2008-02-21 04:00;CYHM 210400Z 25005KT 15SM FEW020 M12/M15 A3030 RMK SC1 SLP278

CYHM;2008-02-21 05:00;CYHM 210500Z 27008KT 15SM FEW220 M12/M14 A3031 RMK CI1 SLP281

CYHM;2008-02-21 06:00;CYHM 210600Z 25006KT 15SM FEW040 M12/M14 A3032 RMK SC1 SLP284

CYHM;2008-02-21 07:00;CYHM 210700Z 23007KT 15SM FEW080 M13/M15 A3033 RMK AC1 SLP287

CYHM;2008-02-21 08:00;CYHM 210800Z 23006KT 15SM FEW080 M13/M15 A3033 RMK AC1 SLP289

CYHM;2008-02-21 09:00;CYHM 210900Z 23006KT 15SM FEW080 M13/M15 A3034 RMK AC1 SLP292

CYHM;2008-02-21 10:00;CYHM 211000Z 23005KT 15SM FEW090 M14/M15 A3035 RMK AC2 SLP294

CYHM;2008-02-21 11:00;CYHM 211100Z 24005KT 15SM FEW090 FEW210 M14/M16 A3036 RMK AC2CI1 FROIN SLP297

CYHM;2008-02-21 12:00;CYHM 211200Z CCA 25006KT 15SM BKN035 BKN100 M13/M15 A3037 RMK SC5AC1 CU ASOCTD SLP303

CYHM;2008-02-21 13:00;CYHM 211300Z 27006KT 15SM FEW025 BKN033 BKN100 M12/M15 A3040 RMK CU1SC6AC1 CU TR SLP312

CYHM;2008-02-21 14:00;CYHM 211400Z 28006KT 15SM FEW025 BKN034 BKN100 BKN220 M10/M14 A3040 RMK CU1SC5AC2CI1 CU TR SLP313

CYHM;2008-02-21 15:00;CYHM 211500Z 26006KT 15SM FEW025 BKN034 BKN100 BKN220 M08/M13 A3040 RMK CU1SC4AC1CI1 CONTRAIL SLP312

CYHM;2008-02-21 16:00;CYHM 211600Z 24012KT 15SM FEW022 SCT046 BKN100 BKN220 M08/M14 A3039 RMK CU2SC2AC1CI1 SLP309

CYHM;2008-02-21 17:00;CYHM 211700Z 25007KT 15SM FEW022 SCT034 BKN220 M07/M15 A3038 RMK CU1SC2CI1 SLP305

CYHM;2008-02-21 18:00;CYHM 211800Z 25008KT 15SM FEW025 SCT035 BKN220 M07/M14 A3035 RMK CU1SC2CI1 CONTRAIL SLP295

CYHM;2008-02-21 19:00;CYHM 211900Z 18006KT 15SM FEW032 FEW045 BKN210 M06/M14 A3032 RMK CU1SC2CI2 CONTRAIL SLP284

CYHM;2008-02-21 20:00;CYHM 212000Z 19010KT 15SM FEW038 BKN220 M06/M14 A3031 RMK SC2CI2 SLP280

CYHM;2008-02-21 21:00;CYHM 212100Z 17015KT 15SM FEW032 BKN220 M07/M13 A3030 RMK SC1CI5 SLP278

CYHM;2008-02-21 22:00;CYHM 212200Z 20012KT 15SM FEW032 BKN170 BKN220 M07/M13 A3028 RMK SC1AC6CI1 SC TR SLP271

CYHM;2008-02-21 23:00;CYHM 212300Z 18007KT 15SM OVC140 M07/M13 A3025 RMK AC8 SLP261

CYHM;2008-02-22 00:00;CYHM 220000Z 19004KT 15SM OVC140 M08/M13 A3023 RMK AC8 SLP255

CYHM;2008-02-22 01:00;CYHM 220100Z 00000KT 15SM OVC120 M08/M13 A3021 RMK AC8 SLP249

CYHM;2008-02-22 02:00;CYHM 220200Z 10006KT 15SM OVC110 M07/M12 A3020 RMK AC8 SLP244

CYHM;2008-02-22 03:00;CYHM 220300Z 09007KT 15SM OVC110 M08/M12 A3017 RMK AC7 SLP231

CYHM;2008-02-22 04:00;CYHM 220400Z 09007KT 15SM OVC085 M07/M13 A3014 RMK AC7 SLP222

CYHM;2008-02-22 05:00;CYHM 220500Z 08006KT 15SM OVC090 M07/M13 A3011 RMK AC7 SLP212

CYHM;2008-02-22 06:00;CYHM 220600Z 10006KT 15SM BKN092 M07/M12 A3010 RMK AC7 SLP207

CYHM;2008-02-22 07:00;CYHM 220700Z 11006KT 4SM -SN BKN020 M07/M11 A3007 RMK SC7 SLP199

CYHM;2008-02-22 08:00;CYHM 220800Z 08005KT 5SM -SN FEW025 BKN064 M08/M10 A3004 RMK SC2SC5 SLP186

CYHM;2008-02-22 09:00;CYHM 220900Z 07005KT 6SM -SN BKN025 OVC050 M07/M09 A3001 RMK SC6SC2 SLP176

CYHM;2008-02-22 10:00;CYHM 221000Z 04003KT 4SM -SN BKN025 M07/M09 A3000 RMK SC7 /S01/ SLP172

CYHM;2008-02-22 10:17;CYHM 221017Z 05003KT 2SM -SN OVC020 RMK SN1SC7

CYHM;2008-02-22 11:00;CYHM 221100Z 05006KT 2SM -SN OVC015 M07/M08 A2997 RMK SN1SC7 SLP165

CYHM;2008-02-22 11:10;CYHM 221110Z 05005KT 1 1/2SM -SN BR BKN008 OVC019 RMK SN1SF6SC2

CYHM;2008-02-22 11:25;CYHM 221125Z 05006KT 4SM -SN BR FEW010 BKN035 OVC088 RMK SF2SC5AC2

CYHM;2008-02-22 12:00;CYHM 221200Z 05005KT 2SM -SN BKN014 OVC032 M07/M08 A2996 RMK SF6SC2 SLP159

CYHM;2008-02-22 13:00;CYHM 221300Z 01003KT 4SM -SN BR FEW010 BKN018 OVC035 M07/M08 A2996 RMK SF2SC4SC2 SLP161

CYHM;2008-02-22 14:00;CYHM 221400Z 35004KT 6SM -SN BR FEW018 BKN071 BKN110 M07/M08 A2996 RMK SC2AC3AC2 SLP160

CYHM;2008-02-22 15:00;CYHM 221500Z 03005KT 6SM -SN BR BKN018 OVC070 M06/M08 A2996 RMK SC6AC2 SLP161

CYHM;2008-02-22 16:00;CYHM 221600Z 03008KT 7SM -SN BKN019 BKN085 M05/M07 A2995 RMK SC5AC2 SLP158

CYHM;2008-02-22 17:00;CYHM 221700Z 05008KT 10SM -SN FEW013 SCT035 BKN210 M04/M07 A2995 RMK CF1SC2CI2 SLP156

CYHM;2008-02-22 17:31;CYHM 221731Z 05007KT 10SM FEW014 BKN018 BKN045 RMK CU2SC4SC2

CYHM;2008-02-22 18:00;CYHM 221800Z 05008KT 10SM FEW015 BKN045 M04/M07 A2993 RMK SC2SC4 SLP148

CYHM;2008-02-22 19:00;CYHM 221900Z 06004KT 10SM BKN022 M03/M07 A2991 RMK SC6 CU ASOCTD SLP142

CYHM;2008-02-22 20:00;CYHM 222000Z 05008KT 15SM BKN023 M03/M08 A2991 RMK SC7 SLP140

CYHM;2008-02-22 21:00;CYHM 222100Z 05008KT 12SM BKN024 M03/M07 A2991 RMK SC7 SLP143

CYHM;2008-02-22 22:00;CYHM 222200Z 06009KT 12SM BKN025 M03/M07 A2992 RMK SC7 SLP144

CYHM;2008-02-22 23:00;CYHM 222300Z 04009KT 15SM BKN024 BKN250 M03/M08 A2991 RMK SC7CI1 CI TR SLP142

CYHM;2008-02-23 00:00;CYHM 230000Z CCA 01007KT 15SM BKN023 M03/M08 A2992 RMK SC7 SLP145

CYHM;2008-02-23 01:00;CYHM 230100Z 01007KT 15SM OVC026 M04/M09 A2993 RMK SC8 SLP147

CYHM;2008-02-23 02:00;CYHM 230200Z 01006KT 15SM OVC028 M04/M09 A2994 RMK SC8 SLP152

CYHM;2008-02-23 03:00;CYHM 230300Z 36008KT 15SM BKN029 M04/M09 A2993 RMK SC7 SLP147

CYHM;2008-02-23 04:00;CYHM 230400Z 01007KT 15SM BKN032 M06/M10 A2992 RMK SC7 SLP146

CYHM;2008-02-23 05:00;CYHM 230500Z 36006KT 15SM OVC027 M05/M10 A2994 RMK SC8 SLP150

CYHM;2008-02-23 06:00;CYHM 230600Z 01006KT 15SM BKN032 M06/M10 A2994 RMK SC7 SLP150

CYHM;2008-02-23 07:00;CYHM 230700Z 35006KT 15SM OVC027 M06/M09 A2995 RMK SC8 SLP155

CYHM;2008-02-23 08:00;CYHM 230800Z 02007KT 15SM BKN035 M06/M10 A2994 RMK SC7 SLP152

CYHM;2008-02-23 09:00;CYHM 230900Z 01005KT 15SM BKN032 M06/M10 A2994 RMK SC7 SLP151

CYHM;2008-02-23 10:00;CYHM 231000Z 01008KT 15SM BKN032 M07/M11 A2995 RMK SC6 SLP154

CYHM;2008-02-23 11:00;CYHM 231100Z 01004KT 15SM BKN032 M07/M11 A2997 RMK SC7 SLP162

CYHM;2008-02-23 12:00;CYHM 231200Z 01004KT 15SM BKN033 M07/M11 A2999 RMK SC7 SLP170

CYHM;2008-02-23 13:00;CYHM 231300Z 30002KT 15SM SCT033 M07/M11 A3002 RMK SC4 SLP178

CYHM;2008-02-23 14:00;CYHM 231400Z 33003KT 15SM FEW034 M06/M11 A3003 RMK SC1 SLP182

CYHM;2008-02-23 15:00;CYHM 231500Z 25002KT 15SM FEW035 M04/M11 A3004 RMK SC1 SLP185

CYHM;2008-02-23 16:00;CYHM 231600Z 26006KT 15SM FEW032 M03/M10 A3005 RMK SC2 SLP188

CYHM;2008-02-23 17:00;CYHM 231700Z 27007KT 240V310 15SM SCT029 M03/M10 A3005 RMK SC3 SLP188

CYHM;2008-02-23 18:00;CYHM 231800Z 29008KT 15SM FEW030 FEW250 M03/M11 A3004 RMK SC1CI1 CI TR SLP184

CYHM;2008-02-23 19:00;CYHM 231900Z 27007KT 240V330 15SM FEW030 SCT160 M03/M11 A3003 RMK SC1AC2 SLP181

CYHM;2008-02-23 20:00;CYHM 232000Z 28008KT 250V310 15SM FEW030 BKN160 M02/M11 A3003 RMK CU1AC5 SLP182

CYHM;2008-02-23 21:00;CYHM 232100Z 29011KT 15SM FEW030 BKN130 M02/M12 A3004 RMK SC1AC4 SLP186

CYHM;2008-02-23 22:00;CYHM 232200Z 28008KT 15SM FEW030 FEW120 BKN150 M02/M10 A3006 RMK SC1AC2AC3 CU ASOCTD SLP191

CYHM;2008-02-23 23:00;CYHM 232300Z 29007KT 15SM FEW030 FEW120 FEW150 M03/M10 A3007 RMK SC1AC1AC2 SC TR SLP197

CYHM;2008-02-24 00:00;CYHM 240000Z 27005KT 15SM FEW120 M04/M10 A3010 RMK AC1 SLP206

CYHM;2008-02-24 01:00;CYHM 240100Z 27007KT 15SM SKC M05/M10 A3012 RMK SLP212

CYHM;2008-02-24 02:00;CYHM 240200Z 25004KT 15SM SKC M05/M10 A3013 RMK SLP215

CYHM;2008-02-24 03:00;CYHM 240300Z 23004KT 15SM SKC M08/M11 A3014 RMK SLP220

CYHM;2008-02-24 04:00;CYHM 240400Z 23006KT 15SM SKC M09/M11 A3014 RMK SLP222

CYHM;2008-02-24 05:00;CYHM 240500Z 25006KT 15SM SKC M07/M10 A3014 RMK SLP222

CYHM;2008-02-24 06:00;CYHM 240600Z 25005KT 15SM SKC M08/M10 A3014 RMK SLP221

CYHM;2008-02-24 07:00;CYHM 240700Z 25006KT 15SM SKC M09/M11 A3014 RMK SLP221

CYHM;2008-02-24 08:00;CYHM 240800Z 25006KT 15SM SKC M08/M10 A3014 RMK SLP220

CYHM;2008-02-24 09:00;CYHM 240900Z 25007KT 15SM SKC M09/M10 A3013 RMK SLP216

CYHM;2008-02-24 10:00;CYHM 241000Z 24005KT 15SM SKC M09/M11 A3012 RMK SLP214

CYHM;2008-02-24 11:00;CYHM 241100Z 23005KT 12SM SKC M10/M11 A3013 RMK FROIN SLP215

CYHM;2008-02-24 12:00;CYHM 241200Z 23006KT 10SM SKC M10/M12 A3012 RMK SLP216

CYHM;2008-02-24 13:00;CYHM 241300Z 22007KT 8SM SKC M10/M11 A3012 RMK SLP216

CYHM;2008-02-24 14:00;CYHM 241400Z 24011KT 10SM SKC M07/M09 A3013 RMK SLP218

CYHM;2008-02-24 15:00;CYHM 241500Z 23015KT 15SM SKC M04/M08 A3011 RMK SLP211

CYHM;2008-02-24 16:00;CYHM 241600Z 26012KT 15SM FEW250 M02/M07 A3011 RMK CI1 SLP210

CYHM;2008-02-24 17:00;CYHM 241700Z 25015KT 15SM FEW030 FEW250 M01/M07 A3010 RMK CU1CI1 BOTH LYRS TR SLP206

CYHM;2008-02-24 18:00;CYHM 241800Z 24018KT 15SM FEW030 M01/M07 A3007 RMK CU1 CU TR SLP196

CYHM;2008-02-24 19:00;CYHM 241900Z 24015KT 15SM SKC M00/M07 A3005 RMK SLP188

CYHM;2008-02-24 20:00;CYHM 242000Z 25014KT 15SM SKC 00/M07 A3003 RMK SLP183

CYHM;2008-02-24 21:00;CYHM 242100Z 25014KT 15SM FEW200 M00/M07 A3001 RMK CI1 SLP176

CYHM;2008-02-24 22:00;CYHM 242200Z 24011KT 15SM FEW200 M00/M06 A2999 RMK CI1 SLP170

CYHM;2008-02-24 23:00;CYHM 242300Z 23009KT 12SM FEW240 M02/M06 A2998 RMK CI1 SLP166

CYHM;2008-02-25 00:00;CYHM 250000Z 23013KT 12SM FEW240 M02/M06 A2999 RMK CI1 SLP170

CYHM;2008-02-25 01:00;CYHM 250100Z 23012KT 15SM SKC M03/M07 A2997 RMK SLP165

CYHM;2008-02-25 02:00;CYHM 250200Z 23013KT 15SM FEW200 M03/M07 A2997 RMK CI1 CI TR SLP162

CYHM;2008-02-25 03:00;CYHM 250300Z 24013KT 15SM FEW200 M04/M07 A2996 RMK CI1 CI TR SLP158

CYHM;2008-02-25 04:00;CYHM 250400Z 24013KT 12SM FEW250 M04/M07 A2995 RMK CI2 SLP154

CYHM;2008-02-25 05:00;CYHM 250500Z 23010KT 15SM SCT250 M04/M07 A2994 RMK CI2 SLP152

CYHM;2008-02-25 06:00;CYHM 250600Z 24007KT 15SM BKN250 M04/M07 A2994 RMK CI4 SLP150

CYHM;2008-02-25 07:00;CYHM 250700Z 23005KT 10SM FEW018 BKN240 M05/M07 A2994 RMK SC1CI3 SLP149

CYHM;2008-02-25 08:00;CYHM 250800Z 24005KT 6SM BR FEW023 BKN240 M06/M07 A2994 RMK SC1CI5 SLP149

CYHM;2008-02-25 09:00;CYHM 250900Z 23007KT 6SM BR BKN230 M05/M07 A2992 RMK CI5 SLP145

CYHM;2008-02-25 10:00;CYHM 251000Z 23007KT 5SM BR BKN210 M06/M07 A2992 RMK CI6 SLP144

CYHM;2008-02-25 11:00;CYHM 251100Z 22007KT 4SM BR BKN220 M06/M07 A2993 RMK CI4 SLP146

CYHM;2008-02-25 12:00;CYHM 251200Z 23007KT 2 1/2SM BR FEW140 SCT220 M06/M07 A2992 RMK AC1CI2 SLP143

CYHM;2008-02-25 13:00;CYHM 251300Z 23008KT 3SM BR SKC M06/M06 A2993 RMK SLP147

CYHM;2008-02-25 14:00;CYHM 251400Z 24008KT 5SM BR BKN014 BKN220 M04/M05 A2993 RMK SC5CI1 SLP148

CYHM;2008-02-25 15:00;CYHM 251500Z 24012KT 7SM BKN015 M02/M04 A2991 RMK SC7 SLP140

CYHM;2008-02-25 16:00;CYHM 251600Z 24015KT 7SM OVC021 M01/M04 A2991 RMK SC8 SLP139

CYHM;2008-02-25 17:00;CYHM 251700Z 24014KT 8SM BKN023 M00/M03 A2990 RMK SC7 SLP137

CYHM;2008-02-25 18:00;CYHM 251800Z 25018KT 7SM OVC023 M01/M04 A2990 RMK SC8 SLP136

CYHM;2008-02-25 18:55;CYHM 251855Z 24020KT 6SM -SHSN BKN015 OVC022 RMK SC6SC2

CYHM;2008-02-25 19:00;CYHM 251900Z 24018KT 6SM -SHSN BKN015 OVC022 M01/M04 A2989 RMK SC6SC2 SLP133

CYHM;2008-02-25 19:52;CYHM 251952Z CCA 24015KT 5SM HZ OVC018 RMK SC8

CYHM;2008-02-25 20:00;CYHM 252000Z 24015KT 5SM HZ OVC018 M01/M04 A2988 RMK SC8 SLP130

CYHM;2008-02-25 21:00;CYHM 252100Z 22014KT 5SM HZ OVC016 M01/M04 A2989 RMK SC8 SLP133

CYHM;2008-02-25 22:00;CYHM 252200Z 22014KT 5SM HZ OVC016 M02/M04 A2988 RMK SC8 SLP130

CYHM;2008-02-25 23:00;CYHM 252300Z 22014KT 5SM HZ OVC018 M01/M04 A2988 RMK SC8 SLP129

CYHM;2008-02-26 00:00;CYHM 260000Z 25010KT 8SM FEW015 OVC020 M01/M04 A2988 RMK SC2SC6 SLP129

CYHM;2008-02-26 01:00;CYHM 260100Z 19008KT 6SM HZ BKN016 OVC030 M01/M04 A2986 RMK SC5SC3 SLP124

CYHM;2008-02-26 02:00;CYHM 260200Z 20007KT 6SM HZ OVC014 M01/M03 A2985 RMK SC8 SLP120

CYHM;2008-02-26 03:00;CYHM 260300Z 20005KT 5SM BR OVC013 M01/M03 A2984 RMK SC8 SLP117

CYHM;2008-02-26 04:00;CYHM 260400Z 19004KT 5SM BR OVC012 M01/M03 A2982 RMK SC8 SLP108

CYHM;2008-02-26 05:00;CYHM 260500Z 22008KT 5SM -SN OVC012 M02/M03 A2983 RMK SC8 SLP112

CYHM;2008-02-26 06:00;CYHM 260600Z 22005KT 3SM -SN FEW004 OVC013 M02/M03 A2980 RMK SC1SC7 SLP101

CYHM;2008-02-26 07:00;CYHM 260700Z 21004KT 3SM -SN OVC011 M02/M03 A2978 RMK SC8 SLP096

CYHM;2008-02-26 08:00;CYHM 260800Z 20005KT 4SM -SN OVC011 M02/M03 A2976 RMK SC8 SLP089

CYHM;2008-02-26 09:00;CYHM 260900Z 19002KT 2 1/2SM -SN OVC011 M02/M03 A2973 RMK SC8 SLP078

CYHM;2008-02-26 10:00;CYHM 261000Z 13002KT 2SM -SN FEW002 OVC015 M02/M02 A2970 RMK SF2SC6 SLP069

CYHM;2008-02-26 11:00;CYHM 261100Z 07002KT 2SM -SN OVC018 M02/M02 A2968 RMK SN3SC5 SLP063

CYHM;2008-02-26 11:18;CYHM 261118Z 11002KT 2SM -SN BKN007 OVC020 RMK SN2SF5SC2

CYHM;2008-02-26 12:00;CYHM 261200Z 11003KT 1 1/2SM -SN BKN006 OVC023 M02/M03 A2967 RMK SN2SF4SC2 SLP056

CYHM;2008-02-26 13:00;CYHM 261300Z 08004KT 3/4SM -SN BR BKN007 OVC024 M02/M03 A2964 RMK SN3SF3SC2 VISB VRBL1/2-1SM SLP048

CYHM;2008-02-26 14:00;CYHM 261400Z 07004KT 3/4SM -SN BR BKN006 OVC019 M02/M02 A2962 RMK SN3SF4SC1 /S03/ SLP040

CYHM;2008-02-26 15:00;CYHM 261500Z 05008KT 3/4SM -SN BR BKN005 OVC018 M01/M02 A2960 RMK SN2SF4SC2 VISB VRBL 1/2-1 SM SLP032

CYHM;2008-02-26 15:19;CYHM 261519Z 06010KT 1SM -SN BR BKN007 OVC018 RMK SN2SC4SC2

CYHM;2008-02-26 16:00;CYHM 261600Z 05009KT 1 1/2SM -SN BR SCT005 OVC011 M01/M02 A2958 RMK SN2SF2SC4 SLP025

CYHM;2008-02-26 16:13;CYHM 261613Z 05010KT 3/4SM -SN BR BKN004 OVC015 RMK SN2SF4SC2

CYHM;2008-02-26 16:39;CYHM 261639Z 05012KT 1 1/2SM -SN BR SCT006 OVC012 RMK SN2SF2SC4

CYHM;2008-02-26 16:52;CYHM 261652Z 05009KT 3/4SM -SN BR OVC008 RMK SN3SF5

CYHM;2008-02-26 17:00;CYHM 261700Z 04008KT 3/4SM -SN BR BKN005 OVC011 M01/M01 A2955 RMK SN2SF4SC2 SLP016

CYHM;2008-02-26 18:00;CYHM 261800Z 04010KT 1SM -SN BR BKN005 OVC011 M01/M01 A2952 RMK SN2SF4SC2 SLP008

CYHM;2008-02-26 19:00;CYHM 261900Z 03012KT 1SM -SN BR BKN008 OVC024 M01/M01 A2950 RMK SN2SF3SC3 SLP999

CYHM;2008-02-26 20:00;CYHM 262000Z 01011KT 1SM -SN OVC006 M01/M01 A2949 RMK SN3SC5 SLP995

CYHM;2008-02-26 21:00;CYHM 262100Z 03011KT 2SM -SN OVC009 M00/M01 A2948 RMK SN2SC6 SLP992

CYHM;2008-02-26 22:00;CYHM 262200Z 02009KT 2SM -SN FEW008 SCT034 OVC051 M00/M01 A2950 RMK SC2SC2SC5 SLP998

CYHM;2008-02-26 22:32;CYHM 262232Z 01009KT 2 1/4SM -SN BKN006 OVC020 RMK SC6SC2

CYHM;2008-02-26 23:00;CYHM 262300Z 01007KT 1 3/4SM -SN BKN006 OVC020 M01/M01 A2951 RMK SN3SC4SC1 SLP003

CYHM;2008-02-27 00:00;CYHM 270000Z 36008KT 1 1/2SM -SN OVC007 M01/M01 A2953 RMK SN3SC5 SLP010

CYHM;2008-02-27 01:00;CYHM 270100Z 36011KT 1 3/4SM -SN OVC008 M02/M03 A2955 RMK SN3SC5 SLP017

CYHM;2008-02-27 02:00;CYHM 270200Z 36010KT 2SM -SN BKN010 OVC022 M02/M04 A2956 RMK SN3SC3SC2 SLP021

CYHM;2008-02-27 03:00;CYHM 270300Z 35008KT 3SM -SN BKN011 OVC026 M03/M04 A2958 RMK SC6SC2 SLP026

CYHM;2008-02-27 04:00;CYHM 270400Z 35009KT 6SM -SN BKN018 OVC038 M04/M06 A2959 RMK SC7SC1 SLP032

CYHM;2008-02-27 05:00;CYHM 270500Z 34012KT 12SM -SHSN BKN026 OVC048 M05/M09 A2960 RMK SC6SC2 SLP034

CYHM;2008-02-27 06:00;CYHM 270600Z 32010KT 12SM -SHSN FEW024 SCT068 BKN130 M07/M10 A2962 RMK SC2AC2AS2 SLP040

CYHM;2008-02-27 07:00;CYHM 270700Z 33011KT 15SM OVC050 M08/M12 A2964 RMK SC7 SLP048

CYHM;2008-02-27 08:00;CYHM 270800Z 33012KT 8SM -SHSN FEW040 OVC064 M09/M13 A2964 RMK SC2SC5 SLP048

CYHM;2008-02-27 09:00;CYHM 270900Z 32008KT 15SM SCT064 BKN110 BKN250 M10/M14 A2965 RMK SC4AC2CI0 SLP054

CYHM;2008-02-27 10:00;CYHM 271000Z 32011KT 15SM FEW064 SCT110 BKN240 M11/M15 A2967 RMK SC1AS2CI1 SLP059

CYHM;2008-02-27 11:00;CYHM 271100Z 34012KT 15SM FEW030 FEW120 BKN230 M12/M16 A2969 RMK SC1AC1CI2 SC TR SLP066

CYHM;2008-02-27 12:00;CYHM 271200Z 33008KT 15SM FEW045 BKN110 OVC210 M13/M17 A2971 RMK SC2AC4CI2 SLP074

CYHM;2008-02-27 13:00;CYHM 271300Z 33010KT 15SM FEW045 BKN110 OVC210 M13/M17 A2974 RMK SC2AS4CI2 SLP083

CYHM;2008-02-27 14:00;CYHM 271400Z 33010KT 15SM FEW025 BKN100 BKN210 M13/M18 A2975 RMK CU1AS5CI2 SLP088

CYHM;2008-02-27 15:00;CYHM 271500Z 33006KT 15SM FEW045 FEW110 BKN220 M13/M18 A2976 RMK SC1AC2CI3 SC TR SLP093

CYHM;2008-02-27 16:00;CYHM 271600Z CCA 32010KT 15SM FEW045 FEW140 BKN220 M12/M17 A2977 RMK SC1AC1CS5 HALO SC TR CONTRAIL SLP094

CYHM;2008-02-27 17:00;CYHM 271700Z 32012KT 15SM FEW045 FEW140 OVC220 M11/M18 A2977 RMK SC1AC2CS6 HALO SC TR SLP096

CYHM;2008-02-27 18:00;CYHM 271800Z CCA 32012KT 15SM FEW120 BKN210 M11/M17 A2977 RMK AC2CS3 HALO SLP096

CYHM;2008-02-27 19:00;CYHM 271900Z 32013KT 15SM FEW035 FEW170 BKN210 M11/M17 A2978 RMK CU1AC2CI4 CU TR SLP099

CYHM;2008-02-27 20:00;CYHM 272000Z 30011KT 15SM SCT130 BKN250 M10/M17 A2979 RMK AS2CS2 HALO CONTRAILS SLP104

CYHM;2008-02-27 21:00;CYHM 272100Z 30015KT 15SM FEW022 BKN130 BKN250 M11/M16 A2982 RMK CU1AS5CS1 CU TR HALO SUN DMLY VSBL SLP115

CYHM;2008-02-27 22:00;CYHM 272200Z 29013KT 15SM FEW022 BKN110 BKN250 M11/M17 A2984 RMK CU1AS6CS1 CU TR CONTRAILS SLP122

CYHM;2008-02-27 23:00;CYHM 272300Z 31013KT 15SM FEW022 BKN140 BKN250 M12/M17 A2987 RMK CU1AS3CI1 CU TR CONTRAILS SLP132

CYHM;2008-02-28 00:00;CYHM 280000Z 31013KT 15SM BKN130 BKN250 M13/M18 A2990 RMK AS5CI1 SLP145

CYHM;2008-02-28 01:00;CYHM 280100Z 30014KT 15SM SCT130 BKN200 M14/M21 A2992 RMK AS2CS2 SLP152

CYHM;2008-02-28 02:00;CYHM 280200Z 31008KT 15SM FEW130 SCT210 M15/M21 A2995 RMK AC1CS2 AC TR SLP160

CYHM;2008-02-28 03:00;CYHM 280300Z 30007KT 15SM BKN030 M15/M20 A2996 RMK SC7 SLP166

CYHM;2008-02-28 04:00;CYHM 280400Z 29006KT 15SM OVC032 M14/M19 A2997 RMK SC8 SLP167

CYHM;2008-02-28 05:00;CYHM 280500Z 28007KT 15SM OVC035 M14/M19 A2997 RMK SC8 SLP167

CYHM;2008-02-28 06:00;CYHM 280600Z 27005KT 15SM FEW035 M15/M20 A2997 RMK SC2 SLP168

CYHM;2008-02-28 07:00;CYHM 280700Z 24005KT 15SM FEW033 OVC045 M16/M20 A2998 RMK CF2SC6 SLP170

CYHM;2008-02-28 08:00;CYHM 280800Z 00000KT 15SM SCT033 OVC052 M15/M18 A2998 RMK CF3SC5 SLP170

CYHM;2008-02-28 09:00;CYHM 280900Z 00000KT 15SM OVC036 M15/M18 A2999 RMK SC8 SLP175

CYHM;2008-02-28 10:00;CYHM 281000Z 02005KT 8SM -SHSN OVC035 M15/M18 A3001 RMK SC8 SLP182

CYHM;2008-02-28 11:00;CYHM 281100Z 36004KT 15SM SCT050 M17/M19 A3004 RMK SC2 SLP189

CYHM;2008-02-28 12:00;CYHM 281200Z 35005KT 15SM BKN051 BKN064 M17/M20 A3006 RMK SC5SC2 SLP198

CYHM;2008-02-28 13:00;CYHM 281300Z 02005KT 15SM BKN050 M17/M21 A3009 RMK SC7 SLP208

CYHM;2008-02-28 14:00;CYHM 281400Z 35004KT 15SM FEW044 FEW085 SCT210 M15/M20 A3012 RMK SC2AC1CI1 SLP219

CYHM;2008-02-28 15:00;CYHM 281500Z 32002KT 15SM FEW050 M14/M20 A3015 RMK SC1 SLP229

CYHM;2008-02-28 16:00;CYHM 281600Z 26006KT 15SM FEW100 M13/M22 A3016 RMK AC1 AC TR SLP234

CYHM;2008-02-28 17:00;CYHM 281700Z 28010KT 15SM FEW035 FEW100 FEW220 M12/M21 A3018 RMK CU1AC1CI1 SLP239

CYHM;2008-02-28 18:00;CYHM 281800Z 27010KT 15SM FEW035 FEW120 FEW240 M12/M21 A3018 RMK CU1AC1CI1 AC TR CI TR SLP240

CYHM;2008-02-28 19:00;CYHM 281900Z 29012KT 15SM FEW035 FEW120 FEW220 M11/M20 A3019 RMK CU1AC1CI1 SLP244

CYHM;2008-02-28 20:00;CYHM 282000Z 27011KT 15SM FEW035 FEW120 M10/M20 A3021 RMK CU1AC1 AC TR SLP251

CYHM;2008-02-28 21:00;CYHM 282100Z 27012KT 15SM FEW035 M10/M19 A3024 RMK CU1 SLP258

CYHM;2008-02-28 22:00;CYHM 282200Z 26009KT 15SM FEW035 M10/M18 A3025 RMK CU1 SLP263

CYHM;2008-02-28 23:00;CYHM 282300Z 27005KT 15SM FEW035 FEW250 M11/M19 A3027 RMK CU1CI0 SLP269

CYHM;2008-02-29 00:00;CYHM 290000Z CCA 00000KT 15SM FEW120 FEW250 M12/M19 A3028 RMK AC1CI0 SLP275

CYHM;2008-02-29 01:00;CYHM 290100Z 00000KT 15SM FEW250 M13/M19 A3030 RMK CI1 SLP280

CYHM;2008-02-29 02:00;CYHM 290200Z 20003KT 15SM FEW250 M13/M19 A3031 RMK CI1 SLP283

CYHM;2008-02-29 03:00;CYHM 290300Z 16005KT 15SM FEW250 M15/M20 A3031 RMK CI1 SLP286

CYHM;2008-02-29 04:00;CYHM 290400Z 19003KT 15SM FEW220 M15/M19 A3032 RMK CI2 SLP289

CYHM;2008-02-29 05:00;CYHM 290500Z 00000KT 15SM SCT046 BKN210 M15/M19 A3032 RMK SC3CI2 SLP289

CYHM;2008-02-29 06:00;CYHM 290600Z 00000KT 15SM BKN046 M14/M18 A3032 RMK SC7 SLP287

CYHM;2008-02-29 07:00;CYHM 290700Z 15007KT 15SM FEW032 OVC045 M12/M15 A3033 RMK CF2SC6 SLP289

CYHM;2008-02-29 08:00;CYHM 290800Z 15005KT 12SM -SHSN BKN046 M13/M15 A3032 RMK SC7 SLP286

CYHM;2008-02-29 09:00;CYHM 290900Z 14008KT 15SM BKN043 M13/M15 A3031 RMK SC6 SLP283

CYHM;2008-02-29 10:00;CYHM 291000Z 14006KT 15SM FEW043 SCT200 M13/M16 A3032 RMK SC2CI1 FROIN SLP285

CYHM;2008-02-29 11:00;CYHM 291100Z 15008KT 15SM FEW043 SCT200 M13/M16 A3032 RMK SC1CI2 FROIN SLP284

CYHM;2008-02-29 12:00;CYHM 291200Z 15012KT 15SM FEW045 FEW220 M14/M16 A3029 RMK SC1CI1 CONTRAIL SLP277

CYHM;2008-02-29 13:00;CYHM 291300Z 14008KT 15SM FEW170 BKN210 M12/M15 A3028 RMK AC2CI3 SLP272

CYHM;2008-02-29 14:00;CYHM 291400Z 13012KT 15SM SCT130 OVC210 M11/M15 A3025 RMK AC3CI2 CONTRAIL SLP262

CYHM;2008-02-29 15:00;CYHM 291500Z 14014KT 15SM BKN083 BKN095 OVC210 M09/M14 A3022 RMK AC5AC2CI2 SLP253

CYHM;2008-02-29 16:00;CYHM 291600Z 11010KT 10SM BKN054 OVC100 M07/M13 A3017 RMK SC6AS2 SLP237

CYHM;2008-02-29 17:00;CYHM 291700Z 11010KT 8SM -SHSN BKN024 OVC035 M06/M12 A3012 RMK SC6SC2 SLP218

CYHM;2008-02-29 17:02;CYHM 291702Z 11010KT 8SM -SHSN BKN024 OVC035 RMK SC6SC2

CYHM;2008-02-29 18:00;CYHM 291800Z 11012KT 2SM -SHSN BKN009 OVC023 M05/M09 A3005 RMK SF6SC2 SLP191

CYHM;2008-02-29 19:00;CYHM 291900Z 10014KT 2SM -SHSN BKN011 OVC026 M05/M06 A2998 RMK SF6SC2 SLP169

CYHM;2008-02-29 19:06;CYHM 291906Z 09012KT 1 1/4SM -SHSN OVC011 RMK SN2SF6

CYHM;2008-02-29 19:18;CYHM 291918Z 09012KT 5/8SM -SHSN VV005 RMK SN8

CYHM;2008-02-29 19:43;CYHM 291943Z 09010KT 3/8SM SHSN VV004 RMK SN8

CYHM;2008-02-29 19:53;CYHM 291953Z 09010KT 3/4SM -SHSN VV007 RESN RMK SN8

CYHM;2008-02-29 20:00;CYHM 292000Z 09010KT 3/4SM -SHSN VV007 M04/M05 A2995 RESN RMK SN8 SLP159

CYHM;2008-02-29 20:25;CYHM 292025Z 08010KT 1 1/4SM -SHSN OVC015 RMK SN4SC4

CYHM;2008-02-29 20:44;CYHM 292044Z 08009KT 5/8SM -SHSN OVC014 RMK SN6SC2

CYHM;2008-02-29 21:00;CYHM 292100Z 08008KT 5/8SM -SHSN OVC014 M04/M04 A2992 RMK SN6SC2 /S02/ SLP148

CYHM;2008-02-29 21:21;CYHM 292121Z 09010KT 1 1/2SM -SHSN BKN009 OVC015 RMK SN2CF3SC2

CYHM;2008-02-29 21:37;CYHM 292137Z 09009KT 3/4SM -SHSN OVC009 RMK SN5CF3

CYHM;2008-02-29 22:00;CYHM 292200Z 09009KT 1SM -SHSN OVC009 M03/M04 A2989 RMK SN4CF4 SLP138

CYHM;2008-02-29 22:17;CYHM 292217Z 08008KT 3/8SM SHSN VV004 RMK SN8

CYHM;2008-02-29 22:34;CYHM 292234Z 09008KT 5/8SM -SHSN OVC009 RESN RMK SN6CF2

CYHM;2008-02-29 22:48;CYHM 292248Z 10008KT 1 1/2SM -SHSN OVC007 RESN RMK SN2CF6

CYHM;2008-02-29 23:00;CYHM 292300Z 13008KT 1 1/2SM -SHSN BKN005 OVC009 M02/M03 A2986 RESN RMK SN2CF4SC2 /S04/ SLP127

CYHM;2008-02-29 23:14;CYHM 292314Z 13007KT 1 1/4SM -SHSN BKN005 OVC009 RMK SN2CF4SC2

CYHM;2008-02-29 23:25;CYHM 292325Z 16006KT 2SM -SHSN BKN005 OVC008 RMK SN1CF4SC3

CYHM;2008-02-29 23:32;CYHM 292332Z 16007KT 5SM -SHSN BKN005 OVC008 RMK CF6SC2

CYHM;2008-02-29 23:45;CYHM 292345Z 17009KT 5SM -SHSN BKN004 OVC008 RMK CF7SC1

CYHM;2008-03-01 01:00;CYHM 010100Z 19016KT 3SM -SHSN OVC003 00/M00 A2981 RMK CF8 SLP109

CYHM;2008-03-01 02:00;CYHM 010200Z 20014KT 2 1/2SM -SHSN OVC003 01/00 A2979 RMK CF8 SLP103

CYHM;2008-03-01 02:29;CYHM 010229Z 21016KT 2 1/2SM -SHRASN BR OVC003 RMK CF8

CYHM;2008-03-01 02:51;CYHM 010251Z 23016KT 3SM -SHRASN BR BKN004 OVC012 RMK CF6SC2

CYHM;2008-03-01 03:00;CYHM 010300Z 23015KT 3SM -SHRASN BR BKN004 OVC012 01/01 A2978 RMK CF6SC2 SLP098

CYHM;2008-03-01 04:00;CYHM 010400Z 23013KT 5SM -SHRASN BR OVC006 01/01 A2978 RMK CF8 CIG RAG SLP096

CYHM;2008-03-01 04:56;CYHM 010456Z 24025G38KT 1/2SM -SN BLSN VV002 RMK SN8

CYHM;2008-03-01 05:00;CYHM 010500Z 25020G38KT 2SM -SN BLSN SCT007 OVC028 M00/M00 A2978 RMK SN1CF3SC4 /S01/ SLP097

CYHM;2008-03-01 05:07;CYHM 010507Z 25018G38KT 4SM -SN BLSN FEW007 OVC030 RMK CF2SC6

CYHM;2008-03-01 06:00;CYHM 010600Z 27016KT 5SM -SN DRSN OVC011 M00/M01 A2978 RMK SC8 SLP096

CYHM;2008-03-01 07:00;CYHM 010700Z 26017KT 10SM -SN DRSN FEW013 OVC037 M01/M03 A2980 RMK CF2SC6 SLP103

CYHM;2008-03-01 08:00;CYHM 010800Z 26016G21KT 12SM -SN DRSN FEW017 BKN043 M01/M04 A2981 RMK CF2SC5 SLP104

CYHM;2008-03-01 09:00;CYHM 010900Z 25013G18KT 15SM DRSN SCT040 BKN130 M02/M05 A2981 RMK SC3AC1 SLP107

CYHM;2008-03-01 10:00;CYHM 011000Z 24017KT 12SM -SHSN BKN033 M02/M06 A2982 RMK SC6 SLP109

CYHM;2008-03-01 11:00;CYHM 011100Z 27018G28KT 15SM DRSN OVC028 M03/M08 A2985 RMK SC8 PK GST 37 PST HR SLP118

CYHM;2008-03-01 12:00;CYHM 011200Z 26020KT 15SM BKN032 BKN120 M03/M07 A2986 RMK SC6AC1 SLP122

CYHM;2008-03-01 13:00;CYHM 011300Z CCA 26022KT 15SM FEW032 BKN120 M03/M07 A2988 RMK SC1AC6 SLP128

CYHM;2008-03-01 13:28;CYHM 011328Z CCA 26021G28KT 12SM -SHSN FEW028 BKN120 RMK SC1AC6

CYHM;2008-03-01 14:00;CYHM 011400Z 26022KT 12SM -SHSN FEW018 BKN120 M03/M06 A2991 RMK SC1AC6 SLP139

CYHM;2008-03-01 15:00;CYHM 011500Z 26015G25KT 12SM -SHSN BKN018 OVC035 M03/M06 A2994 RMK SC6SC2 SLP150

CYHM;2008-03-01 16:00;CYHM 011600Z 27020G26KT 12SM -SHSN FEW018 BKN026 M02/M07 A2996 RMK CU2SC6 PCPN VRY LGT SLP157

CYHM;2008-03-01 17:00;CYHM 011700Z 23023KT 15SM -SHSN FEW019 BKN025 M02/M06 A2998 RMK CU2SC6 SLP162

CYHM;2008-03-01 18:00;CYHM 011800Z 26021G29KT 12SM -SHSN FEW017 BKN024 BKN036 M02/M05 A2999 RMK CF2SC4SC2 SLP167

CYHM;2008-03-01 18:18;CYHM 011818Z 27017KT 2 1/2SM -SHSN FEW016 BKN024 BKN042 RMK CF2SC3SC2

CYHM;2008-03-01 18:26;CYHM 011826Z 26018KT 6SM -SHSN FEW016 BKN025 OVC042 RMK CF2SC5SC2

CYHM;2008-03-01 19:00;CYHM 011900Z 27023KT 9SM -SHSN FEW016 BKN027 OVC042 M02/M06 A3001 RMK CF2SC5SC1 SLP172

CYHM;2008-03-01 20:00;CYHM 012000Z 27019G25KT 240V300 12SM FEW016 BKN026 BKN039 M02/M08 A3003 RMK CF2SC3SC2 SLP180

CYHM;2008-03-01 21:00;CYHM 012100Z 27018KT 240V300 15SM SCT025 BKN034 M02/M07 A3006 RMK CU4SC3 SLP189

CYHM;2008-03-01 22:00;CYHM 012200Z 28018G24KT 15SM SCT025 BKN033 M03/M08 A3009 RMK CU3SC3 SLP201

CYHM;2008-03-01 23:00;CYHM 012300Z 28016KT 15SM BKN029 M03/M08 A3012 RMK SC5 SLP211

CYHM;2008-03-02 00:00;CYHM 020000Z 28010KT 15SM FEW030 M04/M09 A3015 RMK SC2 SLP223

CYHM;2008-03-02 01:00;CYHM 020100Z 27010KT 15SM FEW030 M05/M09 A3018 RMK SC1 SC TR SLP231

CYHM;2008-03-02 02:00;CYHM 020200Z 25007KT 15SM FEW070 M06/M08 A3019 RMK AC1 SLP236

CYHM;2008-03-02 03:00;CYHM 020300Z 23004KT 15SM BKN028 M08/M10 A3021 RMK SC6 SLP244

CYHM;2008-03-02 04:00;CYHM 020400Z 26002KT 15SM OVC024 M07/M09 A3023 RMK SC8 SLP249

CYHM;2008-03-02 05:00;CYHM 020500Z 26003KT 15SM OVC023 M06/M09 A3023 RMK SC8 SLP252

CYHM;2008-03-02 06:00;CYHM 020600Z 25003KT 15SM FEW023 M07/M10 A3026 RMK SC2 SLP259

CYHM;2008-03-02 07:00;CYHM 020700Z 25005KT 15SM FEW035 M08/M10 A3026 RMK SC2 SLP260

CYHM;2008-03-02 08:00;CYHM 020800Z 25003KT 15SM MIFG SKC M10/M11 A3025 RMK SLP258

CYHM;2008-03-02 09:00;CYHM 020900Z 27003KT 15SM MIFG FEW200 M12/M13 A3026 RMK CI1 SLP263

CYHM;2008-03-02 10:00;CYHM 021000Z 27006KT 15SM MIFG FEW030 FEW200 M11/M12 A3029 RMK SC1CI1 SLP271

CYHM;2008-03-02 10:40;CYHM 021040Z 00000KT 1SM BR FEW030 SCT120 RMK FG2SC1AC1 VIS VRB 3/4 - 11/4

CYHM;2008-03-02 11:00;CYHM 021100Z 00000KT 6SM BR FEW030 FEW120 M12/M13 A3028 RMK SC2AC1 FROIN SLP269

CYHM;2008-03-02 11:19;CYHM 021119Z 00000KT 3/4SM BR FEW120 FEW250 RMK FG1AC1CI0 AC TR

CYHM;2008-03-02 11:28;CYHM 021128Z 00000KT 3/8SM FZFG FEW250 RMK FG1CI0

CYHM;2008-03-02 11:52;CYHM 021152Z 23002KT 3/4SM BR FEW250 RMK FG1CI1

CYHM;2008-03-02 12:00;CYHM 021200Z 23002KT 3/8SM FZFG SCT250 M13/M14 A3028 RMK FG1CI1 CONTRAILS SLP271

CYHM;2008-03-02 13:00;CYHM 021300Z 24003KT 1/4SM FZFG FEW250 M14/M14 A3028 RMK FG1CI1 VIS N 1 VIS W 1 1/2 CONTRAILS SLP271

CYHM;2008-03-02 13:30;CYHM 021330Z 27003KT 1 1/2SM BR FEW250 RMK CI1 VIS SE S 3/8

CYHM;2008-03-02 13:49;CYHM 021349Z 24002KT 2 1/2SM BR MIFG BKN250 RMK CI2 CONTRAILS

CYHM;2008-03-02 14:00;CYHM 021400Z 24003KT 4SM BR BKN250 M10/M12 A3029 RMK CI2 CONTRAILS SLP273

CYHM;2008-03-02 15:00;CYHM 021500Z 00000KT 12SM FEW120 BKN250 M05/M06 A3029 RMK AC2CI1 CONTRAILS SLP273

CYHM;2008-03-02 16:00;CYHM 021600Z 16007KT 15SM BKN100 M04/M08 A3030 RMK AC7 SLP274

CYHM;2008-03-02 17:00;CYHM 021700Z 16008KT 15SM BKN081 M03/M07 A3029 RMK AC7 SLP271

CYHM;2008-03-02 18:00;CYHM 021800Z 16008KT 15SM OVC072 M03/M07 A3027 RMK AC8 SLP263

CYHM;2008-03-02 19:00;CYHM 021900Z CCA 14008KT 15SM SCT064 OVC083 M02/M07 A3025 RMK SC3AC5 SENT VIA YQG SLP256

CYHM;2008-03-02 20:00;CYHM 022000Z 08007KT 15SM SCT060 OVC075 M02/M07 A3022 RMK SC3AC5 SLP247

CYHM;2008-03-02 21:00;CYHM 022100Z 10010KT 15SM SCT045 OVC057 M02/M07 A3019 RMK SC3SC5 SLP239

CYHM;2008-03-02 22:00;CYHM 022200Z 09011KT 15SM FEW045 OVC057 M01/M06 A3016 RMK SC2SC6 SLP229

CYHM;2008-03-02 23:00;CYHM 022300Z 08010KT 15SM FEW045 BKN060 BKN100 M01/M06 A3014 RMK SC2SC3AC2 SLP221

CYHM;2008-03-03 00:00;CYHM 030000Z 06012KT 15SM FEW045 SCT060 BKN080 BKN100 BKN220 M01/M05 A3013 RMK SC2SC2AC2AC2CI1 CI TR SLP219

CYHM;2008-03-03 01:00;CYHM 030100Z 06013KT 15SM FEW050 SCT080 M02/M04 A3011 RMK SC2AC2 SLP212

CYHM;2008-03-03 02:00;CYHM 030200Z 07011KT 15SM BKN050 BKN070 M01/M04 A3009 RMK SC5AC2 SLP205

CYHM;2008-03-03 03:00;CYHM 030300Z 06010KT 15SM BKN051 BKN066 M02/M04 A3006 RMK SC5AC2 SLP192

CYHM;2008-03-03 04:00;CYHM 030400Z 03005KT 15SM OVC051 M01/M04 A3005 RMK SC8 SLP187

CYHM;2008-03-03 04:41;CYHM 030441Z 09005KT 12SM -FZRA OVC060 RMK SC8

CYHM;2008-03-03 05:00;CYHM 030500Z 09005KT 12SM -FZRA OVC041 M00/M03 A3001 RMK SC8 SLP176

CYHM;2008-03-03 05:12;CYHM 030512Z 08005KT 5SM FZRA OVC040 RMK SC8

CYHM;2008-03-03 05:21;CYHM 030521Z 08007KT 6SM -FZRA BR OVC039 REFZRA RMK SC8

CYHM;2008-03-03 06:00;CYHM 030600Z 10004KT 10SM -RA OVC037 00/M02 A2998 REFZRA RMK SC8 SLP162

CYHM;2008-03-03 07:00;CYHM 030700Z 12006KT 15SM OVC044 01/M02 A2995 RMK SC8 SLP154

CYHM;2008-03-03 08:00;CYHM 030800Z 16002KT 15SM FEW042 OVC088 02/M01 A2992 RMK SC2AC6 SLP144

CYHM;2008-03-03 09:00;CYHM 030900Z 15004KT 15SM OVC100 01/M01 A2989 RMK AC8 SLP131

CYHM;2008-03-03 10:00;CYHM 031000Z 20008KT 15SM FEW075 OVC100 04/M00 A2987 RMK AC2AC6 SLP124

CYHM;2008-03-03 11:00;CYHM 031100Z 20015KT 15SM FEW070 BKN100 05/00 A2984 RMK AC2AC4 SLP117

CYHM;2008-03-03 12:00;CYHM 031200Z 22013KT 15SM BKN075 BKN110 OVC220 05/01 A2984 RMK AC5AC2CI1 SLP113

CYHM;2008-03-03 13:00;CYHM 031300Z 23020G25KT 8SM BKN072 OVC110 06/01 A2984 RMK AC6AC2 SLP114

CYHM;2008-03-03 14:00;CYHM 031400Z 21018KT 8SM BKN070 BKN110 07/02 A2984 RMK AC6AC2 SLP112

CYHM;2008-03-03 15:00;CYHM 031500Z 22020KT 15SM BKN075 BKN100 07/02 A2982 RMK AC5AC2 SLP105

CYHM;2008-03-03 16:00;CYHM 031600Z 21016KT 15SM BKN086 08/01 A2981 RMK AC7 SLP102

CYHM;2008-03-03 17:00;CYHM 031700Z 20018KT 15SM SCT075 BKN097 09/02 A2979 RMK AC3AC3 SLP097

CYHM;2008-03-03 18:00;CYHM 031800Z 21018KT 15SM FEW075 BKN090 BKN220 10/02 A2975 RMK AC2AC3CI2 SLP082

CYHM;2008-03-03 19:00;CYHM 031900Z 21015KT 15SM BKN078 BKN120 OVC220 10/02 A2973 RMK AC6AC2CI1 SLP074

CYHM;2008-03-03 20:00;CYHM 032000Z 20015G22KT 15SM FEW084 FEW120 BKN250 10/02 A2970 RMK AC2AC1CI0 SLP063

CYHM;2008-03-03 21:00;CYHM 032100Z 21014G20KT 15SM BKN060 BKN140 10/03 A2968 RMK SC6AC1 SLP058

CYHM;2008-03-03 22:00;CYHM 032200Z 20015KT 15SM -SHRA OVC060 10/02 A2970 RMK SC8 SLP062

CYHM;2008-03-03 23:00;CYHM 032300Z 24015G26KT 9SM -SHRA FEW046 OVC058 10/07 A2971 RMK SC2SC6 SLP066

CYHM;2008-03-04 00:00;CYHM 040000Z 24015G24KT 5SM -RA BR OVC050 09/08 A2972 RMK SC8 SLP069

CYHM;2008-03-04 01:00;CYHM 040100Z 24014G20KT 6SM -RA BR BKN008 OVC024 08/08 A2972 RMK SF6SC2 SLP069

CYHM;2008-03-04 01:38;CYHM 040138Z 26010KT 6SM -RA BR FEW006 OVC019 RMK SF2SC6

CYHM;2008-03-04 02:00;CYHM 040200Z 27010KT 6SM -RA BR FEW006 OVC022 05/05 A2974 RMK SF2SC6 SLP077

CYHM;2008-03-04 02:15;CYHM 040215Z 31014G20KT 6SM -RA BR BKN007 OVC060 RMK SF6SC2

CYHM;2008-03-04 03:00;CYHM 040300Z 31010KT 6SM -RA BR FEW009 OVC033 01/M00 A2980 RMK SF2SC6 SLP097

CYHM;2008-03-04 04:00;CYHM 040400Z 29015KT 10SM -RASN FEW009 BKN048 OVC086 00/M01 A2982 RMK SF1SC6AC1 SLP104

CYHM;2008-03-04 05:00;CYHM 040500Z 31012KT 10SM -PLSN SCT013 OVC048 M00/M02 A2984 RMK SC3SC5 SLP113

CYHM;2008-03-04 05:40;CYHM 040540Z 30010KT 8SM -SN SCT012 OVC048 RMK SF3SC5

CYHM;2008-03-04 06:00;CYHM 040600Z 31012KT 2SM -SN FEW012 BKN018 OVC048 M01/M02 A2988 RMK SF2SC5SC2 SLP125

CYHM;2008-03-04 07:00;CYHM 040700Z 31010KT 6SM -SN BKN017 OVC054 M01/M03 A2992 RMK SC6SC2 SLP139

CYHM;2008-03-04 08:00;CYHM 040800Z CCA 31011KT 15SM -SN FEW022 OVC080 M02/M05 A2995 RMK SC2AC6 SLP147

CYHM;2008-03-04 09:00;CYHM 040900Z 31010KT 15SM -SHSN FEW023 BKN088 OVC110 M02/M06 A2997 RMK SC1AC6AC1 SLP157

CYHM;2008-03-04 10:00;CYHM 041000Z 32011KT 15SM FEW024 OVC110 M02/M05 A3000 RMK SC1AC7 SLP167

CYHM;2008-03-04 11:00;CYHM 041100Z 35008KT 15SM BKN022 OVC130 M02/M06 A3001 RMK SC6AC2 SLP171

CYHM;2008-03-04 12:00;CYHM 041200Z 32012KT 15SM BKN020 BKN130 M03/M07 A3003 RMK SC5AC2 SLP178

CYHM;2008-03-04 13:00;CYHM 041300Z 01009KT 15SM SCT022 BKN150 OVC220 M03/M07 A3006 RMK SC3AC4CI1 SLP186

CYHM;2008-03-04 14:00;CYHM 041400Z 03014KT 15SM FEW020 SCT045 BKN150 M03/M08 A3007 RMK SC2SC2AC3 SLP190

CYHM;2008-03-04 15:00;CYHM 041500Z 03013KT 15SM FEW020 BKN110 OVC150 M03/M08 A3006 RMK SC2AC4AC2 SLP191

CYHM;2008-03-04 16:00;CYHM 041600Z 04013KT 15SM FEW020 BKN110 BKN160 M03/M08 A3007 RMK SC2AC4AC2 SLP193

CYHM;2008-03-04 17:00;CYHM 041700Z 04018KT 15SM FEW020 BKN110 M03/M09 A3004 RMK SC2AC6 SLP182

CYHM;2008-03-04 18:00;CYHM 041800Z 05018KT 15SM FEW020 OVC110 M03/M08 A3001 RMK SC2AC6 SLP173

CYHM;2008-03-04 19:00;CYHM 041900Z 04018KT 15SM FEW022 BKN092 OVC120 M03/M09 A2999 RMK SC1AC5AC2 SLP166

CYHM;2008-03-04 20:00;CYHM 042000Z 05020G26KT 15SM FEW024 BKN080 OVC120 M03/M08 A2995 RMK SC1AC6AC1 SC TR SLP155

CYHM;2008-03-04 21:00;CYHM 042100Z 05018G29KT 15SM FEW024 FEW060 OVC096 M03/M09 A2992 RMK SC1SC1AC6 1ST LYR TR SLP142

CYHM;2008-03-04 22:00;CYHM 042200Z 04025G34KT 15SM FEW024 OVC070 M03/M08 A2988 RMK SC1AS7 SC TR SLP130

CYHM;2008-03-04 23:00;CYHM 042300Z 06024G34KT 15SM FEW024 OVC064 M02/M08 A2988 RMK SC1SC7 1ST LYR TR SLP129

CYHM;2008-03-04 23:38;CYHM 042338Z 06028G37KT 10SM -PL OVC062 RMK SC8

CYHM;2008-03-05 00:00;CYHM 050000Z 06026G36KT 5SM -PL OVC060 M02/M07 A2984 RMK SC8 SLP116

CYHM;2008-03-05 00:22;CYHM 050022Z 06030G36KT 4SM -PLSN OVC053 RMK SC8

CYHM;2008-03-05 01:00;CYHM 050100Z 05025G39KT 2SM -PLSN BKN012 OVC054 M03/M04 A2980 RMK SF6SC2 SLP104

CYHM;2008-03-05 01:39;CYHM 050139Z 06025G35KT 1SM -PLSN OVC006 RMK PL2SC6

CYHM;2008-03-05 02:00;CYHM 050200Z 06028G39KT 1SM -PLSN BKN007 OVC026 M02/M03 A2975 RMK PL3SC4SC1 VSBY VRBL 3/4-11/4SM SLP087

CYHM;2008-03-05 03:00;CYHM 050300Z 05032G44KT 1SM -PLSN DRSN BKN008 OVC018 M03/M04 A2973 RMK SN3SC4SC1 VSBY VRBL 3/4-11/4SM SLP078

CYHM;2008-03-05 04:00;CYHM 050400Z 05030G40KT 3/4SM -PLSN DRSN OVC007 M03/M04 A2964 RMK SN3SC5 SLP049

CYHM;2008-03-05 05:00;CYHM 050500Z 05034G40KT 1SM -PLSN DRSN OVC009 M03/M04 A2959 RMK SN3SC5 VSBY VRBL 3/4-11/4SM SLP034

CYHM;2008-03-05 06:00;CYHM 050600Z CCA 06025G35KT 3/4SM -PLSN DRSN OVC009 M03/M04 A2958 RMK SN3SC5 VSBY VRBL 1/2-1SM SLP027

CYHM;2008-03-05 07:00;CYHM 050700Z 06025G35KT 3/4SM -SNPL DRSN OVC010 M03/M04 A2952 RMK SN3SC5 VSBY VRBL 1/2-11/4SM SLP007

CYHM;2008-03-05 08:00;CYHM 050800Z 04020G34KT 1SM -SN DRSN OVC009 M04/M05 A2950 RMK SN3SC5 VSBY VRBL 3/4-11/4SM SLP001

CYHM;2008-03-05 09:00;CYHM 050900Z 03020G28KT 1 1/4SM -SN DRSN BKN007 OVC016 M06/M07 A2949 RMK SN2SC5SC2 SLP996

CYHM;2008-03-05 10:00;CYHM 051000Z 02020KT 1SM -SN DRSN SCT007 OVC021 M06/M08 A2949 RMK SN2SF2SC4 SLP999

CYHM;2008-03-05 11:00;CYHM 051100Z 35013G20KT 1SM -SN DRSN OVC015 M07/M08 A2952 RMK SN3SC5 SLP007

CYHM;2008-03-05 11:36;CYHM 051136Z 35015KT 1SM -SN DRSN BKN005 OVC015 RMK SN2SF4SC2

CYHM;2008-03-05 12:00;CYHM 051200Z 35014KT 3/4SM -SN DRSN BR BKN005 OVC015 M07/M08 A2956 RMK SN2SF5SC2 SLP023

CYHM;2008-03-05 12:44;CYHM 051244Z 35014KT 1 1/2SM -SN DRSN BR BKN011 OVC027 RMK SN2SF5SC2

CYHM;2008-03-05 13:00;CYHM 051300Z 34012G17KT 2SM -SN BR BKN016 OVC029 M06/M08 A2959 RMK SC6SC2 SLP030

CYHM;2008-03-05 13:26;CYHM 051326Z 32010KT 1SM -SN BR BKN007 OVC019 RMK SN2SF4SC2

CYHM;2008-03-05 14:00;CYHM 051400Z 30008KT 1SM -SN BR BKN008 OVC022 M06/M07 A2964 RMK SN2SF5SC2 SLP047

CYHM;2008-03-05 14:10;CYHM 051410Z 29010KT 3/4SM -SN BR BKN007 OVC018 RMK SN2SF5SC2

CYHM;2008-03-05 14:45;CYHM 051445Z 28010KT 2SM -SN BR BKN012 OVC029 RMK SN1SF5SC2

CYHM;2008-03-05 15:00;CYHM 051500Z 29010KT 2SM -SN BR FEW008 BKN013 OVC032 M05/M07 A2966 RMK SF2SC4SC2 /S03/ SLP056

CYHM;2008-03-05 15:53;CYHM 051553Z 30010KT 4SM -SN SCT011 BKN032 OVC054 RMK SF3SC3SC2

CYHM;2008-03-05 16:00;CYHM 051600Z 30012KT 5SM -SN SCT015 BKN032 OVC045 M04/M08 A2970 RMK SC3SC3SC2 SLP069

CYHM;2008-03-05 17:00;CYHM 051700Z 29014KT 8SM -SN BKN022 OVC034 M04/M07 A2975 RMK SC6SC2 SLP086

CYHM;2008-03-05 17:46;CYHM 051746Z 28012KT 15SM FEW025 SCT042 BKN140 BKN170 RMK CU1SC2AC2AC2

CYHM;2008-03-05 18:00;CYHM 051800Z 27018KT 15SM FEW025 FEW042 BKN120 BKN160 M02/M07 A2976 RMK CU1SC2AC2AC2 SLP089

CYHM;2008-03-05 19:00;CYHM 051900Z 26020KT 15SM BKN069 M01/M07 A2979 RMK AC7 SLP099

CYHM;2008-03-05 20:00;CYHM 052000Z 27012KT 15SM FEW070 M01/M07 A2982 RMK AC1 SLP108

CYHM;2008-03-05 21:00;CYHM 052100Z 26017KT 15SM FEW030 M01/M07 A2986 RMK CU1 SLP122

CYHM;2008-03-05 22:00;CYHM 052200Z 24018KT 15SM FEW030 FEW250 M02/M07 A2988 RMK CU1CI1 SLP129

CYHM;2008-03-05 23:00;CYHM 052300Z 25013KT 15SM FEW030 FEW250 M03/M08 A2991 RMK SC1CI1 SLP139

CYHM;2008-03-06 00:00;CYHM 060000Z 25009KT 15SM FEW250 M04/M08 A2994 RMK CI1 SLP152

CYHM;2008-03-06 01:00;CYHM 060100Z 24009KT 15SM FEW012 SCT250 M04/M08 A2997 RMK SC1CI1 SLP161

CYHM;2008-03-06 02:00;CYHM 060200Z 24012KT 15SM FEW012 BKN140 M04/M06 A2998 RMK SC2AC3 SLP165

CYHM;2008-03-06 03:00;CYHM 060300Z 23012KT 15SM FEW140 M05/M06 A2999 RMK AC1 SLP170

CYHM;2008-03-06 04:00;CYHM 060400Z 22010KT 15SM FEW140 M06/M07 A3000 RMK AC1 SLP172

CYHM;2008-03-06 05:00;CYHM 060500Z 22011KT 15SM FEW200 M06/M07 A3001 RMK CI2 SLP175

CYHM;2008-03-06 06:00;CYHM 060600Z 21012KT 15SM SCT080 M05/M07 A3001 RMK AC2 SLP176

CYHM;2008-03-06 07:00;CYHM 060700Z 21012KT 10SM BKN012 BKN070 M05/M06 A3002 RMK SC5AC1 SLP177

CYHM;2008-03-06 08:00;CYHM 060800Z 22010KT 8SM BKN014 OVC070 M04/M05 A3002 RMK SC6AC2 SLP178

CYHM;2008-03-06 09:00;CYHM 060900Z 21009KT 8SM BKN013 OVC063 M03/M05 A3002 RMK SC6SC2 SLP176

CYHM;2008-03-06 10:00;CYHM 061000Z 21011KT 8SM FEW012 BKN057 BKN088 M03/M05 A3001 RMK CF2SC3AC1 SLP175

CYHM;2008-03-06 11:00;CYHM 061100Z 21012KT 8SM -SHSN FEW014 OVC055 M02/M04 A3002 RMK CF2SC6 SLP178

CYHM;2008-03-06 11:42;CYHM 061142Z 20012KT 2SM -SHSN BKN014 OVC037 RMK SC6SC2

CYHM;2008-03-06 12:00;CYHM 061200Z 21012KT 4SM -SHSN FEW010 BKN028 OVC057 M02/M04 A3002 RMK SF2SC3SC2 SLP179

CYHM;2008-03-06 13:00;CYHM 061300Z 23014KT 6SM -SHSN BR SCT009 BKN042 BKN078 M02/M04 A3004 RMK SF3SC2AC1 SLP184

CYHM;2008-03-06 13:31;CYHM 061331Z 22015KT 8SM BKN011 OVC035 RMK SF5SC3

CYHM;2008-03-06 14:00;CYHM 061400Z 22012KT 7SM BKN012 OVC042 M01/M04 A3005 RMK SF6SC2 SLP189

CYHM;2008-03-06 15:00;CYHM 061500Z 22014KT 10SM FEW015 SCT018 BKN054 BKN100 M01/M03 A3005 RMK CU1SC2SC2AC1 SLP189

CYHM;2008-03-06 16:00;CYHM 061600Z 22015KT 10SM FEW022 SCT045 BKN078 01/M03 A3007 RMK CU2SC2AC2 SLP195

CYHM;2008-03-06 17:00;CYHM 061700Z 22018KT 15SM FEW022 FEW034 BKN080 02/M03 A3007 RMK CU2SC1AC3 SLP196

CYHM;2008-03-06 18:00;CYHM 061800Z 22018KT 15SM FEW023 BKN035 BKN085 02/M03 A3007 RMK CU2SC3AC2 SLP195

CYHM;2008-03-06 19:00;CYHM 061900Z 22016KT 15SM FEW022 SCT034 BKN047 BKN100 02/M02 A3008 RMK CU1SC2SC2AC2 SLP197

CYHM;2008-03-06 20:00;CYHM 062000Z 22017KT 15SM BKN022 OVC045 02/M02 A3009 RMK SC6SC2 SLP200

CYHM;2008-03-06 21:00;CYHM 062100Z 22019KT 12SM -SHSN FEW021 OVC029 02/M02 A3010 RMK SC2SC6 PCPN VRY LGT SLP202

CYHM;2008-03-06 22:00;CYHM 062200Z 22012KT 10SM -SHSN SCT015 OVC021 01/M01 A3011 RMK CU3SC5 PCPN VRY LGT SLP207

CYHM;2008-03-06 23:00;CYHM 062300Z 22012KT 2 1/2SM -SHSN FEW015 OVC031 01/M01 A3012 RMK CU2SC6 SLP211

CYHM;2008-03-06 23:13;CYHM 062313Z 22012KT 3SM -SHSN FEW015 OVC031 RMK CU2SC6

CYHM;2008-03-07 00:00;CYHM 070000Z 22008KT 8SM -SHSN BKN038 OVC056 01/M01 A3013 RMK SC5SC3 SLP214

CYHM;2008-03-07 00:24;CYHM 070024Z 23007KT 10SM FEW040 BKN051 RMK SC2SC6

CYHM;2008-03-07 01:00;CYHM 070100Z 20006KT 12SM FEW041 BKN049 00/M01 A3014 RMK SC1SC6 SLP216

CYHM;2008-03-07 02:00;CYHM 070200Z 26006KT 8SM FEW009 BKN048 00/M01 A3016 RMK SC2SC6 SLP222

CYHM;2008-03-07 02:13;CYHM 070213Z 26008KT 8SM BKN008 OVC048 RMK SC6SC2

CYHM;2008-03-07 02:42;CYHM 070242Z 25007KT 8SM SCT008 BKN048 RMK SC3SC2

CYHM;2008-03-07 03:00;CYHM 070300Z 23007KT 10SM FEW008 SCT048 M00/M02 A3018 RMK SC2SC2 SLP230

CYHM;2008-03-07 04:00;CYHM 070400Z 22004KT 5SM BR FEW044 FEW150 M01/M02 A3018 RMK SC2AC1 SLP230

CYHM;2008-03-07 05:00;CYHM 070500Z 22004KT 5SM BR FEW045 BKN150 M02/M02 A3018 RMK SC2AS2 SLP232

CYHM;2008-03-07 06:00;CYHM 070600Z 00000KT 4SM BR FEW045 BKN150 M02/M02 A3018 RMK SC1AS2 SLP230

CYHM;2008-03-07 07:00;CYHM 070700Z 26002KT 2 1/2SM BR OVC039 M02/M02 A3020 RMK SC8 SLP236

CYHM;2008-03-07 07:12;CYHM 070712Z 28002KT 2SM BR BKN012 OVC038 RMK FG1SC6SC1

CYHM;2008-03-07 07:20;CYHM 070720Z 30004KT 1 1/2SM BR BKN003 OVC010 RMK FG2SF5SC2 VIS VRB 1 - 2

CYHM;2008-03-07 08:00;CYHM 070800Z 30003KT 1 1/2SM BR SCT004 OVC040 M02/M02 A3018 RMK FG2SF2SC4 VIS VRB 1 - 2 SLP231

CYHM;2008-03-07 09:00;CYHM 070900Z 00000KT 2SM BR OVC043 M02/M02 A3019 RMK FG1SC7 SLP233

CYHM;2008-03-07 09:35;CYHM 070935Z 32005KT 4SM BR OVC040 RMK SC8

CYHM;2008-03-07 10:00;CYHM 071000Z 33007KT 7SM BKN049 OVC130 M02/M04 A3019 RMK SC6AC2 HZ SLP232

CYHM;2008-03-07 11:00;CYHM 071100Z 33003KT 12SM BKN032 OVC041 M02/M06 A3021 RMK SC6SC2 SLP239

CYHM;2008-03-07 12:00;CYHM 071200Z 33010KT 15SM SCT038 BKN140 BKN180 M03/M07 A3018 RMK SC3AC2AC1 SLP232

CYHM;2008-03-07 13:00;CYHM 071300Z 34009KT 15SM BKN056 OVC100 M03/M07 A3022 RMK SC6AC2 SLP244

CYHM;2008-03-07 14:00;CYHM 071400Z 35007KT 15SM OVC047 M03/M07 A3023 RMK SC8 SLP247

CYHM;2008-03-07 15:00;CYHM 071500Z 35006KT 15SM OVC046 M02/M07 A3023 RMK SC8 SLP246

CYHM;2008-03-07 16:00;CYHM 071600Z 05012KT 15SM SCT034 BKN047 OVC075 M01/M07 A3019 RMK SC4SC2AC2 SLP235

CYHM;2008-03-07 17:00;CYHM 071700Z 04014KT 15SM BKN049 OVC064 M01/M08 A3017 RMK SC6SC2 SLP227

CYHM;2008-03-07 18:00;CYHM 071800Z 02008KT 10SM BKN036 OVC045 M01/M08 A3015 RMK SC6SC2 SLP220

CYHM;2008-03-07 18:35;CYHM 071835Z 01014KT 6SM -SHSN BKN021 OVC038 RMK SC6SC2

CYHM;2008-03-07 19:00;CYHM 071900Z 01008KT 6SM -SHSN BKN021 OVC036 M02/M07 A3012 RMK SC6SC2 SLP212

CYHM;2008-03-07 19:08;CYHM 071908Z 36013KT 1 1/2SM -SHSN OVC021 RMK SN4SC4

CYHM;2008-03-07 19:24;CYHM 071924Z 01013KT 1SM -SHSN VV008 RMK SN8

CYHM;2008-03-07 20:00;CYHM 072000Z 01015KT 3/4SM -SHSN VV006 M03/M05 A3010 RMK SN8 SLP203

CYHM;2008-03-07 20:27;CYHM 072027Z 01013KT 1 1/4SM -SHSN VV009 RMK SN8

CYHM;2008-03-07 21:00;CYHM 072100Z 01015KT 1 1/4SM -SHSN VV009 M04/M05 A3006 RMK SN8 SLP190

CYHM;2008-03-07 21:34;CYHM 072134Z 36012KT 1 1/2SM -SN VV011 RMK SN8

CYHM;2008-03-07 22:00;CYHM 072200Z 36012KT 1SM -SN VV008 M04/M05 A3006 RMK SN8 SLP192

CYHM;2008-03-07 22:21;CYHM 072221Z 36015KT 5/8SM -SN VV006 RMK SN8

CYHM;2008-03-07 22:33;CYHM 072233Z 01014KT 1SM -SN VV008 RMK SN8

CYHM;2008-03-07 23:00;CYHM 072300Z 02013KT 1 1/2SM -SN VV011 M04/M05 A3006 RMK SN8 SLP190

CYHM;2008-03-07 23:08;CYHM 072308Z 01012KT 3/4SM -SN VV007 RMK SN8

CYHM;2008-03-07 23:17;CYHM 072317Z 02012KT 1 1/4SM -SN VV009 RMK SN8

CYHM;2008-03-08 00:00;CYHM 080000Z CCA 01016KT 1 1/4SM -SN VV008 M04/M06 A3002 RMK SN8 /S02/ SLP179

CYHM;2008-03-08 00:28;CYHM 080028Z 01018KT 2 1/2SM -SN SCT008 BKN013 OVC067 RMK CF3SC2AC2

CYHM;2008-03-08 00:40;CYHM 080040Z 02018KT 5SM -SN SCT009 SCT013 OVC063 RMK CF3SC1SC4

CYHM;2008-03-08 01:00;CYHM 080100Z 01018KT 7SM -SN SCT009 OVC062 M05/M06 A3000 RMK CF3SC5 SLP172

CYHM;2008-03-08 02:00;CYHM 080200Z 02019KT 6SM -SN FEW009 OVC059 M05/M07 A3000 RMK CF2SC6 SLP171

CYHM;2008-03-08 03:00;CYHM 080300Z 02018KT 5SM -SN DRSN FEW012 OVC070 M05/M08 A2998 RMK CF2AC6 SLP166

CYHM;2008-03-08 04:00;CYHM 080400Z 02018KT 6SM -SN DRSN BKN031 OVC060 M06/M09 A2997 RMK SC6SC2 SLP160

CYHM;2008-03-08 04:28;CYHM 080428Z 35013G19KT 3SM -SN DRSN OVC013 RMK SN1SC7 VIS VRB 2 - 4

CYHM;2008-03-08 05:00;CYHM 080500Z 01015KT 1 1/2SM -SN DRSN VV010 M06/M08 A2997 RMK SN8 VIS VRB 1 - 2 /S01/ SLP161

CYHM;2008-03-08 05:22;CYHM 080522Z 01016G21KT 4SM -SN DRSN OVC030 RMK SC8

CYHM;2008-03-08 06:00;CYHM 080600Z 01017KT 7SM -SN DRSN FEW017 OVC085 M06/M08 A2992 RMK CF2AC6 SLP143

CYHM;2008-03-08 07:00;CYHM 080700Z 02016KT 6SM -SN DRSN OVC022 M06/M08 A2992 RMK SC8 SLP143

CYHM;2008-03-08 07:25;CYHM 080725Z 01018KT 2SM -SN DRSN OVC024 RMK SN1SC7

CYHM;2008-03-08 07:37;CYHM 080737Z 02017KT 4SM -SN DRSN OVC024 RMK SC8

CYHM;2008-03-08 08:00;CYHM 080800Z 02018KT 6SM -SN DRSN OVC021 M06/M08 A2987 RMK SC8 SLP127

CYHM;2008-03-08 09:00;CYHM 080900Z 03017G22KT 12SM -SN DRSN OVC023 M06/M09 A2985 RMK SC8 SLP121

CYHM;2008-03-08 10:00;CYHM 081000Z 04018KT 10SM -SN DRSN FEW012 OVC027 M06/M09 A2983 RMK CF2SC6 SLP114

CYHM;2008-03-08 11:00;CYHM 081100Z 03019KT 15SM -SN DRSN FEW012 OVC032 M06/M09 A2982 RMK CF1SC7 SLP112

CYHM;2008-03-08 11:23;CYHM 081123Z 03018KT 2SM -SN DRSN OVC028 RMK SN3SC5

CYHM;2008-03-08 12:00;CYHM 081200Z 03021G28KT 1SM -SN DRSN VV009 M07/M09 A2977 RMK SN8 SLP095

CYHM;2008-03-08 12:46;CYHM 081246Z 03018G24KT 2SM -SN DRSN SCT009 OVC032 RMK SN2CF2SC5

CYHM;2008-03-08 13:00;CYHM 081300Z 02023KT 2SM -SN DRSN SCT009 OVC027 M07/M09 A2977 RMK SN2CF2SC4 SLP093

CYHM;2008-03-08 13:06;CYHM 081306Z 02019G27KT 1SM -SN DRSN VV009 RMK SN8

CYHM;2008-03-08 13:16;CYHM 081316Z 03016G25KT 3/8SM SN DRSN VV005 RMK SN8

CYHM;2008-03-08 13:42;CYHM 081342Z 03022KT 1/4SM SN +BLSN VV003 RMK SN8

CYHM;2008-03-08 14:00;CYHM 081400Z 03021KT 1/4SM SN +BLSN VV003 M07/M08 A2975 RMK SN8 /S04/ SLP086

CYHM;2008-03-08 15:00;CYHM 081500Z 02020G26KT 3/8SM -SN BLSN VV006 M07/M08 A2971 RESN RMK SN8 SLP076

CYHM;2008-03-08 15:13;CYHM 081513Z 02023KT 1/4SM SN +BLSN VV003 RMK SN8

CYHM;2008-03-08 15:54;CYHM 081554Z 02022KT 1/2SM -SN BLSN VV006 RESN RMK SN8

CYHM;2008-03-08 16:00;CYHM 081600Z 01026KT 1/2SM -SN BLSN VV006 M07/M09 A2965 RESN RMK SN8 SLP053

CYHM;2008-03-08 16:13;CYHM 081613Z 02022KT 1SM -SN BLSN VV009 RMK SN8

CYHM;2008-03-08 16:39;CYHM 081639Z 02028G35KT 3/8SM -SN BLSN VV005 RMK SN8

CYHM;2008-03-08 16:46;CYHM 081646Z 02028KT 330V040 5/8SM -SN BLSN VV008 RMK SN8

CYHM;2008-03-08 17:00;CYHM 081700Z 02021G31KT 340V060 1SM -SN BLSN VV009 M07/M09 A2960 RMK SN8 SLP038

CYHM;2008-03-08 17:10;CYHM 081710Z 02032KT 1/2SM -SN BLSN VV008 RMK SN8

CYHM;2008-03-08 17:41;CYHM 081741Z 02028KT 3/4SM -SN BLSN OVC018 RMK SN6SC2

CYHM;2008-03-08 18:00;CYHM 081800Z 02025G32KT 1SM -SN SCT009 OVC015 M07/M08 A2953 RMK SN3CF1SC4 PRESFR SLP012

CYHM;2008-03-08 18:20;CYHM 081820Z 02026G33KT 5/8SM -SN BLSN BKN008 OVC016 RMK SN4CF2SC2

CYHM;2008-03-08 19:00;CYHM 081900Z 02026G33KT 1 1/4SM -SN BLSN OVC008 M07/M08 A2949 RMK SN3CF5 SLP999

CYHM;2008-03-08 19:08;CYHM 081908Z 02027KT 3/8SM -SN BLSN OVC008 RMK SN6CF2

CYHM;2008-03-08 20:00;CYHM 082000Z 02020G28KT 3/8SM -SN BLSN BKN009 OVC015 M07/M08 A2949 RMK SN6SC1SC2 SLP999

CYHM;2008-03-08 20:37;CYHM 082037Z 01021G28KT 1/4SM SN +BLSN VV006 RMK SN8

CYHM;2008-03-08 21:00;CYHM 082100Z CCA 36019KT 3/8SM -SN BLSN VV007 M07/M08 A2947 RMK SN8 /S03/ RESN SLP991

CYHM;2008-03-08 21:20;CYHM 082120Z 35018KT 1/4SM SN +BLSN VV005 RMK SN8

CYHM;2008-03-08 22:00;CYHM 082200Z 35019KT 1/4SM SN +BLSN VV004 M07/M08 A2950 RMK SN8 /S04/ SLP003

CYHM;2008-03-08 23:00;CYHM 082300Z 33020KT 1/4SM SN +BLSN VV004 M07/M08 A2953 RMK SN8 /S07/ SLP013

CYHM;2008-03-08 23:15;CYHM 082315Z 33017KT 3/8SM SN DRSN VV006 RMK SN8

CYHM;2008-03-09 00:00;CYHM 090000Z 33017KT 1/2SM SN DRSN VV007 M08/M10 A2958 RMK SN8 /S09/ SLP029

CYHM;2008-03-09 01:00;CYHM 090100Z 32015KT 1/2SM SN DRSN VV005 M08/M10 A2961 RMK SN8 /S02/ SLP039

CYHM;2008-03-09 01:36;CYHM 090136Z 32017KT 3/4SM -SN DRSN VV010 RESN RMK SN8

CYHM;2008-03-09 02:00;CYHM 090200Z 30014KT 1SM -SN DRSN VV012 M08/M10 A2965 RESN RMK SN8 SLP053

CYHM;2008-03-09 02:25;CYHM 090225Z 30015KT 3/4SM -SN DRSN VV011 RMK SN8

CYHM;2008-03-09 03:00;CYHM 090300Z 29012KT 1SM -SN DRSN VV011 M08/M10 A2970 RMK SN8 /S04/ SLP073

CYHM;2008-03-09 03:35;CYHM 090335Z 28015KT 5/8SM -SN DRSN VV007 RMK SN8

CYHM;2008-03-09 04:00;CYHM 090400Z 27014KT 3/4SM -SN DRSN VV008 M08/M10 A2975 RMK SN8 SLP090

CYHM;2008-03-09 04:44;CYHM 090444Z 28015KT 1SM -SN DRSN VV012 RMK SN8

CYHM;2008-03-09 05:00;CYHM 090500Z 29018KT 3SM -SN DRSN OVC027 M09/M11 A2980 RMK SC8 SLP105

CYHM;2008-03-09 06:00;CYHM 090600Z 27015KT 6SM -SN DRSN BKN026 OVC051 M09/M12 A2985 RMK SC6SC2 SLP123

CYHM;2008-03-09 07:00;CYHM 090700Z 26014KT 15SM -SN FEW053 FEW092 M09/M13 A2990 RMK SC1AC2 SLP140

CYHM;2008-03-09 07:31;CYHM 090731Z 26012KT 15SM FEW070 RMK AC2

CYHM;2008-03-09 08:00;CYHM 090800Z 25012KT 15SM FEW018 FEW070 M10/M13 A2993 RMK CF1AC2 SLP149

CYHM;2008-03-09 09:00;CYHM 090900Z 24009KT 15SM FEW070 M10/M12 A2996 RMK AC1 SLP162

CYHM;2008-03-09 09:49;CYHM 090949Z 23014KT 15SM -SN FEW008 FEW022 RMK CF1SC2

CYHM;2008-03-09 10:00;CYHM 091000Z 24018KT 15SM -SN FEW008 FEW022 M09/M11 A2999 RMK CF1SC1 SLP170

CYHM;2008-03-09 10:47;CYHM 091047Z 24015KT 15SM FEW024 RMK SC1

CYHM;2008-03-09 11:00;CYHM 091100Z 24016KT 15SM FEW024 M11/M14 A3002 RMK SC1 SLP180

CYHM;2008-03-09 12:00;CYHM 091200Z 24013KT 15SM FEW025 M11/M14 A3004 RMK SC1 SLP190

CYHM;2008-03-09 13:00;CYHM 091300Z 24017KT 15SM FEW025 FEW250 M11/M15 A3008 RMK SC1CI0 SLP203

CYHM;2008-03-09 14:00;CYHM 091400Z 25018KT 15SM FEW025 FEW220 M10/M14 A3013 RMK SC1CI1 SC TR SLP219

CYHM;2008-03-09 15:00;CYHM 091500Z 25017KT 15SM DRSN FEW025 FEW200 M09/M14 A3015 RMK CF1CI1 SLP225

CYHM;2008-03-09 16:00;CYHM 091600Z 25015KT 15SM FEW025 FEW200 M08/M13 A3018 RMK SC1CI1 SLP235

CYHM;2008-03-09 17:00;CYHM 091700Z 26019KT 15SM DRSN FEW025 FEW170 SCT200 M07/M13 A3020 RMK SC1AC1CI2 AC TR SLP242

CYHM;2008-03-09 18:00;CYHM 091800Z 26018G25KT 15SM DRSN FEW027 SCT220 M06/M12 A3022 RMK SC2CI1 SLP248

CYHM;2008-03-09 19:00;CYHM 091900Z 26019G25KT 15SM DRSN FEW027 FEW150 M06/M13 A3023 RMK SC2AC1 SLP251

CYHM;2008-03-09 20:00;CYHM 092000Z 26019G27KT 15SM DRSN FEW027 FEW180 M06/M13 A3024 RMK SC2AC1 SLP256

CYHM;2008-03-09 21:00;CYHM 092100Z 26019G26KT 15SM DRSN FEW027 FEW200 M06/M12 A3026 RMK SC2CI1 SLP261

CYHM;2008-03-09 22:00;CYHM 092200Z 26014G19KT 15SM DRSN FEW027 FEW200 M06/M12 A3027 RMK SC1CI1 SLP266

CYHM;2008-03-09 23:00;CYHM 092300Z 26010KT 15SM FEW027 FEW200 M06/M12 A3029 RMK SC1CI1 SLP273

CYHM;2008-03-10 00:00;CYHM 100000Z 25005KT 15SM FEW027 FEW220 M08/M12 A3031 RMK SC1CI1 SC TR SLP280

CYHM;2008-03-10 01:00;CYHM 100100Z 27005KT 15SM SKC M09/M13 A3033 RMK SLP287

CYHM;2008-03-10 02:00;CYHM 100200Z 29005KT 15SM FEW200 M09/M13 A3034 RMK CI1 SLP291

CYHM;2008-03-10 03:00;CYHM 100300Z 00000KT 15SM SCT093 M11/M13 A3036 RMK AC2 SLP297

CYHM;2008-03-10 04:00;CYHM 100400Z 23003KT 15SM BKN092 M11/M13 A3036 RMK AC6 SLP298

CYHM;2008-03-10 05:00;CYHM 100500Z 00000KT 15SM BKN082 M12/M14 A3036 RMK AC5 SLP297

CYHM;2008-03-10 06:00;CYHM 100600Z 00000KT 15SM OVC082 M12/M13 A3036 RMK AC8 SLP296

CYHM;2008-03-10 07:00;CYHM 100700Z 20002KT 15SM FEW040 OVC083 M12/M13 A3035 RMK SC2AC6 SLP294

CYHM;2008-03-10 08:00;CYHM 100800Z 00000KT 15SM SCT040 OVC080 M11/M13 A3034 RMK SC3AC5 SLP290

CYHM;2008-03-10 09:00;CYHM 100900Z 01003KT 15SM FEW040 OVC078 M10/M12 A3033 RMK SC2AC6 SLP287

CYHM;2008-03-10 10:00;CYHM 101000Z 20003KT 15SM FEW037 BKN042 OVC077 M10/M12 A3034 RMK CF1SC6AC2 SLP290

CYHM;2008-03-10 10:54;CYHM 101054Z 00000KT 15SM -SHSN BKN045 OVC072 RMK SC6AC2

CYHM;2008-03-10 11:00;CYHM 101100Z 00000KT 15SM -SHSN BKN046 OVC076 M10/M12 A3035 RMK SC6AC2 SLP294

CYHM;2008-03-10 11:46;CYHM 101146Z 00000KT 15SM BKN045 BKN075 RMK SC5AC2

CYHM;2008-03-10 12:00;CYHM 101200Z 00000KT 15SM BKN044 BKN075 M11/M13 A3036 RMK SC5AC2 SLP297

CYHM;2008-03-10 13:00;CYHM 101300Z 00000KT 15SM FEW045 FEW220 M11/M13 A3036 RMK SC1CI1 SC TR SLP296

CYHM;2008-03-10 14:00;CYHM 101400Z 00000KT 15SM FEW180 FEW220 M07/M11 A3036 RMK AC1CI0 AC TR CI TR SLP297

CYHM;2008-03-10 15:00;CYHM 101500Z 17003KT 15SM FEW170 SCT220 M06/M10 A3036 RMK AC1CI2 SLP297

CYHM;2008-03-10 16:00;CYHM 101600Z 00000KT 15SM SCT220 M04/M09 A3035 RMK CI2 SLP294

CYHM;2008-03-10 17:00;CYHM 101700Z 20008KT 15SM FEW025 FEW220 M03/M07 A3035 RMK CU1CI1 CU TR SLP293

CYHM;2008-03-10 18:00;CYHM 101800Z 19007KT 15SM FEW025 FEW180 SCT220 M03/M06 A3032 RMK CU1AC1CI1 CU TR SLP282

CYHM;2008-03-10 19:00;CYHM 101900Z 28010KT 15SM FEW018 FEW250 M01/M07 A3029 RMK CU2CI1 CI TR SLP272

CYHM;2008-03-10 20:00;CYHM 102000Z 28006KT 15SM FEW024 FEW250 M01/M07 A3027 RMK CU2CI1 CI TR SLP267

CYHM;2008-03-10 21:00;CYHM 102100Z 26007KT 15SM BKN034 M01/M07 A3026 RMK SC6 SLP261

CYHM;2008-03-10 22:00;CYHM 102200Z 27008KT 15SM FEW032 FEW250 M01/M08 A3025 RMK CU2CI1 CI TR SC ASOCTD SLP258

CYHM;2008-03-10 23:00;CYHM 102300Z 28005KT 15SM FEW034 FEW250 M03/M08 A3024 RMK SC1CI1 SC TR CI TR SLP256

CYHM;2008-03-11 00:00;CYHM 110000Z 26005KT 15SM FEW032 FEW250 M03/M09 A3024 RMK SC1CI1 SC TR CI TR SLP257

CYHM;2008-03-11 01:00;CYHM 110100Z 25003KT 15SM FEW250 M05/M09 A3025 RMK CI1 CI TR SLP258

CYHM;2008-03-11 02:00;CYHM 110200Z 27003KT 15SM SKC M05/M09 A3025 RMK SLP258

CYHM;2008-03-11 03:00;CYHM 110300Z 26003KT 15SM FEW250 M07/M10 A3024 RMK CI1 CI TR SLP254

CYHM;2008-03-11 04:00;CYHM 110400Z 26005KT 15SM FEW250 M07/M10 A3023 RMK CI1 CI TR SLP252

CYHM;2008-03-11 05:00;CYHM 110500Z 24003KT 15SM FEW250 M09/M10 A3023 RMK CI1 CI TR SLP250

CYHM;2008-03-11 06:00;CYHM 110600Z 23003KT 15SM FEW250 M10/M11 A3022 RMK CI1 CI TR SLP247

CYHM;2008-03-11 07:00;CYHM 110700Z 25005KT 15SM FEW250 M10/M12 A3021 RMK CI1 CI TR SLP245

CYHM;2008-03-11 08:00;CYHM 110800Z 23005KT 12SM FEW250 M10/M11 A3020 RMK CI1 CI TR SLP240

CYHM;2008-03-11 09:00;CYHM 110900Z 23005KT 2 1/2SM BCFG SKC M11/M12 A3018 RMK SLP234

CYHM;2008-03-11 10:00;CYHM 111000Z 22003KT 3/8SM FZFG SKC M11/M12 A3017 RMK FG2 SLP232

CYHM;2008-03-11 10:29;CYHM 111029Z 26004KT 1SM BR BKN002 RMK FG2SF3

CYHM;2008-03-11 10:36;CYHM 111036Z 25008KT 1/8SM FZFG BKN001 RMK FG5SF2

CYHM;2008-03-11 11:00;CYHM 111100Z 25006KT 0SM FZFG VV001 M10/M11 A3017 RMK FG8 SLP230

CYHM;2008-03-11 12:00;CYHM 111200Z 23003KT 1/8SM FZFG VV001 M11/M12 A3015 RMK FG8 SLP224

CYHM;2008-03-11 13:00;CYHM 111300Z 24005KT 1/8SM FZFG VV001 M09/M10 A3013 RMK FG8 SLP217

CYHM;2008-03-11 14:00;CYHM 111400Z 23006KT 1/8SM FZFG VV001 M07/M08 A3010 RMK FG8 SLP209

CYHM;2008-03-11 14:34;CYHM 111434Z 22007KT 1/2SM FZFG OVC002 RMK FG5SF3

CYHM;2008-03-11 14:43;CYHM 111443Z 22005KT 1 1/2SM BR BKN002 RMK FG3SF4

CYHM;2008-03-11 15:00;CYHM 111500Z 23006KT 2SM BR SCT003 BKN180 M06/M06 A3008 RMK FG2SF2AC2 SLP202

CYHM;2008-03-11 15:15;CYHM 111515Z 21007KT 6SM BR FEW005 BKN180 BKN220 RMK SF2AC3CI1

CYHM;2008-03-11 16:00;CYHM 111600Z 22012KT 8SM FEW015 FEW160 BKN220 M04/M04 A3006 RMK CU1AC2CI1 SLP195

CYHM;2008-03-11 17:00;CYHM 111700Z 23020KT 6SM BR BKN017 BKN150 M02/M04 A3003 RMK SC5AC2 SLP183

CYHM;2008-03-11 18:00;CYHM 111800Z 23018G24KT 7SM BKN014 OVC160 M02/M04 A3000 RMK SC6AC2 SLP172

CYHM;2008-03-11 19:00;CYHM 111900Z 23014G20KT 9SM FEW017 SCT190 BKN250 M01/M05 A2996 RMK SC2AC1CI1 CONTRAILS SLP158

CYHM;2008-03-11 20:00;CYHM 112000Z 22018G26KT 10SM FEW190 BKN250 M01/M06 A2991 RMK AC1CS3 HALO SLP144

CYHM;2008-03-11 21:00;CYHM 112100Z 23022G28KT 9SM BKN200 M01/M05 A2988 RMK CS6 SUN DMLY VSBL SLP131

CYHM;2008-03-11 22:00;CYHM 112200Z 21018G30KT 6SM HZ BKN140 OVC250 M01/M05 A2984 RMK AS6CS2 SUN DMLY VSBL SLP117

CYHM;2008-03-11 23:00;CYHM 112300Z CCA 22015G23KT 6SM HZ FEW022 BKN170 BKN250 M01/M05 A2980 RMK CF1AC5CS1 CUFRA TR SLP106

CYHM;2008-03-12 00:00;CYHM 120000Z 22014G22KT 7SM BKN110 BKN250 M01/M04 A2978 RMK AC5CS2 SLP098

CYHM;2008-03-12 01:00;CYHM 120100Z 22013KT 8SM OVC062 M01/M04 A2976 RMK ST7 SLP092

CYHM;2008-03-12 02:00;CYHM 120200Z 22012KT 10SM FEW054 OVC072 M01/M04 A2975 RMK ST2AS5 SLP087

CYHM;2008-03-12 02:50;CYHM 120250Z 24012KT 8SM -SHSN FEW030 BKN070 BKN090 RMK SC2AC3AC1

CYHM;2008-03-12 03:00;CYHM 120300Z 23013KT 8SM -SHSN FEW030 BKN070 BKN090 M01/M04 A2973 RMK SC2AC3AC1 SLP079

CYHM;2008-03-12 04:00;CYHM 120400Z 23015KT 6SM -SHSN BKN018 OVC070 M00/M04 A2970 RMK SC6AC2 SLP068

CYHM;2008-03-12 05:00;CYHM 120500Z 23014KT 1SM -SN OVC008 M01/M02 A2968 RMK SN2SC6 SLP062

CYHM;2008-03-12 06:00;CYHM 120600Z 23013KT 1 1/4SM -SN BKN006 OVC016 M01/M01 A2966 RMK SC6SC2 SLP054

CYHM;2008-03-12 07:00;CYHM 120700Z 25011KT 2 1/2SM -SN BKN006 OVC015 M01/M01 A2965 RMK SF5SC3 SLP051

CYHM;2008-03-12 08:00;CYHM 120800Z 25011KT 6SM -SN FEW006 OVC013 M00/M02 A2964 RMK SF2SC6 SLP047

CYHM;2008-03-12 09:00;CYHM 120900Z 26008KT 5SM -SN OVC012 M00/M02 A2965 RMK SC8 SLP048

CYHM;2008-03-12 09:50;CYHM 120950Z 28010KT 6SM -SN FEW010 OVC017 RMK SF2SC6

CYHM;2008-03-12 10:00;CYHM 121000Z 29010KT 6SM -SN FEW010 OVC018 00/M02 A2967 RMK SF2SC6 SLP056

CYHM;2008-03-12 10:54;CYHM 121054Z 32008KT 8SM FEW018 SCT023 OVC030 RMK CF1SC2SC5

CYHM;2008-03-12 11:00;CYHM 121100Z 32010KT 8SM FEW018 SCT024 OVC028 00/M03 A2969 RMK CF1SC2SC5 SLP064

CYHM;2008-03-12 12:00;CYHM 121200Z 31012KT 15SM BKN037 BKN210 M01/M04 A2972 RMK SC5CI1 CU ASOCTD SLP075

CYHM;2008-03-12 13:00;CYHM 121300Z 30007KT 15SM FEW018 BKN024 BKN220 M01/M04 A2977 RMK CU1SC4CI1 SLP090

CYHM;2008-03-12 14:00;CYHM 121400Z 33017G22KT 15SM FEW028 BKN036 M01/M06 A2981 RMK CU1SC4 SLP102

CYHM;2008-03-12 15:00;CYHM 121500Z 33016KT 15SM FEW025 BKN032 BKN038 M01/M06 A2984 RMK CU2SC3SC2 SLP114

CYHM;2008-03-12 16:00;CYHM 121600Z 33014KT 15SM FEW027 BKN032 M00/M05 A2986 RMK CU2SC6 SLP121

CYHM;2008-03-12 17:00;CYHM 121700Z 29016KT 15SM FEW026 BKN032 M00/M06 A2988 RMK CU2SC4 SLP127

CYHM;2008-03-12 18:00;CYHM 121800Z 30016KT 15SM FEW025 FEW036 M00/M07 A2990 RMK CU1SC1 SLP136

CYHM;2008-03-12 19:00;CYHM 121900Z 30014KT 15SM FEW026 M00/M07 A2991 RMK CU1 SLP140

CYHM;2008-03-12 20:00;CYHM 122000Z 30014KT 15SM FEW028 FEW250 M00/M07 A2992 RMK CU1CI1 CU TR CI TR CONTRAILS SLP143

CYHM;2008-03-12 21:00;CYHM 122100Z 29010KT 15SM FEW030 FEW250 M00/M08 A2994 RMK CU1CI1 CU TR CONTRAILS SLP150

CYHM;2008-03-12 22:00;CYHM 122200Z 31007KT 15SM BKN250 M01/M08 A2995 RMK CI1 CONTRAILS SLP151

CYHM;2008-03-12 23:00;CYHM 122300Z 30007KT 15SM BKN250 M03/M09 A2996 RMK CS2 SUN DMLY VSBL CONTRAILS SLP156

CYHM;2008-03-13 00:00;CYHM 130000Z 29008KT 15SM SCT180 BKN250 M03/M09 A2998 RMK AS2CS2 CONTRAILS SLP163

CYHM;2008-03-13 01:00;CYHM 130100Z 31002KT 15SM BKN210 M05/M10 A2999 RMK CS3 SLP167

CYHM;2008-03-13 02:00;CYHM 130200Z 00000KT 15SM SCT160 BKN210 M05/M10 A3000 RMK AS2CS2 SLP171

CYHM;2008-03-13 03:00;CYHM 130300Z 00000KT 15SM BKN170 M05/M10 A2999 RMK AS3 SLP167

CYHM;2008-03-13 04:00;CYHM 130400Z 07003KT 15SM FEW130 BKN180 M06/M10 A2998 RMK AC1AS3 SLP165

CYHM;2008-03-13 05:00;CYHM 130500Z 06007KT 15SM FEW130 BKN200 M05/M10 A2999 RMK AC1CI6 SLP167

CYHM;2008-03-13 06:00;CYHM 130600Z 03007KT 15SM FEW100 SCT200 M06/M12 A2999 RMK AC1CI2 SLP168

CYHM;2008-03-13 07:00;CYHM 130700Z 05007KT 15SM BKN110 M06/M12 A2997 RMK AC5 SLP160

CYHM;2008-03-13 08:00;CYHM 130800Z 06008KT 15SM OVC090 M06/M11 A2994 RMK AC8 SLP152

CYHM;2008-03-13 09:00;CYHM 130900Z 08006KT 15SM OVC078 M06/M09 A2993 RMK AC8 SLP148

CYHM;2008-03-13 10:00;CYHM 131000Z 08009KT 15SM FEW078 FEW120 SCT240 M06/M10 A2991 RMK AC2AC1CI1 SLP141

CYHM;2008-03-13 11:00;CYHM 131100Z 08012KT 15SM BKN085 BKN120 M05/M10 A2987 RMK AC5AC2 SLP126

CYHM;2008-03-13 12:00;CYHM 131200Z 08010KT 15SM BKN077 BKN110 M05/M10 A2984 RMK AC6AC2 SLP116

CYHM;2008-03-13 13:00;CYHM 131300Z 07012KT 15SM BKN053 OVC075 M04/M09 A2979 RMK SC6AC2 SLP102

CYHM;2008-03-13 13:11;CYHM 131311Z 07012KT 15SM -SG BKN050 OVC070 RMK SC6AC2

CYHM;2008-03-13 14:00;CYHM 131400Z 06014KT 15SM -SN BKN059 OVC074 M03/M08 A2978 RMK SC6AC2 SLP098

CYHM;2008-03-13 14:10;CYHM 131410Z 05014KT 15SM BKN060 OVC080 RMK SC6AC2

CYHM;2008-03-13 14:34;CYHM 131434Z 06016KT 10SM -SHSN OVC061 RMK SC8

CYHM;2008-03-13 15:00;CYHM 131500Z 05018KT 10SM BKN061 OVC085 M02/M06 A2972 RMK SC7AC1 SLP077

CYHM;2008-03-13 16:00;CYHM 131600Z 05020KT 15SM BKN054 BKN110 M02/M06 A2966 RMK SC6AC2 SLP055

CYHM;2008-03-13 17:00;CYHM 131700Z 05012KT 10SM BKN037 OVC058 M01/M05 A2965 RMK SC6SC2 SLP053

CYHM;2008-03-13 18:00;CYHM 131800Z 05012KT 10SM OVC033 M01/M05 A2962 RMK SC8 SLP041

CYHM;2008-03-13 19:00;CYHM 131900Z 04008KT 12SM OVC028 M00/M04 A2962 RMK SC8 SLP041

CYHM;2008-03-13 20:00;CYHM 132000Z 31002KT 12SM OVC026 00/M04 A2964 RMK SC8 SLP049

CYHM;2008-03-13 21:00;CYHM 132100Z 22004KT 15SM OVC024 01/M04 A2967 RMK SC8 SLP057

CYHM;2008-03-13 22:00;CYHM 132200Z 23004KT 12SM FEW022 OVC027 02/M02 A2968 RMK SC2SC6 SLP062

CYHM;2008-03-13 23:00;CYHM 132300Z 24016KT 9SM BKN035 BKN075 04/00 A2970 RMK SC6AC1 SLP069

CYHM;2008-03-14 00:00;CYHM 140000Z 23011KT 7SM BKN039 03/00 A2974 RMK SC7 SLP080

CYHM;2008-03-14 01:00;CYHM 140100Z 24009KT 8SM FEW041 03/00 A2976 RMK SC1 SLP087

CYHM;2008-03-14 02:00;CYHM 140200Z 24008KT 7SM SKC 02/M00 A2977 RMK SLP092

CYHM;2008-03-14 03:00;CYHM 140300Z 25005KT 5SM BR FEW200 01/M01 A2978 RMK CI1 SLP096

CYHM;2008-03-14 04:00;CYHM 140400Z 22006KT 4SM BR FEW200 M01/M02 A2979 RMK CI1 SLP099

CYHM;2008-03-14 05:00;CYHM 140500Z 22003KT 1 1/2SM BR FEW210 M01/M01 A2979 RMK FG2CI1 VIS VRB 1 - 2 SLP097

CYHM;2008-03-14 06:00;CYHM 140600Z 22003KT 1SM BR BKN160 M01/M01 A2978 RMK FG2AC2 VIS VRB 3/4 - 11/4 SLP093

CYHM;2008-03-14 07:00;CYHM 140700Z 19002KT 1 1/2SM BR SCT170 M01/M01 A2977 RMK FG2AC2 VIS VRB 1 - 2 SLP090

CYHM;2008-03-14 07:32;CYHM 140732Z 15003KT 4SM BR SCT160 RMK AC3

CYHM;2008-03-14 08:00;CYHM 140800Z 16003KT 3SM BR BKN150 M02/M02 A2975 RMK AC6 VIS VRB 2 - 4 SLP083

CYHM;2008-03-14 08:38;CYHM 140838Z 15006KT 2SM BR BKN150 RMK FG1AC3

CYHM;2008-03-14 08:52;CYHM 140852Z 16002KT 3/4SM BR BKN160 RMK FG3AC2 VIS VRB 1/2 - 1

CYHM;2008-03-14 09:00;CYHM 140900Z 19003KT 1/2SM FZFG BKN160 M01/M01 A2975 RMK FG4AC2 SLP085

CYHM;2008-03-14 09:05;CYHM 140905Z 18002KT 1/8SM FZFG VV001 RMK FG8

CYHM;2008-03-14 10:00;CYHM 141000Z 00000KT 0SM FZFG VV001 M03/M03 A2975 RMK FG8 SLP084

CYHM;2008-03-14 11:00;CYHM 141100Z 17002KT 1/2SM FZFG VV001 M02/M02 A2975 RMK FG8 SLP083

CYHM;2008-03-14 11:13;CYHM 141113Z 14003KT 3/4SM BR SCT005 BKN077 OVC180 RMK FG2SF2AC3AC1

CYHM;2008-03-14 12:00;CYHM 141200Z CCA 13004KT 1SM BR SCT010 BKN054 OVC080 M02/M02 A2975 RMK FG2SF2SC3AC1 SLP083

CYHM;2008-03-14 12:22;CYHM 141222Z 17003KT 2SM BR OVC056 RMK FG1SC7

CYHM;2008-03-14 13:00;CYHM 141300Z 15007KT 2 1/2SM BR BKN055 BKN085 00/00 A2974 RMK SC6AC1 SLP081

CYHM;2008-03-14 14:00;CYHM 141400Z 19004KT 15SM BKN050 BKN076 02/01 A2975 RMK SC5AC2 SLP084

CYHM;2008-03-14 15:00;CYHM 141500Z 18006KT 6SM BR BKN040 OVC056 03/01 A2975 RMK SC6SC2 SLP081

CYHM;2008-03-14 16:00;CYHM 141600Z 22005KT 6SM BR OVC040 03/01 A2974 RMK SC8 SLP079

CYHM;2008-03-14 17:00;CYHM 141700Z 24005KT 10SM OVC040 04/01 A2973 RMK SC8 SLP075

CYHM;2008-03-14 18:00;CYHM 141800Z 22008KT 15SM OVC039 05/02 A2971 RMK SC8 SLP068

CYHM;2008-03-14 19:00;CYHM 141900Z 21010KT 15SM BKN038 05/02 A2968 RMK SC7 SLP058

CYHM;2008-03-14 20:00;CYHM 142000Z 21006KT 15SM BKN038 06/02 A2966 RMK SC7 SLP051

CYHM;2008-03-14 21:00;CYHM 142100Z 20006KT 15SM FEW038 OVC230 06/02 A2965 RMK SC2CS6 SUN DIMMLY VSBL SLP046

CYHM;2008-03-14 22:00;CYHM 142200Z 18008KT 15SM BKN040 OVC230 06/03 A2965 RMK SC6CS2 SLP049

CYHM;2008-03-14 23:00;CYHM 142300Z 18009KT 15SM SCT040 OVC230 05/02 A2966 RMK SC4CS4 SLP050

CYHM;2008-03-15 00:00;CYHM 150000Z 17007KT 15SM FEW040 OVC210 04/02 A2966 RMK SC2CS4 SLP052

CYHM;2008-03-15 01:00;CYHM 150100Z 23005KT 15SM BKN039 03/02 A2967 RMK SC7 SLP056

CYHM;2008-03-15 02:00;CYHM 150200Z 21005KT 15SM FEW042 SCT240 03/02 A2968 RMK SC2CS1 SLP058

CYHM;2008-03-15 03:00;CYHM 150300Z 00000KT 15SM BKN032 BKN250 03/02 A2968 RMK SC5CI1 SLP059

CYHM;2008-03-15 04:00;CYHM 150400Z 22003KT 15SM FEW200 SCT250 02/01 A2968 RMK CI1CI1 SLP059

CYHM;2008-03-15 04:50;CYHM 150450Z 22006KT 1SM BR FEW250 RMK FG2CI1 VIS VRB 3/4 - 11/4

CYHM;2008-03-15 05:00;CYHM 150500Z 23006KT 1SM BR BKN003 01/00 A2968 RMK FG2SF5 VIS VRB 3/4 - 11/4 SLP057

CYHM;2008-03-15 05:16;CYHM 150516Z 25011KT 1/8SM FG VV001 RMK FG8

CYHM;2008-03-15 06:00;CYHM 150600Z 25011KT 3/8SM FG VV001 02/02 A2968 RMK FG8 SLP056

CYHM;2008-03-15 06:10;CYHM 150610Z 25011KT 1/4SM FG VV002 RMK FG8

CYHM;2008-03-15 07:00;CYHM 150700Z 25011KT 1/4SM FG VV002 02/01 A2968 RMK FG8 SLP059

CYHM;2008-03-15 08:00;CYHM 150800Z 25008KT 1/4SM FG VV002 02/02 A2969 RMK FG8 SLP060

CYHM;2008-03-15 08:47;CYHM 150847Z 25010KT 1/2SM FG VV002 RMK FG8

CYHM;2008-03-15 09:00;CYHM 150900Z 25008KT 1/2SM FG VV002 02/01 A2969 RMK FG8 SLP060

CYHM;2008-03-15 09:47;CYHM 150947Z 26005KT 1/4SM FG VV002 RMK FG8

CYHM;2008-03-15 10:00;CYHM 151000Z 26005KT 1/4SM FG VV002 01/01 A2970 RMK FG8 SLP064

CYHM;2008-03-15 10:41;CYHM 151041Z 27007KT 1SM BR OVC002 RMK FG5SF3

CYHM;2008-03-15 11:00;CYHM 151100Z 30006KT 1SM BR OVC002 01/01 A2971 RMK FG5SF3 SLP069

CYHM;2008-03-15 11:29;CYHM 151129Z 32007KT 2SM BR OVC005 RMK FG2SF6

CYHM;2008-03-15 12:00;CYHM 151200Z 29006KT 2 1/2SM BR BKN007 01/01 A2973 RMK FG1CF6 SLP076

CYHM;2008-03-15 12:45;CYHM 151245Z 26006KT 2 1/2SM BR FEW007 RMK FG1CF1

CYHM;2008-03-15 13:00;CYHM 151300Z 27006KT 2 1/2SM BR SCT007 01/01 A2976 RMK FG1CF3 SLP084

CYHM;2008-03-15 13:44;CYHM 151344Z 33009KT 7SM FEW008 RMK CF1 CF TR

CYHM;2008-03-15 14:00;CYHM 151400Z 25009KT 230V330 8SM SKC 01/00 A2977 RMK SLP088

CYHM;2008-03-15 15:00;CYHM 151500Z 27008KT 15SM FEW250 02/M02 A2979 RMK CI1 SLP097

CYHM;2008-03-15 16:00;CYHM 151600Z 28011KT 15SM FEW250 02/M02 A2982 RMK CI1 SLP106

CYHM;2008-03-15 17:00;CYHM 151700Z 29011KT 15SM FEW250 03/M02 A2982 RMK CI0 SLP107

CYHM;2008-03-15 18:00;CYHM 151800Z 28008KT 250V340 15SM FEW030 BKN250 04/M02 A2981 RMK CU1CI1 CU TR SLP104

CYHM;2008-03-15 19:00;CYHM 151900Z 32010KT 280V350 15SM FEW030 BKN250 04/M03 A2978 RMK CU2CI2 SLP094

CYHM;2008-03-15 20:00;CYHM 152000Z 32009KT 15SM SCT038 BKN210 04/M03 A2978 RMK SC4CI1 CU ASOCTD SLP093

CYHM;2008-03-15 21:00;CYHM 152100Z 33010KT 15SM SCT038 BKN210 04/M04 A2979 RMK SC3CI2 SLP097

CYHM;2008-03-15 22:00;CYHM 152200Z 30011KT 270V330 15SM FEW030 FEW040 BKN200 03/M04 A2982 RMK CU1SC2CI3 CU TR SLP107

CYHM;2008-03-15 23:00;CYHM 152300Z 31008KT 15SM FEW030 FEW040 BKN200 02/M04 A2984 RMK CU1SC2CI3 CU TR SLP111

CYHM;2008-03-16 00:00;CYHM 160000Z 32008KT 15SM FEW030 SCT044 BKN210 01/M04 A2985 RMK CU1SC4CI2 CU TR SLP118

CYHM;2008-03-16 01:00;CYHM 160100Z 32011KT 15SM BKN045 BKN200 01/M04 A2988 RMK SC6CI1 SLP125

CYHM;2008-03-16 02:00;CYHM 160200Z 32011KT 15SM FEW045 BKN200 M00/M05 A2989 RMK SC2CI2 SLP131

CYHM;2008-03-16 03:00;CYHM 160300Z 33010KT 15SM BKN200 M01/M05 A2991 RMK CS6 HALO SLP136

CYHM;2008-03-16 04:00;CYHM 160400Z 33007KT 15SM FEW160 BKN200 M01/M06 A2991 RMK AC1CS4 HALO SLP138

CYHM;2008-03-16 05:00;CYHM 160500Z 31005KT 15SM BKN200 M02/M05 A2992 RMK CI4 SLP141

CYHM;2008-03-16 06:00;CYHM 160600Z 29003KT 15SM SCT039 BKN130 M02/M05 A2994 RMK SC4AC2 SLP146

CYHM;2008-03-16 07:00;CYHM 160700Z 00000KT 15SM BKN037 BKN170 M02/M05 A2994 RMK SC6AC1 SLP149

CYHM;2008-03-16 08:00;CYHM 160800Z 00000KT 15SM SCT042 BKN140 M02/M05 A2995 RMK SC3AC2 SLP152

CYHM;2008-03-16 09:00;CYHM 160900Z 30007KT 15SM BKN038 M02/M04 A2997 RMK SC7 SLP160

CYHM;2008-03-16 10:00;CYHM 161000Z 34011KT 15SM FEW035 OVC045 M01/M04 A3000 RMK CF2SC6 SLP169

CYHM;2008-03-16 11:00;CYHM 161100Z 36009KT 15SM FEW038 BKN056 M01/M04 A3004 RMK CU2SC5 SLP180

CYHM;2008-03-16 12:00;CYHM 161200Z 35011KT 15SM BKN059 M01/M04 A3007 RMK SC7 SLP193

CYHM;2008-03-16 13:00;CYHM 161300Z 01011KT 15SM BKN060 M01/M05 A3011 RMK SC7 SLP206

CYHM;2008-03-16 14:00;CYHM 161400Z 36009KT 15SM BKN059 M00/M05 A3014 RMK SC6 SLP217

CYHM;2008-03-16 15:00;CYHM 161500Z 32013KT 270V010 15SM FEW034 FEW060 01/M06 A3017 RMK SC1SC1 SLP227

CYHM;2008-03-16 16:00;CYHM 161600Z 33017KT 15SM FEW036 00/M07 A3020 RMK SC2 SLP237

CYHM;2008-03-16 17:00;CYHM 161700Z 32016KT 15SM FEW039 00/M07 A3023 RMK SC1 SLP245

CYHM;2008-03-16 18:00;CYHM 161800Z 34013KT 15SM FEW039 01/M08 A3025 RMK SC1 SLP253

CYHM;2008-03-16 19:00;CYHM 161900Z 31015KT 15SM FEW039 00/M08 A3026 RMK SC2 SLP256

CYHM;2008-03-16 20:00;CYHM 162000Z 30014KT 15SM FEW040 00/M07 A3028 RMK SC1 SLP264

CYHM;2008-03-16 21:00;CYHM 162100Z 31015KT 15SM FEW040 M00/M07 A3031 RMK SC1 SLP275

CYHM;2008-03-16 22:00;CYHM 162200Z 30013KT 270V330 15SM FEW040 M01/M07 A3034 RMK SC1 SLP284

CYHM;2008-03-16 23:00;CYHM 162300Z 32012KT 15SM FEW040 M01/M08 A3036 RMK SC1 SC TR SLP291

CYHM;2008-03-17 00:00;CYHM 170000Z 33015KT 15SM FEW040 M02/M10 A3040 RMK SC1 SC TR SLP308

CYHM;2008-03-17 01:00;CYHM 170100Z 35010KT 15SM SKC M03/M09 A3043 RMK SLP317

CYHM;2008-03-17 02:00;CYHM 170200Z 34009KT 15SM SKC M04/M09 A3046 RMK SLP326

CYHM;2008-03-17 03:00;CYHM 170300Z 33006KT 15SM SKC M05/M10 A3049 RMK SLP337

CYHM;2008-03-17 04:00;CYHM 170400Z 31004KT 15SM FEW200 M06/M10 A3051 RMK CI1 SLP344

CYHM;2008-03-17 05:00;CYHM 170500Z 31003KT 15SM FEW200 M06/M11 A3052 RMK CI1 SLP347

CYHM;2008-03-17 06:00;CYHM 170600Z 35006KT 15SM SKC M06/M10 A3053 RMK SLP351

CYHM;2008-03-17 07:00;CYHM 170700Z 02009KT 15SM FEW200 M06/M11 A3054 RMK CI1 SLP356

CYHM;2008-03-17 08:00;CYHM 170800Z 02008KT 15SM SKC M06/M11 A3056 RMK SLP362

CYHM;2008-03-17 09:00;CYHM 170900Z 01007KT 15SM FEW200 M07/M11 A3058 RMK CI1 SLP369

CYHM;2008-03-17 10:00;CYHM 171000Z 03010KT 15SM SKC M07/M12 A3059 RMK SLP372

CYHM;2008-03-17 11:00;CYHM 171100Z 03010KT 15SM SKC M07/M12 A3060 RMK SLP374

CYHM;2008-03-17 12:00;CYHM 171200Z 03010KT 15SM FEW220 M07/M12 A3062 RMK CI1 CI TR SLP383

CYHM;2008-03-17 13:00;CYHM 171300Z 03008KT 15SM FEW160 SCT220 M05/M11 A3064 RMK AC1CI2 SLP389

CYHM;2008-03-17 14:00;CYHM 171400Z 06010KT 15SM SCT220 M04/M10 A3065 RMK CI2 CONTRAIL SLP395

CYHM;2008-03-17 15:00;CYHM 171500Z 05014KT 15SM SCT220 M03/M08 A3064 RMK CI2 CONTRAIL SLP388

CYHM;2008-03-17 16:00;CYHM 171600Z 08010KT 15SM FEW025 FEW160 BKN220 M02/M08 A3061 RMK CU1AC1CS2 HALO CU TR SLP380

CYHM;2008-03-17 17:00;CYHM 171700Z 08011KT 15SM SCT220 M02/M08 A3061 RMK CI2 SLP379

CYHM;2008-03-17 18:00;CYHM 171800Z 10008KT 15SM FEW025 BKN220 M02/M07 A3058 RMK CU1CI3 CU TR SLP368

CYHM;2008-03-17 19:00;CYHM 171900Z 10007KT 15SM FEW180 BKN250 M02/M08 A3056 RMK AC1CS2 HALO SLP364

CYHM;2008-03-17 20:00;CYHM 172000Z 08003KT 15SM OVC250 M01/M08 A3056 RMK CS3 HALO CONTRAILS SLP363

CYHM;2008-03-17 21:00;CYHM 172100Z 07008KT 15SM OVC250 M01/M07 A3054 RMK CS8 SUN DMLY VSBL SLP356

CYHM;2008-03-17 22:00;CYHM 172200Z 06013KT 15SM BKN160 OVC250 M02/M07 A3052 RMK AS6CS2 SLP348

CYHM;2008-03-17 23:00;CYHM 172300Z 06014KT 15SM BKN160 BKN190 OVC250 M02/M07 A3050 RMK AS6AS2CS1 SLP341

CYHM;2008-03-18 00:00;CYHM 180000Z 06017KT 15SM SCT150 OVC200 M02/M07 A3047 RMK AS3CS4 SLP333

CYHM;2008-03-18 01:00;CYHM 180100Z 06014KT 15SM OVC160 M02/M05 A3045 RMK AS7 SLP325

CYHM;2008-03-18 02:00;CYHM 180200Z 06014KT 15SM FEW120 BKN130 OVC180 M02/M05 A3043 RMK AS2AS4AS1 SLP319

CYHM;2008-03-18 03:00;CYHM 180300Z 06013KT 15SM SCT120 BKN190 OVC240 M02/M05 A3042 RMK AS4AS2CS1 SLP312

CYHM;2008-03-18 04:00;CYHM 180400Z 06013KT 15SM BKN130 OVC180 M02/M05 A3038 RMK AS6AS2 SLP301

CYHM;2008-03-18 05:00;CYHM 180500Z 05015KT 15SM FEW100 OVC130 M02/M05 A3035 RMK AS2AS6 SLP291

CYHM;2008-03-18 06:00;CYHM 180600Z 06013KT 15SM FEW100 OVC120 M02/M05 A3033 RMK AS2AS6 SLP281

CYHM;2008-03-18 07:00;CYHM 180700Z 04013KT 15SM FEW100 OVC120 M01/M04 A3031 RMK AC2AC6 SLP276

CYHM;2008-03-18 08:00;CYHM 180800Z 05013KT 12SM -SHSN OVC084 M01/M04 A3028 RMK AC8 SLP266

CYHM;2008-03-18 09:00;CYHM 180900Z 03010KT 12SM -SHSN OVC078 M01/M04 A3028 RMK AC8 SLP265

CYHM;2008-03-18 10:00;CYHM 181000Z 05010KT 10SM -SHSNPL OVC044 M01/M03 A3026 RMK SC8 SLP260

CYHM;2008-03-18 10:40;CYHM 181040Z 05011KT 15SM -SN FZRA SCT026 OVC042 RMK SC4SC4

CYHM;2008-03-18 11:00;CYHM 181100Z 05012KT 15SM -SN FZRA BKN026 OVC038 M01/M03 A3024 RMK SC6SC2 SLP253

CYHM;2008-03-18 11:44;CYHM 181144Z 06008KT 15SM FZRA BKN017 OVC038 RMK SC6SC2

CYHM;2008-03-18 12:00;CYHM 181200Z 06010KT 10SM FZRA OVC017 M01/M02 A3022 RMK SC8 SLP244

CYHM;2008-03-18 13:00;CYHM 181300Z 06008KT 10SM -RA SCT026 OVC059 M00/M02 A3018 RMK SC3SC5 SLP233

CYHM;2008-03-18 14:00;CYHM 181400Z 06006KT 10SM BKN047 OVC078 00/M01 A3014 RMK SC6AC2 SLP220

CYHM;2008-03-18 15:00;CYHM 181500Z 07006KT 10SM BKN034 OVC055 01/M01 A3011 RMK SC5SC3 SLP208

CYHM;2008-03-18 15:17;CYHM 181517Z 08006KT 7SM -RASN BKN030 OVC042 RMK SC6SC2

CYHM;2008-03-18 16:00;CYHM 181600Z 09007KT 5SM -RASN BR BKN027 OVC041 01/M00 A3008 RMK SC6SC2 SLP198

CYHM;2008-03-18 16:07;CYHM 181607Z 10008KT 5SM -RA BR BKN036 OVC048 RMK SC6SC2

CYHM;2008-03-18 16:39;CYHM 181639Z 10006KT 10SM OVC038 RMK SC8

CYHM;2008-03-18 17:00;CYHM 181700Z 04004KT 15SM OVC038 02/01 A3004 RMK SC8 SLP182

CYHM;2008-03-18 18:00;CYHM 181800Z 11006KT 10SM OVC023 02/01 A3000 RMK SC8 SLP170

CYHM;2008-03-18 19:00;CYHM 181900Z 13005KT 10SM OVC018 03/01 A2996 RMK SC8 SLP157

CYHM;2008-03-18 20:00;CYHM 182000Z 15006KT 8SM -DZ OVC010 03/01 A2993 RMK SC8 SLP147

CYHM;2008-03-18 20:38;CYHM 182038Z 10006KT 2 1/2SM -SHRA BR OVC005 RMK SC8

CYHM;2008-03-18 21:00;CYHM 182100Z 13003KT 1 1/2SM -SHRA BR OVC004 02/02 A2990 RMK SC8 SLP133

CYHM;2008-03-18 21:53;CYHM 182153Z 11003KT 1SM -RA BR OVC002 RMK FG1ST7

CYHM;2008-03-18 22:00;CYHM 182200Z 12004KT 1SM -RA BR OVC002 02/02 A2988 RMK FG1ST7 SLP128

CYHM;2008-03-18 23:00;CYHM 182300Z 18004KT 2SM -RA BR OVC005 03/02 A2989 RMK ST8 SLP130

CYHM;2008-03-19 00:00;CYHM 190000Z 14004KT 1 1/2SM -RA BR OVC003 02/02 A2987 RMK SC8 SLP123

CYHM;2008-03-19 01:00;CYHM 190100Z 12003KT 3/4SM -RA BR OVC006 02/02 A2984 RMK FG4SF4 SLP113

CYHM;2008-03-19 02:00;CYHM 190200Z 11003KT 3/4SM -RA BR OVC006 02/02 A2983 RMK FG4SF4 SLP110

CYHM;2008-03-19 03:00;CYHM 190300Z 15004KT 1SM -RA BR OVC003 03/03 A2981 RMK FG4SC4 SLP103

CYHM;2008-03-19 04:00;CYHM 190400Z 18005KT 1 3/4SM -RA BR OVC003 03/03 A2978 RMK SF8 SLP094

CYHM;2008-03-19 05:00;CYHM 190500Z 19004KT 1 3/4SM -RA BR OVC002 03/03 A2976 RMK SC8 SLP086

CYHM;2008-03-19 06:00;CYHM 190600Z 19008KT 2SM -RA BR OVC002 03/03 A2972 RMK SF8 SLP073

CYHM;2008-03-19 07:00;CYHM 190700Z 20005KT 1SM -RA BR OVC002 03/03 A2971 RMK FG2SF6 SLP068

CYHM;2008-03-19 08:00;CYHM 190800Z CCA 18003KT 3/8SM -RA FG OVC003 04/03 A2967 RMK FG4SF4 SLP056

CYHM;2008-03-19 08:54;CYHM 190854Z 01005KT 3/4SM -RA BR OVC004 RMK FG4SF4

CYHM;2008-03-19 09:00;CYHM 190900Z 01005KT 3/4SM -RA BR OVC004 03/03 A2965 RMK FG4SF4 SLP050

CYHM;2008-03-19 09:29;CYHM 190929Z 04006KT 1SM -RA BR OVC006 RMK FG2SC6

CYHM;2008-03-19 10:00;CYHM 191000Z 04006KT 1 1/4SM -RA BR OVC005 02/02 A2964 RMK FG2SC6 SLP046

CYHM;2008-03-19 10:10;CYHM 191010Z 04007KT 3/4SM -RA BR OVC005 RMK FG4SF4

CYHM;2008-03-19 11:00;CYHM 191100Z 07009KT 3/4SM -RA BR OVC014 02/02 A2962 RMK FG5SC3 SLP038

CYHM;2008-03-19 11:34;CYHM 191134Z 08009KT 3/4SM -RA BR BKN017 OVC036 RMK FG4SC2SC2

CYHM;2008-03-19 11:53;CYHM 191153Z 03008KT 1/2SM -RA FG OVC006 RMK FG6SF2

CYHM;2008-03-19 12:00;CYHM 191200Z 02008KT 1/2SM -RA FG OVC005 02/02 A2962 RMK FG6SF2 SLP037

CYHM;2008-03-19 12:17;CYHM 191217Z 01007KT 3/8SM -RA FG OVC005 RMK FG7SF1

CYHM;2008-03-19 13:00;CYHM 191300Z 01007KT 3/8SM -RA FG OVC006 02/02 A2963 RMK FG6SF2 SLP043

CYHM;2008-03-19 13:11;CYHM 191311Z 36007KT 3/4SM -RA BR OVC005 RMK FG3SF5

CYHM;2008-03-19 13:21;CYHM 191321Z 36006KT 1 1/4SM -RA BR OVC005 RMK FG2SF6

CYHM;2008-03-19 13:33;CYHM 191333Z 02007KT 3/8SM -RA FG VV002 RMK FG8

CYHM;2008-03-19 14:00;CYHM 191400Z 36005KT 1/4SM -RA FG VV002 02/02 A2962 RMK FG8 SLP039

CYHM;2008-03-19 14:41;CYHM 191441Z 35007KT 1/2SM -RA FG OVC002 RMK FG6SF2

CYHM;2008-03-19 15:00;CYHM 191500Z 35007KT 1 1/2SM -RA BR SCT002 OVC011 03/03 A2962 RMK FG2SF2SC4 SLP038

CYHM;2008-03-19 15:07;CYHM 191507Z 36008KT 3SM -RA BR FEW003 OVC011 RMK SF2SC6

CYHM;2008-03-19 16:00;CYHM 191600Z 36008KT 7SM -RA BKN008 OVC015 03/03 A2960 RMK CF6SC2 PCPN VRY LGT SLP032

CYHM;2008-03-19 17:00;CYHM 191700Z 33011KT 7SM -RA BKN007 OVC015 03/03 A2961 RMK CF6SC2 SLP033

CYHM;2008-03-19 17:44;CYHM 191744Z 33011KT 8SM BKN009 OVC016 RMK SC6SC2

CYHM;2008-03-19 19:00;CYHM 191900Z 33006KT 9SM FEW010 BKN026 OVC072 04/02 A2959 RMK SF2SC6AC1 SLP029

CYHM;2008-03-19 19:19;CYHM 191919Z 31008KT 10SM BKN013 OVC026 RMK SC6SC2

CYHM;2008-03-19 20:00;CYHM 192000Z 33008KT 9SM FEW010 OVC016 04/01 A2958 RMK SF1SC7 SLP025

CYHM;2008-03-19 20:37;CYHM 192037Z 36006KT 10SM -SHRA FEW016 OVC050 RMK SC2SC6

CYHM;2008-03-19 21:00;CYHM 192100Z 33009KT 10SM -SHRA FEW016 BKN050 OVC080 03/01 A2957 RMK SC1SC6AC2 SLP021

CYHM;2008-03-19 22:00;CYHM 192200Z 33011KT 12SM -SHRA OVC019 03/00 A2956 RMK SC8 SLP019

CYHM;2008-03-19 22:46;CYHM 192246Z 31006KT 15SM FEW018 OVC064 RMK SC2SC6

CYHM;2008-03-19 23:00;CYHM 192300Z 32006KT 15SM FEW018 OVC052 03/00 A2959 RMK SC2SC6 SLP029

CYHM;2008-03-19 23:44;CYHM 192344Z CCA 33008KT 6SM -RASN OVC038 RMK SC8

CYHM;2008-03-20 00:00;CYHM 200000Z 34008KT 6SM -SHRASN OVC035 02/M00 A2960 RMK SC8 SLP030

CYHM;2008-03-20 01:00;CYHM 200100Z 34010KT 5SM -SHSN FEW024 OVC034 01/M00 A2961 RMK SC2SC6 SLP034

CYHM;2008-03-20 02:00;CYHM 200200Z 34012KT 6SM -SHSN BKN024 OVC092 02/M01 A2962 RMK SC6AC2 SLP038

CYHM;2008-03-20 03:00;CYHM 200300Z 33011KT 15SM OVC030 02/M01 A2964 RMK SC8 SLP044

CYHM;2008-03-20 04:00;CYHM 200400Z 32009KT 15SM OVC025 02/M01 A2964 RMK SC8 SLP046

CYHM;2008-03-20 05:00;CYHM 200500Z 31009KT 15SM FEW025 BKN037 OVC110 02/M01 A2967 RMK CF2SC6AC1 SLP055

CYHM;2008-03-20 06:00;CYHM 200600Z 31011KT 15SM OVC051 01/M02 A2969 RMK SC8 SLP063

CYHM;2008-03-20 07:00;CYHM 200700Z 30012KT 15SM FEW018 BKN051 01/M03 A2972 RMK CF2SC6 SLP071

CYHM;2008-03-20 08:00;CYHM 200800Z 31014KT 15SM FEW018 FEW042 FEW170 M00/M03 A2974 RMK CF1SC1AC1 TR AC SLP078

CYHM;2008-03-20 09:00;CYHM 200900Z 30015G20KT 15SM -SHSN SCT018 SCT050 M01/M04 A2975 RMK SC3SC1 SLP084

CYHM;2008-03-20 10:00;CYHM 201000Z 31013G18KT 15SM BKN025 M01/M04 A2978 RMK SC6 SLP091

CYHM;2008-03-20 11:00;CYHM 201100Z 32012G22KT 15SM BKN031 M01/M06 A2980 RMK SC5 SLP098

CYHM;2008-03-20 12:00;CYHM 201200Z 30012KT 15SM BKN030 M00/M05 A2983 RMK SC6 SLP109

CYHM;2008-03-20 12:49;CYHM 201249Z 30014KT 15SM -SHSN BKN024 OVC033 RMK SC6SC2

CYHM;2008-03-20 13:00;CYHM 201300Z 29014KT 15SM -SHSN SCT025 BKN041 M01/M04 A2985 RMK SC3SC4 SLP116

CYHM;2008-03-20 13:51;CYHM 201351Z 30015KT 15SM FEW018 BKN024 BKN038 RMK CU2SC3SC2

CYHM;2008-03-20 14:00;CYHM 201400Z 29014KT 15SM FEW018 SCT022 BKN038 M01/M04 A2986 RMK CU1SC2SC4 SLP121

CYHM;2008-03-20 15:00;CYHM 201500Z 32015G25KT 15SM FEW025 BKN031 M00/M05 A2988 RMK CU2SC4 SLP127

CYHM;2008-03-20 15:41;CYHM 201541Z 30016G22KT 8SM -SHSN FEW021 BKN026 BKN038 RMK CU1SC4SC2

CYHM;2008-03-20 16:00;CYHM 201600Z 29015G22KT 8SM -SHSN FEW018 SCT025 BKN030 00/M04 A2989 RMK CU1SC3SC2 SLP132

CYHM;2008-03-20 16:25;CYHM 201625Z 29018G24KT 15SM FEW022 BKN027 RMK CU2SC6

CYHM;2008-03-20 16:30;CYHM 201630Z 28015G20KT 7SM -SHSN BKN021 BKN026 RMK SC6SC2

CYHM;2008-03-20 17:00;CYHM 201700Z 28018G24KT 10SM -SHSN FEW020 BKN026 BKN042 00/M04 A2991 RMK CU1SC4SC2 SLP138

CYHM;2008-03-20 17:26;CYHM 201726Z 30018KT 2SM -SHSN BKN017 OVC022 RMK SC6SC2

CYHM;2008-03-20 17:42;CYHM 201742Z 30016G22KT 7SM -SHSN FEW023 BKN034 BKN048 RMK CU2SC3SC2

CYHM;2008-03-20 17:49;CYHM 201749Z 28022G28KT 2SM -SHSN BKN009 OVC024 RMK SF6SC2

CYHM;2008-03-20 18:00;CYHM 201800Z 30020G28KT 5SM -SHSN FEW009 BKN021 OVC034 M01/M04 A2994 RMK SF2SC3SC2 SLP147

CYHM;2008-03-20 19:00;CYHM 201900Z 29026G34KT 15SM BKN029 BKN042 M00/M06 A2995 RMK SC6SC1 SLP153

CYHM;2008-03-20 20:00;CYHM 202000Z 31024G33KT 15SM -SHSN FEW028 BKN037 M01/M07 A2999 RMK SC2SC6 PCPN VRY LGT SLP164

CYHM;2008-03-20 21:00;CYHM 202100Z 30021G29KT 15SM -SHSN FEW025 BKN033 M01/M06 A3001 RMK SC1SC7 PCPN VRY LGT SLP172

CYHM;2008-03-20 22:00;CYHM 202200Z 29016KT 15SM -SHSN OVC025 M01/M06 A3004 RMK SC8 PCPN VRY LGT SLP181

CYHM;2008-03-20 23:00;CYHM 202300Z 29018G29KT 240V340 15SM OVC028 M01/M06 A3006 RMK SC8 SLP188

CYHM;2008-03-21 00:00;CYHM 210000Z 31016G23KT 260V340 15SM BKN027 M01/M06 A3007 RMK SC7 SLP194

CYHM;2008-03-21 01:00;CYHM 210100Z 30013G19KT 15SM BKN027 M02/M06 A3009 RMK SC7 SLP201

CYHM;2008-03-21 02:00;CYHM 210200Z 30015G23KT 15SM BKN027 M02/M07 A3011 RMK SC7 SLP207

CYHM;2008-03-21 03:00;CYHM 210300Z 31015G20KT 15SM BKN029 M02/M07 A3012 RMK SC7 SLP210

CYHM;2008-03-21 04:00;CYHM 210400Z 31015G20KT 15SM BKN030 M02/M07 A3014 RMK SC5 SLP217

CYHM;2008-03-21 05:00;CYHM 210500Z 30013G18KT 15SM BKN030 M02/M07 A3016 RMK SC6 SLP222

CYHM;2008-03-21 06:00;CYHM 210600Z 30013G19KT 15SM FEW027 M03/M08 A3018 RMK SC2 SLP231

CYHM;2008-03-21 07:00;CYHM 210700Z 31012KT 15SM FEW028 M03/M07 A3020 RMK SC1 SLP238

CYHM;2008-03-21 08:00;CYHM 210800Z 30006KT 15SM SKC M04/M08 A3021 RMK SLP240

CYHM;2008-03-21 09:00;CYHM 210900Z 29006KT 15SM FEW025 M04/M08 A3023 RMK SC1 SLP250

CYHM;2008-03-21 10:00;CYHM 211000Z 31009KT 15SM FEW025 FEW200 M05/M10 A3025 RMK SC1CI1 TR SC SLP254

CYHM;2008-03-21 11:00;CYHM 211100Z CCA 29008KT 15SM FEW035 FEW210 M05/M10 A3026 RMK SC1CI1 TR SC TR CI SLP260

CYHM;2008-03-21 12:00;CYHM 211200Z CCA 32012KT 15SM FEW035 M05/M10 A3027 RMK SC1 SC TR SLP264

CYHM;2008-03-21 13:00;CYHM 211300Z 32013KT 15SM FEW035 FEW220 M04/M09 A3027 RMK CU1CI1 CU TR SLP263

CYHM;2008-03-21 14:00;CYHM 211400Z 32010KT 15SM FEW035 SCT220 M04/M09 A3028 RMK CU1CI2 CU TR SLP265

CYHM;2008-03-21 15:00;CYHM 211500Z 31012KT 15SM FEW035 FEW240 M03/M12 A3029 RMK CU1CI1 CU TR SLP268

CYHM;2008-03-21 16:00;CYHM 211600Z 28013KT 15SM FEW240 M03/M11 A3028 RMK CI1 SLP266

CYHM;2008-03-21 17:00;CYHM 211700Z 27007KT 15SM BKN210 M02/M12 A3026 RMK CI6 SLP258

CYHM;2008-03-21 18:00;CYHM 211800Z CCA 25010KT 15SM BKN160 BKN220 M01/M13 A3025 RMK AC5CS2 HALO SLP255

CYHM;2008-03-21 19:00;CYHM 211900Z 26012KT 15SM BKN160 BKN230 M01/M12 A3023 RMK AC5CS2 SLP247

CYHM;2008-03-21 20:00;CYHM 212000Z 26011KT 15SM BKN150 M01/M12 A3020 RMK AC7 SLP240

CYHM;2008-03-21 21:00;CYHM 212100Z 26008KT 15SM BKN140 M01/M12 A3017 RMK AC7 SLP229

CYHM;2008-03-21 22:00;CYHM 212200Z 27007KT 15SM BKN140 M01/M13 A3015 RMK AC7 FU ALOFT E SLP223

CYHM;2008-03-21 23:00;CYHM 212300Z 29004KT 15SM OVC130 M01/M11 A3014 RMK AC8 SLP218

CYHM;2008-03-22 00:00;CYHM 220000Z 32005KT 15SM OVC130 M01/M12 A3013 RMK AC8 SLP216

CYHM;2008-03-22 01:00;CYHM 220100Z 31007KT 15SM OVC130 M02/M11 A3015 RMK AC8 SLP223

CYHM;2008-03-22 02:00;CYHM 220200Z 30005KT 15SM OVC120 M03/M10 A3016 RMK AC7 SLP225

CYHM;2008-03-22 03:00;CYHM 220300Z 36006KT 15SM OVC150 M03/M11 A3013 RMK AS7 SLP214

CYHM;2008-03-22 04:00;CYHM 220400Z 01007KT 15SM BKN120 OVC250 M03/M11 A3013 RMK AC6CS2 HALO SLP214

CYHM;2008-03-22 05:00;CYHM 220500Z 03012KT 15SM BKN140 BKN200 M03/M13 A3012 RMK AC5CS2 HALO SLP211

CYHM;2008-03-22 06:00;CYHM 220600Z 03008KT 15SM FEW120 BKN200 M04/M14 A3010 RMK AC2CI3 SLP206

CYHM;2008-03-22 07:00;CYHM 220700Z 03010KT 15SM FEW160 SCT200 M05/M14 A3009 RMK AC1CI2 SLP201

CYHM;2008-03-22 08:00;CYHM 220800Z 03009KT 15SM BKN140 M05/M13 A3007 RMK AC6 SLP193

CYHM;2008-03-22 09:00;CYHM 220900Z 03009KT 15SM BKN140 M05/M12 A3005 RMK AC6 SLP188

CYHM;2008-03-22 10:00;CYHM 221000Z 03009KT 15SM SCT130 M05/M13 A3005 RMK AC3 SLP187

CYHM;2008-03-22 11:00;CYHM 221100Z 04012KT 15SM SCT130 BKN220 M06/M15 A3006 RMK AC3CI1 SLP190

CYHM;2008-03-22 12:00;CYHM 221200Z 02014KT 15SM SCT130 BKN220 M07/M15 A3007 RMK AC3CI1 SLP195

CYHM;2008-03-22 13:00;CYHM 221300Z 03015KT 15SM FEW140 BKN250 M06/M18 A3007 RMK AC1CI1 SLP196

CYHM;2008-03-22 14:00;CYHM 221400Z 03012KT 15SM FEW150 BKN250 M06/M17 A3009 RMK AC2CI1 SLP202

CYHM;2008-03-22 15:00;CYHM 221500Z 02015KT 15SM FEW150 BKN240 M04/M15 A3010 RMK AC2CI1 SLP204

CYHM;2008-03-22 16:00;CYHM 221600Z 02016KT 15SM FEW150 BKN240 M03/M16 A3009 RMK AC2CI1 SLP202

CYHM;2008-03-22 17:00;CYHM 221700Z 02012KT 15SM FEW150 BKN240 M02/M16 A3010 RMK AC1CI2 SLP204

CYHM;2008-03-22 18:00;CYHM 221800Z 02010KT 15SM FEW160 BKN250 M01/M15 A3010 RMK AC2CI1 SLP204

CYHM;2008-03-22 19:00;CYHM 221900Z 34007KT 290V010 15SM FEW160 BKN230 01/M16 A3009 RMK AC1CI2 SLP201

CYHM;2008-03-22 20:00;CYHM 222000Z 32011KT 280V350 15SM FEW170 BKN220 01/M15 A3009 RMK AC2CI3 SLP202

CYHM;2008-03-22 21:00;CYHM 222100Z 30011KT 260V340 15SM FEW170 BKN230 01/M14 A3009 RMK AC1CI2 SLP202

CYHM;2008-03-22 22:00;CYHM 222200Z 30010KT 15SM FEW180 BKN250 M00/M12 A3010 RMK AC1CI2 SLP205

CYHM;2008-03-22 23:00;CYHM 222300Z 29010KT 15SM FEW170 SCT250 M01/M11 A3010 RMK AC1CI2 AC TR SLP206

CYHM;2008-03-23 00:00;CYHM 230000Z 31010KT 15SM FEW250 M02/M11 A3012 RMK CI1 SLP214

CYHM;2008-03-23 01:00;CYHM 230100Z 31011KT 15SM SKC M03/M11 A3014 RMK SLP221

CYHM;2008-03-23 02:00;CYHM 230200Z 31013KT 15SM FEW250 M04/M12 A3017 RMK CI0 SLP228

CYHM;2008-03-23 03:00;CYHM 230300Z 31011KT 15SM FEW250 M05/M12 A3017 RMK CI2 SLP231

CYHM;2008-03-23 04:00;CYHM 230400Z 31010KT 15SM FEW200 M05/M11 A3018 RMK CI1 SLP234

CYHM;2008-03-23 05:00;CYHM 230500Z 30008KT 15SM FEW200 M05/M11 A3019 RMK CI1 SLP236

CYHM;2008-03-23 06:00;CYHM 230600Z 26005KT 15SM SKC M06/M11 A3020 RMK SLP238

CYHM;2008-03-23 07:00;CYHM 230700Z 27005KT 15SM SKC M07/M11 A3019 RMK SLP236

CYHM;2008-03-23 08:00;CYHM 230800Z 31006KT 15SM FEW200 M07/M10 A3018 RMK CI1 SLP232

CYHM;2008-03-23 09:00;CYHM 230900Z 33005KT 15SM FEW200 M06/M10 A3018 RMK CI1 SLP231

CYHM;2008-03-23 10:00;CYHM 231000Z 33005KT 15SM FEW200 M07/M11 A3019 RMK CI1 FROIN SLP235

CYHM;2008-03-23 11:00;CYHM 231100Z 35007KT 15SM FEW220 M07/M12 A3020 RMK CI1 CONTRAILS SLP237

CYHM;2008-03-23 12:00;CYHM 231200Z 36005KT 15SM FEW240 M07/M12 A3021 RMK CI1 CONTRAILS SLP245

CYHM;2008-03-23 13:00;CYHM 231300Z 02007KT 15SM SCT240 M05/M13 A3023 RMK CI1 SLP249

CYHM;2008-03-23 14:00;CYHM 231400Z 06006KT 350V070 15SM SCT250 M04/M15 A3024 RMK CI2 CONTRAILS SLP255

CYHM;2008-03-23 16:00;CYHM 231600Z 16003KT 15SM FEW130 SCT250 M02/M13 A3025 RMK AC1CI1 SLP257

CYHM;2008-03-23 17:00;CYHM 231700Z 22007KT 15SM BKN250 M01/M12 A3025 RMK CI2 SLP256

CYHM;2008-03-23 18:00;CYHM 231800Z 27010KT 15SM BKN250 M01/M11 A3024 RMK CI2 SLP254

CYHM;2008-03-23 19:00;CYHM 231900Z 28008KT 240V320 15SM FEW030 FEW170 BKN250 M00/M10 A3022 RMK SC1AC1CI2 SC TR AC TR SLP247

CYHM;2008-03-23 20:00;CYHM 232000Z 23009KT 15SM FEW030 FEW150 BKN250 00/M10 A3022 RMK SC1AC1CI3 SC TR AC TR SLP245

CYHM;2008-03-23 21:00;CYHM 232100Z 24009KT 15SM FEW030 FEW140 BKN250 00/M10 A3021 RMK SC1AS2CI2 SC TR SLP242

CYHM;2008-03-23 22:00;CYHM 232200Z 25009KT 15SM FEW035 FEW120 BKN250 00/M10 A3021 RMK SC1AC1CI2 AC TR SLP242

CYHM;2008-03-23 23:00;CYHM 232300Z 26007KT 15SM FEW035 FEW120 BKN220 M00/M10 A3021 RMK SC1AC1CI2 SLP242

CYHM;2008-03-24 00:00;CYHM 240000Z 28002KT 15SM FEW035 SCT090 BKN210 M01/M10 A3021 RMK SC1AC2CI2 SLP242

CYHM;2008-03-24 01:00;CYHM 240100Z 21007KT 15SM FEW042 SCT085 BKN120 BKN220 M02/M06 A3022 RMK SC2AC2AC2CI1 SLP245

CYHM;2008-03-24 02:00;CYHM 240200Z 26002KT 15SM FEW040 SCT080 BKN098 M02/M06 A3022 RMK SC2AC2AC2 SLP245

CYHM;2008-03-24 03:00;CYHM 240300Z 00000KT 15SM FEW040 FEW060 FEW078 M02/M05 A3021 RMK SC1SC1AC1 TR SC SLP241

CYHM;2008-03-24 04:00;CYHM 240400Z 20002KT 15SM FEW050 SCT065 M03/M05 A3020 RMK SC1SC2 SLP237

CYHM;2008-03-24 05:00;CYHM 240500Z 21003KT 15SM FEW017 FEW060 SCT180 M04/M06 A3019 RMK CF1SC1AC1 SLP234

CYHM;2008-03-24 06:00;CYHM 240600Z 25005KT 15SM FEW033 BKN140 M03/M04 A3019 RMK SC2AC1 SLP234

CYHM;2008-03-24 07:00;CYHM 240700Z 24003KT 10SM BKN039 BKN100 M03/M04 A3019 RMK SC6AC2 SLP234

CYHM;2008-03-24 07:32;CYHM 240732Z 28004KT 7SM -SHSN OVC028 RMK SC8

CYHM;2008-03-24 08:00;CYHM 240800Z 29003KT 6SM -SHSN BKN011 OVC022 M03/M04 A3020 RMK SC6SC2 CIG RAG SLP237

CYHM;2008-03-24 08:27;CYHM 240827Z 01013KT 6SM -SHSN OVC006 RMK SF8

CYHM;2008-03-24 08:50;CYHM 240850Z 01011KT 12SM -SHSN OVC014 RMK SC8

CYHM;2008-03-24 09:00;CYHM 240900Z 02011KT 12SM -SHSN OVC016 M05/M07 A3022 RMK SC8 MAMMA SLP244

CYHM;2008-03-24 10:00;CYHM 241000Z 36005KT 15SM FEW010 OVC025 M05/M09 A3023 RMK CF1SC7 SLP249

CYHM;2008-03-24 11:00;CYHM 241100Z 35010KT 15SM FEW030 OVC036 M05/M09 A3025 RMK SC2SC6 SLP256

CYHM;2008-03-24 12:00;CYHM 241200Z 34008KT 15SM FEW030 SCT038 M06/M10 A3028 RMK CU1SC3 SLP265

CYHM;2008-03-24 13:00;CYHM 241300Z 34006KT 15SM FEW024 FEW036 FEW220 M06/M10 A3030 RMK CU2SC1CI1 CI TR SLP273

CYHM;2008-03-24 14:00;CYHM 241400Z 34009KT 15SM FEW024 FEW220 M05/M11 A3031 RMK CU1CI1 SLP277

CYHM;2008-03-24 15:00;CYHM 241500Z 33009KT 15SM FEW024 FEW220 M04/M11 A3032 RMK CU1CI1 CU TR CI TR SLP281

CYHM;2008-03-24 16:00;CYHM 241600Z 32006KT 15SM FEW025 M03/M12 A3033 RMK CU1 SLP285

CYHM;2008-03-24 17:00;CYHM 241700Z 35002KT 15SM FEW025 M03/M11 A3034 RMK CU1 CU TR SLP286

CYHM;2008-03-24 18:00;CYHM 241800Z 26008KT 15SM SKC M02/M12 A3033 RMK SLP284

CYHM;2008-03-24 19:00;CYHM 241900Z 30005KT 15SM FEW040 M02/M12 A3033 RMK CU1 CU TR SLP283

CYHM;2008-03-24 20:00;CYHM 242000Z 26007KT 15SM FEW040 M01/M11 A3032 RMK CU1 CU TR SLP279

CYHM;2008-03-24 21:00;CYHM 242100Z 23003KT 15SM FEW036 M01/M10 A3031 RMK CU1 CU TR SLP277

CYHM;2008-03-24 22:00;CYHM 242200Z 26004KT 15SM FEW036 M01/M12 A3031 RMK CU1 SLP275

CYHM;2008-03-24 23:00;CYHM 242300Z 25005KT 15SM FEW036 M02/M11 A3031 RMK CU1 CU TR SLP275

CYHM;2008-03-25 00:00;CYHM 250000Z 25004KT 15SM FEW025 M03/M11 A3031 RMK CU1 CU TR SLP276

CYHM;2008-03-25 01:00;CYHM 250100Z 22003KT 15SM SKC M04/M10 A3030 RMK SLP274

CYHM;2008-03-25 02:00;CYHM 250200Z 21006KT 15SM SKC M05/M08 A3030 RMK SLP272

CYHM;2008-03-25 03:00;CYHM 250300Z 21006KT 15SM SKC M05/M08 A3029 RMK SLP270

CYHM;2008-03-25 04:00;CYHM 250400Z 22006KT 15SM SKC M05/M08 A3029 RMK SLP269

CYHM;2008-03-25 05:00;CYHM 250500Z 21006KT 15SM SKC M06/M08 A3028 RMK SLP266

CYHM;2008-03-25 06:00;CYHM 250600Z 20005KT 15SM SKC M06/M08 A3026 RMK SLP262

CYHM;2008-03-25 07:00;CYHM 250700Z 21006KT 15SM SKC M06/M08 A3025 RMK SLP257

CYHM;2008-03-25 08:00;CYHM 250800Z 20006KT 15SM SKC M06/M08 A3023 RMK SLP250

CYHM;2008-03-25 09:00;CYHM 250900Z 21005KT 15SM SKC M07/M09 A3023 RMK SLP248

CYHM;2008-03-25 10:00;CYHM 251000Z 20006KT 15SM FEW250 M06/M08 A3020 RMK CI1 SLP239

CYHM;2008-03-25 11:00;CYHM 251100Z 20008KT 15SM BKN160 BKN220 M06/M08 A3019 RMK AC5CI2 SLP235

CYHM;2008-03-25 12:00;CYHM 251200Z 20008KT 15SM BKN120 OVC220 M04/M06 A3019 RMK AC6CI2 SLP236

CYHM;2008-03-25 13:00;CYHM 251300Z 19016KT 15SM FEW095 OVC110 M03/M05 A3014 RMK AC2AS6 SLP219

CYHM;2008-03-25 14:00;CYHM 251400Z 17020KT 15SM BKN070 OVC110 M01/M05 A3008 RMK AC6AS2 SLP201

CYHM;2008-03-25 15:00;CYHM 251500Z 21020G25KT 15SM BKN071 OVC100 M00/M05 A3004 RMK AC6AS2 SLP184

CYHM;2008-03-25 16:00;CYHM 251600Z 20028G34KT 15SM BKN055 OVC085 01/M04 A2998 RMK SC5AC3 SLP166

CYHM;2008-03-25 17:00;CYHM 251700Z 19028G34KT 10SM BKN062 OVC070 02/M05 A2991 RMK SC6AC2 SLP143

CYHM;2008-03-25 18:00;CYHM 251800Z 20025G30KT 15SM BKN034 OVC042 02/M04 A2990 RMK SC5SC3 SLP136

CYHM;2008-03-25 18:30;CYHM 251830Z 20018G26KT 6SM -SHSN BKN028 OVC052 RMK SC6SC2

CYHM;2008-03-25 19:00;CYHM 251900Z 20020G34KT 2 1/2SM -SHSN SCT024 OVC030 03/M03 A2986 RMK SC3SC5 VSBY VRBL 13/4-4SM SLP124

CYHM;2008-03-25 20:00;CYHM 252000Z 21018G28KT 5/8SM -SN BKN014 OVC020 01/M00 A2983 RMK SN2SC5SC1 VSBY VRBL 1/4-1SM SLP112

CYHM;2008-03-25 20:50;CYHM 252050Z 21022G32KT 1SM -SN BKN007 OVC014 RMK SN2SF4SC2 VSBY VRBL 3/4-11/4SM

CYHM;2008-03-25 21:00;CYHM 252100Z 21018G28KT 1SM -SN BKN007 OVC014 01/00 A2978 RMK SN2SF4SC2 VSBY VRBL 3/4-11/4SM SLP098

CYHM;2008-03-25 22:00;CYHM 252200Z 21020G30KT 1/2SM SN BKN004 OVC012 00/00 A2978 RMK SN3SC3SC2 VSBY VRBL 3/8-5/8SM SLP096

CYHM;2008-03-25 23:00;CYHM 252300Z 20015G24KT 1/2SM SN OVC004 00/00 A2979 RMK SN3SC5 VSBY VRBL 3/8-5/8SM SLP099

CYHM;2008-03-25 23:43;CYHM 252343Z 20014G20KT 1 1/4SM -SN BKN009 OVC015 RMK SN2SC6SC1 VSBY VRBL 3/4-13/4SM

CYHM;2008-03-25 23:53;CYHM 252353Z 21018G24KT 3SM -SN OVC009 RMK SC8

CYHM;2008-03-26 00:00;CYHM 260000Z 21016G22KT 4SM -SN BKN008 OVC015 01/01 A2978 RMK SC6SC2 SLP095

CYHM;2008-03-26 01:00;CYHM 260100Z 21020KT 10SM FEW012 BKN040 OVC090 02/02 A2978 RMK SF2SC3AC3 SLP096

CYHM;2008-03-26 02:00;CYHM 260200Z 21014G20KT 12SM FEW044 BKN080 02/02 A2979 RMK SC2AC6 SLP098

CYHM;2008-03-26 03:00;CYHM 260300Z 22014KT 12SM BKN044 OVC080 03/02 A2980 RMK SC5AC3 SLP099

CYHM;2008-03-26 04:00;CYHM 260400Z 23009KT 15SM FEW044 FEW076 02/01 A2979 RMK SC2AC1 SLP096

CYHM;2008-03-26 05:00;CYHM 260500Z 23012KT 15SM FEW072 03/00 A2978 RMK AC2 SLP095

CYHM;2008-03-26 06:00;CYHM 260600Z 23012KT 15SM FEW044 04/00 A2979 RMK SC2 SLP095

CYHM;2008-03-26 07:00;CYHM 260700Z 24014G20KT 15SM BKN035 04/00 A2981 RMK SC7 SLP102

CYHM;2008-03-26 08:00;CYHM 260800Z 25016G22KT 15SM SCT018 BKN028 BKN040 03/00 A2984 RMK SC3SC2SC2 SLP111

CYHM;2008-03-26 09:00;CYHM 260900Z 27009KT 15SM SCT015 BKN030 03/00 A2987 RMK SC3SC3 SF ASOCTD SLP124

CYHM;2008-03-26 10:00;CYHM 261000Z 28009KT 15SM FEW015 BKN022 01/M02 A2991 RMK SF2SC6 SLP137

CYHM;2008-03-26 11:00;CYHM 261100Z 28012KT 15SM BKN026 01/M03 A2996 RMK SC6 SLP153

CYHM;2008-03-26 12:00;CYHM 261200Z 28014KT 15SM FEW026 SCT220 M00/M04 A3001 RMK SC1CI1 CU TR ASOCTD SLP170

CYHM;2008-03-26 13:00;CYHM 261300Z 28014KT 15SM FEW025 BKN220 M00/M04 A3002 RMK CU1CI2 SLP174

CYHM;2008-03-26 14:00;CYHM 261400Z 29006KT 15SM FEW025 SCT220 00/M05 A3004 RMK CU1CI2 CU TR SLP183

CYHM;2008-03-26 15:00;CYHM 261500Z 28013KT 15SM FEW035 FEW220 01/M05 A3007 RMK CU1CI1 SLP190

CYHM;2008-03-26 16:00;CYHM 261600Z 27010KT 15SM FEW035 02/M04 A3007 RMK CU1 CU TR SLP192

CYHM;2008-03-26 17:00;CYHM 261700Z 26013KT 15SM FEW025 03/M04 A3008 RMK CU1 CU TR SLP196

CYHM;2008-03-26 18:00;CYHM 261800Z 27013KT 15SM FEW035 03/M04 A3008 RMK CU1 CU TR SLP193

CYHM;2008-03-26 19:00;CYHM 261900Z 23009KT 15SM FEW035 04/M04 A3006 RMK CU1 CU TR SLP188

CYHM;2008-03-26 20:00;CYHM 262000Z 24012KT 15SM FEW035 04/M04 A3006 RMK CU1 SLP187

CYHM;2008-03-26 21:00;CYHM 262100Z 24013KT 15SM FEW030 FEW045 04/M05 A3004 RMK CU1SC1 SLP182

CYHM;2008-03-26 22:00;CYHM 262200Z 25008KT 15SM FEW030 FEW250 04/M04 A3004 RMK SC1CI1 CU ASOCTD SLP179

CYHM;2008-03-26 23:00;CYHM 262300Z 19007KT 15SM FEW040 FEW240 03/M01 A3004 RMK SC1CI1 SLP181

CYHM;2008-03-27 00:00;CYHM 270000Z 17006KT 15SM BKN040 BKN240 03/M01 A3004 RMK SC5CI1 SLP182

CYHM;2008-03-27 01:00;CYHM 270100Z 18006KT 15SM SCT035 BKN230 02/M02 A3004 RMK SC3CI1 SLP183

CYHM;2008-03-27 02:00;CYHM 270200Z 19008KT 15SM FEW220 00/M02 A3004 RMK CI1 SLP181

CYHM;2008-03-27 03:00;CYHM 270300Z 20008KT 15SM FEW200 M01/M03 A3003 RMK CI1 SLP180

CYHM;2008-03-27 04:00;CYHM 270400Z 22005KT 15SM FEW200 M02/M03 A3003 RMK CI1 SLP180

CYHM;2008-03-27 05:00;CYHM 270500Z 22004KT 15SM SKC M02/M03 A3003 RMK SLP179

CYHM;2008-03-27 06:00;CYHM 270600Z 22004KT 15SM FEW200 M02/M03 A3002 RMK CI1 SLP174

CYHM;2008-03-27 07:00;CYHM 270700Z 20007KT 15SM FEW200 M02/M03 A3002 RMK CI1 SLP174

CYHM;2008-03-27 08:00;CYHM 270800Z 23003KT 15SM FEW220 M01/M03 A2998 RMK CI2 SLP163

CYHM;2008-03-27 09:00;CYHM 270900Z 22006KT 15SM OVC160 M02/M03 A3000 RMK AS7 FROIN SLP167

CYHM;2008-03-27 10:00;CYHM 271000Z 20005KT 15SM OVC130 M01/M03 A3001 RMK AS7 FROIN SLP172

CYHM;2008-03-27 11:00;CYHM 271100Z 29004KT 15SM OVC120 M00/M03 A3004 RMK AC8 SLP180

CYHM;2008-03-27 12:00;CYHM 271200Z 21003KT 15SM BKN075 OVC086 M01/M02 A3004 RMK AC6AC2 SLP183

CYHM;2008-03-27 13:00;CYHM 271300Z 19005KT 15SM SCT062 BKN078 BKN120 BKN220 00/M02 A3001 RMK SC3AC2AS1CI1 SLP173

CYHM;2008-03-27 14:00;CYHM 271400Z 32005KT 10SM FEW060 BKN084 OVC120 01/M02 A3005 RMK SC2AC4AS2 SLP184

CYHM;2008-03-27 15:00;CYHM 271500Z 00000KT 15SM FEW064 SCT075 BKN084 03/M03 A3002 RMK SC2AC2AC2 SLP174

CYHM;2008-03-27 16:00;CYHM 271600Z 29002KT 15SM BKN072 OVC092 04/M03 A3003 RMK AC6AS2 SLP179

CYHM;2008-03-27 17:00;CYHM 271700Z 00000KT 15SM OVC070 04/M02 A3001 RMK AC8 SLP171

CYHM;2008-03-27 18:00;CYHM 271800Z 25002KT 15SM FEW054 BKN075 OVC220 04/M01 A3001 RMK SC2AC4CI2 SLP170

CYHM;2008-03-27 19:00;CYHM 271900Z 07004KT 15SM SCT065 BKN140 OVC230 05/M02 A2997 RMK SC3AC4CI1 SLP158

CYHM;2008-03-27 20:00;CYHM 272000Z 06003KT 12SM BKN071 OVC230 05/M02 A2996 RMK AC6CI2 SLP155

CYHM;2008-03-27 20:44;CYHM 272044Z 00000KT 10SM -SHRA OVC063 RMK SC8

CYHM;2008-03-27 21:00;CYHM 272100Z 32006KT 10SM -SHRA BKN042 OVC063 04/M01 A2996 RMK SC5SC3 SLP155

CYHM;2008-03-27 22:00;CYHM 272200Z 33004KT 8SM -SHRA OVC028 03/M00 A2996 RMK SC8 SLP155

CYHM;2008-03-27 22:35;CYHM 272235Z 18006KT 3SM -SHRASN BKN009 OVC028 RMK SC5SC3

CYHM;2008-03-27 22:52;CYHM 272252Z 20005KT 2 1/2SM -SHSN OVC011 RMK SC8

CYHM;2008-03-27 23:00;CYHM 272300Z 20005KT 2 1/2SM -SHSN OVC011 01/00 A2996 RMK SC8 SLP154

CYHM;2008-03-27 23:13;CYHM 272313Z 19004KT 1 1/2SM -SHSN OVC009 RMK SN2SC6

CYHM;2008-03-28 00:00;CYHM 280000Z 16004KT 1 1/4SM -SHSN SCT002 OVC008 00/M00 A2995 RMK SN2CF2SC5 SLP151

CYHM;2008-03-28 01:00;CYHM 280100Z 00000KT 1 1/4SM -SHSN SCT002 OVC006 00/00 A2995 RMK SN2CF2SC5 SLP153

CYHM;2008-03-28 02:00;CYHM 280200Z 01005KT 1 1/4SM -SHSN FEW002 OVC006 00/00 A2995 RMK SN2CF1SC6 SLP153

CYHM;2008-03-28 02:08;CYHM 280208Z 36005KT 1SM -SHSN OVC003 RMK SN2ST6 VIS VRB 3/4 - 11/4

CYHM;2008-03-28 02:27;CYHM 280227Z 02005KT 3/4SM -SHSN OVC003 RMK SN3ST5 VIS VRB 1/2 - 1

CYHM;2008-03-28 03:00;CYHM 280300Z 02011KT 1 1/2SM -SHSN OVC004 M01/M01 A2994 RMK SN2ST6 VIS VRB 1 - 2 /S01/ SLP148

CYHM;2008-03-28 04:00;CYHM 280400Z 03012KT 1 1/2SM -SHSN OVC005 M01/M02 A2992 RMK SN2ST6 VIS VRB 1 - 2 SLP142

CYHM;2008-03-28 05:00;CYHM 280500Z 02012KT 2SM -SN OVC003 M01/M02 A2991 RMK SN1ST7 /S02/ SLP137

CYHM;2008-03-28 06:00;CYHM 280600Z 02012KT 1SM -SN OVC008 M02/M02 A2991 RMK SN2SC6 VIS VRB 3/4 - 11/4 SLP136

CYHM;2008-03-28 07:00;CYHM 280700Z 02013KT 4SM -SN OVC010 M02/M03 A2990 RMK SC8 SLP133

CYHM;2008-03-28 07:37;CYHM 280737Z 02014KT 2SM -SN BKN010 OVC025 RMK SN1SC6SC2

CYHM;2008-03-28 07:50;CYHM 280750Z 02012KT 4SM -SN BKN008 OVC035 RMK SC6SC2

CYHM;2008-03-28 08:00;CYHM 280800Z 02013KT 5SM -SN FEW008 SCT025 BKN050 OVC130 M03/M04 A2988 RMK CF1SC2SC3AC1 SLP127

CYHM;2008-03-28 09:00;CYHM 280900Z 02011KT 10SM -SN FEW028 OVC051 M02/M04 A2987 RMK CF2SC6 SLP123

CYHM;2008-03-28 10:00;CYHM 281000Z 02011KT 15SM OVC054 M02/M05 A2988 RMK SC8 SLP127

CYHM;2008-03-28 11:00;CYHM 281100Z 02010KT 15SM SCT042 OVC056 M02/M06 A2990 RMK SC3SC5 SLP134

CYHM;2008-03-28 11:25;CYHM 281125Z 02012KT 15SM -SN BKN042 OVC056 RMK SC6SC2

CYHM;2008-03-28 12:00;CYHM 281200Z 02012KT 15SM OVC056 M02/M06 A2991 RMK SC8 SLP140

CYHM;2008-03-28 12:21;CYHM 281221Z 01010KT 8SM -SHSN OVC056 RMK SC8

CYHM;2008-03-28 13:00;CYHM 281300Z 02008KT 7SM -SHSN OVC059 M01/M05 A2996 RMK SC8 SLP156

CYHM;2008-03-28 14:00;CYHM 281400Z 35008KT 2 1/2SM -SHSN BKN016 OVC032 M02/M05 A2999 RMK SC6SC2 SLP166

CYHM;2008-03-28 14:54;CYHM 281454Z 02010KT 10SM -SHSN FEW016 BKN045 OVC054 RMK SC1SC5SC2

CYHM;2008-03-28 15:00;CYHM 281500Z 02012KT 15SM -SHSN BKN035 BKN048 M01/M06 A3001 RMK SC5SC2 SLP172

CYHM;2008-03-28 15:17;CYHM 281517Z 03010KT 15SM BKN035 BKN042 RMK SC6SC2

CYHM;2008-03-28 15:27;CYHM 281527Z 02010KT 10SM -SHSN BKN029 OVC035 RMK SC6SC2

CYHM;2008-03-28 16:00;CYHM 281600Z 35008KT 10SM -SHSN FEW042 BKN060 BKN082 M00/M05 A3003 RMK SC2SC4AC1 SLP180

CYHM;2008-03-28 17:00;CYHM 281700Z 03008KT 15SM FEW032 BKN063 BKN080 01/M05 A3004 RMK CU2SC4AC1 SLP184

CYHM;2008-03-28 18:00;CYHM 281800Z 02006KT 15SM FEW033 BKN054 BKN085 01/M06 A3006 RMK CU2SC3AC1 SLP190

CYHM;2008-03-28 19:00;CYHM 281900Z 35008KT 15SM BKN046 BKN075 02/M06 A3007 RMK SC6AC1 SLP192

CYHM;2008-03-28 20:00;CYHM 282000Z 02003KT 15SM BKN050 02/M06 A3008 RMK SC7 SLP195

CYHM;2008-03-28 21:00;CYHM 282100Z 32015KT 15SM SCT052 02/M09 A3010 RMK SC4 SLP204

CYHM;2008-03-28 22:00;CYHM 282200Z 30013KT 15SM FEW058 02/M08 A3012 RMK SC2 SLP211

CYHM;2008-03-28 23:00;CYHM 282300Z 31016KT 15SM FEW060 01/M08 A3016 RMK SC1 SLP223

CYHM;2008-03-29 00:00;CYHM 290000Z 30009KT 15SM FEW060 M01/M08 A3019 RMK SC1 SLP234

CYHM;2008-03-29 01:00;CYHM 290100Z 31011KT 15SM FEW060 M02/M09 A3022 RMK SC1 SLP245

CYHM;2008-03-29 02:00;CYHM 290200Z 32011KT 15SM SKC M02/M09 A3026 RMK SLP256

CYHM;2008-03-29 03:00;CYHM 290300Z 33008KT 15SM FEW200 M03/M09 A3028 RMK CI1 SLP264

CYHM;2008-03-29 04:00;CYHM 290400Z 33006KT 15SM FEW200 M04/M09 A3030 RMK CI1 SLP272

CYHM;2008-03-29 05:00;CYHM 290500Z 32007KT 15SM SKC M04/M09 A3032 RMK SLP278

CYHM;2008-03-29 06:00;CYHM 290600Z 29007KT 15SM FEW200 M05/M09 A3034 RMK CI1 SLP287

CYHM;2008-03-29 07:00;CYHM 290700Z 30006KT 15SM SKC M05/M09 A3035 RMK SLP289

CYHM;2008-03-29 08:00;CYHM 290800Z 30005KT 15SM SKC M05/M09 A3036 RMK SLP291

CYHM;2008-03-29 09:00;CYHM 290900Z 32004KT 15SM SKC M06/M09 A3037 RMK SLP296

CYHM;2008-03-29 10:00;CYHM 291000Z 28005KT 15SM SKC M07/M10 A3039 RMK SLP303

CYHM;2008-03-29 11:00;CYHM 291100Z 31006KT 15SM FEW030 M06/M09 A3041 RMK SC1 SLP310

CYHM;2008-03-29 12:00;CYHM 291200Z 33003KT 15SM FEW030 M05/M09 A3045 RMK SC1 SLP324

CYHM;2008-03-29 13:00;CYHM 291300Z 03009KT 15SM FEW030 M03/M08 A3047 RMK SC1 SLP331

CYHM;2008-03-29 14:00;CYHM 291400Z 05008KT 15SM FEW030 M02/M08 A3051 RMK SC1 SLP343

CYHM;2008-03-29 15:00;CYHM 291500Z 08008KT 15SM SCT026 M01/M07 A3052 RMK CU3 SLP348

CYHM;2008-03-29 16:00;CYHM 291600Z 08008KT 350V130 15SM FEW028 M01/M08 A3053 RMK CU2 SLP350

CYHM;2008-03-29 17:00;CYHM 291700Z 06006KT 15SM FEW028 M01/M08 A3052 RMK CU1 SLP349

CYHM;2008-03-29 18:00;CYHM 291800Z 14006KT 090V220 15SM FEW032 M01/M08 A3052 RMK SC1 SLP348

CYHM;2008-03-29 19:00;CYHM 291900Z 06004KT 15SM FEW032 00/M08 A3052 RMK SC2 SLP347

CYHM;2008-03-29 20:00;CYHM 292000Z 28005KT 240V320 15SM FEW032 01/M08 A3052 RMK SC2 SLP346

CYHM;2008-03-29 21:00;CYHM 292100Z 01003KT 15SM FEW025 FEW032 02/M08 A3052 RMK CU1SC1 CU TR WND L/V SLP347

CYHM;2008-03-29 22:00;CYHM 292200Z 04003KT 15SM FEW032 02/M08 A3053 RMK SC1 WND L/V SLP350

CYHM;2008-03-29 23:00;CYHM 292300Z 10007KT 15SM FEW070 01/M07 A3053 RMK AC1 AC TR SLP352

CYHM;2008-03-30 00:00;CYHM 300000Z 07009KT 15SM FEW250 M01/M08 A3053 RMK CI1 SLP352

CYHM;2008-03-30 01:00;CYHM 300100Z 07006KT 15SM SKC M02/M08 A3055 RMK SLP357

CYHM;2008-03-30 02:00;CYHM 300200Z 07008KT 15SM SKC M03/M08 A3056 RMK SLP361

CYHM;2008-03-30 03:00;CYHM 300300Z 09006KT 15SM SKC M04/M08 A3056 RMK SLP362

CYHM;2008-03-30 04:00;CYHM 300400Z 09006KT 15SM SKC M04/M09 A3056 RMK SLP362

CYHM;2008-03-30 05:00;CYHM 300500Z 09006KT 15SM FEW200 M04/M09 A3055 RMK CI1 SLP359

CYHM;2008-03-30 06:00;CYHM 300600Z 09006KT 15SM FEW200 M05/M10 A3055 RMK CI2 SLP358

CYHM;2008-03-30 07:00;CYHM 300700Z 09008KT 15SM FEW230 M04/M10 A3054 RMK CI1 SLP355

CYHM;2008-03-30 08:00;CYHM 300800Z 08009KT 15SM SCT220 M04/M11 A3054 RMK CI2 SLP355

CYHM;2008-03-30 09:00;CYHM 300900Z 08008KT 15SM BKN200 M04/M11 A3055 RMK CI4 SLP358

CYHM;2008-03-30 10:00;CYHM 301000Z 07009KT 15SM BKN200 M04/M11 A3056 RMK CI4 SLP362

CYHM;2008-03-30 11:00;CYHM 301100Z 07014KT 15SM BKN200 M04/M11 A3055 RMK CI2 SLP358

CYHM;2008-03-30 12:00;CYHM 301200Z 07014KT 15SM SCT210 M04/M11 A3056 RMK CI2 SLP362

CYHM;2008-03-30 13:00;CYHM 301300Z 08014KT 15SM SCT230 M02/M11 A3056 RMK CI2 SLP361

CYHM;2008-03-30 14:00;CYHM 301400Z 08018KT 15SM BKN250 M00/M10 A3055 RMK CI2 SLP357

CYHM;2008-03-30 15:00;CYHM 301500Z 08018KT 15SM BKN250 01/M09 A3052 RMK CI4 SLP349

CYHM;2008-03-30 16:00;CYHM 301600Z 08016KT 15SM SCT140 BKN250 03/M08 A3052 RMK AC3CI2 SLP348

CYHM;2008-03-30 17:00;CYHM 301700Z 08013KT 15SM BKN130 BKN250 03/M08 A3050 RMK AC6CI2 SLP340

CYHM;2008-03-30 18:00;CYHM 301800Z 07016KT 15SM BKN120 BKN250 04/M05 A3046 RMK AC5CI2 SLP327

CYHM;2008-03-30 19:00;CYHM 301900Z 05019KT 15SM FEW070 BKN110 02/M06 A3043 RMK AC2AC5 SLP315

CYHM;2008-03-30 20:00;CYHM 302000Z 06019KT 15SM FEW070 BKN100 02/M04 A3041 RMK AC2AC5 SLP310

CYHM;2008-03-30 21:00;CYHM 302100Z 05019KT 15SM FEW075 BKN100 02/M03 A3038 RMK AC2AC5 SLP300

CYHM;2008-03-30 22:00;CYHM 302200Z 05018KT 15SM FEW065 OVC090 01/M02 A3037 RMK SC2AC5 VIRGA SLP297

CYHM;2008-03-30 23:00;CYHM 302300Z 05017KT 15SM -PL SCT060 OVC071 01/M02 A3035 RMK SC3AC5 PCPN VRY LGT SLP289

CYHM;2008-03-30 23:14;CYHM 302314Z 05017KT 15SM FEW060 OVC071 RMK SC2AC6

CYHM;2008-03-31 00:00;CYHM 310000Z 05015KT 15SM BKN045 OVC070 01/M01 A3032 RMK SC5AC3 SLP278

CYHM;2008-03-31 01:00;CYHM 310100Z 05011KT 15SM OVC045 02/M01 A3031 RMK SC8 SLP276

CYHM;2008-03-31 01:34;CYHM 310134Z 05010KT 15SM -SHRA OVC040 RMK SC8

CYHM;2008-03-31 02:00;CYHM 310200Z 05010KT 12SM -SHRA OVC041 02/M00 A3030 RMK SC8 SLP272

CYHM;2008-03-31 03:00;CYHM 310300Z 03005KT 15SM OVC043 02/00 A3029 RMK SC8 SLP267

CYHM;2008-03-31 04:00;CYHM 310400Z 13006KT 15SM OVC035 02/01 A3026 RMK SC8 SLP257

CYHM;2008-03-31 05:00;CYHM 310500Z 17008KT 15SM FEW030 OVC063 04/M02 A3024 RMK CF2SC6 SLP251

CYHM;2008-03-31 06:00;CYHM 310600Z 19014KT 12SM -SHRA OVC028 05/M02 A3023 RMK SC8 SLP244

CYHM;2008-03-31 07:00;CYHM 310700Z 19010KT 12SM -SHRA OVC028 04/M01 A3021 RMK SC8 SLP238

CYHM;2008-03-31 08:00;CYHM 310800Z 21009KT 12SM -SHRA OVC024 03/01 A3021 RMK SC8 SLP237

CYHM;2008-03-31 09:00;CYHM 310900Z 19008KT 6SM -SHRA OVC016 03/02 A3020 RMK SC8 SLP234

CYHM;2008-03-31 09:34;CYHM 310934Z 20005KT 6SM -SHRA BKN008 OVC019 RMK SC6SC2

CYHM;2008-03-31 10:00;CYHM 311000Z 18006KT 2SM -RA BR SCT005 OVC020 03/02 A3019 RMK FG1SF3SC4 SLP231

CYHM;2008-03-31 10:42;CYHM 311042Z 19004KT 1 1/2SM -RA BR BKN006 OVC010 RMK FG2SF4SC2

CYHM;2008-03-31 11:00;CYHM 311100Z 19003KT 1 1/2SM -RA BR BKN005 OVC010 03/03 A3020 RMK FG2SF4SC2 SLP234

CYHM;2008-03-31 12:00;CYHM 311200Z 19002KT 1 1/2SM -RA BR BKN004 OVC010 03/03 A3019 RMK FG2SF6SC1 SLP233

CYHM;2008-03-31 12:41;CYHM 311241Z 17005KT 2SM -DZ BR OVC004 RMK FG2SF6

CYHM;2008-03-31 13:00;CYHM 311300Z 17005KT 1SM -DZ BR OVC004 03/03 A3018 RMK FG3SF5 SLP228

CYHM;2008-03-31 14:00;CYHM 311400Z 20005KT 1 1/2SM -DZ BR OVC002 04/04 A3017 RMK FG2SF6 SLP225

CYHM;2008-03-31 15:00;CYHM 311500Z 20008KT 3SM BR BKN008 OVC016 05/04 A3016 RMK SF5SC3 SLP222

CYHM;2008-03-31 15:48;CYHM 311548Z 20011KT 6SM BR FEW008 OVC015 RMK SF2SC6

CYHM;2008-03-31 16:00;CYHM 311600Z 18011KT 10SM FEW008 OVC016 06/05 A3013 RMK SF2SC6 SLP210

CYHM;2008-03-31 17:00;CYHM 311700Z 21014KT 15SM OVC011 07/06 A3010 RMK SC8 SLP203

CYHM;2008-03-31 18:00;CYHM 311800Z 20014KT 10SM OVC012 08/06 A3009 RMK SC8 SLP196

CYHM;2008-03-31 19:00;CYHM 311900Z 20015KT 3SM -SHRA BR OVC012 08/07 A3006 RMK SC8 SLP186

CYHM;2008-03-31 19:50;CYHM 311950Z 21012KT 2 1/2SM -SHRA BR OVC009 RMK SC8

CYHM;2008-03-31 20:00;CYHM 312000Z 20012KT 2 1/2SM -SHRA BR OVC009 08/07 A3004 RMK SC8 SLP179

CYHM;2008-03-31 20:50;CYHM 312050Z 20008KT 2 1/2SM -SHRA BR OVC017 RMK SC8

CYHM;2008-03-31 21:00;CYHM 312100Z 19006KT 2 1/2SM -SHRA BR OVC018 08/07 A3001 RMK SC8 SLP168

CYHM;2008-03-31 22:00;CYHM 312200Z 16006KT 10SM OVC023 08/07 A2998 RMK SC8 SLP160

CYHM;2008-03-31 23:00;CYHM 312300Z 13005KT 10SM OVC024 08/07 A2996 RMK SC8 SLP152

CYHM;2008-04-01 01:00;CYHM 010100Z 16005KT 10SM OVC023 08/08 A2991 RMK SC8 SLP134

CYHM;2008-04-01 02:00;CYHM 010200Z 17005KT 12SM OVC026 09/08 A2988 RMK SC8 SLP126

CYHM;2008-04-01 03:00;CYHM 010300Z 20006KT 6SM -RA BR FEW024 BKN042 OVC084 09/08 A2986 RMK SC2SC5AC1 SLP118

CYHM;2008-04-01 04:00;CYHM 010400Z 18009KT 5SM -RA BR FEW026 BKN042 OVC065 09/09 A2981 RMK SC2SC3SC3 SLP102

CYHM;2008-04-01 05:00;CYHM 010500Z 19011KT 8SM -RA OVC033 10/09 A2977 RMK SC8 SLP087

CYHM;2008-04-01 06:00;CYHM 010600Z 20012KT 9SM -SHRA SCT036 OVC080 11/10 A2974 RMK SC4AC4 SLP074

CYHM;2008-04-01 07:00;CYHM 010700Z 20015G22KT 15SM FEW050 BKN080 OVC150 11/09 A2971 RMK SC2AC6AC1 SLP063

CYHM;2008-04-01 08:00;CYHM 010800Z 19014KT 15SM FEW044 SCT090 OVC170 11/09 A2965 RMK SC2AC2AS2 SLP046

CYHM;2008-04-01 09:00;CYHM 010900Z 19013G19KT 15SM FEW038 SCT120 OVC200 11/08 A2961 RMK SC2AC2CS3 SLP030

CYHM;2008-04-01 09:34;CYHM 010934Z 19015KT 15SM -SHRA BKN035 OVC094 RMK SC6AC2

CYHM;2008-04-01 10:00;CYHM 011000Z 21015G22KT 15SM -SHRA BKN034 OVC044 11/09 A2959 RMK SC6SC2 SLP024

CYHM;2008-04-01 11:00;CYHM 011100Z 21018G24KT 10SM -SHRA BKN031 OVC038 12/09 A2958 RMK SC6SC2 SLP020

CYHM;2008-04-01 12:00;CYHM 011200Z 23022G32KT 7SM -SHRA BKN003 BKN027 OVC060 12/11 A2958 RMK SF5SC2SC1 SLP019

CYHM;2008-04-01 12:16;CYHM 011216Z 23024G30KT 6SM -SHRA BKN011 OVC022 RMK SF6SC2

CYHM;2008-04-01 12:44;CYHM 011244Z 22024G32KT 15SM FEW010 BKN017 OVC038 RMK SF2SC5SC2

CYHM;2008-04-01 13:00;CYHM 011300Z 23022G30KT 3SM -SHRA BR BKN015 OVC022 12/11 A2958 RMK SC6SC2 SLP020

CYHM;2008-04-01 14:00;CYHM 011400Z 22022G30KT 8SM -SHRA BKN016 OVC022 12/11 A2957 RMK SC6SC2 SLP016

CYHM;2008-04-01 14:38;CYHM 011438Z 23028G34KT 15SM FEW016 BKN022 OVC042 RMK CU2SC6SC1

CYHM;2008-04-01 15:00;CYHM 011500Z 23028G36KT 15SM -SHRA FEW016 BKN022 OVC035 13/11 A2958 RMK CU2SC5SC2 SLP020

CYHM;2008-04-01 15:35;CYHM 011535Z 23034G44KT 15SM FEW016 BKN022 BKN042 RMK CU2SC3SC2

CYHM;2008-04-01 16:00;CYHM 011600Z 23028G36KT 15SM FEW020 BKN026 BKN034 13/10 A2959 RMK CU1SC4SC2 SLP022

CYHM;2008-04-01 17:00;CYHM 011700Z 26024G34KT 15SM SCT022 BKN028 14/09 A2960 RMK CU3SC3 SLP025

CYHM;2008-04-01 18:00;CYHM 011800Z 25034G44KT 15SM FEW026 BKN034 11/06 A2964 RMK CU2SC4 SLP038

CYHM;2008-04-01 19:00;CYHM 011900Z 26022G36KT 15SM FEW026 BKN037 07/02 A2970 RMK SC2SC6 SLP058

CYHM;2008-04-01 20:00;CYHM 012000Z 27022G34KT 15SM OVC028 06/01 A2974 RMK SC8 SLP071

CYHM;2008-04-01 21:35;CYHM 012135Z 26020G38KT 15SM -SHRASN OVC031 RMK SC8

CYHM;2008-04-01 22:00;CYHM 012200Z 26020G38KT 15SM -SHRA OVC032 03/M02 A2984 RMK SC8 SLP109

CYHM;2008-04-01 22:45;CYHM 012245Z 26020G38KT 15SM SCT024 OVC042 RMK SC3SC5

CYHM;2008-04-01 23:00;CYHM 012300Z 27022G40KT 15SM SCT024 OVC042 02/M03 A2989 RMK SC3SC5 SLP127

CYHM;2008-04-02 00:00;CYHM 020000Z 27020G38KT 15SM -SHSN BKN026 OVC052 01/M04 A2995 RMK SC6SC2 SLP147

CYHM;2008-04-02 01:00;CYHM 020100Z 28022G40KT 15SM OVC034 M01/M06 A3007 RMK SC8 SLP187

CYHM;2008-04-02 02:00;CYHM 020200Z 27015G26KT 15SM OVC031 M00/M06 A3010 RMK SC8 SLP197

CYHM;2008-04-02 03:00;CYHM 020300Z 28015G22KT 15SM OVC027 M00/M05 A3014 RMK SC8 SLP213

CYHM;2008-04-02 04:00;CYHM 020400Z 28015G22KT 15SM OVC033 M00/M06 A3019 RMK SC8 SLP228

CYHM;2008-04-02 05:00;CYHM 020500Z 28009KT 15SM SCT024 OVC040 M01/M05 A3023 RMK SC3SC5 SLP243

CYHM;2008-04-02 06:00;CYHM 020600Z 32013KT 15SM OVC038 M01/M06 A3026 RMK SC8 SLP255

CYHM;2008-04-02 07:00;CYHM 020700Z 31011KT 15SM OVC038 M01/M06 A3028 RMK SC8 SLP262

CYHM;2008-04-02 08:00;CYHM 020800Z 31011KT 15SM OVC036 M01/M07 A3030 RMK SC8 SLP269

CYHM;2008-04-02 08:24;CYHM 020824Z 32015G22KT 15SM -SHSN OVC038 RMK SC8

CYHM;2008-04-02 09:00;CYHM 020900Z 30011KT 15SM BKN036 M02/M08 A3034 RMK SC6 SLP284

CYHM;2008-04-02 10:00;CYHM 021000Z 32012KT 15SM FEW034 M03/M10 A3037 RMK SC1 SLP296

CYHM;2008-04-02 11:00;CYHM 021100Z 32006KT 15SM FEW035 FEW210 M04/M11 A3041 RMK SC1CI1 SLP308

CYHM;2008-04-02 12:00;CYHM 021200Z 29004KT 15SM FEW035 FEW210 M04/M10 A3044 RMK SC1CI1 SC TR CI TR SLP319

CYHM;2008-04-02 13:00;CYHM 021300Z 30008KT 15SM FEW210 M02/M12 A3046 RMK CI1 CONTRAIL SLP327

CYHM;2008-04-02 15:00;CYHM 021500Z 29010KT 15SM FEW025 FEW240 M00/M09 A3048 RMK CU1CI1 SLP332

CYHM;2008-04-02 16:00;CYHM 021600Z 27010KT 15SM FEW035 FEW240 01/M08 A3049 RMK CU1CI1 CI TR SLP336

CYHM;2008-04-02 17:00;CYHM 021700Z 29010KT 15SM FEW035 FEW220 01/M08 A3049 RMK CU2CI0 SLP336

CYHM;2008-04-02 18:00;CYHM 021800Z 30008KT 15SM FEW035 02/M08 A3049 RMK CU1 SLP334

CYHM;2008-04-02 19:00;CYHM 021900Z 29010KT 15SM FEW032 04/M06 A3048 RMK CU1 SLP331

CYHM;2008-04-02 20:00;CYHM 022000Z 29004KT 15SM FEW036 04/M07 A3046 RMK CU1 SLP326

CYHM;2008-04-02 21:00;CYHM 022100Z 28004KT 15SM FEW038 03/M07 A3045 RMK CU1 SLP320

CYHM;2008-04-02 22:00;CYHM 022200Z 28010KT 15SM FEW042 04/M07 A3044 RMK CU1 CU TR SLP319

CYHM;2008-04-02 23:00;CYHM 022300Z 24003KT 15SM FEW034 03/M06 A3044 RMK CU1 CU TR SLP319

CYHM;2008-04-03 00:00;CYHM 030000Z 20007KT 15SM SKC 00/M04 A3044 RMK SLP321

CYHM;2008-04-03 01:00;CYHM 030100Z 21006KT 15SM SKC M01/M05 A3046 RMK SLP325

CYHM;2008-04-03 02:00;CYHM 030200Z 19005KT 15SM SKC M01/M05 A3046 RMK SLP325

CYHM;2008-04-03 03:00;CYHM 030300Z 20005KT 15SM FEW200 M02/M05 A3045 RMK CI1 SLP324

CYHM;2008-04-03 04:00;CYHM 030400Z 23006KT 15SM FEW200 M03/M05 A3045 RMK CI1 SLP323

CYHM;2008-04-03 05:00;CYHM 030500Z 24004KT 15SM SKC M03/M06 A3045 RMK SLP324

CYHM;2008-04-03 06:00;CYHM 030600Z 24004KT 15SM SKC M03/M05 A3045 RMK SLP322

CYHM;2008-04-03 07:00;CYHM 030700Z 25003KT 15SM FEW200 M03/M06 A3044 RMK CI1 SLP319

CYHM;2008-04-03 08:00;CYHM 030800Z 25002KT 15SM BKN140 M04/M06 A3042 RMK AC4 SLP314

CYHM;2008-04-03 09:00;CYHM 030900Z 18005KT 15SM FEW130 SCT200 M02/M06 A3040 RMK AC2CI1 SLP306

CYHM;2008-04-03 10:00;CYHM 031000Z 15002KT 15SM FEW130 SCT200 M04/M06 A3039 RMK AC2CI1 FROIN SLP302

CYHM;2008-04-03 11:00;CYHM 031100Z 00000KT 15SM FEW120 FEW240 M04/M06 A3038 RMK AC1CI0 SLP299

CYHM;2008-04-03 12:00;CYHM 031200Z 07002KT 15SM FEW120 FEW210 M03/M06 A3039 RMK AC1CI1 SLP301

CYHM;2008-04-03 13:00;CYHM 031300Z 15004KT 15SM SCT210 M00/M05 A3039 RMK CI1 SLP301

CYHM;2008-04-03 14:00;CYHM 031400Z 15002KT 15SM FEW210 03/M04 A3037 RMK CI1 SLP295

CYHM;2008-04-03 15:00;CYHM 031500Z 12003KT 15SM FEW220 05/M04 A3033 RMK CI1 SLP281

CYHM;2008-04-03 16:00;CYHM 031600Z 13006KT 15SM FEW180 BKN210 07/M04 A3030 RMK AC1CI2 SLP271

CYHM;2008-04-03 17:00;CYHM 031700Z 06008KT 15SM FEW180 FEW210 07/M01 A3027 RMK AC1CI1 SLP260

CYHM;2008-04-03 18:00;CYHM 031800Z 09002KT 15SM FEW180 FEW210 08/M00 A3024 RMK AC1CI1 AC TR SLP248

CYHM;2008-04-03 19:00;CYHM 031900Z 07010KT 15SM BKN230 09/01 A3021 RMK CI2 SLP240

CYHM;2008-04-03 20:00;CYHM 032000Z 06010KT 15SM BKN230 08/M01 A3017 RMK CI2 SLP225

CYHM;2008-04-03 21:00;CYHM 032100Z 06013KT 15SM BKN230 07/M03 A3016 RMK CI2 SLP221

CYHM;2008-04-03 22:00;CYHM 032200Z 06012KT 15SM BKN250 06/M05 A3014 RMK CI2 SLP217

CYHM;2008-04-03 23:00;CYHM 032300Z 06013KT 15SM FEW170 BKN250 04/M06 A3013 RMK AC2CI3 SLP213

CYHM;2008-04-04 00:00;CYHM 040000Z 05014KT 15SM SCT170 BKN250 03/M07 A3010 RMK AC3CI3 SLP201

CYHM;2008-04-04 01:00;CYHM 040100Z 05016KT 15SM BKN180 OVC240 03/M05 A3008 RMK AC5CI2 SLP197

CYHM;2008-04-04 02:00;CYHM 040200Z 05012KT 15SM OVC160 03/M04 A3007 RMK AC8 SLP193

CYHM;2008-04-04 03:00;CYHM 040300Z 05010KT 15SM BKN190 02/M03 A3004 RMK AC6 SLP181

CYHM;2008-04-04 04:00;CYHM 040400Z 04006KT 15SM OVC100 03/M03 A3003 RMK AC8 SLP177

CYHM;2008-04-04 05:00;CYHM 040500Z 05009KT 15SM OVC080 03/M02 A3003 RMK AC8 SLP176

CYHM;2008-04-04 06:00;CYHM 040600Z 06007KT 15SM OVC075 03/M01 A2999 RMK AC8 SLP163

CYHM;2008-04-04 07:00;CYHM 040700Z 03007KT 12SM -SHRA OVC040 03/M01 A2996 RMK SC8 SLP152

CYHM;2008-04-04 08:00;CYHM 040800Z 04005KT 10SM -SHRA FEW040 OVC058 02/00 A2993 RMK CF2SC6 SLP142

CYHM;2008-04-04 08:20;CYHM 040820Z 05008KT 10SM -SHRA BKN009 OVC030 RMK CF6SC2

CYHM;2008-04-04 09:00;CYHM 040900Z 03007KT 8SM -SHRA BKN009 OVC055 02/01 A2988 RMK SC7SC1 CF ASOCTD SLP127

CYHM;2008-04-04 10:00;CYHM 041000Z 03008KT 7SM -SHRA BKN012 OVC030 02/M00 A2987 RMK SC6SC2 SLP123

CYHM;2008-04-04 11:00;CYHM 041100Z 04008KT 6SM -SHRA BR BKN015 OVC033 02/00 A2988 RMK SC6SC2 SLP124

CYHM;2008-04-04 11:43;CYHM 041143Z 04014KT 3SM -SHRA BR BKN004 BKN010 OVC036 RMK SF5SC2SC2

CYHM;2008-04-04 12:00;CYHM 041200Z 05014KT 2SM -SHRA BR BKN003 BKN015 OVC033 02/01 A2982 RMK SF6SC2SC1 SLP105

CYHM;2008-04-04 13:00;CYHM 041300Z 06012KT 2SM -SHRA BR BKN004 OVC010 02/01 A2981 RMK SF6SC2 SLP102

CYHM;2008-04-04 14:00;CYHM 041400Z 04018G24KT 2SM -RA BR BKN006 OVC010 02/02 A2979 RMK SF6SC2 SLP097

CYHM;2008-04-04 15:00;CYHM 041500Z 04020G25KT 2SM -RA BR OVC003 02/01 A2976 RMK SF8 SLP085

CYHM;2008-04-04 16:00;CYHM 041600Z 04020KT 2SM -RA BR OVC002 02/02 A2974 RMK SF8 SLP078

CYHM;2008-04-04 16:46;CYHM 041646Z 05020KT 1SM -RA BR OVC003 RMK FG2SF6

CYHM;2008-04-04 17:00;CYHM 041700Z 05020KT 3/4SM -RA BR OVC003 02/02 A2972 RMK FG2SF6 SLP072

CYHM;2008-04-04 17:41;CYHM 041741Z 05014KT 1/2SM -RA FG VV002 RMK FG8

CYHM;2008-04-04 18:00;CYHM 041800Z 05018G23KT 1/2SM -RA FG VV002 02/02 A2971 RMK FG8 SLP067

CYHM;2008-04-04 18:21;CYHM 041821Z 04019KT 3/8SM -RA FG VV002 RMK FG8

CYHM;2008-04-04 19:00;CYHM 041900Z 04015KT 3/8SM -RA FG VV002 02/02 A2971 RMK FG8 PCPN VRY LGT SLP067

CYHM;2008-04-04 19:24;CYHM 041924Z 04016G22KT 3/4SM -RA BR VV002 RMK FG8 PCPN VRY LGT

CYHM;2008-04-04 19:46;CYHM 041946Z 03017KT 1 1/2SM -DZ BR OVC002 RMK FG3SF5

CYHM;2008-04-04 20:00;CYHM 042000Z 04018KT 2SM -DZ BR OVC002 02/02 A2969 RMK FG2SF6 SLP061

CYHM;2008-04-04 21:00;CYHM 042100Z 05012KT 2SM -DZ BR OVC002 02/02 A2972 RMK FG2SF6 SLP071

CYHM;2008-04-04 21:28;CYHM 042128Z 03010KT 1 1/2SM -DZ BR OVC002 RMK FG2SF6

CYHM;2008-04-04 22:00;CYHM 042200Z 06010KT 1 1/4SM -DZ BR OVC002 03/02 A2973 RMK FG3SF5 SLP076

CYHM;2008-04-04 23:00;CYHM 042300Z 04006KT 1SM -DZ BR OVC002 03/02 A2974 RMK FG3SF5 SLP079

CYHM;2008-04-05 00:00;CYHM 050000Z 01006KT 1 1/4SM -DZ BR OVC003 03/02 A2975 RMK FG3SF5 SLP083

CYHM;2008-04-05 01:00;CYHM 050100Z 06002KT 1 1/4SM -DZ BR OVC003 03/02 A2978 RMK FG3SF5 CIG RAG SLP094

CYHM;2008-04-05 01:28;CYHM 050128Z 33002KT 2SM BR SCT003 OVC009 RMK FG2SF2SC4

CYHM;2008-04-05 02:00;CYHM 050200Z 31003KT 3SM BR FEW003 OVC009 02/02 A2981 RMK SF2SC6 SLP101

CYHM;2008-04-05 02:14;CYHM 050214Z 31004KT 4SM BR OVC012 RMK SC8

CYHM;2008-04-05 03:00;CYHM 050300Z 31003KT 5SM BR FEW010 BKN016 OVC035 02/02 A2982 RMK CF1SC6SC1 SLP105

CYHM;2008-04-05 04:00;CYHM 050400Z 31005KT 8SM OVC023 03/02 A2984 RMK SC8 SLP111

CYHM;2008-04-05 05:00;CYHM 050500Z 26003KT 15SM FEW020 OVC029 03/02 A2985 RMK CF1SC7 SLP115

CYHM;2008-04-05 06:00;CYHM 050600Z 30002KT 15SM FEW027 OVC038 02/02 A2987 RMK CF2SC6 SLP122

CYHM;2008-04-05 07:00;CYHM 050700Z 24002KT 10SM BKN034 02/01 A2987 RMK SC6 SLP124

CYHM;2008-04-05 08:00;CYHM 050800Z 26004KT 8SM FEW200 01/01 A2991 RMK CI2 SLP135

CYHM;2008-04-05 09:00;CYHM 050900Z 26003KT 7SM FEW200 01/00 A2992 RMK CI1 SLP142

CYHM;2008-04-05 10:00;CYHM 051000Z 26005KT 8SM FEW200 01/00 A2996 RMK CI1 SLP154

CYHM;2008-04-05 10:31;CYHM 051031Z 26005KT 2SM BR FEW210 RMK FG1CI1

CYHM;2008-04-05 11:00;CYHM 051100Z 26005KT 1 1/2SM BR FEW210 00/M00 A2998 RMK FG1CI1 CI TR SLP160

CYHM;2008-04-05 12:00;CYHM 051200Z 25005KT 1 1/2SM BR FEW220 01/01 A3000 RMK FG1CI1 CI TR SLP168

CYHM;2008-04-05 12:44;CYHM 051244Z 25006KT 2 1/2SM BR FEW220 RMK CI0

CYHM;2008-04-05 13:00;CYHM 051300Z 24006KT 3SM BR FEW220 03/02 A3004 RMK CI0 SLP179

CYHM;2008-04-05 14:00;CYHM 051400Z 28006KT 7SM FEW240 05/03 A3006 RMK CI0 SLP188

CYHM;2008-04-05 15:00;CYHM 051500Z 24006KT 15SM FEW250 07/03 A3008 RMK CI0 SLP192

CYHM;2008-04-05 16:00;CYHM 051600Z 25006KT 15SM FEW030 BKN250 09/02 A3009 RMK CU1CI1 SLP197

CYHM;2008-04-05 17:00;CYHM 051700Z 22008KT 15SM FEW036 BKN250 10/01 A3009 RMK CU1CI2 SLP196

CYHM;2008-04-05 18:00;CYHM 051800Z 21006KT 180V280 15SM FEW036 BKN250 11/01 A3008 RMK CU1CI1 SLP192

CYHM;2008-04-05 19:00;CYHM 051900Z 19012KT 150V220 15SM FEW032 BKN250 11/05 A3007 RMK CU2CI2 SLP187

CYHM;2008-04-05 20:00;CYHM 052000Z 18014KT 150V210 15SM FEW030 BKN250 11/05 A3007 RMK CU2CI2 SLP189

CYHM;2008-04-05 21:00;CYHM 052100Z 19014KT 15SM FEW030 BKN240 10/04 A3007 RMK CU1CI2 SLP189

CYHM;2008-04-05 22:00;CYHM 052200Z 18012KT 150V210 15SM FEW030 BKN240 10/03 A3009 RMK CU1CI3 CU TR SLP195

CYHM;2008-04-05 23:00;CYHM 052300Z 19009KT 15SM BKN240 09/02 A3009 RMK CI4 SLP196

CYHM;2008-04-06 00:00;CYHM 060000Z 18008KT 15SM BKN240 08/01 A3010 RMK CI3 SLP201

CYHM;2008-04-06 01:00;CYHM 060100Z 20005KT 15SM BKN250 06/01 A3011 RMK CI4 SLP205

CYHM;2008-04-06 02:00;CYHM 060200Z 16007KT 15SM BKN250 05/01 A3014 RMK CI5 SLP213

CYHM;2008-04-06 03:00;CYHM 060300Z 16007KT 15SM FEW200 05/01 A3015 RMK CI2 SLP215

CYHM;2008-04-06 04:00;CYHM 060400Z 12003KT 15SM FEW200 04/02 A3015 RMK CI2 SLP215

CYHM;2008-04-06 05:00;CYHM 060500Z 00000KT 15SM FEW200 03/01 A3015 RMK CI1 SLP216

CYHM;2008-04-06 06:00;CYHM 060600Z 08004KT 15SM FEW200 03/00 A3014 RMK CI1 SLP212

CYHM;2008-04-06 07:00;CYHM 060700Z 05007KT 15SM FEW210 02/M01 A3013 RMK CI2 SLP211

CYHM;2008-04-06 08:00;CYHM 060800Z 04007KT 15SM FEW200 02/M00 A3013 RMK CI1 SLP211

CYHM;2008-04-06 09:00;CYHM 060900Z 04009KT 15SM FEW200 02/00 A3014 RMK CI1 SLP213

CYHM;2008-04-06 10:00;CYHM 061000Z 04009KT 8SM FEW210 02/00 A3014 RMK CI1 SLP214

CYHM;2008-04-06 11:00;CYHM 061100Z 04009KT 10SM FEW100 01/00 A3016 RMK AC1 SLP220

CYHM;2008-04-06 12:00;CYHM 061200Z 05008KT 10SM SKC 02/01 A3018 RMK SLP228

CYHM;2008-04-06 13:00;CYHM 061300Z 03010KT 15SM SKC 05/02 A3020 RMK SLP233

CYHM;2008-04-06 14:00;CYHM 061400Z 04011KT 15SM SKC 06/02 A3020 RMK SLP233

CYHM;2008-04-06 15:00;CYHM 061500Z 04013KT 15SM FEW250 07/03 A3019 RMK CI1 SLP231

CYHM;2008-04-06 16:00;CYHM 061600Z 04015KT 15SM FEW250 08/03 A3019 RMK CI0 CONTRAILS SLP230

CYHM;2008-04-06 17:00;CYHM 061700Z 06018KT 15SM BKN250 08/02 A3018 RMK CI2 SLP226

CYHM;2008-04-06 18:00;CYHM 061800Z 04016KT 15SM BKN250 08/02 A3017 RMK CI2 SLP225

CYHM;2008-04-06 19:00;CYHM 061900Z 05016KT 15SM FEW150 BKN250 09/02 A3017 RMK AC1CI2 AC TR SLP223

CYHM;2008-04-06 20:00;CYHM 062000Z 05018KT 15SM FEW150 SCT250 09/02 A3016 RMK AC1CI2 AC TR SLP219

CYHM;2008-04-06 21:00;CYHM 062100Z 05020KT 15SM BKN240 09/02 A3013 RMK CI3 SLP209

CYHM;2008-04-06 22:00;CYHM 062200Z 06020KT 15SM BKN230 09/01 A3011 RMK CI3 SLP203

CYHM;2008-04-06 23:00;CYHM 062300Z 06017KT 15SM BKN240 08/00 A3010 RMK CI2 SLP200

CYHM;2008-04-07 00:00;CYHM 070000Z 05017KT 15SM FEW220 06/M00 A3009 RMK CI2 SLP198

CYHM;2008-04-07 01:00;CYHM 070100Z 05015KT 15SM FEW210 05/00 A3009 RMK CI2 SLP198

CYHM;2008-04-07 02:00;CYHM 070200Z 03013KT 15SM SKC 05/00 A3010 RMK SLP200

CYHM;2008-04-07 03:00;CYHM 070300Z 03013KT 15SM FEW200 04/01 A3009 RMK CI1 SLP195

CYHM;2008-04-07 04:00;CYHM 070400Z 04010KT 15SM FEW210 05/01 A3007 RMK CI1 SLP191

CYHM;2008-04-07 05:00;CYHM 070500Z 03012KT 15SM FEW200 04/01 A3008 RMK CI1 SLP193

CYHM;2008-04-07 06:00;CYHM 070600Z 03006KT 15SM FEW210 03/01 A3010 RMK CI1 SLP198

CYHM;2008-04-07 07:00;CYHM 070700Z 05008KT 15SM FEW200 03/01 A3008 RMK CI1 SLP193

CYHM;2008-04-07 08:00;CYHM 070800Z 05007KT 15SM FEW210 02/01 A3008 RMK CI1 SLP192

CYHM;2008-04-07 09:00;CYHM 070900Z 05006KT 15SM FEW210 01/00 A3010 RMK CI1 SLP199

CYHM;2008-04-07 10:00;CYHM 071000Z 04007KT 15SM FEW210 01/00 A3010 RMK CI1 SLP198

CYHM;2008-04-07 11:00;CYHM 071100Z 07007KT 10SM FEW100 FEW210 02/01 A3010 RMK AC1CI1 SLP201

CYHM;2008-04-07 12:00;CYHM 071200Z 05008KT 8SM FEW100 03/02 A3011 RMK AC1 AC TR HAZY SLP204

CYHM;2008-04-07 13:00;CYHM 071300Z 05006KT 15SM FEW078 06/04 A3010 RMK AC2 SLP202

CYHM;2008-04-07 14:00;CYHM 071400Z 08008KT 15SM BKN074 BKN210 09/05 A3010 RMK AC5CI1 SLP200

CYHM;2008-04-07 15:00;CYHM 071500Z 14012KT 15SM BKN072 BKN180 11/06 A3010 RMK AC6AC1 SLP199

CYHM;2008-04-07 16:00;CYHM 071600Z 13014KT 15SM FEW072 SCT210 12/07 A3009 RMK AC2CI1 SLP194

CYHM;2008-04-07 17:00;CYHM 071700Z 15012KT 15SM FEW030 FEW042 FEW180 SCT210 13/08 A3007 RMK CU1SC1AC1CI0 CI TR SLP189

CYHM;2008-04-07 18:00;CYHM 071800Z 05011KT 15SM SCT034 BKN042 BKN210 12/07 A3005 RMK CU3SC2CI1 SLP181

CYHM;2008-04-07 19:00;CYHM 071900Z 05015KT 15SM FEW034 BKN073 BKN250 10/06 A3006 RMK SC1AC5CI1 CI TR SLP184

CYHM;2008-04-07 20:00;CYHM 072000Z 07014KT 15SM FEW072 BKN230 10/06 A3004 RMK AC2CI2 SLP177

CYHM;2008-04-07 21:00;CYHM 072100Z 07016KT 15SM FEW064 SCT250 10/06 A3003 RMK SC1CI2 SLP174

CYHM;2008-04-07 22:00;CYHM 072200Z 06012KT 15SM FEW044 SCT250 09/05 A3002 RMK SC2CI1 SLP173

CYHM;2008-04-07 23:00;CYHM 072300Z 05010KT 15SM FEW054 FEW250 07/04 A3003 RMK SC2CI1 CI TR CONTRAILS SLP174

CYHM;2008-04-08 00:00;CYHM 080000Z 05009KT 15SM FEW052 SCT250 05/03 A3003 RMK SC1CI2 CONTRAILS SLP176

CYHM;2008-04-08 01:00;CYHM 080100Z 08007KT 15SM FEW250 04/03 A3001 RMK CI1 SLP170

CYHM;2008-04-08 02:00;CYHM 080200Z 15008KT 15SM FEW250 04/03 A3002 RMK CI1 SLP173

CYHM;2008-04-08 03:00;CYHM 080300Z 15009KT 15SM FEW250 07/05 A3003 RMK CI1 SLP173

CYHM;2008-04-08 04:00;CYHM 080400Z 16010KT 15SM FEW250 08/04 A3003 RMK CI1 SLP174

CYHM;2008-04-08 05:00;CYHM 080500Z 17010KT 15SM SCT064 07/04 A3004 RMK SC3 SLP178

CYHM;2008-04-08 06:00;CYHM 080600Z 23009KT 15SM FEW058 07/04 A3009 RMK SC2 SLP193

CYHM;2008-04-08 07:00;CYHM 080700Z 21007KT 15SM FEW250 06/04 A3008 RMK CI1 CI TR SLP192

CYHM;2008-04-08 08:00;CYHM 080800Z 19006KT 15SM FEW250 06/04 A3008 RMK CI1 CI TR SLP190

CYHM;2008-04-08 09:00;CYHM 080900Z 20006KT 15SM FEW180 FEW250 04/03 A3010 RMK AC1CI1 AC TR CI TR SLP200

CYHM;2008-04-08 10:00;CYHM 081000Z 21004KT 15SM FEW250 04/03 A3012 RMK CI1 SLP206

CYHM;2008-04-08 11:00;CYHM 081100Z 21002KT 15SM FEW180 BKN220 04/03 A3014 RMK AC1CI2 AC TR SLP212

CYHM;2008-04-08 12:00;CYHM 081200Z 21008KT 15SM FEW160 BKN220 06/05 A3015 RMK AC1CI3 SLP215

CYHM;2008-04-08 13:00;CYHM 081300Z 24008KT 15SM FEW150 BKN220 08/06 A3015 RMK AC1CI2 SLP217

CYHM;2008-04-08 14:00;CYHM 081400Z 22010KT 15SM BKN140 OVC220 09/07 A3017 RMK AC6CI2 SLP223

CYHM;2008-04-08 15:00;CYHM 081500Z 23012KT 15SM FEW035 FEW140 BKN220 11/07 A3019 RMK CU1AC1CI2 SLP228

CYHM;2008-04-08 16:00;CYHM 081600Z 28004KT 15SM FEW160 BKN220 13/08 A3020 RMK AC1CI3 AC TR SLP231

CYHM;2008-04-08 17:00;CYHM 081700Z 19004KT 15SM FEW160 SCT220 14/08 A3018 RMK AC1CI2 AC TR SLP224

CYHM;2008-04-08 18:00;CYHM 081800Z 13002KT 15SM FEW180 BKN220 15/07 A3016 RMK AC2CI2 SLP216

CYHM;2008-04-08 19:00;CYHM 081900Z 12008KT 100V210 15SM FEW190 SCT250 17/09 A3015 RMK AC1CI1 AC TR SLP212

CYHM;2008-04-08 20:00;CYHM 082000Z 15006KT 15SM FEW250 18/08 A3014 RMK CI1 SLP211

CYHM;2008-04-08 21:00;CYHM 082100Z 14002KT 15SM FEW190 SCT250 18/07 A3013 RMK AC1CI2 AC TR SLP207

CYHM;2008-04-08 22:00;CYHM 082200Z 05009KT 15SM FEW064 FEW190 BKN250 15/09 A3012 RMK SC1AC1CI1 AC TR SLP204

CYHM;2008-04-08 23:00;CYHM 082300Z 05010KT 15SM FEW250 12/07 A3012 RMK CI1 SLP202

CYHM;2008-04-09 00:00;CYHM 090000Z 06012KT 10SM FEW250 09/06 A3011 RMK CI1 SLP202

CYHM;2008-04-09 01:00;CYHM 090100Z 05012KT 10SM FEW220 08/05 A3011 RMK CI1 SLP201

CYHM;2008-04-09 02:00;CYHM 090200Z 05013KT 12SM FEW230 07/05 A3010 RMK CI1 SLP199

CYHM;2008-04-09 03:00;CYHM 090300Z 04013KT 15SM BKN190 07/05 A3008 RMK AC4 SLP190

CYHM;2008-04-09 04:00;CYHM 090400Z 05012KT 12SM SCT180 BKN220 07/05 A3005 RMK AC3CI1 SLP181

CYHM;2008-04-09 05:00;CYHM 090500Z 05007KT 15SM FEW180 BKN210 06/04 A3002 RMK AC1CI2 SLP172

CYHM;2008-04-09 06:00;CYHM 090600Z 05004KT 15SM FEW180 BKN200 06/05 A3002 RMK AC1CI3 SLP169

CYHM;2008-04-09 07:00;CYHM 090700Z 16012KT 15SM FEW170 SCT240 08/05 A3001 RMK AC1CI2 SLP164

CYHM;2008-04-09 08:00;CYHM 090800Z 14011KT 15SM SCT180 08/05 A2999 RMK AC3 SLP159

CYHM;2008-04-09 09:00;CYHM 090900Z 15008KT 15SM FEW080 FEW250 08/05 A2997 RMK AC1CI1 CI TR SLP152

CYHM;2008-04-09 10:00;CYHM 091000Z 15007KT 15SM FEW140 FEW250 08/05 A2995 RMK AC2CI1 CI TR SLP145

CYHM;2008-04-09 11:00;CYHM 091100Z 20010KT 15SM FEW035 BKN079 BKN140 09/06 A2995 RMK SC2AC4AC1 SLP146

CYHM;2008-04-09 12:00;CYHM 091200Z 18008KT 15SM FEW035 BKN072 BKN140 OVC210 09/06 A2994 RMK SC2AC4AC2CI1 SLP144

CYHM;2008-04-09 12:10;CYHM 091210Z 20010KT 15SM -SHRA BKN055 BKN082 OVC220 RMK SC5AC2CI1

CYHM;2008-04-09 12:20;CYHM 091220Z 22014KT 2 1/2SM -TSRA BKN016 BKN033 OVC072 RMK SC6SC2AC1 CB EMBDD

CYHM;2008-04-09 12:32;CYHM 091232Z 21012KT 7SM -TSRA FEW017 BKN051 OVC085 RMK SC2SC4AC2 CB EMBDD

CYHM;2008-04-09 13:00;CYHM 091300Z 22014KT 4SM -SHRA BR BKN025 BKN046 OVC055 09/07 A2996 RMK SC5SC2SC2 SLP151

CYHM;2008-04-09 13:25;CYHM 091325Z 20015KT 6SM BR FEW032 BKN050 BKN078 RMK SC2SC4AC1

CYHM;2008-04-09 14:00;CYHM 091400Z 19014G19KT 15SM BKN037 BKN089 OVC100 10/08 A2993 RMK SC6AC2AC1 SLP140

CYHM;2008-04-09 15:00;CYHM 091500Z 20018G24KT 15SM BKN027 OVC039 12/08 A2992 RMK SC6SC2 SLP136

CYHM;2008-04-09 16:00;CYHM 091600Z 21024G30KT 15SM BKN024 BKN055 14/10 A2992 RMK SC6SC2 SLP136

CYHM;2008-04-09 17:00;CYHM 091700Z 23018G25KT 15SM FEW025 FEW035 SCT140 BKN220 16/11 A2991 RMK CU1SC1AC2CS2 HALO SLP131

CYHM;2008-04-09 18:00;CYHM 091800Z 23024G30KT 15SM FEW025 FEW180 BKN210 16/08 A2992 RMK CU1AC2CS3 HALO SLP134

CYHM;2008-04-09 19:00;CYHM 091900Z 22023KT 15SM FEW035 FEW180 BKN210 17/09 A2994 RMK CU2AC1CS3 SLP141

CYHM;2008-04-09 20:00;CYHM 092000Z 24025G31KT 15SM FEW035 BKN044 BKN090 BKN210 16/06 A2996 RMK CU1SC4AC1CI1 SLP147

CYHM;2008-04-09 21:00;CYHM 092100Z 26023G29KT 15SM FEW040 SCT210 15/07 A2999 RMK SC2CI1 SLP159

CYHM;2008-04-09 22:00;CYHM 092200Z 27020KT 15SM FEW040 FEW210 13/06 A3004 RMK SC2CI1 SLP174

CYHM;2008-04-09 23:00;CYHM 092300Z 27019KT 15SM FEW035 FEW120 FEW220 11/04 A3008 RMK SC2AC1CI1 AC TR SLP188

CYHM;2008-04-10 00:00;CYHM 100000Z 28012KT 15SM FEW030 SCT220 09/03 A3009 RMK SC2CI1 SLP193

CYHM;2008-04-10 01:00;CYHM 100100Z 26012KT 15SM FEW030 SCT220 08/02 A3013 RMK SC2CI1 SLP206

CYHM;2008-04-10 02:00;CYHM 100200Z 26011KT 15SM BKN030 08/03 A3017 RMK SC5 SLP220

CYHM;2008-04-10 03:00;CYHM 100300Z 29008KT 15SM FEW028 FEW210 06/02 A3019 RMK SC1CI1 SLP227

CYHM;2008-04-10 04:00;CYHM 100400Z 29008KT 15SM FEW200 05/02 A3020 RMK CI1 SLP230

CYHM;2008-04-10 05:00;CYHM 100500Z 28007KT 15SM FEW210 04/01 A3019 RMK CI1 SLP228

CYHM;2008-04-10 06:00;CYHM 100600Z 28008KT 15SM FEW210 04/01 A3018 RMK CI1 SLP225

CYHM;2008-04-10 07:00;CYHM 100700Z 29008KT 15SM FEW200 04/01 A3018 RMK CI1 SLP225

CYHM;2008-04-10 08:00;CYHM 100800Z 32006KT 15SM FEW200 04/00 A3020 RMK CI1 SLP229

CYHM;2008-04-10 09:00;CYHM 100900Z 33006KT 15SM FEW210 03/00 A3022 RMK CI1 SLP238

CYHM;2008-04-10 10:00;CYHM 101000Z 36005KT 15SM FEW030 FEW210 02/M00 A3023 RMK CF1CI1 TR CF SLP241

CYHM;2008-04-10 11:00;CYHM 101100Z 03006KT 15SM FEW030 BKN220 02/M01 A3026 RMK SC2CI2 SLP251

CYHM;2008-04-10 12:00;CYHM 101200Z 04008KT 15SM BKN014 BKN120 BKN220 03/M00 A3028 RMK SC5AC1CI1 SLP261

CYHM;2008-04-10 13:00;CYHM 101300Z 35002KT 15SM BKN015 BKN220 03/M00 A3029 RMK SC5CI1 CU ASOCTD SLP264

CYHM;2008-04-10 14:00;CYHM 101400Z 04002KT 15SM FEW016 FEW025 SCT220 05/01 A3029 RMK CU1SC2CI1 SLP263

CYHM;2008-04-10 15:00;CYHM 101500Z CCB 10002KT 15SM FEW022 BKN220 06/01 A3026 RMK CU1CI2 SLP255

CYHM;2008-04-10 16:00;CYHM 101600Z 04007KT 15SM FEW022 FEW220 08/02 A3027 RMK CU1CI1 CU TR SLP257

CYHM;2008-04-10 17:00;CYHM 101700Z 09004KT 15SM FEW025 SCT220 08/01 A3025 RMK CU1CI2 CU TR CONTRAIL SLP251

CYHM;2008-04-10 18:00;CYHM 101800Z 07008KT 15SM FEW025 BKN220 09/01 A3023 RMK CU1CI3 CU TR HALO CONTRAIL SLP245

CYHM;2008-04-10 19:00;CYHM 101900Z 11007KT 15SM BKN240 10/01 A3022 RMK CS6 SLP240

CYHM;2008-04-10 20:00;CYHM 102000Z 10007KT 15SM OVC250 10/00 A3020 RMK CS7 SLP234

CYHM;2008-04-10 21:00;CYHM 102100Z 10009KT 15SM FEW160 OVC250 10/00 A3019 RMK AC2CS6 SLP231

CYHM;2008-04-10 22:00;CYHM 102200Z 07010KT 15SM FEW030 BKN140 OVC250 10/00 A3019 RMK CF1AC6CS1 SLP230

CYHM;2008-04-10 23:00;CYHM 102300Z 05017KT 15SM SCT089 OVC140 09/M00 A3012 RMK AC4AC4 PRESFR SLP207

CYHM;2008-04-11 00:00;CYHM 110000Z 05011KT 15SM BKN087 OVC140 07/00 A3015 RMK AC6AC2 SLP217

CYHM;2008-04-11 01:00;CYHM 110100Z 05017KT 15SM BKN084 OVC100 06/01 A3011 RMK AC6AC2 SLP204

CYHM;2008-04-11 01:39;CYHM 110139Z 06015KT 15SM -SHRA BKN076 OVC100 RMK AC6AC2

CYHM;2008-04-11 02:00;CYHM 110200Z 06015KT 15SM -SHRA BKN076 OVC110 05/01 A3011 RMK AC5AC3 SLP205

CYHM;2008-04-11 03:00;CYHM 110300Z 06018KT 15SM -SHRA OVC090 05/01 A3008 RMK AC8 SLP192

CYHM;2008-04-11 04:00;CYHM 110400Z 05018KT 15SM -SHRA OVC087 05/00 A3007 RMK AC8 SLP188

CYHM;2008-04-11 05:00;CYHM 110500Z 05020KT 15SM -SHRA OVC073 05/M00 A3006 RMK AC8 SLP185

CYHM;2008-04-11 06:00;CYHM 110600Z 05020G29KT 10SM -SHRA OVC075 04/01 A3001 RMK AC8 SLP167

CYHM;2008-04-11 07:00;CYHM 110700Z 05025G34KT 6SM -RA FEW062 OVC092 03/01 A3002 RMK SC2AC6 SLP171

CYHM;2008-04-11 08:00;CYHM 110800Z 05027G36KT 6SM -RA FEW032 SCT045 OVC092 03/01 A2997 RMK CF2SC2AC5 SLP155

CYHM;2008-04-11 09:00;CYHM 110900Z 06028G35KT 5SM RA BKN007 OVC025 02/01 A2995 RMK SF5SC3 PK GST 39 PST HR SLP148

CYHM;2008-04-11 10:00;CYHM 111000Z 06028G34KT 6SM RA BKN006 OVC017 02/01 A2991 RERA RMK SF6SC2 PRESFR SLP134

CYHM;2008-04-11 11:00;CYHM 111100Z 05025KT 5SM -RA BKN003 OVC017 02/01 A2991 RMK SF6SC2 SLP134

CYHM;2008-04-11 12:00;CYHM 111200Z 05026KT 5SM -RA BR BKN003 OVC015 02/01 A2986 RMK SF6SC2 SLP120

CYHM;2008-04-11 12:11;CYHM 111211Z 05025G30KT 1SM -RA BR BKN002 OVC012 RMK FG2SF5SC1

CYHM;2008-04-11 12:27;CYHM 111227Z 06024G30KT 1 1/2SM -RA BR OVC002 RMK FG2SF6

CYHM;2008-04-11 13:00;CYHM 111300Z 06028KT 1 1/2SM -RA BR OVC002 02/02 A2981 RMK FG2SF6 SLP102

CYHM;2008-04-11 13:39;CYHM 111339Z 05020G25KT 1/2SM -RA FG OVC002 RMK FG5SF3

CYHM;2008-04-11 13:55;CYHM 111355Z 04020G26KT 1/4SM -RA FG VV001 RMK FG8

CYHM;2008-04-11 14:39;CYHM 111439Z 06026KT 1/2SM -RA FG OVC002 RMK FG4SF4

CYHM;2008-04-11 14:52;CYHM 111452Z 05020G25KT 1 1/2SM -RA BR BKN002 OVC010 RMK FG2SF4SC2

CYHM;2008-04-11 15:00;CYHM 111500Z 05020G25KT 1 1/2SM -RA BR BKN003 OVC010 02/02 A2975 RMK FG2SF5SC1 SLP080

CYHM;2008-04-11 15:24;CYHM 111524Z 05018G24KT 3/4SM -RA BR OVC002 RMK FG3SF5

CYHM;2008-04-11 15:44;CYHM 111544Z 07020KT 1/4SM -DZ FG VV002 RMK FG8

CYHM;2008-04-11 16:00;CYHM 111600Z 04020KT 1/4SM -DZ FG VV001 03/02 A2972 RMK FG8 SLP071

CYHM;2008-04-11 16:43;CYHM 111643Z 05016KT 1/8SM FG VV001 RMK FG8

CYHM;2008-04-11 17:00;CYHM 111700Z 04015KT 1/8SM FG VV001 03/03 A2971 RMK FG8 SLP067

CYHM;2008-04-11 17:17;CYHM 111717Z 05017KT 0SM FG VV001 RMK FG8

CYHM;2008-04-11 18:00;CYHM 111800Z 05015KT 1/8SM FG VV001 04/04 A2968 RMK FG8 SLP059

CYHM;2008-04-11 19:00;CYHM 111900Z 05016KT 1/8SM FG VV001 04/04 A2965 RMK FG8 SLP046

CYHM;2008-04-11 20:00;CYHM 112000Z 04016KT 1/8SM FG VV001 04/04 A2964 RMK FG8 SLP044

CYHM;2008-04-11 21:00;CYHM 112100Z 03014KT 0SM FG VV001 04/04 A2962 RMK FG8 SLP038

CYHM;2008-04-11 22:00;CYHM 112200Z 05020KT 0SM FG VV001 04/03 A2957 RMK FG8 SLP021

CYHM;2008-04-11 23:00;CYHM 112300Z 05016KT 0SM FG VV001 04/03 A2958 RMK FG8 SLP024

CYHM;2008-04-12 00:00;CYHM 120000Z 04017KT 0SM FG VV001 03/03 A2956 RMK FG8 SLP017

CYHM;2008-04-12 01:00;CYHM 120100Z 06010KT 350V090 0SM FG VV001 03/03 A2954 RMK FG8 SLP012

CYHM;2008-04-12 02:00;CYHM 120200Z 05020KT 0SM -SHRA FG VV001 03/03 A2951 RMK FG8 SLP001

CYHM;2008-04-12 02:45;CYHM 120245Z 05018KT 1/8SM -SHRA FG VV002 RMK FG8

CYHM;2008-04-12 03:00;CYHM 120300Z 05020KT 1/4SM -SHRA FG VV002 03/03 A2949 RMK FG8 OCNL LTNG SLP992

CYHM;2008-04-12 03:15;CYHM 120315Z 05017KT 1SM SHRA BR SCT002 OVC013 RMK FG2SF2SC4 OCNL LTNG VIS VRB 3/4 - 11/4

CYHM;2008-04-12 04:00;CYHM 120400Z 05014KT 5SM -SHRA BR SCT003 OVC013 03/03 A2948 RERA RMK SF4SC4 SLP991

CYHM;2008-04-12 04:14;CYHM 120414Z 04017KT 2SM -SHRA BR OVC002 RERA RMK FG1SF7

CYHM;2008-04-12 04:25;CYHM 120425Z 03012KT 1SM BR OVC002 RERA RMK FG2SF6 VIS VRB 3/4 - 11/4

CYHM;2008-04-12 05:00;CYHM 120500Z 36008KT 1/2SM FG OVC002 03/03 A2952 RMK FG4SF4 SLP004

CYHM;2008-04-12 06:00;CYHM 120600Z 04009KT 1/2SM FG OVC002 03/03 A2952 RMK FG4SF4 SLP005

CYHM;2008-04-12 07:00;CYHM 120700Z 10005KT 1/2SM FG VV002 04/03 A2952 RMK FG8 SLP002

CYHM;2008-04-12 07:11;CYHM 120711Z 10007KT 1/8SM FG VV001 RMK FG8

CYHM;2008-04-12 08:00;CYHM 120800Z 17008KT 1/8SM -RA FG VV001 03/03 A2954 RMK FG8 SLP011

CYHM;2008-04-12 09:00;CYHM 120900Z 19007KT 1/8SM -RA FG VV002 04/03 A2954 RMK FG8 SLP011

CYHM;2008-04-12 10:00;CYHM 121000Z 00000KT 1/8SM FG VV001 04/04 A2954 RMK FG8 SLP011

CYHM;2008-04-12 11:00;CYHM 121100Z 18002KT 1/8SM FG VV001 04/04 A2954 RMK FG8 SLP011

CYHM;2008-04-12 11:17;CYHM 121117Z 19004KT 1/2SM FG BKN050 BKN091 RMK FG2SC3AC2

CYHM;2008-04-12 11:35;CYHM 121135Z 19004KT 1SM BR BKN040 BKN055 BKN095 RMK FG2SC3SC2AC1

CYHM;2008-04-12 11:43;CYHM 121143Z 19004KT 2SM BR BKN040 BKN048 BKN098 RMK FG1SC4SC2AC1

CYHM;2008-04-12 12:00;CYHM 121200Z 19006KT 4SM BR BKN037 BKN050 BKN095 05/05 A2955 RMK SC5SC2AC1 SLP012

CYHM;2008-04-12 13:00;CYHM 121300Z 22010KT 15SM BKN038 OVC100 05/05 A2955 RMK SC7AC1 SLP015

CYHM;2008-04-12 14:00;CYHM 121400Z 23012KT 15SM BKN033 OVC042 07/05 A2956 RMK SC6SC2 SLP016

CYHM;2008-04-12 15:00;CYHM 121500Z 24015KT 15SM FEW025 BKN045 OVC060 07/05 A2956 RMK CU1SC6SC2 SLP017

CYHM;2008-04-12 15:39;CYHM 121539Z 25015KT 15SM -SHRA FEW025 BKN037 BKN050 RMK CU2SC4SC2

CYHM;2008-04-12 16:00;CYHM 121600Z 25015KT 15SM -SHRA FEW019 BKN028 OVC034 08/05 A2957 RMK CU2SC6SC1 SLP019

CYHM;2008-04-12 17:00;CYHM 121700Z 26014KT 15SM -DZ FEW022 BKN038 OVC054 08/05 A2957 RMK CU2SC4SC2 SLP020

CYHM;2008-04-12 17:15;CYHM 121715Z 25017KT 15SM FEW022 BKN034 OVC064 RMK CU1SC5SC2

CYHM;2008-04-12 17:48;CYHM 121748Z 24018G24KT 15SM -SHRA FEW024 BKN037 OVC042 RMK CU2SC4SC2

CYHM;2008-04-12 18:00;CYHM 121800Z 24018G24KT 15SM -SHRA FEW022 BKN028 OVC034 08/04 A2958 RMK CU2SC4SC2 SLP023

CYHM;2008-04-12 19:00;CYHM 121900Z 21020KT 15SM -SHRA BKN021 OVC078 09/05 A2959 RMK SC6AC2 PCPN VRY LGT SLP025

CYHM;2008-04-12 20:00;CYHM 122000Z 23013KT 15SM FEW026 BKN045 BKN077 08/05 A2959 RMK SC2SC2AC2 SLP026

CYHM;2008-04-12 21:00;CYHM 122100Z 22022KT 15SM BKN022 OVC045 08/04 A2961 RMK SC6SC2 SLP032

CYHM;2008-04-12 21:09;CYHM 122109Z 24016KT 15SM -SHRA BKN022 OVC045 RMK SC7SC1

CYHM;2008-04-12 22:00;CYHM 122200Z 24009KT 15SM -SHRA OVC023 06/04 A2964 RMK SC8 PCPN VRY LGT SLP041

CYHM;2008-04-12 23:00;CYHM 122300Z 24012KT 15SM -SHRA FEW026 OVC042 06/04 A2966 RMK SC2SC6 PCPN VRY LGT SLP049

CYHM;2008-04-12 23:44;CYHM 122344Z 24010KT 15SM SCT022 OVC034 RMK SC3SC5

CYHM;2008-04-13 00:00;CYHM 130000Z 24012KT 15SM BKN018 OVC034 06/04 A2968 RMK SC6SC2 SLP056

CYHM;2008-04-13 01:00;CYHM 130100Z 22009KT 15SM FEW023 OVC040 06/04 A2969 RMK SC2SC6 SLP061

CYHM;2008-04-13 02:00;CYHM 130200Z 23007KT 15SM BKN026 OVC041 06/04 A2971 RMK SC6SC2 SLP067

CYHM;2008-04-13 02:25;CYHM 130225Z 00000KT 5SM -SHRA FEW010 OVC020 RMK CF2SC6

CYHM;2008-04-13 03:00;CYHM 130300Z 24008KT 7SM -SHRA FEW008 OVC033 05/04 A2971 RMK CF2SC6 SLP068

CYHM;2008-04-13 04:00;CYHM 130400Z 02009KT 6SM -SHRA FEW004 OVC015 05/04 A2972 RMK CF2SC6 SLP070

CYHM;2008-04-13 04:15;CYHM 130415Z 03012KT 6SM -SHRA OVC006 RMK SF8

CYHM;2008-04-13 05:00;CYHM 130500Z 06016KT 6SM -SHRA BKN005 OVC015 02/01 A2973 RMK SF6SC2 SLP074

CYHM;2008-04-13 06:00;CYHM 130600Z 04020KT 6SM -RA SCT007 OVC039 02/01 A2973 RMK SF3SC5 SLP075

CYHM;2008-04-13 06:13;CYHM 130613Z 05015G20KT 6SM -RA BKN004 OVC015 RMK SF6SC2 CIG RAG

CYHM;2008-04-13 07:00;CYHM 130700Z 04018G24KT 6SM -RA BKN005 OVC025 02/01 A2974 RMK SF6SC2 CIG RAG SLP076

CYHM;2008-04-13 08:00;CYHM 130800Z 05020KT 6SM -RA BKN008 OVC020 02/01 A2974 RMK SF6SC2 SLP077

CYHM;2008-04-13 08:09;CYHM 130809Z 05020G31KT 10SM -RASN BKN008 OVC030 RMK SF6SC2

CYHM;2008-04-13 09:00;CYHM 130900Z 05017G24KT 15SM -SN FEW014 OVC028 02/M01 A2975 RMK CF1SC7 SLP079

CYHM;2008-04-13 10:00;CYHM 131000Z 04016KT 6SM -SN FEW010 OVC015 02/M01 A2976 RMK CF2SC6 SLP084

CYHM;2008-04-13 10:22;CYHM 131022Z CCA 03013KT 2 1/2SM -SN FEW010 BKN017 OVC026 RMK CF2SC6SC1

CYHM;2008-04-13 10:31;CYHM 131031Z 04014KT 5SM -SN FEW010 BKN018 OVC052 RMK CF1SC6SC2

CYHM;2008-04-13 10:46;CYHM 131046Z 02020KT 1 1/2SM -SN FEW011 BKN018 OVC052 RMK SN1CF2SC5SC1

CYHM;2008-04-13 11:00;CYHM 131100Z 03020KT 1 1/4SM -SN BKN009 OVC018 00/M01 A2980 RMK SN2CF4SC2 SLP096

CYHM;2008-04-13 11:20;CYHM 131120Z 05016KT 2 1/2SM -SN FEW009 BKN018 OVC030 RMK CF2SC3SC2

CYHM;2008-04-13 11:45;CYHM 131145Z 03015KT 5SM -SN FEW009 BKN017 OVC050 RMK CF1SC4SC3

CYHM;2008-04-13 12:00;CYHM 131200Z CCA 01011KT 2 1/2SM -SN FEW010 BKN019 OVC050 01/M01 A2983 RMK CF2SC5SC1 SLP109

CYHM;2008-04-13 12:17;CYHM 131217Z 01010KT 12SM -SN FEW012 BKN022 BKN050 RMK CF2SC4SC2

CYHM;2008-04-13 12:52;CYHM 131252Z 02011KT 15SM SCT022 BKN055 BKN081 RMK SC3SC3AC1

CYHM;2008-04-13 13:00;CYHM 131300Z 02010KT 15SM SCT023 BKN055 BKN080 02/M01 A2985 RMK SC3SC2AC2 SLP116

CYHM;2008-04-13 14:00;CYHM 131400Z 03013KT 15SM FEW024 BKN090 03/M02 A2987 RMK CU2AC2 SLP122

CYHM;2008-04-13 15:00;CYHM 131500Z 03014KT 15SM BKN032 BKN090 03/M04 A2989 RMK SC5AC1 AC TR SLP129

CYHM;2008-04-13 16:00;CYHM 131600Z 03014KT 15SM BKN035 05/M03 A2990 RMK SC6 SLP131

CYHM;2008-04-13 17:00;CYHM 131700Z 01014KT 15SM BKN038 05/M03 A2989 RMK SC6 SLP129

CYHM;2008-04-13 18:00;CYHM 131800Z 33012KT 15SM BKN041 06/M03 A2989 RMK SC6 SLP130

CYHM;2008-04-13 19:00;CYHM 131900Z 02011G17KT 330V080 15SM BKN042 05/M03 A2991 RMK SC5 SLP134

CYHM;2008-04-13 20:00;CYHM 132000Z 03013KT 15SM BKN048 06/M03 A2991 RMK SC6 SLP134

CYHM;2008-04-13 21:00;CYHM 132100Z 35009KT 15SM BKN051 06/M03 A2991 RMK SC5 SLP134

CYHM;2008-04-13 22:00;CYHM 132200Z 03009KT 15SM BKN049 06/M03 A2992 RMK SC5 SLP140

CYHM;2008-04-13 23:00;CYHM 132300Z 01013KT 15SM SCT045 05/M02 A2994 RMK SC3 SLP146

CYHM;2008-04-14 00:00;CYHM 140000Z 01012KT 15SM FEW043 FEW250 04/M04 A2997 RMK SC2CI1 SLP156

CYHM;2008-04-14 01:00;CYHM 140100Z 35011KT 15SM FEW043 FEW230 03/M04 A2998 RMK SC1CI1 CI TR SLP162

CYHM;2008-04-14 02:00;CYHM 140200Z 34008KT 15SM FEW210 02/M04 A3001 RMK CI1 SLP171

CYHM;2008-04-14 03:00;CYHM 140300Z 32007KT 15SM BKN062 02/M04 A3002 RMK SC7 SLP173

CYHM;2008-04-14 04:00;CYHM 140400Z 33010KT 15SM BKN062 03/M04 A3002 RMK SC7 SLP174

CYHM;2008-04-14 05:00;CYHM 140500Z 34007KT 15SM BKN064 02/M04 A3003 RMK SC7 SLP177

CYHM;2008-04-14 06:00;CYHM 140600Z 32003KT 15SM BKN064 02/M03 A3003 RMK SC7 SLP178

CYHM;2008-04-14 07:00;CYHM 140700Z 30004KT 15SM OVC062 02/M03 A3004 RMK SC8 SLP179

CYHM;2008-04-14 08:00;CYHM 140800Z 33005KT 15SM OVC062 02/M04 A3004 RMK SC8 SLP181

CYHM;2008-04-14 09:00;CYHM 140900Z 34007KT 15SM FEW058 FEW200 01/M04 A3005 RMK SC2CI1 SLP183

CYHM;2008-04-14 10:00;CYHM 141000Z 35007KT 15SM FEW055 BKN240 01/M05 A3005 RMK SC1CI4 SLP185

CYHM;2008-04-14 11:00;CYHM 141100Z 01006KT 15SM FEW045 BKN220 01/M05 A3008 RMK SC1CI2 SLP193

CYHM;2008-04-14 12:00;CYHM 141200Z 02006KT 15SM BKN220 02/M05 A3010 RMK CI2 CONTRAIL SLP201

CYHM;2008-04-14 13:00;CYHM 141300Z 03006KT 15SM FEW025 SCT220 04/M05 A3012 RMK CU1CI2 CONTRAIL CU TR SLP207

CYHM;2008-04-14 14:00;CYHM 141400Z 03014KT 15SM FEW025 SCT220 05/M05 A3013 RMK CU1CI2 CU TR CONTRAIL SLP212

CYHM;2008-04-14 15:00;CYHM 141500Z 04015G22KT 15SM FEW025 SCT220 06/M03 A3014 RMK CU1CI2 CONTRAIL SLP215

CYHM;2008-04-14 16:00;CYHM 141600Z 02006KT 15SM FEW025 SCT220 07/M04 A3015 RMK CU1CI1 CU TR SLP217

CYHM;2008-04-14 17:00;CYHM 141700Z 03006KT 15SM FEW050 FEW220 07/M04 A3015 RMK CU1CI1 SLP217

CYHM;2008-04-14 18:00;CYHM 141800Z 03007KT 15SM FEW050 FEW220 08/M03 A3014 RMK CU2CI0 CI TR SLP214

CYHM;2008-04-14 19:00;CYHM 141900Z 04004KT 15SM FEW058 FEW220 09/M03 A3013 RMK SC2CI1 SLP211

CYHM;2008-04-14 20:00;CYHM 142000Z 06004KT 15SM BKN065 09/M05 A3012 RMK SC5 SLP207

CYHM;2008-04-14 21:00;CYHM 142100Z 29008KT 15SM BKN068 11/M02 A3011 RMK AC6 SLP204

CYHM;2008-04-14 22:00;CYHM 142200Z 04005KT 15SM BKN075 09/M03 A3012 RMK AC6 SLP206

CYHM;2008-04-14 23:00;CYHM 142300Z 14002KT 15SM BKN068 10/M04 A3013 RMK AC6 WND L/V SLP208

CYHM;2008-04-15 00:00;CYHM 150000Z 17008KT 15SM BKN068 07/M01 A3013 RMK AC5 SLP210

CYHM;2008-04-15 01:00;CYHM 150100Z 07007KT 15SM FEW060 04/M01 A3016 RMK SC1 SLP219

CYHM;2008-04-15 02:00;CYHM 150200Z 04008KT 15SM FEW060 04/M03 A3018 RMK SC1 SLP228

CYHM;2008-04-15 03:00;CYHM 150300Z 02004KT 15SM FEW032 03/M05 A3020 RMK CU1 CU TR SLP232

CYHM;2008-04-15 04:00;CYHM 150400Z 01001KT 15SM FEW030 02/M05 A3020 RMK CU1 CU TR SLP235

CYHM;2008-04-15 05:00;CYHM 150500Z 32004KT 15SM SKC 01/M06 A3021 RMK SLP236

CYHM;2008-04-15 06:00;CYHM 150600Z 33004KT 15SM SKC 00/M06 A3021 RMK SLP237

CYHM;2008-04-15 07:00;CYHM 150700Z 33005KT 15SM SKC M00/M05 A3020 RMK SLP236

CYHM;2008-04-15 08:00;CYHM 150800Z 33005KT 15SM SKC M01/M05 A3021 RMK SLP238

CYHM;2008-04-15 09:00;CYHM 150900Z 33004KT 15SM SKC M01/M05 A3022 RMK SLP240

CYHM;2008-04-15 10:00;CYHM 151000Z 29002KT 15SM SKC M01/M05 A3022 RMK SLP242

CYHM;2008-04-15 11:00;CYHM 151100Z 27003KT 15SM SKC M03/M05 A3024 RMK SLP249

CYHM;2008-04-15 12:00;CYHM 151200Z 27006KT 15SM SKC M01/M03 A3026 RMK SLP256

CYHM;2008-04-15 13:00;CYHM 151300Z 25006KT 15SM SKC 02/M03 A3029 RMK SLP264

CYHM;2008-04-15 14:00;CYHM 151400Z 19002KT 15SM FEW240 05/M05 A3029 RMK CI1 SLP266

CYHM;2008-04-15 15:00;CYHM 151500Z 25006KT 15SM SKC 07/M05 A3029 RMK SLP265

CYHM;2008-04-15 16:00;CYHM 151600Z 26012KT 15SM FEW240 07/M06 A3028 RMK CI1 CI TR SLP262

CYHM;2008-04-15 17:00;CYHM 151700Z 26006KT 15SM FEW240 09/M07 A3026 RMK CI1 SLP254

CYHM;2008-04-15 18:00;CYHM 151800Z 25010KT 15SM SKC 10/M06 A3024 RMK SLP247

CYHM;2008-04-15 19:00;CYHM 151900Z 21003KT 15SM FEW250 10/M06 A3022 RMK CI1 WND L/V CI TR SLP240

CYHM;2008-04-15 20:00;CYHM 152000Z 20013KT 15SM FEW250 11/02 A3020 RMK CI1 CONTRAIL SLP233

CYHM;2008-04-15 21:00;CYHM 152100Z 20010KT 15SM SCT250 11/01 A3018 RMK CI1 CONTRAILS SLP228

CYHM;2008-04-15 22:00;CYHM 152200Z 19012KT 15SM BKN250 11/01 A3018 RMK CI1 CONTRAILS SLP226

CYHM;2008-04-15 23:00;CYHM 152300Z 22014KT 15SM SCT250 11/00 A3017 RMK CI1 CONTRAILS SLP223

CYHM;2008-04-16 00:00;CYHM 160000Z 21012KT 15SM FEW250 08/M00 A3017 RMK CI1 SLP224

CYHM;2008-04-16 01:00;CYHM 160100Z 23009KT 15SM FEW250 06/M01 A3018 RMK CI1 SLP229

CYHM;2008-04-16 02:00;CYHM 160200Z 22007KT 15SM FEW250 04/M01 A3018 RMK CI1 SLP229

CYHM;2008-04-16 03:00;CYHM 160300Z 20006KT 15SM FEW250 03/M02 A3018 RMK CI1 CI TR SLP227

CYHM;2008-04-16 04:00;CYHM 160400Z 19008KT 15SM FEW250 03/M02 A3017 RMK CI1 CI TR SLP225

CYHM;2008-04-16 05:00;CYHM 160500Z 19006KT 15SM FEW250 02/M01 A3017 RMK CI1 CI TR SLP224

CYHM;2008-04-16 06:00;CYHM 160600Z 20006KT 15SM FEW250 02/M02 A3017 RMK CI1 CI TR SLP222

CYHM;2008-04-16 07:00;CYHM 160700Z 21006KT 15SM BKN210 01/M02 A3016 RMK CI2 SLP219

CYHM;2008-04-16 08:00;CYHM 160800Z 21005KT 15SM BKN200 02/M03 A3016 RMK CI2 SLP221

CYHM;2008-04-16 09:00;CYHM 160900Z 21006KT 15SM BKN200 02/M02 A3017 RMK CI2 SLP224

CYHM;2008-04-16 10:00;CYHM 161000Z 20006KT 15SM BKN250 03/M02 A3018 RMK CI2 CONTRAILS SLP226

CYHM;2008-04-16 11:00;CYHM 161100Z 19010KT 15SM BKN220 03/M01 A3019 RMK CI4 SLP230

CYHM;2008-04-16 12:00;CYHM 161200Z 20008KT 15SM BKN220 05/M01 A3021 RMK CI3 CONTRAIL SLP237

CYHM;2008-04-16 13:00;CYHM 161300Z 20012KT 15SM BKN240 07/00 A3021 RMK CI3 CONTRAIL SLP237

CYHM;2008-04-16 14:00;CYHM 161400Z 20012KT 15SM BKN240 11/01 A3021 RMK CI4 CONTRAIL SLP238

CYHM;2008-04-16 15:00;CYHM 161500Z 22016KT 15SM BKN240 12/M01 A3020 RMK CI2 SLP233

CYHM;2008-04-16 16:00;CYHM 161600Z 21013KT 15SM SCT240 14/00 A3019 RMK CI2 CONTRAIL SLP228

CYHM;2008-04-16 17:00;CYHM 161700Z 20015KT 15SM FEW240 15/M02 A3017 RMK CI1 SLP223

CYHM;2008-04-16 18:00;CYHM 161800Z 19018G23KT 15SM FEW240 16/M01 A3016 RMK CI1 SLP217

CYHM;2008-04-16 19:00;CYHM 161900Z 19020G28KT 15SM FEW250 16/M00 A3012 RMK CI1 SLP206

CYHM;2008-04-16 20:00;CYHM 162000Z 20020KT 15SM BKN250 16/M01 A3011 RMK CI1 CONTRAILS SLP202

CYHM;2008-04-16 21:00;CYHM 162100Z 21015G23KT 15SM SCT250 17/M04 A3010 RMK CI1 SLP197

CYHM;2008-04-16 22:00;CYHM 162200Z 22013G22KT 15SM FEW250 17/M02 A3008 RMK CI1 SLP190

CYHM;2008-04-16 23:00;CYHM 162300Z 22012G20KT 15SM BKN250 16/M01 A3008 RMK CI1 SLP190

CYHM;2008-04-17 00:00;CYHM 170000Z 22007KT 15SM BKN250 12/00 A3008 RMK CI2 SLP190

CYHM;2008-04-17 01:00;CYHM 170100Z 19008KT 15SM BKN250 11/M01 A3007 RMK CI2 SLP186

CYHM;2008-04-17 02:00;CYHM 170200Z 18010KT 15SM SCT250 09/M02 A3006 RMK CI1 SLP183

CYHM;2008-04-17 03:00;CYHM 170300Z 20007KT 15SM FEW220 06/M02 A3006 RMK CI1 SLP184

CYHM;2008-04-17 04:00;CYHM 170400Z 22006KT 15SM FEW210 05/M02 A3007 RMK CI1 SLP186

CYHM;2008-04-17 05:00;CYHM 170500Z 20007KT 15SM FEW200 06/M03 A3007 RMK CI1 SLP186

CYHM;2008-04-17 06:00;CYHM 170600Z 23006KT 15SM FEW210 05/M02 A3007 RMK CI1 SLP185

CYHM;2008-04-17 07:00;CYHM 170700Z 22006KT 15SM SKC 04/M02 A3007 RMK SLP187

CYHM;2008-04-17 08:00;CYHM 170800Z 22007KT 15SM FEW210 04/M02 A3008 RMK CI1 SLP189

CYHM;2008-04-17 09:00;CYHM 170900Z 21005KT 15SM FEW210 05/M02 A3007 RMK CI1 SLP188

CYHM;2008-04-17 10:00;CYHM 171000Z 20007KT 15SM FEW090 FEW210 05/M02 A3007 RMK AC1CI1 SLP186

CYHM;2008-04-17 11:00;CYHM 171100Z 18007KT 15SM FEW100 FEW220 08/M01 A3008 RMK AC1CI1 AC TR CONTRAIL SLP189

CYHM;2008-04-17 12:00;CYHM 171200Z 19008KT 15SM FEW100 FEW220 09/00 A3009 RMK AC1CI1 AC TR CI TR SLP193

CYHM;2008-04-17 13:00;CYHM 171300Z 19008KT 15SM FEW100 FEW220 12/02 A3009 RMK AC1CI1 AC TR CI TR SLP193

CYHM;2008-04-17 14:00;CYHM 171400Z 22012KT 15SM FEW140 SCT220 15/04 A3008 RMK AC1CI1 SLP190

CYHM;2008-04-17 15:00;CYHM 171500Z 22012KT 15SM FEW140 FEW220 17/04 A3008 RMK AC1CI1 AC TR SLP190

CYHM;2008-04-17 16:00;CYHM 171600Z 22012KT 15SM FEW140 SCT220 19/05 A3006 RMK AC1CI2 AC TR SLP181

CYHM;2008-04-17 17:00;CYHM 171700Z 18012KT 15SM FEW140 SCT220 20/05 A3004 RMK AC1CI1 SLP176

CYHM;2008-04-17 18:00;CYHM 171800Z 22014KT 15SM FEW170 SCT220 21/06 A3004 RMK AC1CI2 SLP175

CYHM;2008-04-17 20:00;CYHM 172000Z 22017KT 15SM SCT250 21/05 A3003 RMK CI2 SLP173

CYHM;2008-04-17 21:00;CYHM 172100Z 23013KT 15SM BKN250 21/05 A3003 RMK CI2 SLP170

CYHM;2008-04-17 22:00;CYHM 172200Z 23016KT 15SM BKN250 20/04 A3003 RMK CI3 SLP171

CYHM;2008-04-17 23:00;CYHM 172300Z 25012KT 15SM BKN250 20/05 A3003 RMK CI2 SLP171

CYHM;2008-04-18 00:00;CYHM 180000Z 25008KT 15SM BKN230 18/06 A3002 RMK CI2 SLP167

CYHM;2008-04-18 01:00;CYHM 180100Z 24006KT 15SM FEW170 BKN230 15/06 A3003 RMK AC1CI2 SLP170

CYHM;2008-04-18 02:00;CYHM 180200Z 21006KT 15SM FEW150 BKN240 14/06 A3003 RMK AC2CI2 SLP171

CYHM;2008-04-18 03:00;CYHM 180300Z 20006KT 15SM SCT230 11/06 A3003 RMK CI2 SLP170

CYHM;2008-04-18 04:00;CYHM 180400Z 20005KT 15SM FEW210 09/05 A3003 RMK CI2 SLP171

CYHM;2008-04-18 05:00;CYHM 180500Z 24005KT 15SM FEW210 10/05 A3004 RMK CI1 SLP174

CYHM;2008-04-18 06:00;CYHM 180600Z 25004KT 15SM FEW210 09/05 A3004 RMK CI1 SLP173

CYHM;2008-04-18 07:00;CYHM 180700Z 25003KT 15SM SKC 09/05 A3003 RMK SLP171

CYHM;2008-04-18 08:00;CYHM 180800Z 00000KT 15SM FEW210 09/04 A3002 RMK CI1 SLP166

CYHM;2008-04-18 09:00;CYHM 180900Z 00000KT 15SM SCT210 09/04 A3002 RMK CI2 SLP167

CYHM;2008-04-18 10:00;CYHM 181000Z 23003KT 15SM FEW210 08/04 A3003 RMK CI2 SLP169

CYHM;2008-04-18 11:00;CYHM 181100Z 16002KT 15SM FEW210 09/04 A3004 RMK CI1 SLP172

CYHM;2008-04-18 12:00;CYHM 181200Z 17003KT 15SM SKC 10/06 A3005 RMK SLP177

CYHM;2008-04-18 13:00;CYHM 181300Z 20006KT 15SM SKC 13/07 A3006 RMK SLP181

CYHM;2008-04-18 14:00;CYHM 181400Z 23003KT 15SM FEW240 16/08 A3005 RMK CI0 CI TR SLP178

CYHM;2008-04-18 15:00;CYHM 181500Z 21002KT 15SM SCT240 19/09 A3005 RMK CI1 SLP178

CYHM;2008-04-18 16:00;CYHM 181600Z 22005KT 15SM SCT240 22/10 A3003 RMK CI2 SLP171

CYHM;2008-04-18 17:00;CYHM 181700Z 19006KT 15SM FEW240 23/11 A3002 RMK CI1 CONTRAIL SLP168

CYHM;2008-04-18 18:00;CYHM 181800Z 20012KT 15SM FEW240 24/11 A3001 RMK CI1 CI TR SLP161

CYHM;2008-04-18 19:00;CYHM 181900Z CCA 18017KT 15SM FEW250 24/10 A2999 RMK CI0 SLP155

CYHM;2008-04-18 20:00;CYHM 182000Z 18017KT 15SM FEW250 23/09 A2997 RMK CI0 SLP151

CYHM;2008-04-18 21:00;CYHM 182100Z 20013KT 15SM FEW250 24/09 A2996 RMK CI0 SLP147

CYHM;2008-04-18 22:00;CYHM 182200Z 23013KT 15SM FEW250 23/06 A2996 RMK CI0 SLP145

CYHM;2008-04-18 23:00;CYHM 182300Z 24008KT 15SM SCT250 23/07 A2995 RMK CI1 CONTRAILS SLP143

CYHM;2008-04-19 00:00;CYHM 190000Z 19003KT 15SM BKN250 20/09 A2996 RMK CI1 CONTRAILS SLP145

CYHM;2008-04-19 01:00;CYHM 190100Z 19002KT 15SM SCT250 19/08 A2996 RMK CI1 SLP147

CYHM;2008-04-19 02:00;CYHM 190200Z 18003KT 15SM FEW250 16/09 A2997 RMK CI1 SLP150

CYHM;2008-04-19 03:00;CYHM 190300Z 00000KT 15SM FEW250 13/08 A2997 RMK CI2 SLP150

CYHM;2008-04-19 04:00;CYHM 190400Z 00000KT 15SM SCT250 13/08 A2997 RMK CI3 SLP149

CYHM;2008-04-19 05:00;CYHM 190500Z 00000KT 15SM SCT220 11/07 A2997 RMK CI2 SLP148

CYHM;2008-04-19 06:00;CYHM 190600Z 01003KT 15SM SCT220 10/07 A2995 RMK CI3 SLP142

CYHM;2008-04-19 07:00;CYHM 190700Z 05005KT 15SM SCT220 10/06 A2993 RMK CI2 SLP134

CYHM;2008-04-19 08:00;CYHM 190800Z 05009KT 10SM SCT220 10/06 A2992 RMK CI2 SLP131

CYHM;2008-04-19 09:00;CYHM 190900Z 05011KT 10SM SCT220 09/06 A2991 RMK CI2 SLP130

CYHM;2008-04-19 10:00;CYHM 191000Z 05009KT 10SM FEW210 09/06 A2991 RMK CI2 SLP129

CYHM;2008-04-19 11:00;CYHM 191100Z 04010KT 8SM BKN210 09/06 A2992 RMK CI3 SLP131

CYHM;2008-04-19 12:00;CYHM 191200Z 05010KT 8SM BKN240 11/07 A2992 RMK CI3 CONTRAIL SLP133

CYHM;2008-04-19 13:00;CYHM 191300Z 05012KT 7SM FEW180 BKN210 13/08 A2992 RMK AC1CI3 SLP134

CYHM;2008-04-19 14:00;CYHM 191400Z 04016KT 10SM BKN210 15/08 A2992 RMK CI2 SLP132

CYHM;2008-04-19 15:00;CYHM 191500Z 05016KT 10SM BKN210 17/08 A2991 RMK CI3 SLP130

CYHM;2008-04-19 16:00;CYHM 191600Z 04018KT 15SM BKN210 18/08 A2990 RMK CI3 SLP126

CYHM;2008-04-19 17:00;CYHM 191700Z 05016KT 15SM BKN210 18/08 A2989 RMK CI5 SLP123

CYHM;2008-04-19 18:00;CYHM 191800Z 03014KT 15SM BKN210 18/08 A2987 RMK CS5 HALO SLP117

CYHM;2008-04-19 19:00;CYHM 191900Z 04016KT 15SM BKN240 18/08 A2986 RMK CI5 SLP112

CYHM;2008-04-19 20:00;CYHM 192000Z 05017KT 15SM BKN230 17/07 A2983 RMK CI5 SLP103

CYHM;2008-04-19 21:00;CYHM 192100Z 04017KT 15SM BKN220 17/07 A2981 RMK CI6 SLP098

CYHM;2008-04-19 22:00;CYHM 192200Z 04016KT 15SM BKN210 16/06 A2981 RMK CI6 SLP098

CYHM;2008-04-19 23:00;CYHM 192300Z 03014KT 15SM FEW180 BKN230 15/06 A2981 RMK AC2CI6 SLP098

CYHM;2008-04-20 00:00;CYHM 200000Z 03013KT 15SM FEW130 SCT180 BKN230 16/05 A2980 RMK AC1AC3CI3 SLP093

CYHM;2008-04-20 01:00;CYHM 200100Z 03019KT 15SM FEW140 SCT180 BKN210 16/05 A2980 RMK AC2AC2CI2 SLP092

CYHM;2008-04-20 02:00;CYHM 200200Z 04013KT 15SM FEW160 BKN210 14/05 A2981 RMK AC2CI2 SLP096

CYHM;2008-04-20 03:00;CYHM 200300Z 05009KT 15SM BKN170 13/05 A2982 RMK AC6 SLP098

CYHM;2008-04-20 04:00;CYHM 200400Z 05006KT 15SM FEW170 BKN230 11/05 A2982 RMK AC2CI3 SLP099

CYHM;2008-04-20 05:00;CYHM 200500Z 05009KT 15SM FEW150 BKN210 10/05 A2983 RMK AC2CI2 SLP103

CYHM;2008-04-20 06:00;CYHM 200600Z 07006KT 15SM BKN220 08/04 A2984 RMK CI4 SLP107

CYHM;2008-04-20 07:00;CYHM 200700Z 03005KT 15SM BKN210 08/04 A2984 RMK CI4 SLP107

CYHM;2008-04-20 08:00;CYHM 200800Z 05007KT 15SM BKN140 08/05 A2984 RMK AC5 SLP108

CYHM;2008-04-20 09:00;CYHM 200900Z 05008KT 15SM BKN140 08/05 A2985 RMK AC5 SLP112

CYHM;2008-04-20 10:00;CYHM 201000Z 05009KT 10SM FEW150 SCT220 08/05 A2987 RMK AC2CI1 SLP116

CYHM;2008-04-20 11:00;CYHM 201100Z 06009KT 9SM FEW150 FEW220 07/05 A2989 RMK AC2CI1 SLP124

CYHM;2008-04-20 12:00;CYHM 201200Z 05008KT 8SM BKN110 BKN160 10/06 A2991 RMK AC5AC2 SLP130

CYHM;2008-04-20 13:00;CYHM 201300Z 05009KT 9SM BKN110 BKN150 10/06 A2993 RMK AC6AC1 SLP136

CYHM;2008-04-20 14:00;CYHM 201400Z 05012KT 10SM BKN100 12/07 A2994 RMK AC6 SLP140

CYHM;2008-04-20 15:00;CYHM 201500Z 05012KT 10SM FEW120 BKN250 14/08 A2995 RMK AC2CI2 SLP143

CYHM;2008-04-20 16:00;CYHM 201600Z 06013KT 10SM FEW120 SCT250 15/09 A2997 RMK AC2CI1 SLP149

CYHM;2008-04-20 17:00;CYHM 201700Z 05010KT 10SM BKN110 17/09 A2997 RMK AC6 SLP151

CYHM;2008-04-20 18:00;CYHM 201800Z 06012KT 12SM FEW060 SCT110 BKN250 18/09 A2997 RMK SC2AC2CI1 SLP152

CYHM;2008-04-20 19:00;CYHM 201900Z 01011KT 8SM FEW060 SCT075 BKN240 18/10 A2998 RMK SC2AC2CI1 HZ SLP155

CYHM;2008-04-20 20:00;CYHM 202000Z CCA 05012KT 8SM FEW050 SCT110 BKN170 BKN230 19/09 A2998 RMK CU1AC2AC3CI1 HZ SLP156

CYHM;2008-04-20 21:00;CYHM 202100Z CCA 02007KT 8SM FEW040 FEW062 SCT180 BKN230 18/09 A3000 RMK CU1SC2AC2CI2 HZ SLP161

CYHM;2008-04-20 22:00;CYHM 202200Z 16013KT 10SM SCT040 BKN160 BKN230 19/11 A3002 RMK SC3AC2CI2 SLP167

CYHM;2008-04-20 23:00;CYHM 202300Z 14007KT 10SM SCT040 BKN180 BKN210 18/11 A3004 RMK SC3AC2CI2 SLP173

CYHM;2008-04-21 00:00;CYHM 210000Z 09005KT 12SM FEW040 SCT088 BKN220 17/11 A3004 RMK SC2AC2CI2 CONTRAIL SLP175

CYHM;2008-04-21 01:00;CYHM 210100Z CCA 04007KT 12SM FEW035 SCT080 BKN240 13/08 A3006 RMK SC2AC2CI2 SLP182

CYHM;2008-04-21 02:00;CYHM 210200Z 04007KT 15SM FEW040 BKN240 13/08 A3007 RMK SC2CI2 SLP186

CYHM;2008-04-21 03:00;CYHM 210300Z 06006KT 15SM FEW090 BKN230 12/07 A3009 RMK AC2CI3 SLP192

CYHM;2008-04-21 04:00;CYHM 210400Z 05007KT 15SM FEW078 BKN230 11/07 A3010 RMK AC1CI3 SLP195

CYHM;2008-04-21 05:00;CYHM 210500Z 10007KT 15SM BKN098 12/08 A3011 RMK AC4 SLP198

CYHM;2008-04-21 06:00;CYHM 210600Z 09005KT 15SM FEW080 SCT110 11/08 A3011 RMK AC1AC3 SLP199

CYHM;2008-04-21 07:00;CYHM 210700Z 04009KT 15SM -SHRA OVC100 11/07 A3011 RMK AC8 SLP198

CYHM;2008-04-21 07:32;CYHM 210732Z 04007KT 15SM FEW100 RMK AC2

CYHM;2008-04-21 08:00;CYHM 210800Z 04007KT 15SM BKN100 09/06 A3012 RMK AC5 SLP202

CYHM;2008-04-21 09:00;CYHM 210900Z 03006KT 15SM OVC088 09/07 A3013 RMK AC8 SLP207

CYHM;2008-04-21 10:00;CYHM 211000Z 05008KT 10SM SCT100 09/07 A3016 RMK AC3 SLP214

CYHM;2008-04-21 11:00;CYHM 211100Z 03007KT 15SM FEW100 BKN220 10/08 A3017 RMK AC2CI2 SLP219

CYHM;2008-04-21 12:00;CYHM 211200Z 05008KT 15SM FEW100 SCT220 10/09 A3019 RMK AC1CI2 SLP225

CYHM;2008-04-21 13:00;CYHM 211300Z 04008KT 15SM FEW220 12/09 A3021 RMK CI1 SLP231

CYHM;2008-04-21 14:00;CYHM 211400Z 04009KT 15SM SCT220 14/10 A3021 RMK CI2 CONTRAIL SLP233

CYHM;2008-04-21 15:00;CYHM 211500Z 05010KT 15SM SCT220 16/11 A3023 RMK CI2 SLP239

CYHM;2008-04-21 16:00;CYHM 211600Z 05010KT 15SM FEW025 FEW220 18/12 A3023 RMK CU1CI1 SLP238

CYHM;2008-04-21 17:00;CYHM 211700Z 05012KT 15SM FEW025 FEW220 19/12 A3021 RMK CU1CI1 CU TR SLP234

CYHM;2008-04-21 18:00;CYHM 211800Z 04011KT 15SM FEW060 FEW220 19/12 A3020 RMK CU1CI0 SC ASOCTD CI TR SLP229

CYHM;2008-04-21 19:00;CYHM 211900Z 05014KT 15SM FEW056 FEW220 19/12 A3020 RMK CU1CI0 CONTRAIL CI TR SLP227

CYHM;2008-04-21 20:00;CYHM 212000Z 06013KT 15SM FEW050TCU SCT220 18/11 A3019 RMK TCU2CI1 SLP225

CYHM;2008-04-21 21:00;CYHM 212100Z 06015KT 15SM FEW050 SCT220 18/11 A3018 RMK CU1CI1 SLP221

CYHM;2008-04-21 22:00;CYHM 212200Z 06015KT 15SM FEW045 SCT220 18/11 A3018 RMK SC1CI1 SLP222

CYHM;2008-04-21 23:00;CYHM 212300Z 06013KT 15SM FEW045 FEW090 BKN220 16/11 A3018 RMK SC1AC1CI1 SLP222

CYHM;2008-04-22 00:00;CYHM 220000Z 04012KT 12SM FEW030 FEW090 BKN230 14/10 A3018 RMK SC1AC1CI1 SLP222

CYHM;2008-04-22 01:00;CYHM 220100Z 04011KT 15SM FEW030 FEW110 SCT240 14/09 A3018 RMK SC1AC1CI1 SLP223

CYHM;2008-04-22 02:00;CYHM 220200Z 04010KT 15SM FEW240 12/09 A3018 RMK CI0 SLP224

CYHM;2008-04-22 03:00;CYHM 220300Z 03008KT 15SM FEW250 12/08 A3018 RMK CI1 CI TR SLP222

CYHM;2008-04-22 04:00;CYHM 220400Z 03007KT 15SM FEW250 12/08 A3018 RMK CI1 CI TR SLP223

CYHM;2008-04-22 05:00;CYHM 220500Z 04004KT 15SM SKC 11/08 A3018 RMK SLP223

CYHM;2008-04-22 06:00;CYHM 220600Z 09003KT 15SM SKC 10/07 A3018 RMK SLP222

CYHM;2008-04-22 07:00;CYHM 220700Z 17004KT 15SM SKC 11/08 A3018 RMK SLP221

CYHM;2008-04-22 08:00;CYHM 220800Z 18005KT 15SM SKC 11/08 A3018 RMK SLP223

CYHM;2008-04-22 09:00;CYHM 220900Z 18004KT 15SM SKC 12/08 A3018 RMK SLP223

CYHM;2008-04-22 10:00;CYHM 221000Z 20003KT 15SM FEW070 11/08 A3019 RMK AC1 AC TR SLP224

CYHM;2008-04-22 11:00;CYHM 221100Z 00000KT 15SM SKC 09/07 A3020 RMK SLP230

CYHM;2008-04-22 12:00;CYHM 221200Z 15004KT 15SM SKC 13/10 A3022 RMK SLP235

CYHM;2008-04-22 13:00;CYHM 221300Z 15006KT 15SM SKC 16/10 A3022 RMK SLP236

CYHM;2008-04-22 14:00;CYHM 221400Z 18004KT 15SM SKC 17/10 A3021 RMK SLP234

CYHM;2008-04-22 15:00;CYHM 221500Z 13004KT 15SM SKC 18/10 A3020 RMK SLP229

CYHM;2008-04-22 16:00;CYHM 221600Z 15008KT 15SM FEW028 20/11 A3019 RMK CU1 CU TR SLP224

CYHM;2008-04-22 17:00;CYHM 221700Z 16007KT 15SM SCT038 20/11 A3017 RMK CU3 SLP218

CYHM;2008-04-22 18:00;CYHM 221800Z 15003KT 15SM FEW042 21/11 A3015 RMK CU2 SLP212

CYHM;2008-04-22 19:00;CYHM 221900Z 13005KT 060V250 15SM FEW050 FEW250 21/10 A3014 RMK CU1CI1 CI TR SLP207

CYHM;2008-04-22 20:00;CYHM 222000Z 11005KT 15SM FEW054 21/11 A3012 RMK CU1 CU TR SLP200

CYHM;2008-04-22 21:00;CYHM 222100Z 05006KT 15SM FEW056 FEW250 21/11 A3011 RMK CU1CI1 CU TR CI TR SLP197

CYHM;2008-04-22 22:00;CYHM 222200Z 05011KT 15SM FEW250 20/11 A3011 RMK CI1 CI TR SLP197

CYHM;2008-04-22 23:00;CYHM 222300Z 05007KT 15SM FEW250 17/09 A3011 RMK CI1 SLP197

CYHM;2008-04-23 00:00;CYHM 230000Z 06006KT 15SM FEW070 SCT250 15/09 A3010 RMK AC1CI1 AC TR SLP195

CYHM;2008-04-23 01:00;CYHM 230100Z 05007KT 15SM SCT250 14/08 A3011 RMK CI1 SLP198

CYHM;2008-04-23 02:00;CYHM 230200Z 08005KT 15SM FEW250 13/08 A3012 RMK CI1 SLP202

CYHM;2008-04-23 03:00;CYHM 230300Z 13005KT 15SM FEW250 14/08 A3012 RMK CI1 SLP202

CYHM;2008-04-23 04:00;CYHM 230400Z 15006KT 15SM BKN072 15/09 A3012 RMK AC7 SLP201

CYHM;2008-04-23 05:00;CYHM 230500Z 16003KT 15SM BKN064 BKN120 14/09 A3011 RMK SC5AC2 SLP197

CYHM;2008-04-23 06:00;CYHM 230600Z 18005KT 15SM BKN062 BKN120 14/09 A3010 RMK SC5AC2 SLP195

CYHM;2008-04-23 07:00;CYHM 230700Z 18007KT 15SM FEW070 SCT090 BKN120 14/08 A3010 RMK AC1AC2AC4 SLP192

CYHM;2008-04-23 07:50;CYHM 230750Z 20004KT 15SM -SHRA BKN060 BKN072 OVC120 RMK SC5AC2AC2

CYHM;2008-04-23 08:00;CYHM 230800Z 20004KT 15SM -SHRA BKN060 BKN072 OVC120 14/08 A3010 RMK SC5AC2AC2 SLP193

CYHM;2008-04-23 08:17;CYHM 230817Z 19005KT 15SM BKN060 BKN094 OVC120 RMK SC6AC2AC1

CYHM;2008-04-23 09:00;CYHM 230900Z 19005KT 15SM FEW060 FEW100 BKN120 BKN170 14/08 A3010 RMK SC1AC1AC3AC2 SLP194

CYHM;2008-04-23 10:00;CYHM 231000Z 21004KT 15SM FEW110 SCT170 12/08 A3010 RMK AC2AC2 SLP194

CYHM;2008-04-23 11:00;CYHM 231100Z 21006KT 15SM BKN110 12/08 A3012 RMK AC5 SLP199

CYHM;2008-04-23 12:00;CYHM 231200Z 22007KT 15SM FEW110 14/10 A3012 RMK AC1 AC TR SLP202

CYHM;2008-04-23 13:00;CYHM 231300Z 26008KT 15SM FEW025 FEW110 17/10 A3013 RMK CU1AC2 CU TR SLP206

CYHM;2008-04-23 14:00;CYHM 231400Z 32008KT 15SM FEW030 FEW062 SCT110 BKN220 18/11 A3014 RMK CU1SC2AC2CI1 CU TR SLP207

CYHM;2008-04-23 15:00;CYHM 231500Z 29004KT 15SM FEW060 BKN100 BKN220 19/11 A3014 RMK SC1AC5CI1 SLP207

CYHM;2008-04-23 16:00;CYHM 231600Z 23003KT 15SM FEW110 SCT220 21/12 A3014 RMK AC2CI1 SLP207

CYHM;2008-04-23 17:00;CYHM 231700Z 28007KT 15SM FEW045 BKN092 BKN220 21/13 A3014 RMK CU1AC4CI1 SLP207

CYHM;2008-04-23 18:00;CYHM 231800Z CCB 29011KT 250V330 6SM HZ FEW045 OVC100 22/12 A3014 RMK CU2AC6 SLP207

CYHM;2008-04-23 19:00;CYHM 231900Z 31012KT 8SM SCT050 BKN070 BKN100 23/12 A3014 RMK CU4AC2AC2 HZ TCU ASOCTD SLP206

CYHM;2008-04-23 20:00;CYHM 232000Z 32015KT 10SM SCT050 BKN085 BKN220 22/07 A3013 RMK CU3AC2CI1 SLP205

CYHM;2008-04-23 21:00;CYHM 232100Z 31013KT 15SM FEW045 FEW120 22/07 A3014 RMK CU1AC2 SLP206

CYHM;2008-04-23 22:00;CYHM 232200Z 32019G25KT 15SM FEW090 19/M00 A3017 RMK AC1 SLP215

CYHM;2008-04-23 23:00;CYHM 232300Z 32020KT 15SM FEW035 17/M04 A3018 RMK CU1 SLP220

CYHM;2008-04-24 00:00;CYHM 240000Z 32017KT 15SM SKC 16/M06 A3019 RMK SLP225

CYHM;2008-04-24 01:00;CYHM 240100Z 35008KT 15SM SKC 13/M04 A3021 RMK SLP231

CYHM;2008-04-24 02:00;CYHM 240200Z 34007KT 15SM SKC 12/M05 A3022 RMK SLP236

CYHM;2008-04-24 03:00;CYHM 240300Z 34008KT 15SM SKC 11/M03 A3024 RMK SLP243

CYHM;2008-04-24 04:00;CYHM 240400Z 33013KT 15SM SKC 11/M02 A3026 RMK SLP247

CYHM;2008-04-24 05:00;CYHM 240500Z 34014KT 15SM SKC 11/M03 A3027 RMK SLP253

CYHM;2008-04-24 06:00;CYHM 240600Z 34012KT 15SM SKC 11/M03 A3029 RMK SLP257

CYHM;2008-04-24 07:00;CYHM 240700Z 35010KT 15SM SKC 08/M02 A3028 RMK SLP256

CYHM;2008-04-24 08:00;CYHM 240800Z 01006KT 15SM SKC 09/M03 A3028 RMK SLP254

CYHM;2008-04-24 09:00;CYHM 240900Z 02003KT 15SM SKC 08/M03 A3029 RMK SLP260

CYHM;2008-04-24 10:00;CYHM 241000Z CCA 35003KT 15SM FEW250 08/M04 A3032 RMK CI1 SLP269

CYHM;2008-04-24 11:00;CYHM 241100Z 01005KT 15SM SCT240 08/M03 A3034 RMK CI2 CONTRAIL SLP276

CYHM;2008-04-24 12:00;CYHM 241200Z 02005KT 15SM BKN240 11/M01 A3036 RMK CI3 CONTRAIL SLP282

CYHM;2008-04-24 13:00;CYHM 241300Z 05008KT 15SM FEW160 BKN220 13/00 A3036 RMK AC2CI3 CONTRAIL SLP282

CYHM;2008-04-24 14:00;CYHM 241400Z 07007KT 15SM FEW180 BKN240 15/00 A3036 RMK AC1CI5 SLP282

CYHM;2008-04-24 15:00;CYHM 241500Z 08006KT 15SM FEW180 BKN240 16/M00 A3035 RMK AC2CI4 SLP279

CYHM;2008-04-24 16:00;CYHM 241600Z 11010KT 15SM FEW180 BKN240 17/M02 A3034 RMK AC1CI2 SLP278

CYHM;2008-04-24 17:00;CYHM 241700Z 09013KT 15SM FEW150 BKN220 17/M01 A3032 RMK AC1CI3 CONTRAIL SLP270

CYHM;2008-04-24 18:00;CYHM 241800Z 08010G15KT 15SM FEW130 BKN220 18/M02 A3030 RMK AC2CS4 HALO SLP263

CYHM;2008-04-24 19:00;CYHM 241900Z 09009KT 020V120 15SM BKN240 18/M01 A3028 RMK CI4 SLP255

CYHM;2008-04-24 20:00;CYHM 242000Z 08015KT 15SM BKN240 18/M01 A3024 RMK CI3 SLP243

CYHM;2008-04-24 21:00;CYHM 242100Z 08012KT 15SM BKN250 18/00 A3023 RMK CI2 SLP240

CYHM;2008-04-24 22:00;CYHM 242200Z 06010KT 15SM BKN250 18/01 A3023 RMK CI2 SLP239

CYHM;2008-04-24 23:00;CYHM 242300Z 07011KT 15SM BKN250 16/M00 A3021 RMK CI3 SLP232

CYHM;2008-04-25 00:00;CYHM 250000Z 06011KT 15SM BKN250 14/M03 A3018 RMK CI3 SLP223

CYHM;2008-04-25 01:00;CYHM 250100Z 06010KT 15SM BKN250 12/M02 A3019 RMK CI2 SLP226

CYHM;2008-04-25 02:00;CYHM 250200Z 05010KT 15SM SCT250 11/M02 A3019 RMK CI2 SLP225

CYHM;2008-04-25 03:00;CYHM 250300Z 06008KT 15SM BKN250 11/M01 A3017 RMK CI4 SLP217

CYHM;2008-04-25 04:00;CYHM 250400Z 05008KT 15SM SCT250 10/M01 A3014 RMK CI2 SLP209

CYHM;2008-04-25 05:00;CYHM 250500Z 05008KT 15SM FEW250 10/M01 A3013 RMK CI2 SLP206

CYHM;2008-04-25 06:00;CYHM 250600Z 06008KT 15SM FEW250 10/M01 A3010 RMK CI2 SLP195

CYHM;2008-04-25 07:00;CYHM 250700Z 06008KT 15SM BKN250 08/00 A3008 RMK CI6 SLP189

CYHM;2008-04-25 08:00;CYHM 250800Z 06009KT 15SM OVC220 09/00 A3008 RMK CI7 SLP188

CYHM;2008-04-25 09:00;CYHM 250900Z 03005KT 15SM OVC220 08/01 A3008 RMK CI7 SLP190

CYHM;2008-04-25 10:00;CYHM 251000Z 05008KT 15SM OVC220 08/02 A3007 RMK CI8 SLP185

CYHM;2008-04-25 11:00;CYHM 251100Z 05007KT 15SM FEW160 OVC210 08/02 A3006 RMK AC2CI6 SLP182

CYHM;2008-04-25 12:00;CYHM 251200Z 04005KT 15SM OVC210 10/03 A3007 RMK CI8 CONTRAIL SLP185

CYHM;2008-04-25 13:00;CYHM 251300Z 07004KT 15SM SCT160 BKN210 10/03 A3006 RMK AC4CI3 SLP183

CYHM;2008-04-25 14:00;CYHM 251400Z 07004KT 15SM BKN110 BKN150 BKN220 13/04 A3004 RMK AC5AC2CI1 SLP177

CYHM;2008-04-25 15:00;CYHM 251500Z 10004KT 15SM BKN086 OVC120 13/05 A3004 RMK AC6AC2 SLP174

CYHM;2008-04-25 15:54;CYHM 251554Z 05006KT 10SM -SHRA BKN045 OVC060 RMK SC6SC2

CYHM;2008-04-25 16:00;CYHM 251600Z 07005KT 6SM -SHRA SCT045 BKN073 OVC088 13/06 A3004 RMK SC4AC2AC2 SLP176

CYHM;2008-04-25 16:53;CYHM 251653Z 05008KT 10SM FEW062 BKN088 BKN092 RMK SC2AC3AC2

CYHM;2008-04-25 17:00;CYHM 251700Z 05006KT 15SM FEW062 BKN093 BKN100 12/08 A3001 RMK SC2AC3AC2 SLP166

CYHM;2008-04-25 18:00;CYHM 251800Z 05006KT 15SM FEW065 BKN095 BKN130 13/08 A3001 RMK SC1AC5AC2 SLP164

CYHM;2008-04-25 19:00;CYHM 251900Z 09008KT 060V120 12SM FEW070 BKN096 BKN220 16/09 A2998 RMK AC2AC3CI1 SLP155

CYHM;2008-04-25 20:00;CYHM 252000Z 08007KT 050V110 12SM FEW070 BKN090 BKN120 19/10 A2996 RMK AC2AC3AC1 SLP150

CYHM;2008-04-25 21:00;CYHM 252100Z 06009KT 030V100 12SM FEW070 SCT090 BKN120 18/09 A2995 RMK AC2AC2AC2 SLP143

CYHM;2008-04-25 22:00;CYHM 252200Z 05009KT 15SM SCT090 BKN120 16/08 A2993 RMK AC4AC2 SLP138

CYHM;2008-04-25 23:00;CYHM 252300Z 05008KT 15SM SCT085 BKN120 BKN240 15/06 A2991 RMK AC3AC2CI2 SLP131

CYHM;2008-04-26 00:00;CYHM 260000Z 06010KT 15SM FEW080 FEW120 BKN250 14/06 A2987 RMK AC2AC1CI2 SLP117

CYHM;2008-04-26 01:00;CYHM 260100Z 06008KT 15SM FEW080 FEW120 BKN230 13/06 A2987 RMK AC1AC1CI2 SLP118

CYHM;2008-04-26 02:00;CYHM 260200Z 04009KT 15SM FEW120 BKN240 11/05 A2988 RMK AC1CI2 SLP122

CYHM;2008-04-26 03:00;CYHM 260300Z 05007KT 15SM FEW063 FEW250 10/04 A2987 RMK SC1CI1 SLP116

CYHM;2008-04-26 04:00;CYHM 260400Z 06007KT 15SM FEW220 09/05 A2986 RMK CI1 SLP114

CYHM;2008-04-26 05:00;CYHM 260500Z 06005KT 15SM OVC072 09/05 A2987 RMK AC8 SLP116

CYHM;2008-04-26 06:00;CYHM 260600Z 08004KT 15SM FEW074 OVC085 10/06 A2986 RMK AC2AC6 SLP114

CYHM;2008-04-26 07:00;CYHM 260700Z 15008KT 15SM FEW081 OVC096 12/07 A2984 RMK AC2AC6 SLP108

CYHM;2008-04-26 08:00;CYHM 260800Z 19007KT 15SM FEW080 BKN110 15/10 A2983 RMK AC2AC3 SLP103

CYHM;2008-04-26 09:00;CYHM 260900Z 17006KT 15SM FEW110 BKN250 15/10 A2981 RMK AC2CI1 SLP095

CYHM;2008-04-26 10:00;CYHM 261000Z 19009KT 15SM FEW100 SCT250 16/10 A2981 RMK AC2CI1 SLP094

CYHM;2008-04-26 11:00;CYHM 261100Z 20010KT 15SM FEW060 FEW250 16/11 A2981 RMK SC1CI1 SC TR SLP094

CYHM;2008-04-26 12:00;CYHM 261200Z 20013KT 15SM FEW060 FEW250 18/11 A2981 RMK SC1CI0 SLP096

CYHM;2008-04-26 13:00;CYHM 261300Z 20017G23KT 15SM FEW065 FEW082 SCT250 21/13 A2981 RMK SC1AC2CI0 SC TR SLP096

CYHM;2008-04-26 14:00;CYHM 261400Z 21017G25KT 15SM BKN079 20/13 A2984 RMK AC7 SLP104

CYHM;2008-04-26 15:00;CYHM 261500Z 24018G24KT 15SM SCT082 BKN095 21/14 A2984 RMK AC3AC4 SLP106

CYHM;2008-04-26 16:00;CYHM 261600Z 23015KT 15SM BKN086 22/15 A2984 RMK AC7 SLP104

CYHM;2008-04-26 17:00;CYHM 261700Z 24019G25KT 15SM SCT027 BKN092 20/14 A2987 RMK CU4AC3 SLP116

CYHM;2008-04-26 18:00;CYHM 261800Z 24015KT 15SM FEW032 BKN047 BKN085 21/14 A2987 RMK CU2SC3AC2 SLP115

CYHM;2008-04-26 19:00;CYHM 261900Z 24022G30KT 210V270 15SM FEW032 BKN048 BKN079 20/11 A2988 RMK CU2SC2AC2 SLP119

CYHM;2008-04-26 20:00;CYHM 262000Z 25021G28KT 15SM FEW048 SCT080 BKN220 19/04 A2988 RMK SC2AC2CI4 SLP120

CYHM;2008-04-26 21:00;CYHM 262100Z 24019G24KT 15SM FEW045 FEW080 BKN220 18/09 A2990 RMK SC1AC1CI6 SLP124

CYHM;2008-04-26 22:00;CYHM 262200Z 23018KT 15SM BKN220 17/08 A2991 RMK CI5 SLP130

CYHM;2008-04-26 23:00;CYHM 262300Z 23017KT 15SM SCT220 16/07 A2994 RMK CI3 SLP138

CYHM;2008-04-27 00:00;CYHM 270000Z 23012KT 15SM FEW220 13/06 A2998 RMK CI2 SLP153

CYHM;2008-04-27 01:00;CYHM 270100Z 20008KT 15SM FEW230 11/05 A3004 RMK CI2 PRESRR SLP173

CYHM;2008-04-27 02:00;CYHM 270200Z 20008KT 15SM SKC 10/04 A3007 RMK SLP184

CYHM;2008-04-27 03:00;CYHM 270300Z 20005KT 15SM SKC 08/03 A3009 RMK SLP192

CYHM;2008-04-27 04:00;CYHM 270400Z 19004KT 15SM SKC 09/03 A3009 RMK SLP192

CYHM;2008-04-27 05:00;CYHM 270500Z 24003KT 15SM SKC 08/03 A3010 RMK SLP195

CYHM;2008-04-27 06:00;CYHM 270600Z 22005KT 15SM FEW210 06/03 A3011 RMK CI1 SLP200

CYHM;2008-04-27 07:00;CYHM 270700Z 25005KT 15SM FEW210 06/03 A3011 RMK CI1 SLP200

CYHM;2008-04-27 08:00;CYHM 270800Z 25004KT 15SM FEW210 05/03 A3010 RMK CI1 SLP197

CYHM;2008-04-27 09:00;CYHM 270900Z 22005KT 15SM SKC 04/03 A3010 RMK SLP198

CYHM;2008-04-27 10:00;CYHM 271000Z 22004KT 15SM SCT210 04/03 A3012 RMK CI3 SLP202

CYHM;2008-04-27 11:00;CYHM 271100Z 22002KT 15SM FEW060 SCT230 04/03 A3013 RMK SC1CI2 SC TR SLP206

CYHM;2008-04-27 12:00;CYHM 271200Z 22003KT 15SM FEW250 06/04 A3013 RMK CI1 SLP208

CYHM;2008-04-27 13:00;CYHM 271300Z 23005KT 15SM FEW250 09/05 A3014 RMK CI1 SLP211

CYHM;2008-04-27 14:00;CYHM 271400Z 25009KT 15SM FEW250 12/04 A3014 RMK CI1 SLP212

CYHM;2008-04-27 15:00;CYHM 271500Z 24010KT 180V290 15SM FEW250 14/03 A3014 RMK CI1 SLP210

CYHM;2008-04-27 16:00;CYHM 271600Z 24016KT 190V280 15SM FEW250 15/02 A3013 RMK CI1 SLP208

CYHM;2008-04-27 17:00;CYHM 271700Z 24012KT 190V290 15SM FEW140 BKN250 16/02 A3012 RMK AC1CI2 SLP202

CYHM;2008-04-27 18:00;CYHM 271800Z 24011KT 15SM BKN250 17/01 A3010 RMK CI3 SLP197

CYHM;2008-04-27 19:00;CYHM 271900Z 22012KT 190V250 15SM BKN200 18/01 A3008 RMK CI4 SLP190

CYHM;2008-04-27 20:00;CYHM 272000Z 19014KT 15SM BKN220 16/03 A3007 RMK CI5 SLP186

CYHM;2008-04-27 21:00;CYHM 272100Z 19013KT 15SM OVC220 15/03 A3005 RMK CI6 SLP181

CYHM;2008-04-27 22:00;CYHM 272200Z 18012KT 15SM FEW120 OVC220 15/03 A3004 RMK AC1CI5 SLP176

CYHM;2008-04-27 23:00;CYHM 272300Z 17010KT 15SM FEW120 BKN200 14/03 A3002 RMK AC2CI3 SLP170

CYHM;2008-04-28 00:00;CYHM 280000Z 17008KT 15SM FEW160 BKN210 12/03 A3001 RMK AC2CI4 SLP168

CYHM;2008-04-28 01:00;CYHM 280100Z 20004KT 15SM SCT160 OVC200 11/03 A3001 RMK AC3CI3 SLP166

CYHM;2008-04-28 02:00;CYHM 280200Z 30004KT 15SM OVC150 10/04 A2997 RMK AS8 SLP155

CYHM;2008-04-28 03:00;CYHM 280300Z 32008KT 15SM FEW090 OVC150 11/03 A2997 RMK AC2AS6 SLP150

CYHM;2008-04-28 04:00;CYHM 280400Z 03010KT 15SM OVC088 10/02 A2997 RMK AC8 SLP150

CYHM;2008-04-28 04:13;CYHM 280413Z 02007KT 12SM -RA OVC080 RMK AC8

CYHM;2008-04-28 05:00;CYHM 280500Z 02009KT 15SM OVC075 09/02 A2997 RMK AC8 SLP150

CYHM;2008-04-28 06:00;CYHM 280600Z 35008KT 15SM OVC073 09/01 A2995 RMK AC8 SLP143

CYHM;2008-04-28 07:00;CYHM 280700Z 02013KT 10SM -RA OVC030 08/02 A2991 RMK SC8 SLP132

CYHM;2008-04-28 08:00;CYHM 280800Z 02008KT 10SM -RA OVC044 07/04 A2989 RMK SC8 SLP124

CYHM;2008-04-28 09:00;CYHM 280900Z 36013G19KT 8SM -RA OVC032 06/04 A2988 RMK SC8 SLP121

CYHM;2008-04-28 10:00;CYHM 281000Z 36015G20KT 6SM -RA FEW007 OVC030 05/03 A2988 RMK SF2SC6 SLP123

CYHM;2008-04-28 11:00;CYHM 281100Z 02012KT 3SM -RA BKN007 BKN016 OVC039 04/03 A2988 RMK SF5SC2SC1 SLP123

CYHM;2008-04-28 12:00;CYHM 281200Z 03012KT 6SM -RA BKN007 OVC041 04/03 A2986 RMK SF5SC3 SLP117

CYHM;2008-04-28 13:00;CYHM 281300Z 03008KT 5SM -RA BKN008 OVC038 04/03 A2984 RMK SF6SC2 SLP111

CYHM;2008-04-28 14:00;CYHM 281400Z 02008KT 8SM -RA SCT006 OVC039 04/03 A2986 RMK SF3SC5 SLP115

CYHM;2008-04-28 15:00;CYHM 281500Z 35012KT 8SM -RA SCT008 BKN028 OVC039 05/04 A2984 RMK SF4SC2SC2 SLP110

CYHM;2008-04-28 15:54;CYHM 281554Z 33010KT 15SM SCT010 BKN016 OVC028 RMK SF3SC3SC2

CYHM;2008-04-28 16:00;CYHM 281600Z 35008KT 15SM FEW010 BKN017 OVC029 05/03 A2984 RMK SF2SC4SC2 SLP108

CYHM;2008-04-28 17:00;CYHM 281700Z 34010KT 15SM BKN012 OVC028 06/04 A2981 RMK SC6SC2 SLP099

CYHM;2008-04-28 18:00;CYHM 281800Z 33011KT 15SM BKN017 OVC030 07/04 A2982 RMK SC5SC3 SLP103

CYHM;2008-04-28 19:00;CYHM 281900Z 35010KT 15SM BKN019 OVC030 07/03 A2983 RMK SC6SC2 SLP105

CYHM;2008-04-28 20:00;CYHM 282000Z 33010KT 15SM SCT018 OVC025 07/03 A2982 RMK SC3SC5 SLP102

CYHM;2008-04-28 21:00;CYHM 282100Z 34012KT 15SM OVC025 07/02 A2981 RMK SC8 SLP102

CYHM;2008-04-28 22:00;CYHM 282200Z 34013KT 15SM OVC021 07/02 A2983 RMK SC8 SLP107

CYHM;2008-04-28 23:00;CYHM 282300Z 33011KT 15SM SCT022 OVC032 06/02 A2984 RMK SC3SC5 SLP111

CYHM;2008-04-29 00:00;CYHM 290000Z 33007KT 15SM SCT030 BKN100 06/01 A2985 RMK SC3AC4 SLP115

CYHM;2008-04-29 01:00;CYHM 290100Z 34010KT 15SM FEW025 SCT070 BKN120 05/01 A2985 RMK SC2AC2AC2 SLP116

CYHM;2008-04-29 02:00;CYHM 290200Z CCC 35012KT 15SM FEW045 SCT110 05/M01 A2988 RMK SC2AC2 SLP123

CYHM;2008-04-29 03:00;CYHM 290300Z 01007KT 15SM FEW040 SCT210 04/M02 A2987 RMK SC2CI1 SLP123

CYHM;2008-04-29 04:00;CYHM 290400Z 35004KT 15SM FEW250 02/M02 A2988 RMK CI1 CI TR SLP124

CYHM;2008-04-29 05:00;CYHM 290500Z 30003KT 15SM FEW044 FEW250 01/M03 A2988 RMK SC1CI1 CI TR SLP126

CYHM;2008-04-29 06:00;CYHM 290600Z 31004KT 15SM FEW042 01/M02 A2987 RMK SC1 SLP122

CYHM;2008-04-29 07:00;CYHM 290700Z 33007KT 15SM SKC 01/M03 A2985 RMK SLP115

CYHM;2008-04-29 08:00;CYHM 290800Z 31003KT 15SM FEW250 M01/M04 A2987 RMK CI1 CI TR SLP122

CYHM;2008-04-29 09:00;CYHM 290900Z 32005KT 15SM SKC M02/M04 A2988 RMK SLP128

CYHM;2008-04-29 10:00;CYHM 291000Z 32005KT 15SM FEW250 M01/M03 A2990 RMK CI1 CI TR SLP133

CYHM;2008-04-29 11:00;CYHM 291100Z 33004KT 15SM FEW180 FEW250 M01/M03 A2992 RMK AC1CI1 SLP139

CYHM;2008-04-29 12:00;CYHM 291200Z 35006KT 15SM FEW210 02/M02 A2993 RMK CI1 SLP141

CYHM;2008-04-29 13:00;CYHM 291300Z 02006KT 15SM FEW210 04/M04 A2994 RMK CI1 SLP145

CYHM;2008-04-29 14:00;CYHM 291400Z 08004KT 15SM SCT210 06/M04 A2996 RMK CI2 SLP151

CYHM;2008-04-29 15:00;CYHM 291500Z 25007KT 15SM FEW160 SCT210 06/M03 A2996 RMK AC1CI2 SLP153

CYHM;2008-04-29 16:00;CYHM 291600Z 28010KT 15SM SCT038 BKN120 BKN210 08/M01 A2996 RMK CU4AC2CI1 SLP153

CYHM;2008-04-29 17:00;CYHM 291700Z 26008KT 15SM FEW038 BKN043 BKN057 08/M01 A2996 RMK CU2SC4SC1 SLP151

CYHM;2008-04-29 18:00;CYHM 291800Z 29012KT 15SM FEW040 BKN060 BKN069 08/M02 A2995 RMK CU2SC4AC2 SLP150

CYHM;2008-04-29 19:00;CYHM 291900Z 28014KT 15SM BKN040 BKN064 09/M01 A2996 RMK SC5SC2 TCU EMBDD SLP151

CYHM;2008-04-29 20:00;CYHM 292000Z 31012KT 15SM BKN056 08/M02 A2995 RMK SC7 SLP150

CYHM;2008-04-29 21:00;CYHM 292100Z 28013KT 15SM BKN056 08/M03 A2996 RMK SC6 SLP154

CYHM;2008-04-29 22:00;CYHM 292200Z 29013KT 15SM FEW060 07/M06 A2998 RMK CU2 SLP161

CYHM;2008-04-29 23:00;CYHM 292300Z 30014KT 15SM FEW058 06/M07 A3000 RMK CU1 SLP166

CYHM;2008-04-30 00:00;CYHM 300000Z 29014KT 15SM FEW056 04/M08 A3002 RMK CU1 CU TR SLP174

CYHM;2008-04-30 01:00;CYHM 300100Z 30004KT 15SM FEW250 02/M08 A3003 RMK CI1 CI TR SLP176

CYHM;2008-04-30 02:00;CYHM 300200Z 28005KT 15SM SKC 01/M08 A3003 RMK SLP177

CYHM;2008-04-30 03:00;CYHM 300300Z 30005KT 15SM SKC 00/M07 A3003 RMK SLP178

CYHM;2008-04-30 04:00;CYHM 300400Z 30005KT 15SM SKC M01/M07 A3005 RMK SLP183

CYHM;2008-04-30 05:00;CYHM 300500Z 31006KT 15SM SKC M01/M06 A3005 RMK SLP184

CYHM;2008-04-30 06:00;CYHM 300600Z 29004KT 15SM SKC M01/M07 A3004 RMK SLP180

CYHM;2008-04-30 07:00;CYHM 300700Z 26002KT 15SM SKC M02/M07 A3004 RMK SLP181

CYHM;2008-04-30 08:00;CYHM 300800Z 25004KT 15SM SKC M02/M07 A3005 RMK SLP184

CYHM;2008-04-30 09:00;CYHM 300900Z 25004KT 15SM SKC M03/M07 A3005 RMK SLP185

CYHM;2008-04-30 10:00;CYHM 301000Z 25004KT 15SM FEW050 M03/M06 A3006 RMK SC1 SC TR SLP187

CYHM;2008-04-30 11:00;CYHM 301100Z 26004KT 15SM SKC M03/M06 A3008 RMK SLP193

CYHM;2008-04-30 12:00;CYHM 301200Z 26007KT 15SM SKC M01/M05 A3010 RMK SLP200

CYHM;2008-04-30 13:00;CYHM 301300Z 24007KT 15SM SKC 02/M05 A3010 RMK SLP203

CYHM;2008-04-30 14:00;CYHM 301400Z 27005KT 15SM FEW030 04/M05 A3011 RMK CU1 SLP205

CYHM;2008-04-30 15:00;CYHM 301500Z 28007KT 15SM FEW049 06/M05 A3011 RMK CU2 SLP205

CYHM;2008-04-30 16:00;CYHM 301600Z 25007KT 15SM SCT052 07/M05 A3010 RMK CU3 SLP201

CYHM;2008-04-30 17:00;CYHM 301700Z 27008KT 15SM BKN060 BKN170 08/M05 A3009 RMK CU5AC0 AC TR SLP197

CYHM;2008-04-30 18:00;CYHM 301800Z 25012KT 15SM SCT055 BKN068 09/M05 A3008 RMK CU3AC2 SLP193

CYHM;2008-04-30 19:00;CYHM 301900Z 19014G20KT 15SM FEW058 BKN074 BKN240 08/M04 A3007 RMK SC2AC4CI1 SLP190

CYHM;2008-04-30 20:00;CYHM 302000Z 20014G20KT 15SM BKN062 BKN080 09/M03 A3006 RMK SC5AC2 SLP187

CYHM;2008-04-30 21:00;CYHM 302100Z 25012KT 15SM SCT072 BKN092 10/M05 A3005 RMK AC3AC2 SLP185

CYHM;2008-04-30 22:00;CYHM 302200Z 22008G16KT 15SM FEW058 BKN072 BKN220 09/M06 A3005 RMK SC2AC4CI1 SLP185

CYHM;2008-04-30 23:00;CYHM 302300Z 19007KT 15SM FEW062 FEW250 09/M06 A3005 RMK CU1CI1 SLP185

CYHM;2008-05-01 01:00;CYHM 010100Z 20008KT 15SM FEW180 FEW250 04/M05 A3007 RMK AC1CI1 AC TR CI TR SLP190

CYHM;2008-05-01 02:00;CYHM 010200Z 21004KT 15SM FEW250 02/M04 A3008 RMK CI1 CI TR SLP193

CYHM;2008-05-01 03:00;CYHM 010300Z 21004KT 15SM FEW210 02/M04 A3008 RMK CI1 SLP195

CYHM;2008-05-01 04:00;CYHM 010400Z 00000KT 15SM FEW210 02/M04 A3008 RMK CI1 SLP195

CYHM;2008-05-01 05:00;CYHM 010500Z 00000KT 15SM FEW210 02/M05 A3008 RMK CI1 SLP193

CYHM;2008-05-01 06:00;CYHM 010600Z 00000KT 15SM FEW210 01/M05 A3008 RMK CI1 SLP193

CYHM;2008-05-01 07:00;CYHM 010700Z 00000KT 15SM FEW200 02/M05 A3008 RMK CI1 SLP194

CYHM;2008-05-01 08:00;CYHM 010800Z 17003KT 15SM FEW200 02/M04 A3008 RMK CI1 SLP194

CYHM;2008-05-01 09:00;CYHM 010900Z 00000KT 15SM FEW210 01/M03 A3007 RMK CI1 SLP191

CYHM;2008-05-01 10:00;CYHM 011000Z 13004KT 15SM SCT240 01/M02 A3008 RMK CI3 SLP192

CYHM;2008-05-01 11:00;CYHM 011100Z 06006KT 15SM FEW160 SCT240 02/M02 A3009 RMK AC1CI2 SLP195

CYHM;2008-05-01 12:00;CYHM 011200Z 07006KT 15SM FEW062 FEW160 SCT240 04/M01 A3009 RMK SC1AC1CI1 SLP196

CYHM;2008-05-01 13:00;CYHM 011300Z 06009KT 15SM FEW160 SCT240 07/M02 A3007 RMK AC1CI2 AC TR SLP191

CYHM;2008-05-01 14:00;CYHM 011400Z 04010KT 15SM FEW100 BKN150 BKN220 08/M01 A3007 RMK AC2AC2CI2 SLP188

CYHM;2008-05-01 15:00;CYHM 011500Z 06011KT 15SM BKN120 BKN160 OVC220 08/M01 A3006 RMK AC5AC1CI2 SLP186

CYHM;2008-05-01 16:00;CYHM 011600Z 04010KT 15SM SCT067 BKN075 OVC210 08/M02 A3005 RMK AC3AS4CI1 SLP182

CYHM;2008-05-01 17:00;CYHM 011700Z 04009KT 15SM FEW075 BKN088 OVC220 09/M01 A3003 RMK AC2AS5CI1 SLP176

CYHM;2008-05-01 18:00;CYHM 011800Z 06015KT 15SM FEW120 BKN170 OVC220 10/M02 A3001 RMK AC2AS3CI2 SLP170

CYHM;2008-05-01 19:00;CYHM 011900Z 06017KT 15SM FEW045 BKN072 OVC180 09/M02 A2999 RMK SC2AC3AC3 SLP162

CYHM;2008-05-01 20:00;CYHM 012000Z 05015KT 15SM BKN058 OVC100 09/M02 A2997 RMK SC6AC2 SLP154

CYHM;2008-05-01 21:00;CYHM 012100Z 05017KT 15SM -SHRA SCT058 OVC077 08/00 A2996 RMK SC3AC5 SLP153

CYHM;2008-05-01 22:00;CYHM 012200Z 05017KT 15SM BKN072 BKN120 08/M00 A2995 RMK AC6AC1 SLP149

CYHM;2008-05-01 23:00;CYHM 012300Z 05017KT 15SM BKN063 OVC120 07/M01 A2994 RMK SC6AC2 SLP147

CYHM;2008-05-02 00:00;CYHM 020000Z 05017KT 15SM BKN062 OVC096 07/00 A2994 RMK SC6AC2 SLP146

CYHM;2008-05-02 01:00;CYHM 020100Z 05018KT 15SM BKN067 BKN086 OVC130 06/01 A2994 RMK AC5AC2AC1 SLP146

CYHM;2008-05-02 02:00;CYHM 020200Z 06016KT 15SM BKN091 OVC130 06/02 A2994 RMK AC6AC2 SLP145

CYHM;2008-05-02 03:00;CYHM 020300Z 05018KT 10SM -SHRA OVC087 06/04 A2992 RMK AC8 SLP136

CYHM;2008-05-02 04:00;CYHM 020400Z 05018KT 8SM -SHRA OVC100 06/04 A2991 RMK AC8 SLP134

CYHM;2008-05-02 05:00;CYHM 020500Z 04018KT 5SM BR SCT004 BKN080 05/04 A2989 RMK SF3AC2 SLP127

CYHM;2008-05-02 05:35;CYHM 020535Z 04015G20KT 3SM -RA BR OVC003 RMK SF8 VIS VRB 2 - 4

CYHM;2008-05-02 06:00;CYHM 020600Z 05018KT 2SM -RA BR BKN003 OVC090 06/05 A2987 RMK FG1SF6AC2 SLP121

CYHM;2008-05-02 06:35;CYHM 020635Z 04018G25KT 2SM BR SCT003 OVC090 RMK FG1SF3AC4

CYHM;2008-05-02 07:00;CYHM 020700Z 04014KT 2SM BR BKN003 OVC090 06/05 A2987 RMK FG1SF6AC2 SLP119

CYHM;2008-05-02 07:47;CYHM 020747Z 04018KT 1/2SM -RA FG OVC002 RMK FG4SF4

CYHM;2008-05-02 08:00;CYHM 020800Z 04015KT 1/2SM -RA FG OVC002 06/05 A2987 RMK FG4SF4 SLP119

CYHM;2008-05-02 09:00;CYHM 020900Z 05018KT 1/4SM -RA FG VV001 06/05 A2983 RMK FG8 SLP107

CYHM;2008-05-02 09:23;CYHM 020923Z 06018KT 0SM -RA FG VV001 RMK FG8

CYHM;2008-05-02 10:00;CYHM 021000Z 06017KT 0SM -RA FG VV001 06/05 A2984 RMK FG8 SLP112

CYHM;2008-05-02 11:00;CYHM 021100Z 04014KT 0SM -RA FG VV001 05/05 A2984 RMK FG8 SLP111

CYHM;2008-05-02 12:00;CYHM 021200Z 04012KT 0SM FG VV001 05/05 A2987 RMK FG8 SLP120

CYHM;2008-05-02 12:19;CYHM 021219Z 04013KT 0SM -RA FG VV001 RMK FG8

CYHM;2008-05-02 13:00;CYHM 021300Z 05012KT 1/8SM -RA FG VV001 06/05 A2986 RMK FG8 SLP119

CYHM;2008-05-02 14:00;CYHM 021400Z 04013KT 0SM -RA FG VV001 06/05 A2987 RMK FG8 SLP120

CYHM;2008-05-02 14:22;CYHM 021422Z 03015KT 0SM FG VV001 RMK FG8

CYHM;2008-05-02 15:00;CYHM 021500Z 03014KT 0SM FG VV001 06/06 A2986 RMK FG8 SLP116

CYHM;2008-05-02 16:00;CYHM 021600Z 04011KT 1/8SM FG VV001 06/06 A2987 RMK FG8 SLP121

CYHM;2008-05-02 17:00;CYHM 021700Z 04013KT 3/8SM FG VV002 06/06 A2988 RMK FG8 SLP123

CYHM;2008-05-02 17:24;CYHM 021724Z 04014KT 1/4SM FG VV001 RMK FG8

CYHM;2008-05-02 18:00;CYHM 021800Z CCA 04012KT 1/8SM -SHRA FG VV001 06/06 A2987 RMK FG8 PCPN VRY LGT SLP122

CYHM;2008-05-02 18:50;CYHM 021850Z 04014KT 1SM -SHRA BR OVC002 RMK FG3SF5

CYHM;2008-05-02 19:00;CYHM 021900Z 05014KT 1 1/2SM -SHRA BR OVC002 06/06 A2988 RMK FG2SF6 SLP124

CYHM;2008-05-02 19:17;CYHM 021917Z 04015KT 1SM -SHRA BR OVC002 RMK FG3SF5

CYHM;2008-05-02 19:38;CYHM 021938Z 04013KT 1/2SM -SHRA FG OVC002 RMK FG6SF2 PCPN VRY LGT

CYHM;2008-05-02 20:00;CYHM 022000Z 04015KT 1/2SM -SHRA FG OVC002 06/06 A2986 RMK FG6SF2 PCPN VRY LGT SLP118

CYHM;2008-05-02 20:11;CYHM 022011Z 03013KT 5/8SM BR OVC002 RMK FG6SF2

CYHM;2008-05-02 21:00;CYHM 022100Z 02013KT 3/8SM FG VV002 06/06 A2985 RMK FG8 SLP116

CYHM;2008-05-02 21:35;CYHM 022135Z 04012KT 1/8SM FG VV001 RMK FG8

CYHM;2008-05-02 22:00;CYHM 022200Z 05014KT 1/8SM FG VV001 06/06 A2984 RMK FG8 SLP111

CYHM;2008-05-02 23:00;CYHM 022300Z 03007KT 3/8SM FG VV002 06/06 A2986 RMK FG8 SLP118

CYHM;2008-05-02 23:54;CYHM 022354Z 02014KT 1/2SM -SHRA FG OVC002 RMK FG6SF2

CYHM;2008-05-03 00:00;CYHM 030000Z CCA 03013KT 1/2SM -SHRA FG OVC002 06/05 A2986 RMK FG6SF2 SLP118

CYHM;2008-05-03 00:22;CYHM 030022Z 03014KT 1 1/4SM -SHRA BR OVC002 RMK FG3SF5

CYHM;2008-05-03 01:00;CYHM 030100Z 04015KT 1 1/4SM -SHRA BR OVC002 06/05 A2985 RMK FG3SF5 SLP116

CYHM;2008-05-03 01:45;CYHM 030145Z 04012KT 2SM -SHRA BR BKN002 OVC008 RERA RMK FG2SF3SC3

CYHM;2008-05-03 02:00;CYHM 030200Z 05011KT 2SM -SHRA BR BKN002 OVC007 06/06 A2989 RERA RMK FG2SF3SC3 SLP128

CYHM;2008-05-03 02:07;CYHM 030207Z 05012KT 1/2SM -SHRA FG BKN002 OVC008 RERA RMK FG4SF2SC2

CYHM;2008-05-03 02:15;CYHM 030215Z 05011KT 3/4SM -SHRA BR SCT002 OVC007 RERA RMK FG3SF1SF4 VIS VRB 1/2 - 1

CYHM;2008-05-03 03:00;CYHM 030300Z 04009KT 3/4SM -SHRA BR OVC002 06/06 A2986 RMK FG3SF5 VIS VRB 1/2 - 1 SLP118

CYHM;2008-05-03 03:16;CYHM 030316Z 04009KT 1/4SM -SHRA FG VV001 RMK FG8

CYHM;2008-05-03 04:00;CYHM 030400Z 05010KT 1/4SM -SHRA FG VV001 06/06 A2984 RMK FG8 SLP110

CYHM;2008-05-03 05:00;CYHM 030500Z 05007KT 1/4SM -SHRA FG VV001 06/06 A2982 RMK FG8 SLP105

CYHM;2008-05-03 05:36;CYHM 030536Z 05007KT 0SM FG VV001 RMK FG8

CYHM;2008-05-03 06:00;CYHM 030600Z 05006KT 0SM FG VV001 06/06 A2980 RMK FG8 SLP098

CYHM;2008-05-03 07:00;CYHM 030700Z 06007KT 1/8SM FG VV001 06/06 A2979 RMK FG8 SLP093

CYHM;2008-05-03 07:53;CYHM 030753Z 06008KT 1/4SM FG VV001 RMK FG8

CYHM;2008-05-03 08:00;CYHM 030800Z 07006KT 1/4SM FG BKN080 06/06 A2978 RMK FG6AC2 SLP091

CYHM;2008-05-03 08:18;CYHM 030818Z 07006KT 3/4SM BR OVC079 RMK FG4AC4 VIS VRB 1/2 - 1

CYHM;2008-05-03 09:00;CYHM 030900Z 07007KT 1 1/2SM BR OVC081 07/07 A2977 RMK FG2AC6 VIS VRB 1 - 2 SLP087

CYHM;2008-05-03 09:36;CYHM 030936Z 10008KT 3SM BR FEW050 OVC070 RMK SC2AC6 VIS VRB 2 - 4

CYHM;2008-05-03 10:00;CYHM 031000Z 11007KT 2SM BR FEW040 BKN067 08/08 A2976 RMK FG1SC2AC5 SLP083

CYHM;2008-05-03 10:46;CYHM 031046Z 07005KT 9SM BKN041 RMK SC7

CYHM;2008-05-03 11:00;CYHM 031100Z 10004KT 9SM BKN038 BKN051 09/09 A2975 RMK SC6SC2 SLP080

CYHM;2008-05-03 12:00;CYHM 031200Z 15005KT 12SM OVC036 13/13 A2976 RMK SC8 SLP083

CYHM;2008-05-03 13:00;CYHM 031300Z 19010KT 15SM FEW036 SCT071 OVC250 17/14 A2975 RMK SC1AC2CS3 SLP077

CYHM;2008-05-03 14:00;CYHM 031400Z 18012KT 15SM SCT160 BKN250 18/14 A2974 RMK AC3CI3 SLP075

CYHM;2008-05-03 15:00;CYHM 031500Z 20019G25KT 15SM FEW050 BKN085 OVC170 18/14 A2973 RMK SC1AC6AC2 SC TR SLP071

CYHM;2008-05-03 15:04;CYHM 031504Z 21022KT 15SM -SHRA FEW050 BKN085 OVC170 RMK SC1AC6AC2 SC TR

CYHM;2008-05-03 16:00;CYHM 031600Z 18018KT 8SM -SHRA FEW013 BKN048 OVC085 17/15 A2975 RMK CU2SC4AC2 SLP075

CYHM;2008-05-03 17:00;CYHM 031700Z 18016KT 7SM -SHRA SCT009 BKN017 OVC037 16/15 A2973 RMK CF3SC3SC2 SLP069

CYHM;2008-05-03 17:28;CYHM 031728Z 18018G26KT 9SM -SHRA BKN008 OVC018 RMK CF6SC2

CYHM;2008-05-03 18:00;CYHM 031800Z 18018KT 9SM -SHRA BKN008 OVC018 17/15 A2970 RMK CF7SC1 SLP061

CYHM;2008-05-03 19:00;CYHM 031900Z 17014G20KT 9SM BKN008 BKN029 OVC048 16/15 A2968 RMK CF5SC2SC1 SLP052

CYHM;2008-05-03 19:44;CYHM 031944Z 15017KT 8SM -SHRA SCT008 BKN036 OVC059 RMK CF3SC3SC2

CYHM;2008-05-03 20:00;CYHM 032000Z 15019G26KT 8SM -SHRA FEW008 BKN036 OVC057 16/15 A2963 RMK CF1SC5SC2 SLP036

CYHM;2008-05-03 20:11;CYHM 032011Z CCA 16018KT 2 1/2SM -RA BR SCT007 OVC028 RMK FG1SF3SC4

CYHM;2008-05-03 20:21;CYHM 032021Z 26019G25KT 2 1/2SM RA BR SCT007 BKN014 OVC025 RMK FG1SF3SC2SC2

CYHM;2008-05-03 20:27;CYHM 032027Z 24018G24KT 1 1/4SM RA BR SCT007 BKN013 OVC025 RMK FG2SF2SC2SC2

CYHM;2008-05-03 20:34;CYHM 032034Z 27015KT 230V300 2 1/4SM -RA BR SCT007 BKN014 OVC035 RMK FG1SF2SC3SC2

CYHM;2008-05-03 21:00;CYHM 032100Z 26018G23KT 230V300 2 1/2SM -RA BR SCT007 BKN015 BKN028 OVC055 11/10 A2969 RMK FG1SF2SC2SC2SC1 PRESRR SLP059

CYHM;2008-05-03 21:30;CYHM 032130Z 27013KT 240V300 4SM -RA BR FEW009 SCT015 BKN030 OVC062 RMK CF2SC2SC2SC2

CYHM;2008-05-03 22:00;CYHM 032200Z 26008KT 230V290 3SM -RA BR FEW010 BKN030 OVC070 11/10 A2969 RMK CF1SC5AC2 SLP059

CYHM;2008-05-03 22:34;CYHM 032234Z 16006KT 12SM SCT030 BKN090 RMK SC4AC3

CYHM;2008-05-03 23:00;CYHM 032300Z 16008KT 15SM SCT030 BKN090 BKN150 12/11 A2968 RMK SC3AC2AC2 /R12/ SLP056

CYHM;2008-05-04 00:00;CYHM 040000Z 18008KT 15SM FEW025 BKN100 BKN150 11/10 A2971 RMK SC2AC3AC2 /R12/ SLP061

CYHM;2008-05-04 00:24;CYHM 040024Z 17015KT 15SM BKN006 BKN015 BKN095 RMK SF5SC2AC1

CYHM;2008-05-04 00:32;CYHM 040032Z 17017KT 2 1/2SM BR BKN004 BKN015 OVC095 RMK SF6SC1AC1

CYHM;2008-05-04 00:38;CYHM 040038Z 17017KT 1SM BR BKN003 OVC012 RMK FG2SF5SC1

CYHM;2008-05-04 00:46;CYHM 040046Z 17015KT 3/4SM BR OVC002 RMK FG3ST5

CYHM;2008-05-04 01:00;CYHM 040100Z 18012KT 2SM BR OVC002 09/09 A2975 RMK FG1ST7 SLP074

CYHM;2008-05-04 01:21;CYHM 040121Z 16009KT 6SM BR BKN004 OVC070 RMK SF6AC2

CYHM;2008-05-04 01:35;CYHM 040135Z 17012KT 8SM -SHRA SCT004 OVC080 RMK SF4AC4

CYHM;2008-05-04 02:00;CYHM 040200Z 18010KT 12SM -SHRA SCT005 OVC070 09/09 A2975 RMK SF3AC5 SLP074

CYHM;2008-05-04 03:00;CYHM 040300Z 18005KT 12SM -SHRA OVC075 10/09 A2974 RMK AC8 SLP071

CYHM;2008-05-04 04:00;CYHM 040400Z 19011KT 15SM FEW039 OVC076 10/09 A2974 RMK SC2AC6 SLP073

CYHM;2008-05-04 05:00;CYHM 040500Z 20010G16KT 15SM FEW044 OVC068 11/10 A2975 RMK SC2AC6 SLP074

CYHM;2008-05-04 06:00;CYHM 040600Z 24017G22KT 15SM BKN017 OVC060 10/08 A2975 RMK SC6SC2 SLP077

CYHM;2008-05-04 07:00;CYHM 040700Z 25017KT 15SM FEW016 BKN060 OVC110 09/07 A2978 RMK CF1SC6AC2 SLP085

CYHM;2008-05-04 08:00;CYHM 040800Z 23013KT 15SM FEW020 OVC036 09/07 A2980 RMK CF2SC6 SLP091

CYHM;2008-05-04 08:55;CYHM 040855Z 24016KT 7SM -SHRA FEW014 OVC041 RMK CF2SC6

CYHM;2008-05-04 09:00;CYHM 040900Z 24016KT 10SM -SHRA FEW017 OVC030 09/07 A2982 RMK CF2SC6 SLP102

CYHM;2008-05-04 10:00;CYHM 041000Z CCA 30019G27KT 7SM -SHRA OVC016 06/04 A2988 RMK SC8 WND SHFT 0943 CF ASOCTD PRESRR SLP121

CYHM;2008-05-04 10:24;CYHM 041024Z 28014G23KT 15SM FEW014 FEW030 FEW250 RMK CF1SC1CI0

CYHM;2008-05-04 11:00;CYHM 041100Z 27013G19KT 230V320 15SM BKN017 05/03 A2992 RMK SC7 SLP135

CYHM;2008-05-04 12:00;CYHM 041200Z 26015G22KT 15SM BKN015 05/02 A2996 RMK SC7 SLP149

CYHM;2008-05-04 13:00;CYHM 041300Z 26015G20KT 15SM BKN020 06/02 A2999 RMK SC5 SLP159

CYHM;2008-05-04 14:00;CYHM 041400Z 28016KT 250V320 15SM SCT026 08/01 A3002 RMK CU3 SLP169

CYHM;2008-05-04 15:00;CYHM 041500Z 28016KT 240V320 15SM FEW034 09/01 A3004 RMK CU2 SLP178

CYHM;2008-05-04 16:00;CYHM 041600Z 28015KT 230V320 15SM FEW038 10/02 A3006 RMK CU2 SLP183

CYHM;2008-05-04 17:00;CYHM 041700Z 29015KT 200V320 15SM FEW042 11/02 A3007 RMK CU2 SLP187

CYHM;2008-05-04 18:00;CYHM 041800Z 27018KT 220V300 15SM FEW045 12/03 A3008 RMK CU2 SLP189

CYHM;2008-05-04 19:00;CYHM 041900Z 26015G20KT 230V290 15SM FEW045 SCT250 13/03 A3008 RMK CU2CI1 SLP189

CYHM;2008-05-04 20:00;CYHM 042000Z 25015KT 15SM FEW045 SCT250 12/02 A3008 RMK SC2CI1 CU ASOCTD SLP189

CYHM;2008-05-04 21:00;CYHM 042100Z 25014KT 220V280 15SM FEW045 SCT250 13/02 A3008 RMK SC2CI1 CU ASOCTD SLP191

CYHM;2008-05-04 22:00;CYHM 042200Z 25011KT 15SM FEW045 FEW250 13/01 A3008 RMK CU1CI1 CU TR SLP191

CYHM;2008-05-04 23:00;CYHM 042300Z 25009KT 15SM FEW250 12/01 A3009 RMK CI1 SLP193

CYHM;2008-05-05 00:00;CYHM 050000Z 27006KT 15SM FEW250 11/01 A3010 RMK CI1 SLP197

CYHM;2008-05-05 01:00;CYHM 050100Z 22010KT 15SM FEW220 08/04 A3011 RMK CI1 SLP203

CYHM;2008-05-05 02:00;CYHM 050200Z 24008KT 15SM FEW200 08/02 A3013 RMK CI1 CI TR SLP208

CYHM;2008-05-05 03:00;CYHM 050300Z 25005KT 15SM FEW210 06/02 A3012 RMK CI1 SLP205

CYHM;2008-05-05 04:00;CYHM 050400Z 25004KT 15SM FEW170 BKN200 06/02 A3012 RMK AC1CI3 SLP204

CYHM;2008-05-05 05:00;CYHM 050500Z 21004KT 15SM FEW200 04/01 A3012 RMK CI2 SLP204

CYHM;2008-05-05 06:00;CYHM 050600Z 19005KT 15SM FEW210 05/01 A3010 RMK CI1 SLP199

CYHM;2008-05-05 07:00;CYHM 050700Z 00000KT 15SM FEW210 04/01 A3009 RMK CI1 SLP194

CYHM;2008-05-05 08:00;CYHM 050800Z 00000KT 15SM FEW210 03/01 A3008 RMK CI1 SLP193

CYHM;2008-05-05 09:00;CYHM 050900Z 17008KT 15SM FEW210 04/02 A3007 RMK CI1 SLP187

CYHM;2008-05-05 10:00;CYHM 051000Z 18005KT 15SM FEW100 FEW210 03/01 A3007 RMK AC1CI1 SLP187

CYHM;2008-05-05 11:00;CYHM 051100Z 19005KT 15SM FEW075 FEW220 04/02 A3007 RMK AC1CI1 AC TR CI TR SLP189

CYHM;2008-05-05 12:00;CYHM 051200Z 18010KT 15SM FEW100 FEW220 07/03 A3007 RMK AC1CI1 SLP188

CYHM;2008-05-05 13:00;CYHM 051300Z 18012KT 15SM FEW068 10/04 A3007 RMK AC1 SLP188

CYHM;2008-05-05 14:00;CYHM 051400Z 22015KT 15SM SKC 13/05 A3006 RMK SLP184

CYHM;2008-05-05 15:00;CYHM 051500Z 21010KT 15SM FEW250 15/06 A3004 RMK CI0 SLP176

CYHM;2008-05-05 16:00;CYHM 051600Z 19010KT 15SM FEW250 16/07 A3004 RMK CI0 CI TR SLP175

CYHM;2008-05-05 17:00;CYHM 051700Z 22012KT 15SM FEW250 18/08 A3002 RMK CI1 CONTRAIL SLP169

CYHM;2008-05-05 18:00;CYHM 051800Z 23012KT 15SM FEW045 FEW250 19/06 A3001 RMK CU1CI0 CU TR CI TR CONTRAIL SLP166

CYHM;2008-05-05 19:00;CYHM 051900Z 23015KT 15SM FEW060 BKN250 19/04 A2999 RMK CU1CI1 CU TR CONTRAILS SLP160

CYHM;2008-05-05 20:00;CYHM 052000Z 23015G22KT 15SM FEW058 FEW160 BKN250 20/05 A2998 RMK CU1AC1CI1 CU TR AC TR CONTRAILS SLP155

CYHM;2008-05-05 21:00;CYHM 052100Z 23015G22KT 15SM FEW160 BKN250 19/04 A2997 RMK AC1CI1 AC TR CONTRAILS SLP152

CYHM;2008-05-05 22:00;CYHM 052200Z 21017KT 15SM FEW058 BKN250 19/05 A2997 RMK CU1CI3 CU TR CONTRAILS SLP152

CYHM;2008-05-05 23:00;CYHM 052300Z 22015G22KT 15SM FEW180 BKN250 18/04 A2997 RMK AC1CI1 CONTRAILS SLP151

CYHM;2008-05-06 00:00;CYHM 060000Z 21008KT 15SM FEW090 BKN250 16/05 A2997 RMK AC2CI1 SLP150

CYHM;2008-05-06 01:00;CYHM 060100Z 24008KT 15SM BKN080 BKN120 15/05 A2997 RMK AC5AC2 SLP153

CYHM;2008-05-06 02:00;CYHM 060200Z 32009KT 15SM FEW082 BKN100 15/07 A3000 RMK AC2AC5 SLP161

CYHM;2008-05-06 03:00;CYHM 060300Z 17005KT 15SM FEW086 BKN110 BKN250 13/07 A2997 RMK AC2AC2CI1 SLP150

CYHM;2008-05-06 04:00;CYHM 060400Z 20005KT 15SM FEW120 BKN230 11/07 A2998 RMK AC1CS2 SLP153

CYHM;2008-05-06 05:00;CYHM 060500Z 29006KT 15SM SCT240 12/07 A2999 RMK CI2 SLP158

CYHM;2008-05-06 06:00;CYHM 060600Z 36007KT 15SM FEW240 10/04 A3000 RMK CI1 SLP161

CYHM;2008-05-06 07:00;CYHM 060700Z 01006KT 15SM FEW240 08/03 A3001 RMK CI1 SLP164

CYHM;2008-05-06 08:00;CYHM 060800Z 01006KT 15SM FEW240 08/01 A3002 RMK CI1 CI TR SLP166

CYHM;2008-05-06 09:00;CYHM 060900Z 03006KT 15SM FEW240 07/01 A3003 RMK CI1 CI TR SLP172

CYHM;2008-05-06 10:00;CYHM 061000Z 04007KT 15SM SCT130 07/M04 A3004 RMK AC2 SLP173

CYHM;2008-05-06 11:00;CYHM 061100Z 09003KT 15SM FEW210 07/M03 A3004 RMK CI1 CI TR SLP176

CYHM;2008-05-06 12:00;CYHM 061200Z 12003KT 15SM FEW210 09/M00 A3007 RMK CI1 SLP187

CYHM;2008-05-06 13:00;CYHM 061300Z 08004KT 15SM FEW030 BKN120 BKN220 11/M04 A3007 RMK CU1AC4CI1 SLP187

CYHM;2008-05-06 14:00;CYHM 061400Z 09008KT 15SM FEW045 SCT086 BKN130 BKN220 12/M04 A3008 RMK SC1AC2AC2CI1 CU TR ASOCTD SLP188

CYHM;2008-05-06 15:00;CYHM 061500Z 02004KT 15SM FEW055 SCT070 BKN097 BKN220 13/M03 A3010 RMK SC2AC2AC2CI1 SLP196

CYHM;2008-05-06 16:00;CYHM 061600Z 03005KT 15SM SCT100 BKN140 BKN220 13/M02 A3010 RMK AC3AC2CI1 SLP195

CYHM;2008-05-06 17:00;CYHM 061700Z 08005KT 15SM FEW093 SCT120 BKN220 14/M02 A3008 RMK AC2AC2CI2 SLP190

CYHM;2008-05-06 18:00;CYHM 061800Z 14005KT 15SM FEW120 SCT170 BKN240 15/M00 A3006 RMK AC2AC1CI1 SLP181

CYHM;2008-05-06 19:00;CYHM 061900Z 07002KT 15SM BKN085 OVC120 16/01 A3003 RMK AC6AC2 SUN DMLY VSBL SLP173

CYHM;2008-05-06 20:00;CYHM 062000Z 33002KT 15SM BKN070 BKN160 16/02 A3002 RMK AC5AC2 SLP169

CYHM;2008-05-06 21:00;CYHM 062100Z 24002KT 15SM FEW090 FEW120 17/04 A2999 RMK AC1AC2 SLP158

CYHM;2008-05-06 22:00;CYHM 062200Z 06004KT 15SM FEW100 17/04 A3000 RMK AC1 SLP160

CYHM;2008-05-06 23:00;CYHM 062300Z 06008KT 15SM FEW100 16/03 A2999 RMK AC1 AC TR SLP159

CYHM;2008-05-07 00:00;CYHM 070000Z 06007KT 15SM SKC 13/03 A3000 RMK SLP161

CYHM;2008-05-07 01:00;CYHM 070100Z 08005KT 15SM FEW250 11/01 A2999 RMK CI1 CI TR SLP159

CYHM;2008-05-07 02:00;CYHM 070200Z 06007KT 15SM FEW250 10/02 A2999 RMK CI1 CI TR SLP159

CYHM;2008-05-07 03:00;CYHM 070300Z 07006KT 15SM FEW250 10/01 A2997 RMK CI1 CI TR SLP153

CYHM;2008-05-07 04:00;CYHM 070400Z 09005KT 15SM FEW250 10/02 A2997 RMK CI1 CI TR SLP151

CYHM;2008-05-07 05:00;CYHM 070500Z 08006KT 15SM FEW250 09/02 A2996 RMK CI1 CI TR SLP147

CYHM;2008-05-07 06:00;CYHM 070600Z 06006KT 15SM FEW250 09/03 A2994 RMK CI1 CI TR SLP141

CYHM;2008-05-07 07:00;CYHM 070700Z 07006KT 15SM FEW250 08/02 A2992 RMK CI1 CI TR SLP136

CYHM;2008-05-07 08:00;CYHM 070800Z 05007KT 15SM FEW090 07/01 A2991 RMK AC2 SLP133

CYHM;2008-05-07 09:00;CYHM 070900Z 05007KT 15SM SCT098 07/02 A2989 RMK AC3 SLP125

CYHM;2008-05-07 10:00;CYHM 071000Z 06008KT 15SM SCT084 BKN250 08/03 A2988 RMK AC4CS2 SLP120

CYHM;2008-05-07 11:00;CYHM 071100Z 04007KT 15SM FEW085 BKN250 07/03 A2987 RMK AC2CI4 SLP116

CYHM;2008-05-07 12:00;CYHM 071200Z 04006KT 15SM FEW120 BKN250 09/04 A2985 RMK AC2CI2 CONTRAIL SLP111

CYHM;2008-05-07 13:00;CYHM 071300Z 12004KT 15SM FEW120 SCT240 13/07 A2983 RMK AC1CI1 SLP104

CYHM;2008-05-07 14:00;CYHM 071400Z 19007KT 15SM FEW140 FEW180 BKN240 16/09 A2981 RMK AC1AC2CI2 SLP096

CYHM;2008-05-07 15:00;CYHM 071500Z 23010KT 15SM FEW140 BKN170 BKN220 20/12 A2977 RMK AC2AC3CI1 SLP083

CYHM;2008-05-07 16:00;CYHM 071600Z 22012KT 15SM BKN130 BKN140 BKN220 21/12 A2975 RMK AC5AC2CI1 SLP076

CYHM;2008-05-07 17:00;CYHM 071700Z 20012KT 15SM BKN120 OVC160 20/13 A2971 RMK AC6AC2 SLP064

CYHM;2008-05-07 18:00;CYHM 071800Z 21012KT 15SM BKN076 OVC120 20/13 A2970 RMK AC6AC2 SLP057

CYHM;2008-05-07 18:52;CYHM 071852Z 23008KT 15SM -SHRA BKN058 BKN070 OVC100 RMK SC5AC2AC1

CYHM;2008-05-07 19:00;CYHM 071900Z 23008KT 15SM -SHRA BKN058 BKN070 OVC100 20/10 A2967 RMK SC5AC2AC1 SLP048

CYHM;2008-05-07 20:00;CYHM 072000Z 22013G20KT 12SM -SHRA FEW036 OVC070 19/11 A2964 RMK SC2AC6 SLP039

CYHM;2008-05-07 21:00;CYHM 072100Z 23007KT 5SM -SHRA BR FEW044 OVC078 15/13 A2964 RMK SC2AC6 SLP039

CYHM;2008-05-07 22:00;CYHM 072200Z 25014KT 5SM -RA BR FEW044 BKN064 OVC084 15/13 A2966 RMK SC1SC4AC3 SLP045

CYHM;2008-05-07 23:00;CYHM 072300Z 23013KT 4SM -RA BR BKN062 OVC084 14/13 A2964 RMK SC6AC2 SLP039

CYHM;2008-05-07 23:50;CYHM 072350Z 21014KT 2 1/2SM -RA BR BKN040 BKN058 OVC084 RMK SC5SC2AC1

CYHM;2008-05-08 00:00;CYHM 080000Z 21014KT 2 1/2SM -RA BR BKN040 BKN058 OVC084 14/13 A2962 RMK SC5SC2AC1 SLP032

CYHM;2008-05-08 00:50;CYHM 080050Z 23010KT 5SM -SHRA BR BKN008 OVC024 RMK SC6SC2

CYHM;2008-05-08 01:00;CYHM 080100Z 23010KT 5SM -SHRA BR BKN008 OVC024 15/14 A2962 RMK SC6SC2 SLP031

CYHM;2008-05-08 02:00;CYHM 080200Z 23009KT 2 1/4SM -SHRA BR OVC006 15/14 A2962 RMK SF8 SLP032

CYHM;2008-05-08 02:19;CYHM 080219Z 23012KT 4SM -SHRA BR FEW005 OVC013 RMK SF2SC6

CYHM;2008-05-08 02:32;CYHM 080232Z 23011KT 6SM -SHRA BR OVC007 RMK SF8

CYHM;2008-05-08 03:00;CYHM 080300Z 25006KT 6SM BR OVC007 15/14 A2961 RMK SF8 SLP025

CYHM;2008-05-08 04:00;CYHM 080400Z 23007KT 4SM BR OVC007 15/14 A2960 RMK SF8 SLP024

CYHM;2008-05-08 05:00;CYHM 080500Z 24005KT 4SM BR OVC009 14/14 A2961 RMK SC8 CIG RAG SLP025

CYHM;2008-05-08 05:39;CYHM 080539Z 24006KT 4SM BR FEW006 SCT023 BKN240 RMK SF2SC2CI2

CYHM;2008-05-08 06:00;CYHM 080600Z 32015KT 6SM BR FEW007 OVC013 13/13 A2962 RMK SF2SC6 SLP030

CYHM;2008-05-08 06:15;CYHM 080615Z 29016KT 6SM BR FEW006 OVC029 RMK SF2SC6

CYHM;2008-05-08 07:00;CYHM 080700Z 30011KT 7SM OVC010 10/09 A2964 RMK SC8 SLP035

CYHM;2008-05-08 08:00;CYHM 080800Z 30013G18KT 15SM SCT011 OVC240 08/07 A2966 RMK CF4CI4 SLP043

CYHM;2008-05-08 08:33;CYHM 080833Z 31018KT 15SM BKN013 OVC240 RMK CF6CI2

CYHM;2008-05-08 09:00;CYHM 080900Z 31017G22KT 15SM OVC012 07/05 A2969 RMK SC8 SLP056

CYHM;2008-05-08 10:00;CYHM 081000Z 31013G18KT 15SM OVC014 07/05 A2971 RMK SC8 SLP062

CYHM;2008-05-08 11:00;CYHM 081100Z 29010KT 15SM FEW020 BKN220 07/04 A2974 RMK SC2CI3 SLP073

CYHM;2008-05-08 12:00;CYHM 081200Z 32015G20KT 15SM BKN018 BKN220 08/05 A2976 RMK SC5CI2 CU ASOCTD SLP081

CYHM;2008-05-08 13:00;CYHM 081300Z 32015KT 15SM BKN019 08/04 A2979 RMK SC7 SLP091

CYHM;2008-05-08 14:00;CYHM 081400Z 32012KT 15SM BKN021 09/05 A2981 RMK SC7 SLP098

CYHM;2008-05-08 15:00;CYHM 081500Z 33008KT 15SM BKN021 BKN035 10/05 A2983 RMK SC6SC2 SLP105

CYHM;2008-05-08 16:00;CYHM 081600Z 33007KT 15SM BKN023 BKN045 BKN220 10/05 A2986 RMK SC5SC1CI1 SLP114

CYHM;2008-05-08 17:00;CYHM 081700Z 33008KT 15SM FEW024 BKN031 BKN220 12/06 A2985 RMK CU2SC4CI1 SLP111

CYHM;2008-05-08 18:00;CYHM 081800Z 01006KT 15SM FEW024 SCT035 BKN220 12/06 A2984 RMK CU2SC2CI1 SLP106

CYHM;2008-05-08 19:00;CYHM 081900Z 30003KT 15SM SCT036 BKN230 14/05 A2983 RMK SC3CI1 SLP102

CYHM;2008-05-08 20:00;CYHM 082000Z 08007KT 030V140 15SM SCT038 BKN250 14/06 A2981 RMK SC4CI2 SLP098

CYHM;2008-05-08 21:00;CYHM 082100Z 08005KT 15SM SCT036 BKN250 14/06 A2983 RMK SC3CI2 SLP105

CYHM;2008-05-08 22:00;CYHM 082200Z 17006KT 110V210 15SM BKN036 OVC250 13/07 A2984 RMK SC6CI2 SLP107

CYHM;2008-05-08 23:00;CYHM 082300Z 16009KT 15SM FEW035 SCT190 OVC250 11/07 A2984 RMK SC1AC2CI4 SLP108

CYHM;2008-05-09 00:00;CYHM 090000Z 14004KT 15SM FEW028 SCT190 OVC250 10/06 A2984 RMK SC1AC3CI3 SLP109

CYHM;2008-05-09 01:00;CYHM 090100Z 12004KT 15SM FEW190 OVC250 09/06 A2985 RMK AC2CI2 SLP112

CYHM;2008-05-09 02:00;CYHM 090200Z 15004KT 15SM BKN250 08/05 A2986 RMK CI4 SLP117

CYHM;2008-05-09 03:00;CYHM 090300Z 00000KT 15SM SCT250 08/06 A2986 RMK CI2 SLP116

CYHM;2008-05-09 04:00;CYHM 090400Z 00000KT 15SM SCT210 06/05 A2985 RMK CI3 SLP112

CYHM;2008-05-09 05:00;CYHM 090500Z 02007KT 15SM BKN210 06/04 A2984 RMK CI6 SLP109

CYHM;2008-05-09 06:00;CYHM 090600Z 02008KT 15SM SCT210 07/04 A2982 RMK CI2 SLP103

CYHM;2008-05-09 07:00;CYHM 090700Z 04009KT 15SM FEW210 06/03 A2981 RMK CI1 SLP097

CYHM;2008-05-09 08:00;CYHM 090800Z 04011KT 15SM SCT210 06/03 A2981 RMK CI2 SLP099

CYHM;2008-05-09 09:00;CYHM 090900Z 05017G22KT 15SM FEW210 07/03 A2981 RMK CI2 SLP096

CYHM;2008-05-09 10:00;CYHM 091000Z 05017G22KT 15SM BKN250 06/03 A2980 RMK CI6 SLP095

CYHM;2008-05-09 11:00;CYHM 091100Z 06018KT 15SM FEW160 OVC210 06/03 A2981 RMK AC2CI6 SLP096

CYHM;2008-05-09 12:00;CYHM 091200Z 06018G23KT 15SM FEW160 OVC210 06/03 A2982 RMK AC2CI6 SLP103

CYHM;2008-05-09 13:00;CYHM 091300Z 06020G25KT 15SM FEW020 FEW180 OVC230 07/04 A2982 RMK CU1AC1CI6 CU TR SLP103

CYHM;2008-05-09 14:00;CYHM 091400Z 06020KT 15SM FEW020 FEW160 OVC220 08/04 A2981 RMK CU1AC2CI5 SLP101

CYHM;2008-05-09 15:00;CYHM 091500Z 05020G25KT 15SM FEW180 BKN220 08/04 A2981 RMK AC2CI5 SLP101

CYHM;2008-05-09 16:00;CYHM 091600Z 06022G27KT 14SM FEW020 BKN220 09/04 A2981 RMK CU1CS4 CU TR HALO SLP099

CYHM;2008-05-09 17:00;CYHM 091700Z 05025KT 15SM FEW020 FEW220 10/04 A2981 RMK CU1CI1 CU TR SLP100

CYHM;2008-05-09 18:00;CYHM 091800Z 07022KT 15SM FEW025 FEW220 11/05 A2981 RMK CU1CI1 CU TR SLP097

CYHM;2008-05-09 19:00;CYHM 091900Z 06020KT 15SM FEW030 BKN240 12/04 A2978 RMK CU1CI3 CU TR SLP089

CYHM;2008-05-09 20:00;CYHM 092000Z 08015KT 15SM BKN230 14/04 A2978 RMK CI3 SLP088

CYHM;2008-05-09 21:00;CYHM 092100Z 06012KT 15SM SCT230 14/04 A2977 RMK CI2 SLP085

CYHM;2008-05-09 22:00;CYHM 092200Z 04012KT 15SM FEW040 BKN250 13/04 A2978 RMK SC1CI2 SC TR SLP087

CYHM;2008-05-09 23:00;CYHM 092300Z 03011KT 15SM FEW040 BKN250 12/03 A2977 RMK SC1CI3 SLP084

CYHM;2008-05-10 00:00;CYHM 100000Z 02007KT 15SM FEW150 BKN250 12/02 A2978 RMK AC2CI4 SLP089

CYHM;2008-05-10 01:00;CYHM 100100Z 36006KT 15SM FEW140 BKN250 10/03 A2979 RMK AC2CI2 SLP091

CYHM;2008-05-10 02:00;CYHM 100200Z CCA 36006KT 15SM FEW160 BKN250 09/02 A2979 RMK AC2CI2 SLP091

CYHM;2008-05-10 03:00;CYHM 100300Z CCA 36004KT 15SM BKN230 08/03 A2980 RMK CI6 SLP095

CYHM;2008-05-10 04:00;CYHM 100400Z 02007KT 15SM FEW170 BKN220 09/03 A2979 RMK AC1CI4 SLP093

CYHM;2008-05-10 05:00;CYHM 100500Z 00000KT 15SM OVC150 09/03 A2979 RMK AS8 SLP093

CYHM;2008-05-10 06:00;CYHM 100600Z 01004KT 15SM OVC130 09/04 A2979 RMK AS8 SLP091

CYHM;2008-05-10 07:00;CYHM 100700Z 00000KT 15SM OVC110 09/03 A2978 RMK AS8 SLP089

CYHM;2008-05-10 08:00;CYHM 100800Z 01003KT 15SM OVC110 08/04 A2980 RMK AS8 SLP094

CYHM;2008-05-10 09:00;CYHM 100900Z 00000KT 15SM OVC100 08/03 A2981 RMK AS8 SLP098

CYHM;2008-05-10 10:00;CYHM 101000Z 02004KT 15SM OVC130 08/03 A2982 RMK AC8 SLP102

CYHM;2008-05-10 11:00;CYHM 101100Z 36007KT 15SM OVC110 09/03 A2986 RMK AS7 SUN DIMLY VISBL SLP113

CYHM;2008-05-10 12:00;CYHM 101200Z CCA 01005KT 15SM FEW055 BKN160 BKN250 10/03 A2987 RMK SC1AC4CS1 SLP118

CYHM;2008-05-10 13:00;CYHM 101300Z 03009KT 15SM FEW160 BKN250 13/02 A2988 RMK AC2CI1 SLP122

CYHM;2008-05-10 15:00;CYHM 101500Z CCA 02010KT 15SM FEW025 SCT250 15/01 A2990 RMK CU1CI1 CU TR SLP129

CYHM;2008-05-10 16:00;CYHM 101600Z 01009KT 330V040 15SM FEW250 16/02 A2990 RMK CI1 SLP129

CYHM;2008-05-10 17:00;CYHM 101700Z CCA 03010KT 15SM FEW035 17/04 A2991 RMK SC2 CU ASOCTD SLP130

CYHM;2008-05-10 18:00;CYHM 101800Z 34008KT 15SM FEW030 SCT075 17/02 A2991 RMK SC2AC2 SLP131

CYHM;2008-05-10 19:00;CYHM 101900Z 09007KT 050V120 15SM SCT070 18/04 A2989 RMK AC4 SLP125

CYHM;2008-05-10 20:00;CYHM 102000Z 35003KT 15SM FEW050 SCT072 19/03 A2988 RMK SC1AC2 WND L/V SLP122

CYHM;2008-05-10 21:00;CYHM 102100Z 16003KT 15SM FEW070 FEW200 19/04 A2987 RMK AC1CI1 WND L/V SLP117

CYHM;2008-05-10 22:00;CYHM 102200Z 19010KT 15SM FEW070 FEW200 17/06 A2988 RMK AC2CI1 SLP120

CYHM;2008-05-10 23:00;CYHM 102300Z 19013KT 15SM FEW070 BKN250 15/05 A2990 RMK AC2CI2 SLP127

CYHM;2008-05-11 00:00;CYHM 110000Z 19009KT 15SM FEW070 BKN250 14/04 A2990 RMK AC2CI2 SLP129

CYHM;2008-05-11 01:00;CYHM 110100Z 19007KT 15SM FEW070 BKN220 11/04 A2990 RMK AC1CI4 AC TR SLP127

CYHM;2008-05-11 02:00;CYHM 110200Z 19006KT 15SM BKN240 11/04 A2991 RMK CI5 SLP131

CYHM;2008-05-11 03:00;CYHM 110300Z 20004KT 15SM BKN220 11/03 A2991 RMK CI5 SLP131

CYHM;2008-05-11 04:00;CYHM 110400Z 20004KT 15SM BKN220 11/03 A2989 RMK CI3 SLP124

CYHM;2008-05-11 05:00;CYHM 110500Z 00000KT 15SM SCT220 10/02 A2987 RMK CI2 SLP116

CYHM;2008-05-11 06:00;CYHM 110600Z 00000KT 15SM SCT220 09/04 A2984 RMK CI3 SLP105

CYHM;2008-05-11 07:00;CYHM 110700Z 05008KT 15SM FEW210 08/03 A2981 RMK CI1 SLP095

CYHM;2008-05-11 08:00;CYHM 110800Z 05010KT 15SM FEW200 09/03 A2978 RMK CI2 SLP088

CYHM;2008-05-11 09:00;CYHM 110900Z 05007KT 15SM FEW170 BKN210 08/03 A2979 RMK AC2CI2 SLP089

CYHM;2008-05-11 10:00;CYHM 111000Z 06007KT 15SM BKN180 08/04 A2978 RMK AC6 SLP085

CYHM;2008-05-11 11:00;CYHM 111100Z 06008KT 15SM SCT160 BKN220 09/05 A2976 RMK AC3CI2 SLP080

CYHM;2008-05-11 12:00;CYHM 111200Z 06010KT 15SM FEW170 BKN250 11/05 A2971 RMK AC2CI3 SLP062

CYHM;2008-05-11 13:00;CYHM 111300Z 07012KT 15SM BKN160 OVC250 11/05 A2968 RMK AC5CI3 SLP054

CYHM;2008-05-11 14:00;CYHM 111400Z 05011KT 15SM BKN160 OVC250 11/06 A2965 RMK AC7CI1 SLP044

CYHM;2008-05-11 15:00;CYHM 111500Z 04012KT 15SM OVC170 11/06 A2962 RMK AC8 SLP033

CYHM;2008-05-11 16:00;CYHM 111600Z 04013KT 15SM BKN160 OVC230 12/06 A2959 RMK AC6CI2 SLP021

CYHM;2008-05-11 17:00;CYHM 111700Z 03013KT 15SM BKN130 OVC230 12/06 A2956 RMK AC6CI2 SLP013

CYHM;2008-05-11 18:00;CYHM 111800Z 02012KT 15SM OVC110 11/05 A2952 RMK AC8 SLP000

CYHM;2008-05-11 19:00;CYHM 111900Z 01011KT 15SM SCT070 OVC120 10/05 A2952 RMK AC4AC4 SLP998

CYHM;2008-05-11 19:34;CYHM 111934Z 01009KT 12SM -SHRA SCT040 BKN060 OVC090 RMK SC3SC3AC2

CYHM;2008-05-11 20:00;CYHM 112000Z 09004KT 030V140 4SM -RA HZ SCT037 OVC052 11/06 A2955 RMK SC3SC5 SLP010

CYHM;2008-05-11 21:00;CYHM 112100Z 14013KT 7SM -RA FEW035 OVC052 12/08 A2955 RMK SC2SC6 SLP010

CYHM;2008-05-11 22:00;CYHM 112200Z 13009KT 5SM -RA BR BKN038 OVC048 11/09 A2955 RMK SC6SC2 SLP011

CYHM;2008-05-11 23:00;CYHM 112300Z 08011KT 6SM -RA BR FEW040 OVC052 11/09 A2955 RMK SC2SC6 SLP009

CYHM;2008-05-12 00:00;CYHM 120000Z 07011KT 8SM -SHRA OVC054 11/09 A2954 RMK SC8 SLP007

CYHM;2008-05-12 00:30;CYHM 120030Z 06012KT 9SM OVC052 RMK SC8

CYHM;2008-05-12 01:00;CYHM 120100Z 06011KT 10SM OVC052 10/09 A2955 RMK SC8 SLP008

CYHM;2008-05-12 02:00;CYHM 120200Z 05012KT 12SM OVC053 10/08 A2956 RMK SC8 SLP012

CYHM;2008-05-12 02:24;CYHM 120224Z 04007KT 10SM -SHRA OVC038 RMK SC8

CYHM;2008-05-12 03:00;CYHM 120300Z 05007KT 10SM -SHRA OVC035 10/08 A2956 RMK SC8 SLP014

CYHM;2008-05-12 04:00;CYHM 120400Z 07006KT 12SM -SHRA OVC055 10/09 A2958 RMK SC8 SLP018

CYHM;2008-05-12 05:00;CYHM 120500Z 10007KT 7SM -SHRA OVC054 10/09 A2960 RMK SC8 SLP025

CYHM;2008-05-12 06:00;CYHM 120600Z 07007KT 7SM -SHRA OVC049 10/09 A2960 RMK SC8 SLP027

CYHM;2008-05-12 07:00;CYHM 120700Z 08008KT 10SM -SHRA OVC047 09/09 A2961 RMK SC8 SLP031

CYHM;2008-05-12 08:00;CYHM 120800Z 10005KT 8SM -RA OVC032 09/08 A2965 RMK SC8 SLP042

CYHM;2008-05-12 09:00;CYHM 120900Z 14007KT 12SM -RA OVC049 09/08 A2968 RMK SC8 SLP053

CYHM;2008-05-12 10:00;CYHM 121000Z 15008KT 8SM -RA FEW035 OVC050 09/07 A2971 RMK CF2SC6 SLP062

CYHM;2008-05-12 11:00;CYHM 121100Z 23006KT 15SM -RA FEW045 BKN062 OVC088 09/07 A2972 RMK SC2SC5AC2 SLP067

CYHM;2008-05-12 11:12;CYHM 121112Z 10004KT 15SM FEW045 BKN062 OVC090 RMK SC2SC4AC2

CYHM;2008-05-12 12:00;CYHM 121200Z 12002KT 15SM FEW045 BKN057 BKN090 09/07 A2976 RMK SC2SC4AC2 SLP081

CYHM;2008-05-12 13:00;CYHM 121300Z 10006KT 15SM FEW016 BKN058 OVC082 10/08 A2979 RMK CF2SC5AC2 SLP090

CYHM;2008-05-12 13:05;CYHM 121305Z 09006KT 15SM -SHRA FEW016 BKN044 OVC055 RMK CF2SC4SC2

CYHM;2008-05-12 14:00;CYHM 121400Z 11014KT 15SM -SHRA FEW020 BKN060 BKN070 11/07 A2981 RMK CU2SC4AC2 SLP098

CYHM;2008-05-12 15:00;CYHM 121500Z 15013KT 15SM FEW025 SCT055 OVC068 10/05 A2984 RMK CU1SC3AC4 SLP107

CYHM;2008-05-12 16:00;CYHM 121600Z 18014KT 15SM FEW025 BKN063 OVC085 11/04 A2985 RMK CU1SC6AC2 CU TR SLP111

CYHM;2008-05-12 17:00;CYHM 121700Z 22012KT 15SM FEW030 FEW060 BKN120 13/05 A2986 RMK CU1SC2AC3 CU TR SLP115

CYHM;2008-05-12 18:00;CYHM 121800Z 21004KT 15SM FEW030 SCT120 BKN180 OVC220 13/04 A2987 RMK CU1AC3AC2CS2 HALO SLP119

CYHM;2008-05-12 19:00;CYHM 121900Z 21003KT 15SM FEW058 FEW180 OVC250 14/04 A2988 RMK SC2AC1CS4 WND L/V SUN DMLY VSBL HALO CU ASOCTD SLP122

CYHM;2008-05-12 20:00;CYHM 122000Z 28002KT 15SM SCT056 SCT160 OVC250 14/05 A2989 RMK SC3AC1CS2 CU ASOCTD SLP126

CYHM;2008-05-12 21:00;CYHM 122100Z 31008KT 15SM FEW050 OVC250 15/07 A2990 RMK CU1CS6 SUN DMLY VSBL HALO SLP127

CYHM;2008-05-12 22:00;CYHM 122200Z 31002KT 15SM FEW054 OVC250 15/05 A2992 RMK SC1CS6 CU ASOCTD SLP134

CYHM;2008-05-12 23:00;CYHM 122300Z 36002KT 15SM FEW052 BKN150 BKN250 15/06 A2993 RMK SC1AS4CS2 CONTRAILS SUN DMLY VSBL SLP139

CYHM;2008-05-13 00:00;CYHM 130000Z 11003KT 15SM FEW048 BKN250 13/07 A2995 RMK SC1CS2 SC TR CONTRAILS SLP145

CYHM;2008-05-13 02:00;CYHM 130200Z 27004KT 15SM FEW250 11/07 A2999 RMK CI1 SLP160

CYHM;2008-05-13 03:00;CYHM 130300Z 29007KT 15SM FEW250 10/07 A3001 RMK CI1 CI TR SLP168

CYHM;2008-05-13 04:00;CYHM 130400Z 28004KT 15SM FEW250 10/06 A3003 RMK CI1 CI TR SLP172

CYHM;2008-05-13 05:00;CYHM 130500Z 31009KT 15SM FEW250 10/08 A3005 RMK CI1 CI TR SLP181

CYHM;2008-05-13 06:00;CYHM 130600Z 31005KT 15SM SKC 09/08 A3006 RMK SLP182

CYHM;2008-05-13 07:00;CYHM 130700Z 31003KT 15SM SKC 08/07 A3007 RMK SLP184

CYHM;2008-05-13 08:00;CYHM 130800Z 29002KT 15SM FEW250 07/06 A3008 RMK CI1 CI TR SLP190

CYHM;2008-05-13 09:00;CYHM 130900Z 29002KT 15SM FEW250 07/06 A3009 RMK CI1 CI TR SLP193

CYHM;2008-05-13 10:00;CYHM 131000Z 29003KT 15SM FEW250 07/06 A3010 RMK CI1 CI TR SLP198

CYHM;2008-05-13 11:00;CYHM 131100Z 00000KT 15SM FEW250 07/06 A3012 RMK CI1 CI TR SLP204

CYHM;2008-05-13 12:00;CYHM 131200Z 00000KT 15SM SKC 11/08 A3014 RMK SLP210

CYHM;2008-05-13 13:00;CYHM 131300Z 02004KT 15SM FEW250 14/08 A3016 RMK CI1 CI TR SLP215

CYHM;2008-05-13 14:00;CYHM 131400Z 02006KT 15SM SKC 16/08 A3016 RMK SLP217

CYHM;2008-05-13 15:00;CYHM 131500Z 03006KT 15SM SKC 17/08 A3017 RMK SLP218

CYHM;2008-05-13 16:00;CYHM 131600Z 06004KT 15SM FEW038 FEW250 18/09 A3016 RMK CU1CI1 CU TR CI TR CONTRAIL SLP215

CYHM;2008-05-13 17:00;CYHM 131700Z 00000KT 15SM FEW036 FEW220 19/08 A3015 RMK CU2CI1 CI TR SLP212

CYHM;2008-05-13 18:00;CYHM 131800Z CCA 00000KT 15SM SCT056 19/09 A3014 RMK CU4 SLP208

CYHM;2008-05-13 19:00;CYHM 131900Z 25002KT 15SM SCT057 BKN220 20/08 A3012 RMK CU3CI1 SC ASOCTD CONTRAIL SLP203

CYHM;2008-05-13 20:00;CYHM 132000Z 16004KT 030V220 15SM SCT058 SCT220 20/07 A3011 RMK CU3CI0 SLP200

CYHM;2008-05-13 21:00;CYHM 132100Z 20011KT 130V230 15SM FEW060 FEW220 21/10 A3010 RMK CU2CI1 CI TR SLP195

CYHM;2008-05-13 22:00;CYHM 132200Z 15011KT 15SM FEW058 20/06 A3009 RMK CU1 SLP191

CYHM;2008-05-13 23:00;CYHM 132300Z 18012KT 15SM FEW050 19/06 A3008 RMK CU1 FU ALOFT E-SW CU TR SLP188

CYHM;2008-05-14 00:00;CYHM 140000Z 18010KT 15SM SKC 17/06 A3008 RMK FU ALOFT S SLP187

CYHM;2008-05-14 01:00;CYHM 140100Z 18006KT 15SM FEW230 15/06 A3007 RMK CI1 SLP185

CYHM;2008-05-14 02:00;CYHM 140200Z 17005KT 15SM SKC 14/07 A3007 RMK SLP184

CYHM;2008-05-14 03:00;CYHM 140300Z 17005KT 15SM FEW200 13/06 A3007 RMK CI1 SLP182

CYHM;2008-05-14 04:00;CYHM 140400Z 19005KT 15SM FEW210 12/06 A3005 RMK CI1 SLP176

CYHM;2008-05-14 05:00;CYHM 140500Z 17005KT 15SM SKC 12/05 A3003 RMK SLP171

CYHM;2008-05-14 06:00;CYHM 140600Z 19005KT 15SM FEW210 10/06 A3002 RMK CI1 SLP168

CYHM;2008-05-14 07:00;CYHM 140700Z 18007KT 15SM SKC 10/06 A2999 RMK SLP158

CYHM;2008-05-14 08:00;CYHM 140800Z 17002KT 15SM FEW210 08/05 A2997 RMK CI1 SLP152

CYHM;2008-05-14 09:00;CYHM 140900Z 18006KT 15SM FEW130 09/06 A2997 RMK AC1 SLP152

CYHM;2008-05-14 10:00;CYHM 141000Z 17006KT 15SM FEW100 FEW230 09/06 A2997 RMK AC1CI1 CONTRAILS SLP149

CYHM;2008-05-14 11:00;CYHM 141100Z 18003KT 15SM FEW120 SCT220 10/07 A2997 RMK AC2CI2 SLP152

CYHM;2008-05-14 12:00;CYHM 141200Z 19008KT 15SM FEW120 BKN180 BKN220 12/08 A2997 RMK AC1AS4CI2 SLP151

CYHM;2008-05-14 13:00;CYHM 141300Z 19008KT 15SM FEW150 OVC180 14/09 A2994 RMK AC2AS6 SLP142

CYHM;2008-05-14 14:00;CYHM 141400Z 20014KT 15SM BKN160 OVC180 16/09 A2992 RMK AC5AS3 SLP135

CYHM;2008-05-14 15:00;CYHM 141500Z 20014KT 15SM BKN130 OVC180 16/09 A2991 RMK AC5AS3 SLP128

CYHM;2008-05-14 16:00;CYHM 141600Z 21014KT 15SM BKN130 OVC180 17/09 A2989 RMK AC6AS2 SLP122

CYHM;2008-05-14 17:00;CYHM 141700Z 21014KT 15SM BKN120 OVC170 17/09 A2989 RMK AC6AS2 SLP123

CYHM;2008-05-14 18:00;CYHM 141800Z 21010KT 15SM SCT045 BKN092 OVC130 16/09 A2989 RMK SC3AC3AC2 SLP123

CYHM;2008-05-14 18:38;CYHM 141838Z 23018G26KT 15SM -SHRA FEW028 BKN090 OVC130 RMK SC1AC5AC2

CYHM;2008-05-14 19:00;CYHM 141900Z 23015G22KT 15SM -SHRA FEW030 BKN082 OVC120 16/10 A2988 RMK CF1AC6AC2 CUFRA TR SLP119

CYHM;2008-05-14 20:00;CYHM 142000Z 19015G22KT 12SM -SHRA FEW024 BKN062 OVC084 14/11 A2985 RMK CF1SC6AC2 CUFRA SLP112

CYHM;2008-05-14 20:45;CYHM 142045Z 22012G18KT 8SM -SHRA BKN012 OVC034 RMK SC6SC2

CYHM;2008-05-14 21:00;CYHM 142100Z 21011G17KT 10SM -SHRA FEW008 BKN012 OVC038 13/12 A2986 RMK SF1SC6SC2 SLP114

CYHM;2008-05-14 21:33;CYHM 142133Z 21015G24KT 15SM -SHRA FEW009 BKN018 OVC034 RMK SF1SC6SC2

CYHM;2008-05-14 21:52;CYHM 142152Z 21015G22KT 15SM -SHRA FEW008 BKN013 OVC026 RMK SF1SC6SC2

CYHM;2008-05-14 22:00;CYHM 142200Z 21015G22KT 15SM -SHRA FEW008 BKN013 OVC026 12/10 A2985 RMK SF1SC6SC2 SLP111

CYHM;2008-05-14 22:03;CYHM 142203Z 20014G20KT 5SM -SHRA BR OVC007 RMK SC8 SF ASOCTD

CYHM;2008-05-14 23:00;CYHM 142300Z 21015G21KT 5SM -SHRA BR OVC006 12/12 A2984 RMK SC8 SF ASOCTD SLP109

CYHM;2008-05-14 23:44;CYHM 142344Z 20012KT 2SM -SHRA BR OVC006 RMK SC8 SF ASOCTD

CYHM;2008-05-15 00:00;CYHM 150000Z 20012KT 1 1/4SM -SHRA BR BKN004 OVC007 13/12 A2985 RMK SF5SC3 SLP111

CYHM;2008-05-15 01:00;CYHM 150100Z 22009KT 1 1/4SM -SHRA BR BKN003 OVC009 13/12 A2985 RMK SF6SC2 SLP110

CYHM;2008-05-15 02:00;CYHM 150200Z 23009KT 4SM -SHRA BR BKN004 OVC009 13/12 A2987 RMK SF6SC2 SLP116

CYHM;2008-05-15 03:00;CYHM 150300Z 25004KT 6SM BR OVC004 13/12 A2987 RMK SF8 SLP115

CYHM;2008-05-15 04:00;CYHM 150400Z 32013KT 6SM BR BKN008 OVC017 13/12 A2988 RMK SF6SC2 SLP121

CYHM;2008-05-15 04:32;CYHM 150432Z 30011KT 12SM FEW008 OVC047 RMK SF2SC6

CYHM;2008-05-15 05:00;CYHM 150500Z 31012KT 15SM FEW006 BKN062 09/08 A2991 RMK CF2SC3 SLP131

CYHM;2008-05-15 06:00;CYHM 150600Z 31010KT 15SM FEW007 FEW056 FEW210 07/05 A2992 RMK CF1SC1CI1 SLP136

CYHM;2008-05-15 07:00;CYHM 150700Z 31008KT 15SM FEW055 FEW210 06/04 A2995 RMK SC2CI1 SLP144

CYHM;2008-05-15 08:00;CYHM 150800Z 32005KT 15SM FEW009 FEW210 05/03 A2997 RMK CF1CI1 TR CF SLP152

CYHM;2008-05-15 09:00;CYHM 150900Z 31004KT 15SM FEW030 FEW200 04/03 A3000 RMK SC1CI1 TR SC SLP163

CYHM;2008-05-15 10:00;CYHM 151000Z 31005KT 15SM FEW030 FEW200 03/02 A3002 RMK SC1CI1 TR SC SLP169

CYHM;2008-05-15 11:00;CYHM 151100Z 30004KT 15SM FEW035 FEW220 04/03 A3004 RMK SC1CI1 SLP177

CYHM;2008-05-15 12:00;CYHM 151200Z 33010KT 15SM FEW025 FEW220 07/05 A3006 RMK CU1CI1 CU TR CI TR SLP183

CYHM;2008-05-15 13:00;CYHM 151300Z 01010KT 15SM SCT018 BKN025 08/05 A3007 RMK CU3SC2 SLP188

CYHM;2008-05-15 14:00;CYHM 151400Z 01010KT 15SM FEW018 SCT025 10/06 A3008 RMK CU2SC2 SLP191

CYHM;2008-05-15 15:00;CYHM 151500Z 02007KT 15SM FEW020 SCT025 11/05 A3009 RMK CU2SC2 SLP191

CYHM;2008-05-15 16:00;CYHM 151600Z 05006KT 15SM FEW032 12/05 A3008 RMK CU1 TR SC ASOCTD SLP189

CYHM;2008-05-15 17:00;CYHM 151700Z 20003KT 15SM FEW032 FEW220 14/06 A3009 RMK CU1CI1 CI TR SLP192

CYHM;2008-05-15 18:00;CYHM 151800Z 22004KT 15SM FEW042 SCT220 15/05 A3010 RMK CU2CI1 CONTRAIL SLP196

CYHM;2008-05-15 19:00;CYHM 151900Z 25005KT 180V320 15SM FEW048 SCT230 16/05 A3009 RMK CU2CI1 SLP192

CYHM;2008-05-15 20:00;CYHM 152000Z 36002KT 15SM FEW050 BKN250 16/06 A3007 RMK CU1CI2 WND L/V SLP185

CYHM;2008-05-15 21:00;CYHM 152100Z 33006KT 15SM FEW050 BKN250 17/04 A3005 RMK CU1CI3 SLP180

CYHM;2008-05-15 22:00;CYHM 152200Z 08009KT 15SM FEW050 OVC250 16/05 A3003 RMK CU1CI6 CU TR SLP174

CYHM;2008-05-15 23:00;CYHM 152300Z 09008KT 15SM OVC230 15/04 A3003 RMK CI6 CONTRAILS SLP172

CYHM;2008-05-16 00:00;CYHM 160000Z 15006KT 15SM BKN230 13/04 A3002 RMK CI6 SLP170

CYHM;2008-05-16 01:00;CYHM 160100Z 19004KT 15SM OVC220 12/08 A3000 RMK CI6 SLP164

CYHM;2008-05-16 02:00;CYHM 160200Z 00000KT 15SM OVC210 11/08 A3000 RMK CI7 SLP163

CYHM;2008-05-16 03:00;CYHM 160300Z 31003KT 15SM OVC210 11/08 A3000 RMK CI7 SLP161

CYHM;2008-05-16 04:00;CYHM 160400Z 01004KT 15SM OVC210 10/07 A2997 RMK CI7 SLP154

CYHM;2008-05-16 05:00;CYHM 160500Z 02008KT 15SM OVC210 10/06 A2994 RMK CI7 SLP143

CYHM;2008-05-16 06:00;CYHM 160600Z 03011KT 15SM OVC190 09/04 A2992 RMK AC8 SLP135

CYHM;2008-05-16 07:00;CYHM 160700Z 05010KT 15SM OVC190 09/02 A2991 RMK AC8 SLP132

CYHM;2008-05-16 08:00;CYHM 160800Z 03009KT 15SM OVC180 08/02 A2990 RMK AC8 SLP127

CYHM;2008-05-16 09:00;CYHM 160900Z 03009KT 15SM OVC170 09/01 A2989 RMK AC8 SLP125

CYHM;2008-05-16 10:00;CYHM 161000Z 03009KT 15SM OVC160 09/01 A2988 RMK AC8 SLP121

CYHM;2008-05-16 11:00;CYHM 161100Z 02008KT 15SM OVC150 09/02 A2988 RMK AC8 SLP119

CYHM;2008-05-16 12:00;CYHM 161200Z 03010KT 15SM BKN150 OVC180 10/03 A2986 RMK AC6AS2 SLP113

CYHM;2008-05-16 13:00;CYHM 161300Z 05007KT 15SM OVC150 10/03 A2985 RMK AC8 SLP110

CYHM;2008-05-16 14:00;CYHM 161400Z 03006KT 15SM BKN140 BKN170 BKN220 12/05 A2985 RMK AC5AC2CI1 SLP111

CYHM;2008-05-16 15:00;CYHM 161500Z 06004KT 15SM BKN170 OVC220 13/05 A2985 RMK AC7CI1 SLP110

CYHM;2008-05-16 16:00;CYHM 161600Z 03004KT 15SM BKN150 OVC220 14/06 A2984 RMK AC6CI2 SLP107

CYHM;2008-05-16 17:00;CYHM 161700Z 09005KT 15SM FEW025 BKN150 BKN220 15/05 A2981 RMK CU1AC5CI2 SLP098

CYHM;2008-05-16 18:00;CYHM 161800Z 00000KT 15SM FEW025 BKN170 BKN220 15/04 A2980 RMK CU1AC4CI2 SLP093

CYHM;2008-05-16 19:00;CYHM 161900Z 00000KT 15SM FEW025 SCT170 BKN200 16/04 A2978 RMK CU1AC3CS3 HALO SLP086

CYHM;2008-05-16 20:00;CYHM 162000Z 08002KT 15SM FEW045 BKN230 17/05 A2975 RMK SC1CI5 SLP078

CYHM;2008-05-16 21:00;CYHM 162100Z 17007KT 15SM FEW045 BKN230 17/05 A2975 RMK SC1CI6 SLP076

CYHM;2008-05-16 22:00;CYHM 162200Z 19008KT 15SM FEW056 BKN230 17/06 A2975 RMK SC2CI2 SLP075

CYHM;2008-05-16 23:00;CYHM 162300Z 19012KT 15SM FEW056 FEW230 16/06 A2974 RMK SC2CI1 SLP074

CYHM;2008-05-17 00:00;CYHM 170000Z 18010KT 15SM FEW052 FEW230 14/06 A2974 RMK SC1CI1 CI TR SLP074

CYHM;2008-05-17 01:00;CYHM 170100Z 02009KT 15SM FEW050 11/07 A2973 RMK SC1 SLP071

CYHM;2008-05-17 02:00;CYHM 170200Z 20008KT 15SM SCT230 10/06 A2972 RMK CI2 SLP068

CYHM;2008-05-17 03:00;CYHM 170300Z 24006KT 15SM BKN084 10/06 A2971 RMK AC5 SLP064

CYHM;2008-05-17 04:00;CYHM 170400Z 24007KT 15SM FEW072 BKN090 10/06 A2970 RMK AC2AC6 SLP061

CYHM;2008-05-17 05:00;CYHM 170500Z 23007KT 15SM FEW073 BKN084 10/06 A2968 RMK AC1AC6 SLP053

CYHM;2008-05-17 06:00;CYHM 170600Z 21007KT 15SM BKN086 09/06 A2965 RMK AC6 SLP044

CYHM;2008-05-17 07:00;CYHM 170700Z 22007KT 15SM FEW084 BKN120 10/05 A2962 RMK AC1AC6 SLP033

CYHM;2008-05-17 08:00;CYHM 170800Z 22007KT 15SM FEW100 BKN220 09/04 A2959 RMK AC1CI5 SLP022

CYHM;2008-05-17 09:00;CYHM 170900Z 22009KT 15SM FEW160 BKN200 09/05 A2956 RMK AC2CI4 SLP013

CYHM;2008-05-17 10:00;CYHM 171000Z 21009KT 15SM FEW075 BKN110 BKN160 10/06 A2952 RMK AC2AC3AC2 SLP999

CYHM;2008-05-17 11:00;CYHM 171100Z 19012KT 15SM FEW110 FEW160 SCT220 11/07 A2950 RMK AC1AC2CI1 SLP992

CYHM;2008-05-17 11:54;CYHM 171154Z 21015KT 15SM -SHRA BKN064 BKN079 OVC110 RMK SC5AC2AC1

CYHM;2008-05-17 12:00;CYHM 171200Z 20014KT 15SM -SHRA BKN063 BKN075 OVC110 13/08 A2948 RMK SC6AC2AC1 VIS SW 2 SLP985

CYHM;2008-05-17 13:00;CYHM 171300Z 20016KT 8SM -SHRA BKN064 OVC080 12/10 A2946 RERA RMK SC5AC3 SLP979

CYHM;2008-05-17 14:00;CYHM 171400Z 22019KT 15SM -SHRA FEW041 BKN055 OVC072 12/10 A2946 RMK CU2SC6AC1 SLP976

CYHM;2008-05-17 15:00;CYHM 171500Z 20018KT 15SM -SHRA BKN042 BKN060 12/10 A2941 RMK SC5SC2 CU ASOCTD PCPN VRY LGT SLP962

CYHM;2008-05-17 15:25;CYHM 171525Z 21018G28KT 15SM SCT042 BKN063 RMK SC3SC4

CYHM;2008-05-17 16:00;CYHM 171600Z 20019KT 15SM SCT029 BKN044 BKN062 15/12 A2939 RMK CU3SC3SC1 SLP955

CYHM;2008-05-17 17:00;CYHM 171700Z 22019KT 15SM BKN032 BKN044 17/12 A2938 RMK CU5SC2 SLP952

CYHM;2008-05-17 18:00;CYHM 171800Z 26022G27KT 220V290 15SM BKN038 18/10 A2939 RMK CU6 SLP954

CYHM;2008-05-17 19:00;CYHM 171900Z 26020KT 230V300 15SM BKN042 BKN240 18/07 A2941 RMK CU6CI1 CI TR TCU ASOCTD E SLP959

CYHM;2008-05-17 20:00;CYHM 172000Z 27020G26KT 240V300 15SM SCT044 BKN220 18/06 A2942 RMK CU4CI1 SLP962

CYHM;2008-05-17 21:00;CYHM 172100Z 27021G29KT 240V300 15SM FEW045 SCT080 SCT200 17/04 A2943 RMK CU2AC2CI1 CI TR SLP966

CYHM;2008-05-17 22:00;CYHM 172200Z 28018G23KT 250V310 15SM FEW045 SCT070 BKN140 15/03 A2945 RMK CU1AC2AC3 SLP974

CYHM;2008-05-17 23:00;CYHM 172300Z 29015G20KT 260V320 15SM FEW045 FEW070 BKN140 BKN220 15/01 A2946 RMK CU1AC2AC2CC1 CU TR CC TR SLP977

CYHM;2008-05-18 00:00;CYHM 180000Z 29011KT 15SM FEW070 SCT140 BKN170 BKN220 14/02 A2949 RMK AC2AC2AC2CI1 SLP987

CYHM;2008-05-18 01:00;CYHM 180100Z 29006KT 15SM FEW060 SCT140 BKN180 11/02 A2951 RMK SC1AC3AC2 SLP994

CYHM;2008-05-18 02:00;CYHM 180200Z 25004KT 15SM BKN084 11/02 A2954 RMK AC6 SLP005

CYHM;2008-05-18 03:00;CYHM 180300Z 29005KT 15SM BKN070 11/03 A2954 RMK AC7 SLP006

CYHM;2008-05-18 04:00;CYHM 180400Z 24005KT 15SM SCT100 08/04 A2952 RMK AC2 SLP000

CYHM;2008-05-18 05:00;CYHM 180500Z 22003KT 15SM FEW100 FEW210 08/03 A2949 RMK AC1CI1 SLP990

CYHM;2008-05-18 06:00;CYHM 180600Z 23004KT 15SM BKN220 07/03 A2951 RMK CI6 SLP994

CYHM;2008-05-18 07:00;CYHM 180700Z 27004KT 15SM BKN200 08/03 A2949 RMK CI7 SLP987

CYHM;2008-05-18 08:00;CYHM 180800Z 24004KT 15SM BKN180 06/04 A2946 RMK AS7 SLP978

CYHM;2008-05-18 09:00;CYHM 180900Z 19006KT 15SM OVC160 07/04 A2944 RMK AC8 SLP970

CYHM;2008-05-18 10:00;CYHM 181000Z 00000KT 15SM OVC100 07/04 A2943 RMK AC8 SLP967

CYHM;2008-05-18 11:00;CYHM 181100Z 16005KT 15SM FEW060 OVC086 08/05 A2941 RMK SC2AC6 SLP962

CYHM;2008-05-18 12:00;CYHM 181200Z 21006KT 15SM FEW072 OVC150 09/07 A2939 RMK AC2AC6 SLP955

CYHM;2008-05-18 13:00;CYHM 181300Z 24008KT 15SM FEW040 FEW070 OVC130 10/08 A2937 RMK CU1AC2AC6 CU TR SLP948

CYHM;2008-05-18 13:52;CYHM 181352Z 23014KT 15SM -SHRA BKN015 OVC072 RMK SC7AC1

CYHM;2008-05-18 14:00;CYHM 181400Z 24011KT 15SM -SHRA BKN015 OVC072 10/07 A2936 RMK SC7AC1 SLP944

CYHM;2008-05-18 14:35;CYHM 181435Z 22014KT 8SM -SHRA BKN010 OVC038 RMK SC6SC2

CYHM;2008-05-18 15:00;CYHM 181500Z 21011G18KT 8SM -SHRA SCT009 OVC038 09/08 A2936 RMK SC4SC4 SLP944

CYHM;2008-05-18 15:23;CYHM 181523Z 21014KT 8SM -SHRA BKN011 OVC035 RMK SC6SC2

CYHM;2008-05-18 16:00;CYHM 181600Z 30013KT 12SM -SHRA BKN014 OVC035 09/06 A2935 RMK SC5SC3 SLP942

CYHM;2008-05-18 16:27;CYHM 181627Z 20010KT 12SM -SHRA FEW012 SCT034 OVC047 RMK SC2SC2SC4

CYHM;2008-05-18 17:00;CYHM 181700Z 21010KT 9SM -SHRA FEW012 BKN035 OVC052 08/07 A2934 RMK SC2SC5SC1 SLP939

CYHM;2008-05-18 17:39;CYHM 181739Z 21011KT 15SM BKN015 BKN120 RMK SC6AC2

CYHM;2008-05-18 17:49;CYHM 181749Z 22012KT 15SM BKN013 OVC032 RMK SC7SC1

CYHM;2008-05-18 18:00;CYHM 181800Z 23012KT 15SM BKN013 OVC024 09/07 A2932 RMK SC7SC1 SLP932

CYHM;2008-05-18 18:31;CYHM 181831Z 27019KT 15SM SCT012 BKN021 OVC030 RMK SC4SC3SC1

CYHM;2008-05-18 18:37;CYHM 181837Z 28018G23KT 250V310 10SM -SHRA SCT012 BKN021 OVC030 RMK SC3SC3SC2

CYHM;2008-05-18 19:00;CYHM 181900Z 29019KT 260V320 15SM FEW012 BKN018 BKN030 10/07 A2935 RMK SC2SC3SC2 SLP941

CYHM;2008-05-18 20:00;CYHM 182000Z 28020G30KT 250V310 15SM SCT020 BKN032 09/04 A2938 RMK SC4SC3 SLP952

CYHM;2008-05-18 21:00;CYHM 182100Z 28017G23KT 250V310 15SM FEW025 BKN034 10/03 A2941 RMK CU2SC3 SLP962

CYHM;2008-05-18 22:00;CYHM 182200Z 29015G22KT 15SM BKN040 BKN220 10/02 A2941 RMK SC5CI1 CU ASOCTD CI TR SLP963

CYHM;2008-05-18 23:00;CYHM 182300Z 29016KT 15SM BKN044 BKN220 09/01 A2943 RMK SC5CI1 CU ASOCTD SLP969

CYHM;2008-05-19 00:00;CYHM 190000Z 28015KT 250V320 15SM SCT045 BKN220 08/00 A2945 RMK SC4CI1 SLP977

CYHM;2008-05-19 01:00;CYHM 190100Z 27013KT 15SM FEW038 SCT050 06/M00 A2947 RMK SC2SC2 SLP982

CYHM;2008-05-19 02:00;CYHM 190200Z 27014G19KT 15SM FEW050 05/00 A2948 RMK SC2 SLP985

CYHM;2008-05-19 03:00;CYHM 190300Z 27013KT 15SM FEW028 SCT065 05/01 A2949 RMK CF1SC2 SLP989

CYHM;2008-05-19 04:00;CYHM 190400Z 28012KT 15SM FEW060 BKN190 05/01 A2948 RMK SC2AC5 SLP987

CYHM;2008-05-19 05:00;CYHM 190500Z 29013G18KT 15SM BKN180 05/00 A2949 RMK AC6 SLP990

CYHM;2008-05-19 06:00;CYHM 190600Z 28010KT 15SM FEW025 BKN200 04/M00 A2949 RMK CF1CI6 SLP991

CYHM;2008-05-19 07:00;CYHM 190700Z 29012KT 15SM FEW043 OVC160 04/M00 A2948 RMK SC2AC6 SLP987

CYHM;2008-05-19 08:00;CYHM 190800Z 28012G17KT 15SM FEW023 OVC120 04/M00 A2947 RMK SC2AC6 SLP986

CYHM;2008-05-19 09:00;CYHM 190900Z 28012KT 15SM SCT023 OVC080 04/00 A2948 RMK SC3AC5 SLP986

CYHM;2008-05-19 10:00;CYHM 191000Z 27013KT 15SM BKN018 OVC080 04/00 A2949 RMK SC7AC1 SLP992

CYHM;2008-05-19 11:00;CYHM 191100Z 28014KT 15SM BKN022 BKN032 04/00 A2951 RMK SC6SC2 SLP996

CYHM;2008-05-19 12:00;CYHM 191200Z 26012KT 15SM FEW025 BKN045 BKN120 05/01 A2952 RMK CU2SC3AC2 SLP000

CYHM;2008-05-19 13:00;CYHM 191300Z 26015G20KT 15SM BKN021 BKN054 OVC120 06/01 A2954 RMK SC6SC2AC1 CU ASOCTD SLP007

CYHM;2008-05-19 14:00;CYHM 191400Z 29020G25KT 15SM FEW025 BKN053 BKN072 07/02 A2955 RMK CU2SC4AC2 SLP012

CYHM;2008-05-19 15:00;CYHM 191500Z 27018G24KT 15SM FEW022 BKN055 BKN075 07/02 A2956 RMK CU2SC4AC1 SLP015

CYHM;2008-05-19 16:00;CYHM 191600Z 29014KT 15SM FEW035 BKN046 BKN075 08/01 A2957 RMK CU2SC5AC1 SLP019

CYHM;2008-05-19 17:00;CYHM 191700Z 29020G26KT 15SM SCT035 BKN050 OVC056 07/01 A2958 RMK CU3SC3SC2 SLP022

CYHM;2008-05-19 18:00;CYHM 191800Z 28022G32KT 15SM FEW032 BKN046 08/01 A2959 RMK CU2SC5 SLP026

CYHM;2008-05-19 19:00;CYHM 191900Z 28015G25KT 15SM OVC034 08/01 A2960 RMK SC8 CUFRA ASOCTD SLP030

CYHM;2008-05-19 20:00;CYHM 192000Z 26018G28KT 15SM SCT036 BKN045 09/02 A2960 RMK SC3SC4 CUFRA ASOCTD SLP030

CYHM;2008-05-19 21:00;CYHM 192100Z 26018G26KT 15SM BKN038 09/01 A2962 RMK SC7 SLP035

CYHM;2008-05-19 22:00;CYHM 192200Z 28016G26KT 15SM BKN037 09/02 A2962 RMK SC7 SLP036

CYHM;2008-05-19 23:00;CYHM 192300Z 24012G22KT 15SM BKN035 10/02 A2963 RMK SC6 SLP038

CYHM;2008-05-20 00:00;CYHM 200000Z 25010KT 15SM FEW036 09/02 A2964 RMK SC1 SLP042

CYHM;2008-05-20 01:00;CYHM 200100Z 21005KT 15SM FEW210 06/02 A2963 RMK CI1 SLP040

CYHM;2008-05-20 02:00;CYHM 200200Z 21006KT 15SM FEW210 06/02 A2964 RMK CI1 CI TR SLP041

CYHM;2008-05-20 03:00;CYHM 200300Z 22006KT 15SM FEW210 05/02 A2963 RMK CI1 CI TR SLP039

CYHM;2008-05-20 04:00;CYHM 200400Z 20005KT 15SM FEW220 05/01 A2961 RMK CI1 CI TR SLP031

CYHM;2008-05-20 05:00;CYHM 200500Z 20003KT 15SM FEW220 04/01 A2960 RMK CI1 CI TR SLP028

CYHM;2008-05-20 06:00;CYHM 200600Z 21003KT 15SM FEW240 04/02 A2956 RMK CI1 SLP017

CYHM;2008-05-20 07:00;CYHM 200700Z 22005KT 15SM FEW220 04/02 A2955 RMK CI1 SLP011

CYHM;2008-05-20 08:00;CYHM 200800Z 20005KT 15SM FEW220 03/03 A2953 RMK CI1 SLP007

CYHM;2008-05-20 09:00;CYHM 200900Z 21003KT 15SM BKN160 03/03 A2952 RMK AC4 SLP003

CYHM;2008-05-20 10:00;CYHM 201000Z 24004KT 15SM FEW068 BKN150 BKN210 03/02 A2952 RMK AC2AC4CI1 SLP003

CYHM;2008-05-20 11:00;CYHM 201100Z 23004KT 15SM FEW070 BKN140 OVC220 04/03 A2953 RMK AC2AC4CI1 SLP004

CYHM;2008-05-20 12:00;CYHM 201200Z 25004KT 15SM BKN064 OVC140 05/04 A2953 RMK SC6AC2 SLP006

CYHM;2008-05-20 13:00;CYHM 201300Z 00000KT 15SM SCT062 BKN070 BKN120 07/06 A2954 RMK SC3AC3AC1 SLP008

CYHM;2008-05-20 14:00;CYHM 201400Z 35010KT 15SM FEW060 SCT140 BKN220 11/03 A2953 RMK SC1AC2CI2 SLP005

CYHM;2008-05-20 15:00;CYHM 201500Z 28010KT 15SM FEW180 SCT240 12/03 A2952 RMK AC1CI1 SLP001

CYHM;2008-05-20 16:00;CYHM 201600Z 33005KT 15SM FEW025 FEW220 13/02 A2951 RMK CU1CI1 CU TR SLP997

CYHM;2008-05-20 17:00;CYHM 201700Z 32008KT 15SM FEW048 SCT220 15/03 A2950 RMK CU2CI1 CONTRAIL SLP993

CYHM;2008-05-20 18:00;CYHM 201800Z 30008KT 15SM SCT062 BKN070 BKN220 15/03 A2949 RMK CU4AC1CI0 CI TR SLP988

CYHM;2008-05-20 19:00;CYHM 201900Z 29012G18KT 15SM SCT065 BKN075 15/02 A2949 RMK SC4AC1 CU ASOCTD SLP988

CYHM;2008-05-20 20:00;CYHM 202000Z 32012KT 15SM SCT065 16/03 A2948 RMK SC4 CU ASOCTD SLP986

CYHM;2008-05-20 21:00;CYHM 202100Z 29014G20KT 15SM FEW065 BKN080 16/02 A2948 RMK CF1AC6 CUFRA SLP985

CYHM;2008-05-20 22:00;CYHM 202200Z 29012G18KT 15SM BKN100 15/01 A2948 RMK AC7 CUFRA ASOCTD SLP987

CYHM;2008-05-20 23:00;CYHM 202300Z 27006KT 15SM BKN100 14/02 A2948 RMK AC7 SLP985

CYHM;2008-05-21 00:00;CYHM 210000Z 26005KT 15SM FEW084 BKN100 14/02 A2947 RMK AC2AC6 SLP983

CYHM;2008-05-21 01:00;CYHM 210100Z 23008KT 15SM -SHRA BKN073 OVC110 12/04 A2947 RMK AC6AC2 SLP984

CYHM;2008-05-21 02:00;CYHM 210200Z 28009KT 15SM -SHRA FEW064 BKN110 11/04 A2949 RMK SC1AC5 SLP988

CYHM;2008-05-21 03:00;CYHM 210300Z 32008KT 15SM FEW064 OVC087 10/01 A2949 RMK SC2AC6 SLP990

CYHM;2008-05-21 04:00;CYHM 210400Z 32008KT 15SM FEW076 OVC100 09/02 A2949 RMK AC2AC6 SLP989

CYHM;2008-05-21 05:00;CYHM 210500Z 29006KT 15SM FEW110 07/01 A2949 RMK AC2 SLP989

CYHM;2008-05-21 06:00;CYHM 210600Z 31010KT 15SM BKN110 BKN150 06/00 A2949 RMK AC6AC2 SLP988

CYHM;2008-05-21 07:00;CYHM 210700Z 26010KT 15SM BKN110 OVC150 06/00 A2947 RMK AC5AC3 SLP983

CYHM;2008-05-21 08:00;CYHM 210800Z 28012KT 15SM FEW076 BKN096 OVC150 05/01 A2947 RMK AC1AC6AC1 SLP982

CYHM;2008-05-21 09:00;CYHM 210900Z 28007KT 15SM FEW022 BKN056 BKN120 04/M00 A2948 RMK CF1SC5AC2 SLP986

CYHM;2008-05-21 10:00;CYHM 211000Z 28012KT 15SM FEW020 BKN064 BKN180 03/M01 A2948 RMK SC2SC2AC1 CUFRA ASOCTD SLP986

CYHM;2008-05-21 11:00;CYHM 211100Z 27009KT 15SM FEW020 FEW068 BKN120 BKN170 03/M01 A2949 RMK SC1AC1AC6AC1 SC TR SLP990

CYHM;2008-05-21 12:00;CYHM 211200Z 27013KT 15SM FEW021 BKN120 04/M00 A2950 RMK SC2AC5 SLP993

CYHM;2008-05-21 13:00;CYHM 211300Z 26016KT 15SM BKN022 BKN120 BKN250 06/01 A2951 RMK SC6AC1CI1 SLP995

CYHM;2008-05-21 14:00;CYHM 211400Z 26016KT 15SM BKN025 BKN072 BKN120 07/01 A2950 RMK SC5AC1AC2 SLP993

CYHM;2008-05-21 15:00;CYHM 211500Z CCA 28012G19KT 15SM BKN028 BKN120 08/01 A2951 RMK SC6AC1 SLP995

CYHM;2008-05-21 16:00;CYHM 211600Z 28012KT 220V320 15SM OVC030 07/00 A2951 RMK SC8 SLP997

CYHM;2008-05-21 17:00;CYHM 211700Z 26013KT 15SM OVC032 07/01 A2951 RMK SC8 SLP995

CYHM;2008-05-21 17:18;CYHM 211718Z 26017KT 15SM -SHRA BKN028 OVC047 RMK SC7SC1

CYHM;2008-05-21 17:47;CYHM 211747Z 28015KT 15SM BKN028 OVC042 RMK SC6SC2

CYHM;2008-05-21 18:00;CYHM 211800Z 27015KT 15SM BKN028 BKN046 09/02 A2952 RMK SC6SC2 SLP999

CYHM;2008-05-21 19:00;CYHM 211900Z 26015G22KT 15SM BKN038 BKN062 09/02 A2952 RMK SC6SC1 SLP999

CYHM;2008-05-21 20:00;CYHM 212000Z 27012G18KT 15SM OVC034 09/01 A2952 RMK SC8 SLP002

CYHM;2008-05-21 21:00;CYHM 212100Z 25012G20KT 15SM BKN032 OVC058 09/03 A2951 RMK SC6SC2 CUFRA ASOCTD SLP999

CYHM;2008-05-21 22:00;CYHM 212200Z 26012G20KT 15SM OVC028 09/04 A2952 RMK SC8 SLP001

CYHM;2008-05-21 22:43;CYHM 212243Z 25012KT 12SM -SHRA OVC028 RMK SC8 SF ASOCTD

CYHM;2008-05-21 23:00;CYHM 212300Z 24015KT 10SM -SHRA OVC024 08/05 A2952 RMK SC8 SF ASOCTD SLP003

CYHM;2008-05-22 00:00;CYHM 220000Z 23010KT 6SM -SHRA BR BKN018 OVC034 08/06 A2952 RMK SC6SC2 SF ASOCTD SLP002

CYHM;2008-05-22 00:50;CYHM 220050Z 27011KT 10SM -SHRA BKN012 OVC054 RMK SC6SC2 SF ASOCTD

CYHM;2008-05-22 01:00;CYHM 220100Z 28010KT 10SM -SHRA BKN012 OVC054 07/06 A2953 RMK SC6SC2 SF ASOCTD SLP006

CYHM;2008-05-22 02:00;CYHM 220200Z 30004KT 15SM SCT020 BKN092 06/04 A2955 RMK SC3AC4 SF ASOCTD SLP010

CYHM;2008-05-22 03:00;CYHM 220300Z 28007KT 15SM FEW025 SCT078 OVC110 06/03 A2955 RMK CF2AC2AC4 SLP010

CYHM;2008-05-22 04:00;CYHM 220400Z 25010KT 15SM BKN018 06/03 A2955 RMK SC7 CF ASOCTD SLP010

CYHM;2008-05-22 05:00;CYHM 220500Z 25012KT 15SM OVC023 06/04 A2955 RMK SC8 SLP011

CYHM;2008-05-22 06:00;CYHM 220600Z 27010KT 15SM OVC024 06/04 A2955 RMK SC8 SLP013

CYHM;2008-05-22 07:00;CYHM 220700Z 28007KT 12SM -SHRA OVC018 06/04 A2955 RMK SC8 SLP013

CYHM;2008-05-22 08:00;CYHM 220800Z 28007KT 15SM -SHRA BKN015 OVC023 06/04 A2957 RMK SC6SC2 SLP017

CYHM;2008-05-22 09:00;CYHM 220900Z 27010KT 15SM BKN027 06/04 A2958 RMK SC7 SLP022

CYHM;2008-05-22 10:00;CYHM 221000Z 27007KT 15SM FEW012 OVC021 06/04 A2961 RMK CF2SC6 SLP031

CYHM;2008-05-22 11:00;CYHM 221100Z 28006KT 15SM BKN015 BKN086 06/04 A2963 RMK SC6AC1 SLP038

CYHM;2008-05-22 12:00;CYHM 221200Z 27009KT 15SM FEW011 OVC017 07/04 A2966 RMK CF2SC6 SLP049

CYHM;2008-05-22 13:00;CYHM 221300Z 28010KT 15SM OVC015 08/05 A2968 RMK SC8 SLP056

CYHM;2008-05-22 14:00;CYHM 221400Z 30010KT 15SM OVC016 09/05 A2970 RMK SC8 SLP061

CYHM;2008-05-22 15:00;CYHM 221500Z 31014KT 15SM BKN022 OVC034 09/05 A2972 RMK SC7SC1 SLP068

CYHM;2008-05-22 15:23;CYHM 221523Z 32014KT 15SM -SHRA BKN022 OVC032 RMK SC5SC3

CYHM;2008-05-22 16:00;CYHM 221600Z 30011KT 250V350 15SM FEW022 SCT032 BKN051 11/07 A2973 RMK CU2SC2SC3 SLP073

CYHM;2008-05-22 17:00;CYHM 221700Z 35015G20KT 280V020 15SM FEW030 BKN054 10/06 A2974 RMK SC2SC4 CU ASOCTD SLP076

CYHM;2008-05-22 18:00;CYHM 221800Z 32014KT 270V350 15SM FEW032 BKN046 13/06 A2975 RMK SC2SC5 CU ASOCTD SLP078

CYHM;2008-05-22 19:00;CYHM 221900Z 30011G19KT 15SM BKN037 OVC059 12/05 A2979 RMK SC6SC2 SLP092

CYHM;2008-05-22 20:00;CYHM 222000Z 29013G20KT 240V330 15SM BKN042 OVC055 12/04 A2982 RMK SC6SC2 SLP101

CYHM;2008-05-22 21:00;CYHM 222100Z 29018KT 15SM SCT036 BKN061 13/06 A2984 RMK SC4SC3 SLP107

CYHM;2008-05-22 22:00;CYHM 222200Z 30012G21KT 260V340 15SM SCT036 BKN054 13/05 A2985 RMK SC3SC2 SLP111

CYHM;2008-05-22 23:00;CYHM 222300Z 31017KT 270V350 15SM FEW040 13/05 A2986 RMK SC2 SLP114

CYHM;2008-05-23 00:00;CYHM 230000Z 30013KT 15SM FEW040 11/04 A2988 RMK SC1 SLP123

CYHM;2008-05-23 01:00;CYHM 230100Z 27007KT 15SM FEW040 FEW220 10/03 A2989 RMK SC1CI1 BOTH LYRS TR SLP125

CYHM;2008-05-23 02:00;CYHM 230200Z 29004KT 15SM SKC 08/03 A2991 RMK SLP132

CYHM;2008-05-23 03:00;CYHM 230300Z 28007KT 15SM FEW140 08/04 A2992 RMK AC1 SLP137

CYHM;2008-05-23 04:00;CYHM 230400Z 28005KT 15SM FEW140 08/04 A2992 RMK AC1 SLP138

CYHM;2008-05-23 05:00;CYHM 230500Z 28005KT 15SM FEW057 07/04 A2992 RMK SC2 SLP138

CYHM;2008-05-23 06:00;CYHM 230600Z 30004KT 15SM FEW057 05/03 A2992 RMK SC2 SLP136

CYHM;2008-05-23 07:00;CYHM 230700Z 26005KT 15SM FEW056 05/03 A2995 RMK SC2 SLP146

CYHM;2008-05-23 08:00;CYHM 230800Z 27005KT 15SM BKN062 05/03 A2998 RMK SC6 SLP155

CYHM;2008-05-23 09:00;CYHM 230900Z 29005KT 15SM BKN064 06/05 A2999 RMK SC6 SLP159

CYHM;2008-05-23 10:00;CYHM 231000Z 30004KT 15SM BKN068 07/05 A3001 RMK AC6 SLP168

CYHM;2008-05-23 11:00;CYHM 231100Z 33008KT 15SM FEW042 BKN062 BKN070 08/05 A3003 RMK SC2SC3AC2 SLP172

CYHM;2008-05-23 12:00;CYHM 231200Z 34006KT 15SM FEW060 SCT080 SCT250 09/06 A3003 RMK SC2AC2CI1 SLP174

CYHM;2008-05-23 13:00;CYHM 231300Z 36009KT 15SM FEW060 FEW120 SCT250 11/06 A3004 RMK SC1AC2CI1 SLP177

CYHM;2008-05-23 14:00;CYHM 231400Z 33008KT 15SM SCT030 SCT120 BKN250 13/06 A3005 RMK CU3AC1CI1 SLP179

CYHM;2008-05-23 15:00;CYHM 231500Z CCA 36011KT 15SM BKN040 BKN120 BKN250 14/06 A3004 RMK SC5AC1CI1 CI TR SLP175

CYHM;2008-05-23 16:00;CYHM 231600Z CCA 36010KT 15SM BKN045 15/06 A3004 RMK SC6 CU ASOCTD SLP175

CYHM;2008-05-23 17:00;CYHM 231700Z 28006KT 250V310 15SM BKN045 BKN070 15/06 A3003 RMK SC5AC2 CU ASOCTD SLP171

CYHM;2008-05-23 18:00;CYHM 231800Z 36005KT 320V040 15SM BKN048 15/06 A3003 RMK SC7 SLP173

CYHM;2008-05-23 19:00;CYHM 231900Z 35006KT 280V050 15SM BKN049 16/06 A3004 RMK SC7 SLP175

CYHM;2008-05-23 20:00;CYHM 232000Z 36004KT 330V080 15SM BKN050 BKN250 16/06 A3003 RMK SC6CI1 SLP174

CYHM;2008-05-23 21:00;CYHM 232100Z 35004KT 290V060 15SM BKN056 BKN250 17/05 A3003 RMK SC6CI1 SLP172

CYHM;2008-05-23 22:00;CYHM 232200Z 30008KT 270V040 15SM BKN056 BKN250 17/06 A3002 RMK SC6CI1 SLP170

CYHM;2008-05-23 23:00;CYHM 232300Z 35008KT 15SM BKN061 BKN072 BKN250 17/06 A3003 RMK SC5AC2CI1 SLP171

CYHM;2008-05-24 00:00;CYHM 240000Z 03009KT 15SM BKN060 BKN074 16/06 A3004 RMK SC5AC1 SLP175

CYHM;2008-05-24 01:00;CYHM 240100Z 01007KT 15SM FEW055 FEW070 14/05 A3005 RMK SC1AC1 SLP179

CYHM;2008-05-24 02:00;CYHM 240200Z 35006KT 15SM FEW057 12/05 A3007 RMK SC1 SLP187

CYHM;2008-05-24 03:00;CYHM 240300Z 33007KT 15SM FEW057 11/07 A3008 RMK SC2 SLP190

CYHM;2008-05-24 04:00;CYHM 240400Z 33009KT 15SM FEW063 11/06 A3008 RMK SC2 SLP189

CYHM;2008-05-24 05:00;CYHM 240500Z 31008KT 15SM FEW077 09/06 A3009 RMK AC2 SLP191

CYHM;2008-05-24 06:00;CYHM 240600Z 33008KT 15SM BKN077 10/06 A3008 RMK AC7 SLP190

CYHM;2008-05-24 07:00;CYHM 240700Z 34007KT 15SM BKN077 10/05 A3009 RMK AC6 SLP192

CYHM;2008-05-24 08:00;CYHM 240800Z 36005KT 15SM FEW076 10/05 A3010 RMK AC2 SLP194

CYHM;2008-05-24 09:00;CYHM 240900Z 00000KT 15SM FEW075 FEW210 08/05 A3010 RMK AC1CI1 SLP196

CYHM;2008-05-24 10:00;CYHM 241000Z 31002KT 15SM FEW070 FEW210 06/04 A3011 RMK AC1CI1 SLP199

CYHM;2008-05-24 11:00;CYHM 241100Z 32003KT 15SM FEW070 FEW220 08/06 A3013 RMK AC1CI0 SLP204

CYHM;2008-05-24 12:00;CYHM 241200Z 02010KT 15SM FEW240 11/06 A3014 RMK CI0 CONTRAILS SLP208

CYHM;2008-05-24 13:00;CYHM 241300Z 01009KT 15SM FEW250 13/06 A3015 RMK CI0 SLP211

CYHM;2008-05-24 14:00;CYHM 241400Z 04007KT 350V080 15SM FEW250 14/07 A3015 RMK CI1 CONTRAILS SLP212

CYHM;2008-05-24 15:00;CYHM 241500Z 34009KT 290V070 15SM BKN043 BKN250 15/07 A3014 RMK SC5CI0 SLP210

CYHM;2008-05-24 16:00;CYHM 241600Z 35010KT 300V080 15SM BKN051 BKN250 16/06 A3013 RMK SC5CI0 SLP207

CYHM;2008-05-24 17:00;CYHM 241700Z 02011KT 320V080 15SM BKN055 BKN250 17/06 A3013 RMK SC6CI1 SLP204

CYHM;2008-05-24 18:00;CYHM 241800Z 35009G16KT 15SM SCT056 SCT250 19/07 A3012 RMK SC3CI0 SLP201

CYHM;2008-05-24 19:00;CYHM 241900Z 29007KT 270V030 15SM SCT062 SCT250 18/05 A3012 RMK SC3CI0 SLP200

CYHM;2008-05-24 20:00;CYHM 242000Z 34006KT 310V030 15SM FEW062 SCT250 19/05 A3010 RMK SC2CI0 SLP195

CYHM;2008-05-24 21:00;CYHM 242100Z 02007KT 330V070 15SM FEW060 FEW250 19/04 A3010 RMK SC1CI1 CI TR SLP196

CYHM;2008-05-24 22:00;CYHM 242200Z 34007KT 300V060 15SM FEW060 19/04 A3010 RMK SC1 SC TR SLP196

CYHM;2008-05-24 23:00;CYHM 242300Z 36008KT 15SM FEW060 FEW250 18/04 A3010 RMK SC1CI1 SC TR CI TR CONTRAIL SLP197

CYHM;2008-05-25 00:00;CYHM 250000Z 36003KT 15SM FEW060 FEW250 16/04 A3012 RMK SC1CI1 SC TR SLP202

CYHM;2008-05-25 01:00;CYHM 250100Z 18003KT 15SM FEW250 14/03 A3012 RMK CI1 SLP203

CYHM;2008-05-25 02:00;CYHM 250200Z 31002KT 15SM FEW250 13/04 A3014 RMK CI1 SLP208

CYHM;2008-05-25 03:00;CYHM 250300Z 34002KT 15SM FEW250 11/04 A3014 RMK CI1 CI TR SLP208

CYHM;2008-05-25 04:00;CYHM 250400Z 31002KT 15SM SKC 10/05 A3014 RMK SLP209

CYHM;2008-05-25 05:00;CYHM 250500Z 32002KT 15SM SKC 10/05 A3013 RMK SLP205

CYHM;2008-05-25 06:00;CYHM 250600Z 28003KT 15SM SKC 07/04 A3012 RMK SLP202

CYHM;2008-05-25 07:00;CYHM 250700Z 29003KT 15SM SKC 08/05 A3013 RMK SLP204

CYHM;2008-05-25 08:00;CYHM 250800Z 27003KT 15SM SKC 07/05 A3013 RMK SLP206

CYHM;2008-05-25 09:00;CYHM 250900Z 28006KT 15SM FEW250 08/05 A3015 RMK CI1 SLP212

CYHM;2008-05-25 10:00;CYHM 251000Z 28003KT 15SM FEW250 06/05 A3015 RMK CI1 SLP212

CYHM;2008-05-25 11:00;CYHM 251100Z 27003KT 15SM FEW250 09/06 A3016 RMK CI1 SLP215

CYHM;2008-05-25 12:00;CYHM 251200Z 26004KT 15SM FEW250 12/07 A3017 RMK CI0 SLP218

CYHM;2008-05-25 13:00;CYHM 251300Z 27003KT 15SM FEW250 15/07 A3017 RMK CI1 SLP217

CYHM;2008-05-25 14:00;CYHM 251400Z 23008KT 15SM FEW250 17/07 A3015 RMK CI1 SLP213

CYHM;2008-05-25 15:00;CYHM 251500Z 25009KT 15SM FEW250 18/07 A3015 RMK CI1 SLP210

CYHM;2008-05-25 16:00;CYHM 251600Z 25009KT 15SM FEW250 20/07 A3012 RMK CI1 SLP201

CYHM;2008-05-25 17:00;CYHM 251700Z 22004KT 150V280 15SM FEW250 20/07 A3010 RMK CI1 SLP195

CYHM;2008-05-25 18:00;CYHM 251800Z 19016KT 150V250 15SM SCT250 20/08 A3009 RMK CI1 SLP190

CYHM;2008-05-25 19:00;CYHM 251900Z 19015KT 15SM BKN250 21/07 A3007 RMK CI2 CONTRAIL SLP184

CYHM;2008-05-25 20:00;CYHM 252000Z 20015KT 15SM BKN250 21/07 A3004 RMK CI2 SLP175

CYHM;2008-05-25 21:00;CYHM 252100Z 24015KT 15SM FEW160 BKN220 21/05 A3001 RMK AC1CI3 SLP165

CYHM;2008-05-25 22:00;CYHM 252200Z 24014KT 15SM FEW150 OVC230 20/04 A3001 RMK AC1CI5 SLP162

CYHM;2008-05-25 23:00;CYHM 252300Z 24012KT 15SM FEW160 OVC240 20/03 A2999 RMK AC1CI5 SLP156

CYHM;2008-05-26 00:00;CYHM 260000Z 23009KT 15SM FEW170 BKN240 18/06 A2997 RMK AC1CI5 CONTRAIL SLP150

CYHM;2008-05-26 01:00;CYHM 260100Z 20009KT 15SM FEW150 BKN230 15/08 A2995 RMK AC1CI4 AC TR SLP144

CYHM;2008-05-26 02:00;CYHM 260200Z 18010KT 15SM FEW160 BKN220 13/08 A2993 RMK AC1CI3 AC TR SLP138

CYHM;2008-05-26 03:00;CYHM 260300Z 19007KT 15SM SCT220 12/08 A2991 RMK CI2 SLP129

CYHM;2008-05-26 04:00;CYHM 260400Z 19007KT 15SM FEW210 11/07 A2988 RMK CI2 SLP121

CYHM;2008-05-26 05:00;CYHM 260500Z 23004KT 15SM FEW110 FEW210 10/07 A2989 RMK AC2CI1 SLP122

CYHM;2008-05-26 06:00;CYHM 260600Z 22003KT 15SM BKN100 11/07 A2988 RMK AC6 SLP117

CYHM;2008-05-26 07:00;CYHM 260700Z 20005KT 15SM FEW035TCU FEW090 FEW120 SCT210 11/06 A2987 RMK TCU1AC1AC1CI1 SLP114

CYHM;2008-05-26 08:00;CYHM 260800Z 20005KT 15SM FEW058CB FEW070 BKN110 10/06 A2984 RMK CB1AC2AC4 OCNL LTNG SLP107

CYHM;2008-05-26 09:00;CYHM 260900Z 22008KT 15SM FEW060 SCT110 BKN230 13/08 A2984 RMK SC2AC2CI2 SLP104

CYHM;2008-05-26 10:00;CYHM 261000Z 20013KT 15SM BKN048 OVC090 15/08 A2983 RMK SC6AC2 SHWRS SE TCU ASOCTD SLP101

CYHM;2008-05-26 11:00;CYHM 261100Z 22012KT 15SM FEW038 SCT074 BKN220 16/09 A2981 RMK SC1AC2CI2 SLP095

CYHM;2008-05-26 12:00;CYHM 261200Z 20009KT 15SM BKN047 BKN075 BKN220 16/09 A2980 RMK SC5AC2CI1 SLP091

CYHM;2008-05-26 13:00;CYHM 261300Z 19012KT 15SM FEW045 BKN075 BKN220 19/11 A2976 RMK SC2AC4CI2 SLP079

CYHM;2008-05-26 13:20;CYHM 261320Z 23015KT 15SM TS BKN053 BKN076 OVC210 RMK SC6AC2CI1 CB EMBDD

CYHM;2008-05-26 13:24;CYHM 261324Z 24014KT 15SM -TSRA BKN058 OVC070 RMK SC6AC2 CB EMBDD

CYHM;2008-05-26 13:30;CYHM 261330Z 24010KT 3SM -TSRA BKN031 BKN058 OVC070 RMK SC5SC2AC1 CB EMBDD LTNG

CYHM;2008-05-26 13:52;CYHM 261352Z 19007KT 10SM SCT032 BKN075 BKN120 RMK SC3AC2AC2 CU ASOCTD

CYHM;2008-05-26 14:00;CYHM 261400Z 18009KT 12SM SCT032 BKN080 BKN130 17/13 A2974 RMK SC3AC3AC1 SLP072

CYHM;2008-05-26 15:00;CYHM 261500Z 24016KT 15SM FEW027 FEW100 BKN210 22/16 A2975 RMK CU1AC2CI2 SLP075

CYHM;2008-05-26 16:00;CYHM 261600Z 25014KT 15SM FEW140 SCT210 22/16 A2973 RMK AC1CI2 AC TR SLP069

CYHM;2008-05-26 17:00;CYHM 261700Z 25014KT 15SM BKN097 BKN220 24/16 A2973 RMK AC6CI2 SLP068

CYHM;2008-05-26 18:00;CYHM 261800Z 22015KT 15SM FEW045 FEW110 SCT160 BKN210 25/17 A2972 RMK CU1AC2AC2CI1 CU TR SLP063

CYHM;2008-05-26 19:00;CYHM 261900Z 21012G20KT 15SM FEW040 FEW110 BKN140 27/17 A2971 RMK CU1AC1AC5 1ST 2 LYRS TR SLP060

CYHM;2008-05-26 20:00;CYHM 262000Z 22016G22KT 15SM FEW050 FEW150 SCT250 26/17 A2972 RMK CU1AC1CI1 TCU ASOCTD SLP063

CYHM;2008-05-26 21:00;CYHM 262100Z 23015G22KT 12SM FEW054TCU BKN250 25/16 A2972 RMK TCU1CI4 TCU TR SLP063

CYHM;2008-05-26 22:00;CYHM 262200Z 22014G21KT 15SM FEW058 BKN250 26/16 A2971 RMK CU1CI2 TCU ASOCTD CONTRAILS SLP061

CYHM;2008-05-26 23:00;CYHM 262300Z 22012G20KT 15SM FEW056 BKN250 25/16 A2971 RMK CU1CI6 CU TR SUN DMLY VSBL SLP060

CYHM;2008-05-27 00:00;CYHM 270000Z 22013KT 15SM FEW062 BKN250 24/16 A2971 RMK CU1CI6 CU TR SLP060

CYHM;2008-05-27 01:00;CYHM 270100Z 22012KT 15SM FEW060 BKN250 22/16 A2972 RMK CU1CI2 CU TR SC ASOCTD CONTRAILS SLP063

CYHM;2008-05-27 02:00;CYHM 270200Z 22012KT 15SM FEW056 FEW250 21/15 A2974 RMK SC1CI1 CU TR SLP068

CYHM;2008-05-27 03:00;CYHM 270300Z 23006KT 15SM FEW070 FEW250 20/15 A2974 RMK AC1CI1 AC TR CI TR SLP070

CYHM;2008-05-27 04:00;CYHM 270400Z 33012KT 15SM FEW250 18/15 A2976 RMK CI1 CI TR SLP076

CYHM;2008-05-27 05:00;CYHM 270500Z 32008KT 15SM BKN094 19/14 A2978 RMK AC5 SLP081

CYHM;2008-05-27 07:00;CYHM 270700Z 32005KT 15SM BKN110 17/12 A2980 RMK AC6 SLP090

CYHM;2008-05-27 08:00;CYHM 270800Z 29004KT 15SM FEW084 FEW110 FEW250 15/11 A2983 RMK AC1AC1CI1 CI TR SLP098

CYHM;2008-05-27 09:00;CYHM 270900Z 30005KT 15SM SCT100 14/12 A2985 RMK AC3 SLP107

CYHM;2008-05-27 10:00;CYHM 271000Z 30006KT 15SM OVC016 14/12 A2988 RMK SC8 SLP116

CYHM;2008-05-27 11:00;CYHM 271100Z 35007KT 15SM OVC012 13/10 A2991 RMK SC8 SLP126

CYHM;2008-05-27 12:00;CYHM 271200Z 33010KT 15SM OVC013 11/08 A2995 RMK SC8 SLP141

CYHM;2008-05-27 13:00;CYHM 271300Z 33012KT 15SM BKN019 10/05 A2999 RMK SC7 CU ASOCTD SLP155

CYHM;2008-05-27 14:00;CYHM 271400Z 33008KT 15SM FEW020 SCT062 BKN072 10/05 A3001 RMK CU1SC3AC2 SLP162

CYHM;2008-05-27 15:00;CYHM 271500Z 34008KT 15SM BKN023 BKN100 10/05 A3004 RMK SC6AC1 SLP173

CYHM;2008-05-27 16:00;CYHM 271600Z 32010KT 15SM FEW020 SCT025 BKN071 11/05 A3004 RMK CU1SC3AC3 SLP175

CYHM;2008-05-27 17:00;CYHM 271700Z 01012KT 15SM FEW025 SCT045 BKN074 BKN210 12/06 A3007 RMK CU2SC2AC2CI1 SLP182

CYHM;2008-05-27 18:00;CYHM 271800Z 02006KT 15SM FEW032 SCT062 BKN210 13/06 A3007 RMK CU2SC1CI1 SLP182

CYHM;2008-05-27 19:00;CYHM 271900Z 06005KT 15SM SCT043 SCT250 14/06 A3007 RMK CU3CI1 CI TR SLP183

CYHM;2008-05-27 20:00;CYHM 272000Z 34010KT 280V030 15SM FEW044 FEW250 15/05 A3009 RMK CU2CI1 CONTRAILS SLP189

CYHM;2008-05-27 21:00;CYHM 272100Z 33012KT 15SM FEW050 FEW190 FEW250 15/03 A3010 RMK CU1AC1CI2 AC TR CC ASOCTD SLP196

CYHM;2008-05-27 22:00;CYHM 272200Z 33012KT 15SM FEW052 FEW190 FEW250 14/M00 A3013 RMK CU1AC1CI1 CU TR SLP203

CYHM;2008-05-27 23:00;CYHM 272300Z 31012KT 15SM FEW056 FEW190 SCT250 13/01 A3014 RMK CU1AC1CI2 CU TR AC TR SLP207

CYHM;2008-05-28 00:00;CYHM 280000Z 34012KT 15SM FEW056 FEW080 FEW250 11/M01 A3017 RMK CU1AC1CI2 SLP219

CYHM;2008-05-28 01:00;CYHM 280100Z 34010KT 15SM FEW080 BKN250 08/M02 A3019 RMK AC1CI2 AC TR SLP227

CYHM;2008-05-28 02:00;CYHM 280200Z 34012KT 15SM SCT250 07/M01 A3022 RMK CI1 SLP238

CYHM;2008-05-28 03:00;CYHM 280300Z 33008KT 15SM FEW250 06/M02 A3025 RMK CI1 CI TR SLP249

CYHM;2008-05-28 04:00;CYHM 280400Z 33007KT 15SM SKC 05/M02 A3027 RMK SLP257

CYHM;2008-05-28 05:00;CYHM 280500Z 34007KT 15SM SKC 04/M02 A3029 RMK SLP262

CYHM;2008-05-28 06:00;CYHM 280600Z 35006KT 15SM SKC 03/M02 A3030 RMK SLP266

CYHM;2008-05-28 07:00;CYHM 280700Z 36005KT 15SM SKC 03/M02 A3031 RMK SLP269

CYHM;2008-05-28 08:00;CYHM 280800Z 36006KT 15SM SKC 04/M01 A3031 RMK SLP271

CYHM;2008-05-28 09:00;CYHM 280900Z 36007KT 15SM SKC 03/M02 A3033 RMK SLP275

CYHM;2008-05-28 10:00;CYHM 281000Z 36007KT 15SM FEW070 FEW250 03/M01 A3034 RMK AC1CI1 AC TR CI TR SLP278

CYHM;2008-05-28 11:00;CYHM 281100Z 02006KT 15SM FEW250 05/M00 A3036 RMK CI1 CI TR SLP285

CYHM;2008-05-28 12:00;CYHM 281200Z 03006KT 15SM FEW250 08/01 A3037 RMK CI1 CI TR SLP289

CYHM;2008-05-28 13:00;CYHM 281300Z 05008KT 15SM FEW250 09/M00 A3038 RMK CI1 SLP292

CYHM;2008-05-28 14:00;CYHM 281400Z 06006KT 15SM FEW036 10/00 A3039 RMK CU1 CU TR SLP298

CYHM;2008-05-28 15:00;CYHM 281500Z 06005KT 15SM FEW040 11/00 A3039 RMK CU1 CU TR SLP297

CYHM;2008-05-28 16:00;CYHM 281600Z 11004KT 15SM FEW040 12/02 A3038 RMK CU1 CU TR SLP294

CYHM;2008-05-28 17:00;CYHM 281700Z 18004KT 15SM FEW045 14/03 A3036 RMK CU1 SLP287

CYHM;2008-05-28 18:00;CYHM 281800Z 22005KT 15SM FEW045 FEW250 15/03 A3034 RMK CU1CI1 SLP280

CYHM;2008-05-28 19:00;CYHM 281900Z 20007KT 15SM FEW052 15/02 A3033 RMK CF1 CUFRA TR SLP274

CYHM;2008-05-28 20:00;CYHM 282000Z 29005KT 210V010 15SM FEW056 17/02 A3031 RMK CF1 CUFRA TR SLP268

CYHM;2008-05-28 21:00;CYHM 282100Z 29004KT 190V350 15SM SKC 17/03 A3029 RMK SLP261

CYHM;2008-05-28 22:00;CYHM 282200Z 19014KT 15SM SKC 15/04 A3027 RMK SLP256

CYHM;2008-05-28 23:00;CYHM 282300Z 19011KT 15SM SKC 15/04 A3026 RMK SLP252

CYHM;2008-05-29 00:00;CYHM 290000Z 20010KT 15SM FEW190 13/04 A3026 RMK AC1 AC TR SLP251

CYHM;2008-05-29 01:00;CYHM 290100Z 20007KT 15SM FEW100 10/03 A3025 RMK AC1 AC TR SLP249

CYHM;2008-05-29 02:00;CYHM 290200Z 21005KT 15SM FEW100 08/04 A3026 RMK AC1 AC TR SLP250

CYHM;2008-05-29 03:00;CYHM 290300Z 24003KT 15SM FEW210 07/03 A3025 RMK CI1 SLP250

CYHM;2008-05-29 04:00;CYHM 290400Z 22005KT 15SM FEW210 05/03 A3024 RMK CI1 SLP247

CYHM;2008-05-29 05:00;CYHM 290500Z 22006KT 15SM FEW210 05/03 A3023 RMK CI1 SLP242

CYHM;2008-05-29 06:00;CYHM 290600Z 24007KT 15SM FEW200 05/03 A3022 RMK CI1 SLP238

CYHM;2008-05-29 07:00;CYHM 290700Z 25006KT 15SM FEW210 05/03 A3021 RMK CI1 SLP235

CYHM;2008-05-29 08:00;CYHM 290800Z 25007KT 15SM FEW210 05/02 A3021 RMK CI1 SLP235

CYHM;2008-05-29 09:00;CYHM 290900Z 25007KT 15SM FEW080 FEW210 05/02 A3020 RMK AC1CI1 SLP232

CYHM;2008-05-29 10:00;CYHM 291000Z 25007KT 15SM FEW100 FEW200 05/01 A3021 RMK AC1CI1 SLP234

CYHM;2008-05-29 11:00;CYHM 291100Z 25007KT 15SM FEW100 FEW220 07/01 A3021 RMK AC1CI1 SLP235

CYHM;2008-05-29 12:00;CYHM 291200Z 26010KT 15SM FEW100 FEW220 09/02 A3022 RMK AC1CI1 AC TR CI TR SLP236

CYHM;2008-05-29 13:00;CYHM 291300Z 27010KT 15SM FEW220 13/04 A3021 RMK CI1 SLP233

CYHM;2008-05-29 14:00;CYHM 291400Z 27009KT 15SM SKC 16/05 A3020 RMK SLP229

CYHM;2008-05-29 15:00;CYHM 291500Z 28008KT 15SM SKC 18/04 A3020 RMK SLP228

CYHM;2008-05-29 16:00;CYHM 291600Z 28008KT 15SM FEW240 20/05 A3020 RMK CI1 SLP228

CYHM;2008-05-29 17:00;CYHM 291700Z 25010KT 15SM FEW240 20/05 A3017 RMK CI0 SLP220

CYHM;2008-05-29 18:00;CYHM 291800Z 27010KT 15SM FEW240 21/04 A3015 RMK CI0 SLP211

CYHM;2008-05-29 19:00;CYHM 291900Z 26011KT 230V340 15SM BKN250 22/03 A3014 RMK CI2 SLP210

CYHM;2008-05-29 20:00;CYHM 292000Z 30010KT 230V330 15SM SCT250 23/03 A3012 RMK CI2 SLP202

CYHM;2008-05-29 21:00;CYHM 292100Z 28014G19KT 220V320 15SM FEW250 23/00 A3012 RMK CI1 SLP201

CYHM;2008-05-29 22:00;CYHM 292200Z 31014KT 270V360 15SM FEW250 23/01 A3010 RMK CI1 SLP196

CYHM;2008-05-29 23:00;CYHM 292300Z 31011KT 15SM FEW250 22/00 A3009 RMK CI1 SLP192

CYHM;2008-05-30 00:00;CYHM 300000Z 28007KT 15SM FEW250 21/M00 A3009 RMK CI1 SLP191

CYHM;2008-05-30 01:00;CYHM 300100Z 24009KT 15SM FEW250 16/05 A3010 RMK CI1 SLP196

CYHM;2008-05-30 02:00;CYHM 300200Z 25008KT 15SM SKC 14/03 A3011 RMK SLP198

CYHM;2008-05-30 03:00;CYHM 300300Z 26007KT 15SM SKC 13/02 A3013 RMK SLP203

CYHM;2008-05-30 04:00;CYHM 300400Z 25005KT 15SM SKC 09/02 A3012 RMK SLP200

CYHM;2008-05-30 05:00;CYHM 300500Z 26006KT 15SM FEW210 10/00 A3010 RMK CI1 SLP195

CYHM;2008-05-30 06:00;CYHM 300600Z 26005KT 15SM SKC 07/00 A3010 RMK SLP193

CYHM;2008-05-30 07:00;CYHM 300700Z 26005KT 15SM FEW140 FEW210 08/01 A3010 RMK AC1CI1 SLP196

CYHM;2008-05-30 08:00;CYHM 300800Z 00000KT 15SM SCT200 08/01 A3010 RMK CI2 SLP193

CYHM;2008-05-30 09:00;CYHM 300900Z 20004KT 15SM SCT210 07/02 A3009 RMK CI2 SLP191

CYHM;2008-05-30 10:00;CYHM 301000Z 20002KT 15SM FEW120 SCT210 08/04 A3010 RMK AC2CI2 SLP195

CYHM;2008-05-30 11:00;CYHM 301100Z 22006KT 15SM BKN140 BKN220 11/05 A3010 RMK AC5CI2 SLP196

CYHM;2008-05-30 12:00;CYHM 301200Z 20003KT 15SM BKN150 BKN180 OVC210 12/05 A3010 RMK AC6AC1CI2 SLP193

CYHM;2008-05-30 13:00;CYHM 301300Z 22006KT 15SM BKN110 BKN160 OVC210 15/07 A3010 RMK AC5AC2CI1 SLP194

CYHM;2008-05-30 14:00;CYHM 301400Z 18007KT 15SM BKN085 BKN110 OVC220 17/06 A3008 RMK AC6AC2CI1 SLP188

CYHM;2008-05-30 15:00;CYHM 301500Z 20008KT 15SM BKN093 OVC120 18/04 A3008 RMK AC6AC2 SLP186

CYHM;2008-05-30 15:55;CYHM 301555Z 16006KT 15SM -SHRA BKN045 BKN055 OVC085 RMK SC5SC2AC1

CYHM;2008-05-30 16:00;CYHM 301600Z CCA 16006KT 15SM -SHRA SCT045 BKN055 OVC110 17/04 A3006 RMK SC4SC2AC2 SLP181

CYHM;2008-05-30 16:27;CYHM 301627Z 18004KT 15SM SCT045 BKN110 OVC150 RMK SC3AC3AC2

CYHM;2008-05-30 17:00;CYHM 301700Z CCA 20004KT 15SM FEW055 BKN130 OVC180 19/05 A3004 RMK SC2AC4AC2 SLP173

CYHM;2008-05-30 18:00;CYHM 301800Z 13012KT 15SM BKN110 OVC150 18/05 A2999 RMK AC6AC2 SLP157

CYHM;2008-05-30 19:00;CYHM 301900Z 17010KT 15SM BKN100 OVC160 19/06 A2997 RMK AC5AC3 SLP153

CYHM;2008-05-30 20:00;CYHM 302000Z 17010KT 15SM FEW093 OVC150 20/07 A2993 RMK AC2AC6 SLP138

CYHM;2008-05-30 21:00;CYHM 302100Z 16008KT 15SM BKN170 OVC240 20/08 A2991 RMK AC6CI2 SLP130

CYHM;2008-05-30 22:00;CYHM 302200Z 15009KT 15SM BKN150 OVC240 20/09 A2986 RMK AC7CI1 SLP115

CYHM;2008-05-30 23:00;CYHM 302300Z 08006KT 15SM BKN160 OVC240 16/09 A2983 RMK AC7CI1 SLP105

CYHM;2008-05-31 00:00;CYHM 310000Z 06007KT 12SM BKN110 OVC160 16/09 A2982 RMK AC7AC1 SLP100

CYHM;2008-05-31 01:00;CYHM 310100Z 06007KT 12SM BKN083 OVC140 13/07 A2979 RMK AC6AC2 SLP089

CYHM;2008-05-31 02:00;CYHM 310200Z 07006KT 15SM BKN079 OVC130 12/09 A2977 RMK AC6AC2 SLP082

CYHM;2008-05-31 03:00;CYHM 310300Z 06006KT 15SM FEW077 SCT100 OVC140 13/09 A2974 RMK AC1AC2AC5 SLP072

CYHM;2008-05-31 04:00;CYHM 310400Z 00000KT 15SM FEW063 FEW110 OVC140 12/09 A2973 RMK SC1AC2AC6 OCNL LTNG S SLP067

CYHM;2008-05-31 04:14;CYHM 310414Z 20015KT 10SM -SHRA FEW020 OVC050 RMK SC2SC6 OCNL LTNG S

CYHM;2008-05-31 04:29;CYHM 310429Z 21014G26KT 10SM -TSRA FEW015 SCT045CB OVC160 RMK SC1CB3AC4 OCNL LTGIC SE

CYHM;2008-05-31 04:44;CYHM 310444Z 21016G22KT 5SM +TSRA BKN018CB OVC043 RMK CB6SC2 OCNL LTNG SE

CYHM;2008-05-31 05:00;CYHM 310500Z 23017KT 6SM -TSRA FEW013CB BKN036 OVC055 17/15 A2974 RERA RMK CB2SC4SC2 OCNL LTGICCCCG ALQDS SLP071

CYHM;2008-05-31 05:37;CYHM 310537Z 22012KT 6SM -SHRA FEW006 BKN030 OVC048 RETSRA RMK SF2SC6SC1

CYHM;2008-05-31 06:00;CYHM 310600Z 24011KT 6SM -SHRA BR FEW022 BKN063 OVC110 17/16 A2971 RETSRA RMK CF2SC4AC2 SLP061

CYHM;2008-05-31 07:00;CYHM 310700Z 21009KT 8SM -SHRA FEW023 OVC120 17/16 A2967 RMK SC2AC6 SLP047

CYHM;2008-05-31 08:00;CYHM 310800Z 22009KT 7SM -SHRA FEW057 OVC180 17/16 A2965 RMK SC2AC6 SLP040

CYHM;2008-05-31 09:00;CYHM 310900Z 21009KT 6SM -SHRA BR FEW030 BKN065 17/17 A2962 RMK CF2SC6 SLP030

CYHM;2008-05-31 10:00;CYHM 311000Z 21007KT 2 1/2SM -SHRA BR BKN034 OVC075 17/17 A2963 RMK SC7AC1 SLP031

CYHM;2008-05-31 10:21;CYHM 311021Z 23013KT 5SM -SHRA BR FEW012 BKN028 OVC075 RMK CF1SC6AC2 PCPN VRY LGT

CYHM;2008-05-31 11:00;CYHM 311100Z 24022KT 8SM FEW015 BKN026 OVC065 18/16 A2962 RMK CF1SC6SC2 SLP027

CYHM;2008-05-31 12:00;CYHM 311200Z 23017KT 15SM FEW012 BKN024 BKN030 18/16 A2961 RMK CF1SC5SC2 SLP026

CYHM;2008-05-31 12:54;CYHM 311254Z 26014KT 15SM BKN010 BKN031 RMK CF5SC2

CYHM;2008-05-31 13:00;CYHM 311300Z 25013KT 15SM BKN010 BKN031 19/16 A2962 RMK CF5SC2 SLP028

CYHM;2008-05-31 14:00;CYHM 311400Z 25013G19KT 220V300 10SM BKN014 BKN032 20/17 A2963 RMK CF6SC2 CIG RAG SLP032

CYHM;2008-05-31 14:31;CYHM 311431Z 25015KT 10SM SCT015 BKN037 RMK CU4SC2

CYHM;2008-05-31 15:00;CYHM 311500Z 26016G21KT 12SM FEW016 21/18 A2964 RMK CU2 SLP037

CYHM;2008-05-31 16:00;CYHM 311600Z 26013KT 230V330 15SM BKN026 22/18 A2964 RMK CU5 SLP037

CYHM;2008-05-31 17:00;CYHM 311700Z 30015KT 260V340 15SM BKN036 BKN100 23/15 A2963 RMK CU5AC2 SLP032

CYHM;2008-05-31 17:11;CYHM 311711Z 30016KT 250V340 15SM TS SCT036TCU BKN100 RMK TCU3AC2 CB EMBDD

CYHM;2008-05-31 18:00;CYHM 311800Z 30016KT 15SM -TSRA SCT037TCU BKN090 22/15 A2962 RMK TCU3AC4 CB EMBDD SLP028

CYHM;2008-05-31 18:38;CYHM 311838Z 22015KT 4SM -TSRA HZ FEW009 SCT035CB BKN060 OVC085 RMK CF1CB3SC3AC2 CF TR

CYHM;2008-05-31 18:49;CYHM 311849Z 22012KT 2 1/2SM -TSRA BR FEW009 OVC034 RMK CF1SC8 CB EMBD LTNG CF TR

CYHM;2008-05-31 19:00;CYHM 311900Z 20014KT 2SM -TSRA BR OVC035 17/16 A2965 RMK FG1SC7 CB EMBD LTNG CF TR SLP038

CYHM;2008-05-31 19:09;CYHM 311909Z 19013KT 4SM -TSRA BR SCT036CB BKN060 OVC090 RMK CB3SC2AC3

CYHM;2008-05-31 19:29;CYHM 311929Z 22012KT 4SM TS BR FEW015 FEW036CB SCT060 OVC094 RMK CF1CB2SC2AC4

CYHM;2008-05-31 19:43;CYHM 311943Z 23012KT 6SM BR FEW015 SCT060 BKN078 BKN094 RETS RMK CF1SC2AC2AC2

CYHM;2008-05-31 20:00;CYHM 312000Z 25012KT 8SM FEW020 SCT060 BKN078 BKN120 18/15 A2965 RETS RMK CU2SC2AC2AC1 HZ SLP040

CYHM;2008-05-31 21:00;CYHM 312100Z 24013KT 9SM FEW030TCU BKN070 BKN092 20/16 A2964 RMK TCU2AC3AC2 SLP037

CYHM;2008-05-31 22:00;CYHM 312200Z 25012KT 10SM FEW030TCU SCT062 BKN095 20/16 A2965 RMK TCU2SC2AC2 CB ASOCTD NE SLP040

CYHM;2008-05-31 23:00;CYHM 312300Z 24010KT 12SM FEW035 BKN046 BKN074 20/16 A2966 RMK CU2SC3AC2 SLP042

CYHM;2008-06-01 01:00;CYHM 010100Z 25009KT 12SM FEW039 SCT060 BKN085 19/16 A2968 RMK CU2SC2AC2 SLP051

CYHM;2008-06-01 02:00;CYHM 010200Z 32016G23KT 15SM FEW040 SCT055 BKN085 18/13 A2972 RMK CU2SC2AC3 SLP064

CYHM;2008-06-01 03:00;CYHM 010300Z 31008KT 15SM FEW058 BKN084 15/12 A2975 RMK SC2AC3 SLP075

CYHM;2008-06-01 04:00;CYHM 010400Z 30005KT 15SM SCT071 13/09 A2976 RMK AC3 SLP077

CYHM;2008-06-01 05:00;CYHM 010500Z 25004KT 15SM FEW072 FEW220 11/10 A2976 RMK AC1CI1 SLP078

CYHM;2008-06-01 06:00;CYHM 010600Z 26003KT 15SM FEW057 SCT220 12/09 A2976 RMK SC2CI1 SLP077

CYHM;2008-06-01 07:00;CYHM 010700Z 25005KT 15SM FEW055 11/09 A2975 RMK SC1 SLP076

CYHM;2008-06-01 08:00;CYHM 010800Z 25005KT 15SM FEW055 10/09 A2976 RMK SC1 SLP077

CYHM;2008-06-01 09:00;CYHM 010900Z 24006KT 15SM BKN062 11/08 A2977 RMK SC5 SLP080

CYHM;2008-06-01 10:00;CYHM 011000Z 25008KT 15SM BKN063 11/09 A2977 RMK SC5 SLP082

CYHM;2008-06-01 11:00;CYHM 011100Z 27009KT 15SM BKN060 12/09 A2979 RMK SC4 SLP088

CYHM;2008-06-01 12:00;CYHM 011200Z 28013KT 15SM FEW025 FEW060 13/09 A2979 RMK CU1SC1 SLP089

CYHM;2008-06-01 13:00;CYHM 011300Z 29013G19KT 260V350 15SM BKN028 15/09 A2981 RMK SC6 SLP093

CYHM;2008-06-01 14:00;CYHM 011400Z 28016KT 15SM BKN025 14/09 A2982 RMK SC7 SLP099

CYHM;2008-06-01 15:00;CYHM 011500Z 30015KT 15SM BKN024 BKN071 14/10 A2984 RMK SC6AC2 SLP104

CYHM;2008-06-01 16:00;CYHM 011600Z 28016KT 15SM BKN020 OVC078 14/10 A2985 RMK SC7AC1 SLP108

CYHM;2008-06-01 17:00;CYHM 011700Z 28017KT 15SM BKN019 BKN074 15/10 A2985 RMK SC6AC2 SLP110

CYHM;2008-06-01 18:00;CYHM 011800Z 30017KT 15SM BKN023 15/11 A2986 RMK SC7 SLP113

CYHM;2008-06-01 19:00;CYHM 011900Z 28015KT 250V310 15SM BKN024 BKN035 15/11 A2987 RMK SC6SC2 SLP115

CYHM;2008-06-01 20:00;CYHM 012000Z 28013KT 250V320 15SM SCT024 BKN036 15/10 A2987 RMK SC4SC3 SLP117

CYHM;2008-06-01 21:00;CYHM 012100Z 31013KT 280V340 15SM SCT028 BKN042 17/10 A2988 RMK CU4SC3 SLP118

CYHM;2008-06-01 22:00;CYHM 012200Z 30013KT 270V330 15SM BKN038 18/10 A2988 RMK SC6 CU ASOCTD SLP120

CYHM;2008-06-01 23:00;CYHM 012300Z 31013KT 15SM SCT042 18/09 A2989 RMK SC3 CU ASOCTD SLP124

CYHM;2008-06-02 00:00;CYHM 020000Z 31008KT 15SM FEW042 16/08 A2990 RMK SC1 SLP126

CYHM;2008-06-02 01:00;CYHM 020100Z 28005KT 15SM FEW040 15/07 A2989 RMK SC1 SC TR SLP124

CYHM;2008-06-02 02:00;CYHM 020200Z 25006KT 15SM SKC 11/08 A2991 RMK SLP130

CYHM;2008-06-02 03:00;CYHM 020300Z 25006KT 15SM SKC 12/07 A2991 RMK SLP132

CYHM;2008-06-02 04:00;CYHM 020400Z 24006KT 15SM FEW210 10/07 A2991 RMK CI1 SLP132

CYHM;2008-06-02 05:00;CYHM 020500Z 24006KT 15SM FEW210 10/07 A2992 RMK CI1 SLP134

CYHM;2008-06-02 06:00;CYHM 020600Z 25006KT 15SM FEW210 11/08 A2992 RMK CI1 SLP135

CYHM;2008-06-02 07:00;CYHM 020700Z 23005KT 15SM FEW210 09/07 A2993 RMK CI1 SLP137

CYHM;2008-06-02 08:00;CYHM 020800Z 25008KT 15SM FEW210 10/09 A2993 RMK CI1 SLP138

CYHM;2008-06-02 09:00;CYHM 020900Z 26007KT 15SM FEW200 11/09 A2994 RMK CI1 SLP139

CYHM;2008-06-02 10:00;CYHM 021000Z 25007KT 15SM FEW120 11/09 A2994 RMK AC1 SLP142

CYHM;2008-06-02 11:00;CYHM 021100Z 26008KT 15SM SKC 12/09 A2996 RMK SLP146

CYHM;2008-06-02 12:00;CYHM 021200Z 27010KT 15SM SKC 14/11 A2996 RMK SLP146

CYHM;2008-06-02 13:00;CYHM 021300Z 25010KT 15SM SKC 16/12 A2997 RMK SLP148

CYHM;2008-06-02 14:00;CYHM 021400Z 27010KT 15SM SKC 18/12 A2996 RMK SLP147

CYHM;2008-06-02 15:00;CYHM 021500Z 27008KT 15SM SKC 21/12 A2996 RMK SLP145

CYHM;2008-06-02 16:00;CYHM 021600Z 27010KT 15SM FEW035 22/11 A2996 RMK CU1 CU TR SLP147

CYHM;2008-06-02 17:00;CYHM 021700Z 26011KT 15SM FEW035 23/11 A2995 RMK CU1 CU TR SLP144

CYHM;2008-06-02 18:00;CYHM 021800Z 26012G17KT 15SM FEW052 24/13 A2994 RMK CU1 SLP139

CYHM;2008-06-02 19:00;CYHM 021900Z 24014G20KT 15SM SCT060 SCT250 24/13 A2993 RMK CU4CI1 CI TR CONTRAILS SLP135

CYHM;2008-06-02 20:00;CYHM 022000Z 22015KT 15SM SCT060 24/13 A2991 RMK CU3 SLP128

CYHM;2008-06-02 21:00;CYHM 022100Z 23015KT 15SM SCT058 24/14 A2990 RMK CU3 SLP126

CYHM;2008-06-02 22:00;CYHM 022200Z 23012G20KT 15SM FEW056 24/12 A2991 RMK CU2 SLP130

CYHM;2008-06-02 23:00;CYHM 022300Z 22012G20KT 15SM FEW054 FEW250 23/12 A2991 RMK CU1CI1 CONTRAIL SLP129

CYHM;2008-06-03 00:00;CYHM 030000Z 23012KT 15SM FEW054 FEW250 21/10 A2991 RMK CU1CI1 CU TR CONTRAILS SLP129

CYHM;2008-06-03 01:00;CYHM 030100Z 23007KT 15SM FEW044 BKN190 BKN240 19/09 A2991 RMK SC1AC6CI1 SC TR TCU ASOCTD SLP129

CYHM;2008-06-03 02:00;CYHM 030200Z 26010KT 15SM FEW070 BKN110 OVC240 19/11 A2993 RMK AC1AC6CI1 SLP134

CYHM;2008-06-03 03:00;CYHM 030300Z 26009KT 15SM BKN130 BKN250 18/12 A2992 RMK AC6CI1 SLP131

CYHM;2008-06-03 04:00;CYHM 030400Z 26007KT 15SM SCT084 BKN150 BKN250 17/12 A2991 RMK AC4AC2CI1 SLP129

CYHM;2008-06-03 05:00;CYHM 030500Z 23004KT 15SM SCT080 SCT120 OVC240 15/12 A2991 RMK AC3AC1CI4 SLP127

CYHM;2008-06-03 06:00;CYHM 030600Z 22005KT 15SM FEW080 BKN190 OVC240 15/12 A2990 RMK AC1AC4CS3 SLP124

CYHM;2008-06-03 07:00;CYHM 030700Z 21003KT 15SM FEW084 OVC200 14/12 A2989 RMK AC1CS7 SLP122

CYHM;2008-06-03 08:00;CYHM 030800Z 24002KT 15SM OVC150 14/10 A2988 RMK AS8 SLP117

CYHM;2008-06-03 09:00;CYHM 030900Z 26008KT 9SM -SHRA FEW022 SCT048 OVC085 14/11 A2992 RMK SC2SC2AC5 SLP132

CYHM;2008-06-03 10:00;CYHM 031000Z 30002KT 15SM -SHRA OVC082 15/13 A2990 RMK AC8 SLP123

CYHM;2008-06-03 11:00;CYHM 031100Z 16006KT 5SM -SHRA BKN054 OVC071 14/13 A2992 RMK SC6AC2 SLP131

CYHM;2008-06-03 11:32;CYHM 031132Z 13006KT 15SM FEW055 BKN091 OVC130 RMK SC2AC5AC2

CYHM;2008-06-03 12:00;CYHM 031200Z 23004KT 15SM BKN082 OVC110 14/13 A2993 RMK AC6AC2 SLP135

CYHM;2008-06-03 13:00;CYHM 031300Z 14006KT 6SM -SHRA BR SCT056 BKN074 OVC085 14/13 A2994 RMK SC3AC3AC2 SLP137

CYHM;2008-06-03 14:00;CYHM 031400Z 16004KT 5SM -SHRA BR BKN006 OVC026 14/13 A2994 RMK SF5SC3 SLP137

CYHM;2008-06-03 15:00;CYHM 031500Z 13002KT 7SM -SHRA BKN023 BKN038 OVC087 15/14 A2991 RMK SC5SC2AC1 SLP130

CYHM;2008-06-03 15:19;CYHM 031519Z 13002KT 10SM FEW025 BKN092 BKN110 RMK CU1AC6AC2

CYHM;2008-06-03 16:00;CYHM 031600Z 18002KT 15SM FEW015 BKN060 BKN075 17/15 A2988 RMK CU2SC4AC2 SLP119

CYHM;2008-06-03 17:00;CYHM 031700Z 00000KT 10SM FEW016 BKN053 OVC080 18/15 A2987 RMK CF2SC6AC1 SLP116

CYHM;2008-06-03 18:00;CYHM 031800Z 07009KT 5SM BR SCT007 BKN016 OVC048 16/15 A2985 RMK SF3SC3SC2 SLP110

CYHM;2008-06-03 18:50;CYHM 031850Z 07008KT 3SM -SHRA BR FEW007 OVC045 RMK SF1SC7

CYHM;2008-06-03 19:00;CYHM 031900Z 06009KT 3SM -SHRA BR FEW006 BKN045 OVC060 16/14 A2984 RMK SF1SC5SC2 SLP105

CYHM;2008-06-03 19:39;CYHM 031939Z 07009KT 2 1/2SM BR SCT048 OVC076 RMK SC3AC5

CYHM;2008-06-03 20:00;CYHM 032000Z 06008KT 2 1/4SM BR BKN057 OVC070 16/14 A2983 RMK SC5AC3 SLP103

CYHM;2008-06-03 21:00;CYHM 032100Z 06009KT 2 1/4SM BR OVC053 16/14 A2981 RMK SC8 SLP096

CYHM;2008-06-03 22:00;CYHM 032200Z 04009KT 2 1/2SM BR FEW004 OVC045 14/13 A2979 RMK SF1SC7 SLP090

CYHM;2008-06-03 23:00;CYHM 032300Z 05013KT 2 1/4SM BR SCT003 OVC044 13/12 A2979 RMK SF4SC4 SLP088

CYHM;2008-06-03 23:45;CYHM 032345Z CCA 05012KT 1SM -SHRA BR BKN002 OVC044 RMK SF6SC2

CYHM;2008-06-04 00:00;CYHM 040000Z 03012KT 1SM -SHRA BR OVC003 12/11 A2978 RMK SF8 SLP088

CYHM;2008-06-04 01:00;CYHM 040100Z 03012KT 1SM -SHRA BR BKN002 OVC040 11/10 A2980 RMK SF7SC1 SLP094

CYHM;2008-06-04 02:00;CYHM 040200Z 03013KT 1SM -RA BR BKN002 OVC044 11/10 A2981 RMK SF7SC1 SLP098

CYHM;2008-06-04 03:00;CYHM 040300Z 05012KT 1SM -RA BR OVC002 11/11 A2980 RMK FG2SF6 SLP092

CYHM;2008-06-04 04:00;CYHM 040400Z 04015KT 3/8SM -RA FG OVC002 11/11 A2976 RMK FG2SF6 SLP080

CYHM;2008-06-04 05:00;CYHM 040500Z 03015KT 1/4SM -RA FG VV001 11/11 A2975 RMK FG8 SLP078

CYHM;2008-06-04 06:00;CYHM 040600Z 03013KT 1/4SM -RA FG VV001 10/10 A2977 RMK FG8 SLP082

CYHM;2008-06-04 07:00;CYHM 040700Z 04015KT 1/4SM -SHRA FG VV001 11/11 A2977 RMK FG8 SLP083

CYHM;2008-06-04 07:41;CYHM 040741Z 03015KT 1/4SM FG VV001 RMK FG8

CYHM;2008-06-04 08:00;CYHM 040800Z 04015KT 1/4SM FG VV001 11/11 A2975 RMK FG8 SLP077

CYHM;2008-06-04 09:00;CYHM 040900Z 05014KT 1/4SM FG VV001 11/11 A2975 RMK FG8 SLP074

CYHM;2008-06-04 10:00;CYHM 041000Z 05015KT 1/4SM FG VV001 11/11 A2975 RMK FG8 SLP077

CYHM;2008-06-04 11:00;CYHM 041100Z 04012KT 1/8SM FG VV001 11/11 A2977 RMK FG8 SLP083

CYHM;2008-06-04 12:00;CYHM 041200Z 03015KT 1/8SM FG VV001 11/11 A2977 RMK FG8 SLP083

CYHM;2008-06-04 13:00;CYHM 041300Z 04012KT 1/8SM FG VV001 11/11 A2977 RMK FG8 SLP085

CYHM;2008-06-04 14:00;CYHM 041400Z 04012KT 1/8SM FG VV001 12/12 A2976 RMK FG8 SLP082

CYHM;2008-06-04 15:00;CYHM 041500Z 04016KT 1/4SM FG VV001 12/12 A2975 RMK FG8 SLP078

CYHM;2008-06-04 15:13;CYHM 041513Z CCA 05018KT 1/2SM FG VV002 RMK FG8

CYHM;2008-06-04 16:00;CYHM 041600Z 04014KT 1/2SM FG VV001 12/12 A2977 RMK FG8 SLP083

CYHM;2008-06-04 17:00;CYHM 041700Z 05014KT 3/4SM BR BKN002 OVC008 12/12 A2976 RMK FG6SF2SC1 SLP080

CYHM;2008-06-04 17:21;CYHM 041721Z 04016KT 1/2SM FG VV001 RMK FG8

CYHM;2008-06-04 17:40;CYHM 041740Z 03016KT 3/4SM BR OVC002 RMK FG6SF2

CYHM;2008-06-04 18:00;CYHM 041800Z 06016KT 3/4SM BR OVC002 12/12 A2976 RMK FG6SF2 SLP081

CYHM;2008-06-04 19:00;CYHM 041900Z 06016KT 1/2SM FG OVC002 12/12 A2976 RMK FG6SF2 SLP080

CYHM;2008-06-04 19:47;CYHM 041947Z 05019G25KT 020V090 1SM BR OVC002 RMK FG4SF4

CYHM;2008-06-04 20:00;CYHM 042000Z 05019KT 1SM BR OVC002 13/13 A2976 RMK FG4SF4 SLP080

CYHM;2008-06-04 21:00;CYHM 042100Z 05017KT 1SM BR OVC002 13/13 A2978 RMK FG4SF4 SLP085

CYHM;2008-06-04 21:16;CYHM 042116Z 05015G21KT 2SM BR OVC002 RMK FG2SF6

CYHM;2008-06-04 22:00;CYHM 042200Z 05014G23KT 2 1/2SM BR OVC002 14/13 A2978 RMK FG1SF7 SLP086

CYHM;2008-06-04 22:21;CYHM 042221Z 05022KT 020V090 3SM BR OVC003 RMK SF8

CYHM;2008-06-04 23:00;CYHM 042300Z 06017G22KT 3SM BR OVC003 14/13 A2980 RMK SF8 SLP093

CYHM;2008-06-05 00:00;CYHM 050000Z 05017KT 3SM BR BKN004 OVC008 14/13 A2981 RMK SF6SC2 SLP098

CYHM;2008-06-05 00:52;CYHM 050052Z 05016KT 2 1/2SM BR BKN004 OVC008 RMK SF6SC2

CYHM;2008-06-05 01:00;CYHM 050100Z 06016KT 2 1/2SM BR BKN004 OVC008 14/13 A2982 RMK SF6SC2 SLP099

CYHM;2008-06-05 02:00;CYHM 050200Z 05014KT 2 1/2SM BR OVC003 13/13 A2983 RMK SF8 SLP102

CYHM;2008-06-05 03:00;CYHM 050300Z 04012KT 1 1/2SM BR OVC003 13/13 A2984 RMK FG2SF6 VIS VRB 1 - 2 SLP108

CYHM;2008-06-05 04:00;CYHM 050400Z 05011KT 3SM BR BKN004 OVC035 14/13 A2986 RMK SF7SC1 VIS VRB 2 - 4 SLP115

CYHM;2008-06-05 05:00;CYHM 050500Z 05010KT 2SM BR BKN003 OVC035 13/13 A2988 RMK FG1SF6SC2 SLP119

CYHM;2008-06-05 06:00;CYHM 050600Z 04012KT 1 1/2SM BR BKN003 OVC038 13/13 A2987 RMK FG2SF6SC1 VIS VRB 1 - 2 SLP117

CYHM;2008-06-05 07:00;CYHM 050700Z 05008KT 1 1/2SM BR OVC003 13/12 A2988 RMK FG2SF6 VIS VRB 1 - 2 CIG LWR N SLP120

CYHM;2008-06-05 08:00;CYHM 050800Z 04008KT 1 1/2SM BR OVC002 12/12 A2988 RMK FG2SF6 VIS VRB 1 - 2 SLP119

CYHM;2008-06-05 09:00;CYHM 050900Z 05006KT 3/4SM BR OVC002 12/12 A2988 RMK FG3SF5 VIS VRB 1/2 - 1 SLP121

CYHM;2008-06-05 09:23;CYHM 050923Z 06007KT 1/2SM FG OVC002 RMK FG4SF4

CYHM;2008-06-05 10:00;CYHM 051000Z 05009KT 1/4SM FG OVC002 12/12 A2988 RMK FG5SF3 SLP121

CYHM;2008-06-05 11:00;CYHM 051100Z 04007KT 1/4SM FG VV001 13/12 A2990 RMK FG8 SLP127

CYHM;2008-06-05 11:40;CYHM 051140Z 06008KT 3/4SM BR OVC002 RMK FG6SF2

CYHM;2008-06-05 12:00;CYHM 051200Z 06010KT 1 1/2SM BR OVC002 13/12 A2990 RMK FG6SF2 SLP128

CYHM;2008-06-05 12:08;CYHM 051208Z 05007KT 2SM BR BKN002 OVC026 RMK FG3SF2SC2

CYHM;2008-06-05 12:26;CYHM 051226Z 06007KT 3SM BR BKN003 BKN026 OVC058 RMK SF5SC2SC1

CYHM;2008-06-05 13:00;CYHM 051300Z 04006KT 4SM BR FEW004 BKN009 OVC052 13/13 A2994 RMK SF2SC5SC2 SLP139

CYHM;2008-06-05 14:00;CYHM 051400Z 06006KT 5SM BR BKN010 OVC045 15/13 A2993 RMK SC6SC2 SLP138

CYHM;2008-06-05 15:00;CYHM 051500Z 06004KT 7SM OVC012 18/15 A2993 RMK SC8 SLP137

CYHM;2008-06-05 16:00;CYHM 051600Z 11005KT 8SM OVC015 19/16 A2994 RMK SC8 SLP141

CYHM;2008-06-05 17:00;CYHM 051700Z 06010KT 8SM BKN018 OVC024 20/16 A2994 RMK SC6SC2 SLP138

CYHM;2008-06-05 18:00;CYHM 051800Z 07007KT 10SM BKN017 OVC022 20/16 A2994 RMK SC6SC2 SLP138

CYHM;2008-06-05 19:00;CYHM 051900Z 05010KT 020V080 7SM SCT015 BKN024 BKN180 19/16 A2994 RMK SC3SC2AC1 HZ SLP138

CYHM;2008-06-05 20:00;CYHM 052000Z 07009KT 040V100 6SM HZ BKN020 BKN160 19/15 A2992 RMK SC6AC2 SLP131

CYHM;2008-06-05 21:00;CYHM 052100Z 05007KT 6SM HZ FEW022 SCT100 OVC160 20/16 A2991 RMK SC2AC2AC5 SLP129

CYHM;2008-06-05 22:00;CYHM 052200Z 01006KT 6SM HZ FEW120 BKN170 OVC220 19/15 A2991 RMK AC2AC5CI2 SLP129

CYHM;2008-06-05 23:00;CYHM 052300Z 05004KT 10SM BKN180 BKN220 19/16 A2992 RMK AC6CI1 SLP131

CYHM;2008-06-06 00:00;CYHM 060000Z 08004KT 15SM FEW035 SCT100 BKN180 BKN220 20/16 A2991 RMK CU1AC2AC2CI1 SLP129

CYHM;2008-06-06 01:00;CYHM 060100Z 09005KT 10SM FEW025 SCT042 BKN083 BKN220 19/16 A2990 RMK CU2SC2AC2CI1 SLP125

CYHM;2008-06-06 01:48;CYHM 060148Z 14002KT 8SM -TSRA SCT025 BKN080 BKN220 RMK SC4AC2CI1 CB EBBDD LTNG

CYHM;2008-06-06 02:00;CYHM 060200Z 14003KT 7SM -TSRA BKN036 BKN060 BKN098 18/17 A2990 RMK SC5SC1AC1 CB EMBDD LTNG SLP125

CYHM;2008-06-06 02:47;CYHM 060247Z 20002KT 10SM FEW022 FEW045CB SCT090 BKN120 RETS RMK CF1CB1AC2AC2 LTNG NNE

CYHM;2008-06-06 03:00;CYHM 060300Z 21005KT 15SM FEW055 BKN110 20/19 A2992 RETS RMK SC2AC2 SLP130

CYHM;2008-06-06 04:00;CYHM 060400Z 22009KT 15SM FEW055 FEW110 21/20 A2992 RMK SC1AC1 SLP130

CYHM;2008-06-06 05:00;CYHM 060500Z 23007KT 15SM FEW062 21/20 A2992 RMK SC1 SLP131

CYHM;2008-06-06 06:00;CYHM 060600Z 24008KT 15SM SKC 22/20 A2993 RMK SLP134

CYHM;2008-06-06 07:00;CYHM 060700Z 24009KT 15SM FEW250 22/20 A2994 RMK CI1 SLP136

CYHM;2008-06-06 08:00;CYHM 060800Z 23009KT 15SM FEW250 22/20 A2995 RMK CI1 SLP139

CYHM;2008-06-06 09:00;CYHM 060900Z 24010KT 15SM FEW240 22/20 A2996 RMK CI2 SLP142

CYHM;2008-06-06 10:00;CYHM 061000Z 23008KT 15SM FEW100 FEW240 21/19 A2997 RMK AC1CI2 SLP146

CYHM;2008-06-06 11:00;CYHM 061100Z 23006KT 15SM FEW100 FEW220 22/20 A2999 RMK AC1CI1 AC TR SLP154

CYHM;2008-06-06 12:00;CYHM 061200Z 25008KT 15SM FEW220 24/20 A3002 RMK CI1 CI TR SLP163

CYHM;2008-06-06 13:00;CYHM 061300Z 24010KT 15SM FEW240 25/21 A3002 RMK CI1 SLP165

CYHM;2008-06-06 14:00;CYHM 061400Z 24010KT 15SM SCT240 28/21 A3002 RMK CI2 SLP164

CYHM;2008-06-06 15:00;CYHM 061500Z 24015KT 15SM FEW028 FEW240 29/22 A3001 RMK CU1CI1 CU TR SLP160

CYHM;2008-06-06 16:00;CYHM 061600Z 22016KT 15SM FEW042 SCT240 30/21 A3001 RMK CU1CI1 SLP160

CYHM;2008-06-06 17:00;CYHM 061700Z 23016KT 15SM FEW042 SCT240 30/21 A3001 RMK CU2CI1 SLP158

CYHM;2008-06-06 18:00;CYHM 061800Z 22018KT 15SM FEW042 SCT220 30/21 A3000 RMK CU2CI1 SLP156

CYHM;2008-06-06 19:00;CYHM 061900Z 24021KT 15SM FEW045 FEW250 30/21 A2999 RMK CU2CI0 SLP153

CYHM;2008-06-06 20:00;CYHM 062000Z 23022G29KT 15SM FEW045 FEW250 30/20 A2997 RMK CU1CI0 SLP147

CYHM;2008-06-06 21:00;CYHM 062100Z 23023KT 15SM FEW052 FEW250 31/20 A2995 RMK CU2CI1 CI TR SLP139

CYHM;2008-06-06 22:00;CYHM 062200Z 21016KT 15SM FEW055 FEW250 30/20 A2994 RMK CU2CI0 SLP135

CYHM;2008-06-06 23:00;CYHM 062300Z 21013KT 15SM FEW055 SCT250 29/20 A2994 RMK CU1CI2 CU TR SLP135

CYHM;2008-06-07 00:00;CYHM 070000Z 21011KT 15SM FEW074 BKN250 28/20 A2996 RMK AC2CI1 SLP141

CYHM;2008-06-07 01:00;CYHM 070100Z 19010KT 15SM SCT064 SCT250 27/19 A2995 RMK CU3CI0 SLP139

CYHM;2008-06-07 02:00;CYHM 070200Z 20010KT 15SM FEW072 FEW250 26/19 A2996 RMK AC1CI0 SLP141

CYHM;2008-06-07 03:00;CYHM 070300Z 21011KT 15SM FEW070 FEW095 25/19 A2997 RMK AC1AC1 SLP144

CYHM;2008-06-07 04:00;CYHM 070400Z 20010KT 15SM SCT092 24/18 A2997 RMK AC4 SLP143

CYHM;2008-06-07 05:00;CYHM 070500Z 20009KT 15SM FEW065 FEW100 FEW150 23/18 A2993 RMK SC1AC1AC1 TR AC SLP132

CYHM;2008-06-07 06:00;CYHM 070600Z 23013G19KT 15SM BKN120 24/19 A2994 RMK AC4 SLP136

CYHM;2008-06-07 07:00;CYHM 070700Z 24017G22KT 15SM FEW065 SCT120 25/18 A2996 RMK SC1AC2 SLP141

CYHM;2008-06-07 08:00;CYHM 070800Z 23012KT 15SM FEW057 FEW110 24/16 A2997 RMK SC1AC1 SLP143

CYHM;2008-06-07 09:00;CYHM 070900Z 23012KT 15SM BKN058 BKN110 23/16 A2996 RMK SC5AC1 TCU ASOCTD SLP142

CYHM;2008-06-07 10:00;CYHM 071000Z 24011KT 15SM FEW057 BKN110 22/17 A2997 RMK SC2AC2 SLP144

CYHM;2008-06-07 11:00;CYHM 071100Z 24009KT 15SM FEW060 BKN250 23/17 A2999 RMK SC1CI2 SLP152

CYHM;2008-06-07 12:00;CYHM 071200Z 27012KT 15SM BKN250 24/18 A3001 RMK CI2 SLP160

CYHM;2008-06-07 13:00;CYHM 071300Z 26016KT 15SM FEW050 BKN250 25/19 A3003 RMK CU1CI3 SLP164

CYHM;2008-06-07 14:00;CYHM 071400Z 27013KT 15SM FEW050 BKN250 26/20 A3002 RMK CU1CI3 SLP161

CYHM;2008-06-07 15:00;CYHM 071500Z 27012KT 15SM FEW030 BKN250 26/20 A3002 RMK CU1CI4 SLP162

CYHM;2008-06-07 16:00;CYHM 071600Z 27010KT 15SM FEW034 BKN250 27/20 A3001 RMK CU2CI3 SLP160

CYHM;2008-06-07 17:00;CYHM 071700Z 25013KT 220V310 15SM FEW038 BKN250 28/20 A3000 RMK CU2CI4 SLP156

CYHM;2008-06-07 18:00;CYHM 071800Z 25012KT 15SM SCT041 BKN250 28/19 A3000 RMK CU3CI3 SLP154

CYHM;2008-06-07 19:00;CYHM 071900Z 24016KT 210V270 15SM SCT038 BKN066 BKN240 28/21 A3000 RMK CU4AC2CI1 SLP155

CYHM;2008-06-07 20:00;CYHM 072000Z 25016KT 15SM FEW035 SCT067 BKN220 28/20 A3000 RMK CU2AC2CI3 SLP153

CYHM;2008-06-07 21:00;CYHM 072100Z 24017KT 210V270 15SM FEW035 SCT160 BKN220 28/20 A2997 RMK CU2AC2CI2 SLP146

CYHM;2008-06-07 22:00;CYHM 072200Z 23016KT 15SM FEW030 FEW160 BKN250 28/21 A2995 RMK CU2AC1CI2 SLP138

CYHM;2008-06-07 23:00;CYHM 072300Z 24012KT 210V270 15SM FEW030 FEW160 BKN240 27/20 A2995 RMK CU1AC1CI5 SLP139

CYHM;2008-06-08 00:00;CYHM 080000Z 25015KT 15SM FEW030 BKN250 26/19 A2995 RMK CU1CI6 CU TR SLP138

CYHM;2008-06-08 01:00;CYHM 080100Z 24012KT 15SM FEW100 BKN250 25/18 A2994 RMK AC1CI5 AC TR SLP135

CYHM;2008-06-08 02:00;CYHM 080200Z 24012KT 15SM BKN250 24/19 A2992 RMK CI4 SLP128

CYHM;2008-06-08 03:00;CYHM 080300Z 22008KT 15SM BKN240 23/18 A2992 RMK CI3 SLP127

CYHM;2008-06-08 04:00;CYHM 080400Z 22008KT 15SM SCT240 21/18 A2992 RMK CI2 SLP129

CYHM;2008-06-08 05:00;CYHM 080500Z 23010KT 15SM BKN240 23/18 A2992 RMK CI4 SLP127

CYHM;2008-06-08 06:00;CYHM 080600Z 23014KT 15SM FEW140 BKN180 OVC220 22/18 A2992 RMK AC2AC3CI2 SLP127

CYHM;2008-06-08 07:00;CYHM 080700Z 22014KT 15SM FEW042 BKN160 OVC240 22/18 A2992 RMK SC2AC3CI3 SLP127

CYHM;2008-06-08 08:00;CYHM 080800Z 23014KT 15SM FEW045 BKN190 OVC240 22/19 A2991 RMK SC2AC4CI2 SLP123

CYHM;2008-06-08 09:00;CYHM 080900Z 20008KT 15SM SCT110 BKN160 OVC220 23/19 A2987 RMK AC3AC2CI3 SLP109

CYHM;2008-06-08 09:36;CYHM 080936Z 23008KT 15SM -SHRA SCT045 BKN120 OVC220 RMK SC3AC3CI2

CYHM;2008-06-08 09:48;CYHM 080948Z 23008KT 15SM FEW045 BKN130 OVC220 RMK SC2AC4CI2

CYHM;2008-06-08 10:00;CYHM 081000Z 22012KT 15SM FEW055 BKN140 OVC220 22/20 A2989 RMK SC1AC4CI3 SLP117

CYHM;2008-06-08 11:00;CYHM 081100Z 25008KT 15SM FEW055 BKN074 OVC150 22/20 A2990 RMK SC1AC5AC2 SLP121

CYHM;2008-06-08 12:00;CYHM 081200Z 20008KT 15SM FEW075 BKN150 22/20 A2985 RMK AC2AC5 SLP104

CYHM;2008-06-08 13:00;CYHM 081300Z 26008KT 15SM FEW028 FEW075 SCT150 BKN230 23/20 A2989 RMK SC2AC1AC2CI2 SLP117

CYHM;2008-06-08 14:00;CYHM 081400Z 26011KT 230V310 15SM SCT022 BKN160 BKN250 25/21 A2990 RMK SC4AC2CI1 SLP120

CYHM;2008-06-08 15:00;CYHM 081500Z 29009KT 230V320 15SM FEW025 SCT160 BKN250 26/21 A2990 RMK SC2AC1CI2 CU ASOCTD SLP121

CYHM;2008-06-08 16:00;CYHM 081600Z 25008KT 15SM BKN032 BKN150 26/21 A2990 RMK SC6AC1 CU ASOCTD SLP120

CYHM;2008-06-08 17:00;CYHM 081700Z 27014KT 220V310 15SM BKN033 28/21 A2989 RMK SC5 CU ASOCTD SLP118

CYHM;2008-06-08 18:00;CYHM 081800Z 27013KT 15SM BKN033 BKN055 28/22 A2988 RMK CU5SC2 SLP115

CYHM;2008-06-08 19:00;CYHM 081900Z 28011KT 250V320 15SM SCT033 BKN050 29/22 A2988 RMK CU4SC1 TCU ASOCTD SLP113

CYHM;2008-06-08 20:00;CYHM 082000Z 27013KT 240V300 15SM FEW035 SCT054 SCT180 31/20 A2986 RMK CU2SC1AC1 SLP107

CYHM;2008-06-08 21:00;CYHM 082100Z 29011KT 260V320 15SM FEW035 SCT066 BKN200 30/19 A2984 RMK CU2AC2CI2 CB EMBD SW LTNG SLP102

CYHM;2008-06-08 21:10;CYHM 082110Z 28011KT 15SM TS FEW035 BKN066 BKN200 RMK CU2AC4CI1 CB EMBD S LTGCG S

CYHM;2008-06-08 22:00;CYHM 082200Z 23014KT 15SM TS FEW035CB BKN067 BKN150 BKN220 27/22 A2986 RMK CB2AC2AC2CI1 SLP107

CYHM;2008-06-08 22:30;CYHM 082230Z 24008KT 10SM TS SCT030CB BKN045 RMK CB4SC3 LTGCG

CYHM;2008-06-08 22:38;CYHM 082238Z 27012G20KT 2 1/2SM TSRA SCT030CB BKN045 RMK CB4SC3 LTGCG

CYHM;2008-06-08 22:41;CYHM 082241Z 25015G29KT 3/4SM +TSRA OVC003 RMK FG4SF4 CB EMBD LTGCG

CYHM;2008-06-08 22:47;CYHM 082247Z 27010KT 2 1/2SM -TSRA FEW005 BKN030CB BKN045 RMK FG1SF2CB2SC2 RETS RERA

CYHM;2008-06-08 23:00;CYHM 082300Z 25011KT 8SM -TSRA FEW007 SCT030CB BKN045 BKN250 25/22 A2984 RETSRA RMK CF1CB2SC3CI1 SLP099

CYHM;2008-06-09 00:00;CYHM 090000Z 28010KT 8SM -TSRA SCT035CB BKN048 BKN140 BKN250 23/21 A2987 RMK CB4SC1AC2CI1 LTGCG SLP111

CYHM;2008-06-09 00:07;CYHM 090007Z CCA 28020KT 2SM TSRA OVC030CB RMK FG2CB6 LTGCG

CYHM;2008-06-09 00:27;CYHM 090027Z 11008KT 7SM -TSRA SCT030CB OVC067 RMK CB3AC5 LTGCG

CYHM;2008-06-09 01:00;CYHM 090100Z 17010KT 10SM -TSRA FEW030CB BKN067 BKN140 21/19 A2975 RMK CB2AC3AC2 PRESFR SLP072

CYHM;2008-06-09 01:14;CYHM 090114Z 27008KT 12SM SCT060 BKN140 BKN210 RETSRA RMK SC3AC2CI2

CYHM;2008-06-09 02:00;CYHM 090200Z 27010KT 15SM SCT066 BKN230 20/19 A2983 RETS RMK AC3CI3 PRESRR SLP098

CYHM;2008-06-09 03:00;CYHM 090300Z 24007KT 15SM FEW120 FEW230 20/19 A2986 RMK AC1CI1 SLP107

CYHM;2008-06-09 04:00;CYHM 090400Z 21006KT 15SM BKN230 20/19 A2985 RMK CI5 SLP106

CYHM;2008-06-09 05:00;CYHM 090500Z 21006KT 15SM SCT230 19/19 A2985 RMK CI2 SLP106

CYHM;2008-06-09 05:48;CYHM 090548Z 22004KT 12SM -TSRA FEW030CB OVC070 RMK CB2AC6 OCNL LTNG

CYHM;2008-06-09 06:00;CYHM 090600Z 23007KT 10SM -TSRA FEW023CB SCT065 OVC150 20/19 A2985 RMK CB2SC2AC4 OCNL LTGICCG E SLP105

CYHM;2008-06-09 06:32;CYHM 090632Z 20009KT 15SM FEW025 FEW060 SCT120 RETS RMK CF1SC2AC2

CYHM;2008-06-09 07:00;CYHM 090700Z 20007KT 15SM FEW060 FEW080 FEW120 19/18 A2985 RMK SC1AC1AC1 SLP105

CYHM;2008-06-09 08:00;CYHM 090800Z 20003KT 15SM FEW065 FEW200 18/17 A2986 RMK SC1CI1 SLP107

CYHM;2008-06-09 09:00;CYHM 090900Z 18008KT 15SM FEW050 18/17 A2984 RMK SC2 SLP100

CYHM;2008-06-09 10:00;CYHM 091000Z 20005KT 15SM FEW052 18/17 A2984 RMK SC2 TCU ASOCTD SLP101

CYHM;2008-06-09 11:00;CYHM 091100Z 21007KT 15SM FEW055 FEW120 20/18 A2983 RMK SC1AC1 SLP098

CYHM;2008-06-09 12:00;CYHM 091200Z 22010KT 15SM FEW060 FEW120 22/20 A2983 RMK SC1AC1 SC TR AC TR SLP098

CYHM;2008-06-09 13:00;CYHM 091300Z 22014KT 15SM FEW120 26/21 A2982 RMK AC1 AC TR SLP096

CYHM;2008-06-09 14:00;CYHM 091400Z 22020KT 15SM FEW025 FEW120 27/21 A2982 RMK CU1AC1 SLP095

CYHM;2008-06-09 15:00;CYHM 091500Z 22020G25KT 15SM FEW025 FEW085 28/21 A2981 RMK CU1AC1 SLP090

CYHM;2008-06-09 16:00;CYHM 091600Z CCB 23023G28KT 15SM FEW025 FEW062 29/22 A2980 RMK CU1SC1 SLP089

CYHM;2008-06-09 17:00;CYHM 091700Z 22024G29KT 15SM FEW035 FEW060 FEW085 29/22 A2980 RMK CU1SC1AC1 SLP087

CYHM;2008-06-09 18:00;CYHM 091800Z 23024G32KT 15SM FEW032TCU FEW085 30/21 A2979 RMK TCU1AC1 CB ASOCTD SLP084

CYHM;2008-06-09 19:00;CYHM 091900Z 23020G32KT 15SM FEW036 FEW044TCU FEW170 30/21 A2979 RMK CU1TCU1AC1 AC TR SLP085

CYHM;2008-06-09 20:00;CYHM 092000Z 23025G38KT 15SM FEW038 FEW044TCU FEW200 31/21 A2979 RMK CU1TCU1CI1 CI TR SLP084

CYHM;2008-06-09 21:00;CYHM 092100Z 23024G30KT 15SM SCT048 30/21 A2979 RMK SC4 CU ASOCTD TCU EMBDD SLP084

CYHM;2008-06-09 22:00;CYHM 092200Z 29010G22KT 15SM BKN048CB 27/22 A2981 RMK CB6 CU ASOCTD SLP090

CYHM;2008-06-09 23:00;CYHM 092300Z 01007KT 15SM BKN054 BKN130 27/23 A2982 RMK SC5AC1 TCU EMBDD AC TR SLP095

CYHM;2008-06-10 00:00;CYHM 100000Z 04006KT 15SM FEW054 FEW250 26/22 A2983 RMK SC2CI1 TCU EMBDD SLP097

CYHM;2008-06-10 01:00;CYHM 100100Z 01003KT 15SM FEW054 BKN160 BKN250 24/21 A2983 RMK SC2AC2CI1 SLP098

CYHM;2008-06-10 01:45;CYHM 100145Z 00000KT 15SM TS FEW044CB SCT160 RMK CB2AC2 LTNG

CYHM;2008-06-10 02:00;CYHM 100200Z 30009KT 15SM TS FEW035CB SCT080 BKN140 23/21 A2986 RMK CB2AC2AC2 LTNG SLP109

CYHM;2008-06-10 03:00;CYHM 100300Z 04002KT 15SM FEW032CB BKN140 22/18 A2984 RETS RMK CB1AC6 LTNG CB TR SLP103

CYHM;2008-06-10 03:50;CYHM 100350Z 28020G28KT 12SM -TSRA BKN024CB BKN100 OVC150 RMK CB6AC2AC1 LTNG

CYHM;2008-06-10 04:00;CYHM 100400Z 28012G18KT 2 1/2SM -TSRA OVC026CB 20/18 A2993 RMK CB8 LTNG SLP131

CYHM;2008-06-10 04:25;CYHM 100425Z 23004KT 6SM -TSRA FEW028CB SCT054 BKN092 OVC120 RMK CB1SC2AC4AC1 LTNG

CYHM;2008-06-10 05:00;CYHM 100500Z 00000KT 15SM BKN170 19/18 A2984 RETS RMK AC7 LTNG CB ASOCTD SLP101

CYHM;2008-06-10 06:00;CYHM 100600Z 21003KT 15SM FEW200 18/17 A2984 RMK CI1 SLP100

CYHM;2008-06-10 07:00;CYHM 100700Z 20010KT 5SM BR BKN003 OVC160 19/18 A2986 RMK SF7AC1 SLP109

CYHM;2008-06-10 08:00;CYHM 100800Z 19005KT 5SM BR BKN003 18/18 A2983 RMK SF4 SLP099

CYHM;2008-06-10 09:00;CYHM 100900Z 22006KT 8SM FEW003 FEW080 SCT250 18/17 A2983 RMK SF1AC1CI1 SLP098

CYHM;2008-06-10 09:43;CYHM 100943Z 19005KT 2SM BR FEW070 FEW250 RMK AC2CI1 CI TR

CYHM;2008-06-10 10:00;CYHM 101000Z 19006KT 2SM BR FEW070 SCT140 18/17 A2982 RMK AC1AC2 SLP096

CYHM;2008-06-10 10:12;CYHM 101012Z 20007KT 5SM BR FEW075 BKN120 RMK AC2AC3

CYHM;2008-06-10 10:45;CYHM 101045Z 22016KT 10SM -SHRA FEW022 BKN055 BKN120 RMK CF2SC5AC1

CYHM;2008-06-10 10:52;CYHM 101052Z 25018G24KT 6SM -TSRA BKN038 OVC062 RMK SC6SC2 CB EMBDD LTNG

CYHM;2008-06-10 11:00;CYHM 101100Z 23016G24KT 10SM -TSRA BKN038 BKN062 OVC079 19/18 A2988 RMK SC6SC2AC1 CB EMBDD LTNG SLP113

CYHM;2008-06-10 11:16;CYHM 101116Z 22012KT 15SM SCT042 BKN082 BKN110 RMK SC3AC2AC2

CYHM;2008-06-10 12:00;CYHM 101200Z 24012KT 15SM SCT058 BKN068 OVC150 20/18 A2988 RMK SC3AC3AC2 CU ASOCTD SLP115

CYHM;2008-06-10 13:00;CYHM 101300Z 22012KT 15SM FEW035 BKN078 BKN130 21/19 A2984 RMK SC2AC4AC1 CU ASOCTD SLP103

CYHM;2008-06-10 14:00;CYHM 101400Z 22017KT 15SM FEW022 SCT035 BKN100 BKN130 21/18 A2981 RMK CU1SC2AC3AC1 SLP092

CYHM;2008-06-10 14:08;CYHM 101408Z 21016KT 15SM -SHRA BKN015 BKN045 OVC100 RMK SC6SC2AC1

CYHM;2008-06-10 14:47;CYHM 101447Z 25014KT 15SM FEW015 SCT024 BKN060 BKN085 RMK CU2SC2SC2AC2

CYHM;2008-06-10 15:00;CYHM 101500Z 23012KT 15SM FEW015 SCT055 BKN160 BKN220 21/19 A2978 RMK CF1SC2AC3CI1 SLP080

CYHM;2008-06-10 16:00;CYHM 101600Z 23024G29KT 15SM BKN019 BKN023 OVC085 21/18 A2980 RMK SC6SC2AC1 SLP089

CYHM;2008-06-10 17:00;CYHM 101700Z 22015KT 15SM SCT019 BKN037 BKN042 BKN070 22/19 A2981 RMK CU3SC2SC1AC1 SLP092

CYHM;2008-06-10 17:50;CYHM 101750Z 27015KT 15SM -SHRA BKN028 BKN035 BKN086 RMK CU5SC2AC1 CB EMBDD

CYHM;2008-06-10 18:00;CYHM 101800Z 28010KT 5SM -SHRA BR BKN026 OVC033 20/18 A2980 RMK CU5SC3 SLP091

CYHM;2008-06-10 18:45;CYHM 101845Z 23011KT 15SM FEW016 BKN026 BKN054 RMK SF1SC5SC2

CYHM;2008-06-10 19:00;CYHM 101900Z 28012G19KT 15SM FEW016 BKN026 BKN052 21/18 A2982 RMK SF1SC6SC1 SLP098

CYHM;2008-06-10 20:00;CYHM 102000Z 28015G22KT 15SM FEW024 FEW054 FEW250 22/16 A2985 RMK CU2SC1CI1 CI TR TCU ASOCTD SLP108

CYHM;2008-06-10 21:00;CYHM 102100Z 28016G24KT 15SM FEW026 SCT080 BKN250 22/15 A2988 RMK CU2AC2CI0 SLP115

CYHM;2008-06-10 22:00;CYHM 102200Z 26015G21KT 15SM FEW034 FEW080 22/15 A2988 RMK CU1AC1 SLP118

CYHM;2008-06-10 23:00;CYHM 102300Z 25013KT 15SM FEW044 FEW080 FEW250 22/14 A2991 RMK CU1AC1CI1 AC TR CI TR SLP125

CYHM;2008-06-11 00:00;CYHM 110000Z 27008KT 15SM FEW040 21/14 A2991 RMK CU1 CU TR SLP127

CYHM;2008-06-11 01:00;CYHM 110100Z 25004KT 15SM FEW038 FEW250 19/14 A2993 RMK CU1CI1 CU TR CI TR SLP134

CYHM;2008-06-11 02:00;CYHM 110200Z 22008KT 15SM FEW036 16/14 A2994 RMK CU1 CU TR SLP138

CYHM;2008-06-11 03:00;CYHM 110300Z 21005KT 15SM FEW034 16/15 A2997 RMK CU1 CU TR SLP146

CYHM;2008-06-11 04:00;CYHM 110400Z 21003KT 15SM FEW056 16/15 A2998 RMK SC2 SLP151

CYHM;2008-06-11 05:00;CYHM 110500Z 23005KT 15SM FEW056 15/14 A2999 RMK SC2 SLP154

CYHM;2008-06-11 06:00;CYHM 110600Z 24004KT 15SM FEW060 14/14 A3000 RMK SC1 SC TR SLP159

CYHM;2008-06-11 07:00;CYHM 110700Z 21004KT 15SM SKC 14/14 A3001 RMK SLP163

CYHM;2008-06-11 08:00;CYHM 110800Z CCA 24003KT 15SM SKC 14/13 A3002 RMK SLP166

CYHM;2008-06-11 09:00;CYHM 110900Z 23006KT 15SM SKC 13/13 A3003 RMK SLP170

CYHM;2008-06-11 10:00;CYHM 111000Z 21005KT 15SM FEW250 13/12 A3005 RMK CI1 CI TR SLP177

CYHM;2008-06-11 11:00;CYHM 111100Z 24004KT 15SM SKC 15/14 A3008 RMK SLP186

CYHM;2008-06-11 12:00;CYHM 111200Z 25006KT 15SM FEW240 17/14 A3009 RMK CI1 CI TR SLP189

CYHM;2008-06-11 13:00;CYHM 111300Z 27008KT 15SM FEW030 FEW240 21/15 A3009 RMK CU1CI1 CU TR SLP190

CYHM;2008-06-11 14:00;CYHM 111400Z 24007KT 15SM FEW055 FEW240 23/15 A3009 RMK SC1CI1 SC TR SLP188

CYHM;2008-06-11 15:00;CYHM 111500Z 28012KT 15SM FEW036 FEW085 24/15 A3009 RMK CU1AC1 SLP187

CYHM;2008-06-11 16:00;CYHM 111600Z 27014KT 15SM FEW055 FEW110 25/15 A3009 RMK CU1AC2 SLP187

CYHM;2008-06-11 17:00;CYHM 111700Z 28012KT 15SM FEW057 SCT120 26/16 A3008 RMK CU2AC2 SLP185

CYHM;2008-06-11 18:00;CYHM 111800Z 29016KT 15SM FEW057 SCT120 26/15 A3010 RMK CU2AC1 SLP193

CYHM;2008-06-11 19:00;CYHM 111900Z 31014KT 15SM FEW048 26/15 A3011 RMK CU2 SLP194

CYHM;2008-06-11 20:00;CYHM 112000Z 31012KT 15SM FEW048 FEW060 26/15 A3012 RMK CU2SC1 SC TR SLP197

CYHM;2008-06-11 21:00;CYHM 112100Z 29012KT 15SM FEW048 SCT064 26/16 A3012 RMK CU2SC1 SLP199

CYHM;2008-06-11 22:00;CYHM 112200Z 32011G17KT 15SM FEW050 FEW120 SCT250 26/16 A3013 RMK CU1AC2CI0 SLP204

CYHM;2008-06-11 23:00;CYHM 112300Z 31008KT 15SM FEW050 FEW120 FEW250 25/16 A3014 RMK CU1AC1CI0 SLP206

CYHM;2008-06-12 00:00;CYHM 120000Z 35008KT 15SM FEW050 FEW120 FEW250 23/15 A3015 RMK CU1AC1CI1 CU TR SLP209

CYHM;2008-06-12 01:00;CYHM 120100Z 01004KT 15SM FEW120 FEW250 21/14 A3015 RMK AC1CI1 AC TR SLP210

CYHM;2008-06-12 02:00;CYHM 120200Z 02006KT 15SM FEW250 19/14 A3017 RMK CI1 SLP216

CYHM;2008-06-12 03:00;CYHM 120300Z 01005KT 15SM FEW250 19/13 A3018 RMK CI1 SLP219

CYHM;2008-06-12 04:00;CYHM 120400Z 04005KT 15SM FEW100 FEW250 18/13 A3020 RMK AC1CI1 SLP224

CYHM;2008-06-12 05:00;CYHM 120500Z 06011KT 15SM FEW100 16/12 A3021 RMK AC2 SLP227

CYHM;2008-06-12 06:00;CYHM 120600Z 06006KT 15SM FEW100 FEW250 15/12 A3022 RMK AC1CI1 SLP232

CYHM;2008-06-12 07:00;CYHM 120700Z 04007KT 15SM FEW160 FEW200 15/10 A3024 RMK AC2CI1 SLP240

CYHM;2008-06-12 08:00;CYHM 120800Z 04008KT 15SM OVC180 15/10 A3025 RMK AC8 SLP243

CYHM;2008-06-12 09:00;CYHM 120900Z 05009KT 15SM OVC170 15/09 A3027 RMK AC8 SLP249

CYHM;2008-06-12 10:00;CYHM 121000Z 05012KT 15SM OVC150 14/10 A3028 RMK AC8 SLP254

CYHM;2008-06-12 11:00;CYHM 121100Z 07013KT 15SM OVC150 14/11 A3030 RMK AC8 SLP260

CYHM;2008-06-12 11:22;CYHM 121122Z 07014KT 15SM -SHRA OVC150 RMK AC8 PCPN VRY LGT

CYHM;2008-06-12 12:00;CYHM 121200Z 06015KT 15SM OVC140 14/11 A3032 RMK AC8 SLP266

CYHM;2008-06-12 13:00;CYHM 121300Z 08018KT 15SM BKN150 BKN240 14/12 A3031 RMK AC6CI1 SLP263

CYHM;2008-06-12 14:00;CYHM 121400Z 08018KT 15SM FEW030 SCT160 BKN250 15/12 A3031 RMK CU1AC3CI1 SLP264

CYHM;2008-06-12 15:00;CYHM 121500Z 08018KT 15SM BKN160 BKN250 16/12 A3031 RMK AC6CI1 SLP266

CYHM;2008-06-12 16:00;CYHM 121600Z 07014KT 15SM BKN150 BKN250 16/12 A3031 RMK AC6CI1 SLP264

CYHM;2008-06-12 17:00;CYHM 121700Z 07016KT 15SM FEW160 BKN250 17/13 A3030 RMK AC1CI2 SLP260

CYHM;2008-06-12 18:00;CYHM 121800Z 08016KT 15SM FEW180 BKN250 17/13 A3029 RMK AC2CI2 SLP259

CYHM;2008-06-12 19:00;CYHM 121900Z 08016KT 15SM FEW180 BKN250 18/13 A3028 RMK AC1CI2 SLP256

CYHM;2008-06-12 20:00;CYHM 122000Z 05016KT 15SM FEW180 SCT240 18/13 A3026 RMK AC1CI2 SLP247

CYHM;2008-06-12 21:00;CYHM 122100Z 06018KT 15SM FEW180 SCT240 18/12 A3024 RMK AC2CI1 CONTRAIL SLP240

CYHM;2008-06-12 22:00;CYHM 122200Z 05020KT 15SM FEW180 SCT240 18/12 A3022 RMK AC1CI3 AC TR SLP234

CYHM;2008-06-12 23:00;CYHM 122300Z 07020KT 15SM FEW240 17/11 A3020 RMK CI2 SLP228

CYHM;2008-06-13 00:00;CYHM 130000Z 05018KT 15SM FEW180 BKN210 15/09 A3019 RMK AC1CI4 SLP225

CYHM;2008-06-13 01:00;CYHM 130100Z 05014KT 15SM FEW150 SCT180 BKN210 15/09 A3018 RMK AC1AC2CI3 SLP221

CYHM;2008-06-13 02:00;CYHM 130200Z 03008KT 15SM FEW120 FEW180 BKN240 15/09 A3017 RMK AC1AC2CI3 SLP220

CYHM;2008-06-13 03:00;CYHM 130300Z 04009KT 15SM BKN230 14/09 A3018 RMK CI4 SLP222

CYHM;2008-06-13 04:00;CYHM 130400Z 04008KT 15SM BKN220 14/10 A3016 RMK CI6 SLP216

CYHM;2008-06-13 05:00;CYHM 130500Z 05007KT 15SM BKN240 14/11 A3016 RMK CI6 SLP216

CYHM;2008-06-13 06:00;CYHM 130600Z 05009KT 15SM BKN150 BKN240 14/10 A3014 RMK AC6CI1 SLP209

CYHM;2008-06-13 07:00;CYHM 130700Z 03012KT 15SM SCT081 BKN150 14/11 A3013 RMK AC4AC2 SLP206

CYHM;2008-06-13 08:00;CYHM 130800Z 05009KT 15SM FEW070 FEW140 14/11 A3012 RMK AC2AC1 SLP201

CYHM;2008-06-13 09:00;CYHM 130900Z 04007KT 15SM FEW030CB BKN070 BKN200 14/11 A3011 RMK CB2AC4CI1 CB N SLP198

CYHM;2008-06-13 10:00;CYHM 131000Z 04007KT 15SM FEW050CB SCT080 BKN100 14/11 A3011 RMK CB2AC2AC2 CB NE - SE SLP198

CYHM;2008-06-13 11:00;CYHM 131100Z 04006KT 15SM FEW055 FEW080 SCT120 14/12 A3012 RMK CU1AC2AC1 SLP200

CYHM;2008-06-13 12:00;CYHM 131200Z 07006KT 15SM FEW060 FEW100 16/12 A3010 RMK SC1AC1 SC TR SLP195

CYHM;2008-06-13 13:00;CYHM 131300Z 10004KT 15SM FEW035 BKN048 BKN100 20/16 A3010 RMK CU2SC2AC2 TCU ASOCTD SLP192

CYHM;2008-06-13 14:00;CYHM 131400Z 20016KT 8SM FEW180 SCT240 25/19 A3007 RMK AC1CI1 SLP184

CYHM;2008-06-13 15:00;CYHM 131500Z 21015KT 6SM HZ BKN240 26/20 A3006 RMK CI2 SLP179

CYHM;2008-06-13 16:00;CYHM 131600Z 21014KT 8SM SCT220 27/21 A3007 RMK CI2 SLP180

CYHM;2008-06-13 17:00;CYHM 131700Z 20014KT 8SM FEW038 FEW160 SCT240 28/22 A3005 RMK CU2AC1CI1 SLP175

CYHM;2008-06-13 18:00;CYHM 131800Z 21012KT 15SM FEW039 FEW070 SCT220 29/22 A3004 RMK CU2AC1CI1 SLP169

CYHM;2008-06-13 19:00;CYHM 131900Z CCA 22015KT 12SM FEW033 BKN180 BKN240 28/21 A3002 RMK CU2AC3CI1 SLP164

CYHM;2008-06-13 20:00;CYHM 132000Z 21018KT 15SM FEW080 SCT160 BKN240 28/21 A2999 RMK AC1AC3CI2 SLP155

CYHM;2008-06-13 21:00;CYHM 132100Z 23013KT 15SM FEW080 BKN150 BKN240 28/22 A2998 RMK AC2AC4CI2 SLP152

CYHM;2008-06-13 22:00;CYHM 132200Z 25012KT 12SM BKN150 BKN240 28/21 A2997 RMK AC6CI1 SLP148

CYHM;2008-06-13 23:00;CYHM 132300Z 24009KT 12SM BKN140 27/21 A2998 RMK AC7 SLP151

CYHM;2008-06-14 00:00;CYHM 140000Z 22008KT 10SM FEW059 BKN150 26/21 A2997 RMK CU2AC6 SLP147

CYHM;2008-06-14 00:22;CYHM 140022Z 18010KT 8SM -TSRA FEW052CB OVC160 RMK CB2AC6

CYHM;2008-06-14 00:43;CYHM 140043Z 23025KT 1 1/4SM +TSRA BKN044CB OVC160 RMK RA2CB6AC1

CYHM;2008-06-14 01:00;CYHM 140100Z 27008G30KT 5SM TSRA FEW012 OVC043CB 19/17 A2997 RERA RMK CF2CB6 /R15/ SLP149

CYHM;2008-06-14 02:00;CYHM 140200Z 27007KT 7SM -TSRA BKN041CB OVC096 20/20 A2998 RERA RMK CB6AC2 SLP151

CYHM;2008-06-14 03:00;CYHM 140300Z 16008KT 5SM -SHRA BKN040 OVC120 21/20 A2997 RETS RMK SC6AC2 SLP146

CYHM;2008-06-14 04:00;CYHM 140400Z 20007KT 5SM -SHRA FEW027 BKN053 OVC140 20/20 A2998 RMK CF2SC4AC2 SLP150

CYHM;2008-06-14 05:00;CYHM 140500Z 20010KT 3SM BR FEW004 FEW070 OVC140 20/19 A2998 RMK SF2AC1AC6 SLP148

CYHM;2008-06-14 05:22;CYHM 140522Z 20010KT 3SM BR BKN003 OVC130 RMK SF5AC3 VIS VRB 2 - 4

CYHM;2008-06-14 05:50;CYHM 140550Z 20011KT 10SM SCT003 OVC130 RMK SF3AC5

CYHM;2008-06-14 06:00;CYHM 140600Z 20011KT 10SM FEW003 OVC140 19/18 A2997 RMK SF2AC6 /R21/ SLP144

CYHM;2008-06-14 07:00;CYHM 140700Z 20009KT 15SM OVC023 19/18 A2995 RMK SC8 SLP139

CYHM;2008-06-14 08:00;CYHM 140800Z 20009KT 12SM OVC019 19/18 A2992 RMK SC8 SLP130

CYHM;2008-06-14 08:24;CYHM 140824Z 20009KT 10SM SCT007 OVC016 RMK SF3SC5

CYHM;2008-06-14 09:00;CYHM 140900Z 20010KT 7SM BKN008 OVC015 19/18 A2992 RMK SF6SC2 CIG RAG SLP129

CYHM;2008-06-14 10:00;CYHM 141000Z 21006KT 6SM BR FEW007 OVC011 19/19 A2992 RMK SF2SC6 CIG RAG SLP130

CYHM;2008-06-14 10:29;CYHM 141029Z 24008KT 5SM BR BKN008 BKN032 RMK SF6SC1 CIG RAG

CYHM;2008-06-14 10:39;CYHM 141039Z 24007KT 7SM FEW008 FEW032 BKN120 RMK SF2SC1AC5

CYHM;2008-06-14 11:00;CYHM 141100Z 23008KT 7SM FEW009 SCT026 BKN100 20/19 A2993 RMK SF2SC2AC3 SLP131

CYHM;2008-06-14 11:08;CYHM 141108Z 23008KT 7SM BKN009 BKN022 OVC100 RMK SF6SC1AC2

CYHM;2008-06-14 11:44;CYHM 141144Z 23010KT 6SM -SHRA BR BKN007 OVC015 RMK SF7SC1

CYHM;2008-06-14 12:00;CYHM 141200Z 26008KT 6SM -SHRA BR SCT007 BKN017 OVC032 20/19 A2995 RMK SF4SC2SC2 SLP138

CYHM;2008-06-14 12:41;CYHM 141241Z 28008KT 15SM FEW010 BKN030 OVC110 RMK CF1SC4AC3

CYHM;2008-06-14 13:00;CYHM 141300Z 28006KT 15SM FEW010 SCT030 BKN120 19/17 A2996 RMK CU1SC2AC4 SLP143

CYHM;2008-06-14 14:00;CYHM 141400Z 26005KT 15SM FEW012 FEW030 BKN096 OVC220 20/17 A2996 RMK CU1SC2AC5CI2 CU TR SLP143

CYHM;2008-06-14 15:00;CYHM 141500Z 29008KT 230V320 15SM FEW018 SCT028 BKN096 BKN240 23/19 A2996 RMK CU1SC2AC2CI2 SLP144

CYHM;2008-06-14 16:00;CYHM 141600Z 32006KT 280V350 15SM SCT020 BKN032 OVC240 23/18 A2997 RMK CU3SC3CI2 SLP147

CYHM;2008-06-14 17:00;CYHM 141700Z 25005KT 15SM BKN026 OVC250 23/18 A2997 RMK CU5CS3 SLP146

CYHM;2008-06-14 18:00;CYHM 141800Z 30006KT 240V330 15SM BKN028 BKN230 24/18 A2996 RMK CU5CS2 SLP142

CYHM;2008-06-14 19:00;CYHM 141900Z 30007KT 270V330 15SM BKN028 BKN210 24/17 A2995 RMK CU5CS2 SLP141

CYHM;2008-06-14 20:00;CYHM 142000Z 27008KT 230V310 15SM BKN041 BKN210 25/17 A2994 RMK CU5CS1 SLP138

CYHM;2008-06-14 21:00;CYHM 142100Z 27009KT 240V300 15SM BKN044 BKN220 25/15 A2994 RMK CU5CI1 CI TR SLP136

CYHM;2008-06-14 22:00;CYHM 142200Z 29007KT 250V320 15SM FEW045 SCT058 SCT220 25/15 A2993 RMK CU2SC2CI1 CI TR SLP134

CYHM;2008-06-14 23:00;CYHM 142300Z 29006KT 15SM FEW045 FEW058 FEW220 24/13 A2993 RMK CU1SC1CI1 SLP132

CYHM;2008-06-15 00:00;CYHM 150000Z 29006KT 15SM FEW048 FEW200 23/13 A2994 RMK CU1CI1 CU TR SLP135

CYHM;2008-06-15 01:00;CYHM 150100Z 27004KT 15SM FEW060 FEW220 21/12 A2994 RMK SC1CI1 SC TR SLP135

CYHM;2008-06-15 02:00;CYHM 150200Z 21004KT 15SM FEW220 18/13 A2994 RMK CI1 CI TR SLP135

CYHM;2008-06-15 03:00;CYHM 150300Z 00000KT 15SM FEW220 18/13 A2994 RMK CI1 SLP136

CYHM;2008-06-15 04:00;CYHM 150400Z 24004KT 15SM SKC 16/13 A2993 RMK SLP134

CYHM;2008-06-15 05:00;CYHM 150500Z 25005KT 15SM SKC 17/14 A2992 RMK SLP132

CYHM;2008-06-15 06:00;CYHM 150600Z 25005KT 15SM FEW140 16/13 A2994 RMK AC2 SLP137

CYHM;2008-06-15 07:00;CYHM 150700Z 25005KT 15SM FEW140 16/13 A2993 RMK AC1 SLP135

CYHM;2008-06-15 08:00;CYHM 150800Z 23004KT 15SM FEW210 14/13 A2992 RMK CI1 SLP131

CYHM;2008-06-15 09:00;CYHM 150900Z 25005KT 15SM FEW090 FEW120 SCT200 15/13 A2992 RMK AC2AC1CI1 SLP130

CYHM;2008-06-15 10:00;CYHM 151000Z 24004KT 15SM FEW040 FEW090 FEW120 13/12 A2991 RMK SC1AC1AC1 SLP126

CYHM;2008-06-15 11:00;CYHM 151100Z 24004KT 15SM FEW110 SCT230 16/14 A2991 RMK AC2CC1 SLP127

CYHM;2008-06-15 12:00;CYHM 151200Z 24007KT 15SM FEW130 SCT230 18/15 A2993 RMK AC2CC1 SLP132

CYHM;2008-06-15 13:00;CYHM 151300Z 20008KT 15SM SCT110 BKN230 21/16 A2991 RMK AC4CI0 SLP128

CYHM;2008-06-15 14:00;CYHM 151400Z 21008KT 15SM SCT120 22/15 A2991 RMK AC3 SLP125

CYHM;2008-06-15 15:00;CYHM 151500Z 21010G15KT 180V250 15SM FEW035 FEW110 22/15 A2989 RMK CU1AC1 CU TR SLP120

CYHM;2008-06-15 16:00;CYHM 151600Z 21011G18KT 15SM FEW040 FEW110 FEW250 24/16 A2988 RMK CU1AC1CI0 CU TR SLP116

CYHM;2008-06-15 17:00;CYHM 151700Z 21014KT 15SM FEW040 FEW110 FEW250 24/16 A2987 RMK CU1AC1CI0 SLP113

CYHM;2008-06-15 18:00;CYHM 151800Z 24015G22KT 15SM BKN051 BKN250 25/15 A2984 RMK CU5CI1 TCU ASOCTD SLP104

CYHM;2008-06-15 19:00;CYHM 151900Z 23017KT 15SM SCT045TCU SCT060 BKN250 25/14 A2981 RMK TCU3SC1CI1 CB ASOCTD N SLP094

CYHM;2008-06-15 20:00;CYHM 152000Z 23015KT 15SM SCT040TCU BKN220 25/15 A2979 RMK TCU3CI2 SLP088

CYHM;2008-06-15 21:00;CYHM 152100Z 24013G18KT 210V270 15SM FEW040TCU BKN150 BKN220 25/14 A2978 RMK TCU2AC2CI1 SLP083

CYHM;2008-06-15 22:00;CYHM 152200Z 23013KT 15SM FEW040TCU SCT050 BKN100 BKN130 24/16 A2976 RMK TCU2SC2AC2AC2 SLP077

CYHM;2008-06-15 23:00;CYHM 152300Z 23012KT 15SM FEW040TCU BKN095 23/15 A2976 RMK TCU2AC5 SLP075

CYHM;2008-06-15 23:17;CYHM 152317Z 23009KT 15SM VCSH FEW040TCU BKN095 RMK TCU2AC3 CB EMBD LTNG N

CYHM;2008-06-16 00:00;CYHM 160000Z 03010KT 15SM FEW015 SCT035TCU BKN095 BKN250 22/14 A2978 RMK CF1TCU3AC1CI1 CB ASOCTD NW -N SLP082

CYHM;2008-06-16 00:35;CYHM 160035Z 05012G19KT 15SM TS SCT040TCU BKN067 RMK TCU4AC2 LTNG CB EMBD

CYHM;2008-06-16 00:46;CYHM 160046Z 05012G21KT 8SM TSRA SCT040CB BKN060 RMK CB4SC3 LTGCG

CYHM;2008-06-16 01:00;CYHM 160100Z CCA 05020KT 9SM -TSRA FEW015 SCT040CB BKN055 18/13 A2978 RERA RMK CF1CB3SC3 LTNG SLP082

CYHM;2008-06-16 01:10;CYHM 160110Z 35020KT 5SM TSRA FEW014 BKN035CB BKN055 RMK CF2CB4SC2 LTGCG

CYHM;2008-06-16 01:26;CYHM 160126Z 04017KT 3SM TSRA FEW014 BKN038CB BKN060 RMK CF2CB4SC2 LTGCG WSHFT0111

CYHM;2008-06-16 01:29;CYHM 160129Z 04015KT 2 1/2SM TSRA FEW014 BKN038CB BKN058 RMK CF2CB3SC2 LTGCG

CYHM;2008-06-16 02:00;CYHM 160200Z 08010KT 6SM -TSRA FEW015 BKN044 BKN068 17/13 A2979 RERA RMK CF1SC5AC2 LTNG CB EMBD SLP085

CYHM;2008-06-16 02:42;CYHM 160242Z 33004KT 1SM +TSRA SCT004 OVC014CB RMK RA2SF2CB4 FQT LTGICCG PRESRR VIS VRB 3/4 - 11/4

CYHM;2008-06-16 02:54;CYHM 160254Z 35012KT 5SM -TSRA SCT005 OVC012CB RERA RMK SF3CB5 OCNL LTNG E

CYHM;2008-06-16 03:00;CYHM 160300Z 02018KT 5SM +TSRA BKN017CB OVC035 16/15 A2982 RMK CB6SC2 OCNL LTNG /R10/ SLP096

CYHM;2008-06-16 04:00;CYHM 160400Z 10010KT 15SM FEW055 BKN140 16/12 A2978 RETSRA RMK SC2AC2 LTNG NE + SE SLP083

CYHM;2008-06-16 05:00;CYHM 160500Z 14009KT 15SM FEW030 SCT070 BKN160 16/12 A2975 RMK SC2AC2AC2 CB ASOCTD LTNG ALQDS SLP073

CYHM;2008-06-16 05:26;CYHM 160526Z 16013KT 10SM -TSRA FEW050CB BKN090 RMK CB2AC5 LTNG ALQDS

CYHM;2008-06-16 06:00;CYHM 160600Z 13006KT 7SM -TSRA FEW006 SCT030CB OVC110 16/14 A2977 RERA RMK CF2CB2AC4 LTNG ALQDS /R25/ SLP079

CYHM;2008-06-16 07:00;CYHM 160700Z 33014KT 15SM TS BKN040 BKN090 16/14 A2980 RMK SC6AC2 CB ASOCTD OCNL LTGICCG SLP088

CYHM;2008-06-16 07:09;CYHM 160709Z 34018G26KT 15SM FEW010 OVC036 RETS RMK CF2SC6

CYHM;2008-06-16 08:00;CYHM 160800Z 13005KT 15SM FEW015 FEW030 FEW200 14/11 A2974 RMK CF1SC1CI1 TR CF SLP069

CYHM;2008-06-16 09:00;CYHM 160900Z 17004KT 15SM FEW030 FEW140 15/13 A2973 RMK SC1AC1 SLP065

CYHM;2008-06-16 10:00;CYHM 161000Z 23004KT 15SM FEW100 15/12 A2973 RMK AC1 SLP065

CYHM;2008-06-16 10:30;CYHM 161030Z 28002KT 2SM BR SKC

CYHM;2008-06-16 11:00;CYHM 161100Z 25004KT 2 1/2SM BR FEW001 16/15 A2974 RMK SF2 SLP068

CYHM;2008-06-16 11:09;CYHM 161109Z 25004KT 1SM BR SCT002 RMK FG2SF2

CYHM;2008-06-16 11:43;CYHM 161143Z 25007KT 3SM BR FEW002 FEW015 RMK SF2CU1

CYHM;2008-06-16 12:00;CYHM 161200Z 25008KT 10SM FEW002 FEW075 19/16 A2974 RMK CF1AC1 SLP069

CYHM;2008-06-16 13:00;CYHM 161300Z 26011KT 15SM FEW025 FEW085 23/17 A2975 RMK CU1AC1 SLP072

CYHM;2008-06-16 14:00;CYHM 161400Z 31008KT 15SM FEW025 FEW100 22/17 A2974 RMK CU1AC1 SLP070

CYHM;2008-06-16 15:00;CYHM 161500Z 31008KT 15SM FEW024 BKN032 BKN120 23/17 A2975 RMK CU2SC3AC1 SLP071

CYHM;2008-06-16 16:00;CYHM 161600Z 25004KT 15SM FEW032 FEW095 22/16 A2973 RMK CU2AC1 TCU ASOCTD AC TR SLP066

CYHM;2008-06-16 17:00;CYHM 161700Z 28008KT 15SM SCT036 BKN058 BKN080 22/15 A2971 RMK CU3SC2AC1 TCU ASOCTD SLP060

CYHM;2008-06-16 18:00;CYHM 161800Z 29015KT 15SM SCT038 SCT180 23/15 A2970 RMK CU3AC1 TCU ASOCITD SLP057

CYHM;2008-06-16 19:00;CYHM 161900Z 29010G18KT 15SM FEW030 BKN044TCU 23/14 A2970 RMK CF1TCU6 SC ASOCTD CUFRA SLP056

CYHM;2008-06-16 20:00;CYHM 162000Z 30012KT 15SM FEW034 BKN046TCU BKN250 22/14 A2970 RMK CF1TCU5CI1 CUFRA SC ASOCTD SLP056

CYHM;2008-06-16 21:00;CYHM 162100Z 31012KT 15SM BKN044TCU 21/14 A2970 RMK TCU6 SC ASOCTD SLP056

CYHM;2008-06-16 22:00;CYHM 162200Z 32009KT 15SM FEW056TCU FEW064 SCT100 22/14 A2971 RMK TCU1CU2AC1 SLP059

CYHM;2008-06-16 23:00;CYHM 162300Z 36008KT 15SM SCT040 SCT052TCU 20/13 A2972 RMK SC3TCU1 CUFRA ASOCTD SLP063

CYHM;2008-06-16 23:30;CYHM 162330Z 31008KT 15SM TS BKN042CB RMK CB5 TCU ASOCTD

CYHM;2008-06-16 23:50;CYHM 162350Z 29008KT 15SM -SHRA SCT044CB BKN110 RETS RMK CB4AC2 TCU ASOCTD

CYHM;2008-06-17 00:00;CYHM 170000Z 31007KT 15SM -SHRA SCT044CB BKN110 19/13 A2974 RETS RMK CB4AC2 TCU ASOCTD SLP069

CYHM;2008-06-17 00:33;CYHM 170033Z 33010KT 15SM FEW044TCU BKN080 BKN120 RMK TCU1AC4AC2

CYHM;2008-06-17 01:00;CYHM 170100Z 29009KT 15SM FEW044TCU BKN084 BKN120 17/13 A2976 RMK TCU1AC4AC1 SLP077

CYHM;2008-06-17 02:00;CYHM 170200Z 32010KT 15SM SCT084 BKN100 16/11 A2979 RMK AC3AC4 SLP085

CYHM;2008-06-17 03:00;CYHM 170300Z 31009KT 15SM FEW062 FEW094 BKN100 15/11 A2981 RMK SC1AC2AC5 SLP092

CYHM;2008-06-17 04:00;CYHM 170400Z 31008KT 15SM FEW062 BKN075 BKN110 14/08 A2982 RMK SC1AC4AC2 SLP098

CYHM;2008-06-17 05:00;CYHM 170500Z 29011KT 15SM OVC070 14/09 A2983 RMK AC8 SLP100

CYHM;2008-06-17 06:00;CYHM 170600Z 31007KT 15SM BKN096 13/08 A2982 RMK AC7 SLP097

CYHM;2008-06-17 07:00;CYHM 170700Z 29005KT 15SM FEW096 12/07 A2981 RMK AC2 SLP095

CYHM;2008-06-17 08:00;CYHM 170800Z 26004KT 15SM FEW100 10/07 A2982 RMK AC1 SLP096

CYHM;2008-06-17 09:00;CYHM 170900Z 28003KT 15SM FEW100 10/07 A2982 RMK AC1 SLP098

CYHM;2008-06-17 10:00;CYHM 171000Z 25005KT 15SM FEW100 09/07 A2983 RMK AC1 SLP101

CYHM;2008-06-17 11:00;CYHM 171100Z 27008KT 15SM FEW025 FEW100 11/08 A2984 RMK CU1AC1 CU TR SLP104

CYHM;2008-06-17 12:00;CYHM 171200Z 32014KT 15SM FEW018 FEW100 12/09 A2984 RMK CU2AC1 SLP107

CYHM;2008-06-17 13:00;CYHM 171300Z 26014G19KT 15SM BKN028 BKN036 13/09 A2984 RMK CU5SC2 SLP107

CYHM;2008-06-17 14:00;CYHM 171400Z 28018G25KT 15SM SCT032 BKN042 15/09 A2983 RMK CU3SC4 SLP103

CYHM;2008-06-17 15:00;CYHM 171500Z 28012KT 15SM FEW032 BKN054 BKN110 16/09 A2983 RMK CU2SC4AC1 SLP103

CYHM;2008-06-17 15:55;CYHM 171555Z 28014G20KT 15SM -SHRA SCT028 BKN040 BKN120 RMK CU4SC2AC2

CYHM;2008-06-17 16:00;CYHM 171600Z 28015G20KT 250V320 15SM -SHRA SCT028 BKN039 BKN120 15/10 A2983 RMK CU4SC2AC2 SLP102

CYHM;2008-06-17 16:11;CYHM 171611Z 27015G20KT 15SM FEW035 BKN060 BKN095 RMK CU2SC2AC2

CYHM;2008-06-17 16:28;CYHM 171628Z 28016G22KT 15SM -SHRA FEW018 BKN028 BKN075 RMK CU2SC4AC2

CYHM;2008-06-17 17:00;CYHM 171700Z 28012G18KT 15SM -SHRA FEW020 BKN028 BKN130 15/11 A2982 RMK CU2SC3AC2 TCU ASOCTD SLP100

CYHM;2008-06-17 17:18;CYHM 171718Z 29014KT 15SM FEW024 BKN036 BKN120 RMK CU2SC2AC2

CYHM;2008-06-17 18:00;CYHM 171800Z 28016KT 15SM FEW025 SCT045 BKN110 15/10 A2982 RMK CU2SC2AC3 SLP098

CYHM;2008-06-17 19:00;CYHM 171900Z 26013G22KT 15SM FEW034 FEW072 BKN120 16/10 A2981 RMK CU2AC1AC4 TCU ASOCTD SLP096

CYHM;2008-06-17 19:32;CYHM 171932Z 26012G24KT 15SM -SHRA FEW026 BKN040 BKN100 RMK CF2SC4AC2 CUFRA

CYHM;2008-06-17 20:00;CYHM 172000Z 27010G16KT 15SM -SHRA FEW042 BKN073 OVC100 15/11 A2982 RMK SC2AC5AC2 CU ASOCTD SLP098

CYHM;2008-06-17 21:00;CYHM 172100Z 26010G16KT 15SM -SHRA FEW024 BKN060 OVC100 15/10 A2982 RMK CU1SC6AC1 SLP100

CYHM;2008-06-17 22:00;CYHM 172200Z 25012KT 15SM -SHRA FEW044 BKN062 BKN094 14/09 A2982 RMK CF1SC4AC2 CUFRA SLP100

CYHM;2008-06-17 23:00;CYHM 172300Z 26010KT 15SM -SHRA FEW024 BKN040 OVC094 14/10 A2981 RMK CF1SC5AC2 CUFRA SLP099

CYHM;2008-06-18 00:00;CYHM 180000Z 26009KT 15SM -SHRA FEW020 BKN054 OVC074 13/11 A2982 RMK SC2SC5AC2 SLP099

CYHM;2008-06-18 01:00;CYHM 180100Z 24007KT 15SM FEW054 BKN070 OVC120 12/10 A2981 RMK SC2AC6AC1 SLP097

CYHM;2008-06-18 02:00;CYHM 180200Z 27005KT 15SM -SHRA FEW010 OVC052 12/11 A2982 RMK SC2SC6 SLP100

CYHM;2008-06-18 03:00;CYHM 180300Z 28007KT 15SM -SHRA FEW010 FEW044 OVC074 11/10 A2981 RMK SF1SC2AC6 SLP098

CYHM;2008-06-18 04:00;CYHM 180400Z 31005KT 15SM FEW012 FEW044 BKN074 BKN130 11/09 A2980 RMK SF1SC1AC4AC2 SLP093

CYHM;2008-06-18 05:00;CYHM 180500Z 24003KT 15SM -SHRA FEW010 BKN064 OVC070 11/10 A2979 RMK SF1SC4AC3 SLP090

CYHM;2008-06-18 06:00;CYHM 180600Z 25004KT 8SM -RA SCT008 BKN012 OVC022 11/10 A2978 RMK SF3SC4SC1 SLP085

CYHM;2008-06-18 06:30;CYHM 180630Z 26004KT 8SM -RA SCT008 BKN020 OVC064 RMK SF4SC3SC1

CYHM;2008-06-18 07:00;CYHM 180700Z 29004KT 6SM -SHRA BR SCT007 BKN024 OVC046 11/10 A2977 RMK SF3SC4SC1 SLP084

CYHM;2008-06-18 08:00;CYHM 180800Z 26004KT 10SM -SHRA FEW008 SCT024 OVC045 10/10 A2976 RMK SF2SC2SC5 SLP079

CYHM;2008-06-18 09:00;CYHM 180900Z 00000KT 9SM -SHRA FEW006 BKN050 OVC080 10/10 A2975 RMK SF1SC6AC2 SLP076

CYHM;2008-06-18 09:50;CYHM 180950Z 00000KT 15SM BKN006 BKN050 BKN090 RMK SF5SC2AC1

CYHM;2008-06-18 10:00;CYHM 181000Z 32002KT 15SM BKN006 BKN050 BKN090 10/10 A2975 RMK SF5SC2AC1 SLP077

CYHM;2008-06-18 11:00;CYHM 181100Z 34005KT 15SM FEW010 BKN033 OVC052 11/09 A2976 RMK CF2SC4SC2 SLP080

CYHM;2008-06-18 12:00;CYHM 181200Z 35006KT 15SM BKN012 BKN038 BKN070 11/10 A2977 RMK SC5SC2AC1 SLP083

CYHM;2008-06-18 13:00;CYHM 181300Z 33012KT 15SM BKN019 12/09 A2977 RMK SC7 CU ASOCTD SLP084

CYHM;2008-06-18 14:00;CYHM 181400Z 29008KT 15SM FEW018 BKN022 14/10 A2978 RMK CU2SC4 SLP085

CYHM;2008-06-18 15:00;CYHM 181500Z 32012KT 15SM SCT020 BKN027 13/10 A2978 RMK CU3SC4 SLP088

CYHM;2008-06-18 16:00;CYHM 181600Z 26008KT 15SM SCT022 BKN032 14/10 A2979 RMK CU3SC2 SLP089

CYHM;2008-06-18 17:00;CYHM 181700Z 27010KT 15SM SCT032 BKN040 BKN120 16/11 A2979 RMK CU3SC2AC1 SLP091

CYHM;2008-06-18 18:00;CYHM 181800Z 29012KT 15SM BKN031 BKN039 BKN100 17/11 A2979 RMK CU5SC1AC1 SC ASOCTD SLP089

CYHM;2008-06-18 19:00;CYHM 181900Z 29010KT 15SM BKN044 BKN080 17/09 A2979 RMK SC7AC1 AC TR CU ASOCTD SLP089

CYHM;2008-06-18 20:00;CYHM 182000Z 34003KT 15SM -SHRA BKN042 BKN064 15/11 A2981 RMK SC5SC2 WND L/V SF ASOCTD SLP094

CYHM;2008-06-18 20:23;CYHM 182023Z 06006KT 15SM FEW042 SCT064 BKN090 RMK SC1SC2AC4

CYHM;2008-06-18 21:00;CYHM 182100Z 05008KT 15SM BKN038 BKN086 16/11 A2981 RMK SC6AC1 SF ASOCTD SLP095

CYHM;2008-06-18 22:00;CYHM 182200Z 06007KT 15SM BKN035 BKN085 15/11 A2981 RMK SC6AC2 SLP095

CYHM;2008-06-18 23:00;CYHM 182300Z 31011KT 15SM BKN032 BKN084 17/12 A2981 RMK SC6AC1 SLP098

CYHM;2008-06-19 00:00;CYHM 190000Z 29007KT 15SM FEW024 FEW090 BKN250 16/10 A2982 RMK SC2AC1CI2 AC TR CU ASOCTD SLP100

CYHM;2008-06-19 01:00;CYHM 190100Z 28004KT 15SM FEW024 FEW100 SCT250 14/10 A2983 RMK SC1AC1CI1 SLP103

CYHM;2008-06-19 02:00;CYHM 190200Z 28005KT 15SM FEW022 FEW080 SCT250 12/09 A2985 RMK SC1AC1CI1 SC TR SLP111

CYHM;2008-06-19 03:00;CYHM 190300Z 28005KT 15SM FEW075 FEW210 11/09 A2986 RMK AC1CI1 SLP114

CYHM;2008-06-19 04:00;CYHM 190400Z 26005KT 15SM FEW070 FEW210 11/09 A2986 RMK AC1CI1 TR CI SLP114

CYHM;2008-06-19 05:00;CYHM 190500Z 26005KT 15SM FEW070 FEW210 10/09 A2985 RMK AC1CI1 SLP112

CYHM;2008-06-19 06:00;CYHM 190600Z 27005KT 15SM FEW070 FEW210 10/08 A2985 RMK AC2CI1 SLP110

CYHM;2008-06-19 07:00;CYHM 190700Z 27005KT 15SM FEW060 FEW210 09/08 A2986 RMK SC2CI1 SLP112

CYHM;2008-06-19 08:00;CYHM 190800Z 27005KT 15SM BKN055 10/08 A2985 RMK SC7 SLP110

CYHM;2008-06-19 09:00;CYHM 190900Z CCA 23003KT 15SM OVC056 10/09 A2985 RMK SC8 SLP111

CYHM;2008-06-19 10:00;CYHM 191000Z 25003KT 15SM BKN060 10/09 A2987 RMK SC7 SLP117

CYHM;2008-06-19 11:00;CYHM 191100Z 26004KT 15SM BKN059 11/10 A2988 RMK SC7 SLP121

CYHM;2008-06-19 12:00;CYHM 191200Z 26004KT 15SM BKN060 12/10 A2989 RMK SC7 SLP122

CYHM;2008-06-19 13:00;CYHM 191300Z 20005KT 15SM FEW020 BKN028 OVC038 13/11 A2990 RMK CU1SC6SC2 SLP125

CYHM;2008-06-19 14:00;CYHM 191400Z 19007KT 15SM FEW020 SCT032 BKN047 14/11 A2989 RMK CU1SC3SC4 SLP124

CYHM;2008-06-19 15:00;CYHM 191500Z 24008KT 15SM SCT022 SCT035 BKN120 16/11 A2988 RMK CU3SC1AC2 SLP121

CYHM;2008-06-19 16:00;CYHM 191600Z 26009KT 15SM BKN048 BKN061 16/11 A2988 RMK CU5SC2 SLP121

CYHM;2008-06-19 17:00;CYHM 191700Z 26008KT 15SM SCT030 BKN042 OVC052 16/11 A2988 RMK CU3SC3SC2 SLP121

CYHM;2008-06-19 18:00;CYHM 191800Z 24008KT 15SM SCT028 BKN041 17/11 A2988 RMK CU3SC4 SLP118

CYHM;2008-06-19 18:23;CYHM 191823Z 26010KT 15SM -SHRA SCT020 BKN031 OVC050 RMK CU3SC3SC2

CYHM;2008-06-19 18:50;CYHM 191850Z 26006KT 15SM FEW020 OVC032 RMK CU2SC6

CYHM;2008-06-19 19:00;CYHM 191900Z 29009KT 15SM FEW020 OVC037 16/11 A2988 RMK CU2SC6 SLP121

CYHM;2008-06-19 20:00;CYHM 192000Z 27006KT 15SM SCT028 BKN045 OVC057 16/11 A2988 RMK SC4SC2SC2 SLP121

CYHM;2008-06-19 21:00;CYHM 192100Z 27010KT 15SM SCT026 BKN040 OVC057 16/11 A2989 RMK CU3SC3SC2 SLP123

CYHM;2008-06-19 21:38;CYHM 192138Z 27008KT 10SM -SHRA SCT025 OVC039 RMK CU3SC5

CYHM;2008-06-19 22:00;CYHM 192200Z 28009KT 12SM -SHRA SCT025 OVC038 14/12 A2990 RMK SC4SC4 SLP128

CYHM;2008-06-19 23:00;CYHM 192300Z 27008KT 15SM -SHRA FEW013 BKN024 OVC034 15/12 A2990 RMK CF2SC3SC2 PCPN VRY LGT SLP127

CYHM;2008-06-20 00:00;CYHM 200000Z 27005KT 12SM -SHRA FEW015 BKN030 OVC075 14/12 A2990 RMK CF2SC2AC3 SLP127

CYHM;2008-06-20 00:24;CYHM 200024Z 26004KT 15SM FEW015 SCT030 BKN060 RMK CF2SC2SC3 OCNL -SHRA

CYHM;2008-06-20 00:55;CYHM 200055Z 25004KT 6SM -SHRA BR FEW015 BKN030 BKN050 RMK CF2SC3SC2

CYHM;2008-06-20 01:00;CYHM 200100Z 25004KT 5SM -SHRA BR FEW015 BKN030 OVC050 14/13 A2990 RMK CF2SC3SC3 SLP126

CYHM;2008-06-20 01:19;CYHM 200119Z 25004KT 12SM FEW015 SCT030 OVC044 RMK CF2SC2SC4

CYHM;2008-06-20 02:00;CYHM 200200Z 25006KT 12SM -SHRA FEW014 OVC040 13/13 A2991 RMK CF1SC7 PCPN VRY LGT SLP131

CYHM;2008-06-20 03:00;CYHM 200300Z 26007KT 10SM -SHRA FEW020 OVC046 13/13 A2992 RMK CF2SC6 SLP133

CYHM;2008-06-20 04:00;CYHM 200400Z 25004KT 15SM SCT033 OVC042 13/13 A2992 RMK CF3SC5 SLP134

CYHM;2008-06-20 05:00;CYHM 200500Z 25004KT 12SM FEW029 OVC040 13/13 A2994 RMK CF2SC6 SLP138

CYHM;2008-06-20 06:00;CYHM 200600Z 24003KT 15SM FEW020 BKN046 BKN070 13/13 A2993 RMK CF2SC5AC1 SLP136

CYHM;2008-06-20 07:00;CYHM 200700Z 28003KT 15SM BKN034 BKN053 BKN090 13/13 A2993 RMK SC5SC1AC1 SLP136

CYHM;2008-06-20 08:00;CYHM 200800Z 00000KT 15SM SCT016 BKN050 BKN070 13/12 A2993 RMK CF3SC2AC1 SLP137

CYHM;2008-06-20 09:00;CYHM 200900Z 00000KT 15SM BKN035 13/12 A2993 RMK SC7 SLP138

CYHM;2008-06-20 10:00;CYHM 201000Z 00000KT 15SM FEW035 BKN065 13/12 A2994 RMK CF1SC6 SLP141

CYHM;2008-06-20 11:00;CYHM 201100Z 00000KT 15SM BKN034 BKN051 13/12 A2995 RMK SC6SC2 SLP143

CYHM;2008-06-20 12:00;CYHM 201200Z 00000KT 15SM BKN037 BKN051 14/12 A2996 RMK SC6SC2 SLP147

CYHM;2008-06-20 13:00;CYHM 201300Z 00000KT 15SM BKN034 BKN046 15/12 A2997 RMK SC6SC2 TR CU ASOCTD SLP152

CYHM;2008-06-20 14:00;CYHM 201400Z 00000KT 15SM FEW024 BKN041 BKN100 16/12 A2998 RMK CU1SC5AC1 SLP154

CYHM;2008-06-20 15:00;CYHM 201500Z 29002KT 15SM SCT042 SCT100 18/13 A2998 RMK CU3AC1 SC ASOCTD SLP153

CYHM;2008-06-20 16:00;CYHM 201600Z 28008KT 15SM BKN032 BKN038 BKN100 19/13 A2998 RMK CU5SC1AC1 SLP154

CYHM;2008-06-20 17:00;CYHM 201700Z 24006KT 15SM BKN040 BKN048 20/14 A2998 RMK CU5SC2 SLP154

CYHM;2008-06-20 18:00;CYHM 201800Z 27010KT 15SM BKN034 BKN052 BKN100 20/13 A2998 RMK CU5SC2AC1 SLP153

CYHM;2008-06-20 19:00;CYHM 201900Z 28008KT 15SM BKN034 BKN052 BKN090 21/13 A2998 RMK CU5SC1AC1 SLP152

CYHM;2008-06-20 20:00;CYHM 202000Z 25008KT 210V300 15SM BKN035 BKN055 BKN100 22/14 A2997 RMK CU5SC2AC1 AC TR SLP151

CYHM;2008-06-20 21:00;CYHM 202100Z 27007KT 240V300 15SM SCT036 BKN055 23/13 A2997 RMK CU4SC1 SLP147

CYHM;2008-06-20 22:00;CYHM 202200Z 27007KT 240V310 15SM BKN046 23/13 A2996 RMK CU5 TCU ASOCTD NE SLP145

CYHM;2008-06-20 23:00;CYHM 202300Z 26007KT 15SM SCT046 23/13 A2996 RMK CU4 TCU ASOCTD NE SLP144

CYHM;2008-06-21 00:00;CYHM 210000Z 28004KT 15SM FEW045 22/12 A2996 RMK CU2 SLP145

CYHM;2008-06-21 01:00;CYHM 210100Z 00000KT 15SM FEW040 FEW060 20/12 A2997 RMK CU1SC1 SC TR SLP147

CYHM;2008-06-21 02:00;CYHM 210200Z 00000KT 15SM FEW040 FEW070 17/13 A2999 RMK CU1AC1 CU TR AC TR SLP155

CYHM;2008-06-21 03:00;CYHM 210300Z 22005KT 15SM SKC 14/13 A3001 RMK SLP161

CYHM;2008-06-21 04:00;CYHM 210400Z 23003KT 15SM SKC 14/11 A3001 RMK SLP162

CYHM;2008-06-21 05:00;CYHM 210500Z 00000KT 15SM FEW220 14/12 A3001 RMK CI1 SLP163

CYHM;2008-06-21 06:00;CYHM 210600Z 23002KT 15SM FEW210 14/12 A3001 RMK CI1 SLP161

CYHM;2008-06-21 07:00;CYHM 210700Z 23003KT 15SM FEW100 FEW210 12/11 A3001 RMK AC1CI1 SLP161

CYHM;2008-06-21 08:00;CYHM 210800Z 25002KT 15SM FEW100 FEW210 13/12 A2999 RMK AC1CI1 TR AC SLP157

CYHM;2008-06-21 09:00;CYHM 210900Z 23002KT 15SM FEW120 FEW210 12/11 A2999 RMK AC1CI1 SLP155

CYHM;2008-06-21 10:00;CYHM 211000Z 17002KT 15SM FEW040TCU FEW120 FEW210 12/11 A2999 RMK TCU1AC1CI1 TR AC SLP156

CYHM;2008-06-21 11:00;CYHM 211100Z 17003KT 15SM FEW040 FEW100 FEW220 15/12 A3000 RMK CU1AC1CI1 CU TR SLP158

CYHM;2008-06-21 12:00;CYHM 211200Z 20006KT 15SM FEW030 FEW100 SCT220 17/14 A3000 RMK CU1AC1CI1 AC TR SLP157

CYHM;2008-06-21 13:00;CYHM 211300Z 22006KT 15SM FEW120 SCT240 20/15 A3000 RMK AC1CI1 SLP158

CYHM;2008-06-21 14:00;CYHM 211400Z 24004KT 15SM FEW032 FEW120 SCT180 BKN240 22/16 A2999 RMK CU1AC1AC2CI1 CU TR CONTRAIL SLP155

CYHM;2008-06-21 14:52;CYHM 211452Z 27005KT 15SM -SHRA FEW032 SCT042 BKN100 BKN240 RMK CU1SC2AC2CI1

CYHM;2008-06-21 15:00;CYHM 211500Z 27004KT 15SM -SHRA FEW030 SCT045 BKN075 BKN220 21/15 A3000 RMK CU2SC2AC2CI1 SLP157

CYHM;2008-06-21 15:36;CYHM 211536Z 26004KT 15SM FEW045 BKN064 BKN095 RMK SC2SC3AC2

CYHM;2008-06-21 16:00;CYHM 211600Z 24011KT 15SM FEW040TCU BKN058 OVC075 21/15 A3002 RMK TCU2SC5AC2 SLP164

CYHM;2008-06-21 16:03;CYHM 211603Z 24015KT 5SM -SHRA HZ FEW040TCU BKN059 OVC070 RMK TCU2SC5AC2

CYHM;2008-06-21 16:49;CYHM 211649Z 20002KT 7SM FEW040 BKN060 BKN096 RMK SC2SC2AC2 HZ

CYHM;2008-06-21 17:00;CYHM 211700Z 21004KT 8SM FEW040 BKN062 BKN100 20/17 A2999 RMK SC2SC3AC2 HZ SLP155

CYHM;2008-06-21 18:00;CYHM 211800Z 20005KT 10SM FEW025 FEW045 BKN068 BKN100 21/16 A2997 RMK CU1SC2AC3AC2 SLP150

CYHM;2008-06-21 19:00;CYHM 211900Z 20010KT 10SM FEW030 BKN084 BKN110 23/17 A2996 RMK CU2AC3AC2 TCU ASOCTD SLP144

CYHM;2008-06-21 20:00;CYHM 212000Z 20010KT 12SM FEW032 SCT075 BKN200 23/15 A2993 RMK CU2AC2CI1 TCU ASOCTD S SLP134

CYHM;2008-06-21 21:00;CYHM 212100Z 19009KT 12SM FEW030 SCT070 BKN230 22/15 A2991 RMK CU2AC2CI2 SLP129

CYHM;2008-06-21 22:00;CYHM 212200Z 21007KT 12SM FEW030 FEW070 OVC230 22/15 A2991 RMK CU1AC2CI5 CU TR SLP130

CYHM;2008-06-21 23:00;CYHM 212300Z 20005KT 12SM FEW060 OVC210 21/16 A2990 RMK SC2CI6 SLP124

CYHM;2008-06-22 00:00;CYHM 220000Z 23012KT 12SM FEW030TCU FEW070 BKN230 20/16 A2991 RMK TCU2AC1CI4 SLP127

CYHM;2008-06-22 01:00;CYHM 220100Z 27009KT 12SM FEW035 BKN120 BKN220 19/14 A2988 RMK CU2AC4CI2 SLP119

CYHM;2008-06-22 01:05;CYHM 220105Z 28009KT 12SM -SHRA FEW035 BKN100 RMK CU2AC6

CYHM;2008-06-22 01:33;CYHM 220133Z 26009KT 15SM SCT110 OVC220 RMK AC4CI4

CYHM;2008-06-22 02:00;CYHM 220200Z 25004KT 15SM OVC120 17/13 A2989 RMK AC8 SLP121

CYHM;2008-06-22 03:00;CYHM 220300Z 21006KT 15SM OVC094 17/14 A2992 RMK AC8 SLP130

CYHM;2008-06-22 04:00;CYHM 220400Z 22006KT 15SM OVC072 16/14 A2991 RMK AC8 SLP129

CYHM;2008-06-22 05:00;CYHM 220500Z 20007KT 15SM FEW043 OVC091 16/14 A2990 RMK SC2AC6 SLP124

CYHM;2008-06-22 06:00;CYHM 220600Z 22007KT 15SM FEW085 FEW140 BKN220 14/13 A2988 RMK AC2AC1CI2 SLP118

CYHM;2008-06-22 07:00;CYHM 220700Z 24004KT 15SM FEW140 BKN220 14/13 A2988 RMK AC2CI3 SLP117

CYHM;2008-06-22 08:00;CYHM 220800Z 23005KT 10SM SCT220 14/13 A2987 RMK CI2 SLP115

CYHM;2008-06-22 08:17;CYHM 220817Z 23005KT 6SM BR BKN006 RMK SF7

CYHM;2008-06-22 09:00;CYHM 220900Z 25005KT 5SM BR OVC004 14/14 A2989 RMK SF8 SLP121

CYHM;2008-06-22 09:36;CYHM 220936Z 22004KT 5SM BR OVC006 RMK SF8

CYHM;2008-06-22 10:00;CYHM 221000Z 22007KT 4SM BR BKN005 OVC010 15/14 A2989 RMK SF6SC2 SLP121

CYHM;2008-06-22 10:35;CYHM 221035Z 23004KT 2SM BR BKN005 OVC013 RMK FG3SF3SC2

CYHM;2008-06-22 11:00;CYHM 221100Z CCB 22004KT 2SM BR OVC015 16/15 A2989 RMK FG3SF5 SLP120

CYHM;2008-06-22 12:00;CYHM 221200Z 23007KT 3SM BR BKN003 OVC018 17/16 A2989 RMK FG2SF5SC2 SLP122

CYHM;2008-06-22 12:25;CYHM 221225Z 23006KT 4SM BR SCT012 OVC018 RMK SF3SC5

CYHM;2008-06-22 13:00;CYHM 221300Z 23008KT 5SM HZ SCT012 OVC017 18/16 A2990 RMK SF3SC5 SLP124

CYHM;2008-06-22 14:00;CYHM 221400Z 23009KT 10SM SCT016 BKN020 19/15 A2990 RMK CU3SC4 SLP125

CYHM;2008-06-22 15:00;CYHM 221500Z 22007KT 12SM BKN020 BKN210 21/16 A2991 RMK CU5CI1 SLP127

CYHM;2008-06-22 16:00;CYHM 221600Z 23007KT 15SM SCT030 BKN230 22/16 A2991 RMK CU3CI2 SLP128

CYHM;2008-06-22 17:00;CYHM 221700Z 23007KT 15SM SCT055TCU BKN230 23/16 A2991 RMK TCU4CI2 SLP126

CYHM;2008-06-22 17:40;CYHM 221740Z 23006KT 15SM -TSRA BKN050TCU BKN075 BKN220 RMK TCU5AC2CI1 CB EMBD

CYHM;2008-06-22 18:00;CYHM 221800Z 19009KT 10SM -TSRA BKN050TCU BKN075 BKN220 22/16 A2988 RMK TCU5AC2CI1 CB EMBD PCPN VRY LGT SLP119

CYHM;2008-06-22 18:13;CYHM 221813Z 20010KT 150V290 10SM TS BKN045TCU BKN070 BKN220 RMK TCU5AC2CI1 CB EMBD

CYHM;2008-06-22 18:44;CYHM 221844Z 18007KT 12SM -TSRA BKN028TCU BKN048 RMK TCU5SC1 CB ASOCTD NE LTGCG NE

CYHM;2008-06-22 19:00;CYHM 221900Z 20012KT 12SM TS BKN030TCU BKN050 22/16 A2986 RMK TCU6SC1 CB EMBD DIST N SLP112

CYHM;2008-06-22 19:35;CYHM 221935Z 28008KT 12SM BKN030TCU BKN044 BKN220 RETS RMK TCU5SC2CI1 CB EMBD DIST N

CYHM;2008-06-22 19:53;CYHM 221953Z 36010KT 12SM SCT030TCU BKN050 RMK TCU4SC3 CB DIST N WSHFT 1938

CYHM;2008-06-22 20:00;CYHM 222000Z 01009KT 12SM SCT030TCU BKN050 BKN220 21/13 A2988 RETS RMK TCU4SC2CI1 CB DIST NE SLP117

CYHM;2008-06-22 21:00;CYHM 222100Z 05005KT 15SM SCT038TCU BKN060 BKN220 23/13 A2986 RMK TCU4SC2CI1 CB DISD NW CI TR SLP111

CYHM;2008-06-22 22:00;CYHM 222200Z 17005KT 15SM FEW040TCU SCT100 BKN220 23/13 A2987 RMK TCU2AS2CI2 SLP113

CYHM;2008-06-22 23:00;CYHM 222300Z 20007KT 15SM FEW035TCU SCT120 BKN220 22/15 A2985 RMK TCU2AC2CI2 SLP108

CYHM;2008-06-23 00:00;CYHM 230000Z 21005KT 15SM FEW030TCU SCT120 BKN220 20/14 A2987 RMK TCU2AC2CI3 SLP113

CYHM;2008-06-23 01:00;CYHM 230100Z 24005KT 15SM FEW030 FEW120 BKN220 19/14 A2989 RMK CU2AC1CI5 TCU ASOCTD SLP120

CYHM;2008-06-23 02:00;CYHM 230200Z 27004KT 15SM FEW045 SCT180 BKN220 18/14 A2989 RMK CU1AC3CI4 CU TR SLP122

CYHM;2008-06-23 03:00;CYHM 230300Z 00000KT 15SM FEW180 SCT240 16/12 A2988 RMK AC2CI1 SLP117

CYHM;2008-06-23 04:00;CYHM 230400Z 17006KT 15SM FEW110 SCT210 16/12 A2989 RMK AC2CI1 SLP120

CYHM;2008-06-23 05:00;CYHM 230500Z 23004KT 15SM FEW110 BKN190 15/13 A2989 RMK AC1AC6 SLP121

CYHM;2008-06-23 06:00;CYHM 230600Z 00000KT 15SM BKN100 OVC170 15/13 A2988 RMK AC6AC2 SLP119

CYHM;2008-06-23 07:00;CYHM 230700Z 22004KT 15SM OVC100 15/14 A2989 RMK AC8 SLP120

CYHM;2008-06-23 08:00;CYHM 230800Z 20005KT 15SM BKN067 OVC080 15/14 A2989 RMK AC6AC2 SLP122

CYHM;2008-06-23 09:00;CYHM 230900Z 22003KT 15SM OVC082 15/14 A2990 RMK AC8 SLP124

CYHM;2008-06-23 10:00;CYHM 231000Z 25004KT 15SM FEW080 BKN100 15/14 A2991 RMK AC2AC4 VIRGA E SLP126

CYHM;2008-06-23 11:00;CYHM 231100Z 22005KT 6SM BR FEW100 BKN150 BKN220 15/14 A2991 RMK AC2AC2CI1 SLP128

CYHM;2008-06-23 12:00;CYHM 231200Z 23007KT 15SM FEW010 FEW035 SCT100 BKN210 16/15 A2992 RMK SF1SC1AC2CI1 SLP130

CYHM;2008-06-23 13:00;CYHM 231300Z 23007KT 15SM BKN012 BKN035 18/15 A2992 RMK SC6SC2 CU ASOCTD SLP132

CYHM;2008-06-23 14:00;CYHM 231400Z 24007KT 15SM FEW014 FEW035 FEW100 SCT220 19/15 A2993 RMK CU1SC1AC1CI1 SLP134

CYHM;2008-06-23 15:00;CYHM 231500Z 29007KT 15SM FEW020 FEW100 SCT210 20/15 A2993 RMK CU1AC1CI1 CONTRAIL SLP136

CYHM;2008-06-23 16:00;CYHM 231600Z 22007KT 15SM FEW028 FEW100 BKN210 22/13 A2994 RMK CU2AC1CI2 TCU ASOCTD SLP137

CYHM;2008-06-23 17:00;CYHM 231700Z 25006KT 15SM FEW032 BKN085 BKN170 BKN220 21/13 A2994 RMK CU2AC2AC1CI2 TCU ASOCTD SLP137

CYHM;2008-06-23 18:00;CYHM 231800Z 23006KT 15SM FEW025 BKN090 OVC150 20/16 A2993 RMK CU2AC5AC2 TCU ASOCTD SLP134

CYHM;2008-06-23 18:07;CYHM 231807Z 22010KT 15SM -TSRA FEW022TCU FEW044CB BKN090 RMK TCU1CB2AC5

CYHM;2008-06-23 18:33;CYHM 231833Z 25011KT 15SM -SHRA FEW022TCU BKN088 RETS RMK TCU2AC6 CB ASOCTD

CYHM;2008-06-23 19:00;CYHM 231900Z 23007KT 15SM -SHRA FEW024TCU SCT044 BKN090 18/15 A2994 RETS RMK TCU2SC2AC4 SLP138

CYHM;2008-06-23 19:50;CYHM 231950Z 24007KT 15SM FEW024TCU SCT100 BKN250 RMK TCU1AC2CI3

CYHM;2008-06-23 20:00;CYHM 232000Z 23007KT 15SM FEW024TCU SCT120 BKN250 21/14 A2993 RMK TCU1AC2CI3 SLP136

CYHM;2008-06-23 21:00;CYHM 232100Z 26008KT 15SM FEW024TCU SCT100 BKN250 20/14 A2995 RMK TCU1AC2CI4 SUN DMLY VSBL SLP141

CYHM;2008-06-23 22:00;CYHM 232200Z 24005KT 15SM -SHRA FEW024TCU BKN100 BKN250 19/13 A2995 RMK TCU1AC4CI2 SUN DMLY VSBL SLP142

CYHM;2008-06-23 22:35;CYHM 232235Z 26003KT 15SM FEW024TCU BKN086 BKN250 RMK TCU1AC6CI1

CYHM;2008-06-23 23:00;CYHM 232300Z 35005KT 15SM FEW024TCU FEW070 BKN086 BKN250 18/13 A2997 RMK TCU1AC2AC5CI1 TCU TR SLP148

CYHM;2008-06-24 00:00;CYHM 240000Z 34006KT 15SM FEW022 BKN047 BKN100 18/14 A3000 RMK SC2SC5AC1 TCU ASOCTD SLP158

CYHM;2008-06-24 00:18;CYHM 240018Z 34008KT 15SM TS VCSH BKN044CB BKN065 BKN130 RMK CB5SC2AC1

CYHM;2008-06-24 00:50;CYHM 240050Z 22004KT 15SM -SHRA FEW044 SCT072 BKN160 RETS RMK SC2AC2AC3 CB ASOCTD

CYHM;2008-06-24 01:00;CYHM 240100Z 22002KT 15SM -SHRA FEW044 SCT072 BKN160 16/14 A3000 RETS RMK SC2AC2AC3 CB ASOCTD SLP160

CYHM;2008-06-24 01:29;CYHM 240129Z 00000KT 15SM FEW024TCU FEW080 FEW160 BKN250 RMK TCU1AC1AC2CI2 TCU TR

CYHM;2008-06-24 02:00;CYHM 240200Z 00000KT 15SM FEW024TCU FEW100 SCT250 15/13 A3001 RMK TCU1AC1CI2 TCU TR SLP162

CYHM;2008-06-24 03:00;CYHM 240300Z 27003KT 15SM FEW100 FEW250 14/13 A3001 RMK AC1CI2 AC TR SLP164

CYHM;2008-06-24 04:00;CYHM 240400Z 28006KT 15SM FEW250 13/13 A3002 RMK CI1 SLP167

CYHM;2008-06-24 05:00;CYHM 240500Z 26004KT 15SM FEW250 13/13 A3003 RMK CI1 CI TR SLP170

CYHM;2008-06-24 06:00;CYHM 240600Z 28002KT 15SM FEW250 13/12 A3004 RMK CI1 CI TR SLP173

CYHM;2008-06-24 07:00;CYHM 240700Z 29003KT 15SM SKC 13/12 A3005 RMK SLP175

CYHM;2008-06-24 08:00;CYHM 240800Z 30006KT 15SM FEW084 FEW250 14/13 A3006 RMK AC1CI1 CI TR SLP179

CYHM;2008-06-24 09:00;CYHM 240900Z 31007KT 15SM FEW004 FEW084 12/12 A3008 RMK SF1AC2 SF TR SLP186

CYHM;2008-06-24 10:00;CYHM 241000Z 31003KT 15SM FEW082 12/12 A3009 RMK AC1 SLP191

CYHM;2008-06-24 11:00;CYHM 241100Z 29009KT 15SM SKC 13/13 A3012 RMK SLP199

CYHM;2008-06-24 12:00;CYHM 241200Z 32004KT 15SM FEW015 15/14 A3013 RMK CU1 CU TR SLP204

CYHM;2008-06-24 13:00;CYHM 241300Z 33008KT 15SM FEW015 17/14 A3014 RMK CU1 SLP208

CYHM;2008-06-24 14:00;CYHM 241400Z 35006KT 15SM FEW024 19/14 A3015 RMK CU2 SLP210

CYHM;2008-06-24 15:00;CYHM 241500Z 32005KT 15SM SCT030 21/14 A3017 RMK CU4 SLP215

CYHM;2008-06-24 16:00;CYHM 241600Z 27006KT 240V300 15SM BKN033 21/14 A3017 RMK CU5 SLP216

CYHM;2008-06-24 17:00;CYHM 241700Z 26005KT 15SM BKN042 22/14 A3017 RMK CU5 SLP215

CYHM;2008-06-24 18:00;CYHM 241800Z 31006KT 15SM BKN044 23/13 A3017 RMK CU5 SLP215

CYHM;2008-06-24 19:00;CYHM 241900Z 28005KT 15SM BKN046 BKN250 24/13 A3017 RMK CU5CI0 SLP216

CYHM;2008-06-24 20:00;CYHM 242000Z 28010KT 15SM SCT052 BKN250 24/14 A3017 RMK CU4CI0 SLP216

CYHM;2008-06-24 21:00;CYHM 242100Z 28008KT 15SM SCT058 BKN250 24/12 A3016 RMK CU3CI2 CONTRAILS SLP213

CYHM;2008-06-24 22:00;CYHM 242200Z 30007KT 15SM FEW058 BKN250 24/12 A3016 RMK CU2CI1 SLP213

CYHM;2008-06-24 23:00;CYHM 242300Z 21006KT 15SM FEW056 BKN250 24/13 A3015 RMK CU1CI1 CONTRAILS SLP211

CYHM;2008-06-25 00:00;CYHM 250000Z 20005KT 15SM SCT054 BKN250 21/16 A3016 RMK SC3CI1 CU ASOCTD CONTRAILS SLP212

CYHM;2008-06-25 01:00;CYHM 250100Z 21003KT 15SM FEW054 BKN250 18/16 A3016 RMK SC2CI1 CONTRAILS SLP213

CYHM;2008-06-25 02:00;CYHM 250200Z 24004KT 15SM FEW054 FEW078 BKN250 17/15 A3018 RMK SC1AC1CI1 AC TR CONTRAILS SLP219

CYHM;2008-06-25 03:00;CYHM 250300Z 25004KT 15SM FEW076 FEW220 17/15 A3019 RMK AC1CI1 AC TR SLP222

CYHM;2008-06-25 04:00;CYHM 250400Z 25004KT 15SM FEW220 16/14 A3018 RMK CI1 SLP221

CYHM;2008-06-25 05:00;CYHM 250500Z 23003KT 15SM FEW220 14/14 A3017 RMK CI1 CI TR SLP218

CYHM;2008-06-25 06:00;CYHM 250600Z 26004KT 15SM SKC 15/14 A3017 RMK SLP215

CYHM;2008-06-25 07:00;CYHM 250700Z 23004KT 15SM FEW250 13/13 A3017 RMK CI1 CI TR SLP216

CYHM;2008-06-25 08:00;CYHM 250800Z 21004KT 15SM BCFG FEW250 13/13 A3017 RMK CI1 CI TR SLP215

CYHM;2008-06-25 09:00;CYHM 250900Z 21003KT 15SM BCFG FEW070 FEW250 12/12 A3017 RMK AC1CI1 AC TR CI TR SLP217

CYHM;2008-06-25 09:52;CYHM 250952Z 23004KT 1 3/4SM BR FEW050 RMK FG1SC1

CYHM;2008-06-25 10:00;CYHM 251000Z 22003KT 1 1/2SM BR FEW050 12/12 A3018 RMK FG1SC1 SLP221

CYHM;2008-06-25 11:00;CYHM 251100Z 22005KT 6SM BR FEW020 FEW075 FEW220 14/14 A3019 RMK CU1AC1CI1 CU TR AC TR SLP223

CYHM;2008-06-25 12:00;CYHM 251200Z 26004KT 15SM FEW045 FEW240 17/16 A3020 RMK SC1CI0 SC TR CI TR SLP225

CYHM;2008-06-25 13:00;CYHM 251300Z 24008KT 15SM FEW025 FEW240 20/15 A3019 RMK CU1CI1 CONTRAIL SLP223

CYHM;2008-06-25 14:00;CYHM 251400Z 24004KT 15SM FEW240 22/16 A3017 RMK CI1 CONTRAIL SLP215

CYHM;2008-06-25 15:00;CYHM 251500Z 24010KT 15SM FEW028 SCT240 24/16 A3016 RMK CU1CI1 CONTRAIL SLP211

CYHM;2008-06-25 16:00;CYHM 251600Z 24011KT 15SM FEW045 SCT071 BKN240 25/15 A3015 RMK CU2AC1CI1 SLP208

CYHM;2008-06-25 17:00;CYHM 251700Z 24012KT 15SM FEW055 SCT160 BKN240 26/14 A3013 RMK CU2AC1CI1 SLP203

CYHM;2008-06-25 18:00;CYHM 251800Z 23010KT 15SM FEW044 SCT062 BKN210 25/15 A3012 RMK CU2SC1CI1 SLP198

CYHM;2008-06-25 19:00;CYHM 251900Z 20010G16KT 15SM FEW048 BKN250 25/15 A3010 RMK CU2CI1 CONTRAILS SLP191

CYHM;2008-06-25 20:00;CYHM 252000Z 23012G19KT 15SM FEW060 FEW100 SCT250 26/14 A3007 RMK CU1AC1CI0 CONTRAILS SLP182

CYHM;2008-06-25 21:00;CYHM 252100Z 24015G22KT 15SM FEW060 BKN160 BKN250 24/13 A3006 RMK CU1AC6CI1 CU TR CI TR CONTRAILS SLP179

CYHM;2008-06-25 22:00;CYHM 252200Z 23012G18KT 15SM BKN140 23/14 A3005 RMK AC7 SLP175

CYHM;2008-06-25 23:00;CYHM 252300Z 23011KT 15SM FEW038 BKN120 OVC140 21/16 A3003 RMK SC1AC5AC2 SLP170

CYHM;2008-06-26 00:00;CYHM 260000Z 21004KT 15SM BKN140 21/16 A3001 RMK AC7 SLP163

CYHM;2008-06-26 01:00;CYHM 260100Z 21007KT 15SM BKN140 BKN250 20/15 A2999 RMK AC5CI2 CC ASOCTD SLP155

CYHM;2008-06-26 03:00;CYHM 260300Z 21004KT 15SM FEW056 OVC110 19/16 A2997 RMK SC2AC6 SLP145

CYHM;2008-06-26 04:00;CYHM 260400Z 22009KT 15SM -SHRA FEW050 SCT100 BKN130 20/16 A2994 RMK SC2AC2AC3 SLP138

CYHM;2008-06-26 05:00;CYHM 260500Z 22009KT 10SM -SHRA FEW023 OVC100 19/18 A2993 RMK SC2AC6 SLP133

CYHM;2008-06-26 06:00;CYHM 260600Z 22004KT 10SM BKN044 OVC110 19/18 A2991 RMK SC6AC2 SLP124

CYHM;2008-06-26 07:00;CYHM 260700Z 19006KT 12SM BKN027 OVC070 19/18 A2989 RMK SC6AC2 SLP118

CYHM;2008-06-26 08:00;CYHM 260800Z 19007KT 5SM BR OVC012 19/18 A2986 RMK SC8 SLP110

CYHM;2008-06-26 08:26;CYHM 260826Z 18005KT 2 1/2SM -SHRA BR OVC003 RMK SF8

CYHM;2008-06-26 09:00;CYHM 260900Z 20004KT 1 1/2SM -SHRA BR OVC005 19/18 A2985 RMK FG2SF6 VIS VRB 1 - 2 SLP107

CYHM;2008-06-26 10:00;CYHM 261000Z 24005KT 1 1/2SM -SHRA BR OVC005 19/18 A2986 RMK FG2SF6 VIS VRB 1 - 2 SLP109

CYHM;2008-06-26 10:27;CYHM 261027Z CCA 26006KT 2SM -SHRA BR SCT005 OVC034 RMK FG2SF2SC4

CYHM;2008-06-26 10:55;CYHM 261055Z 26005KT 2SM BR SCT003 OVC034 RMK FG1SF3SC4

CYHM;2008-06-26 11:00;CYHM 261100Z 26005KT 2SM BR SCT004 OVC034 19/19 A2987 RMK FG1SF3SC4 SLP113

CYHM;2008-06-26 12:00;CYHM 261200Z 27008KT 2 1/2SM BR BKN005 OVC021 20/19 A2988 RMK SF6SC2 SLP115

CYHM;2008-06-26 12:25;CYHM 261225Z 29008KT 4SM BR SCT005 OVC019 RMK SF3SC5

CYHM;2008-06-26 13:00;CYHM 261300Z 27008KT 6SM BR FEW009 BKN021 BKN220 21/19 A2988 RMK SF2SC3CI0 CI TR SLP118

CYHM;2008-06-26 14:00;CYHM 261400Z 26009KT 8SM FEW012 BKN017 22/18 A2988 RMK CF2SC5 SLP116

CYHM;2008-06-26 15:00;CYHM 261500Z 25012KT 8SM SCT018 BKN024 24/19 A2987 RMK CU3SC2 SLP113

CYHM;2008-06-26 16:00;CYHM 261600Z 23014KT 10SM SCT025 BKN032 BKN210 24/19 A2986 RMK CU3SC2CI1 SLP109

CYHM;2008-06-26 17:00;CYHM 261700Z 26016KT 10SM SCT027 SCT040 BKN160 BKN220 25/19 A2984 RMK CU3SC1AC1CI1 SLP104

CYHM;2008-06-26 18:00;CYHM 261800Z 24014KT 200V280 15SM SCT031 BKN045 BKN210 26/19 A2984 RMK CU3SC2CI1 SLP101

CYHM;2008-06-26 19:00;CYHM 261900Z 25010KT 15SM SCT030 BKN230 27/20 A2983 RMK CU4CI1 SLP097

CYHM;2008-06-26 20:00;CYHM 262000Z 24011KT 15SM SCT032 BKN240 27/21 A2983 RMK CU4CI2 SLP097

CYHM;2008-06-26 21:00;CYHM 262100Z 25012KT 15SM FEW032 BKN230 26/20 A2981 RMK CU2CI3 SLP090

CYHM;2008-06-26 22:00;CYHM 262200Z 25012KT 15SM FEW032 FEW160 BKN250 26/21 A2981 RMK CU1AC1CI4 SLP090

CYHM;2008-06-26 23:00;CYHM 262300Z 26009KT 15SM FEW030CB FEW150 BKN240 24/20 A2980 RMK CB1AC2CI3 SLP089

CYHM;2008-06-27 00:00;CYHM 270000Z 26008KT 15SM FEW030CB FEW150 BKN250 24/20 A2979 RMK CB1AC2CI3 SLP084

CYHM;2008-06-27 01:00;CYHM 270100Z 27006KT 15SM FEW030TCU BKN075 BKN150 BKN250 22/19 A2980 RMK TCU1AC5AC1CI1 TCU TR SLP089

CYHM;2008-06-27 02:00;CYHM 270200Z 28005KT 15SM FEW069 SCT250 22/17 A2980 RMK AC2CI1 SLP087

CYHM;2008-06-27 03:00;CYHM 270300Z 26006KT 15SM FEW070 BKN120 21/17 A2982 RMK AC1AC3 SLP095

CYHM;2008-06-27 04:00;CYHM 270400Z 26009KT 15SM SCT080 21/18 A2983 RMK AC2 SLP099

CYHM;2008-06-27 05:00;CYHM 270500Z 23007KT 15SM FEW090 19/17 A2984 RMK AC2 SLP103

CYHM;2008-06-27 06:00;CYHM 270600Z 20007KT 15SM BKN100 18/17 A2982 RMK AC5 SLP097

CYHM;2008-06-27 07:00;CYHM 270700Z 21006KT 15SM SKC 18/16 A2981 RMK SLP093

CYHM;2008-06-27 08:00;CYHM 270800Z 21005KT 10SM SKC 17/16 A2981 RMK SLP092

CYHM;2008-06-27 09:00;CYHM 270900Z 21005KT 4SM BR FEW045 17/17 A2982 RMK SC2 TCU ASOCTD SLP095

CYHM;2008-06-27 09:20;CYHM 270920Z 24005KT 3SM BR FEW005 RMK SF2 VIS VRB 2 - 4

CYHM;2008-06-27 09:46;CYHM 270946Z 26006KT 1 1/2SM BR OVC003 RMK FG2SF6 VIS VRB 1 - 2

CYHM;2008-06-27 10:00;CYHM 271000Z 25005KT 1 1/2SM BR OVC002 18/17 A2983 RMK FG2SF6 VIS VRB 1 - 2 SLP098

CYHM;2008-06-27 10:30;CYHM 271030Z 24005KT 1/2SM FG OVC002 RMK FG6SF2

CYHM;2008-06-27 11:00;CYHM 271100Z 25008KT 1/2SM FG OVC002 18/18 A2983 RMK FG4SF4 SLP100

CYHM;2008-06-27 11:14;CYHM 271114Z 25006KT 3/4SM BR OVC002 RMK FG3SF5

CYHM;2008-06-27 12:00;CYHM 271200Z 28007KT 1SM BR OVC002 19/19 A2985 RMK FG3SF5 SLP106

CYHM;2008-06-27 12:13;CYHM 271213Z 26006KT 1 1/2SM BR OVC004 RMK FG2SF6

CYHM;2008-06-27 12:21;CYHM 271221Z 24005KT 2SM BR OVC003 RMK FG2SF6

CYHM;2008-06-27 13:00;CYHM 271300Z 22006KT 3SM BR OVC004 20/19 A2985 RMK SF8 SLP105

CYHM;2008-06-27 13:27;CYHM 271327Z 26003KT 4SM BR OVC007 RMK SF8

CYHM;2008-06-27 14:00;CYHM 271400Z 23007KT 6SM BR SCT007 BKN019 OVC028 21/19 A2984 RMK SF3SC3SC2 SLP104

CYHM;2008-06-27 15:00;CYHM 271500Z CCA 27007KT 3SM HZ BKN009 BKN024 22/19 A2985 RMK SF5SC2 SLP107

CYHM;2008-06-27 16:00;CYHM 271600Z 25004KT 8SM BKN014 BKN025 BKN220 24/20 A2987 RMK SC5SC1CI1 SLP111

CYHM;2008-06-27 17:00;CYHM 271700Z 24008KT 15SM FEW028 FEW090 BKN220 26/20 A2986 RMK CU2AC1CI1 SLP110

CYHM;2008-06-27 18:00;CYHM 271800Z 28006KT 250V350 15SM FEW032 BKN210 27/20 A2986 RMK CU2CI1 SLP110

CYHM;2008-06-27 19:00;CYHM 271900Z 26005KT 15SM BKN043 BKN180 28/18 A2984 RMK CU6AC1 SLP104

CYHM;2008-06-27 20:00;CYHM 272000Z 29005KT 250V330 15SM FEW045 FEW180 BKN230 28/17 A2983 RMK CU2AC1CI1 AC TR SLP100

CYHM;2008-06-27 21:00;CYHM 272100Z 30006KT 15SM FEW052 BKN240 29/16 A2982 RMK CU2CI2 SLP095

CYHM;2008-06-27 22:00;CYHM 272200Z 23009KT 15SM FEW050 BKN250 27/20 A2981 RMK CU1CI4 SLP093

CYHM;2008-06-27 23:00;CYHM 272300Z 23008KT 15SM FEW050 BKN250 25/20 A2981 RMK CU1CI6 SLP093

CYHM;2008-06-28 00:00;CYHM 280000Z 22007KT 15SM FEW180 BKN250 24/20 A2982 RMK AC1CI5 SLP096

CYHM;2008-06-28 01:00;CYHM 280100Z 22006KT 15SM FEW180 BKN250 22/19 A2982 RMK AC1CI2 SLP096

CYHM;2008-06-28 02:00;CYHM 280200Z 23005KT 15SM FEW180 FEW250 21/18 A2982 RMK AC1CI0 SLP096

CYHM;2008-06-28 03:00;CYHM 280300Z 22003KT 15SM FEW180 BKN250 20/18 A2983 RMK AC2CI2 SLP099

CYHM;2008-06-28 04:00;CYHM 280400Z 16003KT 15SM FEW070 SCT100 BKN250 20/18 A2982 RMK AC2AC2CI1 SLP097

CYHM;2008-06-28 05:00;CYHM 280500Z 15005KT 15SM FEW050 SCT130 BKN210 19/18 A2981 RMK SC2AC2CI2 LTNG SSE SLP091

CYHM;2008-06-28 05:42;CYHM 280542Z 20012KT 3SM +TSRA OVC040 RMK SC8 CB ASOCTD OCNL LTNG

CYHM;2008-06-28 06:00;CYHM 280600Z 20007KT 6SM -TSRA BKN049CB OVC070 20/19 A2980 RERA RMK CB5AC3 OCNL LTNG SLP089

CYHM;2008-06-28 06:45;CYHM 280645Z 14009KT 4SM BR FEW060 OVC150 RETSRA RMK SC2AC6

CYHM;2008-06-28 07:00;CYHM 280700Z 14009KT 4SM BR FEW060 OVC160 19/19 A2976 RETS RMK SC2AC6 OCNL LTNG E SLP076

CYHM;2008-06-28 08:00;CYHM 280800Z 14006KT 12SM SCT050 BKN130 20/19 A2973 RMK SC3AC3 LTNG S SLP065

CYHM;2008-06-28 08:09;CYHM 280809Z 14008KT 15SM TS BKN038CB OVC130 RMK CB6AC2 OCNL LTGIC

CYHM;2008-06-28 08:17;CYHM 280817Z 17009KT 12SM -TSRA BKN021CB OVC080 RMK CB6AC2 OCNL LTGIC

CYHM;2008-06-28 09:00;CYHM 280900Z 14007KT 10SM -TSRA FEW017 SCT050 OVC190 20/19 A2971 RERA RMK CF2SC2AC4 CB ASOCTD OCNL LTGIC SLP059

CYHM;2008-06-28 09:20;CYHM 280920Z CCA 15007KT 15SM FEW035 OVC100 RETSRA RMK SC2AC6

CYHM;2008-06-28 09:42;CYHM 280942Z 21013G18KT 5SM -SHRA BKN020 OVC090 RETS RMK SC6AC2 TCU ASOCTD

CYHM;2008-06-28 10:00;CYHM 281000Z 22013G20KT 4SM -SHRA BR FEW012 BKN043 OVC080 20/19 A2972 RETSRA RMK CF2SC5AC2 SLP060

CYHM;2008-06-28 10:50;CYHM 281050Z 20006KT 6SM BR FEW006 BKN091 OVC250 RMK CF2AC4CI2

CYHM;2008-06-28 11:00;CYHM 281100Z 20005KT 7SM FEW006 BKN088 OVC250 20/19 A2971 RMK CF1AC6CI1 SLP056

CYHM;2008-06-28 11:23;CYHM 281123Z 20005KT 8SM -SHRA FEW004 SCT054 BKN090 OVC160 RMK CF1SC3AC3AC1 PCPN VRY LGT

CYHM;2008-06-28 11:51;CYHM 281151Z 27010KT 10SM -SHRA BKN005 OVC044 RMK CF6SC2

CYHM;2008-06-28 12:00;CYHM 281200Z 20006KT 160V280 12SM -SHRA FEW005 BKN046 OVC076 20/20 A2971 RMK CF2SC5AC2 PCPN VRY LGT SLP060

CYHM;2008-06-28 13:00;CYHM 281300Z 24005KT 4SM SHRA BR FEW005 FEW025 BKN050 OVC090 20/20 A2972 RMK CF1SC1SC5AC2 SLP063

CYHM;2008-06-28 14:00;CYHM 281400Z 24007KT 10SM -SHRA BKN006 OVC058 21/20 A2971 RERA RMK CF6SC2 PCPN VRY LGT SLP060

CYHM;2008-06-28 14:22;CYHM 281422Z 23010KT 12SM SCT007 BKN030 BKN058 RMK CF4SC2SC1

CYHM;2008-06-28 15:00;CYHM 281500Z 23012KT 15SM FEW009 BKN015 OVC040 22/20 A2971 RMK CF2SC4SC2 SLP060

CYHM;2008-06-28 16:00;CYHM 281600Z 24014KT 15SM BKN012 OVC040 22/20 A2972 RMK SC7SC1 SLP061

CYHM;2008-06-28 17:00;CYHM 281700Z 23011KT 15SM BKN014 OVC023 24/20 A2972 RMK SC6SC2 SLP062

CYHM;2008-06-28 17:19;CYHM 281719Z 24012KT 15SM BKN017 BKN024 RMK SC6SC2

CYHM;2008-06-28 18:00;CYHM 281800Z 25015KT 15SM BKN018 BKN027 24/20 A2972 RMK SC6SC2 SLP062

CYHM;2008-06-28 19:00;CYHM 281900Z 22014KT 12SM BKN021 BKN029 OVC120 24/20 A2971 RMK CU5SC2AC2 SLP060

CYHM;2008-06-28 20:00;CYHM 282000Z 22014KT 10SM SCT021 BKN029 OVC110 24/20 A2971 RMK CU4SC2AC2 SLP059

CYHM;2008-06-28 21:00;CYHM 282100Z 24010KT 10SM SCT019 BKN028 OVC120 24/21 A2969 RMK CU4SC2AC2 SLP051

CYHM;2008-06-28 22:00;CYHM 282200Z 22012KT 12SM SCT020 SCT030 BKN120 BKN220 25/21 A2967 RMK CU3SC1AC2CI1 SLP045

CYHM;2008-06-28 23:00;CYHM 282300Z 22014KT 12SM SCT023 BKN110 BKN140 25/20 A2967 RMK CU4AC2AC1 SLP045

CYHM;2008-06-29 00:00;CYHM 290000Z 21010KT 15SM FEW024 FEW045 SCT100 BKN220 24/21 A2968 RMK CU1SC1AC2CI2 CONTRAIL SLP046

CYHM;2008-06-29 01:00;CYHM 290100Z 20009KT 15SM FEW017 BKN250 22/20 A2967 RMK CU2CI2 SLP045

CYHM;2008-06-29 02:00;CYHM 290200Z 20009KT 15SM BKN015 21/20 A2970 RMK SC7 SLP053

CYHM;2008-06-29 03:00;CYHM 290300Z 20009KT 7SM BKN009 OVC014 21/20 A2970 RMK SC6SC2 SLP056

CYHM;2008-06-29 04:00;CYHM 290400Z 21008KT 6SM BR OVC010 21/20 A2971 RMK SC8 CIG RAG SLP058

CYHM;2008-06-29 05:00;CYHM 290500Z 22011KT 6SM BR FEW010 21/20 A2971 RMK SC2 SLP058

CYHM;2008-06-29 06:00;CYHM 290600Z 21008KT 15SM SKC 20/18 A2972 RMK SLP061

CYHM;2008-06-29 07:00;CYHM 290700Z 22008KT 15SM FEW030 19/17 A2971 RMK SC1 SLP060

CYHM;2008-06-29 08:00;CYHM 290800Z 21007KT 15SM FEW120 18/17 A2971 RMK AC2 SLP060

CYHM;2008-06-29 09:00;CYHM 290900Z 21008KT 15SM FEW120 18/17 A2970 RMK AC1 SLP056

CYHM;2008-06-29 10:00;CYHM 291000Z 21011KT 15SM FEW120 18/17 A2971 RMK AC2 SLP059

CYHM;2008-06-29 11:00;CYHM 291100Z 20011KT 15SM FEW120 BKN250 19/18 A2971 RMK AC2CI2 SLP059

CYHM;2008-06-29 12:00;CYHM 291200Z 21012KT 15SM FEW020 FEW065 BKN250 20/18 A2971 RMK CU1SC2CI2 CU TR SLP060

CYHM;2008-06-29 13:00;CYHM 291300Z 21010KT 15SM BKN016 BKN110 21/18 A2972 RMK CU6AC2 CIG RAG SLP063

CYHM;2008-06-29 13:20;CYHM 291320Z 21011KT 15SM -SHRA BKN014 OVC110 RMK CU7AC1 PCPN VRY LGT

CYHM;2008-06-29 14:00;CYHM 291400Z 23010KT 15SM -SHRA FEW016 SCT040 OVC092 20/18 A2973 RMK CU2SC2AC4 PCPN VRY LGT SLP064

CYHM;2008-06-29 15:00;CYHM 291500Z 24009KT 15SM FEW020 BKN060 OVC085 20/15 A2972 RMK CU2SC3AC2 SLP062

CYHM;2008-06-29 15:21;CYHM 291521Z 23008KT 6SM -SHRA BR BKN025 OVC055 RMK CU6SC2

CYHM;2008-06-29 16:00;CYHM 291600Z 18006KT 15SM -SHRA FEW024 BKN048 BKN088 18/16 A2971 RMK CU2SC3AC2 SLP060

CYHM;2008-06-29 16:28;CYHM 291628Z 19003KT 15SM TS FEW024CB FEW042 SCT110 RMK CB1SC2AC1 CB S

CYHM;2008-06-29 17:00;CYHM 291700Z 19005KT 15SM TS FEW025CB FEW075 SCT100 21/16 A2969 RMK CB2AC1AC1 CB SE SLP053

CYHM;2008-06-29 17:28;CYHM 291728Z 22006KT 15SM FEW025CB SCT045 SCT075 RETS RMK CB1SC2AC1 CB TOPS E AC TR

CYHM;2008-06-29 18:00;CYHM 291800Z 20008KT 15SM FEW025CB BKN036 22/17 A2967 RETS RMK CB1SC6 CB TOPS E SLP045

CYHM;2008-06-29 18:38;CYHM 291838Z 26014G19KT 15SM SCT030 BKN045 BKN190 RMK CU4SC1AC2 TCU ASOCTD WSHFT 1823

CYHM;2008-06-29 19:00;CYHM 291900Z 27009KT 240V300 15SM -SHRA SCT030 SCT048 BKN120 BKN190 22/15 A2967 RMK CU3SC1AC2AC1 PCPN VRY LGT SLP045

CYHM;2008-06-29 19:25;CYHM 291925Z 27010KT 15SM SCT030 BKN048 BKN100 RMK CU3SC2AC2

CYHM;2008-06-29 20:00;CYHM 292000Z 26008KT 15SM SCT032 BKN047 BKN087 22/16 A2968 RMK CU4SC2AC2 SLP048

CYHM;2008-06-29 21:00;CYHM 292100Z 24012KT 15SM VCSH FEW032 SCT045 BKN064 BKN110 21/15 A2967 RMK CU2SC2SC2AC1 SLP044

CYHM;2008-06-29 22:00;CYHM 292200Z 23008KT 15SM FEW032 BKN064 BKN120 21/16 A2966 RMK CU2SC3AC2 SLP043

CYHM;2008-06-29 23:00;CYHM 292300Z 28007KT 15SM FEW033 BKN058 BKN110 21/15 A2967 RMK CU2SC3AC2 TCU ASOCTD SLP044

CYHM;2008-06-30 00:00;CYHM 300000Z 27006KT 15SM FEW032 SCT045 BKN110 BKN140 21/15 A2968 RMK CU2SC2AC1AC1 SLP049

CYHM;2008-06-30 01:00;CYHM 300100Z 27005KT 15SM FEW032 SCT048 BKN160 19/14 A2970 RMK CU2SC2AC1 SLP054

CYHM;2008-06-30 02:00;CYHM 300200Z 26005KT 15SM FEW035 FEW100 18/14 A2972 RMK CU1AC1 CU TR SLP061

CYHM;2008-06-30 03:00;CYHM 300300Z 28004KT 15SM SKC 16/14 A2972 RMK SLP063

CYHM;2008-06-30 04:00;CYHM 300400Z 23003KT 15SM SKC 15/14 A2973 RMK SLP066

CYHM;2008-06-30 05:00;CYHM 300500Z 25005KT 15SM SKC 15/14 A2973 RMK SLP067

CYHM;2008-06-30 06:00;CYHM 300600Z 23005KT 15SM SKC 13/12 A2973 RMK SLP066

CYHM;2008-06-30 07:00;CYHM 300700Z 22003KT 15SM FEW220 13/13 A2973 RMK CI1 SLP067

CYHM;2008-06-30 08:00;CYHM 300800Z 24004KT 15SM FEW210 14/13 A2972 RMK CI1 SLP065

CYHM;2008-06-30 09:00;CYHM 300900Z 21003KT 15SM MIFG FEW042TCU 14/13 A2972 RMK TCU2 SLP064

CYHM;2008-06-30 09:43;CYHM 300943Z 23004KT 2SM BR FEW040TCU RMK FG1TCU1 VIS LWR E

CYHM;2008-06-30 10:00;CYHM 301000Z 23004KT 1SM BR FEW040TCU 13/13 A2972 RMK FG2TCU1 VIS VRB 3/4 - 11/4 SLP064

CYHM;2008-06-30 10:12;CYHM 301012Z 22006KT 1/2SM FG SCT040 RMK FG2CU1

CYHM;2008-06-30 10:17;CYHM 301017Z 22006KT 1 1/2SM BR FEW040 RMK FG1CU1

CYHM;2008-06-30 10:32;CYHM 301032Z 22005KT 3/4SM BR SCT002 RMK FG2SF2

CYHM;2008-06-30 10:44;CYHM 301044Z 25003KT 1/8SM FG SCT001 RMK FG2SF2

CYHM;2008-06-30 11:00;CYHM 301100Z 25005KT 1/8SM FG SCT001 15/14 A2974 RMK FG2SF2 SLP069

CYHM;2008-06-30 11:08;CYHM 301108Z 26002KT 1 1/2SM BR FEW004 SCT080 RMK FG1SF1AC2

CYHM;2008-06-30 11:13;CYHM 301113Z 28006KT 4SM BR FEW090 SCT220 RMK AC2CI1

CYHM;2008-06-30 12:00;CYHM 301200Z 28004KT 15SM SCT080 BKN100 16/15 A2975 RMK AC3AC3 SLP072

CYHM;2008-06-30 13:00;CYHM 301300Z 27006KT 10SM SCT007 BKN060 BKN090 17/15 A2976 RMK SF3SC2AC2 SLP078

CYHM;2008-06-30 14:00;CYHM 301400Z 28007KT 15SM FEW009 BKN059 OVC090 17/15 A2977 RMK SF2SC5AC1 SLP081

CYHM;2008-06-30 15:00;CYHM 301500Z 33003KT 15SM SCT015 BKN020 BKN077 19/16 A2978 RMK CU3SC2AC2 SLP082

CYHM;2008-06-30 16:00;CYHM 301600Z 24010KT 15SM SCT022 BKN048 BKN080 20/15 A2978 RMK CU3SC2AC2 SLP084

CYHM;2008-06-30 17:00;CYHM 301700Z 27012KT 15SM BKN025 BKN048 21/15 A2978 RMK CU5SC2 SLP083

CYHM;2008-06-30 18:00;CYHM 301800Z 30004KT 15SM FEW032 BKN041 21/15 A2977 RMK CU2SC4 SLP082

CYHM;2008-06-30 19:00;CYHM 301900Z 27007KT 15SM BKN033 BKN048 22/15 A2976 RMK CU5SC2 SLP079

CYHM;2008-06-30 20:00;CYHM 302000Z 30012KT 15SM SCT032 BKN048 BKN072 21/15 A2978 RMK CU4SC2AC2 SLP084

CYHM;2008-06-30 21:00;CYHM 302100Z 32013KT 15SM SCT032 BKN048 BKN080 20/14 A2980 RMK CU3SC2AC2 SLP090

CYHM;2008-06-30 22:00;CYHM 302200Z 34012KT 15SM FEW035 BKN050 BKN076 BKN250 20/12 A2980 RMK CU2SC2AC2CI1 CI TR SLP091

CYHM;2008-06-30 23:00;CYHM 302300Z 35012KT 15SM FEW035 FEW048 BKN250 20/11 A2981 RMK CU1SC2CI2 SLP096

CYHM;2008-07-01 01:00;CYHM 010100Z 32003KT 15SM FEW040 BKN066 BKN240 18/11 A2986 RMK SC1AC5CI1 CI TR SLP112

CYHM;2008-07-01 02:00;CYHM 010200Z 29006KT 15SM BKN073 BKN220 17/13 A2989 RMK AC6CI1 CI TR SLP120

CYHM;2008-07-01 03:00;CYHM 010300Z 31008KT 15SM FEW074 BKN240 16/12 A2990 RMK AC1CI1 SLP124

CYHM;2008-07-01 04:00;CYHM 010400Z 29007KT 15SM SCT064 BKN240 16/11 A2990 RMK SC3CI1 SLP125

CYHM;2008-07-01 05:00;CYHM 010500Z 26006KT 15SM FEW064 SCT240 15/10 A2991 RMK SC2CI1 SLP127

CYHM;2008-07-01 06:00;CYHM 010600Z 29006KT 15SM FEW065 FEW250 14/09 A2991 RMK SC1CI1 SLP128

CYHM;2008-07-01 07:00;CYHM 010700Z 28005KT 15SM SCT064 SCT250 13/08 A2992 RMK SC3CI1 CI TR SLP131

CYHM;2008-07-01 08:00;CYHM 010800Z 27003KT 15SM SCT064 SCT250 11/09 A2991 RMK SC3CI1 CI TR SLP130

CYHM;2008-07-01 09:00;CYHM 010900Z 26004KT 15SM SCT060 SCT250 12/08 A2992 RMK CU3CI1 SC ASOCTD SLP134

CYHM;2008-07-01 10:00;CYHM 011000Z 00000KT 15SM SCT068 SCT220 SCT250 11/08 A2994 RMK AC3CS1CI1 CI TR SLP139

CYHM;2008-07-01 11:00;CYHM 011100Z 00000KT 15SM FEW020 FEW070 FEW220 13/09 A2995 RMK CU1AC2CI1 SLP142

CYHM;2008-07-01 12:00;CYHM 011200Z 29003KT 15SM FEW020 FEW080 FEW220 16/09 A2996 RMK CU1AC1CI1 SLP145

CYHM;2008-07-01 13:00;CYHM 011300Z 28006KT 15SM FEW100 FEW220 18/09 A2997 RMK AC1CI1 SLP149

CYHM;2008-07-01 14:00;CYHM 011400Z 30012KT 15SM FEW100 FEW220 20/10 A2998 RMK AC1CI1 SLP153

CYHM;2008-07-01 15:00;CYHM 011500Z 25006KT 15SM FEW240 22/11 A2999 RMK CI1 SLP154

CYHM;2008-07-01 16:00;CYHM 011600Z 30012KT 15SM FEW045 FEW240 22/10 A3000 RMK CU1CI1 SLP157

CYHM;2008-07-01 17:00;CYHM 011700Z 30010KT 15SM FEW040 FEW240 23/11 A2999 RMK CU1CI1 CONTRAIL SLP154

CYHM;2008-07-01 18:00;CYHM 011800Z 25012KT 15SM FEW040 FEW240 23/10 A2998 RMK CU1CI1 CONTRAIL SLP151

CYHM;2008-07-01 19:00;CYHM 011900Z 24012KT 15SM FEW052 SCT250 24/11 A2998 RMK CU1CI1 CONTRAILS SLP151

CYHM;2008-07-01 20:00;CYHM 012000Z 25010KT 15SM FEW054 SCT250 24/11 A2997 RMK SC1CI1 CONTRAILS SLP147

CYHM;2008-07-01 21:00;CYHM 012100Z 27010KT 15SM FEW054 BKN250 24/11 A2996 RMK CU1CI1 CONTRAILS SLP146

CYHM;2008-07-01 22:00;CYHM 012200Z 28007KT 15SM FEW055 BKN250 24/10 A2995 RMK CU1CI2 CONTRAILS SLP142

CYHM;2008-07-01 23:00;CYHM 012300Z 26005KT 15SM BKN250 24/09 A2994 RMK CI4 CONTRAILS SLP140

CYHM;2008-07-02 00:00;CYHM 020000Z 19007KT 15SM BKN250 21/14 A2995 RMK CI2 CONTRAILS SLP142

CYHM;2008-07-02 01:00;CYHM 020100Z 22005KT 15SM FEW100 BKN250 18/14 A2995 RMK AC1CI1 CONTRAILS SLP142

CYHM;2008-07-02 02:00;CYHM 020200Z 21007KT 15SM BKN210 17/13 A2997 RMK CC5 SLP149

CYHM;2008-07-02 03:00;CYHM 020300Z 21006KT 15SM BKN210 16/12 A2998 RMK CC6 SLP150

CYHM;2008-07-02 04:00;CYHM 020400Z 21004KT 15SM SCT160 BKN210 15/12 A2997 RMK AC3CC1 SLP147

CYHM;2008-07-02 05:00;CYHM 020500Z 21005KT 15SM FEW120 SCT250 14/11 A2995 RMK AC1CI1 SLP142

CYHM;2008-07-02 06:00;CYHM 020600Z 22005KT 15SM FEW250 14/11 A2995 RMK CI1 CI TR SLP141

CYHM;2008-07-02 07:00;CYHM 020700Z 22004KT 15SM FEW250 14/11 A2994 RMK CI1 CI TR SLP139

CYHM;2008-07-02 08:00;CYHM 020800Z 21004KT 15SM SKC 13/11 A2993 RMK SLP136

CYHM;2008-07-02 09:00;CYHM 020900Z 20004KT 15SM FEW250 13/11 A2993 RMK CI1 SLP133

CYHM;2008-07-02 10:00;CYHM 021000Z 21005KT 15SM FEW250 12/11 A2994 RMK CI1 SLP138

CYHM;2008-07-02 11:00;CYHM 021100Z 23005KT 15SM FEW240 14/13 A2995 RMK CI1 SLP140

CYHM;2008-07-02 12:00;CYHM 021200Z 24008KT 15SM FEW240 17/15 A2994 RMK CI1 SLP139

CYHM;2008-07-02 13:00;CYHM 021300Z 25012KT 15SM FEW160 SCT240 22/14 A2994 RMK AC1CI2 AC TR CONTRAIL SLP137

CYHM;2008-07-02 14:00;CYHM 021400Z 23018KT 15SM SCT240 23/14 A2994 RMK CI2 SLP136

CYHM;2008-07-02 15:00;CYHM 021500Z 25014G19KT 15SM FEW240 24/14 A2993 RMK CI1 CONTRAIL SLP134

CYHM;2008-07-02 16:00;CYHM 021600Z 25020KT 15SM FEW035 SCT240 25/15 A2992 RMK CU1CI2 CU TR CONTRAIL SLP131

CYHM;2008-07-02 17:00;CYHM 021700Z 23018G24KT 15SM FEW040 FEW064 SCT078 BKN240 26/15 A2991 RMK CU1SC2AC2CI0 SLP128

CYHM;2008-07-02 18:00;CYHM 021800Z 22016KT 15SM FEW035 SCT240 26/16 A2989 RMK CU1CI1 SLP121

CYHM;2008-07-02 19:00;CYHM 021900Z 22020G30KT 15SM FEW050 SCT240 26/15 A2986 RMK CU1CI1 SLP111

CYHM;2008-07-02 20:00;CYHM 022000Z 23015G26KT 15SM FEW052 BKN250 27/15 A2987 RMK CU1CI2 SLP113

CYHM;2008-07-02 21:00;CYHM 022100Z 22017G24KT 15SM FEW060 BKN250 26/15 A2984 RMK CU1CI3 CU TR SLP103

CYHM;2008-07-02 22:00;CYHM 022200Z 22016G26KT 15SM FEW060 BKN250 25/14 A2985 RMK CU1CS7 CU TR SUN DMLY VSBL SLP108

CYHM;2008-07-02 23:00;CYHM 022300Z 21015G21KT 15SM BKN250 25/14 A2980 RMK CS6 SUN DMLY VSBL SLP090

CYHM;2008-07-03 00:00;CYHM 030000Z 22015KT 15SM FEW120 OVC250 24/14 A2980 RMK AC1CS6 SLP090

CYHM;2008-07-03 01:00;CYHM 030100Z 21015KT 15SM BKN170 OVC250 23/15 A2980 RMK AC6CS2 SLP090

CYHM;2008-07-03 02:00;CYHM 030200Z 21012KT 15SM FEW120 OVC150 22/15 A2980 RMK AC2AC6 SLP090

CYHM;2008-07-03 03:00;CYHM 030300Z 21014KT 15SM BKN071 OVC130 23/16 A2979 RMK AC6AC2 SLP086

CYHM;2008-07-03 03:47;CYHM 030347Z 21020KT 15SM -SHRA SCT070 OVC120 RMK AC3AC5

CYHM;2008-07-03 04:00;CYHM 030400Z 22018G24KT 12SM -SHRA FEW065 OVC100 22/16 A2981 RMK SC2AC6 SLP092

CYHM;2008-07-03 05:00;CYHM 030500Z 24016G22KT 15SM -SHRA FEW075 OVC130 20/17 A2979 RMK AC2AC6 SLP086

CYHM;2008-07-03 06:00;CYHM 030600Z 23008KT 12SM -SHRA SCT008 OVC020 18/17 A2979 RMK CF4SC4 SLP084

CYHM;2008-07-03 06:12;CYHM 030612Z 23009KT 12SM -SHRA BKN008 OVC015 RMK CF6SC2

CYHM;2008-07-03 06:26;CYHM 030626Z 21009KT 15SM FEW009 OVC098 RMK CF2AC6

CYHM;2008-07-03 07:00;CYHM 030700Z 22013KT 15SM BKN016 OVC090 18/17 A2978 RMK CF6AC2 SLP083

CYHM;2008-07-03 08:00;CYHM 030800Z 23011KT 15SM FEW010 SCT100 OVC160 18/17 A2977 RMK CF2AC1AC5 SLP077

CYHM;2008-07-03 09:00;CYHM 030900Z 23010KT 15SM -SHRA OVC015 19/17 A2979 RMK SC8 CIG RAG SLP084

CYHM;2008-07-03 09:40;CYHM 030940Z 23013G19KT 15SM -SHRA OVC012 RMK SC8

CYHM;2008-07-03 10:00;CYHM 031000Z 23014KT 15SM -SHRA BKN013 OVC018 19/17 A2979 RMK SC6SC2 SLP086

CYHM;2008-07-03 10:34;CYHM 031034Z 23013KT 15SM BKN013 OVC020 RMK SC5SC3

CYHM;2008-07-03 11:00;CYHM 031100Z 24009KT 15SM BKN011 OVC020 19/18 A2981 RMK SC6SC2 SLP092

CYHM;2008-07-03 12:00;CYHM 031200Z 24009KT 15SM BKN011 OVC020 19/18 A2983 RMK SC6SC2 SLP098

CYHM;2008-07-03 13:00;CYHM 031300Z 30007KT 15SM BKN014 OVC042 19/17 A2985 RMK SC5SC3 SLP107

CYHM;2008-07-03 13:47;CYHM 031347Z 29006KT 15SM -SHRA BKN014 OVC020 RMK SC6SC2

CYHM;2008-07-03 14:00;CYHM 031400Z 32006KT 15SM -SHRA FEW009 BKN015 OVC058 18/17 A2988 RMK SF2SC4SC2 SLP116

CYHM;2008-07-03 14:29;CYHM 031429Z 33008KT 15SM FEW010 BKN017 BKN082 RMK CF2SC4AC2

CYHM;2008-07-03 15:00;CYHM 031500Z 30007KT 15SM BKN017 BKN020 OVC082 20/17 A2990 RMK CU5SC2AC1 SLP124

CYHM;2008-07-03 16:00;CYHM 031600Z 30006KT 15SM SCT022 BKN029 OVC110 21/16 A2991 RMK CU3SC3AC2 SLP128

CYHM;2008-07-03 17:00;CYHM 031700Z 32008KT 15SM SCT025 BKN030 OVC068 22/15 A2993 RMK CU3SC2AC2 SLP134

CYHM;2008-07-03 18:00;CYHM 031800Z 32007KT 15SM FEW030 BKN150 BKN220 22/15 A2994 RMK CU2AC3CI1 SLP137

CYHM;2008-07-03 19:00;CYHM 031900Z 04005KT 340V130 15SM BKN036 BKN230 22/15 A2996 RMK SC5CI2 CU ASOCTD SLP143

CYHM;2008-07-03 20:00;CYHM 032000Z 31007KT 15SM BKN042 BKN230 22/13 A2998 RMK SC5CI2 CU ASOCTD SLP149

CYHM;2008-07-03 21:00;CYHM 032100Z 30006KT 15SM BKN044 BKN240 21/13 A2998 RMK SC5CI2 SLP151

CYHM;2008-07-03 22:00;CYHM 032200Z 08008KT 15SM FEW044 SCT160 BKN250 20/13 A2999 RMK SC2AC2CI2 SLP155

CYHM;2008-07-03 23:00;CYHM 032300Z 08006KT 15SM FEW045 BKN250 21/12 A3001 RMK SC2CI4 SLP159

CYHM;2008-07-04 00:00;CYHM 040000Z 07006KT 15SM FEW045 FEW250 20/12 A3002 RMK SC1CI1 SLP165

CYHM;2008-07-04 01:00;CYHM 040100Z 01006KT 15SM FEW045 FEW250 18/11 A3003 RMK SC1CI0 SLP167

CYHM;2008-07-04 02:00;CYHM 040200Z 01007KT 15SM FEW045 17/11 A3005 RMK SC1 SLP174

CYHM;2008-07-04 03:00;CYHM 040300Z 00000KT 15SM SKC 15/11 A3007 RMK SLP182

CYHM;2008-07-04 04:00;CYHM 040400Z 00000KT 15SM SKC 14/10 A3008 RMK SLP185

CYHM;2008-07-04 05:00;CYHM 040500Z 02003KT 15SM FEW220 13/09 A3008 RMK CI1 SLP186

CYHM;2008-07-04 06:00;CYHM 040600Z 00000KT 15SM FEW140 11/09 A3008 RMK AC1 SLP186

CYHM;2008-07-04 07:00;CYHM 040700Z 32004KT 15SM FEW210 11/09 A3008 RMK CI1 SLP188

CYHM;2008-07-04 08:00;CYHM 040800Z 33003KT 15SM FEW170 11/09 A3009 RMK AC1 SLP190

CYHM;2008-07-04 09:00;CYHM 040900Z 00000KT 15SM FEW200 10/09 A3010 RMK CI2 SLP192

CYHM;2008-07-04 10:00;CYHM 041000Z 31004KT 15SM FEW100 BKN240 09/08 A3010 RMK AC2CI2 CONTRAILS SLP194

CYHM;2008-07-04 11:00;CYHM 041100Z 32004KT 15SM FEW160 BKN220 11/10 A3010 RMK AC2CI2 CONTRAIL SLP195

CYHM;2008-07-04 12:00;CYHM 041200Z 35002KT 15SM FEW160 BKN220 15/12 A3011 RMK AC2CI2 SLP198

CYHM;2008-07-04 13:00;CYHM 041300Z 03007KT 15SM FEW150 BKN220 17/10 A3013 RMK AC2CI3 CONTRAIL SLP202

CYHM;2008-07-04 14:00;CYHM 041400Z 04002KT 15SM FEW030 SCT160 BKN220 19/11 A3013 RMK CU1AC3CI2 CU TR CONTRAIL SLP203

CYHM;2008-07-04 15:00;CYHM 041500Z 13004KT 15SM FEW040 FEW160 BKN220 21/11 A3013 RMK CU1AC2CI3 SLP201

CYHM;2008-07-04 16:00;CYHM 041600Z 02005KT 15SM FEW040 FEW180 BKN220 21/10 A3011 RMK CU1AC1CI2 CONTRAIL SLP197

CYHM;2008-07-04 17:00;CYHM 041700Z 04003KT 15SM FEW040 FEW180 SCT220 21/10 A3011 RMK CU1AC1CI2 CU TR CONTRAIL SLP195

CYHM;2008-07-04 18:00;CYHM 041800Z 05007KT 15SM FEW040 SCT220 22/10 A3010 RMK CU1CI2 CU TR CONTRAIL SLP192

CYHM;2008-07-04 19:00;CYHM 041900Z 06007KT 15SM FEW048 SCT250 22/11 A3008 RMK CU1CI2 CU TR SLP186

CYHM;2008-07-04 20:00;CYHM 042000Z 10005KT 15SM FEW048 SCT250 22/10 A3007 RMK CU1CI2 CU TR SLP183

CYHM;2008-07-04 21:00;CYHM 042100Z 11004KT 15SM FEW050 SCT250 23/09 A3006 RMK CU1CI2 CU TR SLP181

CYHM;2008-07-04 22:00;CYHM 042200Z 11004KT 060V170 15SM FEW050 BKN250 22/10 A3005 RMK CU1CI2 SLP176

CYHM;2008-07-04 23:00;CYHM 042300Z 10005KT 15SM FEW050 FEW250 22/10 A3004 RMK CU1CI1 SLP175

CYHM;2008-07-05 00:00;CYHM 050000Z 10006KT 15SM FEW040 FEW250 20/11 A3004 RMK SC1CI1 SLP173

CYHM;2008-07-05 01:00;CYHM 050100Z 11004KT 15SM FEW250 19/10 A3004 RMK CI1 SLP174

CYHM;2008-07-05 02:00;CYHM 050200Z 00000KT 15SM FEW250 17/10 A3005 RMK CI1 SLP177

CYHM;2008-07-05 03:00;CYHM 050300Z 07002KT 15SM FEW220 16/10 A3006 RMK CI2 SLP180

CYHM;2008-07-05 04:00;CYHM 050400Z 29004KT 15SM FEW170 14/10 A3007 RMK AC2 SLP183

CYHM;2008-07-05 05:00;CYHM 050500Z 06003KT 15SM FEW230 14/09 A3007 RMK CI2 SLP184

CYHM;2008-07-05 06:00;CYHM 050600Z 35003KT 15SM SCT210 14/09 A3007 RMK CI3 SLP183

CYHM;2008-07-05 07:00;CYHM 050700Z 36004KT 15SM BKN210 13/09 A3006 RMK CI4 SLP179

CYHM;2008-07-05 08:00;CYHM 050800Z 01003KT 15SM SCT210 13/09 A3005 RMK CI2 SLP176

CYHM;2008-07-05 09:00;CYHM 050900Z 01005KT 15SM FEW120 SCT210 11/08 A3006 RMK AC1CI2 SLP178

CYHM;2008-07-05 10:00;CYHM 051000Z 01005KT 15SM FEW120 FEW230 13/07 A3006 RMK AC2CI0 SLP180

CYHM;2008-07-05 11:00;CYHM 051100Z 02004KT 15SM FEW230 15/10 A3007 RMK CI1 SLP182

CYHM;2008-07-05 12:00;CYHM 051200Z 01005KT 15SM FEW150 FEW230 17/11 A3008 RMK AC1CI1 AC TR SLP185

CYHM;2008-07-05 13:00;CYHM 051300Z 02005KT 15SM FEW240 20/11 A3009 RMK CI1 SLP190

CYHM;2008-07-05 14:00;CYHM 051400Z 04004KT 15SM FEW240 21/11 A3008 RMK CI1 SLP187

CYHM;2008-07-05 15:00;CYHM 051500Z 06003KT 15SM FEW240 22/11 A3007 RMK CI1 SLP183

CYHM;2008-07-05 16:00;CYHM 051600Z 04006KT 010V110 15SM FEW045 FEW250 23/12 A3008 RMK CU1CI1 SLP184

CYHM;2008-07-05 17:00;CYHM 051700Z 09002KT 15SM FEW050 FEW250 24/11 A3007 RMK CU1CI1 WND L/V SLP183

CYHM;2008-07-05 18:00;CYHM 051800Z 16002KT 15SM FEW052 FEW250 24/11 A3007 RMK CU1CI1 WND L/V SLP182

CYHM;2008-07-05 19:00;CYHM 051900Z 05003KT 15SM FEW050 FEW220 24/12 A3006 RMK SC1CI1 SC TR WND L/V SLP178

CYHM;2008-07-05 20:00;CYHM 052000Z 19004KT 150V230 15SM FEW050 FEW230 25/11 A3005 RMK SC1CI1 SC TR SLP175

CYHM;2008-07-05 21:00;CYHM 052100Z 28002KT 15SM FEW050 FEW230 26/12 A3004 RMK SC1CI1 SC TR WND L/V SLP171

CYHM;2008-07-05 22:00;CYHM 052200Z 13003KT 15SM FEW230 25/11 A3003 RMK CI1 WND L/V SLP167

CYHM;2008-07-05 23:00;CYHM 052300Z 00000KT 15SM FEW240 25/11 A3002 RMK CI1 SLP164

CYHM;2008-07-06 00:00;CYHM 060000Z 21002KT 15SM FEW240 24/13 A3003 RMK CI1 SLP166

CYHM;2008-07-06 01:00;CYHM 060100Z 09003KT 15SM FEW240 21/11 A3003 RMK CI1 SLP166

CYHM;2008-07-06 02:00;CYHM 060200Z 18003KT 15SM FEW240 19/12 A3003 RMK CI1 CI TR SLP168

CYHM;2008-07-06 03:00;CYHM 060300Z 00000KT 15SM SKC 18/12 A3005 RMK SLP175

CYHM;2008-07-06 04:00;CYHM 060400Z 00000KT 15SM SKC 17/13 A3006 RMK SLP177

CYHM;2008-07-06 05:00;CYHM 060500Z 00000KT 15SM SKC 16/12 A3006 RMK SLP177

CYHM;2008-07-06 06:00;CYHM 060600Z 00000KT 15SM SKC 16/12 A3005 RMK SLP176

CYHM;2008-07-06 07:00;CYHM 060700Z 00000KT 15SM SKC 15/12 A3006 RMK SLP177

CYHM;2008-07-06 08:00;CYHM 060800Z 02005KT 15SM FEW220 15/11 A3005 RMK CI1 SLP175

CYHM;2008-07-06 09:00;CYHM 060900Z 04005KT 15SM FEW100 FEW220 14/11 A3005 RMK AC1CI1 SLP176

CYHM;2008-07-06 10:00;CYHM 061000Z 06005KT 15SM FEW100 FEW220 13/11 A3004 RMK AC1CI1 SLP173

CYHM;2008-07-06 11:00;CYHM 061100Z 06002KT 15SM FEW100 16/13 A3005 RMK AC1 SLP175

CYHM;2008-07-06 12:00;CYHM 061200Z 04003KT 15SM FEW250 19/14 A3005 RMK CI0 SLP175

CYHM;2008-07-06 13:00;CYHM 061300Z 03003KT 15SM SKC 22/14 A3006 RMK SLP177

CYHM;2008-07-06 14:00;CYHM 061400Z 05003KT 15SM SKC 23/15 A3006 RMK SLP177

CYHM;2008-07-06 15:00;CYHM 061500Z 05005KT 15SM FEW150 24/14 A3007 RMK AC1 SLP179

CYHM;2008-07-06 16:00;CYHM 061600Z 08004KT 15SM FEW044 24/13 A3006 RMK CU1 SLP176

CYHM;2008-07-06 17:00;CYHM 061700Z 09004KT 15SM FEW044 25/14 A3004 RMK CU1 SLP172

CYHM;2008-07-06 18:00;CYHM 061800Z 10003KT 15SM FEW045 27/16 A3004 RMK CU2 SLP170

CYHM;2008-07-06 19:00;CYHM 061900Z 08003KT 15SM SCT051 26/16 A3003 RMK CU4 WND L/V SLP168

CYHM;2008-07-06 20:00;CYHM 062000Z 06004KT 15SM FEW052 27/17 A3001 RMK CU2 SLP162

CYHM;2008-07-06 21:00;CYHM 062100Z 21007KT 170V240 15SM FEW052 28/16 A3000 RMK CU1 SLP158

CYHM;2008-07-06 22:00;CYHM 062200Z CCA 20005KT 15SM FEW050 28/17 A2999 RMK SC1 SC TR SLP155

CYHM;2008-07-06 23:00;CYHM 062300Z 06007KT 15SM FEW050 FEW150 25/16 A2999 RMK SC1AC1 SC TR AC TR SLP154

CYHM;2008-07-07 00:00;CYHM 070000Z 07005KT 15SM FEW050 FEW200 24/16 A2999 RMK SC1CI1 SC TR SLP154

CYHM;2008-07-07 01:00;CYHM 070100Z 20005KT 15SM FEW220 23/16 A3000 RMK CI1 SLP155

CYHM;2008-07-07 02:00;CYHM 070200Z 21004KT 15SM FEW220 20/16 A3000 RMK CI1 SLP156

CYHM;2008-07-07 03:00;CYHM 070300Z 24003KT 15SM SKC 19/16 A3000 RMK SLP158

CYHM;2008-07-07 04:00;CYHM 070400Z 24003KT 15SM FEW250 19/15 A3001 RMK CI1 SLP161

CYHM;2008-07-07 05:00;CYHM 070500Z 21004KT 15SM SKC 18/14 A3001 RMK SLP160

CYHM;2008-07-07 06:00;CYHM 070600Z 23005KT 15SM SKC 15/13 A3002 RMK SLP165

CYHM;2008-07-07 07:00;CYHM 070700Z 29005KT 15SM SKC 16/13 A3003 RMK SLP167

CYHM;2008-07-07 08:00;CYHM 070800Z 26003KT 15SM SKC 16/13 A3002 RMK SLP165

CYHM;2008-07-07 09:00;CYHM 070900Z 25003KT 15SM FEW220 15/13 A3003 RMK CI1 SLP166

CYHM;2008-07-07 10:00;CYHM 071000Z 24003KT 15SM FEW100 FEW220 14/13 A3003 RMK AC1CI0 SLP168

CYHM;2008-07-07 11:00;CYHM 071100Z 20002KT 15SM SKC 16/14 A3004 RMK SLP169

CYHM;2008-07-07 12:00;CYHM 071200Z 25005KT 15SM FEW240 20/17 A3004 RMK CI1 SLP170

CYHM;2008-07-07 13:00;CYHM 071300Z 20006KT 15SM FEW240 23/17 A3004 RMK CI1 SLP170

CYHM;2008-07-07 14:00;CYHM 071400Z 19007KT 15SM FEW240 25/18 A3002 RMK CI1 SLP165

CYHM;2008-07-07 15:00;CYHM 071500Z 20008KT 15SM FEW032 FEW160 26/19 A3002 RMK CU1AC1 SLP164

CYHM;2008-07-07 16:00;CYHM 071600Z 20010KT 15SM SCT042 SCT150 27/18 A3002 RMK CU3AC1 SLP164

CYHM;2008-07-07 17:00;CYHM 071700Z 22012KT 15SM FEW044 FEW160 SCT240 29/19 A3001 RMK CU2AC1CI0 SLP161

CYHM;2008-07-07 18:00;CYHM 071800Z 20011G16KT 15SM FEW042 FEW160 29/18 A3000 RMK CU1AC1 AC TR SLP157

CYHM;2008-07-07 19:00;CYHM 071900Z 19012G18KT 15SM FEW046 28/18 A2998 RMK CU2 SLP151

CYHM;2008-07-07 20:00;CYHM 072000Z 20012KT 15SM FEW048 29/19 A2997 RMK CU2 SLP145

CYHM;2008-07-07 21:00;CYHM 072100Z 20009KT 15SM FEW046 29/19 A2996 RMK CU2 SLP144

CYHM;2008-07-07 22:00;CYHM 072200Z 23011KT 15SM FEW048 29/17 A2996 RMK CU1 SLP142

CYHM;2008-07-07 23:00;CYHM 072300Z 24008KT 15SM FEW050 FEW160 28/17 A2995 RMK CU1AC1 CU TR SLP140

CYHM;2008-07-08 00:00;CYHM 080000Z 21006KT 15SM FEW160 FEW250 26/18 A2995 RMK AC1CI1 CI TR SLP139

CYHM;2008-07-08 01:00;CYHM 080100Z 20005KT 15SM FEW180 FEW250 23/17 A2994 RMK AC1CI1 SLP136

CYHM;2008-07-08 02:00;CYHM 080200Z 18008KT 15SM FEW180 FEW250 24/18 A2994 RMK AC1CI1 CI TR SLP136

CYHM;2008-07-08 03:00;CYHM 080300Z 18009KT 15SM FEW250 23/18 A2994 RMK CI1 SLP136

CYHM;2008-07-08 04:00;CYHM 080400Z 19007KT 15SM FEW250 22/19 A2993 RMK CI1 SLP133

CYHM;2008-07-08 05:00;CYHM 080500Z 19005KT 15SM FEW250 21/19 A2993 RMK CI1 SLP131

CYHM;2008-07-08 06:00;CYHM 080600Z 21005KT 15SM FEW063 SCT250 20/19 A2992 RMK SC2CI1 SLP129

CYHM;2008-07-08 07:00;CYHM 080700Z 22004KT 15SM FEW250 21/18 A2991 RMK CI1 CI TR SLP125

CYHM;2008-07-08 08:00;CYHM 080800Z 20006KT 15SM FEW140 SCT190 20/18 A2991 RMK AC1AC1 SLP124

CYHM;2008-07-08 09:00;CYHM 080900Z 20008KT 12SM BKN092 22/20 A2990 RMK AC7 SLP120

CYHM;2008-07-08 10:00;CYHM 081000Z 21008KT 6SM HZ BKN090 BKN160 22/20 A2990 RMK AC5AC2 SLP122

CYHM;2008-07-08 11:00;CYHM 081100Z 20007KT 15SM FEW100 FEW160 22/20 A2989 RMK AC2AC1 SLP119

CYHM;2008-07-08 12:00;CYHM 081200Z 20010KT 15SM FEW080 FEW160 23/20 A2988 RMK AC1AC1 SLP116

CYHM;2008-07-08 13:00;CYHM 081300Z 22015KT 15SM FEW240 25/20 A2988 RMK CI0 SLP114

CYHM;2008-07-08 14:00;CYHM 081400Z 22012KT 15SM FEW030 FEW210 26/21 A2987 RMK CU1CI1 CU TR CI TR SLP111

CYHM;2008-07-08 15:00;CYHM 081500Z 20014KT 15SM FEW030 FEW160 FEW210 27/21 A2985 RMK CU1AC1CI1 CU TR SLP106

CYHM;2008-07-08 16:00;CYHM 081600Z 21015G20KT 15SM FEW030 FEW180 FEW210 28/20 A2984 RMK CU1AC1CI1 CU TR AC TR SLP101

CYHM;2008-07-08 17:00;CYHM 081700Z 22016KT 15SM FEW050 FEW120 FEW210 29/21 A2983 RMK CU1AC1CI1 SLP097

CYHM;2008-07-08 17:36;CYHM 081736Z 23012KT 15SM -SHRA FEW032 BKN058 BKN090 RMK CU2SC2AC2

CYHM;2008-07-08 17:50;CYHM 081750Z 25015KT 15SM FEW030 SCT062 BKN150 RMK CU2SC2AC2

CYHM;2008-07-08 18:00;CYHM 081800Z 23018KT 15SM FEW029 SCT062 BKN150 29/22 A2984 RMK CU2SC1AC2 SLP099

CYHM;2008-07-08 19:00;CYHM 081900Z 20014G21KT 10SM FEW030 FEW062 BKN160 BKN250 28/22 A2983 RMK CF1SC1AC3CI1 TCU ASOCTD CC ASOCTD CUFRA SLP098

CYHM;2008-07-08 20:00;CYHM 082000Z 22010KT 10SM FEW032 BKN160 BKN250 28/22 A2979 RMK CU1AC5CI1 CU TR CC ASOCTD SLP084

CYHM;2008-07-08 21:00;CYHM 082100Z 20012KT 12SM FEW030 BKN150 BKN250 28/22 A2978 RMK SF1AC6CI1 SF TR SLP080

CYHM;2008-07-08 22:00;CYHM 082200Z 20015KT 12SM FEW034 BKN160 BKN220 28/22 A2976 RMK CU1AC5CI1 SLP074

CYHM;2008-07-08 23:00;CYHM 082300Z 21013KT 12SM FEW032 BKN160 BKN250 26/21 A2976 RMK SC1AC4CS2 SUN DMLY VSBL SLP074

CYHM;2008-07-09 00:00;CYHM 090000Z 21012KT 9SM FEW032 FEW078 SCT160 OVC250 25/21 A2976 RMK SC1AC1AC2CS3 SLP075

CYHM;2008-07-09 01:00;CYHM 090100Z 21005KT 12SM FEW034 BKN160 BKN220 OVC250 24/21 A2978 RMK SC1AC5CI1CS1 SLP079

CYHM;2008-07-09 02:00;CYHM 090200Z 20008KT 15SM FEW058 BKN140 OVC250 23/20 A2979 RMK SC2AC5CS1 SLP083

CYHM;2008-07-09 03:00;CYHM 090300Z 22011KT 12SM OVC010 22/20 A2979 RMK SC8 SLP083

CYHM;2008-07-09 04:00;CYHM 090400Z 22010KT 15SM BKN010 OVC120 22/19 A2979 RMK SC7AC1 SLP083

CYHM;2008-07-09 05:00;CYHM 090500Z 23007KT 10SM -SHRA BKN007 OVC130 21/20 A2977 RMK SF6AC2 SLP078

CYHM;2008-07-09 06:00;CYHM 090600Z 24007KT 7SM -SHRA OVC005 21/20 A2977 RMK SF8 SLP076

CYHM;2008-07-09 06:28;CYHM 090628Z 25008KT 5SM BR OVC007 RMK SF8 CIG RAG

CYHM;2008-07-09 07:00;CYHM 090700Z 23007KT 6SM BR OVC008 21/20 A2976 RMK SF8 SLP074

CYHM;2008-07-09 08:00;CYHM 090800Z 24007KT 5SM -SHRA BR OVC006 21/20 A2976 RMK SF8 SLP075

CYHM;2008-07-09 09:00;CYHM 090900Z 22005KT 3SM BR OVC004 21/20 A2976 RMK SF8 VIS VRB 2 - 4 SLP074

CYHM;2008-07-09 10:00;CYHM 091000Z 23006KT 2SM BR OVC003 21/20 A2976 RMK FG1SF7 SLP073

CYHM;2008-07-09 11:00;CYHM 091100Z 22008KT 2SM BR OVC004 21/20 A2976 RMK FG1SF7 SLP073

CYHM;2008-07-09 12:00;CYHM 091200Z 23007KT 3SM BR OVC004 22/21 A2975 RMK SF8 SLP072

CYHM;2008-07-09 13:00;CYHM 091300Z 23008KT 4SM BR OVC003 22/21 A2977 RMK SF8 SLP078

CYHM;2008-07-09 14:00;CYHM 091400Z 24007KT 5SM -DZ BR BKN004 OVC009 22/21 A2977 RMK SF6SC2 SLP078

CYHM;2008-07-09 14:30;CYHM 091430Z 26008KT 6SM -DZ BR FEW005 SCT009 OVC024 RMK SF2SC2SC4

CYHM;2008-07-09 14:48;CYHM 091448Z 25007KT 10SM SCT012 BKN035 BKN080 RMK CF3SC2AC2

CYHM;2008-07-09 15:00;CYHM 091500Z 25008KT 15SM FEW016 BKN020 BKN052 BKN100 24/21 A2978 RMK CU2SC3SC2AC1 SLP080

CYHM;2008-07-09 16:00;CYHM 091600Z 29010KT 15SM FEW025 SCT036 BKN220 26/21 A2978 RMK CU2SC1CI1 SLP082

CYHM;2008-07-09 17:00;CYHM 091700Z 25012KT 15SM FEW038 SCT220 28/19 A2977 RMK CU2CI0 SLP079

CYHM;2008-07-09 18:00;CYHM 091800Z 28018KT 15SM FEW035 SCT220 28/21 A2978 RMK CU2CI1 SLP081

CYHM;2008-07-09 19:00;CYHM 091900Z 27015G20KT 240V300 15SM BKN035 BKN160 27/17 A2979 RMK CU5AC1 AC TR SLP084

CYHM;2008-07-09 20:00;CYHM 092000Z 29011G16KT 260V320 15SM SCT040 SCT160 26/16 A2979 RMK CU4AC1 AC TR SLP085

CYHM;2008-07-09 21:00;CYHM 092100Z 28012KT 250V310 15SM FEW044 FEW150 26/15 A2981 RMK CU2AC1 AC TR SLP090

CYHM;2008-07-09 22:00;CYHM 092200Z 29013KT 250V320 15SM FEW045 FEW160 25/13 A2982 RMK SC1AC1 CU ASOCTD SLP095

CYHM;2008-07-09 23:00;CYHM 092300Z 28014KT 250V320 15SM FEW045 24/13 A2983 RMK SC1 CU ASOCTD SLP099

CYHM;2008-07-10 00:00;CYHM 100000Z 29011KT 260V320 15SM FEW045 23/13 A2985 RMK SC1 SC TR SLP107

CYHM;2008-07-10 01:00;CYHM 100100Z 29007KT 15SM FEW045 FEW160 21/12 A2987 RMK SC1AC1 SC TR AC TR SLP113

CYHM;2008-07-10 02:00;CYHM 100200Z 26003KT 15SM FEW045 19/12 A2989 RMK SC1 SC TR SLP120

CYHM;2008-07-10 03:00;CYHM 100300Z 32009KT 15SM FEW063 17/12 A2992 RMK SC2 SLP131

CYHM;2008-07-10 04:00;CYHM 100400Z 31003KT 15SM FEW058 17/12 A2995 RMK SC2 SLP139

CYHM;2008-07-10 05:00;CYHM 100500Z 29005KT 15SM FEW055 16/12 A2996 RMK SC1 SLP143

CYHM;2008-07-10 06:00;CYHM 100600Z 28005KT 15SM SKC 14/12 A2996 RMK SLP144

CYHM;2008-07-10 07:00;CYHM 100700Z 28003KT 15SM SKC 14/11 A2997 RMK SLP147

CYHM;2008-07-10 08:00;CYHM 100800Z 24004KT 15SM FEW220 12/11 A2998 RMK CI1 SLP149

CYHM;2008-07-10 09:00;CYHM 100900Z 24004KT 15SM FEW220 12/11 A2999 RMK CI1 SLP154

CYHM;2008-07-10 10:00;CYHM 101000Z 25005KT 15SM FEW210 11/10 A3000 RMK CI1 SLP157

CYHM;2008-07-10 11:00;CYHM 101100Z 25006KT 15SM FEW210 13/11 A3001 RMK CI1 SLP162

CYHM;2008-07-10 12:00;CYHM 101200Z 25006KT 15SM FEW210 16/12 A3002 RMK CI1 CI TR SLP166

CYHM;2008-07-10 13:00;CYHM 101300Z 28006KT 15SM FEW210 18/13 A3004 RMK CI1 SLP170

CYHM;2008-07-10 14:00;CYHM 101400Z 28014KT 15SM FEW032 FEW210 21/13 A3001 RMK CU1CI1 SLP163

CYHM;2008-07-10 15:00;CYHM 101500Z 28010KT 15SM FEW040 FEW120 22/12 A3005 RMK CU1AC1 CU TR AC TR SLP175

CYHM;2008-07-10 16:00;CYHM 101600Z 28007KT 15SM FEW040 FEW220 23/12 A3006 RMK CU1CI1 CU TR CI TR SLP179

CYHM;2008-07-10 17:00;CYHM 101700Z 28012KT 15SM FEW045 FEW220 24/13 A3006 RMK CU1CI1 SLP179

CYHM;2008-07-10 18:00;CYHM 101800Z 26008KT 15SM FEW052 SCT220 25/13 A3007 RMK CU2CI0 SLP180

CYHM;2008-07-10 19:00;CYHM 101900Z 29006KT 15SM SCT055 26/14 A3005 RMK CU3 SLP174

CYHM;2008-07-10 20:00;CYHM 102000Z 27007KT 15SM SCT055 25/13 A3004 RMK CU3 SLP171

CYHM;2008-07-10 21:00;CYHM 102100Z 25006KT 15SM SCT061 27/14 A3003 RMK CU3 SLP169

CYHM;2008-07-10 22:00;CYHM 102200Z 27003KT 15SM FEW061 BKN250 26/13 A3002 RMK CU2CI1 SLP166

CYHM;2008-07-10 23:00;CYHM 102300Z 24006KT 15SM SCT058 BKN250 24/15 A3002 RMK CU3CI1 SLP166

CYHM;2008-07-11 00:00;CYHM 110000Z 23013KT 15SM FEW052 BKN250 24/15 A3004 RMK CU1CI2 SLP170

CYHM;2008-07-11 01:00;CYHM 110100Z 20007KT 15SM FEW050 BKN250 21/14 A3001 RMK CU1CI2 CU TR SLP163

CYHM;2008-07-11 02:00;CYHM 110200Z 02004KT 15SM BKN230 19/14 A3003 RMK CI2 SLP167

CYHM;2008-07-11 03:00;CYHM 110300Z 21005KT 15SM BKN230 17/13 A3003 RMK CI5 SLP168

CYHM;2008-07-11 04:00;CYHM 110400Z 20006KT 15SM FEW120 BKN250 18/13 A3001 RMK AC2CI3 SLP163

CYHM;2008-07-11 05:00;CYHM 110500Z 21007KT 15SM FEW110 BKN140 BKN220 18/14 A3001 RMK AC2AC3CI2 SLP163

CYHM;2008-07-11 06:00;CYHM 110600Z 20007KT 15SM BKN140 OVC200 19/15 A3001 RMK AC7CI1 SLP158

CYHM;2008-07-11 07:00;CYHM 110700Z 22008KT 15SM FEW050 BKN180 OVC210 19/16 A2998 RMK SC1AC6CI2 SLP150

CYHM;2008-07-11 08:00;CYHM 110800Z 24005KT 15SM BKN092 OVC130 19/16 A2998 RMK AC6AC2 SLP149

CYHM;2008-07-11 09:00;CYHM 110900Z 35009KT 7SM -TSRA FEW020CB BKN041 19/16 A3002 RMK CB2SC5 SLP162

CYHM;2008-07-11 10:00;CYHM 111000Z 01009KT 4SM -SHRA BR FEW010 FEW030 OVC055 17/16 A3002 RETSRA RMK CF1SC2SC6 SLP162

CYHM;2008-07-11 10:24;CYHM 111024Z 05008KT 4SM -TSRA BKN017 BKN033 OVC068 RMK SC6SC2AC1 CB EMBDD LTNG

CYHM;2008-07-11 11:00;CYHM 111100Z 10006KT 3SM -SHRA BR BKN020 OVC052 17/16 A3002 RMK SC6SC2 SLP164

CYHM;2008-07-11 12:00;CYHM 111200Z CCA 11005KT 6SM -SHRA FEW012 OVC041 17/16 A3005 RMK SF1SC7 SLP176

CYHM;2008-07-11 13:00;CYHM 111300Z 10006KT 6SM -SHRA BR BKN039 OVC050 17/16 A3004 RMK SC6SC2 SLP172

CYHM;2008-07-11 13:22;CYHM 111322Z 09002KT 15SM BKN029 BKN040 RMK SC5SC2

CYHM;2008-07-11 14:00;CYHM 111400Z 13008KT 15SM FEW035 BKN055 BKN090 19/17 A3003 RMK SC2SC3AC2 SLP169

CYHM;2008-07-11 15:00;CYHM 111500Z 16010KT 15SM FEW025 FEW062 BKN220 21/17 A3003 RMK CU1SC1CI2 CU TR SLP167

CYHM;2008-07-11 16:00;CYHM 111600Z 14008KT 15SM FEW028 FEW180 BKN220 23/17 A3004 RMK CU1AC1CI2 SLP170

CYHM;2008-07-11 17:00;CYHM 111700Z 21006KT 15SM FEW028 BKN036 BKN100 23/18 A3004 RMK CU2SC4AC1 SLP172

CYHM;2008-07-11 18:00;CYHM 111800Z 08010KT 15SM FEW024 BKN031 BKN045 23/18 A3005 RMK CU2SC3SC2 SLP173

CYHM;2008-07-11 19:00;CYHM 111900Z CCA 06008KT 15SM FEW024 FEW032 BKN064 24/18 A3004 RMK CU2SC1SC5 SLP172

CYHM;2008-07-11 20:00;CYHM 112000Z 05009KT 15SM FEW025 FEW060 BKN250 23/18 A3004 RMK CU1SC1CI2 SC TR SLP170

CYHM;2008-07-11 21:00;CYHM 112100Z 06008KT 15SM FEW025TCU BKN250 23/18 A3004 RMK TCU1CI2 SLP172

CYHM;2008-07-11 22:00;CYHM 112200Z 04009KT 15SM FEW025TCU BKN250 22/17 A3006 RMK TCU1CI2 SLP176

CYHM;2008-07-11 23:00;CYHM 112300Z 05010KT 15SM FEW025TCU BKN250 21/16 A3006 RMK TCU1CI3 SLP176

CYHM;2008-07-12 00:00;CYHM 120000Z 05010KT 15SM FEW025TCU BKN250 20/16 A3006 RMK TCU1CI4 TCU TR SLP179

CYHM;2008-07-12 01:00;CYHM 120100Z 05009KT 15SM BKN250 19/16 A3006 RMK CI5 SLP178

CYHM;2008-07-12 02:00;CYHM 120200Z 05006KT 15SM BKN250 19/16 A3007 RMK CI2 SLP184

CYHM;2008-07-12 03:00;CYHM 120300Z 05008KT 10SM FEW045 BKN250 19/17 A3007 RMK SC1CI2 SLP181

CYHM;2008-07-12 04:00;CYHM 120400Z 06003KT 6SM BR BKN005 BKN026 18/17 A3008 RMK SF5SC1 SLP185

CYHM;2008-07-12 04:14;CYHM 120414Z 03004KT 5SM BR FEW005 FEW024 BKN250 RMK SF2SC1CI1

CYHM;2008-07-12 05:00;CYHM 120500Z 07003KT 3SM BR FEW005 SCT250 17/17 A3007 RMK SF1CI2 VIS VRB 2 - 4 SLP182

CYHM;2008-07-12 05:17;CYHM 120517Z 00000KT 2SM BR FEW002 BKN250 RMK FG1SF2CI1

CYHM;2008-07-12 05:31;CYHM 120531Z 00000KT 1 1/2SM BR BKN002 RMK FG2SF4 VIS VRB 1 - 2

CYHM;2008-07-12 06:00;CYHM 120600Z 00000KT 1SM BR OVC001 18/18 A3008 RMK FG2SF6 VIS VRB 3/4 - 11/4 SLP185

CYHM;2008-07-12 06:10;CYHM 120610Z 06003KT 1/2SM FG OVC001 RMK FG4SF4

CYHM;2008-07-12 06:16;CYHM 120616Z 05003KT 1/4SM FG OVC001 RMK FG5SF3

CYHM;2008-07-12 06:28;CYHM 120628Z 05003KT 0SM FG VV001 RMK FG8

CYHM;2008-07-12 07:00;CYHM 120700Z 05002KT 0SM FG VV001 18/18 A3008 RMK FG8 SLP184

CYHM;2008-07-12 08:00;CYHM 120800Z 00000KT 0SM FG VV001 18/18 A3006 RMK FG8 SLP179

CYHM;2008-07-12 09:00;CYHM 120900Z 00000KT 0SM FG VV001 18/18 A3005 RMK FG8 SLP174

CYHM;2008-07-12 10:00;CYHM 121000Z 05005KT 0SM FG VV001 18/17 A3004 RMK FG8 SLP169

CYHM;2008-07-12 11:00;CYHM 121100Z 09003KT 1/8SM FG VV001 19/18 A3003 RMK FG8 SLP167

CYHM;2008-07-12 11:40;CYHM 121140Z 12002KT 1 1/4SM BR BKN043 RMK FG3SC4

CYHM;2008-07-12 12:00;CYHM 121200Z 11003KT 3SM BR FEW002 SCT043 BKN120 19/19 A3002 RMK SF2SC2AC1 SLP165

CYHM;2008-07-12 13:00;CYHM 121300Z 18005KT 10SM FEW048 BKN076 BKN250 21/20 A3002 RMK SC1AC5CI0 SLP165

CYHM;2008-07-12 14:00;CYHM 121400Z CCA 19008KT 12SM FEW045 BKN076 BKN250 25/21 A3001 RMK SC1AC4CI1 SLP162

CYHM;2008-07-12 15:00;CYHM 121500Z 21005KT 15SM FEW032 FEW072 BKN120 25/21 A2999 RMK CU1AC2AC5 SLP153

CYHM;2008-07-12 16:00;CYHM 121600Z 20010KT 15SM FEW035 FEW062 BKN150 27/21 A2998 RMK CU1SC1AC6 SLP149

CYHM;2008-07-12 17:00;CYHM 121700Z 17010KT 130V230 15SM FEW035 FEW150 BKN250 28/21 A2994 RMK CU1AC1CI3 SLP137

CYHM;2008-07-12 18:00;CYHM 121800Z 19012KT 15SM SCT034 BKN048 BKN150 28/21 A2993 RMK CU3SC2AC2 SLP132

CYHM;2008-07-12 19:00;CYHM 121900Z 20013KT 170V230 9SM SCT034 BKN046 BKN071 28/20 A2991 RMK CU3SC3AC1 HZ SLP124

CYHM;2008-07-12 19:22;CYHM 121922Z 23015G24KT 4SM -TSRA HZ SCT040CB BKN060 RMK CB3SC4

CYHM;2008-07-12 19:25;CYHM 121925Z 24018G26KT 1 3/4SM TSRA BR BKN032CB OVC055 RMK FG1CB4SC3

CYHM;2008-07-12 19:37;CYHM 121937Z 22012KT 2 1/2SM -TSRA BR FEW025 SCT035CB OVC055 RMK FG1CF1CB2SC4

CYHM;2008-07-12 20:00;CYHM 122000Z 21008KT 3SM BR FEW036CB SCT055 OVC084 23/22 A2991 RETSRA RMK CB1SC3AC4 SLP126

CYHM;2008-07-12 21:00;CYHM 122100Z 20012KT 4SM HZ FEW030 BKN054 BKN084 OVC220 25/22 A2989 RMK CU1SC4AC2CI1 SLP120

CYHM;2008-07-12 22:00;CYHM 122200Z 20012KT 5SM HZ FEW020 SCT042 BKN080 OVC160 25/21 A2988 RMK CF1SC3AC2AC2 SLP116

CYHM;2008-07-12 23:00;CYHM 122300Z 22011KT 6SM HZ FEW025 FEW042 BKN070 BKN210 25/21 A2986 RMK CU1SC2AC3CI2 SLP110

CYHM;2008-07-13 00:00;CYHM 130000Z 21008KT 7SM FEW025 FEW035 BKN056 BKN100 24/20 A2984 RMK CU1SC2SC2AC2 HZ SLP102

CYHM;2008-07-13 00:38;CYHM 130038Z 21010KT 3SM -SHRA HZ BKN034 OVC070 RMK SC5AC3

CYHM;2008-07-13 01:00;CYHM 130100Z 20006KT 6SM BR VCSH SCT035 BKN068 BKN120 22/20 A2982 RMK SC3AC2AC2 SLP097

CYHM;2008-07-13 02:00;CYHM 130200Z 20006KT 9SM SCT052 BKN090 BKN210 21/19 A2983 RMK SC4AC2CC1 SLP099

CYHM;2008-07-13 03:00;CYHM 130300Z 21009KT 6SM BR SCT007 BKN030 21/20 A2981 RMK SF4SC1 SLP093

CYHM;2008-07-13 03:32;CYHM 130332Z 22007KT 6SM BR BKN006 OVC025 RMK SF6SC2

CYHM;2008-07-13 04:00;CYHM 130400Z 21008KT 5SM BR OVC006 22/21 A2981 RMK SF8 SLP092

CYHM;2008-07-13 05:00;CYHM 130500Z 21011KT 4SM BR OVC005 22/21 A2981 RMK SF8 CIG RAG SLP090

CYHM;2008-07-13 06:00;CYHM 130600Z 22011KT 5SM BR OVC007 22/21 A2978 RMK SF8 SLP081

CYHM;2008-07-13 06:36;CYHM 130636Z 24007KT 5SM BR BKN005 RMK SF4

CYHM;2008-07-13 07:00;CYHM 130700Z 25007KT 8SM FEW005 SCT250 21/21 A2976 RMK SF2CI2 SLP074

CYHM;2008-07-13 08:00;CYHM 130800Z 25005KT 8SM BKN120 OVC250 21/21 A2976 RMK AC6CI2 SLP074

CYHM;2008-07-13 09:00;CYHM 130900Z 27009KT 15SM FEW017 FEW110 OVC140 21/18 A2976 RMK CF1AC2AC6 SLP073

CYHM;2008-07-13 10:00;CYHM 131000Z 25007KT 15SM FEW110 OVC130 20/16 A2976 RMK AC2AC6 SLP074

CYHM;2008-07-13 10:33;CYHM 131033Z 24004KT 15SM -SHRA FEW025 OVC120 RMK CU1AC8

CYHM;2008-07-13 11:00;CYHM 131100Z 22004KT 15SM -SHRA FEW025 OVC110 19/17 A2975 RMK CU1AC8 SLP072

CYHM;2008-07-13 12:00;CYHM 131200Z CCA 20004KT 15SM -SHRA SCT049 OVC091 19/18 A2976 RMK SC3AC5 SLP075

CYHM;2008-07-13 12:44;CYHM 131244Z 21006KT 15SM FEW015 FEW052 BKN088 OVC110 RMK CU1SC2AC4AC2

CYHM;2008-07-13 13:00;CYHM 131300Z 21005KT 15SM FEW015 FEW055 BKN092 OVC110 20/18 A2977 RMK CU1SC1AC6AC2 CU TR SLP079

CYHM;2008-07-13 14:00;CYHM 131400Z 22007KT 15SM FEW018 SCT092 BKN120 21/19 A2977 RMK CU1AC2AC4 SLP077

CYHM;2008-07-13 15:00;CYHM 131500Z 23009KT 15SM FEW020 FEW090 SCT140 SCT230 22/18 A2975 RMK CU1AC1AC2CI1 CU TR SLP073

CYHM;2008-07-13 16:00;CYHM 131600Z 22010KT 15SM FEW034 SCT160 23/17 A2974 RMK CU2AC2 SLP069

CYHM;2008-07-13 17:00;CYHM 131700Z 22014KT 15SM FEW040 FEW160 26/14 A2972 RMK CU1AC1 SLP062

CYHM;2008-07-13 18:00;CYHM 131800Z 22011G18KT 15SM FEW050 FEW160 FEW250 26/13 A2970 RMK CU1AC1CI1 CU AC TR SLP053

CYHM;2008-07-13 19:00;CYHM 131900Z 25016KT 15SM FEW050 FEW160 FEW230 27/11 A2968 RMK CU1AC1CI1 AC TR SLP047

CYHM;2008-07-13 20:00;CYHM 132000Z 24015G21KT 15SM FEW050 FEW160 SCT230 27/14 A2967 RMK SC2AC1CI1 AC TR CU ASOCTD SLP044

CYHM;2008-07-13 21:00;CYHM 132100Z 23015KT 15SM FEW050 SCT230 26/14 A2967 RMK SC2CI1 CU ASOCTD SLP042

CYHM;2008-07-13 22:00;CYHM 132200Z 22015KT 15SM FEW050 FEW230 25/15 A2967 RMK CU2CI1 SLP042

CYHM;2008-07-13 23:00;CYHM 132300Z 23014KT 15SM FEW045 FEW230 24/14 A2966 RMK CU2CI1 CI TR SLP040

CYHM;2008-07-13 23:52;CYHM 132352Z 28014KT 15SM FEW047 SCT058 SCT230 RMK CU2SC2CI1 CI TR WSHFT 2337

CYHM;2008-07-14 00:00;CYHM 140000Z 28014KT 15SM FEW047 SCT058 SCT230 23/12 A2970 RMK CU2SC2CI1 CI TR SLP054

CYHM;2008-07-14 01:00;CYHM 140100Z 28012KT 15SM FEW057 SCT074 21/12 A2973 RMK SC2AC1 SLP065

CYHM;2008-07-14 02:00;CYHM 140200Z 27006KT 15SM FEW058 FEW075 19/12 A2976 RMK SC1AC2 SLP076

CYHM;2008-07-14 03:00;CYHM 140300Z 25005KT 15SM SCT072 17/12 A2977 RMK AC3 SLP080

CYHM;2008-07-14 04:00;CYHM 140400Z 23004KT 15SM FEW076 16/12 A2977 RMK AC2 SLP080

CYHM;2008-07-14 05:00;CYHM 140500Z 22004KT 15SM BKN076 16/12 A2978 RMK AC7 SLP081

CYHM;2008-07-14 06:00;CYHM 140600Z 23005KT 15SM FEW078 14/12 A2978 RMK AC2 SLP081

CYHM;2008-07-14 07:00;CYHM 140700Z 24007KT 15SM FEW080 15/12 A2978 RMK AC1 SLP082

CYHM;2008-07-14 08:00;CYHM 140800Z 25006KT 15SM FEW080 15/12 A2978 RMK AC1 SLP082

CYHM;2008-07-14 09:00;CYHM 140900Z 21003KT 15SM BKN065 OVC095 15/13 A2978 RMK SC6AC2 SLP083

CYHM;2008-07-14 10:00;CYHM 141000Z 24005KT 15SM FEW070 SCT095 15/12 A2979 RMK AC2AC2 ACC ASOCTD LWR LYR SLP086

CYHM;2008-07-14 11:00;CYHM 141100Z 24005KT 15SM FEW025 SCT068 SCT120 16/12 A2981 RMK CU1AC2AC1 SLP091

CYHM;2008-07-14 12:00;CYHM 141200Z 24008KT 15SM FEW025 FEW100 FEW220 18/13 A2982 RMK CU1AC1CI1 SLP095

CYHM;2008-07-14 13:00;CYHM 141300Z 24010KT 15SM FEW025 FEW100 FEW220 20/13 A2983 RMK CU1AC1CI1 SLP098

CYHM;2008-07-14 14:00;CYHM 141400Z 28010KT 15SM FEW032 FEW120 21/12 A2984 RMK CU1AC1 CU TR SLP101

CYHM;2008-07-14 15:00;CYHM 141500Z 25012KT 15SM FEW042 FEW220 23/13 A2984 RMK CU2CI0 SLP104

CYHM;2008-07-14 16:00;CYHM 141600Z 24016KT 15SM SCT042 BKN056 BKN086 22/13 A2984 RMK CU3SC2AC2 SLP104

CYHM;2008-07-14 17:00;CYHM 141700Z 25012KT 15SM FEW045 SCT060 BKN078 24/13 A2984 RMK CU2SC2AC2 SLP103

CYHM;2008-07-14 18:00;CYHM 141800Z 27010KT 240V300 15SM SCT045 BKN058 BKN087 23/12 A2984 RMK CU3SC2AC1 SLP104

CYHM;2008-07-14 19:00;CYHM 141900Z 28015G24KT 15SM FEW058 24/11 A2985 RMK SC2 CU ASOCTD TCU EMBDED SLP106

CYHM;2008-07-14 20:00;CYHM 142000Z 28012G18KT 15SM FEW058 BKN070 24/12 A2986 RMK SC2AC3 CU ASOCTD CUFRA ASOCTD SLP110

CYHM;2008-07-14 21:00;CYHM 142100Z 29012KT 15SM FEW058 FEW070 24/12 A2987 RMK CU1AC2 CU TR SLP113

CYHM;2008-07-14 22:00;CYHM 142200Z 29013KT 15SM FEW056 FEW072 23/12 A2989 RMK CU1AC1 CU TR SLP119

CYHM;2008-07-14 23:00;CYHM 142300Z 28013KT 15SM FEW060 FEW078 22/12 A2990 RMK CU1AC1 CU TR SLP124

CYHM;2008-07-15 00:00;CYHM 150000Z 27008KT 15SM FEW080 21/11 A2992 RMK AC1 SLP131

CYHM;2008-07-15 01:00;CYHM 150100Z 28004KT 15SM FEW080 19/11 A2993 RMK AC1 SLP135

CYHM;2008-07-15 02:00;CYHM 150200Z 00000KT 15SM FEW080 18/11 A2996 RMK AC1 AC TR SLP143

CYHM;2008-07-15 03:00;CYHM 150300Z 30002KT 15SM FEW080 16/12 A2997 RMK AC1 AC TR SLP149

CYHM;2008-07-15 04:00;CYHM 150400Z 00000KT 15SM FEW080 15/11 A2999 RMK AC1 AC TR SLP153

CYHM;2008-07-15 05:00;CYHM 150500Z 00000KT 15SM FEW082 FEW220 14/11 A3000 RMK AC1CI1 CI TR SLP158

CYHM;2008-07-15 06:00;CYHM 150600Z 00000KT 15SM FEW082 13/11 A3002 RMK AC1 AC TR SLP164

CYHM;2008-07-15 07:00;CYHM 150700Z 24003KT 15SM FEW082 12/11 A3002 RMK AC1 AC TR SLP166

CYHM;2008-07-15 08:00;CYHM 150800Z 28002KT 15SM FEW090 12/11 A3003 RMK AC1 AC TR SLP169

CYHM;2008-07-15 09:00;CYHM 150900Z 28002KT 15SM FEW250 12/11 A3004 RMK CI1 SLP174

CYHM;2008-07-15 10:00;CYHM 151000Z 32003KT 15SM FEW250 12/11 A3006 RMK CI1 SLP178

CYHM;2008-07-15 11:00;CYHM 151100Z 35002KT 15SM FEW120 15/12 A3007 RMK AC1 AC TR SLP183

CYHM;2008-07-15 12:00;CYHM 151200Z 00000KT 15SM SKC 18/12 A3009 RMK SLP188

CYHM;2008-07-15 13:00;CYHM 151300Z 15002KT 15SM SKC 20/12 A3010 RMK SLP191

CYHM;2008-07-15 14:00;CYHM 151400Z 12002KT 15SM FEW240 21/13 A3011 RMK CI1 SLP194

CYHM;2008-07-15 15:00;CYHM 151500Z 25005KT 15SM FEW035 FEW240 22/14 A3012 RMK CU1CI1 SLP200

CYHM;2008-07-15 16:00;CYHM 151600Z 23006KT 15SM FEW040 FEW240 23/13 A3013 RMK CU2CI0 SLP201

CYHM;2008-07-15 17:00;CYHM 151700Z 24007KT 15SM FEW042 SCT240 24/14 A3012 RMK CU2CI1 SLP198

CYHM;2008-07-15 18:00;CYHM 151800Z 23008KT 15SM SCT045 SCT220 25/13 A3011 RMK CU3CI0 SLP196

CYHM;2008-07-15 19:00;CYHM 151900Z 17013KT 15SM FEW050 FEW250 26/15 A3010 RMK CU1CI1 SLP191

CYHM;2008-07-15 20:00;CYHM 152000Z 19012KT 15SM FEW054 FEW250 26/15 A3010 RMK CU1CI1 CI TR SLP191

CYHM;2008-07-15 21:00;CYHM 152100Z 22012KT 15SM FEW050 FEW250 26/15 A3009 RMK CU1CI1 CI TR SLP189

CYHM;2008-07-15 22:00;CYHM 152200Z 19013KT 15SM FEW050 FEW180 FEW250 25/14 A3007 RMK CU1AC1CI1 CU TR AC TR CI TR SLP182

CYHM;2008-07-15 23:00;CYHM 152300Z 22009KT 15SM FEW180 FEW250 25/12 A3008 RMK AC1CI1 AC TR CI TR SLP185

CYHM;2008-07-16 00:00;CYHM 160000Z 23008KT 15SM FEW080 FEW250 24/11 A3009 RMK AC1CI1 AC TR SLP189

CYHM;2008-07-16 01:00;CYHM 160100Z 21008KT 15SM FEW080 FEW250 19/10 A3010 RMK AC1CI1 SLP190

CYHM;2008-07-16 02:00;CYHM 160200Z 20007KT 15SM FEW160 SCT250 18/12 A3010 RMK AC1CI1 SLP190

CYHM;2008-07-16 03:00;CYHM 160300Z 22005KT 15SM SCT250 16/13 A3010 RMK CI1 SLP194

CYHM;2008-07-16 04:00;CYHM 160400Z 22006KT 15SM FEW250 16/13 A3010 RMK CI1 SLP192

CYHM;2008-07-16 05:00;CYHM 160500Z 23005KT 15SM SCT250 16/14 A3010 RMK CI1 SLP193

CYHM;2008-07-16 06:00;CYHM 160600Z 22005KT 15SM FEW250 15/14 A3010 RMK CI1 SLP190

CYHM;2008-07-16 07:00;CYHM 160700Z 24003KT 15SM FEW250 16/14 A3008 RMK CI1 CI TR SLP185

CYHM;2008-07-16 08:00;CYHM 160800Z 22003KT 15SM FEW250 15/14 A3007 RMK CI1 CI TR SLP183

CYHM;2008-07-16 09:00;CYHM 160900Z 21005KT 15SM FEW062 FEW250 16/15 A3007 RMK SC1CI1 CI TR SLP183

CYHM;2008-07-16 10:00;CYHM 161000Z 21008KT 15SM FEW060 FEW140 FEW250 17/16 A3008 RMK SC1AC1CI1 SC TR CI TR SLP186

CYHM;2008-07-16 11:00;CYHM 161100Z 24008KT 15SM FEW062 FEW140 FEW220 18/17 A3009 RMK SC1AC1CI1 SLP189

CYHM;2008-07-16 12:00;CYHM 161200Z 23006KT 15SM FEW025 BKN082 BKN220 21/18 A3012 RMK CU2AC3CI2 SLP197

CYHM;2008-07-16 12:05;CYHM 161205Z 25006KT 10SM -TSRA SCT025 BKN082 BKN220 RMK CU3AC3CI1 CB ASOCITD

CYHM;2008-07-16 12:17;CYHM 161217Z 25006KT 10SM -TSRA BKN035 BKN050 BKN110 RMK SC5SC2AC1 CB EMBDD LTNG

CYHM;2008-07-16 12:50;CYHM 161250Z 28006KT 15SM -SHRA FEW017 BKN029 BKN049 BKN140 RMK CU2SC3SC2AC1

CYHM;2008-07-16 13:00;CYHM 161300Z CCA 20002KT 15SM -SHRA FEW026 BKN040 BKN140 20/19 A3011 RMK CU1SC5AC1 RETS SLP195

CYHM;2008-07-16 13:19;CYHM 161319Z 25008KT 15SM FEW025 FEW055 BKN140 BKN180 RMK CU1SC2AC2AC1 RERA

CYHM;2008-07-16 14:00;CYHM 161400Z 25009KT 15SM FEW055 SCT160 23/20 A3012 RMK SC1AC2 CU ASOCTD SLP198

CYHM;2008-07-16 15:00;CYHM 161500Z 25008KT 15SM FEW084 SCT210 25/20 A3014 RMK AC1CI1 SLP205

CYHM;2008-07-16 16:00;CYHM 161600Z 28006KT 15SM FEW045 FEW140 27/21 A3014 RMK CU1AC1 SLP206

CYHM;2008-07-16 17:00;CYHM 161700Z 24002KT 15SM FEW030 28/21 A3014 RMK CU1 SLP204

CYHM;2008-07-16 18:00;CYHM 161800Z 25002KT 15SM FEW040 SCT220 30/21 A3013 RMK CU2CI0 CI TR SLP199

CYHM;2008-07-16 19:00;CYHM 161900Z 28005KT 15SM BKN044TCU 30/21 A3012 RMK TCU5 SC ASOCTD CU ASOCTD SLP198

CYHM;2008-07-16 20:00;CYHM 162000Z 30006KT 240V020 15SM FEW046TCU 31/20 A3011 RMK TCU2 CU ASOCTD SLP195

CYHM;2008-07-16 21:00;CYHM 162100Z 20005KT 170V300 15SM FEW052TCU 32/20 A3011 RMK TCU2 CU ASOCTD SLP193

CYHM;2008-07-16 22:00;CYHM 162200Z 17011KT 15SM BKN060 26/20 A3011 RMK SC5 TCU EMBDED SLP195

CYHM;2008-07-16 23:00;CYHM 162300Z 19011KT 15SM BKN058 23/18 A3013 RMK SC6 TCU EMBDED CU ASOCTD CONTRAIL SLP199

CYHM;2008-07-17 00:00;CYHM 170000Z 20009KT 15SM SCT055 BKN250 24/17 A3013 RMK SC3CS2 TCU EMBDED CU ASOCTD SLP202

CYHM;2008-07-17 01:00;CYHM 170100Z 21004KT 15SM FEW058TCU OVC250 22/18 A3014 RMK TCU1CS6 SLP205

CYHM;2008-07-17 02:00;CYHM 170200Z 22003KT 15SM FEW058TCU OVC250 21/18 A3015 RMK TCU1CS7 SLP208

CYHM;2008-07-17 03:00;CYHM 170300Z 00000KT 15SM SCT050CB OVC250 21/18 A3014 RMK CB3CI4 OCNL LTNG SW SLP203

CYHM;2008-07-17 04:00;CYHM 170400Z 00000KT 15SM FEW050 OVC250 21/17 A3015 RMK SC2CI6 SLP207

CYHM;2008-07-17 05:00;CYHM 170500Z 03007KT 15SM BKN110 OVC230 21/18 A3015 RMK AC6CI2 SLP206

CYHM;2008-07-17 06:00;CYHM 170600Z 16002KT 15SM SCT150 OVC210 21/18 A3014 RMK AC3CI5 LTNG SSW SLP202

CYHM;2008-07-17 06:47;CYHM 170647Z 22002KT 15SM TS FEW050CB SCT070 OVC120 RMK CB2AC2AC3 OCNL LTGIC

CYHM;2008-07-17 07:00;CYHM 170700Z 00000KT 12SM -TSRA FEW043CB OVC130 20/18 A3013 RMK CB2AC6 OCNL LTGICCG E SLP200

CYHM;2008-07-17 08:00;CYHM 170800Z 00000KT 15SM TS FEW040 BKN130 OVC200 20/18 A3011 RMK SC2AC4CI2 CB ASOCTD OCNL LTGICCG E SLP194

CYHM;2008-07-17 08:22;CYHM 170822Z 00000KT 12SM -TSRA FEW040 OVC120 RMK SC2AC6 CB ASOCTD OCNL LTNG NE

CYHM;2008-07-17 09:00;CYHM 170900Z 04007KT 12SM -SHRA OVC120 21/18 A3009 RETS RMK AC8 SLP184

CYHM;2008-07-17 10:00;CYHM 171000Z 00000KT 10SM -SHRA FEW080 OVC100 20/19 A3014 RMK AC1AC7 PRESRR SLP201

CYHM;2008-07-17 10:54;CYHM 171054Z 08002KT 15SM BKN110 OVC160 RMK AC6AC2

CYHM;2008-07-17 11:00;CYHM 171100Z 05003KT 15SM BKN100 OVC140 20/18 A3015 RMK AC6AC2 RERA SLP204

CYHM;2008-07-17 12:00;CYHM 171200Z 00000KT 15SM FEW160 SCT240 21/18 A3015 RMK AC1CI1 SLP208

CYHM;2008-07-17 13:00;CYHM 171300Z 25003KT 15SM FEW160 FEW240 23/19 A3015 RMK AC1CI1 SLP209

CYHM;2008-07-17 14:00;CYHM 171400Z 26007KT 15SM FEW025 FEW240 25/20 A3015 RMK CU1CI1 CU TR CI TR SLP208

CYHM;2008-07-17 15:00;CYHM 171500Z 29010KT 15SM FEW032 FEW240 27/19 A3014 RMK CU1CI1 CU TR CI TR SLP203

CYHM;2008-07-17 16:00;CYHM 171600Z 25007KT 15SM FEW042 28/18 A3013 RMK CU1 SLP200

CYHM;2008-07-17 17:00;CYHM 171700Z 25008KT 15SM FEW045 FEW240 29/19 A3011 RMK CU1CI1 SLP195

CYHM;2008-07-17 18:00;CYHM 171800Z 24011KT 15SM FEW045 SCT240 30/19 A3009 RMK CU1CI1 SLP187

CYHM;2008-07-17 19:00;CYHM 171900Z 24012KT 15SM BKN052 30/19 A3008 RMK CU6 SLP184

CYHM;2008-07-17 20:00;CYHM 172000Z 27008KT 15SM SCT055 BKN240 31/18 A3007 RMK CU4CI0 SLP180

CYHM;2008-07-17 21:00;CYHM 172100Z 25011KT 210V300 15SM BKN050 BKN250 30/19 A3006 RMK CU6CI0 SLP175

CYHM;2008-07-17 22:00;CYHM 172200Z 24006KT 15SM BKN044 BKN250 29/20 A3005 RMK CU6CI1 SLP173

CYHM;2008-07-17 22:27;CYHM 172227Z 23013KT 15SM -TSRA BKN041 RMK CU7 CB ASOCTD

CYHM;2008-07-17 22:49;CYHM 172249Z 23008KT 15SM TS FEW041TCU FEW120 SCT250 RMK TCU2AC1CI0 CB ASOCTD

CYHM;2008-07-17 23:00;CYHM 172300Z 24007KT 15SM FEW041TCU FEW120 BKN250 28/20 A3004 RETS RMK TCU2AC1CI1 SLP170

CYHM;2008-07-18 00:00;CYHM 180000Z 23006KT 15SM FEW040 FEW120 BKN250 27/20 A3004 RMK CU1AC2CI2 SLP170

CYHM;2008-07-18 01:00;CYHM 180100Z 20005KT 15SM FEW030CB FEW140 BKN250 25/20 A3004 RMK CB1AC1CI2 CB TOP N SLP170

CYHM;2008-07-18 02:00;CYHM 180200Z 21004KT 15SM FEW140 BKN250 23/20 A3006 RMK AC1CI4 SLP175

CYHM;2008-07-18 03:00;CYHM 180300Z 21004KT 15SM FEW140 BKN250 23/20 A3005 RMK AC2CI1 SLP172

CYHM;2008-07-18 04:00;CYHM 180400Z 23007KT 15SM FEW150 23/19 A3003 RMK AC2 SLP166

CYHM;2008-07-18 05:00;CYHM 180500Z 22006KT 15SM FEW250 22/19 A3003 RMK CI1 SLP165

CYHM;2008-07-18 06:00;CYHM 180600Z 25004KT 15SM FEW250 23/19 A3002 RMK CI0 SLP160

CYHM;2008-07-18 07:00;CYHM 180700Z 23003KT 15SM FEW250 22/19 A3001 RMK CI0 SLP158

CYHM;2008-07-18 08:00;CYHM 180800Z 20004KT 15SM BKN240 20/19 A3001 RMK CC4 SLP157

CYHM;2008-07-18 09:00;CYHM 180900Z 20004KT 15SM BKN240 20/19 A3001 RMK CC3 SLP159

CYHM;2008-07-18 10:00;CYHM 181000Z 21003KT 5SM BR SCT240 20/19 A3002 RMK CC2 SLP161

CYHM;2008-07-18 11:00;CYHM 181100Z 21005KT 5SM BR SCT150 BKN220 20/19 A3002 RMK AC3CC3 SLP163

CYHM;2008-07-18 12:00;CYHM 181200Z 22005KT 6SM BR SCT150 BKN220 22/20 A3003 RMK AC3CI2 SLP164

CYHM;2008-07-18 13:00;CYHM 181300Z 24010KT 15SM BKN140 BKN220 26/21 A3003 RMK AC6CI2 SLP164

CYHM;2008-07-18 14:00;CYHM 181400Z 25012KT 15SM SCT150 BKN220 26/20 A3002 RMK AC3CI4 SLP162

CYHM;2008-07-18 15:00;CYHM 181500Z 22014KT 15SM BKN150 BKN220 27/20 A3002 RMK AC5CI2 SLP162

CYHM;2008-07-18 16:00;CYHM 181600Z 23016KT 15SM SCT150 BKN220 28/20 A3001 RMK AC4CI2 SLP160

CYHM;2008-07-18 17:00;CYHM 181700Z 23014KT 15SM FEW042 SCT110 BKN210 29/19 A3000 RMK CU2AC2CI3 SLP156

CYHM;2008-07-18 18:00;CYHM 181800Z 25010KT 15SM FEW042 BKN160 OVC210 29/19 A2999 RMK CU2AC4CI2 SLP151

CYHM;2008-07-18 19:00;CYHM 181900Z 22012KT 15SM SCT043 SCT060 OVC190 29/20 A2999 RMK CU3SC1AC4 SLP150

CYHM;2008-07-18 20:00;CYHM 182000Z 22013KT 15SM FEW042 OVC190 29/20 A2998 RMK SC2AC6 CU ASOCTD SLP148

CYHM;2008-07-18 21:00;CYHM 182100Z 22012KT 15SM FEW043 OVC160 29/20 A2997 RMK SC2AC6 SLP146

CYHM;2008-07-18 22:00;CYHM 182200Z 24010KT 15SM FEW043 BKN160 28/20 A2997 RMK SC1AC6 SLP146

CYHM;2008-07-18 23:00;CYHM 182300Z 23008KT 15SM -SHRA FEW045 BKN140 27/18 A2996 RMK SC2AC6 SLP142

CYHM;2008-07-18 23:34;CYHM 182334Z 23008KT 15SM FEW043 SCT096 BKN180 RMK SC1AC2AC4

CYHM;2008-07-19 00:00;CYHM 190000Z 23007KT 15SM BKN140 27/19 A2997 RMK AC7 SLP144

CYHM;2008-07-19 01:00;CYHM 190100Z 23006KT 15SM FEW140 BKN190 25/18 A2996 RMK AC2AC5 SLP141

CYHM;2008-07-19 02:00;CYHM 190200Z 21006KT 15SM BKN190 23/18 A2997 RMK AC6 SLP144

CYHM;2008-07-19 03:00;CYHM 190300Z 22005KT 15SM FEW088 FEW140 BKN180 22/18 A2997 RMK AC1AC1AC4 SLP146

CYHM;2008-07-19 04:00;CYHM 190400Z 22005KT 15SM BKN160 22/18 A2997 RMK AC6 SLP145

CYHM;2008-07-19 05:00;CYHM 190500Z 24004KT 15SM BKN160 22/18 A2997 RMK AC7 SLP145

CYHM;2008-07-19 06:00;CYHM 190600Z 23004KT 15SM BKN130 21/18 A2996 RMK AC7 SLP141

CYHM;2008-07-19 07:00;CYHM 190700Z 23005KT 12SM FEW078 OVC130 21/19 A2996 RMK AC1AC7 SLP140

CYHM;2008-07-19 08:00;CYHM 190800Z 29003KT 12SM BKN150 21/19 A2995 RMK AC7 SLP139

CYHM;2008-07-19 09:00;CYHM 190900Z 28004KT 12SM BKN100 22/19 A2996 RMK AC7 SLP142

CYHM;2008-07-19 10:00;CYHM 191000Z 28004KT 8SM FEW060 SCT100 OVC140 21/19 A2997 RMK SC2AC2AC3 HZ SLP144

CYHM;2008-07-19 11:00;CYHM 191100Z 00000KT 8SM BKN054 BKN078 BKN250 21/19 A2998 RMK SC5AC2CI1 SLP148

CYHM;2008-07-19 12:00;CYHM 191200Z 00000KT 10SM SCT062 SCT078 BKN250 22/20 A2998 RMK SC3AC1CI0 SLP149

CYHM;2008-07-19 13:00;CYHM 191300Z 25002KT 10SM FEW064 FEW085 SCT250 24/20 A2998 RMK SC2AC1CI0 SLP148

CYHM;2008-07-19 14:00;CYHM 191400Z 22002KT 10SM SCT064 25/20 A2997 RMK SC3 SLP147

CYHM;2008-07-19 15:00;CYHM 191500Z 23002KT 12SM FEW064 SCT250 27/21 A2998 RMK SC2CI0 WND L/V SLP148

CYHM;2008-07-19 16:00;CYHM 191600Z 22005KT 150V250 15SM BKN032 BKN087 29/21 A2997 RMK CU5AC2 SLP146

CYHM;2008-07-19 16:44;CYHM 191644Z 26002KT 10SM -SHRA BKN031 OVC120 RMK CU6AC2

CYHM;2008-07-19 16:50;CYHM 191650Z 26002KT 8SM TSRA BKN031 OVC120 RMK CU6AC2 CB EMBDD VIS E 3

CYHM;2008-07-19 16:53;CYHM 191653Z 36002KT 2SM +TSRA BKN030 OVC120 RMK RA2CU6AC1 CB EMBDD WND L/V

CYHM;2008-07-19 17:00;CYHM 191700Z 02010KT 2SM TSRA BR BKN030 OVC120 23/20 A2997 RERA RMK FG1CU5AC2 CB EMBDD SLP147

CYHM;2008-07-19 17:09;CYHM 191709Z 02002KT 7SM -TSRA BKN030 BKN054 OVC120 RERA RMK CU5SC2AC1 CB EMBDD

CYHM;2008-07-19 18:00;CYHM 191800Z 18006KT 12SM -TSRA BKN033CB OVC048 24/21 A2997 RERA RMK CB6SC2 /R12/ SLP145

CYHM;2008-07-19 19:00;CYHM 191900Z 09005KT 070V180 10SM -TSRA BKN039CB OVC049 25/21 A2997 RMK CB6SC2 PCPN VRY LGT SLP145

CYHM;2008-07-19 20:00;CYHM 192000Z 11009KT 12SM -TSRA SCT040 BKN049 OVC130 24/21 A2997 RMK CU3SC4AC1 CB EMBDD PCPN VRY LGT SLP147

CYHM;2008-07-19 21:00;CYHM 192100Z 25008KT 5SM -TSRA BR FEW018 FEW038 BKN052 OVC110 22/20 A2999 RMK CF2CU1SC4AC2 CB EMBDD SLP153

CYHM;2008-07-19 22:00;CYHM 192200Z 21006KT 6SM -TSRA BR FEW040 SCT055 OVC130 21/19 A2997 RMK CU2SC2AC4 CB EMBDD SLP145

CYHM;2008-07-19 22:33;CYHM 192233Z 24006KT 7SM -SHRA FEW040 FEW055 OVC130 RETS RMK CU1SC2AC6

CYHM;2008-07-19 22:52;CYHM 192252Z 23008KT 7SM -TSRA FEW040 BKN056 OVC130 RMK CU1SC5AC2 CB EMBDD

CYHM;2008-07-19 23:00;CYHM 192300Z 24010KT 7SM -TSRA SCT011 BKN056 OVC130 21/20 A2998 RMK CF3SC4AC1 CB EMBDD SLP150

CYHM;2008-07-19 23:43;CYHM 192343Z 24008KT 4SM -SHRA BR OVC053 RETS RMK SC8

CYHM;2008-07-20 00:00;CYHM 200000Z 23004KT 5SM -SHRA BR BKN050 OVC120 20/19 A2995 RETS RMK SC6AC2 SLP140

CYHM;2008-07-20 01:00;CYHM 200100Z 24003KT 12SM BKN098 OVC120 20/20 A2996 RMK AC6AC2 SLP142

CYHM;2008-07-20 02:00;CYHM 200200Z 00000KT 15SM FEW100 BKN150 20/19 A2995 RMK AC2AC2 SLP141

CYHM;2008-07-20 03:00;CYHM 200300Z 00000KT 15SM FEW070 BKN087 OVC130 20/20 A2996 RMK AC1AC6AC2 SLP142

CYHM;2008-07-20 04:00;CYHM 200400Z 25007KT 12SM -SHRA FEW065 OVC100 20/19 A2997 RMK SC2AC6 SLP145

CYHM;2008-07-20 05:00;CYHM 200500Z 31006KT 10SM -SHRA OVC055 20/19 A2995 RMK SC8 SLP140

CYHM;2008-07-20 06:00;CYHM 200600Z 08003KT 6SM -SHRA OVC064 20/19 A2993 RERA RMK SC8 SLP133

CYHM;2008-07-20 07:00;CYHM 200700Z 03004KT 3SM SHRA BR OVC041 19/19 A2992 RMK SC8 VIS VRB 2 - 4 SLP131

CYHM;2008-07-20 07:38;CYHM 200738Z 05003KT 2SM -SHRA BR BKN002 OVC020 RERA RMK FG1SF5SC2

CYHM;2008-07-20 08:00;CYHM 200800Z 04002KT 2SM -SHRA BR BKN002 OVC015 19/19 A2990 RERA RMK FG1SF6SC2 SLP124

CYHM;2008-07-20 09:00;CYHM 200900Z 00000KT 2SM -SHRA BR BKN002 OVC022 20/19 A2989 RMK FG1SF6SC2 SLP121

CYHM;2008-07-20 09:17;CYHM 200917Z 09004KT 1 1/2SM +SHRA BR OVC002 RMK FG2SF6 VIS VRB 1 - 2

CYHM;2008-07-20 10:00;CYHM 201000Z 08005KT 2SM -SHRA BR BKN002 OVC024 19/19 A2988 RERA RMK FG1SF5SC2 SLP115

CYHM;2008-07-20 11:00;CYHM 201100Z 08003KT 2SM BR OVC004 19/19 A2987 RMK FG1SF7 CIG RAG SLP114

CYHM;2008-07-20 12:00;CYHM 201200Z 07007KT 2SM BR OVC004 20/19 A2986 RMK FG1SF7 /R14/ SLP111

CYHM;2008-07-20 12:40;CYHM 201240Z 08015KT 1 1/4SM BR OVC002 RMK FG2SF6

CYHM;2008-07-20 13:00;CYHM 201300Z 06015KT 3/4SM BR OVC002 20/19 A2986 RMK FG3SF5 SLP110

CYHM;2008-07-20 13:15;CYHM 201315Z 05003KT 3/8SM FG VV001 RMK FG8

CYHM;2008-07-20 14:00;CYHM 201400Z 05002KT 1/4SM -DZ FG VV001 20/19 A2986 RMK FG8 SLP109

CYHM;2008-07-20 14:46;CYHM 201446Z 03002KT 1/2SM FG VV002 RMK FG8

CYHM;2008-07-20 15:00;CYHM 201500Z 02002KT 3/8SM FG VV002 20/20 A2986 RMK FG8 SLP110

CYHM;2008-07-20 15:05;CYHM 201505Z 01003KT 1/2SM FG VV002 RMK FG8

CYHM;2008-07-20 16:00;CYHM 201600Z 03006KT 1/4SM FG VV002 20/19 A2987 RMK FG8 SLP114

CYHM;2008-07-20 16:14;CYHM 201614Z 05008KT 1SM -DZ BR OVC002 RMK FG5SF3

CYHM;2008-07-20 16:34;CYHM 201634Z 05008KT 1 1/2SM -DZ BR OVC002 RMK FG2SF6

CYHM;2008-07-20 16:51;CYHM 201651Z 06008KT 2 1/2SM -DZ BR OVC002 RMK FG1SF7

CYHM;2008-07-20 17:00;CYHM 201700Z 06007KT 2 1/2SM -DZ BR OVC002 20/19 A2987 RMK FG1SF7 SLP114

CYHM;2008-07-20 17:26;CYHM 201726Z 06006KT 4SM -RA BR BKN003 OVC020 RMK SF7SC1

CYHM;2008-07-20 18:00;CYHM 201800Z 06006KT 4SM -RA BR OVC003 20/19 A2987 RMK SF8 PCPN VRY LGT SLP113

CYHM;2008-07-20 19:00;CYHM 201900Z 07004KT 5SM BR OVC003 20/19 A2988 RMK SF8 SLP115

CYHM;2008-07-20 20:00;CYHM 202000Z 07005KT 4SM BR OVC004 20/19 A2988 RMK SF8 SLP115

CYHM;2008-07-20 21:00;CYHM 202100Z 05004KT 010V090 8SM BKN005 OVC012 21/19 A2988 RMK SF6SC2 SLP115

CYHM;2008-07-20 21:39;CYHM 202139Z 05004KT 12SM BKN006 BKN032 RMK SC5SC2

CYHM;2008-07-20 22:00;CYHM 202200Z 01002KT 15SM BKN006 BKN028 21/20 A2987 RMK SC6SC1 SLP114

CYHM;2008-07-20 22:49;CYHM 202249Z 02002KT 15SM SCT007 BKN028 RMK SC3SC4

CYHM;2008-07-20 23:00;CYHM 202300Z 34002KT 15SM SCT008 BKN028 22/20 A2988 RMK SC3SC4 SLP115

CYHM;2008-07-20 23:31;CYHM 202331Z 33002KT 6SM -DZ FEW008 BKN026 RMK SC2SC6

CYHM;2008-07-21 00:00;CYHM 210000Z 32002KT 6SM -DZ FEW008 BKN016 OVC027 21/20 A2988 RMK CF2SC4SC2 SLP116

CYHM;2008-07-21 00:46;CYHM 210046Z 35004KT 2 1/2SM -SHRA BR BKN005 OVC050 RMK FG2SF5SC2

CYHM;2008-07-21 01:00;CYHM 210100Z 03003KT 3SM -SHRA BR FEW008 SCT012 OVC047 20/19 A2988 RMK SF2SC2SC4 VIS VRB 2 - 4 SLP116

CYHM;2008-07-21 01:20;CYHM 210120Z 35007KT 7SM FEW018 BKN048 RMK CF2SC6

CYHM;2008-07-21 01:48;CYHM 210148Z 36006KT 10SM BKN009 OVC045 RMK CF6SC2

CYHM;2008-07-21 02:00;CYHM 210200Z 36007KT 8SM BKN011 OVC043 20/19 A2990 RMK CF6SC2 SLP123

CYHM;2008-07-21 02:20;CYHM 210220Z 01004KT 12SM BKN017 OVC033 RMK SC6SC2

CYHM;2008-07-21 03:00;CYHM 210300Z 35003KT 10SM SCT011 BKN027 19/18 A2991 RMK CF3SC2 SLP126

CYHM;2008-07-21 03:26;CYHM 210326Z 00000KT 7SM OVC010 RMK SC8

CYHM;2008-07-21 04:00;CYHM 210400Z 00000KT 6SM BR OVC007 19/19 A2990 RMK SF8 SLP124

CYHM;2008-07-21 05:00;CYHM 210500Z 02005KT 6SM BR FEW007 BKN010 BKN022 19/18 A2990 RMK SF2SC4SC2 SLP123

CYHM;2008-07-21 05:29;CYHM 210529Z 05005KT 6SM BR FEW010 BKN021 RMK CF2SC5

CYHM;2008-07-21 06:00;CYHM 210600Z 05003KT 7SM FEW010 SCT020 19/18 A2989 RMK CF1SC3 SLP121

CYHM;2008-07-21 07:00;CYHM 210700Z 00000KT 8SM FEW022 SCT130 BKN190 18/17 A2989 RMK SC1AC2AC2 SLP120

CYHM;2008-07-21 08:00;CYHM 210800Z 00000KT 7SM -SHRA FEW100 BKN130 18/17 A2987 RMK AC2AC5 SLP113

CYHM;2008-07-21 09:00;CYHM 210900Z 00000KT 7SM BKN120 17/17 A2987 RMK AC5 SLP112

CYHM;2008-07-21 09:43;CYHM 210943Z 00000KT 1 1/2SM BR FEW120 RMK FG1AC2 VIS VRB 1 - 2

CYHM;2008-07-21 10:00;CYHM 211000Z 00000KT 1SM BR FEW050 SCT120 16/16 A2987 RMK FG2CU1AC1 VIS VRB 3/4 - 11/4 SLP113

CYHM;2008-07-21 10:47;CYHM 211047Z 00000KT 2SM BR FEW055 FEW100 RMK CU1AC1

CYHM;2008-07-21 11:00;CYHM 211100Z 00000KT 3SM BR FEW055 FEW100 17/17 A2987 RMK CU1AC1 SLP114

CYHM;2008-07-21 12:00;CYHM 211200Z 00000KT 5SM BR SCT004 BKN035 BKN100 19/18 A2989 RMK SF3SC3AC1 CU ASOCTD SLP120

CYHM;2008-07-21 12:30;CYHM 211230Z 00000KT 5SM BR BKN006 OVC035 RMK SF6SC2

CYHM;2008-07-21 13:00;CYHM 211300Z 00000KT 8SM BKN006 OVC013 20/18 A2989 RMK SF6SC2 SLP119

CYHM;2008-07-21 14:00;CYHM 211400Z 26004KT 6SM BR OVC006 20/19 A2989 RMK SF8 SLP119

CYHM;2008-07-21 15:00;CYHM 211500Z 28002KT 6SM BR BKN005 OVC012 21/20 A2990 RMK SF6SC2 SLP123

CYHM;2008-07-21 16:00;CYHM 211600Z 29006KT 6SM HZ SCT009 OVC031 22/20 A2991 RMK SF4SC4 SLP127

CYHM;2008-07-21 17:00;CYHM 211700Z 32005KT 10SM SCT020 BKN026 BKN160 25/20 A2989 RMK CU3SC2AC1 SLP121

CYHM;2008-07-21 18:00;CYHM 211800Z 05006KT 15SM FEW025 SCT038 BKN082 BKN180 26/20 A2988 RMK CU2SC2AC2AC1 SLP114

CYHM;2008-07-21 18:04;CYHM 211804Z 35010KT 8SM -TSRA FEW018 BKN024CB OVC090 RMK SF1CB6AC1 LTNG

CYHM;2008-07-21 18:09;CYHM 211809Z 34024G38KT 1/2SM +TSRA SCT013 OVC024CB RMK RA3SF1CB4

CYHM;2008-07-21 18:22;CYHM 211822Z 06008G16KT 6SM -TSRA FEW015 SCT024CB BKN058 OVC100 RMK SF1CB2SC4AC1

CYHM;2008-07-21 18:33;CYHM 211833Z 00000KT 15SM TS VCSH FEW024CB BKN052 BKN100 RMK CB2SC3AC1

CYHM;2008-07-21 19:00;CYHM 211900Z 10006KT 15SM FEW040 BKN058 BKN100 21/19 A2989 RETS RMK SF1SC4AC2 SLP120

CYHM;2008-07-21 20:00;CYHM 212000Z 09009KT 15SM FEW016 FEW054 SCT250 22/19 A2989 RMK CF1SC1CI1 CUFRA TR TCU ASOCTD SLP120

CYHM;2008-07-21 21:00;CYHM 212100Z 13006KT 12SM BKN016 BKN054 BKN250 22/19 A2988 RMK SC5SC1CI1 SLP117

CYHM;2008-07-21 22:00;CYHM 212200Z 08008KT 15SM FEW015 FEW054 BKN110 BKN250 22/18 A2988 RMK SC2SC1AC3CI1 SF ASOCTD SLP118

CYHM;2008-07-21 23:00;CYHM 212300Z 03008KT 15SM FEW024 FEW110 BKN250 22/17 A2987 RMK SC1AC1CI2 SC TR SLP114

CYHM;2008-07-22 00:00;CYHM 220000Z 05006KT 15SM FEW042 FEW110 SCT250 21/17 A2988 RMK SC1AC1CI1 AC TR SLP116

CYHM;2008-07-22 01:00;CYHM 220100Z 05005KT 15SM FEW024 FEW120 SCT250 19/17 A2988 RMK SC1AC1CI1 SC TR SLP116

CYHM;2008-07-22 02:00;CYHM 220200Z 06004KT 15SM FEW110 FEW250 18/16 A2990 RMK AC1CI1 SLP123

CYHM;2008-07-22 03:00;CYHM 220300Z 05003KT 15SM FEW016 BKN032 BKN110 18/16 A2991 RMK SC2SC2AC1 SLP127

CYHM;2008-07-22 04:00;CYHM 220400Z 06005KT 15SM FEW018 SCT034 BKN082 18/16 A2991 RMK SC2SC2AC2 SLP126

CYHM;2008-07-22 05:00;CYHM 220500Z 07005KT 15SM SCT002 SCT034 BKN080 BKN160 18/17 A2989 RMK SC3SC1AC1AC1 SLP122

CYHM;2008-07-22 06:00;CYHM 220600Z 03005KT 15SM SCT002 BKN084 BKN160 18/17 A2990 RMK SC4AC1AC1 SLP122

CYHM;2008-07-22 07:00;CYHM 220700Z 04005KT 1SM BR BKN002 18/18 A2989 RMK SF7 SLP118

CYHM;2008-07-22 08:00;CYHM 220800Z 04004KT 2 1/2SM BR FEW002 SCT026 BKN110 BKN250 18/18 A2989 RMK SF1SC1AC2CI1 CI TR SLP119

CYHM;2008-07-22 09:00;CYHM 220900Z 04003KT 4SM BR FEW002 FEW040 SCT110 SCT250 18/18 A2990 RMK SF1SC1AC2CI0 CI TR SLP122

CYHM;2008-07-22 09:45;CYHM 220945Z 03005KT 1 1/2SM BR BKN002 BKN040 BKN120 RMK SF2SC1AC1

CYHM;2008-07-22 10:00;CYHM 221000Z 02003KT 1 1/4SM BR BKN003 BKN080 BKN120 18/17 A2990 RMK SF2AC1AC1 SLP122

CYHM;2008-07-22 10:27;CYHM 221027Z 02002KT 2SM BR FEW005 SCT018 BKN038 BKN120 RMK SF2SC2SC2AC1

CYHM;2008-07-22 11:00;CYHM 221100Z 02002KT 2SM BR FEW009 FEW020 BKN058 BKN120 19/18 A2990 RMK SF1CU1SC3AC2 SLP123

CYHM;2008-07-22 12:00;CYHM 221200Z 02006KT 3SM BR OVC005 19/19 A2992 RMK SF8 SLP132

CYHM;2008-07-22 13:00;CYHM 221300Z 07006KT 10SM BKN009 BKN021 21/19 A2992 RMK SF6SC2 SLP132

CYHM;2008-07-22 14:00;CYHM 221400Z 04007KT 10SM SCT009 OVC018 21/19 A2993 RMK SF4SC4 SLP133

CYHM;2008-07-22 15:00;CYHM 221500Z 05007KT 10SM SCT010 BKN017 BKN040 21/18 A2993 RMK CF3SC3SC1 SLP135

CYHM;2008-07-22 16:00;CYHM 221600Z 06007KT 15SM SCT025 SCT045 23/19 A2993 RMK CU3SC1 SLP134

CYHM;2008-07-22 17:00;CYHM 221700Z 05006KT 15SM SCT025 SCT055 24/18 A2992 RMK CU3SC1 SLP131

CYHM;2008-07-22 18:00;CYHM 221800Z 06006KT 15SM SCT021 BKN029 24/18 A2992 RMK CU3SC2 SLP129

CYHM;2008-07-22 19:00;CYHM 221900Z 08005KT 15SM FEW022 24/19 A2991 RMK CU2 TCU ASOCTD SLP125

CYHM;2008-07-22 19:50;CYHM 221950Z 04015KT 15SM -SHRA FEW024 BKN038 RMK SF1SC6 TCU EMBDED

CYHM;2008-07-22 20:00;CYHM 222000Z 03015KT 15SM -SHRA FEW024 BKN038 22/18 A2992 RMK SF1SC6 TCU EMBDED SLP130

CYHM;2008-07-22 20:15;CYHM 222015Z 03008KT 15SM -TSRA FEW024 BKN038 RMK SF1SC6 CB ASOCTD TCU EMBDED

CYHM;2008-07-22 21:00;CYHM 222100Z 12008KT 12SM TSRA FEW032 OVC046CB 20/18 A2994 RMK SF2CB6 SLP138

CYHM;2008-07-22 21:43;CYHM 222143Z 07004KT 15SM TS FEW010 SCT050CB BKN110 BKN250 RMK SF1CB3AC3CI1 SF TR

CYHM;2008-07-22 22:00;CYHM 222200Z 08010KT 15SM TS FEW010 FEW046CB SCT110 BKN230 20/18 A2992 RMK SF1CB2AC2CS3 SF TR SLP130

CYHM;2008-07-22 22:45;CYHM 222245Z 09010KT 15SM -TSRA FEW006 BKN120 BKN230 RMK SF1AC6CI1 CB ASOCTD

CYHM;2008-07-22 23:00;CYHM 222300Z 07008KT 15SM -TSRA FEW006 BKN110 BKN230 20/18 A2992 RMK SF1AC6CI1 CB ASOCTD SLP130

CYHM;2008-07-22 23:10;CYHM 222310Z 07006KT 15SM -SHRA FEW006 BKN110 BKN250 RETS RMK SF1AC6CI1 SF TR TCU ASOCTD

CYHM;2008-07-22 23:49;CYHM 222349Z CCA 07008KT 15SM FEW006 BKN100 BKN250 RETS RMK SF1AC6CI1 SF TR

CYHM;2008-07-23 00:00;CYHM 230000Z CCA 07008KT 15SM FEW006 BKN098 BKN250 20/18 A2991 RETS RMK SF1AC6CI1 SF TR SLP126

CYHM;2008-07-23 00:45;CYHM 230045Z 06005KT 15SM -SHRA FEW038 BKN083 BKN250 RMK SC2AC5CI1 LTNG

CYHM;2008-07-23 01:00;CYHM 230100Z 05004KT 15SM -TSRA FEW044CB BKN078 BKN120 BKN250 20/18 A2991 RMK CB1AC5AC1CI1 SLP126

CYHM;2008-07-23 02:00;CYHM 230200Z 27010G16KT 1 1/2SM +TSRA SCT012 OVC032CB 17/17 A2996 RMK RA2CF2CB5 LTGICCG SLP143

CYHM;2008-07-23 02:19;CYHM 230219Z 34009KT 7SM -TSRA FEW012 BKN033CB BKN065 RERA RMK CF2CB4SC2 /R26/ LTGICCG

CYHM;2008-07-23 03:00;CYHM 230300Z 29007KT 15SM -TSRA FEW007 BKN033CB OVC054 18/17 A2997 RERA RMK CF2CB2SC3 LTGIC SLP148

CYHM;2008-07-23 04:00;CYHM 230400Z 03005KT 10SM -TSRA FEW008 FEW035CB OVC094 17/16 A2995 RERA RMK CF1CB2AC6 SLP140

CYHM;2008-07-23 05:00;CYHM 230500Z 07011KT 15SM SCT003 BKN100 17/16 A2991 RETS RMK CF4AC3 SLP129

CYHM;2008-07-23 06:00;CYHM 230600Z 08002KT 15SM BKN110 16/15 A2991 RMK AC7 SLP128

CYHM;2008-07-23 07:00;CYHM 230700Z 00000KT 15SM BKN110 15/14 A2991 RMK AC6 SLP127

CYHM;2008-07-23 08:00;CYHM 230800Z 34005KT 15SM BKN037 16/15 A2991 RMK SC7 SLP127

CYHM;2008-07-23 09:00;CYHM 230900Z 01005KT 8SM BKN040 BKN080 17/16 A2992 RMK SC6AC1 SLP131

CYHM;2008-07-23 10:00;CYHM 231000Z 04006KT 5SM BR BKN033 17/16 A2991 RMK SC7 CU ASOCTD SLP129

CYHM;2008-07-23 11:00;CYHM 231100Z 05007KT 4SM BR BKN005 BKN016 17/16 A2992 RMK SF5SC2 SLP132

CYHM;2008-07-23 11:44;CYHM 231144Z 06010KT 7SM BKN013 BKN048 RMK SC6SC2

CYHM;2008-07-23 12:00;CYHM 231200Z 04008KT 7SM BKN016 BKN045 18/17 A2993 RMK SC6SC2 SLP133

CYHM;2008-07-23 13:00;CYHM 231300Z 03012KT 15SM FEW009 SCT016 BKN045 19/17 A2992 RMK CF2SC2SC2 SLP131

CYHM;2008-07-23 14:00;CYHM 231400Z 06010KT 15SM BKN009 OVC015 19/17 A2991 RMK SF6SC2 SLP128

CYHM;2008-07-23 15:00;CYHM 231500Z 04012KT 15SM BKN008 BKN015 OVC019 19/17 A2992 RMK SF5SC2SC1 SLP130

CYHM;2008-07-23 15:58;CYHM 231558Z 03014KT 15SM -SHRA BKN009 OVC016 RMK SC6SC2

CYHM;2008-07-23 16:00;CYHM 231600Z 03014KT 15SM -SHRA BKN009 OVC016 19/17 A2991 RMK SC6SC2 SLP128

CYHM;2008-07-23 16:10;CYHM 231610Z 03010KT 15SM -TSRA BKN010 OVC018 RMK SC6SC2 CB EMBDD

CYHM;2008-07-23 16:27;CYHM 231627Z 03008KT 10SM -TSRA BKN013 OVC018 RMK SC6SC2 CB EMBDD LTNG

CYHM;2008-07-23 17:00;CYHM 231700Z 34008KT 3SM -TSRA BR BKN015 OVC037 18/17 A2994 RMK SC6SC2 CB EMBDD LTNG SLP138

CYHM;2008-07-23 18:00;CYHM 231800Z 04010KT 5SM -TSRA BR FEW008 SCT014CB BKN036 BKN041 18/17 A2993 RMK SF2CB2SC2SC1 SLP135

CYHM;2008-07-23 18:30;CYHM 231830Z CCA 01017KT 8SM FEW018 BKN035 BKN110 RETS RMK CF2CU3AC2 TCU ASOCTD

CYHM;2008-07-23 19:00;CYHM 231900Z 36013KT 10SM SCT014 BKN019 20/17 A2994 RETS RMK CU3SC4 TCU EMBD SLP138

CYHM;2008-07-23 20:00;CYHM 232000Z 36012KT 12SM SCT017 BKN022 BKN250 21/17 A2994 RMK CU4SC2CI1 CI TR SLP137

CYHM;2008-07-23 21:00;CYHM 232100Z 36011KT 15SM SCT018 BKN025 21/16 A2994 RMK CU3SC3 TCU ASOCTD SLP136

CYHM;2008-07-23 22:00;CYHM 232200Z 36012KT 15SM FEW025 SCT035 BKN083 BKN100 BKN240 21/16 A2994 RMK CU2SC2AC2AC2CI0 TCU ASOCTD SLP137

CYHM;2008-07-23 23:00;CYHM 232300Z 36011KT 15SM BKN030TCU BKN080 BKN250 21/15 A2993 RMK TCU5AC2CI0 CI TR SLP135

CYHM;2008-07-24 00:00;CYHM 240000Z 35007KT 15SM SCT030TCU BKN090 BKN250 20/15 A2994 RMK TCU3AC2CI1 SLP138

CYHM;2008-07-24 01:00;CYHM 240100Z 34006KT 15SM FEW030 SCT100 BKN250 18/15 A2994 RMK CU2AC2CI1 TCU ASOCTD SLP137

CYHM;2008-07-24 02:00;CYHM 240200Z 32003KT 12SM FEW030 BKN110 18/15 A2995 RMK SC2AC3 SLP140

CYHM;2008-07-24 03:00;CYHM 240300Z 34007KT 15SM FEW036 FEW050 BKN100 18/15 A2994 RMK CF1SC2AC5 SLP138

CYHM;2008-07-24 04:00;CYHM 240400Z 34007KT 15SM FEW063 BKN120 18/15 A2995 RMK SC2AC6 SLP140

CYHM;2008-07-24 05:00;CYHM 240500Z 34007KT 15SM FEW055 BKN120 18/15 A2994 RMK SC2AC5 SLP139

CYHM;2008-07-24 06:00;CYHM 240600Z 34008KT 15SM BKN066 BKN120 17/14 A2994 RMK AC5AC1 SLP137

CYHM;2008-07-24 07:00;CYHM 240700Z 32006KT 15SM FEW050 BKN110 17/14 A2993 RMK SC1AC6 SLP134

CYHM;2008-07-24 08:00;CYHM 240800Z 34003KT 15SM SCT110 BKN240 16/14 A2992 RMK AC3CI2 SLP131

CYHM;2008-07-24 09:00;CYHM 240900Z 26003KT 15SM FEW075 FEW110 BKN250 15/14 A2993 RMK AC1AC2CI3 SLP133

CYHM;2008-07-24 10:00;CYHM 241000Z 31004KT 15SM VCSH BKN084 BKN220 16/14 A2993 RMK AC6CI2 SLP135

CYHM;2008-07-24 11:00;CYHM 241100Z 28005KT 15SM VCSH BKN079 BKN100 16/14 A2994 RMK AC5AC2 SLP138

CYHM;2008-07-24 12:00;CYHM 241200Z 27005KT 10SM SCT075 BKN120 BKN210 16/14 A2995 RMK AC3AC2CI1 SLP143

CYHM;2008-07-24 13:00;CYHM 241300Z 25007KT 15SM FEW030 BKN087 BKN130 17/14 A2996 RMK CU2AC4AC2 SLP145

CYHM;2008-07-24 14:00;CYHM 241400Z 24005KT 15SM FEW080 BKN097 17/14 A2996 RMK AC2AC5 SLP145

CYHM;2008-07-24 15:00;CYHM 241500Z 22002KT 15SM FEW080 BKN098 BKN210 19/15 A2996 RMK AC2AC2CI1 SLP146

CYHM;2008-07-24 16:00;CYHM 241600Z 27008KT 15SM FEW040 SCT120 BKN180 BKN210 23/14 A2996 RMK CU2AC2AC2CI1 SLP145

CYHM;2008-07-24 17:00;CYHM 241700Z 32010KT 15SM SCT042 SCT140 BKN210 24/14 A2995 RMK CU3AC1CI2 SLP143

CYHM;2008-07-24 18:00;CYHM 241800Z 27009KT 15SM SCT055 BKN062 BKN210 25/15 A2994 RMK CU3SC2CI1 SLP137

CYHM;2008-07-24 19:00;CYHM 241900Z 28007KT 230V320 15SM BKN052 BKN230 25/15 A2994 RMK CU5CI0 SLP136

CYHM;2008-07-24 20:00;CYHM 242000Z 35002KT 15SM SCT055 SCT230 24/15 A2995 RMK CU3CI1 WND L/V SLP139

CYHM;2008-07-24 20:50;CYHM 242050Z 10002KT 15SM TS VCSH BKN058 BKN230 RMK CU6CI1 CB ASOCTD

CYHM;2008-07-24 21:00;CYHM 242100Z 08002KT 15SM TS VCSH BKN058 BKN230 23/14 A2995 RMK CU6CI1 CB ASOCTD WND L/V SLP142

CYHM;2008-07-24 21:39;CYHM 242139Z 12003KT 060V140 15SM BKN058 RETS RMK CU6

CYHM;2008-07-24 22:00;CYHM 242200Z 14004KT 15SM BKN057 24/14 A2996 RETS RMK CU5 SLP145

CYHM;2008-07-24 23:00;CYHM 242300Z 28009KT 15SM FEW056 24/14 A2998 RMK CU2 SLP150

CYHM;2008-07-25 00:00;CYHM 250000Z CCA 27006KT 15SM FEW055 23/14 A2999 RMK CU2 CB ASOCTD TOPS DSNT E SLP153

CYHM;2008-07-25 01:00;CYHM 250100Z 27005KT 15SM FEW055CB FEW120 21/13 A3000 RMK CB1AC1 BOTH LYRS TR CB TOP DSNT E SLP156

CYHM;2008-07-25 02:00;CYHM 250200Z 26004KT 15SM FEW120 19/13 A3001 RMK AC1 AC TR SLP160

CYHM;2008-07-25 03:00;CYHM 250300Z 25004KT 15SM SKC 17/12 A3001 RMK SLP163

CYHM;2008-07-25 04:00;CYHM 250400Z 23003KT 15SM SKC 14/12 A3002 RMK SLP166

CYHM;2008-07-25 05:00;CYHM 250500Z 25004KT 15SM FEW220 16/12 A3002 RMK CI1 SLP166

CYHM;2008-07-25 06:00;CYHM 250600Z 24003KT 15SM FEW220 15/12 A3002 RMK CI1 SLP164

CYHM;2008-07-25 07:00;CYHM 250700Z 21003KT 15SM FEW065 FEW220 14/12 A3002 RMK SC1CI1 SLP164

CYHM;2008-07-25 08:00;CYHM 250800Z 23003KT 15SM FEW065 FEW099 15/13 A3003 RMK SC1AC2 SLP166

CYHM;2008-07-25 09:00;CYHM 250900Z 22002KT 15SM FEW098 14/13 A3004 RMK AC2 SLP171

CYHM;2008-07-25 10:00;CYHM 251000Z 22003KT 15SM FEW098 FEW220 14/13 A3004 RMK AC2CI0 SLP171

CYHM;2008-07-25 11:00;CYHM 251100Z 22004KT 15SM FEW100 SCT210 15/14 A3005 RMK AC1CI1 SLP176

CYHM;2008-07-25 12:00;CYHM 251200Z 23006KT 15SM FEW100 FEW210 18/15 A3006 RMK AC1CI1 AC TR SLP179

CYHM;2008-07-25 13:00;CYHM 251300Z 24010KT 15SM FEW100 FEW210 20/15 A3006 RMK AC1CI1 CI TR SLP179

CYHM;2008-07-25 14:00;CYHM 251400Z 23009KT 15SM FEW190 FEW240 22/15 A3007 RMK AC1CI1 SLP182

CYHM;2008-07-25 15:00;CYHM 251500Z 25008KT 15SM FEW035 FEW190 24/15 A3007 RMK CU1AC1 CU TR SLP183

CYHM;2008-07-25 16:00;CYHM 251600Z 23014KT 15SM FEW040 FEW160 25/15 A3007 RMK CU1AC1 AC TR SLP182

CYHM;2008-07-25 17:00;CYHM 251700Z 26007KT 15SM FEW048 SCT210 26/15 A3006 RMK CU2CI0 CI TR SLP179

CYHM;2008-07-25 18:00;CYHM 251800Z 24012KT 15SM FEW048 26/14 A3006 RMK CU2 SLP178

CYHM;2008-07-25 19:00;CYHM 251900Z 23013KT 15SM SCT056 BKN077 26/15 A3005 RMK CU4AC1 TCU ASOCTD SLP175

CYHM;2008-07-25 20:00;CYHM 252000Z 23015KT 15SM FEW058 SCT120 27/14 A3004 RMK CU2AC1 TCU ASOCTD SLP172

CYHM;2008-07-25 21:00;CYHM 252100Z 22013KT 15SM FEW056 26/14 A3003 RMK CU2 SLP166

CYHM;2008-07-25 22:00;CYHM 252200Z 23014KT 15SM FEW060 FEW250 26/13 A3003 RMK CU1CI1 CONTRAILS SLP166

CYHM;2008-07-25 23:00;CYHM 252300Z 23013KT 15SM FEW060 FEW250 25/14 A3001 RMK CU1CI1 TR CU SLP159

CYHM;2008-07-26 00:00;CYHM 260000Z 22007KT 15SM FEW250 23/14 A3000 RMK CI1 SLP157

CYHM;2008-07-26 01:00;CYHM 260100Z 22008KT 15SM SCT058 BKN250 20/15 A3000 RMK SC3CI1 SLP157

CYHM;2008-07-26 02:00;CYHM 260200Z 22007KT 15SM FEW055 SCT250 19/15 A3000 RMK SC1CI2 SLP158

CYHM;2008-07-26 03:00;CYHM 260300Z 21007KT 15SM FEW063 FEW250 18/14 A3000 RMK SC1CI1 TR SC SLP157

CYHM;2008-07-26 04:00;CYHM 260400Z 21007KT 15SM FEW063 FEW250 19/16 A2999 RMK SC2CI0 SLP154

CYHM;2008-07-26 05:00;CYHM 260500Z 20010KT 15SM FEW057 FEW250 20/16 A2997 RMK SC1CI2 SLP147

CYHM;2008-07-26 06:00;CYHM 260600Z 20008KT 15SM FEW120 FEW250 19/17 A2995 RMK AC2CI1 SLP138

CYHM;2008-07-26 07:00;CYHM 260700Z 20006KT 15SM FEW250 19/16 A2994 RMK CI2 SLP137

CYHM;2008-07-26 08:00;CYHM 260800Z 20004KT 15SM FEW250 18/16 A2993 RMK CI1 SLP133

CYHM;2008-07-26 09:00;CYHM 260900Z 23007KT 15SM FEW160 BKN190 BKN220 19/17 A2993 RMK AC1AC5CI2 SLP131

CYHM;2008-07-26 10:00;CYHM 261000Z 22007KT 15SM FEW030 BKN054 OVC150 20/18 A2992 RMK CF1SC6AC2 ACC ASOCTD SLP129

CYHM;2008-07-26 11:00;CYHM 261100Z 21006KT 15SM FEW072 BKN150 BKN220 20/18 A2991 RMK AC2AC3CI0 SLP125

CYHM;2008-07-26 12:00;CYHM 261200Z 23005KT 15SM BKN038 OVC160 20/18 A2991 RMK SC7AC1 SLP128

CYHM;2008-07-26 13:00;CYHM 261300Z 22004KT 15SM BKN036 OVC055 21/19 A2991 RMK SC7SC1 SLP127

CYHM;2008-07-26 14:00;CYHM 261400Z 21007KT 15SM SCT036 BKN055 22/20 A2990 RMK SC4SC3 SLP122

CYHM;2008-07-26 14:17;CYHM 261417Z 21008KT 15SM TS FEW030CB SCT055 BKN150 RMK CB2SC2AC2 CB S

CYHM;2008-07-26 14:54;CYHM 261454Z CCA 21013G20KT 15SM -TSRA FEW015 BKN035 BKN055 RMK CF1SC5SC2 CB EMBDD

CYHM;2008-07-26 15:00;CYHM 261500Z 21013G20KT 15SM -TSRA FEW015 BKN035 BKN055 22/19 A2989 RMK CF1SC5SC2 CB EMBDD PCPN VRY LGT SLP121

CYHM;2008-07-26 15:30;CYHM 261530Z 20012KT 15SM FEW035 FEW055 BKN082 RETS RMK CU1SC2AC4

CYHM;2008-07-26 16:00;CYHM 261600Z 18011KT 15SM FEW035 SCT056 24/20 A2987 RETS RMK CU2SC2 SLP114

CYHM;2008-07-26 17:00;CYHM 261700Z 19010KT 150V240 15SM SCT023 BKN078 25/20 A2983 RMK CU4AC3 SLP099

CYHM;2008-07-26 17:07;CYHM 261707Z 20014KT 15SM TS BKN021 BKN078 RMK CU6AC2 CB EMBDD

CYHM;2008-07-26 17:19;CYHM 261719Z 19014KT 15SM -TSRA BKN018CB BKN072 RMK CB6AC1 LTGCG

CYHM;2008-07-26 18:00;CYHM 261800Z 19011KT 2 1/2SM TSRA BR BKN011 OVC018CB 22/21 A2981 RERA RMK CF5CB3 SLP094

CYHM;2008-07-26 18:14;CYHM 261814Z 23009KT 1 3/4SM TSRA BR BKN009 OVC019CB RMK FG2SF3CB3 LTGCG

CYHM;2008-07-26 18:35;CYHM 261835Z CCA 22012G20KT 3SM -TSRA BR SCT010 BKN022CB RMK CF4CB3 LTGCG S

CYHM;2008-07-26 19:00;CYHM 261900Z 21006KT 4SM -TSRA HZ FEW012 BKN021CB BKN060 22/19 A2982 RMK CF2CB2SC2 LTGCG SE-S SLP095

CYHM;2008-07-26 20:00;CYHM 262000Z 21012KT 1 3/4SM TSRA BR SCT012 BKN025CB BKN050 20/19 A2983 RMK FG2CF2CB2SC2 /R10/ LTNG SLP100

CYHM;2008-07-26 20:22;CYHM 262022Z 21013KT 3SM -TSRA BR FEW012 SCT025CB BKN050 RMK CF2CB2SC2

CYHM;2008-07-26 20:39;CYHM 262039Z 20011KT 7SM FEW015 FEW025CB SCT050 RETSRA RMK CF1CB2SC2

CYHM;2008-07-26 21:00;CYHM 262100Z 21011KT 9SM SCT025 BKN055 23/19 A2980 RETSRA RMK CU4SC1 CB ASOCTD SLP090

CYHM;2008-07-26 21:18;CYHM 262118Z 21008KT 6SM -SHRA SCT025 BKN055 RMK CU3SC2

CYHM;2008-07-26 22:00;CYHM 262200Z 22009KT 7SM SCT028 SCT055 23/20 A2981 RMK CU3SC1 HZ TCU ASOCTD SLP091

CYHM;2008-07-26 23:00;CYHM 262300Z 25005KT 220V280 8SM FEW025 FEW050 24/20 A2978 RMK CU1SC1 HZ SLP084

CYHM;2008-07-27 00:00;CYHM 270000Z 25005KT 8SM FEW028 FEW045 23/20 A2980 RMK CU1SC1 HZ SLP089

CYHM;2008-07-27 01:00;CYHM 270100Z 25004KT 7SM FEW050 22/20 A2981 RMK SC1 HZ SC TR SLP092

CYHM;2008-07-27 02:00;CYHM 270200Z CCB 24003KT 10SM SKC 20/18 A2981 RMK SLP093

CYHM;2008-07-27 03:00;CYHM 270300Z 26004KT 15SM SKC 19/16 A2982 RMK SLP095

CYHM;2008-07-27 04:00;CYHM 270400Z 29003KT 15SM SKC 18/14 A2983 RMK SLP098

CYHM;2008-07-27 05:00;CYHM 270500Z 30004KT 15SM SKC 17/14 A2984 RMK SLP101

CYHM;2008-07-27 06:00;CYHM 270600Z 24004KT 15SM SKC 14/13 A2984 RMK SLP105

CYHM;2008-07-27 07:00;CYHM 270700Z 28005KT 15SM FEW250 15/14 A2984 RMK CI1 SLP103

CYHM;2008-07-27 08:00;CYHM 270800Z 28003KT 15SM FEW250 15/14 A2983 RMK CI1 SLP101

CYHM;2008-07-27 09:00;CYHM 270900Z 28005KT 15SM FEW250 15/14 A2983 RMK CI1 SLP099

CYHM;2008-07-27 10:00;CYHM 271000Z 25004KT 3SM BR FEW250 13/12 A2984 RMK CI2 VIS SE 1 SLP103

CYHM;2008-07-27 10:23;CYHM 271023Z 21004KT 3/8SM FG FEW250 RMK FG2CI1 VIS N 11/2

CYHM;2008-07-27 10:32;CYHM 271032Z 22004KT 3SM BR FEW250 RMK CI1 VIS SW 1

CYHM;2008-07-27 11:00;CYHM 271100Z 22003KT 9SM SKC 13/13 A2984 RMK SLP104

CYHM;2008-07-27 12:00;CYHM 271200Z 24005KT 15SM FEW020 FEW250 16/15 A2985 RMK CU1CI0 CU TR SLP107

CYHM;2008-07-27 13:00;CYHM 271300Z 24007KT 15SM FEW250 19/15 A2985 RMK CI0 SLP106

CYHM;2008-07-27 14:00;CYHM 271400Z 23008KT 15SM FEW120 SCT250 21/16 A2985 RMK AC2CI1 SLP106

CYHM;2008-07-27 15:00;CYHM 271500Z 22012KT 15SM FEW120 23/16 A2983 RMK AC1 SLP100

CYHM;2008-07-27 16:00;CYHM 271600Z 25012KT 220V300 15SM FEW035 23/16 A2984 RMK CU1 SLP102

CYHM;2008-07-27 17:00;CYHM 271700Z 23014KT 15SM FEW035 FEW250 25/16 A2984 RMK CU1CI0 SLP101

CYHM;2008-07-27 18:00;CYHM 271800Z 26008KT 15SM FEW040 BKN250 25/15 A2983 RMK CU1CI2 SLP101

CYHM;2008-07-27 19:00;CYHM 271900Z 23011KT 8SM FEW040 BKN080 BKN220 26/15 A2983 RMK CU2AC2CI1 HZ SLP100

CYHM;2008-07-27 20:00;CYHM 272000Z 24012KT 8SM FEW045 SCT080 BKN220 25/14 A2981 RMK CU1AC3CI1 HZ SLP093

CYHM;2008-07-27 21:00;CYHM 272100Z 24011KT 8SM FEW040 FEW060 SCT090 BKN200 25/14 A2980 RMK CU1SC1AC3CI3 CU TR SC TR HZ SLP088

CYHM;2008-07-27 22:00;CYHM 272200Z 21006KT 8SM FEW035 BKN085 BKN200 25/17 A2979 RMK CU1AC5CI2 HZ SLP087

CYHM;2008-07-27 23:00;CYHM 272300Z 25007KT 9SM FEW040 SCT060 BKN085 24/14 A2980 RMK CU1SC3AC3 HZ CU TR SLP090

CYHM;2008-07-28 00:00;CYHM 280000Z 26005KT 9SM SCT055 BKN085 23/14 A2981 RMK SC3AC4 HZ SLP092

CYHM;2008-07-28 01:00;CYHM 280100Z 23003KT 10SM VCSH SCT035 BKN060 OVC080 22/15 A2981 RMK SC3SC2AC3 SLP095

CYHM;2008-07-28 01:07;CYHM 280107Z CCA 29013G24KT 260V320 9SM -SHRA SCT035 BKN055 OVC080 RMK SC3SC2AC2 TCU EMBD

CYHM;2008-07-28 02:00;CYHM 280200Z 27008KT 240V300 10SM -SHRA FEW035 BKN050 OVC080 18/15 A2985 RMK SC2SC4AC2 SLP106

CYHM;2008-07-28 03:00;CYHM 280300Z 23007KT 2 1/2SM -RA BR OVC030 18/16 A2985 RMK FG1SC7 SLP106

CYHM;2008-07-28 03:18;CYHM 280318Z 13004KT 4SM -SHRA BR BKN030 OVC050 RMK SC5SC3

CYHM;2008-07-28 03:41;CYHM 280341Z 16007KT 10SM SCT030 OVC050 RMK SC4SC3

CYHM;2008-07-28 04:00;CYHM 280400Z 18005KT 10SM -SHRA SCT030 BKN050 OVC080 18/16 A2982 RMK SC3SC3AC2 SLP098

CYHM;2008-07-28 05:00;CYHM 280500Z 21005KT 12SM -SHRA SCT050 OVC080 18/16 A2984 RMK SC3AC5 PCPN VRY LGT SLP102

CYHM;2008-07-28 05:29;CYHM 280529Z 22004KT 12SM FEW050 OVC080 RMK SC2AC6

CYHM;2008-07-28 06:00;CYHM 280600Z 24002KT 15SM BKN080 18/16 A2984 RMK AC7 SLP101

CYHM;2008-07-28 07:00;CYHM 280700Z 20003KT 15SM BKN080 17/16 A2982 RMK AC6 SLP097

CYHM;2008-07-28 08:00;CYHM 280800Z 23004KT 15SM BKN100 17/16 A2983 RMK AC5 SLP099

CYHM;2008-07-28 09:00;CYHM 280900Z 23003KT 15SM BKN100 16/15 A2982 RMK AC6 SLP097

CYHM;2008-07-28 10:00;CYHM 281000Z 27003KT 12SM SCT050 BKN100 18/16 A2982 RMK SC3AC4 SLP097

CYHM;2008-07-28 11:00;CYHM 281100Z 25006KT 6SM BR FEW050 FEW100 SCT160 17/16 A2983 RMK SC1AC2AC1 SLP100

CYHM;2008-07-28 12:00;CYHM 281200Z 24007KT 15SM FEW050 FEW120 18/16 A2984 RMK SC1AC1 SC TR CI TR SLP104

CYHM;2008-07-28 13:00;CYHM 281300Z 26009KT 15SM FEW050 FEW100 20/17 A2985 RMK SC1AC1 SC TR SLP107

CYHM;2008-07-28 14:00;CYHM 281400Z 24008KT 15SM FEW120 22/18 A2986 RMK AC1 AC TR SLP109

CYHM;2008-07-28 15:00;CYHM 281500Z 25010KT 15SM SKC 24/18 A2986 RMK SLP111

CYHM;2008-07-28 16:00;CYHM 281600Z 26008KT 15SM FEW035 25/18 A2987 RMK CU1 SLP112

CYHM;2008-07-28 17:00;CYHM 281700Z 25008KT 15SM FEW035 26/18 A2986 RMK CU2 TCU ASOCTD SLP111

CYHM;2008-07-28 18:00;CYHM 281800Z 26010KT 15SM SCT038 SCT055 26/18 A2986 RMK CU3SC1 SLP108

CYHM;2008-07-28 19:00;CYHM 281900Z 26007KT 15SM BKN050 27/18 A2985 RMK SC5 TCU ASOCTD SC ASOCTD SLP106

CYHM;2008-07-28 20:00;CYHM 282000Z 28009KT 15SM SCT045TCU BKN250 27/17 A2986 RMK TCU3CI1 SC ASOCTD SLP108

CYHM;2008-07-28 21:00;CYHM 282100Z 28011KT 15SM FEW048TCU SCT260 27/16 A2986 RMK TCU2CI0 SLP110

CYHM;2008-07-28 22:00;CYHM 282200Z 27008KT 15SM FEW048TCU FEW260 27/16 A2987 RMK TCU1CI1 CU ASOCTD CI TR SLP111

CYHM;2008-07-28 23:00;CYHM 282300Z 28009KT 15SM FEW046TCU 26/16 A2988 RMK TCU1 CU ASOCTD SLP114

CYHM;2008-07-29 00:00;CYHM 290000Z 30007KT 15SM FEW046 24/16 A2988 RMK CU1 CU TR SLP118

CYHM;2008-07-29 01:00;CYHM 290100Z 29006KT 15SM FEW044 21/15 A2991 RMK CU1 CU TR SLP126

CYHM;2008-07-29 02:00;CYHM 290200Z 27005KT 15SM FEW044 20/14 A2994 RMK CU1 CU TR SLP135

CYHM;2008-07-29 03:00;CYHM 290300Z 29004KT 15SM SKC 19/14 A2994 RMK SLP137

CYHM;2008-07-29 04:00;CYHM 290400Z 31006KT 15SM FEW250 18/14 A2994 RMK CI1 CI TR SLP136

CYHM;2008-07-29 05:00;CYHM 290500Z 35003KT 15SM FEW250 18/15 A2994 RMK CI1 CI TR SLP138

CYHM;2008-07-29 06:00;CYHM 290600Z 00000KT 15SM FEW250 17/15 A2995 RMK CI1 CI TR SLP139

CYHM;2008-07-29 07:00;CYHM 290700Z 00000KT 15SM FEW250 15/14 A2994 RMK CI1 CI TR SLP138

CYHM;2008-07-29 08:00;CYHM 290800Z 26002KT 15SM FEW250 14/13 A2995 RMK CI1 CI TR SLP141

CYHM;2008-07-29 09:00;CYHM 290900Z 20003KT 15SM SKC 14/13 A2997 RMK SLP146

CYHM;2008-07-29 10:00;CYHM 291000Z 00000KT 12SM FEW210 14/13 A2997 RMK CI1 CONTRAILS SLP148

CYHM;2008-07-29 11:00;CYHM 291100Z 00000KT 15SM FEW210 14/13 A2996 RMK CI2 CONTRAIL SLP145

CYHM;2008-07-29 12:00;CYHM 291200Z 00000KT 15SM SCT210 17/15 A2997 RMK CI2 CONTRAIL SLP149

CYHM;2008-07-29 13:00;CYHM 291300Z 05005KT 15SM FEW025 FEW210 20/16 A2998 RMK CU1CI2 CU TR CONTRAIL SLP152

CYHM;2008-07-29 14:00;CYHM 291400Z 03002KT 15SM FEW030 FEW180 FEW210 21/15 A3000 RMK CU1AC1CI1 CU TR SLP156

CYHM;2008-07-29 15:00;CYHM 291500Z 00000KT 15SM FEW035 FEW160 SCT210 23/16 A2999 RMK CU1AC1CI1 AC TR SLP153

CYHM;2008-07-29 16:00;CYHM 291600Z 24002KT 15SM FEW032 FEW160 FEW210 24/15 A2998 RMK CU1AC1CI0 SLP151

CYHM;2008-07-29 17:00;CYHM 291700Z 27002KT 15SM FEW032 SCT210 24/16 A2997 RMK CU2CI1 SLP149

CYHM;2008-07-29 18:00;CYHM 291800Z 22004KT 15SM FEW035 SCT210 26/17 A2996 RMK CU2CI1 SLP144

CYHM;2008-07-29 19:00;CYHM 291900Z 27003KT 15SM FEW038 BKN250 26/15 A2995 RMK CU1CI1 SLP140

CYHM;2008-07-29 20:00;CYHM 292000Z CCA 32006KT 15SM FEW052 SCT250 27/16 A2994 RMK CU1CI1 SLP135

CYHM;2008-07-29 21:00;CYHM 292100Z 27003KT 15SM FEW056 BKN250 27/16 A2993 RMK CU2CI1 SLP132

CYHM;2008-07-29 22:00;CYHM 292200Z 21007KT 15SM FEW058 BKN250 27/16 A2991 RMK CU1CS2 SLP128

CYHM;2008-07-29 23:00;CYHM 292300Z 20007KT 15SM FEW058 BKN250 26/18 A2990 RMK CU1CS2 CONTRAILS SLP124

CYHM;2008-07-30 00:00;CYHM 300000Z 19008KT 15SM FEW056 SCT250 24/18 A2990 RMK CU1CI1 CU TR SLP123

CYHM;2008-07-30 01:00;CYHM 300100Z 16005KT 15SM FEW180 FEW250 22/17 A2989 RMK AC1CI1 AC TR SLP120

CYHM;2008-07-30 02:00;CYHM 300200Z 17003KT 15SM FEW190 FEW250 21/17 A2991 RMK AC2CI1 CI TR SLP127

CYHM;2008-07-30 03:00;CYHM 300300Z CCA 17004KT 15SM FEW064 FEW250 20/17 A2991 RMK SC1CI1 CI TR SLP125

CYHM;2008-07-30 04:00;CYHM 300400Z 16007KT 15SM FEW250 20/17 A2989 RMK CI1 CI TR SLP120

CYHM;2008-07-30 05:00;CYHM 300500Z 15007KT 15SM FEW250 20/17 A2988 RMK CI1 CI TR SLP116

CYHM;2008-07-30 06:00;CYHM 300600Z 16007KT 15SM FEW044 BKN170 20/17 A2986 RMK SC1AS5 SLP110

CYHM;2008-07-30 07:00;CYHM 300700Z 16007KT 15SM FEW170 OVC180 20/17 A2985 RMK AC2AC5 SLP105

CYHM;2008-07-30 08:00;CYHM 300800Z 16007KT 15SM SCT160 BKN250 20/17 A2982 RMK AC3CI2 SLP096

CYHM;2008-07-30 09:00;CYHM 300900Z 15007KT 15SM BKN060 BKN160 20/18 A2981 RMK SC5AC2 SLP090

CYHM;2008-07-30 10:00;CYHM 301000Z 16007KT 15SM FEW060 SCT170 OVC250 20/18 A2979 RMK SC2AC2CS5 SLP085

CYHM;2008-07-30 11:00;CYHM 301100Z 17006KT 15SM FEW064 BKN170 BKN220 21/18 A2978 RMK SC2AC3CI2 SLP081

CYHM;2008-07-30 12:00;CYHM 301200Z 16008KT 15SM FEW060 BKN160 BKN190 OVC220 21/19 A2977 RMK SC2AC2AS2CI2 SLP079

CYHM;2008-07-30 13:00;CYHM 301300Z 16004KT 8SM FEW060 BKN100 OVC160 22/20 A2976 RMK SC2AC4AC2 SLP075

CYHM;2008-07-30 13:26;CYHM 301326Z 22008KT 6SM -TSRA BKN058 BKN086 OVC120 RMK SC6AC2AC1 CB EMBDD

CYHM;2008-07-30 13:29;CYHM 301329Z CCA 22008KT 6SM -TSRA BKN058 BKN086 OVC120 RMK SC6AC2AC1 CB EMBDD

CYHM;2008-07-30 13:50;CYHM 301350Z 27015KT 2SM TSRA BR BKN012 BKN023 OVC050 RMK SF6SC2SC1 CB EMBDD

CYHM;2008-07-30 14:00;CYHM 301400Z 28016G26KT 2SM TSRA BR SCT012 BKN038 OVC050 21/20 A2981 RMK SF3SC3SC2 CB EMBDD LTNG SLP091

CYHM;2008-07-30 14:17;CYHM 301417Z 22008KT 4SM -TSRA BR FEW017 BKN036 OVC061 RMK SC2SC4SC2 CB EMBDD LTNG

CYHM;2008-07-30 15:00;CYHM 301500Z 24005KT 4SM -SHRA BR SCT028 BKN052 OVC072 19/18 A2978 RMK SC3SC4AC1 RETS SLP084

CYHM;2008-07-30 16:00;CYHM 301600Z 16014KT 6SM -SHRA BR SCT042 BKN058 OVC078 20/19 A2973 RMK SC3SC3AC2 SLP065

CYHM;2008-07-30 16:51;CYHM 301651Z 20008KT 15SM FEW010 FEW035 BKN120 BKN170 RMK SF1SC2AC3AC2

CYHM;2008-07-30 17:00;CYHM 301700Z 21010KT 15SM FEW012 SCT058 BKN100 BKN210 21/19 A2973 RMK CF1SC2AC3CI1 RERA SLP065

CYHM;2008-07-30 18:00;CYHM 301800Z 20014KT 15SM FEW025 BKN080 BKN120 BKN210 22/20 A2972 RMK CU2AC2AC1CI1 SLP063

CYHM;2008-07-30 19:00;CYHM 301900Z 21015KT 15SM -SHRA FEW009 BKN015 23/20 A2971 RMK SF1SC6 SLP058

CYHM;2008-07-30 19:36;CYHM 301936Z 21015KT 15SM FEW008 BKN013 RMK SF1SC6

CYHM;2008-07-30 20:00;CYHM 302000Z 21015KT 15SM FEW008 BKN012 23/21 A2970 RMK SF1SC6 SLP054

CYHM;2008-07-30 21:00;CYHM 302100Z 23015KT 15SM FEW012 SCT036 SCT085 25/21 A2967 RMK SF1SC2AC1 SF TR SLP045

CYHM;2008-07-30 22:00;CYHM 302200Z 20015KT 15SM SCT042 SCT180 26/21 A2965 RMK CU3AC1 AC TR SLP039

CYHM;2008-07-30 23:00;CYHM 302300Z 21009KT 15SM FEW026 SCT190 SCT250 24/20 A2964 RMK CU2AC2CI1 CI TR SC ASOCTD SLP034

CYHM;2008-07-31 00:00;CYHM 310000Z 20009KT 15SM FEW024 SCT120 BKN150 24/21 A2963 RMK SC2AC2AC2 TCU ASOCTD SLP032

CYHM;2008-07-31 00:35;CYHM 310035Z 23009KT 12SM -SHRA BKN032 OVC074 RMK SC6AC2 CB ASOCTD

CYHM;2008-07-31 01:00;CYHM 310100Z 20005KT 12SM -SHRA BKN034 BKN150 23/21 A2964 RMK SC6AC1 TCU EMBDED SLP035

CYHM;2008-07-31 01:24;CYHM 310124Z 22005KT 15SM FEW034 FEW150 FEW250 RMK SC2AC1CI1 TCU ASOCTD CI TR

CYHM;2008-07-31 02:00;CYHM 310200Z 21007KT 15SM FEW034 FEW080 21/20 A2965 RMK SC1AC1 SC TR SLP039

CYHM;2008-07-31 03:00;CYHM 310300Z 24004KT 15SM FEW060 22/20 A2966 RMK SC1 SLP042

CYHM;2008-07-31 04:00;CYHM 310400Z 22004KT 15SM BKN076 20/19 A2966 RMK AC6 SLP042

CYHM;2008-07-31 05:00;CYHM 310500Z 25005KT 15SM FEW080 21/19 A2966 RMK AC1 SLP042

CYHM;2008-07-31 06:00;CYHM 310600Z 26005KT 15SM SKC 20/18 A2967 RMK SLP044

CYHM;2008-07-31 07:00;CYHM 310700Z 26005KT 15SM FEW080 FEW250 18/17 A2967 RMK AC1CI1 TR CI SLP045

CYHM;2008-07-31 08:00;CYHM 310800Z 26005KT 15SM FEW062 18/17 A2968 RMK SC2 SLP047

CYHM;2008-07-31 09:00;CYHM 310900Z 27005KT 15SM FEW065 18/17 A2968 RMK SC2 SLP049

CYHM;2008-07-31 10:00;CYHM 311000Z 26007KT 15SM FEW075 17/16 A2969 RMK AC2 SLP051

CYHM;2008-07-31 11:00;CYHM 311100Z 27006KT 15SM BKN092 BKN220 18/16 A2969 RMK AC5CI0 CI TR SLP052

CYHM;2008-07-31 12:00;CYHM 311200Z 25006KT 15SM BKN094 BKN220 19/17 A2969 RMK AC5CI1 CONTRAIL SLP053

CYHM;2008-07-31 13:00;CYHM 311300Z 25008KT 15SM FEW085 BKN220 21/18 A2968 RMK AC2CI3 SLP049

CYHM;2008-07-31 14:00;CYHM 311400Z 24006KT 15SM FEW090 BKN210 23/18 A2968 RMK AC1CI5 SLP047

CYHM;2008-07-31 15:00;CYHM 311500Z 26010KT 15SM FEW035 FEW062 SCT220 25/19 A2969 RMK CU1SC1CI2 SLP050

CYHM;2008-07-31 16:00;CYHM 311600Z 25010KT 15SM SCT032 SCT068 25/19 A2969 RMK CU3AC1 SLP050

CYHM;2008-07-31 17:00;CYHM 311700Z 26010KT 15SM FEW035 SCT045 BKN080 25/18 A2968 RMK CU2SC2AC1 SLP049

CYHM;2008-07-31 18:00;CYHM 311800Z 25016KT 15SM FEW041 SCT060 BKN070 27/19 A2968 RMK CU2SC2AC1 SLP049

CYHM;2008-07-31 19:00;CYHM 311900Z 28011KT 240V320 15SM BKN043 BKN075 27/18 A2969 RMK CU5AC1 SLP050

CYHM;2008-07-31 20:00;CYHM 312000Z 28010KT 230V320 15SM FEW048 FEW075 27/17 A2967 RMK CU2AC1 SLP045

CYHM;2008-07-31 21:00;CYHM 312100Z 29013KT 15SM FEW048 26/16 A2968 RMK CU2 SLP048

CYHM;2008-07-31 22:00;CYHM 312200Z 28012KT 15SM FEW045 26/16 A2969 RMK CU2 SLP051

CYHM;2008-07-31 23:00;CYHM 312300Z 29007KT 15SM FEW042 FEW250 25/17 A2969 RMK CU1CI0 SLP052

CYHM;2008-08-01 01:00;CYHM 010100Z 29003KT 15SM FEW250 21/16 A2971 RMK CI1 SLP059

CYHM;2008-08-01 02:00;CYHM 010200Z 26003KT 15SM FEW250 20/15 A2972 RMK CI1 SLP063

CYHM;2008-08-01 03:00;CYHM 010300Z 28003KT 15SM FEW250 19/15 A2973 RMK CI1 SLP066

CYHM;2008-08-01 04:00;CYHM 010400Z 00000KT 15SM FEW250 18/15 A2973 RMK CI1 SLP066

CYHM;2008-08-01 05:00;CYHM 010500Z 00000KT 15SM FEW250 17/15 A2975 RMK CI1 SLP071

CYHM;2008-08-01 06:00;CYHM 010600Z 28002KT 15SM BKN240 17/15 A2976 RMK CI4 SLP074

CYHM;2008-08-01 07:00;CYHM 010700Z 27004KT 15SM FEW240 16/15 A2976 RMK CI0 SLP076

CYHM;2008-08-01 08:00;CYHM 010800Z 28004KT 15SM FEW230 16/15 A2977 RMK CI1 SLP078

CYHM;2008-08-01 09:00;CYHM 010900Z 27003KT 15SM FEW230 16/14 A2977 RMK CI1 SLP080

CYHM;2008-08-01 10:00;CYHM 011000Z 27003KT 15SM FEW030 FEW220 15/14 A2978 RMK CU1CI1 SLP082

CYHM;2008-08-01 11:00;CYHM 011100Z 25006KT 15SM FEW030 FEW220 16/15 A2978 RMK CU1CI1 SLP084

CYHM;2008-08-01 12:00;CYHM 011200Z 26005KT 15SM FEW030 FEW240 17/15 A2978 RMK CU1CI1 SLP083

CYHM;2008-08-01 13:00;CYHM 011300Z 27005KT 15SM FEW025 FEW240 20/16 A2978 RMK CU1CI1 SLP083

CYHM;2008-08-01 14:00;CYHM 011400Z 27006KT 15SM FEW100 22/17 A2979 RMK AC1 SLP085

CYHM;2008-08-01 15:00;CYHM 011500Z 26010KT 15SM FEW025 FEW160 24/17 A2980 RMK CU2AC1 AC TR SLP088

CYHM;2008-08-01 16:00;CYHM 011600Z 29008KT 15SM FEW032 SCT056 24/18 A2981 RMK CU2SC2 SLP091

CYHM;2008-08-01 17:00;CYHM 011700Z 29008KT 15SM FEW032 BKN056 BKN080 25/18 A2980 RMK CU2SC2AC2 SLP089

CYHM;2008-08-01 18:00;CYHM 011800Z 28008KT 15SM FEW042 SCT055 BKN081 26/18 A2979 RMK CU2SC2AC2 SLP087

CYHM;2008-08-01 19:00;CYHM 011900Z 29005KT 15SM FEW042 BKN073 BKN100 26/18 A2979 RMK CU2AC4AC2 SLP085

CYHM;2008-08-01 20:00;CYHM 012000Z 29008KT 15SM SCT041 BKN097 26/17 A2978 RMK CU3AC3 TCU ASOCTD SLP082

CYHM;2008-08-01 21:00;CYHM 012100Z 28011KT 15SM FEW045 BKN093 26/18 A2976 RMK CU2AC3 TCU ASOCTD SLP076

CYHM;2008-08-01 22:00;CYHM 012200Z 27004KT 15SM FEW040 SCT083 BKN220 25/17 A2975 RMK CU2AC2CS2 FEW TCU HALO SLP073

CYHM;2008-08-01 23:00;CYHM 012300Z 25007KT 15SM FEW042 SCT078 BKN210 25/18 A2975 RMK CU2AC2CI2 FEW TCU SLP073

CYHM;2008-08-02 00:00;CYHM 020000Z 27005KT 15SM FEW042TCU SCT077 BKN200 24/17 A2976 RMK TCU1AC2CI3 SLP075

CYHM;2008-08-02 01:00;CYHM 020100Z 25002KT 15SM SCT055TCU BKN160 22/17 A2976 RMK TCU3AC2 SLP076

CYHM;2008-08-02 02:00;CYHM 020200Z 27003KT 15SM FEW056 SCT170 21/17 A2978 RMK CU2AC1 TCU ASOCTD SLP081

CYHM;2008-08-02 03:00;CYHM 020300Z 35004KT 15SM FEW052TCU FEW075 SCT150 OVC210 21/17 A2976 RMK TCU1AC1AC2CI4 SLP075

CYHM;2008-08-02 04:00;CYHM 020400Z 00000KT 15SM TS SCT050CB OVC180 21/16 A2976 RMK CB3AC5 OCNL LTGIC SLP075

CYHM;2008-08-02 05:00;CYHM 020500Z 32004KT 12SM -TSRA FEW050CB OVC120 20/16 A2975 RMK CB2AC6 OCNL LTGIC SLP073

CYHM;2008-08-02 06:00;CYHM 020600Z 25003KT 15SM FEW050 SCT110 OVC170 19/16 A2975 RETS RMK SC2AC2AC4 LTNG DSNT E SLP072

CYHM;2008-08-02 06:16;CYHM 020616Z 00000KT 12SM -SHRA SCT110 OVC170 RETS RMK AC3AC5

CYHM;2008-08-02 07:00;CYHM 020700Z 28004KT 12SM -SHRA OVC100 18/16 A2975 RMK AC8 LTNG SW SLP071

CYHM;2008-08-02 07:34;CYHM 020734Z 31006KT 12SM -TSRA SCT040CB OVC130 RMK CB3AC5 FQT LTGICCCCG

CYHM;2008-08-02 08:00;CYHM 020800Z 25003KT 12SM -TSRA SCT040CB OVC110 18/17 A2973 RMK CB4AC4 OCNL LTGICCG SSW SLP066

CYHM;2008-08-02 09:00;CYHM 020900Z 11003KT 12SM -TSRA FEW035CB OVC110 18/16 A2975 RMK CB2AC6 LTNG SE SLP070

CYHM;2008-08-02 09:36;CYHM 020936Z 00000KT 15SM -SHRA BKN120 RETS RMK AC7

CYHM;2008-08-02 10:00;CYHM 021000Z 20002KT 15SM FEW030 BKN170 17/16 A2975 RETS RMK CF1AC5 SLP073

CYHM;2008-08-02 11:00;CYHM 021100Z 00000KT 15SM FEW030 FEW170 FEW230 16/16 A2976 RMK CU1AC2CI1 CU TR SLP076

CYHM;2008-08-02 12:00;CYHM 021200Z 27002KT 15SM FEW170 FEW250 19/16 A2977 RMK AC2CI1 CI TR SLP079

CYHM;2008-08-02 13:00;CYHM 021300Z 29006KT 260V340 15SM FEW014 FEW140 20/17 A2979 RMK CU1AC2 SLP085

CYHM;2008-08-02 14:00;CYHM 021400Z 34002KT 15SM FEW015 FEW120 21/17 A2979 RMK CU2AC1 SLP085

CYHM;2008-08-02 15:00;CYHM 021500Z 27002KT 15SM BKN022 23/18 A2979 RMK CU6 SLP086

CYHM;2008-08-02 16:00;CYHM 021600Z 27002KT 15SM BKN031 23/16 A2980 RMK CU6 WND L/V SLP087

CYHM;2008-08-02 17:00;CYHM 021700Z 29005KT 250V020 15SM BKN034 24/16 A2979 RMK CU6 SLP086

CYHM;2008-08-02 18:00;CYHM 021800Z 29009KT 15SM BKN040 25/16 A2979 RMK CU5 SLP085

CYHM;2008-08-02 18:14;CYHM 021814Z 30008KT 270V330 15SM -SHRA FEW020 BKN040 RMK CF1CU5 TCU ASOCTD PCPN VRY LGT

CYHM;2008-08-02 18:51;CYHM 021851Z 02012KT 15SM -SHRA FEW020 BKN040TCU BKN058 RMK CF1TCU4SC2 WSHFT 1837 PCPN VRY LGT

CYHM;2008-08-02 19:00;CYHM 021900Z 01013KT 330V040 15SM -SHRA FEW020 BKN040TCU BKN058 BKN085 23/17 A2980 RMK CF1TCU4SC2AC1 PCPN VRY LGT SLP087

CYHM;2008-08-02 19:35;CYHM 021935Z 33006KT 15SM SCT035 BKN058 BKN110 RMK CU4SC2AC1 TCU ASOCTD

CYHM;2008-08-02 20:00;CYHM 022000Z 32006KT 15SM SCT035 SCT058 BKN100 24/17 A2980 RMK CU3SC1AC1 TCU ASOCTD SLP087

CYHM;2008-08-02 21:00;CYHM 022100Z 33007KT 300V360 15SM VCSH SCT035TCU BKN046 BKN095 24/16 A2980 RMK TCU3SC2AC2 CB ASOCTD E SLP088

CYHM;2008-08-02 22:00;CYHM 022200Z 31005KT 280V350 15SM VCSH SCT035TCU BKN060 BKN085 24/16 A2981 RMK TCU3SC2AC1 CB ASOCTD E SLP092

CYHM;2008-08-02 22:04;CYHM 022204Z 33009KT 8SM -SHRA SCT035TCU BKN055 RMK TCU4SC2

CYHM;2008-08-02 22:38;CYHM 022238Z 23004KT 12SM VCSH SCT035 BKN054 BKN075 RMK CU4SC2AC1 TCU ASOCTD

CYHM;2008-08-02 23:00;CYHM 022300Z 36006KT 15SM VCSH SCT035TCU BKN052 BKN070 22/17 A2982 RMK TCU3SC2AC2 SLP096

CYHM;2008-08-03 00:00;CYHM 030000Z 08005KT 15SM VCSH FEW020 FEW035 SCT050 BKN080 20/16 A2986 RMK CF1CU2SC2AC2 CF TR SLP109

CYHM;2008-08-03 01:00;CYHM 030100Z 24002KT 15SM FEW035 SCT052 BKN097 18/16 A2988 RMK CU2SC2AC2 SLP116

CYHM;2008-08-03 02:00;CYHM 030200Z 00000KT 15SM FEW050 FEW100 18/16 A2989 RMK SC1AC1 AC TR SLP121

CYHM;2008-08-03 03:00;CYHM 030300Z 31005KT 15SM SKC 16/14 A2990 RMK SLP123

CYHM;2008-08-03 04:00;CYHM 030400Z 30004KT 15SM SKC 16/14 A2991 RMK SLP127

CYHM;2008-08-03 05:00;CYHM 030500Z 34008KT 15SM FEW210 17/14 A2991 RMK CI1 SLP126

CYHM;2008-08-03 06:00;CYHM 030600Z 32006KT 15SM SKC 17/14 A2991 RMK SLP128

CYHM;2008-08-03 07:00;CYHM 030700Z 31005KT 15SM SKC 16/14 A2992 RMK SLP129

CYHM;2008-08-03 08:00;CYHM 030800Z 32003KT 15SM SKC 16/14 A2992 RMK SLP131

CYHM;2008-08-03 09:00;CYHM 030900Z 30003KT 15SM FEW035 FEW210 15/14 A2993 RMK CF1CI1 TR CF SLP134

CYHM;2008-08-03 10:00;CYHM 031000Z 30002KT 15SM FEW090 FEW210 15/14 A2995 RMK AC1CI1 TR AC SLP141

CYHM;2008-08-03 11:00;CYHM 031100Z 27002KT 15SM FEW090 15/14 A2997 RMK AC1 SLP147

CYHM;2008-08-03 12:00;CYHM 031200Z 27002KT 15SM FEW100 17/15 A2999 RMK AC1 SLP155

CYHM;2008-08-03 13:00;CYHM 031300Z 23003KT 15SM FEW100 19/16 A3000 RMK AC1 SLP157

CYHM;2008-08-03 14:00;CYHM 031400Z 32006KT 15SM FEW025 21/15 A2999 RMK CU1 SLP155

CYHM;2008-08-03 15:00;CYHM 031500Z 32012KT 15SM FEW030 23/15 A2998 RMK CU2 SLP152

CYHM;2008-08-03 16:00;CYHM 031600Z 30006KT 15SM FEW038 24/16 A2998 RMK CU2 SLP152

CYHM;2008-08-03 17:00;CYHM 031700Z 33007KT 15SM SCT045 24/15 A2999 RMK CU4 SLP153

CYHM;2008-08-03 18:00;CYHM 031800Z 31008KT 15SM BKN047 25/15 A2998 RMK CU5 SLP152

CYHM;2008-08-03 19:00;CYHM 031900Z 31008KT 15SM BKN046 25/15 A2998 RMK CU5 SLP152

CYHM;2008-08-03 20:00;CYHM 032000Z 30007KT 15SM SCT048 25/15 A2998 RMK CU4 SLP150

CYHM;2008-08-03 21:00;CYHM 032100Z 30008KT 15SM SCT050 25/15 A2996 RMK CU3 SLP144

CYHM;2008-08-03 22:00;CYHM 032200Z 29006KT 15SM FEW052 FEW220 25/14 A2996 RMK CU2CI1 CI TR SLP144

CYHM;2008-08-03 23:00;CYHM 032300Z 28003KT 15SM FEW050 FEW063 24/15 A2997 RMK CU2SC1 SLP146

CYHM;2008-08-04 00:00;CYHM 040000Z 29003KT 15SM FEW050 SCT064 23/15 A2997 RMK CU1SC3 SLP149

CYHM;2008-08-04 01:00;CYHM 040100Z 32004KT 15SM SCT063 21/14 A2998 RMK SC3 SLP151

CYHM;2008-08-04 02:00;CYHM 040200Z 34005KT 15SM FEW062 19/14 A2999 RMK SC1 SC TR SLP153

CYHM;2008-08-04 03:00;CYHM 040300Z 32003KT 15SM SKC 18/14 A3001 RMK SLP159

CYHM;2008-08-04 04:00;CYHM 040400Z 32005KT 15SM FEW070 17/14 A3001 RMK AC1 SLP160

CYHM;2008-08-04 05:00;CYHM 040500Z 29003KT 15SM FEW220 16/13 A3002 RMK CI1 SLP164

CYHM;2008-08-04 06:00;CYHM 040600Z 00000KT 15SM FEW210 16/13 A3000 RMK CI1 SLP158

CYHM;2008-08-04 07:00;CYHM 040700Z 00000KT 15SM SKC 15/13 A2999 RMK SLP154

CYHM;2008-08-04 08:00;CYHM 040800Z 00000KT 15SM FEW220 14/13 A2998 RMK CI1 SLP151

CYHM;2008-08-04 09:00;CYHM 040900Z 28005KT 15SM FEW220 14/13 A3002 RMK CI1 SLP164

CYHM;2008-08-04 10:00;CYHM 041000Z 28004KT 15SM FEW047 SCT200 14/13 A3003 RMK SC2CI2 SLP169

CYHM;2008-08-04 11:00;CYHM 041100Z 28003KT 15SM FEW051 SCT220 15/14 A3003 RMK SC1CI2 SLP169

CYHM;2008-08-04 12:00;CYHM 041200Z 00000KT 15SM SKC 18/15 A3003 RMK SLP168

CYHM;2008-08-04 13:00;CYHM 041300Z 28002KT 15SM SCT240 21/16 A3005 RMK CI2 CONTRAIL SLP173

CYHM;2008-08-04 14:00;CYHM 041400Z 32002KT 15SM BKN220 22/15 A3004 RMK CI4 SLP170

CYHM;2008-08-04 15:00;CYHM 041500Z 13002KT 15SM SCT220 23/16 A3003 RMK CI2 SLP168

CYHM;2008-08-04 16:00;CYHM 041600Z 21005KT 15SM FEW040 SCT220 25/16 A3004 RMK CU1CI2 CU TR SLP170

CYHM;2008-08-04 17:00;CYHM 041700Z 23002KT 15SM FEW045 SCT220 25/17 A3001 RMK CU1CI2 CONTRAIL SLP161

CYHM;2008-08-04 18:00;CYHM 041800Z 27005KT 15SM FEW045 BKN220 25/16 A3000 RMK CU1CI2 CONTRAIL SLP158

CYHM;2008-08-04 19:00;CYHM 041900Z 20007KT 15SM SCT046 BKN220 24/18 A3000 RMK SC3CS4 CU ASOCTD SLP156

CYHM;2008-08-04 20:00;CYHM 042000Z 19007KT 15SM FEW048 SCT130 OVC160 24/19 A2998 RMK SC2AC2AC5 SLP152

CYHM;2008-08-04 21:00;CYHM 042100Z 18009KT 15SM FEW042 OVC140 24/19 A2997 RMK SC1AC7 SLP149

CYHM;2008-08-04 22:00;CYHM 042200Z 19003KT 15SM FEW026 OVC130 23/19 A2999 RMK SC1AC7 SLP153

CYHM;2008-08-04 23:00;CYHM 042300Z 19003KT 15SM FEW018 BKN058 BKN130 23/20 A2997 RMK CU1SC6AC1 SLP149

CYHM;2008-08-05 00:00;CYHM 050000Z 23006KT 15SM FEW018 FEW064 SCT140 23/19 A2999 RMK CF1SC2AC1 CUFRA TR SLP153

CYHM;2008-08-05 01:00;CYHM 050100Z 19004KT 15SM FEW070 FEW250 21/18 A2997 RMK AC1CI1 AC TR SLP149

CYHM;2008-08-05 02:00;CYHM 050200Z 00000KT 15SM FEW070 FEW250 20/18 A2997 RMK AC1CI1 AC TR CI TR SLP148

CYHM;2008-08-05 03:00;CYHM 050300Z 18004KT 15SM FEW080 FEW250 19/18 A2998 RMK AC1CI1 AC TR SLP150

CYHM;2008-08-05 04:00;CYHM 050400Z 17005KT 15SM SCT250 20/18 A2997 RMK CI1 SLP148

CYHM;2008-08-05 05:00;CYHM 050500Z 16006KT 15SM FEW250 19/18 A2997 RMK CI1 CI TR SLP147

CYHM;2008-08-05 06:00;CYHM 050600Z 18004KT 15SM FEW250 20/18 A2997 RMK CI1 CI TR SLP147

CYHM;2008-08-05 07:00;CYHM 050700Z 18003KT 15SM SCT250 19/18 A2997 RMK CI2 SLP146

CYHM;2008-08-05 08:00;CYHM 050800Z 12003KT 15SM FEW044 FEW250 19/18 A2995 RMK CF1CI1 CUFRA TR SLP139

CYHM;2008-08-05 09:00;CYHM 050900Z 16007KT 15SM FEW120 FEW250 20/18 A2994 RMK AC1CI1 AC TR SLP135

CYHM;2008-08-05 10:00;CYHM 051000Z 18003KT 10SM BKN034 BKN120 19/18 A2994 RMK SC6AC1 AC TR SLP135

CYHM;2008-08-05 11:00;CYHM 051100Z 06003KT 15SM SCT038 BKN140 20/18 A2994 RMK SC3AC1 SLP135

CYHM;2008-08-05 12:00;CYHM 051200Z 06004KT 15SM FEW040 FEW220 21/19 A2993 RMK SC1CI1 SLP132

CYHM;2008-08-05 13:00;CYHM 051300Z 08002KT 10SM FEW030 SCT160 BKN220 22/20 A2993 RMK CF1AC2CI2 SLP134

CYHM;2008-08-05 14:00;CYHM 051400Z 08002KT 15SM FEW030 BKN039 BKN210 24/21 A2993 RMK CU1SC5CI2 SLP133

CYHM;2008-08-05 15:00;CYHM 051500Z 00000KT 10SM FEW016 BKN022 BKN130 25/21 A2993 RMK CU2SC4AC2 SLP132

CYHM;2008-08-05 16:00;CYHM 051600Z 14004KT 15SM FEW018 BKN022 OVC062 25/21 A2993 RMK CU2SC4SC2 SLP132

CYHM;2008-08-05 17:00;CYHM 051700Z 15006KT 15SM FEW022 SCT040 BKN150 27/21 A2991 RMK CU2SC2AC2 SLP127

CYHM;2008-08-05 18:00;CYHM 051800Z 16006KT 15SM SCT025 BKN038 BKN068 26/21 A2990 RMK CU3SC3AC1 TCU ASOCTD SLP121

CYHM;2008-08-05 19:00;CYHM 051900Z 19007KT 8SM BKN026 BKN080 27/22 A2987 RMK SC6AC2 TCU EMBDED HAZY SLP111

CYHM;2008-08-05 19:32;CYHM 051932Z 17015KT 8SM TS FEW026 BKN040CB OVC090 RMK SC1CB6AC2 HAZY

CYHM;2008-08-05 19:50;CYHM 051950Z 21015KT 7SM -TSRA BKN015CB BKN044 OVC100 RMK CB6SC2AC1 HAZY

CYHM;2008-08-05 19:54;CYHM 051954Z 22015KT 1SM +TSRA BKN013CB BKN044 OVC100 RMK CB6SC2AC1 HAZY LTNG

CYHM;2008-08-05 20:00;CYHM 052000Z 22015KT 1 1/2SM +TSRA BKN013CB BKN044 OVC100 23/22 A2986 RMK CB6SC2AC1 HAZY LTNG SLP108

CYHM;2008-08-05 20:24;CYHM 052024Z 24004KT 6SM TS BR FEW012 BKN044 BKN100 RMK SF1SC5AC1 CB ASOCTD TCU EMBDED CONTRAIL

CYHM;2008-08-05 21:00;CYHM 052100Z 02003KT 6SM -SHRA BR FEW010 OVC044 22/21 A2984 RETS RMK SF1SC7 SLP103

CYHM;2008-08-05 21:27;CYHM 052127Z 36008KT 6SM -TSRA BR FEW010 BKN022 RMK SF1SC6 SF TR CB ASOCTD

CYHM;2008-08-05 22:00;CYHM 052200Z 05009KT 5SM BR FEW010 BKN022 OVC070 21/20 A2983 RETS RMK SF1SC6AC2 SLP099

CYHM;2008-08-05 22:35;CYHM 052235Z 07007KT 15SM -SHRA FEW008 SCT024 OVC068 RMK SF1SC2AC5

CYHM;2008-08-05 23:00;CYHM 052300Z 06007KT 12SM -SHRA FEW008 FEW024 OVC055 20/18 A2984 RMK SF1SC2SC6 SLP103

CYHM;2008-08-05 23:14;CYHM 052314Z 12002KT 5SM -TSRA BR FEW008 BKN030CB OVC056 RMK SF1CB5SC2

CYHM;2008-08-06 00:00;CYHM 060000Z 02006KT 4SM -TSRA BR FEW008 OVC016 20/19 A2985 RMK SF1SC7 CB ASOCTD SLP106

CYHM;2008-08-06 00:50;CYHM 060050Z 00000KT 4SM -SHRA BR FEW015 OVC038 RETS RMK SF1SC7

CYHM;2008-08-06 01:00;CYHM 060100Z 00000KT 4SM -TSRA BR FEW015 OVC038 20/19 A2984 RMK SF1SC7 CB ASOCTD LTNG SLP102

CYHM;2008-08-06 01:50;CYHM 060150Z 02004KT 5SM BR FEW015 OVC035 RETS RMK SC2SC6 SF ASOCTD

CYHM;2008-08-06 02:00;CYHM 060200Z 02006KT 5SM BR SCT014 OVC035 20/19 A2985 RETS RMK SC3SC5 SF ASOCTD SLP107

CYHM;2008-08-06 02:40;CYHM 060240Z 24004KT 1SM BR OVC002 RMK SF8

CYHM;2008-08-06 03:00;CYHM 060300Z 27003KT 3/8SM FG VV001 20/19 A2985 RMK FG8 SLP106

CYHM;2008-08-06 04:00;CYHM 060400Z 30002KT 1/8SM FG VV001 19/19 A2984 RMK FG8 SLP101

CYHM;2008-08-06 05:00;CYHM 060500Z 29004KT 1 1/4SM BR SKC 20/19 A2984 RMK FG7 SLP101

CYHM;2008-08-06 06:00;CYHM 060600Z 26005KT 4SM BR SKC 19/18 A2984 RMK SLP102

CYHM;2008-08-06 07:00;CYHM 060700Z 00000KT 12SM SKC 18/18 A2985 RMK SLP106

CYHM;2008-08-06 08:00;CYHM 060800Z 29007KT 5SM BR FEW006 18/18 A2985 RMK SF2 SLP105

CYHM;2008-08-06 09:00;CYHM 060900Z 29007KT 4SM BR FEW006 18/17 A2986 RMK SF1 SLP110

CYHM;2008-08-06 10:00;CYHM 061000Z 27008KT 4SM BR OVC007 18/17 A2988 RMK SC8 SLP115

CYHM;2008-08-06 11:00;CYHM 061100Z 28006KT 10SM BKN009 19/17 A2989 RMK SC7 SLP119

CYHM;2008-08-06 12:00;CYHM 061200Z CCA 29004KT 15SM OVC009 19/18 A2991 RMK SC8 SLP127

CYHM;2008-08-06 13:00;CYHM 061300Z 29010KT 15SM FEW016 21/18 A2991 RMK CU1 SLP128

CYHM;2008-08-06 14:00;CYHM 061400Z 30012KT 15SM FEW020 22/18 A2992 RMK CU1 CU TR SLP131

CYHM;2008-08-06 15:00;CYHM 061500Z 29010KT 15SM FEW025 FEW240 23/17 A2993 RMK CU1CI1 SLP132

CYHM;2008-08-06 16:00;CYHM 061600Z 28014KT 15SM FEW032 FEW220 24/17 A2993 RMK CU1CI1 SLP132

CYHM;2008-08-06 17:00;CYHM 061700Z 28009KT 15SM FEW040 FEW220 25/17 A2992 RMK CU1CI0 SLP129

CYHM;2008-08-06 18:00;CYHM 061800Z 29012KT 15SM FEW040 FEW220 26/16 A2991 RMK CU1CI1 SLP125

CYHM;2008-08-06 19:00;CYHM 061900Z 28009KT 15SM FEW042 FEW250 26/16 A2991 RMK CU1CI1 SLP125

CYHM;2008-08-06 20:00;CYHM 062000Z 28013KT 15SM FEW054 SCT250 27/15 A2991 RMK CU2CI1 SLP125

CYHM;2008-08-06 21:00;CYHM 062100Z 27013KT 15SM FEW056 BKN250 26/15 A2990 RMK CU1CI2 SLP122

CYHM;2008-08-06 22:00;CYHM 062200Z 26013KT 15SM FEW058 BKN250 24/14 A2989 RMK CU1CI2 SLP119

CYHM;2008-08-06 23:00;CYHM 062300Z 28010KT 15SM FEW058 BKN250 23/15 A2989 RMK CU1CS5 CU TR SLP119

CYHM;2008-08-07 00:00;CYHM 070000Z 25007KT 15SM FEW056 BKN250 22/15 A2990 RMK CU1CS6 CU TR CC ASOCTD CONTRAILS SLP122

CYHM;2008-08-07 01:00;CYHM 070100Z 25003KT 15SM BKN250 20/15 A2991 RMK CS7 SLP125

CYHM;2008-08-07 02:00;CYHM 070200Z 28005KT 15SM BKN250 19/15 A2990 RMK CS6 SLP124

CYHM;2008-08-07 03:00;CYHM 070300Z 28005KT 15SM OVC230 19/15 A2988 RMK CI8 CS ASOCTD SLP118

CYHM;2008-08-07 04:00;CYHM 070400Z 28005KT 15SM BKN240 18/15 A2989 RMK CI5 SLP119

CYHM;2008-08-07 05:00;CYHM 070500Z 28006KT 15SM SCT220 18/15 A2988 RMK CI2 SLP116

CYHM;2008-08-07 06:00;CYHM 070600Z 28005KT 15SM SCT110 BKN210 18/15 A2986 RMK AC4CI1 SLP109

CYHM;2008-08-07 07:00;CYHM 070700Z 00000KT 15SM FEW120 OVC180 17/15 A2984 RMK AC2AS6 SLP102

CYHM;2008-08-07 07:42;CYHM 070742Z 29009KT 15SM TS BKN052 OVC120 RMK SC6AC2 CB ASOCTD OCNL LTNG

CYHM;2008-08-07 08:00;CYHM 070800Z 30008KT 15SM TS BKN049 OVC090 18/15 A2984 RMK SC6AC2 CB ASOCTD LTNG NE SLP104

CYHM;2008-08-07 08:05;CYHM 070805Z 28010KT 10SM -TSRA FEW018CB OVC040 RMK CB2SC6 OCNL LTGIC

CYHM;2008-08-07 09:00;CYHM 070900Z 34005KT 15SM -SHRA FEW035 OVC120 17/15 A2984 RETS RMK SC2AC6 SLP102

CYHM;2008-08-07 09:30;CYHM 070930Z 06003KT 15SM BKN075 BKN100 RETS RMK AC6AC2

CYHM;2008-08-07 09:53;CYHM 070953Z 19008KT 12SM -SHRA BKN070 OVC100 RMK AC6AC2

CYHM;2008-08-07 10:00;CYHM 071000Z 20006KT 12SM -SHRA FEW075 OVC098 16/15 A2985 RMK AC2AC6 SLP105

CYHM;2008-08-07 11:00;CYHM 071100Z 28004KT 15SM -SHRA FEW030 SCT060 BKN080 OVC100 16/15 A2984 RMK CU1SC3AC3AC1 SLP102

CYHM;2008-08-07 12:00;CYHM 071200Z 22004KT 15SM -SHRA SCT060 BKN070 OVC100 16/15 A2984 RMK SC3AC4AC1 SLP104

CYHM;2008-08-07 13:00;CYHM 071300Z 26004KT 10SM -RA BKN041 BKN052 OVC070 17/16 A2985 RMK SC5SC2AC1 SLP107

CYHM;2008-08-07 13:54;CYHM 071354Z 30005KT 10SM SCT012 OVC034 RMK SF3SC5

CYHM;2008-08-07 14:00;CYHM 071400Z 30004KT 12SM SCT012 OVC034 17/16 A2987 RMK SF3SC5 SLP113

CYHM;2008-08-07 14:11;CYHM 071411Z 35004KT 6SM -SHRA FEW010 BKN034 OVC041 RMK SF2SC4SC2

CYHM;2008-08-07 15:00;CYHM 071500Z 34004KT 10SM -RA FEW015 SCT045 OVC075 18/16 A2985 RMK CF2SC2AC4 SLP109

CYHM;2008-08-07 16:00;CYHM 071600Z 28003KT 15SM FEW020 SCT045 BKN091 18/16 A2984 RMK CU1SC2AC4 SLP105

CYHM;2008-08-07 17:00;CYHM 071700Z 25006KT 15SM FEW025 FEW092 BKN180 21/16 A2982 RMK CU1AC2AC1 TCU ASOCTD SLP099

CYHM;2008-08-07 18:00;CYHM 071800Z 26008KT 15SM FEW025 FEW160 BKN220 22/16 A2981 RMK CU2AC1CI2 CB ASOCTD CONTRAIL SLP094

CYHM;2008-08-07 19:00;CYHM 071900Z 24008KT 210V300 15SM FEW030CB FEW170 SCT230 23/16 A2979 RMK CB1AC1CI2 CB N AC TR SLP088

CYHM;2008-08-07 20:00;CYHM 072000Z 24008KT 15SM FEW030TCU FEW250 24/16 A2978 RMK TCU1CI1 CB ASOCTD TOP N SLP082

CYHM;2008-08-07 21:00;CYHM 072100Z 26010KT 15SM SCT045 SCT250 24/14 A2977 RMK CU3CI1 SLP078

CYHM;2008-08-07 22:00;CYHM 072200Z 29009KT 250V340 15SM BKN054 BKN130 BKN250 23/14 A2977 RMK CU6AC1CI1 TCU ASOCTD AC TR SLP079

CYHM;2008-08-07 22:08;CYHM 072208Z 32012KT 15SM TS BKN049 BKN130 BKN250 RMK CU6AC1CI1 CB ASOCTD AC TR

CYHM;2008-08-07 23:00;CYHM 072300Z 32011KT 15SM TS SCT046CB BKN120 BKN250 21/14 A2978 RMK CB3AC2CI1 SLP084

CYHM;2008-08-08 00:00;CYHM 080000Z 31007KT 15SM TS FEW048CB SCT078 BKN100 BKN250 19/14 A2981 RMK CB2AC2AC3CI1 SLP094

CYHM;2008-08-08 00:44;CYHM 080044Z 33008KT 15SM -TSRA FEW048CB BKN110 BKN250 RMK CB2AC5CI0

CYHM;2008-08-08 01:00;CYHM 080100Z 33010KT 15SM -TSRA FEW045CB BKN110 BKN250 17/14 A2981 RMK CB1AC5CI0 SLP094

CYHM;2008-08-08 01:17;CYHM 080117Z 32006KT 15SM FEW045 BKN130 BKN250 RETS RMK CU1AC4CI0

CYHM;2008-08-08 02:00;CYHM 080200Z 31005KT 15SM BKN088 16/14 A2981 RETS RMK AC6 SLP096

CYHM;2008-08-08 03:00;CYHM 080300Z 29004KT 15SM FEW091 FEW130 16/14 A2982 RMK AC2AC1 SLP098

CYHM;2008-08-08 04:00;CYHM 080400Z 28005KT 15SM FEW130 FEW240 15/13 A2981 RMK AC1CI0 SLP094

CYHM;2008-08-08 05:00;CYHM 080500Z 27005KT 15SM BKN089 15/13 A2981 RMK AC6 SLP093

CYHM;2008-08-08 06:00;CYHM 080600Z 24002KT 15SM BKN095 BKN110 15/13 A2981 RMK AC5AC2 SLP092

CYHM;2008-08-08 07:00;CYHM 080700Z 31003KT 15SM FEW100 BKN130 15/13 A2980 RMK AC2AC5 SLP090

CYHM;2008-08-08 08:00;CYHM 080800Z 30005KT 15SM FEW095 BKN110 15/13 A2980 RMK AC2AC6 SLP089

CYHM;2008-08-08 09:00;CYHM 080900Z 29006KT 15SM FEW084 BKN100 15/13 A2980 RMK AC2AC4 SLP089

CYHM;2008-08-08 10:00;CYHM 081000Z 31007KT 15SM SCT083 BKN100 15/13 A2981 RMK AC3AC4 SLP093

CYHM;2008-08-08 11:00;CYHM 081100Z 32007KT 15SM BKN110 BKN160 15/13 A2982 RMK AC5AC2 SLP097

CYHM;2008-08-08 11:44;CYHM 081144Z 33006KT 15SM -SHRA FEW025 BKN092 BKN160 RMK CU1AC5AC2

CYHM;2008-08-08 12:00;CYHM 081200Z 33008KT 15SM -SHRA FEW025 BKN098 BKN160 15/13 A2984 RMK CU1AC6AC1 SLP103

CYHM;2008-08-08 12:23;CYHM 081223Z 30008KT 15SM FEW025 BKN091 BKN140 RMK CU1AC5AC2

CYHM;2008-08-08 13:00;CYHM 081300Z 33008KT 15SM FEW025 BKN061 BKN092 16/14 A2984 RMK CU1SC5AC2 SLP105

CYHM;2008-08-08 14:00;CYHM 081400Z 33008KT 15SM FEW030 FEW055 BKN100 BKN220 17/15 A2985 RMK CU2SC1AC2CI1 SLP107

CYHM;2008-08-08 15:00;CYHM 081500Z 33014KT 15SM SCT024 SCT045 BKN082 BKN220 20/15 A2985 RMK CU3SC1AC1CI1 SLP107

CYHM;2008-08-08 16:00;CYHM 081600Z 33014KT 15SM SCT035 SCT240 22/15 A2984 RMK CU3CI0 TCU ASOCTD CI TR SLP105

CYHM;2008-08-08 17:00;CYHM 081700Z 32012KT 15SM SCT038 BKN059 BKN180 22/14 A2983 RMK CU3SC2AC1 TCU ASOCIATD SLP102

CYHM;2008-08-08 17:51;CYHM 081751Z 33020KT 15SM -SHRA SCT053 SCT058 BKN084 RMK CU3SC1AC2 TCU ASOCTD

CYHM;2008-08-08 18:00;CYHM 081800Z 35010G20KT 15SM -SHRA SCT031 BKN045 BKN080 17/13 A2984 RMK CU3SC2AC2 SLP104

CYHM;2008-08-08 18:12;CYHM 081812Z 34012KT 15SM VCSH BKN048TCU BKN095 RMK TCU5AC1

CYHM;2008-08-08 19:00;CYHM 081900Z 32013G18KT 15SM VCSH SCT050TCU BKN075 20/13 A2983 RMK TCU4AC1 SLP102

CYHM;2008-08-08 20:00;CYHM 082000Z 31013KT 15SM VCSH SCT037TCU SCT097 22/14 A2983 RMK TCU3AC1 CB NE SLP101

CYHM;2008-08-08 20:13;CYHM 082013Z 34014G23KT 12SM -TSRA BKN045TCU RMK TCU6 CB ASOCTD

CYHM;2008-08-08 21:00;CYHM 082100Z 31008KT 15SM VCSH BKN040TCU BKN080 21/15 A2983 RETS RMK TCU5AC1 CB ASOCTD SLP102

CYHM;2008-08-08 22:00;CYHM 082200Z 31008KT 15SM VCSH FEW040TCU SCT065 SCT120 21/14 A2984 RMK TCU2SC1AC1 VIRGA N TR AC SLP105

CYHM;2008-08-08 22:11;CYHM 082211Z 35013G18KT 10SM -SHRA BKN044TCU RMK TCU6 CB ASOCTD

CYHM;2008-08-08 23:00;CYHM 082300Z 36005KT 15SM VCSH BKN040TCU BKN085 19/14 A2985 RMK TCU5AC1 SLP109

CYHM;2008-08-09 00:00;CYHM 090000Z 31008KT 15SM FEW040TCU FEW090 FEW240 19/13 A2986 RMK TCU2AC1CI1 SLP113

CYHM;2008-08-09 01:00;CYHM 090100Z 32008KT 15SM FEW040 17/12 A2987 RMK SC1 TCU TOP ESE SLP116

CYHM;2008-08-09 02:00;CYHM 090200Z 31005KT 15SM FEW035 16/12 A2989 RMK SC1 SLP122

CYHM;2008-08-09 03:00;CYHM 090300Z 00000KT 15SM FEW035 FEW210 15/12 A2990 RMK SC1CI1 TR SC SLP124

CYHM;2008-08-09 04:00;CYHM 090400Z 27004KT 15SM FEW210 15/12 A2989 RMK CI1 SLP122

CYHM;2008-08-09 05:00;CYHM 090500Z 28004KT 15SM FEW210 14/12 A2990 RMK CI1 SLP123

CYHM;2008-08-09 06:00;CYHM 090600Z 26003KT 15SM FEW200 13/12 A2989 RMK CI1 SLP122

CYHM;2008-08-09 07:00;CYHM 090700Z 26005KT 15SM FEW200 12/11 A2989 RMK CI1 SLP122

CYHM;2008-08-09 08:00;CYHM 090800Z 28006KT 15SM FEW060 FEW200 12/11 A2989 RMK SC1CI1 SLP123

CYHM;2008-08-09 09:00;CYHM 090900Z 27006KT 15SM FEW065 FEW200 12/11 A2990 RMK SC2CI1 SLP125

CYHM;2008-08-09 10:00;CYHM 091000Z 26004KT 15SM FEW045 FEW060 FEW210 12/11 A2989 RMK CU1SC1CI1 TR CU SLP123

CYHM;2008-08-09 11:00;CYHM 091100Z CCA 23004KT 15SM FEW040 FEW240 11/11 A2990 RMK CU1CI1 CONTRAILS SLP124

CYHM;2008-08-09 12:00;CYHM 091200Z 24004KT 15SM FEW040 SCT250 14/12 A2990 RMK CU1CI2 CU TR CONTRAILS SLP124

CYHM;2008-08-09 13:00;CYHM 091300Z 23005KT 15SM FEW040 FEW100 SCT250 17/13 A2991 RMK CU1AC1CI2 CU AC TR CONTRAILS SLP127

CYHM;2008-08-09 14:00;CYHM 091400Z 22006KT 15SM FEW040 FEW100 FEW250 19/14 A2989 RMK CU1AC1CI1 CU AC TR SLP123

CYHM;2008-08-09 15:00;CYHM 091500Z 20008KT 15SM FEW040 BKN096 BKN250 20/12 A2988 RMK CU1AC7CI1 CU CI TR SLP116

CYHM;2008-08-09 16:00;CYHM 091600Z 17007KT 15SM FEW040 SCT058 BKN110 21/13 A2986 RMK CU1SC3AC3 SLP112

CYHM;2008-08-09 17:00;CYHM 091700Z 18012KT 15SM BKN034 BKN058 BKN110 22/16 A2984 RMK SC5SC2AC1 CU ASOCTD SLP106

CYHM;2008-08-09 18:00;CYHM 091800Z 18015KT 15SM BKN034 BKN120 BKN250 22/16 A2980 RMK SC5AC2CI1 CU ASOCTD SLP092

CYHM;2008-08-09 18:44;CYHM 091844Z 20013KT 15SM TS VCSH BKN038 BKN250 RMK SC6CI1 CB EMBDD

CYHM;2008-08-09 18:47;CYHM 091847Z 18012KT 150V230 15SM -TSRA BKN038 BKN250 RMK SC6CI1 CB EMBDD

CYHM;2008-08-09 19:00;CYHM 091900Z 27008G24KT 180V320 6SM TSRA BKN035 BKN250 17/15 A2982 RERA RMK SC7CI1 CB EMBDD SLP098

CYHM;2008-08-09 20:00;CYHM 092000Z 02008KT 200V040 10SM -TSRA FEW015 BKN043 OVC080 16/15 A2982 RERA RMK CF1SC5AC2 CB EMBDD SLP099

CYHM;2008-08-09 21:00;CYHM 092100Z 05004KT 7SM TSRA FEW012 BKN043 BKN075 16/15 A2982 RMK CF1SC5AC2 CB EMBDD LTGCG SLP099

CYHM;2008-08-09 21:18;CYHM 092118Z 29007KT 1 1/4SM +TSRA FEW007 OVC043 RMK RA2CF1SC6 CB EMBDD LTGCG

CYHM;2008-08-09 21:24;CYHM 092124Z 25002KT 8SM -TSRA FEW007 BKN043 BKN072 RERA RMK CF2SC3AC2 CB EMBDD

CYHM;2008-08-09 22:00;CYHM 092200Z 13003KT 12SM -TSRA SCT045CB BKN072 BKN180 16/15 A2978 RERA RMK CB3AC2AC2 /R21/ SLP088

CYHM;2008-08-09 22:29;CYHM 092229Z 29010KT 12SM -TSRA BKN011 OVC038CB RMK CF6CB2

CYHM;2008-08-09 22:39;CYHM 092239Z 29012KT 1 1/4SM +TSRA BKN010 OVC035CB RMK RA2CF4CB2

CYHM;2008-08-09 22:54;CYHM 092254Z 29006KT 4SM -TSRA BR BKN011 OVC042CB RERA RMK CF6CB2

CYHM;2008-08-09 23:00;CYHM 092300Z 29006KT 5SM -TSRA BR BKN011 OVC042CB 15/14 A2981 RERA RMK CF5CB3 SLP097

CYHM;2008-08-09 23:20;CYHM 092320Z 01003KT 5SM -TSRA BR FEW011 BKN040CB OVC082 RMK CF2CB4AC2

CYHM;2008-08-10 00:00;CYHM 100000Z 31004KT 5SM TSRA BR FEW007 BKN041CB OVC088 14/13 A2982 RMK CF2CB5AC2 /R34/ SLP100

CYHM;2008-08-10 00:42;CYHM 100042Z 31006KT 12SM -SHRA SCT045 BKN077 RETSRA RMK SC3AC4

CYHM;2008-08-10 01:00;CYHM 100100Z CCA 31002KT 15SM -SHRA SCT053 BKN086 13/12 A2981 RETSRA RMK SC3AC4 SLP098

CYHM;2008-08-10 02:00;CYHM 100200Z 12004KT 15SM -SHRA FEW040 OVC086 13/12 A2977 RMK SC2AC6 PCPN VRY LGT SLP083

CYHM;2008-08-10 03:00;CYHM 100300Z 27005KT 15SM FEW002 OVC190 13/12 A2979 RMK CF1AC7 SLP089

CYHM;2008-08-10 04:00;CYHM 100400Z 25007KT 10SM FEW002 BKN070 BKN250 13/12 A2981 RMK CF2AC2CI1 SLP096

CYHM;2008-08-10 05:00;CYHM 100500Z 24005KT 15SM FEW003 FEW250 12/11 A2981 RMK CF2CI1 SLP096

CYHM;2008-08-10 06:00;CYHM 100600Z 26005KT 15SM FEW005 FEW250 11/11 A2981 RMK CF1CI1 SLP093

CYHM;2008-08-10 07:00;CYHM 100700Z 25005KT 15SM FEW003 FEW037 SCT091 BKN200 11/11 A2980 RMK CF1SC1AC2CI1 LTNG ESE SLP091

CYHM;2008-08-10 08:00;CYHM 100800Z 23005KT 15SM SCT078 BKN200 10/10 A2978 RMK AC3CI2 SLP085

CYHM;2008-08-10 09:00;CYHM 100900Z 22003KT 15SM FEW090 SCT140 11/10 A2978 RMK AC2AC2 SLP085

CYHM;2008-08-10 09:37;CYHM 100937Z 21004KT 12SM -SHRA SCT065 BKN087 RMK SC4AC3 TCU ASOCTD

CYHM;2008-08-10 10:00;CYHM 101000Z 21005KT 15SM FEW025TCU SCT042 BKN073 OVC120 12/11 A2978 RMK TCU1SC2AC3AC2 SLP088

CYHM;2008-08-10 10:07;CYHM 101007Z CCB 21005KT 15SM -SHRA FEW025TCU SCT042 BKN073 OVC120 RMK TCU1SC2AC3AC2

CYHM;2008-08-10 11:00;CYHM 101100Z 20006KT 4SM -SHRA BR FEW019 SCT025TCU BKN040 12/11 A2979 RMK CF2TCU2SC4 PCPN VRY LGT SLP089

CYHM;2008-08-10 11:30;CYHM 101130Z 20006KT 4SM BR FEW008 FEW018 SCT025TCU BKN049 RMK SF1SF2TCU2SC3 DARK TWD E

CYHM;2008-08-10 12:00;CYHM 101200Z 23006KT 12SM FEW008 SCT025TCU BKN045 BKN080 BKN250 13/12 A2980 RMK SF2TCU2SC2AC1CI1 BR SLP092

CYHM;2008-08-10 12:44;CYHM 101244Z 24009KT 12SM SCT006 BKN011 RMK SF4SC3

CYHM;2008-08-10 13:00;CYHM 101300Z 24007KT 12SM FEW006 BKN011 BKN090 14/13 A2980 RMK SF2SC3AC2 SLP094

CYHM;2008-08-10 14:00;CYHM 101400Z 21006KT 15SM BKN013 BKN018 BKN120 15/13 A2980 RMK CU5SC2AC1 SLP093

CYHM;2008-08-10 15:00;CYHM 101500Z CCA 21005KT 15SM BKN025 OVC035 15/13 A2981 RMK CU5SC3 SLP096

CYHM;2008-08-10 15:20;CYHM 101520Z 22004KT 12SM -SHRA SCT025 BKN064 OVC073 RMK CF3SC3AC2

CYHM;2008-08-10 15:40;CYHM 101540Z 24004KT 3SM -SHRA BR FEW021 BKN030 OVC045 RMK CF2SC3SC2

CYHM;2008-08-10 16:00;CYHM 101600Z 18002KT 1 3/4SM -SHRA BR FEW018 BKN024 OVC040 14/13 A2981 RMK CF2SC3SC2 SLP096

CYHM;2008-08-10 16:15;CYHM 101615Z 00000KT 4SM -SHRA BR FEW010 BKN022 BKN038 OVC067 14/ RMK CF2SC3SC2AC2

CYHM;2008-08-10 17:00;CYHM 101700Z 00000KT 12SM -SHRA SCT005 BKN012 OVC030 14/13 A2980 RMK CF3SC3SC2 PCPN VRY LGT SLP093

CYHM;2008-08-10 18:00;CYHM 101800Z 18003KT 8SM -SHRA FEW008 SCT018 OVC046 15/13 A2980 RERA RMK SF2CU2SC4 SLP094

CYHM;2008-08-10 18:16;CYHM 101816Z 20004KT 2 1/2SM -RA BR SCT008 BKN014 OVC025 RMK FG1SF2SC4SC1

CYHM;2008-08-10 18:47;CYHM 101847Z 18002KT 1 3/4SM -RA BR SCT008 BKN015 OVC025 RMK FG2SF2SC3SC1

CYHM;2008-08-10 19:00;CYHM 101900Z 15003KT 3SM -SHRA BR SCT007 BKN015 OVC050 14/13 A2981 RMK FG1SF2SC3SC1 SLP095

CYHM;2008-08-10 19:42;CYHM 101942Z 11003KT 12SM SCT009 BKN016 BKN075 RMK CF3SC2AC2

CYHM;2008-08-10 20:00;CYHM 102000Z 08003KT 15SM SCT010 BKN017 BKN075 15/12 A2981 RMK CU3SC2AC2 TCU ASOCTD SLP097

CYHM;2008-08-10 21:00;CYHM 102100Z 07007KT 040V100 15SM SCT012 BKN017 BKN077 BKN250 16/12 A2982 RMK CU3SC2AC1CI1 TCU ASOCTD SLP099

CYHM;2008-08-10 22:00;CYHM 102200Z 05005KT 020V080 15SM SCT013 BKN018 BKN140 BKN200 16/12 A2982 RMK CU3SC2AC2CI1 TCU ASOCTD S CI TR SLP099

CYHM;2008-08-10 23:00;CYHM 102300Z 04005KT 15SM VCSH FEW015 SCT020 BKN140 BKN220 16/11 A2983 RMK CU2SC1AC2CI1 TCU ASOCTD SLP102

CYHM;2008-08-11 00:00;CYHM 110000Z 04006KT 15SM FEW015 SCT070 SCT120 BKN220 14/12 A2985 RMK CU2AC1AC1CI1 TCU ASOCTD NE SLP109

CYHM;2008-08-11 01:00;CYHM 110100Z 02003KT 15SM FEW015TCU SCT070 BKN100 13/11 A2986 RMK TCU2AC2AC2 SLP114

CYHM;2008-08-11 01:29;CYHM 110129Z 35003KT 15SM -SHRA FEW015 SCT024 BKN085 RMK CU1SC3AC2

CYHM;2008-08-11 02:00;CYHM 110200Z 35004KT 15SM SCT025 BKN077 13/12 A2987 RMK SC4AC2 SLP116

CYHM;2008-08-11 03:00;CYHM 110300Z 36006KT 15SM FEW010 SCT038 BKN070 13/12 A2987 RMK CF2SC2AC1 LTNG NE SLP116

CYHM;2008-08-11 04:00;CYHM 110400Z 01007KT 15SM BKN011 BKN029 14/13 A2988 RMK CF5SC2 SLP119

CYHM;2008-08-11 05:00;CYHM 110500Z 03007KT 15SM SCT016 SCT065 14/12 A2988 RMK CF2SC1 SLP119

CYHM;2008-08-11 06:00;CYHM 110600Z 01008KT 15SM FEW017 OVC080 14/12 A2989 RMK CF1AC7 SLP122

CYHM;2008-08-11 07:00;CYHM 110700Z 36006KT 15SM FEW050 FEW080 13/11 A2988 RMK SC1AC1 SLP121

CYHM;2008-08-11 08:00;CYHM 110800Z 35004KT 15SM FEW083 13/11 A2988 RMK AC2 SLP118

CYHM;2008-08-11 09:00;CYHM 110900Z 00000KT 15SM FEW086 FEW210 11/10 A2988 RMK AC1CI1 SLP121

CYHM;2008-08-11 10:00;CYHM 111000Z 30003KT 15SM FEW040 10/10 A2988 RMK SC2 TCU ASOCTD SLP120

CYHM;2008-08-11 11:00;CYHM 111100Z 00000KT 15SM FEW045 SCT220 12/10 A2991 RMK SC1CI2 SLP131

CYHM;2008-08-11 12:00;CYHM 111200Z 32006KT 15SM FEW025 FEW220 14/12 A2993 RMK CU1CI1 TCU ASOCTD SLP137

CYHM;2008-08-11 13:00;CYHM 111300Z 35006KT 15SM FEW025 FEW220 17/14 A2994 RMK CU1CI1 TCU ASOCTD SLP140

CYHM;2008-08-11 14:00;CYHM 111400Z 35008KT 15SM FEW025 FEW220 19/15 A2993 RMK CU1CI0 SLP138

CYHM;2008-08-11 15:00;CYHM 111500Z 34008KT 15SM SCT032 BKN220 21/15 A2994 RMK CU4CI0 TCU ASOCTD CI TR SLP137

CYHM;2008-08-11 16:00;CYHM 111600Z 35012KT 15SM SCT032 BKN042 BKN220 21/14 A2993 RMK CU4SC2CI0 TCU ASOCTD CI TR SLP136

CYHM;2008-08-11 17:00;CYHM 111700Z 35006KT 15SM SCT034 BKN040 BKN082 BKN240 21/14 A2991 RMK CU3SC2AC1CI0 SLP129

CYHM;2008-08-11 18:00;CYHM 111800Z 02010KT 15SM SCT032 BKN220 23/15 A2991 RMK CU3CI1 SLP127

CYHM;2008-08-11 19:00;CYHM 111900Z 36008KT 15SM SCT042 BKN055 24/14 A2990 RMK CU4SC1 SLP124

CYHM;2008-08-11 20:00;CYHM 112000Z 31005KT 280V350 15SM SCT040 BKN061 BKN092 23/14 A2989 RMK CU4SC2AC2 SLP122

CYHM;2008-08-11 21:00;CYHM 112100Z 33007KT 15SM VCSH SCT040TCU BKN056 BKN090 24/15 A2989 RMK TCU3SC2AC1 SLP120

CYHM;2008-08-11 22:00;CYHM 112200Z 36008KT 320V040 15SM VCSH SCT040 BKN058 BKN100 23/15 A2988 RMK CU4SC1AC1 TCU ASOCTD SLP119

CYHM;2008-08-11 23:00;CYHM 112300Z 06003KT 15SM SCT040 BKN054 BKN100 23/15 A2988 RMK CU3SC2AC1 TCU ASOCTD SLP119

CYHM;2008-08-12 00:00;CYHM 120000Z 34006KT 15SM FEW040 SCT054 21/14 A2990 RMK CU2SC2 SLP125

CYHM;2008-08-12 01:00;CYHM 120100Z 34005KT 15SM FEW042 FEW055 19/13 A2991 RMK CU2SC1 SLP129

CYHM;2008-08-12 01:45;CYHM 120145Z 36004KT 15SM FEW040TCU FEW055 RMK TCU1SC1 LTNG DIST SE

CYHM;2008-08-12 02:00;CYHM 120200Z 36005KT 15SM FEW035TCU FEW055 18/13 A2992 RMK TCU1SC1 CB TOB DIST SE LTNG DIST SE SC TR SLP132

CYHM;2008-08-12 03:00;CYHM 120300Z 36004KT 15SM FEW043 17/13 A2993 RMK SC2 SLP133

CYHM;2008-08-12 04:00;CYHM 120400Z 32003KT 15SM FEW045 15/14 A2992 RMK SC1 SLP131

CYHM;2008-08-12 05:00;CYHM 120500Z 30005KT 15SM SKC 15/13 A2991 RMK SLP127

CYHM;2008-08-12 06:00;CYHM 120600Z 30002KT 15SM SKC 15/13 A2991 RMK SLP129

CYHM;2008-08-12 07:00;CYHM 120700Z 35003KT 15SM SKC 14/13 A2990 RMK SLP125

CYHM;2008-08-12 08:00;CYHM 120800Z 33002KT 15SM FEW120 14/13 A2991 RMK AC1 SLP126

CYHM;2008-08-12 09:00;CYHM 120900Z 32006KT 15SM SKC 15/13 A2991 RMK SLP127

CYHM;2008-08-12 10:00;CYHM 121000Z CCA 31002KT 15SM FEW040 13/12 A2991 RMK SC1 SLP127

CYHM;2008-08-12 11:00;CYHM 121100Z 00000KT 15SM FEW040 13/12 A2992 RMK SC1 SC TR SLP130

CYHM;2008-08-12 12:00;CYHM 121200Z 00000KT 15SM FEW040 14/13 A2993 RMK SC1 SC TR SLP134

CYHM;2008-08-12 13:00;CYHM 121300Z 32004KT 15SM FEW025 18/15 A2993 RMK CU1 SLP134

CYHM;2008-08-12 14:00;CYHM 121400Z 27006KT 15SM FEW025 FEW100 19/15 A2993 RMK CU1AC1 CU TR SLP135

CYHM;2008-08-12 15:00;CYHM 121500Z 33007KT 15SM FEW025 SCT220 21/15 A2993 RMK CU2CI0 SLP133

CYHM;2008-08-12 16:00;CYHM 121600Z CCA 33009KT 15SM BKN026 BKN040 21/15 A2992 RMK CU5SC2 SLP132

CYHM;2008-08-12 17:00;CYHM 121700Z 35006KT 15SM SCT036 BKN047 22/15 A2991 RMK CU4SC2 SLP127

CYHM;2008-08-12 18:00;CYHM 121800Z 30008KT 260V350 15SM SCT046 BKN057 BKN062 BKN220 23/15 A2989 RMK CU3SC2SC1CI0 SLP122

CYHM;2008-08-12 19:00;CYHM 121900Z 30007KT 270V330 15SM SCT042 BKN058 BKN100 24/15 A2988 RMK CU3SC2AC1 SLP118

CYHM;2008-08-12 20:00;CYHM 122000Z 36006KT 15SM VCSH SCT035 BKN049 BKN090 22/14 A2987 RMK CU3SC2AC2 SLP113

CYHM;2008-08-12 20:20;CYHM 122020Z 36005KT 15SM -SHRA SCT035 BKN048 BKN085 RMK CU3SC2AC1 PCPN VRY LGT

CYHM;2008-08-12 21:00;CYHM 122100Z 35005KT 320V020 15SM VCSH SCT035 BKN050 BKN092 23/15 A2985 RMK CU3SC2AC2 TCU ASOCTD SLP106

CYHM;2008-08-12 22:00;CYHM 122200Z 33004KT 15SM VCSH SCT035 BKN050 BKN082 23/15 A2985 RMK CU3SC2AC1 TCU EMBD S-SW SLP106

CYHM;2008-08-12 23:00;CYHM 122300Z 25004KT 15SM FEW035 BKN050 BKN081 21/15 A2985 RMK CU2SC2AC2 TCU ASOCTD SLP106

CYHM;2008-08-12 23:04;CYHM 122304Z 26004KT 15SM -SHRA FEW035 BKN049 BKN081 RMK CU2SC3AC2 TCU ASOCTD

CYHM;2008-08-12 23:40;CYHM 122340Z 26004KT 15SM VCSH FEW035 BKN047 BKN082 RMK CU2SC2AC2 TCU EMBD S

CYHM;2008-08-13 00:00;CYHM 130000Z 24004KT 15SM FEW035 BKN046 BKN085 20/16 A2985 RMK CU2SC2AC2 SLP109

CYHM;2008-08-13 01:00;CYHM 130100Z 25002KT 15SM FEW035 SCT047 BKN088 18/16 A2986 RMK CU1SC2AC2 SLP110

CYHM;2008-08-13 02:00;CYHM 130200Z 25002KT 15SM SCT060 17/16 A2986 RMK SC3 SLP110

CYHM;2008-08-13 03:00;CYHM 130300Z 27002KT 15SM FEW068 17/15 A2986 RMK AC1 SLP110

CYHM;2008-08-13 04:00;CYHM 130400Z 23004KT 15SM FEW070 16/15 A2986 RMK AC1 SLP111

CYHM;2008-08-13 05:00;CYHM 130500Z 27004KT 15SM SKC 16/15 A2986 RMK SLP110

CYHM;2008-08-13 06:00;CYHM 130600Z 27004KT 15SM FEW250 16/14 A2984 RMK CI1 SLP105

CYHM;2008-08-13 07:00;CYHM 130700Z 21003KT 12SM SKC 13/13 A2984 RMK SLP102

CYHM;2008-08-13 07:14;CYHM 130714Z 23003KT 3/8SM FG SKC RMK FG2

CYHM;2008-08-13 07:46;CYHM 130746Z 26003KT 1SM BR SKC RMK FG1 VIS NE 5

CYHM;2008-08-13 08:00;CYHM 130800Z 26003KT 10SM SKC 14/14 A2983 RMK SLP100

CYHM;2008-08-13 09:00;CYHM 130900Z 26003KT 12SM FEW050 14/13 A2983 RMK SC1 SLP099

CYHM;2008-08-13 10:00;CYHM 131000Z 27002KT 15SM FEW025 FEW080 FEW230 14/13 A2982 RMK CU1AC1CI0 SLP096

CYHM;2008-08-13 11:00;CYHM 131100Z 27004KT 15SM FEW025 FEW100 FEW220 14/13 A2982 RMK CU1AC1CI1 SLP096

CYHM;2008-08-13 12:00;CYHM 131200Z 26004KT 15SM FEW025 FEW100 FEW220 15/14 A2982 RMK CU1AC1CI1 SLP099

CYHM;2008-08-13 13:00;CYHM 131300Z 28004KT 15SM FEW025 FEW120 FEW220 18/15 A2982 RMK CU1AC1CI1 SLP099

CYHM;2008-08-13 14:00;CYHM 131400Z 30006KT 15SM FEW025 FEW120 BKN220 20/15 A2984 RMK CU1AC1CI2 CU TR SLP103

CYHM;2008-08-13 15:00;CYHM 131500Z 27006KT 15SM FEW030 FEW045 SCT078 BKN220 22/16 A2984 RMK CU2SC1AC1CI1 SLP102

CYHM;2008-08-13 16:00;CYHM 131600Z 19002KT 15SM SCT029 BKN040 BKN078 22/16 A2983 RMK CU4SC2AC1 TCU ASOCTD SLP099

CYHM;2008-08-13 16:24;CYHM 131624Z 26006KT 15SM TS SCT030TCU BKN053 BKN080 RMK TCU4SC2AC1 CB ASOCTD

CYHM;2008-08-13 16:29;CYHM 131629Z 32010KT 10SM -TSRA SCT030TCU BKN051 BKN078 RMK TCU4SC2AC2 CB ASOCTD

CYHM;2008-08-13 16:47;CYHM 131647Z 03015G20KT 2 1/2SM TSRA BR BKN019CB BKN048 RMK CB5SC2

CYHM;2008-08-13 17:00;CYHM 131700Z 05007KT 4SM -TSRA BR SCT020CB BKN030 BKN049 16/14 A2984 RMK CB3SC2SC2 SLP103

CYHM;2008-08-13 17:15;CYHM 131715Z 05008KT 8SM FEW020 BKN054 BKN082 RMK CU2SC4AC1 RETSRA

CYHM;2008-08-13 18:00;CYHM 131800Z 05012KT 15SM FEW025 FEW045 BKN090 BKN110 19/17 A2982 RMK CU1SC2AC2AC1 SLP098

CYHM;2008-08-13 18:28;CYHM 131828Z 03012KT 10SM TS FEW015 SCT030TCU BKN042 RMK CF1TCU3SC3 CB EMBD

CYHM;2008-08-13 19:00;CYHM 131900Z 07008KT 10SM -SHRA FEW015 SCT030TCU BKN043 BKN094 19/15 A2982 RETS RMK CF1TCU2SC3AC1 SLP097

CYHM;2008-08-13 19:31;CYHM 131931Z 16008KT 12SM FEW015 FEW030TCU BKN044 BKN094 RMK CF1TCU2SC2AC2

CYHM;2008-08-13 19:40;CYHM 131940Z 16008KT 10SM -SHRA FEW015 FEW030TCU BKN044 BKN094 RMK CF1TCU2SC2AC2

CYHM;2008-08-13 20:00;CYHM 132000Z 18009KT 12SM FEW012 SCT040 BKN090 20/17 A2982 RMK CF2SC2AC2 TCU EMBD SE-S SLP098

CYHM;2008-08-13 21:00;CYHM 132100Z 20003KT 15SM FEW025 SCT040 BKN072 19/15 A2983 RMK CU1SC3AC3 SLP100

CYHM;2008-08-13 22:00;CYHM 132200Z 22004KT 15SM FEW025 SCT040 BKN073 BKN170 20/15 A2982 RMK CU1SC3AC2AC1 SLP097

CYHM;2008-08-13 23:00;CYHM 132300Z 23003KT 15SM FEW025 FEW040 SCT073 BKN130 BKN220 18/15 A2981 RMK CU1SC2AC2AC1CI1 SLP093

CYHM;2008-08-14 00:00;CYHM 140000Z 27002KT 15SM FEW025 FEW040 BKN076 BKN170 18/15 A2981 RMK CU1SC2AC2AC2 CU TR SLP094

CYHM;2008-08-14 01:00;CYHM 140100Z 27005KT 15SM VCSH FEW040 SCT075 BKN170 17/14 A2981 RMK SC2AC2AC2 TCU EMBD NW SLP096

CYHM;2008-08-14 02:00;CYHM 140200Z 31005KT 15SM SCT070 SCT120 BKN180 16/14 A2982 RMK AC3AC1AC2 LTNG DIST N SLP098

CYHM;2008-08-14 03:00;CYHM 140300Z 01005KT 15SM BKN120 BKN180 15/13 A2983 RMK AC5AC1 SLP099

CYHM;2008-08-14 04:00;CYHM 140400Z 36004KT 15SM SCT140 SCT250 16/13 A2983 RMK AC3CI1 SLP100

CYHM;2008-08-14 05:00;CYHM 140500Z 34003KT 15SM FEW140 FEW250 14/13 A2984 RMK AC2CI1 SLP103

CYHM;2008-08-14 06:00;CYHM 140600Z 29003KT 15SM FEW140 FEW250 14/13 A2984 RMK AC1CI1 SLP104

CYHM;2008-08-14 07:00;CYHM 140700Z 31003KT 15SM FEW130 FEW210 14/13 A2983 RMK AC1CI1 TR AC SLP101

CYHM;2008-08-14 08:00;CYHM 140800Z 00000KT 15SM FEW200 13/12 A2982 RMK CI1 SLP098

CYHM;2008-08-14 09:00;CYHM 140900Z 35005KT 15SM FEW200 12/12 A2982 RMK CI1 SLP098

CYHM;2008-08-14 10:00;CYHM 141000Z 01005KT 15SM FEW200 13/12 A2983 RMK CI1 SLP102

CYHM;2008-08-14 11:00;CYHM 141100Z 01006KT 15SM FEW220 14/13 A2984 RMK CI1 SLP106

CYHM;2008-08-14 12:00;CYHM 141200Z 02004KT 15SM FEW220 16/14 A2985 RMK CI1 CONTRAIL SLP109

CYHM;2008-08-14 13:00;CYHM 141300Z 02006KT 15SM FEW240 18/15 A2987 RMK CI0 SLP115

CYHM;2008-08-14 14:00;CYHM 141400Z 03006KT 15SM FEW240 20/16 A2988 RMK CI1 SLP119

CYHM;2008-08-14 15:00;CYHM 141500Z 03006KT 15SM FEW025 SCT220 21/15 A2988 RMK CU1CI1 SLP119

CYHM;2008-08-14 16:00;CYHM 141600Z 03006KT 15SM FEW028 SCT240 22/15 A2989 RMK CU2CI0 SLP120

CYHM;2008-08-14 17:00;CYHM 141700Z 35007KT 15SM SCT032 BKN240 22/15 A2989 RMK CU4CI0 SLP121

CYHM;2008-08-14 18:00;CYHM 141800Z 07004KT 15SM FEW036 FEW058 SCT240 22/14 A2990 RMK CU2SC1CI0 CI TR SLP123

CYHM;2008-08-14 19:00;CYHM 141900Z 07003KT 15SM SCT040 SCT050 SCT250 24/13 A2989 RMK CU3SC1CI1 TCU ASOCTD WND L/V SC TR CI TR SLP120

CYHM;2008-08-14 20:00;CYHM 142000Z 00000KT 15SM SCT042 SCT058 SCT200 23/12 A2988 RMK CU3SC1CI1 TCU ASOCTD CI TR SLP118

CYHM;2008-08-14 21:00;CYHM 142100Z 24003KT 15SM VCSH SCT040 SCT056 BKN096 22/15 A2989 RMK CU3SC1AC1 TCU EMBD SLP121

CYHM;2008-08-14 22:00;CYHM 142200Z 15002KT 15SM FEW040 SCT080 SCT140 24/13 A2989 RMK CU2AC1AC1 SLP122

CYHM;2008-08-14 23:00;CYHM 142300Z 06006KT 15SM FEW035 SCT080 SCT140 21/13 A2990 RMK CU2AC2AC1 SLP125

CYHM;2008-08-15 00:00;CYHM 150000Z 09005KT 15SM FEW030TCU FEW098 SCT130 19/14 A2990 RMK TCU1AC2AC1 TCU TR SLP126

CYHM;2008-08-15 00:47;CYHM 150047Z 34011KT 310V060 15SM TS FEW030CB BKN058 BKN085 RMK CB1SC5AC2 LTNG N

CYHM;2008-08-15 01:00;CYHM 150100Z 01012G20KT 320V060 15SM -TSRA FEW030CB BKN064 BKN083 17/14 A2993 RMK CB1SC5AC2 LTGIC N SLP135

CYHM;2008-08-15 02:00;CYHM 150200Z 36009KT 7SM -TSRA OVC052 15/13 A2999 RMK SC8 CB EMBDD LTGCG PRESRR SLP155

CYHM;2008-08-15 03:00;CYHM 150300Z 02008KT 12SM -TSRA FEW015 OVC050 15/13 A2998 RMK CF1SC8 CB EMBDD LTGCCCG SLP152

CYHM;2008-08-15 04:00;CYHM 150400Z 09006KT 15SM TS FEW050 BKN080 15/13 A2999 RMK SC2AC2 CB EMBDD SLP155

CYHM;2008-08-15 04:44;CYHM 150444Z 16003KT 15SM FEW050 FEW080 RETS RMK SC2AC1

CYHM;2008-08-15 05:00;CYHM 150500Z 15002KT 15SM FEW050 FEW080 13/13 A3000 RETS RMK SC2AC1 SLP159

CYHM;2008-08-15 06:00;CYHM 150600Z 05002KT 15SM FEW050 13/12 A2998 RMK SC1 SLP153

CYHM;2008-08-15 07:00;CYHM 150700Z 30002KT 15SM FEW050 11/11 A2998 RMK SC1 SLP153

CYHM;2008-08-15 08:00;CYHM 150800Z 31003KT 15SM FEW100 11/10 A2998 RMK AC1 SLP153

CYHM;2008-08-15 09:00;CYHM 150900Z 32006KT 15SM SKC 11/10 A2998 RMK SLP152

CYHM;2008-08-15 10:00;CYHM 151000Z 32007KT 15SM FEW030 FEW100 13/11 A3000 RMK CU1AC1 CU TR SLP159

CYHM;2008-08-15 11:00;CYHM 151100Z 33007KT 15SM FEW030 FEW100 13/11 A3002 RMK CU1AC1 SLP166

CYHM;2008-08-15 12:00;CYHM 151200Z 31002KT 15SM FEW030 FEW100 FEW240 15/13 A3004 RMK CU1AC1CI1 CU TR AC TR SLP173

CYHM;2008-08-15 13:00;CYHM 151300Z 35006KT 15SM FEW030 FEW100 SCT240 18/14 A3005 RMK CU1AC1CI2 CU TR AC TR SLP175

CYHM;2008-08-15 14:00;CYHM 151400Z 32005KT 15SM FEW030 FEW140 FEW240 19/14 A3005 RMK CU1AC1CI1 SLP175

CYHM;2008-08-15 15:00;CYHM 151500Z 01004KT 15SM FEW028 FEW220 21/14 A3005 RMK CU1CI1 CU TR SLP177

CYHM;2008-08-15 16:00;CYHM 151600Z 32006KT 15SM SCT028 BKN045 BKN220 22/15 A3006 RMK CU3SC2CI1 SLP178

CYHM;2008-08-15 17:00;CYHM 151700Z 04005KT 15SM BKN032 BKN045 BKN240 22/13 A3005 RMK CU5SC1CI0 TCU ASOCTD SLP175

CYHM;2008-08-15 17:41;CYHM 151741Z 33009KT 15SM -SHRA BKN035 BKN045 BKN220 RMK CU6SC2CI0

CYHM;2008-08-15 18:00;CYHM 151800Z 30002KT 15SM -SHRA BKN030 BKN048 BKN220 20/14 A3005 RMK CU5SC2CI1 TCU ASOCTD SLP175

CYHM;2008-08-15 18:10;CYHM 151810Z 00000KT 15SM -TSRA BKN030TCU RMK TCU6 CB ASOCTD

CYHM;2008-08-15 19:00;CYHM 151900Z 04006KT 12SM -TSRA SCT030CB BKN045 18/14 A3006 RMK CB3SC3 DRK ENE SLP178

CYHM;2008-08-15 20:00;CYHM 152000Z 08003KT 12SM -TSRA SCT030CB BKN045 19/15 A3006 RMK CB3SC4 SLP178

CYHM;2008-08-15 21:00;CYHM 152100Z 00000KT 12SM -TSRA FEW030TCU BKN050 21/15 A3006 RMK TCU2SC4 CB ASOCTD SLP179

CYHM;2008-08-15 21:38;CYHM 152138Z 01005KT 15SM FEW030TCU SCT050 BKN090 RETS RMK TCU2SC2AC2

CYHM;2008-08-15 22:00;CYHM 152200Z 00000KT 15SM FEW030TCU SCT050 BKN090 21/15 A3005 RETS RMK TCU2SC2AC2 SLP178

CYHM;2008-08-15 23:00;CYHM 152300Z CCA 00000KT 15SM FEW030TCU BKN100 19/14 A3006 RMK TCU2AC2 VIRGA SW CB TOP SW SLP179

CYHM;2008-08-16 00:00;CYHM 160000Z 35004KT 15SM FEW030TCU BKN050 BKN100 18/14 A3006 RMK TCU2SC3AC1 SLP181

CYHM;2008-08-16 01:00;CYHM 160100Z 00000KT 15SM FEW030 BKN100 16/14 A3007 RMK SC2AC2 SLP182

CYHM;2008-08-16 02:00;CYHM 160200Z 32003KT 15SM FEW090 15/13 A3009 RMK AC2 SLP189

CYHM;2008-08-16 03:00;CYHM 160300Z 32003KT 15SM FEW090 14/12 A3009 RMK AC2 SLP189

CYHM;2008-08-16 04:00;CYHM 160400Z 30003KT 15SM FEW090 14/12 A3009 RMK AC2 SLP188

CYHM;2008-08-16 05:00;CYHM 160500Z 27004KT 15SM FEW080 14/12 A3009 RMK AC2 SLP188

CYHM;2008-08-16 06:00;CYHM 160600Z 25004KT 15SM FEW080 13/12 A3008 RMK AC2 SLP188

CYHM;2008-08-16 07:00;CYHM 160700Z 28005KT 15SM FEW070 13/12 A3007 RMK AC2 SLP185

CYHM;2008-08-16 08:00;CYHM 160800Z 29007KT 15SM SCT030CB 14/13 A3007 RMK CB4 SLP183

CYHM;2008-08-16 09:00;CYHM 160900Z 25003KT 15SM BKN030CB 14/13 A3006 RMK CB5 SLP180

CYHM;2008-08-16 10:00;CYHM 161000Z 27005KT 15SM FEW030TCU FEW250 13/12 A3006 RMK TCU1CI1 SLP180

CYHM;2008-08-16 11:00;CYHM 161100Z 26004KT 15SM FEW030 FEW250 13/13 A3007 RMK SC1CI0 CU ASOCTD SLP181

CYHM;2008-08-16 12:00;CYHM 161200Z 27005KT 15SM FEW010 FEW250 15/14 A3007 RMK SF1CI0 SLP183

CYHM;2008-08-16 13:00;CYHM 161300Z 27008KT 15SM FEW250 17/15 A3007 RMK CI0 SLP184

CYHM;2008-08-16 14:00;CYHM 161400Z 27007KT 240V330 15SM FEW250 20/16 A3007 RMK CI0 SLP184

CYHM;2008-08-16 15:00;CYHM 161500Z 30010KT 15SM FEW032 FEW250 22/14 A3007 RMK CU1CI1 SLP183

CYHM;2008-08-16 16:00;CYHM 161600Z 29012KT 15SM FEW035 FEW250 22/14 A3006 RMK CU1CI1 SLP180

CYHM;2008-08-16 17:00;CYHM 161700Z 28009KT 15SM FEW040 SCT250 23/13 A3005 RMK CU1CI1 SLP177

CYHM;2008-08-16 18:00;CYHM 161800Z 27010KT 15SM FEW042 BKN250 24/13 A3004 RMK CU2CI1 SLP172

CYHM;2008-08-16 19:00;CYHM 161900Z 26010KT 15SM SCT042 BKN250 24/13 A3003 RMK SC3CI1 CU ASOCTD SLP167

CYHM;2008-08-16 20:00;CYHM 162000Z 28011KT 15SM FEW044 SCT250 24/12 A3001 RMK SC2CI1 CU ASOCTD SLP162

CYHM;2008-08-16 21:00;CYHM 162100Z 27012KT 15SM FEW044 SCT250 24/13 A3000 RMK SC2CI1 CU ASOCTD SLP158

CYHM;2008-08-16 22:00;CYHM 162200Z 27011KT 15SM FEW044 SCT250 23/12 A2999 RMK SC2CI1 CU ASOCTD SLP155

CYHM;2008-08-16 23:00;CYHM 162300Z 27009KT 15SM FEW042 SCT250 23/12 A2999 RMK SC2CI2 SLP154

CYHM;2008-08-17 00:00;CYHM 170000Z 26004KT 15SM FEW042 SCT250 21/13 A2999 RMK SC1CI2 CONTRAIL SLP155

CYHM;2008-08-17 01:00;CYHM 170100Z 24003KT 15SM FEW045 SCT250 19/13 A3000 RMK SC1CI1 SLP158

CYHM;2008-08-17 02:00;CYHM 170200Z 21003KT 15SM FEW045 FEW250 17/13 A3001 RMK SC1CI1 SC TR SLP161

CYHM;2008-08-17 03:00;CYHM 170300Z 23006KT 15SM FEW040 FEW250 15/13 A3000 RMK SC1CI1 TR SC SLP157

CYHM;2008-08-17 04:00;CYHM 170400Z 23007KT 15SM FEW090 FEW250 16/14 A2998 RMK AC2CI1 TR CI SLP153

CYHM;2008-08-17 05:00;CYHM 170500Z 23005KT 15SM FEW090 SCT250 15/14 A2998 RMK AC2CI1 SLP152

CYHM;2008-08-17 06:00;CYHM 170600Z 26005KT 15SM FEW080 FEW250 16/15 A2997 RMK AC2CI1 SLP149

CYHM;2008-08-17 07:00;CYHM 170700Z 24006KT 15SM FEW080 15/14 A2997 RMK AC2 SLP148

CYHM;2008-08-17 08:00;CYHM 170800Z 23007KT 15SM SCT080 BKN250 15/14 A2997 RMK AC4CI1 SLP146

CYHM;2008-08-17 09:00;CYHM 170900Z 25006KT 15SM BKN130 BKN250 15/14 A2997 RMK AC6CI1 SLP148

CYHM;2008-08-17 10:00;CYHM 171000Z 24006KT 15SM FEW040 BKN100 15/14 A2997 RMK SC2AC2 SLP149

CYHM;2008-08-17 11:00;CYHM 171100Z 23005KT 15SM FEW100 FEW250 14/13 A2997 RMK AC1CI1 SLP149

CYHM;2008-08-17 12:00;CYHM 171200Z 26005KT 15SM FEW100 FEW250 16/14 A2998 RMK AC1CI0 SLP152

CYHM;2008-08-17 13:00;CYHM 171300Z 26005KT 15SM BKN100 18/15 A2998 RMK AC7 SLP153

CYHM;2008-08-17 14:00;CYHM 171400Z 26006KT 15SM BKN080 20/16 A2999 RMK AC6 SLP154

CYHM;2008-08-17 15:00;CYHM 171500Z 25006KT 15SM FEW040 FEW080 22/17 A2999 RMK SC1AC1 CU ASOCTD SLP155

CYHM;2008-08-17 16:00;CYHM 171600Z CCA 22009KT 180V270 15SM FEW030 FEW150 SCT250 24/18 A2998 RMK CU1AC2CI0 SLP153

CYHM;2008-08-17 17:00;CYHM 171700Z 23010KT 180V270 15SM FEW030 SCT150 SCT250 24/18 A2997 RMK CU2AC2CI0 SLP149

CYHM;2008-08-17 18:00;CYHM 171800Z 24011KT 190V280 15SM SCT030 26/18 A2996 RMK CU4 SLP142

CYHM;2008-08-17 19:00;CYHM 171900Z 24010KT 15SM SCT030 BKN050 BKN250 26/18 A2994 RMK CU4SC1CI0 SLP138

CYHM;2008-08-17 20:00;CYHM 172000Z 24011KT 15SM SCT030 BKN050 BKN250 26/18 A2993 RMK CU4SC2CI0 TCU ASOCTD SLP134

CYHM;2008-08-17 21:00;CYHM 172100Z 25010KT 15SM SCT032 BKN055 BKN250 26/18 A2992 RMK CU4SC1CI0 SLP131

CYHM;2008-08-17 22:00;CYHM 172200Z 26010KT 220V300 15SM SCT032 SCT055 BKN250 26/18 A2992 RMK CU3SC1CI0 SLP130

CYHM;2008-08-17 23:00;CYHM 172300Z 26006KT 15SM FEW030 FEW120 25/17 A2992 RMK CU2AC1 SLP129

CYHM;2008-08-18 00:00;CYHM 180000Z 24005KT 15SM FEW030 FEW230 23/18 A2992 RMK CU1CI1 CU TR SLP131

CYHM;2008-08-18 01:00;CYHM 180100Z 23005KT 15SM FEW190 FEW240 21/18 A2993 RMK AC1CI1 SLP133

CYHM;2008-08-18 02:00;CYHM 180200Z 24005KT 15SM FEW250 20/18 A2994 RMK CI1 SLP137

CYHM;2008-08-18 03:00;CYHM 180300Z 23005KT 15SM SCT220 18/17 A2993 RMK CI2 SLP133

CYHM;2008-08-18 04:00;CYHM 180400Z 22004KT 15SM BKN220 18/17 A2993 RMK CI4 SLP133

CYHM;2008-08-18 05:00;CYHM 180500Z 23004KT 15SM BKN220 18/17 A2993 RMK CS5 HALO SLP133

CYHM;2008-08-18 06:00;CYHM 180600Z 22003KT 15SM BKN220 17/16 A2992 RMK CI6 CS ASOCTD SLP131

CYHM;2008-08-18 07:00;CYHM 180700Z 24005KT 15SM SCT220 18/17 A2992 RMK CI2 SLP129

CYHM;2008-08-18 08:00;CYHM 180800Z 23005KT 15SM FEW220 17/16 A2991 RMK CI1 SLP127

CYHM;2008-08-18 09:00;CYHM 180900Z 23007KT 15SM FEW220 17/16 A2991 RMK CI1 SLP125

CYHM;2008-08-18 10:00;CYHM 181000Z 24006KT 15SM FEW050 FEW120 BKN240 17/16 A2991 RMK SC1AC1CI2 SLP126

CYHM;2008-08-18 11:00;CYHM 181100Z 23007KT 15SM FEW030 FEW240 18/16 A2991 RMK CU1CI1 CU TR CONTRAIL SLP127

CYHM;2008-08-18 12:00;CYHM 181200Z 24006KT 15SM FEW240 19/17 A2992 RMK CI1 CONTRAIL SLP129

CYHM;2008-08-18 13:00;CYHM 181300Z 23010KT 15SM SCT240 22/18 A2992 RMK CI2 CONTRAIL SLP129

CYHM;2008-08-18 14:00;CYHM 181400Z 23010KT 15SM SCT240 24/19 A2992 RMK CI2 SLP129

CYHM;2008-08-18 15:00;CYHM 181500Z 23011KT 15SM BKN240 25/20 A2991 RMK CI2 SLP127

CYHM;2008-08-18 16:00;CYHM 181600Z 23012KT 15SM FEW025 SCT240 26/20 A2991 RMK CU1CI2 SLP126

CYHM;2008-08-18 17:00;CYHM 181700Z 22018KT 15SM FEW032 BKN240 27/20 A2990 RMK CU1CI2 SLP122

CYHM;2008-08-18 18:00;CYHM 181800Z 23015G20KT 15SM FEW032 SCT220 27/20 A2989 RMK CU1CI2 SLP118

CYHM;2008-08-18 19:00;CYHM 181900Z 22014KT 15SM SCT034 SCT250 27/20 A2987 RMK SC4CI1 CI TR CU ASOCTD TCU EMBDED SLP112

CYHM;2008-08-18 20:00;CYHM 182000Z 22015KT 15SM SCT034 BKN250 25/19 A2986 RMK SC3CS3 CUFRA ASOCTD CB ASOCTD TCU EMBDED SLP109

CYHM;2008-08-18 20:23;CYHM 182023Z CCA 24015KT 15SM -TSRA FEW034 BKN050CB BKN120 RMK SC2CB3AC2

CYHM;2008-08-18 21:00;CYHM 182100Z 23012KT 12SM -TSRA FEW018 BKN032CB BKN150 21/18 A2987 RMK SF1CB6AC1 SLP113

CYHM;2008-08-18 21:39;CYHM 182139Z 21003KT 15SM FEW032TCU FEW150 BKN250 RETS RMK TCU1AC1CS6 AC TR

CYHM;2008-08-18 22:00;CYHM 182200Z 22005KT 15SM FEW030TCU FEW150 BKN250 24/20 A2988 RETS RMK TCU1AC1CS6 TCU TR AC TR SLP116

CYHM;2008-08-18 23:00;CYHM 182300Z 21005KT 15SM FEW030TCU FEW150 SCT250 24/20 A2985 RMK TCU1AC1CS2 TCU TR AC TR SLP108

CYHM;2008-08-19 00:00;CYHM 190000Z 22003KT 15SM FEW030TCU FEW070 FEW180 SCT250 22/19 A2988 RMK TCU1AC1AC1CS2 1ST LYR TR 2ND LYR TR SLP118

CYHM;2008-08-19 01:00;CYHM 190100Z 22003KT 15SM FEW030TCU FEW080 BKN250 22/19 A2988 RMK TCU1AC1CS4 LTNG N-N/E CB ASOCTD AC TR SLP115

CYHM;2008-08-19 02:00;CYHM 190200Z 32007KT 10SM -TSRA BKN028CB BKN140 BKN250 21/17 A2991 RMK CB6AC1CS1 LTNG SLP126

CYHM;2008-08-19 03:00;CYHM 190300Z CCB 23008KT 15SM -TSRA FEW024CB SCT080 OVC140 20/17 A2991 RMK CB2AC2AS5 LTNG WND SPD ESTIMATED SLP127

CYHM;2008-08-19 04:00;CYHM 190400Z 25004KT 15SM FEW022 BKN080 BKN250 18/17 A2991 RETS RMK SF1AC6CS1 WND SPD ESTIMATED SLP125

CYHM;2008-08-19 05:00;CYHM 190500Z 35003KT 10SM -SHRA SCT012 BKN020 OVC080 19/19 A2992 RMK SF3SC4AC1 WND SPD ESTD SLP128

CYHM;2008-08-19 06:00;CYHM 190600Z 36004KT 10SM -SHRA SCT010 OVC018 19/19 A2995 RMK SF3SC5 WND SPD ESTD SLP140

CYHM;2008-08-19 06:30;CYHM 190630Z 03008KT 8SM -SHRA FEW004 OVC009 RMK SF2SC6 WND SPD ESTD

CYHM;2008-08-19 07:00;CYHM 190700Z 01010KT 15SM FEW004 SCT012 OVC022 20/19 A2997 RMK SF1SC2SC5 WND SPD ESTD SLP147

CYHM;2008-08-19 08:00;CYHM 190800Z 02010KT 15SM FEW012 FEW022 FEW080 14/14 A3000 RMK SF1SC2AC1 WND SPD ESTD SF TR SLP155

CYHM;2008-08-19 09:00;CYHM 190900Z 03006KT 15SM FEW022 FEW080 BKN250 14/13 A3002 RMK SC1AC1CS2 WND SPD ESTD SC TR SLP167

CYHM;2008-08-19 10:00;CYHM 191000Z 03008KT 15SM FEW024 FEW250 14/12 A3005 RMK SC1CI1 WND SPD ESTD CI TR SLP176

CYHM;2008-08-19 11:00;CYHM 191100Z CCA 36009KT 15SM FEW035 FEW240 13/10 A3008 RMK SC1CI1 WND SPD ESTD CI TR SLP186

CYHM;2008-08-19 12:00;CYHM 191200Z 36010KT 15SM FEW035 13/09 A3011 RMK SC1 WND SPD ESTD CU TR ASOCTD SLP197

CYHM;2008-08-19 13:00;CYHM 191300Z 36009KT 15SM FEW025 FEW035 15/10 A3014 RMK CU1SC2 WND SPD ESTD SLP207

CYHM;2008-08-19 14:00;CYHM 191400Z 05008KT 15SM FEW035 17/10 A3015 RMK CU2 WND SPD ESTD SC ASOCTD SLP209

CYHM;2008-08-19 15:00;CYHM 191500Z 05010KT 15SM FEW030 FEW240 17/09 A3015 RMK CU1CI1 WND SPD ESTD SC ASOCTD SLP210

CYHM;2008-08-19 16:00;CYHM 191600Z CCA 36007KT 15SM FEW030 FEW220 17/10 A3017 RMK CU1CI1 WND SPD ESTD SC TR ASOCTD CONTRAIL SLP214

CYHM;2008-08-19 17:00;CYHM 191700Z 06004KT 15SM FEW032 FEW220 17/10 A3017 RMK CU1CI1 CONTRAIL SLP216

CYHM;2008-08-19 18:00;CYHM 191800Z 03004KT 15SM FEW028 FEW240 17/10 A3017 RMK CU1CI1 CU TR CI TR CONTRAIL SLP218

CYHM;2008-08-19 19:00;CYHM 191900Z 07005KT 15SM FEW032 FEW250 19/10 A3017 RMK CU1CI1 CU TR CI TR CONTRAILS SLP217

CYHM;2008-08-19 20:00;CYHM 192000Z 35008KT 15SM FEW036 FEW250 20/11 A3017 RMK CU1CI1 CU TR CONTRAILS SLP215

CYHM;2008-08-19 21:00;CYHM 192100Z 35007KT 15SM FEW036 FEW250 20/11 A3016 RMK CU1CI1 CU TR CI TR CONTRAILS SLP214

CYHM;2008-08-19 22:00;CYHM 192200Z 00000KT 15SM FEW036 FEW250 20/11 A3017 RMK CU1CI1 CU TR CI TR SLP215

CYHM;2008-08-19 23:00;CYHM 192300Z 09003KT 15SM FEW080 FEW250 19/11 A3017 RMK AC1CI1 AC TR CI TR SLP216

CYHM;2008-08-20 00:00;CYHM 200000Z 00000KT 15SM FEW080 FEW250 18/11 A3017 RMK AC1CI1 AC TR CI TR SLP219

CYHM;2008-08-20 01:00;CYHM 200100Z 04003KT 15SM FEW250 15/11 A3018 RMK CI1 CI TR SLP222

CYHM;2008-08-20 02:00;CYHM 200200Z 06002KT 15SM FEW250 14/10 A3020 RMK CI1 CI TR SLP228

CYHM;2008-08-20 03:00;CYHM 200300Z 01002KT 15SM SKC 14/10 A3021 RMK SLP233

CYHM;2008-08-20 04:00;CYHM 200400Z 01004KT 15SM SKC 13/11 A3022 RMK SLP235

CYHM;2008-08-20 05:00;CYHM 200500Z 01003KT 15SM SKC 12/10 A3023 RMK SLP238

CYHM;2008-08-20 06:00;CYHM 200600Z 36002KT 15SM SKC 12/09 A3023 RMK SLP237

CYHM;2008-08-20 07:00;CYHM 200700Z 00000KT 15SM SKC 11/09 A3022 RMK SLP236

CYHM;2008-08-20 08:00;CYHM 200800Z 00000KT 15SM SKC 11/09 A3023 RMK SLP237

CYHM;2008-08-20 09:00;CYHM 200900Z 04004KT 15SM SKC 11/09 A3022 RMK SLP236

CYHM;2008-08-20 10:00;CYHM 201000Z 00000KT 15SM FEW250 09/08 A3023 RMK CI1 CI TR SLP240

CYHM;2008-08-20 11:00;CYHM 201100Z 03004KT 15SM FEW030 FEW240 11/09 A3026 RMK CU1CI1 SLP247

CYHM;2008-08-20 12:00;CYHM 201200Z 00000KT 15SM FEW030 FEW240 13/11 A3027 RMK CU1CI1 CU TR CI TR SLP252

CYHM;2008-08-20 13:00;CYHM 201300Z 06004KT 15SM FEW030 16/13 A3029 RMK CU1 CU TR SLP258

CYHM;2008-08-20 14:00;CYHM 201400Z 07005KT 15SM FEW030 18/13 A3029 RMK CU1 CU TR SLP259

CYHM;2008-08-20 15:00;CYHM 201500Z 08002KT 15SM FEW028 19/12 A3030 RMK CU2 SLP260

CYHM;2008-08-20 16:00;CYHM 201600Z 06003KT 15SM FEW032 19/12 A3029 RMK CU1 SLP257

CYHM;2008-08-20 17:00;CYHM 201700Z 04004KT 15SM FEW032 20/11 A3027 RMK CU1 CU TR SLP253

CYHM;2008-08-20 18:00;CYHM 201800Z 08007KT 15SM FEW035 21/10 A3026 RMK CU1 CU TR SLP248

CYHM;2008-08-20 19:00;CYHM 201900Z 03007KT 15SM FEW040 FEW250 21/11 A3026 RMK CU1CI1 CU TR SLP246

CYHM;2008-08-20 20:00;CYHM 202000Z 07008KT 15SM FEW042 FEW250 21/10 A3025 RMK CU1CI1 CU TR SLP243

CYHM;2008-08-20 21:00;CYHM 202100Z 07012KT 15SM FEW042 FEW250 21/11 A3024 RMK CU1CI1 CU TR SLP242

CYHM;2008-08-20 22:00;CYHM 202200Z 07006KT 15SM FEW250 20/11 A3024 RMK CI1 SLP241

CYHM;2008-08-20 23:00;CYHM 202300Z 08004KT 15SM FEW250 19/11 A3022 RMK CI1 SLP236

CYHM;2008-08-21 00:00;CYHM 210000Z 09004KT 15SM FEW032 FEW250 17/12 A3022 RMK CU1CI0 CU TR SLP236

CYHM;2008-08-21 01:00;CYHM 210100Z 07003KT 15SM FEW080 FEW250 16/12 A3022 RMK AC1CI0 AC TR SLP236

CYHM;2008-08-21 02:00;CYHM 210200Z 03002KT 15SM FEW250 15/12 A3023 RMK CI1 CI TR SLP240

CYHM;2008-08-21 03:00;CYHM 210300Z 07005KT 15SM FEW240 15/11 A3023 RMK CI1 SLP239

CYHM;2008-08-21 04:00;CYHM 210400Z 06005KT 15SM FEW220 15/11 A3023 RMK CI1 SLP238

CYHM;2008-08-21 05:00;CYHM 210500Z 07003KT 15SM SKC 14/12 A3024 RMK SLP240

CYHM;2008-08-21 06:00;CYHM 210600Z 00000KT 15SM SKC 14/12 A3023 RMK SLP238

CYHM;2008-08-21 07:00;CYHM 210700Z 05004KT 15SM SKC 13/11 A3024 RMK SLP240

CYHM;2008-08-21 08:00;CYHM 210800Z 05007KT 15SM SKC 13/11 A3023 RMK SLP239

CYHM;2008-08-21 09:00;CYHM 210900Z 05003KT 15SM SKC 13/11 A3023 RMK SLP239

CYHM;2008-08-21 10:00;CYHM 211000Z 03004KT 15SM FEW250 13/12 A3024 RMK CI1 SLP240

CYHM;2008-08-21 11:00;CYHM 211100Z 03005KT 15SM FEW250 13/12 A3025 RMK CI1 SLP243

CYHM;2008-08-21 12:00;CYHM 211200Z 03007KT 15SM FEW240 15/14 A3025 RMK CI1 CI TR SLP246

CYHM;2008-08-21 13:00;CYHM 211300Z 03008KT 15SM FEW240 18/15 A3026 RMK CI1 SLP248

CYHM;2008-08-21 14:00;CYHM 211400Z 03008KT 15SM FEW025 FEW240 19/15 A3025 RMK CU1CI1 CU TR CI TR CONTRAIL SLP246

CYHM;2008-08-21 15:00;CYHM 211500Z 03009KT 15SM FEW025 FEW240 20/15 A3026 RMK CU1CI1 SLP249

CYHM;2008-08-21 16:00;CYHM 211600Z 03010KT 15SM FEW240 21/14 A3026 RMK CI1 SLP247

CYHM;2008-08-21 17:00;CYHM 211700Z 04010KT 15SM SCT240 22/15 A3026 RMK CI2 SLP248

CYHM;2008-08-21 18:00;CYHM 211800Z 05008KT 15SM FEW240 22/15 A3025 RMK CI1 SLP244

CYHM;2008-08-21 19:00;CYHM 211900Z 05008KT 15SM SCT250 23/16 A3023 RMK CI2 SLP239

CYHM;2008-08-21 20:00;CYHM 212000Z 04010KT 15SM BKN250 22/16 A3022 RMK CI2 SLP234

CYHM;2008-08-21 21:00;CYHM 212100Z 03007KT 15SM FEW130 BKN250 21/15 A3022 RMK AC1CI4 SLP234

CYHM;2008-08-21 22:00;CYHM 212200Z 05010KT 15SM FEW130 BKN240 21/15 A3021 RMK AC1CI3 SLP231

CYHM;2008-08-21 23:00;CYHM 212300Z 06009KT 15SM FEW130 SCT250 20/15 A3020 RMK AC2CI1 SLP226

CYHM;2008-08-22 00:00;CYHM 220000Z 05007KT 15SM FEW130 BKN250 19/16 A3020 RMK AC1CI2 SLP226

CYHM;2008-08-22 01:00;CYHM 220100Z 05006KT 15SM BKN250 18/16 A3020 RMK CI2 SLP227

CYHM;2008-08-22 02:00;CYHM 220200Z 04007KT 15SM FEW250 18/16 A3020 RMK CI2 SLP229

CYHM;2008-08-22 03:00;CYHM 220300Z 04007KT 15SM SCT250 18/16 A3020 RMK CI2 SLP228

CYHM;2008-08-22 04:00;CYHM 220400Z 04007KT 15SM SCT250 18/17 A3020 RMK CI2 SLP228

CYHM;2008-08-22 05:00;CYHM 220500Z 05004KT 15SM FEW250 18/17 A3020 RMK CI1 SLP228

CYHM;2008-08-22 06:00;CYHM 220600Z 05004KT 15SM FEW250 17/16 A3021 RMK CI1 SLP228

CYHM;2008-08-22 07:00;CYHM 220700Z 07004KT 12SM FEW250 17/16 A3021 RMK CI1 SLP229

CYHM;2008-08-22 08:00;CYHM 220800Z 05004KT 9SM SCT250 16/16 A3022 RMK CI2 SLP231

CYHM;2008-08-22 09:00;CYHM 220900Z 07003KT 1 1/2SM BR BKN230 16/16 A3022 RMK FG1CI2 SLP234

CYHM;2008-08-22 09:49;CYHM 220949Z 07006KT 3SM BR FEW120 BKN230 RMK AC2CI2

CYHM;2008-08-22 10:00;CYHM 221000Z 05004KT 3SM BR FEW120 BKN230 16/16 A3023 RMK AC2CI2 SLP237

CYHM;2008-08-22 10:20;CYHM 221020Z 05004KT 2SM BR FEW120 BKN240 RMK AC2CI2

CYHM;2008-08-22 11:00;CYHM 221100Z 06005KT 2 1/2SM BR FEW120 BKN240 16/16 A3024 RMK AC2CI2 SLP240

CYHM;2008-08-22 11:28;CYHM 221128Z 10003KT 10SM FEW120 SCT180 BKN240 RMK AC2AC1CI2

CYHM;2008-08-22 12:00;CYHM 221200Z 00000KT 10SM FEW120 SCT180 BKN220 19/18 A3025 RMK AC2AC2CI2 SLP243

CYHM;2008-08-22 13:00;CYHM 221300Z 15004KT 10SM FEW120 BKN230 22/19 A3026 RMK AC1CI3 SLP247

CYHM;2008-08-22 14:00;CYHM 221400Z 17007KT 15SM FEW180 BKN230 24/19 A3026 RMK AC1CI3 SLP246

CYHM;2008-08-22 15:00;CYHM 221500Z 16006KT 15SM BKN230 26/20 A3026 RMK CI3 SLP245

CYHM;2008-08-22 16:00;CYHM 221600Z 18006KT 15SM FEW180 BKN220 26/20 A3026 RMK AC2CI3 SLP246

CYHM;2008-08-22 17:00;CYHM 221700Z 17005KT 15SM FEW160 BKN220 28/20 A3025 RMK AC1CI2 SLP242

CYHM;2008-08-22 18:00;CYHM 221800Z 20006KT 15SM FEW140 BKN220 27/20 A3025 RMK AC2CI2 SLP243

CYHM;2008-08-22 19:00;CYHM 221900Z 23004KT 15SM SCT140 BKN200 28/21 A3024 RMK AC3CI2 SLP240

CYHM;2008-08-22 20:00;CYHM 222000Z 16006KT 15SM SCT160 BKN220 28/20 A3023 RMK AC3CI2 SLP236

CYHM;2008-08-22 21:00;CYHM 222100Z 17007KT 15SM FEW160 BKN220 27/20 A3023 RMK AC2CI4 SLP235

CYHM;2008-08-22 22:00;CYHM 222200Z 13006KT 15SM FEW100 SCT160 BKN230 27/19 A3022 RMK AC1AC2CI2 CONTRAILS SLP232

CYHM;2008-08-22 23:00;CYHM 222300Z 05007KT 15SM FEW095 BKN250 25/20 A3021 RMK AC2CI3 CONTRAILS SLP229

CYHM;2008-08-23 00:00;CYHM 230000Z 04005KT 15SM BKN250 23/18 A3021 RMK CI4 SLP229

CYHM;2008-08-23 01:00;CYHM 230100Z 05006KT 15SM BKN250 21/18 A3022 RMK CI5 SLP232

CYHM;2008-08-23 02:00;CYHM 230200Z 05005KT 10SM FEW250 21/18 A3023 RMK CI1 SLP234

CYHM;2008-08-23 03:00;CYHM 230300Z 05004KT 8SM SKC 19/17 A3022 RMK SLP231

CYHM;2008-08-23 04:00;CYHM 230400Z 10005KT 15SM MIFG FEW250 18/17 A3022 RMK CI2 SLP230

CYHM;2008-08-23 05:00;CYHM 230500Z 15007KT 15SM FEW250 19/17 A3021 RMK CI2 SLP228

CYHM;2008-08-23 06:00;CYHM 230600Z 15007KT 15SM FEW170 19/17 A3020 RMK AC1 SLP224

CYHM;2008-08-23 07:00;CYHM 230700Z 17008KT 15SM FEW160 19/16 A3020 RMK AC1 SLP225

CYHM;2008-08-23 08:00;CYHM 230800Z 17004KT 15SM FEW160 19/16 A3020 RMK AC1 SLP223

CYHM;2008-08-23 09:00;CYHM 230900Z 17004KT 15SM FEW160 18/16 A3020 RMK AC2 SLP223

CYHM;2008-08-23 10:00;CYHM 231000Z 16005KT 15SM FEW140 BKN250 18/16 A3020 RMK AC2CI4 SLP223

CYHM;2008-08-23 11:00;CYHM 231100Z 16005KT 15SM BKN250 18/16 A3020 RMK CI5 CONTRAILS SLP225

CYHM;2008-08-23 12:00;CYHM 231200Z 16005KT 15SM BKN250 19/17 A3020 RMK CI5 CONTRAILS SLP226

CYHM;2008-08-23 13:00;CYHM 231300Z 17009KT 15SM BKN250 22/17 A3019 RMK CI5 CONTRAILS SLP222

CYHM;2008-08-23 14:00;CYHM 231400Z 19011KT 15SM BKN250 23/18 A3018 RMK CI4 SLP218

CYHM;2008-08-23 15:00;CYHM 231500Z 20008KT 15SM BKN250 24/17 A3017 RMK CI4 SLP216

CYHM;2008-08-23 16:00;CYHM 231600Z 20009KT 160V250 15SM BKN250 25/18 A3017 RMK CI3 SLP214

CYHM;2008-08-23 17:00;CYHM 231700Z 20008KT 160V230 15SM BKN250 26/19 A3016 RMK CI4 SLP210

CYHM;2008-08-23 18:00;CYHM 231800Z 19009KT 15SM BKN250 26/19 A3014 RMK CI4 SLP203

CYHM;2008-08-23 19:00;CYHM 231900Z 19009KT 12SM BKN230 27/20 A3012 RMK CI4 SLP196

CYHM;2008-08-23 20:00;CYHM 232000Z 19010KT 12SM FEW180 BKN230 27/19 A3010 RMK AC1CI3 AC TR SLP190

CYHM;2008-08-23 21:00;CYHM 232100Z 19010KT 12SM BKN230 27/18 A3009 RMK CI2 SLP186

CYHM;2008-08-23 22:00;CYHM 232200Z 19011KT 15SM FEW170 BKN240 26/17 A3008 RMK AC1CI2 SLP183

CYHM;2008-08-23 23:00;CYHM 232300Z 20006KT 15SM FEW160 SCT240 25/17 A3007 RMK AC1CI2 SLP179

CYHM;2008-08-24 00:00;CYHM 240000Z 17004KT 15SM FEW160 SCT240 24/17 A3006 RMK AC2CI2 SLP176

CYHM;2008-08-24 01:00;CYHM 240100Z 17004KT 15SM FEW080 BKN100 BKN240 23/18 A3007 RMK AC2AC3CI1 SLP180

CYHM;2008-08-24 02:00;CYHM 240200Z 17005KT 15SM SCT082 BKN100 22/17 A3006 RMK AC3AC3 SLP177

CYHM;2008-08-24 03:00;CYHM 240300Z 00000KT 15SM FEW082 BKN140 22/18 A3006 RMK AC2AC6 SLP175

CYHM;2008-08-24 04:00;CYHM 240400Z 00000KT 15SM SCT088 BKN130 22/18 A3004 RMK AC3AC2 SLP169

CYHM;2008-08-24 05:00;CYHM 240500Z 26009KT 15SM FEW070 BKN085 21/18 A3003 RMK AC2AC2 SLP166

CYHM;2008-08-24 06:00;CYHM 240600Z 19008KT 15SM FEW085 BKN250 22/18 A2999 RMK AC1CI6 SLP153

CYHM;2008-08-24 07:00;CYHM 240700Z 19009KT 15SM BKN230 22/18 A2997 RMK CI6 SLP144

CYHM;2008-08-24 08:00;CYHM 240800Z 29006KT 15SM BKN220 21/18 A2999 RMK CI4 SLP151

CYHM;2008-08-24 09:00;CYHM 240900Z 00000KT 15SM FEW130 FEW170 BKN220 20/17 A2998 RMK AC1AC2CI2 SLP151

CYHM;2008-08-24 10:00;CYHM 241000Z 16007KT 15SM FEW065 SCT170 19/17 A2997 RMK SC2AC1 SLP145

CYHM;2008-08-24 11:00;CYHM 241100Z 27002KT 15SM BKN053 BKN075 BKN170 20/17 A2998 RMK SC5AC2AC1 SLP150

CYHM;2008-08-24 12:00;CYHM 241200Z 25003KT 15SM FEW046 BKN085 BKN120 21/18 A2998 RMK SC2AC2AC1 CU ASOCTD SLP150

CYHM;2008-08-24 13:00;CYHM 241300Z 22004KT 15SM FEW048 BKN086 BKN140 22/19 A2998 RMK SC1AC6AC1 SLP151

CYHM;2008-08-24 14:00;CYHM 241400Z 21004KT 15SM FEW085 BKN130 22/19 A2997 RMK AC2AC6 SLP147

CYHM;2008-08-24 15:00;CYHM 241500Z 23006KT 15SM FEW085 SCT130 BKN260 25/20 A2996 RMK AC1AC3CI2 SLP142

CYHM;2008-08-24 15:23;CYHM 241523Z 23008KT 160V260 15SM TS FEW040CB SCT085 BKN140 RMK CB2AC2AC3

CYHM;2008-08-24 15:42;CYHM 241542Z 26008KT 15SM -TSRA BKN036CB OVC140 RMK CB5AC3

CYHM;2008-08-24 16:00;CYHM 241600Z 24005KT 12SM -TSRA FEW028 BKN036CB BKN087 23/20 A2996 RMK CF1CB5AC2 SLP141

CYHM;2008-08-24 16:49;CYHM 241649Z 20007KT 1 1/2SM -TSRA BR BKN029CB OVC085 RMK FG1CB6AC2 VIS N 10

CYHM;2008-08-24 17:00;CYHM 241700Z 15003KT 5SM -TSRA BR SCT029CB BKN047 OVC085 20/19 A2995 RMK CB4SC2AC2 SLP140

CYHM;2008-08-24 17:45;CYHM 241745Z 21003KT 12SM TS FEW010 FEW028CB BKN036 BKN070 RMK CF1CB1SC4AC2

CYHM;2008-08-24 18:00;CYHM 241800Z 19002KT 12SM TS FEW007 FEW028CB BKN036 BKN075 23/21 A2994 RMK CF1CB1SC4AC2 SLP137

CYHM;2008-08-24 18:34;CYHM 241834Z 24004KT 210V270 10SM FEW009 FEW025TCU BKN045 BKN074 RETS RMK CF1TCU2SC2AC2

CYHM;2008-08-24 19:00;CYHM 241900Z 21003KT 10SM FEW009 FEW023 SCT048 BKN074 BKN110 25/21 A2993 RETS RMK CF1CU2SC2AC1AC1 TCU ASOCTD CF TR SLP133

CYHM;2008-08-24 20:00;CYHM 242000Z 28004KT 240V320 12SM BKN025 BKN044 BKN200 26/21 A2991 RMK CU5SC1CI1 TCU ASOCTD E CI TR SLP126

CYHM;2008-08-24 21:00;CYHM 242100Z 28007KT 250V310 15SM SCT030 SCT045 BKN120 26/19 A2990 RMK CU3SC1AC1 TCU ASOCTD E SLP122

CYHM;2008-08-24 22:00;CYHM 242200Z 28006KT 15SM FEW035 SCT060 BKN220 25/16 A2990 RMK CU2SC2CC2 TCU ASOCTD E SLP123

CYHM;2008-08-24 23:00;CYHM 242300Z 28009KT 15SM FEW035 SCT070 BKN220 24/17 A2991 RMK CU2AC2CC2 SLP126

CYHM;2008-08-25 00:00;CYHM 250000Z 31013KT 15SM FEW035 SCT070 BKN220 22/16 A2993 RMK SC2AC2CC2 CU ASOCTD SLP133

CYHM;2008-08-25 01:00;CYHM 250100Z 31008KT 15SM FEW070 SCT210 19/14 A2995 RMK AC2CI2 SLP140

CYHM;2008-08-25 02:00;CYHM 250200Z 31010KT 15SM FEW080 FEW210 18/13 A2997 RMK AC1CI1 SLP146

CYHM;2008-08-25 03:00;CYHM 250300Z 31003KT 15SM FEW100 FEW230 16/13 A2998 RMK AC1CI2 SLP151

CYHM;2008-08-25 04:00;CYHM 250400Z 32004KT 15SM FEW200 15/12 A2999 RMK CI1 SLP153

CYHM;2008-08-25 05:00;CYHM 250500Z 29005KT 15SM FEW200 14/12 A2999 RMK CI1 SLP153

CYHM;2008-08-25 06:00;CYHM 250600Z 30007KT 15SM FEW040 13/12 A2998 RMK SC1 LTNG ESE SLP153

CYHM;2008-08-25 07:00;CYHM 250700Z 30007KT 15SM FEW200 13/11 A2998 RMK CI1 LTNG DSNT ESE SLP153

CYHM;2008-08-25 08:00;CYHM 250800Z 30006KT 15SM SKC 13/11 A3000 RMK LTNG DSNT E SLP157

CYHM;2008-08-25 09:00;CYHM 250900Z 33006KT 15SM SKC 13/12 A3001 RMK SLP159

CYHM;2008-08-25 10:00;CYHM 251000Z 35007KT 15SM FEW040 14/11 A3001 RMK SC1 SLP160

CYHM;2008-08-25 11:00;CYHM 251100Z 35005KT 15SM FEW045 13/11 A3003 RMK SC1 SLP168

CYHM;2008-08-25 12:00;CYHM 251200Z 01008KT 15SM FEW045 14/10 A3006 RMK SC1 SLP178

CYHM;2008-08-25 13:00;CYHM 251300Z 01012KT 15SM FEW045 15/10 A3007 RMK SC1 TR CU ASOCTD SLP184

CYHM;2008-08-25 14:00;CYHM 251400Z 34014KT 15SM FEW030 16/10 A3008 RMK CU2 SC ASOCTD SLP187

CYHM;2008-08-25 15:00;CYHM 251500Z 01009KT 15SM FEW032 SCT040 18/10 A3009 RMK CU2SC2 SLP191

CYHM;2008-08-25 16:00;CYHM 251600Z 35010KT 15SM FEW030 BKN036 17/11 A3009 RMK CU2SC4 SLP191

CYHM;2008-08-25 17:00;CYHM 251700Z 32008KT 15SM FEW028 BKN033 18/12 A3008 RMK CU2SC3 SLP188

CYHM;2008-08-25 18:00;CYHM 251800Z 35007KT 15SM SCT028 BKN038 18/12 A3007 RMK CU3SC2 SLP185

CYHM;2008-08-25 19:00;CYHM 251900Z 02003KT 15SM BKN038 19/12 A3007 RMK CU5 SC ASOCTD WND L/V SLP183

CYHM;2008-08-25 20:00;CYHM 252000Z 03003KT 15SM FEW038 FEW250 20/13 A3006 RMK CU2CI1 CI TR WND L/V SLP179

CYHM;2008-08-25 21:00;CYHM 252100Z 03007KT 15SM FEW040 FEW250 20/12 A3006 RMK CU2CI1 CI TR SLP178

CYHM;2008-08-25 22:00;CYHM 252200Z 03008KT 15SM FEW040 FEW250 20/11 A3006 RMK CU1CI1 CI TR SLP179

CYHM;2008-08-25 23:00;CYHM 252300Z 02008KT 15SM FEW042 19/11 A3007 RMK CU1 CU TR SLP181

CYHM;2008-08-26 00:00;CYHM 260000Z 03005KT 15SM FEW040 FEW250 17/11 A3008 RMK CU1CI1 CU TR CI TR SLP186

CYHM;2008-08-26 01:00;CYHM 260100Z 02005KT 15SM FEW250 15/11 A3010 RMK CI1 CI TR SLP192

CYHM;2008-08-26 02:00;CYHM 260200Z 03009KT 15SM FEW250 15/10 A3012 RMK CI1 CI TR SLP200

CYHM;2008-08-26 03:00;CYHM 260300Z 03008KT 15SM FEW250 14/09 A3012 RMK CI1 CI TR SLP201

CYHM;2008-08-26 04:00;CYHM 260400Z 03002KT 15SM SKC 13/09 A3013 RMK SLP203

CYHM;2008-08-26 05:00;CYHM 260500Z 36004KT 15SM SKC 12/09 A3009 RMK SLP191

CYHM;2008-08-26 06:00;CYHM 260600Z 01003KT 15SM SKC 13/09 A3012 RMK SLP201

CYHM;2008-08-26 07:00;CYHM 260700Z 00000KT 15SM SKC 11/09 A3012 RMK SLP201

CYHM;2008-08-26 08:00;CYHM 260800Z 03002KT 15SM FEW250 12/09 A3013 RMK CI1 CI TR SLP203

CYHM;2008-08-26 09:00;CYHM 260900Z 00000KT 15SM FEW250 11/09 A3013 RMK CI1 CI TR SLP204

CYHM;2008-08-26 10:00;CYHM 261000Z 02003KT 15SM FEW250 11/08 A3014 RMK CI1 CI TR SLP207

CYHM;2008-08-26 11:00;CYHM 261100Z 01006KT 15SM FEW250 11/08 A3014 RMK CI0 CI TR SLP209

CYHM;2008-08-26 12:00;CYHM 261200Z 02006KT 15SM FEW025 FEW250 13/09 A3016 RMK CU1CI1 CU TR SLP216

CYHM;2008-08-26 13:00;CYHM 261300Z 02004KT 15SM FEW025 FEW250 16/11 A3018 RMK CU1CI1 CU TR SLP221

CYHM;2008-08-26 14:00;CYHM 261400Z 07007KT 15SM FEW025 FEW250 18/12 A3018 RMK CU1CI1 SLP223

CYHM;2008-08-26 15:00;CYHM 261500Z 06006KT 15SM FEW025 FEW250 19/12 A3019 RMK CU1CI1 CU TR CI TR SLP224

CYHM;2008-08-26 16:00;CYHM 261600Z 06010KT 15SM FEW028 FEW250 20/13 A3019 RMK CU1CI1 CU TR CI TR SLP224

CYHM;2008-08-26 17:00;CYHM 261700Z 05012KT 15SM FEW030 FEW250 20/11 A3017 RMK CU1CI1 CU TR CI TR SLP219

CYHM;2008-08-26 18:00;CYHM 261800Z 04012KT 15SM FEW250 20/11 A3017 RMK CI1 CI TR SLP217

CYHM;2008-08-26 19:00;CYHM 261900Z 05012KT 15SM FEW250 20/09 A3016 RMK CI1 CI TR SLP213

CYHM;2008-08-26 20:00;CYHM 262000Z 05013KT 15SM FEW250 20/08 A3014 RMK CI1 CI TR SLP207

CYHM;2008-08-26 21:00;CYHM 262100Z 07012KT 15SM FEW250 20/08 A3013 RMK CI1 CI TR SLP205

CYHM;2008-08-26 22:00;CYHM 262200Z 05008KT 15SM FEW250 19/06 A3012 RMK CI1 CI TR SLP202

CYHM;2008-08-26 23:00;CYHM 262300Z 05009KT 15SM FEW250 18/07 A3011 RMK CI1 CI TR SLP199

CYHM;2008-08-27 00:00;CYHM 270000Z 03008KT 15SM FEW250 16/07 A3012 RMK CI1 SLP201

CYHM;2008-08-27 01:00;CYHM 270100Z 07008KT 15SM FEW250 14/08 A3013 RMK CI1 SLP203

CYHM;2008-08-27 02:00;CYHM 270200Z 06009KT 15SM FEW250 14/09 A3013 RMK CI1 CI TR SLP204

CYHM;2008-08-27 03:00;CYHM 270300Z 06009KT 15SM FEW250 14/08 A3012 RMK CI1 CI TR SLP201

CYHM;2008-08-27 04:00;CYHM 270400Z 06007KT 15SM FEW250 13/06 A3013 RMK CI1 SLP202

CYHM;2008-08-27 05:00;CYHM 270500Z 06007KT 15SM FEW250 12/06 A3012 RMK CI1 SLP201

CYHM;2008-08-27 06:00;CYHM 270600Z 07007KT 15SM FEW250 13/05 A3011 RMK CI1 SLP198

CYHM;2008-08-27 07:00;CYHM 270700Z 08008KT 15SM FEW250 12/06 A3011 RMK CI1 SLP196

CYHM;2008-08-27 08:00;CYHM 270800Z 06007KT 15SM SCT250 12/06 A3010 RMK CI1 SLP193

CYHM;2008-08-27 09:00;CYHM 270900Z 05009KT 15SM BKN250 13/06 A3009 RMK CI1 SLP189

CYHM;2008-08-27 10:00;CYHM 271000Z 05009KT 15SM BKN250 14/08 A3008 RMK CI3 SLP188

CYHM;2008-08-27 11:00;CYHM 271100Z 05007KT 15SM FEW120 BKN240 14/09 A3009 RMK AC2CI2 SLP190

CYHM;2008-08-27 12:00;CYHM 271200Z 06008KT 15SM FEW120 BKN240 14/10 A3010 RMK AC2CI3 SLP194

CYHM;2008-08-27 13:00;CYHM 271300Z 05008KT 15SM FEW140 BKN180 BKN240 16/10 A3010 RMK AC2AC3CI2 SLP195

CYHM;2008-08-27 14:00;CYHM 271400Z 03008KT 15SM FEW140 SCT180 BKN240 18/11 A3010 RMK AC2AC2CI2 SLP193

CYHM;2008-08-27 15:00;CYHM 271500Z 06008KT 15SM FEW140 BKN240 19/11 A3010 RMK AC2CI4 SLP195

CYHM;2008-08-27 16:00;CYHM 271600Z 05006KT 15SM FEW140 BKN220 20/12 A3010 RMK AC2CI5 SLP194

CYHM;2008-08-27 17:00;CYHM 271700Z 03006KT 15SM SCT160 BKN210 20/12 A3009 RMK AS4CI2 SLP189

CYHM;2008-08-27 18:00;CYHM 271800Z 05010KT 15SM SCT160 BKN230 20/13 A3007 RMK AC4CS3 SLP183

CYHM;2008-08-27 19:00;CYHM 271900Z 04012KT 15SM FEW180 BKN230 19/13 A3007 RMK AC2CS5 SLP182

CYHM;2008-08-27 20:00;CYHM 272000Z 06013KT 15SM FEW180 BKN230 19/13 A3005 RMK AC2CS5 SLP176

CYHM;2008-08-27 21:00;CYHM 272100Z 05012KT 15SM FEW160 BKN230 19/14 A3005 RMK AC1CS6 SLP176

CYHM;2008-08-27 22:00;CYHM 272200Z 05010KT 15SM BKN190 BKN240 19/14 A3005 RMK AC6CS2 SLP176

CYHM;2008-08-27 23:00;CYHM 272300Z 05008KT 15SM BKN180 OVC220 19/15 A3004 RMK AC6CI2 SLP173

CYHM;2008-08-28 00:00;CYHM 280000Z 06009KT 15SM BKN190 BKN220 18/15 A3003 RMK AC5CS2 SLP171

CYHM;2008-08-28 01:00;CYHM 280100Z 05009KT 15SM BKN190 BKN240 18/15 A3004 RMK AC6CS2 SLP172

CYHM;2008-08-28 02:00;CYHM 280200Z 04007KT 15SM SCT160 BKN190 OVC240 18/15 A3004 RMK AC3AC4CI1 SLP173

CYHM;2008-08-28 03:00;CYHM 280300Z 05007KT 15SM BKN180 BKN230 18/15 A3003 RMK AC5CI2 SLP167

CYHM;2008-08-28 04:00;CYHM 280400Z 05008KT 15SM OVC170 17/15 A3002 RMK AC8 SLP165

CYHM;2008-08-28 05:00;CYHM 280500Z 05007KT 15SM OVC140 18/16 A3002 RMK AC8 SLP165

CYHM;2008-08-28 06:00;CYHM 280600Z 03005KT 15SM OVC130 18/16 A3001 RMK AC8 SLP161

CYHM;2008-08-28 06:36;CYHM 280636Z 01005KT 12SM -SHRA OVC130 RMK AC8

CYHM;2008-08-28 07:00;CYHM 280700Z 03005KT 15SM OVC130 17/16 A2999 RMK AC8 SLP156

CYHM;2008-08-28 08:00;CYHM 280800Z 04003KT 15SM OVC140 18/16 A2997 RMK AC8 SLP149

CYHM;2008-08-28 09:00;CYHM 280900Z 06005KT 15SM BKN160 17/16 A2997 RMK AC5 SLP148

CYHM;2008-08-28 10:00;CYHM 281000Z 05007KT 15SM BKN150 16/15 A2996 RMK AC6 SLP146

CYHM;2008-08-28 12:00;CYHM 281200Z 08004KT 15SM SCT054 BKN061 BKN120 17/15 A2999 RMK SC3SC2AC2 SLP154

CYHM;2008-08-28 13:00;CYHM 281300Z 10004KT 15SM SCT055 BKN120 19/15 A2999 RMK SC4AC3 SLP154

CYHM;2008-08-28 14:00;CYHM 281400Z 10004KT 15SM BKN038 OVC120 20/15 A2999 RMK SC6AC2 SLP154

CYHM;2008-08-28 15:00;CYHM 281500Z 16014KT 15SM SCT034 BKN094 BKN230 21/14 A2998 RMK SC4AC2CI1 SLP152

CYHM;2008-08-28 16:00;CYHM 281600Z 15014KT 15SM FEW012 BKN025 OVC100 17/14 A2998 RMK CU2SC4AC2 SLP151

CYHM;2008-08-28 17:00;CYHM 281700Z 16013KT 15SM FEW017 OVC033 17/14 A2998 RMK CU2SC6 SLP150

CYHM;2008-08-28 18:00;CYHM 281800Z 12010KT 15SM BKN018 OVC027 18/15 A2997 RMK SC5SC3 CU ASOCTD SLP148

CYHM;2008-08-28 19:00;CYHM 281900Z 15010KT 15SM -SHRA BKN018 OVC025 18/14 A2997 RMK SC6SC2 PCPN VRY LGT SLP150

CYHM;2008-08-28 19:41;CYHM 281941Z 12008KT 15SM FEW010 FEW021 OVC033 RMK CF1SC2SC6

CYHM;2008-08-28 20:00;CYHM 282000Z 11008KT 15SM FEW012 FEW021 OVC038 18/15 A2994 RMK CF1SC1SC6 SLP137

CYHM;2008-08-28 21:00;CYHM 282100Z 15007KT 15SM BKN015 OVC022 18/15 A2994 RMK SC6SC2 CU ASOCTD SLP138

CYHM;2008-08-28 22:00;CYHM 282200Z 14005KT 15SM FEW012 BKN017 OVC025 18/15 A2993 RMK CF2SC4SC2 SLP136

CYHM;2008-08-28 23:00;CYHM 282300Z 14004KT 8SM FEW012 OVC024 17/15 A2994 RMK CF1SC7 SLP137

CYHM;2008-08-29 00:00;CYHM 290000Z 14004KT 7SM SCT011 OVC026 17/15 A2994 RMK CF3SC5 SLP138

CYHM;2008-08-29 01:00;CYHM 290100Z 10004KT 10SM -SHRA SCT028 OVC068 16/15 A2994 RMK SC3AC5 SLP138

CYHM;2008-08-29 02:00;CYHM 290200Z 08008KT 15SM -SHRA FEW012 OVC019 16/15 A2991 RMK CF1SC7 SLP130

CYHM;2008-08-29 02:34;CYHM 290234Z 07002KT 10SM -SHRA SCT008 OVC016 RMK CF3SC5 PCPN VRY LGT

CYHM;2008-08-29 03:00;CYHM 290300Z 08002KT 8SM BKN006 OVC015 16/15 A2992 RMK CF6SC2 SLP131

CYHM;2008-08-29 03:28;CYHM 290328Z 00000KT 8SM BKN004 OVC014 RMK SF6SC2

CYHM;2008-08-29 05:00;CYHM 290500Z 00000KT 9SM FEW005 OVC009 17/16 A2993 RMK SF2SC6 SLP134

CYHM;2008-08-29 05:34;CYHM 290534Z 00000KT 6SM -DZ BKN005 OVC011 RMK SF5SC3

CYHM;2008-08-29 06:00;CYHM 290600Z 00000KT 2 1/2SM -DZ BR SCT005 OVC009 17/16 A2992 RMK SF4SC4 SLP132

CYHM;2008-08-29 06:37;CYHM 290637Z 15002KT 2SM -DZ BR BKN002 OVC009 RMK FG1SF5SC2

CYHM;2008-08-29 07:00;CYHM 290700Z 14002KT 2SM BR BKN002 OVC010 17/17 A2990 RMK FG1SF6SC2 SLP125

CYHM;2008-08-29 07:26;CYHM 290726Z 16002KT 2 1/2SM BR FEW002 OVC008 RMK SF2SC6

CYHM;2008-08-29 08:00;CYHM 290800Z 00000KT 2 1/2SM BR FEW002 BKN008 OVC014 18/17 A2991 RMK SF1SC6SC2 SLP128

CYHM;2008-08-29 08:34;CYHM 290834Z 00000KT 2 1/2SM BR SCT008 OVC015 RMK SC3SC5

CYHM;2008-08-29 09:00;CYHM 290900Z 16002KT 2 1/2SM BR FEW008 OVC015 18/17 A2990 RMK SC2SC6 SLP123

CYHM;2008-08-29 09:52;CYHM 290952Z 20002KT 2 1/2SM BR OVC013 RMK SC8

CYHM;2008-08-29 10:00;CYHM 291000Z 20002KT 2 1/2SM BR OVC013 18/17 A2991 RMK SC8 SLP126

CYHM;2008-08-29 10:38;CYHM 291038Z 22002KT 1SM -DZ BR BKN002 OVC012 RMK FG2SF5SC2

CYHM;2008-08-29 11:00;CYHM 291100Z 20003KT 1SM -DZ BR BKN002 OVC012 18/17 A2991 RMK FG2SF5SC1 SLP128

CYHM;2008-08-29 11:39;CYHM 291139Z 21006KT 1 1/2SM BR BKN003 OVC021 RMK FG2SF5SC2

CYHM;2008-08-29 12:00;CYHM 291200Z 21005KT 3SM BR BKN003 OVC021 19/18 A2992 RMK SF6SC2 SLP130

CYHM;2008-08-29 13:00;CYHM 291300Z 24006KT 4SM BR BKN008 BKN024 19/18 A2994 RMK SF5SC2 SLP136

CYHM;2008-08-29 14:00;CYHM 291400Z 23006KT 8SM BKN017 BKN025 20/18 A2994 RMK SC6SC2 SLP137

CYHM;2008-08-29 15:00;CYHM 291500Z 28006KT 8SM BKN016 OVC020 21/18 A2994 RMK SC6SC2 SLP139

CYHM;2008-08-29 16:00;CYHM 291600Z 23004KT 8SM SCT016 BKN021 BKN210 22/18 A2994 RMK SC4SC2CI1 SLP138

CYHM;2008-08-29 17:00;CYHM 291700Z 24005KT 10SM SCT017 OVC025 23/19 A2993 RMK SC3SC5 SLP135

CYHM;2008-08-29 18:00;CYHM 291800Z 25002KT 10SM FEW020 FEW031 BKN210 23/19 A2992 RMK CU2SC1CI2 SLP130

CYHM;2008-08-29 19:00;CYHM 291900Z 20007KT 15SM BKN025 BKN050 23/19 A2992 RMK CU6SC2 TCU ASOCTD SLP130

CYHM;2008-08-29 20:00;CYHM 292000Z 22007KT 15SM FEW026 OVC059 23/19 A2992 RMK CU2SC6 SLP129

CYHM;2008-08-29 21:00;CYHM 292100Z 21006KT 15SM FEW052 BKN075 23/19 A2992 RMK SC2AC5 SLP130

CYHM;2008-08-29 22:00;CYHM 292200Z 20007KT 15SM FEW040 FEW055 BKN080 23/19 A2992 RMK SC2SC1AC4 SLP130

CYHM;2008-08-29 23:00;CYHM 292300Z 18008KT 15SM FEW063 BKN087 23/19 A2991 RMK SC2AC3 SLP125

CYHM;2008-08-30 00:00;CYHM 300000Z 00000KT 15SM FEW056 BKN072 21/18 A2991 RMK SC2AC5 SLP129

CYHM;2008-08-30 01:00;CYHM 300100Z 23003KT 15SM OVC043 21/18 A2994 RMK SC8 SLP136

CYHM;2008-08-30 02:00;CYHM 300200Z 26003KT 10SM OVC039 21/18 A2995 RMK SC8 SLP141

CYHM;2008-08-30 03:00;CYHM 300300Z 25002KT 10SM FEW036 BKN052 20/18 A2995 RMK SC2SC6 SLP140

CYHM;2008-08-30 04:00;CYHM 300400Z 34005KT 7SM FEW035 SCT250 20/18 A2995 RMK SC1CI2 HZ SLP141

CYHM;2008-08-30 05:00;CYHM 300500Z 34007KT 6SM BR FEW090 SCT250 19/18 A2996 RMK AC2CI1 SLP144

CYHM;2008-08-30 06:00;CYHM 300600Z 33005KT 7SM FEW060 18/17 A2996 RMK SC2 SLP144

CYHM;2008-08-30 07:00;CYHM 300700Z 33004KT 6SM BR FEW062 18/16 A2997 RMK SC1 SLP147

CYHM;2008-08-30 08:00;CYHM 300800Z 32003KT 7SM SKC 17/16 A2999 RMK SLP153

CYHM;2008-08-30 09:00;CYHM 300900Z 00000KT 10SM SKC 16/15 A3000 RMK SLP159

CYHM;2008-08-30 10:00;CYHM 301000Z 32007KT 15SM FEW090 15/13 A3003 RMK AC1 SLP167

CYHM;2008-08-30 11:00;CYHM 301100Z 31002KT 15SM FEW090 14/13 A3005 RMK AC1 SLP175

CYHM;2008-08-30 12:00;CYHM 301200Z 00000KT 15SM SKC 17/14 A3008 RMK SLP185

CYHM;2008-08-30 13:00;CYHM 301300Z 34003KT 15SM SKC 19/15 A3010 RMK SLP191

CYHM;2008-08-30 14:00;CYHM 301400Z 24002KT 15SM SKC 21/15 A3010 RMK SLP194

CYHM;2008-08-30 15:00;CYHM 301500Z 30004KT 260V360 15SM SKC 22/15 A3012 RMK SLP197

CYHM;2008-08-30 16:00;CYHM 301600Z 31006KT 15SM SKC 24/14 A3012 RMK SLP198

CYHM;2008-08-30 17:00;CYHM 301700Z 31006KT 260V010 15SM FEW045 25/13 A3012 RMK CU1 SLP197

CYHM;2008-08-30 18:00;CYHM 301800Z 28002KT 15SM FEW045 25/12 A3011 RMK CU1 WND L/V SLP193

CYHM;2008-08-30 19:00;CYHM 301900Z 28004KT 15SM FEW045 26/11 A3011 RMK CU1 CU TR SLP193

CYHM;2008-08-30 20:00;CYHM 302000Z 26003KT 15SM FEW045 26/11 A3010 RMK CU1 CU TR WND L/V SLP190

CYHM;2008-08-30 21:00;CYHM 302100Z 26004KT 15SM FEW045 26/12 A3009 RMK CU1 CU TR SLP189

CYHM;2008-08-30 22:00;CYHM 302200Z 27004KT 240V300 15SM FEW042 25/12 A3009 RMK CU1 CU TR SLP189

CYHM;2008-08-30 23:00;CYHM 302300Z 28002KT 15SM FEW042 24/12 A3010 RMK CU1 CU TR SLP191

CYHM;2008-08-31 00:00;CYHM 310000Z 29002KT 15SM SKC 21/12 A3011 RMK SLP196

CYHM;2008-08-31 01:00;CYHM 310100Z 00000KT 15SM SKC 19/12 A3013 RMK SLP203

CYHM;2008-08-31 02:00;CYHM 310200Z 31002KT 15SM SKC 19/11 A3015 RMK SLP208

CYHM;2008-08-31 03:00;CYHM 310300Z 00000KT 15SM SKC 16/12 A3016 RMK SLP211

CYHM;2008-08-31 04:00;CYHM 310400Z 00000KT 15SM SKC 15/12 A3017 RMK SLP214

CYHM;2008-08-31 05:00;CYHM 310500Z 00000KT 15SM FEW100 15/11 A3017 RMK AC1 SLP217

CYHM;2008-08-31 06:00;CYHM 310600Z 00000KT 15SM FEW100 14/11 A3018 RMK AC1 SLP219

CYHM;2008-08-31 07:00;CYHM 310700Z 00000KT 15SM FEW210 14/11 A3018 RMK CI1 SLP219

CYHM;2008-08-31 08:00;CYHM 310800Z 00000KT 15SM FEW050 12/11 A3019 RMK SC1 SLP222

CYHM;2008-08-31 09:00;CYHM 310900Z 30003KT 15SM BKN065 13/12 A3020 RMK SC6 SLP226

CYHM;2008-08-31 10:00;CYHM 311000Z 00000KT 15SM FEW063 13/12 A3022 RMK SC2 SLP231

CYHM;2008-08-31 11:00;CYHM 311100Z 00000KT 15SM FEW060 BKN073 BKN200 13/12 A3024 RMK SC2AC3CI1 SLP239

CYHM;2008-08-31 12:00;CYHM 311200Z 00000KT 15SM FEW045 SCT075 BKN240 15/14 A3026 RMK SC2AC2CI1 SLP246

CYHM;2008-08-31 13:00;CYHM 311300Z 00000KT 15SM FEW045 FEW075 SCT240 15/14 A3026 RMK SC1AC1CI1 SLP248

CYHM;2008-08-31 14:00;CYHM 311400Z 30002KT 15SM FEW050 FEW120 SCT240 22/15 A3027 RMK SC1AC1CI1 SC TR SLP251

CYHM;2008-08-31 15:00;CYHM 311500Z 27002KT 15SM FEW240 23/15 A3028 RMK CI0 SLP253

CYHM;2008-08-31 16:00;CYHM 311600Z 27002KT 15SM FEW060 FEW120 24/15 A3027 RMK SC2AC1 SLP250

CYHM;2008-08-31 17:00;CYHM 311700Z 24002KT 15SM FEW060 FEW120 FEW200 25/15 A3026 RMK CU1AC1CI1 SLP245

CYHM;2008-08-31 18:00;CYHM 311800Z 18002KT 15SM FEW055 SCT060 SCT120 BKN250 26/16 A3025 RMK CU1SC2AC1CI1 AC TR CC ASOCTD SLP242

CYHM;2008-08-31 19:00;CYHM 311900Z 24002KT 15SM SCT048 SCT062 SCT220 26/16 A3023 RMK CU3SC1CI1 CI TR WND L/V SLP235

CYHM;2008-08-31 20:00;CYHM 312000Z 18003KT 15SM SCT048 SCT063 SCT230 27/15 A3021 RMK CU3SC1CI1 CI TR WND L/V SLP229

CYHM;2008-08-31 21:00;CYHM 312100Z 23004KT 15SM SCT048 SCT230 27/16 A3020 RMK CU3CI1 CI TR SLP226

CYHM;2008-08-31 22:00;CYHM 312200Z 21005KT 15SM FEW045 FEW220 26/17 A3019 RMK CU2CI1 CI TR SLP222

CYHM;2008-08-31 23:00;CYHM 312300Z 20005KT 15SM FEW045 FEW220 22/15 A3019 RMK CU1CI1 SLP222

CYHM;2008-09-01 01:00;CYHM 010100Z 00000KT 15SM FEW045 FEW055 FEW220 20/14 A3020 RMK CU1SC1CI1 CU TR CI TR SLP227

CYHM;2008-09-01 02:00;CYHM 010200Z 20002KT 15SM FEW050 18/14 A3021 RMK SC1 SC TR SLP231

CYHM;2008-09-01 03:00;CYHM 010300Z 23002KT 15SM SKC 17/14 A3021 RMK SLP230

CYHM;2008-09-01 04:00;CYHM 010400Z 00000KT 15SM SKC 17/14 A3023 RMK SLP234

CYHM;2008-09-01 05:00;CYHM 010500Z 00000KT 15SM FEW230 16/13 A3023 RMK CI1 SLP235

CYHM;2008-09-01 06:00;CYHM 010600Z 00000KT 15SM FEW230 15/13 A3023 RMK CI1 SLP237

CYHM;2008-09-01 07:00;CYHM 010700Z 00000KT 15SM FEW100 15/14 A3023 RMK AC1 SLP236

CYHM;2008-09-01 08:00;CYHM 010800Z 28003KT 15SM FEW220 14/13 A3024 RMK CI1 SLP238

CYHM;2008-09-01 09:00;CYHM 010900Z 00000KT 15SM FEW100 FEW220 14/13 A3023 RMK AC1CI1 SLP237

CYHM;2008-09-01 10:00;CYHM 011000Z 00000KT 15SM FEW130 14/13 A3024 RMK AC1 SLP239

CYHM;2008-09-01 11:00;CYHM 011100Z 02002KT 15SM FEW120 FEW240 14/12 A3026 RMK AC1CI1 SLP244

CYHM;2008-09-01 12:00;CYHM 011200Z 03002KT 15SM FEW120 FEW240 16/14 A3027 RMK AC1CI1 SLP250

CYHM;2008-09-01 13:00;CYHM 011300Z 06002KT 15SM FEW120 FEW240 20/18 A3028 RMK AC1CI1 SLP253

CYHM;2008-09-01 14:00;CYHM 011400Z 00000KT 15SM FEW240 22/18 A3028 RMK CI1 CI TR SLP254

CYHM;2008-09-01 15:00;CYHM 011500Z 00000KT 15SM FEW240 24/17 A3028 RMK CI1 SLP252

CYHM;2008-09-01 16:00;CYHM 011600Z 00000KT 15SM FEW036 FEW240 25/16 A3027 RMK CU1CI0 CI TR SLP250

CYHM;2008-09-01 17:00;CYHM 011700Z 00000KT 15SM SCT040 26/16 A3026 RMK CU3 SLP246

CYHM;2008-09-01 18:00;CYHM 011800Z 00000KT 15SM BKN042 26/17 A3024 RMK CU5 SLP240

CYHM;2008-09-01 19:00;CYHM 011900Z 35002KT 15SM SCT044 26/17 A3023 RMK CU3 WND L/V SLP237

CYHM;2008-09-01 20:00;CYHM 012000Z 04005KT 15SM FEW045 26/18 A3022 RMK CU2 SLP232

CYHM;2008-09-01 21:00;CYHM 012100Z 05007KT 15SM FEW048 FEW250 25/18 A3021 RMK CU1CI1 CI TR SLP229

CYHM;2008-09-01 22:00;CYHM 012200Z 09003KT 15SM FEW048 FEW250 25/18 A3021 RMK CU1CI0 CU TR SLP228

CYHM;2008-09-01 23:00;CYHM 012300Z 09003KT 15SM FEW046 FEW250 24/17 A3020 RMK CU1CI1 CU TR SLP227

CYHM;2008-09-02 00:00;CYHM 020000Z 09002KT 15SM FEW250 22/16 A3020 RMK CI1 SLP227

CYHM;2008-09-02 01:00;CYHM 020100Z 07002KT 15SM FEW250 20/16 A3020 RMK CI1 CI TR SLP227

CYHM;2008-09-02 02:00;CYHM 020200Z 05004KT 15SM FEW250 19/15 A3020 RMK CI1 CI TR SLP226

CYHM;2008-09-02 03:00;CYHM 020300Z 05004KT 15SM FEW250 17/14 A3020 RMK CI1 CI TR SLP224

CYHM;2008-09-02 04:00;CYHM 020400Z 08003KT 15SM FEW250 17/14 A3019 RMK CI1 SLP223

CYHM;2008-09-02 05:00;CYHM 020500Z 07002KT 15SM FEW250 17/13 A3019 RMK CI1 CI TR SLP223

CYHM;2008-09-02 06:00;CYHM 020600Z 10003KT 15SM FEW250 17/13 A3018 RMK CI1 CI TR SLP217

CYHM;2008-09-02 07:00;CYHM 020700Z 08003KT 15SM SKC 16/12 A3017 RMK SLP213

CYHM;2008-09-02 08:00;CYHM 020800Z 11002KT 15SM SKC 16/12 A3017 RMK SLP214

CYHM;2008-09-02 09:00;CYHM 020900Z 00000KT 15SM SKC 14/12 A3017 RMK SLP214

CYHM;2008-09-02 10:00;CYHM 021000Z 02002KT 15SM SKC 14/13 A3017 RMK SLP216

CYHM;2008-09-02 11:00;CYHM 021100Z 05004KT 15SM FEW140 14/13 A3018 RMK AC1 SLP219

CYHM;2008-09-02 12:00;CYHM 021200Z 06002KT 15SM FEW140 17/15 A3018 RMK AC1 SLP218

CYHM;2008-09-02 13:00;CYHM 021300Z 00000KT 15SM FEW140 FEW240 21/17 A3018 RMK AC1CI1 SLP220

CYHM;2008-09-02 14:00;CYHM 021400Z 00000KT 15SM FEW220 23/17 A3018 RMK CI1 SLP219

CYHM;2008-09-02 15:00;CYHM 021500Z 00000KT 15SM FEW220 25/17 A3018 RMK CI1 SLP219

CYHM;2008-09-02 16:00;CYHM 021600Z 07002KT 15SM FEW220 25/18 A3017 RMK CI0 SLP215

CYHM;2008-09-02 17:00;CYHM 021700Z 00000KT 15SM FEW025 FEW220 25/17 A3015 RMK CU1CI0 SLP209

CYHM;2008-09-02 18:00;CYHM 021800Z 15004KT 15SM FEW030 FEW220 26/17 A3013 RMK CU1CI1 CU TR CI TR SLP200

CYHM;2008-09-02 19:00;CYHM 021900Z 13003KT 15SM FEW040 FEW250 27/17 A3011 RMK CU1CI1 CU TR WND L/V SLP194

CYHM;2008-09-02 20:00;CYHM 022000Z 00000KT 15SM FEW042 FEW250 27/17 A3010 RMK CU1CI1 CU TR SLP190

CYHM;2008-09-02 21:00;CYHM 022100Z 05007KT 15SM FEW042 FEW250 26/16 A3008 RMK CU1CI1 CU TR SLP186

CYHM;2008-09-02 22:00;CYHM 022200Z 06007KT 15SM FEW040 FEW250 25/15 A3008 RMK CU1CI1 CU TR SLP186

CYHM;2008-09-02 23:00;CYHM 022300Z 09003KT 15SM FEW250 24/15 A3008 RMK CI1 CI TR SLP186

CYHM;2008-09-03 00:00;CYHM 030000Z 00000KT 15SM FEW250 22/14 A3007 RMK CI1 CI TR SLP180

CYHM;2008-09-03 01:00;CYHM 030100Z 00000KT 15SM FEW250 20/15 A3007 RMK CI1 CI TR SLP180

CYHM;2008-09-03 02:00;CYHM 030200Z 00000KT 15SM FEW250 17/14 A3007 RMK CI1 CI TR SLP180

CYHM;2008-09-03 03:00;CYHM 030300Z 00000KT 15SM FEW250 19/14 A3006 RMK CI1 CI TR SLP177

CYHM;2008-09-03 04:00;CYHM 030400Z 00000KT 15SM FEW250 18/14 A3006 RMK CI1 CI TR SLP176

CYHM;2008-09-03 05:00;CYHM 030500Z 00000KT 15SM FEW250 17/14 A3005 RMK CI1 CI TR SLP174

CYHM;2008-09-03 06:00;CYHM 030600Z 26003KT 15SM FEW250 16/14 A3004 RMK CI1 CI TR SLP169

CYHM;2008-09-03 07:00;CYHM 030700Z 26002KT 15SM FEW250 15/14 A3002 RMK CI1 CI TR SLP165

CYHM;2008-09-03 08:00;CYHM 030800Z 00000KT 15SM SKC 15/14 A3002 RMK SLP164

CYHM;2008-09-03 09:00;CYHM 030900Z 22002KT 15SM SKC 14/13 A3001 RMK SLP161

CYHM;2008-09-03 10:00;CYHM 031000Z 27003KT 15SM FEW070 15/14 A3001 RMK AC1 AC TR SLP159

CYHM;2008-09-03 11:00;CYHM 031100Z 28004KT 15SM FEW240 15/14 A3002 RMK CI1 CI TR SLP163

CYHM;2008-09-03 12:00;CYHM 031200Z 27003KT 10SM FEW240 16/15 A3003 RMK CI1 CI TR HAZY SLP168

CYHM;2008-09-03 13:00;CYHM 031300Z 28005KT 15SM SKC 19/16 A3003 RMK SLP167

CYHM;2008-09-03 14:00;CYHM 031400Z 25005KT 15SM SKC 22/17 A3001 RMK SLP163

CYHM;2008-09-03 15:00;CYHM 031500Z 24004KT 15SM SKC 24/17 A3001 RMK SLP160

CYHM;2008-09-03 16:00;CYHM 031600Z 24003KT 15SM SKC 26/17 A3001 RMK SLP160

CYHM;2008-09-03 17:00;CYHM 031700Z 20003KT 15SM SKC 27/18 A2999 RMK SLP155

CYHM;2008-09-03 18:00;CYHM 031800Z 24007KT 15SM SKC 27/18 A2998 RMK SLP150

CYHM;2008-09-03 19:00;CYHM 031900Z 25004KT 15SM FEW120 FEW250 28/18 A2996 RMK AC1CI1 CI TR SLP144

CYHM;2008-09-03 20:00;CYHM 032000Z 23007KT 15SM FEW160 28/17 A2994 RMK AC2 SLP137

CYHM;2008-09-03 21:00;CYHM 032100Z 29004KT 15SM FEW160 FEW250 29/17 A2993 RMK AC1CI1 CI TR SLP132

CYHM;2008-09-03 22:00;CYHM 032200Z 20008KT 15SM FEW160 FEW250 27/19 A2992 RMK AC1CI1 CI TR SLP130

CYHM;2008-09-03 23:00;CYHM 032300Z 20007KT 15SM BKN150 24/18 A2992 RMK AC6 SLP130

CYHM;2008-09-04 00:00;CYHM 040000Z 22005KT 15SM SCT140 BKN180 BKN250 22/17 A2992 RMK AC3AC2CI0 SLP132

CYHM;2008-09-04 01:00;CYHM 040100Z 26003KT 15SM SCT084 BKN120 22/17 A2994 RMK AC3AC4 SLP138

CYHM;2008-09-04 02:00;CYHM 040200Z 32007KT 10SM FEW074 BKN090 OVC140 22/19 A2995 RMK AC2AC5AC2 SLP142

CYHM;2008-09-04 03:00;CYHM 040300Z 29005KT 10SM FEW030 FEW070 OVC100 22/19 A2996 RMK SC1AC2AC6 SLP142

CYHM;2008-09-04 04:00;CYHM 040400Z 28005KT 10SM -SHRA FEW050 OVC072 20/18 A2999 RMK SC1AC7 SLP151

CYHM;2008-09-04 04:50;CYHM 040450Z 29007KT 15SM -SHRA BKN014 OVC057 RMK CF6SC2

CYHM;2008-09-04 05:00;CYHM 040500Z 32007KT 15SM FEW016 BKN063 BKN200 19/16 A3001 RMK CF2SC5CI1 SLP157

CYHM;2008-09-04 06:00;CYHM 040600Z 02002KT 15SM FEW090 OVC130 18/15 A2999 RMK AC2AC6 SLP153

CYHM;2008-09-04 07:00;CYHM 040700Z 31004KT 15SM FEW110 BKN130 17/15 A2997 RMK AC2AC6 SLP146

CYHM;2008-09-04 08:00;CYHM 040800Z 00000KT 15SM FEW140 FEW220 16/14 A2998 RMK AC1CI1 SLP149

CYHM;2008-09-04 09:00;CYHM 040900Z 00000KT 15SM BKN130 16/14 A2997 RMK AC7 SLP148

CYHM;2008-09-04 10:00;CYHM 041000Z 30003KT 15SM FEW070 OVC120 16/15 A2999 RMK AC2AC6 SLP153

CYHM;2008-09-04 11:00;CYHM 041100Z 32002KT 15SM SCT130 BKN220 16/15 A3000 RMK AC3CI2 SLP156

CYHM;2008-09-04 12:00;CYHM 041200Z 00000KT 15SM FEW090 SCT140 BKN220 17/15 A3001 RMK AC1AC2CI2 SLP159

CYHM;2008-09-04 13:00;CYHM 041300Z 03002KT 15SM FEW150 BKN220 19/15 A3001 RMK AC2CI2 SLP160

CYHM;2008-09-04 14:00;CYHM 041400Z 00000KT 15SM FEW180 SCT220 20/16 A3002 RMK AC1CI2 AC TR SLP164

CYHM;2008-09-04 15:00;CYHM 041500Z 09002KT 15SM FEW180 BKN220 22/16 A3002 RMK AC2CI2 SLP162

CYHM;2008-09-04 16:00;CYHM 041600Z 07003KT 15SM SCT140 BKN210 23/16 A3002 RMK AC3CI2 SLP162

CYHM;2008-09-04 17:00;CYHM 041700Z 06005KT 15SM FEW095 FEW160 BKN220 23/17 A3000 RMK AC1AC1CI2 SLP155

CYHM;2008-09-04 18:00;CYHM 041800Z 08002KT 15SM SCT075 BKN160 BKN220 25/18 A2998 RMK AC3AC2CI2 SLP151

CYHM;2008-09-04 19:00;CYHM 041900Z 07005KT 15SM BKN079 25/18 A2997 RMK AC7 SLP148

CYHM;2008-09-04 20:00;CYHM 042000Z 05006KT 15SM BKN076 BKN240 24/17 A2996 RMK AC6CI1 SLP143

CYHM;2008-09-04 21:00;CYHM 042100Z 07008KT 15SM SCT078 BKN100 BKN240 24/16 A2994 RMK AC3AC2CI0 SLP138

CYHM;2008-09-04 22:00;CYHM 042200Z 05010KT 15SM BKN097 BKN240 22/14 A2993 RMK AC6CI2 SLP133

CYHM;2008-09-04 23:00;CYHM 042300Z 06007KT 15SM SCT097 BKN240 21/15 A2991 RMK AC3CI4 SLP129

CYHM;2008-09-05 00:00;CYHM 050000Z 06007KT 15SM FEW095 OVC230 21/16 A2991 RMK AC2CI5 SLP127

CYHM;2008-09-05 01:00;CYHM 050100Z 06008KT 15SM FEW095 OVC210 21/16 A2991 RMK AC2CI6 SLP129

CYHM;2008-09-05 02:00;CYHM 050200Z 06010KT 15SM FEW095 BKN190 BKN240 21/16 A2989 RMK AC1AC6CI2 SLP121

CYHM;2008-09-05 03:00;CYHM 050300Z 05010KT 15SM BKN180 21/17 A2988 RMK AC7 SLP114

CYHM;2008-09-05 04:00;CYHM 050400Z 04006KT 15SM OVC160 21/18 A2985 RMK AC8 SLP107

CYHM;2008-09-05 05:00;CYHM 050500Z 11007KT 15SM OVC150 22/19 A2984 RMK AC8 SLP102

CYHM;2008-09-05 06:00;CYHM 050600Z 13005KT 15SM BKN150 BKN240 21/18 A2982 RMK AC6CI1 SLP095

CYHM;2008-09-05 07:00;CYHM 050700Z 14005KT 15SM BKN160 BKN240 21/17 A2980 RMK AC5CI2 SLP088

CYHM;2008-09-05 08:00;CYHM 050800Z 17007KT 15SM SCT170 BKN240 22/18 A2979 RMK AC3CI3 SLP084

CYHM;2008-09-05 09:00;CYHM 050900Z 17012KT 15SM BKN140 BKN250 23/18 A2978 RMK AC6CI2 SLP081

CYHM;2008-09-05 10:00;CYHM 051000Z 19019G28KT 15SM BKN160 BKN250 24/16 A2978 RMK AC5CI2 SLP081

CYHM;2008-09-05 11:00;CYHM 051100Z 20020KT 15SM BKN150 BKN220 23/15 A2979 RMK AC5CI1 SLP084

CYHM;2008-09-05 12:00;CYHM 051200Z 20018KT 15SM BKN150 BKN240 22/16 A2979 RMK AC5CI2 SLP087

CYHM;2008-09-05 13:00;CYHM 051300Z 21016G22KT 15SM FEW085 BKN140 BKN220 24/16 A2981 RMK AC2AC4CI1 SLP091

CYHM;2008-09-05 14:00;CYHM 051400Z 21020G26KT 15SM FEW042 BKN130 BKN170 24/17 A2981 RMK SC2AC3AC1 SLP093

CYHM;2008-09-05 14:03;CYHM 051403Z 22016G22KT 15SM -SHRA BKN034 BKN060 BKN085 RMK SC5SC2AC1

CYHM;2008-09-05 14:34;CYHM 051434Z 21015G20KT 15SM FEW040 FEW064 BKN100 BKN180 BKN240 RMK SC2SC1AC2AC1CI2

CYHM;2008-09-05 15:00;CYHM 051500Z 22018G23KT 15SM FEW032 SCT056 BKN100 BKN180 24/17 A2982 RMK SC1SC2AC3AC1 SLP094

CYHM;2008-09-05 16:00;CYHM 051600Z 21018G23KT 15SM BKN052 OVC080 24/17 A2983 RMK SC6AC2 SLP097

CYHM;2008-09-05 17:00;CYHM 051700Z 25025G44KT 15SM -SHRA SCT028 BKN036 OVC044 23/17 A2984 RMK SC3SC2SC2 SLP103

CYHM;2008-09-05 17:10;CYHM 051710Z 24025G30KT 15SM BKN037 OVC060 RMK SC5SC3

CYHM;2008-09-05 18:00;CYHM 051800Z 21018G23KT 15SM BKN028 OVC062 23/18 A2984 RMK SC6SC2 SLP102

CYHM;2008-09-05 19:00;CYHM 051900Z 22020G27KT 15SM OVC020 22/18 A2985 RMK SC8 SLP107

CYHM;2008-09-05 20:00;CYHM 052000Z 23022KT 15SM BKN020 BKN042 23/18 A2985 RMK SC6SC1 SLP106

CYHM;2008-09-05 21:00;CYHM 052100Z 22017KT 10SM -SHRA OVC025 22/19 A2988 RMK SC8 SLP114

CYHM;2008-09-05 22:00;CYHM 052200Z 24015KT 12SM -SHRA FEW015 OVC025 21/19 A2989 RMK CF2SC6 SLP120

CYHM;2008-09-05 22:18;CYHM 052218Z 25012KT 6SM -SHRA BKN004 OVC015 RMK CF6SC2

CYHM;2008-09-05 22:35;CYHM 052235Z 29007KT 4SM -SHRA BR BKN007 OVC020 RMK SF6SC2

CYHM;2008-09-05 23:00;CYHM 052300Z 32009KT 3SM -SHRA BR OVC010 19/18 A2991 RMK SC8 VIS VRB 2 - 4 SLP127

CYHM;2008-09-05 23:21;CYHM 052321Z 32006KT 8SM -SHRA FEW009 OVC036 RMK CF2SC6

CYHM;2008-09-06 00:00;CYHM 060000Z 32007KT 8SM -SHRA FEW009 OVC045 18/17 A2993 RMK CF2SC6 SLP132

CYHM;2008-09-06 00:42;CYHM 060042Z 00000KT 15SM SCT040 OVC071 RMK SC3AC5

CYHM;2008-09-06 01:00;CYHM 060100Z 33006KT 15SM FEW040 OVC074 18/16 A2994 RMK SC2AC6 SLP138

CYHM;2008-09-06 02:00;CYHM 060200Z 34005KT 15SM FEW035 OVC044 18/16 A2995 RMK CF1SC7 SLP139

CYHM;2008-09-06 03:00;CYHM 060300Z 00000KT 15SM FEW036 OVC045 17/16 A2995 RMK CF2SC6 SLP141

CYHM;2008-09-06 03:33;CYHM 060333Z 35006KT 15SM BKN014 OVC035 RMK CF6SC2

CYHM;2008-09-06 04:00;CYHM 060400Z 01005KT 15SM FEW015 OVC033 17/15 A2995 RMK CF2SC6 SLP141

CYHM;2008-09-06 05:00;CYHM 060500Z 36007KT 10SM -SHRA FEW014 OVC031 16/15 A2994 RMK CF1SC7 SLP137

CYHM;2008-09-06 06:00;CYHM 060600Z 02004KT 6SM -DZ BR OVC033 16/15 A2994 RMK SC8 SLP137

CYHM;2008-09-06 06:38;CYHM 060638Z 01003KT 15SM -DZ FEW008 OVC030 RMK CF2SC6

CYHM;2008-09-06 07:00;CYHM 060700Z 02006KT 15SM -DZ BKN006 OVC016 16/15 A2993 RMK CF5SC3 CIG RAG SLP134

CYHM;2008-09-06 07:31;CYHM 060731Z 01008KT 7SM -DZ OVC015 RMK SC8

CYHM;2008-09-06 07:51;CYHM 060751Z 01008KT 1 1/2SM RA BR OVC007 RMK FG2SF6 VIS VRB 1 - 2

CYHM;2008-09-06 08:00;CYHM 060800Z 35010KT 5SM -RA BR FEW005 OVC011 15/14 A2993 RMK SF2SC6 SLP133

CYHM;2008-09-06 08:36;CYHM 060836Z 33008KT 3SM +RA BR BKN014 OVC033 RMK CF6SC2 VIS VRB 2 - 4

CYHM;2008-09-06 09:00;CYHM 060900Z 01007KT 5SM -RA BR FEW012 OVC030 14/13 A2994 RERA RMK CF2SC6 SLP137

CYHM;2008-09-06 10:00;CYHM 061000Z 01007KT 6SM -RA BR FEW020 OVC042 14/14 A2993 RMK CF2SC6 SLP134

CYHM;2008-09-06 11:00;CYHM 061100Z 02005KT 6SM -RA BR FEW015 OVC052 14/13 A2993 RMK CF1SC8 SLP136

CYHM;2008-09-06 11:48;CYHM 061148Z 01004KT 15SM FEW015 OVC049 RMK CF1SC8

CYHM;2008-09-06 12:00;CYHM 061200Z 01004KT 15SM -RA FEW015 OVC049 14/13 A2994 RMK CF1SC8 SLP140

CYHM;2008-09-06 13:00;CYHM 061300Z 35003KT 7SM -RA OVC050 14/13 A2995 RMK SC8 SLP143

CYHM;2008-09-06 13:44;CYHM 061344Z 02005KT 6SM -RA BR FEW008 BKN051 RMK CF1SC6

CYHM;2008-09-06 14:00;CYHM 061400Z 01005KT 6SM -RA BR FEW008 BKN052 14/13 A2994 RMK CF1SC6 SLP138

CYHM;2008-09-06 15:00;CYHM 061500Z 05005KT 8SM -RA FEW008 BKN052 BKN077 15/13 A2994 RMK CF1SC5AC2 SLP139

CYHM;2008-09-06 15:35;CYHM 061535Z 06002KT 15SM FEW010 SCT053 BKN075 RMK CF1SC4AC3

CYHM;2008-09-06 16:00;CYHM 061600Z 11002KT 15SM FEW010 SCT054 BKN076 16/14 A2994 RMK CF2SC2AC3 SLP139

CYHM;2008-09-06 17:00;CYHM 061700Z 00000KT 15SM FEW012 FEW058 BKN081 17/14 A2994 RMK CF1SC2AC5 SLP139

CYHM;2008-09-06 18:00;CYHM 061800Z 00000KT 15SM FEW016 FEW034 BKN087 18/15 A2993 RMK CF1SC2AC5 CF TR SLP135

CYHM;2008-09-06 19:00;CYHM 061900Z 13004KT 15SM FEW018 BKN042 BKN085 20/15 A2992 RMK CF2SC2AC2 SLP133

CYHM;2008-09-06 20:00;CYHM 062000Z 15002KT 15SM SCT021 BKN045 BKN085 20/15 A2991 RMK CU3SC2AC1 SLP130

CYHM;2008-09-06 21:00;CYHM 062100Z 09004KT 15SM FEW025 BKN046 BKN085 19/15 A2993 RMK CU2SC3AC1 SLP134

CYHM;2008-09-06 22:00;CYHM 062200Z 00000KT 15SM FEW028 BKN048 BKN085 20/15 A2993 RMK CU2SC3AC1 AC TR SLP135

CYHM;2008-09-06 23:00;CYHM 062300Z 07006KT 15SM FEW026 SCT038 BKN054 19/14 A2994 RMK CU2SC2SC2 SLP140

CYHM;2008-09-07 00:00;CYHM 070000Z 00000KT 15SM FEW026 FEW038 FEW054 17/14 A2994 RMK CU1SC1SC1 SLP140

CYHM;2008-09-07 01:00;CYHM 070100Z 02002KT 15SM SCT033 15/14 A2996 RMK SC3 SLP146

CYHM;2008-09-07 02:00;CYHM 070200Z 02006KT 15SM FEW034 FEW200 15/11 A2997 RMK SC1CI1 CI TR SLP148

CYHM;2008-09-07 03:00;CYHM 070300Z 01005KT 15SM FEW220 13/10 A2998 RMK CI1 SLP153

CYHM;2008-09-07 04:00;CYHM 070400Z 32005KT 15SM FEW210 13/10 A2998 RMK CI1 SLP155

CYHM;2008-09-07 05:00;CYHM 070500Z 33004KT 15SM SKC 12/10 A2999 RMK SLP156

CYHM;2008-09-07 06:00;CYHM 070600Z 34004KT 15SM FEW210 12/09 A2999 RMK CI1 SLP156

CYHM;2008-09-07 07:00;CYHM 070700Z 29003KT 15SM SKC 11/09 A3000 RMK SLP159

CYHM;2008-09-07 08:00;CYHM 070800Z 00000KT 15SM FEW200 10/09 A3000 RMK CI1 SLP161

CYHM;2008-09-07 09:00;CYHM 070900Z 00000KT 15SM BKN073 BKN180 11/10 A3001 RMK AC6AC2 SLP164

CYHM;2008-09-07 10:00;CYHM 071000Z 00000KT 15SM BKN096 BKN180 11/10 A3001 RMK AC6AC1 SLP162

CYHM;2008-09-07 11:00;CYHM 071100Z 00000KT 15SM FEW095 BKN160 11/10 A3000 RMK AC2AC4 SLP161

CYHM;2008-09-07 12:00;CYHM 071200Z 00000KT 15SM FEW078 BKN170 13/12 A3000 RMK AC1AC7 SLP159

CYHM;2008-09-07 13:00;CYHM 071300Z 16002KT 15SM FEW048 BKN096 OVC170 14/12 A3000 RMK SC2AC4AC2 SLP161

CYHM;2008-09-07 13:32;CYHM 071332Z 00000KT 15SM -SHRA BKN047 OVC085 RMK SC6AC2

CYHM;2008-09-07 14:00;CYHM 071400Z 30006KT 12SM -SHRA FEW026 BKN046 OVC085 14/13 A3003 RMK SC2SC6AC1 CU ASOCTD SLP170

CYHM;2008-09-07 14:30;CYHM 071430Z 33003KT 2 1/2SM SHRA BR BKN035 OVC036 RMK SC6SC2

CYHM;2008-09-07 14:50;CYHM 071450Z 00000KT 3SM -SHRA BR FEW012 BKN022 OVC040 RERA RMK CF1SC4SC3

CYHM;2008-09-07 15:00;CYHM 071500Z 28002KT 2 1/2SM SHRA BR FEW012 BKN024 OVC040 13/13 A3004 RMK CF2SC4SC2 SLP175

CYHM;2008-09-07 15:14;CYHM 071514Z 00000KT 3SM -SHRA BR FEW012 BKN027 BKN040 OVC077 RERA RMK CF1SC4SC2AC1

CYHM;2008-09-07 16:00;CYHM 071600Z 27002KT 4SM -SHRA BR FEW012 FEW029 BKN044 OVC078 14/13 A3004 RERA RMK CF1SC2SC4AC2 /R18/ SLP173

CYHM;2008-09-07 16:45;CYHM 071645Z CCA 23003KT 4SM -SHRA BR BKN013 OVC076 RMK CF6AC2

CYHM;2008-09-07 17:00;CYHM 071700Z 23003KT 4SM -SHRA BR FEW003 BKN011 OVC076 14/14 A3003 RMK CF2SC6AC1 SLP170

CYHM;2008-09-07 17:18;CYHM 071718Z 26003KT 3SM RA BR BKN005 BKN011 OVC020 RMK SF5SC2SC2

CYHM;2008-09-07 17:46;CYHM 071746Z 31005KT 8SM -SHRA SCT005 BKN019 OVC120 RERA RMK SF3SC2AC2

CYHM;2008-09-07 18:00;CYHM 071800Z 30002KT 10SM -SHRA FEW004 BKN019 BKN073 OVC120 15/13 A3002 RERA RMK SF2SC2AC2AC2 /R25/ SLP167

CYHM;2008-09-07 18:18;CYHM 071818Z 00000KT 15SM FEW006 SCT020 BKN071 BKN120 RMK CF2SC2AC2AC1

CYHM;2008-09-07 19:00;CYHM 071900Z 00000KT 15SM FEW010 BKN070 BKN085 16/14 A3001 RMK CU2AC2AC2 SLP163

CYHM;2008-09-07 20:00;CYHM 072000Z 26006KT 230V290 15SM BKN015 BKN022 BKN070 17/14 A3001 RMK CU5SC1AC1 SLP166

CYHM;2008-09-07 21:00;CYHM 072100Z 25008KT 220V280 15SM SCT025 18/13 A3002 RMK CU4 SLP168

CYHM;2008-09-07 22:00;CYHM 072200Z 24006KT 15SM FEW026 18/12 A3002 RMK CU2 SLP166

CYHM;2008-09-07 23:00;CYHM 072300Z 24006KT 15SM FEW025 17/12 A3003 RMK CU1 SLP170

CYHM;2008-09-08 00:00;CYHM 080000Z 20005KT 15SM FEW025 FEW040 14/12 A3003 RMK CU1SC1 SC TR SLP172

CYHM;2008-09-08 01:00;CYHM 080100Z 21004KT 15SM SKC 13/11 A3007 RMK SLP183

CYHM;2008-09-08 02:00;CYHM 080200Z 20006KT 15SM FEW050 13/12 A3008 RMK SC1 SC TR SLP188

CYHM;2008-09-08 03:00;CYHM 080300Z 21004KT 15SM FEW070 13/12 A3007 RMK AC1 AC TR SLP187

CYHM;2008-09-08 04:00;CYHM 080400Z 21003KT 15SM FEW070 13/12 A3008 RMK AC1 AC TR SLP189

CYHM;2008-09-08 05:00;CYHM 080500Z 28003KT 15SM SCT060 13/13 A3009 RMK SC4 SLP192

CYHM;2008-09-08 06:00;CYHM 080600Z 00000KT 15SM FEW056 13/12 A3008 RMK SC1 SC TR SLP189

CYHM;2008-09-08 07:00;CYHM 080700Z 23002KT 15SM SKC 12/12 A3008 RMK SLP187

CYHM;2008-09-08 08:00;CYHM 080800Z 21003KT 15SM BCFG SKC 11/10 A3009 RMK SLP191

CYHM;2008-09-08 08:10;CYHM 080810Z 20004KT 1SM BR SKC RMK FG1

CYHM;2008-09-08 08:55;CYHM 080855Z 21002KT 15SM BCFG SKC

CYHM;2008-09-08 09:00;CYHM 080900Z 20003KT 15SM BCFG SKC 11/11 A3010 RMK SLP194

CYHM;2008-09-08 09:50;CYHM 080950Z 22004KT 3/4SM BR SKC RMK FG2

CYHM;2008-09-08 10:00;CYHM 081000Z 22004KT 3/4SM BR SKC 09/09 A3011 RMK FG2 SLP198

CYHM;2008-09-08 10:37;CYHM 081037Z 24003KT 1/2SM FG FEW060 FEW240 RMK FG2SC1CI0 VISB NW-N 2-6SM

CYHM;2008-09-08 10:42;CYHM 081042Z 24005KT 2SM BR FEW060 FEW240 RMK SC1CI2 SC TR

CYHM;2008-09-08 11:00;CYHM 081100Z 24004KT 4SM BR FEW100 FEW240 10/09 A3011 RMK AC1CI1 AC TR SLP199

CYHM;2008-09-08 11:10;CYHM 081110Z 23002KT 3/4SM BR FEW100 FEW240 RMK FG1AC1CI1 AC TR VIS 1/2-1SM

CYHM;2008-09-08 11:38;CYHM 081138Z 22004KT 8SM FEW120 FEW240 RMK AC1CI1

CYHM;2008-09-08 12:00;CYHM 081200Z 23003KT 10SM FEW025 FEW240 11/11 A3012 RMK CU1CI1 CU TR SLP203

CYHM;2008-09-08 13:00;CYHM 081300Z 26006KT 15SM FEW025 FEW240 15/13 A3015 RMK CU1CI1 CU TR CI TR SLP213

CYHM;2008-09-08 14:00;CYHM 081400Z 21011KT 15SM FEW025 FEW240 18/14 A3015 RMK CU1CI1 SLP211

CYHM;2008-09-08 15:00;CYHM 081500Z 24011KT 15SM FEW025 FEW220 19/13 A3014 RMK CU1CI1 SLP208

CYHM;2008-09-08 16:00;CYHM 081600Z 23014KT 15SM FEW038 SCT220 21/14 A3012 RMK CU2CI1 SC ASOCTD SLP201

CYHM;2008-09-08 17:00;CYHM 081700Z 25015KT 15SM FEW042 FEW064 SCT220 22/13 A3011 RMK CU1SC1CI1 SLP198

CYHM;2008-09-08 18:00;CYHM 081800Z 25012KT 15SM SCT042 BKN068 BKN220 23/14 A3010 RMK CU4AC1CI0 SC ASOCTD SLP192

CYHM;2008-09-08 19:00;CYHM 081900Z 22010KT 15SM SCT046 SCT190 BKN250 22/14 A3008 RMK CU3AC1CI0 AC TR CONTRAILS SLP186

CYHM;2008-09-08 20:00;CYHM 082000Z 23013KT 15SM FEW044 BKN056 BKN250 21/13 A3009 RMK CU1SC6CI1 SLP188

CYHM;2008-09-08 21:00;CYHM 082100Z 21008KT 15SM BKN056 BKN100 OVC130 20/14 A3008 RMK SC6AC2AC1 SLP186

CYHM;2008-09-08 22:00;CYHM 082200Z 21010KT 15SM FEW030 BKN074 OVC140 20/14 A3007 RMK SC1AC6AC1 SLP185

CYHM;2008-09-08 23:00;CYHM 082300Z 22007KT 15SM BKN074 OVC120 19/14 A3007 RMK AC6AC2 SLP185

CYHM;2008-09-09 00:00;CYHM 090000Z 00000KT 15SM SCT100 BKN160 BKN250 18/14 A3002 RMK AC3AC2CS1 SLP168

CYHM;2008-09-09 00:50;CYHM 090050Z 23002KT 15SM -SHRA BKN100 OVC180 RMK AC6AC2

CYHM;2008-09-09 01:00;CYHM 090100Z 23002KT 15SM -SHRA BKN100 OVC180 16/14 A3006 RMK AC6AC2 SLP181

CYHM;2008-09-09 02:00;CYHM 090200Z 36007KT 15SM -SHRA BKN093 OVC120 16/15 A3007 RMK AC7AC1 SLP183

CYHM;2008-09-09 03:00;CYHM 090300Z 03005KT 15SM -SHRA BKN012 OVC072 15/13 A3005 RMK SC6AC2 SLP176

CYHM;2008-09-09 04:00;CYHM 090400Z 04011KT 15SM OVC080 15/13 A2998 RMK AC8 SLP154

CYHM;2008-09-09 05:00;CYHM 090500Z 01007KT 15SM -SHRA BKN012 OVC060 14/13 A3000 RMK SC6SC2 SLP158

CYHM;2008-09-09 06:00;CYHM 090600Z 32015KT 7SM -SHRA OVC010 13/12 A3001 RMK SC8 SLP160

CYHM;2008-09-09 07:00;CYHM 090700Z 04008KT 15SM -SHRA FEW010 FEW020 OVC076 13/12 A2995 RMK SF1SC1AC6 SLP142

CYHM;2008-09-09 08:00;CYHM 090800Z 07003KT 6SM -SHRA BR FEW024 OVC062 13/12 A2995 RMK SC2SC6 SLP142

CYHM;2008-09-09 09:00;CYHM 090900Z 31002KT 5SM -RA BR FEW004 FEW034 OVC082 13/12 A2995 RMK SF1SC1AC6 SF TR SLP143

CYHM;2008-09-09 10:00;CYHM 091000Z 22003KT 4SM -RA BR SCT004 OVC058 13/12 A2996 RMK SF3SC5 SLP147

CYHM;2008-09-09 10:36;CYHM 091036Z 24008KT 4SM -RA BR BKN002 OVC042 RMK SF5SC3

CYHM;2008-09-09 10:54;CYHM 091054Z 25005KT 4SM BR BKN002 OVC046 RMK SF6SC2

CYHM;2008-09-09 11:00;CYHM 091100Z 26005KT 5SM BR BKN002 OVC046 13/12 A2997 RMK SF6SC2 SLP150

CYHM;2008-09-09 12:00;CYHM 091200Z 25006KT 6SM BR BKN005 BKN013 OVC044 13/12 A2998 RMK SF5SC2SC2 SLP154

CYHM;2008-09-09 13:00;CYHM 091300Z 28008KT 15SM FEW007 BKN012 BKN032 13/12 A2999 RMK SF2SC3SC2 SLP158

CYHM;2008-09-09 14:00;CYHM 091400Z 28006KT 15SM FEW012 BKN016 BKN040 15/13 A3001 RMK CU2SC5SC1 SLP164

CYHM;2008-09-09 15:00;CYHM 091500Z 26008KT 15SM FEW016 BKN027 BKN120 16/12 A3002 RMK CU2SC3AC1 SLP167

CYHM;2008-09-09 16:00;CYHM 091600Z 30010KT 15SM BKN028 BKN038 17/12 A3003 RMK CU5SC2 SLP170

CYHM;2008-09-09 17:00;CYHM 091700Z 30011KT 15SM BKN034 BKN038 17/11 A3003 RMK CU5SC2 SLP171

CYHM;2008-09-09 18:00;CYHM 091800Z 34005KT 15SM SCT042 BKN054 18/11 A3003 RMK CU3SC3 SLP171

CYHM;2008-09-09 19:00;CYHM 091900Z 32004KT 15SM BKN044 BKN080 17/10 A3004 RMK SC5AC2 SLP172

CYHM;2008-09-09 20:00;CYHM 092000Z 28009KT 15SM SCT042 BKN094 19/10 A3004 RMK SC3AC2 CU ASOCTD SLP173

CYHM;2008-09-09 21:00;CYHM 092100Z 31013KT 15SM FEW044 BKN097 17/09 A3005 RMK SC2AC5 SLP178

CYHM;2008-09-09 22:00;CYHM 092200Z 29012KT 15SM FEW065 BKN092 16/09 A3008 RMK SC2AC3 SLP188

CYHM;2008-09-09 23:00;CYHM 092300Z 32007KT 15SM FEW064 BKN092 15/09 A3010 RMK SC1AC6 SLP194

CYHM;2008-09-10 00:00;CYHM 100000Z 30004KT 15SM FEW060 FEW090 13/09 A3011 RMK SC1AC2 SC TR SLP200

CYHM;2008-09-10 01:00;CYHM 100100Z 30004KT 15SM FEW090 11/08 A3014 RMK AC1 AC TR SLP210

CYHM;2008-09-10 02:00;CYHM 100200Z 29003KT 15SM FEW090 11/09 A3017 RMK AC1 AC TR SLP218

CYHM;2008-09-10 03:00;CYHM 100300Z 32005KT 15SM SKC 11/09 A3018 RMK SLP222

CYHM;2008-09-10 04:00;CYHM 100400Z 29004KT 15SM SKC 10/08 A3019 RMK SLP226

CYHM;2008-09-10 05:00;CYHM 100500Z 32005KT 15SM SKC 10/08 A3021 RMK SLP232

CYHM;2008-09-10 06:00;CYHM 100600Z 31004KT 15SM FEW250 10/08 A3022 RMK CI1 CI TR SLP235

CYHM;2008-09-10 07:00;CYHM 100700Z 31002KT 15SM SKC 08/07 A3023 RMK SLP240

CYHM;2008-09-10 08:00;CYHM 100800Z 34002KT 15SM SKC 09/07 A3024 RMK SLP243

CYHM;2008-09-10 09:00;CYHM 100900Z 36004KT 15SM SKC 08/06 A3026 RMK SLP249

CYHM;2008-09-10 10:00;CYHM 101000Z 36003KT 15SM SKC 08/06 A3027 RMK SLP254

CYHM;2008-09-10 11:00;CYHM 101100Z 03003KT 15SM FEW020 FEW240 08/06 A3029 RMK CU1CI1 SLP261

CYHM;2008-09-10 12:00;CYHM 101200Z 02003KT 15SM FEW020 FEW240 11/08 A3032 RMK CU1CI1 CU TR CI TR SLP270

CYHM;2008-09-10 13:00;CYHM 101300Z 04003KT 15SM FEW025 13/10 A3033 RMK CU1 CU TR SLP275

CYHM;2008-09-10 14:00;CYHM 101400Z 05007KT 15SM FEW025 15/10 A3034 RMK CU1 CU TR SLP278

CYHM;2008-09-10 15:00;CYHM 101500Z 09006KT 15SM FEW025 16/09 A3035 RMK CU1 SLP279

CYHM;2008-09-10 16:00;CYHM 101600Z 03006KT 15SM FEW042 17/09 A3034 RMK CU2 SLP278

CYHM;2008-09-10 17:00;CYHM 101700Z 07006KT 15SM FEW045 SCT240 17/07 A3034 RMK CU2CI0 SLP276

CYHM;2008-09-10 18:00;CYHM 101800Z 05010KT 15SM FEW048 SCT240 18/08 A3033 RMK CU2CI0 CI TR SLP274

CYHM;2008-09-10 19:00;CYHM 101900Z 05010KT 15SM FEW050 FEW250 17/07 A3033 RMK CU1CI1 CI TR SLP273

CYHM;2008-09-10 20:00;CYHM 102000Z 05007KT 15SM FEW052 FEW250 17/07 A3032 RMK CU1CI1 CI TR SLP271

CYHM;2008-09-10 21:00;CYHM 102100Z 05007KT 15SM FEW052 17/06 A3031 RMK CU1 SLP268

CYHM;2008-09-10 22:00;CYHM 102200Z 07010KT 15SM FEW050 16/06 A3032 RMK CU1 CU TR SLP269

CYHM;2008-09-10 23:00;CYHM 102300Z 06008KT 15SM FEW050 15/07 A3031 RMK CU1 CU TR SLP267

CYHM;2008-09-11 00:00;CYHM 110000Z 09004KT 15SM SKC 12/06 A3030 RMK SLP266

CYHM;2008-09-11 01:00;CYHM 110100Z 05007KT 15SM FEW250 11/05 A3031 RMK CI1 CI TR SLP269

CYHM;2008-09-11 02:00;CYHM 110200Z 09005KT 15SM SKC 11/05 A3033 RMK SLP273

CYHM;2008-09-11 03:00;CYHM 110300Z 09005KT 15SM SKC 10/05 A3033 RMK SLP272

CYHM;2008-09-11 04:00;CYHM 110400Z 09005KT 15SM SKC 10/04 A3033 RMK SLP272

CYHM;2008-09-11 05:00;CYHM 110500Z 09005KT 15SM SKC 10/05 A3033 RMK SLP274

CYHM;2008-09-11 06:00;CYHM 110600Z 09005KT 15SM SKC 10/05 A3033 RMK SLP274

CYHM;2008-09-11 07:00;CYHM 110700Z 06004KT 15SM FEW080 10/05 A3033 RMK AC1 SLP272

CYHM;2008-09-11 08:00;CYHM 110800Z 05007KT 15SM FEW080 09/04 A3031 RMK AC1 SLP266

CYHM;2008-09-11 09:00;CYHM 110900Z 05007KT 15SM SKC 10/05 A3030 RMK SLP264

CYHM;2008-09-11 10:00;CYHM 111000Z 04006KT 15SM FEW230 09/05 A3030 RMK CI1 SLP265

CYHM;2008-09-11 11:00;CYHM 111100Z 03005KT 15SM FEW220 09/07 A3031 RMK CI1 SLP268

CYHM;2008-09-11 12:00;CYHM 111200Z 03008KT 15SM SCT220 11/09 A3031 RMK CI2 SLP268

CYHM;2008-09-11 13:00;CYHM 111300Z 04006KT 15SM FEW220 14/10 A3030 RMK CI2 CONTRAIL SLP266

CYHM;2008-09-11 14:00;CYHM 111400Z 06008KT 15SM FEW160 SCT220 16/12 A3029 RMK AC1CI2 AC TR CONTRAIL SLP262

CYHM;2008-09-11 15:00;CYHM 111500Z 06009KT 15SM FEW220 18/10 A3029 RMK CI1 CONTRAIL SLP258

CYHM;2008-09-11 16:00;CYHM 111600Z 06012KT 15SM FEW032 FEW220 18/11 A3029 RMK CU1CI2 CU TR SLP258

CYHM;2008-09-11 17:00;CYHM 111700Z 04008KT 15SM FEW032 BKN220 19/11 A3027 RMK CU1CI4 CU TR SLP252

CYHM;2008-09-11 18:00;CYHM 111800Z 05010KT 15SM FEW045 BKN220 18/12 A3025 RMK CU1CS6 HALO CU TR SLP247

CYHM;2008-09-11 19:00;CYHM 111900Z 04008KT 15SM FEW045 BKN230 19/12 A3022 RMK CU1CS6 CU TR HALO SLP237

CYHM;2008-09-11 20:00;CYHM 112000Z 05008KT 010V080 15SM BKN230 19/13 A3019 RMK CI5 SLP227

CYHM;2008-09-11 21:00;CYHM 112100Z 05006KT 15SM FEW085 BKN240 19/13 A3018 RMK AC1CI4 SLP221

CYHM;2008-09-11 22:00;CYHM 112200Z 03007KT 15SM BKN240 19/12 A3017 RMK CI3 SLP219

CYHM;2008-09-11 23:00;CYHM 112300Z 03005KT 15SM BKN230 18/12 A3016 RMK CI2 SLP216

CYHM;2008-09-12 00:00;CYHM 120000Z 06006KT 15SM FEW160 BKN230 16/13 A3015 RMK AC1CI2 SLP212

CYHM;2008-09-12 01:00;CYHM 120100Z 05004KT 15SM BKN220 16/14 A3014 RMK CI6 CC ASOCTD SLP210

CYHM;2008-09-12 02:00;CYHM 120200Z 05002KT 15SM BKN210 15/14 A3013 RMK CI4 SLP205

CYHM;2008-09-12 03:00;CYHM 120300Z 00000KT 15SM FEW210 14/13 A3012 RMK CI1 SLP199

CYHM;2008-09-12 04:00;CYHM 120400Z 17004KT 15SM FEW220 14/13 A3010 RMK CI2 SLP193

CYHM;2008-09-12 05:00;CYHM 120500Z 18004KT 15SM FEW130 BKN250 13/12 A3008 RMK AC1CI3 SLP187

CYHM;2008-09-12 06:00;CYHM 120600Z 21003KT 15SM FEW140 BKN250 13/12 A3007 RMK AC2CI2 SLP182

CYHM;2008-09-12 07:00;CYHM 120700Z 20002KT 12SM BKN150 BKN250 13/12 A3004 RMK AC5CI1 SLP172

CYHM;2008-09-12 08:00;CYHM 120800Z 19004KT 12SM BKN150 15/14 A3001 RMK AC7 SLP164

CYHM;2008-09-12 09:00;CYHM 120900Z 19007KT 12SM BKN130 18/17 A3000 RMK AC7 SLP157

CYHM;2008-09-12 10:00;CYHM 121000Z 28006KT 10SM BKN056 OVC130 18/17 A3001 RMK SC6AC2 SLP161

CYHM;2008-09-12 10:49;CYHM 121049Z 25003KT 5SM -SHRA BKN030 OVC045 RMK SC6SC2

CYHM;2008-09-12 11:00;CYHM 121100Z 23006KT 2SM -SHRA BR BKN025 BKN055 OVC068 17/16 A2999 RMK SC6SC2AC1 SLP156

CYHM;2008-09-12 11:08;CYHM 121108Z 20006KT 1 1/4SM -SHRA BR BKN010 BKN027 OVC058 RMK FG2SF3SC2SC1

CYHM;2008-09-12 11:31;CYHM 121131Z 20007KT 2SM -SHRA BR BKN011 BKN028 OVC097 RMK FG1SF4SC2AC1

CYHM;2008-09-12 11:52;CYHM 121152Z 20007KT 2 1/2SM BR FEW011 SCT055 BKN071 OVC097 RMK SF2SC2AC3AC1

CYHM;2008-09-12 12:00;CYHM 121200Z 20008KT 2SM BR FEW010 BKN062 BKN070 OVC100 17/17 A2998 RMK SF2SC3AC2AC1 SLP153

CYHM;2008-09-12 13:00;CYHM 121300Z 19008KT 2 1/2SM BR BKN030 OVC045 18/18 A2997 RMK SC6SC2 SLP150

CYHM;2008-09-12 13:15;CYHM 121315Z 21009KT 2 1/2SM BR BKN009 OVC027 RMK SF6SC2

CYHM;2008-09-12 14:00;CYHM 121400Z 22006KT 2 1/2SM BR SCT003 BKN008 OVC030 19/19 A2997 RMK SF3SC3SC2 SLP150

CYHM;2008-09-12 15:00;CYHM 121500Z 22008KT 2 1/2SM BR BKN004 BKN021 OVC037 20/19 A2997 RMK SF5SC2SC1 SLP147

CYHM;2008-09-12 16:00;CYHM 121600Z 24012KT 3SM BR BKN006 BKN010 OVC018 21/20 A2996 RMK SF5SF2SC2 SLP145

CYHM;2008-09-12 17:00;CYHM 121700Z 23008KT 5SM BR BKN007 OVC016 21/20 A2995 RMK SF6SC2 SLP142

CYHM;2008-09-12 18:00;CYHM 121800Z 25008KT 5SM BR BKN009 OVC016 21/20 A2994 RMK SF6SC2 SLP140

CYHM;2008-09-12 19:00;CYHM 121900Z 25010KT 5SM HZ OVC012 22/20 A2992 RMK SC8 SLP133

CYHM;2008-09-12 20:00;CYHM 122000Z 24009KT 4SM -SHRA HZ OVC010 21/19 A2991 RMK SC8 CIG RAG SLP130

CYHM;2008-09-12 21:00;CYHM 122100Z 26005KT 3SM -SHRA BR OVC013 21/20 A2992 RMK SC8 VIS VRB 2 - 4 SLP131

CYHM;2008-09-12 21:13;CYHM 122113Z 27004KT 2 1/2SM -SHRA BR OVC006 RMK SF8

CYHM;2008-09-12 22:00;CYHM 122200Z 24006KT 3SM BR FEW006 BKN016 21/20 A2991 RMK CF2SC5 VIS VRB 2 - 4 SLP129

CYHM;2008-09-12 23:00;CYHM 122300Z 25007KT 3SM BR OVC010 21/19 A2992 RMK SC8 VIS VRB 2 - 4 SLP131

CYHM;2008-09-12 23:30;CYHM 122330Z 23005KT 2SM BR OVC008 RMK FG1SF7

CYHM;2008-09-12 23:48;CYHM 122348Z 24005KT 1 1/2SM +SHRA BR OVC005 RMK FG2SF6 VIS VRB 1 - 2

CYHM;2008-09-13 00:00;CYHM 130000Z 23007KT 2SM -SHRA BR FEW008 OVC034 20/20 A2993 RERA RMK FG1SF2SC6 SLP134

CYHM;2008-09-13 00:14;CYHM 130014Z 24005KT 2SM -SHRA BR SCT003 OVC020 RERA RMK FG1SF3SC4

CYHM;2008-09-13 01:00;CYHM 130100Z 24005KT 2SM BR BKN007 OVC024 21/20 A2994 RMK FG1SF6SC2 SLP138

CYHM;2008-09-13 02:00;CYHM 130200Z 23005KT 1 1/2SM BR FEW002 OVC047 20/19 A2995 RMK FG2SF1SC6 VIS VRB 1 - 2 SLP140

CYHM;2008-09-13 02:32;CYHM 130232Z 24005KT 3/4SM BR BKN045 RMK FG3SC4 VIS VRB 1/2 - 1

CYHM;2008-09-13 02:54;CYHM 130254Z 25004KT 2SM BR BKN060 RMK FG1SC5

CYHM;2008-09-13 03:00;CYHM 130300Z 25004KT 2SM BR SCT060 BKN088 20/19 A2994 RMK FG1SC2AC2 SLP137

CYHM;2008-09-13 04:00;CYHM 130400Z 26004KT 2SM BR SCT070 BKN250 20/19 A2994 RMK FG1AC2CS2 HALO SLP138

CYHM;2008-09-13 04:25;CYHM 130425Z 26002KT 1 1/2SM BR BKN005 BKN085 RMK FG2SF5AC1 VIS VRB 1 - 2 CIG RAG

CYHM;2008-09-13 04:34;CYHM 130434Z 00000KT 1/4SM FG VV004 RMK FG8

CYHM;2008-09-13 05:00;CYHM 130500Z 24002KT 1/4SM FG VV005 20/19 A2994 RMK FG8 SLP138

CYHM;2008-09-13 05:17;CYHM 130517Z 00000KT 1/2SM FG VV005 RMK FG8

CYHM;2008-09-13 06:00;CYHM 130600Z 00000KT 1/4SM FG VV005 20/19 A2994 RMK FG8 SLP135

CYHM;2008-09-13 06:12;CYHM 130612Z 00000KT 0SM FG VV004 RMK FG8

CYHM;2008-09-13 06:30;CYHM 130630Z 00000KT 1/4SM FG VV004 RMK FG8

CYHM;2008-09-13 06:54;CYHM 130654Z 23003KT 0SM FG VV004 RMK FG8

CYHM;2008-09-13 07:00;CYHM 130700Z 24002KT 1/8SM FG VV005 20/19 A2993 RMK FG8 SLP134

CYHM;2008-09-13 07:46;CYHM 130746Z 00000KT 1/4SM FG OVC005 RMK FG5SF3

CYHM;2008-09-13 08:00;CYHM 130800Z 00000KT 1/4SM FG OVC004 19/19 A2993 RMK FG5SF3 SLP133

CYHM;2008-09-13 08:36;CYHM 130836Z 00000KT 1/2SM FG OVC006 RMK FG4SF4

CYHM;2008-09-13 08:49;CYHM 130849Z 00000KT 1SM BR OVC005 RMK FG2SF6 VIS VRB 3/4 - 11/4

CYHM;2008-09-13 09:00;CYHM 130900Z 00000KT 1SM BR BKN003 OVC016 20/19 A2993 RMK FG2SF5SC1 VIS VRB 3/4 - 11/4 SLP134

CYHM;2008-09-13 09:34;CYHM 130934Z 00000KT 1SM BR FEW003 OVC012 RMK FG2SF1SC6 VIS VRB 3/4 - 11/4

CYHM;2008-09-13 10:00;CYHM 131000Z 00000KT 3/4SM BR OVC014 20/19 A2993 RMK FG3SC5 VIS VRB 1/2 - 1 SLP134

CYHM;2008-09-13 10:07;CYHM 131007Z 00000KT 3/8SM FG OVC013 RMK FG6SC2

CYHM;2008-09-13 10:42;CYHM 131042Z 00000KT 1/4SM FG OVC002 RMK FG6SF2

CYHM;2008-09-13 11:00;CYHM 131100Z 00000KT 1/8SM FG VV002 20/19 A2993 RMK FG8 SLP135

CYHM;2008-09-13 11:51;CYHM 131151Z 00000KT 1/8SM FG OVC013 RMK FG7SC1

CYHM;2008-09-13 12:00;CYHM 131200Z 00000KT 1/8SM FG OVC013 20/19 A2994 RMK FG7SC1 SLP138

CYHM;2008-09-13 12:31;CYHM 131231Z 00000KT 1/2SM FG OVC013 RMK FG6SC2

CYHM;2008-09-13 12:42;CYHM 131242Z 00000KT 1 1/4SM BR SCT002 OVC013 RMK FG3SF1SC4

CYHM;2008-09-13 13:00;CYHM 131300Z 26002KT 2SM BR SCT001 OVC017 20/20 A2994 RMK FG1CF3SC4 SLP138

CYHM;2008-09-13 13:34;CYHM 131334Z 25002KT 2SM BR FEW003 BKN013 OVC058 RMK FG1CF2SC5SC1

CYHM;2008-09-13 14:00;CYHM 131400Z 22002KT 2SM BR SCT004 OVC013 21/20 A2994 RMK FG1CF3SC4 SLP138

CYHM;2008-09-13 14:16;CYHM 131416Z 22002KT 3SM BR BKN004 OVC014 RMK CF5SC3

CYHM;2008-09-13 15:00;CYHM 131500Z 20004KT 4SM BR BKN006 OVC014 21/20 A2994 RMK CF6SC2 SLP136

CYHM;2008-09-13 15:48;CYHM 131548Z 21002KT 5SM BR FEW008 BKN013 OVC220 RMK CF2SC4CI2

CYHM;2008-09-13 16:00;CYHM 131600Z 18003KT 6SM HZ SCT008 BKN012 OVC220 22/20 A2991 RMK CF4SC2CI2 SLP125

CYHM;2008-09-13 17:00;CYHM 131700Z 19006KT 7SM BKN011 OVC220 22/19 A2990 RMK SC6CS2 SLP124

CYHM;2008-09-13 17:28;CYHM 131728Z 19006KT 8SM -SHRA BKN013 BKN160 OVC220 RMK SC6AC2CS1

CYHM;2008-09-13 17:54;CYHM 131754Z 18007KT 4SM -SHRA BR BKN009 OVC054 RMK SC6SC2

CYHM;2008-09-13 18:00;CYHM 131800Z 19007KT 4SM -SHRA BR BKN009 OVC054 21/20 A2990 RMK SC6SC2 SLP124

CYHM;2008-09-13 18:05;CYHM 131805Z 19007KT 2 1/2SM -RA BR BKN010 OVC040 RMK FG1SC5SC2

CYHM;2008-09-13 19:00;CYHM 131900Z 19007KT 2 1/2SM -RA BR SCT008 OVC028 21/20 A2987 RMK FG1CF3SC4 SLP114

CYHM;2008-09-13 19:10;CYHM 131910Z 19007KT 2 1/2SM -RA BR BKN006 OVC026 RMK FG1SF4SC3 CIG VRB 4-8

CYHM;2008-09-13 20:00;CYHM 132000Z 19010KT 3SM -RA BR BKN007 OVC018 21/20 A2984 RMK SF5SC3 CIG VRB 5-9 SLP102

CYHM;2008-09-13 21:00;CYHM 132100Z CCA 20009KT 2 1/2SM -RA BR BKN006 OVC015 21/20 A2983 RMK FG1SF5SC2 CIG VRB 4-8 SLP100

CYHM;2008-09-13 21:24;CYHM 132124Z 20010KT 1 1/2SM RA BR BKN006 OVC014 RMK FG2SF4SC2

CYHM;2008-09-13 21:49;CYHM 132149Z 20009KT 1 1/2SM RA BR SCT006 OVC014 RMK FG2SF2SC4

CYHM;2008-09-13 22:00;CYHM 132200Z 19008KT 1 3/4SM RA BR SCT006 BKN015 OVC045 20/19 A2983 RMK FG2SF2SC3SC1 /R10/ SLP100

CYHM;2008-09-13 22:10;CYHM 132210Z 20006KT 2 1/2SM -RA BR SCT005 BKN016 OVC035 RERA RMK FG1SF3SC2SC2

CYHM;2008-09-13 23:00;CYHM 132300Z 17005KT 2 1/2SM -RA BR SCT006 OVC020 20/19 A2981 RERA RMK FG1SF3SC4 SLP094

CYHM;2008-09-13 23:19;CYHM 132319Z 16005KT 2 1/2SM -RA BR BKN005 OVC014 RMK FG1SF4SC3

CYHM;2008-09-13 23:31;CYHM 132331Z 16005KT 2 1/2SM -RA BR BKN004 OVC014 RMK FG1SF5SC2

CYHM;2008-09-14 00:00;CYHM 140000Z CCA 18008KT 4SM -RA BR BKN004 OVC012 20/19 A2979 RMK SF6SC2 /R17/ SLP085

CYHM;2008-09-14 01:00;CYHM 140100Z 18010KT 5SM -RA BR BKN003 OVC010 21/20 A2976 RMK SF6SC2 SLP077

CYHM;2008-09-14 02:00;CYHM 140200Z 19008KT 5SM -SHRA BR OVC004 21/20 A2975 RMK ST8 CIG VRB 3-5 SLP072

CYHM;2008-09-14 02:14;CYHM 140214Z 19013KT 2SM -SHRA BR BKN009 OVC075 RMK FG1SC6AC2

CYHM;2008-09-14 02:34;CYHM 140234Z 20011KT 4SM BR SCT007 OVC073 RMK CF3AC5

CYHM;2008-09-14 03:00;CYHM 140300Z 20014KT 5SM BR BKN007 OVC053 22/21 A2972 RMK CF6SC2 SLP063

CYHM;2008-09-14 03:07;CYHM 140307Z 20013KT 4SM -SHRA BR FEW007 BKN016 OVC040 RMK CF2SC4SC2

CYHM;2008-09-14 04:00;CYHM 140400Z 21015KT 5SM BR BKN010 OVC060 22/21 A2971 RERA RMK SC6SC2 SLP057

CYHM;2008-09-14 05:00;CYHM 140500Z 23017G22KT 7SM -SHRA FEW015 OVC032 23/22 A2970 RMK CF2SC6 SLP056

CYHM;2008-09-14 06:00;CYHM 140600Z 23017KT 5SM -SHRA BR SCT010 OVC050 23/22 A2969 RERA RMK CF3SC5 SLP052

CYHM;2008-09-14 07:00;CYHM 140700Z 21008KT 8SM -SHRA FEW008 BKN059 23/22 A2968 RMK CF2SC6 SLP046

CYHM;2008-09-14 07:38;CYHM 140738Z 21009KT 10SM OVC062 RMK SC8

CYHM;2008-09-14 08:00;CYHM 140800Z 20011KT 7SM BKN060 OVC100 22/21 A2966 RMK SC6AC2 SLP040

CYHM;2008-09-14 08:50;CYHM 140850Z 21009KT 7SM -SHRA OVC045 RMK SC8

CYHM;2008-09-14 09:00;CYHM 140900Z 23009KT 7SM -SHRA FEW036 OVC062 23/21 A2966 RMK CF2SC6 SLP040

CYHM;2008-09-14 10:00;CYHM 141000Z 22008KT 9SM FEW053 OVC067 22/21 A2965 RMK SC1AC7 SLP037

CYHM;2008-09-14 11:00;CYHM 141100Z 22014KT 10SM BKN066 OVC080 23/21 A2965 RMK AC6AC2 SLP039

CYHM;2008-09-14 12:00;CYHM 141200Z 21014KT 15SM OVC058 23/21 A2966 RMK SC8 SLP041

CYHM;2008-09-14 13:00;CYHM 141300Z 21015KT 15SM FEW038 BKN071 23/21 A2966 RMK SC1AC6 SLP040

CYHM;2008-09-14 14:00;CYHM 141400Z 21018KT 15SM FEW031 BKN250 25/21 A2964 RMK SC2CI2 CONTRAILS SLP034

CYHM;2008-09-14 15:00;CYHM 141500Z 21018KT 15SM FEW023 FEW032 SCT250 26/22 A2962 RMK CU2SC1CI1 SC TR SLP028

CYHM;2008-09-14 16:00;CYHM 141600Z 22021G26KT 15SM BKN027 BKN250 27/22 A2961 RMK SC5CI2 CU ASOCTD SLP023

CYHM;2008-09-14 17:00;CYHM 141700Z 22016G22KT 15SM BKN027 26/21 A2959 RMK SC7 SLP018

CYHM;2008-09-14 18:00;CYHM 141800Z 21019G24KT 15SM BKN029 27/22 A2957 RMK SC7 SLP008

CYHM;2008-09-14 19:00;CYHM 141900Z 20018KT 12SM SCT027 BKN035 27/21 A2952 RMK CU3SC3 SLP991

CYHM;2008-09-14 20:00;CYHM 142000Z 20017KT 12SM FEW028 SCT038 BKN220 27/21 A2947 RMK CU2SC2CC2 SLP977

CYHM;2008-09-14 21:00;CYHM 142100Z 17009KT 12SM FEW045 BKN150 BKN220 27/21 A2942 RMK SC2AC2CC2 SLP958

CYHM;2008-09-14 21:18;CYHM 142118Z 15009KT 10SM -SHRA SCT045 BKN130 RMK SC3AC4

CYHM;2008-09-14 22:00;CYHM 142200Z 15008KT 3SM -RA HZ FEW045 BKN075 OVC130 25/21 A2936 RMK SC2AC4AC2 SLP939

CYHM;2008-09-14 22:56;CYHM 142256Z 15009KT 2 1/2SM -RA HZ SCT040 OVC059 RMK HZ1SC3SC4

CYHM;2008-09-14 23:00;CYHM 142300Z 15010KT 2SM -RA HZ BKN035 OVC060 24/21 A2930 RMK HZ1SC4SC3 PRESFR SLP919

CYHM;2008-09-14 23:43;CYHM 142343Z 15007KT 3SM -RA BR BKN035 OVC055 RMK SC5SC3

CYHM;2008-09-15 00:00;CYHM 150000Z 16006KT 5SM -RA HZ SCT035 OVC051 23/21 A2923 RMK SC4SC4 PRESFR SLP896

CYHM;2008-09-15 00:28;CYHM 150028Z 22025G38KT 4SM -RA BR OVC023 RERA RMK SC8

CYHM;2008-09-15 01:00;CYHM 150100Z 22018G27KT 15SM FEW025 BKN080 23/21 A2925 RERA RMK CF2AC6 SLP901

CYHM;2008-09-15 02:00;CYHM 150200Z 23028G43KT 15SM OVC020 22/20 A2925 RMK SC8 SLP902

CYHM;2008-09-15 03:00;CYHM 150300Z 31027G35KT 8SM -SHRA BKN028 19/16 A2933 RMK SC7 WARM FROPA PRESRR SLP927

CYHM;2008-09-15 03:17;CYHM 150317Z 31025G32KT 15SM FEW017 BKN048 RMK CF2SC4 PRESRR

CYHM;2008-09-15 04:00;CYHM 150400Z 26018KT 15SM BKN022 18/15 A2949 RMK SC7 PRESRR SLP980

CYHM;2008-09-15 05:00;CYHM 150500Z 28013G18KT 15SM OVC022 18/14 A2958 RMK SC8 PRESRR SLP012

CYHM;2008-09-15 06:00;CYHM 150600Z 26017KT 15SM FEW016 OVC031 17/14 A2964 RMK CF2SC6 SLP033

CYHM;2008-09-15 07:00;CYHM 150700Z 28008KT 15SM -SHRA BKN009 OVC035 16/15 A2968 RMK CF5SC3 CIG RAG SLP046

CYHM;2008-09-15 07:35;CYHM 150735Z 29009KT 15SM FEW010 OVC052 RMK CF2SC6

CYHM;2008-09-15 08:00;CYHM 150800Z 27007KT 15SM FEW015 BKN110 16/14 A2970 RMK CF2AC6 SLP054

CYHM;2008-09-15 09:00;CYHM 150900Z 27008KT 15SM FEW020 FEW070 BKN120 15/13 A2973 RMK CF1AC2AC5 SLP064

CYHM;2008-09-15 09:53;CYHM 150953Z 26009KT 15SM -SHRA FEW020 BKN070 RMK CF1AC6

CYHM;2008-09-15 10:00;CYHM 151000Z 28007KT 15SM -SHRA FEW017 FEW066 BKN100 15/13 A2976 RMK CF1AC2AC5 SLP075

CYHM;2008-09-15 11:00;CYHM 151100Z 33007KT 7SM -SHRA BKN011 BKN056 OVC082 14/13 A2980 RMK SF5SC2AC1 SLP088

CYHM;2008-09-15 12:00;CYHM 151200Z 29008KT 10SM -SHRA FEW012 BKN063 BKN085 13/12 A2984 RMK SC2SC4AC1 SLP104

CYHM;2008-09-15 12:12;CYHM 151212Z 30006KT 15SM FEW025 FEW064 BKN090 RMK SC1SC2AC2 RERA

CYHM;2008-09-15 13:00;CYHM 151300Z 29013KT 15SM FEW015 SCT056 BKN078 14/12 A2988 RMK CU2SC2AC2 SLP116

CYHM;2008-09-15 14:00;CYHM 151400Z 31010KT 15SM FEW018 BKN026 BKN080 15/11 A2990 RMK CU2SC3AC1 SLP124

CYHM;2008-09-15 15:00;CYHM 151500Z 29012KT 15SM FEW018 BKN027 BKN080 15/11 A2994 RMK CU2SC3AC1 SLP138

CYHM;2008-09-15 16:00;CYHM 151600Z 27010KT 15SM BKN026 BKN075 16/11 A2997 RMK SC6AC1 TR CU ASOCTD SLP147

CYHM;2008-09-15 17:00;CYHM 151700Z 32010KT 15SM BKN028 BKN045 16/11 A2998 RMK SC6SC2 TR CU ASOCTD SLP153

CYHM;2008-09-15 18:00;CYHM 151800Z 31008KT 15SM BKN027 16/11 A3001 RMK SC7 TR CU ASOCTD SLP161

CYHM;2008-09-15 19:00;CYHM 151900Z 28011KT 15SM BKN028 16/11 A3002 RMK SC6 SLP165

CYHM;2008-09-15 20:00;CYHM 152000Z 32012KT 15SM BKN033 17/10 A3002 RMK SC6 SLP167

CYHM;2008-09-15 21:00;CYHM 152100Z 31010KT 15SM BKN043 17/11 A3003 RMK SC6 CU ASOCTD SLP171

CYHM;2008-09-15 22:00;CYHM 152200Z 32009KT 15SM BKN042 15/10 A3004 RMK SC5 SLP174

CYHM;2008-09-15 23:00;CYHM 152300Z 33007KT 15SM SCT046 14/09 A3007 RMK SC3 SLP182

CYHM;2008-09-16 00:00;CYHM 160000Z 32003KT 15SM FEW044 13/09 A3008 RMK SC2 SLP190

CYHM;2008-09-16 01:00;CYHM 160100Z 31003KT 15SM FEW040 11/08 A3011 RMK SC1 SLP198

CYHM;2008-09-16 02:00;CYHM 160200Z 00000KT 15SM FEW040 10/08 A3013 RMK SC1 SLP205

CYHM;2008-09-16 03:00;CYHM 160300Z 00000KT 15SM FEW040 09/08 A3015 RMK SC1 SLP212

CYHM;2008-09-16 04:00;CYHM 160400Z 32005KT 15SM FEW038 10/07 A3015 RMK SC1 SLP214

CYHM;2008-09-16 05:00;CYHM 160500Z 31002KT 15SM FEW036 08/07 A3016 RMK SC1 SLP215

CYHM;2008-09-16 06:00;CYHM 160600Z 00000KT 15SM FEW038 08/07 A3016 RMK SC1 SC TR SLP215

CYHM;2008-09-16 07:00;CYHM 160700Z 00000KT 15SM FEW036 08/06 A3016 RMK SC1 SC TR SLP216

CYHM;2008-09-16 08:00;CYHM 160800Z 30003KT 15SM SKC 06/05 A3015 RMK SLP214

CYHM;2008-09-16 09:00;CYHM 160900Z 28002KT 15SM FEW034 07/06 A3016 RMK SC1 SC TR SLP216

CYHM;2008-09-16 10:00;CYHM 161000Z 28004KT 15SM FEW034 06/05 A3017 RMK SC1 SC TR SLP218

CYHM;2008-09-16 11:00;CYHM 161100Z 27002KT 15SM FEW020 FEW045 06/05 A3017 RMK CU1SC2 CU TR SLP221

CYHM;2008-09-16 12:00;CYHM 161200Z 26002KT 15SM FEW032 SCT097 07/06 A3020 RMK SC1AC2 TR CU ASOCTD SLP229

CYHM;2008-09-16 13:00;CYHM 161300Z 29005KT 15SM FEW032 FEW090 10/08 A3020 RMK SC1AC1 SLP231

CYHM;2008-09-16 14:00;CYHM 161400Z 28007KT 15SM FEW040 FEW090 12/08 A3021 RMK SC1AC1 SC TR AC TR SLP235

CYHM;2008-09-16 15:00;CYHM 161500Z 00000KT 15SM FEW120 FEW240 14/08 A3022 RMK AC1CI1 AC TR CI TR SLP236

CYHM;2008-09-16 16:00;CYHM 161600Z 33004KT 15SM FEW030 15/08 A3022 RMK CU2 SLP236

CYHM;2008-09-16 17:00;CYHM 161700Z 28008KT 15SM BKN035 BKN048 16/08 A3021 RMK CU5SC2 SLP235

CYHM;2008-09-16 18:00;CYHM 161800Z 27006KT 15SM SCT035 BKN053 16/09 A3020 RMK CU3SC3 SLP230

CYHM;2008-09-16 19:00;CYHM 161900Z 26003KT 15SM FEW034 BKN058 17/09 A3019 RMK CF1SC6 CUFRA TR SLP225

CYHM;2008-09-16 20:00;CYHM 162000Z 00000KT 15SM BKN054 17/09 A3017 RMK SC5 CU ASOCTD SLP218

CYHM;2008-09-16 21:00;CYHM 162100Z 19004KT 15SM BKN044 17/10 A3016 RMK SC6 CUFRA ASOCTD SLP217

CYHM;2008-09-16 22:00;CYHM 162200Z 20005KT 15SM SCT044 16/11 A3016 RMK SC3 SLP215

CYHM;2008-09-16 23:00;CYHM 162300Z 20006KT 15SM FEW044 16/10 A3016 RMK SC2 CU ASOCTD SLP216

CYHM;2008-09-17 00:00;CYHM 170000Z 19006KT 15SM SKC 14/10 A3016 RMK SLP218

CYHM;2008-09-17 01:00;CYHM 170100Z 21004KT 15SM SKC 12/09 A3017 RMK SLP221

CYHM;2008-09-17 02:00;CYHM 170200Z 21003KT 15SM SKC 11/09 A3018 RMK SLP224

CYHM;2008-09-17 03:00;CYHM 170300Z 23003KT 15SM SKC 11/09 A3018 RMK SLP224

CYHM;2008-09-17 04:00;CYHM 170400Z 23005KT 15SM SKC 10/09 A3018 RMK SLP224

CYHM;2008-09-17 05:00;CYHM 170500Z 28004KT 15SM SKC 11/09 A3018 RMK SLP224

CYHM;2008-09-17 06:00;CYHM 170600Z 23003KT 15SM SKC 10/08 A3017 RMK SLP220

CYHM;2008-09-17 07:00;CYHM 170700Z 22003KT 15SM SKC 09/08 A3016 RMK SLP217

CYHM;2008-09-17 08:00;CYHM 170800Z 20002KT 15SM SKC 09/08 A3017 RMK SLP218

CYHM;2008-09-17 09:00;CYHM 170900Z 23004KT 15SM SKC 08/08 A3016 RMK SLP217

CYHM;2008-09-17 10:00;CYHM 171000Z 23005KT 15SM SKC 08/07 A3016 RMK SLP215

CYHM;2008-09-17 11:00;CYHM 171100Z 21004KT 15SM FEW025 FEW240 08/07 A3015 RMK CU1CI1 SLP213

CYHM;2008-09-17 12:00;CYHM 171200Z 21002KT 15SM FEW025 10/08 A3016 RMK CU1 SLP216

CYHM;2008-09-17 13:00;CYHM 171300Z 21006KT 15SM FEW025 13/10 A3016 RMK CU1 SLP215

CYHM;2008-09-17 14:00;CYHM 171400Z 23009KT 15SM FEW025 17/12 A3015 RMK CU1 CU TR SLP214

CYHM;2008-09-17 15:00;CYHM 171500Z 23013G19KT 15SM FEW030 19/12 A3015 RMK CU1 CU TR SLP212

CYHM;2008-09-17 16:00;CYHM 171600Z 22015KT 15SM FEW030 21/13 A3014 RMK CU1 SLP208

CYHM;2008-09-17 17:00;CYHM 171700Z 25010KT 15SM FEW034 22/13 A3013 RMK CU2 TR SC ASOCTD SLP203

CYHM;2008-09-17 18:00;CYHM 171800Z 22014G19KT 15SM FEW041 22/14 A3012 RMK CU2 SLP199

CYHM;2008-09-17 19:00;CYHM 171900Z 23013KT 15SM SCT045 23/14 A3010 RMK CU4 SLP193

CYHM;2008-09-17 20:00;CYHM 172000Z 22012KT 15SM SCT040 BKN080 22/15 A3009 RMK SC3AC2 CU ASOCTD SLP191

CYHM;2008-09-17 21:00;CYHM 172100Z 22010KT 15SM BKN044 22/15 A3009 RMK SC6 CU ASOCTD SLP192

CYHM;2008-09-17 22:00;CYHM 172200Z 29004KT 15SM BKN038 BKN075 21/15 A3011 RMK SC6AC2 TCU ASOCTD SLP198

CYHM;2008-09-17 23:00;CYHM 172300Z 31003KT 15SM BKN038 19/15 A3012 RMK SC6 TCU ASOCTD SLP201

CYHM;2008-09-18 00:00;CYHM 180000Z 31005KT 15SM FEW062 BKN070 19/14 A3013 RMK SC2AC5 SLP206

CYHM;2008-09-18 01:00;CYHM 180100Z 32006KT 15SM FEW050 FEW070 16/12 A3016 RMK SC2AC1 SLP214

CYHM;2008-09-18 02:00;CYHM 180200Z 33010KT 15SM FEW070 16/10 A3018 RMK AC1 SLP221

CYHM;2008-09-18 03:00;CYHM 180300Z 33008KT 15SM FEW210 14/10 A3019 RMK CI1 SLP225

CYHM;2008-09-18 04:00;CYHM 180400Z 33007KT 15SM FEW210 13/10 A3020 RMK CI1 SLP228

CYHM;2008-09-18 05:00;CYHM 180500Z 35007KT 15SM SKC 13/10 A3021 RMK SLP231

CYHM;2008-09-18 06:00;CYHM 180600Z 34009KT 15SM SKC 12/10 A3022 RMK SLP233

CYHM;2008-09-18 07:00;CYHM 180700Z 35007KT 15SM SKC 11/09 A3023 RMK SLP236

CYHM;2008-09-18 08:00;CYHM 180800Z 35006KT 15SM SKC 11/09 A3023 RMK SLP238

CYHM;2008-09-18 09:00;CYHM 180900Z 36006KT 15SM FEW030 FEW220 10/08 A3024 RMK SC1CI1 TR CI SLP243

CYHM;2008-09-18 10:00;CYHM 181000Z 36005KT 15SM FEW030TCU FEW100 09/08 A3026 RMK TCU1AC1 SLP249

CYHM;2008-09-18 11:00;CYHM 181100Z 01002KT 15SM FEW030 FEW120 10/08 A3028 RMK CU1AC1 TCU ASOCTD AC TR SLP254

CYHM;2008-09-18 12:00;CYHM 181200Z 01003KT 15SM FEW030 FEW120 10/09 A3030 RMK CU1AC1 CU TR AC TR SLP262

CYHM;2008-09-18 13:00;CYHM 181300Z 02002KT 15SM FEW030 14/11 A3033 RMK CU1 CU TR SLP271

CYHM;2008-09-18 14:00;CYHM 181400Z 04002KT 15SM FEW030 16/12 A3034 RMK CU1 CU TR SLP277

CYHM;2008-09-18 15:00;CYHM 181500Z 06006KT 15SM BKN021 BKN041 17/12 A3036 RMK CU5SC2 SLP284

CYHM;2008-09-18 16:00;CYHM 181600Z 04010KT 15SM SCT019 BKN051 16/12 A3037 RMK CU3SC3 SLP287

CYHM;2008-09-18 17:00;CYHM 181700Z 06013KT 15SM SCT016 BKN045 17/12 A3038 RMK CU3SC2 SLP288

CYHM;2008-09-18 18:00;CYHM 181800Z 06011KT 15SM FEW018 SCT045 17/12 A3037 RMK CU2SC1 SLP288

CYHM;2008-09-18 19:00;CYHM 181900Z 07009KT 15SM FEW022 17/13 A3036 RMK CU2 SLP284

CYHM;2008-09-18 20:00;CYHM 182000Z 05008KT 15SM FEW028 17/11 A3036 RMK CU1 SLP282

CYHM;2008-09-18 21:00;CYHM 182100Z 05008KT 15SM FEW028 17/11 A3036 RMK CU1 SLP283

CYHM;2008-09-18 22:00;CYHM 182200Z 07007KT 15SM FEW025 16/10 A3036 RMK CU1 SLP283

CYHM;2008-09-18 23:00;CYHM 182300Z 07005KT 15SM FEW025 15/10 A3037 RMK CU1 SLP286

CYHM;2008-09-19 00:00;CYHM 190000Z 07006KT 15SM FEW025 12/07 A3037 RMK SC1 SLP287

CYHM;2008-09-19 01:00;CYHM 190100Z 06005KT 15SM SKC 12/09 A3038 RMK SLP291

CYHM;2008-09-19 02:00;CYHM 190200Z 09006KT 15SM SKC 11/08 A3039 RMK SLP293

CYHM;2008-09-19 03:00;CYHM 190300Z 09004KT 15SM BKN045 11/08 A3039 RMK SC6 SLP294

CYHM;2008-09-19 04:00;CYHM 190400Z 09005KT 15SM FEW045 10/07 A3039 RMK SC1 SLP293

CYHM;2008-09-19 05:00;CYHM 190500Z 10006KT 15SM FEW045 09/07 A3038 RMK SC1 SLP291

CYHM;2008-09-19 06:00;CYHM 190600Z 09005KT 15SM SKC 10/07 A3039 RMK SLP292

CYHM;2008-09-19 07:00;CYHM 190700Z 09004KT 15SM SKC 09/06 A3039 RMK SLP292

CYHM;2008-09-19 08:00;CYHM 190800Z 09003KT 15SM SKC 09/06 A3039 RMK SLP293

CYHM;2008-09-19 09:00;CYHM 190900Z 10004KT 15SM SKC 09/06 A3039 RMK SLP295

CYHM;2008-09-19 10:00;CYHM 191000Z 07002KT 15SM FEW250 08/06 A3039 RMK CI0 SLP295

CYHM;2008-09-19 11:00;CYHM 191100Z 10004KT 15SM FEW240 08/06 A3040 RMK CI0 CI TR SLP298

CYHM;2008-09-19 12:00;CYHM 191200Z 08003KT 15SM FEW025 FEW240 09/07 A3040 RMK CU1CI1 CU TR CONTRAIL SLP298

CYHM;2008-09-19 13:00;CYHM 191300Z 08004KT 15SM FEW025 SCT240 13/10 A3039 RMK CU1CI2 CU TR CONTRAIL SLP297

CYHM;2008-09-19 14:00;CYHM 191400Z 07003KT 15SM BKN240 15/11 A3039 RMK CI3 CONTRAIL SLP296

CYHM;2008-09-19 15:00;CYHM 191500Z 11003KT 15SM FEW030 BKN240 16/11 A3039 RMK CU1CI2 SLP292

CYHM;2008-09-19 16:00;CYHM 191600Z 20002KT 15SM FEW032 BKN240 18/10 A3037 RMK CU1CI3 SLP287

CYHM;2008-09-19 17:00;CYHM 191700Z 24005KT 15SM FEW032 BKN240 18/09 A3035 RMK CU1CI3 CU TR SLP281

CYHM;2008-09-19 18:00;CYHM 191800Z 00000KT 15SM BKN230 20/09 A3033 RMK CI4 SLP272

CYHM;2008-09-19 19:00;CYHM 191900Z 14003KT 15SM FEW150 BKN220 20/10 A3030 RMK AC1CI4 CONTRAILS SLP262

CYHM;2008-09-19 20:00;CYHM 192000Z 16005KT 15SM BKN240 20/12 A3029 RMK CI5 SLP258

CYHM;2008-09-19 21:00;CYHM 192100Z 18005KT 15SM BKN240 19/13 A3027 RMK CI5 SLP254

CYHM;2008-09-19 22:00;CYHM 192200Z 00000KT 15SM BKN240 18/13 A3026 RMK CI5 SLP250

CYHM;2008-09-19 23:00;CYHM 192300Z 06004KT 15SM BKN240 16/12 A3026 RMK CI6 CONTRAILS SLP251

CYHM;2008-09-20 00:00;CYHM 200000Z 06003KT 15SM BKN240 15/12 A3026 RMK CI6 CONTRAILS SLP251

CYHM;2008-09-20 01:00;CYHM 200100Z 06002KT 15SM FEW210 14/11 A3026 RMK CI2 SLP251

CYHM;2008-09-20 02:00;CYHM 200200Z 00000KT 15SM SCT210 13/11 A3025 RMK CI2 SLP248

CYHM;2008-09-20 03:00;CYHM 200300Z 00000KT 15SM SCT210 13/11 A3024 RMK CI2 SLP241

CYHM;2008-09-20 04:00;CYHM 200400Z 00000KT 15SM BKN210 14/11 A3023 RMK CS3 HALO SLP239

CYHM;2008-09-20 05:00;CYHM 200500Z 17004KT 15SM BKN210 13/11 A3022 RMK CS3 HALO SLP236

CYHM;2008-09-20 06:00;CYHM 200600Z 19008KT 15SM BKN210 14/12 A3021 RMK CS4 HALO SLP232

CYHM;2008-09-20 07:00;CYHM 200700Z 21007KT 15SM BKN210 12/11 A3020 RMK CS4 HALO SLP229

CYHM;2008-09-20 08:00;CYHM 200800Z 21005KT 15SM FEW120 BKN200 12/11 A3020 RMK AC1CS4 HALO SLP227

CYHM;2008-09-20 09:00;CYHM 200900Z 21005KT 15SM BKN230 12/12 A3020 RMK CS6 HALO SLP229

CYHM;2008-09-20 10:00;CYHM 201000Z 21006KT 15SM BKN230 13/12 A3020 RMK CS5 HALO CONTRAILS SLP229

CYHM;2008-09-20 11:00;CYHM 201100Z 22002KT 8SM MIFG BKN250 13/13 A3021 RMK CI4 SLP232

CYHM;2008-09-20 11:16;CYHM 201116Z 21002KT 2SM BR BKN250 RMK FG1CI3 VIS NE 1

CYHM;2008-09-20 11:47;CYHM 201147Z 21003KT 5SM BR BKN250 RMK CI5

CYHM;2008-09-20 12:00;CYHM 201200Z 21003KT 5SM BR BKN250 12/12 A3022 RMK CI5 CONTRAILS SLP236

CYHM;2008-09-20 13:00;CYHM 201300Z 21003KT 6SM BR BKN250 15/14 A3022 RMK CI6 SLP235

CYHM;2008-09-20 14:00;CYHM 201400Z 20007KT 8SM BKN250 17/16 A3021 RMK CI5 SLP234

CYHM;2008-09-20 15:00;CYHM 201500Z 22010KT 10SM BKN250 20/16 A3021 RMK CI5 SLP230

CYHM;2008-09-20 16:00;CYHM 201600Z 22009KT 15SM BKN250 23/16 A3020 RMK CI6 SLP228

CYHM;2008-09-20 17:00;CYHM 201700Z 25008KT 180V280 15SM FEW035 BKN250 23/15 A3019 RMK CU1CI4 CU TR SLP224

CYHM;2008-09-20 18:00;CYHM 201800Z 22011KT 15SM FEW035 BKN250 24/15 A3017 RMK CU1CI3 CU TR SLP215

CYHM;2008-09-20 19:00;CYHM 201900Z 23010KT 15SM FEW035 BKN240 24/15 A3015 RMK CU1CI3 CU TR SLP210

CYHM;2008-09-20 20:00;CYHM 202000Z 20010KT 15SM FEW035 BKN240 24/16 A3014 RMK CU1CI2 CU TR SLP205

CYHM;2008-09-20 21:00;CYHM 202100Z 22011KT 15SM FEW035 BKN240 24/16 A3013 RMK SC1CI2 SC TR SLP204

CYHM;2008-09-20 22:00;CYHM 202200Z 21006KT 15SM BKN240 23/15 A3013 RMK CI2 SLP204

CYHM;2008-09-20 23:00;CYHM 202300Z 20005KT 15SM FEW180 BKN250 20/14 A3014 RMK AC1CI2 AC TR SLP205

CYHM;2008-09-21 00:00;CYHM 210000Z 20005KT 15SM FEW060 FEW170 FEW250 17/13 A3015 RMK SC1AC1CI1 SC TR SLP213

CYHM;2008-09-21 01:00;CYHM 210100Z 22003KT 15SM FEW250 17/14 A3017 RMK CI1 CI TR SLP217

CYHM;2008-09-21 02:00;CYHM 210200Z 22004KT 15SM FEW220 15/13 A3017 RMK CI1 CI TR SLP219

CYHM;2008-09-21 03:00;CYHM 210300Z 23003KT 15SM FEW210 15/13 A3017 RMK CI1 SLP218

CYHM;2008-09-21 04:00;CYHM 210400Z 23003KT 15SM SKC 15/13 A3017 RMK SLP218

CYHM;2008-09-21 05:00;CYHM 210500Z 26005KT 15SM FEW210 16/14 A3018 RMK CI1 SLP220

CYHM;2008-09-21 06:00;CYHM 210600Z 26005KT 15SM FEW052 FEW210 16/14 A3019 RMK SC1CI1 SLP221

CYHM;2008-09-21 07:00;CYHM 210700Z 00000KT 8SM MIFG FEW053 14/13 A3019 RMK SC2 SLP222

CYHM;2008-09-21 08:00;CYHM 210800Z 00000KT 5SM BR BKN062 13/13 A3020 RMK SC6 SLP226

CYHM;2008-09-21 08:42;CYHM 210842Z 03007KT 4SM BR SCT005 BKN050 RMK SF3SC4

CYHM;2008-09-21 09:00;CYHM 210900Z 03006KT 3SM BR BKN005 16/15 A3021 RMK SF7 VIS VRB 2 - 4 SLP230

CYHM;2008-09-21 10:00;CYHM 211000Z 01007KT 3SM BR BKN005 16/15 A3023 RMK SF7 VIS VRB 2 - 4 SLP235

CYHM;2008-09-21 11:00;CYHM 211100Z 00000KT 3SM BR OVC007 16/15 A3025 RMK SF8 VIS VRB 2 - 4 SLP241

CYHM;2008-09-21 12:00;CYHM 211200Z 01003KT 4SM BR OVC006 16/15 A3027 RMK SF8 CIG RAG SLP251

CYHM;2008-09-21 13:00;CYHM 211300Z 03006KT 5SM BR OVC007 16/15 A3028 RMK SF8 SLP255

CYHM;2008-09-21 13:50;CYHM 211350Z 04007KT 7SM SCT009 BKN015 RMK CF3SC4

CYHM;2008-09-21 14:00;CYHM 211400Z 02005KT 10SM FEW008 BKN014 BKN037 16/14 A3030 RMK CF2SC5SC1 SLP262

CYHM;2008-09-21 14:14;CYHM 211414Z 03006KT 8SM BKN009 OVC015 RMK SF5SC3

CYHM;2008-09-21 14:44;CYHM 211444Z 03006KT 7SM SCT009 BKN015 BKN035 RMK SF4SC2SC2 HZ

CYHM;2008-09-21 15:00;CYHM 211500Z 05006KT 7SM SCT009 BKN016 BKN037 17/14 A3031 RMK CF3SC2SC2 HZ SLP266

CYHM;2008-09-21 16:00;CYHM 211600Z 04005KT 360V090 9SM FEW009 BKN014 BKN035 17/14 A3032 RMK CF2SC4SC2 SLP267

CYHM;2008-09-21 17:00;CYHM 211700Z 06006KT 10SM SCT013 BKN020 OVC028 17/13 A3033 RMK SC3SC4SC1 SLP272

CYHM;2008-09-21 18:00;CYHM 211800Z 06010KT 10SM FEW014 BKN021 BKN034 17/13 A3033 RMK CU2SC4SC1 SLP271

CYHM;2008-09-21 19:00;CYHM 211900Z 06010KT 030V090 12SM SCT013 BKN019 BKN030 17/13 A3032 RMK SC3SC2SC1 SLP267

CYHM;2008-09-21 20:00;CYHM 212000Z 05010KT 15SM BKN016 BKN028 16/13 A3032 RMK SC5SC1 SLP268

CYHM;2008-09-21 21:00;CYHM 212100Z 06009KT 15SM SCT016 BKN220 16/12 A3032 RMK SC4CI0 SLP269

CYHM;2008-09-21 22:00;CYHM 212200Z 07007KT 15SM FEW016 FEW200 15/11 A3033 RMK SC1CI1 CU ASOCTD SLP272

CYHM;2008-09-21 23:00;CYHM 212300Z 07006KT 15SM FEW016 FEW200 14/11 A3034 RMK SC1CI1 SC TR SLP275

CYHM;2008-09-22 00:00;CYHM 220000Z 08002KT 15SM FEW200 12/11 A3035 RMK CI1 SLP280

CYHM;2008-09-22 01:00;CYHM 220100Z 00000KT 15SM FEW015 FEW200 12/11 A3037 RMK CF1CI1 CF TR SLP286

CYHM;2008-09-22 02:00;CYHM 220200Z 08002KT 15SM FEW015 FEW200 12/10 A3038 RMK CF1CI1 CF TR SLP291

CYHM;2008-09-22 03:00;CYHM 220300Z 07004KT 15SM FEW015 FEW210 11/09 A3039 RMK CF1CI0 CF TR SLP293

CYHM;2008-09-22 04:00;CYHM 220400Z 05002KT 15SM FEW210 11/10 A3039 RMK CI0 SLP294

CYHM;2008-09-22 05:00;CYHM 220500Z 05002KT 15SM SKC 10/09 A3039 RMK SLP295

CYHM;2008-09-22 06:00;CYHM 220600Z 03003KT 15SM SKC 10/09 A3039 RMK SLP294

CYHM;2008-09-22 07:00;CYHM 220700Z 06004KT 15SM FEW015 09/08 A3040 RMK CF1 SLP296

CYHM;2008-09-22 08:00;CYHM 220800Z 04004KT 15SM FEW015 10/09 A3040 RMK CF1 SLP297

CYHM;2008-09-22 09:00;CYHM 220900Z 06004KT 15SM FEW015 10/08 A3042 RMK CF1 SLP303

CYHM;2008-09-22 10:00;CYHM 221000Z 07004KT 15SM FEW015 FEW250 09/08 A3043 RMK CF1CI0 CF TR SLP307

CYHM;2008-09-22 11:00;CYHM 221100Z 06004KT 15SM FEW020 FEW250 09/07 A3045 RMK SC1CI0 SLP313

CYHM;2008-09-22 12:00;CYHM 221200Z 03005KT 15SM FEW023 BKN250 10/08 A3046 RMK SC2CI1 CONTRAIL SLP319

CYHM;2008-09-22 13:00;CYHM 221300Z CCA 08005KT 15SM FEW025 FEW050 FEW250 13/10 A3047 RMK CU1SC1CI1 CU TR SLP323

CYHM;2008-09-22 14:00;CYHM 221400Z 09009KT 15SM FEW025 SCT090 BKN250 14/10 A3047 RMK SC2AC1CI1 CU ASOCTD SLP321

CYHM;2008-09-22 15:00;CYHM 221500Z 10008KT 15SM SCT025 15/10 A3047 RMK SC4 SLP321

CYHM;2008-09-22 16:00;CYHM 221600Z 08009KT 15SM FEW025 16/10 A3046 RMK SC2 SLP319

CYHM;2008-09-22 17:00;CYHM 221700Z CCA 05013KT 15SM FEW030 FEW250 16/09 A3047 RMK SC1CI0 SLP320

CYHM;2008-09-22 18:00;CYHM 221800Z 06012KT 15SM FEW030 FEW250 17/10 A3047 RMK CU1CI0 SLP320

CYHM;2008-09-22 19:00;CYHM 221900Z 04011KT 15SM FEW030 FEW220 16/09 A3046 RMK CF1CI1 CF TR CI TR SLP319

CYHM;2008-09-22 20:00;CYHM 222000Z 05012KT 15SM FEW220 17/10 A3046 RMK CI1 CI TR SLP319

CYHM;2008-09-22 21:00;CYHM 222100Z 05011KT 15SM SKC 16/09 A3046 RMK SLP320

CYHM;2008-09-22 22:00;CYHM 222200Z 06009KT 15SM SKC 15/08 A3047 RMK SLP321

CYHM;2008-09-22 23:00;CYHM 222300Z 07005KT 15SM SKC 13/08 A3047 RMK SLP322

CYHM;2008-09-23 00:00;CYHM 230000Z 06002KT 15SM FEW200 11/07 A3046 RMK CI1 CI TR SLP321

CYHM;2008-09-23 01:00;CYHM 230100Z 02002KT 15SM SKC 11/06 A3048 RMK SLP326

CYHM;2008-09-23 02:00;CYHM 230200Z 04003KT 15SM SKC 12/03 A3048 RMK SLP327

CYHM;2008-09-23 03:00;CYHM 230300Z 03004KT 15SM SKC 11/03 A3049 RMK SLP327

CYHM;2008-09-23 04:00;CYHM 230400Z 04005KT 15SM SKC 11/03 A3048 RMK SLP325

CYHM;2008-09-23 05:00;CYHM 230500Z 04004KT 15SM SKC 11/04 A3048 RMK SLP325

CYHM;2008-09-23 06:00;CYHM 230600Z 04005KT 15SM SKC 11/05 A3048 RMK SLP324

CYHM;2008-09-23 07:00;CYHM 230700Z 04004KT 15SM SKC 11/05 A3048 RMK SLP325

CYHM;2008-09-23 08:00;CYHM 230800Z 06004KT 15SM SKC 10/04 A3048 RMK SLP324

CYHM;2008-09-23 09:00;CYHM 230900Z 05005KT 15SM SKC 09/04 A3049 RMK SLP328

CYHM;2008-09-23 10:00;CYHM 231000Z 04006KT 15SM SKC 10/04 A3049 RMK SLP330

CYHM;2008-09-23 11:00;CYHM 231100Z 04007KT 15SM SKC 10/05 A3050 RMK SLP333

CYHM;2008-09-23 12:00;CYHM 231200Z 05009KT 15SM SKC 11/06 A3051 RMK SLP335

CYHM;2008-09-23 13:00;CYHM 231300Z 03006KT 15SM FEW240 13/07 A3051 RMK CI1 SLP337

CYHM;2008-09-23 14:00;CYHM 231400Z 06006KT 15SM FEW240 16/07 A3053 RMK CI0 SLP342

CYHM;2008-09-23 15:00;CYHM 231500Z 07008KT 15SM FEW240 17/06 A3053 RMK CI1 SLP340

CYHM;2008-09-23 16:00;CYHM 231600Z 06008KT 15SM FEW240 18/08 A3052 RMK CI0 SLP338

CYHM;2008-09-23 17:00;CYHM 231700Z 03007KT 15SM FEW240 18/09 A3050 RMK CI0 SLP332

CYHM;2008-09-23 18:00;CYHM 231800Z 03008KT 15SM FEW240 19/10 A3049 RMK CI1 CI TR SLP328

CYHM;2008-09-23 19:00;CYHM 231900Z 04006KT 010V070 15SM FEW220 19/10 A3048 RMK CI1 CI TR SLP324

CYHM;2008-09-23 20:00;CYHM 232000Z 04007KT 15SM FEW220 19/11 A3046 RMK CI1 CI TR SLP317

CYHM;2008-09-23 21:00;CYHM 232100Z 05006KT 15SM FEW220 18/11 A3045 RMK CI1 CI TR SLP313

CYHM;2008-09-23 22:00;CYHM 232200Z 04007KT 15SM FEW200 17/11 A3045 RMK CI1 SLP314

CYHM;2008-09-23 23:00;CYHM 232300Z 04006KT 15SM FEW210 15/11 A3044 RMK CI1 SLP311

CYHM;2008-09-24 00:00;CYHM 240000Z 04006KT 15SM FEW210 14/11 A3044 RMK CI1 SLP310

CYHM;2008-09-24 01:00;CYHM 240100Z 04006KT 15SM SKC 14/12 A3044 RMK SLP311

CYHM;2008-09-24 02:00;CYHM 240200Z 04006KT 15SM SKC 14/12 A3044 RMK SLP311

CYHM;2008-09-24 03:00;CYHM 240300Z 05006KT 15SM FEW200 13/12 A3043 RMK CI1 SLP306

CYHM;2008-09-24 04:00;CYHM 240400Z 04005KT 15SM SKC 13/11 A3042 RMK SLP304

CYHM;2008-09-24 05:00;CYHM 240500Z 03005KT 15SM SKC 13/12 A3042 RMK SLP303

CYHM;2008-09-24 06:00;CYHM 240600Z 04005KT 15SM SKC 13/12 A3043 RMK SLP305

CYHM;2008-09-24 07:00;CYHM 240700Z 04006KT 15SM SKC 13/12 A3042 RMK SLP303

CYHM;2008-09-24 08:00;CYHM 240800Z 05005KT 15SM MIFG SKC 12/11 A3042 RMK SLP301

CYHM;2008-09-24 09:00;CYHM 240900Z 04004KT 10SM MIFG SKC 12/12 A3041 RMK SLP301

CYHM;2008-09-24 09:40;CYHM 240940Z 05004KT 1SM BR SKC RMK FG2 VIS VRB 3/4 - 11/4

CYHM;2008-09-24 10:00;CYHM 241000Z 05003KT 1 1/2SM BR SKC 10/10 A3041 RMK FG2 VIS VRB 1 - 2 SLP301

CYHM;2008-09-24 10:17;CYHM 241017Z 06003KT 3/4SM BR SKC RMK FG2

CYHM;2008-09-24 10:25;CYHM 241025Z 05003KT 1/8SM FG SKC RMK FG3 VIS SE-S 3/4SM

CYHM;2008-09-24 10:40;CYHM 241040Z 04004KT 1SM BR SKC RMK FG2 VISVRB 3/4-11/4SM

CYHM;2008-09-24 10:47;CYHM 241047Z 04003KT 1/8SM FG SKC RMK FG2

CYHM;2008-09-24 11:00;CYHM 241100Z 04002KT 1/2SM FG SKC 10/10 A3042 RMK FG2 SLP303

CYHM;2008-09-24 11:15;CYHM 241115Z 05004KT 1SM BR SKC RMK FG1 VIS VRB 3/4-11/4SM

CYHM;2008-09-24 11:33;CYHM 241133Z 05003KT 1 1/2SM BR FEW220 RMK CI1 CI TR

CYHM;2008-09-24 12:00;CYHM 241200Z 06002KT 3SM BR SKC 12/11 A3042 RMK SLP306

CYHM;2008-09-24 13:00;CYHM 241300Z 06003KT 10SM SKC 15/14 A3043 RMK SLP308

CYHM;2008-09-24 14:00;CYHM 241400Z 21003KT 15SM SKC 18/14 A3043 RMK SLP308

CYHM;2008-09-24 15:00;CYHM 241500Z 22007KT 15SM SKC 20/15 A3042 RMK SLP304

CYHM;2008-09-24 16:00;CYHM 241600Z 24006KT 15SM SKC 22/14 A3042 RMK SLP301

CYHM;2008-09-24 17:00;CYHM 241700Z 19010KT 15SM SKC 23/13 A3041 RMK SLP298

CYHM;2008-09-24 18:00;CYHM 241800Z 19010KT 15SM SKC 24/13 A3039 RMK SLP293

CYHM;2008-09-24 19:00;CYHM 241900Z 21006KT 180V240 15SM SKC 24/12 A3039 RMK SLP290

CYHM;2008-09-24 20:00;CYHM 242000Z 20008KT 15SM SKC 24/11 A3037 RMK SLP285

CYHM;2008-09-24 21:00;CYHM 242100Z 16006KT 15SM SKC 23/11 A3036 RMK SLP280

CYHM;2008-09-24 22:00;CYHM 242200Z 17004KT 15SM FEW250 22/11 A3036 RMK CI1 CI TR SLP281

CYHM;2008-09-24 23:00;CYHM 242300Z 16003KT 15SM FEW250 20/11 A3036 RMK CI1 CI TR SLP282

CYHM;2008-09-25 00:00;CYHM 250000Z 00000KT 15SM SKC 18/11 A3035 RMK SLP280

CYHM;2008-09-25 01:00;CYHM 250100Z 00000KT 15SM SKC 17/10 A3036 RMK SLP283

CYHM;2008-09-25 02:00;CYHM 250200Z 00000KT 15SM SKC 14/10 A3037 RMK SLP286

CYHM;2008-09-25 03:00;CYHM 250300Z 00000KT 15SM FEW210 14/09 A3039 RMK CI1 SLP291

CYHM;2008-09-25 04:00;CYHM 250400Z 00000KT 15SM FEW200 13/09 A3039 RMK CI1 SLP291

CYHM;2008-09-25 05:00;CYHM 250500Z 00000KT 15SM FEW200 13/09 A3038 RMK CI1 SLP289

CYHM;2008-09-25 06:00;CYHM 250600Z 00000KT 15SM SKC 14/09 A3037 RMK SLP284

CYHM;2008-09-25 07:00;CYHM 250700Z 00000KT 15SM SKC 13/09 A3036 RMK SLP282

CYHM;2008-09-25 08:00;CYHM 250800Z 00000KT 15SM SKC 13/08 A3037 RMK SLP283

CYHM;2008-09-25 09:00;CYHM 250900Z 10005KT 15SM FEW080 12/08 A3037 RMK AC1 SLP286

CYHM;2008-09-25 10:00;CYHM 251000Z 03005KT 15SM FEW080 11/10 A3038 RMK AC1 SLP289

CYHM;2008-09-25 10:51;CYHM 251051Z 05004KT 1 1/2SM BR FEW080 RMK FG1AC1

CYHM;2008-09-25 11:00;CYHM 251100Z 05003KT 1SM BR FEW080 11/10 A3039 RMK FG1AC1 SLP292

CYHM;2008-09-25 11:05;CYHM 251105Z 06003KT 3/4SM BR FEW100 RMK FG1AC1 VIS VRB 1/2-1 SM

CYHM;2008-09-25 11:11;CYHM 251111Z 04004KT 1/8SM FG FEW100 RMK FG2AC1

CYHM;2008-09-25 11:44;CYHM 251144Z 06002KT 1/8SM FG BKN001 RMK FG3SF2

CYHM;2008-09-25 12:00;CYHM 251200Z 02004KT 1/2SM FG SKC 12/12 A3040 RMK FG2 SLP298

CYHM;2008-09-25 12:08;CYHM 251208Z 01002KT 1SM BR FEW220 RMK FG1CI1 VIS VRB 3/4-11/4SM CONTRAIL

CYHM;2008-09-25 12:18;CYHM 251218Z 35004KT 1 1/2SM BR FEW220 RMK FG1CI1

CYHM;2008-09-25 12:37;CYHM 251237Z 00000KT 2 1/2SM BR FEW220 RMK CI1 CI TR

CYHM;2008-09-25 13:00;CYHM 251300Z 02002KT 3SM BR FEW220 16/14 A3040 RMK CI1 SLP298

CYHM;2008-09-25 14:00;CYHM 251400Z 00000KT 5SM HZ FEW220 18/16 A3041 RMK CI1 SLP301

CYHM;2008-09-25 15:00;CYHM 251500Z 00000KT 10SM FEW220 21/17 A3042 RMK CI0 HAZE CI TR SLP301

CYHM;2008-09-25 16:00;CYHM 251600Z 00000KT 15SM FEW220 23/16 A3040 RMK CI1 SLP297

CYHM;2008-09-25 17:00;CYHM 251700Z 03004KT 15SM FEW040 FEW240 24/17 A3039 RMK CU1CI1 CU TR SLP293

CYHM;2008-09-25 18:00;CYHM 251800Z 05004KT 15SM FEW032 FEW220 23/15 A3038 RMK CU1CI1 TCU ASOCTD SLP289

CYHM;2008-09-25 19:00;CYHM 251900Z 06005KT 010V100 15SM FEW040 FEW230 24/14 A3037 RMK CU1CI0 SLP284

CYHM;2008-09-25 20:00;CYHM 252000Z 05007KT 360V100 15SM FEW042 FEW230 24/13 A3036 RMK CU1CI1 SLP280

CYHM;2008-09-25 21:00;CYHM 252100Z 06005KT 15SM FEW042 SCT240 24/14 A3035 RMK CU1CI2 SLP277

CYHM;2008-09-25 22:00;CYHM 252200Z 06005KT 15SM SCT240 22/15 A3035 RMK CI2 SLP279

CYHM;2008-09-25 23:00;CYHM 252300Z 04007KT 15SM BKN250 19/15 A3035 RMK CI4 SLP278

CYHM;2008-09-26 00:00;CYHM 260000Z 03006KT 15SM BKN250 18/15 A3035 RMK CI3 SLP278

CYHM;2008-09-26 01:00;CYHM 260100Z 04006KT 12SM BKN250 17/15 A3034 RMK CI4 SLP277

CYHM;2008-09-26 02:00;CYHM 260200Z 05005KT 10SM SCT250 16/15 A3034 RMK CI2 SLP275

CYHM;2008-09-26 03:00;CYHM 260300Z 03006KT 8SM SCT250 16/15 A3034 RMK CI2 SLP273

CYHM;2008-09-26 04:00;CYHM 260400Z 03003KT 7SM BKN250 15/14 A3034 RMK CI3 SLP273

CYHM;2008-09-26 05:00;CYHM 260500Z 05004KT 5SM BR BKN250 15/14 A3033 RMK CI4 SLP269

CYHM;2008-09-26 05:31;CYHM 260531Z 05003KT 1 1/4SM BR BKN250 RMK FG2CI2

CYHM;2008-09-26 06:00;CYHM 260600Z 07004KT 3SM BR SCT250 14/13 A3032 RMK CI2 SLP267

CYHM;2008-09-26 06:16;CYHM 260616Z 03004KT 2SM BR FEW250 RMK FG1CI1

CYHM;2008-09-26 07:00;CYHM 260700Z 01005KT 2SM BR FEW250 14/13 A3031 RMK FG1CI0 SLP264

CYHM;2008-09-26 08:00;CYHM 260800Z 02006KT 4SM BR SCT220 14/13 A3030 RMK CI2 SLP261

CYHM;2008-09-26 09:00;CYHM 260900Z 02006KT 4SM BR BKN210 14/13 A3029 RMK CI5 SLP258

CYHM;2008-09-26 09:42;CYHM 260942Z 02008KT 3/8SM FG VV002 RMK FG8

CYHM;2008-09-26 10:00;CYHM 261000Z 02008KT 1/2SM FG VV001 15/14 A3030 RMK FG8 SLP259

CYHM;2008-09-26 10:13;CYHM 261013Z 02006KT 1 1/2SM BR OVC001 RMK FG4SF4

CYHM;2008-09-26 10:34;CYHM 261034Z 04010KT 2SM BR OVC002 RMK FG2SF6

CYHM;2008-09-26 11:00;CYHM 261100Z 05011KT 1 1/2SM BR OVC001 15/14 A3030 RMK FG2SF6 SLP261

CYHM;2008-09-26 11:10;CYHM 261110Z 05009KT 1SM BR OVC002 RMK FG3SF5 VIS VRB 3/4-11/4SM

CYHM;2008-09-26 12:00;CYHM 261200Z 05011KT 1 1/2SM BR OVC005 15/14 A3031 RMK FG3SF5 SLP265

CYHM;2008-09-26 12:20;CYHM 261220Z 03011KT 2SM BR BKN004 BKN030 BKN210 RMK SF5SC1CI1

CYHM;2008-09-26 12:47;CYHM 261247Z 05011KT 3SM BR SCT003 BKN050 BKN150 BKN210 RMK SF3SC2AC1CI2

CYHM;2008-09-26 13:00;CYHM 261300Z 05010KT 3SM BR FEW005 SCT120 BKN170 BKN210 16/14 A3031 RMK SF1AC2AC2CI2 SLP266

CYHM;2008-09-26 14:00;CYHM 261400Z 06008KT 15SM FEW006 FEW120 BKN180 BKN210 16/12 A3032 RMK SF1AC2AC2CI1 SF TR SLP269

CYHM;2008-09-26 15:00;CYHM 261500Z 05010KT 15SM FEW140 FEW180 BKN210 17/08 A3032 RMK AC1AC2CI2 SLP268

CYHM;2008-09-26 16:00;CYHM 261600Z 05010KT 15SM FEW140 FEW180 BKN210 18/10 A3030 RMK AC1AC2CI2 SLP263

CYHM;2008-09-26 17:00;CYHM 261700Z 06013KT 15SM FEW150 FEW180 BKN220 18/11 A3028 RMK AC2AC1CS4 HALO SLP256

CYHM;2008-09-26 18:00;CYHM 261800Z 05014G19KT 15SM FEW120 FEW180 BKN220 18/10 A3026 RMK AC1AC2CS4 SLP250

CYHM;2008-09-26 19:00;CYHM 261900Z 06017G22KT 15SM FEW180 OVC220 17/12 A3024 RMK AC2CS5 SLP241

CYHM;2008-09-26 20:00;CYHM 262000Z 05017KT 15SM FEW140 OVC240 17/13 A3022 RMK AC2CS6 SLP235

CYHM;2008-09-26 21:00;CYHM 262100Z 04017G22KT 15SM SCT013 SCT150 OVC220 16/13 A3020 RMK SC3AC1CI3 SLP230

CYHM;2008-09-26 21:19;CYHM 262119Z 04017G22KT 15SM BKN012 OVC150 RMK SC6AC2

CYHM;2008-09-26 22:00;CYHM 262200Z 05017G22KT 15SM FEW013 SCT110 OVC220 16/13 A3020 RMK SC2AC2CI4 CU ASOCTD SLP229

CYHM;2008-09-26 23:00;CYHM 262300Z 05016KT 15SM FEW014 BKN210 16/13 A3019 RMK SC2CI6 SLP225

CYHM;2008-09-27 00:00;CYHM 270000Z 05015G20KT 15SM FEW013 OVC039 17/13 A3020 RMK CF2SC6 SLP226

CYHM;2008-09-27 01:00;CYHM 270100Z 06012KT 15SM OVC027 16/13 A3019 RMK SC8 SLP223

CYHM;2008-09-27 01:36;CYHM 270136Z 06010KT 10SM BKN009 OVC027 RMK CF6SC2

CYHM;2008-09-27 02:00;CYHM 270200Z 06011KT 8SM BKN010 OVC020 16/14 A3019 RMK CF5SC3 SLP223

CYHM;2008-09-27 03:00;CYHM 270300Z 08012KT 8SM OVC012 16/14 A3016 RMK SC8 SLP215

CYHM;2008-09-27 03:36;CYHM 270336Z 07013KT 7SM OVC008 RMK SF8 CIG RAG

CYHM;2008-09-27 04:00;CYHM 270400Z 08013KT 6SM -RA BR OVC007 15/14 A3014 RMK SF8 CIG RAG SLP209

CYHM;2008-09-27 05:00;CYHM 270500Z 08011KT 6SM BR OVC008 16/14 A3012 RMK SF8 SLP202

CYHM;2008-09-27 06:00;CYHM 270600Z 08010KT 6SM -RA BR OVC008 16/14 A3011 RMK SF8 SLP196

CYHM;2008-09-27 07:00;CYHM 270700Z 07008KT 6SM BR OVC006 16/14 A3009 RMK SF8 SLP191

CYHM;2008-09-27 08:00;CYHM 270800Z 07010KT 6SM BR BKN007 OVC022 16/14 A3008 RMK SF6SC2 SLP186

CYHM;2008-09-27 09:00;CYHM 270900Z 06009KT 5SM -RA BR OVC006 15/14 A3007 RMK SF8 CIG RAG SLP182

CYHM;2008-09-27 09:23;CYHM 270923Z 06009KT 3SM -DZ BR OVC003 RMK SF8 VIS VRB 2 - 4

CYHM;2008-09-27 10:00;CYHM 271000Z 07009KT 2 1/2SM -DZ BR BKN003 OVC013 15/14 A3007 RMK SF6SC2 SLP182

CYHM;2008-09-27 11:00;CYHM 271100Z 05006KT 3SM BR OVC002 15/14 A3006 RMK SF8 SLP179

CYHM;2008-09-27 11:28;CYHM 271128Z 06008KT 4SM BR BKN003 OVC010 RMK SF6SC2

CYHM;2008-09-27 12:00;CYHM 271200Z 05007KT 4SM BR BKN004 OVC015 16/15 A3006 RMK SF7SC1 SLP180

CYHM;2008-09-27 13:00;CYHM 271300Z 04008KT 5SM BR BKN004 OVC014 16/15 A3006 RMK SF6SC2 SLP181

CYHM;2008-09-27 13:28;CYHM 271328Z 05007KT 7SM BKN005 OVC014 RMK SF6SC2

CYHM;2008-09-27 14:00;CYHM 271400Z 06008KT 8SM BKN005 OVC014 17/15 A3007 RMK SF6SC2 SLP182

CYHM;2008-09-27 15:00;CYHM 271500Z 05009KT 9SM BKN008 OVC020 17/15 A3006 RMK SC7SC1 SLP180

CYHM;2008-09-27 16:00;CYHM 271600Z 02007KT 9SM SCT008 BKN021 17/15 A3004 RMK SC4SC3 SLP175

CYHM;2008-09-27 16:47;CYHM 271647Z 04008KT 8SM -SHRA BKN007 BKN022 OVC080 RMK SC6SC2AC1

CYHM;2008-09-27 17:00;CYHM 271700Z 05007KT 8SM -SHRA BKN006 OVC022 17/16 A3004 RMK SC6SC2 SLP172

CYHM;2008-09-27 17:36;CYHM 271736Z 03008KT 9SM BKN007 BKN027 RMK SC6SC1

CYHM;2008-09-27 18:00;CYHM 271800Z 05010KT 8SM OVC005 17/16 A3002 RMK SC8 SLP167

CYHM;2008-09-27 19:00;CYHM 271900Z 03007KT 9SM BKN005 OVC010 17/16 A3001 RMK SF5SC3 SLP161

CYHM;2008-09-27 19:33;CYHM 271933Z 03008KT 7SM BKN004 OVC009 RMK SF6SC2 CIG VRB 3-5

CYHM;2008-09-27 20:00;CYHM 272000Z 04008KT 5SM BR BKN003 OVC008 17/16 A3001 RMK SF6SC2 SLP161

CYHM;2008-09-27 21:00;CYHM 272100Z 04009KT 3SM BR OVC003 17/16 A3000 RMK ST8 VIS W 6 SLP160

CYHM;2008-09-27 21:11;CYHM 272111Z 04008KT 2SM BR OVC002 RMK FG1ST7

CYHM;2008-09-27 21:28;CYHM 272128Z 05008KT 1 1/2SM BR OVC002 RMK FG2ST6

CYHM;2008-09-27 21:48;CYHM 272148Z 04006KT 1 1/4SM BR OVC002 RMK FG2ST6

CYHM;2008-09-27 22:00;CYHM 272200Z 04007KT 3/4SM BR OVC001 17/16 A3000 RMK FG2ST6 SLP160

CYHM;2008-09-27 22:33;CYHM 272233Z 03004KT 3/8SM FG VV001 RMK FG8

CYHM;2008-09-27 23:00;CYHM 272300Z CCA 03006KT 5/8SM BR OVC002 17/16 A3001 RMK FG3ST5 SLP163

CYHM;2008-09-27 23:29;CYHM 272329Z 03008KT 3/4SM BR OVC003 RMK FG2ST6 CIG VRB 2-4

CYHM;2008-09-27 23:36;CYHM 272336Z 03008KT 1 1/4SM BR OVC003 RMK FG2ST6

CYHM;2008-09-27 23:42;CYHM 272342Z 03008KT 1 3/4SM BR OVC004 RMK FG2ST6 CIG VRB 3-5

CYHM;2008-09-28 00:00;CYHM 280000Z 02006KT 2SM BR OVC003 17/16 A3002 RMK FG1ST7 SLP165

CYHM;2008-09-28 00:25;CYHM 280025Z 02006KT 2SM BR OVC002 RMK FG1ST7

CYHM;2008-09-28 00:49;CYHM 280049Z 01006KT 1 3/4SM -DZ BR OVC002 RMK FG2ST6

CYHM;2008-09-28 01:00;CYHM 280100Z 01006KT 1 1/2SM -DZ BR OVC002 16/16 A3003 RMK FG2ST6 SLP170

CYHM;2008-09-28 01:23;CYHM 280123Z 01006KT 1SM -DZ BR OVC002 RMK FG2ST6

CYHM;2008-09-28 02:00;CYHM 280200Z 36005KT 1 3/4SM -DZ BR BKN003 OVC011 16/16 A3003 RMK FG2SF3SC3 SLP170

CYHM;2008-09-28 03:00;CYHM 280300Z 02006KT 1 1/2SM -DZ BR OVC002 16/16 A3003 RMK FG2ST6 VIS VRB 1 - 2 SLP169

CYHM;2008-09-28 04:00;CYHM 280400Z 02005KT 1 1/2SM -DZ BR OVC003 17/16 A3003 RMK FG2ST6 VIS VRB 1 - 2 SLP168

CYHM;2008-09-28 05:00;CYHM 280500Z 36009KT 2SM -DZ BR OVC005 16/15 A3002 RMK FG1ST7 CIG RAG SLP165

CYHM;2008-09-28 06:00;CYHM 280600Z 04009KT 4SM -DZ BR BKN005 OVC045 16/15 A3001 RMK SF7SC1 SLP162

CYHM;2008-09-28 07:00;CYHM 280700Z 03007KT 5SM -DZ BR BKN005 OVC025 16/15 A3000 RMK SF6SC2 SLP159

CYHM;2008-09-28 07:18;CYHM 280718Z 03005KT 2 1/2SM -DZ BR BKN003 OVC025 RMK SF6SC2

CYHM;2008-09-28 08:00;CYHM 280800Z 02005KT 5SM BR OVC004 16/15 A3000 RMK SF8 SLP159

CYHM;2008-09-28 09:00;CYHM 280900Z 02005KT 6SM BR OVC006 16/15 A3001 RMK SF8 SLP161

CYHM;2008-09-28 10:00;CYHM 281000Z 01008KT 6SM BR BKN004 OVC013 16/15 A3002 RMK SF6SC2 SLP165

CYHM;2008-09-28 10:08;CYHM 281008Z 35007KT 6SM -DZ BR BKN004 OVC013 RMK SF6SC2

CYHM;2008-09-28 11:00;CYHM 281100Z 35007KT 6SM -DZ BR SCT006 BKN017 OVC029 16/15 A3002 RMK SF4SC2SC2 SLP166

CYHM;2008-09-28 11:42;CYHM 281142Z 35010KT 8SM -DZ BKN008 BKN064 RMK SF6SC1

CYHM;2008-09-28 12:00;CYHM 281200Z 36007KT 7SM -DZ BKN008 BKN061 16/15 A3003 RMK SF3SC4 SLP169

CYHM;2008-09-28 12:22;CYHM 281222Z 36006KT 12SM FEW008 BKN059 RMK SF1SC6

CYHM;2008-09-28 13:00;CYHM 281300Z 35008KT 12SM FEW008 BKN027 BKN058 17/15 A3004 RMK SF1SC6SC2 SF TR SLP172

CYHM;2008-09-28 14:00;CYHM 281400Z 33010KT 15SM FEW009 BKN030 BKN069 17/15 A3005 RMK CF1SC4AC2 SLP176

CYHM;2008-09-28 15:00;CYHM 281500Z 35012KT 15SM FEW015 SCT035 BKN074 19/15 A3005 RMK CU1SC3AC3 CU TR SLP176

CYHM;2008-09-28 16:00;CYHM 281600Z 36012KT 15SM FEW038 FEW077 20/14 A3005 RMK SC1AC2 SLP177

CYHM;2008-09-28 17:00;CYHM 281700Z 02008KT 15SM FEW032 SCT048 BKN078 21/14 A3005 RMK CU1SC2AC1 SLP176

CYHM;2008-09-28 18:00;CYHM 281800Z 01010KT 15SM FEW028 FEW050 FEW080 22/14 A3004 RMK CU2SC1AC1 AC TR SLP172

CYHM;2008-09-28 19:00;CYHM 281900Z 02007KT 350V050 15SM SCT032 SCT050 BKN080 22/14 A3004 RMK CU3SC1AC1 SLP171

CYHM;2008-09-28 20:00;CYHM 282000Z 01009KT 330V040 15SM FEW032 SCT050 SCT120 22/14 A3004 RMK CU2SC1AC1 SLP170

CYHM;2008-09-28 21:00;CYHM 282100Z 02009KT 15SM FEW030 SCT045 BKN110 20/14 A3004 RMK CU2SC2AC2 SLP174

CYHM;2008-09-28 22:00;CYHM 282200Z 04007KT 15SM FEW025 BKN110 BKN220 19/14 A3006 RMK SC2AC2CI1 CI TR SLP179

CYHM;2008-09-28 23:00;CYHM 282300Z 03007KT 7SM FEW028 SCT110 BKN220 17/14 A3007 RMK SC2AC2CI1 HZ SLP183

CYHM;2008-09-29 00:00;CYHM 290000Z 01006KT 9SM BKN018 17/14 A3009 RMK SC7 SLP189

CYHM;2008-09-29 01:00;CYHM 290100Z 02008KT 10SM OVC018 16/13 A3010 RMK SC8 SLP193

CYHM;2008-09-29 02:00;CYHM 290200Z 01006KT 10SM OVC016 15/13 A3011 RMK SC8 SLP196

CYHM;2008-09-29 03:00;CYHM 290300Z 02006KT 10SM OVC016 14/12 A3011 RMK SC8 SLP198

CYHM;2008-09-29 04:00;CYHM 290400Z CCA 36007KT 15SM OVC014 14/12 A3012 RMK SC8 CIG RAG SLP200

CYHM;2008-09-29 05:00;CYHM 290500Z 03006KT 15SM OVC012 14/11 A3011 RMK SC8 SLP198

CYHM;2008-09-29 06:00;CYHM 290600Z 02009KT 15SM OVC011 14/11 A3011 RMK SC8 SLP197

CYHM;2008-09-29 07:00;CYHM 290700Z 03009KT 15SM OVC016 13/11 A3011 RMK SC8 SLP196

CYHM;2008-09-29 08:00;CYHM 290800Z 03009KT 8SM FEW010 OVC020 12/10 A3010 RMK SC2SC6 SLP193

CYHM;2008-09-29 09:00;CYHM 290900Z 02007KT 15SM SCT011 OVC021 12/10 A3010 RMK SC3SC5 SLP192

CYHM;2008-09-29 10:00;CYHM 291000Z 36006KT 15SM FEW008 OVC016 12/10 A3010 RMK CF1SC7 SLP193

CYHM;2008-09-29 11:00;CYHM 291100Z 02004KT 15SM FEW010 BKN017 OVC025 12/10 A3009 RMK SF2SC4SC2 SLP190

CYHM;2008-09-29 12:00;CYHM 291200Z 35005KT 15SM BKN009 BKN015 OVC024 12/10 A3010 RMK SF5SC2SC1 SLP195

CYHM;2008-09-29 13:00;CYHM 291300Z 01006KT 15SM FEW009 BKN017 OVC024 11/10 A3011 RMK SF1SC5SC2 SLP197

CYHM;2008-09-29 13:54;CYHM 291354Z 04003KT 6SM -DZ BKN007 OVC015 RMK SF6SC2

CYHM;2008-09-29 14:00;CYHM 291400Z 03003KT 6SM -DZ BKN007 BKN017 OVC023 12/10 A3012 RMK SF6SC2SC1 SLP202

CYHM;2008-09-29 14:30;CYHM 291430Z 01003KT 3SM -DZ BR BKN004 OVC021 RMK SF6SC2

CYHM;2008-09-29 15:00;CYHM 291500Z 00000KT 2 1/2SM -RA BR BKN004 OVC025 12/11 A3012 RMK SF6SC2 SLP203

CYHM;2008-09-29 15:21;CYHM 291521Z 03005KT 4SM BR SCT006 OVC031 RMK SF4SC4

CYHM;2008-09-29 16:00;CYHM 291600Z 05002KT 6SM BR BKN006 OVC022 13/11 A3010 RMK SF6SC2 SLP196

CYHM;2008-09-29 17:00;CYHM 291700Z 05004KT 8SM BKN007 OVC012 13/11 A3008 RMK SF5SC3 SLP190

CYHM;2008-09-29 18:00;CYHM 291800Z 06005KT 8SM BKN010 BKN017 OVC025 14/11 A3007 RMK SF5SC2SC1 SLP183

CYHM;2008-09-29 19:00;CYHM 291900Z 07005KT 12SM FEW008 BKN014 OVC025 13/11 A3005 RMK SF2SC6SC1 SLP178

CYHM;2008-09-29 20:00;CYHM 292000Z 06005KT 12SM FEW015 OVC024 13/11 A3003 RMK SC2SC6 SLP172

CYHM;2008-09-29 21:00;CYHM 292100Z 05003KT 12SM FEW015 BKN020 OVC035 14/11 A3003 RMK SF1SC5SC2 SLP172

CYHM;2008-09-29 22:00;CYHM 292200Z 06007KT 15SM FEW018 SCT034 BKN250 13/11 A3001 RMK SF1SC3CI0 CONTRAILS SLP165

CYHM;2008-09-29 23:00;CYHM 292300Z 06004KT 15SM OVC026 13/11 A3001 RMK SC8 SLP164

CYHM;2008-09-30 00:00;CYHM 300000Z 08005KT 15SM OVC024 13/11 A3000 RMK SC8 SLP161

CYHM;2008-09-30 01:00;CYHM 300100Z 09005KT 15SM BKN028 12/10 A2998 RMK SC6 SLP155

CYHM;2008-09-30 02:00;CYHM 300200Z 08005KT 15SM BKN026 12/11 A2997 RMK SC7 SLP150

CYHM;2008-09-30 03:00;CYHM 300300Z 09005KT 15SM SCT022 BKN032 BKN056 13/11 A2995 RMK SC3SC3SC1 SLP146

CYHM;2008-09-30 04:00;CYHM 300400Z 09008KT 15SM FEW024 SCT056 12/10 A2992 RMK SC2SC2 SLP135

CYHM;2008-09-30 05:00;CYHM 300500Z 07006KT 15SM FEW024 BKN044 BKN180 12/11 A2991 RMK SC1SC6AC1 SLP130

CYHM;2008-09-30 05:55;CYHM 300555Z 08007KT 12SM -SHRA BKN035 OVC064 RMK SC6SC2

CYHM;2008-09-30 06:00;CYHM 300600Z 08007KT 12SM -SHRA BKN035 OVC064 13/11 A2989 RMK SC6SC2 SLP125

CYHM;2008-09-30 07:00;CYHM 300700Z 08007KT 2 1/2SM -RA BR BKN035 OVC090 13/12 A2985 RMK SC6AC2 SLP112

CYHM;2008-09-30 08:00;CYHM 300800Z 06007KT 2 1/2SM -SHRA BR BKN004 OVC034 13/12 A2983 RMK SF6SC2 SLP103

CYHM;2008-09-30 09:00;CYHM 300900Z 07007KT 1 1/2SM -SHRA BR BKN004 OVC024 13/12 A2980 RMK SF6SC2 SLP092

CYHM;2008-09-30 10:00;CYHM 301000Z 06005KT 2 1/4SM -SHRA BR BKN004 OVC024 13/12 A2978 RMK SF5SC3 SLP086

CYHM;2008-09-30 11:00;CYHM 301100Z 04002KT 2 1/2SM -SHRA BR SCT003 BKN017 OVC024 13/13 A2976 RMK SF3SC3SC2 SLP080

CYHM;2008-09-30 11:21;CYHM 301121Z 05004KT 1 1/2SM -SHRA BR SCT004 BKN017 OVC020 RMK FG2SF2SC3SC2

CYHM;2008-09-30 11:49;CYHM 301149Z 07003KT 1SM SHRA BR BKN010 BKN024 OVC034 RMK FG2SF3SC2SC1 VISB VRB 3/4-11/4SM

CYHM;2008-09-30 12:00;CYHM 301200Z 07003KT 1SM -SHRA BR BKN010 BKN016 OVC028 13/13 A2974 RMK FG2SF3SC2SC1 VISB VRB 3/4-11/4SM SLP071

CYHM;2008-09-30 12:31;CYHM 301231Z 17002KT 1 1/2SM SHRA BR BKN005 OVC026 RMK FG2SF4SC2 VIS BRB 1-2 SM

CYHM;2008-09-30 13:00;CYHM 301300Z 20010KT 1 1/2SM -SHRA BR BKN003 BKN039 OVC060 15/15 A2972 RMK FG1SF4SC2SC1 SLP066

CYHM;2008-09-30 13:15;CYHM 301315Z 21010KT 2 1/2SM BR SCT007 BKN015 BKN045 OVC070 RMK SF3SC2SC2AC1 RERA

CYHM;2008-09-30 14:00;CYHM 301400Z 20008KT 4SM BR BKN005 BKN017 OVC025 16/15 A2973 RMK SF5SC2SC1 SLP070

CYHM;2008-09-30 14:36;CYHM 301436Z 28009KT 1 1/2SM BR BKN002 OVC016 RMK FG2SF4SC2 VIS VRB 1-2SM

CYHM;2008-09-30 15:00;CYHM 301500Z 28011KT 2 1/2SM BR BKN005 OVC015 15/14 A2972 RMK SF6SC2 SLP067

CYHM;2008-09-30 15:50;CYHM 301550Z 29012KT 6SM BR FEW003 BKN011 OVC018 RMK SF2SC3SC2

CYHM;2008-09-30 16:00;CYHM 301600Z 29012KT 10SM BKN011 BKN020 BKN075 15/13 A2973 RMK SC5SC2AC1 SLP068

CYHM;2008-09-30 17:00;CYHM 301700Z 29008KT 15SM SCT020 BKN090 BKN210 16/12 A2974 RMK SC4AC2CI1 TR CU ASOCTD SLP072

CYHM;2008-09-30 18:00;CYHM 301800Z 27011KT 15SM FEW020 BKN026 BKN120 BKN180 18/12 A2973 RMK CU2SC3AC1AC1 SLP067

CYHM;2008-09-30 19:00;CYHM 301900Z 28008KT 15SM SCT034 BKN090 BKN120 18/11 A2973 RMK CU4AC1AC1 SC ASOCTD SLP067

CYHM;2008-09-30 20:00;CYHM 302000Z 28010KT 15SM FEW034 BKN042 BKN094 18/11 A2973 RMK CU2SC3AC2 SLP067

CYHM;2008-09-30 21:00;CYHM 302100Z 28013KT 15SM FEW036 BKN100 17/10 A2972 RMK CU2AC5 SLP065

CYHM;2008-09-30 22:00;CYHM 302200Z 27010KT 15SM FEW052 FEW090 17/10 A2972 RMK CU1AC2 SLP065

CYHM;2008-09-30 23:00;CYHM 302300Z 26002KT 15SM SCT036 BKN064 BKN094 BKN250 15/10 A2972 RMK SC3SC2AC1CI0 SLP066

CYHM;2008-09-30 23:50;CYHM 302350Z 30010KT 15SM -SHRA FEW024 SCT038 BKN098 RMK SC2SC2AC3

CYHM;2008-10-01 01:00;CYHM 010100Z 28002KT 15SM FEW024 SCT064 BKN078 BKN130 12/10 A2973 RMK SC1SC2AC3AC1 SLP071

CYHM;2008-10-01 02:00;CYHM 010200Z 23003KT 15SM BKN078 BKN120 12/11 A2973 RMK AC6AC2 SLP070

CYHM;2008-10-01 03:00;CYHM 010300Z 24003KT 15SM -SHRA BKN078 OVC110 12/11 A2972 RMK AC6AC2 SLP067

CYHM;2008-10-01 03:50;CYHM 010350Z 25005KT 15SM BKN068 OVC120 RMK AC6AC2

CYHM;2008-10-01 04:00;CYHM 010400Z 25005KT 15SM BKN068 OVC120 12/11 A2972 RMK AC6AC2 SLP066

CYHM;2008-10-01 05:00;CYHM 010500Z 24004KT 15SM FEW058 BKN073 BKN120 12/11 A2971 RMK SC2AC5AC1 SLP061

CYHM;2008-10-01 06:00;CYHM 010600Z 26005KT 15SM FEW046 SCT072 SCT120 11/10 A2969 RMK SC1AC2AC1 SLP056

CYHM;2008-10-01 07:00;CYHM 010700Z 27006KT 15SM BKN070 BKN120 11/10 A2968 RMK AC6AC1 SLP052

CYHM;2008-10-01 08:00;CYHM 010800Z 30002KT 15SM BKN076 BKN120 BKN200 11/10 A2967 RMK AC5AC1CC1 SLP047

CYHM;2008-10-01 09:00;CYHM 010900Z 25005KT 15SM BKN070 BKN120 BKN200 11/10 A2967 RMK AC5AC2CC1 SLP048

CYHM;2008-10-01 10:00;CYHM 011000Z 24003KT 15SM BKN062 BKN072 OVC180 11/10 A2967 RMK SC6AC1AC1 SLP049

CYHM;2008-10-01 11:00;CYHM 011100Z 27005KT 15SM SCT062 BKN091 BKN140 10/09 A2967 RMK SC3AC2AC2 SLP049

CYHM;2008-10-01 12:00;CYHM 011200Z 26005KT 15SM FEW020 BKN068 BKN120 BKN220 10/09 A2968 RMK CU1AC4AC1CI1 SLP052

CYHM;2008-10-01 13:00;CYHM 011300Z 26008KT 15SM FEW020 FEW100 SCT220 11/10 A2968 RMK CU1AC2CI1 SLP054

CYHM;2008-10-01 14:00;CYHM 011400Z 28011KT 15SM FEW012 SCT120 SCT220 13/10 A2969 RMK CF2AC1CI1 SLP056

CYHM;2008-10-01 15:00;CYHM 011500Z 25008KT 15SM FEW018 SCT032 SCT120 14/09 A2968 RMK CU2SC1AC1 TCU ASOCTD SLP054

CYHM;2008-10-01 16:00;CYHM 011600Z 28006KT 15SM SCT024 SCT060 BKN100 14/08 A2967 RMK CU3SC1AC1 TCU ASOCTD SLP050

CYHM;2008-10-01 17:00;CYHM 011700Z 24010KT 15SM FEW032 SCT062 SCT210 15/08 A2966 RMK CU2SC1CI1 T CU ASOCTD SLP045

CYHM;2008-10-01 18:00;CYHM 011800Z 22010KT 15SM FEW035 SCT045 SCT220 16/08 A2965 RMK CU2SC1CI1 SLP040

CYHM;2008-10-01 18:50;CYHM 011850Z 33010KT 15SM -SHRA BKN034 OVC074 RMK SC6AC2

CYHM;2008-10-01 19:00;CYHM 011900Z 33010KT 10SM -SHRA BKN034 OVC074 11/09 A2967 RMK SC6AC2 SLP047

CYHM;2008-10-01 20:00;CYHM 012000Z 02003KT 15SM -SHRA FEW024 OVC054 11/10 A2967 RMK CU1SC7 SLP047

CYHM;2008-10-01 21:00;CYHM 012100Z 35008KT 8SM FEW008 OVC050 11/09 A2968 RMK SF2SC6 SLP054

CYHM;2008-10-01 22:00;CYHM 012200Z 36010KT 15SM -SHRA FEW008 FEW022 BKN036 OVC100 11/09 A2969 RMK SF1CU1SC6AC1 SF TR SLP056

CYHM;2008-10-01 23:00;CYHM 012300Z 32010KT 15SM -SHRA FEW009 BKN042 OVC100 10/08 A2971 RMK SF1SC6AC1 SLP062

CYHM;2008-10-02 00:00;CYHM 020000Z 31005KT 15SM FEW024 BKN044 BKN060 09/07 A2972 RMK SF1SC5SC2 SF TR SLP068

CYHM;2008-10-02 01:00;CYHM 020100Z 28004KT 15SM FEW024 SCT064 BKN110 09/07 A2973 RMK SF1SC2AC2 SF TR SLP071

CYHM;2008-10-02 02:00;CYHM 020200Z 27004KT 15SM FEW024 FEW064 BKN130 BKN210 07/06 A2973 RMK SC1SC1AS2CS0 1ST LYR TR SLP071

CYHM;2008-10-02 03:00;CYHM 020300Z 27005KT 15SM FEW080 07/05 A2973 RMK AC2 SLP070

CYHM;2008-10-02 04:00;CYHM 020400Z 27005KT 15SM FEW100 06/05 A2972 RMK AC1 SLP069

CYHM;2008-10-02 05:00;CYHM 020500Z 28007KT 15SM FEW120 FEW230 06/05 A2971 RMK AC1CI1 SLP066

CYHM;2008-10-02 06:00;CYHM 020600Z 27006KT 15SM FEW220 06/04 A2971 RMK CI1 SLP065

CYHM;2008-10-02 07:00;CYHM 020700Z 27005KT 15SM FEW095 FEW210 05/04 A2971 RMK AC2CI0 SLP062

CYHM;2008-10-02 08:00;CYHM 020800Z 25005KT 15SM BKN100 06/05 A2969 RMK AC7 SLP058

CYHM;2008-10-02 09:00;CYHM 020900Z 26008KT 15SM BKN094 BKN150 06/05 A2969 RMK AC6AC2 SLP059

CYHM;2008-10-02 10:00;CYHM 021000Z 27008KT 15SM FEW078 OVC099 07/06 A2970 RMK AC2AC6 SLP061

CYHM;2008-10-02 11:00;CYHM 021100Z 26005KT 15SM FEW008 BKN032 BKN082 BKN120 07/06 A2970 RMK SF1SC5AC2AC1 SF TR SLP062

CYHM;2008-10-02 12:00;CYHM 021200Z 27007KT 15SM FEW024 SCT034 BKN080 BKN130 07/05 A2971 RMK SC1SC2AC3AC1 TR CU ASOCTD SLP067

CYHM;2008-10-02 13:00;CYHM 021300Z 27008KT 15SM FEW020 SCT034 BKN110 08/06 A2972 RMK SC2SC2AC4 SLP070

CYHM;2008-10-02 14:00;CYHM 021400Z 27009KT 15SM FEW018 SCT024 BKN100 10/06 A2973 RMK CU2SC2AC1 SLP072

CYHM;2008-10-02 15:00;CYHM 021500Z 28012KT 15SM SCT025 BKN030 BKN075 11/06 A2973 RMK CU3SC2AC1 SLP072

CYHM;2008-10-02 16:00;CYHM 021600Z 25012KT 15SM FEW032 BKN048 BKN056 BKN078 11/05 A2972 RMK CU2SC2SC2AC1 SLP070

CYHM;2008-10-02 16:08;CYHM 021608Z 26012KT 15SM -SHRA SCT022 BKN034 BKN055 RMK CU3SC2SC2

CYHM;2008-10-02 17:00;CYHM 021700Z 28010KT 15SM -SHRA FEW026 BKN033 BKN044 10/06 A2973 RMK CU2SC4SC2 SLP072

CYHM;2008-10-02 17:51;CYHM 021751Z 28008KT 10SM BKN036 BKN052 BKN090 RMK SC5SC2AC1 RERA CU ASOCTD

CYHM;2008-10-02 18:00;CYHM 021800Z 25011KT 15SM SCT035 BKN055 BKN067 09/07 A2971 RMK SC4SC2AC1 SLP064

CYHM;2008-10-02 19:00;CYHM 021900Z 29008KT 240V340 15SM SCT022 BKN035 10/07 A2969 RMK CU3SC4 SLP059

CYHM;2008-10-02 19:32;CYHM 021932Z CCA 30014KT 12SM SCT025 BKN037 RMK CU3SC4

CYHM;2008-10-02 20:00;CYHM 022000Z 25010G18KT 15SM -SHRA FEW028 BKN042 BKN110 10/07 A2969 RMK CU2SC4AC1 SLP059

CYHM;2008-10-02 20:17;CYHM 022017Z 26015KT 15SM FEW028 BKN042 BKN100 RMK CU2SC3AC2

CYHM;2008-10-02 20:36;CYHM 022036Z 27009KT 210V300 15SM -SHRA BKN027 BKN042 BKN100 RMK CU5SC2AC1

CYHM;2008-10-02 21:00;CYHM 022100Z 27017KT 10SM -SHRA BKN027 OVC036 09/06 A2971 RMK CU6SC2 SLP064

CYHM;2008-10-02 22:00;CYHM 022200Z 27012KT 10SM -SHRA FEW028 OVC041 08/06 A2971 RMK CU2SC6 SLP066

CYHM;2008-10-02 23:00;CYHM 022300Z 28009KT 9SM -SHRA FEW028 BKN037 OVC072 08/06 A2971 RMK CU2SC6AC1 SLP066

CYHM;2008-10-03 00:00;CYHM 030000Z 22004KT 15SM FEW032 BKN042 OVC130 08/07 A2970 RMK CU2SC6AC1 SLP063

CYHM;2008-10-03 01:00;CYHM 030100Z 29007KT 15SM -SHRA OVC041 07/05 A2971 RMK SC8 PCPN VRY LGT SLP067

CYHM;2008-10-03 02:00;CYHM 030200Z 23004KT 15SM -SHRA BKN045 OVC077 07/05 A2971 RMK SC6AC2 SLP066

CYHM;2008-10-03 03:00;CYHM 030300Z 23004KT 15SM BKN041 OVC061 07/05 A2971 RMK SC6SC2 SLP065

CYHM;2008-10-03 04:00;CYHM 030400Z 23004KT 15SM -SHRA SCT038 OVC091 07/06 A2972 RMK SC3AC5 SLP067

CYHM;2008-10-03 05:00;CYHM 030500Z CCA 24005KT 15SM -SHRA FEW038 BKN065 OVC096 07/06 A2973 RMK SC1SC6AC2 SLP070

CYHM;2008-10-03 06:00;CYHM 030600Z 26005KT 15SM -SHRA FEW040 FEW058 BKN098 07/06 A2973 RMK SC2SC1AC2 SLP072

CYHM;2008-10-03 06:34;CYHM 030634Z 24004KT 15SM FEW056 BKN096 RMK SC1AC6

CYHM;2008-10-03 07:00;CYHM 030700Z 24004KT 15SM BKN096 BKN160 06/05 A2973 RMK AC5AC1 SLP071

CYHM;2008-10-03 08:00;CYHM 030800Z 24004KT 15SM FEW150 06/05 A2974 RMK AC1 SLP075

CYHM;2008-10-03 09:00;CYHM 030900Z 24005KT 15SM FEW160 05/04 A2976 RMK AC1 SLP082

CYHM;2008-10-03 10:00;CYHM 031000Z 24004KT 15SM FEW026 05/04 A2978 RMK SC2 SLP089

CYHM;2008-10-03 11:00;CYHM 031100Z 28007KT 15SM FEW028 05/03 A2981 RMK SC2 CU ASOCTD SLP101

CYHM;2008-10-03 12:00;CYHM 031200Z 28008KT 15SM FEW015 FEW028 04/03 A2985 RMK CU1SC1 SLP113

CYHM;2008-10-03 13:00;CYHM 031300Z 28006KT 15SM FEW020 FEW100 05/03 A2988 RMK CU1AC1 SLP125

CYHM;2008-10-03 14:00;CYHM 031400Z 27008KT 15SM FEW020 FEW100 07/04 A2991 RMK CU1AC1 CU TR AC TR SLP135

CYHM;2008-10-03 15:00;CYHM 031500Z 28011KT 15SM FEW030 08/04 A2994 RMK CU2 SLP145

CYHM;2008-10-03 16:00;CYHM 031600Z 28014KT 15SM FEW030 BKN038 09/03 A2996 RMK CU2SC4 SLP150

CYHM;2008-10-03 17:00;CYHM 031700Z 29012KT 15SM FEW034 BKN047 11/03 A2998 RMK CU2SC4 SLP157

CYHM;2008-10-03 18:00;CYHM 031800Z 26010KT 15SM FEW040 BKN047 11/03 A2999 RMK CU2SC3 SLP159

CYHM;2008-10-03 19:00;CYHM 031900Z 28012KT 15SM SCT045 11/03 A2999 RMK SC4 SLP161

CYHM;2008-10-03 20:00;CYHM 032000Z 26011G16KT 15SM SCT050 12/02 A3001 RMK SC3 SLP165

CYHM;2008-10-03 21:00;CYHM 032100Z 27015KT 15SM SCT048 12/02 A3001 RMK SC3 SLP169

CYHM;2008-10-03 22:00;CYHM 032200Z 28009KT 15SM FEW048 10/01 A3004 RMK SC2 SLP178

CYHM;2008-10-03 23:00;CYHM 032300Z 26006KT 15SM FEW043 09/02 A3006 RMK SC1 SLP185

CYHM;2008-10-04 00:00;CYHM 040000Z 26005KT 15SM FEW040 07/02 A3008 RMK SC1 SLP192

CYHM;2008-10-04 01:00;CYHM 040100Z 25003KT 15SM FEW040 06/02 A3010 RMK SC2 SLP199

CYHM;2008-10-04 02:00;CYHM 040200Z 25002KT 15SM FEW120 04/02 A3011 RMK AC1 SLP204

CYHM;2008-10-04 03:00;CYHM 040300Z 22005KT 15SM FEW120 FEW210 04/02 A3013 RMK AC1CI1 TR AC SLP209

CYHM;2008-10-04 04:00;CYHM 040400Z 25003KT 15SM FEW210 04/02 A3013 RMK CI1 SLP208

CYHM;2008-10-04 05:00;CYHM 040500Z 25004KT 15SM FEW200 02/01 A3014 RMK CI1 SLP212

CYHM;2008-10-04 06:00;CYHM 040600Z 25003KT 15SM FEW210 03/01 A3014 RMK CI1 SLP214

CYHM;2008-10-04 07:00;CYHM 040700Z 25004KT 15SM FEW100 FEW200 02/01 A3015 RMK AC1CI1 SLP215

CYHM;2008-10-04 08:00;CYHM 040800Z 25005KT 15SM FEW100 FEW200 02/00 A3015 RMK AC1CI1 SLP216

CYHM;2008-10-04 09:00;CYHM 040900Z 24004KT 15SM FEW043 FEW220 02/00 A3016 RMK SC1CI1 FROIN TR SC SLP218

CYHM;2008-10-04 10:00;CYHM 041000Z 24005KT 15SM FEW043 FEW210 02/00 A3016 RMK SC1CI1 FROIN SLP220

CYHM;2008-10-04 11:00;CYHM 041100Z 24005KT 15SM BKN047 04/01 A3018 RMK SC6 SLP225

CYHM;2008-10-04 12:00;CYHM 041200Z 26004KT 15SM BKN044 05/02 A3019 RMK SC7 SLP231

CYHM;2008-10-04 13:00;CYHM 041300Z 25002KT 15SM BKN048 06/03 A3022 RMK SC7 SLP239

CYHM;2008-10-04 14:00;CYHM 041400Z 29002KT 15SM BKN047 08/06 A3023 RMK SC7 SLP243

CYHM;2008-10-04 15:00;CYHM 041500Z 00000KT 15SM FEW034 BKN042 11/07 A3023 RMK SC2SC5 SLP243

CYHM;2008-10-04 16:00;CYHM 041600Z 21002KT 15SM FEW034 BKN044 11/07 A3023 RMK CU1SC6 SLP243

CYHM;2008-10-04 17:00;CYHM 041700Z 22003KT 15SM FEW026 BKN048 12/06 A3023 RMK CU2SC5 SLP242

CYHM;2008-10-04 18:00;CYHM 041800Z 31004KT 15SM BKN027 OVC048 12/07 A3021 RMK CU5SC3 SLP236

CYHM;2008-10-04 19:00;CYHM 041900Z 28002KT 15SM SCT026 OVC051 11/06 A3021 RMK CU4SC4 SLP235

CYHM;2008-10-04 20:00;CYHM 042000Z 00000KT 15SM SCT026 BKN051 BKN062 12/06 A3020 RMK CU3SC2SC2 SLP234

CYHM;2008-10-04 21:00;CYHM 042100Z 28003KT 15SM SCT027 BKN059 12/06 A3021 RMK CU3SC3 SLP235

CYHM;2008-10-04 22:00;CYHM 042200Z 29002KT 15SM FEW028 BKN058 12/07 A3021 RMK CU2SC4 SLP236

CYHM;2008-10-04 23:00;CYHM 042300Z 00000KT 15SM FEW028 BKN058 10/06 A3022 RMK CU2SC3 SLP239

CYHM;2008-10-05 00:00;CYHM 050000Z 28002KT 15SM FEW026 FEW044 BKN060 10/06 A3023 RMK CU1SC2SC5 SLP243

CYHM;2008-10-05 01:00;CYHM 050100Z 27006KT 15SM FEW025 FEW045 BKN060 10/05 A3025 RMK CF1SC2SC6 CF TR SLP248

CYHM;2008-10-05 02:00;CYHM 050200Z 29005KT 15SM FEW045 BKN061 09/05 A3026 RMK SC2SC5 SLP251

CYHM;2008-10-05 03:00;CYHM 050300Z 30005KT 15SM BKN058 08/05 A3025 RMK SC7 SLP249

CYHM;2008-10-05 04:00;CYHM 050400Z 30003KT 15SM SCT058 07/04 A3026 RMK SC4 SLP250

CYHM;2008-10-05 06:00;CYHM 050600Z 00000KT 15SM FEW060 FEW230 05/03 A3026 RMK SC2CI1 SLP254

CYHM;2008-10-05 07:00;CYHM 050700Z 32003KT 15SM FEW060 03/02 A3027 RMK SC1 SLP256

CYHM;2008-10-05 08:00;CYHM 050800Z 00000KT 15SM FEW060 05/03 A3026 RMK SC1 SLP254

CYHM;2008-10-05 09:00;CYHM 050900Z 00000KT 15SM FEW055 FEW200 02/01 A3028 RMK SC1CI1 SLP260

CYHM;2008-10-05 10:00;CYHM 051000Z 32003KT 15SM OVC062 04/03 A3030 RMK SC8 FROIN SLP265

CYHM;2008-10-05 11:00;CYHM 051100Z 00000KT 15SM BKN058 04/03 A3031 RMK SC7 SLP269

CYHM;2008-10-05 12:00;CYHM 051200Z 24002KT 15SM BKN059 BKN130 04/03 A3032 RMK SC6AC1 SLP274

CYHM;2008-10-05 13:00;CYHM 051300Z 26002KT 15SM FEW025 FEW058 BKN130 07/05 A3033 RMK CU1SC2AC4 CU TR SLP278

CYHM;2008-10-05 14:00;CYHM 051400Z 23003KT 15SM FEW058 BKN120 10/05 A3033 RMK SC1AC6 SLP279

CYHM;2008-10-05 15:00;CYHM 051500Z 21004KT 15SM FEW037 BKN120 12/04 A3034 RMK SC1AC6 SLP278

CYHM;2008-10-05 16:00;CYHM 051600Z 24006KT 15SM FEW034 BKN120 13/05 A3033 RMK CU2AC2 SLP276

CYHM;2008-10-05 17:00;CYHM 051700Z 24006KT 15SM BKN037 13/05 A3032 RMK CU7 SLP272

CYHM;2008-10-05 18:00;CYHM 051800Z 27005KT 15SM SCT038 BKN060 14/06 A3030 RMK CU3SC2 SLP265

CYHM;2008-10-05 19:00;CYHM 051900Z 26006KT 220V300 15SM SCT044 BKN062 14/05 A3029 RMK CU3SC2 SLP261

CYHM;2008-10-05 20:00;CYHM 052000Z 26007KT 230V290 15SM SCT044 BKN062 15/05 A3028 RMK CU3SC2 SLP259

CYHM;2008-10-05 21:00;CYHM 052100Z 25007KT 15SM SCT045 BKN064 15/05 A3028 RMK CU3SC2 SLP258

CYHM;2008-10-05 22:00;CYHM 052200Z 25006KT 15SM FEW040 SCT056 BKN070 BKN250 15/05 A3027 RMK CU2SC2AC1CI1 CI TR SLP257

CYHM;2008-10-05 23:00;CYHM 052300Z 20007KT 15SM FEW040 SCT055 BKN068 BKN220 11/05 A3028 RMK CU1SC3AC1CI2 SLP260

CYHM;2008-10-06 00:00;CYHM 060000Z 25002KT 15SM FEW040 BKN056 BKN085 OVC240 11/05 A3030 RMK CU1SC4AC2CI1 SLP265

CYHM;2008-10-06 01:00;CYHM 060100Z 24003KT 15SM BKN056 OVC085 10/06 A3029 RMK SC6AC2 SLP263

CYHM;2008-10-06 02:00;CYHM 060200Z 35004KT 15SM SCT050 OVC210 10/06 A3030 RMK SC3CI5 SLP267

CYHM;2008-10-06 03:00;CYHM 060300Z 36007KT 15SM FEW040 SCT090 OVC240 09/06 A3032 RMK SC2AC2CI4 SLP271

CYHM;2008-10-06 04:00;CYHM 060400Z 35005KT 15SM FEW042 SCT060 BKN095 OVC240 09/06 A3033 RMK SC2SC2AC2CI2 SLP273

CYHM;2008-10-06 05:00;CYHM 060500Z 35005KT 15SM SCT050 BKN094 OVC250 09/06 A3033 RMK SC3AC4CI1 SLP275

CYHM;2008-10-06 06:00;CYHM 060600Z 00000KT 15SM FEW045 OVC100 09/05 A3033 RMK SC2AC6 SLP276

CYHM;2008-10-06 07:00;CYHM 060700Z 33007KT 15SM FEW045 FEW120 BKN210 07/05 A3034 RMK SC1AC1CI2 SLP278

CYHM;2008-10-06 08:00;CYHM 060800Z 34004KT 15SM FEW120 BKN240 06/04 A3034 RMK AC2CI3 SLP278

CYHM;2008-10-06 09:00;CYHM 060900Z 36007KT 15SM FEW120 BKN250 07/04 A3036 RMK AC1CI2 SLP284

CYHM;2008-10-06 10:00;CYHM 061000Z 01007KT 15SM BKN250 06/03 A3037 RMK CI4 SLP287

CYHM;2008-10-06 11:00;CYHM 061100Z 35006KT 15SM FEW020 FEW120 BKN240 05/03 A3038 RMK CU1AC2CI2 SLP291

CYHM;2008-10-06 12:00;CYHM 061200Z 35008KT 15SM FEW020 FEW120 BKN240 06/03 A3040 RMK CU1AC1CI3 CU TR SLP299

CYHM;2008-10-06 13:00;CYHM 061300Z 02004KT 15SM FEW020 FEW160 FEW240 08/04 A3041 RMK CU1AC1CI1 CU TR SLP304

CYHM;2008-10-06 14:00;CYHM 061400Z 03011KT 15SM FEW025 FEW170 09/05 A3043 RMK CU1AC1 SLP311

CYHM;2008-10-06 15:00;CYHM 061500Z 02012KT 15SM FEW024 SCT170 10/04 A3045 RMK CU2AC0 SC ASOCTD AC TR SLP316

CYHM;2008-10-06 16:00;CYHM 061600Z 07011KT 15SM SCT024 SCT030 10/04 A3046 RMK CU3SC1 SLP318

CYHM;2008-10-06 17:00;CYHM 061700Z 03012KT 15SM SCT031 BKN040 10/04 A3046 RMK CU3SC2 SLP319

CYHM;2008-10-06 18:00;CYHM 061800Z 03010KT 15SM SCT032 SCT040 11/04 A3045 RMK CU3SC1 SLP316

CYHM;2008-10-06 19:00;CYHM 061900Z 05013KT 15SM SCT030 12/05 A3044 RMK CU4 SLP313

CYHM;2008-10-06 20:00;CYHM 062000Z 04008KT 15SM SCT034 10/03 A3044 RMK CU3 SLP314

CYHM;2008-10-06 21:00;CYHM 062100Z 05006KT 15SM FEW036 11/02 A3044 RMK CU1 SLP315

CYHM;2008-10-06 22:00;CYHM 062200Z 08004KT 15SM FEW034 10/02 A3045 RMK CU1 CU TR SLP316

CYHM;2008-10-06 23:00;CYHM 062300Z 08004KT 15SM FEW032 08/02 A3043 RMK CU1 CU TR SLP312

CYHM;2008-10-07 00:00;CYHM 070000Z 06002KT 15SM SKC 07/02 A3044 RMK SLP316

CYHM;2008-10-07 01:00;CYHM 070100Z 00000KT 15SM SKC 06/03 A3044 RMK SLP316

CYHM;2008-10-07 02:00;CYHM 070200Z 00000KT 15SM SKC 05/01 A3044 RMK SLP315

CYHM;2008-10-07 03:00;CYHM 070300Z 12005KT 15SM SKC 06/00 A3045 RMK SLP316

CYHM;2008-10-07 04:00;CYHM 070400Z 10004KT 15SM SKC 04/04 A3045 RMK SLP316

CYHM;2008-10-07 05:00;CYHM 070500Z 04002KT 15SM SKC 03/M00 A3045 RMK SLP317

CYHM;2008-10-07 06:00;CYHM 070600Z 06003KT 15SM SKC 05/M00 A3045 RMK SLP316

CYHM;2008-10-07 07:00;CYHM 070700Z 00000KT 15SM SKC 04/M01 A3044 RMK SLP314

CYHM;2008-10-07 08:00;CYHM 070800Z 03002KT 15SM SKC 03/M01 A3043 RMK SLP312

CYHM;2008-10-07 09:00;CYHM 070900Z 00000KT 15SM SKC 03/M01 A3044 RMK SLP315

CYHM;2008-10-07 10:00;CYHM 071000Z 00000KT 15SM SKC 02/M01 A3045 RMK SLP317

CYHM;2008-10-07 11:00;CYHM 071100Z 01002KT 15SM FEW025 FEW240 02/M01 A3045 RMK CU1CI1 CU TR CI TR SLP316

CYHM;2008-10-07 12:00;CYHM 071200Z 03005KT 15SM FEW025 FEW240 02/M00 A3045 RMK CU1CI1 CU TR SLP318

CYHM;2008-10-07 13:00;CYHM 071300Z 03005KT 15SM FEW025 FEW240 07/03 A3043 RMK CU1CI0 CU TR CI TR SLP314

CYHM;2008-10-07 14:00;CYHM 071400Z 12006KT 15SM FEW030 FEW210 10/03 A3043 RMK CU1CI0 SLP312

CYHM;2008-10-07 15:00;CYHM 071500Z 09008KT 15SM FEW030 FEW210 11/04 A3042 RMK CU1CI0 CU TR CONTRAIL SLP305

CYHM;2008-10-07 16:00;CYHM 071600Z 09005KT 15SM FEW030 FEW210 12/04 A3040 RMK CU1CI2 CU TR CONTRAIL SLP300

CYHM;2008-10-07 17:00;CYHM 071700Z 03010KT 15SM FEW030 BKN210 13/06 A3038 RMK CU1CI3 CU TR CONTRAIL SLP293

CYHM;2008-10-07 18:00;CYHM 071800Z 06010KT 15SM FEW030 BKN210 13/06 A3034 RMK CU1CI5 CU TR CONTRAIL SLP281

CYHM;2008-10-07 19:00;CYHM 071900Z 04012KT 15SM BKN250 13/06 A3031 RMK CS2 SLP269

CYHM;2008-10-07 20:00;CYHM 072000Z 05011KT 15SM FEW180 BKN250 13/06 A3029 RMK AC2CS2 CONTRAILS SLP262

CYHM;2008-10-07 21:00;CYHM 072100Z 06013KT 15SM FEW190 BKN250 13/07 A3028 RMK AC2CS2 CC ASOCTD CONTRAILS SLP258

CYHM;2008-10-07 22:00;CYHM 072200Z 06010KT 15SM FEW190 BKN250 11/07 A3025 RMK AC2CS5 CONTRAILS SUN DMLY VSBL SLP248

CYHM;2008-10-07 23:00;CYHM 072300Z 06010KT 15SM OVC250 10/07 A3023 RMK CS8 SLP241

CYHM;2008-10-08 00:00;CYHM 080000Z 06009KT 15SM BKN250 09/06 A3021 RMK CS3 SLP238

CYHM;2008-10-08 01:00;CYHM 080100Z 06008KT 15SM BKN250 09/07 A3019 RMK CS2 SLP231

CYHM;2008-10-08 02:00;CYHM 080200Z 06007KT 15SM BKN250 09/07 A3018 RMK CS4 SLP226

CYHM;2008-10-08 03:00;CYHM 080300Z 05009KT 15SM BKN240 09/06 A3016 RMK CS7 SLP216

CYHM;2008-10-08 04:00;CYHM 080400Z 05007KT 15SM OVC230 09/07 A3013 RMK CS8 SLP209

CYHM;2008-10-08 05:00;CYHM 080500Z 02004KT 15SM OVC210 09/06 A3012 RMK CS8 SLP203

CYHM;2008-10-08 06:00;CYHM 080600Z 05008KT 15SM BKN220 07/05 A3009 RMK CS2 SLP193

CYHM;2008-10-08 07:00;CYHM 080700Z 04006KT 15SM BKN190 OVC220 08/06 A3007 RMK AC5CS3 SLP186

CYHM;2008-10-08 08:00;CYHM 080800Z 05006KT 15SM FEW170 BKN210 08/06 A3004 RMK AC2CS4 SLP176

CYHM;2008-10-08 09:00;CYHM 080900Z 05005KT 15SM BKN180 BKN210 09/06 A3004 RMK AC5CS2 SLP175

CYHM;2008-10-08 10:00;CYHM 081000Z 07004KT 15SM BKN160 OVC210 09/07 A3001 RMK AC6CS2 SLP167

CYHM;2008-10-08 11:00;CYHM 081100Z 07007KT 15SM FEW060 BKN120 BKN160 OVC210 10/07 A2999 RMK SC2AC4AC1CI1 SLP160

CYHM;2008-10-08 12:00;CYHM 081200Z 10006KT 15SM BKN120 OVC160 10/07 A2998 RMK AC6AC2 SLP156

CYHM;2008-10-08 13:00;CYHM 081300Z 11006KT 15SM BKN120 BKN160 BKN210 11/08 A2996 RMK AC5AC2CI1 SLP149

CYHM;2008-10-08 14:00;CYHM 081400Z 12004KT 15SM SCT064 BKN110 OVC160 13/10 A2995 RMK SC3AC3AC2 SLP147

CYHM;2008-10-08 15:00;CYHM 081500Z 15006KT 15SM BKN026 BKN089 OVC140 14/11 A2993 RMK SC5AC2AC1 SLP139

CYHM;2008-10-08 15:54;CYHM 081554Z 18008KT 8SM -SHRA BKN031 BKN044 OVC110 RMK SC6SC2AC1

CYHM;2008-10-08 16:00;CYHM 081600Z 18010KT 8SM -SHRA BKN022 BKN046 OVC070 16/12 A2991 RMK SC5SC2AC1 SLP133

CYHM;2008-10-08 17:00;CYHM 081700Z 18007KT 5SM -SHRA SCT026 BKN044 OVC070 15/13 A2990 RMK SC4SC2AC2 SLP127

CYHM;2008-10-08 18:00;CYHM 081800Z 17006KT 5SM -SHRA BR BKN015 OVC039 15/13 A2986 RMK SC5SC3 SLP116

CYHM;2008-10-08 18:08;CYHM 081808Z 19011KT 4SM -RA BR BKN012 OVC040 RMK SC6SC2

CYHM;2008-10-08 18:30;CYHM 081830Z 17010KT 3SM -RA BR FEW005 BKN011 OVC030 RMK SF2SC5SC2 VIS VRB 2 - 4

CYHM;2008-10-08 19:00;CYHM 081900Z 17013KT 4SM -RA BR BKN004 OVC014 15/14 A2982 RMK SF6SC2 SLP101

CYHM;2008-10-08 20:00;CYHM 082000Z 18011KT 3SM -RA BR BKN005 OVC010 15/14 A2979 RMK SF6SC2 VIS VRB 2 - 4 SLP092

CYHM;2008-10-08 21:00;CYHM 082100Z 19012KT 2SM -RA BR BKN005 OVC013 15/14 A2977 RMK FG1SF6SC2 SLP082

CYHM;2008-10-08 22:00;CYHM 082200Z 20016KT 2 1/2SM -RA BR BKN006 OVC012 16/15 A2975 RMK SF6SC2 SLP076

CYHM;2008-10-08 23:00;CYHM 082300Z 21017KT 2 1/2SM -RA BR OVC008 16/15 A2974 RMK SF8 CIG RAG SLP073

CYHM;2008-10-08 23:13;CYHM 082313Z 21017KT 3SM -RA BR FEW003 OVC008 RMK SF2SF6 VIS VRB 2 - 4

CYHM;2008-10-09 00:00;CYHM 090000Z 21018KT 5SM -RA BR OVC006 16/15 A2974 RMK SF8 CIG RAG SLP073

CYHM;2008-10-09 01:00;CYHM 090100Z 21011KT 6SM -RA BR BKN008 OVC015 16/15 A2974 RMK SF6SC2 SLP073

CYHM;2008-10-09 01:22;CYHM 090122Z 23013KT 6SM -RA BR FEW005 BKN020 OVC070 RMK SF2SC5AC2

CYHM;2008-10-09 02:00;CYHM 090200Z 22009KT 10SM FEW017 FEW070 15/14 A2975 RMK SC2AC1 SLP074

CYHM;2008-10-09 02:53;CYHM 090253Z 24020KT 10SM -SHRA OVC015 RMK SC8

CYHM;2008-10-09 03:00;CYHM 090300Z 25016G22KT 10SM -SHRA BKN014 OVC035 16/14 A2976 RMK SC6SC2 SLP080

CYHM;2008-10-09 04:00;CYHM 090400Z 25010G16KT 10SM SCT012 BKN030 15/14 A2979 RMK CF3SC4 SLP088

CYHM;2008-10-09 05:00;CYHM 090500Z 25016KT 10SM -SHRA FEW010 OVC017 15/13 A2980 RMK CF2SC6 SLP092

CYHM;2008-10-09 06:00;CYHM 090600Z 26010KT 10SM -SHRA FEW010 OVC028 13/12 A2984 RMK CF2SC6 SLP105

CYHM;2008-10-09 07:00;CYHM 090700Z 26012KT 15SM FEW017 SCT036 13/11 A2984 RMK CF2SC2 SLP107

CYHM;2008-10-09 08:00;CYHM 090800Z 25009KT 15SM BKN034 12/10 A2986 RMK SC5 SLP113

CYHM;2008-10-09 09:00;CYHM 090900Z 24009KT 15SM FEW035 11/10 A2988 RMK SC1 SLP121

CYHM;2008-10-09 10:00;CYHM 091000Z 24008KT 12SM FEW033 11/09 A2988 RMK SC1 SLP122

CYHM;2008-10-09 11:00;CYHM 091100Z 23006KT 15SM FEW025 10/09 A2990 RMK SC1 SLP126

CYHM;2008-10-09 12:00;CYHM 091200Z 22008KT 5SM BR SKC 10/09 A2991 RMK SLP129

CYHM;2008-10-09 13:00;CYHM 091300Z 23010KT 6SM BR FEW006 11/10 A2993 RMK SF2 SLP137

CYHM;2008-10-09 14:00;CYHM 091400Z 23011KT 10SM FEW012 13/11 A2994 RMK CF2 SLP140

CYHM;2008-10-09 15:00;CYHM 091500Z 24014KT 15SM FEW020 16/12 A2994 RMK CU1 SLP140

CYHM;2008-10-09 16:00;CYHM 091600Z 24017KT 15SM FEW025 18/12 A2993 RMK CU1 CU TR SLP135

CYHM;2008-10-09 17:00;CYHM 091700Z 24022KT 15SM FEW030 19/11 A2993 RMK CU2 SLP135

CYHM;2008-10-09 18:00;CYHM 091800Z 24018G23KT 15SM FEW036 FEW042 19/11 A2991 RMK CU2SC1 SLP130

CYHM;2008-10-09 19:00;CYHM 091900Z 26015KT 15SM FEW045 20/09 A2991 RMK CU2 SLP129

CYHM;2008-10-09 20:00;CYHM 092000Z 24017G24KT 15SM FEW050 20/07 A2992 RMK CU1 SLP133

CYHM;2008-10-09 21:00;CYHM 092100Z 25010KT 15SM FEW064 19/03 A2994 RMK CU1 SLP138

CYHM;2008-10-09 22:00;CYHM 092200Z 26010KT 15SM FEW062 18/03 A2995 RMK CU1 SLP144

CYHM;2008-10-09 23:00;CYHM 092300Z 26005KT 15SM SKC 15/03 A2999 RMK SLP155

CYHM;2008-10-10 00:00;CYHM 100000Z 23003KT 15SM SKC 13/03 A3001 RMK SLP165

CYHM;2008-10-10 01:00;CYHM 100100Z CCA 22004KT 15SM SKC 10/04 A3002 RMK SLP170

CYHM;2008-10-10 02:00;CYHM 100200Z 23002KT 15SM SKC 10/03 A3004 RMK SLP176

CYHM;2008-10-10 03:00;CYHM 100300Z 21002KT 15SM SKC 09/05 A3006 RMK SLP183

CYHM;2008-10-10 04:00;CYHM 100400Z 24003KT 15SM SKC 09/06 A3008 RMK SLP189

CYHM;2008-10-10 05:00;CYHM 100500Z 25004KT 15SM SKC 08/03 A3009 RMK SLP193

CYHM;2008-10-10 06:00;CYHM 100600Z 24005KT 15SM SKC 08/03 A3010 RMK SLP197

CYHM;2008-10-10 07:00;CYHM 100700Z 24005KT 15SM SKC 06/02 A3012 RMK SLP203

CYHM;2008-10-10 08:00;CYHM 100800Z 24004KT 15SM SKC 05/02 A3014 RMK SLP209

CYHM;2008-10-10 09:00;CYHM 100900Z 26004KT 15SM SKC 07/03 A3015 RMK SLP212

CYHM;2008-10-10 10:00;CYHM 101000Z 27004KT 15SM SKC 05/02 A3018 RMK SLP221

CYHM;2008-10-10 11:00;CYHM 101100Z 26005KT 15SM FEW012 04/02 A3020 RMK CF1 SLP228

CYHM;2008-10-10 12:00;CYHM 101200Z 26004KT 15SM FEW220 05/03 A3022 RMK CI1 CI TR SLP239

CYHM;2008-10-10 13:00;CYHM 101300Z 26002KT 15SM SKC 08/05 A3025 RMK SLP248

CYHM;2008-10-10 14:00;CYHM 101400Z 30004KT 15SM SKC 12/08 A3027 RMK SLP254

CYHM;2008-10-10 15:00;CYHM 101500Z 35005KT 15SM SKC 15/08 A3028 RMK SLP256

CYHM;2008-10-10 16:00;CYHM 101600Z 23002KT 15SM SKC 18/07 A3027 RMK SLP253

CYHM;2008-10-10 17:00;CYHM 101700Z 20003KT 15SM SKC 18/07 A3026 RMK SLP252

CYHM;2008-10-10 18:00;CYHM 101800Z 25007KT 15SM SKC 19/04 A3026 RMK SLP249

CYHM;2008-10-10 19:00;CYHM 101900Z 32005KT 15SM SKC 19/04 A3025 RMK SLP247

CYHM;2008-10-10 20:00;CYHM 102000Z 00000KT 15SM SKC 20/05 A3025 RMK SLP247

CYHM;2008-10-10 21:00;CYHM 102100Z 27005KT 15SM SKC 20/05 A3026 RMK SLP251

CYHM;2008-10-10 22:00;CYHM 102200Z 00000KT 15SM SKC 19/06 A3028 RMK SLP255

CYHM;2008-10-10 23:00;CYHM 102300Z 19005KT 15SM SKC 14/07 A3030 RMK SLP262

CYHM;2008-10-11 00:00;CYHM 110000Z 00000KT 15SM FEW210 13/07 A3031 RMK CI1 SLP269

CYHM;2008-10-11 01:00;CYHM 110100Z 23002KT 15SM FEW210 12/07 A3032 RMK CI1 SLP272

CYHM;2008-10-11 02:00;CYHM 110200Z 27002KT 15SM FEW210 11/07 A3033 RMK CI1 SLP276

CYHM;2008-10-11 03:00;CYHM 110300Z 26002KT 15SM FEW200 09/06 A3035 RMK CI1 SLP280

CYHM;2008-10-11 04:00;CYHM 110400Z 01002KT 15SM SKC 10/07 A3035 RMK SLP282

CYHM;2008-10-11 05:00;CYHM 110500Z 04005KT 15SM SKC 10/07 A3036 RMK SLP286

CYHM;2008-10-11 06:00;CYHM 110600Z 04007KT 15SM SKC 11/07 A3037 RMK SLP286

CYHM;2008-10-11 07:00;CYHM 110700Z 05007KT 15SM SKC 10/07 A3039 RMK SLP291

CYHM;2008-10-11 08:00;CYHM 110800Z 05008KT 15SM SKC 10/08 A3039 RMK SLP293

CYHM;2008-10-11 09:00;CYHM 110900Z 04008KT 15SM SKC 09/07 A3040 RMK SLP298

CYHM;2008-10-11 10:00;CYHM 111000Z 03005KT 15SM FEW210 08/07 A3042 RMK CI1 SLP305

CYHM;2008-10-11 11:00;CYHM 111100Z 03004KT 15SM SKC 08/07 A3043 RMK SLP308

CYHM;2008-10-11 12:00;CYHM 111200Z 03004KT 15SM FEW050 08/07 A3045 RMK SC1 SLP317

CYHM;2008-10-11 13:00;CYHM 111300Z 05003KT 15SM FEW060 11/09 A3046 RMK SC1 SLP321

CYHM;2008-10-11 13:25;CYHM 111325Z 07007KT 15SM FEW008 FEW060 RMK SF1SC1 SC TR

CYHM;2008-10-11 14:00;CYHM 111400Z 07006KT 15SM FEW007 FEW250 13/11 A3048 RMK CF2CI1 SLP326

CYHM;2008-10-11 15:00;CYHM 111500Z 07006KT 010V100 15SM FEW060 FEW250 15/11 A3048 RMK SC1CI1 SC TR SLP326

CYHM;2008-10-11 16:00;CYHM 111600Z CCA 06007KT 15SM BKN250 15/11 A3048 RMK CI3 SLP324

CYHM;2008-10-11 17:00;CYHM 111700Z 04004KT 360V090 15SM FEW250 16/12 A3047 RMK CI2 SLP322

CYHM;2008-10-11 18:00;CYHM 111800Z 07006KT 15SM SCT250 17/11 A3045 RMK CI2 SLP314

CYHM;2008-10-11 19:00;CYHM 111900Z 05005KT 15SM BKN250 18/12 A3043 RMK CI3 SLP309

CYHM;2008-10-11 20:00;CYHM 112000Z 05006KT 15SM BKN240 17/11 A3043 RMK CI4 SLP308

CYHM;2008-10-11 21:00;CYHM 112100Z 05007KT 15SM BKN230 16/11 A3043 RMK CI3 SLP308

CYHM;2008-10-11 22:00;CYHM 112200Z 05006KT 15SM BKN240 15/11 A3043 RMK CI2 SLP308

CYHM;2008-10-11 23:00;CYHM 112300Z 04007KT 15SM FEW220 13/09 A3043 RMK CI2 SLP309

CYHM;2008-10-12 00:00;CYHM 120000Z 04007KT 15SM FEW220 12/08 A3043 RMK CI1 SLP310

CYHM;2008-10-12 01:00;CYHM 120100Z 05007KT 15SM FEW220 12/10 A3043 RMK CI1 SLP311

CYHM;2008-10-12 02:00;CYHM 120200Z 04008KT 15SM FEW220 12/10 A3043 RMK CI1 CI TR SLP311

CYHM;2008-10-12 03:00;CYHM 120300Z 04008KT 15SM SKC 12/10 A3044 RMK SLP312

CYHM;2008-10-12 04:00;CYHM 120400Z 03008KT 15SM SKC 11/10 A3045 RMK SLP313

CYHM;2008-10-12 05:00;CYHM 120500Z 03008KT 15SM SKC 11/10 A3045 RMK SLP313

CYHM;2008-10-12 06:00;CYHM 120600Z 03009KT 15SM SKC 11/10 A3044 RMK SLP311

CYHM;2008-10-12 07:00;CYHM 120700Z 04006KT 15SM SKC 10/10 A3044 RMK SLP311

CYHM;2008-10-12 08:00;CYHM 120800Z 05005KT 15SM SKC 10/09 A3044 RMK SLP309

CYHM;2008-10-12 09:00;CYHM 120900Z 05004KT 15SM SKC 10/09 A3044 RMK SLP312

CYHM;2008-10-12 10:00;CYHM 121000Z 06005KT 15SM SKC 08/08 A3045 RMK SLP314

CYHM;2008-10-12 11:00;CYHM 121100Z 04004KT 15SM FEW240 09/08 A3045 RMK CI1 SLP315

CYHM;2008-10-12 12:00;CYHM 121200Z 04006KT 15SM FEW240 08/07 A3046 RMK CI1 SLP320

CYHM;2008-10-12 13:00;CYHM 121300Z 03006KT 15SM SKC 12/10 A3047 RMK SLP322

CYHM;2008-10-12 14:00;CYHM 121400Z 04004KT 15SM FEW250 14/12 A3049 RMK CI1 SLP328

CYHM;2008-10-12 15:00;CYHM 121500Z 07003KT 15SM SKC 16/13 A3048 RMK SLP325

CYHM;2008-10-12 16:00;CYHM 121600Z 09002KT 15SM FEW250 19/13 A3047 RMK CI1 WND L/V SLP322

CYHM;2008-10-12 17:00;CYHM 121700Z 00000KT 15SM FEW250 20/13 A3046 RMK CI1 SLP318

CYHM;2008-10-12 18:00;CYHM 121800Z 00000KT 15SM FEW250 22/13 A3044 RMK CI0 SLP309

CYHM;2008-10-12 19:00;CYHM 121900Z 00000KT 15SM BKN250 23/13 A3042 RMK CI2 SLP303

CYHM;2008-10-12 20:00;CYHM 122000Z 18004KT 150V210 15SM FEW180 BKN250 24/13 A3041 RMK AC1CI2 AC TR CONTRAIL SLP300

CYHM;2008-10-12 21:00;CYHM 122100Z 18004KT 15SM BKN250 22/12 A3042 RMK CI3 SLP301

CYHM;2008-10-12 22:00;CYHM 122200Z 17005KT 15SM FEW180 BKN250 21/12 A3041 RMK AC1CI4 AC TR SLP299

CYHM;2008-10-12 23:00;CYHM 122300Z 00000KT 15SM FEW180 BKN250 17/13 A3041 RMK AC1CI3 AC TR SLP299

CYHM;2008-10-13 00:00;CYHM 130000Z 06002KT 15SM BKN250 14/12 A3042 RMK CI2 SLP305

CYHM;2008-10-13 01:00;CYHM 130100Z 00000KT 15SM BKN250 13/11 A3042 RMK CI2 SLP305

CYHM;2008-10-13 02:00;CYHM 130200Z 00000KT 15SM MIFG BKN250 12/11 A3041 RMK CI2 SLP302

CYHM;2008-10-13 03:00;CYHM 130300Z 00000KT 15SM MIFG SCT210 11/10 A3041 RMK CI3 SLP300

CYHM;2008-10-13 04:00;CYHM 130400Z 22003KT 15SM MIFG BKN200 12/11 A3040 RMK CI5 SLP297

CYHM;2008-10-13 05:00;CYHM 130500Z 23004KT 15SM MIFG BKN250 11/10 A3039 RMK CI3 SLP295

CYHM;2008-10-13 06:00;CYHM 130600Z 25005KT 15SM MIFG BKN250 10/09 A3039 RMK CI5 SLP292

CYHM;2008-10-13 07:00;CYHM 130700Z 26005KT 15SM MIFG BKN250 12/10 A3039 RMK CS6 HALO SLP291

CYHM;2008-10-13 08:00;CYHM 130800Z 27005KT 15SM BKN250 13/10 A3038 RMK CI3 SLP289

CYHM;2008-10-13 09:00;CYHM 130900Z 26005KT 15SM FEW100 FEW210 BKN250 13/09 A3037 RMK AC1CI2CI2 SLP285

CYHM;2008-10-13 10:00;CYHM 131000Z 26006KT 15SM FEW100 BKN250 13/09 A3038 RMK AC2CI4 SLP288

CYHM;2008-10-13 11:00;CYHM 131100Z 26004KT 15SM FEW100 SCT160 BKN240 13/09 A3039 RMK AC1AC2CI2 SLP290

CYHM;2008-10-13 12:00;CYHM 131200Z 25004KT 6SM BR FEW100 SCT140 BKN240 09/08 A3039 RMK AC1AC2CI2 SLP294

CYHM;2008-10-13 13:00;CYHM 131300Z 00000KT 10SM FEW090 SCT140 BKN230 13/10 A3040 RMK AC2AC2CI3 SLP298

CYHM;2008-10-13 14:00;CYHM 131400Z 24005KT 15SM FEW160 BKN240 14/11 A3039 RMK AC2CI3 SLP296

CYHM;2008-10-13 15:00;CYHM 131500Z 22005KT 15SM FEW160 BKN210 18/12 A3038 RMK AC2CI3 SLP291

CYHM;2008-10-13 16:00;CYHM 131600Z 20006KT 15SM FEW160 BKN210 20/13 A3038 RMK AC2CI3 SLP289

CYHM;2008-10-13 17:00;CYHM 131700Z 23006KT 15SM FEW140 FEW180 BKN210 23/14 A3036 RMK AC1AC2CI3 SLP283

CYHM;2008-10-13 18:00;CYHM 131800Z 23006KT 15SM FEW140 FEW180 BKN210 24/13 A3033 RMK AC1AC1CI4 SLP271

CYHM;2008-10-13 19:00;CYHM 131900Z 19006KT 15SM FEW100 FEW150 BKN220 24/15 A3030 RMK AC1AC1CI3 SLP263

CYHM;2008-10-13 20:00;CYHM 132000Z 19008KT 15SM FEW100 BKN220 24/15 A3028 RMK AC1CI5 AC TR SLP256

CYHM;2008-10-13 21:00;CYHM 132100Z 19007KT 15SM BKN220 21/15 A3027 RMK CI6 SLP251

CYHM;2008-10-13 22:00;CYHM 132200Z 19006KT 15SM BKN220 20/14 A3026 RMK CI5 SLP249

CYHM;2008-10-13 23:00;CYHM 132300Z 20005KT 15SM FEW120 BKN220 16/12 A3026 RMK AC1CI3 AC TR SLP249

CYHM;2008-10-14 00:00;CYHM 140000Z 20005KT 15SM SCT220 15/11 A3026 RMK CI2 SLP252

CYHM;2008-10-14 01:00;CYHM 140100Z 23005KT 15SM FEW200 15/10 A3025 RMK CI2 SLP246

CYHM;2008-10-14 02:00;CYHM 140200Z 24004KT 15SM SCT220 14/09 A3024 RMK CC2 SLP243

CYHM;2008-10-14 03:00;CYHM 140300Z 23003KT 15SM FEW220 13/09 A3023 RMK CC2 SLP237

CYHM;2008-10-14 04:00;CYHM 140400Z 24006KT 15SM FEW220 12/08 A3021 RMK CI1 SLP233

CYHM;2008-10-14 05:00;CYHM 140500Z 21006KT 15SM FEW220 11/08 A3021 RMK CI1 SLP231

CYHM;2008-10-14 06:00;CYHM 140600Z 21004KT 15SM SCT220 11/08 A3020 RMK CI1 CC ASOCTD SLP226

CYHM;2008-10-14 07:00;CYHM 140700Z CCA 20004KT 15SM FEW220 11/09 A3018 RMK CI1 CI TR SLP219

CYHM;2008-10-14 08:00;CYHM 140800Z 20004KT 15SM FEW220 12/10 A3016 RMK CI1 CI TR SLP213

CYHM;2008-10-14 09:00;CYHM 140900Z 21005KT 15SM BKN068 11/09 A3014 RMK AC6 SLP207

CYHM;2008-10-14 10:00;CYHM 141000Z 21006KT 15SM BKN070 14/12 A3013 RMK AC7 SLP204

CYHM;2008-10-14 11:00;CYHM 141100Z 21007KT 15SM BKN049 BKN067 15/13 A3010 RMK SC5AC2 SLP195

CYHM;2008-10-14 12:00;CYHM 141200Z 23010KT 15SM FEW060 BKN072 BKN180 16/13 A3011 RMK SC2AC3AC2 SLP197

CYHM;2008-10-14 13:00;CYHM 141300Z 24010KT 15SM FEW062 BKN075 18/14 A3010 RMK SC2AC6 SLP194

CYHM;2008-10-14 14:00;CYHM 141400Z 23014KT 15SM FEW045 BKN072 19/15 A3009 RMK SC2AC5 SLP190

CYHM;2008-10-14 15:00;CYHM 141500Z 26015G24KT 15SM FEW022 BKN028 BKN047 OVC080 21/15 A3009 RMK CU1SC4SC2AC2 SLP189

CYHM;2008-10-14 15:50;CYHM 141550Z 27018G28KT 10SM -SHRA BKN014 OVC028 RMK SC6SC2

CYHM;2008-10-14 16:00;CYHM 141600Z 28018G28KT 10SM -SHRA FEW012 OVC019 18/14 A3011 RMK SF2SC6 SLP198

CYHM;2008-10-14 16:08;CYHM 141608Z 28012KT 15SM FEW015 BKN024 RMK SC2SC5 TR CU ASOCTD

CYHM;2008-10-14 17:00;CYHM 141700Z 24018G24KT 15SM FEW024 SCT047 BKN058 BKN100 18/13 A3010 RMK CU1SC3SC2AC1 SLP193

CYHM;2008-10-14 18:00;CYHM 141800Z 29012KT 15SM FEW028 FEW058 SCT100 18/12 A3011 RMK CU1SC1AC1 SLP199

CYHM;2008-10-14 19:00;CYHM 141900Z 29008KT 15SM FEW032 FEW072 FEW250 19/11 A3011 RMK CU1AC1CI1 CU TR CONTRAILS SLP199

CYHM;2008-10-14 20:00;CYHM 142000Z 30009KT 15SM FEW034 FEW070 FEW250 19/09 A3013 RMK CU1AC1CI1 CU TR AC TR CONTRAILS SLP203

CYHM;2008-10-14 21:00;CYHM 142100Z 29013KT 15SM FEW070 FEW250 18/07 A3015 RMK AC1CI1 AC TR CONTRAILS SLP211

CYHM;2008-10-14 22:00;CYHM 142200Z 32007KT 15SM FEW070 BKN250 16/06 A3016 RMK AC1CI2 AC TR CONTRAILS SLP214

CYHM;2008-10-14 23:00;CYHM 142300Z 30005KT 15SM FEW100 FEW250 12/05 A3017 RMK AC1CI1 AC TR SLP218

CYHM;2008-10-15 00:00;CYHM 150000Z 32005KT 15SM FEW100 BKN250 12/04 A3019 RMK AC1CI2 SLP226

CYHM;2008-10-15 01:00;CYHM 150100Z 34007KT 15SM FEW120 SCT250 10/03 A3020 RMK AC2CI1 SLP227

CYHM;2008-10-15 02:00;CYHM 150200Z 00000KT 15SM FEW120 FEW250 08/03 A3020 RMK AC1CI1 AC TR SLP227

CYHM;2008-10-15 03:00;CYHM 150300Z 00000KT 15SM FEW250 07/03 A3020 RMK CI1 SLP229

CYHM;2008-10-15 04:00;CYHM 150400Z 28003KT 15SM SCT250 05/03 A3020 RMK CI3 SLP229

CYHM;2008-10-15 05:00;CYHM 150500Z 33003KT 15SM BKN250 07/03 A3019 RMK CI2 SLP225

CYHM;2008-10-15 06:00;CYHM 150600Z 12002KT 15SM BKN250 06/03 A3018 RMK CI4 SLP224

CYHM;2008-10-15 07:00;CYHM 150700Z 17002KT 15SM BKN250 05/03 A3018 RMK CI4 SLP222

CYHM;2008-10-15 08:00;CYHM 150800Z 00000KT 15SM BKN250 05/03 A3017 RMK CI3 SLP218

CYHM;2008-10-15 09:00;CYHM 150900Z 26002KT 15SM BKN250 04/02 A3017 RMK CI2 SLP220

CYHM;2008-10-15 10:00;CYHM 151000Z 27002KT 15SM BKN250 04/03 A3017 RMK CI2 SLP221

CYHM;2008-10-15 11:00;CYHM 151100Z 27002KT 15SM FEW100 SCT160 BKN220 04/02 A3018 RMK AC1AC2CI2 SLP223

CYHM;2008-10-15 12:00;CYHM 151200Z 00000KT 15SM FEW100 FEW180 BKN220 05/03 A3017 RMK AC1AC2CI2 SLP222

CYHM;2008-10-15 13:00;CYHM 151300Z 00000KT 15SM FEW100 BKN220 09/06 A3017 RMK AC1CI4 CONTRAIL SLP220

CYHM;2008-10-15 14:00;CYHM 151400Z 16002KT 15SM FEW120 SCT160 BKN210 12/07 A3016 RMK AC2AC2CI2 CONTRAIL SLP219

CYHM;2008-10-15 15:00;CYHM 151500Z 19006KT 15SM FEW081 SCT140 BKN210 14/08 A3014 RMK AC2AC2CI1 SLP211

CYHM;2008-10-15 16:00;CYHM 151600Z 22006KT 15SM FEW080 BKN190 BKN220 15/09 A3013 RMK AC2AC3CI2 SLP206

CYHM;2008-10-15 17:00;CYHM 151700Z 20008KT 15SM FEW085 BKN190 BKN220 17/08 A3009 RMK AC2AC2CI2 SLP194

CYHM;2008-10-15 18:00;CYHM 151800Z 19012KT 15SM SCT048 BKN120 BKN210 17/08 A3006 RMK SC4AC2CI1 SLP182

CYHM;2008-10-15 19:00;CYHM 151900Z 19008KT 15SM FEW044 SCT096 BKN200 18/09 A3004 RMK SC2AC1CI1 SLP177

CYHM;2008-10-15 20:00;CYHM 152000Z 19009KT 15SM SCT036 BKN084 BKN210 18/10 A3003 RMK SC3AC2CI1 SLP172

CYHM;2008-10-15 21:00;CYHM 152100Z 18010KT 15SM FEW036 BKN084 BKN120 17/11 A3000 RMK SC2AC2AC2 SLP162

CYHM;2008-10-15 22:00;CYHM 152200Z 20007KT 12SM -SHRA FEW036 OVC078 16/11 A2998 RMK SC1AC7 SLP157

CYHM;2008-10-15 22:50;CYHM 152250Z 21008KT 2 1/2SM -RA BR SCT032 OVC068 RMK SC3AC5

CYHM;2008-10-15 23:00;CYHM 152300Z 21008KT 2 1/2SM -RA BR SCT032 OVC068 14/12 A2997 RMK SC3AC5 SLP154

CYHM;2008-10-15 23:31;CYHM 152331Z 20005KT 10SM -RA FEW030 SCT068 OVC110 RMK SF1AC2AC5

CYHM;2008-10-16 00:00;CYHM 160000Z 24003KT 12SM -RA FEW062 BKN100 BKN170 14/13 A2997 RMK SC2AC3AC2 SLP152

CYHM;2008-10-16 01:00;CYHM 160100Z 19002KT 5SM BR FEW016 BKN028 OVC090 14/13 A2994 RMK SF2SC6AC1 SLP145

CYHM;2008-10-16 01:39;CYHM 160139Z 17003KT 2SM BR FEW005 BKN017 OVC040 RMK SF2SC6SC1

CYHM;2008-10-16 02:00;CYHM 160200Z 21002KT 3SM BR FEW007 BKN016 OVC030 14/13 A2994 RMK SF2SC6SC1 SLP142

CYHM;2008-10-16 03:00;CYHM 160300Z 00000KT 2SM -RA BR FEW010 OVC020 14/13 A2992 RMK FG1SF2SC6 SLP133

CYHM;2008-10-16 03:31;CYHM 160331Z 00000KT 2SM -RA BR OVC013 RMK FG1SC7

CYHM;2008-10-16 04:00;CYHM 160400Z 00000KT 2SM -RA BR BKN017 OVC056 14/13 A2989 RMK FG1SC6SC1 SLP122

CYHM;2008-10-16 04:38;CYHM 160438Z 00000KT 1 1/2SM -RA BR BKN004 OVC014 RMK FG2SF4SC2 VIS VRB 1 - 2

CYHM;2008-10-16 05:00;CYHM 160500Z 00000KT 2SM -RA BR OVC004 14/13 A2988 RMK FG1SF7 CIG RAG SLP121

CYHM;2008-10-16 05:40;CYHM 160540Z 00000KT 1 1/2SM -RA BR FEW006 OVC020 RMK FG2SF1SC6 VIS VRB 1 - 2

CYHM;2008-10-16 06:00;CYHM 160600Z 28002KT 2SM -RA BR OVC010 14/14 A2987 RMK FG1SC7 CIG RAG SLP116

CYHM;2008-10-16 06:36;CYHM 160636Z 28003KT 2SM -RA BR BKN006 OVC022 RMK FG1SF6SC2

CYHM;2008-10-16 07:00;CYHM 160700Z 30005KT 2SM -RA BR BKN002 OVC009 14/14 A2988 RMK FG1SF5SC2 SLP119

CYHM;2008-10-16 07:30;CYHM 160730Z 32005KT 4SM -RA BR SCT006 OVC030 RMK SF3SC5

CYHM;2008-10-16 08:00;CYHM 160800Z 33012KT 4SM -RA BR BKN006 OVC015 14/13 A2989 RMK SF6SC2 SLP122

CYHM;2008-10-16 09:00;CYHM 160900Z 34008KT 5SM -RA BR BKN006 OVC012 12/11 A2991 RMK SF5SC3 SLP128

CYHM;2008-10-16 10:00;CYHM 161000Z 32010KT 12SM -RA FEW006 FEW018 OVC047 11/10 A2995 RMK SF1SC2SC6 SLP143

CYHM;2008-10-16 10:43;CYHM 161043Z CCA 32007KT 15SM FEW010 BKN021 OVC052 RMK SF2SC4SC2 RERA

CYHM;2008-10-16 11:00;CYHM 161100Z 32007KT 15SM FEW010 SCT021 BKN053 11/10 A2997 RMK SF1SC3SC3 SLP150

CYHM;2008-10-16 12:00;CYHM 161200Z 32008KT 15SM FEW021 BKN034 BKN075 11/10 A3001 RMK SC2SC5AC1 SLP163

CYHM;2008-10-16 13:00;CYHM 161300Z 32004KT 15SM FEW025 FEW075 11/09 A3005 RMK SC1AC1 CU ASOCTD SLP178

CYHM;2008-10-16 14:00;CYHM 161400Z 32012KT 15SM FEW018 FEW025 11/08 A3007 RMK CU1SC1 SLP183

CYHM;2008-10-16 15:00;CYHM 161500Z 32010KT 15SM FEW025 BKN034 12/06 A3008 RMK CU2SC3 SLP190

CYHM;2008-10-16 16:00;CYHM 161600Z 33009KT 15SM BKN037 12/05 A3009 RMK SC7 CU ASOCTD SLP193

CYHM;2008-10-16 17:00;CYHM 161700Z 30012KT 15SM BKN042 13/05 A3009 RMK SC7 SLP192

CYHM;2008-10-16 18:00;CYHM 161800Z 32011KT 15SM BKN037 13/05 A3009 RMK SC7 SLP190

CYHM;2008-10-16 19:00;CYHM 161900Z 30011KT 15SM BKN037 13/05 A3010 RMK SC7 SLP193

CYHM;2008-10-16 20:00;CYHM 162000Z 30012KT 15SM BKN040 14/05 A3010 RMK SC7 SLP196

CYHM;2008-10-16 21:00;CYHM 162100Z 31009KT 15SM BKN040 12/04 A3012 RMK SC7 SLP203

CYHM;2008-10-16 22:00;CYHM 162200Z 32008KT 15SM BKN036 11/03 A3013 RMK SC7 SLP208

CYHM;2008-10-16 23:00;CYHM 162300Z 29004KT 15SM BKN042 10/03 A3014 RMK SC7 SLP211

CYHM;2008-10-17 00:00;CYHM 170000Z 29004KT 15SM BKN043 10/04 A3016 RMK SC7 SLP218

CYHM;2008-10-17 01:00;CYHM 170100Z 03006KT 15SM BKN042 10/04 A3019 RMK SC7 SLP226

CYHM;2008-10-17 02:00;CYHM 170200Z 33006KT 15SM FEW042 08/02 A3020 RMK SC1 SLP230

CYHM;2008-10-17 03:00;CYHM 170300Z 32005KT 15SM FEW045 07/02 A3021 RMK SC2 SLP235

CYHM;2008-10-17 04:00;CYHM 170400Z 32003KT 15SM BKN040 07/03 A3021 RMK SC7 SLP234

CYHM;2008-10-17 05:00;CYHM 170500Z 33005KT 15SM FEW038 06/02 A3020 RMK SC1 SLP232

CYHM;2008-10-17 06:00;CYHM 170600Z 33005KT 15SM BKN038 05/02 A3022 RMK SC6 SLP237

CYHM;2008-10-17 07:00;CYHM 170700Z 01004KT 15SM BKN038 06/03 A3023 RMK SC7 SLP241

CYHM;2008-10-17 08:00;CYHM 170800Z 01006KT 15SM BKN037 07/03 A3023 RMK SC7 SLP240

CYHM;2008-10-17 09:00;CYHM 170900Z 35005KT 15SM SCT032 06/02 A3023 RMK SC3 SLP244

CYHM;2008-10-17 10:00;CYHM 171000Z 35005KT 15SM FEW032 04/01 A3024 RMK SC1 SLP245

CYHM;2008-10-17 11:00;CYHM 171100Z 35004KT 15SM FEW032 FEW210 03/01 A3025 RMK SC1CI0 SLP249

CYHM;2008-10-17 12:00;CYHM 171200Z 34004KT 15SM FEW032 FEW210 03/00 A3026 RMK SC1CI1 SLP255

CYHM;2008-10-17 13:00;CYHM 171300Z 35006KT 15SM FEW032 FEW220 06/02 A3028 RMK SC1CI1 TR CU ASOCTD CONTRAIL SLP260

CYHM;2008-10-17 14:00;CYHM 171400Z 01006KT 15SM FEW030 SCT220 07/02 A3029 RMK CU1CI1 SLP262

CYHM;2008-10-17 15:00;CYHM 171500Z 04008KT 15SM FEW030 FEW220 08/01 A3028 RMK CU1CI1 SLP261

CYHM;2008-10-17 16:00;CYHM 171600Z 04011KT 15SM FEW030 FEW220 09/01 A3027 RMK CU1CI1 SLP256

CYHM;2008-10-17 17:00;CYHM 171700Z 05005KT 15SM FEW035 SCT220 10/01 A3026 RMK CU1CI2 SLP252

CYHM;2008-10-17 18:00;CYHM 171800Z 05002KT 15SM FEW035 FEW220 10/01 A3024 RMK CU1CI1 CU TR SLP245

CYHM;2008-10-17 19:00;CYHM 171900Z 05007KT 15SM FEW016 FEW030 FEW240 10/02 A3022 RMK CU1SC1CI1 TR CU CONTRAILS SLP240

CYHM;2008-10-17 20:00;CYHM 172000Z 02005KT 15SM FEW025 BKN250 10/01 A3021 RMK CU1CI5 SLP236

CYHM;2008-10-17 21:00;CYHM 172100Z 09005KT 15SM FEW025 SCT250 10/01 A3021 RMK CU1CI3 CONTRAILS SLP237

CYHM;2008-10-17 22:00;CYHM 172200Z 06004KT 15SM FEW150 BKN230 09/01 A3021 RMK AC2CI4 SLP236

CYHM;2008-10-17 23:00;CYHM 172300Z 00000KT 15SM FEW140 BKN210 07/01 A3022 RMK AC1CI3 SLP238

CYHM;2008-10-18 00:00;CYHM 180000Z 00000KT 15SM FEW200 05/01 A3023 RMK CI2 SLP244

CYHM;2008-10-18 01:00;CYHM 180100Z 00000KT 15SM SCT220 04/01 A3024 RMK CI2 SLP247

CYHM;2008-10-18 02:00;CYHM 180200Z 01006KT 15SM FEW210 05/M00 A3025 RMK CI2 SLP250

CYHM;2008-10-18 03:00;CYHM 180300Z 36006KT 15SM FEW210 04/M01 A3026 RMK CI2 SLP252

CYHM;2008-10-18 04:00;CYHM 180400Z 02006KT 15SM SCT220 05/M00 A3025 RMK CI2 SLP251

CYHM;2008-10-18 05:00;CYHM 180500Z 01005KT 15SM FEW210 04/M00 A3024 RMK CI2 SLP247

CYHM;2008-10-18 06:00;CYHM 180600Z 01006KT 15SM SCT210 04/M00 A3023 RMK CI2 SLP245

CYHM;2008-10-18 07:00;CYHM 180700Z 01005KT 15SM FEW030 BKN200 04/M00 A3024 RMK SC1CS4 HALO SLP247

CYHM;2008-10-18 08:00;CYHM 180800Z 35007KT 15SM FEW030 FEW150 BKN210 03/M00 A3024 RMK SC1AC1CI3 CS ASOCTD SLP248

CYHM;2008-10-18 09:00;CYHM 180900Z 06003KT 15SM FEW030 BKN210 04/00 A3026 RMK SC2CS4 CU ASOCTD HALO SLP252

CYHM;2008-10-18 10:00;CYHM 181000Z 00000KT 15SM FEW030 BKN220 02/M00 A3026 RMK SC1CS2 HALO SLP255

CYHM;2008-10-18 11:00;CYHM 181100Z 34005KT 15SM FEW030 BKN220 03/M01 A3028 RMK SC1CI2 SLP260

CYHM;2008-10-18 12:00;CYHM 181200Z 34005KT 15SM FEW030 FEW130 BKN230 03/M01 A3030 RMK SC1AC1CI1 SLP267

CYHM;2008-10-18 13:00;CYHM 181300Z 36006KT 15SM FEW030 BKN071 BKN250 06/00 A3032 RMK SC1AC4CI0 SLP276

CYHM;2008-10-18 14:00;CYHM 181400Z 01007KT 15SM FEW030 FEW070 FEW250 08/00 A3034 RMK SC1AC1CI1 SC TR SLP282

CYHM;2008-10-18 15:00;CYHM 181500Z 02007KT 15SM FEW036 FEW250 09/00 A3034 RMK SC1CI1 SLP282

CYHM;2008-10-18 16:00;CYHM 181600Z 01005KT 15SM FEW040 FEW250 10/00 A3034 RMK CU2CI1 CI TR SLP280

CYHM;2008-10-18 17:00;CYHM 181700Z 35006KT 15SM SCT045 10/M01 A3033 RMK CU3 SLP279

CYHM;2008-10-18 18:00;CYHM 181800Z 07007KT 010V110 15SM FEW048 11/M00 A3032 RMK CU2 SLP273

CYHM;2008-10-18 19:00;CYHM 181900Z 06006KT 030V100 15SM FEW045 11/M00 A3031 RMK SC2 CU ASOCTD SLP271

CYHM;2008-10-18 20:00;CYHM 182000Z 05005KT 15SM FEW045 11/M00 A3033 RMK SC2 CU ASOCTD SLP275

CYHM;2008-10-18 21:00;CYHM 182100Z 07005KT 030V100 15SM FEW045 10/M00 A3033 RMK SC1 SLP277

CYHM;2008-10-18 22:00;CYHM 182200Z 08006KT 15SM FEW045 08/00 A3033 RMK SC1 SLP279

CYHM;2008-10-18 23:00;CYHM 182300Z CCA 08004KT 15SM FEW045 06/M00 A3035 RMK SC1 SC TR SLP283

CYHM;2008-10-19 00:00;CYHM 190000Z 00000KT 15SM SKC 06/M00 A3036 RMK SLP290

CYHM;2008-10-19 01:00;CYHM 190100Z 00000KT 15SM SKC 05/M00 A3037 RMK SLP292

CYHM;2008-10-19 02:00;CYHM 190200Z 00000KT 15SM SKC 04/M00 A3038 RMK SLP294

CYHM;2008-10-19 03:00;CYHM 190300Z 00000KT 15SM FEW210 04/M01 A3039 RMK CI1 SLP297

CYHM;2008-10-19 04:00;CYHM 190400Z 00000KT 15SM FEW210 03/M01 A3039 RMK CI1 SLP298

CYHM;2008-10-19 05:00;CYHM 190500Z 00000KT 15SM FEW200 03/M01 A3039 RMK CI1 SLP296

CYHM;2008-10-19 06:00;CYHM 190600Z 00000KT 15SM FEW210 02/M02 A3039 RMK CI1 SLP296

CYHM;2008-10-19 07:00;CYHM 190700Z 00000KT 15SM FEW210 01/M02 A3039 RMK CI1 SLP298

CYHM;2008-10-19 08:00;CYHM 190800Z 00000KT 15SM FEW220 01/M02 A3040 RMK CI1 FROIN SLP300

CYHM;2008-10-19 09:00;CYHM 190900Z 00000KT 15SM FEW210 01/M02 A3040 RMK CI1 FROIN SLP302

CYHM;2008-10-19 10:00;CYHM 191000Z 00000KT 15SM FEW210 01/M03 A3040 RMK CI1 FROIN SLP303

CYHM;2008-10-19 11:00;CYHM 191100Z 00000KT 15SM FEW025 01/M03 A3042 RMK SC1 SLP308

CYHM;2008-10-19 12:00;CYHM 191200Z 00000KT 15SM FEW025 02/M03 A3042 RMK SC1 SLP310

CYHM;2008-10-19 13:00;CYHM 191300Z 00000KT 15SM FEW030 FEW250 04/M01 A3043 RMK SC1CI1 SLP314

CYHM;2008-10-19 14:00;CYHM 191400Z 00000KT 15SM FEW035 FEW250 09/01 A3044 RMK SC1CI0 SLP317

CYHM;2008-10-19 15:00;CYHM 191500Z 15006KT 15SM FEW040 FEW250 10/00 A3044 RMK SC1CI0 SLP314

CYHM;2008-10-19 16:00;CYHM 191600Z 15002KT 15SM FEW042 FEW250 11/00 A3043 RMK SC1CI1 SLP312

CYHM;2008-10-19 17:00;CYHM 191700Z CCA 17004KT 110V200 15SM FEW045 11/00 A3041 RMK SC1 SLP305

CYHM;2008-10-19 18:00;CYHM 191800Z 23004KT 120V290 15SM FEW045 FEW250 12/01 A3038 RMK SC1CI1 CI TR SLP295

CYHM;2008-10-19 19:00;CYHM 191900Z 18003KT 15SM FEW045 FEW100 FEW250 12/01 A3036 RMK SC2AC1CI1 AC TR CI TR WND L/V SLP288

CYHM;2008-10-19 20:00;CYHM 192000Z 17005KT 15SM FEW045 FEW100 FEW220 12/02 A3035 RMK SC1AC1CI1 CU ASOCTD AC TR SLP285

CYHM;2008-10-19 21:00;CYHM 192100Z 17008KT 140V200 15SM FEW050 FEW120 FEW250 11/02 A3035 RMK SC1AC1CI1 CONTRAIL SLP284

CYHM;2008-10-19 22:00;CYHM 192200Z 18005KT 15SM FEW120 FEW170 SCT250 09/01 A3033 RMK AC1AC1CI1 CONTRAIL SLP279

CYHM;2008-10-19 23:00;CYHM 192300Z 00000KT 15SM FEW120 FEW170 BKN250 07/00 A3032 RMK AC1AC1CI2 CONTRAIL SLP275

CYHM;2008-10-20 00:00;CYHM 200000Z 00000KT 15SM FEW120 FEW250 06/M00 A3032 RMK AC1CI1 AC TR SLP275

CYHM;2008-10-20 01:00;CYHM 200100Z 16004KT 15SM FEW120 FEW250 05/M01 A3030 RMK AC1CI1 CI TR SLP268

CYHM;2008-10-20 02:00;CYHM 200200Z 18002KT 15SM FEW140 05/M01 A3029 RMK AC2 SLP265

CYHM;2008-10-20 03:00;CYHM 200300Z 00000KT 15SM FEW150 FEW210 05/M01 A3028 RMK AC2CI1 SLP260

CYHM;2008-10-20 04:00;CYHM 200400Z 00000KT 15SM BKN130 05/M01 A3027 RMK AC6 SLP257

CYHM;2008-10-20 05:00;CYHM 200500Z 00000KT 15SM SCT130 BKN220 04/M00 A3027 RMK AC3CI2 SLP258

CYHM;2008-10-20 06:00;CYHM 200600Z 00000KT 15SM FEW130 BKN220 03/M00 A3028 RMK AC2CI2 SLP260

CYHM;2008-10-20 07:00;CYHM 200700Z 00000KT 15SM SCT130 BKN200 03/M01 A3026 RMK AC3CI2 SLP254

CYHM;2008-10-20 08:00;CYHM 200800Z 20002KT 15SM BKN150 BKN220 03/M00 A3024 RMK AC6CI1 SLP247

CYHM;2008-10-20 09:00;CYHM 200900Z 23002KT 15SM BKN160 03/00 A3024 RMK AC6 SLP246

CYHM;2008-10-20 10:00;CYHM 201000Z 22002KT 15SM BKN150 04/01 A3023 RMK AC6 SLP244

CYHM;2008-10-20 11:00;CYHM 201100Z 22003KT 15SM BKN120 BKN170 05/01 A3022 RMK AC6AC2 SLP240

CYHM;2008-10-20 12:00;CYHM 201200Z 19004KT 15SM BKN095 BKN150 06/03 A3020 RMK AC6AC2 SLP235

CYHM;2008-10-20 13:00;CYHM 201300Z 20002KT 15SM BKN140 OVC210 07/04 A3020 RMK AC5CI2 SLP235

CYHM;2008-10-20 14:00;CYHM 201400Z 21004KT 15SM BKN110 BKN210 09/05 A3019 RMK AC6CI2 SLP231

CYHM;2008-10-20 15:00;CYHM 201500Z 20012KT 15SM FEW040 BKN096 OVC150 12/05 A3017 RMK CU1AC6AC2 CU TR SLP220

CYHM;2008-10-20 16:00;CYHM 201600Z 22011KT 15SM FEW040 BKN110 BKN140 14/06 A3015 RMK CU1AC5AC2 CU TR SLP216

CYHM;2008-10-20 17:00;CYHM 201700Z 23012KT 15SM FEW044 SCT120 BKN160 BKN210 15/05 A3012 RMK CU1AC3AC2CI2 CU TR SLP206

CYHM;2008-10-20 18:00;CYHM 201800Z 22012KT 15SM FEW044 SCT085 BKN150 BKN210 15/06 A3009 RMK CU1AC3AC2CI2 CU TR SLP195

CYHM;2008-10-20 18:08;CYHM 201808Z 22013KT 15SM -SHRA FEW038 BKN082 BKN180 RMK CU1AC5AC2

CYHM;2008-10-20 18:50;CYHM 201850Z 21014G20KT 15SM VCSH FEW038 BKN072 BKN120 RMK CU1AC4AC2 CU TR

CYHM;2008-10-20 19:00;CYHM 201900Z 21014G20KT 15SM VCSH FEW038 BKN072 BKN120 15/06 A3008 RMK CU1AC4AC2 CU TR SLP190

CYHM;2008-10-20 20:00;CYHM 202000Z 22015KT 15SM FEW022 SCT076 BKN092 BKN140 15/07 A3007 RMK CU1AC2AC3AC1 CU TR SLP187

CYHM;2008-10-20 21:00;CYHM 202100Z 21013KT 15SM FEW058 BKN084 BKN130 14/06 A3005 RMK SC2AC4AC2 SLP180

CYHM;2008-10-20 22:00;CYHM 202200Z 22013KT 15SM BKN064 BKN086 BKN140 13/06 A3004 RMK SC6AC1AC1 SLP179

CYHM;2008-10-20 23:00;CYHM 202300Z 22010KT 15SM BKN052 OVC180 13/06 A3004 RMK SC6AC2 SLP177

CYHM;2008-10-21 00:00;CYHM 210000Z 23008KT 15SM -SHRA BKN054 OVC080 12/07 A3003 RMK SC5AC3 SLP175

CYHM;2008-10-21 01:00;CYHM 210100Z 26004KT 12SM -SHRA BKN048 OVC078 11/08 A3003 RMK SC6AC2 SLP174

CYHM;2008-10-21 02:00;CYHM 210200Z 26007KT 12SM -SHRA BKN050 OVC073 10/08 A3001 RMK SC5AC3 SLP167

CYHM;2008-10-21 03:00;CYHM 210300Z 23005KT 8SM -RA BKN046 OVC080 10/08 A2999 RMK SC7AC1 SLP159

CYHM;2008-10-21 04:00;CYHM 210400Z 23006KT 6SM -RA BR FEW022 BKN044 OVC062 10/09 A2997 RMK SF1SC5SC2 SLP151

CYHM;2008-10-21 05:00;CYHM 210500Z 24007KT 2 1/4SM -RA BR BKN006 OVC020 10/09 A2995 RMK SF7SC1 SLP147

CYHM;2008-10-21 06:00;CYHM 210600Z 29008KT 15SM -SHRA FEW006 BKN017 OVC032 09/07 A2995 RMK SF1SC5SC2 SLP144

CYHM;2008-10-21 07:00;CYHM 210700Z 28009KT 15SM -SHRA OVC052 09/06 A2994 RMK SC8 SLP141

CYHM;2008-10-21 08:00;CYHM 210800Z 27009KT 15SM FEW012 FEW052 BKN110 08/05 A2992 RMK SF1SC2AC5 SF TR SLP136

CYHM;2008-10-21 09:00;CYHM 210900Z 27012KT 15SM BKN018 OVC110 08/05 A2993 RMK SC7AC1 SLP139

CYHM;2008-10-21 10:00;CYHM 211000Z 27014G20KT 15SM FEW016 SCT110 06/03 A2996 RMK SF2AC2 SLP148

CYHM;2008-10-21 11:00;CYHM 211100Z 28012KT 15SM FEW025 04/01 A2998 RMK SC2 SLP154

CYHM;2008-10-21 12:00;CYHM 211200Z 29015G22KT 15SM BKN021 BKN032 04/01 A3000 RMK SC6SC2 CU ASOCTD SLP165

CYHM;2008-10-21 13:00;CYHM 211300Z 32016KT 15SM BKN027 BKN045 BKN072 04/00 A3002 RMK SC5SC2AC1 TR CU ASOCTD SLP172

CYHM;2008-10-21 14:00;CYHM 211400Z 30020G26KT 15SM SCT025 BKN030 BKN075 05/00 A3005 RMK SC4SC2AC1 SLP180

CYHM;2008-10-21 15:00;CYHM 211500Z 31020G26KT 15SM -SHRA BKN023 OVC038 06/01 A3006 RMK SC6SC2 SLP184

CYHM;2008-10-21 15:21;CYHM 211521Z CCA 32021G27KT 15SM SCT027 BKN036 BKN100 RMK SC4SC2AC1 RERA

CYHM;2008-10-21 16:00;CYHM 211600Z 32020G25KT 15SM SCT027 BKN037 BKN100 06/00 A3008 RMK SC4SC2AC1 SLP192

CYHM;2008-10-21 17:00;CYHM 211700Z 30020KT 15SM FEW024 BKN031 BKN120 06/M01 A3010 RMK CU1SC6AC1 SLP196

CYHM;2008-10-21 18:00;CYHM 211800Z 32020G26KT 15SM BKN030 OVC041 05/M01 A3012 RMK SC6SC2 SLP204

CYHM;2008-10-21 19:00;CYHM 211900Z 33015G24KT 15SM FEW026 BKN040 06/M00 A3013 RMK SF1SC7 SLP209

CYHM;2008-10-21 19:48;CYHM 211948Z 30010G16KT 15SM -SHRA BKN025 OVC040 RMK SC5SC3

CYHM;2008-10-21 20:00;CYHM 212000Z 31013G20KT 15SM -SHRA BKN024 OVC034 04/M00 A3016 RMK SC5SC3 SLP218

CYHM;2008-10-21 20:17;CYHM 212017Z 30015G21KT 15SM BKN023 OVC034 RMK SC5SC3

CYHM;2008-10-21 21:00;CYHM 212100Z 33014G20KT 15SM FEW022 BKN034 OVC078 04/M01 A3019 RMK SF1SC6AC1 SLP231

CYHM;2008-10-21 22:00;CYHM 212200Z 33015G21KT 15SM FEW022 BKN037 OVC100 04/M02 A3021 RMK SF2SC6AC1 SLP238

CYHM;2008-10-21 23:00;CYHM 212300Z 33015G22KT 15SM FEW028 BKN050 BKN100 03/M03 A3024 RMK SC2SC4AC1 SLP246

CYHM;2008-10-22 00:00;CYHM 220000Z 33015G21KT 15SM BKN024 OVC044 03/M02 A3025 RMK SC6SC2 SLP253

CYHM;2008-10-22 01:00;CYHM 220100Z 34014G20KT 15SM OVC021 03/M02 A3026 RMK SC8 SLP257

CYHM;2008-10-22 02:00;CYHM 220200Z 35014G20KT 15SM OVC026 03/M03 A3028 RMK SC8 SLP263

CYHM;2008-10-22 03:00;CYHM 220300Z 04010KT 15SM OVC023 03/M02 A3030 RMK SC8 SLP267

CYHM;2008-10-22 04:00;CYHM 220400Z 01012KT 15SM OVC018 02/M03 A3030 RMK SC8 SLP270

CYHM;2008-10-22 05:00;CYHM 220500Z 01013KT 15SM OVC016 01/M03 A3031 RMK SC8 SLP273

CYHM;2008-10-22 06:00;CYHM 220600Z 03008KT 15SM BKN022 01/M04 A3032 RMK SC7 SLP277

CYHM;2008-10-22 07:00;CYHM 220700Z 33005KT 15SM BKN028 00/M04 A3034 RMK SC7 SLP284

CYHM;2008-10-22 08:00;CYHM 220800Z 35004KT 15SM FEW030 M01/M05 A3035 RMK SC2 SLP287

CYHM;2008-10-22 09:00;CYHM 220900Z 35006KT 15SM FEW018 FEW030 M02/M05 A3036 RMK CF1SC1 CF TR SLP292

CYHM;2008-10-22 10:00;CYHM 221000Z 36004KT 15SM FEW020 FEW032 M03/M06 A3039 RMK CF1SC1 CF TR SLP299

CYHM;2008-10-22 11:00;CYHM 221100Z 02006KT 15SM FEW020 SCT220 M02/M05 A3040 RMK SC1CI1 TR CU ASOCTD SLP303

CYHM;2008-10-22 12:00;CYHM 221200Z 02007KT 15SM FEW025 M01/M05 A3042 RMK SC1 SLP310

CYHM;2008-10-22 13:00;CYHM 221300Z 03008KT 15SM FEW025 M00/M05 A3045 RMK SC1 CU ASOCTD SLP321

CYHM;2008-10-22 14:00;CYHM 221400Z 02015G20KT 15SM FEW018 FEW030 00/M05 A3046 RMK CU1SC1 SLP324

CYHM;2008-10-22 15:00;CYHM 221500Z 03010KT 15SM FEW025 SCT040 01/M05 A3048 RMK SC2SC1 SLP332

CYHM;2008-10-22 16:00;CYHM 221600Z 02008KT 15SM FEW030 02/M04 A3051 RMK SC2 CU ASOCTD SLP340

CYHM;2008-10-22 17:00;CYHM 221700Z 03012KT 15SM FEW022 FEW030 03/M03 A3051 RMK CU1SC1 CU ASOCTD SLP340

CYHM;2008-10-22 18:00;CYHM 221800Z 05007KT 15SM FEW030 03/M04 A3050 RMK SC1 TR CU ASOCTD SLP337

CYHM;2008-10-22 19:00;CYHM 221900Z 04006KT 15SM FEW024 FEW250 05/M03 A3049 RMK SC1CI1 CI TR SLP336

CYHM;2008-10-22 20:00;CYHM 222000Z 06007KT 15SM FEW028 FEW180 04/M03 A3050 RMK SC1AC1 AC TR SLP339

CYHM;2008-10-22 21:00;CYHM 222100Z 06006KT 15SM FEW026 FEW180 04/M03 A3051 RMK SC1AC1 AC TR SLP341

CYHM;2008-10-22 22:00;CYHM 222200Z 07009KT 15SM FEW024 FEW180 03/M03 A3052 RMK SC1AC1 AC TR SLP347

CYHM;2008-10-22 23:00;CYHM 222300Z 06006KT 15SM FEW024 FEW190 01/M03 A3054 RMK SC2AC1 AC TR SLP352

CYHM;2008-10-23 00:00;CYHM 230000Z 07009KT 15SM BKN024 03/M01 A3055 RMK SC7 SLP354

CYHM;2008-10-23 01:00;CYHM 230100Z 10011KT 15SM OVC022 04/M01 A3056 RMK SC8 SLP359

CYHM;2008-10-23 02:00;CYHM 230200Z 11006KT 15SM OVC023 03/M01 A3058 RMK SC8 SLP366

CYHM;2008-10-23 03:00;CYHM 230300Z 13009KT 15SM OVC024 03/M01 A3059 RMK SC8 SLP368

CYHM;2008-10-23 04:00;CYHM 230400Z 13008KT 15SM OVC025 03/M01 A3059 RMK SC8 SLP370

CYHM;2008-10-23 05:00;CYHM 230500Z 11011KT 15SM OVC025 03/M01 A3060 RMK SC8 SLP372

CYHM;2008-10-23 06:00;CYHM 230600Z 08007KT 15SM OVC026 04/M02 A3061 RMK SC8 SLP373

CYHM;2008-10-23 07:00;CYHM 230700Z 09004KT 15SM OVC025 04/M01 A3060 RMK SC8 SLP371

CYHM;2008-10-23 08:00;CYHM 230800Z 11008KT 15SM OVC024 04/M01 A3060 RMK SC8 SLP371

CYHM;2008-10-23 09:00;CYHM 230900Z 12008KT 15SM BKN026 04/M01 A3060 RMK SC7 SLP370

CYHM;2008-10-23 10:00;CYHM 231000Z 11008KT 15SM BKN026 03/M01 A3060 RMK SC7 SLP372

CYHM;2008-10-23 11:00;CYHM 231100Z 11007KT 15SM BKN024 BKN160 02/M01 A3061 RMK SC5AC2 SLP373

CYHM;2008-10-23 12:00;CYHM 231200Z 11006KT 15SM BKN025 02/M01 A3062 RMK SC5 SLP380

CYHM;2008-10-23 13:00;CYHM 231300Z 11008KT 15SM BKN018 04/M00 A3063 RMK SC7 SLP382

CYHM;2008-10-23 14:00;CYHM 231400Z 08009KT 15SM BKN018 04/M01 A3064 RMK SC7 SLP386

CYHM;2008-10-23 15:00;CYHM 231500Z 11007KT 15SM SCT019 06/00 A3063 RMK SC4 SLP380

CYHM;2008-10-23 16:00;CYHM 231600Z 06008KT 15SM FEW020 SCT150 BKN220 07/01 A3062 RMK SC2AC1CI2 CONTRAIL SLP377

CYHM;2008-10-23 17:00;CYHM 231700Z 06010KT 15SM FEW022 BKN220 07/02 A3060 RMK SC2CI2 CONTRAIL SLP371

CYHM;2008-10-23 18:00;CYHM 231800Z 07009KT 15SM FEW022 BKN220 08/02 A3058 RMK SC2CI2 CU ASOCTD CONTRAIL SLP364

CYHM;2008-10-23 19:00;CYHM 231900Z 05012KT 15SM FEW022 FEW220 08/02 A3057 RMK SC1CI1 SLP359

CYHM;2008-10-23 20:00;CYHM 232000Z 05013KT 15SM FEW022 FEW220 08/03 A3054 RMK SC1CI1 CI TR SLP349

CYHM;2008-10-23 21:00;CYHM 232100Z 05013KT 010V090 15SM FEW020 FEW220 08/03 A3051 RMK SC1CI1 CI TR SLP339

CYHM;2008-10-23 22:00;CYHM 232200Z 04007KT 15SM FEW020 07/03 A3052 RMK SC1 SLP342

CYHM;2008-10-23 23:00;CYHM 232300Z 04010KT 15SM FEW020 07/04 A3050 RMK SC1 SLP335

CYHM;2008-10-24 00:00;CYHM 240000Z 05010KT 15SM FEW020 07/04 A3048 RMK SC1 SLP331

CYHM;2008-10-24 01:00;CYHM 240100Z 06012KT 15SM FEW020 06/04 A3048 RMK SC1 SLP329

CYHM;2008-10-24 02:00;CYHM 240200Z 05010KT 15SM SKC 06/04 A3047 RMK SLP328

CYHM;2008-10-24 03:00;CYHM 240300Z 06011KT 15SM SKC 05/03 A3046 RMK SLP321

CYHM;2008-10-24 04:00;CYHM 240400Z 09008KT 15SM SKC 04/01 A3043 RMK SLP312

CYHM;2008-10-24 05:00;CYHM 240500Z 11004KT 15SM SKC 04/01 A3042 RMK SLP309

CYHM;2008-10-24 06:00;CYHM 240600Z 13004KT 15SM SKC 03/01 A3040 RMK SLP302

CYHM;2008-10-24 07:00;CYHM 240700Z 06005KT 15SM SKC 03/00 A3038 RMK SLP295

CYHM;2008-10-24 08:00;CYHM 240800Z 07006KT 15SM SKC 03/00 A3035 RMK SLP286

CYHM;2008-10-24 09:00;CYHM 240900Z 14004KT 15SM SKC 04/01 A3033 RMK SLP278

CYHM;2008-10-24 10:00;CYHM 241000Z 11003KT 15SM SKC 04/01 A3031 RMK SLP270

CYHM;2008-10-24 11:00;CYHM 241100Z 16006KT 15SM FEW230 04/01 A3030 RMK CI1 SLP269

CYHM;2008-10-24 12:00;CYHM 241200Z 12004KT 15SM FEW100 FEW160 BKN220 03/01 A3030 RMK AC1AC1CI2 CONTRAIL SLP269

CYHM;2008-10-24 13:00;CYHM 241300Z 06004KT 15SM FEW100 SCT160 BKN210 02/00 A3030 RMK AC1AC2CI3 CONTRAIL SLP266

CYHM;2008-10-24 14:00;CYHM 241400Z 06003KT 15SM FEW120 BKN170 OVC210 06/04 A3028 RMK AC2AS3CI2 SLP262

CYHM;2008-10-24 15:00;CYHM 241500Z 12004KT 15SM SCT120 OVC170 07/05 A3025 RMK AC4AS4 SLP250

CYHM;2008-10-24 16:00;CYHM 241600Z 16006KT 15SM FEW120 OVC170 09/06 A3024 RMK AC2AS6 SLP247

CYHM;2008-10-24 17:00;CYHM 241700Z 15006KT 15SM SCT140 OVC180 10/06 A3021 RMK AC3AS5 SLP236

CYHM;2008-10-24 18:00;CYHM 241800Z CCA 15008KT 15SM BKN160 OVC180 10/05 A3017 RMK AC6AC2 SLP221

CYHM;2008-10-24 19:00;CYHM 241900Z 15009KT 15SM BKN170 OVC250 11/05 A3015 RMK AC7CI1 SLP215

CYHM;2008-10-24 20:00;CYHM 242000Z 15005KT 15SM OVC130 11/05 A3013 RMK AC8 SLP209

CYHM;2008-10-24 21:00;CYHM 242100Z 13007KT 15SM OVC140 10/05 A3012 RMK AC8 SLP207

CYHM;2008-10-24 22:00;CYHM 242200Z 14006KT 15SM BKN061 BKN150 BKN240 10/05 A3011 RMK SC5AC2CI1 SLP204

CYHM;2008-10-24 23:00;CYHM 242300Z 17006KT 15SM SCT048 BKN160 11/05 A3012 RMK SC3AC4 SLP205

CYHM;2008-10-25 00:00;CYHM 250000Z 17007KT 15SM FEW035 OVC160 10/05 A3008 RMK SC2AC6 SLP192

CYHM;2008-10-25 01:00;CYHM 250100Z 18011KT 15SM FEW035 OVC100 11/05 A3006 RMK SC1AC7 SLP184

CYHM;2008-10-25 01:11;CYHM 250111Z 17011KT 12SM -SHRA FEW035 OVC085 RMK SC1AC7

CYHM;2008-10-25 02:00;CYHM 250200Z 16014KT 12SM -SHRA OVC100 10/06 A3003 RMK AC8 SLP174

CYHM;2008-10-25 03:00;CYHM 250300Z 17013KT 12SM -SHRA OVC055 11/07 A3004 RMK SC8 SLP177

CYHM;2008-10-25 04:00;CYHM 250400Z 17015G23KT 10SM -SHRA FEW012 OVC070 10/08 A3003 RMK SC2AC6 SLP174

CYHM;2008-10-25 05:00;CYHM 250500Z 17015G22KT 10SM -SHRA FEW010 OVC070 10/08 A3001 RMK CF2AC6 SLP166

CYHM;2008-10-25 06:00;CYHM 250600Z 17011KT 9SM -SHRA FEW010 OVC060 10/08 A2999 RMK CF1SC7 SLP159

CYHM;2008-10-25 07:00;CYHM 250700Z 16008KT 5SM -SHRA BR FEW010 OVC046 10/09 A2997 RMK CF2SC6 SLP152

CYHM;2008-10-25 07:32;CYHM 250732Z 16008KT 4SM -SHRA BR FEW003 OVC023 RMK CF2SC6

CYHM;2008-10-25 08:00;CYHM 250800Z 16009KT 4SM -SHRA BR FEW003 OVC024 10/09 A2993 RMK SF2SC6 SLP139

CYHM;2008-10-25 08:45;CYHM 250845Z 16009KT 5SM -SHRA BR SCT004 OVC009 RMK SF3SC5 CIG RAG

CYHM;2008-10-25 09:00;CYHM 250900Z 16010KT 5SM -RA BR OVC006 10/09 A2989 RMK SF8 CIG RAG SLP127

CYHM;2008-10-25 10:00;CYHM 251000Z 16008KT 6SM -RA BR FEW003 OVC011 10/09 A2988 RMK SF2SC6 SLP121

CYHM;2008-10-25 10:43;CYHM 251043Z 17006KT 5SM -RA BR BKN004 OVC010 RMK SF6SC2

CYHM;2008-10-25 11:00;CYHM 251100Z 18006KT 5SM -RA BR BKN003 OVC009 10/09 A2986 RMK SF6SC2 CIG RAG SLP115

CYHM;2008-10-25 12:00;CYHM 251200Z 20009KT 5SM -RA BR BKN004 OVC010 11/10 A2984 RMK SF6SC2 SLP108

CYHM;2008-10-25 12:39;CYHM 251239Z 19009KT 6SM -RA BR BKN006 OVC012 RMK SF6SC2

CYHM;2008-10-25 13:00;CYHM 251300Z 19009KT 10SM -RA BKN007 OVC013 11/10 A2983 RMK SF6SC2 SLP104

CYHM;2008-10-25 14:00;CYHM 251400Z 20011KT 2 1/2SM -RA BR BKN003 OVC013 11/10 A2982 RMK SF6SC2 SLP102

CYHM;2008-10-25 14:19;CYHM 251419Z 27008KT 4SM -RA BR SCT004 BKN014 OVC030 RMK SF3SC4SC1

CYHM;2008-10-25 15:00;CYHM 251500Z 25006KT 15SM -RA BKN014 OVC034 10/09 A2981 RMK SC6SC2 PCPN VRY LGT SLP098

CYHM;2008-10-25 15:50;CYHM 251550Z 23007KT 15SM FEW014 FEW030 FEW070 RMK SC1SC1AC1

CYHM;2008-10-25 16:00;CYHM 251600Z 22009KT 15SM FEW014 FEW030 SCT070 11/10 A2979 RMK SC1SC2AC1 SLP091

CYHM;2008-10-25 16:48;CYHM 251648Z 24011KT 15SM -SHRA BKN018 OVC032 RMK SC6SC2 CU ASOCTD

CYHM;2008-10-25 17:00;CYHM 251700Z 25010KT 15SM -SHRA BKN018 BKN032 11/09 A2978 RMK SC6SC1 CU ASOCTD VIS E 6 SLP090

CYHM;2008-10-25 17:25;CYHM 251725Z 22010KT 15SM FEW018 FEW028 BKN074 RMK CF2SC1AC5

CYHM;2008-10-25 18:00;CYHM 251800Z 21015G21KT 15SM SCT019 BKN075 12/09 A2975 RMK CU4AC3 SLP078

CYHM;2008-10-25 18:13;CYHM 251813Z 22016KT 12SM -SHRA SCT019 BKN030 BKN054 RMK CU3SC2SC2

CYHM;2008-10-25 19:00;CYHM 251900Z 22013KT 15SM FEW019 SCT030 BKN054 11/08 A2975 RMK CU2SC2SC2 SLP078

CYHM;2008-10-25 20:00;CYHM 252000Z 23017KT 15SM SCT022 SCT038 BKN200 11/04 A2974 RMK CU3SC1CC1 SLP075

CYHM;2008-10-25 21:00;CYHM 252100Z 23019G25KT 15SM FEW022 SCT035 SCT150 BKN200 10/04 A2975 RMK CU2SC2AC1CI2 SLP076

CYHM;2008-10-25 22:00;CYHM 252200Z 23016KT 15SM FEW022 BKN049 09/02 A2976 RMK CU2SC6 SLP081

CYHM;2008-10-25 23:00;CYHM 252300Z 23013KT 15SM FEW022 BKN049 09/03 A2977 RMK CU1SC7 CU TR SLP084

CYHM;2008-10-26 00:00;CYHM 260000Z 23012KT 15SM FEW048 08/02 A2978 RMK SC2 SLP087

CYHM;2008-10-26 01:00;CYHM 260100Z 22011KT 15SM SCT048 07/03 A2977 RMK SC3 SLP085

CYHM;2008-10-26 02:00;CYHM 260200Z 23012KT 15SM FEW035 BKN049 08/03 A2977 RMK SC1SC4 SLP085

CYHM;2008-10-26 03:00;CYHM 260300Z 23013KT 15SM FEW035 FEW050 07/03 A2977 RMK SC1SC1 SLP086

CYHM;2008-10-26 04:00;CYHM 260400Z 24009KT 15SM FEW050 06/02 A2978 RMK SC2 SLP087

CYHM;2008-10-26 05:00;CYHM 260500Z 23008KT 15SM FEW026 BKN044 06/02 A2977 RMK SC1SC4 SLP086

CYHM;2008-10-26 06:00;CYHM 260600Z 22010KT 15SM FEW037 05/02 A2977 RMK SC1 SLP084

CYHM;2008-10-26 07:00;CYHM 260700Z 21009KT 15SM OVC047 07/03 A2975 RMK SC8 SLP080

CYHM;2008-10-26 08:00;CYHM 260800Z 21012KT 15SM OVC040 08/04 A2973 RMK SC8 SLP073

CYHM;2008-10-26 09:00;CYHM 260900Z 20013KT 15SM FEW055 SCT140 08/04 A2971 RMK SC2AC2 SLP063

CYHM;2008-10-26 10:00;CYHM 261000Z 20012KT 15SM FEW050 FEW140 08/04 A2969 RMK SC1AC1 SLP058

CYHM;2008-10-26 11:00;CYHM 261100Z 20015KT 15SM FEW050 09/06 A2968 RMK SC1 SLP056

CYHM;2008-10-26 12:00;CYHM 261200Z 20016KT 15SM SCT023 OVC030 09/06 A2968 RMK SC3SC5 SLP054

CYHM;2008-10-26 13:00;CYHM 261300Z 20020KT 15SM OVC027 09/06 A2967 RMK SC8 SLP050

CYHM;2008-10-26 14:00;CYHM 261400Z 19016KT 15SM OVC026 10/06 A2965 RMK SC8 SLP045

CYHM;2008-10-26 15:00;CYHM 261500Z 20015KT 15SM OVC024 11/07 A2964 RMK SC8 SLP040

CYHM;2008-10-26 17:00;CYHM 261700Z 21019KT 15SM OVC019 11/07 A2962 RMK SC8 SLP035

CYHM;2008-10-26 17:52;CYHM 261752Z 21025G33KT 15SM -SHRA BKN019 OVC042 RMK SC7SC1

CYHM;2008-10-26 18:00;CYHM 261800Z 21022G27KT 15SM -SHRA BKN019 OVC042 11/08 A2961 RMK SC7SC1 SLP031

CYHM;2008-10-26 19:00;CYHM 261900Z 21019G25KT 7SM -SHRA SCT016 BKN032 OVC047 10/08 A2959 RMK CF3SC2SC2 SLP025

CYHM;2008-10-26 20:00;CYHM 262000Z 23017KT 12SM SCT019 BKN035 12/09 A2960 RMK CU4SC1 TCU ASOCTD SLP028

CYHM;2008-10-26 21:00;CYHM 262100Z 23017KT 15SM SCT022 BKN032 11/08 A2961 RMK CU4SC1 TCU ASOCTD SLP031

CYHM;2008-10-26 21:22;CYHM 262122Z 23014KT 10SM -TSRA SCT022TCU BKN030 RMK TCU3SC3 CB EMBD LTNG

CYHM;2008-10-26 21:38;CYHM 262138Z 24025G36KT 2 1/2SM TSRA OVC025 RMK SC8 CB EMBD

CYHM;2008-10-26 22:00;CYHM 262200Z 23018G25KT 7SM -TSRA FEW016 BKN028 08/03 A2966 RMK CF1SC6 CB EMBD LTNG SLP046

CYHM;2008-10-26 22:25;CYHM 262225Z 22013KT 12SM TS VCSH BKN028TCU BKN050 BKN075 RMK TCU5SC2AC1 CB EMBD E-SE LTNG E-SE

CYHM;2008-10-26 23:00;CYHM 262300Z 23011KT 15SM SCT028TCU BKN058 BKN110 08/04 A2965 RETS RMK TCU4SC1AC1 CB ASOCTD LTNG SLP044

CYHM;2008-10-27 00:00;CYHM 270000Z 21011KT 15SM FEW025TCU 07/04 A2968 RMK TCU2 LTNG DIST S SLP055

CYHM;2008-10-27 01:00;CYHM 270100Z 25006KT 15SM FEW040 07/02 A2971 RMK SC1 SLP064

CYHM;2008-10-27 02:00;CYHM 270200Z 23006KT 15SM FEW050 SCT110 05/01 A2972 RMK SC1AC3 SLP069

CYHM;2008-10-27 03:00;CYHM 270300Z 22006KT 15SM FEW060 FEW110 06/02 A2973 RMK SC2AC1 SLP072

CYHM;2008-10-27 04:00;CYHM 270400Z 22007KT 15SM BKN110 05/02 A2974 RMK AC6 SLP075

CYHM;2008-10-27 05:00;CYHM 270500Z 22009KT 15SM BKN130 05/02 A2974 RMK AC6 SLP076

CYHM;2008-10-27 06:00;CYHM 270600Z 23008KT 15SM FEW130 SCT250 06/01 A2975 RMK AC2CI1 SLP079

CYHM;2008-10-27 07:00;CYHM 270700Z 24009KT 15SM FEW170 SCT210 05/00 A2976 RMK AC1CI2 SLP082

CYHM;2008-10-27 08:00;CYHM 270800Z 24011KT 15SM FEW062 BKN110 05/00 A2977 RMK SC1AC3 SLP085

CYHM;2008-10-27 09:00;CYHM 270900Z 22009KT 15SM FEW062 FEW120 FEW210 03/M00 A2978 RMK SC1AC1CI1 TR SC SLP091

CYHM;2008-10-27 10:00;CYHM 271000Z 22008KT 15SM FEW200 02/M01 A2981 RMK CI2 SLP099

CYHM;2008-10-27 11:00;CYHM 271100Z 22007KT 15SM FEW060 SCT088 BKN210 02/M00 A2991 RMK SC1AC2CI1 SLP134

CYHM;2008-10-27 12:00;CYHM 271200Z 24014KT 15SM FEW045 SCT120 BKN210 03/00 A2984 RMK SC2AC2CI1 CU ASOCTD SLP111

CYHM;2008-10-27 13:00;CYHM 271300Z 24014KT 15SM BKN016 BKN040 04/01 A2987 RMK SC6SC2 CU ASOCTD SLP120

CYHM;2008-10-27 14:00;CYHM 271400Z 25013KT 15SM BKN014 04/01 A2989 RMK SC7 SLP127

CYHM;2008-10-27 15:00;CYHM 271500Z 25012KT 15SM SCT014 BKN030 06/03 A2991 RMK SC4SC3 SLP133

CYHM;2008-10-27 16:00;CYHM 271600Z 25010KT 15SM BKN015 OVC022 07/03 A2992 RMK SC6SC2 SLP137

CYHM;2008-10-27 17:00;CYHM 271700Z 24010KT 15SM BKN020 BKN027 08/03 A2990 RMK SC5SC2 CU ASOCTD SLP132

CYHM;2008-10-27 18:00;CYHM 271800Z 26007KT 15SM FEW016 BKN027 OVC038 08/03 A2991 RMK CU2SC4SC2 SLP135

CYHM;2008-10-27 19:00;CYHM 271900Z 26011KT 15SM FEW024 BKN034 BKN140 08/03 A2994 RMK SF2SC5AC1 AC TR SLP143

CYHM;2008-10-27 20:00;CYHM 272000Z 23008KT 15SM FEW024 BKN036 08/03 A2995 RMK SF2SC6 SLP147

CYHM;2008-10-27 21:00;CYHM 272100Z 27011KT 15SM FEW026 BKN044 BKN120 07/02 A2996 RMK SF1SC4AC1 AC TR CU ASOCTD SLP153

CYHM;2008-10-27 22:00;CYHM 272200Z 28011KT 15SM FEW024 BKN056 07/02 A2998 RMK SC2SC4 SF ASOCTD SLP158

CYHM;2008-10-27 23:00;CYHM 272300Z 31008KT 15SM FEW024 FEW058 FEW078 05/02 A3000 RMK SF1SC2AC1 SF TR AC TR SLP164

CYHM;2008-10-28 00:00;CYHM 280000Z 31007KT 15SM FEW060 04/02 A3001 RMK SC2 SLP171

CYHM;2008-10-28 01:00;CYHM 280100Z 31006KT 15SM FEW044 04/01 A3002 RMK SC1 SC TR SLP172

CYHM;2008-10-28 02:00;CYHM 280200Z 32005KT 15SM FEW040 04/01 A3003 RMK SC1 SC TR SLP176

CYHM;2008-10-28 03:00;CYHM 280300Z 31007KT 15SM FEW040 FEW250 03/00 A3004 RMK SC1CI1 SC TR SLP178

CYHM;2008-10-28 04:00;CYHM 280400Z 32011KT 15SM FEW040 03/00 A3002 RMK SC2 SLP173

CYHM;2008-10-28 05:00;CYHM 280500Z 32011KT 15SM FEW034 03/00 A3001 RMK SC1 SLP170

CYHM;2008-10-28 06:00;CYHM 280600Z 34009KT 15SM FEW040 02/M00 A3000 RMK SC2 SLP166

CYHM;2008-10-28 07:00;CYHM 280700Z 34011KT 15SM SCT034 03/00 A2999 RMK SC4 SLP163

CYHM;2008-10-28 08:00;CYHM 280800Z 33007KT 15SM BKN038 03/01 A2999 RMK SC6 SLP163

CYHM;2008-10-28 09:00;CYHM 280900Z 34007KT 15SM SCT018 BKN038 03/01 A3000 RMK SC4SC2 SLP166

CYHM;2008-10-28 10:00;CYHM 281000Z 36008KT 15SM FEW018 BKN028 03/M00 A3001 RMK SF1SC5 SLP167

CYHM;2008-10-28 11:00;CYHM 281100Z 33009KT 15SM FEW018 BKN025 BKN210 03/00 A3001 RMK SC2SC2CI1 SLP168

CYHM;2008-10-28 12:00;CYHM 281200Z CCA 34010KT 15SM SCT017 BKN025 BKN210 03/M01 A3001 RMK SC3SC2CI1 CU ASOCTD SLP169

CYHM;2008-10-28 13:00;CYHM 281300Z 35012KT 15SM FEW015 SCT025 BKN220 02/M02 A3001 RMK CF2SC2CI2 SLP168

CYHM;2008-10-28 14:00;CYHM 281400Z 33016G22KT 15SM SCT018 BKN040 BKN220 03/M02 A3000 RMK SC3SC2CI1 CU ASOCTD SLP165

CYHM;2008-10-28 15:00;CYHM 281500Z 33020G30KT 15SM SCT019 BKN028 BKN210 05/M02 A2997 RMK SC3SC2CI1 SLP157

CYHM;2008-10-28 16:00;CYHM 281600Z 35022G30KT 15SM SCT020 BKN033 05/M03 A2996 RMK SC4SC2 SLP153

CYHM;2008-10-28 17:00;CYHM 281700Z 34020G28KT 15SM BKN037 BKN042 04/M03 A2994 RMK SC6SC2 SLP145

CYHM;2008-10-28 18:00;CYHM 281800Z 33015G25KT 15SM FEW020 BKN030 BKN042 04/M03 A2991 RMK CU2SC4SC1 SLP137

CYHM;2008-10-28 19:00;CYHM 281900Z 31014G20KT 15SM BKN033 04/M03 A2989 RMK SC7 SLP129

CYHM;2008-10-28 20:00;CYHM 282000Z 30015G26KT 15SM BKN034 04/M04 A2987 RMK SC7 SLP124

CYHM;2008-10-28 21:00;CYHM 282100Z 31014G24KT 15SM BKN034 03/M04 A2986 RMK SC5 SLP121

CYHM;2008-10-28 22:00;CYHM 282200Z 31015G24KT 15SM BKN035 03/M04 A2986 RMK SC6 SLP120

CYHM;2008-10-28 23:00;CYHM 282300Z 30014G20KT 15SM BKN038 03/M04 A2985 RMK SC7 SLP118

CYHM;2008-10-29 00:00;CYHM 290000Z 31012G18KT 15SM BKN038 BKN140 03/M03 A2984 RMK SC6AC2 SLP113

CYHM;2008-10-29 01:00;CYHM 290100Z 31013G19KT 15SM FEW024 SCT047 BKN130 02/M03 A2983 RMK SF1SC3AC3 SLP108

CYHM;2008-10-29 02:00;CYHM 290200Z 31014G21KT 15SM BKN035 02/M03 A2982 RMK SC7 SLP105

CYHM;2008-10-29 03:00;CYHM 290300Z 29015G21KT 15SM SCT034 OVC110 02/M03 A2980 RMK SC4AC4 SLP100

CYHM;2008-10-29 04:00;CYHM 290400Z 28012KT 15SM BKN048 BKN110 02/M03 A2978 RMK SC5AC2 SLP091

CYHM;2008-10-29 05:00;CYHM 290500Z 29012G20KT 15SM OVC044 01/M03 A2976 RMK SC8 SLP086

CYHM;2008-10-29 06:00;CYHM 290600Z 29010KT 15SM SCT044 OVC078 01/M03 A2975 RMK SC3AC5 SLP082

CYHM;2008-10-29 07:00;CYHM 290700Z 28008KT 15SM FEW054 BKN160 00/M03 A2973 RMK SC1AC6 SLP075

CYHM;2008-10-29 08:00;CYHM 290800Z CCA 27010KT 15SM BKN093 BKN160 00/M04 A2972 RMK AC6AC1 SLP073

CYHM;2008-10-29 09:00;CYHM 290900Z 28008KT 15SM OVC095 00/M05 A2973 RMK AC8 SLP077

CYHM;2008-10-29 09:32;CYHM 290932Z 29013KT 15SM -SHSN BKN058 OVC098 RMK SC6AC2

CYHM;2008-10-29 10:00;CYHM 291000Z 30009KT 15SM BKN054 BKN130 00/M05 A2974 RMK SC6AC2 SLP080

CYHM;2008-10-29 10:55;CYHM 291055Z 33012KT 15SM -SHSN BKN053 BKN150 RMK SC6AC2

CYHM;2008-10-29 11:00;CYHM 291100Z 31010KT 15SM -SHSN BKN051 BKN120 00/M05 A2976 RMK SC6AC1 SLP087

CYHM;2008-10-29 12:00;CYHM 291200Z 32010KT 15SM -SHSN FEW015 BKN053 BKN110 M00/M06 A2978 RMK CF1SC5AC2 CU ASOCTD SLP093

CYHM;2008-10-29 13:00;CYHM 291300Z 30014KT 15SM -SHSN FEW020 SCT042 BKN150 M00/M06 A2981 RMK CU1SC3AC1 SLP102

CYHM;2008-10-29 13:02;CYHM 291302Z 30014KT 15SM FEW020 SCT042 BKN150 RMK CU1SC3AC1

CYHM;2008-10-29 14:00;CYHM 291400Z 31008KT 15SM FEW020 SCT045 BKN140 01/M05 A2983 RMK CU1SC2AC2 SLP110

CYHM;2008-10-29 15:00;CYHM 291500Z 33015G20KT 15SM FEW024 BKN038 BKN120 02/M07 A2984 RMK CU2SC4AC1 SLP115

CYHM;2008-10-29 16:00;CYHM 291600Z 35016KT 15SM FEW030 BKN041 BKN120 02/M07 A2987 RMK CU2SC5AC1 SLP122

CYHM;2008-10-29 17:00;CYHM 291700Z 32018G24KT 15SM FEW032 BKN041 BKN150 03/M07 A2988 RMK CU2SC4AC1 SLP127

CYHM;2008-10-29 18:00;CYHM 291800Z 30010G18KT 15SM BKN047 BKN120 03/M07 A2990 RMK SC6AC1 SLP132

CYHM;2008-10-29 19:00;CYHM 291900Z 29017G24KT 15SM BKN045 02/M07 A2991 RMK SC7 SLP136

CYHM;2008-10-29 20:00;CYHM 292000Z 29015KT 15SM BKN041 02/M06 A2994 RMK SC7 SLP146

CYHM;2008-10-29 21:00;CYHM 292100Z 30009KT 15SM -SHGS FEW030 BKN041 01/M06 A2997 RMK SC2SC5 SLP157

CYHM;2008-10-29 22:00;CYHM 292200Z 30008KT 15SM -SHGS FEW033 BKN040 01/M06 A3000 RMK SC2SC6 SLP169

CYHM;2008-10-29 23:00;CYHM 292300Z 30010KT 15SM BKN050 01/M06 A3003 RMK SC7 SLP179

CYHM;2008-10-30 00:00;CYHM 300000Z 31006KT 15SM BKN050 01/M06 A3007 RMK SC7 SLP191

CYHM;2008-10-30 01:00;CYHM 300100Z 28005KT 15SM BKN050 01/M06 A3009 RMK SC7 SLP199

CYHM;2008-10-30 02:00;CYHM 300200Z 25002KT 15SM BKN047 01/M05 A3011 RMK SC7 SLP205

CYHM;2008-10-30 03:00;CYHM 300300Z 00000KT 15SM FEW037 BKN041 01/M05 A3013 RMK SC1SC6 SLP213

CYHM;2008-10-30 04:00;CYHM 300400Z 00000KT 15SM FEW043 FEW200 M01/M05 A3015 RMK SC2CI1 SLP219

CYHM;2008-10-30 05:00;CYHM 300500Z 24004KT 15SM FEW043 FEW200 M02/M05 A3017 RMK SC1CI1 TR SC SLP224

CYHM;2008-10-30 06:00;CYHM 300600Z 25004KT 15SM FEW040 FEW210 M02/M06 A3018 RMK SC1CI1 SLP231

CYHM;2008-10-30 07:00;CYHM 300700Z 24005KT 15SM SCT037 BKN210 M03/M06 A3022 RMK SC3CI2 FROIN SLP242

CYHM;2008-10-30 08:00;CYHM 300800Z 23006KT 15SM FEW037 FEW210 M04/M07 A3023 RMK SC1CI1 FROIN TR SC SLP246

CYHM;2008-10-30 09:00;CYHM 300900Z 22004KT 15SM FEW036 FEW200 M04/M07 A3026 RMK SC1CI1 FROIN TR SC SLP259

CYHM;2008-10-30 10:00;CYHM 301000Z 23005KT 15SM FEW200 M04/M07 A3029 RMK CI1 FROIN SLP269

CYHM;2008-10-30 11:00;CYHM 301100Z 26004KT 15SM FEW040 FEW210 M04/M07 A3032 RMK SC1CI1 SC TR SLP278

CYHM;2008-10-30 12:00;CYHM 301200Z CCA 29004KT 15SM FEW060 FEW210 M04/M07 A3034 RMK SC1CI1 SC TR CONTRAIL SLP285

CYHM;2008-10-30 13:00;CYHM 301300Z 22003KT 15SM FEW220 M02/M05 A3036 RMK CI1 CI TR CONTRAIL SLP293

CYHM;2008-10-30 14:00;CYHM 301400Z 23004KT 15SM FEW220 01/M03 A3039 RMK CI1 CI TR SLP304

CYHM;2008-10-30 15:00;CYHM 301500Z 24008KT 15SM FEW210 03/M03 A3041 RMK CI1 SLP307

CYHM;2008-10-30 16:00;CYHM 301600Z 23012KT 15SM FEW030 FEW220 06/M01 A3041 RMK CU1CI1 CU TR CONTRAIL SLP306

CYHM;2008-10-30 17:00;CYHM 301700Z 26011KT 15SM FEW028 FEW220 08/M01 A3041 RMK CU1CI0 CU TR CONTRAIL SLP308

CYHM;2008-10-30 18:00;CYHM 301800Z 22012KT 15SM FEW030 FEW220 08/01 A3040 RMK CU1CI0 CI TR CONTRAIL SLP304

CYHM;2008-10-30 19:00;CYHM 301900Z 22013KT 15SM FEW030 FEW220 09/M01 A3039 RMK CU1CI0 CI TR CONTRAIL SLP302

CYHM;2008-10-30 20:00;CYHM 302000Z 22012KT 15SM FEW030 FEW250 09/M04 A3039 RMK CU1CI0 SLP301

CYHM;2008-10-30 21:00;CYHM 302100Z CCA 22010KT 15SM FEW090 FEW250 08/M05 A3039 RMK AC1CI1 AC TR CONTRAIL SLP299

CYHM;2008-10-30 22:00;CYHM 302200Z 22011KT 15SM FEW090 FEW250 07/M02 A3039 RMK AC1CI1 AC TR CONTRAIL SLP299

CYHM;2008-10-30 23:00;CYHM 302300Z 21007KT 15SM FEW250 04/M02 A3039 RMK CI1 SLP300

CYHM;2008-10-31 00:00;CYHM 310000Z 21010KT 15SM SKC 03/M00 A3039 RMK SLP301

CYHM;2008-10-31 01:00;CYHM 310100Z 21009KT 15SM FEW210 04/M00 A3038 RMK CI1 SLP298

CYHM;2008-10-31 02:00;CYHM 310200Z 21011KT 15SM FEW210 05/00 A3036 RMK CI1 SLP293

CYHM;2008-10-31 03:00;CYHM 310300Z 22008KT 15SM FEW210 04/00 A3036 RMK CI0 SLP288

CYHM;2008-10-31 04:00;CYHM 310400Z 23013KT 15SM SKC 06/01 A3034 RMK SLP284

CYHM;2008-10-31 05:00;CYHM 310500Z 23014KT 15SM SKC 07/01 A3035 RMK SLP285

CYHM;2008-10-31 06:00;CYHM 310600Z 32013KT 15SM SKC 07/02 A3034 RMK SLP279

CYHM;2008-10-31 07:00;CYHM 310700Z 22011KT 15SM FEW220 06/02 A3034 RMK CI1 SLP281

CYHM;2008-10-31 08:00;CYHM 310800Z 23010KT 15SM FEW230 06/02 A3035 RMK CI1 SLP282

CYHM;2008-10-31 09:00;CYHM 310900Z 23010KT 15SM FEW220 05/02 A3035 RMK CI1 SLP283

CYHM;2008-10-31 10:00;CYHM 311000Z 22008KT 15SM FEW220 04/01 A3035 RMK CI1 SLP283

CYHM;2008-10-31 11:00;CYHM 311100Z 25007KT 15SM FEW140 FEW210 05/02 A3033 RMK AC1CI1 SLP279

CYHM;2008-10-31 12:00;CYHM 311200Z 23008KT 15SM FEW140 SCT210 05/02 A3033 RMK AC1CI1 CONTRAIL SLP280

CYHM;2008-10-31 13:00;CYHM 311300Z 22009KT 15SM FEW220 07/04 A3033 RMK CI1 CONTRAIL SLP277

CYHM;2008-10-31 14:00;CYHM 311400Z 22014KT 15SM FEW220 11/05 A3030 RMK CI1 CI TR SLP268

CYHM;2008-10-31 15:00;CYHM 311500Z 23017KT 15SM FEW220 14/06 A3027 RMK CI1 CI TR SLP257

CYHM;2008-10-31 16:00;CYHM 311600Z 23018KT 15SM FEW240 15/06 A3026 RMK CI1 CI TR SLP252

CYHM;2008-10-31 17:00;CYHM 311700Z 25020KT 15SM SKC 17/07 A3024 RMK SLP246

CYHM;2008-10-31 18:00;CYHM 311800Z 25016KT 15SM SKC 17/07 A3023 RMK SLP240

CYHM;2008-10-31 19:00;CYHM 311900Z 24016KT 15SM SKC 18/07 A3020 RMK CONTRAILS SLP229

CYHM;2008-10-31 20:00;CYHM 312000Z 23018KT 15SM FEW210 17/07 A3019 RMK CI1 CONTRAILS SLP226

CYHM;2008-10-31 21:00;CYHM 312100Z 22012G17KT 15SM FEW210 16/07 A3019 RMK CI1 SLP227

CYHM;2008-10-31 22:00;CYHM 312200Z 24012KT 15SM FEW170 15/06 A3020 RMK AC2 CONTRAILS SLP230

CYHM;2008-10-31 23:00;CYHM 312300Z 25009KT 15SM BKN230 13/06 A3022 RMK CI4 SLP236

CYHM;2008-11-01 01:00;CYHM 010100Z 28004KT 15SM BKN230 12/06 A3024 RMK CI4 SLP245

CYHM;2008-11-01 02:00;CYHM 010200Z 27004KT 15SM BKN230 11/06 A3025 RMK CI5 SLP249

CYHM;2008-11-01 03:00;CYHM 010300Z 29003KT 15SM SCT230 09/05 A3025 RMK CI2 SLP248

CYHM;2008-11-01 04:00;CYHM 010400Z 00000KT 15SM FEW230 09/06 A3025 RMK CI2 SLP246

CYHM;2008-11-01 05:00;CYHM 010500Z 00000KT 15SM FEW230 07/05 A3025 RMK CI2 SLP246

CYHM;2008-11-01 06:00;CYHM 010600Z 00000KT 15SM FEW190 FEW230 07/05 A3024 RMK AC1CI1 SLP245

CYHM;2008-11-01 07:00;CYHM 010700Z 34003KT 15SM BKN052 BKN190 07/05 A3025 RMK SC6AC2 SLP248

CYHM;2008-11-01 08:00;CYHM 010800Z 01005KT 15SM BKN053 BKN190 07/04 A3026 RMK SC6AC1 SLP249

CYHM;2008-11-01 09:00;CYHM 010900Z 03009KT 15SM FEW045 SCT190 08/05 A3027 RMK SC2AC2 SLP253

CYHM;2008-11-01 10:00;CYHM 011000Z 04007KT 15SM OVC015 07/04 A3029 RMK SC8 SLP259

CYHM;2008-11-01 11:00;CYHM 011100Z 02011KT 15SM BKN015 OVC190 06/02 A3030 RMK SC5AC3 SLP263

CYHM;2008-11-01 12:00;CYHM 011200Z 03010KT 15SM FEW016 BKN190 BKN250 05/01 A3033 RMK SC1AC4CI0 SLP274

CYHM;2008-11-01 13:00;CYHM 011300Z 03014KT 15SM BKN016 BKN190 06/01 A3035 RMK SC6AC1 SLP281

CYHM;2008-11-01 14:00;CYHM 011400Z 04018KT 15SM BKN018 06/M00 A3036 RMK SC6 SLP284

CYHM;2008-11-01 15:00;CYHM 011500Z 05013KT 360V080 15SM BKN020 06/M00 A3037 RMK SC6 SLP289

CYHM;2008-11-01 16:00;CYHM 011600Z 04012KT 15SM BKN020 07/00 A3037 RMK SC7 SLP291

CYHM;2008-11-01 17:00;CYHM 011700Z 03012KT 15SM BKN019 06/M00 A3037 RMK SC7 SLP290

CYHM;2008-11-01 18:00;CYHM 011800Z 05011KT 15SM BKN020 06/00 A3036 RMK SC7 SLP288

CYHM;2008-11-01 19:00;CYHM 011900Z 05008KT 15SM BKN021 06/M01 A3036 RMK SC6 SLP286

CYHM;2008-11-01 20:00;CYHM 012000Z 05005KT 15SM FEW021 06/M01 A3036 RMK SC2 SLP286

CYHM;2008-11-01 21:00;CYHM 012100Z 05002KT 15SM FEW021 FEW100 06/M01 A3036 RMK SC1AC1 SC TR AC TR SLP287

CYHM;2008-11-01 22:00;CYHM 012200Z 10002KT 15SM FEW250 05/M02 A3036 RMK CI1 CONTRAIL SLP288

CYHM;2008-11-01 23:00;CYHM 012300Z 12002KT 15SM FEW250 04/M02 A3037 RMK CI1 CONTRAIL SLP291

CYHM;2008-11-02 00:00;CYHM 020000Z 00000KT 15SM FEW220 02/M02 A3038 RMK CI1 CI TR SLP296

CYHM;2008-11-02 01:00;CYHM 020100Z 03002KT 15SM FEW200 01/M03 A3039 RMK CI1 SLP299

CYHM;2008-11-02 02:00;CYHM 020200Z 01005KT 15SM FEW200 01/M03 A3041 RMK CI1 CI TR SLP305

CYHM;2008-11-02 03:00;CYHM 020300Z 02007KT 15SM FEW230 01/M05 A3042 RMK CI1 SLP310

CYHM;2008-11-02 04:00;CYHM 020400Z 03007KT 15SM FEW210 01/M04 A3043 RMK CI2 SLP315

CYHM;2008-11-02 05:00;CYHM 020500Z 03008KT 15SM FEW210 00/M04 A3044 RMK CI2 SLP316

CYHM;2008-11-02 06:00;CYHM 020600Z 04006KT 15SM FEW210 00/M05 A3044 RMK CI1 SLP317

CYHM;2008-11-02 07:00;CYHM 020700Z 05008KT 15SM FEW220 M00/M05 A3045 RMK CI1 SLP320

CYHM;2008-11-02 08:00;CYHM 020800Z 04007KT 15SM FEW210 M01/M06 A3046 RMK CI1 FROIN SLP322

CYHM;2008-11-02 09:00;CYHM 020900Z 03007KT 15SM FEW210 M02/M06 A3046 RMK CI1 SLP323

CYHM;2008-11-02 10:00;CYHM 021000Z 03005KT 15SM FEW200 M01/M06 A3046 RMK CI1 FROIN SLP324

CYHM;2008-11-02 11:00;CYHM 021100Z 03006KT 15SM FEW030 FEW210 M01/M05 A3046 RMK SC1CI0 FROIN SLP325

CYHM;2008-11-02 12:00;CYHM 021200Z 01004KT 15SM BKN026 BKN220 M00/M04 A3047 RMK SC6CI0 SLP329

CYHM;2008-11-02 13:00;CYHM 021300Z 09008KT 15SM FEW026 SCT250 01/M03 A3048 RMK SC1CI1 CONTRAILS SLP333

CYHM;2008-11-02 14:00;CYHM 021400Z 08009KT 15SM FEW030 BKN250 03/M02 A3049 RMK SC1CI2 CONTRAILS SLP336

CYHM;2008-11-02 15:00;CYHM 021500Z 09010KT 15SM FEW030 BKN240 05/M02 A3049 RMK SC1CI3 CONTRAILS SLP333

CYHM;2008-11-02 16:00;CYHM 021600Z 09009KT 15SM FEW032 BKN250 06/M02 A3048 RMK SC1CI2 CONTRAILS SLP331

CYHM;2008-11-02 17:00;CYHM 021700Z 08011KT 040V130 15SM FEW035 BKN250 06/M03 A3045 RMK SC1CI2 CONTRAILS SLP321

CYHM;2008-11-02 18:00;CYHM 021800Z 05012KT 010V090 15SM FEW035 BKN250 06/M01 A3043 RMK SC1CI2 CONTRAILS SLP313

CYHM;2008-11-02 19:00;CYHM 021900Z 04013KT 15SM FEW035 BKN250 06/M02 A3040 RMK SC1CI2 CONTRAILS SLP304

CYHM;2008-11-02 20:00;CYHM 022000Z 06012KT 15SM FEW030 BKN250 06/M01 A3039 RMK SC1CI2 SC TR CONTRAILS SLP301

CYHM;2008-11-02 21:00;CYHM 022100Z 05012KT 15SM FEW030 BKN250 06/M01 A3037 RMK SC1CI2 SC TR SLP294

CYHM;2008-11-02 22:00;CYHM 022200Z 05011KT 15SM FEW030 FEW180 BKN250 05/M00 A3036 RMK SC1AC1CI2 SC TR SLP291

CYHM;2008-11-02 23:00;CYHM 022300Z 05009KT 15SM FEW180 BKN200 05/00 A3036 RMK AC1CI2 SLP289

CYHM;2008-11-03 00:00;CYHM 030000Z 05008KT 15SM FEW160 BKN200 05/01 A3034 RMK AC2CI2 SLP282

CYHM;2008-11-03 01:00;CYHM 030100Z 05008KT 15SM FEW053 FEW150 BKN210 05/01 A3032 RMK SC2AC1CI1 SLP275

CYHM;2008-11-03 02:00;CYHM 030200Z 05008KT 15SM BKN047 BKN200 06/01 A3030 RMK SC6CI1 SLP269

CYHM;2008-11-03 03:00;CYHM 030300Z 05006KT 15SM BKN052 BKN100 BKN210 05/00 A3029 RMK SC5AC2CI1 SLP263

CYHM;2008-11-03 04:00;CYHM 030400Z 05005KT 15SM FEW034 SCT055 OVC120 06/01 A3026 RMK CF1SC3AC4 SLP256

CYHM;2008-11-03 05:00;CYHM 030500Z 00000KT 15SM FEW055 FEW120 SCT200 04/M00 A3026 RMK SC1AC1CI1 SLP255

CYHM;2008-11-03 06:00;CYHM 030600Z 09002KT 15SM OVC090 04/M00 A3025 RMK AC8 SLP252

CYHM;2008-11-03 07:00;CYHM 030700Z 17005KT 15SM FEW058 BKN093 06/02 A3025 RMK SC2AC6 SLP251

CYHM;2008-11-03 08:00;CYHM 030800Z 18006KT 15SM FEW047 OVC065 07/04 A3025 RMK SC1SC7 SLP250

CYHM;2008-11-03 08:45;CYHM 030845Z 30005KT 8SM -RA OVC040 RMK SC8

CYHM;2008-11-03 09:00;CYHM 030900Z 00000KT 7SM RA FEW030 OVC039 07/04 A3026 RMK CF1SC7 SLP255

CYHM;2008-11-03 10:00;CYHM 031000Z 20004KT 7SM RA FEW023 OVC045 07/05 A3026 RMK CF2SC6 SLP254

CYHM;2008-11-03 11:00;CYHM 031100Z 20007KT 5SM -RA BR SCT035 OVC071 08/06 A3027 RERA RMK SC3AC5 SLP256

CYHM;2008-11-03 11:38;CYHM 031138Z CCA 17006KT 4SM BR BKN030 OVC072 RMK SC5AC3 RERA

CYHM;2008-11-03 12:00;CYHM 031200Z 19006KT 6SM BR SCT024 BKN041 OVC082 08/07 A3027 RMK SC4SC2AC2 SLP258

CYHM;2008-11-03 12:53;CYHM 031253Z 21007KT 4SM -SHRA BR SCT030 BKN054 OVC072 RMK SC4SC2AC2

CYHM;2008-11-03 13:00;CYHM 031300Z 22006KT 3SM -SHRA BR SCT030 BKN048 OVC086 09/08 A3027 RMK SC3SC3AC2 SLP258

CYHM;2008-11-03 13:32;CYHM 031332Z 22007KT 5SM BR SCT017 BKN030 BKN085 RMK SC3SC2AC2

CYHM;2008-11-03 14:00;CYHM 031400Z 20008KT 6SM -SHRA SCT030 BKN042 BKN072 11/09 A3027 RMK SC4SC2AC2 SLP258

CYHM;2008-11-03 15:00;CYHM 031500Z 20012KT 6SM -SHRA SCT030 OVC071 12/09 A3028 RMK SC4AC4 SLP258

CYHM;2008-11-03 15:27;CYHM 031527Z 19008KT 7SM FEW018 SCT054 BKN091 RMK SC2SC2AC3

CYHM;2008-11-03 16:00;CYHM 031600Z 21012KT 8SM SCT023 BKN082 13/10 A3028 RMK SC4AC3 SLP258

CYHM;2008-11-03 17:00;CYHM 031700Z 22012KT 10SM FEW040 FEW084 SCT130 14/10 A3025 RMK SC1AC2AC1 SLP249

CYHM;2008-11-03 18:00;CYHM 031800Z 20014KT 15SM FEW120 15/10 A3023 RMK AC2 SLP243

CYHM;2008-11-03 19:00;CYHM 031900Z 22012KT 15SM FEW075 SCT210 16/11 A3022 RMK AC2CI1 SLP238

CYHM;2008-11-03 20:00;CYHM 032000Z 18010KT 15SM FEW024 FEW074 SCT200 16/10 A3021 RMK CU1AC1CI2 CU TR SLP236

CYHM;2008-11-03 21:00;CYHM 032100Z 19011KT 15SM FEW068 SCT220 15/10 A3022 RMK AC2CI1 SLP238

CYHM;2008-11-03 22:00;CYHM 032200Z CCA 20007KT 12SM BKN064 BKN220 13/10 A3023 RMK SC5CI1 CI TR SLP241

CYHM;2008-11-03 23:00;CYHM 032300Z 20008KT 15SM BKN064 12/09 A3025 RMK SC6 SLP247

CYHM;2008-11-04 00:00;CYHM 040000Z 22007KT 15SM SCT060 SCT220 11/08 A3026 RMK SC3CI1 CI TR SLP250

CYHM;2008-11-04 01:00;CYHM 040100Z 19005KT 15SM SCT064 SCT220 11/08 A3026 RMK SC4CI1 CI TR SLP250

CYHM;2008-11-04 02:00;CYHM 040200Z 18006KT 15SM FEW060 FEW220 11/08 A3025 RMK SC1CI1 SLP248

CYHM;2008-11-04 03:00;CYHM 040300Z 22006KT 12SM FEW220 09/07 A3025 RMK CI1 SLP248

CYHM;2008-11-04 04:00;CYHM 040400Z 23003KT 1 1/4SM BR FEW220 10/08 A3024 RMK CI1 SLP246

CYHM;2008-11-04 05:00;CYHM 040500Z 18006KT 8SM FEW220 10/08 A3025 RMK CI1 SLP248

CYHM;2008-11-04 06:00;CYHM 040600Z 18005KT 15SM FEW220 10/08 A3025 RMK CI1 CI TR SLP247

CYHM;2008-11-04 07:00;CYHM 040700Z 19005KT 15SM BKN110 10/08 A3026 RMK AC6 SLP250

CYHM;2008-11-04 08:00;CYHM 040800Z 19006KT 15SM SCT060 BKN110 10/08 A3026 RMK SC4AC3 SLP250

CYHM;2008-11-04 09:00;CYHM 040900Z 24005KT 15SM FEW060 SCT100 BKN220 10/08 A3026 RMK SC1AC4CI0 SC TR SLP251

CYHM;2008-11-04 10:00;CYHM 041000Z 22004KT 15SM BKN067 BKN100 10/08 A3026 RMK AC5AC1 SLP250

CYHM;2008-11-04 11:00;CYHM 041100Z 21004KT 15SM FEW058 SCT100 09/08 A3026 RMK SC2AC1 SLP251

CYHM;2008-11-04 12:00;CYHM 041200Z 22005KT 6SM BR FEW054 SCT069 BKN140 08/06 A3026 RMK SC1AC2AC1 SLP250

CYHM;2008-11-04 13:00;CYHM 041300Z 21004KT 5SM BR FEW210 09/07 A3026 RMK CI1 CI TR SLP252

CYHM;2008-11-04 14:00;CYHM 041400Z 19006KT 6SM HZ SKC 12/09 A3026 RMK SLP250

CYHM;2008-11-04 15:00;CYHM 041500Z 20007KT 10SM FEW240 14/10 A3025 RMK CI1 CI TR SLP247

CYHM;2008-11-04 16:00;CYHM 041600Z 18006KT 15SM FEW240 16/10 A3024 RMK CI1 SLP245

CYHM;2008-11-04 17:00;CYHM 041700Z 20008KT 15SM FEW240 18/10 A3022 RMK CI1 CI TR SLP238

CYHM;2008-11-04 18:00;CYHM 041800Z 19010KT 15SM FEW240 18/10 A3020 RMK CI1 CONTRAIL SLP229

CYHM;2008-11-04 19:00;CYHM 041900Z 20012KT 15SM SCT240 19/09 A3019 RMK CI2 CONTRAIL SLP224

CYHM;2008-11-04 20:00;CYHM 042000Z 19010KT 15SM SCT250 19/08 A3017 RMK CI2 CONTRAILS SLP220

CYHM;2008-11-04 21:00;CYHM 042100Z 19008KT 15SM SCT250 18/09 A3017 RMK CI1 SLP220

CYHM;2008-11-04 22:00;CYHM 042200Z 19007KT 15SM BKN250 16/07 A3017 RMK CI2 CONTRAILS SLP220

CYHM;2008-11-04 23:00;CYHM 042300Z 20005KT 15SM FEW070 FEW250 13/07 A3019 RMK AC1CI1 AC TR SLP224

CYHM;2008-11-05 00:00;CYHM 050000Z 20003KT 15SM FEW250 12/06 A3019 RMK CI1 SLP226

CYHM;2008-11-05 01:00;CYHM 050100Z 21003KT 15SM FEW250 11/06 A3018 RMK CI1 CI TR SLP224

CYHM;2008-11-05 02:00;CYHM 050200Z 21004KT 15SM FEW250 11/05 A3018 RMK CI1 CI TR SLP224

CYHM;2008-11-05 03:00;CYHM 050300Z 19004KT 15SM FEW250 09/04 A3018 RMK CI1 CI TR SLP222

CYHM;2008-11-05 04:00;CYHM 050400Z 19004KT 15SM FEW250 08/04 A3017 RMK CI1 CI TR SLP220

CYHM;2008-11-05 05:00;CYHM 050500Z 18004KT 15SM FEW080 08/05 A3017 RMK AC2 SLP218

CYHM;2008-11-05 06:00;CYHM 050600Z 20004KT 15SM FEW250 08/05 A3016 RMK CI1 CI TR SLP214

CYHM;2008-11-05 07:00;CYHM 050700Z 21006KT 15SM FEW250 08/05 A3016 RMK CI1 CI TR SLP215

CYHM;2008-11-05 08:00;CYHM 050800Z 20004KT 15SM FEW250 08/05 A3016 RMK CI1 CI TR SLP215

CYHM;2008-11-05 09:00;CYHM 050900Z 20003KT 15SM FEW250 08/06 A3016 RMK CI1 CI TR SLP214

CYHM;2008-11-05 10:00;CYHM 051000Z 19003KT 12SM FEW250 09/07 A3017 RMK CI1 SLP218

CYHM;2008-11-05 11:00;CYHM 051100Z 20003KT 10SM MIFG FEW250 08/06 A3017 RMK CI1 CI TR SLP218

CYHM;2008-11-05 11:30;CYHM 051130Z 20003KT 1SM BR FEW220 RMK CI1 CI TR VIS NW-N 3-6SM

CYHM;2008-11-05 11:44;CYHM 051144Z 20004KT 3/4SM BR FEW220 RMK CI1 CI TR

CYHM;2008-11-05 11:54;CYHM 051154Z 20004KT 1 1/2SM BR FEW220 RMK CI1

CYHM;2008-11-05 12:00;CYHM 051200Z 20005KT 1 1/2SM BR FEW220 08/06 A3017 RMK CI0 CI TR SLP222

CYHM;2008-11-05 13:00;CYHM 051300Z 20006KT 2 1/2SM BR SKC 08/07 A3019 RMK SLP226

CYHM;2008-11-05 13:54;CYHM 051354Z 21008KT 3SM BR SKC

CYHM;2008-11-05 14:00;CYHM 051400Z 23006KT 5SM HZ SKC 11/09 A3018 RMK SLP225

CYHM;2008-11-05 15:00;CYHM 051500Z 22008KT 10SM SKC 14/10 A3018 RMK SLP223

CYHM;2008-11-05 16:00;CYHM 051600Z 19008KT 15SM SKC 16/10 A3017 RMK SLP221

CYHM;2008-11-05 17:00;CYHM 051700Z 22008KT 15SM SKC 17/10 A3015 RMK SLP213

CYHM;2008-11-05 18:00;CYHM 051800Z 22008KT 15SM SKC 18/10 A3014 RMK SLP208

CYHM;2008-11-05 19:00;CYHM 051900Z 20007KT 15SM SKC 18/11 A3013 RMK SLP204

CYHM;2008-11-05 20:00;CYHM 052000Z 20008KT 15SM SKC 18/09 A3012 RMK SLP201

CYHM;2008-11-05 21:00;CYHM 052100Z 19004KT 15SM SKC 17/09 A3011 RMK SLP198

CYHM;2008-11-05 22:00;CYHM 052200Z 18005KT 15SM SKC 16/09 A3010 RMK SLP196

CYHM;2008-11-05 23:00;CYHM 052300Z 17002KT 15SM SKC 13/08 A3011 RMK SLP198

CYHM;2008-11-06 00:00;CYHM 060000Z 15002KT 15SM SKC 12/08 A3012 RMK SLP203

CYHM;2008-11-06 01:00;CYHM 060100Z 00000KT 15SM SKC 10/07 A3011 RMK SLP201

CYHM;2008-11-06 02:00;CYHM 060200Z 00000KT 15SM SKC 09/06 A3010 RMK SLP199

CYHM;2008-11-06 03:00;CYHM 060300Z 04004KT 15SM SKC 07/05 A3010 RMK SLP198

CYHM;2008-11-06 04:00;CYHM 060400Z 06004KT 1/2SM FG SCT200 08/06 A3010 RMK FG2CI1 SLP197

CYHM;2008-11-06 04:08;CYHM 060408Z 08004KT 1 1/2SM BR SKC RMK FG2 VIS VRB 1 - 2

CYHM;2008-11-06 04:42;CYHM 060442Z 06005KT 1/4SM FG SKC RMK FG4

CYHM;2008-11-06 05:00;CYHM 060500Z 04003KT 1/4SM FG SKC 07/04 A3010 RMK FG4 SLP198

CYHM;2008-11-06 05:04;CYHM 060504Z 04003KT 1SM BR SKC RMK FG2 VIS VRB 3/4 - 11/4

CYHM;2008-11-06 05:32;CYHM 060532Z 04005KT 1/2SM FG SKC RMK FG3

CYHM;2008-11-06 06:00;CYHM 060600Z 04004KT 3SM BR SKC 07/05 A3010 RMK SLP195

CYHM;2008-11-06 06:12;CYHM 060612Z 03004KT 3/4SM BR SKC RMK FG2 VIS VRB 1/2 - 1

CYHM;2008-11-06 07:00;CYHM 060700Z 04005KT 3/4SM BR SKC 07/05 A3010 RMK FG2 VIS VRB 1/2 - 1 SLP194

CYHM;2008-11-06 07:41;CYHM 060741Z 02004KT 1/4SM FG SKC RMK FG4

CYHM;2008-11-06 08:00;CYHM 060800Z 03004KT 0SM FG BKN004 06/05 A3009 RMK FG5SF1 SLP192

CYHM;2008-11-06 08:29;CYHM 060829Z 02004KT 0SM FG BKN002 RMK FG5SF2

CYHM;2008-11-06 09:00;CYHM 060900Z 03004KT 0SM FG BKN003 07/06 A3010 RMK FG5SF2 SLP194

CYHM;2008-11-06 10:00;CYHM 061000Z 05005KT 0SM FG VV002 07/06 A3010 RMK FG8 SLP196

CYHM;2008-11-06 11:00;CYHM 061100Z 05008KT 0SM FG VV004 07/05 A3010 RMK FG8 SLP197

CYHM;2008-11-06 11:53;CYHM 061153Z 04007KT 0SM FG VV001 RMK FG8

CYHM;2008-11-06 12:00;CYHM 061200Z 04007KT 0SM FG VV001 07/05 A3011 RMK FG8 SLP202

CYHM;2008-11-06 12:10;CYHM 061210Z 03006KT 0SM FG BKN001 RMK FG6SF1

CYHM;2008-11-06 13:00;CYHM 061300Z 05006KT 0SM FG BKN001 08/06 A3011 RMK FG4SF1 SLP202

CYHM;2008-11-06 13:47;CYHM 061347Z 04006KT 1/4SM FG SCT001 RMK FG2SF1

CYHM;2008-11-06 14:00;CYHM 061400Z 05008KT 1/2SM FG FEW002 FEW240 09/08 A3011 RMK SF2CI0 CI TR SLP202

CYHM;2008-11-06 14:10;CYHM 061410Z 04008KT 1 1/2SM BR FEW240 RMK CI1 CI TR

CYHM;2008-11-06 14:44;CYHM 061444Z 04006KT 2SM BR FEW240 RMK CI0 CI TR

CYHM;2008-11-06 15:00;CYHM 061500Z 04007KT 3SM BR FEW240 12/10 A3012 RMK CI1 CI TR SLP204

CYHM;2008-11-06 16:00;CYHM 061600Z 06007KT 5SM HZ FEW240 14/09 A3013 RMK CI1 CI TR SLP207

CYHM;2008-11-06 17:00;CYHM 061700Z 07008KT 6SM HZ FEW240 15/09 A3011 RMK CI1 CI TR SLP200

CYHM;2008-11-06 18:00;CYHM 061800Z 07008KT 10SM FEW240 16/09 A3009 RMK CI1 CI TR SLP193

CYHM;2008-11-06 19:00;CYHM 061900Z 05009KT 10SM FEW220 15/09 A3007 RMK CI1 CI TR SLP186

CYHM;2008-11-06 20:00;CYHM 062000Z 06009KT 10SM FEW220 14/09 A3006 RMK CI1 SLP183

CYHM;2008-11-06 21:00;CYHM 062100Z 05006KT 15SM FEW220 13/08 A3004 RMK CI1 SLP178

CYHM;2008-11-06 22:00;CYHM 062200Z 03007KT 6SM HZ FEW220 10/07 A3004 RMK CI1 SLP175

CYHM;2008-11-06 22:40;CYHM 062240Z 01007KT 3/8SM FG SKC RMK FG3

CYHM;2008-11-06 23:00;CYHM 062300Z 02007KT 3/4SM BR FEW220 08/07 A3005 RMK FG2CI1 SLP180

CYHM;2008-11-06 23:19;CYHM 062319Z 01007KT 4SM BR SKC

CYHM;2008-11-07 00:00;CYHM 070000Z 05008KT 10SM SKC 09/07 A3004 RMK SLP178

CYHM;2008-11-07 01:00;CYHM 070100Z 04006KT 12SM SKC 09/07 A3004 RMK SLP176

CYHM;2008-11-07 02:00;CYHM 070200Z 03007KT 12SM SKC 09/06 A3003 RMK SLP174

CYHM;2008-11-07 03:00;CYHM 070300Z 02007KT 12SM FEW240 09/06 A3002 RMK CI1 SLP171

CYHM;2008-11-07 04:00;CYHM 070400Z 05007KT 10SM FEW240 09/06 A3001 RMK CI1 SLP166

CYHM;2008-11-07 05:00;CYHM 070500Z 06009KT 12SM FEW240 09/06 A2999 RMK CI1 SLP159

CYHM;2008-11-07 06:00;CYHM 070600Z 04006KT 15SM FEW240 09/06 A2997 RMK CI1 SLP153

CYHM;2008-11-07 07:00;CYHM 070700Z 04007KT 15SM SKC 09/06 A2997 RMK SLP153

CYHM;2008-11-07 08:00;CYHM 070800Z 05006KT 10SM BKN055 09/06 A2996 RMK SC4 SLP149

CYHM;2008-11-07 09:00;CYHM 070900Z 05007KT 10SM FEW052 09/06 A2995 RMK SC1 SLP145

CYHM;2008-11-07 10:00;CYHM 071000Z 04007KT 9SM FEW052 08/06 A2994 RMK SC2 SLP141

CYHM;2008-11-07 11:00;CYHM 071100Z 04008KT 9SM FEW052 FEW250 08/06 A2993 RMK SC1CI1 SLP139

CYHM;2008-11-07 11:44;CYHM 071144Z 05006KT 3SM BR FEW055 FEW220 RMK SC1CI1

CYHM;2008-11-07 12:00;CYHM 071200Z CCA 06006KT 4SM HZ FEW055 FEW074 FEW220 08/06 A2993 RMK SC1AC1CI0 CI TR SLP139

CYHM;2008-11-07 13:00;CYHM 071300Z 06007KT 4SM HZ FEW075 FEW220 09/06 A2991 RMK AC1CI1 SLP135

CYHM;2008-11-07 14:00;CYHM 071400Z 05009KT 5SM HZ FEW090 FEW220 11/08 A2990 RMK AC1CI0 CI TR SLP131

CYHM;2008-11-07 15:00;CYHM 071500Z 06008KT 6SM HZ FEW110 FEW220 13/09 A2988 RMK AC2CI0 SLP123

CYHM;2008-11-07 16:00;CYHM 071600Z 05008KT 10SM FEW110 FEW220 13/09 A2986 RMK AC1CI1 SLP115

CYHM;2008-11-07 17:00;CYHM 071700Z 06006KT 10SM FEW120 FEW220 14/09 A2983 RMK AC1CI1 SLP106

CYHM;2008-11-07 18:00;CYHM 071800Z 06008KT 4SM HZ FEW160 BKN210 13/09 A2979 RMK AC1CI4 SLP092

CYHM;2008-11-07 19:00;CYHM 071900Z 06008KT 3SM HZ FEW180 BKN210 12/09 A2977 RMK AC2CI3 SLP085

CYHM;2008-11-07 20:00;CYHM 072000Z 04004KT 4SM HZ BKN130 BKN210 11/08 A2978 RMK AC6CI2 SLP086

CYHM;2008-11-07 21:00;CYHM 072100Z 05009KT 4SM HZ FEW077 BKN120 OVC230 10/08 A2975 RMK AC2AC5CI2 SLP079

CYHM;2008-11-07 22:00;CYHM 072200Z 04005KT 3SM -SHRA HZ FEW075 OVC110 10/07 A2973 RMK AC2AC6 SLP072

CYHM;2008-11-07 23:00;CYHM 072300Z 00000KT 2 1/2SM -SHRA HZ OVC073 10/08 A2975 RMK AC8 SLP078

CYHM;2008-11-08 00:00;CYHM 080000Z 05004KT 2SM -SHRA HZ OVC090 10/08 A2971 RMK HZ1AC7 SLP066

CYHM;2008-11-08 01:00;CYHM 080100Z 08007KT 1 1/2SM -SHRA HZ OVC040 10/08 A2968 RMK HZ2SC6 VIS VRB 1 - 2 SLP056

CYHM;2008-11-08 02:00;CYHM 080200Z 05006KT 2SM -SHRA HZ OVC060 10/08 A2964 RMK HZ1SC7 SLP042

CYHM;2008-11-08 02:51;CYHM 080251Z 05004KT 3/4SM -RA BR OVC004 RMK FG3SF5 VIS VRB 1/2 - 1

CYHM;2008-11-08 03:00;CYHM 080300Z CCA 27009G16KT 1 1/2SM -RA BR SCT004 OVC056 10/08 A2967 RMK FG2SF2SC4 VIS VRB 1 - 2 SLP049

CYHM;2008-11-08 04:00;CYHM 080400Z 00000KT 4SM -RA BR FEW029 OVC046 11/09 A2963 RMK SC2SC6 SLP038

CYHM;2008-11-08 04:19;CYHM 080419Z 25007KT 2SM -RA BR OVC005 RMK FG1SF7

CYHM;2008-11-08 04:45;CYHM 080445Z 26008KT 4SM -RA BR OVC007 RMK SF8 CIG RAG

CYHM;2008-11-08 05:00;CYHM 080500Z 26010KT 10SM -RA FEW007 OVC027 10/08 A2962 RMK SF2SC6 SLP035

CYHM;2008-11-08 06:00;CYHM 080600Z 25009KT 10SM -RA FEW007 OVC043 09/07 A2962 RMK SF2SC6 SLP034

CYHM;2008-11-08 07:00;CYHM 080700Z 21004KT 15SM -RA FEW007 OVC060 09/07 A2961 RMK SF1SC7 SLP028

CYHM;2008-11-08 08:00;CYHM 080800Z 18011KT 15SM BKN031 OVC080 09/07 A2961 RMK SC6AC2 SLP030

CYHM;2008-11-08 09:00;CYHM 080900Z 20009KT 15SM FEW014 SCT030 09/06 A2960 RMK CF2SC2 SLP027

CYHM;2008-11-08 10:00;CYHM 081000Z 24009KT 7SM FEW010 BKN028 09/06 A2962 RMK CF2SC6 SLP033

CYHM;2008-11-08 11:00;CYHM 081100Z 22011KT 15SM FEW020 06/03 A2962 RMK SC1 SLP034

CYHM;2008-11-08 12:00;CYHM 081200Z 26012KT 15SM BKN035 06/02 A2963 RMK SC7 SLP037

CYHM;2008-11-08 13:00;CYHM 081300Z 24012KT 15SM BKN031 BKN100 05/02 A2964 RMK SC6AC2 SLP041

CYHM;2008-11-08 14:00;CYHM 081400Z 24012KT 15SM OVC034 05/02 A2964 RMK SC8 SLP042

CYHM;2008-11-08 15:00;CYHM 081500Z 24008KT 15SM OVC037 05/02 A2963 RMK SC8 SLP039

CYHM;2008-11-08 16:00;CYHM 081600Z 21007KT 15SM BKN043 06/02 A2962 RMK SC6 SLP036

CYHM;2008-11-08 17:00;CYHM 081700Z 22011KT 15SM FEW032 BKN043 BKN250 07/03 A2960 RMK CU1SC6CI1 SLP028

CYHM;2008-11-08 18:00;CYHM 081800Z 20016KT 15SM SCT032 BKN039 BKN063 07/02 A2959 RMK SC3SC3SC1 SLP023

CYHM;2008-11-08 19:00;CYHM 081900Z 20013G21KT 15SM FEW034 OVC040 07/02 A2958 RMK CU2SC6 SLP020

CYHM;2008-11-08 19:10;CYHM 081910Z 21014G20KT 15SM -SHRA SCT031 OVC040 RMK CU3SC5

CYHM;2008-11-08 20:00;CYHM 082000Z 21015KT 15SM FEW022 BKN030 OVC045 06/04 A2959 RMK SC2SC3SC2 SLP024

CYHM;2008-11-08 20:09;CYHM 082009Z 21014KT 12SM -SHRA SCT021 OVC031 RMK SC4SC4

CYHM;2008-11-08 21:00;CYHM 082100Z 23013KT 10SM -SHRA SCT018 BKN028 OVC044 05/04 A2960 RMK CU3SC3SC2 SLP030

CYHM;2008-11-08 21:40;CYHM 082140Z 22011KT 15SM FEW018 BKN031 OVC049 RMK CF2SC4SC2

CYHM;2008-11-08 22:00;CYHM 082200Z 22009KT 15SM FEW018 SCT030 BKN054 05/04 A2961 RMK CF1SC3SC3 SLP031

CYHM;2008-11-08 23:00;CYHM 082300Z 20007KT 15SM FEW018 SCT030 BKN044 05/04 A2962 RMK CF1SC4SC3 CF TR SLP036

CYHM;2008-11-09 00:00;CYHM 090000Z CCA 22006KT 15SM FEW045 03/02 A2962 RMK SC2 SLP037

CYHM;2008-11-09 01:00;CYHM 090100Z 23009KT 15SM FEW045 03/M00 A2961 RMK SC1 SC TR SLP034

CYHM;2008-11-09 02:00;CYHM 090200Z 24008KT 15SM FEW060 02/M00 A2961 RMK SC2 SLP033

CYHM;2008-11-09 03:00;CYHM 090300Z 23012KT 15SM FEW060 FEW090 BKN110 03/M00 A2961 RMK SC1AC2AC5 SLP032

CYHM;2008-11-09 04:00;CYHM 090400Z 24012KT 15SM FEW056 BKN120 04/00 A2960 RMK SC2AC6 SLP029

CYHM;2008-11-09 05:00;CYHM 090500Z 24009KT 15SM BKN079 OVC120 04/01 A2959 RMK AC6AC2 SLP027

CYHM;2008-11-09 06:00;CYHM 090600Z 24012KT 15SM FEW055 BKN082 04/01 A2959 RMK SC2AC5 SLP024

CYHM;2008-11-09 07:00;CYHM 090700Z 24013KT 15SM FEW025 SCT050 BKN090 04/01 A2959 RMK CF2SC2AC4 SLP024

CYHM;2008-11-09 08:00;CYHM 090800Z 23012KT 15SM BKN025 OVC090 04/02 A2959 RMK SC6AC2 SLP027

CYHM;2008-11-09 09:00;CYHM 090900Z 24013KT 12SM BKN027 OVC075 04/02 A2960 RMK SC6AC2 SLP030

CYHM;2008-11-09 10:00;CYHM 091000Z 24013G20KT 15SM FEW016 BKN041 04/02 A2961 RMK CF1SC6 SLP033

CYHM;2008-11-09 11:00;CYHM 091100Z 25013KT 15SM FEW020 FEW210 03/02 A2962 RMK SC2CI1 SLP038

CYHM;2008-11-09 12:00;CYHM 091200Z 23011KT 15SM FEW020 FEW042 BKN068 02/01 A2965 RMK CU1SC2AC3 CU TR SLP047

CYHM;2008-11-09 13:00;CYHM 091300Z 22012KT 15SM FEW045 BKN066 03/01 A2968 RMK SC2AC6 SLP056

CYHM;2008-11-09 14:00;CYHM 091400Z 23010KT 15SM OVC064 04/02 A2968 RMK SC8 VIRGA SLP059

CYHM;2008-11-09 15:00;CYHM 091500Z 24010KT 15SM FEW015 BKN062 05/03 A2969 RMK CU1SC7 SLP061

CYHM;2008-11-09 16:00;CYHM 091600Z 24010KT 15SM FEW015 BKN064 06/03 A2969 RMK CU1SC6 SLP062

CYHM;2008-11-09 17:00;CYHM 091700Z 24012KT 15SM FEW022 BKN064 BKN090 07/02 A2970 RMK CU2SC4AC1 SLP063

CYHM;2008-11-09 18:00;CYHM 091800Z 25014KT 15SM -SHRA BKN033 OVC064 06/02 A2971 RMK SC5SC3 PCPN VRY LGT SLP066

CYHM;2008-11-09 19:00;CYHM 091900Z 25018KT 200V280 15SM -SHRA BKN018 OVC039 05/03 A2972 RMK SC5SC3 PCPN VRY LGT SLP071

CYHM;2008-11-09 20:00;CYHM 092000Z 25012G17KT 15SM SCT014 BKN026 OVC040 05/03 A2974 RMK CU4SC2SC2 SLP077

CYHM;2008-11-09 21:00;CYHM 092100Z 26014KT 15SM -SHRA SCT015 BKN026 OVC040 05/01 A2975 RMK CU3SC3SC2 PCPN VRY LGT SLP081

CYHM;2008-11-09 22:00;CYHM 092200Z 25007KT 15SM FEW015 BKN028 OVC059 04/02 A2976 RMK CU2SC2SC2 SLP085

CYHM;2008-11-09 23:00;CYHM 092300Z 24005KT 15SM FEW015 FEW030 BKN064 BKN120 03/02 A2977 RMK CU1SC2SC2AC2 CU TR SLP088

CYHM;2008-11-10 00:00;CYHM 100000Z 24004KT 15SM FEW022 BKN062 BKN082 BKN120 03/02 A2978 RMK CU2SC2AC2AC1 SLP093

CYHM;2008-11-10 01:00;CYHM 100100Z 27009KT 15SM SCT022 BKN032 OVC045 04/01 A2979 RMK SC3SC3SC2 SLP097

CYHM;2008-11-10 02:00;CYHM 100200Z 28007KT 15SM FEW022 BKN030 OVC046 03/M00 A2981 RMK SC2SC3SC2 SLP101

CYHM;2008-11-10 02:12;CYHM 100212Z 28011G17KT 8SM -SHRASN SCT020 BKN029 OVC044 RMK SC3SC3SC2

CYHM;2008-11-10 02:24;CYHM 100224Z 28010KT 10SM -SHRAGS FEW020 BKN031 OVC049 RMK SC2SC3SC2

CYHM;2008-11-10 02:37;CYHM 100237Z 26006KT 12SM -SHSN FEW020 BKN031 OVC052 RMK SC2SC2SC2

CYHM;2008-11-10 03:00;CYHM 100300Z 24007KT 12SM -SHRASN SCT030 OVC058 02/01 A2982 RMK SC4SC4 SLP105

CYHM;2008-11-10 03:30;CYHM 100330Z 23007KT 15SM -SHSN FEW025 SCT060 BKN095 RMK CF1SC2AC3

CYHM;2008-11-10 04:00;CYHM 100400Z 24005KT 15SM -SHSN FEW040 FEW060 SCT090 BKN170 01/00 A2982 RMK CF1SC2AC2AC2 SLP107

CYHM;2008-11-10 05:00;CYHM 100500Z 25007KT 15SM FEW060 FEW095 BKN160 01/M01 A2983 RMK SC1AC2AC3 SLP110

CYHM;2008-11-10 06:00;CYHM 100600Z 24006KT 15SM FEW095 BKN150 00/M03 A2985 RMK AC1AC5 SLP115

CYHM;2008-11-10 07:00;CYHM 100700Z 25012KT 15SM SCT072 BKN140 00/M03 A2987 RMK AC3AC1 SLP122

CYHM;2008-11-10 08:00;CYHM 100800Z 23010KT 15SM FEW070 FEW130 FEW210 M01/M04 A2988 RMK AC1AC1CI1 SLP127

CYHM;2008-11-10 09:00;CYHM 100900Z 24011KT 15SM BKN060 BKN130 M01/M04 A2989 RMK SC5AC1 SLP130

CYHM;2008-11-10 10:00;CYHM 101000Z 25011KT 15SM BKN060 BKN100 M00/M03 A2991 RMK SC6AC2 SLP135

CYHM;2008-11-10 11:00;CYHM 101100Z 24012KT 15SM -SHSN OVC058 M00/M03 A2992 RMK SC8 SLP139

CYHM;2008-11-10 11:44;CYHM 101144Z 24015KT 15SM BKN053 RMK SC7

CYHM;2008-11-10 12:00;CYHM 101200Z 24010G15KT 15SM SCT042 OVC061 M00/M04 A2994 RMK SC4SC4 SLP148

CYHM;2008-11-10 12:29;CYHM 101229Z 25014KT 10SM -SHSN BKN057 OVC063 RMK SC6SC2

CYHM;2008-11-10 13:00;CYHM 101300Z 25014KT 10SM -SHSN SCT034 BKN053 OVC073 00/M04 A2996 RMK SC3SC4AC1 SLP155

CYHM;2008-11-10 14:00;CYHM 101400Z 25014G19KT 15SM -SHSN FEW020 SCT028 BKN060 BKN075 00/M04 A2998 RMK CU1SC2SC4AC1 CU TR SLP161

CYHM;2008-11-10 15:00;CYHM 101500Z 25018G23KT 15SM -SHSN FEW025 SCT055 BKN150 01/M03 A2999 RMK CU1SC2AC1 SLP166

CYHM;2008-11-10 15:38;CYHM 101538Z 26018G24KT 15SM FEW025 SCT038 SCT120 BKN210 RMK CU2SC2AC1CI1

CYHM;2008-11-10 16:00;CYHM 101600Z 25022KT 15SM SCT025 BKN032 BKN110 02/M03 A3001 RMK CU4SC2AC1 SLP171

CYHM;2008-11-10 17:00;CYHM 101700Z 26018G26KT 15SM SCT025 BKN035 BKN100 03/M03 A3001 RMK CU3SC2AC1 SLP170

CYHM;2008-11-10 18:00;CYHM 101800Z 25020G28KT 15SM FEW025 SCT038 SCT120 03/M04 A3001 RMK CU2SC2AC0 SLP169

CYHM;2008-11-10 19:00;CYHM 101900Z 26022G27KT 15SM FEW028 FEW034 SCT210 03/M05 A3001 RMK CU1SC1CI1 SLP171

CYHM;2008-11-10 20:00;CYHM 102000Z 24012G20KT 15SM FEW036 BKN100 03/M05 A3003 RMK SC2AC6 CU ASOCTD SLP176

CYHM;2008-11-10 21:00;CYHM 102100Z 25013G22KT 15SM SCT038 BKN100 03/M05 A3005 RMK SC3AC2 SLP185

CYHM;2008-11-10 22:00;CYHM 102200Z 25013KT 15SM FEW038 BKN100 02/M04 A3006 RMK SC2AC1 SLP188

CYHM;2008-11-10 23:00;CYHM 102300Z 24014G20KT 15SM FEW036 FEW100 02/M04 A3008 RMK SC1AC2 SLP195

CYHM;2008-11-11 00:00;CYHM 110000Z 23010KT 15SM BKN058 BKN100 01/M04 A3011 RMK SC6AC1 AC TR SLP206

CYHM;2008-11-11 01:00;CYHM 110100Z 25015KT 15SM BKN045 02/M04 A3013 RMK SC7 SLP211

CYHM;2008-11-11 02:00;CYHM 110200Z 25012G18KT 15SM BKN032 02/M04 A3015 RMK SC7 SLP220

CYHM;2008-11-11 03:00;CYHM 110300Z 26014G20KT 15SM OVC023 02/M03 A3017 RMK SC8 SLP227

CYHM;2008-11-11 04:00;CYHM 110400Z 26012KT 12SM -SHSN OVC024 02/M02 A3019 RMK SC8 SLP233

CYHM;2008-11-11 05:00;CYHM 110500Z 24013KT 15SM SCT022 BKN058 01/M01 A3020 RMK SC3SC4 SLP235

CYHM;2008-11-11 06:00;CYHM 110600Z 25008KT 15SM OVC020 02/M00 A3020 RMK SC8 SLP236

CYHM;2008-11-11 07:00;CYHM 110700Z 24008KT 15SM BKN019 BKN044 02/M01 A3021 RMK SC6SC2 SLP240

CYHM;2008-11-11 08:00;CYHM 110800Z 27008KT 15SM -SHSN BKN022 OVC044 02/M01 A3022 RMK SC6SC2 SLP243

CYHM;2008-11-11 09:00;CYHM 110900Z CCA 24010KT 15SM -SHSN BKN018 BKN044 02/M00 A3023 RMK SC6SC2 SLP246

CYHM;2008-11-11 09:45;CYHM 110945Z 24008KT 15SM BKN018 BKN045 RMK SC6SC2

CYHM;2008-11-11 10:00;CYHM 111000Z 25008KT 15SM BKN016 OVC038 02/M00 A3025 RMK SC6SC2 SLP253

CYHM;2008-11-11 11:00;CYHM 111100Z 25008KT 15SM SCT017 OVC038 02/M00 A3026 RMK SC3SC5 SLP256

CYHM;2008-11-11 12:00;CYHM 111200Z 25008KT 15SM SCT022 BKN038 02/00 A3028 RMK SC3SC4 TR CU ASOCTD SLP262

CYHM;2008-11-11 13:00;CYHM 111300Z 26008KT 15SM SCT023 OVC039 02/M00 A3030 RMK SC3SC5 SLP271

CYHM;2008-11-11 14:00;CYHM 111400Z 29008KT 15SM BKN028 03/M01 A3032 RMK SC7 TR CU ASOCTD SLP277

CYHM;2008-11-11 15:00;CYHM 111500Z 27012KT 15SM FEW020 SCT032 BKN041 04/M00 A3031 RMK CU1SC3SC4 CU TR SLP272

CYHM;2008-11-11 16:00;CYHM 111600Z 28012KT 15SM FEW021 BKN031 BKN042 04/M01 A3033 RMK CU2SC4SC2 SLP279

CYHM;2008-11-11 17:00;CYHM 111700Z 28010KT 15SM BKN038 04/M01 A3032 RMK SC7 CU TR SLP275

CYHM;2008-11-11 18:00;CYHM 111800Z 25012KT 15SM BKN034 BKN040 05/M01 A3030 RMK SC6SC2 TR CU ASOCTD SLP268

CYHM;2008-11-11 19:00;CYHM 111900Z 25012KT 15SM OVC034 05/M02 A3029 RMK SC8 SLP266

CYHM;2008-11-11 20:00;CYHM 112000Z 26009KT 15SM OVC031 04/M02 A3029 RMK SC8 SLP265

CYHM;2008-11-11 21:00;CYHM 112100Z 29004KT 15SM OVC035 04/M02 A3030 RMK SC8 SLP271

CYHM;2008-11-11 22:00;CYHM 112200Z 29005KT 15SM OVC034 04/M02 A3030 RMK SC8 SLP269

CYHM;2008-11-11 23:00;CYHM 112300Z 27004KT 15SM OVC035 03/M02 A3032 RMK SC8 SLP277

CYHM;2008-11-12 00:00;CYHM 120000Z 00000KT 15SM OVC033 03/M02 A3032 RMK SC8 SLP276

CYHM;2008-11-12 01:00;CYHM 120100Z 25002KT 15SM OVC032 03/M02 A3032 RMK SC8 SLP277

CYHM;2008-11-12 02:00;CYHM 120200Z 24002KT 15SM OVC030 03/M01 A3032 RMK SC8 SLP277

CYHM;2008-11-12 03:00;CYHM 120300Z 26003KT 15SM OVC031 02/M01 A3034 RMK SC8 SLP284

CYHM;2008-11-12 04:00;CYHM 120400Z 27003KT 15SM SCT030 OVC220 01/M01 A3035 RMK SC4CS3 SLP285

CYHM;2008-11-12 05:00;CYHM 120500Z 00000KT 15SM BKN030 OVC200 01/M01 A3033 RMK SC5CS2 SLP278

CYHM;2008-11-12 06:00;CYHM 120600Z 00000KT 15SM BKN028 OVC190 01/M01 A3031 RMK SC6AC2 SLP274

CYHM;2008-11-12 07:00;CYHM 120700Z 00000KT 15SM OVC028 01/M01 A3031 RMK SC8 SLP274

CYHM;2008-11-12 08:00;CYHM 120800Z 00000KT 15SM OVC024 01/M00 A3032 RMK SC8 SLP276

CYHM;2008-11-12 09:00;CYHM 120900Z 00000KT 15SM OVC022 02/00 A3031 RMK SC8 SLP273

CYHM;2008-11-12 10:00;CYHM 121000Z 08002KT 15SM OVC022 02/00 A3031 RMK SC8 SLP274

CYHM;2008-11-12 11:00;CYHM 121100Z 08003KT 15SM FEW020 OVC030 02/00 A3031 RMK SC2SC6 SLP272

CYHM;2008-11-12 12:00;CYHM 121200Z 06006KT 15SM OVC026 02/00 A3029 RMK SC8 SLP266

CYHM;2008-11-12 13:00;CYHM 121300Z 07006KT 15SM OVC026 03/00 A3029 RMK SC8 SLP267

CYHM;2008-11-12 14:00;CYHM 121400Z 05007KT 15SM OVC027 04/00 A3030 RMK SC8 SLP270

CYHM;2008-11-12 15:00;CYHM 121500Z 08009KT 15SM SCT026 BKN070 BKN210 05/00 A3029 RMK SC3AC2CI2 SLP265

CYHM;2008-11-12 16:00;CYHM 121600Z 11007KT 15SM FEW026 BKN048 BKN100 BKN210 07/01 A3029 RMK CU2SC3AC1CI1 SLP266

CYHM;2008-11-12 17:00;CYHM 121700Z 11006KT 15SM FEW032 SCT055 BKN110 BKN210 07/01 A3026 RMK CU2SC2AC2CI1 SLP255

CYHM;2008-11-12 18:00;CYHM 121800Z 06005KT 15SM FEW062 FEW110 SCT160 BKN220 08/02 A3025 RMK SC1AC1AC2CI2 SLP251

CYHM;2008-11-12 19:00;CYHM 121900Z 07006KT 15SM FEW075 SCT150 BKN220 07/02 A3024 RMK AC1AC2CI2 CONTRAIL SLP248

CYHM;2008-11-12 20:00;CYHM 122000Z 06010KT 15SM FEW064 BKN110 BKN210 06/02 A3023 RMK SC2AC2CI2 SLP246

CYHM;2008-11-12 21:00;CYHM 122100Z 07010KT 15SM FEW064 BKN110 BKN160 BKN210 06/02 A3022 RMK SC1AC4AC2CI1 SLP243

CYHM;2008-11-12 22:00;CYHM 122200Z 04010KT 15SM FEW110 BKN220 05/02 A3021 RMK AC2CI4 SLP238

CYHM;2008-11-12 23:00;CYHM 122300Z 05008KT 15SM FEW130 BKN220 04/03 A3021 RMK AC2CI3 SLP239

CYHM;2008-11-13 00:00;CYHM 130000Z 04008KT 10SM OVC200 05/04 A3018 RMK CI7 SLP229

CYHM;2008-11-13 01:00;CYHM 130100Z 06010KT 10SM FEW093 FEW130 OVC190 05/03 A3015 RMK AC2AC1AS5 SLP218

CYHM;2008-11-13 02:00;CYHM 130200Z 07010KT 15SM OVC086 05/03 A3014 RMK AC8 SLP214

CYHM;2008-11-13 03:00;CYHM 130300Z 05010KT 15SM OVC081 05/03 A3012 RMK AC8 SLP207

CYHM;2008-11-13 04:00;CYHM 130400Z 05007KT 12SM OVC077 05/03 A3009 RMK AC8 SLP196

CYHM;2008-11-13 05:00;CYHM 130500Z 07005KT 15SM OVC044 06/03 A3006 RMK SC8 SLP188

CYHM;2008-11-13 05:18;CYHM 130518Z 10005KT 12SM -SHRA OVC035 RMK SC7

CYHM;2008-11-13 06:00;CYHM 130600Z 10005KT 12SM -SHRA OVC040 06/04 A3003 RMK SC8 SLP176

CYHM;2008-11-13 07:00;CYHM 130700Z 10007KT 8SM -SHRA FEW035 OVC060 05/05 A2999 RMK CF1SC7 SLP163

CYHM;2008-11-13 08:00;CYHM 130800Z 14007KT 8SM -SHRA OVC023 07/07 A2997 RMK SC8 SLP157

CYHM;2008-11-13 09:00;CYHM 130900Z 13008KT 6SM -SHRA BR OVC034 07/07 A2993 RMK SC8 SLP142

CYHM;2008-11-13 10:00;CYHM 131000Z 11006KT 4SM -SHRA BR FEW020 OVC054 07/07 A2990 RMK CF2SC6 SLP131

CYHM;2008-11-13 11:00;CYHM 131100Z 10005KT 5SM -SHRA BR FEW006 OVC070 07/07 A2987 RMK CF2AC6 SLP121

CYHM;2008-11-13 12:00;CYHM 131200Z 09005KT 2 1/2SM -SHRA BR BKN032 BKN055 OVC078 07/07 A2984 RMK SC5SC2AC1 SLP109

CYHM;2008-11-13 12:33;CYHM 131233Z 11004KT 3SM -SHRA BR BKN027 OVC038 RMK SC6SC2

CYHM;2008-11-13 13:00;CYHM 131300Z 14004KT 3SM -SHRA BR OVC021 07/07 A2983 RMK SC8 SLP106

CYHM;2008-11-13 13:47;CYHM 131347Z 19007KT 2 1/2SM -SHRA BR BKN008 OVC022 RMK SF6SC2

CYHM;2008-11-13 14:00;CYHM 131400Z 19014KT 2 1/2SM RA BR BKN005 OVC015 08/08 A2981 RMK SF6SC2 SLP102

CYHM;2008-11-13 14:36;CYHM 131436Z 20014KT 5SM -RA BR BKN008 OVC016 RMK SF6SC2

CYHM;2008-11-13 15:00;CYHM 131500Z CCB 20016G24KT 5SM -RA BR BKN008 OVC016 09/09 A2980 RMK SF6SC2 SLP095

CYHM;2008-11-13 16:00;CYHM 131600Z 20016KT 6SM -RA BR BKN010 OVC015 10/10 A2979 RMK SF6SC2 SLP092

CYHM;2008-11-13 16:11;CYHM 131611Z 20017G22KT 8SM BKN010 OVC016 RMK SF6SC2

CYHM;2008-11-13 17:00;CYHM 131700Z 20018G24KT 7SM -DZ BKN009 OVC014 10/10 A2978 RMK SF6SC2 SLP091

CYHM;2008-11-13 17:42;CYHM 131742Z 23018KT 7SM SCT008 OVC012 RMK SF4SC4

CYHM;2008-11-13 18:00;CYHM 131800Z 23020KT 8SM SCT009 BKN015 OVC022 10/10 A2978 RMK SF3SC3SC2 SLP089

CYHM;2008-11-13 19:00;CYHM 131900Z 24016KT 15SM SCT010 BKN016 OVC024 11/10 A2979 RMK SF3SC3SC2 SLP093

CYHM;2008-11-13 19:43;CYHM 131943Z 22012KT 7SM -RA BKN011 OVC030 RMK SF6SC2

CYHM;2008-11-13 20:00;CYHM 132000Z 22015KT 8SM -RA BKN013 OVC027 11/10 A2978 RMK SF6SC2 SLP091

CYHM;2008-11-13 21:00;CYHM 132100Z 22013KT 9SM -RA BKN012 BKN022 OVC040 10/10 A2979 RMK SF6SC2SC1 PCPN VRY LGT SLP093

CYHM;2008-11-13 22:00;CYHM 132200Z 21009KT 9SM SCT013 BKN032 OVC040 10/10 A2979 RMK SF3SC3SC2 SLP092

CYHM;2008-11-13 23:00;CYHM 132300Z 20010KT 15SM FEW012 BKN032 BKN047 10/09 A2979 RMK SF1SC5SC2 SLP091

CYHM;2008-11-14 00:00;CYHM 140000Z 19007KT 12SM BKN028 BKN045 10/09 A2980 RMK SC5SC2 SLP097

CYHM;2008-11-14 01:00;CYHM 140100Z 20007KT 12SM BKN026 BKN042 10/09 A2979 RMK SC6SC2 SLP094

CYHM;2008-11-14 02:00;CYHM 140200Z 19010KT 15SM SCT036 10/10 A2978 RMK SC4 SLP091

CYHM;2008-11-14 03:00;CYHM 140300Z 19012KT 15SM FEW028 10/09 A2978 RMK SC2 SLP090

CYHM;2008-11-14 04:00;CYHM 140400Z 18010KT 15SM BKN250 10/09 A2976 RMK CS3 HALO SLP081

CYHM;2008-11-14 05:00;CYHM 140500Z 19012KT 15SM BKN240 10/09 A2977 RMK CS2 SLP086

CYHM;2008-11-14 06:00;CYHM 140600Z 19010KT 15SM BKN250 10/09 A2977 RMK CS2 SLP084

CYHM;2008-11-14 07:00;CYHM 140700Z 18008KT 15SM FEW095 BKN250 10/09 A2975 RMK AC1CS2 SLP079

CYHM;2008-11-14 08:00;CYHM 140800Z 19008KT 15SM BKN240 10/09 A2976 RMK CS5 SLP081

CYHM;2008-11-14 09:00;CYHM 140900Z 20010KT 15SM FEW092 OVC240 10/10 A2977 RMK AC2CS5 SLP084

CYHM;2008-11-14 10:00;CYHM 141000Z 20011KT 15SM FEW026 FEW150 OVC240 10/10 A2976 RMK SC1AC2CS3 SLP081

CYHM;2008-11-14 11:00;CYHM 141100Z 16010KT 15SM SCT150 OVC240 10/10 A2974 RMK AC3CS3 SLP073

CYHM;2008-11-14 12:00;CYHM 141200Z 18010KT 15SM FEW100 BKN130 BKN220 10/09 A2974 RMK AC2AC3CI2 SLP074

CYHM;2008-11-14 13:00;CYHM 141300Z 19010KT 15SM BKN130 OVC220 11/10 A2974 RMK AC6CI2 SLP074

CYHM;2008-11-14 14:00;CYHM 141400Z 18013KT 15SM FEW020 SCT170 BKN220 12/11 A2974 RMK CF1AC3CI2 CF TR SLP073

CYHM;2008-11-14 15:00;CYHM 141500Z 20020KT 15SM FEW012 BKN016 BKN130 13/11 A2972 RMK CF2SC3AC1 SLP067

CYHM;2008-11-14 16:00;CYHM 141600Z 22016G22KT 15SM FEW017 BKN021 13/10 A2974 RMK CU2SC5 SLP074

CYHM;2008-11-14 17:00;CYHM 141700Z 21016G22KT 15SM FEW017 BKN028 BKN130 BKN240 13/11 A2970 RMK CU2SC3AC1CI0 CI TR SLP061

CYHM;2008-11-14 18:00;CYHM 141800Z 20020G25KT 15SM FEW020 BKN029 OVC110 13/10 A2971 RMK CU2SC4AC2 SLP063

CYHM;2008-11-14 19:00;CYHM 141900Z 22018KT 15SM FEW022 SCT038 BKN120 BKN160 14/10 A2970 RMK CU2SC2AC2AC1 SLP061

CYHM;2008-11-14 20:00;CYHM 142000Z 22013G18KT 15SM SCT025 BKN100 14/10 A2970 RMK CU3AC4 SLP061

CYHM;2008-11-14 21:00;CYHM 142100Z 22012KT 15SM BKN033 OVC100 13/09 A2970 RMK SC6AC2 SLP061

CYHM;2008-11-14 22:00;CYHM 142200Z 21007KT 15SM SCT035 SCT070 OVC099 12/09 A2968 RMK SC3AC1AC4 SLP055

CYHM;2008-11-14 22:28;CYHM 142228Z 22007KT 12SM -SHRA FEW035 OVC070 RMK SC2AC6

CYHM;2008-11-14 23:00;CYHM 142300Z 24007KT 12SM -SHRA FEW050 OVC083 11/10 A2971 RMK SC2AC6 SLP064

CYHM;2008-11-15 00:00;CYHM 150000Z 24007KT 15SM -SHRA OVC051 11/10 A2972 RMK SC8 SLP067

CYHM;2008-11-15 01:00;CYHM 150100Z 26006KT 6SM -SHRA BR FEW032 OVC055 11/11 A2972 RMK CF1SC7 SLP067

CYHM;2008-11-15 02:00;CYHM 150200Z 26005KT 4SM -SHRA BR FEW006 BKN026 OVC045 11/11 A2972 RMK SF2SC5SC2 SLP069

CYHM;2008-11-15 03:00;CYHM 150300Z 20004KT 7SM -RA FEW006 OVC039 10/10 A2972 RMK SF1SC7 SLP066

CYHM;2008-11-15 04:00;CYHM 150400Z 19003KT 3SM -RA BR OVC033 10/10 A2971 RMK SC8 VIS VRB 2 - 4 SLP064

CYHM;2008-11-15 04:20;CYHM 150420Z 20004KT 2SM -RA BR FEW006 OVC025 RMK FG1SF2SC6

CYHM;2008-11-15 05:00;CYHM 150500Z 00000KT 1 1/2SM -RA BR SCT002 OVC040 10/10 A2969 RMK FG2SF2SC4 VIS VRB 1 - 2 SLP056

CYHM;2008-11-15 05:36;CYHM 150536Z 17005KT 2SM -RA BR BKN002 OVC015 RMK FG1SF6SC2

CYHM;2008-11-15 06:00;CYHM 150600Z 16005KT 2SM -RA BR OVC008 10/10 A2971 RMK FG1SF7 CIG RAG SLP064

CYHM;2008-11-15 06:30;CYHM 150630Z 15004KT 2SM -RA BR FEW002 BKN011 OVC034 RMK FG1SF1SC5SC2

CYHM;2008-11-15 06:45;CYHM 150645Z 17004KT 2SM -RA BR OVC008 RMK FG1SF7

CYHM;2008-11-15 07:00;CYHM 150700Z 14003KT 2SM -RA BR OVC010 10/10 A2968 RMK FG1SC7 SLP054

CYHM;2008-11-15 08:00;CYHM 150800Z 10003KT 1 1/2SM -RA BR FEW002 BKN006 OVC011 10/10 A2966 RMK FG2SF1SF4SC2 VIS VRB 1 - 2 SLP047

CYHM;2008-11-15 09:00;CYHM 150900Z 02006KT 2SM -RA BR OVC003 09/09 A2965 RMK FG1SF7 SLP042

CYHM;2008-11-15 10:00;CYHM 151000Z 03014KT 2 1/2SM -RA BR OVC003 09/09 A2961 RMK SF8 SLP031

CYHM;2008-11-15 11:00;CYHM 151100Z 03012KT 2 1/2SM -RA BR OVC005 08/08 A2960 RERA RMK SF8 CIG RAG SLP026

CYHM;2008-11-15 11:18;CYHM 151118Z 03011KT 2 1/2SM -RA BR OVC004 RMK SF8

CYHM;2008-11-15 12:00;CYHM 151200Z 03010KT 2 1/2SM -RA BR OVC003 08/08 A2958 RMK SF8 SLP019

CYHM;2008-11-15 13:00;CYHM 151300Z 02012KT 3SM -RA BR OVC004 08/08 A2956 RMK SF8 SLP013

CYHM;2008-11-15 14:00;CYHM 151400Z 03015KT 3SM -RA BR OVC004 07/07 A2953 RMK SF8 SLP005

CYHM;2008-11-15 15:00;CYHM 151500Z 02011KT 3SM -RA BR OVC005 07/06 A2952 RMK SF8 SLP000

CYHM;2008-11-15 16:00;CYHM 151600Z 03014KT 5SM -RA BR BKN005 OVC011 07/06 A2948 RMK SF6SC2 SLP986

CYHM;2008-11-15 16:44;CYHM 151644Z 03012KT 8SM -RA OVC007 RMK SF8

CYHM;2008-11-15 17:00;CYHM 151700Z 02012KT 8SM -RA OVC007 06/06 A2946 RMK SF8 SLP981

CYHM;2008-11-15 18:00;CYHM 151800Z 01011KT 7SM -RA SCT004 OVC008 06/06 A2942 RMK SF3SC5 SLP966

CYHM;2008-11-15 19:00;CYHM 151900Z 02014KT 6SM -RA BR BKN007 OVC012 06/06 A2939 RMK SF6SC2 SLP955

CYHM;2008-11-15 20:00;CYHM 152000Z 01015KT 5SM -RA BR SCT007 OVC012 06/06 A2935 RMK SF4SC4 SLP944

CYHM;2008-11-15 20:30;CYHM 152030Z 01014KT 2SM -RA BR BKN007 OVC012 RMK FG1SF4SC3

CYHM;2008-11-15 21:00;CYHM 152100Z 02014KT 2 1/2SM -RA BR SCT007 BKN014 OVC025 05/05 A2934 RMK FG1SF3SC2SC2 SLP939

CYHM;2008-11-15 21:25;CYHM 152125Z 01014KT 3SM -RA BR SCT006 BKN010 OVC024 RMK SF4SC3SC1

CYHM;2008-11-15 22:00;CYHM 152200Z 02016KT 2 1/2SM -RA BR BKN007 OVC012 05/05 A2930 RMK FG1SF4SC3 SLP928

CYHM;2008-11-15 23:00;CYHM 152300Z 36014KT 330V030 3SM RA BR SCT006 BKN011 OVC019 05/05 A2932 RMK SF4SC3SC1 SLP932

CYHM;2008-11-16 00:00;CYHM 160000Z 35012KT 320V030 5SM -RA BR SCT007 OVC012 05/04 A2933 RERA RMK SF4SC4 /R10/ SLP936

CYHM;2008-11-16 01:00;CYHM 160100Z 34015KT 2 1/2SM -RA BR SCT007 BKN012 OVC019 03/03 A2934 RMK FG1SF3SC2SC2 SLP939

CYHM;2008-11-16 02:00;CYHM 160200Z 31011KT 2SM -RASN BR SCT007 BKN012 OVC018 01/01 A2938 RMK FG1SF3SC2SC2 SLP953

CYHM;2008-11-16 02:16;CYHM 160216Z 29008KT 1 3/4SM -SN BR SCT007 OVC013 RMK SN2SF2SC4

CYHM;2008-11-16 02:24;CYHM 160224Z 29009KT 1 1/2SM -SN BR SCT006 VV009 RMK SF3SN5

CYHM;2008-11-16 02:37;CYHM 160237Z 29009KT 1SM -SN VV006 RMK SN8

CYHM;2008-11-16 03:00;CYHM 160300Z 29011KT 1SM -SN FEW004 VV007 01/01 A2940 RMK SF2SN6 SLP964

CYHM;2008-11-16 04:00;CYHM 160400Z 29018G24KT 4SM -SN OVC013 01/01 A2943 RMK SC8 SLP973

CYHM;2008-11-16 04:48;CYHM 160448Z 29016G25KT 2SM -SN OVC008 RMK SN1ST7

CYHM;2008-11-16 05:00;CYHM 160500Z 29015G21KT 3SM -SN OVC011 01/01 A2947 RMK SC8 VIS VRB 2 - 4 SLP987

CYHM;2008-11-16 06:00;CYHM 160600Z 29016KT 6SM -SN OVC011 01/01 A2950 RMK SC7 SLP997

CYHM;2008-11-16 06:31;CYHM 160631Z 29013KT 7SM -SN OVC019 RMK SC7

CYHM;2008-11-16 07:00;CYHM 160700Z 29013KT 12SM -SN FEW015 OVC070 01/00 A2953 RMK CF2AC5 SLP005

CYHM;2008-11-16 08:00;CYHM 160800Z 29015KT 15SM -SN FEW022 BKN080 01/00 A2956 RMK CF2AC6 SLP017

CYHM;2008-11-16 09:00;CYHM 160900Z 29010KT 10SM -SN OVC015 02/01 A2958 RMK SC8 SLP023

CYHM;2008-11-16 10:00;CYHM 161000Z 28013KT 15SM -SN BKN022 02/M00 A2959 RMK SC7 SLP027

CYHM;2008-11-16 11:00;CYHM 161100Z 27012KT 15SM BKN022 BKN050 01/M01 A2961 RMK SC6SC1 SLP033

CYHM;2008-11-16 12:00;CYHM 161200Z 26012G17KT 15SM BKN018 BKN056 01/M01 A2963 RMK SC5SC2 SLP040

CYHM;2008-11-16 13:00;CYHM 161300Z 26010KT 15SM FEW018 BKN032 OVC052 01/M00 A2965 RMK CF2SC5SC2 SLP049

CYHM;2008-11-16 13:05;CYHM 161305Z 25012KT 15SM -SHSN FEW018 BKN032 BKN052 RMK CF2SC5SC1

CYHM;2008-11-16 14:00;CYHM 161400Z 26013KT 15SM -SHSN FEW016 BKN024 OVC054 02/M00 A2968 RMK CF1SC6SC1 SLP056

CYHM;2008-11-16 15:00;CYHM 161500Z 26014G21KT 15SM SCT015 OVC023 02/M01 A2968 RMK CF3SC5 SLP059

CYHM;2008-11-16 16:00;CYHM 161600Z 26015KT 15SM -SHSN FEW017 BKN024 OVC060 02/M01 A2969 RMK CF2SC6SC1 SLP063

CYHM;2008-11-16 17:00;CYHM 161700Z 25016G22KT 15SM -SHSN FEW018 BKN024 OVC060 02/M01 A2970 RMK CF2SC6SC1 SLP066

CYHM;2008-11-16 18:00;CYHM 161800Z 26017KT 15SM -SHSN FEW015 BKN032 BKN072 02/M00 A2971 RMK CF2SC4AC2 VIS SW 5 SLP068

CYHM;2008-11-16 18:26;CYHM 161826Z 25014G20KT 4SM -SHSN FEW009 BKN038 BKN072 BKN250 RMK CF2SC3AC1CI1 VIS S-SW 11/2

CYHM;2008-11-16 18:30;CYHM 161830Z 25014G20KT 1 1/2SM -SHSN SCT009 BKN038 OVC072 RMK SN2CF2SC4AC1

CYHM;2008-11-16 18:34;CYHM 161834Z 25018KT 5/8SM -SHSN OVC009 RMK SN6CF2

CYHM;2008-11-16 18:38;CYHM 161838Z 25012G19KT 1SM -SHSN BKN009 OVC038 RMK SN4CF3SC1

CYHM;2008-11-16 18:49;CYHM 161849Z 26012G20KT 5SM -SHSN BKN009 BKN034 OVC250 RMK CF5SC2CI1 VIS NE 2

CYHM;2008-11-16 19:00;CYHM 161900Z 25012KT 15SM -SHSN SCT009 BKN038 BKN072 00/00 A2971 RMK CF4SC2AC2 SLP071

CYHM;2008-11-16 20:00;CYHM 162000Z 27013G18KT 15SM -SHSN FEW009 BKN028 BKN064 02/M01 A2973 RMK CF2SC2SC2 PCPN VRY LGT SLP075

CYHM;2008-11-16 21:00;CYHM 162100Z 26010KT 6SM -SHSN FEW009 BKN028 BKN041 BKN064 01/M01 A2975 RMK CF2SC2SC2SC1 VIS N 11/2 SLP081

CYHM;2008-11-16 22:00;CYHM 162200Z 26010KT 12SM VCSH FEW010 SCT025 BKN051 01/M02 A2976 RMK CF2SC2SC2 OCNL -SHSN SLP086

CYHM;2008-11-16 22:22;CYHM 162222Z 26011KT 8SM -SHSN FEW010 SCT022 BKN050 RMK CF1SC3SC2

CYHM;2008-11-16 23:00;CYHM 162300Z 26012KT 15SM -SHSN SCT024 BKN048 BKN120 01/M02 A2978 RMK SC4SC2AC1 PCPN VRY LGT SLP093

CYHM;2008-11-17 00:00;CYHM 170000Z 26009KT 10SM -SHSN FEW010 SCT018 BKN034 BKN095 00/M01 A2980 RMK CF2SC2SC2AC2 SLP100

CYHM;2008-11-17 00:33;CYHM 170033Z 26012KT 15SM FEW010 FEW017 BKN035 BKN100 RMK CF1SC2SC2AC2 OCNL -SHSN

CYHM;2008-11-17 01:00;CYHM 170100Z 25010KT 15SM FEW012 FEW020 SCT035 BKN170 M00/M02 A2981 RMK CF2SC1SC2AC2 SLP103

CYHM;2008-11-17 02:00;CYHM 170200Z 25010KT 15SM FEW012 BKN028 BKN150 M00/M02 A2982 RMK CF2SC3AC1 SLP108

CYHM;2008-11-17 03:00;CYHM 170300Z 27010KT 15SM SCT024 BKN038 M00/M03 A2984 RMK SC3SC3 SLP112

CYHM;2008-11-17 03:05;CYHM 170305Z 27009KT 15SM -SHSN FEW025 BKN049 RMK SC2SC4

CYHM;2008-11-17 04:00;CYHM 170400Z 26011KT 15SM -SHSN FEW013 BKN018 BKN026 M00/M02 A2984 RMK CF2SC4SC1 SLP115

CYHM;2008-11-17 05:00;CYHM 170500Z 25010KT 15SM -SHSN BKN014 M01/M02 A2985 RMK SC7 SLP118

CYHM;2008-11-17 06:00;CYHM 170600Z 25012KT 15SM -SHSN BKN015 M00/M02 A2986 RMK SC6 SLP121

CYHM;2008-11-17 07:00;CYHM 170700Z 26008KT 15SM BKN012 M01/M02 A2988 RMK SC7 SLP126

CYHM;2008-11-17 08:00;CYHM 170800Z 25008KT 15SM FEW014 FEW043 FEW100 M01/M02 A2989 RMK CF1SC1AC1 SLP131

CYHM;2008-11-17 08:27;CYHM 170827Z 25009KT 3SM -SN BKN020 RMK SC7 VIS VRB 2 - 4

CYHM;2008-11-17 08:32;CYHM 170832Z 25009KT 1 1/2SM -SN BKN015 RMK SN2SC5 VIS VRB 1 - 2

CYHM;2008-11-17 08:37;CYHM 170837Z 25012KT 12SM -SN FEW022 SCT050 RMK CF2SC2

CYHM;2008-11-17 09:00;CYHM 170900Z 26010KT 12SM -SHSN SCT025 M02/M02 A2991 RMK SC3 SLP137

CYHM;2008-11-17 10:00;CYHM 171000Z 25011KT 15SM -SHSN FEW013 BKN060 M01/M02 A2993 RMK CF2SC2 SLP144

CYHM;2008-11-17 11:00;CYHM 171100Z 24007KT 15SM SCT012 M02/M03 A2994 RMK CF4 SLP150

CYHM;2008-11-17 12:00;CYHM 171200Z 24008KT 15SM FEW016 FEW021 SCT210 M02/M03 A2997 RMK SC1SC2CI1 CU TR ASOCTD SLP158

CYHM;2008-11-17 13:00;CYHM 171300Z 28007KT 15SM FEW020 FEW032 BKN075 M01/M03 A2999 RMK CU1SC2AC3 SLP165

CYHM;2008-11-17 14:00;CYHM 171400Z 28006KT 15SM FEW020 FEW038 SCT070 M01/M03 A3000 RMK CU1SC2AC2 CU TR SLP170

CYHM;2008-11-17 15:00;CYHM 171500Z 30009KT 15SM FEW019 SCT027 SCT110 BKN210 M00/M04 A3001 RMK CU2SC2AC1CI1 SLP173

CYHM;2008-11-17 16:00;CYHM 171600Z 30010KT 15SM SCT025 BKN040 01/M05 A3001 RMK CU3SC2 SLP174

CYHM;2008-11-17 17:00;CYHM 171700Z 30008KT 15SM FEW032 SCT042 BKN210 01/M06 A3000 RMK CU2SC2CI1 CONTRAIL SLP170

CYHM;2008-11-17 18:00;CYHM 171800Z 28012G17KT 15SM FEW032 BKN043 BKN210 01/M06 A3000 RMK CU2SC2CI1 SLP168

CYHM;2008-11-17 19:00;CYHM 171900Z 27010KT 15SM FEW035 SCT048 BKN210 01/M06 A3001 RMK CU2SC2CI1 SLP170

CYHM;2008-11-17 20:00;CYHM 172000Z 29008KT 15SM FEW034 SCT046 BKN240 M00/M07 A3002 RMK CU1SC3CI1 CU TR CONTRAILS SLP176

CYHM;2008-11-17 21:00;CYHM 172100Z 30009KT 15SM FEW035 BKN044 M00/M06 A3004 RMK SF2SC6 SLP182

CYHM;2008-11-17 22:00;CYHM 172200Z 30005KT 15SM FEW036 BKN064 BKN250 M01/M06 A3005 RMK CU1SC5CI1 SLP187

CYHM;2008-11-17 23:00;CYHM 172300Z 32004KT 15SM FEW038 FEW058 BKN240 M02/M07 A3007 RMK SC1SC2CI1 SLP194

CYHM;2008-11-18 00:00;CYHM 180000Z 30006KT 15SM FEW052 SCT130 BKN240 M03/M07 A3008 RMK SC1AC2CI1 SC TR SLP199

CYHM;2008-11-18 01:00;CYHM 180100Z 30005KT 15SM FEW130 SCT220 M04/M07 A3009 RMK AC1CI2 AC TR SLP202

CYHM;2008-11-18 02:00;CYHM 180200Z 28003KT 15SM FEW140 SCT220 M04/M07 A3010 RMK AC1CI2 AC TR SLP204

CYHM;2008-11-18 03:00;CYHM 180300Z 27005KT 15SM BKN140 M04/M06 A3010 RMK AS4 SLP205

CYHM;2008-11-18 04:00;CYHM 180400Z 30007KT 15SM FEW022 BKN140 M05/M07 A3010 RMK CU1AS2 CU TR SLP205

CYHM;2008-11-18 05:00;CYHM 180500Z 32007KT 15SM BKN140 M05/M07 A3012 RMK AS6 SLP210

CYHM;2008-11-18 06:00;CYHM 180600Z 33005KT 15SM BKN032 BKN140 M05/M06 A3012 RMK SC6AC2 SLP211

CYHM;2008-11-18 07:00;CYHM 180700Z 34005KT 15SM BKN150 M05/M07 A3013 RMK AC6 SLP215

CYHM;2008-11-18 08:00;CYHM 180800Z 35004KT 15SM BKN150 M05/M08 A3014 RMK AC6 SLP219

CYHM;2008-11-18 09:00;CYHM 180900Z 35010KT 15SM BKN150 M05/M08 A3016 RMK AC6 SLP224

CYHM;2008-11-18 10:00;CYHM 181000Z 35007KT 15SM FEW024 SCT150 SCT220 M05/M08 A3017 RMK SC1AC2CI1 SC TR CI TR SLP229

CYHM;2008-11-18 11:00;CYHM 181100Z 34008KT 15SM FEW024 FEW150 FEW220 M06/M09 A3019 RMK SC1AC1CI1 SC TR AC TR SLP235

CYHM;2008-11-18 12:00;CYHM 181200Z 36007KT 15SM FEW025 FEW140 SCT210 M06/M09 A3020 RMK SC1AC1CI1 TR CU ASOCTD SLP240

CYHM;2008-11-18 13:00;CYHM 181300Z 34007KT 15SM FEW020 FEW035 FEW120 SCT210 M06/M09 A3023 RMK CU1SC1AC1CI1 SC TR CONTRAIL SLP248

CYHM;2008-11-18 14:00;CYHM 181400Z 35012KT 15SM FEW020 FEW130 SCT210 M04/M07 A3025 RMK CU1AC1CI1 TCU ASOCTD SLP255

CYHM;2008-11-18 15:00;CYHM 181500Z 03012KT 15SM FEW019 SCT240 M03/M07 A3027 RMK CU2CI0 SC ASOCTD CI TR SLP262

CYHM;2008-11-18 16:00;CYHM 181600Z 35010KT 15SM SCT030 BKN036 M02/M08 A3028 RMK CU3SC2 SLP265

CYHM;2008-11-18 17:00;CYHM 181700Z 33010KT 15SM SCT032 BKN038 M01/M09 A3028 RMK CU4SC2 SLP266

CYHM;2008-11-18 18:00;CYHM 181800Z 35008KT 15SM SCT040 BKN059 BKN220 M01/M10 A3027 RMK CU3SC2CI0 CI TR SLP264

CYHM;2008-11-18 19:00;CYHM 181900Z 01010KT 15SM FEW043 BKN062 BKN120 M01/M12 A3027 RMK CU2SC3AC1 SLP264

CYHM;2008-11-18 20:00;CYHM 182000Z 05006KT 15SM FEW044 BKN056 M02/M11 A3028 RMK SF2SC6 SLP266

CYHM;2008-11-18 21:00;CYHM 182100Z 32008KT 15SM BKN052 M01/M11 A3029 RMK SC5 SF ASOCTD SLP270

CYHM;2008-11-18 22:00;CYHM 182200Z 30008KT 15SM FEW024 FEW046 M03/M10 A3031 RMK CU1SC2 CU TR SLP277

CYHM;2008-11-18 23:00;CYHM 182300Z 31005KT 15SM FEW040 SCT052 M04/M08 A3032 RMK SF1SC2 SLP280

CYHM;2008-11-19 00:00;CYHM 190000Z 30005KT 15SM FEW052 FEW220 M05/M07 A3033 RMK SC2CI1 CI TR SLP283

CYHM;2008-11-19 01:00;CYHM 190100Z 31006KT 15SM FEW024 SCT057 M05/M08 A3033 RMK CU1SC2 CU TR SLP286

CYHM;2008-11-19 02:00;CYHM 190200Z 33005KT 15SM FEW022 FEW054 M06/M08 A3033 RMK CU1SC1 CU TR SLP284

CYHM;2008-11-19 03:00;CYHM 190300Z 29002KT 15SM FEW022 FEW054 M07/M08 A3033 RMK CU1SC1 CU TR SLP283

CYHM;2008-11-19 04:00;CYHM 190400Z 00000KT 15SM FEW052 M06/M08 A3031 RMK SC1 SC TR SLP279

CYHM;2008-11-19 05:00;CYHM 190500Z 00000KT 15SM FEW050 M07/M08 A3031 RMK SC1 SC TR SLP277

CYHM;2008-11-19 06:00;CYHM 190600Z 26003KT 15SM FEW048 M07/M08 A3030 RMK SC1 SC TR SLP272

CYHM;2008-11-19 07:00;CYHM 190700Z 29003KT 15SM FEW042 M08/M08 A3029 RMK SC1 SC TR SLP271

CYHM;2008-11-19 08:00;CYHM 190800Z 28005KT 15SM FEW042 M08/M09 A3030 RMK SC1 SC TR SLP272

CYHM;2008-11-19 09:00;CYHM 190900Z 29003KT 15SM FEW042 M08/M09 A3028 RMK SC1 SC TR SLP267

CYHM;2008-11-19 10:00;CYHM 191000Z 28006KT 15SM SCT044 M08/M09 A3027 RMK SC3 SLP263

CYHM;2008-11-19 11:00;CYHM 191100Z 27003KT 15SM BKN048 M07/M09 A3026 RMK SC7 SLP260

CYHM;2008-11-19 12:00;CYHM 191200Z 00000KT 15SM BKN049 M07/M09 A3024 RMK SC6 TR CU ASOCTD SLP256

CYHM;2008-11-19 13:00;CYHM 191300Z CCA 00000KT 15SM FEW020 BKN048 M06/M07 A3023 RMK CU1SC7 CU TR SLP252

CYHM;2008-11-19 14:00;CYHM 191400Z 16004KT 15SM FEW020 SCT048 BKN130 M04/M07 A3022 RMK CU1SC4AS3 CU TR SLP247

CYHM;2008-11-19 15:00;CYHM 191500Z 18005KT 15SM FEW020 FEW050 BKN100 BKN160 M04/M07 A3020 RMK CU1SC2AC2AS2 CU TR SLP241

CYHM;2008-11-19 16:00;CYHM 191600Z 16005KT 15SM FEW035 BKN088 OVC160 M03/M09 A3017 RMK SC2AC3AS2 SLP229

CYHM;2008-11-19 17:00;CYHM 191700Z 20008KT 15SM BKN027 OVC075 M02/M08 A3011 RMK SC5AC3 SLP211

CYHM;2008-11-19 18:00;CYHM 191800Z 24006KT 15SM BKN025 BKN075 OVC100 M02/M08 A3009 RMK SC5AC2AS2 SLP201

CYHM;2008-11-19 18:15;CYHM 191815Z 24005KT 4SM -SHSN BKN024 OVC042 RMK SC6SC2

CYHM;2008-11-19 19:00;CYHM 191900Z 00000KT 3SM -SHSN BKN030 OVC038 M03/M05 A3005 RMK SC6SC2 SLP188

CYHM;2008-11-19 20:00;CYHM 192000Z 12006KT 3SM -SN BKN018 OVC035 M02/M05 A3002 RMK SC6SC2 SLP179

CYHM;2008-11-19 20:10;CYHM 192010Z 11007KT 2SM -SN BKN009 BKN019 OVC033 RMK SF5SC2SC1

CYHM;2008-11-19 20:27;CYHM 192027Z 12008KT 1 1/2SM -SN BR BKN009 OVC023 RMK FG1SF5SC2

CYHM;2008-11-19 20:32;CYHM 192032Z CCA 12008KT 3/4SM -SN BR BKN007 OVC019 RMK FG2SF5SC2

CYHM;2008-11-19 20:43;CYHM 192043Z 13006KT 1 1/2SM -SN BR BKN008 OVC024 RMK FG1SF5SC2

CYHM;2008-11-19 21:00;CYHM 192100Z 12006KT 1 1/2SM -SN BR BKN010 BKN017 OVC021 M03/M04 A3000 RMK FG1SF5SC2SC1 VIS VRBL 1-2 SM SLP171

CYHM;2008-11-19 21:12;CYHM 192112Z 11006KT 1SM -SN BR BKN006 OVC023 RMK FG2SF6SC1 VISB VRBL 11/4-3/4SM

CYHM;2008-11-19 21:37;CYHM 192137Z 10008KT 1 1/2SM -SN BR BKN010 OVC027 RMK FG2SF4SC2 VISB VRBL 1-2SM

CYHM;2008-11-19 22:00;CYHM 192200Z 11005KT 2SM -SN BR FEW010 BKN016 OVC043 M03/M04 A2996 RMK SF2SC5SC2 SLP159

CYHM;2008-11-19 22:24;CYHM 192224Z CCA 10004KT 2SM -SN BR BKN013 BKN027 OVC033 RMK SC5SC2SC1

CYHM;2008-11-19 22:53;CYHM 192253Z 11004KT 5SM -SN BR SCT025 BKN036 OVC060 RMK SC3SC3SC2

CYHM;2008-11-19 23:00;CYHM 192300Z 10005KT 7SM -SN BKN037 OVC060 M03/M03 A2995 RMK SC6SC2 SLP155

CYHM;2008-11-20 00:00;CYHM 200000Z 09003KT 12SM -SN FEW026 OVC052 M03/M04 A2993 RMK SF2SC6 SLP149

CYHM;2008-11-20 01:00;CYHM 200100Z 00000KT 5SM -SN OVC050 M03/M04 A2992 RMK SC8 SLP146

CYHM;2008-11-20 02:00;CYHM 200200Z 14003KT 8SM -SN OVC058 M03/M03 A2988 RMK SC8 SLP133

CYHM;2008-11-20 03:00;CYHM 200300Z 00000KT 3SM -SN OVC020 M02/M04 A2985 RMK SC8 VIS VRB 2 - 4 SLP121

CYHM;2008-11-20 03:34;CYHM 200334Z 00000KT 2SM -SN OVC011 RMK SN1SC7

CYHM;2008-11-20 04:00;CYHM 200400Z 00000KT 2SM -SN OVC013 M02/M03 A2983 RMK SN1SC7 /S01/ SLP114

CYHM;2008-11-20 04:23;CYHM 200423Z 00000KT 5SM -SN OVC037 RMK SC8

CYHM;2008-11-20 05:00;CYHM 200500Z 17003KT 4SM -SN SCT019 OVC028 M02/M02 A2982 RMK SC3SC5 SLP109

CYHM;2008-11-20 06:00;CYHM 200600Z 20005KT 2SM -SN OVC015 M02/M02 A2979 RMK SN1SC7 SLP100

CYHM;2008-11-20 07:00;CYHM 200700Z 18003KT 2 1/2SM -SN FEW010 FEW030 OVC070 M02/M02 A2978 RMK CF2SC1AC6 SLP095

CYHM;2008-11-20 07:15;CYHM 200715Z 19003KT 4SM -SN OVC016 RMK SC8

CYHM;2008-11-20 08:00;CYHM 200800Z 22002KT 5SM -SN SCT010 OVC050 M02/M03 A2978 RMK CF3SC5 SLP095

CYHM;2008-11-20 09:00;CYHM 200900Z 00000KT 4SM -SN BR FEW017 BKN086 M03/M03 A2978 RMK SC2AC5 SLP094

CYHM;2008-11-20 10:00;CYHM 201000Z 00000KT 4SM -SN BR FEW013 OVC058 M03/M03 A2978 RMK CF2SC6 SLP097

CYHM;2008-11-20 11:00;CYHM 201100Z 00000KT 6SM -SN BR OVC010 M02/M03 A2979 RMK SC8 SLP100

CYHM;2008-11-20 11:52;CYHM 201152Z 00000KT 6SM -SN BR SCT025 BKN050 OVC078 RMK SC3SC2AC2

CYHM;2008-11-20 12:00;CYHM 201200Z 00000KT 6SM -SN BR SCT035 BKN048 OVC078 M02/M03 A2982 RMK SC3SC3AC2 SLP111

CYHM;2008-11-20 12:54;CYHM 201254Z 01008KT 3SM -SN BR BKN004 BKN032 OVC062 RMK SF5SC2SC1

CYHM;2008-11-20 13:00;CYHM 201300Z 01007KT 2 1/2SM -SN BR BKN005 BKN030 OVC082 M02/M03 A2985 RMK SF5SC2AC2 SLP120

CYHM;2008-11-20 13:37;CYHM 201337Z 01005KT 4SM -SN BR BKN011 BKN028 OVC045 RMK SF5SC2SC2

CYHM;2008-11-20 14:00;CYHM 201400Z 01005KT 4SM -SN BR BKN042 OVC054 M02/M03 A2987 RMK SC6SC2 SLP126

CYHM;2008-11-20 14:35;CYHM 201435Z 01006KT 4SM -SN BR BKN008 BKN015 OVC042 RMK SF6SC2SC1

CYHM;2008-11-20 15:00;CYHM 201500Z 02008KT 5SM -SN BR BKN008 OVC035 M02/M03 A2989 RMK SF6SC2 SLP132

CYHM;2008-11-20 16:00;CYHM 201600Z CCA 01004KT 4SM -SN BR BKN007 OVC035 M02/M03 A2991 RMK SF6SC2 SLP138

CYHM;2008-11-20 16:23;CYHM 201623Z 01008KT 5SM BR BKN007 OVC035 RMK SF6SC2

CYHM;2008-11-20 17:00;CYHM 201700Z 01006KT 6SM BR BKN008 OVC017 M02/M03 A2990 RMK SF6SC2 SLP137

CYHM;2008-11-20 18:00;CYHM 201800Z 02004KT 5SM BR BKN010 OVC025 M01/M03 A2990 RMK SF5SC3 SLP136

CYHM;2008-11-20 18:34;CYHM 201834Z 03008KT 8SM BKN014 OVC028 RMK SC6SC2

CYHM;2008-11-20 19:00;CYHM 201900Z 35004KT 8SM SCT012 BKN023 BKN028 M01/M03 A2991 RMK SC3SC4SC1 SLP139

CYHM;2008-11-20 20:00;CYHM 202000Z 04006KT 15SM SCT018 BKN039 M01/M04 A2992 RMK SC4SC3 SLP143

CYHM;2008-11-20 21:00;CYHM 202100Z 01004KT 15SM BKN029 BKN097 M01/M05 A2994 RMK SC6AC1 SLP148

CYHM;2008-11-20 22:00;CYHM 202200Z 02005KT 15SM BKN029 BKN095 M01/M05 A2994 RMK SC7AC1 SLP151

CYHM;2008-11-20 23:00;CYHM 202300Z 02007KT 15SM BKN027 M02/M05 A2996 RMK SC7 SLP156

CYHM;2008-11-21 00:00;CYHM 210000Z 35005KT 15SM FEW095 M04/M07 A2997 RMK AC1 SLP159

CYHM;2008-11-21 01:00;CYHM 210100Z 35004KT 15SM SCT095 M04/M07 A2997 RMK AC3 SLP160

CYHM;2008-11-21 02:00;CYHM 210200Z 35005KT 15SM SCT029 BKN092 M04/M07 A2997 RMK SC3AC2 SLP161

CYHM;2008-11-21 03:00;CYHM 210300Z 35004KT 15SM FEW032 FEW072 BKN098 M04/M07 A2998 RMK SC2AC1AC4 SLP164

CYHM;2008-11-21 04:00;CYHM 210400Z 35003KT 15SM FEW100 M06/M08 A2998 RMK AC1 SLP165

CYHM;2008-11-21 05:00;CYHM 210500Z 36005KT 15SM SCT048 BKN088 M04/M07 A2999 RMK SC3AC3 SLP167

CYHM;2008-11-21 06:00;CYHM 210600Z 35006KT 15SM SCT048 BKN089 M05/M08 A3000 RMK SC4AC3 SLP170

CYHM;2008-11-21 07:00;CYHM 210700Z 35007KT 15SM BKN072 BKN095 M05/M08 A3000 RMK AC5AC2 SLP171

CYHM;2008-11-21 08:00;CYHM 210800Z 36006KT 15SM OVC080 M05/M09 A3001 RMK AC8 SLP175

CYHM;2008-11-21 09:00;CYHM 210900Z 35009KT 15SM OVC082 M06/M09 A3003 RMK AC8 SLP180

CYHM;2008-11-21 09:53;CYHM 210953Z 35010KT 2 1/2SM -SHRA FEW023 OVC082 RMK SC2AC6

CYHM;2008-11-21 10:00;CYHM 211000Z 35010KT 2 1/2SM -SHSN FEW023 OVC082 M07/M08 A3005 RMK SC2AC6 SLP188

CYHM;2008-11-21 10:38;CYHM 211038Z 36006KT 5SM -SHSN FEW024 SCT088 RMK SC2AC2

CYHM;2008-11-21 11:00;CYHM 211100Z 36005KT 15SM FEW024 SCT073 SCT230 M07/M08 A3007 RMK SC1AC2CI0 SLP193

CYHM;2008-11-21 12:00;CYHM 211200Z 35006KT 15SM FEW035 FEW082 SCT220 M08/M10 A3009 RMK SC1AC1CI1 SLP202

CYHM;2008-11-21 14:00;CYHM 211400Z CCA 35005KT 15SM FEW017 SCT100 SCT220 M08/M10 A3016 RMK SC2AC2CI0 TR CU ASOCTD CI TR SLP228

CYHM;2008-11-21 15:00;CYHM 211500Z 35007KT 15SM FEW024 FEW220 M07/M10 A3018 RMK CU1CI1 SLP234

CYHM;2008-11-21 16:00;CYHM 211600Z 33004KT 15SM FEW020 FEW028 M06/M11 A3020 RMK CU1SC2 SLP240

CYHM;2008-11-21 17:00;CYHM 211700Z 35008KT 15SM FEW030 SCT039 M05/M11 A3020 RMK CU2SC2 SLP239

CYHM;2008-11-21 18:00;CYHM 211800Z 30008KT 15SM FEW030 FEW220 M04/M11 A3020 RMK CU1CI0 CI TR SLP240

CYHM;2008-11-21 19:00;CYHM 211900Z CCA 26010KT 15SM FEW035 FEW220 M04/M12 A3020 RMK CU1CI1 TR CI SC ASOCTD SLP242

CYHM;2008-11-21 20:00;CYHM 212000Z 26011KT 15SM FEW040 FEW100 SCT200 M04/M11 A3023 RMK CU2AC1CI1 SLP250

CYHM;2008-11-21 21:00;CYHM 212100Z 27007KT 15SM FEW033 SCT210 M05/M11 A3025 RMK CU2CI1 SLP257

CYHM;2008-11-21 22:00;CYHM 212200Z 27006KT 15SM FEW030 FEW210 M06/M09 A3026 RMK CU1CI1 SLP261

CYHM;2008-11-21 23:00;CYHM 212300Z 25006KT 15SM -SHSN FEW035 FEW210 M07/M08 A3028 RMK SC1CI1 SLP266

CYHM;2008-11-22 00:00;CYHM 220000Z 27005KT 15SM FEW030 M08/M09 A3030 RMK SC1 SLP276

CYHM;2008-11-22 01:00;CYHM 220100Z 30003KT 15SM FEW030 FEW200 M09/M10 A3032 RMK SC1CI1 TR SC SLP283

CYHM;2008-11-22 02:00;CYHM 220200Z 29005KT 15SM FEW200 M09/M11 A3033 RMK CI1 SLP286

CYHM;2008-11-22 03:00;CYHM 220300Z 27005KT 15SM FEW200 M09/M11 A3034 RMK CI1 SLP289

CYHM;2008-11-22 04:00;CYHM 220400Z 25007KT 15SM FEW200 M09/M11 A3034 RMK CI1 FROIN SLP289

CYHM;2008-11-22 05:00;CYHM 220500Z 26005KT 15SM FEW140 FEW210 M10/M11 A3034 RMK AC1CI1 FROIN SLP291

CYHM;2008-11-22 06:00;CYHM 220600Z 28005KT 15SM BKN070 M09/M11 A3034 RMK AC6 SLP289

CYHM;2008-11-22 07:00;CYHM 220700Z 30003KT 15SM FEW055 OVC077 M08/M10 A3035 RMK SC1AC7 SLP292

CYHM;2008-11-22 08:00;CYHM 220800Z 34004KT 15SM BKN076 M08/M10 A3036 RMK AC5 FROIN SLP296

CYHM;2008-11-22 09:00;CYHM 220900Z 00000KT 15SM BKN068 M09/M11 A3037 RMK AC5 FROIN SLP299

CYHM;2008-11-22 10:00;CYHM 221000Z 33004KT 15SM BKN060 M09/M11 A3038 RMK SC6 FROIN SLP303

CYHM;2008-11-22 11:00;CYHM 221100Z 00000KT 15SM FEW047 BKN085 M09/M11 A3039 RMK SC2AC6 FROIN SLP308

CYHM;2008-11-22 12:00;CYHM 221200Z 28002KT 15SM FEW057 FEW088 M10/M11 A3041 RMK SC1AC2 SLP314

CYHM;2008-11-22 13:00;CYHM 221300Z 00000KT 15SM BKN054 BKN086 M09/M11 A3043 RMK SC6AC1 SLP321

CYHM;2008-11-22 14:00;CYHM 221400Z 23002KT 15SM SCT052 BKN085 BKN250 M07/M09 A3044 RMK SC3AC2CS1 SLP324

CYHM;2008-11-22 15:00;CYHM 221500Z 34002KT 15SM BKN043 BKN085 BKN250 M06/M09 A3045 RMK SC5AC2CS0 SLP326

CYHM;2008-11-22 15:04;CYHM 221504Z CCA 34002KT 15SM -SHSN BKN043 BKN085 BKN250 RMK SC5AC2CS0

CYHM;2008-11-22 15:48;CYHM 221548Z 35002KT 15SM FEW025 SCT058 SCT250 RMK CU1SC2CI0

CYHM;2008-11-22 16:00;CYHM 221600Z 34002KT 15SM FEW025 FEW058 M05/M10 A3044 RMK CU1SC2 SLP324

CYHM;2008-11-22 17:00;CYHM 221700Z 24006KT 15SM FEW025 SCT072 M04/M09 A3042 RMK CU2AC2 SLP319

CYHM;2008-11-22 18:00;CYHM 221800Z 27002KT 15SM FEW025 BKN068 M04/M10 A3041 RMK CU2AC6 SLP314

CYHM;2008-11-22 19:00;CYHM 221900Z 25002KT 15SM -SHSN FEW032 OVC053 M04/M08 A3040 RMK SC1SC7 PCPN VRY LGT SLP311

CYHM;2008-11-22 19:47;CYHM 221947Z 00000KT 2SM -SHSN BKN024 OVC041 RMK SN1SC4SC3

CYHM;2008-11-22 20:00;CYHM 222000Z 00000KT 2SM -SHSN BKN022 OVC042 M04/M07 A3040 RMK SN1SC4SC3 SLP309

CYHM;2008-11-22 20:15;CYHM 222015Z 00000KT 1SM -SN VV014 RMK SN8

CYHM;2008-11-22 20:21;CYHM 222021Z 00000KT 5/8SM -SN VV011 RMK SN8

CYHM;2008-11-22 20:32;CYHM 222032Z 00000KT 3/4SM -SN VV015 RMK SN8

CYHM;2008-11-22 21:00;CYHM 222100Z 00000KT 3/4SM -SN VV014 M04/M06 A3040 RMK SN8 SLP309

CYHM;2008-11-22 21:11;CYHM 222111Z 00000KT 1/2SM SN VV009 RMK SN8

CYHM;2008-11-22 21:19;CYHM 222119Z 00000KT 5/8SM -SN VV011 RESN RMK SN8

CYHM;2008-11-22 22:00;CYHM 222200Z 00000KT 1 1/4SM -SN SCT006 BKN011 OVC025 M04/M05 A3040 RMK SN2CF2SC3SC1 /S01/ SLP310

CYHM;2008-11-22 22:09;CYHM 222209Z 00000KT 2 1/2SM -SHSN SCT008 OVC015 RMK SN1CF3SC4

CYHM;2008-11-22 22:24;CYHM 222224Z 24002KT 3/4SM -SN VV009 RMK SN8

CYHM;2008-11-22 23:00;CYHM 222300Z 24003KT 1 1/4SM -SN VV014 M05/M06 A3040 RMK SN8 SLP311

CYHM;2008-11-22 23:49;CYHM 222349Z 00000KT 2 1/2SM -SHSN BKN017 OVC052 RMK SN1SC4SC3

CYHM;2008-11-23 00:00;CYHM 230000Z 00000KT 3SM -SHSN SCT017 OVC052 M05/M06 A3040 RMK SC4SC4 /S02/ SLP311

CYHM;2008-11-23 01:00;CYHM 230100Z 00000KT 5SM -SHSN BKN027 BKN041 M05/M06 A3041 RMK SC5SC2 SLP312

CYHM;2008-11-23 01:35;CYHM 230135Z 00000KT 10SM SCT022 RMK SC4

CYHM;2008-11-23 02:00;CYHM 230200Z 00000KT 12SM MIFG BKN019 M07/M07 A3041 RMK SC7 SLP313

CYHM;2008-11-23 03:00;CYHM 230300Z 04002KT 15SM FEW012 BKN020 M07/M09 A3041 RMK SC2SC2 SLP313

CYHM;2008-11-23 04:00;CYHM 230400Z 01002KT 15SM FEW015 FEW190 M08/M10 A3040 RMK SC1AC1 SLP310

CYHM;2008-11-23 05:00;CYHM 230500Z 36002KT 15SM FEW017 FEW043 SCT170 M09/M11 A3039 RMK CF1SC1AC2 SLP306

CYHM;2008-11-23 06:00;CYHM 230600Z 00000KT 15SM -SHSN BKN044 BKN170 M10/M12 A3038 RMK SC6AC2 SLP304

CYHM;2008-11-23 07:00;CYHM 230700Z 00000KT 15SM OVC040 M09/M11 A3038 RMK SC8 SLP304

CYHM;2008-11-23 07:30;CYHM 230730Z 00000KT 15SM -SHSN OVC031 RMK SC8

CYHM;2008-11-23 08:00;CYHM 230800Z 23002KT 15SM -SHSN OVC037 M08/M10 A3037 RMK SC8 SLP301

CYHM;2008-11-23 09:00;CYHM 230900Z 00000KT 15SM -SHSN OVC038 M08/M10 A3037 RMK SC8 SLP298

CYHM;2008-11-23 10:00;CYHM 231000Z 00000KT 15SM SCT037 BKN200 M09/M10 A3036 RMK SC3CI2 SLP297

CYHM;2008-11-23 11:00;CYHM 231100Z 22005KT 15SM BKN033 M09/M10 A3036 RMK SC6 SLP294

CYHM;2008-11-23 12:00;CYHM 231200Z 00000KT 15SM BKN031 BKN160 M08/M10 A3037 RMK SC5AC1 SLP299

CYHM;2008-11-23 13:00;CYHM 231300Z 22002KT 15SM FEW030 BKN210 M09/M10 A3036 RMK SC1CI4 SLP298

CYHM;2008-11-23 14:00;CYHM 231400Z 00000KT 15SM BKN200 M07/M09 A3036 RMK CI5 SLP297

CYHM;2008-11-23 15:00;CYHM 231500Z 23004KT 15SM BKN200 M05/M08 A3035 RMK CI2 SLP293

CYHM;2008-11-23 16:00;CYHM 231600Z 24005KT 15SM BKN210 M03/M07 A3033 RMK CI2 SLP286

CYHM;2008-11-23 17:00;CYHM 231700Z 28007KT 15SM FEW160 BKN210 M01/M07 A3030 RMK AC1CI2 SLP277

CYHM;2008-11-23 18:00;CYHM 231800Z 23007KT 15SM BKN093 BKN210 M00/M06 A3028 RMK AC6CI1 SLP268

CYHM;2008-11-23 19:00;CYHM 231900Z 24007KT 12SM OVC086 M00/M05 A3026 RMK AC8 SLP261

CYHM;2008-11-23 20:00;CYHM 232000Z 21006KT 10SM BKN082 BKN150 M00/M04 A3024 RMK AC6AC1 SLP254

CYHM;2008-11-23 21:00;CYHM 232100Z 21005KT 10SM SCT024 BKN079 BKN240 00/M03 A3023 RMK SC4AC2CI2 SLP248

CYHM;2008-11-23 22:00;CYHM 232200Z 21007KT 12SM FEW024 FEW070 BKN200 M01/M05 A3023 RMK SC1AC2CI4 SLP249

CYHM;2008-11-23 23:00;CYHM 232300Z 20006KT 15SM FEW080 BKN170 BKN200 M02/M05 A3023 RMK AC2AC3CI2 SLP249

CYHM;2008-11-24 00:00;CYHM 240000Z 20005KT 15SM FEW080 SCT150 BKN200 M03/M06 A3023 RMK AC2AC2CI2 SLP250

CYHM;2008-11-24 01:00;CYHM 240100Z 21002KT 15SM SCT150 BKN200 M03/M06 A3023 RMK AC3CI2 SLP250

CYHM;2008-11-24 02:00;CYHM 240200Z 21002KT 15SM FEW050 BKN150 BKN200 M03/M06 A3021 RMK SC2AC3CI2 SLP245

CYHM;2008-11-24 03:00;CYHM 240300Z 20002KT 15SM BKN052 BKN140 OVC180 M02/M06 A3019 RMK SC5AC2AC2 SLP237

CYHM;2008-11-24 04:00;CYHM 240400Z 00000KT 15SM SCT053 OVC150 M02/M05 A3019 RMK SC3AC5 SLP235

CYHM;2008-11-24 05:00;CYHM 240500Z 00000KT 15SM FEW052 BKN200 M03/M05 A3017 RMK SC2CI5 SLP231

CYHM;2008-11-24 06:00;CYHM 240600Z 17005KT 15SM FEW057 BKN180 M02/M06 A3014 RMK SC2AC3 SLP219

CYHM;2008-11-24 07:00;CYHM 240700Z 20004KT 15SM FEW056 FEW190 M02/M05 A3013 RMK SC1AC2 SLP216

CYHM;2008-11-24 08:00;CYHM 240800Z 17005KT 15SM BKN055 OVC130 M01/M05 A3013 RMK SC6AC2 SLP213

CYHM;2008-11-24 09:00;CYHM 240900Z 16005KT 15SM FEW064 BKN160 M01/M04 A3010 RMK SC2AC5 SLP203

CYHM;2008-11-24 10:00;CYHM 241000Z 18005KT 15SM FEW064 OVC130 M00/M04 A3008 RMK SC1AC7 SLP198

CYHM;2008-11-24 11:00;CYHM 241100Z 17005KT 15SM FEW063 OVC170 00/M04 A3005 RMK SC1AC7 SLP188

CYHM;2008-11-24 12:00;CYHM 241200Z 17006KT 15SM BKN120 OVC170 00/M03 A3003 RMK AC6AC2 SLP181

CYHM;2008-11-24 13:00;CYHM 241300Z 15004KT 15SM BKN160 OVC220 M00/M03 A3001 RMK AC6CI2 SLP174

CYHM;2008-11-24 14:00;CYHM 241400Z 16007KT 15SM OVC140 01/M02 A3000 RMK AC8 SLP170

CYHM;2008-11-24 15:00;CYHM 241500Z 16004KT 15SM BKN120 OVC230 02/M02 A2998 RMK AC6CI2 SLP163

CYHM;2008-11-24 16:00;CYHM 241600Z 13006KT 15SM BKN100 OVC160 03/M01 A2994 RMK AC6AC2 SLP147

CYHM;2008-11-24 17:00;CYHM 241700Z 14005KT 15SM BKN060 BKN075 OVC100 04/M01 A2988 RMK SC5AC2AS2 SLP130

CYHM;2008-11-24 17:38;CYHM 241738Z 16007KT 10SM -SHRASN BKN017 BKN031 OVC048 RMK SC6SC2SC1

CYHM;2008-11-24 17:48;CYHM 241748Z 15010KT 3SM -SHRASN BKN009 BKN018 OVC031 RMK SF5SC2SC1

CYHM;2008-11-24 17:52;CYHM 241752Z 15010KT 2SM -SHRASN BKN005 BKN018 OVC031 RMK SF5SC2SC1

CYHM;2008-11-24 17:55;CYHM 241755Z 14008KT 4SM -SHRASN SCT008 BKN016 OVC032 RMK SF3SC3SC2

CYHM;2008-11-24 18:00;CYHM 241800Z 12004KT 5SM -SHRASN FEW010 BKN019 OVC035 01/00 A2985 RMK SF2SC4SC2 SLP117

CYHM;2008-11-24 18:13;CYHM 241813Z 08005KT 8SM -SHRA FEW020 BKN043 OVC054 RMK SC2SC4SC2

CYHM;2008-11-24 18:32;CYHM 241832Z CCA 11007KT 10SM BKN026 OVC042 RMK SC6SC2 RERA

CYHM;2008-11-24 18:40;CYHM 241840Z 11006KT 7SM -SHSN BKN017 OVC030 RMK SC6SC2

CYHM;2008-11-24 19:00;CYHM 241900Z 12014KT 8SM -SHSN FEW014 BKN031 OVC055 02/00 A2980 RMK SC2SC4SC2 SLP100

CYHM;2008-11-24 19:40;CYHM 241940Z 11011KT 2SM -SN OVC023 RMK SN2SC6

CYHM;2008-11-24 20:00;CYHM 242000Z 09011KT 1 3/4SM -SN OVC024 01/00 A2975 RMK SN3SC5 SLP083

CYHM;2008-11-24 21:00;CYHM 242100Z CCA 09008KT 2SM -SN SCT004 OVC009 00/00 A2972 RMK SN2SF2SC4 SLP074

CYHM;2008-11-24 22:00;CYHM 242200Z 09009KT 2SM -SN OVC004 01/01 A2969 RMK SN2SF6 SLP064

CYHM;2008-11-24 23:00;CYHM 242300Z 10005KT 2SM -SN OVC003 01/01 A2966 RMK SN3SF5 SLP053

CYHM;2008-11-24 23:50;CYHM 242350Z 10003KT 1 1/4SM -RASN BR OVC006 RMK FG4SC4

CYHM;2008-11-25 00:00;CYHM 250000Z 10003KT 1 1/4SM -RASN BR OVC006 02/02 A2963 RMK FG4SC4 SLP043

CYHM;2008-11-25 01:00;CYHM 250100Z 17003KT 1 1/4SM -RA BR OVC006 02/02 A2962 RMK FG4SF4 SLP037

CYHM;2008-11-25 02:00;CYHM 250200Z 17006KT 2 1/4SM -RA BR BKN005 OVC012 04/04 A2960 RMK FG2SF5SC2 SLP031

CYHM;2008-11-25 03:00;CYHM 250300Z CCA 22012KT 6SM -SHRA BR FEW004 BKN008 OVC022 04/04 A2960 RMK SF1SF4SC3 SLP031

CYHM;2008-11-25 03:37;CYHM 250337Z 23015KT 6SM -SHRA BR FEW006 BKN016 OVC024 RMK SF2SC4SC2

CYHM;2008-11-25 04:00;CYHM 250400Z 22012KT 8SM -SHRA FEW006 OVC018 03/02 A2961 RMK SF2SC6 SLP033

CYHM;2008-11-25 05:00;CYHM 250500Z 22013KT 10SM -SHRA FEW006 OVC012 02/01 A2961 RMK SF2SC6 SLP035

CYHM;2008-11-25 06:00;CYHM 250600Z 23015KT 6SM BR BKN007 OVC022 01/01 A2960 RMK SC6SC2 SLP033

CYHM;2008-11-25 07:00;CYHM 250700Z 23010KT 10SM FEW007 OVC012 01/M00 A2962 RMK SF2SC6 SLP039

CYHM;2008-11-25 08:00;CYHM 250800Z 22012KT 10SM BKN013 OVC032 01/M00 A2962 RMK SC5SC3 SLP037

CYHM;2008-11-25 09:00;CYHM 250900Z 22012KT 12SM OVC014 01/M00 A2961 RMK SC8 SLP034

CYHM;2008-11-25 09:34;CYHM 250934Z 21012KT 12SM -SHSN FEW012 OVC020 RMK SF2SC6

CYHM;2008-11-25 10:00;CYHM 251000Z 20008KT 12SM -SHSN BKN016 OVC028 01/M00 A2961 RMK SC6SC2 SLP035

CYHM;2008-11-25 11:00;CYHM 251100Z 22010KT 15SM -SHSN FEW016 BKN046 BKN120 01/M00 A2960 RMK SC2SC5AC1 SLP031

CYHM;2008-11-25 11:10;CYHM 251110Z 23012KT 15SM FEW018 BKN048 BKN120 RMK SC1SC4AC1

CYHM;2008-11-25 12:00;CYHM 251200Z 23010KT 15SM SCT048 BKN120 BKN180 01/M00 A2960 RMK SC3AC2AC1 SLP031

CYHM;2008-11-25 13:00;CYHM 251300Z 21006KT 15SM BKN009 BKN048 BKN130 00/M00 A2961 RMK SF5SC2AC1 SLP034

CYHM;2008-11-25 14:00;CYHM 251400Z 19006KT 15SM BKN011 OVC045 01/00 A2962 RMK SF6SC2 SLP040

CYHM;2008-11-25 15:00;CYHM 251500Z 20004KT 15SM FEW016 BKN022 BKN085 02/01 A2963 RMK CU2SC4AC2 SLP041

CYHM;2008-11-25 16:00;CYHM 251600Z 00000KT 15SM BKN016 BKN026 03/01 A2963 RMK SC6SC2 TR CU ASOCTD SLP040

CYHM;2008-11-25 16:15;CYHM 251615Z 15002KT 15SM -SHSN BKN011 OVC024 RMK SF6SC2

CYHM;2008-11-25 17:00;CYHM 251700Z 15007KT 15SM -SHSN SCT008 BKN019 OVC025 02/01 A2961 RMK SF3SC3SC2 SLP035

CYHM;2008-11-25 17:15;CYHM 251715Z 17007KT 8SM -SHRA BKN011 BKN021 OVC027 RMK SF5SC2SC1

CYHM;2008-11-25 17:53;CYHM 251753Z CCA 15004KT 7SM BKN008 BKN018 OVC025 RMK SF6SC2SC1 RERA

CYHM;2008-11-25 18:00;CYHM 251800Z 15004KT 7SM BKN008 BKN018 OVC025 02/02 A2961 RMK SF6SC2SC1 SLP035

CYHM;2008-11-25 19:00;CYHM 251900Z 14004KT 15SM BKN008 BKN018 OVC042 03/02 A2962 RMK SF6SC2SC1 SLP037

CYHM;2008-11-25 20:00;CYHM 252000Z 08004KT 6SM -SHRA BR BKN008 BKN024 OVC042 02/02 A2963 RMK SF6SC2SC1 SLP041

CYHM;2008-11-25 20:50;CYHM 252050Z 34004KT 15SM -SHRA FEW008 SCT024 OVC036 RMK SF1SC2SC5

CYHM;2008-11-25 21:00;CYHM 252100Z 34006KT 15SM -SHRA FEW008 SCT024 OVC036 02/01 A2965 RMK SF1SC2SC5 SLP049

CYHM;2008-11-25 22:00;CYHM 252200Z 33007KT 6SM -SHRA BR FEW012 OVC035 02/01 A2966 RMK SF2SC6 SLP053

CYHM;2008-11-25 22:49;CYHM 252249Z 03002KT 6SM -SHSN BR FEW012 OVC028 RMK SF2SC6

CYHM;2008-11-25 23:00;CYHM 252300Z 03002KT 6SM -SHSN BR FEW012 OVC028 01/00 A2968 RMK SF2SC6 SLP060

CYHM;2008-11-26 00:00;CYHM 260000Z 31004KT 12SM -SHSN FEW015 BKN036 OVC064 01/00 A2971 RMK SF2SC6SC1 SLP068

CYHM;2008-11-26 00:50;CYHM 260050Z 29004KT 15SM BKN036 OVC062 RMK SC6SC2

CYHM;2008-11-26 01:00;CYHM 260100Z 29004KT 15SM BKN036 OVC062 01/00 A2972 RMK SC6SC2 SLP072

CYHM;2008-11-26 02:00;CYHM 260200Z 28005KT 15SM BKN027 OVC058 01/M00 A2972 RMK SC6SC2 SLP074

CYHM;2008-11-26 03:00;CYHM 260300Z 28005KT 12SM BKN017 OVC052 01/00 A2973 RMK SC6SC2 SLP077

CYHM;2008-11-26 04:00;CYHM 260400Z 26008KT 6SM -SHSN BKN015 OVC042 01/01 A2973 RMK SC6SC2 SLP076

CYHM;2008-11-26 05:00;CYHM 260500Z 27005KT 2 1/4SM -SHSN OVC008 01/01 A2973 RMK SC8 SLP077

CYHM;2008-11-26 06:00;CYHM 260600Z 28012KT 5SM -SHSN FEW004 OVC017 01/00 A2973 RMK SF2SC6 SLP077

CYHM;2008-11-26 07:00;CYHM 260700Z 29012KT 6SM -SHSN FEW009 OVC016 01/00 A2973 RMK SF2SC6 SLP076

CYHM;2008-11-26 08:00;CYHM 260800Z 29010KT 6SM -SHSN FEW006 SCT015 OVC022 01/00 A2973 RMK SF1SC2SC5 SLP077

CYHM;2008-11-26 09:00;CYHM 260900Z 27011KT 10SM -SHSN FEW009 OVC016 01/M00 A2974 RMK SF2SC6 SLP078

CYHM;2008-11-26 10:00;CYHM 261000Z 28008KT 12SM -SHRA OVC016 01/M00 A2975 RMK SC8 SLP084

CYHM;2008-11-26 11:00;CYHM 261100Z 27012KT 8SM -SHSN OVC017 01/M00 A2976 RMK SC8 SLP086

CYHM;2008-11-26 12:00;CYHM 261200Z 26010KT 8SM -SHSN BKN017 OVC042 01/00 A2977 RMK SC6SC2 SLP090

CYHM;2008-11-26 13:00;CYHM 261300Z 26014KT 5SM -SHSN FEW011 BKN023 OVC051 01/00 A2977 RMK SF2SC4SC2 SLP091

CYHM;2008-11-26 14:00;CYHM 261400Z 26012KT 5SM -SN BKN009 BKN018 OVC022 01/00 A2978 RMK SF5SC2SC1 SLP095

CYHM;2008-11-26 15:00;CYHM 261500Z 25014G19KT 8SM -SN BKN014 OVC020 01/00 A2980 RMK SC6SC2 SLP099

CYHM;2008-11-26 16:00;CYHM 261600Z 26012KT 1 1/2SM -SN BKN008 OVC021 01/00 A2981 RMK SN1SF6SC2 SLP102

CYHM;2008-11-26 16:26;CYHM 261626Z 25015KT 2SM -SN BR BKN007 BKN018 OVC022 RMK SN1SF5SC2SC1

CYHM;2008-11-26 16:51;CYHM 261651Z 25016KT 4SM -SN BR SCT008 BKN015 OVC025 RMK SF3SC3SC2

CYHM;2008-11-26 17:00;CYHM 261700Z 26015KT 5SM -SN BR BKN015 BKN024 OVC032 01/M00 A2979 RMK SC6SC2SC1 SLP098

CYHM;2008-11-26 18:00;CYHM 261800Z 24016G22KT 3SM -SN BR SCT009 BKN019 OVC026 01/M00 A2980 RMK SF3SC3SC2 SLP099

CYHM;2008-11-26 18:22;CYHM 261822Z 24016KT 2SM -SN BR SCT007 BKN012 OVC019 RMK SF4SC3SC1

CYHM;2008-11-26 19:00;CYHM 261900Z 25017KT 4SM -SN BR BKN015 OVC021 01/M00 A2980 RMK SC6SC2 SLP101

CYHM;2008-11-26 20:00;CYHM 262000Z 25016G21KT 4SM -SN BR OVC013 00/M01 A2981 RMK SC8 SLP103

CYHM;2008-11-26 21:00;CYHM 262100Z 25016KT 5SM -SN BR OVC016 00/M01 A2982 RMK SC8 SLP106

CYHM;2008-11-26 22:00;CYHM 262200Z 24016KT 6SM -SN BR OVC017 00/M01 A2984 RMK SC8 SLP112

CYHM;2008-11-26 23:00;CYHM 262300Z 25017KT 5SM -SN OVC025 00/M01 A2985 RMK SC8 SLP118

CYHM;2008-11-27 00:00;CYHM 270000Z CCA 24015KT 6SM -SN FEW020 OVC052 00/M01 A2986 RMK CF2SC6 SLP121

CYHM;2008-11-27 01:00;CYHM 270100Z 25014KT 5SM -SN FEW013 OVC035 00/M01 A2987 RMK CF2SC6 SLP125

CYHM;2008-11-27 02:00;CYHM 270200Z 24013KT 10SM -SN FEW013 BKN035 OVC065 00/M02 A2987 RMK CF1SC6SC2 SLP124

CYHM;2008-11-27 03:00;CYHM 270300Z 24013KT 15SM -SN FEW035 OVC066 00/M02 A2987 RMK SC2AC6 SLP123

CYHM;2008-11-27 04:00;CYHM 270400Z 25012KT 15SM -SHSN BKN058 00/M02 A2987 RMK SC6 SLP123

CYHM;2008-11-27 05:00;CYHM 270500Z 25010KT 15SM -SHSN BKN052 01/M02 A2987 RMK SC7 SLP123

CYHM;2008-11-27 06:00;CYHM 270600Z 25010KT 15SM -SHSN OVC044 00/M02 A2987 RMK SC8 SLP125

CYHM;2008-11-27 07:00;CYHM 270700Z 25010KT 15SM -SHSN OVC045 01/M02 A2988 RMK SC8 SLP126

CYHM;2008-11-27 08:00;CYHM 270800Z 25012KT 15SM -SHSN OVC040 01/M03 A2988 RMK SC8 SLP128

CYHM;2008-11-27 09:00;CYHM 270900Z 25009KT 15SM -SHSN OVC046 01/M03 A2988 RMK SC8 SLP128

CYHM;2008-11-27 10:00;CYHM 271000Z 25014KT 15SM -SHSN BKN041 01/M03 A2988 RMK SC7 SLP129

CYHM;2008-11-27 11:00;CYHM 271100Z 26012KT 15SM -SHSN OVC037 01/M02 A2989 RMK SC8 PCPN VRY LGT SLP132

CYHM;2008-11-27 12:00;CYHM 271200Z 25010KT 15SM OVC038 01/M01 A2991 RMK SC8 SLP136

CYHM;2008-11-27 12:13;CYHM 271213Z 25007KT 15SM BKN034 OVC039 RMK SC6SC2

CYHM;2008-11-27 13:00;CYHM 271300Z 26007KT 15SM OVC033 01/M02 A2991 RMK SC8 SLP138

CYHM;2008-11-27 14:00;CYHM 271400Z 26008KT 15SM OVC035 01/M02 A2991 RMK SC8 SLP137

CYHM;2008-11-27 15:00;CYHM 271500Z 25010KT 15SM OVC034 01/M02 A2991 RMK SC8 SLP136

CYHM;2008-11-27 16:00;CYHM 271600Z 25010KT 15SM OVC033 01/M02 A2991 RMK SC8 SLP137

CYHM;2008-11-27 17:00;CYHM 271700Z 26012KT 15SM FEW026 BKN029 OVC040 01/M02 A2990 RMK CU1SC5SC2 SLP133

CYHM;2008-11-27 18:00;CYHM 271800Z 25009KT 15SM SCT022 OVC027 01/M03 A2989 RMK SC3SC5 CU ASOCTD SLP130

CYHM;2008-11-27 19:00;CYHM 271900Z 26015G20KT 15SM FEW020 OVC028 01/M03 A2988 RMK CU1SC7 SLP128

CYHM;2008-11-27 20:00;CYHM 272000Z 25008KT 15SM OVC023 01/M03 A2987 RMK SC8 CU ASOCTD SLP124

CYHM;2008-11-27 21:00;CYHM 272100Z 23009KT 15SM OVC025 01/M03 A2984 RMK SC8 SLP116

CYHM;2008-11-27 22:00;CYHM 272200Z 23007KT 15SM OVC027 00/M03 A2984 RMK SC8 SLP116

CYHM;2008-11-27 23:00;CYHM 272300Z 23003KT 15SM BKN032 OVC190 M00/M03 A2983 RMK SC6AC2 SLP110

CYHM;2008-11-28 00:00;CYHM 280000Z 19004KT 15SM FEW022 BKN035 OVC180 M00/M02 A2981 RMK SC2SC4AC2 SLP106

CYHM;2008-11-28 01:00;CYHM 280100Z 18006KT 15SM BKN025 OVC042 00/M02 A2978 RMK SC6SC2 SLP094

CYHM;2008-11-28 02:00;CYHM 280200Z 22005KT 15SM FEW020 BKN030 OVC042 01/M02 A2976 RMK SC2SC3SC2 SLP088

CYHM;2008-11-28 02:45;CYHM 280245Z 23005KT 12SM -SHSN OVC026 RMK SC8 PCPN VRY LGT

CYHM;2008-11-28 03:00;CYHM 280300Z 21004KT 12SM -SHSN OVC026 01/M01 A2973 RMK SC8 PCPN VRY LGT SLP075

CYHM;2008-11-28 03:37;CYHM 280337Z 20004KT 15SM BKN026 OVC043 RMK SC6SC2

CYHM;2008-11-28 04:00;CYHM 280400Z 00000KT 15SM SCT026 OVC045 01/M01 A2969 RMK SC3SC5 SLP063

CYHM;2008-11-28 05:00;CYHM 280500Z 17003KT 12SM BKN034 OVC062 01/M01 A2965 RMK SC5SC3 SLP048

CYHM;2008-11-28 06:00;CYHM 280600Z 20006KT 10SM -SHRA BKN028 OVC056 02/01 A2961 RMK SC6SC2 SLP035

CYHM;2008-11-28 07:00;CYHM 280700Z 24008KT 9SM -SHRA FEW022 BKN034 BKN078 02/00 A2960 RMK SC2SC3AC2 PCPN VRY LGT SLP033

CYHM;2008-11-28 07:44;CYHM 280744Z 24009KT 8SM FEW036 BKN056 BKN078 RMK SC2SC4AC2

CYHM;2008-11-28 08:00;CYHM 280800Z 24009KT 8SM FEW028 BKN052 BKN078 01/M00 A2961 RMK SC2SC5AC1 SLP035

CYHM;2008-11-28 09:00;CYHM 280900Z CCA 24011KT 8SM OVC036 02/M00 A2962 RMK SC8 SLP037

CYHM;2008-11-28 10:00;CYHM 281000Z 23014KT 8SM FEW021 BKN028 OVC040 02/M01 A2963 RMK CU2SC6SC1 SLP042

CYHM;2008-11-28 11:00;CYHM 281100Z 23013KT 6SM -SHSN FEW017 BKN042 OVC063 01/M01 A2965 RMK CU2SC3SC2 SLP047

CYHM;2008-11-28 12:00;CYHM 281200Z CCA 25012KT 6SM -SHSN SCT017 BKN031 OVC078 01/M00 A2967 RMK SC3SC3AC2 SLP057

CYHM;2008-11-28 13:00;CYHM 281300Z 25013KT 8SM -SHSN FEW035 BKN048 OVC080 01/M01 A2969 RMK SC2SC4AC2 SLP063

CYHM;2008-11-28 13:52;CYHM 281352Z 24014KT 15SM FEW018 SCT022 BKN029 BKN080 RMK CU1SC2SC2AC2

CYHM;2008-11-28 14:00;CYHM 281400Z 24014KT 15SM FEW019 SCT023 BKN032 BKN077 02/M00 A2970 RMK CU2SC2SC2AC2 SLP065

CYHM;2008-11-28 15:00;CYHM 281500Z 25015G20KT 15SM FEW019 BKN048 BKN078 03/M01 A2971 RMK CU2SC4AC1 SLP069

CYHM;2008-11-28 16:00;CYHM 281600Z 26013KT 15SM FEW020 SCT029 04/M00 A2971 RMK CU2SC2 SLP069

CYHM;2008-11-28 17:00;CYHM 281700Z 25014KT 15SM FEW024 BKN053 BKN084 04/M01 A2970 RMK CU2SC3AC1 SLP066

CYHM;2008-11-28 17:53;CYHM 281753Z 25016KT 15SM -SHSN FEW023 OVC048 RMK CU2SC6 CU ASOCTD

CYHM;2008-11-28 18:00;CYHM 281800Z 25014G20KT 15SM -SHSN FEW024 OVC044 03/M01 A2970 RMK CU2SC6 SLP066

CYHM;2008-11-28 19:00;CYHM 281900Z 25017KT 15SM -SHSN BKN025 OVC044 02/M02 A2970 RMK SC6SC2 SLP065

CYHM;2008-11-28 20:00;CYHM 282000Z 25014KT 4SM -SHSN OVC031 01/M01 A2971 RMK SC8 SLP070

CYHM;2008-11-28 20:10;CYHM 282010Z 25014KT 1 1/2SM -SHSN OVC020 RMK SN2SC6 VIS VRB 1 - 2

CYHM;2008-11-28 20:26;CYHM 282026Z 25014KT 1SM -SHSN OVC013 RMK SN2SC6 VIS VRB 3/4 - 11/4

CYHM;2008-11-28 21:00;CYHM 282100Z 25014KT 1 1/2SM -SHSN OVC012 01/00 A2974 RMK SN2SC6 VIS VRB 1 - 2 SLP079

CYHM;2008-11-28 21:14;CYHM 282114Z 26010KT 3/4SM -SN OVC010 RMK SN3SC5 VIS VRB 1/2 - 1

CYHM;2008-11-28 21:54;CYHM 282154Z 26008KT 2 1/2SM -SN OVC015 RMK SC8

CYHM;2008-11-28 22:00;CYHM 282200Z 26011KT 2 1/2SM -SN SCT007 OVC045 00/M00 A2976 RMK CF3SC5 SLP087

CYHM;2008-11-28 23:00;CYHM 282300Z 27005KT 5SM -SN FEW006 OVC025 00/M00 A2978 RMK CF2SC6 /S01/ SLP093

CYHM;2008-11-29 00:00;CYHM 290000Z 24007KT 15SM -SN OVC050 00/M00 A2980 RMK SC8 SLP100

CYHM;2008-11-29 01:00;CYHM 290100Z 23009KT 12SM -SN OVC049 00/M01 A2981 RMK SC8 SLP104

CYHM;2008-11-29 02:00;CYHM 290200Z 24007KT 15SM -SN FEW035 OVC063 00/M01 A2982 RMK CF1SC7 SLP108

CYHM;2008-11-29 02:50;CYHM 290250Z 28007KT 2SM -SN OVC017 RMK SN1SC7

CYHM;2008-11-29 03:00;CYHM 290300Z 30007KT 4SM -SN OVC033 00/M01 A2984 RMK SC8 SLP114

CYHM;2008-11-29 04:00;CYHM 290400Z 25006KT 7SM -SN OVC030 00/M01 A2984 RMK SC8 SLP115

CYHM;2008-11-29 05:00;CYHM 290500Z 24007KT 15SM -SN FEW025 OVC055 00/M01 A2985 RMK CF2SC6 SLP117

CYHM;2008-11-29 06:00;CYHM 290600Z 24007KT 15SM -SN OVC062 01/M02 A2985 RMK SC8 SLP117

CYHM;2008-11-29 07:00;CYHM 290700Z 25006KT 15SM -SN OVC058 01/M02 A2986 RMK SC8 SLP119

CYHM;2008-11-29 08:00;CYHM 290800Z 26005KT 15SM -SN OVC054 01/M02 A2986 RMK SC8 SLP120

CYHM;2008-11-29 09:00;CYHM 290900Z 27005KT 15SM -SN OVC048 00/M02 A2986 RMK SC8 SLP121

CYHM;2008-11-29 10:00;CYHM 291000Z 25003KT 15SM -SN OVC057 00/M02 A2986 RMK SC8 SLP122

CYHM;2008-11-29 11:00;CYHM 291100Z 24004KT 15SM BKN059 M00/M02 A2987 RMK SC6 SLP124

CYHM;2008-11-29 12:00;CYHM 291200Z 20003KT 15SM BKN054 M01/M02 A2988 RMK SC7 SLP128

CYHM;2008-11-29 13:00;CYHM 291300Z 22003KT 15SM BKN050 M01/M01 A2989 RMK SC7 SLP131

CYHM;2008-11-29 14:00;CYHM 291400Z 23005KT 15SM BKN050 00/M01 A2990 RMK SC7 SLP135

CYHM;2008-11-29 15:00;CYHM 291500Z 23007KT 15SM FEW050 01/M02 A2991 RMK SC2 SLP136

CYHM;2008-11-29 16:00;CYHM 291600Z 23011KT 15SM FEW025 FEW048 02/M01 A2991 RMK CU1SC2 CU TR SLP136

CYHM;2008-11-29 17:00;CYHM 291700Z 24008KT 15SM BKN043 03/M04 A2989 RMK SC7 SLP130

CYHM;2008-11-29 18:00;CYHM 291800Z 25009KT 15SM BKN042 03/M04 A2988 RMK SC6 SLP127

CYHM;2008-11-29 19:00;CYHM 291900Z 24009KT 15SM BKN042 04/M04 A2986 RMK SC6 SLP121

CYHM;2008-11-29 20:00;CYHM 292000Z 24008KT 15SM BKN041 BKN250 04/M05 A2986 RMK SC5CI1 CI TR SLP121

CYHM;2008-11-29 21:00;CYHM 292100Z 23005KT 15SM SCT041 BKN250 03/M04 A2986 RMK SC4CI2 SLP121

CYHM;2008-11-29 22:00;CYHM 292200Z 22005KT 15SM SCT040 BKN240 01/M04 A2986 RMK SC3CI2 SLP121

CYHM;2008-11-29 23:00;CYHM 292300Z 19005KT 15SM FEW040 BKN210 00/M03 A2986 RMK SC2CI2 SLP119

CYHM;2008-11-30 00:00;CYHM 300000Z 20004KT 15SM FEW040 SCT200 M01/M03 A2985 RMK SC1CI2 SLP118

CYHM;2008-11-30 01:00;CYHM 300100Z 19002KT 15SM FEW030 SCT200 M01/M03 A2984 RMK SC1CI1 SLP116

CYHM;2008-11-30 02:00;CYHM 300200Z 20002KT 15SM FEW030 FEW200 M01/M04 A2985 RMK SC1CI1 SC TR SLP118

CYHM;2008-11-30 03:00;CYHM 300300Z 00000KT 15SM FEW100 FEW200 M02/M04 A2984 RMK AC1CI1 CI TR SLP116

CYHM;2008-11-30 04:00;CYHM 300400Z 00000KT 15SM FEW200 M02/M05 A2983 RMK CI2 SLP112

CYHM;2008-11-30 05:00;CYHM 300500Z 10003KT 15SM SCT200 M03/M04 A2982 RMK CI2 SLP109

CYHM;2008-11-30 06:00;CYHM 300600Z 09005KT 15SM SCT190 M04/M05 A2981 RMK AC2 SLP104

CYHM;2008-11-30 07:00;CYHM 300700Z 05006KT 15SM BKN170 M02/M04 A2979 RMK AC3 SLP099

CYHM;2008-11-30 08:00;CYHM 300800Z 06007KT 15SM BKN160 M02/M04 A2977 RMK AC4 SLP090

CYHM;2008-11-30 09:00;CYHM 300900Z 05007KT 15SM SCT200 M02/M03 A2975 RMK CI2 SLP083

CYHM;2008-11-30 10:00;CYHM 301000Z 05008KT 15SM BKN210 M02/M04 A2974 RMK CI6 FROIN SLP079

CYHM;2008-11-30 11:00;CYHM 301100Z 05008KT 15SM BKN170 BKN220 M02/M03 A2971 RMK AC5CI1 FROIN SLP070

CYHM;2008-11-30 12:00;CYHM 301200Z 06006KT 15SM FEW130 SCT220 M02/M03 A2970 RMK AC2CI1 SLP067

CYHM;2008-11-30 13:00;CYHM 301300Z 05010KT 15SM BKN130 BKN220 M01/M03 A2967 RMK AC6CI1 SLP058

CYHM;2008-11-30 14:00;CYHM 301400Z 05010KT 15SM OVC110 M00/M02 A2965 RMK AC8 SLP052

CYHM;2008-11-30 15:00;CYHM 301500Z 06008KT 15SM BKN084 OVC110 M00/M03 A2964 RMK AC6AC2 SLP046

CYHM;2008-11-30 16:00;CYHM 301600Z 05013KT 15SM FEW092 BKN170 01/M03 A2960 RMK AC2AC6 SLP033

CYHM;2008-11-30 17:00;CYHM 301700Z 07012KT 12SM BKN051 OVC160 01/M03 A2956 RMK SC6AC2 SLP022

CYHM;2008-11-30 18:00;CYHM 301800Z 07013KT 10SM OVC041 02/M02 A2952 RMK SC8 SLP007

CYHM;2008-11-30 18:48;CYHM 301848Z 07014KT 9SM -SHSN SCT025 OVC032 RMK SC3SC5

CYHM;2008-11-30 19:00;CYHM 301900Z 07013KT 8SM -SHSN SCT025 OVC032 01/M02 A2949 RMK SC3SC5 SLP998

CYHM;2008-11-30 19:14;CYHM 301914Z 07013KT 1 1/2SM -SN BKN022 OVC031 RMK SN2SC4SC2

CYHM;2008-11-30 19:17;CYHM 301917Z 07014KT 3/4SM -SN BKN022 OVC030 RMK SN3SC3SC2

CYHM;2008-11-30 19:25;CYHM 301925Z 07013KT 5/8SM -SN VV010 RMK SN8

CYHM;2008-11-30 19:38;CYHM 301938Z 06013KT 1SM -SN BKN012 OVC030 RMK SN2SC3SC2

CYHM;2008-11-30 20:00;CYHM 302000Z 06013KT 3/4SM -SNPL VV012 00/M01 A2948 RMK SN8 /S01/ SLP993

CYHM;2008-11-30 20:05;CYHM 302005Z 06013KT 1 1/4SM -SNPL BKN014 OVC031 RMK SN2SC3SC2

CYHM;2008-11-30 20:20;CYHM 302020Z 05015KT 2 1/2SM -SNPL SCT014 OVC031 RMK SN1SC3SC4

CYHM;2008-11-30 20:42;CYHM 302042Z CCA 06015KT 3SM -SN SCT007 BKN015 OVC029 REPL RMK CF3SC2SC3

CYHM;2008-11-30 21:00;CYHM 302100Z 06018KT 3SM -SHSN BR SCT006 OVC022 00/M01 A2945 REPL RMK SF4SC4 SLP981

CYHM;2008-11-30 22:00;CYHM 302200Z 06018KT 2 1/2SM -SHRASN BR BKN007 OVC022 00/M00 A2940 RMK FG1SF5SC2 SLP967

CYHM;2008-11-30 23:00;CYHM 302300Z CCA 06019G24KT 2 1/2SM -RAPL BR BKN006 OVC019 00/M00 A2938 RMK FG1SF6SC2 SLP959

CYHM;2008-11-30 23:21;CYHM 302321Z CCA 06019G25KT 2SM -FZRA BR BKN005 OVC018 REPL RMK FG1SF6SC2

CYHM;2008-12-01 01:00;CYHM 010100Z 06017KT 2 1/2SM -RA BR FEW002 BKN005 OVC012 01/00 A2930 REFZRA RMK FG1SF2SF5SC1 SLP930

CYHM;2008-12-01 01:32;CYHM 010132Z CCA 06018KT 2 1/2SM -RAPL BR FEW002 OVC005 RMK FG1SF2SF6

CYHM;2008-12-01 01:48;CYHM 010148Z CCA 06017KT 1 3/4SM -SNPL BR SCT002 OVC005 RMK SN2SF2SF4

CYHM;2008-12-01 02:00;CYHM 010200Z 06017KT 2 1/4SM -SNPL BR SCT003 OVC006 00/00 A2926 RMK SN1SF3SF4 SLP919

CYHM;2008-12-01 02:20;CYHM 010220Z 06017KT 1 1/2SM -SN BR BKN003 OVC006 REPL RMK SN2SF3SF3

CYHM;2008-12-01 03:00;CYHM 010300Z 06016KT 1 3/4SM -SNPL BR BKN003 OVC006 00/00 A2923 RMK SN2SF4SF2 SLP908

CYHM;2008-12-01 04:00;CYHM 010400Z 06012KT 1 1/2SM -SN BR OVC002 00/00 A2922 RMK SN2SF6 VIS VRB 1 - 2 /S01/ SLP904

CYHM;2008-12-01 05:00;CYHM 010500Z 06007KT 1 1/2SM -SN BR VV002 00/00 A2921 RMK SN8 VIS VRB 1 - 2 /S02/ SLP900

CYHM;2008-12-01 06:00;CYHM 010600Z 08003KT 1 1/2SM -SN BR OVC002 00/00 A2918 RMK FG2SF6 VIS VRB 1 - 2 SLP888

CYHM;2008-12-01 07:00;CYHM 010700Z 14002KT 1 1/2SM -RA BR BKN002 OVC012 00/00 A2917 RMK FG2SF5SC2 VIS VRB 1 - 2 SLP884

CYHM;2008-12-01 08:00;CYHM 010800Z 19006KT 8SM -RA FEW002 OVC013 01/01 A2915 RMK SF2SC6 SLP879

CYHM;2008-12-01 08:31;CYHM 010831Z 19008KT 10SM -RA OVC007 RMK SF8

CYHM;2008-12-01 09:00;CYHM 010900Z 20011KT 6SM -RA BR OVC009 03/03 A2914 RMK SC8 CIG RAG SLP875

CYHM;2008-12-01 10:00;CYHM 011000Z 22014KT 10SM -RA OVC010 02/02 A2916 RMK SC8 SLP880

CYHM;2008-12-01 11:00;CYHM 011100Z 23016KT 10SM -RA SCT011 OVC040 02/02 A2919 RMK CF4SC4 SLP891

CYHM;2008-12-01 11:18;CYHM 011118Z 23012KT 15SM FEW008 BKN015 BKN042 RMK CF2SC3SC2

CYHM;2008-12-01 12:00;CYHM 011200Z 24013KT 10SM FEW022 BKN031 OVC060 02/01 A2920 RMK SC2SC4SC2 SLP896

CYHM;2008-12-01 12:27;CYHM 011227Z 23014KT 6SM -SHRA SCT008 BKN014 OVC027 RMK SF3SC4SC1

CYHM;2008-12-01 12:31;CYHM 011231Z 22012KT 3SM -SHSN BR BKN008 BKN014 OVC022 RMK SF5SC2SC1

CYHM;2008-12-01 13:00;CYHM 011300Z 22012KT 6SM -SHSN BR SCT009 BKN030 OVC062 01/01 A2922 RMK SF3SC3SC2 SLP901

CYHM;2008-12-01 14:00;CYHM 011400Z 22016KT 6SM -SHSN BR BKN038 OVC052 02/01 A2923 RMK SC6SC2 SLP904

CYHM;2008-12-01 14:32;CYHM 011432Z 24020G25KT 15SM OVC052 RMK SC8

CYHM;2008-12-01 15:00;CYHM 011500Z 23024G32KT 15SM BKN039 OVC052 02/M01 A2924 RMK SC6SC2 SLP908

CYHM;2008-12-01 16:00;CYHM 011600Z 24018KT 15SM BKN028 OVC042 02/M01 A2925 RMK SC6SC2 SLP912

CYHM;2008-12-01 16:31;CYHM 011631Z 21018KT 15SM -SHRA BKN022 OVC032 RMK SC6SC2

CYHM;2008-12-01 16:39;CYHM 011639Z CCA 22018G24KT 6SM -SHRASN BKN023 OVC035 RMK SC6SC2

CYHM;2008-12-01 16:47;CYHM 011647Z 23014KT 6SM -SHSN BKN016 OVC025 RMK SC6SC2

CYHM;2008-12-01 17:00;CYHM 011700Z 24012KT 8SM -SHSN BKN015 OVC022 02/00 A2926 RMK SC6SC2 SLP914

CYHM;2008-12-01 17:26;CYHM 011726Z 25016KT 1SM -SHSN BKN005 OVC015 RMK SN2SF4SC2

CYHM;2008-12-01 17:38;CYHM 011738Z 24014KT 3SM -SHSN FEW006 BKN016 OVC028 RMK SF2SC4SC2

CYHM;2008-12-01 17:48;CYHM 011748Z 22014KT 2SM -SG FEW006 BKN012 BKN028 OVC038 RMK SF2SC4SC2SC1

CYHM;2008-12-01 18:00;CYHM 011800Z 23014KT 7SM -SHSN SCT007 BKN020 OVC038 01/00 A2927 RMK SF3SC3SC2 SLP919

CYHM;2008-12-01 19:00;CYHM 011900Z 23020G25KT 8SM -SHSN SCT011 BKN020 OVC032 02/01 A2928 RMK SF3SC2SC2 SLP923

CYHM;2008-12-01 19:44;CYHM 011944Z 21020G28KT 12SM -SHRA BKN012 OVC042 RMK SC6SC2 SF ASOCTD

CYHM;2008-12-01 20:00;CYHM 012000Z 21018G26KT 12SM -SHRA BKN012 OVC042 02/01 A2930 RMK SC7SC1 SF ASOCTD SLP931

CYHM;2008-12-01 20:42;CYHM 012042Z 23013KT 3/4SM -SHSN BKN002 OVC009 RMK SN3SF2SC2 VSBY VRBL 1/2-1SM

CYHM;2008-12-01 21:00;CYHM 012100Z 22014G20KT 3/4SM -SHSN BKN003 OVC009 00/00 A2934 RMK SN3SF2SC2 VSBY VRBL 1/2-1SM SLP942

CYHM;2008-12-01 21:40;CYHM 012140Z 22015KT 2SM -SHSN SCT006 OVC034 RMK SF4SC4

CYHM;2008-12-01 22:00;CYHM 012200Z 22012KT 12SM -SHSN FEW006 BKN032 OVC054 00/00 A2936 RMK SF1SC6SC2 SLP951

CYHM;2008-12-01 22:46;CYHM 012246Z 23012KT 5SM -SHSN BKN008 OVC054 RMK SF5SC3

CYHM;2008-12-01 23:00;CYHM 012300Z 22013KT 5SM -SHSN BKN007 OVC054 01/00 A2939 RMK SF6SC2 SLP958

CYHM;2008-12-02 00:00;CYHM 020000Z 23013KT 5SM -SHSN BKN008 OVC026 01/01 A2942 RMK SF6SC2 SLP971

CYHM;2008-12-02 01:00;CYHM 020100Z 24014G20KT 5SM -SHSN BKN009 BKN044 OVC094 01/00 A2947 RMK SF5SC2AC2 SLP987

CYHM;2008-12-02 01:35;CYHM 020135Z 25015G21KT 15SM -SHSN FEW008 SCT052 OVC088 RMK SF2SC2AC5

CYHM;2008-12-02 02:00;CYHM 020200Z 25015KT 15SM -SHSN FEW009 BKN038 OVC090 00/M02 A2950 RMK SF1SC5AC2 SLP998

CYHM;2008-12-02 03:00;CYHM 020300Z 25013KT 15SM -SHSN FEW012 BKN034 BKN052 M01/M03 A2954 RMK SF1SC4SC2 SLP012

CYHM;2008-12-02 04:00;CYHM 020400Z 23015KT 15SM -SHSN FEW012 BKN022 OVC090 M01/M03 A2958 RMK SF1SC4AC3 SLP024

CYHM;2008-12-02 05:00;CYHM 020500Z 24012KT 15SM -SHSN SCT013 BKN044 OVC080 M01/M03 A2961 RMK SC3SC2AC2 SLP036

CYHM;2008-12-02 06:00;CYHM 020600Z 24013KT 15SM -SHSN SCT013 SCT044 OVC086 M01/M04 A2965 RMK SC3SC1AC4 SLP048

CYHM;2008-12-02 07:00;CYHM 020700Z 24015KT 2 1/4SM -SHSN SCT012 BKN018 OVC084 M01/M03 A2969 RMK SF3SC4AC1 VSBY VRBL 11/2-3SM SLP062

CYHM;2008-12-02 08:00;CYHM 020800Z 25014G20KT 15SM -SHSN SCT014 BKN022 BKN060 OVC130 M01/M03 A2972 RMK SF3SC2SC1AC2 SLP074

CYHM;2008-12-02 09:00;CYHM 020900Z 25014KT 15SM -SHSN FEW015 BKN024 OVC140 M01/M03 A2976 RMK SF2SC4AC2 SLP086

CYHM;2008-12-02 10:00;CYHM 021000Z 24015KT 15SM -SHSN SCT012 BKN020 BKN044 OVC160 M01/M03 A2980 RMK SF3SC3SC1AC1 SLP100

CYHM;2008-12-02 11:00;CYHM 021100Z 25014G20KT 15SM -SHSN BKN017 OVC044 M01/M03 A2983 RMK SC6SC2 SLP111

CYHM;2008-12-02 11:29;CYHM 021129Z 25018G24KT 15SM BKN021 OVC041 RMK SC6SC2

CYHM;2008-12-02 12:00;CYHM 021200Z 24018G24KT 15SM BKN029 OVC038 M01/M04 A2988 RMK SC6SC2 SLP129

CYHM;2008-12-02 13:00;CYHM 021300Z 24018KT 15SM BKN032 OVC042 M01/M04 A2992 RMK SC5SC3 SLP141

CYHM;2008-12-02 14:00;CYHM 021400Z 24015G20KT 15SM BKN032 OVC040 M01/M05 A2995 RMK SC6SC2 SLP151

CYHM;2008-12-02 15:00;CYHM 021500Z 25018KT 15SM -SHSN FEW025 BKN038 M01/M05 A2997 RMK CU1SC6 SLP161

CYHM;2008-12-02 15:29;CYHM 021529Z 25014G21KT 15SM FEW025 SCT040 RMK CU1SC2

CYHM;2008-12-02 16:00;CYHM 021600Z 26018G24KT 15SM FEW025 FEW035 SCT052 00/M06 A2999 RMK CU1SC1SC2 SLP165

CYHM;2008-12-02 17:00;CYHM 021700Z 26014KT 15SM FEW028 FEW052 FEW210 M00/M06 A2999 RMK CU1SC2CI1 CI TR SLP166

CYHM;2008-12-02 18:00;CYHM 021800Z 25016KT 15SM FEW024 SCT035 BKN049 00/M05 A2998 RMK CU2SC2SC2 SLP164

CYHM;2008-12-02 19:00;CYHM 021900Z 25014KT 15SM SCT035 BKN048 M00/M06 A2999 RMK SC3SC4 TR CU ASOCTD SLP166

CYHM;2008-12-02 20:00;CYHM 022000Z 23014KT 12SM -SHSN OVC038 M01/M05 A3001 RMK SC8 SF ASOCTD SLP173

CYHM;2008-12-02 20:21;CYHM 022021Z 23012KT 2SM -SHSN BKN022 OVC038 RMK SC6SC2

CYHM;2008-12-02 21:00;CYHM 022100Z 25012KT 2SM -SHSN BKN016 OVC032 M02/M03 A3003 RMK SC6SC2 SLP179

CYHM;2008-12-02 22:00;CYHM 022200Z 23012KT 2SM -SHSN BKN016 OVC034 M02/M04 A3004 RMK SC6SC2 SLP182

CYHM;2008-12-02 22:35;CYHM 022235Z 23012KT 8SM -SHSN SCT014 OVC034 RMK SF3SC5

CYHM;2008-12-02 23:00;CYHM 022300Z 22012KT 7SM -SHSN BKN012 OVC034 M02/M04 A3006 RMK SF6SC2 SLP189

CYHM;2008-12-03 00:00;CYHM 030000Z 21012KT 12SM -SHSN FEW012 OVC025 M02/M05 A3006 RMK SF2SC6 SLP189

CYHM;2008-12-03 01:00;CYHM 030100Z 21012G19KT 15SM -SHSN OVC024 M02/M04 A3006 RMK SC8 SLP191

CYHM;2008-12-03 02:00;CYHM 030200Z 20015KT 12SM -SHSN OVC022 M02/M05 A3005 RMK SC8 SLP187

CYHM;2008-12-03 03:00;CYHM 030300Z 21014KT 15SM -SHSN OVC024 M02/M05 A3004 RMK SC8 SLP185

CYHM;2008-12-03 04:00;CYHM 030400Z 21015G21KT 15SM -SHSN OVC023 M01/M05 A3005 RMK SC8 SLP187

CYHM;2008-12-03 05:00;CYHM 030500Z 21015G22KT 15SM -SHSN OVC025 M01/M05 A3006 RMK SC8 SLP190

CYHM;2008-12-03 06:00;CYHM 030600Z 21014G20KT 15SM -SHSN OVC025 M01/M05 A3006 RMK SC8 SLP190

CYHM;2008-12-03 07:00;CYHM 030700Z 21015G21KT 15SM -SHSN OVC023 M02/M05 A3006 RMK SC8 SLP190

CYHM;2008-12-03 08:00;CYHM 030800Z 22015KT 15SM -SHSN OVC026 M02/M05 A3007 RMK SC8 SLP195

CYHM;2008-12-03 09:00;CYHM 030900Z 20015G22KT 15SM FEW025 OVC120 M01/M05 A3005 RMK SC2AC6 SLP188

CYHM;2008-12-03 10:00;CYHM 031000Z 20017G23KT 15SM FEW018 OVC120 M01/M04 A3005 RMK SC2AC6 SLP187

CYHM;2008-12-03 10:45;CYHM 031045Z 21014G21KT 15SM -SHSN BKN017 OVC110 RMK SC5AC3

CYHM;2008-12-03 11:00;CYHM 031100Z 20016G22KT 15SM -SHSN BKN017 OVC120 M01/M03 A3004 RMK SC5AC3 SLP182

CYHM;2008-12-03 12:00;CYHM 031200Z 20018KT 15SM -SHSN SCT018 BKN092 BKN120 M00/M03 A3002 RMK SC4AC2AC1 SLP178

CYHM;2008-12-03 12:31;CYHM 031231Z 22014KT 15SM FEW018 SCT092 BKN210 RMK SC2AC2CI1

CYHM;2008-12-03 13:00;CYHM 031300Z 22014KT 15SM FEW020 BKN120 BKN210 00/M02 A3001 RMK SC1AC6CI1 SLP175

CYHM;2008-12-03 14:00;CYHM 031400Z 21015G20KT 15SM BKN100 BKN140 BKN220 01/M02 A3002 RMK AC5AC1CI1 SLP177

CYHM;2008-12-03 15:00;CYHM 031500Z 20018KT 15SM FEW120 SCT210 02/M02 A3001 RMK AC2CI1 SLP173

CYHM;2008-12-03 16:00;CYHM 031600Z 22022KT 15SM FEW016 BKN120 BKN210 02/M02 A2999 RMK CU1AC6CI1 CU TR CONTRAIL SLP167

CYHM;2008-12-03 17:00;CYHM 031700Z 20018G23KT 15SM FEW020 FEW130 FEW210 03/M01 A2995 RMK CU1AC1CI0 CI TR SLP154

CYHM;2008-12-03 18:00;CYHM 031800Z 21016KT 15SM FEW030 BKN120 04/M01 A2993 RMK CU2AC3 SLP145

CYHM;2008-12-03 19:00;CYHM 031900Z 20018KT 15SM FEW030 FEW160 SCT210 04/M01 A2992 RMK CU2AC1CI1 CONTRAIL SLP141

CYHM;2008-12-03 20:00;CYHM 032000Z 21018G28KT 15SM FEW030 SCT170 BKN210 04/M02 A2991 RMK CU2AC2CI2 SLP137

CYHM;2008-12-03 21:00;CYHM 032100Z 21013KT 15SM FEW030 SCT160 BKN200 04/M01 A2990 RMK CU1AC3CI2 CONTRAILS SLP135

CYHM;2008-12-03 22:00;CYHM 032200Z 22013KT 15SM FEW039 BKN051 04/M01 A2988 RMK SC2SC5 SLP129

CYHM;2008-12-03 23:00;CYHM 032300Z 20010KT 15SM OVC038 05/M00 A2987 RMK SC8 SLP125

CYHM;2008-12-04 00:00;CYHM 040000Z 21018G25KT 15SM -SHRA OVC031 06/00 A2986 RMK SC8 SLP119

CYHM;2008-12-04 01:00;CYHM 040100Z 21018G30KT 15SM OVC028 06/M01 A2984 RMK SC8 SLP115

CYHM;2008-12-04 01:37;CYHM 040137Z 21025G33KT 15SM -SHRA OVC023 RMK SC8

CYHM;2008-12-04 02:00;CYHM 040200Z 21027G36KT 15SM -SHRA OVC022 05/01 A2981 RMK SC8 SLP105

CYHM;2008-12-04 03:00;CYHM 040300Z 21016G26KT 15SM OVC016 05/02 A2981 RMK SC8 SLP104

CYHM;2008-12-04 04:00;CYHM 040400Z 21017G24KT 12SM -SHRA OVC017 05/03 A2981 RMK SC8 SLP103

CYHM;2008-12-04 04:26;CYHM 040426Z 21016G21KT 8SM -SHRA OVC012 RMK SC8

CYHM;2008-12-04 05:00;CYHM 040500Z 22014KT 7SM -SHRA OVC008 04/04 A2980 RMK SF8 CIG RAG SLP098

CYHM;2008-12-04 06:00;CYHM 040600Z 21015KT 7SM -SHRA FEW006 OVC010 04/04 A2979 RMK SF2SC6 SLP095

CYHM;2008-12-04 07:00;CYHM 040700Z 23020KT 6SM -SHRA FEW003 OVC015 05/04 A2980 RMK SF2SC6 SLP097

CYHM;2008-12-04 08:00;CYHM 040800Z 24015G22KT 8SM -RA SCT006 OVC013 04/04 A2981 RMK SF3SC5 SLP100

CYHM;2008-12-04 09:00;CYHM 040900Z 24015KT 8SM -RA BKN008 OVC052 03/03 A2981 RMK SF6SC2 SLP102

CYHM;2008-12-04 10:00;CYHM 041000Z 25014KT 8SM -RA FEW009 OVC017 03/02 A2982 RMK SF2SC6 SLP105

CYHM;2008-12-04 10:47;CYHM 041047Z 25011G16KT 9SM -SN OVC015 RMK SC8

CYHM;2008-12-04 11:00;CYHM 041100Z 25016G21KT 10SM -SN BKN015 OVC080 02/01 A2984 RMK SC6AC2 SLP112

CYHM;2008-12-04 12:00;CYHM 041200Z 26012G18KT 15SM -SN BKN010 OVC024 02/01 A2988 RMK SF6SC2 SLP127

CYHM;2008-12-04 12:37;CYHM 041237Z 30015G20KT 15SM BKN024 OVC038 RMK SC6SC2

CYHM;2008-12-04 13:00;CYHM 041300Z 29014KT 15SM BKN024 OVC040 01/M02 A2994 RMK SC6SC2 SLP147

CYHM;2008-12-04 13:52;CYHM 041352Z 29008KT 10SM -SHSN BKN024 OVC038 RMK SC6SC2

CYHM;2008-12-04 14:00;CYHM 041400Z 27010G15KT 10SM -SHSN BKN022 OVC041 M00/M04 A3001 RMK SC6SC2 SLP167

CYHM;2008-12-04 14:54;CYHM 041454Z 27014G20KT 15SM BKN031 BKN042 RMK SC5SC2

CYHM;2008-12-04 15:00;CYHM 041500Z 28014G20KT 15SM SCT032 BKN042 M01/M06 A3005 RMK SC3SC4 SLP184

CYHM;2008-12-04 16:00;CYHM 041600Z 28016G26KT 15SM BKN033 BKN039 M01/M06 A3007 RMK SC6SC2 SLP192

CYHM;2008-12-04 17:00;CYHM 041700Z CCA 26015G20KT 15SM -SHSN BKN037 M01/M06 A3007 RMK SC7 SLP193

CYHM;2008-12-04 18:00;CYHM 041800Z 26018G23KT 15SM -SHSN BKN037 OVC042 M01/M06 A3009 RMK SC6SC2 SLP198

CYHM;2008-12-04 19:00;CYHM 041900Z 25018G23KT 15SM -SHSN FEW028 BKN038 BKN220 M01/M08 A3010 RMK CU2SC3CI2 CONTRAIL SLP200

CYHM;2008-12-04 19:45;CYHM 041945Z 27015KT 230V340 15SM FEW030 BKN240 RMK SC2CI2

CYHM;2008-12-04 20:00;CYHM 042000Z 26014KT 15SM FEW030 BKN240 M01/M08 A3010 RMK SC2CI2 SLP203

CYHM;2008-12-04 21:00;CYHM 042100Z 27012KT 15SM BKN030 BKN230 M01/M07 A3013 RMK SC5CI1 SLP212

CYHM;2008-12-04 22:00;CYHM 042200Z 24008KT 15SM FEW028 BKN044 BKN250 M02/M08 A3015 RMK CU1SC6CI0 SLP218

CYHM;2008-12-04 23:00;CYHM 042300Z 25005KT 15SM BKN043 M03/M08 A3017 RMK SC7 SLP225

CYHM;2008-12-05 00:00;CYHM 050000Z 24012KT 15SM BKN041 M03/M08 A3018 RMK SC5 SLP231

CYHM;2008-12-05 01:00;CYHM 050100Z 25012KT 15SM BKN042 M03/M09 A3019 RMK SC7 SLP235

CYHM;2008-12-05 02:00;CYHM 050200Z 26012KT 15SM BKN045 M04/M09 A3020 RMK SC7 SLP237

CYHM;2008-12-05 03:00;CYHM 050300Z 25010KT 15SM BKN048 M04/M09 A3021 RMK SC6 SLP242

CYHM;2008-12-05 04:00;CYHM 050400Z 24010KT 15SM FEW048 FEW250 M04/M08 A3021 RMK SC1CI1 SLP241

CYHM;2008-12-05 05:00;CYHM 050500Z 25009KT 15SM FEW050 M05/M09 A3021 RMK SC1 SLP241

CYHM;2008-12-05 06:00;CYHM 050600Z 26016KT 15SM FEW050 M05/M10 A3021 RMK SC1 SLP242

CYHM;2008-12-05 07:00;CYHM 050700Z 25012KT 15SM SKC M06/M09 A3020 RMK SLP240

CYHM;2008-12-05 08:00;CYHM 050800Z 25012KT 15SM SKC M06/M09 A3021 RMK SLP242

CYHM;2008-12-05 09:00;CYHM 050900Z 25009KT 15SM SKC M07/M09 A3021 RMK SLP244

CYHM;2008-12-05 10:00;CYHM 051000Z 25008KT 15SM SKC M07/M10 A3021 RMK SLP242

CYHM;2008-12-05 11:00;CYHM 051100Z 24010KT 15SM FEW050 M07/M10 A3021 RMK SC1 SLP243

CYHM;2008-12-05 12:00;CYHM 051200Z 26010KT 15SM FEW045 M07/M10 A3021 RMK SC1 SC TR SLP245

CYHM;2008-12-05 13:00;CYHM 051300Z 24010KT 15SM FEW045 FEW220 M08/M10 A3023 RMK SC1CI1 SLP249

CYHM;2008-12-05 14:00;CYHM 051400Z 26014KT 15SM FEW020 FEW100 M07/M10 A3023 RMK CU1AC1 CU TR AC TR SLP250

CYHM;2008-12-05 15:00;CYHM 051500Z CCA 27014KT 15SM FEW025 FEW210 M05/M10 A3021 RMK CU1CI1 CU TR CI TR SLP242

CYHM;2008-12-05 16:00;CYHM 051600Z 27014G20KT 15SM FEW028 M04/M11 A3022 RMK CU2 SLP246

CYHM;2008-12-05 17:00;CYHM 051700Z 26018G23KT 15SM FEW036 SCT220 M04/M11 A3019 RMK CU2CI0 CI TR SLP236

CYHM;2008-12-05 18:00;CYHM 051800Z 28016G23KT 15SM FEW032 SCT042 SCT220 M04/M13 A3017 RMK CU2SC2CI0 SLP228

CYHM;2008-12-05 19:00;CYHM 051900Z 28020KT 15SM FEW036 SCT042 SCT220 M04/M13 A3016 RMK CU2SC2CI0 CI TR SLP225

CYHM;2008-12-05 20:00;CYHM 052000Z 28015KT 15SM BKN045 M05/M12 A3014 RMK CU6 SLP221

CYHM;2008-12-05 21:00;CYHM 052100Z 26014KT 15SM BKN050 M05/M13 A3014 RMK SC6 CU ASOCTD SLP222

CYHM;2008-12-05 22:00;CYHM 052200Z 30006KT 15SM FEW050 M06/M13 A3014 RMK SC2 SLP220

CYHM;2008-12-05 23:00;CYHM 052300Z 26003KT 15SM FEW050 FEW200 M07/M12 A3014 RMK SC1CI1 SLP220

CYHM;2008-12-06 00:00;CYHM 060000Z 21003KT 15SM FEW053 SCT200 M08/M11 A3013 RMK SC2CI1 SLP219

CYHM;2008-12-06 01:00;CYHM 060100Z 20005KT 15SM OVC046 M07/M10 A3012 RMK SC8 SLP215

CYHM;2008-12-06 01:39;CYHM 060139Z 20004KT 12SM -SHSN OVC029 RMK SC8

CYHM;2008-12-06 02:00;CYHM 060200Z 21006KT 12SM -SHSN FEW029 OVC047 M06/M09 A3010 RMK SC2SC6 SLP208

CYHM;2008-12-06 03:00;CYHM 060300Z 22008KT 7SM -SHSN FEW023 OVC045 M06/M08 A3009 RMK SC2SC6 SLP202

CYHM;2008-12-06 03:36;CYHM 060336Z 24011KT 1 1/2SM -SN VV010 RMK SN8 VIS VRB 1 - 2

CYHM;2008-12-06 03:47;CYHM 060347Z 24011KT 4SM -SN OVC043 RMK SC8

CYHM;2008-12-06 04:00;CYHM 060400Z 24011KT 5SM -SN OVC039 M06/M08 A3007 RMK SC8 /S01/ SLP197

CYHM;2008-12-06 05:00;CYHM 060500Z 24011KT 8SM -SN OVC040 M07/M09 A3005 RMK SC8 SLP190

CYHM;2008-12-06 06:00;CYHM 060600Z 24010KT 5SM -SN OVC034 M07/M09 A3004 RMK SC8 SLP185

CYHM;2008-12-06 07:00;CYHM 060700Z 25008KT 6SM -SN OVC029 M07/M09 A3002 RMK SC8 SLP180

CYHM;2008-12-06 08:00;CYHM 060800Z 23006KT 6SM -SN OVC030 M07/M09 A3001 RMK SC8 SLP177

CYHM;2008-12-06 09:00;CYHM 060900Z 22007KT 7SM -SN OVC032 M07/M09 A2999 RMK SC8 SLP170

CYHM;2008-12-06 09:19;CYHM 060919Z 23007KT 2SM -SN OVC027 RMK SN1SC7

CYHM;2008-12-06 09:44;CYHM 060944Z 23005KT 5SM -SN OVC026 RMK SC8

CYHM;2008-12-06 10:00;CYHM 061000Z 23005KT 4SM -SN OVC025 M07/M09 A2997 RMK SC8 /S01/ SLP161

CYHM;2008-12-06 11:00;CYHM 061100Z 24007KT 6SM -SN OVC015 M07/M09 A2995 RMK SC8 CIG RAG SLP157

CYHM;2008-12-06 11:39;CYHM 061139Z 23006KT 6SM -SN OVC013 RMK SC8 CIG RAG

CYHM;2008-12-06 12:00;CYHM 061200Z 24007KT 6SM -SN OVC014 M07/M09 A2994 RMK SC8 CIG RAG SLP155

CYHM;2008-12-06 13:00;CYHM 061300Z 22006KT 6SM -SN OVC015 M07/M09 A2992 RMK SC8 SLP147

CYHM;2008-12-06 13:41;CYHM 061341Z 21006KT 2SM -SN BKN014 OVC028 RMK SN1SC6SC2

CYHM;2008-12-06 14:00;CYHM 061400Z 19006KT 2SM -SN SCT014 BKN028 M07/M09 A2989 RMK SN1SC3SC2 SLP138

CYHM;2008-12-06 14:30;CYHM 061430Z 18007KT 6SM -SN FEW028 BKN100 BKN180 RMK SC2AC3AC1

CYHM;2008-12-06 15:00;CYHM 061500Z 19010KT 15SM -SN FEW014 FEW028 BKN100 M05/M07 A2987 RMK CF1SC1AC6 CF TR SLP127

CYHM;2008-12-06 16:00;CYHM 061600Z 21014G21KT 15SM -SN BKN021 OVC110 M04/M08 A2984 RMK SC7AC1 PCPN VRY LGT SLP119

CYHM;2008-12-06 17:00;CYHM 061700Z 20017KT 15SM -SN BKN023 OVC110 M04/M08 A2980 RMK SC7AC1 PCPN VRY LGT SLP106

CYHM;2008-12-06 18:00;CYHM 061800Z 19014KT 4SM -SN BKN022 OVC110 M04/M07 A2976 RMK SC5AC3 SLP091

CYHM;2008-12-06 19:00;CYHM 061900Z 19016KT 12SM -SN BKN021 BKN110 M03/M07 A2972 RMK SC5AC2 PCPN VRY LGT SLP077

CYHM;2008-12-06 19:18;CYHM 061918Z 19017KT 1 3/4SM -SN DRSN BKN018 OVC025 RMK SN2SC4SC2

CYHM;2008-12-06 19:52;CYHM 061952Z 19015KT 3/4SM -SN DRSN BKN014 OVC020 RMK SN3SC4SC1

CYHM;2008-12-06 20:00;CYHM 062000Z 19015KT 1SM -SN DRSN BKN013 OVC019 M03/M05 A2970 RMK SN3SC3SC2 SLP071

CYHM;2008-12-06 20:36;CYHM 062036Z 19015KT 1 3/4SM -SN DRSN SCT007 BKN012 OVC020 RMK SN2CF2SC2SC2

CYHM;2008-12-06 21:00;CYHM 062100Z 20015KT 1 1/2SM -SN DRSN SCT007 BKN012 OVC021 M03/M04 A2968 RMK SN2SC2SC2SC2 SLP065

CYHM;2008-12-06 22:00;CYHM 062200Z 20016G22KT 1 1/2SM -SN DRSN SCT008 BKN012 OVC020 M03/M04 A2967 RMK SN2CF2SC2SC2 SLP060

CYHM;2008-12-06 22:09;CYHM 062209Z 20015G21KT 2SM -SN DRSN SCT008 BKN013 OVC022 RMK SN1CF2SC2SC2

CYHM;2008-12-06 22:26;CYHM 062226Z 20015G21KT 3SM -SN DRSN SCT008 BKN013 OVC022 RMK SN1CF2SC2SC2

CYHM;2008-12-06 23:00;CYHM 062300Z 20017KT 4SM -SHSN DRSN FEW008 BKN013 OVC022 M03/M04 A2966 RMK CF2SC3SC2 /S01/ SLP056

CYHM;2008-12-07 00:00;CYHM 070000Z 20016KT 4SM -SHSN FEW008 BKN014 BKN025 OVC100 M02/M04 A2964 RMK SC2SC3SC2AC1 SLP048

CYHM;2008-12-07 00:44;CYHM 070044Z 20017KT 2SM -SN DRSN SCT008 BKN013 OVC025 RMK SN1CF2SC3SC2

CYHM;2008-12-07 01:00;CYHM 070100Z 20017KT 1 1/4SM -SN DRSN SCT008 BKN013 OVC022 M02/M03 A2961 RMK SN2CF2SC2SC2 SLP040

CYHM;2008-12-07 01:32;CYHM 070132Z 20015KT 3/4SM -SN BKN007 OVC013 RMK SN3CF2SC3

CYHM;2008-12-07 02:00;CYHM 070200Z 20015KT 3/4SM -SN BKN007 OVC014 M02/M03 A2960 RMK SN3CF2SC3 SLP037

CYHM;2008-12-07 02:44;CYHM 070244Z 22013KT 1SM -SN BKN008 OVC014 RMK SN2CF3SC2

CYHM;2008-12-07 03:00;CYHM 070300Z 23012KT 1 1/4SM -SN BKN008 OVC014 M02/M03 A2959 RMK SN2CF3SC2 SLP032

CYHM;2008-12-07 03:11;CYHM 070311Z 24013KT 3SM -SN BKN017 OVC036 RMK CF6SC2 VIS VRB 2 - 4

CYHM;2008-12-07 04:00;CYHM 070400Z 25013KT 6SM -SHSN BKN010 BKN019 M02/M03 A2958 RMK CF5SC2 /S01/ SLP028

CYHM;2008-12-07 05:00;CYHM 070500Z 25012KT 10SM -SHSN BKN018 BKN120 M02/M05 A2959 RMK CF6AC2 SLP030

CYHM;2008-12-07 06:00;CYHM 070600Z 26018G23KT 7SM -SHSN DRSN FEW013 BKN110 M03/M05 A2959 RMK CF2AC2 /S02/ SLP031

CYHM;2008-12-07 07:00;CYHM 070700Z 26018G24KT 15SM -SHSN DRSN BKN016 BKN110 M04/M06 A2962 RMK CF6AC2 SLP040

CYHM;2008-12-07 08:00;CYHM 070800Z 26017KT 15SM -SHSN DRSN SCT017 BKN046 BKN110 M04/M07 A2964 RMK CF4SC2AC1 SLP048

CYHM;2008-12-07 09:00;CYHM 070900Z 26014KT 12SM -SHSN DRSN BKN028 BKN040 BKN110 M05/M06 A2966 RMK CF5SC1AC1 SLP056

CYHM;2008-12-07 10:00;CYHM 071000Z 29017G23KT 15SM -SHSN BKN028 BKN110 M05/M08 A2969 RMK CF5AC1 SLP066

CYHM;2008-12-07 11:00;CYHM 071100Z 29015G23KT 15SM FEW020 SCT110 M06/M10 A2974 RMK CF2AC1 SLP081

CYHM;2008-12-07 12:00;CYHM 071200Z 29013G22KT 15SM FEW026 SCT110 M07/M11 A2979 RMK SC2AC1 SLP099

CYHM;2008-12-07 12:04;CYHM 071204Z 29017KT 15SM -SHSN FEW026 SCT110 RMK SC2AC1

CYHM;2008-12-07 13:00;CYHM 071300Z 30013KT 15SM -SHSN DRSN BKN026 BKN110 M07/M11 A2983 RMK SC5AC1 VIS SW 5 SLP114

CYHM;2008-12-07 14:00;CYHM 071400Z 31017G28KT 260V360 15SM -SHSN DRSN FEW028 FEW110 M08/M13 A2988 RMK SC2AC1 PCPN VRY LGT SLP130

CYHM;2008-12-07 15:00;CYHM 071500Z 31015G25KT 15SM DRSN FEW029 M09/M14 A2994 RMK SC2 SLP152

CYHM;2008-12-07 16:00;CYHM 071600Z 30022G32KT 15SM DRSN SCT022 M09/M14 A2997 RMK CF2 SLP161

CYHM;2008-12-07 17:00;CYHM 071700Z 30020G29KT 15SM DRSN SCT026 M09/M15 A2999 RMK CF2 SLP170

CYHM;2008-12-07 18:00;CYHM 071800Z 31014G22KT 15SM FEW028 M10/M15 A3003 RMK CF2 SLP183

CYHM;2008-12-07 19:00;CYHM 071900Z 29018KT 15SM FEW030 M10/M16 A3007 RMK CU1 SLP196

CYHM;2008-12-07 20:00;CYHM 072000Z 30012G17KT 15SM FEW026 M11/M16 A3011 RMK CU1 SLP210

CYHM;2008-12-07 21:00;CYHM 072100Z 30010KT 15SM FEW026 FEW220 M12/M17 A3013 RMK CU1CI1 CI TR SLP219

CYHM;2008-12-07 22:00;CYHM 072200Z 28007KT 15SM FEW026 FEW240 M13/M17 A3018 RMK SC1CI1 CI TR SLP234

CYHM;2008-12-07 23:00;CYHM 072300Z 28003KT 15SM FEW026 FEW240 M14/M17 A3020 RMK SC1CI1 SC TR SLP240

CYHM;2008-12-08 00:00;CYHM 080000Z 24003KT 15SM FEW025 FEW230 M15/M18 A3021 RMK SC1CI1 SC TR CI TR SLP249

CYHM;2008-12-08 01:00;CYHM 080100Z 23002KT 15SM FEW025 FEW150 M15/M17 A3022 RMK SC1AC1 SC TR SLP252

CYHM;2008-12-08 02:00;CYHM 080200Z 22002KT 15SM FEW025 FEW070 SCT200 M15/M17 A3022 RMK SC1AC1CI2 SC TR SLP251

CYHM;2008-12-08 03:00;CYHM 080300Z 24003KT 15SM BKN043 BKN070 BKN150 M14/M16 A3023 RMK SC5AC1AC1 SLP255

CYHM;2008-12-08 04:00;CYHM 080400Z 25004KT 15SM BKN042 BKN150 M12/M15 A3023 RMK SC6AC2 SLP254

CYHM;2008-12-08 05:00;CYHM 080500Z 22004KT 15SM SCT040 OVC130 M12/M14 A3023 RMK SC3AS4 SLP254

CYHM;2008-12-08 06:00;CYHM 080600Z CCA 24004KT 15SM FEW040 BKN130 M11/M13 A3023 RMK SC2AS4 SLP256

CYHM;2008-12-08 07:00;CYHM 080700Z 24004KT 15SM BKN048 OVC140 M11/M12 A3024 RMK SC6AC2 SLP259

CYHM;2008-12-08 08:00;CYHM 080800Z 24004KT 15SM -SHSN FEW048 OVC120 M10/M12 A3025 RMK SC2AC6 SLP260

CYHM;2008-12-08 09:00;CYHM 080900Z 00000KT 10SM -SHSN OVC050 M10/M12 A3025 RMK SC8 SLP262

CYHM;2008-12-08 10:00;CYHM 081000Z 00000KT 12SM -SHSN FEW040 OVC100 M10/M12 A3025 RMK SC2AC6 SLP260

CYHM;2008-12-08 11:00;CYHM 081100Z 09002KT 15SM -SHSN OVC091 M09/M11 A3024 RMK AC8 SLP257

CYHM;2008-12-08 11:32;CYHM 081132Z 06003KT 15SM OVC090 RMK AC8

CYHM;2008-12-08 12:00;CYHM 081200Z 07002KT 15SM BKN069 OVC092 M09/M11 A3025 RMK AC5AC3 SLP261

CYHM;2008-12-08 13:00;CYHM 081300Z 04003KT 15SM BKN042 OVC070 M09/M11 A3025 RMK SC6AC2 CU ASOCTD SLP262

CYHM;2008-12-08 13:55;CYHM 081355Z 08005KT 6SM -SHSN BKN021 OVC034 RMK SC6SC2

CYHM;2008-12-08 14:00;CYHM 081400Z 08006KT 6SM -SHSN BKN020 OVC035 M08/M10 A3026 RMK SC6SC2 SLP264

CYHM;2008-12-08 14:20;CYHM 081420Z 10005KT 2 1/2SM -SHSN BKN014 OVC028 RMK SC6SC2

CYHM;2008-12-08 15:00;CYHM 081500Z 11007KT 2 1/2SM -SHSN BKN016 OVC031 M08/M10 A3027 RMK SC6SC2 SLP267

CYHM;2008-12-08 15:21;CYHM 081521Z 12008KT 4SM -SHSN BKN021 BKN035 OVC086 RMK SC5SC2AC2

CYHM;2008-12-08 16:00;CYHM 081600Z 11006KT 6SM -SHSN BKN021 BKN038 OVC082 M07/M09 A3026 RMK SC6SC2AC1 SLP266

CYHM;2008-12-08 17:00;CYHM 081700Z 10006KT 10SM -SHSN BKN029 OVC042 M06/M08 A3024 RMK SC6SC2 SLP258

CYHM;2008-12-08 18:00;CYHM 081800Z 09004KT 10SM -SHSN BKN029 BKN042 BKN210 M06/M08 A3022 RMK SC5SC2CI1 CU TR ASOCTD SLP249

CYHM;2008-12-08 18:13;CYHM 081813Z 11006KT 15SM FEW016 BKN029 BKN210 RMK CU1SC4CI2

CYHM;2008-12-08 19:00;CYHM 081900Z 10007KT 15SM FEW020 BKN031 BKN068 M05/M07 A3021 RMK CU1SC4AC2 SLP246

CYHM;2008-12-08 20:00;CYHM 082000Z 10006KT 15SM FEW028 BKN061 M04/M07 A3020 RMK SC1SC6 SLP243

CYHM;2008-12-08 21:00;CYHM 082100Z 15007KT 15SM FEW026 OVC057 M03/M08 A3018 RMK SC1SC7 1ST LYR TR SLP235

CYHM;2008-12-08 22:00;CYHM 082200Z 12007KT 15SM OVC057 M04/M09 A3019 RMK SC8 SLP238

CYHM;2008-12-08 23:00;CYHM 082300Z 09007KT 15SM OVC048 M04/M09 A3018 RMK SC8 SLP235

CYHM;2008-12-09 00:00;CYHM 090000Z 09006KT 15SM OVC047 M04/M09 A3017 RMK SC8 SLP232

CYHM;2008-12-09 01:00;CYHM 090100Z 09006KT 15SM BKN052 OVC082 M04/M09 A3015 RMK SC6AS2 SLP225

CYHM;2008-12-09 01:41;CYHM 090141Z 08006KT 15SM -SHSN FEW048 OVC078 RMK SC2AS6

CYHM;2008-12-09 02:00;CYHM 090200Z 09004KT 15SM -SHSN FEW048 OVC076 M04/M08 A3013 RMK SC1AS6 SLP220

CYHM;2008-12-09 03:00;CYHM 090300Z 09003KT 4SM -SHSN FEW013 OVC032 M04/M07 A3013 RMK SF1SC6 SLP216

CYHM;2008-12-09 03:50;CYHM 090350Z 07003KT 2 1/4SM -SN OVC025 RMK SN3SC5

CYHM;2008-12-09 04:00;CYHM 090400Z 08003KT 2 1/4SM -SN OVC025 M04/M06 A3011 RMK SN3SC5 SLP210

CYHM;2008-12-09 05:00;CYHM 090500Z 08003KT 3SM -SN SCT008 OVC024 M04/M05 A3009 RMK SN2SF2SC4 SLP204

CYHM;2008-12-09 06:00;CYHM 090600Z 08003KT 1 3/4SM -SN SCT005 OVC015 M04/M04 A3007 RMK SN2SF2SC4 SLP196

CYHM;2008-12-09 07:00;CYHM 090700Z 08003KT 2 1/2SM -SN SCT005 OVC034 M03/M04 A3006 RMK SN2SF2SC5 SLP192

CYHM;2008-12-09 08:00;CYHM 090800Z 05004KT 2 1/4SM -SN SCT002 OVC025 M03/M03 A3004 RMK SN2SF2SC4 SLP185

CYHM;2008-12-09 09:00;CYHM 090900Z 05009KT 2 1/2SM -SN BR FEW002 SCT044 OVC064 M02/M02 A2995 RMK SF1SC2SC5 SLP155

CYHM;2008-12-09 10:00;CYHM 091000Z 02005KT 2 1/2SM BR BKN044 BKN083 BKN140 M02/M02 A2996 RMK SC5AC2AC1 SLP158

CYHM;2008-12-09 11:00;CYHM 091100Z 06007KT 2SM BR FEW084 SCT130 BKN220 M03/M03 A2993 RMK AC1AC3CS1 SLP148

CYHM;2008-12-09 11:32;CYHM 091132Z 04005KT 8SM FEW085 BKN160 BKN210 RMK AC2AC3CI2

CYHM;2008-12-09 12:00;CYHM 091200Z 05003KT 15SM FEW120 SCT180 BKN210 M03/M03 A2991 RMK AC2AC2CI1 SLP140

CYHM;2008-12-09 13:00;CYHM 091300Z 24006KT 15SM BKN035 OVC100 M00/M01 A2992 RMK SC6AC2 SLP145

CYHM;2008-12-09 13:54;CYHM 091354Z 23015KT 15SM -SHRA BKN031 OVC038 RMK SC6SC2

CYHM;2008-12-09 14:00;CYHM 091400Z 23015G20KT 15SM -SHRA BKN032 OVC040 03/00 A2991 RMK SC6SC2 SLP141

CYHM;2008-12-09 15:00;CYHM 091500Z 22015G20KT 15SM -SHRA BKN027 OVC040 03/01 A2991 RMK SC6SC2 SLP138

CYHM;2008-12-09 16:00;CYHM 091600Z 21014KT 8SM -SHRA BKN022 OVC030 03/02 A2991 RMK SC6SC2 SLP139

CYHM;2008-12-09 17:00;CYHM 091700Z 21012KT 5SM -SHRA BR OVC039 02/02 A2988 RMK SC8 SLP129

CYHM;2008-12-09 17:39;CYHM 091739Z 21012KT 5SM -SHRA BR SCT009 BKN024 OVC042 RMK SF3SC3SC2

CYHM;2008-12-09 18:00;CYHM 091800Z 19010KT 4SM -SHRA BR BKN022 OVC040 02/02 A2985 RMK SC6SC2 SLP120

CYHM;2008-12-09 18:44;CYHM 091844Z 19010KT 4SM -SHRA BR BKN007 OVC024 RMK SF6SC2

CYHM;2008-12-09 19:00;CYHM 091900Z 19010KT 4SM -SHRA BR BKN004 OVC023 02/02 A2982 RMK SF6SC2 SLP110

CYHM;2008-12-09 19:08;CYHM 091908Z 19012KT 2 1/2SM -RA BR BKN004 OVC024 RMK SF6SC2

CYHM;2008-12-09 20:00;CYHM 092000Z 20010KT 2 1/2SM -RA BR OVC004 03/03 A2981 RMK SF8 SLP105

CYHM;2008-12-09 21:00;CYHM 092100Z 20012KT 2SM -RA BR BKN004 OVC018 03/03 A2981 RMK SF6SC2 SLP102

CYHM;2008-12-09 22:00;CYHM 092200Z 20009KT 2SM -RA BR BKN004 OVC020 03/03 A2979 RMK SF7SC1 SLP098

CYHM;2008-12-09 23:00;CYHM 092300Z 21007KT 1 3/4SM -RA BR OVC002 04/04 A2979 RMK FG2SF6 SLP096

CYHM;2008-12-10 00:00;CYHM 100000Z 21009KT 2SM -RA BR OVC003 04/04 A2979 RMK FG3SF5 SLP096

CYHM;2008-12-10 01:00;CYHM 100100Z 21008KT 2 1/4SM -RA BR OVC002 05/05 A2978 RMK FG3SF5 SLP093

CYHM;2008-12-10 02:00;CYHM 100200Z 23007KT 2 1/4SM -RA BR OVC002 05/05 A2978 RMK FG3SF5 SLP093

CYHM;2008-12-10 03:00;CYHM 100300Z 25007KT 1 3/4SM -RA BR OVC002 05/05 A2978 RMK FG3SF5 SLP090

CYHM;2008-12-10 04:00;CYHM 100400Z 24006KT 1 3/4SM -RA BR OVC002 05/05 A2977 RMK FG3SF5 SLP088

CYHM;2008-12-10 05:00;CYHM 100500Z 28005KT 2SM -RA BR OVC003 04/04 A2977 RMK FG3SF5 SLP089

CYHM;2008-12-10 06:00;CYHM 100600Z 31003KT 6SM -RA BR FEW006 OVC020 03/03 A2976 RMK SF2SC6 SLP086

CYHM;2008-12-10 07:00;CYHM 100700Z 31002KT 1 3/4SM -RA BR FEW004 OVC022 03/03 A2978 RMK SF2SC6 SLP091

CYHM;2008-12-10 08:00;CYHM 100800Z 31005KT 5SM -RA BR BKN007 OVC027 02/02 A2980 RMK SF5SC3 SLP097

CYHM;2008-12-10 09:00;CYHM 100900Z 33006KT 5SM -RA BR BKN008 OVC047 02/02 A2983 RMK SF5SC3 SLP109

CYHM;2008-12-10 09:34;CYHM 100934Z 33008KT 5SM -RA BR SCT006 OVC042 RMK SF3SC5

CYHM;2008-12-10 10:00;CYHM 101000Z 33011KT 5SM -RASN BR FEW006 OVC038 01/01 A2986 RMK SF2SC6 SLP119

CYHM;2008-12-10 10:45;CYHM 101045Z 32013KT 3SM -SN BR FEW006 OVC054 RMK SF2SC6

CYHM;2008-12-10 11:00;CYHM 101100Z 32013KT 4SM -SN BR FEW006 OVC058 00/M01 A2991 RMK SF2SC6 SLP136

CYHM;2008-12-10 12:00;CYHM 101200Z 32012KT 15SM -SN BKN026 OVC046 M01/M02 A2997 RMK SC6SC2 SLP156

CYHM;2008-12-10 13:00;CYHM 101300Z 34008KT 15SM -SN FEW024 BKN057 OVC075 M01/M04 A3000 RMK SC2SC4AC2 SLP167

CYHM;2008-12-10 14:00;CYHM 101400Z 34013KT 15SM -SN FEW010 SCT054 OVC075 M02/M04 A3004 RMK SF2SC2AC4 SLP182

CYHM;2008-12-10 14:33;CYHM 101433Z 34012KT 15SM FEW030 BKN075 OVC150 RMK SC2AC4AC2

CYHM;2008-12-10 15:00;CYHM 101500Z 33008KT 15SM FEW015 BKN130 OVC160 M02/M05 A3007 RMK SC2AC4AC2 SLP190

CYHM;2008-12-10 16:00;CYHM 101600Z 34010KT 15SM BKN015 BKN100 M03/M05 A3009 RMK SC6AC2 SLP199

CYHM;2008-12-10 17:00;CYHM 101700Z 33010KT 15SM FEW019 SCT140 SCT210 M02/M05 A3009 RMK SC2AC2CI1 CI TR SLP198

CYHM;2008-12-10 18:00;CYHM 101800Z 34002KT 15SM SCT019 BKN070 BKN210 M02/M06 A3008 RMK SC4AC1CI1 SLP196

CYHM;2008-12-10 19:00;CYHM 101900Z 34008KT 15SM FEW024 SCT075 M02/M06 A3008 RMK SC2AC1 SLP197

CYHM;2008-12-10 20:00;CYHM 102000Z 02007KT 15SM SCT025 BKN250 M01/M06 A3009 RMK SC4CI0 SLP198

CYHM;2008-12-10 21:00;CYHM 102100Z 33002KT 15SM BKN028 M02/M07 A3013 RMK SC6 SLP212

CYHM;2008-12-10 22:00;CYHM 102200Z 00000KT 15SM OVC028 M02/M07 A3016 RMK SC8 SLP223

CYHM;2008-12-10 23:00;CYHM 102300Z 00000KT 15SM OVC024 M03/M07 A3018 RMK SC8 SLP230

CYHM;2008-12-11 00:00;CYHM 110000Z 00000KT 15SM OVC021 M04/M08 A3018 RMK SC8 SLP233

CYHM;2008-12-11 01:00;CYHM 110100Z 00000KT 15SM OVC023 M04/M08 A3017 RMK SC7 SLP230

CYHM;2008-12-11 02:00;CYHM 110200Z 00000KT 15SM BKN022 M05/M08 A3018 RMK SC7 SLP231

CYHM;2008-12-11 03:00;CYHM 110300Z 00000KT 15SM BKN021 M06/M09 A3017 RMK SC6 SLP231

CYHM;2008-12-11 04:00;CYHM 110400Z 00000KT 15SM BKN024 M06/M09 A3016 RMK SC7 SLP227

CYHM;2008-12-11 05:00;CYHM 110500Z 00000KT 15SM BKN021 BKN220 M07/M09 A3016 RMK SC4CI1 SLP225

CYHM;2008-12-11 06:00;CYHM 110600Z 00000KT 15SM FEW022 BKN240 M07/M09 A3016 RMK SC2CI2 SLP226

CYHM;2008-12-11 07:00;CYHM 110700Z 00000KT 15SM FEW016 BKN160 M06/M08 A3013 RMK SC2AS4 SLP215

CYHM;2008-12-11 08:00;CYHM 110800Z 00000KT 15SM FEW016 SCT200 M07/M08 A3012 RMK SC1CI2 SLP214

CYHM;2008-12-11 09:00;CYHM 110900Z 00000KT 15SM BKN025 OVC200 M06/M07 A3010 RMK SC6CI2 SLP205

CYHM;2008-12-11 10:00;CYHM 111000Z 00000KT 15SM BKN025 OVC200 M05/M07 A3007 RMK SC7CI1 SLP196

CYHM;2008-12-11 11:00;CYHM 111100Z 00000KT 15SM FEW022 BKN220 M07/M08 A3007 RMK SC2CI2 SLP196

CYHM;2008-12-11 12:00;CYHM 111200Z 00000KT 15SM FEW024 SCT220 M07/M08 A3008 RMK SC1CI2 SLP199

CYHM;2008-12-11 13:00;CYHM 111300Z 00000KT 15SM FEW024 BKN210 M07/M08 A3007 RMK SC1CI3 SLP197

CYHM;2008-12-11 14:00;CYHM 111400Z 00000KT 15SM FEW020 FEW040 BKN210 M05/M07 A3007 RMK CU1SC1CI4 CU TR SLP196

CYHM;2008-12-11 15:00;CYHM 111500Z 00000KT 15SM FEW020 FEW040 BKN210 M03/M06 A3007 RMK CU1SC1CI3 CU TR SLP197

CYHM;2008-12-11 16:00;CYHM 111600Z 00000KT 15SM FEW025 FEW045 BKN220 M03/M06 A3006 RMK CU1SC1CI5 CU TR SLP191

CYHM;2008-12-11 17:00;CYHM 111700Z 00000KT 15SM FEW045 FEW120 BKN220 M02/M06 A3001 RMK SC1AC2CI3 SLP177

CYHM;2008-12-11 18:00;CYHM 111800Z 00000KT 15SM FEW055 FEW120 SCT180 BKN220 M02/M06 A2998 RMK SC1AC2AC2CS2 SLP166

CYHM;2008-12-11 19:00;CYHM 111900Z 00000KT 15SM FEW055 SCT120 BKN170 OVC220 M02/M05 A2994 RMK SC1AC2AC2CI2 SLP152

CYHM;2008-12-11 20:00;CYHM 112000Z 00000KT 15SM BKN190 OVC230 M02/M05 A2991 RMK AC7CI0 SLP141

CYHM;2008-12-11 21:00;CYHM 112100Z 12004KT 12SM BKN190 OVC230 M03/M05 A2991 RMK AC7CI1 SLP142

CYHM;2008-12-11 22:00;CYHM 112200Z 00000KT 10SM BKN190 OVC230 M03/M05 A2991 RMK AC7CI0 SLP139

CYHM;2008-12-11 23:00;CYHM 112300Z 00000KT 12SM OVC180 M03/M05 A2989 RMK AC8 SLP134

CYHM;2008-12-12 00:00;CYHM 120000Z 00000KT 15SM OVC180 M03/M05 A2988 RMK AC8 SLP132

CYHM;2008-12-12 01:00;CYHM 120100Z 03005KT 15SM BKN180 M03/M05 A2983 RMK AC7 SLP115

CYHM;2008-12-12 02:00;CYHM 120200Z 36003KT 15SM BKN170 M03/M04 A2983 RMK AC7 SLP116

CYHM;2008-12-12 03:00;CYHM 120300Z 34004KT 10SM BKN170 M03/M05 A2983 RMK AC7 SLP114

CYHM;2008-12-12 04:00;CYHM 120400Z 36004KT 12SM OVC170 M03/M05 A2980 RMK AC8 SLP104

CYHM;2008-12-12 05:00;CYHM 120500Z 02005KT 12SM BKN016 OVC170 M02/M04 A2979 RMK SC7AC1 SLP100

CYHM;2008-12-12 06:00;CYHM 120600Z 36005KT 12SM OVC015 M02/M04 A2976 RMK SC8 SLP090

CYHM;2008-12-12 08:00;CYHM 120800Z 29004KT 15SM SCT020 BKN140 M03/M04 A2976 RMK SC3AC3 SLP088

CYHM;2008-12-12 09:00;CYHM 120900Z 29005KT 15SM OVC031 M03/M04 A2973 RMK SC8 SLP079

CYHM;2008-12-12 10:00;CYHM 121000Z 29006KT 12SM OVC032 M02/M04 A2971 RMK SC8 SLP072

CYHM;2008-12-12 10:49;CYHM 121049Z CCA 31010KT 10SM BKN013 OVC032 RMK SC6SC2

CYHM;2008-12-12 11:00;CYHM 121100Z 32010KT 10SM BKN013 OVC032 M02/M04 A2976 RMK SC6SC2 SLP089

CYHM;2008-12-12 11:07;CYHM 121107Z 32010KT 7SM -DZ BKN017 OVC038 RMK SC6SC2

CYHM;2008-12-12 11:20;CYHM 121120Z 32008KT 8SM -SHSN SCT016 OVC022 RMK SC4SC4

CYHM;2008-12-12 11:50;CYHM 121150Z 32008KT 15SM BKN022 OVC030 RMK SC6SC2

CYHM;2008-12-12 12:00;CYHM 121200Z 32008KT 15SM BKN023 OVC030 M02/M04 A2978 RMK SC6SC2 SLP096

CYHM;2008-12-12 13:00;CYHM 121300Z 34010KT 15SM FEW018 BKN030 BKN041 M02/M05 A2979 RMK CU1SC5SC2 CUTR SLP098

CYHM;2008-12-12 14:00;CYHM 121400Z 32010KT 15SM -SHSN BKN036 OVC042 M02/M06 A2981 RMK SC6SC2 SLP106

CYHM;2008-12-12 15:00;CYHM 121500Z 31008KT 7SM -SHSN BKN021 OVC036 M02/M06 A2984 RMK SC6SC2 SLP117

CYHM;2008-12-12 16:00;CYHM 121600Z 30012KT 15SM -SHSN SCT017 BKN023 BKN048 M02/M06 A2984 RMK CU3SC2SC2 SLP116

CYHM;2008-12-12 17:00;CYHM 121700Z 29014KT 15SM -SHSN FEW020 BKN028 BKN045 M02/M06 A2982 RMK CU2SC4SC2 SLP110

CYHM;2008-12-12 17:51;CYHM 121751Z 29013KT 15SM FEW025 BKN038 BKN058 BKN068 RMK CU1SC4SC2AC1

CYHM;2008-12-12 18:00;CYHM 121800Z 30014G19KT 15SM FEW025 BKN038 BKN058 BKN066 M02/M08 A2983 RMK CU1SC4SC2AC1 SLP111

CYHM;2008-12-12 19:00;CYHM 121900Z 30015KT 15SM -SHSN FEW025 OVC065 M02/M08 A2985 RMK CU2SC6 SLP119

CYHM;2008-12-12 20:00;CYHM 122000Z 31015KT 10SM -SHSN FEW020 OVC037 M03/M08 A2989 RMK CU2SC6 SLP132

CYHM;2008-12-12 21:00;CYHM 122100Z 30016KT 7SM -SHSN FEW017 BKN034 M04/M08 A2992 RMK CU2SC5 SLP145

CYHM;2008-12-12 22:00;CYHM 122200Z 30008KT 6SM -SHSN BKN025 OVC060 M05/M08 A2997 RMK SC6SC2 SLP159

CYHM;2008-12-12 23:00;CYHM 122300Z 30010KT 7SM -SHSN FEW018 BKN056 M05/M09 A3000 RMK CF2SC6 SLP171

CYHM;2008-12-13 00:00;CYHM 130000Z 30007KT 15SM FEW022 FEW055 M07/M11 A3004 RMK CF1SC1 SLP184

CYHM;2008-12-13 01:00;CYHM 130100Z 30008KT 15SM FEW022 FEW055 M08/M13 A3006 RMK CF1SC1 SLP193

CYHM;2008-12-13 02:00;CYHM 130200Z 30006KT 15SM FEW030 FEW210 M09/M13 A3008 RMK SC1CI1 SLP200

CYHM;2008-12-13 03:00;CYHM 130300Z 30005KT 15SM FEW030 FEW210 M10/M13 A3010 RMK SC1CI1 TR SC SLP208

CYHM;2008-12-13 04:00;CYHM 130400Z 28005KT 15SM FEW220 M10/M13 A3013 RMK CI1 SLP215

CYHM;2008-12-13 05:00;CYHM 130500Z 28003KT 15SM -SHSN FEW043 M10/M12 A3014 RMK SC2 SLP220

CYHM;2008-12-13 06:00;CYHM 130600Z 00000KT 15SM FEW040 M11/M12 A3013 RMK SC2 SLP218

CYHM;2008-12-13 07:00;CYHM 130700Z 22002KT 15SM FEW044 SCT200 M12/M12 A3016 RMK SC2CI1 SLP226

CYHM;2008-12-13 08:00;CYHM 130800Z 20004KT 15SM BKN044 BKN160 M11/M12 A3018 RMK SC6AC1 SLP233

CYHM;2008-12-13 09:00;CYHM 130900Z 20004KT 15SM OVC040 M09/M11 A3018 RMK SC8 VIRGA N SLP236

CYHM;2008-12-13 10:00;CYHM 131000Z 21005KT 15SM OVC041 M08/M11 A3019 RMK SC8 SLP238

CYHM;2008-12-13 11:00;CYHM 131100Z 21007KT 15SM OVC041 M08/M11 A3020 RMK SC8 SLP242

CYHM;2008-12-13 12:00;CYHM 131200Z 23003KT 15SM FEW039 M08/M12 A3022 RMK SC2 SLP250

CYHM;2008-12-13 13:00;CYHM 131300Z 20004KT 15SM FEW040 BKN250 M09/M12 A3024 RMK SC1CI2 SLP255

CYHM;2008-12-13 14:00;CYHM 131400Z 19004KT 15SM FEW054 FEW180 BKN250 M06/M11 A3023 RMK SC1AC1CI2 SC TR SLP253

CYHM;2008-12-13 15:00;CYHM 131500Z 21005KT 15SM FEW054 BKN250 M05/M10 A3024 RMK SC2CI1 SLP257

CYHM;2008-12-13 16:00;CYHM 131600Z 19011KT 15SM BKN045 BKN250 M04/M08 A3022 RMK SC6CI0 SLP250

CYHM;2008-12-13 17:00;CYHM 131700Z 21018G24KT 15SM BKN018 OVC045 M03/M06 A3021 RMK SC7SC1 SLP246

CYHM;2008-12-13 18:00;CYHM 131800Z 21014KT 15SM SCT018 OVC050 M03/M07 A3020 RMK SC4SC4 SLP241

CYHM;2008-12-13 19:00;CYHM 131900Z 21012KT 15SM FEW049 FEW130 SCT250 M02/M07 A3018 RMK SC1AC1CI0 SC TR SLP234

CYHM;2008-12-13 20:00;CYHM 132000Z 21013KT 15SM FEW045 FEW130 SCT220 M01/M07 A3017 RMK SC1AC2CI1 SLP232

CYHM;2008-12-13 21:00;CYHM 132100Z 21013KT 15SM SCT090 BKN130 BKN220 M02/M07 A3018 RMK AC4AC2CI1 SLP235

CYHM;2008-12-13 22:00;CYHM 132200Z 22012KT 15SM SCT060 BKN095 M02/M06 A3019 RMK SC3AC4 SLP238

CYHM;2008-12-13 23:00;CYHM 132300Z 22013KT 15SM SCT059 OVC080 M01/M05 A3019 RMK SC4AC4 SLP238

CYHM;2008-12-14 00:00;CYHM 140000Z 21014G19KT 15SM SCT045 OVC062 00/M05 A3019 RMK SC3SC5 SLP237

CYHM;2008-12-14 00:29;CYHM 140029Z 21014KT 15SM -SHSN FEW045 OVC063 RMK SC2SC6

CYHM;2008-12-14 01:00;CYHM 140100Z 20014KT 10SM -SHSN SCT035 OVC047 00/M05 A3018 RMK SC3SC5 SLP232

CYHM;2008-12-14 01:45;CYHM 140145Z 20016KT 12SM FEW035 SCT048 BKN072 RMK SC2SC2AC2 VIRGA

CYHM;2008-12-14 02:00;CYHM 140200Z 21014KT 15SM FEW035 SCT048 BKN071 00/M04 A3017 RMK SC2SC2AC3 VIRGA SLP229

CYHM;2008-12-14 03:00;CYHM 140300Z 20014KT 15SM SCT044 BKN074 00/M05 A3016 RMK SC3AC4 VIRGA SLP224

CYHM;2008-12-14 04:00;CYHM 140400Z 20013KT 15SM BKN046 00/M04 A3015 RMK SC7 SLP221

CYHM;2008-12-14 05:00;CYHM 140500Z 20012KT 12SM -SHSN OVC035 01/M04 A3015 RMK SC8 SLP223

CYHM;2008-12-14 06:00;CYHM 140600Z 20009KT 12SM -SHRASN OVC045 01/M03 A3013 RMK SC8 SLP216

CYHM;2008-12-14 07:00;CYHM 140700Z 20010KT 15SM -SHSN OVC046 01/M03 A3013 RMK SC8 SLP213

CYHM;2008-12-14 08:00;CYHM 140800Z 20008KT 15SM FEW045 OVC094 01/M03 A3011 RMK SC2AC6 SLP208

CYHM;2008-12-14 09:00;CYHM 140900Z 18008KT 12SM -SHSN BKN060 02/M04 A3007 RMK SC7 SLP194

CYHM;2008-12-14 10:00;CYHM 141000Z 21012KT 15SM OVC085 02/M04 A3006 RMK AC7 SLP189

CYHM;2008-12-14 11:00;CYHM 141100Z 20009KT 15SM FEW080 BKN110 BKN200 01/M04 A3005 RMK AC2AC3CI1 SLP185

CYHM;2008-12-14 12:00;CYHM 141200Z 21013KT 15SM BKN100 BKN210 02/M04 A3005 RMK AC6CI1 SLP185

CYHM;2008-12-14 13:00;CYHM 141300Z 20012KT 15SM BKN091 03/M04 A3005 RMK AC7 SLP184

CYHM;2008-12-14 14:00;CYHM 141400Z 20016KT 15SM BKN070 BKN090 03/M04 A3005 RMK AC6AC2 SLP185

CYHM;2008-12-14 15:00;CYHM 141500Z 21019G29KT 15SM -SHRA BKN037 OVC062 04/M04 A3005 RMK SC5SC3 SLP185

CYHM;2008-12-14 16:00;CYHM 141600Z 21018KT 15SM -SHRA OVC024 03/M01 A3006 RMK SC8 SLP187

CYHM;2008-12-14 17:00;CYHM 141700Z 21014KT 15SM -SHRA OVC020 03/M01 A3005 RMK SC8 PCPN VRY LGT SLP186

CYHM;2008-12-14 17:34;CYHM 141734Z 21022KT 15SM OVC016 RMK SC8

CYHM;2008-12-14 17:47;CYHM 141747Z 20018KT 15SM -SHRA OVC014 RMK SC8

CYHM;2008-12-14 18:00;CYHM 141800Z 21018G25KT 15SM -SHRA OVC014 03/01 A3004 RMK SC8 SLP180

CYHM;2008-12-14 19:00;CYHM 141900Z 21013KT 15SM OVC011 03/01 A3002 RMK SC8 SLP176

CYHM;2008-12-14 20:00;CYHM 142000Z 21014KT 10SM -SHRA BKN011 OVC018 03/02 A3003 RMK SC6SC2 SLP177

CYHM;2008-12-14 20:47;CYHM 142047Z 20014KT 12SM -SHRA BKN009 OVC019 RMK SC6SC2

CYHM;2008-12-14 21:00;CYHM 142100Z 20014G19KT 12SM -SHRA BKN008 OVC017 03/02 A3004 RMK SF6SC2 SLP180

CYHM;2008-12-14 22:00;CYHM 142200Z 21015G21KT 8SM -SHRA SCT007 BKN014 OVC031 03/02 A3005 RMK SF4SC2SC2 SLP185

CYHM;2008-12-14 23:00;CYHM 142300Z 20012KT 6SM -SHRA BR SCT007 BKN014 OVC029 03/03 A3005 RMK SF3SC2SC3 SLP184

CYHM;2008-12-14 23:48;CYHM 142348Z 21013KT 10SM FEW008 SCT014 OVC032 RMK CF1SC3SC5 CF TR

CYHM;2008-12-15 00:00;CYHM 150000Z 21011KT 12SM SCT014 OVC032 03/03 A3004 RMK SC3SC5 SLP181

CYHM;2008-12-15 00:10;CYHM 150010Z 21011KT 10SM -SHRA FEW014 OVC033 RMK SC2SC6

CYHM;2008-12-15 01:00;CYHM 150100Z 20011KT 10SM -SHRA FEW016 OVC035 04/03 A3002 RMK SC2SC6 SLP173

CYHM;2008-12-15 02:00;CYHM 150200Z 19010KT 15SM FEW020 OVC038 04/03 A2999 RMK SC2SC6 SLP165

CYHM;2008-12-15 03:00;CYHM 150300Z 20011KT 15SM FEW025 OVC038 06/03 A2998 RMK SC2SC6 SLP159

CYHM;2008-12-15 04:00;CYHM 150400Z 19016KT 15SM BKN041 OVC056 07/03 A2995 RMK SC6SC2 SLP150

CYHM;2008-12-15 05:00;CYHM 150500Z 20016G21KT 15SM BKN067 OVC110 08/03 A2992 RMK AC7AC1 SLP139

CYHM;2008-12-15 05:40;CYHM 150540Z 20016KT 12SM -RA BKN053 OVC097 RMK SC6AC2

CYHM;2008-12-15 06:00;CYHM 150600Z 20016G24KT 15SM -RA SCT055 BKN120 09/04 A2990 RMK SC3AC4 SLP131

CYHM;2008-12-15 07:00;CYHM 150700Z 20017G24KT 15SM -RA FEW030 BKN080 09/05 A2988 RMK SC2AC6 SLP126

CYHM;2008-12-15 08:00;CYHM 150800Z 21015G20KT 15SM -RA OVC045 09/05 A2989 RMK SC8 SLP128

CYHM;2008-12-15 09:00;CYHM 150900Z 21017G22KT 7SM -RA OVC042 08/06 A2988 RMK SC8 SLP126

CYHM;2008-12-15 10:00;CYHM 151000Z 20016G22KT 10SM -RA OVC032 08/07 A2986 RMK SC8 SLP119

CYHM;2008-12-15 11:00;CYHM 151100Z 20017G22KT 10SM -RA OVC030 08/08 A2984 RMK SC8 SLP112

CYHM;2008-12-15 12:00;CYHM 151200Z 20016G30KT 15SM -RA OVC029 09/08 A2983 RMK SC8 SLP107

CYHM;2008-12-15 13:00;CYHM 151300Z 20019G26KT 10SM -RA FEW010 OVC025 09/08 A2983 RMK SF1SC7 SLP106

CYHM;2008-12-15 14:00;CYHM 151400Z 21020G25KT 3SM -RA BR BKN008 OVC017 09/09 A2985 RMK SF6SC2 SLP114

CYHM;2008-12-15 14:51;CYHM 151451Z 23016G25KT 15SM FEW010 SCT022 OVC051 RMK SF1SC3SC4

CYHM;2008-12-15 15:00;CYHM 151500Z 23015G20KT 15SM FEW010 SCT019 OVC053 09/08 A2987 RMK SF1SC3SC4 SLP119

CYHM;2008-12-15 15:25;CYHM 151525Z 22018G30KT 5SM -RA SCT022 OVC049 RMK SC3SC5

CYHM;2008-12-15 16:00;CYHM 151600Z 23022G30KT 10SM -RA BKN016 OVC052 08/06 A2989 RMK SC5SC3 SLP127

CYHM;2008-12-15 17:00;CYHM 151700Z 23020G28KT 15SM -RA BKN019 OVC024 07/05 A2992 RMK SC6SC2 SLP136

CYHM;2008-12-15 17:38;CYHM 151738Z 24018G24KT 15SM FEW017 SCT026 BKN052 OVC100 RERA RMK CU1SC2SC3AC2

CYHM;2008-12-15 18:00;CYHM 151800Z 24020G28KT 15SM SCT019 BKN024 OVC120 05/03 A2995 RMK SC3SC3AC2 SLP147

CYHM;2008-12-15 19:00;CYHM 151900Z 22012G18KT 15SM FEW022 BKN100 BKN160 OVC220 03/M01 A3000 RMK SC2AC3AC2CI1 CU ASOCTD SLP164

CYHM;2008-12-15 20:00;CYHM 152000Z 25014G20KT 15SM SCT022 OVC170 02/M02 A3006 RMK SC4AC4 SLP184

CYHM;2008-12-15 21:00;CYHM 152100Z 25013G20KT 15SM BKN022 OVC150 00/M04 A3012 RMK SC7AC1 SLP208

CYHM;2008-12-15 22:00;CYHM 152200Z 26013G22KT 15SM BKN022 OVC160 M01/M05 A3018 RMK SC6AC1 SLP227

CYHM;2008-12-15 23:00;CYHM 152300Z 28012G18KT 15SM BKN028 M02/M07 A3023 RMK SC7 SLP244

CYHM;2008-12-16 00:00;CYHM 160000Z 25015G22KT 15SM BKN030 M04/M09 A3029 RMK SC6 SLP265

CYHM;2008-12-16 01:00;CYHM 160100Z 26015G22KT 15SM BKN028 M05/M10 A3032 RMK SC7 SLP277

CYHM;2008-12-16 02:00;CYHM 160200Z 26015G22KT 15SM -SHSN BKN025 M05/M10 A3036 RMK SC7 SLP289

CYHM;2008-12-16 04:00;CYHM 160400Z 29013KT 15SM -SHSN BKN027 OVC140 M07/M12 A3043 RMK SC6AS2 SLP314

CYHM;2008-12-16 05:00;CYHM 160500Z 28008KT 6SM -SHSN BKN020 OVC160 M07/M11 A3046 RMK SC6AS2 SLP326

CYHM;2008-12-16 06:00;CYHM 160600Z CCA 28010KT 15SM -SHSN BKN030 M08/M12 A3047 RMK SC7 SLP331

CYHM;2008-12-16 07:00;CYHM 160700Z 26010KT 15SM BKN030 BKN190 M08/M12 A3049 RMK SC6AS1 SLP337

CYHM;2008-12-16 08:00;CYHM 160800Z 28010KT 15SM BKN028 M08/M11 A3052 RMK SC7 SLP348

CYHM;2008-12-16 09:00;CYHM 160900Z 30007KT 15SM -SHSN BKN028 M08/M13 A3054 RMK SC7 SLP354

CYHM;2008-12-16 10:00;CYHM 161000Z 29006KT 15SM -SHSN BKN028 M08/M13 A3054 RMK SC7 SLP356

CYHM;2008-12-16 11:00;CYHM 161100Z 30006KT 15SM -SHSN OVC030 M08/M12 A3056 RMK SC7 SLP361

CYHM;2008-12-16 12:00;CYHM 161200Z 30005KT 15SM OVC025 M08/M12 A3056 RMK SC8 SLP365

CYHM;2008-12-16 13:00;CYHM 161300Z 29004KT 15SM -SHSN BKN021 OVC040 M08/M12 A3056 RMK SC6SC2 SLP363

CYHM;2008-12-16 14:00;CYHM 161400Z 32004KT 15SM -SHSN BKN027 M08/M13 A3056 RMK SC7 SLP364

CYHM;2008-12-16 15:00;CYHM 161500Z 32004KT 15SM FEW018 BKN025 BKN120 M08/M13 A3058 RMK CU1SC4AC2 SLP371

CYHM;2008-12-16 16:00;CYHM 161600Z 32004KT 15SM FEW022 FEW045 SCT150 BKN220 M08/M13 A3057 RMK SC1SC2AC2CI2 SLP368

CYHM;2008-12-16 17:00;CYHM 161700Z CCA 19002KT 15SM FEW025 SCT150 BKN220 M07/M13 A3052 RMK SC2AC2CI2 SLP353

CYHM;2008-12-16 18:00;CYHM 161800Z 12002KT 15SM FEW055 BKN180 BKN220 M06/M13 A3050 RMK SC2AC3CI2 SLP344

CYHM;2008-12-16 19:00;CYHM 161900Z 02003KT 15SM FEW055 BKN170 OVC220 M06/M12 A3049 RMK SC1AC4CI3 SLP339

CYHM;2008-12-16 20:00;CYHM 162000Z 13004KT 15SM FEW026 OVC150 M06/M12 A3049 RMK SC1AC7 SUN DMLY VSBL SLP340

CYHM;2008-12-16 21:00;CYHM 162100Z 07005KT 15SM BKN130 BKN160 M06/M12 A3045 RMK AC5AC2 SUN DMLY VSBL CONTRAILS SLP326

CYHM;2008-12-16 22:00;CYHM 162200Z 08008KT 15SM OVC100 M07/M12 A3042 RMK AC8 SLP317

CYHM;2008-12-16 23:00;CYHM 162300Z 08007KT 15SM OVC100 M07/M11 A3039 RMK AC8 SLP306

CYHM;2008-12-17 00:00;CYHM 170000Z 07009KT 15SM OVC075 M06/M11 A3037 RMK AC8 SLP299

CYHM;2008-12-17 01:00;CYHM 170100Z 06011KT 15SM OVC050 M06/M11 A3034 RMK SC8 SLP289

CYHM;2008-12-17 02:00;CYHM 170200Z 07011KT 1 1/2SM -SN OVC022 M06/M09 A3030 RMK SN4SC4 SLP277

CYHM;2008-12-17 03:00;CYHM 170300Z 06011KT 1 1/4SM -SN OVC022 M06/M07 A3023 RMK SN5SC3 SLP253

CYHM;2008-12-17 04:00;CYHM 170400Z 07012KT 1SM -SN OVC020 M06/M07 A3017 RMK SN6SC2 SLP231

CYHM;2008-12-17 05:00;CYHM 170500Z 06012KT 1 1/4SM -SN OVC022 M05/M06 A3009 RMK SN5SC3 SLP206

CYHM;2008-12-17 06:00;CYHM 170600Z 07011KT 1SM -SN OVC015 M06/M06 A3002 RMK SN6SC2 SLP181

CYHM;2008-12-17 07:00;CYHM 170700Z 08008KT 1SM -SN OVC024 M05/M06 A2997 RMK SN5SC3 SLP162

CYHM;2008-12-17 08:00;CYHM 170800Z 07004KT 2SM -SN BKN032 OVC052 M05/M05 A2993 RMK SN2SC3SC2 SLP150

CYHM;2008-12-17 09:00;CYHM 170900Z 35003KT 2SM -SN OVC030 M04/M05 A2992 RMK SN2SC6 SLP145

CYHM;2008-12-17 10:00;CYHM 171000Z 36005KT 2SM -SN OVC020 M04/M05 A2990 RMK SN3SC5 SLP138

CYHM;2008-12-17 10:27;CYHM 171027Z 35003KT 3SM -SN OVC018 RMK SC8

CYHM;2008-12-17 11:00;CYHM 171100Z 36004KT 6SM -SN OVC014 M04/M04 A2990 RMK SC8 SLP137

CYHM;2008-12-17 12:00;CYHM 171200Z 30004KT 8SM -SN OVC012 M03/M04 A2993 RMK SC8 SLP149

CYHM;2008-12-17 13:00;CYHM 171300Z 27002KT 5SM -SN OVC010 M03/M04 A2996 RMK SF8 SLP157

CYHM;2008-12-17 14:00;CYHM 171400Z 23004KT 5SM -SN BR BKN013 OVC019 M03/M04 A2998 RMK SC6SC2 SLP164

CYHM;2008-12-17 14:04;CYHM 171404Z 25006KT 5SM BR SCT011 OVC019 RMK SC3SC5

CYHM;2008-12-17 15:00;CYHM 171500Z 23008KT 8SM BKN013 BKN035 M03/M04 A3000 RMK SC5SC2 SLP172

CYHM;2008-12-17 15:31;CYHM 171531Z 23011KT 10SM SCT011 BKN020 BKN110 RMK SF3SC2AC1

CYHM;2008-12-17 16:00;CYHM 171600Z CCA 25010KT 10SM FEW010 SCT019 BKN100 M02/M04 A3003 RMK SF2SC2AC1 SLP181

CYHM;2008-12-17 17:00;CYHM 171700Z 26010KT 15SM FEW020 FEW100 SCT220 M01/M04 A3003 RMK SC1AC1CI1 SLP182

CYHM;2008-12-17 18:00;CYHM 171800Z 26010KT 15SM FEW020 BKN046 BKN210 M01/M04 A3004 RMK SC2SC3CI1 TR CU ASOCTD SLP184

CYHM;2008-12-17 19:00;CYHM 171900Z 25010KT 8SM BKN019 OVC042 M01/M04 A3007 RMK SC6SC2 SLP195

CYHM;2008-12-17 20:00;CYHM 172000Z 26013KT 6SM -SN SCT018 OVC037 M02/M04 A3010 RMK SC3SC5 SLP203

CYHM;2008-12-17 21:00;CYHM 172100Z 24009KT 5SM -SN BKN016 OVC028 M02/M04 A3011 RMK SC6SC2 SLP210

CYHM;2008-12-17 22:00;CYHM 172200Z 25008KT 6SM -SN OVC016 M02/M04 A3014 RMK SC8 SLP219

CYHM;2008-12-17 23:00;CYHM 172300Z 24007KT 8SM FEW017 OVC029 M02/M05 A3016 RMK CF2SC6 SLP225

CYHM;2008-12-18 00:00;CYHM 180000Z 24007KT 10SM -SN FEW017 OVC025 M03/M05 A3018 RMK CF2SC6 SLP232

CYHM;2008-12-18 01:00;CYHM 180100Z 24010KT 15SM OVC025 M03/M06 A3020 RMK SC8 SLP238

CYHM;2008-12-18 02:00;CYHM 180200Z 24007KT 12SM -SN OVC024 M03/M06 A3020 RMK SC8 SLP240

CYHM;2008-12-18 03:00;CYHM 180300Z 24006KT 12SM -SN OVC018 M03/M06 A3023 RMK SC8 SLP249

CYHM;2008-12-18 04:00;CYHM 180400Z 24008KT 12SM -SN OVC020 M03/M06 A3023 RMK SC8 SLP251

CYHM;2008-12-18 05:00;CYHM 180500Z 24006KT 12SM -SN OVC024 M03/M06 A3025 RMK SC8 SLP256

CYHM;2008-12-18 06:00;CYHM 180600Z 24005KT 12SM -SN OVC022 M03/M06 A3025 RMK SC8 SLP254

CYHM;2008-12-18 07:00;CYHM 180700Z 23005KT 10SM -SN OVC029 M03/M05 A3025 RMK SC8 SLP255

CYHM;2008-12-18 08:00;CYHM 180800Z 25004KT 10SM -SN OVC016 M03/M06 A3026 RMK SC8 SLP258

CYHM;2008-12-18 09:00;CYHM 180900Z 26007KT 12SM -SN OVC023 M03/M06 A3027 RMK SC8 SLP263

CYHM;2008-12-18 10:00;CYHM 181000Z 25004KT 15SM -SN OVC025 M04/M07 A3027 RMK SC8 SLP264

CYHM;2008-12-18 11:00;CYHM 181100Z 26004KT 15SM OVC025 M04/M07 A3028 RMK SC8 SLP267

CYHM;2008-12-18 12:00;CYHM 181200Z 25004KT 15SM OVC024 M04/M07 A3029 RMK SC8 SLP271

CYHM;2008-12-18 13:00;CYHM 181300Z 24006KT 15SM OVC020 M04/M07 A3030 RMK SC8 SLP273

CYHM;2008-12-18 14:00;CYHM 181400Z 22006KT 15SM BKN023 M04/M07 A3029 RMK SC7 SLP271

CYHM;2008-12-18 15:00;CYHM 181500Z 24006KT 15SM BKN024 M04/M07 A3031 RMK SC7 SLP277

CYHM;2008-12-18 16:00;CYHM 181600Z 25008KT 15SM BKN019 BKN023 M04/M08 A3031 RMK SC5SC2 SLP278

CYHM;2008-12-18 17:00;CYHM 181700Z 24006KT 15SM BKN021 M04/M08 A3029 RMK SC7 TC CU ASOCTD SLP269

CYHM;2008-12-18 18:00;CYHM 181800Z 26006KT 15SM FEW023 SCT045 BKN210 M04/M08 A3027 RMK SC2SC2CI2 SLP262

CYHM;2008-12-18 19:00;CYHM 181900Z 24006KT 15SM BKN020 BKN210 M03/M08 A3027 RMK SC5CI2 SLP262

CYHM;2008-12-18 20:00;CYHM 182000Z 26004KT 15SM BKN020 BKN230 M04/M08 A3027 RMK SC5CI2 CC ASOCTD SLP262

CYHM;2008-12-18 21:00;CYHM 182100Z 25004KT 15SM FEW020 SCT210 M04/M09 A3027 RMK SC1CI2 SLP265

CYHM;2008-12-18 22:00;CYHM 182200Z 27003KT 15SM FEW180 SCT220 M05/M09 A3027 RMK AC1CI1 SLP265

CYHM;2008-12-18 23:00;CYHM 182300Z 24002KT 15SM FEW160 M06/M09 A3028 RMK AC2 SLP266

CYHM;2008-12-19 00:00;CYHM 190000Z 33002KT 15SM SCT150 M08/M11 A3030 RMK AC2 SLP275

CYHM;2008-12-19 01:00;CYHM 190100Z 00000KT 15SM FEW130 M09/M10 A3029 RMK AC1 SLP273

CYHM;2008-12-19 02:00;CYHM 190200Z 00000KT 15SM BKN019 BKN130 M09/M10 A3030 RMK SC6AC2 SLP277

CYHM;2008-12-19 03:00;CYHM 190300Z 34002KT 15SM BKN018 M07/M09 A3031 RMK SC7 SLP279

CYHM;2008-12-19 04:00;CYHM 190400Z 35006KT 15SM BKN016 M07/M10 A3031 RMK SC7 SLP279

CYHM;2008-12-19 05:00;CYHM 190500Z 02002KT 15SM BKN016 M08/M10 A3031 RMK SC7 SLP277

CYHM;2008-12-19 06:00;CYHM 190600Z 35002KT 15SM BKN017 M08/M11 A3031 RMK SC6 SLP280

CYHM;2008-12-19 07:00;CYHM 190700Z 01004KT 15SM BKN015 OVC220 M08/M10 A3027 RMK SC5CI2 SLP266

CYHM;2008-12-19 08:00;CYHM 190800Z 03004KT 15SM FEW015 FEW130 OVC210 M07/M10 A3026 RMK SC1AC1CI4 SLP262

CYHM;2008-12-19 09:00;CYHM 190900Z 05002KT 15SM OVC120 M07/M09 A3025 RMK AC8 SLP256

CYHM;2008-12-19 10:00;CYHM 191000Z CCA 06006KT 15SM OVC100 M05/M08 A3017 RMK AC8 PRESFR SLP232

CYHM;2008-12-19 11:00;CYHM 191100Z 07008KT 15SM BKN021 OVC080 M04/M07 A3015 RMK SC6AC2 SLP224

CYHM;2008-12-19 11:47;CYHM 191147Z 08012KT 15SM -SHSN BKN028 OVC048 RMK SC6SC2

CYHM;2008-12-19 12:00;CYHM 191200Z 08012KT 8SM -SHSN BKN016 OVC035 M04/M07 A3016 RMK SC6SC2 SLP226

CYHM;2008-12-19 12:33;CYHM 191233Z 08014KT 2 1/2SM -SHSN BKN009 OVC024 RMK SF6SC2

CYHM;2008-12-19 12:41;CYHM 191241Z 09014KT 1 1/2SM -SHSN BKN007 OVC020 RMK SN2SF5SC2

CYHM;2008-12-19 13:00;CYHM 191300Z 06014KT 3/4SM -SHSN BR BKN005 OVC015 M05/M06 A3010 RMK SN3SF3SC2 VISB VRBL 1-1/2SM SLP209

CYHM;2008-12-19 13:38;CYHM 191338Z 08012G18KT 1/2SM SN BKN004 OVC013 RMK SN4SF3SC1 VISB VRBL 3/4-1/4SM

CYHM;2008-12-19 14:00;CYHM 191400Z 07016G22KT 1/2SM SN BLSN BKN003 OVC013 M05/M06 A3003 RMK SN4SF3SC1 VISB VRBL 3/4-1/4SM SLP184

CYHM;2008-12-19 14:28;CYHM 191428Z 08020G26KT 1/4SM SN +BLSN VV002 RMK SN8

CYHM;2008-12-19 15:00;CYHM 191500Z 08022KT 1/4SM SN +BLSN VV002 M04/M05 A2994 RMK SN8 SLP154

CYHM;2008-12-19 16:00;CYHM 191600Z 08022G28KT 1/8SM SN +BLSN VV002 M04/M05 A2990 RMK SN8 /S05/ SLP139

CYHM;2008-12-19 17:00;CYHM 191700Z 06027G32KT 1/8SM SN +BLSN VV003 M04/M05 A2981 RMK SN8 PRESFR SLP109

CYHM;2008-12-19 18:00;CYHM 191800Z 07025G30KT 1/8SM SN +BLSN VV002 M04/M05 A2975 RMK SN8 SLP088

CYHM;2008-12-19 19:00;CYHM 191900Z 05036G46KT 0SM SN +BLSN VV002 M05/M06 A2970 RMK SN8 SLP072

CYHM;2008-12-19 20:00;CYHM 192000Z 05030G38KT 0SM SN +BLSN VV003 M06/M07 A2974 RMK BLSN8 PK GUST 50 PST HR SLP083

CYHM;2008-12-19 21:00;CYHM 192100Z 03024G30KT 0SM SN +BLSN OVC006 M10/M11 A2975 RMK BLSN6SF2 PK GUST 43 PST HR SLP090

CYHM;2008-12-19 21:17;CYHM 192117Z 03022G37KT 0SM -SN +BLSN OVC018 RMK BLSN6SC2

CYHM;2008-12-19 21:45;CYHM 192145Z 03020G29KT 1/2SM -SN BLSN OVC016 RMK BLSN4SC4

CYHM;2008-12-19 22:00;CYHM 192200Z CCA 03022G30KT 3/4SM -SN BLSN OVC016 M10/M11 A2982 RMK BLSN3SC5 VIS VRB 1/2 - 1 PRESRR /S02/ SLP114

CYHM;2008-12-19 22:36;CYHM 192236Z 02022G29KT 3SM -SN BLSN OVC016 RMK SC8 VIS VRB 2 - 4 PRESRR

CYHM;2008-12-19 23:00;CYHM 192300Z 01018G25KT 5SM -SN BLSN OVC014 M11/M12 A2991 RMK SC8 PRESRR SLP142

CYHM;2008-12-19 23:45;CYHM 192345Z 02025KT 1SM -SN BLSN OVC015 RMK BLSN2SC6 VIS VRB 3/4 - 11/4

CYHM;2008-12-20 00:00;CYHM 200000Z 02025KT 4SM -SN BLSN OVC015 M12/M13 A2993 RMK SC8 /S05/ SLP149

CYHM;2008-12-20 00:37;CYHM 200037Z 02020KT 2SM -SN BLSN OVC016 RMK SN1SC7

CYHM;2008-12-20 01:00;CYHM 200100Z 02018KT 2SM -SN BLSN OVC017 M12/M14 A2997 RMK SN1SC7 SLP164

CYHM;2008-12-20 02:00;CYHM 200200Z CCA 02015KT 3SM -SN BLSN OVC019 M12/M14 A3003 RMK SC8 VIS VRB 2 - 4 PRESRR SLP182

CYHM;2008-12-20 03:00;CYHM 200300Z 02014KT 6SM -SN BLSN OVC018 M12/M15 A3004 RMK SC8 SLP187

CYHM;2008-12-20 04:00;CYHM 200400Z 02013KT 6SM -SN BLSN OVC017 M13/M15 A3008 RMK SC8 SLP200

CYHM;2008-12-20 05:00;CYHM 200500Z 01013KT 6SM -SN BLSN BKN015 OVC021 M13/M16 A3010 RMK SC6SC2 SLP208

CYHM;2008-12-20 06:00;CYHM 200600Z 02008KT 6SM -SN DRSN BKN013 OVC025 M13/M16 A3011 RMK SC6SC2 SLP211

CYHM;2008-12-20 07:00;CYHM 200700Z 01010KT 7SM -SN BKN013 OVC022 M14/M16 A3012 RMK SC7SC1 SLP216

CYHM;2008-12-20 08:00;CYHM 200800Z 02009KT 7SM -SN BKN010 OVC021 M14/M16 A3013 RMK SC6SC2 SLP218

CYHM;2008-12-20 09:00;CYHM 200900Z 02010KT 7SM -SN BKN012 OVC019 M14/M16 A3015 RMK SC6SC2 SLP227

CYHM;2008-12-20 10:00;CYHM 201000Z 02010KT 8SM -SN BKN011 OVC019 M15/M17 A3016 RMK SC6SC2 SLP230

CYHM;2008-12-20 11:00;CYHM 201100Z 01011KT 7SM -SN OVC012 M15/M17 A3017 RMK SC8 SLP236

CYHM;2008-12-20 11:39;CYHM 201139Z 04006KT 7SM -SN BKN009 OVC019 RMK SC6SC2

CYHM;2008-12-20 12:00;CYHM 201200Z 02007KT 7SM -SN SCT009 OVC017 M15/M17 A3019 RMK SC3SC5 SLP242

CYHM;2008-12-20 13:00;CYHM 201300Z 02008KT 6SM -SN OVC015 M15/M17 A3018 RMK SC8 SLP241

CYHM;2008-12-20 13:43;CYHM 201343Z 01006KT 2 1/2SM -SN OVC016 RMK SC8

CYHM;2008-12-20 14:00;CYHM 201400Z 02007KT 2 1/2SM -SN BKN017 M15/M17 A3018 RMK SC7 SLP241

CYHM;2008-12-20 15:00;CYHM 201500Z 03007KT 3SM -SN BKN018 M15/M17 A3019 RMK SC6 SLP242

CYHM;2008-12-20 16:00;CYHM 201600Z 35005KT 10SM -SN BKN020 M15/M16 A3019 RMK SC6 SLP244

CYHM;2008-12-20 17:00;CYHM 201700Z 00000KT 10SM -SN BKN021 M13/M16 A3017 RMK SC4 SLP236

CYHM;2008-12-20 18:00;CYHM 201800Z 02004KT 12SM -SN FEW019 M12/M15 A3013 RMK SC2 SLP222

CYHM;2008-12-20 19:00;CYHM 201900Z 04006KT 15SM FEW020 M11/M14 A3012 RMK SC1 SLP218

CYHM;2008-12-20 19:33;CYHM 201933Z 03009KT 10SM -SHSN BKN013 RMK SC6

CYHM;2008-12-20 20:00;CYHM 202000Z 04009KT 7SM -SHSN BKN013 M12/M14 A3010 RMK SC7 SLP212

CYHM;2008-12-20 20:43;CYHM 202043Z 03009KT 2 1/2SM -SN OVC013 RMK SN1SC7

CYHM;2008-12-20 21:00;CYHM 202100Z 03009KT 1 1/4SM -SN OVC012 M12/M14 A3010 RMK SN2SC6 SLP212

CYHM;2008-12-20 22:00;CYHM 202200Z 03008KT 1 1/4SM -SN BKN012 OVC018 M11/M13 A3008 RMK SN2SC4SC2 SLP205

CYHM;2008-12-20 22:24;CYHM 202224Z 03007KT 1 1/2SM -SN SCT008 BKN011 OVC018 RMK SN2CF2SC3SC1

CYHM;2008-12-20 23:00;CYHM 202300Z 08010KT 1 3/4SM -SN BKN011 OVC016 M10/M11 A3006 RMK SN2SC4SC2 /S01/ SLP197

CYHM;2008-12-20 23:26;CYHM 202326Z 09013KT 3SM -SHSN SCT011 OVC015 RMK SC4SC4

CYHM;2008-12-21 00:00;CYHM 210000Z 09012KT 7SM -SHSN SCT010 OVC014 M10/M13 A3004 RMK SC3SC5 SLP193

CYHM;2008-12-21 01:00;CYHM 210100Z 08015KT 15SM FEW010 SCT014 OVC180 M11/M13 A3001 RMK SC2SC2AC3 SLP181

CYHM;2008-12-21 02:00;CYHM 210200Z 08015KT 15SM FEW010 SCT015 OVC170 M11/M13 A2997 RMK SC2SC2AC3 SLP169

CYHM;2008-12-21 03:00;CYHM 210300Z 08017KT 15SM DRSN FEW012 SCT030 OVC160 M10/M12 A2993 RMK SC2SC2AC4 SLP152

CYHM;2008-12-21 03:16;CYHM 210316Z 08018KT 15SM -SHSN DRSN BKN013 OVC160 RMK SC6AC2

CYHM;2008-12-21 04:00;CYHM 210400Z 08018G24KT 10SM -SHSN DRSN OVC010 M09/M11 A2988 RMK SC8 SLP136

CYHM;2008-12-21 05:00;CYHM 210500Z CCA 08018KT 10SM -SHSN DRSN BKN009 OVC110 M09/M10 A2982 RMK SF6AC2 PRESFR SLP116

CYHM;2008-12-21 06:00;CYHM 210600Z 07014KT 15SM -SHSN DRSN FEW008 BKN022 OVC100 M09/M11 A2977 RMK CF2SC4AC2 PRESFR SLP097

CYHM;2008-12-21 07:00;CYHM 210700Z 06017KT 12SM -SN DRSN OVC015 M09/M12 A2969 RMK SC8 PRESFR SLP072

CYHM;2008-12-21 07:08;CYHM 210708Z 06016KT 1 1/2SM -SN BLSN VV008 RMK SN8 VIS VRB 1 - 2 PRESFR

CYHM;2008-12-21 08:00;CYHM 210800Z 06015KT 1SM -SN BLSN VV007 M09/M10 A2963 RMK SN8 VIS VRB 3/4 - 11/4 PRESFR SLP052

CYHM;2008-12-21 09:00;CYHM 210900Z 06011KT 3/4SM -SN DRSN VV004 M09/M10 A2960 RMK SN8 VIS VRB 1/2 - 1 /S01/ SLP038

CYHM;2008-12-21 10:00;CYHM 211000Z 07010KT 3SM -SN DRSN OVC035 M09/M10 A2953 RMK SC8 VIS VRB 2 - 4 PRESFR SLP017

CYHM;2008-12-21 11:00;CYHM 211100Z 08007KT 3SM -SN FEW012 OVC026 M08/M10 A2951 RMK CF2SC6 VIS VRB 2 - 4 /S02/ SLP010

CYHM;2008-12-21 11:42;CYHM 211142Z 08002KT 2 1/2SM -SN FEW011 OVC024 RMK CF2SC6

CYHM;2008-12-21 12:00;CYHM 211200Z 10002KT 1 1/2SM -SN OVC019 M09/M10 A2949 RMK SN2SC6 SLP002

CYHM;2008-12-21 12:15;CYHM 211215Z 00000KT 1SM -SN VV006 RMK SN8

CYHM;2008-12-21 12:40;CYHM 211240Z 23004KT 2 1/2SM -SN SCT007 OVC018 RMK CF3SC5

CYHM;2008-12-21 13:00;CYHM 211300Z 23007KT 2 1/2SM -SN SCT018 BKN064 M09/M10 A2950 RMK SC3SC4 SLP004

CYHM;2008-12-21 13:26;CYHM 211326Z 23010KT 6SM -SN BKN017 OVC088 RMK SC6AC2

CYHM;2008-12-21 14:00;CYHM 211400Z 23014KT 4SM -SN FEW016 SCT088 BKN230 M07/M08 A2951 RMK SC2AC1CI2 SLP008

CYHM;2008-12-21 14:44;CYHM 211444Z 24013KT 5SM -SN DRSN BKN012 OVC018 RMK CF6SC2

CYHM;2008-12-21 15:00;CYHM 211500Z 24016KT 5SM -SN DRSN SCT012 OVC018 M05/M07 A2952 RMK CF4SC4 SLP010

CYHM;2008-12-21 16:00;CYHM 211600Z 24023KT 10SM -SN DRSN FEW013 BKN019 M04/M07 A2950 RMK CF2SC4 SLP004

CYHM;2008-12-21 16:52;CYHM 211652Z 24025G30KT 5/8SM -SN BLSN OVC020 RMK BLSN5SC3

CYHM;2008-12-21 17:00;CYHM 211700Z 23025KT 1 1/2SM -SN BLSN BKN018 BKN028 M05/M07 A2948 RMK BLSN2SC4SC1 SLP997

CYHM;2008-12-21 17:06;CYHM 211706Z 24023KT 2 1/2SM -SN BLSN BKN018 OVC028 RMK SC6SC2

CYHM;2008-12-21 17:15;CYHM 211715Z 23020G25KT 3/4SM -SN BLSN OVC014 RMK BLSN4SC4

CYHM;2008-12-21 17:45;CYHM 211745Z 23023G29KT 2SM -SN BLSN SCT014 BKN028 RMK BLSN1SC3SC3

CYHM;2008-12-21 18:00;CYHM 211800Z 23026G31KT 1 1/4SM -SN BLSN SCT014 OVC022 M07/M09 A2949 RMK BLSN2SC2SC5 SLP001

CYHM;2008-12-21 18:20;CYHM 211820Z 23025G35KT 2 1/2SM -SN BLSN FEW014 BKN023 RMK SC2SC5 VIS E-SE 1

CYHM;2008-12-21 19:00;CYHM 211900Z 24024KT 2 1/2SM -SN BLSN FEW015 BKN030 M09/M12 A2952 RMK SC2SC5 SLP009

CYHM;2008-12-21 19:07;CYHM 211907Z 23022G29KT 1 3/4SM -SHSN BLSN SCT015 BKN028 RMK BLSN2SC2SC2 VIS VRB 11/4-21/4

CYHM;2008-12-21 20:00;CYHM 212000Z 23023KT 2SM -SHSN BLSN SCT019 BKN028 BKN072 M10/M14 A2954 RMK BLSN2CU2SC1AC2 VIS VRB 11/2-21/2 SLP016

CYHM;2008-12-21 21:00;CYHM 212100Z 23022G27KT 1 3/4SM -SHSN BLSN SCT016 BKN036 BKN072 M12/M15 A2956 RMK BLSN2CF2SC1AC2 VIS VRB 11/4-21/4 SLP027

CYHM;2008-12-21 22:00;CYHM 212200Z 23021G27KT 1 3/4SM -SHSN BLSN SCT015 BKN025 BKN080 M13/M15 A2959 RMK BLSN2CF2SC2AC2 VIS VRB 11/4-21/4 SLP034

CYHM;2008-12-21 23:00;CYHM 212300Z 23022G29KT 2SM -SHSN BLSN SCT016 BKN027 BKN080 M14/M17 A2961 RMK BLSN2CF2SC2AC2 VIS VRB 11/2-21/2 SLP041

CYHM;2008-12-21 23:37;CYHM 212337Z 23023G28KT 3SM BLSN FEW018 SCT030 BKN100 RMK SC2SC2AC2

CYHM;2008-12-22 00:00;CYHM 220000Z 23024KT 3SM BLSN FEW018 SCT030 SCT100 BKN250 M15/M18 A2962 RMK SC2SC2AC1CI1 VIS VRB 2-4 SLP049

CYHM;2008-12-22 01:00;CYHM 220100Z 24026G35KT 3SM BLSN FEW020 SCT035 BKN120 M15/M18 A2964 RMK SC2SC2AC2 SLP053

CYHM;2008-12-22 02:00;CYHM 220200Z 24023G29KT 2 1/2SM BLSN SCT030 BKN075 BKN110 M16/M19 A2964 RMK BLSN2SC2AC2AC2 VIS VRB 13/4-4 SLP053

CYHM;2008-12-22 03:00;CYHM 220300Z 24023G28KT 3SM BLSN FEW040 OVC100 M16/M19 A2964 RMK SC2AC6 SLP054

CYHM;2008-12-22 04:00;CYHM 220400Z 23020G26KT 10SM DRSN OVC090 M16/M19 A2965 RMK AC8 SLP055

CYHM;2008-12-22 05:00;CYHM 220500Z 23018G25KT 12SM DRSN BKN070 M16/M18 A2964 RMK AC7 SLP053

CYHM;2008-12-22 05:43;CYHM 220543Z 23022G29KT 2SM BLSN OVC015 RMK BLSN1SC7

CYHM;2008-12-22 06:00;CYHM 220600Z 23018G26KT 1 1/2SM -SN BLSN OVC010 M15/M17 A2965 RMK SN2SC6 VIS VRB 1 - 2 SLP056

CYHM;2008-12-22 07:00;CYHM 220700Z 24018KT 2SM -SN BLSN OVC015 M14/M15 A2967 RMK SN1SC7 SLP063

CYHM;2008-12-22 08:00;CYHM 220800Z 25016KT 2SM -SN DRSN OVC010 M13/M14 A2973 RMK SN1SC7 PRESRR /S01/ SLP083

CYHM;2008-12-22 08:31;CYHM 220831Z 25012KT 5SM -SN DRSN OVC030 RMK SC8 PRESRR

CYHM;2008-12-22 09:00;CYHM 220900Z 24008KT 8SM -SN FEW035 OVC062 M13/M14 A2977 RMK SC2SC6 SLP100

CYHM;2008-12-22 09:23;CYHM 220923Z 23008KT 2 1/2SM -SN OVC010 RMK SC8

CYHM;2008-12-22 10:00;CYHM 221000Z 25007KT 4SM -SN OVC015 M12/M14 A2982 RMK SC8 SLP115

CYHM;2008-12-22 10:11;CYHM 221011Z 28006KT 2SM -SN OVC012 RMK SN1SC7

CYHM;2008-12-22 10:30;CYHM 221030Z 28004KT 4SM -SN OVC033 RMK SC8

CYHM;2008-12-22 10:46;CYHM 221046Z 31003KT 2SM -SN OVC015 RMK SN1SC7

CYHM;2008-12-22 11:00;CYHM 221100Z 32006KT 5SM -SN BKN029 M13/M14 A2987 RMK SC4 /S02/ SLP133

CYHM;2008-12-22 11:41;CYHM 221141Z 28008KT 15SM FEW032 FEW210 RMK SC1CI1

CYHM;2008-12-22 12:00;CYHM 221200Z 29009KT 15SM FEW035 SCT210 M12/M14 A2993 RMK SC1CI1 SLP154

CYHM;2008-12-22 13:00;CYHM 221300Z 28008KT 15SM FEW035 BKN110 BKN210 M12/M14 A2998 RMK SC2AC3CI1 SLP170

CYHM;2008-12-22 14:00;CYHM 221400Z 27008KT 15SM FEW035 FEW120 SCT210 M12/M14 A3003 RMK SC1AC1CI1 TR CU ASOCTD SLP186

CYHM;2008-12-22 15:00;CYHM 221500Z 26010KT 15SM FEW045 FEW080 FEW210 M10/M14 A3008 RMK SC1AC1CI0 CU ASOCTD SLP204

CYHM;2008-12-22 15:34;CYHM 221534Z 28012KT 15SM -SHSN SCT029 BKN078 RMK SC3AC2 CU ASOCTD

CYHM;2008-12-22 16:00;CYHM 221600Z 28011KT 15SM -SHSN FEW020 FEW029 BKN045 BKN085 M09/M14 A3011 RMK CU1SC2SC2AC1 SLP214

CYHM;2008-12-22 17:00;CYHM 221700Z 24008KT 15SM -SHSN FEW022 FEW034 SCT048 M09/M12 A3012 RMK CU1SC1SC2 SLP218

CYHM;2008-12-22 18:00;CYHM 221800Z 27016G22KT 8SM -SN DRSN BKN033 BKN045 M07/M12 A3013 RMK SC6SC2 SLP221

CYHM;2008-12-22 18:33;CYHM 221833Z 28018KT 3/4SM -SN DRSN BKN007 OVC018 RMK SN2SF5SC1

CYHM;2008-12-22 18:43;CYHM 221843Z 32015G20KT 1/2SM SN BLSN BKN006 OVC016 RMK SN4SF3SC1 VIS VRBL 1/4-3/4SM

CYHM;2008-12-22 19:00;CYHM 221900Z 29010G15KT 3/4SM -SN BLSN BKN003 OVC014 M08/M09 A3017 RMK SN4SF3SC1 SLP232

CYHM;2008-12-22 19:19;CYHM 221919Z 28015G24KT 10SM -SHSN DRSN FEW022 BKN030 RMK CU2SC6 VSBY N-N/E 1/2SM DUE BLSN SF ASOCTD

CYHM;2008-12-22 20:00;CYHM 222000Z 27020G28KT 5SM BLSN SCT030 M08/M13 A3019 RMK SC3 SF ASOCTD SLP240

CYHM;2008-12-22 21:00;CYHM 222100Z 25015G22KT 8SM DRSN SCT028 M09/M12 A3023 RMK SC2 SLP254

CYHM;2008-12-22 22:00;CYHM 222200Z 23013KT 3SM -SHSN DRSN FEW028 BKN047 M10/M12 A3026 RMK SC2SC5 SLP266

CYHM;2008-12-22 23:00;CYHM 222300Z 25012KT 15SM -SHSN DRSN BKN047 M09/M12 A3030 RMK SC4 SLP278

CYHM;2008-12-23 00:00;CYHM 230000Z 24015KT 6SM -SHSN DRSN SCT016 BKN038 M10/M12 A3033 RMK SC3SC4 SLP289

CYHM;2008-12-23 01:00;CYHM 230100Z 24012KT 12SM -SHSN DRSN OVC036 M10/M13 A3036 RMK SC8 SLP298

CYHM;2008-12-23 02:00;CYHM 230200Z 24011KT 15SM -SHSN OVC035 M10/M13 A3036 RMK SC8 SLP301

CYHM;2008-12-23 03:00;CYHM 230300Z 24011KT 15SM -SHSN OVC032 M10/M13 A3039 RMK SC8 SLP308

CYHM;2008-12-23 04:00;CYHM 230400Z 24012KT 15SM -SHSN OVC032 M10/M13 A3041 RMK SC8 SLP314

CYHM;2008-12-23 05:00;CYHM 230500Z 24010KT 15SM -SHSN OVC030 M11/M14 A3042 RMK SC8 SLP320

CYHM;2008-12-23 06:00;CYHM 230600Z 23011KT 15SM -SHSN OVC030 M11/M14 A3046 RMK SC8 SLP330

CYHM;2008-12-23 07:00;CYHM 230700Z 21011KT 15SM -SHSN OVC027 M10/M14 A3045 RMK SC8 SLP329

CYHM;2008-12-23 08:00;CYHM 230800Z 24010KT 15SM BKN026 M12/M15 A3048 RMK SC4 SLP337

CYHM;2008-12-23 09:00;CYHM 230900Z 22008KT 15SM FEW024 BKN240 M13/M15 A3047 RMK SC1CS3 SLP338

CYHM;2008-12-23 10:00;CYHM 231000Z 22006KT 15SM BKN230 M15/M17 A3046 RMK CS3 SLP334

CYHM;2008-12-23 11:00;CYHM 231100Z 24007KT 15SM -SHSN SCT013 BKN200 M14/M16 A3047 RMK SC4CS2 SLP336

CYHM;2008-12-23 11:51;CYHM 231151Z 26008KT 15SM FEW015 BKN150 OVC180 RMK SC2AC4AC2

CYHM;2008-12-23 12:00;CYHM 231200Z 25010KT 15SM FEW016 BKN140 BKN180 M14/M16 A3046 RMK SC2AC4AC1 SLP335

CYHM;2008-12-23 12:47;CYHM 231247Z 24006KT 10SM -SHSN BKN017 OVC110 RMK SC6AC2

CYHM;2008-12-23 13:00;CYHM 231300Z 24009KT 10SM -SHSN OVC017 M14/M16 A3046 RMK SC8 SLP336

CYHM;2008-12-23 14:00;CYHM 231400Z 24007KT 6SM -SHSN OVC013 M13/M15 A3045 RMK SC8 SLP332

CYHM;2008-12-23 15:00;CYHM 231500Z 23006KT 3SM -SN OVC021 M12/M14 A3045 RMK SC8 SLP328

CYHM;2008-12-23 16:00;CYHM 231600Z 23004KT 6SM -SN SCT014 OVC110 M11/M13 A3044 RMK SC4AC4 SLP326

CYHM;2008-12-23 17:00;CYHM 231700Z 20012KT 10SM -SN FEW018 BKN054 OVC062 M07/M10 A3041 RMK CU1SC5SC2 SLP316

CYHM;2008-12-23 18:00;CYHM 231800Z 20012KT 10SM -SN BKN043 OVC058 M07/M10 A3037 RMK SC6SC2 SLP302

CYHM;2008-12-23 19:00;CYHM 231900Z 19011KT 6SM -SN BKN028 OVC049 M06/M10 A3034 RMK SC6SC2 SLP290

CYHM;2008-12-23 19:42;CYHM 231942Z 18013KT 1 1/2SM -SN OVC025 RMK SN2SC6

CYHM;2008-12-23 20:00;CYHM 232000Z 19008KT 1SM -SN OVC022 M06/M08 A3030 RMK SN3SC5 VSBY VRBL 3/4-11/4SM SLP279

CYHM;2008-12-23 21:00;CYHM 232100Z 17007KT 1SM -SN OVC020 M06/M07 A3028 RMK SN3SC5 VSBY VRBL 3/4-11/4SM SLP270

CYHM;2008-12-23 22:00;CYHM 232200Z 13007KT 1SM -SN OVC020 M06/M06 A3024 RMK SN4SC4 VSBY VRBL 3/4-11/4SM SLP259

CYHM;2008-12-23 22:39;CYHM 232239Z 15008KT 1 1/2SM -SN OVC012 RMK SN3SC5 VSBY VRBL 1-2SM

CYHM;2008-12-23 23:00;CYHM 232300Z 15008KT 2SM -SN SCT012 OVC026 M05/M05 A3021 RMK SN2SC2SC4 VSBY VRBL 11/2-21/2SM SLP249

CYHM;2008-12-23 23:30;CYHM 232330Z 16007KT 6SM -SN FEW004 OVC034 RMK SF2SC6

CYHM;2008-12-24 00:00;CYHM 240000Z 15006KT 9SM -SN FEW004 OVC022 M04/M05 A3018 RMK SF1SC7 SLP235

CYHM;2008-12-24 00:30;CYHM 240030Z 20012KT 1 1/4SM -SN OVC020 RMK SN3SC5 VSBY VRBL 3/4-13/4SM

CYHM;2008-12-24 01:00;CYHM 240100Z 21015KT 1SM -SN DRSN SCT012 OVC020 M04/M05 A3014 RMK SN2SF2SC4 VSBY VRBL 3/4-11/4SM SLP224

CYHM;2008-12-24 01:44;CYHM 240144Z 20018G26KT 1SM -SN DRSN BKN008 OVC024 RMK SN3SF2SC2 VSBY VRBL 3/4-11/4SM

CYHM;2008-12-24 02:00;CYHM 240200Z 19015G21KT 1SM -SN DRSN BKN008 OVC020 M03/M04 A3010 RMK SN3SF3SC2 VSBY VRBL 3/4-11/4SM SLP211

CYHM;2008-12-24 02:45;CYHM 240245Z 21018G25KT 4SM -SN DRSN FEW004 BKN012 OVC022 RMK SF2SC4SC2

CYHM;2008-12-24 03:00;CYHM 240300Z 21015G21KT 8SM -SN DRSN FEW004 SCT012 OVC023 M02/M04 A3008 RMK SF2SC2SC5 SLP201

CYHM;2008-12-24 03:29;CYHM 240329Z 21015G22KT 1 1/2SM -SN DRSN SCT012 OVC032 RMK SN3SF1SC4 VSBY VRBL 1-2SM

CYHM;2008-12-24 04:00;CYHM 240400Z 22015G20KT 1SM -SN DRSN BKN016 OVC024 M02/M03 A3005 RMK SN4SF2SC2 VSBY VRBL 3/4-11/4SM SLP190

CYHM;2008-12-24 05:00;CYHM 240500Z 21015G21KT 5/8SM -SN DRSN OVC012 M01/M01 A3002 RMK SN4SC4 VSBY VRBL 1/4-1SM SLP181

CYHM;2008-12-24 06:00;CYHM 240600Z 21018G26KT 5/8SM -SN DRSN OVC012 M00/M00 A3001 RMK SN5SC3 VSBY VRBL 1/4-1SM SLP173

CYHM;2008-12-24 07:00;CYHM 240700Z CCA 21015G21KT 3/4SM -SN OVC006 M00/M00 A2999 RMK SN3SF5 SLP169

CYHM;2008-12-24 08:00;CYHM 240800Z CCA 21015G21KT 3/4SM -SN OVC006 M00/M00 A2999 RMK SN3SF5 SLP167

CYHM;2008-12-24 09:00;CYHM 240900Z 21014G20KT 1SM -SN DRSN OVC006 00/00 A2997 RMK SN3SF5 VSBY VRBL 3/4-11/4SM SLP161

CYHM;2008-12-24 09:50;CYHM 240950Z 21014G20KT 6SM -RASN OVC006 RMK SC8

CYHM;2008-12-24 10:00;CYHM 241000Z 21014G20KT 6SM -RASN OVC006 01/01 A2996 RMK SC8 SLP158

CYHM;2008-12-24 11:00;CYHM 241100Z 21015G21KT 6SM -RASN OVC006 01/01 A2995 RMK SC8 SLP155

CYHM;2008-12-24 11:06;CYHM 241106Z 21015KT 3SM -SN OVC006 RMK SC8

CYHM;2008-12-24 11:53;CYHM 241153Z 21018KT 8SM -DZ BKN005 OVC030 RMK SF6SC2

CYHM;2008-12-24 12:00;CYHM 241200Z 21018KT 8SM -DZ BKN005 OVC030 01/01 A2994 RMK SF6SC2 SLP150

CYHM;2008-12-24 12:09;CYHM 241209Z 22020KT 7SM -SHRASN BKN004 OVC035 RMK SF6SC2

CYHM;2008-12-24 12:41;CYHM 241241Z 21016G22KT 7SM -SHRA OVC007 RMK SF8

CYHM;2008-12-24 13:00;CYHM 241300Z 21016KT 8SM -SHRA OVC005 02/02 A2992 RMK SF8 SLP144

CYHM;2008-12-24 13:27;CYHM 241327Z 21018KT 2 1/2SM -SHRA BR OVC003 RMK SF8

CYHM;2008-12-24 13:49;CYHM 241349Z 21016KT 2 1/2SM BR OVC005 RMK SF8

CYHM;2008-12-24 14:00;CYHM 241400Z 20016G22KT 2 1/2SM BR OVC004 02/02 A2991 RMK SF8 SLP138

CYHM;2008-12-24 15:00;CYHM 241500Z 21016G22KT 2 1/2SM BR OVC003 03/03 A2989 RMK SF8 SLP130

CYHM;2008-12-24 16:00;CYHM 241600Z 21016G23KT 4SM BR OVC005 03/03 A2985 RMK SF8 SLP117

CYHM;2008-12-24 16:39;CYHM 241639Z 22010G25KT 2 1/2SM -RA BR OVC006 RMK SF8

CYHM;2008-12-24 17:00;CYHM 241700Z 21015G25KT 2SM -RA BR OVC006 04/04 A2978 RMK SF8 SLP096

CYHM;2008-12-24 18:00;CYHM 241800Z 19018G23KT 2SM -RA BR OVC005 04/04 A2971 RMK SF8 SLP068

CYHM;2008-12-24 19:00;CYHM 241900Z CCA 19016G23KT 2SM -RA BR OVC004 05/05 A2963 RMK SF8 PRESFR SLP041

CYHM;2008-12-24 19:45;CYHM 241945Z 19016KT 2SM -RA BR OVC007 RMK SF8

CYHM;2008-12-24 20:00;CYHM 242000Z CCA 21018KT 1 1/2SM -RA BR OVC006 05/05 A2957 RERA RMK SF8 SLP023

CYHM;2008-12-24 21:00;CYHM 242100Z 20022G27KT 1 1/2SM -RA BR OVC005 06/06 A2954 RMK SF8 SLP011

CYHM;2008-12-24 22:00;CYHM 242200Z 21021KT 2SM -RA BR OVC005 06/06 A2951 RMK SF8 SLP999

CYHM;2008-12-24 22:25;CYHM 242225Z 22022KT 2 1/2SM -RA BR BKN008 OVC012 RMK SF6SC2

CYHM;2008-12-24 23:00;CYHM 242300Z 23029G39KT 12SM -RA BKN015 OVC022 06/06 A2952 RMK SF5SC3 SLP005

CYHM;2008-12-25 00:00;CYHM 250000Z 23024KT 12SM -RA SCT018 BKN025 06/05 A2956 RMK SC4SC3 PCPN VRY LGT /R10/ SLP016

CYHM;2008-12-25 00:20;CYHM 250020Z 24022G33KT 15SM FEW019 BKN023 BKN045 RMK SC2SC3SC2

CYHM;2008-12-25 01:00;CYHM 250100Z 24031G37KT 15SM BKN018 BKN025 05/03 A2958 RMK SC5SC2 SLP023

CYHM;2008-12-25 02:00;CYHM 250200Z 26030G41KT 12SM FEW018 SCT025 BKN042 04/M00 A2967 RMK SC2SC2SC4 PRESRR SLP053

CYHM;2008-12-25 02:45;CYHM 250245Z CCA 24022G30KT 12SM -SHSN FEW012 BKN023 BKN040 RMK SC2SC4SC2 PCPN VRY LGT

CYHM;2008-12-25 03:00;CYHM 250300Z 26027KT 8SM -SHSN FEW012 BKN023 BKN042 03/M01 A2974 RMK SC2SC4SC2 PRESRR PCPN VRY LGT SLP077

CYHM;2008-12-25 04:00;CYHM 250400Z 25018G26KT 6SM -SHSN OVC020 02/M01 A2980 RMK SC8 PRESRR SLP097

CYHM;2008-12-25 05:00;CYHM 250500Z 25020G33KT 15SM -SHSN BKN023 01/M01 A2986 RMK SC6 PK GST 42 PST HR PRESRR SLP119

CYHM;2008-12-25 06:00;CYHM 250600Z 26022G36KT 15SM -SHSN OVC025 01/M03 A2991 RMK SC8 SLP136

CYHM;2008-12-25 07:00;CYHM 250700Z 26022G31KT 15SM -SHSN OVC028 00/M04 A2997 RMK SC8 PRESRR SLP155

CYHM;2008-12-25 08:00;CYHM 250800Z 25020G29KT 15SM -SHSN OVC027 M01/M05 A3004 RMK SC8 PRESRR SLP181

CYHM;2008-12-25 09:00;CYHM 250900Z CCA 25013G18KT 15SM -SHSN BKN028 OVC035 M01/M05 A3010 RMK SC6SC2 PRESRR SLP200

CYHM;2008-12-25 10:00;CYHM 251000Z 24016KT 15SM -SHSN FEW024 OVC043 M02/M06 A3013 RMK CF2SC6 SLP213

CYHM;2008-12-25 11:00;CYHM 251100Z 24017KT 10SM -SHSN OVC018 M02/M06 A3018 RMK SC8 SLP228

CYHM;2008-12-25 12:00;CYHM 251200Z 25013KT 10SM -SHSN BKN017 OVC052 M02/M06 A3022 RMK SC5SC3 PCPN VRY LGT SLP244

CYHM;2008-12-25 13:00;CYHM 251300Z 24013KT 4SM -SHSN BKN018 OVC023 M03/M06 A3027 RMK SC6SC2 SLP259

CYHM;2008-12-25 14:00;CYHM 251400Z 24011KT 3SM -SHSN FEW007 BKN012 OVC050 M03/M06 A3030 RMK SF2SC3SC2 SLP271

CYHM;2008-12-25 14:40;CYHM 251440Z 26011KT 8SM -SHSN FEW050 RMK SC2 PCPN VRY LGT

CYHM;2008-12-25 15:00;CYHM 251500Z 25011KT 8SM FEW050 M03/M07 A3032 RMK SC1 SLP278

CYHM;2008-12-25 16:00;CYHM 251600Z 26012KT 12SM FEW045 M02/M06 A3033 RMK SC1 SLP283

CYHM;2008-12-25 17:00;CYHM 251700Z 27010KT 10SM FEW017 BKN022 M02/M06 A3034 RMK CU2SC4 SLP286

CYHM;2008-12-25 18:00;CYHM 251800Z 27010KT 10SM FEW018 BKN024 M02/M06 A3036 RMK CU2SC5 SLP290

CYHM;2008-12-25 19:00;CYHM 251900Z 27009KT 10SM SCT025 BKN030 M02/M07 A3036 RMK CU4SC3 SLP293

CYHM;2008-12-25 20:00;CYHM 252000Z 26009KT 15SM FEW023 BKN029 M01/M07 A3038 RMK CU2SC4 SLP299

CYHM;2008-12-25 21:00;CYHM 252100Z 26005KT 15SM BKN027 BKN062 M03/M08 A3040 RMK SC5SC1 CU ASOCTD SLP307

CYHM;2008-12-25 22:00;CYHM 252200Z 26005KT 15SM SCT026 BKN033 M03/M08 A3042 RMK SC3SC2 SLP312

CYHM;2008-12-25 23:00;CYHM 252300Z 25006KT 15SM BKN029 M03/M08 A3044 RMK SC7 SLP321

CYHM;2008-12-26 00:00;CYHM 260000Z 26006KT 15SM OVC028 M04/M07 A3046 RMK SC8 SLP329

CYHM;2008-12-26 01:00;CYHM 260100Z 25005KT 15SM OVC027 M04/M08 A3047 RMK SC8 SLP332

CYHM;2008-12-26 02:00;CYHM 260200Z 25002KT 15SM OVC027 M04/M08 A3048 RMK SC8 SLP333

CYHM;2008-12-26 03:00;CYHM 260300Z 25002KT 15SM OVC026 M04/M08 A3048 RMK SC8 SLP335

CYHM;2008-12-26 04:00;CYHM 260400Z 24002KT 15SM OVC026 M04/M08 A3046 RMK SC8 SLP330

CYHM;2008-12-26 05:00;CYHM 260500Z 21005KT 15SM OVC023 M04/M08 A3046 RMK SC8 SLP330

CYHM;2008-12-26 06:00;CYHM 260600Z 21002KT 15SM OVC024 M04/M08 A3045 RMK SC8 SLP325

CYHM;2008-12-26 07:00;CYHM 260700Z 00000KT 15SM OVC023 M04/M07 A3042 RMK SC8 SLP316

CYHM;2008-12-26 08:00;CYHM 260800Z 18002KT 15SM OVC021 M04/M07 A3042 RMK SC8 SLP315

CYHM;2008-12-26 09:00;CYHM 260900Z 09002KT 15SM OVC019 M04/M08 A3042 RMK SC8 SLP314

CYHM;2008-12-26 10:00;CYHM 261000Z 08005KT 15SM OVC019 M04/M07 A3041 RMK SC8 SLP312

CYHM;2008-12-26 11:00;CYHM 261100Z 07003KT 15SM FEW019 BKN250 M05/M07 A3042 RMK SC2CC3 SLP316

CYHM;2008-12-26 12:00;CYHM 261200Z 06006KT 15SM FEW020 OVC240 M04/M06 A3039 RMK SC2CI5 SLP306

CYHM;2008-12-26 13:00;CYHM 261300Z 10006KT 15SM FEW020 BKN042 OVC085 M04/M06 A3037 RMK SC2SC3AC2 SLP297

CYHM;2008-12-26 14:00;CYHM 261400Z 13010KT 10SM BKN042 OVC080 M03/M07 A3036 RMK SC6AC2 SLP296

CYHM;2008-12-26 15:00;CYHM 261500Z 11007KT 10SM BKN045 OVC085 M03/M07 A3034 RMK SC6AC2 SLP288

CYHM;2008-12-26 16:00;CYHM 261600Z 10006KT 10SM BKN066 OVC100 M02/M06 A3032 RMK AC6AC2 SLP280

CYHM;2008-12-26 17:00;CYHM 261700Z 08008KT 15SM BKN070 OVC110 M02/M06 A3026 RMK AC6AC2 SLP261

CYHM;2008-12-26 18:00;CYHM 261800Z 09008KT 15SM BKN068 BKN110 M01/M07 A3024 RMK AC6AC2 SLP253

CYHM;2008-12-26 19:00;CYHM 261900Z 08007KT 15SM BKN060 BKN110 M01/M05 A3022 RMK SC6AC2 SLP245

CYHM;2008-12-26 20:00;CYHM 262000Z 08008KT 15SM BKN061 M00/M04 A3019 RMK SC7 SLP237

CYHM;2008-12-26 21:00;CYHM 262100Z 10007KT 15SM BKN044 00/M04 A3017 RMK SC7 SLP230

CYHM;2008-12-26 22:00;CYHM 262200Z 06007KT 15SM BKN042 BKN067 M00/M04 A3015 RMK SC6AC2 SLP221

CYHM;2008-12-26 23:00;CYHM 262300Z 07005KT 15SM OVC025 M00/M03 A3014 RMK SC8 SLP219

CYHM;2008-12-27 00:00;CYHM 270000Z 05002KT 15SM OVC019 00/M03 A3014 RMK SC8 SLP219

CYHM;2008-12-27 00:49;CYHM 270049Z 08003KT 8SM -RA OVC012 RMK SC8

CYHM;2008-12-27 01:00;CYHM 270100Z 00000KT 8SM -RA OVC011 00/M02 A3015 RMK SC8 SLP220

CYHM;2008-12-27 02:00;CYHM 270200Z 00000KT 6SM -DZ BR OVC007 00/M01 A3013 RMK SF8 SLP213

CYHM;2008-12-27 02:12;CYHM 270212Z 17004KT 2 1/2SM -DZ BR OVC006 RMK SF8

CYHM;2008-12-27 02:36;CYHM 270236Z 17003KT 1 1/2SM -DZ BR OVC004 RMK FG2SF6 VIS VRB 1 - 2

CYHM;2008-12-27 03:00;CYHM 270300Z 17007KT 1SM -DZ BR OVC002 01/01 A3011 RMK FG2SF6 VIS VRB 3/4 - 11/4 SLP206

CYHM;2008-12-27 03:16;CYHM 270316Z 20007KT 1/2SM -DZ FG OVC002 RMK FG4SF4

CYHM;2008-12-27 03:36;CYHM 270336Z 19008KT 3/4SM -DZ BR OVC002 RMK FG3SF5 VIS VRB 1/2 - 1

CYHM;2008-12-27 04:00;CYHM 270400Z 19009KT 1/2SM -DZ FG OVC002 03/03 A3011 RMK FG4SF4 SLP206

CYHM;2008-12-27 04:10;CYHM 270410Z 20008KT 1/4SM -DZ FG OVC002 RMK FG5SF3

CYHM;2008-12-27 05:00;CYHM 270500Z 18006KT 1/4SM -DZ FG OVC002 03/03 A3007 RMK FG5SF3 SLP195

CYHM;2008-12-27 05:24;CYHM 270524Z 20010KT 1/8SM -DZ FG VV001 RMK FG8

CYHM;2008-12-27 06:00;CYHM 270600Z 19011KT 1/4SM -RA FG VV002 04/04 A3005 RMK FG8 SLP185

CYHM;2008-12-27 06:10;CYHM 270610Z 19011KT 3/4SM -RA BR OVC002 RMK FG3SF5 VIS VRB 1/2 - 1

CYHM;2008-12-27 07:00;CYHM 270700Z 18010KT 1/4SM -RA FG OVC002 05/05 A3004 RERA RMK FG5SF3 SLP180

CYHM;2008-12-27 07:15;CYHM 270715Z 17009KT 1/8SM -RA FG VV002 RERA RMK FG8

CYHM;2008-12-27 07:31;CYHM 270731Z 18010KT 1/2SM -RA FG OVC002 RERA RMK FG4SF4

CYHM;2008-12-27 07:41;CYHM 270741Z 19009KT 1/4SM -RA FG OVC002 RMK FG5SF3

CYHM;2008-12-27 08:00;CYHM 270800Z 20008KT 1/4SM -RA FG VV002 05/05 A3003 RMK FG8 SLP179

CYHM;2008-12-27 08:23;CYHM 270823Z 20010KT 0SM -RA FG VV001 RMK FG8

CYHM;2008-12-27 09:00;CYHM 270900Z 20012KT 0SM -RA FG VV001 06/06 A3001 RMK FG8 SLP169

CYHM;2008-12-27 10:00;CYHM 271000Z 21013KT 0SM -RA FG VV002 08/08 A2999 RMK FG8 SLP164

CYHM;2008-12-27 11:00;CYHM 271100Z 20013KT 0SM -RA FG VV002 08/08 A2998 RERA RMK FG8 SLP162

CYHM;2008-12-27 12:00;CYHM 271200Z 20012KT 0SM -RA FG VV001 07/07 A2998 RMK FG8 PCPN VRY LGT SLP161

CYHM;2008-12-27 12:24;CYHM 271224Z 21015KT 1/4SM FG OVC002 RMK FG6SF2

CYHM;2008-12-27 13:00;CYHM 271300Z 21013KT 0SM FG VV002 08/08 A2998 RMK FG8 SLP159

CYHM;2008-12-27 13:25;CYHM 271325Z 20014KT 1/2SM FG OVC003 RMK FG6SF2

CYHM;2008-12-27 14:00;CYHM 271400Z 20012KT 3/8SM FG OVC003 08/08 A2998 RMK FG6SF2 SLP160

CYHM;2008-12-27 14:34;CYHM 271434Z 20012KT 1/8SM FG OVC002 RMK FG7SF1

CYHM;2008-12-27 15:00;CYHM 271500Z 19012KT 0SM FG VV001 09/09 A2998 RMK FG8 SLP158

CYHM;2008-12-27 16:00;CYHM 271600Z 20014KT 1/4SM FG OVC002 10/10 A2997 RMK FG6SF2 SLP156

CYHM;2008-12-27 16:51;CYHM 271651Z 19013KT 0SM -RA FG VV002 RMK FG8

CYHM;2008-12-27 17:00;CYHM 271700Z 20012KT 0SM -RA FG VV002 09/09 A2994 RMK FG8 SLP145

CYHM;2008-12-27 18:00;CYHM 271800Z 20012KT 1/2SM FG OVC003 10/10 A2991 RMK FG5SF3 SLP135

CYHM;2008-12-27 18:23;CYHM 271823Z 21014KT 1 1/4SM BR OVC004 RMK FG2SF6

CYHM;2008-12-27 18:31;CYHM 271831Z 20014KT 2SM BR BKN004 OVC017 RMK FG1SF6SC2

CYHM;2008-12-27 19:00;CYHM 271900Z 20012KT 2SM BR SCT004 OVC018 10/10 A2990 RMK FG1SF2SC5 SLP130

CYHM;2008-12-27 19:41;CYHM 271941Z 20012KT 1 1/2SM BR SCT003 OVC020 RMK FG2SF2SC4

CYHM;2008-12-27 20:00;CYHM 272000Z 20012KT 1 1/2SM BR SCT003 OVC020 10/10 A2988 RMK FG2SF2SC4 SLP124

CYHM;2008-12-27 20:24;CYHM 272024Z 20012KT 2SM BR SCT003 BKN022 RMK FG1SF2SC4

CYHM;2008-12-27 21:00;CYHM 272100Z 20013KT 2 1/2SM BR FEW004 OVC022 09/09 A2988 RMK FG1CF2SC6 SLP123

CYHM;2008-12-27 22:00;CYHM 272200Z 20015KT 3SM BR FEW004 OVC026 10/10 A2986 RMK CF1SC8 CF TR SLP118

CYHM;2008-12-27 23:00;CYHM 272300Z CCA 20014KT 5SM BR OVC025 11/11 A2986 RMK SC8 SLP117

CYHM;2008-12-28 00:00;CYHM 280000Z 20013KT 8SM OVC029 11/11 A2984 RMK SC8 SLP111

CYHM;2008-12-28 01:00;CYHM 280100Z 20016KT 10SM SCT029 OVC041 12/11 A2981 RMK SC4SC4 SLP100

CYHM;2008-12-28 02:00;CYHM 280200Z 20016KT 15SM FEW029 SCT041 13/11 A2977 RMK SC2SC2 SLP087

CYHM;2008-12-28 03:00;CYHM 280300Z 20017KT 15SM FEW040 BKN062 12/10 A2975 RMK SC2SC3 SLP078

CYHM;2008-12-28 04:00;CYHM 280400Z 21017KT 15SM SCT061 13/10 A2971 RMK SC4 SLP066

CYHM;2008-12-28 05:00;CYHM 280500Z 21018G25KT 15SM OVC047 14/10 A2969 RMK SC8 SLP059

CYHM;2008-12-28 06:00;CYHM 280600Z 22018KT 15SM OVC043 14/11 A2970 RMK SC8 SLP059

CYHM;2008-12-28 07:00;CYHM 280700Z 23012KT 15SM OVC040 13/11 A2968 RMK SC8 SLP055

CYHM;2008-12-28 07:47;CYHM 280747Z 23009KT 10SM -SHRA OVC040 RMK SC8

CYHM;2008-12-28 08:00;CYHM 280800Z 24009KT 7SM -SHRA OVC041 12/11 A2968 RMK SC8 SLP054

CYHM;2008-12-28 09:00;CYHM 280900Z 21010KT 15SM BKN042 11/11 A2963 RMK SC6 SLP037

CYHM;2008-12-28 10:00;CYHM 281000Z CCA 17010KT 12SM -SHRA FEW002 OVC035 11/11 A2955 RMK SF2SC6 PRESFR SLP012

CYHM;2008-12-28 11:00;CYHM 281100Z 19012KT 15SM BKN067 11/10 A2951 RMK AC7 SLP997

CYHM;2008-12-28 12:00;CYHM 281200Z CCA 19024G34KT 15SM BKN038 13/09 A2944 RMK SC7 PRESFR SLP970

CYHM;2008-12-28 12:08;CYHM 281208Z 20024G29KT 15SM -SHRA BKN036 RMK SC7

CYHM;2008-12-28 13:00;CYHM 281300Z CCA 25030G42KT 5SM -SHRA SCT011 OVC017 08/07 A2953 RMK CF3SC5 GUST TO 52 KTS PAST HR PRESRR SLP001

CYHM;2008-12-28 14:00;CYHM 281400Z 24030G43KT 15SM -SHRA SCT023 BKN061 05/02 A2957 RMK SC4SC3 SLP015

CYHM;2008-12-28 14:43;CYHM 281443Z 23030G43KT 15SM BKN024 BKN080 BKN250 RMK SC5AC1CI1 AC CI TR

CYHM;2008-12-28 15:00;CYHM 281500Z 23035G44KT 15SM BKN021 BKN080 03/M01 A2965 RMK SC7AC1 AC TR PRESRR SLP046

CYHM;2008-12-28 16:00;CYHM 281600Z 24037G46KT 15SM OVC022 02/M02 A2971 RMK SC8 PRESRR SLP067

CYHM;2008-12-28 17:00;CYHM 281700Z 24028G39KT 210V280 15SM BKN022 OVC030 01/M02 A2976 RMK SC6SC2 SLP081

CYHM;2008-12-28 18:00;CYHM 281800Z 24030G40KT 15SM BKN029 01/M04 A2980 RMK SC7 SLP097

CYHM;2008-12-28 19:00;CYHM 281900Z 24028G39KT 15SM OVC033 01/M04 A2985 RMK SC8 SLP114

CYHM;2008-12-28 20:00;CYHM 282000Z 24026G37KT 15SM BKN028 BKN038 01/M04 A2989 RMK SC6SC2 SLP125

CYHM;2008-12-28 21:00;CYHM 282100Z 24026G34KT 15SM SCT025 BKN035 01/M04 A2992 RMK SC4SC3 SLP138

CYHM;2008-12-28 22:00;CYHM 282200Z 24024G31KT 15SM FEW025 SCT034 01/M04 A2994 RMK SC2SC2 SLP146

CYHM;2008-12-28 23:00;CYHM 282300Z 24017G22KT 15SM SCT026 BKN037 01/M04 A3001 RMK SC4SC3 PRESRR SLP169

CYHM;2008-12-29 00:00;CYHM 290000Z 24015KT 15SM BKN026 BKN036 01/M03 A3003 RMK SC5SC2 SLP176

CYHM;2008-12-29 01:00;CYHM 290100Z 25013KT 15SM OVC030 01/M04 A3005 RMK SC8 SLP183

CYHM;2008-12-29 02:00;CYHM 290200Z 25014KT 15SM OVC027 01/M04 A3005 RMK SC8 SLP183

CYHM;2008-12-29 03:00;CYHM 290300Z 25013KT 15SM OVC026 01/M04 A3006 RMK SC8 SLP188

CYHM;2008-12-29 04:00;CYHM 290400Z 26005KT 15SM OVC023 00/M04 A3005 RMK SC8 SLP186

CYHM;2008-12-29 05:00;CYHM 290500Z 25012KT 15SM OVC027 00/M04 A3004 RMK SC8 SLP183

CYHM;2008-12-29 06:00;CYHM 290600Z 26013KT 15SM OVC028 00/M05 A3004 RMK SC8 SLP184

CYHM;2008-12-29 07:00;CYHM 290700Z 26014KT 15SM OVC028 M00/M05 A3005 RMK SC8 SLP187

CYHM;2008-12-29 08:00;CYHM 290800Z 26011KT 15SM OVC027 M00/M05 A3007 RMK SC8 SLP194

CYHM;2008-12-29 09:00;CYHM 290900Z 26010KT 15SM OVC028 M00/M05 A3006 RMK SC8 SLP190

CYHM;2008-12-29 10:00;CYHM 291000Z 25012KT 15SM BKN029 M01/M05 A3005 RMK SC6 SLP186

CYHM;2008-12-29 11:00;CYHM 291100Z 24008KT 15SM BKN025 M01/M05 A3004 RMK SC7 SLP184

CYHM;2008-12-29 12:00;CYHM 291200Z 24010KT 15SM BKN025 M01/M05 A3004 RMK SC7 SLP183

CYHM;2008-12-29 13:00;CYHM 291300Z 24010KT 15SM FEW025 FEW120 M01/M06 A3004 RMK SC2AC1 SLP183

CYHM;2008-12-29 14:00;CYHM 291400Z 23012KT 15SM FEW030 FEW120 SCT240 M02/M05 A3003 RMK SC1AC1CI1 SLP178

CYHM;2008-12-29 15:00;CYHM 291500Z 22012KT 15SM FEW045 FEW140 M01/M04 A3001 RMK SC1AC1 SC TR AC TR SLP172

CYHM;2008-12-29 16:00;CYHM 291600Z 21016KT 15SM FEW025 FEW140 M00/M03 A2997 RMK CU1AC1 SC ASOCTD SLP161

CYHM;2008-12-29 17:00;CYHM 291700Z 23015KT 15SM FEW025 FEW240 02/M02 A2992 RMK CU1CI1 SLP142

CYHM;2008-12-29 18:00;CYHM 291800Z 19014KT 15SM FEW018 FEW150 SCT220 02/M01 A2986 RMK CU2AC1CI0 CI TR SLP119

CYHM;2008-12-29 19:00;CYHM 291900Z CCA 20016KT 15SM FEW100 FEW220 03/M02 A2978 RMK AC1CI0 CI TR PRESFR SLP094

CYHM;2008-12-29 20:00;CYHM 292000Z 21018KT 15SM FEW100 FEW130 SCT220 03/M03 A2974 RMK AC2AC1CI0 SLP080

CYHM;2008-12-29 21:00;CYHM 292100Z 20012KT 15SM FEW035 BKN090 BKN200 03/M02 A2968 RMK SC2AC4CI1 PRESFR SLP059

CYHM;2008-12-29 22:00;CYHM 292200Z 20017KT 15SM BKN080 04/M02 A2961 RMK AC7 PRESFR SLP036

CYHM;2008-12-29 23:00;CYHM 292300Z 21014KT 15SM BKN050 04/M02 A2962 RMK SC7 SLP038

CYHM;2008-12-30 00:00;CYHM 300000Z 24023G32KT 15SM BKN039 BKN050 05/M01 A2960 RMK SC5SC2 SLP033

CYHM;2008-12-30 01:00;CYHM 300100Z 27022G28KT 12SM FEW030 BKN039 04/M02 A2963 RMK SC2SC4 SLP042

CYHM;2008-12-30 01:30;CYHM 300130Z 28029G37KT 12SM -SHRA FEW018 BKN028 RMK SC2SC4 PCPN VRY LGT

CYHM;2008-12-30 02:00;CYHM 300200Z 27030G39KT 12SM -SHRA BKN028 02/M03 A2967 RMK SC6 PCPN VRY LGT SLP054

CYHM;2008-12-30 02:42;CYHM 300242Z 27021G26KT 15SM BKN035 RMK SC6

CYHM;2008-12-30 03:00;CYHM 300300Z 27022G31KT 15SM BKN035 01/M05 A2968 RMK SC6 SLP061

CYHM;2008-12-30 04:00;CYHM 300400Z 27032G43KT 15SM BKN030 01/M04 A2972 RMK SC6 SLP074

CYHM;2008-12-30 05:00;CYHM 300500Z 28026G33KT 15SM FEW011 SCT018 BKN030 M01/M05 A2978 RMK SC2SC2SC3 SLP092

CYHM;2008-12-30 05:25;CYHM 300525Z CCA 28018G29KT 15SM -SHSN SCT010 BKN030 RMK SC3SC2 PCPN VRY LGT

CYHM;2008-12-30 06:00;CYHM 300600Z CCA 28019G28KT 15SM -SHSN FEW013 BKN025 M01/M06 A2981 RMK SC2SC3 PCPN VRY LGT SLP102

CYHM;2008-12-30 06:20;CYHM 300620Z 28029G37KT 15SM SCT025 RMK SC3

CYHM;2008-12-30 07:00;CYHM 300700Z 28022G29KT 15SM FEW035 M02/M08 A2984 RMK SC2 SLP113

CYHM;2008-12-30 08:00;CYHM 300800Z 27028G34KT 15SM FEW035 M02/M08 A2987 RMK SC2 SLP124

CYHM;2008-12-30 09:00;CYHM 300900Z 28017G24KT 15SM FEW035 SCT045 M02/M09 A2990 RMK SC2SC2 SLP135

CYHM;2008-12-30 09:06;CYHM 300906Z 27019KT 15SM -SHSN FEW030 SCT040 RMK SC2SC2 PCPN VRY LGT

CYHM;2008-12-30 10:00;CYHM 301000Z 28020KT 15SM FEW033 M02/M08 A2992 RMK SC2 SLP142

CYHM;2008-12-30 11:00;CYHM 301100Z 27013KT 15SM FEW025 M03/M09 A2995 RMK SC2 SLP152

CYHM;2008-12-30 12:00;CYHM 301200Z 27016KT 15SM FEW030 M04/M09 A2997 RMK SC2 TR CU ASOCTD SLP160

CYHM;2008-12-30 13:00;CYHM 301300Z 26015KT 15SM FEW025 FEW035 BKN210 M04/M08 A2999 RMK CU2SC1CI2 SLP165

CYHM;2008-12-30 14:00;CYHM 301400Z 27015KT 15SM FEW032 SCT045 BKN100 BKN210 M04/M09 A3001 RMK SC2SC2AC2CI1 SLP173

CYHM;2008-12-30 15:00;CYHM 301500Z 29010KT 15SM SCT032 BKN100 OVC210 M03/M08 A3004 RMK SC3AC2CI2 TR CU ASOCTD SLP183

CYHM;2008-12-30 16:00;CYHM 301600Z 26012KT 15SM FEW025 BKN034 BKN160 BKN210 M03/M08 A3003 RMK CU1SC4AC1CI1 SLP180

CYHM;2008-12-30 16:17;CYHM 301617Z 27012KT 15SM -SHSN FEW013 BKN034 BKN150 BKN210 RMK SC2SC3AC1CI1 CU ASOCTD

CYHM;2008-12-30 17:00;CYHM 301700Z 26010G15KT 6SM -SHSN FEW007 BKN012 BKN025 OVC210 M02/M07 A3001 RMK SF2SC3SC2CI1 SLP175

CYHM;2008-12-30 18:00;CYHM 301800Z 25013KT 15SM -SHSN BKN021 BKN034 BKN100 M02/M07 A2999 RMK SC5SC2AC1 SLP166

CYHM;2008-12-30 19:00;CYHM 301900Z 25012KT 15SM -SHSN BKN027 BKN038 M02/M08 A2997 RMK SC6SC2 SLP159

CYHM;2008-12-30 20:00;CYHM 302000Z 24010KT 15SM -SHSN BKN029 BKN036 M02/M08 A2995 RMK SC5SC2 PCPN VRY LGT SLP155

CYHM;2008-12-30 21:00;CYHM 302100Z 25007KT 15SM BKN028 BKN037 M02/M08 A2995 RMK SC5SC2 SLP152

CYHM;2008-12-30 22:00;CYHM 302200Z 24006KT 15SM SCT028 BKN045 BKN250 M03/M08 A2992 RMK SC3SC2CI1 SLP144

CYHM;2008-12-30 23:00;CYHM 302300Z 00000KT 15SM FEW028 SCT045 BKN250 M04/M08 A2989 RMK SC2SC2CI2 SLP134

CYHM;2008-12-31 00:00;CYHM 310000Z 00000KT 15SM FEW028 SCT045 OVC250 M03/M07 A2987 RMK SC2SC2CS5 SLP125

CYHM;2008-12-31 00:33;CYHM 310033Z 15002KT 10SM -SHSN BKN028 OVC250 RMK SC6CS2

CYHM;2008-12-31 00:56;CYHM 310056Z 17002KT 1 3/4SM -SN VV009 RMK SN8

CYHM;2008-12-31 01:00;CYHM 310100Z 16003KT 1 3/4SM -SN VV009 M04/M07 A2984 RMK SN8 SLP116

CYHM;2008-12-31 01:13;CYHM 310113Z 16004KT 4SM -SHSN BKN028 OVC250 RMK SC5CS3

CYHM;2008-12-31 02:00;CYHM 310200Z 06004KT 12SM SCT030 OVC250 M04/M07 A2982 RMK SC3CS5 SLP110

CYHM;2008-12-31 02:38;CYHM 310238Z 08003KT 10SM -SHSN SCT030 BKN040 OVC085 RMK SC3SC2AS3

CYHM;2008-12-31 03:00;CYHM 310300Z 07003KT 10SM -SHSN FEW030 BKN045 BKN085 OVC250 M04/M06 A2980 RMK SC2SC2AS2CS1 SLP103

CYHM;2008-12-31 03:15;CYHM 310315Z 06007KT 10SM FEW030 BKN045 BKN085 OVC250 RMK SC2SC2AS2CS1

CYHM;2008-12-31 03:45;CYHM 310345Z 06009KT 4SM -SHSN BKN005 OVC013 RMK SF5SC3

CYHM;2008-12-31 04:00;CYHM 310400Z 07008KT 3SM -SHSN BKN006 OVC014 M04/M06 A2974 RMK SF5SC3 PCPN VRY LGT SLP084

CYHM;2008-12-31 04:40;CYHM 310440Z 06011KT 1SM -SN OVC010 RMK SN3SF5

CYHM;2008-12-31 05:00;CYHM 310500Z 06011KT 3/4SM -SN OVC008 M04/M05 A2969 RMK SN5SF3 SLP066

CYHM;2008-12-31 05:42;CYHM 310542Z 04012KT 1/4SM +SN OVC003 RMK SN6SF2

CYHM;2008-12-31 06:00;CYHM 310600Z CCA 05012KT 1/4SM +SN OVC003 M04/M05 A2965 RMK SN6SF2 /S03/ SLP051

CYHM;2008-12-31 06:30;CYHM 310630Z CCA 05017KT 1/4SM SN OVC012 RESN RMK SN6SF2

CYHM;2008-12-31 07:00;CYHM 310700Z 02017KT 3/4SM -SN OVC010 M05/M06 A2962 RESN RMK SN6SF2 /S02/ SLP040

CYHM;2008-12-31 08:00;CYHM 310800Z 02017KT 5/8SM -SN BLSN OVC010 M06/M07 A2961 RMK SN6SF2 /S03/ SLP037

CYHM;2008-12-31 09:00;CYHM 310900Z 36022KT 3/4SM -SN BLSN OVC012 M06/M08 A2963 RMK SN5SF3 SLP047

CYHM;2008-12-31 10:00;CYHM 311000Z CCA 01017G22KT 3/4SM -SN BLSN BKN008 OVC019 M07/M09 A2970 RMK SN4SF2SC2 PRESRR SLP068

CYHM;2008-12-31 10:50;CYHM 311050Z 35018KT 1 1/2SM -SN OVC032 RMK SN2SC6 PCPN VRY LGT

CYHM;2008-12-31 11:00;CYHM 311100Z 35017KT 2 1/2SM -SN OVC035 M07/M09 A2974 RMK SC8 PCPN VRY LGT /S04/ SLP082

CYHM;2008-12-31 11:29;CYHM 311129Z 35015G20KT 10SM -SN DRSN FEW020 BKN044 OVC055 RMK SF1SC6SC2

CYHM;2008-12-31 12:00;CYHM 311200Z CCA 34014KT 15SM -SN DRSN BKN042 OVC058 M07/M11 A2980 RMK SC6SC2 SLP103

CYHM;2008-12-31 12:13;CYHM 311213Z 35016KT 15SM DRSN SCT044 OVC071 RMK SC3AC5

CYHM;2008-12-31 13:00;CYHM 311300Z 34017KT 15SM FEW025 FEW055 SCT078 SCT220 M08/M12 A2985 RMK CU1SC1AC2CI1 SLP120

CYHM;2008-12-31 14:00;CYHM 311400Z 34012G20KT 15SM DRSN FEW024 SCT082 BKN220 M09/M14 A2991 RMK CU2AC2CI2 CONTRAIL SLP139

CYHM;2008-12-31 14:51;CYHM 311451Z 35016G22KT 8SM -SN DRSN FEW020 BKN029 OVC210 RMK CF1SC4CI2

CYHM;2008-12-31 15:00;CYHM 311500Z 35020KT 8SM -SN DRSN FEW020 BKN028 OVC210 M09/M14 A2995 RMK CF1SC5CI2 SLP157

CYHM;2008-12-31 15:38;CYHM 311538Z 35020G26KT 10SM DRSN FEW025 BKN220 RMK SC2CI2

CYHM;2008-12-31 16:00;CYHM 311600Z 35020G26KT 15SM DRSN FEW029 SCT220 M10/M15 A3000 RMK SC2CI1 TR CU ASOCTD SLP171

CYHM;2008-12-31 17:00;CYHM 311700Z 33017G22KT 15SM DRSN FEW028 FEW160 SCT210 M09/M15 A3002 RMK SC2AC1CI1 CONTRAIL SLP179

CYHM;2008-12-31 18:00;CYHM 311800Z 33010G15KT 15SM FEW032 FEW120 SCT210 M09/M14 A3004 RMK SC2AC1CI1 SLP185

CYHM;2008-12-31 19:00;CYHM 311900Z 32015G22KT 15SM FEW024 FEW042 FEW210 M09/M14 A3004 RMK CU1SC1CI0 SLP188

CYHM;2008-12-31 20:00;CYHM 312000Z 32011KT 15SM FEW025 FEW030 SCT220 M08/M14 A3007 RMK CU2SC1CI1 SLP195

CYHM;2008-12-31 21:00;CYHM 312100Z 30019G24KT 15SM DRSN FEW025 SCT030 SCT080 M09/M13 A3009 RMK CU2SC2AC1 SLP205

CYHM;2008-12-31 22:00;CYHM 312200Z 30011KT 15SM DRSN FEW020 SCT025 SCT075 M09/M13 A3012 RMK CU1SC2AC1 SLP214

CYHM;2008-12-31 23:00;CYHM 312300Z 31015KT 15SM FEW030 M10/M14 A3015 RMK SC2 SLP223

