CYHM;2007-01-01 01:00;CYHM 010100Z 06012KT 2 1/2SM -SHRA BR BKN002 OVC006 02/02 A2985 RMK CF6SC2 SLP119

CYHM;2007-01-01 01:27;CYHM 010127Z 05011KT 1 1/2SM -SHRA BR OVC002 RMK FG2SF6

CYHM;2007-01-01 02:00;CYHM 010200Z 05012KT 1 1/2SM -SHRA BR OVC002 02/02 A2980 RMK FG2SF6 SLP101

CYHM;2007-01-01 03:00;CYHM 010300Z 06014KT 2SM -SHRA BR BKN002 OVC028 03/03 A2974 RMK FG2SF5SC2 SLP080

CYHM;2007-01-01 03:26;CYHM 010326Z 04012KT 1/2SM -SHRA FG OVC002 RMK FG4SF4

CYHM;2007-01-01 04:00;CYHM 010400Z 06011KT 1/2SM -SHRA FG SCT002 OVC019 03/03 A2971 RMK FG3SF1SC4 SLP069

CYHM;2007-01-01 04:38;CYHM 010438Z 02005KT 1SM -SHRA BR OVC004 RMK FG2SF6 VIS VRB 3/4 - 11/4

CYHM;2007-01-01 05:00;CYHM 010500Z 11004KT 1 1/2SM -SHRA BR BKN003 OVC009 04/04 A2970 RMK FG2SF5SC2 VIS VRB 1 - 2 SLP065

CYHM;2007-01-01 06:00;CYHM 010600Z 20015KT 7SM FEW008 BKN032 09/09 A2965 RMK CF2SC5 WARM FROPA SLP048

CYHM;2007-01-01 07:00;CYHM 010700Z 20017G22KT 12SM FEW007 FEW030 SCT050 09/09 A2966 RMK CF2SC1SC1 SLP051

CYHM;2007-01-01 08:00;CYHM 010800Z 22015KT 15SM FEW200 09/06 A2967 RMK CI1 SLP054

CYHM;2007-01-01 09:00;CYHM 010900Z 22012KT 15SM FEW036 SCT090 08/06 A2969 RMK SC2AC1 SLP059

CYHM;2007-01-01 10:00;CYHM 011000Z 22017G24KT 15SM FEW028 BKN084 08/05 A2969 RMK SC2AC3 SLP060

CYHM;2007-01-01 11:00;CYHM 011100Z 23018G24KT 15SM SCT050 08/03 A2971 RMK SC4 SLP066

CYHM;2007-01-01 12:00;CYHM 011200Z 25016G22KT 15SM FEW050 FEW220 06/03 A2972 RMK SC1CI1 CI TR SLP071

CYHM;2007-01-01 13:00;CYHM 011300Z 24012KT 15SM FEW050 FEW210 06/03 A2973 RMK SC1CI1 CI TR SLP073

CYHM;2007-01-01 14:00;CYHM 011400Z 24015KT 15SM FEW050 FEW220 06/03 A2974 RMK SC1CI1 SLP078

CYHM;2007-01-01 15:00;CYHM 011500Z 23018G24KT 15SM FEW020 FEW100 FEW220 07/03 A2975 RMK CU1AC1CI1 CU TR CI TR SLP080

CYHM;2007-01-01 16:00;CYHM 011600Z 26018G26KT 15SM FEW020 FEW120 08/03 A2974 RMK CU1AC1 SLP076

CYHM;2007-01-01 17:00;CYHM 011700Z 24020G25KT 15SM FEW025 BKN034 BKN049 08/02 A2973 RMK CU2SC4SC2 SLP074

CYHM;2007-01-01 18:00;CYHM 011800Z 25020KT 15SM FEW024 SCT042 BKN059 08/03 A2971 RMK CU2SC2SC2 SLP067

CYHM;2007-01-01 20:00;CYHM 012000Z 23013G20KT 15SM FEW022 SCT033 BKN040 OVC064 07/03 A2973 RMK SC2SC1SC4SC1 SLP072

CYHM;2007-01-01 21:00;CYHM 012100Z 24014KT 15SM -SHRA FEW016 BKN026 OVC044 06/04 A2976 RMK CF1SC5SC2 SLP083

CYHM;2007-01-01 22:00;CYHM 012200Z 24013KT 12SM -SHRA FEW016 BKN042 OVC084 05/04 A2978 RMK SC1SC6AC2 SLP090

CYHM;2007-01-01 23:00;CYHM 012300Z 24012KT 15SM -SHRA SCT014 BKN020 OVC028 05/03 A2980 RMK SC3SC4SC1 SLP095

CYHM;2007-01-01 23:48;CYHM 012348Z 26012KT 15SM FEW015 SCT036 OVC080 RMK SC2SC2AC4

CYHM;2007-01-02 00:00;CYHM 020000Z 26012KT 15SM FEW015 BKN032 OVC080 05/02 A2983 RMK SC2SC3AC3 SLP108

CYHM;2007-01-02 01:00;CYHM 020100Z 26012KT 15SM BKN016 OVC052 04/02 A2985 RMK SC6SC2 SLP115

CYHM;2007-01-02 02:00;CYHM 020200Z 27008KT 15SM BKN017 BKN026 OVC074 04/02 A2988 RMK SC6SC2AC1 SLP123

CYHM;2007-01-02 03:00;CYHM 020300Z 29010KT 15SM FEW016 BKN022 BKN034 04/01 A2991 RMK SC1SC4SC2 SLP135

CYHM;2007-01-02 04:00;CYHM 020400Z 30012KT 15SM FEW016 BKN032 03/M00 A2996 RMK SC2SC6 SLP150

CYHM;2007-01-02 05:00;CYHM 020500Z 30005KT 15SM BKN024 BKN040 02/M02 A2999 RMK SC5SC2 SLP161

CYHM;2007-01-02 06:00;CYHM 020600Z 30012KT 15SM FEW024 01/M04 A3003 RMK SC1 SLP177

CYHM;2007-01-02 07:00;CYHM 020700Z 30011KT 15SM SKC 00/M04 A3007 RMK SLP190

CYHM;2007-01-02 08:00;CYHM 020800Z 29005KT 15SM SKC M01/M04 A3012 RMK SLP206

CYHM;2007-01-02 09:00;CYHM 020900Z 28007KT 15SM SKC M01/M04 A3013 RMK SLP213

CYHM;2007-01-02 10:00;CYHM 021000Z 28008KT 15SM SKC M01/M03 A3016 RMK SLP222

CYHM;2007-01-02 11:00;CYHM 021100Z 26007KT 15SM FEW026 M01/M03 A3020 RMK SC1 SLP234

CYHM;2007-01-02 12:00;CYHM 021200Z 26008KT 15SM FEW026 M01/M03 A3023 RMK SC1 SC TR SLP246

CYHM;2007-01-02 13:00;CYHM 021300Z 26007KT 15SM FEW025 FEW240 M00/M03 A3025 RMK SC1CI1 SC TR CI TR SLP254

CYHM;2007-01-02 14:00;CYHM 021400Z 27010KT 15SM FEW025 01/M03 A3028 RMK SC1 SC TR SLP262

CYHM;2007-01-02 15:00;CYHM 021500Z 27013KT 15SM FEW025 FEW220 02/M02 A3030 RMK SC1CI1 SC TR CI TR SLP270

CYHM;2007-01-02 16:00;CYHM 021600Z 27015KT 15SM FEW021 SCT240 03/M02 A3032 RMK CU2CI1 SLP277

CYHM;2007-01-02 17:00;CYHM 021700Z 26014KT 15SM FEW021 FEW240 04/M02 A3030 RMK CU1CI1 CI TR SLP271

CYHM;2007-01-02 18:00;CYHM 021800Z 26015KT 15SM FEW024 SCT240 04/M02 A3029 RMK CU1CI2 CU TR SLP267

CYHM;2007-01-02 19:00;CYHM 021900Z 25014KT 15SM FEW024 FEW180 BKN250 05/M02 A3028 RMK CU1AC1CI1 CU TR AC TR CONTRAILS SLP264

CYHM;2007-01-02 20:00;CYHM 022000Z 25012KT 25SM FEW030 FEW170 BKN210 05/M02 A3029 RMK SC1AC1CI2 SLP265

CYHM;2007-01-02 21:00;CYHM 022100Z 23012KT 15SM FEW190 SCT250 04/M02 A3029 RMK AC2CI1 SLP266

CYHM;2007-01-02 22:00;CYHM 022200Z 22007KT 15SM FEW190 FEW250 01/M03 A3028 RMK AC1CI1 CC ASOCTD SLP264

CYHM;2007-01-02 23:00;CYHM 022300Z 22008KT 15SM FEW180 FEW210 01/M02 A3029 RMK AC1CI1 SLP267

CYHM;2007-01-03 00:00;CYHM 030000Z 22011KT 15SM FEW250 M00/M02 A3029 RMK CI1 CI TR SLP267

CYHM;2007-01-03 01:00;CYHM 030100Z 22008KT 15SM FEW250 M01/M02 A3028 RMK CI1 CI TR SLP264

CYHM;2007-01-03 02:00;CYHM 030200Z 22010KT 15SM FEW250 M00/M01 A3027 RMK CI1 CI TR SLP262

CYHM;2007-01-03 03:00;CYHM 030300Z 22010KT 15SM FEW250 M00/M01 A3026 RMK CI1 CI TR SLP258

CYHM;2007-01-03 04:00;CYHM 030400Z 22010KT 15SM FEW180 FEW250 00/M02 A3024 RMK AC1CI1 AC TR CI TR SLP251

CYHM;2007-01-03 05:00;CYHM 030500Z 22010KT 15SM FEW250 01/M01 A3022 RMK CI1 CI TR SLP243

CYHM;2007-01-03 06:00;CYHM 030600Z 22012KT 15SM FEW250 01/M01 A3021 RMK CI1 CI TR SLP240

CYHM;2007-01-03 07:00;CYHM 030700Z 22012KT 15SM FEW250 01/M01 A3021 RMK CI1 CI TR SLP240

CYHM;2007-01-03 08:00;CYHM 030800Z 21012KT 15SM FEW250 01/M01 A3021 RMK CI1 CI TR SLP239

CYHM;2007-01-03 09:00;CYHM 030900Z 21010KT 15SM FEW250 01/M01 A3020 RMK CI1 CI TR SLP234

CYHM;2007-01-03 10:00;CYHM 031000Z 22013KT 15SM FEW250 01/M01 A3018 RMK CI1 CI TR SLP230

CYHM;2007-01-03 11:00;CYHM 031100Z 22012KT 15SM SKC 01/M01 A3017 RMK SLP225

CYHM;2007-01-03 12:00;CYHM 031200Z 22012KT 15SM FEW180 FEW220 00/M01 A3016 RMK AC1CI1 SLP224

CYHM;2007-01-03 13:00;CYHM 031300Z 21012KT 15SM FEW025 FEW180 BKN220 01/M01 A3015 RMK CU1AC2CI2 CU TR SLP221

CYHM;2007-01-03 14:00;CYHM 031400Z 21014KT 15SM FEW025 FEW150 SCT240 02/M00 A3013 RMK CU1AC1CI1 CU TR SLP214

CYHM;2007-01-03 15:00;CYHM 031500Z 23016KT 15SM FEW016 BKN019 03/01 A3014 RMK CU2SC3 SLP216

CYHM;2007-01-03 16:00;CYHM 031600Z 24018G23KT 15SM FEW016 FEW024 BKN220 04/01 A3013 RMK CU1SC1CI2 CU TR SLP213

CYHM;2007-01-03 17:00;CYHM 031700Z 23018KT 15SM FEW020 BKN220 05/01 A3011 RMK SC1CI4 CU ASOCTD SLP205

CYHM;2007-01-03 18:00;CYHM 031800Z 22023KT 15SM FEW025 FEW085 BKN220 06/01 A3007 RMK CU1AC1CI2 CU TR CONTRAIL SLP192

CYHM;2007-01-03 19:00;CYHM 031900Z 22016G22KT 15SM FEW025 FEW180 BKN240 06/01 A3007 RMK CU1AC2CI2 CU TR SLP189

CYHM;2007-01-03 20:00;CYHM 032000Z 23016G25KT 15SM FEW180 SCT240 06/01 A3007 RMK AC1CC2 CONTRAILS SLP190

CYHM;2007-01-03 21:00;CYHM 032100Z 23018KT 15SM FEW180 BKN250 06/00 A3006 RMK AC2CI2 CONTRAILS SLP188

CYHM;2007-01-03 22:00;CYHM 032200Z 23017KT 15SM FEW180 BKN250 04/00 A3007 RMK AC2CI2 CONTRAILS SLP190

CYHM;2007-01-03 23:00;CYHM 032300Z 23014KT 15SM FEW190 BKN250 04/M00 A3008 RMK AC2CI1 SLP194

CYHM;2007-01-04 00:00;CYHM 040000Z 23014KT 15SM FEW180 FEW250 03/M01 A3009 RMK AC1CI1 CONTRAILS SLP198

CYHM;2007-01-04 01:00;CYHM 040100Z 23012KT 15SM FEW250 03/M01 A3009 RMK CI1 SLP198

CYHM;2007-01-04 02:00;CYHM 040200Z 20010KT 15SM FEW250 03/M01 A3008 RMK CI1 SLP195

CYHM;2007-01-04 03:00;CYHM 040300Z 21010KT 15SM FEW250 03/M00 A3007 RMK CI0 SLP190

CYHM;2007-01-04 04:00;CYHM 040400Z 21011KT 15SM FEW200 02/M00 A3006 RMK CI1 SLP186

CYHM;2007-01-04 05:00;CYHM 040500Z 22012KT 15SM FEW200 03/01 A3003 RMK CI1 SLP178

CYHM;2007-01-04 06:00;CYHM 040600Z 22015KT 15SM BKN200 05/02 A3002 RMK CI5 SLP173

CYHM;2007-01-04 07:00;CYHM 040700Z 21012KT 15SM BKN250 04/02 A3001 RMK CS6 HALO SLP170

CYHM;2007-01-04 08:00;CYHM 040800Z 21010KT 15SM BKN210 04/01 A3000 RMK CS6 HALO SLP166

CYHM;2007-01-04 09:00;CYHM 040900Z 21009KT 15SM OVC210 04/01 A2999 RMK CI7 CS ASOCTD SLP163

CYHM;2007-01-04 10:00;CYHM 041000Z 21010KT 15SM OVC170 04/02 A2998 RMK AS7 SLP160

CYHM;2007-01-04 11:00;CYHM 041100Z 20011KT 15SM FEW150 BKN200 04/02 A2997 RMK AC2CI2 SLP157

CYHM;2007-01-04 12:00;CYHM 041200Z 22014KT 15SM FEW120 SCT220 04/02 A2997 RMK AC2CI1 SLP156

CYHM;2007-01-04 13:00;CYHM 041300Z 21014KT 15SM FEW120 SCT220 04/02 A2997 RMK AC2CI1 SLP155

CYHM;2007-01-04 14:00;CYHM 041400Z 21014KT 15SM FEW100 FEW240 05/02 A2997 RMK AC1CI1 AC TR SLP156

CYHM;2007-01-04 15:00;CYHM 041500Z 22018G23KT 15SM FEW100 FEW240 07/03 A2998 RMK AC1CI1 AC TR CONTRAIL SLP159

CYHM;2007-01-04 16:00;CYHM 041600Z 22023G28KT 15SM FEW100 FEW240 08/03 A2996 RMK AC1CI1 AC TR SLP153

CYHM;2007-01-04 17:00;CYHM 041700Z 22022G27KT 15SM FEW240 09/03 A2993 RMK CI1 SLP144

CYHM;2007-01-04 18:00;CYHM 041800Z 22018G23KT 15SM FEW120 SCT240 09/03 A2991 RMK AC1CI2 AC TR CONTRAIL SLP134

CYHM;2007-01-04 19:00;CYHM 041900Z 22018G24KT 15SM FEW090 BKN220 09/03 A2989 RMK AC1CI3 SLP128

CYHM;2007-01-04 20:00;CYHM 042000Z 21020G25KT 15SM BKN060 BKN250 09/03 A2989 RMK SC5CI2 SLP128

CYHM;2007-01-04 21:00;CYHM 042100Z 21014KT 15SM BKN063 OVC250 08/02 A2989 RMK SC7CI1 SLP129

CYHM;2007-01-04 22:00;CYHM 042200Z 21015KT 15SM BKN052 BKN110 OVC250 08/03 A2988 RMK SC6AC2CI1 SLP124

CYHM;2007-01-04 23:00;CYHM 042300Z 21017G22KT 15SM BKN057 OVC110 09/02 A2987 RMK SC7AC1 SLP121

CYHM;2007-01-04 23:34;CYHM 042334Z 21017G23KT 15SM -SHRA BKN063 OVC090 RMK SC5AC3

CYHM;2007-01-05 00:00;CYHM 050000Z 22018KT 15SM -SHRA BKN063 OVC092 08/04 A2988 RMK SC5AC3 SLP124

CYHM;2007-01-05 01:00;CYHM 050100Z 20017KT 15SM -SHRA BKN061 OVC084 08/05 A2987 RMK SC6AC2 SLP120

CYHM;2007-01-05 02:00;CYHM 050200Z 21012KT 15SM -SHRA BKN044 OVC059 07/05 A2986 RMK SC6SC2 SLP117

CYHM;2007-01-05 03:00;CYHM 050300Z 21010KT 15SM -SHRA OVC055 08/06 A2984 RMK SC8 SLP109

CYHM;2007-01-05 04:00;CYHM 050400Z 21015G20KT 8SM -SHRA OVC075 08/06 A2981 RMK AC8 SLP099

CYHM;2007-01-05 05:00;CYHM 050500Z 22013KT 9SM -SHRA OVC055 08/06 A2979 RMK SC8 SLP093

CYHM;2007-01-05 06:00;CYHM 050600Z 21012KT 7SM -SHRA OVC052 08/07 A2974 RMK SC8 SLP075

CYHM;2007-01-05 07:00;CYHM 050700Z 20008KT 4SM -RA OVC028 08/07 A2971 RMK SC8 SLP064

CYHM;2007-01-05 07:32;CYHM 050732Z 23007KT 2SM -RA BR OVC007 RMK FG1SF7

CYHM;2007-01-05 08:00;CYHM 050800Z 21008KT 2SM -RA BR OVC006 07/07 A2970 RMK FG1SF7 SLP061

CYHM;2007-01-05 08:16;CYHM 050816Z 20007KT 3SM -RA BR OVC005 RMK SF8 VIS VRB 2 - 4

CYHM;2007-01-05 09:00;CYHM 050900Z 20012KT 1 1/2SM -RA BR OVC003 08/08 A2966 RMK FG2SF6 VIS VRB 1 - 2 SLP048

CYHM;2007-01-05 10:00;CYHM 051000Z 21013KT 1 1/2SM BR OVC003 09/09 A2965 RMK FG2SF6 VIS VRB 1 - 2 SLP046

CYHM;2007-01-05 10:27;CYHM 051027Z 22015G20KT 4SM BR OVC003 RMK SF8

CYHM;2007-01-05 11:00;CYHM 051100Z 23017G24KT 5SM BR OVC004 10/10 A2968 RMK SF8 SLP056

CYHM;2007-01-05 12:00;CYHM 051200Z 25018G24KT 15SM OVC010 11/10 A2969 RMK SC8 SLP058

CYHM;2007-01-05 13:00;CYHM 051300Z 24012KT 8SM SCT008 OVC013 10/10 A2970 RMK SC4SC4 SLP062

CYHM;2007-01-05 14:00;CYHM 051400Z 25012KT 7SM BKN007 OVC013 10/10 A2973 RMK SC6SC2 SLP070

CYHM;2007-01-05 15:00;CYHM 051500Z 25015KT 7SM BKN007 BKN014 OVC037 10/09 A2974 RMK SC6SC2SC1 SLP076

CYHM;2007-01-05 16:00;CYHM 051600Z 24015KT 7SM BKN010 OVC016 10/09 A2975 RMK SC6SC2 SLP077

CYHM;2007-01-05 17:00;CYHM 051700Z 25011KT 8SM BKN009 OVC014 11/09 A2973 RMK SC6SC2 SLP073

CYHM;2007-01-05 18:00;CYHM 051800Z 25011KT 10SM BKN010 OVC016 11/09 A2972 RMK SC6SC2 SLP068

CYHM;2007-01-05 18:23;CYHM 051823Z 25008KT 2SM -SHRA BR SCT008 OVC019 RMK SC4SC4

CYHM;2007-01-05 19:00;CYHM 051900Z 22007KT 2SM -SHRA BR BKN007 OVC026 10/10 A2971 RMK SC6SC2 SLP063

CYHM;2007-01-05 20:00;CYHM 052000Z 24006KT 4SM -DZ BR BKN003 OVC023 10/10 A2970 RMK SF6SC2 SLP062

CYHM;2007-01-05 20:49;CYHM 052049Z 18004KT 4SM BR SCT003 OVC016 RMK SF3SC5

CYHM;2007-01-05 21:00;CYHM 052100Z 17004KT 4SM BR FEW003 OVC017 10/10 A2970 RMK SF2SC6 SLP062

CYHM;2007-01-05 22:00;CYHM 052200Z 16003KT 6SM -SHRA OVC012 10/10 A2971 RMK SC8 SLP063

CYHM;2007-01-05 23:00;CYHM 052300Z 17005KT 8SM -SHRA FEW010 OVC015 10/10 A2970 RMK SC2SC6 SLP062

CYHM;2007-01-06 00:00;CYHM 060000Z 15006KT 3SM -SHRA BR BKN007 OVC011 10/10 A2970 RMK SC5SC3 SLP060

CYHM;2007-01-06 01:00;CYHM 060100Z 11002KT 1 1/2SM -SHRA BR BKN002 OVC010 10/10 A2969 RMK FG1SF5SC2 SLP058

CYHM;2007-01-06 02:00;CYHM 060200Z 17005KT 1 3/4SM -RA BR BKN002 OVC007 09/09 A2967 RMK FG2SF4SC2 SLP050

CYHM;2007-01-06 03:00;CYHM 060300Z 08005KT 1 1/4SM -RA BR BKN002 OVC007 09/09 A2964 RMK FG2SF5SC2 SLP039

CYHM;2007-01-06 03:15;CYHM 060315Z 02004KT 1/2SM -RA FG OVC002 RMK FG4SF4

CYHM;2007-01-06 04:00;CYHM 060400Z 00000KT 1/4SM -RA FG OVC002 09/09 A2965 RMK FG5SF3 SLP042

CYHM;2007-01-06 05:00;CYHM 060500Z 00000KT 3/4SM RA BR VV003 09/09 A2960 RMK FG8 VIS VRB 1/2 -1 SLP027

CYHM;2007-01-06 06:00;CYHM 060600Z 16007KT 3/4SM RA BR VV002 10/10 A2957 RMK FG8 VIS VRB 1/2 -1 /R11/ SLP016

CYHM;2007-01-06 07:00;CYHM 060700Z 20004KT 1SM -RA BR OVC003 10/10 A2956 RMK FG2SF6 VIS VRB 3/4 - 11/4 SLP013

CYHM;2007-01-06 07:33;CYHM 060733Z 17005KT 3/4SM -RA BR OVC003 RMK FG3SF5 VIS VRB 1/2 - 1

CYHM;2007-01-06 08:00;CYHM 060800Z 20006KT 1/2SM FG OVC002 10/10 A2954 RMK FG4SF4 SLP007

CYHM;2007-01-06 08:37;CYHM 060837Z 23004KT 1/4SM -RA FG OVC002 RMK FG5SF3

CYHM;2007-01-06 09:00;CYHM 060900Z 23005KT 1/4SM -RA FG OVC002 10/10 A2955 RMK FG5SF3 SLP009

CYHM;2007-01-06 10:00;CYHM 061000Z 22007KT 1/2SM -RA FG OVC002 11/11 A2953 RMK FG4SF4 SLP004

CYHM;2007-01-06 11:00;CYHM 061100Z 22013KT 1/2SM -RA FG OVC002 11/11 A2953 RMK FG4SF4 SLP004

CYHM;2007-01-06 11:06;CYHM 061106Z 23011KT 1 1/4SM -RA BR OVC002 RMK FG2SF6

CYHM;2007-01-06 11:29;CYHM 061129Z 23013KT 5SM -RA BR OVC004 RMK SF8

CYHM;2007-01-06 12:00;CYHM 061200Z 23014KT 10SM -RA SCT004 OVC007 11/11 A2953 RMK SF3SC5 PCPN VRY LGT SLP002

CYHM;2007-01-06 13:00;CYHM 061300Z 24018G29KT 15SM -RA BKN009 OVC021 10/10 A2955 RMK CF6SC2 CIG RAG SLP010

CYHM;2007-01-06 13:22;CYHM 061322Z CCA 25018G24KT 15SM -RA FEW010 BKN021 OVC034 RMK CF2SC5SC1

CYHM;2007-01-06 14:00;CYHM 061400Z 24011KT 15SM -RA BKN010 OVC019 08/08 A2960 RMK CF5SC3 SLP025

CYHM;2007-01-06 14:30;CYHM 061430Z 23015KT 15SM BKN009 OVC019 RMK SC6SC2

CYHM;2007-01-06 15:00;CYHM 061500Z 23016KT 15SM BKN010 OVC019 09/08 A2962 RMK SC7SC1 SLP034

CYHM;2007-01-06 15:24;CYHM 061524Z 24020KT 15SM -DZ OVC009 RMK SC8

CYHM;2007-01-06 16:00;CYHM 061600Z CCA 25017G23KT 7SM -DZ BKN008 OVC014 08/08 A2962 RMK SC6SC2 SLP035

CYHM;2007-01-06 16:29;CYHM 061629Z 24017G22KT 8SM -RADZ BKN008 OVC014 RMK SC6SC2

CYHM;2007-01-06 17:00;CYHM 061700Z 28016KT 15SM -RA SCT011 OVC017 07/06 A2965 RMK SC3SC5 PCPN VRY LGT SLP044

CYHM;2007-01-06 17:44;CYHM 061744Z 29014G24KT 15SM BKN017 BKN062 RMK SC5SC2

CYHM;2007-01-06 18:00;CYHM 061800Z 28017KT 15SM BKN017 BKN062 06/04 A2969 RMK SC6SC2 SLP059

CYHM;2007-01-06 19:00;CYHM 061900Z 28012G20KT 240V320 15SM BKN017 BKN068 06/03 A2974 RMK SC5AC2 SLP074

CYHM;2007-01-06 20:00;CYHM 062000Z 28013KT 15SM BKN020 OVC074 06/03 A2979 RMK SC7AC1 SLP091

CYHM;2007-01-06 21:00;CYHM 062100Z 27010KT 15SM BKN019 OVC059 05/02 A2984 RMK SC7SC1 SLP110

CYHM;2007-01-06 21:50;CYHM 062150Z 27012KT 15SM -SHRA BKN013 OVC054 RMK SC6SC2

CYHM;2007-01-06 22:00;CYHM 062200Z 29010KT 230V330 15SM -SHRA BKN013 OVC054 05/03 A2988 RMK SC6SC2 SLP122

CYHM;2007-01-06 22:33;CYHM 062233Z 27013G19KT 240V320 15SM FEW013 BKN026 BKN045 RMK CF2SC3SC2

CYHM;2007-01-06 23:00;CYHM 062300Z CCA 26009KT 15SM FEW013 FEW027 BKN041 04/02 A2992 RMK CF1SC1SC6 CF TR SLP137

CYHM;2007-01-07 00:00;CYHM 070000Z 28013KT 15SM BKN043 04/01 A2996 RMK SC6 SLP152

CYHM;2007-01-07 01:00;CYHM 070100Z 27010KT 15SM BKN046 04/00 A3000 RMK SC6 SLP165

CYHM;2007-01-07 02:00;CYHM 070200Z 27011G18KT 15SM FEW046 03/M01 A3003 RMK SC2 SLP174

CYHM;2007-01-07 03:00;CYHM 070300Z 25012KT 15SM BKN042 03/M01 A3006 RMK SC6 SLP184

CYHM;2007-01-07 04:00;CYHM 070400Z 25012KT 15SM FEW042 03/M01 A3009 RMK SC2 SLP196

CYHM;2007-01-07 05:00;CYHM 070500Z 25006KT 15SM FEW027 OVC033 03/M01 A3012 RMK CF2SC6 SLP205

CYHM;2007-01-07 06:00;CYHM 070600Z 26008KT 15SM FEW030 BKN040 03/M02 A3015 RMK CF2SC6 SLP217

CYHM;2007-01-07 07:00;CYHM 070700Z 26005KT 15SM BKN035 03/M02 A3018 RMK SC7 SLP226

CYHM;2007-01-07 08:00;CYHM 070800Z 27007KT 15SM BKN034 03/M03 A3020 RMK SC7 SLP233

CYHM;2007-01-07 09:00;CYHM 070900Z 27005KT 15SM BKN031 02/M03 A3023 RMK SC5 SLP244

CYHM;2007-01-07 10:00;CYHM 071000Z 00000KT 15SM FEW032 SCT260 01/M04 A3024 RMK SC2CI1 SLP249

CYHM;2007-01-07 11:00;CYHM 071100Z 00000KT 15SM BKN032 01/M04 A3026 RMK SC7 SLP255

CYHM;2007-01-07 12:00;CYHM 071200Z 18002KT 15SM BKN031 01/M03 A3027 RMK SC7 SLP259

CYHM;2007-01-07 13:00;CYHM 071300Z 11002KT 15SM FEW029 BKN220 M01/M03 A3026 RMK SC1CI2 SLP255

CYHM;2007-01-07 14:00;CYHM 071400Z 17003KT 15SM FEW030 BKN250 00/M02 A3027 RMK SC1CI2 SLP261

CYHM;2007-01-07 15:00;CYHM 071500Z 14002KT 15SM FEW030 BKN250 02/M02 A3026 RMK SC1CI2 SLP254

CYHM;2007-01-07 16:00;CYHM 071600Z 14005KT 15SM FEW030 BKN250 03/M03 A3023 RMK SC1CI6 SC TR SLP247

CYHM;2007-01-07 17:00;CYHM 071700Z 16005KT 15SM FEW035 BKN170 OVC250 03/M02 A3020 RMK SC1AC6CI2 SC TR SLP235

CYHM;2007-01-07 18:00;CYHM 071800Z 18005KT 15SM FEW035 OVC100 03/M01 A3018 RMK SC1AC8 SC TR SLP228

CYHM;2007-01-07 19:00;CYHM 071900Z 18008KT 15SM FEW020 OVC080 04/M00 A3014 RMK SC1AC7 VIRGA SLP215

CYHM;2007-01-07 20:00;CYHM 072000Z 14007KT 15SM FEW020 OVC065 03/M00 A3010 RMK SC1SC7 SLP201

CYHM;2007-01-07 21:00;CYHM 072100Z 10007KT 15SM OVC086 03/M00 A3005 RMK AC8 VIRGA SLP186

CYHM;2007-01-07 22:00;CYHM 072200Z 09008KT 15SM OVC075 03/M00 A3005 RMK AC8 VIRGA SLP185

CYHM;2007-01-07 23:00;CYHM 072300Z 06014KT 15SM OVC069 03/00 A2997 RMK AC8 PRESFR VIRGA SLP158

CYHM;2007-01-08 00:00;CYHM 080000Z 05010KT 15SM FEW020 FEW069 OVC081 03/00 A2996 RMK CF1AC2AC6 CF TR SLP153

CYHM;2007-01-08 00:39;CYHM 080039Z 05014KT 15SM -RA BKN041 OVC069 RMK SC5AC3

CYHM;2007-01-08 01:00;CYHM 080100Z 05015KT 15SM -RA BKN041 BKN069 OVC096 03/01 A2990 RMK SC5AC2AC2 PRESFR SLP133

CYHM;2007-01-08 02:00;CYHM 080200Z 08012KT 15SM -RA SCT011 BKN022 OVC042 03/02 A2984 RMK CF3SC2SC2 SLP113

CYHM;2007-01-08 03:00;CYHM 080300Z 09012KT 7SM -RA FEW004 SCT024 OVC030 02/01 A2977 RMK CF2SC2SC4 SLP090

CYHM;2007-01-08 04:00;CYHM 080400Z CCA 07012KT 5SM -SHRASN BKN007 OVC022 02/01 A2968 RMK CF6SC2 PRESFR SLP061

CYHM;2007-01-08 05:00;CYHM 080500Z 07010KT 2SM -SHSN OVC003 02/02 A2965 RMK SN1SF7 SLP048

CYHM;2007-01-08 06:00;CYHM 080600Z 07009KT 1 1/2SM -SN OVC004 02/02 A2958 RMK SN2SF6 VIS VRB 1 -2 PRESFR SLP024

CYHM;2007-01-08 07:00;CYHM 080700Z 07008KT 1 1/2SM -RASN BKN002 OVC012 02/02 A2954 RMK SN2SF5SC2 VIS VRB 1 -2 SLP011

CYHM;2007-01-08 07:36;CYHM 080736Z 05004KT 3/4SM -SN BR OVC002 RMK FG3SF5 VIS VRB 1/2 - 1

CYHM;2007-01-08 08:00;CYHM 080800Z 07005KT 1SM BR OVC002 02/02 A2952 RMK FG2SF6 VIS VRB 3/4 - 11/4 SLP006

CYHM;2007-01-08 08:37;CYHM 080837Z 00000KT 1/4SM FG VV002 RMK FG8

CYHM;2007-01-08 09:00;CYHM 080900Z 00000KT 1/4SM FG VV002 02/02 A2951 RMK FG8 SLP999

CYHM;2007-01-08 09:49;CYHM 080949Z 23007KT 1/4SM -RA FG VV002 RMK FG8

CYHM;2007-01-08 10:00;CYHM 081000Z 23007KT 1 1/2SM -RA BR OVC002 02/02 A2948 RMK FG2SF6 VIS VRB 1 - 2 SLP991

CYHM;2007-01-08 10:33;CYHM 081033Z 23010KT 5SM -RA BR OVC004 RMK SF8

CYHM;2007-01-08 11:00;CYHM 081100Z 24015G20KT 5SM -RA BR FEW006 OVC010 03/02 A2950 RMK SF2SC6 CIG RAG SLP996

CYHM;2007-01-08 12:00;CYHM 081200Z 25018G25KT 10SM -RA SCT008 BKN015 OVC019 03/02 A2950 RMK SC3SC3SC2 SLP998

CYHM;2007-01-08 13:00;CYHM 081300Z 25019KT 10SM -RA BKN011 OVC018 02/01 A2953 RMK SC6SC2 SLP007

CYHM;2007-01-08 13:55;CYHM 081355Z 26019KT 6SM -SHRASN OVC011 RMK SC8

CYHM;2007-01-08 14:00;CYHM 081400Z 25018KT 5SM -SHRASN SCT008 OVC011 02/01 A2954 RMK SC4SC4 SLP011

CYHM;2007-01-08 14:20;CYHM 081420Z 25022KT 15SM FEW008 SCT012 OVC021 RMK CF2SC2SC4

CYHM;2007-01-08 15:00;CYHM 081500Z 25020KT 15SM BKN017 OVC023 03/01 A2955 RMK SC6SC2 SLP015

CYHM;2007-01-08 15:11;CYHM 081511Z 26020KT 8SM -SHRA SCT017 BKN022 RMK SC4SC3

CYHM;2007-01-08 15:34;CYHM 081534Z 25020G26KT 15SM BKN019 BKN028 RMK SC6SC2

CYHM;2007-01-08 16:00;CYHM 081600Z 26020G25KT 15SM FEW016 BKN024 OVC042 03/M01 A2956 RMK SC2SC5SC1 SLP018

CYHM;2007-01-08 17:00;CYHM 081700Z 27017KT 15SM FEW018 BKN028 02/M01 A2956 RMK CU2SC3 SLP017

CYHM;2007-01-08 17:47;CYHM 081747Z 27022KT 15SM -SHSN FEW024 BKN034 BKN045 RMK CU2SC4SC2

CYHM;2007-01-08 17:54;CYHM 081754Z 27016G26KT 15SM FEW024 BKN039 BKN095 RMK CU2SC4AC1

CYHM;2007-01-08 18:00;CYHM 081800Z 27020G28KT 15SM FEW024 BKN039 BKN095 02/M02 A2956 RMK CU2SC4AC1 SLP018

CYHM;2007-01-08 18:23;CYHM 081823Z 27024G30KT 2SM -SHSN BKN017 OVC025 RMK SC6SC2 CU ASOCTD

CYHM;2007-01-08 18:26;CYHM 081826Z 28030G42KT 1SM -SHSN BKN009 OVC013 RMK SN2SC4SC2

CYHM;2007-01-08 18:40;CYHM 081840Z 27018G26KT 10SM FEW025 SCT045 BKN085 RMK CU2SC2AC1

CYHM;2007-01-08 19:00;CYHM 081900Z 26018G25KT 15SM FEW022 FEW045 SCT085 03/00 A2957 RMK CU1SC2AC1 SLP021

CYHM;2007-01-08 20:00;CYHM 082000Z 25018G34KT 15SM FEW036 BKN062 BKN110 02/M03 A2960 RMK SC2SC3AC1 CF ASOCTD SLP030

CYHM;2007-01-08 20:11;CYHM 082011Z 26022G34KT 10SM -SHSN FEW028 BKN044 BKN062 RMK SF1SC5SC2

CYHM;2007-01-08 21:00;CYHM 082100Z 25018G28KT 12SM -SHSN FEW028 BKN063 BKN070 01/M03 A2965 RMK SC2SC4AC2 SLP048

CYHM;2007-01-08 21:36;CYHM 082136Z 24018G26KT 15SM FEW026 BKN058 RMK SC2SC6 CF ASOCTD

CYHM;2007-01-08 22:00;CYHM 082200Z 24024G38KT 15SM FEW034 FEW044 BKN058 00/M05 A2968 RMK CF1SC2SC5 SLP058

CYHM;2007-01-08 23:00;CYHM 082300Z 25020G28KT 15SM FEW028 BKN060 00/M05 A2969 RMK SC1SC6 CF ASOCTD SLP063

CYHM;2007-01-09 00:00;CYHM 090000Z 26018G28KT 15SM FEW032 FEW044 BKN062 M00/M05 A2972 RMK CF1SC2SC5 SLP072

CYHM;2007-01-09 01:00;CYHM 090100Z 24016G24KT 15SM FEW032 BKN056 M01/M05 A2973 RMK SC1SC6 SLP077

CYHM;2007-01-09 02:00;CYHM 090200Z 24016G24KT 15SM FEW036 BKN054 M01/M06 A2974 RMK SC2SC3 SLP079

CYHM;2007-01-09 03:00;CYHM 090300Z 25016G25KT 15SM FEW042 SCT060 M01/M06 A2974 RMK SC1SC3 SLP079

CYHM;2007-01-09 04:00;CYHM 090400Z 24016KT 15SM FEW056 M01/M06 A2973 RMK SC2 SLP076

CYHM;2007-01-09 05:00;CYHM 090500Z 24015KT 15SM FEW058 M01/M05 A2972 RMK SC2 SLP072

CYHM;2007-01-09 06:00;CYHM 090600Z 22012KT 15SM FEW250 M01/M05 A2970 RMK CI1 CI TR SLP066

CYHM;2007-01-09 07:00;CYHM 090700Z 24015KT 15SM -SHSN BKN050 BKN084 M01/M03 A2969 RMK SC5AC2 SLP064

CYHM;2007-01-09 08:00;CYHM 090800Z 24016KT 6SM -SHSN SCT010 BKN022 BKN032 OVC060 M01/M02 A2969 RMK SF3SC2SC2SC1 SLP063

CYHM;2007-01-09 09:00;CYHM 090900Z 24010KT 12SM -SHSN FEW012 SCT022 SCT052 BKN086 M02/M03 A2968 RMK SF2SC2SC1AC3 SLP059

CYHM;2007-01-09 10:00;CYHM 091000Z 25010KT 15SM -SHSN BKN012 BKN076 M02/M03 A2967 RMK SC5AC2 SLP057

CYHM;2007-01-09 11:00;CYHM 091100Z 24008KT 15SM -SHSN FEW018 SCT080 M03/M04 A2967 RMK SC1AC2 SLP056

CYHM;2007-01-09 11:22;CYHM 091122Z 25007KT 15SM FEW042 FEW070 FEW220 RMK SC1AC1CI1 SC TR

CYHM;2007-01-09 11:53;CYHM 091153Z 26008KT 10SM -SHSN FEW014 BKN019 BKN038 RMK SC2SC3SC2

CYHM;2007-01-09 12:00;CYHM 091200Z 26008KT 15SM -SHSN FEW015 BKN039 BKN045 M02/M03 A2968 RMK SC2SC4SC1 SLP062

CYHM;2007-01-09 12:45;CYHM 091245Z 26008KT 15SM FEW015 FEW038 FEW220 RMK CF1SC1CI1 CF TR

CYHM;2007-01-09 13:00;CYHM 091300Z 25008KT 15SM FEW035 SCT220 M03/M04 A2969 RMK SC1CI1 CONTRAIL SLP064

CYHM;2007-01-09 14:00;CYHM 091400Z 27012KT 15SM FEW039 SCT220 M02/M03 A2970 RMK SC1CI2 SC TR CONTRAIL SLP068

CYHM;2007-01-09 15:00;CYHM 091500Z 27014G20KT 15SM FEW020 FEW042 BKN220 M01/M05 A2972 RMK CU1SC2CI2 CU TR SLP073

CYHM;2007-01-09 16:00;CYHM 091600Z 27012KT 15SM FEW020 FEW150 BKN210 M01/M06 A2972 RMK CU1AC1CI2 SLP075

CYHM;2007-01-09 17:00;CYHM 091700Z 27014G20KT 15SM -SHSN FEW025 BKN043 BKN220 M00/M05 A2972 RMK CU2SC3CI2 SLP073

CYHM;2007-01-09 18:00;CYHM 091800Z 27017G23KT 15SM -SHSN FEW028 SCT043 BKN180 BKN220 M00/M06 A2972 RMK CU1SC2AC2CI2 SLP073

CYHM;2007-01-09 19:00;CYHM 091900Z 29018KT 15SM -SHSN FEW028 BKN033 BKN180 M00/M06 A2973 RMK CU2SC3AC2 SLP076

CYHM;2007-01-09 20:00;CYHM 092000Z 28014G20KT 15SM FEW026 SCT034 SCT180 BKN250 M01/M07 A2976 RMK CF1SC2AC1CS2 AC TR CU ASOCTD SLP087

CYHM;2007-01-09 21:00;CYHM 092100Z 29012G22KT 15SM BKN026 BKN044 M01/M06 A2979 RMK SC6SC2 SLP097

CYHM;2007-01-09 22:00;CYHM 092200Z CCA 25012G22KT 15SM -SHSN FEW026 SCT045 BKN160 BKN250 M02/M07 A2982 RMK SC2SC1AC1CS1 CONTRAILS SLP108

CYHM;2007-01-09 23:00;CYHM 092300Z 28012G20KT 15SM SCT026 BKN150 BKN250 M02/M07 A2985 RMK SC3AC1CS1 SLP118

CYHM;2007-01-09 23:50;CYHM 092350Z 27012G20KT 10SM -SHSN BKN026 BKN042 RMK SC5SC2

CYHM;2007-01-10 00:00;CYHM 100000Z 27012G20KT 10SM -SHSN BKN026 BKN042 M02/M06 A2987 RMK SC5SC2 SLP126

CYHM;2007-01-10 01:00;CYHM 100100Z 24010KT 15SM -SHSN FEW026 SCT040 BKN062 M03/M06 A2988 RMK SC1SC2SC2 SLP131

CYHM;2007-01-10 02:00;CYHM 100200Z 24010KT 15SM FEW032 BKN074 M03/M06 A2990 RMK SC2AC6 SLP136

CYHM;2007-01-10 03:00;CYHM 100300Z 26012KT 8SM -SHSN FEW018 SCT028 OVC082 M03/M05 A2992 RMK CF1SC3AC4 SLP143

CYHM;2007-01-10 04:00;CYHM 100400Z 28012G22KT 8SM -SHSN FEW016 BKN030 OVC042 M04/M07 A2994 RMK SF2SC5SC2 SLP150

CYHM;2007-01-10 05:00;CYHM 100500Z 29015KT 15SM -SHSN BKN056 M05/M10 A2996 RMK SC7 SLP156

CYHM;2007-01-10 06:00;CYHM 100600Z 30012KT 15SM FEW064 M06/M10 A2997 RMK SC1 SLP160

CYHM;2007-01-10 07:00;CYHM 100700Z 29010KT 15SM FEW056 M06/M11 A2999 RMK SC2 SLP168

CYHM;2007-01-10 08:00;CYHM 100800Z 27008KT 15SM FEW056 M06/M11 A3001 RMK SC1 SC TR SLP174

CYHM;2007-01-10 09:00;CYHM 100900Z 26008KT 15SM SKC M06/M10 A3003 RMK SLP182

CYHM;2007-01-10 10:00;CYHM 101000Z 26012KT 15SM FEW072 FEW220 M06/M10 A3005 RMK AC1CI1 AC TR CI TR SLP189

CYHM;2007-01-10 11:00;CYHM 101100Z 25009KT 15SM FEW072 FEW220 M07/M10 A3008 RMK AC1CI1 AC TR CI TR SLP197

CYHM;2007-01-10 12:00;CYHM 101200Z 25010KT 15SM FEW075 FEW220 M07/M10 A3012 RMK AC1CI1 SLP212

CYHM;2007-01-10 13:00;CYHM 101300Z 27010KT 15SM FEW025 BKN059 BKN220 M06/M09 A3014 RMK CU1SC5CI1 SLP220

CYHM;2007-01-10 13:48;CYHM 101348Z 27010KT 2SM -SHSN BKN022 BKN043 RMK SC5SC2

CYHM;2007-01-10 14:00;CYHM 101400Z 28008KT 1 1/2SM -SHSN BKN019 OVC024 M06/M08 A3018 RMK SC6SC2 SLP234

CYHM;2007-01-10 14:11;CYHM 101411Z 27009KT 1SM -SHSN OVC018 RMK SN2SC6

CYHM;2007-01-10 14:25;CYHM 101425Z 29008KT 1SM -SHSN BKN008 OVC017 RMK SN2SF4SC2

CYHM;2007-01-10 14:45;CYHM 101445Z 30006KT 2 1/2SM -SHSN SCT008 BKN017 OVC023 RMK SF3SC4SC1

CYHM;2007-01-10 15:00;CYHM 101500Z 29007KT 3/4SM -SHSN BKN009 OVC025 M06/M07 A3022 RMK SN2SC5SC2 SLP246

CYHM;2007-01-10 15:06;CYHM 101506Z 30006KT 1 1/2SM -SHSN BKN008 OVC023 RMK SN1SC6SC2

CYHM;2007-01-10 15:24;CYHM 101524Z 30006KT 2SM -SHSN BKN016 OVC026 RMK SC5SC3

CYHM;2007-01-10 15:41;CYHM 101541Z 30007KT 3SM -SHSN BKN013 OVC022 RMK SC6SC2

CYHM;2007-01-10 16:00;CYHM 101600Z 34006KT 3SM -SHSN BKN017 OVC026 M06/M08 A3024 RMK SC6SC2 SLP254

CYHM;2007-01-10 16:12;CYHM 101612Z 34004KT 1 1/2SM -SHSN BKN017 OVC022 RMK SN1SC6SC2

CYHM;2007-01-10 16:26;CYHM 101626Z 35006KT 1/2SM SN BKN006 OVC021 RMK SN2SF4SC2

CYHM;2007-01-10 16:50;CYHM 101650Z 35006KT 3/4SM -SN BKN008 OVC016 RMK SN2SC5SC2

CYHM;2007-01-10 17:00;CYHM 101700Z 35005KT 1 1/2SM -SN BKN009 OVC020 M06/M08 A3024 RMK SN1SC5SC2 SLP255

CYHM;2007-01-10 17:32;CYHM 101732Z 31004KT 1SM -SN BR BKN012 OVC024 RMK SN1SC6SC2

CYHM;2007-01-10 17:48;CYHM 101748Z 27004KT 2SM -SN BR BKN011 OVC025 RMK SC6SC2

CYHM;2007-01-10 18:00;CYHM 101800Z 26004KT 3SM -SN BR SCT013 OVC025 M06/M08 A3025 RMK SC4SC4 SLP257

CYHM;2007-01-10 18:32;CYHM 101832Z 25006KT 2SM -SN BR BKN009 BKN026 OVC048 RMK SC5SC2SC1

CYHM;2007-01-10 18:51;CYHM 101851Z 24005KT 1SM -SN BKN007 OVC019 RMK SN1SC6SC2

CYHM;2007-01-10 19:00;CYHM 101900Z 24007KT 2SM -SN BR SCT012 BKN016 OVC022 M05/M07 A3025 RMK SC3SC3SC2 SLP259

CYHM;2007-01-10 19:27;CYHM 101927Z 25010KT 5SM -SHSN FEW018 BKN024 BKN048 RMK CF1SC5SC2 CU ASOCTD

CYHM;2007-01-10 20:00;CYHM 102000Z 26012KT 10SM -SHSN BKN024 BKN048 M04/M08 A3028 RMK SC5SC2 CU ASOCTD SLP267

CYHM;2007-01-10 21:00;CYHM 102100Z 26012KT 15SM FEW024 BKN030 M04/M09 A3030 RMK SF1SC6 SLP276

CYHM;2007-01-10 22:00;CYHM 102200Z 25006KT 15SM FEW026 FEW250 M06/M11 A3033 RMK SC1CI1 CI TR SLP284

CYHM;2007-01-10 23:00;CYHM 102300Z 24006KT 15SM FEW026 FEW250 M07/M11 A3035 RMK SC1CI1 SC TR CI TR SLP291

CYHM;2007-01-11 00:00;CYHM 110000Z 24005KT 15SM FEW250 M08/M12 A3037 RMK CI1 CI TR SLP299

CYHM;2007-01-11 01:00;CYHM 110100Z 23003KT 15SM FEW250 M10/M12 A3038 RMK CI1 CI TR SLP304

CYHM;2007-01-11 02:00;CYHM 110200Z 20002KT 15SM SKC M10/M12 A3038 RMK SLP302

CYHM;2007-01-11 03:00;CYHM 110300Z 00000KT 15SM FEW250 M10/M12 A3037 RMK CI1 CI TR SLP301

CYHM;2007-01-11 04:00;CYHM 110400Z 16005KT 15SM FEW200 M10/M12 A3037 RMK CI1 SLP299

CYHM;2007-01-11 05:00;CYHM 110500Z 13002KT 15SM FEW200 M11/M12 A3036 RMK CI1 SLP295

CYHM;2007-01-11 06:00;CYHM 110600Z 16005KT 15SM FEW200 M09/M12 A3036 RMK CI1 SLP295

CYHM;2007-01-11 07:00;CYHM 110700Z 15005KT 15SM SCT030 BKN077 M08/M11 A3035 RMK SC3AC4 SLP294

CYHM;2007-01-11 08:00;CYHM 110800Z 16005KT 15SM FEW028 BKN082 OVC120 M06/M10 A3037 RMK SC2AC6AC1 SLP299

CYHM;2007-01-11 09:00;CYHM 110900Z 15006KT 15SM OVC090 M06/M08 A3036 RMK AC7 SLP293

CYHM;2007-01-11 10:00;CYHM 111000Z 15007KT 15SM OVC090 M04/M07 A3033 RMK AS7 SLP285

CYHM;2007-01-11 11:00;CYHM 111100Z 19011KT 15SM OVC072 M02/M04 A3033 RMK AC8 SLP284

CYHM;2007-01-11 12:00;CYHM 111200Z 18012KT 15SM SCT075 OVC100 M01/M05 A3031 RMK AC3AC5 SLP277

CYHM;2007-01-11 13:00;CYHM 111300Z 18013KT 15SM SCT095 BKN150 BKN240 M01/M06 A3028 RMK AC4AC1CI1 CONTRAIL SLP268

CYHM;2007-01-11 14:00;CYHM 111400Z 19012KT 15SM FEW096 FEW150 BKN240 M01/M06 A3027 RMK AC2AC1CI2 CONTRAIL SLP264

CYHM;2007-01-11 15:00;CYHM 111500Z 19014KT 15SM FEW100 SCT220 01/M05 A3025 RMK AC1CI2 CONTRAIL SLP258

CYHM;2007-01-11 16:00;CYHM 111600Z 20025G30KT 15SM FEW120 BKN240 02/M07 A3024 RMK AC1CI2 AC TR CONTRAIL SLP254

CYHM;2007-01-11 17:00;CYHM 111700Z 20024KT 15SM BKN240 03/M06 A3021 RMK CI4 CONTRAIL SLP244

CYHM;2007-01-11 18:00;CYHM 111800Z 20026G32KT 15SM BKN240 03/M07 A3015 RMK CI3 SLP223

CYHM;2007-01-11 19:00;CYHM 111900Z 20020G25KT 15SM FEW180 BKN220 04/M05 A3012 RMK AC2CI4 SLP211

CYHM;2007-01-11 20:00;CYHM 112000Z 20017G25KT 15SM BKN074 BKN220 04/M06 A3010 RMK AC7CI1 CI TR SLP206

CYHM;2007-01-11 21:00;CYHM 112100Z 21019KT 15SM FEW048 OVC066 04/M05 A3009 RMK SC2AC6 SLP200

CYHM;2007-01-11 22:00;CYHM 112200Z 21020KT 15SM BKN043 OVC059 04/M05 A3009 RMK SC5SC3 SLP199

CYHM;2007-01-11 23:00;CYHM 112300Z 22018G26KT 15SM FEW040 SCT065 OVC078 05/M05 A3009 RMK SC2SC2AC4 SLP200

CYHM;2007-01-12 00:00;CYHM 120000Z 21022KT 15SM OVC078 05/M04 A3010 RMK AC8 SLP200

CYHM;2007-01-12 01:00;CYHM 120100Z 21019G25KT 15SM BKN080 OVC095 05/M04 A3008 RMK AC6AC2 SLP196

CYHM;2007-01-12 02:00;CYHM 120200Z 21018G28KT 15SM OVC086 05/M05 A3009 RMK AC8 SLP197

CYHM;2007-01-12 03:00;CYHM 120300Z 21018KT 15SM OVC084 05/M05 A3007 RMK AC8 SLP192

CYHM;2007-01-12 04:00;CYHM 120400Z 21018G24KT 15SM BKN100 OVC200 05/M05 A3006 RMK AC6CI2 SLP186

CYHM;2007-01-12 05:00;CYHM 120500Z 23017G22KT 15SM BKN042 OVC100 05/M04 A3007 RMK SC6AC2 SLP189

CYHM;2007-01-12 05:39;CYHM 120539Z 23024G34KT 12SM -SHRA OVC035 RMK SC8

CYHM;2007-01-12 06:00;CYHM 120600Z 22018G31KT 6SM -SHRA OVC027 03/01 A3008 RMK SC8 SLP194

CYHM;2007-01-12 06:22;CYHM 120622Z 22017G22KT 5SM -SHRASN OVC020 RMK SC8

CYHM;2007-01-12 06:46;CYHM 120646Z 22015KT 5SM -SHSN OVC009 RMK SC8

CYHM;2007-01-12 07:00;CYHM 120700Z 21014KT 5SM -SHSN OVC009 01/01 A3007 RMK SC8 SLP192

CYHM;2007-01-12 08:00;CYHM 120800Z 21015KT 5SM -SHSN OVC012 02/02 A3007 RMK SC8 SLP192

CYHM;2007-01-12 08:48;CYHM 120848Z 21015KT 5SM -RA OVC007 RMK SF8

CYHM;2007-01-12 09:00;CYHM 120900Z 21014KT 4SM -RA OVC008 03/03 A3007 RMK SF8 CIG RAG SLP191

CYHM;2007-01-12 10:00;CYHM 121000Z 22016G21KT 4SM -RA OVC009 04/03 A3008 RMK SC8 CIG RAG SLP194

CYHM;2007-01-12 11:00;CYHM 121100Z 21014G19KT 5SM -RA BKN007 OVC011 04/03 A3008 RMK SF6SC2 SLP195

CYHM;2007-01-12 11:45;CYHM 121145Z 23015KT 10SM BKN011 OVC019 RMK SC6SC2

CYHM;2007-01-12 12:00;CYHM 121200Z 22014KT 15SM BKN010 OVC018 04/03 A3010 RMK SC5SC3 SLP200

CYHM;2007-01-12 13:00;CYHM 121300Z 22010G15KT 8SM SCT014 OVC021 05/03 A3010 RMK SC4SC4 SLP202

CYHM;2007-01-12 14:00;CYHM 121400Z 21010KT 7SM FEW015 OVC021 04/03 A3012 RMK SC2SC6 SLP207

CYHM;2007-01-12 15:00;CYHM 121500Z 21013KT 10SM OVC020 05/04 A3013 RMK SC8 SLP212

CYHM;2007-01-12 16:00;CYHM 121600Z 23016KT 15SM OVC019 05/04 A3014 RMK SC8 SLP213

CYHM;2007-01-12 17:00;CYHM 121700Z 23017KT 15SM BKN016 OVC024 07/04 A3011 RMK SC5SC3 SLP205

CYHM;2007-01-12 18:00;CYHM 121800Z 24014KT 10SM OVC020 07/05 A3011 RMK SC8 SLP203

CYHM;2007-01-12 19:00;CYHM 121900Z 23012KT 10SM OVC018 07/05 A3009 RMK SC8 SLP196

CYHM;2007-01-12 20:00;CYHM 122000Z 23013KT 15SM OVC019 07/05 A3008 RMK SC8 SLP195

CYHM;2007-01-12 21:00;CYHM 122100Z 23014KT 9SM OVC014 08/06 A3010 RMK SC8 SLP198

CYHM;2007-01-12 22:00;CYHM 122200Z 23012KT 8SM OVC011 08/06 A3010 RMK SC8 SLP199

CYHM;2007-01-12 23:00;CYHM 122300Z 23008KT 7SM -SHRA OVC010 08/07 A3011 RMK SC8 SLP203

CYHM;2007-01-12 23:31;CYHM 122331Z 22008KT 6SM -SHRA BR OVC009 RMK SC8

CYHM;2007-01-13 00:00;CYHM 130000Z 23007KT 3SM -SHRA BR OVC009 07/07 A3010 RMK SC8 SLP199

CYHM;2007-01-13 00:28;CYHM 130028Z 22007KT 2SM -SHRA BR BKN002 OVC009 RMK FG1SF6SC2

CYHM;2007-01-13 01:00;CYHM 130100Z 23008KT 1 1/4SM -SHRA BR OVC002 07/07 A3010 RMK FG2SF6 SLP198

CYHM;2007-01-13 01:46;CYHM 130146Z 23009KT 1 1/2SM -SHRA BR OVC002 RMK FG2SF6

CYHM;2007-01-13 02:00;CYHM 130200Z 22010KT 1 1/2SM -SHRA BR OVC002 08/08 A3007 RMK FG2SF6 SLP191

CYHM;2007-01-13 03:00;CYHM 130300Z 23012KT 3SM -SHRA BR BKN003 OVC008 08/08 A3007 RMK SF6SC2 SLP188

CYHM;2007-01-13 03:46;CYHM 130346Z 23012KT 5SM -SHRA BR OVC006 RMK SF8

CYHM;2007-01-13 04:00;CYHM 130400Z 23012KT 6SM -SHRA BR OVC006 09/08 A3006 RMK SF8 SLP185

CYHM;2007-01-13 05:00;CYHM 130500Z 24008KT 5SM -DZ BR OVC005 08/08 A3006 RMK SF8 SLP185

CYHM;2007-01-13 05:12;CYHM 130512Z 24010KT 5SM -RA BR OVC004 RMK SF8

CYHM;2007-01-13 05:42;CYHM 130542Z 28010KT 1 1/2SM -RA BR OVC003 RMK FG2SF6 VIS VRB 1 - 2

CYHM;2007-01-13 05:52;CYHM 130552Z 32010KT 5SM -RA BR OVC005 RMK SF8

CYHM;2007-01-13 06:00;CYHM 130600Z 33009KT 6SM BR OVC009 07/06 A3007 RMK SC8 SLP190

CYHM;2007-01-13 07:00;CYHM 130700Z 33009KT 6SM BR OVC006 05/05 A3011 RMK SF8 CIG RAG SLP201

CYHM;2007-01-13 07:46;CYHM 130746Z 34011KT 2SM -RA BR OVC009 RMK FG1SC7

CYHM;2007-01-13 08:00;CYHM 130800Z 34011KT 4SM -RA BR SCT006 OVC024 04/03 A3013 RMK SF3SC5 SLP209

CYHM;2007-01-13 09:00;CYHM 130900Z 36012KT 4SM -SN BR FEW010 OVC042 02/01 A3015 RMK CF2SC6 SLP217

CYHM;2007-01-13 10:00;CYHM 131000Z 01008KT 6SM -SN BR FEW008 OVC043 01/01 A3017 RMK CF2SC6 SLP225

CYHM;2007-01-13 10:38;CYHM 131038Z 01008KT 4SM -SN BR FEW006 OVC015 RMK CF2SC6

CYHM;2007-01-13 10:50;CYHM 131050Z 04008KT 2SM -SN SCT003 OVC011 RMK SN1CF3SC4

CYHM;2007-01-13 11:00;CYHM 131100Z 03007KT 1 1/2SM -SN SCT005 OVC013 M00/M01 A3022 RMK SN2CF2SC5 VIS VRB 1 - 2 SLP240

CYHM;2007-01-13 11:42;CYHM 131142Z 04010KT 1 1/2SM -SN SCT004 OVC008 RMK SN2CF2SC4

CYHM;2007-01-13 12:00;CYHM 131200Z 05011KT 2SM -SN FEW004 BKN008 OVC044 M02/M02 A3023 RMK SN1SF2SC3SC2 SLP246

CYHM;2007-01-13 12:07;CYHM 131207Z 04012KT 5SM -SN FEW004 SCT010 OVC044 RMK SF1SC3SC4

CYHM;2007-01-13 12:52;CYHM 131252Z 04009KT 12SM -SN BKN009 OVC046 RMK SC6SC2 PCPN VRY LGT

CYHM;2007-01-13 13:00;CYHM 131300Z 05010KT 12SM -SN BKN008 BKN015 OVC046 M01/M03 A3027 RMK SC6SC1SC2 PCPN VRY LGT SLP259

CYHM;2007-01-13 13:18;CYHM 131318Z 04010KT 15SM SCT011 OVC049 RMK SC3SC5

CYHM;2007-01-13 14:00;CYHM 131400Z 05008KT 15SM FEW016 SCT052 OVC087 M02/M04 A3029 RMK SC1SC2AC5 SLP266

CYHM;2007-01-13 15:00;CYHM 131500Z 02008KT 15SM FEW018 FEW052 BKN077 OVC250 M02/M04 A3032 RMK SC1SC1AC6CI1 SLP276

CYHM;2007-01-13 16:00;CYHM 131600Z 01007KT 15SM FEW020 BKN081 M02/M05 A3033 RMK SC1AC7 SLP278

CYHM;2007-01-13 17:00;CYHM 131700Z 02008KT 350V060 15SM FEW020 BKN081 M02/M06 A3030 RMK SC1AC7 SLP270

CYHM;2007-01-13 18:00;CYHM 131800Z 02006KT 15SM SCT074 BKN250 M02/M06 A3028 RMK AC3CI2 SLP263

CYHM;2007-01-13 19:00;CYHM 131900Z 03008KT 010V080 15SM SCT071 BKN250 M02/M07 A3027 RMK AC4CI2 SLP261

CYHM;2007-01-13 20:00;CYHM 132000Z 05010KT 15SM FEW025 BKN068 M02/M06 A3028 RMK SC1AC7 SLP264

CYHM;2007-01-13 21:00;CYHM 132100Z 06010KT 15SM FEW025 BKN064 BKN250 M02/M06 A3028 RMK SC1SC6CI1 CI TR SLP265

CYHM;2007-01-13 22:00;CYHM 132200Z 07008KT 15SM FEW030 BKN066 M02/M06 A3029 RMK SC2AC6 SLP268

CYHM;2007-01-13 23:00;CYHM 132300Z 05010KT 15SM BKN013 OVC061 M02/M05 A3030 RMK SC5SC3 SLP271

CYHM;2007-01-14 00:00;CYHM 140000Z 06009KT 15SM OVC012 M02/M04 A3029 RMK SC8 SLP267

CYHM;2007-01-14 01:00;CYHM 140100Z 06010KT 15SM OVC010 M01/M03 A3028 RMK SC8 SLP265

CYHM;2007-01-14 01:10;CYHM 140110Z 09010KT 15SM OVC009 RMK SC8

CYHM;2007-01-14 02:00;CYHM 140200Z 09008KT 15SM OVC007 M02/M03 A3029 RMK SC8 SLP267

CYHM;2007-01-14 03:00;CYHM 140300Z 08008KT 15SM OVC007 M02/M03 A3028 RMK SC8 SLP265

CYHM;2007-01-14 04:00;CYHM 140400Z 08006KT 10SM OVC008 M02/M03 A3026 RMK SF8 SLP260

CYHM;2007-01-14 05:00;CYHM 140500Z 06008KT 12SM OVC007 M02/M03 A3024 RMK SF8 SLP253

CYHM;2007-01-14 06:00;CYHM 140600Z 06007KT 8SM OVC008 M02/M03 A3022 RMK SF8 SLP245

CYHM;2007-01-14 07:00;CYHM 140700Z 02005KT 8SM BKN008 OVC035 M02/M04 A3023 RMK SF6SC2 SLP247

CYHM;2007-01-14 08:00;CYHM 140800Z 03003KT 10SM SCT008 OVC031 M02/M03 A3023 RMK SF3SC5 SLP250

CYHM;2007-01-14 09:00;CYHM 140900Z 02004KT 8SM BKN012 OVC030 M01/M03 A3023 RMK SC6SC2 SLP248

CYHM;2007-01-14 10:00;CYHM 141000Z 35003KT 8SM BKN010 OVC028 M02/M03 A3023 RMK SC6SC2 SLP250

CYHM;2007-01-14 11:00;CYHM 141100Z 04003KT 8SM BKN010 OVC027 M01/M04 A3023 RMK SC7SC1 SLP249

CYHM;2007-01-14 11:33;CYHM 141133Z 02003KT 9SM -SHSN OVC008 RMK SC8

CYHM;2007-01-14 12:00;CYHM 141200Z 02005KT 8SM -SHSN OVC008 M01/M03 A3023 RMK SC8 SLP247

CYHM;2007-01-14 13:00;CYHM 141300Z 02005KT 7SM -SHSN OVC007 M01/M03 A3026 RMK SC8 SLP258

CYHM;2007-01-14 13:49;CYHM 141349Z 04006KT 3SM -SN -FZRA BR OVC005 RMK SC8

CYHM;2007-01-14 14:00;CYHM 141400Z 04007KT 2 1/2SM -SN -FZRA BR OVC005 M01/M02 A3025 RMK SC8 SLP256

CYHM;2007-01-14 14:17;CYHM 141417Z 04008KT 2 1/2SM -SN -FZRA BR OVC003 RMK SC8

CYHM;2007-01-14 15:00;CYHM 141500Z 04007KT 2 1/2SM -SN -FZRA BR OVC003 M02/M02 A3026 RMK SC8 PCPN VRY LGT SLP257

CYHM;2007-01-14 15:43;CYHM 141543Z 02006KT 2SM -PLSN BR OVC002 RMK FG1SC7

CYHM;2007-01-14 16:00;CYHM 141600Z 02005KT 2SM -PLSN BR OVC002 M01/M02 A3027 RMK FG1SC7 SLP263

CYHM;2007-01-14 16:43;CYHM 141643Z 03009KT 1 1/2SM -SNPL BR BKN003 OVC007 RMK SN2SC5SC2

CYHM;2007-01-14 17:00;CYHM 141700Z 02008KT 1 1/4SM -SNPL BR BKN003 OVC007 M01/M02 A3026 RMK SN2SC4SC2 SLP259

CYHM;2007-01-14 17:13;CYHM 141713Z 02010KT 1 1/2SM -SNPL BR SCT003 OVC007 RMK SN2SC2SC4

CYHM;2007-01-14 18:00;CYHM 141800Z 03009KT 1 1/2SM -SN BR BKN005 OVC010 M02/M02 A3023 RMK SN2SC5SC2 SLP250

CYHM;2007-01-14 19:00;CYHM 141900Z 06010KT 2SM -SN BR OVC005 M01/M02 A3021 RMK SN1SC7 SLP243

CYHM;2007-01-14 19:10;CYHM 141910Z 06012KT 2 1/2SM -SN BR OVC004 RMK SC8

CYHM;2007-01-14 19:30;CYHM 141930Z 05010KT 2 1/2SM -SN BR OVC002 RMK SC8

CYHM;2007-01-14 19:42;CYHM 141942Z 04010KT 1 1/2SM -SN BR OVC002 RMK SC8

CYHM;2007-01-14 20:00;CYHM 142000Z 05012KT 2 1/2SM -SN BR OVC003 M01/M01 A3020 RMK SC8 SLP240

CYHM;2007-01-14 20:18;CYHM 142018Z 05011KT 2 1/2SM -SN BR OVC002 RMK SC8

CYHM;2007-01-14 20:30;CYHM 142030Z 06014KT 4SM -SN BR OVC003 RMK SC8 PCPN VRY LGT

CYHM;2007-01-14 21:00;CYHM 142100Z 03009KT 4SM BR OVC005 M01/M02 A3024 RMK SC8 SLP251

CYHM;2007-01-14 21:22;CYHM 142122Z 03008KT 4SM BR SCT003 OVC008 RMK SF3SC5 CIG RAG

CYHM;2007-01-14 22:00;CYHM 142200Z 03009KT 3SM BR OVC006 M01/M02 A3024 RMK SC8 SLP252

CYHM;2007-01-14 23:00;CYHM 142300Z 05012KT 3SM BR BKN008 OVC013 M01/M02 A3023 RMK SF6SC2 CIG RAG SLP249

CYHM;2007-01-15 00:00;CYHM 150000Z 05012KT 4SM BR BKN009 OVC014 M01/M02 A3024 RMK SF6SC2 SLP252

CYHM;2007-01-15 01:00;CYHM 150100Z 04012KT 10SM OVC007 M01/M02 A3025 RMK SF8 SLP256

CYHM;2007-01-15 02:00;CYHM 150200Z 02009KT 10SM OVC010 M01/M03 A3026 RMK SC8 SLP258

CYHM;2007-01-15 03:00;CYHM 150300Z 05012KT 15SM OVC010 M01/M02 A3023 RMK SC8 SLP250

CYHM;2007-01-15 04:00;CYHM 150400Z 06011KT 7SM OVC007 M01/M03 A3020 RMK SF8 SLP239

CYHM;2007-01-15 05:00;CYHM 150500Z 07013KT 8SM OVC009 M01/M02 A3017 RMK SC8 SLP229

CYHM;2007-01-15 06:00;CYHM 150600Z 07011KT 7SM OVC007 M01/M02 A3013 RMK SF8 SLP214

CYHM;2007-01-15 07:00;CYHM 150700Z 08016KT 8SM -FZRA OVC005 M01/M02 A3009 RMK SF8 SLP202

CYHM;2007-01-15 08:00;CYHM 150800Z 07013KT 6SM -FZRA BKN006 OVC011 M01/M01 A3005 RMK SF6SC2 SLP187

CYHM;2007-01-15 09:00;CYHM 150900Z CCA 07016KT 6SM -FZRA SCT008 OVC011 M01/M02 A2997 RMK SF3SC5 PRESFR SLP158

CYHM;2007-01-15 10:00;CYHM 151000Z 07015KT 5SM -FZRA OVC008 M01/M02 A2992 RMK SF8 CIG RAG SLP142

CYHM;2007-01-15 11:00;CYHM 151100Z 06012KT 5SM -FZRA OVC006 M01/M02 A2988 RMK SF8 CIG RAG SLP129

CYHM;2007-01-15 12:00;CYHM 151200Z 07010KT 7SM -FZRA FEW006 BKN012 OVC019 M01/M01 A2983 RMK SF2SC4SC2 SLP112

CYHM;2007-01-15 12:44;CYHM 151244Z 07012KT 3SM -FZRA BKN005 OVC012 RMK SF6SC2

CYHM;2007-01-15 13:00;CYHM 151300Z 07009KT 4SM -FZRA BKN006 OVC014 M00/M00 A2980 RMK SF6SC2 SLP101

CYHM;2007-01-15 15:00;CYHM 151500Z 06014KT 2 1/2SM -PL BR BKN003 OVC010 M01/M02 A2978 RMK SF6SC2 SLP096

CYHM;2007-01-15 16:00;CYHM 151600Z 05015KT 4SM -PL BKN004 OVC015 M03/M04 A2982 RMK SC6SC2 SLP110

CYHM;2007-01-15 17:00;CYHM 151700Z CCA 09012KT 7SM BKN006 OVC016 M03/M06 A2984 RMK SC6SC2 SENT VIA YQG SLP114

CYHM;2007-01-15 18:00;CYHM 151800Z CCA 05010KT 5SM -PL OVC006 M03/M06 A2980 RMK SC8 SENT VIA YQG SLP110

CYHM;2007-01-15 18:33;CYHM 151833Z 05010KT 5SM -SN BKN007 OVC014 RMK SF5SC3

CYHM;2007-01-15 19:00;CYHM 151900Z 09008KT 4SM -SN -FZRA BKN007 OVC015 M04/M05 A2979 RMK SF6SC2 SLP098

CYHM;2007-01-15 20:00;CYHM 152000Z 04006KT 3SM -FZRA BR OVC006 M04/M04 A2978 RMK ST8 SLP095

CYHM;2007-01-15 20:24;CYHM 152024Z 08008KT 2 1/2SM -FZRA BR BKN004 OVC008 RMK ST6ST2

CYHM;2007-01-15 21:00;CYHM 152100Z 33006KT 2SM -FZRA BR BKN004 OVC010 M04/M04 A2981 RMK ST6ST2 WND SPD ESTD TO ICE ACCRECTION SLP104

CYHM;2007-01-15 21:22;CYHM 152122Z CCA 33006KT 2SM -FZDZ BR OVC004 RMK ST8 WND SPD ESTD DUE TO ICE ACCRETION

CYHM;2007-01-15 22:00;CYHM 152200Z 33006KT 2SM -FZDZ BR OVC004 M04/M04 A2981 RMK ST8 WND SPD ESTD DUE TO ICE ACCRETION SLP105

CYHM;2007-01-15 23:00;CYHM 152300Z 31006KT 2 1/4SM -FZDZ BR BKN004 OVC008 M04/M04 A2984 RMK ST6ST2 WND SPD ESTD DUE TO ICE ACCRETION SLP115

CYHM;2007-01-15 23:50;CYHM 152350Z CCA 08006KT 2 1/2SM -SN SCT009 BKN034 OVC044 RMK SF3SC2SC3 WND SPD ESTD DUE TO ICE ACCRETION

CYHM;2007-01-16 00:00;CYHM 160000Z 02006KT 4SM -SN BKN009 BKN034 OVC044 M04/M05 A2985 RMK SF5SC2SC2 WND SPD ESTD DUE TO ICE ACCRETION SLP118

CYHM;2007-01-16 01:00;CYHM 160100Z 04008KT 6SM -SN SCT008 BKN024 OVC038 M04/M06 A2985 RMK SF3SC3SC2 WND SPD ESTD DUE TO ICE ACCRETION SLP120

CYHM;2007-01-16 02:00;CYHM 160200Z 02004KT 15SM -SN SCT012 OVC024 M04/M06 A2989 RMK SF3SC5 WND SPD ESTD DUE TO ICE ACCRETION SLP133

CYHM;2007-01-16 03:00;CYHM 160300Z 34008KT 15SM -SN FEW016 BKN034 OVC040 M05/M07 A2990 RMK SF2SC4SC2 WND SPD ESTD DUE TO ICE ACCRETION SLP137

CYHM;2007-01-16 04:00;CYHM 160400Z 33006KT 12SM -SN FEW018 BKN028 OVC042 M05/M07 A2992 RMK SF2SC4SC2 WND SPD ESTD DUE TO ICE ACCRETION SLP144

CYHM;2007-01-16 05:00;CYHM 160500Z 28008KT 15SM -SN FEW022 BKN044 OVC064 M05/M07 A2994 RMK SC2SC4SC2 WND SPD ESTD DUE TO ICE ACCRETION SLP151

CYHM;2007-01-16 06:00;CYHM 160600Z 31006KT 15SM -SN FEW018 SCT024 OVC078 M05/M07 A2996 RMK SC1SC3AC4 WND SPD ESTD SLP159

CYHM;2007-01-16 07:00;CYHM 160700Z 30008KT 15SM -SN SCT012 BKN018 BKN082 OVC110 M05/M06 A2999 RMK SC4SC2AC1AC1 WND SPD ESTD SLP167

CYHM;2007-01-16 08:00;CYHM 160800Z 27006KT 15SM FEW012 FEW110 M07/M09 A3003 RMK SC1AC1 WND SPD ESTD SLP180

CYHM;2007-01-16 09:00;CYHM 160900Z 27006KT 15SM FEW110 M08/M10 A3004 RMK AC1 WND SPD ESTD SLP188

CYHM;2007-01-16 10:00;CYHM 161000Z 28006KT 15SM FEW024 FEW110 M09/M11 A3008 RMK CF1AC1 WND SPD ESTD CF TR AC TR SLP199

CYHM;2007-01-16 11:00;CYHM 161100Z 25004KT 15SM FEW022 FEW110 M10/M11 A3010 RMK CF1AC1 WND SPD ESTD CF TR AC TR SLP207

CYHM;2007-01-16 12:00;CYHM 161200Z 27004KT 15SM FEW022 SCT088 BKN210 M10/M12 A3014 RMK CF1AC3CI1 WND SPD ESTD CF TR SLP221

CYHM;2007-01-16 13:00;CYHM 161300Z 32002KT 15SM FEW022 SCT059 BKN083 BKN210 M09/M11 A3016 RMK CU1SC3AC2CI1 WND SPD ESTD CU TR SLP227

CYHM;2007-01-16 14:00;CYHM 161400Z 32005KT 15SM FEW022 BKN045 BKN054 M09/M12 A3019 RMK CU1SC5SC2 WND SPD ESTD CU TR SLP236

CYHM;2007-01-16 15:00;CYHM 161500Z 32006KT 15SM FEW022 SCT056 BKN078 BKN210 M08/M11 A3022 RMK CU1SC2AC2CI1 SLP248

CYHM;2007-01-16 15:48;CYHM 161548Z 32005KT 15SM -SHSN FEW025 SCT045 BKN097 BKN110 RMK CU2SC2AC2AC1

CYHM;2007-01-16 16:00;CYHM 161600Z 23005KT 15SM -SHSN FEW020 SCT045 BKN095 BKN140 M08/M10 A3023 RMK CU2SC2AC2AC1 WND SPD ESTD SLP253

CYHM;2007-01-16 17:00;CYHM 161700Z 32006KT 15SM FEW020 SCT052 BKN140 M07/M10 A3024 RMK CU1SC2AC1 WND SPD ESTD SLP255

CYHM;2007-01-16 18:00;CYHM 161800Z 32012KT 15SM FEW020 FEW032 BKN084 BKN210 M07/M10 A3024 RMK CU2SC1AC2CI1 WND SPD ESTD SLP255

CYHM;2007-01-16 18:13;CYHM 161813Z 32010KT 10SM -SHSN FEW019 BKN029 BKN078 RMK CU2SC3AC2

CYHM;2007-01-16 19:00;CYHM 161900Z 32010KT 15SM FEW020 FEW028 BKN140 M08/M11 A3026 RMK CU2SC1AC2 SLP260

CYHM;2007-01-16 20:00;CYHM 162000Z 29010KT 15SM FEW016 FEW024 FEW250 M08/M12 A3028 RMK CF1CU2CI1 WND SPD ESTD CF TR CI TR SLP269

CYHM;2007-01-16 21:00;CYHM 162100Z 30010KT 15SM FEW026 FEW250 M09/M13 A3033 RMK CU2CI1 WND SPD ESTD CI TR SLP285

CYHM;2007-01-16 22:00;CYHM 162200Z 28010KT 15SM FEW024 FEW080 M10/M14 A3036 RMK CU1AC1 WND SPD ESTD AC TR CF ASOCTD SLP295

CYHM;2007-01-16 23:00;CYHM 162300Z 29008KT 15SM FEW022 FEW080 M11/M15 A3040 RMK CU1AC1 WND SPD ESTD CU TR AC TR SLP311

CYHM;2007-01-17 00:00;CYHM 170000Z 26004KT 15SM FEW022 M12/M15 A3043 RMK SC1 WND SPD ESTD SC TR SLP323

CYHM;2007-01-17 01:00;CYHM 170100Z 23002KT 15SM FEW080 M12/M15 A3046 RMK AC1 WND SPD ESTD AC TR SLP334

CYHM;2007-01-17 02:00;CYHM 170200Z 22002KT 15SM FEW080 FEW250 M12/M14 A3047 RMK AC1CI1 WND SPD ESTD AC TR CI TR SLP336

CYHM;2007-01-17 03:00;CYHM 170300Z 22002KT 15SM FEW080 FEW250 M12/M14 A3049 RMK AC1CI1 WND SPD ESTD AC TR CI TR SLP344

CYHM;2007-01-17 03:17;CYHM 170317Z 22004KT 15SM -SHSN BKN060 RMK SC5 WND SPD ESTD

CYHM;2007-01-17 04:00;CYHM 170400Z 19006KT 12SM -SHSN SCT030 OVC060 M11/M13 A3050 RMK SC3SC5 WND SPD ESTD SLP346

CYHM;2007-01-17 05:00;CYHM 170500Z 19008KT 8SM -SHSN BKN022 OVC052 M10/M11 A3050 RMK SC5SC3 WND SPD ESTD SLP346

CYHM;2007-01-17 06:00;CYHM 170600Z 22006KT 6SM -SHSN SCT024 SCT038 OVC054 M09/M11 A3051 RMK SC3SC1SC4 WND SPD ESTD SLP348

CYHM;2007-01-17 07:00;CYHM 170700Z 21006KT 5SM -SN FEW012 BKN020 OVC047 M09/M10 A3052 RMK SF2SC2SC3 WND SPD ESTD SLP350

CYHM;2007-01-17 08:00;CYHM 170800Z 23006KT 15SM -SN SCT014 OVC042 M09/M11 A3053 RMK SC3SC5 WND SPD ESTD SLP355

CYHM;2007-01-17 09:00;CYHM 170900Z 22006KT 15SM -SN SCT012 OVC044 M09/M11 A3054 RMK SC3SC5 WND SPD ESTD SLP359

CYHM;2007-01-17 10:00;CYHM 171000Z 21006KT 12SM -SN FEW012 OVC038 M09/M10 A3055 RMK SC2SC6 WND SDP ESTD SLP362

CYHM;2007-01-17 11:00;CYHM 171100Z 21006KT 15SM -SN OVC038 M08/M10 A3055 RMK SC8 WND SPD ESTD SLP364

CYHM;2007-01-17 12:00;CYHM 171200Z 23005KT 15SM -SN OVC037 M08/M09 A3059 RMK SC8 WND SPD ESTD SLP375

CYHM;2007-01-17 13:00;CYHM 171300Z 23008KT 10SM -SN BKN035 M07/M10 A3060 RMK SC7 WND SPD ESTD SLP379

CYHM;2007-01-17 14:00;CYHM 171400Z CCA 23008KT 15SM FEW020 BKN037 M08/M10 A3062 RMK CU1SC7 CU TR WND SPD ESTD SLP385

CYHM;2007-01-17 15:00;CYHM 171500Z 23008KT 15SM FEW035 SCT100 M07/M10 A3064 RMK SC2AC2 WND SPD ESTD SLP392

CYHM;2007-01-17 15:29;CYHM 171529Z 27010KT 15SM -SHSN FEW035 SCT100 RMK SC2AC1 WND SPD ESTD

CYHM;2007-01-17 16:00;CYHM 171600Z 23008KT 15SM -SHSN FEW022 BKN032 BKN100 M06/M10 A3065 RMK CU2SC3AC1 WND SPD ESTD SLP396

CYHM;2007-01-17 17:00;CYHM 171700Z 23012KT 15SM -SHSN FEW022 BKN028 BKN062 M06/M09 A3063 RMK CU2SC2SC2 WND SPD ESTD SLP389

CYHM;2007-01-17 17:51;CYHM 171751Z 23010KT 15SM FEW019 BKN025 BKN029 RMK CU1SC5SC2

CYHM;2007-01-17 18:00;CYHM 171800Z 23010KT 15SM FEW019 BKN025 BKN029 M06/M09 A3062 RMK CU1SC4SC2 WND SPD ESTD SLP385

CYHM;2007-01-17 19:00;CYHM 171900Z 23010KT 15SM FEW020 BKN025 M06/M09 A3060 RMK CU1SC6 WND SPD ESTD SLP378

CYHM;2007-01-17 20:00;CYHM 172000Z 23008KT 15SM BKN020 M05/M09 A3059 RMK CU6 WND SPD ESTD SC ASOCTD SLP375

CYHM;2007-01-17 21:00;CYHM 172100Z 23010KT 15SM FEW020 BKN026 M05/M08 A3058 RMK CF1SC7 WND SPD ESTD CU ASOCTD CF TR SLP372

CYHM;2007-01-17 22:00;CYHM 172200Z 21008KT 15SM SCT024 M06/M08 A3057 RMK SC3 WND SPD ESTD SLP367

CYHM;2007-01-17 23:00;CYHM 172300Z 21006KT 15SM OVC030 M06/M08 A3056 RMK SC8 WND SPD ESTD SLP364

CYHM;2007-01-17 23:47;CYHM 172347Z 21006KT 15SM -SHSN OVC030 RMK SC8 WND SPD ESTD

CYHM;2007-01-18 00:00;CYHM 180000Z 21006KT 15SM -SHSN OVC030 M05/M07 A3055 RMK SC8 WND SPD ESTD SLP361

CYHM;2007-01-18 01:00;CYHM 180100Z 21006KT 15SM OVC027 M04/M06 A3055 RMK SC8 WND SPD ESTD SLP360

CYHM;2007-01-18 02:00;CYHM 180200Z 21006KT 15SM OVC026 M04/M06 A3054 RMK SC8 WND SPD ESTD SLP357

CYHM;2007-01-18 03:00;CYHM 180300Z 21008KT 15SM BKN027 M04/M07 A3050 RMK SC7 WND SPD ESTD SLP344

CYHM;2007-01-18 04:00;CYHM 180400Z 23006KT 15SM FEW027 FEW250 M06/M08 A3048 RMK SC1CI1 WND SPD ESTD SLP335

CYHM;2007-01-18 05:00;CYHM 180500Z 23006KT 15SM SCT250 M06/M08 A3047 RMK CI3 WND SPD ESTD SLP333

CYHM;2007-01-18 06:00;CYHM 180600Z 23008KT 15SM SCT250 M06/M08 A3044 RMK CI2 WND SPD ESTD SLP323

CYHM;2007-01-18 07:00;CYHM 180700Z 23008KT 15SM SCT250 M06/M08 A3042 RMK CI2 WND SPD ESTD SLP315

CYHM;2007-01-18 08:00;CYHM 180800Z 20006KT 15SM SCT250 M07/M09 A3040 RMK CI3 WND SPD ESTD SLP310

CYHM;2007-01-18 09:00;CYHM 180900Z 20006KT 15SM FEW250 M06/M08 A3036 RMK CI2 WND SPD ESTD SLP297

CYHM;2007-01-18 10:00;CYHM 181000Z 20006KT 15SM BKN240 M07/M09 A3034 RMK CI5 WND SPD ESTD FROIN SLP290

CYHM;2007-01-18 11:00;CYHM 181100Z 22008KT 15SM FEW180 SCT210 M08/M09 A3033 RMK AC1CI3 WND SPD ESTD FROIN SLP286

CYHM;2007-01-18 12:00;CYHM 181200Z 23008KT 15SM SCT180 BKN210 M08/M09 A3031 RMK AC3CI2 WND SPD ESTD SLP278

CYHM;2007-01-18 13:00;CYHM 181300Z 23006KT 15SM BKN160 BKN210 M06/M08 A3029 RMK AC5CI2 WND SPT ESTD SLP271

CYHM;2007-01-18 14:00;CYHM 181400Z 23008KT 15SM FEW100 BKN140 OVC210 M05/M06 A3026 RMK AC1AC5CI2 WND SPD ESTD SLP264

CYHM;2007-01-18 15:00;CYHM 181500Z 23010KT 15SM BKN083 M03/M05 A3024 RMK AC7 WND SPD ESTD SLP252

CYHM;2007-01-18 16:00;CYHM 181600Z 23012KT 15SM SCT085 BKN130 M01/M04 A3022 RMK AC4AC3 WND SPD ESTD SLP246

CYHM;2007-01-18 17:00;CYHM 181700Z 23012KT 15SM FEW025 BKN100 BKN220 M01/M04 A3018 RMK CU1AC6CI2 CU TR SLP234

CYHM;2007-01-18 18:00;CYHM 181800Z 23012KT 15SM FEW025 SCT085 BKN130 M01/M03 A3015 RMK CU1AC2AC4 SLP223

CYHM;2007-01-18 19:00;CYHM 181900Z 23014KT 15SM FEW020 BKN080 OVC100 M01/M03 A3011 RMK CU1AC6AC2 CU TR WND SPD ESTD SLP210

CYHM;2007-01-18 20:00;CYHM 182000Z 23012KT 15SM FEW017 FEW024 BKN067 M01/M03 A3009 RMK CU1SC2AC6 CU TR WND SPD ESTD SLP201

CYHM;2007-01-18 21:00;CYHM 182100Z 23008KT 15SM SCT056 OVC082 M01/M03 A3007 RMK SC3AC5 WND SPD ESTD SLP194

CYHM;2007-01-18 22:00;CYHM 182200Z 23012KT 15SM BKN058 BKN081 M01/M04 A3004 RMK SC6AC1 WND SPD ESTD SLP186

CYHM;2007-01-18 23:00;CYHM 182300Z 23010KT 15SM BKN051 OVC068 M01/M03 A3001 RMK SC6AC2 SLP176

CYHM;2007-01-19 00:00;CYHM 190000Z 23010KT 15SM OVC041 M01/M03 A3000 RMK SC8 WND SPD ESTD SLP170

CYHM;2007-01-19 01:00;CYHM 190100Z 23010KT 15SM OVC024 M00/M02 A2997 RMK SC8 WND SPD ESTD SLP160

CYHM;2007-01-19 02:00;CYHM 190200Z 23014KT 8SM -SHSN SCT009 OVC018 00/M01 A2994 RMK CF3SC5 WND SPD ESTD SLP153

CYHM;2007-01-19 03:00;CYHM 190300Z 23012KT 6SM -SHSN FEW005 OVC021 M00/M01 A2992 RMK CF1SC7 WND SPD ESTD SLP142

CYHM;2007-01-19 04:00;CYHM 190400Z 23012KT 9SM -SHSN FEW013 OVC018 M00/M01 A2988 RMK CF2SC6 WND SPD ESTD SLP131

CYHM;2007-01-19 05:00;CYHM 190500Z 23014KT 4SM -SNPL FEW017 OVC035 00/M01 A2984 RMK CF2SC6 WND SPD ESTD SLP118

CYHM;2007-01-19 06:00;CYHM 190600Z 23014KT 8SM -SN SCT012 BKN016 OVC048 M00/M01 A2981 RMK CF3SC4SC1 WND SPD ESTD SLP106

CYHM;2007-01-19 07:00;CYHM 190700Z 23018KT 8SM -SN SCT017 OVC050 M00/M02 A2979 RMK CF3SC5 WND SPD ESTD SLP099

CYHM;2007-01-19 07:36;CYHM 190736Z 23014KT 2 1/2SM -SN OVC020 RMK SC8 WND SPD ESTD

CYHM;2007-01-19 08:00;CYHM 190800Z 27020KT 3/4SM -SN VV015 M01/M02 A2981 RMK SN8 WND SPD ESTD VIS VRB 1/2 - 1 SLP103

CYHM;2007-01-19 08:36;CYHM 190836Z 27016KT 1 1/2SM -SN SCT008 OVC017 RMK SN2CF2SC4 WND SPD ESTD VIS VRB 1 - 2

CYHM;2007-01-19 08:42;CYHM 190842Z 27016KT 4SM -SN OVC020 RMK SC8 WND SPD ESTD

CYHM;2007-01-19 09:00;CYHM 190900Z 27014KT 1 1/2SM -SN BKN010 OVC020 M02/M02 A2980 RMK SN2CF5SC2 WND SPD ESTD /S01/ SLP102

CYHM;2007-01-19 09:06;CYHM 190906Z 23014KT 3SM -SN SCT010 OVC020 RMK CF3SC5 WND SPD ESTD VIS VRB 2- 4

CYHM;2007-01-19 09:30;CYHM 190930Z 27016KT 1 1/2SM -SN OVC008 RMK SN2CF6 WND SPD ESTD VIS VRB 1 - 2

CYHM;2007-01-19 09:43;CYHM 190943Z 23012KT 5SM -SN BKN019 RMK CF7 WND SPD ESTD

CYHM;2007-01-19 10:00;CYHM 191000Z 23014KT 5SM -SN BKN018 M02/M03 A2981 RMK CF7 WND SPD ESTD SLP104

CYHM;2007-01-19 10:23;CYHM 191023Z 27018KT 2SM -SN BKN013 OVC030 RMK SN1CF6SC1 WND SPD ESTD

CYHM;2007-01-19 10:27;CYHM 191027Z 27016KT 4SM -SN BKN013 OVC025 RMK CF6SC2 WND SPD ESTD

CYHM;2007-01-19 11:00;CYHM 191100Z 27010KT 7SM -SHSN BKN017 M02/M04 A2981 RMK CF6 WND SPD ESTD /S02/ SLP105

CYHM;2007-01-19 12:00;CYHM 191200Z 23012KT 15SM -SHSN FEW016 BKN021 BKN041 M02/M04 A2983 RMK CF2SC3SC2 WND SPD ESTD SLP111

CYHM;2007-01-19 13:00;CYHM 191300Z 23014KT 6SM -SHSN SCT012 BKN021 BKN098 M02/M04 A2984 RMK SF3SC3AC1 WND SPD ESTD SLP114

CYHM;2007-01-19 14:00;CYHM 191400Z 23014KT 6SM -SHSN SCT010 BKN020 BKN025 M02/M04 A2985 RMK SF3SC4SC1 WND SPD ESTD SLP119

CYHM;2007-01-19 14:14;CYHM 191414Z CCA 23012KT 2SM -SN BR SCT010 BKN018 OVC025 RMK SF3SC4SC1 WND SPD ESTD

CYHM;2007-01-19 14:34;CYHM 191434Z 23014KT 6SM -SN FEW015 BKN019 BKN042 RMK SC2SC4SC1 WND SPD ESTD

CYHM;2007-01-19 15:00;CYHM 191500Z 27014KT 4SM -SN BR SCT011 BKN017 BKN025 M02/M03 A2987 RMK SC3SC2SC2 WND SPD ESTD SLP125

CYHM;2007-01-19 16:00;CYHM 191600Z 27014KT 3SM -SN BKN018 BKN024 M02/M04 A2989 RMK SC6SC2 WND SPD ESTD SLP132

CYHM;2007-01-19 16:32;CYHM 191632Z 27014KT 2SM -SN BKN013 OVC021 RMK SC6SC2 WND SPD ESTD

CYHM;2007-01-19 17:00;CYHM 191700Z 27014KT 2 1/2SM -SN BR SCT010 BKN019 OVC024 M02/M04 A2987 RMK SF3SC3SC2 WND SPD ESTD /S01/ SLP124

CYHM;2007-01-19 18:00;CYHM 191800Z 27015KT 4SM -SN BR BKN015 OVC021 M02/M04 A2986 RMK SC6SC2 WND SPD ESTD SLP121

CYHM;2007-01-19 19:00;CYHM 191900Z 27015KT 2SM -SN SCT010 BKN019 OVC026 M03/M04 A2987 RMK SF3SC4SC1 WND SPD ESTD SLP126

CYHM;2007-01-19 19:30;CYHM 191930Z 27015KT 1SM -SN BKN011 OVC022 RMK SN2SF4SC2

CYHM;2007-01-19 19:38;CYHM 191938Z 27015KT 3/4SM -SN BKN008 OVC021 RMK SN2SF4SC2 WND SPD ESTD

CYHM;2007-01-19 19:46;CYHM 191946Z 27012KT 1 1/2SM -SN BKN008 OVC020 RMK SN1SF5SC2

CYHM;2007-01-19 20:00;CYHM 192000Z 27012KT 3SM -SN SCT015 BKN026 OVC042 M03/M04 A2988 RMK SC3SC2SC2 SLP128

CYHM;2007-01-19 20:21;CYHM 192021Z 26008KT 7SM FEW015 BKN036 BKN047 RMK SC2SC3SC2

CYHM;2007-01-19 20:25;CYHM 192025Z 27011KT 4SM -SN FEW015 BKN036 BKN047 RMK SC2SC3SC2

CYHM;2007-01-19 21:00;CYHM 192100Z 26009KT 8SM FEW025 BKN035 BKN080 M03/M06 A2989 RMK SC2SC3AC2 SLP133

CYHM;2007-01-19 21:50;CYHM 192150Z CCA 26009KT 7SM -SN FEW030 BKN049 RMK CU1SC6

CYHM;2007-01-19 22:00;CYHM 192200Z 26008KT 2 1/2SM -SN BKN027 OVC049 M03/M07 A2990 RMK SN3SC2SC2 SLP135

CYHM;2007-01-19 22:05;CYHM 192205Z 27010KT 1/8SM +SN VV003 RMK SN8

CYHM;2007-01-19 22:09;CYHM 192209Z 26014KT 3/4SM -SN SCT029 BKN043 RESN RMK SN2SC2SC3

CYHM;2007-01-19 22:13;CYHM 192213Z CCA 26010KT 3SM -SN SCT030 BKN061 RESN RMK SC3SC4

CYHM;2007-01-19 23:00;CYHM 192300Z CCA 29009KT 3SM -SN SCT017 BKN025 BKN038 M04/M07 A2992 RESN RMK SC3SC2SC2 PCPN VRY LGT SLP144

CYHM;2007-01-19 23:31;CYHM 192331Z 27007KT 15SM -SN BKN050 RMK SC6 PCPN VRY LGT

CYHM;2007-01-20 00:00;CYHM 200000Z 27008KT 15SM -SN SCT050 BKN064 M04/M09 A2994 RMK SC3SC3 PCPN VRY LGT SLP150

CYHM;2007-01-20 00:10;CYHM 200010Z CCA 27006KT 15SM SCT045 BKN062 RMK SC3SC3

CYHM;2007-01-20 01:00;CYHM 200100Z 27011KT 15SM BKN057 M05/M10 A2996 RMK SC6 SLP158

CYHM;2007-01-20 02:00;CYHM 200200Z 27007KT 15SM BKN064 M05/M11 A2995 RMK SC6 SLP155

CYHM;2007-01-20 03:00;CYHM 200300Z 27006KT 15SM SCT040 BKN066 M06/M11 A2995 RMK SC3AC2 SLP156

CYHM;2007-01-20 04:00;CYHM 200400Z 26006KT 15SM FEW070 FEW200 M07/M10 A2995 RMK AC2CI0 SLP155

CYHM;2007-01-20 05:00;CYHM 200500Z 26008KT 15SM BKN079 M07/M10 A2995 RMK AC6 SLP156

CYHM;2007-01-20 06:00;CYHM 200600Z 26006KT 15SM OVC072 M07/M09 A2996 RMK AC8 SLP157

CYHM;2007-01-20 06:51;CYHM 200651Z 27007KT 4SM -SN OVC029 RMK SC8

CYHM;2007-01-20 07:00;CYHM 200700Z 28007KT 2SM -SN OVC020 M07/M09 A2997 RMK SN1SC7 SLP163

CYHM;2007-01-20 07:13;CYHM 200713Z 31005KT 3/4SM -SN VV005 RMK SN8 VIS VRB 1/2 - 1

CYHM;2007-01-20 07:43;CYHM 200743Z 31004KT 2SM -SN OVC042 RMK SN1SC7

CYHM;2007-01-20 08:00;CYHM 200800Z 29003KT 5SM -SN FEW020 OVC087 M08/M10 A3001 RMK SC2AC6 /S01/ SLP174

CYHM;2007-01-20 09:00;CYHM 200900Z 31003KT 12SM -SN BKN043 OVC090 M08/M09 A3002 RMK SC6AC2 SLP180

CYHM;2007-01-20 10:00;CYHM 201000Z 29006KT 12SM -SN SCT037 OVC098 M08/M11 A3005 RMK SC4AC4 SLP188

CYHM;2007-01-20 11:00;CYHM 201100Z 30007KT 15SM -SHSN FEW042 FEW100 M09/M13 A3008 RMK SC1AC2 SLP198

CYHM;2007-01-20 11:49;CYHM 201149Z 29006KT 15SM FEW100 RMK AC1

CYHM;2007-01-20 12:00;CYHM 201200Z 29006KT 260V330 15SM FEW100 M10/M14 A3011 RMK AC1 SLP212

CYHM;2007-01-20 13:00;CYHM 201300Z 29005KT 15SM FEW040 FEW100 M11/M14 A3014 RMK SC1AC1 SLP221

CYHM;2007-01-20 14:00;CYHM 201400Z 29004KT 15SM FEW040 M11/M14 A3017 RMK SC1 SLP229

CYHM;2007-01-20 15:00;CYHM 201500Z 29004KT 15SM FEW025 M09/M13 A3022 RMK CU2 SLP248

CYHM;2007-01-20 16:00;CYHM 201600Z 30008KT 15SM FEW025 M09/M13 A3023 RMK CU2 SLP254

CYHM;2007-01-20 17:00;CYHM 201700Z 31008KT 270V340 15SM FEW032 M09/M14 A3026 RMK CU1 SLP261

CYHM;2007-01-20 18:00;CYHM 201800Z 29006KT 15SM FEW032 M08/M13 A3027 RMK CU1 SLP266

CYHM;2007-01-20 19:00;CYHM 201900Z 30008KT 15SM FEW032 M08/M13 A3027 RMK CU1 SLP266

CYHM;2007-01-20 20:00;CYHM 202000Z 29008KT 15SM FEW029 M08/M13 A3029 RMK CU1 SLP273

CYHM;2007-01-20 21:00;CYHM 202100Z 30005KT 15SM FEW030 M08/M13 A3030 RMK SC1 SLP278

CYHM;2007-01-20 22:00;CYHM 202200Z 29005KT 15SM FEW030 M09/M14 A3033 RMK SC1 SLP287

CYHM;2007-01-20 23:00;CYHM 202300Z 31003KT 15SM FEW030 M10/M14 A3035 RMK SC1 SLP292

CYHM;2007-01-21 00:00;CYHM 210000Z 28002KT 15SM SKC M11/M14 A3036 RMK SLP298

CYHM;2007-01-21 01:00;CYHM 210100Z 00000KT 15SM SKC M13/M15 A3038 RMK SLP305

CYHM;2007-01-21 02:00;CYHM 210200Z 29002KT 15SM SKC M13/M15 A3038 RMK SLP305

CYHM;2007-01-21 03:00;CYHM 210300Z 24002KT 15SM SKC M15/M16 A3037 RMK SLP303

CYHM;2007-01-21 04:00;CYHM 210400Z 00000KT 15SM SKC M14/M15 A3037 RMK SLP303

CYHM;2007-01-21 05:00;CYHM 210500Z 28004KT 15SM FEW140 M14/M15 A3038 RMK AC2 SLP305

CYHM;2007-01-21 06:00;CYHM 210600Z 00000KT 15SM FEW140 FEW210 M14/M15 A3039 RMK AC2CI1 SLP308

CYHM;2007-01-21 07:00;CYHM 210700Z 00000KT 15SM FEW240 M14/M16 A3039 RMK CI2 SLP311

CYHM;2007-01-21 08:00;CYHM 210800Z 00000KT 15SM FEW230 M14/M15 A3037 RMK CI1 SLP303

CYHM;2007-01-21 09:00;CYHM 210900Z 00000KT 15SM BKN210 M14/M15 A3035 RMK CI5 FROIN SLP296

CYHM;2007-01-21 10:00;CYHM 211000Z 00000KT 15SM SCT210 M13/M14 A3035 RMK CI2 FROIN SLP297

CYHM;2007-01-21 11:00;CYHM 211100Z 00000KT 15SM FEW140 FEW210 M15/M16 A3035 RMK AC2CI1 SLP297

CYHM;2007-01-21 12:00;CYHM 211200Z 00000KT 15SM FEW140 FEW220 M15/M16 A3033 RMK AC1CI1 AC TR SLP292

CYHM;2007-01-21 13:00;CYHM 211300Z 00000KT 15SM FEW025 FEW140 BKN230 M14/M15 A3034 RMK SC1AC1CI3 SC AC TR SLP295

CYHM;2007-01-21 14:00;CYHM 211400Z 08004KT 15SM FEW025 FEW140 BKN210 M11/M13 A3033 RMK SC1AC1CI6 SLP290

CYHM;2007-01-21 15:00;CYHM 211500Z 10006KT 15SM FEW025 OVC170 M09/M11 A3033 RMK SC1AS7 SLP289

CYHM;2007-01-21 16:00;CYHM 211600Z 10006KT 15SM FEW025 OVC120 M08/M10 A3030 RMK SC1AC8 SLP279

CYHM;2007-01-21 17:00;CYHM 211700Z 09008KT 15SM FEW025 OVC120 M07/M10 A3022 RMK SC1AC8 PRESFR SLP254

CYHM;2007-01-21 18:00;CYHM 211800Z 10008KT 15SM FEW025 BKN150 M06/M10 A3020 RMK SC1AC7 SLP243

CYHM;2007-01-21 19:00;CYHM 211900Z 10008KT 15SM FEW025 OVC099 M06/M11 A3014 RMK SC1AC8 SLP225

CYHM;2007-01-21 20:00;CYHM 212000Z 07006KT 15SM OVC094 M06/M11 A3016 RMK AC8 VIRGA SLP231

CYHM;2007-01-21 21:00;CYHM 212100Z 05007KT 15SM BKN065 OVC094 M06/M11 A3013 RMK SC6AC2 VIRGA SLP222

CYHM;2007-01-21 22:00;CYHM 212200Z 07007KT 15SM SCT060 OVC075 M06/M11 A3010 RMK SC3AC5 VIRGA SLP211

CYHM;2007-01-21 22:45;CYHM 212245Z 07007KT 6SM -SHSN BKN028 OVC063 RMK SC5SC3

CYHM;2007-01-21 23:00;CYHM 212300Z 08007KT 2SM -SHSN BKN028 OVC063 M07/M10 A3009 RMK SN2SC5SC2 SLP207

CYHM;2007-01-21 23:13;CYHM 212313Z 08006KT 9SM -SHSN FEW028 OVC057 RMK SC2SC6

CYHM;2007-01-21 23:49;CYHM 212349Z 08008KT 1 1/4SM -SHSN OVC028 RMK SN5SC3

CYHM;2007-01-22 00:00;CYHM 220000Z 08008KT 1 1/2SM -SHSN OVC028 M07/M09 A3007 RMK SN5SC3 SLP200

CYHM;2007-01-22 00:17;CYHM 220017Z 06006KT 3SM -SHSN BKN032 OVC050 RMK SC6SC2

CYHM;2007-01-22 01:00;CYHM 220100Z 06008KT 6SM -SHSN FEW032 OVC045 M07/M09 A3004 RMK SC2SC6 SLP189

CYHM;2007-01-22 02:00;CYHM 220200Z 09008KT 15SM -SHSN FEW024 OVC031 M07/M09 A3001 RMK SC1SC7 SLP181

CYHM;2007-01-22 03:00;CYHM 220300Z 08005KT 12SM -SHSN OVC016 M07/M09 A2997 RMK SC8 SLP165

CYHM;2007-01-22 04:00;CYHM 220400Z 08005KT 12SM -SHSN OVC021 M07/M08 A2995 RMK SC8 SLP157

CYHM;2007-01-22 05:00;CYHM 220500Z 03005KT 10SM -SHSN OVC022 M07/M08 A2994 RMK SC8 SLP154

CYHM;2007-01-22 06:00;CYHM 220600Z 03003KT 1SM -SN VV010 M06/M08 A2993 RMK SN8 VIS VRB 3/4 - 11/4 SLP150

CYHM;2007-01-22 07:00;CYHM 220700Z 02003KT 1 1/2SM -SN VV015 M06/M07 A2993 RMK SN8 VIS VRB 1 - 2 SLP148

CYHM;2007-01-22 07:34;CYHM 220734Z 02002KT 4SM -SN OVC061 RMK SC8

CYHM;2007-01-22 08:00;CYHM 220800Z 03005KT 5SM -SN FEW006 BKN012 OVC056 M06/M07 A2991 RMK CF2SC5SC1 SLP144

CYHM;2007-01-22 08:13;CYHM 220813Z 03005KT 5SM -SN BKN005 OVC010 RMK CF6SC2

CYHM;2007-01-22 09:00;CYHM 220900Z 02002KT 6SM -SN OVC007 M06/M06 A2991 RMK SF8 SLP140

CYHM;2007-01-22 10:00;CYHM 221000Z 03007KT 6SM -SN OVC006 M06/M07 A2990 RMK SF8 SLP139

CYHM;2007-01-22 11:00;CYHM 221100Z 02007KT 6SM -SN OVC006 M06/M07 A2990 RMK ST8 SLP139

CYHM;2007-01-22 12:00;CYHM 221200Z 02008KT 8SM -SN OVC006 M07/M08 A2991 RMK SF8 SLP141

CYHM;2007-01-22 13:00;CYHM 221300Z 02008KT 6SM -SN OVC006 M07/M08 A2992 RMK SF8 SLP145

CYHM;2007-01-22 14:00;CYHM 221400Z 02007KT 5SM -SN OVC006 M07/M08 A2991 RMK SF8 SLP143

CYHM;2007-01-22 15:00;CYHM 221500Z 02007KT 4SM -SN SCT007 OVC023 M07/M08 A2990 RMK SF4SC4 SLP140

CYHM;2007-01-22 16:00;CYHM 221600Z 04007KT 5SM -SN BKN015 OVC022 M07/M08 A2990 RMK SC6SC2 SLP140

CYHM;2007-01-22 17:00;CYHM 221700Z 03006KT 5SM -SN BKN007 OVC016 M06/M08 A2988 RMK SF6SC2 SLP133

CYHM;2007-01-22 18:00;CYHM 221800Z 02004KT 4SM -SN BR OVC008 M06/M07 A2987 RMK SF8 SLP127

CYHM;2007-01-22 19:00;CYHM 221900Z 35002KT 5SM -SN BR OVC015 M05/M07 A2986 RMK SC8 SLP124

CYHM;2007-01-22 20:00;CYHM 222000Z 00000KT 5SM -SN OVC018 M05/M07 A2986 RMK SC8 SLP124

CYHM;2007-01-22 21:00;CYHM 222100Z 00000KT 5SM -SN OVC020 M05/M07 A2986 RMK SC8 SLP126

CYHM;2007-01-22 22:00;CYHM 222200Z 00000KT 4SM -SN OVC020 M05/M07 A2985 RMK SC8 SLP123

CYHM;2007-01-22 22:13;CYHM 222213Z 00000KT 2SM -SN OVC021 RMK ST8

CYHM;2007-01-22 23:00;CYHM 222300Z 00000KT 5SM -SN FEW024 OVC040 M05/M07 A2985 RMK ST2SC6 SLP123

CYHM;2007-01-23 00:00;CYHM 230000Z 22004KT 8SM -SN FEW018 OVC035 M06/M07 A2986 RMK CF2SC6 SLP125

CYHM;2007-01-23 01:00;CYHM 230100Z 24003KT 7SM -SN FEW016 OVC025 M06/M06 A2986 RMK SC2SC6 SLP124

CYHM;2007-01-23 02:00;CYHM 230200Z 25003KT 9SM -SN OVC026 M05/M07 A2986 RMK SC8 SLP125

CYHM;2007-01-23 03:00;CYHM 230300Z 25003KT 15SM -SN SCT026 BKN094 M07/M09 A2985 RMK SC3AS1 SLP122

CYHM;2007-01-23 04:00;CYHM 230400Z 24003KT 15SM -SN BKN023 M07/M09 A2985 RMK SC7 SLP123

CYHM;2007-01-23 05:00;CYHM 230500Z 24003KT 15SM -SN BKN021 M07/M08 A2985 RMK SC7 SLP122

CYHM;2007-01-23 06:00;CYHM 230600Z CCA 22003KT 8SM -SN FEW010 OVC016 M06/M08 A2984 RMK SC2SC6 SLP117

CYHM;2007-01-23 07:00;CYHM 230700Z 23003KT 8SM -SN FEW016 SCT072 BKN090 M08/M09 A2983 RMK SC1AC2AC1 SLP114

CYHM;2007-01-23 08:00;CYHM 230800Z 22005KT 12SM -SN OVC077 M06/M07 A2983 RMK AC8 SLP115

CYHM;2007-01-23 09:00;CYHM 230900Z 22006KT 12SM -SN BKN042 OVC064 M05/M07 A2982 RMK SC6SC2 SLP111

CYHM;2007-01-23 10:00;CYHM 231000Z 21004KT 9SM -SN FEW024 OVC063 M05/M07 A2981 RMK SC2SC6 SLP109

CYHM;2007-01-23 11:00;CYHM 231100Z 21005KT 5SM -SN FEW022 OVC062 M04/M06 A2980 RMK SC2SC6 SLP105

CYHM;2007-01-23 12:00;CYHM 231200Z 23007KT 10SM -SN BKN009 OVC060 M04/M05 A2979 RMK SC6SC2 SLP102

CYHM;2007-01-23 13:00;CYHM 231300Z 22008KT 7SM -SN SCT010 OVC040 M03/M05 A2979 RMK SC3SC5 SLP100

CYHM;2007-01-23 14:00;CYHM 231400Z 24010KT 6SM -SN BKN029 OVC052 M03/M04 A2978 RMK SC6SC2 SLP098

CYHM;2007-01-23 15:00;CYHM 231500Z 24014KT 4SM -SN SCT016 OVC025 M03/M05 A2977 RMK SC3SC5 SLP093

CYHM;2007-01-23 16:00;CYHM 231600Z 23016KT 8SM -SN FEW016 BKN028 BKN036 M02/M05 A2976 RMK CU2SC4SC2 SLP090

CYHM;2007-01-23 17:00;CYHM 231700Z 25018KT 6SM -SN FEW020 OVC031 M02/M06 A2976 RMK SC2SC6 SLP090

CYHM;2007-01-23 17:19;CYHM 231719Z 25017KT 2SM -SN BKN018 OVC023 RMK SC6SC2

CYHM;2007-01-23 18:00;CYHM 231800Z 24017KT 2SM -SN BKN013 OVC027 M03/M05 A2975 RMK SC6SC2 SLP088

CYHM;2007-01-23 19:00;CYHM 231900Z CCA 25014KT 3SM -SN BKN014 OVC023 M02/M04 A2974 RMK SC6SC2 SLP083

CYHM;2007-01-23 19:25;CYHM 231925Z 24015KT 4SM -SN SCT016 BKN064 RMK SC4SC3

CYHM;2007-01-23 20:00;CYHM 232000Z 24014KT 6SM -SN SCT016 BKN044 BKN064 M02/M05 A2973 RMK SC4SC2SC1 SLP081

CYHM;2007-01-23 21:00;CYHM 232100Z 24012KT 6SM -SN BKN018 BKN034 OVC050 M02/M05 A2974 RMK SC6SC1SC2 SLP083

CYHM;2007-01-23 22:00;CYHM 232200Z 24010KT 3SM -SN BKN016 OVC025 M02/M05 A2976 RMK SC6SC2 SLP088

CYHM;2007-01-23 22:43;CYHM 232243Z 24013KT 2SM -SN SCT014 OVC025 RMK SC3SC5

CYHM;2007-01-23 23:00;CYHM 232300Z 27010KT 1 1/2SM -SN BKN014 OVC020 M03/M04 A2980 RMK SN3SC4SC1 SLP101

CYHM;2007-01-23 23:31;CYHM 232331Z 24008KT 9SM -SN FEW018 OVC044 RMK SC2SC6

CYHM;2007-01-24 00:00;CYHM 240000Z 25008KT 10SM -SN FEW037 OVC047 M03/M05 A2982 RMK SC2SC6 SLP110

CYHM;2007-01-24 01:00;CYHM 240100Z 24008KT 15SM -SN OVC038 M03/M06 A2985 RMK SC8 SLP119

CYHM;2007-01-24 02:00;CYHM 240200Z 24009KT 12SM -SN OVC032 M03/M06 A2987 RMK SC8 SLP125

CYHM;2007-01-24 03:00;CYHM 240300Z 24010KT 12SM -SN OVC032 M03/M06 A2987 RMK SC8 SLP127

CYHM;2007-01-24 04:00;CYHM 240400Z 23012KT 12SM -SN FEW034 BKN051 M03/M07 A2987 RMK SC2SC5 SLP126

CYHM;2007-01-24 05:00;CYHM 240500Z 24008KT 15SM -SN BKN053 M03/M07 A2987 RMK SC7 SLP127

CYHM;2007-01-24 06:00;CYHM 240600Z 24006KT 12SM -SN OVC051 M03/M07 A2988 RMK SC8 SLP131

CYHM;2007-01-24 07:00;CYHM 240700Z 25007KT 12SM -SN OVC037 M03/M06 A2989 RMK SC8 SLP132

CYHM;2007-01-24 08:00;CYHM 240800Z 25007KT 15SM -SN FEW028 OVC040 M03/M06 A2990 RMK SC2SC6 SLP135

CYHM;2007-01-24 09:00;CYHM 240900Z 25006KT 10SM -SN BKN028 OVC040 M03/M05 A2991 RMK SC5SC3 SLP138

CYHM;2007-01-24 10:00;CYHM 241000Z 29005KT 15SM -SN FEW026 BKN043 M04/M08 A2991 RMK SC1SC6 SLP140

CYHM;2007-01-24 11:00;CYHM 241100Z 29003KT 15SM -SN BKN041 M04/M09 A2992 RMK SC7 SLP142

CYHM;2007-01-24 12:00;CYHM 241200Z CCA 28004KT 15SM -SN BKN039 M05/M09 A2994 RMK SC7 SLP152

CYHM;2007-01-24 13:00;CYHM 241300Z 26004KT 15SM -SN OVC040 M06/M09 A2999 RMK SC8 SLP167

CYHM;2007-01-24 14:00;CYHM 241400Z 27005KT 6SM -SHSN BKN020 OVC031 M05/M09 A3002 RMK SC6SC2 SLP177

CYHM;2007-01-24 15:00;CYHM 241500Z 26004KT 7SM -SHSN SCT028 BKN045 M05/M08 A3002 RMK SC3SC4 SLP177

CYHM;2007-01-24 15:48;CYHM 241548Z 29004KT 15SM FEW024 FEW036 BKN045 BKN100 RMK CU1SC2SC3AC1 CU TR

CYHM;2007-01-24 16:00;CYHM 241600Z 27005KT 15SM FEW024 FEW036 BKN044 M04/M08 A3001 RMK CU1SC2SC3 SLP176

CYHM;2007-01-24 17:00;CYHM 241700Z 30005KT 15SM FEW024 FEW045 FEW240 M03/M08 A2998 RMK CU1SC1CI1 SLP166

CYHM;2007-01-24 18:00;CYHM 241800Z 20003KT 15SM FEW028 BKN037 BKN240 M03/M07 A2996 RMK CU2SC3CI1 CI TR SLP158

CYHM;2007-01-24 19:00;CYHM 241900Z CCB 26008KT 15SM -SHSN FEW032 BKN041 M03/M08 A2996 RMK CU1SC6 SLP157

CYHM;2007-01-24 19:24;CYHM 241924Z 25008KT 15SM OVC041 RMK SC8 CF ASOCTD

CYHM;2007-01-24 20:00;CYHM 242000Z 28010KT 15SM FEW036 BKN050 M03/M10 A2996 RMK CF1SC6 SLP157

CYHM;2007-01-24 21:00;CYHM 242100Z 06007KT 6SM HZ FEW028 OVC048 M04/M07 A2997 RMK CF2SC6 SLP162

CYHM;2007-01-24 21:05;CYHM 242105Z 07007KT 6SM -SHSN FEW028 OVC047 RMK CF1SC7

CYHM;2007-01-24 22:00;CYHM 242200Z 07006KT 5SM -SHSN FEW034 OVC045 M05/M07 A2996 RMK CF2SC6 SLP159

CYHM;2007-01-24 22:07;CYHM 242207Z 09006KT 6SM -SN FEW034 OVC055 RMK SF2SC6

CYHM;2007-01-24 22:27;CYHM 242227Z 10005KT 8SM -SN OVC057 RMK SC8

CYHM;2007-01-24 23:00;CYHM 242300Z 10002KT 15SM -SN BKN032 OVC057 M05/M07 A2997 RMK SC6SC2 SLP160

CYHM;2007-01-25 00:00;CYHM 250000Z 04003KT 4SM -SN BKN017 OVC024 M05/M06 A2997 RMK SC6SC2 SLP163

CYHM;2007-01-25 01:00;CYHM 250100Z 04014KT 5SM -SN BKN009 BKN034 OVC070 M07/M09 A2998 RMK SC5SC2AC2 SF ASOCTD SLP166

CYHM;2007-01-25 01:39;CYHM 250139Z 02010KT 6SM -SN FEW010 BKN020 OVC068 RMK SF2SC6AC1

CYHM;2007-01-25 02:00;CYHM 250200Z 01010KT 10SM -SN SCT008 BKN020 OVC032 M09/M10 A2999 RMK SF4SC3SC1 SLP168

CYHM;2007-01-25 03:00;CYHM 250300Z 01007KT 15SM -SN FEW016 BKN058 M09/M12 A2999 RMK SC2SC6 SLP170

CYHM;2007-01-25 04:00;CYHM 250400Z 00000KT 15SM FEW017 BKN060 M11/M12 A2998 RMK CF1SC6 SLP166

CYHM;2007-01-25 05:00;CYHM 250500Z 34005KT 15SM FEW070 OVC092 M10/M12 A2997 RMK AC2AC6 SLP165

CYHM;2007-01-25 06:00;CYHM 250600Z 35008KT 15SM OVC089 M10/M13 A2996 RMK AC8 SLP160

CYHM;2007-01-25 07:00;CYHM 250700Z 01007KT 15SM OVC093 M10/M13 A2997 RMK AC8 SLP161

CYHM;2007-01-25 08:00;CYHM 250800Z 36009KT 15SM FEW070 OVC096 M11/M14 A2997 RMK AC2AC6 SLP162

CYHM;2007-01-25 09:00;CYHM 250900Z 01006KT 15SM BKN071 M12/M14 A2996 RMK AC7 SLP161

CYHM;2007-01-25 10:00;CYHM 251000Z 02005KT 15SM SCT070 BKN200 M13/M15 A2997 RMK AC3CI2 SLP163

CYHM;2007-01-25 11:00;CYHM 251100Z 02004KT 15SM SCT087 BKN110 M13/M17 A2997 RMK AC3AC2 SLP163

CYHM;2007-01-25 12:00;CYHM 251200Z 02007KT 15SM BKN071 BKN082 M13/M18 A2997 RMK AC5AC2 SLP164

CYHM;2007-01-25 13:00;CYHM 251300Z 02008KT 15SM SCT041 BKN062 BKN075 M13/M19 A2997 RMK SC3SC2AC2 SLP165

CYHM;2007-01-25 14:00;CYHM 251400Z 02008KT 15SM BKN035 OVC048 M13/M18 A2998 RMK SC6SC2 SLP169

CYHM;2007-01-25 15:00;CYHM 251500Z CCA 02009KT 2 1/2SM -SHSN BKN016 OVC030 M13/M17 A2999 RMK SC6SC2 SLP174

CYHM;2007-01-25 15:53;CYHM 251553Z 02014KT 2 1/2SM -SN BKN013 OVC025 RMK SC6SC2

CYHM;2007-01-25 16:00;CYHM 251600Z 02014KT 2 1/2SM -SN BKN014 OVC028 M13/M16 A3001 RMK SC6SC2 SLP178

CYHM;2007-01-25 16:15;CYHM 251615Z 02012KT 4SM -SN BKN020 OVC034 RMK SC5SC2

CYHM;2007-01-25 17:00;CYHM 251700Z 02010KT 6SM -SN BKN025 OVC037 M13/M17 A2999 RMK SC6SC2 SLP173

CYHM;2007-01-25 18:00;CYHM 251800Z CCA 03011KT 8SM -SN FEW045 BKN063 BKN074 M13/M17 A2998 RMK SC2SC4AC2 SLP171

CYHM;2007-01-25 18:55;CYHM 251855Z 02010KT 15SM FEW024 FEW038 FEW068 RMK CU1SC2AC0 AC TR

CYHM;2007-01-25 20:00;CYHM 252000Z 33013KT 15SM FEW057 FEW090 BKN230 M12/M21 A3000 RMK SC1AC1CI2 SLP176

CYHM;2007-01-25 21:00;CYHM 252100Z 32012KT 15SM FEW048 FEW230 M13/M22 A3002 RMK SC1CI1 CI TR SLP183

CYHM;2007-01-25 22:00;CYHM 252200Z 33015KT 15SM FEW045 M13/M23 A3004 RMK SC1 SLP190

CYHM;2007-01-25 23:00;CYHM 252300Z 32013KT 15SM FEW045 M15/M24 A3007 RMK SC1 SLP201

CYHM;2007-01-26 00:00;CYHM 260000Z 31009KT 15SM FEW045 M16/M24 A3009 RMK SC1 SLP209

CYHM;2007-01-26 01:00;CYHM 260100Z 28006KT 15SM FEW040 M16/M23 A3010 RMK SC1 SLP213

CYHM;2007-01-26 02:00;CYHM 260200Z 26004KT 15SM FEW040 M17/M23 A3010 RMK SC1 SLP212

CYHM;2007-01-26 03:00;CYHM 260300Z 26004KT 15SM FEW040 M18/M23 A3010 RMK SC1 SLP212

CYHM;2007-01-26 04:00;CYHM 260400Z 25005KT 15SM FEW210 M18/M23 A3007 RMK CI1 SLP204

CYHM;2007-01-26 05:00;CYHM 260500Z 23004KT 15SM FEW210 M20/M24 A3006 RMK CI1 SLP201

CYHM;2007-01-26 06:00;CYHM 260600Z 25007KT 15SM OVC044 M19/M23 A3006 RMK SC8 SLP199

CYHM;2007-01-26 07:00;CYHM 260700Z 26007KT 12SM -SN BKN038 OVC056 M17/M22 A3004 RMK SC5SC3 SLP195

CYHM;2007-01-26 08:00;CYHM 260800Z 23004KT 6SM -SN OVC029 M17/M20 A3002 RMK SC8 SLP186

CYHM;2007-01-26 09:00;CYHM 260900Z 00000KT 9SM -SN FEW027 BKN050 M17/M21 A3000 RMK CF2SC3 SLP180

CYHM;2007-01-26 10:00;CYHM 261000Z 01003KT 6SM -SN OVC043 M16/M20 A3001 RMK SC7 SLP181

CYHM;2007-01-26 11:00;CYHM 261100Z 00000KT 7SM -SN OVC046 M16/M19 A2999 RMK SC8 SLP177

CYHM;2007-01-26 12:00;CYHM 261200Z 00000KT 10SM OVC041 M15/M18 A3000 RMK SC8 SLP178

CYHM;2007-01-26 13:00;CYHM 261300Z 02003KT 10SM -SN SCT022 OVC042 M15/M18 A3001 RMK SC3SC5 SLP182

CYHM;2007-01-26 14:00;CYHM 261400Z 23004KT 4SM -SN BKN022 OVC036 M14/M18 A3001 RMK SC6SC2 SLP184

CYHM;2007-01-26 15:00;CYHM 261500Z 24006KT 6SM -SN FEW024 OVC041 M13/M17 A3001 RMK SC2SC6 SLP184

CYHM;2007-01-26 16:00;CYHM 261600Z 25006KT 15SM -SN BKN040 OVC096 M13/M17 A3002 RMK SC6AC2 SLP186

CYHM;2007-01-26 17:00;CYHM 261700Z 26007KT 15SM -SN BKN029 OVC041 M12/M16 A2999 RMK SC5SC3 SLP177

CYHM;2007-01-26 17:29;CYHM 261729Z 23007KT 2SM -SN BKN009 OVC023 RMK SF6SC2

CYHM;2007-01-26 17:34;CYHM 261734Z 24006KT 1SM -SN BKN008 OVC020 RMK SN2SF5SC2

CYHM;2007-01-26 18:00;CYHM 261800Z 23005KT 1SM -SN BKN008 OVC022 M12/M15 A2997 RMK SN1SF6SC2 SLP168

CYHM;2007-01-26 19:00;CYHM 261900Z 23005KT 1 1/2SM -SN BKN013 OVC028 M12/M14 A2994 RMK SN1SF5SC2 SLP158

CYHM;2007-01-26 19:50;CYHM 261950Z 13002KT 3/4SM -SN VV007 RMK SN8

CYHM;2007-01-26 20:00;CYHM 262000Z 13003KT 1 1/4SM -SN VV010 M11/M13 A2990 RMK SN8 SLP145

CYHM;2007-01-26 21:00;CYHM 262100Z 10006KT 1 1/4SM -SN VV010 M10/M11 A2987 RMK SN8 SLP135

CYHM;2007-01-26 21:20;CYHM 262120Z 11007KT 1/2SM SN VV005 RMK SN8

CYHM;2007-01-26 21:33;CYHM 262133Z 10007KT 3/4SM -SN VV008 RMK SN8

CYHM;2007-01-26 21:49;CYHM 262149Z 09007KT 1 3/4SM -SN BKN024 OVC057 RMK SN5SC2SC2

CYHM;2007-01-26 22:00;CYHM 262200Z 09007KT 2 1/2SM -SN FEW024 OVC054 M10/M11 A2984 RMK SN1SC2SC6 SLP126

CYHM;2007-01-26 22:21;CYHM 262221Z 10006KT 15SM -SN SCT026 OVC049 RMK SC3SC5

CYHM;2007-01-26 23:00;CYHM 262300Z 10008KT 8SM -SN BKN025 OVC048 M10/M11 A2984 RMK SC6SC2 SLP123

CYHM;2007-01-27 00:00;CYHM 270000Z CCA 10010KT 7SM -SN OVC017 M09/M10 A2983 RMK SC8 SLP118

CYHM;2007-01-27 01:00;CYHM 270100Z 10009KT 12SM -SN OVC021 M08/M09 A2980 RMK SC8 SLP109

CYHM;2007-01-27 02:00;CYHM 270200Z 10010KT 15SM -SN OVC018 M08/M09 A2977 RMK SC8 SLP099

CYHM;2007-01-27 02:46;CYHM 270246Z 09009KT 15SM -SN OVC014 RMK SC8

CYHM;2007-01-27 03:00;CYHM 270300Z 09009KT 15SM -SN OVC014 M07/M09 A2973 RMK SC8 SLP083

CYHM;2007-01-27 04:00;CYHM 270400Z 08010KT 8SM -SN OVC015 M07/M08 A2968 RMK SC8 SLP069

CYHM;2007-01-27 05:00;CYHM 270500Z 08008KT 8SM -SN OVC022 M07/M08 A2964 RMK SC8 SLP053

CYHM;2007-01-27 06:00;CYHM 270600Z 04009KT 10SM -SN OVC020 M07/M08 A2960 RMK SC8 SLP039

CYHM;2007-01-27 07:00;CYHM 270700Z 05007KT 8SM -SN OVC022 M07/M08 A2956 RMK SC8 SLP027

CYHM;2007-01-27 08:00;CYHM 270800Z 04008KT 6SM -SN OVC017 M06/M07 A2955 RMK SC8 SLP021

CYHM;2007-01-27 09:00;CYHM 270900Z 05004KT 5SM -SN OVC019 M05/M06 A2952 RMK SC8 SLP010

CYHM;2007-01-27 10:00;CYHM 271000Z 02004KT 4SM -SN BR FEW013 OVC017 M05/M05 A2951 RMK CF1SC7 SLP007

CYHM;2007-01-27 11:00;CYHM 271100Z 00000KT 3SM -SN BR OVC017 M04/M04 A2952 RMK SC8 VIS VRB 2 - 4 SLP010

CYHM;2007-01-27 12:00;CYHM 271200Z 34002KT 2SM -SN BR OVC014 M03/M04 A2953 RMK SC8 SLP014

CYHM;2007-01-27 13:00;CYHM 271300Z 27002KT 1 1/2SM -FZDZ BR BKN012 OVC030 M03/M04 A2955 RMK SC6SC2 SLP020

CYHM;2007-01-27 14:00;CYHM 271400Z 25002KT 2SM -FZDZ BR BKN015 OVC026 M03/M03 A2957 RMK SC6SC2 SLP027

CYHM;2007-01-27 14:32;CYHM 271432Z 26004KT 2SM -FZDZ BR OVC027 RMK SC8

CYHM;2007-01-27 15:00;CYHM 271500Z 29005KT 2SM -FZDZ BR OVC023 M02/M03 A2960 RMK SC8 SLP035

CYHM;2007-01-27 16:00;CYHM 271600Z 25009KT 2 1/2SM -FZDZ BR SCT018 OVC025 M01/M02 A2961 RMK SC3SC5 SLP039

CYHM;2007-01-27 16:30;CYHM 271630Z 29012KT 3SM BR OVC024 RMK SC8

CYHM;2007-01-27 17:00;CYHM 271700Z 27010KT 4SM HZ OVC024 M00/M03 A2960 RMK SC8 SLP037

CYHM;2007-01-27 18:00;CYHM 271800Z 28013KT 4SM HZ OVC024 M00/M03 A2960 RMK SC8 SLP034

CYHM;2007-01-27 19:00;CYHM 271900Z 28014KT 5SM HZ OVC025 M01/M04 A2959 RMK SC8 SLP030

CYHM;2007-01-27 20:00;CYHM 272000Z 27011KT 8SM OVC016 M01/M04 A2958 RMK SC8 SLP028

CYHM;2007-01-27 20:24;CYHM 272024Z 28009KT 7SM OVC014 RMK SC8

CYHM;2007-01-27 21:00;CYHM 272100Z 27010KT 7SM -SG BKN012 OVC020 M02/M04 A2959 RMK SC6SC2 SLP031

CYHM;2007-01-27 22:00;CYHM 272200Z 25011KT 4SM -SG BR OVC011 M02/M04 A2963 RMK SC8 SLP046

CYHM;2007-01-27 22:32;CYHM 272232Z 24010KT 2 1/2SM -SG BR FEW005 OVC013 RMK SF2SC6

CYHM;2007-01-27 23:00;CYHM 272300Z 25010KT 7SM -SG FEW007 FEW013 OVC024 M02/M03 A2964 RMK SF1SC2SC6 PCPN VRY LGT SLP049

CYHM;2007-01-27 23:33;CYHM 272333Z 25008KT 15SM FEW025 OVC045 RMK SC2SC6

CYHM;2007-01-28 00:00;CYHM 280000Z 24009KT 15SM FEW028 BKN052 M02/M05 A2965 RMK SC2SC6 SLP052

CYHM;2007-01-28 01:00;CYHM 280100Z 24009KT 15SM FEW017 BKN033 M02/M05 A2967 RMK SC2SC6 SLP057

CYHM;2007-01-28 02:00;CYHM 280200Z 23008KT 15SM FEW034 OVC073 M03/M05 A2965 RMK SC2AC6 SLP053

CYHM;2007-01-28 03:00;CYHM 280300Z 23008KT 15SM FEW034 BKN089 M03/M05 A2965 RMK SC1AC6 SLP052

CYHM;2007-01-28 04:00;CYHM 280400Z 24007KT 12SM FEW090 SCT200 M05/M07 A2965 RMK AC2CI1 SLP051

CYHM;2007-01-28 05:00;CYHM 280500Z 24010KT 10SM -SHSN FEW016 BKN033 BKN100 M03/M05 A2965 RMK CF2SC2AC2 SLP051

CYHM;2007-01-28 06:00;CYHM 280600Z 25008KT 7SM -SHSN FEW016 SCT050 SCT100 M03/M05 A2965 RMK CF2SC2AC1 SLP049

CYHM;2007-01-28 07:00;CYHM 280700Z 25007KT 12SM FEW018 M04/M05 A2965 RMK CF2 SLP052

CYHM;2007-01-28 08:00;CYHM 280800Z 29006KT 15SM FEW038 M05/M06 A2966 RMK SC2 SLP055

CYHM;2007-01-28 09:00;CYHM 280900Z 27005KT 15SM FEW018 FEW100 M06/M07 A2967 RMK SC1AC1 SLP060

CYHM;2007-01-28 10:00;CYHM 281000Z 25004KT 15SM FEW025 FEW100 M08/M08 A2968 RMK SC1AC1 SLP061

CYHM;2007-01-28 11:00;CYHM 281100Z 26006KT 15SM BKN047 BKN100 M07/M08 A2968 RMK SC5AC1 FROIN SLP061

CYHM;2007-01-28 12:00;CYHM 281200Z 25005KT 15SM BKN025 BKN047 M06/M07 A2969 RMK SC5SC2 SLP065

CYHM;2007-01-28 13:00;CYHM 281300Z 04005KT 15SM -SHSN BKN014 BKN047 M06/M07 A2971 RMK SC5SC2 SLP071

CYHM;2007-01-28 13:12;CYHM 281312Z 06009KT 5SM -SHSN SCT007 BKN012 OVC047 RMK CF4SC3SC1 VIS NE 2

CYHM;2007-01-28 13:29;CYHM 281329Z 05009KT 2SM -SHSN BKN008 OVC012 RMK SN1CF6SC2

CYHM;2007-01-28 13:51;CYHM 281351Z 05011KT 1 1/4SM -SHSN BKN007 OVC014 RMK SN2CF2SC3

CYHM;2007-01-28 14:00;CYHM 281400Z 04009KT 1 1/4SM -SHSN BKN007 OVC014 M07/M08 A2972 RMK SN2CF2SC3 SLP075

CYHM;2007-01-28 14:20;CYHM 281420Z 04009KT 1 1/4SM -SHSN SCT007 OVC018 RMK SN2CF1SC5

CYHM;2007-01-28 15:00;CYHM 281500Z 04011KT 2SM -SHSN OVC024 M08/M09 A2971 RMK SN1SC7 SLP074

CYHM;2007-01-28 15:17;CYHM 281517Z 03008KT 4SM -SHSN SCT011 OVC026 RMK SC3SC5

CYHM;2007-01-28 15:38;CYHM 281538Z 04009KT 4SM -SHSN BKN009 OVC025 RMK SC6SC2

CYHM;2007-01-28 16:00;CYHM 281600Z 04008KT 3SM -SHSN OVC009 M07/M09 A2972 RMK SC8 SLP078

CYHM;2007-01-28 16:28;CYHM 281628Z 04009KT 2 1/2SM -SHSN BKN009 OVC024 RMK SC6SC2

CYHM;2007-01-28 17:00;CYHM 281700Z 03010KT 2 1/2SM -SHSN BKN009 OVC021 M08/M09 A2971 RMK SC6SC2 SLP074

CYHM;2007-01-28 17:29;CYHM 281729Z 03009KT 1 1/2SM -SHSN OVC009 RMK SN3SC5

CYHM;2007-01-28 17:39;CYHM 281739Z 03009KT 3/4SM -SHSN OVC009 RMK SN6SC2

CYHM;2007-01-28 18:00;CYHM 281800Z CCA 03008KT 3/4SM -SHSN OVC009 M08/M10 A2970 RMK SN6SC2 SUN DIMMLY VSBL SLP070

CYHM;2007-01-28 18:27;CYHM 281827Z 04009KT 1SM -SHSN OVC009 RMK SN4SC4

CYHM;2007-01-28 18:44;CYHM 281844Z 04009KT 2SM -SHSN BKN010 OVC028 RMK SN1SC4SC3

CYHM;2007-01-28 19:00;CYHM 281900Z 04009KT 5SM -SHSN BKN010 BKN016 OVC028 M08/M10 A2969 RMK SC6SC2SC1 SLP067

CYHM;2007-01-28 19:29;CYHM 281929Z 04008KT 2SM -SHSN BKN013 OVC029 RMK SN1SC6SC1

CYHM;2007-01-28 20:00;CYHM 282000Z 03009KT 1 1/2SM -SHSN OVC014 M09/M11 A2970 RMK SN2SC6 SLP069

CYHM;2007-01-28 21:00;CYHM 282100Z 01008KT 2SM -SHSN BKN015 OVC057 M09/M11 A2971 RMK SN1SC6SC2 SLP074

CYHM;2007-01-28 22:00;CYHM 282200Z 36010KT 2SM -SHSN BKN017 OVC032 M10/M12 A2972 RMK SN1SC6SC1 SLP079

CYHM;2007-01-28 22:36;CYHM 282236Z 36008KT 3SM -SHSN BKN026 BKN052 RMK SC5SC2

CYHM;2007-01-28 23:00;CYHM 282300Z CCA 36008KT 5SM -SHSN SCT026 BKN052 M10/M12 A2975 RMK SC4SC2 SLP087

CYHM;2007-01-29 00:00;CYHM 290000Z 36009KT 3SM -SHSN BKN052 M10/M12 A2977 RMK SC6 SLP097

CYHM;2007-01-29 01:00;CYHM 290100Z 35008KT 9SM -SHSN SCT038 BKN060 M10/M13 A2980 RMK SC3SC3 SLP106

CYHM;2007-01-29 02:00;CYHM 290200Z 34007KT 7SM -SHSN FEW023 BKN040 BKN052 M11/M13 A2981 RMK SC2SC3SC1 SLP110

CYHM;2007-01-29 03:00;CYHM 290300Z 28002KT 8SM -SHSN BKN033 BKN088 M12/M13 A2983 RMK SC5AC2 SLP117

CYHM;2007-01-29 04:00;CYHM 290400Z 28003KT 8SM -SHSN FEW040 FEW092 BKN250 M12/M13 A2984 RMK SC2AC1CS2 HALO SLP121

CYHM;2007-01-29 05:00;CYHM 290500Z 30005KT 15SM FEW030 FEW110 M14/M16 A2986 RMK SC1AC1 SLP126

CYHM;2007-01-29 06:00;CYHM 290600Z 30004KT 15SM FEW025 FEW110 M14/M16 A2988 RMK SC1AC1 SLP134

CYHM;2007-01-29 07:00;CYHM 290700Z 28006KT 15SM FEW025 M15/M16 A2989 RMK SC2 SLP139

CYHM;2007-01-29 08:00;CYHM 290800Z 23007KT 15SM FEW055 SCT220 M18/M18 A2990 RMK SC2CI1 SLP143

CYHM;2007-01-29 09:00;CYHM 290900Z 26004KT 15SM FEW038 BKN064 M15/M17 A2991 RMK CF1SC6 SLP147

CYHM;2007-01-29 10:00;CYHM 291000Z 25003KT 6SM -SN FEW011 OVC037 M15/M16 A2991 RMK CF2SC6 SLP146

CYHM;2007-01-29 10:30;CYHM 291030Z 25003KT 2SM -SN OVC024 RMK SN1SC7

CYHM;2007-01-29 11:00;CYHM 291100Z 00000KT 3SM -SN FEW020 BKN053 M15/M16 A2990 RMK CF2SC5 VIS VRB 2 - 4 SLP144

CYHM;2007-01-29 12:00;CYHM 291200Z 24004KT 15SM -SN FEW024 BKN045 M17/M18 A2992 RMK SC2SC3 SLP151

CYHM;2007-01-29 13:00;CYHM 291300Z 25006KT 15SM -SN FEW025 BKN046 M14/M15 A2993 RMK SC2SC4 SLP155

CYHM;2007-01-29 14:00;CYHM 291400Z CCA 25008KT 15SM -SN BKN046 M13/M14 A2995 RMK SC6 SLP160

CYHM;2007-01-29 15:00;CYHM 291500Z 25011KT 15SM -SN FEW024 BKN052 M10/M13 A2995 RMK CU1SC6 CU TR SLP160

CYHM;2007-01-29 16:00;CYHM 291600Z CCA 26013KT 15SM -SN FEW024 FEW055 BKN180 BKN220 M09/M12 A2995 RMK CU1SC2AC3CI1 CU TR SLP159

CYHM;2007-01-29 16:50;CYHM 291650Z 24015KT 15SM FEW024 FEW044 SCT150 BKN220 RMK CU1SC1AC2CI1 CU TR

CYHM;2007-01-29 17:00;CYHM 291700Z 25016KT 15SM FEW028 FEW056 SCT150 BKN220 M08/M14 A2994 RMK CU1SC1AC2CI2 SLP158

CYHM;2007-01-29 18:00;CYHM 291800Z 25015G20KT 15SM FEW024 FEW058 SCT130 BKN220 M07/M14 A2992 RMK CU2SC1AC2CI1 SLP150

CYHM;2007-01-29 19:00;CYHM 291900Z 24018KT 15SM -SN FEW024 FEW038 BKN140 BKN220 M07/M14 A2991 RMK CU1SC1AC3CI1 SLP145

CYHM;2007-01-29 19:06;CYHM 291906Z 27014G20KT 15SM FEW028 BKN140 BKN230 RMK CU1AS4CS1 HALO

CYHM;2007-01-29 20:00;CYHM 292000Z 26012G18KT 15SM FEW032 BKN130 BKN230 M07/M13 A2990 RMK CU1AS2CS1 HALO SLP143

CYHM;2007-01-29 21:00;CYHM 292100Z 21012KT 15SM FEW032 FEW040 BKN120 BKN240 M06/M12 A2990 RMK CU1SC1AS2CS1 CU TR SLP141

CYHM;2007-01-29 22:00;CYHM 292200Z 24007KT 15SM FEW048 SCT130 BKN250 M07/M11 A2990 RMK SC1AC2CS1 SLP141

CYHM;2007-01-29 23:00;CYHM 292300Z 24006KT 15SM FEW048 BKN120 BKN150 OVC250 M08/M12 A2991 RMK SC1AS5AS1CS0 SC TR SLP145

CYHM;2007-01-30 00:00;CYHM 300000Z 24004KT 15SM BKN094 BKN170 BKN250 M09/M13 A2991 RMK AS2AS1CS1 SLP148

CYHM;2007-01-30 01:00;CYHM 300100Z 25005KT 15SM FEW064 SCT094 BKN130 M10/M13 A2992 RMK SC1AS2AS1 SLP150

CYHM;2007-01-30 02:00;CYHM 300200Z 26003KT 15SM FEW072 FEW088 SCT140 BKN250 M10/M13 A2992 RMK AS1AS1AS1CS0 SLP151

CYHM;2007-01-30 03:00;CYHM 300300Z 28003KT 15SM BKN130 M10/M13 A2992 RMK AC6 SLP148

CYHM;2007-01-30 04:00;CYHM 300400Z 25006KT 15SM BKN130 M10/M13 A2991 RMK AC7 SLP144

CYHM;2007-01-30 05:00;CYHM 300500Z 27007KT 15SM OVC130 M10/M13 A2990 RMK AC8 SLP141

CYHM;2007-01-30 06:00;CYHM 300600Z 25003KT 15SM BKN096 OVC130 M10/M13 A2989 RMK AC5AC3 SLP136

CYHM;2007-01-30 07:00;CYHM 300700Z 19005KT 15SM SCT096 BKN130 M10/M13 A2987 RMK AC4AC2 SLP131

CYHM;2007-01-30 08:00;CYHM 300800Z 15005KT 15SM FEW056 SCT100 BKN130 M12/M14 A2987 RMK SC1AC2AC2 SLP130

CYHM;2007-01-30 09:00;CYHM 300900Z 12002KT 5SM -SN FEW042 BKN062 OVC100 M11/M13 A2986 RMK SC2SC6AC1 SLP127

CYHM;2007-01-30 10:00;CYHM 301000Z 00000KT 5SM -SN FEW033 SCT050 BKN062 M11/M13 A2986 RMK SC1SC2SC2 SLP126

CYHM;2007-01-30 12:00;CYHM 301200Z 12002KT 6SM -SN SCT022 BKN079 OVC092 M11/M12 A2984 RMK SC3AC3AC2 SLP123

CYHM;2007-01-30 13:00;CYHM 301300Z 00000KT 8SM -SN BKN120 BKN160 M11/M12 A2985 RMK AC6AC2 SLP124

CYHM;2007-01-30 14:00;CYHM 301400Z 00000KT 5SM -SN FEW062 BKN120 OVC160 M11/M12 A2984 RMK SC2AC4AC2 SLP123

CYHM;2007-01-30 15:00;CYHM 301500Z 00000KT 5SM -SN BKN061 OVC082 M09/M10 A2984 RMK SC6AS2 SLP120

CYHM;2007-01-30 16:00;CYHM 301600Z 00000KT 7SM FEW060 SCT120 BKN220 M07/M10 A2984 RMK SC1AC2CI2 SLP120

CYHM;2007-01-30 17:00;CYHM 301700Z 05004KT 7SM FEW064 BKN079 OVC220 M07/M10 A2983 RMK SC2AC3CI2 SLP116

CYHM;2007-01-30 18:00;CYHM 301800Z 00000KT 8SM FEW016 FEW060 SCT120 BKN220 M06/M10 A2981 RMK CU1SC2AC2CI2 SLP110

CYHM;2007-01-30 19:00;CYHM 301900Z 00000KT 8SM FEW024 FEW062 SCT120 BKN220 M05/M10 A2980 RMK CU1SC1AC2CI2 SLP107

CYHM;2007-01-30 20:00;CYHM 302000Z 00000KT 5SM HZ FEW038 BKN050 BKN250 M05/M10 A2981 RMK SC1ST2CS1 SUN DMLY VSBL SLP108

CYHM;2007-01-30 21:00;CYHM 302100Z 22002KT 7SM BKN044 BKN084 BKN250 M06/M11 A2982 RMK ST2AS1CS1 SUN DMLY VSBL SC ASOCTD SLP113

CYHM;2007-01-30 21:50;CYHM 302150Z 27002KT 5SM -SHSN BKN024 BKN050 RMK ST5ST1 SUN DMLY VSBL

CYHM;2007-01-30 22:00;CYHM 302200Z 25003KT 5SM -SHSN FEW016 BKN022 BKN050 M06/M11 A2983 RMK SF1ST4ST1 SUN DMLY VSBL SLP116

CYHM;2007-01-30 22:21;CYHM 302221Z 26002KT 9SM FEW034 BKN062 BKN250 RMK ST1ST2CS1

CYHM;2007-01-30 22:50;CYHM 302250Z 25004KT 5SM -SHSN BKN030 OVC042 RMK ST5ST1

CYHM;2007-01-30 23:00;CYHM 302300Z 25004KT 5SM -SHSN BKN030 OVC042 M07/M10 A2985 RMK ST5ST1 SLP123

CYHM;2007-01-31 00:00;CYHM 310000Z 21003KT 10SM -SHSN FEW034 BKN060 OVC220 M09/M10 A2986 RMK ST2ST3CS1 SLP129

CYHM;2007-01-31 01:00;CYHM 310100Z 24006KT 9SM -SHSN FEW016 BKN036 BKN084 M07/M10 A2987 RMK SC2SC5AC1 SLP132

CYHM;2007-01-31 02:00;CYHM 310200Z 26006KT 6SM -SHSN BKN046 BKN140 M07/M11 A2987 RMK ST3AS1 HALO SLP132

CYHM;2007-01-31 03:00;CYHM 310300Z 26007KT 5SM -SHSN FEW026 BKN038 M08/M10 A2988 RMK ST2ST2 SLP134

CYHM;2007-01-31 04:00;CYHM 310400Z 28007KT 12SM FEW060 SCT094 BKN250 M08/M11 A2990 RMK ST1AC3CS0 SLP141

CYHM;2007-01-31 05:00;CYHM 310500Z 28005KT 15SM FEW080 FEW250 M10/M12 A2992 RMK AC1CI1 AC TR CI TR SLP146

CYHM;2007-01-31 06:00;CYHM 310600Z 26006KT 15SM FEW072 M11/M12 A2992 RMK AC1 AC TR SLP148

CYHM;2007-01-31 07:00;CYHM 310700Z 26006KT 15SM -SHSN SCT034 M12/M13 A2993 RMK SC2 SLP151

CYHM;2007-01-31 08:00;CYHM 310800Z 23007KT 15SM FEW016 FEW056 M12/M13 A2994 RMK SC1SC1 SLP154

CYHM;2007-01-31 09:00;CYHM 310900Z 23008KT 15SM SKC M13/M14 A2993 RMK SLP151

CYHM;2007-01-31 10:00;CYHM 311000Z 24012KT 15SM BKN052 M10/M12 A2993 RMK SC6 SLP151

CYHM;2007-01-31 10:27;CYHM 311027Z 24011KT 10SM -SHSN BKN050 RMK SC6

CYHM;2007-01-31 11:00;CYHM 311100Z 24013KT 12SM -SHSN BKN050 M10/M12 A2993 RMK SC6 SLP152

CYHM;2007-01-31 12:00;CYHM 311200Z 24016KT 15SM -SHSN BKN040 M09/M12 A2994 RMK SC6 SLP156

CYHM;2007-01-31 13:00;CYHM 311300Z 25015KT 15SM FEW034 SCT100 BKN240 M11/M13 A2996 RMK SC2AC1CI1 SLP160

CYHM;2007-01-31 14:00;CYHM 311400Z 25022KT 15SM DRSN FEW034 SCT100 SCT240 M10/M13 A2997 RMK SC2AC1CI0 SLP164

CYHM;2007-01-31 14:25;CYHM 311425Z 24020G25KT 10SM -SHSN DRSN BKN027 BKN042 RMK SC5SC1

CYHM;2007-01-31 15:00;CYHM 311500Z 24021KT 8SM -SHSN DRSN BKN027 BKN045 M09/M12 A2999 RMK SC5SC2 SLP171

CYHM;2007-01-31 16:00;CYHM 311600Z 24020G25KT 8SM -SHSN DRSN FEW021 BKN037 M09/M12 A3000 RMK CU2SC5 SLP175

CYHM;2007-01-31 17:00;CYHM 311700Z 26020G26KT 10SM DRSN BKN020 BKN028 M08/M12 A3000 RMK SC6SC2 CU ASOCTD SLP175

CYHM;2007-01-31 17:50;CYHM 311750Z 25016G22KT 12SM -SHSN FEW020 BKN025 RMK CU2SC6

CYHM;2007-01-31 18:00;CYHM 311800Z 25015G20KT 12SM -SHSN FEW020 BKN027 M07/M12 A2998 RMK CU2SC6 SLP169

CYHM;2007-01-31 19:00;CYHM 311900Z 24020KT 15SM -SHSN SCT022 BKN028 M07/M12 A2997 RMK SC3SC3 CU ASOCTD SLP165

CYHM;2007-01-31 20:00;CYHM 312000Z 25015KT 15SM -SHSN BKN026 BKN250 M07/M12 A2997 RMK SC7CS1 CS TR CU ASOCTD SLP166

CYHM;2007-01-31 20:36;CYHM 312036Z 24016KT 15SM SCT025 SCT250 RMK SC3CI1 CU ASOCTD CONTRAILS

CYHM;2007-01-31 21:00;CYHM 312100Z 25015KT 15SM FEW026 SCT250 M07/M12 A2997 RMK SC2CI1 CU ASOCTD CONTRAILS SLP166

CYHM;2007-01-31 22:00;CYHM 312200Z 25010KT 15SM FEW024 BKN250 M07/M12 A2997 RMK SC2CI2 CU ASOCTD CONTRAILS SLP167

CYHM;2007-01-31 23:00;CYHM 312300Z 24010KT 15SM BKN019 M08/M12 A2997 RMK SC4 SLP166

CYHM;2007-02-01 01:00;CYHM 010100Z 24005KT 15SM BKN020 M09/M11 A2996 RMK SC6 SLP162

CYHM;2007-02-01 02:00;CYHM 010200Z 27004KT 15SM FEW024 BKN120 M10/M11 A2994 RMK SC2AS1 CF ASOCTD HALO SLP154

CYHM;2007-02-01 03:00;CYHM 010300Z 24005KT 15SM BKN120 M10/M11 A2992 RMK AS3 HALO SLP149

CYHM;2007-02-01 04:00;CYHM 010400Z 23008KT 15SM SCT110 OVC260 M09/M11 A2992 RMK AC3CS4 HALO SLP147

CYHM;2007-02-01 05:00;CYHM 010500Z 24008KT 15SM BKN110 BKN250 M08/M11 A2989 RMK AC5CS2 HALO SLP138

CYHM;2007-02-01 06:00;CYHM 010600Z 23007KT 15SM BKN120 BKN250 M07/M12 A2987 RMK AC6CS2 HALO SLP130

CYHM;2007-02-01 07:00;CYHM 010700Z 25008KT 15SM BKN090 BKN250 M08/M12 A2987 RMK AC6CS2 HALO SLP128

CYHM;2007-02-01 08:00;CYHM 010800Z 24010KT 15SM BKN075 BKN170 M08/M12 A2985 RMK AC6AC2 SLP124

CYHM;2007-02-01 09:00;CYHM 010900Z 24009KT 15SM BKN018 OVC039 M08/M13 A2984 RMK SC6SC2 SLP121

CYHM;2007-02-01 09:09;CYHM 010909Z 24009KT 5SM -SHSN BKN012 OVC036 RMK SC6SC2

CYHM;2007-02-01 09:54;CYHM 010954Z 23009KT 2SM -SHSN OVC012 RMK SN1SC6

CYHM;2007-02-01 10:00;CYHM 011000Z 23009KT 1 1/2SM -SHSN OVC013 M08/M10 A2984 RMK SN2SC6 VIS VRB 1 - 2 SLP119

CYHM;2007-02-01 10:13;CYHM 011013Z 23009KT 1SM -SHSN VV010 RMK SN8 VIS VRB 3/4 - 11/4

CYHM;2007-02-01 10:51;CYHM 011051Z 23009KT 4SM -SHSN OVC028 RMK SC8

CYHM;2007-02-01 11:00;CYHM 011100Z 23009KT 5SM -SHSN OVC034 M08/M10 A2983 RMK SC8 SLP115

CYHM;2007-02-01 12:00;CYHM 011200Z 21009KT 15SM -SHSN OVC046 M08/M10 A2982 RMK SC8 SLP114

CYHM;2007-02-01 13:00;CYHM 011300Z 21008KT 7SM -SHSN BKN035 OVC041 M07/M10 A2982 RMK SC6SC2 SLP112

CYHM;2007-02-01 14:00;CYHM 011400Z 21008KT 4SM -SHSN BKN021 BKN038 M07/M09 A2981 RMK SC5SC2 SLP110

CYHM;2007-02-01 14:16;CYHM 011416Z 22010KT 2SM -SHSN BKN012 OVC025 RMK SC6SC2

CYHM;2007-02-01 14:40;CYHM 011440Z 22012KT 7SM -SHSN BKN022 OVC027 RMK SC6SC2

CYHM;2007-02-01 15:00;CYHM 011500Z 23010KT 10SM -SHSN SCT021 BKN026 M06/M09 A2980 RMK SC3SC4 SLP107

CYHM;2007-02-01 16:00;CYHM 011600Z 23008KT 15SM -SHSN FEW024 BKN035 M06/M09 A2980 RMK SC2SC4 SLP106

CYHM;2007-02-01 17:00;CYHM 011700Z 20012KT 8SM -SHSN FEW017 BKN028 M05/M07 A2978 RMK SC2SC3 SLP098

CYHM;2007-02-01 18:00;CYHM 011800Z 21017KT 3SM -SHSN BKN015 OVC027 M04/M07 A2976 RMK SC6SC2 SLP091

CYHM;2007-02-01 18:55;CYHM 011855Z 21016KT 1 1/2SM -SHSN BKN011 OVC026 RMK SN1SF5SC2

CYHM;2007-02-01 19:00;CYHM 011900Z 20016KT 1SM -SHSN BKN010 OVC025 M04/M06 A2974 RMK SN1SF6SC2 SLP084

CYHM;2007-02-01 20:00;CYHM 012000Z 21015KT 1 1/4SM -SHSN BKN013 OVC021 M04/M06 A2975 RMK SN2SC3SC3 SLP086

CYHM;2007-02-01 21:00;CYHM 012100Z 21014KT 1 1/4SM -SN BKN013 OVC020 M04/M06 A2975 RMK SN2SC3SC3 SLP089

CYHM;2007-02-01 21:12;CYHM 012112Z 21013KT 3/4SM -SN BKN012 OVC019 RMK SN2SC3SC2

CYHM;2007-02-01 21:20;CYHM 012120Z 21012KT 5/8SM -SN VV009 RMK SN8

CYHM;2007-02-01 22:00;CYHM 012200Z 21012KT 1SM -SN VV010 M04/M06 A2975 RMK SN8 /S01/ SLP086

CYHM;2007-02-01 23:00;CYHM 012300Z 21010KT 1 1/2SM -SN BKN015 OVC033 M04/M06 A2975 RMK SN2SC3SC3 SLP086

CYHM;2007-02-02 00:00;CYHM 020000Z 21008KT 2 1/2SM -SN SCT014 OVC026 M04/M06 A2975 RMK SN1SC3SC4 /S02/ SLP087

CYHM;2007-02-02 01:00;CYHM 020100Z 20007KT 3SM -SN SCT015 OVC023 M04/M06 A2975 RMK SC3SC5 SLP088

CYHM;2007-02-02 02:00;CYHM 020200Z 21007KT 2 1/2SM -SN SCT014 OVC021 M04/M05 A2975 RMK SN1SC2SC5 SLP089

CYHM;2007-02-02 02:46;CYHM 020246Z 26007KT 2 1/2SM -SN SCT005 OVC016 RMK SN1SF3SC4

CYHM;2007-02-02 03:00;CYHM 020300Z 25007KT 2 1/2SM -SN BKN009 OVC017 M05/M06 A2975 RMK SN1SC5SC2 SLP089

CYHM;2007-02-02 04:00;CYHM 020400Z 25008KT 4SM -SN OVC019 M05/M06 A2975 RMK SC8 SLP086

CYHM;2007-02-02 05:00;CYHM 020500Z 26005KT 5SM -SN OVC021 M05/M07 A2974 RMK SC8 SLP083

CYHM;2007-02-02 06:00;CYHM 020600Z 24007KT 5SM -SN OVC025 M05/M07 A2972 RMK SC8 /S01/ SLP078

CYHM;2007-02-02 07:00;CYHM 020700Z 25007KT 7SM -SN OVC024 M05/M08 A2971 RMK SC8 SLP073

CYHM;2007-02-02 08:00;CYHM 020800Z 24004KT 6SM -SN FEW025 OVC030 M06/M08 A2970 RMK CF1SC7 SLP069

CYHM;2007-02-02 09:00;CYHM 020900Z 23003KT 7SM -SN SCT027 OVC033 M06/M08 A2968 RMK CF3SC5 SLP064

CYHM;2007-02-02 10:00;CYHM 021000Z 23005KT 8SM -SN OVC032 M06/M08 A2969 RMK SC8 SLP067

CYHM;2007-02-02 11:00;CYHM 021100Z 23004KT 10SM -SN OVC037 M06/M09 A2968 RMK SC8 SLP062

CYHM;2007-02-02 12:00;CYHM 021200Z 19004KT 15SM -SN BKN035 OVC050 M06/M09 A2965 RMK SC6SC2 SLP053

CYHM;2007-02-02 13:00;CYHM 021300Z 19004KT 8SM -SN OVC035 M06/M09 A2964 RMK SC8 SLP051

CYHM;2007-02-02 14:00;CYHM 021400Z 20006KT 8SM -SN BKN033 OVC041 M06/M09 A2964 RMK SC6SC2 SLP050

CYHM;2007-02-02 15:00;CYHM 021500Z 23006KT 15SM -SHSN SCT021 BKN032 M05/M09 A2961 RMK SC3SC4 SLP040

CYHM;2007-02-02 16:00;CYHM 021600Z 24011KT 8SM -SHSN BKN028 OVC036 M05/M08 A2962 RMK SC6SC2 SLP041

CYHM;2007-02-02 16:53;CYHM 021653Z 25008KT 1 1/2SM -SN BKN011 OVC026 RMK SN1SF5SC2

CYHM;2007-02-02 17:00;CYHM 021700Z 25008KT 1 1/2SM -SN BKN013 OVC027 M05/M07 A2957 RMK SN1SF5SC2 SLP027

CYHM;2007-02-02 17:42;CYHM 021742Z 25008KT 3SM -SN BKN017 OVC029 RMK SC6SC2

CYHM;2007-02-02 18:00;CYHM 021800Z 24010KT 3SM -SN BKN015 OVC029 M05/M07 A2955 RMK SC6SC2 SLP018

CYHM;2007-02-02 19:00;CYHM 021900Z 24008KT 6SM -SN BKN017 OVC031 M04/M07 A2953 RMK SC5SC3 SLP013

CYHM;2007-02-02 19:20;CYHM 021920Z 25010KT 1 3/4SM -SN BKN014 OVC022 RMK SN2SC3SC3

CYHM;2007-02-02 19:25;CYHM 021925Z 25009KT 5/8SM -SN VV009 RMK SN8

CYHM;2007-02-02 19:30;CYHM 021930Z 25008KT 3/8SM SN VV005 RMK SN8

CYHM;2007-02-02 19:49;CYHM 021949Z 23008KT 3/4SM -SN VV010 RMK SN8

CYHM;2007-02-02 20:00;CYHM 022000Z 23008KT 2 1/2SM -SHSN BKN015 OVC030 M05/M06 A2951 RMK SN1SC4SC3 SLP006

CYHM;2007-02-02 20:15;CYHM 022015Z 23010KT 1 3/4SM -SN BKN012 OVC020 RMK SN2SC3SC3

CYHM;2007-02-02 20:29;CYHM 022029Z 22012KT 3/4SM -SN VV010 RMK SN8

CYHM;2007-02-02 21:00;CYHM 022100Z 22015KT 3/4SM -SN BKN012 OVC020 M04/M06 A2952 RMK SN2SC3SC3 SLP007

CYHM;2007-02-02 21:35;CYHM 022135Z 23017KT 3SM -SHSN SCT015 OVC030 RMK SC4SC4 DRSN

CYHM;2007-02-02 22:00;CYHM 022200Z 24017G22KT 3SM -SHSN DRSN FEW015 BKN035 BKN140 M04/M07 A2952 RMK CF2SC3AC2 /S01/ SLP010

CYHM;2007-02-02 23:00;CYHM 022300Z 25019KT 8SM DRSN FEW015 SCT025 BKN140 BKN180 M05/M12 A2955 RMK CF2SC2AC2AC1 SLP020

CYHM;2007-02-03 00:00;CYHM 030000Z 24018G23KT 10SM DRSN FEW015 FEW025 BKN140 BKN180 M06/M12 A2959 RMK CF1SC2AC2AC1 SLP035

CYHM;2007-02-03 01:00;CYHM 030100Z 24018KT 9SM -SHSN DRSN SCT020 BKN029 BKN050 M07/M10 A2963 RMK SC3SC2SC2 SLP048

CYHM;2007-02-03 01:09;CYHM 030109Z 24018KT 1SM -SN DRSN BKN010 OVC020 RMK SN2SC4SC2

CYHM;2007-02-03 01:25;CYHM 030125Z 25017KT 1 3/4SM -SN DRSN BKN014 OVC025 RMK SN1SC5SC2

CYHM;2007-02-03 02:00;CYHM 030200Z 26020G27KT 1SM -SN BLSN VV009 M09/M12 A2967 RMK SN8 SLP060

CYHM;2007-02-03 02:07;CYHM 030207Z 26019G26KT 1 3/4SM -SHSN DRSN BKN012 BKN040 RMK SN2SC3SC2

CYHM;2007-02-03 02:14;CYHM 030214Z 26019G27KT 4SM -SHSN DRSN SCT014 BKN040 RMK SC3SC2

CYHM;2007-02-03 03:00;CYHM 030300Z 26015G24KT 12SM SCT030 M10/M15 A2971 RMK SC3 SLP073

CYHM;2007-02-03 04:00;CYHM 030400Z 25017G24KT 15SM FEW030 M11/M17 A2973 RMK SC1 SLP081

CYHM;2007-02-03 05:00;CYHM 030500Z 24016KT 15SM FEW035 M12/M17 A2975 RMK SC2 SLP087

CYHM;2007-02-03 06:00;CYHM 030600Z 24016KT 15SM FEW035 FEW220 M12/M17 A2976 RMK SC2CI0 SLP092

CYHM;2007-02-03 07:00;CYHM 030700Z 24015G20KT 15SM DRSN FEW220 M12/M17 A2976 RMK CI1 SLP093

CYHM;2007-02-03 08:00;CYHM 030800Z 24016KT 15SM DRSN SKC M12/M16 A2977 RMK SLP095

CYHM;2007-02-03 09:00;CYHM 030900Z 24016KT 15SM DRSN SKC M13/M16 A2977 RMK SLP096

CYHM;2007-02-03 10:00;CYHM 031000Z 24016G21KT 15SM DRSN SKC M13/M17 A2978 RMK SLP099

CYHM;2007-02-03 11:00;CYHM 031100Z 24014G21KT 15SM DRSN SKC M14/M17 A2978 RMK FROIN SLP099

CYHM;2007-02-03 12:00;CYHM 031200Z 24013KT 15SM FEW030 M15/M18 A2979 RMK SC1 SLP104

CYHM;2007-02-03 13:00;CYHM 031300Z 24012KT 15SM FEW030 FEW250 M15/M18 A2979 RMK SC1CI0 SLP104

CYHM;2007-02-03 14:00;CYHM 031400Z 24010KT 15SM FEW030 FEW250 M15/M18 A2980 RMK SC1CI1 SLP107

CYHM;2007-02-03 15:00;CYHM 031500Z 24013KT 15SM FEW032 FEW250 M13/M17 A2979 RMK SC2CI0 SLP104

CYHM;2007-02-03 15:36;CYHM 031536Z 24014G19KT 12SM -SHSN DRSN FEW017 BKN034 BKN250 RMK CF2SC4CI1

CYHM;2007-02-03 16:00;CYHM 031600Z 23012KT 15SM FEW028 FEW250 M11/M14 A2978 RMK SC1CI0 SLP102

CYHM;2007-02-03 16:50;CYHM 031650Z 23015G21KT 1SM -SHSN DRSN BKN032 RMK SN3SC4

CYHM;2007-02-03 17:00;CYHM 031700Z 22015KT 3/8SM SHSN DRSN OVC032 M10/M12 A2975 RMK SN6SC2 SLP093

CYHM;2007-02-03 17:16;CYHM 031716Z CCA 23018KT 1 1/2SM -SHSN DRSN BKN025 RESN RMK SN2SC4

CYHM;2007-02-03 17:22;CYHM 031722Z 23018KT 8SM -SHSN DRSN BKN026 BKN041 RESN RMK SC5SC2 TCU ASOCTD

CYHM;2007-02-03 17:28;CYHM 031728Z 23030KT 3/4SM -SHSN BLSN BKN029 BKN042 RESN RMK BLSN2SC4SC2

CYHM;2007-02-03 17:42;CYHM 031742Z 23018G28KT 4SM -SHSN BLSN BKN029 RESN RMK SC6

CYHM;2007-02-03 18:00;CYHM 031800Z 23020KT 3SM -SHSN BLSN FEW018 BKN029 M09/M12 A2972 RMK CU2SC5 SLP081

CYHM;2007-02-03 18:15;CYHM 031815Z 22020KT 5/8SM -SHSN BLSN BKN014 OVC029 RMK BLSN2CU3SC2

CYHM;2007-02-03 18:26;CYHM 031826Z 22018KT 2 1/2SM -SHSN BLSN SCT014 BKN028 BKN042 RMK CU3SC3SC1

CYHM;2007-02-03 18:37;CYHM 031837Z 22017G23KT 8SM -SHSN DRSN FEW016 BKN028 OVC043 RMK CU2SC3SC2

CYHM;2007-02-03 18:43;CYHM 031843Z 23020KT 1 1/2SM -SHSN BLSN SCT016 BKN028 OVC041 RMK BLSN2CU2SC3SC2

CYHM;2007-02-03 19:00;CYHM 031900Z 23016G22KT 4SM -SHSN BLSN FEW018 BKN028 OVC041 M09/M13 A2970 RMK CU2SC6SC1 SLP073

CYHM;2007-02-03 19:22;CYHM 031922Z 23019G27KT 1 1/4SM -SHSN BLSN BKN010 OVC020 RMK BLSN2SC4SC2

CYHM;2007-02-03 19:47;CYHM 031947Z 22019G26KT 3/4SM -SHSN BLSN BKN012 OVC020 RMK BLSN3SC3SC2

CYHM;2007-02-03 19:56;CYHM 031956Z 22019G26KT 3/8SM -SHSN BLSN BKN009 OVC020 RMK BLSN4SC2SC2

CYHM;2007-02-03 20:00;CYHM 032000Z 22020G28KT 1/4SM -SHSN +BLSN VV008 M09/M11 A2969 RMK BLSN8 SLP070

CYHM;2007-02-03 21:00;CYHM 032100Z 23019G27KT 3/8SM -SHSN BLSN BKN010 OVC020 M09/M11 A2971 RMK BLSN4SC2SC2 VIS VRB 1/4-1/2 SLP076

CYHM;2007-02-03 21:35;CYHM 032135Z 24024G33KT 1/2SM -SHSN BLSN BKN015 BKN025 RMK BLSN3CU2SC2 VIS VRB 3/8-3/4

CYHM;2007-02-03 22:00;CYHM 032200Z 24022G31KT 1SM -SHSN BLSN SCT015 BKN025 BKN080 M10/M16 A2974 RMK BLSN2CU1SC2AC2 VIS VRB 3/4-11/4 SLP086

CYHM;2007-02-03 22:11;CYHM 032211Z 24022G29KT 2 1/4SM -SHSN BLSN FEW015 SCT025 BKN080 RMK BLSN1CU1SC2AC2 VIS VRB 13/4-3

CYHM;2007-02-03 22:27;CYHM 032227Z 24022KT 5SM -SHSN DRSN FEW015 SCT025 BKN080 RMK CU1SC2AC2

CYHM;2007-02-03 23:00;CYHM 032300Z 24019G25KT 8SM DRSN FEW015 FEW025 SCT080 M11/M17 A2976 RMK CU1SC2AC1 SLP093

CYHM;2007-02-04 00:00;CYHM 040000Z 24022G28KT 9SM DRSN FEW025 M11/M15 A2981 RMK SC2 SLP112

CYHM;2007-02-04 00:15;CYHM 040015Z 25022G28KT 1 3/4SM -SHSN BLSN VV012 RMK SN8

CYHM;2007-02-04 00:34;CYHM 040034Z 25020G26KT 5SM -SHSN DRSN SCT025 RMK SC4

CYHM;2007-02-04 01:00;CYHM 040100Z 24021G28KT 6SM -SHSN DRSN SCT025 M12/M17 A2985 RMK SC3 SLP126

CYHM;2007-02-04 02:00;CYHM 040200Z 25021G28KT 12SM DRSN FEW025 FEW060 M13/M19 A2988 RMK SC1SC1 SLP134

CYHM;2007-02-04 03:00;CYHM 040300Z 25021G28KT 15SM DRSN FEW025 M13/M18 A2990 RMK SC1 SLP143

CYHM;2007-02-04 04:00;CYHM 040400Z 24020G28KT 15SM DRSN FEW210 M14/M18 A2992 RMK CI1 SLP149

CYHM;2007-02-04 05:00;CYHM 040500Z 24018G26KT 15SM DRSN FEW210 M14/M19 A2994 RMK CI1 SLP155

CYHM;2007-02-04 06:00;CYHM 040600Z 24018G25KT 15SM DRSN FEW023 FEW220 M15/M19 A2995 RMK CF1CI1 SLP159

CYHM;2007-02-04 07:00;CYHM 040700Z 24020KT 15SM DRSN FEW220 M16/M19 A2995 RMK CI1 SLP160

CYHM;2007-02-04 08:00;CYHM 040800Z 24014KT 15SM DRSN FEW210 M16/M24 A2996 RMK CI1 SLP163

CYHM;2007-02-04 09:00;CYHM 040900Z 24013KT 15SM DRSN FEW210 M17/M23 A2996 RMK CI1 SLP163

CYHM;2007-02-04 10:00;CYHM 041000Z 24014G19KT 15SM DRSN FEW210 M17/M23 A2996 RMK CI1 SLP164

CYHM;2007-02-04 11:00;CYHM 041100Z 24012KT 15SM BKN210 M18/M23 A2996 RMK CI3 SLP164

CYHM;2007-02-04 12:00;CYHM 041200Z 24010KT 15SM FEW210 M18/M23 A2997 RMK CI2 SLP167

CYHM;2007-02-04 13:00;CYHM 041300Z 23012KT 15SM FEW025 FEW120 SCT230 M18/M23 A2997 RMK SC1AC1CI1 SC TR SLP169

CYHM;2007-02-04 14:00;CYHM 041400Z 24014KT 15SM FEW025 BKN250 M17/M24 A2997 RMK SC1CI2 SLP168

CYHM;2007-02-04 15:00;CYHM 041500Z 25015KT 15SM FEW025 BKN250 M16/M25 A2997 RMK CU1CI2 SLP168

CYHM;2007-02-04 16:00;CYHM 041600Z 25020G28KT 15SM FEW030 BKN250 M15/M24 A2997 RMK CU1CI4 SLP168

CYHM;2007-02-04 17:00;CYHM 041700Z CCA 26020G31KT 15SM DRSN FEW032 OVC250 M16/M25 A2996 RMK CU1CS7 SLP166

CYHM;2007-02-04 17:35;CYHM 041735Z 26017G26KT 10SM -SHSN DRSN BKN028 OVC250 RMK SC5CS3

CYHM;2007-02-04 18:00;CYHM 041800Z 26020G26KT 8SM FEW016 BKN023 OVC250 M16/M23 A2995 RMK CF1SC6CS2 SLP164

CYHM;2007-02-04 19:00;CYHM 041900Z 24022KT 7SM -SHSN DRSN FEW018 BKN029 OVC250 M16/M22 A2995 RMK CF1SC6CS2 SLP162

CYHM;2007-02-04 20:00;CYHM 042000Z 25020G26KT 6SM -SHSN DRSN FEW018 BKN030 BKN250 M16/M22 A2996 RMK CF2SC2CS2 SLP165

CYHM;2007-02-04 21:00;CYHM 042100Z 25020G27KT 8SM -SHSN DRSN FEW022 BKN038 BKN250 M16/M24 A2997 RMK CF2SC2CI2 SLP172

CYHM;2007-02-04 22:00;CYHM 042200Z 26019G25KT 9SM DRSN FEW020 SCT040 BKN085 BKN250 M16/M25 A2999 RMK CF2SC2AC2CI2 SLP178

CYHM;2007-02-04 23:00;CYHM 042300Z 25019KT 12SM FEW020 FEW040 BKN090 BKN250 M16/M25 A3001 RMK CU1SC2AC2CI2 SLP185

CYHM;2007-02-05 00:00;CYHM 050000Z 25018G25KT 15SM FEW025 SCT040 BKN090 M16/M24 A3004 RMK CF1SC2AC4 SLP193

CYHM;2007-02-05 01:00;CYHM 050100Z 25015KT 15SM SCT060 BKN090 M16/M25 A3005 RMK SC4AC2 SLP198

CYHM;2007-02-05 02:00;CYHM 050200Z 25015KT 15SM FEW040 SCT060 M16/M25 A3005 RMK SC2SC2 SLP198

CYHM;2007-02-05 03:00;CYHM 050300Z 25016KT 15SM FEW060 M17/M24 A3005 RMK SC2 SLP199

CYHM;2007-02-05 04:00;CYHM 050400Z 24015KT 15SM FEW045 FEW210 M18/M24 A3005 RMK SC1CI1 SLP198

CYHM;2007-02-05 05:00;CYHM 050500Z 25014G19KT 15SM FEW040 FEW210 M18/M24 A3005 RMK SC1CI1 SLP199

CYHM;2007-02-05 06:00;CYHM 050600Z 24013G18KT 15SM FEW210 M18/M24 A3005 RMK CI1 SLP198

CYHM;2007-02-05 07:00;CYHM 050700Z 24015G20KT 15SM FEW210 M19/M24 A3006 RMK CI1 SLP200

CYHM;2007-02-05 08:00;CYHM 050800Z 24016KT 15SM FEW210 M19/M24 A3007 RMK CI1 SLP203

CYHM;2007-02-05 09:00;CYHM 050900Z 24013G18KT 15SM FEW210 M19/M24 A3007 RMK CI1 SLP204

CYHM;2007-02-05 10:00;CYHM 051000Z 24015G20KT 15SM FEW210 M19/M25 A3007 RMK CI1 SLP205

CYHM;2007-02-05 11:00;CYHM 051100Z 24017KT 15SM FEW210 M19/M24 A3008 RMK CI1 SLP208

CYHM;2007-02-05 12:00;CYHM 051200Z 25021KT 15SM FEW210 M19/M25 A3008 RMK CI1 SLP209

CYHM;2007-02-05 13:00;CYHM 051300Z 25020KT 15SM FEW024 FEW210 M19/M25 A3010 RMK CU1CI1 SLP215

CYHM;2007-02-05 14:00;CYHM 051400Z 24022G27KT 15SM FEW024 FEW210 M19/M24 A3011 RMK CU1CI1 CU TR SLP219

CYHM;2007-02-05 15:00;CYHM 051500Z 25024KT 15SM FEW024 FEW210 M18/M24 A3013 RMK CU1CI2 CU TR SLP224

CYHM;2007-02-05 16:00;CYHM 051600Z 25026G32KT 15SM FEW024 FEW180 FEW210 M16/M22 A3014 RMK CU1AC1CI1 CU TR AC TR SLP228

CYHM;2007-02-05 17:00;CYHM 051700Z 25028G33KT 15SM FEW025 BKN140 M15/M21 A3014 RMK CU1AC5 CU TR SLP229

CYHM;2007-02-05 18:00;CYHM 051800Z 25028KT 15SM FEW055 FEW140 SCT180 M14/M20 A3014 RMK SC1AC2AC2 SC TR SLP227

CYHM;2007-02-05 19:00;CYHM 051900Z 26028KT 15SM FEW029 FEW140 SCT240 M13/M19 A3014 RMK CU1AC1CI1 SLP228

CYHM;2007-02-05 20:00;CYHM 052000Z 24015G26KT 15SM FEW026 FEW180 BKN250 M12/M18 A3015 RMK CU1AC1CI1 SLP230

CYHM;2007-02-05 21:00;CYHM 052100Z 25018G28KT 15SM FEW024 FEW180 BKN250 M12/M18 A3016 RMK CU1AC1CI1 SLP235

CYHM;2007-02-05 22:00;CYHM 052200Z 25018G29KT 15SM FEW022 BKN250 M12/M18 A3018 RMK CU1CI1 SLP240

CYHM;2007-02-05 23:00;CYHM 052300Z 25015G22KT 15SM FEW022 FEW250 M13/M18 A3020 RMK CU1CI1 SLP246

CYHM;2007-02-06 00:00;CYHM 060000Z 24015G22KT 15SM FEW020 FEW250 M13/M19 A3021 RMK CU1CI1 CU TR CI TR SLP252

CYHM;2007-02-06 01:00;CYHM 060100Z 24016G22KT 15SM FEW110 FEW250 M14/M20 A3022 RMK AC1CI1 AC TR CI TR SLP255

CYHM;2007-02-06 02:00;CYHM 060200Z 24015G22KT 15SM FEW110 M14/M21 A3022 RMK AC1 SLP255

CYHM;2007-02-06 03:00;CYHM 060300Z 23015G22KT 15SM BKN120 M14/M21 A3021 RMK AC2 SLP253

CYHM;2007-02-06 04:00;CYHM 060400Z 24016G24KT 15SM SCT110 M15/M21 A3020 RMK AS2 SLP249

CYHM;2007-02-06 05:00;CYHM 060500Z 24014KT 15SM SCT250 M15/M21 A3020 RMK CI2 SLP249

CYHM;2007-02-06 06:00;CYHM 060600Z 24015KT 15SM FEW070 BKN220 M16/M21 A3020 RMK AC1CI2 SLP247

CYHM;2007-02-06 07:00;CYHM 060700Z 24014KT 15SM BKN120 M16/M21 A3020 RMK AC3 SLP246

CYHM;2007-02-06 08:00;CYHM 060800Z 24012KT 15SM FEW120 SCT220 M16/M21 A3020 RMK AC1CI2 SLP246

CYHM;2007-02-06 09:00;CYHM 060900Z 24014KT 15SM FEW130 FEW220 M17/M21 A3018 RMK AC1CI1 SLP241

CYHM;2007-02-06 10:00;CYHM 061000Z 24014KT 15SM FEW220 M17/M22 A3018 RMK CI1 CI TR SLP240

CYHM;2007-02-06 11:00;CYHM 061100Z 24013KT 15SM FEW120 M18/M22 A3019 RMK AC1 AC TR SLP242

CYHM;2007-02-06 12:00;CYHM 061200Z 24013KT 15SM FEW120 M18/M22 A3019 RMK AC1 AC TR SLP243

CYHM;2007-02-06 13:00;CYHM 061300Z 24014KT 15SM FEW120 M18/M22 A3019 RMK AC1 SLP245

CYHM;2007-02-06 14:00;CYHM 061400Z 25014KT 15SM FEW025 FEW120 M17/M21 A3019 RMK CU1AC1 CU TR AC TR SLP245

CYHM;2007-02-06 15:00;CYHM 061500Z 25015KT 15SM FEW025 FEW120 M16/M20 A3018 RMK CU1AC1 CU TR AC TR SLP241

CYHM;2007-02-06 16:00;CYHM 061600Z 23013KT 15SM FEW025 FEW045 M15/M19 A3017 RMK CU1SC1 CU TR SC TR SLP237

CYHM;2007-02-06 17:00;CYHM 061700Z 25015KT 15SM FEW025 FEW100 M13/M19 A3016 RMK CU1AC1 AC TR SLP233

CYHM;2007-02-06 18:00;CYHM 061800Z 26018G24KT 15SM FEW025 FEW100 M13/M20 A3013 RMK CU1AC1 SLP225

CYHM;2007-02-06 19:00;CYHM 061900Z 25018G24KT 15SM FEW025 FEW045 FEW120 M13/M21 A3011 RMK CU1SC1AC1 SLP218

CYHM;2007-02-06 20:00;CYHM 062000Z 24014G22KT 15SM FEW022 SCT250 M13/M21 A3010 RMK CU2CI0 CONTRAILS SLP212

CYHM;2007-02-06 21:00;CYHM 062100Z 24013KT 15SM FEW024 BKN250 M13/M21 A3007 RMK CU1CI2 SLP204

CYHM;2007-02-06 22:00;CYHM 062200Z 24010KT 15SM FEW022 SCT160 BKN250 M13/M21 A3005 RMK CU1AS1CI1 SLP196

CYHM;2007-02-06 23:00;CYHM 062300Z 24011KT 15SM FEW022 BKN160 BKN250 M14/M21 A3004 RMK CU1AS2CI1 CU TR SLP192

CYHM;2007-02-07 00:00;CYHM 070000Z 24007KT 15SM FEW160 SCT250 M15/M22 A3002 RMK AS1CI0 SLP188

CYHM;2007-02-07 01:00;CYHM 070100Z 23006KT 15SM BKN044 BKN250 M16/M21 A3001 RMK SC6CI1 SLP183

CYHM;2007-02-07 02:00;CYHM 070200Z 23007KT 15SM FEW044 FEW150 M15/M21 A2998 RMK SC1AS1 SLP174

CYHM;2007-02-07 03:00;CYHM 070300Z 24006KT 15SM BKN048 M15/M20 A2997 RMK SC7 SLP171

CYHM;2007-02-07 03:27;CYHM 070327Z 24005KT 15SM -SHSN FEW027 SCT044 RMK CF1SC2

CYHM;2007-02-07 04:00;CYHM 070400Z 22007KT 15SM -SHSN FEW042 BKN160 M17/M21 A2995 RMK SC1AC2 SLP164

CYHM;2007-02-07 05:00;CYHM 070500Z 24006KT 15SM FEW160 FEW250 M17/M20 A2994 RMK AC1CI1 SLP161

CYHM;2007-02-07 06:00;CYHM 070600Z 24008KT 15SM FEW250 M15/M19 A2994 RMK CI1 SLP157

CYHM;2007-02-07 07:00;CYHM 070700Z 24008KT 15SM FEW048 SCT130 SCT250 M16/M20 A2994 RMK SC1AC2CI1 SLP157

CYHM;2007-02-07 08:00;CYHM 070800Z 25008KT 15SM FEW044 FEW130 M17/M20 A2993 RMK SC1AC1 SC TR AC TR SLP155

CYHM;2007-02-07 09:00;CYHM 070900Z 24008KT 15SM FEW250 M17/M20 A2991 RMK CI1 CI TR SLP150

CYHM;2007-02-07 10:00;CYHM 071000Z 25009KT 15SM FEW250 M17/M20 A2992 RMK CI1 CI TR SLP152

CYHM;2007-02-07 11:00;CYHM 071100Z 25009KT 15SM SKC M17/M20 A2994 RMK SLP157

CYHM;2007-02-07 12:00;CYHM 071200Z 26008KT 15SM SKC M17/M20 A2994 RMK SLP161

CYHM;2007-02-07 13:00;CYHM 071300Z 24010KT 15SM FEW020 M17/M21 A2996 RMK CU1 SLP166

CYHM;2007-02-07 14:00;CYHM 071400Z 24014KT 15SM FEW020 M15/M19 A2998 RMK CU1 CU TR SLP172

CYHM;2007-02-07 15:00;CYHM 071500Z 25018KT 15SM FEW020 M13/M18 A2998 RMK CU1 SLP173

CYHM;2007-02-07 16:00;CYHM 071600Z 24014KT 15SM FEW025 FEW220 M12/M17 A3000 RMK CU1CI1 CU TR CI TR SLP179

CYHM;2007-02-07 17:00;CYHM 071700Z 24018G28KT 15SM FEW025 FEW120 M11/M16 A3000 RMK CU1AC1 CU TR SLP178

CYHM;2007-02-07 18:00;CYHM 071800Z 25020G25KT 15SM FEW025 FEW120 M10/M17 A2998 RMK CU1AC1 SLP172

CYHM;2007-02-07 19:00;CYHM 071900Z 24020KT 15SM FEW028 FEW044 M10/M16 A2998 RMK CU1SC1 SLP171

CYHM;2007-02-07 20:00;CYHM 072000Z 25015G24KT 15SM BKN028 M10/M17 A2998 RMK CU5 SC ASOCTD SLP171

CYHM;2007-02-07 21:00;CYHM 072100Z 25015G24KT 15SM BKN030 M10/M17 A2999 RMK SC7 SLP175

CYHM;2007-02-07 22:00;CYHM 072200Z 24016G22KT 15SM FEW032 SCT040 M11/M18 A2998 RMK CF1SC3 CF TR CU ASOCTD SLP172

CYHM;2007-02-07 23:00;CYHM 072300Z 23014G26KT 15SM BKN037 M10/M18 A2998 RMK SC6 SLP171

CYHM;2007-02-08 00:00;CYHM 080000Z 24015KT 15SM BKN035 M11/M18 A2997 RMK SC6 SLP169

CYHM;2007-02-08 01:00;CYHM 080100Z 24014KT 15SM BKN035 M12/M18 A2997 RMK SC6 SLP167

CYHM;2007-02-08 02:00;CYHM 080200Z 23015KT 15SM BKN038 M12/M18 A2995 RMK SC7 SLP162

CYHM;2007-02-08 03:00;CYHM 080300Z 24014KT 15SM BKN038 M11/M17 A2995 RMK SC7 SLP160

CYHM;2007-02-08 04:00;CYHM 080400Z 23012KT 15SM FEW040 M12/M18 A2994 RMK SC1 SLP155

CYHM;2007-02-08 05:00;CYHM 080500Z 23012KT 15SM FEW040 M12/M18 A2992 RMK SC1 SLP149

CYHM;2007-02-08 06:00;CYHM 080600Z 23012KT 15SM SKC M13/M18 A2991 RMK SLP146

CYHM;2007-02-08 07:00;CYHM 080700Z 23012KT 15SM SKC M13/M18 A2989 RMK SLP140

CYHM;2007-02-08 08:00;CYHM 080800Z 23012KT 15SM FEW250 M14/M18 A2989 RMK CI1 SLP140

CYHM;2007-02-08 09:00;CYHM 080900Z 23012KT 15SM FEW220 M13/M17 A2987 RMK CI1 SLP133

CYHM;2007-02-08 10:00;CYHM 081000Z 23012KT 15SM BKN150 M14/M17 A2986 RMK AC4 FROIN SLP130

CYHM;2007-02-08 11:00;CYHM 081100Z 23012KT 15SM BKN140 M13/M17 A2987 RMK AC6 FROIN SLP133

CYHM;2007-02-08 12:00;CYHM 081200Z 24013KT 15SM BKN130 M14/M17 A2989 RMK AC5 SLP141

CYHM;2007-02-08 13:00;CYHM 081300Z 25013KT 15SM FEW025 SCT130 M13/M16 A2991 RMK CU1AC3 CU TR SLP148

CYHM;2007-02-08 14:00;CYHM 081400Z 24016KT 15SM FEW019 FEW056 BKN100 M12/M15 A2994 RMK CU1SC2AC2 SLP155

CYHM;2007-02-08 14:18;CYHM 081418Z 25014G22KT 8SM -SHSN FEW015 BKN027 RMK SC2SC3

CYHM;2007-02-08 15:00;CYHM 081500Z 27018G26KT 10SM -SHSN FEW022 SCT034 M09/M14 A2995 RMK CU1SC2 SLP159

CYHM;2007-02-08 16:00;CYHM 081600Z 27020G26KT 10SM -SHSN FEW018 SCT024 M08/M12 A2997 RMK CF1SC2 SLP166

CYHM;2007-02-08 16:53;CYHM 081653Z 29018KT 15SM FEW014 FEW022 RMK CU1SC1

CYHM;2007-02-08 17:00;CYHM 081700Z 28016KT 15SM FEW018 M07/M11 A2997 RMK CU1 SLP165

CYHM;2007-02-08 18:00;CYHM 081800Z 28016KT 15SM FEW020 BKN026 BKN100 M06/M11 A2995 RMK CU2SC3AC0 AC TR SLP159

CYHM;2007-02-08 18:26;CYHM 081826Z 27020G25KT 10SM -SHSN SCT023 BKN028 RMK CU3SC2

CYHM;2007-02-08 20:00;CYHM 082000Z 24021G28KT 210V290 10SM FEW018 BKN027 BKN100 M07/M12 A2995 RMK CU2SC3AC2 SLP157

CYHM;2007-02-08 21:00;CYHM 082100Z 23021KT 15SM FEW026 BKN120 M08/M13 A2993 RMK SC2AC6 SLP152

CYHM;2007-02-08 22:00;CYHM 082200Z 23017KT 15SM FEW028 BKN120 M08/M14 A2991 RMK SC1AC5 SLP145

CYHM;2007-02-08 23:00;CYHM 082300Z 24020G25KT 15SM FEW028 FEW120 M08/M14 A2989 RMK SC1AC2 SLP138

CYHM;2007-02-09 00:00;CYHM 090000Z 24018G24KT 15SM FEW030 M09/M13 A2989 RMK SC1 SLP140

CYHM;2007-02-09 01:00;CYHM 090100Z 24018G23KT 15SM BKN041 M09/M13 A2988 RMK SC7 SLP137

CYHM;2007-02-09 01:49;CYHM 090149Z 23022G31KT 15SM -SHSN FEW041 RMK SC2

CYHM;2007-02-09 02:00;CYHM 090200Z 24025G33KT 15SM -SHSN FEW041 M09/M12 A2988 RMK SC2 PCPN VRY LGT SLP134

CYHM;2007-02-09 03:00;CYHM 090300Z 25018KT 15SM -SHSN FEW032 M10/M13 A2988 RMK SC2 PCPN VRY LGT SLP135

CYHM;2007-02-09 04:00;CYHM 090400Z 24014G20KT 5SM -SHSN SCT027 BKN250 M10/M12 A2988 RMK SC3CI2 SLP135

CYHM;2007-02-09 05:00;CYHM 090500Z 25010KT 15SM -SHSN SCT015 BKN100 M10/M12 A2989 RMK CF4AC1 SLP138

CYHM;2007-02-09 06:00;CYHM 090600Z 26011KT 15SM FEW020 M09/M12 A2990 RMK CF1 SLP140

CYHM;2007-02-09 07:00;CYHM 090700Z 26012KT 15SM FEW020 M09/M13 A2991 RMK CF1 SLP145

CYHM;2007-02-09 08:00;CYHM 090800Z 27011KT 15SM FEW030 SCT056 M09/M14 A2994 RMK CF2SC2 SLP152

CYHM;2007-02-09 08:18;CYHM 090818Z 27010KT 8SM -SHSN BKN030 RMK SC6

CYHM;2007-02-09 09:00;CYHM 090900Z 27012KT 6SM -SHSN FEW025 BKN043 M09/M12 A2995 RMK CF1SC5 SLP158

CYHM;2007-02-09 10:00;CYHM 091000Z 28007KT 1 1/2SM -SHSN BKN013 M10/M11 A2998 RMK SN2SC6 VIS VRB 1 - 2 SLP167

CYHM;2007-02-09 10:11;CYHM 091011Z 30006KT 12SM -SHSN FEW012 BKN040 RMK CF2SC5

CYHM;2007-02-09 11:00;CYHM 091100Z 30007KT 15SM -SHSN BKN034 M11/M15 A3000 RMK SC6 SLP174

CYHM;2007-02-09 12:00;CYHM 091200Z 25005KT 15SM -SHSN BKN031 M11/M15 A3002 RMK SC5 SLP182

CYHM;2007-02-09 13:00;CYHM 091300Z 28010KT 10SM -SHSN BKN028 M10/M13 A3004 RMK SC7 SLP190

CYHM;2007-02-09 14:00;CYHM 091400Z CCA 25010KT 10SM -SHSN BKN029 M08/M12 A3004 RMK SC7 SLP190

CYHM;2007-02-09 15:00;CYHM 091500Z 25016KT 10SM -SHSN BKN036 M08/M11 A3005 RMK SC7 SLP191

CYHM;2007-02-09 16:00;CYHM 091600Z 24016KT 3SM -SHSN FEW022 BKN036 M09/M11 A3005 RMK SC2SC5 CU ASOCTD SLP193

CYHM;2007-02-09 17:00;CYHM 091700Z 26016KT 4SM -SHSN SCT018 BKN028 M08/M11 A3006 RMK SC4SC3 SLP194

CYHM;2007-02-09 18:00;CYHM 091800Z 27018KT 5SM -SHSN SCT024 BKN029 M07/M10 A3005 RMK SC3SC4 SLP191

CYHM;2007-02-09 19:00;CYHM 091900Z 28014KT 15SM FEW020 FEW028 M06/M10 A3004 RMK CU1SC1 CU TR SC TR SLP188

CYHM;2007-02-09 20:00;CYHM 092000Z 28013G18KT 15SM FEW024 M06/M10 A3004 RMK SC2 SLP187

CYHM;2007-02-09 21:00;CYHM 092100Z 26012KT 15SM FEW018 M05/M10 A3004 RMK SC2 SLP187

CYHM;2007-02-09 22:00;CYHM 092200Z 24009KT 15SM FEW018 FEW028 SCT250 M06/M10 A3003 RMK CU1SC2CI0 SLP185

CYHM;2007-02-09 23:00;CYHM 092300Z 23011KT 15SM SCT017 BKN028 M07/M09 A3003 RMK SC4SC3 SLP185

CYHM;2007-02-10 00:00;CYHM 100000Z 24013KT 15SM OVC021 M06/M09 A3004 RMK SC8 SLP189

CYHM;2007-02-10 00:35;CYHM 100035Z 24015KT 15SM -SHSN OVC017 RMK SC8

CYHM;2007-02-10 01:00;CYHM 100100Z 24014KT 15SM -SHSN OVC017 M06/M09 A3005 RMK SC8 SLP191

CYHM;2007-02-10 02:00;CYHM 100200Z 24012KT 15SM -SHSN BKN020 OVC040 M07/M10 A3004 RMK SC6SC2 PCPN VRY LGT SLP190

CYHM;2007-02-10 02:29;CYHM 100229Z 25010KT 15SM FEW019 FEW190 RMK SC1AC2

CYHM;2007-02-10 03:00;CYHM 100300Z 23007KT 15SM FEW042 BKN180 M09/M12 A3004 RMK SC2AC1 SLP187

CYHM;2007-02-10 04:00;CYHM 100400Z 23008KT 15SM FEW040 BKN170 M10/M13 A3002 RMK SC1AC4 SLP181

CYHM;2007-02-10 05:00;CYHM 100500Z 22005KT 15SM BKN170 M12/M14 A3001 RMK AC6 SLP176

CYHM;2007-02-10 06:00;CYHM 100600Z 23007KT 15SM FEW170 M12/M14 A2998 RMK AC2 SLP170

CYHM;2007-02-10 07:00;CYHM 100700Z 23009KT 15SM BKN033 M11/M14 A2997 RMK SC4 SLP166

CYHM;2007-02-10 08:00;CYHM 100800Z 23007KT 15SM BKN043 M12/M14 A2996 RMK SC6 SLP163

CYHM;2007-02-10 09:00;CYHM 100900Z 26009KT 10SM -SHSN OVC045 M10/M13 A2995 RMK SC8 SLP158

CYHM;2007-02-10 10:00;CYHM 101000Z 26011KT 12SM -SHSN OVC044 M09/M12 A2996 RMK SC8 SLP160

CYHM;2007-02-10 11:00;CYHM 101100Z 26009KT 15SM -SHSN BKN041 M10/M13 A2996 RMK SC5 SLP160

CYHM;2007-02-10 12:00;CYHM 101200Z 25010KT 15SM BKN044 M10/M14 A2996 RMK SC7 SLP161

CYHM;2007-02-10 13:00;CYHM 101300Z 25010KT 15SM BKN048 M10/M13 A2998 RMK SC7 SLP167

CYHM;2007-02-10 13:15;CYHM 101315Z 24012KT 15SM -SHSN BKN050 RMK SC7

CYHM;2007-02-10 14:00;CYHM 101400Z 24013KT 12SM -SHSN BKN053 M10/M13 A2999 RMK SC7 SLP172

CYHM;2007-02-10 15:00;CYHM 101500Z 24015KT 15SM FEW017 FEW055 M09/M12 A3000 RMK CU1SC1 SLP173

CYHM;2007-02-10 15:44;CYHM 101544Z 24012G19KT 12SM -SHSN BKN019 BKN055 RMK SC6SC1

CYHM;2007-02-10 16:00;CYHM 101600Z 24016KT 12SM -SHSN BKN020 M08/M11 A3001 RMK SC7 SLP178

CYHM;2007-02-10 17:00;CYHM 101700Z CCA 25017KT 12SM -SHSN SCT022 SCT039 M06/M10 A3002 RMK SC3SC1 SLP180

CYHM;2007-02-10 18:00;CYHM 101800Z 26017G22KT 15SM -SHSN BKN026 M06/M12 A3001 RMK SC5 PCPN VRY LGT SLP180

CYHM;2007-02-10 19:00;CYHM 101900Z 28014G22KT 15SM -SHSN BKN028 M06/M12 A3002 RMK SC6 PCPN VRY LGT SLP181

CYHM;2007-02-10 20:00;CYHM 102000Z 27018KT 14SM -SHSN SCT026 BKN036 M06/M12 A3003 RMK SC4SC2 PCPN VRY LGT SLP186

CYHM;2007-02-10 21:00;CYHM 102100Z 26017KT 15SM SCT026 BKN035 M07/M12 A3006 RMK SC3SC4 SLP194

CYHM;2007-02-10 22:00;CYHM 102200Z 27016KT 15SM FEW025 BKN034 M07/M13 A3008 RMK SC2SC2 SLP201

CYHM;2007-02-10 23:00;CYHM 102300Z 26013KT 15SM FEW025 SCT035 M09/M14 A3010 RMK SC2SC2 SLP207

CYHM;2007-02-11 00:00;CYHM 110000Z 25012KT 15SM FEW026 M10/M14 A3011 RMK SC2 SLP214

CYHM;2007-02-11 01:00;CYHM 110100Z 25011KT 15SM FEW026 M10/M14 A3012 RMK SC1 SLP217

CYHM;2007-02-11 02:00;CYHM 110200Z 24008KT 15SM FEW026 M11/M14 A3012 RMK SC1 SLP217

CYHM;2007-02-11 03:00;CYHM 110300Z 23006KT 15SM FEW025 FEW070 M13/M15 A3011 RMK SC1AC1 SC TR AC TR SLP213

CYHM;2007-02-11 04:00;CYHM 110400Z 22007KT 15SM FEW250 M14/M17 A3011 RMK CI1 SLP215

CYHM;2007-02-11 05:00;CYHM 110500Z 22007KT 15SM FEW100 M15/M17 A3012 RMK AC1 SLP216

CYHM;2007-02-11 06:00;CYHM 110600Z 23010KT 15SM FEW100 M13/M15 A3011 RMK AC1 SLP214

CYHM;2007-02-11 07:00;CYHM 110700Z 23008KT 15SM SCT032 M12/M14 A3011 RMK SC2 SLP214

CYHM;2007-02-11 08:00;CYHM 110800Z 23008KT 10SM -SHSN SCT030 BKN170 M12/M14 A3010 RMK SC3AC1 SLP211

CYHM;2007-02-11 09:00;CYHM 110900Z 24011KT 12SM -SHSN FEW030 OVC170 M12/M13 A3009 RMK SC2AC6 SLP207

CYHM;2007-02-11 10:00;CYHM 111000Z 23008KT 8SM -SHSN BKN026 OVC160 M11/M13 A3009 RMK SC7AC1 SLP207

CYHM;2007-02-11 11:00;CYHM 111100Z 23010KT 7SM -SHSN BKN023 OVC130 M11/M12 A3008 RMK SC6AC2 SLP204

CYHM;2007-02-11 12:00;CYHM 111200Z 23009KT 5SM -SHSN BKN018 OVC130 M10/M12 A3009 RMK SC7AC1 SLP205

CYHM;2007-02-11 12:31;CYHM 111231Z 23010KT 2 1/2SM -SHSN OVC018 RMK SC8

CYHM;2007-02-11 13:00;CYHM 111300Z 22011KT 2SM -SHSN OVC016 M09/M11 A3008 RMK SN1SC7 SLP203

CYHM;2007-02-11 13:28;CYHM 111328Z 22020G25KT 180V250 1 1/2SM -SHSN OVC014 RMK SN2SC6

CYHM;2007-02-11 14:00;CYHM 111400Z 22015KT 2 1/2SM -SHSN BKN014 OVC022 M10/M12 A3008 RMK SC6SC2 SLP204

CYHM;2007-02-11 14:25;CYHM 111425Z 21014KT 7SM -SHSN BKN016 OVC024 RMK SC7SC1

CYHM;2007-02-11 15:00;CYHM 111500Z 22016G22KT 8SM -SHSN OVC017 M09/M12 A3007 RMK SC8 SLP201

CYHM;2007-02-11 16:00;CYHM 111600Z 22020KT 8SM -SHSN OVC017 M09/M12 A3007 RMK SC8 SLP200

CYHM;2007-02-11 17:00;CYHM 111700Z 24016G24KT 6SM -SHSN DRSN FEW012 BKN017 BKN024 M08/M11 A3007 RMK CF2SC5SC1 SLP199

CYHM;2007-02-11 18:00;CYHM 111800Z 24020KT 15SM -SHSN DRSN BKN022 BKN150 M07/M12 A3005 RMK SC5AC2 SLP192

CYHM;2007-02-11 19:00;CYHM 111900Z 24020KT 15SM -SHSN DRSN FEW019 BKN025 BKN150 M07/M11 A3004 RMK CU1SC5AC2 SLP189

CYHM;2007-02-11 20:00;CYHM 112000Z 23018KT 15SM SCT020 BKN026 M07/M11 A3004 RMK CU3SC3 SLP188

CYHM;2007-02-11 21:00;CYHM 112100Z 23019KT 15SM FEW020 BKN026 BKN090 M07/M12 A3004 RMK CU2SC2AC2 SLP189

CYHM;2007-02-11 22:00;CYHM 112200Z 23015G20KT 14SM -SHSN FEW021 SCT027 BKN060 M08/M11 A3005 RMK CU2SC2SC2 PCPN VRY LGT SLP193

CYHM;2007-02-11 23:00;CYHM 112300Z 23014KT 15SM -SHSN SCT021 BKN059 OVC076 M07/M11 A3007 RMK SC3SC2AC2 PCPN VRY LGT SLP198

CYHM;2007-02-12 00:00;CYHM 120000Z 23013KT 15SM SCT025 BKN078 M07/M11 A3009 RMK SC4AC3 SLP204

CYHM;2007-02-12 01:00;CYHM 120100Z 23015KT 15SM FEW030 BKN080 M07/M11 A3008 RMK SC2AC5 SLP203

CYHM;2007-02-12 02:00;CYHM 120200Z 23016KT 15SM SCT030 OVC079 M07/M11 A3009 RMK SC4AC4 SLP204

CYHM;2007-02-12 03:00;CYHM 120300Z 24016KT 15SM FEW030 OVC075 M06/M11 A3011 RMK SC2AC6 SLP211

CYHM;2007-02-12 04:00;CYHM 120400Z 24015G20KT 12SM -SHSN OVC076 M06/M11 A3011 RMK AC8 SLP211

CYHM;2007-02-12 05:00;CYHM 120500Z 24012KT 15SM OVC076 M06/M10 A3011 RMK AC8 SLP211

CYHM;2007-02-12 06:00;CYHM 120600Z 25012KT 15SM BKN026 OVC072 M06/M10 A3012 RMK SC6AC2 SLP215

CYHM;2007-02-12 07:00;CYHM 120700Z 25011KT 12SM -SHSN FEW020 OVC072 M06/M10 A3013 RMK SC2AC6 SLP216

CYHM;2007-02-12 08:00;CYHM 120800Z 23008KT 12SM -SHSN FEW018 BKN034 OVC240 M07/M10 A3013 RMK CF2SC6CI1 SLP219

CYHM;2007-02-12 09:00;CYHM 120900Z 23007KT 10SM -SHSN FEW030 BKN190 M07/M10 A3013 RMK SC1AC3 SLP219

CYHM;2007-02-12 10:00;CYHM 121000Z 23006KT 10SM -SHSN FEW034 BKN180 M07/M09 A3014 RMK SC2AC2 SLP221

CYHM;2007-02-12 11:00;CYHM 121100Z 24006KT 10SM FEW034 BKN200 M07/M10 A3016 RMK SC1CI3 SLP227

CYHM;2007-02-12 12:00;CYHM 121200Z 25005KT 10SM BKN120 BKN180 M08/M10 A3017 RMK AC5AC1 SLP231

CYHM;2007-02-12 13:00;CYHM 121300Z 24006KT 10SM FEW025 BKN093 BKN160 M07/M10 A3018 RMK CU1AC5AC1 CU TR SLP236

CYHM;2007-02-12 14:00;CYHM 121400Z 24005KT 15SM FEW072 BKN086 M06/M09 A3020 RMK AC2AC2 SLP241

CYHM;2007-02-12 15:00;CYHM 121500Z 27006KT 15SM BKN084 BKN170 M05/M09 A3020 RMK AC5AC2 SLP241

CYHM;2007-02-12 16:00;CYHM 121600Z 28008KT 15SM SCT024 BKN082 BKN120 M04/M09 A3020 RMK SC3AC2AC1 CU ASOCTD SLP242

CYHM;2007-02-12 17:00;CYHM 121700Z 28009KT 15SM BKN026 BKN038 BKN180 M03/M09 A3021 RMK SC5SC2AC1 SLP244

CYHM;2007-02-12 18:00;CYHM 121800Z 27010KT 15SM FEW022 BKN032 BKN045 M03/M09 A3020 RMK CU1SC4SC2 SLP241

CYHM;2007-02-12 18:14;CYHM 121814Z 32006KT 15SM -SHSN SCT022 BKN028 RMK SC3SC4

CYHM;2007-02-12 19:00;CYHM 121900Z 33007KT 8SM -SHSN FEW026 BKN032 OVC042 M03/M09 A3020 RMK CU2SC4SC2 SLP240

CYHM;2007-02-12 20:00;CYHM 122000Z 35005KT 10SM -SHSN FEW024 SCT040 OVC130 M03/M09 A3020 RMK SC2SC2AC5 SLP240

CYHM;2007-02-12 21:00;CYHM 122100Z 05010KT 3SM -SHSN OVC032 M06/M09 A3023 RMK SC8 SLP250

CYHM;2007-02-12 21:27;CYHM 122127Z 06010KT 2 1/2SM -SN OVC033 RMK SC8

CYHM;2007-02-12 22:00;CYHM 122200Z 06010KT 3SM -SN OVC030 M06/M09 A3023 RMK SC8 SLP253

CYHM;2007-02-12 23:00;CYHM 122300Z 05006KT 5SM -SN OVC034 M06/M10 A3026 RMK SC8 SLP262

CYHM;2007-02-13 00:00;CYHM 130000Z 02009KT 9SM -SN FEW024 OVC038 M08/M12 A3029 RMK CF2SC6 SLP271

CYHM;2007-02-13 01:00;CYHM 130100Z 03007KT 15SM -SHSN FEW024 SCT038 M09/M14 A3031 RMK SC1SC2 SLP278

CYHM;2007-02-13 02:00;CYHM 130200Z 05008KT 15SM FEW038 SCT230 M11/M15 A3034 RMK SC1CI1 SC TR SLP288

CYHM;2007-02-13 03:00;CYHM 130300Z 03009KT 15SM FEW230 M12/M15 A3034 RMK CI1 SLP291

CYHM;2007-02-13 04:00;CYHM 130400Z 03012KT 15SM FEW024 FEW240 M12/M15 A3035 RMK SC1CI1 SC TR SLP292

CYHM;2007-02-13 05:00;CYHM 130500Z 03013KT 15SM FEW240 M14/M17 A3035 RMK CI1 SLP293

CYHM;2007-02-13 06:00;CYHM 130600Z 02012KT 15SM FEW240 M14/M20 A3038 RMK CI1 SLP304

CYHM;2007-02-13 07:00;CYHM 130700Z 01013KT 15SM FEW240 M15/M20 A3037 RMK CI1 SLP301

CYHM;2007-02-13 08:00;CYHM 130800Z 02014KT 15SM SCT230 M15/M20 A3036 RMK CI2 SLP298

CYHM;2007-02-13 09:00;CYHM 130900Z 03013KT 7SM -SHSN BKN015 BKN240 M15/M20 A3036 RMK SC2CI1 SLP299

CYHM;2007-02-13 10:00;CYHM 131000Z 02015G21KT 3SM -SN OVC019 M15/M19 A3036 RMK SC8 SLP298

CYHM;2007-02-13 10:30;CYHM 131030Z 02012KT 2 1/4SM -SN BKN018 OVC025 RMK SC5SC3

CYHM;2007-02-13 11:00;CYHM 131100Z 03015KT 1 1/4SM -SN OVC016 M16/M19 A3039 RMK SN3SC5 SLP308

CYHM;2007-02-13 11:13;CYHM 131113Z 03014KT 3/4SM -SN OVC017 RMK SN4SC4

CYHM;2007-02-13 12:00;CYHM 131200Z 02012KT 3/4SM -SN OVC014 M16/M18 A3039 RMK SN4SF4 SLP312

CYHM;2007-02-13 12:15;CYHM 131215Z 03012KT 5/8SM -SN OVC014 RMK SN6SF2

CYHM;2007-02-13 12:39;CYHM 131239Z 03012KT 1/8SM +SN OVC014 RMK SN6SF2

CYHM;2007-02-13 13:00;CYHM 131300Z 03012KT 1/8SM +SN VV003 M16/M18 A3040 RMK SN8 /S03/ SLP314

CYHM;2007-02-13 14:00;CYHM 131400Z 03013KT 3/8SM SN VV003 M15/M18 A3042 RMK SN8 /S04/ RESN SLP319

CYHM;2007-02-13 15:00;CYHM 131500Z 03013KT 3/8SM SN OVC014 M15/M17 A3039 RMK SN6SF2 /S05/ SLP312

CYHM;2007-02-13 16:00;CYHM 131600Z CCA 08013KT 1/8SM +SN VV003 M12/M13 A3037 RMK SN8 /S09/ SLP306

CYHM;2007-02-13 16:12;CYHM 131612Z CCA 08014G19KT 1/8SM SN +BLSN VV005 RMK SN8 RESN

CYHM;2007-02-13 16:32;CYHM 131632Z CCA 07016KT 1/2SM -SN BLSN BKN014 OVC028 RMK SN4SF2SC2 RESN

CYHM;2007-02-13 16:41;CYHM 131641Z 06023G28KT 1/8SM -SN +BLSN BKN014 OVC025 RMK SN4SF2SC2 RESN

CYHM;2007-02-13 17:00;CYHM 131700Z CCA 06024G29KT 1/8SM -SN +BLSN BKN008 OVC019 M12/M14 A3034 RMK SN4SF2SC2 RESN SLP294

CYHM;2007-02-13 18:00;CYHM 131800Z 06024G29KT 1/8SM -SN +BLSN BKN012 OVC020 M11/M13 A3030 RMK SN3SF2SC3 /S09/ SLP280

CYHM;2007-02-13 19:00;CYHM 131900Z 06026KT 1/8SM -SN +BLSN BKN009 OVC024 M11/M12 A3027 RMK SN3SF2SC3 SLP269

CYHM;2007-02-13 20:00;CYHM 132000Z 08015G22KT 1/8SM -SN +BLSN OVC012 M11/M12 A3026 RMK SN4SC4 SLP266

CYHM;2007-02-13 21:00;CYHM 132100Z 08018G27KT 1/8SM -SN +BLSN OVC014 M11/M13 A3023 RMK SN4SC4 SLP258

CYHM;2007-02-13 22:00;CYHM 132200Z 08018G26KT 1/8SM -SN +BLSN OVC017 M11/M13 A3021 RMK SN4SC4 SLP251

CYHM;2007-02-13 23:00;CYHM 132300Z 07018G25KT 1/8SM -SN +BLSN OVC013 M11/M12 A3017 RMK SN4SC4 SLP238

CYHM;2007-02-13 23:31;CYHM 132331Z 07018G25KT 1SM -SN BLSN OVC013 RMK SN4SC4

CYHM;2007-02-14 00:00;CYHM 140000Z 08016G24KT 1 3/4SM -SN BLSN OVC016 M11/M12 A3017 RMK SN3SC5 SLP238

CYHM;2007-02-14 01:00;CYHM 140100Z 07020G30KT 1SM -SN BLSN OVC015 M11/M12 A3013 RMK SN3SC5 SLP222

CYHM;2007-02-14 01:18;CYHM 140118Z 07020G28KT 1SM -SN BLSN OVC010 RMK SN5SC3

CYHM;2007-02-14 01:42;CYHM 140142Z 03020G30KT 1/8SM -SN +BLSN OVC009 RMK SN5SC3

CYHM;2007-02-14 02:00;CYHM 140200Z 03020G30KT 1/8SM -SN +BLSN OVC009 M13/M14 A3007 RMK SN5SC3 SLP204

CYHM;2007-02-14 03:00;CYHM 140300Z 03022G34KT 1/8SM -SN +BLSN OVC009 M14/M15 A3002 RMK SN5SC3 SLP187

CYHM;2007-02-14 04:00;CYHM 140400Z 03022G34KT 1/8SM -SN +BLSN OVC006 M14/M15 A3002 RMK SN6SC2 SLP185

CYHM;2007-02-14 05:00;CYHM 140500Z 03020G30KT 1/8SM -SN +BLSN OVC007 M14/M15 A3000 RMK SN6SC2 SLP180

CYHM;2007-02-14 06:00;CYHM 140600Z 03018G28KT 1/8SM -SN +BLSN OVC007 M14/M15 A2997 RMK SN6SC2 SLP169

CYHM;2007-02-14 07:00;CYHM 140700Z 04022G30KT 1/8SM -SN +BLSN OVC007 M14/M16 A2993 RMK SN6SC2 SLP155

CYHM;2007-02-14 08:00;CYHM 140800Z 03018G28KT 1/8SM -SN +BLSN OVC007 M15/M16 A2990 RMK SN6SC2 SLP145

CYHM;2007-02-14 09:00;CYHM 140900Z 02018G28KT 1/8SM -SN +BLSN OVC008 M15/M17 A2987 RMK SN6SC2 SLP134

CYHM;2007-02-14 10:00;CYHM 141000Z 03018G28KT 1/8SM -SN +BLSN OVC010 M15/M18 A2987 RMK SN6SC2 SLP134

CYHM;2007-02-14 10:50;CYHM 141050Z 02020G32KT 3/4SM -SN BLSN OVC016 RMK SN4SC4

CYHM;2007-02-14 11:00;CYHM 141100Z 02022G32KT 3/4SM -SN BLSN OVC017 M15/M18 A2987 RMK SN4SC4 SLP133

CYHM;2007-02-14 12:00;CYHM 141200Z 02022G30KT 1/2SM -SN BLSN OVC015 M15/M18 A2986 RMK SN4SC4 SLP129

CYHM;2007-02-14 12:23;CYHM 141223Z 02018G26KT 3/8SM -SN BLSN OVC018 RMK SN4SC4

CYHM;2007-02-14 13:00;CYHM 141300Z 02020G28KT 1/8SM -SN +BLSN OVC012 M15/M18 A2985 RMK SN6SC2 SLP128

CYHM;2007-02-14 14:00;CYHM 141400Z 02018G24KT 1/8SM -SN +BLSN OVC024 M15/M18 A2986 RMK SN4SC4 SLP131

CYHM;2007-02-14 15:00;CYHM 141500Z 36015G22KT 1SM -SN BLSN OVC018 M15/M17 A2988 RMK SN3SC5 SLP137

CYHM;2007-02-14 16:00;CYHM 141600Z 36015G22KT 2SM -SN BLSN OVC022 M14/M16 A2988 RMK SN3SC5 /S06/ SLP139

CYHM;2007-02-14 17:00;CYHM 141700Z 01012G18KT 1 3/4SM -SN BLSN OVC022 M13/M15 A2989 RMK SN3SC5 /S07/ SLP141

CYHM;2007-02-14 18:00;CYHM 141800Z 36012G18KT 2 1/4SM -SN BLSN OVC026 M13/M14 A2988 RMK SN2SC6 SLP136

CYHM;2007-02-14 18:27;CYHM 141827Z 36015KT 4SM -SN DRSN BKN026 BKN250 RMK SC6CI1

CYHM;2007-02-14 18:50;CYHM 141850Z 01012KT 15SM DRSN BKN020 BKN170 BKN250 RMK SC5AC1CI1

CYHM;2007-02-14 19:00;CYHM 141900Z 01012KT 15SM DRSN BKN020 BKN170 BKN250 M11/M14 A2987 RMK SC5AC1CI1 SLP132

CYHM;2007-02-14 19:33;CYHM 141933Z 36012KT 15SM -SHSN SCT022 BKN035 BKN180 RMK SC3SC2AC2 CU ASOCTD

CYHM;2007-02-14 20:00;CYHM 142000Z 34012KT 15SM -SHSN FEW022 FEW036 BKN160 BKN220 M10/M13 A2986 RMK CU1SC2AC3CI1 CU TR SLP131

CYHM;2007-02-14 21:00;CYHM 142100Z 34014KT 15SM FEW022 FEW045 SCT220 M09/M13 A2988 RMK CU1SC1CI2 CU TR SLP136

CYHM;2007-02-14 22:00;CYHM 142200Z 34014KT 15SM FEW022 SCT220 M10/M15 A2990 RMK CU1CI2 SLP143

CYHM;2007-02-14 23:00;CYHM 142300Z 32014G19KT 15SM FEW025 FEW220 M12/M16 A2993 RMK CU1CI1 CU TR SLP153

CYHM;2007-02-15 00:00;CYHM 150000Z 31010G15KT 15SM FEW220 M14/M17 A2995 RMK CI1 CI TR SLP162

CYHM;2007-02-15 01:00;CYHM 150100Z 30009KT 15SM SKC M15/M18 A2996 RMK SLP165

CYHM;2007-02-15 02:00;CYHM 150200Z 30008KT 15SM SKC M16/M19 A2997 RMK SLP168

CYHM;2007-02-15 03:00;CYHM 150300Z 31008KT 15SM FEW220 M17/M19 A2997 RMK CI2 SLP169

CYHM;2007-02-15 04:00;CYHM 150400Z 27006KT 15SM FEW210 M17/M19 A2996 RMK CI1 SLP167

CYHM;2007-02-15 05:00;CYHM 150500Z 26005KT 15SM FEW220 M17/M20 A2995 RMK CI1 SLP163

CYHM;2007-02-15 06:00;CYHM 150600Z 25004KT 15SM FEW210 M20/M22 A2995 RMK CI1 SLP163

CYHM;2007-02-15 07:00;CYHM 150700Z 26006KT 15SM FEW210 M20/M22 A2994 RMK CI1 SLP161

CYHM;2007-02-15 08:00;CYHM 150800Z 27007KT 15SM SKC M20/M25 A2994 RMK SLP159

CYHM;2007-02-15 09:00;CYHM 150900Z 26005KT 15SM FEW220 M21/M25 A2994 RMK CI1 SLP159

CYHM;2007-02-15 10:00;CYHM 151000Z 25005KT 15SM SKC M21/M26 A2995 RMK SLP161

CYHM;2007-02-15 11:00;CYHM 151100Z 26005KT 15SM FEW210 M22/M25 A2994 RMK CI1 SLP160

CYHM;2007-02-15 12:00;CYHM 151200Z 26005KT 15SM FEW025 FEW220 M21/M25 A2994 RMK CU1CI1 SLP161

CYHM;2007-02-15 13:00;CYHM 151300Z 26007KT 15SM FEW025 M20/M24 A2995 RMK CU1 CU TR SLP164

CYHM;2007-02-15 14:00;CYHM 151400Z 26008KT 15SM FEW025 FEW220 M19/M22 A2996 RMK CU1CI1 CU TR SLP168

CYHM;2007-02-15 15:00;CYHM 151500Z 27006KT 15SM FEW025 FEW036 SCT220 M16/M19 A2996 RMK CU1SC2CI1 CU TR SLP166

CYHM;2007-02-15 15:28;CYHM 151528Z 23007KT 10SM -SHSN SCT024 BKN057 RMK SC3SC2

CYHM;2007-02-15 16:00;CYHM 151600Z 25007KT 6SM -SHSN SCT019 BKN037 M14/M17 A2994 RMK SC4SC2 SLP162

CYHM;2007-02-15 17:00;CYHM 151700Z 25010KT 8SM -SHSN FEW015 SCT023 M13/M19 A2993 RMK CF1SC3 SLP158

CYHM;2007-02-15 18:00;CYHM 151800Z 20012G17KT 8SM -SHSN SCT022 BKN035 M12/M17 A2991 RMK SC3SC2 SLP150

CYHM;2007-02-15 19:00;CYHM 151900Z 30014G20KT 15SM -SHSN FEW025 BKN035 M10/M17 A2990 RMK CU2SC4 SLP145

CYHM;2007-02-15 19:48;CYHM 151948Z 27012KT 1 1/2SM -SHSN DRSN SCT018 BKN029 RMK SN2SC2SC4

CYHM;2007-02-15 20:00;CYHM 152000Z 27010G16KT 1 1/2SM -SHSN DRSN SCT018 BKN029 M11/M15 A2989 RMK SN2SC2SC4 SLP144

CYHM;2007-02-15 20:38;CYHM 152038Z 27012KT 3/8SM SHSN DRSN VV004 RMK SN8

CYHM;2007-02-15 20:48;CYHM 152048Z 26014G20KT 220V290 1 1/4SM -SHSN DRSN SCT018 OVC030 RESN RMK SN2CU1SC5

CYHM;2007-02-15 21:00;CYHM 152100Z 26021KT 1SM -SHSN BLSN SCT018 BKN029 M11/M13 A2989 RESN RMK SN2CU1SC4 SLP142

CYHM;2007-02-15 21:17;CYHM 152117Z 27017KT 10SM -SHSN DRSN FEW018 BKN031 BKN042 RMK CU1SC5SC2

CYHM;2007-02-15 21:37;CYHM 152137Z 26019G24KT 1SM -SHSN BLSN FEW018 BKN027 BKN042 RMK BLSN1CU1SC4SC1

CYHM;2007-02-15 21:49;CYHM 152149Z 27019G24KT 8SM -SHSN DRSN FEW018 FEW027 SCT042 RMK CU1SC2SC1

CYHM;2007-02-15 22:00;CYHM 152200Z 27020G26KT 240V310 8SM -SHSN DRSN FEW018 SCT028 M11/M15 A2989 RMK CU1SC4 SLP143

CYHM;2007-02-15 23:00;CYHM 152300Z 27017G24KT 220V290 15SM FEW028 FEW250 M12/M16 A2990 RMK SC1CI0 SLP145

CYHM;2007-02-16 00:00;CYHM 160000Z 24015KT 15SM FEW250 M12/M16 A2990 RMK CI1 SLP146

CYHM;2007-02-16 01:00;CYHM 160100Z 23012KT 15SM FEW032 M13/M18 A2988 RMK SC1 SLP141

CYHM;2007-02-16 02:00;CYHM 160200Z 25018KT 9SM -SHSN BKN027 BKN061 M11/M17 A2988 RMK SC5SC2 SLP138

CYHM;2007-02-16 03:00;CYHM 160300Z 24015KT 7SM -SHSN FEW026 M11/M15 A2986 RMK SC1 SLP130

CYHM;2007-02-16 04:00;CYHM 160400Z 25013KT 15SM FEW042 M11/M15 A2985 RMK SC2 SLP127

CYHM;2007-02-16 05:00;CYHM 160500Z 25015G20KT 15SM FEW042 FEW200 M11/M15 A2983 RMK SC1CI1 SLP121

CYHM;2007-02-16 06:00;CYHM 160600Z 26016G22KT 15SM SCT190 M12/M15 A2983 RMK AC2 SLP118

CYHM;2007-02-16 07:00;CYHM 160700Z 26015G22KT 15SM FEW190 M12/M16 A2981 RMK AC2 SLP113

CYHM;2007-02-16 08:00;CYHM 160800Z 26015G20KT 15SM BKN180 M12/M16 A2981 RMK AC3 SLP111

CYHM;2007-02-16 09:00;CYHM 160900Z 26014KT 15SM BKN190 M12/M15 A2979 RMK AC6 SLP105

CYHM;2007-02-16 10:00;CYHM 161000Z 25013G19KT 15SM SCT180 M12/M16 A2979 RMK AC3 SLP105

CYHM;2007-02-16 11:00;CYHM 161100Z 26013KT 15SM BKN200 M13/M16 A2980 RMK CI4 SLP108

CYHM;2007-02-16 12:00;CYHM 161200Z 26014KT 15SM SCT210 M13/M17 A2981 RMK CI3 SLP113

CYHM;2007-02-16 13:00;CYHM 161300Z 25014KT 15SM SCT210 M14/M17 A2984 RMK CI2 SLP121

CYHM;2007-02-16 14:00;CYHM 161400Z 25014KT 15SM FEW210 M13/M17 A2984 RMK CI1 SLP121

CYHM;2007-02-16 15:00;CYHM 161500Z 25014KT 15SM FEW210 M12/M16 A2983 RMK CI0 CI TR SLP120

CYHM;2007-02-16 16:00;CYHM 161600Z 26015KT 15SM FEW210 M10/M15 A2984 RMK CI1 SLP121

CYHM;2007-02-16 17:00;CYHM 161700Z 25016G21KT 15SM FEW210 M09/M14 A2981 RMK CI1 SLP114

CYHM;2007-02-16 18:00;CYHM 161800Z 23018G23KT 15SM FEW028 FEW210 M08/M14 A2980 RMK CU1CI1 CU TR SLP108

CYHM;2007-02-16 19:00;CYHM 161900Z 24019KT 10SM DRSN FEW028 SCT210 M07/M12 A2979 RMK CU1CI2 SLP105

CYHM;2007-02-16 20:00;CYHM 162000Z 24022KT 15SM DRSN BKN250 M07/M12 A2979 RMK CI2 SLP103

CYHM;2007-02-16 21:00;CYHM 162100Z 24020KT 15SM DRSN FEW025 SCT250 M07/M12 A2978 RMK CU1CI2 CU TR SLP101

CYHM;2007-02-16 22:00;CYHM 162200Z 24019G24KT 15SM DRSN FEW025 FEW250 M07/M12 A2978 RMK CU1CI1 CU TR SLP100

CYHM;2007-02-16 23:00;CYHM 162300Z 23018G27KT 15SM DRSN FEW015 FEW250 M09/M12 A2978 RMK CU2CI0 SLP100

CYHM;2007-02-17 00:00;CYHM 170000Z 23017KT 15SM BKN013 M10/M12 A2979 RMK SC6 SLP104

CYHM;2007-02-17 00:39;CYHM 170039Z 23014KT 15SM FEW013 RMK SC2

CYHM;2007-02-17 01:00;CYHM 170100Z 23014KT 15SM FEW013 M10/M12 A2979 RMK SC1 SLP105

CYHM;2007-02-17 02:00;CYHM 170200Z 23020KT 15SM FEW013 M10/M13 A2978 RMK SC1 SLP101

CYHM;2007-02-17 03:00;CYHM 170300Z 23020G27KT 15SM DRSN FEW200 M10/M14 A2977 RMK CI1 SLP098

CYHM;2007-02-17 04:00;CYHM 170400Z 23020G26KT 15SM DRSN SCT200 M11/M13 A2976 RMK CI4 SLP096

CYHM;2007-02-17 05:00;CYHM 170500Z 24022G30KT 15SM DRSN FEW190 M11/M14 A2977 RMK AC2 HVY DRSN SLP098

CYHM;2007-02-17 06:00;CYHM 170600Z CCA 24018G26KT 15SM DRSN FEW180 M11/M16 A2977 RMK AC2 HVY DRSN SLP097

CYHM;2007-02-17 07:00;CYHM 170700Z 24018G25KT 15SM DRSN SCT180 M11/M15 A2977 RMK AC3 HVY DRSN SLP095

CYHM;2007-02-17 08:00;CYHM 170800Z 24018KT 15SM DRSN SCT160 M11/M14 A2975 RMK AC2 SLP090

CYHM;2007-02-17 09:00;CYHM 170900Z 23018G24KT 15SM DRSN FEW027 SCT180 M10/M14 A2975 RMK SC2AC2 HVY DRSN SLP089

CYHM;2007-02-17 10:00;CYHM 171000Z 21012G18KT 15SM DRSN BKN130 M11/M14 A2974 RMK AC5 SLP087

CYHM;2007-02-17 11:00;CYHM 171100Z 22010KT 15SM BKN032 OVC120 M11/M13 A2973 RMK SC6AC2 SLP083

CYHM;2007-02-17 12:00;CYHM 171200Z 21008KT 7SM -SHSN FEW026 FEW120 M12/M13 A2972 RMK SC1AC2 SLP081

CYHM;2007-02-17 12:51;CYHM 171251Z 20008KT 15SM FEW120 FEW250 RMK AC1CI0

CYHM;2007-02-17 13:00;CYHM 171300Z 20008KT 15SM FEW120 FEW250 M12/M13 A2972 RMK AC1CI0 SLP082

CYHM;2007-02-17 14:00;CYHM 171400Z 21009KT 15SM FEW120 BKN250 M10/M12 A2972 RMK AC1CI2 SLP081

CYHM;2007-02-17 14:50;CYHM 171450Z 23008KT 9SM -SHSN BKN022 OVC250 RMK SC5CI2

CYHM;2007-02-17 15:00;CYHM 171500Z 23010KT 8SM -SHSN BKN022 OVC250 M08/M10 A2971 RMK SC5CI2 SLP078

CYHM;2007-02-17 16:00;CYHM 171600Z 24018KT 12SM -SHSN FEW035 BKN041 BKN250 M07/M10 A2970 RMK SC2SC3CI2 SLP073

CYHM;2007-02-17 17:00;CYHM 171700Z 24016KT 12SM FEW042 BKN170 M06/M10 A2968 RMK SC2AC3 SLP068

CYHM;2007-02-17 17:39;CYHM 171739Z 25011KT 9SM -SHSN BKN020 OVC044 RMK SC5SC3

CYHM;2007-02-17 18:00;CYHM 171800Z 25013KT 9SM -SHSN FEW020 OVC044 M05/M09 A2967 RMK SC2SC6 SLP063

CYHM;2007-02-17 19:00;CYHM 171900Z 24016KT 7SM -SHSN SCT018 OVC052 M05/M09 A2965 RMK SC4SC4 SLP057

CYHM;2007-02-17 20:00;CYHM 172000Z 24011KT 6SM -SHSN BKN022 OVC050 M05/M09 A2965 RMK SC6SC2 SLP055

CYHM;2007-02-17 21:00;CYHM 172100Z 23011KT 2 1/2SM -SN BKN019 OVC028 M05/M08 A2965 RMK SN1SC6SC2 SLP054

CYHM;2007-02-17 21:35;CYHM 172135Z 23010KT 1 3/4SM -SN BKN014 OVC022 RMK SN2SC4SC2

CYHM;2007-02-17 22:00;CYHM 172200Z 25009KT 1 3/4SM -SN BKN014 OVC022 M05/M07 A2965 RMK SN2SC3SC3 SLP056

CYHM;2007-02-17 23:00;CYHM 172300Z 25007KT 1 3/4SM -SN BKN014 OVC024 M06/M08 A2967 RMK SN2SC3SC3 /S01/ SLP062

CYHM;2007-02-17 23:31;CYHM 172331Z 25007KT 2 1/2SM -SN BKN015 BKN024 OVC075 RMK SN1SC4SC2AC1

CYHM;2007-02-18 00:00;CYHM 180000Z 25009KT 3SM -SN BKN016 BKN025 OVC075 M06/M08 A2968 RMK SC5SC2AC2 SLP067

CYHM;2007-02-18 01:00;CYHM 180100Z 25012KT 1 3/4SM -SN BKN015 OVC025 M07/M08 A2969 RMK SN2SC4SC2 SLP070

CYHM;2007-02-18 01:28;CYHM 180128Z 25011KT 1 1/2SM -SN VV014 RMK SN8

CYHM;2007-02-18 02:00;CYHM 180200Z 24011KT 3SM -SN SCT015 BKN025 OVC092 M07/M08 A2970 RMK SC3SC2AC2 SLP073

CYHM;2007-02-18 02:40;CYHM 180240Z 25008KT 8SM SCT025 OVC070 RESN RMK SC3AC5

CYHM;2007-02-18 03:00;CYHM 180300Z 25007KT 9SM FEW025 BKN068 M08/M09 A2971 RESN RMK SC2AC4 SLP074

CYHM;2007-02-18 03:35;CYHM 180335Z 26007KT 10SM -SHSN BKN063 RMK SC5

CYHM;2007-02-18 04:00;CYHM 180400Z 26007KT 15SM -SHSN FEW062 FEW120 M09/M10 A2971 RMK SC2AC1 SLP074

CYHM;2007-02-18 05:00;CYHM 180500Z 25006KT 8SM -SHSN FEW034 SCT060 M08/M09 A2971 RMK SC2SC2 SLP074

CYHM;2007-02-18 06:00;CYHM 180600Z 25007KT 8SM -SHSN BKN025 M09/M10 A2971 RMK SC6 SLP073

CYHM;2007-02-18 07:00;CYHM 180700Z 25005KT 12SM FEW025 SCT070 M10/M11 A2971 RMK SC2AC1 SLP073

CYHM;2007-02-18 08:00;CYHM 180800Z 26005KT 15SM FEW022 M10/M12 A2970 RMK SC2 SLP072

CYHM;2007-02-18 09:00;CYHM 180900Z 28004KT 15SM FEW020 BKN071 M11/M13 A2971 RMK SC2AC3 FROIN SLP076

CYHM;2007-02-18 10:00;CYHM 181000Z 26005KT 15SM FEW050 BKN079 M11/M13 A2972 RMK SC1AC4 FROIN SLP079

CYHM;2007-02-18 10:41;CYHM 181041Z 25004KT 7SM -SHSN FEW044 BKN069 BKN120 RMK CF1AC5AC2

CYHM;2007-02-18 11:00;CYHM 181100Z 24005KT 12SM -SHSN SCT070 BKN120 M13/M14 A2973 RMK AC3AC2 SLP081

CYHM;2007-02-18 12:00;CYHM 181200Z 27006KT 12SM -SHSN BKN025 BKN120 M11/M13 A2975 RMK SC5AC2 SLP088

CYHM;2007-02-18 13:00;CYHM 181300Z 27007KT 15SM FEW025 BKN130 BKN250 M11/M13 A2978 RMK SC2AC4CI1 SLP098

CYHM;2007-02-18 14:00;CYHM 181400Z 28008KT 15SM FEW025 SCT120 BKN250 M10/M13 A2980 RMK SC1AC2CI2 SLP106

CYHM;2007-02-18 15:00;CYHM 181500Z 30010KT 260V330 15SM FEW029 FEW250 M10/M14 A2982 RMK SC1CI1 SLP113

CYHM;2007-02-18 16:00;CYHM 181600Z 29015G22KT 240V320 15SM FEW029 SCT250 M09/M14 A2983 RMK SC2CI1 SLP116

CYHM;2007-02-18 17:00;CYHM 181700Z 30016KT 270V340 15SM FEW032 M10/M16 A2984 RMK SC2 SLP119

CYHM;2007-02-18 18:00;CYHM 181800Z 29016G22KT 15SM FEW032 M10/M16 A2985 RMK SC2 SLP123

CYHM;2007-02-18 19:00;CYHM 181900Z 29014G20KT 15SM FEW035 M10/M16 A2986 RMK SC2 SLP127

CYHM;2007-02-18 20:00;CYHM 182000Z 30017G24KT 15SM DRSN FEW035 M11/M17 A2989 RMK SC2 SLP137

CYHM;2007-02-18 21:00;CYHM 182100Z 30015G20KT 15SM VCSH FEW035 M12/M18 A2992 RMK SC2 SLP151

CYHM;2007-02-18 22:00;CYHM 182200Z 30015KT 15SM FEW030 M12/M18 A2995 RMK CF2 SLP159

CYHM;2007-02-18 23:00;CYHM 182300Z 30009KT 15SM FEW030 M13/M19 A2998 RMK SC2 SLP169

CYHM;2007-02-19 00:00;CYHM 190000Z 29008KT 15SM FEW030 M14/M19 A3000 RMK SC1 SLP178

CYHM;2007-02-19 01:00;CYHM 190100Z 28007KT 15SM FEW030 M15/M19 A3002 RMK SC2 SLP184

CYHM;2007-02-19 02:00;CYHM 190200Z 28005KT 15SM FEW030 M17/M19 A3004 RMK SC2 SLP192

CYHM;2007-02-19 03:00;CYHM 190300Z 24002KT 15SM SCT025 M17/M19 A3005 RMK SC3 SLP195

CYHM;2007-02-19 03:44;CYHM 190344Z 25002KT 10SM -SHSN FEW010 SCT025 BKN050 RMK CF1SC2SC2

CYHM;2007-02-19 04:00;CYHM 190400Z 23003KT 7SM -SHSN FEW022 OVC052 M15/M17 A3007 RMK CF2SC6 SLP200

CYHM;2007-02-19 05:00;CYHM 190500Z 00000KT 8SM -SHSN FEW027 BKN065 M16/M17 A3007 RMK CF2SC2 SLP201

CYHM;2007-02-19 06:00;CYHM 190600Z 21005KT 12SM -SHSN SCT031 M18/M19 A3007 RMK SC4 SLP204

CYHM;2007-02-19 07:00;CYHM 190700Z 22003KT 15SM FEW027 M17/M18 A3007 RMK SC2 SLP204

CYHM;2007-02-19 08:00;CYHM 190800Z 22005KT 15SM BKN170 M18/M19 A3008 RMK AS5 FROIN SLP207

CYHM;2007-02-19 09:00;CYHM 190900Z 24005KT 15SM FEW170 FEW220 M17/M19 A3008 RMK AC1CI1 FROIN SLP207

CYHM;2007-02-19 10:00;CYHM 191000Z 25005KT 15SM FEW160 FEW220 M18/M21 A3009 RMK AC1CI1 FROIN TR CI SLP209

CYHM;2007-02-19 11:00;CYHM 191100Z 26005KT 15SM FEW180 FEW220 M17/M20 A3008 RMK AC1CI1 FROIN SLP207

CYHM;2007-02-19 12:00;CYHM 191200Z 24004KT 15SM FEW025 FEW210 M20/M22 A3007 RMK SC1CI1 SC TR CI TR SLP206

CYHM;2007-02-19 13:00;CYHM 191300Z 24005KT 15SM FEW020 BKN130 BKN210 M19/M24 A3009 RMK CU1AC5CI1 CU TR SLP212

CYHM;2007-02-19 14:00;CYHM 191400Z 22004KT 15SM FEW020 BKN100 BKN130 BKN210 M16/M19 A3008 RMK CU1AC5AC1CI1 CU TR SLP209

CYHM;2007-02-19 15:00;CYHM 191500Z 20003KT 10SM FEW060 BKN083 OVC110 M13/M15 A3006 RMK SC2AC4AC1 SLP199

CYHM;2007-02-19 15:29;CYHM 191529Z 22004KT 10SM -SHSN FEW020 BKN053 OVC110 RMK CU1SC6AC2 CU TR

CYHM;2007-02-19 16:00;CYHM 191600Z 16006KT 10SM -SHSN BKN054 OVC100 M11/M13 A3001 RMK SC6AC2 SLP185

CYHM;2007-02-19 16:55;CYHM 191655Z 14007KT 10SM FEW025 BKN048 OVC086 RMK CF1SC6AC2

CYHM;2007-02-19 17:00;CYHM 191700Z 14007KT 10SM FEW025 BKN049 OVC086 M08/M12 A2999 RMK CF1SC6AC2 SLP176

CYHM;2007-02-19 18:00;CYHM 191800Z 19014KT 15SM OVC042 M07/M11 A2995 RMK SC8 SLP160

CYHM;2007-02-19 19:00;CYHM 191900Z 17007KT 15SM FEW025 OVC032 M07/M11 A2988 RMK CU1SC8 CU TR SLP138

CYHM;2007-02-19 20:00;CYHM 192000Z 18012KT 15SM BKN033 M06/M12 A2984 RMK SC7 SLP124

CYHM;2007-02-19 21:00;CYHM 192100Z 17010KT 15SM FEW180 SCT250 M06/M12 A2978 RMK AC1CI2 AC TR SLP102

CYHM;2007-02-19 22:00;CYHM 192200Z 15006KT 15SM FEW180 FEW250 M06/M12 A2975 RMK AC1CI1 CONTRAILS SLP090

CYHM;2007-02-19 23:00;CYHM 192300Z 15004KT 15SM FEW040 FEW180 SCT250 M07/M12 A2970 RMK SC1AS1CI1 SC TR CONTRAILS SLP074

CYHM;2007-02-20 00:00;CYHM 200000Z 17006KT 15SM SCT130 BKN250 M05/M10 A2965 RMK AC2CI1 CONTRAILS SLP057

CYHM;2007-02-20 01:00;CYHM 200100Z 20014G20KT 15SM FEW250 M01/M06 A2961 RMK CI1 SLP045

CYHM;2007-02-20 02:00;CYHM 200200Z 20016KT 15SM FEW180 SCT250 M00/M05 A2961 RMK AC1CI1 SLP045

CYHM;2007-02-20 03:00;CYHM 200300Z 21013KT 15SM SCT250 M00/M05 A2959 RMK CI2 SLP034

CYHM;2007-02-20 04:00;CYHM 200400Z 21012KT 15SM FEW190 SCT250 M01/M05 A2958 RMK AC1CI2 SLP029

CYHM;2007-02-20 05:00;CYHM 200500Z 24020G36KT 15SM BKN210 04/M04 A2955 RMK CS3 SLP022

CYHM;2007-02-20 06:00;CYHM 200600Z 24020G30KT 15SM BKN210 04/M03 A2956 RMK CI3 SLP019

CYHM;2007-02-20 07:00;CYHM 200700Z 24022G36KT 15SM BKN050 04/M03 A2956 RMK SC7 SLP019

CYHM;2007-02-20 08:00;CYHM 200800Z 23014G24KT 15SM OVC038 04/M02 A2957 RMK SC8 SLP023

CYHM;2007-02-20 09:00;CYHM 200900Z 23016G24KT 15SM OVC038 04/M02 A2957 RMK SC8 SLP022

CYHM;2007-02-20 10:00;CYHM 201000Z 24013G20KT 15SM OVC036 04/M02 A2958 RMK SC8 SLP027

CYHM;2007-02-20 11:00;CYHM 201100Z 24014KT 15SM BKN034 OVC140 03/M02 A2959 RMK SC7AC1 SLP031

CYHM;2007-02-20 12:00;CYHM 201200Z 24012KT 15SM BKN032 OVC100 03/M02 A2961 RMK SC6AC2 SLP036

CYHM;2007-02-20 13:00;CYHM 201300Z 25012KT 15SM SCT032 BKN110 BKN130 03/M02 A2962 RMK SC3AC2AC1 SLP041

CYHM;2007-02-20 14:00;CYHM 201400Z 25010KT 10SM BKN084 OVC090 03/M01 A2964 RMK AC6AC2 SLP045

CYHM;2007-02-20 15:00;CYHM 201500Z 24010KT 15SM BKN130 BKN160 OVC210 03/M01 A2963 RMK AC5AC1CI2 CONTRAIL SLP041

CYHM;2007-02-20 16:00;CYHM 201600Z 23008KT 15SM FEW100 SCT140 BKN210 04/M01 A2962 RMK AC2AC2CI1 SLP038

CYHM;2007-02-20 17:00;CYHM 201700Z 25008KT 10SM BKN072 BKN080 OVC210 04/M01 A2963 RMK AC6AC2CI1 SLP041

CYHM;2007-02-20 18:00;CYHM 201800Z 28009KT 10SM OVC024 04/M01 A2963 RMK SC8 SLP041

CYHM;2007-02-20 19:00;CYHM 201900Z 26008KT 8SM SCT024 BKN073 OVC090 04/M01 A2962 RMK SC3AC3AC2 SLP038

CYHM;2007-02-20 20:00;CYHM 202000Z 29004KT 8SM FEW024 BKN050 OVC100 04/M01 A2963 RMK CF1ST6AS1 SLP041

CYHM;2007-02-20 21:00;CYHM 202100Z 27006KT 7SM BKN024 OVC064 03/M01 A2964 RMK ST6ST2 SLP043

CYHM;2007-02-20 22:00;CYHM 202200Z 24004KT 7SM SCT024 BKN048 OVC065 03/M01 A2965 RMK ST3ST3ST2 SLP047

CYHM;2007-02-20 23:00;CYHM 202300Z 26004KT 8SM FEW024 BKN054 BKN190 02/M01 A2965 RMK ST1ST4AC2 SLP048

CYHM;2007-02-21 00:00;CYHM 210000Z 28004KT 8SM FEW024 BKN110 02/M01 A2967 RMK SC1AC6 SLP055

CYHM;2007-02-21 01:00;CYHM 210100Z 31004KT 10SM BKN026 BKN110 01/M01 A2969 RMK SC6AC1 SLP061

CYHM;2007-02-21 02:00;CYHM 210200Z 32007KT 12SM BKN027 01/M03 A2971 RMK SC7 SLP069

CYHM;2007-02-21 03:00;CYHM 210300Z 31007KT 15SM BKN026 M00/M05 A2974 RMK SC7 SLP078

CYHM;2007-02-21 04:00;CYHM 210400Z 30004KT 15SM BKN023 M01/M05 A2976 RMK SC7 SLP086

CYHM;2007-02-21 05:00;CYHM 210500Z 34006KT 15SM BKN021 M02/M05 A2977 RMK SC7 SLP090

CYHM;2007-02-21 06:00;CYHM 210600Z 31004KT 15SM FEW020 FEW250 M03/M07 A2979 RMK SC1CI0 SC TR SLP097

CYHM;2007-02-21 07:00;CYHM 210700Z 32002KT 15SM FEW200 FEW250 M04/M07 A2980 RMK CI1CI0 SLP100

CYHM;2007-02-21 08:00;CYHM 210800Z 00000KT 15SM FEW180 SCT250 M05/M07 A2981 RMK AC1CI1 SLP103

CYHM;2007-02-21 09:00;CYHM 210900Z 29002KT 15SM BKN170 M06/M08 A2982 RMK AC4 SLP110

CYHM;2007-02-21 10:00;CYHM 211000Z 29002KT 15SM BKN160 M07/M08 A2983 RMK AC3 SLP113

CYHM;2007-02-21 11:00;CYHM 211100Z 30002KT 15SM BKN150 M05/M07 A2985 RMK AC7 SLP118

CYHM;2007-02-21 12:00;CYHM 211200Z 32002KT 15SM BKN150 M05/M07 A2987 RMK AC7 SLP125

CYHM;2007-02-21 13:00;CYHM 211300Z 27002KT 15SM BKN140 M07/M08 A2990 RMK AC7 SLP136

CYHM;2007-02-21 14:00;CYHM 211400Z 27002KT 15SM BKN140 M03/M06 A2992 RMK AC5 SLP141

CYHM;2007-02-21 15:00;CYHM 211500Z 25006KT 15SM FEW160 SCT220 M01/M06 A2991 RMK AC1CI2 AC TR CONTRAIL SLP140

CYHM;2007-02-21 16:00;CYHM 211600Z 22007KT 15SM FEW025 FEW220 M00/M05 A2993 RMK CU1CI1 CU TR SLP144

CYHM;2007-02-21 17:00;CYHM 211700Z 25005KT 15SM BKN220 01/M05 A2992 RMK CI3 SLP143

CYHM;2007-02-21 18:00;CYHM 211800Z 17008KT 15SM FEW220 01/M05 A2990 RMK CI1 SLP134

CYHM;2007-02-21 19:00;CYHM 211900Z 19008KT 15SM FEW220 02/M04 A2990 RMK CI0 CI TR SLP134

CYHM;2007-02-21 20:00;CYHM 212000Z 19006KT 15SM FEW140 FEW250 02/M04 A2990 RMK AC1CI1 AC TR SLP134

CYHM;2007-02-21 21:00;CYHM 212100Z 20007KT 15SM FEW034 FEW190 FEW250 02/M04 A2989 RMK CF1AC1CI1 CF TR AC TR SLP133

CYHM;2007-02-21 22:00;CYHM 212200Z 20008KT 15SM FEW190 SCT250 01/M03 A2989 RMK AC1CI2 AC TR SLP133

CYHM;2007-02-21 23:00;CYHM 212300Z 18005KT 10SM FEW190 SCT250 M00/M04 A2988 RMK AC1CI1 CONTRAILS SLP129

CYHM;2007-02-22 00:00;CYHM 220000Z 06004KT 12SM BKN110 OVC120 01/M01 A3016 RMK AC5AC3 SLP224

CYHM;2007-02-22 01:00;CYHM 220100Z 21005KT 12SM SCT200 M02/M04 A2986 RMK CI2 SLP122

CYHM;2007-02-22 02:00;CYHM 220200Z 21007KT 15SM SCT200 M03/M05 A2985 RMK CI2 SLP120

CYHM;2007-02-22 03:00;CYHM 220300Z 22008KT 6SM BR FEW200 M03/M04 A2984 RMK CI1 SLP115

CYHM;2007-02-22 03:10;CYHM 220310Z 23012KT 2 1/2SM BR FEW003 SCT200 RMK SF1CI1

CYHM;2007-02-22 03:18;CYHM 220318Z 23011KT 1/2SM FZFG VV002 RMK FG8

CYHM;2007-02-22 03:41;CYHM 220341Z 23009KT 1/4SM FZFG VV002 RMK FG8

CYHM;2007-02-22 04:00;CYHM 220400Z 23009KT 1/8SM FZFG VV001 M03/M03 A2981 RMK FG8 SLP106

CYHM;2007-02-22 05:00;CYHM 220500Z 22009KT 1/8SM FZFG VV001 M02/M03 A2977 RMK FG8 SLP093

CYHM;2007-02-22 06:00;CYHM 220600Z 23009KT 1/4SM FZFG VV002 M02/M02 A2977 RMK FG8 SLP090

CYHM;2007-02-22 07:00;CYHM 220700Z 22009KT 1/2SM FZFG VV002 M02/M02 A2973 RMK FG8 SLP078

CYHM;2007-02-22 07:43;CYHM 220743Z 22011KT 3/4SM BR OVC003 RMK FG2ST6 VIS VRB 1/2 - 1

CYHM;2007-02-22 08:00;CYHM 220800Z 21009KT 1 1/2SM BR OVC003 M01/M01 A2969 RMK FG2ST6 VIS VRB 1 - 2 SLP064

CYHM;2007-02-22 09:00;CYHM 220900Z 21012KT 2SM BR OVC005 M01/M01 A2966 RMK FG1ST7 SLP053

CYHM;2007-02-22 10:00;CYHM 221000Z 21011KT 3SM BR OVC006 M01/M01 A2962 RMK ST8 VIS VRB 2 - 4 SLP039

CYHM;2007-02-22 10:28;CYHM 221028Z 20009KT 2 1/2SM BR OVC008 RMK FG1SF7

CYHM;2007-02-22 11:00;CYHM 221100Z 21013KT 3SM -SHSN BR FEW006 OVC020 M01/M01 A2957 RMK SF2SC6 VIS VRB 2 - 4 SLP023

CYHM;2007-02-22 11:42;CYHM 221142Z 19012KT 1SM -SHSN BR BKN010 OVC022 RMK SN1SF5SC2

CYHM;2007-02-22 12:00;CYHM 221200Z 18012KT 1SM -SHSN BR BKN010 BKN019 OVC032 M01/M01 A2952 RMK SN1SF5SC2SC1 SLP005

CYHM;2007-02-22 12:13;CYHM 221213Z 20014KT 1/2SM SHSN BKN006 OVC014 RMK SN2SF5SC2

CYHM;2007-02-22 12:26;CYHM 221226Z 20014KT 1/8SM +SN OVC004 RMK SN5SF3

CYHM;2007-02-22 13:00;CYHM 221300Z 22014KT 1/4SM SN FZFG BKN003 OVC008 M00/M00 A2951 RMK SN4SF3SC1 SLP001

CYHM;2007-02-22 13:05;CYHM 221305Z CCA 22014KT 1SM -SN BR BKN003 OVC008 RMK SN2SF5SC2

CYHM;2007-02-22 13:15;CYHM 221315Z 21013KT 1/8SM +SN FZFG BKN002 OVC009 RMK SN5SF2SC1

CYHM;2007-02-22 13:35;CYHM 221335Z 22013KT 2 1/2SM -SN BR BKN005 OVC012 RMK SF6SC2

CYHM;2007-02-22 14:00;CYHM 221400Z 21012KT 3SM -SN BKN008 OVC016 00/00 A2950 RMK SC6SC2 SLP998

CYHM;2007-02-22 14:36;CYHM 221436Z 23012KT 4SM BR BKN008 OVC016 RMK SC6SC2

CYHM;2007-02-22 15:00;CYHM 221500Z 23010KT 3SM BR BKN007 OVC014 01/00 A2949 RMK SC6SC2 SLP996

CYHM;2007-02-22 16:00;CYHM 221600Z 24014KT 3SM BR OVC013 02/01 A2949 RMK SC8 SLP997

CYHM;2007-02-22 17:00;CYHM 221700Z 25015KT 5SM BR OVC013 02/01 A2951 RMK SC8 SLP003

CYHM;2007-02-22 18:00;CYHM 221800Z 28013G18KT 8SM BKN014 OVC022 02/00 A2953 RMK SC6SC2 SLP008

CYHM;2007-02-22 19:00;CYHM 221900Z 28020G25KT 15SM BKN019 OVC026 02/M01 A2955 RMK SC6SC2 SLP014

CYHM;2007-02-22 20:00;CYHM 222000Z 28022G34KT 240V320 15SM SCT019 OVC025 01/M03 A2958 RMK SC3SC5 SLP024

CYHM;2007-02-22 21:00;CYHM 222100Z 28024G34KT 15SM OVC022 M00/M04 A2962 RMK SC8 SLP041

CYHM;2007-02-22 22:00;CYHM 222200Z 28023G31KT 230V310 15SM BKN027 BKN046 M02/M06 A2966 RMK SC6SC1 SLP054

CYHM;2007-02-22 23:00;CYHM 222300Z 27017G26KT 15SM -SHSN FEW018 BKN025 OVC046 M02/M05 A2969 RMK SC2SC5SC1 PCPN VRY LGT SLP063

CYHM;2007-02-23 00:00;CYHM 230000Z 29016KT 15SM -SHSN BKN022 OVC032 M03/M06 A2975 RMK SC6SC2 SLP083

CYHM;2007-02-23 00:40;CYHM 230040Z 23022G28KT 15SM SCT020 BKN027 RMK SC3SC4

CYHM;2007-02-23 01:00;CYHM 230100Z 29020G30KT 15SM BKN026 M04/M08 A2978 RMK SC7 SLP096

CYHM;2007-02-23 02:00;CYHM 230200Z 30018G26KT 15SM BKN024 BKN110 M05/M09 A2983 RMK SC6AC1 SLP110

CYHM;2007-02-23 03:00;CYHM 230300Z 30013G28KT 15SM BKN027 BKN110 M05/M09 A2987 RMK SC5AC2 SLP126

CYHM;2007-02-23 04:00;CYHM 230400Z 30018G27KT 15SM -SHSN FEW027 OVC057 M06/M10 A2992 RMK CF2SC6 SLP142

CYHM;2007-02-23 05:00;CYHM 230500Z 33018G28KT 7SM -SHSN OVC027 M06/M11 A2996 RMK SC8 SLP155

CYHM;2007-02-23 06:00;CYHM 230600Z 33017G22KT 6SM -SHSN OVC028 M07/M11 A3000 RMK SC8 CF ASOCTD SLP171

CYHM;2007-02-23 07:00;CYHM 230700Z 33014G20KT 10SM -SHSN BKN030 BKN080 M07/M12 A3004 RMK SC5AC2 SLP184

CYHM;2007-02-23 08:00;CYHM 230800Z 33016G21KT 15SM -SHSN FEW025 BKN075 M08/M13 A3007 RMK SC2AC2 SLP194

CYHM;2007-02-23 09:00;CYHM 230900Z 32010KT 15SM FEW027 FEW130 M09/M13 A3010 RMK SC1AC1 SLP208

CYHM;2007-02-23 10:00;CYHM 231000Z 32011KT 15SM FEW027 FEW220 M10/M14 A3013 RMK SC1CI1 SLP218

CYHM;2007-02-23 11:00;CYHM 231100Z 32012G17KT 15SM FEW030 FEW220 M10/M14 A3016 RMK SC1CI1 SLP225

CYHM;2007-02-23 12:00;CYHM 231200Z 30011G16KT 15SM FEW025 FEW120 11/M15 A3020 RMK CU1AC1 SLP234

CYHM;2007-02-23 13:00;CYHM 231300Z 31011KT 15SM FEW025 FEW120 M11/M15 A3022 RMK CU1AC1 CU TR AC TR SLP249

CYHM;2007-02-23 14:00;CYHM 231400Z CCA 34014KT 15SM FEW025 FEW100 M11/M15 A3024 RMK CU1AC1 SLP255

CYHM;2007-02-23 15:00;CYHM 231500Z 32010KT 15SM FEW025 M10/M16 A3026 RMK SC1 SC TR SLP262

CYHM;2007-02-23 16:00;CYHM 231600Z 31012KT 15SM FEW025 M08/M15 A3027 RMK SC1 SC TR SLP267

CYHM;2007-02-23 17:00;CYHM 231700Z 32009KT 15SM SKC M08/M15 A3028 RMK SLP269

CYHM;2007-02-23 18:00;CYHM 231800Z 30010KT 15SM SKC M07/M15 A3027 RMK SLP266

CYHM;2007-02-23 19:00;CYHM 231900Z 32014KT 15SM SKC M06/M13 A3027 RMK SLP265

CYHM;2007-02-23 20:00;CYHM 232000Z 30010KT 270V340 15SM SKC M07/M15 A3027 RMK SLP265

CYHM;2007-02-23 21:00;CYHM 232100Z 30012KT 15SM SKC M07/M15 A3028 RMK SLP269

CYHM;2007-02-23 22:00;CYHM 232200Z 29013KT 15SM SKC M08/M15 A3028 RMK SLP269

CYHM;2007-02-23 23:00;CYHM 232300Z 30009KT 15SM SKC M09/M16 A3030 RMK SLP275

CYHM;2007-02-24 00:00;CYHM 240000Z 17004KT 15SM FEW210 07/01 A3024 RMK CI2 SLP248

CYHM;2007-02-24 01:00;CYHM 240100Z 18004KT 15SM FEW210 06/01 A3024 RMK CI2 SLP248

CYHM;2007-02-24 02:00;CYHM 240200Z 29007KT 15SM SKC M11/M16 A3033 RMK SLP288

CYHM;2007-02-24 03:00;CYHM 240300Z 00000KT 15SM FEW210 03/M01 A3023 RMK CI1 SLP245

CYHM;2007-02-24 04:00;CYHM 240400Z 32013G19KT 15SM FEW220 M12/M16 A3030 RMK CI1 SLP279

CYHM;2007-02-24 05:00;CYHM 240500Z 32008KT 15SM FEW220 M12/M16 A3030 RMK CI1 SLP278

CYHM;2007-02-24 06:00;CYHM 240600Z 34008KT 15SM SKC M12/M16 A3030 RMK SLP278

CYHM;2007-02-24 07:00;CYHM 240700Z 30005KT 15SM FEW220 M13/M17 A3030 RMK CI1 SLP279

CYHM;2007-02-24 08:00;CYHM 240800Z 29005KT 15SM FEW210 M14/M17 A3033 RMK CI1 SLP287

CYHM;2007-02-24 09:00;CYHM 240900Z 32006KT 15SM FEW220 M13/M17 A3032 RMK CI1 SLP285

CYHM;2007-02-24 10:00;CYHM 241000Z 35008KT 15SM SKC M13/M17 A3031 RMK SLP282

CYHM;2007-02-24 11:00;CYHM 241100Z 01005KT 15SM FEW210 M14/M17 A3032 RMK CI1 SLP285

CYHM;2007-02-24 12:00;CYHM 241200Z 22004KT 15SM FEW020 FEW230 M16/M19 A3034 RMK SC1CI1 SLP293

CYHM;2007-02-24 14:00;CYHM 241400Z 00000KT 15SM FEW025 FEW230 M12/M17 A3035 RMK SC1CI1 BOTH LYRS TR SLP297

CYHM;2007-02-24 15:00;CYHM 241500Z 05004KT 15SM FEW025 FEW250 M10/M15 A3032 RMK SC1CI0 SLP285

CYHM;2007-02-24 16:00;CYHM 241600Z 27002KT 15SM FEW025 FEW250 M09/M14 A3032 RMK SC1CI0 SLP286

CYHM;2007-02-24 17:00;CYHM 241700Z 26004KT 15SM FEW250 M08/M14 A3033 RMK CI1 SLP288

CYHM;2007-02-24 18:00;CYHM 241800Z 26006KT 15SM FEW250 M07/M12 A3030 RMK CI0 SLP279

CYHM;2007-02-24 19:00;CYHM 241900Z 25005KT 15SM FEW250 M05/M11 A3026 RMK CI1 SLP265

CYHM;2007-02-24 20:00;CYHM 242000Z 25008KT 15SM FEW250 M04/M10 A3029 RMK CI2 SLP274

CYHM;2007-02-24 21:00;CYHM 242100Z 28004KT 15SM FEW250 M03/M10 A3026 RMK CI2 SLP264

CYHM;2007-02-24 22:00;CYHM 242200Z 23005KT 15SM FEW180 BKN250 M04/M10 A3026 RMK AC1CI2 AC TR SLP265

CYHM;2007-02-24 23:00;CYHM 242300Z 23004KT 15SM SCT230 M06/M10 A3026 RMK CI2 SLP264

CYHM;2007-02-25 00:00;CYHM 250000Z 30010KT 3SM BR SCT008 BKN014 06/04 A3024 RMK SF3SC4 PRESRR SLP247

CYHM;2007-02-25 01:00;CYHM 250100Z 29007KT 7SM SCT014 BKN200 05/03 A3026 RMK SC3CI1 SLP255

CYHM;2007-02-25 01:38;CYHM 250138Z 34002KT 7SM BKN014 RMK SC7

CYHM;2007-02-25 02:00;CYHM 250200Z 29004KT 8SM BKN013 BKN019 04/03 A3030 RMK SC6SC2 SLP267

CYHM;2007-02-25 03:00;CYHM 250300Z 04007KT 15SM BKN240 M09/M12 A3025 RMK CI3 SLP259

CYHM;2007-02-25 04:00;CYHM 250400Z 05005KT 15SM BKN250 M08/M12 A3023 RMK CS4 HALO SLP255

CYHM;2007-02-25 05:00;CYHM 250500Z 04003KT 15SM OVC250 M08/M12 A3022 RMK CI7 SLP249

CYHM;2007-02-25 06:00;CYHM 250600Z 00000KT 15SM OVC240 M10/M11 A3021 RMK CI7 SLP246

CYHM;2007-02-25 06:40;CYHM 250640Z 08006KT 10SM BKN008 OVC040 RMK SF6SC2

CYHM;2007-02-25 07:00;CYHM 250700Z 07005KT 8SM BKN007 OVC040 M10/M12 A3019 RMK SF6SC2 SLP238

CYHM;2007-02-25 08:00;CYHM 250800Z 06008KT 12SM SCT007 OVC220 M10/M11 A3017 RMK SF3CI5 SLP234

CYHM;2007-02-25 09:00;CYHM 250900Z 06009KT 15SM OVC230 M07/M10 A3014 RMK CI8 SLP222

CYHM;2007-02-25 10:00;CYHM 251000Z 06018KT 15SM OVC220 M06/M08 A3010 RMK CI8 SLP209

CYHM;2007-02-25 11:00;CYHM 251100Z 07015KT 15SM OVC180 M06/M08 A3011 RMK AC8 SLP212

CYHM;2007-02-25 12:00;CYHM 251200Z 06017KT 15SM FEW020 OVC170 M05/M09 A3010 RMK SC1AC8 SLP208

CYHM;2007-02-25 13:00;CYHM 251300Z 06018KT 15SM FEW020 OVC160 M05/M09 A3007 RMK SC1AC8 SLP197

CYHM;2007-02-25 14:00;CYHM 251400Z 06024KT 15SM FEW020 SCT150 BKN250 M04/M09 A3003 RMK SC1AC4CI1 SC TR SLP184

CYHM;2007-02-25 15:00;CYHM 251500Z 06022KT 15SM FEW020 SCT170 BKN250 M04/M08 A3001 RMK SC1AC4CI2 SLP176

CYHM;2007-02-25 16:00;CYHM 251600Z 05027KT 15SM FEW020 BKN160 BKN250 M04/M08 A2993 RMK SC1AC6CI1 SC TR PRESFR SLP150

CYHM;2007-02-25 17:00;CYHM 251700Z 05027KT 15SM FEW020 BKN060 BKN150 BKN250 M03/M07 A2990 RMK CF1SC5AC2CI1 CF TR SLP139

CYHM;2007-02-25 18:00;CYHM 251800Z 05026KT 15SM FEW020 BKN061 M03/M06 A2987 RMK CF1SC7 SLP129

CYHM;2007-02-25 19:00;CYHM 251900Z 05029G34KT 15SM FEW020 BKN032 BKN061 M03/M06 A2980 RMK CF1SC6SC2 PRESFR SLP106

CYHM;2007-02-25 20:00;CYHM 252000Z 05027G33KT 15SM FEW015 SCT030 OVC045 M02/M05 A2976 RMK CF2SC2SC4 SLP093

CYHM;2007-02-25 20:55;CYHM 252055Z 05025G31KT 12SM -SHSN FEW015 BKN032 OVC045 RMK CF2SC5SC2

CYHM;2007-02-25 21:00;CYHM 252100Z 05025G31KT 8SM -SN FEW015 BKN032 OVC045 M02/M05 A2975 RMK CF2SC5SC2 SLP088

CYHM;2007-02-25 21:16;CYHM 252116Z 05026G32KT 2 1/2SM -SN DRSN FEW015 OVC032 RMK SN1CF2SC6

CYHM;2007-02-25 21:23;CYHM 252123Z 05024G31KT 1 1/2SM -SN DRSN VV014 RMK SN8

CYHM;2007-02-25 21:28;CYHM 252128Z 06026G33KT 3/4SM -SN BLSN VV011 RMK SN8

CYHM;2007-02-25 22:00;CYHM 252200Z 06025G32KT 3/8SM SN BLSN VV009 M03/M04 A2974 RMK SN8 /S01/ SLP083

CYHM;2007-02-25 22:24;CYHM 252224Z 06025G30KT 1/4SM SN +BLSN VV006 RMK SN8

CYHM;2007-02-25 22:40;CYHM 252240Z 06025G30KT 1/8SM SN +BLSN VV004 RMK SN8

CYHM;2007-02-25 22:52;CYHM 252252Z 06025G30KT 0SM SN +BLSN VV002 RMK SN8

CYHM;2007-02-25 23:00;CYHM 252300Z 06025G30KT 0SM SN +BLSN VV002 M03/M04 A2972 RMK SN8 /S02/ SLP078

CYHM;2007-02-25 23:14;CYHM 252314Z 05024KT 1/8SM SN +BLSN VV004 RMK SN8

CYHM;2007-02-25 23:34;CYHM 252334Z 05025KT 1/8SM SN +BLSN VV002 RMK SN8

CYHM;2007-02-25 23:56;CYHM 252356Z 05024KT 1/2SM SN BLSN VV006 RMK SN8

CYHM;2007-02-26 00:00;CYHM 260000Z CCA 06022KT 5/8SM -SN BLSN VV007 M03/M04 A2972 RMK SN8 /S04/ SLP076

CYHM;2007-02-26 00:15;CYHM 260015Z 06023G29KT 1 1/2SM -SN BLSN SCT006 OVC022 RMK BLSN2CF2SC4

CYHM;2007-02-26 00:22;CYHM 260022Z 06023G28KT 1 1/2SM -SN BLSN BKN006 OVC022 RMK BLSN2CF3SC3

CYHM;2007-02-26 01:00;CYHM 260100Z 05023KT 2SM -SHSN BLSN BKN004 OVC015 M03/M04 A2971 RMK BLSN1SC5SC2 SLP072

CYHM;2007-02-26 02:00;CYHM 260200Z 06020KT 1SM -SN BLSN BKN006 OVC015 M03/M04 A2970 RMK SN2SC4SC2 SLP069

CYHM;2007-02-26 02:28;CYHM 260228Z CCA 06019KT 2SM -SN DRSN BKN007 BKN015 OVC033 REBLSN RMK SN1CF4SC2SC2

CYHM;2007-02-26 03:00;CYHM 260300Z 06017KT 2 1/2SM -SN DRSN BKN007 OVC030 M03/M04 A2968 REBLSN RMK SN1CF4SC3 SLP064

CYHM;2007-02-26 03:49;CYHM 260349Z CCA 07015KT 3SM -SNSG DRSN BKN005 OVC030 RMK SF6SC2 VIS VRB 2 - 4

CYHM;2007-02-26 04:00;CYHM 260400Z 07015KT 5SM -SNSG DRSN BKN006 OVC030 M03/M04 A2967 RMK SF6SC2 SLP058

CYHM;2007-02-26 05:00;CYHM 260500Z 07013KT 6SM -SN DRSN BKN005 OVC017 M03/M03 A2965 RMK SF7SC1 SLP054

CYHM;2007-02-26 06:00;CYHM 260600Z 06012KT 3SM -SN DRSN BKN004 OVC016 M02/M03 A2965 RMK SF6SC2 /S01/ VIS VRB 2 - 4 SLP053

CYHM;2007-02-26 07:00;CYHM 260700Z 06011KT 2 1/2SM -SN DRSN OVC004 M02/M03 A2965 RMK SF8 SLP050

CYHM;2007-02-26 07:15;CYHM 260715Z 06011KT 6SM -SN DRSN OVC003 RMK SF8

CYHM;2007-02-26 08:00;CYHM 260800Z 06012KT 5SM -SN DRSN OVC005 M02/M03 A2963 RMK SF8 SLP045

CYHM;2007-02-26 09:00;CYHM 260900Z 06012KT 5SM -SN DRSN OVC005 M02/M02 A2964 RMK SF8 SLP047

CYHM;2007-02-26 10:00;CYHM 261000Z 06008KT 6SM -SN OVC005 M01/M02 A2965 RMK SF8 SLP049

CYHM;2007-02-26 10:55;CYHM 261055Z 07008KT 4SM -SG -FZRA OVC003 RMK SF8

CYHM;2007-02-26 11:00;CYHM 261100Z 07009KT 4SM -SG -FZRA OVC004 M01/M02 A2967 RMK SF8 SLP056

CYHM;2007-02-26 11:35;CYHM 261135Z 06009KT 2SM -SN -FZRA OVC004 RMK SN1SF7

CYHM;2007-02-26 11:52;CYHM 261152Z 06008KT 1 1/4SM -SN OVC004 REFZRA RMK SN2SF6

CYHM;2007-02-26 12:00;CYHM 261200Z 06008KT 1 1/4SM -SN OVC004 M01/M02 A2968 REFZRA RMK SN2SF6 SLP061

CYHM;2007-02-26 13:00;CYHM 261300Z 05007KT 1 1/4SM -SN BKN004 OVC013 M01/M02 A2970 RMK SN2SF3SC2 SLP069

CYHM;2007-02-26 14:00;CYHM 261400Z 03015KT 1 1/4SM -SN OVC004 M01/M02 A2971 RMK SN2SF6 SLP072

CYHM;2007-02-26 14:31;CYHM 261431Z 03015KT 1 1/2SM -SN BKN004 OVC009 RMK SN2SF5SC2

CYHM;2007-02-26 15:00;CYHM 261500Z 03013G18KT 1SM -SN OVC004 M02/M02 A2973 RMK SN2SF6 SLP077

CYHM;2007-02-26 15:19;CYHM 261519Z 04014KT 5/8SM -SN OVC004 RMK SN3SF5

CYHM;2007-02-26 15:53;CYHM 261553Z 04014KT 1 1/4SM -SN BKN004 OVC009 RMK SN2SF5SC1

CYHM;2007-02-26 16:00;CYHM 261600Z 02009KT 1 1/4SM -SN BKN004 OVC009 M02/M03 A2974 RMK SN2SF5SC1 SLP080

CYHM;2007-02-26 16:31;CYHM 261631Z 04008KT 1 1/2SM -SN BKN005 OVC024 RMK SN2SF5SC2

CYHM;2007-02-26 17:00;CYHM 261700Z 04012KT 1 1/2SM -SN BKN005 OVC023 M02/M03 A2975 RMK SN2SF6SC1 SLP084

CYHM;2007-02-26 17:46;CYHM 261746Z 04011KT 2SM -SN OVC006 RMK SN1SF7 /S01/

CYHM;2007-02-26 18:00;CYHM 261800Z 04013KT 2SM -SN OVC006 M02/M03 A2974 RMK SN1SF7 SLP082

CYHM;2007-02-26 18:24;CYHM 261824Z 04012KT 1 3/4SM -SN OVC005 RMK SN1SF7

CYHM;2007-02-26 19:00;CYHM 261900Z 05012KT 2SM -SN OVC005 M02/M03 A2975 RMK SN2SC6 SLP085

CYHM;2007-02-26 20:00;CYHM 262000Z 06011KT 2SM -SN OVC008 M02/M03 A2975 RMK SN2SC6 SLP086

CYHM;2007-02-26 21:00;CYHM 262100Z 05008KT 2 1/2SM -SN OVC006 M02/M04 A2976 RMK SC8 SLP089

CYHM;2007-02-26 21:19;CYHM 262119Z 06010KT 3SM -SN OVC006 RMK SC8

CYHM;2007-02-26 22:00;CYHM 262200Z 06010KT 3SM -SN OVC005 M02/M03 A2978 RMK SC8 SLP093

CYHM;2007-02-26 22:48;CYHM 262248Z 05010KT 2 1/2SM -SN OVC003 RMK SN2ST6

CYHM;2007-02-26 23:00;CYHM 262300Z 06008KT 2 1/2SM -SN OVC004 M02/M03 A2980 RMK SN2ST6 SLP101

CYHM;2007-02-27 00:00;CYHM 270000Z 24010KT 15SM FEW044 FEW130 19/14 A2991 RMK SC1AC1 AC TR TCU ASOCTD CONTRAILS SLP132

CYHM;2007-02-27 00:45;CYHM 270045Z 07007KT 6SM -SN OVC003 RMK ST8

CYHM;2007-02-27 01:00;CYHM 270100Z 07007KT 6SM -SN OVC003 M02/M03 A2983 RMK ST8 SLP112

CYHM;2007-02-27 02:00;CYHM 270200Z 06006KT 4SM -SN OVC004 M02/M03 A2984 RMK ST8 SLP116

CYHM;2007-02-27 03:00;CYHM 270300Z 07004KT 5SM -SN BKN004 OVC032 M02/M03 A2985 RMK ST5SC3 CF ASOCTD SLP118

CYHM;2007-02-27 04:00;CYHM 270400Z 07005KT 5SM -SN FEW004 BKN013 OVC032 M02/M03 A2985 RMK ST2SC5SC1 CF ASOCTD SLP119

CYHM;2007-02-27 05:00;CYHM 270500Z 08004KT 6SM -SN FEW004 SCT008 OVC012 M02/M03 A2985 RMK CF2ST2SC5 SLP119

CYHM;2007-02-27 06:00;CYHM 270600Z 06005KT 8SM -SN FEW008 OVC013 M02/M03 A2985 RMK SF2ST6 SLP119

CYHM;2007-02-27 07:00;CYHM 270700Z 06006KT 6SM -SN FEW003 BKN007 OVC013 M02/M03 A2985 RMK CF2ST5SC2 SLP119

CYHM;2007-02-27 08:00;CYHM 270800Z 07003KT 6SM -SN OVC005 M02/M03 A2985 RMK ST8 SLP118

CYHM;2007-02-27 09:00;CYHM 270900Z 07004KT 8SM -SN OVC004 M02/M03 A2985 RMK ST8 SLP120

CYHM;2007-02-27 09:35;CYHM 270935Z 07004KT 2 1/2SM -SN OVC004 RMK ST8

CYHM;2007-02-27 10:00;CYHM 271000Z 04002KT 1SM -SN BR OVC002 M03/M03 A2986 RMK ST8 SLP123

CYHM;2007-02-27 11:00;CYHM 271100Z 05004KT 1 1/2SM -SN BR OVC003 M03/M03 A2987 RMK ST8 SLP125

CYHM;2007-02-27 12:00;CYHM 271200Z 04002KT 1 1/2SM -SN BR OVC002 M03/M03 A2988 RMK FG2SF6 SLP130

CYHM;2007-02-27 13:00;CYHM 271300Z 04005KT 1 1/2SM -SN BR OVC004 M03/M04 A2990 RMK FG2SF6 SLP136

CYHM;2007-02-27 14:00;CYHM 271400Z 04003KT 2SM -SN BR OVC005 M03/M04 A2991 RMK SF8 SLP139

CYHM;2007-02-27 15:00;CYHM 271500Z 03002KT 2 1/2SM -SN BR BKN005 OVC014 M03/M04 A2992 RMK SF5SC3 SLP142

CYHM;2007-02-27 16:00;CYHM 271600Z 04002KT 2 1/2SM -SN BR OVC006 M02/M03 A2992 RMK SF8 SLP143

CYHM;2007-02-27 17:00;CYHM 271700Z 04002KT 3SM -SN BR OVC007 M02/M03 A2994 RMK SF8 SLP148

CYHM;2007-02-27 18:00;CYHM 271800Z 04005KT 2 1/2SM -SN BR OVC006 M02/M03 A2993 RMK SF8 SLP147

CYHM;2007-02-27 19:00;CYHM 271900Z 05004KT 2 1/2SM -SN BR OVC007 M02/M03 A2994 RMK SF8 SLP151

CYHM;2007-02-27 20:00;CYHM 272000Z 05004KT 2 1/2SM -SN BR BKN007 OVC012 M01/M03 A2995 RMK ST5ST3 SLP154

CYHM;2007-02-27 21:00;CYHM 272100Z 06004KT 2 1/2SM -SN BR BKN006 OVC012 M01/M03 A2997 RMK ST5ST3 SLP159

CYHM;2007-02-27 22:00;CYHM 272200Z 09003KT 2 1/2SM -SN BR OVC012 M01/M03 A2999 RMK ST8 SLP165

CYHM;2007-02-27 23:00;CYHM 272300Z 00000KT 2 1/2SM -SN BR BKN012 OVC028 M02/M03 A3001 RMK ST5ST3 SLP173

CYHM;2007-02-27 23:45;CYHM 272345Z 00000KT 5SM -SN BR FEW012 OVC025 RMK ST2ST6

CYHM;2007-02-28 00:00;CYHM 280000Z 04006KT 9SM FEW024 BKN250 14/11 A3015 RMK SC1CS4 SC TR CC ASOCTD SLP212

CYHM;2007-02-28 01:00;CYHM 280100Z 00000KT 5SM -SN BR BKN021 OVC044 M02/M03 A3002 RMK ST6ST2 SLP178

CYHM;2007-02-28 02:00;CYHM 280200Z 00000KT 4SM -SN BR SCT014 BKN020 OVC048 M02/M03 A3004 RMK ST3ST4ST1 SLP182

CYHM;2007-02-28 03:00;CYHM 280300Z 00000KT 2 1/2SM -SN BR FEW014 OVC035 M02/M03 A3004 RMK ST2ST6 SLP186

CYHM;2007-02-28 04:00;CYHM 280400Z 00000KT 2SM -SN BR SCT048 BKN080 OVC110 M02/M03 A3004 RMK ST4AC2AC2 SLP185

CYHM;2007-02-28 05:00;CYHM 280500Z 00000KT 1 3/4SM -SN BR OVC110 M03/M04 A3004 RMK AC8 SLP184

CYHM;2007-02-28 06:00;CYHM 280600Z 00000KT 2 1/4SM -SN BR BKN046 OVC110 M03/M04 A3005 RMK SC6AC2 SLP188

CYHM;2007-02-28 07:00;CYHM 280700Z 00000KT 2 1/4SM -SN BR BKN036 OVC110 M02/M03 A3006 RMK SC6AC2 SLP191

CYHM;2007-02-28 08:00;CYHM 280800Z 00000KT 2 1/4SM BR FEW026 BKN042 OVC110 M03/M03 A3006 RMK SC2SC3AC3 SLP192

CYHM;2007-02-28 09:00;CYHM 280900Z 00000KT 2SM BR BKN034 OVC110 M03/M03 A3006 RMK SC5AC3 SLP191

CYHM;2007-02-28 10:00;CYHM 281000Z 00000KT 5SM BR BKN024 OVC110 M03/M03 A3009 RMK SC5AC3 SLP199

CYHM;2007-02-28 11:00;CYHM 281100Z 00000KT 5SM BR BKN024 OVC110 M02/M03 A3010 RMK SC6AC2 SLP204

CYHM;2007-02-28 11:32;CYHM 281132Z 00000KT 2SM BR BKN022 BKN040 OVC110 RMK SC5SC2AC1

CYHM;2007-02-28 12:00;CYHM 281200Z 00000KT 2SM BR OVC021 M02/M03 A3012 RMK SC8 SLP212

CYHM;2007-02-28 13:00;CYHM 281300Z 00000KT 2SM BR OVC020 M02/M03 A3014 RMK SC8 SLP217

CYHM;2007-02-28 14:00;CYHM 281400Z 00000KT 2SM BR OVC020 M01/M02 A3015 RMK SC8 SLP220

CYHM;2007-02-28 15:00;CYHM 281500Z 30002KT 7SM OVC024 M01/M04 A3016 RMK SC8 SLP224

CYHM;2007-02-28 16:00;CYHM 281600Z 00000KT 15SM SCT036 BKN110 00/M06 A3016 RMK SC4AC2 SLP223

CYHM;2007-02-28 17:00;CYHM 281700Z 00000KT 15SM FEW036 FEW110 01/M04 A3015 RMK SC1AC1 SC TR AC TR SLP222

CYHM;2007-02-28 18:00;CYHM 281800Z 00000KT 15SM FEW028 FEW240 03/M05 A3014 RMK CU1CI1 CU TR CI TR SLP217

CYHM;2007-02-28 19:00;CYHM 281900Z 09004KT 15SM FEW025 FEW240 01/M06 A3013 RMK CU1CI1 CU TR CI TR SLP212

CYHM;2007-02-28 20:00;CYHM 282000Z 10007KT 15SM FEW028 FEW250 00/M07 A3012 RMK CU1CI2 CU TR CONTRAILS SLP210

CYHM;2007-02-28 21:00;CYHM 282100Z 11005KT 15SM FEW032 FEW250 00/M09 A3013 RMK CU1CI1 CU TR CI TR SLP215

CYHM;2007-02-28 22:00;CYHM 282200Z 10004KT 15SM FEW030 FEW250 M00/M08 A3014 RMK CU1CI1 CU TR CI TR SLP219

CYHM;2007-02-28 23:00;CYHM 282300Z 09005KT 15SM SCT250 M02/M09 A3014 RMK CI2 SLP217

CYHM;2007-03-01 01:00;CYHM 010100Z 10006KT 15SM FEW016 SCT190 M03/M10 A3015 RMK SC1AS2 SLP221

CYHM;2007-03-01 02:00;CYHM 010200Z 09004KT 15SM SCT190 BKN250 M04/M11 A3015 RMK AC2CI0 SLP220

CYHM;2007-03-01 03:00;CYHM 010300Z 07003KT 15SM FEW190 BKN230 M04/M10 A3013 RMK AC1CI2 HALO SLP216

CYHM;2007-03-01 04:00;CYHM 010400Z 04017KT 15SM SCT080 OVC130 03/M04 A3008 RMK AC3AC5 SLP194

CYHM;2007-03-01 05:00;CYHM 010500Z 04007KT 15SM BKN180 BKN210 M04/M10 A3013 RMK AS6CI2 SLP213

CYHM;2007-03-01 06:00;CYHM 010600Z 04006KT 15SM OVC170 M04/M10 A3013 RMK AS7 SLP212

CYHM;2007-03-01 07:00;CYHM 010700Z 04009KT 15SM OVC140 M04/M10 A3012 RMK AS7 SLP210

CYHM;2007-03-01 08:00;CYHM 010800Z 04007KT 15SM BKN100 M04/M10 A3012 RMK AC7 SLP211

CYHM;2007-03-01 09:00;CYHM 010900Z 05010KT 15SM OVC083 M03/M08 A3010 RMK AC8 SLP203

CYHM;2007-03-01 10:00;CYHM 011000Z 06015KT 15SM OVC058 M03/M09 A3007 RMK SC8 SLP196

CYHM;2007-03-01 11:00;CYHM 011100Z 07014G19KT 15SM -SHSN OVC090 M03/M08 A3007 RMK AC8 SLP193

CYHM;2007-03-01 12:00;CYHM 011200Z CCA 06020KT 15SM -SHSN FEW060 BKN085 BKN120 M03/M09 A3004 RMK SC2AC3AC2 SLP183

CYHM;2007-03-01 13:00;CYHM 011300Z 07018G24KT 15SM FEW058 OVC092 M03/M10 A3003 RMK SC2AC6 SLP182

CYHM;2007-03-01 14:00;CYHM 011400Z 06016KT 15SM BKN090 BKN120 M03/M11 A3001 RMK AC6AC2 SLP175

CYHM;2007-03-01 15:00;CYHM 011500Z 05021KT 15SM BKN055 OVC078 M03/M09 A2997 RMK SC6AC2 SLP162

CYHM;2007-03-01 16:00;CYHM 011600Z 07018KT 15SM BKN014 OVC023 M02/M09 A2998 RMK SC6SC2 SLP165

CYHM;2007-03-01 16:02;CYHM 011602Z 07018KT 6SM -SHSN BKN010 OVC020 RMK SC6SC2

CYHM;2007-03-01 16:10;CYHM 011610Z 06018KT 1SM -SHSN BKN008 OVC017 RMK SN2SF5SC2

CYHM;2007-03-01 16:46;CYHM 011646Z 07020KT 1/2SM SN BKN006 OVC018 RMK SN2SF5SC2

CYHM;2007-03-01 17:00;CYHM 011700Z 07020KT 1/2SM SN BKN006 OVC016 M04/M06 A2994 RMK SN2SF5SC2 SLP152

CYHM;2007-03-01 17:36;CYHM 011736Z 05022KT 1/8SM SN DS BKN005 OVC017 RMK SN2SF4SC2

CYHM;2007-03-01 17:53;CYHM 011753Z 05022KT 1/8SM SN DRSN BKN007 OVC017 RMK SN2SF4SC2

CYHM;2007-03-01 18:00;CYHM 011800Z 04020G25KT 1/2SM SN BKN010 OVC034 M04/M05 A2990 RMK SN2SF5SC2 SLP136

CYHM;2007-03-01 18:13;CYHM 011813Z 04025KT 1SM -SN BKN011 BKN028 OVC038 RMK SN1SF4SC2SC1

CYHM;2007-03-01 18:28;CYHM 011828Z 05028KT 3/4SM -SN DRSN BKN005 OVC020 RMK SN2SF5SC2

CYHM;2007-03-01 18:40;CYHM 011840Z 06016KT 1/8SM SN DRSN OVC006 RMK SN3SF5

CYHM;2007-03-01 19:00;CYHM 011900Z 05025KT 1/8SM SN DRSN BKN004 OVC014 M04/M05 A2986 RMK SN2SF4SC2 SLP124

CYHM;2007-03-01 20:00;CYHM 012000Z CCA 06023G28KT 1/4SM -SN +BLSN BKN009 OVC023 M04/M05 A2985 RMK SN3SF3SC2 /S01/ RESN SLP120

CYHM;2007-03-01 20:31;CYHM 012031Z CCA 05029KT 1/8SM SN +BLSN BKN008 OVC035 RMK SN3SF3SC2 RESN

CYHM;2007-03-01 20:36;CYHM 012036Z 05029KT 1/8SM SN DRSN -FZRA BKN006 BKN015 OVC035 RMK SN2SF3SC2SC1

CYHM;2007-03-01 21:00;CYHM 012100Z 06026KT 1/8SM SN DRSN -FZRA BKN008 BKN014 OVC035 M03/M04 A2979 RMK SN2SF3SC2SC1 PRESFR SLP099

CYHM;2007-03-01 21:27;CYHM 012127Z 05027KT 2SM -SN DRSN -FZRA OVC005 RMK SN2SC6 RESN

CYHM;2007-03-01 21:40;CYHM 012140Z 06022KT 1 1/4SM -SN DRSN -FZRA OVC007 RMK SN2SC6 RESN

CYHM;2007-03-01 22:00;CYHM 012200Z 05023KT 5/8SM -SN DRSN -FZRA BKN007 OVC010 M03/M05 A2978 RMK SN3SC3SC2 /S03/ RESN SLP096

CYHM;2007-03-01 22:18;CYHM 012218Z CCA 05026KT 2 1/2SM -SN DRSN -FZRA BKN005 OVC034 RMK SN2SC3SC3

CYHM;2007-03-01 23:00;CYHM 012300Z CCA 05025KT 3SM DRSN -FZRA OVC005 M03/M04 A2971 RMK SC8 PRESFR /S04/ SLP073

CYHM;2007-03-02 00:00;CYHM 020000Z 05028KT 4SM -FZRA OVC007 M03/M04 A2970 RMK SC8 PCPN VRY LGT SLP069

CYHM;2007-03-02 00:30;CYHM 020030Z 05027KT 5SM -FZRA FEW009 OVC050 RMK SF2SC6 PCPN VRY LGT

CYHM;2007-03-02 01:00;CYHM 020100Z 05026G32KT 15SM -FZRA FEW012 OVC054 M02/M04 A2965 RMK SF2SC6 SLP054

CYHM;2007-03-02 01:35;CYHM 020135Z 05025KT 4SM -FZRA FEW012 OVC048 RMK SF2SC6

CYHM;2007-03-02 02:00;CYHM 020200Z CCA 05024KT 3SM -FZRA FEW010 OVC040 M01/M03 A2959 RMK SF2SC6 PRESFR SLP034

CYHM;2007-03-02 03:00;CYHM 020300Z 05015KT 2 1/2SM -FZRA FEW008 OVC026 M01/M02 A2954 RMK SF2SC6 PRESFR SLP014

CYHM;2007-03-02 03:08;CYHM 020308Z 05014KT 5SM -FZRA BKN007 OVC024 RMK SF6SC2 PRESFR

CYHM;2007-03-02 04:00;CYHM 020400Z 06015KT 6SM -FZRA OVC006 M01/M02 A2950 RMK SF8 PRESFR SLP999

CYHM;2007-03-02 05:00;CYHM 020500Z 06013KT 5SM FZRA OVC005 M00/M01 A2947 RMK SF8 PRESFR SLP989

CYHM;2007-03-02 05:19;CYHM 020519Z CCA 06012KT 6SM -FZRA OVC005 REFZRA RMK SF8 PRESFR

CYHM;2007-03-02 06:00;CYHM 020600Z 06012KT 4SM -FZRA OVC005 M00/M01 A2941 REFZRA RMK SF8 PRESFR SLP968

CYHM;2007-03-02 06:50;CYHM 020650Z 05020KT 2SM FZRA BR OVC004 RMK FG1SF7 WND SPD ESTIMATED

CYHM;2007-03-02 07:00;CYHM 020700Z 05020KT 2SM FZRA BR OVC003 M00/M01 A2935 RMK FG1SF7 WND SPD ESTIMATED PRESFR SLP948

CYHM;2007-03-02 07:09;CYHM 020709Z 05020KT 2SM -FZRA BR OVC002 REFZRA RMK FG1SF7 WND SPD ESTIMATED

CYHM;2007-03-02 07:36;CYHM 020736Z 05022KT 3/4SM -FZRA BR VV002 REFZRA RMK FG8 WND SPD ESTIMATED VIS VRB 1/2 - 1

CYHM;2007-03-02 08:00;CYHM 020800Z 05016KT 1SM -FZRA BR OVC002 M00/M00 A2929 RMK FG2ST6 WND SPD ESTIMATED VIS VRB 3/4 - 11/4 PRESRR SLP930

CYHM;2007-03-02 08:14;CYHM 020814Z 05016KT 1/2SM -FZRA FZFG VV002 RMK FG8 WND SPD ESTIMATED PRESFR

CYHM;2007-03-02 08:27;CYHM 020827Z 05020KT 1/4SM -FZRA FZFG VV002 RMK FG8 WND SPD ESTIMATED

CYHM;2007-03-02 09:00;CYHM 020900Z 05018KT 1/4SM -FZRA FZFG OVC002 M00/M00 A2924 RMK FG5ST3 WND SPD ESTIMATED SLP912

CYHM;2007-03-02 09:13;CYHM 020913Z 05014KT 1SM -FZRA BR OVC002 RMK FG2ST6 WND SPD ESTIMATED VIS VRB 3/4 - 11/4

CYHM;2007-03-02 09:25;CYHM 020925Z 05018KT 1/2SM -FZRA FZFG OVC002 RMK FG4ST4 WND SPD ESTIMATED

CYHM;2007-03-02 10:00;CYHM 021000Z 05014KT 1/8SM -RA FG VV002 00/M00 A2921 REFZRA RMK FG8 WND SPD ESTIMATED SLP900

CYHM;2007-03-02 10:37;CYHM 021037Z 05008KT 1/2SM -RA FG OVC008 RMK FG4SF4 WND SPD ESTIMATED

CYHM;2007-03-02 11:00;CYHM 021100Z 05006KT 1/4SM -RA FG OVC002 00/00 A2923 RMK FG5SF3 WND SPD ESTIMATED SLP909

CYHM;2007-03-02 11:13;CYHM 021113Z 05006KT 1 1/2SM -RA BR OVC003 RMK FG2SF6

CYHM;2007-03-02 11:46;CYHM 021146Z 23010KT 2 1/2SM -RA BR BKN004 OVC010 RMK SF6SC2 WND SPD ESTD

CYHM;2007-03-02 12:00;CYHM 021200Z 23014KT 4SM -RA BR BKN012 OVC036 01/01 A2926 RMK SC6SC2 WND SPD ESTD SLP917

CYHM;2007-03-02 12:08;CYHM 021208Z 23014KT 3/4SM -SN DRSN BKN004 OVC013 RMK SN2SF4SC2 WND SPD ESTD

CYHM;2007-03-02 12:16;CYHM 021216Z 24010KT 3SM -SN BR BKN016 OVC041 RMK SC5SC3

CYHM;2007-03-02 12:42;CYHM 021242Z 23012KT 10SM SCT014 BKN020 OVC062 RMK SC3SC3SC2 WND SPD ESTD

CYHM;2007-03-02 13:00;CYHM 021300Z 23009KT 12SM FEW018 BKN039 BKN064 01/M01 A2929 RMK CF1SC4SC2 SLP926

CYHM;2007-03-02 14:00;CYHM 021400Z 24014KT 10SM FEW025 BKN042 BKN060 01/M02 A2930 RMK CU1SC5SC2 CU TR SLP931

CYHM;2007-03-02 15:00;CYHM 021500Z 21018G23KT 15SM FEW025 FEW036 BKN042 BKN075 02/M03 A2931 RMK CU1SC2SC2AC1 SLP935

CYHM;2007-03-02 15:10;CYHM 021510Z 22018KT 8SM -SHSN FEW025 BKN038 OVC062 RMK CU1SC6SC2 CU TR

CYHM;2007-03-02 16:00;CYHM 021600Z 22015KT 10SM -SHSN FEW032 BKN062 01/M01 A2931 RMK SC2SC5 SLP933

CYHM;2007-03-02 17:00;CYHM 021700Z 21021G26KT 12SM -SHSN SCT034 BKN054 BKN070 01/M02 A2930 RMK SC3SC2AC1 SLP931

CYHM;2007-03-02 18:00;CYHM 021800Z 23028G36KT 2SM -SHSN FEW018 BKN026 OVC078 02/M02 A2931 RMK SC2SC5AC2 SLP934

CYHM;2007-03-02 18:20;CYHM 021820Z 22018KT 3/4SM -SN BR BKN010 OVC018 RMK SN2SF4SC2

CYHM;2007-03-02 18:32;CYHM 021832Z 23016G26KT 4SM -SN BR FEW007 BKN016 BKN075 RMK SF2SC4AC1

CYHM;2007-03-02 18:50;CYHM 021850Z 22021G26KT 1SM -SN BR BKN012 OVC018 RMK SN2SF5SC2

CYHM;2007-03-02 19:00;CYHM 021900Z 21022G34KT 10SM -SN FEW022 FEW042 BKN088 01/M02 A2931 RMK CU1SC2AC2 CU TR SLP934

CYHM;2007-03-02 19:45;CYHM 021945Z 23030G38KT 1/2SM SN BKN012 OVC025 RMK SN2SF5SC2

CYHM;2007-03-02 20:00;CYHM 022000Z 22020G30KT 2SM -SN BKN014 OVC025 00/M01 A2935 RMK SN2SF4SC2 SLP945

CYHM;2007-03-02 20:34;CYHM 022034Z 21020KT 3/4SM -SN BR BKN006 OVC018 RMK SN2SF4SC2

CYHM;2007-03-02 21:00;CYHM 022100Z 21020KT 15SM -SN FEW025 BKN037 BKN075 00/M01 A2936 RMK CU1SC5AC1 SLP952

CYHM;2007-03-02 22:00;CYHM 022200Z 24028G34KT 15SM DRSN FEW025 FEW058 BKN070 02/M05 A2938 RMK CU1SC2AC2 SLP957

CYHM;2007-03-02 22:49;CYHM 022249Z 24025G30KT 5SM -SHSN BKN022 BKN048 RMK SC5SC2

CYHM;2007-03-02 23:00;CYHM 022300Z 24028KT 5SM -SHSN BKN014 OVC025 01/M04 A2941 RMK SC5SC3 SLP966

CYHM;2007-03-02 23:40;CYHM 022340Z 24020G26KT 15SM SCT034 BKN040 OVC062 RMK SC3SC2SC2

CYHM;2007-03-03 00:00;CYHM 030000Z 24022G28KT 15SM SCT038 BKN043 BKN080 01/M04 A2942 RMK SC3SC2AC2 SLP972

CYHM;2007-03-03 01:00;CYHM 030100Z 23020G28KT 15SM FEW056 BKN080 01/M05 A2944 RMK SC2AC2 SLP978

CYHM;2007-03-03 02:00;CYHM 030200Z 23018KT 15SM FEW062 FEW095 SCT240 01/M05 A2947 RMK SC1AC1CI1 SLP987

CYHM;2007-03-03 03:00;CYHM 030300Z 21014KT 15SM FEW085 FEW120 BKN220 00/M05 A2948 RMK AC1AC2CI2 SLP992

CYHM;2007-03-03 04:00;CYHM 030400Z 22012KT 15SM FEW065 BKN110 M00/M05 A2949 RMK SC2AC2 SLP993

CYHM;2007-03-03 05:00;CYHM 030500Z 21014KT 15SM SCT085 M00/M05 A2948 RMK AC3 SLP990

CYHM;2007-03-03 06:00;CYHM 030600Z 22017G23KT 15SM FEW080 FEW190 M01/M06 A2947 RMK AC1AC1 SLP987

CYHM;2007-03-03 07:00;CYHM 030700Z 22016G21KT 15SM FEW100 FEW210 M01/M06 A2947 RMK AC1CI1 SLP989

CYHM;2007-03-03 08:00;CYHM 030800Z 21018G26KT 15SM FEW028 M01/M05 A2947 RMK SC2 SLP987

CYHM;2007-03-03 09:00;CYHM 030900Z 22018G24KT 10SM -SHSN SCT025 BKN045 M01/M05 A2946 RMK CU3SC3 SLP987

CYHM;2007-03-03 10:00;CYHM 031000Z 22018G26KT 15SM FEW040 BKN100 M01/M07 A2946 RMK SC2AC3 SLP986

CYHM;2007-03-03 11:00;CYHM 031100Z 23017G29KT 15SM BKN033 M01/M07 A2947 RMK SC6 SLP990

CYHM;2007-03-03 12:00;CYHM 031200Z 24022G34KT 15SM FEW033 FEW150 FEW250 M02/M08 A2948 RMK SC1AC1CI0 SLP993

CYHM;2007-03-03 13:00;CYHM 031300Z 23018G27KT 15SM FEW035 FEW150 FEW250 M02/M08 A2949 RMK SC1AC1CI0 SC TR SLP996

CYHM;2007-03-03 14:00;CYHM 031400Z 23017KT 15SM FEW030 FEW250 M02/M08 A2950 RMK SC1CI1 SLP000

CYHM;2007-03-03 15:00;CYHM 031500Z 23021KT 15SM BKN031 M01/M07 A2951 RMK SC7 SLP001

CYHM;2007-03-03 16:00;CYHM 031600Z 23019G24KT 15SM BKN029 M01/M07 A2951 RMK SC7 SLP001

CYHM;2007-03-03 17:00;CYHM 031700Z 23016G22KT 15SM OVC024 M01/M06 A2951 RMK SC8 SLP003

CYHM;2007-03-03 18:00;CYHM 031800Z 23018KT 15SM BKN028 M01/M06 A2951 RMK SC7 SLP003

CYHM;2007-03-03 19:00;CYHM 031900Z 23016G21KT 15SM BKN028 BKN050 M01/M06 A2952 RMK SC6SC1 SLP004

CYHM;2007-03-03 20:00;CYHM 032000Z 23019G25KT 14SM -SHSN SCT022 OVC029 M01/M06 A2954 RMK SC4SC4 PCPN VRY LGT SLP012

CYHM;2007-03-03 20:19;CYHM 032019Z 22018G24KT 2 1/2SM -SHSN SCT021 OVC028 RMK SN1SC3SC4

CYHM;2007-03-03 20:22;CYHM 032022Z 22018G24KT 1 3/4SM -SHSN SCT020 OVC027 RMK SN2SC2SC4

CYHM;2007-03-03 20:49;CYHM 032049Z 22017KT 3SM -SHSN SCT020 BKN027 RMK SC3SC4

CYHM;2007-03-03 21:00;CYHM 032100Z 22018KT 3SM -SHSN BKN018 BKN027 M01/M05 A2955 RMK SC5SC2 SLP018

CYHM;2007-03-03 22:00;CYHM 032200Z 23017KT 12SM -SHSN SCT018 BKN028 M01/M05 A2958 RMK CF4SC3 PCPN VRY LGT SLP025

CYHM;2007-03-03 23:00;CYHM 032300Z 23017KT 14SM SCT022 BKN030 M01/M05 A2959 RMK SC3SC3 SLP031

CYHM;2007-03-04 00:00;CYHM 040000Z 23017KT 15SM FEW021 BKN027 BKN092 M01/M05 A2962 RMK SC2SC3AC2 SLP040

CYHM;2007-03-04 00:29;CYHM 040029Z 22017KT 3SM -SHSN BKN018 OVC040 RMK SC6SC2

CYHM;2007-03-04 00:35;CYHM 040035Z 23016KT 1 3/4SM -SHSN VV014 RMK SN8

CYHM;2007-03-04 01:00;CYHM 040100Z 23015KT 1 1/2SM -SHSN BKN014 OVC022 M02/M04 A2963 RMK SN2SC4SC2 SLP045

CYHM;2007-03-04 01:24;CYHM 040124Z 24013KT 2SM -SHSN FEW008 BKN015 OVC032 RMK SN1CF2SC3SC2

CYHM;2007-03-04 01:55;CYHM 040155Z 24015KT 9SM -SHSN SCT016 BKN035 BKN055 RMK SC4SC2SC2

CYHM;2007-03-04 02:00;CYHM 040200Z 24016KT 12SM -SHSN SCT016 BKN032 BKN055 M02/M05 A2965 RMK SC4SC2SC2 SLP051

CYHM;2007-03-04 02:21;CYHM 040221Z 25014KT 15SM SCT016 BKN030 BKN052 RMK SC3SC2SC2

CYHM;2007-03-04 02:48;CYHM 040248Z 25013KT 3SM -SHSN BKN017 OVC028 RMK SC5SC3

CYHM;2007-03-04 03:00;CYHM 040300Z 25015KT 4SM -SHSN SCT018 OVC028 M03/M06 A2966 RMK SC4SC4 SLP055

CYHM;2007-03-04 04:00;CYHM 040400Z 25015KT 10SM -SHSN FEW020 OVC050 M03/M05 A2966 RMK CF2SC6 SLP055

CYHM;2007-03-04 05:00;CYHM 040500Z 25013G18KT 6SM -SHSN FEW017 OVC044 M03/M06 A2967 RMK CF2SC6 SLP058

CYHM;2007-03-04 05:10;CYHM 040510Z 25012KT 2SM -SHSN OVC025 RMK SN1SC7

CYHM;2007-03-04 05:14;CYHM 040514Z 25012KT 7SM -SHSN FEW017 OVC030 RMK CF2SC6

CYHM;2007-03-04 05:44;CYHM 040544Z 25012KT 1SM -SHSN OVC028 RMK SN2SC6 VIS VRB 3/4 - 11/4

CYHM;2007-03-04 06:00;CYHM 040600Z 25010KT 7SM -SHSN BKN018 BKN053 M03/M05 A2968 RMK CF5SC2 SLP063

CYHM;2007-03-04 07:00;CYHM 040700Z 25012KT 6SM -SHSN BKN015 OVC030 M03/M06 A2969 RMK CF6SC2 SLP066

CYHM;2007-03-04 08:00;CYHM 040800Z 24013KT 9SM -SHSN SCT018 BKN054 M04/M06 A2969 RMK CF3SC4 SLP066

CYHM;2007-03-04 09:00;CYHM 040900Z 25013G18KT 12SM -SHSN SCT017 BKN058 M04/M07 A2971 RMK CF4SC3 SLP071

CYHM;2007-03-04 10:00;CYHM 041000Z 24013G18KT 12SM -SHSN FEW017 OVC066 M04/M08 A2971 RMK CF2AC6 SLP073

CYHM;2007-03-04 10:42;CYHM 041042Z 25013G18KT 2SM -SHSN DRSN OVC016 RMK SN1SC7

CYHM;2007-03-04 10:49;CYHM 041049Z 25013G18KT 5SM -SHSN DRSN FEW016 SCT040 OVC065 RMK CF2SC2SC5

CYHM;2007-03-04 11:00;CYHM 041100Z 25015G22KT 4SM -SHSN DRSN BKN025 OVC040 M04/M07 A2973 RMK CF6SC2 SLP079

CYHM;2007-03-04 11:48;CYHM 041148Z 26016KT 2 1/2SM -SHSN DRSN FEW018 OVC064 RMK SC2SC6

CYHM;2007-03-04 12:00;CYHM 041200Z 26014G19KT 3SM -SHSN DRSN FEW018 OVC065 M04/M07 A2974 RMK SC2SC6 SLP083

CYHM;2007-03-04 13:00;CYHM 041300Z 26012KT 10SM -SHSN FEW018 FEW043 SCT068 M04/M07 A2976 RMK SC1SC2AC1 SLP090

CYHM;2007-03-04 14:00;CYHM 041400Z 27015KT 8SM -SHSN SCT017 BKN032 M04/M07 A2979 RMK CF4SC3 SLP098

CYHM;2007-03-04 15:00;CYHM 041500Z 27018G25KT 230V310 6SM -SHSN DRSN SCT017 OVC035 M04/M07 A2981 RMK CF3SC5 SLP107

CYHM;2007-03-04 16:00;CYHM 041600Z 26018G26KT 230V300 15SM -SHSN DRSN FEW022 BKN035 M04/M08 A2983 RMK CF2SC6 PCPN VRY LGT SLP112

CYHM;2007-03-04 17:00;CYHM 041700Z 27018G24KT 230V300 15SM -SHSN DRSN FEW021 OVC028 M04/M08 A2984 RMK CF2SC6 SLP115

CYHM;2007-03-04 18:00;CYHM 041800Z 26020KT 15SM -SHSN DRSN FEW024 BKN031 BKN250 M03/M08 A2983 RMK CU2SC5CI0 SLP114

CYHM;2007-03-04 19:00;CYHM 041900Z 27014KT 15SM SCT032 BKN250 M03/M09 A2982 RMK SC3CI2 SLP111

CYHM;2007-03-04 20:00;CYHM 042000Z 26019G25KT 15SM BKN032 BKN250 M02/M09 A2984 RMK SC6CI1 CI TR SLP115

CYHM;2007-03-04 20:35;CYHM 042035Z 26015G20KT 15SM -SHSN BKN030 BKN041 RMK SC5SC2 PCPN VRY LGT

CYHM;2007-03-04 21:00;CYHM 042100Z 26015KT 15SM -SHSN SCT030 BKN042 M02/M09 A2983 RMK SC4SC2 PCPN VRY LGT SLP113

CYHM;2007-03-04 22:00;CYHM 042200Z 26016KT 15SM -SHSN FEW020 SCT030 BKN042 M02/M09 A2983 RMK CF1SC3SC3 PCPN VRY LGT SLP112

CYHM;2007-03-04 23:00;CYHM 042300Z 25014KT 15SM SCT030 BKN042 M02/M08 A2982 RMK SC3SC4 SLP111

CYHM;2007-03-05 00:00;CYHM 050000Z 24014KT 15SM FEW030 BKN044 BKN100 M02/M09 A2982 RMK SC2SC2AC2 SLP111

CYHM;2007-03-05 01:00;CYHM 050100Z 23014KT 15SM SCT039 BKN120 M03/M09 A2981 RMK SC4AC2 SLP108

CYHM;2007-03-05 02:00;CYHM 050200Z 23014KT 15SM FEW040 BKN140 M03/M09 A2980 RMK SC2AC2 SLP103

CYHM;2007-03-05 03:00;CYHM 050300Z 23016KT 15SM FEW040 SCT140 BKN170 M03/M08 A2978 RMK SC2AC2AC2 SLP098

CYHM;2007-03-05 04:00;CYHM 050400Z 23017G24KT 15SM DRSN FEW040 FEW140 FEW190 M03/M08 A2976 RMK SC1AC1AC2 TR SC SLP091

CYHM;2007-03-05 05:00;CYHM 050500Z 23016G22KT 15SM DRSN FEW090 SCT250 M04/M09 A2975 RMK AC2CI1 SLP088

CYHM;2007-03-05 06:00;CYHM 050600Z 23015G20KT 15SM DRSN BKN040 BKN140 M04/M09 A2973 RMK SC6AC1 SLP080

CYHM;2007-03-05 07:00;CYHM 050700Z 24020G25KT 15SM DRSN FEW030 BKN079 M04/M09 A2971 RMK SC2AC6 SLP072

CYHM;2007-03-05 07:15;CYHM 050715Z 25018G24KT 12SM -SHSN DRSN BKN031 OVC060 RMK SC6SC2

CYHM;2007-03-05 08:00;CYHM 050800Z 25015G20KT 4SM -SHSN DRSN OVC017 M04/M08 A2970 RMK SC8 SLP069

CYHM;2007-03-05 09:00;CYHM 050900Z 25016G22KT 9SM -SHSN DRSN FEW027 OVC035 M04/M07 A2971 RMK CF1SC7 SLP072

CYHM;2007-03-05 10:00;CYHM 051000Z 25016KT 12SM -SHSN DRSN BKN021 OVC033 M04/M07 A2971 RMK SC6SC2 SLP072

CYHM;2007-03-05 11:00;CYHM 051100Z 25015KT 12SM -SHSN DRSN OVC022 M04/M07 A2971 RMK SC8 SLP074

CYHM;2007-03-05 12:00;CYHM 051200Z 28018G24KT 2SM -SN DRSN BKN018 OVC025 M03/M06 A2973 RMK SN1SC5SC2 SLP080

CYHM;2007-03-05 12:23;CYHM 051223Z CCA 28015G20KT 1SM -SN DRSN BKN010 OVC022 RMK SN2SF5SC2 VISB VRBL3/4-13/4

CYHM;2007-03-05 12:48;CYHM 051248Z 28022G32KT 10SM -SN DRSN FEW015 SCT048 BKN078 RMK CU2SC2AC2

CYHM;2007-03-05 13:00;CYHM 051300Z 28016G28KT 15SM DRSN FEW025 FEW038 SCT075 M04/M09 A2977 RMK CU1SC2AC1 SLP091

CYHM;2007-03-05 14:00;CYHM 051400Z 29020G32KT 15SM FEW025 FEW038 FEW100 M04/M11 A2980 RMK CU1SC1AC1 SLP101

CYHM;2007-03-05 15:00;CYHM 051500Z 28024G30KT 15SM DRSN FEW026 FEW038 M05/M12 A2983 RMK CU2SC1 SLP115

CYHM;2007-03-05 15:48;CYHM 051548Z 28024G32KT 15SM -SHSN DRSN SCT036 BKN040 RMK CU3SC3

CYHM;2007-03-05 16:00;CYHM 051600Z 29024G32KT 15SM -SHSN DRSN FEW032 BKN037 M06/M12 A2986 RMK CU2SC3 SLP125

CYHM;2007-03-05 17:00;CYHM 051700Z 29020G30KT 15SM -SHSN DRSN FEW027 BKN037 M06/M14 A2989 RMK CU2SC6 SLP133

CYHM;2007-03-05 18:00;CYHM 051800Z 29022G30KT 10SM -SHSN DRSN SCT022 BKN043 M06/M12 A2992 RMK SC3SC4 SLP145

CYHM;2007-03-05 18:04;CYHM 051804Z 30020G26KT 1SM -SHSN DRSN BKN014 BKN022 RMK SN1SC5SC2

CYHM;2007-03-05 18:14;CYHM 051814Z 30022G28KT 15SM -SHSN DRSN FEW027 BKN036 RMK CU2SC4

CYHM;2007-03-05 18:40;CYHM 051840Z 32026G32KT 15SM DRSN FEW023 FEW043 RMK CU1SC2

CYHM;2007-03-05 19:00;CYHM 051900Z 30026G34KT 15SM DRSN FEW028 BKN036 M08/M15 A2996 RMK CU2SC3 SLP159

CYHM;2007-03-05 20:00;CYHM 052000Z 30020G34KT 15SM DRSN BKN038 M08/M14 A3000 RMK SC6 CU ASOCTD SLP172

CYHM;2007-03-05 21:00;CYHM 052100Z 30020G32KT 15SM DRSN BKN038 M08/M15 A3003 RMK SC6 CU ASOCTD SLP184

CYHM;2007-03-05 21:31;CYHM 052131Z 30015G28KT 10SM -SHSN DRSN BKN024 BKN040 RMK SC5SC2 VSBY N-N/E 2SM

CYHM;2007-03-05 21:36;CYHM 052136Z 31022G38KT 1/2SM -SHSN BLSN BKN020 BKN034 RMK SN2SC4SC2 SUN DMLY VSBL

CYHM;2007-03-05 21:47;CYHM 052147Z 30016G26KT 3SM -SHSN BLSN BKN024 BKN036 RMK SC5SC2

CYHM;2007-03-05 22:00;CYHM 052200Z 30018G28KT 10SM -SHSN DRSN BKN036 BKN046 M09/M14 A3006 RMK SC5SC2 CF ASOCTD SLP194

CYHM;2007-03-05 22:32;CYHM 052232Z 30020G26KT 15SM DRSN SCT026 BKN036 RMK SC3SC1 CF ASOCTD

CYHM;2007-03-05 23:00;CYHM 052300Z 30018G28KT 15SM DRSN FEW022 BKN034 M10/M16 A3009 RMK SC2SC2 SLP202

CYHM;2007-03-05 23:10;CYHM 052310Z 31014G24KT 3/4SM -SHSN BLSN BKN024 BKN042 RMK SN2SC4SC2 VSBY VRBL 1/2-1SM

CYHM;2007-03-06 00:00;CYHM 060000Z 30014G20KT 15SM -SHSN DRSN FEW034 SCT044 M11/M14 A3014 RMK CF1SC3 SLP223

CYHM;2007-03-06 01:00;CYHM 060100Z 31016G26KT 15SM DRSN FEW034 FEW054 M12/M17 A3018 RMK SC1SC2 SLP235

CYHM;2007-03-06 02:00;CYHM 060200Z 32020G36KT 15SM DRSN FEW024 FEW044 M12/M16 A3022 RMK SC1SC1 SLP248

CYHM;2007-03-06 03:00;CYHM 060300Z 31013G20KT 15SM FEW031 M13/M20 A3025 RMK SC1 SLP260

CYHM;2007-03-06 04:00;CYHM 060400Z 29011KT 15SM FEW028 M14/M21 A3027 RMK SC1 SLP268

CYHM;2007-03-06 05:00;CYHM 060500Z 32012KT 15SM FEW028 M15/M22 A3030 RMK SC1 SC TR SLP278

CYHM;2007-03-06 06:00;CYHM 060600Z 05003KT 15SM FEW026 M16/M20 A3035 RMK SC1 SC TR SLP296

CYHM;2007-03-06 07:00;CYHM 060700Z 05007KT 15SM FEW026 M18/M21 A3039 RMK CF1 CF TR SLP309

CYHM;2007-03-06 08:00;CYHM 060800Z 00000KT 15SM FEW026 M18/M25 A3041 RMK CF1 CF TR SLP316

CYHM;2007-03-06 09:00;CYHM 060900Z 00000KT 15SM FEW024 M19/M24 A3044 RMK CF1 CF TR SLP327

CYHM;2007-03-06 10:00;CYHM 061000Z 32003KT 15SM FEW024 M20/M25 A3046 RMK SC1 SC TR SLP335

CYHM;2007-03-06 11:00;CYHM 061100Z 01003KT 15SM FEW024 M21/M26 A3049 RMK SC1 SLP345

CYHM;2007-03-06 12:00;CYHM 061200Z 34002KT 15SM FEW035 FEW240 M22/M26 A3053 RMK SC1CI1 SC TR CI TR SLP361

CYHM;2007-03-06 13:00;CYHM 061300Z 01002KT 15SM FEW035 FEW240 M20/M25 A3055 RMK SC1CI1 SC TR CI TR SLP369

CYHM;2007-03-06 14:00;CYHM 061400Z 05002KT 15SM FEW020 FEW220 M18/M25 A3057 RMK CU1CI1 CU TR CI TR SLP373

CYHM;2007-03-06 15:00;CYHM 061500Z 00000KT 15SM FEW025 FEW220 M18/M25 A3057 RMK CU1CI1 SLP375

CYHM;2007-03-06 16:00;CYHM 061600Z 22003KT 15SM FEW025 FEW240 M17/M25 A3057 RMK CU1CI1 SLP375

CYHM;2007-03-06 17:00;CYHM 061700Z 24008KT 15SM FEW020 FEW240 M16/M25 A3057 RMK CU1CI1 CU TR SLP373

CYHM;2007-03-06 18:00;CYHM 061800Z 27010KT 15SM FEW025 FEW240 M15/M24 A3055 RMK CU1CI1 CU TR SLP366

CYHM;2007-03-06 19:00;CYHM 061900Z 22008KT 15SM FEW025 BKN240 M14/M22 A3053 RMK CU1CI2 CU TR SLP360

CYHM;2007-03-06 20:00;CYHM 062000Z 26011KT 15SM FEW040 SCT250 M13/M23 A3052 RMK CU1CI1 CU TR SLP359

CYHM;2007-03-06 21:00;CYHM 062100Z 26010KT 15SM FEW040 BKN250 M13/M22 A3049 RMK CU1CI1 CU TR CONTRAILS SLP349

CYHM;2007-03-06 22:00;CYHM 062200Z 27008KT 15SM FEW034 BKN250 M13/M22 A3048 RMK CU1CI1 CU TR SLP345

CYHM;2007-03-06 23:00;CYHM 062300Z 27007KT 15SM FEW030 BKN140 BKN250 M14/M21 A3046 RMK CU1AS2CI1 CU TR CONTRAILS SLP338

CYHM;2007-03-07 00:00;CYHM 070000Z 26005KT 15SM BKN110 OVC250 M14/M21 A3045 RMK AS5CI1 SLP333

CYHM;2007-03-07 01:00;CYHM 070100Z 23003KT 15SM OVC075 M14/M20 A3044 RMK AS8 SLP330

CYHM;2007-03-07 02:00;CYHM 070200Z 25004KT 10SM -SHSN OVC026 M13/M20 A3043 RMK ST8 SLP328

CYHM;2007-03-07 03:00;CYHM 070300Z 20002KT 3SM -SN OVC026 M14/M17 A3041 RMK SN2SC6 SLP320

CYHM;2007-03-07 04:00;CYHM 070400Z 20002KT 2 1/2SM -SN OVC024 M14/M16 A3039 RMK SN2SC6 SLP314

CYHM;2007-03-07 05:00;CYHM 070500Z 00000KT 5SM -SN OVC042 M14/M17 A3037 RMK ST8 SLP307

CYHM;2007-03-07 06:00;CYHM 070600Z 00000KT 2 1/2SM -SN OVC026 M14/M16 A3035 RMK SN2ST6 SLP299

CYHM;2007-03-07 07:00;CYHM 070700Z 00000KT 2 1/2SM -SN OVC033 M14/M16 A3033 RMK SN2ST6 SLP293

CYHM;2007-03-07 08:00;CYHM 070800Z 00000KT 5SM -SN OVC025 M14/M16 A3030 RMK SC8 SLP282

CYHM;2007-03-07 09:00;CYHM 070900Z 00000KT 12SM -SN OVC110 M14/M16 A3028 RMK AC8 SLP272

CYHM;2007-03-07 10:00;CYHM 071000Z 00000KT 12SM -SN FEW093 OVC110 M14/M16 A3027 RMK AC2AC6 SLP271

CYHM;2007-03-07 11:00;CYHM 071100Z 00000KT 15SM -SN SCT088 BKN110 M15/M17 A3027 RMK AC3AC1 SLP270

CYHM;2007-03-07 11:14;CYHM 071114Z 00000KT 15SM BKN086 BKN120 RMK AC5AC1

CYHM;2007-03-07 12:00;CYHM 071200Z 00000KT 15SM FEW045 BKN084 BKN120 M14/M17 A3027 RMK SC1AC5AC1 SLP270

CYHM;2007-03-07 13:00;CYHM 071300Z 00000KT 15SM FEW045 FEW120 BKN220 M14/M16 A3026 RMK SC1AC1CI2 SC TR SLP269

CYHM;2007-03-07 14:00;CYHM 071400Z 18005KT 15SM FEW025 FEW220 M13/M16 A3026 RMK CU1CI1 CU TR SLP268

CYHM;2007-03-07 15:00;CYHM 071500Z 21004KT 15SM FEW025 FEW220 M12/M15 A3026 RMK CU1CI1 SLP266

CYHM;2007-03-07 16:00;CYHM 071600Z 00000KT 15SM FEW025 M10/M17 A3025 RMK CU1 CU TR SLP264

CYHM;2007-03-07 17:00;CYHM 071700Z 24004KT 15SM FEW025 M09/M17 A3025 RMK CU1 SLP263

CYHM;2007-03-07 18:00;CYHM 071800Z 27006KT 15SM FEW025 M09/M16 A3024 RMK CU1 SLP259

CYHM;2007-03-07 19:00;CYHM 071900Z 24006KT 15SM FEW025 FEW240 M08/M16 A3023 RMK CU1CI0 CU TR CI TR SLP254

CYHM;2007-03-07 20:00;CYHM 072000Z 26007KT 15SM BKN046 M08/M16 A3021 RMK SC5 SLP250

CYHM;2007-03-07 21:00;CYHM 072100Z 26011KT 15SM FEW046 M07/M15 A3021 RMK SC2 CU ASOCTD SLP248

CYHM;2007-03-07 22:00;CYHM 072200Z 26009KT 15SM FEW036 M07/M15 A3021 RMK SC1 CU ASOCTD CONTRAILS SLP249

CYHM;2007-03-07 23:00;CYHM 072300Z 26010KT 15SM FEW036 FEW250 M08/M15 A3023 RMK SC1CI1 CU ASOCTD CI TR CONTRAILS SLP254

CYHM;2007-03-08 00:00;CYHM 080000Z 27006KT 15SM FEW034 FEW250 M10/M15 A3024 RMK SC1CI1 SC TR CI TR SLP259

CYHM;2007-03-08 01:00;CYHM 080100Z 25005KT 15SM FEW250 M10/M14 A3025 RMK CI1 CI TR SLP261

CYHM;2007-03-08 02:00;CYHM 080200Z 24006KT 15SM FEW250 M12/M15 A3025 RMK CI1 CI TR SLP261

CYHM;2007-03-08 03:00;CYHM 080300Z 24005KT 15SM FEW250 M12/M15 A3025 RMK CI1 CI TR SLP261

CYHM;2007-03-08 04:00;CYHM 080400Z 24007KT 15SM FEW220 M12/M15 A3024 RMK CI1 SLP259

CYHM;2007-03-08 05:00;CYHM 080500Z 25009KT 15SM FEW210 M12/M15 A3023 RMK CI1 SLP257

CYHM;2007-03-08 06:00;CYHM 080600Z 25010KT 15SM FEW220 M13/M15 A3023 RMK CI1 SLP256

CYHM;2007-03-08 07:00;CYHM 080700Z 25007KT 15SM SCT150 BKN210 M13/M15 A3023 RMK AC3CI1 SLP254

CYHM;2007-03-08 08:00;CYHM 080800Z 25007KT 15SM FEW140 SCT200 M13/M15 A3021 RMK AC1CI2 SLP249

CYHM;2007-03-08 09:00;CYHM 080900Z 25008KT 12SM BKN140 M12/M15 A3021 RMK AC6 FROIN SLP247

CYHM;2007-03-08 10:00;CYHM 081000Z 26007KT 15SM FEW130 BKN230 M13/M15 A3021 RMK AC2CI2 FROIN SLP247

CYHM;2007-03-08 11:00;CYHM 081100Z 25009KT 15SM FEW120 BKN230 M12/M14 A3021 RMK AC1CI3 SLP247

CYHM;2007-03-08 12:00;CYHM 081200Z 25008KT 15SM FEW120 FEW160 BKN220 M12/M15 A3021 RMK AC1AC2CI2 SLP247

CYHM;2007-03-08 13:00;CYHM 081300Z 26008KT 15SM FEW120 BKN240 M11/M14 A3023 RMK AC2CI3 CONTRAIL SLP254

CYHM;2007-03-08 13:50;CYHM 081350Z 29007KT 8SM -SHSN SCT031 BKN110 BKN220 RMK SC4AC2CI1

CYHM;2007-03-08 14:00;CYHM 081400Z 29007KT 5SM -SHSN SCT018 BKN028 BKN220 M10/M13 A3026 RMK SC3SC3CI1 SLP264

CYHM;2007-03-08 14:34;CYHM 081434Z 29007KT 10SM FEW036 BKN220 RMK SC2CI2

CYHM;2007-03-08 15:00;CYHM 081500Z 28008KT 10SM FEW036 BKN079 BKN220 M08/M11 A3027 RMK SC1AC6CI1 SLP269

CYHM;2007-03-08 16:00;CYHM 081600Z 32006KT 15SM FEW020 FEW035 OVC069 M06/M12 A3030 RMK CU1SC2AC6 CU RE SLP278

CYHM;2007-03-08 17:00;CYHM 081700Z 02005KT 10SM FEW020 BKN041 OVC060 M06/M12 A3031 RMK CU1SC4SC3 SLP282

CYHM;2007-03-08 18:00;CYHM 081800Z 05002KT 15SM FEW032 OVC059 M05/M12 A3032 RMK CU2SC6 SLP284

CYHM;2007-03-08 19:00;CYHM 081900Z 18006KT 15SM FEW035 OVC061 M05/M12 A3032 RMK SC2SC6 CU ASOCTD SLP284

CYHM;2007-03-08 20:00;CYHM 082000Z 21006KT 15SM FEW035 BKN062 M05/M11 A3033 RMK SC2SC6 SLP287

CYHM;2007-03-08 21:00;CYHM 082100Z 24005KT 210V290 15SM FEW035 BKN061 BKN078 BKN250 M04/M12 A3033 RMK SC1SC5AC2CI0 SLP288

CYHM;2007-03-08 22:00;CYHM 082200Z 25004KT 210V290 15SM FEW060 BKN092 M04/M12 A3034 RMK SC2AC5 SLP289

CYHM;2007-03-08 23:00;CYHM 082300Z 20002KT 15SM FEW060 BKN096 M05/M11 A3033 RMK SC1AC7 SLP288

CYHM;2007-03-09 00:00;CYHM 090000Z 18006KT 15SM FEW060 BKN095 M06/M10 A3035 RMK SC1AC6 SLP293

CYHM;2007-03-09 01:00;CYHM 090100Z 16005KT 15SM BKN098 M07/M11 A3035 RMK AC4 SLP294

CYHM;2007-03-09 03:00;CYHM 090300Z 14003KT 15SM BKN099 M08/M11 A3037 RMK AC6 SLP299

CYHM;2007-03-09 04:00;CYHM 090400Z 14004KT 15SM FEW100 M09/M12 A3035 RMK AC1 SLP293

CYHM;2007-03-09 05:00;CYHM 090500Z 00000KT 15SM FEW100 FEW250 M10/M12 A3036 RMK AC1CI1 SLP295

CYHM;2007-03-09 06:00;CYHM 090600Z 11006KT 15SM FEW100 FEW250 M10/M12 A3034 RMK AC1CI1 TR AC SLP289

CYHM;2007-03-09 07:00;CYHM 090700Z 11006KT 15SM SCT250 M11/M12 A3033 RMK CI3 CONTRAILS SLP287

CYHM;2007-03-09 08:00;CYHM 090800Z 08003KT 15SM FEW250 M11/M13 A3032 RMK CI2 SLP284

CYHM;2007-03-09 09:00;CYHM 090900Z 07006KT 15SM SCT250 M11/M14 A3032 RMK CI2 SLP284

CYHM;2007-03-09 10:00;CYHM 091000Z 06008KT 15SM FEW250 M11/M14 A3032 RMK CI1 SLP282

CYHM;2007-03-09 11:00;CYHM 091100Z 07008KT 15SM BKN250 M11/M14 A3030 RMK CI3 CONTRAILS SLP275

CYHM;2007-03-09 12:00;CYHM 091200Z 08005KT 15SM BKN220 M11/M14 A3030 RMK CI3 CONTRAIL SLP277

CYHM;2007-03-09 13:00;CYHM 091300Z 04004KT 15SM SCT240 M09/M14 A3030 RMK CI2 SLP278

CYHM;2007-03-09 14:00;CYHM 091400Z 07005KT 15SM FEW240 M07/M13 A3030 RMK CI2 SLP275

CYHM;2007-03-09 15:00;CYHM 091500Z 09006KT 15SM FEW240 M06/M12 A3026 RMK CI1 SLP264

CYHM;2007-03-09 16:00;CYHM 091600Z 00000KT 15SM FEW240 M03/M12 A3025 RMK CI1 CI TR SLP260

CYHM;2007-03-09 17:00;CYHM 091700Z 09004KT 15SM FEW240 M02/M11 A3024 RMK CI1 CI TR SLP256

CYHM;2007-03-09 18:00;CYHM 091800Z 10006KT 15SM FEW240 M02/M09 A3021 RMK CI1 SLP243

CYHM;2007-03-09 19:00;CYHM 091900Z 09006KT 15SM FEW240 M01/M10 A3018 RMK CI1 SLP234

CYHM;2007-03-09 20:00;CYHM 092000Z 09006KT 15SM BKN250 M00/M08 A3015 RMK CI2 CONTRAILS SLP223

CYHM;2007-03-09 21:00;CYHM 092100Z 07008KT 15SM BKN250 01/M09 A3012 RMK CI2 CONTRAILS SLP214

CYHM;2007-03-09 22:00;CYHM 092200Z 05012KT 15SM BKN250 M01/M07 A3011 RMK CI2 CONTRAILS SLP210

CYHM;2007-03-09 23:00;CYHM 092300Z 05011KT 15SM BKN250 M02/M07 A3010 RMK CI2 CONTRAILS SLP208

CYHM;2007-03-10 00:00;CYHM 100000Z 04014KT 15SM BKN250 M02/M07 A3010 RMK CI2 SLP207

CYHM;2007-03-10 01:00;CYHM 100100Z 04012KT 15SM SCT250 M02/M05 A3009 RMK CI2 SLP205

CYHM;2007-03-10 02:00;CYHM 100200Z 04011KT 15SM SCT250 M02/M04 A3007 RMK CI2 SLP198

CYHM;2007-03-10 03:00;CYHM 100300Z 04009KT 15SM FEW250 M02/M04 A3005 RMK CI1 SLP187

CYHM;2007-03-10 04:00;CYHM 100400Z 08006KT 15SM FEW190 M03/M04 A3001 RMK AC1 SLP176

CYHM;2007-03-10 05:00;CYHM 100500Z 04006KT 15SM FEW190 SCT250 M03/M04 A3000 RMK AC1CI2 SLP170

CYHM;2007-03-10 06:00;CYHM 100600Z 04005KT 15SM OVC190 M02/M03 A2998 RMK AC8 SLP163

CYHM;2007-03-10 07:00;CYHM 100700Z 07004KT 15SM FEW080 BKN180 M02/M04 A2996 RMK AC1AC5 SLP156

CYHM;2007-03-10 08:00;CYHM 100800Z 15005KT 8SM -FZRA OVC065 M00/M02 A2993 RMK SC8 SLP147

CYHM;2007-03-10 08:12;CYHM 100812Z 15006KT 12SM OVC062 REFZRA RMK SC8

CYHM;2007-03-10 08:34;CYHM 100834Z 16005KT 12SM -RA OVC070 REFZRA RMK AC8

CYHM;2007-03-10 09:00;CYHM 100900Z 17007KT 15SM FEW080 OVC150 01/M03 A2990 REFZRA RMK AC2AC6 SLP135

CYHM;2007-03-10 10:00;CYHM 101000Z 20005KT 15SM OVC080 01/M02 A2990 RMK AC8 SLP133

CYHM;2007-03-10 10:49;CYHM 101049Z 19008KT 10SM -SHRA OVC060 RMK SC8

CYHM;2007-03-10 11:00;CYHM 101100Z 19009KT 12SM -SHRA OVC062 03/M00 A2988 RMK SC8 SLP126

CYHM;2007-03-10 12:00;CYHM 101200Z 19015KT 6SM -SHRA BR SCT044 OVC060 04/01 A2985 RMK SC3SC5 SLP116

CYHM;2007-03-10 13:00;CYHM 101300Z 21016G22KT 5SM -SHRA BR BKN025 OVC056 04/01 A2985 RMK SC6SC2 SLP118

CYHM;2007-03-10 14:00;CYHM 101400Z CCA 22014KT 4SM -SHRA BR BKN009 OVC031 04/03 A2987 RMK SC6SC2 SLP123

CYHM;2007-03-10 14:24;CYHM 101424Z 22012KT 2 1/2SM -SHRA BR OVC005 RMK SC8

CYHM;2007-03-10 14:45;CYHM 101445Z 22011KT 1 1/2SM -SHRA BR OVC004 RMK FG2SC6

CYHM;2007-03-10 15:00;CYHM 101500Z 22012KT 1 1/2SM -SHRA BR OVC004 04/04 A2988 RMK FG2SC6 SLP128

CYHM;2007-03-10 15:29;CYHM 101529Z 23012KT 1 1/4SM -SHRA BR OVC003 RMK FG2SC6 PCPN VRY LGT

CYHM;2007-03-10 16:00;CYHM 101600Z 23012KT 3/4SM BR OVC002 05/05 A2990 RMK FG3SC5 SLP134

CYHM;2007-03-10 16:19;CYHM 101619Z 25012KT 3/8SM FG OVC002 RMK FG5SC3

CYHM;2007-03-10 17:00;CYHM 101700Z 25012KT 3/8SM FG OVC002 05/04 A2991 RMK FG5SC3 SLP139

CYHM;2007-03-10 17:11;CYHM 101711Z 25011KT 3/4SM BR BKN003 OVC007 RMK FG4SC3SC1 VIS S 3/8

CYHM;2007-03-10 17:35;CYHM 101735Z 27011KT 1 1/2SM BR OVC003 RMK FG2SC6

CYHM;2007-03-10 18:00;CYHM 101800Z 26013G18KT 2SM BR BKN004 OVC007 04/03 A2993 RMK FG1SC6SC1 SLP145

CYHM;2007-03-10 18:38;CYHM 101838Z 26012KT 2 1/2SM BR FEW004 OVC008 RMK CF2SC6

CYHM;2007-03-10 19:00;CYHM 101900Z 26012G17KT 2 1/2SM BR OVC009 04/02 A2994 RMK SC8 SLP149

CYHM;2007-03-10 20:00;CYHM 102000Z 26013KT 2 1/2SM BR OVC010 03/02 A2996 RMK FG1SC7 SLP155

CYHM;2007-03-10 21:00;CYHM 102100Z CCA 26012KT 2 1/2SM HZ OVC011 04/01 A2998 RMK HZ1SC7 SLP162

CYHM;2007-03-10 22:00;CYHM 102200Z 24008KT 3SM HZ BKN014 04/01 A3001 RMK SC7 SLP172

CYHM;2007-03-10 23:00;CYHM 102300Z 24005KT 4SM HZ BKN015 BKN025 03/01 A3004 RMK SC6SC2 SLP182

CYHM;2007-03-11 00:00;CYHM 110000Z CCA 19006KT 3SM BR FEW016 SCT030 02/00 A3005 RMK SC2SC2 SLP184

CYHM;2007-03-11 01:00;CYHM 110100Z 17006KT 3SM BR FEW042 SCT170 02/00 A3008 RMK SC2AC2 SLP193

CYHM;2007-03-11 02:00;CYHM 110200Z 18005KT 2SM BR SCT050 00/00 A3009 RMK FG1SC3 SLP197

CYHM;2007-03-11 03:00;CYHM 110300Z 21005KT 1 3/4SM BR OVC051 00/M00 A3010 RMK FG2SC6 SLP203

CYHM;2007-03-11 03:09;CYHM 110309Z 23005KT 4SM BR SCT058 RMK SC4

CYHM;2007-03-11 04:00;CYHM 110400Z 25007KT 7SM FEW200 02/00 A3011 RMK CI1 SLP206

CYHM;2007-03-11 05:00;CYHM 110500Z 25007KT 12SM FEW200 02/M01 A3012 RMK CI1 SLP207

CYHM;2007-03-11 06:00;CYHM 110600Z 27010KT 15SM BKN034 02/M02 A3014 RMK SC6 SLP214

CYHM;2007-03-11 07:00;CYHM 110700Z 27009KT 15SM FEW052 FEW200 01/M03 A3015 RMK SC1CI1 SLP218

CYHM;2007-03-11 08:00;CYHM 110800Z 28007KT 15SM SCT032 01/M04 A3017 RMK SC3 SLP223

CYHM;2007-03-11 09:00;CYHM 110900Z 30011G16KT 15SM FEW030 M01/M05 A3019 RMK SC2 SLP234

CYHM;2007-03-11 10:00;CYHM 111000Z 30010G16KT 15SM FEW030 FEW200 M02/M06 A3023 RMK SC2CI1 SLP245

CYHM;2007-03-11 11:00;CYHM 111100Z 32010KT 15SM FEW030 M03/M07 A3026 RMK SC1 SLP257

CYHM;2007-03-11 12:00;CYHM 111200Z 29007KT 15SM FEW030 M02/M07 A3029 RMK SC1 SLP269

CYHM;2007-03-11 13:00;CYHM 111300Z 29006KT 15SM FEW030 M02/M06 A3033 RMK SC1 SLP280

CYHM;2007-03-11 14:00;CYHM 111400Z 30008KT 15SM SCT023 M01/M05 A3035 RMK SC4 SLP288

CYHM;2007-03-11 15:00;CYHM 111500Z 30007KT 250V330 15SM FEW024 00/M05 A3037 RMK SC1 SLP294

CYHM;2007-03-11 16:00;CYHM 111600Z 26010KT 230V300 15SM FEW024 01/M05 A3039 RMK SC1 SLP302

CYHM;2007-03-11 17:00;CYHM 111700Z 26008KT 210V290 15SM FEW026 01/M05 A3039 RMK SC1 SLP302

CYHM;2007-03-11 18:00;CYHM 111800Z 24010KT 15SM FEW026 02/M05 A3040 RMK SC1 SLP303

CYHM;2007-03-11 19:00;CYHM 111900Z 25013KT 15SM FEW025 FEW230 02/M05 A3040 RMK CF1CI1 CF TR SLP304

CYHM;2007-03-11 20:00;CYHM 112000Z 25012KT 15SM FEW025 SCT240 03/M04 A3040 RMK CF1CI2 CF TR SLP305

CYHM;2007-03-11 21:00;CYHM 112100Z 26010KT 15SM BKN240 02/M04 A3040 RMK CI2 SLP306

CYHM;2007-03-11 22:00;CYHM 112200Z 23009KT 15SM BKN240 02/M03 A3038 RMK CI2 SLP298

CYHM;2007-03-11 23:00;CYHM 112300Z 22009KT 15SM SCT240 00/M03 A3036 RMK CI2 SLP293

CYHM;2007-03-12 00:00;CYHM 120000Z 22008KT 15SM FEW240 M01/M04 A3038 RMK CI2 SLP298

CYHM;2007-03-12 01:00;CYHM 120100Z 22009KT 15SM FEW200 M01/M04 A3038 RMK CI1 SLP299

CYHM;2007-03-12 02:00;CYHM 120200Z 22010KT 15SM SKC M02/M04 A3037 RMK SLP295

CYHM;2007-03-12 03:00;CYHM 120300Z 24010KT 15SM SKC M02/M05 A3036 RMK SLP294

CYHM;2007-03-12 04:00;CYHM 120400Z 24008KT 15SM SKC M03/M05 A3035 RMK SLP290

CYHM;2007-03-12 05:00;CYHM 120500Z 23009KT 15SM SKC M03/M05 A3032 RMK SLP280

CYHM;2007-03-12 06:00;CYHM 120600Z 23008KT 15SM SKC M04/M06 A3031 RMK SLP274

CYHM;2007-03-12 07:00;CYHM 120700Z 22007KT 15SM FEW260 M05/M07 A3030 RMK CI1 SLP270

CYHM;2007-03-12 08:00;CYHM 120800Z 24007KT 15SM BKN250 M04/M06 A3028 RMK CI5 FROIN SLP265

CYHM;2007-03-12 09:00;CYHM 120900Z 22007KT 15SM BKN250 M05/M07 A3027 RMK CI3 FROIN SLP263

CYHM;2007-03-12 10:00;CYHM 121000Z 20007KT 15SM BKN230 M04/M07 A3026 RMK CI5 SLP258

CYHM;2007-03-12 11:00;CYHM 121100Z 24006KT 15SM FEW180 BKN220 M04/M07 A3026 RMK AC2CI4 SLP258

CYHM;2007-03-12 12:00;CYHM 121200Z 21008KT 15SM FEW180 BKN210 M03/M07 A3024 RMK AC2CI6 SLP253

CYHM;2007-03-12 13:00;CYHM 121300Z 22008KT 15SM BKN170 OVC220 M03/M06 A3024 RMK AC6CI2 SLP251

CYHM;2007-03-12 14:00;CYHM 121400Z 21008KT 15SM SCT180 BKN220 M01/M05 A3023 RMK AC3CI4 CONTRAIL SLP248

CYHM;2007-03-12 15:00;CYHM 121500Z 23012KT 15SM BKN130 BKN220 02/M04 A3021 RMK AC5CI2 SLP242

CYHM;2007-03-12 16:00;CYHM 121600Z 22010KT 15SM BKN110 BKN150 OVC220 03/M04 A3020 RMK AC5AC2CI2 SLP238

CYHM;2007-03-12 17:00;CYHM 121700Z 22008KT 15SM BKN080 OVC120 03/M04 A3019 RMK AC5AS3 SLP235

CYHM;2007-03-12 18:00;CYHM 121800Z 24012KT 15SM BKN054 BKN059 OVC080 05/M05 A3017 RMK SC5SC2AC1 SLP228

CYHM;2007-03-12 19:00;CYHM 121900Z 22008KT 15SM OVC060 03/M03 A3015 RMK ST8 SLP220

CYHM;2007-03-12 20:00;CYHM 122000Z 20008KT 15SM OVC052 04/M02 A3011 RMK SC8 SLP207

CYHM;2007-03-12 21:00;CYHM 122100Z 19009KT 15SM OVC044 03/M02 A3010 RMK SC8 SLP205

CYHM;2007-03-12 22:00;CYHM 122200Z 19009KT 12SM FEW036 OVC054 02/M01 A3010 RMK SF1SC7 SLP202

CYHM;2007-03-12 23:00;CYHM 122300Z 20012KT 15SM BKN056 03/M02 A3007 RMK SC7 SLP195

CYHM;2007-03-13 00:00;CYHM 130000Z 21010KT 15SM BKN058 OVC084 03/M02 A3007 RMK SC7AC1 SLP195

CYHM;2007-03-13 01:00;CYHM 130100Z 20011KT 15SM OVC055 03/M02 A3007 RMK SC8 SLP193

CYHM;2007-03-13 02:00;CYHM 130200Z 19010KT 15SM BKN046 OVC054 04/M02 A3006 RMK SC6SC2 SLP190

CYHM;2007-03-13 03:00;CYHM 130300Z 20009KT 15SM BKN044 04/M02 A3006 RMK SC7 SLP186

CYHM;2007-03-13 04:00;CYHM 130400Z 20007KT 15SM OVC037 04/M02 A3003 RMK SC8 SLP178

CYHM;2007-03-13 05:00;CYHM 130500Z 22007KT 15SM OVC035 03/M01 A3003 RMK SC8 SLP176

CYHM;2007-03-13 06:00;CYHM 130600Z 23007KT 15SM OVC043 03/M01 A3001 RMK SC8 SLP170

CYHM;2007-03-13 07:00;CYHM 130700Z 21008KT 15SM FEW046 OVC130 03/M01 A2998 RMK SC2AS6 SLP161

CYHM;2007-03-13 08:00;CYHM 130800Z 22009KT 15SM FEW034 BKN140 BKN230 03/M01 A2996 RMK SC1AC5CS1 SLP152

CYHM;2007-03-13 09:00;CYHM 130900Z 23010KT 15SM FEW033 BKN140 OVC160 04/M01 A2996 RMK SC2AC5AC1 SLP152

CYHM;2007-03-13 10:00;CYHM 131000Z 23009KT 15SM BKN130 BKN160 05/M02 A2995 RMK AC6AC2 SLP151

CYHM;2007-03-13 11:00;CYHM 131100Z 22008KT 15SM BKN028 BKN120 04/M01 A2996 RMK SC5AC2 SLP152

CYHM;2007-03-13 12:00;CYHM 131200Z 22012KT 15SM FEW026 BKN130 BKN220 04/M01 A2993 RMK SC2AC4CI1 SLP142

CYHM;2007-03-13 13:00;CYHM 131300Z 24011KT 15SM SCT035 BKN120 BKN180 BKN220 04/M01 A2995 RMK SC3AC2AC2CI1 SLP149

CYHM;2007-03-13 14:00;CYHM 131400Z 23011KT 15SM FEW035 FEW120 BKN180 BKN220 05/M01 A2993 RMK SC1AC2AC2CI2 SLP144

CYHM;2007-03-13 15:00;CYHM 131500Z 24012KT 15SM SCT180 BKN220 06/00 A2992 RMK AC3CI2 SLP139

CYHM;2007-03-13 16:00;CYHM 131600Z 22011KT 15SM SCT093 BKN240 07/01 A2991 RMK AC4CI2 SLP136

CYHM;2007-03-13 17:00;CYHM 131700Z 21012KT 15SM FEW140 BKN220 08/03 A2989 RMK AC2CI2 SLP130

CYHM;2007-03-13 18:00;CYHM 131800Z 21014KT 15SM FEW160 BKN220 09/04 A2988 RMK AC2CI3 SLP124

CYHM;2007-03-13 19:00;CYHM 131900Z 21010KT 15SM FEW140 BKN240 10/04 A2986 RMK AC1CI1 CONTRAILS SLP119

CYHM;2007-03-13 20:00;CYHM 132000Z 22013KT 15SM FEW120 BKN250 11/06 A2985 RMK AC1CI1 AC TR CONTRAILS SLP114

CYHM;2007-03-13 21:00;CYHM 132100Z 22013KT 15SM FEW120 BKN250 11/06 A2983 RMK AC1CI1 AC TR CONTRAILS SLP108

CYHM;2007-03-13 22:00;CYHM 132200Z 23012KT 15SM BKN240 11/07 A2984 RMK CI2 SLP110

CYHM;2007-03-13 23:00;CYHM 132300Z 22012KT 15SM FEW120 SCT250 10/07 A2984 RMK AC2CI1 CONTRAILS SLP112

CYHM;2007-03-14 00:00;CYHM 140000Z 22015KT 15SM SCT120 BKN250 09/07 A2985 RMK AC2CI1 SLP114

CYHM;2007-03-14 01:00;CYHM 140100Z 22013KT 15SM SCT250 10/07 A2985 RMK CI1 SLP115

CYHM;2007-03-14 02:00;CYHM 140200Z 22010KT 15SM FEW250 09/07 A2985 RMK CI1 SLP113

CYHM;2007-03-14 03:00;CYHM 140300Z 22012KT 12SM SCT250 10/07 A2984 RMK CI1 SLP110

CYHM;2007-03-14 04:00;CYHM 140400Z 22010KT 12SM SCT250 09/07 A2983 RMK CI1 SLP107

CYHM;2007-03-14 05:00;CYHM 140500Z 21009KT 15SM FEW250 07/06 A2983 RMK CI1 SLP106

CYHM;2007-03-14 06:00;CYHM 140600Z 21010KT 12SM FEW250 08/07 A2983 RMK CI1 SLP107

CYHM;2007-03-14 07:00;CYHM 140700Z 22009KT 12SM BKN052 08/06 A2982 RMK SC7 SLP103

CYHM;2007-03-14 08:00;CYHM 140800Z 21013KT 12SM SCT046 BKN065 BKN092 09/06 A2979 RMK SC3SC2AC1 SLP093

CYHM;2007-03-14 09:00;CYHM 140900Z 21012KT 15SM FEW058 BKN110 09/07 A2978 RMK SC2AC3 SLP089

CYHM;2007-03-14 10:00;CYHM 141000Z 21010KT 12SM FEW064 BKN100 09/07 A2978 RMK SC2AC4 SLP090

CYHM;2007-03-14 11:00;CYHM 141100Z 22008KT 15SM FEW075 BKN110 09/07 A2978 RMK AC2AC4 SLP090

CYHM;2007-03-14 12:00;CYHM 141200Z 21010KT 6SM BR FEW060 BKN065 BKN110 09/08 A2978 RMK SC2SC3AC2 SLP089

CYHM;2007-03-14 13:00;CYHM 141300Z 22008KT 15SM FEW045 BKN070 OVC120 09/08 A2978 RMK SC2AC4AC2 SLP090

CYHM;2007-03-14 14:00;CYHM 141400Z 22008KT 10SM OVC025 10/09 A2979 RMK SC8 SLP091

CYHM;2007-03-14 15:00;CYHM 141500Z 22010KT 4SM BR BKN008 OVC018 10/09 A2978 RMK SF6SC2 SLP088

CYHM;2007-03-14 16:00;CYHM 141600Z 23015KT 2SM BR BKN004 OVC016 11/10 A2978 RMK SF6SC2 SLP086

CYHM;2007-03-14 16:10;CYHM 141610Z 22012KT 1 1/2SM BR OVC003 RMK FG2SF6

CYHM;2007-03-14 16:43;CYHM 141643Z 23012KT 3/4SM BR OVC002 RMK FG2SF6

CYHM;2007-03-14 17:00;CYHM 141700Z 22011KT 1/2SM FG OVC002 10/10 A2977 RMK FG3SF5 SLP083

CYHM;2007-03-14 17:23;CYHM 141723Z 21010KT 1/8SM -DZ FG OVC002 RMK FG4SF4

CYHM;2007-03-14 17:45;CYHM 141745Z 21010KT 1/4SM -DZ FG VV002 RMK FG8

CYHM;2007-03-14 18:00;CYHM 141800Z CCA 21010KT 3/4SM -DZ BR VV002 10/10 A2976 RMK FG8 SLP083

CYHM;2007-03-14 18:48;CYHM 141848Z 22006KT 2SM BR OVC004 RMK FG2SC6

CYHM;2007-03-14 19:00;CYHM 141900Z 22006KT 2 1/2SM BR OVC006 11/11 A2975 RMK FG1SC7 SLP078

CYHM;2007-03-14 20:00;CYHM 142000Z 22007KT 2SM -DZ BR OVC006 11/11 A2975 RMK FG2SC6 SLP080

CYHM;2007-03-14 20:46;CYHM 142046Z 25006KT 3/4SM -DZ BR OVC005 RMK FG3SC5

CYHM;2007-03-14 21:00;CYHM 142100Z 25006KT 1/4SM -DZ FG OVC008 11/11 A2977 RMK FG3SC5 SLP084

CYHM;2007-03-14 21:42;CYHM 142142Z 25004KT 1/8SM FG OVC016 RMK FG4SC4

CYHM;2007-03-14 22:00;CYHM 142200Z 26004KT 1/8SM FG OVC016 10/10 A2977 RMK FG4SC4 SLP083

CYHM;2007-03-14 22:19;CYHM 142219Z 27009KT 1 1/4SM -SHRA BR OVC018 RMK FG2SC6

CYHM;2007-03-14 23:00;CYHM 142300Z 29004KT 2 1/4SM -SHRA BR OVC028 09/08 A2979 RMK FG1SC7 SLP091

CYHM;2007-03-14 23:44;CYHM 142344Z 32006KT 5SM -SHRA BR OVC032 RMK SC8

CYHM;2007-03-15 00:00;CYHM 150000Z 31009KT 5SM -SHRA BR OVC033 08/07 A2982 RMK SC8 SLP103

CYHM;2007-03-15 00:38;CYHM 150038Z 33011KT 12SM BKN038 OVC110 RMK SC7AC1

CYHM;2007-03-15 01:00;CYHM 150100Z 34010KT 12SM OVC038 07/05 A2983 RMK SC8 SLP107

CYHM;2007-03-15 02:00;CYHM 150200Z 34012KT 15SM OVC040 06/02 A2987 RMK SC8 SLP119

CYHM;2007-03-15 02:23;CYHM 150223Z 33015G20KT 10SM -SHRA OVC042 RMK SC8

CYHM;2007-03-15 03:00;CYHM 150300Z 34012KT 15SM OVC045 05/M00 A2990 RMK SC8 SLP130

CYHM;2007-03-15 04:00;CYHM 150400Z 34007KT 15SM OVC053 04/M03 A2990 RMK SC8 SLP130

CYHM;2007-03-15 05:00;CYHM 150500Z 32011G16KT 12SM -SHRA OVC057 04/M04 A2994 RMK SC8 SLP144

CYHM;2007-03-15 05:30;CYHM 150530Z 32013G18KT 8SM -SHSN OVC030 RMK SC8

CYHM;2007-03-15 06:00;CYHM 150600Z 32008KT 4SM -SHSN OVC020 02/M02 A2997 RMK SC8 SLP155

CYHM;2007-03-15 07:00;CYHM 150700Z 30008KT 15SM OVC044 02/M04 A2997 RMK SC8 SLP156

CYHM;2007-03-15 08:00;CYHM 150800Z 32011KT 15SM -SHSN OVC050 02/M05 A3000 RMK SC8 SLP164

CYHM;2007-03-15 09:00;CYHM 150900Z 33007KT 15SM -SHSN OVC035 02/M05 A3002 RMK SC8 SLP171

CYHM;2007-03-15 10:00;CYHM 151000Z 34013G19KT 15SM -SHSN OVC040 02/M07 A3006 RMK SC8 PK GUST 30 PST HR SLP185

CYHM;2007-03-15 10:43;CYHM 151043Z 32008KT 15SM FEW040 OVC064 RMK SC2SC6

CYHM;2007-03-15 11:00;CYHM 151100Z 32007KT 15SM FEW040 BKN061 OVC079 02/M07 A3008 RMK SC2SC5AC2 SLP192

CYHM;2007-03-15 12:00;CYHM 151200Z 32008KT 15SM BKN082 OVC097 02/M06 A3010 RMK AC6AC2 SLP201

CYHM;2007-03-15 13:00;CYHM 151300Z 32008KT 15SM BKN080 OVC150 02/M06 A3013 RMK AC6AC2 SLP209

CYHM;2007-03-15 14:00;CYHM 151400Z 32012KT 15SM SCT140 BKN180 OVC210 02/M06 A3016 RMK AC3AS3CI2 SLP220

CYHM;2007-03-15 15:00;CYHM 151500Z 33010KT 15SM SCT160 OVC210 02/M05 A3018 RMK AC3CI5 SLP229

CYHM;2007-03-15 16:00;CYHM 151600Z 02013KT 15SM BKN180 OVC220 02/M05 A3018 RMK AC6CI2 SLP227

CYHM;2007-03-15 17:00;CYHM 151700Z 02015KT 15SM FEW045 FEW180 OVC220 01/M05 A3020 RMK CU1AC2CI6 HALO CU TR SLP235

CYHM;2007-03-15 18:00;CYHM 151800Z 01012KT 15SM FEW045 OVC220 01/M06 A3023 RMK CU1CI7 SLP246

CYHM;2007-03-15 19:00;CYHM 151900Z 36011KT 15SM FEW040 OVC220 00/M10 A3024 RMK SC1CI7 SLP250

CYHM;2007-03-15 20:00;CYHM 152000Z 36011KT 320V060 15SM FEW040 OVC250 00/M09 A3025 RMK SC1CI6 SLP252

CYHM;2007-03-15 21:00;CYHM 152100Z 01013KT 320V040 15SM BKN250 M00/M11 A3025 RMK CI5 SLP254

CYHM;2007-03-15 22:00;CYHM 152200Z 01013KT 15SM BKN250 M01/M10 A3026 RMK CI4 SLP256

CYHM;2007-03-15 23:00;CYHM 152300Z 01010KT 15SM FEW180 BKN250 M01/M10 A3030 RMK AC1CI2 SLP268

CYHM;2007-03-16 00:00;CYHM 160000Z 36008KT 15SM FEW160 BKN250 M02/M10 A3032 RMK AC1CI2 SLP279

CYHM;2007-03-16 01:00;CYHM 160100Z 02013KT 15SM FEW170 FEW250 M03/M11 A3033 RMK AC1CI0 SLP281

CYHM;2007-03-16 02:00;CYHM 160200Z 02015KT 15SM FEW170 M04/M12 A3035 RMK AC1 SLP287

CYHM;2007-03-16 03:00;CYHM 160300Z 02013KT 15SM FEW130 FEW160 M04/M12 A3034 RMK AC1AC1 SLP286

CYHM;2007-03-16 04:00;CYHM 160400Z 04013KT 15SM BKN150 M04/M12 A3035 RMK AC5 SLP288

CYHM;2007-03-16 05:00;CYHM 160500Z 05016KT 15SM BKN120 M03/M10 A3032 RMK AC6 SLP279

CYHM;2007-03-16 06:00;CYHM 160600Z 07017G26KT 15SM BKN130 M03/M09 A3031 RMK AC4 SLP274

CYHM;2007-03-16 07:00;CYHM 160700Z 07018G26KT 15SM FEW120 SCT240 M03/M10 A3029 RMK AC1CI2 SLP269

CYHM;2007-03-16 08:00;CYHM 160800Z 07018G26KT 15SM FEW120 SCT160 BKN210 M04/M10 A3028 RMK AC2AC2CI1 SLP265

CYHM;2007-03-16 09:00;CYHM 160900Z 07018G26KT 15SM FEW120 BKN160 M04/M11 A3026 RMK AC1AC5 SLP257

CYHM;2007-03-16 10:00;CYHM 161000Z 07018KT 15SM FEW030 OVC160 M04/M10 A3026 RMK CF1AC7 SLP258

CYHM;2007-03-16 11:00;CYHM 161100Z 06020KT 15SM BKN140 BKN180 M04/M09 A3026 RMK AC6AC1 SLP257

CYHM;2007-03-16 12:00;CYHM 161200Z 06022G28KT 15SM SCT020 BKN130 OVC180 M04/M09 A3025 RMK SC3AC2AC2 SLP256

CYHM;2007-03-16 13:00;CYHM 161300Z 06025G32KT 15SM BKN021 OVC110 M04/M08 A3024 RMK SC6AC2 SLP253

CYHM;2007-03-16 14:00;CYHM 161400Z 06026G32KT 15SM FEW015 BKN021 OVC120 M04/M08 A3023 RMK CF1SC6AC2 CF TR SLP248

CYHM;2007-03-16 15:00;CYHM 161500Z 05028G34KT 15SM BKN019 OVC120 M04/M09 A3022 RMK SC7AC1 SLP247

CYHM;2007-03-16 16:00;CYHM 161600Z 06025G32KT 15SM BKN020 OVC100 M04/M08 A3020 RMK SC6AC2 SLP241

CYHM;2007-03-16 17:00;CYHM 161700Z 07028G34KT 15SM BKN022 BKN072 OVC110 M03/M08 A3018 RMK SC5AC2AC1 CU ASOCTD SLP233

CYHM;2007-03-16 18:00;CYHM 161800Z 05028G36KT 15SM FEW020 BKN051 OVC070 M04/M09 A3017 RMK CU1SC5AC2 SLP227

CYHM;2007-03-16 18:31;CYHM 161831Z 04024G35KT 8SM -SHSN FEW020 OVC038 RMK SC2SC6

CYHM;2007-03-16 18:52;CYHM 161852Z 04028KT 2SM -SHSN FEW020 OVC036 RMK SN1SC2SC6

CYHM;2007-03-16 19:00;CYHM 161900Z 04028KT 1 3/4SM -SHSN FEW022 OVC036 M04/M08 A3014 RMK SN2SC1SC6 SLP220

CYHM;2007-03-16 19:29;CYHM 161929Z 05022G29KT 3/4SM -SHSN DRSN VV008 RMK SN8

CYHM;2007-03-16 20:00;CYHM 162000Z 05023G28KT 1 1/2SM -SHSN DRSN SCT018 OVC028 M05/M07 A3014 RMK SN2SC2SC5 SLP218

CYHM;2007-03-16 20:14;CYHM 162014Z 04022G30KT 10SM -SHSN DRSN FEW028 OVC041 RMK SC2SC6

CYHM;2007-03-16 21:00;CYHM 162100Z 03018G25KT 2SM -SHSN DRSN BKN012 OVC039 M05/M07 A3013 RMK SN1CF5SC2 SLP216

CYHM;2007-03-16 21:26;CYHM 162126Z 03018G23KT 5/8SM -SHSN DRSN VV005 RMK SN8

CYHM;2007-03-16 21:53;CYHM 162153Z 04018G24KT 3/8SM -SHSN BLSN VV004 RMK SN8

CYHM;2007-03-16 22:00;CYHM 162200Z 03020KT 3/8SM -SHSN BLSN VV004 M06/M07 A3013 RMK SN8 SLP216

CYHM;2007-03-16 23:00;CYHM 162300Z 03021G26KT 1/2SM -SHSN BLSN VV007 M05/M07 A3013 RMK SN8 SLP217

CYHM;2007-03-16 23:44;CYHM 162344Z 04016G25KT 1SM -SHSN BLSN OVC011 RMK SN6SF2

CYHM;2007-03-17 00:00;CYHM 170000Z CCA 04020G25KT 1 1/4SM -SHSN BLSN OVC010 M05/M06 A3013 RMK SN6SF2 /S03/ SLP218

CYHM;2007-03-17 00:43;CYHM 170043Z 03016G21KT 1 1/4SM -SHSN BLSN OVC008 RMK SN6SF2

CYHM;2007-03-17 01:00;CYHM 170100Z 03018KT 1 1/4SM -SHSN BLSN OVC009 M05/M06 A3013 RMK SN6SF2 SLP217

CYHM;2007-03-17 02:00;CYHM 170200Z 02016G26KT 1 1/4SM -SN BLSN OVC010 M06/M07 A3011 RMK SN6SF2 SLP211

CYHM;2007-03-17 03:00;CYHM 170300Z 02016G21KT 1 1/2SM -SHSN BLSN OVC010 M06/M08 A3009 RMK SN2SC6 VIS VRB 1 - 2 CIG RAG SLP204

CYHM;2007-03-17 04:00;CYHM 170400Z 02015G21KT 1 1/2SM -SN BLSN OVC012 M06/M08 A3007 RMK SN2SC6 VIS VRB 1 - 2 /S01/ SLP196

CYHM;2007-03-17 05:00;CYHM 170500Z 02015G20KT 1SM -SN BLSN OVC018 M07/M08 A3005 RMK SN2SC6 VIS VRB 3/4 - 11/4 CIG RAG SLP191

CYHM;2007-03-17 06:00;CYHM 170600Z 01014KT 1 1/2SM -SN BLSN OVC012 M07/M08 A3003 RMK SN2SC6 VIS VRB 1 - 2 /S02/ SLP181

CYHM;2007-03-17 07:00;CYHM 170700Z 01014KT 1 1/2SM -SN BLSN OVC012 M07/M09 A3000 RMK SN2SC6 VIS VRB 1 - 2 SLP173

CYHM;2007-03-17 08:00;CYHM 170800Z 36013KT 1 1/2SM -SN BLSN OVC013 M07/M09 A2999 RMK SN2SC6 VIS VRB 1 - 2 SLP169

CYHM;2007-03-17 08:40;CYHM 170840Z 35013KT 4SM -SN BLSN OVC017 RMK SC8

CYHM;2007-03-17 09:00;CYHM 170900Z 36012KT 1 1/2SM -SN BLSN OVC012 M07/M09 A2998 RMK SN2SC6 VIS VRB 1 - 2 SLP167

CYHM;2007-03-17 10:00;CYHM 171000Z 35012KT 1 1/2SM -SN BLSN OVC010 M08/M10 A2998 RMK SN2SC6 VIS VRB 1 - 2 /S01/ SLP167

CYHM;2007-03-17 10:29;CYHM 171029Z 35010KT 5SM -SN FEW014 BKN028 OVC050 RMK CF2SC4SC2

CYHM;2007-03-17 11:00;CYHM 171100Z 36010KT 8SM -SN FEW028 OVC051 M08/M11 A2998 RMK SC2SC6 SLP167

CYHM;2007-03-17 11:28;CYHM 171128Z CCA 34012KT 1 1/4SM -SN BKN028 OVC051 RMK SN2SC2SC3

CYHM;2007-03-17 11:40;CYHM 171140Z 35010KT 1 3/4SM -SN BKN028 OVC042 RMK SN2SC3SC3

CYHM;2007-03-17 12:00;CYHM 171200Z CCA 35010KT 1 1/2SM -SN BKN024 OVC042 M08/M10 A2997 RMK SN2SC4SC2 /S05/ SLP164

CYHM;2007-03-17 12:26;CYHM 171226Z 34008KT 3SM -SN BKN028 OVC036 RMK SC6SC2

CYHM;2007-03-17 13:00;CYHM 171300Z 33010KT 12SM -SN SCT028 BKN090 OVC250 M07/M11 A2997 RMK SC3AC2CI2 SLP161

CYHM;2007-03-17 13:23;CYHM 171323Z 32008KT 15SM FEW030 BKN100 BKN250 RMK SC1AC6CI1

CYHM;2007-03-17 14:00;CYHM 171400Z 31006KT 15SM FEW110 BKN250 M06/M12 A2997 RMK AC2CI2 SLP163

CYHM;2007-03-17 15:00;CYHM 171500Z 31008KT 15SM FEW110 BKN250 M04/M11 A2995 RMK AC1CI2 SLP155

CYHM;2007-03-17 16:00;CYHM 171600Z 31010KT 15SM BKN250 M03/M10 A2993 RMK CI2 SLP149

CYHM;2007-03-17 17:00;CYHM 171700Z 32011KT 15SM FEW170 BKN250 M01/M13 A2992 RMK AC1CI2 SLP144

CYHM;2007-03-17 18:00;CYHM 171800Z 31012KT 15SM BKN250 M01/M12 A2991 RMK CI2 SLP139

CYHM;2007-03-17 19:00;CYHM 171900Z 29015KT 15SM FEW030 FEW070 BKN220 M00/M12 A2989 RMK CU1AC1CI2 CU TR AC TR SLP133

CYHM;2007-03-17 20:00;CYHM 172000Z 30015G22KT 15SM FEW030 BKN200 M00/M12 A2989 RMK SC1CI2 SC TR SLP134

CYHM;2007-03-17 21:00;CYHM 172100Z 30016G23KT 15SM DRSN FEW040 BKN200 M01/M12 A2989 RMK SC1CI2 SLP135

CYHM;2007-03-17 22:00;CYHM 172200Z 30015G21KT 15SM DRSN FEW040 SCT200 M01/M12 A2990 RMK SC1CI1 SLP138

CYHM;2007-03-17 23:00;CYHM 172300Z 30016G21KT 15SM DRSN FEW045 SCT200 M02/M13 A2992 RMK SC1CI1 SLP143

CYHM;2007-03-18 00:00;CYHM 180000Z 30014KT 15SM FEW050 FEW200 M04/M11 A2994 RMK SC1CI1 SLP151

CYHM;2007-03-18 01:00;CYHM 180100Z 29013KT 15SM FEW050 FEW170 M04/M12 A2995 RMK SC1AC1 SC TR SLP156

CYHM;2007-03-18 02:00;CYHM 180200Z 29014KT 15SM FEW170 FEW200 M04/M12 A2995 RMK AC1CI1 CI TR SLP157

CYHM;2007-03-18 03:00;CYHM 180300Z 29012KT 15SM FEW120 FEW200 M05/M11 A2995 RMK AC1CI1 SLP155

CYHM;2007-03-18 04:00;CYHM 180400Z 30009KT 15SM FEW120 FEW200 M05/M11 A2996 RMK AC1CI1 SLP157

CYHM;2007-03-18 05:00;CYHM 180500Z 30005KT 15SM FEW100 M06/M11 A2996 RMK AC1 SLP158

CYHM;2007-03-18 06:00;CYHM 180600Z 30005KT 15SM FEW100 M06/M11 A2997 RMK AC1 SLP159

CYHM;2007-03-18 07:00;CYHM 180700Z 30007KT 15SM FEW090 M07/M12 A2998 RMK AC1 SLP163

CYHM;2007-03-18 08:00;CYHM 180800Z 30008KT 15SM SKC M07/M13 A2999 RMK SLP167

CYHM;2007-03-18 09:00;CYHM 180900Z 29005KT 15SM SKC M07/M13 A3000 RMK SLP171

CYHM;2007-03-18 10:00;CYHM 181000Z 29005KT 15SM SKC M07/M13 A3002 RMK SLP178

CYHM;2007-03-18 11:00;CYHM 181100Z 28006KT 15SM FEW100 M08/M14 A3004 RMK AC1 SLP185

CYHM;2007-03-18 12:00;CYHM 181200Z 29009KT 15SM FEW100 M07/M14 A3006 RMK AC1 SLP194

CYHM;2007-03-18 13:00;CYHM 181300Z 32016KT 15SM FEW120 M04/M13 A3009 RMK AC1 SLP203

CYHM;2007-03-18 14:00;CYHM 181400Z 31015KT 15SM SKC M03/M13 A3010 RMK SLP208

CYHM;2007-03-18 15:00;CYHM 181500Z 31010G15KT 15SM FEW045 M02/M13 A3012 RMK SC1 SLP212

CYHM;2007-03-18 16:00;CYHM 181600Z 30014KT 15SM FEW045 M01/M12 A3012 RMK CU1 SLP213

CYHM;2007-03-18 17:00;CYHM 181700Z 29014G20KT 15SM FEW045 M01/M13 A3013 RMK CU2 SLP216

CYHM;2007-03-18 18:00;CYHM 181800Z 29011KT 210V330 15SM BKN065 00/M12 A3013 RMK SC5 SLP215

CYHM;2007-03-18 19:00;CYHM 181900Z 30015KT 15SM VCSH SCT035 BKN066 00/M12 A3012 RMK CU3AC2 SLP212

CYHM;2007-03-18 19:55;CYHM 181955Z 27015G20KT 12SM -SHSN FEW035 BKN048 BKN067 RMK CU2SC2AC2

CYHM;2007-03-18 20:00;CYHM 182000Z 26015G20KT 5SM -SHSN FEW032 BKN040 BKN067 M00/M07 A3013 RMK CU2SC3AC2 SLP215

CYHM;2007-03-18 20:04;CYHM 182004Z 27015G21KT 3/8SM SN VV011 RMK SN8

CYHM;2007-03-18 20:07;CYHM 182007Z 28015G21KT 3/8SM SN VV006 RMK SN8

CYHM;2007-03-18 20:14;CYHM 182014Z 27014KT 4SM -SHSN SCT030 BKN040 RESN RMK CU3SC3

CYHM;2007-03-18 21:00;CYHM 182100Z 28015G21KT 10SM -SHSN FEW030 BKN040 00/M08 A3013 RMK CU2SC3 SLP217

CYHM;2007-03-18 21:28;CYHM 182128Z 28014KT 1 1/4SM -SHSN BKN015 RMK SN2SC6

CYHM;2007-03-18 21:31;CYHM 182131Z 29013KT 2 1/2SM -SHSN BKN015 RMK SN1SC6

CYHM;2007-03-18 22:00;CYHM 182200Z 29015G21KT 3SM -SHSN DRSN SCT030 BKN041 M01/M07 A3015 RMK CU3SC3 SLP221

CYHM;2007-03-18 22:26;CYHM 182226Z 29015G21KT 10SM VCSH FEW030 BKN041 RESN RMK CU2SC2

CYHM;2007-03-18 23:00;CYHM 182300Z 27013KT 15SM FEW030 SCT051 M00/M10 A3015 RMK CU2SC2 SLP223

CYHM;2007-03-19 00:00;CYHM 190000Z 27010KT 15SM FEW030 M02/M10 A3017 RMK SC1 SLP230

CYHM;2007-03-19 01:00;CYHM 190100Z 26007KT 15SM FEW035 M02/M10 A3018 RMK SC1 SC TR SLP234

CYHM;2007-03-19 02:00;CYHM 190200Z 24004KT 15SM SKC M04/M10 A3019 RMK SLP237

CYHM;2007-03-19 03:00;CYHM 190300Z 24004KT 15SM SKC M04/M09 A3019 RMK SLP236

CYHM;2007-03-19 04:00;CYHM 190400Z 21005KT 15SM SKC M06/M09 A3018 RMK SLP233

CYHM;2007-03-19 05:00;CYHM 190500Z 22005KT 15SM FEW230 M05/M09 A3017 RMK CI1 SLP229

CYHM;2007-03-19 06:00;CYHM 190600Z 22004KT 15SM FEW230 M06/M09 A3017 RMK CI2 SLP228

CYHM;2007-03-19 07:00;CYHM 190700Z 22004KT 15SM FEW230 M06/M08 A3017 RMK CI1 SLP227

CYHM;2007-03-19 08:00;CYHM 190800Z 18005KT 15SM SCT220 M04/M07 A3014 RMK CI2 FROIN SLP219

CYHM;2007-03-19 09:00;CYHM 190900Z 19007KT 15SM BKN210 M04/M06 A3013 RMK CI4 FROIN SLP215

CYHM;2007-03-19 10:00;CYHM 191000Z 19009KT 15SM BKN180 M03/M06 A3011 RMK AS5 SLP209

CYHM;2007-03-19 11:00;CYHM 191100Z 19012KT 15SM BKN110 BKN150 M02/M06 A3010 RMK AC5AC2 SLP203

CYHM;2007-03-19 12:00;CYHM 191200Z 19010KT 15SM BKN058 OVC072 M02/M06 A3008 RMK SC6AC2 SLP196

CYHM;2007-03-19 13:00;CYHM 191300Z 19014KT 15SM BKN048 OVC061 M01/M06 A3007 RMK SC6SC2 SLP194

CYHM;2007-03-19 14:00;CYHM 191400Z 20015G20KT 15SM BKN043 OVC056 M00/M06 A3004 RMK SC6SC2 SLP182

CYHM;2007-03-19 14:06;CYHM 191406Z 22017G22KT 15SM -SHSN BKN022 OVC042 RMK SC6SC2

CYHM;2007-03-19 14:29;CYHM 191429Z 20022G27KT 2SM -SHSN BKN013 OVC025 RMK SC6SC2

CYHM;2007-03-19 14:42;CYHM 191442Z 20022G28KT 1SM -SHSN DRSN BKN010 OVC020 RMK SN2SF5SC2

CYHM;2007-03-19 15:00;CYHM 191500Z 19018G25KT 1 1/2SM -SN BR BKN008 OVC018 M01/M03 A2999 RMK FG1SF6SC2 SLP166

CYHM;2007-03-19 15:28;CYHM 191528Z 22022G28KT 3/4SM -SN DRSN BR BKN007 OVC012 RMK FG2SF4SC2

CYHM;2007-03-19 15:48;CYHM 191548Z 20024KT 1 1/2SM -SN DRSN BR BKN009 OVC014 RMK FG1SF6SC2

CYHM;2007-03-19 16:00;CYHM 191600Z CCA 20026KT 3SM -SN DRSN BR BKN009 BKN012 OVC018 M01/M03 A2995 RMK SF5SC2SC1 SLP154

CYHM;2007-03-19 16:29;CYHM 191629Z 20014G20KT 1 1/2SM -SN DRSN BR BKN011 OVC018 RMK FG1SF6SC2

CYHM;2007-03-19 16:36;CYHM 191636Z 20024KT 3/4SM -SN DRSN BR BKN010 OVC018 RMK FG2SF6SC1

CYHM;2007-03-19 17:00;CYHM 191700Z 20020G28KT 2SM -SN BR BKN007 BKN012 OVC018 M01/M03 A2992 RMK SF6SC2SC1 SLP143

CYHM;2007-03-19 17:16;CYHM 191716Z 20020G25KT 6SM -SN BR BKN009 OVC016 RMK SF6SC2

CYHM;2007-03-19 18:00;CYHM 191800Z CCA 20018G24KT 8SM -SN OVC011 M01/M02 A2991 RMK SC8 SLP139

CYHM;2007-03-19 18:07;CYHM 191807Z 21018G24KT 9SM OVC009 RMK SC8

CYHM;2007-03-19 19:00;CYHM 191900Z 21016G22KT 10SM OVC009 M00/M02 A2987 RMK SC8 SLP126

CYHM;2007-03-19 20:00;CYHM 192000Z 21016G22KT 8SM OVC008 00/M01 A2984 RMK SC8 SLP118

CYHM;2007-03-19 21:00;CYHM 192100Z 22016G22KT 8SM OVC008 01/M01 A2984 RMK SC8 SLP116

CYHM;2007-03-19 22:00;CYHM 192200Z 22016G21KT 7SM OVC008 01/M00 A2984 RMK SC8 SLP117

CYHM;2007-03-19 23:00;CYHM 192300Z 23016G21KT 5SM BR OVC008 02/00 A2987 RMK SC8 SLP124

CYHM;2007-03-20 00:00;CYHM 200000Z 23014KT 8SM OVC008 02/00 A2989 RMK SC8 SLP131

CYHM;2007-03-20 01:00;CYHM 200100Z 23012KT 7SM OVC008 01/00 A2991 RMK SC8 SLP139

CYHM;2007-03-20 02:00;CYHM 200200Z 24008KT 7SM FEW008 BKN028 OVC046 02/00 A2995 RMK SC2SC4SC2 SLP152

CYHM;2007-03-20 03:00;CYHM 200300Z 26008KT 8SM BKN020 BKN040 OVC060 02/00 A2999 RMK SC5SC2SC2 SLP165

CYHM;2007-03-20 04:00;CYHM 200400Z 26003KT 12SM FEW020 SCT042 BKN063 02/M00 A3003 RMK SC2SC2SC4 SLP179

CYHM;2007-03-20 05:00;CYHM 200500Z 30008KT 15SM FEW040 01/M04 A3007 RMK SC1 SC TR SLP190

CYHM;2007-03-20 06:00;CYHM 200600Z 30010KT 15SM FEW036 M01/M05 A3011 RMK SC1 SC TR SLP206

CYHM;2007-03-20 07:00;CYHM 200700Z 29010KT 15SM SCT024 M01/M06 A3014 RMK SC4 SLP218

CYHM;2007-03-20 08:00;CYHM 200800Z 29007KT 15SM SCT024 M03/M07 A3019 RMK SC4 SLP233

CYHM;2007-03-20 09:00;CYHM 200900Z 30014G21KT 15SM BKN028 M04/M09 A3023 RMK SC7 SLP249

CYHM;2007-03-20 10:00;CYHM 201000Z 30016G24KT 15SM BKN028 M05/M10 A3029 RMK SC7 SLP267

CYHM;2007-03-20 11:00;CYHM 201100Z 30013KT 15SM -SHSN BKN022 BKN029 M05/M09 A3033 RMK SC5SC2 SLP282

CYHM;2007-03-20 12:00;CYHM 201200Z 31011KT 15SM -SHSN FEW018 BKN028 M06/M11 A3039 RMK CU2SC5 SLP305

CYHM;2007-03-20 12:54;CYHM 201254Z 32012KT 15SM FEW017 SCT027 RMK CU1SC3

CYHM;2007-03-20 13:00;CYHM 201300Z 32011KT 15SM FEW017 SCT028 M06/M11 A3045 RMK CU1SC3 SLP324

CYHM;2007-03-20 14:00;CYHM 201400Z 02008KT 15SM FEW018 FEW028 M05/M10 A3050 RMK CU1SC2 SLP340

CYHM;2007-03-20 15:00;CYHM 201500Z 01002KT 15SM FEW020 M05/M12 A3054 RMK CU1 CU TR SLP355

CYHM;2007-03-20 16:00;CYHM 201600Z 03008KT 15SM SKC M05/M13 A3057 RMK SLP364

CYHM;2007-03-20 17:00;CYHM 201700Z 31003KT 15SM SKC M04/M12 A3058 RMK SLP368

CYHM;2007-03-20 18:00;CYHM 201800Z 01005KT 15SM SKC M03/M12 A3060 RMK SLP375

CYHM;2007-03-20 19:00;CYHM 201900Z 33003KT 15SM SKC M02/M12 A3059 RMK SLP372

CYHM;2007-03-20 20:00;CYHM 202000Z 09004KT 15SM SKC M02/M10 A3060 RMK SLP375

CYHM;2007-03-20 21:00;CYHM 202100Z 09005KT 15SM SKC M02/M10 A3061 RMK SLP378

CYHM;2007-03-20 22:00;CYHM 202200Z 09008KT 15SM SKC M03/M10 A3061 RMK SLP380

CYHM;2007-03-20 23:00;CYHM 202300Z 06008KT 15SM FEW028 M03/M10 A3062 RMK CU1 CU TR SLP382

CYHM;2007-03-21 01:00;CYHM 210100Z 10004KT 15SM SKC M06/M10 A3064 RMK SLP390

CYHM;2007-03-21 04:00;CYHM 210400Z 10005KT 15SM SKC M07/M12 A3064 RMK SLP391

CYHM;2007-03-21 05:00;CYHM 210500Z 09005KT 15SM SKC M07/M13 A3064 RMK SLP391

CYHM;2007-03-21 06:00;CYHM 210600Z 09004KT 15SM SKC M08/M13 A3063 RMK SLP387

CYHM;2007-03-21 07:00;CYHM 210700Z 07006KT 15SM SKC M08/M12 A3062 RMK SLP384

CYHM;2007-03-21 08:00;CYHM 210800Z 07009KT 15SM SKC M07/M13 A3059 RMK SLP373

CYHM;2007-03-21 09:00;CYHM 210900Z 06010KT 15SM SKC M07/M12 A3055 RMK SLP359

CYHM;2007-03-21 10:00;CYHM 211000Z 07007KT 15SM SKC M07/M11 A3053 RMK SLP352

CYHM;2007-03-21 11:00;CYHM 211100Z 08006KT 15SM FEW240 M07/M11 A3051 RMK CI1 SLP347

CYHM;2007-03-21 12:00;CYHM 211200Z 07006KT 15SM BKN240 M07/M11 A3049 RMK CI3 CONTRAIL SLP340

CYHM;2007-03-21 13:00;CYHM 211300Z 09006KT 15SM FEW180 BKN240 M05/M10 A3048 RMK AC1CI3 CONTRAIL SLP337

CYHM;2007-03-21 14:00;CYHM 211400Z 07006KT 15SM FEW180 BKN240 M03/M09 A3045 RMK AC2CI4 SLP327

CYHM;2007-03-21 15:00;CYHM 211500Z 09006KT 15SM FEW120 FEW180 BKN220 M01/M08 A3044 RMK AC1AC2CI2 SLP320

CYHM;2007-03-21 16:00;CYHM 211600Z 09007KT 15SM BKN088 BKN120 OVC220 M00/M07 A3042 RMK AC6AC1CI1 SLP315

CYHM;2007-03-21 17:00;CYHM 211700Z 06010KT 15SM SCT035 OVC078 M00/M06 A3039 RMK SC3AC5 SLP304

CYHM;2007-03-21 18:00;CYHM 211800Z 05010KT 15SM -SHRA OVC046 M00/M06 A3036 RMK SC8 SLP295

CYHM;2007-03-21 19:00;CYHM 211900Z CCA 05011KT 12SM -SHRA BKN036 OVC042 M00/M04 A3031 RMK SC5SC3 PCPN VRY LGT PRESFR SLP278

CYHM;2007-03-21 20:00;CYHM 212000Z 05009KT 4SM -SHRA BR OVC032 M00/M03 A3028 RMK SC8 SLP269

CYHM;2007-03-21 21:00;CYHM 212100Z CCA 06009KT 10SM -SHRA OVC019 00/M02 A3024 RMK SC8 PCPN VRY LGT SLP253

CYHM;2007-03-21 21:17;CYHM 212117Z CCA 06008KT 15SM OVC020 RMK SC8

CYHM;2007-03-21 22:00;CYHM 212200Z 05006KT 15SM SCT027 BKN035 OVC095 01/M02 A3022 RMK SC4SC2AC2 SLP246

CYHM;2007-03-21 23:00;CYHM 212300Z 05005KT 12SM FEW055 SCT075 OVC093 01/M01 A3019 RMK SC2AC2AC4 SLP235

CYHM;2007-03-22 01:00;CYHM 220100Z 10003KT 15SM FEW075 SCT100 OVC110 01/M00 A3013 RMK AC2AC2AC4 SLP215

CYHM;2007-03-22 02:00;CYHM 220200Z 17008KT 15SM FEW075 BKN090 04/01 A3011 RMK AC2AC3 SLP208

CYHM;2007-03-22 03:00;CYHM 220300Z 19011KT 15SM FEW090 BKN200 06/01 A3009 RMK AC2CI2 SLP197

CYHM;2007-03-22 04:00;CYHM 220400Z 19013G19KT 15SM FEW150 FEW220 07/02 A3005 RMK AC1CI1 SLP184

CYHM;2007-03-22 05:00;CYHM 220500Z 20015G21KT 15SM FEW130 SCT260 08/03 A3002 RMK AC2CI2 SLP176

CYHM;2007-03-22 06:00;CYHM 220600Z 20018G25KT 15SM FEW070 BKN091 BKN250 08/03 A3000 RMK AC1AC5CI2 SLP165

CYHM;2007-03-22 07:00;CYHM 220700Z 20016G21KT 15SM BKN077 OVC090 09/04 A2998 RMK AC5AC3 SLP161

CYHM;2007-03-22 08:00;CYHM 220800Z 20016G22KT 15SM BKN075 OVC140 10/05 A2996 RMK AC7AC1 SLP153

CYHM;2007-03-22 09:00;CYHM 220900Z 20017KT 15SM BKN083 10/06 A2992 RMK AC6 SLP139

CYHM;2007-03-22 10:00;CYHM 221000Z 20017G22KT 15SM FEW080 SCT140 09/06 A2990 RMK AC1AC2 SLP131

CYHM;2007-03-22 11:00;CYHM 221100Z 20014KT 10SM FEW100 SCT160 10/07 A2988 RMK AC2AC2 SLP125

CYHM;2007-03-22 12:00;CYHM 221200Z 20020G25KT 15SM FEW064 BKN089 BKN100 11/07 A2986 RMK SC2AC4AC1 SLP118

CYHM;2007-03-22 13:00;CYHM 221300Z 19022KT 15SM SCT060 OVC088 12/08 A2985 RMK SC3AC5 SLP114

CYHM;2007-03-22 14:00;CYHM 221400Z 20020KT 15SM BKN039 OVC088 12/08 A2984 RMK SC6AC2 SLP112

CYHM;2007-03-22 14:21;CYHM 221421Z 21018KT 10SM -SHRA BKN043 OVC080 RMK SC6AC2

CYHM;2007-03-22 14:30;CYHM 221430Z 23016KT 6SM -TSRA OVC043 RMK SC8 CB EMBDD LTNG

CYHM;2007-03-22 15:00;CYHM 221500Z 23020G26KT 8SM -TSRA BKN039 OVC062 12/09 A2988 RMK SC6SC2 CB EMBDD SLP122

CYHM;2007-03-22 15:23;CYHM 221523Z 22018G26KT 10SM -SHRA SCT042 BKN056 OVC078 RMK SC3SC3AC2 CU ASOCTD

CYHM;2007-03-22 16:00;CYHM 221600Z 21024G29KT 15SM -SHRA SCT062 OVC070 12/09 A2986 RMK SC4AC4 CU ASOCTD SLP116

CYHM;2007-03-22 17:00;CYHM 221700Z 21020G25KT 5SM -SHRA BR BKN024 BKN042 OVC078 10/09 A2983 RMK SC5SC2AC1 SLP105

CYHM;2007-03-22 18:00;CYHM 221800Z 22026KT 4SM -SHRA BR FEW010 BKN029 OVC054 11/10 A2982 RMK SF2SC4SC2 SLP103

CYHM;2007-03-22 19:00;CYHM 221900Z 22025G35KT 8SM BKN009 OVC029 12/11 A2982 RMK SC7SC1 SLP101

CYHM;2007-03-22 20:00;CYHM 222000Z 23020G25KT 5SM -SHRA BR OVC009 12/11 A2983 RMK SC8 SLP104

CYHM;2007-03-22 21:00;CYHM 222100Z 30014KT 12SM -SHRA FEW009 OVC024 06/05 A2991 RMK CF2SC6 PRESRR WSHFT AT 2010Z PCPN VRY LGT SLP133

CYHM;2007-03-22 22:00;CYHM 222200Z 30008KT 15SM BKN028 06/04 A2995 RMK SC7 SLP146

CYHM;2007-03-22 23:00;CYHM 222300Z 27006KT 15SM BKN036 06/03 A2997 RMK SC7 SLP155

CYHM;2007-03-23 00:00;CYHM 230000Z 28005KT 15SM FEW040 FEW250 05/02 A3001 RMK SC1CI0 SLP166

CYHM;2007-03-23 02:00;CYHM 230200Z 28006KT 15SM FEW050 04/01 A3005 RMK SC1 SLP180

CYHM;2007-03-23 05:00;CYHM 230500Z 28005KT 15SM FEW200 02/01 A3008 RMK CI1 SLP192

CYHM;2007-03-23 06:00;CYHM 230600Z 31005KT 15SM FEW043 SCT200 02/01 A3010 RMK SC2CI2 SLP198

CYHM;2007-03-23 07:00;CYHM 230700Z 00000KT 15SM FEW050 FEW200 02/00 A3010 RMK SC1CI1 TR SC SLP200

CYHM;2007-03-23 08:00;CYHM 230800Z 03005KT 15SM BKN200 01/M01 A3009 RMK CI5 SLP196

CYHM;2007-03-23 09:00;CYHM 230900Z 01003KT 15SM BKN250 00/M01 A3010 RMK CI6 SLP200

CYHM;2007-03-23 10:00;CYHM 231000Z 00000KT 15SM SCT100 SCT160 BKN250 01/M01 A3012 RMK AC3AC1CI2 SLP206

CYHM;2007-03-23 11:00;CYHM 231100Z 23002KT 15SM BKN088 BKN120 00/M01 A3014 RMK AC6AC2 SLP214

CYHM;2007-03-23 12:00;CYHM 231200Z 20003KT 15SM BKN068 OVC100 00/M01 A3017 RMK AC6AC2 SLP225

CYHM;2007-03-23 13:00;CYHM 231300Z 23004KT 15SM SCT086 BKN110 01/M00 A3018 RMK AC3AC4 SLP230

CYHM;2007-03-23 14:00;CYHM 231400Z 24002KT 15SM FEW085 BKN100 BKN220 03/01 A3019 RMK AC2AC3CI2 SLP232

CYHM;2007-03-23 15:00;CYHM 231500Z 02002KT 15SM FEW035 FEW086 SCT110 BKN220 06/02 A3021 RMK CU1AC2AC2CI2 CU TR SLP237

CYHM;2007-03-23 16:00;CYHM 231600Z 11002KT 15SM FEW100 BKN220 08/01 A3021 RMK AC2CI4 SLP237

CYHM;2007-03-23 17:00;CYHM 231700Z 06005KT 15SM FEW170 BKN220 09/01 A3020 RMK AC2CI5 SLP233

CYHM;2007-03-23 18:00;CYHM 231800Z 08002KT 15SM BKN220 09/M00 A3019 RMK CI6 SLP229

CYHM;2007-03-23 19:00;CYHM 231900Z 00000KT 15SM FEW220 10/M01 A3018 RMK CI1 SLP227

CYHM;2007-03-23 20:00;CYHM 232000Z 29002KT 15SM FEW035 FEW220 11/M01 A3019 RMK SC1CI1 WND L/V SLP229

CYHM;2007-03-23 21:00;CYHM 232100Z 00000KT 15SM FEW220 11/M01 A3020 RMK CI2 SLP233

CYHM;2007-03-23 22:00;CYHM 232200Z 16004KT 15SM FEW220 11/01 A3020 RMK CI2 SLP235

CYHM;2007-03-23 23:00;CYHM 232300Z 17007KT 15SM FEW220 09/02 A3022 RMK CI2 SLP240

CYHM;2007-03-24 02:00;CYHM 240200Z 00000KT 15SM FEW210 04/M00 A3023 RMK CI1 SLP246

CYHM;2007-03-24 04:00;CYHM 240400Z 05003KT 15SM FEW210 03/M01 A3024 RMK CI1 SLP247

CYHM;2007-03-24 05:00;CYHM 240500Z 05007KT 15SM FEW210 02/M01 A3023 RMK CI1 SLP243

CYHM;2007-03-24 06:00;CYHM 240600Z 07005KT 15SM FEW210 02/M02 A3023 RMK CI1 SLP243

CYHM;2007-03-24 07:00;CYHM 240700Z 07007KT 15SM FEW200 02/M03 A3022 RMK CI1 SLP240

CYHM;2007-03-24 08:00;CYHM 240800Z 05009KT 15SM BKN100 BKN200 02/M02 A3020 RMK AC6CI1 SLP232

CYHM;2007-03-24 09:00;CYHM 240900Z 05006KT 15SM FEW077 BKN120 02/M02 A3020 RMK AC2AC5 SLP234

CYHM;2007-03-24 09:53;CYHM 240953Z 07007KT 12SM -SHRA OVC074 RMK AC8

CYHM;2007-03-24 10:00;CYHM 241000Z 08007KT 12SM -SHRA OVC074 02/M01 A3020 RMK AC8 SLP234

CYHM;2007-03-24 10:51;CYHM 241051Z 06007KT 15SM OVC066 RMK AC8

CYHM;2007-03-24 11:00;CYHM 241100Z 02007KT 15SM OVC064 04/M01 A3020 RMK SC8 SLP235

CYHM;2007-03-24 12:00;CYHM 241200Z 02010KT 6SM -SHRA BKN045 OVC074 03/M00 A3021 RMK SC7AC1 SLP239

CYHM;2007-03-24 13:00;CYHM 241300Z 05011KT 8SM -SHRA OVC039 03/01 A3019 RMK SC8 SLP231

CYHM;2007-03-24 14:00;CYHM 241400Z 04009KT 8SM -SHRA OVC033 03/01 A3017 RMK SC8 SLP226

CYHM;2007-03-24 15:00;CYHM 241500Z 03009KT 4SM -SHRA BR BKN018 OVC033 03/02 A3016 RMK SC6SC2 SLP220

CYHM;2007-03-24 15:30;CYHM 241530Z 05006KT 1 1/2SM -SHRA BR SCT013 OVC019 RMK FG1CF2SC5

CYHM;2007-03-24 16:00;CYHM 241600Z 06006KT 360V090 1 1/2SM -SHRA BR FEW013 OVC019 03/02 A3014 RMK FG1CF2SC6 SLP214

CYHM;2007-03-24 16:21;CYHM 241621Z 03006KT 1 1/2SM -SHRA BR SCT002 OVC013 RMK FG1SF2SC5

CYHM;2007-03-24 16:47;CYHM 241647Z 03009KT 1SM -SHRA BR SCT002 OVC010 RMK FG2SF2SC4

CYHM;2007-03-24 17:00;CYHM 241700Z 02008KT 5/8SM -SHRA BR BKN002 OVC010 03/03 A3012 RMK FG2SF3SC2 SLP209

CYHM;2007-03-24 17:31;CYHM 241731Z 05004KT 1/2SM -DZ FG BKN002 OVC007 RMK FG4SF2SC2

CYHM;2007-03-24 18:00;CYHM 241800Z 01006KT 3/8SM -DZ FG OVC002 04/03 A3010 RMK FG5SF3 SLP203

CYHM;2007-03-24 19:00;CYHM 241900Z 04002KT 3/8SM -DZ FG OVC002 04/04 A3008 RMK FG5ST3 PCPN VRY LGT SLP194

CYHM;2007-03-24 20:00;CYHM 242000Z 28006KT 1/4SM -DZ FG OVC002 05/05 A3008 RMK FG6ST2 PCPN VRY LGT SLP196

CYHM;2007-03-24 21:00;CYHM 242100Z 27009KT 5/8SM BR OVC002 06/06 A3010 REDZ RMK FG3ST5 SLP202

CYHM;2007-03-24 21:12;CYHM 242112Z 27010KT 3/4SM BR OVC003 RMK FG3ST5

CYHM;2007-03-24 21:27;CYHM 242127Z 27011KT 1SM BR OVC004 RMK FG2ST6

CYHM;2007-03-24 22:00;CYHM 242200Z 28010KT 2SM BR SCT004 BKN009 OVC015 07/07 A3013 RMK FG1SF3SC2SC2 SLP212

CYHM;2007-03-24 23:00;CYHM 242300Z 29012KT 2 1/2SM BR SCT005 BKN011 07/06 A3017 RMK FG1SF3SC3 SLP223

CYHM;2007-03-25 02:17;CYHM 250217Z 29004KT 12SM OVC018 RMK SC8

CYHM;2007-03-25 03:00;CYHM 250300Z 28005KT 15SM OVC020 04/03 A3031 RMK SC8 SLP271

CYHM;2007-03-25 04:07;CYHM 250407Z 01005KT 8SM OVC012 RMK SC8

CYHM;2007-03-25 05:00;CYHM 250500Z 02002KT 12SM OVC019 04/02 A3033 RMK SC8 MAMMA SLP280

CYHM;2007-03-25 06:00;CYHM 250600Z 34003KT 15SM OVC017 04/02 A3035 RMK SC8 SLP287

CYHM;2007-03-25 07:00;CYHM 250700Z 31002KT 7SM OVC019 03/02 A3036 RMK SC8 SLP291

CYHM;2007-03-25 08:00;CYHM 250800Z 06004KT 6SM BR OVC015 02/01 A3038 RMK SC8 SLP296

CYHM;2007-03-25 09:00;CYHM 250900Z 09005KT 4SM BR BKN015 01/01 A3038 RMK SC4 SLP296

CYHM;2007-03-25 09:16;CYHM 250916Z 09005KT 4SM BR OVC013 RMK SC8

CYHM;2007-03-25 10:00;CYHM 251000Z 08003KT 4SM BR BKN012 01/01 A3039 RMK SC7 SLP299

CYHM;2007-03-25 10:33;CYHM 251033Z CCA 05004KT 3/4SM BR FEW012 RMK FG1SC1

CYHM;2007-03-25 11:00;CYHM 251100Z 06004KT 3/4SM BR SCT012 01/00 A3042 RMK FG1SC2 SLP309

CYHM;2007-03-25 11:14;CYHM 251114Z 07004KT 1 1/4SM BR BKN013 RMK FG1SC6

CYHM;2007-03-25 11:37;CYHM 251137Z 07011KT 1SM BR SCT004 OVC012 RMK FG2SF2SC4

CYHM;2007-03-25 11:48;CYHM 251148Z 08012KT 1SM BR BKN002 OVC012 RMK FG2SF5SC2

CYHM;2007-03-25 12:00;CYHM 251200Z 09006KT 3/4SM BR OVC002 01/01 A3042 RMK FG2SF6 SLP310

CYHM;2007-03-25 12:14;CYHM 251214Z 10006KT 1 1/4SM BR OVC002 RMK FG2SF6

CYHM;2007-03-25 12:49;CYHM 251249Z 09009KT 2SM BR OVC002 RMK FG1SF7

CYHM;2007-03-25 13:00;CYHM 251300Z 09009KT 2SM BR OVC002 02/01 A3044 RMK FG1SF7 SLP317

CYHM;2007-03-25 13:33;CYHM 251333Z 06010KT 5SM BR OVC003 RMK SF8

CYHM;2007-03-25 14:00;CYHM 251400Z 07010KT 6SM BR OVC003 02/02 A3044 RMK SF8 SLP315

CYHM;2007-03-25 15:00;CYHM 251500Z 06011KT 6SM BR OVC004 02/01 A3045 RMK SC8 SLP319

CYHM;2007-03-25 16:00;CYHM 251600Z 07008KT 5SM BR OVC004 03/02 A3045 RMK SC8 SLP320

CYHM;2007-03-25 17:00;CYHM 251700Z 04007KT 4SM BR OVC003 03/02 A3044 RMK SC8 SLP317

CYHM;2007-03-25 18:00;CYHM 251800Z 06009KT 4SM BR OVC004 03/02 A3041 RMK SC8 SLP306

CYHM;2007-03-25 19:00;CYHM 251900Z 06010KT 4SM BR OVC005 03/02 A3039 RMK SC8 SLP300

CYHM;2007-03-25 20:00;CYHM 252000Z 07011KT 2 1/2SM -SHRA BR OVC003 03/02 A3034 RMK FG1SC7 SLP283

CYHM;2007-03-25 20:34;CYHM 252034Z 05010KT 1 3/4SM BR OVC003 RMK FG2ST6

CYHM;2007-03-25 20:39;CYHM 252039Z 04010KT 1 1/2SM BR OVC002 RMK FG2ST6

CYHM;2007-03-25 20:56;CYHM 252056Z 04009KT 5/8SM BR OVC002 RMK FG3ST5

CYHM;2007-03-25 21:00;CYHM 252100Z 04010KT 3/4SM BR OVC002 02/02 A3036 RMK FG3ST5 SLP292

CYHM;2007-03-25 21:10;CYHM 252110Z 06011KT 3/8SM FG OVC001 RMK FG4ST4

CYHM;2007-03-25 22:00;CYHM 252200Z 06012KT 3/8SM FG OVC001 02/01 A3034 RMK FG4ST4 VIS VRB 1/4-1/2 SLP283

CYHM;2007-03-25 22:49;CYHM 252249Z 05013KT 1/2SM FG OVC002 RMK FG4ST4

CYHM;2007-03-25 23:00;CYHM 252300Z 05014KT 3/8SM FG OVC001 02/01 A3033 RMK FG4ST4 VIS VRB 1/4-1/2 SLP279

CYHM;2007-03-25 23:12;CYHM 252312Z 05014KT 1/4SM FG VV001 RMK FG8

CYHM;2007-03-26 01:00;CYHM 260100Z 05014KT 1/8SM FG VV001 01/01 A3029 RMK FG8 SLP268

CYHM;2007-03-26 03:00;CYHM 260300Z 05013KT 0SM FG VV001 01/01 A3024 RMK FG8 SLP251

CYHM;2007-03-26 05:00;CYHM 260500Z 05011KT 1/8SM FG VV001 02/01 A3020 RMK FG8 SLP235

CYHM;2007-03-26 06:00;CYHM 260600Z 04010KT 1/4SM FG VV002 02/01 A3018 RMK FG8 SLP230

CYHM;2007-03-26 06:13;CYHM 260613Z 04008KT 1/8SM FG VV001 RMK FG8

CYHM;2007-03-26 07:00;CYHM 260700Z 06007KT 1/8SM FG VV001 02/02 A3013 RMK FG8 SLP214

CYHM;2007-03-26 07:33;CYHM 260733Z 05007KT 1/4SM FG VV001 RMK FG8

CYHM;2007-03-26 08:00;CYHM 260800Z 08005KT 1/4SM FG VV001 02/02 A3009 RMK FG8 SLP200

CYHM;2007-03-26 08:08;CYHM 260808Z 05004KT 1SM BR OVC001 RMK FG2SF6 VIS VRB 3/4 - 11/4

CYHM;2007-03-26 08:25;CYHM 260825Z 00000KT 1SM BR SCT002 OVC120 RMK FG2SF2AC4 VIS VRB 3/4 - 11/4

CYHM;2007-03-26 09:00;CYHM 260900Z 30003KT 1 1/2SM -RA BR OVC110 02/02 A3010 RMK FG2AC6 VIS VRB 1 - 2 SLP201

CYHM;2007-03-26 09:11;CYHM 260911Z 26003KT 5SM -RA BR OVC090 RMK AC8

CYHM;2007-03-26 09:34;CYHM 260934Z 28015KT 7SM -TSRA FEW038CB OVC042 RMK CB2SC6 OCNL LTGIC PRESRR

CYHM;2007-03-26 10:00;CYHM 261000Z 22009KT 6SM -TSRA OVC035 04/04 A3012 RERA RMK SC8 CB ASOCTD SLP208

CYHM;2007-03-26 10:44;CYHM 261044Z 22010KT 15SM -SHRA SCT045 BKN064 OVC091 RMK SC3SC4AC1

CYHM;2007-03-26 11:00;CYHM 261100Z 24007KT 6SM -SHRA BR BKN040 BKN059 OVC070 07/06 A3010 RMK SC5SC2AC2 SLP203

CYHM;2007-03-26 12:00;CYHM 261200Z 20012KT 10SM -SHRA SCT042 BKN087 OVC110 08/06 A3007 RMK SC4AC2AC2 SLP189

CYHM;2007-03-26 12:38;CYHM 261238Z 19020KT 5SM -TSRA BR BKN018 BKN044 OVC070 RMK SC6SC2AC1 CB EMBDD LTNG

CYHM;2007-03-26 13:00;CYHM 261300Z 20018KT 15SM -TSRA SCT036 OVC091 09/06 A3004 RMK SC4AC4 CB EMBDD SLP179

CYHM;2007-03-26 13:15;CYHM 261315Z 19016KT 15SM -SHRA FEW018 SCT036 OVC096 RMK SC2SC2AC4 CU ASOCTD

CYHM;2007-03-26 13:48;CYHM 261348Z CCA 19016KT 15SM -TSRA SCT035 OVC095 RMK SC4AC4 CB EMBDD LTNG

CYHM;2007-03-26 14:34;CYHM 261434Z 20014KT 15SM -TSRA BKN052 OVC092 RMK SC6AC2 CB EMBDD LTNG

CYHM;2007-03-26 15:00;CYHM 261500Z 18016KT 5SM -TSRA BKN017 BKN045 OVC091 12/08 A2999 RMK SC5SC2AC1 CB EMBDD LTNG SLP162

CYHM;2007-03-26 15:13;CYHM 261513Z CCA 19018G24KT 5SM -TSRA BKN015CB BKN042 OVC056 RMK CB5SC2SC1 LTNG

CYHM;2007-03-26 15:49;CYHM 261549Z 19012KT 7SM -SHRA BKN052 BKN060 OVC090 RMK SC5SC2AC1

CYHM;2007-03-26 16:00;CYHM 261600Z 20010KT 15SM -SHRA BKN056 BKN078 OVC100 11/08 A2998 RMK SC5AC2AC1 SLP158

CYHM;2007-03-26 16:11;CYHM 261611Z 22007KT 15SM -TSRA BKN045 BKN061 OVC078 RMK SC5SC2AC1 CB EMBDD

CYHM;2007-03-26 16:45;CYHM 261645Z 19007KT 10SM -SHRA BKN036 BKN064 BKN082 RMK SC5SC2AC1 CU ASOCTD

CYHM;2007-03-26 17:00;CYHM 261700Z 19007KT 15SM SCT038 BKN078 BKN092 12/10 A2995 RMK SC4AC2AC1 CU ASOCTD SLP149

CYHM;2007-03-26 17:13;CYHM 261713Z 19009KT 10SM -SHRA BKN043 BKN064 BKN086 RMK SC5SC2AC1

CYHM;2007-03-26 17:40;CYHM 261740Z 19012KT 15SM FEW021 SCT062 BKN070 BKN120 RMK CU1SC2AC2AC2

CYHM;2007-03-26 18:00;CYHM 261800Z 20014KT 15SM FEW022 SCT046 BKN110 15/12 A2992 RMK CU2SC2AC2 SLP138

CYHM;2007-03-26 19:00;CYHM 261900Z 21014G20KT 15SM FEW042 FEW090 FEW200 20/15 A2989 RMK SC1AC2CI1 CI TR SLP126

CYHM;2007-03-26 20:00;CYHM 262000Z 22014G22KT 15SM FEW042 BKN076 20/14 A2988 RMK SC1AC6 SLP123

CYHM;2007-03-26 21:00;CYHM 262100Z 22015G26KT 15SM FEW046 FEW084 BKN220 21/15 A2986 RMK SC1AC1CS4 SC TR TCU ASOCTD SLP115

CYHM;2007-03-26 22:00;CYHM 262200Z 22018G28KT 15SM FEW028 FEW140 SCT220 20/14 A2986 RMK SC1AC1CS2 SLP113

CYHM;2007-03-26 23:00;CYHM 262300Z 23014G20KT 15SM SCT042 SCT130 20/14 A2989 RMK SC4AC1 AC TR SLP125

CYHM;2007-03-27 01:00;CYHM 270100Z 24006KT 15SM BKN090 17/14 A2994 RMK AC6 SLP139

CYHM;2007-03-27 02:00;CYHM 270200Z 24004KT 15SM BKN076 16/14 A2994 RMK AC6 SLP142

CYHM;2007-03-27 03:00;CYHM 270300Z 25005KT 15SM SCT076 15/13 A2995 RMK AC3 SLP143

CYHM;2007-03-27 05:00;CYHM 270500Z 25005KT 15SM SKC 13/12 A2996 RMK SLP148

CYHM;2007-03-27 06:00;CYHM 270600Z 26004KT 15SM SKC 13/12 A2997 RMK SLP152

CYHM;2007-03-27 07:00;CYHM 270700Z 27005KT 15SM FEW250 12/11 A2998 RMK CI0 SLP154

CYHM;2007-03-27 08:00;CYHM 270800Z 29004KT 15SM FEW250 11/10 A2998 RMK CI0 SLP153

CYHM;2007-03-27 09:00;CYHM 270900Z 26004KT 15SM SCT250 11/10 A2997 RMK CI0 SLP151

CYHM;2007-03-27 09:34;CYHM 270934Z 25004KT 15SM BCFG SCT240 RMK CI0

CYHM;2007-03-27 10:00;CYHM 271000Z 25002KT 15SM MIFG BKN240 08/08 A2999 RMK CI1 SLP155

CYHM;2007-03-27 10:47;CYHM 271047Z 28004KT 1 1/2SM BR BKN220 RMK FG1CI2

CYHM;2007-03-27 11:00;CYHM 271100Z 25002KT 3/4SM BR BKN210 08/08 A3001 RMK FG2CI4 SLP164

CYHM;2007-03-27 11:22;CYHM 271122Z 25004KT 10SM MIFG BKN210 RMK CI5 VISB S-SW 3/4-2SM

CYHM;2007-03-27 11:29;CYHM 271129Z 26006KT 3/4SM BR BKN180 OVC210 RMK FG1AC4CI2

CYHM;2007-03-27 11:41;CYHM 271141Z 26004KT 10SM MIFG FEW016 BKN190 OVC210 RMK CU1AC4CI2 CU TR

CYHM;2007-03-27 12:00;CYHM 271200Z 27006KT 15SM MIFG BKN160 OVC210 09/09 A3004 RMK AC5CI3 SLP175

CYHM;2007-03-27 13:00;CYHM 271300Z 30004KT 15SM FEW020 FEW220 11/11 A3005 RMK CU1CI1 CU TR CI TR SLP178

CYHM;2007-03-27 14:00;CYHM 271400Z 04006KT 15SM FEW020 15/12 A3005 RMK CU1 CU TR SLP179

CYHM;2007-03-27 15:00;CYHM 271500Z 08004KT 15SM FEW220 16/12 A3006 RMK CI1 CI TR SLP180

CYHM;2007-03-27 16:00;CYHM 271600Z 06007KT 15SM FEW240 16/12 A3007 RMK CI1 CI TR SLP183

CYHM;2007-03-27 17:00;CYHM 271700Z 02008KT 15SM FEW240 15/12 A3009 RMK CI1 SLP191

CYHM;2007-03-27 18:00;CYHM 271800Z 06008KT 15SM FEW020 17/13 A3010 RMK CU1 SLP193

CYHM;2007-03-27 19:00;CYHM 271900Z 06004KT 15SM FEW024 FEW250 18/13 A3010 RMK CU1CI1 CU TR CI TR SLP194

CYHM;2007-03-27 20:00;CYHM 272000Z 07006KT 15SM FEW024 FEW250 18/13 A3009 RMK CU1CI1 CU TR SLP191

CYHM;2007-03-27 21:00;CYHM 272100Z 06010KT 15SM FEW025 FEW250 17/12 A3009 RMK CU1CI1 CU TR SLP192

CYHM;2007-03-27 22:00;CYHM 272200Z 06005KT 15SM FEW190 FEW250 17/12 A3010 RMK AC1CI2 AC TR CONTRAILS SLP195

CYHM;2007-03-27 23:00;CYHM 272300Z 05006KT 15SM FEW024 FEW190 SCT250 15/11 A3013 RMK SC1AC1CI2 SC TR AC TR CC ASOCTD SLP203

CYHM;2007-03-28 03:00;CYHM 280300Z 04011KT 12SM OVC028 10/08 A3024 RMK SC8 SLP244

CYHM;2007-03-28 04:00;CYHM 280400Z 04010KT 15SM OVC031 10/08 A3026 RMK SC8 SLP250

CYHM;2007-03-28 05:00;CYHM 280500Z 03015G21KT 15SM OVC038 09/07 A3026 RMK SC8 SLP251

CYHM;2007-03-28 06:00;CYHM 280600Z 03015G22KT 15SM OVC036 08/06 A3027 RMK SC8 SLP255

CYHM;2007-03-28 07:00;CYHM 280700Z 02015G21KT 15SM FEW036 SCT076 BKN250 07/03 A3030 RMK SC1AC2CI1 SLP263

CYHM;2007-03-28 08:00;CYHM 280800Z 03015KT 15SM BKN022 OVC028 06/02 A3032 RMK SC5SC3 SLP269

CYHM;2007-03-28 09:00;CYHM 280900Z 04012G19KT 15SM OVC027 05/01 A3033 RMK SC8 SLP274

CYHM;2007-03-28 10:00;CYHM 281000Z 03015G24KT 15SM FEW026 BKN210 04/M00 A3035 RMK SC2CI2 SLP281

CYHM;2007-03-28 11:00;CYHM 281100Z 06020G25KT 15SM FEW032 FEW180 FEW220 03/M01 A3038 RMK SC1AC1CI1 SC TR SLP290

CYHM;2007-03-28 12:00;CYHM 281200Z 05018G24KT 15SM FEW180 SCT240 03/M01 A3041 RMK AC1CI2 AC TR SLP304

CYHM;2007-03-28 13:00;CYHM 281300Z 05018G24KT 15SM SCT220 04/M02 A3044 RMK CI2 CONTRAIL SLP312

CYHM;2007-03-28 14:00;CYHM 281400Z 04018KT 15SM SCT220 04/M02 A3045 RMK CI3 CONTRAIL SLP316

CYHM;2007-03-28 15:00;CYHM 281500Z 06018G23KT 15SM BKN220 04/M03 A3047 RMK CI5 CONTRAIL SLP325

CYHM;2007-03-28 16:00;CYHM 281600Z 07022KT 15SM BKN240 05/M04 A3048 RMK CI5 CONTRAIL SLP327

CYHM;2007-03-28 17:00;CYHM 281700Z 07018KT 15SM FEW180 BKN240 06/M06 A3048 RMK AC2CI3 CONTRAIL SLP328

CYHM;2007-03-28 18:00;CYHM 281800Z 07020KT 15SM BKN210 06/M05 A3049 RMK CI6 CONTRAIL SLP331

CYHM;2007-03-28 19:00;CYHM 281900Z 07014KT 15SM BKN250 07/M04 A3048 RMK CI2 CONTRAILS SLP328

CYHM;2007-03-28 20:00;CYHM 282000Z 06013KT 15SM FEW120 BKN250 07/M05 A3048 RMK AC1CI2 AC TR CONTRAILS SLP328

CYHM;2007-03-28 21:00;CYHM 282100Z 07013KT 15SM BKN250 07/M06 A3048 RMK CI2 CONTRAILS SLP327

CYHM;2007-03-28 22:00;CYHM 282200Z 07012KT 15SM BKN250 07/M07 A3048 RMK CI2 CONTRAILS SLP328

CYHM;2007-03-28 23:00;CYHM 282300Z 08009KT 15SM BKN250 06/M07 A3049 RMK CI2 CONTRAILS SLP330

CYHM;2007-03-29 00:00;CYHM 290000Z 05007KT 15SM BKN250 04/M07 A3049 RMK CI2 CONTRAILS SLP335

CYHM;2007-03-29 01:00;CYHM 290100Z 05008KT 15SM SCT210 03/M08 A3051 RMK CI1 CONTRAILS SLP341

CYHM;2007-03-29 02:00;CYHM 290200Z 04008KT 15SM SCT210 02/M08 A3052 RMK CI1 CONTRAILS SLP345

CYHM;2007-03-29 03:00;CYHM 290300Z 05007KT 15SM FEW210 01/M08 A3053 RMK CI2 SLP349

CYHM;2007-03-29 04:00;CYHM 290400Z 05008KT 15SM FEW200 01/M09 A3055 RMK CI1 SLP354

CYHM;2007-03-29 05:00;CYHM 290500Z 05009KT 15SM FEW210 01/M07 A3056 RMK CI1 SLP358

CYHM;2007-03-29 06:00;CYHM 290600Z 06009KT 15SM FEW200 00/M06 A3058 RMK CI1 SLP363

CYHM;2007-03-29 07:00;CYHM 290700Z 05011KT 15SM FEW210 01/M06 A3058 RMK CI1 SLP365

CYHM;2007-03-29 08:00;CYHM 290800Z 06010KT 15SM FEW200 01/M06 A3059 RMK CI1 SLP367

CYHM;2007-03-29 09:00;CYHM 290900Z 05012KT 15SM FEW200 01/M08 A3059 RMK CI1 SLP369

CYHM;2007-03-29 10:00;CYHM 291000Z 06012KT 15SM FEW200 00/M09 A3060 RMK CI1 SLP372

CYHM;2007-03-29 11:00;CYHM 291100Z 07011KT 15SM SKC M01/M07 A3060 RMK CONTRAIL SLP371

CYHM;2007-03-29 12:00;CYHM 291200Z 06012KT 15SM FEW240 00/M07 A3063 RMK CI1 SLP381

CYHM;2007-03-29 13:00;CYHM 291300Z 06018KT 15SM BKN240 01/M07 A3065 RMK CI3 SLP387

CYHM;2007-03-29 14:00;CYHM 291400Z 05014KT 15SM BKN220 02/M06 A3066 RMK CI2 SLP391

CYHM;2007-03-29 15:00;CYHM 291500Z 07015KT 15SM BKN220 02/M07 A3066 RMK CI3 SLP393

CYHM;2007-03-29 16:00;CYHM 291600Z 06013KT 15SM SCT220 03/M06 A3065 RMK CI3 SLP388

CYHM;2007-03-29 17:00;CYHM 291700Z 05011KT 15SM FEW240 04/M07 A3063 RMK CI0 CI TR SLP384

CYHM;2007-03-29 18:00;CYHM 291800Z 05011KT 15SM FEW240 04/M08 A3061 RMK CI1 SLP376

CYHM;2007-03-29 19:00;CYHM 291900Z 06009KT 15SM FEW250 05/M06 A3058 RMK CI1 SLP365

CYHM;2007-03-29 20:00;CYHM 292000Z 04010G16KT 010V080 15SM SKC 06/M07 A3057 RMK SLP361

CYHM;2007-03-29 21:00;CYHM 292100Z 05010KT 15SM FEW250 06/M07 A3055 RMK CI1 SLP354

CYHM;2007-03-29 22:00;CYHM 292200Z 04009KT 15SM FEW250 06/M09 A3053 RMK CI1 SLP347

CYHM;2007-03-29 23:00;CYHM 292300Z 04011KT 15SM FEW250 04/M12 A3052 RMK CI0 SLP345

CYHM;2007-03-30 00:00;CYHM 300000Z 05008KT 15SM FEW250 02/M12 A3053 RMK CI0 SLP348

CYHM;2007-03-30 01:00;CYHM 300100Z 03007KT 15SM FEW250 02/M12 A3053 RMK CI1 SLP349

CYHM;2007-03-30 02:00;CYHM 300200Z 05009KT 15SM FEW250 01/M10 A3052 RMK CI1 SLP344

CYHM;2007-03-30 03:00;CYHM 300300Z 07007KT 15SM FEW210 01/M10 A3049 RMK CI1 SLP335

CYHM;2007-03-30 04:00;CYHM 300400Z 06005KT 15SM FEW200 02/M09 A3049 RMK CI1 SLP334

CYHM;2007-03-30 05:00;CYHM 300500Z 08007KT 15SM SCT200 01/M09 A3048 RMK CI2 CS ASOCTD SLP330

CYHM;2007-03-30 06:00;CYHM 300600Z 08007KT 15SM BKN200 00/M09 A3046 RMK CS3 HALO SLP323

CYHM;2007-03-30 07:00;CYHM 300700Z 07005KT 15SM BKN200 01/M11 A3043 RMK CS3 PARTIAL HALO SLP315

CYHM;2007-03-30 08:00;CYHM 300800Z 06006KT 15SM BKN200 01/M11 A3041 RMK CI2 SLP307

CYHM;2007-03-30 09:00;CYHM 300900Z 07002KT 15SM SCT210 00/M11 A3040 RMK CI2 SLP303

CYHM;2007-03-30 10:00;CYHM 301000Z 00000KT 15SM FEW080 FEW210 M00/M11 A3039 RMK AC1CI1 SLP299

CYHM;2007-03-30 11:00;CYHM 301100Z 32004KT 15SM FEW086 SCT220 M02/M08 A3040 RMK AC1CI2 SLP303

CYHM;2007-03-30 12:00;CYHM 301200Z 28002KT 15SM FEW085 FEW120 SCT220 M01/M09 A3038 RMK AC1AC1CI2 SLP299

CYHM;2007-03-30 13:00;CYHM 301300Z 32002KT 15SM FEW100 SCT220 04/M07 A3039 RMK AC1CI2 SLP301

CYHM;2007-03-30 14:00;CYHM 301400Z 36004KT 15SM FEW100 BKN220 07/M07 A3039 RMK AC1CI3 AC TR SLP303

CYHM;2007-03-30 15:00;CYHM 301500Z 35008KT 15SM FEW120 BKN220 10/M07 A3039 RMK AC1CI3 AC TR SLP299

CYHM;2007-03-30 16:00;CYHM 301600Z 05010KT 15SM BKN220 10/M05 A3038 RMK CI4 SLP295

CYHM;2007-03-30 17:00;CYHM 301700Z 07012KT 15SM FEW110 BKN220 11/M06 A3036 RMK AC1CI3 SLP289

CYHM;2007-03-30 18:00;CYHM 301800Z 05011KT 15SM BKN089 BKN140 BKN220 10/M06 A3035 RMK AC5AC1CI1 SLP286

CYHM;2007-03-30 19:00;CYHM 301900Z 05008KT 15SM BKN098 10/M05 A3033 RMK AC7 SLP280

CYHM;2007-03-30 20:00;CYHM 302000Z 04008KT 010V100 15SM SCT093 BKN150 11/M06 A3033 RMK AC3AC2 SLP277

CYHM;2007-03-30 21:00;CYHM 302100Z 07008KT 15SM FEW093 BKN110 BKN150 11/M06 A3031 RMK AC2AC3AC2 SLP270

CYHM;2007-03-30 22:00;CYHM 302200Z 05008KT 15SM BKN071 BKN110 BKN250 10/M05 A3029 RMK AC6AC2CI1 CI TR SLP263

CYHM;2007-03-30 23:00;CYHM 302300Z 05009KT 15SM BKN063 BKN110 09/M04 A3028 RMK SC6AC1 SLP261

CYHM;2007-03-31 00:00;CYHM 310000Z 06009KT 15SM SCT060 BKN071 07/M05 A3027 RMK SC3AC3 SLP260

CYHM;2007-03-31 01:00;CYHM 310100Z 05007KT 15SM BKN077 07/M05 A3029 RMK AC7 SLP265

CYHM;2007-03-31 02:00;CYHM 310200Z 05007KT 15SM BKN081 BKN110 07/M05 A3028 RMK AC6AC1 SLP261

CYHM;2007-03-31 03:00;CYHM 310300Z 04005KT 15SM BKN086 BKN110 06/M05 A3026 RMK AC6AC2 SLP253

CYHM;2007-03-31 04:00;CYHM 310400Z 04007KT 15SM BKN090 OVC120 06/M04 A3026 RMK AC5AC3 SLP253

CYHM;2007-03-31 05:00;CYHM 310500Z 04006KT 15SM BKN090 BKN110 06/M02 A3026 RMK AC6AC2 SLP253

CYHM;2007-03-31 06:00;CYHM 310600Z 04007KT 15SM OVC093 06/M01 A3025 RMK AC8 SLP249

CYHM;2007-03-31 07:00;CYHM 310700Z 05011KT 15SM SCT059 OVC080 05/M01 A3023 RMK SC3AC5 SLP244

CYHM;2007-03-31 08:00;CYHM 310800Z 04012KT 15SM BKN058 OVC090 04/M01 A3023 RMK SC6AC2 SLP244

CYHM;2007-03-31 09:00;CYHM 310900Z 05013G18KT 15SM FEW058 OVC088 03/M02 A3024 RMK SC2AC6 SLP247

CYHM;2007-03-31 10:00;CYHM 311000Z 05016G22KT 15SM OVC062 03/M04 A3024 RMK SC8 SLP247

CYHM;2007-03-31 11:00;CYHM 311100Z 06017KT 15SM OVC062 02/M05 A3026 RMK SC8 SLP252

CYHM;2007-03-31 12:00;CYHM 311200Z 06018KT 15SM OVC063 02/M05 A3027 RMK SC8 SLP257

CYHM;2007-03-31 13:00;CYHM 311300Z 06019KT 020V090 15SM BKN065 02/M05 A3027 RMK SC7 SLP258

CYHM;2007-03-31 14:00;CYHM 311400Z 06020KT 15SM BKN062 BKN098 02/M05 A3027 RMK SC5AC2 SLP257

CYHM;2007-03-31 15:00;CYHM 311500Z 06018KT 15SM BKN072 BKN097 02/M04 A3027 RMK AC6AC1 SLP259

CYHM;2007-03-31 16:00;CYHM 311600Z 04018KT 15SM SCT078 OVC130 03/M04 A3027 RMK AC3AC5 SLP258

CYHM;2007-03-31 17:00;CYHM 311700Z 04017KT 15SM BKN064 OVC130 02/M04 A3026 RMK SC6AC2 SLP256

CYHM;2007-03-31 18:00;CYHM 311800Z 04019KT 15SM SCT064 BKN110 04/M03 A3024 RMK SC4AC3 SLP247

CYHM;2007-03-31 19:00;CYHM 311900Z 05016KT 15SM BKN062 BKN110 04/M02 A3021 RMK SC5AC2 SLP238

CYHM;2007-03-31 20:00;CYHM 312000Z 05017KT 15SM FEW045 BKN060 04/M02 A3019 RMK SC2SC5 SLP231

CYHM;2007-03-31 21:00;CYHM 312100Z 05018KT 15SM FEW045 BKN060 BKN088 04/M03 A3017 RMK SC2SC3AC2 SLP226

CYHM;2007-03-31 22:00;CYHM 312200Z 05018KT 15SM SCT060 BKN089 03/M06 A3018 RMK SC3AC4 SLP227

CYHM;2007-03-31 23:00;CYHM 312300Z 05018KT 15SM FEW060 BKN088 02/M06 A3016 RMK SC2AC5 SLP221

CYHM;2007-04-01 05:00;CYHM 010500Z 05017KT 15SM FEW086 FEW100 BKN120 03/M04 A3006 RMK AC1AC2AC5 SLP187

CYHM;2007-04-01 06:00;CYHM 010600Z 05015KT 12SM -SHRA OVC066 03/M02 A3005 RMK AC8 SLP184

CYHM;2007-04-01 07:00;CYHM 010700Z 04015KT 15SM -SHRA OVC060 03/M03 A3003 RMK SC8 SLP177

CYHM;2007-04-01 08:00;CYHM 010800Z 04016KT 15SM FEW050 OVC062 04/M02 A3000 RMK SC2SC6 SLP166

CYHM;2007-04-01 09:00;CYHM 010900Z 04016KT 15SM BKN049 OVC080 03/M02 A2997 RMK SC7AC1 SLP158

CYHM;2007-04-01 10:00;CYHM 011000Z 05015KT 15SM OVC043 03/M01 A2996 RMK SC8 SLP153

CYHM;2007-04-01 11:00;CYHM 011100Z 05016KT 15SM OVC041 03/M01 A2993 RMK SC8 SLP144

CYHM;2007-04-01 12:00;CYHM 011200Z 04014KT 15SM -SHRA BKN036 OVC043 03/M00 A2993 RMK SC6SC2 SLP142

CYHM;2007-04-01 12:06;CYHM 011206Z 04012KT 2 1/2SM SHRA BR FEW022 BKN036 OVC043 RMK CF2SC5SC2

CYHM;2007-04-01 12:13;CYHM 011213Z 04013KT 5SM -SHRA BR FEW022 BKN032 OVC042 RERA RMK CF1SC6SC1

CYHM;2007-04-01 12:28;CYHM 011228Z 04012KT 2SM SHRA BR FEW018 OVC028 RMK FG1CF1SC6

CYHM;2007-04-01 12:44;CYHM 011244Z CCA 04010KT 4SM -SHRA BR FEW018 BKN028 OVC086 RERA RMK CF1SC6AC2

CYHM;2007-04-01 13:00;CYHM 011300Z 04011KT 5SM -SHRA BR BKN034 OVC092 03/02 A2993 RMK SC5AC3 SLP142

CYHM;2007-04-01 13:25;CYHM 011325Z 04010KT 2 1/2SM SHRA BR FEW018 OVC031 RMK CF1SC7

CYHM;2007-04-01 13:45;CYHM 011345Z 04010KT 3SM -SHRA BR OVC029 RERA RMK SC8

CYHM;2007-04-01 14:00;CYHM 011400Z 05010KT 3SM -SHRA BR BKN029 OVC080 03/02 A2991 RERA RMK SC7AC1 SLP137

CYHM;2007-04-01 14:47;CYHM 011447Z 05012KT 5SM BR FEW008 OVC022 RMK CF1SC8 CF TR

CYHM;2007-04-01 15:00;CYHM 011500Z 05011KT 5SM BR FEW008 OVC019 04/04 A2989 RMK CF1SC8 CF TR SLP130

CYHM;2007-04-01 15:45;CYHM 011545Z 03010KT 2SM -SHRA BR OVC019 RMK FG1SC7

CYHM;2007-04-01 16:00;CYHM 011600Z 04009KT 1 1/2SM -SHRA BR OVC019 04/04 A2988 RMK FG2SC6 SLP124

CYHM;2007-04-01 17:00;CYHM 011700Z 05007KT 1SM -SHRA BR OVC018 05/04 A2986 RMK FG2SC6 SLP119

CYHM;2007-04-01 17:35;CYHM 011735Z 04006KT 1 1/4SM -SHRA BR FEW002 OVC016 RMK FG2CF1SC6 PCPN VRY LGT

CYHM;2007-04-01 17:50;CYHM 011750Z 04006KT 1 1/4SM -DZ BR FEW002 OVC014 RMK FG2CF1SC6

CYHM;2007-04-01 18:00;CYHM 011800Z 04006KT 1 1/4SM -DZ BR OVC013 06/05 A2984 RMK FG2SC6 SLP112

CYHM;2007-04-01 18:40;CYHM 011840Z 09006KT 2SM -DZ BR FEW002 OVC012 RMK FG1CF1SC6

CYHM;2007-04-01 19:00;CYHM 011900Z 09004KT 4SM BR OVC012 08/08 A2982 RMK SC8 VIS NE 2 SLP105

CYHM;2007-04-01 20:00;CYHM 012000Z 09005KT 050V120 4SM BR OVC010 09/08 A2980 RMK SC8 SLP098

CYHM;2007-04-01 20:15;CYHM 012015Z 10006KT 070V140 2 1/2SM BR OVC010 RMK FG1SC7

CYHM;2007-04-01 20:25;CYHM 012025Z 17009KT 140V200 4SM BR OVC010 RMK SC8

CYHM;2007-04-01 21:00;CYHM 012100Z 04005KT 2 1/2SM BR FEW006 OVC011 10/09 A2979 RMK FG1SF2SC6 SLP093

CYHM;2007-04-01 22:00;CYHM 012200Z 17009KT 3SM BR SCT009 BKN016 11/10 A2978 RMK SC4SC3 SLP089

CYHM;2007-04-01 23:00;CYHM 012300Z 18013KT 6SM HZ FEW010 FEW018 13/11 A2977 RMK CF1SC2 CU ASOCTD SLP087

CYHM;2007-04-02 00:00;CYHM 020000Z 17010KT 5SM BR FEW020 FEW030 SCT200 11/10 A2977 RMK CU2SC1CI0 SLP085

CYHM;2007-04-02 01:00;CYHM 020100Z 16008KT 7SM FEW040 FEW070 10/09 A2977 RMK SC2AC1 AC TR SLP086

CYHM;2007-04-02 02:00;CYHM 020200Z 16008KT 10SM OVC092 11/10 A2975 RMK AC8 SLP081

CYHM;2007-04-02 03:00;CYHM 020300Z 20008KT 6SM -SHRA OVC085 11/10 A2975 RMK AC8 SLP079

CYHM;2007-04-02 03:41;CYHM 020341Z 22006KT 7SM -TSRA OVC055 RMK SC8 CB ASOCTD OCNL LTGICCG

CYHM;2007-04-02 04:00;CYHM 020400Z 24007KT 6SM -TSRA OVC040 11/10 A2976 RMK SC8 CB ASOCTD OCNL LTGIC SLP083

CYHM;2007-04-02 04:33;CYHM 020433Z 21012KT 10SM -SHRA OVC061 RETS RMK SC8

CYHM;2007-04-02 05:00;CYHM 020500Z 16011KT 8SM -SHRA FEW034 BKN065 OVC100 10/09 A2973 RETS RMK CF1SC6AC1 SLP071

CYHM;2007-04-02 06:00;CYHM 020600Z 19007KT 10SM FEW055 OVC120 10/10 A2971 RMK SC2AS5 SLP066

CYHM;2007-04-02 07:00;CYHM 020700Z 20012KT 7SM -RA BKN052 OVC070 10/09 A2973 RMK SC6AS2 SLP071

CYHM;2007-04-02 08:00;CYHM 020800Z 23018G26KT 15SM FEW060 FEW110 FEW200 11/06 A2970 RMK SC1AC1CI1 TR AC SLP061

CYHM;2007-04-02 09:00;CYHM 020900Z 23018G23KT 15SM FEW040 FEW200 10/05 A2970 RMK SC2CI1 SLP061

CYHM;2007-04-02 10:00;CYHM 021000Z 24018KT 15SM FEW040 OVC056 10/05 A2971 RMK CF2SC6 SLP064

CYHM;2007-04-02 11:00;CYHM 021100Z 24016KT 15SM FEW038 BKN045 BKN060 09/05 A2973 RMK CU2SC3SC2 SLP072

CYHM;2007-04-02 11:26;CYHM 021126Z 25016G21KT 8SM -SHRA SCT038 BKN045 RMK SC3SC4

CYHM;2007-04-02 12:00;CYHM 021200Z 25010G15KT 15SM -SHRA BKN035 OVC041 09/06 A2976 RMK SC6SC2 SLP082

CYHM;2007-04-02 12:39;CYHM 021239Z 25010KT 15SM FEW028 BKN045 BKN067 RMK CU2SC4AC1

CYHM;2007-04-02 13:00;CYHM 021300Z 26013KT 15SM FEW027 BKN035 BKN062 09/05 A2977 RMK CU1SC4SC2 SLP085

CYHM;2007-04-02 14:00;CYHM 021400Z 26016G22KT 15SM SCT023 BKN032 09/05 A2979 RMK CU3SC4 SLP090

CYHM;2007-04-02 15:00;CYHM 021500Z 25015G20KT 15SM FEW020 SCT026 OVC035 09/05 A2981 RMK CU2SC2SC4 SLP100

CYHM;2007-04-02 16:00;CYHM 021600Z 27014KT 15SM BKN026 OVC035 09/05 A2982 RMK SC6SC2 SLP103

CYHM;2007-04-02 18:00;CYHM 021800Z 27011KT 15SM FEW026 BKN052 BKN060 11/05 A2985 RMK CU2SC4SC2 SLP113

CYHM;2007-04-02 19:00;CYHM 021900Z 26009KT 15SM FEW026 BKN036 11/05 A2986 RMK SF2SC6 SLP115

CYHM;2007-04-02 20:00;CYHM 022000Z 29009KT 15SM BKN036 12/06 A2985 RMK SC6 SF ASOCTD SLP113

CYHM;2007-04-02 21:00;CYHM 022100Z 28009KT 15SM BKN036 13/06 A2987 RMK SC7 SF ASOCTD SLP117

CYHM;2007-04-02 22:00;CYHM 022200Z 29010KT 15SM SCT042 13/06 A2988 RMK SC4 CF ASOCTD SLP121

CYHM;2007-04-02 23:00;CYHM 022300Z 27011KT 15SM BKN042 BKN058 11/05 A2991 RMK SC5SC2 SLP131

CYHM;2007-04-03 00:00;CYHM 030000Z 29012KT 15SM FEW042 09/04 A2994 RMK SC1 CF ASOCTD SLP145

CYHM;2007-04-03 01:00;CYHM 030100Z 28009KT 15SM FEW044 08/03 A3000 RMK SC2 SLP163

CYHM;2007-04-03 02:00;CYHM 030200Z 28006KT 15SM FEW036 FEW210 06/03 A3002 RMK CF1CI1 CF TR SLP171

CYHM;2007-04-03 03:00;CYHM 030300Z 31005KT 15SM SKC 05/02 A3003 RMK SLP175

CYHM;2007-04-03 04:00;CYHM 030400Z 26005KT 15SM SKC 05/02 A3004 RMK SLP179

CYHM;2007-04-03 05:00;CYHM 030500Z 29005KT 15SM SKC 04/01 A3004 RMK SLP180

CYHM;2007-04-03 06:00;CYHM 030600Z 27003KT 15SM SKC 04/01 A3005 RMK SLP182

CYHM;2007-04-03 07:00;CYHM 030700Z 23002KT 15SM SKC 02/00 A3006 RMK SLP184

CYHM;2007-04-03 08:00;CYHM 030800Z 19003KT 15SM SKC 02/M00 A3006 RMK SLP185

CYHM;2007-04-03 09:00;CYHM 030900Z 15003KT 15SM FEW250 01/M00 A3006 RMK CI1 CI TR SLP185

CYHM;2007-04-03 10:00;CYHM 031000Z 16002KT 15SM FEW250 01/M00 A3008 RMK CI1 SLP191

CYHM;2007-04-03 11:00;CYHM 031100Z 22004KT 15SM SCT220 00/M01 A3011 RMK CI2 SLP202

CYHM;2007-04-03 12:00;CYHM 031200Z 25002KT 15SM SCT100 BKN210 01/00 A3010 RMK AC3CI3 SLP201

CYHM;2007-04-03 13:00;CYHM 031300Z 20002KT 15SM BKN082 BKN220 04/02 A3010 RMK AC6CI2 SLP200

CYHM;2007-04-03 14:00;CYHM 031400Z 16002KT 15SM FEW020 FEW120 BKN220 07/02 A3007 RMK CU1AC1CI2 CU TR SLP190

CYHM;2007-04-03 15:00;CYHM 031500Z 09006KT 15SM FEW024 FEW120 BKN210 09/03 A3007 RMK CU1AC1CI5 SLP190

CYHM;2007-04-03 16:00;CYHM 031600Z 11010KT 15SM FEW045 BKN094 OVC110 08/03 A3004 RMK SC2AC3AS2 SLP178

CYHM;2007-04-03 17:00;CYHM 031700Z 12012KT 15SM SCT075 OVC120 09/03 A3002 RMK AC4AS4 SLP173

CYHM;2007-04-03 18:00;CYHM 031800Z 12010KT 15SM FEW022 SCT062 BKN072 OVC150 10/04 A3001 RMK CU1SC2AC2AC2 SLP169

CYHM;2007-04-03 19:00;CYHM 031900Z 06012KT 15SM FEW056 FEW084 BKN180 BKN250 08/03 A2997 RMK SC2AC1AC2CS2 SUN DMLY VSBL SLP155

CYHM;2007-04-03 20:00;CYHM 032000Z 06018G24KT 15SM FEW056 FEW110 BKN250 08/03 A2992 RMK SC1AC1CS5 SC TR SLP139

CYHM;2007-04-03 21:00;CYHM 032100Z 06018G28KT 15SM SCT064 SCT090 BKN250 06/02 A2988 RMK SC3AC1CS2 SLP126

CYHM;2007-04-03 22:00;CYHM 032200Z 06020G30KT 15SM FEW120 BKN180 BKN250 06/02 A2983 RMK AC2AC3CI2 SLP109

CYHM;2007-04-03 23:00;CYHM 032300Z 06018G28KT 15SM BKN086 BKN110 BKN250 04/02 A2982 RMK AC6AC1CI1 SLP106

CYHM;2007-04-03 23:39;CYHM 032339Z 02020G32KT 15SM -SHRA FEW015 BKN086 OVC120 RMK SC1AC6AC2

CYHM;2007-04-04 00:00;CYHM 040000Z 04018G28KT 8SM -SHRA FEW015 BKN074 OVC100 04/02 A2986 RMK SC1AC6AC2 SLP118

CYHM;2007-04-04 01:00;CYHM 040100Z 06024G34KT 12SM -SHRA FEW080 BKN100 OVC160 05/04 A2979 RMK AC2AC5AC1 SLP096

CYHM;2007-04-04 02:00;CYHM 040200Z 05014G22KT 15SM FEW015 OVC110 05/04 A2979 RMK SC1AC7 SLP095

CYHM;2007-04-04 03:00;CYHM 040300Z 05018G26KT 15SM FEW015 OVC110 05/04 A2974 RMK SF1AC7 SLP077

CYHM;2007-04-04 04:00;CYHM 040400Z 05015KT 15SM OVC120 05/04 A2970 RMK AC8 SLP062

CYHM;2007-04-04 05:00;CYHM 040500Z 09005KT 12SM -SHRA BKN075 OVC120 05/04 A2971 RMK AC5AC3 SLP065

CYHM;2007-04-04 06:00;CYHM 040600Z 03010KT 8SM -SHRA FEW060 OVC090 05/04 A2962 RMK SC2AC6 SLP036

CYHM;2007-04-04 07:00;CYHM 040700Z 07011KT 2 1/2SM -RA BR SCT002 OVC050 04/04 A2960 RMK SF3SC5 SLP029

CYHM;2007-04-04 08:00;CYHM 040800Z 05006KT 2 1/2SM -RA BR SCT002 BKN045 OVC060 05/04 A2956 RMK SF4SC3SC1 SLP017

CYHM;2007-04-04 08:33;CYHM 040833Z 06005KT 2SM BR BKN005 OVC036 RMK SF6SC2

CYHM;2007-04-04 09:00;CYHM 040900Z 07003KT 2SM BR BKN004 OVC036 05/05 A2953 RMK SF6SC2 SLP006

CYHM;2007-04-04 09:39;CYHM 040939Z 09002KT 2SM -SHRA BR BKN004 OVC016 RMK SF7SC1

CYHM;2007-04-04 10:00;CYHM 041000Z 10004KT 2SM -SHRA BR BKN004 OVC012 05/05 A2951 RMK SF6SC2 SLP998

CYHM;2007-04-04 10:51;CYHM 041051Z 16004KT 1SM -RA BR BKN002 OVC011 RMK FG2SF5SC2

CYHM;2007-04-04 11:00;CYHM 041100Z 18007KT 1SM -RA BR OVC002 07/07 A2949 RMK FG2SF6 SLP991

CYHM;2007-04-04 11:33;CYHM 041133Z 23012KT 1 1/2SM -RA BR BKN003 OVC007 RMK FG2SF4SC2

CYHM;2007-04-04 12:00;CYHM 041200Z 24015KT 2 1/2SM -RA BR BKN005 OVC010 09/09 A2948 RMK SF6SC2 SLP987

CYHM;2007-04-04 12:10;CYHM 041210Z 25017KT 5SM -RA BR BKN008 BKN011 OVC036 RMK SF5SC2SC1

CYHM;2007-04-04 13:00;CYHM 041300Z 27014G22KT 5SM -RA BR BKN008 OVC020 09/08 A2949 RMK SC6SC2 SLP990

CYHM;2007-04-04 14:00;CYHM 041400Z 27016G23KT 5SM -RA BR BKN009 OVC015 07/06 A2952 RMK SC5SC3 SLP999

CYHM;2007-04-04 15:00;CYHM 041500Z 26024G30KT 4SM -RA BR BKN011 OVC016 06/05 A2955 RMK SC6SC2 SLP011

CYHM;2007-04-04 15:37;CYHM 041537Z 25021G26KT 15SM FEW018 BKN024 OVC035 RMK CU2SC3SC2

CYHM;2007-04-04 16:00;CYHM 041600Z 25020G26KT 15SM FEW025 OVC038 06/02 A2957 RMK CU2SC6 SLP018

CYHM;2007-04-04 17:00;CYHM 041700Z 24025G32KT 15SM FEW020 BKN026 OVC040 06/01 A2958 RMK CU1SC6SC2 SLP023

CYHM;2007-04-04 17:51;CYHM 041751Z 25028KT 15SM -SHRA FEW020 OVC024 RMK CU1SC7

CYHM;2007-04-04 18:00;CYHM 041800Z 25024G29KT 15SM -SHRA OVC027 05/M00 A2961 RMK SC8 SLP032

CYHM;2007-04-04 18:12;CYHM 041812Z 24022G32KT 15SM OVC030 RMK SC8 SF ASOCTD

CYHM;2007-04-04 18:37;CYHM 041837Z  23020G28KT 15SM -SHRA FEW024 OVC036 RMK SF2SC6

CYHM;2007-04-04 18:45;CYHM 041845Z 23020G28KT 15SM -SHRA FEW024 OVC036 RMK SF2SC6

CYHM;2007-04-04 19:00;CYHM 041900Z 23018G26KT 15SM -SHRA FEW022 OVC034 04/01 A2962 RMK SF2SC6 SLP035

CYHM;2007-04-04 19:49;CYHM 041949Z 22014G22KT 15SM -SHGS BKN026 OVC042 RMK SC7SC1 SF ASOCTD

CYHM;2007-04-04 20:00;CYHM 042000Z 24014G22KT 15SM -SHGS OVC026 04/M00 A2963 RMK SC8 SF ASOCTD SLP040

CYHM;2007-04-04 20:40;CYHM 042040Z 24018G26KT 15SM -SHSN FEW024 OVC034 RMK SF2SC6

CYHM;2007-04-04 21:00;CYHM 042100Z 24020G28KT 5SM -SHSN FEW022 OVC033 03/M02 A2965 RMK SF2SC6 SLP046

CYHM;2007-04-04 22:00;CYHM 042200Z 25016G26KT 5SM -SHSN BKN020 OVC034 01/M02 A2968 RMK SC5SC3 SLP056

CYHM;2007-04-04 23:00;CYHM 042300Z 24012G20KT 15SM -SHSN OVC032 01/M03 A2968 RMK SC8 SLP057

CYHM;2007-04-05 00:00;CYHM 050000Z 26016G28KT 12SM -SHSN FEW016 SCT030 OVC054 00/M03 A2970 RMK SF1SC2SC5 SLP063

CYHM;2007-04-05 01:00;CYHM 050100Z 24017G26KT 12SM -SHSN FEW024 BKN036 OVC050 M00/M04 A2972 RMK SF2SC5SC2 SLP070

CYHM;2007-04-05 02:00;CYHM 050200Z 25015G24KT 12SM -SHSN FEW024 BKN038 OVC120 M01/M04 A2972 RMK SC2SC6AC1 SLP071

CYHM;2007-04-05 02:41;CYHM 050241Z 25011KT 1 1/2SM -SHSN VV010 RMK SN8 VIS VRB 1 - 2

CYHM;2007-04-05 03:00;CYHM 050300Z 25017G24KT 1 1/2SM -SHSN FEW005 OVC013 M02/M03 A2971 RMK SN2CF1SC6 VIS VRB 1 - 2 /S01/ SLP070

CYHM;2007-04-05 03:07;CYHM 050307Z 25013G24KT 5SM -SHSN FEW010 BKN054 RMK CF2SC3

CYHM;2007-04-05 04:00;CYHM 050400Z 26012KT 5SM -SHSN SCT011 BKN046 BKN070 M02/M04 A2971 RMK CF3SC2AC1 SLP069

CYHM;2007-04-05 05:00;CYHM 050500Z 25013G18KT 4SM -SHSN BKN016 OVC030 M03/M06 A2971 RMK CF5SC3 SLP068

CYHM;2007-04-05 06:00;CYHM 050600Z 26015KT 7SM -SHSN SCT040 BKN073 M04/M07 A2971 RMK SC4AC3 SLP069

CYHM;2007-04-05 07:00;CYHM 050700Z 26012KT 10SM -SHSN FEW025 OVC042 M04/M08 A2970 RMK CF2SC6 SLP066

CYHM;2007-04-05 08:00;CYHM 050800Z 25018G26KT 2SM -SN FEW010 OVC022 M05/M07 A2971 RMK SN1CF2SC6 SLP068

CYHM;2007-04-05 08:13;CYHM 050813Z 25013G19KT 6SM -SN FEW005 SCT020 OVC065 RMK CF2SC2SC4

CYHM;2007-04-05 09:00;CYHM 050900Z 25015G20KT 15SM -SN FEW028 SCT042 OVC092 M05/M11 A2970 RMK CF1SC2AC5 SLP068

CYHM;2007-04-05 10:00;CYHM 051000Z 27013G23KT 15SM -SN FEW017 FEW050 OVC096 M06/M10 A2971 RMK CF2SC1AC6 SLP071

CYHM;2007-04-05 10:29;CYHM 051029Z 27012G20KT 1 1/2SM -SN BKN007 BKN017 OVC090 RMK SN1SF5SC2AC1

CYHM;2007-04-05 10:37;CYHM 051037Z 27015KT 10SM -SN FEW008 SCT019 BKN062 OVC086 RMK SF1SC3SC3AC1

CYHM;2007-04-05 11:00;CYHM 051100Z 27014KT 15SM FEW018 BKN038 BKN061 OVC100 M07/M10 A2973 RMK CU1SC4SC2AC1 SLP076

CYHM;2007-04-05 11:22;CYHM 051122Z 27018G23KT 3SM -SN BKN017 OVC037 RMK SC6SC2

CYHM;2007-04-05 12:00;CYHM 051200Z 27016KT 2 1/2SM -SN BKN013 OVC024 M07/M10 A2974 RMK SC6SC2 SLP082

CYHM;2007-04-05 13:00;CYHM 051300Z 27016KT 10SM -SN BKN019 OVC028 M06/M10 A2974 RMK SC6SC2 SLP083

CYHM;2007-04-05 14:00;CYHM 051400Z 25014G22KT 15SM -SN FEW024 BKN033 BKN120 M06/M10 A2975 RMK CU2SC3AC1 SLP086

CYHM;2007-04-05 15:00;CYHM 051500Z 27016G26KT 4SM -SN FEW020 BKN032 BKN110 M05/M10 A2975 RMK CU2SC4AC1 SLP087

CYHM;2007-04-05 15:12;CYHM 051512Z 27014G20KT 1SM -SN BKN006 BKN018 BKN042 RMK SN1SF4SC2SC1

CYHM;2007-04-05 15:24;CYHM 051524Z 27014G20KT 10SM -SN SCT028 BKN040 BKN150 RMK CU3SC2AC1

CYHM;2007-04-05 15:41;CYHM 051541Z 26020KT 1SM -SN BKN006 OVC018 RMK SN2SF4SC2

CYHM;2007-04-05 15:52;CYHM 051552Z 27016KT 4SM -SN FEW018 BKN026 BKN038 RMK CU2SC5SC1

CYHM;2007-04-05 16:00;CYHM 051600Z 27015G20KT 1SM -SN BKN011 BKN018 M05/M09 A2975 RMK SN2SF3SC2 SLP086

CYHM;2007-04-05 16:26;CYHM 051626Z 27018G24KT 3/4SM -SN BKN005 BKN012 RMK SN2SF4SC2

CYHM;2007-04-05 16:32;CYHM 051632Z 26020G27KT 15SM -SN FEW008 FEW024 BKN035 BKN084 RMK SF1CU2SC4AC2

CYHM;2007-04-05 17:00;CYHM 051700Z 28018G24KT 15SM FEW020 BKN032 BKN060 OVC082 M04/M09 A2975 RMK CU2SC4SC2AC1 SLP085

CYHM;2007-04-05 17:13;CYHM 051713Z 25018G25KT 10SM -SHSN FEW022 BKN034 OVC048 RMK CU2SC5SC2

CYHM;2007-04-05 18:00;CYHM 051800Z 28020G30KT 7SM -SHSN BKN028 OVC051 M05/M09 A2976 RMK SC6SC2 SLP090

CYHM;2007-04-05 19:00;CYHM 051900Z 27020G26KT 15SM -SHSN BKN032 BKN048 OVC085 M04/M10 A2976 RMK SC5SC2AC1 SLP091

CYHM;2007-04-05 20:00;CYHM 052000Z 28018G26KT 5SM -SHSN BKN030 OVC042 M04/M10 A2978 RMK SC6SC2 SLP096

CYHM;2007-04-05 21:00;CYHM 052100Z 28018KT 020V320 8SM -SHSN BKN033 BKN051 OVC100 M05/M11 A2979 RMK SC5SC2AC2 SLP101

CYHM;2007-04-05 22:00;CYHM 052200Z 28022G30KT 15SM -SHSN SCT030 BKN048 OVC100 M05/M12 A2980 RMK SC3SC4AC1 SLP105

CYHM;2007-04-05 23:00;CYHM 052300Z 27016G24KT 15SM -SHSN FEW030 BKN048 BKN081 M05/M11 A2981 RMK SC1SC5AC2 SLP109

CYHM;2007-04-06 00:00;CYHM 060000Z 29013KT 8SM -SHSN FEW028 OVC048 M05/M09 A2982 RMK SC2SC6 SLP113

CYHM;2007-04-06 01:00;CYHM 060100Z 27010KT 230V320 15SM -SHSN BKN024 BKN050 M05/M09 A2982 RMK SC5SC2 SLP112

CYHM;2007-04-06 02:00;CYHM 060200Z 27012KT 230V300 15SM -SHSN FEW028 SCT045 BKN064 M05/M09 A2981 RMK SC2SC2SC3 SLP110

CYHM;2007-04-06 03:00;CYHM 060300Z 27015G22KT 6SM -SHSN OVC030 M05/M10 A2980 RMK SC8 SLP105

CYHM;2007-04-06 04:00;CYHM 060400Z 27012KT 6SM -SHSN BKN028 OVC052 M05/M09 A2980 RMK CF6SC2 SLP104

CYHM;2007-04-06 05:00;CYHM 060500Z 28014G20KT 2SM -SHSN OVC029 M05/M09 A2979 RMK SN1SC7 SLP101

CYHM;2007-04-06 05:22;CYHM 060522Z 28012G20KT 5SM -SHSN OVC029 RMK SC8

CYHM;2007-04-06 06:00;CYHM 060600Z 28013G18KT 8SM -SHSN SCT022 BKN051 M05/M09 A2978 RMK CF4SC2 SLP099

CYHM;2007-04-06 07:00;CYHM 060700Z 27013G24KT 10SM -SHSN FEW025 OVC042 M05/M10 A2977 RMK CF2SC6 SLP095

CYHM;2007-04-06 07:46;CYHM 060746Z 26014KT 3SM -SHSN OVC014 RMK SC7 VIS VRB 2 - 4

CYHM;2007-04-06 08:00;CYHM 060800Z 27013G19KT 4SM -SHSN BKN020 M06/M09 A2977 RMK SC6 SLP094

CYHM;2007-04-06 09:00;CYHM 060900Z 26013KT 5SM -SHSN SCT018 BKN059 M06/M09 A2977 RMK CF3SC2 SLP093

CYHM;2007-04-06 10:00;CYHM 061000Z 26013G19KT 15SM -SHSN FEW024 BKN085 M06/M10 A2976 RMK CF2AC3 SLP092

CYHM;2007-04-06 11:00;CYHM 061100Z 27014KT 15SM -SHSN BKN049 OVC086 M06/M10 A2977 RMK SC6AC2 SLP094

CYHM;2007-04-06 11:49;CYHM 061149Z 28016KT 15SM FEW022 SCT032 BKN048 RMK CU2SC2SC2

CYHM;2007-04-06 12:00;CYHM 061200Z 27018KT 15SM FEW022 BKN048 M06/M11 A2977 RMK CU2SC5 SLP095

CYHM;2007-04-06 12:19;CYHM 061219Z 28016G22KT 15SM -SHSN FEW024 SCT036 BKN044 RMK CF2SC2SC3

CYHM;2007-04-06 13:00;CYHM 061300Z CCA 27018G23KT 15SM -SHSN FEW024 BKN040 BKN070 M05/M11 A2977 RMK CU2SC2AC1 SLP094

CYHM;2007-04-06 14:00;CYHM 061400Z 27018G23KT 15SM -SHSN FEW022 BKN033 BKN086 M06/M12 A2977 RMK CU2SC5AC1 SLP093

CYHM;2007-04-06 14:33;CYHM 061433Z 27018KT 3SM -SHSN SCT011 BKN025 OVC038 RMK SF3SC3SC2

CYHM;2007-04-06 15:00;CYHM 061500Z 27020G28KT 5SM -SHSN FEW011 BKN027 OVC040 M05/M11 A2977 RMK SF2SC4SC2 SLP095

CYHM;2007-04-06 16:00;CYHM 061600Z 27018KT 10SM -SHSN SCT024 OVC040 M05/M10 A2977 RMK SC3SC5 SLP095

CYHM;2007-04-06 17:00;CYHM 061700Z 27018KT 15SM -SHSN BKN048 OVC053 M05/M12 A2977 RMK SC6SC2 SLP093

CYHM;2007-04-06 18:00;CYHM 061800Z 25020G25KT 7SM -SHSN FEW012 BKN028 OVC044 M05/M08 A2976 RMK SF2SC5SC2 SLP091

CYHM;2007-04-06 19:00;CYHM 061900Z 25018G23KT 15SM -SHSN SCT032 OVC046 M05/M11 A2976 RMK SC3SC5 SLP090

CYHM;2007-04-06 20:00;CYHM 062000Z 25016G22KT 15SM -SHSN FEW032 BKN047 M04/M12 A2975 RMK SC2SC6 SLP089

CYHM;2007-04-06 21:00;CYHM 062100Z 26018G25KT 12SM BKN046 BKN250 M05/M11 A2976 RMK SC6CI1 SLP092

CYHM;2007-04-06 22:00;CYHM 062200Z 28014G19KT 15SM BKN046 M05/M12 A2977 RMK SC7 SLP093

CYHM;2007-04-06 23:00;CYHM 062300Z 29014KT 15SM SCT045 BKN250 M05/M11 A2977 RMK SC4CI0 SLP093

CYHM;2007-04-07 00:00;CYHM 070000Z 26012KT 15SM FEW034 FEW062 FEW250 M05/M11 A2977 RMK SC1SC1CI0 SLP094

CYHM;2007-04-07 01:00;CYHM 070100Z 27004KT 15SM FEW032 FEW130 SCT250 M06/M10 A2978 RMK SC1AC1CI2 SC TR SLP098

CYHM;2007-04-07 02:00;CYHM 070200Z 26004KT 15SM FEW050 SCT120 BKN250 M06/M09 A2978 RMK SC2AC2CI1 SLP098

CYHM;2007-04-07 03:00;CYHM 070300Z 23003KT 8SM -SHSN FEW049 BKN055 M06/M08 A2977 RMK SC2SC2 SLP095

CYHM;2007-04-07 04:00;CYHM 070400Z 24006KT 15SM -SHSN SCT058 M06/M09 A2975 RMK SC3 SLP088

CYHM;2007-04-07 05:00;CYHM 070500Z 22005KT 15SM -SHSN BKN070 M06/M09 A2973 RMK AC3 SLP081

CYHM;2007-04-07 06:00;CYHM 070600Z 22004KT 15SM BKN100 M07/M09 A2971 RMK AC4 SLP075

CYHM;2007-04-07 07:00;CYHM 070700Z 23006KT 15SM FEW060 FEW085 BKN130 M07/M09 A2969 RMK SC1AC1AC2 SLP069

CYHM;2007-04-07 08:00;CYHM 070800Z 24004KT 15SM -SHSN FEW040 BKN095 M07/M09 A2968 RMK SC1AC4 SLP065

CYHM;2007-04-07 09:00;CYHM 070900Z 23005KT 10SM -SHSN FEW012 SCT044 BKN120 M07/M09 A2968 RMK CF1SC3AC2 SLP063

CYHM;2007-04-07 10:00;CYHM 071000Z 23005KT 12SM -SHSN BKN041 M06/M08 A2967 RMK SC7 SLP060

CYHM;2007-04-07 11:00;CYHM 071100Z 24010KT 6SM -SHSN SCT012 BKN019 BKN045 M06/M08 A2967 RMK CF3SC2SC2 SLP060

CYHM;2007-04-07 12:00;CYHM 071200Z 24012KT 15SM -SHSN FEW023 SCT054 BKN250 M07/M09 A2968 RMK SC2SC2CI2 SN VRY LGT SLP063

CYHM;2007-04-07 13:00;CYHM 071300Z 24014KT 15SM -SHSN SCT014 BKN018 BKN250 M06/M09 A2968 RMK CF3SC2CI2 SLP062

CYHM;2007-04-07 14:00;CYHM 071400Z 25014G20KT 15SM BKN017 OVC053 M05/M08 A2967 RMK SC5SC3 SLP060

CYHM;2007-04-07 14:08;CYHM 071408Z 24015KT 15SM -SHSN BKN018 OVC053 RMK SC5SC3

CYHM;2007-04-07 15:00;CYHM 071500Z 24015G20KT 210V290 7SM -SHSN SCT019 BKN054 BKN250 M04/M09 A2967 RMK SC3SC2CI1 SLP061

CYHM;2007-04-07 16:00;CYHM 071600Z 24018G24KT 5SM -SHSN BKN019 BKN051 M04/M08 A2967 RMK SC6SC2 SLP060

CYHM;2007-04-07 17:00;CYHM 071700Z CCA 24016G21KT 15SM -SHSN FEW018 BKN054 M04/M08 A2968 RMK SC2SC5 SLP062

CYHM;2007-04-07 17:48;CYHM 071748Z 26018KT 1 1/4SM -SHSN BKN018 OVC055 RMK SN2SC3SC3

CYHM;2007-04-07 18:00;CYHM 071800Z 25012G20KT 7SM -SHSN FEW019 OVC058 M03/M07 A2968 RMK SC2SC6 SLP063

CYHM;2007-04-07 19:00;CYHM 071900Z 27014G19KT 240V300 8SM -SHSN FEW020 BKN037 BKN050 M03/M10 A2968 RMK CU2SC3SC2 SLP064

CYHM;2007-04-07 20:00;CYHM 072000Z 28015G21KT 250V310 10SM -SHSN FEW020 BKN035 BKN052 M02/M10 A2968 RMK CU2SC2SC2 SLP065

CYHM;2007-04-07 21:00;CYHM 072100Z 29015KT 260V320 10SM -SHSN FEW020 BKN035 BKN048 M03/M09 A2970 RMK CF2SC3SC2 SLP069

CYHM;2007-04-07 21:11;CYHM 072111Z 30015KT 1 3/4SM -SHSN SCT020 BKN030 RMK SN2CF2SC3

CYHM;2007-04-07 21:19;CYHM 072119Z 29014G19KT 260V320 4SM -SHSN FEW020 BKN035 BKN055 RMK CF2SC2SC2

CYHM;2007-04-07 22:00;CYHM 072200Z 27013G18KT 12SM -SHSN FEW020 BKN040 BKN056 M03/M10 A2971 RMK CF2SC2SC2 SLP074

CYHM;2007-04-07 23:00;CYHM 072300Z 27015KT 240V300 10SM -SHSN FEW022 BKN033 BKN049 M04/M09 A2973 RMK CF2SC2SC2 SLP081

CYHM;2007-04-08 00:00;CYHM 080000Z 27012KT 15SM FEW024 SCT032 BKN048 BKN095 M05/M10 A2975 RMK CF2SC2SC2AC2 SLP089

CYHM;2007-04-08 00:06;CYHM 080006Z 27014KT 3SM -SHSN SCT024 OVC032 RMK SC4SC4

CYHM;2007-04-08 00:15;CYHM 080015Z 27012KT 1 3/4SM -SHSN VV010 RMK SN8

CYHM;2007-04-08 00:20;CYHM 080020Z 26012KT 7SM -SHSN SCT024 BKN035 BKN055 RMK SC3SC2SC2

CYHM;2007-04-08 01:00;CYHM 080100Z 26015KT 10SM -SHSN FEW020 BKN035 BKN078 M05/M09 A2978 RMK CF2SC3AC2 SLP096

CYHM;2007-04-08 02:00;CYHM 080200Z 26011KT 15SM FEW025 SCT035 BKN060 M05/M10 A2979 RMK CF1SC2SC3 SLP101

CYHM;2007-04-08 03:00;CYHM 080300Z 24011KT 10SM -SHSN OVC055 M06/M09 A2979 RMK SC8 SLP102

CYHM;2007-04-08 04:00;CYHM 080400Z 25010KT 5SM -SHSN OVC035 M05/M08 A2979 RMK SC8 SLP101

CYHM;2007-04-08 05:00;CYHM 080500Z 24011KT 7SM -SHSN FEW017 BKN090 M05/M08 A2979 RMK CF2AC4 SLP100

CYHM;2007-04-08 05:43;CYHM 080543Z 24008KT 3SM -SHSN BKN009 OVC015 RMK CF6SC2 VIS VRB 2 - 4

CYHM;2007-04-08 06:00;CYHM 080600Z 23008KT 5SM -SHSN SCT016 OVC035 M05/M07 A2978 RMK CF3SC5 SLP096

CYHM;2007-04-08 06:51;CYHM 080651Z 25009KT 1 1/2SM -SN VV009 RMK SN8 VIS VRB 1 - 2

CYHM;2007-04-08 07:00;CYHM 080700Z 24009KT 3SM -SN OVC012 M05/M07 A2978 RMK SC8 VIS VRB 2 - 4 SLP095

CYHM;2007-04-08 07:24;CYHM 080724Z 25011KT 5SM -SN FEW018 OVC070 RMK CF2AC6

CYHM;2007-04-08 08:00;CYHM 080800Z 24010KT 6SM -SN FEW008 BKN050 M05/M07 A2978 RMK CF1SC4 SLP095

CYHM;2007-04-08 09:00;CYHM 080900Z 24010KT 6SM -SN BKN035 M05/M07 A2978 RMK SC5 SLP095

CYHM;2007-04-08 10:00;CYHM 081000Z 24010KT 4SM -SN OVC030 M04/M06 A2978 RMK SC7 /S01/ SLP098

CYHM;2007-04-08 10:29;CYHM 081029Z 24009KT 2SM -SN OVC024 RMK SN1SC7

CYHM;2007-04-08 11:00;CYHM 081100Z 24012KT 1 1/2SM -SN OVC024 M04/M06 A2980 RMK SN2SC6 SLP104

CYHM;2007-04-08 11:18;CYHM 081118Z 25010KT 2 1/2SM -SN BKN025 OVC049 RMK SC6SC2

CYHM;2007-04-08 12:00;CYHM 081200Z 25011KT 2SM -SN OVC033 M04/M06 A2982 RMK SN1SC7 SLP112

CYHM;2007-04-08 12:15;CYHM 081215Z 25012KT 4SM -SN FEW015 OVC030 RMK SC2SC6

CYHM;2007-04-08 12:28;CYHM 081228Z 25010KT 5/8SM -SHSN VV006 RMK SN8

CYHM;2007-04-08 12:42;CYHM 081242Z 25012KT 1SM -SHSN OVC016 RMK SN5SC3 SUN DIMMLY VSBL

CYHM;2007-04-08 13:00;CYHM 081300Z 25012KT 1 1/4SM -SHSN BKN014 OVC030 M04/M06 A2984 RMK SN3SC3SC2 SUN DIMMLY VSBL SLP118

CYHM;2007-04-08 13:20;CYHM 081320Z 26013KT 3SM -SHSN FEW010 BKN016 OVC030 RMK CF2SC4SC2

CYHM;2007-04-08 13:34;CYHM 081334Z 26013KT 1 1/4SM -SHSN BKN012 OVC017 RMK SN3CF2SC2

CYHM;2007-04-08 14:00;CYHM 081400Z 25012KT 2SM -SHSN FEW010 BKN014 OVC030 M04/M06 A2985 RMK SN1CF2SC3SC2 SLP121

CYHM;2007-04-08 15:00;CYHM 081500Z 26013KT 5SM -SHSN SCT013 BKN018 BKN035 M02/M05 A2986 RMK SC3SC3SC1 SLP124

CYHM;2007-04-08 16:00;CYHM 081600Z 26012G18KT 230V320 15SM -SHSN FEW019 OVC031 M01/M06 A2987 RMK SC1SC7 CIG RAG SLP127

CYHM;2007-04-08 17:00;CYHM 081700Z 28014KT 15SM BKN032 M01/M07 A2988 RMK SC7 SLP129

CYHM;2007-04-08 18:00;CYHM 081800Z 28012G19KT 230V320 15SM OVC033 M01/M07 A2988 RMK SC8 SLP131

CYHM;2007-04-08 19:00;CYHM 081900Z 27014KT 15SM BKN029 OVC035 M01/M06 A2990 RMK SC6SC2 SLP136

CYHM;2007-04-08 20:00;CYHM 082000Z 27015KT 240V300 15SM SCT022 OVC028 M02/M06 A2991 RMK SC4SC4 SLP139

CYHM;2007-04-08 21:00;CYHM 082100Z 27015KT 240V300 15SM OVC027 M02/M07 A2993 RMK SC8 SLP146

CYHM;2007-04-08 22:00;CYHM 082200Z 27015KT 15SM SCT023 OVC029 M02/M07 A2994 RMK SC3SC5 SLP151

CYHM;2007-04-08 23:00;CYHM 082300Z 27014KT 15SM FEW023 OVC028 M02/M07 A2996 RMK SC2SC6 SLP158

CYHM;2007-04-09 00:00;CYHM 090000Z 26014G20KT 15SM SCT023 OVC029 M03/M08 A2997 RMK SC3SC5 SLP163

CYHM;2007-04-09 01:00;CYHM 090100Z 27015KT 15SM OVC025 M03/M08 A3000 RMK SC8 SLP171

CYHM;2007-04-09 02:00;CYHM 090200Z 27008KT 15SM OVC027 M03/M08 A3002 RMK SC8 SLP179

CYHM;2007-04-09 03:00;CYHM 090300Z 28004KT 15SM BKN035 M03/M08 A3003 RMK SC4 SLP180

CYHM;2007-04-09 04:00;CYHM 090400Z 28007KT 15SM FEW025 BKN043 M03/M07 A3002 RMK CF2SC6 SLP178

CYHM;2007-04-09 05:00;CYHM 090500Z 25006KT 15SM OVC042 M03/M07 A3002 RMK SC8 SLP177

CYHM;2007-04-09 06:00;CYHM 090600Z 25007KT 15SM OVC039 M03/M06 A3001 RMK SC8 SLP175

CYHM;2007-04-09 07:00;CYHM 090700Z 25005KT 15SM OVC037 M03/M06 A3001 RMK SC8 SLP173

CYHM;2007-04-09 08:00;CYHM 090800Z 25007KT 15SM OVC036 M03/M06 A3000 RMK SC8 SLP171

CYHM;2007-04-09 09:00;CYHM 090900Z 23004KT 15SM OVC037 M03/M06 A3001 RMK SC8 SLP172

CYHM;2007-04-09 09:48;CYHM 090948Z 24003KT 15SM -SHSN OVC037 RMK SC8

CYHM;2007-04-09 10:00;CYHM 091000Z 25004KT 15SM -SHSN OVC037 M03/M05 A3001 RMK SC8 PCPN VRY LGT SLP174

CYHM;2007-04-09 11:00;CYHM 091100Z 24004KT 15SM BKN035 OVC100 M03/M05 A3001 RMK SC6AC2 SLP175

CYHM;2007-04-09 12:00;CYHM 091200Z 24004KT 15SM OVC037 M02/M05 A3003 RMK SC8 SLP180

CYHM;2007-04-09 13:00;CYHM 091300Z 25004KT 15SM FEW025 OVC040 M02/M05 A3003 RMK CU2SC6 SLP181

CYHM;2007-04-09 13:07;CYHM 091307Z 24005KT 15SM -SHSN FEW024 OVC038 RMK CU2SC6

CYHM;2007-04-09 14:00;CYHM 091400Z 27006KT 15SM -SHSN SCT024 OVC036 M01/M06 A3003 RMK CU3SC5 SLP181

CYHM;2007-04-09 15:00;CYHM 091500Z 27007KT 15SM -SHSN FEW022 OVC036 M01/M07 A3003 RMK CU2SC6 SLP179

CYHM;2007-04-09 16:00;CYHM 091600Z 25007KT 15SM -SHSN FEW026 OVC035 00/M06 A3003 RMK CU2SC6 SLP180

CYHM;2007-04-09 17:00;CYHM 091700Z 30007KT 15SM BKN028 OVC036 01/M06 A3002 RMK SC5SC3 CU ASOCTD SLP176

CYHM;2007-04-09 18:00;CYHM 091800Z 30012KT 15SM FEW024 BKN034 BKN048 01/M07 A3002 RMK CU1SC4SC2 SLP175

CYHM;2007-04-09 19:00;CYHM 091900Z 28014KT 15SM BKN042 02/M07 A3002 RMK SC7 SLP176

CYHM;2007-04-09 20:00;CYHM 092000Z 26012KT 15SM BKN044 02/M07 A3001 RMK SC7 SLP173

CYHM;2007-04-09 21:00;CYHM 092100Z 28010KT 15SM BKN044 BKN250 03/M07 A3000 RMK SC5CI1 SLP170

CYHM;2007-04-09 22:00;CYHM 092200Z 29007KT 15SM FEW048 BKN250 02/M08 A3001 RMK SC2CS2 CU ASOCTD CONTRAILS SLP171

CYHM;2007-04-09 23:00;CYHM 092300Z 27012KT 15SM BKN048 BKN250 01/M07 A3002 RMK SC5CS2 CF ASOCTD CONTRAILS SLP176

CYHM;2007-04-10 00:00;CYHM 100000Z 28009KT 15SM FEW044 BKN210 00/M07 A3003 RMK SC1CS2 SLP179

CYHM;2007-04-10 01:00;CYHM 100100Z 27003KT 15SM FEW044 SCT200 M01/M07 A3004 RMK SC1CI1 SC TR SLP184

CYHM;2007-04-10 02:00;CYHM 100200Z 24002KT 15SM SCT200 M01/M07 A3005 RMK CI1 SLP187

CYHM;2007-04-10 03:00;CYHM 100300Z 23004KT 15SM BKN120 M02/M06 A3005 RMK AC5 SLP188

CYHM;2007-04-10 04:00;CYHM 100400Z 27002KT 15SM FEW140 BKN160 M02/M06 A3005 RMK AC1AC2 SLP187

CYHM;2007-04-10 05:00;CYHM 100500Z 00000KT 15SM SCT130 M02/M07 A3005 RMK AC1 SLP187

CYHM;2007-04-10 06:00;CYHM 100600Z 00000KT 15SM BKN130 M03/M06 A3004 RMK AC2 SLP185

CYHM;2007-04-10 07:00;CYHM 100700Z 00000KT 15SM FEW050 BKN068 M03/M06 A3004 RMK SC2AC2 SLP184

CYHM;2007-04-10 08:00;CYHM 100800Z 00000KT 15SM SCT032 BKN050 BKN074 M03/M06 A3004 RMK SC3SC3AC1 SLP183

CYHM;2007-04-10 08:22;CYHM 100822Z 00000KT 15SM -SHSN BKN030 OVC050 RMK SC6SC2

CYHM;2007-04-10 09:00;CYHM 100900Z 00000KT 12SM -SHSN BKN022 OVC053 M02/M05 A3004 RMK SC6SC2 SLP184

CYHM;2007-04-10 10:00;CYHM 101000Z 00000KT 15SM -SHSN BKN022 OVC054 M02/M06 A3005 RMK SC6SC2 SLP187

CYHM;2007-04-10 11:00;CYHM 101100Z 31002KT 15SM -SHSN BKN022 BKN033 M02/M05 A3007 RMK SC6SC2 SLP191

CYHM;2007-04-10 11:23;CYHM 101123Z 28002KT 15SM SCT024 BKN036 RMK SC3SC3

CYHM;2007-04-10 12:00;CYHM 101200Z 34002KT 15SM FEW022 SCT036 M02/M06 A3008 RMK SC1SC2 SLP197

CYHM;2007-04-10 13:00;CYHM 101300Z 33003KT 15SM FEW025 BKN057 BKN070 M00/M06 A3009 RMK CU1SC4AC2 SLP201

CYHM;2007-04-10 14:00;CYHM 101400Z 25002KT 15SM FEW028 FEW058 FEW075 01/M05 A3008 RMK CU1SC2AC1 CU TR SLP198

CYHM;2007-04-10 15:00;CYHM 101500Z 22006KT 15SM FEW026 BKN035 BKN085 03/M05 A3009 RMK CU2SC2AC1 SLP198

CYHM;2007-04-10 16:00;CYHM 101600Z 26007KT 15SM FEW028 BKN035 BKN041 03/M04 A3009 RMK CU2SC3SC2 SLP198

CYHM;2007-04-10 17:00;CYHM 101700Z 24010KT 15SM FEW028 BKN052 03/M04 A3008 RMK CU2SC6 SLP195

CYHM;2007-04-10 18:00;CYHM 101800Z 26012KT 15SM FEW032 BKN045 04/M06 A3007 RMK CU2SC5 SLP191

CYHM;2007-04-10 19:00;CYHM 101900Z 29008KT 15SM BKN053 05/M06 A3006 RMK SC5 CU ASOCTD SLP188

CYHM;2007-04-10 20:00;CYHM 102000Z 33007KT 15SM BKN054 05/M06 A3006 RMK SC5 CU ASOCTD SLP189

CYHM;2007-04-10 21:00;CYHM 102100Z 27007KT 15SM SCT054 SCT250 05/M08 A3005 RMK CU4CI1 SC ASOCTD CI TR SLP186

CYHM;2007-04-10 22:00;CYHM 102200Z 28007KT 15SM SCT056 SCT250 04/M07 A3006 RMK CU3CI1 SC ASOCTD CI TR SLP187

CYHM;2007-04-10 23:00;CYHM 102300Z 32007KT 15SM FEW058 FEW250 04/M08 A3006 RMK CU2CI1 CI TR SLP189

CYHM;2007-04-11 00:00;CYHM 110000Z 28002KT 15SM FEW058 FEW250 02/M08 A3007 RMK SC1CI1 CU ASOCTD SLP193

CYHM;2007-04-11 01:00;CYHM 110100Z 27004KT 15SM FEW058 FEW250 01/M08 A3010 RMK SC1CI1 SC TR CI TR SLP202

CYHM;2007-04-11 02:00;CYHM 110200Z 29002KT 15SM FEW044 FEW250 M00/M08 A3011 RMK CF1CI1 CF TR CI TR SLP207

CYHM;2007-04-11 03:00;CYHM 110300Z 02003KT 15SM FEW250 M01/M08 A3010 RMK CI1 CI TR SLP203

CYHM;2007-04-11 04:00;CYHM 110400Z 31003KT 15SM FEW250 M03/M07 A3010 RMK CI1 CI TR SLP203

CYHM;2007-04-11 05:00;CYHM 110500Z 33003KT 15SM FEW250 M03/M07 A3012 RMK CI1 CI TR SLP210

CYHM;2007-04-11 06:00;CYHM 110600Z 02003KT 15SM SKC M03/M07 A3012 RMK SLP208

CYHM;2007-04-11 07:00;CYHM 110700Z 03007KT 15SM FEW250 M02/M07 A3009 RMK CI1 CI TR SLP200

CYHM;2007-04-11 08:00;CYHM 110800Z 03007KT 15SM FEW250 M02/M07 A3009 RMK CI1 CI TR SLP199

CYHM;2007-04-11 09:00;CYHM 110900Z 03006KT 15SM SCT250 M03/M07 A3008 RMK CI1 SLP197

CYHM;2007-04-11 10:00;CYHM 111000Z 04007KT 15SM FEW180 BKN250 M03/M06 A3008 RMK AC1CI1 AC TR SLP196

CYHM;2007-04-11 11:00;CYHM 111100Z 05008KT 15SM FEW140 BKN240 M02/M06 A3007 RMK AC2CI2 SLP194

CYHM;2007-04-11 11:05;CYHM 111105Z 05008KT 15SM FEW012 FEW160 BKN220 RMK SC2AC1CI2

CYHM;2007-04-11 12:00;CYHM 111200Z 06012KT 8SM BKN007 BKN180 BKN210 M01/M03 A3007 RMK SF5AC2CI1 SLP192

CYHM;2007-04-11 12:47;CYHM 111247Z CCA 07007KT 7SM FEW010 BKN160 BKN220 RMK SF2AS3CI1

CYHM;2007-04-11 13:00;CYHM 111300Z 07011KT 8SM SCT150 BKN180 BKN240 01/M03 A3004 RMK AC3AS2CI1 SLP184

CYHM;2007-04-11 14:00;CYHM 111400Z 07011KT 10SM FEW035 BKN150 BKN210 02/M03 A3003 RMK SC1AC5CI2 SC TR SLP180

CYHM;2007-04-11 15:00;CYHM 111500Z CCA 06018KT 10SM BKN097 BKN120 OVC220 03/M03 A3000 RMK AC5AS2CI2 SLP169

CYHM;2007-04-11 16:00;CYHM 111600Z 07020KT 15SM BKN100 BKN160 OVC210 04/M03 A2998 RMK AC5AS2CI1 SLP162

CYHM;2007-04-11 17:00;CYHM 111700Z 06025KT 15SM BKN110 OVC220 04/M03 A2994 RMK AC5CI2 SLP147

CYHM;2007-04-11 18:00;CYHM 111800Z 07025G30KT 15SM BKN097 OVC150 03/M03 A2992 RMK AC6AC2 SLP142

CYHM;2007-04-11 19:00;CYHM 111900Z 06022G30KT 15SM BKN094 OVC120 02/M03 A2989 RMK AC6AC2 SLP132

CYHM;2007-04-11 20:00;CYHM 112000Z 04024G34KT 15SM OVC088 02/M03 A2985 RMK AC8 SLP120

CYHM;2007-04-11 21:00;CYHM 112100Z 06024G37KT 15SM FEW072 OVC110 02/M04 A2984 RMK AC2AC6 SLP115

CYHM;2007-04-11 22:00;CYHM 112200Z 06024G36KT 15SM SCT034 BKN052 OVC120 02/M03 A2981 RMK SC3SC4AC1 SLP103

CYHM;2007-04-11 22:33;CYHM 112233Z 06023G34KT 10SM -PL BKN040 OVC070 RMK SC6AC2

CYHM;2007-04-11 23:00;CYHM 112300Z 06015G24KT 15SM OVC030 02/M02 A2981 RMK SC8 SLP103

CYHM;2007-04-11 23:22;CYHM 112322Z 07014G20KT 15SM -SHRA OVC028 RMK SC8

CYHM;2007-04-12 00:00;CYHM 120000Z 06015G21KT 7SM -SHRASN BKN022 OVC034 01/M01 A2978 RMK SC6SC2 SLP092

CYHM;2007-04-12 01:00;CYHM 120100Z 06016G24KT 7SM -SHRASN BKN019 OVC030 01/M00 A2976 RMK SC6SC2 SLP087

CYHM;2007-04-12 02:00;CYHM 120200Z 06018G24KT 8SM -SHRASN OVC026 01/M00 A2973 RMK SC8 SLP076

CYHM;2007-04-12 03:00;CYHM 120300Z 05018G25KT 6SM -SHRASN BKN008 OVC026 02/00 A2968 RMK SF5SC3 SLP057

CYHM;2007-04-12 04:00;CYHM 120400Z 05018KT 1 1/2SM -SHRASN BR BKN003 OVC025 02/01 A2963 RMK FG2SF6SC1 VIS VRB 1 - 2 SLP042

CYHM;2007-04-12 04:22;CYHM 120422Z 06018KT 1 1/2SM BR OVC002 RMK FG2SF6 VIS VRB 1 - 2

CYHM;2007-04-12 04:32;CYHM 120432Z 06018KT 1/2SM FG OVC002 RMK FG4SF4

CYHM;2007-04-12 04:51;CYHM 120451Z 06018KT 1/4SM FG OVC002 RMK FG5SF3

CYHM;2007-04-12 05:00;CYHM 120500Z 06015G20KT 1/4SM -RA FG OVC002 02/02 A2962 RMK FG5SF3 SLP038

CYHM;2007-04-12 06:00;CYHM 120600Z 06013KT 1/8SM -RA FG OVC002 03/02 A2959 RMK FG6SF2 SLP026

CYHM;2007-04-12 06:14;CYHM 120614Z 07012KT 1/2SM -RA FG OVC002 RMK FG5SF3

CYHM;2007-04-12 06:34;CYHM 120634Z 07012KT 3/4SM -RA BR OVC002 RMK FG4SF4 VIS VRB 1/2 - 1

CYHM;2007-04-12 07:00;CYHM 120700Z 07010KT 3/4SM -RA BR OVC002 03/02 A2956 RMK FG4SF4 VIS VRB 1/2 - 1 SLP019

CYHM;2007-04-12 07:25;CYHM 120725Z 08010KT 1/2SM FG OVC007 RMK FG5SF3

CYHM;2007-04-12 07:41;CYHM 120741Z 07008KT 1SM BR SCT002 OVC022 RMK FG2SF2SC4 VIS VRB 3/4 - 11/4

CYHM;2007-04-12 08:00;CYHM 120800Z 07008KT 3/4SM BR SCT002 OVC023 03/03 A2954 RMK FG3SF1SC4 VIS VRB 1/2 - 1 SLP011

CYHM;2007-04-12 08:26;CYHM 120826Z 08007KT 1 1/2SM -RA BR FEW003 OVC022 RMK FG2SF1SC6 VIS VRB 1 - 2

CYHM;2007-04-12 08:49;CYHM 120849Z 09008KT 8SM -RA OVC023 RMK SC8

CYHM;2007-04-12 09:00;CYHM 120900Z 12007KT 10SM -RA OVC025 04/03 A2954 RMK SC8 SLP009

CYHM;2007-04-12 10:00;CYHM 121000Z 00000KT 12SM OVC016 05/03 A2953 RMK SC8 SLP006

CYHM;2007-04-12 11:00;CYHM 121100Z 13006KT 15SM BKN016 OVC020 05/04 A2952 RMK SC6SC2 SLP004

CYHM;2007-04-12 11:28;CYHM 121128Z 15008KT 5SM -SHRA BR BKN016 OVC024 RMK SC6SC2

CYHM;2007-04-12 12:00;CYHM 121200Z 16006KT 8SM -SHRA BKN016 OVC019 05/04 A2952 RMK SC6SC2 SLP004

CYHM;2007-04-12 13:00;CYHM 121300Z 16006KT 4SM -SHRA BR OVC012 05/04 A2952 RMK SC8 SLP002

CYHM;2007-04-12 14:00;CYHM 121400Z 18010KT 3SM -RA BR BKN009 OVC038 06/05 A2951 RMK SC6SC2 SLP000

CYHM;2007-04-12 15:00;CYHM 121500Z 23004KT 15SM -RA BKN010 OVC016 06/05 A2951 RMK SC6SC2 SLP999

CYHM;2007-04-12 16:00;CYHM 121600Z 22009KT 5SM -RA BR BKN007 OVC018 06/06 A2952 RMK SF6SC2 SLP002

CYHM;2007-04-12 16:41;CYHM 121641Z 23008KT 15SM -RA FEW018 BKN043 OVC075 RMK CU1SC6AC1

CYHM;2007-04-12 17:00;CYHM 121700Z 23008KT 15SM -RA FEW025 BKN045 BKN068 08/06 A2951 RMK CU1SC6AC2 SLP998

CYHM;2007-04-12 17:28;CYHM 121728Z 23014KT 15SM FEW028 BKN062 BKN092 RMK CU2SC3AC1

CYHM;2007-04-12 18:00;CYHM 121800Z 24014KT 15SM BKN022 BKN038 BKN075 09/06 A2952 RMK CU5SC2AC1 SLP001

CYHM;2007-04-12 19:00;CYHM 121900Z 22017KT 15SM FEW028 BKN043 OVC086 09/04 A2953 RMK CU2SC6AC1 SLP004

CYHM;2007-04-12 20:00;CYHM 122000Z 23018KT 15SM FEW020 BKN057 OVC082 07/03 A2955 RMK SC2SC4AC2 SLP011

CYHM;2007-04-12 20:24;CYHM 122024Z 23022KT 15SM -SHRA BKN020 OVC061 RMK SC6SC2

CYHM;2007-04-12 21:00;CYHM 122100Z 23023KT 15SM -SHRA SCT018 BKN042 OVC061 05/02 A2958 RMK SC3SC3SC2 SLP022

CYHM;2007-04-12 22:00;CYHM 122200Z 22017KT 15SM BKN019 OVC055 05/01 A2959 RMK SC6SC2 SLP027

CYHM;2007-04-12 23:00;CYHM 122300Z 22016KT 12SM -SHRA BKN014 OVC054 04/02 A2961 RMK SC6SC2 SLP034

CYHM;2007-04-13 00:00;CYHM 130000Z 22013KT 12SM -SHRA OVC013 03/02 A2963 RMK SC8 SLP041

CYHM;2007-04-13 01:00;CYHM 130100Z 23013KT 12SM -SHRA OVC008 03/02 A2965 RMK SC8 SLP047

CYHM;2007-04-13 02:00;CYHM 130200Z 25013KT 15SM -SHRA FEW008 BKN018 OVC060 03/02 A2968 RMK SC2SC6SC1 PCPN VRY LGT SLP056

CYHM;2007-04-13 03:00;CYHM 130300Z 25014KT 6SM -SHRA BKN011 OVC030 03/02 A2969 RMK SC6SC2 SLP062

CYHM;2007-04-13 04:00;CYHM 130400Z 26020G30KT 15SM -SHSN FEW015 BKN040 OVC070 02/M00 A2971 RMK CF2SC4AC2 SLP066

CYHM;2007-04-13 05:00;CYHM 130500Z 26014G20KT 15SM -SHSN BKN017 OVC033 02/M00 A2973 RMK CF6SC2 SLP073

CYHM;2007-04-13 06:00;CYHM 130600Z 25015G20KT 15SM -SHSN FEW013 OVC020 02/M00 A2974 RMK CF2SC6 SLP077

CYHM;2007-04-13 07:00;CYHM 130700Z 25017G24KT 10SM -SHSN OVC024 01/M01 A2975 RMK SC8 SLP081

CYHM;2007-04-13 08:00;CYHM 130800Z 26017G23KT 15SM -SHSN OVC023 02/M02 A2977 RMK SC8 SLP086

CYHM;2007-04-13 09:00;CYHM 130900Z 26017G22KT 15SM OVC022 01/M02 A2979 RMK SC8 SLP095

CYHM;2007-04-13 10:00;CYHM 131000Z 26016G22KT 12SM -SHSN OVC020 01/M03 A2981 RMK SC8 SLP101

CYHM;2007-04-13 11:00;CYHM 131100Z 27018KT 10SM -SHSN OVC019 01/M02 A2983 RMK SC8 SLP109

CYHM;2007-04-13 12:00;CYHM 131200Z 27022G28KT 15SM -SHSN OVC019 01/M02 A2985 RMK SC8 SLP117

CYHM;2007-04-13 13:00;CYHM 131300Z 26022KT 15SM -SHSN BKN015 OVC020 02/M02 A2987 RMK SC6SC2 SLP123

CYHM;2007-04-13 13:49;CYHM 131349Z 26020G25KT 15SM SCT018 OVC022 RMK SC4SC4

CYHM;2007-04-13 14:00;CYHM 131400Z 27026G32KT 15SM BKN017 OVC022 02/M01 A2990 RMK SC6SC2 SLP132

CYHM;2007-04-13 15:00;CYHM 131500Z 27020G28KT 15SM OVC019 02/M01 A2993 RMK SC8 SLP142

CYHM;2007-04-13 16:00;CYHM 131600Z 27020G26KT 15SM OVC021 03/M01 A2994 RMK SC8 SLP148

CYHM;2007-04-13 17:00;CYHM 131700Z 28023G30KT 15SM OVC021 03/M01 A2996 RMK SC8 SLP153

CYHM;2007-04-13 18:00;CYHM 131800Z 29024G32KT 15SM OVC022 03/M01 A2997 RMK SC8 SLP157

CYHM;2007-04-13 19:00;CYHM 131900Z 28021G26KT 15SM OVC029 04/M02 A2999 RMK SC8 SLP164

CYHM;2007-04-13 20:00;CYHM 132000Z 28018G26KT 15SM SCT025 OVC032 03/M02 A2999 RMK SC3SC5 SLP165

CYHM;2007-04-13 21:00;CYHM 132100Z 27016G21KT 15SM SCT030 OVC035 03/M03 A3002 RMK SC3SC5 SLP173

CYHM;2007-04-13 22:00;CYHM 132200Z 27019KT 15SM OVC032 03/M03 A3004 RMK SC8 SLP182

CYHM;2007-04-13 23:00;CYHM 132300Z 28015G24KT 15SM SCT035 BKN040 BKN090 03/M03 A3005 RMK SC3SC2AC1 SLP185

CYHM;2007-04-14 00:00;CYHM 140000Z 29009KT 15SM FEW040 SCT100 03/M04 A3006 RMK SC2AC1 SLP187

CYHM;2007-04-14 01:00;CYHM 140100Z 26004KT 15SM FEW050 FEW100 SCT200 01/M04 A3007 RMK SC2AC1CI1 SLP191

CYHM;2007-04-14 02:00;CYHM 140200Z 23005KT 15SM FEW050 SCT200 M00/M04 A3009 RMK SC2CI2 SLP198

CYHM;2007-04-14 03:00;CYHM 140300Z 24004KT 15SM FEW050 FEW200 M01/M04 A3008 RMK SC2CI1 SLP197

CYHM;2007-04-14 04:00;CYHM 140400Z 25004KT 15SM FEW200 M01/M04 A3008 RMK CI1 SLP195

CYHM;2007-04-14 05:00;CYHM 140500Z 24003KT 15SM FEW200 M01/M04 A3008 RMK CI1 SLP195

CYHM;2007-04-14 06:00;CYHM 140600Z 25005KT 15SM FEW190 M02/M05 A3007 RMK AC1 SLP192

CYHM;2007-04-14 07:00;CYHM 140700Z 26003KT 15SM FEW190 M01/M04 A3007 RMK AC1 FROIN SLP191

CYHM;2007-04-14 08:00;CYHM 140800Z 27005KT 15SM FEW190 M02/M05 A3007 RMK AC1 FROIN SLP192

CYHM;2007-04-14 09:00;CYHM 140900Z 25005KT 15SM SKC M02/M05 A3006 RMK FROIN SLP190

CYHM;2007-04-14 10:00;CYHM 141000Z 26006KT 15SM FEW025 M02/M05 A3007 RMK SC1 SLP194

CYHM;2007-04-14 11:00;CYHM 141100Z 27006KT 15SM FEW025 M02/M04 A3007 RMK SC1 SLP194

CYHM;2007-04-14 12:00;CYHM 141200Z 28006KT 15SM FEW025 FEW250 M01/M03 A3009 RMK SC1CI1 SLP198

CYHM;2007-04-14 13:00;CYHM 141300Z 32006KT 15SM FEW030 BKN250 01/M02 A3007 RMK SC1CI2 SLP192

CYHM;2007-04-14 14:00;CYHM 141400Z 25002KT 15SM FEW030 BKN250 03/M03 A3008 RMK SC1CI3 SLP195

CYHM;2007-04-14 15:00;CYHM 141500Z 21013KT 15SM FEW025 BKN250 04/M02 A3008 RMK SC2CI3 SLP194

CYHM;2007-04-14 16:00;CYHM 141600Z 21002KT 15SM BKN029 OVC250 04/M04 A3006 RMK SC6CI2 SLP189

CYHM;2007-04-14 17:00;CYHM 141700Z 05002KT 15SM BKN034 OVC250 04/M04 A3004 RMK SC6CI2 SLP180

CYHM;2007-04-14 18:00;CYHM 141800Z 21003KT 180V270 15SM BKN036 OVC140 05/M02 A3004 RMK SC6AC2 SLP182

CYHM;2007-04-14 19:00;CYHM 141900Z 29003KT 15SM BKN036 OVC140 05/M03 A3000 RMK SC6AC2 SLP169

CYHM;2007-04-14 20:00;CYHM 142000Z 05005KT 15SM BKN037 BKN130 06/M02 A2996 RMK SC5AC2 SLP156

CYHM;2007-04-14 21:00;CYHM 142100Z 09007KT 050V120 15SM SCT035 BKN120 BKN150 06/M02 A2993 RMK SC4AC2AC2 SLP145

CYHM;2007-04-14 22:00;CYHM 142200Z 09007KT 060V120 15SM SCT035 OVC110 05/M02 A2994 RMK SC4AC4 SLP148

CYHM;2007-04-14 23:00;CYHM 142300Z 09008KT 15SM SCT035 OVC085 04/M02 A2994 RMK SC3AC5 SLP148

CYHM;2007-04-15 00:00;CYHM 150000Z 07004KT 15SM OVC060 04/M03 A2995 RMK SC8 SLP151

CYHM;2007-04-15 01:00;CYHM 150100Z 05010KT 15SM OVC058 04/M04 A2991 RMK SC8 SLP138

CYHM;2007-04-15 02:00;CYHM 150200Z 05010KT 15SM OVC050 03/M03 A2991 RMK SC8 VIRGA SLP137

CYHM;2007-04-15 03:00;CYHM 150300Z 03013KT 8SM -SHSN OVC013 03/M02 A2991 RMK SC8 SLP138

CYHM;2007-04-15 04:00;CYHM 150400Z 05012KT 1 1/2SM -SN VV007 01/M01 A2989 RMK SN8 VIS VRB 1 - 2 SLP130

CYHM;2007-04-15 05:00;CYHM 150500Z 05012KT 1 1/2SM -SN VV007 01/M00 A2988 RMK SN8 VIS VRB 1 - 2 SLP127

CYHM;2007-04-15 06:00;CYHM 150600Z 06014KT 5SM -SN BKN004 OVC010 00/M00 A2984 RMK SF6SC2 SLP114

CYHM;2007-04-15 07:00;CYHM 150700Z 05015KT 6SM -SN BKN006 OVC013 00/M01 A2982 RMK SF6SC2 SLP106

CYHM;2007-04-15 08:00;CYHM 150800Z 04014KT 5SM -SN OVC004 01/M00 A2980 RMK SF8 SLP098

CYHM;2007-04-15 09:00;CYHM 150900Z 04017KT 6SM -SN OVC006 01/M00 A2978 RMK SF8 SLP092

CYHM;2007-04-15 10:00;CYHM 151000Z 04015G20KT 5SM -SN OVC007 01/M00 A2976 RMK SF8 CIG RAG SLP084

CYHM;2007-04-15 11:00;CYHM 151100Z 03016KT 4SM -SN BR OVC005 01/M00 A2976 RMK SF8 SLP085

CYHM;2007-04-15 11:44;CYHM 151144Z CCA 03018KT 4SM -SN BR OVC006 RMK SC8 PCPN VRY LGT

CYHM;2007-04-15 12:00;CYHM 151200Z 03017KT 4SM -SN BR OVC006 01/M00 A2975 RMK SC8 PCPN VRY LGT SLP084

CYHM;2007-04-15 12:53;CYHM 151253Z 05016KT 6SM BR BKN009 OVC025 RMK SC7SC1

CYHM;2007-04-15 13:00;CYHM 151300Z 05016KT 6SM BR BKN009 OVC025 01/M00 A2976 RMK SC7SC1 CIG RAG SLP087

CYHM;2007-04-15 14:00;CYHM 151400Z 04018KT 7SM -SHSN BKN012 OVC025 02/M01 A2976 RMK SC7SC1 SLP087

CYHM;2007-04-15 15:00;CYHM 151500Z 04015KT 9SM -SHSN BKN014 OVC032 02/M01 A2976 RMK SC7SC1 SLP086

CYHM;2007-04-15 15:53;CYHM 151553Z 02017KT 350V070 15SM BKN016 OVC033 RMK SC7SC1

CYHM;2007-04-15 16:00;CYHM 151600Z 03014G20KT 15SM BKN016 OVC033 03/M00 A2974 RMK SC7SC1 SLP080

CYHM;2007-04-15 17:00;CYHM 151700Z 03014KT 15SM BKN018 OVC038 04/00 A2972 RMK SC6SC2 SLP073

CYHM;2007-04-15 18:00;CYHM 151800Z 05014KT 15SM BKN022 OVC047 05/00 A2971 RMK SC7SC1 SLP070

CYHM;2007-04-15 19:00;CYHM 151900Z 03016KT 15SM BKN024 OVC045 05/00 A2969 RMK SC5SC3 SLP063

CYHM;2007-04-15 20:00;CYHM 152000Z 03015G21KT 15SM BKN026 OVC037 05/M00 A2968 RMK SC6SC2 SLP060

CYHM;2007-04-15 21:00;CYHM 152100Z 02014KT 15SM FEW020 BKN032 OVC045 05/M00 A2968 RMK CF2SC5SC2 SLP059

CYHM;2007-04-15 22:00;CYHM 152200Z 01011KT 15SM OVC034 05/M00 A2968 RMK SC8 SLP058

CYHM;2007-04-15 23:00;CYHM 152300Z 36013KT 15SM SCT032 OVC044 05/M01 A2969 RMK SC3SC5 SLP061

CYHM;2007-04-16 00:00;CYHM 160000Z 36013KT 15SM SCT032 OVC043 05/M02 A2968 RMK SC3SC5 SLP060

CYHM;2007-04-16 01:00;CYHM 160100Z 36013KT 15SM SCT032 OVC044 05/M03 A2969 RMK SC3SC5 SLP061

CYHM;2007-04-16 02:00;CYHM 160200Z 36012KT 15SM BKN044 OVC057 05/M02 A2968 RMK SC5SC3 SLP059

CYHM;2007-04-16 03:00;CYHM 160300Z 34011KT 15SM FEW050 OVC063 04/M02 A2967 RMK SC2SC6 SLP053

CYHM;2007-04-16 04:00;CYHM 160400Z 33010KT 15SM BKN037 OVC053 04/M02 A2965 RMK SC7SC1 SLP046

CYHM;2007-04-16 05:00;CYHM 160500Z 34013G19KT 15SM BKN031 OVC060 04/M02 A2962 RMK SC6SC2 SLP037

CYHM;2007-04-16 06:00;CYHM 160600Z 34017G22KT 15SM BKN040 04/M03 A2958 RMK SC7 SLP022

CYHM;2007-04-16 07:00;CYHM 160700Z 33018KT 15SM FEW030 OVC053 03/M03 A2956 RMK CF2SC6 SLP016

CYHM;2007-04-16 07:30;CYHM 160730Z 33018G26KT 7SM -SHSN OVC030 RMK SC8

CYHM;2007-04-16 08:00;CYHM 160800Z 33018G24KT 6SM -SHSN OVC032 02/M01 A2954 RMK SC8 SLP009

CYHM;2007-04-16 09:00;CYHM 160900Z 34017KT 15SM BKN019 OVC070 02/M01 A2953 RMK SC6AC2 SLP006

CYHM;2007-04-16 10:00;CYHM 161000Z 33018G23KT 15SM BKN021 BKN050 03/M01 A2951 RMK CF5SC2 SLP001

CYHM;2007-04-16 11:00;CYHM 161100Z 33018KT 15SM BKN026 OVC037 03/M01 A2949 RMK SC6SC2 SLP994

CYHM;2007-04-16 12:00;CYHM 161200Z 33020G26KT 15SM BKN019 OVC026 03/M01 A2949 RMK SC6SC2 SLP991

CYHM;2007-04-16 13:00;CYHM 161300Z 33025G32KT 15SM BKN023 OVC032 03/M00 A2947 RMK SC6SC2 SLP985

CYHM;2007-04-16 14:00;CYHM 161400Z 34022G28KT 15SM FEW018 BKN028 OVC032 04/M01 A2947 RMK CU2SC4SC2 SLP986

CYHM;2007-04-16 15:00;CYHM 161500Z 33028G34KT 15SM BKN026 OVC034 04/M01 A2946 RMK SC6SC2 SLP982

CYHM;2007-04-16 16:00;CYHM 161600Z 32024G32KT 15SM BKN026 OVC033 05/M01 A2946 RMK SC6SC2 CU ASOCTD SLP984

CYHM;2007-04-16 17:00;CYHM 161700Z 34028G34KT 15SM -SHRA BKN027 OVC033 05/M00 A2946 RMK SC5SC3 SLP983

CYHM;2007-04-16 17:44;CYHM 161744Z 35022G30KT 15SM BKN035 OVC082 RMK SC6AC2

CYHM;2007-04-16 18:00;CYHM 161800Z 33028G34KT 15SM BKN036 OVC082 06/M00 A2947 RMK SC6AC2 SLP986

CYHM;2007-04-16 18:03;CYHM 161803Z 33022G34KT 15SM -SHRA BKN032 BKN064 OVC084 RMK SC6SC1AC1

CYHM;2007-04-16 19:00;CYHM 161900Z 34020G32KT 15SM -SHRA FEW024 BKN034 OVC084 05/01 A2949 RMK SC2SC5AC1 SLP993

CYHM;2007-04-16 20:00;CYHM 162000Z 33020G34KT 15SM -SHRA BKN020 OVC036 04/02 A2950 RMK SC6SC2 SLP995

CYHM;2007-04-16 21:00;CYHM 162100Z 34020G30KT 15SM -SHRA FEW015 BKN020 OVC052 04/02 A2952 RMK SF2SC5SC2 SLP003

CYHM;2007-04-16 22:00;CYHM 162200Z 32018G26KT 15SM BKN020 OVC084 05/01 A2954 RMK SC7AC1 SLP011

CYHM;2007-04-16 23:00;CYHM 162300Z 33016G26KT 15SM SCT022 OVC044 05/01 A2957 RMK SC3SC5 CU ASOCTD SLP020

CYHM;2007-04-17 00:00;CYHM 170000Z 34014G24KT 15SM -SHRA FEW022 BKN034 OVC052 05/01 A2960 RMK SF2SC6SC1 SLP030

CYHM;2007-04-17 01:00;CYHM 170100Z 34016G22KT 15SM FEW022 BKN044 OVC062 05/01 A2964 RMK SF1SC6SC2 SLP042

CYHM;2007-04-17 02:00;CYHM 170200Z 34013G22KT 15SM FEW024 BKN044 OVC078 05/01 A2966 RMK SF1SC6AC1 SLP051

CYHM;2007-04-17 03:00;CYHM 170300Z 35014KT 15SM FEW022 OVC045 05/02 A2968 RMK SF1SC7 SLP058

CYHM;2007-04-17 04:00;CYHM 170400Z 35014G20KT 15SM FEW022 OVC040 05/02 A2970 RMK SC2SC6 SLP063

CYHM;2007-04-17 05:00;CYHM 170500Z 33008KT 15SM FEW024 OVC044 05/02 A2971 RMK SC2SC6 SLP068

CYHM;2007-04-17 06:00;CYHM 170600Z 34010KT 15SM OVC020 05/02 A2973 RMK SC8 SLP075

CYHM;2007-04-17 07:00;CYHM 170700Z 34010KT 15SM -SHRA OVC017 04/03 A2975 RMK SC8 SLP079

CYHM;2007-04-17 08:00;CYHM 170800Z 33008KT 15SM -SHRA FEW020 BKN032 BKN058 04/02 A2975 RMK SF2SC3SC2 SLP081

CYHM;2007-04-17 08:36;CYHM 170836Z 34007KT 15SM BKN055 BKN110 RMK SC5AC1

CYHM;2007-04-17 09:00;CYHM 170900Z 35007KT 15SM FEW055 SCT150 BKN250 03/02 A2976 RMK SC1AC2CI1 SLP084

CYHM;2007-04-17 10:00;CYHM 171000Z 35008KT 15SM FEW030 BKN057 BKN140 04/01 A2978 RMK CF1SC5AC2 CF TR SLP093

CYHM;2007-04-17 11:00;CYHM 171100Z 36008KT 15SM FEW024 BKN059 BKN120 04/02 A2980 RMK CU2SC3AC2 SLP099

CYHM;2007-04-17 11:48;CYHM 171148Z 35007KT 15SM -SHRA FEW016 BKN025 BKN043 RMK CU1SC6SC2

CYHM;2007-04-17 12:00;CYHM 171200Z 35007KT 15SM -SHRA BKN022 OVC047 04/02 A2983 RMK SC6SC2 SLP107

CYHM;2007-04-17 13:00;CYHM 171300Z 34010KT 15SM -SHRA BKN012 OVC019 04/03 A2984 RMK SC6SC2 SLP112

CYHM;2007-04-17 13:19;CYHM 171319Z 32008KT 15SM FEW015 BKN028 OVC042 RMK CU1SC4SC3

CYHM;2007-04-17 14:00;CYHM 171400Z 34012KT 15SM BKN020 OVC028 05/03 A2984 RMK SC6SC2 SLP111

CYHM;2007-04-17 15:00;CYHM 171500Z 34012KT 15SM BKN015 OVC020 05/02 A2984 RMK SC6SC2 SLP113

CYHM;2007-04-17 16:00;CYHM 171600Z 01008KT 15SM BKN019 OVC025 05/02 A2985 RMK SC6SC2 SLP115

CYHM;2007-04-17 17:00;CYHM 171700Z 35012KT 15SM FEW022 BKN030 OVC038 07/03 A2985 RMK CU2SC4SC2 SLP114

CYHM;2007-04-17 18:00;CYHM 171800Z 33010KT 15SM SCT020 BKN025 BKN032 06/02 A2985 RMK CU3SC3SC1 SLP116

CYHM;2007-04-17 19:00;CYHM 171900Z 33007KT 15SM OVC031 08/02 A2985 RMK SC8 SLP115

CYHM;2007-04-17 20:00;CYHM 172000Z 36008KT 15SM OVC030 07/02 A2985 RMK SC8 SLP114

CYHM;2007-04-17 21:00;CYHM 172100Z 01006KT 15SM FEW024 OVC032 07/02 A2986 RMK SF2SC6 SLP117

CYHM;2007-04-17 22:00;CYHM 172200Z 01007KT 15SM FEW028 OVC036 08/02 A2986 RMK SC2SC6 SLP118

CYHM;2007-04-17 23:00;CYHM 172300Z 01009KT 15SM OVC033 07/02 A2987 RMK SC8 SLP120

CYHM;2007-04-18 00:00;CYHM 180000Z 02008KT 15SM OVC032 07/02 A2988 RMK SC8 SLP123

CYHM;2007-04-18 01:00;CYHM 180100Z 03011KT 15SM OVC033 07/02 A2989 RMK SC8 SLP127

CYHM;2007-04-18 02:00;CYHM 180200Z 03007KT 15SM OVC032 06/02 A2988 RMK SC8 SLP126

CYHM;2007-04-18 03:00;CYHM 180300Z 04011KT 15SM OVC030 07/02 A2990 RMK SC8 SLP131

CYHM;2007-04-18 04:00;CYHM 180400Z 03007KT 15SM BKN032 OVC120 06/02 A2989 RMK SC6AC2 SLP128

CYHM;2007-04-18 05:00;CYHM 180500Z 02005KT 15SM FEW022 BKN032 OVC120 06/02 A2988 RMK SC1SC6AC1 SLP126

CYHM;2007-04-18 06:00;CYHM 180600Z 03007KT 15SM FEW022 BKN034 OVC120 06/03 A2988 RMK CF1SC6AC2 SLP123

CYHM;2007-04-18 07:00;CYHM 180700Z 06005KT 15SM BKN030 OVC120 05/03 A2987 RMK SC7AC1 SLP122

CYHM;2007-04-18 08:00;CYHM 180800Z 00000KT 15SM BKN016 OVC032 05/03 A2988 RMK SC6SC2 SLP123

CYHM;2007-04-18 09:00;CYHM 180900Z 02003KT 15SM BKN015 BKN028 OVC110 05/03 A2988 RMK SC5SC2AC2 SLP123

CYHM;2007-04-18 09:38;CYHM 180938Z 05009KT 15SM -SHRA FEW009 BKN012 OVC028 RMK SF2SC5SC2

CYHM;2007-04-18 10:00;CYHM 181000Z 06011KT 12SM SCT008 BKN014 OVC030 05/03 A2987 RMK SF3SC4SC1 SLP122

CYHM;2007-04-18 10:09;CYHM 181009Z 06010KT 10SM -SHRA BKN008 BKN015 OVC028 RMK SF5SC2SC1

CYHM;2007-04-18 11:00;CYHM 181100Z 08010KT 15SM SCT010 BKN016 OVC020 05/03 A2988 RMK SF3SC3SC2 SLP125

CYHM;2007-04-18 12:00;CYHM 181200Z 06016KT 15SM OVC017 05/03 A2988 RMK SC8 SLP126

CYHM;2007-04-18 13:00;CYHM 181300Z 07014KT 15SM OVC020 05/02 A2990 RMK SC8 SLP131

CYHM;2007-04-18 14:00;CYHM 181400Z 07016KT 15SM SCT015 OVC019 05/02 A2992 RMK CF3SC5 SLP137

CYHM;2007-04-18 15:00;CYHM 181500Z 05020KT 15SM FEW014 BKN020 OVC025 06/02 A2992 RMK CU2SC4SC2 SLP137

CYHM;2007-04-18 16:00;CYHM 181600Z 07018KT 15SM BKN015 OVC025 05/02 A2992 RMK SC6SC2 CU ASOCTD SLP139

CYHM;2007-04-18 17:00;CYHM 181700Z 07018KT 15SM BKN021 OVC028 05/02 A2993 RMK SC6SC2 SLP142

CYHM;2007-04-18 18:00;CYHM 181800Z 07020KT 15SM BKN016 OVC024 06/03 A2994 RMK SC6SC2 SLP143

CYHM;2007-04-18 19:00;CYHM 181900Z 07012KT 15SM OVC020 07/02 A2993 RMK SC8 SLP142

CYHM;2007-04-18 20:00;CYHM 182000Z 07014G20KT 15SM FEW020 BKN028 07/03 A2993 RMK SF1SC6 SLP140

CYHM;2007-04-18 21:00;CYHM 182100Z 07013KT 15SM FEW030 SCT160 08/03 A2993 RMK SC2AC1 CU ASOCTD SLP142

CYHM;2007-04-18 22:00;CYHM 182200Z 07011KT 15SM FEW024 BKN034 BKN160 08/03 A2994 RMK CF1SC6AC1 AC TR SLP144

CYHM;2007-04-18 23:00;CYHM 182300Z 07009KT 15SM BKN037 BKN200 08/03 A2994 RMK SC3CI1 SLP146

CYHM;2007-04-19 00:00;CYHM 190000Z 07006KT 15SM BKN046 BKN210 07/02 A2995 RMK SC6CI1 SLP148

CYHM;2007-04-19 01:00;CYHM 190100Z 07003KT 15SM FEW044 BKN220 06/02 A2997 RMK SC1CI2 SLP153

CYHM;2007-04-19 02:00;CYHM 190200Z 07007KT 15SM FEW040 FEW210 05/02 A2998 RMK SC1CI1 SC TR SLP157

CYHM;2007-04-19 03:00;CYHM 190300Z 07006KT 15SM FEW200 04/01 A2998 RMK CI1 SLP158

CYHM;2007-04-19 04:00;CYHM 190400Z 07004KT 15SM FEW120 FEW200 04/01 A2998 RMK AC1CI1 TR AC SLP159

CYHM;2007-04-19 05:00;CYHM 190500Z 07004KT 15SM FEW050 FEW200 03/01 A2997 RMK SC1CI1 TR SC SLP157

CYHM;2007-04-19 06:00;CYHM 190600Z 07005KT 15SM FEW210 03/01 A2998 RMK CI1 SLP159

CYHM;2007-04-19 07:00;CYHM 190700Z 07004KT 15SM FEW210 02/00 A2997 RMK CI1 SLP158

CYHM;2007-04-19 08:00;CYHM 190800Z 36008KT 15SM FEW200 02/00 A2997 RMK CI1 WND DCTN ESTD SLP157

CYHM;2007-04-19 09:00;CYHM 190900Z 36011KT 15SM FEW210 04/01 A2997 RMK CI1 WND DCTN ESTD SLP155

CYHM;2007-04-19 10:00;CYHM 191000Z 36008KT 15SM FEW080 FEW210 05/00 A2997 RMK AC1CI1 WND DCTN ESTD TR AC SLP155

CYHM;2007-04-19 11:00;CYHM 191100Z 05008KT 15SM FEW160 FEW240 05/01 A2999 RMK AC1CI1 WND DCTN ESTD AC TR CI TR SLP161

CYHM;2007-04-19 12:00;CYHM 191200Z 06010KT 15SM SKC 06/02 A3000 RMK WND DCTN ESTD SLP166

CYHM;2007-04-19 13:00;CYHM 191300Z 05018KT 15SM FEW240 07/01 A3002 RMK CI1 SLP171

CYHM;2007-04-19 14:00;CYHM 191400Z 05018KT 15SM FEW100 07/M01 A3003 RMK AC1 AC TR SLP176

CYHM;2007-04-19 15:00;CYHM 191500Z 06020KT 15SM FEW160 FEW220 08/M01 A3004 RMK AC1CI1 SLP179

CYHM;2007-04-19 16:00;CYHM 191600Z 08018KT 15SM FEW100 09/M01 A3005 RMK AC1 AC TR SLP183

CYHM;2007-04-19 17:00;CYHM 191700Z 07017KT 15SM FEW035 FEW140 10/M01 A3005 RMK CU1AC1 CU TR AC TR SLP183

CYHM;2007-04-19 18:00;CYHM 191800Z 05016KT 15SM FEW120 11/01 A3005 RMK AC1 AC TR SLP183

CYHM;2007-04-19 19:00;CYHM 191900Z 09017KT 15SM FEW120 13/M00 A3005 RMK AC1 SLP181

CYHM;2007-04-19 20:00;CYHM 192000Z 08015KT 15SM FEW052 14/01 A3004 RMK SC1 SLP179

CYHM;2007-04-19 21:00;CYHM 192100Z 07012KT 15SM FEW052 14/M00 A3004 RMK SC1 SLP179

CYHM;2007-04-19 22:00;CYHM 192200Z 05009KT 15SM FEW050 13/M00 A3006 RMK SC1 SLP184

CYHM;2007-04-19 23:00;CYHM 192300Z 05007KT 15SM FEW050 13/M01 A3007 RMK SC1 SLP186

CYHM;2007-04-20 00:00;CYHM 200000Z 06006KT 15SM FEW100 10/M00 A3008 RMK AC1 SLP192

CYHM;2007-04-20 01:00;CYHM 200100Z 03005KT 15SM FEW250 09/M01 A3009 RMK CI1 SLP195

CYHM;2007-04-20 02:00;CYHM 200200Z 02006KT 15SM SKC 08/M01 A3011 RMK SLP202

CYHM;2007-04-20 03:00;CYHM 200300Z 01005KT 15SM FEW200 06/M01 A3013 RMK CI1 SLP207

CYHM;2007-04-20 04:00;CYHM 200400Z 01005KT 15SM FEW210 08/M02 A3013 RMK CI1 SLP210

CYHM;2007-04-20 05:00;CYHM 200500Z 01003KT 15SM SKC 09/M03 A3014 RMK SLP213

CYHM;2007-04-20 06:00;CYHM 200600Z 34003KT 15SM SKC 07/M03 A3015 RMK SLP213

CYHM;2007-04-20 07:00;CYHM 200700Z 32005KT 15SM FEW210 06/M03 A3015 RMK CI1 SLP215

CYHM;2007-04-20 08:00;CYHM 200800Z 32005KT 15SM FEW210 06/M02 A3016 RMK CI1 SLP218

CYHM;2007-04-20 09:00;CYHM 200900Z 32006KT 15SM FEW210 06/M00 A3017 RMK CI1 SLP219

CYHM;2007-04-20 10:00;CYHM 201000Z 31004KT 15SM FEW210 06/M01 A3017 RMK CI1 SLP222

CYHM;2007-04-20 11:00;CYHM 201100Z 00000KT 15SM FEW220 07/01 A3020 RMK CI1 CI TR SLP229

CYHM;2007-04-20 12:00;CYHM 201200Z 00000KT 15SM FEW220 06/02 A3021 RMK CI1 SLP237

CYHM;2007-04-20 13:00;CYHM 201300Z 00000KT 15SM FEW220 13/02 A3023 RMK CI1 CONTRAIL SLP241

CYHM;2007-04-20 14:00;CYHM 201400Z 01002KT 15SM FEW240 16/M03 A3023 RMK CI0 SLP244

CYHM;2007-04-20 15:00;CYHM 201500Z 36006KT 15SM FEW240 18/M03 A3023 RMK CI0 SLP241

CYHM;2007-04-20 16:00;CYHM 201600Z 04007KT 15SM FEW240 19/M04 A3023 RMK CI1 CI TR SLP240

CYHM;2007-04-20 17:00;CYHM 201700Z 02012KT 15SM FEW240 20/M03 A3022 RMK CI1 SLP237

CYHM;2007-04-20 18:00;CYHM 201800Z CCA 03008KT 15SM FEW230 20/M03 A3021 RMK CI0 SLP233

CYHM;2007-04-20 19:00;CYHM 201900Z 01009KT 330V100 15SM FEW250 21/M03 A3020 RMK CI0 SLP230

CYHM;2007-04-20 20:00;CYHM 202000Z 07005KT 360V140 15SM FEW250 21/02 A3018 RMK CI1 SLP224

CYHM;2007-04-20 21:00;CYHM 202100Z 07005KT 020V170 15SM BKN250 21/M02 A3018 RMK CI3 SLP221

CYHM;2007-04-20 22:00;CYHM 202200Z 10006KT 15SM BKN250 21/M01 A3017 RMK CI4 SLP220

CYHM;2007-04-20 23:00;CYHM 202300Z 19009KT 15SM BKN250 18/02 A3017 RMK CI4 SLP220

CYHM;2007-04-21 00:00;CYHM 210000Z 20006KT 15SM BKN250 15/01 A3018 RMK CI4 SLP223

CYHM;2007-04-21 01:00;CYHM 210100Z 21004KT 15SM BKN250 14/00 A3018 RMK CI3 SLP225

CYHM;2007-04-21 02:00;CYHM 210200Z 24004KT 15SM FEW250 13/M01 A3019 RMK CI1 SLP228

CYHM;2007-04-21 03:00;CYHM 210300Z 29005KT 15SM FEW250 12/M01 A3020 RMK CI1 SLP228

CYHM;2007-04-21 04:00;CYHM 210400Z 26004KT 15SM SCT220 12/M02 A3020 RMK CI2 SLP228

CYHM;2007-04-21 05:00;CYHM 210500Z 31004KT 15SM FEW220 10/M02 A3020 RMK CI1 SLP228

CYHM;2007-04-21 06:00;CYHM 210600Z 00000KT 15SM FEW210 08/M01 A3020 RMK CI1 SLP229

CYHM;2007-04-21 07:00;CYHM 210700Z 00000KT 15SM SKC 07/M01 A3020 RMK SLP230

CYHM;2007-04-21 08:00;CYHM 210800Z 27003KT 15SM FEW210 05/M01 A3021 RMK CI1 SLP232

CYHM;2007-04-21 09:00;CYHM 210900Z 00000KT 15SM FEW200 06/M02 A3022 RMK CI1 SLP235

CYHM;2007-04-21 10:00;CYHM 211000Z 34003KT 15SM FEW100 FEW210 06/M03 A3022 RMK AC1CI1 SLP237

CYHM;2007-04-21 11:00;CYHM 211100Z 00000KT 15SM FEW230 04/M03 A3023 RMK CI1 SLP241

CYHM;2007-04-21 12:00;CYHM 211200Z 27003KT 15SM FEW230 08/04 A3025 RMK CI1 SLP247

CYHM;2007-04-21 13:00;CYHM 211300Z 26003KT 15SM FEW250 13/02 A3026 RMK CI0 SLP250

CYHM;2007-04-21 14:00;CYHM 211400Z 25004KT 15SM FEW250 16/01 A3027 RMK CI0 SLP253

CYHM;2007-04-21 15:00;CYHM 211500Z 25003KT 15SM FEW250 18/02 A3026 RMK CI0 SLP250

CYHM;2007-04-21 16:00;CYHM 211600Z 29006KT 210V320 15SM FEW250 20/M01 A3025 RMK CI0 SLP246

CYHM;2007-04-21 17:00;CYHM 211700Z 27007KT 210V340 15SM FEW250 20/M02 A3023 RMK CI1 SLP237

CYHM;2007-04-21 18:00;CYHM 211800Z 30006KT 15SM FEW250 21/M01 A3022 RMK CI0 SLP234

CYHM;2007-04-21 19:00;CYHM 211900Z 27008KT 240V300 15SM FEW250 22/M02 A3021 RMK CI1 SLP231

CYHM;2007-04-21 20:00;CYHM 212000Z 30006KT 250V340 15SM BKN250 22/M02 A3018 RMK CI2 SLP221

CYHM;2007-04-21 21:00;CYHM 212100Z 28006KT 240V320 15SM SCT250 22/M02 A3017 RMK CI2 SLP217

CYHM;2007-04-21 22:00;CYHM 212200Z 18014KT 15SM SCT250 20/01 A3016 RMK CI2 SLP214

CYHM;2007-04-21 23:00;CYHM 212300Z 19011KT 15SM BKN250 18/00 A3016 RMK CI3 SLP214

CYHM;2007-04-22 01:00;CYHM 220100Z 20006KT 15SM BKN250 13/00 A3017 RMK CI3 SLP219

CYHM;2007-04-22 02:00;CYHM 220200Z 21005KT 15SM BKN250 11/02 A3017 RMK CI2 SLP220

CYHM;2007-04-22 03:00;CYHM 220300Z 26006KT 15SM FEW250 11/02 A3017 RMK CI1 SLP217

CYHM;2007-04-22 04:00;CYHM 220400Z 24006KT 15SM FEW220 12/00 A3016 RMK CI1 SLP215

CYHM;2007-04-22 05:00;CYHM 220500Z 26005KT 15SM FEW210 11/00 A3016 RMK CI2 CONTRAILS SLP214

CYHM;2007-04-22 06:00;CYHM 220600Z 24004KT 15SM SKC 08/01 A3015 RMK SLP211

CYHM;2007-04-22 07:00;CYHM 220700Z 25004KT 15SM FEW210 08/M00 A3015 RMK CI2 SLP210

CYHM;2007-04-22 08:00;CYHM 220800Z 23002KT 15SM FEW200 08/M01 A3014 RMK CI1 SLP208

CYHM;2007-04-22 09:00;CYHM 220900Z 22004KT 15SM FEW210 06/M00 A3013 RMK CI1 SLP207

CYHM;2007-04-22 10:00;CYHM 221000Z 22004KT 15SM SCT210 06/M01 A3015 RMK CI2 SLP212

CYHM;2007-04-22 11:00;CYHM 221100Z 22006KT 15SM BKN250 04/M00 A3017 RMK CI2 SLP220

CYHM;2007-04-22 12:00;CYHM 221200Z CCA 21005KT 15SM BKN250 08/02 A3020 RMK CI2 CONTRAILS SLP229

CYHM;2007-04-22 13:00;CYHM 221300Z 23007KT 15SM SCT250 13/02 A3020 RMK CI1 SLP231

CYHM;2007-04-22 14:00;CYHM 221400Z 22009KT 15SM SCT250 17/03 A3019 RMK CI1 SLP227

CYHM;2007-04-22 15:00;CYHM 221500Z 20009KT 15SM FEW250 19/02 A3018 RMK CI0 SLP221

CYHM;2007-04-22 16:00;CYHM 221600Z 24011KT 15SM FEW250 21/03 A3017 RMK CI0 SLP218

CYHM;2007-04-22 17:00;CYHM 221700Z 18011KT 140V240 15SM FEW250 22/04 A3014 RMK CI0 SLP210

CYHM;2007-04-22 18:00;CYHM 221800Z 20012KT 170V240 15SM FEW250 23/04 A3012 RMK CI1 SLP200

CYHM;2007-04-22 19:00;CYHM 221900Z 21014KT 15SM SKC 24/04 A3011 RMK SLP197

CYHM;2007-04-22 20:00;CYHM 222000Z 21015KT 15SM SKC 23/03 A3008 RMK SLP189

CYHM;2007-04-22 21:00;CYHM 222100Z 21016KT 15SM SKC 23/04 A3007 RMK CONTRAIL SLP183

CYHM;2007-04-22 22:00;CYHM 222200Z 22015KT 15SM FEW070 22/04 A3006 RMK AC1 AC TR SLP181

CYHM;2007-04-22 23:00;CYHM 222300Z 23013KT 15SM SKC 22/03 A3004 RMK SLP174

CYHM;2007-04-23 00:00;CYHM 230000Z 22009KT 15SM FEW220 18/04 A3003 RMK CI1 SLP172

CYHM;2007-04-23 01:00;CYHM 230100Z 19006KT 15SM FEW230 17/03 A3004 RMK CI1 SLP173

CYHM;2007-04-23 02:00;CYHM 230200Z 19008KT 15SM SKC 15/04 A3003 RMK SLP171

CYHM;2007-04-23 03:00;CYHM 230300Z 19005KT 15SM SKC 12/04 A3003 RMK SLP169

CYHM;2007-04-23 04:00;CYHM 230400Z 21007KT 15SM SKC 10/03 A3001 RMK SLP165

CYHM;2007-04-23 05:00;CYHM 230500Z 19006KT 15SM SKC 11/02 A3000 RMK SLP161

CYHM;2007-04-23 06:00;CYHM 230600Z 19006KT 15SM SKC 10/02 A2998 RMK SLP153

CYHM;2007-04-23 07:00;CYHM 230700Z 20009KT 15SM FEW210 11/02 A2997 RMK CI1 SLP148

CYHM;2007-04-23 08:00;CYHM 230800Z 21007KT 15SM FEW200 11/03 A2996 RMK CI1 SLP147

CYHM;2007-04-23 09:00;CYHM 230900Z 21007KT 15SM SKC 10/03 A2995 RMK SLP144

CYHM;2007-04-23 10:00;CYHM 231000Z 21006KT 15SM FEW210 10/04 A2994 RMK CI2 SLP140

CYHM;2007-04-23 11:00;CYHM 231100Z 20008KT 15SM SCT210 12/04 A2994 RMK CI2 SLP138

CYHM;2007-04-23 12:00;CYHM 231200Z 21011KT 15SM BKN210 14/06 A2993 RMK CI2 SLP135

CYHM;2007-04-23 13:00;CYHM 231300Z 21016KT 15SM FEW160 BKN210 17/07 A2993 RMK AC2CI2 CONTRAIL SLP137

CYHM;2007-04-23 14:00;CYHM 231400Z 22014KT 15SM FEW120 FEW160 BKN220 19/08 A2988 RMK AC1AC2CI2 SLP121

CYHM;2007-04-23 15:00;CYHM 231500Z 22026G34KT 15SM FEW150 BKN210 22/09 A2986 RMK AC2CI2 SLP111

CYHM;2007-04-23 16:00;CYHM 231600Z 23030G38KT 15SM FEW100 SCT150 BKN220 23/10 A2983 RMK AC2AC2CI2 SLP103

CYHM;2007-04-23 16:53;CYHM 231653Z 23028G42KT 15SM -SHRA BKN047 OVC083 RMK SC6AC2

CYHM;2007-04-23 17:00;CYHM 231700Z 23030G42KT 8SM -SHRA BKN054 OVC073 20/10 A2982 RMK SC6AC2 SLP100

CYHM;2007-04-23 17:38;CYHM 231738Z 21024G34KT 15SM FEW045 BKN076 BKN220 RMK SC2AC3CI1

CYHM;2007-04-23 18:00;CYHM 231800Z 23030G36KT 15SM FEW045 SCT078 BKN120 21/12 A2979 RMK SC2AC2AC2 SLP089

CYHM;2007-04-23 19:00;CYHM 231900Z 22026G46KT 12SM BKN048 BKN110 22/12 A2976 RMK SC6AC1 SLP080

CYHM;2007-04-23 20:00;CYHM 232000Z 22028G48KT 12SM BKN048 BKN080 22/12 A2971 RMK SC5AC2 SLP064

CYHM;2007-04-23 21:00;CYHM 232100Z 23022G32KT 9SM -SHRA BKN044 BKN084 OVC140 20/13 A2972 RMK SC6AC2AC1 SLP065

CYHM;2007-04-23 21:13;CYHM 232113Z 25026G34KT 1SM +SHRA BKN044 OVC064 RMK SC6SC2

CYHM;2007-04-23 21:20;CYHM 232120Z 25018G28KT 8SM -SHRA BKN034 BKN064 OVC080 RMK SC6SC2AC1

CYHM;2007-04-23 22:00;CYHM 232200Z 25018G26KT 8SM FEW048 BKN068 BKN130 18/14 A2975 RMK SC2AC4AC1 SLP076

CYHM;2007-04-23 23:00;CYHM 232300Z 24010KT 10SM FEW042 BKN082 BKN110 18/14 A2977 RMK SC1AC5AC2 SLP080

CYHM;2007-04-24 00:00;CYHM 240000Z 27008KT 12SM FEW078 BKN093 18/13 A2978 RMK AC2AC6 SLP085

CYHM;2007-04-24 01:00;CYHM 240100Z 28013G20KT 12SM FEW034 SCT080 BKN096 17/12 A2984 RMK CU1AC2AC4 SLP103

CYHM;2007-04-24 02:00;CYHM 240200Z 32011G19KT 15SM FEW018 FEW046 SCT090 13/10 A2988 RMK SC1SC1AC2 SLP117

CYHM;2007-04-24 03:00;CYHM 240300Z 31010G16KT 15SM BKN014 12/09 A2990 RMK SC7 SLP126

CYHM;2007-04-24 04:00;CYHM 240400Z 32009G16KT 15SM OVC014 11/07 A2994 RMK SC8 SLP138

CYHM;2007-04-24 05:00;CYHM 240500Z 32014G20KT 15SM OVC020 10/06 A2998 RMK SC8 SLP151

CYHM;2007-04-24 06:00;CYHM 240600Z 33014KT 15SM SCT026 09/04 A3001 RMK SC3 SLP162

CYHM;2007-04-24 07:00;CYHM 240700Z 33010KT 15SM FEW026 FEW250 08/03 A3003 RMK SC1CI1 SC TR SLP169

CYHM;2007-04-24 09:00;CYHM 240900Z 34004KT 15SM FEW250 06/01 A3006 RMK CI1 CI TR SLP182

CYHM;2007-04-24 10:00;CYHM 241000Z 34002KT 15SM FEW070 FEW250 05/01 A3007 RMK AC1CI1 AC TR CI TR SLP187

CYHM;2007-04-24 11:00;CYHM 241100Z 32004KT 15SM SKC 04/01 A3010 RMK SLP195

CYHM;2007-04-24 12:00;CYHM 241200Z 33004KT 15SM FEW240 07/03 A3013 RMK CI1 CI TR SLP205

CYHM;2007-04-24 13:00;CYHM 241300Z 36005KT 15SM FEW025 BKN220 08/02 A3014 RMK CU1CI2 SLP208

CYHM;2007-04-24 14:00;CYHM 241400Z 09002KT 15SM FEW028 BKN240 09/02 A3014 RMK CU2CI2 SLP209

CYHM;2007-04-24 15:00;CYHM 241500Z 29002KT 15SM FEW028 SCT240 11/02 A3014 RMK CU2CI1 SLP211

CYHM;2007-04-24 16:00;CYHM 241600Z 23003KT 15SM FEW042 SCT240 12/02 A3013 RMK CU2CI0 SLP205

CYHM;2007-04-24 17:00;CYHM 241700Z 35011KT 15SM FEW038 SCT050 13/02 A3013 RMK CU1SC2 SLP205

CYHM;2007-04-24 18:00;CYHM 241800Z 33010KT 15SM FEW035 SCT052 BKN180 14/02 A3011 RMK CU1SC2AC1 SLP200

CYHM;2007-04-24 19:00;CYHM 241900Z 24005KT 15SM SCT058 BKN250 14/01 A3011 RMK CU3CI1 SLP199

CYHM;2007-04-24 20:00;CYHM 242000Z 32008KT 15SM SCT058 BKN250 15/02 A3010 RMK CU3CI1 SLP197

CYHM;2007-04-24 21:00;CYHM 242100Z 31008KT 15SM FEW058 SCT250 15/03 A3009 RMK CU2CI1 SLP192

CYHM;2007-04-24 22:00;CYHM 242200Z 25003KT 15SM FEW056 FEW250 15/03 A3009 RMK CU2CI1 CI TR SLP193

CYHM;2007-04-24 23:00;CYHM 242300Z 01002KT 15SM FEW057 FEW250 15/03 A3008 RMK CU2CI1 CI TR SLP190

CYHM;2007-04-25 00:00;CYHM 250000Z 19009KT 15SM SCT058 BKN250 11/03 A3009 RMK SC4CI1 CU ASOCTD SLP195

CYHM;2007-04-25 01:00;CYHM 250100Z 19005KT 15SM FEW056 BKN150 09/03 A3011 RMK SC1AC2 SLP201

CYHM;2007-04-25 02:00;CYHM 250200Z 21002KT 15SM BKN150 08/03 A3011 RMK AC6 SLP200

CYHM;2007-04-25 03:00;CYHM 250300Z 00000KT 15SM FEW140 07/03 A3009 RMK AC1 AC TR SLP195

CYHM;2007-04-25 04:00;CYHM 250400Z 22002KT 15SM FEW170 07/03 A3010 RMK AC1 SLP197

CYHM;2007-04-25 05:00;CYHM 250500Z 32003KT 15SM SCT150 BKN180 07/02 A3010 RMK AC4AC1 SLP198

CYHM;2007-04-25 06:00;CYHM 250600Z 30002KT 15SM BKN120 BKN150 07/03 A3010 RMK AC6AC2 SLP197

CYHM;2007-04-25 07:00;CYHM 250700Z 01002KT 15SM FEW090 BKN110 BKN130 07/03 A3007 RMK AC2AC5AC1 SLP188

CYHM;2007-04-25 08:00;CYHM 250800Z 05002KT 15SM BKN080 OVC100 08/02 A3008 RMK AS6AC2 SLP189

CYHM;2007-04-25 09:00;CYHM 250900Z 04002KT 15SM BKN067 BKN090 OVC110 08/02 A3007 RMK AS6AS2AS1 SLP186

CYHM;2007-04-25 09:26;CYHM 250926Z 00000KT 15SM -SHRA BKN068 OVC080 RMK AS6AS2

CYHM;2007-04-25 09:45;CYHM 250945Z 01004KT 15SM BKN064 OVC078 RMK SC6AS2

CYHM;2007-04-25 10:00;CYHM 251000Z 02004KT 15SM BKN064 OVC080 08/03 A3008 RMK SC6AS2 SLP189

CYHM;2007-04-25 10:06;CYHM 251006Z 01004KT 15SM -SHRA BKN064 OVC082 RMK SC6AC2

CYHM;2007-04-25 11:00;CYHM 251100Z 06005KT 10SM -SHRA BKN054 OVC067 08/03 A3010 RMK SC6AC2 SLP197

CYHM;2007-04-25 12:00;CYHM 251200Z 27002KT 15SM -SHRA OVC061 08/03 A3010 RMK SC8 SLP198

CYHM;2007-04-25 13:00;CYHM 251300Z 16005KT 15SM BKN050 OVC061 08/04 A3009 RMK SC6SC2 SLP193

CYHM;2007-04-25 13:51;CYHM 251351Z 18007KT 15SM -SHRA BKN038 OVC048 RMK SC6SC2

CYHM;2007-04-25 14:00;CYHM 251400Z 19008KT 15SM -SHRA BKN037 OVC050 08/04 A3009 RMK SC6SC2 SLP195

CYHM;2007-04-25 15:00;CYHM 251500Z 19010KT 10SM -SHRA BKN041 OVC054 07/05 A3009 RMK SC6SC2 SLP195

CYHM;2007-04-25 16:00;CYHM 251600Z 15010KT 15SM -SHRA FEW026 BKN052 OVC062 07/04 A3006 RMK SC1SC6SC2 SLP185

CYHM;2007-04-25 16:36;CYHM 251636Z 15007KT 15SM FEW025 BKN051 OVC062 RMK CU1SC6SC2 CU TR

CYHM;2007-04-25 16:54;CYHM 251654Z 15008KT 15SM -SHRA BKN051 OVC060 RMK SC6SC2

CYHM;2007-04-25 17:00;CYHM 251700Z 15008KT 15SM -SHRA BKN044 OVC054 07/04 A3005 RMK SC6SC2 SLP183

CYHM;2007-04-25 18:00;CYHM 251800Z 14004KT 15SM -RA SCT013 BKN082 OVC096 08/05 A3004 RMK SC3AC3AC2 SLP180

CYHM;2007-04-25 18:05;CYHM 251805Z 15005KT 15SM FEW013 SCT054 OVC095 RMK SF2SC2AS5

CYHM;2007-04-25 19:00;CYHM 251900Z 10007KT 15SM SCT018 BKN100 OVC150 09/04 A3002 RMK SC3AS4AS1 CU ASOCTD SLP173

CYHM;2007-04-25 20:00;CYHM 252000Z 09006KT 15SM FEW024 SCT120 OVC150 09/03 A3004 RMK SC2AC2AC4 CU ASOCTD SLP179

CYHM;2007-04-25 21:00;CYHM 252100Z 00000KT 15SM FEW028 BKN180 10/03 A3006 RMK CU2AC6 SLP183

CYHM;2007-04-25 22:00;CYHM 252200Z 08006KT 15SM FEW026 BKN210 BKN260 10/02 A3005 RMK CU1CC6CS1 CU TR SLP182

CYHM;2007-04-25 23:00;CYHM 252300Z 06006KT 15SM BKN210 BKN260 10/01 A3006 RMK CC6CS1 SLP184

CYHM;2007-04-26 00:00;CYHM 260000Z 07005KT 15SM BKN210 BKN260 08/02 A3007 RMK CC6CI1 SLP187

CYHM;2007-04-26 01:00;CYHM 260100Z 07002KT 15SM BKN210 07/03 A3009 RMK CC6 SLP193

CYHM;2007-04-26 02:00;CYHM 260200Z CCA 00000KT 15SM BKN210 07/03 A3010 RMK CC6 SLP196

CYHM;2007-04-26 03:00;CYHM 260300Z 06004KT 15SM BKN210 07/03 A3010 RMK CI6 CC ASOCTD SLP199

CYHM;2007-04-26 04:00;CYHM 260400Z 06004KT 15SM OVC220 06/04 A3010 RMK CI7 SLP199

CYHM;2007-04-26 05:00;CYHM 260500Z 06005KT 12SM OVC210 06/04 A3010 RMK CI7 SLP197

CYHM;2007-04-26 06:00;CYHM 260600Z 05008KT 12SM -SHRA OVC200 06/04 A3006 RMK CI7 SLP186

CYHM;2007-04-26 07:00;CYHM 260700Z 06008KT 10SM -SHRA OVC210 06/04 A3005 RMK CI8 SLP181

CYHM;2007-04-26 08:00;CYHM 260800Z 05009KT 12SM OVC190 05/04 A3005 RMK AS8 SLP182

CYHM;2007-04-26 09:00;CYHM 260900Z 06007KT 10SM SCT110 OVC130 05/04 A3006 RMK AC3AS5 SLP185

CYHM;2007-04-26 10:00;CYHM 261000Z 06009KT 12SM OVC120 05/04 A3005 RMK AC8 SLP181

CYHM;2007-04-26 11:00;CYHM 261100Z 04014KT 15SM BKN077 BKN120 05/04 A3005 RMK AC6AC2 SLP181

CYHM;2007-04-26 11:47;CYHM 261147Z 05014KT 10SM -SHRA BKN076 OVC090 RMK AC6AC2

CYHM;2007-04-26 12:00;CYHM 261200Z 05015KT 6SM -SHRA BR BKN078 OVC100 05/04 A3006 RMK AC6AC2 SLP184

CYHM;2007-04-26 13:00;CYHM 261300Z 06014KT 3SM -SHRA BR BKN003 OVC068 05/04 A3005 RMK SF6AC2 SLP182

CYHM;2007-04-26 14:00;CYHM 261400Z 06016KT 3SM -SHRA BR BKN003 OVC045 05/04 A3002 RMK SF6SC2 SLP173

CYHM;2007-04-26 14:35;CYHM 261435Z 06016KT 4SM BR BKN004 BKN058 OVC110 RMK SF5SC1AS2

CYHM;2007-04-26 15:00;CYHM 261500Z 06014KT 5SM BR FEW004 BKN053 OVC170 06/05 A3002 RMK SF2SC4AS2 SLP172

CYHM;2007-04-26 16:00;CYHM 261600Z 06015KT 15SM FEW022 BKN100 OVC150 07/05 A2997 RMK CU1AC4AS3 SLP156

CYHM;2007-04-26 17:00;CYHM 261700Z 05018KT 10SM FEW025 FEW045 SCT120 OVC220 08/05 A2995 RMK CU1SC2AC2CI4 HALO SLP150

CYHM;2007-04-26 18:00;CYHM 261800Z 04010KT 15SM SCT032 BKN068 OVC100 07/04 A2995 RMK SC3AC3AC2 SLP149

CYHM;2007-04-26 18:06;CYHM 261806Z CCA 29016G21KT 8SM -SHRA FEW013 BKN024 OVC068 RMK CF2SC6AC1 WND SHFT AT 1802Z VIS SW 2

CYHM;2007-04-26 18:22;CYHM 261822Z 04014KT 2 1/2SM -TSRA BR FEW013 BKN024 OVC044 RMK CF1SC5SC2 WND SHFT AT 1813Z CB EMBDD

CYHM;2007-04-26 19:00;CYHM 261900Z 05015KT 2SM -TSRA BR FEW021 BKN043 OVC065 05/04 A2994 RMK FG1SC2SC4SC2 CB EMBDD SLP145

CYHM;2007-04-26 19:36;CYHM 261936Z 05026KT 2SM -TSRA BR BKN003 OVC043 RERA RMK FG1CF5SC2 CB EMBDD

CYHM;2007-04-26 20:00;CYHM 262000Z 05019G26KT 2SM -SHRA BR BKN003 OVC029 04/04 A2988 RETSRA RMK FG1CF6SC2 SLP123

CYHM;2007-04-26 20:27;CYHM 262027Z 05018KT 1 1/2SM -SHRA BR OVC003 RMK FG2CF6

CYHM;2007-04-26 21:00;CYHM 262100Z 07011KT 2 1/2SM -SHRA BR BKN003 OVC018 05/05 A2989 RMK CF7SC1 /R10/ SLP127

CYHM;2007-04-26 22:00;CYHM 262200Z 06013KT 1 3/4SM -SHRA BR BKN002 OVC036 06/06 A2986 RMK FG1CF6SC2 SLP117

CYHM;2007-04-26 22:20;CYHM 262220Z 04012KT 1SM -SHRA BR OVC002 RMK FG2CF6 PCPN VRY LGT

CYHM;2007-04-26 22:43;CYHM 262243Z 05012KT 3/4SM BR OVC002 RMK FG2CF6

CYHM;2007-04-26 23:00;CYHM 262300Z 05011KT 3/4SM -SHRA BR OVC002 05/05 A2984 RMK FG2CF6 SLP113

CYHM;2007-04-26 23:44;CYHM 262344Z 03011KT 1/2SM FG OVC002 RMK FG4CF4

CYHM;2007-04-27 00:00;CYHM 270000Z 04011KT 1/2SM FG OVC002 05/05 A2981 RMK FG4CF4 SLP103

CYHM;2007-04-27 00:08;CYHM 270008Z 03010KT 1/4SM FG VV002 RMK FG8

CYHM;2007-04-27 01:00;CYHM 270100Z 07007KT 1/8SM FG VV001 05/05 A2984 RMK FG8 SLP113

CYHM;2007-04-27 01:26;CYHM 270126Z 04008KT 3/4SM BR OVC026 RMK FG4SC4

CYHM;2007-04-27 01:36;CYHM 270136Z 04008KT 1SM BR OVC027 RMK FG3SC5

CYHM;2007-04-27 02:00;CYHM 270200Z 06007KT 1 1/4SM -SHRA BR BKN014 OVC028 06/06 A2981 RMK FG2SC3SC2 SLP102

CYHM;2007-04-27 02:41;CYHM 270241Z 04009KT 1/2SM -SHRA FG OVC002 RMK FG4SF4

CYHM;2007-04-27 03:00;CYHM 270300Z 03005KT 1/4SM -RA FG OVC002 06/05 A2980 RMK FG5ST3 SLP096

CYHM;2007-04-27 04:00;CYHM 270400Z 03007KT 1/2SM -RA FG SCT002 OVC033 06/05 A2978 RMK FG3SF1SC4 SLP090

CYHM;2007-04-27 04:52;CYHM 270452Z 05009KT 1/2SM -RA FG BKN006 OVC034 RMK FG3SF3SC2

CYHM;2007-04-27 05:00;CYHM 270500Z 05006KT 1/2SM -RA FG OVC002 06/06 A2975 RMK FG4SF4 SLP080

CYHM;2007-04-27 05:25;CYHM 270525Z 05008KT 1/8SM -RA FG OVC002 RMK FG6SF2

CYHM;2007-04-27 06:00;CYHM 270600Z 05007KT 1/8SM -RA FG VV001 06/06 A2972 RMK FG8 SLP069

CYHM;2007-04-27 07:00;CYHM 270700Z 05006KT 1/2SM -RA FG SCT002 OVC030 06/06 A2970 RMK FG3SF1SC4 SLP064

CYHM;2007-04-27 07:27;CYHM 270727Z 06007KT 1SM -RA BR OVC037 RMK FG2SC6 VIS VRB 3/4 - 11/4

CYHM;2007-04-27 08:00;CYHM 270800Z 07006KT 3/4SM -RA BR SCT034 OVC070 07/07 A2968 RMK FG3SC1AC4 VIS VRB 1/2 - 1 SLP055

CYHM;2007-04-27 09:00;CYHM 270900Z 06004KT 1 1/2SM -SHRA BR SCT025 BKN062 OVC081 07/07 A2966 RMK FG2CF2SC3AC2 VIS VRB 1 - 2 SLP050

CYHM;2007-04-27 10:00;CYHM 271000Z 11003KT 2SM -SHRA BR OVC024 08/08 A2966 RMK FG1SC7 SLP050

CYHM;2007-04-27 11:00;CYHM 271100Z 11004KT 1 1/2SM BR BKN017 OVC027 08/08 A2967 RMK FG1SC6SC2 SLP052

CYHM;2007-04-27 12:00;CYHM 271200Z 19008KT 4SM BR BKN015 OVC028 10/10 A2968 RMK SC6SC2 SLP054

CYHM;2007-04-27 13:00;CYHM 271300Z 21013KT 6SM BR BKN014 OVC022 13/11 A2968 RMK SC6SC2 SLP054

CYHM;2007-04-27 14:00;CYHM 271400Z 20009KT 6SM BR BKN008 OVC012 13/12 A2968 RMK SF6SC2 SLP054

CYHM;2007-04-27 15:00;CYHM 271500Z 23013KT 8SM BKN009 OVC016 14/12 A2968 RMK SF5SC3 SLP053

CYHM;2007-04-27 16:00;CYHM 271600Z 23016KT 10SM BKN012 OVC018 14/12 A2968 RMK SC6SC2 SLP055

CYHM;2007-04-27 16:23;CYHM 271623Z 24014KT 3SM -SHRA BKN012 OVC018 RMK SC6SC2

CYHM;2007-04-27 17:00;CYHM 271700Z 24014KT 10SM BKN012 OVC017 15/13 A2968 RMK SC6SC2 SLP054

CYHM;2007-04-27 18:00;CYHM 271800Z 25015KT 15SM BKN013 OVC018 15/12 A2968 RMK SC6SC2 SLP055

CYHM;2007-04-27 19:00;CYHM 271900Z 23012KT 12SM BKN012 BKN018 BKN160 15/12 A2968 RMK SC5SC2AC1 SLP053

CYHM;2007-04-27 20:00;CYHM 272000Z 24013KT 15SM -SHRA SCT014 BKN055 16/13 A2967 RMK SC4SC3 PCPN VRY LGT SLP050

CYHM;2007-04-27 21:00;CYHM 272100Z 23018KT 15SM -SHRA BKN015 OVC062 15/11 A2968 RMK SC6SC2 PCPN VRY LGT SLP054

CYHM;2007-04-27 22:00;CYHM 272200Z 24015G22KT 15SM BKN015 OVC062 13/11 A2970 RMK SC7SC1 SLP059

CYHM;2007-04-27 23:00;CYHM 272300Z 23018KT 15SM BKN019 OVC062 13/10 A2971 RMK SC6SC2 SLP065

CYHM;2007-04-28 00:00;CYHM 280000Z 24015KT 15SM OVC018 12/09 A2974 RMK SC8 SLP072

CYHM;2007-04-28 00:40;CYHM 280040Z 24014KT 12SM OVC014 RMK SC8

CYHM;2007-04-28 00:53;CYHM 280053Z 24013KT 12SM -SHRA OVC014 RMK SC8

CYHM;2007-04-28 01:00;CYHM 280100Z 24011KT 10SM -SHRA OVC014 12/09 A2975 RMK SC8 SLP077

CYHM;2007-04-28 02:00;CYHM 280200Z 24014KT 9SM -SHRA FEW009 OVC017 11/10 A2976 RMK CF2SC6 SLP081

CYHM;2007-04-28 03:00;CYHM 280300Z 25010KT 10SM -SHRA FEW007 SCT014 OVC022 10/09 A2978 RMK CF2SC2SC4 SLP085

CYHM;2007-04-28 04:00;CYHM 280400Z 25012KT 12SM SCT010 OVC032 10/08 A2978 RMK CF3SC5 SLP087

CYHM;2007-04-28 05:00;CYHM 280500Z 25012KT 12SM FEW008 OVC038 10/08 A2978 RMK CF2SC6 SLP086

CYHM;2007-04-28 06:00;CYHM 280600Z 25012KT 8SM -SHRA FEW011 OVC042 09/08 A2977 RMK CF2SC6 SLP084

CYHM;2007-04-28 07:00;CYHM 280700Z 25012KT 8SM -SHRA FEW006 OVC010 09/08 A2977 RMK CF2SC6 CIG RAG SLP083

CYHM;2007-04-28 08:00;CYHM 280800Z 25008KT 12SM FEW006 OVC012 09/08 A2977 RMK CF2SC6 CIG RAG SLP083

CYHM;2007-04-28 09:00;CYHM 280900Z 26009KT 12SM -SHRA BKN011 OVC037 09/07 A2977 RMK CF6SC2 SLP083

CYHM;2007-04-28 10:00;CYHM 281000Z 26007KT 10SM -SHRA BKN012 OVC035 09/07 A2978 RMK CF6SC2 SLP085

CYHM;2007-04-28 11:00;CYHM 281100Z 25006KT 12SM -SHRA FEW008 OVC011 08/07 A2978 RMK CF2SC6 SLP086

CYHM;2007-04-28 12:00;CYHM 281200Z 24008KT 10SM -SHRA FEW007 BKN013 OVC036 08/07 A2978 RMK CF1SC5SC2 SLP088

CYHM;2007-04-28 12:40;CYHM 281240Z 25010KT 2 1/2SM -SHRA BR BKN004 OVC014 RMK CF5SC3

CYHM;2007-04-28 13:00;CYHM 281300Z 25008KT 2 1/2SM -SHRA BR BKN004 OVC014 08/08 A2978 RMK CF5SC3 CIG RAG SLP088

CYHM;2007-04-28 13:40;CYHM 281340Z 26006KT 5SM -SHRA BR BKN006 OVC014 RMK CF6SC2 PCPN VRY LGT

CYHM;2007-04-28 14:00;CYHM 281400Z 28005KT 6SM -SHRA BR BKN007 OVC014 09/08 A2978 RMK CF6SC2 PCPN VRY LGT SLP089

CYHM;2007-04-28 14:21;CYHM 281421Z 25007KT 2SM -SHRA BR BKN008 OVC014 RMK FG1CF6SC2

CYHM;2007-04-28 14:39;CYHM 281439Z 24010KT 1 1/2SM -SHRA BR BKN004 OVC012 RMK FG2CF6SC1

CYHM;2007-04-28 15:00;CYHM 281500Z 25010KT 1 1/2SM -SHRA BR BKN004 OVC013 09/08 A2979 RMK FG2CF5SC2 SLP092

CYHM;2007-04-28 15:25;CYHM 281525Z 26008KT 5SM -SHRA BR BKN005 OVC012 RMK CF6SC2 PCPN VRY LGT

CYHM;2007-04-28 15:43;CYHM 281543Z 26010KT 8SM BKN007 OVC016 RMK CF6SC2

CYHM;2007-04-28 16:00;CYHM 281600Z 27007KT 15SM BKN008 OVC016 10/09 A2978 RMK CF5SC3 SLP090

CYHM;2007-04-28 16:26;CYHM 281626Z 27009KT 15SM FEW008 BKN013 OVC018 RMK CF2SC5SC2

CYHM;2007-04-28 17:00;CYHM 281700Z 27010KT 15SM BKN011 OVC019 10/08 A2978 RMK SC6SC2 SLP088

CYHM;2007-04-28 18:00;CYHM 281800Z 27010KT 15SM BKN015 OVC022 11/08 A2977 RMK SC6SC2 SLP084

CYHM;2007-04-28 19:00;CYHM 281900Z 27011KT 240V300 15SM FEW015 BKN022 OVC032 11/08 A2977 RMK CF2SC5SC2 SLP083

CYHM;2007-04-28 20:00;CYHM 282000Z 27009KT 15SM FEW015 BKN023 OVC038 11/08 A2976 RMK CF2SC3SC3 SLP082

CYHM;2007-04-28 21:00;CYHM 282100Z 27009KT 15SM FEW015 BKN023 OVC035 11/08 A2977 RMK CF1SC4SC3 SLP085

CYHM;2007-04-28 22:00;CYHM 282200Z 28008KT 15SM SCT022 OVC032 11/07 A2978 RMK SC4SC4 SLP089

CYHM;2007-04-28 23:00;CYHM 282300Z 29006KT 15SM FEW015 SCT023 OVC033 11/07 A2979 RMK CF1SC3SC3 SLP090

CYHM;2007-04-29 00:00;CYHM 290000Z 31005KT 15SM SCT021 BKN029 11/07 A2980 RMK SC3SC4 SLP096

CYHM;2007-04-29 01:00;CYHM 290100Z 29006KT 15SM BKN024 10/06 A2982 RMK SC7 SLP103

CYHM;2007-04-29 02:00;CYHM 290200Z 29002KT 15SM FEW023 FEW200 08/05 A2984 RMK SC2CI1 CI TR SLP109

CYHM;2007-04-29 03:00;CYHM 290300Z 00000KT 15SM FEW200 08/05 A2984 RMK CI1 SLP110

CYHM;2007-04-29 04:00;CYHM 290400Z 00000KT 15SM FEW200 07/05 A2984 RMK CI1 SLP111

CYHM;2007-04-29 05:00;CYHM 290500Z 28002KT 15SM FEW210 06/05 A2984 RMK CI1 SLP110

CYHM;2007-04-29 06:00;CYHM 290600Z 25005KT 15SM SKC 05/04 A2983 RMK SLP107

CYHM;2007-04-29 07:00;CYHM 290700Z 29006KT 15SM FEW200 06/05 A2984 RMK CI1 SLP111

CYHM;2007-04-29 08:00;CYHM 290800Z 26006KT 15SM BKN110 06/05 A2984 RMK AC6 SLP111

CYHM;2007-04-29 09:00;CYHM 290900Z 25007KT 15SM SCT100 06/05 A2984 RMK AC3 SLP109

CYHM;2007-04-29 10:00;CYHM 291000Z 26008KT 15SM BKN120 06/05 A2984 RMK AC6 SLP111

CYHM;2007-04-29 11:00;CYHM 291100Z 27005KT 15SM BKN110 06/05 A2986 RMK AC6 VIRGA SLP117

CYHM;2007-04-29 12:00;CYHM 291200Z 28006KT 15SM FEW110 08/06 A2988 RMK AC1 SLP123

CYHM;2007-04-29 13:00;CYHM 291300Z 26008KT 15SM FEW120 11/07 A2989 RMK AC1 SLP126

CYHM;2007-04-29 14:00;CYHM 291400Z 25006KT 230V310 15SM FEW250 14/08 A2990 RMK CI1 SLP128

CYHM;2007-04-29 15:00;CYHM 291500Z 26011KT 220V290 15SM FEW250 15/08 A2990 RMK CI1 SLP128

CYHM;2007-04-29 16:00;CYHM 291600Z 29013KT 15SM FEW044 18/07 A2991 RMK CU1 SLP131

CYHM;2007-04-29 17:00;CYHM 291700Z 31014KT 260V340 15SM FEW044 19/08 A2991 RMK CU1 SLP132

CYHM;2007-04-29 18:00;CYHM 291800Z 30014KT 15SM FEW055 19/06 A2990 RMK CU1 SLP128

CYHM;2007-04-29 19:00;CYHM 291900Z 29012KT 260V320 15SM FEW050 20/07 A2990 RMK CU1 SLP126

CYHM;2007-04-29 20:00;CYHM 292000Z 29010KT 15SM FEW050 FEW200 20/07 A2989 RMK CU1CI1 SLP123

CYHM;2007-04-29 21:00;CYHM 292100Z 27012KT 240V300 15SM FEW050 SCT250 20/06 A2988 RMK CU1CI2 CU TR SLP120

CYHM;2007-04-29 22:00;CYHM 292200Z 26012KT 220V290 15SM FEW050 BKN240 19/06 A2988 RMK SC1CI2 CU ASOCTD SLP120

CYHM;2007-04-29 23:00;CYHM 292300Z 24012KT 210V280 15SM FEW055 SCT140 BKN220 18/05 A2987 RMK SC2AC1CI1 VIRGA NW -N SLP116

CYHM;2007-04-30 00:00;CYHM 300000Z 22017KT 15SM FEW055 FEW130 BKN220 16/06 A2985 RMK SC2AC1CI1 CU ASOCTD CONTRAILS SLP111

CYHM;2007-04-30 01:00;CYHM 300100Z 22013KT 15SM FEW060 SCT120 SCT220 14/06 A2984 RMK SC2AC2CI1 CI TR SLP109

CYHM;2007-04-30 02:00;CYHM 300200Z 22011KT 15SM FEW060 FEW120 12/05 A2984 RMK SC2AC1 SLP106

CYHM;2007-04-30 03:00;CYHM 300300Z 21011KT 15SM BKN120 13/04 A2981 RMK AC6 SLP094

CYHM;2007-04-30 04:00;CYHM 300400Z 22015KT 15SM -SHRA OVC084 13/05 A2980 RMK AC8 SLP091

CYHM;2007-04-30 05:00;CYHM 300500Z 21012KT 15SM BKN085 13/06 A2976 RMK AC7 SLP080

CYHM;2007-04-30 06:00;CYHM 300600Z 23016G21KT 15SM FEW080 FEW140 13/07 A2972 RMK AC2AC1 SLP065

CYHM;2007-04-30 07:00;CYHM 300700Z 26012KT 15SM BKN083 14/08 A2973 RMK AC7 SLP068

CYHM;2007-04-30 08:00;CYHM 300800Z 25007KT 15SM FEW080 SCT120 12/08 A2974 RMK AC2AC2 SLP070

CYHM;2007-04-30 09:00;CYHM 300900Z 29008KT 15SM FEW075 FEW110 FEW220 12/06 A2976 RMK AC1AC1CI1 LYRS AC TR SLP078

CYHM;2007-04-30 10:00;CYHM 301000Z 29012KT 15SM FEW110 FEW220 10/04 A2979 RMK AC1CI1 SLP088

CYHM;2007-04-30 11:00;CYHM 301100Z 32008KT 15SM FEW110 FEW220 09/04 A2984 RMK AC1CI1 SLP105

CYHM;2007-04-30 12:00;CYHM 301200Z 32013KT 15SM SKC 09/04 A2987 RMK SLP116

CYHM;2007-04-30 13:00;CYHM 301300Z 33012KT 15SM FEW240 11/04 A2990 RMK CI1 SLP127

CYHM;2007-04-30 14:00;CYHM 301400Z 33012KT 15SM FEW220 12/04 A2992 RMK CI1 CONTRAIL SLP134

CYHM;2007-04-30 15:00;CYHM 301500Z 27008KT 15SM FEW220 13/03 A2994 RMK CI1 CONTRAIL SLP140

CYHM;2007-04-30 16:00;CYHM 301600Z 29008KT 15SM FEW030 FEW240 14/04 A2995 RMK CU1CI1 CU TR SLP144

CYHM;2007-04-30 17:00;CYHM 301700Z 30014KT 15SM FEW030 FEW240 15/03 A2996 RMK CU1CI1 SLP146

CYHM;2007-04-30 18:00;CYHM 301800Z 28012KT 15SM FEW030 FEW240 16/03 A2996 RMK CU1CI1 SLP146

CYHM;2007-04-30 19:00;CYHM 301900Z 29009KT 15SM FEW052 FEW250 16/02 A2996 RMK CU1CI0 CU TR CONTRAILS SLP147

CYHM;2007-04-30 20:00;CYHM 302000Z 33012KT 15SM FEW052 FEW250 17/02 A2996 RMK CU1CI1 CU TR CI TR CONTRAILS SLP146

CYHM;2007-04-30 21:00;CYHM 302100Z 27010KT 15SM FEW052 BKN250 17/01 A2995 RMK CU1CI2 CU TR SLP145

CYHM;2007-04-30 22:00;CYHM 302200Z 32012KT 15SM FEW050 BKN250 16/M00 A2997 RMK CU1CI2 CU TR CONTRAILS SLP152

CYHM;2007-04-30 23:00;CYHM 302300Z 30008KT 15SM FEW050 SCT170 BKN250 14/00 A2998 RMK CU1AS1CI2 CU TR SLP154

CYHM;2007-05-01 01:00;CYHM 010100Z 31008KT 15SM SCT150 BKN250 12/M01 A3002 RMK AC4CI1 SLP168

CYHM;2007-05-01 02:00;CYHM 010200Z 33007KT 15SM BKN120 BKN250 12/00 A3003 RMK AC4CI1 SLP171

CYHM;2007-05-01 03:00;CYHM 010300Z 35004KT 15SM FEW110 BKN120 OVC250 11/00 A3003 RMK AC2AC4CI1 SLP173

CYHM;2007-05-01 04:00;CYHM 010400Z 00000KT 15SM BKN120 BKN190 OVC250 10/00 A3002 RMK AC5AC1CI1 SLP168

CYHM;2007-05-01 05:00;CYHM 010500Z 08004KT 15SM FEW120 FEW160 BKN220 09/00 A2998 RMK AC2AC1CI1 SLP157

CYHM;2007-05-01 06:00;CYHM 010600Z 15002KT 15SM FEW130 SCT250 08/01 A2999 RMK AC1CI0 SLP158

CYHM;2007-05-01 07:00;CYHM 010700Z 00000KT 15SM FEW120 BKN210 06/01 A3001 RMK AC1CS2 SLP165

CYHM;2007-05-01 08:00;CYHM 010800Z 08002KT 15SM BKN130 BKN210 07/01 A3001 RMK AC5CS1 SLP163

CYHM;2007-05-01 09:00;CYHM 010900Z 00000KT 15SM BKN130 BKN210 06/01 A3001 RMK AC5CS1 SLP166

CYHM;2007-05-01 10:00;CYHM 011000Z 00000KT 15SM FEW120 BKN150 07/01 A3002 RMK AC2AC6 SLP168

CYHM;2007-05-01 11:00;CYHM 011100Z 00000KT 15SM BKN110 OVC160 07/02 A3002 RMK AC5AC3 SLP170

CYHM;2007-05-01 12:00;CYHM 011200Z 05005KT 15SM BKN120 BKN150 08/02 A3002 RMK AC6AC2 SLP171

CYHM;2007-05-01 13:00;CYHM 011300Z 08010KT 15SM BKN098 OVC120 09/02 A2999 RMK AC6AC2 SLP161

CYHM;2007-05-01 13:36;CYHM 011336Z 06006KT 15SM -SHRA BKN080 OVC120 RMK AC6AC2

CYHM;2007-05-01 14:00;CYHM 011400Z 06006KT 15SM OVC077 09/03 A3002 RMK AC8 SLP170

CYHM;2007-05-01 15:00;CYHM 011500Z 04007KT 15SM BKN063 OVC100 09/01 A3001 RMK SC6AC2 SLP167

CYHM;2007-05-01 16:00;CYHM 011600Z 06009KT 15SM OVC060 09/02 A2999 RMK SC8 SLP159

CYHM;2007-05-01 16:49;CYHM 011649Z 05009KT 15SM -SHRA OVC055 RMK SC8

CYHM;2007-05-01 17:00;CYHM 011700Z 05012KT 15SM -SHRA OVC056 08/03 A2998 RMK SC8 SLP158

CYHM;2007-05-01 17:40;CYHM 011740Z 04014KT 15SM OVC056 RMK SC8

CYHM;2007-05-01 18:00;CYHM 011800Z 06012KT 15SM BKN055 OVC077 06/03 A2994 RMK SC6AC2 SLP144

CYHM;2007-05-01 19:00;CYHM 011900Z 05011KT 15SM BKN055 OVC080 06/03 A2993 RMK SC6AC2 SLP142

CYHM;2007-05-01 20:00;CYHM 012000Z 05011KT 15SM FEW056 OVC085 06/03 A2989 RMK SC2AC6 SLP129

CYHM;2007-05-01 21:00;CYHM 012100Z 05012KT 15SM FEW046 OVC075 06/03 A2987 RMK SC2AC6 SLP122

CYHM;2007-05-01 22:00;CYHM 012200Z 04012KT 15SM BKN040 OVC072 06/03 A2985 RMK SC6AC2 SLP115

CYHM;2007-05-01 23:00;CYHM 012300Z 04014G20KT 15SM OVC040 06/02 A2984 RMK SC8 SLP110

CYHM;2007-05-02 00:00;CYHM 020000Z 04015G22KT 15SM BKN038 OVC094 06/02 A2985 RMK SC7AC1 SLP113

CYHM;2007-05-02 01:00;CYHM 020100Z 04015KT 12SM -SHRA FEW036 BKN050 OVC094 05/02 A2985 RMK SC2SC3AC3 SLP115

CYHM;2007-05-02 02:00;CYHM 020200Z 05012KT 15SM -SHRA FEW082 BKN130 BKN140 06/01 A2986 RMK AC2AC3AC1 SLP116

CYHM;2007-05-02 02:23;CYHM 020223Z 05012KT 15SM FEW056 SCT100 BKN120 RMK SC1AC2AC2

CYHM;2007-05-02 03:00;CYHM 020300Z 04012KT 15SM SCT054 BKN074 BKN120 06/00 A2988 RMK SC3AC3AC1 SLP125

CYHM;2007-05-02 04:00;CYHM 020400Z 04013KT 15SM BKN062 06/00 A2989 RMK SC7 SLP127

CYHM;2007-05-02 05:00;CYHM 020500Z 05013KT 15SM FEW060 06/02 A2989 RMK SC2 SLP128

CYHM;2007-05-02 06:00;CYHM 020600Z 05011KT 15SM SCT120 06/02 A2990 RMK AC3 SLP130

CYHM;2007-05-02 07:00;CYHM 020700Z 05010KT 15SM FEW054 FEW120 05/02 A2991 RMK SC1AC2 SLP133

CYHM;2007-05-02 08:00;CYHM 020800Z 05006KT 15SM FEW070 FEW110 05/02 A2992 RMK AC1AC1 SLP139

CYHM;2007-05-02 09:00;CYHM 020900Z 03005KT 15SM FEW046 FEW094 04/02 A2994 RMK SC2AC1 SLP147

CYHM;2007-05-02 10:00;CYHM 021000Z 01005KT 15SM FEW072 FEW120 04/02 A2997 RMK AC2AC1 SLP156

CYHM;2007-05-02 11:00;CYHM 021100Z 36004KT 15SM FEW045 SCT087 BKN120 05/03 A3001 RMK SC1AC3AC1 SLP167

CYHM;2007-05-02 12:00;CYHM 021200Z 03005KT 15SM FEW087 SCT120 08/04 A3002 RMK AC2AC1 SLP172

CYHM;2007-05-02 13:00;CYHM 021300Z 04006KT 15SM FEW086 FEW110 10/03 A3004 RMK AC1AC1 SLP179

CYHM;2007-05-02 14:00;CYHM 021400Z 09005KT 15SM FEW100 FEW220 11/03 A3006 RMK AC1CI1 SLP184

CYHM;2007-05-02 15:00;CYHM 021500Z 03006KT 15SM FEW100 12/03 A3007 RMK AC1 AC TR SLP188

CYHM;2007-05-02 16:00;CYHM 021600Z 07006KT 15SM FEW032 FEW110 14/04 A3008 RMK CU1AC1 SLP191

CYHM;2007-05-02 17:00;CYHM 021700Z 35003KT 15SM FEW030 14/03 A3009 RMK CU1 SLP194

CYHM;2007-05-02 18:00;CYHM 021800Z 17003KT 15SM FEW038 15/03 A3009 RMK CU2 SC ASOCTD SLP192

CYHM;2007-05-02 19:00;CYHM 021900Z 07007KT 15SM FEW058 SCT083 15/M00 A3009 RMK CU1AC4 CU TR SLP194

CYHM;2007-05-02 20:00;CYHM 022000Z 06006KT 15SM FEW058 BKN082 BKN250 15/01 A3010 RMK CU1AC5CI1 CU TR CI TR SLP197

CYHM;2007-05-02 21:00;CYHM 022100Z 03002KT 15SM FEW060 SCT088 16/01 A3010 RMK CU1AC4 CU TR SLP199

CYHM;2007-05-02 22:00;CYHM 022200Z 36004KT 260V080 15SM FEW060 FEW084 FEW250 16/01 A3010 RMK CU1AC2CI1 CU TR CI TR SLP199

CYHM;2007-05-02 23:00;CYHM 022300Z 02006KT 15SM FEW084 FEW250 16/02 A3011 RMK AC1CI1 SLP201

CYHM;2007-05-03 00:00;CYHM 030000Z 03005KT 15SM FEW082 FEW250 13/03 A3013 RMK AC1CI1 SLP206

CYHM;2007-05-03 01:00;CYHM 030100Z 01004KT 15SM FEW080 FEW250 11/01 A3015 RMK AC1CI0 SLP213

CYHM;2007-05-03 02:00;CYHM 030200Z 03006KT 15SM FEW078 FEW250 11/00 A3018 RMK AC1CI1 AC TR CI TR SLP223

CYHM;2007-05-03 03:00;CYHM 030300Z 03008KT 15SM FEW210 11/01 A3019 RMK CI1 SLP225

CYHM;2007-05-03 04:00;CYHM 030400Z 02009KT 15SM FEW220 10/01 A3019 RMK CI2 SLP227

CYHM;2007-05-03 05:00;CYHM 030500Z 02005KT 15SM FEW220 09/M00 A3020 RMK CI2 SLP230

CYHM;2007-05-03 06:00;CYHM 030600Z 03012KT 15SM FEW210 10/M01 A3020 RMK CI1 SLP230

CYHM;2007-05-03 07:00;CYHM 030700Z 03009KT 15SM FEW210 09/M01 A3021 RMK CI2 SLP233

CYHM;2007-05-03 08:00;CYHM 030800Z 03009KT 15SM FEW200 08/M02 A3022 RMK CI1 SLP236

CYHM;2007-05-03 09:00;CYHM 030900Z 05008KT 15SM FEW200 08/M02 A3024 RMK CI2 SLP244

CYHM;2007-05-03 10:00;CYHM 031000Z 06010KT 15SM FEW210 06/M01 A3026 RMK CI2 SLP251

CYHM;2007-05-03 11:00;CYHM 031100Z 05011KT 15SM FEW220 06/M00 A3028 RMK CI1 SLP258

CYHM;2007-05-03 12:00;CYHM 031200Z 06014KT 15SM FEW220 08/M01 A3030 RMK CI1 SLP266

CYHM;2007-05-03 13:00;CYHM 031300Z 06016KT 15SM FEW220 09/M02 A3031 RMK CI1 SLP269

CYHM;2007-05-03 14:00;CYHM 031400Z 07016KT 15SM FEW220 10/M01 A3033 RMK CI1 SLP273

CYHM;2007-05-03 15:00;CYHM 031500Z 05017KT 15SM FEW220 10/M01 A3034 RMK CI1 SLP277

CYHM;2007-05-03 16:00;CYHM 031600Z 06014KT 15SM FEW220 12/M00 A3033 RMK CI1 SLP275

CYHM;2007-05-03 17:00;CYHM 031700Z 05014KT 15SM SKC 12/M01 A3032 RMK SLP272

CYHM;2007-05-03 18:00;CYHM 031800Z 04013KT 15SM SKC 12/M02 A3032 RMK SLP270

CYHM;2007-05-03 19:00;CYHM 031900Z 06013KT 15SM FEW250 13/M03 A3030 RMK CI1 SLP265

CYHM;2007-05-03 20:00;CYHM 032000Z 07012KT 15SM FEW250 14/M04 A3029 RMK CI1 SLP260

CYHM;2007-05-03 21:00;CYHM 032100Z 05012KT 15SM FEW250 14/M05 A3027 RMK CI1 SLP256

CYHM;2007-05-03 22:00;CYHM 032200Z 08013KT 15SM FEW250 14/M05 A3027 RMK CI1 SLP255

CYHM;2007-05-03 23:00;CYHM 032300Z 08006KT 15SM FEW250 13/M06 A3026 RMK CI1 SLP253

CYHM;2007-05-04 00:00;CYHM 040000Z 05006KT 15SM FEW250 11/M06 A3026 RMK CI1 SLP251

CYHM;2007-05-04 01:00;CYHM 040100Z 05005KT 15SM SKC 10/M07 A3026 RMK SLP250

CYHM;2007-05-04 02:00;CYHM 040200Z 05004KT 15SM SKC 09/M08 A3026 RMK SLP251

CYHM;2007-05-04 03:00;CYHM 040300Z 04005KT 15SM SKC 07/M05 A3026 RMK SLP251

CYHM;2007-05-04 04:00;CYHM 040400Z 03007KT 15SM FEW210 07/M07 A3027 RMK CI1 SLP255

CYHM;2007-05-04 05:00;CYHM 040500Z 04007KT 15SM FEW210 08/M07 A3027 RMK CI1 SLP257

CYHM;2007-05-04 06:00;CYHM 040600Z 05006KT 15SM SKC 07/M06 A3027 RMK SLP255

CYHM;2007-05-04 07:00;CYHM 040700Z 00000KT 15SM FEW210 06/M05 A3027 RMK CI1 SLP256

CYHM;2007-05-04 08:00;CYHM 040800Z 05005KT 15SM FEW210 05/M04 A3026 RMK CI1 SLP252

CYHM;2007-05-04 09:00;CYHM 040900Z 04004KT 15SM FEW210 06/M04 A3026 RMK CI1 SLP253

CYHM;2007-05-04 10:00;CYHM 041000Z 03007KT 15SM FEW210 05/M03 A3028 RMK CI1 CONTRAILS SLP258

CYHM;2007-05-04 11:00;CYHM 041100Z 03006KT 15SM FEW210 07/M03 A3029 RMK CI1 SLP261

CYHM;2007-05-04 12:00;CYHM 041200Z 04008KT 15SM SCT220 08/M01 A3031 RMK CI2 CONTRAIL SLP269

CYHM;2007-05-04 13:00;CYHM 041300Z 06008KT 15SM BKN220 11/M00 A3032 RMK CI2 CONTRAIL SLP273

CYHM;2007-05-04 14:00;CYHM 041400Z 05012KT 15SM SCT220 13/M03 A3033 RMK CI2 SLP274

CYHM;2007-05-04 15:00;CYHM 041500Z 05010KT 15SM BKN220 14/M02 A3033 RMK CI2 SLP275

CYHM;2007-05-04 16:00;CYHM 041600Z 06010KT 15SM FEW220 14/M02 A3032 RMK CI1 SLP271

CYHM;2007-05-04 17:00;CYHM 041700Z 07010KT 15SM FEW220 16/M02 A3030 RMK CI0 CI TR SLP266

CYHM;2007-05-04 18:00;CYHM 041800Z 06014KT 15SM FEW220 16/M01 A3029 RMK CI1 CI TR SLP259

CYHM;2007-05-04 19:00;CYHM 041900Z 07012KT 15SM FEW240 16/M02 A3027 RMK CI1 SLP253

CYHM;2007-05-04 20:00;CYHM 042000Z 07012KT 15SM FEW240 16/M03 A3024 RMK CI1 SLP244

CYHM;2007-05-04 21:00;CYHM 042100Z 08019KT 15SM FEW240 17/M03 A3023 RMK CI1 SLP239

CYHM;2007-05-04 22:00;CYHM 042200Z 07014KT 15SM FEW250 17/M02 A3021 RMK CI1 SLP233

CYHM;2007-05-04 23:00;CYHM 042300Z 08012KT 15SM FEW250 16/M02 A3019 RMK CI1 SLP228

CYHM;2007-05-05 00:00;CYHM 050000Z 08007KT 15SM FEW250 14/M01 A3020 RMK CI0 SLP229

CYHM;2007-05-05 01:00;CYHM 050100Z 03005KT 15SM FEW250 12/M01 A3019 RMK CI1 SLP226

CYHM;2007-05-05 02:00;CYHM 050200Z 03002KT 15SM SKC 11/M02 A3019 RMK SLP228

CYHM;2007-05-05 03:00;CYHM 050300Z 03007KT 15SM FEW210 09/M01 A3020 RMK CI1 SLP229

CYHM;2007-05-05 04:00;CYHM 050400Z 03007KT 15SM SKC 10/M02 A3019 RMK SLP227

CYHM;2007-05-05 05:00;CYHM 050500Z 04007KT 15SM SKC 09/M03 A3020 RMK SLP230

CYHM;2007-05-05 06:00;CYHM 050600Z 05005KT 15SM SKC 09/M03 A3019 RMK SLP225

CYHM;2007-05-05 07:00;CYHM 050700Z 04005KT 15SM SKC 08/M02 A3018 RMK SLP224

CYHM;2007-05-05 08:00;CYHM 050800Z 03007KT 15SM FEW210 07/M01 A3018 RMK CI1 SLP222

CYHM;2007-05-05 09:00;CYHM 050900Z 04007KT 15SM SKC 08/M01 A3017 RMK SLP221

CYHM;2007-05-05 10:00;CYHM 051000Z 04008KT 15SM FEW210 07/M01 A3018 RMK CI1 SLP222

CYHM;2007-05-05 11:00;CYHM 051100Z 04007KT 15SM FEW230 08/M01 A3019 RMK CI1 SLP226

CYHM;2007-05-05 12:00;CYHM 051200Z 04006KT 15SM FEW240 11/01 A3019 RMK CI1 SLP226

CYHM;2007-05-05 13:00;CYHM 051300Z 03011KT 15SM FEW240 12/00 A3020 RMK CI1 SLP231

CYHM;2007-05-05 14:00;CYHM 051400Z 07013KT 15SM FEW250 14/03 A3022 RMK CI0 SLP235

CYHM;2007-05-05 15:00;CYHM 051500Z 05015KT 15SM BKN250 13/01 A3022 RMK CI1 CONTRAILS SLP237

CYHM;2007-05-05 16:00;CYHM 051600Z 06016KT 15SM BKN250 14/01 A3024 RMK CI2 CONTRAILS SLP243

CYHM;2007-05-05 17:00;CYHM 051700Z 06017KT 15SM BKN250 14/M01 A3023 RMK CI2 CONTRAIL SLP242

CYHM;2007-05-05 18:00;CYHM 051800Z 06016KT 15SM BKN250 16/M01 A3023 RMK CI2 SLP241

CYHM;2007-05-05 19:00;CYHM 051900Z 07016KT 15SM FEW180 BKN250 17/M01 A3024 RMK AC1CI2 AC TR SLP243

CYHM;2007-05-05 20:00;CYHM 052000Z 06015KT 030V090 15SM BKN250 16/00 A3025 RMK CI2 SLP246

CYHM;2007-05-05 21:00;CYHM 052100Z 06015KT 15SM BKN240 16/M01 A3024 RMK CI2 SLP245

CYHM;2007-05-05 22:00;CYHM 052200Z 05014KT 15SM SCT240 15/M01 A3025 RMK CI2 SLP246

CYHM;2007-05-05 23:00;CYHM 052300Z 06012KT 15SM BKN250 14/M03 A3027 RMK CI2 SLP253

CYHM;2007-05-06 00:00;CYHM 060000Z 06009KT 15SM BKN250 12/M04 A3029 RMK CI2 CONTRAIL SLP262

CYHM;2007-05-06 01:00;CYHM 060100Z 04007KT 15SM SCT240 11/M04 A3031 RMK CI2 SLP267

CYHM;2007-05-06 02:00;CYHM 060200Z 05008KT 15SM FEW240 10/M04 A3033 RMK CI1 SLP275

CYHM;2007-05-06 03:00;CYHM 060300Z 05007KT 15SM SKC 08/M03 A3035 RMK SLP283

CYHM;2007-05-06 04:00;CYHM 060400Z 05013G19KT 15SM FEW210 10/M05 A3037 RMK CI1 SLP290

CYHM;2007-05-06 05:00;CYHM 060500Z 05014KT 15SM FEW210 10/M06 A3040 RMK CI1 SLP300

CYHM;2007-05-06 06:00;CYHM 060600Z 05013KT 15SM SKC 09/M06 A3042 RMK SLP303

CYHM;2007-05-06 07:00;CYHM 060700Z 05015KT 15SM FEW210 09/M07 A3042 RMK CI1 SLP306

CYHM;2007-05-06 08:00;CYHM 060800Z 04013G18KT 15SM FEW210 08/M06 A3045 RMK CI1 SLP313

CYHM;2007-05-06 09:00;CYHM 060900Z 07012KT 15SM FEW210 07/M07 A3046 RMK CI1 SLP317

CYHM;2007-05-06 10:00;CYHM 061000Z 06013KT 15SM FEW210 07/M07 A3048 RMK CI1 SLP324

CYHM;2007-05-06 11:00;CYHM 061100Z 06012KT 15SM FEW220 07/M05 A3050 RMK CI1 SLP332

CYHM;2007-05-06 12:00;CYHM 061200Z 07012KT 15SM SKC 08/M04 A3052 RMK SLP340

CYHM;2007-05-06 13:00;CYHM 061300Z 06017G22KT 15SM FEW240 08/M04 A3051 RMK CI1 SLP337

CYHM;2007-05-06 14:00;CYHM 061400Z 09019KT 15SM FEW250 09/M04 A3052 RMK CI1 SLP340

CYHM;2007-05-06 15:00;CYHM 061500Z 05014KT 15SM SKC 10/M03 A3054 RMK SLP347

CYHM;2007-05-06 16:00;CYHM 061600Z 06013KT 15SM SKC 11/M03 A3054 RMK SLP346

CYHM;2007-05-06 17:00;CYHM 061700Z 05014KT 15SM FEW250 11/M04 A3054 RMK CI1 SLP348

CYHM;2007-05-06 18:00;CYHM 061800Z 05016KT 15SM FEW250 12/M04 A3054 RMK CI1 SLP348

CYHM;2007-05-06 19:00;CYHM 061900Z 05015KT 020V080 15SM FEW220 12/M03 A3056 RMK CI1 SLP354

CYHM;2007-05-06 20:00;CYHM 062000Z 05015KT 15SM FEW230 12/M04 A3055 RMK CI1 SLP352

CYHM;2007-05-06 21:00;CYHM 062100Z 06015KT 15SM FEW230 12/M05 A3053 RMK CI1 SLP345

CYHM;2007-05-06 22:00;CYHM 062200Z 06014KT 15SM FEW240 12/M06 A3052 RMK CI1 SLP341

CYHM;2007-05-06 23:00;CYHM 062300Z 08012KT 15SM FEW240 11/M04 A3050 RMK CI1 SLP334

CYHM;2007-05-07 00:00;CYHM 070000Z 09008KT 15SM FEW240 09/M04 A3048 RMK CI1 CONTRAIL SLP326

CYHM;2007-05-07 01:00;CYHM 070100Z 08006KT 15SM FEW250 07/M04 A3046 RMK CI1 SLP320

CYHM;2007-05-07 02:00;CYHM 070200Z 06002KT 15SM FEW250 07/M04 A3047 RMK CI1 SLP324

CYHM;2007-05-07 03:00;CYHM 070300Z 00000KT 15SM FEW210 06/M04 A3048 RMK CI1 SLP327

CYHM;2007-05-07 04:00;CYHM 070400Z 00000KT 15SM FEW210 05/M04 A3046 RMK CI1 SLP322

CYHM;2007-05-07 05:00;CYHM 070500Z 04004KT 15SM SKC 05/M05 A3046 RMK SLP322

CYHM;2007-05-07 06:00;CYHM 070600Z 04004KT 15SM FEW210 05/M04 A3045 RMK CI1 SLP316

CYHM;2007-05-07 07:00;CYHM 070700Z 04005KT 15SM FEW210 04/M03 A3043 RMK CI1 SLP312

CYHM;2007-05-07 08:00;CYHM 070800Z 06005KT 15SM FEW210 03/M04 A3043 RMK CI1 SLP311

CYHM;2007-05-07 09:00;CYHM 070900Z 05005KT 15SM FEW210 03/M03 A3042 RMK CI1 SLP309

CYHM;2007-05-07 10:00;CYHM 071000Z 00000KT 15SM FEW210 03/M03 A3040 RMK CI2 CONTRAILS SLP302

CYHM;2007-05-07 11:00;CYHM 071100Z 00000KT 15SM FEW240 04/M01 A3042 RMK CI1 SLP307

CYHM;2007-05-07 12:00;CYHM 071200Z 00000KT 15SM FEW240 07/M01 A3042 RMK CI1 SLP307

CYHM;2007-05-07 13:00;CYHM 071300Z 00000KT 15SM FEW240 11/01 A3042 RMK CI1 SLP308

CYHM;2007-05-07 14:00;CYHM 071400Z 23009KT 15SM FEW240 14/02 A3043 RMK CI1 SLP310

CYHM;2007-05-07 15:00;CYHM 071500Z 21008KT 15SM FEW240 16/02 A3041 RMK CI1 CI TR SLP303

CYHM;2007-05-07 16:00;CYHM 071600Z 20006KT 15SM FEW240 18/01 A3039 RMK CI0 SLP297

CYHM;2007-05-07 17:00;CYHM 071700Z 19012KT 15SM FEW220 19/02 A3036 RMK CI1 SLP284

CYHM;2007-05-07 18:00;CYHM 071800Z 20010KT 15SM BKN210 19/01 A3034 RMK CI3 SLP278

CYHM;2007-05-07 19:00;CYHM 071900Z 19012KT 15SM BKN250 20/00 A3034 RMK CI3 CONTRAILS SLP277

CYHM;2007-05-07 20:00;CYHM 072000Z 20008KT 15SM BKN250 20/M01 A3032 RMK CI2 CONTRAILS SLP270

CYHM;2007-05-07 21:00;CYHM 072100Z 15007KT 15SM BKN250 20/M01 A3028 RMK CI2 SLP256

CYHM;2007-05-07 22:00;CYHM 072200Z 18010KT 15SM BKN250 21/01 A3025 RMK CI1 CONTRAILS SLP246

CYHM;2007-05-07 23:00;CYHM 072300Z 19008KT 15SM BKN250 20/02 A3025 RMK CI1 SLP247

CYHM;2007-05-08 00:00;CYHM 080000Z 18005KT 15SM FEW070 BKN250 19/02 A3023 RMK AC1CI1 AC TR SLP239

CYHM;2007-05-08 01:00;CYHM 080100Z 19005KT 15SM FEW070 FEW250 17/01 A3022 RMK AC1CI1 AC TR SLP237

CYHM;2007-05-08 02:00;CYHM 080200Z 17005KT 15SM FEW250 13/02 A3020 RMK CI1 CI TR SLP230

CYHM;2007-05-08 03:00;CYHM 080300Z 17007KT 15SM FEW250 12/01 A3019 RMK CI1 CI TR SLP225

CYHM;2007-05-08 04:00;CYHM 080400Z 19004KT 15SM FEW250 10/00 A3017 RMK CI1 CI TR SLP220

CYHM;2007-05-08 05:00;CYHM 080500Z 00000KT 15SM SKC 09/00 A3017 RMK SLP219

CYHM;2007-05-08 06:00;CYHM 080600Z 21004KT 15SM SKC 08/00 A3016 RMK SLP214

CYHM;2007-05-08 07:00;CYHM 080700Z 23005KT 15SM FEW250 06/01 A3015 RMK CI1 CI TR SLP212

CYHM;2007-05-08 08:00;CYHM 080800Z 21004KT 15SM FEW250 07/01 A3014 RMK CI1 CI TR SLP210

CYHM;2007-05-08 09:00;CYHM 080900Z 20010KT 15SM FEW250 10/02 A3013 RMK CI1 CI TR SLP204

CYHM;2007-05-08 10:00;CYHM 081000Z 21011KT 15SM BKN250 11/02 A3013 RMK CI1 SLP204

CYHM;2007-05-08 11:00;CYHM 081100Z 23012KT 15SM FEW240 12/02 A3014 RMK CI1 SLP208

CYHM;2007-05-08 12:00;CYHM 081200Z 22015KT 15SM FEW240 14/03 A3015 RMK CI1 SLP211

CYHM;2007-05-08 13:00;CYHM 081300Z 21016KT 15SM FEW240 16/03 A3014 RMK CI0 CONTRAIL SLP208

CYHM;2007-05-08 14:00;CYHM 081400Z 22010KT 15SM FEW240 18/04 A3013 RMK CI0 CONTRAIL SLP204

CYHM;2007-05-08 15:00;CYHM 081500Z 21010KT 15SM SCT220 20/05 A3013 RMK CI2 SLP203

CYHM;2007-05-08 16:00;CYHM 081600Z 23016KT 15SM FEW220 22/04 A3011 RMK CI1 SLP198

CYHM;2007-05-08 17:00;CYHM 081700Z 24016KT 15SM FEW210 23/05 A3009 RMK CI1 SLP191

CYHM;2007-05-08 18:00;CYHM 081800Z 23010KT 15SM FEW210 25/07 A3007 RMK CI1 SLP185

CYHM;2007-05-08 19:00;CYHM 081900Z 21014KT 15SM FEW180 FEW250 25/10 A3006 RMK AC1CI0 SLP181

CYHM;2007-05-08 20:00;CYHM 082000Z 20012KT 15SM FEW180 FEW250 26/11 A3005 RMK AC1CI0 CONTRAILS SLP176

CYHM;2007-05-08 21:00;CYHM 082100Z 22012KT 15SM FEW190 FEW250 25/11 A3003 RMK AC1CI0 AC TR SLP170

CYHM;2007-05-08 22:00;CYHM 082200Z 21012KT 15SM FEW190 FEW250 25/11 A3003 RMK AC1CI1 AC TR CI TR SLP168

CYHM;2007-05-08 23:00;CYHM 082300Z 22010KT 15SM FEW250 24/12 A3003 RMK CI1 CI TR CONTRAILS SLP168

CYHM;2007-05-09 00:00;CYHM 090000Z 23006KT 15SM FEW190 FEW250 21/13 A3003 RMK AC1CI1 CONTRAILS SLP169

CYHM;2007-05-09 01:00;CYHM 090100Z 24003KT 15SM FEW190 FEW250 20/12 A3004 RMK AC1CI1 SLP173

CYHM;2007-05-09 02:00;CYHM 090200Z 24004KT 15SM FEW250 18/12 A3005 RMK CI1 SLP177

CYHM;2007-05-09 03:00;CYHM 090300Z 00000KT 15SM FEW250 18/12 A3005 RMK CI1 SLP176

CYHM;2007-05-09 04:00;CYHM 090400Z 25003KT 15SM FEW250 18/12 A3004 RMK CI1 SLP173

CYHM;2007-05-09 05:00;CYHM 090500Z 00000KT 15SM SCT250 15/11 A3004 RMK CI1 SLP173

CYHM;2007-05-09 06:00;CYHM 090600Z 00000KT 15SM BKN250 14/11 A3003 RMK CI3 CC ASOCTD SLP169

CYHM;2007-05-09 07:00;CYHM 090700Z 00000KT 15SM BKN200 14/11 A3003 RMK CC5 SLP167

CYHM;2007-05-09 08:00;CYHM 090800Z 00000KT 15SM BKN190 14/11 A3003 RMK AC6 SLP169

CYHM;2007-05-09 09:00;CYHM 090900Z 00000KT 15SM BKN190 13/11 A3004 RMK AC6 SLP170

CYHM;2007-05-09 10:00;CYHM 091000Z 00000KT 10SM FEW190 BKN220 12/10 A3004 RMK AC2CI2 SLP170

CYHM;2007-05-09 11:00;CYHM 091100Z 20002KT 15SM FEW180 BKN220 13/10 A3005 RMK AC2CI2 SLP175

CYHM;2007-05-09 12:00;CYHM 091200Z 00000KT 15SM FEW140 BKN180 BKN220 15/11 A3005 RMK AC2AC3CI2 SLP177

CYHM;2007-05-09 13:00;CYHM 091300Z 25003KT 15SM FEW180 BKN220 18/12 A3005 RMK AC2CI3 CONTRAIL SLP177

CYHM;2007-05-09 14:00;CYHM 091400Z 16004KT 15SM FEW180 BKN220 22/14 A3004 RMK AC2CI4 SLP172

CYHM;2007-05-09 15:00;CYHM 091500Z 19003KT 15SM FEW180 BKN240 23/16 A3004 RMK AC1CI4 SLP170

CYHM;2007-05-09 16:00;CYHM 091600Z 18007KT 15SM FEW170 BKN220 25/16 A3004 RMK AC2CI3 SLP170

CYHM;2007-05-09 17:00;CYHM 091700Z 20009KT 15SM SCT160 OVC230 25/13 A3003 RMK AC3CI4 SLP166

CYHM;2007-05-09 18:00;CYHM 091800Z 19007KT 15SM BKN160 OVC220 24/10 A3001 RMK AS6CI2 SLP160

CYHM;2007-05-09 19:00;CYHM 091900Z 19007KT 15SM FEW063 SCT070 BKN190 OVC210 25/10 A2999 RMK SC2AC2AC2CI2 SLP154

CYHM;2007-05-09 20:00;CYHM 092000Z 19007KT 15SM FEW063 BKN190 BKN210 25/08 A2997 RMK SC2AC3CI2 SLP147

CYHM;2007-05-09 21:00;CYHM 092100Z 20011KT 15SM FEW060 SCT180 BKN210 26/06 A2994 RMK SC2AC2CI3 SLP138

CYHM;2007-05-09 22:00;CYHM 092200Z CCA 28005KT 15SM FEW055 SCT150 BKN180 BKN210 24/11 A2993 RMK SC2AC2AC2CI2 SLP135

CYHM;2007-05-09 22:32;CYHM 092232Z 36005KT 4SM HZ FEW055 SCT150 BKN180 BKN210 RMK SC2AC2AC2CI2

CYHM;2007-05-09 23:00;CYHM 092300Z 35006KT 3SM HZ FEW050 SCT150 BKN180 BKN210 20/13 A2992 RMK SC2AC2AC2CI2 SLP131

CYHM;2007-05-09 23:26;CYHM 092326Z 01005KT 12SM FEW050 SCT150 BKN180 BKN210 RMK SC2AC2AC2CI2

CYHM;2007-05-10 00:00;CYHM 100000Z 01004KT 10SM FEW050 SCT130 BKN180 BKN230 18/12 A2992 RMK SC2AC2AC2CI2 SLP132

CYHM;2007-05-10 01:00;CYHM 100100Z 35005KT 10SM FEW045 SCT130 BKN170 BKN230 17/12 A2992 RMK SC2AC2AC2CI2 HZ SLP131

CYHM;2007-05-10 02:00;CYHM 100200Z 32006KT 12SM FEW120 BKN170 BKN200 16/12 A2994 RMK AC2AC4CI1 SLP137

CYHM;2007-05-10 03:00;CYHM 100300Z 01003KT 8SM BKN160 BKN220 16/13 A2994 RMK AC6CI2 SLP139

CYHM;2007-05-10 04:00;CYHM 100400Z 01007KT 7SM FEW110 BKN160 OVC200 17/13 A2994 RMK AC2AC5CI2 HZ SLP136

CYHM;2007-05-10 05:00;CYHM 100500Z 35005KT 8SM BKN100 OVC140 17/13 A2993 RMK AC6AC2 SLP135

CYHM;2007-05-10 06:00;CYHM 100600Z 33008KT 10SM -SHRA FEW090 OVC140 17/14 A2992 RMK AC2AC6 SLP130

CYHM;2007-05-10 07:00;CYHM 100700Z 33011KT 10SM -SHRA OVC085 16/14 A2992 RMK AC8 SLP131

CYHM;2007-05-10 07:23;CYHM 100723Z 28005KT 8SM -TSRA SCT058CB OVC090 RMK CB3AC5 OCNL LTGCC

CYHM;2007-05-10 08:00;CYHM 100800Z 09007KT 7SM -TSRA FEW080 OVC190 15/14 A2991 RMK AC2AC6 CB TOPS EMBDD SLP125

CYHM;2007-05-10 08:17;CYHM 100817Z 07007KT 12SM -SHRA FEW090 OVC120 RETS RMK AC2AC6

CYHM;2007-05-10 09:00;CYHM 100900Z 00000KT 15SM FEW065 SCT130 14/12 A2990 RETS RMK SC2AC2 TCU ASOCTD SLP124

CYHM;2007-05-10 10:00;CYHM 101000Z CCA 29005KT 10SM BKN056 14/12 A2992 RMK SC5 TCU ASOCTD SLP130

CYHM;2007-05-10 11:00;CYHM 101100Z 28005KT 15SM BKN050 BKN085 14/13 A2994 RMK SC6AC1 SLP136

CYHM;2007-05-10 12:00;CYHM 101200Z 20004KT 3SM BR FEW051 BKN220 15/14 A2995 RMK SC2CI4 SLP143

CYHM;2007-05-10 12:41;CYHM 101241Z 19006KT 3/4SM BR BKN003 OVC220 RMK FG2SF4CI2

CYHM;2007-05-10 13:00;CYHM 101300Z 18006KT 1/2SM FG BKN003 OVC010 15/14 A2995 RMK FG3SF3SC2 SLP143

CYHM;2007-05-10 13:24;CYHM 101324Z 22006KT 1 1/2SM BR BKN003 OVC012 RMK FG2SF5SC2

CYHM;2007-05-10 13:49;CYHM 101349Z 23008KT 4SM BR BKN007 BKN018 RMK SF5SC2

CYHM;2007-05-10 14:00;CYHM 101400Z 22007KT 5SM BR OVC006 16/15 A2995 RMK SF8 SLP143

CYHM;2007-05-10 14:48;CYHM 101448Z 26008KT 6SM BR FEW010 BKN016 RMK SF2SC4

CYHM;2007-05-10 15:00;CYHM 101500Z 23010KT 5SM HZ FEW010 BKN018 BKN022 18/15 A2995 RMK SF2CU3SC2 SLP141

CYHM;2007-05-10 16:00;CYHM 101600Z 24006KT 10SM FEW018 BKN024 BKN230 20/14 A2994 RMK CU2SC3CI1 SLP138

CYHM;2007-05-10 17:00;CYHM 101700Z 25010KT 15SM SCT028 BKN045 21/14 A2993 RMK CU4SC2 TCU ASOCTD SLP135

CYHM;2007-05-10 18:00;CYHM 101800Z 27013KT 15SM SCT026 BKN042 21/14 A2991 RMK CU4SC2 TCU ASOCTD SLP129

CYHM;2007-05-10 19:00;CYHM 101900Z 25009KT 15SM FEW028 BKN055 BKN095 21/14 A2992 RMK CU2SC3AC2 SLP130

CYHM;2007-05-10 20:00;CYHM 102000Z 24010KT 200V280 15SM FEW032 SCT052 BKN100 22/14 A2991 RMK CU2SC2AC1 SLP126

CYHM;2007-05-10 21:00;CYHM 102100Z 29007KT 15SM FEW032 BKN045 22/14 A2990 RMK CU2SC3 SLP123

CYHM;2007-05-10 22:00;CYHM 102200Z 28010KT 15SM SCT037 SCT096 22/14 A2989 RMK CU3AC1 SLP122

CYHM;2007-05-10 23:00;CYHM 102300Z 27010KT 15SM FEW035 FEW095 22/13 A2988 RMK CU2AC1 SLP119

CYHM;2007-05-11 00:00;CYHM 110000Z 27006KT 15SM FEW032 FEW095 FEW250 20/13 A2988 RMK CU1AC1CI1 AC TR SLP119

CYHM;2007-05-11 01:00;CYHM 110100Z 27004KT 15SM FEW250 18/13 A2988 RMK CI0 SLP117

CYHM;2007-05-11 02:00;CYHM 110200Z 28004KT 15SM SKC 17/13 A2989 RMK SLP122

CYHM;2007-05-11 03:00;CYHM 110300Z 17005KT 15SM FEW230 15/12 A2989 RMK CI1 SLP122

CYHM;2007-05-11 04:00;CYHM 110400Z 23004KT 15SM FEW230 14/13 A2990 RMK CI1 SLP124

CYHM;2007-05-11 05:00;CYHM 110500Z 25005KT 10SM FEW230 15/13 A2990 RMK CI1 SLP125

CYHM;2007-05-11 06:00;CYHM 110600Z 25004KT 12SM PRFG FEW230 13/12 A2990 RMK CI2 SLP125

CYHM;2007-05-11 07:00;CYHM 110700Z 28005KT 15SM FEW250 14/13 A2989 RMK CI2 SLP122

CYHM;2007-05-11 08:00;CYHM 110800Z 27005KT 15SM SKC 13/12 A2989 RMK SLP122

CYHM;2007-05-11 09:00;CYHM 110900Z 26004KT 10SM MIFG FEW210 13/12 A2989 RMK CI1 SLP122

CYHM;2007-05-11 09:28;CYHM 110928Z 24003KT 1SM BR SKC RMK FG2 VIS VRB 3/4 - 11/4

CYHM;2007-05-11 09:40;CYHM 110940Z 25003KT 3/4SM BR SKC RMK FG3 VIS VRB 1/2 - 1

CYHM;2007-05-11 10:00;CYHM 111000Z 26004KT 1SM BR FEW090 12/12 A2991 RMK FG2AC1 VIS VRB 3/4 - 11/4 SLP126

CYHM;2007-05-11 10:12;CYHM 111012Z 26004KT 1/2SM FG SCT090 RMK FG2AC1 VIS VRB 1/4 - 3/4

CYHM;2007-05-11 11:00;CYHM 111100Z 25005KT 1/2SM FG SKC 11/11 A2992 RMK FG2 VIS VRB 1/4-3/4SM SLP131

CYHM;2007-05-11 11:24;CYHM 111124Z 24005KT 2 1/2SM BR SKC

CYHM;2007-05-11 12:00;CYHM 111200Z 28005KT 5SM BR SKC 15/14 A2993 RMK SLP135

CYHM;2007-05-11 13:00;CYHM 111300Z 27005KT 15SM FEW240 19/15 A2993 RMK CI1 SLP134

CYHM;2007-05-11 14:00;CYHM 111400Z 31007KT 15SM FEW240 21/14 A2994 RMK CI1 SLP137

CYHM;2007-05-11 15:00;CYHM 111500Z 30006KT 15SM FEW240 23/13 A2994 RMK CI0 SLP139

CYHM;2007-05-11 16:00;CYHM 111600Z 29006KT 15SM FEW240 25/12 A2995 RMK CI1 SLP140

CYHM;2007-05-11 17:00;CYHM 111700Z 05007KT 15SM FEW038 FEW240 25/14 A2994 RMK CU1CI1 CU TR CI TR SLP138

CYHM;2007-05-11 18:00;CYHM 111800Z 03008KT 15SM FEW038 SCT220 24/15 A2995 RMK CU1CI2 SLP140

CYHM;2007-05-11 19:00;CYHM 111900Z 03010KT 15SM FEW038 FEW088 BKN230 23/14 A2996 RMK CU1AC1CI2 AC TR SLP143

CYHM;2007-05-11 20:00;CYHM 112000Z 04010KT 15SM FEW036 FEW090 BKN230 23/14 A2996 RMK CU2AC1CI1 SLP144

CYHM;2007-05-11 21:00;CYHM 112100Z 07012KT 15SM FEW110 BKN250 22/14 A2997 RMK AC2CI1 SLP150

CYHM;2007-05-11 22:00;CYHM 112200Z 04009KT 15SM FEW068 SCT120 BKN250 20/13 A2998 RMK AC1AC2CI2 SLP153

CYHM;2007-05-11 23:00;CYHM 112300Z 05010KT 15SM BKN054 BKN110 BKN250 19/12 A2999 RMK SC5AC2CI1 SLP155

CYHM;2007-05-12 00:00;CYHM 120000Z 01012KT 15SM FEW068 SCT110 BKN250 19/11 A3001 RMK AC2AC2CI2 SLP161

CYHM;2007-05-12 01:00;CYHM 120100Z 01010KT 15SM BKN070 BKN120 BKN250 17/11 A3002 RMK AC5AC1CI2 SLP166

CYHM;2007-05-12 02:00;CYHM 120200Z 36013KT 15SM FEW250 16/08 A3004 RMK CI1 SLP173

CYHM;2007-05-12 03:00;CYHM 120300Z 01011KT 15SM FEW250 15/04 A3005 RMK CI1 SLP174

CYHM;2007-05-12 04:00;CYHM 120400Z 02011KT 15SM FEW080 FEW250 14/04 A3006 RMK AC1CI1 SLP177

CYHM;2007-05-12 05:00;CYHM 120500Z 03013KT 15SM FEW210 13/03 A3007 RMK CI1 SLP180

CYHM;2007-05-12 06:00;CYHM 120600Z 04013KT 15SM FEW210 12/03 A3007 RMK CI1 SLP181

CYHM;2007-05-12 07:00;CYHM 120700Z 05016G21KT 15SM FEW070 11/03 A3008 RMK AC1 SLP186

CYHM;2007-05-12 08:00;CYHM 120800Z 05017KT 15SM FEW035 FEW220 10/01 A3008 RMK SC1CI1 SLP187

CYHM;2007-05-12 09:00;CYHM 120900Z 05015KT 15SM FEW095 FEW200 09/01 A3010 RMK AC1CI1 SLP193

CYHM;2007-05-12 10:00;CYHM 121000Z 05014G19KT 15SM FEW075 SCT200 09/01 A3010 RMK AC2CI1 SLP196

CYHM;2007-05-12 11:00;CYHM 121100Z 05017KT 15SM FEW190 BKN250 09/01 A3012 RMK AC2CI2 SLP200

CYHM;2007-05-12 12:00;CYHM 121200Z 06019G26KT 15SM FEW170 BKN250 09/00 A3013 RMK AC2CI1 SLP205

CYHM;2007-05-12 13:00;CYHM 121300Z 04019G24KT 15SM BKN160 BKN250 09/00 A3014 RMK AC6CI1 SLP208

CYHM;2007-05-12 14:00;CYHM 121400Z 09019KT 15SM SCT170 BKN250 09/M00 A3016 RMK AC4CI1 SLP216

CYHM;2007-05-12 15:00;CYHM 121500Z 04018KT 010V080 15SM BKN140 BKN250 08/M00 A3016 RMK AC6CI1 SLP217

CYHM;2007-05-12 16:00;CYHM 121600Z 05020KT 15SM BKN150 BKN250 10/00 A3016 RMK AC6CI1 VIRGA SLP215

CYHM;2007-05-12 17:00;CYHM 121700Z 06018KT 15SM BKN130 09/00 A3016 RMK AC7 SLP216

CYHM;2007-05-12 18:00;CYHM 121800Z 06012KT 15SM BKN130 10/01 A3016 RMK AC7 SLP217

CYHM;2007-05-12 19:00;CYHM 121900Z 05014KT 010V080 15SM FEW080 BKN110 11/M00 A3016 RMK AC2AC4 SLP216

CYHM;2007-05-12 20:00;CYHM 122000Z 05009KT 15SM FEW060 BKN110 12/01 A3015 RMK SC2AC4 SLP212

CYHM;2007-05-12 21:00;CYHM 122100Z 05008KT 15SM FEW070 BKN120 13/02 A3014 RMK AC2AC3 VIRGA SLP209

CYHM;2007-05-12 22:00;CYHM 122200Z 05008KT 15SM FEW070 SCT110 14/02 A3013 RMK AC1AC2 SLP206

CYHM;2007-05-12 23:00;CYHM 122300Z 04009KT 15SM FEW070 FEW120 13/00 A3013 RMK AC1AC1 SLP208

CYHM;2007-05-13 00:00;CYHM 130000Z 04007KT 15SM FEW120 11/01 A3015 RMK AC1 SLP214

CYHM;2007-05-13 01:00;CYHM 130100Z 02008KT 15SM FEW250 09/M00 A3017 RMK CI0 SLP219

CYHM;2007-05-13 02:00;CYHM 130200Z 02007KT 15SM SKC 09/M02 A3020 RMK SLP229

CYHM;2007-05-13 03:00;CYHM 130300Z 35009KT 15SM SKC 08/M04 A3022 RMK SLP238

CYHM;2007-05-13 04:00;CYHM 130400Z 35013KT 15SM FEW220 08/M06 A3023 RMK CI1 SLP241

CYHM;2007-05-13 05:00;CYHM 130500Z 01012KT 15SM SKC 08/M07 A3025 RMK SLP248

CYHM;2007-05-13 06:00;CYHM 130600Z 02013KT 15SM FEW210 08/M06 A3026 RMK CI1 SLP251

CYHM;2007-05-13 07:00;CYHM 130700Z 03012KT 15SM SKC 07/M06 A3026 RMK SLP253

CYHM;2007-05-13 08:00;CYHM 130800Z 03011KT 15SM FEW210 07/M06 A3027 RMK CI1 SLP255

CYHM;2007-05-13 09:00;CYHM 130900Z 04008KT 15SM FEW210 06/M05 A3028 RMK CI1 SLP259

CYHM;2007-05-13 10:00;CYHM 131000Z 03005KT 15SM FEW200 04/M05 A3030 RMK CI1 SLP265

CYHM;2007-05-13 11:00;CYHM 131100Z 03006KT 15SM SKC 06/M05 A3033 RMK SLP274

CYHM;2007-05-13 12:00;CYHM 131200Z 04007KT 15SM SKC 08/M05 A3034 RMK SLP279

CYHM;2007-05-13 13:00;CYHM 131300Z 05010KT 15SM SKC 09/M05 A3036 RMK SLP285

CYHM;2007-05-13 14:00;CYHM 131400Z 04010KT 15SM SKC 11/M05 A3037 RMK SLP290

CYHM;2007-05-13 15:00;CYHM 131500Z 06010KT 360V110 15SM SKC 11/M05 A3039 RMK SLP295

CYHM;2007-05-13 16:00;CYHM 131600Z 07008G15KT 360V110 15SM SKC 12/M06 A3037 RMK SLP290

CYHM;2007-05-13 17:00;CYHM 131700Z 04008KT 010V130 15SM FEW250 13/M05 A3037 RMK CI1 SLP289

CYHM;2007-05-13 18:00;CYHM 131800Z 07002KT 15SM BKN250 13/M04 A3035 RMK CI2 WND L/V SLP282

CYHM;2007-05-13 19:00;CYHM 131900Z 09003KT 15SM SCT250 14/M04 A3033 RMK CI2 WND L/V SLP275

CYHM;2007-05-13 20:00;CYHM 132000Z 09003KT 15SM SCT250 15/M04 A3031 RMK CI2 WND L/V SLP268

CYHM;2007-05-13 21:00;CYHM 132100Z 11003KT 15SM SCT250 16/M04 A3026 RMK CI2 WND L/V SLP253

CYHM;2007-05-13 22:00;CYHM 132200Z 15003KT 15SM FEW080 SCT220 16/M03 A3026 RMK AC1CI2 AC TR WND L/V SLP252

CYHM;2007-05-13 23:00;CYHM 132300Z 17005KT 130V210 15SM SCT230 15/M04 A3025 RMK CI2 SLP249

CYHM;2007-05-14 00:00;CYHM 140000Z 17009KT 15SM FEW230 13/M02 A3025 RMK CI2 SLP248

CYHM;2007-05-14 01:00;CYHM 140100Z 20007KT 15SM FEW220 09/M03 A3027 RMK CI1 SLP254

CYHM;2007-05-14 02:00;CYHM 140200Z 21005KT 15SM FEW220 08/M03 A3027 RMK CI1 CI TR SLP255

CYHM;2007-05-14 03:00;CYHM 140300Z 00000KT 15SM SKC 08/M04 A3028 RMK SLP257

CYHM;2007-05-14 04:00;CYHM 140400Z 25004KT 15SM SKC 06/M03 A3028 RMK SLP257

CYHM;2007-05-14 05:00;CYHM 140500Z 00000KT 15SM FEW210 05/M03 A3026 RMK CI1 SLP252

CYHM;2007-05-14 06:00;CYHM 140600Z 00000KT 15SM FEW200 06/M03 A3025 RMK CI1 SLP247

CYHM;2007-05-14 07:00;CYHM 140700Z 00000KT 15SM FEW210 04/M03 A3024 RMK CI1 SLP246

CYHM;2007-05-14 08:00;CYHM 140800Z 00000KT 15SM FEW200 04/M03 A3023 RMK CI2 SLP243

CYHM;2007-05-14 09:00;CYHM 140900Z 00000KT 15SM BKN180 05/M01 A3023 RMK AC6 SLP241

CYHM;2007-05-14 10:00;CYHM 141000Z 00000KT 15SM FEW150 SCT180 BKN220 04/M01 A3023 RMK AC2AC2CI2 SLP241

CYHM;2007-05-14 11:00;CYHM 141100Z 00000KT 15SM FEW140 OVC180 06/01 A3024 RMK AC2AS6 SLP245

CYHM;2007-05-14 12:00;CYHM 141200Z 00000KT 15SM FEW064 BKN140 OVC220 08/03 A3027 RMK SC2AS5CI2 SLP254

CYHM;2007-05-14 13:00;CYHM 141300Z 19004KT 15SM FEW064 OVC100 10/00 A3026 RMK SC1AC7 SLP252

CYHM;2007-05-14 14:00;CYHM 141400Z 23008KT 15SM BKN098 OVC160 11/01 A3025 RMK AC5AS3 SLP249

CYHM;2007-05-14 15:00;CYHM 141500Z 22005KT 15SM BKN075 OVC100 12/02 A3026 RMK AC6AC2 SLP251

CYHM;2007-05-14 16:00;CYHM 141600Z 20010KT 15SM BKN053 OVC075 13/02 A3023 RMK SC5AC3 SLP243

CYHM;2007-05-14 17:00;CYHM 141700Z 22007KT 15SM SCT055 BKN077 16/04 A3021 RMK SC3AC4 SLP235

CYHM;2007-05-14 18:00;CYHM 141800Z 19008KT 15SM FEW098 BKN230 18/02 A3017 RMK AC2CI2 SLP220

CYHM;2007-05-14 19:00;CYHM 141900Z 20012G20KT 15SM FEW050 FEW090 BKN250 18/04 A3014 RMK SC2AC1CI1 SLP210

CYHM;2007-05-14 20:00;CYHM 142000Z 19012KT 15SM BKN064 BKN250 16/02 A3011 RMK SC7CI1 CI TR SLP200

CYHM;2007-05-14 21:00;CYHM 142100Z 22012KT 15SM BKN060 BKN250 16/02 A3009 RMK SC7CI1 CI TR SLP193

CYHM;2007-05-14 22:00;CYHM 142200Z 20010KT 15SM BKN060 BKN120 BKN250 17/03 A3007 RMK SC5AC2CI1 CI TR SLP186

CYHM;2007-05-14 23:00;CYHM 142300Z 21010KT 15SM BKN065 BKN140 17/00 A3005 RMK SC6AC1 SLP179

CYHM;2007-05-15 00:00;CYHM 150000Z 21008KT 15SM FEW064 BKN250 16/02 A3002 RMK SC2CI1 CONTRAILS SLP170

CYHM;2007-05-15 01:00;CYHM 150100Z 19008KT 15SM SCT060 BKN070 OVC250 15/02 A3000 RMK SC3AC4CI1 SLP162

CYHM;2007-05-15 02:00;CYHM 150200Z 19011KT 15SM FEW074 BKN250 14/02 A2997 RMK AC1CI2 SLP154

CYHM;2007-05-15 03:00;CYHM 150300Z 19008KT 15SM FEW250 14/02 A2995 RMK CI1 SLP145

CYHM;2007-05-15 04:00;CYHM 150400Z 19013KT 15SM FEW250 14/04 A2991 RMK CI1 SLP133

CYHM;2007-05-15 05:00;CYHM 150500Z 21014KT 15SM FEW250 16/06 A2989 RMK CI1 SLP126

CYHM;2007-05-15 06:00;CYHM 150600Z 21015KT 15SM FEW090 BKN160 17/06 A2988 RMK AC1AC4 SLP117

CYHM;2007-05-15 07:00;CYHM 150700Z 21010KT 15SM FEW160 SCT250 16/05 A2984 RMK AC1CI1 SLP105

CYHM;2007-05-15 08:00;CYHM 150800Z 22012KT 15SM FEW084 BKN250 17/04 A2982 RMK AC2CI2 SLP097

CYHM;2007-05-15 09:00;CYHM 150900Z 23015G24KT 15SM FEW080 BKN250 19/05 A2981 RMK AC2CI2 LTNG N-N/W CB ASOCTD SLP094

CYHM;2007-05-15 09:34;CYHM 150934Z 23015KT 15SM TS BKN100 OVC250 RMK AC6CI1 LTNG N-N/W CB ASOCTD

CYHM;2007-05-15 10:00;CYHM 151000Z 23012G18KT 15SM TS SCT064 BKN080 BKN160 OVC250 19/06 A2981 RMK SC3AC3AC1CI1 LTNG CB ASOCTD SLP094

CYHM;2007-05-15 11:00;CYHM 151100Z 21015KT 15SM FEW038 BKN100 BKN160 BKN220 18/07 A2981 RMK SC2AC2AC1CI1 TCU ASOCTD SLP096

CYHM;2007-05-15 12:00;CYHM 151200Z 25014KT 15SM FEW045 FEW055 BKN220 18/08 A2981 RMK CU1SC1CI5 CU TR SLP095

CYHM;2007-05-15 13:00;CYHM 151300Z 23020KT 15SM FEW100 BKN220 20/10 A2981 RMK AC1CI2 SLP093

CYHM;2007-05-15 14:00;CYHM 151400Z 26020KT 15SM FEW180 BKN220 22/11 A2978 RMK AC1CI2 SLP086

CYHM;2007-05-15 15:00;CYHM 151500Z 23020KT 15SM FEW040 FEW240 23/12 A2978 RMK CU1CI1 CU TR SLP083

CYHM;2007-05-15 16:00;CYHM 151600Z 24016G22KT 15SM BKN220 25/13 A2979 RMK CI2 SLP088

CYHM;2007-05-15 17:00;CYHM 151700Z 23018KT 15SM FEW038 FEW240 27/13 A2978 RMK CU1CI1 CU TR SLP082

CYHM;2007-05-15 18:00;CYHM 151800Z 23014KT 15SM FEW045 FEW240 28/14 A2976 RMK CU1CI1 CU TR SLP076

CYHM;2007-05-15 19:00;CYHM 151900Z 23014G21KT 15SM FEW055 SCT250 28/14 A2974 RMK CU1CI1 CU TR CONTRAILS SLP069

CYHM;2007-05-15 20:00;CYHM 152000Z 23015G23KT 15SM FEW056 BKN250 28/14 A2972 RMK CU1CI1 CU TR CONTRAILS SLP062

CYHM;2007-05-15 21:00;CYHM 152100Z 24014G24KT 15SM SCT250 28/15 A2969 RMK CI1 SLP051

CYHM;2007-05-15 21:50;CYHM 152150Z 31010KT 15SM TS VCSH BKN064CB OVC240 RMK CB6CI2 LTNG

CYHM;2007-05-15 22:00;CYHM 152200Z 28014KT 12SM -TSRA BKN063CB OVC240 24/14 A2971 RMK CB6CI1 LTNG SLP056

CYHM;2007-05-15 22:39;CYHM 152239Z 29008KT 15SM TS SCT065CB BKN080 OVC230 RMK CB4AC3CI1

CYHM;2007-05-15 23:00;CYHM 152300Z CCA 28012KT 15SM TS SCT062CB BKN080 OVC140 20/15 A2970 RMK CB3AC4AC1 SLP055

CYHM;2007-05-15 23:09;CYHM 152309Z 28018G34KT 12SM -TSRA SCT062CB BKN080 OVC120 RMK CB4AC3AC1 LTNG

CYHM;2007-05-15 23:17;CYHM 152317Z 26020G37KT 2SM TSRA BKN060CB OVC120 RMK CB7AC1 LTNG

CYHM;2007-05-16 00:00;CYHM 160000Z 30014KT 3SM TSRA BKN060CB OVC100 18/15 A2972 RMK CB7AC1 LTNG SLP064

CYHM;2007-05-16 01:00;CYHM 160100Z 04006KT 9SM -TSRA FEW060CB BKN080 OVC140 18/15 A2967 RMK CB2AC6AC1 LTNG SLP046

CYHM;2007-05-16 01:33;CYHM 160133Z 02003KT 15SM BKN074 BKN090 OVC140 RETS RMK AC5AC2AC1 LTNG CB ASOCTD

CYHM;2007-05-16 02:00;CYHM 160200Z 00000KT 15SM TS BKN068 OVC110 17/15 A2969 RMK AC6AC2 CB ASOCTD LTNG SLP055

CYHM;2007-05-16 02:37;CYHM 160237Z 24003KT 6SM -TSRA BR BKN056 BKN080 OVC120 RMK SC6AC2AC1 CB ASOCTD

CYHM;2007-05-16 03:00;CYHM 160300Z 22004KT 5SM -TSRA BR BKN042 BKN064 OVC084 17/15 A2973 RMK SC6SC2AC1 CB ASOCTD SLP066

CYHM;2007-05-16 03:41;CYHM 160341Z CCA 27005KT 5SM -SHRA BR SCT006 BKN030 OVC100 RETS RMK SF4SC3AC1

CYHM;2007-05-16 04:00;CYHM 160400Z 00000KT 5SM -SHRA BR SCT006 BKN078 OVC110 17/16 A2968 RETS RMK SF3AC3AC2 SLP050

CYHM;2007-05-16 05:00;CYHM 160500Z 18005KT 5SM -SHRA BR BKN006 BKN100 OVC120 17/16 A2966 RMK SF5AC2AC1 SLP042

CYHM;2007-05-16 06:00;CYHM 160600Z 19009KT 6SM BR FEW004 BKN026 OVC100 16/15 A2965 RMK SF2SC5AC1 SLP037

CYHM;2007-05-16 07:00;CYHM 160700Z 20012KT 5SM -SHRA BR BKN004 OVC024 15/14 A2963 RMK SF6SC2 SLP032

CYHM;2007-05-16 08:00;CYHM 160800Z 23012KT 5SM -SHRA BR BKN004 OVC012 15/14 A2963 RMK SF6SC2 SLP031

CYHM;2007-05-16 09:00;CYHM 160900Z 28008KT 6SM -SHRA BR BKN007 OVC026 14/13 A2963 RMK SF6SC2 SLP031

CYHM;2007-05-16 09:32;CYHM 160932Z 28007KT 8SM BKN007 OVC034 RMK SC6SC2 SF ASOCTD

CYHM;2007-05-16 09:54;CYHM 160954Z 29009KT 8SM SCT008 BKN028 OVC052 RMK SF3SC4SC1

CYHM;2007-05-16 10:00;CYHM 161000Z 29009KT 8SM SCT008 BKN028 OVC052 14/12 A2964 RMK SF3SC4SC1 SLP035

CYHM;2007-05-16 11:00;CYHM 161100Z 29014KT 8SM BKN010 OVC025 13/11 A2967 RMK SF6SC2 SLP043

CYHM;2007-05-16 12:00;CYHM 161200Z 28012KT 15SM SCT009 BKN013 OVC120 13/11 A2968 RMK SF3SC4AC1 SLP052

CYHM;2007-05-16 13:00;CYHM 161300Z 28012KT 15SM OVC010 12/10 A2971 RMK SC8 SLP062

CYHM;2007-05-16 14:00;CYHM 161400Z 30014KT 15SM OVC011 12/10 A2974 RMK SC8 SLP070

CYHM;2007-05-16 15:00;CYHM 161500Z 29007KT 15SM OVC015 13/10 A2974 RMK SC8 SLP072

CYHM;2007-05-16 16:00;CYHM 161600Z 27009KT 15SM BKN019 OVC024 14/10 A2975 RMK SC6SC2 SLP076

CYHM;2007-05-16 17:00;CYHM 161700Z 26008KT 15SM FEW017 BKN022 OVC028 14/10 A2977 RMK CU2SC5SC2 SLP081

CYHM;2007-05-16 18:00;CYHM 161800Z 29008KT 15SM FEW017 BKN021 BKN026 14/09 A2978 RMK CU2SC4SC1 SLP084

CYHM;2007-05-16 19:00;CYHM 161900Z 28011KT 15SM FEW018 BKN028 14/10 A2978 RMK SF2SC6 SLP085

CYHM;2007-05-16 20:00;CYHM 162000Z 29011KT 15SM FEW022 BKN034 14/10 A2978 RMK SC2SC5 SF ASOCTD SLP087

CYHM;2007-05-16 21:00;CYHM 162100Z 29010KT 15SM FEW024 BKN036 14/09 A2980 RMK SC2SC6 SF ASOCTD SLP092

CYHM;2007-05-16 22:00;CYHM 162200Z 27012KT 15SM FEW022 OVC030 13/08 A2983 RMK SC2SC6 SF ASOCTD SLP102

CYHM;2007-05-16 23:00;CYHM 162300Z 29010KT 10SM OVC026 12/08 A2984 RMK SC8 SLP107

CYHM;2007-05-17 00:00;CYHM 170000Z 36003KT 3SM HZ FEW010 BKN023 OVC034 10/08 A2988 RMK SF1SC6SC2 SLP120

CYHM;2007-05-17 00:39;CYHM 170039Z 03005KT 2 1/2SM BR SCT004 OVC023 RMK SF4SC4

CYHM;2007-05-17 01:00;CYHM 170100Z 03007KT 2SM BR BKN004 OVC024 08/07 A2990 RMK SF6SC2 SLP127

CYHM;2007-05-17 01:45;CYHM 170145Z 03007KT 2SM -SHRA BR OVC004 RMK SF8

CYHM;2007-05-17 02:00;CYHM 170200Z 04010KT 2SM -SHRA BR OVC004 07/06 A2993 RMK SF8 SLP139

CYHM;2007-05-17 03:00;CYHM 170300Z 04007KT 3SM -SHRA BR OVC005 07/06 A2995 RMK SF8 VIS VRB 2- 4 CIG RAG SLP146

CYHM;2007-05-17 04:00;CYHM 170400Z 05009KT 2SM -SHRA BR OVC006 07/06 A2996 RMK FG1SF7 CIG RAG SLP149

CYHM;2007-05-17 05:00;CYHM 170500Z 06010KT 2SM -SHRA BR OVC005 07/06 A2996 RMK FG1SF7 CIG RAG SLP150

CYHM;2007-05-17 06:00;CYHM 170600Z 05010KT 2SM -SHRA BR OVC005 07/06 A2998 RMK FG1SF7 CIG RAG SLP156

CYHM;2007-05-17 06:50;CYHM 170650Z 06010KT 5SM -RA BR OVC005 RMK SF8 CIG RAG

CYHM;2007-05-17 07:00;CYHM 170700Z 06010KT 6SM -RA BR OVC005 06/05 A2999 RMK SF8 CIG RAG SLP160

CYHM;2007-05-17 08:00;CYHM 170800Z 05010KT 2SM -RA BR OVC005 05/05 A3001 RMK FG1SF7 CIG RAG SLP167

CYHM;2007-05-17 08:28;CYHM 170828Z 05012KT 6SM -RA BR OVC006 RMK SF8

CYHM;2007-05-17 09:00;CYHM 170900Z 06009KT 4SM -RA BR OVC005 05/04 A3002 RMK SF8 SLP171

CYHM;2007-05-17 09:40;CYHM 170940Z 04011KT 5SM -RA BR FEW005 OVC013 RMK SF2SC6

CYHM;2007-05-17 10:00;CYHM 171000Z 04011KT 3SM -RA BR FEW007 OVC018 05/04 A3005 RMK SF2SC6 VIS VRB 2 - 4 SLP181

CYHM;2007-05-17 11:00;CYHM 171100Z 05008KT 15SM FEW018 BKN051 BKN068 06/04 A3008 RMK CU1SC5AC2 SLP191

CYHM;2007-05-17 12:00;CYHM 171200Z 05012KT 15SM BKN011 OVC050 06/04 A3010 RMK SF6SC2 SLP199

CYHM;2007-05-17 13:00;CYHM 171300Z 05012KT 15SM BKN017 OVC053 07/05 A3013 RMK SC6SC2 SLP209

CYHM;2007-05-17 14:00;CYHM 171400Z 06010KT 15SM SCT015 BKN042 BKN070 07/04 A3016 RMK CU3SC2AC2 SLP218

CYHM;2007-05-17 15:00;CYHM 171500Z 05014KT 15SM FEW015 SCT035 BKN076 09/04 A3017 RMK CU2SC2AC3 SLP221

CYHM;2007-05-17 16:00;CYHM 171600Z 04009KT 15SM FEW020 SCT086 BKN220 10/04 A3017 RMK CU2AC2CI2 SC ASOCTD SLP223

CYHM;2007-05-17 17:00;CYHM 171700Z 06010KT 15SM FEW038 BKN210 11/03 A3018 RMK CU2CI3 SLP226

CYHM;2007-05-17 18:00;CYHM 171800Z 09012KT 15SM FEW036 FEW065 BKN210 12/04 A3019 RMK CU2SC1CI2 SLP227

CYHM;2007-05-17 19:00;CYHM 171900Z 08012KT 050V120 15SM FEW040 BKN078 BKN250 14/03 A3019 RMK CU1AC4CI0 SLP227

CYHM;2007-05-17 20:00;CYHM 172000Z 07011KT 010V110 15SM FEW048 BKN072 12/M00 A3020 RMK CU1AC6 SLP230

CYHM;2007-05-17 21:00;CYHM 172100Z 07008KT 030V120 15SM FEW048 BKN075 12/00 A3020 RMK CU1AC6 SLP230

CYHM;2007-05-17 22:00;CYHM 172200Z 05007KT 010V090 15SM FEW045 BKN078 12/01 A3021 RMK SC1AC7 SC TR SLP234

CYHM;2007-05-17 23:00;CYHM 172300Z 07005KT 15SM FEW044 BKN084 12/01 A3021 RMK SC1AC7 SC TR SLP234

CYHM;2007-05-18 00:00;CYHM 180000Z 05007KT 15SM SCT090 BKN250 11/01 A3022 RMK AC4CI0 SLP240

CYHM;2007-05-18 01:00;CYHM 180100Z 03007KT 15SM FEW090 08/01 A3024 RMK AC1 SLP245

CYHM;2007-05-18 02:00;CYHM 180200Z 04007KT 15SM FEW090 07/02 A3025 RMK AC1 SLP250

CYHM;2007-05-18 03:00;CYHM 180300Z 04007KT 15SM FEW060 06/03 A3026 RMK SC2 SLP254

CYHM;2007-05-18 04:00;CYHM 180400Z 04005KT 15SM SKC 05/02 A3026 RMK SLP255

CYHM;2007-05-18 05:00;CYHM 180500Z 03007KT 15SM FEW200 05/03 A3026 RMK CI1 SLP255

CYHM;2007-05-18 06:00;CYHM 180600Z CCA 02005KT 15SM FEW200 05/03 A3026 RMK CI1 SLP252

CYHM;2007-05-18 07:00;CYHM 180700Z 03005KT 15SM FEW210 05/03 A3026 RMK CI1 SLP251

CYHM;2007-05-18 08:00;CYHM 180800Z 03003KT 15SM FEW200 05/03 A3026 RMK CI1 SLP252

CYHM;2007-05-18 09:00;CYHM 180900Z 02004KT 15SM FEW210 03/02 A3026 RMK CI2 SLP253

CYHM;2007-05-18 10:00;CYHM 181000Z 00000KT 15SM FEW200 04/02 A3026 RMK CI1 SLP252

CYHM;2007-05-18 11:00;CYHM 181100Z 01004KT 15SM SKC 05/03 A3027 RMK SLP257

CYHM;2007-05-18 12:00;CYHM 181200Z 03002KT 15SM SKC 07/05 A3029 RMK SLP262

CYHM;2007-05-18 13:00;CYHM 181300Z 09002KT 15SM SKC 09/04 A3030 RMK SLP264

CYHM;2007-05-18 14:00;CYHM 181400Z 01002KT 15SM FEW028 11/04 A3029 RMK CU1 CU TR SLP263

CYHM;2007-05-18 15:00;CYHM 181500Z 07003KT 15SM FEW028 12/04 A3028 RMK CU1 SLP259

CYHM;2007-05-18 16:00;CYHM 181600Z 06003KT 15SM FEW032 13/04 A3027 RMK CU1 SLP256

CYHM;2007-05-18 17:00;CYHM 181700Z 35007KT 15SM FEW038 14/04 A3025 RMK CU1 CU TR SLP250

CYHM;2007-05-18 18:00;CYHM 181800Z 04007KT 15SM FEW035 16/03 A3023 RMK CU1 SLP241

CYHM;2007-05-18 19:00;CYHM 181900Z 06007KT 340V090 15SM FEW060 16/00 A3021 RMK SC1 SLP234

CYHM;2007-05-18 20:00;CYHM 182000Z 11011KT 040V130 15SM FEW060 17/01 A3019 RMK SC1 SLP228

CYHM;2007-05-18 21:00;CYHM 182100Z 15006KT 090V200 15SM FEW064 17/02 A3018 RMK SC1 SLP224

CYHM;2007-05-18 22:00;CYHM 182200Z 18005KT 120V240 15SM FEW073 17/02 A3017 RMK AC1 SLP221

CYHM;2007-05-18 23:00;CYHM 182300Z 19012KT 15SM FEW075 14/06 A3017 RMK AC1 SLP219

CYHM;2007-05-19 00:00;CYHM 190000Z 19008KT 15SM FEW085 13/05 A3017 RMK AC1 SLP220

CYHM;2007-05-19 01:00;CYHM 190100Z 20008KT 15SM FEW090 10/05 A3017 RMK AC1 SLP219

CYHM;2007-05-19 02:00;CYHM 190200Z 21007KT 15SM SKC 09/05 A3017 RMK SLP222

CYHM;2007-05-19 03:00;CYHM 190300Z 23005KT 15SM SKC 07/04 A3017 RMK SLP222

CYHM;2007-05-19 04:00;CYHM 190400Z 27005KT 15SM FEW210 08/04 A3016 RMK CI1 SLP218

CYHM;2007-05-19 05:00;CYHM 190500Z 28005KT 15SM FEW210 08/04 A3015 RMK CI1 SLP214

CYHM;2007-05-19 06:00;CYHM 190600Z 00000KT 15SM SKC 07/04 A3014 RMK SLP209

CYHM;2007-05-19 07:00;CYHM 190700Z 25005KT 15SM SKC 04/03 A3013 RMK SLP207

CYHM;2007-05-19 08:00;CYHM 190800Z 26007KT 15SM FEW210 07/03 A3013 RMK CI1 SLP205

CYHM;2007-05-19 09:00;CYHM 190900Z 25005KT 15SM SKC 06/02 A3011 RMK SLP199

CYHM;2007-05-19 10:00;CYHM 191000Z 24004KT 15SM FEW170 FEW200 05/02 A3010 RMK AC1CI1 TR CI SLP198

CYHM;2007-05-19 11:00;CYHM 191100Z 25007KT 15SM FEW170 07/03 A3010 RMK AC1 SLP198

CYHM;2007-05-19 12:00;CYHM 191200Z 26004KT 15SM SKC 10/05 A3010 RMK SLP197

CYHM;2007-05-19 13:00;CYHM 191300Z 26006KT 220V310 15SM SKC 13/05 A3010 RMK SLP196

CYHM;2007-05-19 14:00;CYHM 191400Z CCA 27008KT 220V320 15SM SKC 16/06 A3009 RMK SLP192

CYHM;2007-05-19 15:00;CYHM 191500Z 24009KT 190V310 15SM FEW250 19/05 A3007 RMK CI1 SLP187

CYHM;2007-05-19 16:00;CYHM 191600Z 27008KT 220V310 15SM FEW250 20/05 A3007 RMK CI1 SLP185

CYHM;2007-05-19 17:00;CYHM 191700Z 27010G15KT 230V300 15SM FEW060 20/05 A3004 RMK CU1 SLP177

CYHM;2007-05-19 18:00;CYHM 191800Z 27010KT 230V320 15SM SKC 21/05 A3002 RMK SLP168

CYHM;2007-05-19 19:00;CYHM 191900Z 26012KT 210V300 12SM FEW045 FEW200 21/07 A3000 RMK CU1CI1 CU TR CI TR CONTRAIL SLP160

CYHM;2007-05-19 20:00;CYHM 192000Z 26010KT 12SM FEW045 21/07 A2998 RMK CF1 CF TR SLP154

CYHM;2007-05-19 21:00;CYHM 192100Z 28011KT 250V320 12SM FEW045 21/07 A2995 RMK CU2 SLP145

CYHM;2007-05-19 22:00;CYHM 192200Z 27009KT 240V310 12SM FEW050 21/07 A2994 RMK SC2 CU ASOCTD SLP140

CYHM;2007-05-19 23:00;CYHM 192300Z 27011KT 15SM FEW060 SCT150 BKN220 20/06 A2994 RMK SC1AC2CI1 SLP140

CYHM;2007-05-20 00:00;CYHM 200000Z 28010KT 15SM FEW060 BKN085 BKN140 19/08 A2995 RMK SC2AC4AC1 SLP145

CYHM;2007-05-20 01:00;CYHM 200100Z 27011KT 15SM FEW060 BKN082 OVC100 17/09 A2996 RMK SC2AC4AC2 SLP148

CYHM;2007-05-20 01:18;CYHM 200118Z 27009KT 12SM -SHRA BKN064 OVC090 RMK SC6AC2

CYHM;2007-05-20 02:00;CYHM 200200Z 26011KT 13SM -SHRA BKN060 OVC075 15/11 A2997 RMK SC6AC2 SLP149

CYHM;2007-05-20 03:00;CYHM 200300Z 27012KT 10SM -SHRA OVC050 14/11 A2997 RMK SC8 SLP150

CYHM;2007-05-20 04:00;CYHM 200400Z 26007KT 5SM -SHRA OVC043 13/12 A2997 RMK SC8 SLP148

CYHM;2007-05-20 05:00;CYHM 200500Z 25005KT 2SM -SHRA BR FEW028 OVC041 13/12 A2996 RMK FG1SF2SC6 SLP146

CYHM;2007-05-20 05:32;CYHM 200532Z 26004KT 1 1/2SM -SHRA BR SCT004 OVC036 RMK FG2SF2SC4 VIS VRB 1 - 2

CYHM;2007-05-20 06:00;CYHM 200600Z 25006KT 1 1/2SM -SHRA BR FEW004 OVC038 13/12 A2995 RMK FG2SF1SC6 VIS VRB 1 - 2 SLP141

CYHM;2007-05-20 07:00;CYHM 200700Z 23005KT 1 1/2SM -SHRA BR SCT003 OVC015 13/12 A2993 RMK FG2SF2SC4 VIS VRB 1 - 2 SLP136

CYHM;2007-05-20 07:23;CYHM 200723Z 24004KT 1SM -SHRA BR BKN003 OVC015 RMK FG2SF4SC2 VIS VRB 3/4 - 11/4

CYHM;2007-05-20 08:00;CYHM 200800Z 23004KT 1SM BR OVC003 13/12 A2993 RMK FG2SF6 VIS VRB 3/4 - 11/4 SLP135

CYHM;2007-05-20 09:00;CYHM 200900Z 26003KT 1SM BR OVC003 13/12 A2992 RMK FG2SF6 VIS VRB 3/4 - 11/4 SLP133

CYHM;2007-05-20 09:36;CYHM 200936Z 25005KT 1/2SM FG OVC002 RMK FG5SF3

CYHM;2007-05-20 10:00;CYHM 201000Z 25002KT 1/4SM FG OVC002 12/12 A2992 RMK FG6SF2 SLP132

CYHM;2007-05-20 10:26;CYHM 201026Z 26005KT 3/8SM FG BKN002 BKN250 RMK FG2SF2CI1

CYHM;2007-05-20 11:00;CYHM 201100Z 26004KT 5/8SM BR FEW002 BKN097 12/12 A2993 RMK FG2SF1AC5 SLP136

CYHM;2007-05-20 11:09;CYHM 201109Z 26002KT 1 1/2SM BR BKN096 RMK FG1AC6

CYHM;2007-05-20 11:14;CYHM 201114Z 28002KT 2SM BR BKN095 RMK FG1AC6

CYHM;2007-05-20 11:31;CYHM 201131Z 33006KT 4SM BR BKN091 BKN130 RMK AC6AC2

CYHM;2007-05-20 12:00;CYHM 201200Z 29004KT 6SM BR BKN089 BKN120 13/12 A2993 RMK AC5AC2 SLP135

CYHM;2007-05-20 12:45;CYHM 201245Z 29006KT 240V320 7SM FEW008 BKN087 RMK CU2AC5

CYHM;2007-05-20 12:53;CYHM 201253Z 32006KT 260V350 7SM BKN009 OVC087 RMK CU6AC2

CYHM;2007-05-20 13:00;CYHM 201300Z 29007KT 240V350 7SM BKN009 OVC087 14/12 A2994 RMK CU7AC1 SLP141

CYHM;2007-05-20 14:00;CYHM 201400Z 26007KT 6SM BR BKN008 OVC015 14/12 A2994 RMK CF6SC2 CIG RAG SLP140

CYHM;2007-05-20 14:28;CYHM 201428Z 29009KT 240V330 7SM SCT008 OVC013 RMK CF3SC5

CYHM;2007-05-20 15:00;CYHM 201500Z 30012KT 7SM SCT009 BKN013 OVC019 14/12 A2995 RMK CF3SC3SC2 SLP144

CYHM;2007-05-20 15:48;CYHM 201548Z 32013KT 9SM SCT014 BKN024 OVC036 RMK SC3SC3SC2

CYHM;2007-05-20 16:00;CYHM 201600Z 30014KT 10SM FEW014 SCT024 OVC035 13/10 A2995 RMK SC2SC2SC4 SLP145

CYHM;2007-05-20 17:00;CYHM 201700Z 31009KT 230V330 15SM FEW016 FEW024 OVC036 14/10 A2995 RMK SC2SC1SC6 SLP145

CYHM;2007-05-20 18:00;CYHM 201800Z 30012KT 260V330 15SM FEW024 BKN038 15/10 A2995 RMK SC2SC6 SLP144

CYHM;2007-05-20 19:00;CYHM 201900Z 30012KT 260V330 15SM SCT025 BKN040 14/09 A2996 RMK SC4SC2 SLP148

CYHM;2007-05-20 20:00;CYHM 202000Z 31012KT 270V340 15SM BKN026 BKN041 14/08 A2997 RMK SC5SC2 SLP151

CYHM;2007-05-20 21:00;CYHM 202100Z 31011KT 15SM BKN025 13/07 A3000 RMK SC7 SLP160

CYHM;2007-05-20 22:00;CYHM 202200Z 30011KT 15SM OVC026 12/06 A3001 RMK SC8 SLP163

CYHM;2007-05-20 23:00;CYHM 202300Z 32012KT 15SM BKN025 10/05 A3002 RMK SC6 SLP169

CYHM;2007-05-21 00:00;CYHM 210000Z 31008KT 15SM FEW025 BKN250 10/05 A3004 RMK SC2CI2 SLP175

CYHM;2007-05-21 01:00;CYHM 210100Z 31008KT 15SM FEW022 BKN230 09/05 A3006 RMK SC2CI2 SLP182

CYHM;2007-05-21 02:00;CYHM 210200Z 31004KT 15SM FEW025 FEW200 08/04 A3008 RMK SC1CI1 SLP190

CYHM;2007-05-21 03:00;CYHM 210300Z 00000KT 15SM FEW025 FEW210 07/03 A3011 RMK SC1CI1 TR SC SLP201

CYHM;2007-05-21 04:00;CYHM 210400Z 34003KT 15SM FEW120 FEW210 06/03 A3013 RMK AC2CI1 SLP206

CYHM;2007-05-21 05:00;CYHM 210500Z 03005KT 15SM FEW045 FEW220 05/02 A3013 RMK SC1CI1 SLP208

CYHM;2007-05-21 06:00;CYHM 210600Z 01003KT 15SM FEW045 FEW210 05/02 A3014 RMK SC1CI1 TR SC SLP211

CYHM;2007-05-21 07:00;CYHM 210700Z 00000KT 15SM FEW040 FEW210 04/02 A3014 RMK SC1CI1 TR SC SLP210

CYHM;2007-05-21 08:00;CYHM 210800Z 33004KT 15SM FEW210 04/02 A3014 RMK CI1 SLP210

CYHM;2007-05-21 09:00;CYHM 210900Z 33004KT 15SM FEW210 03/01 A3016 RMK CI1 SLP218

CYHM;2007-05-21 10:00;CYHM 211000Z 35005KT 15SM FEW210 04/01 A3018 RMK CI1 CONTRAILS SLP224

CYHM;2007-05-21 11:00;CYHM 211100Z 35005KT 15SM FEW220 05/02 A3020 RMK CI1 CI TR CONTRAIL SLP233

CYHM;2007-05-21 12:00;CYHM 211200Z 01002KT 15SM FEW220 08/03 A3022 RMK CI1 SLP238

CYHM;2007-05-21 13:00;CYHM 211300Z 00000KT 15SM FEW220 10/03 A3024 RMK CI1 CONTRAIL SLP244

CYHM;2007-05-21 14:00;CYHM 211400Z 34002KT 15SM FEW220 12/03 A3024 RMK CI0 CI TR SLP246

CYHM;2007-05-21 15:00;CYHM 211500Z 12002KT 15SM FEW035 FEW220 13/02 A3024 RMK CU1CI1 CU TR SLP246

CYHM;2007-05-21 16:00;CYHM 211600Z 34005KT 15SM FEW035 SCT220 14/03 A3024 RMK CU1CI2 CU TR SLP246

CYHM;2007-05-21 17:00;CYHM 211700Z 35003KT 15SM BKN220 14/03 A3023 RMK CI3 SLP243

CYHM;2007-05-21 18:00;CYHM 211800Z 07002KT 15SM BKN220 15/03 A3023 RMK CI2 CONTRAIL SLP240

CYHM;2007-05-21 19:00;CYHM 211900Z 22008KT 180V270 15SM BKN200 17/05 A3022 RMK CI2 SLP239

CYHM;2007-05-21 20:00;CYHM 212000Z 31003KT 15SM SCT200 17/03 A3021 RMK CI2 WND L/V SLP235

CYHM;2007-05-21 21:00;CYHM 212100Z 31005KT 15SM SCT200 18/04 A3020 RMK CI2 SLP232

CYHM;2007-05-21 22:00;CYHM 212200Z 33003KT 15SM SCT200 18/03 A3020 RMK CI2 WND L/V SLP229

CYHM;2007-05-21 23:00;CYHM 212300Z 13011KT 15SM SCT220 16/06 A3020 RMK CI2 SLP229

CYHM;2007-05-22 00:00;CYHM 220000Z 16007KT 15SM SCT220 15/05 A3022 RMK CI2 SLP237

CYHM;2007-05-22 01:00;CYHM 220100Z 17008KT 15SM FEW180 FEW220 12/05 A3022 RMK AC1CI1 SLP236

CYHM;2007-05-22 02:00;CYHM 220200Z CCA 17003KT 15SM FEW200 11/05 A3022 RMK CI1 SLP238

CYHM;2007-05-22 03:00;CYHM 220300Z 00000KT 15SM FEW110 FEW250 10/04 A3023 RMK AC2CI1 CI TR SLP240

CYHM;2007-05-22 04:00;CYHM 220400Z 00000KT 15SM SCT100 SCT250 10/05 A3024 RMK AC3CI1 CI TR SLP245

CYHM;2007-05-22 05:00;CYHM 220500Z 00000KT 15SM SCT100 SCT250 09/04 A3025 RMK AC4CI1 CI TR SLP247

CYHM;2007-05-22 06:00;CYHM 220600Z 06003KT 15SM SCT100 09/05 A3024 RMK AC4 SLP245

CYHM;2007-05-22 07:00;CYHM 220700Z 00000KT 15SM FEW090 BKN130 11/03 A3024 RMK AC2AC4 SLP245

CYHM;2007-05-22 08:00;CYHM 220800Z 00000KT 15SM FEW100 BKN150 11/03 A3025 RMK AC2AC5 SLP247

CYHM;2007-05-22 09:00;CYHM 220900Z 08004KT 15SM BKN120 09/04 A3026 RMK AC6 SLP249

CYHM;2007-05-22 10:00;CYHM 221000Z 05004KT 15SM BKN120 10/05 A3026 RMK AC7 SLP250

CYHM;2007-05-22 11:00;CYHM 221100Z 06004KT 15SM BKN120 11/05 A3028 RMK AC6 SLP257

CYHM;2007-05-22 12:00;CYHM 221200Z 06004KT 15SM BKN110 BKN180 11/06 A3030 RMK AC5AC2 SLP262

CYHM;2007-05-22 13:00;CYHM 221300Z 02010KT 15SM SCT120 BKN220 13/07 A3030 RMK AC4CI2 SLP264

CYHM;2007-05-22 14:00;CYHM 221400Z 06007KT 15SM BKN220 15/05 A3031 RMK CI5 CONTRAIL SLP267

CYHM;2007-05-22 15:00;CYHM 221500Z 05009KT 15SM BKN210 16/04 A3031 RMK CI5 SLP266

CYHM;2007-05-22 16:00;CYHM 221600Z 05006KT 15SM BKN220 16/05 A3031 RMK CI4 SLP266

CYHM;2007-05-22 17:00;CYHM 221700Z 02009KT 15SM BKN220 17/05 A3030 RMK CI6 SLP263

CYHM;2007-05-22 18:00;CYHM 221800Z 05012KT 15SM BKN220 17/05 A3030 RMK CI6 SLP263

CYHM;2007-05-22 19:00;CYHM 221900Z 06010KT 15SM BKN250 18/05 A3029 RMK CI2 CONTRAILS SLP260

CYHM;2007-05-22 20:00;CYHM 222000Z 06010KT 15SM BKN250 18/06 A3029 RMK CI3 SLP259

CYHM;2007-05-22 21:00;CYHM 222100Z 05012KT 15SM BKN250 18/06 A3027 RMK CI3 SLP254

CYHM;2007-05-22 22:00;CYHM 222200Z 05008KT 15SM BKN250 17/05 A3027 RMK CI3 CONTRAILS SLP252

CYHM;2007-05-22 23:00;CYHM 222300Z 04009KT 15SM SCT250 16/04 A3026 RMK CI2 CONTRAILS SLP251

CYHM;2007-05-23 00:00;CYHM 230000Z 05008KT 15SM FEW250 15/04 A3027 RMK CI1 SLP254

CYHM;2007-05-23 01:00;CYHM 230100Z 07006KT 15SM FEW250 12/04 A3027 RMK CI1 CI TR SLP253

CYHM;2007-05-23 02:00;CYHM 230200Z 05007KT 15SM FEW250 12/04 A3028 RMK CI1 CI TR SLP255

CYHM;2007-05-23 03:00;CYHM 230300Z 05007KT 15SM FEW250 11/04 A3028 RMK CI1 CI TR SLP257

CYHM;2007-05-23 04:00;CYHM 230400Z 04007KT 15SM SKC 11/05 A3030 RMK SLP261

CYHM;2007-05-23 05:00;CYHM 230500Z 04007KT 15SM SKC 11/04 A3030 RMK SLP261

CYHM;2007-05-23 06:00;CYHM 230600Z 02003KT 15SM SKC 10/04 A3029 RMK SLP259

CYHM;2007-05-23 07:00;CYHM 230700Z 04005KT 15SM SKC 10/04 A3028 RMK SLP255

CYHM;2007-05-23 08:00;CYHM 230800Z 04005KT 15SM SKC 10/04 A3027 RMK SLP253

CYHM;2007-05-23 09:00;CYHM 230900Z 04005KT 15SM FEW250 10/04 A3027 RMK CI1 CI TR SLP254

CYHM;2007-05-23 10:00;CYHM 231000Z 03004KT 15SM FEW250 10/04 A3029 RMK CI1 CI TR SLP258

CYHM;2007-05-23 11:00;CYHM 231100Z 05006KT 15SM FEW240 11/04 A3030 RMK CI1 CI TR SLP262

CYHM;2007-05-23 12:00;CYHM 231200Z 04002KT 15SM SKC 13/06 A3031 RMK SLP267

CYHM;2007-05-23 13:00;CYHM 231300Z 06002KT 15SM FEW240 16/07 A3033 RMK CI1 CONTRAIL SLP271

CYHM;2007-05-23 14:00;CYHM 231400Z 00000KT 15SM FEW160 FEW240 19/09 A3033 RMK AC1CI1 AC TR CI TR SLP273

CYHM;2007-05-23 15:00;CYHM 231500Z 08004KT 15SM SCT078 BKN220 22/11 A3033 RMK AC3CI1 SLP271

CYHM;2007-05-23 16:00;CYHM 231600Z 24002KT 15SM FEW080 25/14 A3032 RMK AC1 SLP269

CYHM;2007-05-23 17:00;CYHM 231700Z 18005KT 15SM FEW085 SCT240 27/14 A3031 RMK AC1CI1 SLP266

CYHM;2007-05-23 18:00;CYHM 231800Z 17008KT 15SM FEW045 FEW100 28/13 A3030 RMK CU1AC1 CU TR AC TR SLP260

CYHM;2007-05-23 19:00;CYHM 231900Z 21007KT 12SM FEW080 29/14 A3029 RMK AC2 SLP257

CYHM;2007-05-23 20:00;CYHM 232000Z 18010KT 12SM FEW084 FEW250 29/13 A3028 RMK AC2CI1 CI TR SLP253

CYHM;2007-05-23 21:00;CYHM 232100Z 19012KT 12SM FEW084 FEW250 28/12 A3027 RMK AC1CI1 AC TR CI TR SLP250

CYHM;2007-05-23 22:00;CYHM 232200Z 18012KT 12SM FEW250 28/12 A3027 RMK CI1 CI TR SLP249

CYHM;2007-05-23 23:00;CYHM 232300Z 17009KT 15SM FEW250 27/12 A3026 RMK CI1 CI TR SLP247

CYHM;2007-05-24 00:00;CYHM 240000Z 18006KT 15SM SKC 25/12 A3026 RMK SLP248

CYHM;2007-05-24 01:00;CYHM 240100Z 17002KT 15SM SKC 22/12 A3027 RMK SLP249

CYHM;2007-05-24 02:00;CYHM 240200Z CCA 15002KT 15SM SKC 19/12 A3028 RMK SLP252

CYHM;2007-05-24 03:00;CYHM 240300Z 00000KT 15SM SKC 18/12 A3028 RMK SLP254

CYHM;2007-05-24 04:00;CYHM 240400Z 00000KT 15SM SKC 17/11 A3029 RMK SLP255

CYHM;2007-05-24 05:00;CYHM 240500Z 00000KT 15SM SKC 17/11 A3029 RMK SLP256

CYHM;2007-05-24 06:00;CYHM 240600Z 00000KT 15SM SKC 17/10 A3029 RMK SLP256

CYHM;2007-05-24 07:00;CYHM 240700Z 17005KT 15SM SKC 16/10 A3029 RMK SLP255

CYHM;2007-05-24 08:00;CYHM 240800Z 20005KT 15SM SKC 15/11 A3031 RMK SLP261

CYHM;2007-05-24 09:00;CYHM 240900Z 20004KT 15SM SCT100 16/12 A3032 RMK AC3 SLP264

CYHM;2007-05-24 10:00;CYHM 241000Z 20005KT 15SM BKN100 15/12 A3032 RMK AC5 SLP266

CYHM;2007-05-24 11:00;CYHM 241100Z 18005KT 15SM BKN100 16/14 A3033 RMK AC6 SLP270

CYHM;2007-05-24 12:00;CYHM 241200Z 18008KT 15SM SCT100 16/14 A3033 RMK AC4 SLP270

CYHM;2007-05-24 13:00;CYHM 241300Z 20011KT 15SM FEW100 21/16 A3033 RMK AC1 AC TR SLP271

CYHM;2007-05-24 14:00;CYHM 241400Z 20012KT 15SM SKC 24/16 A3034 RMK SLP272

CYHM;2007-05-24 15:00;CYHM 241500Z 20010KT 15SM SKC 25/16 A3033 RMK SLP270

CYHM;2007-05-24 16:00;CYHM 241600Z 18008KT 15SM SKC 28/16 A3033 RMK SLP268

CYHM;2007-05-24 17:00;CYHM 241700Z 23008KT 15SM SKC 29/15 A3031 RMK SLP263

CYHM;2007-05-24 18:00;CYHM 241800Z 22010KT 15SM FEW045 FEW077 30/15 A3029 RMK CU1AC1 SLP255

CYHM;2007-05-24 19:00;CYHM 241900Z 21005KT 160V240 15SM SCT067 29/15 A3028 RMK AC4 SLP250

CYHM;2007-05-24 20:00;CYHM 242000Z CCA 18014KT 15SM FEW065 30/15 A3025 RMK CU1 SLP242

CYHM;2007-05-24 21:00;CYHM 242100Z 18012KT 15SM FEW065 30/14 A3024 RMK CU1 SLP237

CYHM;2007-05-24 22:00;CYHM 242200Z 19010KT 15SM FEW065 29/14 A3023 RMK CU1 SLP235

CYHM;2007-05-24 23:00;CYHM 242300Z 19009KT 15SM FEW058 28/14 A3023 RMK CU1 SLP234

CYHM;2007-05-25 00:00;CYHM 250000Z 19007KT 15SM FEW150 25/14 A3023 RMK AC1 SLP234

CYHM;2007-05-25 01:00;CYHM 250100Z 19005KT 12SM SKC 23/13 A3022 RMK SLP233

CYHM;2007-05-25 02:00;CYHM 250200Z 19005KT 15SM SKC 21/12 A3023 RMK SLP234

CYHM;2007-05-25 03:00;CYHM 250300Z 19005KT 12SM SKC 20/12 A3022 RMK SLP232

CYHM;2007-05-25 04:00;CYHM 250400Z 19005KT 10SM SKC 18/12 A3021 RMK SLP229

CYHM;2007-05-25 05:00;CYHM 250500Z 19006KT 10SM SCT130 19/13 A3020 RMK AC3 SLP226

CYHM;2007-05-25 06:00;CYHM 250600Z 19004KT 8SM BKN140 17/12 A3020 RMK AC5 SLP223

CYHM;2007-05-25 07:00;CYHM 250700Z 19004KT 7SM FEW140 17/12 A3019 RMK AC1 HZ SLP221

CYHM;2007-05-25 08:00;CYHM 250800Z 21005KT 8SM SCT130 17/13 A3019 RMK AC2 HZ SLP219

CYHM;2007-05-25 09:00;CYHM 250900Z 20006KT 7SM BKN140 17/14 A3018 RMK AC5 HZ SLP218

CYHM;2007-05-25 10:00;CYHM 251000Z 20006KT 4SM HZ BKN140 17/14 A3019 RMK AC6 SLP219

CYHM;2007-05-25 11:00;CYHM 251100Z 22006KT 5SM HZ BKN130 18/15 A3019 RMK AC6 SLP220

CYHM;2007-05-25 12:00;CYHM 251200Z 22006KT 5SM HZ FEW130 20/15 A3019 RMK AC2 SLP222

CYHM;2007-05-25 13:00;CYHM 251300Z 25010KT 7SM SKC 23/15 A3020 RMK HAZE SLP224

CYHM;2007-05-25 14:00;CYHM 251400Z 23012KT 8SM SKC 24/16 A3020 RMK SLP223

CYHM;2007-05-25 15:00;CYHM 251500Z 25011KT 10SM SKC 25/16 A3019 RMK SLP222

CYHM;2007-05-25 16:00;CYHM 251600Z 24014KT 10SM FEW042 SCT210 27/16 A3019 RMK CU1CI2 CU TR SLP220

CYHM;2007-05-25 17:00;CYHM 251700Z 27014KT 10SM FEW048 BKN220 27/16 A3017 RMK CU1CI2 SC ASOCTD SLP216

CYHM;2007-05-25 18:00;CYHM 251800Z CCA 24014KT 10SM FEW052 SCT210 28/16 A3016 RMK CU2CI1 TCU ASOCTD SLP209

CYHM;2007-05-25 18:47;CYHM 251847Z 25016KT 10SM TS SCT042 BKN110 BKN210 RMK CU4AC2CI1 CB ASOCTD

CYHM;2007-05-25 19:00;CYHM 251900Z 24020G25KT 5SM -TSRA BKN051 BKN098 OVC210 27/15 A3014 RMK SC5AC2CI1 CB EMBDD SLP203

CYHM;2007-05-25 19:33;CYHM 251933Z CCA 15008KT 12SM SCT050 OVC110 RMK SC4AC4 CB EMBDD LTGIC SE RETS

CYHM;2007-05-25 19:43;CYHM 251943Z 20011KT 4SM -SHRA SCT040 BKN069 OVC110 RMK SC4AC2AC2 CB EMBDD RETS

CYHM;2007-05-25 20:00;CYHM 252000Z 25020G25KT 4SM -TSRA SCT045 BKN060 OVC070 23/16 A3015 RMK SC3SC2AC2 CB EMBDD SLP207

CYHM;2007-05-25 20:11;CYHM 252011Z 28014G20KT 2SM -TSRA FEW018 SCT037 OVC059 RMK SC2SC2SC4 CB EMBDD LTGIC SE

CYHM;2007-05-25 20:45;CYHM 252045Z CCA 25008KT 12SM FEW018 SCT035 BKN080 OVC160 RMK CU2SC2AC2AC2 RETS

CYHM;2007-05-25 21:00;CYHM 252100Z CCA 23008KT 10SM FEW035 SCT055 BKN080 BKN130 23/17 A3016 RMK CU2SC2AC2AC2 RETS SLP211

CYHM;2007-05-25 22:00;CYHM 252200Z 28009KT 10SM FEW050 BKN160 OVC230 23/17 A3016 RMK SC2AC2CS3 SLP212

CYHM;2007-05-25 23:00;CYHM 252300Z 26010KT 12SM FEW030 FEW045 BKN160 OVC230 23/16 A3016 RMK CF1SC2AC3CS2 HALO CONTRAIL SLP213

CYHM;2007-05-26 00:00;CYHM 260000Z 27007KT 15SM FEW035 SCT140 BKN150 OVC230 22/16 A3017 RMK SC2AC2AC2CI2 SLP215

CYHM;2007-05-26 01:00;CYHM 260100Z 31006KT 12SM SCT130 BKN250 20/15 A3018 RMK AC4CI2 SLP219

CYHM;2007-05-26 02:00;CYHM 260200Z 29005KT 12SM FEW100 BKN160 BKN240 18/15 A3020 RMK AC2AC3CI1 SLP225

CYHM;2007-05-26 03:00;CYHM 260300Z 31005KT 15SM FEW100 FEW130 BKN180 17/12 A3021 RMK AC1AC2AC2 SLP229

CYHM;2007-05-26 04:00;CYHM 260400Z 32003KT 15SM BKN160 BKN250 16/11 A3021 RMK AC5CI1 SLP230

CYHM;2007-05-26 05:00;CYHM 260500Z 00000KT 15SM FEW130 BKN150 15/11 A3022 RMK AC2AC3 SLP232

CYHM;2007-05-26 06:00;CYHM 260600Z 00000KT 15SM FEW085 FEW130 SCT170 BKN250 15/09 A3022 RMK AC2AC1AC1CI1 SLP232

CYHM;2007-05-26 07:00;CYHM 260700Z 01005KT 15SM BKN074 BKN100 15/09 A3022 RMK AC5AC2 SLP233

CYHM;2007-05-26 08:00;CYHM 260800Z 00000KT 15SM BKN067 BKN100 14/09 A3022 RMK AC6AC1 SLP233

CYHM;2007-05-26 09:00;CYHM 260900Z 02004KT 15SM FEW065 BKN079 14/06 A3023 RMK SC2AC6 SLP238

CYHM;2007-05-26 10:00;CYHM 261000Z 00000KT 15SM SCT080 BKN160 13/07 A3025 RMK AC3AC2 VIRGA SLP243

CYHM;2007-05-26 11:00;CYHM 261100Z 03006KT 15SM FEW070 BKN110 BKN150 14/06 A3026 RMK AC2AC2AC2 SLP247

CYHM;2007-05-26 12:00;CYHM 261200Z 04007KT 15SM FEW070 SCT110 BKN150 15/06 A3026 RMK AC2AC2AC2 SLP247

CYHM;2007-05-26 13:00;CYHM 261300Z 05009KT 15SM FEW070 BKN100 BKN150 BKN220 16/05 A3026 RMK AC2AC3AC1CI1 CI TR SLP248

CYHM;2007-05-26 14:00;CYHM 261400Z 06009KT 15SM SCT070 BKN100 BKN140 17/05 A3026 RMK AC3AC2AC2 SLP247

CYHM;2007-05-26 15:00;CYHM 261500Z 04007KT 010V070 15SM FEW075 BKN120 BKN210 17/05 A3026 RMK AC2AC4CC1 SLP248

CYHM;2007-05-26 15:50;CYHM 261550Z 04003KT 15SM -SHRA SCT060 OVC092 RMK SC3AC5

CYHM;2007-05-26 16:00;CYHM 261600Z 06004KT 15SM -SHRA SCT060 OVC092 16/05 A3026 RMK SC3AC5 PCPN VRY LGT SLP248

CYHM;2007-05-26 17:00;CYHM 261700Z 09002KT 15SM -SHRA SCT060 OVC090 17/04 A3025 RMK SC3AC5 PCPN VRY LGT SLP244

CYHM;2007-05-26 18:00;CYHM 261800Z 17003KT 15SM FEW060 BKN078 OVC095 18/06 A3023 RMK SC2AC3AC2 WND L/V SLP239

CYHM;2007-05-26 18:44;CYHM 261844Z 14005KT 110V170 15SM -SHRA FEW050 BKN070 OVC090 RMK SC2AC3AC2 PCPN VRY LGT

CYHM;2007-05-26 19:00;CYHM 261900Z 14004KT 110V170 15SM -SHRA FEW050 BKN070 OVC087 17/07 A3021 RMK SC2AC3AC2 PCPN VRY LGT SLP232

CYHM;2007-05-26 20:00;CYHM 262000Z 16004KT 130V190 15SM FEW060 BKN100 BKN160 17/07 A3020 RMK SC2AC2AC2 SLP226

CYHM;2007-05-26 21:00;CYHM 262100Z 15004KT 110V180 15SM FEW045 SCT070 BKN090 BKN150 18/09 A3017 RMK SC2AC2AC2AC1 SLP217

CYHM;2007-05-26 22:00;CYHM 262200Z 16005KT 15SM BKN044 BKN070 18/09 A3016 RMK SC5AC2 SLP215

CYHM;2007-05-26 23:00;CYHM 262300Z 18005KT 15SM BKN040 BKN075 17/09 A3015 RMK SC6AC2 SLP212

CYHM;2007-05-27 00:00;CYHM 270000Z 14003KT 15SM FEW038 BKN180 16/08 A3014 RMK SC2AC5 SLP207

CYHM;2007-05-27 01:00;CYHM 270100Z 00000KT 15SM FEW075 BKN170 16/07 A3014 RMK AC1AC6 SLP208

CYHM;2007-05-27 02:00;CYHM 270200Z 00000KT 15SM SCT100 OVC160 16/08 A3013 RMK AC4AC4 SLP206

CYHM;2007-05-27 03:00;CYHM 270300Z 00000KT 15SM FEW065 BKN088 15/09 A3012 RMK SC2AC6 SLP199

CYHM;2007-05-27 04:00;CYHM 270400Z 13003KT 15SM FEW058 OVC120 15/09 A3010 RMK SC2AC6 SLP195

CYHM;2007-05-27 05:00;CYHM 270500Z 00000KT 15SM OVC100 15/10 A3008 RMK AC8 SLP187

CYHM;2007-05-27 06:00;CYHM 270600Z 00000KT 15SM -SHRA FEW045 OVC094 15/09 A3007 RMK SC2AC6 SLP184

CYHM;2007-05-27 07:00;CYHM 270700Z 00000KT 12SM -SHRA BKN024 OVC060 14/11 A3006 RMK SC6SC2 SLP179

CYHM;2007-05-27 08:00;CYHM 270800Z 35006KT 7SM -SHRA OVC017 14/12 A3006 RMK SC8 SLP179

CYHM;2007-05-27 08:22;CYHM 270822Z 00000KT 2SM +SHRA OVC005 RMK ST7

CYHM;2007-05-27 08:29;CYHM 270829Z 00000KT 2SM -SHRA BR OVC023 RERA RMK FG1SC7

CYHM;2007-05-27 09:00;CYHM 270900Z 09004KT 2SM -SHRA BR BKN015 OVC090 13/12 A3004 RERA RMK FG1SC6AC2 SLP174

CYHM;2007-05-27 09:22;CYHM 270922Z 06004KT 1 1/2SM -SHRA BR BKN011 OVC040 RERA RMK FG2SC6SC1 VIS VRB 1 - 2

CYHM;2007-05-27 10:00;CYHM 271000Z 07003KT 1SM BR BKN007 OVC022 13/12 A3006 RMK FG2SF5SC1 VIS VRB 3/4 - 11/4 SLP179

CYHM;2007-05-27 11:00;CYHM 271100Z 10003KT 1 1/2SM BR OVC005 13/13 A3006 RMK FG2SF6 SLP179

CYHM;2007-05-27 11:21;CYHM 271121Z 05003KT 1 1/2SM -SHRA BR OVC004 RMK FG2SF6

CYHM;2007-05-27 12:00;CYHM 271200Z 05002KT 2SM -SHRA BR OVC004 14/13 A3006 RMK FG1SF7 SLP180

CYHM;2007-05-27 13:00;CYHM 271300Z 14003KT 2SM -SHRA BR BKN004 OVC020 15/14 A3006 RMK FG1SF6SC1 SLP181

CYHM;2007-05-27 13:25;CYHM 271325Z 08004KT 2 1/2SM BR BKN004 OVC027 RMK SF5SC3

CYHM;2007-05-27 13:36;CYHM 271336Z 09003KT 3SM BR SCT004 BKN027 OVC088 RMK SF3SC4AC1

CYHM;2007-05-27 14:00;CYHM 271400Z 10004KT 3SM BR FEW006 BKN027 BKN068 17/15 A3005 RMK SF1SC6AC1 SLP176

CYHM;2007-05-27 15:00;CYHM 271500Z 21013KT 180V270 8SM FEW012 BKN021 BKN066 BKN100 21/17 A3004 RMK CF1SC4AC2AC1 SLP170

CYHM;2007-05-27 16:00;CYHM 271600Z 23016KT 15SM FEW025 FEW068 BKN110 22/16 A3002 RMK SC1AC2AC5 SLP166

CYHM;2007-05-27 17:00;CYHM 271700Z 21016G22KT 15SM FEW035 BKN064 BKN110 23/16 A3001 RMK SC2SC4AC2 SLP163

CYHM;2007-05-27 18:00;CYHM 271800Z 21023KT 15SM FEW032 BKN100 BKN210 23/16 A3000 RMK SC1AC5CI2 SLP158

CYHM;2007-05-27 19:00;CYHM 271900Z 21018G24KT 15SM FEW036 FEW130 BKN250 23/16 A2997 RMK CU1AC2CI3 CU TR SLP150

CYHM;2007-05-27 20:00;CYHM 272000Z 23021KT 15SM -SHRA BKN036 OVC110 22/15 A2998 RMK SC6AC2 PCPN VRY LGT SLP151

CYHM;2007-05-27 21:00;CYHM 272100Z 24013G18KT 6SM -SHRA HZ FEW018 SCT026 BKN060 OVC090 20/17 A2999 RMK CU2SC2SC2AC2 PCPN VRY LGT SLP155

CYHM;2007-05-27 22:00;CYHM 272200Z 22014KT 6SM HZ FEW020 SCT030 BKN060 OVC100 20/17 A2999 RMK CF2SC2SC2AC2 SLP155

CYHM;2007-05-27 23:00;CYHM 272300Z 23010KT 7SM FEW020 FEW030 BKN100 OVC140 20/17 A2998 RMK CF1SC2AC4AC1 HZ SLP153

CYHM;2007-05-28 00:00;CYHM 280000Z 22011KT 9SM FEW030 SCT070 BKN140 21/16 A2999 RMK CU2AC2AC2 SLP155

CYHM;2007-05-28 01:00;CYHM 280100Z 21008KT 9SM SCT027 SCT120 19/16 A3000 RMK CU3AC1 SLP158

CYHM;2007-05-28 02:00;CYHM 280200Z 21009KT 10SM FEW027 18/15 A3001 RMK CU1 SLP162

CYHM;2007-05-28 03:00;CYHM 280300Z 23008KT 10SM FEW025 FEW220 17/15 A3002 RMK CU1CI1 SLP166

CYHM;2007-05-28 04:00;CYHM 280400Z 26005KT 8SM FEW030 17/15 A3004 RMK CU1 SLP171

CYHM;2007-05-28 05:00;CYHM 280500Z 34007KT 15SM SKC 13/08 A3007 RMK SLP183

CYHM;2007-05-28 06:00;CYHM 280600Z 00000KT 15SM SKC 12/07 A3008 RMK SLP186

CYHM;2007-05-28 07:00;CYHM 280700Z 00000KT 15SM SKC 10/07 A3009 RMK SLP189

CYHM;2007-05-28 08:00;CYHM 280800Z 00000KT 15SM SKC 09/07 A3010 RMK SLP194

CYHM;2007-05-28 09:00;CYHM 280900Z 00000KT 15SM FEW210 07/06 A3012 RMK CI1 SLP202

CYHM;2007-05-28 10:00;CYHM 281000Z 00000KT 15SM FEW100 FEW210 08/06 A3013 RMK AC1CI1 TR AC SLP207

CYHM;2007-05-28 11:00;CYHM 281100Z 25002KT 15SM SKC 10/08 A3016 RMK SLP214

CYHM;2007-05-28 12:00;CYHM 281200Z 28005KT 15SM SKC 12/09 A3017 RMK SLP219

CYHM;2007-05-28 13:00;CYHM 281300Z 24008KT 15SM SKC 15/10 A3019 RMK SLP224

CYHM;2007-05-28 14:00;CYHM 281400Z 25012KT 15SM SKC 17/10 A3019 RMK SLP225

CYHM;2007-05-28 15:00;CYHM 281500Z 24014G20KT 15SM FEW042 19/10 A3020 RMK CU2 SLP225

CYHM;2007-05-28 16:00;CYHM 281600Z 27016KT 15SM SCT042 19/09 A3020 RMK CU3 SC ASOCTD SLP225

CYHM;2007-05-28 17:00;CYHM 281700Z 27014KT 15SM FEW055 SCT180 20/10 A3019 RMK SC2AC0 CU ASOCIATED SLP224

CYHM;2007-05-28 18:00;CYHM 281800Z 25015G20KT 15SM FEW055 SCT220 21/09 A3019 RMK CU2CI1 SC ASOCTD SLP223

CYHM;2007-05-28 19:00;CYHM 281900Z 26011G17KT 15SM FEW055 21/09 A3018 RMK CU1 SLP221

CYHM;2007-05-28 20:00;CYHM 282000Z 28012KT 15SM FEW052 22/09 A3018 RMK CU1 CONTRAILS SLP222

CYHM;2007-05-28 21:00;CYHM 282100Z 27012G18KT 15SM FEW052 21/08 A3019 RMK CU1 CU TR SLP225

CYHM;2007-05-28 22:00;CYHM 282200Z 28010KT 15SM FEW050 20/09 A3019 RMK CU1 CU TR SLP226

CYHM;2007-05-28 23:00;CYHM 282300Z 31010KT 15SM FEW048 20/08 A3020 RMK CU1 CU TR SLP230

CYHM;2007-05-29 00:00;CYHM 290000Z 29007KT 15SM SKC 18/08 A3021 RMK SLP233

CYHM;2007-05-29 01:00;CYHM 290100Z 31003KT 15SM SKC 15/08 A3022 RMK SLP236

CYHM;2007-05-29 02:00;CYHM 290200Z 00000KT 15SM SKC 14/08 A3023 RMK SLP240

CYHM;2007-05-29 03:00;CYHM 290300Z 00000KT 15SM SKC 13/08 A3025 RMK SLP244

CYHM;2007-05-29 04:00;CYHM 290400Z 00000KT 15SM SKC 12/07 A3025 RMK SLP245

CYHM;2007-05-29 05:00;CYHM 290500Z 00000KT 15SM SKC 11/07 A3026 RMK SLP249

CYHM;2007-05-29 06:00;CYHM 290600Z 06004KT 15SM SKC 11/08 A3027 RMK SLP251

CYHM;2007-05-29 07:00;CYHM 290700Z 06003KT 15SM SKC 10/07 A3027 RMK SLP252

CYHM;2007-05-29 08:00;CYHM 290800Z 09002KT 15SM SKC 09/07 A3028 RMK SLP254

CYHM;2007-05-29 09:00;CYHM 290900Z 09003KT 15SM SKC 10/07 A3028 RMK SLP255

CYHM;2007-05-29 10:00;CYHM 291000Z 09004KT 15SM SKC 09/07 A3029 RMK SLP259

CYHM;2007-05-29 11:00;CYHM 291100Z 03002KT 15SM SKC 11/09 A3031 RMK SLP265

CYHM;2007-05-29 12:00;CYHM 291200Z 08002KT 15SM SKC 14/09 A3032 RMK SLP267

CYHM;2007-05-29 13:00;CYHM 291300Z 13004KT 15SM SKC 15/09 A3032 RMK SLP269

CYHM;2007-05-29 14:00;CYHM 291400Z 12002KT 15SM SKC 17/09 A3033 RMK SLP271

CYHM;2007-05-29 15:00;CYHM 291500Z 16004KT 15SM SKC 19/10 A3033 RMK SLP270

CYHM;2007-05-29 16:00;CYHM 291600Z 00000KT 15SM SKC 20/10 A3032 RMK SLP269

CYHM;2007-05-29 17:00;CYHM 291700Z 00000KT 15SM SKC 21/10 A3032 RMK SLP267

CYHM;2007-05-29 18:00;CYHM 291800Z 00000KT 15SM SKC 22/11 A3030 RMK SLP260

CYHM;2007-05-29 19:00;CYHM 291900Z 31002KT 15SM FEW250 24/13 A3027 RMK CI1 WND LT VRBL CI TR SLP253

CYHM;2007-05-29 20:00;CYHM 292000Z 05007KT 15SM FEW250 23/13 A3026 RMK CI1 CI TR SLP250

CYHM;2007-05-29 21:00;CYHM 292100Z 05002KT 15SM FEW250 23/13 A3025 RMK CI1 CI TR SLP243

CYHM;2007-05-29 22:00;CYHM 292200Z 08005KT 15SM FEW250 23/12 A3024 RMK CI1 CI TR SLP240

CYHM;2007-05-29 23:00;CYHM 292300Z 17005KT 15SM FEW250 23/10 A3023 RMK CI1 CI TR SLP238

CYHM;2007-05-30 00:00;CYHM 300000Z 18004KT 15SM SKC 21/10 A3023 RMK SLP238

CYHM;2007-05-30 01:00;CYHM 300100Z 19004KT 15SM SKC 19/09 A3023 RMK SLP239

CYHM;2007-05-30 02:00;CYHM 300200Z 00000KT 15SM SKC 17/09 A3023 RMK SLP237

CYHM;2007-05-30 03:00;CYHM 300300Z 00000KT 15SM SKC 17/08 A3023 RMK SLP236

CYHM;2007-05-30 04:00;CYHM 300400Z 00000KT 15SM SKC 16/09 A3023 RMK SLP237

CYHM;2007-05-30 05:00;CYHM 300500Z 00000KT 15SM SKC 14/09 A3023 RMK SLP236

CYHM;2007-05-30 06:00;CYHM 300600Z 00000KT 15SM SKC 15/08 A3023 RMK SLP235

CYHM;2007-05-30 07:00;CYHM 300700Z 00000KT 15SM SKC 14/09 A3022 RMK SLP232

CYHM;2007-05-30 08:00;CYHM 300800Z 00000KT 15SM SKC 13/09 A3021 RMK SLP229

CYHM;2007-05-30 09:00;CYHM 300900Z 00000KT 15SM SKC 13/09 A3020 RMK SLP228

CYHM;2007-05-30 10:00;CYHM 301000Z 00000KT 15SM FEW250 13/10 A3021 RMK CI1 CI TR SLP230

CYHM;2007-05-30 11:00;CYHM 301100Z 00000KT 15SM SKC 14/11 A3022 RMK SLP232

CYHM;2007-05-30 12:00;CYHM 301200Z 00000KT 15SM SKC 17/10 A3022 RMK SLP234

CYHM;2007-05-30 13:00;CYHM 301300Z 23004KT 15SM SKC 20/12 A3022 RMK SLP234

CYHM;2007-05-30 14:00;CYHM 301400Z 21007KT 15SM SKC 23/12 A3022 RMK SLP232

CYHM;2007-05-30 15:00;CYHM 301500Z 21008KT 15SM SKC 25/13 A3021 RMK SLP229

CYHM;2007-05-30 16:00;CYHM 301600Z 27003KT 15SM SKC 27/14 A3020 RMK SLP226

CYHM;2007-05-30 17:00;CYHM 301700Z 32005KT 15SM FEW044 FEW220 28/16 A3019 RMK CU1CI1 CU TR CI TR SLP221

CYHM;2007-05-30 18:00;CYHM 301800Z 29008KT 15SM FEW044 FEW220 29/16 A3017 RMK CU1CI1 SLP216

CYHM;2007-05-30 19:00;CYHM 301900Z 30005KT 12SM FEW056 30/17 A3016 RMK CU2 SLP211

CYHM;2007-05-30 20:00;CYHM 302000Z 19006KT 090V240 15SM FEW065 30/16 A3014 RMK CU2 SLP206

CYHM;2007-05-30 21:00;CYHM 302100Z 18010KT 130V230 15SM FEW065 29/16 A3013 RMK CU2 SLP200

CYHM;2007-05-30 22:00;CYHM 302200Z 20010KT 12SM FEW064 28/16 A3012 RMK CU2 SC ASOCTD HAZY SLP198

CYHM;2007-05-30 23:00;CYHM 302300Z 18011KT 15SM FEW088 27/16 A3011 RMK AC2 SLP194

CYHM;2007-05-31 00:00;CYHM 310000Z 18008KT 12SM FEW088 BKN130 25/15 A3012 RMK AC2AC4 SLP197

CYHM;2007-05-31 01:00;CYHM 310100Z 20006KT 12SM BKN140 23/15 A3012 RMK AC6 SLP199

CYHM;2007-05-31 02:00;CYHM 310200Z 20006KT 15SM BKN140 21/15 A3013 RMK AC6 SLP200

CYHM;2007-05-31 03:00;CYHM 310300Z 00000KT 12SM BKN140 21/15 A3013 RMK AC6 SLP200

CYHM;2007-05-31 04:00;CYHM 310400Z 25005KT 10SM BKN140 21/15 A3013 RMK AC7 SLP201

CYHM;2007-05-31 05:00;CYHM 310500Z 25004KT 10SM BKN140 20/15 A3013 RMK AC6 SLP199

CYHM;2007-05-31 06:00;CYHM 310600Z 26003KT 8SM BKN130 21/15 A3012 RMK AC6 SLP196

CYHM;2007-05-31 07:00;CYHM 310700Z 23003KT 12SM BKN120 18/15 A3011 RMK AC7 SLP193

CYHM;2007-05-31 08:00;CYHM 310800Z 00000KT 10SM FEW140 18/15 A3011 RMK AC2 SLP192

CYHM;2007-05-31 09:00;CYHM 310900Z 24003KT 8SM BKN250 17/15 A3010 RMK CI6 HZ SLP192

CYHM;2007-05-31 10:00;CYHM 311000Z 22004KT 4SM HZ BKN150 BKN250 16/14 A3012 RMK AC5CI1 SLP197

CYHM;2007-05-31 11:00;CYHM 311100Z CCA 20005KT 5SM HZ SCT100 BKN150 BKN220 18/15 A3012 RMK AC3AC2CI2 SLP198

CYHM;2007-05-31 12:00;CYHM 311200Z 22002KT 5SM HZ FEW100 BKN140 OVC220 20/16 A3013 RMK AC2AC3CI2 SLP201

CYHM;2007-05-31 13:00;CYHM 311300Z 20002KT 8SM BKN130 OVC220 23/16 A3013 RMK AC6CI2 HAZE SLP200

CYHM;2007-05-31 14:00;CYHM 311400Z CCA 20002KT 7SM BKN120 OVC170 23/17 A3013 RMK AC6AS2 SLP199

CYHM;2007-05-31 15:00;CYHM 311500Z 16003KT 8SM SCT082 BKN120 25/17 A3012 RMK AC3AC2 SLP197

CYHM;2007-05-31 16:00;CYHM 311600Z 16008KT 8SM FEW082 BKN120 BKN210 26/19 A3012 RMK AC2AC2CI1 SLP197

CYHM;2007-05-31 17:00;CYHM 311700Z 20008KT 8SM FEW085 BKN120 29/18 A3011 RMK AC2AC2 SLP193

CYHM;2007-05-31 20:00;CYHM 312000Z CCA 15002KT 15SM FEW090 BKN140 28/17 A3007 RETS RMK AC1AC6 SLP179

CYHM;2007-05-31 21:00;CYHM 312100Z 19006KT 130V220 15SM SCT150 BKN250 29/17 A3005 RMK AC3CI2 SLP174

CYHM;2007-05-31 22:00;CYHM 312200Z 17008KT 15SM FEW150 BKN250 28/17 A3004 RMK AC1CI5 SLP171

CYHM;2007-05-31 23:00;CYHM 312300Z 16006KT 15SM BKN250 27/17 A3003 RMK CI6 SLP167

CYHM;2007-06-01 01:00;CYHM 010100Z 18007KT 10SM BKN250 23/15 A3006 RMK CI7 SLP176

CYHM;2007-06-01 02:00;CYHM 010200Z 20003KT 12SM BKN250 21/15 A3006 RMK CI5 SLP178

CYHM;2007-06-01 03:00;CYHM 010300Z 24003KT 8SM BKN250 19/15 A3007 RMK CI6 HZ SLP180

CYHM;2007-06-01 04:00;CYHM 010400Z 23004KT 10SM BKN230 18/15 A3007 RMK CI5 SLP180

CYHM;2007-06-01 05:00;CYHM 010500Z 23003KT 10SM SCT110 BKN220 19/15 A3006 RMK AC3CI1 SLP178

CYHM;2007-06-01 06:00;CYHM 010600Z 24003KT 10SM SCT110 BKN210 18/15 A3006 RMK AC3CI2 SLP175

CYHM;2007-06-01 07:00;CYHM 010700Z 24003KT 9SM FEW110 BKN190 18/15 A3005 RMK AC2AS4 SLP173

CYHM;2007-06-01 08:00;CYHM 010800Z 20007KT 8SM OVC170 18/15 A3005 RMK AS8 HZ SLP173

CYHM;2007-06-01 09:00;CYHM 010900Z 21007KT 7SM FEW110 OVC160 18/15 A3005 RMK AC2AS6 HZ SLP173

CYHM;2007-06-01 10:00;CYHM 011000Z 24004KT 4SM HZ OVC130 18/15 A3004 RMK AC8 SLP171

CYHM;2007-06-01 11:00;CYHM 011100Z 23002KT 5SM HZ OVC120 18/15 A3005 RMK AC8 SLP174

CYHM;2007-06-01 12:00;CYHM 011200Z 25002KT 5SM HZ OVC120 19/15 A3005 RMK AC8 SLP173

CYHM;2007-06-01 13:00;CYHM 011300Z 25002KT 5SM HZ OVC110 21/15 A3004 RMK AC8 SLP170

CYHM;2007-06-01 14:00;CYHM 011400Z 25005KT 7SM SCT084 BKN110 22/15 A3004 RMK AC3AC4 SLP169

CYHM;2007-06-01 15:00;CYHM 011500Z 19005KT 8SM SCT084 OVC110 23/17 A3003 RMK AC3AC5 SLP168

CYHM;2007-06-01 16:00;CYHM 011600Z 20006KT 8SM BKN090 OVC130 24/17 A3005 RMK AC6AC2 SLP173

CYHM;2007-06-01 17:00;CYHM 011700Z 20004KT 8SM FEW060 OVC090 25/17 A3005 RMK SC2AC6 SLP173

CYHM;2007-06-01 17:52;CYHM 011752Z 22008KT 8SM -SHRA SCT045 OVC082 RMK SC3AC5

CYHM;2007-06-01 18:00;CYHM 011800Z 25008KT 8SM -SHRA SCT045 OVC082 23/17 A3006 RMK SC3AC5 SLP177

CYHM;2007-06-01 19:00;CYHM 011900Z 27002KT 10SM -SHRA BKN042 OVC082 22/17 A3004 RMK SC6AC2 SLP169

CYHM;2007-06-01 20:00;CYHM 012000Z 21002KT 15SM FEW048 FEW081 BKN130 25/17 A3001 RMK SC1AC2AC3 SLP160

CYHM;2007-06-01 21:00;CYHM 012100Z 21008KT 180V260 15SM SCT140 BKN240 27/17 A2998 RMK AC3CI2 SLP150

CYHM;2007-06-01 22:00;CYHM 012200Z 20005KT 15SM BKN250 26/17 A2996 RMK CI5 SLP144

CYHM;2007-06-01 23:00;CYHM 012300Z 19002KT 15SM BKN250 26/17 A2996 RMK CI4 SLP142

CYHM;2007-06-02 00:00;CYHM 020000Z 15007KT 15SM BKN250 24/16 A2995 RMK CI5 SLP141

CYHM;2007-06-02 01:00;CYHM 020100Z 15005KT 12SM BKN250 21/16 A2994 RMK CI6 SLP138

CYHM;2007-06-02 02:00;CYHM 020200Z 19002KT 15SM BKN250 20/15 A2996 RMK CI5 SLP142

CYHM;2007-06-02 03:00;CYHM 020300Z 00000KT 10SM SCT250 19/15 A2996 RMK CI2 SLP144

CYHM;2007-06-02 04:00;CYHM 020400Z 00000KT 8SM BKN250 17/15 A2996 RMK CI3 HZ SLP143

CYHM;2007-06-02 05:00;CYHM 020500Z 00000KT 8SM FEW075 FEW250 17/15 A2996 RMK AC1CI1 HZ SLP142

CYHM;2007-06-02 06:00;CYHM 020600Z 21004KT 10SM SKC 17/15 A2994 RMK SLP139

CYHM;2007-06-02 07:00;CYHM 020700Z 23005KT 8SM SKC 16/14 A2994 RMK HZ SLP137

CYHM;2007-06-02 08:00;CYHM 020800Z 26003KT 8SM SKC 16/14 A2993 RMK HZ SLP133

CYHM;2007-06-02 09:00;CYHM 020900Z 26004KT 7SM FEW120 SCT250 17/15 A2992 RMK AC2CI1 HZ SLP131

CYHM;2007-06-02 10:00;CYHM 021000Z 23003KT 4SM BR FEW090 SCT250 15/14 A2992 RMK AC2CI2 SLP131

CYHM;2007-06-02 11:00;CYHM 021100Z 21005KT 3SM BR BKN078 17/15 A2994 RMK AC5 SLP135

CYHM;2007-06-02 12:00;CYHM 021200Z 21004KT 4SM HZ SCT250 19/16 A2993 RMK CI2 SLP132

CYHM;2007-06-02 13:00;CYHM 021300Z 20007KT 6SM HZ FEW250 22/18 A2993 RMK CI1 SLP134

CYHM;2007-06-02 14:00;CYHM 021400Z 17004KT 140V230 8SM FEW250 24/18 A2992 RMK CI1 HAZY SLP130

CYHM;2007-06-02 15:00;CYHM 021500Z 19005KT 110V290 10SM FEW250 26/19 A2991 RMK CI0 SLP126

CYHM;2007-06-02 16:00;CYHM 021600Z 25002KT 12SM FEW250 27/18 A2991 RMK CI1 WND L/V SLP124

CYHM;2007-06-02 17:00;CYHM 021700Z 23006KT 200V360 15SM FEW045 FEW250 29/18 A2989 RMK CU1CI0 SLP118

CYHM;2007-06-02 18:00;CYHM 021800Z 23007KT 160V270 15SM FEW058 SCT250 30/16 A2988 RMK CU2CI1 SLP113

CYHM;2007-06-02 19:00;CYHM 021900Z 20011KT 9SM SCT045 BKN060 29/19 A2986 RMK CU4SC1 TCU ASOCTD HZ SLP108

CYHM;2007-06-02 20:00;CYHM 022000Z 20009KT 9SM SCT045 SCT064 30/18 A2983 RMK CU3SC1 TCU ASOCTD HZ SLP098

CYHM;2007-06-02 21:00;CYHM 022100Z 20009KT 10SM FEW045 SCT064 SCT140 29/17 A2981 RMK CU2SC1AC1 SLP093

CYHM;2007-06-02 22:00;CYHM 022200Z 20010KT 10SM FEW045 BKN140 29/17 A2980 RMK CU2AC3 SLP088

CYHM;2007-06-02 23:00;CYHM 022300Z 20009KT 10SM FEW040 SCT064 BKN120 28/17 A2979 RMK CU2SC2AC2 SLP086

CYHM;2007-06-03 00:00;CYHM 030000Z 19009KT 10SM FEW060 SCT130 27/16 A2980 RMK SC2AC2 SLP087

CYHM;2007-06-03 01:00;CYHM 030100Z 20007KT 10SM FEW130 SCT250 24/16 A2980 RMK AC2CI2 SLP088

CYHM;2007-06-03 02:00;CYHM 030200Z 21006KT 12SM FEW150 SCT250 22/16 A2981 RMK AC2CI1 SLP091

CYHM;2007-06-03 03:00;CYHM 030300Z 21006KT 10SM FEW150 FEW250 19/15 A2980 RMK AC1CI1 SLP089

CYHM;2007-06-03 04:00;CYHM 030400Z 20004KT 10SM SCT270 21/16 A2979 RMK CI2 SLP086

CYHM;2007-06-03 05:00;CYHM 030500Z 20005KT 10SM BKN250 19/16 A2978 RMK CI5 SLP081

CYHM;2007-06-03 06:00;CYHM 030600Z 17005KT 10SM BKN250 19/17 A2977 RMK CI6 SLP076

CYHM;2007-06-03 07:00;CYHM 030700Z 25005KT 7SM FEW120 BKN230 19/17 A2977 RMK AC1CI3 HZ SLP078

CYHM;2007-06-03 08:00;CYHM 030800Z 23004KT 8SM FEW140 BKN250 18/17 A2975 RMK AC2CI2 SLP072

CYHM;2007-06-03 09:00;CYHM 030900Z 00000KT 7SM SCT120 BKN250 17/16 A2974 RMK AC3CI2 SLP068

CYHM;2007-06-03 10:00;CYHM 031000Z 00000KT 3SM BR SCT120 BKN250 17/16 A2973 RMK AC3CI2 VIS VRB 2 - 4 SLP065

CYHM;2007-06-03 11:00;CYHM 031100Z 00000KT 9SM FEW120 BKN250 18/16 A2974 RMK AC2CI2 SLP066

CYHM;2007-06-03 12:00;CYHM 031200Z 00000KT 10SM SCT170 BKN250 20/18 A2974 RMK AC3CI2 SLP067

CYHM;2007-06-03 13:00;CYHM 031300Z 15002KT 12SM FEW130 BKN190 BKN250 21/18 A2973 RMK AC2AC3CI2 SLP063

CYHM;2007-06-03 14:00;CYHM 031400Z 15002KT 15SM FEW130 BKN170 OVC250 23/18 A2972 RMK AC2AC2CI2 SLP061

CYHM;2007-06-03 15:00;CYHM 031500Z 15006KT 10SM BKN130 BKN170 OVC240 24/17 A2971 RMK AC5AC2CI2 SLP058

CYHM;2007-06-03 16:00;CYHM 031600Z 15007KT 070V170 8SM BKN071 OVC170 25/18 A2970 RMK AC6AC2 SLP055

CYHM;2007-06-03 17:00;CYHM 031700Z 03007KT 9SM SCT068 OVC100 23/19 A2969 RMK AC4AC4 SLP051

CYHM;2007-06-03 18:00;CYHM 031800Z 03006KT 8SM FEW110 OVC250 24/18 A2966 RMK AC2CS6 SLP040

CYHM;2007-06-03 19:00;CYHM 031900Z 04007KT 8SM FEW068 BKN120 OVC250 24/19 A2963 RMK AC2AC6CS1 SLP032

CYHM;2007-06-03 20:00;CYHM 032000Z 05008KT 8SM BKN110 OVC250 23/18 A2962 RMK AC7CS1 SLP028

CYHM;2007-06-03 20:45;CYHM 032045Z 07009KT 6SM -SHRA HZ SCT060 OVC110 RMK SC3AC5 PCPN VRY LGT

CYHM;2007-06-03 21:00;CYHM 032100Z 06009KT 6SM HZ FEW060 OVC110 21/17 A2961 RMK SC2AC6 SLP025

CYHM;2007-06-03 21:23;CYHM 032123Z 06008KT 5SM -SHRA HZ FEW030 BKN060 OVC100 RMK SC2SC2AC3

CYHM;2007-06-03 22:00;CYHM 032200Z 05006KT 4SM -SHRA HZ SCT038 OVC080 20/17 A2961 RMK SC4AC4 SLP026

CYHM;2007-06-03 22:31;CYHM 032231Z 04007KT 3SM HZ FEW040 BKN080 OVC110 RMK SC2AC4AC2

CYHM;2007-06-03 23:00;CYHM 032300Z 03006KT 2 1/2SM -SHRA HZ SCT038 BKN070 OVC110 19/17 A2960 RMK SC3AC3AC2 SLP022

CYHM;2007-06-03 23:37;CYHM 032337Z 09008KT 1SM TSRA BR SCT026 OVC064 RMK FG1SC3SC4 CB EMBD

CYHM;2007-06-03 23:42;CYHM 032342Z 09008KT 1/2SM TSRA FG BKN012 OVC030 RMK FG2SC3SC2 CB EMBD

CYHM;2007-06-04 00:00;CYHM 040000Z CCA 12014KT 1/2SM TSRA FG BKN012 OVC035 18/17 A2962 RMK FG2SC4SC2 CB EMBD /R17/ SLP029

CYHM;2007-06-04 00:20;CYHM 040020Z 16008KT 2SM -TSRA BR SCT020CB OVC050 RMK FG1CB3SC4

CYHM;2007-06-04 00:30;CYHM 040030Z 16008KT 2SM -SHRA BR SCT050 OVC063 RETSRA RMK FG1SC2SC5

CYHM;2007-06-04 01:00;CYHM 040100Z 00000KT 3SM -SHRA BR FEW050 BKN070 OVC100 18/17 A2961 RETSRA RMK SC2AC5AC2 VIS VRB 2 - 4 SLP025

CYHM;2007-06-04 02:00;CYHM 040200Z 14005KT 2SM -SHRA BR OVC087 18/17 A2962 RMK FG1AC7 SLP029

CYHM;2007-06-04 03:00;CYHM 040300Z 16010KT 1 1/2SM -SHRA BR OVC019 18/17 A2964 RMK FG2SC6 VIS VRB 1 - 2 SLP034

CYHM;2007-06-04 03:19;CYHM 040319Z 16007KT 5SM -SHRA BR FEW018 OVC044 RMK CF2SC6

CYHM;2007-06-04 04:00;CYHM 040400Z 13006KT 12SM FEW058 OVC076 17/15 A2961 RMK SC2AC6 SLP024

CYHM;2007-06-04 05:00;CYHM 040500Z 00000KT 12SM FEW046 OVC071 17/16 A2959 RMK SC2AC6 SLP018

CYHM;2007-06-04 05:50;CYHM 040550Z 08008KT 10SM -SHRA OVC087 RMK AC8

CYHM;2007-06-04 06:00;CYHM 040600Z 08007KT 15SM -SHRA OVC085 17/16 A2956 RMK AC8 SLP007

CYHM;2007-06-04 07:00;CYHM 040700Z 06007KT 7SM -SHRA FEW050 OVC110 17/15 A2953 RMK SC2AC6 SLP998

CYHM;2007-06-04 08:00;CYHM 040800Z 07008KT 2SM -SHRA BR OVC005 16/15 A2952 RMK FG1SF7 SLP994

CYHM;2007-06-04 08:37;CYHM 040837Z 06007KT 5SM -SHRA BR SCT004 OVC097 RMK CF3AC5

CYHM;2007-06-04 09:00;CYHM 040900Z 06005KT 6SM -SHRA BR FEW007 SCT080 OVC110 16/15 A2951 RMK CF1AC2AC5 SLP990

CYHM;2007-06-04 09:46;CYHM 040946Z 05004KT 1 1/2SM -SHRA BR OVC004 RMK FG2SF6 VIS VRB 1 - 2

CYHM;2007-06-04 10:00;CYHM 041000Z 04002KT 3/4SM -SHRA BR OVC004 16/15 A2950 RMK FG3SF5 VIS VRB 1/2 - 1 SLP988

CYHM;2007-06-04 10:43;CYHM 041043Z 05003KT 1 1/2SM -SHRA BR OVC005 RMK FG3SF5

CYHM;2007-06-04 11:00;CYHM 041100Z 06002KT 1 1/2SM -SHRA BR BKN003 BKN008 OVC022 16/15 A2950 RMK FG2SF3SF2SC2 SLP988

CYHM;2007-06-04 12:00;CYHM 041200Z CCB 07004KT 3SM -SHRA BR BKN006 BKN024 OVC076 16/16 A2949 RMK SF5SC2AC1 SLP984

CYHM;2007-06-04 12:54;CYHM 041254Z 04002KT 10SM BKN007 OVC024 RMK SF6SC2

CYHM;2007-06-04 13:00;CYHM 041300Z 05002KT 10SM BKN007 OVC024 17/16 A2948 RMK SF6SC2 SLP982

CYHM;2007-06-04 14:00;CYHM 041400Z 19003KT 10SM BKN011 OVC016 18/16 A2947 RMK SC5SC3 SLP980

CYHM;2007-06-04 15:00;CYHM 041500Z 18003KT 15SM SCT018 BKN023 BKN086 19/15 A2945 RMK CU3SC3AC1 SLP972

CYHM;2007-06-04 16:00;CYHM 041600Z 20007KT 15SM FEW020 BKN031 OVC084 20/16 A2945 RMK CU2SC4AC2 SLP971

CYHM;2007-06-04 17:00;CYHM 041700Z 19006KT 8SM FEW024 BKN058 OVC081 20/16 A2944 RMK CU2SC3AC3 SLP969

CYHM;2007-06-04 18:00;CYHM 041800Z 17006KT 10SM FEW024 SCT045 OVC071 20/16 A2944 RMK CU2SC2AC5 SLP967

CYHM;2007-06-04 19:00;CYHM 041900Z 19008KT 12SM FEW015 SCT024 BKN062 OVC080 20/16 A2943 RMK SF1CU2SC4AC1 SLP964

CYHM;2007-06-04 20:00;CYHM 042000Z 18008KT 10SM SCT017 BKN026 OVC036 21/17 A2941 RMK SF3SC4SC1 SLP959

CYHM;2007-06-04 21:00;CYHM 042100Z 19005KT 8SM FEW015 BKN024 BKN250 22/17 A2939 RMK SF2SC3CI1 CI TR SLP951

CYHM;2007-06-04 22:00;CYHM 042200Z 20006KT 8SM SCT022 BKN038 BKN200 22/17 A2938 RMK SC4SC1CI1 SF ASOCTD CI TR SLP948

CYHM;2007-06-04 23:00;CYHM 042300Z 19009KT 5SM HZ FEW015 SCT024 BKN250 22/18 A2938 RMK SF1SC2CS1 SLP948

CYHM;2007-06-05 00:00;CYHM 050000Z 19008KT 6SM HZ FEW024 FEW160 BKN250 21/16 A2938 RMK SC2AC1CS2 CU ASOCTD AC TR SLP947

CYHM;2007-06-05 01:00;CYHM 050100Z 19007KT 10SM FEW022 BKN120 BKN250 19/16 A2938 RMK CU1AC5CI1 CU TR CI TR SLP946

CYHM;2007-06-05 02:00;CYHM 050200Z 21004KT 12SM FEW110 SCT250 18/16 A2938 RMK AC2CI0 SLP948

CYHM;2007-06-05 03:00;CYHM 050300Z 22006KT 12SM FEW100 SCT140 SCT250 17/15 A2939 RMK AC1AC2CI0 SLP950

CYHM;2007-06-05 04:00;CYHM 050400Z 20008KT 12SM FEW110 BKN140 17/15 A2938 RMK AC1AC5 SLP948

CYHM;2007-06-05 05:00;CYHM 050500Z 22010KT 15SM FEW024 BKN140 17/15 A2937 RMK SC2AC6 SLP944

CYHM;2007-06-05 06:00;CYHM 050600Z 20008KT 10SM BKN008 OVC140 17/15 A2936 RMK SC6AC2 SLP942

CYHM;2007-06-05 07:00;CYHM 050700Z 21006KT 8SM FEW008 OVC010 17/15 A2935 RMK SF2SC6 SLP938

CYHM;2007-06-05 08:00;CYHM 050800Z 21005KT 8SM BKN014 BKN100 OVC130 17/16 A2934 RMK SC6AC1AC2 SLP935

CYHM;2007-06-05 09:00;CYHM 050900Z 20005KT 6SM -SHRA BR BKN019 OVC084 17/16 A2934 RMK SC7AC1 SLP933

CYHM;2007-06-05 09:52;CYHM 050952Z 21007KT 2 1/2SM -SHRA BR FEW007 BKN024 OVC072 RMK SC2SC3AC2

CYHM;2007-06-05 10:00;CYHM 051000Z 21007KT 2 1/2SM -SHRA BR SCT007 BKN024 OVC072 17/16 A2935 RMK SC3SC3AC2 SLP935

CYHM;2007-06-05 11:00;CYHM 051100Z 22008KT 3SM -SHRA BR SCT010 BKN016 OVC031 17/16 A2935 RMK SF3SC3SC2 SLP935

CYHM;2007-06-05 11:32;CYHM 051132Z 24018KT 5SM BR BKN006 OVC018 RMK SF6SC2

CYHM;2007-06-05 12:00;CYHM 051200Z 25016KT 8SM BKN008 OVC016 13/11 A2937 RMK SF6SC2 SLP945

CYHM;2007-06-05 13:00;CYHM 051300Z 29015G22KT 15SM BKN018 BKN026 12/10 A2941 RMK SC6SC2 SLP957

CYHM;2007-06-05 14:00;CYHM 051400Z 30020KT 15SM OVC018 11/08 A2944 RMK SC8 SLP968

CYHM;2007-06-05 15:00;CYHM 051500Z 29018G26KT 15SM FEW020 BKN025 OVC042 12/07 A2949 RMK CU2SC5SC2 SLP988

CYHM;2007-06-05 16:00;CYHM 051600Z 28016G22KT 15SM BKN023 OVC028 12/07 A2953 RMK SC6SC2 SLP000

CYHM;2007-06-05 17:00;CYHM 051700Z 29016KT 15SM BKN025 BKN034 12/06 A2956 RMK SC6SC2 SLP010

CYHM;2007-06-05 18:00;CYHM 051800Z 29018KT 15SM OVC023 12/06 A2960 RMK SC8 SLP023

CYHM;2007-06-05 19:00;CYHM 051900Z 28014G22KT 15SM OVC023 11/06 A2963 RMK SC8 SLP035

CYHM;2007-06-05 20:00;CYHM 052000Z 31012G18KT 15SM OVC022 10/06 A2969 RMK SC8 SLP053

CYHM;2007-06-05 21:00;CYHM 052100Z 29012KT 15SM OVC023 11/06 A2971 RMK SC8 SLP063

CYHM;2007-06-05 22:00;CYHM 052200Z 31010KT 15SM BKN024 11/06 A2974 RMK SC7 SLP073

CYHM;2007-06-05 23:00;CYHM 052300Z 31011KT 15SM BKN024 10/05 A2976 RMK SC6 SLP078

CYHM;2007-06-06 00:00;CYHM 060000Z 33009KT 15SM BKN022 BKN180 09/05 A2978 RMK SC6AC1 AC TR SLP087

CYHM;2007-06-06 01:00;CYHM 060100Z 00000KT 15SM FEW022 BKN140 08/05 A2979 RMK SC1AC5 SC TR SLP091

CYHM;2007-06-06 02:00;CYHM 060200Z 00000KT 15SM BKN130 08/05 A2981 RMK AC7 SLP099

CYHM;2007-06-06 03:00;CYHM 060300Z 00000KT 15SM BKN100 BKN130 08/06 A2981 RMK AC5AC1 SLP100

CYHM;2007-06-06 04:00;CYHM 060400Z 00000KT 15SM SCT090 BKN100 08/06 A2983 RMK AC3AC4 SLP105

CYHM;2007-06-06 05:00;CYHM 060500Z 00000KT 15SM FEW052 BKN080 BKN110 08/06 A2984 RMK SC2AC3AC2 SLP110

CYHM;2007-06-06 06:00;CYHM 060600Z 00000KT 15SM BKN050 OVC080 08/07 A2985 RMK SC6AC2 SLP112

CYHM;2007-06-06 07:00;CYHM 060700Z 00000KT 15SM FEW040 OVC060 08/07 A2985 RMK SC2SC6 SLP113

CYHM;2007-06-06 08:00;CYHM 060800Z 26003KT 15SM BKN040 OVC064 09/06 A2986 RMK SC6SC2 SLP115

CYHM;2007-06-06 09:00;CYHM 060900Z 26003KT 15SM BKN054 09/06 A2986 RMK SC7 SLP116

CYHM;2007-06-06 10:00;CYHM 061000Z 27004KT 15SM BKN038 09/05 A2988 RMK SC7 SLP123

CYHM;2007-06-06 11:00;CYHM 061100Z 28003KT 15SM BKN044 09/05 A2991 RMK SC7 SLP131

CYHM;2007-06-06 12:00;CYHM 061200Z 29006KT 15SM BKN044 10/06 A2993 RMK SC6 SLP140

CYHM;2007-06-06 13:00;CYHM 061300Z 28009KT 15SM FEW028 BKN045 12/04 A2995 RMK CU2SC2 SLP145

CYHM;2007-06-06 14:00;CYHM 061400Z 32011KT 15SM FEW032 BKN039 12/04 A2995 RMK CU2SC3 SLP146

CYHM;2007-06-06 15:00;CYHM 061500Z 28008KT 15SM BKN045 12/04 A2996 RMK SC7 CU ASOCTD SLP148

CYHM;2007-06-06 16:00;CYHM 061600Z 30010KT 15SM FEW036 BKN042 13/05 A2996 RMK CU2SC5 SLP149

CYHM;2007-06-06 17:00;CYHM 061700Z 24008KT 15SM FEW036 BKN046 14/06 A2996 RMK CU2SC4 SLP148

CYHM;2007-06-06 18:00;CYHM 061800Z 28006KT 15SM FEW036 BKN045 16/06 A2995 RMK CU2SC3 SLP145

CYHM;2007-06-06 19:00;CYHM 061900Z 28010KT 15SM SCT048 SCT250 17/07 A2995 RMK CU3CI1 CI TR SLP146

CYHM;2007-06-06 20:00;CYHM 062000Z 25007KT 15SM FEW052 FEW250 17/06 A2995 RMK CU2CI1 CI TR SLP146

CYHM;2007-06-06 21:00;CYHM 062100Z 28009KT 15SM FEW052 FEW250 18/06 A2994 RMK CU2CI1 CI TR SLP141

CYHM;2007-06-06 22:00;CYHM 062200Z 27006KT 15SM FEW050 FEW250 18/06 A2995 RMK CU1CI1 CI TR SLP144

CYHM;2007-06-06 23:00;CYHM 062300Z 23008KT 15SM FEW054 FEW250 17/07 A2997 RMK CU1CI1 CI TR SLP149

CYHM;2007-06-07 00:00;CYHM 070000Z 18006KT 15SM FEW052 FEW250 15/07 A2996 RMK CU1CI1 CU TR CONTRAILS SLP149

CYHM;2007-06-07 01:00;CYHM 070100Z 19006KT 15SM FEW190 SCT250 13/07 A2997 RMK AC1CI2 AC TR SLP150

CYHM;2007-06-07 02:00;CYHM 070200Z CCA 18005KT 15SM FEW180 BKN220 11/07 A2997 RMK AC1CI2 AC TR SLP153

CYHM;2007-06-07 03:00;CYHM 070300Z 00000KT 15SM FEW220 11/07 A2999 RMK CI2 SLP159

CYHM;2007-06-07 04:00;CYHM 070400Z 00000KT 15SM FEW210 10/07 A2999 RMK CI1 SLP160

CYHM;2007-06-07 05:00;CYHM 070500Z 00000KT 15SM SCT200 09/06 A2998 RMK CI2 SLP156

CYHM;2007-06-07 06:00;CYHM 070600Z 00000KT 15SM BKN180 10/07 A2997 RMK AC6 SLP151

CYHM;2007-06-07 07:00;CYHM 070700Z 00000KT 15SM BKN160 10/08 A2996 RMK AC7 SLP147

CYHM;2007-06-07 08:00;CYHM 070800Z 15007KT 15SM FEW100 BKN150 10/08 A2995 RMK AC2AC6 SLP144

CYHM;2007-06-07 09:00;CYHM 070900Z 14005KT 15SM BKN100 BKN130 11/08 A2994 RMK AC6AC2 SLP141

CYHM;2007-06-07 10:00;CYHM 071000Z 13006KT 15SM BKN130 11/07 A2995 RMK AC7 SLP144

CYHM;2007-06-07 11:00;CYHM 071100Z 12007KT 15SM OVC130 12/07 A2996 RMK AC8 SLP146

CYHM;2007-06-07 12:00;CYHM 071200Z 09005KT 15SM SCT100 BKN130 13/08 A2996 RMK AC3AC4 SLP148

CYHM;2007-06-07 13:00;CYHM 071300Z 10006KT 15SM FEW130 BKN180 BKN220 15/10 A2996 RMK AC2AC2CI1 SLP148

CYHM;2007-06-07 14:00;CYHM 071400Z 15005KT 15SM FEW180 SCT220 18/12 A2994 RMK AC1CI2 SLP140

CYHM;2007-06-07 15:00;CYHM 071500Z 19007KT 15SM FEW180 FEW220 22/14 A2992 RMK AC1CI1 AC TR CI TR SLP133

CYHM;2007-06-07 16:00;CYHM 071600Z 20015KT 15SM SCT240 23/14 A2991 RMK CI2 SLP127

CYHM;2007-06-07 17:00;CYHM 071700Z 19014KT 15SM FEW170 BKN220 24/14 A2989 RMK AC1CI2 AC TR CONTRAIL SLP123

CYHM;2007-06-07 18:00;CYHM 071800Z 19014G19KT 15SM BKN220 26/15 A2987 RMK CI4 SLP115

CYHM;2007-06-07 19:00;CYHM 071900Z 18013G20KT 150V220 15SM SCT230 27/15 A2985 RMK CI1 SLP108

CYHM;2007-06-07 20:00;CYHM 072000Z 18016KT 15SM BKN250 28/15 A2984 RMK CI1 SLP103

CYHM;2007-06-07 21:00;CYHM 072100Z 18014KT 15SM BKN250 28/15 A2982 RMK CI2 SLP097

CYHM;2007-06-07 22:00;CYHM 072200Z 19014G19KT 140V230 15SM BKN250 28/16 A2981 RMK CI2 SLP092

CYHM;2007-06-07 23:00;CYHM 072300Z 19016G21KT 15SM SCT250 28/15 A2979 RMK CI1 SLP087

CYHM;2007-06-08 00:00;CYHM 080000Z 18014KT 15SM SCT250 27/15 A2978 RMK CI1 SLP081

CYHM;2007-06-08 01:00;CYHM 080100Z 18013G19KT 15SM FEW250 26/15 A2976 RMK CI1 SLP077

CYHM;2007-06-08 02:00;CYHM 080200Z 18012KT 15SM FEW250 25/15 A2977 RMK CI0 SLP080

CYHM;2007-06-08 03:00;CYHM 080300Z 19012KT 15SM SKC 25/15 A2978 RMK SLP081

CYHM;2007-06-08 04:00;CYHM 080400Z 20015KT 15SM SKC 24/15 A2977 RMK SLP079

CYHM;2007-06-08 05:00;CYHM 080500Z 20015G20KT 15SM SKC 24/15 A2976 RMK SLP076

CYHM;2007-06-08 06:00;CYHM 080600Z 20014G19KT 15SM SKC 24/15 A2975 RMK SLP070

CYHM;2007-06-08 07:00;CYHM 080700Z 20018G23KT 15SM SCT280 24/15 A2974 RMK CI2 SLP067

CYHM;2007-06-08 08:00;CYHM 080800Z 21015G20KT 15SM SCT280 23/15 A2974 RMK CI3 SLP066

CYHM;2007-06-08 09:00;CYHM 080900Z 21014KT 10SM SCT190 23/16 A2975 RMK AC4 SLP068

CYHM;2007-06-08 10:00;CYHM 081000Z 20011KT 8SM BKN170 23/16 A2975 RMK AC6 HZ SLP070

CYHM;2007-06-08 11:00;CYHM 081100Z 20010KT 15SM FEW160 BKN210 22/17 A2977 RMK AC2CI2 SLP075

CYHM;2007-06-08 12:00;CYHM 081200Z 19010KT 15SM FEW120 FEW220 23/18 A2978 RMK AC1CI0 SLP080

CYHM;2007-06-08 13:00;CYHM 081300Z 21015G20KT 15SM FEW150 26/19 A2977 RMK AC1 SLP076

CYHM;2007-06-08 14:00;CYHM 081400Z 22018G26KT 15SM FEW150 27/19 A2976 RMK AC1 SLP075

CYHM;2007-06-08 15:00;CYHM 081500Z 20020KT 10SM SCT042 SCT120 28/20 A2975 RMK SC3AC1 SLP071

CYHM;2007-06-08 16:00;CYHM 081600Z 22018KT 15SM FEW038 29/20 A2975 RMK CU1 SC ASOCTD SLP068

CYHM;2007-06-08 17:00;CYHM 081700Z 21022KT 12SM FEW045 29/20 A2974 RMK CU1 SC ASOCTD SLP067

CYHM;2007-06-08 18:00;CYHM 081800Z 22026KT 12SM FEW038 BKN045 30/21 A2973 RMK CU2SC3 SLP064

CYHM;2007-06-08 19:00;CYHM 081900Z 21024G30KT 15SM SCT041 30/20 A2970 RMK CU4 SLP054

CYHM;2007-06-08 20:00;CYHM 082000Z 21023G28KT 170V260 15SM FEW044 FEW130 BKN260 30/20 A2970 RMK CU2AC1CI4 SLP054

CYHM;2007-06-08 20:28;CYHM 082028Z 25030G50KT 190V280 15SM TS VCSH BKN044CB OVC250 RMK CB6CI2

CYHM;2007-06-08 20:36;CYHM 082036Z 25030G50KT 190V280 9SM -TSRA BKN044CB OVC250 RMK CB6CI2

CYHM;2007-06-08 20:45;CYHM 082045Z 25022G40KT 2SM TSRA OVC042CB RMK RA1CB7

CYHM;2007-06-08 21:00;CYHM 082100Z 24015G28KT 4SM -TSRA OVC038CB 18/16 A2980 RERA RMK CB8 PRESRR SLP090

CYHM;2007-06-08 21:45;CYHM 082145Z 23008KT 15SM -SHRA FEW038CB BKN050 OVC170 RETS RMK CB2SC4AC2

CYHM;2007-06-08 22:00;CYHM 082200Z 20007KT 15SM -SHRA SCT053 BKN160 OVC250 19/17 A2974 RETS RMK SC3AC3CI2 PCPN VRY LGT SLP070

CYHM;2007-06-08 23:00;CYHM 082300Z 22009KT 15SM FEW050 BKN140 BKN250 21/18 A2980 RMK SC1AC6CI1 SLP090

CYHM;2007-06-09 00:00;CYHM 090000Z 26007KT 210V300 15SM BKN028 BKN041 22/18 A2986 RMK SC6SC1 CU ASOCTD SLP108

CYHM;2007-06-09 01:00;CYHM 090100Z 30013G22KT 15SM FEW023 FEW045 BKN250 17/12 A2993 RMK CU1SC2CI2 PRESRR CU TR SLP132

CYHM;2007-06-09 02:00;CYHM 090200Z CCA 32007G17KT 280V350 15SM FEW045 FEW250 15/09 A2997 RMK SC1CI0 SLP147

CYHM;2007-06-09 03:00;CYHM 090300Z 31004KT 15SM FEW045 FEW250 13/09 A3000 RMK SC1CI1 SLP157

CYHM;2007-06-09 04:00;CYHM 090400Z 32005KT 15SM FEW035 FEW210 13/09 A3001 RMK SC1CI1 TR SC SLP160

CYHM;2007-06-09 05:00;CYHM 090500Z 32013KT 15SM FEW035 13/08 A3003 RMK SC1 SLP167

CYHM;2007-06-09 06:00;CYHM 090600Z 32013G18KT 15SM FEW210 12/08 A3004 RMK CI1 SLP169

CYHM;2007-06-09 07:00;CYHM 090700Z 33007KT 15SM FEW210 12/07 A3005 RMK CI1 SLP174

CYHM;2007-06-09 08:00;CYHM 090800Z 33003KT 15SM SKC 10/07 A3006 RMK SLP178

CYHM;2007-06-09 09:00;CYHM 090900Z 00000KT 15SM FEW210 09/06 A3008 RMK CI1 SLP189

CYHM;2007-06-09 10:00;CYHM 091000Z 00000KT 15SM FEW220 09/06 A3010 RMK CI1 SLP194

CYHM;2007-06-09 11:00;CYHM 091100Z 21002KT 15SM SKC 10/08 A3013 RMK SLP205

CYHM;2007-06-09 12:00;CYHM 091200Z 35003KT 15SM FEW250 13/07 A3014 RMK CI1 SLP207

CYHM;2007-06-09 13:00;CYHM 091300Z 36006KT 320V040 15SM FEW250 15/08 A3015 RMK CI1 SLP210

CYHM;2007-06-09 14:00;CYHM 091400Z 03008KT 340V070 15SM FEW250 17/09 A3015 RMK CI0 SLP210

CYHM;2007-06-09 15:00;CYHM 091500Z 01010KT 320V060 15SM FEW250 18/09 A3015 RMK CI0 SLP212

CYHM;2007-06-09 16:00;CYHM 091600Z 02008KT 310V050 15SM FEW250 19/09 A3015 RMK CI1 SLP210

CYHM;2007-06-09 17:00;CYHM 091700Z 35008KT 310V050 15SM FEW045 FEW250 20/08 A3013 RMK CU1CI0 CU TR SLP206

CYHM;2007-06-09 18:00;CYHM 091800Z 04008KT 330V160 15SM FEW045 FEW250 20/09 A3012 RMK CU1CI1 BOTH LYRS TR SLP200

CYHM;2007-06-09 19:00;CYHM 091900Z 02006KT 270V080 15SM FEW050 21/09 A3011 RMK SC1 SC TR SLP197

CYHM;2007-06-09 20:00;CYHM 092000Z 02005KT 330V070 15SM FEW070 21/09 A3010 RMK AC1 AC TR SLP193

CYHM;2007-06-09 21:00;CYHM 092100Z 04003KT 15SM SKC 22/09 A3009 RMK WND L/V SLP191

CYHM;2007-06-09 22:00;CYHM 092200Z 18002KT 15SM SKC 22/09 A3009 RMK WND L/V SLP189

CYHM;2007-06-09 23:00;CYHM 092300Z 03002KT 15SM SKC 21/09 A3009 RMK WND L/V SLP189

CYHM;2007-06-10 00:00;CYHM 100000Z 09002KT 15SM SKC 20/10 A3008 RMK SLP187

CYHM;2007-06-10 01:00;CYHM 100100Z 19003KT 15SM SKC 18/10 A3008 RMK SLP186

CYHM;2007-06-10 02:00;CYHM 100200Z 20002KT 15SM SKC 15/10 A3008 RMK SLP186

CYHM;2007-06-10 03:00;CYHM 100300Z 00000KT 15SM SKC 14/09 A3008 RMK SLP188

CYHM;2007-06-10 04:00;CYHM 100400Z 00000KT 15SM SKC 13/09 A3008 RMK SLP186

CYHM;2007-06-10 05:00;CYHM 100500Z 26003KT 15SM SKC 12/09 A3008 RMK SLP186

CYHM;2007-06-10 06:00;CYHM 100600Z 00000KT 15SM SKC 12/09 A3008 RMK SLP186

CYHM;2007-06-10 07:00;CYHM 100700Z 05005KT 15SM FEW210 11/09 A3008 RMK CI1 SLP186

CYHM;2007-06-10 08:00;CYHM 100800Z 00000KT 15SM SKC 11/07 A3008 RMK SLP187

CYHM;2007-06-10 09:00;CYHM 100900Z 00000KT 15SM SKC 11/07 A3008 RMK SLP187

CYHM;2007-06-10 10:00;CYHM 101000Z 00000KT 15SM FEW210 10/06 A3010 RMK CI1 SLP194

CYHM;2007-06-10 11:00;CYHM 101100Z 03002KT 15SM FEW220 14/07 A3012 RMK CI1 SLP199

CYHM;2007-06-10 12:00;CYHM 101200Z 06002KT 15SM SKC 17/07 A3012 RMK SLP199

CYHM;2007-06-10 13:00;CYHM 101300Z 22002KT 15SM FEW250 17/10 A3014 RMK CI1 SLP205

CYHM;2007-06-10 14:00;CYHM 101400Z 01002KT 15SM FEW250 20/10 A3013 RMK CI1 WND L/V SLP204

CYHM;2007-06-10 15:00;CYHM 101500Z 22002KT 15SM FEW250 21/11 A3013 RMK CI1 WND L/V SLP203

CYHM;2007-06-10 16:00;CYHM 101600Z 22007KT 140V290 15SM FEW045 FEW250 21/10 A3013 RMK CU1CI1 BOTH LYRS TR SLP205

CYHM;2007-06-10 17:00;CYHM 101700Z 27004KT 160V340 15SM FEW045 23/11 A3013 RMK CU1 SLP204

CYHM;2007-06-10 18:00;CYHM 101800Z 32002KT 15SM FEW048 24/12 A3010 RMK CU1 WND L/V SLP193

CYHM;2007-06-10 19:00;CYHM 101900Z 03005KT 340V090 15SM FEW045 24/10 A3008 RMK CU1 SLP187

CYHM;2007-06-10 20:00;CYHM 102000Z 09002KT 15SM FEW045 24/10 A3008 RMK SC2 CU ASOCTD WND L/V SLP186

CYHM;2007-06-10 21:00;CYHM 102100Z 21002KT 15SM FEW050 24/11 A3007 RMK SC2 WND L/V SLP184

CYHM;2007-06-10 22:00;CYHM 102200Z 30002KT 15SM FEW055 24/11 A3007 RMK SC2 WND L/V SLP182

CYHM;2007-06-10 23:00;CYHM 102300Z 03002KT 15SM FEW055 SCT072 24/11 A3008 RMK SC2AC2 WND L/V SLP185

CYHM;2007-06-11 00:00;CYHM 110000Z 16008KT 15SM FEW055 SCT075 21/11 A3009 RMK SC1AC2 SLP190

CYHM;2007-06-11 01:00;CYHM 110100Z 15006KT 15SM FEW055 19/10 A3009 RMK SC2 SLP189

CYHM;2007-06-11 02:00;CYHM 110200Z 16003KT 15SM FEW055 FEW071 18/10 A3010 RMK SC1AC2 SLP194

CYHM;2007-06-11 03:00;CYHM 110300Z 00000KT 15SM FEW073 16/10 A3011 RMK AC1 SLP196

CYHM;2007-06-11 04:00;CYHM 110400Z 00000KT 15SM SKC 15/10 A3010 RMK SLP194

CYHM;2007-06-11 05:00;CYHM 110500Z 36004KT 15SM SKC 13/10 A3011 RMK SLP195

CYHM;2007-06-11 06:00;CYHM 110600Z 00000KT 15SM SKC 15/09 A3010 RMK SLP194

CYHM;2007-06-11 07:00;CYHM 110700Z 00000KT 15SM FEW050 14/09 A3010 RMK SC1 SLP193

CYHM;2007-06-11 08:00;CYHM 110800Z 05007KT 15SM SKC 13/09 A3011 RMK SLP196

CYHM;2007-06-11 09:00;CYHM 110900Z 05005KT 15SM FEW035 FEW270 14/09 A3012 RMK SC1CI1 SLP199

CYHM;2007-06-11 10:00;CYHM 111000Z 05002KT 15SM FEW090 FEW270 14/09 A3013 RMK AC1CI1 SLP203

CYHM;2007-06-11 11:00;CYHM 111100Z 00000KT 15SM FEW100 16/10 A3015 RMK AC1 AC TR SLP209

CYHM;2007-06-11 12:00;CYHM 111200Z 05005KT 15SM FEW100 19/11 A3016 RMK AC1 SLP212

CYHM;2007-06-11 13:00;CYHM 111300Z 04002KT 15SM SKC 21/10 A3017 RMK SLP215

CYHM;2007-06-11 14:00;CYHM 111400Z 30002KT 15SM FEW120 22/11 A3017 RMK AC1 SLP215

CYHM;2007-06-11 15:00;CYHM 111500Z 33003KT 15SM FEW220 23/11 A3016 RMK CI1 SLP213

CYHM;2007-06-11 16:00;CYHM 111600Z 07002KT 15SM FEW042 FEW160 FEW240 24/11 A3016 RMK CU1AC1CI0 CU TR AC TR CI TR SLP211

CYHM;2007-06-11 17:00;CYHM 111700Z 35007KT 15SM FEW045 FEW064 SCT160 25/11 A3015 RMK CU2SC1AC1 SLP209

CYHM;2007-06-11 18:00;CYHM 111800Z 06002KT 15SM FEW045 SCT078 26/11 A3014 RMK CU2AC2 SLP204

CYHM;2007-06-11 19:00;CYHM 111900Z 00000KT 15SM FEW048 FEW080 FEW250 26/09 A3012 RMK CU1AC1CI1 AC TR CI TR SLP199

CYHM;2007-06-11 20:00;CYHM 112000Z 07009KT 15SM FEW050 FEW250 26/11 A3012 RMK CU1CI1 CI TR SLP197

CYHM;2007-06-11 21:00;CYHM 112100Z 06008KT 010V100 15SM FEW058 26/08 A3012 RMK CU1 CU TR SLP197

CYHM;2007-06-11 22:00;CYHM 112200Z 05009KT 15SM FEW060 26/10 A3011 RMK CU1 CU TR SLP196

CYHM;2007-06-11 23:00;CYHM 112300Z 06006KT 15SM SKC 25/11 A3012 RMK SLP198

CYHM;2007-06-12 00:00;CYHM 120000Z 00000KT 15SM SKC 24/12 A3012 RMK SLP198

CYHM;2007-06-12 01:00;CYHM 120100Z 00000KT 15SM FEW070 22/11 A3012 RMK AC1 AC TR SLP197

CYHM;2007-06-12 02:00;CYHM 120200Z 00000KT 15SM FEW073 19/13 A3013 RMK AC2 SLP202

CYHM;2007-06-12 03:00;CYHM 120300Z 36007KT 15SM FEW072 19/11 A3014 RMK AC1 SLP206

CYHM;2007-06-12 04:00;CYHM 120400Z 04005KT 15SM SKC 19/11 A3015 RMK SLP207

CYHM;2007-06-12 05:00;CYHM 120500Z 35003KT 15SM SKC 18/10 A3014 RMK SLP205

CYHM;2007-06-12 06:00;CYHM 120600Z 35004KT 15SM SKC 18/10 A3014 RMK SLP204

CYHM;2007-06-12 07:00;CYHM 120700Z 35007KT 15SM SKC 17/10 A3013 RMK SLP203

CYHM;2007-06-12 08:00;CYHM 120800Z 02003KT 15SM SKC 17/10 A3014 RMK SLP204

CYHM;2007-06-12 09:00;CYHM 120900Z 00000KT 15SM FEW250 17/10 A3014 RMK CI1 CI TR CONTRAILS SLP205

CYHM;2007-06-12 10:00;CYHM 121000Z 02004KT 15SM FEW250 16/10 A3015 RMK CI1 CONTRAILS SLP209

CYHM;2007-06-12 11:00;CYHM 121100Z 03002KT 15SM FEW240 19/12 A3017 RMK CI0 SLP214

CYHM;2007-06-12 12:00;CYHM 121200Z 03002KT 15SM FEW240 21/13 A3017 RMK CI1 CONTRAIL SLP216

CYHM;2007-06-12 13:00;CYHM 121300Z 01002KT 15SM FEW240 23/13 A3018 RMK CI1 SLP219

CYHM;2007-06-12 14:00;CYHM 121400Z 35002KT 15SM FEW240 25/14 A3018 RMK CI1 SLP217

CYHM;2007-06-12 15:00;CYHM 121500Z 01002KT 15SM SKC 27/15 A3017 RMK SLP216

CYHM;2007-06-12 16:00;CYHM 121600Z 36003KT 15SM SKC 28/15 A3016 RMK SLP211

CYHM;2007-06-12 17:00;CYHM 121700Z 01006KT 15SM FEW044 29/13 A3016 RMK CU1 CU TR SLP210

CYHM;2007-06-12 18:00;CYHM 121800Z 02012KT 15SM FEW044 30/13 A3014 RMK CU1 SLP204

CYHM;2007-06-12 19:00;CYHM 121900Z 07009KT 15SM FEW048 31/13 A3013 RMK CU1 CU TR SLP200

CYHM;2007-06-12 20:00;CYHM 122000Z 05005KT 15SM FEW058 30/13 A3012 RMK CU1 SLP196

CYHM;2007-06-12 21:00;CYHM 122100Z 34006KT 15SM FEW060 30/13 A3011 RMK CU1 SLP194

CYHM;2007-06-12 22:00;CYHM 122200Z 01007KT 15SM FEW080 30/13 A3010 RMK AC1 SLP192

CYHM;2007-06-12 23:00;CYHM 122300Z 35010KT 15SM FEW084 30/12 A3010 RMK AC1 AC TR SLP190

CYHM;2007-06-13 00:00;CYHM 130000Z 35008KT 15SM SKC 28/13 A3009 RMK SLP186

CYHM;2007-06-13 01:00;CYHM 130100Z 35005KT 15SM FEW080 25/12 A3009 RMK AC1 AC TR SLP185

CYHM;2007-06-13 02:00;CYHM 130200Z 00000KT 15SM SKC 24/12 A3010 RMK SLP189

CYHM;2007-06-13 03:00;CYHM 130300Z 02005KT 15SM SKC 24/11 A3011 RMK SLP192

CYHM;2007-06-13 04:00;CYHM 130400Z 01005KT 15SM SKC 21/11 A3010 RMK SLP188

CYHM;2007-06-13 05:00;CYHM 130500Z 01002KT 15SM SKC 21/11 A3009 RMK SLP185

CYHM;2007-06-13 06:00;CYHM 130600Z 01006KT 15SM SKC 22/11 A3008 RMK SLP182

CYHM;2007-06-13 07:00;CYHM 130700Z 35007KT 15SM SKC 20/11 A3008 RMK SLP181

CYHM;2007-06-13 08:00;CYHM 130800Z 00000KT 15SM FEW250 20/11 A3008 RMK CI0 SLP182

CYHM;2007-06-13 09:00;CYHM 130900Z 00000KT 15SM BKN250 20/11 A3008 RMK CI2 SLP182

CYHM;2007-06-13 10:00;CYHM 131000Z 00000KT 15SM BKN250 20/11 A3008 RMK CI2 SLP184

CYHM;2007-06-13 11:00;CYHM 131100Z 02002KT 15SM BKN210 22/12 A3009 RMK CI5 SLP187

CYHM;2007-06-13 12:00;CYHM 131200Z 03008KT 15SM FEW180 SCT220 24/12 A3010 RMK AC1CI1 SLP187

CYHM;2007-06-13 13:00;CYHM 131300Z 04010KT 15SM FEW042 FEW220 25/12 A3010 RMK CU1CI1 CU TR CI TR SLP188

CYHM;2007-06-13 14:00;CYHM 131400Z 02008KT 15SM FEW040 FEW160 26/13 A3009 RMK CU1AC1 CU TR SLP186

CYHM;2007-06-13 15:00;CYHM 131500Z 06008KT 15SM FEW040 FEW090 SCT150 26/14 A3009 RMK CU1AC1AC2 CU TR SLP186

CYHM;2007-06-13 16:00;CYHM 131600Z 06014KT 15SM FEW040 FEW160 26/15 A3010 RMK CU1AC1 SLP188

CYHM;2007-06-13 17:00;CYHM 131700Z 03012KT 15SM FEW220 26/15 A3009 RMK CI1 SLP187

CYHM;2007-06-13 18:00;CYHM 131800Z 02004KT 15SM FEW045 FEW120 FEW240 29/16 A3007 RMK CU1AC1CI1 CU TR AC TR SLP178

CYHM;2007-06-13 19:00;CYHM 131900Z 00000KT 15SM FEW055 FEW084 SCT250 30/16 A3005 RMK CU1AC1CI2 CU TR AC TR SLP172

CYHM;2007-06-13 20:00;CYHM 132000Z 03007KT 15SM FEW064TCU SCT250 30/16 A3004 RMK TCU1CI1 CONTRAILS SLP167

CYHM;2007-06-13 21:00;CYHM 132100Z 04013KT 12SM FEW064TCU BKN250 27/17 A3004 RMK TCU1CI1 TCU TR CONTRAILS SLP170

CYHM;2007-06-13 22:00;CYHM 132200Z 04011KT 15SM FEW180 BKN250 26/14 A3004 RMK AC1CI1 AC TR CONTRAILS SLP171

CYHM;2007-06-13 23:00;CYHM 132300Z 04008KT 15SM FEW060 SCT250 26/13 A3005 RMK CU1CI1 CU TR CONTRAILS SLP172

CYHM;2007-06-14 00:00;CYHM 140000Z 04005KT 15SM BKN140 BKN250 26/13 A3005 RMK AC3CI1 SLP173

CYHM;2007-06-14 01:00;CYHM 140100Z 00000KT 15SM SCT110 SCT250 23/13 A3005 RMK AC2CI1 CI TR SLP172

CYHM;2007-06-14 02:00;CYHM 140200Z 00000KT 15SM BKN130 22/14 A3007 RMK AC6 SLP177

CYHM;2007-06-14 03:00;CYHM 140300Z 00000KT 15SM BKN110 21/14 A3007 RMK AC7 SLP181

CYHM;2007-06-14 04:00;CYHM 140400Z 04005KT 15SM FEW120 21/13 A3008 RMK AC2 SLP184

CYHM;2007-06-14 05:00;CYHM 140500Z 03004KT 15SM FEW260 19/13 A3009 RMK CI1 SLP185

CYHM;2007-06-14 06:00;CYHM 140600Z 03006KT 15SM FEW260 19/13 A3010 RMK CI1 SLP189

CYHM;2007-06-14 07:00;CYHM 140700Z 05007KT 15SM FEW120 18/12 A3009 RMK AC1 SLP187

CYHM;2007-06-14 08:00;CYHM 140800Z 04010KT 15SM FEW100 18/12 A3009 RMK AC1 SLP185

CYHM;2007-06-14 09:00;CYHM 140900Z 04012KT 15SM FEW060TCU 18/11 A3008 RMK TCU2 SLP183

CYHM;2007-06-14 10:00;CYHM 141000Z 05012KT 15SM FEW060 FEW270 17/11 A3008 RMK CU1CI1 SLP183

CYHM;2007-06-14 11:00;CYHM 141100Z 06016KT 15SM FEW240 17/12 A3010 RMK CI1 SLP189

CYHM;2007-06-14 12:00;CYHM 141200Z 04013KT 15SM FEW140 FEW240 18/13 A3010 RMK AC1CI1 AC TR CI TR SLP191

CYHM;2007-06-14 13:00;CYHM 141300Z 05014KT 15SM FEW025 FEW220 19/14 A3010 RMK CU1CI1 CU TR SLP192

CYHM;2007-06-14 14:00;CYHM 141400Z 04012KT 15SM FEW160 20/14 A3012 RMK AC1 AC TR SLP196

CYHM;2007-06-14 15:00;CYHM 141500Z 06012KT 15SM FEW028 FEW220 20/14 A3013 RMK CU1CI1 CU TR SLP201

CYHM;2007-06-14 16:00;CYHM 141600Z 04014KT 15SM FEW036 FEW240 21/15 A3013 RMK CU1CI0 CU TR SLP203

CYHM;2007-06-14 17:00;CYHM 141700Z 04013KT 15SM FEW028 FEW220 22/15 A3012 RMK CU1CI1 CU TR SLP199

CYHM;2007-06-14 18:00;CYHM 141800Z 05018KT 15SM FEW040 FEW240 23/14 A3011 RMK CU1CI1 CU TR CI TR SLP196

CYHM;2007-06-14 19:00;CYHM 141900Z 06020KT 15SM FEW040 FEW250 22/12 A3010 RMK CU1CI1 BOTH LYRS TR SLP193

CYHM;2007-06-14 20:00;CYHM 142000Z 05018KT 15SM FEW040 FEW250 22/12 A3009 RMK CU1CI0 SLP189

CYHM;2007-06-14 21:00;CYHM 142100Z 06013KT 15SM FEW040 FEW250 21/12 A3009 RMK CU1CI0 CONTRAILS SLP188

CYHM;2007-06-14 22:00;CYHM 142200Z 05013KT 15SM SCT250 21/11 A3008 RMK CI1 CONTRAILS SLP186

CYHM;2007-06-14 23:00;CYHM 142300Z 04013KT 15SM BKN250 20/09 A3009 RMK CI2 CONTRAILS SLP187

CYHM;2007-06-15 00:00;CYHM 150000Z 05013KT 15SM BKN250 19/10 A3009 RMK CI2 CONTRAILS SLP189

CYHM;2007-06-15 01:00;CYHM 150100Z 04010KT 15SM BKN250 18/09 A3009 RMK CI3 SLP190

CYHM;2007-06-15 02:00;CYHM 150200Z 04008KT 15SM BKN240 16/10 A3010 RMK CI5 SLP192

CYHM;2007-06-15 03:00;CYHM 150300Z 04007KT 15SM OVC240 16/10 A3008 RMK CI7 SLP186

CYHM;2007-06-15 04:00;CYHM 150400Z 07007KT 15SM OVC230 16/10 A3008 RMK CI8 SLP186

CYHM;2007-06-15 05:00;CYHM 150500Z 06007KT 15SM BKN220 16/11 A3009 RMK CI6 SLP188

CYHM;2007-06-15 06:00;CYHM 150600Z 04007KT 15SM FEW220 15/10 A3008 RMK CI1 SLP187

CYHM;2007-06-15 07:00;CYHM 150700Z 06008KT 15SM FEW180 15/10 A3008 RMK AC2 SLP186

CYHM;2007-06-15 08:00;CYHM 150800Z 06005KT 15SM SCT180 15/10 A3008 RMK AC2 SLP186

CYHM;2007-06-15 09:00;CYHM 150900Z 00000KT 15SM FEW180 BKN270 13/10 A3008 RMK AC1CI5 SLP187

CYHM;2007-06-15 10:00;CYHM 151000Z 00000KT 15SM FEW150 BKN270 13/10 A3010 RMK AC2CI2 SLP192

CYHM;2007-06-15 11:00;CYHM 151100Z 06002KT 15SM FEW240 16/13 A3011 RMK CI1 SLP196

CYHM;2007-06-15 12:00;CYHM 151200Z 26002KT 15SM FEW240 18/13 A3012 RMK CI1 SLP199

CYHM;2007-06-15 13:00;CYHM 151300Z 28006KT 15SM SCT240 20/14 A3013 RMK CI2 SLP202

CYHM;2007-06-15 14:00;CYHM 151400Z 27006KT 15SM SCT240 21/13 A3013 RMK CI2 SLP202

CYHM;2007-06-15 15:00;CYHM 151500Z 27002KT 15SM FEW040 FEW240 23/14 A3012 RMK CU1CI1 SLP200

CYHM;2007-06-15 16:00;CYHM 151600Z 19002KT 15SM SCT036 BKN240 24/13 A3011 RMK CU3CI1 SLP195

CYHM;2007-06-15 17:00;CYHM 151700Z 05002KT 15SM FEW052 SCT062 BKN240 24/12 A3010 RMK CU2SC2CI0 SLP191

CYHM;2007-06-15 18:00;CYHM 151800Z 36002KT 15SM FEW054 SCT062 24/12 A3008 RMK CU2SC2 SLP185

CYHM;2007-06-15 19:00;CYHM 151900Z 09006KT 15SM FEW052 FEW240 25/12 A3007 RMK CU1CI0 CONTRAIL SLP181

CYHM;2007-06-15 20:00;CYHM 152000Z 09010KT 15SM FEW055TCU SCT240 26/12 A3005 RMK TCU2CI1 CONTRAIL SLP175

CYHM;2007-06-15 21:00;CYHM 152100Z 09010KT 15SM FEW055 SCT240 26/11 A3004 RMK CU2CI1 CONTRAIL SLP170

CYHM;2007-06-15 22:00;CYHM 152200Z 12008KT 15SM FEW060 SCT230 26/09 A3002 RMK CU1CI1 SLP166

CYHM;2007-06-15 23:00;CYHM 152300Z 13002KT 15SM FEW040 BKN250 25/10 A3002 RMK CU1CI1 CONTRAIL SLP165

CYHM;2007-06-16 00:00;CYHM 160000Z 22004KT 15SM FEW040 BKN250 24/13 A3002 RMK CU1CI2 CONTRAIL CU TR SLP164

CYHM;2007-06-16 01:00;CYHM 160100Z 21002KT 15SM BKN250 22/12 A3002 RMK CI2 SLP163

CYHM;2007-06-16 02:00;CYHM 160200Z 23002KT 15SM BKN250 20/12 A3002 RMK CI2 SLP164

CYHM;2007-06-16 03:00;CYHM 160300Z 00000KT 15SM BKN270 19/12 A3003 RMK CI3 SLP167

CYHM;2007-06-16 04:00;CYHM 160400Z 00000KT 15SM BKN270 19/11 A3003 RMK CI2 SLP168

CYHM;2007-06-16 05:00;CYHM 160500Z 29005KT 15SM FEW120 SCT270 18/11 A3003 RMK AC1CI2 SLP167

CYHM;2007-06-16 06:00;CYHM 160600Z 25003KT 15SM SCT270 15/12 A3002 RMK CI2 SLP165

CYHM;2007-06-16 07:00;CYHM 160700Z 00000KT 15SM FEW100 SCT270 15/12 A3001 RMK AC1CI2 SLP160

CYHM;2007-06-16 08:00;CYHM 160800Z 00000KT 15SM FEW100 BKN270 14/12 A3000 RMK AC1CI2 SLP159

CYHM;2007-06-16 09:00;CYHM 160900Z 26003KT 15SM FEW100 BKN270 15/12 A3001 RMK AC2CI3 SLP160

CYHM;2007-06-16 10:00;CYHM 161000Z 00000KT 15SM FEW120 BKN270 13/11 A3002 RMK AC2CI2 CONTRAILS SLP165

CYHM;2007-06-16 11:00;CYHM 161100Z 25002KT 15SM FEW120 BKN270 14/12 A3003 RMK AC1CI3 SLP168

CYHM;2007-06-16 12:00;CYHM 161200Z 25002KT 15SM BKN270 18/13 A3004 RMK CI4 CONTRAILS SLP171

CYHM;2007-06-16 13:00;CYHM 161300Z 27007KT 15SM BKN270 21/13 A3005 RMK CI4 CONTRAILS SLP174

CYHM;2007-06-16 14:00;CYHM 161400Z 26007KT 15SM FEW060 BKN270 23/12 A3004 RMK SC1CI2 SLP172

CYHM;2007-06-16 15:00;CYHM 161500Z 26005KT 200V310 15SM FEW060 BKN270 25/13 A3004 RMK SC1CI2 SC TR CONTRAILS SLP172

CYHM;2007-06-16 16:00;CYHM 161600Z 23005KT 110V330 15SM FEW060 BKN270 26/13 A3004 RMK SC1CI5 CONTRAILS SLP169

CYHM;2007-06-16 17:00;CYHM 161700Z 23006KT 200V300 15SM SCT060 BKN250 27/14 A3003 RMK SC3CI2 SLP168

CYHM;2007-06-16 18:00;CYHM 161800Z 28005KT 140V310 15SM SCT060 BKN250 28/13 A3002 RMK SC3CI2 SLP163

CYHM;2007-06-16 19:00;CYHM 161900Z 27005KT 230V320 15SM SCT060 BKN075 BKN200 28/13 A3001 RMK CU4AC2CI1 SLP160

CYHM;2007-06-16 20:00;CYHM 162000Z 26002KT 15SM SCT055 BKN070 BKN100 27/12 A2999 RMK CU3AC2AC2 SLP155

CYHM;2007-06-16 21:00;CYHM 162100Z 21010KT 15SM FEW055 SCT075 BKN110 27/14 A2997 RMK CU2AC2AC3 SLP149

CYHM;2007-06-16 22:00;CYHM 162200Z 23011KT 15SM FEW055 FEW075 BKN120 27/14 A2996 RMK SC1AC2AC3 SLP144

CYHM;2007-06-16 23:00;CYHM 162300Z 24012KT 15SM FEW070 SCT120 BKN240 26/13 A2996 RMK AC2AC2CC1 SLP145

CYHM;2007-06-17 00:00;CYHM 170000Z 22010KT 15SM FEW080 SCT130 BKN240 24/13 A2996 RMK AC2AC2CC1 SLP143

CYHM;2007-06-17 01:00;CYHM 170100Z 23008KT 15SM SCT130 BKN240 23/12 A2997 RMK AC3CI2 SLP145

CYHM;2007-06-17 02:00;CYHM 170200Z 22007KT 15SM FEW130 BKN240 20/12 A2997 RMK AC2CI2 SLP146

CYHM;2007-06-17 03:00;CYHM 170300Z 24006KT 15SM FEW120 SCT210 20/12 A2997 RMK AC2CI2 SLP145

CYHM;2007-06-17 04:00;CYHM 170400Z 25006KT 15SM FEW230 20/11 A2997 RMK CI1 SLP145

CYHM;2007-06-17 05:00;CYHM 170500Z 25005KT 15SM FEW150 19/11 A2995 RMK AC1 SLP141

CYHM;2007-06-17 06:00;CYHM 170600Z 24004KT 15SM BKN130 18/11 A2995 RMK AC4 SLP138

CYHM;2007-06-17 07:00;CYHM 170700Z 22006KT 15SM OVC110 17/12 A2994 RMK AC8 SLP135

CYHM;2007-06-17 08:00;CYHM 170800Z 23004KT 15SM FEW130 BKN160 17/12 A2994 RMK AC2AC5 SLP135

CYHM;2007-06-17 09:00;CYHM 170900Z 23003KT 15SM SCT057TCU BKN110 18/13 A2994 RMK TCU3AC4 SLP135

CYHM;2007-06-17 10:00;CYHM 171000Z 00000KT 15SM FEW050 SCT090 BKN110 18/13 A2994 RMK SC2AC2AC3 SLP136

CYHM;2007-06-17 11:00;CYHM 171100Z 25006KT 15SM FEW076 SCT110 BKN250 20/14 A2994 RMK AC2AC2CI2 SLP138

CYHM;2007-06-17 12:00;CYHM 171200Z 25008KT 15SM FEW087 SCT140 BKN220 21/15 A2995 RMK AC2AC1CI1 SLP141

CYHM;2007-06-17 13:00;CYHM 171300Z 26010KT 15SM FEW080 FEW220 23/15 A2995 RMK AC2CI0 SLP140

CYHM;2007-06-17 14:00;CYHM 171400Z 27006KT 15SM FEW092 FEW240 25/17 A2995 RMK AC1CI0 SLP140

CYHM;2007-06-17 15:00;CYHM 171500Z 28010KT 250V350 15SM FEW040 FEW250 27/17 A2996 RMK CU1CI0 CU TR SLP142

CYHM;2007-06-17 16:00;CYHM 171600Z 28006KT 230V330 15SM FEW052 BKN250 27/14 A2995 RMK CU1CI2 CU TR SLP140

CYHM;2007-06-17 17:00;CYHM 171700Z 28010KT 220V310 15SM FEW056 BKN250 29/14 A2995 RMK CU1CI2 CU TR SLP140

CYHM;2007-06-17 18:00;CYHM 171800Z 28010KT 15SM FEW060 FEW250 29/13 A2995 RMK CU1CI2 CU TR SLP138

CYHM;2007-06-17 19:00;CYHM 171900Z 29009KT 260V330 15SM FEW055 FEW250 30/13 A2994 RMK CU1CI1 TCU ASOCTD E SLP137

CYHM;2007-06-17 20:00;CYHM 172000Z 32011KT 270V360 15SM FEW055 FEW230 29/14 A2994 RMK CU1CI1 SLP136

CYHM;2007-06-17 21:00;CYHM 172100Z 30009KT 15SM FEW055 SCT240 29/14 A2994 RMK CU1CI1 SLP136

CYHM;2007-06-17 22:00;CYHM 172200Z 31011KT 15SM FEW055 BKN240 28/14 A2994 RMK CU2CI2 SLP137

CYHM;2007-06-17 23:00;CYHM 172300Z 32009KT 15SM FEW055 BKN240 27/13 A2996 RMK SC1CI2 SLP141

CYHM;2007-06-18 00:00;CYHM 180000Z 33005KT 15SM FEW055 FEW240 26/12 A2996 RMK SC1CI2 SC TR SLP142

CYHM;2007-06-18 01:00;CYHM 180100Z 36009KT 15SM FEW100 SCT240 24/14 A2999 RMK AC1CI2 AC TR SLP151

CYHM;2007-06-18 02:00;CYHM 180200Z 02009KT 15SM FEW240 23/13 A3000 RMK CI1 SLP156

CYHM;2007-06-18 03:00;CYHM 180300Z 01007KT 15SM FEW240 21/13 A3002 RMK CI1 SLP162

CYHM;2007-06-18 04:00;CYHM 180400Z 03007KT 15SM FEW250 20/13 A3002 RMK CI1 SLP162

CYHM;2007-06-18 05:00;CYHM 180500Z 05005KT 15SM FEW260 20/12 A3002 RMK CI1 SLP163

CYHM;2007-06-18 06:00;CYHM 180600Z 04004KT 15SM FEW260 19/12 A3002 RMK CI1 SLP161

CYHM;2007-06-18 07:00;CYHM 180700Z 00000KT 15SM FEW260 17/12 A3001 RMK CI1 SLP159

CYHM;2007-06-18 08:00;CYHM 180800Z 00000KT 15SM SKC 17/12 A3000 RMK SLP155

CYHM;2007-06-18 09:00;CYHM 180900Z 00000KT 15SM FEW100 17/12 A3001 RMK AC1 SLP158

CYHM;2007-06-18 10:00;CYHM 181000Z 00000KT 15SM FEW130 FEW220 15/12 A3002 RMK AC1CI1 SLP162

CYHM;2007-06-18 11:00;CYHM 181100Z 00000KT 15SM FEW110 FEW220 17/14 A3003 RMK AC1CI1 SLP166

CYHM;2007-06-18 12:00;CYHM 181200Z 08002KT 15SM FEW120 21/13 A3004 RMK AC1 SLP169

CYHM;2007-06-18 13:00;CYHM 181300Z 00000KT 15SM FEW120 22/14 A3005 RMK AC1 SLP172

CYHM;2007-06-18 14:00;CYHM 181400Z 00000KT 15SM FEW120 BKN150 24/15 A3005 RMK AC2AC3 SLP174

CYHM;2007-06-18 15:00;CYHM 181500Z 16006KT 15SM FEW160 BKN220 26/16 A3004 RMK AC1CI3 SLP170

CYHM;2007-06-18 16:00;CYHM 181600Z 17008KT 15SM FEW160 FEW240 28/15 A3003 RMK AC1CI1 AC TR CI TR SLP166

CYHM;2007-06-18 17:00;CYHM 181700Z 21008KT 15SM SKC 29/15 A3002 RMK SLP164

CYHM;2007-06-18 18:00;CYHM 181800Z 18006KT 15SM SKC 30/14 A3001 RMK SLP159

CYHM;2007-06-18 19:00;CYHM 181900Z 19010KT 15SM SKC 30/14 A3000 RMK SLP154

CYHM;2007-06-18 20:00;CYHM 182000Z 17010KT 15SM FEW180 31/15 A2997 RMK AC1 AC TR SLP147

CYHM;2007-06-18 21:00;CYHM 182100Z 20008KT 15SM FEW180 30/16 A2996 RMK AC1 AC TR SLP142

CYHM;2007-06-18 22:00;CYHM 182200Z 18010KT 15SM FEW250 30/16 A2994 RMK CI1 SLP137

CYHM;2007-06-18 23:00;CYHM 182300Z 21008KT 15SM FEW250 29/17 A2993 RMK CI1 SLP133

CYHM;2007-06-19 00:00;CYHM 190000Z 21010KT 15SM FEW250 28/16 A2992 RMK CI1 SLP129

CYHM;2007-06-19 01:00;CYHM 190100Z 19008KT 15SM FEW250 26/15 A2992 RMK CI1 CI TR SLP128

CYHM;2007-06-19 02:00;CYHM 190200Z 00000KT 15SM FEW250 24/15 A2993 RMK CI1 CI TR SLP130

CYHM;2007-06-19 03:00;CYHM 190300Z 16006KT 15SM FEW250 22/15 A2993 RMK CI1 CI TR SLP131

CYHM;2007-06-19 04:00;CYHM 190400Z 18006KT 15SM SKC 22/15 A2993 RMK SLP131

CYHM;2007-06-19 05:00;CYHM 190500Z 18006KT 15SM SKC 23/16 A2991 RMK SLP126

CYHM;2007-06-19 06:00;CYHM 190600Z 19007KT 15SM SKC 23/17 A2991 RMK SLP122

CYHM;2007-06-19 07:00;CYHM 190700Z 19006KT 15SM SKC 23/17 A2990 RMK SLP119

CYHM;2007-06-19 08:00;CYHM 190800Z 19009KT 15SM BKN110 23/18 A2989 RMK AC3 SLP116

CYHM;2007-06-19 09:00;CYHM 190900Z 21008KT 10SM BKN110 BKN140 22/18 A2989 RMK AC5AC2 SLP116

CYHM;2007-06-19 10:00;CYHM 191000Z 20008KT 6SM HZ BKN130 BKN150 23/18 A2989 RMK AC5AC2 SLP117

CYHM;2007-06-19 11:00;CYHM 191100Z 22012KT 6SM HZ BKN120 OVC160 24/17 A2989 RMK AC6AC2 SLP117

CYHM;2007-06-19 12:00;CYHM 191200Z 19012KT 8SM SCT120 BKN150 24/18 A2989 RMK AC3AC4 SLP117

CYHM;2007-06-19 13:00;CYHM 191300Z 22012KT 15SM FEW120 BKN160 27/18 A2988 RMK AC1AC4 SLP115

CYHM;2007-06-19 14:00;CYHM 191400Z 22015KT 10SM FEW042 FEW160 SCT240 28/18 A2988 RMK CU1AC1CI1 CU TR SLP113

CYHM;2007-06-19 15:00;CYHM 191500Z 23014KT 8SM -SHRA SCT023 BKN036 BKN100 26/19 A2988 RMK SC3SC2AC2 SLP113

CYHM;2007-06-19 15:05;CYHM 191505Z 21015G20KT 8SM -SHRA SCT036 BKN058 BKN100 RMK SC3SC2AC2

CYHM;2007-06-19 15:52;CYHM 191552Z 22014KT 15SM FEW045 BKN082 BKN160 RMK CU1AC5AC2 CU TR

CYHM;2007-06-19 16:00;CYHM 191600Z 21016KT 15SM FEW045 FEW084 BKN160 27/19 A2986 RMK CU1AC2AC4 CU TR SLP109

CYHM;2007-06-19 17:00;CYHM 191700Z 21016G21KT 15SM FEW031 BKN038 BKN100 27/20 A2986 RMK CU2SC3AC2 SLP107

CYHM;2007-06-19 18:00;CYHM 191800Z 19018KT 15SM FEW032 SCT044 BKN150 28/19 A2982 RMK CU2SC2AC2 SLP095

CYHM;2007-06-19 19:00;CYHM 191900Z 20015G22KT 10SM BKN032 BKN080 BKN140 28/19 A2980 RMK SC5AC1AC1 TCU ASOCTD SLP088

CYHM;2007-06-19 19:14;CYHM 191914Z 21015G22KT 8SM -TSRA BKN034CB BKN058 OVC090 RMK CB6SC2AC1

CYHM;2007-06-19 19:55;CYHM 191955Z 25012G18KT 10SM -SHRA FEW014 SCT024 BKN058 OVC100 RETS RMK SC2SC2SC3AC2

CYHM;2007-06-19 20:00;CYHM 192000Z 25012G18KT 5SM -SHRA FEW014 SCT024 BKN058 OVC100 22/19 A2983 RETS RMK SC2SC2SC3AC2 SLP097

CYHM;2007-06-19 20:02;CYHM 192002Z 25012KT 5SM -TSRA FEW014 BKN034CB BKN078 OVC100 RMK SC2CB4AC2AC1

CYHM;2007-06-19 20:42;CYHM 192042Z 23009KT 8SM -SHRA SCT007 BKN042 OVC130 RETS RMK SC4SC2AC2

CYHM;2007-06-19 21:00;CYHM 192100Z 23008KT 10SM FEW007 SCT040 SCT100 BKN140 22/20 A2982 RETS RMK SF1SC2AC1AS3 SLP095

CYHM;2007-06-19 22:00;CYHM 192200Z 24008KT 12SM FEW008 FEW038 BKN110 BKN150 23/20 A2982 RMK SF1SC2AC3AS2 SF TR SLP096

CYHM;2007-06-19 23:00;CYHM 192300Z 21006KT 12SM FEW008 FEW024 BKN130 23/20 A2984 RMK SF1SC2AC5 SF TR SLP102

CYHM;2007-06-20 00:00;CYHM 200000Z 26007KT 15SM FEW018TCU BKN130 BKN250 23/17 A2984 RMK TCU1AC5CI1 SLP103

CYHM;2007-06-20 02:00;CYHM 200200Z 28004KT 15SM FEW044 FEW180 BKN250 21/15 A2988 RMK SC1AC1CI2 SLP116

CYHM;2007-06-20 03:00;CYHM 200300Z 31010KT 15SM FEW180 BKN250 20/12 A2993 RMK AC1CI2 SLP133

CYHM;2007-06-20 04:00;CYHM 200400Z 34006KT 15SM BKN074 18/11 A2995 RMK AC6 SLP139

CYHM;2007-06-20 05:00;CYHM 200500Z 30003KT 15SM BKN250 16/11 A2997 RMK CI2 SLP145

CYHM;2007-06-20 06:00;CYHM 200600Z 00000KT 15SM FEW250 15/10 A2997 RMK CI1 SLP148

CYHM;2007-06-20 07:00;CYHM 200700Z 00000KT 15SM FEW250 15/10 A2998 RMK CI1 SLP151

CYHM;2007-06-20 08:00;CYHM 200800Z 00000KT 15SM FEW064 14/10 A3000 RMK SC2 SLP155

CYHM;2007-06-20 09:00;CYHM 200900Z 00000KT 15SM FEW064 12/10 A3000 RMK SC1 SLP160

CYHM;2007-06-20 10:00;CYHM 201000Z 00000KT 15SM FEW060 12/10 A3002 RMK SC1 SLP165

CYHM;2007-06-20 11:00;CYHM 201100Z 25004KT 15SM FEW240 14/10 A3004 RMK CI1 CI TR SLP172

CYHM;2007-06-20 12:00;CYHM 201200Z 28008KT 15SM SKC 15/10 A3005 RMK SLP174

CYHM;2007-06-20 13:00;CYHM 201300Z CCA 26015KT 15SM SKC 17/15 A3005 RMK SLP176

CYHM;2007-06-20 14:00;CYHM 201400Z 27014KT 15SM SCT032 BKN044 18/11 A3006 RMK CU3SC2 SLP177

CYHM;2007-06-20 15:00;CYHM 201500Z 27016KT 15SM FEW038 SCT044 19/09 A3006 RMK CU2SC1 SLP178

CYHM;2007-06-20 16:00;CYHM 201600Z 30008KT 15SM FEW045 FEW100 20/09 A3006 RMK CU2AC1 AC TR SLP178

CYHM;2007-06-20 17:00;CYHM 201700Z 30014KT 15SM FEW045 FEW220 20/09 A3007 RMK CU1CI1 SLP180

CYHM;2007-06-20 18:00;CYHM 201800Z 30012G17KT 15SM FEW045 FEW220 21/08 A3007 RMK CU1CI1 CU TR SLP181

CYHM;2007-06-20 19:00;CYHM 201900Z 29010KT 250V350 15SM FEW045 FEW230 21/09 A3006 RMK CU1CI1 CU TR SLP180

CYHM;2007-06-20 20:00;CYHM 202000Z 30009KT 240V330 15SM FEW052 FEW230 23/09 A3007 RMK CU1CI1 CU TR SLP182

CYHM;2007-06-20 21:00;CYHM 202100Z 29010KT 15SM FEW052 FEW230 23/09 A3006 RMK CU1CI1 CU TR SLP178

CYHM;2007-06-20 22:00;CYHM 202200Z 29012KT 240V310 15SM FEW052 FEW230 22/08 A3004 RMK CU1CI1 BOTH LYRS TR SLP174

CYHM;2007-06-20 23:00;CYHM 202300Z 29012KT 230V320 15SM FEW050 FEW230 22/07 A3005 RMK SC1CI1 BOTH LYRS TR SLP176

CYHM;2007-06-21 00:00;CYHM 210000Z 28010KT 15SM FEW050 FEW250 20/06 A3006 RMK SC1CI0 SC TR SLP179

CYHM;2007-06-21 01:00;CYHM 210100Z 25002KT 15SM FEW050 SCT250 17/06 A3006 RMK SC1CI1 SC TR SLP180

CYHM;2007-06-21 02:00;CYHM 210200Z 25002KT 15SM FEW050 FEW250 16/06 A3007 RMK SC1CI1 BOTH LYRS TR SLP183

CYHM;2007-06-21 03:00;CYHM 210300Z 00000KT 15SM FEW210 15/07 A3006 RMK CI1 SLP180

CYHM;2007-06-21 04:00;CYHM 210400Z 22005KT 15SM FEW220 12/08 A3005 RMK CI1 SLP176

CYHM;2007-06-21 05:00;CYHM 210500Z 22007KT 15SM FEW200 12/08 A3003 RMK CI1 SLP170

CYHM;2007-06-21 06:00;CYHM 210600Z 22006KT 15SM BKN110 14/08 A3001 RMK AC7 SLP163

CYHM;2007-06-21 07:00;CYHM 210700Z 22005KT 15SM BKN100 14/09 A2999 RMK AC7 SLP157

CYHM;2007-06-21 08:00;CYHM 210800Z 23006KT 15SM SCT092 14/10 A2997 RMK AC4 SLP151

CYHM;2007-06-21 09:00;CYHM 210900Z 23007KT 15SM SCT050TCU SCT090 15/12 A2996 RMK TCU3AC1 SLP144

CYHM;2007-06-21 10:00;CYHM 211000Z 23005KT 15SM SCT060TCU BKN070 15/13 A2996 RMK TCU4AC2 SLP144

CYHM;2007-06-21 11:00;CYHM 211100Z 24007KT 15SM FEW058 FEW090 SCT220 17/14 A2997 RMK CU1AC1CI1 CONTRAIL SLP146

CYHM;2007-06-21 12:00;CYHM 211200Z 24008KT 15SM FEW025 BKN098 BKN220 19/13 A2996 RMK CU2AC3CI0 CI TR CONTRAIL SLP143

CYHM;2007-06-21 13:00;CYHM 211300Z 26012KT 15SM FEW032 FEW100 21/13 A2995 RMK CU1AC1 CU TR SLP140

CYHM;2007-06-21 14:00;CYHM 211400Z 29012KT 15SM FEW045 FEW100 FEW240 22/14 A2993 RMK CU1AC1CI1 CU TR AC TR SLP133

CYHM;2007-06-21 15:00;CYHM 211500Z 29010KT 15SM FEW045 FEW100 FEW240 23/14 A2991 RMK CU1AC1CI1 SLP127

CYHM;2007-06-21 16:00;CYHM 211600Z 28016KT 15SM FEW038 FEW120 25/15 A2991 RMK CU2AC1 AC TR SLP128

CYHM;2007-06-21 17:00;CYHM 211700Z 29012G22KT 15SM FEW042 SCT054 26/14 A2990 RMK CU2SC2 SLP124

CYHM;2007-06-21 18:00;CYHM 211800Z 29018KT 15SM FEW055 FEW078 25/12 A2991 RMK CU2AC1 AC TR SLP126

CYHM;2007-06-21 19:00;CYHM 211900Z 28016G24KT 240V330 15SM FEW059 25/10 A2991 RMK CU2 SLP126

CYHM;2007-06-21 20:00;CYHM 212000Z 28019G24KT 15SM FEW060 25/09 A2991 RMK CU1 SLP127

CYHM;2007-06-21 21:00;CYHM 212100Z CCA 31022G28KT 260V010 15SM FEW060 23/09 A2992 RMK CU1 SLP132

CYHM;2007-06-21 22:00;CYHM 212200Z 30014G24KT 260V340 15SM FEW060 23/09 A2993 RMK CU1 SLP134

CYHM;2007-06-21 23:00;CYHM 212300Z 32018KT 15SM FEW060 21/07 A2994 RMK CU1 SLP139

CYHM;2007-06-22 00:00;CYHM 220000Z 30009KT 15SM FEW060 20/06 A2995 RMK CU1 SLP141

CYHM;2007-06-22 01:00;CYHM 220100Z 30006KT 15SM FEW055 18/05 A2997 RMK SC1 SLP148

CYHM;2007-06-22 02:00;CYHM 220200Z 27004KT 15SM SKC 16/07 A2999 RMK SLP155

CYHM;2007-06-22 03:00;CYHM 220300Z 30007KT 15SM SKC 16/08 A3000 RMK SLP159

CYHM;2007-06-22 04:00;CYHM 220400Z 30009KT 15SM SKC 15/07 A3001 RMK SLP162

CYHM;2007-06-22 05:00;CYHM 220500Z 31008KT 15SM FEW220 14/07 A3001 RMK CI1 SLP163

CYHM;2007-06-22 06:00;CYHM 220600Z 33012KT 15SM FEW070 14/07 A3000 RMK AC1 SLP159

CYHM;2007-06-22 07:00;CYHM 220700Z 33008KT 15SM FEW200 13/07 A3000 RMK CI1 SLP159

CYHM;2007-06-22 08:00;CYHM 220800Z 31005KT 15SM SKC 11/07 A3002 RMK SLP164

CYHM;2007-06-22 09:00;CYHM 220900Z 29003KT 15SM SKC 11/07 A3004 RMK SLP171

CYHM;2007-06-22 10:00;CYHM 221000Z 33007KT 15SM FEW210 11/08 A3005 RMK CI1 SLP175

CYHM;2007-06-22 11:00;CYHM 221100Z 33006KT 15SM SKC 13/08 A3007 RMK SLP181

CYHM;2007-06-22 12:00;CYHM 221200Z 36006KT 15SM FEW240 14/08 A3006 RMK CI1 CI TR SLP178

CYHM;2007-06-22 13:00;CYHM 221300Z 36008KT 15SM FEW240 17/07 A3007 RMK CI1 CI TR SLP184

CYHM;2007-06-22 14:00;CYHM 221400Z 35012KT 15SM FEW040 18/06 A3006 RMK CU1 SLP180

CYHM;2007-06-22 15:00;CYHM 221500Z 36012KT 15SM FEW040 18/07 A3005 RMK CU2 SLP177

CYHM;2007-06-22 16:00;CYHM 221600Z 34014KT 15SM FEW048 20/06 A3006 RMK CU2 SC ASOCTD SLP179

CYHM;2007-06-22 17:00;CYHM 221700Z 34015G20KT 15SM FEW045 SCT060 21/06 A3006 RMK CU2SC2 SLP178

CYHM;2007-06-22 18:00;CYHM 221800Z 29010G15KT 15SM FEW056 BKN064 21/06 A3006 RMK CU2SC3 SLP179

CYHM;2007-06-22 19:00;CYHM 221900Z 32012KT 250V350 15SM BKN064 21/07 A3004 RMK SC6 SLP174

CYHM;2007-06-22 20:00;CYHM 222000Z 30010G17KT 15SM BKN063 22/07 A3003 RMK SC6 SLP168

CYHM;2007-06-22 21:00;CYHM 222100Z 30012G17KT 240V350 15SM SCT063 SCT220 22/06 A3001 RMK SC3CI1 SLP163

CYHM;2007-06-22 22:00;CYHM 222200Z 33012KT 15SM FEW064 FEW220 21/06 A3001 RMK SC2CI1 SLP162

CYHM;2007-06-22 23:00;CYHM 222300Z 29013KT 15SM FEW064 FEW220 20/05 A3000 RMK SC1CI1 SC TR SLP160

CYHM;2007-06-23 00:00;CYHM 230000Z 30009KT 15SM FEW220 19/06 A3001 RMK CI1 SLP161

CYHM;2007-06-23 01:00;CYHM 230100Z 33011KT 15SM FEW220 16/04 A3001 RMK CI1 SLP164

CYHM;2007-06-23 02:00;CYHM 230200Z 35009KT 15SM SKC 14/04 A3003 RMK SLP168

CYHM;2007-06-23 03:00;CYHM 230300Z 36008KT 15SM SKC 13/03 A3003 RMK SLP170

CYHM;2007-06-23 04:00;CYHM 230400Z 00000KT 15SM SKC 12/03 A3004 RMK SLP174

CYHM;2007-06-23 05:00;CYHM 230500Z 33005KT 15SM FEW210 11/03 A3003 RMK CI1 SLP169

CYHM;2007-06-23 06:00;CYHM 230600Z 33004KT 15SM FEW210 11/05 A3003 RMK CI1 SLP170

CYHM;2007-06-23 07:00;CYHM 230700Z 34004KT 15SM FEW210 09/05 A3003 RMK CI1 SLP171

CYHM;2007-06-23 08:00;CYHM 230800Z 00000KT 15SM SKC 09/05 A3003 RMK SLP169

CYHM;2007-06-23 09:00;CYHM 230900Z 00000KT 15SM FEW100 08/05 A3003 RMK AC1 SLP171

CYHM;2007-06-23 10:00;CYHM 231000Z 00000KT 15SM FEW100 FEW210 07/05 A3005 RMK AC1CI1 TR AC SLP176

CYHM;2007-06-23 11:00;CYHM 231100Z 00000KT 15SM FEW210 10/07 A3006 RMK CI1 SLP181

CYHM;2007-06-23 13:00;CYHM 231300Z 03002KT 15SM FEW040 FEW220 16/05 A3008 RMK CU1CI1 SLP187

CYHM;2007-06-23 14:00;CYHM 231400Z 34002KT 15SM FEW050 FEW120 FEW230 17/04 A3008 RMK CU1AC1CI1 SLP187

CYHM;2007-06-23 15:00;CYHM 231500Z 30006KT 240V360 15SM FEW055 FEW120 FEW230 19/05 A3007 RMK CU1AC1CI0 CU TR SLP184

CYHM;2007-06-23 16:00;CYHM 231600Z 31004KT 200V020 15SM FEW120 FEW230 20/06 A3007 RMK AC1CI0 SLP182

CYHM;2007-06-23 17:00;CYHM 231700Z 28006KT 200V330 15SM FEW120 FEW240 21/06 A3004 RMK AC1CI0 SLP175

CYHM;2007-06-23 18:00;CYHM 231800Z 36002KT 15SM FEW120 FEW240 21/06 A3003 RMK AC1CI0 WND L/V SLP169

CYHM;2007-06-23 19:00;CYHM 231900Z 28005KT 250V320 15SM FEW100 FEW250 22/07 A3002 RMK AC1CI1 SLP167

CYHM;2007-06-23 20:00;CYHM 232000Z 35004KT 300V040 15SM FEW070 SCT250 23/08 A3001 RMK AC2CI1 SLP163

CYHM;2007-06-23 21:00;CYHM 232100Z 34007KT 300V030 15SM FEW070 FEW100 SCT240 23/08 A3000 RMK AC2AC1CI1 SLP159

CYHM;2007-06-23 22:00;CYHM 232200Z 32007KT 15SM FEW064 SCT084 SCT220 23/09 A2999 RMK SC2AC2CI1 SLP157

CYHM;2007-06-23 23:00;CYHM 232300Z 29007KT 260V330 15SM SCT068 SCT220 22/09 A2999 RMK AC4CI1 CI TR SLP156

CYHM;2007-06-24 00:00;CYHM 240000Z 25003KT 15SM SCT062 SCT220 22/09 A2999 RMK SC3CI1 WND L/V SLP154

CYHM;2007-06-24 01:00;CYHM 240100Z 27003KT 15SM FEW070 FEW220 18/09 A3001 RMK AC2CI1 WND L/V SLP160

CYHM;2007-06-24 02:00;CYHM 240200Z 17006KT 15SM FEW100 FEW220 17/09 A3002 RMK AC1CI1 CI TR SLP164

CYHM;2007-06-24 03:00;CYHM 240300Z 16004KT 15SM FEW060 15/09 A3003 RMK SC2 SLP169

CYHM;2007-06-24 04:00;CYHM 240400Z 00000KT 15SM FEW100 13/09 A3003 RMK AC2 SLP168

CYHM;2007-06-24 05:00;CYHM 240500Z 00000KT 15SM SCT100 13/09 A3003 RMK AC3 SLP169

CYHM;2007-06-24 06:00;CYHM 240600Z 00000KT 15SM FEW090 14/09 A3004 RMK AC2 SLP171

CYHM;2007-06-24 07:00;CYHM 240700Z 00000KT 15SM SKC 12/09 A3003 RMK SLP170

CYHM;2007-06-24 08:00;CYHM 240800Z 25004KT 15SM SKC 12/09 A3003 RMK SLP169

CYHM;2007-06-24 09:00;CYHM 240900Z 25005KT 15SM FEW080 12/09 A3004 RMK AC1 SLP172

CYHM;2007-06-24 10:00;CYHM 241000Z 24003KT 15SM FEW080 FEW220 13/09 A3005 RMK AC1CI0 SLP175

CYHM;2007-06-24 11:00;CYHM 241100Z 27002KT 15SM FEW250 14/10 A3007 RMK CI2 SLP181

CYHM;2007-06-24 12:00;CYHM 241200Z 26002KT 15SM SCT250 16/11 A3007 RMK CI2 SLP182

CYHM;2007-06-24 13:00;CYHM 241300Z 26007KT 15SM SCT250 19/11 A3008 RMK CI2 SLP185

CYHM;2007-06-24 14:00;CYHM 241400Z 24008KT 15SM BKN250 22/10 A3009 RMK CI2 CONTRAILS SLP187

CYHM;2007-06-24 15:00;CYHM 241500Z 23006KT 160V270 15SM BKN250 24/12 A3007 RMK CI2 SLP183

CYHM;2007-06-24 16:00;CYHM 241600Z 22004KT 15SM SCT250 25/12 A3007 RMK CI2 SLP182

CYHM;2007-06-24 17:00;CYHM 241700Z 20007KT 170V290 15SM FEW060 FEW250 26/12 A3007 RMK CU1CI1 CU TR SLP181

CYHM;2007-06-24 18:00;CYHM 241800Z 22010G18KT 170V260 15SM FEW060 BKN250 27/13 A3007 RMK CU1CI2 SLP180

CYHM;2007-06-24 19:00;CYHM 241900Z 21009KT 15SM FEW060 SCT250 28/12 A3005 RMK SC1CI1 SLP176

CYHM;2007-06-24 20:00;CYHM 242000Z 22009KT 15SM FEW060 FEW230 28/12 A3005 RMK SC1CI1 CONTRAIL SLP176

CYHM;2007-06-24 21:00;CYHM 242100Z 21011KT 180V240 15SM FEW060 SCT230 28/11 A3005 RMK SC1CI2 SLP174

CYHM;2007-06-24 22:00;CYHM 242200Z 20012KT 15SM FEW060 FEW230 27/11 A3004 RMK SC1CI2 SC TR SLP172

CYHM;2007-06-24 23:00;CYHM 242300Z 21010KT 15SM FEW060 FEW230 27/11 A3004 RMK SC1CI2 SC TR SLP173

CYHM;2007-06-25 00:00;CYHM 250000Z 22008KT 15SM FEW060 FEW230 25/11 A3005 RMK SC1CI2 SC TR SLP174

CYHM;2007-06-25 01:00;CYHM 250100Z 24003KT 15SM FEW070 FEW240 23/11 A3006 RMK AC1CI1 SLP177

CYHM;2007-06-25 02:00;CYHM 250200Z 22002KT 15SM FEW070 FEW240 21/12 A3007 RMK AC1CI1 AC TR CI TR SLP181

CYHM;2007-06-25 03:00;CYHM 250300Z 20006KT 15SM FEW240 18/11 A3008 RMK CI1 SLP186

CYHM;2007-06-25 04:00;CYHM 250400Z 00000KT 15SM FEW240 17/13 A3010 RMK CI1 SLP190

CYHM;2007-06-25 05:00;CYHM 250500Z 00000KT 15SM FEW240 16/13 A3009 RMK CI1 SLP189

CYHM;2007-06-25 06:00;CYHM 250600Z 00000KT 15SM FEW200 16/14 A3009 RMK CI1 SLP188

CYHM;2007-06-25 07:00;CYHM 250700Z 00000KT 15SM FEW200 15/14 A3010 RMK CI1 SLP191

CYHM;2007-06-25 08:00;CYHM 250800Z 00000KT 15SM FEW220 15/13 A3011 RMK CI1 SLP193

CYHM;2007-06-25 09:00;CYHM 250900Z 00000KT 15SM FEW210 16/12 A3013 RMK CI1 SLP200

CYHM;2007-06-25 10:00;CYHM 251000Z 00000KT 15SM FEW210 15/11 A3014 RMK CI1 SLP205

CYHM;2007-06-25 11:00;CYHM 251100Z 00000KT 15SM SKC 18/12 A3016 RMK SLP210

CYHM;2007-06-25 12:00;CYHM 251200Z 26004KT 15SM SKC 20/12 A3016 RMK SLP211

CYHM;2007-06-25 13:00;CYHM 251300Z 25006KT 15SM SKC 23/13 A3017 RMK SLP215

CYHM;2007-06-25 14:00;CYHM 251400Z 24006KT 15SM SKC 24/15 A3017 RMK SLP215

CYHM;2007-06-25 15:00;CYHM 251500Z 27010KT 15SM FEW240 26/16 A3017 RMK CI1 SLP214

CYHM;2007-06-25 16:00;CYHM 251600Z 23006KT 15SM FEW240 28/16 A3017 RMK CI1 SLP213

CYHM;2007-06-25 17:00;CYHM 251700Z 25005KT 15SM FEW040 FEW240 28/15 A3016 RMK CU1CI1 SLP211

CYHM;2007-06-25 18:00;CYHM 251800Z 22008KT 15SM FEW045 FEW240 29/16 A3016 RMK CU1CI1 SLP209

CYHM;2007-06-25 19:00;CYHM 251900Z 28005KT 190V340 15SM FEW052 FEW250 30/16 A3015 RMK CU1CI1 CI TR SLP207

CYHM;2007-06-25 20:00;CYHM 252000Z 24009KT 15SM FEW058 BKN250 30/17 A3014 RMK CU1CI1 SLP204

CYHM;2007-06-25 21:00;CYHM 252100Z 19008KT 15SM FEW060 BKN250 30/17 A3014 RMK CU1CI1 CU TR SLP205

CYHM;2007-06-25 22:00;CYHM 252200Z 20010KT 15SM FEW060 FEW250 29/17 A3014 RMK CU1CI1 CU TR SLP205

CYHM;2007-06-25 23:00;CYHM 252300Z 19010KT 15SM FEW060 FEW250 29/17 A3014 RMK CU1CI1 CU TR CI TR SLP205

CYHM;2007-06-26 00:00;CYHM 260000Z 20010KT 15SM FEW250 28/16 A3014 RMK CI1 CI TR SLP204

CYHM;2007-06-26 01:00;CYHM 260100Z 20005KT 15SM FEW250 25/16 A3016 RMK CI1 CONTRAILS SLP211

CYHM;2007-06-26 02:00;CYHM 260200Z 19003KT 15SM FEW250 22/15 A3017 RMK CI1 SLP213

CYHM;2007-06-26 03:00;CYHM 260300Z 00000KT 15SM FEW250 21/15 A3018 RMK CI1 CI TR SLP217

CYHM;2007-06-26 04:00;CYHM 260400Z 21005KT 15SM FEW250 19/15 A3018 RMK CI1 CI TR SLP216

CYHM;2007-06-26 05:00;CYHM 260500Z 00000KT 15SM FEW250 19/15 A3019 RMK CI1 CI TR SLP221

CYHM;2007-06-26 06:00;CYHM 260600Z 00000KT 15SM FEW250 18/15 A3020 RMK CI1 CI TR SLP224

CYHM;2007-06-26 07:00;CYHM 260700Z 00000KT 15SM SKC 17/15 A3020 RMK SLP225

CYHM;2007-06-26 08:00;CYHM 260800Z 00000KT 15SM SKC 17/15 A3021 RMK SLP227

CYHM;2007-06-26 09:00;CYHM 260900Z 00000KT 15SM FEW250 16/15 A3021 RMK CI1 CI TR SLP227

CYHM;2007-06-26 10:00;CYHM 261000Z 00000KT 15SM FEW250 18/15 A3021 RMK CI1 CONTRAILS SLP229

CYHM;2007-06-26 11:00;CYHM 261100Z 00000KT 15SM FEW250 19/16 A3022 RMK CI1 CONTRAIL SLP232

CYHM;2007-06-26 12:00;CYHM 261200Z 23002KT 15SM FEW240 22/17 A3023 RMK CI1 SLP232

CYHM;2007-06-26 13:00;CYHM 261300Z 24003KT 15SM FEW240 25/17 A3023 RMK CI1 SLP234

CYHM;2007-06-26 14:00;CYHM 261400Z 25006KT 15SM FEW240 27/18 A3023 RMK CI1 CI TR SLP233

CYHM;2007-06-26 15:00;CYHM 261500Z 26003KT 15SM SKC 29/19 A3022 RMK SLP231

CYHM;2007-06-26 16:00;CYHM 261600Z 25006KT 15SM FEW035 30/19 A3022 RMK CU1 SLP230

CYHM;2007-06-26 17:00;CYHM 261700Z 20007KT 15SM FEW046 SCT055 31/19 A3020 RMK CU2SC1 SLP225

CYHM;2007-06-26 18:00;CYHM 261800Z 19009KT 15SM FEW042 32/20 A3019 RMK CU2 SLP220

CYHM;2007-06-26 19:00;CYHM 261900Z 19011KT 10SM SCT048TCU 32/20 A3018 RMK TCU3 CU ASOCTD HAZY SLP217

CYHM;2007-06-26 20:00;CYHM 262000Z 19012KT 10SM FEW052TCU 32/19 A3017 RMK TCU1 CU ASOCTD HAZY SLP212

CYHM;2007-06-26 21:00;CYHM 262100Z 23011KT 8SM FEW058 32/19 A3015 RMK CU1 CU TR HAZY SLP207

CYHM;2007-06-26 22:00;CYHM 262200Z 20010KT 9SM FEW058 FEW250 32/19 A3013 RMK CU1CI1 CU TR HAZY SLP201

CYHM;2007-06-26 23:00;CYHM 262300Z 20011KT 12SM FEW056 30/19 A3012 RMK CU1 CU TR SLP197

CYHM;2007-06-27 00:00;CYHM 270000Z 22007KT 15SM FEW250 29/18 A3011 RMK CI1 CI TR SLP192

CYHM;2007-06-27 01:00;CYHM 270100Z 21004KT 15SM FEW250 26/18 A3011 RMK CI1 CI TR SLP192

CYHM;2007-06-27 02:00;CYHM 270200Z 22005KT 15SM FEW250 23/18 A3012 RMK CI1 CI TR SLP197

CYHM;2007-06-27 03:00;CYHM 270300Z 21004KT 15SM FEW250 22/18 A3013 RMK CI1 CI TR SLP199

CYHM;2007-06-27 04:00;CYHM 270400Z 20007KT 15SM FEW250 22/19 A3012 RMK CI1 CI TR SLP197

CYHM;2007-06-27 05:00;CYHM 270500Z 22005KT 15SM FEW250 22/19 A3010 RMK CI1 CI TR SLP188

CYHM;2007-06-27 06:00;CYHM 270600Z 00000KT 15SM SKC 21/19 A3009 RMK SLP186

CYHM;2007-06-27 07:00;CYHM 270700Z 00000KT 15SM SKC 21/18 A3008 RMK SLP182

CYHM;2007-06-27 08:00;CYHM 270800Z 21005KT 15SM SKC 20/18 A3007 RMK SLP177

CYHM;2007-06-27 09:00;CYHM 270900Z CCA 22005KT 10SM FEW084 SCT250 20/19 A3006 RMK AC1CI1 SLP174

CYHM;2007-06-27 10:00;CYHM 271000Z 22005KT 6SM BR FEW130 SCT250 21/19 A3006 RMK AC2CI0 CONTRAILS SLP174

CYHM;2007-06-27 11:00;CYHM 271100Z 24002KT 6SM HZ FEW130 FEW240 23/20 A3005 RMK AC1CI1 AC TR CI TR SLP173

CYHM;2007-06-27 12:00;CYHM 271200Z 25006KT 6SM HZ FEW130 24/20 A3005 RMK AC1 AC TR SLP172

CYHM;2007-06-27 13:00;CYHM 271300Z 25012KT 8SM SKC 26/20 A3005 RMK SLP173

CYHM;2007-06-27 14:00;CYHM 271400Z 24012KT 15SM FEW250 28/20 A3004 RMK CI1 SLP168

CYHM;2007-06-27 15:00;CYHM 271500Z 25011KT 15SM FEW040 30/19 A3003 RMK CU1 SLP166

CYHM;2007-06-27 16:00;CYHM 271600Z 25015G20KT 15SM FEW045 31/19 A3003 RMK CU1 SLP165

CYHM;2007-06-27 17:00;CYHM 271700Z 22014KT 15SM SCT045 SCT140 BKN220 32/19 A3001 RMK CU3AC1CI1 SLP160

CYHM;2007-06-27 18:00;CYHM 271800Z 23014KT 15SM FEW042 SCT120 32/19 A3000 RMK CU2AC1 TCU ASOCTD SLP153

CYHM;2007-06-27 19:00;CYHM 271900Z 23016G22KT 15SM TS BKN042CB BKN120 32/20 A2997 RMK CB5AC1 LTNG CU ASOCTD SLP145

CYHM;2007-06-27 19:50;CYHM 271950Z 23015G21KT 15SM FEW042 SCT120 BKN250 RETS RMK CU2AC2CS2 TCU ASOCTD

CYHM;2007-06-27 20:00;CYHM 272000Z 24010G16KT 15SM FEW042 SCT120 BKN250 31/20 A2997 RETS RMK CU2AC2CS2 TCU ASOCTD SLP143

CYHM;2007-06-27 21:00;CYHM 272100Z 24015G22KT 15SM FEW036 SCT120 OVC250 29/20 A2996 RMK SC2AC2CS5 CU ASOCTD SLP141

CYHM;2007-06-27 22:00;CYHM 272200Z 26011G18KT 15SM FEW036TCU FEW090 SCT220 BKN260 26/17 A2993 RMK TCU1AC2CS2CS3 TCU TR SUN DMLY VSBL SLP132

CYHM;2007-06-27 23:00;CYHM 272300Z 24012KT 15SM FEW090 BKN210 BKN260 25/17 A2992 RMK AC2CC3CS2 SLP128

CYHM;2007-06-28 00:00;CYHM 280000Z 23010KT 15SM FEW090 BKN160 BKN250 25/17 A2993 RMK AC1AC4CS2 SLP131

CYHM;2007-06-28 01:00;CYHM 280100Z 24008KT 15SM FEW078 BKN160 OVC250 24/19 A2995 RMK AC1AC6CS2 SLP137

CYHM;2007-06-28 02:00;CYHM 280200Z 22009KT 15SM FEW120 FEW160 BKN250 23/19 A2994 RMK AC1AC2CS3 SLP133

CYHM;2007-06-28 03:00;CYHM 280300Z 23011KT 15SM SCT150 BKN260 23/19 A2992 RMK AC3CI2 SLP128

CYHM;2007-06-28 04:00;CYHM 280400Z 23004KT 15SM FEW150 BKN260 22/18 A2995 RMK AC1CI4 SLP138

CYHM;2007-06-28 05:00;CYHM 280500Z 25006KT 15SM FEW033 SCT055 BKN260 22/18 A2995 RMK CU2SC2CI2 SLP138

CYHM;2007-06-28 06:00;CYHM 280600Z 00000KT 15SM FEW025 BKN053 22/18 A2994 RMK CU2SC4 SLP134

CYHM;2007-06-28 07:00;CYHM 280700Z 00000KT 15SM OVC017 22/19 A2994 RMK SC8 CU ASOCTD SLP135

CYHM;2007-06-28 08:00;CYHM 280800Z 00000KT 15SM OVC028 22/18 A2994 RMK SC8 MAMMA SLP134

CYHM;2007-06-28 09:00;CYHM 280900Z 36005KT 15SM FEW035 BKN043 BKN110 22/16 A2994 RMK CU2SC5AC1 SLP135

CYHM;2007-06-28 10:00;CYHM 281000Z 33007KT 15SM BKN040 OVC080 21/15 A2996 RMK SC6AC2 SLP141

CYHM;2007-06-28 11:00;CYHM 281100Z 35004KT 15SM FEW037 BKN042 OVC090 20/14 A2998 RMK SC2SC5AC2 SLP147

CYHM;2007-06-28 12:00;CYHM 281200Z 31006KT 15SM BKN051 BKN085 21/14 A2998 RMK SC6AC1 SLP151

CYHM;2007-06-28 13:00;CYHM 281300Z 33006KT 15SM FEW055 FEW100 FEW240 23/12 A2999 RMK SC1AC1CI0 SLP154

CYHM;2007-06-28 14:00;CYHM 281400Z 29008KT 15SM FEW040 FEW100 SCT220 25/12 A2999 RMK CU1AC1CI2 CU TR AC TR SLP154

CYHM;2007-06-28 15:00;CYHM 281500Z 29014KT 15SM FEW170 SCT220 26/12 A3001 RMK AC1CI2 SLP158

CYHM;2007-06-28 16:00;CYHM 281600Z 27009KT 15SM FEW040 FEW150 BKN220 26/13 A3001 RMK CU1AC1CI2 SLP160

CYHM;2007-06-28 17:00;CYHM 281700Z 30012KT 15SM FEW035 BKN150 BKN220 27/13 A3001 RMK CU2AC3CI1 SLP159

CYHM;2007-06-28 18:00;CYHM 281800Z 28014KT 15SM FEW050 SCT062 BKN130 BKN220 26/13 A3000 RMK CU2SC1AC3CI1 SLP156

CYHM;2007-06-28 19:00;CYHM 281900Z 27012KT 15SM BKN054 BKN065 BKN130 BKN250 27/13 A3000 RMK CU5SC1AC1CI1 SLP156

CYHM;2007-06-28 20:00;CYHM 282000Z 29012KT 15SM BKN052 BKN068 BKN250 26/13 A3000 RMK SC6AC1CI1 SLP155

CYHM;2007-06-28 21:00;CYHM 282100Z CCA 32010G15KT 270V360 15SM SCT052 BKN070 BKN250 25/M00 A2999 RMK SC3AC2CI2 SLP153

CYHM;2007-06-28 22:00;CYHM 282200Z 32011KT 15SM FEW049 BKN064 BKN250 24/12 A2998 RMK SC2SC3CI2 SLP151

CYHM;2007-06-28 23:00;CYHM 282300Z 35010KT 15SM FEW048 BKN063 BKN250 23/12 A3000 RMK SC2SC2CI2 SLP156

CYHM;2007-06-29 00:00;CYHM 290000Z 33008KT 15SM SCT062 BKN250 21/12 A3002 RMK SC3CI3 SLP164

CYHM;2007-06-29 01:00;CYHM 290100Z 34011KT 15SM FEW062 BKN240 19/10 A3004 RMK SC1CI4 CC ASOCTD SLP171

CYHM;2007-06-29 02:00;CYHM 290200Z 35008KT 310V030 15SM SCT049 BKN240 18/10 A3007 RMK SC3CI2 SLP180

CYHM;2007-06-29 03:00;CYHM 290300Z 04008KT 15SM FEW050 OVC250 17/09 A3008 RMK SC2CI5 SLP184

CYHM;2007-06-29 04:00;CYHM 290400Z 36008KT 15SM FEW050 BKN250 16/08 A3008 RMK SC1CI6 SLP185

CYHM;2007-06-29 05:00;CYHM 290500Z 01005KT 15SM BKN260 15/07 A3009 RMK CI6 SLP186

CYHM;2007-06-29 06:00;CYHM 290600Z 00000KT 15SM FEW052 BKN220 14/07 A3009 RMK SC2CI4 SLP187

CYHM;2007-06-29 07:00;CYHM 290700Z 35006KT 15SM SCT052 BKN250 13/07 A3008 RMK SC3CI2 SLP185

CYHM;2007-06-29 08:00;CYHM 290800Z 36005KT 15SM FEW050 BKN210 12/07 A3007 RMK SC2CI2 SLP181

CYHM;2007-06-29 09:00;CYHM 290900Z 02007KT 15SM FEW040 SCT210 12/07 A3007 RMK SC2CI2 SLP184

CYHM;2007-06-29 10:00;CYHM 291000Z 03008KT 15SM FEW040 SCT200 13/08 A3009 RMK SC1CI2 SLP190

CYHM;2007-06-29 11:00;CYHM 291100Z 04009KT 15SM FEW040 FEW100 15/09 A3010 RMK SC1AC1 SLP194

CYHM;2007-06-29 12:00;CYHM 291200Z 04010KT 15SM FEW025 FEW120 FEW220 17/09 A3012 RMK CU1AC1CI1 CU TR SLP199

CYHM;2007-06-29 13:00;CYHM 291300Z 06012KT 15SM FEW025 FEW120 FEW220 18/10 A3013 RMK CU1AC1CI1 CU TR AC TR SLP202

CYHM;2007-06-29 14:00;CYHM 291400Z 09010KT 15SM FEW030 FEW220 19/09 A3013 RMK CU1CI1 CU TR CI TR SLP204

CYHM;2007-06-29 15:00;CYHM 291500Z 03008KT 15SM FEW030 FEW220 20/06 A3014 RMK CU1CI1 CU TR CI TR SLP205

CYHM;2007-06-29 16:00;CYHM 291600Z 03007KT 15SM FEW030 FEW220 20/06 A3014 RMK CU1CI1 CU TR CI TR SLP207

CYHM;2007-06-29 17:00;CYHM 291700Z 16003KT 15SM FEW030 FEW220 21/07 A3013 RMK CU1CI1 CU TR CI TR SLP203

CYHM;2007-06-29 18:00;CYHM 291800Z 16003KT 15SM FEW030 FEW220 22/06 A3012 RMK CU1CI1 SLP199

CYHM;2007-06-29 19:00;CYHM 291900Z 27006KT 15SM FEW035 FEW220 23/07 A3010 RMK CU1CI1 SLP194

CYHM;2007-06-29 20:00;CYHM 292000Z 27002KT 15SM FEW045 FEW220 24/08 A3008 RMK CU1CI1 WND L/V SLP188

CYHM;2007-06-29 21:00;CYHM 292100Z CCA 26006KT 15SM FEW045 FEW220 25/08 A3007 RMK SC2CI1 CU ASOCTD SLP181

CYHM;2007-06-29 22:00;CYHM 292200Z CCA 36003KT 15SM FEW045 FEW074 SCT220 24/07 A3005 RMK SC2AC1CI1 CU ASOCTD SLP175

CYHM;2007-06-29 23:00;CYHM 292300Z 28004KT 15SM FEW045 FEW070 SCT220 24/07 A3004 RMK SC2AC1CI1 CU ASOCTD SLP173

CYHM;2007-06-30 00:00;CYHM 300000Z 27003KT 15SM FEW040 FEW070 FEW230 24/08 A3004 RMK CU1AC1CI1 AC TR SLP172

CYHM;2007-06-30 01:00;CYHM 300100Z 22002KT 15SM FEW035 FEW230 19/10 A3005 RMK SC1CI1 SLP175

CYHM;2007-06-30 02:00;CYHM 300200Z 19002KT 15SM FEW035 FEW230 19/09 A3008 RMK SC1CI1 SC TR SLP184

CYHM;2007-06-30 03:00;CYHM 300300Z 00000KT 15SM FEW230 18/07 A3009 RMK CI1 SLP189

CYHM;2007-06-30 04:00;CYHM 300400Z 36004KT 15SM SKC 16/06 A3010 RMK SLP193

CYHM;2007-06-30 05:00;CYHM 300500Z 00000KT 15SM SKC 14/06 A3010 RMK SLP194

CYHM;2007-06-30 06:00;CYHM 300600Z 00000KT 15SM FEW260 12/06 A3010 RMK CI1 SLP193

CYHM;2007-06-30 07:00;CYHM 300700Z 00000KT 15SM FEW220 11/06 A3009 RMK CI1 SLP190

CYHM;2007-06-30 08:00;CYHM 300800Z 00000KT 15SM FEW220 12/06 A3008 RMK CI1 SLP186

CYHM;2007-06-30 09:00;CYHM 300900Z 00000KT 15SM FEW220 11/06 A3008 RMK CI1 SLP185

CYHM;2007-06-30 10:00;CYHM 301000Z 00000KT 15SM FEW100 SCT200 11/06 A3009 RMK AC1CI2 CONTRAILS SLP188

CYHM;2007-06-30 11:00;CYHM 301100Z 00000KT 15SM FEW100 SCT200 11/07 A3009 RMK AC1CI1 CONTRAILS SLP190

CYHM;2007-06-30 12:00;CYHM 301200Z 27003KT 15SM FEW100 FEW200 15/09 A3009 RMK AC1CI1 CONTRAILS SLP189

CYHM;2007-06-30 13:00;CYHM 301300Z 31006KT 15SM FEW080 FEW250 20/09 A3010 RMK AC1CI1 AC TR SLP191

CYHM;2007-06-30 14:00;CYHM 301400Z 30006KT 220V350 15SM FEW080 FEW250 21/10 A3009 RMK AC1CI1 AC TR SLP189

CYHM;2007-06-30 15:00;CYHM 301500Z 28009KT 15SM FEW035 FEW250 23/09 A3008 RMK SC1CI1 CU ASOCTD SLP186

CYHM;2007-06-30 16:00;CYHM 301600Z 29011G17KT 15SM FEW050 SCT060 BKN250 24/08 A3007 RMK CU1SC2CI1 SLP183

CYHM;2007-06-30 17:00;CYHM 301700Z 29013KT 15SM FEW055 BKN063 BKN070 24/08 A3006 RMK CU2SC3AC1 SLP179

CYHM;2007-06-30 18:00;CYHM 301800Z 33010KT 15SM FEW055 BKN060 BKN075 24/07 A3005 RMK CU2SC3AC1 SLP176

CYHM;2007-06-30 19:00;CYHM 301900Z 29011KT 250V340 15SM SCT060 BKN075 25/08 A3003 RMK CU4AC2 SLP170

CYHM;2007-06-30 20:00;CYHM 302000Z 31013G19KT 270V340 15SM SCT064 BKN078 25/06 A3003 RMK CU4AC2 SLP170

CYHM;2007-06-30 21:00;CYHM 302100Z 30014KT 15SM SCT064 SCT075 BKN120 25/06 A3003 RMK CU3AC1AC1 SLP169

CYHM;2007-06-30 22:00;CYHM 302200Z 32015KT 15SM SCT055 SCT075 BKN120 23/06 A3004 RMK CU3AC1AC2 TCU ASOCTD NE E SLP172

CYHM;2007-06-30 23:00;CYHM 302300Z 33012KT 15SM FEW055 FEW075 SCT120 SCT250 22/05 A3005 RMK CU2AC1AC1CI1 CI TR SLP175

CYHM;2007-07-01 01:00;CYHM 010100Z CCA 33007KT 15SM FEW055 FEW120 FEW250 19/05 A3007 RMK CU1AC1CI1 CU TR CI TR SLP183

CYHM;2007-07-01 02:00;CYHM 010200Z 02008KT 15SM FEW100 FEW250 16/07 A3009 RMK AC1CI1 AC TR CI TR SLP188

CYHM;2007-07-01 03:00;CYHM 010300Z 03007KT 15SM FEW250 15/07 A3011 RMK CI1 SLP195

CYHM;2007-07-01 04:00;CYHM 010400Z 01007KT 15SM SCT210 15/07 A3012 RMK CI2 SLP200

CYHM;2007-07-01 05:00;CYHM 010500Z 01006KT 15SM FEW100 SCT250 13/07 A3013 RMK AC1CI1 SLP204

CYHM;2007-07-01 06:00;CYHM 010600Z 36005KT 15SM FEW043 FEW250 13/07 A3013 RMK SC2CI1 SLP204

CYHM;2007-07-01 07:00;CYHM 010700Z 01004KT 15SM SCT052 BKN210 12/08 A3014 RMK SC4CI1 SLP207

CYHM;2007-07-01 08:00;CYHM 010800Z 00000KT 15SM FEW053 FEW220 10/08 A3015 RMK SC1CI1 TR SC SLP209

CYHM;2007-07-01 09:00;CYHM 010900Z 00000KT 15SM FEW050 FEW220 08/07 A3015 RMK SC1CI1 TR CI SLP211

CYHM;2007-07-01 10:00;CYHM 011000Z 01005KT 15SM FEW040 FEW210 09/07 A3017 RMK SC1CI1 TR CI SLP217

CYHM;2007-07-01 11:00;CYHM 011100Z 02006KT 15SM BKN052 12/08 A3019 RMK SC6 SLP222

CYHM;2007-07-01 12:00;CYHM 011200Z 04009KT 15SM FEW028 BKN051 15/08 A3020 RMK CU1SC6 CU TR SLP226

CYHM;2007-07-01 13:00;CYHM 011300Z 03009KT 340V060 15SM FEW048 FEW056 16/08 A3020 RMK SC1SC1 SLP228

CYHM;2007-07-01 14:00;CYHM 011400Z 05010KT 320V070 15SM SCT038 16/07 A3021 RMK CU3 SLP230

CYHM;2007-07-01 15:00;CYHM 011500Z 02008KT 290V090 15SM BKN047 18/06 A3023 RMK CU6 SLP236

CYHM;2007-07-01 16:00;CYHM 011600Z 02006KT 330V060 15SM BKN043 BKN069 17/06 A3023 RMK SC6AC2 SLP236

CYHM;2007-07-01 17:00;CYHM 011700Z 02010KT 290V050 15SM SCT044 BKN077 20/08 A3023 RMK SC4AC3 SLP238

CYHM;2007-07-01 18:00;CYHM 011800Z 01008KT 340V050 15SM SCT042 BKN077 17/06 A3023 RMK SC4AC2 SLP237

CYHM;2007-07-01 19:00;CYHM 011900Z 25006KT 15SM SCT042 BKN075 19/06 A3022 RMK CU4AC2 SLP234

CYHM;2007-07-01 20:00;CYHM 012000Z 02007KT 340V060 15SM SCT045 BKN075 19/05 A3022 RMK CU4AC2 SLP234

CYHM;2007-07-01 21:00;CYHM 012100Z 32009KT 260V030 15SM SCT045 BKN077 20/05 A3022 RMK CU3AC3 SLP234

CYHM;2007-07-01 22:00;CYHM 012200Z 35010KT 300V050 15SM FEW045 SCT066 BKN080 20/04 A3021 RMK CU2AC2AC2 SLP233

CYHM;2007-07-01 23:00;CYHM 012300Z 36003KT 15SM FEW050 SCT066 SCT080 18/04 A3022 RMK CU1AC2AC1 SLP236

CYHM;2007-07-02 00:00;CYHM 020000Z 35010KT 15SM FEW060 18/04 A3022 RMK SC2 CU ASOCTD SLP235

CYHM;2007-07-02 01:00;CYHM 020100Z 35008KT 15SM FEW045 FEW066 FEW250 16/05 A3023 RMK CU1AC1CI1 CU TR SLP238

CYHM;2007-07-02 02:00;CYHM 020200Z 35008KT 15SM FEW070 FEW250 14/06 A3025 RMK AC1CI1 AC TR SLP243

CYHM;2007-07-02 03:00;CYHM 020300Z 35007KT 15SM FEW220 13/06 A3026 RMK CI1 SLP250

CYHM;2007-07-02 04:00;CYHM 020400Z 35005KT 15SM FEW210 12/05 A3027 RMK CI1 SLP252

CYHM;2007-07-02 05:00;CYHM 020500Z 00000KT 15SM SCT200 12/05 A3028 RMK CI2 SLP256

CYHM;2007-07-02 06:00;CYHM 020600Z 00000KT 15SM FEW210 11/05 A3029 RMK CI2 SLP258

CYHM;2007-07-02 07:00;CYHM 020700Z 00000KT 15SM FEW210 07/04 A3029 RMK CI1 SLP260

CYHM;2007-07-02 08:00;CYHM 020800Z 34005KT 15SM FEW210 09/05 A3030 RMK CI2 SLP261

CYHM;2007-07-02 09:00;CYHM 020900Z 00000KT 15SM FEW230 09/05 A3031 RMK CI2 SLP265

CYHM;2007-07-02 10:00;CYHM 021000Z 00000KT 15SM FEW100 FEW250 08/06 A3033 RMK AC1CI1 SLP272

CYHM;2007-07-02 11:00;CYHM 021100Z 34004KT 15SM FEW025 FEW220 11/08 A3033 RMK CU1CI1 CU TR SLP274

CYHM;2007-07-02 12:00;CYHM 021200Z 36008KT 15SM FEW015 FEW100 FEW220 14/08 A3034 RMK CU1AC1CI1 SLP276

CYHM;2007-07-02 13:00;CYHM 021300Z 03004KT 15SM FEW025 17/08 A3034 RMK CU1 SLP276

CYHM;2007-07-02 14:00;CYHM 021400Z 03006KT 15SM FEW025 FEW240 18/06 A3033 RMK CU1CI1 SLP272

CYHM;2007-07-02 15:00;CYHM 021500Z 01008KT 15SM FEW035 FEW240 19/06 A3032 RMK CU2CI1 SLP268

CYHM;2007-07-02 16:00;CYHM 021600Z 36002KT 15SM FEW045 FEW056 19/06 A3032 RMK CU2SC1 SLP267

CYHM;2007-07-02 17:00;CYHM 021700Z 03003KT 15SM FEW046 21/07 A3030 RMK CU2 SC ASOCTD SLP263

CYHM;2007-07-02 18:00;CYHM 021800Z 02003KT 15SM FEW052 FEW220 21/07 A3029 RMK CU2CI1 CI TR SLP258

CYHM;2007-07-02 19:00;CYHM 021900Z 12003KT 15SM FEW056 SCT250 21/06 A3027 RMK CU2CI0 WND L/V CONTRAILS SLP251

CYHM;2007-07-02 20:00;CYHM 022000Z 00000KT 15SM FEW062 BKN250 21/07 A3026 RMK CU2CI1 CONTRAILS SLP247

CYHM;2007-07-02 21:00;CYHM 022100Z 00000KT 15SM SCT065 BKN250 23/07 A3025 RMK CU3CI1 CONTRAILS SLP244

CYHM;2007-07-02 22:00;CYHM 022200Z 00000KT 15SM SCT068 BKN250 22/06 A3023 RMK AC3CI2 CONTRAILS SLP240

CYHM;2007-07-02 23:00;CYHM 022300Z 21007KT 15SM FEW068 BKN250 21/08 A3023 RMK AC2CI2 CONTRAILS SLP239

CYHM;2007-07-03 00:00;CYHM 030000Z 23008KT 15SM FEW068 BKN250 19/08 A3024 RMK AC1CI2 CONTRAILS SLP240

CYHM;2007-07-03 01:00;CYHM 030100Z 21005KT 15SM FEW068 BKN250 17/08 A3024 RMK AC1CI2 AC TR CONTRAILS SLP241

CYHM;2007-07-03 02:00;CYHM 030200Z 21003KT 15SM FEW074 BKN250 15/08 A3025 RMK AC1CI2 AC TR SLP245

CYHM;2007-07-03 03:00;CYHM 030300Z 00000KT 15SM BKN250 15/08 A3026 RMK CI1 SLP246

CYHM;2007-07-03 04:00;CYHM 030400Z 25004KT 15SM BKN250 15/08 A3026 RMK CI1 SLP246

CYHM;2007-07-03 05:00;CYHM 030500Z 00000KT 15SM SCT250 14/08 A3024 RMK CI1 SLP242

CYHM;2007-07-03 06:00;CYHM 030600Z 00000KT 15SM SCT250 12/08 A3024 RMK CI1 SLP241

CYHM;2007-07-03 07:00;CYHM 030700Z 00000KT 15SM BKN230 12/08 A3024 RMK CC4 CI ASOCTD SLP240

CYHM;2007-07-03 08:00;CYHM 030800Z 00000KT 15SM FEW150 BKN220 12/08 A3023 RMK AC1CC4 SLP238

CYHM;2007-07-03 09:00;CYHM 030900Z 00000KT 15SM BKN160 13/09 A3023 RMK AC7 SLP236

CYHM;2007-07-03 10:00;CYHM 031000Z 00000KT 15SM BKN150 13/09 A3023 RMK AC7 SLP237

CYHM;2007-07-03 11:00;CYHM 031100Z 00000KT 15SM BKN150 BKN220 14/09 A3024 RMK AC6CI1 SLP239

CYHM;2007-07-03 12:00;CYHM 031200Z 00000KT 15SM BKN140 BKN170 BKN220 16/10 A3023 RMK AC6AC1CI1 SLP238

CYHM;2007-07-03 13:00;CYHM 031300Z 14003KT 15SM FEW150 BKN220 19/10 A3022 RMK AC2CI2 SLP235

CYHM;2007-07-03 14:00;CYHM 031400Z 12002KT 15SM FEW130 BKN220 21/08 A3022 RMK AC2CI3 CONTRAIL SLP233

CYHM;2007-07-03 15:00;CYHM 031500Z 10006KT 15SM FEW042 FEW120 BKN240 22/08 A3020 RMK CU1AC1CI4 CU TR AC TR SLP228

CYHM;2007-07-03 16:00;CYHM 031600Z 17006KT 15SM FEW045 FEW150 SCT240 23/08 A3018 RMK CU1AC1CI2 AC TR SLP220

CYHM;2007-07-03 17:00;CYHM 031700Z 15006KT 15SM FEW045 FEW150 SCT240 24/08 A3017 RMK CU1AC1CI1 AC TR SLP218

CYHM;2007-07-03 18:00;CYHM 031800Z 10003KT 15SM FEW052 FEW150 SCT240 25/07 A3017 RMK CU1AC1CI1 SLP215

CYHM;2007-07-03 19:00;CYHM 031900Z 00000KT 15SM FEW062 SCT180 BKN250 24/07 A3013 RMK CU1AC3CI1 CU TR CONTRAILS SLP205

CYHM;2007-07-03 20:00;CYHM 032000Z 00000KT 15SM FEW120 FEW180 BKN250 25/06 A3012 RMK AC2AC1CI1 CONTRAILS SLP199

CYHM;2007-07-03 21:00;CYHM 032100Z 18006KT 15SM BKN120 BKN160 BKN250 25/07 A3011 RMK AC5AC1CI1 SLP196

CYHM;2007-07-03 22:00;CYHM 032200Z 23005KT 15SM FEW100 BKN120 BKN250 24/07 A3011 RMK AC2AC4CI1 SLP195

CYHM;2007-07-03 23:00;CYHM 032300Z 19003KT 15SM BKN110 BKN250 24/07 A3010 RMK AC6CI1 SLP191

CYHM;2007-07-04 00:00;CYHM 040000Z 18006KT 15SM BKN098 BKN250 24/05 A3008 RMK AC6CI1 SLP186

CYHM;2007-07-04 01:00;CYHM 040100Z 00000KT 15SM SCT100 BKN250 22/04 A3008 RMK AC4CI1 SLP184

CYHM;2007-07-04 02:00;CYHM 040200Z 00000KT 15SM FEW098 SCT250 19/05 A3008 RMK AC2CI0 SLP185

CYHM;2007-07-04 03:00;CYHM 040300Z 00000KT 15SM FEW098 SCT250 17/08 A3006 RMK AC1CI1 AC TR SLP179

CYHM;2007-07-04 04:00;CYHM 040400Z 00000KT 15SM FEW098 SCT250 16/10 A3004 RMK AC1CI1 SLP172

CYHM;2007-07-04 05:00;CYHM 040500Z 00000KT 15SM FEW094 BKN110 16/10 A3004 RMK AC2AC6 SLP171

CYHM;2007-07-04 06:00;CYHM 040600Z 00000KT 15SM BKN100 BKN130 16/11 A3003 RMK AC5AC2 SLP167

CYHM;2007-07-04 07:00;CYHM 040700Z 00000KT 15SM FEW110 BKN130 16/11 A3001 RMK AC2AC5 SLP159

CYHM;2007-07-04 08:00;CYHM 040800Z 00000KT 15SM FEW094 BKN120 BKN160 16/12 A2998 RMK AC2AC4AC2 SLP152

CYHM;2007-07-04 09:00;CYHM 040900Z 16007KT 15SM BKN097 OVC120 18/13 A2997 RMK AC6AC2 SLP147

CYHM;2007-07-04 10:00;CYHM 041000Z 18009KT 15SM BKN110 OVC140 19/13 A2996 RMK AC6AC2 SLP143

CYHM;2007-07-04 11:00;CYHM 041100Z 19010KT 15SM BKN075 OVC110 20/12 A2996 RMK AC5AC3 SLP144

CYHM;2007-07-04 11:16;CYHM 041116Z 22012KT 10SM -SHRA BKN047 OVC084 RMK SC6AC2

CYHM;2007-07-04 12:00;CYHM 041200Z 20002KT 10SM -SHRA BKN056 OVC079 18/15 A2997 RMK SC6AC2 SLP147

CYHM;2007-07-04 13:00;CYHM 041300Z 19002KT 6SM -SHRA BKN046 OVC071 18/15 A2997 RMK SC6AC2 SLP147

CYHM;2007-07-04 14:00;CYHM 041400Z 17002KT 10SM -SHRA SCT058 OVC083 19/15 A2995 RMK SC3AC5 SLP140

CYHM;2007-07-04 15:00;CYHM 041500Z 18005KT 5SM -SHRA OVC050 18/16 A2994 RMK SC8 SLP137

CYHM;2007-07-04 16:00;CYHM 041600Z 16008KT 2 1/2SM SHRA BR BKN027 OVC045 17/15 A2992 RMK SC6SC2 SLP132

CYHM;2007-07-04 16:35;CYHM 041635Z 15009KT 1 1/2SM RA BR FEW005 BKN028 OVC047 RMK FG1SF1SC5SC2

CYHM;2007-07-04 17:00;CYHM 041700Z CCA 15007KT 3SM -RA BR FEW006 BKN040 OVC052 17/16 A2991 RMK SF2SC5SC2 RERA SLP127

CYHM;2007-07-04 18:00;CYHM 041800Z 18009KT 5SM -RA BR BKN032 OVC042 17/16 A2990 RMK SC6SC2 SLP126

CYHM;2007-07-04 19:00;CYHM 041900Z 20002KT 5SM -SHRA BR BKN006 OVC024 17/15 A2991 RMK SC6SC2 SLP127

CYHM;2007-07-04 19:37;CYHM 041937Z 19002KT 6SM BR SCT007 OVC025 RMK SC4SC4

CYHM;2007-07-04 20:00;CYHM 042000Z 20003KT 6SM HZ FEW007 SCT014 BKN024 OVC034 19/16 A2990 RMK SC2SC2SC3SC1 SLP124

CYHM;2007-07-04 20:50;CYHM 042050Z 18003KT 6SM HZ FEW008 BKN012 OVC022 RMK SF1SC5SC2

CYHM;2007-07-04 21:00;CYHM 042100Z 19003KT 6SM HZ FEW008 BKN012 OVC022 18/16 A2988 RMK SF1SC6SC1 SLP119

CYHM;2007-07-04 22:00;CYHM 042200Z 00000KT 4SM HZ SCT007 BKN010 OVC018 18/16 A2988 RMK SF3SC4SC1 SLP117

CYHM;2007-07-04 23:00;CYHM 042300Z 00000KT 4SM HZ FEW008 OVC012 19/16 A2988 RMK SF2SC6 SLP118

CYHM;2007-07-05 00:00;CYHM 050000Z 00000KT 4SM HZ FEW009 OVC014 19/16 A2989 RMK SF2SC6 SLP122

CYHM;2007-07-05 00:50;CYHM 050050Z 00000KT 3SM BR FEW010 OVC028 RMK SF2SC6

CYHM;2007-07-05 01:00;CYHM 050100Z 00000KT 3SM BR FEW010 OVC028 18/16 A2989 RMK SF2SC6 SLP121

CYHM;2007-07-05 02:00;CYHM 050200Z 00000KT 4SM BR BKN027 17/16 A2990 RMK SC7 SLP124

CYHM;2007-07-05 02:27;CYHM 050227Z 00000KT 1SM BR SCT027 RMK FG2SC1 VIS VRB 3/4 - 11/4

CYHM;2007-07-05 03:00;CYHM 050300Z 00000KT 1/2SM FG SKC 15/15 A2991 RMK FG4 SLP127

CYHM;2007-07-05 03:18;CYHM 050318Z 00000KT 1/8SM FG BKN004 RMK FG5SF1

CYHM;2007-07-05 04:00;CYHM 050400Z 00000KT 1/8SM FG BKN003 16/15 A2991 RMK FG5SF1 SLP129

CYHM;2007-07-05 05:00;CYHM 050500Z 00000KT 1/8SM FG BKN002 15/14 A2990 RMK FG6SF2 SLP126

CYHM;2007-07-05 06:00;CYHM 050600Z 00000KT 1/8SM FG BKN004 15/14 A2988 RMK FG6SF1 SLP120

CYHM;2007-07-05 07:00;CYHM 050700Z 26004KT 1/8SM FG BKN002 16/15 A2989 RMK FG6SF2 SLP122

CYHM;2007-07-05 08:00;CYHM 050800Z 00000KT 1/8SM FG BKN004 15/14 A2988 RMK FG6SF2 SLP119

CYHM;2007-07-05 09:00;CYHM 050900Z 22004KT 1/8SM FG BKN004 15/15 A2988 RMK FG6SF2 SLP117

CYHM;2007-07-05 10:00;CYHM 051000Z 00000KT 1/4SM FG OVC004 16/15 A2989 RMK FG5SF3 SLP121

CYHM;2007-07-05 11:00;CYHM 051100Z 23006KT 1/8SM FG VV001 17/16 A2989 RMK FG8 SLP123

CYHM;2007-07-05 12:00;CYHM 051200Z 22008KT 1/8SM FG VV001 17/17 A2990 RMK FG8 SLP124

CYHM;2007-07-05 12:33;CYHM 051233Z 24006KT 1 1/4SM BR FEW006 SCT028 OVC120 RMK FG1SF2SC2AC4

CYHM;2007-07-05 13:00;CYHM 051300Z 23006KT 1 1/2SM BR SCT010 BKN035 OVC110 18/17 A2990 RMK FG2SF2SC3AC2 SLP123

CYHM;2007-07-05 13:32;CYHM 051332Z 24008KT 1SM -SHRA BR BKN003 OVC021 RMK FG2SF3SC2

CYHM;2007-07-05 14:00;CYHM 051400Z 22006KT 1SM -TSRA BR BKN004 BKN018 OVC032 18/17 A2991 RMK FG2SF3SC2SC1 CB EMBDED SLP127

CYHM;2007-07-05 14:07;CYHM 051407Z 23005KT 1SM -TSRA BR BKN003 OVC016 RMK FG2SF4SC2 CB EMBDD LTNG

CYHM;2007-07-05 14:38;CYHM 051438Z 22004KT 2SM -TSRA BR BKN008 OVC018 RMK FG1SF4SC3 CB EMBDD

CYHM;2007-07-05 15:00;CYHM 051500Z 22007KT 1 3/4SM -SHRA BR BKN005 BKN015 OVC024 19/18 A2991 RMK FG1SF4SC2SC2 SLP128

CYHM;2007-07-05 15:25;CYHM 051525Z 19006KT 5SM BR FEW025 BKN062 BKN110 RMK CU2SC2AC2

CYHM;2007-07-05 16:00;CYHM 051600Z 24006KT 10SM FEW025 BKN055 BKN150 22/20 A2989 RMK CU2SC2AC2 SLP122

CYHM;2007-07-05 16:18;CYHM 051618Z 25008KT 15SM -TSRA BKN036 BKN055 OVC110 RMK SC5SC2AC1 CB EMBDD LTNG

CYHM;2007-07-05 16:49;CYHM 051649Z 26006KT 15SM TS SCT018 BKN029 BKN042 RMK CU3SC2SC2 CB ASOCTD

CYHM;2007-07-05 16:54;CYHM 051654Z 26007KT 15SM FEW018 FEW045 SCT100 RMK CU2SC1AC1

CYHM;2007-07-05 17:00;CYHM 051700Z 23007KT 15SM FEW020 SCT100 23/19 A2988 RMK CU2AC1 SLP120

CYHM;2007-07-05 18:00;CYHM 051800Z 25007KT 15SM FEW021 FEW032 SCT160 25/19 A2987 RMK CU1SC1AC1 SLP112

CYHM;2007-07-05 19:00;CYHM 051900Z 22012KT 180V300 15SM BKN038 26/17 A2985 RMK CU6 TCU ASOCTD SLP107

CYHM;2007-07-05 20:00;CYHM 052000Z 16009KT 15SM BKN052 BKN083 BKN250 25/18 A2985 RMK CU6AC1CI0 SLP107

CYHM;2007-07-05 21:00;CYHM 052100Z 31010KT 230V060 15SM BKN060 BKN250 28/15 A2983 RMK CU5CI0 SLP100

CYHM;2007-07-05 22:00;CYHM 052200Z 31011KT 260V350 15SM SCT062 BKN250 27/14 A2982 RMK CU4CI1 SLP096

CYHM;2007-07-05 23:00;CYHM 052300Z 32008KT 15SM FEW060 FEW076 BKN250 27/14 A2984 RMK CU2AC1CI1 SLP104

CYHM;2007-07-06 00:00;CYHM 060000Z 31006KT 15SM FEW060 FEW076 SCT250 25/13 A2987 RMK CU1AC1CI1 TCU ASOCTD SLP112

CYHM;2007-07-06 01:00;CYHM 060100Z 30003KT 15SM FEW060 SCT250 21/13 A2988 RMK CU1CI2 SLP114

CYHM;2007-07-06 02:00;CYHM 060200Z 34002KT 15SM FEW060 BKN250 21/13 A2989 RMK SC1CI2 SLP118

CYHM;2007-07-06 03:00;CYHM 060300Z 00000KT 15SM SCT260 19/13 A2990 RMK CI3 SLP123

CYHM;2007-07-06 04:00;CYHM 060400Z 32006KT 15SM SCT260 18/14 A2991 RMK CI2 SLP126

CYHM;2007-07-06 05:00;CYHM 060500Z 32006KT 15SM BKN170 18/14 A2991 RMK AC6 SLP127

CYHM;2007-07-06 06:00;CYHM 060600Z 28005KT 15SM FEW170 BKN220 17/14 A2991 RMK AC2CI2 SLP128

CYHM;2007-07-06 07:00;CYHM 060700Z 29005KT 15SM FEW220 16/14 A2992 RMK CI2 SLP130

CYHM;2007-07-06 08:00;CYHM 060800Z 00000KT 15SM FEW220 16/13 A2993 RMK CI1 SLP132

CYHM;2007-07-06 09:00;CYHM 060900Z 25004KT 15SM FEW100 SCT220 15/13 A2993 RMK AC1CI2 SLP133

CYHM;2007-07-06 10:00;CYHM 061000Z 27005KT 15SM FEW100 FEW210 15/13 A2994 RMK AC1CI2 SLP136

CYHM;2007-07-06 11:00;CYHM 061100Z 26006KT 15SM FEW100 FEW220 15/14 A2994 RMK AC1CI1 AC TR CI TR SLP135

CYHM;2007-07-06 12:00;CYHM 061200Z 27007KT 15SM FEW100 17/15 A2996 RMK AC1 AC TR SLP142

CYHM;2007-07-06 13:00;CYHM 061300Z 28008KT 15SM SKC 20/15 A2996 RMK SLP144

CYHM;2007-07-06 14:00;CYHM 061400Z 32009KT 15SM FEW100 22/15 A2997 RMK AC1 SLP146

CYHM;2007-07-06 15:00;CYHM 061500Z 29011KT 15SM SKC 24/15 A2997 RMK SLP147

CYHM;2007-07-06 16:00;CYHM 061600Z 29010G15KT 15SM FEW040 25/14 A2997 RMK CU1 CU TR SLP146

CYHM;2007-07-06 17:00;CYHM 061700Z 30007KT 15SM FEW048 26/14 A2996 RMK CU2 SC ASOCTD SLP143

CYHM;2007-07-06 18:00;CYHM 061800Z 27006KT 15SM SCT055 BKN062 BKN082 26/14 A2995 RMK CU3SC2AC1 SLP140

CYHM;2007-07-06 19:00;CYHM 061900Z 26011KT 15SM BKN058 27/13 A2994 RMK CU6 SLP136

CYHM;2007-07-06 20:00;CYHM 062000Z 28012KT 15SM SCT063 28/14 A2994 RMK CU4 SLP136

CYHM;2007-07-06 21:00;CYHM 062100Z 28011KT 230V320 15SM SCT062 28/14 A2994 RMK CU4 SLP135

CYHM;2007-07-06 22:00;CYHM 062200Z 27013KT 15SM BKN064 28/13 A2993 RMK CU5 SLP134

CYHM;2007-07-06 23:00;CYHM 062300Z 26013KT 210V300 15SM SCT063 27/14 A2994 RMK CU3 SLP137

CYHM;2007-07-07 00:00;CYHM 070000Z 27010KT 15SM FEW060 FEW250 24/13 A2994 RMK CU1CI1 SLP137

CYHM;2007-07-07 01:00;CYHM 070100Z 27007KT 15SM FEW060 FEW250 22/12 A2996 RMK CU1CI1 CU TR SLP142

CYHM;2007-07-07 02:00;CYHM 070200Z 27006KT 15SM FEW250 20/12 A2997 RMK CI1 SLP147

CYHM;2007-07-07 03:00;CYHM 070300Z 00000KT 15SM SKC 18/12 A2998 RMK SLP149

CYHM;2007-07-07 04:00;CYHM 070400Z 00000KT 15SM FEW260 17/12 A2998 RMK CI1 SLP151

CYHM;2007-07-07 05:00;CYHM 070500Z 00000KT 15SM SCT260 17/12 A2998 RMK CI2 SLP149

CYHM;2007-07-07 06:00;CYHM 070600Z 00000KT 15SM FEW058 BKN075 15/13 A2997 RMK SC2AC3 SLP147

CYHM;2007-07-07 07:00;CYHM 070700Z 00000KT 15SM BKN061 BKN080 15/13 A2996 RMK SC5AC1 SLP143

CYHM;2007-07-07 08:00;CYHM 070800Z 25006KT 15SM BKN061 BKN083 15/13 A2996 RMK SC5AC2 SLP145

CYHM;2007-07-07 09:00;CYHM 070900Z 25005KT 15SM FEW054TCU FEW210 15/12 A2996 RMK TCU1CI1 SLP143

CYHM;2007-07-07 10:00;CYHM 071000Z 00000KT 15SM FEW050TCU BKN210 15/12 A2996 RMK TCU1CI3 CONTRAILS SLP142

CYHM;2007-07-07 11:00;CYHM 071100Z 26005KT 15SM FEW050 BKN250 16/13 A2996 RMK SC1CI2 CONTRAILS SLP142

CYHM;2007-07-07 12:00;CYHM 071200Z 26006KT 15SM BKN250 18/13 A2996 RMK CI2 CONTRAILS SLP144

CYHM;2007-07-07 13:00;CYHM 071300Z 25005KT 15SM BKN250 21/13 A2997 RMK CI2 SLP146

CYHM;2007-07-07 14:00;CYHM 071400Z 25005KT 15SM BKN250 23/14 A2996 RMK CI2 SLP142

CYHM;2007-07-07 15:00;CYHM 071500Z 22006KT 150V290 15SM BKN250 25/13 A2995 RMK CI2 CONTRAILS SLP140

CYHM;2007-07-07 16:00;CYHM 071600Z 24007KT 180V300 15SM FEW050 BKN250 26/14 A2994 RMK SC1CI2 CONTRAILS SLP136

CYHM;2007-07-07 17:00;CYHM 071700Z 25012G20KT 190V290 15SM FEW060 SCT078 BKN250 28/14 A2992 RMK SC2AC1CI0 SLP131

CYHM;2007-07-07 18:00;CYHM 071800Z 27010G17KT 230V320 15SM BKN062 BKN082 28/14 A2991 RMK SC5AC2 SLP128

CYHM;2007-07-07 19:00;CYHM 071900Z 27013KT 230V310 15SM SCT058 BKN077 29/15 A2990 RMK CU4AC2 SLP123

CYHM;2007-07-07 20:00;CYHM 072000Z 26013KT 230V300 15SM SCT060 BKN075 28/14 A2988 RMK SC3AC2 CU ASOCTD SLP117

CYHM;2007-07-07 21:00;CYHM 072100Z 25013KT 220V290 15SM SCT060 BKN074 29/14 A2986 RMK SC4AC2 CU ASOCTD SLP109

CYHM;2007-07-07 22:00;CYHM 072200Z 26011KT 15SM FEW060 SCT074 28/14 A2985 RMK SC2AC2 CU ASOCTD SLP106

CYHM;2007-07-07 23:00;CYHM 072300Z 24010G15KT 15SM SCT064 SCT200 27/14 A2985 RMK SC3CI1 CI TR SLP106

CYHM;2007-07-08 00:00;CYHM 080000Z 22011KT 15SM FEW064 SCT220 26/13 A2985 RMK SC2CI1 SLP106

CYHM;2007-07-08 01:00;CYHM 080100Z 21008KT 15SM FEW070 FEW240 23/13 A2984 RMK AC1CI1 SLP102

CYHM;2007-07-08 02:00;CYHM 080200Z 22005KT 15SM FEW070 FEW240 21/13 A2984 RMK AC1CI1 AC TR CI TR SLP102

CYHM;2007-07-08 03:00;CYHM 080300Z 00000KT 15SM FEW240 20/13 A2984 RMK CI1 SLP102

CYHM;2007-07-08 04:00;CYHM 080400Z 00000KT 15SM SKC 19/12 A2983 RMK SLP100

CYHM;2007-07-08 05:00;CYHM 080500Z 21005KT 15SM FEW250 17/11 A2982 RMK CI1 SLP095

CYHM;2007-07-08 06:00;CYHM 080600Z 23009KT 15SM SKC 19/13 A2981 RMK SLP092

CYHM;2007-07-08 07:00;CYHM 080700Z 23007KT 15SM SKC 17/13 A2980 RMK SLP088

CYHM;2007-07-08 08:00;CYHM 080800Z 24007KT 15SM FEW250 18/14 A2980 RMK CI1 SLP088

CYHM;2007-07-08 09:00;CYHM 080900Z 21007KT 15SM FEW080 17/14 A2978 RMK AC1 SLP082

CYHM;2007-07-08 10:00;CYHM 081000Z 21005KT 15SM FEW040 FEW080 FEW250 16/14 A2978 RMK SC1AC1CI1 TR AC SLP083

CYHM;2007-07-08 11:00;CYHM 081100Z 20008KT 15SM FEW040 FEW100 FEW250 19/16 A2978 RMK SC1AC1CI1 SC AC TR SLP082

CYHM;2007-07-08 12:00;CYHM 081200Z 21007KT 15SM FEW040 BKN250 23/17 A2976 RMK SC1CI2 SC TR SLP075

CYHM;2007-07-08 13:00;CYHM 081300Z 23011KT 15SM BKN031 BKN092 25/18 A2978 RMK SC6AC1 SLP079

CYHM;2007-07-08 14:00;CYHM 081400Z 24006KT 15SM BKN029 BKN040 25/19 A2980 RMK CU5SC2 SLP088

CYHM;2007-07-08 15:00;CYHM 081500Z 22010KT 15SM FEW029 FEW040 BKN150 OVC220 24/19 A2980 RMK CU1SC1AC6CI1 VIRGA SLP088

CYHM;2007-07-08 16:00;CYHM 081600Z 20007KT 15SM -SHRA SCT044 OVC150 24/20 A2980 RMK SC4AC4 SLP087

CYHM;2007-07-08 16:34;CYHM 081634Z 21006KT 15SM FEW032 BKN130 BKN220 RMK SC2AC3CI2

CYHM;2007-07-08 17:00;CYHM 081700Z 22002KT 15SM SCT130 BKN180 BKN220 24/20 A2980 RMK AC3AC2CI2 VIRGA SLP088

CYHM;2007-07-08 17:52;CYHM 081752Z 22002KT 15SM TS FEW035TCU SCT130 BKN170 BKN220 RMK TCU2AC2AC3CI1 CB EMBDD

CYHM;2007-07-08 18:00;CYHM 081800Z 22003KT 15SM TS FEW035TCU SCT130 BKN170 OVC220 26/21 A2978 RMK TCU2AC1AC3CI2 CB EMBDD SLP082

CYHM;2007-07-08 18:09;CYHM 081809Z 21004KT 6SM -TSRA HZ SCT035TCU OVC130 RMK TCU4AC4 CB EMBD

CYHM;2007-07-08 18:19;CYHM 081819Z 21004KT 7SM -SHRA SCT035TCU BKN130 OVC170 RETS RMK TCU3AC2AC2 HZ PCPN VRY LGT

CYHM;2007-07-08 19:00;CYHM 081900Z 22013G19KT 7SM -SHRA FEW036TCU BKN130 OVC170 27/21 A2974 RETS RMK TCU2AC3AC2 PCPN VRY LGT HZ SLP067

CYHM;2007-07-08 20:00;CYHM 082000Z 23013KT 7SM -SHRA SCT035 BKN120 OVC180 26/21 A2977 RMK SC4AC2AC2 TCU EMBD PCPN VRY LGT HZ SLP079

CYHM;2007-07-08 21:00;CYHM 082100Z 21009KT 7SM -SHRA SCT035 BKN064 BKN130 25/22 A2976 RMK SC3SC2AC2 TCU EMBD HZ PCPN VRY LGT SLP074

CYHM;2007-07-08 21:20;CYHM 082120Z 22010KT 8SM FEW035 SCT065 BKN120 BKN180 RMK SC2SC2AC2AC2 HZ

CYHM;2007-07-08 22:00;CYHM 082200Z 21010KT 8SM FEW060 BKN120 BKN160 28/21 A2976 RMK SC2AC2AC2 HZ SLP074

CYHM;2007-07-08 23:00;CYHM 082300Z 23007KT 9SM FEW060 BKN120 BKN160 27/21 A2977 RMK SC2AC2AC2 SLP079

CYHM;2007-07-09 00:00;CYHM 090000Z 20006KT 9SM FEW030TCU SCT066 BKN120 BKN160 26/20 A2977 RMK TCU1AC2AC2AC2 SLP076

CYHM;2007-07-09 00:25;CYHM 090025Z 20005KT 9SM TS SCT040 BKN120 RMK SC3AC4 CB EMBD

CYHM;2007-07-09 00:41;CYHM 090041Z 19007KT 9SM VCSH SCT040 BKN120 BKN160 RETS RMK SC3AC2AC2

CYHM;2007-07-09 01:00;CYHM 090100Z 21006KT 10SM VCSH FEW030TCU SCT045 BKN120 BKN160 25/20 A2975 RETS RMK TCU2SC2AC2AC2 SLP071

CYHM;2007-07-09 01:38;CYHM 090138Z 22010KT 12SM -SHRA FEW060 BKN120 BKN160 RMK SC2AC2AC2 PCPN VRY LGT

CYHM;2007-07-09 02:00;CYHM 090200Z 22010KT 15SM FEW060 BKN130 BKN180 26/19 A2974 RMK SC2AC3AC2 SLP066

CYHM;2007-07-09 03:00;CYHM 090300Z 23012G18KT 15SM FEW180 26/18 A2973 RMK AC1 SLP063

CYHM;2007-07-09 04:00;CYHM 090400Z 23015KT 15SM FEW150 SCT260 27/19 A2974 RMK AC2CI1 SLP066

CYHM;2007-07-09 05:00;CYHM 090500Z 23016KT 15SM SCT130 BKN150 27/19 A2974 RMK AC3AC2 SLP067

CYHM;2007-07-09 06:00;CYHM 090600Z 23014KT 15SM FEW150 BKN260 26/19 A2974 RMK AC2CI3 SLP065

CYHM;2007-07-09 07:00;CYHM 090700Z 22013KT 15SM BKN260 25/19 A2972 RMK CI4 SLP061

CYHM;2007-07-09 08:00;CYHM 090800Z 22007KT 15SM BKN260 24/19 A2973 RMK CI4 SLP064

CYHM;2007-07-09 09:00;CYHM 090900Z 22007KT 15SM BKN260 23/19 A2974 RMK CI6 SLP066

CYHM;2007-07-09 10:00;CYHM 091000Z 23009KT 15SM FEW120 BKN260 24/19 A2976 RMK AC2CI3 SLP073

CYHM;2007-07-09 11:00;CYHM 091100Z 24010KT 15SM FEW140 BKN220 24/19 A2978 RMK AC2CI3 SLP079

CYHM;2007-07-09 12:00;CYHM 091200Z 24014KT 15SM FEW140 BKN220 25/20 A2979 RMK AC2CI4 SLP085

CYHM;2007-07-09 13:00;CYHM 091300Z 25014KT 15SM FEW170 BKN220 27/20 A2979 RMK AC2CI3 SLP084

CYHM;2007-07-09 14:00;CYHM 091400Z 25018KT 15SM FEW030 FEW220 28/21 A2981 RMK CU1CI1 CU TR SLP089

CYHM;2007-07-09 15:00;CYHM 091500Z 25016KT 15SM FEW030 FEW240 29/21 A2982 RMK CU1CI1 SLP092

CYHM;2007-07-09 16:00;CYHM 091600Z 25014KT 15SM FEW035 FEW220 30/22 A2982 RMK CU1CI1 SLP094

CYHM;2007-07-09 17:00;CYHM 091700Z 25015G20KT 15SM FEW034 FEW240 31/22 A2982 RMK CU1CI0 CI TR SLP094

CYHM;2007-07-09 18:00;CYHM 091800Z 25014KT 15SM FEW042 SCT240 32/22 A2983 RMK CU2CI0 CI TR SLP094

CYHM;2007-07-09 19:00;CYHM 091900Z 27012KT 15SM BKN040 BKN062 32/22 A2981 RMK CU5SC1 TCU ASOCTD SLP090

CYHM;2007-07-09 19:45;CYHM 091945Z 25007KT 15SM TS SCT042 BKN060 BKN180 RMK CU4SC2AC1 CB ASOCTD

CYHM;2007-07-09 19:55;CYHM 091955Z 25008KT 15SM -TSRA SCT042CB BKN064 BKN075 RMK CB4SC2AC2

CYHM;2007-07-09 20:00;CYHM 092000Z 25024KT 5SM -TSRA BKN034CB BKN040 OVC078 29/21 A2984 RMK CB5SC2AC1 LTNG SLP099

CYHM;2007-07-09 20:03;CYHM 092003Z 24015G25KT 2SM TSRA BKN014CB OVC034 RMK CB6SC2

CYHM;2007-07-09 20:10;CYHM 092010Z 23012G25KT 7SM -TSRA SCT019CB BKN035 BKN085 BKN240 RMK CB3SC2AC2CI1

CYHM;2007-07-09 20:27;CYHM 092027Z 22008KT 10SM FEW034 SCT060 BKN150 RMK CU2SC2AC3

CYHM;2007-07-09 21:00;CYHM 092100Z 29005KT 10SM FEW035 FEW062 BKN160 BKN240 26/21 A2984 RMK CU2SC1AC3CI1 SLP102

CYHM;2007-07-09 22:00;CYHM 092200Z 24008KT 15SM FEW030 SCT064 BKN140 BKN220 25/21 A2985 RMK CU2SC2AC2CI1 TCU ASOCTD SLP104

CYHM;2007-07-09 22:14;CYHM 092214Z 25008KT 15SM -SHRA FEW030 SCT064 BKN140 BKN220 RMK CU2SC2AC2CI1 TCU ASOCTD

CYHM;2007-07-09 22:33;CYHM 092233Z 25011KT 15SM FEW030 SCT064 BKN110 BKN220 RMK CU2SC2AC2CI0

CYHM;2007-07-09 23:00;CYHM 092300Z 26002KT 15SM FEW030 FEW100 BKN220 26/19 A2984 RMK CU1AC1CI2 SLP103

CYHM;2007-07-10 00:00;CYHM 100000Z 25002KT 15SM FEW030CB FEW100 BKN250 25/19 A2986 RMK CB1AC1CI2 CB NNW SLP109

CYHM;2007-07-10 01:00;CYHM 100100Z 08002KT 15SM FEW110 BKN250 23/19 A2986 RMK AC1CI2 CB TOP DSNT N SLP107

CYHM;2007-07-10 02:00;CYHM 100200Z 20002KT 15SM FEW110 SCT250 22/18 A2988 RMK AC1CI1 SLP114

CYHM;2007-07-10 03:00;CYHM 100300Z 27002KT 15SM FEW250 20/18 A2988 RMK CI1 SLP116

CYHM;2007-07-10 04:00;CYHM 100400Z 00000KT 15SM FEW250 20/18 A2989 RMK CI0 SLP118

CYHM;2007-07-10 05:00;CYHM 100500Z 05002KT 15SM SKC 21/18 A2989 RMK SLP119

CYHM;2007-07-10 06:00;CYHM 100600Z CCA 05005KT 15SM FEW085 21/18 A2990 RMK AC1 SLP120

CYHM;2007-07-10 07:00;CYHM 100700Z 04007KT 280V080 15SM SKC 22/18 A2989 RMK SLP117

CYHM;2007-07-10 08:00;CYHM 100800Z 05006KT 15SM FEW080 20/18 A2988 RMK AC1 SLP115

CYHM;2007-07-10 09:00;CYHM 100900Z 06007KT 15SM FEW120 20/17 A2989 RMK AC1 SLP119

CYHM;2007-07-10 10:00;CYHM 101000Z 06005KT 15SM FEW040 FEW150 SCT250 20/17 A2990 RMK SC1AC2CI0 SLP122

CYHM;2007-07-10 11:00;CYHM 101100Z 05004KT 3SM BR FEW045 FEW140 BKN240 20/18 A2991 RMK SC1AC2CI2 SLP126

CYHM;2007-07-10 12:00;CYHM 101200Z 11002KT 4SM HZ FEW140 BKN220 22/19 A2991 RMK AC1CI4 AC TR SLP126

CYHM;2007-07-10 13:00;CYHM 101300Z 22006KT 5SM HZ SCT240 23/20 A2991 RMK CI2 SLP125

CYHM;2007-07-10 14:00;CYHM 101400Z 26006KT 8SM FEW160 SCT240 26/21 A2991 RMK AC1CI2 SLP124

CYHM;2007-07-10 15:00;CYHM 101500Z 20008KT 10SM BKN220 28/21 A2990 RMK CI4 SLP120

CYHM;2007-07-10 16:00;CYHM 101600Z 20012KT 8SM FEW038 SCT220 30/21 A2988 RMK CU2CI2 SLP115

CYHM;2007-07-10 17:00;CYHM 101700Z 23014KT 10SM FEW040 SCT210 31/20 A2986 RMK CU2CI1 SLP109

CYHM;2007-07-10 18:00;CYHM 101800Z 22015G20KT 10SM SCT042 BKN220 31/20 A2984 RMK CU4CI0 TCU ASOCTD CI TR SLP101

CYHM;2007-07-10 19:00;CYHM 101900Z 20019KT 10SM SCT045 BKN220 31/20 A2982 RMK CU4CI0 TCU ASOCTD CI TR SLP094

CYHM;2007-07-10 20:00;CYHM 102000Z CCA 21019KT 10SM SCT050 BKN210 32/19 A2981 RMK CU3CI1 TCU ASOCTD SLP090

CYHM;2007-07-10 21:00;CYHM 102100Z 20020KT 10SM FEW050 FEW140 BKN210 32/18 A2976 RMK CU1AC2CI2 SLP073

CYHM;2007-07-10 22:00;CYHM 102200Z 22018KT 10SM FEW050 FEW140 BKN210 32/17 A2976 RMK CU1AC2CI2 SLP074

CYHM;2007-07-10 23:00;CYHM 102300Z 21014KT 10SM FEW050 BKN210 31/18 A2975 RMK CU1CI2 SLP071

CYHM;2007-07-11 00:00;CYHM 110000Z 19009KT 12SM FEW150 BKN250 29/18 A2976 RMK AC2CI1 SLP073

CYHM;2007-07-11 01:00;CYHM 110100Z 21010KT 12SM FEW150 BKN250 27/17 A2977 RMK AC1CI1 SLP078

CYHM;2007-07-11 02:00;CYHM 110200Z 20010KT 15SM FEW150 SCT250 25/17 A2977 RMK AC1CI1 SLP076

CYHM;2007-07-11 03:00;CYHM 110300Z 22009KT 15SM SCT260 24/16 A2975 RMK CI2 SLP071

CYHM;2007-07-11 04:00;CYHM 110400Z 22007KT 15SM SCT260 23/16 A2975 RMK CI2 SLP068

CYHM;2007-07-11 05:00;CYHM 110500Z 00000KT 15SM BKN260 23/16 A2973 RMK CI5 SLP063

CYHM;2007-07-11 06:00;CYHM 110600Z 20009KT 15SM FEW260 23/18 A2970 RMK CI1 SLP052

CYHM;2007-07-11 07:00;CYHM 110700Z 21010KT 15SM FEW260 23/18 A2969 RMK CI1 SLP048

CYHM;2007-07-11 08:00;CYHM 110800Z 21012KT 15SM FEW052 23/19 A2968 RMK SC1 SLP044

CYHM;2007-07-11 09:00;CYHM 110900Z 21013KT 15SM FEW052 BKN130 23/19 A2967 RMK SC1AC5 SLP041

CYHM;2007-07-11 10:00;CYHM 111000Z 22013KT 15SM BKN016 BKN100 23/20 A2967 RMK SC6AC1 SLP043

CYHM;2007-07-11 11:00;CYHM 111100Z 22013KT 15SM BKN017 BKN022 23/20 A2967 RMK SC6SC2 SLP043

CYHM;2007-07-11 12:00;CYHM 111200Z 23012KT 15SM SCT021 BKN042 BKN110 24/20 A2968 RMK SC3SC2AC2 SLP044

CYHM;2007-07-11 13:00;CYHM 111300Z 26012KT 15SM BKN018 OVC029 24/19 A2969 RMK SC6SC2 SLP049

CYHM;2007-07-11 14:00;CYHM 111400Z 28005KT 10SM SCT035 BKN088 BKN110 21/15 A2971 RMK SC4AC2AC1 SLP055

CYHM;2007-07-11 15:00;CYHM 111500Z 28011KT 15SM FEW026 SCT042 BKN110 BKN210 23/15 A2971 RMK CU1SC3AC2CI1 SLP057

CYHM;2007-07-11 16:00;CYHM 111600Z 27015G21KT 15SM FEW040 FEW055 BKN110 BKN210 24/14 A2972 RMK CU2SC1AC2CI2 SLP060

CYHM;2007-07-11 17:00;CYHM 111700Z 27018KT 15SM FEW041 SCT180 BKN210 24/13 A2973 RMK CU2AC2CI2 SC ASOCTD SLP064

CYHM;2007-07-11 18:00;CYHM 111800Z 28017G24KT 15SM SCT040 BKN180 BKN220 24/13 A2975 RMK CU3AC2CI1 SLP069

CYHM;2007-07-11 19:00;CYHM 111900Z 27016KT 15SM SCT040 BKN052 BKN180 BKN220 23/11 A2977 RMK CU3SC2AC1CI1 SLP077

CYHM;2007-07-11 20:00;CYHM 112000Z 30018KT 15SM FEW042 BKN049 BKN220 22/11 A2979 RMK CU2SC3CI0 CI TR SLP084

CYHM;2007-07-11 21:00;CYHM 112100Z 27016G26KT 15SM FEW046 BKN052 23/10 A2980 RMK CU2SC2 SLP088

CYHM;2007-07-11 22:00;CYHM 112200Z 28018KT 15SM FEW038 SCT046 SCT220 22/11 A2982 RMK CU2SC1CI0 CI TR SLP094

CYHM;2007-07-11 23:00;CYHM 112300Z 29014KT 15SM FEW045 21/10 A2984 RMK CU2 SLP101

CYHM;2007-07-12 00:00;CYHM 120000Z 29014G19KT 15SM FEW045 FEW180 20/08 A2987 RMK CU1AC1 CU TR CI TR SLP111

CYHM;2007-07-12 01:00;CYHM 120100Z 00000KT 15SM FEW043 FEW250 16/07 A2988 RMK CU1CI1 TR CU SLP117

CYHM;2007-07-12 02:00;CYHM 120200Z 00000KT 15SM FEW220 15/07 A2990 RMK CI1 SLP122

CYHM;2007-07-12 03:00;CYHM 120300Z 00000KT 15SM FEW220 14/08 A2991 RMK CI1 SLP126

CYHM;2007-07-12 04:00;CYHM 120400Z 00000KT 15SM SKC 13/08 A2991 RMK SLP129

CYHM;2007-07-12 05:00;CYHM 120500Z 00000KT 15SM SKC 13/08 A2991 RMK SLP126

CYHM;2007-07-12 06:00;CYHM 120600Z 00000KT 15SM FEW210 13/08 A2991 RMK CI1 SLP126

CYHM;2007-07-12 07:00;CYHM 120700Z 00000KT 15SM FEW210 12/08 A2990 RMK CI1 SLP123

CYHM;2007-07-12 08:00;CYHM 120800Z 00000KT 15SM FEW220 11/08 A2989 RMK CI1 SLP121

CYHM;2007-07-12 09:00;CYHM 120900Z 00000KT 15SM FEW090 FEW200 11/08 A2990 RMK AC1CI1 TR AC SLP124

CYHM;2007-07-12 10:00;CYHM 121000Z 00000KT 15SM FEW030CB FEW100 FEW220 10/08 A2989 RMK CB1AC1CI1 TR AC SLP122

CYHM;2007-07-12 11:00;CYHM 121100Z 00000KT 15SM FEW025 FEW100 FEW220 12/09 A2988 RMK CU1AC1CI1 SLP119

CYHM;2007-07-12 12:00;CYHM 121200Z 24008KT 15SM FEW025 FEW100 15/11 A2988 RMK CU1AC1 CU TR SLP120

CYHM;2007-07-12 13:00;CYHM 121300Z 24007KT 15SM FEW025 FEW110 19/12 A2987 RMK CU1AC2 SLP116

CYHM;2007-07-12 14:00;CYHM 121400Z 23010KT 15SM FEW025 FEW100 21/10 A2986 RMK CU1AC1 SLP111

CYHM;2007-07-12 15:00;CYHM 121500Z 25012G18KT 15SM FEW030 FEW100 23/11 A2985 RMK CU2AC1 AC TR SLP108

CYHM;2007-07-12 16:00;CYHM 121600Z 25014G21KT 15SM SCT045 SCT078 24/10 A2984 RMK CU3AC1 SLP105

CYHM;2007-07-12 17:00;CYHM 121700Z 26016G24KT 15SM SCT056 BKN080 25/10 A2984 RMK CU4AC1 SLP104

CYHM;2007-07-12 18:00;CYHM 121800Z 26018G26KT 190V310 15SM BKN063 25/09 A2983 RMK CU5 SLP101

CYHM;2007-07-12 19:00;CYHM 121900Z 27014G26KT 230V310 15SM FEW065 SCT072 25/08 A2983 RMK CU2AC1 SLP101

CYHM;2007-07-12 20:00;CYHM 122000Z 25013G19KT 15SM BKN068 BKN080 BKN250 25/09 A2983 RMK AC5AC1CI0 SLP101

CYHM;2007-07-12 21:00;CYHM 122100Z 26012KT 220V300 15SM BKN065 BKN110 25/09 A2983 RMK SC6AC1 CU ASOCTD SLP101

CYHM;2007-07-12 22:00;CYHM 122200Z CCA 26013KT 15SM SCT059 BKN110 24/10 A2982 RMK CU4AC1 TCU ASOCTD VIRGA SLP098

CYHM;2007-07-12 22:54;CYHM 122254Z 21012KT 15SM TS VCSH SCT055 BKN067 BKN110 RMK CU3AC2AC2 CB EMBDD

CYHM;2007-07-12 23:00;CYHM 122300Z 21012KT 15SM -TSRA SCT055 BKN067 BKN110 22/11 A2982 RMK CU4AC2AC1 CB EMBDD SLP098

CYHM;2007-07-12 23:06;CYHM 122306Z 23030G37KT 1SM +TSRA BKN054CB OVC067 RMK RA2CB5AC2

CYHM;2007-07-12 23:09;CYHM 122309Z 23012G37KT 10SM TSRA BKN054CB OVC067 RERA RMK CB6AC2 VIS NE 3

CYHM;2007-07-12 23:51;CYHM 122351Z 25004KT 15SM -SHRA SCT055 BKN084 RETSRA RMK CU4AC3 CB TOP S

CYHM;2007-07-13 00:00;CYHM 130000Z 24004KT 15SM -SHRA SCT055 BKN084 BKN110 16/14 A2985 RETSRA RMK CU3AC3AC1 CB TOP S SLP108

CYHM;2007-07-13 01:00;CYHM 130100Z 20002KT 15SM FEW055 BKN087 BKN110 17/14 A2984 RMK CU1AC5AC2 VIRGA SLP105

CYHM;2007-07-13 02:00;CYHM 130200Z 26002KT 15SM FEW086 FEW120 SCT240 15/14 A2985 RMK AC1AC1CI1 SLP110

CYHM;2007-07-13 03:00;CYHM 130300Z 00000KT 15SM FEW090 BKN250 15/13 A2986 RMK AC1CI4 SLP110

CYHM;2007-07-13 04:00;CYHM 130400Z 00000KT 15SM FEW070 FEW100 BKN250 16/14 A2986 RMK AC1AC2CI2 SLP110

CYHM;2007-07-13 05:00;CYHM 130500Z 00000KT 15SM FEW100 SCT250 15/13 A2985 RMK AC1CI2 SLP109

CYHM;2007-07-13 06:00;CYHM 130600Z 00000KT 15SM BKN065 14/13 A2986 RMK SC6 SLP109

CYHM;2007-07-13 07:00;CYHM 130700Z 28007KT 15SM FEW070 SCT250 14/12 A2987 RMK AC2CI2 SLP112

CYHM;2007-07-13 08:00;CYHM 130800Z 26005KT 15SM BKN110 14/12 A2987 RMK AC6 SLP113

CYHM;2007-07-13 09:00;CYHM 130900Z 26004KT 15SM FEW090 14/12 A2988 RMK AC2 SLP118

CYHM;2007-07-13 10:00;CYHM 131000Z 00000KT 15SM FEW040 FEW250 12/11 A2990 RMK SC1CI1 SLP124

CYHM;2007-07-13 11:00;CYHM 131100Z 25006KT 15SM FEW040 FEW240 13/12 A2991 RMK SC1CI1 SLP128

CYHM;2007-07-13 12:00;CYHM 131200Z 27008KT 15SM FEW040 FEW110 FEW240 15/12 A2993 RMK SC1AC1CI1 SLP136

CYHM;2007-07-13 13:00;CYHM 131300Z 27008KT 15SM FEW018 SCT180 SCT240 17/13 A2993 RMK CU2AC1CI0 SLP137

CYHM;2007-07-13 14:00;CYHM 131400Z 27011KT 15SM SCT024 BKN038 17/12 A2992 RMK CU4SC2 SLP133

CYHM;2007-07-13 15:00;CYHM 131500Z 27011KT 15SM BKN031 BKN044 19/12 A2995 RMK CU5SC2 SLP143

CYHM;2007-07-13 16:00;CYHM 131600Z 29011KT 15SM FEW038 SCT055 SCT240 20/11 A2996 RMK CU2SC1CI0 SLP144

CYHM;2007-07-13 17:00;CYHM 131700Z 25011KT 15SM SCT042 SCT058 BKN070 20/11 A2996 RMK CU3SC1AC2 SLP144

CYHM;2007-07-13 18:00;CYHM 131800Z 27010KT 15SM FEW042 BKN060 BKN072 22/11 A2996 RMK CU2SC2AC1 SLP144

CYHM;2007-07-13 19:00;CYHM 131900Z 26011G17KT 220V300 15SM SCT040 BKN060 BKN085 21/11 A2995 RMK CU4SC2AC1 SLP143

CYHM;2007-07-13 20:00;CYHM 132000Z 28011KT 250V320 15SM SCT042 BKN060 BKN080 22/10 A2994 RMK CU4SC1AC1 SLP140

CYHM;2007-07-13 21:00;CYHM 132100Z 29010KT 260V320 15SM SCT045 SCT060 BKN078 23/10 A2994 RMK CU3SC1AC2 SLP137

CYHM;2007-07-13 22:00;CYHM 132200Z 26011KT 15SM SCT045 SCT060 BKN078 22/10 A2993 RMK CU3SC1AC1 SLP136

CYHM;2007-07-13 23:00;CYHM 132300Z 27010KT 15SM FEW045 SCT075 21/10 A2993 RMK CU2AC1 SLP134

CYHM;2007-07-14 00:00;CYHM 140000Z 28005KT 15SM FEW045 FEW075 FEW200 20/09 A2993 RMK CU2AC1CI1 AC TR CI TR SLP135

CYHM;2007-07-14 01:00;CYHM 140100Z 29004KT 15SM FEW045 FEW070 FEW220 18/09 A2994 RMK CU1AC1CI1 CU TR SLP140

CYHM;2007-07-14 02:00;CYHM 140200Z 30002KT 15SM FEW045 FEW070 FEW250 15/09 A2996 RMK CU1AC1CI1 CU TR AC TR SLP145

CYHM;2007-07-14 03:00;CYHM 140300Z 00000KT 15SM FEW220 14/09 A2997 RMK CI2 SLP150

CYHM;2007-07-14 04:00;CYHM 140400Z 00000KT 15SM FEW210 13/09 A2997 RMK CI2 SLP151

CYHM;2007-07-14 05:00;CYHM 140500Z 00000KT 15SM FEW210 12/09 A2997 RMK CI2 SLP148

CYHM;2007-07-14 06:00;CYHM 140600Z 00000KT 15SM FEW200 11/08 A2996 RMK CI1 SLP145

CYHM;2007-07-14 07:00;CYHM 140700Z 00000KT 15SM FEW220 11/08 A2994 RMK CI2 SLP140

CYHM;2007-07-14 08:00;CYHM 140800Z 00000KT 15SM FEW210 10/08 A2993 RMK CI1 SLP137

CYHM;2007-07-14 09:00;CYHM 140900Z 00000KT 15SM FEW170 BKN210 10/08 A2993 RMK AC2CI3 SLP134

CYHM;2007-07-14 10:00;CYHM 141000Z 00000KT 15SM SCT062 BKN200 11/09 A2992 RMK SC3CI2 CONTRAILS SLP131

CYHM;2007-07-14 11:00;CYHM 141100Z 15005KT 15SM FEW062 SCT160 BKN230 13/10 A2991 RMK SC1AC2CI4 SLP128

CYHM;2007-07-14 12:00;CYHM 141200Z 14007KT 15SM BKN130 OVC230 16/10 A2990 RMK AC6CI1 SLP123

CYHM;2007-07-14 13:00;CYHM 141300Z 16005KT 15SM SCT060 BKN130 OVC230 17/12 A2988 RMK SC4AC3CI1 SLP118

CYHM;2007-07-14 14:00;CYHM 141400Z 18015KT 15SM FEW040 SCT078 BKN140 BKN250 21/12 A2985 RMK CU1AC3AC3CI1 CU TR SLP107

CYHM;2007-07-14 15:00;CYHM 141500Z 20016KT 150V230 15SM FEW062 BKN130 BKN250 22/14 A2983 RMK SC2AC3CI2 SLP101

CYHM;2007-07-14 16:00;CYHM 141600Z 20019KT 15SM BKN042 OVC120 22/14 A2981 RMK SC5AC3 SLP094

CYHM;2007-07-14 17:00;CYHM 141700Z 21018G26KT 15SM SCT048 BKN110 23/12 A2978 RMK SC3AC4 SLP084

CYHM;2007-07-14 18:00;CYHM 141800Z 22022KT 15SM SCT048 OVC094 22/12 A2977 RMK SC3AC5 SLP082

CYHM;2007-07-14 18:03;CYHM 141803Z 22018KT 12SM -SHRA BKN048 OVC092 RMK CU5AC3

CYHM;2007-07-14 19:00;CYHM 141900Z 22017KT 9SM -SHRA SCT035 BKN055 OVC070 18/14 A2978 RMK SC3SC2AC2 TCU EMBD SLP086

CYHM;2007-07-14 19:24;CYHM 141924Z 23015KT 2 1/2SM -RA HZ BKN037 OVC055 RMK HZ1SC5SC2 TCU EMBD

CYHM;2007-07-14 20:00;CYHM 142000Z 22011KT 3SM -SHRA BR BKN038 OVC062 17/15 A2978 RMK SC5SC3 SLP085

CYHM;2007-07-14 21:00;CYHM 142100Z 20007KT 4SM -SHRA BR BKN042 OVC066 17/15 A2974 RMK SC5AC3 SLP071

CYHM;2007-07-14 22:00;CYHM 142200Z 17009KT 6SM HZ FEW040 OVC064 18/16 A2971 RMK SC2SC5 SLP064

CYHM;2007-07-14 23:00;CYHM 142300Z 19007KT 8SM FEW040 OVC061 19/16 A2971 RMK SC2SC6 HZ SLP061

CYHM;2007-07-14 23:25;CYHM 142325Z 19010KT 9SM -SHRA FEW045 BKN066 RMK SC2AC5 HZ PCPN VRY LGT

CYHM;2007-07-15 00:00;CYHM 150000Z 20012KT 12SM FEW045 BKN064 19/16 A2970 RMK SC2SC4 SLP058

CYHM;2007-07-15 01:00;CYHM 150100Z 20007KT 10SM -SHRA SCT062TCU BKN091 19/15 A2969 RMK TCU4AC2 SLP054

CYHM;2007-07-15 02:00;CYHM 150200Z 19010KT 12SM -SHRA BKN085 BKN110 18/15 A2971 RMK AC6AC1 SLP059

CYHM;2007-07-15 02:33;CYHM 150233Z 20010KT 15SM SCT092 RMK AC4

CYHM;2007-07-15 03:00;CYHM 150300Z 20007KT 15SM FEW095 17/15 A2971 RMK AC2 SLP060

CYHM;2007-07-15 04:00;CYHM 150400Z 00000KT 15SM FEW050 BKN095 17/15 A2971 RMK SC2AC2 SLP061

CYHM;2007-07-15 05:00;CYHM 150500Z 00000KT 15SM FEW047 BKN260 16/14 A2973 RMK SC2CI3 SLP065

CYHM;2007-07-15 06:00;CYHM 150600Z 00000KT 15SM SCT053 BKN250 15/14 A2973 RMK SC4CI1 SLP065

CYHM;2007-07-15 07:00;CYHM 150700Z 26005KT 15SM FEW045 FEW220 16/13 A2973 RMK SC2CI1 SLP065

CYHM;2007-07-15 08:00;CYHM 150800Z 00000KT 15SM FEW220 14/12 A2973 RMK CI1 SLP066

CYHM;2007-07-15 09:00;CYHM 150900Z 27005KT 15SM FEW035 FEW210 14/12 A2975 RMK CU1CI1 TR CU SLP075

CYHM;2007-07-15 10:00;CYHM 151000Z 00000KT 15SM FEW035 FEW180 13/11 A2977 RMK SC1AC1 SLP080

CYHM;2007-07-15 11:00;CYHM 151100Z 23002KT 15SM FEW040 FEW180 FEW240 13/12 A2978 RMK SC1AC1CI0 SC AC TR SLP086

CYHM;2007-07-15 12:00;CYHM 151200Z 25006KT 15SM FEW040 FEW250 15/13 A2980 RMK SC1CI1 SLP092

CYHM;2007-07-15 13:00;CYHM 151300Z 27007KT 230V330 15SM BKN016 17/13 A2982 RMK CU5 SLP098

CYHM;2007-07-15 14:00;CYHM 151400Z 29012KT 15SM BKN024 18/12 A2984 RMK SC6 SLP105

CYHM;2007-07-15 15:00;CYHM 151500Z 28006KT 240V320 15SM BKN026 19/12 A2986 RMK SC6 SLP110

CYHM;2007-07-15 16:00;CYHM 151600Z 25007KT 210V310 15SM BKN032 21/12 A2986 RMK SC6 SLP112

CYHM;2007-07-15 17:00;CYHM 151700Z 28009KT 200V320 15SM BKN034 22/13 A2988 RMK SC6 SLP116

CYHM;2007-07-15 18:00;CYHM 151800Z 25008KT 210V300 15SM SCT041 SCT250 22/12 A2988 RMK SC4CI1 CI TR SLP116

CYHM;2007-07-15 19:00;CYHM 151900Z 26008KT 220V290 15SM BKN045 BKN200 23/13 A2987 RMK CU6CI1 CI TR SLP113

CYHM;2007-07-15 20:00;CYHM 152000Z 26010KT 15SM SCT045 BKN060 24/12 A2986 RMK CU4SC1 SLP110

CYHM;2007-07-15 21:00;CYHM 152100Z 25010KT 210V290 15SM SCT047 BKN080 24/11 A2986 RMK CU4AC1 SLP112

CYHM;2007-07-15 22:00;CYHM 152200Z 28011KT 250V320 15SM SCT048 BKN080 BKN220 24/12 A2987 RMK CU3AC2CI1 CI TR SLP114

CYHM;2007-07-15 23:00;CYHM 152300Z 27010KT 240V300 15SM FEW048 SCT080 BKN220 23/11 A2988 RMK CU2AC1CI1 TCU ASOCTD NE SLP118

CYHM;2007-07-16 00:00;CYHM 160000Z 29006KT 15SM FEW048 FEW120 FEW220 22/11 A2989 RMK CU2AC1CI1 TCU ASOCTD NE CI TR SLP121

CYHM;2007-07-16 01:00;CYHM 160100Z 27002KT 15SM FEW045 FEW100 FEW220 19/10 A2989 RMK CU1AC1CI1 CU TR SLP122

CYHM;2007-07-16 02:00;CYHM 160200Z 29002KT 15SM FEW100 FEW220 18/11 A2992 RMK AC1CI1 SLP130

CYHM;2007-07-16 03:00;CYHM 160300Z 00000KT 15SM FEW220 17/11 A2993 RMK CI1 SLP136

CYHM;2007-07-16 04:00;CYHM 160400Z 00000KT 15SM FEW230 15/12 A2993 RMK CI1 SLP136

CYHM;2007-07-16 05:00;CYHM 160500Z 00000KT 15SM BKN240 14/12 A2994 RMK CI4 SLP138

CYHM;2007-07-16 06:00;CYHM 160600Z 00000KT 15SM SCT230 15/12 A2993 RMK CI3 SLP135

CYHM;2007-07-16 07:00;CYHM 160700Z 00000KT 15SM SCT110 BKN210 15/13 A2993 RMK AC4CI2 SLP133

CYHM;2007-07-16 08:00;CYHM 160800Z 00000KT 15SM BKN090 OVC200 14/13 A2994 RMK AC6CI2 SLP136

CYHM;2007-07-16 09:00;CYHM 160900Z 00000KT 15SM BKN081 15/13 A2995 RMK AC6 SLP142

CYHM;2007-07-16 10:00;CYHM 161000Z 00000KT 15SM FEW075 BKN095 BKN170 14/13 A2997 RMK AC2AC3AC2 SLP147

CYHM;2007-07-16 11:00;CYHM 161100Z 00000KT 15SM SCT085 BKN160 16/14 A2997 RMK AC4AC3 SLP148

CYHM;2007-07-16 12:00;CYHM 161200Z 00000KT 15SM FEW052 BKN095 BKN170 17/14 A2999 RMK SC2AC3AC2 SLP153

CYHM;2007-07-16 13:00;CYHM 161300Z 00000KT 15SM FEW020 BKN056 BKN074 BKN160 19/15 A2999 RMK CU1SC4AC2AC1 SLP154

CYHM;2007-07-16 14:00;CYHM 161400Z 22002KT 15SM FEW025 BKN034 BKN062 BKN150 21/15 A2999 RMK CU2SC2SC2AC1 SLP154

CYHM;2007-07-16 15:00;CYHM 161500Z 25003KT 15SM FEW025 SCT058 BKN085 BKN220 22/15 A2999 RMK CU2SC2AC2CI1 SLP155

CYHM;2007-07-16 16:00;CYHM 161600Z 25007KT 15SM SCT028 SCT036 BKN110 BKN220 24/16 A3000 RMK CU3SC1AC2CI1 SLP156

CYHM;2007-07-16 17:00;CYHM 161700Z 35008KT 15SM SCT039 SCT045 BKN120 24/15 A2999 RMK CU3SC1AC2 TCU ASOCTD SLP154

CYHM;2007-07-16 18:00;CYHM 161800Z 34008KT 15SM SCT035 SCT055 BKN100 25/14 A2999 RMK CU3SC1AC2 SLP154

CYHM;2007-07-16 19:00;CYHM 161900Z 31004KT 15SM FEW064 FEW190 BKN250 26/12 A2997 RMK CU2AC1CS2 TCU ASOCTD SLP148

CYHM;2007-07-16 20:00;CYHM 162000Z 02004KT 15SM FEW062TCU BKN250 24/14 A2998 RMK TCU1CS3 CU ASOCTD CONTRAILS SLP152

CYHM;2007-07-16 21:00;CYHM 162100Z 26004KT 15SM FEW044 SCT070 BKN250 25/11 A2998 RMK CU1AC3CS2 TCU ASOCTD SLP151

CYHM;2007-07-16 22:00;CYHM 162200Z 28005KT 15SM FEW048 FEW190 BKN250 25/10 A2998 RMK CU1AC1CI3 AC TR SLP151

CYHM;2007-07-16 23:00;CYHM 162300Z 28004KT 15SM FEW048 FEW190 FEW250 25/11 A2998 RMK CU1AC1CI1 AC TR CI TR SLP150

CYHM;2007-07-17 00:00;CYHM 170000Z 27002KT 15SM FEW052 FEW090 24/11 A3000 RMK CU1AC1 CU TR SLP156

CYHM;2007-07-17 01:00;CYHM 170100Z 22007KT 15SM BKN070 BKN120 21/12 A3001 RMK AC5AC1 2ND LYR TR SLP160

CYHM;2007-07-17 02:00;CYHM 170200Z 00000KT 15SM FEW082 20/11 A3002 RMK AC2 SLP165

CYHM;2007-07-17 03:00;CYHM 170300Z 00000KT 15SM BKN110 19/11 A3002 RMK AC6 SLP165

CYHM;2007-07-17 04:00;CYHM 170400Z 00000KT 15SM SCT110 18/11 A3002 RMK AC3 SLP165

CYHM;2007-07-17 05:00;CYHM 170500Z 00000KT 15SM BKN110 18/11 A3003 RMK AC7 SLP166

CYHM;2007-07-17 06:00;CYHM 170600Z 00000KT 15SM FEW110 16/12 A3002 RMK AC2 SLP165

CYHM;2007-07-17 07:00;CYHM 170700Z 00000KT 15SM FEW100 14/11 A3002 RMK AC1 SLP165

CYHM;2007-07-17 08:00;CYHM 170800Z 00000KT 15SM SCT098 15/13 A3001 RMK AC3 SLP162

CYHM;2007-07-17 09:00;CYHM 170900Z 00000KT 15SM SCT094 15/13 A3002 RMK AC3 SLP163

CYHM;2007-07-17 10:00;CYHM 171000Z 00000KT 15SM FEW094 BKN250 14/13 A3002 RMK AC2CI1 SLP165

CYHM;2007-07-17 11:00;CYHM 171100Z 00000KT 15SM FEW090 BKN240 16/14 A3002 RMK AC1CI2 SLP164

CYHM;2007-07-17 12:00;CYHM 171200Z 29003KT 15SM FEW055 BKN130 BKN240 19/15 A3003 RMK SC1AC4CI2 SLP168

CYHM;2007-07-17 13:00;CYHM 171300Z 28003KT 15SM FEW085 BKN140 BKN240 21/15 A3004 RMK AC2AC3CI1 SLP169

CYHM;2007-07-17 14:00;CYHM 171400Z 24002KT 15SM BKN130 BKN240 21/15 A3004 RMK AC6CI1 SLP169

CYHM;2007-07-17 15:00;CYHM 171500Z 26002KT 15SM FEW090 SCT160 BKN240 23/16 A3004 RMK AC2AC2CI1 CU TR SLP171

CYHM;2007-07-17 16:00;CYHM 171600Z 22005KT 15SM FEW025 SCT098 BKN120 BKN240 23/15 A3004 RMK CU1AC3AC2CI1 SLP170

CYHM;2007-07-17 17:00;CYHM 171700Z 19005KT 15SM FEW025 FEW058 BKN120 BKN220 23/15 A3004 RMK CU1SC2AC4CI1 CU TR SLP169

CYHM;2007-07-17 18:00;CYHM 171800Z 25006KT 15SM FEW064 BKN098 BKN120 25/15 A3002 RMK SC2AC4AC2 CU ASOCTD SLP165

CYHM;2007-07-17 19:00;CYHM 171900Z 20007KT 15SM BKN070 OVC220 24/15 A3002 RMK AC7CI1 SLP163

CYHM;2007-07-17 20:00;CYHM 172000Z 20006KT 15SM BKN070 BKN110 OVC220 23/14 A3001 RMK AC6AC2CS1 SLP160

CYHM;2007-07-17 21:00;CYHM 172100Z 21007KT 15SM BKN078 OVC120 22/15 A2999 RMK AC6AC2 SLP156

CYHM;2007-07-17 22:00;CYHM 172200Z 22005KT 15SM SCT080 BKN110 OVC220 22/15 A2997 RMK AC3AC3CS2 SLP150

CYHM;2007-07-17 23:00;CYHM 172300Z 22006KT 15SM FEW070 BKN090 OVC120 21/15 A2997 RMK AC1AC6AC2 SLP147

CYHM;2007-07-18 00:00;CYHM 180000Z 20007KT 15SM FEW062 BKN070 OVC100 20/15 A2998 RMK SC2AC4AC2 SLP150

CYHM;2007-07-18 01:00;CYHM 180100Z 20004KT 15SM FEW054 SCT100 BKN120 BKN250 19/15 A2997 RMK SC2AC1AC4CI1 CI TR SLP149

CYHM;2007-07-18 02:00;CYHM 180200Z 20005KT 15SM FEW064 BKN120 18/15 A2999 RMK SC2AC6 SLP153

CYHM;2007-07-18 03:00;CYHM 180300Z 20004KT 15SM BKN130 18/16 A2998 RMK AC7 SLP152

CYHM;2007-07-18 04:00;CYHM 180400Z 20003KT 15SM FEW130 17/15 A2997 RMK AC2 SLP147

CYHM;2007-07-18 05:00;CYHM 180500Z 26003KT 15SM FEW065 SCT130 17/15 A2998 RMK SC2AC1 SLP151

CYHM;2007-07-18 06:00;CYHM 180600Z 29002KT 15SM FEW054 FEW064 SCT250 16/15 A2996 RMK SC2SC1CI1 SLP143

CYHM;2007-07-18 07:00;CYHM 180700Z 00000KT 15SM BKN040 17/15 A2995 RMK SC7 SLP140

CYHM;2007-07-18 08:00;CYHM 180800Z 30002KT 15SM BKN040 OVC052 17/16 A2994 RMK SC6SC2 SLP138

CYHM;2007-07-18 09:00;CYHM 180900Z 00000KT 15SM FEW016 BKN027 OVC052 17/16 A2995 RMK SC2SC4SC2 SLP140

CYHM;2007-07-18 10:00;CYHM 181000Z 00000KT 6SM BR FEW024 OVC046 17/16 A2996 RMK SC2SC6 SLP143

CYHM;2007-07-18 11:00;CYHM 181100Z 21002KT 6SM BR SCT035 BKN049 17/16 A2996 RMK SC3SC4 SLP143

CYHM;2007-07-18 12:00;CYHM 181200Z 29005KT 6SM HZ BKN048 BKN110 19/17 A2996 RMK SC5AC1 SLP143

CYHM;2007-07-18 13:00;CYHM 181300Z 33004KT 10SM FEW025 FEW140 FEW220 21/17 A2995 RMK CU1AC1CI0 SLP140

CYHM;2007-07-18 14:00;CYHM 181400Z 25004KT 12SM FEW018 SCT021 BKN042 BKN100 22/17 A2996 RMK CU2SC2SC1AC2 SLP144

CYHM;2007-07-18 15:00;CYHM 181500Z 23006KT 15SM FEW024 BKN036 BKN055 BKN220 24/17 A2996 RMK CU2SC2SC1CI1 SLP143

CYHM;2007-07-18 16:00;CYHM 181600Z 24007KT 15SM SCT023 BKN042 BKN220 24/17 A2995 RMK CU3SC2CI1 SLP140

CYHM;2007-07-18 17:00;CYHM 181700Z 30006KT 15SM SCT034 BKN042 BKN100 25/17 A2993 RMK CU4SC2AC1 SLP134

CYHM;2007-07-18 18:00;CYHM 181800Z 23006KT 15SM SCT032 BKN044 BKN100 26/17 A2991 RMK CU4SC2AC1 SLP128

CYHM;2007-07-18 19:00;CYHM 181900Z 20007KT 12SM BKN030 25/18 A2990 RMK SC7 TCU EMBDD SLP124

CYHM;2007-07-18 20:00;CYHM 182000Z 18008KT 12SM SCT030 BKN130 26/18 A2989 RMK SC3AC4 TCU EMBDD SLP121

CYHM;2007-07-18 21:00;CYHM 182100Z 20009KT 15SM FEW028 BKN042 BKN110 25/18 A2988 RMK SC2SC4AC2 TCU EMBDD SLP116

CYHM;2007-07-18 22:00;CYHM 182200Z 19012KT 12SM FEW034 BKN120 25/17 A2986 RMK SC1AC5 TCU ASOCTD SLP110

CYHM;2007-07-18 23:00;CYHM 182300Z 22012KT 15SM FEW032 SCT120 BKN250 25/18 A2986 RMK SC1AC3CI1 SLP109

CYHM;2007-07-19 00:00;CYHM 190000Z 23006KT 15SM FEW032TCU FEW100 BKN120 BKN250 24/18 A2985 RMK TCU1AC2AC4CI1 TCU TR CI TR SLP105

CYHM;2007-07-19 01:00;CYHM 190100Z 22003KT 12SM FEW034TCU FEW110 SCT250 22/18 A2984 RMK TCU1AC2CI2 TCU TR SLP104

CYHM;2007-07-19 02:00;CYHM 190200Z 00000KT 15SM FEW038 FEW100 FEW250 21/17 A2984 RMK SC1AC1CI1 SC TR SLP104

CYHM;2007-07-19 03:00;CYHM 190300Z 18002KT 10SM FEW041 SCT140 20/17 A2983 RMK SC2AC2 SLP100

CYHM;2007-07-19 04:00;CYHM 190400Z 00000KT 10SM FEW040 BKN150 19/17 A2982 RMK SC2AC3 SLP095

CYHM;2007-07-19 05:00;CYHM 190500Z 00000KT 12SM FEW035 BKN120 20/17 A2980 RMK SC2AC2 SLP088

CYHM;2007-07-19 06:00;CYHM 190600Z 20003KT 10SM FEW030 BKN130 18/17 A2978 RMK SC2AC3 SLP083

CYHM;2007-07-19 07:00;CYHM 190700Z 21003KT 8SM BKN024 OVC140 19/17 A2977 RMK SC7AC1 SLP079

CYHM;2007-07-19 08:00;CYHM 190800Z CCA 00000KT 7SM FEW008 OVC130 19/17 A2972 RMK CF2AC6 PRESFR SLP062

CYHM;2007-07-19 09:00;CYHM 190900Z 00000KT 6SM BR OVC100 19/18 A2972 RMK AC8 OCNL LTNG SLP061

CYHM;2007-07-19 09:42;CYHM 190942Z 14003KT 2SM -SHRA BR SCT008 OVC030 RMK FG1SF3SC4

CYHM;2007-07-19 10:00;CYHM 191000Z 16006KT 1 1/2SM -SHRA BR FEW007 OVC037 19/18 A2971 RMK FG2SF1SC6 VIS VRB 1 - 2 SLP058

CYHM;2007-07-19 10:49;CYHM 191049Z 20002KT 2SM BR FEW010 BKN032 BKN040 RMK FG1SF1SC4SC2

CYHM;2007-07-19 11:00;CYHM 191100Z 21004KT 2SM -SHRA BR FEW012 BKN034 OVC042 20/18 A2970 RMK FG1SF1SC5SC2 SLP054

CYHM;2007-07-19 11:48;CYHM 191148Z 23002KT 2SM BR FEW006 BKN027 OVC042 RMK FG1SF2SC4SC2

CYHM;2007-07-19 12:00;CYHM 191200Z 32002KT 2 1/2SM BR FEW004 BKN020 OVC042 20/19 A2969 RMK SF2SC5SC2 SLP052

CYHM;2007-07-19 13:00;CYHM 191300Z 27003KT 5SM BR FEW016 BKN027 OVC032 21/19 A2969 RMK CF2SC5SC2 SLP051

CYHM;2007-07-19 14:00;CYHM 191400Z 26006KT 10SM FEW025 SCT035 BKN220 23/19 A2969 RMK CU2SC2CI1 SLP050

CYHM;2007-07-19 15:00;CYHM 191500Z 30006KT 15SM SCT017 BKN022 BKN220 25/19 A2968 RMK CU3SC2CI1 SLP049

CYHM;2007-07-19 16:00;CYHM 191600Z CCD 29009KT 15SM SCT023 BKN220 26/20 A2969 RMK CU4CI2 SLP052

CYHM;2007-07-19 17:00;CYHM 191700Z 31007KT 15SM BKN022 BKN210 27/19 A2968 RMK CU5CI1 SC ASOCIATD SLP049

CYHM;2007-07-19 18:00;CYHM 191800Z 29007KT 15SM SCT047 BKN062 BKN220 27/18 A2967 RMK CU4SC1CI1 SLP043

CYHM;2007-07-19 19:00;CYHM 191900Z 30008KT 250V340 15SM SCT044 BKN180 BKN240 29/17 A2966 RMK CU4AC2CI1 TCU ASOCTD SLP040

CYHM;2007-07-19 19:19;CYHM 191919Z 35017G29KT 12SM -SHRA BKN047 OVC180 RMK CU6AC2

CYHM;2007-07-19 20:00;CYHM 192000Z 02007KT 15SM -SHRA FEW042 BKN061 BKN180 22/19 A2967 RERA RMK CU2SC4AC1 PCPN VRY LGT SLP044

CYHM;2007-07-19 20:26;CYHM 192026Z 04011KT 15SM FEW042 SCT056 BKN077 BKN250 RMK CU2SC2AC2CI2

CYHM;2007-07-19 21:00;CYHM 192100Z 04009KT 15SM FEW040 SCT075 BKN250 23/17 A2965 RMK CU2AC2CI2 SLP039

CYHM;2007-07-19 21:20;CYHM 192120Z 02010KT 15SM -SHRA FEW038 BKN070 OVC250 RMK CU2AC4CI2

CYHM;2007-07-19 21:21;CYHM 192121Z 02010KT 15SM -TSRA FEW038 BKN070 OVC250 RMK CU2AC4CI2 CB EMBDD

CYHM;2007-07-19 22:00;CYHM 192200Z 35002KT 7SM -TSRA FEW015 SCT032 BKN072 OVC250 20/18 A2969 RMK CF1CU2AC4CI1 CB EMBDD SLP051

CYHM;2007-07-19 22:10;CYHM 192210Z 02004KT 12SM -SHRA FEW016 FEW032 BKN056 OVC072 RETS RMK CF1CU2SC3AC2 PCPN VRY LGT

CYHM;2007-07-19 23:00;CYHM 192300Z 04005KT 360V080 12SM -SHRA BKN011 OVC032 19/17 A2970 RMK CF6CU2 PCPN VRY LGT SLP055

CYHM;2007-07-20 00:00;CYHM 200000Z 20006KT 8SM FEW012 FEW032 BKN040 BKN130 19/17 A2970 RMK CF1CU1SC3AC2 SLP056

CYHM;2007-07-20 01:00;CYHM 200100Z 26006KT 8SM FEW027 BKN065 BKN092 19/17 A2973 RMK SC2SC3AC2 SLP066

CYHM;2007-07-20 02:00;CYHM 200200Z 29006KT 15SM FEW032 FEW050 17/15 A2974 RMK CU1SC1 SLP069

CYHM;2007-07-20 03:00;CYHM 200300Z 29008KT 15SM FEW035 16/12 A2975 RMK SC1 OCNL LTNG N SLP071

CYHM;2007-07-20 04:00;CYHM 200400Z 28007KT 15SM FEW210 15/12 A2975 RMK CI1 OCNL LTNG ENE SLP072

CYHM;2007-07-20 05:00;CYHM 200500Z 29008KT 15SM FEW030 FEW220 14/12 A2977 RMK SC1CI1 OCNL LTNG ENE SLP079

CYHM;2007-07-20 06:00;CYHM 200600Z 27007KT 15SM FEW030 FEW220 14/11 A2979 RMK SC1CI1 SLP086

CYHM;2007-07-20 07:00;CYHM 200700Z 27006KT 15SM FEW240 13/11 A2980 RMK CI2 SLP089

CYHM;2007-07-20 08:00;CYHM 200800Z 29007KT 15SM FEW093 SCT230 13/11 A2982 RMK AC2CI1 SLP097

CYHM;2007-07-20 09:00;CYHM 200900Z 29007KT 15SM FEW095 12/10 A2985 RMK AC2 SLP108

CYHM;2007-07-20 10:00;CYHM 201000Z 30006KT 15SM FEW090 FEW220 12/10 A2987 RMK AC1CI1 SLP113

CYHM;2007-07-20 11:00;CYHM 201100Z 30006KT 15SM FEW045 FEW100 13/11 A2989 RMK SC1AC1 SC TR AC TR SLP122

CYHM;2007-07-20 12:00;CYHM 201200Z 33008KT 15SM FEW045 FEW100 15/12 A2993 RMK SC1AC1 SC TR AC TR SLP134

CYHM;2007-07-20 13:00;CYHM 201300Z 35014KT 15SM FEW020 FEW100 18/12 A2994 RMK CU1AC1 SLP140

CYHM;2007-07-20 14:00;CYHM 201400Z 33010KT 15SM FEW029 SCT220 19/12 A2996 RMK CU2CI1 SLP145

CYHM;2007-07-20 15:00;CYHM 201500Z 35010KT 15SM FEW030 FEW220 21/12 A2997 RMK CU1CI0 SLP149

CYHM;2007-07-20 16:00;CYHM 201600Z 32012KT 15SM BKN040 BKN220 21/11 A2999 RMK CU5CI0 CI TR SC ASOCITD SLP154

CYHM;2007-07-20 17:00;CYHM 201700Z 35014G22KT 15SM BKN059 BKN068 22/11 A3000 RMK CU5AC1 SLP159

CYHM;2007-07-20 18:00;CYHM 201800Z 31014KT 15SM SCT050 BKN060 BKN220 23/10 A3000 RMK CU4SC1CI0 SLP159

CYHM;2007-07-20 19:00;CYHM 201900Z 33012G21KT 300V050 15SM BKN062 24/09 A3001 RMK SC6 SLP162

CYHM;2007-07-20 20:00;CYHM 202000Z 35007KT 290V040 15SM BKN065 BKN250 23/08 A3002 RMK SC5CI1 CI TR SLP164

CYHM;2007-07-20 21:00;CYHM 202100Z 32009KT 15SM SCT068 23/08 A3002 RMK AC3 SLP166

CYHM;2007-07-20 22:00;CYHM 202200Z 32008KT 15SM FEW068 22/07 A3003 RMK AC2 SLP168

CYHM;2007-07-20 23:00;CYHM 202300Z 32008KT 280V360 15SM FEW067 22/07 A3003 RMK AC2 SLP170

CYHM;2007-07-21 00:00;CYHM 210000Z 32009KT 15SM FEW065 FEW250 21/08 A3005 RMK SC2CI1 CI TR SLP175

CYHM;2007-07-21 01:00;CYHM 210100Z CCA 35006KT 15SM FEW065 FEW250 18/08 A3006 RMK SC1CI1 CI TR SLP179

CYHM;2007-07-21 02:00;CYHM 210200Z 34006KT 15SM SKC 16/09 A3009 RMK SLP189

CYHM;2007-07-21 03:00;CYHM 210300Z 34006KT 15SM FEW210 15/09 A3011 RMK CI1 SLP195

CYHM;2007-07-21 04:00;CYHM 210400Z 33005KT 15SM FEW100 FEW220 15/09 A3012 RMK AC1CI1 SLP199

CYHM;2007-07-21 05:00;CYHM 210500Z 34007KT 15SM FEW060 FEW210 14/10 A3012 RMK SC1CI1 TR CI SLP200

CYHM;2007-07-21 06:00;CYHM 210600Z 33005KT 15SM FEW080 FEW220 13/09 A3012 RMK AC1CI1 TR CI SLP199

CYHM;2007-07-21 07:00;CYHM 210700Z 35005KT 15SM FEW080 FEW210 13/09 A3011 RMK AC1CI1 TR CI SLP197

CYHM;2007-07-21 08:00;CYHM 210800Z 35004KT 15SM FEW080 13/09 A3012 RMK AC2 SLP200

CYHM;2007-07-21 09:00;CYHM 210900Z 00000KT 15SM FEW065 FEW210 12/09 A3014 RMK SC2CI1 TR CI SLP206

CYHM;2007-07-21 10:00;CYHM 211000Z 32005KT 15SM SCT070 SCT210 10/08 A3016 RMK AC3CI1 SLP213

CYHM;2007-07-21 11:00;CYHM 211100Z 32003KT 15SM FEW070 FEW220 12/09 A3017 RMK AC1CI1 CI TR SLP217

CYHM;2007-07-21 12:00;CYHM 211200Z 33003KT 15SM FEW070 FEW250 16/10 A3019 RMK AC1CI1 SLP224

CYHM;2007-07-21 13:00;CYHM 211300Z 35008KT 15SM FEW070 FEW250 19/10 A3021 RMK AC1CI1 SLP229

CYHM;2007-07-21 14:00;CYHM 211400Z 02005KT 320V060 15SM FEW070 FEW250 21/10 A3023 RMK AC1CI1 SLP235

CYHM;2007-07-21 15:00;CYHM 211500Z 02006KT 340V070 15SM BKN055 22/09 A3022 RMK SC5 SLP234

CYHM;2007-07-21 16:00;CYHM 211600Z 01007KT 330V090 15SM BKN065 23/09 A3022 RMK SC5 SLP233

CYHM;2007-07-21 17:00;CYHM 211700Z 36010KT 15SM SCT065 23/09 A3022 RMK SC4 SLP232

CYHM;2007-07-21 18:00;CYHM 211800Z 05008KT 340V090 15SM SCT068 24/08 A3021 RMK AC3 SLP230

CYHM;2007-07-21 19:00;CYHM 211900Z 01007KT 330V060 15SM SCT067 25/09 A3020 RMK AC3 SLP228

CYHM;2007-07-21 20:00;CYHM 212000Z 02005KT 330V070 15SM SCT067 25/08 A3020 RMK AC3 SLP226

CYHM;2007-07-21 21:00;CYHM 212100Z 03007KT 340V070 15SM SCT067 25/08 A3019 RMK AC3 SLP223

CYHM;2007-07-21 22:00;CYHM 212200Z 09004KT 060V120 15SM FEW067 25/08 A3018 RMK AC2 SLP220

CYHM;2007-07-21 23:00;CYHM 212300Z 07007KT 030V110 15SM FEW064 24/08 A3018 RMK SC2 SLP220

CYHM;2007-07-22 00:00;CYHM 220000Z 08005KT 15SM FEW066 FEW250 23/08 A3019 RMK AC2CI1 CI TR SLP223

CYHM;2007-07-22 01:00;CYHM 220100Z 08003KT 15SM FEW068 FEW250 21/08 A3020 RMK AC2CI1 CI TR SLP224

CYHM;2007-07-22 02:00;CYHM 220200Z 28003KT 15SM FEW077 18/10 A3023 RMK AC2 SLP234

CYHM;2007-07-22 03:00;CYHM 220300Z 00000KT 15SM FEW080 17/10 A3024 RMK AC1 SLP240

CYHM;2007-07-22 04:00;CYHM 220400Z 01003KT 15SM SKC 17/09 A3025 RMK SLP244

CYHM;2007-07-22 05:00;CYHM 220500Z 03003KT 15SM FEW220 17/08 A3026 RMK CI1 SLP247

CYHM;2007-07-22 06:00;CYHM 220600Z 05004KT 15SM FEW220 15/08 A3026 RMK CI1 SLP246

CYHM;2007-07-22 07:00;CYHM 220700Z 36002KT 15SM SKC 14/08 A3026 RMK SLP245

CYHM;2007-07-22 08:00;CYHM 220800Z 00000KT 15SM FEW210 12/07 A3026 RMK CI1 SLP246

CYHM;2007-07-22 09:00;CYHM 220900Z 00000KT 15SM FEW220 13/07 A3026 RMK CI1 SLP246

CYHM;2007-07-22 10:00;CYHM 221000Z 03003KT 15SM FEW220 13/07 A3027 RMK CI1 SLP249

CYHM;2007-07-22 11:00;CYHM 221100Z 04005KT 15SM FEW220 16/09 A3028 RMK CI0 CONTRAIL SLP253

CYHM;2007-07-22 12:00;CYHM 221200Z 03006KT 15SM FEW250 18/09 A3030 RMK CI1 CONTRAIL SLP258

CYHM;2007-07-22 13:00;CYHM 221300Z 03007KT 15SM FEW250 21/09 A3030 RMK CI1 CONTRAIL SLP261

CYHM;2007-07-22 14:00;CYHM 221400Z 02008KT 15SM FEW250 23/08 A3031 RMK CI1 CONTRAIL SLP263

CYHM;2007-07-22 15:00;CYHM 221500Z 04006KT 010V090 15SM FEW025 FEW250 24/09 A3031 RMK CU1CI1 CU TR SLP263

CYHM;2007-07-22 16:00;CYHM 221600Z CCA 08009KT 010V090 15SM FEW025 FEW230 24/09 A3030 RMK CU1CI1 SLP260

CYHM;2007-07-22 17:00;CYHM 221700Z 05009KT 340V100 15SM FEW045 SCT230 25/10 A3030 RMK CU2CI1 SLP258

CYHM;2007-07-22 18:00;CYHM 221800Z 05009KT 15SM FEW050 FEW055 SCT230 26/10 A3029 RMK CU1SC2CI1 CONTRAIL SLP256

CYHM;2007-07-22 19:00;CYHM 221900Z 06007KT 020V120 15SM FEW064 SCT250 27/09 A3027 RMK CU2CI1 SLP251

CYHM;2007-07-22 20:00;CYHM 222000Z 06005KT 020V120 15SM FEW064 SCT250 26/09 A3026 RMK SC2CI1 CU ASOCTD SLP247

CYHM;2007-07-22 21:00;CYHM 222100Z 05005KT 360V090 15SM FEW064 FEW230 27/08 A3024 RMK SC1CI1 CU ASOCTD SLP241

CYHM;2007-07-22 22:00;CYHM 222200Z 06006KT 020V090 15SM FEW064 FEW230 26/08 A3023 RMK SC1CI1 CU ASOCTD SLP237

CYHM;2007-07-22 23:00;CYHM 222300Z 07006KT 15SM FEW060 FEW230 26/08 A3023 RMK SC1CI1 CU ASOCTD CI TR SLP237

CYHM;2007-07-23 00:00;CYHM 230000Z 11006KT 15SM FEW060 FEW200 23/09 A3023 RMK SC1CI1 CU ASOCTD CI TR SLP234

CYHM;2007-07-23 01:00;CYHM 230100Z 13005KT 15SM FEW066 FEW200 21/09 A3022 RMK AC1CI1 CI TR SLP232

CYHM;2007-07-23 02:00;CYHM 230200Z 16004KT 15SM FEW070 20/08 A3023 RMK AC1 AC TR SLP235

CYHM;2007-07-23 03:00;CYHM 230300Z 00000KT 15SM FEW070 18/09 A3023 RMK AC1 SLP235

CYHM;2007-07-23 04:00;CYHM 230400Z 00000KT 15SM BKN083 17/09 A3023 RMK AC5 SLP235

CYHM;2007-07-23 05:00;CYHM 230500Z 00000KT 15SM SCT088 17/10 A3023 RMK AC4 SLP235

CYHM;2007-07-23 06:00;CYHM 230600Z 02002KT 15SM SCT084 17/10 A3023 RMK AC4 SLP234

CYHM;2007-07-23 07:00;CYHM 230700Z 03005KT 15SM BKN083 16/09 A3020 RMK AC5 SLP225

CYHM;2007-07-23 08:00;CYHM 230800Z 04004KT 15SM FEW080 FEW260 16/10 A3020 RMK AC1CI1 TR AC SLP225

CYHM;2007-07-23 09:00;CYHM 230900Z 04005KT 15SM SCT070 SCT220 15/10 A3021 RMK AC3CI1 SLP228

CYHM;2007-07-23 10:00;CYHM 231000Z 02004KT 15SM FEW070 FEW220 16/10 A3022 RMK AC2CI1 SLP231

CYHM;2007-07-23 11:00;CYHM 231100Z 03005KT 15SM FEW040 SCT075 BKN220 17/11 A3022 RMK SC1AC2CI2 SLP233

CYHM;2007-07-23 12:00;CYHM 231200Z 04004KT 15SM FEW040 BKN084 BKN220 19/12 A3023 RMK SC2AC3CI2 SLP236

CYHM;2007-07-23 13:00;CYHM 231300Z 03006KT 15SM FEW045 BKN140 OVC220 20/13 A3022 RMK SC2AC5CI2 SLP231

CYHM;2007-07-23 14:00;CYHM 231400Z 03004KT 15SM FEW030 FEW055 BKN120 BKN220 22/13 A3021 RMK CU1SC2AC4CI1 SLP229

CYHM;2007-07-23 15:00;CYHM 231500Z 05004KT 15SM FEW030 FEW062 SCT100 BKN160 BKN220 25/11 A3021 RMK CU1SC2AC1AC2CI2 CONTRAIL SLP227

CYHM;2007-07-23 16:00;CYHM 231600Z 05007KT 15SM FEW035 FEW082 BKN180 BKN220 25/10 A3019 RMK CU1AC2AC2CI1 SLP221

CYHM;2007-07-23 17:00;CYHM 231700Z 06008KT 15SM FEW040 BKN120 BKN220 26/10 A3018 RMK CU1AC4CI2 SLP217

CYHM;2007-07-23 18:00;CYHM 231800Z 06005KT 15SM FEW040 SCT120 BKN160 OVC220 25/09 A3016 RMK CU1AC2AS3CI1 SLP210

CYHM;2007-07-23 19:00;CYHM 231900Z 04006KT 010V130 15SM FEW052 FEW074 SCT180 BKN250 27/10 A3014 RMK CU1AC1AC2CS4 HALO SLP206

CYHM;2007-07-23 20:00;CYHM 232000Z 08008KT 15SM FEW052 FEW120 OVC250 26/09 A3013 RMK CU1AC1CS6 SUN DMLY VSBL HALO SLP200

CYHM;2007-07-23 21:00;CYHM 232100Z 10008KT 15SM FEW120 BKN170 BKN250 25/09 A3010 RMK AC1AC4CS2 SLP191

CYHM;2007-07-23 22:00;CYHM 232200Z 12005KT 15SM FEW120 OVC170 25/09 A3009 RMK AC1AC7 SLP188

CYHM;2007-07-23 23:00;CYHM 232300Z 20003KT 15SM FEW078 BKN150 OVC200 23/11 A3008 RMK AC1AC6CS1 SLP186

CYHM;2007-07-24 00:00;CYHM 240000Z 00000KT 15SM FEW084 BKN140 OVC180 22/11 A3008 RMK AC2AC6AC1 SLP184

CYHM;2007-07-24 00:32;CYHM 240032Z 00000KT 10SM -SHRA FEW084 OVC110 RMK AC2AC6

CYHM;2007-07-24 01:00;CYHM 240100Z 12004KT 12SM -SHRA BKN084 OVC110 19/14 A3009 RMK AC5AC3 SLP187

CYHM;2007-07-24 01:45;CYHM 240145Z 20005KT 15SM FEW078 BKN090 OVC110 RMK AC1AC4AC3

CYHM;2007-07-24 02:00;CYHM 240200Z 20003KT 15SM -SHRA FEW064 SCT084 OVC110 18/14 A3010 RMK SC1AC2AC5 SLP191

CYHM;2007-07-24 03:00;CYHM 240300Z 19005KT 15SM -SHRA BKN065 OVC092 17/13 A3009 RMK SC5AC3 SLP189

CYHM;2007-07-24 04:00;CYHM 240400Z 17003KT 15SM -SHRA BKN062 OVC084 16/13 A3009 RMK SC5AC3 SLP189

CYHM;2007-07-24 05:00;CYHM 240500Z 15005KT 15SM -SHRA OVC054 16/14 A3011 RMK SC8 SLP194

CYHM;2007-07-24 06:00;CYHM 240600Z 24005KT 15SM -SHRA FEW054 OVC068 16/14 A3010 RMK SC2AC6 SLP191

CYHM;2007-07-24 07:00;CYHM 240700Z 22003KT 15SM -SHRA FEW054 FEW070 OVC082 16/15 A3010 RMK SC1AC2AC6 SLP193

CYHM;2007-07-24 08:00;CYHM 240800Z 22002KT 15SM FEW060 FEW080 BKN120 16/14 A3010 RMK SC1AC2AC5 SLP190

CYHM;2007-07-24 09:00;CYHM 240900Z 23005KT 15SM BKN068 OVC082 16/14 A3010 RMK AC6AC2 SLP193

CYHM;2007-07-24 10:00;CYHM 241000Z 25004KT 15SM OVC072 16/14 A3010 RMK AC8 SLP193

CYHM;2007-07-24 11:00;CYHM 241100Z 25005KT 15SM SCT062 OVC072 16/14 A3011 RMK SC3AC5 SLP195

CYHM;2007-07-24 12:00;CYHM 241200Z 26006KT 15SM BKN075 OVC120 17/15 A3011 RMK AC6AC2 SLP197

CYHM;2007-07-24 13:00;CYHM 241300Z 22008KT 15SM BKN074 OVC120 18/15 A3012 RMK AC6AC2 SLP198

CYHM;2007-07-24 14:00;CYHM 241400Z 22008KT 15SM FEW020 BKN063 BKN075 19/14 A3011 RMK CU1SC5AC2 CU TR SLP197

CYHM;2007-07-24 15:00;CYHM 241500Z 21008KT 15SM FEW025 BKN061 BKN075 20/15 A3010 RMK CU1SC6AC1 CU TR SLP194

CYHM;2007-07-24 16:00;CYHM 241600Z 21008KT 15SM FEW020 OVC064 20/15 A3010 RMK CU1SC7 SLP194

CYHM;2007-07-24 17:00;CYHM 241700Z 22006KT 15SM FEW025 SCT062 BKN080 22/15 A3010 RMK CU1SC3AC3 SLP193

CYHM;2007-07-24 18:00;CYHM 241800Z 22006KT 15SM SCT035 BKN060 BKN085 23/15 A3010 RMK CU3SC2AC2 SLP191

CYHM;2007-07-24 19:00;CYHM 241900Z 23006KT 15SM FEW028 BKN064 BKN120 22/15 A3009 RMK CU1SC5AC2 SLP188

CYHM;2007-07-24 20:00;CYHM 242000Z 24005KT 150V300 15SM FEW028 BKN063 BKN080 23/15 A3007 RMK CU1SC5AC2 SLP183

CYHM;2007-07-24 21:00;CYHM 242100Z 27002KT 15SM FEW032 SCT053 BKN062 24/14 A3006 RMK CU1SC4SC3 WND L/V CU TR SLP177

CYHM;2007-07-24 22:00;CYHM 242200Z 25002KT 15SM FEW034 BKN054 OVC078 23/14 A3006 RMK CU1SC6AC2 SLP178

CYHM;2007-07-24 23:00;CYHM 242300Z 00000KT 15SM FEW034 BKN064 BKN250 23/14 A3006 RMK CU1SC5CI1 CU TR CI TR SLP177

CYHM;2007-07-25 00:00;CYHM 250000Z 00000KT 15SM FEW036 FEW064 SCT250 23/14 A3005 RMK CU1SC2CI1 CU TR SLP176

CYHM;2007-07-25 01:00;CYHM 250100Z 00000KT 15SM FEW062 FEW250 20/14 A3007 RMK SC1CI2 SC TR SLP180

CYHM;2007-07-25 02:00;CYHM 250200Z 00000KT 15SM FEW060 FEW250 18/14 A3008 RMK SC1CI1 SC TR SLP184

CYHM;2007-07-25 03:00;CYHM 250300Z 00000KT 15SM FEW250 17/13 A3009 RMK CI1 SLP188

CYHM;2007-07-25 04:00;CYHM 250400Z 00000KT 15SM FEW250 16/13 A3009 RMK CI1 CI TR SLP188

CYHM;2007-07-25 05:00;CYHM 250500Z 00000KT 15SM FEW250 16/13 A3009 RMK CI1 CI TRY SLP190

CYHM;2007-07-25 06:00;CYHM 250600Z 30002KT 15SM BKN210 16/13 A3009 RMK CI2 SLP188

CYHM;2007-07-25 07:00;CYHM 250700Z 30003KT 15SM BKN170 16/14 A3008 RMK AC2 SLP185

CYHM;2007-07-25 08:00;CYHM 250800Z 01002KT 15SM BKN220 16/13 A3008 RMK CC2 SLP186

CYHM;2007-07-25 09:00;CYHM 250900Z 04002KT 15SM FEW130 BKN180 15/13 A3008 RMK AC2AC6 SLP185

CYHM;2007-07-25 10:00;CYHM 251000Z 05003KT 15SM SCT068 OVC110 17/14 A3009 RMK AC3AC5 SLP189

CYHM;2007-07-25 11:00;CYHM 251100Z 02003KT 10SM SCT078 OVC110 17/14 A3010 RMK AC4AC4 SLP192

CYHM;2007-07-25 12:00;CYHM 251200Z 01004KT 6SM HZ BKN059 OVC110 17/15 A3011 RMK SC5AC3 SLP195

CYHM;2007-07-25 13:00;CYHM 251300Z 03002KT 4SM HZ BKN062 BKN100 19/16 A3012 RMK SC5AC2 SLP197

CYHM;2007-07-25 14:00;CYHM 251400Z 02004KT 7SM FEW037 BKN062 BKN100 22/16 A3012 RMK CU2SC2AC2 SLP199

CYHM;2007-07-25 15:00;CYHM 251500Z 09004KT 10SM FEW022 BKN058 BKN100 22/16 A3013 RMK CU2SC4AC2 SLP202

CYHM;2007-07-25 16:00;CYHM 251600Z 25005KT 15SM SCT031 BKN039 BKN090 22/16 A3013 RMK CU3SC2AC2 SLP202

CYHM;2007-07-25 17:00;CYHM 251700Z 22005KT 15SM SCT025 BKN058 BKN082 22/16 A3012 RMK CU4SC2AC1 SLP198

CYHM;2007-07-25 17:07;CYHM 251707Z 23005KT 15SM -SHRA SCT025 BKN047 BKN082 RMK CU3SC3AC1

CYHM;2007-07-25 17:30;CYHM 251730Z CCA 12006KT 15SM BKN056 BKN090 RMK SC6AC2 CU ASOCTD

CYHM;2007-07-25 18:00;CYHM 251800Z 14003KT 15SM SCT032 BKN063 BKN072 23/16 A3010 RMK CU3SC2AC1 SLP193

CYHM;2007-07-25 19:00;CYHM 251900Z 18004KT 15SM BKN034 24/15 A3010 RMK SC6 WND L/V TCU EMBDD CU ASOCTD SLP192

CYHM;2007-07-25 20:00;CYHM 252000Z 19008KT 15SM FEW044TCU FEW250 25/13 A3009 RMK TCU1CI1 CU ASOCTD CI TR SLP189

CYHM;2007-07-25 21:00;CYHM 252100Z 19007KT 15SM FEW044 25/12 A3008 RMK CU1 SLP186

CYHM;2007-07-25 22:00;CYHM 252200Z 17008KT 15SM FEW048 FEW250 25/13 A3008 RMK CU1CI1 CI TR SLP184

CYHM;2007-07-25 23:00;CYHM 252300Z 18008KT 12SM FEW048 SCT120 BKN250 25/14 A3008 RMK CU1AC2CS1 SLP186

CYHM;2007-07-26 00:00;CYHM 260000Z 19003KT 12SM FEW120 SCT250 24/14 A3008 RMK AC1CI1 SLP186

CYHM;2007-07-26 01:00;CYHM 260100Z 03003KT 10SM FEW120 BKN250 20/17 A3009 RMK AC2CS1 SLP188

CYHM;2007-07-26 02:00;CYHM 260200Z 04005KT 12SM SCT100 SCT250 20/16 A3010 RMK AC2CI1 CI TR SLP191

CYHM;2007-07-26 03:00;CYHM 260300Z 02005KT 10SM FEW100 SCT250 18/16 A3010 RMK AC1CI2 SLP191

CYHM;2007-07-26 04:00;CYHM 260400Z 07004KT 8SM FEW100 SCT250 18/16 A3010 RMK AC2CI2 HZ SLP190

CYHM;2007-07-26 05:00;CYHM 260500Z 10003KT 10SM FEW075 SCT260 18/16 A3009 RMK AC2CI1 SLP189

CYHM;2007-07-26 06:00;CYHM 260600Z 08003KT 10SM FEW070 SCT260 18/15 A3007 RMK AC1CI1 SLP182

CYHM;2007-07-26 07:00;CYHM 260700Z 06005KT 2SM BR FEW260 17/15 A3007 RMK FG1CI1 SLP181

CYHM;2007-07-26 08:00;CYHM 260800Z 05002KT 1 1/2SM BR SKC 17/15 A3007 RMK FG2 VIS VRB 1 - 2 SLP183

CYHM;2007-07-26 08:33;CYHM 260833Z 04006KT 8SM FEW260 RMK CI1

CYHM;2007-07-26 09:00;CYHM 260900Z 02004KT 3SM BR SKC 17/15 A3007 RMK VIS VRB 2 - 4 SLP181

CYHM;2007-07-26 09:42;CYHM 260942Z 05002KT 1 1/2SM BR SKC RMK FG2 VIS VRB 1 - 2

CYHM;2007-07-26 10:00;CYHM 261000Z 00000KT 3/4SM BR SKC 16/15 A3008 RMK FG2 VIS VRB 1/2 - 1 SLP185

CYHM;2007-07-26 10:13;CYHM 261013Z 02002KT 1/2SM FG SKC RMK FG4 VIS 3/4-1/4

CYHM;2007-07-26 11:00;CYHM 261100Z 05002KT 3/4SM BR SKC 17/15 A3009 RMK FG2 SLP187

CYHM;2007-07-26 11:40;CYHM 261140Z 06002KT 1 1/2SM BR SKC RMK FG2

CYHM;2007-07-26 12:00;CYHM 261200Z 00000KT 1 1/2SM BR FEW220 19/17 A3010 RMK FG1CI1 SLP190

CYHM;2007-07-26 12:51;CYHM 261251Z 20004KT 7SM FEW006 SCT220 RMK SF1CI1

CYHM;2007-07-26 13:00;CYHM 261300Z 20006KT 7SM FEW007 BKN045 22/18 A3010 RMK CF2SC4 SLP191

CYHM;2007-07-26 14:00;CYHM 261400Z 22005KT 10SM FEW018 23/17 A3009 RMK CU2 SLP188

CYHM;2007-07-26 15:00;CYHM 261500Z 23006KT 15SM SCT032 BKN049 24/16 A3008 RMK CU3SC2 SLP186

CYHM;2007-07-26 16:00;CYHM 261600Z 18012KT 15SM SCT038 BKN043 BKN110 25/15 A3008 RMK CU3SC2AC1 SLP184

CYHM;2007-07-26 17:00;CYHM 261700Z 20012KT 15SM FEW040 BKN098 BKN120 26/16 A3007 RMK CU2AC3AC1 SLP182

CYHM;2007-07-26 18:00;CYHM 261800Z 18012KT 15SM FEW040 FEW220 27/16 A3006 RMK CU1CI0 CI TR SLP177

CYHM;2007-07-26 19:00;CYHM 261900Z 19013KT 15SM FEW042 SCT110 SCT220 27/15 A3004 RMK CU1AC2CI0 SLP172

CYHM;2007-07-26 20:00;CYHM 262000Z 19011KT 15SM FEW048 BKN110 26/15 A3003 RMK CU1AC6 SLP166

CYHM;2007-07-26 21:00;CYHM 262100Z 19007KT 15SM BKN077 BKN110 25/13 A3001 RMK AC5AC2 SLP159

CYHM;2007-07-26 22:00;CYHM 262200Z 18007KT 15SM FEW048 SCT082 BKN100 BKN220 26/14 A2999 RMK CU2AC2AC2CI2 SLP154

CYHM;2007-07-26 23:00;CYHM 262300Z 18007KT 15SM FEW077 BKN250 25/14 A2998 RMK AC2CI3 SLP152

CYHM;2007-07-27 00:00;CYHM 270000Z 19009KT 15SM SCT072 BKN250 24/14 A2998 RMK AC4CI2 SLP149

CYHM;2007-07-27 01:00;CYHM 270100Z 17006KT 15SM FEW072 SCT150 BKN250 22/14 A2998 RMK AC2AC2CI1 SLP150

CYHM;2007-07-27 02:00;CYHM 270200Z 16006KT 15SM BKN140 22/14 A2999 RMK AC7 SLP152

CYHM;2007-07-27 03:00;CYHM 270300Z 24004KT 15SM FEW100 SCT130 19/15 A2996 RMK AC2AC2 SLP143

CYHM;2007-07-27 04:00;CYHM 270400Z 17004KT 10SM FEW100 BKN120 19/16 A2997 RMK AC2AC2 SLP147

CYHM;2007-07-27 05:00;CYHM 270500Z 16004KT 10SM FEW050 SCT070 BKN100 19/16 A2997 RMK SC2AC2AC2 SLP145

CYHM;2007-07-27 06:00;CYHM 270600Z 17005KT 6SM HZ FEW035 BKN088 19/17 A2994 RMK SC1AC4 SLP136

CYHM;2007-07-27 07:00;CYHM 270700Z 16006KT 5SM HZ FEW090 18/17 A2992 RMK AC2 SLP128

CYHM;2007-07-27 08:00;CYHM 270800Z 20005KT 4SM BR FEW037 BKN260 18/16 A2991 RMK SC1CI4 SLP126

CYHM;2007-07-27 09:00;CYHM 270900Z 18005KT 2SM BR FEW050 OVC073 19/18 A2992 RMK FG1SC2AC6 SLP129

CYHM;2007-07-27 09:40;CYHM 270940Z 16007KT 2SM TS BR SCT030CB OVC120 RMK FG1CB3AC4 OCNL LTNG S

CYHM;2007-07-27 09:50;CYHM 270950Z 20005KT 2SM -TSRA BR BKN060CB OVC120 RMK FG1CB6AC2 OCNL LTNG S

CYHM;2007-07-27 10:00;CYHM 271000Z 18005KT 2SM -TSRA BR SCT060 OVC140 20/18 A2990 RMK FG1SC3AC4 CB ASOCTD SLP123

CYHM;2007-07-27 10:45;CYHM 271045Z 16005KT 2SM -SHRA BR SCT035 OVC100 RMK FG1SC3AC4

CYHM;2007-07-27 11:00;CYHM 271100Z 19006KT 2SM -SHRA BR SCT035 OVC095 20/18 A2991 RMK FG1SC3AC4 SLP124

CYHM;2007-07-27 11:20;CYHM 271120Z 18003KT 1 1/2SM -SHRA BR BKN007 BKN035 OVC095 RMK FG1SF4SC2AC2

CYHM;2007-07-27 11:38;CYHM 271138Z 19004KT 1 1/2SM BR BKN008 OVC086 RMK FG1SF5AC2

CYHM;2007-07-27 12:00;CYHM 271200Z 19008KT 3SM BR FEW010 BKN055 OVC110 20/18 A2991 RMK SF2SC3AC3 SLP126

CYHM;2007-07-27 13:00;CYHM 271300Z 20007KT 10SM FEW020 SCT045 BKN100 OVC160 19/17 A2990 RMK CU1SC2AC3AC2 SLP123

CYHM;2007-07-27 14:00;CYHM 271400Z 19007KT 15SM FEW020 SCT050 BKN150 OVC220 19/17 A2989 RMK CU1SC3AC3CI1 SLP120

CYHM;2007-07-27 15:00;CYHM 271500Z 20012KT 8SM FEW012 BKN042 BKN160 21/18 A2989 RMK CF2SC3AC1 SLP120

CYHM;2007-07-27 16:00;CYHM 271600Z 20006KT 15SM SCT015 SCT038 BKN120 23/18 A2989 RMK CU3SC1AC2 SLP119

CYHM;2007-07-27 17:00;CYHM 271700Z 18008KT 15SM SCT019 BKN042 BKN220 25/18 A2987 RMK CU3SC3CI1 SLP113

CYHM;2007-07-27 17:40;CYHM 271740Z 18010KT 10SM -SHRA SCT022 BKN056 BKN120 RMK CU3SC2AC1

CYHM;2007-07-27 17:53;CYHM 271753Z 19006KT 10SM FEW032 FEW100 BKN240 RMK CU2AC1CI2

CYHM;2007-07-27 18:00;CYHM 271800Z 18008KT 15SM FEW032 FEW130 BKN240 24/18 A2986 RMK CU2AC1CI2 SLP109

CYHM;2007-07-27 19:00;CYHM 271900Z 20010KT 15SM SCT024 SCT080 BKN250 25/18 A2984 RMK CU3AC1CI2 SLP102

CYHM;2007-07-27 20:00;CYHM 272000Z 22010KT 15SM FEW028 BKN052 BKN190 BKN250 25/17 A2984 RMK CU2SC2AC1CI1 SLP101

CYHM;2007-07-27 20:37;CYHM 272037Z 23011KT 15SM -TSRA FEW024 BKN052 BKN120 BKN250 RMK CU2SC2AC2CI1 CB ASOCTD

CYHM;2007-07-27 21:00;CYHM 272100Z 23009KT 15SM -TSRA FEW024 SCT052 BKN120 BKN180 23/19 A2982 RMK CU2SC2AC3AC1 CB ASOCTD PCPN VRY LGT SLP097

CYHM;2007-07-27 21:35;CYHM 272135Z 25006KT 15SM FEW024 SCT100 BKN180 RETS RMK CU2AC2AC3

CYHM;2007-07-27 22:00;CYHM 272200Z 25006KT 15SM FEW026 BKN110 BKN180 24/18 A2982 RMK CU1AC5AC2 SLP095

CYHM;2007-07-27 23:00;CYHM 272300Z 22006KT 15SM FEW028 BKN130 BKN170 25/17 A2981 RMK CU1AC5AC1 SLP092

CYHM;2007-07-28 00:00;CYHM 280000Z 25005KT 15SM BKN120 23/17 A2982 RMK AC7 SLP095

CYHM;2007-07-28 01:00;CYHM 280100Z 16002KT 15SM FEW058 BKN110 22/17 A2983 RMK SC1AC6 SLP100

CYHM;2007-07-28 02:00;CYHM 280200Z 00000KT 15SM -SHRA SCT067 OVC110 22/18 A2986 RMK AC3AC5 SLP109

CYHM;2007-07-28 03:00;CYHM 280300Z 00000KT 10SM -SHRA FEW070 OVC110 20/18 A2986 RMK AC2AC6 SLP110

CYHM;2007-07-28 04:00;CYHM 280400Z 22004KT 8SM BKN055 OVC120 20/18 A2986 RMK SC6AC2 HZ SLP110

CYHM;2007-07-28 05:00;CYHM 280500Z 00000KT 8SM BKN052 OVC110 19/18 A2985 RMK SC6AC2 HZ SLP108

CYHM;2007-07-28 06:00;CYHM 280600Z 00000KT 7SM FEW055 BKN110 18/17 A2984 RMK SC2AC2 SLP103

CYHM;2007-07-28 07:00;CYHM 280700Z 30004KT 4SM BR SCT260 17/16 A2984 RMK CI2 SLP103

CYHM;2007-07-28 07:24;CYHM 280724Z 33004KT 1SM BR SCT260 RMK FG2CI1 VIS VRB 3/4 - 11/4

CYHM;2007-07-28 08:00;CYHM 280800Z 34004KT 3SM BR FEW260 17/16 A2984 RMK CI2 VIS VRB 2 - 4 SLP104

CYHM;2007-07-28 09:00;CYHM 280900Z 02004KT 5SM BR SCT260 18/16 A2985 RMK CI2 SLP106

CYHM;2007-07-28 10:00;CYHM 281000Z 04006KT 5SM HZ FEW120 19/16 A2987 RMK AC2 SLP113

CYHM;2007-07-28 11:00;CYHM 281100Z 00000KT 7SM SKC 18/16 A2988 RMK SLP116

CYHM;2007-07-28 12:00;CYHM 281200Z 31002KT 8SM FEW250 19/17 A2989 RMK CI0 SLP120

CYHM;2007-07-28 13:00;CYHM 281300Z 30002KT 8SM SKC 22/17 A2990 RMK WND L/V SLP123

CYHM;2007-07-28 15:00;CYHM 281500Z 29003KT 250V360 15SM FEW036 26/16 A2991 RMK CU1 SLP125

CYHM;2007-07-28 16:00;CYHM 281600Z CCA 03006KT 270V060 15SM FEW045 FEW250 27/15 A2991 RMK CU1CI0 SLP124

CYHM;2007-07-28 17:00;CYHM 281700Z 31007KT 230V070 15SM BKN046 BKN150 28/16 A2991 RMK CU5AC1 SLP124

CYHM;2007-07-28 18:00;CYHM 281800Z CCA 21004KT 170V030 15SM BKN048 BKN077 29/16 A2990 RMK CU5AC1 SLP123

CYHM;2007-07-28 19:00;CYHM 281900Z 08009KT 8SM BKN046TCU BKN072 28/17 A2990 RMK TCU5AC2 HZ SLP121

CYHM;2007-07-28 20:00;CYHM 282000Z 05005KT 010V090 9SM SCT045 BKN061 BKN080 27/16 A2989 RMK CU4SC2AC1 TCU ASOCTD HZ SLP120

CYHM;2007-07-28 21:00;CYHM 282100Z 10006KT 060V130 9SM BKN047 BKN061 28/16 A2989 RMK CU5SC2 HZ SLP120

CYHM;2007-07-28 22:00;CYHM 282200Z 09006KT 060V120 9SM SCT046 BKN059 27/16 A2990 RMK CU4SC2 HZ SLP121

CYHM;2007-07-28 23:00;CYHM 282300Z 09005KT 060V120 10SM SCT047 BKN064 BKN092 27/16 A2990 RMK CU4SC2AC1 SLP122

CYHM;2007-07-29 00:00;CYHM 290000Z 05006KT 10SM SCT047 BKN060 BKN082 26/16 A2991 RMK CU3SC2AC1 SLP127

CYHM;2007-07-29 01:00;CYHM 290100Z 04010KT 9SM SCT044 BKN058 BKN095 25/17 A2993 RMK CU3SC2AC2 HZ SLP133

CYHM;2007-07-29 02:00;CYHM 290200Z 05004KT 10SM SCT058 BKN096 24/17 A2996 RMK SC4AC2 SLP141

CYHM;2007-07-29 03:00;CYHM 290300Z 03007KT 15SM FEW070 SCT100 23/15 A2996 RMK AC2AC2 SLP142

CYHM;2007-07-29 04:00;CYHM 290400Z 02007KT 15SM BKN077 23/15 A2997 RMK AC6 SLP145

CYHM;2007-07-29 05:00;CYHM 290500Z 03006KT 15SM SCT089 21/15 A2996 RMK AC3 SLP143

CYHM;2007-07-29 06:00;CYHM 290600Z 05006KT 15SM BKN091 20/15 A2996 RMK AC6 SLP143

CYHM;2007-07-29 07:00;CYHM 290700Z 03004KT 15SM SCT083 19/15 A2996 RMK AC3 SLP143

CYHM;2007-07-29 08:00;CYHM 290800Z 03006KT 15SM FEW083 FEW260 19/15 A2997 RMK AC1CI1 SLP144

CYHM;2007-07-29 09:00;CYHM 290900Z 03006KT 6SM HZ BKN085 BKN260 18/15 A2998 RMK AC5CI1 SLP150

CYHM;2007-07-29 10:00;CYHM 291000Z 04003KT 4SM HZ FEW010 BKN087 19/16 A3000 RMK SC1AC5 SLP155

CYHM;2007-07-29 10:13;CYHM 291013Z 04005KT 6SM HZ SCT004 BKN087 RMK SC3AC4

CYHM;2007-07-29 11:00;CYHM 291100Z 04005KT 7SM FEW006 SCT085 19/17 A3001 RMK CF1AC3 CF TR SLP158

CYHM;2007-07-29 12:00;CYHM 291200Z 05009KT 9SM FEW008 SCT084 21/17 A3001 RMK SC1AC2 SLP159

CYHM;2007-07-29 13:00;CYHM 291300Z 05011KT 15SM FEW009 FEW022 FEW085 22/17 A3001 RMK CF1SC1AC2 CF TR SLP161

CYHM;2007-07-29 14:00;CYHM 291400Z 05010KT 15SM FEW018 FEW085 23/17 A3002 RMK SC1AC1 SLP163

CYHM;2007-07-29 15:00;CYHM 291500Z 06013KT 15SM FEW017 FEW190 24/17 A3003 RMK CU1AC1 AC TR SLP165

CYHM;2007-07-29 16:00;CYHM 291600Z 05012KT 15SM FEW019 FEW190 25/17 A3003 RMK CU1AC1 BOTH LYRS TR SLP166

CYHM;2007-07-29 17:00;CYHM 291700Z 06012KT 15SM FEW030 26/16 A3003 RMK CU1 SLP165

CYHM;2007-07-29 18:00;CYHM 291800Z 06012KT 020V110 15SM FEW035 26/16 A3002 RMK CU1 SLP162

CYHM;2007-07-29 19:00;CYHM 291900Z 06013KT 15SM FEW040 27/14 A3001 RMK CU1 SLP158

CYHM;2007-07-29 20:00;CYHM 292000Z 07013KT 15SM FEW040 FEW070 28/14 A2999 RMK CU1AC1 AC TR SLP154

CYHM;2007-07-29 21:00;CYHM 292100Z 08013KT 15SM FEW040 27/13 A2999 RMK SC1 CU ASOCTD SLP153

CYHM;2007-07-29 22:00;CYHM 292200Z 06011KT 15SM FEW040 27/12 A2998 RMK CU1 CU TR SLP151

CYHM;2007-07-29 23:00;CYHM 292300Z 06010KT 15SM FEW040 26/12 A2998 RMK SC1 SC TR SLP151

CYHM;2007-07-30 00:00;CYHM 300000Z 07008KT 15SM FEW040 24/12 A2998 RMK SC1 SC TR SLP151

CYHM;2007-07-30 01:00;CYHM 300100Z 06005KT 15SM FEW045 FEW200 21/14 A2999 RMK SC1CI1 SC TR CI TR SLP153

CYHM;2007-07-30 02:00;CYHM 300200Z 05006KT 15SM FEW050 FEW200 20/14 A3001 RMK SC1CI1 SC TR CI TR SLP158

CYHM;2007-07-30 03:00;CYHM 300300Z 04004KT 15SM SKC 19/15 A3001 RMK SLP159

CYHM;2007-07-30 04:00;CYHM 300400Z 04005KT 15SM SKC 18/15 A3001 RMK SLP162

CYHM;2007-07-30 05:00;CYHM 300500Z 03004KT 15SM SKC 18/16 A3001 RMK SLP162

CYHM;2007-07-30 06:00;CYHM 300600Z 04005KT 15SM SKC 18/16 A3001 RMK SLP159

CYHM;2007-07-30 07:00;CYHM 300700Z 02005KT 15SM FEW075 17/15 A3001 RMK AC2 SLP159

CYHM;2007-07-30 08:00;CYHM 300800Z 03003KT 15SM FEW075 17/14 A3001 RMK AC2 SLP158

CYHM;2007-07-30 09:00;CYHM 300900Z 02003KT 15SM FEW072 16/13 A3001 RMK AC2 SLP158

CYHM;2007-07-30 10:00;CYHM 301000Z 03005KT 15SM FEW070 16/13 A3001 RMK AC1 SLP160

CYHM;2007-07-30 11:00;CYHM 301100Z 04007KT 15SM FEW100 FEW220 18/13 A3003 RMK AC1CI1 SLP166

CYHM;2007-07-30 12:00;CYHM 301200Z 03006KT 15SM FEW220 20/14 A3003 RMK CI1 SLP167

CYHM;2007-07-30 13:00;CYHM 301300Z 05008KT 15SM FEW100 23/14 A3004 RMK AC1 SLP172

CYHM;2007-07-30 14:00;CYHM 301400Z 05010KT 15SM FEW100 FEW220 25/14 A3004 RMK AC1CI1 SLP172

CYHM;2007-07-30 15:00;CYHM 301500Z 05006KT 15SM FEW030 26/13 A3004 RMK CU1 CU TR SLP171

CYHM;2007-07-30 16:00;CYHM 301600Z 07004KT 15SM FEW030 FEW240 27/12 A3005 RMK CU1CI0 SC ASOCTD SLP173

CYHM;2007-07-30 17:00;CYHM 301700Z 06006KT 15SM FEW030 28/12 A3005 RMK CU2 SLP172

CYHM;2007-07-30 18:00;CYHM 301800Z CCA 17003KT 15SM FEW040 27/12 A3004 RMK CU2 SLP168

CYHM;2007-07-30 19:00;CYHM 301900Z 06004KT 15SM FEW052 FEW250 29/12 A3003 RMK CU1CI1 CI TR SLP165

CYHM;2007-07-30 20:00;CYHM 302000Z 34002KT 15SM FEW058 FEW250 29/12 A3001 RMK CU1CI1 WND L/V CC ASOCTD SLP160

CYHM;2007-07-30 21:00;CYHM 302100Z 31002KT 15SM FEW065 FEW250 29/12 A3000 RMK CU1CI1 WND L/V CI TR SLP157

CYHM;2007-07-30 22:00;CYHM 302200Z 19002KT 15SM FEW070 FEW250 30/12 A3000 RMK AC1CI1 WND L/V CI TR SLP155

CYHM;2007-07-30 23:00;CYHM 302300Z 31002KT 15SM FEW072 29/13 A3000 RMK AC1 WND L/V SLP155

CYHM;2007-07-31 00:00;CYHM 310000Z 19003KT 15SM FEW074 27/13 A3000 RMK AC1 SLP156

CYHM;2007-07-31 01:00;CYHM 310100Z 21004KT 15SM FEW074 FEW250 23/14 A3001 RMK AC1CI1 AC TR CI TR SLP159

CYHM;2007-07-31 02:00;CYHM 310200Z 22002KT 15SM FEW250 22/13 A3002 RMK CI1 CI TR SLP163

CYHM;2007-07-31 03:00;CYHM 310300Z 21004KT 15SM FEW250 20/13 A3003 RMK CI1 CI TR SLP166

CYHM;2007-07-31 04:00;CYHM 310400Z 26004KT 15SM FEW250 21/12 A3004 RMK CI1 CI TR SLP168

CYHM;2007-07-31 05:00;CYHM 310500Z 25004KT 15SM SKC 20/13 A3003 RMK SLP167

CYHM;2007-07-31 06:00;CYHM 310600Z 25005KT 15SM SKC 20/12 A3004 RMK SLP168

CYHM;2007-07-31 07:00;CYHM 310700Z 25005KT 15SM SKC 19/12 A3003 RMK SLP165

CYHM;2007-07-31 08:00;CYHM 310800Z 28005KT 15SM SKC 18/12 A3003 RMK SLP167

CYHM;2007-07-31 09:00;CYHM 310900Z 24003KT 15SM SKC 16/12 A3004 RMK SLP170

CYHM;2007-07-31 10:00;CYHM 311000Z 25003KT 15SM FEW250 16/12 A3004 RMK CI1 CI TR SLP171

CYHM;2007-07-31 11:00;CYHM 311100Z 26004KT 15SM FEW240 17/13 A3005 RMK CI1 SLP172

CYHM;2007-07-31 12:00;CYHM 311200Z 25004KT 15SM FEW070 20/14 A3005 RMK AC1 AC TR SLP172

CYHM;2007-07-31 13:00;CYHM 311300Z 25003KT 15SM FEW100 FEW240 24/15 A3005 RMK AC1CI1 SLP174

CYHM;2007-07-31 14:00;CYHM 311400Z 26007KT 15SM FEW052 BKN094 27/14 A3005 RMK SC2AC4 SLP172

CYHM;2007-07-31 15:00;CYHM 311500Z 27005KT 15SM FEW040 BKN083 BKN100 27/15 A3005 RMK CU2AC4AC2 SC ASOCTD SLP172

CYHM;2007-07-31 16:00;CYHM 311600Z 27004KT 15SM FEW040 FEW057 BKN074 28/15 A3005 RMK CU1SC2AC5 SLP172

CYHM;2007-07-31 17:00;CYHM 311700Z 20005KT 15SM FEW042 SCT062 BKN080 29/16 A3004 RMK CU2SC2AC2 SLP168

CYHM;2007-07-31 18:00;CYHM 311800Z 27007KT 15SM FEW042 FEW090 31/16 A3002 RMK CU1AC2 SLP161

CYHM;2007-07-31 19:00;CYHM 311900Z 27008KT 200V010 15SM BKN065 BKN250 33/17 A3000 RMK SC5CI1 TCU EMBDD CU ASOCTD CI TR SLP155

CYHM;2007-07-31 20:00;CYHM 312000Z 27010KT 200V320 15SM BKN063 33/17 A2998 RMK SC6 TCU EMBDD SLP148

CYHM;2007-07-31 21:00;CYHM 312100Z 00000KT 15SM BKN064 30/19 A2997 RMK SC6 TCU EMBDD SLP147

CYHM;2007-07-31 22:00;CYHM 312200Z 19008KT 15SM BKN060 29/18 A2997 RMK SC7 TCU EMBDD SLP145

CYHM;2007-07-31 23:00;CYHM 312300Z 19005KT 15SM BKN062 BKN250 29/18 A2997 RMK SC5CI1 TCU EMBDD CI TR SLP147

CYHM;2007-08-01 01:00;CYHM 010100Z 19002KT 15SM FEW064 FEW090 26/18 A2999 RMK SC2AC1 AC TR SLP152

CYHM;2007-08-01 02:00;CYHM 010200Z 00000KT 15SM SCT062 23/18 A3000 RMK SC2 SLP156

CYHM;2007-08-01 03:00;CYHM 010300Z 00000KT 15SM FEW062 22/18 A3000 RMK SC1 SLP155

CYHM;2007-08-01 04:00;CYHM 010400Z 00000KT 15SM FEW058 23/18 A3001 RMK SC2 SLP159

CYHM;2007-08-01 05:00;CYHM 010500Z 02005KT 15SM SKC 23/16 A3001 RMK SLP158

CYHM;2007-08-01 06:00;CYHM 010600Z 02005KT 15SM SKC 22/15 A3001 RMK SLP156

CYHM;2007-08-01 07:00;CYHM 010700Z 02005KT 15SM SKC 22/16 A3000 RMK SLP155

CYHM;2007-08-01 08:00;CYHM 010800Z 02004KT 15SM SKC 21/16 A3001 RMK SLP157

CYHM;2007-08-01 09:00;CYHM 010900Z 00000KT 15SM SKC 20/16 A3001 RMK SLP160

CYHM;2007-08-01 10:00;CYHM 011000Z 00000KT 15SM FEW250 20/16 A3003 RMK CI1 CI TR SLP165

CYHM;2007-08-01 11:00;CYHM 011100Z 00000KT 15SM SKC 18/15 A3003 RMK SLP166

CYHM;2007-08-01 12:00;CYHM 011200Z 00000KT 15SM SKC 23/17 A3004 RMK SLP168

CYHM;2007-08-01 13:00;CYHM 011300Z 00000KT 15SM SKC 27/18 A3004 RMK SLP168

CYHM;2007-08-01 14:00;CYHM 011400Z 00000KT 15SM SKC 28/17 A3004 RMK SLP169

CYHM;2007-08-01 15:00;CYHM 011500Z 22002KT 15SM SKC 30/17 A3004 RMK SLP169

CYHM;2007-08-01 16:00;CYHM 011600Z 12003KT 15SM SKC 31/16 A3004 RMK SLP169

CYHM;2007-08-01 17:00;CYHM 011700Z 22006KT 15SM FEW045 32/17 A3003 RMK CU1 CU TR SLP166

CYHM;2007-08-01 18:00;CYHM 011800Z 21005KT 15SM FEW045 32/16 A3002 RMK CU1 SLP162

CYHM;2007-08-01 19:00;CYHM 011900Z 13002KT 15SM FEW052 33/16 A3001 RMK CU1 WND L/V CU TR SLP157

CYHM;2007-08-01 20:00;CYHM 012000Z 20003KT 15SM FEW062 33/18 A3000 RMK CU1 CU TR SLP154

CYHM;2007-08-01 21:00;CYHM 012100Z 23007KT 15SM FEW064 33/17 A2999 RMK CU1 CU TR SLP151

CYHM;2007-08-01 22:00;CYHM 012200Z 20005KT 15SM FEW065 33/16 A2998 RMK CU1 CU TR SLP149

CYHM;2007-08-01 23:00;CYHM 012300Z 21007KT 15SM SKC 32/16 A2998 RMK SLP147

CYHM;2007-08-02 00:00;CYHM 020000Z 19004KT 15SM SKC 29/16 A2998 RMK SLP147

CYHM;2007-08-02 01:00;CYHM 020100Z 22002KT 15SM SKC 26/15 A2998 RMK SLP148

CYHM;2007-08-02 02:00;CYHM 020200Z 21002KT 15SM SKC 24/14 A2999 RMK SLP152

CYHM;2007-08-02 03:00;CYHM 020300Z 24004KT 15SM SKC 23/15 A3000 RMK SLP153

CYHM;2007-08-02 04:00;CYHM 020400Z 25004KT 15SM SKC 21/16 A3000 RMK SLP153

CYHM;2007-08-02 05:00;CYHM 020500Z 25005KT 15SM SKC 22/17 A3000 RMK SLP153

CYHM;2007-08-02 06:00;CYHM 020600Z 26005KT 15SM SKC 22/17 A3000 RMK CONTRAILS SLP155

CYHM;2007-08-02 07:00;CYHM 020700Z 25005KT 15SM SKC 20/16 A3000 RMK SLP155

CYHM;2007-08-02 08:00;CYHM 020800Z 25005KT 15SM SKC 19/16 A3000 RMK SLP155

CYHM;2007-08-02 09:00;CYHM 020900Z 25005KT 15SM FEW260 18/15 A3000 RMK CI1 SLP155

CYHM;2007-08-02 10:00;CYHM 021000Z 26005KT 15SM FEW260 18/15 A3001 RMK CI1 SLP158

CYHM;2007-08-02 11:00;CYHM 021100Z 25004KT 10SM FEW250 18/15 A3002 RMK CI1 CI TR SLP161

CYHM;2007-08-02 12:00;CYHM 021200Z 24004KT 15SM SKC 21/17 A3002 RMK SLP162

CYHM;2007-08-02 13:00;CYHM 021300Z 24005KT 15SM SKC 25/17 A3002 RMK SLP162

CYHM;2007-08-02 14:00;CYHM 021400Z 24007KT 15SM SKC 28/17 A3001 RMK SLP159

CYHM;2007-08-02 15:00;CYHM 021500Z 26008KT 15SM SKC 30/17 A3001 RMK SLP158

CYHM;2007-08-02 16:00;CYHM 021600Z 24006KT 15SM SKC 31/16 A3001 RMK SLP156

CYHM;2007-08-02 17:00;CYHM 021700Z 18004KT 15SM SKC 32/17 A3000 RMK SLP153

CYHM;2007-08-02 18:00;CYHM 021800Z 18007KT 15SM FEW048 33/17 A2998 RMK CU1 CU TR SLP149

CYHM;2007-08-02 19:00;CYHM 021900Z 19008KT 150V330 15SM SCT062 34/18 A2997 RMK CU4 SLP145

CYHM;2007-08-02 20:00;CYHM 022000Z 19013KT 140V230 15SM FEW062 FEW230 34/18 A2995 RMK CU1CI1 SLP138

CYHM;2007-08-02 21:00;CYHM 022100Z 20012KT 15SM FEW062 BKN250 32/19 A2995 RMK CU1CI6 SLP138

CYHM;2007-08-02 22:00;CYHM 022200Z 20010KT 15SM BKN240 31/19 A2994 RMK CI6 SLP135

CYHM;2007-08-02 23:00;CYHM 022300Z 24012KT 15SM FEW140 BKN240 31/18 A2994 RMK AC1CI2 SLP133

CYHM;2007-08-03 00:00;CYHM 030000Z 21008KT 15SM BKN250 30/18 A2993 RMK CI3 SLP132

CYHM;2007-08-03 01:00;CYHM 030100Z 21009KT 15SM BKN250 27/18 A2993 RMK CI4 SLP131

CYHM;2007-08-03 02:00;CYHM 030200Z 23006KT 15SM FEW250 25/19 A2994 RMK CI1 SLP134

CYHM;2007-08-03 03:00;CYHM 030300Z 22005KT 15SM FEW250 23/19 A2994 RMK CI1 SLP135

CYHM;2007-08-03 04:00;CYHM 030400Z 23005KT 15SM SKC 23/19 A2994 RMK SLP133

CYHM;2007-08-03 05:00;CYHM 030500Z 22005KT 15SM SCT260 22/19 A2994 RMK CI2 SLP135

CYHM;2007-08-03 06:00;CYHM 030600Z 23005KT 15SM SCT260 22/19 A2993 RMK CI2 SLP131

CYHM;2007-08-03 07:00;CYHM 030700Z 23005KT 10SM FEW030 OVC075 22/19 A2993 RMK SC1AS6 SLP129

CYHM;2007-08-03 08:00;CYHM 030800Z 22005KT 8SM -SHRA SCT060TCU BKN120 23/20 A2992 RMK TCU3AC4 SLP126

CYHM;2007-08-03 09:00;CYHM 030900Z 20005KT 10SM FEW130 21/19 A2992 RMK AC2 SLP129

CYHM;2007-08-03 10:00;CYHM 031000Z 23005KT 4SM BR FEW050 20/18 A2993 RMK SC2 SLP131

CYHM;2007-08-03 11:00;CYHM 031100Z 25005KT 6SM HZ FEW050 21/19 A2994 RMK SC1 SLP133

CYHM;2007-08-03 12:00;CYHM 031200Z 25006KT 15SM FEW050 BKN120 BKN160 22/19 A2995 RMK SC1AC5AC1 SC TR SLP137

CYHM;2007-08-03 13:00;CYHM 031300Z 26006KT 15SM SCT130 24/20 A2996 RMK AC3 SLP140

CYHM;2007-08-03 14:00;CYHM 031400Z 29006KT 15SM BKN098 BKN120 27/19 A2996 RMK AC5AC2 SLP141

CYHM;2007-08-03 15:00;CYHM 031500Z 29008KT 15SM FEW025 FEW075 29/20 A2996 RMK CU1AC2 CU TR SLP142

CYHM;2007-08-03 16:00;CYHM 031600Z 27008KT 15SM FEW042 FEW064 30/20 A2996 RMK CU1SC1 SC TR SLP141

CYHM;2007-08-03 17:00;CYHM 031700Z 24008KT 15SM FEW042 FEW060 SCT220 31/20 A2995 RMK CU2SC1CI1 CI TR SLP137

CYHM;2007-08-03 18:00;CYHM 031800Z 29008KT 15SM SCT045 SCT120 31/19 A2994 RMK CU3AC1 SLP134

CYHM;2007-08-03 19:00;CYHM 031900Z 29011KT 250V330 15SM BKN056 32/18 A2993 RMK CU5 SLP130

CYHM;2007-08-03 20:00;CYHM 032000Z 28017KT 230V340 15SM FEW063 33/16 A2991 RMK CU2 SLP126

CYHM;2007-08-03 21:00;CYHM 032100Z 28016KT 15SM FEW065 33/10 A2992 RMK CU1 CB ASOCTD TOP DSNT E SLP127

CYHM;2007-08-03 22:00;CYHM 032200Z 29010KT 15SM FEW065TCU 31/11 A2993 RMK TCU1 CB TOP DSNT E SLP131

CYHM;2007-08-03 23:00;CYHM 032300Z 28010KT 15SM FEW065 FEW250 30/10 A2994 RMK CU1CI1 SLP135

CYHM;2007-08-04 00:00;CYHM 040000Z 29008KT 15SM FEW060 FEW250 27/10 A2995 RMK CU1CI1 SLP140

CYHM;2007-08-04 01:00;CYHM 040100Z 32007KT 15SM SKC 24/10 A2997 RMK SLP144

CYHM;2007-08-04 02:00;CYHM 040200Z 26002KT 15SM SKC 21/10 A2999 RMK SLP153

CYHM;2007-08-04 03:00;CYHM 040300Z 00000KT 15SM SKC 20/09 A3000 RMK SLP155

CYHM;2007-08-04 04:00;CYHM 040400Z 00000KT 15SM SKC 18/10 A3001 RMK SLP158

CYHM;2007-08-04 05:00;CYHM 040500Z 34006KT 15SM SKC 19/10 A3003 RMK SLP165

CYHM;2007-08-04 06:00;CYHM 040600Z 34010KT 15SM SKC 19/11 A3004 RMK SLP168

CYHM;2007-08-04 07:00;CYHM 040700Z 35007KT 15SM SKC 19/10 A3004 RMK SLP167

CYHM;2007-08-04 08:00;CYHM 040800Z 34003KT 15SM SKC 17/11 A3004 RMK SLP170

CYHM;2007-08-04 09:00;CYHM 040900Z 33005KT 15SM SKC 16/11 A3004 RMK SLP169

CYHM;2007-08-04 10:00;CYHM 041000Z 33004KT 15SM FEW220 15/11 A3006 RMK CI1 SLP174

CYHM;2007-08-04 11:00;CYHM 041100Z 33006KT 15SM FEW220 16/11 A3007 RMK CI1 SLP178

CYHM;2007-08-04 12:00;CYHM 041200Z 35007KT 15SM FEW220 18/12 A3007 RMK CI1 SLP182

CYHM;2007-08-04 13:00;CYHM 041300Z 02008KT 330V050 15SM FEW220 20/13 A3010 RMK CI1 SLP189

CYHM;2007-08-04 14:00;CYHM 041400Z 03010KT 360V080 15SM FEW240 22/13 A3010 RMK CI0 SLP191

CYHM;2007-08-04 15:00;CYHM 041500Z 05010KT 020V100 15SM FEW045 FEW250 23/13 A3010 RMK CU1CI0 CU TR SLP192

CYHM;2007-08-04 16:00;CYHM 041600Z 05007KT 350V090 15SM FEW045 FEW250 24/13 A3010 RMK CU1CI0 CU TR SLP192

CYHM;2007-08-04 17:00;CYHM 041700Z 06007KT 350V100 15SM FEW052 FEW250 25/12 A3010 RMK CU1CI0 CU TR SLP191

CYHM;2007-08-04 18:00;CYHM 041800Z 05004KT 280V090 15SM FEW056 FEW250 27/12 A3009 RMK CU1CI0 CU TR SLP188

CYHM;2007-08-04 19:00;CYHM 041900Z 09003KT 15SM FEW055 FEW220 26/11 A3008 RMK CU1CI1 CU TR WND L/V SLP185

CYHM;2007-08-04 20:00;CYHM 042000Z 05006KT 340V090 15SM FEW055 FEW220 27/11 A3007 RMK SC1CI1 SC TR SLP182

CYHM;2007-08-04 21:00;CYHM 042100Z 26005KT 210V300 15SM FEW055 FEW200 28/11 A3006 RMK SC1CI1 SC TR SLP176

CYHM;2007-08-04 23:00;CYHM 042300Z CCA 07007KT 040V110 15SM FEW055 FEW210 27/11 A3005 RMK SC1CI1 SC TR SLP174

CYHM;2007-08-05 00:00;CYHM 050000Z 07007KT 15SM FEW050 FEW210 24/10 A3006 RMK SC1CI1 SC TR SLP178

CYHM;2007-08-05 01:00;CYHM 050100Z 06006KT 15SM FEW050 FEW210 22/10 A3007 RMK SC1CI1 SLP181

CYHM;2007-08-05 02:00;CYHM 050200Z 05003KT 15SM FEW210 21/10 A3008 RMK CI1 SLP185

CYHM;2007-08-05 03:00;CYHM 050300Z 02004KT 15SM SKC 18/10 A3008 RMK SLP186

CYHM;2007-08-05 04:00;CYHM 050400Z 03006KT 15SM FEW260 19/08 A3008 RMK CI1 SLP186

CYHM;2007-08-05 05:00;CYHM 050500Z 03006KT 15SM FEW260 18/09 A3007 RMK CI1 SLP183

CYHM;2007-08-05 06:00;CYHM 050600Z 04006KT 15SM FEW220 17/09 A3007 RMK CI1 SLP181

CYHM;2007-08-05 07:00;CYHM 050700Z 03006KT 15SM FEW220 16/10 A3006 RMK CI1 SLP178

CYHM;2007-08-05 08:00;CYHM 050800Z 03005KT 15SM FEW220 15/10 A3006 RMK CI1 SLP176

CYHM;2007-08-05 09:00;CYHM 050900Z 04004KT 15SM FEW220 15/10 A3006 RMK CI1 SLP177

CYHM;2007-08-05 10:00;CYHM 051000Z 04004KT 15SM FEW220 15/10 A3005 RMK CI1 SLP175

CYHM;2007-08-05 11:00;CYHM 051100Z CCA 05005KT 15SM FEW150 FEW220 15/11 A3005 RMK AC1CI1 AC TR SLP173

CYHM;2007-08-05 12:00;CYHM 051200Z CCA 07005KT 15SM FEW030 FEW220 19/12 A3006 RMK CU1CI1 CU TR SLP176

CYHM;2007-08-05 13:00;CYHM 051300Z 08006KT 15SM FEW150 FEW250 21/14 A3004 RMK AC1CI0 SLP169

CYHM;2007-08-05 14:00;CYHM 051400Z 07008KT 030V130 15SM FEW150 SCT250 24/13 A3001 RMK AC2CI0 SLP162

CYHM;2007-08-05 15:00;CYHM 051500Z 10008KT 15SM FEW150 SCT190 SCT250 25/09 A3000 RMK AC2AC2CI1 SLP156

CYHM;2007-08-05 16:00;CYHM 051600Z 05010KT 15SM FEW150 SCT180 SCT250 26/13 A2997 RMK AC2AC2CI1 SLP145

CYHM;2007-08-05 17:00;CYHM 051700Z 08010KT 15SM FEW170 BKN190 BKN210 26/14 A2995 RMK AC2AC3CI1 SLP141

CYHM;2007-08-05 18:00;CYHM 051800Z 06011KT 15SM BKN150 BKN170 BKN210 25/13 A2994 RMK AC5AC2CI1 SLP138

CYHM;2007-08-05 19:00;CYHM 051900Z 07011KT 030V100 15SM SCT090 BKN120 BKN170 27/14 A2993 RMK AC3AC2AC2 SLP133

CYHM;2007-08-05 19:42;CYHM 051942Z 08008KT 050V110 15SM -SHRA FEW060 BKN090 BKN120 RMK SC2AC3AC2 PCPN VRY LGT

CYHM;2007-08-05 20:00;CYHM 052000Z 07009KT 15SM -SHRA FEW020 SCT060 BKN084 BKN120 24/15 A2991 RMK CF1SC2AC2AC2 PCPN VRY LGT SLP128

CYHM;2007-08-05 21:00;CYHM 052100Z 08008KT 15SM SCT055 OVC076 24/17 A2990 RMK SC3AC5 SLP123

CYHM;2007-08-05 22:00;CYHM 052200Z 18006KT 15SM FEW028 SCT045 OVC057 24/14 A2988 RMK CU1SC2SC5 SLP118

CYHM;2007-08-05 23:00;CYHM 052300Z 20006KT 15SM FEW020 SCT035 OVC046 23/15 A2987 RMK CF1SC3SC5 CF TR SLP113

CYHM;2007-08-05 23:47;CYHM 052347Z 21008KT 9SM -SHRA FEW018 OVC034 RMK CF1SC7

CYHM;2007-08-06 00:00;CYHM 060000Z 19006KT 4SM -SHRA HZ SCT021 OVC028 20/17 A2987 RMK SC3SC5 SLP113

CYHM;2007-08-06 00:38;CYHM 060038Z 17002KT 6SM HZ FEW020 OVC028 RMK SC2SC6

CYHM;2007-08-06 01:00;CYHM 060100Z 19003KT 5SM -SHRA HZ FEW017 OVC023 20/17 A2985 RMK SC2SC6 PCPN VRY LGT SLP106

CYHM;2007-08-06 01:33;CYHM 060133Z 00000KT 2SM -DZ BR FEW006 OVC012 RMK FG1SF2SC6

CYHM;2007-08-06 01:49;CYHM 060149Z 00000KT 4SM -DZ BR OVC008 RMK SF8

CYHM;2007-08-06 02:00;CYHM 060200Z 00000KT 3SM -DZ BR OVC005 20/18 A2984 RMK SF8 VIS VRB 2 - 4 SLP102

CYHM;2007-08-06 02:39;CYHM 060239Z 00000KT 2SM BR OVC004 RMK FG1SF7

CYHM;2007-08-06 03:00;CYHM 060300Z 00000KT 1 1/2SM BR BKN003 OVC016 20/18 A2982 RMK FG2SF5SC2 VIS VRB 1 - 2 SLP094

CYHM;2007-08-06 03:36;CYHM 060336Z 00000KT 1 1/2SM BR FEW003 OVC008 RMK FG2SF1SF6 VIS VRB 1 - 2

CYHM;2007-08-06 04:00;CYHM 060400Z 00000KT 1 1/2SM BR FEW003 OVC012 20/19 A2981 RMK FG2SF1SC6 VIS VRB 1 - 2 SLP090

CYHM;2007-08-06 05:00;CYHM 060500Z 20002KT 1 1/2SM BR SCT008 OVC013 21/19 A2980 RMK FG2SF2SC4 VIS VRB 1 - 2 SLP087

CYHM;2007-08-06 05:22;CYHM 060522Z 00000KT 1 1/2SM BR BKN006 OVC012 RMK FG2SF4SC2 VIS VRB 1 - 2

CYHM;2007-08-06 06:00;CYHM 060600Z 21007KT 1 1/2SM BR OVC006 21/19 A2979 RMK FG2SF6 VIS VRB 1 - 2 SLP084

CYHM;2007-08-06 06:30;CYHM 060630Z 22005KT 1 1/2SM -RA BR FEW002 OVC018 RMK FG2SF1SC6 VIS VRB 1 - 2

CYHM;2007-08-06 07:00;CYHM 060700Z 23004KT 1SM -RA BR SCT002 OVC006 21/20 A2977 RMK FG2SF2SF4 VIS VRB 3/4 - 11/4 SLP079

CYHM;2007-08-06 08:00;CYHM 060800Z 23003KT 1SM -RA BR OVC003 21/20 A2977 RMK FG2SF6 VIS VRB 3/4 - 11/4 SLP077

CYHM;2007-08-06 09:00;CYHM 060900Z 29003KT 1 1/2SM BR OVC003 22/20 A2977 RMK FG2SF6 VIS VRB 1 - 2 SLP079

CYHM;2007-08-06 10:00;CYHM 061000Z 32003KT 1 1/2SM BR OVC002 22/20 A2978 RMK FG2SF6 VIS VRB 1 - 2 SLP082

CYHM;2007-08-06 10:14;CYHM 061014Z 35003KT 1/2SM FG BKN002 OVC008 RMK FG3SF3SC2 VIS VRB 1/4-3/4SM

CYHM;2007-08-06 11:00;CYHM 061100Z CCA 32002KT 1SM BR BKN003 OVC010 21/20 A2978 RMK FG3SF2SC2 VSB VRB 11/14-3/4 SLP083

CYHM;2007-08-06 11:48;CYHM 061148Z 00000KT 2SM BR BKN009 OVC015 RMK FG1SF5SC2

CYHM;2007-08-06 12:00;CYHM 061200Z 29003KT 3SM BR FEW008 BKN011 OVC015 22/20 A2980 RMK SF2SC5SC2 SLP088

CYHM;2007-08-06 13:00;CYHM 061300Z 29003KT 4SM HZ BKN014 OVC018 23/20 A2980 RMK SC6SC2 SLP089

CYHM;2007-08-06 14:00;CYHM 061400Z 27007KT 7SM BKN014 OVC019 23/19 A2981 RMK SC6SC2 SLP093

CYHM;2007-08-06 15:00;CYHM 061500Z 26008KT 15SM BKN016 OVC020 24/19 A2983 RMK SC6SC2 SLP098

CYHM;2007-08-06 16:00;CYHM 061600Z 26008KT 15SM SCT024 27/19 A2983 RMK CU3 SC ASOCTD SLP098

CYHM;2007-08-06 17:00;CYHM 061700Z 26008KT 15SM FEW023 SCT220 27/19 A2982 RMK CU2CI1 SLP097

CYHM;2007-08-06 18:00;CYHM 061800Z 25011KT 15SM FEW023 28/19 A2982 RMK CU1 SLP095

CYHM;2007-08-06 19:00;CYHM 061900Z 25012KT 15SM SCT032 29/19 A2983 RMK CU4 SLP098

CYHM;2007-08-06 20:00;CYHM 062000Z 30007KT 15SM FEW036 30/19 A2982 RMK CU1 SLP095

CYHM;2007-08-06 21:00;CYHM 062100Z 26009KT 15SM FEW040 29/19 A2983 RMK CU1 CU TR SLP097

CYHM;2007-08-06 22:00;CYHM 062200Z 27010KT 15SM FEW040 28/18 A2984 RMK CU1 CU TR SLP099

CYHM;2007-08-06 23:00;CYHM 062300Z 28007KT 15SM FEW040 28/18 A2984 RMK CU1 CU TR SLP101

CYHM;2007-08-07 00:00;CYHM 070000Z 26007KT 15SM FEW250 27/18 A2986 RMK CC2 SLP108

CYHM;2007-08-07 01:00;CYHM 070100Z 28003KT 15SM FEW250 24/18 A2988 RMK CC2 CI ASOCTD SLP114

CYHM;2007-08-07 02:00;CYHM 070200Z 29003KT 15SM FEW250 23/18 A2990 RMK CI1 CI TR SLP120

CYHM;2007-08-07 03:00;CYHM 070300Z 00000KT 15SM FEW250 21/17 A2991 RMK CI1 CI TR SLP124

CYHM;2007-08-07 04:00;CYHM 070400Z 00000KT 15SM FEW250 19/16 A2991 RMK CI1 CI TR SLP124

CYHM;2007-08-07 05:00;CYHM 070500Z 22003KT 15SM FEW250 18/15 A2989 RMK CI1 CI TR SLP119

CYHM;2007-08-07 06:00;CYHM 070600Z 21002KT 15SM FEW250 18/16 A2990 RMK CI1 CI TR SLP121

CYHM;2007-08-07 07:00;CYHM 070700Z 00000KT 12SM FEW250 17/16 A2989 RMK CI1 CI TR SLP120

CYHM;2007-08-07 08:00;CYHM 070800Z 28002KT 12SM MIFG FEW250 17/16 A2989 RMK CC2 SLP120

CYHM;2007-08-07 09:00;CYHM 070900Z 00000KT 12SM FEW250 17/16 A2988 RMK CC2 SLP115

CYHM;2007-08-07 10:00;CYHM 071000Z 02002KT 10SM MIFG FEW250 17/15 A2987 RMK CC1 SLP112

CYHM;2007-08-07 11:00;CYHM 071100Z 05006KT 5SM BR FEW120 SCT220 18/16 A2990 RMK AC1CI2 SLP123

CYHM;2007-08-07 12:00;CYHM 071200Z 04005KT 6SM HZ FEW180 BKN220 21/18 A2990 RMK AC1CI3 SLP123

CYHM;2007-08-07 13:00;CYHM 071300Z 09005KT 10SM SCT150 OVC180 23/17 A2991 RMK AC3AS5 SLP127

CYHM;2007-08-07 14:00;CYHM 071400Z 12006KT 15SM BKN150 OVC180 23/18 A2991 RMK AC6AS2 SLP124

CYHM;2007-08-07 15:00;CYHM 071500Z 08004KT 15SM BKN039 OVC150 23/18 A2991 RMK SC5AC3 SLP124

CYHM;2007-08-07 15:54;CYHM 071554Z 06005KT 7SM -SHRA BKN036 OVC053 RMK SC6SC2

CYHM;2007-08-07 16:00;CYHM 071600Z 07004KT 7SM -SHRA BKN026 OVC043 23/20 A2988 RMK SC6SC2 SLP117

CYHM;2007-08-07 17:00;CYHM 071700Z 05006KT 8SM -SHRA BKN023 OVC054 23/20 A2987 RMK SC5SC3 SLP111

CYHM;2007-08-07 17:28;CYHM 071728Z 12008KT 10SM BKN018 OVC032 RMK SC6SC2

CYHM;2007-08-07 18:00;CYHM 071800Z CCA 12008KT 10SM -SHRA BKN015 BKN035 OVC140 25/21 A2984 RMK SC5SC2AC1 SLP101

CYHM;2007-08-07 19:00;CYHM 071900Z 15005KT 4SM -SHRA BR FEW009 BKN018 BKN044 OVC072 25/22 A2980 RMK SF1SC4SC2AC2 SLP089

CYHM;2007-08-07 19:50;CYHM 071950Z 16005KT 2 1/2SM -SHRA BR FEW009 BKN018 BKN035 OVC050 RMK SF1SC4SC2SC1

CYHM;2007-08-07 20:00;CYHM 072000Z 16004KT 2SM -SHRA BR FEW009 BKN018 BKN028 OVC040 23/21 A2978 RMK SF1SC4SC2SC1 SLP083

CYHM;2007-08-07 20:39;CYHM 072039Z 21005KT 5SM -SHRA BR FEW008 BKN012 OVC018 RMK SF2SC4SC2

CYHM;2007-08-07 21:00;CYHM 072100Z 21007KT 6SM -SHRA BR FEW008 BKN013 OVC022 23/21 A2976 RMK SF2SC5SC2 SLP077

CYHM;2007-08-07 21:24;CYHM 072124Z 21008KT 15SM FEW008 BKN012 OVC020 RMK SF2SC6SC1

CYHM;2007-08-07 22:00;CYHM 072200Z 22010KT 6SM -SHRA BR BKN006 BKN018 BKN034 24/22 A2975 RMK SC5SC2SC1 SLP072

CYHM;2007-08-07 22:42;CYHM 072242Z 22009KT 12SM FEW007 FEW044 BKN070 BKN250 RMK SC1SC2AC2CI0

CYHM;2007-08-07 22:54;CYHM 072254Z 23007KT 6SM BR BKN009 BKN070 BKN120 RMK SC6AC1AC1

CYHM;2007-08-07 23:00;CYHM 072300Z 23007KT 6SM HZ BKN009 BKN070 BKN120 24/22 A2974 RMK SC6AC1AC1 SLP069

CYHM;2007-08-08 00:00;CYHM 080000Z 22009KT 6SM HZ FEW009 BKN056 BKN250 24/22 A2974 RMK SF1SC4CI0 SLP069

CYHM;2007-08-08 01:00;CYHM 080100Z 21008KT 15SM FEW040 BKN078 24/21 A2975 RMK SF1AC6 SLP070

CYHM;2007-08-08 02:00;CYHM 080200Z 25004KT 15SM SCT038 SCT074 23/21 A2974 RMK SC3AC1 LTNG S/E SLP069

CYHM;2007-08-08 03:00;CYHM 080300Z 24003KT 15SM SCT017 23/21 A2972 RMK SC4 SLP062

CYHM;2007-08-08 04:00;CYHM 080400Z 22003KT 15SM FEW006 SCT014 22/21 A2972 RMK SF1SC3 SLP061

CYHM;2007-08-08 05:00;CYHM 080500Z 23002KT 2SM BR FEW024 22/20 A2973 RMK SC2 SLP064

CYHM;2007-08-08 06:00;CYHM 080600Z 25003KT 2SM BR FEW024 22/21 A2972 RMK SC2 SLP060

CYHM;2007-08-08 07:00;CYHM 080700Z 23005KT 1/4SM FG VV002 22/21 A2970 RMK FG8 SLP055

CYHM;2007-08-08 08:00;CYHM 080800Z 25004KT 1SM BR SKC 23/21 A2970 RMK FG6 SLP055

CYHM;2007-08-08 09:00;CYHM 080900Z 24005KT 2 1/4SM BR SCT004 23/21 A2972 RMK SF3 SLP060

CYHM;2007-08-08 10:00;CYHM 081000Z 24005KT 2 1/4SM BR SKC 22/21 A2973 RMK FG1 SLP064

CYHM;2007-08-08 11:00;CYHM 081100Z 26006KT 15SM FEW220 22/21 A2974 RMK CI1 SLP068

CYHM;2007-08-08 12:00;CYHM 081200Z 26009KT 5SM BR FEW220 23/21 A2976 RMK CI1 SLP075

CYHM;2007-08-08 13:00;CYHM 081300Z 28008KT 10SM FEW020 FEW220 24/21 A2977 RMK CU1CI1 CI TR SLP078

CYHM;2007-08-08 14:00;CYHM 081400Z 28008KT 15SM FEW015 FEW019 SCT220 26/21 A2977 RMK CU1SC1CI1 SLP076

CYHM;2007-08-08 15:00;CYHM 081500Z 29010KT 15SM FEW024 SCT240 27/20 A2978 RMK CU1CI1 SLP080

CYHM;2007-08-08 16:00;CYHM 081600Z 29012KT 15SM FEW032 SCT220 29/19 A2978 RMK CU1CI1 SLP082

CYHM;2007-08-08 17:00;CYHM 081700Z 28012KT 15SM FEW035 SCT220 30/18 A2979 RMK CU1CI1 SLP084

CYHM;2007-08-08 18:00;CYHM 081800Z 29011KT 15SM FEW042 SCT220 30/18 A2981 RMK CU1CI2 SLP089

CYHM;2007-08-08 19:00;CYHM 081900Z 28011KT 15SM FEW044 BKN250 30/18 A2982 RMK CU1CI2 CONTRAILS SLP093

CYHM;2007-08-08 20:00;CYHM 082000Z 29012KT 15SM FEW052 SCT250 30/17 A2982 RMK CU1CI2 CONTRAILS SLP094

CYHM;2007-08-08 21:00;CYHM 082100Z 31008KT 15SM FEW054 BKN250 30/17 A2983 RMK CU1CI2 CU TR CONTRAILS SLP097

CYHM;2007-08-08 22:00;CYHM 082200Z 29010KT 15SM FEW056 BKN250 29/16 A2984 RMK CU1CI3 CU TR SLP100

CYHM;2007-08-08 23:00;CYHM 082300Z 30005KT 15SM FEW058 BKN250 27/16 A2985 RMK CU1CI3 CU TR CONTRAILS SLP103

CYHM;2007-08-09 00:00;CYHM 090000Z 31006KT 15SM BKN250 25/16 A2987 RMK CI3 CONTRAILS SLP111

CYHM;2007-08-09 01:00;CYHM 090100Z 26004KT 15SM BKN250 22/16 A2989 RMK CI2 SLP117

CYHM;2007-08-09 02:00;CYHM 090200Z 28004KT 15SM FEW250 21/16 A2991 RMK CI1 SLP124

CYHM;2007-08-09 03:00;CYHM 090300Z 35006KT 15SM FEW250 20/16 A2990 RMK CI1 SLP123

CYHM;2007-08-09 04:00;CYHM 090400Z 35003KT 15SM FEW250 20/16 A2991 RMK CI1 SLP125

CYHM;2007-08-09 05:00;CYHM 090500Z 04003KT 15SM FEW250 18/15 A2991 RMK CI1 SLP124

CYHM;2007-08-09 06:00;CYHM 090600Z 04005KT 15SM SKC 19/15 A2991 RMK SLP123

CYHM;2007-08-09 07:00;CYHM 090700Z 03006KT 15SM FEW100 BKN250 19/15 A2991 RMK AC2CI4 SLP126

CYHM;2007-08-09 08:00;CYHM 090800Z 04005KT 15SM SCT100 BKN250 19/15 A2992 RMK AC3CI2 SLP127

CYHM;2007-08-09 09:00;CYHM 090900Z 05010KT 15SM SCT100 20/17 A2990 RMK AC2 SLP120

CYHM;2007-08-09 10:00;CYHM 091000Z 06011KT 15SM FEW050 BKN100 20/16 A2991 RMK SC2AC2 SLP124

CYHM;2007-08-09 11:00;CYHM 091100Z 05013KT 15SM FEW050 BKN085 BKN150 20/16 A2992 RMK SC2AC4AC2 SLP129

CYHM;2007-08-09 12:00;CYHM 091200Z 06011KT 15SM FEW025 SCT100 BKN150 20/16 A2994 RMK CU1AC3AC3 SLP137

CYHM;2007-08-09 13:00;CYHM 091300Z 06011KT 15SM FEW025 BKN130 BKN160 21/16 A2993 RMK CU1AC5AC2 SLP132

CYHM;2007-08-09 14:00;CYHM 091400Z 06012KT 15SM FEW025 BKN120 OVC150 21/16 A2993 RMK CU1AC6AC2 CU TR SLP132

CYHM;2007-08-09 15:00;CYHM 091500Z 08006KT 15SM FEW025 BKN093 OVC130 21/16 A2993 RMK SC1AC6AC2 SLP132

CYHM;2007-08-09 16:00;CYHM 091600Z 07008KT 15SM -SHRA FEW025 BKN073 OVC120 21/16 A2994 RMK SC1AC6AC2 SLP135

CYHM;2007-08-09 16:05;CYHM 091605Z 06009KT 15SM -SHRA FEW025 BKN057 OVC090 RMK SC1SC4AC3

CYHM;2007-08-09 17:00;CYHM 091700Z 07006KT 5SM -SHRA BKN029 OVC062 20/18 A2993 RMK SC6SC2 SLP134

CYHM;2007-08-09 17:37;CYHM 091737Z 06008KT 6SM -RA BR SCT030 OVC052 RMK SC4SC4

CYHM;2007-08-09 17:45;CYHM 091745Z 07008KT 6SM -RA BR SCT006 BKN010 OVC052 RMK SF3SC2SC3

CYHM;2007-08-09 18:00;CYHM 091800Z 06010KT 4SM -RA BR FEW006 BKN016 OVC049 20/18 A2990 RMK SF2SC3SC2 SLP125

CYHM;2007-08-09 18:31;CYHM 091831Z 07009KT 7SM -RA BKN005 BKN016 OVC041 RMK CF5SC1SC2

CYHM;2007-08-09 19:00;CYHM 091900Z 08008KT 15SM -RA SCT006 BKN014 OVC041 20/18 A2990 RMK CF3SC3SC2 SLP123

CYHM;2007-08-09 20:00;CYHM 092000Z 05006KT 15SM -RA SCT009 OVC038 20/18 A2988 RMK CF3SC5 PCPN VRY LGT SLP118

CYHM;2007-08-09 21:00;CYHM 092100Z 04010KT 12SM FEW008 OVC034 20/18 A2985 RMK CF2SC6 SLP107

CYHM;2007-08-09 21:53;CYHM 092153Z CCA 04011KT 7SM BKN003 OVC034 RMK SF6SC2

CYHM;2007-08-09 22:00;CYHM 092200Z 04011KT 7SM BKN003 OVC035 20/18 A2986 RMK SF5SC3 SLP110

CYHM;2007-08-09 22:14;CYHM 092214Z 05006KT 12SM FEW003 OVC035 RMK SF1SC7

CYHM;2007-08-09 23:00;CYHM 092300Z 03008KT 12SM FEW005 OVC033 20/18 A2986 RMK SF1SC7 SLP111

CYHM;2007-08-10 00:00;CYHM 100000Z 03008KT 12SM FEW006 OVC032 20/18 A2985 RMK SF1SC7 SLP106

CYHM;2007-08-10 01:00;CYHM 100100Z 05007KT 15SM BKN033 OVC045 20/17 A2984 RMK SC7SC1 SLP105

CYHM;2007-08-10 02:00;CYHM 100200Z 04008KT 15SM OVC034 20/17 A2986 RMK SC8 SLP111

CYHM;2007-08-10 03:00;CYHM 100300Z 03008KT 15SM OVC036 20/17 A2988 RMK SC8 SLP115

CYHM;2007-08-10 04:00;CYHM 100400Z 04009KT 15SM SCT033 OVC042 20/16 A2986 RMK SC4SC4 SLP111

CYHM;2007-08-10 05:00;CYHM 100500Z 04010KT 15SM OVC035 20/16 A2986 RMK SC8 SLP110

CYHM;2007-08-10 06:00;CYHM 100600Z 05011KT 15SM BKN036 OVC047 20/16 A2986 RMK SC7SC1 SLP109

CYHM;2007-08-10 07:00;CYHM 100700Z 05009KT 15SM OVC040 20/16 A2986 RMK SC8 SLP110

CYHM;2007-08-10 08:00;CYHM 100800Z 04007KT 15SM FEW013 BKN037 BKN120 19/15 A2986 RMK CF2SC4AC1 SLP111

CYHM;2007-08-10 09:00;CYHM 100900Z 04004KT 15SM FEW013 OVC050 18/15 A2986 RMK CF2SC6 SLP111

CYHM;2007-08-10 10:00;CYHM 101000Z 02003KT 15SM FEW013 FEW047 17/14 A2988 RMK CF1SC2 SLP115

CYHM;2007-08-10 11:00;CYHM 101100Z 03004KT 15SM BKN013 BKN046 18/14 A2990 RMK SC6SC2 SLP124

CYHM;2007-08-10 12:00;CYHM 101200Z CCA 01004KT 15SM FEW016 FEW100 19/13 A2991 RMK SC1AC1 SLP129

CYHM;2007-08-10 13:00;CYHM 101300Z 03005KT 15SM FEW045 20/13 A2992 RMK SC2 SLP132

CYHM;2007-08-10 14:00;CYHM 101400Z 35010KT 15SM FEW025 FEW100 FEW220 22/15 A2993 RMK CU1AC1CI1 SLP134

CYHM;2007-08-10 15:00;CYHM 101500Z 35004KT 15SM FEW025 24/14 A2993 RMK CU1 SLP132

CYHM;2007-08-10 16:00;CYHM 101600Z 02003KT 15SM FEW025 FEW220 25/14 A2992 RMK CU1CI1 SLP131

CYHM;2007-08-10 17:00;CYHM 101700Z 32007KT 15SM SCT030 BKN052 26/14 A2991 RMK CU3SC2 SLP128

CYHM;2007-08-10 18:00;CYHM 101800Z 33006KT 15SM BKN052 27/14 A2991 RMK CU5 SC ASOCTD SLP126

CYHM;2007-08-10 19:00;CYHM 101900Z 34007KT 270V050 15SM FEW057 BKN068 28/14 A2991 RMK CU2AC3 SLP125

CYHM;2007-08-10 20:00;CYHM 102000Z 33008KT 270V040 15SM BKN058 BKN069 28/14 A2990 RMK SC5AC2 SLP123

CYHM;2007-08-10 21:00;CYHM 102100Z 33006KT 280V030 15SM BKN061 BKN083 27/14 A2990 RMK SC5AC2 SLP121

CYHM;2007-08-10 22:00;CYHM 102200Z 01004KT 15SM FEW058 BKN085 27/14 A2990 RMK SC2AC3 SLP122

CYHM;2007-08-10 23:00;CYHM 102300Z 06003KT 15SM FEW063 SCT085 27/14 A2990 RMK SC2AC2 SLP123

CYHM;2007-08-11 00:00;CYHM 110000Z 16005KT 15SM BKN061 BKN083 25/17 A2992 RMK SC5AC2 SLP131

CYHM;2007-08-11 01:00;CYHM 110100Z 17005KT 15SM BKN060 BKN084 23/18 A2994 RMK SC6AC1 SLP137

CYHM;2007-08-11 02:00;CYHM 110200Z 02002KT 15SM FEW036 FEW058 BKN083 23/18 A2997 RMK CU2SC1AC2 SLP148

CYHM;2007-08-11 03:00;CYHM 110300Z 03007KT 15SM FEW090 21/13 A2997 RMK AC1 SLP148

CYHM;2007-08-11 04:00;CYHM 110400Z 02006KT 15SM FEW250 19/13 A2997 RMK CI1 SLP147

CYHM;2007-08-11 05:00;CYHM 110500Z 01003KT 15SM FEW250 19/13 A2998 RMK CI1 SLP149

CYHM;2007-08-11 06:00;CYHM 110600Z 01006KT 15SM BKN059 20/13 A2998 RMK SC6 SLP151

CYHM;2007-08-11 07:00;CYHM 110700Z 35005KT 15SM FEW070 18/13 A3000 RMK AC1 SLP155

CYHM;2007-08-11 08:00;CYHM 110800Z 34004KT 15SM FEW070 17/13 A3000 RMK AC1 SLP157

CYHM;2007-08-11 09:00;CYHM 110900Z 01003KT 15SM SKC 16/13 A3000 RMK SLP156

CYHM;2007-08-11 10:00;CYHM 111000Z 36004KT 15SM FEW070 FEW250 17/13 A3002 RMK AC1CI1 TR AC SLP164

CYHM;2007-08-11 11:00;CYHM 111100Z 01006KT 15SM FEW080 FEW250 18/14 A3004 RMK AC1CI0 AC TR SLP171

CYHM;2007-08-11 12:00;CYHM 111200Z 02007KT 15SM FEW080 FEW250 20/14 A3006 RMK AC1CI0 AC TR SLP177

CYHM;2007-08-11 13:00;CYHM 111300Z 02008KT 15SM FEW250 23/15 A3007 RMK CI0 SLP180

CYHM;2007-08-11 14:00;CYHM 111400Z 04007KT 15SM FEW250 24/15 A3009 RMK CI0 SLP186

CYHM;2007-08-11 15:00;CYHM 111500Z 03007KT 360V090 15SM FEW044 FEW250 26/15 A3010 RMK CU1CI0 CU TR SLP190

CYHM;2007-08-11 16:00;CYHM 111600Z 04007KT 15SM FEW050 FEW250 27/15 A3009 RMK CU1CI0 SLP187

CYHM;2007-08-11 17:00;CYHM 111700Z 07007KT 350V110 15SM FEW052 FEW250 27/13 A3009 RMK CU1CI1 CU TR SLP187

CYHM;2007-08-11 18:00;CYHM 111800Z 07006KT 320V130 15SM FEW060 FEW250 29/12 A3009 RMK CU1CI1 SLP187

CYHM;2007-08-11 19:00;CYHM 111900Z 07006KT 020V120 15SM FEW060 BKN240 29/12 A3010 RMK CU1CI2 SLP188

CYHM;2007-08-11 20:00;CYHM 112000Z 06009KT 15SM FEW060 SCT240 29/11 A3008 RMK CU1CI2 SLP183

CYHM;2007-08-11 21:00;CYHM 112100Z 05005KT 020V090 15SM FEW060 SCT240 29/08 A3007 RMK CU1CI2 CU TR SLP180

CYHM;2007-08-11 22:00;CYHM 112200Z 07005KT 040V110 15SM FEW060 SCT240 29/08 A3005 RMK SC1CI2 SC TR SLP175

CYHM;2007-08-11 23:00;CYHM 112300Z 09005KT 060V120 15SM FEW060 SCT240 28/06 A3005 RMK SC1CI2 SC TR SLP175

CYHM;2007-08-12 00:00;CYHM 120000Z 11003KT 15SM FEW060 SCT240 25/07 A3007 RMK SC1CC2 SC TR SLP179

CYHM;2007-08-12 01:00;CYHM 120100Z 21004KT 15SM BKN250 23/14 A3008 RMK CC3 SLP183

CYHM;2007-08-12 02:00;CYHM 120200Z 20005KT 15SM FEW220 21/14 A3009 RMK CI2 SLP186

CYHM;2007-08-12 03:00;CYHM 120300Z 25004KT 15SM SCT100 BKN250 21/14 A3009 RMK AC3CI2 SLP187

CYHM;2007-08-12 04:00;CYHM 120400Z 25004KT 15SM FEW100 FEW250 20/13 A3009 RMK AC1CI1 SLP187

CYHM;2007-08-12 05:00;CYHM 120500Z 24004KT 15SM FEW250 18/13 A3009 RMK CI2 SLP187

CYHM;2007-08-12 06:00;CYHM 120600Z 24003KT 15SM FEW250 17/13 A3007 RMK CI2 SLP182

CYHM;2007-08-12 07:00;CYHM 120700Z 26002KT 15SM FEW250 16/13 A3007 RMK CI2 SLP182

CYHM;2007-08-12 08:00;CYHM 120800Z 21003KT 15SM BKN250 16/13 A3007 RMK CI5 SLP181

CYHM;2007-08-12 09:00;CYHM 120900Z 26004KT 15SM FEW250 15/13 A3008 RMK CI2 SLP184

CYHM;2007-08-12 10:00;CYHM 121000Z 25003KT 15SM FEW100 FEW250 15/13 A3007 RMK AC2CI1 SLP180

CYHM;2007-08-12 11:00;CYHM 121100Z 21002KT 15SM SCT250 15/14 A3007 RMK CI2 CC ASOCTD SLP179

CYHM;2007-08-12 12:00;CYHM 121200Z 24003KT 15SM SCT250 18/15 A3007 RMK CI2 CC ASOCTD SLP179

CYHM;2007-08-12 13:00;CYHM 121300Z 25006KT 15SM FEW100 SCT250 21/16 A3007 RMK AC1CI2 AC TR SLP179

CYHM;2007-08-12 14:00;CYHM 121400Z 24013KT 15SM FEW030 FEW100 SCT250 24/19 A3007 RMK CU1AC1CI1 SLP181

CYHM;2007-08-12 15:00;CYHM 121500Z 25014KT 15SM FEW028 BKN250 26/18 A3005 RMK CU2CI2 SLP173

CYHM;2007-08-12 16:00;CYHM 121600Z 25008KT 210V300 15SM FEW045 BKN160 BKN250 28/17 A3004 RMK SC2AC3CI1 CU ASOCTD SLP170

CYHM;2007-08-12 17:00;CYHM 121700Z 28008KT 15SM BKN048 OVC065 27/17 A3004 RMK SC6SC2 SLP169

CYHM;2007-08-12 17:38;CYHM 121738Z 27009KT 15SM -SHRA SCT033 OVC045 RMK CU3SC5

CYHM;2007-08-12 18:00;CYHM 121800Z 29009KT 260V330 12SM -SHRA SCT033 BKN045 OVC090 23/18 A3006 RMK CU3SC4AC1 SLP177

CYHM;2007-08-12 19:00;CYHM 121900Z 28005KT 7SM -SHRA SCT035 BKN055 BKN074 OVC130 22/20 A3004 RMK SC3SC2AC2AC2 HZ SLP173

CYHM;2007-08-12 20:00;CYHM 122000Z 21005KT 7SM -SHRA SCT035 BKN070 OVC092 22/19 A3004 RMK SC4AC2AC2 HZ SLP170

CYHM;2007-08-12 21:00;CYHM 122100Z 23004KT 200V270 7SM -SHRA FEW025 BKN054 BKN070 OVC100 22/19 A3004 RMK CU2SC4AC2AC1 HZ PCPN VRY LGT SLP174

CYHM;2007-08-12 21:38;CYHM 122138Z 22006KT 8SM FEW025 BKN055 BKN100 BKN250 RMK CU2SC3AC1CI1 HZ

CYHM;2007-08-12 22:00;CYHM 122200Z 21006KT 9SM FEW011 SCT024 BKN058 BKN100 BKN230 23/19 A3003 RMK CF2CU1SC2AC2CI1 SLP168

CYHM;2007-08-12 23:00;CYHM 122300Z 21008KT 10SM FEW012 SCT020 BKN100 23/20 A3001 RMK CF2CU2AC2 SLP164

CYHM;2007-08-13 00:00;CYHM 130000Z 21007KT 12SM FEW020 FEW040 FEW100 22/19 A3001 RMK CU1SC1AC1 SLP160

CYHM;2007-08-13 01:00;CYHM 130100Z 20005KT 12SM FEW020 SCT040 21/18 A3001 RMK CF1SC2 SLP159

CYHM;2007-08-13 02:00;CYHM 130200Z 22005KT 12SM FEW038 20/18 A3001 RMK SC2 SLP160

CYHM;2007-08-13 03:00;CYHM 130300Z 24004KT 15SM FEW057 FEW250 20/18 A3001 RMK SC1CI1 SLP158

CYHM;2007-08-13 04:00;CYHM 130400Z 26005KT 10SM FEW054 FEW250 20/18 A3001 RMK SC1CI1 SLP161

CYHM;2007-08-13 05:00;CYHM 130500Z 28004KT 12SM FEW023 19/17 A3002 RMK SC1 SLP163

CYHM;2007-08-13 06:00;CYHM 130600Z 28005KT 15SM SKC 18/15 A3001 RMK SLP162

CYHM;2007-08-13 07:00;CYHM 130700Z 29005KT 15SM SKC 17/13 A3000 RMK SLP157

CYHM;2007-08-13 08:00;CYHM 130800Z 28005KT 15SM SKC 16/13 A3000 RMK SLP158

CYHM;2007-08-13 09:00;CYHM 130900Z 30008KT 15SM SKC 16/13 A3000 RMK SLP157

CYHM;2007-08-13 10:00;CYHM 131000Z 29007KT 15SM FEW090 FEW220 16/13 A3000 RMK AC1CI1 TR AC SLP158

CYHM;2007-08-13 11:00;CYHM 131100Z 22007KT 15SM FEW220 15/13 A3002 RMK CI1 SLP164

CYHM;2007-08-13 12:00;CYHM 131200Z 33006KT 15SM FEW220 18/14 A3004 RMK CI1 SLP170

CYHM;2007-08-13 13:00;CYHM 131300Z 01008KT 15SM SKC 20/15 A3005 RMK SLP174

CYHM;2007-08-13 14:00;CYHM 131400Z 05011KT 15SM SKC 23/14 A3005 RMK SLP174

CYHM;2007-08-13 15:00;CYHM 131500Z 22003KT 15SM FEW035 25/12 A3005 RMK CU1 SLP175

CYHM;2007-08-13 16:00;CYHM 131600Z 31007KT 15SM FEW045 26/11 A3005 RMK CU2 SLP175

CYHM;2007-08-13 17:00;CYHM 131700Z 02008KT 15SM SCT058 25/11 A3004 RMK CU3 SLP172

CYHM;2007-08-13 18:00;CYHM 131800Z 34008KT 15SM FEW058 27/11 A3004 RMK CU2 SLP168

CYHM;2007-08-13 19:00;CYHM 131900Z 30007KT 250V330 15SM FEW055 27/11 A3002 RMK SC1 SLP163

CYHM;2007-08-13 20:00;CYHM 132000Z 30009KT 260V340 15SM FEW062 27/11 A3001 RMK CU2 SLP161

CYHM;2007-08-13 21:00;CYHM 132100Z 30008KT 260V330 15SM FEW064 27/09 A3001 RMK CU1 SLP160

CYHM;2007-08-13 22:00;CYHM 132200Z 32010KT 15SM FEW064 27/09 A3001 RMK CU1 CU TR SLP159

CYHM;2007-08-13 23:00;CYHM 132300Z 31011KT 280V350 15SM SKC 25/08 A3001 RMK SLP160

CYHM;2007-08-14 00:00;CYHM 140000Z 31010KT 15SM FEW050 22/08 A3002 RMK CU1 CU TR SLP163

CYHM;2007-08-14 01:00;CYHM 140100Z 31007KT 15SM FEW050 20/08 A3003 RMK CU1 CU TR SLP168

CYHM;2007-08-14 02:00;CYHM 140200Z 31006KT 15SM SKC 17/08 A3005 RMK SLP175

CYHM;2007-08-14 03:00;CYHM 140300Z 31005KT 15SM SKC 16/08 A3005 RMK SLP175

CYHM;2007-08-14 04:00;CYHM 140400Z 33008KT 15SM SKC 16/08 A3004 RMK SLP170

CYHM;2007-08-14 05:00;CYHM 140500Z 34010KT 15SM SKC 16/08 A3002 RMK SLP166

CYHM;2007-08-14 06:00;CYHM 140600Z 29002KT 15SM SKC 14/08 A3002 RMK SLP164

CYHM;2007-08-14 07:00;CYHM 140700Z 23004KT 15SM SKC 12/08 A3004 RMK SLP171

CYHM;2007-08-14 08:00;CYHM 140800Z 23004KT 15SM SKC 11/08 A3003 RMK SLP166

CYHM;2007-08-14 09:00;CYHM 140900Z 29003KT 15SM FEW220 10/08 A3003 RMK CI1 SLP167

CYHM;2007-08-14 10:00;CYHM 141000Z 27002KT 15SM FEW220 09/07 A3004 RMK CI2 SLP170

CYHM;2007-08-14 11:00;CYHM 141100Z 36003KT 15SM BKN220 11/09 A3004 RMK CI3 SLP173

CYHM;2007-08-14 12:00;CYHM 141200Z 22002KT 15SM BKN210 13/10 A3005 RMK CI6 SLP176

CYHM;2007-08-14 13:00;CYHM 141300Z 23002KT 15SM BKN220 16/11 A3006 RMK CI6 SLP178

CYHM;2007-08-14 14:00;CYHM 141400Z 22006KT 15SM SCT220 20/11 A3005 RMK CI2 SLP176

CYHM;2007-08-14 15:00;CYHM 141500Z 22003KT 15SM FEW220 22/11 A3004 RMK CI1 SLP173

CYHM;2007-08-14 16:00;CYHM 141600Z 23012KT 15SM FEW180 SCT220 24/09 A3003 RMK AC1CI1 SLP167

CYHM;2007-08-14 17:00;CYHM 141700Z 25011KT 15SM FEW045 FEW220 25/09 A3000 RMK CU1CI1 CU TR SLP158

CYHM;2007-08-14 18:00;CYHM 141800Z 20012KT 15SM FEW045 FEW160 FEW220 26/10 A2998 RMK CU1AC1CI1 CU TR SLP151

CYHM;2007-08-14 19:00;CYHM 141900Z 21010KT 180V240 15SM FEW050 FEW100 BKN150 26/12 A2996 RMK CU1AC1AC2 SLP145

CYHM;2007-08-14 20:00;CYHM 142000Z 24010KT 210V280 15SM FEW050 SCT150 27/11 A2992 RMK CU1AC2 CU TR SLP132

CYHM;2007-08-14 21:00;CYHM 142100Z 23011KT 190V260 15SM BKN140 BKN210 26/11 A2991 RMK AC4CI1 CI TR SLP126

CYHM;2007-08-14 22:00;CYHM 142200Z 21011KT 15SM FEW050 FEW140 26/13 A2988 RMK SC1AC1 SC TR SLP117

CYHM;2007-08-14 23:00;CYHM 142300Z 22013KT 15SM FEW100 FEW140 24/12 A2986 RMK AC1AC1 SLP112

CYHM;2007-08-15 00:00;CYHM 150000Z 22010KT 15SM FEW100 FEW140 FEW220 22/14 A2987 RMK AC1AC1CI1 CI TR SLP114

CYHM;2007-08-15 01:00;CYHM 150100Z 21009KT 15SM FEW070 FEW100 SCT140 21/12 A2987 RMK AC1AC1AC2 SLP114

CYHM;2007-08-15 02:00;CYHM 150200Z 22008KT 15SM FEW070 FEW140 19/12 A2987 RMK AC1AC1 SLP114

CYHM;2007-08-15 03:00;CYHM 150300Z 22008KT 15SM BKN069 BKN140 19/13 A2986 RMK AC5AC1 SLP109

CYHM;2007-08-15 04:00;CYHM 150400Z 21008KT 15SM BKN049 BKN067 20/14 A2986 RMK SC6AC1 SLP109

CYHM;2007-08-15 05:00;CYHM 150500Z 22009KT 15SM FEW047 20/15 A2984 RMK SC2 SLP105

CYHM;2007-08-15 06:00;CYHM 150600Z 23008KT 15SM BKN053 21/16 A2984 RMK SC7 SLP101

CYHM;2007-08-15 07:00;CYHM 150700Z 25008KT 15SM BKN026 BKN052 22/16 A2984 RMK SC5SC2 SLP101

CYHM;2007-08-15 08:00;CYHM 150800Z 28008KT 15SM FEW140 20/16 A2985 RMK AC1 SLP106

CYHM;2007-08-15 09:00;CYHM 150900Z 30007KT 15SM FEW140 19/13 A2987 RMK AC1 SLP111

CYHM;2007-08-15 10:00;CYHM 151000Z 28005KT 15SM FEW140 BKN210 18/13 A2988 RMK AC2CC2 SLP117

CYHM;2007-08-15 11:00;CYHM 151100Z 26004KT 15SM BKN160 BKN220 18/13 A2991 RMK AC5CI1 SLP124

CYHM;2007-08-15 12:00;CYHM 151200Z 26006KT 15SM SCT130 BKN160 BKN220 18/13 A2992 RMK AC3AC2CI2 SLP129

CYHM;2007-08-15 13:00;CYHM 151300Z 28007KT 15SM BKN140 BKN220 19/14 A2994 RMK AC6CI2 SLP138

CYHM;2007-08-15 14:00;CYHM 151400Z 33008KT 15SM BKN160 BKN220 20/14 A2996 RMK AC5CI2 SLP142

CYHM;2007-08-15 15:00;CYHM 151500Z 32006KT 15SM SCT160 BKN230 22/14 A2996 RMK AC3CI2 SLP144

CYHM;2007-08-15 16:00;CYHM 151600Z 30008KT 15SM SCT220 24/12 A2996 RMK CI2 SLP145

CYHM;2007-08-15 17:00;CYHM 151700Z 31012KT 15SM BKN220 26/12 A2996 RMK CI3 SLP145

CYHM;2007-08-15 18:00;CYHM 151800Z 33008KT 15SM FEW025 FEW160 BKN220 26/11 A2997 RMK CU1AC1CI3 CU TR SLP144

CYHM;2007-08-15 19:00;CYHM 151900Z 28008KT 240V320 15SM FEW040 SCT170 BKN220 26/12 A2996 RMK CU1AC2CI4 SLP143

CYHM;2007-08-15 20:00;CYHM 152000Z 29008KT 260V330 15SM FEW040 FEW170 OVC230 26/12 A2996 RMK CU1AC2CI5 CU TR SLP141

CYHM;2007-08-15 21:00;CYHM 152100Z 27007KT 240V300 15SM FEW140 OVC170 25/12 A2996 RMK AC2AC6 SLP142

CYHM;2007-08-15 22:00;CYHM 152200Z 26006KT 15SM FEW060 SCT130 OVC160 24/12 A2995 RMK SC1AC3AC5 SC TR SLP139

CYHM;2007-08-15 23:00;CYHM 152300Z 26004KT 15SM SCT110 OVC140 23/13 A2995 RMK AC4AC4 SLP139

CYHM;2007-08-16 00:00;CYHM 160000Z 22003KT 15SM SCT100 OVC130 22/13 A2995 RMK AC3AC5 SLP140

CYHM;2007-08-16 01:00;CYHM 160100Z 20006KT 15SM SCT090 OVC120 21/14 A2995 RMK AC3AC5 SLP140

CYHM;2007-08-16 02:00;CYHM 160200Z 19004KT 15SM SCT085 OVC110 20/14 A2996 RMK AC3AC5 SLP143

CYHM;2007-08-16 03:00;CYHM 160300Z 24005KT 15SM BKN120 20/15 A2996 RMK AC7 SLP145

CYHM;2007-08-16 04:00;CYHM 160400Z 24002KT 15SM FEW050 SCT110 BKN150 19/15 A2995 RMK SC2AC2AC2 SLP140

CYHM;2007-08-16 05:00;CYHM 160500Z 00000KT 15SM FEW050 SCT078 BKN110 19/15 A2993 RMK SC1AC2AC2 SLP134

CYHM;2007-08-16 06:00;CYHM 160600Z 17003KT 15SM FEW030 SCT090 BKN130 19/15 A2991 RMK SC2AC2AC1 SLP125

CYHM;2007-08-16 07:00;CYHM 160700Z 00000KT 15SM FEW030 SCT140 19/15 A2989 RMK SC2AC2 SLP118

CYHM;2007-08-16 08:00;CYHM 160800Z 19005KT 15SM FEW030 FEW080 FEW140 18/14 A2987 RMK SC1AC1AC1 SLP113

CYHM;2007-08-16 09:00;CYHM 160900Z 20004KT 15SM FEW130 18/15 A2986 RMK AC2 SLP110

CYHM;2007-08-16 10:00;CYHM 161000Z 20002KT 15SM SCT130 17/15 A2986 RMK AC4 SLP108

CYHM;2007-08-16 11:00;CYHM 161100Z 22006KT 15SM FEW100 BKN140 19/16 A2986 RMK AC2AC4 SLP108

CYHM;2007-08-16 12:00;CYHM 161200Z 22007KT 15SM FEW100 FEW140 SCT220 20/18 A2986 RMK AC1AC1CI2 SLP110

CYHM;2007-08-16 13:00;CYHM 161300Z 22008KT 15SM FEW029 BKN120 BKN220 24/20 A2986 RMK SC1AC4CI1 SLP108

CYHM;2007-08-16 13:05;CYHM 161305Z 22009KT 15SM BKN013 BKN120 RMK SC5AC2

CYHM;2007-08-16 14:00;CYHM 161400Z 24010KT 15SM FEW020 FEW240 25/20 A2985 RMK CU1CI1 CU TR CI TR SLP107

CYHM;2007-08-16 15:00;CYHM 161500Z 25008KT 15SM FEW022 BKN061 BKN170 26/20 A2986 RMK CU2SC4AC1 SLP109

CYHM;2007-08-16 16:00;CYHM 161600Z 28013KT 15SM FEW032 SCT058 BKN082 BKN210 28/20 A2986 RMK CU2SC2AC2CI0 CI TR SLP110

CYHM;2007-08-16 17:00;CYHM 161700Z 30013KT 15SM FEW032 FEW062 SCT100 BKN220 28/19 A2985 RMK CU2SC1AC2CI1 SLP106

CYHM;2007-08-16 18:00;CYHM 161800Z 28011KT 15SM SCT032 BKN044 29/18 A2985 RMK CU3SC4 SLP105

CYHM;2007-08-16 19:00;CYHM 161900Z 29013KT 240V330 15SM FEW032 BKN041 BKN240 28/18 A2985 RMK CU1SC5CS2 SLP106

CYHM;2007-08-16 20:00;CYHM 162000Z 28012G18KT 230V320 15SM BKN042 BKN240 29/17 A2986 RMK SC5CI1 CU ASOCTD SLP109

CYHM;2007-08-16 21:00;CYHM 162100Z 28012G17KT 15SM FEW047 BKN250 27/14 A2988 RMK CU1CI3 SLP117

CYHM;2007-08-16 22:00;CYHM 162200Z 30009G15KT 250V330 15SM FEW055 BKN250 27/11 A2990 RMK CU1CI3 CU TR SLP122

CYHM;2007-08-16 23:00;CYHM 162300Z 29010KT 15SM FEW055 FEW170 BKN250 25/09 A2991 RMK CU1AC1CI3 CU TR SLP126

CYHM;2007-08-17 00:00;CYHM 170000Z 30004KT 15SM FEW170 BKN250 23/08 A2992 RMK AC1CI2 SLP130

CYHM;2007-08-17 01:00;CYHM 170100Z 29003KT 15SM FEW150 FEW250 20/09 A2992 RMK AC1CI1 SLP131

CYHM;2007-08-17 02:00;CYHM 170200Z 30003KT 15SM SKC 18/09 A2993 RMK SLP133

CYHM;2007-08-17 03:00;CYHM 170300Z 32004KT 15SM SKC 17/09 A2995 RMK SLP139

CYHM;2007-08-17 04:00;CYHM 170400Z 34006KT 15SM FEW210 16/06 A2995 RMK CI1 SLP141

CYHM;2007-08-17 05:00;CYHM 170500Z 32005KT 15SM FEW220 15/04 A2998 RMK CI1 SLP149

CYHM;2007-08-17 06:00;CYHM 170600Z 33006KT 15SM FEW065 FEW210 15/02 A2997 RMK SC1CI1 TR CI SLP146

CYHM;2007-08-17 07:00;CYHM 170700Z 34006KT 15SM BKN065 16/03 A2996 RMK SC5 SLP143

CYHM;2007-08-17 08:00;CYHM 170800Z 34002KT 15SM FEW062 FEW200 14/05 A2997 RMK SC1CI1 SLP145

CYHM;2007-08-17 09:00;CYHM 170900Z 33005KT 15SM FEW075 FEW140 12/05 A2996 RMK AC1AC2 SLP145

CYHM;2007-08-17 10:00;CYHM 171000Z 21002KT 15SM FEW075 BKN130 10/05 A2997 RMK AC1AC4 SLP148

CYHM;2007-08-17 11:00;CYHM 171100Z 00000KT 15SM FEW080 FEW130 SCT220 10/06 A2998 RMK AC1AC1CI1 SLP150

CYHM;2007-08-17 12:00;CYHM 171200Z 36002KT 15SM FEW100 FEW220 14/07 A2998 RMK AC1CI1 SLP153

CYHM;2007-08-17 13:00;CYHM 171300Z 26002KT 15SM FEW100 FEW220 19/08 A2998 RMK AC1CI1 AC TR CI TR SLP151

CYHM;2007-08-17 14:00;CYHM 171400Z 22004KT 15SM FEW100 20/06 A2997 RMK AC1 SLP148

CYHM;2007-08-17 15:00;CYHM 171500Z 24005KT 15SM FEW045 FEW094 SCT180 22/05 A2996 RMK CU1AC1AC1 SLP144

CYHM;2007-08-17 16:00;CYHM 171600Z 26006KT 15SM FEW061 SCT160 BKN220 24/05 A2994 RMK SC2AC2CI1 SLP137

CYHM;2007-08-17 17:00;CYHM 171700Z 28012KT 15SM SCT062 BKN078 25/07 A2992 RMK SC3AC3 SLP130

CYHM;2007-08-17 18:00;CYHM 171800Z 26014G25KT 15SM FEW050 BKN062 BKN078 26/08 A2989 RMK CU2SC2AC2 SLP120

CYHM;2007-08-17 19:00;CYHM 171900Z 28018KT 230V310 15SM BKN062 27/10 A2986 RMK SC6 CU ASOCTD SLP111

CYHM;2007-08-17 20:00;CYHM 172000Z 28020G27KT 230V330 15SM FEW065 26/08 A2988 RMK SC2 CU ASOCTD SLP115

CYHM;2007-08-17 21:00;CYHM 172100Z 30018G30KT 260V340 15SM FEW065 25/05 A2990 RMK SC2 CU ASOCTD SLP123

CYHM;2007-08-17 22:00;CYHM 172200Z 29017KT 250V350 15SM FEW068 BKN097 23/06 A2992 RMK CU2AC2 SLP130

CYHM;2007-08-17 23:00;CYHM 172300Z 31014G23KT 270V020 15SM BKN065 BKN087 22/07 A2994 RMK CU5AC1 SLP139

CYHM;2007-08-18 00:00;CYHM 180000Z 32016G23KT 15SM FEW059 FEW087 19/08 A2999 RMK CU1AC2 SLP155

CYHM;2007-08-18 01:00;CYHM 180100Z 32015G22KT 270V360 15SM FEW088 17/05 A3004 RMK AC1 SLP172

CYHM;2007-08-18 02:00;CYHM 180200Z 32013KT 15SM FEW088 16/05 A3007 RMK AC1 SLP182

CYHM;2007-08-18 03:00;CYHM 180300Z 33010KT 15SM FEW070 FEW210 14/05 A3008 RMK AC1CI1 SLP186

CYHM;2007-08-18 04:00;CYHM 180400Z 32005KT 15SM FEW070 FEW210 12/06 A3010 RMK AC1CI1 SLP194

CYHM;2007-08-18 05:00;CYHM 180500Z 27004KT 15SM FEW200 11/06 A3012 RMK CI1 SLP200

CYHM;2007-08-18 06:00;CYHM 180600Z 25004KT 15SM FEW210 10/06 A3014 RMK CI1 SLP208

CYHM;2007-08-18 07:00;CYHM 180700Z 26003KT 15SM FEW180 10/06 A3017 RMK AC2 SLP215

CYHM;2007-08-18 08:00;CYHM 180800Z 30005KT 15SM FEW180 08/05 A3019 RMK AC1 SLP223

CYHM;2007-08-18 09:00;CYHM 180900Z 30005KT 15SM FEW200 08/05 A3021 RMK CI1 SLP230

CYHM;2007-08-18 10:00;CYHM 181000Z 33007KT 15SM FEW080 FEW210 10/06 A3023 RMK AC1CI1 SLP239

CYHM;2007-08-18 11:00;CYHM 181100Z 33006KT 15SM FEW030 10/06 A3026 RMK SC1 SLP247

CYHM;2007-08-18 12:00;CYHM 181200Z 32006KT 15SM FEW030 13/07 A3026 RMK SC1 SLP248

CYHM;2007-08-18 13:00;CYHM 181300Z 33007KT 290V020 15SM FEW030 FEW120 15/08 A3027 RMK CU1AC1 SLP252

CYHM;2007-08-18 14:00;CYHM 181400Z 36008KT 15SM FEW035 FEW250 16/08 A3027 RMK CU1CI1 CI TR SLP253

CYHM;2007-08-18 15:00;CYHM 181500Z 01006KT 310V050 15SM FEW042 FEW250 18/08 A3028 RMK CU1CI1 CI TR SLP256

CYHM;2007-08-18 16:00;CYHM 181600Z 35005KT 260V050 15SM FEW042 SCT250 20/08 A3028 RMK CU1CI1 CU TR SLP254

CYHM;2007-08-18 17:00;CYHM 181700Z 33002KT 15SM FEW049 BKN250 20/07 A3027 RMK CU2CI1 WND L/V SLP252

CYHM;2007-08-18 18:00;CYHM 181800Z 30003KT 190V030 15SM FEW052 BKN250 22/07 A3025 RMK CU2CI2 SLP246

CYHM;2007-08-18 19:00;CYHM 181900Z 26004KT 150V330 15SM FEW050 BKN240 22/08 A3023 RMK CU2CI2 SLP239

CYHM;2007-08-18 20:00;CYHM 182000Z 28006KT 240V320 15SM FEW050 BKN240 22/07 A3022 RMK SC2CI2 CU ASOCTD SLP236

CYHM;2007-08-18 21:00;CYHM 182100Z 27004KT 220V320 15SM FEW055 SCT170 BKN230 22/07 A3020 RMK SC2AC2CI3 SLP230

CYHM;2007-08-18 22:00;CYHM 182200Z 20010KT 15SM FEW055 SCT180 BKN230 20/10 A3021 RMK SC2AC2CI4 SLP231

CYHM;2007-08-18 23:00;CYHM 182300Z 21009KT 15SM FEW055 FEW180 OVC230 19/10 A3020 RMK SC1AC2CI6 SLP230

CYHM;2007-08-19 00:00;CYHM 190000Z 21008KT 15SM FEW050 FEW180 OVC220 18/10 A3020 RMK SC1AC1CI6 SLP229

CYHM;2007-08-19 01:00;CYHM 190100Z 22007KT 15SM FEW100 OVC220 16/10 A3020 RMK AC1CI8 AC TR SLP230

CYHM;2007-08-19 02:00;CYHM 190200Z CCA 26004KT 15SM OVC200 16/10 A3020 RMK CI8 SLP228

CYHM;2007-08-19 03:00;CYHM 190300Z 34006KT 15SM OVC190 16/06 A3021 RMK AC8 SLP232

CYHM;2007-08-19 04:00;CYHM 190400Z 01005KT 15SM BKN180 15/05 A3020 RMK AC6 SLP229

CYHM;2007-08-19 05:00;CYHM 190500Z 02003KT 15SM FEW180 BKN230 14/05 A3020 RMK AC2CI5 SLP227

CYHM;2007-08-19 06:00;CYHM 190600Z 00000KT 15SM BKN230 14/06 A3019 RMK CI6 SLP224

CYHM;2007-08-19 07:00;CYHM 190700Z 00000KT 15SM BKN230 13/06 A3019 RMK CI6 SLP222

CYHM;2007-08-19 08:00;CYHM 190800Z 00000KT 15SM BKN240 13/06 A3018 RMK CI6 SLP221

CYHM;2007-08-19 09:00;CYHM 190900Z 00000KT 15SM FEW110 BKN190 11/07 A3018 RMK AC2AC5 SLP222

CYHM;2007-08-19 10:00;CYHM 191000Z 00000KT 15SM BKN170 11/07 A3018 RMK AC5 SLP221

CYHM;2007-08-19 11:00;CYHM 191100Z 04003KT 15SM FEW025 FEW110 BKN160 12/08 A3017 RMK CU1AC2AC4 CU TR SLP217

CYHM;2007-08-19 12:00;CYHM 191200Z 04004KT 15SM FEW025 BKN150 15/08 A3019 RMK CU1AC6 CU TR SLP223

CYHM;2007-08-19 13:00;CYHM 191300Z 05008KT 15SM FEW030 BKN140 16/09 A3018 RMK CU1AC7 SLP220

CYHM;2007-08-19 14:00;CYHM 191400Z 07008KT 15SM FEW040 BKN065 BKN140 17/10 A3018 RMK SC1SC4AC2 SLP222

CYHM;2007-08-19 15:00;CYHM 191500Z 07007KT 15SM FEW030 BKN063 OVC120 18/10 A3019 RMK CU1SC7AC1 CU TR SLP225

CYHM;2007-08-19 15:21;CYHM 191521Z 06006KT 15SM -SHRA FEW030 BKN063 OVC120 RMK CU1SC7AC1 AC TR

CYHM;2007-08-19 16:00;CYHM 191600Z 09005KT 15SM FEW032 BKN062 18/10 A3019 RMK CU1SC7 CU TR SLP224

CYHM;2007-08-19 17:00;CYHM 191700Z 08004KT 030V120 15SM FEW035 BKN062 19/10 A3017 RMK CU1SC6 SLP216

CYHM;2007-08-19 18:00;CYHM 191800Z 05004KT 010V110 15SM FEW049 BKN067 BKN130 19/09 A3016 RMK SC1AC5AC2 SLP214

CYHM;2007-08-19 19:00;CYHM 191900Z 07006KT 030V110 15SM FEW045 SCT066 BKN120 20/09 A3014 RMK SC2AC2AC4 CU ASOCTD SLP208

CYHM;2007-08-19 20:00;CYHM 192000Z 09005KT 060V130 15SM FEW035 SCT048 SCT067 BKN120 20/08 A3013 RMK CU1SC2AC1AC3 SLP204

CYHM;2007-08-19 21:00;CYHM 192100Z 10005KT 070V140 15SM FEW035 SCT052 BKN120 BKN240 20/07 A3012 RMK CU1SC2AC3CI1 SLP201

CYHM;2007-08-19 22:00;CYHM 192200Z 15005KT 15SM FEW035 SCT070 BKN130 BKN210 20/06 A3013 RMK CU1AC2AC2CI2 SLP204

CYHM;2007-08-19 23:00;CYHM 192300Z 22004KT 15SM FEW035 FEW070 BKN130 BKN190 BKN250 20/10 A3013 RMK CU1AC2AC2AC1CI1 CU TR SLP203

CYHM;2007-08-20 00:00;CYHM 200000Z 24004KT 15SM FEW035 FEW070 SCT130 BKN180 BKN210 17/11 A3012 RMK CU1AC2AC2AC2CI1 CU TR SLP201

CYHM;2007-08-20 01:00;CYHM 200100Z 25002KT 15SM SCT120 BKN180 BKN210 16/12 A3013 RMK AC3AC2CI2 SLP205

CYHM;2007-08-20 02:00;CYHM 200200Z 00000KT 15SM FEW120 BKN180 BKN210 16/12 A3015 RMK AC2AC2CI2 SLP211

CYHM;2007-08-20 03:00;CYHM 200300Z 36003KT 15SM FEW220 14/11 A3016 RMK CI2 SLP213

CYHM;2007-08-20 04:00;CYHM 200400Z 04003KT 15SM FEW150 BKN220 13/10 A3014 RMK AC2CI2 SLP209

CYHM;2007-08-20 05:00;CYHM 200500Z 03005KT 15SM FEW030 BKN150 BKN260 14/09 A3014 RMK CF1AC4CI1 SLP209

CYHM;2007-08-20 06:00;CYHM 200600Z 06004KT 15SM OVC180 14/10 A3014 RMK AC8 SLP209

CYHM;2007-08-20 07:00;CYHM 200700Z 06007KT 15SM FEW030 OVC140 16/10 A3013 RMK CF1AC7 SLP206

CYHM;2007-08-20 08:00;CYHM 200800Z 07011KT 15SM -SHRA FEW030 OVC120 16/11 A3013 RMK CF2AC6 SLP205

CYHM;2007-08-20 09:00;CYHM 200900Z 08008KT 15SM FEW030 BKN150 OVC250 16/11 A3012 RMK CF1AC6CI1 SLP200

CYHM;2007-08-20 10:00;CYHM 201000Z 07011KT 15SM FEW030 SCT045 OVC150 16/10 A3012 RMK CU1SC2AC5 SLP198

CYHM;2007-08-20 11:00;CYHM 201100Z 07012KT 15SM SCT045 OVC160 16/09 A3013 RMK SC3AC5 SLP203

CYHM;2007-08-20 12:00;CYHM 201200Z 08012KT 15SM SCT045 OVC120 16/08 A3013 RMK SC3AC5 SLP203

CYHM;2007-08-20 13:00;CYHM 201300Z 08014KT 15SM FEW042 OVC120 17/06 A3013 RMK SC2AC6 SLP203

CYHM;2007-08-20 14:00;CYHM 201400Z 07010KT 15SM FEW042 OVC100 18/05 A3016 RMK SC2AC6 SLP212

CYHM;2007-08-20 14:19;CYHM 201419Z 07012KT 10SM -SHRA BKN026 BKN049 OVC100 RMK SC5SC2AC1

CYHM;2007-08-20 14:33;CYHM 201433Z 08012KT 15SM FEW028 SCT046 OVC120 RMK SC2SC2AC4

CYHM;2007-08-20 15:00;CYHM 201500Z 06014KT 15SM FEW038 BKN059 OVC130 18/06 A3014 RMK SC2SC3AC2 SLP208

CYHM;2007-08-20 15:33;CYHM 201533Z 09012KT 15SM -SHRA SCT045 BKN058 OVC095 RMK SC3SC2AC2

CYHM;2007-08-20 16:00;CYHM 201600Z 09012KT 10SM -SHRA BKN038 OVC049 17/08 A3013 RMK SC6SC2 SLP205

CYHM;2007-08-20 17:00;CYHM 201700Z 07010KT 10SM -SHRA SCT023 BKN041 OVC075 16/10 A3015 RMK SC3SC3AC2 SLP210

CYHM;2007-08-20 18:00;CYHM 201800Z 07014KT 15SM SCT045 OVC100 17/08 A3013 RMK SC4AC4 SLP203

CYHM;2007-08-20 19:00;CYHM 201900Z 07015G21KT 15SM -SHRA FEW040 OVC110 17/08 A3012 RMK SC2AC6 SLP201

CYHM;2007-08-20 20:00;CYHM 202000Z 06014G20KT 15SM -SHRA FEW024 BKN092 OVC120 15/10 A3011 RMK SC1AC6AC1 SLP198

CYHM;2007-08-20 21:00;CYHM 202100Z 06015G21KT 15SM -SHRA FEW024 OVC088 15/10 A3010 RMK SC1AC7 SLP195

CYHM;2007-08-20 22:00;CYHM 202200Z 06014G20KT 15SM FEW022 BKN087 15/10 A3010 RMK SC1AC7 SC TR SLP195

CYHM;2007-08-20 23:00;CYHM 202300Z 06014G22KT 15SM BKN027 OVC088 16/12 A3011 RMK SC5AC3 SLP197

CYHM;2007-08-21 00:00;CYHM 210000Z 07015G22KT 15SM FEW028 BKN086 BKN120 16/13 A3010 RMK SC1AC6AC1 SF ASOCTD SLP192

CYHM;2007-08-21 01:00;CYHM 210100Z 07015G22KT 15SM FEW094 BKN250 16/12 A3010 RMK AC2CI2 CONTRAILS SLP194

CYHM;2007-08-21 02:00;CYHM 210200Z 07013G19KT 15SM FEW024 FEW094 FEW250 16/11 A3010 RMK SC1AC1CI1 SC TR AC TR CONTRAILS SLP193

CYHM;2007-08-21 03:00;CYHM 210300Z 07014G19KT 15SM BKN047 16/11 A3010 RMK SC7 SLP192

CYHM;2007-08-21 04:00;CYHM 210400Z 06012G18KT 15SM BKN038 15/12 A3008 RMK SC7 SLP187

CYHM;2007-08-21 05:00;CYHM 210500Z 06013KT 15SM SCT036 BKN058 15/11 A3007 RMK SC3SC4 SLP183

CYHM;2007-08-21 06:00;CYHM 210600Z 07013KT 15SM FEW038 SCT250 15/11 A3005 RMK SC2CI1 SLP177

CYHM;2007-08-21 07:00;CYHM 210700Z 07013KT 15SM SCT038 BKN050 15/10 A3005 RMK SC3SC4 SLP176

CYHM;2007-08-21 08:00;CYHM 210800Z 05013KT 15SM FEW043 BKN058 15/11 A3004 RMK SC2SC5 SLP172

CYHM;2007-08-21 09:00;CYHM 210900Z 06012G18KT 15SM BKN021 OVC054 15/12 A3003 RMK SC6SC2 SLP170

CYHM;2007-08-21 10:00;CYHM 211000Z 06014KT 15SM FEW015 BKN022 OVC054 15/12 A3003 RMK SF1SC4SC3 SF TR SLP171

CYHM;2007-08-21 11:00;CYHM 211100Z 06016KT 15SM BKN020 OVC049 15/12 A3004 RMK SC6SC2 SLP173

CYHM;2007-08-21 12:00;CYHM 211200Z 05017KT 15SM BKN022 OVC049 15/12 A3004 RMK SC6SC2 SLP174

CYHM;2007-08-21 13:00;CYHM 211300Z 06012KT 15SM BKN017 OVC032 15/13 A3005 RMK SC6SC2 SLP177

CYHM;2007-08-21 14:00;CYHM 211400Z 06014KT 15SM OVC016 15/12 A3005 RMK SC8 SLP178

CYHM;2007-08-21 14:10;CYHM 211410Z 06012KT 10SM -DZ BKN016 OVC022 RMK SC6SC2

CYHM;2007-08-21 15:00;CYHM 211500Z 06010KT 12SM -DZ FEW013 BKN020 OVC040 16/13 A3005 RMK CF2SC6SC1 SLP176

CYHM;2007-08-21 15:42;CYHM 211542Z 05011KT 15SM BKN015 OVC038 RMK SC6SC2

CYHM;2007-08-21 16:00;CYHM 211600Z 06013KT 15SM BKN014 OVC037 17/13 A3004 RMK SC6SC2 SLP175

CYHM;2007-08-21 17:00;CYHM 211700Z 07014KT 15SM SCT015 OVC037 18/13 A3003 RMK SC3SC5 SLP169

CYHM;2007-08-21 18:00;CYHM 211800Z 05014KT 15SM FEW012 SCT018 OVC028 18/13 A3004 RMK SC2SC2SC4 SLP171

CYHM;2007-08-21 19:00;CYHM 211900Z 06012KT 15SM FEW012 BKN021 OVC030 18/14 A3003 RMK SC1SC5SC2 SLP169

CYHM;2007-08-21 20:00;CYHM 212000Z 04012KT 15SM FEW014 OVC025 17/13 A3003 RMK SC1SC7 SLP170

CYHM;2007-08-21 21:00;CYHM 212100Z 05012KT 15SM FEW012 BKN020 OVC026 18/13 A3002 RMK SC1SC6SC2 1ST LYR TR SLP167

CYHM;2007-08-21 22:00;CYHM 212200Z 06012KT 15SM FEW012 OVC021 17/14 A3004 RMK SC1SC7 1ST LYR TR SLP171

CYHM;2007-08-21 22:34;CYHM 212234Z 05008KT 5SM -SHRA HZ FEW012 OVC023 RMK SF1SC7

CYHM;2007-08-21 23:00;CYHM 212300Z 05007KT 5SM -DZ BR FEW012 OVC021 16/14 A3004 RMK SF1ST7 SF TR SLP172

CYHM;2007-08-22 00:00;CYHM 220000Z 05009KT 9SM -DZ FEW010 OVC017 16/14 A3004 RMK SF1ST8 SF TR SLP175

CYHM;2007-08-22 01:00;CYHM 220100Z 04008KT 12SM FEW010 OVC015 16/14 A3007 RMK SF1ST8 SF TR SLP182

CYHM;2007-08-22 02:00;CYHM 220200Z 05005KT 15SM OVC015 16/14 A3007 RMK SC8 SLP184

CYHM;2007-08-22 03:00;CYHM 220300Z 05005KT 15SM OVC015 16/14 A3007 RMK SC8 SLP184

CYHM;2007-08-22 04:00;CYHM 220400Z 02003KT 15SM OVC015 16/14 A3006 RMK SC8 SLP181

CYHM;2007-08-22 05:00;CYHM 220500Z 02004KT 15SM OVC012 16/14 A3004 RMK SC8 SLP174

CYHM;2007-08-22 05:49;CYHM 220549Z 04003KT 12SM OVC006 RMK SC8

CYHM;2007-08-22 06:00;CYHM 220600Z 04004KT 12SM OVC006 16/14 A3003 RMK SC8 SLP169

CYHM;2007-08-22 07:00;CYHM 220700Z 03004KT 2SM -DZ BR OVC004 16/15 A3004 RMK SC8 SLP172

CYHM;2007-08-22 08:00;CYHM 220800Z 04003KT 1 1/2SM BR OVC003 16/15 A3006 RMK FG3SC5 SLP178

CYHM;2007-08-22 08:30;CYHM 220830Z 32002KT 1SM BR OVC002 RMK FG4SC4

CYHM;2007-08-22 09:00;CYHM 220900Z 33003KT 1SM BR OVC002 16/15 A3008 RMK FG4SC4 SLP187

CYHM;2007-08-22 09:44;CYHM 220944Z 33003KT 1SM -DZ BR OVC002 RMK FG4SC4

CYHM;2007-08-22 10:00;CYHM 221000Z 36005KT 1SM -DZ BR OVC002 16/15 A3009 RMK FG4SC4 SLP189

CYHM;2007-08-22 10:22;CYHM 221022Z CCA 36004KT 1/4SM -DZ FG OVC002 RMK FG5SF3

CYHM;2007-08-22 10:34;CYHM 221034Z 01003KT 1/8SM FG VV002 RMK FG8

CYHM;2007-08-22 11:00;CYHM 221100Z 00000KT 1/8SM FG VV002 16/15 A3009 RMK FG8 SLP189

CYHM;2007-08-22 11:38;CYHM 221138Z 03002KT 1/2SM FG OVC002 RMK FG4SF4

CYHM;2007-08-22 12:00;CYHM 221200Z 03003KT 3/4SM BR OVC002 16/15 A3010 RMK FG3SF5 SLP193

CYHM;2007-08-22 12:41;CYHM 221241Z 00000KT 1 1/2SM BR OVC002 RMK FG2SF6

CYHM;2007-08-22 13:00;CYHM 221300Z 00000KT 1 3/4SM BR OVC003 17/15 A3010 RMK FG2SF6 SLP194

CYHM;2007-08-22 14:00;CYHM 221400Z 11003KT 4SM HZ BKN007 OVC012 18/16 A3008 RMK SF6SC2 SLP188

CYHM;2007-08-22 15:00;CYHM 221500Z 22005KT 5SM HZ FEW007 OVC012 19/16 A3013 RMK SF2SC6 SLP202

CYHM;2007-08-22 16:00;CYHM 221600Z 22006KT 8SM SCT016 OVC030 20/16 A3012 RMK SC3SC5 SLP200

CYHM;2007-08-22 17:00;CYHM 221700Z 16003KT 12SM BKN016 BKN028 22/16 A3006 RMK SC5SC2 SLP181

CYHM;2007-08-22 18:00;CYHM 221800Z 06012KT 15SM FEW020 SCT160 BKN220 24/17 A3004 RMK CU2AC1CI1 SLP172

CYHM;2007-08-22 19:00;CYHM 221900Z 04008KT 12SM BKN028 BKN160 24/17 A3005 RMK SC6AC1 SLP175

CYHM;2007-08-22 20:00;CYHM 222000Z 01003KT 12SM BKN030 24/17 A3006 RMK SC7 SLP177

CYHM;2007-08-22 21:00;CYHM 222100Z 07003KT 020V190 12SM BKN028 24/17 A3005 RMK SC7 SLP176

CYHM;2007-08-22 22:00;CYHM 222200Z 06006KT 15SM BKN027 23/17 A3006 RMK SC7 SLP179

CYHM;2007-08-22 23:00;CYHM 222300Z 06006KT 15SM FEW024 BKN250 22/16 A3006 RMK SC1CI2 SC TR SLP178

CYHM;2007-08-23 00:00;CYHM 230000Z 06006KT 15SM BKN250 20/16 A3005 RMK CI1 CONTRAILS SLP176

CYHM;2007-08-23 01:00;CYHM 230100Z 06008KT 15SM SCT250 18/15 A3004 RMK CI1 CONTRAILS SLP173

CYHM;2007-08-23 02:00;CYHM 230200Z 03003KT 15SM OVC022 18/16 A3005 RMK SC8 SLP176

CYHM;2007-08-23 03:00;CYHM 230300Z CCA 04005KT 10SM SCT022 BKN030 18/16 A3004 RMK SC3SC1 SLP173

CYHM;2007-08-23 04:00;CYHM 230400Z 36004KT 4SM BR OVC022 18/16 A3005 RMK SC8 SLP174

CYHM;2007-08-23 05:00;CYHM 230500Z 05004KT 5SM BR SCT030 18/16 A3003 RMK SC2 SLP169

CYHM;2007-08-23 06:00;CYHM 230600Z 05005KT 4SM BR FEW030 OVC043 18/16 A3001 RMK CF2SC6 SLP162

CYHM;2007-08-23 07:00;CYHM 230700Z 05005KT 3SM BR FEW036 BKN089 18/16 A3001 RMK SC2AC3 OCNL LTNG SW VIS VRB 2 - 4 SLP162

CYHM;2007-08-23 07:50;CYHM 230750Z 06006KT 1/2SM FG OVC002 RMK FG3ST5 LTNG OVHD

CYHM;2007-08-23 08:00;CYHM 230800Z 07004KT 1/4SM FG OVC001 18/17 A3000 RMK FG4ST4 FQT LTNG OVHD SLP158

CYHM;2007-08-23 08:22;CYHM 230822Z 08005KT 1/4SM TS FG OVC001 RMK FG4ST4 FQT LTNG CB EMBDD

CYHM;2007-08-23 08:48;CYHM 230848Z 00000KT 1/2SM -TSRA FG SCT002 OVC029CB RMK FG3SF1CB4 CONTUS LTNG

CYHM;2007-08-23 08:54;CYHM 230854Z 20004KT 1 1/2SM TSRA BR FEW002 OVC020CB RMK FG2SF1CB6 FQT LTNG VIS VRB 1 - 2

CYHM;2007-08-23 09:00;CYHM 230900Z 24009KT 1 1/2SM +TSRA BR SCT007 OVC015CB 18/17 A3001 RMK FG2SF2CB5 OCNL LTNG VIS VRB 1 - 2 SLP161

CYHM;2007-08-23 09:16;CYHM 230916Z 19012KT 2SM -TSRA BR FEW009 OVC019 RERA RMK FG1SF2SC6 OCNL LTNG CB ASOCTD

CYHM;2007-08-23 09:43;CYHM 230943Z 00000KT 1 1/2SM TS BR OVC005 RERA RMK FG2SF6 OCNL LTNG CB EMBDD

CYHM;2007-08-23 10:00;CYHM 231000Z 17005KT 2SM TS BR SCT006 OVC110 20/19 A2998 RERA RMK FG1SF3AC4 OCNL LTNG S CB ASOCTD SLP150

CYHM;2007-08-23 10:23;CYHM 231023Z 23004KT 2SM BR FEW017 SCT110 BKN220 RMK FG1SC2AC1CI1

CYHM;2007-08-23 11:00;CYHM 231100Z 22005KT 5SM BR BKN017 BKN044 21/20 A3000 RMK SC6SC2 SLP157

CYHM;2007-08-23 12:00;CYHM 231200Z 21007KT 4SM BR FEW015 BKN042 BKN120 BKN220 22/20 A3001 RMK SC2SC3AC1CI1 CU ASOCTD SLP161

CYHM;2007-08-23 13:00;CYHM 231300Z 20010KT 5SM HZ FEW006 FEW011 SCT016 BKN120 24/22 A2999 RMK SF1CU2SC2AC2 SLP153

CYHM;2007-08-23 13:40;CYHM 231340Z 21010KT 7SM -SHRA FEW010 BKN032 BKN120 RMK SF2SC3AC2

CYHM;2007-08-23 14:00;CYHM 231400Z 22010KT 7SM SCT032 BKN140 BKN210 23/21 A2999 RMK SC3AC3CI1 SLP154

CYHM;2007-08-23 15:00;CYHM 231500Z 22014KT 10SM BKN027 OVC120 25/21 A3001 RMK SC6AC2 SLP161

CYHM;2007-08-23 16:00;CYHM 231600Z 22012KT 15SM SCT055 BKN110 OVC220 24/20 A2997 RMK SC3AC2CI2 SLP148

CYHM;2007-08-23 17:00;CYHM 231700Z 23008KT 15SM FEW025 FEW055 BKN130 BKN220 24/20 A2997 RMK CU1SC2AC4CI2 CU TR SLP147

CYHM;2007-08-23 18:00;CYHM 231800Z 19014KT 15SM FEW010 BKN055 OVC120 24/20 A2998 RMK SF2SC4AC2 SLP150

CYHM;2007-08-23 19:00;CYHM 231900Z 19011KT 15SM FEW012 BKN150 BKN220 24/20 A2995 RMK CU1AC6CC1 SLP141

CYHM;2007-08-23 20:00;CYHM 232000Z 19014KT 15SM FEW018 BKN180 BKN230 26/21 A2992 RMK CU1AC4CI2 SLP132

CYHM;2007-08-23 21:00;CYHM 232100Z 19012KT 15SM FEW024 SCT180 BKN220 28/21 A2991 RMK CU1AC2CI2 CC ASOCTD SLP127

CYHM;2007-08-23 22:00;CYHM 232200Z 20015KT 15SM FEW030 SCT190 BKN220 29/21 A2992 RMK CU1AC4CI2 SLP129

CYHM;2007-08-23 23:00;CYHM 232300Z 21009KT 15SM FEW030 FEW190 BKN250 27/20 A2992 RMK CU1AC1CI3 CU TR SLP129

CYHM;2007-08-24 00:00;CYHM 240000Z 20010KT 15SM FEW030 FEW180 BKN250 25/20 A2993 RMK CU1AC1CC2 CU TR SLP131

CYHM;2007-08-24 01:00;CYHM 240100Z 17008KT 15SM FEW180 FEW250 24/20 A2992 RMK AC1CI0 SLP128

CYHM;2007-08-24 02:00;CYHM 240200Z 18007KT 15SM BKN058 BKN250 23/20 A2991 RMK SC5CI1 SLP124

CYHM;2007-08-24 03:00;CYHM 240300Z 19007KT 8SM FEW055 23/20 A2990 RMK SC1 HZ SLP120

CYHM;2007-08-24 04:00;CYHM 240400Z 19014KT 7SM FEW070 SCT190 24/21 A2986 RMK AC2AC1 HZ SLP109

CYHM;2007-08-24 05:00;CYHM 240500Z 20011KT 7SM FEW060 SCT220 24/21 A2987 RMK SC2CI1 HZ SLP111

CYHM;2007-08-24 06:00;CYHM 240600Z 22005KT 7SM FEW060 BKN170 23/21 A2988 RMK SC1AC4 HZ SLP114

CYHM;2007-08-24 07:00;CYHM 240700Z 22007KT 6SM BR FEW062 SCT180 22/21 A2987 RMK SC2AC1 LTNG E + SW SLP111

CYHM;2007-08-24 08:00;CYHM 240800Z 23013G18KT 8SM -SHRA FEW030 OVC045 24/21 A2987 RMK CU2SC6 OCNL LTNG SLP112

CYHM;2007-08-24 09:00;CYHM 240900Z 23007KT 15SM -SHRA FEW063 OVC170 22/20 A2986 RMK SC2AC6 SLP108

CYHM;2007-08-24 09:30;CYHM 240930Z 22008KT 15SM FEW070 SCT210 RMK AC2CI2

CYHM;2007-08-24 10:00;CYHM 241000Z 23009KT 15SM FEW100 BKN220 21/19 A2986 RMK AC1CI4 SLP107

CYHM;2007-08-24 11:00;CYHM 241100Z 22006KT 15SM FEW035 SCT100 BKN160 BKN220 21/18 A2988 RMK SC2AC2AC2CI1 SLP115

CYHM;2007-08-24 12:00;CYHM 241200Z 22006KT 15SM FEW035 SCT090 BKN140 BKN220 22/19 A2990 RMK SC2AC2AC2CI1 SLP121

CYHM;2007-08-24 13:00;CYHM 241300Z 22008KT 15SM FEW035 FEW140 SCT220 24/20 A2991 RMK SC1AC2CI1 SLP124

CYHM;2007-08-24 14:00;CYHM 241400Z 24010KT 15SM FEW062 FEW100 FEW220 25/19 A2991 RMK SC1AC1CI0 CI TR SLP124

CYHM;2007-08-24 15:00;CYHM 241500Z 22010KT 15SM FEW120 FEW220 28/19 A2990 RMK AC1CI1 AC TR CI TR SLP120

CYHM;2007-08-24 16:00;CYHM 241600Z 25014KT 15SM FEW032 FEW120 FEW220 29/20 A2990 RMK CU1AC1CI1 CU TR AC TR SLP120

CYHM;2007-08-24 17:00;CYHM 241700Z 24015KT 15SM FEW040 FEW120 BKN220 31/19 A2988 RMK CU1AC2CI2 SLP116

CYHM;2007-08-24 18:00;CYHM 241800Z 22012KT 15SM FEW040 BKN090 BKN160 29/19 A2989 RMK CU1AC5AC1 SLP117

CYHM;2007-08-24 19:00;CYHM 241900Z 22014KT 15SM FEW044 BKN150 BKN250 30/18 A2988 RMK CU1AC4CI1 SLP112

CYHM;2007-08-24 20:00;CYHM 242000Z 24011KT 15SM FEW045 BKN150 BKN250 30/19 A2986 RMK CU1AC5CI0 CU TR SLP107

CYHM;2007-08-24 21:00;CYHM 242100Z 22013KT 180V260 15SM FEW040 FEW160 SCT250 31/19 A2984 RMK CU1AC2CI0 CU TR SLP101

CYHM;2007-08-24 22:00;CYHM 242200Z 22009KT 15SM FEW170 30/19 A2981 RMK AC1 SLP090

CYHM;2007-08-24 23:00;CYHM 242300Z 19008KT 15SM FEW180 BKN250 29/19 A2980 RMK AC2CI1 SLP088

CYHM;2007-08-25 00:00;CYHM 250000Z 19007KT 15SM FEW092 BKN200 28/20 A2981 RMK AC1CC7 SLP089

CYHM;2007-08-25 01:00;CYHM 250100Z 17007KT 15SM BKN140 27/19 A2981 RMK AC7 SLP090

CYHM;2007-08-25 02:00;CYHM 250200Z 17009KT 15SM FEW130 OVC180 25/12 A2980 RMK AC2AC6 LTNG S SLP088

CYHM;2007-08-25 02:04;CYHM 250204Z 20017KT 12SM -SHRA BKN140 OVC180 RMK AC6AC2 LTNG S

CYHM;2007-08-25 02:26;CYHM 250226Z 22025G34KT 8SM -TSRA OVC050 RMK SC8 CB ASOCTD OCNL LTNG

CYHM;2007-08-25 03:00;CYHM 250300Z 23015KT 12SM -TSRA SCT048 OVC085 21/19 A2982 RMK SC4AC4 CB ASOCTD SLP095

CYHM;2007-08-25 03:17;CYHM 250317Z 22013KT 10SM -SHRA SCT060 OVC140 RETS RMK SC3AC5

CYHM;2007-08-25 04:00;CYHM 250400Z 23008KT 10SM -SHRA FEW060 OVC170 21/20 A2979 RETS RMK SC2AC6 LTNG SW SLP084

CYHM;2007-08-25 05:00;CYHM 250500Z 24017G22KT 15SM FEW045 SCT075 BKN200 22/20 A2980 RMK SC2AC2CI2 SLP086

CYHM;2007-08-25 06:00;CYHM 250600Z 24013KT 15SM FEW075 OVC200 22/20 A2978 RMK AC2CI6 SLP082

CYHM;2007-08-25 06:12;CYHM 250612Z 25013KT 15SM BKN010 OVC190 RMK CF6AC2

CYHM;2007-08-25 07:00;CYHM 250700Z 24011KT 7SM OVC007 22/20 A2980 RMK CF8 CIG RAG SLP088

CYHM;2007-08-25 08:00;CYHM 250800Z 24010KT 6SM BR SCT009 BKN180 22/20 A2979 RMK CF4AC1 SLP084

CYHM;2007-08-25 09:00;CYHM 250900Z 23006KT 5SM BR BKN009 OVC016 22/20 A2979 RMK CF5SC3 SLP083

CYHM;2007-08-25 10:00;CYHM 251000Z 23004KT 5SM BR FEW007 BKN120 21/20 A2980 RMK CF2AC6 SLP086

CYHM;2007-08-25 11:00;CYHM 251100Z 20005KT 4SM BR FEW009 FEW120 BKN170 BKN250 21/20 A2981 RMK CF1AC2AC3CI1 SLP091

CYHM;2007-08-25 12:00;CYHM 251200Z 19007KT 7SM FEW008 SCT073 BKN140 BKN240 22/20 A2981 RMK CF1AC2AC2CI1 SLP091

CYHM;2007-08-25 12:48;CYHM 251248Z 21010KT 7SM -SHRA FEW008 BKN064 OVC140 RMK CF2SC6AC1

CYHM;2007-08-25 13:00;CYHM 251300Z 23007KT 9SM FEW009 BKN064 BKN110 22/20 A2981 RMK CF1SC5AC2 SLP091

CYHM;2007-08-25 14:00;CYHM 251400Z 20008KT 7SM -SHRA BKN006 OVC057 23/21 A2981 RMK CF5SC3 PCPN VRY LGT SLP090

CYHM;2007-08-25 15:00;CYHM 251500Z 19009KT 7SM -SHRA BKN006 OVC024 23/21 A2979 RMK CF6SC2 PCPN VRY LGT CIG RAG SLP086

CYHM;2007-08-25 16:00;CYHM 251600Z 23015G23KT 12SM -SHRA BKN008 BKN018 OVC046 23/21 A2979 RERA RMK CF6SC2SC1 CIG RAG SLP086

CYHM;2007-08-25 16:16;CYHM 251616Z 23014KT 12SM -SHRA FEW008 SCT018 BKN049 RMK CF2SC1SC4

CYHM;2007-08-25 16:44;CYHM 251644Z 23013KT 15SM FEW012 BKN053 BKN230 RMK CF2SC4CI1

CYHM;2007-08-25 17:00;CYHM 251700Z 25014KT 15SM BKN015 BKN053 BKN230 24/20 A2979 RMK CU5SC2CI1 SLP086

CYHM;2007-08-25 18:00;CYHM 251800Z CCA 23011KT 15SM BKN018 BKN053 25/20 A2979 RMK CU6SC2 CIG RAG SLP086

CYHM;2007-08-25 19:00;CYHM 251900Z 22015KT 12SM SCT020 BKN038 BKN060 25/20 A2978 RMK CU3SC2SC2 TCU ASOCTD SLP082

CYHM;2007-08-25 19:14;CYHM 251914Z 22014KT 190V260 10SM -SHRA SCT019 BKN035 BKN060 RMK CU3SC3SC1 TCU ASOCTD PCPN VRY LGT

CYHM;2007-08-25 20:00;CYHM 252000Z 22016KT 12SM -SHRA SCT021TCU BKN031 BKN066 25/20 A2977 RMK TCU3SC3AC1 PCPN VRY LGT SLP079

CYHM;2007-08-25 20:15;CYHM 252015Z 23018KT 2 1/2SM SHRA SCT019TCU OVC029 RMK TCU4SC4

CYHM;2007-08-25 20:22;CYHM 252022Z CCA 25017G25KT 1SM +SHRA BR BKN010 OVC025 RMK FG2SC5SC2 TCU EMBD

CYHM;2007-08-25 20:28;CYHM 252028Z 25017KT 3SM -SHRA BR SCT010 BKN025 OVC040 RERA RMK CF3SC4SC1 TCU EMBD

CYHM;2007-08-25 20:44;CYHM 252044Z 24012KT 12SM SCT015 BKN032 BKN100 RERA RMK CU3SC2AC2 TCU ASOCTD

CYHM;2007-08-25 21:00;CYHM 252100Z 24014KT 15SM FEW015 SCT030 BKN095 22/20 A2980 RERA RMK CU2SC2AC3 TCU ASOCTD SLP087

CYHM;2007-08-25 22:00;CYHM 252200Z 27013KT 15SM SCT014 BKN024 22/18 A2982 RMK CF3SC4 SLP094

CYHM;2007-08-25 23:00;CYHM 252300Z 28011KT 15SM SCT015 BKN024 BKN120 21/17 A2984 RMK CU3SC2AC1 SLP101

CYHM;2007-08-26 00:00;CYHM 260000Z 29011KT 15SM FEW017 BKN024 BKN120 20/15 A2987 RMK CU2SC3AC1 SLP112

CYHM;2007-08-26 01:00;CYHM 260100Z 27009KT 240V300 15SM FEW025 FEW130 18/15 A2988 RMK SC1AC2 SLP117

CYHM;2007-08-26 02:00;CYHM 260200Z 26008KT 230V290 15SM FEW130 FEW230 17/15 A2990 RMK AC1CI1 AC TR SLP123

CYHM;2007-08-26 03:00;CYHM 260300Z 23005KT 15SM FEW220 15/14 A2993 RMK CI1 SLP133

CYHM;2007-08-26 04:00;CYHM 260400Z 21004KT 15SM FEW220 15/14 A2995 RMK CI2 SLP140

CYHM;2007-08-26 05:00;CYHM 260500Z 26004KT 15SM FEW210 14/13 A2996 RMK CI2 SLP144

CYHM;2007-08-26 06:00;CYHM 260600Z 23003KT 15SM SCT220 14/13 A2997 RMK CI3 SLP147

CYHM;2007-08-26 07:00;CYHM 260700Z 26004KT 15SM BKN210 14/13 A2997 RMK CI4 SLP148

CYHM;2007-08-26 08:00;CYHM 260800Z 26005KT 15SM SCT210 14/13 A2997 RMK CI2 SLP149

CYHM;2007-08-26 09:00;CYHM 260900Z 27004KT 15SM SCT015 BKN200 14/13 A3000 RMK SC3CI2 SLP157

CYHM;2007-08-26 10:00;CYHM 261000Z 30008KT 15SM FEW013 BKN120 14/13 A3001 RMK SC2AC3 SLP162

CYHM;2007-08-26 11:00;CYHM 261100Z 26006KT 15SM FEW015 FEW120 FEW230 14/13 A3003 RMK SC1AC1CI0 SC TR SLP167

CYHM;2007-08-26 12:00;CYHM 261200Z 27006KT 15SM FEW047 SCT240 14/13 A3004 RMK SC2CI1 SLP174

CYHM;2007-08-26 13:00;CYHM 261300Z 27002KT 15SM FEW051 FEW250 17/15 A3006 RMK SC2CI1 SLP179

CYHM;2007-08-26 14:00;CYHM 261400Z 29004KT 250V350 15SM SCT017 SCT052 19/15 A3008 RMK SC3SC1 SLP186

CYHM;2007-08-26 15:00;CYHM 261500Z 31003KT 250V360 15SM BKN019 20/15 A3009 RMK SC6 SLP188

CYHM;2007-08-26 16:00;CYHM 261600Z 35002KT 15SM BKN031 22/15 A3009 RMK SC6 WND L/V SLP189

CYHM;2007-08-26 17:00;CYHM 261700Z 25007KT 15SM BKN031 BKN062 22/15 A3009 RMK SC6SC2 WND L/V SLP190

CYHM;2007-08-26 18:00;CYHM 261800Z 18002KT 15SM BKN038 BKN073 24/14 A3009 RMK SC5AC1 WND L/V SLP189

CYHM;2007-08-26 19:00;CYHM 261900Z 09003KT 15SM SCT038 BKN062 23/15 A3009 RMK CU4SC2 WND L/V SLP189

CYHM;2007-08-26 20:00;CYHM 262000Z 07005KT 020V120 15SM SCT038 BKN070 24/15 A3009 RMK CU3AC2 SLP188

CYHM;2007-08-26 21:00;CYHM 262100Z 16005KT 120V200 15SM SCT040 BKN072 24/14 A3008 RMK CU3AC2 SLP185

CYHM;2007-08-26 22:00;CYHM 262200Z 19007KT 140V240 15SM FEW035 SCT060 BKN074 24/16 A3008 RMK CU2SC2AC1 SLP185

CYHM;2007-08-26 23:00;CYHM 262300Z 20004KT 15SM FEW036 SCT060 SCT075 23/15 A3008 RMK CU2SC1AC1 SLP186

CYHM;2007-08-27 00:00;CYHM 270000Z 20006KT 15SM FEW035 FEW056 FEW070 20/15 A3010 RMK CU1SC1AC1 SLP193

CYHM;2007-08-27 01:00;CYHM 270100Z 19004KT 15SM FEW060 FEW075 19/15 A3012 RMK SC1AC1 SLP199

CYHM;2007-08-27 02:00;CYHM 270200Z 19003KT 15SM FEW060 18/15 A3012 RMK SC1 SLP201

CYHM;2007-08-27 03:00;CYHM 270300Z 20003KT 15SM FEW050 17/15 A3014 RMK SC1 SLP206

CYHM;2007-08-27 04:00;CYHM 270400Z 00000KT 15SM FEW050 17/15 A3015 RMK SC1 SLP208

CYHM;2007-08-27 05:00;CYHM 270500Z 02002KT 15SM FEW045 16/15 A3015 RMK SC1 SLP208

CYHM;2007-08-27 06:00;CYHM 270600Z 04004KT 15SM SKC 16/14 A3014 RMK SLP205

CYHM;2007-08-27 07:00;CYHM 270700Z 05004KT 15SM SKC 16/14 A3013 RMK SLP204

CYHM;2007-08-27 08:00;CYHM 270800Z 05004KT 15SM FEW220 15/14 A3014 RMK CI1 SLP206

CYHM;2007-08-27 09:00;CYHM 270900Z 04005KT 15SM FEW210 15/14 A3017 RMK CI1 SLP215

CYHM;2007-08-27 10:00;CYHM 271000Z 03005KT 15SM FEW220 16/14 A3019 RMK CI1 SLP221

CYHM;2007-08-27 11:00;CYHM 271100Z 06003KT 15SM FEW020 FEW220 15/13 A3019 RMK CU1CI1 CU TR SLP222

CYHM;2007-08-27 11:55;CYHM 271155Z 06003KT 1/8SM FG OVC002 RMK FG5SF3

CYHM;2007-08-27 12:00;CYHM 271200Z 07004KT 1/8SM FG VV002 16/15 A3020 RMK FG8 SLP226

CYHM;2007-08-27 12:22;CYHM 271222Z 06003KT 1/8SM FG BKN002 RMK FG5SF2

CYHM;2007-08-27 12:35;CYHM 271235Z 05004KT 1/2SM FG BKN002 RMK FG3SF2

CYHM;2007-08-27 12:45;CYHM 271245Z 06004KT 1SM BR BKN003 RMK FG2SF3

CYHM;2007-08-27 13:00;CYHM 271300Z 07004KT 3SM BR FEW003 SCT220 18/16 A3020 RMK SF2CI1 SLP226

CYHM;2007-08-27 14:00;CYHM 271400Z 14005KT 12SM FEW006 SCT016 BKN220 21/17 A3020 RMK SF2SC1CI1 SLP226

CYHM;2007-08-27 15:00;CYHM 271500Z 15003KT 15SM SCT017 BKN022 BKN220 23/17 A3021 RMK CU3SC2CI1 SLP228

CYHM;2007-08-27 16:00;CYHM 271600Z 22002KT 15SM SCT032 BKN044 23/15 A3021 RMK CU4SC2 SLP228

CYHM;2007-08-27 17:00;CYHM 271700Z 16004KT 15SM BKN042 BKN068 25/14 A3020 RMK CU5AC1 SC ASOCTD SLP226

CYHM;2007-08-27 18:00;CYHM 271800Z 25003KT 15SM SCT028 BKN070 BKN220 24/15 A3020 RMK CU4AC2CI0 CI TR SLP226

CYHM;2007-08-27 19:00;CYHM 271900Z 10003KT 15SM BKN056 BKN250 24/15 A3018 RMK SC6CI0 TCU EMBDD CU ASOCTD SLP219

CYHM;2007-08-27 20:00;CYHM 272000Z 20003KT 100V260 15SM FEW042 SCT062 BKN250 26/16 A3017 RMK CF1CU2CI0 SC ASOCTD CONTRAILS SLP214

CYHM;2007-08-27 21:00;CYHM 272100Z 06007KT 15SM SCT056 BKN250 24/16 A3015 RMK SC4CI0 CU ASOCTD SLP210

CYHM;2007-08-27 22:00;CYHM 272200Z 07006KT 15SM FEW046 FEW250 25/16 A3015 RMK CU2CI1 CI TR SLP210

CYHM;2007-08-27 23:00;CYHM 272300Z 06007KT 15SM FEW042 FEW250 24/15 A3014 RMK CU1CI1 CU TR CI TR SLP206

CYHM;2007-08-28 00:00;CYHM 280000Z 07003KT 15SM FEW250 21/15 A3014 RMK CI1 CI TR SLP206

CYHM;2007-08-28 01:00;CYHM 280100Z 03005KT 15SM FEW250 19/14 A3016 RMK CI1 CI TR SLP211

CYHM;2007-08-28 02:00;CYHM 280200Z 03004KT 15SM SKC 18/15 A3016 RMK SLP213

CYHM;2007-08-28 03:00;CYHM 280300Z 04004KT 15SM SKC 17/15 A3017 RMK SLP214

CYHM;2007-08-28 04:00;CYHM 280400Z 05002KT 15SM SKC 17/15 A3017 RMK SLP216

CYHM;2007-08-28 05:00;CYHM 280500Z 03003KT 15SM FEW250 17/15 A3018 RMK CI1 CI TR CONTRAILS SLP218

CYHM;2007-08-28 06:00;CYHM 280600Z 33002KT 15SM FEW250 16/15 A3018 RMK CI1 CI TR CONTRAILS SLP218

CYHM;2007-08-28 07:00;CYHM 280700Z 00000KT 15SM FEW250 15/14 A3017 RMK CI1 CI TR SLP214

CYHM;2007-08-28 08:00;CYHM 280800Z 03003KT 15SM FEW250 16/14 A3015 RMK CI1 CI TR SLP209

CYHM;2007-08-28 09:00;CYHM 280900Z 04003KT 15SM FEW250 15/14 A3014 RMK CI1 CI TR SLP207

CYHM;2007-08-28 10:00;CYHM 281000Z 04005KT 12SM FEW090 FEW250 16/15 A3015 RMK AC1CI1 AC TR CI TR SLP210

CYHM;2007-08-28 10:20;CYHM 281020Z 05004KT 1SM BR FEW220 RMK FG1CI1

CYHM;2007-08-28 10:36;CYHM 281036Z 06004KT 3/4SM BR SKC RMK FG2 VSBY VRBL 1-1/2SM

CYHM;2007-08-28 10:44;CYHM 281044Z 05002KT 1/8SM FG SKC RMK FG4

CYHM;2007-08-28 11:00;CYHM 281100Z 05005KT 1/8SM FG BKN001 16/15 A3016 RMK FG4SF2 W-NW VISB 1-2SM SLP211

CYHM;2007-08-28 11:05;CYHM 281105Z 05004KT 1/8SM FG BKN001 RMK FG5SF2

CYHM;2007-08-28 11:14;CYHM 281114Z 05004KT 1/8SM FG VV001 RMK FG8

CYHM;2007-08-28 12:00;CYHM 281200Z 06003KT 1/8SM FG VV001 17/16 A3015 RMK FG8 SLP210

CYHM;2007-08-28 13:00;CYHM 281300Z 06002KT 1/8SM FG BKN001 18/17 A3015 RMK FG4SF3 SLP210

CYHM;2007-08-28 13:16;CYHM 281316Z 07003KT 1/2SM FG BKN002 RMK FG4SF3

CYHM;2007-08-28 13:31;CYHM 281331Z 06002KT 3/4SM BR BKN002 RMK FG3SF3

CYHM;2007-08-28 13:36;CYHM 281336Z 00000KT 1 1/2SM BR BKN002 RMK FG2SF2

CYHM;2007-08-28 13:44;CYHM 281344Z 14002KT 3SM BR BKN003 BKN015 RMK SF5SC2

CYHM;2007-08-28 14:00;CYHM 281400Z 00000KT 6SM BR FEW006 SCT012 20/18 A3017 RMK CF2SC2 SLP214

CYHM;2007-08-28 15:00;CYHM 281500Z 22004KT 15SM FEW020 24/17 A3016 RMK CU1 CU TR SLP213

CYHM;2007-08-28 16:00;CYHM 281600Z 24004KT 15SM FEW030 26/17 A3015 RMK CU1 SLP210

CYHM;2007-08-28 17:00;CYHM 281700Z 29002KT 15SM FEW030 FEW120 27/16 A3013 RMK CU1AC1 CU TR AC TR SLP201

CYHM;2007-08-28 18:00;CYHM 281800Z 20006KT 15SM FEW030 FEW240 27/16 A3014 RMK CU1CI1 CU TR SLP204

CYHM;2007-08-28 19:00;CYHM 281900Z 31002KT 15SM FEW250 28/15 A3011 RMK CI0 WND L/V SLP195

CYHM;2007-08-28 20:00;CYHM 282000Z 32002KT 15SM BKN098 BKN250 27/16 A3009 RMK AC7CI1 WND L/V CI TR SLP189

CYHM;2007-08-28 21:00;CYHM 282100Z 19009KT 15SM FEW098 SCT250 28/17 A3006 RMK AC1CI1 AC TR SLP176

CYHM;2007-08-28 22:00;CYHM 282200Z 19012KT 15SM FEW096 SCT250 27/17 A3006 RMK AC1CI1 SLP178

CYHM;2007-08-28 23:00;CYHM 282300Z 21007KT 15SM FEW096 FEW250 26/16 A3005 RMK AC1CI1 SLP173

CYHM;2007-08-29 00:00;CYHM 290000Z 23005KT 15SM FEW094 FEW250 23/15 A3006 RMK AC1CI1 AC TR SLP177

CYHM;2007-08-29 01:00;CYHM 290100Z 23002KT 15SM FEW090 FEW250 22/15 A3006 RMK AC1CI1 AC TR CI TR SLP179

CYHM;2007-08-29 02:00;CYHM 290200Z 22003KT 15SM FEW250 20/15 A3008 RMK CI1 CI TR SLP185

CYHM;2007-08-29 03:00;CYHM 290300Z 20004KT 15SM FEW100 19/15 A3008 RMK AC1 AC TR SLP185

CYHM;2007-08-29 04:00;CYHM 290400Z 20004KT 15SM FEW100 18/15 A3008 RMK AC2 SLP183

CYHM;2007-08-29 05:00;CYHM 290500Z 20005KT 15SM SKC 17/15 A3006 RMK SLP178

CYHM;2007-08-29 06:00;CYHM 290600Z 21004KT 15SM SKC 17/15 A3005 RMK SLP173

CYHM;2007-08-29 07:00;CYHM 290700Z 23004KT 15SM SKC 18/16 A3005 RMK SLP175

CYHM;2007-08-29 08:00;CYHM 290800Z 24004KT 15SM SKC 17/15 A3006 RMK SLP178

CYHM;2007-08-29 09:00;CYHM 290900Z 22004KT 12SM FEW250 17/16 A3005 RMK CI1 CI TR SLP173

CYHM;2007-08-29 10:00;CYHM 291000Z 22005KT 10SM FEW250 17/16 A3004 RMK CI1 CI TR SLP171

CYHM;2007-08-29 10:08;CYHM 291008Z 22004KT 2 1/2SM BR FEW250 RMK CI1

CYHM;2007-08-29 11:00;CYHM 291100Z 23005KT 4SM BR FEW250 18/16 A3006 RMK CI1 CI TR SLP177

CYHM;2007-08-29 12:00;CYHM 291200Z 25004KT 6SM HZ FEW160 FEW250 20/18 A3007 RMK AC1CI0 CI TR SLP182

CYHM;2007-08-29 13:00;CYHM 291300Z 22005KT 10SM FEW140 SCT180 23/19 A3007 RMK AC1AC2 SLP180

CYHM;2007-08-29 14:00;CYHM 291400Z 22006KT 15SM SKC 25/19 A3006 RMK SLP177

CYHM;2007-08-29 15:00;CYHM 291500Z 20012KT 15SM SKC 28/19 A3005 RMK SLP174

CYHM;2007-08-29 16:00;CYHM 291600Z 23012KT 15SM SKC 30/20 A3005 RMK SLP173

CYHM;2007-08-29 17:00;CYHM 291700Z 25010KT 15SM FEW040 31/20 A3004 RMK CU1 CU TR SLP169

CYHM;2007-08-29 18:00;CYHM 291800Z 24010KT 15SM FEW042 FEW220 31/19 A3003 RMK CU1CI1 CI TR SLP167

CYHM;2007-08-29 19:00;CYHM 291900Z 23011KT 15SM FEW050 31/19 A3002 RMK CU1 SLP162

CYHM;2007-08-29 20:00;CYHM 292000Z 23009KT 15SM FEW056 32/19 A3000 RMK CU1 CU TR SLP155

CYHM;2007-08-29 21:00;CYHM 292100Z 23012KT 15SM FEW060 FEW180 31/18 A2998 RMK CU1AC1 CU TR AC TR SLP150

CYHM;2007-08-29 22:00;CYHM 292200Z 25008KT 15SM FEW190 FEW250 31/18 A2998 RMK AC1CI1 CI TR SLP148

CYHM;2007-08-29 23:00;CYHM 292300Z 22009KT 15SM FEW190 BKN250 30/18 A2997 RMK AC1CI4 AC TR CC ASOCTD SLP145

CYHM;2007-08-30 00:00;CYHM 300000Z 21006KT 12SM FEW190 SCT250 26/17 A2998 RMK AC1CI1 SLP149

CYHM;2007-08-30 01:00;CYHM 300100Z 21004KT 12SM FEW190 BKN250 23/18 A2999 RMK AC1CI1 SLP153

CYHM;2007-08-30 02:00;CYHM 300200Z 29004KT 12SM SCT044 BKN120 BKN250 24/18 A3001 RMK SC3AC2CI1 SLP161

CYHM;2007-08-30 03:00;CYHM 300300Z 03003KT 15SM FEW042 SCT120 BKN250 23/17 A3001 RMK SC2AC2CI1 SLP158

CYHM;2007-08-30 04:00;CYHM 300400Z 01004KT 15SM SCT120 BKN220 22/16 A3001 RMK AC4CI3 SLP160

CYHM;2007-08-30 05:00;CYHM 300500Z 32004KT 15SM FEW070 OVC180 21/17 A3002 RMK AC2AC6 SLP163

CYHM;2007-08-30 06:00;CYHM 300600Z 34005KT 15SM FEW060 BKN160 21/17 A3002 RMK SC2AC3 SLP161

CYHM;2007-08-30 07:00;CYHM 300700Z 34005KT 15SM FEW065 SCT090 BKN220 21/18 A3002 RMK SC2AC2CI3 SLP161

CYHM;2007-08-30 08:00;CYHM 300800Z 34005KT 15SM FEW018 BKN068 OVC230 21/18 A3002 RMK SC2AC4CI2 SLP162

CYHM;2007-08-30 09:00;CYHM 300900Z 33007KT 15SM BKN022 BKN070 OVC220 21/17 A3004 RMK SC6AC1CI2 SLP167

CYHM;2007-08-30 10:00;CYHM 301000Z 35008KT 15SM FEW022 BKN083 20/17 A3004 RMK SC2AC3 SLP168

CYHM;2007-08-30 11:00;CYHM 301100Z 35006KT 15SM FEW024 BKN086 19/16 A3005 RMK SC2AC5 SLP172

CYHM;2007-08-30 12:00;CYHM 301200Z 32006KT 15SM BKN013 BKN085 19/16 A3006 RMK SC6AC2 CU ASOCTD SLP178

CYHM;2007-08-30 13:00;CYHM 301300Z 36008KT 15SM BKN019 BKN055 BKN091 19/15 A3007 RMK SC5SC2AC1 SLP182

CYHM;2007-08-30 14:00;CYHM 301400Z 35008KT 15SM SCT016 BKN035 BKN092 20/16 A3008 RMK SC4SC2AC2 SLP184

CYHM;2007-08-30 15:00;CYHM 301500Z 03007KT 15SM BKN016 OVC080 20/15 A3010 RMK SC6AC2 SLP189

CYHM;2007-08-30 16:00;CYHM 301600Z 04012KT 15SM BKN020 BKN060 BKN100 21/16 A3010 RMK SC5SC2AC1 SLP189

CYHM;2007-08-30 17:00;CYHM 301700Z 02010KT 15SM FEW025 BKN035 BKN100 22/15 A3010 RMK CU2SC4AC1 SLP190

CYHM;2007-08-30 18:00;CYHM 301800Z 03010KT 15SM FEW032 FEW045 BKN220 23/15 A3010 RMK CU2SC1CI2 SLP189

CYHM;2007-08-30 19:00;CYHM 301900Z 05010KT 340V090 15SM FEW036 FEW250 24/14 A3008 RMK SC1CI1 SLP185

CYHM;2007-08-30 20:00;CYHM 302000Z 06010KT 360V090 15SM FEW040 FEW250 24/14 A3007 RMK SC1CI1 SLP182

CYHM;2007-08-30 21:00;CYHM 302100Z 04010KT 15SM FEW045 FEW250 24/12 A3007 RMK SC1CI1 SLP179

CYHM;2007-08-30 22:00;CYHM 302200Z 05009KT 340V080 15SM FEW045 FEW250 23/12 A3007 RMK SC1CI1 SLP180

CYHM;2007-08-30 23:00;CYHM 302300Z 05008KT 15SM FEW045 22/11 A3007 RMK SC1 SLP180

CYHM;2007-08-31 00:00;CYHM 310000Z 04006KT 15SM FEW045 FEW250 19/11 A3008 RMK SC1CI0 SLP184

CYHM;2007-08-31 01:00;CYHM 310100Z 36006KT 15SM FEW040 FEW250 17/12 A3010 RMK SC1CI0 SLP190

CYHM;2007-08-31 02:00;CYHM 310200Z 01007KT 15SM FEW250 17/12 A3011 RMK CI1 SLP195

CYHM;2007-08-31 03:00;CYHM 310300Z 02005KT 15SM FEW250 16/10 A3012 RMK CI1 SLP199

CYHM;2007-08-31 04:00;CYHM 310400Z 02005KT 15SM SKC 15/09 A3012 RMK SLP199

CYHM;2007-08-31 05:00;CYHM 310500Z 02008KT 15SM SKC 16/10 A3012 RMK SLP198

CYHM;2007-08-31 06:00;CYHM 310600Z 02007KT 15SM SKC 14/10 A3011 RMK SLP196

CYHM;2007-08-31 07:00;CYHM 310700Z 02005KT 15SM FEW250 13/10 A3012 RMK CI1 SLP198

CYHM;2007-08-31 08:00;CYHM 310800Z 01005KT 15SM FEW210 13/10 A3011 RMK CI1 SLP195

CYHM;2007-08-31 09:00;CYHM 310900Z 35007KT 15SM FEW035TCU FEW200 12/10 A3011 RMK TCU1CI1 SLP197

CYHM;2007-08-31 10:00;CYHM 311000Z 36005KT 15SM FEW035 FEW200 13/10 A3012 RMK SC1CI2 SLP199

CYHM;2007-08-31 11:00;CYHM 311100Z 35006KT 15SM FEW040 FEW220 13/10 A3013 RMK SC1CI1 SLP204

CYHM;2007-08-31 12:00;CYHM 311200Z 36005KT 15SM FEW020 15/11 A3015 RMK CU1 CU TR SLP209

CYHM;2007-08-31 13:00;CYHM 311300Z 03004KT 15SM FEW020 18/11 A3015 RMK CU1 SLP209

CYHM;2007-08-31 14:00;CYHM 311400Z 03003KT 15SM FEW025 20/10 A3015 RMK CU1 SLP211

CYHM;2007-08-31 15:00;CYHM 311500Z 03008KT 15SM FEW025 22/10 A3016 RMK CU1 SLP211

CYHM;2007-08-31 16:00;CYHM 311600Z 01010KT 15SM FEW042 23/10 A3016 RMK CU1 SLP211

CYHM;2007-08-31 17:00;CYHM 311700Z 06008KT 15SM FEW042 24/09 A3015 RMK CU1 SLP208

CYHM;2007-08-31 18:00;CYHM 311800Z 04008KT 15SM FEW042 25/10 A3014 RMK CU2 SLP206

CYHM;2007-08-31 19:00;CYHM 311900Z 36004KT 280V070 15SM FEW060 25/10 A3013 RMK SC1 SLP201

CYHM;2007-08-31 20:00;CYHM 312000Z 33005KT 290V040 15SM FEW068 25/09 A3012 RMK AC1 SLP200

CYHM;2007-08-31 21:00;CYHM 312100Z 35007KT 310V030 15SM FEW068 25/09 A3012 RMK AC1 SLP200

CYHM;2007-08-31 22:00;CYHM 312200Z 07007KT 320V100 15SM FEW070 25/10 A3011 RMK AC1 SLP197

CYHM;2007-08-31 23:00;CYHM 312300Z 05007KT 15SM FEW070 23/09 A3012 RMK AC1 SLP200

CYHM;2007-09-01 01:00;CYHM 010100Z 08002KT 15SM SKC 17/08 A3016 RMK SLP212

CYHM;2007-09-01 02:00;CYHM 010200Z 02005KT 15SM SKC 17/08 A3017 RMK SLP218

CYHM;2007-09-01 03:00;CYHM 010300Z 00000KT 15SM SKC 16/07 A3018 RMK SLP221

CYHM;2007-09-01 04:00;CYHM 010400Z 02007KT 15SM SKC 14/07 A3020 RMK SLP225

CYHM;2007-09-01 05:00;CYHM 010500Z 02007KT 15SM FEW120 15/08 A3020 RMK AC1 SLP227

CYHM;2007-09-01 06:00;CYHM 010600Z 02007KT 15SM FEW090 FEW220 15/10 A3020 RMK AC1CI1 SLP227

CYHM;2007-09-01 07:00;CYHM 010700Z 02005KT 15SM FEW090 14/11 A3021 RMK AC1 SLP228

CYHM;2007-09-01 08:00;CYHM 010800Z 02004KT 15SM FEW200 14/11 A3022 RMK CI1 SLP231

CYHM;2007-09-01 09:00;CYHM 010900Z 02006KT 15SM FEW200 14/11 A3023 RMK CI1 SLP235

CYHM;2007-09-01 10:00;CYHM 011000Z 03005KT 15SM FEW040 14/11 A3024 RMK SC1 SLP239

CYHM;2007-09-01 11:00;CYHM 011100Z 01005KT 15SM FEW083 13/11 A3026 RMK AC2 SLP247

CYHM;2007-09-01 12:00;CYHM 011200Z 03007KT 15SM FEW078 FEW250 16/12 A3027 RMK AC2CI1 CI TR SLP252

CYHM;2007-09-01 13:00;CYHM 011300Z 05009KT 360V080 15SM FEW020 FEW080 FEW250 18/12 A3030 RMK SC1AC1CI1 AC CI TR SLP259

CYHM;2007-09-01 14:00;CYHM 011400Z 05008KT 360V080 15SM FEW024 19/13 A3031 RMK CU2 SLP263

CYHM;2007-09-01 15:00;CYHM 011500Z 06009KT 010V110 15SM FEW021 20/13 A3032 RMK CU2 SLP266

CYHM;2007-09-01 16:00;CYHM 011600Z 06006KT 010V100 15SM SCT028 21/13 A3031 RMK CU3 SLP264

CYHM;2007-09-01 17:00;CYHM 011700Z 05010KT 010V090 15SM FEW040 21/10 A3031 RMK CU1 SLP264

CYHM;2007-09-01 18:00;CYHM 011800Z 08007KT 040V120 15SM FEW040 22/09 A3030 RMK CU2 SLP260

CYHM;2007-09-01 19:00;CYHM 011900Z 09006KT 050V130 15SM FEW040 23/10 A3028 RMK CU2 SLP255

CYHM;2007-09-01 20:00;CYHM 012000Z 10005KT 060V160 15SM FEW040 23/10 A3027 RMK CU2 SLP251

CYHM;2007-09-01 21:00;CYHM 012100Z 05005KT 360V090 15SM FEW040 22/10 A3026 RMK CU1 SLP249

CYHM;2007-09-01 22:00;CYHM 012200Z 07008KT 15SM FEW045 22/09 A3026 RMK SC1 CU ASOCTD SLP248

CYHM;2007-09-01 23:00;CYHM 012300Z 07008KT 15SM FEW045 21/09 A3026 RMK SC1 SC TR SLP246

CYHM;2007-09-02 00:00;CYHM 020000Z 07005KT 15SM FEW045 18/08 A3026 RMK SC1 SC TR SLP248

CYHM;2007-09-02 01:00;CYHM 020100Z 03004KT 15SM FEW050 17/08 A3027 RMK SC1 SC TR SLP252

CYHM;2007-09-02 02:00;CYHM 020200Z 05002KT 15SM SKC 15/09 A3028 RMK SLP253

CYHM;2007-09-02 03:00;CYHM 020300Z 00000KT 15SM FEW210 14/09 A3028 RMK CI1 SLP255

CYHM;2007-09-02 04:00;CYHM 020400Z 06002KT 15SM SKC 13/08 A3028 RMK SLP256

CYHM;2007-09-02 05:00;CYHM 020500Z 10002KT 15SM SKC 13/08 A3028 RMK SLP255

CYHM;2007-09-02 06:00;CYHM 020600Z 00000KT 15SM FEW250 13/07 A3027 RMK CI1 SLP252

CYHM;2007-09-02 07:00;CYHM 020700Z 13003KT 15SM FEW210 13/06 A3026 RMK CI1 SLP248

CYHM;2007-09-02 08:00;CYHM 020800Z 00000KT 15SM FEW210 13/05 A3026 RMK CI1 SLP249

CYHM;2007-09-02 09:00;CYHM 020900Z 00000KT 15SM FEW210 11/06 A3027 RMK CI1 SLP251

CYHM;2007-09-02 10:00;CYHM 021000Z 00000KT 15SM FEW200 12/06 A3028 RMK CI1 SLP253

CYHM;2007-09-02 11:00;CYHM 021100Z 00000KT 15SM FEW200 11/07 A3029 RMK CI1 SLP257

CYHM;2007-09-02 12:00;CYHM 021200Z 35002KT 15SM FEW230 15/10 A3030 RMK CI0 SLP260

CYHM;2007-09-02 13:00;CYHM 021300Z 16004KT 15SM FEW230 18/10 A3028 RMK CI0 SLP254

CYHM;2007-09-02 14:00;CYHM 021400Z 19003KT 15SM SKC 21/10 A3027 RMK SLP252

CYHM;2007-09-02 15:00;CYHM 021500Z 16004KT 060V200 15SM SKC 22/09 A3026 RMK SLP249

CYHM;2007-09-02 16:00;CYHM 021600Z 34004KT 15SM FEW045 23/10 A3026 RMK CU1 CU TR SLP247

CYHM;2007-09-02 17:00;CYHM 021700Z 10004KT 050V150 15SM FEW045 25/11 A3024 RMK CU1 SLP240

CYHM;2007-09-02 18:00;CYHM 021800Z 23003KT 15SM FEW045 26/11 A3022 RMK CU1 SLP232

CYHM;2007-09-02 19:00;CYHM 021900Z 18005KT 150V210 15SM FEW045 26/11 A3019 RMK SC1 SLP223

CYHM;2007-09-02 20:00;CYHM 022000Z 18010KT 140V210 15SM FEW050 25/11 A3017 RMK SC1 SC TR SLP215

CYHM;2007-09-02 21:00;CYHM 022100Z 21010KT 170V240 15SM FEW220 25/11 A3015 RMK CI0 SLP210

CYHM;2007-09-02 22:00;CYHM 022200Z 20010KT 15SM SKC 25/10 A3014 RMK SLP206

CYHM;2007-09-02 23:00;CYHM 022300Z 20008KT 15SM SKC 23/09 A3012 RMK SLP201

CYHM;2007-09-03 00:00;CYHM 030000Z 21006KT 15SM FEW250 19/08 A3011 RMK CI0 SLP197

CYHM;2007-09-03 01:00;CYHM 030100Z 21006KT 15SM FEW250 17/06 A3011 RMK CI1 CI TR SLP197

CYHM;2007-09-03 02:00;CYHM 030200Z 21006KT 15SM FEW250 16/07 A3010 RMK CI1 CI TR SLP195

CYHM;2007-09-03 03:00;CYHM 030300Z 24007KT 15SM SKC 15/07 A3010 RMK SLP192

CYHM;2007-09-03 04:00;CYHM 030400Z 23005KT 15SM FEW220 12/07 A3009 RMK CI1 SLP189

CYHM;2007-09-03 05:00;CYHM 030500Z 24005KT 15SM FEW200 13/08 A3009 RMK CI1 SLP189

CYHM;2007-09-03 06:00;CYHM 030600Z 25006KT 15SM SKC 14/10 A3009 RMK SLP189

CYHM;2007-09-03 07:00;CYHM 030700Z 24006KT 15SM FEW210 12/10 A3009 RMK CI1 SLP187

CYHM;2007-09-03 08:00;CYHM 030800Z 24006KT 15SM FEW210 12/10 A3008 RMK CI1 SLP184

CYHM;2007-09-03 09:00;CYHM 030900Z 24007KT 15SM FEW200 12/10 A3007 RMK CI1 SLP183

CYHM;2007-09-03 10:00;CYHM 031000Z 24007KT 15SM FEW200 13/12 A3007 RMK CI1 SLP184

CYHM;2007-09-03 11:00;CYHM 031100Z 22006KT 15SM FEW180 12/11 A3007 RMK AC1 AC TR SLP184

CYHM;2007-09-03 12:00;CYHM 031200Z 24006KT 15SM FEW140 FEW210 15/13 A3008 RMK AC1CI0 SLP185

CYHM;2007-09-03 13:00;CYHM 031300Z 26006KT 15SM FEW100 SCT210 18/14 A3007 RMK AC2CI2 SLP183

CYHM;2007-09-03 14:00;CYHM 031400Z 26006KT 15SM BKN081 BKN110 21/15 A3006 RMK AC6AC2 SLP180

CYHM;2007-09-03 15:00;CYHM 031500Z 27008KT 15SM BKN070 BKN110 22/15 A3007 RMK AC6AC1 SLP182

CYHM;2007-09-03 16:00;CYHM 031600Z 29008KT 15SM FEW055 BKN064 BKN082 23/16 A3007 RMK SC2SC3AC2 SLP182

CYHM;2007-09-03 17:00;CYHM 031700Z 27008KT 15SM FEW030 FEW055 SCT220 25/16 A3005 RMK CU1SC1CI2 CU TR SLP177

CYHM;2007-09-03 18:00;CYHM 031800Z 27010KT 15SM FEW040 FEW220 26/17 A3004 RMK CU1CI1 SLP171

CYHM;2007-09-03 19:00;CYHM 031900Z 23005KT 15SM FEW048 28/17 A3002 RMK CU1 SLP165

CYHM;2007-09-03 20:00;CYHM 032000Z 26010KT 15SM FEW052 29/16 A3000 RMK CU2 SLP159

CYHM;2007-09-03 21:00;CYHM 032100Z 28011KT 15SM FEW058 29/14 A3000 RMK CU2 SLP157

CYHM;2007-09-03 22:00;CYHM 032200Z 28007KT 15SM FEW060 28/14 A3000 RMK CU2 SLP157

CYHM;2007-09-03 23:00;CYHM 032300Z 27007KT 15SM FEW060 27/11 A3001 RMK CU1 CU TR SLP162

CYHM;2007-09-04 00:00;CYHM 040000Z 30006KT 15SM FEW070 23/09 A3003 RMK AC1 AC TR SLP168

CYHM;2007-09-04 01:00;CYHM 040100Z 30007KT 15SM FEW070 20/08 A3006 RMK AC1 AC TR SLP178

CYHM;2007-09-04 02:00;CYHM 040200Z 31003KT 15SM SKC 19/07 A3007 RMK SLP182

CYHM;2007-09-04 03:00;CYHM 040300Z 30002KT 15SM FEW070 17/07 A3007 RMK AC1 AC TR SLP180

CYHM;2007-09-04 04:00;CYHM 040400Z 32003KT 15SM FEW070 17/07 A3006 RMK AC1 AC TR SLP179

CYHM;2007-09-04 05:00;CYHM 040500Z 36002KT 15SM FEW070 16/07 A3006 RMK AC1 AC TR SLP178

CYHM;2007-09-04 06:00;CYHM 040600Z 31002KT 15SM FEW080 15/08 A3006 RMK AC1 AC TR SLP177

CYHM;2007-09-04 07:00;CYHM 040700Z 29003KT 15SM FEW080 12/08 A3006 RMK AC1 AC TR SLP177

CYHM;2007-09-04 08:00;CYHM 040800Z 29004KT 15SM FEW180 14/08 A3009 RMK AC2 SLP187

CYHM;2007-09-04 09:00;CYHM 040900Z 29002KT 15SM FEW140 13/08 A3008 RMK AC2 SLP184

CYHM;2007-09-04 10:00;CYHM 041000Z 00000KT 15SM BKN140 BKN200 13/09 A3007 RMK AC6CI1 SLP182

CYHM;2007-09-04 11:00;CYHM 041100Z 00000KT 15SM FEW120 SCT180 BKN220 14/09 A3008 RMK AC2AC1CI2 SLP184

CYHM;2007-09-04 12:00;CYHM 041200Z 00000KT 15SM FEW100 FEW180 BKN220 13/10 A3009 RMK AC1AC1CI2 SLP189

CYHM;2007-09-04 13:00;CYHM 041300Z 00000KT 15SM FEW140 SCT180 BKN220 18/11 A3009 RMK AC2AC1CI2 SLP189

CYHM;2007-09-04 14:00;CYHM 041400Z 00000KT 15SM BKN160 BKN220 20/11 A3010 RMK AC5CI1 SLP193

CYHM;2007-09-04 15:00;CYHM 041500Z 33002KT 15SM FEW120 SCT160 BKN220 22/12 A3011 RMK AC1AC3CI2 SLP195

CYHM;2007-09-04 16:00;CYHM 041600Z 33004KT 15SM FEW120 BKN160 BKN220 22/11 A3010 RMK AC2AC3CI2 SLP193

CYHM;2007-09-04 17:00;CYHM 041700Z 25005KT 15SM FEW040 FEW120 SCT160 BKN220 23/11 A3009 RMK CU1AC1AC2CI2 CU TR SLP190

CYHM;2007-09-04 18:00;CYHM 041800Z 33006KT 15SM FEW040 FEW130 SCT180 BKN220 24/12 A3009 RMK CU1AC2AC2CI3 CU TR SLP187

CYHM;2007-09-04 19:00;CYHM 041900Z 25003KT 15SM FEW150 BKN250 24/12 A3006 RMK AC2CS5 SUN DMLY VSBL SLP178

CYHM;2007-09-04 20:00;CYHM 042000Z 08008KT 15SM BKN170 BKN250 21/14 A3006 RMK AC6CI1 SLP177

CYHM;2007-09-04 21:00;CYHM 042100Z 04007KT 15SM FEW032 SCT120 BKN150 BKN250 22/14 A3006 RMK CU1AC3AC3CI1 CU TR SLP180

CYHM;2007-09-04 22:00;CYHM 042200Z 03005KT 15SM BKN100 BKN150 BKN210 21/15 A3007 RMK AC5AC1CI1 SLP183

CYHM;2007-09-04 23:00;CYHM 042300Z 05008KT 15SM FEW094 BKN190 BKN250 20/14 A3006 RMK AC2AC2CI2 SLP179

CYHM;2007-09-05 00:00;CYHM 050000Z 07005KT 15SM BKN087 BKN160 BKN220 19/14 A3005 RMK AC5AC1CI1 SLP178

CYHM;2007-09-05 01:00;CYHM 050100Z 05006KT 15SM BKN088 BKN160 18/15 A3007 RMK AC5AC1 SLP183

CYHM;2007-09-05 02:00;CYHM 050200Z 05008KT 15SM FEW080 BKN094 19/15 A3007 RMK AC2AC6 SLP184

CYHM;2007-09-05 03:00;CYHM 050300Z 05007KT 15SM BKN078 19/14 A3008 RMK AC7 SLP184

CYHM;2007-09-05 04:00;CYHM 050400Z 05008KT 15SM BKN070 BKN130 19/15 A3008 RMK AC6AC2 SLP186

CYHM;2007-09-05 05:00;CYHM 050500Z 05007KT 15SM BKN087 18/14 A3008 RMK AC6 SLP186

CYHM;2007-09-05 06:00;CYHM 050600Z 05008KT 15SM SCT070 BKN084 BKN110 18/15 A3008 RMK AC3AC3AC1 SLP185

CYHM;2007-09-05 07:00;CYHM 050700Z 07009KT 15SM FEW070 BKN110 BKN140 17/14 A3007 RMK AC2AC4AC2 SLP180

CYHM;2007-09-05 08:00;CYHM 050800Z 06006KT 15SM BKN088 BKN100 17/14 A3007 RMK AC5AC2 SLP180

CYHM;2007-09-05 09:00;CYHM 050900Z 06006KT 15SM BKN100 BKN120 BKN150 17/14 A3007 RMK AC5AC2AC1 SLP181

CYHM;2007-09-05 09:25;CYHM 050925Z 07005KT 15SM -SHRA BKN100 OVC150 RMK AC6AC2

CYHM;2007-09-05 09:53;CYHM 050953Z 07008KT 15SM BKN110 BKN150 RMK AC5AC2

CYHM;2007-09-05 10:00;CYHM 051000Z 05007KT 15SM BKN110 BKN150 17/14 A3008 RMK AC5AC2 SLP184

CYHM;2007-09-05 11:00;CYHM 051100Z 04007KT 15SM BKN056 BKN120 BKN220 17/14 A3009 RMK SC5AC2CI1 SLP188

CYHM;2007-09-05 12:00;CYHM 051200Z 05007KT 15SM BKN064 BKN120 18/14 A3010 RMK SC5AC2 SLP192

CYHM;2007-09-05 13:00;CYHM 051300Z 05012KT 15SM SCT042 BKN075 BKN120 19/14 A3012 RMK SC3AC2AC1 SLP198

CYHM;2007-09-05 15:00;CYHM 051500Z 06010KT 15SM FEW062 FEW240 22/14 A3012 RMK SC1CI0 SC TR CI TR SLP198

CYHM;2007-09-05 16:00;CYHM 051600Z 04003KT 15SM FEW120 SCT220 22/14 A3012 RMK AC2CI1 SLP199

CYHM;2007-09-05 17:00;CYHM 051700Z 04008KT 15SM FEW130 FEW240 23/15 A3012 RMK AC1CI1 SLP197

CYHM;2007-09-05 18:00;CYHM 051800Z 04008KT 15SM FEW120 FEW240 23/15 A3011 RMK AC1CI1 AC TR SLP194

CYHM;2007-09-05 19:00;CYHM 051900Z 05006KT 15SM FEW036 FEW120 BKN250 24/15 A3009 RMK CU1AC1CI1 CU TR SLP189

CYHM;2007-09-05 20:00;CYHM 052000Z 03008KT 15SM FEW036 FEW120 SCT250 23/15 A3009 RMK CU1AC1CI1 CU TR SLP187

CYHM;2007-09-05 21:00;CYHM 052100Z 03009KT 15SM FEW038 FEW120 FEW250 23/16 A3008 RMK CU1AC1CI1 CU TR AC TR SLP186

CYHM;2007-09-05 22:00;CYHM 052200Z 06010KT 15SM FEW120 FEW250 22/15 A3007 RMK AC1CI1 AC TR SLP183

CYHM;2007-09-05 23:00;CYHM 052300Z 05008KT 15SM FEW120 FEW250 21/15 A3009 RMK AC1CI1 AC TR SLP187

CYHM;2007-09-06 00:00;CYHM 060000Z 06007KT 15SM FEW034 FEW120 FEW250 19/15 A3008 RMK CU1AC1CI1 CU TR AC TR SLP187

CYHM;2007-09-06 01:00;CYHM 060100Z 04006KT 15SM FEW250 18/16 A3010 RMK CI1 CI TR SLP192

CYHM;2007-09-06 02:00;CYHM 060200Z 05004KT 15SM FEW250 18/15 A3011 RMK CI1 CI TR SLP195

CYHM;2007-09-06 03:00;CYHM 060300Z 03004KT 15SM FEW250 18/15 A3011 RMK CI1 SLP195

CYHM;2007-09-06 04:00;CYHM 060400Z 04004KT 15SM FEW250 17/15 A3011 RMK CI1 SLP195

CYHM;2007-09-06 05:00;CYHM 060500Z 05005KT 15SM FEW250 17/15 A3010 RMK CI2 SLP193

CYHM;2007-09-06 06:00;CYHM 060600Z 08003KT 15SM BKN270 17/15 A3010 RMK CI3 SLP191

CYHM;2007-09-06 07:00;CYHM 060700Z 17002KT 15SM SCT220 16/15 A3009 RMK CI2 SLP187

CYHM;2007-09-06 08:00;CYHM 060800Z 00000KT 15SM SCT220 16/15 A3009 RMK CI2 SLP189

CYHM;2007-09-06 08:40;CYHM 060840Z 00000KT 3/4SM BR SCT220 RMK FG2CI1 VIS VRB 1/2 - 1

CYHM;2007-09-06 09:00;CYHM 060900Z 00000KT 3/4SM BR SCT220 15/14 A3010 RMK FG2CI1 VIS VRB 1/2 - 1 SLP191

CYHM;2007-09-06 10:00;CYHM 061000Z 00000KT 3/4SM BR FEW220 15/14 A3010 RMK FG2CI1 VIS VRB 1/2 - 1 SLP192

CYHM;2007-09-06 10:22;CYHM 061022Z 24002KT 1/4SM FG FEW220 RMK FG2CI1

CYHM;2007-09-06 11:00;CYHM 061100Z 26002KT 1/2SM FG FEW220 13/13 A3010 RMK FG1CI1 VIS VRB 3/4-1/4 SLP194

CYHM;2007-09-06 11:06;CYHM 061106Z 00000KT 1/8SM FG FEW240 RMK FG2CI1

CYHM;2007-09-06 12:00;CYHM 061200Z 00000KT 1 1/2SM BR SKC 16/15 A3012 RMK FG1 SLP201

CYHM;2007-09-06 12:07;CYHM 061207Z 00000KT 1/8SM FG SKC RMK FG2

CYHM;2007-09-06 12:18;CYHM 061218Z 00000KT 1 1/2SM BR SKC RMK FG1

CYHM;2007-09-06 12:50;CYHM 061250Z 00000KT 2SM BR SKC

CYHM;2007-09-06 13:00;CYHM 061300Z 00000KT 3SM BR SKC 19/17 A3013 RMK SLP202

CYHM;2007-09-06 14:00;CYHM 061400Z 24008KT 10SM SKC 24/19 A3013 RMK SLP204

CYHM;2007-09-06 15:00;CYHM 061500Z 23008KT 15SM SKC 28/19 A3013 RMK SLP199

CYHM;2007-09-06 16:00;CYHM 061600Z 24010KT 15SM SKC 30/18 A3012 RMK SLP196

CYHM;2007-09-06 17:00;CYHM 061700Z 23012KT 15SM SKC 33/16 A3010 RMK SLP192

CYHM;2007-09-06 18:00;CYHM 061800Z 21014KT 15SM SKC 33/15 A3008 RMK SLP184

CYHM;2007-09-06 19:00;CYHM 061900Z 19012KT 15SM FEW065 FEW250 34/17 A3007 RMK CU1CI0 CU TR SLP179

CYHM;2007-09-06 20:00;CYHM 062000Z 22012KT 150V250 15SM FEW250 34/16 A3006 RMK CI0 SLP175

CYHM;2007-09-06 21:00;CYHM 062100Z 23014KT 15SM FEW250 32/13 A3005 RMK CI0 SLP173

CYHM;2007-09-06 22:00;CYHM 062200Z 21012KT 15SM SKC 31/14 A3005 RMK SLP174

CYHM;2007-09-06 23:00;CYHM 062300Z 21010KT 15SM FEW250 30/14 A3005 RMK CI1 SLP173

CYHM;2007-09-07 00:00;CYHM 070000Z 22008KT 15SM FEW100 27/14 A3005 RMK AC1 SLP175

CYHM;2007-09-07 01:00;CYHM 070100Z 22006KT 15SM SKC 24/14 A3007 RMK SLP180

CYHM;2007-09-07 02:00;CYHM 070200Z 22006KT 15SM FEW230 23/14 A3007 RMK CI1 SLP181

CYHM;2007-09-07 03:00;CYHM 070300Z 21005KT 15SM FEW150 FEW230 23/15 A3007 RMK AC1CI1 SLP179

CYHM;2007-09-07 04:00;CYHM 070400Z 20004KT 10SM FEW160 BKN230 22/15 A3007 RMK AC2CI2 SLP179

CYHM;2007-09-07 05:00;CYHM 070500Z 19004KT 10SM FEW160 OVC240 22/16 A3007 RMK AC1CI7 SLP177

CYHM;2007-09-07 06:00;CYHM 070600Z 00000KT 8SM SCT170 OVC240 21/17 A3006 RMK AC3CI5 HZ SLP173

CYHM;2007-09-07 07:00;CYHM 070700Z 21003KT 7SM BKN080 21/17 A3005 RMK AC6 HZ SLP171

CYHM;2007-09-07 08:00;CYHM 070800Z 20005KT 7SM BKN088 OVC240 20/18 A3005 RMK AC6CI2 HZ SLP172

CYHM;2007-09-07 09:00;CYHM 070900Z 19004KT 6SM HZ FEW080 BKN240 21/18 A3005 RMK AC1CI3 SLP172

CYHM;2007-09-07 10:00;CYHM 071000Z 18002KT 7SM FEW240 20/17 A3004 RMK CI1 HZ SLP168

CYHM;2007-09-07 11:00;CYHM 071100Z 19008KT 4SM HZ FEW240 22/19 A3005 RMK CI1 CI TR SLP172

CYHM;2007-09-07 12:00;CYHM 071200Z 20008KT 5SM HZ SKC 23/19 A3005 RMK SLP173

CYHM;2007-09-07 13:00;CYHM 071300Z 19012KT 10SM FEW160 25/19 A3003 RMK AC1 AC TR SLP167

CYHM;2007-09-07 14:00;CYHM 071400Z 22014KT 15SM BKN160 26/18 A3002 RMK AC6 SLP163

CYHM;2007-09-07 15:00;CYHM 071500Z 21016KT 15SM FEW220 28/19 A3001 RMK CI1 SLP157

CYHM;2007-09-07 16:00;CYHM 071600Z 22022KT 15SM FEW042 FEW240 30/17 A2998 RMK CU1CI1 SLP148

CYHM;2007-09-07 17:00;CYHM 071700Z 23023G28KT 15SM FEW042 30/17 A2995 RMK CU2 SLP140

CYHM;2007-09-07 18:00;CYHM 071800Z 22024G30KT 15SM FEW045 FEW053 30/17 A2994 RMK CU1SC2 SLP133

CYHM;2007-09-07 19:00;CYHM 071900Z 22025G34KT 15SM BKN047 BKN210 29/17 A2991 RMK SC6CI1 CU ASOCTD SLP126

CYHM;2007-09-07 20:00;CYHM 072000Z 21019G26KT 15SM BKN051 BKN062 OVC210 28/17 A2992 RMK SC5SC2CI1 SLP127

CYHM;2007-09-07 21:00;CYHM 072100Z 20018G26KT 15SM FEW048 SCT064 BKN140 29/18 A2989 RMK SC1SC3AC3 SLP117

CYHM;2007-09-07 22:00;CYHM 072200Z 21022G29KT 15SM FEW064 BKN120 BKN250 28/17 A2988 RMK SC2AC5CI0 SLP114

CYHM;2007-09-07 22:41;CYHM 072241Z 23016G25KT 5SM -SHRA BKN037 BKN070 OVC120 RMK SC6AC2AC1

CYHM;2007-09-07 23:00;CYHM 072300Z 20020G28KT 12SM -SHRA SCT037 BKN055 OVC110 25/19 A2989 RERA RMK SC3SC2AC2 SLP117

CYHM;2007-09-07 23:37;CYHM 072337Z 20018G26KT 15SM BKN052 OVC096 RMK SC5AC3

CYHM;2007-09-07 23:51;CYHM 072351Z 20016KT 15SM -SHRA SCT052 BKN096 RMK SC4AC3

CYHM;2007-09-08 00:00;CYHM 080000Z 22014KT 12SM -SHRA SCT052 BKN096 24/19 A2989 RMK SC4AC3 SLP120

CYHM;2007-09-08 00:47;CYHM 080047Z 22012KT 15SM FEW050 BKN098 BKN210 RMK SC1AC4CI2

CYHM;2007-09-08 01:00;CYHM 080100Z 21012KT 15SM SCT100 BKN210 24/19 A2991 RMK AC4CI2 SLP126

CYHM;2007-09-08 02:00;CYHM 080200Z 21015KT 15SM FEW050 FEW210 24/19 A2991 RMK SC2CI0 SLP125

CYHM;2007-09-08 03:00;CYHM 080300Z 22012KT 15SM FEW050 FEW110 SCT250 24/19 A2991 RMK SC1AC1CI1 TR SC SLP123

CYHM;2007-09-08 04:00;CYHM 080400Z 22013KT 15SM FEW057 SCT090 24/19 A2992 RMK SC2AC1 SLP127

CYHM;2007-09-08 04:42;CYHM 080442Z 23017G24KT 10SM -SHRA BKN020 OVC065 RMK SC6SC2

CYHM;2007-09-08 05:00;CYHM 080500Z 23010KT 12SM FEW015 FEW060 SCT140 23/20 A2993 RMK CF1SC2AC1 SLP131

CYHM;2007-09-08 06:00;CYHM 080600Z 24008KT 15SM FEW060 FEW140 23/20 A2994 RMK SC1AC1 SLP134

CYHM;2007-09-08 07:00;CYHM 080700Z 23011KT 10SM BKN140 22/20 A2994 RMK AC5 SLP135

CYHM;2007-09-08 08:00;CYHM 080800Z 24011KT 8SM SCT150 22/20 A2995 RMK AC3 HZ SLP137

CYHM;2007-09-08 09:00;CYHM 080900Z 26011KT 5SM HZ BKN012 BKN140 22/20 A2997 RMK SC6AC1 SLP144

CYHM;2007-09-08 09:22;CYHM 080922Z 30008KT 10SM FEW010 SCT100 RMK SC2AC2

CYHM;2007-09-08 10:00;CYHM 081000Z 31008KT 15SM BKN110 19/15 A3000 RMK AC6 SLP154

CYHM;2007-09-08 11:00;CYHM 081100Z 29004KT 15SM FEW015 SCT100 BKN250 18/15 A3002 RMK CU1AC3CI1 CU TR SLP162

CYHM;2007-09-08 12:00;CYHM 081200Z 29002KT 15SM FEW013 FEW250 19/15 A3004 RMK SC1CI0 SLP171

CYHM;2007-09-08 13:00;CYHM 081300Z 31005KT 15SM FEW018 FEW250 20/15 A3006 RMK SC1CI1 SC TR SLP176

CYHM;2007-09-08 14:00;CYHM 081400Z 23002KT 15SM FEW250 21/14 A3007 RMK CI1 WND L/V SLP180

CYHM;2007-09-08 15:00;CYHM 081500Z 33002KT 15SM FEW150 FEW250 22/14 A3007 RMK AC1CI1 WND L/VAC TR SLP181

CYHM;2007-09-08 16:00;CYHM 081600Z 02002KT 15SM FEW250 24/14 A3007 RMK CI1 WND L/V SLP179

CYHM;2007-09-08 18:00;CYHM 081800Z 29003KT 15SM BKN250 27/14 A3007 RMK CI2 SLP179

CYHM;2007-09-08 19:00;CYHM 081900Z 31006KT 260V360 15SM FEW050 SCT120 SCT240 28/13 A3005 RMK SC2AC2CI1 SLP174

CYHM;2007-09-08 20:00;CYHM 082000Z 08006KT 030V120 15SM FEW050 SCT120 BKN240 27/14 A3004 RMK SC2AC2CI1 SLP171

CYHM;2007-09-08 21:00;CYHM 082100Z 05011KT 15SM FEW045 SCT100 SCT200 25/13 A3004 RMK SC2AC2CI1 SLP171

CYHM;2007-09-08 22:00;CYHM 082200Z 06011KT 030V090 15SM FEW040 FEW062 FEW100 SCT220 24/13 A3005 RMK SC1SC1AC1CI1 SLP172

CYHM;2007-09-08 23:00;CYHM 082300Z 06011KT 15SM FEW035 FEW060 SCT100 BKN250 23/13 A3006 RMK SC2SC1AC2CI1 SLP176

CYHM;2007-09-09 00:00;CYHM 090000Z 06009KT 15SM FEW040 SCT100 SCT220 21/12 A3007 RMK SC2AC2CI1 SLP180

CYHM;2007-09-09 01:00;CYHM 090100Z 07008KT 15SM FEW040 FEW100 20/13 A3008 RMK CU2AC1 LTNG DISTANCE S SLP186

CYHM;2007-09-09 02:00;CYHM 090200Z 06009KT 15SM FEW040 BKN220 20/13 A3008 RMK SC2CI2 SLP185

CYHM;2007-09-09 03:00;CYHM 090300Z 05008KT 15SM BKN220 20/14 A3008 RMK CI4 SLP186

CYHM;2007-09-09 04:00;CYHM 090400Z 05007KT 15SM BKN250 19/14 A3009 RMK CI6 SLP187

CYHM;2007-09-09 05:00;CYHM 090500Z CCA 05010KT 15SM SCT061 BKN085 19/13 A3007 RMK SC3AC2 SLP181

CYHM;2007-09-09 06:00;CYHM 090600Z 04012KT 15SM FEW025 OVC042 19/14 A3008 RMK CF1SC7 SLP183

CYHM;2007-09-09 07:00;CYHM 090700Z 05013KT 15SM OVC047 20/16 A3005 RMK SC8 SLP174

CYHM;2007-09-09 07:32;CYHM 090732Z 06013KT 12SM -SHRA BKN010 OVC038 RMK CF6SC2

CYHM;2007-09-09 08:00;CYHM 090800Z 06014KT 10SM -SHRA OVC013 18/16 A3004 RMK SC8 SLP170

CYHM;2007-09-09 08:54;CYHM 090854Z 05013KT 12SM -SHRA FEW008 OVC036 RMK CF2SC6

CYHM;2007-09-09 09:00;CYHM 090900Z 05013KT 12SM -SHRA FEW009 OVC040 18/15 A3004 RMK CF2SC6 SLP170

CYHM;2007-09-09 10:00;CYHM 091000Z 06014KT 7SM -SHRA FEW005 OVC024 17/16 A3004 RMK CF2SC6 SLP169

CYHM;2007-09-09 10:02;CYHM 091002Z 06013KT 6SM -SHRA BKN005 OVC035 RMK CF6SC2

CYHM;2007-09-09 10:48;CYHM 091048Z 05013KT 6SM -SHRA OVC004 RMK SC8

CYHM;2007-09-09 11:00;CYHM 091100Z 05012KT 010V080 6SM -SHRA OVC004 17/16 A3004 RMK SC8 SLP171

CYHM;2007-09-09 12:00;CYHM 091200Z 06012KT 6SM -SHRA BKN004 OVC011 17/16 A3003 RMK SC6SC2 SLP169

CYHM;2007-09-09 13:00;CYHM 091300Z 05014KT 7SM -SHRA OVC003 17/15 A3004 RMK SC8 SLP172

CYHM;2007-09-09 14:00;CYHM 091400Z 05014KT 8SM -SHRA OVC003 17/15 A3004 RMK SC8 SLP173

CYHM;2007-09-09 15:00;CYHM 091500Z 06015KT 8SM -SHRA OVC003 17/15 A3005 RMK SC8 SLP176

CYHM;2007-09-09 16:00;CYHM 091600Z 05015KT 8SM -SHRA OVC002 17/15 A3004 RMK SC8 SLP174

CYHM;2007-09-09 17:00;CYHM 091700Z 04015KT 5SM -SHRA BR OVC002 17/15 A3003 RMK SC8 SLP169

CYHM;2007-09-09 17:22;CYHM 091722Z 06019KT 4SM -DZ BR OVC002 RMK SC8

CYHM;2007-09-09 18:00;CYHM 091800Z 06014KT 5SM -DZ BR OVC003 17/15 A3002 RMK SC8 SLP165

CYHM;2007-09-09 18:49;CYHM 091849Z 05013KT 2SM -DZ BR OVC004 RMK FG1ST7

CYHM;2007-09-09 19:00;CYHM 091900Z 05013KT 1 1/4SM -DZ BR OVC003 17/15 A3002 RMK FG2ST6 SLP164

CYHM;2007-09-09 19:29;CYHM 091929Z 05013KT 1 3/4SM -DZ BR OVC004 RMK FG2ST6

CYHM;2007-09-09 20:00;CYHM 092000Z 05013KT 2 1/2SM -DZ BR OVC004 17/16 A3001 RMK FG1ST7 SLP161

CYHM;2007-09-09 21:00;CYHM 092100Z 05012KT 2 1/2SM -DZ BR OVC004 17/16 A3001 RMK FG1ST7 SLP164

CYHM;2007-09-09 21:42;CYHM 092142Z 05012KT 1 1/4SM -DZ BR OVC003 RMK FG2ST6

CYHM;2007-09-09 21:49;CYHM 092149Z 04012KT 1 1/4SM -DZ BR OVC002 RMK FG2ST6

CYHM;2007-09-09 22:00;CYHM 092200Z 04012KT 1 1/2SM BR OVC002 17/15 A3001 RMK FG2ST6 SLP164

CYHM;2007-09-09 23:00;CYHM 092300Z 05013KT 1 1/4SM BR OVC002 16/15 A3001 RMK FG2ST6 SLP164

CYHM;2007-09-09 23:36;CYHM 092336Z 02008KT 1 3/4SM BR OVC003 RMK FG1ST7

CYHM;2007-09-10 00:00;CYHM 100000Z 02009KT 2 1/2SM BR OVC003 16/15 A3004 RMK FG1ST7 SLP171

CYHM;2007-09-10 01:00;CYHM 100100Z 02007KT 3SM BR OVC004 17/15 A3005 RMK ST8 SLP175

CYHM;2007-09-10 01:21;CYHM 100121Z 02006KT 4SM BR BKN005 OVC010 RMK SF6SC2

CYHM;2007-09-10 02:00;CYHM 100200Z 03007KT 5SM BR SCT005 BKN011 OVC038 17/15 A3005 RMK SF4SC2SC2 SLP176

CYHM;2007-09-10 02:17;CYHM 100217Z 04007KT 6SM BR BKN005 BKN040 RMK SF6SC2

CYHM;2007-09-10 03:00;CYHM 100300Z 03005KT 6SM BR FEW005 OVC037 17/15 A3006 RMK SF2SC6 SLP178

CYHM;2007-09-10 04:00;CYHM 100400Z 04004KT 6SM BR FEW005 BKN010 OVC036 17/15 A3006 RMK SF1SC5SC2 SLP180

CYHM;2007-09-10 05:00;CYHM 100500Z 01003KT 6SM BR FEW011 OVC039 17/15 A3007 RMK CF2SC6 SLP182

CYHM;2007-09-10 06:00;CYHM 100600Z 00000KT 7SM FEW012 FEW037 SCT200 15/14 A3006 RMK CF1SC1CI1 SLP181

CYHM;2007-09-10 06:34;CYHM 100634Z 00000KT 3SM BR SCT007 RMK SF4 VIS VRB 2 - 4

CYHM;2007-09-10 07:00;CYHM 100700Z 35004KT 5SM BR SCT007 15/14 A3007 RMK SF2 SLP182

CYHM;2007-09-10 08:00;CYHM 100800Z 31004KT 5SM BR FEW004 FEW012 14/13 A3007 RMK CF1SC1 SLP184

CYHM;2007-09-10 09:00;CYHM 100900Z 33002KT 12SM SCT010 13/12 A3008 RMK CF3 SLP189

CYHM;2007-09-10 10:00;CYHM 101000Z 35004KT 15SM FEW030 BKN160 13/12 A3009 RMK SC1AC5 SLP191

CYHM;2007-09-10 11:00;CYHM 101100Z 00000KT 15SM FEW045 BKN160 BKN220 13/11 A3010 RMK SC1AC4CI1 SLP194

CYHM;2007-09-10 12:00;CYHM 101200Z 03002KT 15SM FEW045 BKN160 BKN220 14/12 A3010 RMK SC1AC5CI1 SLP196

CYHM;2007-09-10 13:00;CYHM 101300Z 06002KT 15SM SCT160 OVC210 16/14 A3011 RMK AC3CI4 SLP197

CYHM;2007-09-10 14:00;CYHM 101400Z 03002KT 15SM FEW020 SCT180 OVC220 17/15 A3013 RMK CU2AC2CI4 SLP203

CYHM;2007-09-10 15:00;CYHM 101500Z 05005KT 15SM SCT012 BKN150 OVC220 19/15 A3011 RMK CU4AC2CI2 SLP197

CYHM;2007-09-10 16:00;CYHM 101600Z 06007KT 15SM SCT018 SCT160 BKN210 20/15 A3010 RMK CU3AC1CI2 SLP193

CYHM;2007-09-10 17:00;CYHM 101700Z 06005KT 15SM FEW022 SCT160 BKN220 21/14 A3009 RMK CU2AC2CI2 SLP190

CYHM;2007-09-10 18:00;CYHM 101800Z 04003KT 15SM FEW029 BKN220 22/14 A3008 RMK CU2CI2 SLP185

CYHM;2007-09-10 19:00;CYHM 101900Z 00000KT 15SM FEW028 SCT250 23/14 A3005 RMK CU2CI2 CC ASOCTD CONTRAILS SLP176

CYHM;2007-09-10 20:00;CYHM 102000Z 12002KT 15SM FEW028 SCT250 23/15 A3002 RMK CU2CI1 WND L/V SLP167

CYHM;2007-09-10 21:00;CYHM 102100Z 06008KT 15SM FEW028 FEW070 BKN250 22/14 A3001 RMK CU1AC1CC2 AC TR SLP164

CYHM;2007-09-10 22:00;CYHM 102200Z 07006KT 15SM FEW030 SCT190 BKN250 21/14 A2999 RMK SC1AC2CI2 SLP157

CYHM;2007-09-10 23:00;CYHM 102300Z 09003KT 15SM FEW030 BKN080 BKN250 20/13 A2998 RMK SC1AC6CI1 SLP153

CYHM;2007-09-11 00:00;CYHM 110000Z 13004KT 15SM BKN078 OVC250 19/14 A2997 RMK AC7CI1 SLP149

CYHM;2007-09-11 01:00;CYHM 110100Z 00000KT 15SM BKN075 OVC210 19/15 A2997 RMK AC7CI1 SLP148

CYHM;2007-09-11 02:00;CYHM 110200Z 19002KT 15SM SCT070 BKN150 OVC220 18/15 A2994 RMK AC3AC4CI1 SLP138

CYHM;2007-09-11 03:00;CYHM 110300Z 17003KT 15SM SCT120 SCT150 OVC220 18/14 A2991 RMK AC3AC1CI4 SLP126

CYHM;2007-09-11 04:00;CYHM 110400Z 00000KT 15SM BKN120 BKN180 OVC220 17/15 A2988 RMK AC5AC2CI2 SLP117

CYHM;2007-09-11 05:00;CYHM 110500Z 00000KT 15SM BKN120 BKN180 OVC220 17/14 A2984 RMK AC6AC2CI1 SLP105

CYHM;2007-09-11 06:00;CYHM 110600Z 00000KT 15SM SCT032 BKN120 OVC220 17/14 A2982 RMK SC3AC4CI1 SLP098

CYHM;2007-09-11 07:00;CYHM 110700Z 33003KT 15SM FEW034 BKN044 OVC160 17/14 A2980 RMK CF2SC5AC2 SLP090

CYHM;2007-09-11 08:00;CYHM 110800Z 33004KT 15SM -SHRA SCT034 BKN042 OVC110 17/14 A2979 RMK SC3SC4AC1 SLP086

CYHM;2007-09-11 09:00;CYHM 110900Z 34005KT 6SM -RA BR FEW018 BKN032 OVC100 16/15 A2978 RMK SF1SC6AC1 SLP084

CYHM;2007-09-11 10:00;CYHM 111000Z 05007KT 5SM -RA BR FEW034 BKN055 OVC094 15/14 A2972 RMK SC2SC5AC1 SF ASOCTD SLP064

CYHM;2007-09-11 11:00;CYHM 111100Z 10007KT 3SM -RA BR BKN003 BKN062 OVC120 15/14 A2970 RMK SF5SC2AC1 SLP058

CYHM;2007-09-11 11:11;CYHM 111111Z 10004KT 4SM BR BKN004 BKN060 OVC120 RMK SF5SC2AC2 RERA

CYHM;2007-09-11 12:00;CYHM 111200Z 03002KT 4SM BR BKN006 BKN058 BKN078 OVC120 15/14 A2971 RMK SF5SC2AC1AC1 SLP060

CYHM;2007-09-11 12:29;CYHM 111229Z 17003KT 6SM BR FEW010 BKN022 BKN150 RMK SF2SC3AC2

CYHM;2007-09-11 13:00;CYHM 111300Z 21002KT 6SM BR BKN005 OVC022 16/14 A2970 RMK SF6SC2 SLP057

CYHM;2007-09-11 14:00;CYHM 111400Z 24004KT 6SM BR FEW004 BKN012 OVC018 16/14 A2969 RMK SF2SC4SC2 SLP054

CYHM;2007-09-11 15:00;CYHM 111500Z 26005KT 6SM BR SCT009 OVC018 16/15 A2968 RMK SF4SC4 SLP051

CYHM;2007-09-11 16:00;CYHM 111600Z 26010KT 15SM SCT012 BKN038 BKN084 19/15 A2966 RMK CU3SC2AC2 SLP044

CYHM;2007-09-11 17:00;CYHM 111700Z 27012KT 15SM FEW015 SCT032 BKN069 20/13 A2964 RMK CU2SC2AC2 SLP038

CYHM;2007-09-11 18:00;CYHM 111800Z 27014KT 15SM SCT030 BKN044 BKN070 20/13 A2964 RMK CU3SC2AC2 SLP036

CYHM;2007-09-11 19:00;CYHM 111900Z 27015G23KT 15SM FEW030 BKN046 18/12 A2966 RMK CF2SC5 SLP042

CYHM;2007-09-11 20:00;CYHM 112000Z 28014G21KT 15SM FEW038 SCT130 19/10 A2965 RMK CU2AC2 SLP038

CYHM;2007-09-11 21:00;CYHM 112100Z 25010G17KT 15SM FEW044 FEW130 19/08 A2965 RMK CU1AC1 SLP039

CYHM;2007-09-11 22:00;CYHM 112200Z 26011KT 15SM FEW046 FEW130 19/08 A2965 RMK CU1AC1 AC TR SLP041

CYHM;2007-09-11 23:00;CYHM 112300Z 25011KT 15SM FEW044 FEW100 18/08 A2966 RMK CU1AC1 AC TR SLP042

CYHM;2007-09-11 23:55;CYHM 112355Z 28020G30KT 12SM -TSRA BKN044CB BKN100 RMK CB6AC2 LTNG

CYHM;2007-09-12 00:00;CYHM 120000Z 30016G24KT 12SM -TSRA BKN044CB BKN100 12/08 A2971 RMK CB6AC2 LTNG SLP063

CYHM;2007-09-12 00:45;CYHM 120045Z 26006KT 15SM -SHRA BKN064 OVC120 RETS RMK SC6AC2 LTNG

CYHM;2007-09-12 01:00;CYHM 120100Z 25006KT 15SM FEW064 BKN096 BKN120 11/09 A2971 RETS RMK SC2AC3AC2 SLP063

CYHM;2007-09-12 02:00;CYHM 120200Z 28007KT 15SM FEW042 FEW070 BKN120 12/09 A2973 RMK SC1AC1AC3 SLP069

CYHM;2007-09-12 03:00;CYHM 120300Z 25007KT 15SM FEW120 11/08 A2974 RMK AC1 SLP073

CYHM;2007-09-12 04:00;CYHM 120400Z 26008KT 15SM FEW090 11/08 A2976 RMK AC1 AC TR SLP078

CYHM;2007-09-12 06:00;CYHM 120600Z 25008KT 15SM SCT038 11/09 A2980 RMK SC3 SLP091

CYHM;2007-09-12 07:00;CYHM 120700Z 25010KT 15SM FEW044 11/09 A2981 RMK SC1 SC TR SLP094

CYHM;2007-09-12 08:00;CYHM 120800Z 24005KT 15SM FEW044 11/08 A2983 RMK SC1 SC TR SLP102

CYHM;2007-09-12 09:00;CYHM 120900Z 24005KT 15SM FEW045 10/08 A2986 RMK SC1 SC TR SLP113

CYHM;2007-09-12 10:00;CYHM 121000Z 23008KT 15SM FEW034 10/08 A2989 RMK SC1 SC TR SLP122

CYHM;2007-09-12 11:00;CYHM 121100Z 25008KT 15SM FEW035 10/08 A2991 RMK SC1 SLP131

CYHM;2007-09-12 12:00;CYHM 121200Z 26010KT 15SM FEW020 FEW035 11/09 A2994 RMK CU1SC1 CU TR SLP142

CYHM;2007-09-12 13:00;CYHM 121300Z 27012KT 15SM FEW020 SCT035 13/10 A2997 RMK CU1SC2 SLP151

CYHM;2007-09-12 14:00;CYHM 121400Z 27012KT 15SM FEW021 BKN028 15/10 A2999 RMK CU2SC4 SLP159

CYHM;2007-09-12 15:00;CYHM 121500Z 28009KT 15SM FEW027 BKN036 16/10 A3003 RMK CU2SC5 SLP170

CYHM;2007-09-12 16:00;CYHM 121600Z 33008KT 15SM FEW035 BKN051 16/10 A3004 RMK CU2SC5 SLP173

CYHM;2007-09-12 17:00;CYHM 121700Z 27008KT 15SM FEW035 SCT050 18/10 A3004 RMK CU2SC2 SLP174

CYHM;2007-09-12 18:00;CYHM 121800Z 27010KT 15SM FEW038 BKN052 18/10 A3004 RMK CU2SC6 SLP175

CYHM;2007-09-12 19:00;CYHM 121900Z 25007KT 15SM FEW040 BKN064 18/10 A3005 RMK CF1SC6 CUFRA SLP177

CYHM;2007-09-12 20:00;CYHM 122000Z 31006KT 15SM BKN040 BKN058 17/10 A3006 RMK SC5SC2 SLP180

CYHM;2007-09-12 21:00;CYHM 122100Z 30004KT 15SM FEW042 BKN070 18/10 A3007 RMK SC2AC5 SLP184

CYHM;2007-09-12 22:00;CYHM 122200Z 26005KT 15SM FEW042 BKN070 17/10 A3008 RMK SC1AC6 SLP189

CYHM;2007-09-12 23:00;CYHM 122300Z 25007KT 15SM BKN070 16/10 A3010 RMK AC7 SLP194

CYHM;2007-09-13 00:00;CYHM 130000Z 25004KT 15SM FEW038 BKN068 16/09 A3012 RMK SC1AC6 SLP201

CYHM;2007-09-13 01:00;CYHM 130100Z 24004KT 15SM BKN068 14/10 A3014 RMK AC7 SLP209

CYHM;2007-09-13 02:00;CYHM 130200Z 24003KT 15SM FEW067 12/09 A3015 RMK AC1 SLP213

CYHM;2007-09-13 03:00;CYHM 130300Z 31004KT 15SM FEW200 11/09 A3016 RMK CI1 SLP216

CYHM;2007-09-13 04:00;CYHM 130400Z 31003KT 15SM FEW210 11/09 A3017 RMK CI1 SLP218

CYHM;2007-09-13 05:00;CYHM 130500Z 00000KT 15SM FEW200 10/09 A3018 RMK CI1 SHLW GND FG SLP221

CYHM;2007-09-13 06:00;CYHM 130600Z 23003KT 15SM FEW058 FEW200 09/08 A3018 RMK SC1CI1 SHLW GND FG TR SC SLP221

CYHM;2007-09-13 07:00;CYHM 130700Z 26002KT 15SM FEW210 09/08 A3018 RMK CI1 SHLW GND FG SLP221

CYHM;2007-09-13 08:00;CYHM 130800Z 29003KT 15SM FEW056 08/07 A3018 RMK SC1 SHLW GND FG SLP221

CYHM;2007-09-13 09:00;CYHM 130900Z 00000KT 15SM FEW070 08/07 A3018 RMK AC1 SLP224

CYHM;2007-09-13 10:00;CYHM 131000Z 33003KT 15SM FEW060 FEW200 08/06 A3018 RMK SC1CI1 TR SC SLP224

CYHM;2007-09-13 11:00;CYHM 131100Z 00000KT 15SM FEW060 08/06 A3019 RMK SC1 SLP226

CYHM;2007-09-13 12:00;CYHM 131200Z 00000KT 15SM FEW060 FEW120 10/08 A3020 RMK SC1AC1 AC TR SLP229

CYHM;2007-09-13 13:00;CYHM 131300Z 00000KT 15SM BKN045 13/09 A3020 RMK SC6 SLP231

CYHM;2007-09-13 14:00;CYHM 131400Z 09006KT 15SM FEW018 BKN046 15/11 A3021 RMK CU1SC7 CU TR SLP233

CYHM;2007-09-13 15:00;CYHM 131500Z 16004KT 15SM FEW035 BKN048 BKN120 17/10 A3021 RMK CU1SC4AC2 SLP231

CYHM;2007-09-13 16:00;CYHM 131600Z 15007KT 15SM SCT036 BKN045 19/10 A3018 RMK CU3SC2 SLP223

CYHM;2007-09-13 17:00;CYHM 131700Z 19008KT 15SM SCT036 BKN045 BKN100 19/11 A3017 RMK CU3SC2AC1 SLP220

CYHM;2007-09-13 18:00;CYHM 131800Z 14008KT 15SM SCT038 BKN046 19/11 A3015 RMK CU3SC3 SLP211

CYHM;2007-09-13 19:00;CYHM 131900Z 19008KT 15SM BKN041 20/10 A3013 RMK SC5 SLP204

CYHM;2007-09-13 20:00;CYHM 132000Z 18008KT 15SM FEW045 21/09 A3010 RMK SC1 SLP194

CYHM;2007-09-13 21:00;CYHM 132100Z 18011KT 130V210 15SM FEW052 21/07 A3009 RMK SC1 SLP190

CYHM;2007-09-13 22:00;CYHM 132200Z 20008KT 15SM FEW056 20/09 A3007 RMK SC1 SLP185

CYHM;2007-09-13 23:00;CYHM 132300Z 23006KT 15SM FEW250 19/10 A3007 RMK CI1 SLP184

CYHM;2007-09-14 00:00;CYHM 140000Z 18004KT 15SM FEW250 17/09 A3005 RMK CI1 SLP179

CYHM;2007-09-14 01:00;CYHM 140100Z 12003KT 15SM SKC 15/09 A3006 RMK SLP180

CYHM;2007-09-14 02:00;CYHM 140200Z 13004KT 15SM SKC 14/10 A3005 RMK SLP177

CYHM;2007-09-14 03:00;CYHM 140300Z 15004KT 15SM FEW210 14/09 A3004 RMK CI1 SLP172

CYHM;2007-09-14 04:00;CYHM 140400Z 16005KT 15SM FEW210 13/09 A3001 RMK CI1 SLP164

CYHM;2007-09-14 05:00;CYHM 140500Z 17005KT 15SM SKC 13/09 A3000 RMK SLP159

CYHM;2007-09-14 06:00;CYHM 140600Z 19005KT 15SM FEW210 12/09 A2998 RMK CI1 SLP153

CYHM;2007-09-14 07:00;CYHM 140700Z 18005KT 15SM FEW210 12/10 A2996 RMK CI1 SLP146

CYHM;2007-09-14 08:00;CYHM 140800Z 19005KT 15SM FEW200 12/11 A2995 RMK CI1 SHLW GND FG SLP142

CYHM;2007-09-14 10:00;CYHM 141000Z CCA 18007KT 15SM FEW200 14/12 A2995 RMK CI1 SHLW GND FG SLP142

CYHM;2007-09-14 11:00;CYHM 141100Z 18007KT 15SM FEW140 FEW210 14/12 A2990 RMK AC1CI1 SLP126

CYHM;2007-09-14 12:00;CYHM 141200Z 20008KT 15SM FEW210 16/14 A2989 RMK CI1 SLP121

CYHM;2007-09-14 13:00;CYHM 141300Z 19012KT 15SM FEW210 19/15 A2988 RMK CI1 SLP118

CYHM;2007-09-14 14:00;CYHM 141400Z 20012KT 15SM FEW210 22/15 A2987 RMK CI1 SLP114

CYHM;2007-09-14 15:00;CYHM 141500Z 22015KT 15SM FEW180 FEW240 24/14 A2985 RMK AC1CI1 SLP106

CYHM;2007-09-14 16:00;CYHM 141600Z 22015KT 15SM FEW220 25/12 A2982 RMK CI1 SLP097

CYHM;2007-09-14 17:00;CYHM 141700Z 23019G24KT 15SM FEW240 26/11 A2981 RMK CI1 CI TR SLP093

CYHM;2007-09-14 18:00;CYHM 141800Z 22022G28KT 15SM FEW040 FEW240 27/09 A2979 RMK CU1CI1 SLP088

CYHM;2007-09-14 19:00;CYHM 141900Z 22026KT 15SM FEW055 FEW250 26/12 A2978 RMK CU1CI1 SLP083

CYHM;2007-09-14 20:00;CYHM 142000Z 23023KT 15SM FEW055 FEW080 26/13 A2975 RMK CU1AC1 CU TR SLP075

CYHM;2007-09-14 21:00;CYHM 142100Z 27016G26KT 15SM BKN047 23/14 A2978 RMK SC7 SLP086

CYHM;2007-09-14 21:10;CYHM 142110Z 30018G26KT 15SM -SHRA BKN047 BKN099 RMK SC6AC1

CYHM;2007-09-14 22:00;CYHM 142200Z 29011G20KT 15SM -SHRA FEW018 SCT028 BKN055 OVC072 15/12 A2984 RMK CF2CU2SC2AC2 SLP105

CYHM;2007-09-14 23:00;CYHM 142300Z 30013KT 260V340 8SM -SHRA FEW012 BKN045 OVC078 13/11 A2986 RERA RMK CF2SC5AC1 SLP111

CYHM;2007-09-14 23:44;CYHM 142344Z 29004KT 15SM FEW012 BKN047 RMK CF1SC6

CYHM;2007-09-15 00:00;CYHM 150000Z 29005KT 250V330 15SM BKN049 13/11 A2987 RMK SC7 SLP115

CYHM;2007-09-15 01:00;CYHM 150100Z 29005KT 15SM FEW015 OVC082 13/11 A2989 RMK CF1AC8 SLP123

CYHM;2007-09-15 02:00;CYHM 150200Z 29006KT 260V350 15SM BKN098 13/10 A2993 RMK AC7 SLP137

CYHM;2007-09-15 03:00;CYHM 150300Z 29002KT 15SM FEW045 BKN130 12/10 A2995 RMK SC2AC6 SLP143

CYHM;2007-09-15 04:00;CYHM 150400Z 29003KT 15SM FEW045 BKN065 OVC130 12/09 A2997 RMK SC2SC5AC2 SLP149

CYHM;2007-09-15 05:00;CYHM 150500Z 29003KT 15SM FEW038 FEW065 11/08 A2998 RMK CF1SC2 SLP151

CYHM;2007-09-15 06:00;CYHM 150600Z 26003KT 15SM BKN068 10/08 A2997 RMK AC7 SLP150

CYHM;2007-09-15 07:00;CYHM 150700Z 28007KT 15SM FEW042 OVC056 10/07 A2998 RMK CF2SC6 SLP153

CYHM;2007-09-15 08:00;CYHM 150800Z 28007KT 15SM FEW043 BKN065 10/06 A3000 RMK CF2SC6 SLP159

CYHM;2007-09-15 09:00;CYHM 150900Z 28005KT 15SM FEW058 BKN076 09/05 A3002 RMK CF2AC6 SLP167

CYHM;2007-09-15 10:00;CYHM 151000Z 28006KT 15SM FEW031 SCT080 08/05 A3005 RMK SC2AC2 SLP175

CYHM;2007-09-15 11:00;CYHM 151100Z 25007KT 15SM FEW028 FEW080 08/04 A3006 RMK CU1AC1 CU TR SLP180

CYHM;2007-09-15 12:00;CYHM 151200Z 27010KT 240V320 15SM FEW028 FEW080 08/05 A3007 RMK SC1AC1 CU ASOCTD AC TR SLP186

CYHM;2007-09-15 13:00;CYHM 151300Z 30014G21KT 260V330 15SM SCT023 SCT080 10/05 A3010 RMK SC3AC1 AC TR SLP196

CYHM;2007-09-15 14:00;CYHM 151400Z 32012G19KT 15SM BKN027 11/05 A3012 RMK SC6 SLP204

CYHM;2007-09-15 15:00;CYHM 151500Z 31010G18KT 15SM BKN029 11/04 A3015 RMK SC7 SLP212

CYHM;2007-09-15 16:00;CYHM 151600Z 31011KT 15SM BKN031 11/04 A3017 RMK SC7 SLP218

CYHM;2007-09-15 17:00;CYHM 151700Z 33012KT 280V360 15SM BKN039 13/04 A3017 RMK SC7 SLP221

CYHM;2007-09-15 18:00;CYHM 151800Z 30010KT 240V340 15SM BKN044 BKN052 13/04 A3018 RMK SC5SC2 SLP222

CYHM;2007-09-15 19:00;CYHM 151900Z 30008KT 260V330 15SM SCT044 BKN056 14/04 A3017 RMK SC3SC4 SLP221

CYHM;2007-09-15 20:00;CYHM 152000Z 30010KT 260V330 15SM SCT044 BKN057 13/03 A3019 RMK SC3SC4 SLP225

CYHM;2007-09-15 21:00;CYHM 152100Z 30011KT 15SM FEW044 BKN059 13/03 A3020 RMK CU2SC5 SLP231

CYHM;2007-09-15 22:00;CYHM 152200Z 32009KT 15SM FEW040 BKN056 BKN066 12/03 A3021 RMK CU2SC3AC2 SLP235

CYHM;2007-09-15 23:00;CYHM 152300Z 32006KT 15SM FEW040 BKN057 BKN066 11/03 A3022 RMK CU2SC3AC1 SLP237

CYHM;2007-09-16 00:00;CYHM 160000Z 29004KT 15SM FEW040 BKN061 10/04 A3023 RMK CU1SC5 SLP241

CYHM;2007-09-16 01:00;CYHM 160100Z 29005KT 15SM FEW035 SCT060 09/03 A3025 RMK CF1SC3 CF TR SLP247

CYHM;2007-09-16 02:00;CYHM 160200Z 33006KT 15SM FEW035 FEW060 08/02 A3025 RMK CF1SC1 CF TR SLP249

CYHM;2007-09-16 03:00;CYHM 160300Z 00000KT 15SM FEW060 FEW200 06/02 A3025 RMK SC1CI1 TR SC SLP250

CYHM;2007-09-16 04:00;CYHM 160400Z 24003KT 15SM FEW050 03/01 A3026 RMK SC1 SLP253

CYHM;2007-09-16 05:00;CYHM 160500Z 28004KT 15SM FEW050 FEW200 05/02 A3027 RMK SC1CI1 TR SC SLP255

CYHM;2007-09-16 06:00;CYHM 160600Z 26002KT 15SM FEW045 FEW200 03/01 A3028 RMK SC1CI1 TR SC SLP258

CYHM;2007-09-16 07:00;CYHM 160700Z 26002KT 15SM FEW040 03/01 A3028 RMK SC1 SLP258

CYHM;2007-09-16 08:00;CYHM 160800Z 24003KT 15SM FEW040 FEW200 03/01 A3027 RMK SC1CI1 TR SC SLP257

CYHM;2007-09-16 09:00;CYHM 160900Z 28003KT 15SM FEW035 FEW200 03/01 A3028 RMK SC1CI1 TR SC SLP258

CYHM;2007-09-16 10:00;CYHM 161000Z 24002KT 15SM FEW035 BKN200 02/00 A3028 RMK SC1CI4 SLP258

CYHM;2007-09-16 11:00;CYHM 161100Z 24002KT 15SM FEW035 FEW240 02/00 A3029 RMK SC1CI1 SLP261

CYHM;2007-09-16 12:00;CYHM 161200Z 23002KT 15SM FEW045 FEW250 03/01 A3030 RMK SC1CI0 SLP268

CYHM;2007-09-16 13:00;CYHM 161300Z 31004KT 15SM SCT060 08/05 A3032 RMK SC3 SLP273

CYHM;2007-09-16 14:00;CYHM 161400Z 22005KT 15SM FEW060 10/04 A3033 RMK SC2 SLP279

CYHM;2007-09-16 15:00;CYHM 161500Z CCA 23005KT 190V280 15SM FEW040 FEW060 14/03 A3033 RMK CU1SC2 SLP277

CYHM;2007-09-16 16:00;CYHM 161600Z 25005KT 180V290 15SM FEW060 15/03 A3033 RMK SC2 SLP275

CYHM;2007-09-16 17:00;CYHM 161700Z 23009KT 170V040 15SM BKN059 15/03 A3032 RMK SC5 SLP273

CYHM;2007-09-16 18:00;CYHM 161800Z 23006KT 210V360 15SM BKN052 16/04 A3030 RMK SC6 SLP265

CYHM;2007-09-16 19:00;CYHM 161900Z 24008KT 190V300 15SM BKN054 17/04 A3029 RMK SC5 SLP261

CYHM;2007-09-16 20:00;CYHM 162000Z 22007KT 15SM SCT054 BKN064 16/04 A3028 RMK SC4SC1 SLP260

CYHM;2007-09-16 21:00;CYHM 162100Z 18010KT 150V210 15SM SCT055 16/04 A3027 RMK SC4 SLP257

CYHM;2007-09-16 22:00;CYHM 162200Z 18011KT 15SM FEW056 SCT250 16/05 A3027 RMK SC2CI1 SLP257

CYHM;2007-09-16 23:00;CYHM 162300Z 20007KT 15SM FEW055 SCT250 14/05 A3027 RMK SC1CI2 SC TR CONTRAILS SLP257

CYHM;2007-09-17 00:00;CYHM 170000Z 18007KT 15SM FEW050 FEW250 12/05 A3028 RMK SC1CI1 SC TR SLP260

CYHM;2007-09-17 01:00;CYHM 170100Z 18006KT 15SM SKC 11/05 A3029 RMK SLP264

CYHM;2007-09-17 02:00;CYHM 170200Z 19005KT 15SM SKC 10/05 A3030 RMK SLP267

CYHM;2007-09-17 03:00;CYHM 170300Z 22002KT 15SM SKC 09/05 A3030 RMK SLP266

CYHM;2007-09-17 04:00;CYHM 170400Z 24003KT 15SM SKC 08/05 A3032 RMK SLP270

CYHM;2007-09-17 05:00;CYHM 170500Z 26003KT 15SM SKC 07/04 A3032 RMK SLP270

CYHM;2007-09-17 06:00;CYHM 170600Z 28003KT 15SM SKC 07/04 A3033 RMK SLP274

CYHM;2007-09-17 07:00;CYHM 170700Z 24002KT 15SM SKC 08/04 A3033 RMK SLP273

CYHM;2007-09-17 08:00;CYHM 170800Z 26002KT 15SM SKC 08/04 A3033 RMK SLP273

CYHM;2007-09-17 09:00;CYHM 170900Z 06004KT 15SM FEW250 05/02 A3033 RMK CI1 CI TR SLP277

CYHM;2007-09-17 10:00;CYHM 171000Z 07003KT 15SM FEW034 FEW250 06/03 A3034 RMK SC1CI1 SC TR CI TR SLP280

CYHM;2007-09-17 11:00;CYHM 171100Z 06002KT 15SM FEW034 FEW210 07/04 A3036 RMK SC1CI1 SLP284

CYHM;2007-09-17 12:00;CYHM 171200Z 04005KT 15SM FEW034 09/06 A3037 RMK SC1 SC TR SLP289

CYHM;2007-09-17 13:00;CYHM 171300Z 07006KT 15SM FEW034 FEW240 13/08 A3038 RMK SC1CI1 SC TR CI TR SLP293

CYHM;2007-09-17 14:00;CYHM 171400Z 09003KT 15SM FEW032 16/09 A3039 RMK CU1 CU TR SLP297

CYHM;2007-09-17 15:00;CYHM 171500Z 14007KT 15SM FEW041 17/07 A3039 RMK CU2 SLP295

CYHM;2007-09-17 16:00;CYHM 171600Z CCA 14011KT 15SM FEW040 18/07 A3038 RMK CU1 SLP292

CYHM;2007-09-17 17:00;CYHM 171700Z 16010KT 15SM FEW040 19/06 A3038 RMK CU1 CU TR SLP290

CYHM;2007-09-17 18:00;CYHM 171800Z 17008KT 15SM FEW040 19/06 A3036 RMK CU1 SLP284

CYHM;2007-09-17 19:00;CYHM 171900Z 16005KT 15SM FEW052 19/06 A3034 RMK CU1 CU TR SLP278

CYHM;2007-09-17 20:00;CYHM 172000Z 12002KT 15SM FEW054 FEW250 20/07 A3034 RMK CU1CI1 WND L/V CU TR CI TR SLP276

CYHM;2007-09-17 21:00;CYHM 172100Z 15005KT 15SM FEW250 19/06 A3033 RMK CI1 CI TR SLP274

CYHM;2007-09-17 22:00;CYHM 172200Z 14006KT 15SM FEW250 19/06 A3033 RMK CI1 SLP273

CYHM;2007-09-17 23:00;CYHM 172300Z 06006KT 15SM FEW250 16/08 A3032 RMK CI2 SLP271

CYHM;2007-09-18 00:00;CYHM 180000Z 06005KT 15SM SCT250 14/08 A3033 RMK CI2 SLP273

CYHM;2007-09-18 01:00;CYHM 180100Z 06004KT 15SM FEW250 13/09 A3033 RMK CI1 SLP275

CYHM;2007-09-18 02:00;CYHM 180200Z 07006KT 15SM FEW250 12/09 A3032 RMK CI1 SLP271

CYHM;2007-09-18 03:00;CYHM 180300Z 06005KT 15SM FEW250 13/10 A3032 RMK CI1 SLP270

CYHM;2007-09-18 04:00;CYHM 180400Z 08005KT 15SM FEW250 12/10 A3031 RMK CI1 SLP265

CYHM;2007-09-18 05:00;CYHM 180500Z 06003KT 15SM FEW250 12/08 A3031 RMK CI1 SLP265

CYHM;2007-09-18 06:00;CYHM 180600Z 08004KT 15SM FEW250 12/08 A3030 RMK CI1 SLP261

CYHM;2007-09-18 07:00;CYHM 180700Z 15005KT 15SM FEW250 10/08 A3029 RMK CI1 SLP258

CYHM;2007-09-18 08:00;CYHM 180800Z 16002KT 15SM FEW250 11/09 A3029 RMK CI1 SLP259

CYHM;2007-09-18 09:00;CYHM 180900Z 15002KT 15SM BKN250 11/08 A3030 RMK CI1 SLP263

CYHM;2007-09-18 10:00;CYHM 181000Z 14002KT 15SM FEW070 FEW250 10/08 A3031 RMK AC1CI0 AC TR SLP267

CYHM;2007-09-18 11:00;CYHM 181100Z 12002KT 15SM FEW100 BKN230 10/08 A3033 RMK AC1CI4 SLP272

CYHM;2007-09-18 12:00;CYHM 181200Z 12006KT 15SM FEW120 BKN230 11/09 A3034 RMK AC1CI2 AC TR SLP279

CYHM;2007-09-18 13:00;CYHM 181300Z 14006KT 15SM SCT230 15/12 A3034 RMK CI2 CONTRAIL SLP279

CYHM;2007-09-18 14:00;CYHM 181400Z 15006KT 15SM FEW230 18/12 A3034 RMK CI1 SLP279

CYHM;2007-09-18 15:00;CYHM 181500Z 17006KT 15SM FEW240 20/12 A3034 RMK CI0 CI TR SLP274

CYHM;2007-09-18 16:00;CYHM 181600Z 12004KT 15SM SCT240 21/11 A3033 RMK CI1 SLP270

CYHM;2007-09-18 17:00;CYHM 181700Z 14004KT 15SM FEW240 22/10 A3031 RMK CI0 SLP266

CYHM;2007-09-18 18:00;CYHM 181800Z 18007KT 15SM SCT240 23/10 A3030 RMK CI2 CONTRAIL SLP263

CYHM;2007-09-18 19:00;CYHM 181900Z 15005KT 15SM FEW250 23/10 A3029 RMK CI1 CONTRAILS SLP258

CYHM;2007-09-18 20:00;CYHM 182000Z 06006KT 15SM FEW250 22/13 A3027 RMK CI1 CI TR CONTRAILS SLP253

CYHM;2007-09-18 21:00;CYHM 182100Z 07007KT 15SM FEW250 22/12 A3027 RMK CI1 SLP252

CYHM;2007-09-18 22:00;CYHM 182200Z 07005KT 15SM FEW250 21/13 A3026 RMK CI1 CI TR SLP247

CYHM;2007-09-18 23:00;CYHM 182300Z 07004KT 15SM FEW250 19/13 A3025 RMK CI1 CI TR SLP246

CYHM;2007-09-19 00:00;CYHM 190000Z 05004KT 15SM FEW250 16/12 A3025 RMK CI0 CONTRAILS SLP247

CYHM;2007-09-19 01:00;CYHM 190100Z 04003KT 15SM FEW250 15/12 A3024 RMK CI1 CI TR SLP243

CYHM;2007-09-19 02:00;CYHM 190200Z 04003KT 15SM FEW250 14/11 A3024 RMK CI1 CI TR SLP243

CYHM;2007-09-19 03:00;CYHM 190300Z 04003KT 15SM SKC 13/12 A3023 RMK SLP239

CYHM;2007-09-19 04:00;CYHM 190400Z 04002KT 15SM MIFG SKC 13/12 A3023 RMK SLP238

CYHM;2007-09-19 05:00;CYHM 190500Z 00000KT 10SM MIFG SKC 13/11 A3023 RMK SLP237

CYHM;2007-09-19 06:00;CYHM 190600Z 16005KT 15SM SKC 14/10 A3022 RMK SLP234

CYHM;2007-09-19 07:00;CYHM 190700Z 17007KT 15SM SKC 14/12 A3022 RMK SLP233

CYHM;2007-09-19 08:00;CYHM 190800Z 19006KT 15SM SKC 12/11 A3022 RMK SLP233

CYHM;2007-09-19 09:00;CYHM 190900Z 19007KT 15SM FEW200 12/11 A3022 RMK CI1 SLP233

CYHM;2007-09-19 10:00;CYHM 191000Z 18005KT 15SM FEW200 14/12 A3021 RMK CI1 SLP232

CYHM;2007-09-19 11:00;CYHM 191100Z 18005KT 2SM BR FEW240 12/11 A3023 RMK FG1CI1 SLP236

CYHM;2007-09-19 12:00;CYHM 191200Z 23003KT 4SM BR FEW220 13/12 A3023 RMK CI1 CONTRAIL SLP241

CYHM;2007-09-19 13:00;CYHM 191300Z 22006KT 10SM FEW240 16/14 A3023 RMK CI1 CI TR SLP240

CYHM;2007-09-19 14:00;CYHM 191400Z 18007KT 15SM FEW240 19/15 A3021 RMK CI0 SLP233

CYHM;2007-09-19 15:00;CYHM 191500Z 22008KT 15SM FEW240 22/14 A3021 RMK CI0 SLP229

CYHM;2007-09-19 16:00;CYHM 191600Z 21009KT 15SM FEW240 24/14 A3019 RMK CI1 CI TR SLP223

CYHM;2007-09-19 17:00;CYHM 191700Z 18007KT 15SM FEW240 25/15 A3017 RMK CI1 SLP215

CYHM;2007-09-19 18:00;CYHM 191800Z 21009KT 15SM FEW240 25/15 A3016 RMK CI1 CI TR SLP212

CYHM;2007-09-19 19:00;CYHM 191900Z 19010KT 15SM FEW240 25/15 A3016 RMK CI1 CI TR SLP212

CYHM;2007-09-19 20:00;CYHM 192000Z 19012KT 15SM FEW240 26/13 A3013 RMK CI0 SLP202

CYHM;2007-09-19 21:00;CYHM 192100Z 18011KT 15SM FEW240 25/13 A3012 RMK CI1 CI TR SLP200

CYHM;2007-09-19 22:00;CYHM 192200Z 19011KT 15SM FEW240 24/12 A3012 RMK CI1 CI TR SLP200

CYHM;2007-09-19 23:00;CYHM 192300Z 19008KT 15SM FEW240 22/12 A3012 RMK CI1 CI TR SLP200

CYHM;2007-09-20 00:00;CYHM 200000Z 20007KT 15SM SKC 18/12 A3012 RMK SLP202

CYHM;2007-09-20 01:00;CYHM 200100Z 21005KT 15SM SKC 18/12 A3013 RMK SLP204

CYHM;2007-09-20 02:00;CYHM 200200Z 21005KT 15SM SKC 17/12 A3013 RMK SLP205

CYHM;2007-09-20 03:00;CYHM 200300Z 23004KT 15SM BKN051 17/13 A3013 RMK SC6 SLP203

CYHM;2007-09-20 04:00;CYHM 200400Z 25004KT 15SM BKN052 BKN074 18/14 A3013 RMK SC6AC2 SLP201

CYHM;2007-09-20 05:00;CYHM 200500Z 28005KT 15SM BKN070 18/14 A3014 RMK AC6 SLP206

CYHM;2007-09-20 06:00;CYHM 200600Z 26004KT 10SM SKC 17/14 A3015 RMK SLP208

CYHM;2007-09-20 07:00;CYHM 200700Z 30003KT 8SM SKC 16/13 A3015 RMK HZ SLP209

CYHM;2007-09-20 08:00;CYHM 200800Z 36005KT 10SM FEW050 BKN250 17/14 A3016 RMK SC1CI3 SLP211

CYHM;2007-09-20 09:00;CYHM 200900Z 02005KT 15SM SKC 16/14 A3017 RMK SLP216

CYHM;2007-09-20 10:00;CYHM 201000Z 36005KT 15SM FEW220 16/13 A3019 RMK CI1 SLP221

CYHM;2007-09-20 11:00;CYHM 201100Z 03006KT 15SM SCT220 16/13 A3020 RMK CI2 SLP226

CYHM;2007-09-20 12:00;CYHM 201200Z CCA 01011KT 15SM FEW220 17/13 A3022 RMK CI0 SLP233

CYHM;2007-09-20 13:00;CYHM 201300Z 03013KT 15SM FEW220 18/13 A3022 RMK CI1 SLP235

CYHM;2007-09-20 14:00;CYHM 201400Z 03010KT 15SM FEW220 20/13 A3023 RMK CI1 SLP238

CYHM;2007-09-20 15:00;CYHM 201500Z 03011KT 15SM FEW220 21/13 A3024 RMK CI0 SLP239

CYHM;2007-09-20 16:00;CYHM 201600Z 07012KT 15SM FEW220 22/13 A3023 RMK CI1 SLP238

CYHM;2007-09-20 17:00;CYHM 201700Z 08010KT 15SM FEW240 22/13 A3022 RMK CI1 CI TR SLP234

CYHM;2007-09-20 18:00;CYHM 201800Z 07009KT 15SM FEW240 22/13 A3021 RMK CI1 SLP228

CYHM;2007-09-20 19:00;CYHM 201900Z 04008KT 15SM FEW250 23/13 A3019 RMK CI0 SLP222

CYHM;2007-09-20 20:00;CYHM 202000Z 05010KT 15SM FEW250 24/13 A3017 RMK CI0 SLP217

CYHM;2007-09-20 21:00;CYHM 202100Z 05009KT 15SM FEW250 23/13 A3016 RMK CI1 SLP213

CYHM;2007-09-20 22:00;CYHM 202200Z 06008KT 15SM FEW250 23/13 A3017 RMK CI1 SLP214

CYHM;2007-09-20 23:00;CYHM 202300Z 06006KT 15SM FEW250 21/12 A3017 RMK CI1 SLP214

CYHM;2007-09-21 00:00;CYHM 210000Z 05005KT 15SM FEW250 18/12 A3017 RMK CI1 SLP216

CYHM;2007-09-21 01:00;CYHM 210100Z 05005KT 15SM SKC 18/12 A3017 RMK SLP215

CYHM;2007-09-21 02:00;CYHM 210200Z 05005KT 15SM SKC 16/12 A3016 RMK SLP212

CYHM;2007-09-21 03:00;CYHM 210300Z 06005KT 15SM SKC 16/12 A3014 RMK SLP207

CYHM;2007-09-21 04:00;CYHM 210400Z 04005KT 15SM FEW150 15/12 A3014 RMK AC1 SLP206

CYHM;2007-09-21 05:00;CYHM 210500Z 06005KT 15SM SKC 15/12 A3013 RMK SLP202

CYHM;2007-09-21 06:00;CYHM 210600Z 04008KT 15SM FEW220 16/13 A3013 RMK CI1 SLP203

CYHM;2007-09-21 07:00;CYHM 210700Z 04006KT 15SM FEW220 15/12 A3012 RMK CI1 SLP198

CYHM;2007-09-21 08:00;CYHM 210800Z 04007KT 15SM FEW220 15/12 A3011 RMK CI1 SLP196

CYHM;2007-09-21 09:00;CYHM 210900Z 04007KT 15SM FEW220 15/12 A3011 RMK CI1 SLP195

CYHM;2007-09-21 10:00;CYHM 211000Z 06005KT 15SM FEW043 FEW220 15/12 A3011 RMK SC2CI1 SLP195

CYHM;2007-09-21 11:00;CYHM 211100Z 06006KT 10SM FEW050 FEW220 15/12 A3012 RMK SC1CI1 SLP199

CYHM;2007-09-21 12:00;CYHM 211200Z 05004KT 15SM FEW028 FEW220 16/14 A3013 RMK SC1CI0 SLP204

CYHM;2007-09-21 13:00;CYHM 211300Z 07003KT 6SM HZ FEW036 SCT220 18/15 A3013 RMK SC1CI2 SLP203

CYHM;2007-09-21 14:00;CYHM 211400Z 16004KT 8SM FEW040 FEW220 19/15 A3013 RMK SC1CI1 CU ASOCTD SLP205

CYHM;2007-09-21 15:00;CYHM 211500Z 20005KT 10SM BKN042 BKN220 21/17 A3012 RMK SC5CI1 SLP200

CYHM;2007-09-21 16:00;CYHM 211600Z 21010KT 8SM FEW038 BKN045 BKN070 24/18 A3010 RMK CU2SC4AC1 SLP192

CYHM;2007-09-21 17:00;CYHM 211700Z 19010KT 7SM FEW042 BKN054 BKN160 26/18 A3008 RMK SC2SC3AC1 CU ASOCTD HAZY SLP187

CYHM;2007-09-21 18:00;CYHM 211800Z 19011KT 10SM FEW042 SCT160 27/17 A3007 RMK SC1AC2 SLP180

CYHM;2007-09-21 19:00;CYHM 211900Z 17010KT 10SM SCT046 BKN250 28/16 A3004 RMK SC3CI1 SLP171

CYHM;2007-09-21 20:00;CYHM 212000Z 19012KT 10SM FEW046 BKN250 27/15 A3003 RMK SC1CI5 SLP166

CYHM;2007-09-21 21:00;CYHM 212100Z 19013KT 12SM BKN250 27/15 A3002 RMK CI6 SLP164

CYHM;2007-09-21 22:00;CYHM 212200Z 19009KT 12SM FEW180 BKN250 25/15 A3001 RMK AC1CI5 SLP161

CYHM;2007-09-21 23:00;CYHM 212300Z 19006KT 12SM BKN250 24/15 A3001 RMK CI3 SLP159

CYHM;2007-09-22 00:00;CYHM 220000Z 18006KT 10SM BKN250 22/14 A2998 RMK CI2 SLP153

CYHM;2007-09-22 01:00;CYHM 220100Z 17006KT 12SM FEW250 20/14 A2997 RMK CI1 SLP149

CYHM;2007-09-22 02:00;CYHM 220200Z 17006KT 12SM FEW250 20/14 A2996 RMK CI2 SLP146

CYHM;2007-09-22 03:00;CYHM 220300Z 17007KT 15SM BKN250 19/15 A2995 RMK CI4 SLP141

CYHM;2007-09-22 04:00;CYHM 220400Z 19006KT 10SM BKN250 19/15 A2994 RMK CI6 CONTRAILS SLP137

CYHM;2007-09-22 05:00;CYHM 220500Z 20008KT 8SM BKN250 19/15 A2992 RMK CI5 HZ SLP131

CYHM;2007-09-22 06:00;CYHM 220600Z 20008KT 10SM SCT250 19/16 A2991 RMK CI2 SLP125

CYHM;2007-09-22 07:00;CYHM 220700Z 19012KT 12SM FEW250 20/16 A2989 RMK CI2 SLP118

CYHM;2007-09-22 08:00;CYHM 220800Z 20011KT 15SM FEW250 21/16 A2987 RMK CI2 SLP113

CYHM;2007-09-22 09:00;CYHM 220900Z 20013KT 15SM SCT250 21/16 A2986 RMK CI2 SLP109

CYHM;2007-09-22 10:00;CYHM 221000Z 20012KT 15SM BKN250 20/16 A2987 RMK CI5 SLP111

CYHM;2007-09-22 11:00;CYHM 221100Z 22010KT 15SM FEW083 BKN250 21/16 A2989 RMK AC1CI3 SLP119

CYHM;2007-09-22 12:00;CYHM 221200Z 20008KT 15SM FEW088 FEW140 SCT240 20/16 A2989 RMK AC1AC1CI1 SLP121

CYHM;2007-09-22 13:00;CYHM 221300Z 21011KT 15SM BKN140 23/17 A2991 RMK AC6 SLP125

CYHM;2007-09-22 14:00;CYHM 221400Z 25013KT 15SM FEW032 SCT110 22/15 A2995 RMK CU1AC3 SLP139

CYHM;2007-09-22 15:00;CYHM 221500Z 29014G19KT 240V320 15SM FEW036 23/14 A2996 RMK CU1 SLP144

CYHM;2007-09-22 16:00;CYHM 221600Z 29012KT 250V340 15SM FEW036 24/14 A2998 RMK CU1 SLP151

CYHM;2007-09-22 17:00;CYHM 221700Z 27012KT 15SM FEW044 24/13 A3001 RMK CU1 SLP159

CYHM;2007-09-22 18:00;CYHM 221800Z 29011KT 15SM FEW050 24/11 A3001 RMK CU1 SLP162

CYHM;2007-09-22 19:00;CYHM 221900Z 28011KT 240V320 15SM FEW050 25/08 A3003 RMK CU1 CU TR SLP166

CYHM;2007-09-22 20:00;CYHM 222000Z 27011KT 240V300 15SM FEW050 25/06 A3004 RMK CU1 CU TR SLP172

CYHM;2007-09-22 21:00;CYHM 222100Z 29011KT 250V330 15SM FEW050 24/03 A3007 RMK CU1 CU TR SLP180

CYHM;2007-09-22 22:00;CYHM 222200Z 27010KT 240V300 15SM SKC 23/04 A3009 RMK SLP186

CYHM;2007-09-22 23:00;CYHM 222300Z 27007KT 15SM SKC 20/03 A3010 RMK SLP192

CYHM;2007-09-23 00:00;CYHM 230000Z 27007KT 15SM SKC 17/03 A3012 RMK SLP200

CYHM;2007-09-23 01:00;CYHM 230100Z 28007KT 15SM SKC 15/03 A3014 RMK SLP205

CYHM;2007-09-23 02:00;CYHM 230200Z 24005KT 15SM SKC 13/04 A3015 RMK SLP209

CYHM;2007-09-23 03:00;CYHM 230300Z 20003KT 15SM FEW200 12/03 A3016 RMK CI1 SLP213

CYHM;2007-09-23 04:00;CYHM 230400Z 19003KT 15SM FEW210 12/03 A3017 RMK CI1 SLP216

CYHM;2007-09-23 05:00;CYHM 230500Z 19002KT 15SM SKC 11/04 A3018 RMK SLP219

CYHM;2007-09-23 06:00;CYHM 230600Z 18003KT 15SM FEW200 11/04 A3020 RMK CI1 SLP225

CYHM;2007-09-23 07:00;CYHM 230700Z 28003KT 15SM FEW210 10/04 A3021 RMK CI1 SLP231

CYHM;2007-09-23 08:00;CYHM 230800Z 26003KT 15SM FEW210 09/04 A3022 RMK CI1 SLP234

CYHM;2007-09-23 09:00;CYHM 230900Z 30003KT 15SM SKC 08/04 A3024 RMK SLP241

CYHM;2007-09-23 10:00;CYHM 231000Z 29003KT 15SM FEW200 07/04 A3026 RMK CI1 SLP249

CYHM;2007-09-23 11:00;CYHM 231100Z 26004KT 15SM FEW210 06/04 A3028 RMK CI1 SLP255

CYHM;2007-09-23 12:00;CYHM 231200Z 31004KT 15SM FEW240 09/06 A3030 RMK CI1 SLP262

CYHM;2007-09-23 13:00;CYHM 231300Z 33004KT 15SM SKC 15/08 A3031 RMK SLP266

CYHM;2007-09-23 14:00;CYHM 231400Z 01006KT 15SM SKC 18/07 A3033 RMK SLP273

CYHM;2007-09-23 15:00;CYHM 231500Z 01008KT 340V090 15SM SKC 19/05 A3033 RMK SLP273

CYHM;2007-09-23 16:00;CYHM 231600Z 07007KT 030V140 15SM FEW250 21/07 A3033 RMK CI1 SLP272

CYHM;2007-09-23 17:00;CYHM 231700Z 09006KT 030V150 15SM FEW250 22/06 A3033 RMK CI0 SLP272

CYHM;2007-09-23 18:00;CYHM 231800Z 02003KT 15SM FEW250 23/06 A3031 RMK CI0 WND L/V SLP266

CYHM;2007-09-23 19:00;CYHM 231900Z 05006KT 010V090 15SM FEW190 FEW250 23/06 A3030 RMK AC1CI1 AC TR SLP260

CYHM;2007-09-23 20:00;CYHM 232000Z 07004KT 360V150 15SM FEW240 23/06 A3028 RMK CI1 SLP254

CYHM;2007-09-23 21:00;CYHM 232100Z 11006KT 15SM FEW230 24/06 A3027 RMK CI1 SLP252

CYHM;2007-09-23 21:39;CYHM 232139Z 18010KT 15SM FEW230 RMK CI1 WSHFT 2128

CYHM;2007-09-23 22:00;CYHM 232200Z 19009KT 15SM FEW230 22/09 A3026 RMK CI1 SLP250

CYHM;2007-09-23 23:00;CYHM 232300Z 19008KT 15SM FEW220 19/09 A3027 RMK CI1 SLP252

CYHM;2007-09-24 00:00;CYHM 240000Z 19006KT 15SM FEW220 17/08 A3027 RMK CI1 CI TR SLP254

CYHM;2007-09-24 01:00;CYHM 240100Z 24005KT 15SM SKC 16/08 A3028 RMK SLP256

CYHM;2007-09-24 02:00;CYHM 240200Z 27004KT 15SM SKC 14/08 A3027 RMK SLP255

CYHM;2007-09-24 03:00;CYHM 240300Z 00000KT 15SM SKC 13/08 A3027 RMK SLP252

CYHM;2007-09-24 04:00;CYHM 240400Z 00000KT 15SM SKC 14/07 A3026 RMK SLP247

CYHM;2007-09-24 05:00;CYHM 240500Z 00000KT 15SM FEW220 13/07 A3026 RMK CI1 SLP250

CYHM;2007-09-24 06:00;CYHM 240600Z 00000KT 15SM FEW210 12/07 A3026 RMK CI1 SLP248

CYHM;2007-09-24 07:00;CYHM 240700Z 00000KT 15SM FEW210 12/07 A3025 RMK CI1 SLP244

CYHM;2007-09-24 08:00;CYHM 240800Z 06002KT 15SM FEW210 11/06 A3024 RMK CI1 SLP242

CYHM;2007-09-24 09:00;CYHM 240900Z 00000KT 15SM FEW210 10/06 A3023 RMK CI1 SLP239

CYHM;2007-09-24 10:00;CYHM 241000Z 00000KT 15SM FEW210 10/07 A3023 RMK CI1 SLP239

CYHM;2007-09-24 11:00;CYHM 241100Z 00000KT 15SM FEW210 10/08 A3024 RMK CI1 SLP240

CYHM;2007-09-24 12:00;CYHM 241200Z 18002KT 15SM SKC 12/10 A3024 RMK SLP243

CYHM;2007-09-24 13:00;CYHM 241300Z 20002KT 15SM SKC 15/12 A3025 RMK SLP244

CYHM;2007-09-24 14:00;CYHM 241400Z 23007KT 15SM SKC 19/12 A3025 RMK SLP244

CYHM;2007-09-24 15:00;CYHM 241500Z 22009KT 15SM SKC 22/11 A3023 RMK SLP239

CYHM;2007-09-24 16:00;CYHM 241600Z 25009KT 15SM SKC 24/10 A3022 RMK SLP233

CYHM;2007-09-24 17:00;CYHM 241700Z 22010KT 15SM SKC 25/11 A3020 RMK SLP226

CYHM;2007-09-24 18:00;CYHM 241800Z 23009KT 15SM SKC 27/10 A3017 RMK SLP215

CYHM;2007-09-24 19:00;CYHM 241900Z 22006KT 15SM SKC 27/10 A3014 RMK SLP207

CYHM;2007-09-24 20:00;CYHM 242000Z CCA 20009KT 15SM SKC 28/11 A3013 RMK SLP201

CYHM;2007-09-24 21:00;CYHM 242100Z 21008KT 15SM SKC 27/12 A3011 RMK SLP196

CYHM;2007-09-24 22:00;CYHM 242200Z 21007KT 15SM SKC 25/11 A3011 RMK SLP195

CYHM;2007-09-24 23:00;CYHM 242300Z 20007KT 15SM SKC 22/10 A3010 RMK SLP191

CYHM;2007-09-25 00:00;CYHM 250000Z 20006KT 15SM SKC 18/09 A3009 RMK SLP192

CYHM;2007-09-25 01:00;CYHM 250100Z 22005KT 15SM SKC 16/09 A3009 RMK SLP191

CYHM;2007-09-25 02:00;CYHM 250200Z 20004KT 15SM SKC 15/10 A3008 RMK SLP188

CYHM;2007-09-25 03:00;CYHM 250300Z 20005KT 15SM SKC 15/10 A3008 RMK SLP185

CYHM;2007-09-25 04:00;CYHM 250400Z 21003KT 15SM SKC 15/10 A3008 RMK SLP185

CYHM;2007-09-25 05:00;CYHM 250500Z 19003KT 15SM SKC 15/12 A3007 RMK SLP182

CYHM;2007-09-25 06:00;CYHM 250600Z 20006KT 15SM SKC 15/13 A3007 RMK SLP181

CYHM;2007-09-25 07:00;CYHM 250700Z 20004KT 15SM SCT100 BKN250 16/13 A3006 RMK AC3CI1 SLP178

CYHM;2007-09-25 08:00;CYHM 250800Z 21005KT 15SM FEW100 SCT250 16/13 A3005 RMK AC1CI1 SLP175

CYHM;2007-09-25 09:00;CYHM 250900Z 19006KT 15SM FEW075 SCT094 BKN250 18/14 A3004 RMK AC2AC2CI1 SLP170

CYHM;2007-09-25 10:00;CYHM 251000Z 20006KT 15SM BKN064 BKN090 20/14 A3004 RMK SC5AC2 SLP169

CYHM;2007-09-25 11:00;CYHM 251100Z 22006KT 10SM FEW062 BKN078 BKN120 20/14 A3003 RMK SC2AC2AC1 SLP166

CYHM;2007-09-25 12:00;CYHM 251200Z 22009KT 15SM FEW060 SCT089 BKN150 BKN240 21/14 A3002 RMK SC1AC2AC2CI1 CONTRAIL SLP165

CYHM;2007-09-25 13:00;CYHM 251300Z 21008KT 15SM FEW060 BKN094 BKN150 23/15 A3002 RMK SC1AC5AC2 SLP166

CYHM;2007-09-25 14:00;CYHM 251400Z 23012KT 15SM SCT220 25/16 A3002 RMK CI2 SLP164

CYHM;2007-09-25 15:00;CYHM 251500Z 22009KT 15SM BKN240 29/18 A3001 RMK CI3 SLP159

CYHM;2007-09-25 16:00;CYHM 251600Z 24012KT 15SM FEW062 BKN079 BKN240 29/19 A3000 RMK SC2AC3CI1 SLP157

CYHM;2007-09-25 17:00;CYHM 251700Z 24016G22KT 15SM FEW042 BKN240 30/19 A2999 RMK CU2CI2 SLP153

CYHM;2007-09-25 18:00;CYHM 251800Z 23018G24KT 15SM FEW042 BKN220 30/19 A2997 RMK CU1CI3 SLP146

CYHM;2007-09-25 19:00;CYHM 251900Z 23015G22KT 15SM FEW048 FEW180 BKN250 31/19 A2995 RMK CU1AC1CI2 CU TR SLP139

CYHM;2007-09-25 20:00;CYHM 252000Z 23015G24KT 15SM FEW048 SCT160 BKN250 30/19 A2994 RMK CU1AC3CI1 CU TR CONTRAILS SLP137

CYHM;2007-09-25 21:00;CYHM 252100Z 23014G21KT 15SM FEW050 SCT150 BKN250 30/19 A2994 RMK CU1AC3CI1 CU TR SLP136

CYHM;2007-09-25 22:00;CYHM 252200Z 21014G23KT 15SM BKN130 BKN250 29/19 A2993 RMK AC5CI1 SLP132

CYHM;2007-09-25 23:00;CYHM 252300Z 23013G20KT 15SM BKN110 BKN250 27/18 A2994 RMK AC6CI1 SLP135

CYHM;2007-09-26 00:00;CYHM 260000Z 23010KT 15SM BKN100 BKN150 27/18 A2994 RMK AC6AC2 SLP137

CYHM;2007-09-26 01:00;CYHM 260100Z 22013KT 15SM FEW080 BKN130 BKN250 26/18 A2993 RMK AC1AC6CI1 LTNG CB ASOCTD SLP133

CYHM;2007-09-26 02:00;CYHM 260200Z 23010KT 15SM FEW085 BKN110 26/19 A2993 RMK AC2AC6 LTNG CB ASOCTD SLP131

CYHM;2007-09-26 02:15;CYHM 260215Z 25015KT 12SM -SHRA FEW027 BKN054 BKN130 RMK SC2SC5AC1

CYHM;2007-09-26 03:00;CYHM 260300Z 21007KT 15SM -SHRA FEW060 BKN078 BKN110 22/20 A2994 RMK SC2AC4AC2 SLP135

CYHM;2007-09-26 04:00;CYHM 260400Z 20006KT 15SM SCT044 BKN080 BKN160 22/20 A2993 RMK SC4AC2AC1 TCU EMBDD LTNG CB ASOCTD SLP130

CYHM;2007-09-26 05:00;CYHM 260500Z 25006KT 15SM TS FEW018 BKN042 BKN100 21/18 A2994 RMK SC1SC5AC2 LTNG CB ASOCTD SLP135

CYHM;2007-09-26 06:00;CYHM 260600Z 24006KT 15SM -SHRA BKN044 OVC120 20/18 A2996 RETS RMK SC7AC1 SLP142

CYHM;2007-09-26 07:00;CYHM 260700Z 24003KT 15SM -SHRA FEW090 OVC110 19/18 A2993 RMK AC2AC6 SLP131

CYHM;2007-09-26 08:00;CYHM 260800Z 21004KT 15SM -SHRA BKN160 19/17 A2992 RMK AC7 SLP127

CYHM;2007-09-26 08:27;CYHM 260827Z 20005KT 15SM SCT025 OVC160 RMK SC3AC5

CYHM;2007-09-26 09:00;CYHM 260900Z 21007KT 15SM BKN025 OVC160 19/18 A2992 RMK SC7AC1 SLP129

CYHM;2007-09-26 10:00;CYHM 261000Z 20006KT 15SM FEW020 BKN150 OVC250 20/18 A2993 RMK SC2AC5CI1 SLP130

CYHM;2007-09-26 11:00;CYHM 261100Z 25010KT 10SM FEW020 BKN120 OVC150 20/18 A2993 RMK SC2AC4AC2 SLP132

CYHM;2007-09-26 11:17;CYHM 261117Z 23007KT 15SM -SHRA SCT020 BKN110 OVC160 RMK SC3AC3AC2

CYHM;2007-09-26 12:00;CYHM 261200Z 23010G15KT 6SM -SHRA BR FEW018 BKN090 BKN120 20/18 A2995 RMK SC1AC4AC2 SLP139

CYHM;2007-09-26 12:44;CYHM 261244Z 23010KT 6SM BR SCT017 BKN020 OVC120 RMK SF3SC3AC2

CYHM;2007-09-26 13:00;CYHM 261300Z 23010KT 5SM BR SCT008 BKN017 OVC020 21/19 A2995 RMK SF4SC3SC1 SLP140

CYHM;2007-09-26 14:00;CYHM 261400Z 23008KT 5SM -SHRA BR FEW006 BKN028 BKN060 21/19 A2996 RMK SF2SC3SC2 SLP143

CYHM;2007-09-26 15:00;CYHM 261500Z 23010KT 4SM BR BKN006 BKN016 OVC038 22/20 A2997 RMK SF5SC2SC1 SLP145

CYHM;2007-09-26 15:25;CYHM 261525Z 24009KT 4SM -SHRA BR BKN010 BKN022 OVC042 RMK SF5SC2SC1

CYHM;2007-09-26 16:00;CYHM 261600Z 22009KT 3SM -RA BR BKN009 BKN019 OVC038 21/19 A2997 RMK SF5SC2SC2 SLP147

CYHM;2007-09-26 16:10;CYHM 261610Z 32010KT 7SM -TSRA BKN013 OVC020 RMK SC6SC2 CB EMBDD LTNG

CYHM;2007-09-26 16:53;CYHM 261653Z 32006KT 15SM -RA BKN015 OVC022 RMK SC6SC2

CYHM;2007-09-26 17:00;CYHM 261700Z 29005KT 15SM -RA BKN013 OVC022 19/17 A2998 RMK SC6SC2 RETS SLP150

CYHM;2007-09-26 17:28;CYHM 261728Z 33006KT 15SM BKN016 OVC025 RMK SC6SC2

CYHM;2007-09-26 18:00;CYHM 261800Z 32006KT 15SM BKN019 OVC028 20/17 A2997 RMK SC6SC2 SLP149

CYHM;2007-09-26 18:02;CYHM 261802Z 29002KT 15SM -SHRA OVC016 RMK SC8

CYHM;2007-09-26 19:00;CYHM 261900Z 30002KT 15SM FEW012 OVC018 20/16 A2997 RMK SF1SC7 SLP148

CYHM;2007-09-26 20:00;CYHM 262000Z 31005KT 15SM OVC019 20/16 A2997 RMK SC8 SLP147

CYHM;2007-09-26 21:00;CYHM 262100Z 31004KT 15SM OVC020 20/16 A2996 RMK SC8 SLP144

CYHM;2007-09-26 22:00;CYHM 262200Z 29003KT 15SM BKN022 OVC068 19/16 A2997 RMK SC6AC2 SLP148

CYHM;2007-09-26 23:00;CYHM 262300Z 00000KT 15SM OVC032 19/16 A2999 RMK SC8 SLP154

CYHM;2007-09-27 00:00;CYHM 270000Z 30002KT 15SM BKN028 OVC044 19/16 A2999 RMK SC6SC2 SLP156

CYHM;2007-09-27 01:00;CYHM 270100Z 32002KT 15SM FEW026 OVC040 18/15 A3001 RMK SC2SC6 SLP160

CYHM;2007-09-27 02:00;CYHM 270200Z 33003KT 15SM SCT028 BKN064 OVC100 17/14 A3000 RMK SC3SC4AC1 SLP158

CYHM;2007-09-27 03:00;CYHM 270300Z 33005KT 10SM -SHRA OVC027 17/14 A3001 RMK SC8 SLP161

CYHM;2007-09-27 04:00;CYHM 270400Z 35007KT 12SM -SHRA FEW010 OVC025 15/13 A3000 RMK CF2SC6 SLP159

CYHM;2007-09-27 04:37;CYHM 270437Z 34006KT 6SM BR BKN009 OVC025 RMK SF6SC2

CYHM;2007-09-27 05:00;CYHM 270500Z 35007KT 10SM -SHRA SCT004 OVC020 15/13 A3001 RMK SF3SC5 SLP160

CYHM;2007-09-27 05:27;CYHM 270527Z 05006KT 5SM -SHRA OVC006 RMK SF8 CIG RAG

CYHM;2007-09-27 06:00;CYHM 270600Z 10007KT 5SM -SHRA SCT007 OVC022 14/13 A3000 RMK SF4SC4 SLP159

CYHM;2007-09-27 07:00;CYHM 270700Z 04007KT 5SM -SHRA OVC005 14/13 A2999 RMK SF8 SLP155

CYHM;2007-09-27 08:00;CYHM 270800Z 03005KT 6SM BR OVC006 14/12 A2999 RMK SF8 SLP155

CYHM;2007-09-27 08:36;CYHM 270836Z 04005KT 6SM BR FEW006 OVC012 RMK SF2SC6

CYHM;2007-09-27 09:00;CYHM 270900Z 02004KT 6SM BR FEW007 OVC011 14/12 A2999 RMK SF2SC6 SLP156

CYHM;2007-09-27 10:00;CYHM 271000Z 05005KT 7SM OVC018 13/12 A2998 RMK SC8 SLP153

CYHM;2007-09-27 11:00;CYHM 271100Z 35003KT 10SM -SHRA OVC024 14/12 A2999 RMK SC8 SLP156

CYHM;2007-09-27 12:00;CYHM 271200Z 02004KT 4SM -SHRA SCT005 BKN019 OVC021 13/11 A2998 RMK SF3SC3SC2 SLP154

CYHM;2007-09-27 13:00;CYHM 271300Z 00000KT 4SM -RA BR FEW006 OVC031 13/12 A2998 RMK SF2SC6 SLP154

CYHM;2007-09-27 14:00;CYHM 271400Z 03005KT 4SM -RA BR FEW005 OVC035 13/12 A2998 RMK SF2SC6 SLP152

CYHM;2007-09-27 14:51;CYHM 271451Z 00000KT 1 1/2SM -RA BR BKN006 OVC035 RMK FG2SF4SC2

CYHM;2007-09-27 15:00;CYHM 271500Z 03002KT 1 1/2SM -RA BR BKN004 OVC012 13/12 A2999 RMK FG1SF4SC3 SLP158

CYHM;2007-09-27 15:33;CYHM 271533Z 00000KT 8SM SCT005 OVC043 RMK SF3SC5

CYHM;2007-09-27 16:00;CYHM 271600Z 02003KT 8SM SCT010 BKN036 OVC064 14/12 A2999 RMK SF3SC3SC2 SLP156

CYHM;2007-09-27 17:00;CYHM 271700Z 06003KT 15SM FEW016 BKN038 OVC052 15/12 A2997 RMK CU2SC4SC2 SLP151

CYHM;2007-09-27 18:00;CYHM 271800Z 07002KT 15SM FEW020 OVC037 15/12 A2995 RMK SC2SC6 SLP145

CYHM;2007-09-27 19:00;CYHM 271900Z 07002KT 15SM FEW037 SCT190 BKN250 17/12 A2993 RMK SC2AC1CI4 SLP136

CYHM;2007-09-27 20:00;CYHM 272000Z 35004KT 15SM BKN038 OVC250 17/12 A2992 RMK SC7CI1 SLP135

CYHM;2007-09-27 21:00;CYHM 272100Z 11003KT 15SM SCT039 BKN170 OVC250 16/11 A2992 RMK SC4AC3CI1 SLP134

CYHM;2007-09-27 22:00;CYHM 272200Z 13006KT 15SM FEW040 BKN150 15/11 A2992 RMK SC1AC6 SLP132

CYHM;2007-09-27 23:00;CYHM 272300Z 26004KT 15SM FEW040 BKN170 15/11 A2992 RMK SC1AC7 SLP134

CYHM;2007-09-28 00:00;CYHM 280000Z 26002KT 15SM FEW170 BKN220 14/12 A2992 RMK AC2CC6 SLP134

CYHM;2007-09-28 01:00;CYHM 280100Z 25004KT 15SM BKN240 14/12 A2991 RMK CC7 SLP132

CYHM;2007-09-28 02:00;CYHM 280200Z 21004KT 15SM MIFG SCT038 BKN250 13/12 A2991 RMK SC4CI1 SLP131

CYHM;2007-09-28 03:00;CYHM 280300Z 24005KT 15SM MIFG FEW040 BKN130 13/12 A2992 RMK SC2AC4 SLP134

CYHM;2007-09-28 04:00;CYHM 280400Z 25003KT 10SM MIFG FEW040 BKN130 BKN200 12/11 A2992 RMK SC1AC5CI1 SLP134

CYHM;2007-09-28 04:41;CYHM 280441Z 22003KT 3/4SM BR BKN100 RMK FG2AC2 VIS VRB 1/2 - 1

CYHM;2007-09-28 05:00;CYHM 280500Z 21003KT 3SM BR BKN100 12/11 A2991 RMK AC6 VIS VRB 2 - 4 SLP130

CYHM;2007-09-28 06:00;CYHM 280600Z 25005KT 8SM FEW100 BKN160 12/11 A2991 RMK AC2AC4 SLP131

CYHM;2007-09-28 07:00;CYHM 280700Z 28005KT 7SM MIFG FEW100 BKN160 12/12 A2990 RMK AC2AC4 SLP127

CYHM;2007-09-28 08:00;CYHM 280800Z 24004KT 8SM MIFG BKN150 12/11 A2990 RMK AC5 SLP126

CYHM;2007-09-28 08:12;CYHM 280812Z 23004KT 3/4SM BR BKN140 RMK FG2AC2 VIS VRB 1/2 - 1

CYHM;2007-09-28 08:37;CYHM 280837Z 23003KT 1/8SM FG SCT130 RMK FG3AC1

CYHM;2007-09-28 09:00;CYHM 280900Z 25004KT 1/4SM FG SCT100 11/10 A2989 RMK FG2AC1 SLP124

CYHM;2007-09-28 10:00;CYHM 281000Z 27003KT 1/4SM FG BKN080 10/09 A2989 RMK FG2AC2 SLP123

CYHM;2007-09-28 10:25;CYHM 281025Z 32004KT 1SM BR SCT002 BKN100 RMK FG2SF2AC3

CYHM;2007-09-28 10:32;CYHM 281032Z 32004KT 5SM BR FEW080 BKN100 RMK AC2AC3

CYHM;2007-09-28 11:00;CYHM 281100Z 25004KT 10SM BKN087 BKN120 11/11 A2991 RMK AC6AC2 SLP130

CYHM;2007-09-28 11:46;CYHM 281146Z 30007KT 8SM -SHRA BKN040 BKN057 OVC100 RMK SC5SC2AC1

CYHM;2007-09-28 12:00;CYHM 281200Z 26008KT 5SM -SHRA BR BKN040 BKN064 OVC080 12/11 A2993 RMK SC5SC2AC1 SLP136

CYHM;2007-09-28 12:43;CYHM 281243Z 27006KT 5SM BR FEW050 BKN095 OVC130 RMK SC2AC5AC2

CYHM;2007-09-28 13:00;CYHM 281300Z 27007KT 6SM BR BKN080 BKN160 OVC220 13/12 A2994 RMK AC5AC2CI1 SLP140

CYHM;2007-09-28 14:00;CYHM 281400Z 26006KT 6SM BR FEW028 BKN140 BKN180 14/12 A2997 RMK CU1AC5AC1 CU TR SLP149

CYHM;2007-09-28 15:00;CYHM 281500Z 32010KT 10SM FEW032 BKN038 BKN100 17/12 A2998 RMK CU2SC4AC2 SLP155

CYHM;2007-09-28 16:00;CYHM 281600Z 32012G20KT 15SM SCT034 BKN047 17/10 A2999 RMK CU3SC3 SLP156

CYHM;2007-09-28 17:00;CYHM 281700Z 29012KT 15SM FEW040 SCT052 18/10 A2999 RMK CU2SC2 SLP158

CYHM;2007-09-28 18:00;CYHM 281800Z 32010G15KT 15SM FEW040 SCT050 BKN078 19/10 A3000 RMK CU2SC2AC2 SLP160

CYHM;2007-09-28 19:00;CYHM 281900Z 29011G21KT 250V330 15SM BKN041 BKN082 18/09 A3002 RMK SC5AC1 SLP165

CYHM;2007-09-28 20:00;CYHM 282000Z 29013KT 15SM BKN041 19/10 A3002 RMK SC5 SLP167

CYHM;2007-09-28 21:00;CYHM 282100Z 29016G21KT 15SM BKN046 BKN068 18/08 A3004 RMK CU5AC1 TCU ASOCTD SLP176

CYHM;2007-09-28 22:00;CYHM 282200Z CCA 29012G18KT 15SM BKN046 BKN060 17/08 A3008 RMK CU5SC2 SLP189

CYHM;2007-09-28 23:00;CYHM 282300Z 30010KT 15SM SCT052 15/08 A3011 RMK SC3 CU ASOCTD SLP198

CYHM;2007-09-29 00:00;CYHM 290000Z 30008KT 260V340 15SM FEW072 14/08 A3014 RMK AC2 SLP208

CYHM;2007-09-29 01:00;CYHM 290100Z 30005KT 15SM FEW072 13/08 A3017 RMK AC1 SLP217

CYHM;2007-09-29 02:00;CYHM 290200Z 32007KT 15SM SKC 13/08 A3019 RMK SLP224

CYHM;2007-09-29 03:00;CYHM 290300Z 27005KT 15SM FEW210 11/08 A3022 RMK CI1 SLP235

CYHM;2007-09-29 04:00;CYHM 290400Z 31006KT 15SM SCT070 SCT230 11/08 A3023 RMK AC3CI1 SLP240

CYHM;2007-09-29 05:00;CYHM 290500Z 31003KT 15SM FEW070 FEW240 10/08 A3024 RMK AC1CI1 SLP242

CYHM;2007-09-29 06:00;CYHM 290600Z 32006KT 15SM FEW210 11/09 A3025 RMK CI1 SLP245

CYHM;2007-09-29 07:00;CYHM 290700Z 30005KT 15SM FEW200 10/08 A3026 RMK CI1 SLP248

CYHM;2007-09-29 08:00;CYHM 290800Z 29005KT 15SM SKC 10/09 A3027 RMK SLP253

CYHM;2007-09-29 09:00;CYHM 290900Z 22003KT 15SM FEW200 09/08 A3030 RMK CI1 SLP261

CYHM;2007-09-29 09:50;CYHM 290950Z 24003KT 3SM BR SKC RMK VIS VRB 2 - 4

CYHM;2007-09-29 10:00;CYHM 291000Z 24003KT 6SM BR FEW150 07/06 A3032 RMK AC1 SLP268

CYHM;2007-09-29 10:32;CYHM 291032Z 24003KT 3/4SM BR FEW250 RMK FG1CI0

CYHM;2007-09-29 11:00;CYHM 291100Z 24002KT 5/8SM BR FEW250 06/05 A3034 RMK FG1CI0 SLP276

CYHM;2007-09-29 11:33;CYHM 291133Z 27003KT 15SM FEW250 RMK CI0 VIS E-SW 5/8

CYHM;2007-09-29 12:00;CYHM 291200Z 29003KT 15SM FEW250 08/07 A3038 RMK CI1 SLP293

CYHM;2007-09-29 13:00;CYHM 291300Z 33003KT 15SM FEW250 12/10 A3041 RMK CI1 SLP302

CYHM;2007-09-29 14:00;CYHM 291400Z 32002KT 15SM SKC 14/11 A3042 RMK SLP305

CYHM;2007-09-29 15:00;CYHM 291500Z 25002KT 15SM FEW030 16/10 A3042 RMK CU1 SLP302

CYHM;2007-09-29 16:00;CYHM 291600Z 25006KT 210V330 15SM FEW038 18/09 A3042 RMK CU2 SLP303

CYHM;2007-09-29 17:00;CYHM 291700Z 26005KT 180V320 15SM FEW045 18/08 A3042 RMK CU1 SLP302

CYHM;2007-09-29 18:00;CYHM 291800Z 25006KT 220V330 15SM FEW044 19/07 A3041 RMK CU1 SLP299

CYHM;2007-09-29 19:00;CYHM 291900Z 26004KT 200V330 15SM FEW042 FEW200 20/08 A3040 RMK CU1CI1 CI TR SLP296

CYHM;2007-09-29 20:00;CYHM 292000Z 26004KT 210V310 15SM FEW042 FEW220 20/08 A3038 RMK CU1CI1 CU TR SLP290

CYHM;2007-09-29 21:00;CYHM 292100Z 24005KT 15SM FEW042 FEW220 20/07 A3038 RMK SC1CI2 SC TR SLP291

CYHM;2007-09-29 22:00;CYHM 292200Z 20006KT 15SM FEW040 BKN250 18/08 A3037 RMK SC1CI2 SC TR SLP288

CYHM;2007-09-29 23:00;CYHM 292300Z 19007KT 15SM BKN250 15/09 A3038 RMK CI4 SLP291

CYHM;2007-09-30 00:00;CYHM 300000Z 20008KT 15SM BKN250 14/08 A3039 RMK CI4 SLP296

CYHM;2007-09-30 01:00;CYHM 300100Z 21006KT 15SM BKN250 12/08 A3039 RMK CI6 SLP296

CYHM;2007-09-30 02:00;CYHM 300200Z 21004KT 15SM BKN230 12/09 A3039 RMK CI6 SLP295

CYHM;2007-09-30 03:00;CYHM 300300Z 20003KT 15SM FEW100 BKN210 12/08 A3040 RMK AC2CI2 SLP298

CYHM;2007-09-30 04:00;CYHM 300400Z 00000KT 15SM FEW100 BKN240 12/08 A3040 RMK AC1CI4 SLP296

CYHM;2007-09-30 05:00;CYHM 300500Z 00000KT 15SM FEW100 SCT200 11/08 A3039 RMK AC1CI2 SLP295

CYHM;2007-09-30 06:00;CYHM 300600Z 00000KT 15SM BKN140 BKN230 10/08 A3041 RMK AC5CI2 SLP300

CYHM;2007-09-30 07:00;CYHM 300700Z 10004KT 15SM BKN140 BKN240 09/07 A3040 RMK AC5CI1 SLP296

CYHM;2007-09-30 08:00;CYHM 300800Z 06002KT 15SM BKN170 11/08 A3040 RMK AC6 SLP297

CYHM;2007-09-30 09:00;CYHM 300900Z 10003KT 15SM BKN190 10/08 A3039 RMK AC7 SLP294

CYHM;2007-09-30 10:00;CYHM 301000Z 09003KT 15SM BKN210 11/08 A3040 RMK CI7 SLP298

CYHM;2007-09-30 11:00;CYHM 301100Z 00000KT 15SM BKN180 BKN210 11/08 A3042 RMK AC6CI2 SLP303

CYHM;2007-09-30 12:00;CYHM 301200Z 08002KT 15SM SCT170 BKN210 11/09 A3042 RMK AC4CI2 CC ASOCTD SLP306

CYHM;2007-09-30 13:00;CYHM 301300Z 13002KT 15SM SCT180 BKN230 13/11 A3043 RMK AC2CI1 SLP307

CYHM;2007-09-30 14:00;CYHM 301400Z 18007KT 15SM BKN250 17/13 A3042 RMK CI2 SLP304

CYHM;2007-09-30 15:00;CYHM 301500Z 20007KT 15SM BKN250 19/12 A3041 RMK CI2 SLP299

CYHM;2007-09-30 16:00;CYHM 301600Z 18008KT 150V240 15SM FEW180 BKN250 20/10 A3040 RMK AC1CI4 SLP296

CYHM;2007-09-30 17:00;CYHM 301700Z 16008KT 15SM FEW180 BKN250 21/09 A3039 RMK AC1CI6 SLP292

CYHM;2007-09-30 18:00;CYHM 301800Z 20009KT 15SM BKN250 21/09 A3037 RMK CI6 SLP287

CYHM;2007-09-30 19:00;CYHM 301900Z 18009KT 140V210 15SM FEW160 BKN230 21/10 A3035 RMK AC1CI6 AC TR SLP279

CYHM;2007-09-30 20:00;CYHM 302000Z 17010KT 140V200 15SM BKN230 20/09 A3034 RMK CI6 SLP275

CYHM;2007-09-30 21:00;CYHM 302100Z 17010KT 140V200 15SM BKN230 20/10 A3032 RMK CI5 SLP270

CYHM;2007-09-30 22:00;CYHM 302200Z 18008KT 15SM BKN240 20/10 A3032 RMK CI6 SLP269

CYHM;2007-09-30 23:00;CYHM 302300Z 17005KT 15SM BKN240 18/10 A3032 RMK CI5 SLP268

CYHM;2007-10-01 01:00;CYHM 010100Z 13005KT 15SM OVC250 14/10 A3030 RMK CI6 SLP264

CYHM;2007-10-01 02:00;CYHM 010200Z 14007KT 15SM BKN250 16/11 A3028 RMK CI5 SLP258

CYHM;2007-10-01 03:00;CYHM 010300Z 17007KT 15SM BKN220 16/12 A3026 RMK CI6 SLP248

CYHM;2007-10-01 04:00;CYHM 010400Z 19007KT 15SM BKN210 16/12 A3025 RMK CS6 HALO SLP244

CYHM;2007-10-01 05:00;CYHM 010500Z 19010KT 15SM BKN250 16/12 A3024 RMK CS6 HALO SLP242

CYHM;2007-10-01 06:00;CYHM 010600Z 19009KT 15SM BKN210 16/12 A3026 RMK CS6 HALO SLP245

CYHM;2007-10-01 07:00;CYHM 010700Z 19008KT 15SM BKN210 16/12 A3026 RMK CS6 HALO SLP246

CYHM;2007-10-01 08:00;CYHM 010800Z 17008KT 15SM BKN220 15/12 A3026 RMK CS6 HALO SLP245

CYHM;2007-10-01 09:00;CYHM 010900Z 17007KT 15SM BKN220 15/12 A3025 RMK CS5 HALO SLP245

CYHM;2007-10-01 10:00;CYHM 011000Z 17005KT 15SM SCT230 15/12 A3026 RMK CI3 SLP246

CYHM;2007-10-01 11:00;CYHM 011100Z 17006KT 15SM SCT220 14/11 A3026 RMK CI2 CONTRAIL SLP247

CYHM;2007-10-01 12:00;CYHM 011200Z 16004KT 15SM BKN220 15/12 A3026 RMK CI5 SLP249

CYHM;2007-10-01 13:00;CYHM 011300Z 18010KT 15SM BKN220 18/12 A3026 RMK CI6 CONTRAIL SLP248

CYHM;2007-10-01 14:00;CYHM 011400Z 19010KT 15SM BKN210 19/12 A3026 RMK CI5 SLP248

CYHM;2007-10-01 15:00;CYHM 011500Z 19014KT 15SM BKN220 21/12 A3026 RMK CI4 SLP246

CYHM;2007-10-01 16:00;CYHM 011600Z 20011KT 15SM BKN220 22/13 A3024 RMK CI3 SLP241

CYHM;2007-10-01 17:00;CYHM 011700Z 16013KT 15SM BKN220 23/12 A3024 RMK CI5 CONTRAIL SLP240

CYHM;2007-10-01 18:00;CYHM 011800Z 16011KT 15SM FEW180 BKN220 23/13 A3023 RMK AC1CI5 SLP235

CYHM;2007-10-01 19:00;CYHM 011900Z 19012KT 15SM BKN250 24/12 A3019 RMK CI5 CONTRAILS SLP224

CYHM;2007-10-01 20:00;CYHM 012000Z 20014KT 15SM FEW190 BKN250 23/10 A3018 RMK AC1CI3 AC TR CONTRAILS SLP221

CYHM;2007-10-01 21:00;CYHM 012100Z 22008KT 15SM FEW190 BKN250 24/11 A3019 RMK AC1CI4 AC TR CONTRAILS SLP222

CYHM;2007-10-01 22:00;CYHM 012200Z 19008KT 15SM FEW080 SCT200 BKN250 22/10 A3019 RMK AC2CC2CI3 SLP222

CYHM;2007-10-01 23:00;CYHM 012300Z 19005KT 15SM FEW080 BKN200 BKN250 21/10 A3019 RMK AC1CC6CI1 AC TR SLP221

CYHM;2007-10-02 00:00;CYHM 020000Z 15005KT 15SM SCT100 BKN160 BKN200 19/11 A3018 RMK AC3AC2CC2 SLP222

CYHM;2007-10-02 00:35;CYHM 020035Z 17003KT 15SM -SHRA BKN110 OVC150 RMK AC6AC2

CYHM;2007-10-02 00:55;CYHM 020055Z 21002KT 15SM BKN100 OVC140 RMK AC6AC2

CYHM;2007-10-02 01:00;CYHM 020100Z 21002KT 15SM BKN100 OVC140 19/11 A3019 RMK AC6AC2 SLP225

CYHM;2007-10-02 02:00;CYHM 020200Z 15005KT 15SM -SHRA BKN100 OVC140 18/13 A3019 RMK AC6AC2 SLP224

CYHM;2007-10-02 02:50;CYHM 020250Z 18007KT 15SM BKN100 OVC140 RMK AC6AC2

CYHM;2007-10-02 03:00;CYHM 020300Z 18007KT 15SM SCT100 OVC140 19/12 A3020 RMK AC3AC5 SLP224

CYHM;2007-10-02 04:00;CYHM 020400Z 17004KT 15SM FEW080 BKN110 OVC160 17/13 A3018 RMK AC2AC5AC2 SLP220

CYHM;2007-10-02 05:00;CYHM 020500Z 15007KT 15SM OVC083 18/13 A3017 RMK AC8 SLP215

CYHM;2007-10-02 06:00;CYHM 020600Z 16007KT 15SM FEW094 OVC100 18/13 A3016 RMK AC2AC6 SLP213

CYHM;2007-10-02 07:00;CYHM 020700Z 19007KT 15SM -SHRA FEW078 OVC100 18/13 A3016 RMK AC2AC6 SLP212

CYHM;2007-10-02 08:00;CYHM 020800Z 18006KT 12SM -SHRA SCT084 OVC100 17/13 A3015 RMK AC3AC5 SLP210

CYHM;2007-10-02 09:00;CYHM 020900Z 18008KT 12SM -SHRA FEW040 BKN070 OVC110 16/14 A3015 RMK SC2AC3AC3 SLP208

CYHM;2007-10-02 10:00;CYHM 021000Z 17008KT 8SM -RA FEW035 BKN050 OVC100 15/14 A3015 RMK SF1SC6AC2 SLP208

CYHM;2007-10-02 11:00;CYHM 021100Z 16008KT 8SM -RA FEW032 BKN049 OVC120 15/14 A3015 RMK SC2SC4AC2 SLP209

CYHM;2007-10-02 12:00;CYHM 021200Z 16008KT 10SM -RA SCT038 OVC047 16/14 A3015 RMK SC4SC4 SLP211

CYHM;2007-10-02 12:37;CYHM 021237Z 13008KT 15SM SCT045 BKN059 RMK SC3SC4

CYHM;2007-10-02 13:00;CYHM 021300Z 15010KT 8SM FEW038 BKN047 OVC098 16/14 A3017 RMK SC2SC5AC2 SLP215

CYHM;2007-10-02 14:00;CYHM 021400Z 15008KT 15SM SCT038 BKN092 17/14 A3016 RMK SC3AC4 SLP213

CYHM;2007-10-02 15:00;CYHM 021500Z 16006KT 10SM FEW032 BKN039 OVC095 17/14 A3015 RMK SC2SC6AC1 SLP211

CYHM;2007-10-02 16:00;CYHM 021600Z 21007KT 15SM -SHRA BKN019 OVC028 18/14 A3014 RMK SC6SC2 SLP208

CYHM;2007-10-02 16:19;CYHM 021619Z 21008KT 2 1/2SM -RA SCT012 BKN022 OVC044 RMK SF3SC3SC2

CYHM;2007-10-02 16:41;CYHM 021641Z 21006KT 6SM -RA BKN022 OVC042 RMK SC6SC2

CYHM;2007-10-02 16:55;CYHM 021655Z 15006KT 15SM SCT045 BKN091 RMK SC4AC3

CYHM;2007-10-02 17:00;CYHM 021700Z 21008KT 15SM FEW045 BKN091 19/15 A3013 RMK SC2AC4 SLP204

CYHM;2007-10-02 18:00;CYHM 021800Z 21008KT 10SM BKN019 OVC058 19/14 A3011 RMK SC6SC2 CU ASOCTD SLP197

CYHM;2007-10-02 19:00;CYHM 021900Z 21010KT 10SM FEW016 BKN025 OVC058 19/15 A3010 RMK CF1SC6SC2 SUN DMLY VSBL CUFRA SLP193

CYHM;2007-10-02 20:00;CYHM 022000Z 20009KT 12SM BKN015 OVC032 18/15 A3010 RMK SC6SC2 SLP192

CYHM;2007-10-02 21:00;CYHM 022100Z 20006KT 7SM FEW012 BKN018 BKN054 19/15 A3009 RMK CF1SC6SC1 HAZY CUFRA SLP189

CYHM;2007-10-02 22:00;CYHM 022200Z 19006KT 10SM BKN018 OVC054 19/15 A3009 RMK SC6SC2 SLP189

CYHM;2007-10-02 23:00;CYHM 022300Z 19005KT 7SM FEW018 FEW034 SCT058 BKN250 19/15 A3009 RMK SC1SC1SC2CI1 HAZY SLP188

CYHM;2007-10-03 00:00;CYHM 030000Z 17004KT 12SM SCT055 BKN250 18/15 A3008 RMK SC4CI1 SLP188

CYHM;2007-10-03 01:00;CYHM 030100Z 15005KT 15SM BKN048 17/14 A3008 RMK SC5 SLP186

CYHM;2007-10-03 02:00;CYHM 030200Z 15005KT 15SM SCT048 17/14 A3005 RMK SC3 SLP177

CYHM;2007-10-03 03:00;CYHM 030300Z 15005KT 15SM SCT250 17/14 A3003 RMK CI1 SLP169

CYHM;2007-10-03 04:00;CYHM 030400Z 16005KT 15SM SCT250 17/14 A3001 RMK CI1 SLP162

CYHM;2007-10-03 05:00;CYHM 030500Z 16007KT 15SM SCT250 17/14 A2998 RMK CI0 SLP154

CYHM;2007-10-03 06:00;CYHM 030600Z 18010KT 15SM BKN250 18/15 A2997 RMK CC6 SLP150

CYHM;2007-10-03 07:00;CYHM 030700Z 18011KT 15SM BKN250 18/15 A2996 RMK CI1 SLP144

CYHM;2007-10-03 08:00;CYHM 030800Z 18012KT 15SM BKN250 19/15 A2995 RMK CS6 SLP141

CYHM;2007-10-03 09:00;CYHM 030900Z 18013KT 15SM BKN240 19/14 A2993 RMK CS5 SLP134

CYHM;2007-10-03 10:00;CYHM 031000Z 19012KT 15SM FEW200 BKN240 19/14 A2993 RMK CS2CS4 SLP133

CYHM;2007-10-03 11:00;CYHM 031100Z 20013KT 15SM FEW062 BKN180 BKN220 19/14 A2993 RMK SC2AC2CI2 SLP135

CYHM;2007-10-03 12:00;CYHM 031200Z 21016G22KT 15SM BKN058 BKN220 19/14 A2994 RMK SC6CI2 SLP138

CYHM;2007-10-03 13:00;CYHM 031300Z 20020G26KT 15SM SCT064 BKN088 BKN220 19/14 A2992 RMK SC3AC2CI2 SLP132

CYHM;2007-10-03 14:00;CYHM 031400Z 20014KT 15SM FEW060 BKN078 BKN220 20/14 A2993 RMK SC2AC4CI2 SLP133

CYHM;2007-10-03 15:00;CYHM 031500Z 21020KT 10SM SCT045 BKN082 OVC140 20/14 A2994 RMK SC3AC3AC2 SLP136

CYHM;2007-10-03 15:18;CYHM 031518Z 22020KT 8SM -SHRA BKN044 BKN062 OVC078 RMK SC5SC2AC2

CYHM;2007-10-03 16:00;CYHM 031600Z CCC 22015KT 15SM OVC032 19/15 A2995 RMK SC8 SLP140

CYHM;2007-10-03 17:00;CYHM 031700Z 22015KT 10SM FEW032 BKN120 BKN230 20/15 A2995 RMK SC2AC2CI2 SLP140

CYHM;2007-10-03 18:00;CYHM 031800Z 24015KT 10SM BKN024 BKN120 BKN230 21/15 A2994 RMK SC5AC1CI2 CU ASOCTD SLP139

CYHM;2007-10-03 19:00;CYHM 031900Z 22015KT 15SM SCT032 BKN250 23/16 A2995 RMK SC4CI0 TCU EMBDD SLP142

CYHM;2007-10-03 20:00;CYHM 032000Z 21012KT 15SM FEW028 BKN250 23/16 A2996 RMK CU2CI2 SC ASOCTD SLP144

CYHM;2007-10-03 21:00;CYHM 032100Z 22011KT 15SM FEW026 FEW180 BKN250 22/16 A2997 RMK CU2AC1CI1 AC TR SLP148

CYHM;2007-10-03 22:00;CYHM 032200Z 22013KT 15SM BKN026 BKN250 21/16 A2999 RMK SC5CI1 TCU EMBDD CF ASOCTD SLP153

CYHM;2007-10-03 23:00;CYHM 032300Z 22010KT 12SM FEW012 BKN018 BKN250 20/16 A3002 RMK CF1SC5CI1 CUFRA SLP163

CYHM;2007-10-04 00:00;CYHM 040000Z 23007KT 12SM FEW026 SCT250 18/15 A3004 RMK SC1CI1 SLP170

CYHM;2007-10-04 01:00;CYHM 040100Z 23003KT 10SM FEW250 17/15 A3006 RMK CI1 SLP177

CYHM;2007-10-04 02:00;CYHM 040200Z 26003KT 8SM FEW250 16/15 A3008 RMK CI1 SLP184

CYHM;2007-10-04 02:26;CYHM 040226Z 25002KT 3/4SM BR SKC RMK FG2 VIS VRB 1/2 - 1

CYHM;2007-10-04 02:47;CYHM 040247Z 00000KT 1/4SM FG SKC RMK FG4

CYHM;2007-10-04 02:54;CYHM 040254Z 20003KT 1 1/2SM BR SKC RMK FG2 VIS VRB 1 - 2

CYHM;2007-10-04 03:00;CYHM 040300Z 22003KT 1 1/2SM BR SKC 16/15 A3009 RMK FG2 VIS VRB 1 - 2 SLP189

CYHM;2007-10-04 03:18;CYHM 040318Z 22003KT 1/4SM FG SKC RMK FG3

CYHM;2007-10-04 03:33;CYHM 040333Z 00000KT 1/8SM FG SKC RMK FG5

CYHM;2007-10-04 04:00;CYHM 040400Z 21003KT 0SM FG SKC 14/13 A3009 RMK FG6 SLP190

CYHM;2007-10-04 04:32;CYHM 040432Z 19004KT 0SM FG BKN002 RMK FG6SF1

CYHM;2007-10-04 05:00;CYHM 040500Z 27003KT 0SM FG SKC 13/13 A3010 RMK FG5 SLP191

CYHM;2007-10-04 05:28;CYHM 040528Z 23003KT 0SM FG BKN001 RMK FG6SF2

CYHM;2007-10-04 06:00;CYHM 040600Z 28003KT 0SM FG BKN001 13/12 A3011 RMK FG6SF1 SLP196

CYHM;2007-10-04 07:00;CYHM 040700Z 00000KT 0SM FG BKN001 13/12 A3011 RMK FG6SF2 SLP198

CYHM;2007-10-04 08:00;CYHM 040800Z 00000KT 1/8SM FG SKC 12/11 A3011 RMK FG5 SLP198

CYHM;2007-10-04 09:00;CYHM 040900Z 00000KT 1/8SM FG SKC 11/10 A3012 RMK FG4 SLP200

CYHM;2007-10-04 09:17;CYHM 040917Z 00000KT 3/4SM BR SKC RMK FG2 VIS VRB 1/2 - 1

CYHM;2007-10-04 09:35;CYHM 040935Z 21003KT 1/8SM FG SKC RMK FG6

CYHM;2007-10-04 10:00;CYHM 041000Z 28003KT 1/8SM FG SKC 10/09 A3014 RMK FG5 SLP207

CYHM;2007-10-04 11:00;CYHM 041100Z 25002KT 1/8SM FG SKC 09/09 A3017 RMK FG5 SLP215

CYHM;2007-10-04 11:12;CYHM 041112Z 27002KT 1/2SM FG SKC RMK FG3

CYHM;2007-10-04 11:19;CYHM 041119Z 26002KT 1/8SM FG SKC RMK FG4

CYHM;2007-10-04 12:00;CYHM 041200Z 29002KT 4SM BR SKC 09/08 A3018 RMK SLP221

CYHM;2007-10-04 13:00;CYHM 041300Z 24002KT 6SM BR FEW160 FEW220 14/12 A3019 RMK AC1CI0 AC TR CI TR SLP225

CYHM;2007-10-04 13:34;CYHM 041334Z 23002KT 1 1/2SM BR FEW010 RMK FG1SF1 VIS N-NW6-8SM

CYHM;2007-10-04 13:47;CYHM 041347Z 24002KT 10SM FEW010 RMK SF1 SF TR VIS SW 2-4SM

CYHM;2007-10-04 14:00;CYHM 041400Z 23003KT 10SM FEW012 FEW220 15/14 A3021 RMK SF1CI1 SLP231

CYHM;2007-10-04 15:00;CYHM 041500Z 23004KT 15SM FEW220 18/15 A3021 RMK CI1 SLP232

CYHM;2007-10-04 16:00;CYHM 041600Z 18006KT 15SM FEW018 20/16 A3021 RMK CU1 SLP231

CYHM;2007-10-04 17:00;CYHM 041700Z 19004KT 15SM FEW030 21/15 A3020 RMK CU1 SLP228

CYHM;2007-10-04 18:00;CYHM 041800Z 20006KT 15SM FEW028 23/15 A3019 RMK CU2 SLP222

CYHM;2007-10-04 19:00;CYHM 041900Z 17006KT 120V220 15SM FEW040 24/13 A3017 RMK CU1 SLP218

CYHM;2007-10-04 20:00;CYHM 042000Z 19007KT 15SM FEW044 24/13 A3017 RMK CU1 SLP215

CYHM;2007-10-04 21:00;CYHM 042100Z 17008KT 15SM SKC 24/13 A3017 RMK SLP215

CYHM;2007-10-04 22:00;CYHM 042200Z 19006KT 15SM SKC 23/13 A3017 RMK SLP217

CYHM;2007-10-04 23:00;CYHM 042300Z 05006KT 15SM FEW250 19/14 A3018 RMK CI1 SLP220

CYHM;2007-10-05 00:00;CYHM 050000Z 05006KT 15SM SKC 16/13 A3019 RMK SLP227

CYHM;2007-10-05 01:00;CYHM 050100Z 04005KT 15SM SKC 15/13 A3020 RMK SLP230

CYHM;2007-10-05 02:00;CYHM 050200Z 03005KT 10SM SKC 14/13 A3021 RMK SLP232

CYHM;2007-10-05 03:00;CYHM 050300Z 05005KT 1 1/2SM BR SKC 14/12 A3021 RMK FG2 VIS VRB 1 - 2 SLP231

CYHM;2007-10-05 03:33;CYHM 050333Z 04005KT 1/4SM FG SKC RMK FG4

CYHM;2007-10-05 03:45;CYHM 050345Z 04005KT 0SM FG SKC RMK FG6

CYHM;2007-10-05 04:00;CYHM 050400Z 04004KT 0SM FG VV002 14/12 A3021 RMK FG8 SLP232

CYHM;2007-10-05 05:00;CYHM 050500Z 05005KT 0SM FG VV002 14/13 A3021 RMK FG8 SLP232

CYHM;2007-10-05 05:46;CYHM 050546Z 04005KT 0SM FG SKC RMK FG6

CYHM;2007-10-05 06:00;CYHM 050600Z 04005KT 1/8SM FG SKC 13/12 A3022 RMK FG4 SLP233

CYHM;2007-10-05 06:14;CYHM 050614Z 02004KT 3/4SM BR SKC RMK FG2 VIS VRB 1/2 - 1

CYHM;2007-10-05 06:48;CYHM 050648Z 03004KT 1/4SM FG SKC RMK FG4

CYHM;2007-10-05 07:00;CYHM 050700Z 02004KT 1/8SM FG SKC 13/12 A3022 RMK FG6 SLP234

CYHM;2007-10-05 08:00;CYHM 050800Z 05004KT 1/8SM FG SKC 13/12 A3022 RMK FG6 SLP234

CYHM;2007-10-05 09:00;CYHM 050900Z 05005KT 0SM FG SKC 14/13 A3023 RMK FG6 SLP237

CYHM;2007-10-05 10:00;CYHM 051000Z 05005KT 0SM FG SKC 14/13 A3024 RMK FG6 SLP240

CYHM;2007-10-05 11:00;CYHM 051100Z 06004KT 0SM FG SKC 15/14 A3025 RMK FG6 SLP243

CYHM;2007-10-05 12:00;CYHM 051200Z 03005KT 1/8SM FG SKC 15/14 A3026 RMK FG6 SLP249

CYHM;2007-10-05 13:00;CYHM 051300Z 05005KT 1/8SM FG SKC 15/14 A3027 RMK FG4 SLP252

CYHM;2007-10-05 14:00;CYHM 051400Z 08003KT 1/4SM FG SKC 16/15 A3028 RMK FG5 SLP255

CYHM;2007-10-05 14:15;CYHM 051415Z 04004KT 1SM BR SKC RMK FG4

CYHM;2007-10-05 14:21;CYHM 051421Z 05004KT 1 3/4SM BR SCT002 RMK FG2SF2

CYHM;2007-10-05 14:38;CYHM 051438Z 04004KT 3SM BR FEW007 FEW240 RMK SF1CI0

CYHM;2007-10-05 15:00;CYHM 051500Z 06004KT 4SM BR SKC 18/17 A3028 RMK SLP255

CYHM;2007-10-05 16:00;CYHM 051600Z 06003KT 7SM FEW028 FEW080 22/17 A3027 RMK CU1AC1 CU TR AC TR SLP253

CYHM;2007-10-05 17:00;CYHM 051700Z 07005KT 15SM FEW035 FEW100 23/17 A3026 RMK CU1AC1 SLP249

CYHM;2007-10-05 18:00;CYHM 051800Z 11005KT 15SM FEW035 25/17 A3024 RMK CU1 CU TR SLP241

CYHM;2007-10-05 19:00;CYHM 051900Z 11002KT 15SM FEW035 FEW100 27/18 A3023 RMK CU1AC1 WND L/V SLP235

CYHM;2007-10-05 20:00;CYHM 052000Z 07004KT 15SM FEW035 27/18 A3020 RMK CU1 SLP228

CYHM;2007-10-05 21:00;CYHM 052100Z 05008KT 15SM FEW035 25/18 A3019 RMK CU1 SLP223

CYHM;2007-10-05 22:00;CYHM 052200Z 04002KT 15SM FEW035 FEW100 24/17 A3020 RMK CU1AC1 SLP225

CYHM;2007-10-05 23:00;CYHM 052300Z 15005KT 15SM FEW100 FEW250 22/16 A3019 RMK AC1CI1 AC TR SLP221

CYHM;2007-10-06 00:00;CYHM 060000Z 03005KT 10SM FEW100 FEW250 19/15 A3020 RMK AC1CI0 AC TR SLP227

CYHM;2007-10-06 01:00;CYHM 060100Z 06006KT 9SM FEW110 17/15 A3020 RMK AC2 SLP228

CYHM;2007-10-06 02:00;CYHM 060200Z 06005KT 5SM BR SKC 17/15 A3020 RMK SLP227

CYHM;2007-10-06 03:00;CYHM 060300Z 04004KT 7SM PRFG SKC 17/15 A3021 RMK SLP229

CYHM;2007-10-06 04:00;CYHM 060400Z 05003KT 7SM PRFG SKC 17/15 A3020 RMK SLP226

CYHM;2007-10-06 05:00;CYHM 060500Z 06003KT 7SM PRFG FEW250 17/14 A3019 RMK CI2 SLP222

CYHM;2007-10-06 06:00;CYHM 060600Z 03004KT 7SM PRFG BKN250 17/14 A3018 RMK CI4 SLP220

CYHM;2007-10-06 07:00;CYHM 060700Z 00000KT 8SM SCT093 BKN140 17/14 A3017 RMK AC4AC1 HZ SLP217

CYHM;2007-10-06 08:00;CYHM 060800Z 00000KT 10SM FEW090 SCT140 16/14 A3015 RMK AC1AC2 SLP210

CYHM;2007-10-06 09:00;CYHM 060900Z 16002KT 10SM BKN150 16/14 A3015 RMK AC4 SLP208

CYHM;2007-10-06 10:00;CYHM 061000Z 19003KT 10SM FEW050 BKN150 16/14 A3015 RMK SC2AC3 SLP208

CYHM;2007-10-06 11:00;CYHM 061100Z 20005KT 4SM BR FEW050 BKN120 17/15 A3015 RMK SC2AC4 SLP207

CYHM;2007-10-06 11:19;CYHM 061119Z 21004KT 2 1/2SM BR FEW050 BKN120 RMK SC1AC5

CYHM;2007-10-06 12:00;CYHM 061200Z 19005KT 2 1/2SM BR FEW053 FEW110 FEW250 17/15 A3014 RMK SC2AC1CI1 CI TR SLP207

CYHM;2007-10-06 12:38;CYHM 061238Z 21007KT 5SM HZ SCT063 BKN250 RMK SC4CI2

CYHM;2007-10-06 13:00;CYHM 061300Z 22007KT 9SM BKN060 BKN110 BKN250 21/18 A3015 RMK SC5AC2CI1 CU ASOCTD SLP209

CYHM;2007-10-06 13:31;CYHM 061331Z 28008G15KT 250V330 15SM TS FEW010 BKN045 BKN130 RMK CF2SC5AC1 CB EMBD

CYHM;2007-10-06 14:00;CYHM 061400Z 25004KT 12SM TS FEW010 BKN045 OVC130 20/17 A3016 RMK CF1SC6AC2 CB EMBD CF TR SLP214

CYHM;2007-10-06 14:13;CYHM 061413Z 29018KT 240V340 1SM +TSRA FEW010 OVC034 RMK RA2CF1SC6 CB EMBD

CYHM;2007-10-06 14:35;CYHM 061435Z 26010G16KT 230V340 6SM TSRA BKN037 BKN090 RERA RMK SC6AC1 CB EMBD

CYHM;2007-10-06 15:00;CYHM 061500Z 22008KT 8SM TSRA BKN040 BKN120 20/18 A3016 RERA RMK SC6AC2 CB EMBD /R19/ SLP212

CYHM;2007-10-06 16:00;CYHM 061600Z 24007KT 9SM -TSRA BKN044 BKN060 20/18 A3015 RERA RMK SC6SC2 CB EMBD SLP209

CYHM;2007-10-06 16:24;CYHM 061624Z 19005KT 12SM TS BKN048 BKN140 RMK SC5AC2 CB ASOCTD TOP NE

CYHM;2007-10-06 16:41;CYHM 061641Z 19007KT 12SM SCT048 BKN130 BKN250 RETS RMK SC3AC2CI0 CB ASOCTD TOPS N

CYHM;2007-10-06 17:00;CYHM 061700Z 19007KT 12SM FEW048CB BKN120 BKN250 22/20 A3013 RETS RMK CB1AC5CI0 CB N SLP201

CYHM;2007-10-06 18:00;CYHM 061800Z 20009KT 15SM FEW048CB FEW120 FEW250 25/21 A3009 RMK CB1AC1CI0 SLP187

CYHM;2007-10-06 19:00;CYHM 061900Z 20010KT 9SM BKN028TCU BKN120 27/21 A3007 RMK TCU5AC1 HZ AC TR SLP183

CYHM;2007-10-06 19:05;CYHM 061905Z 19009KT 9SM TS BKN028TCU RMK TCU6 CB ASOCTD

CYHM;2007-10-06 19:40;CYHM 061940Z 20009KT 9SM -TSRA BKN030TCU BKN042 BKN075 RMK TCU5SC2AC1 CB EMBD

CYHM;2007-10-06 20:00;CYHM 062000Z 24012KT 10SM TS SCT030TCU BKN045 BKN075 26/20 A3007 RMK TCU4SC2AC1 CB ASOCTD SLP180

CYHM;2007-10-06 21:00;CYHM 062100Z 24006KT 12SM FEW030CB SCT040 BKN075 26/21 A3007 RETS RMK CB1SC2AC2 SLP181

CYHM;2007-10-06 22:00;CYHM 062200Z 22008KT 12SM FEW040 SCT070 SCT250 25/20 A3007 RMK SC2AC2CI1 CI TR SLP179

CYHM;2007-10-06 23:00;CYHM 062300Z 22008KT 12SM FEW035TCU BKN140 BKN250 24/19 A3006 RMK TCU2AC3CI1 SLP177

CYHM;2007-10-07 00:00;CYHM 070000Z 23007KT 12SM FEW040 FEW140 SCT250 23/19 A3007 RMK SC2AC1CI0 SLP180

CYHM;2007-10-07 00:40;CYHM 070040Z 22008KT 12SM -SHRA FEW040 BKN110 RMK SC2AC5 LTNG DIST N

CYHM;2007-10-07 01:00;CYHM 070100Z 24007KT 12SM -SHRA SCT042 BKN120 22/19 A3005 RMK SC3AC3 SLP175

CYHM;2007-10-07 01:20;CYHM 070120Z 24007KT 12SM FEW040 SCT120 RMK SC2AC1 LTNG DIST N TCU ASOCTD

CYHM;2007-10-07 02:00;CYHM 070200Z 23008KT 12SM FEW040 FEW120 21/19 A3005 RMK SC1AC1 SLP175

CYHM;2007-10-07 03:00;CYHM 070300Z 26005KT 8SM FEW040 BKN130 21/19 A3005 RMK SC1AC3 HZ SLP176

CYHM;2007-10-07 04:00;CYHM 070400Z 35008KT 6SM TS HZ OVC059 21/18 A3007 RMK SC8 CB ASOCTD OCNL LTNG SLP183

CYHM;2007-10-07 04:31;CYHM 070431Z 34012KT 3SM -TSRA HZ OVC059 RMK SC8 CB ASOCTD OCNL LTNG VIS VRB 2 - 4

CYHM;2007-10-07 05:00;CYHM 070500Z 36004KT 10SM -TSRA SCT024CB OVC046 20/18 A3007 RMK CB3SC5 OCNL LTGIC SLP181

CYHM;2007-10-07 06:00;CYHM 070600Z 31007KT 10SM -TSRA OVC055 21/18 A3009 RMK SC8 CB ASOCTD OCNL LTGIC SW SLP187

CYHM;2007-10-07 06:33;CYHM 070633Z 04003KT 15SM FEW050 BKN090 OVC120 RETS RMK SC2AC5AC2

CYHM;2007-10-07 07:00;CYHM 070700Z 00000KT 8SM FEW050 OVC100 20/18 A3009 RETS RMK SC1AC7 SLP188

CYHM;2007-10-07 08:00;CYHM 070800Z 00000KT 6SM BR FEW015 SCT099 BKN140 19/18 A3008 RMK CF2AC1AC1 SLP185

CYHM;2007-10-07 09:00;CYHM 070900Z 03004KT 6SM BR FEW075 OVC120 20/18 A3009 RMK AC2AC6 SLP187

CYHM;2007-10-07 10:00;CYHM 071000Z 00000KT 4SM BR FEW045 BKN120 20/18 A3011 RMK SC2AC4 SLP193

CYHM;2007-10-07 11:00;CYHM 071100Z 07008KT 1 1/2SM BR BKN003 OVC045 20/18 A3012 RMK FG1SF5SC2 SLP197

CYHM;2007-10-07 11:20;CYHM 071120Z 03008KT 1SM BR OVC002 RMK FG2SF6

CYHM;2007-10-07 11:48;CYHM 071148Z 05008KT 5/8SM BR OVC002 RMK FG3SF5

CYHM;2007-10-07 11:54;CYHM 071154Z 05005KT 3/8SM FG OVC002 RMK FG5SF3

CYHM;2007-10-07 12:00;CYHM 071200Z 05005KT 3/8SM FG OVC002 20/19 A3014 RMK FG5SF3 SLP204

CYHM;2007-10-07 12:29;CYHM 071229Z 03008KT 1/8SM FG VV001 RMK FG8

CYHM;2007-10-07 13:00;CYHM 071300Z 05011KT 0SM FG VV001 18/18 A3016 RMK FG8 SLP210

CYHM;2007-10-07 13:34;CYHM 071334Z 04012KT 0SM -DZ FG VV001 RMK FG8

CYHM;2007-10-07 14:00;CYHM 071400Z 03010KT 0SM -DZ FG VV001 17/17 A3017 RMK FG8 SLP214

CYHM;2007-10-07 15:00;CYHM 071500Z 04012KT 1/8SM -DZ FG VV001 16/16 A3016 RMK FG8 PCPN VRY LGT SLP213

CYHM;2007-10-07 16:00;CYHM 071600Z 04011KT 1/4SM -DZ FG VV001 16/16 A3017 RMK FG8 SLP216

CYHM;2007-10-07 17:00;CYHM 071700Z 02009KT 1/4SM FG VV001 16/16 A3017 RMK FG8 SLP215

CYHM;2007-10-07 17:14;CYHM 071714Z 03009KT 1/2SM FG OVC002 RMK FG6SF2

CYHM;2007-10-07 18:00;CYHM 071800Z 03009KT 1SM BR OVC002 16/16 A3014 RMK FG2SF6 SLP207

CYHM;2007-10-07 18:07;CYHM 071807Z 04009KT 3/8SM -DZ FG OVC002 RMK FG4ST4

CYHM;2007-10-07 18:30;CYHM 071830Z 03008KT 1/2SM -DZ FG OVC002 RMK FG4ST4

CYHM;2007-10-07 19:00;CYHM 071900Z 03008KT 3/4SM -DZ BR OVC002 16/16 A3014 RMK FG3ST5 PCPN VRY LGT SLP205

CYHM;2007-10-07 20:00;CYHM 072000Z 05008KT 1SM -DZ BR OVC003 16/16 A3011 RMK FG3ST5 PCPN VRY LGT SLP197

CYHM;2007-10-07 20:23;CYHM 072023Z 06006KT 1 1/2SM BR OVC004 RMK FG2ST6

CYHM;2007-10-07 21:00;CYHM 072100Z 06006KT 1 3/4SM BR OVC004 16/16 A3010 RMK FG2ST6 SLP193

CYHM;2007-10-07 22:00;CYHM 072200Z 05005KT 1 3/4SM BR OVC005 17/16 A3009 RMK FG2ST6 SLP190

CYHM;2007-10-07 22:30;CYHM 072230Z 09002KT 1 1/4SM BR OVC004 RMK FG2ST6

CYHM;2007-10-07 22:45;CYHM 072245Z 03003KT 3/4SM BR OVC003 RMK FG3ST5

CYHM;2007-10-07 23:00;CYHM 072300Z 03002KT 5/8SM BR OVC002 16/16 A3009 RMK FG4ST4 SLP188

CYHM;2007-10-07 23:16;CYHM 072316Z 06003KT 3/8SM FG VV002 RMK FG8

CYHM;2007-10-07 23:30;CYHM 072330Z 06002KT 1/4SM FG VV001 RMK FG8

CYHM;2007-10-08 00:00;CYHM 080000Z 03002KT 1/8SM FG VV001 16/16 A3009 RMK FG8 SLP189

CYHM;2007-10-08 01:00;CYHM 080100Z 02002KT 0SM FG VV001 16/16 A3008 RMK FG8 SLP186

CYHM;2007-10-08 02:00;CYHM 080200Z 01002KT 0SM FG VV001 16/16 A3007 RMK FG8 SLP183

CYHM;2007-10-08 03:00;CYHM 080300Z 00000KT 0SM FG VV001 17/17 A3007 RMK FG8 SLP184

CYHM;2007-10-08 04:00;CYHM 080400Z 00000KT 0SM FG VV001 17/17 A3006 RMK FG8 SLP179

CYHM;2007-10-08 05:00;CYHM 080500Z 22004KT 0SM -RA FG VV001 17/17 A3003 RMK FG8 SLP171

CYHM;2007-10-08 06:00;CYHM 080600Z 23006KT 0SM -RA FG VV001 17/17 A3002 RMK FG8 SLP167

CYHM;2007-10-08 07:00;CYHM 080700Z 25007KT 1/8SM FG VV001 18/18 A3002 RMK FG8 SLP167

CYHM;2007-10-08 08:00;CYHM 080800Z 25008KT 3/8SM FG VV002 18/18 A3002 RMK FG8 SLP167

CYHM;2007-10-08 09:00;CYHM 080900Z 25008KT 1/4SM FG SKC 18/18 A3002 RMK FG6 SLP165

CYHM;2007-10-08 10:00;CYHM 081000Z 25007KT 1/2SM FG SCT110 18/18 A3001 RMK FG2AC2 SLP163

CYHM;2007-10-08 10:08;CYHM 081008Z 26006KT 1 1/2SM BR SCT110 RMK FG1AC2

CYHM;2007-10-08 10:46;CYHM 081046Z 26007KT 6SM BR FEW055 BKN110 RMK SC1AC3

CYHM;2007-10-08 11:00;CYHM 081100Z 26006KT 5SM BR FEW060 BKN110 19/19 A3001 RMK SC1AC4 SLP162

CYHM;2007-10-08 11:10;CYHM 081110Z 26007KT 1 1/2SM BR BKN110 RMK FG1AC3

CYHM;2007-10-08 11:22;CYHM 081122Z 25008KT 1 1/2SM BR SCT110 BKN220 RMK FG1AC2CI1 VISB VRBL1-2SM

CYHM;2007-10-08 12:00;CYHM 081200Z 26007KT 2SM BR SCT090 BKN120 BKN220 19/19 A3000 RMK AC3AC2CI1 SLP159

CYHM;2007-10-08 13:00;CYHM 081300Z 27008KT 3SM BR BKN110 20/20 A3000 RMK AC7 SLP160

CYHM;2007-10-08 14:00;CYHM 081400Z 28007KT 5SM BR BKN120 BKN220 22/21 A3000 RMK AC6CI1 SLP159

CYHM;2007-10-08 15:00;CYHM 081500Z CCA 28005KT 7SM FEW120 BKN220 24/22 A3000 RMK AC2CI2 CONTRAIL HAZE SLP156

CYHM;2007-10-08 16:00;CYHM 081600Z 28012KT 10SM SCT120 BKN220 27/22 A2997 RMK AC4CI2 SLP146

CYHM;2007-10-08 17:00;CYHM 081700Z 28008KT 10SM FEW038 FEW120 BKN220 28/21 A2995 RMK CU1AC2CI2 CU TR CONTRAIL SLP140

CYHM;2007-10-08 18:00;CYHM 081800Z 27010KT 15SM FEW036 FEW180 BKN220 29/21 A2992 RMK CU2AC1CI1 CONTRAIL SLP130

CYHM;2007-10-08 19:00;CYHM 081900Z 29010KT 15SM FEW046 FEW250 30/20 A2990 RMK CU2CI1 TCU ASOCTD CI TR SLP123

CYHM;2007-10-08 20:00;CYHM 082000Z 29008KT 15SM FEW056TCU FEW180 30/20 A2989 RMK TCU2AC1 AC TR CU ASOCTD SLP119

CYHM;2007-10-08 21:00;CYHM 082100Z 24005KT 15SM FEW054 SCT180 30/20 A2988 RMK SC2AC1 TCU EMBDD SLP115

CYHM;2007-10-08 22:00;CYHM 082200Z 24008KT 15SM FEW056 FEW250 28/21 A2988 RMK SC2CI1 CI TR SLP114

CYHM;2007-10-08 23:00;CYHM 082300Z 25005KT 12SM FEW056 FEW250 26/20 A2988 RMK SC1CI1 CI TR SLP113

CYHM;2007-10-09 00:00;CYHM 090000Z 24003KT 12SM FEW250 24/20 A2987 RMK CI1 SLP113

CYHM;2007-10-09 01:00;CYHM 090100Z 22003KT 15SM FEW250 22/20 A2986 RMK CI1 SLP110

CYHM;2007-10-09 02:00;CYHM 090200Z 19003KT 15SM FEW250 21/19 A2987 RMK CI1 CI TR SLP111

CYHM;2007-10-09 03:00;CYHM 090300Z 19003KT 15SM FEW250 20/19 A2986 RMK CI1 CI TR SLP110

CYHM;2007-10-09 04:00;CYHM 090400Z 22004KT 15SM FEW250 19/18 A2986 RMK CI1 CI TR SLP109

CYHM;2007-10-09 05:00;CYHM 090500Z 23003KT 15SM SKC 19/18 A2985 RMK SLP107

CYHM;2007-10-09 06:00;CYHM 090600Z 25002KT 15SM SKC 20/19 A2985 RMK SLP104

CYHM;2007-10-09 07:00;CYHM 090700Z 00000KT 12SM FEW250 18/18 A2984 RMK CI1 SLP101

CYHM;2007-10-09 08:00;CYHM 090800Z 00000KT 10SM FEW064 SCT100 SCT250 20/19 A2982 RMK SC1AC2CI0 SLP095

CYHM;2007-10-09 09:00;CYHM 090900Z 00000KT 9SM SCT110 SCT250 19/18 A2981 RMK AC3CI1 SLP091

CYHM;2007-10-09 10:00;CYHM 091000Z 00000KT 6SM BR FEW060 SCT110 18/18 A2981 RMK SC2AC1 SLP091

CYHM;2007-10-09 10:56;CYHM 091056Z 01004KT 1/2SM FG BKN003 RMK FG4SF2

CYHM;2007-10-09 11:00;CYHM 091100Z 02006KT 1/4SM FG OVC002 19/19 A2982 RMK FG5SF3 SLP094

CYHM;2007-10-09 11:13;CYHM 091113Z 02006KT 1/8SM FG VV001 RMK FG8

CYHM;2007-10-09 12:00;CYHM 091200Z 35006KT 1/8SM FG VV001 18/18 A2983 RMK FG8 SLP099

CYHM;2007-10-09 13:00;CYHM 091300Z 01004KT 0SM FG VV001 18/18 A2982 RMK FG8 SLP097

CYHM;2007-10-09 14:00;CYHM 091400Z CCA 34006KT 1/2SM FG OVC002 18/18 A2984 RMK FG5SF3 SLP104

CYHM;2007-10-09 14:17;CYHM 091417Z 34006KT 3/4SM -SHRA BR OVC002 RMK FG5SF3

CYHM;2007-10-09 14:27;CYHM 091427Z 32006KT 1 1/2SM -SHRA BR BKN005 OVC015 RMK FG2SF4SC2

CYHM;2007-10-09 14:33;CYHM 091433Z 32006KT 3SM -SHRA BR SCT010 OVC017 RMK SF3SC5

CYHM;2007-10-09 14:47;CYHM 091447Z 31008KT 5SM BR FEW010 BKN015 OVC020 RMK SF2SC4SC2

CYHM;2007-10-09 15:00;CYHM 091500Z 30009KT 6SM BR FEW010 BKN014 OVC020 18/18 A2984 RMK SF2SC4SC2 SLP105

CYHM;2007-10-09 16:00;CYHM 091600Z 29004KT 3SM -DZ BR SCT012 OVC018 18/17 A2987 RMK SF4SC4 SLP112

CYHM;2007-10-09 16:46;CYHM 091646Z 28010KT 8SM FEW018 BKN024 BKN036 RMK CU2SC4SC2

CYHM;2007-10-09 17:00;CYHM 091700Z 29010KT 10SM FEW020 BKN036 BKN160 BKN220 20/16 A2984 RMK CU2SC2AC2CI1 SLP102

CYHM;2007-10-09 18:00;CYHM 091800Z 26008KT 15SM FEW030 SCT170 BKN230 21/16 A2982 RMK CU2AC1CI1 SLP096

CYHM;2007-10-09 19:00;CYHM 091900Z 28011KT 15SM FEW034 FEW250 21/12 A2980 RMK CU1CI2 CONTRAILS SLP090

CYHM;2007-10-09 20:00;CYHM 092000Z 28011KT 15SM FEW040 FEW250 21/10 A2979 RMK CU1CI1 CU TR SLP085

CYHM;2007-10-09 21:00;CYHM 092100Z 26007KT 15SM FEW044 FEW250 21/10 A2978 RMK CU1CI1 CU TR CONTRAILS SLP081

CYHM;2007-10-09 22:00;CYHM 092200Z 27010KT 15SM FEW044 FEW180 20/08 A2979 RMK CU1AC1 CU TR AC TR SLP085

CYHM;2007-10-09 23:00;CYHM 092300Z 27005KT 15SM FEW190 17/07 A2980 RMK AC1 AC TR SLP088

CYHM;2007-10-10 00:00;CYHM 100000Z 26002KT 15SM FEW250 16/07 A2980 RMK CI1 CI TR SLP091

CYHM;2007-10-10 01:00;CYHM 100100Z 20002KT 15SM SKC 13/09 A2981 RMK SLP093

CYHM;2007-10-10 02:00;CYHM 100200Z 00000KT 15SM SKC 13/08 A2980 RMK SLP091

CYHM;2007-10-10 03:00;CYHM 100300Z 17005KT 15SM FEW250 12/08 A2978 RMK CI1 CI TR SLP087

CYHM;2007-10-10 04:00;CYHM 100400Z 15003KT 15SM FEW250 12/09 A2975 RMK CI2 SLP077

CYHM;2007-10-10 05:00;CYHM 100500Z 15006KT 15SM FEW064 FEW250 13/11 A2973 RMK SC2CI1 CI TR SLP068

CYHM;2007-10-10 06:00;CYHM 100600Z 17002KT 15SM FEW070 13/10 A2971 RMK AC2 SLP059

CYHM;2007-10-10 07:00;CYHM 100700Z 16007KT 15SM FEW070 FEW250 13/12 A2967 RMK AC1CI1 AC TR CI TR SLP048

CYHM;2007-10-10 08:00;CYHM 100800Z 16007KT 15SM FEW064 SCT088 13/13 A2965 RMK SC2AC2 SLP040

CYHM;2007-10-10 09:00;CYHM 100900Z 15007KT 15SM BKN080 14/13 A2963 RMK AC5 SLP032

CYHM;2007-10-10 10:00;CYHM 101000Z 21005KT 15SM BKN017 BKN034 BKN080 15/14 A2963 RMK SC5SC2AC1 SLP032

CYHM;2007-10-10 11:00;CYHM 101100Z 25012KT 15SM FEW042 FEW100 13/12 A2964 RMK SC1AC1 SLP036

CYHM;2007-10-10 12:00;CYHM 101200Z 26007KT 15SM FEW058 FEW070 12/11 A2966 RMK SC2AC1 SLP044

CYHM;2007-10-10 13:00;CYHM 101300Z 26014KT 15SM FEW020 SCT042 BKN063 12/08 A2968 RMK CU1SC2SC3 SLP053

CYHM;2007-10-10 14:00;CYHM 101400Z 25012KT 15SM FEW020 FEW052 BKN220 13/08 A2968 RMK CU1SC2CI2 SLP052

CYHM;2007-10-10 15:00;CYHM 101500Z 25012KT 15SM FEW030 FEW058 FEW100 13/07 A2968 RMK CU1SC1AC1 SLP054

CYHM;2007-10-10 16:00;CYHM 101600Z 25012KT 15SM FEW038 SCT056 BKN100 13/08 A2969 RMK CU2SC2AC1 SLP057

CYHM;2007-10-10 17:00;CYHM 101700Z 25012KT 15SM FEW028 FEW035 SCT120 13/07 A2970 RMK CU2SC1AC1 SLP059

CYHM;2007-10-10 18:00;CYHM 101800Z 26013KT 15SM SCT026 BKN079 13/08 A2970 RMK CU3AC4 SLP059

CYHM;2007-10-10 20:00;CYHM 102000Z 26012G19KT 15SM SCT024 BKN034 12/08 A2971 RMK SC3SC4 CF ASOCTD SLP064

CYHM;2007-10-10 21:00;CYHM 102100Z 26010KT 15SM FEW024 OVC035 12/08 A2974 RMK CF1SC7 CUFRA SLP071

CYHM;2007-10-10 21:47;CYHM 102147Z 26010KT 5SM -SHRA HZ BKN024 OVC040 RMK SC6SC2

CYHM;2007-10-10 22:00;CYHM 102200Z 28012KT 5SM -SHRA HZ BKN020 OVC042 10/08 A2976 RMK SC6SC2 SLP078

CYHM;2007-10-10 22:23;CYHM 102223Z 28007KT 15SM FEW024 BKN038 BKN065 RMK SC1SC5SC2 CF ASOCTD

CYHM;2007-10-10 23:00;CYHM 102300Z 30007KT 15SM FEW024 OVC058 10/08 A2976 RMK SC1SC7 SLP080

CYHM;2007-10-10 23:42;CYHM 102342Z 28007KT 15SM -SHRA FEW046 OVC064 RMK SC2SC6

CYHM;2007-10-11 00:00;CYHM 110000Z 28007KT 15SM -SHRA FEW046 OVC057 10/08 A2978 RMK SC2SC6 SLP086

CYHM;2007-10-11 00:44;CYHM 110044Z 26006KT 15SM BKN068 BKN088 RMK AC5AC2

CYHM;2007-10-11 01:00;CYHM 110100Z 28007KT 15SM BKN068 BKN088 10/08 A2978 RMK AC6AC2 SLP088

CYHM;2007-10-11 02:00;CYHM 110200Z 30005KT 15SM BKN090 09/08 A2977 RMK AC5 SLP083

CYHM;2007-10-11 03:00;CYHM 110300Z 21005KT 15SM FEW057 FEW090 07/07 A2977 RMK SC2AC1 SLP083

CYHM;2007-10-11 04:00;CYHM 110400Z 28003KT 15SM FEW070 SCT230 07/07 A2976 RMK AC2CI2 SLP082

CYHM;2007-10-11 05:00;CYHM 110500Z 19005KT 15SM BKN076 08/07 A2976 RMK AC7 SLP082

CYHM;2007-10-11 08:00;CYHM 110800Z 28005KT 15SM FEW140 FEW220 07/07 A2975 RMK AC1CI1 SLP076

CYHM;2007-10-11 09:00;CYHM 110900Z 30002KT 15SM FEW037 SCT140 07/06 A2975 RMK SC2AC1 SLP078

CYHM;2007-10-11 10:00;CYHM 111000Z 28002KT 15SM FEW042 FEW240 06/06 A2974 RMK SC2CI1 SLP076

CYHM;2007-10-11 11:00;CYHM 111100Z 30002KT 15SM FEW042 FEW140 BKN230 06/05 A2974 RMK SC1AC2CI1 BCFG SLP076

CYHM;2007-10-11 12:00;CYHM 111200Z 31006KT 15SM FEW042 FEW078 SCT230 06/06 A2975 RMK SC1AC1CI1 SLP078

CYHM;2007-10-11 13:00;CYHM 111300Z 32003KT 15SM FEW045 FEW100 SCT240 08/07 A2976 RMK SC1AC1CI1 CU ASOCTD SLP083

CYHM;2007-10-11 14:00;CYHM 111400Z 33003KT 15SM FEW025 FEW100 FEW240 12/08 A2977 RMK CU1AC1CI1 CU TR SLP086

CYHM;2007-10-11 15:00;CYHM 111500Z 01002KT 15SM FEW030 FEW100 13/05 A2977 RMK CU1AC1 SLP085

CYHM;2007-10-11 16:00;CYHM 111600Z 00000KT 15SM SCT032 BKN044 BKN120 14/06 A2977 RMK CU3SC2AC1 SLP084

CYHM;2007-10-11 17:00;CYHM 111700Z CCB 30006KT 15SM FEW032 SCT040 BKN120 15/07 A2975 RMK CU2SC1AC1 SLP078

CYHM;2007-10-11 18:00;CYHM 111800Z 30006KT 15SM FEW054 BKN062 BKN100 14/07 A2974 RMK CU2SC4AC1 SLP072

CYHM;2007-10-11 19:00;CYHM 111900Z 29004KT 15SM FEW036 BKN054 BKN067 14/08 A2973 RMK CU2SC5AC1 SLP069

CYHM;2007-10-11 20:00;CYHM 112000Z 30004KT 15SM FEW037 FEW054 BKN072 15/08 A2972 RMK CU1SC2AC5 SLP068

CYHM;2007-10-11 21:00;CYHM 112100Z 32011KT 15SM FEW037 FEW059 BKN076 14/09 A2972 RMK CU1SC2AC5 SLP068

CYHM;2007-10-11 22:00;CYHM 112200Z 35012KT 15SM FEW034 BKN058 BKN067 12/09 A2975 RMK CU2SC4AC2 SLP076

CYHM;2007-10-11 23:00;CYHM 112300Z 34009KT 15SM FEW012 SCT026 SCT048 11/10 A2975 RMK CU2SC2SC1 SLP079

CYHM;2007-10-12 00:00;CYHM 120000Z 36011KT 15SM FEW015 FEW040 10/08 A2977 RMK SC2SC1 SLP085

CYHM;2007-10-12 01:00;CYHM 120100Z 35011KT 15SM BKN018 BKN056 10/07 A2978 RMK SC6SC2 SLP090

CYHM;2007-10-12 02:00;CYHM 120200Z 36007KT 15SM BKN017 BKN058 09/06 A2980 RMK SC6SC2 SLP095

CYHM;2007-10-12 03:00;CYHM 120300Z 34012KT 15SM BKN019 OVC060 08/05 A2982 RMK SC6SC2 SLP101

CYHM;2007-10-12 04:00;CYHM 120400Z 36005KT 15SM OVC019 08/05 A2982 RMK SC8 SLP101

CYHM;2007-10-12 05:00;CYHM 120500Z 34015KT 15SM BKN030 07/04 A2982 RMK SC7 SLP102

CYHM;2007-10-12 06:00;CYHM 120600Z 34013KT 15SM BKN033 07/03 A2983 RMK SC7 SLP104

CYHM;2007-10-12 07:00;CYHM 120700Z 36010KT 15SM BKN032 06/02 A2984 RMK SC6 SLP106

CYHM;2007-10-12 08:00;CYHM 120800Z 33005KT 15SM FEW025 05/02 A2984 RMK SC2 SLP106

CYHM;2007-10-12 09:00;CYHM 120900Z 34006KT 15SM BKN027 05/03 A2984 RMK SC7 SLP110

CYHM;2007-10-12 10:00;CYHM 121000Z 34005KT 15SM FEW025 FEW210 04/02 A2985 RMK SC1CI1 TR SC SLP111

CYHM;2007-10-12 11:00;CYHM 121100Z 00000KT 15SM FEW025 FEW220 03/01 A2986 RMK CU1CI0 SLP116

CYHM;2007-10-12 12:00;CYHM 121200Z 29007KT 15SM FEW025 FEW045 02/02 A2988 RMK CU1SC1 CU TR SLP126

CYHM;2007-10-12 13:00;CYHM 121300Z 32007KT 15SM FEW025 FEW045 05/04 A2991 RMK CU1SC1 CU TR SC TR SLP134

CYHM;2007-10-12 14:00;CYHM 121400Z 35008KT 15SM FEW025 FEW100 07/03 A2991 RMK CU1AC1 SLP134

CYHM;2007-10-12 15:00;CYHM 121500Z 32006KT 15SM SCT029 BKN036 08/02 A2991 RMK CU3SC2 SLP135

CYHM;2007-10-12 16:00;CYHM 121600Z 28012KT 15SM SCT036 BKN041 10/02 A2991 RMK CU3SC3 SLP133

CYHM;2007-10-12 17:00;CYHM 121700Z 26011KT 15SM BKN042 10/02 A2989 RMK CU5 SC ASOCTD SLP128

CYHM;2007-10-12 18:00;CYHM 121800Z 29011KT 15SM BKN042 BKN055 11/01 A2988 RMK CU5SC1 SLP124

CYHM;2007-10-12 19:00;CYHM 121900Z 26011KT 220V300 15SM FEW040 BKN052 11/02 A2988 RMK CU2SC5 SLP123

CYHM;2007-10-12 20:00;CYHM 122000Z CCA 31008KT 15SM BKN049 10/01 A2988 RMK SC7 SLP123

CYHM;2007-10-12 21:00;CYHM 122100Z 28008KT 15SM FEW032 BKN054 10/02 A2988 RMK CU1SC7 SLP124

CYHM;2007-10-12 22:00;CYHM 122200Z 28005KT 210V300 15SM BKN044 BKN064 10/02 A2988 RMK SC6SC2 SLP125

CYHM;2007-10-12 23:00;CYHM 122300Z 28008KT 15SM SCT042 BKN063 09/02 A2989 RMK SC3SC2 SLP126

CYHM;2007-10-13 00:00;CYHM 130000Z 28005KT 15SM BKN059 08/03 A2990 RMK SC6 SLP131

CYHM;2007-10-13 01:00;CYHM 130100Z 29005KT 15SM FEW056 06/02 A2992 RMK SC1 SLP137

CYHM;2007-10-13 02:00;CYHM 130200Z 28004KT 15SM FEW050 05/02 A2992 RMK SC1 SLP138

CYHM;2007-10-13 03:00;CYHM 130300Z 22003KT 15SM SKC 04/02 A2992 RMK SLP137

CYHM;2007-10-13 04:00;CYHM 130400Z 23003KT 15SM FEW090 FEW210 03/02 A2991 RMK AC1CI1 TR AC SLP136

CYHM;2007-10-13 05:00;CYHM 130500Z 23004KT 15SM FEW045 FEW200 02/02 A2991 RMK SC1CI1 TR CI SLP136

CYHM;2007-10-13 08:00;CYHM 130800Z 23006KT 15SM FEW050 FEW210 01/01 A2990 RMK SC2CI1 SLP132

CYHM;2007-10-13 09:00;CYHM 130900Z 24005KT 15SM BKN044 03/02 A2991 RMK SC7 SLP132

CYHM;2007-10-13 10:00;CYHM 131000Z 24007KT 15SM FEW033 BKN052 05/02 A2991 RMK CF2SC5 SLP132

CYHM;2007-10-13 11:00;CYHM 131100Z 24007KT 15SM FEW050 04/02 A2992 RMK SC1 SLP136

CYHM;2007-10-13 12:00;CYHM 131200Z 25008KT 15SM FEW050 04/02 A2993 RMK SC1 SLP141

CYHM;2007-10-13 13:00;CYHM 131300Z 24010KT 15SM FEW050 FEW220 06/03 A2993 RMK SC1CI1 SLP142

CYHM;2007-10-13 14:00;CYHM 131400Z 24011KT 15SM FEW060 FEW230 08/03 A2993 RMK SC1CI1 CI TR SLP140

CYHM;2007-10-13 15:00;CYHM 131500Z 26016KT 15SM FEW030 FEW060 FEW230 10/03 A2992 RMK CU1SC1CI1 SC TR SLP138

CYHM;2007-10-13 16:00;CYHM 131600Z 26018G24KT 15SM BKN035 11/03 A2991 RMK SC7 SLP135

CYHM;2007-10-13 17:00;CYHM 131700Z 25018KT 15SM BKN037 11/03 A2991 RMK SC7 SLP135

CYHM;2007-10-13 18:00;CYHM 131800Z 24017G22KT 15SM BKN041 10/03 A2991 RMK SC7 SLP135

CYHM;2007-10-13 19:00;CYHM 131900Z 25016G22KT 15SM BKN041 12/02 A2991 RMK SC5 SLP133

CYHM;2007-10-13 20:00;CYHM 132000Z 25015KT 15SM BKN041 BKN200 12/02 A2991 RMK SC5CI1 CI TR SLP135

CYHM;2007-10-13 21:00;CYHM 132100Z 25014KT 15SM SCT042 BKN055 BKN200 13/03 A2991 RMK SC4SC1CI1 CI TR SLP134

CYHM;2007-10-13 22:00;CYHM 132200Z 27010KT 240V300 15SM SCT042 BKN056 BKN200 12/02 A2993 RMK SC4SC2CI1 SLP141

CYHM;2007-10-13 23:00;CYHM 132300Z 28009KT 15SM FEW040 SCT054 SCT200 10/02 A2994 RMK SC2SC2CI1 CI TR SLP145

CYHM;2007-10-14 00:00;CYHM 140000Z 25008KT 15SM FEW040 SCT055 BKN094 10/03 A2996 RMK SC2SC2AC3 SLP150

CYHM;2007-10-14 01:00;CYHM 140100Z 25005KT 15SM FEW042 BKN058 BKN098 10/03 A2996 RMK SC2SC3AC2 SLP152

CYHM;2007-10-14 02:00;CYHM 140200Z 23006KT 15SM BKN052 BKN090 OVC110 09/04 A2997 RMK SC5AC1AC2 SLP153

CYHM;2007-10-14 03:00;CYHM 140300Z 29005KT 15SM FEW050 FEW110 07/03 A2998 RMK SC2AC1 SLP156

CYHM;2007-10-14 04:00;CYHM 140400Z 25005KT 15SM SCT100 07/02 A2998 RMK AC2 SLP158

CYHM;2007-10-14 05:00;CYHM 140500Z 25005KT 15SM FEW037 BKN100 06/03 A3000 RMK SC1AC3 SLP162

CYHM;2007-10-14 06:00;CYHM 140600Z 27004KT 15SM FEW045 FEW100 05/02 A3001 RMK SC1AC2 SLP167

CYHM;2007-10-14 07:00;CYHM 140700Z 27004KT 15SM BKN050 05/02 A3002 RMK SC5 SLP170

CYHM;2007-10-14 08:00;CYHM 140800Z 26005KT 15SM FEW047 05/02 A3002 RMK SC2 SLP171

CYHM;2007-10-14 09:00;CYHM 140900Z 25003KT 15SM SCT085 04/03 A3004 RMK AC2 SLP178

CYHM;2007-10-14 10:00;CYHM 141000Z 26003KT 15SM FEW022 FEW085 SCT200 04/03 A3005 RMK SC1AC1CI1 SLP182

CYHM;2007-10-14 11:00;CYHM 141100Z 26003KT 15SM FEW050 03/02 A3007 RMK SC1 SLP186

CYHM;2007-10-14 12:00;CYHM 141200Z 24004KT 15SM BKN049 05/04 A3008 RMK SC7 SLP192

CYHM;2007-10-14 13:00;CYHM 141300Z 25004KT 15SM BKN054 06/05 A3011 RMK SC6 SLP201

CYHM;2007-10-14 14:00;CYHM 141400Z 26005KT 15SM FEW033 BKN050 10/08 A3012 RMK SC1SC6 SLP205

CYHM;2007-10-14 15:00;CYHM 141500Z 29008KT 15SM FEW022 FEW048 FEW250 12/08 A3012 RMK CU2SC1CI1 CI TR SLP205

CYHM;2007-10-14 16:00;CYHM 141600Z 31004KT 15SM BKN028 BKN045 13/08 A3012 RMK SC6SC2 SLP203

CYHM;2007-10-14 17:00;CYHM 141700Z 28007KT 15SM FEW032 BKN041 13/07 A3012 RMK SC2SC5 SLP205

CYHM;2007-10-14 18:00;CYHM 141800Z 27008KT 15SM BKN038 13/06 A3011 RMK SC7 SLP201

CYHM;2007-10-14 19:00;CYHM 141900Z 30007KT 270V330 15SM FEW033 OVC040 13/07 A3013 RMK SC2SC6 SLP206

CYHM;2007-10-14 20:00;CYHM 142000Z 34007KT 15SM FEW033 BKN041 13/08 A3013 RMK CU2SC5 SLP208

CYHM;2007-10-14 21:00;CYHM 142100Z 31007KT 15SM SCT040 BKN250 13/08 A3014 RMK SC4CI2 SLP212

CYHM;2007-10-14 22:00;CYHM 142200Z 32006KT 15SM FEW040 BKN250 12/07 A3015 RMK SC2CI4 SLP215

CYHM;2007-10-14 23:00;CYHM 142300Z 31003KT 15SM FEW040 FEW070 BKN240 10/06 A3016 RMK SC2AC1CI5 SLP218

CYHM;2007-10-15 00:00;CYHM 150000Z 26003KT 15SM FEW040 BKN210 10/06 A3016 RMK SC2CI3 SLP220

CYHM;2007-10-15 01:00;CYHM 150100Z 27002KT 15SM FEW040 BKN160 BKN210 09/07 A3015 RMK SC2AC3CI2 SLP216

CYHM;2007-10-15 02:00;CYHM 150200Z 04002KT 15SM SCT140 BKN170 09/07 A3016 RMK AC4AC2 SLP219

CYHM;2007-10-15 03:00;CYHM 150300Z 26002KT 15SM FEW130 OVC180 08/07 A3017 RMK AC2AC6 SLP221

CYHM;2007-10-15 04:00;CYHM 150400Z 00000KT 15SM FEW130 FEW180 07/06 A3015 RMK AC1AC1 SLP215

CYHM;2007-10-15 06:00;CYHM 150600Z 30003KT 15SM FEW100 FEW140 06/05 A3018 RMK AC1AC1 SLP223

CYHM;2007-10-15 07:00;CYHM 150700Z 27004KT 15SM BKN080 06/05 A3019 RMK AC5 SLP228

CYHM;2007-10-15 08:00;CYHM 150800Z 28002KT 15SM FEW063 OVC080 07/07 A3019 RMK SC2AC6 SLP227

CYHM;2007-10-15 09:00;CYHM 150900Z 28002KT 15SM BKN065 OVC083 07/07 A3020 RMK SC6AC2 SLP230

CYHM;2007-10-15 10:00;CYHM 151000Z 00000KT 15SM OVC054 08/08 A3021 RMK SC8 SLP233

CYHM;2007-10-15 11:00;CYHM 151100Z 00000KT 15SM SCT055 BKN120 BKN180 08/07 A3020 RMK SC3AC2AC2 SLP231

CYHM;2007-10-15 12:00;CYHM 151200Z 00000KT 15SM BKN058 BKN082 BKN120 08/08 A3020 RMK SC5AC2AC1 SLP231

CYHM;2007-10-15 12:48;CYHM 151248Z 00000KT 15SM -SHRA BKN054 BKN120 RMK SC6AC1

CYHM;2007-10-15 13:00;CYHM 151300Z 00000KT 15SM -SHRA BKN044 BKN062 OVC078 09/08 A3022 RMK SC6SC2AC1 SLP237

CYHM;2007-10-15 14:00;CYHM 151400Z 00000KT 15SM OVC054 10/09 A3022 RMK SC8 SLP237

CYHM;2007-10-15 15:00;CYHM 151500Z 00000KT 15SM FEW020 BKN060 OVC082 11/09 A3022 RMK CU1SC6AC2 CU TR SLP237

CYHM;2007-10-15 16:00;CYHM 151600Z 00000KT 15SM FEW020 SCT032 BKN044 OVC080 12/08 A3022 RMK CU1SC3SC3AC2 CU TR SLP238

CYHM;2007-10-15 17:00;CYHM 151700Z 07003KT 15SM FEW025 BKN061 BKN084 13/06 A3021 RMK CU1SC6AC2 CU TR SLP235

CYHM;2007-10-15 18:00;CYHM 151800Z 05005KT 15SM FEW060 FEW079 BKN220 14/07 A3020 RMK SC1AC2CI2 SLP230

CYHM;2007-10-15 19:00;CYHM 151900Z 05002KT 15SM FEW032 BKN084 BKN250 14/06 A3019 RMK SC2AC4CS1 WND L/V SLP227

CYHM;2007-10-15 19:50;CYHM 151950Z 00000KT 12SM -SHRA FEW022 BKN032 BKN060 OVC084 RMK SC1SC5SC2AC1

CYHM;2007-10-15 20:00;CYHM 152000Z 05002KT 15SM -SHRA FEW022 BKN032 OVC120 14/08 A3018 RMK SC1SC5AC2 SLP226

CYHM;2007-10-15 21:00;CYHM 152100Z 05005KT 12SM -SHRA FEW060 OVC110 13/09 A3017 RMK SC2AC6 SLP222

CYHM;2007-10-15 22:00;CYHM 152200Z 06004KT 12SM -SHRA FEW054 OVC110 12/10 A3017 RMK SC2AC6 SLP221

CYHM;2007-10-15 23:00;CYHM 152300Z 05006KT 15SM FEW054 SCT110 BKN250 11/10 A3017 RMK SC1AC2CS3 SLP219

CYHM;2007-10-16 00:00;CYHM 160000Z 06004KT 15SM FEW074 FEW100 BKN240 10/09 A3017 RMK AC1AC1CS2 SLP220

CYHM;2007-10-16 01:00;CYHM 160100Z 08002KT 15SM SCT072 BKN093 BKN130 10/08 A3017 RMK AC4AC2AC2 SLP221

CYHM;2007-10-16 02:00;CYHM 160200Z 07004KT 15SM SCT078 BKN096 10/08 A3018 RMK AC3AC3 SLP226

CYHM;2007-10-16 03:00;CYHM 160300Z 06006KT 15SM FEW080 BKN100 11/09 A3017 RMK AC2AC4 SLP222

CYHM;2007-10-16 04:00;CYHM 160400Z 05007KT 15SM BKN100 10/08 A3017 RMK AC5 SLP221

CYHM;2007-10-16 05:00;CYHM 160500Z 05007KT 15SM FEW062 BKN096 BKN230 11/09 A3017 RMK SC2AC5CS1 SLP220

CYHM;2007-10-16 06:00;CYHM 160600Z 06007KT 15SM SCT080 BKN220 11/09 A3017 RMK AC3CS1 SLP221

CYHM;2007-10-16 07:00;CYHM 160700Z 05007KT 15SM FEW072 OVC210 11/10 A3017 RMK AC2CS6 SLP220

CYHM;2007-10-16 08:00;CYHM 160800Z 06007KT 15SM SCT015 BKN210 11/10 A3018 RMK SC3CS1 SLP223

CYHM;2007-10-16 09:00;CYHM 160900Z 06008KT 15SM BKN015 BKN095 12/11 A3019 RMK SC6AC2 SLP225

CYHM;2007-10-16 10:00;CYHM 161000Z 08009KT 15SM FEW015 BKN180 11/10 A3018 RMK SC2AC5 SLP223

CYHM;2007-10-16 11:00;CYHM 161100Z 08014KT 15SM FEW030 BKN190 11/09 A3017 RMK SC2AC5 SLP221

CYHM;2007-10-16 12:00;CYHM 161200Z 07014KT 15SM FEW035 BKN190 11/09 A3017 RMK SC2AC6 SLP222

CYHM;2007-10-16 13:00;CYHM 161300Z 06012KT 15SM FEW035 BKN180 BKN220 11/10 A3018 RMK SC1AC4CI2 SLP225

CYHM;2007-10-16 14:00;CYHM 161400Z 06014KT 15SM FEW025 BKN180 BKN230 12/10 A3019 RMK CU1AC5CI1 SLP226

CYHM;2007-10-16 15:00;CYHM 161500Z 06012KT 15SM FEW025 BKN096 BKN180 12/10 A3018 RMK SC1AC5AC2 SLP224

CYHM;2007-10-16 16:00;CYHM 161600Z 05017KT 15SM FEW035 BKN120 BKN210 13/10 A3015 RMK SC1AC5CI2 SLP215

CYHM;2007-10-16 17:00;CYHM 161700Z 06016KT 15SM FEW035 BKN089 OVC210 13/10 A3014 RMK SC2AC5CI2 SLP211

CYHM;2007-10-16 18:00;CYHM 161800Z 09016KT 15SM FEW014 BKN079 BKN100 BKN210 13/11 A3013 RMK SC2AC3AC2CI1 SLP205

CYHM;2007-10-16 19:00;CYHM 161900Z 05014G19KT 15SM SCT014 BKN180 BKN250 13/10 A3012 RMK SC4AC2CS1 SLP203

CYHM;2007-10-16 20:00;CYHM 162000Z 05015G21KT 15SM SCT012 BKN180 BKN210 12/10 A3008 RMK SC4AC2CS1 SLP189

CYHM;2007-10-16 21:00;CYHM 162100Z 05015G21KT 15SM SCT010 BKN120 BKN220 12/10 A3009 RMK SC4AC2CS2 SUN DMLY VSBL SLP191

CYHM;2007-10-16 22:00;CYHM 162200Z 05014KT 15SM SCT010 BKN098 OVC200 12/11 A3009 RMK SC4AC2CS1 SLP192

CYHM;2007-10-16 23:00;CYHM 162300Z 05014KT 15SM -SHRA FEW010 BKN074 OVC098 12/11 A3009 RMK SC2AC3AC3 SLP191

CYHM;2007-10-17 00:00;CYHM 170000Z 05013KT 15SM -SHRA FEW082 OVC095 12/11 A3008 RMK AC2AC6 SLP189

CYHM;2007-10-17 01:00;CYHM 170100Z 06013KT 15SM OVC088 12/10 A3006 RMK AC8 SLP184

CYHM;2007-10-17 02:00;CYHM 170200Z 05013KT 15SM OVC096 12/10 A3006 RMK AC8 SLP183

CYHM;2007-10-17 03:00;CYHM 170300Z 05012KT 15SM -SHRA FEW060 BKN076 OVC098 12/10 A3006 RMK SC2AC4AC2 SLP183

CYHM;2007-10-17 04:00;CYHM 170400Z 05010KT 15SM BKN050 OVC094 11/10 A3006 RMK SC6AC2 SLP182

CYHM;2007-10-17 05:00;CYHM 170500Z 05010KT 15SM SCT054 SCT120 BKN250 11/10 A3006 RMK SC3AC1CI0 SLP181

CYHM;2007-10-17 06:00;CYHM 170600Z 04008KT 15SM BKN060 12/11 A3006 RMK SC7 SLP181

CYHM;2007-10-17 07:00;CYHM 170700Z 05007KT 15SM BKN033 BKN060 12/11 A3005 RMK SC6SC2 SLP179

CYHM;2007-10-17 08:00;CYHM 170800Z 04006KT 15SM BKN028 OVC042 12/11 A3005 RMK SC6SC2 SLP178

CYHM;2007-10-17 09:00;CYHM 170900Z 03006KT 15SM FEW020 FEW042 SCT250 11/11 A3004 RMK SC1SC1CI0 SLP177

CYHM;2007-10-17 09:38;CYHM 170938Z 04004KT 15SM BKN013 RMK SC7

CYHM;2007-10-17 10:00;CYHM 171000Z 04004KT 15SM SCT011 BKN250 11/11 A3004 RMK SC4CI0 SLP175

CYHM;2007-10-17 11:00;CYHM 171100Z 03005KT 15SM BKN010 BKN240 12/12 A3004 RMK SC6CI1 SLP177

CYHM;2007-10-17 12:00;CYHM 171200Z 05004KT 4SM BR BKN010 BKN032 OVC056 12/12 A3005 RMK SC5SC2SC1 SLP180

CYHM;2007-10-17 13:00;CYHM 171300Z 08004KT 5SM BR FEW030 13/13 A3006 RMK SC1 SC TR SLP181

CYHM;2007-10-17 13:11;CYHM 171311Z 00000KT 6SM BR SCT007 BKN012 RMK SF3SC2

CYHM;2007-10-17 13:33;CYHM 171333Z 00000KT 6SM BR BKN007 BKN030 RMK SF6SC2

CYHM;2007-10-17 13:52;CYHM 171352Z 00000KT 6SM BR FEW007 BKN013 BKN025 RMK SF2SC3SC2

CYHM;2007-10-17 14:00;CYHM 171400Z 00000KT 5SM BR FEW006 SCT013 BKN026 15/14 A3006 RMK SF2SC2SC2 SLP181

CYHM;2007-10-17 14:22;CYHM 171422Z 00000KT 5SM BR BKN006 OVC030 RMK SF6SC2

CYHM;2007-10-17 14:41;CYHM 171441Z 00000KT 6SM BR FEW007 SCT030 RMK SF1SC2

CYHM;2007-10-17 14:52;CYHM 171452Z 00000KT 3SM BR SCT007 BKN013 OVC030 RMK SF3SC4SC1

CYHM;2007-10-17 15:00;CYHM 171500Z 12002KT 6SM BR SCT008 BKN013 BKN030 16/15 A3005 RMK SF3SC2SC2 SLP178

CYHM;2007-10-17 15:42;CYHM 171542Z 22003KT 4SM BR BKN008 BKN018 OVC025 RMK SF6SC2SC1

CYHM;2007-10-17 16:00;CYHM 171600Z 24003KT 4SM BR BKN008 OVC018 16/15 A3005 RMK SF6SC2 SLP178

CYHM;2007-10-17 17:00;CYHM 171700Z 00000KT 7SM FEW011 OVC027 18/16 A3004 RMK SF2SC6 SLP173

CYHM;2007-10-17 18:00;CYHM 171800Z 16006KT 5SM HZ FEW014 BKN020 BKN052 19/16 A3001 RMK SF2SC4SC2 SLP164

CYHM;2007-10-17 19:00;CYHM 171900Z 17010KT 5SM HZ SCT012 BKN020 BKN060 19/17 A3000 RMK SC3SC3SC1 SLP161

CYHM;2007-10-17 20:00;CYHM 172000Z 21005KT 5SM HZ SCT015 BKN060 BKN250 20/16 A3000 RMK SC4SC1CI0 CF ASOCTD TCU EMBDD SLP159

CYHM;2007-10-17 21:00;CYHM 172100Z 19006KT 5SM HZ BKN022 BKN250 19/16 A3000 RMK SC5CS1 CF ASOCTD TCU EMBDD SUN DMLY VSBL SLP159

CYHM;2007-10-17 22:00;CYHM 172200Z 20004KT 6SM HZ FEW024 FEW190 BKN250 18/15 A2998 RMK SC1AC1CS2 SUN DMLY VSBL CONTRAILS SLP155

CYHM;2007-10-17 23:00;CYHM 172300Z 19004KT 7SM FEW070 BKN250 16/14 A2998 RMK AC1CS2 SLP153

CYHM;2007-10-18 00:00;CYHM 180000Z 21004KT 8SM BKN230 15/14 A2998 RMK CC6 SLP155

CYHM;2007-10-18 00:50;CYHM 180050Z 20004KT 2SM BR SCT230 RMK FG1CI1

CYHM;2007-10-18 01:00;CYHM 180100Z 20004KT 2SM BR SCT230 14/14 A3000 RMK FG1CI1 SLP160

CYHM;2007-10-18 01:22;CYHM 180122Z 20003KT 3/4SM BR SKC RMK FG3

CYHM;2007-10-18 01:45;CYHM 180145Z 19004KT 1 3/4SM BR SCT250 RMK FG1CI1

CYHM;2007-10-18 02:00;CYHM 180200Z 20003KT 3/8SM FG SKC 13/13 A2999 RMK FG4 SLP159

CYHM;2007-10-18 02:18;CYHM 180218Z 19005KT 0SM FG VV001 RMK FG8

CYHM;2007-10-18 03:00;CYHM 180300Z 20004KT 0SM FG VV001 14/14 A2998 RMK FG8 SLP155

CYHM;2007-10-18 04:00;CYHM 180400Z 00000KT 0SM FG VV000 13/13 A2997 RMK FG8 SLP150

CYHM;2007-10-18 05:00;CYHM 180500Z 05002KT 1/4SM FG SKC 11/11 A2994 RMK FG5 SLP142

CYHM;2007-10-18 06:00;CYHM 180600Z 05005KT 1/8SM FG SKC 11/11 A2994 RMK FG6 SLP139

CYHM;2007-10-18 06:40;CYHM 180640Z 07004KT 0SM FG VV001 RMK FG8

CYHM;2007-10-18 07:00;CYHM 180700Z 07005KT 0SM FG VV001 11/11 A2994 RMK FG8 SLP141

CYHM;2007-10-18 08:00;CYHM 180800Z 05006KT 0SM -DZ FG VV001 13/13 A2992 RMK FG8 SLP133

CYHM;2007-10-18 09:00;CYHM 180900Z 05007KT 0SM -DZ FG VV001 13/13 A2990 RMK FG8 SLP124

CYHM;2007-10-18 10:00;CYHM 181000Z 05008KT 0SM -RA FG VV001 13/13 A2988 RMK FG8 SLP118

CYHM;2007-10-18 11:00;CYHM 181100Z 06007KT 0SM -RA FG VV001 13/13 A2988 RMK FG8 SLP118

CYHM;2007-10-18 11:39;CYHM 181139Z 06008KT 1/8SM FG VV001 RMK FG8

CYHM;2007-10-18 12:00;CYHM 181200Z 10008KT 0SM FG VV001 13/13 A2986 RMK FG8 SLP112

CYHM;2007-10-18 12:47;CYHM 181247Z 07008KT 1/4SM FG VV001 RMK FG8

CYHM;2007-10-18 13:00;CYHM 181300Z 06008KT 1/4SM FG VV001 14/14 A2984 RMK FG8 SLP106

CYHM;2007-10-18 13:09;CYHM 181309Z 06008KT 0SM FG VV001 RMK FG8

CYHM;2007-10-18 14:00;CYHM 181400Z 08008KT 1/8SM FG VV001 14/14 A2982 RMK FG8 SLP101

CYHM;2007-10-18 14:52;CYHM 181452Z 07007KT 1/2SM FG OVC002 RMK FG6SF2

CYHM;2007-10-18 15:00;CYHM 181500Z 07008KT 1/2SM FG OVC002 15/14 A2981 RMK FG6SF2 SLP094

CYHM;2007-10-18 15:49;CYHM 181549Z 07008KT 1SM BR BKN002 BKN010 OVC120 RMK FG2SF2SC2AC1

CYHM;2007-10-18 16:00;CYHM 181600Z 06006KT 1 1/2SM BR BKN004 BKN120 OVC210 16/16 A2976 RMK FG2SF3AC2CI1 SLP080

CYHM;2007-10-18 16:23;CYHM 181623Z 06006KT 1 3/4SM BR SCT005 BKN180 BKN220 RMK FG1SF2AC3CI1

CYHM;2007-10-18 17:00;CYHM 181700Z 00000KT 3SM BR BKN061 BKN082 OVC180 17/17 A2976 RMK SC6AC2AC1 SLP078

CYHM;2007-10-18 18:00;CYHM 181800Z CCA 17007KT 5SM BR SCT035 BKN120 OVC180 20/18 A2974 RMK SC3AC3AC1 SLP070

CYHM;2007-10-18 19:00;CYHM 181900Z 18009KT 9SM BKN029 BKN042 OVC120 21/16 A2971 RMK SC6SC2AC1 SLP060

CYHM;2007-10-18 20:00;CYHM 182000Z 17006KT 6SM -SHRA BR BKN029 OVC037 19/17 A2969 RMK SC6SC2 SLP055

CYHM;2007-10-18 21:00;CYHM 182100Z 15006KT 7SM -SHRA BKN028 OVC036 19/18 A2968 RMK SC5SC3 PCPN VRY LGT SLP051

CYHM;2007-10-18 21:49;CYHM 182149Z 16006KT 7SM FEW028 OVC036 RMK SC2SC6

CYHM;2007-10-18 22:00;CYHM 182200Z 15006KT 8SM FEW030 OVC038 19/18 A2968 RMK SC2SC6 SLP050

CYHM;2007-10-18 23:00;CYHM 182300Z 15007KT 12SM BKN039 OVC068 19/17 A2967 RMK SC7AC1 SLP048

CYHM;2007-10-19 00:00;CYHM 190000Z 15007KT 15SM BKN046 19/17 A2966 RMK SC7 SLP045

CYHM;2007-10-19 01:00;CYHM 190100Z 16008KT 15SM FEW046 19/17 A2965 RMK SC1 SLP042

CYHM;2007-10-19 02:00;CYHM 190200Z 16009KT 15SM SKC 19/17 A2963 RMK SLP035

CYHM;2007-10-19 03:00;CYHM 190300Z 16008KT 15SM FEW250 19/17 A2962 RMK CI2 SLP030

CYHM;2007-10-19 04:00;CYHM 190400Z 15008KT 15SM BKN140 18/17 A2959 RMK AC6 SLP021

CYHM;2007-10-19 05:00;CYHM 190500Z 18005KT 15SM BKN240 18/17 A2958 RMK CI5 SLP017

CYHM;2007-10-19 06:00;CYHM 190600Z 16007KT 15SM FEW078 SCT230 18/16 A2957 RMK AC1CI2 SLP011

CYHM;2007-10-19 07:00;CYHM 190700Z 16008KT 15SM FEW044 SCT072 BKN250 18/16 A2955 RMK SC1AC2CI2 SLP007

CYHM;2007-10-19 08:00;CYHM 190800Z 17012KT 15SM SCT045 BKN070 20/17 A2953 RMK SC4AC1 SLP998

CYHM;2007-10-19 09:00;CYHM 190900Z 18011KT 15SM BKN048 OVC075 20/17 A2952 RMK SC6AC2 SLP995

CYHM;2007-10-19 09:34;CYHM 190934Z 18009KT 12SM -SHRA FEW042 BKN090 RMK SC2AC5 OCNL LTNG ESE

CYHM;2007-10-19 10:00;CYHM 191000Z 18009KT 15SM FEW037 FEW090 BKN210 20/17 A2948 RMK SC2AC1CI2 OCNL LTGICCC E SLP980

CYHM;2007-10-19 11:00;CYHM 191100Z CCA 19013KT 15SM SCT037 BKN120 BKN240 20/17 A2949 RMK SC3AC2CI1 OCNL LTGICCC E SLP984

CYHM;2007-10-19 11:54;CYHM 191154Z 18016G22KT 15SM -SHRA SCT035 BKN140 OVC180 RMK SC4AC2AC2

CYHM;2007-10-19 12:00;CYHM 191200Z 18016G22KT 15SM -SHRA SCT035 BKN130 OVC160 21/17 A2946 RMK SC4AC3AC1 SLP974

CYHM;2007-10-19 13:00;CYHM 191300Z 18018KT 10SM -SHRA SCT042 BKN082 OVC120 20/18 A2945 RMK SC4AC2AC2 SLP969

CYHM;2007-10-19 15:00;CYHM 191500Z 19012KT 15SM FEW020 SCT042 BKN120 BKN210 21/18 A2944 RMK CU1SC3AC3CI1 SLP967

CYHM;2007-10-19 16:00;CYHM 191600Z 21018G25KT 15SM FEW025 BKN032 OVC120 21/16 A2945 RMK CU1SC6AC1 SLP969

CYHM;2007-10-19 17:00;CYHM 191700Z 19012KT 15SM BKN035 OVC045 20/16 A2943 RMK SC6SC2 CU ASOCTD SLP965

CYHM;2007-10-19 18:00;CYHM 191800Z 22020G26KT 15SM SCT025 BKN045 BKN110 20/17 A2941 RMK CU3SC2AC2 SLP958

CYHM;2007-10-19 18:46;CYHM 191846Z 26014KT 15SM -SHRA SCT027 BKN042 BKN084 RMK CU3SC3AC1

CYHM;2007-10-19 19:00;CYHM 191900Z 22015G22KT 15SM -SHRA FEW027 BKN045 BKN052 17/15 A2942 RMK CU2SC2SC2 SLP959

CYHM;2007-10-19 19:35;CYHM 191935Z 21016KT 15SM FEW035 SCT050 BKN160 RMK CU2SC2AC3

CYHM;2007-10-19 20:00;CYHM 192000Z 23018KT 15SM FEW035 SCT050 BKN160 21/13 A2940 RMK CU2SC2AC3 SLP953

CYHM;2007-10-19 21:00;CYHM 192100Z CCA 24020G28KT 15SM FEW055 SCT160 SCT250 20/10 A2941 RMK SC2AC2CI1 CI TR CU ASOCTD SLP957

CYHM;2007-10-19 22:00;CYHM 192200Z CCA 24022G29KT 15SM FEW060 SCT160 19/10 A2942 RMK SC2AC2 CU ASOCTD SLP961

CYHM;2007-10-19 23:00;CYHM 192300Z 24018G24KT 15SM FEW055 FEW120 17/09 A2944 RMK SC1AC2 SLP967

CYHM;2007-10-20 00:00;CYHM 200000Z 24020G27KT 15SM FEW050 FEW120 16/09 A2946 RMK SC1AC2 SLP974

CYHM;2007-10-20 01:00;CYHM 200100Z 23020KT 15SM SCT060 16/10 A2947 RMK SC3 SLP978

CYHM;2007-10-20 02:00;CYHM 200200Z 23019G24KT 15SM BKN060 16/10 A2948 RMK SC6 SLP980

CYHM;2007-10-20 03:00;CYHM 200300Z 24018G24KT 15SM OVC061 16/09 A2948 RMK SC8 PK GST 33 PST HR SLP980

CYHM;2007-10-20 04:00;CYHM 200400Z 24018G24KT 15SM BKN061 15/10 A2948 RMK SC7 SLP981

CYHM;2007-10-20 05:00;CYHM 200500Z CCA 24018G24KT 15SM OVC063 15/10 A2949 RMK SC8 SLP986

CYHM;2007-10-20 06:00;CYHM 200600Z 23015G20KT 15SM BKN057 14/09 A2952 RMK SC6 SLP994

CYHM;2007-10-20 07:00;CYHM 200700Z 23017G22KT 15SM FEW050 BKN070 14/09 A2952 RMK SC2AC2 SLP997

CYHM;2007-10-20 08:00;CYHM 200800Z 25017G22KT 10SM -SHRA FEW025 OVC050 13/10 A2954 RMK CF2SC6 SLP003

CYHM;2007-10-20 09:00;CYHM 200900Z 23015KT 15SM -SHRA FEW018 OVC059 13/10 A2955 RMK CF2SC6 SLP008

CYHM;2007-10-20 09:30;CYHM 200930Z 22014KT 15SM OVC059 RMK SC8

CYHM;2007-10-20 10:00;CYHM 201000Z 23015KT 15SM FEW030 OVC058 13/09 A2957 RMK CF1SC7 SLP012

CYHM;2007-10-20 11:00;CYHM 201100Z 23013G19KT 15SM OVC058 13/09 A2958 RMK SC8 SLP017

CYHM;2007-10-20 12:00;CYHM 201200Z 24014KT 15SM FEW048 OVC061 13/08 A2960 RMK SC2SC6 SLP023

CYHM;2007-10-20 13:00;CYHM 201300Z 24017KT 200V290 15SM FEW052 BKN067 BKN080 14/09 A2962 RMK SC1AC5AC2 SLP030

CYHM;2007-10-20 14:00;CYHM 201400Z 24014G21KT 15SM -SHRA FEW023 BKN052 BKN070 13/10 A2963 RMK CU2SC4AC2 PCPN VRY LGT SLP033

CYHM;2007-10-20 14:43;CYHM 201443Z 24020G29KT 15SM SCT027 BKN052 BKN073 RMK CU3SC2AC1

CYHM;2007-10-20 15:00;CYHM 201500Z 24018G25KT 15SM BKN025 BKN073 15/10 A2964 RMK CU6AC1 SLP036

CYHM;2007-10-20 16:00;CYHM 201600Z 24025G30KT 15SM BKN032 15/08 A2964 RMK CU6 SLP038

CYHM;2007-10-20 17:00;CYHM 201700Z 24018G28KT 15SM BKN038 BKN062 17/08 A2965 RMK CU5SC1 SLP042

CYHM;2007-10-20 18:00;CYHM 201800Z 24020G26KT 15SM BKN044 BKN062 17/07 A2967 RMK CU5SC2 SLP046

CYHM;2007-10-20 19:00;CYHM 201900Z 25018G25KT 15SM SCT045 BKN058 17/07 A2969 RMK CU4SC2 SLP055

CYHM;2007-10-20 20:00;CYHM 202000Z 25017G22KT 15SM SCT049 BKN064 18/06 A2971 RMK CU4SC1 SLP060

CYHM;2007-10-20 21:00;CYHM 202100Z 25016G23KT 15SM SCT050 SCT064 18/06 A2973 RMK CU3SC1 SLP068

CYHM;2007-10-20 22:00;CYHM 202200Z 25015G20KT 15SM FEW055 17/05 A2978 RMK SC2 SLP083

CYHM;2007-10-20 23:00;CYHM 202300Z 23011KT 15SM SKC 15/05 A2980 RMK SLP092

CYHM;2007-10-21 00:00;CYHM 210000Z 20008KT 15SM SKC 12/05 A2983 RMK SLP103

CYHM;2007-10-21 01:00;CYHM 210100Z 21009KT 15SM SKC 12/07 A2985 RMK SLP109

CYHM;2007-10-21 02:00;CYHM 210200Z 21009KT 15SM SKC 11/07 A2988 RMK SLP118

CYHM;2007-10-21 03:00;CYHM 210300Z 23008KT 15SM FEW200 11/08 A2989 RMK CI1 SLP124

CYHM;2007-10-21 04:00;CYHM 210400Z 22007KT 15SM FEW200 09/08 A2990 RMK CI1 SLP128

CYHM;2007-10-21 05:00;CYHM 210500Z 23005KT 15SM FEW150 FEW210 10/07 A2992 RMK AC1CI1 SLP133

CYHM;2007-10-21 06:00;CYHM 210600Z 21007KT 15SM FEW210 09/07 A2992 RMK CI1 SLP135

CYHM;2007-10-21 07:00;CYHM 210700Z 20005KT 15SM SKC 09/08 A2993 RMK SLP138

CYHM;2007-10-21 08:00;CYHM 210800Z 22009KT 15SM FEW210 12/11 A2995 RMK CI1 SLP143

CYHM;2007-10-21 09:00;CYHM 210900Z 20009KT 15SM FEW170 13/11 A2996 RMK AC2 SLP145

CYHM;2007-10-21 10:00;CYHM 211000Z 20008KT 15SM FEW200 13/11 A2997 RMK CI1 SLP150

CYHM;2007-10-21 11:00;CYHM 211100Z 18010KT 15SM FEW190 13/11 A2998 RMK AC1 SLP152

CYHM;2007-10-21 13:00;CYHM 211300Z 20010KT 15SM FEW180 15/11 A3001 RMK AC1 SLP165

CYHM;2007-10-21 14:00;CYHM 211400Z 20012KT 15SM FEW180 17/11 A3001 RMK AC1 SLP166

CYHM;2007-10-21 15:00;CYHM 211500Z 21016KT 15SM SKC 19/11 A3002 RMK SLP167

CYHM;2007-10-21 16:00;CYHM 211600Z 21016KT 15SM FEW250 21/10 A3002 RMK CI1 SLP166

CYHM;2007-10-21 17:00;CYHM 211700Z 22017KT 15SM FEW250 22/09 A3002 RMK CI1 SLP166

CYHM;2007-10-21 18:00;CYHM 211800Z 23020KT 15SM FEW250 23/09 A3001 RMK CI1 SLP164

CYHM;2007-10-21 19:00;CYHM 211900Z 22021G28KT 15SM FEW250 23/07 A3000 RMK CI1 SLP161

CYHM;2007-10-21 20:00;CYHM 212000Z 21017KT 180V240 15SM FEW250 24/07 A2999 RMK CI1 SLP156

CYHM;2007-10-21 21:00;CYHM 212100Z 20016KT 15SM FEW250 23/08 A2997 RMK CI2 SLP150

CYHM;2007-10-21 22:00;CYHM 212200Z 21012KT 15SM BKN250 21/09 A2997 RMK CI2 SLP150

CYHM;2007-10-21 23:00;CYHM 212300Z 20011KT 15SM SCT250 20/07 A2998 RMK CI2 SLP151

CYHM;2007-10-22 00:00;CYHM 220000Z 20011KT 15SM FEW250 19/07 A2998 RMK CI0 SLP154

CYHM;2007-10-22 01:00;CYHM 220100Z 21014KT 15SM FEW250 19/08 A3000 RMK CI2 SLP159

CYHM;2007-10-22 02:00;CYHM 220200Z 21012KT 15SM BKN250 19/08 A3001 RMK CI2 SLP162

CYHM;2007-10-22 03:00;CYHM 220300Z 20013KT 15SM SCT250 18/09 A3001 RMK CI2 SLP163

CYHM;2007-10-22 04:00;CYHM 220400Z 21010KT 15SM SCT250 17/09 A3003 RMK CI3 SLP168

CYHM;2007-10-22 05:00;CYHM 220500Z 21008KT 15SM FEW250 15/08 A3004 RMK CI1 SLP171

CYHM;2007-10-22 06:00;CYHM 220600Z 21007KT 15SM SKC 13/08 A3006 RMK SLP178

CYHM;2007-10-22 07:00;CYHM 220700Z 21007KT 15SM SKC 13/08 A3006 RMK SLP180

CYHM;2007-10-22 08:00;CYHM 220800Z 21005KT 15SM FEW200 13/08 A3006 RMK CI1 SLP179

CYHM;2007-10-22 09:00;CYHM 220900Z 19006KT 15SM FEW200 13/09 A3007 RMK CI1 SLP181

CYHM;2007-10-22 10:00;CYHM 221000Z 19007KT 15SM FEW200 13/10 A3007 RMK CI1 SLP183

CYHM;2007-10-22 11:00;CYHM 221100Z 20007KT 15SM SKC 14/11 A3007 RMK SLP182

CYHM;2007-10-22 12:00;CYHM 221200Z 20010KT 15SM SKC 14/11 A3007 RMK SLP184

CYHM;2007-10-22 13:00;CYHM 221300Z 29009KT 15SM FEW240 16/11 A3008 RMK CI0 SLP188

CYHM;2007-10-22 14:00;CYHM 221400Z 20009KT 15SM FEW220 18/11 A3008 RMK CI1 SLP188

CYHM;2007-10-22 15:00;CYHM 221500Z 22009KT 15SM FEW160 FEW220 20/11 A3007 RMK AC1CI1 SLP183

CYHM;2007-10-22 16:00;CYHM 221600Z 22008KT 15SM FEW160 FEW220 21/12 A3006 RMK AC1CI1 SLP177

CYHM;2007-10-22 17:00;CYHM 221700Z 19004KT 15SM FEW160 FEW220 22/12 A3004 RMK AC1CI0 CI TR SLP173

CYHM;2007-10-22 18:00;CYHM 221800Z 20014KT 15SM FEW160 FEW230 22/12 A3002 RMK AC1CI1 SLP166

CYHM;2007-10-22 19:00;CYHM 221900Z 20010KT 15SM FEW190 BKN230 23/12 A3000 RMK AC1CI2 AC TR CONTRAILS SLP159

CYHM;2007-10-22 20:00;CYHM 222000Z 20012KT 15SM FEW190 BKN250 22/11 A2998 RMK AC1CS4 HALO CONTRAILS SLP152

CYHM;2007-10-22 21:00;CYHM 222100Z 19010KT 15SM FEW150 BKN250 22/10 A2996 RMK AC1CS2 SLP144

CYHM;2007-10-22 22:00;CYHM 222200Z 20005KT 15SM FEW160 BKN240 19/11 A2994 RMK AC2CS6 SLP140

CYHM;2007-10-22 23:00;CYHM 222300Z 20005KT 15SM BKN140 OVC250 19/10 A2994 RMK AC7CS1 SLP139

CYHM;2007-10-23 00:00;CYHM 230000Z 20007KT 15SM OVC130 19/10 A2994 RMK AC8 SLP139

CYHM;2007-10-23 01:00;CYHM 230100Z 20007KT 15SM OVC098 19/11 A2992 RMK AC8 SLP133

CYHM;2007-10-23 02:00;CYHM 230200Z 21009KT 15SM FEW082 BKN160 19/11 A2990 RMK AC1AC5 SLP127

CYHM;2007-10-23 03:00;CYHM 230300Z 20006KT 15SM FEW065 OVC120 18/12 A2988 RMK SC1AC6 SLP118

CYHM;2007-10-23 04:00;CYHM 230400Z 20008KT 15SM -SHRA FEW060 OVC100 18/12 A2986 RMK SC1AC6 SLP110

CYHM;2007-10-23 05:00;CYHM 230500Z 23010KT 15SM -SHRA BKN054 OVC078 18/12 A2984 RMK SC6AC2 SLP106

CYHM;2007-10-23 07:00;CYHM 230700Z 22007KT 15SM BKN046 OVC056 17/13 A2979 RMK SC6SC2 SLP088

CYHM;2007-10-23 08:00;CYHM 230800Z 21004KT 6SM -SHRA BR SCT014 OVC022 15/15 A2975 RMK SC4SC4 SLP075

CYHM;2007-10-23 09:00;CYHM 230900Z 16003KT 2 1/2SM -RA BR OVC008 15/15 A2973 RMK SC8 SLP067

CYHM;2007-10-23 09:45;CYHM 230945Z 18003KT 1 1/4SM -RA BR BKN002 OVC012 RMK SF5SC3

CYHM;2007-10-23 10:00;CYHM 231000Z CCA 18003KT 1 1/4SM -RA BR BKN002 OVC012 14/14 A2972 RMK SF5SC3 SLP063

CYHM;2007-10-23 10:15;CYHM 231015Z 16003KT 1 1/2SM -RA BR BKN002 BKN011 OVC017 RMK FG1SF4SC2SC1

CYHM;2007-10-23 11:00;CYHM 231100Z 33002KT 1 1/2SM -RA BR BKN003 OVC012 14/14 A2971 RMK FG2SF5SC2 SLP059

CYHM;2007-10-23 12:00;CYHM 231200Z 33005KT 3SM -RA BR SCT003 BKN027 OVC056 14/14 A2971 RMK SF3SC3SC2 SLP061

CYHM;2007-10-23 13:00;CYHM 231300Z 34012KT 5SM -RA BR BKN008 OVC025 12/12 A2973 RMK SF5SC3 SLP067

CYHM;2007-10-23 13:42;CYHM 231342Z 34012KT 5SM -RA BR FEW007 BKN018 OVC024 RMK SF2SC4SC2

CYHM;2007-10-23 14:00;CYHM 231400Z 32016KT 6SM -RA BR FEW008 OVC020 11/10 A2975 RMK SF2SC6 SLP073

CYHM;2007-10-23 14:39;CYHM 231439Z 32010KT 6SM -RA BR BKN011 OVC024 RMK SC6SC2

CYHM;2007-10-23 15:00;CYHM 231500Z 35010KT 6SM -RA BR SCT013 OVC025 10/10 A2975 RMK SC4SC4 SLP077

CYHM;2007-10-23 16:00;CYHM 231600Z 36010KT 4SM -RA BR SCT014 OVC040 10/09 A2975 RMK SC3SC5 SLP077

CYHM;2007-10-23 17:00;CYHM 231700Z 02010KT 6SM -RA BR SCT018 OVC046 10/09 A2976 RMK SC3SC5 SLP080

CYHM;2007-10-23 18:00;CYHM 231800Z 02007KT 15SM -RA FEW016 OVC048 10/09 A2976 RMK SC2SC6 SLP079

CYHM;2007-10-23 19:00;CYHM 231900Z 01004KT 15SM -RA FEW012 OVC053 10/08 A2975 RMK SC1SC7 1ST LYR TR SF ASOCTD SLP075

CYHM;2007-10-23 20:00;CYHM 232000Z 30004KT 15SM FEW015 OVC056 10/09 A2981 RMK SC1SC7 1ST LYR TR SF ASOCTD SLP096

CYHM;2007-10-23 20:45;CYHM 232045Z 26003KT 15SM -SHRA SCT016 BKN056 OVC080 RMK SC3SC4AC1

CYHM;2007-10-23 21:00;CYHM 232100Z 21004KT 15SM -SHRA FEW016 BKN056 OVC070 10/09 A2983 RMK SC2SC4AC2 SLP105

CYHM;2007-10-23 21:42;CYHM 232142Z 21004KT 15SM FEW016 FEW058 OVC210 RMK SC1SC1CS6

CYHM;2007-10-23 22:00;CYHM 232200Z 22003KT 15SM FEW016 FEW058 OVC210 09/08 A2981 RMK SC1SC1CS6 SLP097

CYHM;2007-10-23 23:00;CYHM 232300Z 26003KT 15SM FEW022 OVC210 09/08 A2984 RMK SC1CS7 SC TR SLP109

CYHM;2007-10-24 00:00;CYHM 240000Z 24003KT 15SM BKN230 08/08 A2984 RMK CS6 SLP106

CYHM;2007-10-24 01:00;CYHM 240100Z 23002KT 15SM BKN230 08/08 A2984 RMK CS6 SLP108

CYHM;2007-10-24 02:00;CYHM 240200Z 22003KT 15SM FEW026 OVC240 08/08 A2986 RMK SC2CS6 SLP113

CYHM;2007-10-24 03:00;CYHM 240300Z 22003KT 15SM BKN017 OVC240 08/08 A2987 RMK SC6CS2 SLP118

CYHM;2007-10-24 04:00;CYHM 240400Z 23002KT 15SM BKN250 08/08 A2986 RMK CS6 HALO SLP115

CYHM;2007-10-24 05:00;CYHM 240500Z 30003KT 15SM BKN230 07/07 A2984 RMK CS6 SLP108

CYHM;2007-10-24 07:00;CYHM 240700Z 18003KT 2 1/2SM BR FEW002 OVC030 07/07 A2986 RMK SF1SC7 SLP116

CYHM;2007-10-24 08:00;CYHM 240800Z 00000KT 3/8SM FG OVC030 07/07 A2985 RMK FG4SC4 SLP113

CYHM;2007-10-24 09:00;CYHM 240900Z 25002KT 1/4SM FG VV004 07/07 A2985 RMK FG8 SLP113

CYHM;2007-10-24 10:00;CYHM 241000Z 22002KT 1/4SM FG VV004 07/07 A2987 RMK FG8 SLP119

CYHM;2007-10-24 10:12;CYHM 241012Z 24004KT 1SM BR OVC002 RMK FG6SF2

CYHM;2007-10-24 10:24;CYHM 241024Z CCA 26003KT 3/4SM BR VV001 RMK FG8

CYHM;2007-10-24 10:42;CYHM 241042Z 25002KT 1 1/2SM BR SCT005 OVC094 RMK FG2SF2AC5

CYHM;2007-10-24 11:00;CYHM 241100Z 25004KT 6SM BR FEW005 BKN092 OVC150 07/07 A2988 RMK SF2AC5AC2 SLP124

CYHM;2007-10-24 12:00;CYHM 241200Z 00000KT 15SM FEW030 BKN110 OVC180 07/07 A2991 RMK SC1AC6AC2 SLP132

CYHM;2007-10-24 13:00;CYHM 241300Z 23003KT 15SM SCT082 BKN130 BKN220 07/07 A2991 RMK AC3AC2CI1 SLP135

CYHM;2007-10-24 14:00;CYHM 241400Z 28004KT 15SM FEW045 FEW085 SCT220 08/07 A2993 RMK SC1AC1CI2 SC TR SLP140

CYHM;2007-10-24 15:00;CYHM 241500Z 26007KT 15SM FEW020 FEW220 11/07 A2994 RMK CU1CI1 CU TR SLP144

CYHM;2007-10-24 16:00;CYHM 241600Z 27007KT 15SM FEW024 SCT052 BKN220 12/08 A2995 RMK CU2SC1CI1 SLP147

CYHM;2007-10-24 17:00;CYHM 241700Z 27012KT 15SM BKN027 BKN038 BKN220 13/08 A2998 RMK CU5SC1CI1 SLP156

CYHM;2007-10-24 18:00;CYHM 241800Z 29011KT 15SM SCT034 SCT120 BKN250 13/06 A2997 RMK CU3AC1CI1 AC TR TCU ASOCTD SLP152

CYHM;2007-10-24 19:00;CYHM 241900Z 30008KT 15SM FEW036 BKN250 14/05 A2999 RMK CU2CI1 SLP159

CYHM;2007-10-24 20:00;CYHM 242000Z 30009KT 15SM SCT046 BKN250 13/03 A3002 RMK SC3CI1 CU ASOCTD SLP168

CYHM;2007-10-24 21:00;CYHM 242100Z 28007KT 15SM BKN056 BKN250 13/05 A3004 RMK SC5CS1 CU ASOCTD SLP175

CYHM;2007-10-24 22:00;CYHM 242200Z 29004KT 15SM FEW056 BKN250 11/05 A3006 RMK SC1CS2 SLP184

CYHM;2007-10-24 23:00;CYHM 242300Z 31004KT 15SM FEW054 FEW250 09/05 A3009 RMK SC1CI1 SC TR SLP194

CYHM;2007-10-25 00:00;CYHM 250000Z 30006KT 15SM FEW054 FEW250 08/05 A3011 RMK SC1CI1 SC TR SLP203

CYHM;2007-10-25 01:00;CYHM 250100Z 32007KT 15SM FEW056 FEW250 09/06 A3014 RMK SC1CI1 CI TR SLP212

CYHM;2007-10-25 02:00;CYHM 250200Z 35007KT 15SM FEW058 FEW250 08/06 A3018 RMK SC1CI1 CI TR SLP224

CYHM;2007-10-25 03:00;CYHM 250300Z 36008KT 15SM FEW050 08/06 A3019 RMK SC1 SLP227

CYHM;2007-10-25 04:00;CYHM 250400Z 36008KT 15SM FEW045 07/05 A3020 RMK SC1 SLP233

CYHM;2007-10-25 05:00;CYHM 250500Z 01008KT 15SM FEW040 07/05 A3023 RMK SC1 SLP240

CYHM;2007-10-25 07:00;CYHM 250700Z 02008KT 15SM FEW035 FEW100 07/06 A3025 RMK SC1AC1 SLP249

CYHM;2007-10-25 08:00;CYHM 250800Z 02009KT 15SM FEW035 FEW100 07/05 A3026 RMK SC1AC1 SLP250

CYHM;2007-10-25 09:00;CYHM 250900Z 04008KT 15SM FEW030 FEW090 07/05 A3026 RMK SC1AC1 SLP250

CYHM;2007-10-25 10:00;CYHM 251000Z 03012KT 15SM BKN014 OVC100 07/06 A3027 RMK SC6AC2 SLP255

CYHM;2007-10-25 11:00;CYHM 251100Z 03014KT 15SM BKN013 BKN020 BKN120 07/06 A3029 RMK SC5SC2AC1 SLP260

CYHM;2007-10-25 12:00;CYHM 251200Z CCA 04014KT 15SM OVC017 07/06 A3032 RMK SC8 SLP274

CYHM;2007-10-25 13:00;CYHM 251300Z 03014KT 15SM FEW014 FEW027 BKN220 07/06 A3034 RMK SC1SC2CI2 SLP280

CYHM;2007-10-25 14:00;CYHM 251400Z 03010KT 15SM BKN011 BKN024 BKN220 08/06 A3036 RMK SC5SC2CI1 SLP286

CYHM;2007-10-25 15:00;CYHM 251500Z 04012KT 8SM BKN008 OVC026 08/07 A3036 RMK SC6SC2 SLP288

CYHM;2007-10-25 16:00;CYHM 251600Z 05015KT 10SM BKN008 OVC032 09/08 A3037 RMK SC6SC2 SLP289

CYHM;2007-10-25 17:00;CYHM 251700Z 05014KT 15SM SCT011 BKN018 OVC030 10/08 A3036 RMK SC3SC2SC2 SLP288

CYHM;2007-10-25 18:00;CYHM 251800Z 05012KT 15SM BKN009 BKN018 10/09 A3036 RMK SC6SC2 SLP286

CYHM;2007-10-25 19:00;CYHM 251900Z 04016KT 15SM BKN009 BKN020 BKN027 11/09 A3034 RMK SC5SC2SC1 SLP281

CYHM;2007-10-25 20:00;CYHM 252000Z 05017KT 15SM BKN009 OVC025 11/09 A3035 RMK SC7SC1 SLP283

CYHM;2007-10-25 22:00;CYHM 252200Z 05017KT 15SM BKN009 10/09 A3032 RMK SC7 SLP274

CYHM;2007-10-25 23:00;CYHM 252300Z 06014KT 15SM BKN009 11/09 A3034 RMK SC7 SLP280

CYHM;2007-10-26 01:00;CYHM 260100Z 07014KT 15SM BKN250 10/07 A3035 RMK CI6 SLP283

CYHM;2007-10-26 02:00;CYHM 260200Z 07014KT 15SM SCT250 09/07 A3035 RMK CI2 SLP282

CYHM;2007-10-26 03:00;CYHM 260300Z 07013KT 15SM BKN250 09/07 A3035 RMK CI4 SLP282

CYHM;2007-10-26 04:00;CYHM 260400Z 07012KT 15SM SCT250 09/07 A3033 RMK CI4 SLP278

CYHM;2007-10-26 05:00;CYHM 260500Z 06012KT 15SM FEW080 FEW250 09/08 A3033 RMK AC2CI1 SLP276

CYHM;2007-10-26 06:00;CYHM 260600Z 05009KT 15SM FEW080 FEW250 09/08 A3032 RMK AC1CI1 SLP271

CYHM;2007-10-26 07:00;CYHM 260700Z 05008KT 15SM FEW070 FEW250 08/08 A3032 RMK AC1CI1 SLP271

CYHM;2007-10-26 08:00;CYHM 260800Z 06006KT 15SM SCT055 08/07 A3031 RMK SC3 SLP268

CYHM;2007-10-26 09:00;CYHM 260900Z 06008KT 15SM FEW057 08/06 A3030 RMK SC2 SLP267

CYHM;2007-10-26 10:00;CYHM 261000Z 05007KT 15SM BKN050 08/06 A3031 RMK SC6 SLP268

CYHM;2007-10-26 11:00;CYHM 261100Z 04007KT 15SM BKN063 08/06 A3030 RMK SC6 SLP265

CYHM;2007-10-26 12:00;CYHM 261200Z 07006KT 15SM FEW045 BKN064 BKN080 08/06 A3030 RMK SC2SC4AC1 SLP264

CYHM;2007-10-26 13:00;CYHM 261300Z 05006KT 15SM BKN063 BKN080 09/06 A3029 RMK SC5AC2 SLP262

CYHM;2007-10-26 14:00;CYHM 261400Z 07006KT 15SM BKN042 BKN056 BKN100 11/07 A3029 RMK SC5SC2AC1 SLP262

CYHM;2007-10-26 15:00;CYHM 261500Z 09004KT 15SM SCT058 BKN150 BKN230 13/08 A3028 RMK SC3AC2CI2 SLP258

CYHM;2007-10-26 16:00;CYHM 261600Z 12007KT 15SM FEW021 BKN027 BKN070 14/09 A3027 RMK SC2SC5AC1 SLP254

CYHM;2007-10-26 17:00;CYHM 261700Z 13008KT 15SM BKN022 OVC048 14/10 A3026 RMK SC6SC2 SLP251

CYHM;2007-10-26 17:29;CYHM 261729Z 13006KT 6SM -SHRA BKN021 OVC055 RMK SC6SC2

CYHM;2007-10-26 18:00;CYHM 261800Z 13007KT 3SM -SHRA BR BKN016 OVC022 12/12 A3025 RMK SC6SC2 SLP247

CYHM;2007-10-26 19:00;CYHM 261900Z 09008KT 2 1/2SM -SHRA BR SCT008 BKN014 OVC022 12/12 A3020 RMK CF3SC3SC2 SLP233

CYHM;2007-10-26 19:27;CYHM 261927Z 06007KT 3SM -SHRA BR SCT006 OVC016 RMK CF3SC5

CYHM;2007-10-26 20:00;CYHM 262000Z 06006KT 3SM -SHRA BR BKN004 OVC021 12/12 A3020 RMK CF6SC2 SLP230

CYHM;2007-10-26 20:54;CYHM 262054Z 06010KT 2 1/2SM -SHRA BR OVC003 RMK CF8 PCPN VRY LGT

CYHM;2007-10-26 21:00;CYHM 262100Z 06009KT 2 1/2SM -SHRA BR OVC003 12/12 A3017 RMK CF8 PCPN VRY LGT SLP221

CYHM;2007-10-26 21:23;CYHM 262123Z 06007KT 1SM -SHRA BR OVC002 RMK FG2CF6 PCPN VRY LGT

CYHM;2007-10-26 21:43;CYHM 262143Z 06007KT 3/4SM BR OVC002 RMK FG4CF4

CYHM;2007-10-26 22:00;CYHM 262200Z 06007KT 3/4SM BR OVC002 12/12 A3017 RMK FG5CF3 SLP220

CYHM;2007-10-26 22:35;CYHM 262235Z 06010KT 1SM -DZ BR OVC002 RMK FG4CF4

CYHM;2007-10-26 23:00;CYHM 262300Z 05010KT 1 1/4SM -DZ BR OVC002 12/12 A3015 RMK FG3CF5 SLP214

CYHM;2007-10-26 23:41;CYHM 262341Z 05008KT 1 1/4SM -RADZ BR OVC002 RMK FG3CF5

CYHM;2007-10-27 00:00;CYHM 270000Z 05008KT 1 1/4SM -RA BR OVC002 12/12 A3013 RMK FG3CF5 SLP208

CYHM;2007-10-27 01:00;CYHM 270100Z 06006KT 1 1/4SM -RA BR OVC002 12/12 A3011 RMK FG3CF5 SLP202

CYHM;2007-10-27 02:00;CYHM 270200Z 07006KT 1SM BR OVC002 12/12 A3010 RMK FG4CF4 SLP196

CYHM;2007-10-27 02:12;CYHM 270212Z 09005KT 1/2SM -RA FG OVC005 RMK FG5SF3

CYHM;2007-10-27 02:30;CYHM 270230Z 09005KT 1 1/2SM -RA BR OVC005 RMK FG5SF3 VIS VRB 1 - 2

CYHM;2007-10-27 03:00;CYHM 270300Z 05003KT 1 1/2SM BR BKN002 12/12 A3007 RMK FG3SF4 VIS VRB 1 - 2 SLP186

CYHM;2007-10-27 03:34;CYHM 270334Z 07004KT 1/4SM FG BKN002 BKN030 RMK FG4SF2SC1

CYHM;2007-10-27 04:00;CYHM 270400Z 06003KT 1/2SM FG BKN002 BKN028 12/12 A3005 RMK FG3SF2SC2 SLP178

CYHM;2007-10-27 04:26;CYHM 270426Z 00000KT 1/8SM FG BKN002 BKN029 RMK FG5SF1SC1

CYHM;2007-10-27 05:00;CYHM 270500Z 10002KT 3/4SM BR SCT004 OVC022 12/12 A3004 RMK FG3SF1SC4 VIS VRB 1/2 - 1 SLP174

CYHM;2007-10-27 05:28;CYHM 270528Z 00000KT 10SM -RA FEW018 OVC030 RMK CF1SC7

CYHM;2007-10-27 06:00;CYHM 270600Z 00000KT 15SM OVC020 12/12 A3001 RMK SC8 SLP165

CYHM;2007-10-27 07:00;CYHM 270700Z 00000KT 3SM -RA BR OVC010 13/13 A3000 RMK SC8 VIS VRB 2 - 4 SLP161

CYHM;2007-10-27 07:21;CYHM 270721Z 20002KT 4SM -RA BR OVC006 RMK SF8

CYHM;2007-10-27 08:00;CYHM 270800Z 21004KT 3SM BR OVC005 13/13 A2998 RMK SF8 VIS VRB 2 - 4 SLP156

CYHM;2007-10-27 09:00;CYHM 270900Z 22008KT 6SM BR OVC005 14/13 A2997 RMK SF8 SLP151

CYHM;2007-10-27 10:00;CYHM 271000Z 20006KT 5SM -RA BR OVC005 14/14 A2995 RMK SF8 CIG RAG SLP146

CYHM;2007-10-27 10:47;CYHM 271047Z 21006KT 7SM OVC004 RMK CF7 CIG RAG

CYHM;2007-10-27 11:00;CYHM 271100Z 21007KT 7SM OVC004 13/13 A2994 RMK CF8 CIG RAG SLP143

CYHM;2007-10-27 11:38;CYHM 271138Z 21008KT 5SM BR BKN003 BKN034 RMK CF4SC3

CYHM;2007-10-27 12:00;CYHM 271200Z 20008KT 4SM BR BKN004 OVC036 14/14 A2993 RMK CF4SC4 SLP138

CYHM;2007-10-27 12:25;CYHM 271225Z 20008KT 2SM BR BKN003 OVC036 RMK FG1CF6SC2

CYHM;2007-10-27 13:00;CYHM 271300Z 22014KT 6SM -SHRA BR FEW007 BKN030 OVC079 14/14 A2992 RMK CF2SC4AC2 PCPN VRY LGT SLP135

CYHM;2007-10-27 13:47;CYHM 271347Z 23012KT 12SM FEW013 FEW035 BKN074 BKN120 RMK CF1SC2AC3AC2

CYHM;2007-10-27 14:00;CYHM 271400Z CCA 22012KT 15SM FEW013 SCT062 BKN073 BKN120 14/13 A2993 RMK CF1SC3AC3AC1 CF TR SLP137

CYHM;2007-10-27 15:00;CYHM 271500Z 22014KT 15SM FEW015 SCT027 BKN083 14/12 A2992 RMK CF2SC1AC3 SLP134

CYHM;2007-10-27 15:53;CYHM 271553Z 24020KT 8SM -SHRA BKN014 OVC031 RMK CU5SC3

CYHM;2007-10-27 16:00;CYHM 271600Z 24016G22KT 7SM -SHRA BKN013 OVC031 13/11 A2992 RMK CU5SC3 SLP135

CYHM;2007-10-27 16:16;CYHM 271616Z 24017KT 8SM -SHRA SCT013 OVC032 RMK CU3SC5

CYHM;2007-10-27 17:00;CYHM 271700Z 21016KT 12SM FEW032 OVC056 12/11 A2991 RMK SC2SC6 SLP129

CYHM;2007-10-27 18:00;CYHM 271800Z 23018G24KT 15SM SCT017 BKN032 13/10 A2990 RMK CU4SC3 SLP126

CYHM;2007-10-27 19:00;CYHM 271900Z 24016G23KT 15SM -SHRA BKN020 OVC030 13/10 A2990 RMK SC6SC2 PCPN VRY LGT SLP126

CYHM;2007-10-27 20:00;CYHM 272000Z 24016G22KT 15SM -SHRA SCT014 OVC019 12/11 A2991 RMK SC4SC4 PCPN VRY LGT SLP129

CYHM;2007-10-27 21:00;CYHM 272100Z 23016KT 15SM FEW008 BKN014 BKN019 OVC110 12/11 A2991 RMK SF2SC3SC2AC1 SLP132

CYHM;2007-10-27 21:38;CYHM 272138Z 24016KT 7SM -SHRA FEW009 BKN014 OVC021 RMK SF2SC3SC3

CYHM;2007-10-27 22:00;CYHM 272200Z 26017G22KT 15SM SCT012 BKN019 BKN030 12/11 A2995 RMK SC4SC2SC2 SLP144

CYHM;2007-10-27 23:00;CYHM 272300Z 27017G24KT 15SM SCT014 BKN022 OVC035 11/08 A3001 RMK SC3SC4SC1 SLP163

CYHM;2007-10-28 00:00;CYHM 280000Z 28017G25KT 15SM FEW014 BKN025 OVC041 09/06 A3006 RMK SC2SC3SC2 SLP182

CYHM;2007-10-28 01:00;CYHM 280100Z 28017G25KT 15SM FEW015 BKN028 OVC039 08/04 A3012 RMK CF1SC4SC3 SLP201

CYHM;2007-10-28 02:00;CYHM 280200Z 29016G24KT 15SM BKN030 07/03 A3017 RMK SC5 SLP219

CYHM;2007-10-28 03:00;CYHM 280300Z 30011G16KT 15SM BKN029 07/02 A3022 RMK SC5 SLP239

CYHM;2007-10-28 04:00;CYHM 280400Z 28005KT 15SM FEW030 06/02 A3026 RMK SC1 SLP253

CYHM;2007-10-28 05:00;CYHM 280500Z 28004KT 15SM FEW028 FEW200 05/02 A3030 RMK SC1CI1 SLP263

CYHM;2007-10-28 06:00;CYHM 280600Z 28006KT 15SM FEW030 04/02 A3032 RMK SC2 SLP273

CYHM;2007-10-28 07:00;CYHM 280700Z 00000KT 15SM FEW030 04/02 A3034 RMK SC1 SLP280

CYHM;2007-10-28 08:00;CYHM 280800Z 25004KT 15SM SKC 03/01 A3036 RMK SLP285

CYHM;2007-10-28 09:00;CYHM 280900Z 26004KT 15SM FEW043 SCT200 03/01 A3037 RMK SC2CI1 SLP292

CYHM;2007-10-28 10:00;CYHM 281000Z 25005KT 15SM FEW050 FEW220 02/01 A3039 RMK SC2CI1 FROIN SLP296

CYHM;2007-10-28 11:00;CYHM 281100Z 23006KT 15SM FEW050 02/01 A3040 RMK SC1 SLP301

CYHM;2007-10-28 12:00;CYHM 281200Z 25005KT 15SM FEW050 01/01 A3042 RMK SC1 SLP309

CYHM;2007-10-28 13:00;CYHM 281300Z 24004KT 15SM FEW040 03/01 A3043 RMK SC1 SLP313

CYHM;2007-10-28 14:00;CYHM 281400Z 25009KT 15SM FEW025 FEW040 05/01 A3046 RMK CU1SC1 CU TR SLP320

CYHM;2007-10-28 15:00;CYHM 281500Z 27014KT 240V320 15SM FEW025 FEW040 08/02 A3046 RMK CU2SC1 SLP322

CYHM;2007-10-28 16:00;CYHM 281600Z 29015KT 15SM BKN038 08/00 A3047 RMK SC6 CU ASOCTD SLP325

CYHM;2007-10-28 17:00;CYHM 281700Z 32010KT 15SM BKN044 BKN079 BKN250 07/01 A3048 RMK SC5AC1CI0 SLP327

CYHM;2007-10-28 17:25;CYHM 281725Z 31018G24KT 15SM -SHRA BKN036 BKN073 RMK SC6AC1

CYHM;2007-10-28 17:47;CYHM 281747Z 33011KT 280V020 15SM BKN036 BKN073 RMK SC5AC2

CYHM;2007-10-28 18:00;CYHM 281800Z 33012KT 15SM SCT036 BKN071 08/03 A3049 RMK SC4AC3 SLP331

CYHM;2007-10-28 19:00;CYHM 281900Z 30010KT 270V340 15SM SCT034 BKN050 BKN070 08/01 A3048 RMK CU3SC2AC2 SLP330

CYHM;2007-10-28 20:00;CYHM 282000Z 29009KT 15SM FEW034 SCT050 SCT070 08/01 A3048 RMK CU2SC1AC1 SLP330

CYHM;2007-10-28 21:00;CYHM 282100Z 30009KT 15SM SCT040 SCT055 BKN072 08/00 A3049 RMK CU3SC1AC1 SLP331

CYHM;2007-10-28 22:00;CYHM 282200Z 29007KT 15SM FEW040 FEW055 06/M00 A3050 RMK CU2SC1 SLP335

CYHM;2007-10-28 23:00;CYHM 282300Z 31008KT 15SM FEW045 05/M02 A3050 RMK SC1 SLP337

CYHM;2007-10-29 00:00;CYHM 290000Z 31007KT 15SM FEW045 03/M02 A3052 RMK SC1 SC TR SLP343

CYHM;2007-10-29 01:00;CYHM 290100Z 30006KT 15SM FEW040 03/M03 A3053 RMK SC1 SC TR SLP347

CYHM;2007-10-29 02:00;CYHM 290200Z 27002KT 15SM SKC 02/M02 A3053 RMK SLP348

CYHM;2007-10-29 03:00;CYHM 290300Z 00000KT 15SM FEW200 01/M03 A3052 RMK CI1 SLP342

CYHM;2007-10-29 04:00;CYHM 290400Z 00000KT 15SM FEW210 M01/M02 A3051 RMK CI1 SLP339

CYHM;2007-10-29 05:00;CYHM 290500Z 00000KT 15SM FEW200 M01/M02 A3051 RMK CI1 SLP339

CYHM;2007-10-29 06:00;CYHM 290600Z 00000KT 15SM FEW200 M01/M03 A3051 RMK CI1 SLP341

CYHM;2007-10-29 07:00;CYHM 290700Z 20004KT 15SM BKN220 M01/M02 A3051 RMK CS5 HALO SLP339

CYHM;2007-10-29 08:00;CYHM 290800Z 22003KT 15SM BKN200 M01/M02 A3049 RMK CS6 HALO SLP335

CYHM;2007-10-29 09:00;CYHM 290900Z 19004KT 15SM FEW200 M01/M02 A3048 RMK CI1 SLP331

CYHM;2007-10-29 10:00;CYHM 291000Z 17005KT 15SM FEW120 SCT220 00/M03 A3046 RMK AC1CI2 FROIN SLP325

CYHM;2007-10-29 11:00;CYHM 291100Z 17003KT 15SM FEW170 SCT230 01/M03 A3045 RMK AC2CI1 SLP321

CYHM;2007-10-29 12:00;CYHM 291200Z 17005KT 15SM FEW045 FEW150 SCT210 M00/M03 A3043 RMK SC1AC2CI1 SLP316

CYHM;2007-10-29 13:00;CYHM 291300Z 20005KT 15SM FEW045 SCT160 BKN210 03/01 A3044 RMK SC1AC2CI1 SLP317

CYHM;2007-10-29 14:00;CYHM 291400Z 22007KT 15SM FEW025 FEW150 SCT210 07/03 A3044 RMK CU1AC2CI1 SLP318

CYHM;2007-10-29 15:00;CYHM 291500Z 24008KT 15SM FEW025 FEW150 SCT230 09/02 A3042 RMK CU1AC2CI1 CU TR SLP310

CYHM;2007-10-29 16:00;CYHM 291600Z 24016G22KT 15SM SCT140 BKN230 11/01 A3040 RMK AC3CI2 CONTRAIL SLP302

CYHM;2007-10-29 17:00;CYHM 291700Z 25022G27KT 15SM FEW140 BKN240 12/01 A3036 RMK AC2CI3 CONTRAIL SLP291

CYHM;2007-10-29 18:00;CYHM 291800Z 24015G20KT 15SM FEW060 BKN240 12/00 A3034 RMK SC1CI5 SC TR SLP282

CYHM;2007-10-29 19:00;CYHM 291900Z 23014G22KT 15SM FEW048 BKN240 13/01 A3032 RMK CU1CS4 CU TR CONTRAILS SUN DMLY VSBL SLP273

CYHM;2007-10-29 20:00;CYHM 292000Z 23015G22KT 15SM FEW050 FEW190 BKN250 13/01 A3030 RMK CU1AC1CS2 CU TR AC TR SLP269

CYHM;2007-10-29 21:00;CYHM 292100Z 24015G21KT 15SM FEW052 FEW200 BKN250 13/01 A3030 RMK CU1CC2CS1 CU TR CONTRAILS SLP267

CYHM;2007-10-29 22:00;CYHM 292200Z 23012G18KT 15SM FEW052 FEW190 BKN250 11/02 A3030 RMK CU1AC2CS1 CU TR CONTRAILS SLP266

CYHM;2007-10-29 23:00;CYHM 292300Z 23013KT 15SM BKN190 BKN250 10/03 A3030 RMK AC5CS1 SLP268

CYHM;2007-10-30 00:00;CYHM 300000Z 24013KT 15SM BKN190 10/03 A3031 RMK AC6 SLP271

CYHM;2007-10-30 01:00;CYHM 300100Z 24010KT 15SM SCT190 09/03 A3031 RMK AC3 SLP270

CYHM;2007-10-30 02:00;CYHM 300200Z 24008KT 15SM FEW190 FEW250 09/03 A3032 RMK AC1CI0 AC TR SLP274

CYHM;2007-10-30 03:00;CYHM 300300Z 24008KT 15SM FEW190 FEW250 08/02 A3032 RMK AC1CI1 AC TR CI TR SLP271

CYHM;2007-10-30 04:00;CYHM 300400Z 24008KT 15SM FEW250 07/02 A3031 RMK CI1 CI TR SLP270

CYHM;2007-10-30 05:00;CYHM 300500Z 24009KT 15SM FEW250 08/02 A3032 RMK CI1 CI TR SLP272

CYHM;2007-10-30 06:00;CYHM 300600Z 24008KT 15SM SCT180 07/02 A3032 RMK AC4 SLP273

CYHM;2007-10-30 07:00;CYHM 300700Z 23007KT 15SM FEW250 06/02 A3033 RMK CI1 CI TR SLP274

CYHM;2007-10-30 08:00;CYHM 300800Z 24005KT 15SM SKC 05/02 A3033 RMK SLP275

CYHM;2007-10-30 09:00;CYHM 300900Z 24007KT 15SM FEW250 05/02 A3032 RMK CI1 CI TR SLP273

CYHM;2007-10-30 10:00;CYHM 301000Z 25007KT 15SM FEW250 05/02 A3034 RMK CI1 CI TR SLP278

CYHM;2007-10-30 11:00;CYHM 301100Z 25005KT 15SM FEW250 04/02 A3034 RMK CI1 CI TR SLP278

CYHM;2007-10-30 12:00;CYHM 301200Z 26003KT 15SM SKC 04/02 A3035 RMK SLP283

CYHM;2007-10-30 13:00;CYHM 301300Z 25004KT 15SM SKC 05/03 A3036 RMK SLP288

CYHM;2007-10-30 14:00;CYHM 301400Z 23004KT 15SM SKC 08/04 A3037 RMK SLP290

CYHM;2007-10-30 15:00;CYHM 301500Z 21008KT 15SM SKC 10/05 A3036 RMK SLP285

CYHM;2007-10-30 16:00;CYHM 301600Z 23008KT 15SM SKC 13/05 A3034 RMK SLP281

CYHM;2007-10-30 17:00;CYHM 301700Z 22007KT 15SM FEW040 FEW240 15/07 A3033 RMK CU1CI1 SLP276

CYHM;2007-10-30 18:00;CYHM 301800Z 22011KT 15SM FEW040 SCT240 16/07 A3030 RMK CU1CI1 SLP266

CYHM;2007-10-30 19:00;CYHM 301900Z 23012KT 15SM FEW040 BKN250 16/07 A3029 RMK CU1CI1 CU TR SLP261

CYHM;2007-10-30 20:00;CYHM 302000Z 22010KT 15SM FEW040 BKN250 16/07 A3028 RMK CU1CI2 CU TR SLP257

CYHM;2007-10-30 21:00;CYHM 302100Z 22009KT 15SM BKN250 15/07 A3027 RMK CI2 CONTRAILS SLP254

CYHM;2007-10-30 22:00;CYHM 302200Z 21010KT 15SM FEW190 SCT250 13/05 A3026 RMK AC2CI1 SLP253

CYHM;2007-10-30 23:00;CYHM 302300Z 21008KT 15SM FEW230 FEW260 10/03 A3026 RMK CC2CI1 CI TR SLP252

CYHM;2007-10-31 00:00;CYHM 310000Z 22007KT 15SM FEW220 08/03 A3026 RMK CI2 CC ASOCTD SLP253

CYHM;2007-10-31 01:00;CYHM 310100Z 24004KT 15SM FEW250 08/03 A3025 RMK CI1 CI TR SLP251

CYHM;2007-10-31 02:00;CYHM 310200Z 20007KT 15SM FEW200 07/04 A3025 RMK CI1 CI TR SLP250

CYHM;2007-10-31 03:00;CYHM 310300Z 19005KT 15SM FEW250 07/05 A3023 RMK CI1 CI TR SLP244

CYHM;2007-10-31 04:00;CYHM 310400Z 17006KT 15SM FEW250 08/07 A3022 RMK CI1 CI TR SLP238

CYHM;2007-10-31 05:00;CYHM 310500Z 17005KT 15SM FEW250 07/07 A3020 RMK CI1 CI TR SLP234

CYHM;2007-10-31 06:00;CYHM 310600Z 18006KT 15SM BKN250 09/07 A3019 RMK CS1 HALO SLP227

CYHM;2007-10-31 07:00;CYHM 310700Z 19006KT 15SM BKN210 08/07 A3017 RMK CS2 HALO SLP221

CYHM;2007-10-31 08:00;CYHM 310800Z 20007KT 15SM BKN210 09/08 A3016 RMK CS2 HALO SLP217

CYHM;2007-10-31 09:00;CYHM 310900Z 19008KT 15SM BKN220 09/07 A3016 RMK CS2 HALO SLP215

CYHM;2007-10-31 10:00;CYHM 311000Z 20006KT 25SM FEW150 SCT230 08/07 A3015 RMK AC2CI2 SLP214

CYHM;2007-10-31 11:00;CYHM 311100Z 20009KT 15SM FEW150 BKN230 09/07 A3014 RMK AC2CI2 SLP209

CYHM;2007-10-31 12:00;CYHM 311200Z 20008KT 15SM FEW150 SCT180 BKN220 09/07 A3013 RMK AC2AC2CI3 SLP207

CYHM;2007-10-31 13:00;CYHM 311300Z 20010KT 15SM FEW160 BKN220 10/07 A3012 RMK AC2CI3 SLP204

CYHM;2007-10-31 14:00;CYHM 311400Z 21012KT 15SM FEW160 BKN230 12/08 A3010 RMK AC2CI5 SLP198

CYHM;2007-10-31 15:00;CYHM 311500Z 22014KT 15SM FEW160 SCT230 14/08 A3007 RMK AC1CI2 SLP187

CYHM;2007-10-31 16:00;CYHM 311600Z 20022KT 15SM FEW220 15/07 A3005 RMK CI1 SLP180

CYHM;2007-10-31 17:00;CYHM 311700Z 21018KT 15SM BKN220 16/06 A3001 RMK CI5 SLP165

CYHM;2007-10-31 18:00;CYHM 311800Z 20016G22KT 15SM FEW140 BKN210 15/07 A2996 RMK AC2CI6 SLP148

CYHM;2007-10-31 19:00;CYHM 311900Z 22023G30KT 15SM FEW140 BKN210 17/06 A2994 RMK AC2CI3 SLP141

CYHM;2007-10-31 20:00;CYHM 312000Z 21018KT 15SM FEW140 BKN210 16/05 A2991 RMK AC2CI3 SLP132

CYHM;2007-10-31 21:00;CYHM 312100Z 20017G24KT 15SM FEW130 BKN210 15/05 A2989 RMK AC2CI3 CONTRAIL SLP125

CYHM;2007-10-31 22:00;CYHM 312200Z 20017KT 15SM SCT130 BKN250 15/06 A2987 RMK AC3CI3 SLP117

CYHM;2007-10-31 23:00;CYHM 312300Z 21017KT 15SM FEW130 BKN230 14/06 A2988 RMK AC2CI5 SLP120

CYHM;2007-11-01 01:00;CYHM 010100Z 21018KT 15SM FEW100 OVC220 15/06 A2986 RMK AC2CS6 SLP113

CYHM;2007-11-01 02:00;CYHM 010200Z 21019KT 15SM BKN050 OVC210 16/08 A2985 RMK SC6CI2 SLP110

CYHM;2007-11-01 03:00;CYHM 010300Z 24025G34KT 6SM -SHRA FEW022 OVC046 14/11 A2985 RMK CF2SC6 SLP111

CYHM;2007-11-01 04:00;CYHM 010400Z 28015G20KT 10SM -SHRA FEW014 OVC038 09/08 A2991 RMK CF2SC6 SLP129

CYHM;2007-11-01 05:00;CYHM 010500Z 29012KT 12SM -SHRA FEW017 OVC048 08/06 A2993 RMK CF2SC6 SLP136

CYHM;2007-11-01 06:00;CYHM 010600Z 25006KT 12SM -SHRA FEW020 OVC059 07/06 A2992 RMK CF1SC7 SLP135

CYHM;2007-11-01 07:00;CYHM 010700Z 23007KT 15SM -SHRA OVC070 07/06 A2994 RMK AC8 SLP142

CYHM;2007-11-01 07:27;CYHM 010727Z 23007KT 15SM FEW090 RMK AC2

CYHM;2007-11-01 08:00;CYHM 010800Z 23008KT 15SM FEW090 06/06 A2996 RMK AC1 SLP147

CYHM;2007-11-01 09:00;CYHM 010900Z 24008KT 15SM FEW090 06/05 A2997 RMK AC1 SLP152

CYHM;2007-11-01 10:00;CYHM 011000Z 24010KT 15SM FEW090 06/04 A2999 RMK AC1 SLP158

CYHM;2007-11-01 11:00;CYHM 011100Z 25009KT 15SM FEW100 05/03 A3000 RMK AC1 SLP163

CYHM;2007-11-01 12:00;CYHM 011200Z CCA 26008KT 15SM FEW060 FEW100 04/02 A3003 RMK SC1AC1 SC TR AC TR SLP174

CYHM;2007-11-01 13:00;CYHM 011300Z CCA 24008KT 15SM FEW025 05/03 A3006 RMK SC1 SLP183

CYHM;2007-11-01 14:00;CYHM 011400Z 26009KT 15SM FEW035 FEW080 06/02 A3008 RMK SC1AC1 SC TR AC TR SLP189

CYHM;2007-11-01 15:00;CYHM 011500Z 26014KT 15SM FEW030 FEW080 08/01 A3009 RMK SC1AC1 SLP193

CYHM;2007-11-01 16:00;CYHM 011600Z 29014KT 15SM SCT046 09/00 A3010 RMK CU3 SC ASOCTD SLP195

CYHM;2007-11-01 17:00;CYHM 011700Z 25015KT 15SM SCT043 BKN058 09/00 A3010 RMK CU3SC4 SLP198

CYHM;2007-11-01 18:00;CYHM 011800Z 27012KT 15SM FEW036 BKN044 09/00 A3012 RMK CU2SC6 SLP205

CYHM;2007-11-01 20:00;CYHM 012000Z 26012KT 15SM FEW037 BKN063 08/02 A3016 RMK SC2SC5 SLP217

CYHM;2007-11-01 21:00;CYHM 012100Z 31008KT 15SM FEW034 BKN061 07/01 A3019 RMK SC1SC6 SLP228

CYHM;2007-11-01 22:00;CYHM 012200Z 29005KT 15SM FEW032 BKN051 07/00 A3021 RMK SC2SC6 SLP236

CYHM;2007-11-01 23:00;CYHM 012300Z 28005KT 15SM BKN049 06/00 A3024 RMK SC7 SLP245

CYHM;2007-11-02 00:00;CYHM 020000Z 29004KT 15SM FEW048 05/M00 A3026 RMK SC1 SLP254

CYHM;2007-11-02 01:00;CYHM 020100Z 30003KT 15SM FEW048 04/M01 A3027 RMK SC1 SLP258

CYHM;2007-11-02 02:00;CYHM 020200Z 32003KT 15SM SKC 03/M01 A3028 RMK SLP262

CYHM;2007-11-02 03:00;CYHM 020300Z 32003KT 15SM FEW200 01/M01 A3030 RMK CI1 SLP266

CYHM;2007-11-02 04:00;CYHM 020400Z 35003KT 15SM SKC 01/M02 A3030 RMK SLP268

CYHM;2007-11-02 05:00;CYHM 020500Z 00000KT 15SM FEW200 01/M02 A3032 RMK CI2 SLP274

CYHM;2007-11-02 06:00;CYHM 020600Z 00000KT 15SM FEW210 01/M01 A3032 RMK CI1 SLP275

CYHM;2007-11-02 07:00;CYHM 020700Z 00000KT 15SM FEW200 M00/M02 A3033 RMK CI1 SLP279

CYHM;2007-11-02 08:00;CYHM 020800Z 00000KT 15SM FEW200 01/M01 A3033 RMK CI1 FROIN SLP280

CYHM;2007-11-02 09:00;CYHM 020900Z 00000KT 15SM FEW200 00/M02 A3035 RMK CI1 FROIN SLP286

CYHM;2007-11-02 10:00;CYHM 021000Z 00000KT 15SM FEW210 00/M02 A3036 RMK CI1 FROIN SLP290

CYHM;2007-11-02 11:00;CYHM 021100Z 00000KT 15SM SKC 00/M02 A3037 RMK SLP293

CYHM;2007-11-02 12:00;CYHM 021200Z 00000KT 15SM FEW045 00/M02 A3038 RMK SC1 SC TR SLP297

CYHM;2007-11-02 13:00;CYHM 021300Z 12002KT 15SM FEW045 02/M01 A3040 RMK SC1 SC TR SLP303

CYHM;2007-11-02 14:00;CYHM 021400Z 11004KT 15SM FEW035 06/01 A3039 RMK CU1 SLP301

CYHM;2007-11-02 15:00;CYHM 021500Z 12004KT 15SM FEW035 07/00 A3039 RMK CU1 SLP298

CYHM;2007-11-02 16:00;CYHM 021600Z 12002KT 15SM FEW032 08/M00 A3039 RMK CU1 SLP300

CYHM;2007-11-02 17:00;CYHM 021700Z 15004KT 15SM FEW032 09/M00 A3036 RMK CU1 SLP289

CYHM;2007-11-02 18:00;CYHM 021800Z 21004KT 15SM SKC 09/M00 A3033 RMK SLP278

CYHM;2007-11-02 19:00;CYHM 021900Z 11004KT 15SM SKC 10/01 A3029 RMK SLP266

CYHM;2007-11-02 20:00;CYHM 022000Z 05008KT 15SM SKC 09/03 A3029 RMK SLP266

CYHM;2007-11-02 21:00;CYHM 022100Z 05007KT 15SM SKC 08/02 A3029 RMK SLP264

CYHM;2007-11-02 22:00;CYHM 022200Z 07008KT 15SM FEW250 07/02 A3026 RMK CI1 SLP256

CYHM;2007-11-02 23:00;CYHM 022300Z 07006KT 15SM FEW250 05/02 A3025 RMK CI1 SLP253

CYHM;2007-11-03 00:00;CYHM 030000Z 06006KT 15SM SKC 04/02 A3025 RMK SLP252

CYHM;2007-11-03 01:00;CYHM 030100Z 04006KT 15SM SKC 04/03 A3025 RMK SLP252

CYHM;2007-11-03 02:00;CYHM 030200Z 03002KT 15SM SKC 03/02 A3023 RMK SLP245

CYHM;2007-11-03 03:00;CYHM 030300Z 03003KT 15SM FEW200 04/04 A3021 RMK CI1 SLP238

CYHM;2007-11-03 04:00;CYHM 030400Z 00000KT 15SM PRFG SKC 02/02 A3019 RMK SLP231

CYHM;2007-11-03 05:00;CYHM 030500Z 01004KT 15SM FEW200 02/02 A3019 RMK CI1 SLP230

CYHM;2007-11-03 06:00;CYHM 030600Z 00000KT 3/4SM BR SKC 01/01 A3018 RMK FG2 VIS VRB 1/2 - 1 SLP226

CYHM;2007-11-03 07:00;CYHM 030700Z 00000KT 1 1/2SM BR SKC 00/00 A3018 RMK FG2 VIS VRB 1 - 2 SLP226

CYHM;2007-11-03 07:27;CYHM 030727Z 00000KT 8SM PRFG FEW200 RMK CI1 FROIN

CYHM;2007-11-03 08:00;CYHM 030800Z 00000KT 10SM MIFG SKC M00/M00 A3017 RMK FROIN SLP222

CYHM;2007-11-03 09:00;CYHM 030900Z 00000KT 2 1/2SM BR FEW200 M01/M01 A3015 RMK CI1 FROIN SLP218

CYHM;2007-11-03 09:32;CYHM 030932Z 00000KT 10SM MIFG FEW150 RMK AC2 FROIN

CYHM;2007-11-03 10:00;CYHM 031000Z 00000KT 10SM MIFG SKC 00/00 A3014 RMK FROIN SLP214

CYHM;2007-11-03 10:08;CYHM 031008Z 00000KT 3/8SM FG SKC RMK FG1

CYHM;2007-11-03 10:28;CYHM 031028Z 00000KT 10SM MIFG SKC

CYHM;2007-11-03 11:00;CYHM 031100Z 00000KT 15SM MIFG FEW150 02/01 A3012 RMK AC1 SLP208

CYHM;2007-11-03 11:17;CYHM 031117Z 00000KT 1/2SM FG FEW250 RMK FG1CI1

CYHM;2007-11-03 11:44;CYHM 031144Z 24002KT 1/8SM FZFG BKN250 RMK FG2CI2

CYHM;2007-11-03 12:00;CYHM 031200Z 21002KT 1/8SM FZFG BKN250 M02/M02 A3012 RMK FG2CI2 SLP208

CYHM;2007-11-03 13:00;CYHM 031300Z 00000KT 1/2SM FZFG FEW100 BKN250 M00/M00 A3011 RMK FG1AC1CI2 VIS SW 11/2 VIS NE 11/2 SLP205

CYHM;2007-11-03 13:15;CYHM 031315Z 26002KT 1 1/2SM BR FEW120 BKN250 RMK FG1AC2CI2

CYHM;2007-11-03 13:33;CYHM 031333Z 23002KT 10SM SCT120 BKN250 RMK AC3CI2 VIS S 1

CYHM;2007-11-03 14:00;CYHM 031400Z 22002KT 12SM BKN120 BKN250 05/05 A3010 RMK AC5CI1 SLP201

CYHM;2007-11-03 15:00;CYHM 031500Z 26004KT 12SM BKN120 BKN250 06/05 A3008 RMK AC5CI2 SLP192

CYHM;2007-11-03 16:00;CYHM 031600Z 26004KT 15SM BKN097 BKN250 08/05 A3007 RMK AC6CI1 SLP188

CYHM;2007-11-03 17:00;CYHM 031700Z 27006KT 15SM BKN063 BKN095 08/05 A3004 RMK SC5AC2 SLP180

CYHM;2007-11-03 18:00;CYHM 031800Z 28008KT 15SM FEW060 FEW095 11/05 A3000 RMK SC1AC2 SLP166

CYHM;2007-11-03 19:00;CYHM 031900Z 28009KT 250V310 15SM FEW060 BKN098 12/02 A2998 RMK SC2AC2 SLP160

CYHM;2007-11-03 20:00;CYHM 032000Z 27009KT 15SM FEW060 SCT100 SCT220 12/02 A2996 RMK SC1AC2CI1 SLP153

CYHM;2007-11-03 21:00;CYHM 032100Z 26006KT 15SM FEW050 BKN100 12/03 A2996 RMK SC1AC5 SC TR SLP151

CYHM;2007-11-03 22:00;CYHM 032200Z 27006KT 15SM SCT095 10/02 A2995 RMK AC3 SLP150

CYHM;2007-11-03 23:00;CYHM 032300Z 27006KT 15SM SCT052 BKN095 09/02 A2996 RMK SC4AC1 SLP153

CYHM;2007-11-04 00:00;CYHM 040000Z 28006KT 15SM FEW052 07/03 A2997 RMK SC1 SLP156

CYHM;2007-11-04 01:00;CYHM 040100Z 28006KT 15SM FEW200 06/03 A2996 RMK CI1 CI TR SLP154

CYHM;2007-11-04 02:00;CYHM 040200Z 29006KT 15SM FEW200 05/02 A2995 RMK CI1 CI TR SLP152

CYHM;2007-11-04 03:00;CYHM 040300Z 28005KT 12SM SKC 05/02 A2994 RMK SLP146

CYHM;2007-11-04 04:00;CYHM 040400Z 28005KT 15SM SKC 04/02 A2993 RMK SLP142

CYHM;2007-11-04 05:00;CYHM 040500Z 27005KT 15SM FEW200 02/01 A2992 RMK CI1 SLP139

CYHM;2007-11-04 06:00;CYHM 040600Z 27005KT 15SM FEW200 02/01 A2991 RMK CI1 SLP135

CYHM;2007-11-04 07:00;CYHM 040700Z 26005KT 15SM OVC060 02/01 A2993 RMK SC8 SLP140

CYHM;2007-11-04 08:00;CYHM 040800Z 26005KT 15SM SCT056 02/01 A2992 RMK SC4 SLP139

CYHM;2007-11-04 09:00;CYHM 040900Z 28003KT 15SM OVC058 03/02 A2992 RMK SC8 SLP137

CYHM;2007-11-04 10:00;CYHM 041000Z 25003KT 15SM FEW057 BKN210 02/01 A2991 RMK SC2CI2 SLP135

CYHM;2007-11-04 11:00;CYHM 041100Z 25005KT 15SM BKN059 BKN200 03/02 A2991 RMK SC6CI1 SLP135

CYHM;2007-11-04 12:00;CYHM 041200Z 27005KT 15SM FEW056 BKN220 03/01 A2990 RMK SC1CI2 SLP132

CYHM;2007-11-04 13:00;CYHM 041300Z 29005KT 15SM FEW056 BKN220 03/01 A2990 RMK SC1CI3 CONTRAILS SLP132

CYHM;2007-11-04 14:00;CYHM 041400Z 26007KT 15SM FEW060 BKN210 05/01 A2990 RMK SC1CI3 SLP131

CYHM;2007-11-04 15:00;CYHM 041500Z 24009KT 15SM FEW060 BKN230 07/02 A2989 RMK SC1CI5 SLP129

CYHM;2007-11-04 16:00;CYHM 041600Z 25012KT 15SM FEW061 BKN230 09/02 A2988 RMK SC2CI2 SLP126

CYHM;2007-11-04 17:00;CYHM 041700Z 26008KT 230V300 15SM FEW030 FEW060 BKN230 09/02 A2987 RMK CU1SC1CI5 SLP121

CYHM;2007-11-04 18:00;CYHM 041800Z 27010KT 15SM FEW041 OVC230 10/02 A2985 RMK SC2CS4 SLP113

CYHM;2007-11-04 19:00;CYHM 041900Z 26008KT 15SM SCT042 BKN062 BKN230 09/01 A2984 RMK SC3SC2CS2 SLP111

CYHM;2007-11-04 20:00;CYHM 042000Z 25009KT 15SM FEW045 BKN062 BKN130 BKN230 09/00 A2984 RMK CU2SC3AC1CS1 SLP110

CYHM;2007-11-04 21:00;CYHM 042100Z 27008KT 15SM FEW045 SCT062 BKN130 BKN230 08/01 A2985 RMK CU1SC3AC1CI1 SLP115

CYHM;2007-11-04 22:00;CYHM 042200Z 24006KT 15SM FEW045 FEW062 SCT130 BKN220 07/M00 A2986 RMK CU1SC1AC2CI2 SLP117

CYHM;2007-11-04 23:00;CYHM 042300Z 25006KT 15SM FEW060 FEW130 BKN230 06/M01 A2987 RMK SC1AC1CI2 SLP122

CYHM;2007-11-05 00:00;CYHM 050000Z 25004KT 15SM FEW041 SCT130 BKN230 04/M01 A2989 RMK SC2AC2CI1 SLP130

CYHM;2007-11-05 01:00;CYHM 050100Z 25004KT 15SM FEW045 FEW130 04/00 A2991 RMK SC1AC1 SLP134

CYHM;2007-11-05 02:00;CYHM 050200Z 24004KT 15SM FEW045 FEW120 01/M01 A2992 RMK SC1AC1 SC TR SLP138

CYHM;2007-11-05 03:00;CYHM 050300Z 25004KT 15SM FEW080 01/M01 A2992 RMK AC1 SLP140

CYHM;2007-11-05 04:00;CYHM 050400Z 25004KT 15SM FEW082 FEW200 M01/M02 A2992 RMK AC1CI1 SLP139

CYHM;2007-11-05 05:00;CYHM 050500Z 26003KT 15SM FEW200 01/M01 A2991 RMK CI1 SLP137

CYHM;2007-11-05 06:00;CYHM 050600Z 30003KT 15SM FEW200 M00/M01 A2990 RMK CI1 SLP132

CYHM;2007-11-05 07:00;CYHM 050700Z 23003KT 15SM FEW200 M02/M02 A2990 RMK CI1 FROIN SLP132

CYHM;2007-11-05 08:00;CYHM 050800Z 23002KT 15SM FEW200 M01/M01 A2990 RMK CI1 FROIN SLP133

CYHM;2007-11-05 09:00;CYHM 050900Z 27003KT 15SM FEW200 M03/M03 A2990 RMK CI1 FROIN SLP133

CYHM;2007-11-05 10:00;CYHM 051000Z 28002KT 15SM FEW200 M01/M02 A2989 RMK CI2 FROIN SLP131

CYHM;2007-11-05 11:00;CYHM 051100Z 25002KT 15SM BKN210 M01/M02 A2989 RMK CI5 SLP129

CYHM;2007-11-05 12:00;CYHM 051200Z 00000KT 15SM BKN150 BKN210 M01/M02 A2988 RMK AC5CI2 SLP128

CYHM;2007-11-05 13:00;CYHM 051300Z CCA 14005KT 15SM SCT120 BKN150 BKN210 00/M01 A2987 RMK AC3AC2CI2 SLP125

CYHM;2007-11-05 14:00;CYHM 051400Z 15008KT 15SM FEW089 FEW150 BKN210 05/02 A2985 RMK AC1AC2CI2 SLP117

CYHM;2007-11-05 15:00;CYHM 051500Z 17008KT 15SM BKN054 OVC084 07/05 A2983 RMK SC6AC2 SLP107

CYHM;2007-11-05 15:42;CYHM 051542Z 15008KT 7SM -SHRA BKN014 OVC024 RMK SC6SC2

CYHM;2007-11-05 16:00;CYHM 051600Z 19012KT 5SM -SHRA BR FEW013 BKN024 OVC038 07/05 A2980 RMK SC2SC6SC1 SLP097

CYHM;2007-11-05 17:00;CYHM 051700Z 17012KT 5SM -SHRA BR FEW032 BKN045 OVC075 07/06 A2975 RMK SC2SC5AC1 SLP082

CYHM;2007-11-05 17:39;CYHM 051739Z 16012KT 10SM FEW045 SCT075 BKN210 RMK SC2AC2CI2

CYHM;2007-11-05 18:00;CYHM 051800Z 16010KT 10SM BKN075 BKN220 09/06 A2968 RMK AC6CI2 SLP058

CYHM;2007-11-05 19:00;CYHM 051900Z 15018G24KT 10SM BKN061 BKN090 10/05 A2962 RMK SC5AC2 SLP037

CYHM;2007-11-05 20:00;CYHM 052000Z 19014G20KT 15SM OVC055 09/03 A2961 RMK SC8 SLP035

CYHM;2007-11-05 21:00;CYHM 052100Z 17011G19KT 15SM FEW054 BKN085 OVC120 09/04 A2957 RMK SC2AS5AS2 SLP021

CYHM;2007-11-05 22:00;CYHM 052200Z 20015G22KT 12SM -SHRA BKN058 OVC080 10/03 A2955 RMK SC6AS2 SLP012

CYHM;2007-11-05 23:00;CYHM 052300Z 20015G28KT 15SM -SHRA FEW036 BKN048 OVC065 10/05 A2953 RMK SF2SC5SC2 SLP007

CYHM;2007-11-06 00:00;CYHM 060000Z 20015G22KT 12SM -SHRA BKN056 OVC084 09/08 A2952 RMK SC7AC1 SLP005

CYHM;2007-11-06 01:00;CYHM 060100Z 23012G18KT 15SM -SHRA FEW036 BKN058 OVC070 08/05 A2953 RMK SC1SC4AC3 SLP007

CYHM;2007-11-06 01:46;CYHM 060146Z 24012G19KT 15SM SCT024 BKN084 OVC140 RMK SC3AC4AC1

CYHM;2007-11-06 02:00;CYHM 060200Z 28013G26KT 15SM SCT022 BKN096 OVC140 07/04 A2955 RMK SC3AC4AC1 SLP012

CYHM;2007-11-06 03:00;CYHM 060300Z 24012G18KT 15SM -SHRA FEW024 BKN058 BKN110 06/03 A2955 RMK SC2SC3AC2 SLP013

CYHM;2007-11-06 04:00;CYHM 060400Z 26012G18KT 15SM -SHRA BKN018 BKN030 OVC044 05/03 A2959 RMK SC5SC2SC1 SLP023

CYHM;2007-11-06 05:00;CYHM 060500Z 24010KT 15SM FEW024 SCT058 04/02 A2960 RMK SC2SC2 SLP029

CYHM;2007-11-06 06:00;CYHM 060600Z 23009KT 15SM BKN024 04/02 A2962 RMK SC7 SLP034

CYHM;2007-11-06 07:00;CYHM 060700Z 23015KT 15SM FEW024 02/00 A2962 RMK SC1 SLP034

CYHM;2007-11-06 08:00;CYHM 060800Z 24012KT 15SM FEW024 02/M00 A2961 RMK SC1 SC TR SLP033

CYHM;2007-11-06 09:00;CYHM 060900Z 24014G20KT 15SM SKC 02/M01 A2961 RMK SLP033

CYHM;2007-11-06 10:00;CYHM 061000Z 24015G24KT 15SM SKC 02/M01 A2962 RMK SLP034

CYHM;2007-11-06 11:00;CYHM 061100Z 24014G22KT 15SM FEW022 02/M01 A2961 RMK SC1 SC TR SLP031

CYHM;2007-11-06 12:00;CYHM 061200Z 26018KT 15SM FEW025 02/M02 A2961 RMK SC1 CU ASOCTD SLP033

CYHM;2007-11-06 13:00;CYHM 061300Z 24014KT 15SM FEW025 02/M01 A2962 RMK SC1 CU ASCOCTD SLP035

CYHM;2007-11-06 14:00;CYHM 061400Z 24022G32KT 15SM FEW020 FEW100 04/M01 A2961 RMK CU1AC1 SLP032

CYHM;2007-11-06 15:00;CYHM 061500Z 26022G30KT 15SM SCT027 BKN035 BKN220 04/M01 A2960 RMK CU4SC2CI1 SLP031

CYHM;2007-11-06 16:00;CYHM 061600Z 25021G26KT 15SM FEW029 BKN036 BKN042 05/M01 A2961 RMK CU2SC5SC1 SLP032

CYHM;2007-11-06 17:00;CYHM 061700Z 24020G26KT 15SM FEW025 BKN030 OVC037 05/M01 A2960 RMK CU1SC6SC1 SLP029

CYHM;2007-11-06 17:17;CYHM 061717Z 25022G30KT 15SM -SHRA FEW028 OVC032 RMK CU1SC7

CYHM;2007-11-06 17:50;CYHM 061750Z 24020G25KT 15SM SCT028 OVC062 RMK SC3SC5

CYHM;2007-11-06 18:00;CYHM 061800Z 24020G30KT 15SM SCT022 BKN038 OVC060 04/00 A2959 RMK SC3SC3SC2 SLP026

CYHM;2007-11-06 18:06;CYHM 061806Z 24022G28KT 10SM -SHRA BKN024 OVC035 RMK SC6SC2

CYHM;2007-11-06 19:00;CYHM 061900Z 23026KT 15SM -SHRA BKN016 OVC032 04/01 A2959 RMK SC6SC2 SLP025

CYHM;2007-11-06 19:20;CYHM 061920Z 24024G30KT 15SM BKN018 OVC026 RMK SC6SC2

CYHM;2007-11-06 19:34;CYHM 061934Z 25022G30KT 10SM -SHRA BKN015 OVC022 RMK SC6SC2

CYHM;2007-11-06 20:00;CYHM 062000Z 24025G30KT 10SM -SHRA BKN016 OVC026 04/02 A2958 RMK SC6SC2 SLP024

CYHM;2007-11-06 20:44;CYHM 062044Z 24015G26KT 12SM -SHRA FEW006 BKN010 OVC030 RMK SF2SC4SC2

CYHM;2007-11-06 21:00;CYHM 062100Z 25016G24KT 15SM -SHRA FEW007 BKN012 BKN028 BKN064 04/02 A2962 RMK SF2SC4SC1SC1 SLP039

CYHM;2007-11-06 21:47;CYHM 062147Z 25012G19KT 15SM FEW009 BKN015 BKN044 BKN100 RMK SF1SC5SC1AC1

CYHM;2007-11-06 22:00;CYHM 062200Z 24012G18KT 15SM FEW009 BKN018 OVC044 04/02 A2966 RMK SF2SC6SC1 SLP050

CYHM;2007-11-06 23:00;CYHM 062300Z 25012G18KT 15SM OVC017 04/02 A2970 RMK SC8 SLP064

CYHM;2007-11-07 00:00;CYHM 070000Z 28011KT 15SM BKN022 BKN100 04/01 A2975 RMK SC5AC1 AC TR SLP080

CYHM;2007-11-07 01:00;CYHM 070100Z 29014G24KT 15SM SCT022 03/00 A2979 RMK SC4 SLP096

CYHM;2007-11-07 02:00;CYHM 070200Z 28010G18KT 15SM FEW024 FEW190 02/M00 A2984 RMK SC1AC1 SC TR AC TR SLP112

CYHM;2007-11-07 03:00;CYHM 070300Z 28010KT 15SM FEW190 FEW250 02/M01 A2989 RMK AC1CI1 AC TR SLP129

CYHM;2007-11-07 04:00;CYHM 070400Z 26010KT 15SM BKN040 02/M01 A2992 RMK SC6 SLP140

CYHM;2007-11-07 05:00;CYHM 070500Z 29007KT 15SM BKN043 02/M01 A2995 RMK SC7 SLP149

CYHM;2007-11-07 06:00;CYHM 070600Z 28006KT 15SM BKN040 02/M01 A2997 RMK SC7 SLP156

CYHM;2007-11-07 07:00;CYHM 070700Z 28007KT 15SM FEW012 OVC034 02/M00 A2999 RMK SF2SC6 SLP164

CYHM;2007-11-07 08:00;CYHM 070800Z 28008KT 15SM FEW020 OVC050 02/M00 A3001 RMK SF1SC7 SLP169

CYHM;2007-11-07 09:00;CYHM 070900Z 28012G18KT 15SM FEW020 BKN058 02/M01 A3002 RMK SF1SC6 SLP173

CYHM;2007-11-07 10:00;CYHM 071000Z 29009KT 15SM FEW024 BKN054 02/M01 A3004 RMK SF1SC6 SLP180

CYHM;2007-11-07 11:00;CYHM 071100Z 29012KT 15SM FEW024 BKN052 02/M02 A3006 RMK SF2SC6 SLP187

CYHM;2007-11-07 12:00;CYHM 071200Z 32012G17KT 15SM FEW025 BKN046 02/M02 A3009 RMK CU2SC5 SLP198

CYHM;2007-11-07 13:00;CYHM 071300Z 30012KT 15SM FEW025 BKN046 01/M05 A3011 RMK CU2SC6 SLP206

CYHM;2007-11-07 14:00;CYHM 071400Z 28010G15KT 15SM FEW025 BKN047 02/M05 A3013 RMK CU1SC6 SLP213

CYHM;2007-11-07 15:00;CYHM 071500Z 29010G15KT 15SM FEW030 SCT040 OVC045 02/M05 A3014 RMK CU1SC3SC4 SLP217

CYHM;2007-11-07 16:00;CYHM 071600Z 29010KT 15SM FEW038 BKN050 03/M05 A3015 RMK CU2SC6 SLP220

CYHM;2007-11-07 17:00;CYHM 071700Z 30012KT 15SM FEW036 BKN042 02/M05 A3015 RMK CU2SC6 SLP219

CYHM;2007-11-07 18:00;CYHM 071800Z 29009KT 15SM -SHSN FEW034 BKN044 03/M04 A3015 RMK SF2SC6 SLP220

CYHM;2007-11-07 19:00;CYHM 071900Z 30010KT 15SM FEW034 BKN044 03/M04 A3016 RMK SF2SC5 SLP221

CYHM;2007-11-07 20:00;CYHM 072000Z 30011KT 15SM BKN048 03/M06 A3016 RMK SC7 SLP223

CYHM;2007-11-07 21:00;CYHM 072100Z 30008KT 15SM BKN046 02/M05 A3017 RMK SC7 SLP227

CYHM;2007-11-07 22:00;CYHM 072200Z 29006KT 15SM FEW034 OVC050 02/M04 A3018 RMK SF2SC6 SLP230

CYHM;2007-11-07 23:00;CYHM 072300Z 26005KT 15SM OVC044 01/M04 A3019 RMK SC8 SLP231

CYHM;2007-11-08 00:00;CYHM 080000Z 26005KT 15SM OVC040 01/M02 A3019 RMK SC8 SLP234

CYHM;2007-11-08 01:00;CYHM 080100Z 26005KT 15SM BKN038 01/M03 A3019 RMK SC7 SLP234

CYHM;2007-11-08 02:00;CYHM 080200Z 25005KT 15SM OVC037 01/M02 A3020 RMK SC8 SLP238

CYHM;2007-11-08 03:00;CYHM 080300Z 24003KT 15SM OVC036 01/M02 A3020 RMK SC8 SLP238

CYHM;2007-11-08 04:00;CYHM 080400Z 24003KT 15SM OVC041 01/M02 A3019 RMK SC8 SLP234

CYHM;2007-11-08 05:00;CYHM 080500Z 00000KT 15SM FEW040 FEW190 00/M04 A3018 RMK SC1AC1 SLP230

CYHM;2007-11-08 06:00;CYHM 080600Z 00000KT 15SM FEW180 M01/M04 A3017 RMK AC1 SLP227

CYHM;2007-11-08 07:00;CYHM 080700Z 00000KT 15SM FEW090 SCT190 M01/M05 A3017 RMK AC1AC2 SLP227

CYHM;2007-11-08 08:00;CYHM 080800Z 00000KT 15SM BKN050 OVC140 M03/M05 A3017 RMK SC6AC2 SLP227

CYHM;2007-11-08 09:00;CYHM 080900Z 00000KT 15SM OVC048 M02/M04 A3017 RMK SC8 SLP227

CYHM;2007-11-08 10:00;CYHM 081000Z 13003KT 15SM OVC052 M02/M03 A3016 RMK SC8 SLP222

CYHM;2007-11-08 11:00;CYHM 081100Z 14007KT 15SM OVC061 M01/M04 A3014 RMK SC8 SLP218

CYHM;2007-11-08 12:00;CYHM 081200Z CCA 14004KT 15SM SCT060 BKN073 OVC130 M01/M05 A3013 RMK SC3AC2AC2 SLP215

CYHM;2007-11-08 13:00;CYHM 081300Z CCA 13005KT 15SM FEW060 BKN120 OVC170 M01/M05 A3014 RMK SC2AC4AC2 SLP216

CYHM;2007-11-08 14:00;CYHM 081400Z 14008KT 15SM BKN029 OVC042 01/M05 A3014 RMK SC6SC2 VIA YYZ SLP216

CYHM;2007-11-08 14:46;CYHM 081446Z 14008KT 15SM -SHSN SCT033 OVC044 RMK SC3SC5 SENT VIA YQG

CYHM;2007-11-08 15:00;CYHM 081500Z CCA 14008KT 15SM -SHSN FEW036 OVC051 03/M01 A3013 RMK SC2SC6 SENT VIA YQG SLP212

CYHM;2007-11-08 16:00;CYHM 081600Z CCA 16007KT 2 1/2SM -SHSN BKN010 OVC024 02/01 A3012 RMK SF6SC2 SENT VIA YQG SLP209

CYHM;2007-11-08 16:27;CYHM 081627Z CCC 11005KT 1 1/2SM -SHSN SCT008 OVC016 RMK SN1SF3SC4

CYHM;2007-11-08 17:00;CYHM 081700Z 10007KT 1SM -SHSN BR BKN009 OVC018 01/01 A3010 RMK SN2SF5SC2 SLP201

CYHM;2007-11-08 17:23;CYHM 081723Z 08006KT 1 3/4SM -SHSN BR SCT005 BKN014 OVC018 RMK SN1SF2SC4SC1

CYHM;2007-11-08 17:41;CYHM 081741Z 08006KT 3/4SM -SHSN BR BKN002 OVC011 RMK SN2SF5SC2

CYHM;2007-11-08 18:00;CYHM 081800Z 11007KT 1SM -SHSN BR BKN008 OVC019 00/00 A3007 RMK SN2SF4SC2 SLP191

CYHM;2007-11-08 18:22;CYHM 081822Z 11008KT 2SM -SHSN BR FEW002 BKN008 OVC016 RMK SF2SF5SC2

CYHM;2007-11-08 19:00;CYHM 081900Z 11002KT 3SM -SHSN BR BKN004 OVC015 01/01 A3006 RMK SF5SC3 SLP189

CYHM;2007-11-08 20:00;CYHM 082000Z 12002KT 6SM -SHSN BR FEW004 BKN029 OVC040 03/02 A3005 RMK SF2SC4SC2 PCPN VRY LGT SLP187

CYHM;2007-11-08 21:00;CYHM 082100Z 36002KT 7SM -SHSN FEW009 OVC031 03/01 A3005 RMK SF1SC7 PCPN VRY LGT SLP186

CYHM;2007-11-08 22:00;CYHM 082200Z 04004KT 7SM -SHSN SCT032 OVC054 03/02 A3005 RMK SC3SC5 SLP186

CYHM;2007-11-08 23:00;CYHM 082300Z CCA 07004KT 6SM -SHRA BR BKN031 OVC055 03/02 A3006 RMK SC6SC2 SLP188

CYHM;2007-11-09 00:00;CYHM 090000Z 08005KT 6SM -SHRASN BR FEW030 OVC052 03/02 A3006 RMK SC2SC6 SLP189

CYHM;2007-11-09 01:00;CYHM 090100Z 08005KT 9SM -SHRASN FEW032 OVC046 03/02 A3006 RMK SC2SC6 SLP190

CYHM;2007-11-09 02:00;CYHM 090200Z 03004KT 10SM -SHRASN FEW038 OVC057 03/02 A3006 RMK SC1SC7 SLP190

CYHM;2007-11-09 03:00;CYHM 090300Z 04004KT 9SM -SHRASN OVC058 03/02 A3006 RMK SC8 SLP186

CYHM;2007-11-09 04:00;CYHM 090400Z 05005KT 8SM -SHRASN OVC052 03/02 A3004 RMK SC8 SLP182

CYHM;2007-11-09 05:00;CYHM 090500Z 04004KT 10SM -SHRA OVC043 03/02 A3004 RMK SC8 SLP179

CYHM;2007-11-09 06:00;CYHM 090600Z 02005KT 8SM OVC036 03/03 A3002 RMK SC8 SLP175

CYHM;2007-11-09 06:17;CYHM 090617Z 03005KT 1 1/2SM BR SCT035 OVC065 RMK FG2SC2SC5 VIS VRB 1 - 2

CYHM;2007-11-09 07:00;CYHM 090700Z 06005KT 1SM BR SCT044 OVC068 03/03 A3001 RMK FG2SC1AC5 VIS VRB 3/4 - 11/4 SLP173

CYHM;2007-11-09 08:00;CYHM 090800Z 06005KT 1 1/2SM -SHSN BR OVC051 03/03 A3001 RMK FG2SC6 VIS VRB 1 - 2 SLP170

CYHM;2007-11-09 09:00;CYHM 090900Z 07004KT 1 1/2SM -SHRA BR FEW002 OVC035 03/03 A3000 RMK FG2SF1SC6 VIS VRB 1 - 2 SLP167

CYHM;2007-11-09 09:17;CYHM 090917Z 07004KT 3/4SM -SHRA BR BKN002 OVC027 RMK FG3SF3SC2 VIS VRB 1/2 - 1

CYHM;2007-11-09 10:00;CYHM 091000Z 06005KT 1 1/2SM -SHRA BR OVC040 03/03 A3000 RMK FG2SC6 VIS VRB 1 - 2 SLP166

CYHM;2007-11-09 10:38;CYHM 091038Z 07005KT 4SM -SHRA BR FEW015 OVC031 RMK CF1SC7

CYHM;2007-11-09 11:00;CYHM 091100Z 07005KT 8SM -SHRA FEW028 OVC039 03/03 A2999 RMK CF2SC6 SLP165

CYHM;2007-11-09 12:00;CYHM 091200Z 05004KT 7SM -RA FEW032 OVC042 04/03 A2999 RMK SC2SC6 SLP164

CYHM;2007-11-09 13:00;CYHM 091300Z 06004KT 10SM -RA BKN024 OVC043 04/03 A3000 RMK SC5SC3 SLP166

CYHM;2007-11-09 14:00;CYHM 091400Z 07005KT 10SM -RA OVC046 04/03 A2999 RMK SC8 SLP164

CYHM;2007-11-09 15:00;CYHM 091500Z 05006KT 10SM SCT042 OVC054 04/03 A2998 RMK SC3SC5 SLP161

CYHM;2007-11-09 16:00;CYHM 091600Z 10006KT 15SM FEW030 BKN037 OVC048 05/03 A2997 RMK CU1SC5SC2 SLP158

CYHM;2007-11-09 16:16;CYHM 091616Z 19006KT 12SM -SHRA FEW013 BKN024 OVC043 RMK CU1SC6SC2

CYHM;2007-11-09 17:00;CYHM 091700Z 19002KT 15SM -SHRA FEW018 OVC040 05/03 A2996 RMK SC2SC6 SLP153

CYHM;2007-11-09 18:00;CYHM 091800Z 13002KT 8SM -SHRA BKN020 OVC034 06/03 A2994 RMK SC6SC2 SLP147

CYHM;2007-11-09 18:41;CYHM 091841Z 13005KT 10SM FEW020 BKN035 OVC045 RMK CU2SC4SC2

CYHM;2007-11-09 19:00;CYHM 091900Z 11004KT 15SM FEW020 BKN038 OVC045 06/03 A2993 RMK CU2SC6SC1 SLP142

CYHM;2007-11-09 19:09;CYHM 091909Z 09004KT 15SM -SHRA BKN022 OVC043 RMK CU6SC2

CYHM;2007-11-09 20:00;CYHM 092000Z 08007KT 15SM -SHRA BKN026 OVC044 06/03 A2992 RMK CU6SC2 SLP140

CYHM;2007-11-09 21:00;CYHM 092100Z 10009KT 15SM -SHRA FEW024 SCT035 OVC052 06/02 A2993 RMK CU2SC2SC4 PCPN VRY LGT SLP143

CYHM;2007-11-09 22:00;CYHM 092200Z 07010KT 12SM -SHRA FEW030 BKN037 OVC065 05/02 A2994 RMK CU1SC6SC1 SLP147

CYHM;2007-11-09 23:00;CYHM 092300Z CCA 07008KT 15SM -SHRA OVC034 04/02 A2996 RMK SC8 SLP151

CYHM;2007-11-10 00:00;CYHM 100000Z 07007KT 15SM -SHRA OVC036 04/02 A2996 RMK SC8 SLP154

CYHM;2007-11-10 01:00;CYHM 100100Z 07010KT 15SM -SHRA OVC044 04/02 A2997 RMK SC8 SLP155

CYHM;2007-11-10 02:00;CYHM 100200Z 07009KT 15SM SCT050 OVC068 04/02 A2997 RMK SC4AC4 SLP158

CYHM;2007-11-10 03:00;CYHM 100300Z 07007KT 12SM BKN023 OVC069 04/02 A2998 RMK CU5AC3 SLP161

CYHM;2007-11-10 04:00;CYHM 100400Z 07006KT 7SM OVC013 04/02 A2999 RMK SC8 SLP164

CYHM;2007-11-10 05:00;CYHM 100500Z 07008KT 7SM FEW013 OVC024 04/02 A3000 RMK CF2SC6 SLP167

CYHM;2007-11-10 06:00;CYHM 100600Z 06010KT 7SM BKN011 OVC074 03/02 A3001 RMK SC6AC2 SLP170

CYHM;2007-11-10 07:00;CYHM 100700Z 06011KT 7SM BKN008 OVC030 03/02 A3003 RMK CF6SC2 SLP177

CYHM;2007-11-10 08:00;CYHM 100800Z 04011G16KT 6SM BR OVC005 03/02 A3005 RMK CF8 SLP182

CYHM;2007-11-10 09:00;CYHM 100900Z 03012KT 5SM -RA BR OVC005 03/02 A3006 RMK SF8 SLP188

CYHM;2007-11-10 10:00;CYHM 101000Z 04012G17KT 5SM -RA BR OVC005 03/02 A3008 RMK SF8 SLP195

CYHM;2007-11-10 11:00;CYHM 101100Z 05012KT 4SM -RA BR OVC004 02/02 A3011 RMK SF8 CIG RAG SLP203

CYHM;2007-11-10 12:00;CYHM 101200Z 04011KT 4SM -RA BR OVC004 02/02 A3013 RMK SF8 SLP213

CYHM;2007-11-10 13:00;CYHM 101300Z 04011KT 3SM -RA BR OVC005 02/01 A3016 RMK SF8 CIG RAG SLP222

CYHM;2007-11-10 14:00;CYHM 101400Z 04008KT 3SM -RA BR OVC006 02/02 A3018 RMK SF8 CIG RAG SLP227

CYHM;2007-11-10 15:00;CYHM 101500Z 05008KT 4SM -RA BR OVC006 02/01 A3020 RMK SF8 CIG RAG PCPN VRY LGT SLP235

CYHM;2007-11-10 15:34;CYHM 101534Z 02007KT 5SM BR OVC007 RMK SC8

CYHM;2007-11-10 16:00;CYHM 101600Z 04008KT 5SM BR OVC007 03/02 A3023 RMK SC8 SLP245

CYHM;2007-11-10 17:00;CYHM 101700Z 04009KT 6SM BR OVC008 03/02 A3021 RMK SC8 SLP240

CYHM;2007-11-10 18:00;CYHM 101800Z 03007KT 7SM OVC009 03/02 A3022 RMK SC8 SLP241

CYHM;2007-11-10 18:34;CYHM 101834Z 04007KT 9SM BKN011 BKN028 RMK SC6SC1

CYHM;2007-11-10 19:00;CYHM 101900Z 03007KT 12SM BKN013 BKN026 03/01 A3021 RMK SC5SC2 SLP240

CYHM;2007-11-10 20:00;CYHM 102000Z 03005KT 360V060 15SM FEW014 SCT021 BKN031 04/00 A3022 RMK CU2SC2SC2 SLP241

CYHM;2007-11-10 21:00;CYHM 102100Z 03004KT 15SM FEW020 SCT032 04/M00 A3022 RMK SC2SC2 SLP243

CYHM;2007-11-10 22:00;CYHM 102200Z 07003KT 15SM FEW020 FEW032 SCT250 02/M00 A3023 RMK SC1SC2CI1 SLP246

CYHM;2007-11-10 23:00;CYHM 102300Z 09004KT 15SM FEW032 FEW250 01/M00 A3024 RMK SC1CI1 SLP248

CYHM;2007-11-11 00:00;CYHM 110000Z 11002KT 15SM FEW032 FEW210 M00/M01 A3024 RMK SC1CI1 SC TR CI TR SLP251

CYHM;2007-11-11 01:00;CYHM 110100Z 19002KT 15SM SKC M02/M02 A3024 RMK SLP249

CYHM;2007-11-11 02:00;CYHM 110200Z 20002KT 15SM SKC M02/M02 A3023 RMK SLP248

CYHM;2007-11-11 02:40;CYHM 110240Z 20002KT 1 1/2SM BR SKC RMK FG2

CYHM;2007-11-11 02:48;CYHM 110248Z 11002KT 8SM MIFG SKC RMK FROIN

CYHM;2007-11-11 03:00;CYHM 110300Z 10002KT 5SM BR FEW250 M03/M03 A3023 RMK CI0 FROIN SLP247

CYHM;2007-11-11 03:17;CYHM 110317Z 00000KT 3/4SM BR FEW200 RMK FG2CI1 VIS VRB 1/2 - 1 FROIN

CYHM;2007-11-11 04:00;CYHM 110400Z 00000KT 6SM BR FEW200 M02/M02 A3023 RMK CI2 FROIN SLP249

CYHM;2007-11-11 05:00;CYHM 110500Z 25002KT 10SM SCT180 M02/M02 A3026 RMK AC2 SLP256

CYHM;2007-11-11 06:00;CYHM 110600Z 00000KT 15SM OVC160 M01/M02 A3025 RMK AS8 SLP253

CYHM;2007-11-11 07:00;CYHM 110700Z 10004KT 15SM OVC140 M01/M01 A3024 RMK AS8 SLP251

CYHM;2007-11-11 08:00;CYHM 110800Z 10003KT 10SM FEW140 SCT200 M01/M01 A3025 RMK AC1CI2 SLP254

CYHM;2007-11-11 09:00;CYHM 110900Z 11003KT 15SM MIFG FEW140 FEW200 M01/M02 A3025 RMK AC1CI1 SLP252

CYHM;2007-11-11 10:00;CYHM 111000Z 09006KT 15SM FEW200 M02/M02 A3024 RMK CI1 SLP251

CYHM;2007-11-11 11:00;CYHM 111100Z 08005KT 15SM FEW120 FEW200 M01/M02 A3025 RMK AC1CI1 FROIN SLP252

CYHM;2007-11-11 12:00;CYHM 111200Z 06004KT 12SM FEW041 BKN230 M02/M03 A3025 RMK SC2CI1 FROIN SLP254

CYHM;2007-11-11 13:00;CYHM 111300Z 09006KT 15SM FEW025 FEW040 SCT120 BKN250 M01/M02 A3026 RMK CU1SC1AC2CI1 CU TR SLP257

CYHM;2007-11-11 14:00;CYHM 111400Z 15006KT 15SM BKN024 BKN250 03/02 A3027 RMK SC6CI1 CU ASOCTD SLP263

CYHM;2007-11-11 15:00;CYHM 111500Z 16006KT 15SM FEW024 FEW038 BKN080 04/02 A3026 RMK SC1SC2AC5 SLP259

CYHM;2007-11-11 16:00;CYHM 111600Z 19004KT 15SM FEW025 BKN084 06/03 A3026 RMK CU1AC6 SLP257

CYHM;2007-11-11 17:00;CYHM 111700Z 27010KT 15SM FEW031 SCT086 BKN250 08/02 A3022 RMK CU1AC3CI1 SLP245

CYHM;2007-11-11 18:00;CYHM 111800Z 19015KT 15SM FEW034 SCT091 BKN130 09/02 A3019 RMK CU2AC2AC4 SLP231

CYHM;2007-11-11 19:00;CYHM 111900Z 19012KT 15SM FEW030 BKN130 09/02 A3017 RMK CU1AC6 SLP224

CYHM;2007-11-11 20:00;CYHM 112000Z 18010KT 15SM FEW025 BKN072 OVC110 07/02 A3017 RMK CF2AC4AC2 SLP223

CYHM;2007-11-11 21:00;CYHM 112100Z 18007KT 15SM FEW025 OVC067 07/02 A3015 RMK CF1AC8 CF TR SLP219

CYHM;2007-11-11 22:00;CYHM 112200Z 17007KT 15SM FEW048 OVC058 07/02 A3014 RMK SC2SC6 SLP216

CYHM;2007-11-11 23:00;CYHM 112300Z 15006KT 15SM SCT054 OVC066 07/02 A3013 RMK SC4AC4 SLP210

CYHM;2007-11-12 00:00;CYHM 120000Z 17005KT 15SM SCT034 OVC054 07/02 A3013 RMK SC4SC4 SLP213

CYHM;2007-11-12 00:28;CYHM 120028Z 18008KT 12SM -SHRA BKN026 OVC047 RMK SC6SC2

CYHM;2007-11-12 01:00;CYHM 120100Z 18007KT 5SM -SHRA HZ BKN025 OVC044 06/03 A3013 RMK SC6SC2 SLP213

CYHM;2007-11-12 01:32;CYHM 120132Z 18008KT 8SM BKN024 OVC040 RMK SC6SC2

CYHM;2007-11-12 01:44;CYHM 120144Z 16007KT 7SM -SHRA BKN025 OVC040 RMK SC7SC1

CYHM;2007-11-12 02:00;CYHM 120200Z 16006KT 9SM -SHRA OVC025 06/04 A3014 RMK SC8 SLP214

CYHM;2007-11-12 02:24;CYHM 120224Z 15005KT 10SM OVC024 RMK SC8

CYHM;2007-11-12 03:00;CYHM 120300Z 16005KT 12SM BKN023 OVC031 06/04 A3012 RMK SC5SC3 SLP207

CYHM;2007-11-12 04:00;CYHM 120400Z 18006KT 8SM -SHRA OVC017 06/04 A3013 RMK SC8 SLP209

CYHM;2007-11-12 05:00;CYHM 120500Z 19007KT 8SM -SHRA OVC015 06/05 A3010 RMK SC8 SLP202

CYHM;2007-11-12 06:00;CYHM 120600Z 20005KT 4SM -SHRA BR OVC010 06/05 A3010 RMK SC8 CIG RAG SLP199

CYHM;2007-11-12 06:21;CYHM 120621Z 18005KT 1 1/2SM -SHRA BR OVC005 RMK FG2SF6 VIS VRB 1 - 2

CYHM;2007-11-12 07:00;CYHM 120700Z 17005KT 1SM -SHRA BR OVC003 06/06 A3009 RMK FG2SF6 VIS VRB 3/4 - 11/4 SLP196

CYHM;2007-11-12 08:00;CYHM 120800Z 16007KT 1 1/2SM -SHRA BR OVC003 06/06 A3008 RMK FG2SF6 VIS VRB 1 - 2 SLP192

CYHM;2007-11-12 09:00;CYHM 120900Z 16004KT 3/4SM -SHRA BR OVC004 06/06 A3007 RMK FG3SF5 VIS VRB 1/2 - 1 SLP190

CYHM;2007-11-12 10:00;CYHM 121000Z 16005KT 1/2SM -SHRA FG OVC003 07/07 A3007 RMK FG4SF4 SLP190

CYHM;2007-11-12 11:00;CYHM 121100Z 19006KT 1/2SM -SHRA FG OVC002 07/07 A3007 RMK FG4SF4 SLP190

CYHM;2007-11-12 11:05;CYHM 121105Z 19005KT 1 1/2SM -SHRA BR OVC003 RMK FG2SF6

CYHM;2007-11-12 11:47;CYHM 121147Z CCA 18008KT 1SM -SHRA BR OVC002 RMK FG2SF6

CYHM;2007-11-12 12:00;CYHM 121200Z 19006KT 3/4SM -SHRA BR OVC002 08/08 A3007 RMK FG2SF6 SLP187

CYHM;2007-11-12 12:16;CYHM 121216Z 17007KT 1/2SM -DZ FG OVC002 RMK FG3SF5

CYHM;2007-11-12 13:00;CYHM 121300Z 20007KT 1/2SM -DZ FG OVC002 08/08 A3007 RMK FG3SF5 SLP187

CYHM;2007-11-12 14:00;CYHM 121400Z 20010KT 1/2SM -DZ FG OVC002 08/08 A3007 RMK FG3SF5 SLP187

CYHM;2007-11-12 15:00;CYHM 121500Z 20014KT 1/2SM FG OVC003 08/08 A3005 RMK FG2SF6 SLP182

CYHM;2007-11-12 15:37;CYHM 121537Z 20012KT 1SM BR OVC003 RMK FG2SF6

CYHM;2007-11-12 16:00;CYHM 121600Z 22012KT 1 1/2SM BR OVC005 09/09 A3004 RMK FG2SF6 SLP178

CYHM;2007-11-12 17:00;CYHM 121700Z 21014KT 4SM BR OVC006 10/09 A3001 RMK SF8 SLP167

CYHM;2007-11-12 17:32;CYHM 121732Z 20008KT 1 1/2SM -SHRA BR OVC005 RMK FG2SF6

CYHM;2007-11-12 18:00;CYHM 121800Z 22010KT 2SM -SHRA BR OVC004 09/09 A2997 RMK FG1SF7 SLP153

CYHM;2007-11-12 19:00;CYHM 121900Z 22012KT 4SM -SHRA BR OVC007 10/09 A2994 RMK SF8 SLP144

CYHM;2007-11-12 20:00;CYHM 122000Z 21009KT 4SM BR OVC007 10/10 A2991 RMK ST8 SF ASOCTD SLP136

CYHM;2007-11-12 21:00;CYHM 122100Z 22009KT 3SM BR OVC008 11/11 A2990 RMK ST8 SF ASOCTD SLP130

CYHM;2007-11-12 21:14;CYHM 122114Z 24012KT 2 1/2SM BR OVC008 RMK ST8 SF ASOCTD

CYHM;2007-11-12 21:45;CYHM 122145Z 23012KT 2SM -SHRA BR OVC006 RMK SC8 SF ASOCTD

CYHM;2007-11-12 22:00;CYHM 122200Z 23010KT 1 1/2SM -SHRA BR OVC006 12/11 A2991 RMK SC8 SF ASOCTD SLP131

CYHM;2007-11-12 22:33;CYHM 122233Z 23010KT 4SM BR OVC008 RMK SC8

CYHM;2007-11-12 23:00;CYHM 122300Z 22010KT 5SM BR OVC008 12/12 A2991 RMK SC8 SLP131

CYHM;2007-11-12 23:16;CYHM 122316Z 23010KT 5SM -SHRA BR OVC006 RMK SC8

CYHM;2007-11-12 23:52;CYHM 122352Z 23014KT 4SM BR OVC005 RMK SC8

CYHM;2007-11-13 00:00;CYHM 130000Z 25012KT 4SM BR OVC006 12/12 A2991 RMK SC8 SLP133

CYHM;2007-11-13 00:50;CYHM 130050Z 24012KT 2 1/2SM BR OVC004 RMK SC8

CYHM;2007-11-13 01:00;CYHM 130100Z 25010KT 2 1/2SM BR OVC004 12/12 A2991 RMK SC8 SLP132

CYHM;2007-11-13 01:40;CYHM 130140Z 25007KT 5SM BR FEW004 BKN016 BKN028 OVC046 RMK SF2SC3SC2SC1

CYHM;2007-11-13 02:00;CYHM 130200Z 28006KT 6SM BR FEW006 BKN015 BKN036 OVC160 12/11 A2991 RMK SF2SC3SC2AC2 SLP133

CYHM;2007-11-13 03:00;CYHM 130300Z 31010KT 15SM FEW016 BKN130 OVC180 11/09 A2992 RMK SC1AS6AS1 SF ASOCTD SLP137

CYHM;2007-11-13 04:00;CYHM 130400Z 32009KT 10SM FEW015 OVC130 10/09 A2993 RMK SF2AS6 SLP139

CYHM;2007-11-13 05:00;CYHM 130500Z 31008KT 12SM OVC110 09/06 A2994 RMK AS8 SLP141

CYHM;2007-11-13 06:00;CYHM 130600Z 30007KT 12SM OVC110 08/06 A2995 RMK AS8 SLP147

CYHM;2007-11-13 07:00;CYHM 130700Z 33009KT 15SM FEW044 OVC110 08/05 A2997 RMK SC1AS7 SLP154

CYHM;2007-11-13 08:00;CYHM 130800Z 31003KT 15SM FEW044 OVC140 07/05 A2998 RMK SC1AS7 SLP157

CYHM;2007-11-13 09:00;CYHM 130900Z 33006KT 15SM FEW110 BKN210 05/04 A2999 RMK AS2CI1 SLP160

CYHM;2007-11-13 10:00;CYHM 131000Z 29002KT 15SM FEW110 BKN250 05/03 A3001 RMK AC1CI2 AC TR SLP165

CYHM;2007-11-13 11:00;CYHM 131100Z 00000KT 15SM FEW110 SCT250 04/03 A3002 RMK AC1CI1 AC TR SLP171

CYHM;2007-11-13 12:00;CYHM 131200Z 00000KT 15SM FEW030 FEW110 03/03 A3005 RMK SC1AC1 SC TR SLP181

CYHM;2007-11-13 13:00;CYHM 131300Z 20002KT 15SM FEW110 02/02 A3006 RMK AC1 SLP185

CYHM;2007-11-13 14:00;CYHM 131400Z 24002KT 15SM FEW025 FEW220 06/04 A3007 RMK CU1CI1 SLP189

CYHM;2007-11-13 15:00;CYHM 131500Z 26002KT 15SM FEW025 08/04 A3008 RMK CU1 SLP190

CYHM;2007-11-13 16:00;CYHM 131600Z 24004KT 15SM FEW025 09/04 A3007 RMK CU1 SLP187

CYHM;2007-11-13 17:00;CYHM 131700Z 20007KT 15SM SKC 10/05 A3004 RMK SLP179

CYHM;2007-11-13 18:00;CYHM 131800Z 20008KT 15SM FEW220 11/05 A3001 RMK CI0 SLP165

CYHM;2007-11-13 19:00;CYHM 131900Z 22006KT 15SM FEW220 12/05 A2999 RMK CI1 CONTRAIL SLP160

CYHM;2007-11-13 20:00;CYHM 132000Z 22008KT 15SM FEW250 11/04 A2998 RMK CI2 CONTRAILS SLP158

CYHM;2007-11-13 21:00;CYHM 132100Z 20007KT 15SM SCT250 10/05 A2998 RMK CI1 CONTRAILS SLP158

CYHM;2007-11-13 22:00;CYHM 132200Z 19007KT 15SM SCT250 08/04 A2996 RMK CI1 CONTRAILS SLP150

CYHM;2007-11-13 23:00;CYHM 132300Z 22003KT 15SM BKN250 05/04 A2997 RMK CI1 SLP153

CYHM;2007-11-14 00:00;CYHM 140000Z 19005KT 15SM SCT250 05/04 A2993 RMK CI1 SLP142

CYHM;2007-11-14 01:00;CYHM 140100Z 22004KT 15SM FEW250 04/03 A2991 RMK CI1 SLP134

CYHM;2007-11-14 02:00;CYHM 140200Z 22003KT 15SM SCT250 04/03 A2989 RMK CI1 SLP128

CYHM;2007-11-14 03:00;CYHM 140300Z 22006KT 15SM FEW250 02/02 A2987 RMK CI1 SLP120

CYHM;2007-11-14 03:30;CYHM 140330Z 23006KT 1/4SM FG SKC RMK FG3

CYHM;2007-11-14 04:00;CYHM 140400Z 20007KT 1/8SM FG SKC 03/03 A2983 RMK FG4 SLP108

CYHM;2007-11-14 04:18;CYHM 140418Z 20008KT 3SM BR SCT250 RMK FG1CI2

CYHM;2007-11-14 05:00;CYHM 140500Z 19012KT 15SM BKN250 07/06 A2977 RMK CI5 SLP089

CYHM;2007-11-14 06:00;CYHM 140600Z 23010KT 15SM BKN240 08/07 A2976 RMK CI3 SLP080

CYHM;2007-11-14 07:00;CYHM 140700Z 24010KT 15SM BKN250 08/07 A2977 RMK CI2 SLP083

CYHM;2007-11-14 08:00;CYHM 140800Z 21009KT 15SM FEW036 SCT250 09/07 A2973 RMK SC1CI1 SC TR SLP071

CYHM;2007-11-14 09:00;CYHM 140900Z 19015KT 15SM BKN016 10/09 A2968 RMK SC7 SLP054

CYHM;2007-11-14 09:35;CYHM 140935Z 24015G22KT 6SM BR OVC008 RMK SC8

CYHM;2007-11-14 10:00;CYHM 141000Z 20014G21KT 6SM BR OVC008 10/10 A2968 RMK SC8 SLP055

CYHM;2007-11-14 11:00;CYHM 141100Z 20012G18KT 6SM BR BKN008 BKN018 OVC046 11/10 A2964 RMK SC6SC1SC1 SLP039

CYHM;2007-11-14 12:00;CYHM 141200Z 21015G20KT 6SM BR BKN008 BKN012 OVC029 11/10 A2962 RMK SF6SC2SC1 SLP036

CYHM;2007-11-14 12:52;CYHM 141252Z 22015KT 2SM -SHRA BKN005 OVC015 RMK SF6SC2

CYHM;2007-11-14 13:00;CYHM 141300Z 22016G22KT 2SM -SHRA BR BKN005 OVC012 11/11 A2959 RMK SF6SC2 SLP025

CYHM;2007-11-14 14:00;CYHM 141400Z 21018KT 4SM -SHRA BR BKN007 OVC012 12/12 A2959 RMK SF6SC2 SLP023

CYHM;2007-11-14 14:28;CYHM 141428Z 22015KT 2SM -SHRA BR BKN008 OVC022 RMK SF6SC2

CYHM;2007-11-14 15:00;CYHM 141500Z 22014KT 3SM -SHRA BR BKN010 OVC021 12/12 A2956 RMK SF6SC2 SLP015

CYHM;2007-11-14 15:46;CYHM 141546Z 24018KT 6SM BR BKN021 BKN028 RMK SC6SC2

CYHM;2007-11-14 16:00;CYHM 141600Z 24019KT 6SM BR BKN017 BKN022 14/13 A2955 RMK SC5SC2 SLP013

CYHM;2007-11-14 17:00;CYHM 141700Z 25018G25KT 10SM SCT018 BKN023 15/13 A2955 RMK CU3SC3 SLP010

CYHM;2007-11-14 18:00;CYHM 141800Z 25016G25KT 15SM FEW018 BKN042 BKN210 15/12 A2955 RMK CU2SC3CI1 SLP007

CYHM;2007-11-14 19:00;CYHM 141900Z 26018KT 15SM FEW025 BKN051 BKN220 15/09 A2956 RMK CU1SC4CI2 SLP012

CYHM;2007-11-14 20:00;CYHM 142000Z 26018G26KT 15SM FEW030 SCT054 SCT250 15/07 A2959 RMK SC1SC3CI1 CI TR TCU EMBDD SLP023

CYHM;2007-11-14 21:00;CYHM 142100Z 28010KT 15SM FEW044 FEW140 SCT250 13/03 A2962 RMK SC1AC2CI1 SC TR CC ASOCTD SLP033

CYHM;2007-11-14 22:00;CYHM 142200Z 26005KT 15SM OVC130 12/01 A2963 RMK AC8 SLP036

CYHM;2007-11-14 23:00;CYHM 142300Z 24002KT 15SM OVC130 11/01 A2964 RMK AC8 SLP038

CYHM;2007-11-15 00:00;CYHM 150000Z 21003KT 15SM FEW090 OVC110 11/02 A2964 RMK AC1AC7 SLP040

CYHM;2007-11-15 01:00;CYHM 150100Z 19003KT 15SM BKN100 OVC130 09/04 A2963 RMK AC6AC2 SLP038

CYHM;2007-11-15 02:00;CYHM 150200Z 21005KT 15SM FEW070 BKN080 OVC130 09/04 A2964 RMK AC1AC6AC2 SLP039

CYHM;2007-11-15 03:00;CYHM 150300Z 25016G32KT 15SM FEW036 BKN060 OVC080 12/M02 A2966 RMK SC2SC5AC2 SLP047

CYHM;2007-11-15 03:11;CYHM 150311Z 24016G22KT 15SM -SHRA OVC055 RMK SC8

CYHM;2007-11-15 04:00;CYHM 150400Z 25010G15KT 15SM OVC065 11/M04 A2964 RMK SC8 SLP040

CYHM;2007-11-15 05:00;CYHM 150500Z 29003KT 15SM OVC100 08/00 A2965 RMK AC8 SLP041

CYHM;2007-11-15 06:00;CYHM 150600Z 27004KT 15SM OVC110 08/M00 A2963 RMK AC8 SLP037

CYHM;2007-11-15 07:00;CYHM 150700Z 27005KT 15SM OVC140 07/M00 A2963 RMK AC8 SLP036

CYHM;2007-11-15 08:00;CYHM 150800Z 27005KT 15SM FEW150 BKN220 07/M00 A2963 RMK AC2CI5 SLP035

CYHM;2007-11-15 09:00;CYHM 150900Z 27006KT 15SM BKN190 06/00 A2962 RMK AS6 SLP034

CYHM;2007-11-15 10:00;CYHM 151000Z 27007KT 15SM OVC070 06/00 A2962 RMK AC8 SLP035

CYHM;2007-11-15 11:00;CYHM 151100Z 25005KT 15SM OVC073 05/00 A2963 RMK AC8 SLP036

CYHM;2007-11-15 12:00;CYHM 151200Z 23005KT 15SM BKN070 OVC180 05/00 A2963 RMK AC6AC2 SLP037

CYHM;2007-11-15 13:00;CYHM 151300Z 26006KT 15SM OVC083 05/01 A2963 RMK AC8 SLP039

CYHM;2007-11-15 14:00;CYHM 151400Z 27007KT 15SM FEW025 BKN092 BKN120 05/01 A2964 RMK CU1AC5AC2 CU TR SLP040

CYHM;2007-11-15 15:00;CYHM 151500Z 29012KT 15SM FEW025 SCT080 BKN100 07/02 A2963 RMK CU2AC2AC3 SLP036

CYHM;2007-11-15 16:00;CYHM 151600Z 27012KT 15SM SCT026 BKN051 BKN100 07/03 A2963 RMK CU3SC2AC2 SLP036

CYHM;2007-11-15 17:00;CYHM 151700Z 27010G15KT 15SM SCT017 BKN027 OVC096 06/03 A2962 RMK CU3SC4AC1 SLP033

CYHM;2007-11-15 18:00;CYHM 151800Z 31010KT 15SM BKN047 OVC058 06/02 A2962 RMK SC6SC2 SLP037

CYHM;2007-11-15 18:43;CYHM 151843Z 31012KT 15SM -SHRA FEW018 BKN025 OVC035 RMK CU1SC6SC2

CYHM;2007-11-15 19:00;CYHM 151900Z 29012KT 15SM -SHRA FEW017 BKN022 OVC032 05/03 A2964 RMK CU2SC4SC2 SLP043

CYHM;2007-11-15 20:00;CYHM 152000Z 28010KT 15SM BKN022 OVC068 06/02 A2965 RMK SC6AC2 SLP047

CYHM;2007-11-15 21:00;CYHM 152100Z 27011KT 15SM FEW022 SCT068 BKN093 06/02 A2967 RMK SC2AC1AC3 SLP053

CYHM;2007-11-15 22:00;CYHM 152200Z 28008KT 15SM FEW024 SCT120 BKN250 05/01 A2969 RMK SC1AC2CI1 SLP059

CYHM;2007-11-15 23:00;CYHM 152300Z 30010KT 15SM FEW025 BKN075 BKN110 04/01 A2971 RMK SC1AC4AC2 SLP067

CYHM;2007-11-16 00:00;CYHM 160000Z 31011G16KT 15SM FEW030 FEW110 03/01 A2974 RMK SC1AC2 SLP077

CYHM;2007-11-16 01:00;CYHM 160100Z 29007KT 15SM FEW018 FEW120 03/01 A2977 RMK SC1AC1 SLP088

CYHM;2007-11-16 02:00;CYHM 160200Z 29010KT 15SM FEW087 BKN120 03/M00 A2979 RMK AC1AC6 SLP094

CYHM;2007-11-16 03:00;CYHM 160300Z 30014KT 15SM SCT020 BKN110 03/M00 A2980 RMK CF4AC2 SLP099

CYHM;2007-11-16 04:00;CYHM 160400Z 30014G19KT 15SM FEW020 OVC110 03/M01 A2981 RMK CF2AC6 SLP102

CYHM;2007-11-16 05:00;CYHM 160500Z 29011G16KT 15SM FEW020 BKN110 02/M02 A2982 RMK CF1AC4 SLP104

CYHM;2007-11-16 06:00;CYHM 160600Z 28007KT 15SM FEW030 FEW110 FEW200 01/M03 A2983 RMK CF1AC1CI1 TR CF SLP109

CYHM;2007-11-16 07:00;CYHM 160700Z 30008KT 15SM FEW045 FEW200 01/M03 A2984 RMK SC2CI1 SLP112

CYHM;2007-11-16 08:00;CYHM 160800Z 28007KT 15SM FEW030 BKN050 01/M03 A2985 RMK CF2SC2 SLP115

CYHM;2007-11-16 09:00;CYHM 160900Z 26005KT 15SM FEW027 BKN055 M01/M03 A2986 RMK CF2SC4 SLP120

CYHM;2007-11-16 10:00;CYHM 161000Z 27005KT 15SM FEW030 BKN052 M00/M02 A2987 RMK CF2SC6 SLP122

CYHM;2007-11-16 11:00;CYHM 161100Z 31007KT 15SM BKN045 00/M04 A2987 RMK SC6 SLP124

CYHM;2007-11-16 12:00;CYHM 161200Z 29007KT 15SM FEW030 BKN043 00/M05 A2988 RMK SC2SC5 SLP126

CYHM;2007-11-16 13:00;CYHM 161300Z 32010KT 15SM FEW030 BKN047 BKN100 00/M05 A2989 RMK SC2SC3AC1 SLP131

CYHM;2007-11-16 14:00;CYHM 161400Z 30007KT 15SM FEW020 FEW046 SCT210 01/M05 A2990 RMK CU1SC1CI1 SLP132

CYHM;2007-11-16 15:00;CYHM 161500Z 28009KT 15SM FEW032 BKN057 BKN120 02/M04 A2990 RMK CU2SC2AC1 SLP134

CYHM;2007-11-16 16:00;CYHM 161600Z 29010KT 15SM FEW035 BKN051 BKN120 02/M04 A2990 RMK CU2SC4AC1 SLP132

CYHM;2007-11-16 17:00;CYHM 161700Z 28014KT 15SM BKN033 BKN046 03/M04 A2988 RMK SC6SC2 CU ASOCTD SLP126

CYHM;2007-11-16 18:00;CYHM 161800Z 30012KT 15SM FEW032 OVC045 03/M05 A2987 RMK SC2SC6 CU ASOCTD SLP123

CYHM;2007-11-16 18:43;CYHM 161843Z 29012KT 15SM -SHSN SCT038 OVC044 RMK SC4SC4

CYHM;2007-11-16 19:00;CYHM 161900Z 27012KT 15SM -SHSN BKN035 OVC045 03/M04 A2986 RMK SC5SC3 CU ASOCTD SLP121

CYHM;2007-11-16 20:00;CYHM 162000Z 28008KT 15SM -SHSN FEW032 BKN047 02/M02 A2987 RMK SC1SC6 PCPN VRY LGT SLP122

CYHM;2007-11-16 21:00;CYHM 162100Z 28010KT 15SM -SHSN BKN028 BKN042 02/M03 A2988 RMK SC5SC2 SLP126

CYHM;2007-11-16 22:00;CYHM 162200Z 28007KT 15SM FEW022 SCT038 BKN048 01/M01 A2988 RMK CF2SC2SC3 SLP126

CYHM;2007-11-16 23:00;CYHM 162300Z 28007KT 15SM FEW032 FEW055 01/M03 A2988 RMK SC1SC1 SLP129

CYHM;2007-11-17 00:00;CYHM 170000Z 27005KT 15SM BKN051 00/M02 A2989 RMK SC7 SLP132

CYHM;2007-11-17 01:00;CYHM 170100Z 24005KT 15SM BKN054 M01/M02 A2989 RMK SC7 SLP132

CYHM;2007-11-17 02:00;CYHM 170200Z 25004KT 15SM FEW051 M01/M03 A2990 RMK SC1 SLP133

CYHM;2007-11-17 03:00;CYHM 170300Z 26005KT 15SM FEW051 BKN170 M01/M03 A2990 RMK SC1AC6 SLP134

CYHM;2007-11-17 04:00;CYHM 170400Z 27005KT 15SM FEW033 BKN160 M01/M03 A2991 RMK SC2AC3 SLP138

CYHM;2007-11-17 05:00;CYHM 170500Z 28005KT 15SM FEW030 BKN130 M01/M04 A2992 RMK CF1AC5 SLP142

CYHM;2007-11-17 06:00;CYHM 170600Z 27004KT 15SM BKN170 M01/M04 A2994 RMK AC6 SLP146

CYHM;2007-11-17 07:00;CYHM 170700Z 26004KT 15SM FEW030 BKN170 M01/M04 A2994 RMK SC1AC3 SLP147

CYHM;2007-11-17 08:00;CYHM 170800Z 28003KT 15SM OVC110 M02/M04 A2996 RMK AC8 SLP153

CYHM;2007-11-17 09:00;CYHM 170900Z 01002KT 15SM FEW065 OVC100 M02/M04 A2996 RMK SC2AC6 SLP155

CYHM;2007-11-17 10:00;CYHM 171000Z 35002KT 15SM FEW065 OVC090 M02/M04 A2997 RMK SC1AC7 SLP158

CYHM;2007-11-17 11:00;CYHM 171100Z 05002KT 15SM OVC065 M01/M05 A2996 RMK SC8 SLP156

CYHM;2007-11-17 12:00;CYHM 171200Z 07003KT 15SM OVC074 M01/M04 A2997 RMK AC8 SLP159

CYHM;2007-11-17 13:00;CYHM 171300Z 08004KT 15SM OVC052 M01/M04 A2997 RMK SC8 SLP161

CYHM;2007-11-17 13:47;CYHM 171347Z 00000KT 12SM -SHSN OVC045 RMK SC8

CYHM;2007-11-17 14:00;CYHM 171400Z 00000KT 15SM -SHSN BKN045 OVC065 M01/M04 A3000 RMK SC5SC3 PCPN VRY LGT SLP168

CYHM;2007-11-17 15:00;CYHM 171500Z 03004KT 15SM -SHSN BKN061 OVC080 01/M03 A3000 RMK SC7AC1 PCPN VRY LGT SLP170

CYHM;2007-11-17 15:28;CYHM 171528Z 05004KT 15SM OVC062 RMK SC8

CYHM;2007-11-17 16:00;CYHM 171600Z 07004KT 15SM OVC062 02/M04 A3002 RMK SC8 SLP175

CYHM;2007-11-17 17:00;CYHM 171700Z 10006KT 15SM OVC042 02/M04 A3001 RMK SC8 SLP173

CYHM;2007-11-17 18:00;CYHM 171800Z 08008KT 15SM BKN037 OVC048 01/M04 A3001 RMK SC6SC2 SLP172

CYHM;2007-11-17 19:00;CYHM 171900Z 06008KT 15SM BKN037 OVC062 02/M04 A3000 RMK SC7SC1 SLP170

CYHM;2007-11-17 20:00;CYHM 172000Z 07009KT 15SM BKN036 OVC057 01/M04 A3001 RMK SC6SC2 SLP174

CYHM;2007-11-17 20:40;CYHM 172040Z 06010KT 7SM -SHSN OVC037 RMK SC8

CYHM;2007-11-17 20:50;CYHM 172050Z 06009KT 2 1/2SM -SHSN OVC030 RMK SN1SC7

CYHM;2007-11-17 21:00;CYHM 172100Z 07008KT 1 1/2SM -SN VV015 00/M02 A3003 RMK SN8 SLP178

CYHM;2007-11-17 21:23;CYHM 172123Z 07007KT 2SM -SHSN SCT025 OVC038 RMK SN1SC2SC5

CYHM;2007-11-17 21:34;CYHM 172134Z 07006KT 3SM -SHSN FEW026 OVC039 RMK SC2SC6

CYHM;2007-11-17 22:00;CYHM 172200Z 07005KT 4SM -SHSN FEW025 OVC040 M00/M01 A3004 RMK SC2SC6 SLP183

CYHM;2007-11-17 23:00;CYHM 172300Z 10004KT 9SM -SHSN FEW020 SCT041 OVC064 M00/M01 A3007 RMK CF1SC3SC4 PCPN VRY LGT SLP191

CYHM;2007-11-17 23:20;CYHM 172320Z 10004KT 12SM FEW022 SCT044 OVC061 RMK CF1SC3SC4

CYHM;2007-11-18 00:00;CYHM 180000Z 08003KT 15SM FEW022 SCT045 OVC067 M00/M01 A3009 RMK SC1SC3AC3 SLP199

CYHM;2007-11-18 01:00;CYHM 180100Z 06003KT 15SM FEW022 SCT057 OVC069 M00/M01 A3010 RMK SC1SC3AC4 SLP205

CYHM;2007-11-18 02:00;CYHM 180200Z 08003KT 15SM SCT055 OVC075 M01/M01 A3013 RMK SC3AC5 SLP213

CYHM;2007-11-18 03:00;CYHM 180300Z 05004KT 15SM BKN070 M01/M02 A3014 RMK AC7 SLP217

CYHM;2007-11-18 04:00;CYHM 180400Z 03005KT 10SM FEW040 SCT080 BKN250 M01/M03 A3015 RMK SC1AC2CI1 SLP220

CYHM;2007-11-18 05:00;CYHM 180500Z 02007KT 15SM FEW040 FEW200 M01/M04 A3016 RMK SC1CI1 TR SC SLP222

CYHM;2007-11-18 06:00;CYHM 180600Z 03010KT 15SM FEW035 FEW200 M01/M05 A3017 RMK SC1CI1 SLP225

CYHM;2007-11-18 07:00;CYHM 180700Z 03009KT 15SM FEW200 M01/M05 A3018 RMK CI1 SLP230

CYHM;2007-11-18 08:00;CYHM 180800Z 02007KT 15SM FEW200 M02/M05 A3021 RMK CI1 SLP239

CYHM;2007-11-18 09:00;CYHM 180900Z 02007KT 15SM FEW080 M03/M06 A3023 RMK AC1 SLP247

CYHM;2007-11-18 10:00;CYHM 181000Z 03010KT 15SM FEW080 FEW200 M03/M07 A3024 RMK AC1CI0 SLP252

CYHM;2007-11-18 11:00;CYHM 181100Z 02009KT 15SM FEW080 FEW200 M03/M07 A3026 RMK AC1CI1 SLP258

CYHM;2007-11-18 12:00;CYHM 181200Z 02011KT 15SM BKN026 M02/M05 A3028 RMK SC6 SLP265

CYHM;2007-11-18 13:00;CYHM 181300Z 04010KT 15SM FEW014 BKN021 BKN080 M02/M04 A3031 RMK CF1SC6AC1 AC TR SLP276

CYHM;2007-11-18 14:00;CYHM 181400Z 03012KT 15SM -SHSN SCT012 BKN021 M02/M05 A3033 RMK CF4SC3 SLP283

CYHM;2007-11-18 14:35;CYHM 181435Z 03009KT 15SM -SHSN BKN010 BKN019 RMK SC6SC2

CYHM;2007-11-18 15:00;CYHM 181500Z 02011KT 15SM -SHSN BKN011 M01/M04 A3035 RMK SC7 SLP288

CYHM;2007-11-18 16:00;CYHM 181600Z 04014KT 15SM -SHSN BKN011 01/M01 A3036 RMK SC7 PCPN VRY LGT SLP292

CYHM;2007-11-18 16:38;CYHM 181638Z 04013KT 15SM BKN011 RMK SC7

CYHM;2007-11-18 17:00;CYHM 181700Z 05012KT 15SM BKN012 01/M01 A3036 RMK SC7 SLP291

CYHM;2007-11-18 18:00;CYHM 181800Z 04015KT 15SM BKN012 01/M01 A3035 RMK SC7 SLP289

CYHM;2007-11-18 18:04;CYHM 181804Z 04012G19KT 15SM BKN012 RMK SC7

CYHM;2007-11-18 19:00;CYHM 181900Z 05016KT 15SM -SHSN BKN014 02/M01 A3034 RMK SC7 PCPN VRY LGT SLP285

CYHM;2007-11-18 20:00;CYHM 182000Z 04015G20KT 15SM BKN016 BKN027 02/M01 A3034 RMK SC6SC2 SLP284

CYHM;2007-11-18 21:00;CYHM 182100Z 05015KT 15SM BKN016 02/M01 A3035 RMK SC6 SLP288

CYHM;2007-11-18 22:00;CYHM 182200Z 05014KT 15SM FEW017 FEW030 02/M01 A3036 RMK SC2SC1 SLP290

CYHM;2007-11-18 23:00;CYHM 182300Z 06012KT 15SM FEW017 FEW030 01/M01 A3037 RMK SC1SC1 SLP295

CYHM;2007-11-19 00:00;CYHM 190000Z 06010KT 15SM FEW020 00/M03 A3039 RMK SC2 SLP301

CYHM;2007-11-19 01:00;CYHM 190100Z 08007KT 15SM SCT023 00/M03 A3039 RMK SC3 SLP302

CYHM;2007-11-19 02:00;CYHM 190200Z 08008KT 15SM FEW023 M01/M03 A3038 RMK SC2 SLP300

CYHM;2007-11-19 03:00;CYHM 190300Z 07007KT 15SM FEW023 FEW080 M02/M04 A3039 RMK SC1AC2 SLP301

CYHM;2007-11-19 04:00;CYHM 190400Z 07008KT 15SM BKN041 OVC060 00/M04 A3038 RMK SC6SC2 SLP299

CYHM;2007-11-19 05:00;CYHM 190500Z 07007KT 15SM SCT042 OVC060 01/M04 A3037 RMK SC3SC5 SLP296

CYHM;2007-11-19 06:00;CYHM 190600Z 07006KT 15SM BKN042 OVC059 01/M04 A3036 RMK SC7SC1 SLP290

CYHM;2007-11-19 07:00;CYHM 190700Z 08005KT 15SM OVC043 01/M04 A3036 RMK SC8 SLP291

CYHM;2007-11-19 08:00;CYHM 190800Z 06005KT 15SM SCT024 BKN042 M00/M05 A3034 RMK CF4SC2 SLP284

CYHM;2007-11-19 09:00;CYHM 190900Z 08002KT 15SM OVC023 00/M04 A3035 RMK SC8 SLP286

CYHM;2007-11-19 10:00;CYHM 191000Z 04005KT 15SM OVC023 00/M04 A3033 RMK SC8 SLP280

CYHM;2007-11-19 13:00;CYHM 191300Z 05005KT 15SM BKN028 00/M02 A3033 RMK SC7 SLP281

CYHM;2007-11-19 14:00;CYHM 191400Z 07006KT 15SM BKN025 01/M01 A3031 RMK SC7 SLP276

CYHM;2007-11-19 15:00;CYHM 191500Z 09005KT 15SM OVC024 01/M01 A3030 RMK SC8 SLP273

CYHM;2007-11-19 16:00;CYHM 191600Z 12006KT 15SM OVC025 03/M00 A3029 RMK SC8 SLP269

CYHM;2007-11-19 17:00;CYHM 191700Z 13004KT 15SM OVC022 03/00 A3026 RMK SC8 SLP259

CYHM;2007-11-19 18:00;CYHM 191800Z 18008KT 15SM OVC021 04/01 A3024 RMK SC8 SLP249

CYHM;2007-11-19 19:00;CYHM 191900Z 19013KT 15SM OVC023 05/00 A3020 RMK SC8 SLP237

CYHM;2007-11-19 20:00;CYHM 192000Z 17009KT 12SM OVC022 05/01 A3018 RMK SC8 SLP230

CYHM;2007-11-19 20:54;CYHM 192054Z 15005KT 8SM -SHRA FEW024 OVC060 RMK SC2SC6

CYHM;2007-11-19 21:00;CYHM 192100Z 15005KT 8SM -SHRA FEW024 OVC060 04/02 A3017 RMK SC2SC6 SLP227

CYHM;2007-11-19 22:00;CYHM 192200Z 16006KT 6SM -SHRA BR BKN046 BKN056 OVC073 04/02 A3015 RMK SC5SC2AS1 SLP219

CYHM;2007-11-19 23:00;CYHM 192300Z 14006KT 10SM -SHRA OVC055 04/02 A3012 RMK SC8 SLP209

CYHM;2007-11-20 00:00;CYHM 200000Z 13007KT 12SM -SHRA BKN043 OVC078 04/03 A3009 RMK SC6AC2 SLP199

CYHM;2007-11-20 01:00;CYHM 200100Z 14005KT 10SM -RA BKN044 OVC065 04/03 A3007 RMK SC6SC2 SLP192

CYHM;2007-11-20 02:00;CYHM 200200Z 16008KT 15SM FEW044 OVC120 05/03 A3002 RMK SC2AS6 SLP175

CYHM;2007-11-20 03:00;CYHM 200300Z 19011KT 15SM OVC022 06/04 A3000 RMK SC8 SLP165

CYHM;2007-11-20 04:00;CYHM 200400Z 18012G18KT 15SM OVC018 07/04 A2995 RMK SC8 SLP151

CYHM;2007-11-20 05:00;CYHM 200500Z 18013KT 15SM OVC020 07/05 A2992 RMK SC8 SLP139

CYHM;2007-11-20 06:00;CYHM 200600Z 20010KT 6SM -SHRA BR FEW009 OVC012 07/07 A2989 RMK SF1SC7 SLP129

CYHM;2007-11-20 07:00;CYHM 200700Z 21014G20KT 6SM -SHRA BR OVC009 08/08 A2985 RMK SC8 SLP116

CYHM;2007-11-20 08:00;CYHM 200800Z 21012KT 5SM -SHRA BR OVC009 09/08 A2984 RMK SC8 SLP110

CYHM;2007-11-20 09:00;CYHM 200900Z 21008KT 1 3/4SM -RA BR OVC003 09/09 A2983 RMK SF8 SLP108

CYHM;2007-11-20 09:24;CYHM 200924Z 21009KT 1SM -RA BR OVC003 RMK SF8

CYHM;2007-11-20 10:00;CYHM 201000Z 22007KT 1SM -DZ BR OVC003 10/10 A2983 RMK SF8 SLP107

CYHM;2007-11-20 10:38;CYHM 201038Z 24008KT 2SM -DZ BR OVC005 RMK SF8

CYHM;2007-11-20 11:00;CYHM 201100Z 24010KT 4SM BR OVC006 12/12 A2984 RMK SF8 SLP112

CYHM;2007-11-20 11:41;CYHM 201141Z CCA 26009KT 3SM -SHRA BR SCT007 BKN013 OVC035 RMK SF3SC3SC2

CYHM;2007-11-20 12:00;CYHM 201200Z 29009KT 4SM -SHRA BR SCT007 BKN014 OVC032 12/12 A2988 RMK SF3SC2SC2 SLP123

CYHM;2007-11-20 13:00;CYHM 201300Z 30008KT 5SM BR FEW011 OVC031 11/10 A2992 RMK SF2SC6 SLP137

CYHM;2007-11-20 14:00;CYHM 201400Z 32006KT 6SM BR SCT020 OVC029 10/08 A2996 RMK SC3SC5 SLP151

CYHM;2007-11-20 15:00;CYHM 201500Z 30006KT 6SM BR SCT016 OVC022 09/08 A2999 RMK SC3SC5 SLP160

CYHM;2007-11-20 16:00;CYHM 201600Z 32007KT 8SM SCT018 BKN025 BKN220 09/07 A3000 RMK CU3SC2CI1 SLP164

CYHM;2007-11-20 17:00;CYHM 201700Z 30007KT 15SM FEW024 SCT035 BKN220 10/06 A3001 RMK CU2SC2CI1 SLP166

CYHM;2007-11-20 18:00;CYHM 201800Z 30006KT 15SM FEW025 FEW035 SCT210 11/05 A3001 RMK CU1SC1CI2 SLP167

CYHM;2007-11-20 19:00;CYHM 201900Z 32006KT 15SM FEW032 FEW160 BKN210 10/05 A3000 RMK CU1AC2CI2 SLP164

CYHM;2007-11-20 20:00;CYHM 202000Z 33006KT 15SM FEW026 BKN110 OVC200 10/04 A3002 RMK CF1AC6CS1 SUN DMLY VSBL CUFRA SLP169

CYHM;2007-11-20 21:00;CYHM 202100Z 35002KT 15SM FEW110 FEW190 BKN210 10/04 A3003 RMK AC1AS1CS5 CONTRAILS 1ST LYR TR SLP172

CYHM;2007-11-20 22:00;CYHM 202200Z 00000KT 15SM BKN180 BKN250 08/03 A3004 RMK AC5CS1 SLP176

CYHM;2007-11-20 23:00;CYHM 202300Z 09002KT 15SM BKN047 BKN190 BKN250 07/03 A3003 RMK SC5AC1CI1 AC TR SLP173

CYHM;2007-11-21 00:00;CYHM 210000Z 06005KT 15SM OVC050 07/03 A3004 RMK SC8 SLP178

CYHM;2007-11-21 01:00;CYHM 210100Z 07008KT 15SM BKN060 OVC088 07/02 A3001 RMK SC6AC2 SLP167

CYHM;2007-11-21 02:00;CYHM 210200Z 06007KT 15SM OVC047 07/02 A3002 RMK SC8 SLP170

CYHM;2007-11-21 03:00;CYHM 210300Z 06008KT 15SM OVC030 06/03 A2999 RMK SC8 SLP162

CYHM;2007-11-21 04:00;CYHM 210400Z 07012KT 15SM -SHRA OVC024 06/04 A2997 RMK SC8 SLP153

CYHM;2007-11-21 05:00;CYHM 210500Z 05010KT 15SM -SHRA OVC015 05/04 A2996 RMK SC8 SLP150

CYHM;2007-11-21 06:00;CYHM 210600Z 04012KT 6SM -SHRA BR OVC014 05/04 A2995 RMK SC8 SLP146

CYHM;2007-11-21 07:00;CYHM 210700Z 06013KT 5SM -SHRA BR BKN004 OVC012 05/05 A2993 RMK SC6SC2 SF ASOCTD SLP139

CYHM;2007-11-21 08:00;CYHM 210800Z 06014KT 1/2SM -SHRA FG OVC002 05/05 A2991 RMK FG3SF5 SLP134

CYHM;2007-11-21 09:00;CYHM 210900Z 06014KT 3/8SM -SHRA FG OVC002 05/05 A2990 RMK FG3SF5 SLP131

CYHM;2007-11-21 10:00;CYHM 211000Z 06013KT 1/2SM -SHRA FG VV002 05/05 A2989 RMK FG8 SLP126

CYHM;2007-11-21 11:00;CYHM 211100Z 05012G19KT 1/2SM -SHRA FG VV002 04/04 A2988 RMK FG8 SLP125

CYHM;2007-11-21 12:00;CYHM 211200Z 05014KT 1SM -SHRA BR OVC002 04/04 A2987 RMK FG3SF5 SLP121

CYHM;2007-11-21 12:33;CYHM 211233Z 05015KT 1 1/2SM -SHRA BR OVC003 RMK FG2SF6

CYHM;2007-11-21 13:00;CYHM 211300Z 05018G25KT 1 1/2SM -SHRA BR OVC003 04/04 A2988 RMK FG2SF6 SLP125

CYHM;2007-11-21 13:19;CYHM 211319Z 04015G20KT 1SM -SHRA BR OVC004 RMK FG3SF5

CYHM;2007-11-21 14:00;CYHM 211400Z 05015KT 1 1/2SM -SHRA BR BKN004 OVC015 04/04 A2988 RMK FG2SF5SC2 SLP124

CYHM;2007-11-21 14:18;CYHM 211418Z 04014KT 4SM -RA BR BKN005 OVC015 RMK SF6SC2

CYHM;2007-11-21 15:00;CYHM 211500Z CCA 04012G18KT 3SM RA BR BKN004 OVC017 04/04 A2988 RMK SF6SC2 SLP126

CYHM;2007-11-21 16:00;CYHM 211600Z 05016KT 5SM -RA BR BKN005 OVC018 04/04 A2989 RMK SF6SC2 SLP128

CYHM;2007-11-21 17:00;CYHM 211700Z 05012G17KT 3SM -RA BR BKN002 OVC015 04/04 A2987 RMK SF6SC2 SLP122

CYHM;2007-11-21 18:00;CYHM 211800Z 05016KT 3SM -RA BR OVC003 04/04 A2984 RMK SF8 SLP112

CYHM;2007-11-21 18:21;CYHM 211821Z 04018KT 1 1/2SM -RA BR OVC005 RMK FG2SF6

CYHM;2007-11-21 18:44;CYHM 211844Z 05016KT 3SM -RA BR BKN005 OVC015 RMK SF5SC3

CYHM;2007-11-21 19:00;CYHM 211900Z 05018KT 3SM -RA BR SCT005 BKN008 OVC022 04/04 A2983 RMK SF3SC4SC1 SLP109

CYHM;2007-11-21 19:44;CYHM 211944Z 05015G22KT 2 1/2SM -RA BR BKN004 OVC008 RMK SF5SF3

CYHM;2007-11-21 20:00;CYHM 212000Z 05014G20KT 2 1/2SM -RA BR BKN004 OVC008 04/04 A2984 RMK SF6SF2 SLP113

CYHM;2007-11-21 21:00;CYHM 212100Z 05014G20KT 2 1/2SM -RA BR BKN004 OVC010 04/04 A2985 RMK SF6SF2 SLP115

CYHM;2007-11-21 22:00;CYHM 212200Z 04015G24KT 3SM -RA BR BKN004 OVC008 04/03 A2985 RMK SF6SF2 SLP116

CYHM;2007-11-21 22:39;CYHM 212239Z 04015G22KT 2 1/2SM -RA BR BKN004 OVC008 RMK SF6SF2

CYHM;2007-11-21 22:55;CYHM 212255Z 04015G24KT 5SM -RA BR BKN004 OVC008 RMK SF6SF2

CYHM;2007-11-21 23:00;CYHM 212300Z 04015G24KT 5SM -RA BR BKN004 OVC008 03/03 A2986 RMK SF6SF2 SLP118

CYHM;2007-11-22 00:00;CYHM 220000Z 05015G26KT 4SM -RA BR OVC004 03/03 A2987 RMK SF8 SLP121

CYHM;2007-11-22 01:00;CYHM 220100Z 05018G28KT 6SM -RA BR OVC004 03/02 A2985 RMK SF8 SLP117

CYHM;2007-11-22 02:00;CYHM 220200Z 05024G30KT 6SM -RA BR BKN006 OVC014 03/02 A2985 RMK SF6SF2 SLP115

CYHM;2007-11-22 03:00;CYHM 220300Z 05022G32KT 6SM -RA BR BKN006 OVC014 02/02 A2984 RMK SF6SF2 SLP111

CYHM;2007-11-22 04:00;CYHM 220400Z 05018G28KT 5SM -RA BR OVC005 02/02 A2983 RMK SF8 SLP108

CYHM;2007-11-22 05:00;CYHM 220500Z 05024G32KT 5SM -RA BR OVC006 02/02 A2984 RMK SF8 SLP111

CYHM;2007-11-22 06:00;CYHM 220600Z 06025G32KT 5SM -RA BR OVC005 02/02 A2979 RMK SF8 SLP096

CYHM;2007-11-22 07:00;CYHM 220700Z 05020G30KT 5SM -RA BR OVC008 02/01 A2978 RMK SF8 SLP094

CYHM;2007-11-22 08:00;CYHM 220800Z 06023G37KT 6SM -RA BR OVC003 02/01 A2975 RMK SF8 SLP083

CYHM;2007-11-22 08:18;CYHM 220818Z 05022G31KT 8SM -RA OVC005 RMK SF8

CYHM;2007-11-22 09:00;CYHM 220900Z 05020G28KT 10SM -RA OVC005 01/01 A2972 RMK SF8 SLP071

CYHM;2007-11-22 09:35;CYHM 220935Z 05018G28KT 2SM -PL BR OVC007 RMK FG1SF7

CYHM;2007-11-22 10:00;CYHM 221000Z 05020G29KT 1 1/2SM -SNPL BR OVC004 00/M00 A2971 RMK FG2SF6 VIS VRB 1 - 2 SLP069

CYHM;2007-11-22 11:00;CYHM 221100Z 04018G28KT 1SM -SNPL BR OVC007 M00/M01 A2971 RMK FG2SF6 VIS VRB 3/4 - 11/4 SLP067

CYHM;2007-11-22 11:34;CYHM 221134Z 04020G25KT 1 1/2SM -SNPL BR BKN006 OVC010 RMK FG1SF6SC1

CYHM;2007-11-22 12:00;CYHM 221200Z 04022G28KT 1 3/4SM -SNPL BR BKN006 OVC014 M01/M02 A2967 RMK FG1SF6SC2 SLP055

CYHM;2007-11-22 12:30;CYHM 221230Z 01012G20KT 1 1/2SM -SNPL BR BKN009 OVC018 RMK FG1SF6SC2

CYHM;2007-11-22 12:53;CYHM 221253Z 02020KT 2 1/2SM -SN BR BKN009 OVC014 RMK SF5SC3

CYHM;2007-11-22 13:00;CYHM 221300Z 02020KT 4SM -SN BR BKN008 OVC016 M02/M03 A2974 RMK SF6SC2 SLP078

CYHM;2007-11-22 13:27;CYHM 221327Z 03020G26KT 1 1/2SM -SN BR BKN008 OVC015 RMK FG1SF5SC2

CYHM;2007-11-22 13:44;CYHM 221344Z 03020G26KT 3SM -SN BR BKN008 OVC014 RMK SF6SC2

CYHM;2007-11-22 14:00;CYHM 221400Z 03020G26KT 6SM -SN BR BKN010 OVC032 M02/M03 A2972 RMK SC5SC3 SLP073

CYHM;2007-11-22 14:44;CYHM 221444Z 01020G27KT 1SM -SN BR BKN008 OVC013 RMK FG2SF6SC1

CYHM;2007-11-22 14:52;CYHM 221452Z 02020G26KT 3/4SM -SN BR BKN008 OVC015 RMK FG2SF5SC2

CYHM;2007-11-22 15:00;CYHM 221500Z 02015G20KT 3/4SM -SN BR BKN008 OVC017 M02/M04 A2978 RMK FG2SF4SC2 SLP095

CYHM;2007-11-22 16:00;CYHM 221600Z 02016G22KT 1SM -SN BR BKN009 OVC023 M03/M05 A2983 RMK SC6SC2 SLP110

CYHM;2007-11-22 16:08;CYHM 221608Z 36012G18KT 1 1/2SM -SN BR BKN008 OVC023 RMK FG1SF5SC2

CYHM;2007-11-22 17:00;CYHM 221700Z 01012KT 1 3/4SM -SN BR BKN012 OVC024 M03/M05 A2986 RMK FG1SC5SC2 SLP121

CYHM;2007-11-22 18:00;CYHM 221800Z CCB 32010KT 7SM -SN BKN016 OVC024 M03/M05 A2988 RMK SC6SC2 SLP129

CYHM;2007-11-22 19:00;CYHM 221900Z CCA 32008KT 15SM -SN SCT018 OVC022 M03/M05 A2992 RMK SC3SC5 SLP141

CYHM;2007-11-22 20:00;CYHM 222000Z 34007KT 15SM -SN FEW020 OVC028 M03/M06 A2996 RMK SC2SC6 SLP156

CYHM;2007-11-22 21:00;CYHM 222100Z 32005KT 15SM -SN BKN021 OVC031 M02/M05 A3000 RMK SC6SC2 SLP170

CYHM;2007-11-22 22:00;CYHM 222200Z 31005KT 15SM -SN FEW020 BKN031 BKN086 M02/M05 A3004 RMK SC2SC5AC1 SLP181

CYHM;2007-11-22 22:39;CYHM 222239Z 31004KT 15SM FEW031 FEW086 RMK SC1AC1

CYHM;2007-11-22 23:00;CYHM 222300Z 31004KT 15SM BKN028 BKN086 M04/M06 A3006 RMK SC6AC1 SLP188

CYHM;2007-11-23 00:00;CYHM 230000Z 32008KT 15SM BKN024 M03/M05 A3008 RMK SC7 SLP198

CYHM;2007-11-23 01:00;CYHM 230100Z 32006KT 15SM OVC022 M03/M06 A3010 RMK SC8 SLP205

CYHM;2007-11-23 02:00;CYHM 230200Z 33010KT 15SM FEW021 BKN029 M03/M07 A3013 RMK SC2SC5 SLP214

CYHM;2007-11-23 03:00;CYHM 230300Z 31007KT 15SM BKN023 M05/M08 A3014 RMK SC7 SLP220

CYHM;2007-11-23 04:00;CYHM 230400Z 30005KT 15SM FEW020 FEW210 M06/M08 A3017 RMK SC1CI1 SLP227

CYHM;2007-11-23 05:00;CYHM 230500Z 29004KT 15SM FEW020 FEW190 M06/M08 A3017 RMK CF1AC1 TR CF SLP230

CYHM;2007-11-23 06:00;CYHM 230600Z 29005KT 15SM FEW020 FEW200 M07/M08 A3018 RMK CF1CI1 TR CF SLP234

CYHM;2007-11-23 07:00;CYHM 230700Z 29004KT 15SM SKC M07/M08 A3018 RMK SLP232

CYHM;2007-11-23 08:00;CYHM 230800Z 28005KT 15SM FEW200 M08/M09 A3019 RMK CI1 SLP236

CYHM;2007-11-23 09:00;CYHM 230900Z 29005KT 15SM SKC M08/M09 A3020 RMK SLP240

CYHM;2007-11-23 10:00;CYHM 231000Z 29004KT 15SM SKC M08/M09 A3020 RMK SLP242

CYHM;2007-11-23 11:00;CYHM 231100Z 30003KT 15SM SKC M09/M10 A3021 RMK FROIN SLP244

CYHM;2007-11-23 12:00;CYHM 231200Z 27005KT 15SM FEW035 M10/M11 A3023 RMK SC1 SC TR SLP253

CYHM;2007-11-23 13:00;CYHM 231300Z 26004KT 15SM FEW035 M09/M10 A3026 RMK SC1 SLP262

CYHM;2007-11-23 14:00;CYHM 231400Z 26006KT 15SM FEW025 M08/M09 A3027 RMK CU1 CU TR SLP266

CYHM;2007-11-23 15:00;CYHM 231500Z 27006KT 15SM FEW025 M06/M08 A3028 RMK CU1 SLP268

CYHM;2007-11-23 16:00;CYHM 231600Z 28007KT 15SM FEW025 M04/M09 A3029 RMK CU1 SLP270

CYHM;2007-11-23 17:00;CYHM 231700Z 32007KT 15SM FEW025 M03/M09 A3028 RMK CU2 SLP268

CYHM;2007-11-23 18:00;CYHM 231800Z 30007KT 15SM FEW025 M02/M09 A3028 RMK CU1 SLP267

CYHM;2007-11-23 19:00;CYHM 231900Z 30010KT 15SM FEW026 M02/M08 A3028 RMK CU1 SLP267

CYHM;2007-11-23 20:00;CYHM 232000Z 31007KT 15SM FEW030 M02/M09 A3029 RMK CU1 SLP271

CYHM;2007-11-23 21:00;CYHM 232100Z 31008KT 15SM FEW036 M02/M09 A3030 RMK CU1 SLP276

CYHM;2007-11-23 22:00;CYHM 232200Z 29004KT 15SM FEW030 M04/M09 A3031 RMK SC1 SLP279

CYHM;2007-11-23 23:00;CYHM 232300Z 28004KT 15SM FEW030 M04/M09 A3034 RMK SC1 SLP287

CYHM;2007-11-24 00:00;CYHM 240000Z 25003KT 15SM FEW030 M05/M09 A3035 RMK SC1 SLP292

CYHM;2007-11-24 01:00;CYHM 240100Z 27002KT 15SM SKC M06/M09 A3035 RMK SLP292

CYHM;2007-11-24 02:00;CYHM 240200Z 23003KT 15SM SKC M07/M09 A3036 RMK SLP297

CYHM;2007-11-24 03:00;CYHM 240300Z 21002KT 15SM FEW210 M07/M09 A3036 RMK CI1 SLP294

CYHM;2007-11-24 04:00;CYHM 240400Z 23003KT 15SM FEW210 M08/M09 A3037 RMK CI1 SLP298

CYHM;2007-11-24 05:00;CYHM 240500Z 23003KT 15SM FEW210 M08/M10 A3036 RMK CI1 SLP297

CYHM;2007-11-24 06:00;CYHM 240600Z 22003KT 15SM FEW200 M08/M09 A3036 RMK CI1 SLP295

CYHM;2007-11-24 07:00;CYHM 240700Z 22003KT 15SM FEW200 M08/M09 A3036 RMK CI1 SLP297

CYHM;2007-11-24 08:00;CYHM 240800Z 19002KT 15SM BKN220 M08/M09 A3037 RMK CI4 SLP298

CYHM;2007-11-24 09:00;CYHM 240900Z 17003KT 15SM FEW050 BKN220 M08/M10 A3036 RMK SC2CI2 FROIN SLP294

CYHM;2007-11-24 10:00;CYHM 241000Z 19003KT 15SM BKN048 BKN200 M08/M09 A3036 RMK SC5CI1 FROIN SLP295

CYHM;2007-11-24 11:00;CYHM 241100Z 19004KT 15SM FEW047 SCT200 M08/M09 A3036 RMK SC1CI2 SLP294

CYHM;2007-11-24 12:00;CYHM 241200Z 19005KT 15SM SCT041 BKN210 M06/M09 A3036 RMK SC4CI0 SLP295

CYHM;2007-11-24 13:00;CYHM 241300Z 17005KT 15SM BKN036 BKN210 M05/M09 A3035 RMK SC6CI1 SLP291

CYHM;2007-11-24 14:00;CYHM 241400Z 17006KT 15SM FEW036 BKN220 M03/M07 A3034 RMK SC1CI4 SLP288

CYHM;2007-11-24 15:00;CYHM 241500Z 20006KT 15SM FEW036 FEW120 OVC230 M01/M06 A3033 RMK SC1AC2CS5 SLP286

CYHM;2007-11-24 16:00;CYHM 241600Z 21009KT 15SM FEW038 BKN052 OVC230 M01/M05 A3032 RMK SC2SC5CS2 SLP282

CYHM;2007-11-24 17:00;CYHM 241700Z 22010KT 15SM BKN032 OVC230 M01/M04 A3029 RMK SC7CS1 SLP271

CYHM;2007-11-24 17:12;CYHM 241712Z 21012KT 12SM -SHSN BKN029 OVC230 RMK SC7CS1

CYHM;2007-11-24 18:00;CYHM 241800Z 21009KT 15SM -SHSN FEW011 BKN033 OVC230 M00/M02 A3025 RMK CF1SC6CS2 SLP258

CYHM;2007-11-24 19:00;CYHM 241900Z 22011KT 15SM BKN028 BKN048 OVC230 00/M02 A3022 RMK SC6SC2CS1 SLP246

CYHM;2007-11-24 20:00;CYHM 242000Z 22009KT 12SM -SHSN BKN022 OVC030 00/M02 A3019 RMK SC6SC2 PCPN VRY LGT SLP238

CYHM;2007-11-24 21:00;CYHM 242100Z 21007KT 12SM SCT022 BKN032 BKN045 OVC110 00/M02 A3018 RMK SC4SC2SC2AC1 SLP233

CYHM;2007-11-24 22:00;CYHM 242200Z 22007KT 15SM BKN033 OVC100 00/M02 A3019 RMK SC6AC2 SLP235

CYHM;2007-11-24 23:00;CYHM 242300Z 22007KT 15SM SCT033 BKN110 OVC220 M00/M02 A3018 RMK SC3AC2CI2 SLP232

CYHM;2007-11-25 00:00;CYHM 250000Z 22009KT 15SM FEW033 FEW110 SCT220 M01/M03 A3017 RMK SC1AC2CI1 SLP228

CYHM;2007-11-25 01:00;CYHM 250100Z 21009KT 15SM FEW033 M00/M03 A3017 RMK SC2 SLP230

CYHM;2007-11-25 02:00;CYHM 250200Z 22006KT 15SM SCT031 M01/M03 A3017 RMK SC3 SLP229

CYHM;2007-11-25 03:00;CYHM 250300Z 22005KT 15SM SCT027 BKN038 M01/M03 A3017 RMK SC4SC2 SLP228

CYHM;2007-11-25 04:00;CYHM 250400Z 24007KT 15SM FEW023 FEW060 M00/M03 A3016 RMK CF1SC1 SLP223

CYHM;2007-11-25 05:00;CYHM 250500Z 24007KT 15SM FEW050 M00/M04 A3017 RMK SC2 SLP226

CYHM;2007-11-25 06:00;CYHM 250600Z 24011KT 15SM FEW050 00/M04 A3016 RMK SC1 SLP224

CYHM;2007-11-25 07:00;CYHM 250700Z 24011KT 15SM SCT220 M00/M04 A3017 RMK CI3 SLP227

CYHM;2007-11-25 08:00;CYHM 250800Z 24010KT 15SM FEW220 M01/M04 A3018 RMK CI2 SLP231

CYHM;2007-11-25 09:00;CYHM 250900Z 24009KT 15SM FEW220 M01/M05 A3017 RMK CI2 SLP229

CYHM;2007-11-25 10:00;CYHM 251000Z 24009KT 15SM SCT220 M01/M05 A3019 RMK CI2 SLP233

CYHM;2007-11-25 12:00;CYHM 251200Z 23010KT 15SM FEW030 FEW220 M02/M04 A3019 RMK SC1CI1 SLP235

CYHM;2007-11-25 13:00;CYHM 251300Z 22008KT 15SM FEW220 M02/M04 A3020 RMK CI1 SLP236

CYHM;2007-11-25 14:00;CYHM 251400Z 23011KT 15SM FEW250 M01/M03 A3019 RMK CI2 CONTRAILS SLP234

CYHM;2007-11-25 15:00;CYHM 251500Z 23014KT 15SM FEW250 01/M03 A3020 RMK CI2 SLP235

CYHM;2007-11-25 16:00;CYHM 251600Z 24016G21KT 15SM FEW030 FEW250 03/M02 A3019 RMK SC1CI0 SLP232

CYHM;2007-11-25 17:00;CYHM 251700Z 24017KT 15SM FEW030 03/M03 A3016 RMK SC1 SLP222

CYHM;2007-11-25 18:00;CYHM 251800Z 24014KT 15SM FEW030 04/M02 A3014 RMK SC1 SLP214

CYHM;2007-11-25 19:00;CYHM 251900Z 23014KT 15SM FEW030 FEW160 05/M03 A3012 RMK SC1AC1 SC TR SLP207

CYHM;2007-11-25 20:00;CYHM 252000Z 22015KT 15SM FEW030 FEW200 05/M01 A3011 RMK SC1CI2 CU ASOCTD SLP205

CYHM;2007-11-25 21:00;CYHM 252100Z 21012KT 15SM FEW030 FEW170 BKN240 03/M01 A3011 RMK SC1AC2CI4 SC TR SLP205

CYHM;2007-11-25 22:00;CYHM 252200Z 21011KT 15SM FEW170 BKN240 02/M01 A3010 RMK AC2CI3 SLP203

CYHM;2007-11-25 23:00;CYHM 252300Z 22011KT 15SM FEW170 BKN240 02/M01 A3011 RMK AC2CI3 SLP207

CYHM;2007-11-26 00:00;CYHM 260000Z 21008KT 15SM BKN120 02/M01 A3009 RMK AC7 SLP198

CYHM;2007-11-26 01:00;CYHM 260100Z 21008KT 15SM SCT070 OVC100 02/M02 A3010 RMK AC3AC5 SLP202

CYHM;2007-11-26 02:00;CYHM 260200Z CCA 22007KT 15SM OVC080 02/M02 A3008 RMK AS8 SLP195

CYHM;2007-11-26 02:31;CYHM 260231Z 20013KT 9SM -PL BKN050 OVC075 RMK SC6AS2

CYHM;2007-11-26 03:00;CYHM 260300Z 20011KT 7SM -RAPL OVC045 02/00 A3004 RMK SC8 SLP180

CYHM;2007-11-26 04:00;CYHM 260400Z 21007KT 5SM -RA BR BKN040 01/01 A3002 RMK SC7 SLP176

CYHM;2007-11-26 04:51;CYHM 260451Z 23007KT 4SM -RA BR OVC006 RMK SF8

CYHM;2007-11-26 05:00;CYHM 260500Z 24007KT 4SM -RA BR OVC006 01/01 A3003 RMK SF8 SLP177

CYHM;2007-11-26 06:00;CYHM 260600Z 22005KT 3SM BR OVC006 02/01 A3001 RMK SF8 VIS VRB 2 - 4 SLP171

CYHM;2007-11-26 07:00;CYHM 260700Z 22005KT 5SM BR OVC008 02/02 A3000 RMK SF8 SLP168

CYHM;2007-11-26 08:00;CYHM 260800Z 26005KT 1 1/2SM BR OVC005 02/02 A3000 RMK FG2SF6 VIS VRB 1 - 2 SLP168

CYHM;2007-11-26 09:00;CYHM 260900Z 26004KT 1 1/2SM BR OVC005 02/02 A2999 RMK FG2SF6 VIS VRB 1 - 2 SLP165

CYHM;2007-11-26 09:16;CYHM 260916Z 25005KT 4SM BR OVC007 RMK SF8

CYHM;2007-11-26 10:00;CYHM 261000Z 24005KT 4SM BR OVC007 02/02 A2999 RMK SF8 SLP164

CYHM;2007-11-26 11:00;CYHM 261100Z 26005KT 1 1/2SM -RA BR OVC005 02/02 A2999 RMK FG2SF6 VIS VRB 1 - 2 SLP163

CYHM;2007-11-26 11:40;CYHM 261140Z 22004KT 1 1/2SM BR OVC007 RMK FG2SF6 VIS VRB 1 - 2

CYHM;2007-11-26 12:00;CYHM 261200Z CCA 24004KT 2SM BR BKN007 OVC015 02/02 A2999 RMK SF6SC2 RERA SLP165

CYHM;2007-11-26 12:21;CYHM 261221Z 22006KT 1SM BR BKN007 OVC016 RMK FG2SF5SC1

CYHM;2007-11-26 12:45;CYHM 261245Z 22004KT 1SM BR SCT007 OVC014 RMK FG2SF2SC4 VIS VRBL1-2SM

CYHM;2007-11-26 13:00;CYHM 261300Z 22003KT 1 1/2SM BR SCT005 OVC009 02/02 A2999 RMK FG2SC2SC4 SLP165

CYHM;2007-11-26 14:00;CYHM 261400Z 22005KT 2 1/2SM BR FEW008 OVC016 02/02 A2999 RMK SF2SC6 SLP163

CYHM;2007-11-26 15:00;CYHM 261500Z 29003KT 3SM BR SCT010 OVC020 03/02 A2999 RMK SC3SC5 SLP164

CYHM;2007-11-26 18:00;CYHM 261800Z 06003KT 3SM -SHRA BR BKN012 OVC017 03/02 A2989 RMK SC6SC2 SLP130

CYHM;2007-11-26 19:00;CYHM 261900Z 03006KT 1 1/2SM -SHRA BR BKN005 OVC029 03/02 A2986 RMK FG2SF5SC2 SLP120

CYHM;2007-11-26 20:00;CYHM 262000Z 04006KT 1 1/2SM -SHRA BR BKN004 OVC015 03/02 A2983 RMK FG2SF6SC1 SLP110

CYHM;2007-11-26 21:00;CYHM 262100Z 04006KT 1 1/2SM -SHRA BR BKN004 OVC015 03/02 A2980 RMK FG2SF6SC1 SLP098

CYHM;2007-11-26 21:23;CYHM 262123Z 02007KT 1SM -SHRA BR OVC004 RMK FG2SF6

CYHM;2007-11-26 22:00;CYHM 262200Z 01007KT 1SM -SHRA BR OVC003 03/03 A2980 RMK FG2SF6 SLP099

CYHM;2007-11-26 23:00;CYHM 262300Z 35007KT 1 1/2SM -SHRA BR SCT003 OVC023 02/02 A2982 RMK FG2SF2SC4 SLP105

CYHM;2007-11-27 00:00;CYHM 270000Z 35009KT 1 1/2SM -SHRASN BR OVC003 01/01 A2978 RMK FG2SF6 SLP092

CYHM;2007-11-27 00:39;CYHM 270039Z CCA 02005KT 2 1/2SM -SHRASN BR BKN003 OVC046 RMK SF5SC3 PCPN VRY LGT

CYHM;2007-11-27 01:00;CYHM 270100Z 01004KT 2 1/2SM -SHRASN BR BKN003 OVC046 01/01 A2976 RMK SF5SC3 SLP087

CYHM;2007-11-27 02:00;CYHM 270200Z 34003KT 2SM -SHRASN BR OVC003 01/01 A2976 RMK FG1SF7 SLP086

CYHM;2007-11-27 03:00;CYHM 270300Z 31005KT 1 1/2SM -SHRASN BR BKN003 OVC026 01/01 A2976 RMK FG2SF5SC2 CIG RAG SLP085

CYHM;2007-11-27 04:00;CYHM 270400Z 29006KT 2SM -SHSN BR BKN003 BKN018 OVC034 01/01 A2978 RMK SF5SC2SC2 SLP092

CYHM;2007-11-27 05:00;CYHM 270500Z 28007KT 1 3/4SM -SHSN BR BKN004 BKN008 OVC024 01/00 A2981 RMK SF6SF1SC2 SLP104

CYHM;2007-11-27 06:00;CYHM 270600Z 28004KT 4SM -SHSN BR BKN004 BKN050 OVC080 01/01 A2981 RMK SF5SC2AC1 SLP103

CYHM;2007-11-27 07:00;CYHM 270700Z 25007KT 5SM BR FEW003 BKN062 OVC078 01/01 A2982 RMK SF2SC3AC3 SLP108

CYHM;2007-11-27 08:00;CYHM 270800Z 25007KT 5SM -SHSN BR OVC006 01/01 A2987 RMK SF8 SLP123

CYHM;2007-11-27 09:00;CYHM 270900Z 25005KT 9SM FEW008 BKN013 OVC032 02/01 A2988 RMK SF2SC3SC3 SLP127

CYHM;2007-11-27 10:00;CYHM 271000Z 26008KT 12SM BKN012 OVC038 02/01 A2990 RMK SF6SC2 SLP134

CYHM;2007-11-27 10:47;CYHM 271047Z 26009KT 12SM -SHSN BKN012 OVC024 RMK SC6SC2

CYHM;2007-11-27 11:00;CYHM 271100Z 28010KT 12SM -SHSN BKN012 OVC022 02/01 A2994 RMK SC6SC2 SLP145

CYHM;2007-11-27 12:00;CYHM 271200Z 26012KT 15SM -SHSN SCT022 OVC052 01/M01 A2996 RMK SC3SC5 SLP155

CYHM;2007-11-27 12:52;CYHM 271252Z 27014KT 15SM BKN028 BKN052 RMK SC6SC2 CU ASOCTD

CYHM;2007-11-27 13:00;CYHM 271300Z 29014G20KT 15SM BKN029 BKN040 01/M02 A2997 RMK SC5SC2 SLP159

CYHM;2007-11-27 14:00;CYHM 271400Z 26012KT 15SM FEW025 BKN033 01/M03 A2998 RMK CU1SC6 SLP162

CYHM;2007-11-27 15:00;CYHM 271500Z 27008KT 15SM FEW025 FEW220 02/M04 A2999 RMK CU1CI1 SLP164

CYHM;2007-11-27 16:00;CYHM 271600Z CCA 24016G28KT 15SM FEW030 SCT038 BKN120 BKN200 03/M03 A2998 RMK CU2SC2AC2CI1 SLP163

CYHM;2007-11-27 17:00;CYHM 271700Z 25020G26KT 15SM SCT030 BKN040 BKN120 04/M02 A2994 RMK CU3SC2AC2 SLP147

CYHM;2007-11-27 18:00;CYHM 271800Z 24020G28KT 15SM FEW030 SCT078 BKN100 05/M01 A2990 RMK CU2AC2AC3 SLP133

CYHM;2007-11-27 18:48;CYHM 271848Z CCA 26026G32KT 15SM -SHSN BKN033 OVC082 RMK SC6AC2

CYHM;2007-11-27 19:00;CYHM 271900Z 25026G38KT 15SM BKN049 BKN082 04/M03 A2990 RMK SC6AC2 SLP134

CYHM;2007-11-27 19:50;CYHM 271950Z 24022G38KT 10SM -SHSN BKN028 OVC046 RMK SC6SC2

CYHM;2007-11-27 20:00;CYHM 272000Z 26018G36KT 4SM -SHSN FEW022 BKN036 BKN052 02/M01 A2991 RMK SF2SC5SC1 SLP137

CYHM;2007-11-27 20:43;CYHM 272043Z 29026G42KT 1/4SM +SHSN OVC026 RMK SN6SC2

CYHM;2007-11-27 20:51;CYHM 272051Z 27018G36KT 3SM -SHSN BKN020 OVC034 RMK SN2SC5SC2

CYHM;2007-11-27 21:00;CYHM 272100Z 27018G38KT 4SM -SHSN BKN024 OVC048 M01/M02 A2997 RMK SC6SC2 SLP158

CYHM;2007-11-27 21:22;CYHM 272122Z 27022G34KT 15SM FEW032 SCT052 RMK SC1SC2

CYHM;2007-11-27 22:00;CYHM 272200Z 26020G32KT 15SM FEW036 FEW078 M01/M09 A3006 RMK SC2AC1 SLP187

CYHM;2007-11-27 23:00;CYHM 272300Z 26018G28KT 15SM BKN056 M01/M08 A3010 RMK SC7 SLP203

CYHM;2007-11-28 00:00;CYHM 280000Z 24016G24KT 15SM FEW034 OVC050 M01/M08 A3014 RMK SC2SC6 SLP216

CYHM;2007-11-28 00:44;CYHM 280044Z 24015G22KT 15SM -SHSN BKN032 OVC044 RMK SC6SC2

CYHM;2007-11-28 01:00;CYHM 280100Z 24012G19KT 15SM -SHSN BKN034 OVC044 M01/M07 A3018 RMK SC5SC3 SLP229

CYHM;2007-11-28 02:00;CYHM 280200Z 24012G20KT 12SM -SHSN BKN036 OVC064 M01/M06 A3021 RMK SC6SC2 SLP241

CYHM;2007-11-28 03:00;CYHM 280300Z 26010KT 10SM -SHSN BKN018 OVC034 M01/M05 A3026 RMK SC5SC3 SLP256

CYHM;2007-11-28 04:00;CYHM 280400Z 27008KT 15SM BKN023 M02/M04 A3028 RMK SC5 SLP263

CYHM;2007-11-28 05:00;CYHM 280500Z 27004KT 15SM SCT022 M02/M04 A3033 RMK SC3 SLP280

CYHM;2007-11-28 06:00;CYHM 280600Z 26004KT 15SM FEW024 M03/M05 A3033 RMK SC2 SLP281

CYHM;2007-11-28 07:00;CYHM 280700Z 29006KT 15SM FEW022 M03/M06 A3035 RMK SC2 SLP287

CYHM;2007-11-28 08:00;CYHM 280800Z 30002KT 15SM FEW022 FEW250 M05/M07 A3037 RMK CU1CI1 CU TR CI TR SLP295

CYHM;2007-11-28 09:00;CYHM 280900Z 31002KT 15SM FEW250 M05/M08 A3039 RMK CI1 CI TR SLP305

CYHM;2007-11-28 10:00;CYHM 281000Z 32003KT 15SM FEW090 M06/M09 A3040 RMK AC2 SLP308

CYHM;2007-11-28 11:00;CYHM 281100Z 35003KT 15SM FEW040 M06/M09 A3042 RMK SC2 SLP314

CYHM;2007-11-28 12:00;CYHM 281200Z 06002KT 15SM FEW040 FEW210 M06/M09 A3043 RMK SC1CI1 SLP317

CYHM;2007-11-28 13:00;CYHM 281300Z 00000KT 15SM FEW030 BKN220 M06/M09 A3044 RMK SC1CI3 SLP322

CYHM;2007-11-28 14:00;CYHM 281400Z 00000KT 15SM FEW030 SCT220 M04/M08 A3045 RMK SC1CI2 CONTRAIL SLP323

CYHM;2007-11-28 15:00;CYHM 281500Z 08008KT 15SM FEW025 BKN130 BKN150 BKN220 M03/M06 A3044 RMK CU1AC5AC2CI1 CU TR SLP320

CYHM;2007-11-28 16:00;CYHM 281600Z 11007KT 15SM BKN032 BKN140 OVC220 M03/M06 A3041 RMK SC5AC2CI1 SLP311

CYHM;2007-11-28 17:00;CYHM 281700Z 12002KT 15SM BKN024 OVC032 M02/M05 A3038 RMK SC6SC2 SLP300

CYHM;2007-11-28 18:00;CYHM 281800Z 12006KT 15SM OVC021 M01/M06 A3035 RMK SC8 SLP289

CYHM;2007-11-28 19:00;CYHM 281900Z 10008KT 15SM OVC020 M01/M05 A3030 RMK SC8 SLP273

CYHM;2007-11-28 20:00;CYHM 282000Z 08007KT 15SM BKN024 OVC110 M01/M04 A3024 RMK SC5AC3 SLP254

CYHM;2007-11-28 21:00;CYHM 282100Z 10007KT 15SM FEW024 OVC170 M00/M04 A3021 RMK SC1AC7 SLP243

CYHM;2007-11-28 22:00;CYHM 282200Z 10005KT 15SM BKN160 OVC200 M01/M04 A3016 RMK AC6CS2 SLP226

CYHM;2007-11-28 23:00;CYHM 282300Z 07005KT 15SM FEW150 OVC200 M01/M04 A3010 RMK AC2CC6 SLP207

CYHM;2007-11-29 00:00;CYHM 290000Z 05004KT 15SM OVC160 M01/M03 A3008 RMK AC8 SLP198

CYHM;2007-11-29 01:00;CYHM 290100Z 06004KT 15SM BKN130 OVC190 M01/M03 A3001 RMK AC6AC2 SLP175

CYHM;2007-11-29 02:00;CYHM 290200Z 06004KT 15SM FEW150 OVC180 M01/M04 A2996 RMK AC2AC6 SLP160

CYHM;2007-11-29 03:00;CYHM 290300Z 03002KT 15SM BKN130 OVC180 M01/M03 A2993 RMK AC6AC2 SLP147

CYHM;2007-11-29 04:00;CYHM 290400Z 19004KT 15SM OVC110 M00/M03 A2988 RMK AC8 SLP130

CYHM;2007-11-29 05:00;CYHM 290500Z 20008KT 15SM OVC098 03/M03 A2985 RMK AC8 SLP119

CYHM;2007-11-29 06:00;CYHM 290600Z 20015KT 15SM OVC110 05/M02 A2981 RMK AC8 SLP102

CYHM;2007-11-29 07:00;CYHM 290700Z 21014KT 15SM OVC070 06/M00 A2978 RMK AC8 SLP092

CYHM;2007-11-29 07:42;CYHM 290742Z 23012KT 8SM -SHRA OVC025 RMK SC8

CYHM;2007-11-29 08:00;CYHM 290800Z 22013KT 8SM -SHRA OVC030 05/03 A2978 RMK SC8 SLP091

CYHM;2007-11-29 09:00;CYHM 290900Z 23013KT 5SM -SHRA BR OVC016 05/04 A2975 RMK SC8 SLP084

CYHM;2007-11-29 10:00;CYHM 291000Z 22013G18KT 8SM -SHRA OVC028 05/04 A2975 RMK SC8 SLP083

CYHM;2007-11-29 11:00;CYHM 291100Z 23011G16KT 10SM -SHRA OVC026 05/03 A2976 RMK SC8 SLP086

CYHM;2007-11-29 12:00;CYHM 291200Z 25010KT 15SM -SHRA FEW025 OVC039 05/03 A2977 RMK SC2SC6 SLP090

CYHM;2007-11-29 13:00;CYHM 291300Z 25014KT 15SM FEW035 BKN055 05/02 A2979 RMK SC2SC4 SLP097

CYHM;2007-11-29 14:00;CYHM 291400Z 24015KT 15SM BKN057 04/00 A2981 RMK SC7 SLP103

CYHM;2007-11-29 14:55;CYHM 291455Z 22020G26KT 8SM -SHSN BKN026 OVC055 RMK SC6SC2

CYHM;2007-11-29 15:00;CYHM 291500Z 22020G28KT 10SM -SHSN BKN018 OVC025 03/M01 A2984 RMK SC6SC2 SLP114

CYHM;2007-11-29 16:00;CYHM 291600Z 21020G32KT 15SM FEW020 BKN035 OVC050 01/M05 A2988 RMK CU1SC5SC2 SLP128

CYHM;2007-11-29 17:00;CYHM 291700Z 26018G24KT 220V280 15SM FEW025 BKN045 BKN055 01/M06 A2990 RMK CU2SC4SC2 SLP134

CYHM;2007-11-29 18:00;CYHM 291800Z 24020G28KT 15SM FEW020 BKN045 BKN056 00/M08 A2992 RMK CU1SC6SC1 SLP139

CYHM;2007-11-29 18:07;CYHM 291807Z 25022KT 15SM -SHSN BKN045 BKN057 RMK SC6SC2 CU ASOCTD

CYHM;2007-11-29 19:00;CYHM 291900Z 25020KT 15SM -SHSN FEW025 BKN033 BKN045 00/M06 A2994 RMK CU2SC4SC2 SLP146

CYHM;2007-11-29 20:00;CYHM 292000Z 26016KT 15SM -SHSN BKN027 BKN046 M01/M05 A2997 RMK SC6SC2 CU ASOCTD SLP157

CYHM;2007-11-29 21:00;CYHM 292100Z 26016G24KT 15SM -SHSN FEW028 BKN043 M01/M09 A3001 RMK SC1SC6 PCPN VRY LGT SLP171

CYHM;2007-11-29 22:00;CYHM 292200Z 25016KT 15SM FEW034 BKN048 M01/M09 A3005 RMK SC1SC6 SLP185

CYHM;2007-11-29 23:00;CYHM 292300Z CCA 25013G24KT 15SM BKN046 M02/M09 A3008 RMK SC7 SLP193

CYHM;2007-11-30 00:00;CYHM 300000Z 25015KT 15SM BKN048 M02/M08 A3011 RMK SC7 SLP207

CYHM;2007-11-30 01:00;CYHM 300100Z 26015G20KT 15SM SCT034 OVC042 M03/M09 A3013 RMK SC3SC5 SLP214

CYHM;2007-11-30 02:00;CYHM 300200Z 26010G17KT 15SM FEW026 OVC048 M03/M08 A3015 RMK SC2SC6 SLP219

CYHM;2007-11-30 03:00;CYHM 300300Z 25015KT 15SM -SHSN SCT025 OVC044 M04/M08 A3017 RMK SC3SC5 SLP229

CYHM;2007-11-30 04:00;CYHM 300400Z 25015G22KT 15SM FEW028 BKN045 M04/M09 A3018 RMK SC2SC6 SLP231

CYHM;2007-11-30 05:00;CYHM 300500Z 25014KT 15SM BKN035 M04/M10 A3018 RMK SC5 SLP231

CYHM;2007-11-30 06:00;CYHM 300600Z CCA 25012KT 15SM SCT030 M04/M10 A3018 RMK SC4 SLP232

CYHM;2007-11-30 07:00;CYHM 300700Z 24012KT 15SM BKN030 M05/M09 A3020 RMK SC5 SLP237

CYHM;2007-11-30 08:00;CYHM 300800Z 24012KT 15SM FEW160 M05/M09 A3019 RMK AC2 SLP235

CYHM;2007-11-30 09:00;CYHM 300900Z 24009KT 15SM FEW180 M05/M09 A3019 RMK AC1 SLP235

CYHM;2007-11-30 10:00;CYHM 301000Z 24007KT 15SM FEW160 M05/M09 A3017 RMK AC2 SLP230

CYHM;2007-11-30 11:00;CYHM 301100Z 23010KT 15SM FEW200 M06/M09 A3016 RMK CI1 SLP225

CYHM;2007-11-30 12:00;CYHM 301200Z 23010KT 15SM FEW110 SCT150 BKN220 M05/M09 A3015 RMK AC1AC2CI1 SLP222

CYHM;2007-11-30 13:00;CYHM 301300Z 23008KT 15SM FEW025 FEW074 SCT220 M03/M08 A3014 RMK SC1AC2CI1 SC TR SLP218

CYHM;2007-11-30 14:00;CYHM 301400Z 22007KT 15SM FEW076 SCT140 BKN220 M02/M07 A3011 RMK AC2AC2CI1 SLP209

CYHM;2007-11-30 15:00;CYHM 301500Z 21010KT 15SM FEW085 FEW140 BKN220 01/M05 A3006 RMK AC1AC1CI2 SLP191

CYHM;2007-11-30 15:52;CYHM 301552Z 23025G32KT 10SM -SHSN BKN031 BKN045 OVC080 RMK SC5SC2AC1

CYHM;2007-11-30 16:00;CYHM 301600Z 22024G30KT 10SM -SHSN BKN026 OVC038 03/M03 A3004 RMK SC6SC2 SLP184

CYHM;2007-11-30 16:53;CYHM 301653Z 21026KT 1 1/2SM -SHSN BR BKN012 OVC022 RMK FG1SC5SC2

CYHM;2007-11-30 17:00;CYHM 301700Z 22026G32KT 1SM -SHSN BR BKN008 OVC018 01/M01 A2999 RMK SN1SF5SC2 VIS VRBL3/4-11/4 SLP167

CYHM;2007-11-30 17:45;CYHM 301745Z 24025G30KT 1 1/2SM -SHSN BR BKN014 OVC025 RMK SN1SC5SC2

CYHM;2007-11-30 17:49;CYHM 301749Z 24026G32KT 3SM -SHSN BR BKN020 OVC041 RMK SC6SC2

CYHM;2007-11-30 18:00;CYHM 301800Z CCA 24022G28KT 5SM -SHSN BR BKN032 OVC042 00/M00 A2999 RMK SC6SC2 SLP166

CYHM;2007-11-30 19:00;CYHM 301900Z CCA 25024KT 15SM -SHSN FEW032 BKN036 BKN080 02/M04 A2998 RMK CU1SC5AC2 SLP164

CYHM;2007-11-30 20:00;CYHM 302000Z 26022G28KT 2SM -SHSN FEW022 BKN033 OVC058 01/M03 A3001 RMK CU1SC6SC2 SLP172

CYHM;2007-11-30 20:03;CYHM 302003Z 26019KT 3/4SM -SHSN BKN014 OVC022 RMK SN4SF2SC2

CYHM;2007-11-30 20:14;CYHM 302014Z 28015G25KT 1/2SM SHSN BKN007 OVC017 RMK SN5SF2SC2

CYHM;2007-11-30 20:23;CYHM 302023Z CCA 02012G23KT 2 1/2SM -SHSN SCT008 BKN030 RMK SN2SF2SC3 RESHSN

CYHM;2007-11-30 20:29;CYHM 302029Z 27015KT 12SM -SHSN FEW018 BKN033 BKN055 RMK CU2SC4SC2 PCPN VRY LGT

CYHM;2007-11-30 21:00;CYHM 302100Z 28013KT 5SM -SHSN FEW025 BKN035 M00/M04 A3005 RMK CU2SC5 PCPN VRY LGT VIS E 12 SLP187

CYHM;2007-11-30 22:00;CYHM 302200Z 27022KT 15SM FEW030 BKN050 M02/M07 A3009 RMK CU2SC3 SLP202

CYHM;2007-11-30 23:00;CYHM 302300Z 29016KT 15SM SCT034 M03/M09 A3013 RMK SC3 SLP215

CYHM;2007-12-01 01:00;CYHM 010100Z 27016KT 15SM BKN054 M04/M10 A3020 RMK SC6 SLP240

CYHM;2007-12-01 02:00;CYHM 010200Z 27015G20KT 15SM BKN052 M04/M11 A3024 RMK SC6 SLP253

CYHM;2007-12-01 03:00;CYHM 010300Z 27014G19KT 15SM BKN050 M05/M11 A3026 RMK SC7 SLP257

CYHM;2007-12-01 04:00;CYHM 010400Z 29013G18KT 15SM OVC049 M05/M12 A3028 RMK SC8 SLP265

CYHM;2007-12-01 05:00;CYHM 010500Z 28014G20KT 15SM OVC048 M05/M12 A3031 RMK SC8 SLP274

CYHM;2007-12-01 06:00;CYHM 010600Z 28013G18KT 15SM FEW033 BKN046 M06/M11 A3033 RMK CF2SC6 SLP283

CYHM;2007-12-01 07:00;CYHM 010700Z 27012G18KT 12SM -SHSN FEW030 OVC048 M06/M11 A3036 RMK CF2SC6 SLP292

CYHM;2007-12-01 08:00;CYHM 010800Z 26011G18KT 15SM -SHSN FEW027 BKN047 M06/M10 A3038 RMK CF2SC6 SLP301

CYHM;2007-12-01 09:00;CYHM 010900Z 26011KT 12SM -SHSN FEW026 BKN050 M06/M10 A3040 RMK CF2SC6 SLP308

CYHM;2007-12-01 10:00;CYHM 011000Z 26007KT 15SM -SHSN FEW030 FEW047 FEW200 M06/M10 A3042 RMK CF1SC1CI1 SLP315

CYHM;2007-12-01 11:00;CYHM 011100Z 25006KT 15SM FEW200 M07/M10 A3045 RMK CI2 SLP323

CYHM;2007-12-01 12:00;CYHM 011200Z 25004KT 15SM BKN047 BKN210 M07/M09 A3048 RMK SC7CI1 SLP336

CYHM;2007-12-01 13:00;CYHM 011300Z 30003KT 15SM FEW025 BKN045 M06/M09 A3051 RMK CU1SC7 SLP345

CYHM;2007-12-01 13:17;CYHM 011317Z 33005KT 15SM -SHSN FEW025 FEW033 BKN045 RMK CU1SC2SC5

CYHM;2007-12-01 13:33;CYHM 011333Z 04009KT 2SM -SHSN SCT025 BKN044 RMK SN1SC3SC3 VIS S 10

CYHM;2007-12-01 13:44;CYHM 011344Z 03010KT 8SM -SHSN FEW025 BKN043 RMK SC2SC5

CYHM;2007-12-01 14:00;CYHM 011400Z 02008KT 15SM -SHSN FEW028 BKN043 M08/M10 A3056 RMK SC2SC6 SLP362

CYHM;2007-12-01 15:00;CYHM 011500Z 04008KT 15SM FEW028 BKN042 BKN170 M07/M11 A3059 RMK SC1SC5AC2 SLP373

CYHM;2007-12-01 16:00;CYHM 011600Z 01009KT 350V070 15SM FEW040 FEW180 FEW250 M06/M13 A3058 RMK SC1AC1CI0 SLP369

CYHM;2007-12-01 17:00;CYHM 011700Z 07010KT 15SM FEW040 SCT180 BKN250 M07/M12 A3055 RMK SC2AC1CI0 SLP362

CYHM;2007-12-01 18:00;CYHM 011800Z 05006KT 15SM SCT039 BKN250 M07/M12 A3058 RMK SC3CI2 SLP370

CYHM;2007-12-01 19:00;CYHM 011900Z 07008KT 15SM BKN022 BKN039 BKN250 M07/M12 A3056 RMK SC5SC1CI2 SLP365

CYHM;2007-12-01 20:00;CYHM 012000Z 05010KT 15SM SCT019 OVC120 M07/M11 A3056 RMK SC4AS4 SLP363

CYHM;2007-12-01 21:00;CYHM 012100Z 08009KT 15SM -SHSN BKN019 OVC100 M08/M11 A3056 RMK SC5AS3 PCPN VRY LGT SLP364

CYHM;2007-12-01 21:32;CYHM 012132Z 07009KT 15SM SCT020 OVC095 RMK SC4AS4

CYHM;2007-12-01 22:00;CYHM 012200Z 08008KT 15SM BKN019 OVC087 M08/M11 A3056 RMK SC5AS3 SLP365

CYHM;2007-12-01 23:00;CYHM 012300Z 09008KT 15SM BKN019 BKN085 OVC140 M08/M11 A3055 RMK SC5AS2AC2 SLP360

CYHM;2007-12-02 00:00;CYHM 020000Z 09009KT 15SM SCT019 OVC080 M08/M12 A3053 RMK SC4AS4 SLP356

CYHM;2007-12-02 01:00;CYHM 020100Z 09008KT 15SM FEW020 OVC052 M08/M13 A3052 RMK SC2SC6 SLP350

CYHM;2007-12-02 02:00;CYHM 020200Z 07013KT 15SM FEW020 OVC042 M08/M13 A3047 RMK SC2SC6 SLP335

CYHM;2007-12-02 03:00;CYHM 020300Z 06014KT 15SM BKN022 OVC038 M08/M15 A3042 RMK SC6SC2 SLP319

CYHM;2007-12-02 03:16;CYHM 020316Z 07012KT 4SM -SHSN OVC019 RMK SC8

CYHM;2007-12-02 03:25;CYHM 020325Z 07012KT 1 1/2SM -SHSN OVC012 RMK SN2SC6 VIS VRB 1 - 2

CYHM;2007-12-02 04:00;CYHM 020400Z 08011KT 3/4SM -SHSN VV004 M08/M10 A3042 RMK SN8 VIS VRB 1/2 - 1 SLP318

CYHM;2007-12-02 04:34;CYHM 020434Z 07013KT 1 1/2SM -SHSN OVC006 RMK SN2ST6 VIS VRB 1 - 2

CYHM;2007-12-02 05:00;CYHM 020500Z CCA 07010KT 1 1/2SM -SHSN OVC006 M08/M10 A3036 RMK SN2ST6 VIS VRB 1 - 2 PRESFR SLP297

CYHM;2007-12-02 05:22;CYHM 020522Z 07015KT 1/2SM SN VV004 RMK SN8

CYHM;2007-12-02 06:00;CYHM 020600Z 07013G18KT 1/2SM SN DRSN VV004 M08/M10 A3030 RMK SN8 /S02/ PRESFR SLP276

CYHM;2007-12-02 06:16;CYHM 020616Z 07015KT 1/4SM SN DRSN VV002 RMK SN8

CYHM;2007-12-02 07:00;CYHM 020700Z 07014KT 1/4SM SN DRSN VV004 M08/M09 A3028 RMK SN8 /S02/ SLP271

CYHM;2007-12-02 07:04;CYHM 020704Z 07014KT 3/4SM -SN DRSN VV008 RESN RMK SN8 VIS VRB 1/2 - 1

CYHM;2007-12-02 07:13;CYHM 020713Z 07014KT 1/2SM SN DRSN VV004 RMK SN8

CYHM;2007-12-02 08:00;CYHM 020800Z CCA 06018KT 1/2SM SN DRSN VV004 M08/M09 A3022 RMK SN8 /S04/ PRESFR SLP251

CYHM;2007-12-02 08:10;CYHM 020810Z 06018G25KT 1 1/2SM -SN DRSN OVC018 RESN RMK SN2SC6 VIS VRB 1 - 2

CYHM;2007-12-02 08:42;CYHM 020842Z 07013G20KT 4SM -SN DRSN FEW010 OVC020 RESN RMK CF2SC6

CYHM;2007-12-02 09:00;CYHM 020900Z 07013G21KT 6SM -SN DRSN FEW012 OVC025 M07/M09 A3022 RESN RMK CF2SC6 /S05/ SLP249

CYHM;2007-12-02 09:27;CYHM 020927Z 07014KT 1 1/2SM -SN DRSN OVC015 RMK SN2SC6 VIS VRB 1 - 2

CYHM;2007-12-02 09:36;CYHM 020936Z 07014KT 1SM -SN DRSN VV007 RMK SN8 VIS VRB 3/4 - 11/4

CYHM;2007-12-02 10:00;CYHM 021000Z CCA 06014KT 3/4SM -SN DRSN VV005 M08/M09 A3015 RMK SN8 VIS VRB 1/2 - 1 /S06/ PRESFR SLP227

CYHM;2007-12-02 10:15;CYHM 021015Z 06013KT 2SM -SN DRSN OVC037 RMK SN2SC6

CYHM;2007-12-02 10:20;CYHM 021020Z 06013KT 3SM -SN DRSN OVC040 RMK SC8 VIS VRB 2 - 4

CYHM;2007-12-02 11:00;CYHM 021100Z 07012KT 1 1/2SM -SN DRSN OVC033 M07/M09 A3011 RMK SN2SC6 VIS VRB 1 - 2 /S07/ PRESFR SLP212

CYHM;2007-12-02 11:20;CYHM 021120Z 06012KT 3SM -SN DRSN FEW009 OVC027 RMK CF2SC6 VIS VRB 2 - 4

CYHM;2007-12-02 11:40;CYHM 021140Z 04011KT 7SM -SN DRSN BKN007 OVC022 RMK CF5SC3

CYHM;2007-12-02 12:00;CYHM 021200Z 04010KT 6SM -SN DRSN OVC007 M06/M07 A3008 RMK CF8 SLP200

CYHM;2007-12-02 13:00;CYHM 021300Z 05009KT 5SM -SNPL BKN006 OVC011 M05/M05 A3006 RMK CF6SC2 SLP194

CYHM;2007-12-02 13:07;CYHM 021307Z 05008KT 5SM -SN -FZRA BKN006 OVC011 RMK CF7SC1

CYHM;2007-12-02 14:00;CYHM 021400Z 05010KT 5SM -SN -FZRA BR BKN003 OVC008 M03/M04 A3003 RMK CF6SC2 SLP185

CYHM;2007-12-02 14:37;CYHM 021437Z 05007KT 5SM BR BKN003 OVC008 RMK CF6SC2

CYHM;2007-12-02 15:00;CYHM 021500Z 05007KT 5SM BR BKN002 OVC008 M03/M03 A3002 RMK CF6SC2 SLP180

CYHM;2007-12-02 15:24;CYHM 021524Z 04006KT 4SM -FZRA BR FEW002 OVC006 RMK CF2SC6

CYHM;2007-12-02 16:00;CYHM 021600Z 05007KT 2 1/2SM -FZRA BR OVC006 M02/M02 A3000 RMK SC8 SLP172

CYHM;2007-12-02 16:40;CYHM 021640Z 05006KT 1 1/2SM -FZRA BR SCT002 OVC006 RMK FG1CF2SC5

CYHM;2007-12-02 17:00;CYHM 021700Z 05006KT 1 1/2SM -FZRA BR BKN002 OVC006 M01/M01 A2996 RMK FG1CF5SC2 SLP159

CYHM;2007-12-02 17:19;CYHM 021719Z 07006KT 1 1/4SM -FZRA BR BKN002 OVC006 RMK FG2CF5SC2

CYHM;2007-12-02 18:00;CYHM 021800Z 05006KT 5/8SM -FZRA BR OVC002 M00/M00 A2991 RMK FG4CF4 PCPN VRY LGT SLP143

CYHM;2007-12-02 18:47;CYHM 021847Z 04006KT 1/2SM -DZ FZFG OVC002 REFZRA RMK FG5CF3

CYHM;2007-12-02 19:00;CYHM 021900Z 05007KT 3/8SM -DZ FZFG OVC002 M00/M00 A2988 REFZRA RMK FG6CF2 SLP133

CYHM;2007-12-02 20:00;CYHM 022000Z 05008KT 1/4SM -DZ FG VV002 00/00 A2984 RMK FG8 SLP119

CYHM;2007-12-02 21:00;CYHM 022100Z 06008KT 1/4SM -DZ FG VV002 00/00 A2979 RMK FG8 SLP100

CYHM;2007-12-02 22:00;CYHM 022200Z 05007KT 3/8SM -DZ FG OVC003 01/01 A2976 RMK FG6ST2 SLP090

CYHM;2007-12-02 22:42;CYHM 022242Z 06006KT 3/8SM -DZ FG VV002 RMK FG8

CYHM;2007-12-02 23:00;CYHM 022300Z 06006KT 3/8SM -DZ FG VV002 01/01 A2970 RMK FG8 PRESFR SLP069

CYHM;2007-12-02 23:12;CYHM 022312Z 06006KT 3/8SM -RADZ FG VV003 RMK FG8

CYHM;2007-12-02 23:33;CYHM 022333Z 06003KT 1/2SM RA FG VV002 RMK FG8

CYHM;2007-12-03 00:00;CYHM 030000Z 06004KT 1/2SM RA FG VV002 02/02 A2967 RMK FG8 SLP058

CYHM;2007-12-03 00:17;CYHM 030017Z 06006KT 3/8SM -RA FG VV002 RMK FG8

CYHM;2007-12-03 01:00;CYHM 030100Z 06005KT 3/8SM -RA FG VV002 02/02 A2962 RMK FG8 SLP042

CYHM;2007-12-03 02:00;CYHM 030200Z 06005KT 3/8SM -RA FG VV002 02/02 A2955 RMK FG8 PRESFR SLP018

CYHM;2007-12-03 03:00;CYHM 030300Z 07006KT 3/8SM -RA FG VV002 02/02 A2949 RMK FG8 /R10/ PRESFR SLP994

CYHM;2007-12-03 04:00;CYHM 030400Z 03004KT 1/8SM -RA FG VV002 02/02 A2941 RMK FG8 PRESFR SLP969

CYHM;2007-12-03 05:00;CYHM 030500Z 00000KT 1/4SM -RA FG OVC005 03/03 A2937 RMK FG4SF4 SLP955

CYHM;2007-12-03 05:45;CYHM 030545Z 25013KT 5SM -RA BR BKN002 OVC012 RMK SF6SC2

CYHM;2007-12-03 06:00;CYHM 030600Z 26013KT 6SM -RA BR FEW003 OVC008 05/05 A2938 RMK SF2SC6 /R16/ SLP955

CYHM;2007-12-03 06:26;CYHM 030626Z 26020KT 12SM -RA OVC013 RMK SC8

CYHM;2007-12-03 07:00;CYHM 030700Z 25018G25KT 15SM OVC010 03/02 A2942 RMK SC8 SLP970

CYHM;2007-12-03 08:00;CYHM 030800Z 25022G31KT 15SM OVC011 03/01 A2946 RMK SC8 SLP982

CYHM;2007-12-03 09:00;CYHM 030900Z 25020G28KT 15SM SCT014 OVC020 02/00 A2947 RMK CF3SC5 SLP987

CYHM;2007-12-03 10:00;CYHM 031000Z 25017G25KT 15SM OVC019 02/M00 A2952 RMK SC8 PK GST 33 PST HR SLP003

CYHM;2007-12-03 11:00;CYHM 031100Z 26018G30KT 12SM -SHSN OVC019 01/M03 A2956 RMK SC8 SLP017

CYHM;2007-12-03 12:00;CYHM 031200Z 28018G28KT 15SM -SHSN BKN019 BKN038 OVC084 M00/M03 A2959 RMK SC5SC2AC1 SLP029

CYHM;2007-12-03 13:00;CYHM 031300Z 28020G28KT 15SM -SHSN BKN024 BKN045 OVC110 M01/M04 A2962 RMK SC5SC2AC1 SLP040

CYHM;2007-12-03 13:30;CYHM 031330Z 28020G28KT 15SM SCT032 BKN062 BKN084 RMK CU3SC2AC2

CYHM;2007-12-03 14:00;CYHM 031400Z CCA 28018G26KT 15SM -SHSN FEW024 BKN038 OVC065 M01/M05 A2966 RMK CU2SC4SC2 SLP051

CYHM;2007-12-03 15:00;CYHM 031500Z 29020KT 250V320 2SM -SHSN FEW010 BKN016 OVC022 M02/M04 A2968 RMK SF2SC5SC2 CU ASOCTD SLP060

CYHM;2007-12-03 15:47;CYHM 031547Z 27018G24KT 240V310 6SM -SHSN BKN027 OVC034 RMK SC6SC2

CYHM;2007-12-03 16:00;CYHM 031600Z 27016G26KT 6SM -SHSN BKN019 OVC028 M01/M05 A2970 RMK SC6SC2 SLP066

CYHM;2007-12-03 17:00;CYHM 031700Z 27018G26KT 10SM -SHSN DRSN SCT017 BKN037 BKN110 M02/M06 A2970 RMK SC3SC3AC1 CU ASOCTD SLP066

CYHM;2007-12-03 18:00;CYHM 031800Z 28018G28KT 240V310 15SM -SHSN DRSN BKN024 BKN043 BKN120 M02/M07 A2971 RMK SC5SC2AC1 SLP071

CYHM;2007-12-03 18:49;CYHM 031849Z 27016G24KT 1 1/2SM -SN DRSN BKN013 BKN019 OVC025 RMK SN1SF4SC2SC1

CYHM;2007-12-03 19:00;CYHM 031900Z CCA 27016G22KT 3/4SM -SN BKN007 OVC018 M03/M05 A2973 RMK SN2SF3SC2 SLP077

CYHM;2007-12-03 19:29;CYHM 031929Z 28018G27KT 1 1/4SM -SN DRSN BKN018 OVC034 RMK SN2SC4SC2

CYHM;2007-12-03 19:50;CYHM 031950Z 27015G26KT 8SM -SN FEW024 SCT030 OVC064 RMK SF1SC2SC5

CYHM;2007-12-03 20:00;CYHM 032000Z 27015G26KT 12SM -SN FEW024 SCT030 OVC064 M03/M07 A2974 RMK SF1SC2SC5 SLP078

CYHM;2007-12-03 21:00;CYHM 032100Z 26015G34KT 15SM -SHSN FEW024 BKN064 M03/M07 A2975 RMK SC2SC6 SLP085

CYHM;2007-12-03 22:00;CYHM 032200Z 28012G22KT 2SM -SHSN BKN024 OVC040 M04/M07 A2977 RMK SN2SC5SC2 SLP090

CYHM;2007-12-03 22:34;CYHM 032234Z 27012G22KT 5SM -SHSN BKN024 BKN038 OVC065 RMK SC5SC2SC2

CYHM;2007-12-03 23:00;CYHM 032300Z 28012G20KT 9SM -SHSN BKN024 OVC064 M04/M06 A2979 RMK SC5SC3 SLP096

CYHM;2007-12-04 00:00;CYHM 040000Z 29012G20KT 15SM -SHSN FEW026 SCT074 BKN086 M04/M08 A2980 RMK SC2AC2AC3 SLP102

CYHM;2007-12-04 01:00;CYHM 040100Z 28016G26KT 15SM -SHSN FEW026 BKN078 BKN130 M04/M08 A2981 RMK SC2AC5AC1 SLP104

CYHM;2007-12-04 02:00;CYHM 040200Z 28015G22KT 15SM -SHSN FEW024 FEW030 OVC083 M04/M08 A2980 RMK SC1SC2AC6 SLP101

CYHM;2007-12-04 03:00;CYHM 040300Z 27012G20KT 9SM -SHSN FEW024 FEW030 OVC130 M04/M08 A2980 RMK SC1SC2AC6 SLP102

CYHM;2007-12-04 04:00;CYHM 040400Z 28013KT 15SM -SHSN FEW024 OVC130 M04/M08 A2980 RMK SC2AC6 SLP103

CYHM;2007-12-04 05:00;CYHM 040500Z 27012KT 15SM -SHSN FEW024 OVC130 M05/M07 A2979 RMK SC1AC7 SLP099

CYHM;2007-12-04 06:00;CYHM 040600Z 27010KT 15SM -SHSN FEW016 FEW130 BKN190 M04/M07 A2977 RMK SC1AC2AC2 SLP092

CYHM;2007-12-04 07:00;CYHM 040700Z 29008KT 6SM -SHSN BKN015 OVC034 M04/M06 A2976 RMK SC6SC2 SLP090

CYHM;2007-12-04 08:00;CYHM 040800Z 32008KT 15SM -SHSN FEW015 BKN026 BKN200 M05/M08 A2976 RMK SC1SC4CI2 SLP090

CYHM;2007-12-04 09:00;CYHM 040900Z 30010KT 15SM -SHSN FEW024 SCT064 BKN200 M05/M08 A2975 RMK CF1SC2CI2 CUFRA SLP088

CYHM;2007-12-04 10:00;CYHM 041000Z 30010KT 15SM -SHSN FEW046 OVC070 M05/M08 A2976 RMK SC2AC6 SLP089

CYHM;2007-12-04 11:00;CYHM 041100Z 30009KT 15SM -SHSN FEW036 BKN076 M05/M09 A2975 RMK CF1AC6 CUFRA SLP087

CYHM;2007-12-04 12:00;CYHM 041200Z 32008KT 15SM BKN043 BKN072 BKN084 M05/M09 A2975 RMK SC5AC2AC1 SLP088

CYHM;2007-12-04 13:00;CYHM 041300Z 32010KT 15SM FEW030 SCT043 BKN082 M06/M10 A2975 RMK SC1SC2AC2 SLP087

CYHM;2007-12-04 14:00;CYHM 041400Z 31010KT 15SM FEW032 FEW048 SCT150 BKN220 M06/M10 A2976 RMK SC1SC1AC2CI1 SLP090

CYHM;2007-12-04 15:00;CYHM 041500Z 32012G20KT 15SM FEW025 FEW043 SCT120 BKN210 M04/M10 A2977 RMK CU1SC2AC2CI1 CU TR SLP094

CYHM;2007-12-04 16:00;CYHM 041600Z 29012KT 15SM FEW030 FEW043 SCT140 BKN210 M04/M10 A2978 RMK CU2SC1AC1CI1 SLP097

CYHM;2007-12-04 17:00;CYHM 041700Z 34010G15KT 15SM FEW030 FEW045 FEW220 M04/M10 A2976 RMK CU1SC1CI1 CU TR SLP090

CYHM;2007-12-04 18:00;CYHM 041800Z 30012KT 15SM FEW025 FEW048 FEW120 M04/M11 A2975 RMK CU1SC1AC1 SLP088

CYHM;2007-12-04 19:00;CYHM 041900Z 29014G20KT 15SM FEW024 BKN033 BKN100 M04/M10 A2975 RMK CU2SC4AC1 SLP088

CYHM;2007-12-04 19:06;CYHM 041906Z 31014KT 15SM -SHSN BKN030 RMK SC6

CYHM;2007-12-04 20:00;CYHM 042000Z 31014KT 15SM -SHSN SCT024 M05/M10 A2975 RMK SC4 SLP087

CYHM;2007-12-04 21:00;CYHM 042100Z 29012KT 15SM -SHSN BKN028 M05/M10 A2977 RMK SC6 SLP093

CYHM;2007-12-04 22:00;CYHM 042200Z 31013KT 15SM -SHSN OVC030 M05/M10 A2977 RMK SC8 SLP093

CYHM;2007-12-04 23:00;CYHM 042300Z 28006KT 15SM -SHSN OVC034 M05/M09 A2978 RMK SC8 SLP097

CYHM;2007-12-05 00:00;CYHM 050000Z 29006KT 15SM -SHSN OVC037 M05/M08 A2978 RMK SC8 SLP099

CYHM;2007-12-05 01:00;CYHM 050100Z 26003KT 15SM -SHSN FEW042 BKN200 M06/M08 A2977 RMK SC2CI1 SLP095

CYHM;2007-12-05 02:00;CYHM 050200Z 26004KT 15SM -SHSN FEW025 SCT040 BKN200 M06/M08 A2977 RMK SC2SC2CI2 SLP095

CYHM;2007-12-05 03:00;CYHM 050300Z 24004KT 15SM -SHSN FEW042 BKN200 M08/M09 A2976 RMK SC2CI2 SLP090

CYHM;2007-12-05 04:00;CYHM 050400Z 24004KT 15SM FEW042 BKN220 M08/M09 A2975 RMK SC1CI2 SLP086

CYHM;2007-12-05 05:00;CYHM 050500Z 26004KT 15SM FEW036 OVC150 M08/M09 A2974 RMK SC1AS5 SLP083

CYHM;2007-12-05 06:00;CYHM 050600Z 28003KT 15SM FEW044 OVC140 M08/M09 A2974 RMK SC1AS6 SLP084

CYHM;2007-12-05 07:00;CYHM 050700Z 30002KT 15SM BKN110 OVC180 M08/M09 A2975 RMK AS5AS2 SLP087

CYHM;2007-12-05 08:00;CYHM 050800Z 30002KT 15SM FEW018 OVC120 M08/M09 A2975 RMK SC1AS7 SLP088

CYHM;2007-12-05 09:00;CYHM 050900Z 01004KT 15SM FEW022 FEW092 BKN110 M08/M10 A2972 RMK SC1AS1AS2 SC TR SLP079

CYHM;2007-12-05 10:00;CYHM 051000Z 02003KT 15SM SCT078 OVC110 M08/M10 A2972 RMK AS3AS2 SLP078

CYHM;2007-12-05 10:45;CYHM 051045Z 02003KT 15SM -SHSN BKN064 OVC100 RMK ST5AS3

CYHM;2007-12-05 11:00;CYHM 051100Z 02003KT 15SM -SHSN BKN054 OVC100 M08/M10 A2973 RMK ST6AS2 SLP081

CYHM;2007-12-05 12:00;CYHM 051200Z 02004KT 8SM -SHSN BKN041 OVC083 M08/M10 A2974 RMK SC6AC2 SLP085

CYHM;2007-12-05 13:00;CYHM 051300Z 02005KT 15SM BKN050 OVC068 M08/M11 A2976 RMK SC6AC2 SLP090

CYHM;2007-12-05 14:00;CYHM 051400Z 02006KT 15SM BKN049 OVC062 M08/M12 A2977 RMK SC6SC2 SLP095

CYHM;2007-12-05 15:00;CYHM 051500Z 02006KT 15SM FEW032 BKN072 OVC110 M08/M12 A2979 RMK SC2AC3AS3 SLP103

CYHM;2007-12-05 16:00;CYHM 051600Z CCA 35008KT 15SM FEW025 BKN080 BKN220 M07/M12 A2980 RMK CU1AC5CS2 CU TR HALO SLP107

CYHM;2007-12-05 17:00;CYHM 051700Z 02007KT 15SM FEW025 FEW160 BKN220 M07/M13 A2980 RMK CU1AC1CI2 CU TR SLP106

CYHM;2007-12-05 18:00;CYHM 051800Z 01007KT 15SM FEW025 FEW140 SCT220 M07/M13 A2980 RMK CU1AC1CI1 CU TR SLP104

CYHM;2007-12-05 19:00;CYHM 051900Z 01010KT 15SM FEW025 FEW220 M06/M14 A2980 RMK CU1CI0 CU TR SLP105

CYHM;2007-12-05 20:00;CYHM 052000Z 02011KT 15SM FEW036 FEW220 M06/M15 A2981 RMK CU1CI1 SC TR CI TR SLP110

CYHM;2007-12-05 21:00;CYHM 052100Z 02007KT 15SM FEW034 FEW250 M07/M15 A2984 RMK SC1CI1 SC TR CI TR SLP119

CYHM;2007-12-05 22:00;CYHM 052200Z 02003KT 15SM FEW028 M08/M15 A2987 RMK SC1 SC TR SLP129

CYHM;2007-12-05 23:00;CYHM 052300Z 32003KT 15SM FEW028 M09/M16 A2991 RMK SC1 SC TR SLP142

CYHM;2007-12-06 00:00;CYHM 060000Z 31002KT 15SM FEW024 M10/M15 A2994 RMK SC1 SC TR SLP156

CYHM;2007-12-06 01:00;CYHM 060100Z 25003KT 15SM FEW022 M13/M16 A2997 RMK SC1 SC TR SLP166

CYHM;2007-12-06 02:00;CYHM 060200Z 27004KT 15SM FEW044 FEW250 M11/M15 A3000 RMK SC2CI1 CI TR SLP174

CYHM;2007-12-06 03:00;CYHM 060300Z 25004KT 15SM OVC041 M10/M14 A3002 RMK SC8 SLP182

CYHM;2007-12-06 04:00;CYHM 060400Z 24004KT 15SM BKN050 M10/M13 A3003 RMK SC6 SLP184

CYHM;2007-12-06 05:00;CYHM 060500Z 25007KT 15SM BKN050 M10/M12 A3004 RMK SC7 SLP189

CYHM;2007-12-06 06:00;CYHM 060600Z 24005KT 15SM BKN044 M10/M13 A3005 RMK SC5 SLP192

CYHM;2007-12-06 07:00;CYHM 060700Z 24005KT 15SM FEW042 FEW210 M10/M12 A3006 RMK SC1CI1 SLP194

CYHM;2007-12-06 08:00;CYHM 060800Z 26007KT 15SM BKN040 M10/M11 A3009 RMK SC6 SLP206

CYHM;2007-12-06 09:00;CYHM 060900Z 24005KT 15SM OVC037 M09/M11 A3010 RMK SC8 SLP208

CYHM;2007-12-06 10:00;CYHM 061000Z 25006KT 15SM BKN039 M08/M11 A3011 RMK SC7 SLP211

CYHM;2007-12-06 11:00;CYHM 061100Z 23007KT 15SM FEW036 M09/M12 A3011 RMK SC2 SLP211

CYHM;2007-12-06 12:00;CYHM 061200Z 25008KT 15SM BKN036 M09/M12 A3013 RMK SC5 SLP218

CYHM;2007-12-06 12:55;CYHM 061255Z 24008KT 15SM -SHSN BKN033 RMK SC6

CYHM;2007-12-06 13:00;CYHM 061300Z 25009KT 15SM -SHSN FEW025 BKN033 M08/M11 A3016 RMK SC1SC6 SLP229

CYHM;2007-12-06 14:00;CYHM 061400Z 25009KT 15SM -SHSN BKN033 M07/M11 A3018 RMK SC7 SLP236

CYHM;2007-12-06 15:00;CYHM 061500Z 25010KT 15SM -SHSN FEW025 BKN032 M06/M12 A3020 RMK CU1SC4 SLP241

CYHM;2007-12-06 16:00;CYHM 061600Z 25007KT 15SM FEW025 SCT035 M06/M11 A3021 RMK CU1SC2 SLP245

CYHM;2007-12-06 17:00;CYHM 061700Z 26012KT 15SM -SHSN FEW025 BKN031 M05/M11 A3021 RMK CU1SC6 SLP246

CYHM;2007-12-06 17:04;CYHM 061704Z 27013KT 15SM -SHSN FEW025 BKN031 RMK CU1SC6

CYHM;2007-12-06 18:00;CYHM 061800Z 24015KT 15SM -SHSN FEW025 BKN032 M05/M11 A3021 RMK CU2SC3 SLP245

CYHM;2007-12-06 18:31;CYHM 061831Z 25014KT 15SM FEW025 BKN032 RMK CU2SC4

CYHM;2007-12-06 19:00;CYHM 061900Z 25010KT 15SM FEW025 BKN045 M05/M11 A3020 RMK CU2SC3 SLP241

CYHM;2007-12-06 20:00;CYHM 062000Z 23010KT 15SM FEW028 M05/M11 A3020 RMK SC2 SLP243

CYHM;2007-12-06 21:00;CYHM 062100Z 24007KT 15SM FEW030 FEW250 M05/M11 A3020 RMK SC1CI1 SLP240

CYHM;2007-12-06 22:00;CYHM 062200Z 24005KT 15SM FEW030 M06/M11 A3021 RMK SC2 SLP245

CYHM;2007-12-06 23:00;CYHM 062300Z 21005KT 15SM FEW030 M08/M12 A3021 RMK SC1 SLP245

CYHM;2007-12-07 00:00;CYHM 070000Z 20004KT 15SM BKN035 M07/M10 A3022 RMK SC7 SLP249

CYHM;2007-12-07 01:00;CYHM 070100Z 17004KT 15SM BKN034 M06/M10 A3021 RMK SC7 SLP246

CYHM;2007-12-07 02:00;CYHM 070200Z 20004KT 15SM BKN034 M07/M10 A3020 RMK SC6 SLP243

CYHM;2007-12-07 03:00;CYHM 070300Z 19004KT 15SM FEW034 FEW210 M07/M11 A3019 RMK SC1CI1 SLP237

CYHM;2007-12-07 04:00;CYHM 070400Z 17005KT 15SM BKN034 M07/M10 A3018 RMK SC6 SLP234

CYHM;2007-12-07 05:00;CYHM 070500Z 00000KT 15SM BKN035 OVC200 M07/M10 A3017 RMK SC7CI1 SLP233

CYHM;2007-12-07 06:00;CYHM 070600Z 20004KT 15SM OVC036 M06/M09 A3017 RMK SC8 SLP230

CYHM;2007-12-07 07:00;CYHM 070700Z 20006KT 15SM OVC038 M03/M07 A3015 RMK SC8 SLP225

CYHM;2007-12-07 08:00;CYHM 070800Z 21007KT 15SM OVC033 M03/M08 A3015 RMK SC8 SLP225

CYHM;2007-12-07 09:00;CYHM 070900Z 20007KT 15SM FEW035 OVC080 M03/M07 A3014 RMK SC2AC6 SLP219

CYHM;2007-12-07 10:00;CYHM 071000Z 20005KT 15SM OVC033 M03/M07 A3013 RMK SC8 SLP215

CYHM;2007-12-07 11:00;CYHM 071100Z 18005KT 15SM FEW037 OVC070 M03/M08 A3011 RMK SC2AC6 SLP209

CYHM;2007-12-07 12:00;CYHM 071200Z 19006KT 15SM BKN075 BKN100 M03/M07 A3010 RMK AC6AC2 SLP205

CYHM;2007-12-07 13:00;CYHM 071300Z 21002KT 15SM BKN025 OVC068 M03/M07 A3009 RMK SC6AC2 SLP202

CYHM;2007-12-07 13:41;CYHM 071341Z 20003KT 10SM -SHSN BKN025 OVC056 RMK SC6SC2

CYHM;2007-12-07 14:00;CYHM 071400Z 22002KT 10SM -SHSN BKN027 OVC056 M03/M05 A3008 RMK SC6SC2 SLP199

CYHM;2007-12-07 15:00;CYHM 071500Z 20005KT 10SM -SHSN OVC045 M02/M05 A3007 RMK SC8 SLP197

CYHM;2007-12-07 16:00;CYHM 071600Z 22008KT 10SM -SHSN OVC039 M01/M05 A3007 RMK SC8 SLP196

CYHM;2007-12-07 16:40;CYHM 071640Z 25004KT 2SM -SHSN BR BKN012 OVC020 RMK FG1SC6SC2

CYHM;2007-12-07 17:00;CYHM 071700Z 25005KT 2 1/2SM -SHSN BKN018 OVC036 M02/M04 A3006 RMK SC5SC3 SLP193

CYHM;2007-12-07 17:40;CYHM 071740Z CCA 25004KT 2SM -SHSN BR BKN012 OVC020 RMK FG1SC6SC2

CYHM;2007-12-07 18:00;CYHM 071800Z 24004KT 2SM -SHSN BR BKN013 OVC018 M02/M03 A3005 RMK SC6SC2 SLP190

CYHM;2007-12-07 19:00;CYHM 071900Z 22006KT 2 1/2SM -SHSN SCT018 OVC036 M02/M03 A3005 RMK SC3SC5 SLP188

CYHM;2007-12-07 20:00;CYHM 072000Z 23007KT 12SM -SHSN FEW018 BKN035 M01/M04 A3005 RMK SC1SC6 PCPN VRY LGT SLP189

CYHM;2007-12-07 21:00;CYHM 072100Z 24009KT 12SM OVC024 M01/M05 A3006 RMK SC8 SLP189

CYHM;2007-12-07 22:00;CYHM 072200Z 23009KT 15SM OVC033 M01/M05 A3007 RMK SC8 SLP195

CYHM;2007-12-07 23:00;CYHM 072300Z 21010KT 15SM OVC030 M01/M05 A3008 RMK SC8 SLP196

CYHM;2007-12-08 00:00;CYHM 080000Z 22014KT 15SM OVC031 M01/M05 A3009 RMK SC8 SLP201

CYHM;2007-12-08 01:00;CYHM 080100Z 22010KT 15SM OVC032 M00/M05 A3010 RMK SC8 SLP203

CYHM;2007-12-08 02:00;CYHM 080200Z 23012KT 15SM OVC033 M00/M04 A3010 RMK SC8 SLP203

CYHM;2007-12-08 03:00;CYHM 080300Z 23012KT 15SM OVC029 M00/M04 A3010 RMK SC8 SLP205

CYHM;2007-12-08 04:00;CYHM 080400Z 24009KT 12SM OVC029 M00/M04 A3010 RMK SC8 SLP202

CYHM;2007-12-08 05:00;CYHM 080500Z 24009KT 12SM OVC029 M00/M04 A3010 RMK SC8 SLP203

CYHM;2007-12-08 06:00;CYHM 080600Z 24012KT 15SM OVC028 M00/M04 A3010 RMK SC8 SLP205

CYHM;2007-12-08 07:00;CYHM 080700Z 24012KT 15SM OVC029 M00/M04 A3011 RMK SC8 SLP206

CYHM;2007-12-08 08:00;CYHM 080800Z 24012KT 15SM OVC027 M00/M04 A3013 RMK SC8 SLP213

CYHM;2007-12-08 09:00;CYHM 080900Z 24013KT 15SM OVC026 M00/M04 A3014 RMK SC8 SLP216

CYHM;2007-12-08 10:00;CYHM 081000Z 23010KT 10SM OVC030 M01/M04 A3014 RMK SC8 SLP217

CYHM;2007-12-08 11:00;CYHM 081100Z 24008KT 12SM OVC028 M01/M04 A3016 RMK SC8 SLP222

CYHM;2007-12-08 12:00;CYHM 081200Z 23008KT 15SM FEW024 BKN031 M01/M04 A3018 RMK CU2SC5 SLP232

CYHM;2007-12-08 13:00;CYHM 081300Z 25006KT 12SM SCT023 BKN030 M01/M04 A3021 RMK CU3SC4 SLP240

CYHM;2007-12-08 14:00;CYHM 081400Z 27008KT 15SM FEW025 FEW032 FEW250 M02/M07 A3024 RMK CU1SC1CI0 SLP252

CYHM;2007-12-08 15:00;CYHM 081500Z 27009KT 15SM FEW032 FEW250 M01/M07 A3028 RMK SC1CI1 SLP266

CYHM;2007-12-08 16:00;CYHM 081600Z 26010KT 15SM FEW032 SCT250 M01/M07 A3029 RMK SC1CI1 SLP268

CYHM;2007-12-08 17:00;CYHM 081700Z 27011KT 15SM FEW032 BKN250 M01/M08 A3030 RMK SC2CI1 SLP271

CYHM;2007-12-08 18:00;CYHM 081800Z 28008KT 15SM BKN029 M01/M07 A3030 RMK SC7 SLP272

CYHM;2007-12-08 19:00;CYHM 081900Z 27008KT 15SM BKN030 M01/M07 A3031 RMK SC7 SLP275

CYHM;2007-12-08 20:00;CYHM 082000Z 26007KT 15SM BKN029 BKN080 M01/M07 A3033 RMK SC7AC1 AC TR SLP280

CYHM;2007-12-08 21:00;CYHM 082100Z 28008KT 15SM SCT030 BKN190 M02/M08 A3035 RMK SC3AC4 SLP288

CYHM;2007-12-08 22:00;CYHM 082200Z 28006KT 15SM FEW030 BKN180 M03/M09 A3036 RMK SC2AC3 SLP291

CYHM;2007-12-08 23:00;CYHM 082300Z 26002KT 15SM FEW030 SCT180 M04/M10 A3037 RMK SC2AC2 SLP296

CYHM;2007-12-09 00:00;CYHM 090000Z 27004KT 15SM FEW035 FEW200 M05/M10 A3038 RMK SC1CI1 CI TR SLP300

CYHM;2007-12-09 01:00;CYHM 090100Z 28005KT 15SM FEW035 SCT190 M06/M10 A3037 RMK SC1AC3 SLP298

CYHM;2007-12-09 02:00;CYHM 090200Z 27005KT 15SM FEW040 BKN180 BKN210 M04/M08 A3040 RMK SC1AC4CI2 SLP308

CYHM;2007-12-09 03:00;CYHM 090300Z 26005KT 15SM FEW040 SCT080 OVC130 M04/M08 A3041 RMK SC1AC2AC5 SLP309

CYHM;2007-12-09 04:00;CYHM 090400Z 28002KT 15SM OVC110 M04/M07 A3040 RMK AS8 SLP308

CYHM;2007-12-09 05:00;CYHM 090500Z 00000KT 15SM BKN110 OVC150 M04/M07 A3041 RMK AS6AS2 SLP311

CYHM;2007-12-09 06:00;CYHM 090600Z 25002KT 15SM OVC070 M04/M07 A3042 RMK AS8 SLP313

CYHM;2007-12-09 07:00;CYHM 090700Z 31001KT 15SM OVC070 M05/M07 A3041 RMK AS8 SLP311

CYHM;2007-12-09 08:00;CYHM 090800Z 00000KT 15SM BKN070 OVC100 M04/M07 A3041 RMK AS6AS2 SLP311

CYHM;2007-12-09 09:00;CYHM 090900Z 00000KT 15SM BKN060 OVC100 M04/M06 A3039 RMK SC6AC2 SLP305

CYHM;2007-12-09 10:00;CYHM 091000Z 00000KT 15SM OVC060 M04/M06 A3040 RMK ST8 SLP308

CYHM;2007-12-09 11:00;CYHM 091100Z 00000KT 15SM -SHSN OVC062 M03/M06 A3042 RMK SC8 SLP312

CYHM;2007-12-09 12:00;CYHM 091200Z 00000KT 15SM -SHSN OVC051 M03/M06 A3041 RMK SC8 SN VRY LGT SLP311

CYHM;2007-12-09 12:51;CYHM 091251Z 06002KT 15SM FEW025 OVC047 RMK CU1SC8

CYHM;2007-12-09 13:00;CYHM 091300Z 03002KT 15SM FEW025 OVC047 M03/M06 A3040 RMK CU1SC8 SLP308

CYHM;2007-12-09 14:00;CYHM 091400Z 00000KT 15SM FEW030 OVC045 M03/M05 A3040 RMK SC1SC7 SLP307

CYHM;2007-12-09 15:00;CYHM 091500Z 00000KT 15SM FEW030 OVC043 M02/M05 A3040 RMK SC1SC7 SLP307

CYHM;2007-12-09 16:00;CYHM 091600Z 11002KT 15SM FEW030 OVC039 M02/M06 A3039 RMK SC1SC7 SLP306

CYHM;2007-12-09 17:00;CYHM 091700Z 04003KT 15SM FEW036 BKN048 OVC065 M01/M06 A3036 RMK SC1SC6SC2 SLP293

CYHM;2007-12-09 18:00;CYHM 091800Z 05004KT 15SM OVC041 M01/M06 A3035 RMK SC8 SLP289

CYHM;2007-12-09 18:45;CYHM 091845Z 04006KT 12SM -SHSN SCT014 OVC041 RMK SC4SC4

CYHM;2007-12-09 19:00;CYHM 091900Z 05006KT 7SM -SHSN BKN014 OVC046 M02/M04 A3032 RMK SC5SC3 SLP280

CYHM;2007-12-09 20:00;CYHM 092000Z 03007KT 4SM -SHSN BKN013 OVC046 M02/M03 A3028 RMK SC5SC3 SLP268

CYHM;2007-12-09 20:25;CYHM 092025Z 02007KT 5SM -SHSN SCT008 BKN013 OVC045 RMK SC3SC3SC2

CYHM;2007-12-09 21:00;CYHM 092100Z 02005KT 5SM -SHSN BR BKN007 OVC012 M03/M04 A3028 RMK SC5SC3 PCPN VRY LGT SLP267

CYHM;2007-12-09 22:00;CYHM 092200Z 03004KT 5SM BR SCT007 BKN012 OVC060 M02/M03 A3027 RMK SC3SC4SC1 SLP264

CYHM;2007-12-09 23:00;CYHM 092300Z 05004KT 7SM SCT007 OVC012 M02/M03 A3027 RMK SC3SC5 SLP264

CYHM;2007-12-10 00:00;CYHM 100000Z 02003KT 9SM FEW006 OVC014 M02/M03 A3027 RMK SF2SC6 SLP264

CYHM;2007-12-10 00:18;CYHM 100018Z 02004KT 7SM BKN004 OVC011 RMK SF5SC3

CYHM;2007-12-10 00:39;CYHM 100039Z 02004KT 7SM SCT004 OVC012 RMK SF4SC4

CYHM;2007-12-10 01:00;CYHM 100100Z 03005KT 7SM BKN004 OVC012 M03/M03 A3023 RMK SF5SC3 SLP251

CYHM;2007-12-10 01:24;CYHM 100124Z 34004KT 8SM BKN005 OVC011 RMK SF5SC3

CYHM;2007-12-10 02:00;CYHM 100200Z 02003KT 8SM SCT005 BKN010 OVC040 M03/M04 A3024 RMK SF3SC4SC1 SLP253

CYHM;2007-12-10 03:00;CYHM 100300Z 01003KT 8SM SCT005 BKN010 OVC038 M03/M04 A3023 RMK SF4SC1SC3 SLP248

CYHM;2007-12-10 04:00;CYHM 100400Z 00000KT 6SM BR OVC006 M03/M04 A3022 RMK SF8 SLP245

CYHM;2007-12-10 05:00;CYHM 100500Z 00000KT 6SM BR OVC006 M03/M04 A3021 RMK SF8 SLP243

CYHM;2007-12-10 06:00;CYHM 100600Z 00000KT 4SM -SHGS BR OVC007 M03/M04 A3022 RMK SF8 SLP245

CYHM;2007-12-10 07:00;CYHM 100700Z 33003KT 5SM BR OVC006 M03/M04 A3022 RMK SF8 SLP246

CYHM;2007-12-10 07:08;CYHM 100708Z 34003KT 4SM -SHGS BR OVC006 RMK SF8

CYHM;2007-12-10 07:20;CYHM 100720Z 34005KT 1 1/2SM -SHGS BR OVC007 RMK SN2SF6 VIS VRB 1 - 2

CYHM;2007-12-10 07:45;CYHM 100745Z 35005KT 3SM -SHGS BR SCT006 OVC048 RMK SF3SC5 VIS VRB 2 - 4

CYHM;2007-12-10 08:00;CYHM 100800Z 34003KT 3SM -SHGS BR FEW012 OVC042 M03/M04 A3021 RMK CF2SC6 VIS VRB 2 - 4 SLP242

CYHM;2007-12-10 08:51;CYHM 100851Z 33002KT 1 1/2SM -SHSN VV010 RMK SN8 VIS VRB 1 - 2

CYHM;2007-12-10 09:00;CYHM 100900Z 32003KT 4SM -SHSN FEW016 OVC051 M03/M04 A3022 RMK CF2SC6 SLP245

CYHM;2007-12-10 10:00;CYHM 101000Z 32003KT 5SM -SHSN OVC047 M03/M03 A3022 RMK SC8 SLP245

CYHM;2007-12-10 11:00;CYHM 101100Z 00000KT 6SM -SHSN OVC050 M03/M03 A3023 RMK SC8 SLP250

CYHM;2007-12-10 12:00;CYHM 101200Z 27002KT 6SM -SHSN OVC050 M02/M03 A3026 RMK SC8 SLP258

CYHM;2007-12-10 13:00;CYHM 101300Z 29002KT 5SM BR BKN048 OVC056 M02/M03 A3026 RMK SC6SC2 SLP261

CYHM;2007-12-10 14:00;CYHM 101400Z 27003KT 8SM SCT054 BKN072 M02/M03 A3026 RMK SC3AC4 SLP261

CYHM;2007-12-10 15:00;CYHM 101500Z 28004KT 8SM FEW054 BKN071 M02/M04 A3028 RMK SC2AC5 SLP266

CYHM;2007-12-10 16:00;CYHM 101600Z 26004KT 8SM FEW055 BKN070 M02/M03 A3028 RMK SC2AC6 SLP265

CYHM;2007-12-10 17:00;CYHM 101700Z 27005KT 10SM BKN071 M01/M03 A3027 RMK AC7 SLP264

CYHM;2007-12-10 18:00;CYHM 101800Z 26005KT 10SM BKN068 M00/M03 A3027 RMK AC7 SLP262

CYHM;2007-12-10 19:00;CYHM 101900Z 26003KT 10SM FEW045 BKN067 00/M03 A3027 RMK SC1AC6 SLP262

CYHM;2007-12-10 20:00;CYHM 102000Z 25004KT 10SM BKN064 BKN069 00/M03 A3026 RMK SC5AC2 SLP260

CYHM;2007-12-10 21:00;CYHM 102100Z 24003KT 7SM BKN029 BKN070 BKN240 M01/M03 A3028 RMK SC5AC2CI1 HZ SLP266

CYHM;2007-12-10 22:00;CYHM 102200Z 24003KT 3SM HZ FEW025 BKN030 OVC062 M01/M03 A3029 RMK SC2SC5SC2 SLP268

CYHM;2007-12-10 23:00;CYHM 102300Z 25003KT 3SM HZ OVC023 M01/M03 A3030 RMK SC8 SLP272

CYHM;2007-12-11 00:00;CYHM 110000Z 25004KT 10SM BKN023 BKN062 M01/M03 A3031 RMK SC6SC2 SLP277

CYHM;2007-12-11 01:00;CYHM 110100Z 24003KT 10SM BKN020 BKN060 M01/M03 A3033 RMK SC5SC2 SLP282

CYHM;2007-12-11 02:00;CYHM 110200Z 24004KT 10SM FEW020 OVC058 M01/M03 A3033 RMK SC2SC6 SLP283

CYHM;2007-12-11 03:00;CYHM 110300Z 24003KT 12SM SCT055 M03/M04 A3033 RMK SC3 SLP283

CYHM;2007-12-11 04:00;CYHM 110400Z 24002KT 9SM FEW015 SCT200 M03/M04 A3033 RMK SC1CI1 SLP281

CYHM;2007-12-11 05:00;CYHM 110500Z 22003KT 10SM FEW055 SCT200 M04/M04 A3032 RMK SC1CI2 SLP278

CYHM;2007-12-11 06:00;CYHM 110600Z 26002KT 12SM FEW050 SCT200 M04/M04 A3032 RMK SC1CI2 SLP278

CYHM;2007-12-11 07:00;CYHM 110700Z 00000KT 15SM BKN048 M04/M04 A3031 RMK SC7 SLP275

CYHM;2007-12-11 08:00;CYHM 110800Z 00000KT 9SM FEW050 BKN210 M05/M06 A3031 RMK SC1CI3 SLP277

CYHM;2007-12-11 09:00;CYHM 110900Z 00000KT 3/4SM BR BKN200 M06/M06 A3029 RMK FG2CI2 SLP268

CYHM;2007-12-11 09:16;CYHM 110916Z 00000KT 3/8SM FZFG BKN200 RMK FG2CI1

CYHM;2007-12-11 10:00;CYHM 111000Z 00000KT 1SM BR BKN200 M06/M06 A3029 RMK FG1CC4 SLP269

CYHM;2007-12-11 10:35;CYHM 111035Z 00000KT 9SM FEW018 BKN160 RMK SC2AC6

CYHM;2007-12-11 11:00;CYHM 111100Z 00000KT 10SM BKN018 BKN140 M05/M06 A3031 RMK SC6AC2 SLP276

CYHM;2007-12-11 12:00;CYHM 111200Z 00000KT 10SM BKN019 OVC140 M04/M04 A3026 RMK SC6AC2 SLP258

CYHM;2007-12-11 13:00;CYHM 111300Z 00000KT 8SM OVC020 M04/M04 A3024 RMK SC8 SLP254

CYHM;2007-12-11 14:00;CYHM 111400Z 00000KT 5SM BR FEW012 OVC016 M03/M03 A3026 RMK SC2SC6 SLP259

CYHM;2007-12-11 15:00;CYHM 111500Z 00000KT 5SM BR SCT020 BKN076 OVC110 M02/M03 A3027 RMK SC3AC4AC1 SLP262

CYHM;2007-12-11 16:00;CYHM 111600Z 00000KT 5SM BR BKN025 OVC070 M01/M03 A3021 RMK SC6AC2 SLP242

CYHM;2007-12-11 16:19;CYHM 111619Z 09002KT 4SM -PL BR SCT024 BKN045 OVC082 RMK SC3SC3AC2

CYHM;2007-12-11 16:50;CYHM 111650Z 10003KT 3SM -RAPL BR FEW024 BKN062 OVC085 RMK SC2SC4AC2

CYHM;2007-12-11 17:00;CYHM 111700Z 10008KT 3SM -RAPL BR FEW025 BKN060 OVC080 M00/M01 A3010 RMK SC2SC3AC3 PRSFR SLP205

CYHM;2007-12-11 17:34;CYHM 111734Z 04004KT 2 1/2SM -RASN BR BKN021 OVC070 RMK SC6AC2

CYHM;2007-12-11 17:48;CYHM 111748Z 00000KT 2SM -SHRA BR OVC021 RMK FG1SC7

CYHM;2007-12-11 18:00;CYHM 111800Z 00000KT 1 1/2SM -SHRA BR OVC022 00/M00 A3008 RMK FG1SC7 SLP197

CYHM;2007-12-11 18:45;CYHM 111845Z 03003KT 3/4SM -SHRA BR SCT013 OVC017 RMK FG2SF2SC4

CYHM;2007-12-11 19:00;CYHM 111900Z 11003KT 3/4SM -SHRA BR BKN017 OVC045 00/00 A3004 RMK FG2SC4SC2 SLP182

CYHM;2007-12-11 20:00;CYHM 112000Z 05005KT 1/2SM -SHRA FG BKN017 OVC030 01/00 A2998 RMK FG2ST3ST2 SLP164

CYHM;2007-12-11 20:53;CYHM 112053Z 00000KT 1/2SM -SHRA FG BKN003 OVC008 RMK FG3ST3ST2

CYHM;2007-12-11 21:00;CYHM 112100Z 00000KT 1/2SM -SHRA FG BKN003 OVC008 01/01 A3000 RMK FG3ST3ST2 SLP170

CYHM;2007-12-11 22:00;CYHM 112200Z 14002KT 1/2SM -RA FG BKN003 OVC022 01/01 A2995 RMK FG3SF2ST3 SLP153

CYHM;2007-12-11 22:11;CYHM 112211Z 19003KT 1SM -RA BR BKN002 OVC012 RMK FG2ST5ST1

CYHM;2007-12-11 23:00;CYHM 112300Z 00000KT 3/4SM -RA BR OVC002 01/01 A2995 RMK FG4ST4 SLP154

CYHM;2007-12-11 23:40;CYHM 112340Z 20004KT 3/8SM -RA FG OVC002 RMK FG6SF2

CYHM;2007-12-12 00:00;CYHM 120000Z 19005KT 3/4SM -RA BR OVC002 01/01 A2994 RMK FG4SF4 SLP148

CYHM;2007-12-12 01:00;CYHM 120100Z 22005KT 1SM -SHRA BR OVC002 01/01 A2991 RMK FG2SF6 SLP141

CYHM;2007-12-12 01:30;CYHM 120130Z 26004KT 3/4SM BR OVC002 RMK FG4SF4

CYHM;2007-12-12 02:00;CYHM 120200Z 25005KT 1SM -SHRA BR OVC002 01/01 A2990 RMK FG2SF6 SLP136

CYHM;2007-12-12 03:00;CYHM 120300Z 26005KT 1 1/4SM -SHRA BR OVC002 01/01 A2990 RMK FG2SF6 SLP134

CYHM;2007-12-12 04:00;CYHM 120400Z 26006KT 2SM -RA BR OVC004 01/01 A2989 RMK FG2SF6 SLP133

CYHM;2007-12-12 05:00;CYHM 120500Z 28005KT 5SM -RA BR BKN008 BKN040 OVC080 02/01 A2990 RMK SC5SC2AC2 SLP135

CYHM;2007-12-12 06:00;CYHM 120600Z 24006KT 5SM -RA BR OVC009 01/01 A2991 RMK SC8 SLP136

CYHM;2007-12-12 07:00;CYHM 120700Z 24005KT 1 1/4SM -SN OVC003 00/00 A2994 RMK SN2SC6 SLP148

CYHM;2007-12-12 08:00;CYHM 120800Z 25007KT 2 1/2SM -SN OVC003 00/00 A2997 RMK SC8 SLP157

CYHM;2007-12-12 09:00;CYHM 120900Z 25005KT 5SM -SN BKN003 OVC017 00/00 A2997 RMK SF6SC2 SLP157

CYHM;2007-12-12 09:38;CYHM 120938Z 26005KT 5SM BR SCT004 BKN022 OVC082 RMK SF3SC2AC2

CYHM;2007-12-12 10:00;CYHM 121000Z 25005KT 5SM BR FEW004 BKN017 OVC082 00/00 A2999 RMK SF2SC5AC1 SLP164

CYHM;2007-12-12 11:00;CYHM 121100Z 28006KT 15SM FEW015 BKN028 01/M01 A3004 RMK SF1SC6 SLP180

CYHM;2007-12-12 12:00;CYHM 121200Z 30009KT 15SM BKN038 BKN082 M00/M03 A3009 RMK SC5AC2 SLP198

CYHM;2007-12-12 13:00;CYHM 121300Z 30006KT 15SM BKN039 BKN080 M00/M03 A3013 RMK SC6AC1 SLP214

CYHM;2007-12-12 14:00;CYHM 121400Z 30005KT 15SM FEW039 M01/M04 A3015 RMK SC2 CU ASOCTD SLP220

CYHM;2007-12-12 15:00;CYHM 121500Z 29007KT 15SM FEW028 SCT038 BKN220 00/M03 A3020 RMK CU2SC2CI1 SLP235

CYHM;2007-12-12 16:00;CYHM 121600Z 29008KT 15SM FEW030 FEW220 00/M05 A3021 RMK CU1CI1 CU TR CI TR SLP240

CYHM;2007-12-12 17:00;CYHM 121700Z 30009KT 15SM FEW030 FEW220 01/M06 A3020 RMK CU2CI1 CI TR SLP236

CYHM;2007-12-12 18:00;CYHM 121800Z 28010KT 15SM FEW032 BKN043 01/M05 A3021 RMK CU2SC4 SLP240

CYHM;2007-12-12 19:00;CYHM 121900Z 28008KT 15SM FEW028 SCT035 BKN042 01/M06 A3022 RMK CU2SC2SC4 SLP242

CYHM;2007-12-12 20:00;CYHM 122000Z 27006KT 15SM BKN040 00/M06 A3023 RMK SC7 SLP246

CYHM;2007-12-12 21:00;CYHM 122100Z 28008KT 15SM SCT042 M00/M08 A3025 RMK SC4 SLP255

CYHM;2007-12-12 22:00;CYHM 122200Z 27006KT 15SM FEW035 M02/M07 A3027 RMK SC2 SLP262

CYHM;2007-12-12 23:00;CYHM 122300Z 28005KT 15SM BKN035 M02/M07 A3029 RMK SC6 SLP266

CYHM;2007-12-13 00:00;CYHM 130000Z 26004KT 15SM FEW032 M03/M07 A3031 RMK SC1 SLP274

CYHM;2007-12-13 01:00;CYHM 130100Z 33002KT 15SM FEW030 M04/M07 A3031 RMK SC1 SC TR SLP275

CYHM;2007-12-13 02:00;CYHM 130200Z 29002KT 15SM FEW030 M06/M09 A3031 RMK SC1 SC TR SLP276

CYHM;2007-12-13 03:00;CYHM 130300Z 23002KT 15SM FEW030 M06/M08 A3032 RMK SC1 SC TR SLP279

CYHM;2007-12-13 04:00;CYHM 130400Z 00000KT 15SM SKC M08/M09 A3030 RMK SLP273

CYHM;2007-12-13 05:00;CYHM 130500Z 00000KT 15SM FEW040 M06/M07 A3025 RMK SC1 PRESFR SLP258

CYHM;2007-12-13 06:00;CYHM 130600Z 00000KT 15SM SCT070 BKN220 M07/M09 A3027 RMK AC4CI2 SLP263

CYHM;2007-12-13 07:00;CYHM 130700Z 00000KT 15SM SCT070 BKN210 M07/M08 A3025 RMK AC3CI2 SLP255

CYHM;2007-12-13 08:00;CYHM 130800Z 00000KT 15SM BKN120 M07/M08 A3023 RMK AC7 SLP250

CYHM;2007-12-13 09:00;CYHM 130900Z 00000KT 15SM OVC150 M05/M07 A3019 RMK AC8 SLP236

CYHM;2007-12-13 10:00;CYHM 131000Z 00000KT 12SM OVC130 M05/M06 A3019 RMK AC8 SLP234

CYHM;2007-12-13 11:00;CYHM 131100Z 05007KT 15SM OVC100 M04/M05 A3012 RMK AC8 PRESFR SLP211

CYHM;2007-12-13 12:00;CYHM 131200Z 06006KT 15SM BKN120 OVC150 M03/M05 A3009 RMK AC6AC2 SLP201

CYHM;2007-12-13 13:00;CYHM 131300Z 06007KT 15SM BKN110 M03/M05 A3006 RMK AC7 SLP192

CYHM;2007-12-13 14:00;CYHM 131400Z 07009KT 15SM FEW020 BKN062 OVC075 M02/M05 A3001 RMK CF1SC6AC2 CUFR TR SLP176

CYHM;2007-12-13 15:00;CYHM 131500Z 07008KT 10SM -SHSN BKN026 OVC038 M02/M05 A3004 RMK SC5SC3 SLP187

CYHM;2007-12-13 15:02;CYHM 131502Z 08008KT 10SM -SHSN BKN022 OVC032 RMK SC6SC2

CYHM;2007-12-13 15:10;CYHM 131510Z 06008KT 2 1/2SM -SHSN BKN010 OVC023 RMK SC6SC2

CYHM;2007-12-13 15:15;CYHM 131515Z 08008KT 3/4SM -SHSN BKN006 OVC018 RMK SN2SF5SC2

CYHM;2007-12-13 16:00;CYHM 131600Z 04008KT 1/2SM SN FZFG BKN005 OVC017 M03/M04 A2999 RMK SN2SF4SC2 SLP169

CYHM;2007-12-13 16:22;CYHM 131622Z 06010KT 3/4SM -SN BR BKN007 OVC031 RMK SN2SF5SC2

CYHM;2007-12-13 17:00;CYHM 131700Z 05010KT 1 1/2SM -SN BR BKN008 OVC022 M03/M03 A2993 RMK SN1SF6SC2 SLP149

CYHM;2007-12-13 17:48;CYHM 131748Z 05007KT 3/4SM -SN BR BKN005 OVC015 RMK SN2SF5SC2

CYHM;2007-12-13 18:00;CYHM 131800Z 06007KT 3/4SM -SN BR BKN005 OVC015 M02/M03 A2991 RMK SN2SF4SC2 SLP142

CYHM;2007-12-13 18:34;CYHM 131834Z 06008KT 2SM -SN BR BKN005 OVC042 RMK SN1SF5SC2

CYHM;2007-12-13 19:00;CYHM 131900Z 09006KT 5SM -SN BR SCT004 BKN021 OVC038 M02/M03 A2990 RMK SF3SC3SC2 SLP139

CYHM;2007-12-13 20:00;CYHM 132000Z 10005KT 6SM -SN BR FEW008 OVC032 M02/M03 A2987 RMK CU1SC7 SLP128

CYHM;2007-12-13 21:00;CYHM 132100Z 11002KT 10SM -SN OVC030 M02/M03 A2987 RMK SC8 SLP128

CYHM;2007-12-13 21:52;CYHM 132152Z 00000KT 12SM OVC022 RMK SC8

CYHM;2007-12-13 22:00;CYHM 132200Z 00000KT 12SM OVC021 M02/M03 A2985 RMK SC8 SLP122

CYHM;2007-12-13 23:00;CYHM 132300Z 24004KT 9SM OVC015 M02/M03 A2986 RMK SC8 SLP125

CYHM;2007-12-13 23:23;CYHM 132323Z 23003KT 10SM OVC012 RMK SC8

CYHM;2007-12-14 00:00;CYHM 140000Z 24004KT 10SM OVC009 M02/M02 A2986 RMK SC8 SLP122

CYHM;2007-12-14 00:46;CYHM 140046Z 23006KT 7SM -SN OVC005 RMK SC8

CYHM;2007-12-14 01:00;CYHM 140100Z 23007KT 5SM -SN OVC004 M02/M02 A2987 RMK SC8 SLP126

CYHM;2007-12-14 02:00;CYHM 140200Z 23014KT 9SM -SN OVC004 M00/M01 A2986 RMK SC8 CIG RAG SLP124

CYHM;2007-12-14 02:32;CYHM 140232Z 24013KT 9SM -SN OVC005 RMK SC8 PCPN VRY LGT

CYHM;2007-12-14 03:00;CYHM 140300Z 23012KT 8SM SCT008 OVC014 00/M01 A2988 RMK CF3SC5 SLP130

CYHM;2007-12-14 04:00;CYHM 140400Z 23018KT 10SM BKN016 OVC038 01/M01 A2990 RMK CF5SC3 SLP135

CYHM;2007-12-14 05:00;CYHM 140500Z 23015G20KT 12SM FEW019 OVC033 01/M01 A2990 RMK CF2SC6 SLP136

CYHM;2007-12-14 06:00;CYHM 140600Z 23020G28KT 12SM OVC035 01/M02 A2991 RMK SC8 SLP137

CYHM;2007-12-14 06:29;CYHM 140629Z 25018G27KT 10SM -RA OVC021 RMK SC8

CYHM;2007-12-14 07:00;CYHM 140700Z 24018G25KT 10SM -RA DRSN FEW018 OVC035 01/M02 A2993 RMK CF2SC6 SLP144

CYHM;2007-12-14 08:00;CYHM 140800Z 23016G21KT 10SM -SN DRSN FEW020 OVC033 01/M03 A2996 RMK CF1SC7 SLP156

CYHM;2007-12-14 09:00;CYHM 140900Z 23017G22KT 10SM -SN DRSN OVC027 01/M03 A2997 RMK SC8 SLP159

CYHM;2007-12-14 10:00;CYHM 141000Z 23016G21KT 10SM -SN DRSN FEW021 OVC032 01/M03 A2999 RMK CF2SC6 SLP167

CYHM;2007-12-14 11:00;CYHM 141100Z 23016G21KT 10SM -SN DRSN FEW018 OVC036 00/M03 A3001 RMK CF1SC7 SLP172

CYHM;2007-12-14 12:00;CYHM 141200Z CCA 25017KT 10SM -SN DRSN OVC034 00/M03 A3003 RMK SC8 SLP179

CYHM;2007-12-14 13:00;CYHM 141300Z 24018KT 10SM DRSN OVC036 00/M03 A3004 RMK SC8 SLP184

CYHM;2007-12-14 14:00;CYHM 141400Z 25015KT 10SM DRSN SCT032 OVC040 01/M03 A3008 RMK SC3SC5 SLP197

CYHM;2007-12-14 15:00;CYHM 141500Z 26012KT 15SM FEW025 SCT035 BKN048 01/M04 A3011 RMK CU1SC2SC4 SLP207

CYHM;2007-12-14 15:32;CYHM 141532Z 26016G22KT 15SM -SHSN FEW025 OVC047 RMK CU1SC7

CYHM;2007-12-14 16:00;CYHM 141600Z 27010G18KT 15SM -SHSN FEW025 FEW035 OVC042 00/M05 A3015 RMK CU1SC2SC6 SLP218

CYHM;2007-12-14 17:00;CYHM 141700Z 27012KT 15SM -SHSN FEW028 BKN036 M00/M04 A3016 RMK SC2SC5 SLP222

CYHM;2007-12-14 18:00;CYHM 141800Z 27012KT 15SM -SHSN SCT021 BKN038 M01/M05 A3017 RMK SC3SC4 CU ASOCTD SLP226

CYHM;2007-12-14 19:00;CYHM 141900Z 29012KT 15SM FEW025 SCT035 BKN041 M01/M06 A3020 RMK CU2SC2SC2 SLP235

CYHM;2007-12-14 20:00;CYHM 142000Z 30014KT 15SM BKN032 BKN250 M03/M08 A3024 RMK SC5CI2 SLP251

CYHM;2007-12-14 21:00;CYHM 142100Z 28009KT 15SM BKN029 BKN250 M03/M09 A3027 RMK SC6CI1 SLP261

CYHM;2007-12-14 22:00;CYHM 142200Z 29009KT 15SM BKN027 M04/M09 A3030 RMK SC7 SLP273

CYHM;2007-12-14 23:00;CYHM 142300Z 31012KT 15SM FEW026 FEW250 M05/M10 A3034 RMK SC1CI0 SLP285

CYHM;2007-12-15 00:00;CYHM 150000Z 32009KT 15SM FEW250 M06/M11 A3037 RMK CI0 SLP296

CYHM;2007-12-15 01:00;CYHM 150100Z 33007KT 15SM FEW250 M07/M11 A3039 RMK CI1 SLP305

CYHM;2007-12-15 02:00;CYHM 150200Z 33007KT 15SM SCT250 M08/M12 A3041 RMK CI2 SLP310

CYHM;2007-12-15 03:00;CYHM 150300Z 34004KT 15SM FEW030 FEW250 M09/M13 A3044 RMK SC1CI1 SC TR SLP321

CYHM;2007-12-15 04:00;CYHM 150400Z 02005KT 15SM FEW030 BKN210 M09/M12 A3044 RMK SC2CI3 SLP323

CYHM;2007-12-15 05:00;CYHM 150500Z 03010KT 15SM BKN220 M09/M15 A3045 RMK CI4 SLP326

CYHM;2007-12-15 06:00;CYHM 150600Z 02008KT 15SM FEW045 BKN230 M10/M16 A3044 RMK SC1CI2 SLP324

CYHM;2007-12-15 07:00;CYHM 150700Z 02005KT 15SM FEW045 SCT210 M11/M16 A3045 RMK SC1CI2 SLP325

CYHM;2007-12-15 08:00;CYHM 150800Z 04007KT 15SM FEW040 BKN220 M11/M15 A3045 RMK SC1CI3 SLP326

CYHM;2007-12-15 09:00;CYHM 150900Z 03006KT 10SM -SHSN BKN018 M11/M15 A3044 RMK SC5 SLP324

CYHM;2007-12-15 10:00;CYHM 151000Z 02006KT 3SM -SHSN FEW009 BKN023 M11/M14 A3046 RMK CF2SC4 VIS VRB 2 - 4 SLP330

CYHM;2007-12-15 11:00;CYHM 151100Z 04006KT 4SM -SHSN FEW014 BKN021 M11/M13 A3046 RMK CF2SC3 SLP331

CYHM;2007-12-15 12:00;CYHM 151200Z 04006KT 15SM -SHSN BKN018 M11/M13 A3046 RMK SC6 SLP330

CYHM;2007-12-15 13:00;CYHM 151300Z 05007KT 15SM -SHSN FEW020 OVC150 M11/M12 A3044 RMK SC2AS6 PCPN VRY LGT SLP326

CYHM;2007-12-15 13:45;CYHM 151345Z 04007KT 15SM FEW020 OVC140 RMK SC1AS7

CYHM;2007-12-15 14:00;CYHM 151400Z 04007KT 15SM FEW020 OVC140 M10/M12 A3043 RMK SC1AS7 SLP323

CYHM;2007-12-15 15:00;CYHM 151500Z 08013KT 15SM FEW020 OVC110 M08/M12 A3044 RMK SC1AC7 SLP324

CYHM;2007-12-15 16:00;CYHM 151600Z 08014KT 15SM FEW020 SCT110 OVC170 M08/M10 A3041 RMK SC1AC2AC5 SLP315

CYHM;2007-12-15 17:00;CYHM 151700Z 08014G21KT 15SM FEW020 BKN088 OVC160 M07/M10 A3037 RMK SC1AC5AC2 SLP303

CYHM;2007-12-15 18:00;CYHM 151800Z 07017KT 15SM FEW020 OVC068 M07/M11 A3032 RMK SC1AC8 SLP284

CYHM;2007-12-15 19:00;CYHM 151900Z 07015KT 15SM OVC057 M07/M12 A3028 RMK SC8 SLP269

CYHM;2007-12-15 19:16;CYHM 151916Z 07016KT 3SM -SHSN OVC025 RMK SC8

CYHM;2007-12-15 19:35;CYHM 151935Z 07015KT 3/4SM -SN VV010 RMK SN8

CYHM;2007-12-15 20:00;CYHM 152000Z 06017KT 3/4SM -SN DRSN VV012 M07/M11 A3024 RMK SN8 SLP258

CYHM;2007-12-15 20:09;CYHM 152009Z 05017KT 1SM -SN DRSN OVC014 RMK SN2SC6

CYHM;2007-12-15 20:24;CYHM 152024Z 05018KT 2 1/2SM -SHSN DRSN OVC016 RMK SN1SC7

CYHM;2007-12-15 20:42;CYHM 152042Z 06017KT 6SM -SHSN DRSN BKN022 OVC045 RMK SC5SC3

CYHM;2007-12-15 21:00;CYHM 152100Z 06018KT 8SM -SHSN DRSN BKN022 OVC045 M06/M12 A3023 RMK SC5SC3 SLP252

CYHM;2007-12-15 22:00;CYHM 152200Z 06019KT 10SM -SHSN DRSN SCT040 OVC075 M06/M12 A3016 RMK SC4AS4 PRESFR SLP231

CYHM;2007-12-15 23:00;CYHM 152300Z 07019KT 12SM DRSN SCT035 OVC064 M06/M13 A3013 RMK SC3SC5 SLP222

CYHM;2007-12-16 00:00;CYHM 160000Z 07018KT 15SM DRSN SCT030 OVC052 M07/M13 A3010 RMK SC3SC5 SLP208

CYHM;2007-12-16 01:00;CYHM 160100Z 07017KT 15SM SCT036 OVC061 M07/M13 A3006 RMK SC3SC5 SLP195

CYHM;2007-12-16 01:34;CYHM 160134Z 07017KT 8SM -SHSN SCT030 OVC041 RMK SC4SC4

CYHM;2007-12-16 01:50;CYHM 160150Z 06017KT 1 1/2SM -SN DRSN VV010 RMK SN8

CYHM;2007-12-16 02:00;CYHM 160200Z 06017KT 1 3/4SM -SN DRSN VV012 M08/M10 A2999 RMK SN8 PRESFR SLP171

CYHM;2007-12-16 02:49;CYHM 160249Z 06018KT 2 1/2SM -SN DRSN SCT012 OVC030 RMK SN2SC2SC4

CYHM;2007-12-16 03:00;CYHM 160300Z 06018KT 4SM -SN DRSN FEW012 OVC033 M07/M08 A2995 RMK CF2SC6 SLP158

CYHM;2007-12-16 04:00;CYHM 160400Z 06017KT 5SM -SN DRSN FEW007 OVC028 M06/M08 A2993 RMK CF2SC6 SLP150

CYHM;2007-12-16 05:00;CYHM 160500Z 06018KT 4SM -SN DRSN FEW007 OVC020 M06/M07 A2988 RMK CF2SC6 SLP133

CYHM;2007-12-16 05:07;CYHM 160507Z 06018KT 1 1/2SM -SN DRSN VV007 RMK SN8 VIS VRB 1 - 2

CYHM;2007-12-16 05:38;CYHM 160538Z 06017KT 2SM -SNPL DRSN OVC025 RMK SN1SC7

CYHM;2007-12-16 06:00;CYHM 160600Z 07018KT 1 1/2SM -SNPL DRSN VV010 M06/M07 A2981 RMK SN8 VIS VRB 1 - 2 PRESFR /S01/ SLP110

CYHM;2007-12-16 07:00;CYHM 160700Z 06017G22KT 1SM -SN DRSN VV009 M06/M07 A2975 RMK SN8 VIS VRB 3/4 - 11/4 PRESFR SLP087

CYHM;2007-12-16 07:26;CYHM 160726Z 07018KT 3SM -SN DRSN FEW007 OVC025 RMK CF2SC6 VIS VRB 2 - 4

CYHM;2007-12-16 08:00;CYHM 160800Z 07018G24KT 6SM -SN DRSN BKN006 OVC023 M05/M06 A2967 RMK CF6SC2 /S01/ PRESFR SLP063

CYHM;2007-12-16 08:14;CYHM 160814Z 07018G25KT 3SM -SNPL DRSN OVC006 RMK CF8 VIS VRB 2 - 4

CYHM;2007-12-16 09:00;CYHM 160900Z 07018G23KT 1 1/2SM -SN DRSN -FZRA OVC005 M05/M05 A2961 RMK SN2ST6 VIS VRB 1 - 2 PRESFR SLP040

CYHM;2007-12-16 09:37;CYHM 160937Z 07018G26KT 3SM -SN DRSN -FZRA BKN006 OVC022 RMK SF6SC2 VIS VRB 2 - 4

CYHM;2007-12-16 10:00;CYHM 161000Z 07020G25KT 5SM -SN DRSN -FZRA BKN005 OVC017 M04/M05 A2953 RMK SF6SC2 PRESFR SLP013

CYHM;2007-12-16 11:00;CYHM 161100Z 06020G27KT 4SM -SNPL DRSN -FZRA OVC007 M04/M04 A2947 RMK SF8 /S02/ PRESFR SLP993

CYHM;2007-12-16 11:09;CYHM 161109Z 06022KT 2SM -SNPL DRSN -FZRA OVC007 RMK SN1SF7

CYHM;2007-12-16 11:46;CYHM 161146Z 06023KT 1 1/2SM -SNPL BLSN OVC006 REFZRA RMK SN2SF6

CYHM;2007-12-16 12:00;CYHM 161200Z 06020G27KT 1 1/2SM -SNPL BLSN OVC006 M04/M04 A2940 REFZRA RMK SN2SF6 PRESFR SLP968

CYHM;2007-12-16 12:25;CYHM 161225Z 07023KT 1SM -SNPL BLSN OVC007 RMK SN2SF6

CYHM;2007-12-16 12:47;CYHM 161247Z 07021G26KT 2 1/2SM -SNPL DRSN OVC005 RMK SF8

CYHM;2007-12-16 13:00;CYHM 161300Z 06022KT 2 1/2SM -SNPL DRSN OVC005 M04/M04 A2934 RMK SF8 SLP949

CYHM;2007-12-16 13:24;CYHM 161324Z 06018KT 1 1/4SM -SNPL DRSN OVC005 RMK SN2SF6

CYHM;2007-12-16 13:32;CYHM 161332Z 06016KT 5/8SM -SN DRSN OVC005 RMK SN3SF5

CYHM;2007-12-16 13:48;CYHM 161348Z 05020KT 3/8SM -SN BLSN OVC006 RMK SN6SF2

CYHM;2007-12-16 14:00;CYHM 161400Z 06020KT 1/8SM +SN +BLSN VV004 M03/M04 A2934 RMK SN8 SLP949

CYHM;2007-12-16 15:00;CYHM 161500Z CCA 06017KT 1/4SM SN +BLSN VV004 M03/M03 A2930 RESN RMK SN8 /S05/ SLP933

CYHM;2007-12-16 16:00;CYHM 161600Z 04017KT 1/8SM SN +BLSN VV003 M03/M03 A2925 RMK SN8 /S08/ SLP917

CYHM;2007-12-16 17:00;CYHM 161700Z 03019KT 3/8SM SN BLSN VV006 M07/M08 A2921 RMK SN8 SLP903

CYHM;2007-12-16 18:00;CYHM 161800Z 02016G23KT 1/4SM -SN +BLSN VV004 M08/M09 A2918 RESN RMK SN8 /S10/ SLP895

CYHM;2007-12-16 18:42;CYHM 161842Z 35012G18KT 5/8SM -SN BLSN VV007 RMK SN8

CYHM;2007-12-16 19:00;CYHM 161900Z 36012G18KT 1 1/2SM -SN DRSN OVC026 M08/M10 A2919 RMK SN4SC4 SLP897

CYHM;2007-12-16 19:08;CYHM 161908Z 34017KT 2 1/2SM -SN DRSN OVC026 RMK SN1SC7

CYHM;2007-12-16 19:32;CYHM 161932Z 34017KT 3/4SM -SN BLSN OVC015 RMK SN2SC6

CYHM;2007-12-16 20:00;CYHM 162000Z 33014KT 1SM -SN DRSN SCT007 OVC017 M08/M10 A2924 RMK SN2CF1SC5 SLP914

CYHM;2007-12-16 20:35;CYHM 162035Z 33016KT 5/8SM -SN DRSN VV009 RMK SN8

CYHM;2007-12-16 21:00;CYHM 162100Z 33017KT 1/2SM SN DRSN VV009 M09/M10 A2931 RMK SN8 PRESRR /S02/ SLP938

CYHM;2007-12-16 21:26;CYHM 162126Z 32017KT 3/8SM SN DRSN VV008 RMK SN8

CYHM;2007-12-16 21:38;CYHM 162138Z 33016KT 3/4SM -SN DRSN VV010 RMK SN8

CYHM;2007-12-16 21:43;CYHM 162143Z 32016KT 1 1/4SM -SN DRSN VV015 RMK SN8

CYHM;2007-12-16 21:48;CYHM 162148Z 32016KT 3SM -SN DRSN OVC019 RMK SC8

CYHM;2007-12-16 22:00;CYHM 162200Z 32015KT 3SM -SN DRSN FEW008 BKN025 OVC090 M08/M11 A2936 RMK CF2SC6AC1 /S04/ SLP955

CYHM;2007-12-16 22:55;CYHM 162255Z 30009KT 1 1/2SM -SN VV011 RMK SN8

CYHM;2007-12-16 23:00;CYHM 162300Z 29009KT 1 3/4SM -SN VV012 M08/M10 A2942 RMK SN8 SLP973

CYHM;2007-12-16 23:52;CYHM 162352Z 29010KT 1SM -SN VV008 RMK SN8

CYHM;2007-12-17 00:00;CYHM 170000Z 29009KT 1SM -SN VV009 M08/M10 A2947 RMK SN8 SLP992

CYHM;2007-12-17 00:32;CYHM 170032Z 29014KT 2SM -SN DRSN FEW008 BKN020 OVC045 RMK SN2CF1SC3SC2

CYHM;2007-12-17 01:00;CYHM 170100Z 28012KT 3SM -SN FEW008 BKN020 OVC045 M08/M11 A2951 RMK SN1CF2SC3SC2 SLP006

CYHM;2007-12-17 02:00;CYHM 170200Z 28012KT 2 1/4SM -SN OVC015 M08/M10 A2956 RMK SN1SC7 SLP021

CYHM;2007-12-17 02:21;CYHM 170221Z 29013KT 5SM -SN FEW009 BKN025 OVC045 RMK CF2SC4SC2

CYHM;2007-12-17 03:00;CYHM 170300Z 29014KT 7SM -SHSN DRSN FEW009 BKN040 OVC058 M07/M11 A2960 RMK CF2SC4SC2 SLP037

CYHM;2007-12-17 04:00;CYHM 170400Z 29015KT 12SM DRSN SCT045 BKN085 M07/M11 A2965 RMK SC4AC3 SLP053

CYHM;2007-12-17 05:00;CYHM 170500Z 29011G16KT 15SM DRSN FEW020 FEW080 SCT200 M07/M10 A2970 RMK CF1AC1CI2 SLP069

CYHM;2007-12-17 06:00;CYHM 170600Z 28011KT 15SM FEW085 FEW210 M07/M10 A2974 RMK AC1CI1 AC TR SLP084

CYHM;2007-12-17 07:00;CYHM 170700Z 29012G18KT 15SM FEW220 M07/M10 A2978 RMK CI0 SLP099

CYHM;2007-12-17 08:00;CYHM 170800Z 29013KT 15SM FEW220 M07/M11 A2983 RMK CI1 SLP115

CYHM;2007-12-17 09:00;CYHM 170900Z 30010KT 15SM SKC M08/M11 A2985 RMK SLP124

CYHM;2007-12-17 10:00;CYHM 171000Z 32008KT 15SM FEW090 M07/M12 A2988 RMK AC1 SLP132

CYHM;2007-12-17 11:00;CYHM 171100Z 23006KT 15SM FEW040 M11/M14 A2992 RMK SC1 SLP145

CYHM;2007-12-17 12:00;CYHM 171200Z 25005KT 15SM FEW040 BKN055 M09/M11 A2994 RMK SC2SC5 SLP156

CYHM;2007-12-17 13:00;CYHM 171300Z 24005KT 15SM BKN021 M09/M11 A2996 RMK SC7 SLP161

CYHM;2007-12-17 13:50;CYHM 171350Z 00000KT 2SM -SHSN OVC025 RMK SC8

CYHM;2007-12-17 14:00;CYHM 171400Z 00000KT 1 1/2SM -SHSN BR OVC024 M07/M09 A2999 RMK SN1SC7 SLP170

CYHM;2007-12-17 14:32;CYHM 171432Z 00000KT 2SM -SHSN BR OVC017 RMK SN1SC7

CYHM;2007-12-17 15:00;CYHM 171500Z 10002KT 2 1/2SM -SHSN BR OVC013 M06/M07 A3000 RMK SC8 SLP174

CYHM;2007-12-17 16:00;CYHM 171600Z 02003KT 2 1/2SM -SHSN BR BKN009 OVC016 M06/M07 A3001 RMK SC6SC2 SLP178

CYHM;2007-12-17 16:44;CYHM 171644Z 32003KT 4SM -SHSN BR OVC017 RMK SC8

CYHM;2007-12-17 17:00;CYHM 171700Z 30004KT 5SM -SHSN BR OVC016 M05/M07 A3002 RMK SC8 SLP180

CYHM;2007-12-17 18:00;CYHM 171800Z 26005KT 5SM -SHSN BR BKN017 OVC024 M05/M07 A3003 RMK SC6SC2 SLP182

CYHM;2007-12-17 19:00;CYHM 171900Z 26010G15KT 7SM -SHSN FEW026 BKN037 M03/M06 A3002 RMK CU2SC6 SLP181

CYHM;2007-12-17 20:00;CYHM 172000Z 26012KT 15SM FEW024 BKN042 M03/M07 A3005 RMK SC1SC6 SLP189

CYHM;2007-12-17 21:00;CYHM 172100Z 24014KT 15SM FEW024 BKN038 M03/M08 A3007 RMK CU1SC7 CU TR SLP196

CYHM;2007-12-17 22:00;CYHM 172200Z 24008KT 15SM FEW038 FEW250 M05/M10 A3010 RMK SC2CI1 CI TR SLP205

CYHM;2007-12-17 23:00;CYHM 172300Z 24008KT 15SM FEW038 FEW250 M06/M10 A3012 RMK SC1CI1 SLP213

CYHM;2007-12-18 00:00;CYHM 180000Z 24007KT 15SM BKN030 M06/M10 A3014 RMK SC6 SLP221

CYHM;2007-12-18 01:00;CYHM 180100Z 22007KT 15SM BKN030 M06/M09 A3015 RMK SC7 SLP225

CYHM;2007-12-18 02:00;CYHM 180200Z 24009KT 15SM FEW026 M05/M08 A3015 RMK SC2 SLP226

CYHM;2007-12-18 03:00;CYHM 180300Z 24011KT 15SM FEW250 M06/M09 A3016 RMK CI1 CI TR SLP227

CYHM;2007-12-18 04:00;CYHM 180400Z 26012KT 12SM BKN022 M06/M08 A3016 RMK SC7 SLP228

CYHM;2007-12-18 05:00;CYHM 180500Z 24008KT 12SM BKN018 M06/M08 A3016 RMK SC7 SLP228

CYHM;2007-12-18 06:00;CYHM 180600Z 25013KT 6SM BR OVC008 M06/M08 A3015 RMK SC8 SLP225

CYHM;2007-12-18 07:00;CYHM 180700Z 25012KT 6SM BR BKN008 OVC014 M06/M08 A3015 RMK SF5SC3 SLP225

CYHM;2007-12-18 08:00;CYHM 180800Z 25012KT 6SM BR FEW008 OVC010 M06/M07 A3016 RMK SF1SC7 SLP227

CYHM;2007-12-18 09:00;CYHM 180900Z 24011KT 5SM BR OVC009 M06/M07 A3016 RMK SC8 SLP226

CYHM;2007-12-18 10:00;CYHM 181000Z 25012KT 5SM BR OVC009 M05/M06 A3017 RMK SC8 SLP228

CYHM;2007-12-18 10:48;CYHM 181048Z 25013KT 5SM BR OVC010 RMK SC8

CYHM;2007-12-18 11:00;CYHM 181100Z 25012KT 5SM BR OVC010 M05/M06 A3017 RMK SC8 SLP230

CYHM;2007-12-18 12:00;CYHM 181200Z 24010KT 6SM BR FEW012 SCT220 M05/M06 A3018 RMK SC2CI1 SLP233

CYHM;2007-12-18 13:00;CYHM 181300Z 24008KT 4SM BR FEW010 SCT210 M06/M07 A3019 RMK SF1CI1 CONTRAIL SLP236

CYHM;2007-12-18 14:00;CYHM 181400Z 25008KT 3SM BR SCT240 M06/M07 A3019 RMK CI1 SLP237

CYHM;2007-12-18 15:00;CYHM 181500Z 25012KT 4SM BR BKN240 M06/M07 A3020 RMK CI2 SLP240

CYHM;2007-12-18 16:00;CYHM 181600Z 24010KT 5SM BR FEW160 BKN220 M03/M05 A3020 RMK AC1CI4 SLP239

CYHM;2007-12-18 17:00;CYHM 181700Z 24014KT 7SM BKN130 BKN220 M01/M03 A3017 RMK AS5CI2 SLP229

CYHM;2007-12-18 18:00;CYHM 181800Z 22014KT 8SM FEW035 SCT130 BKN220 01/M03 A3015 RMK SC1AS2CI3 SLP223

CYHM;2007-12-18 19:00;CYHM 181900Z 22014KT 8SM FEW018 BKN140 BKN220 01/M02 A3015 RMK SC2AS2CI1 SLP221

CYHM;2007-12-18 20:00;CYHM 182000Z 21008KT 6SM HZ BKN017 00/M02 A3014 RMK SC7 SLP218

CYHM;2007-12-18 21:00;CYHM 182100Z 20008KT 5SM BR BKN015 BKN250 00/M02 A3013 RMK SC7CI1 CI TR SLP217

CYHM;2007-12-18 22:00;CYHM 182200Z 20011KT 8SM FEW016 BKN190 M00/M02 A3012 RMK SC2AC4 CONTRAIL SLP211

CYHM;2007-12-18 23:00;CYHM 182300Z 20010KT 12SM FEW190 BKN220 M01/M03 A3011 RMK AC1CI3 SLP210

CYHM;2007-12-19 00:00;CYHM 190000Z 20007KT 15SM BKN200 M02/M04 A3011 RMK CI3 SLP209

CYHM;2007-12-19 01:00;CYHM 190100Z 20009KT 15SM FEW170 BKN250 M00/M03 A3010 RMK AC2CI2 SLP207

CYHM;2007-12-19 02:00;CYHM 190200Z 20008KT 15SM FEW170 BKN220 M01/M04 A3009 RMK AC1CI2 SLP201

CYHM;2007-12-19 03:00;CYHM 190300Z 19008KT 15SM FEW160 BKN220 M00/M04 A3007 RMK AC1CI2 SLP193

CYHM;2007-12-19 04:00;CYHM 190400Z 20008KT 15SM FEW110 BKN220 00/M04 A3004 RMK AC2CI2 SLP184

CYHM;2007-12-19 05:00;CYHM 190500Z 20007KT 15SM SCT220 M02/M05 A3003 RMK CI1 SLP180

CYHM;2007-12-19 06:00;CYHM 190600Z 19005KT 15SM BKN100 M00/M03 A3000 RMK AC7 SLP169

CYHM;2007-12-19 07:00;CYHM 190700Z 18007KT 15SM BKN056 OVC090 01/M03 A2999 RMK SC6AC2 SLP164

CYHM;2007-12-19 08:00;CYHM 190800Z 19007KT 15SM OVC050 02/M02 A2998 RMK SC8 SLP161

CYHM;2007-12-19 09:00;CYHM 190900Z 18008KT 15SM OVC047 02/M02 A2995 RMK SC8 SLP151

CYHM;2007-12-19 10:00;CYHM 191000Z 17008KT 15SM OVC041 02/M02 A2994 RMK SC8 SLP146

CYHM;2007-12-19 11:00;CYHM 191100Z 19010KT 15SM BKN038 OVC060 03/M01 A2992 RMK SC6SC2 SLP141

CYHM;2007-12-19 12:00;CYHM 191200Z 20012KT 15SM OVC032 03/M01 A2992 RMK SC8 SLP140

CYHM;2007-12-19 13:00;CYHM 191300Z 20010KT 15SM OVC034 03/M01 A2991 RMK SC8 SLP138

CYHM;2007-12-19 14:00;CYHM 191400Z 21011KT 8SM OVC031 03/M00 A2991 RMK SC8 SLP139

CYHM;2007-12-19 15:00;CYHM 191500Z CCA 21010KT 15SM BKN028 OVC048 02/00 A2992 RMK SC6SC2 SLP140

CYHM;2007-12-19 15:55;CYHM 191555Z 22010KT 10SM -DZ OVC019 RMK SC8

CYHM;2007-12-19 16:00;CYHM 191600Z 22010KT 8SM -DZ OVC019 03/00 A2991 RMK SC8 SLP138

CYHM;2007-12-19 17:00;CYHM 191700Z 22010KT 5SM -DZ BR FEW010 BKN016 OVC042 02/01 A2990 RMK SF2SC4SC2 SLP135

CYHM;2007-12-19 17:54;CYHM 191754Z 25010KT 5SM -SHRA BR SCT009 OVC036 RMK SF3SC5

CYHM;2007-12-19 18:00;CYHM 191800Z 25010KT 5SM -SHRA BR FEW008 BKN019 OVC038 02/01 A2990 RMK SF2SC3SC2 SLP133

CYHM;2007-12-19 19:00;CYHM 191900Z 25010KT 5SM -SHRA BR FEW010 BKN020 OVC035 02/00 A2991 RMK SF2SC5SC2 SLP136

CYHM;2007-12-19 19:22;CYHM 191922Z 25011KT 2 1/2SM -SHRA BR FEW013 OVC041 RMK SF2SC6

CYHM;2007-12-19 20:00;CYHM 192000Z 25008KT 2 1/2SM -SHRA BR BKN018 OVC043 02/M00 A2992 RMK SC5SC3 SLP142

CYHM;2007-12-19 21:00;CYHM 192100Z 25008KT 2 1/2SM -SHSN BR OVC018 01/M01 A2995 RMK SC8 SLP150

CYHM;2007-12-19 21:45;CYHM 192145Z 26008KT 3SM -SHSN BR OVC015 RMK SC8

CYHM;2007-12-19 22:00;CYHM 192200Z 25010KT 3SM -SHSN HZ OVC015 01/M01 A2997 RMK SC8 SLP159

CYHM;2007-12-19 23:00;CYHM 192300Z 26008KT 8SM -SHSN SCT016 BKN028 OVC054 01/M01 A3000 RMK SC3SC3SC2 SLP168

CYHM;2007-12-20 00:00;CYHM 200000Z 25011KT 7SM -SHSN SCT016 BKN024 OVC054 01/M01 A3002 RMK SC3SC4SC1 SLP176

CYHM;2007-12-20 00:50;CYHM 200050Z 24009KT 7SM -SHSN OVC014 RMK SC8

CYHM;2007-12-20 01:00;CYHM 200100Z 25008KT 7SM -SHSN OVC014 01/M01 A3005 RMK SC8 SLP184

CYHM;2007-12-20 02:00;CYHM 200200Z 25010KT 6SM -SHSN OVC012 01/M01 A3006 RMK SC8 SLP189

CYHM;2007-12-20 03:00;CYHM 200300Z 25008KT 5SM -SHSN OVC014 01/M01 A3007 RMK SC8 SLP190

CYHM;2007-12-20 04:00;CYHM 200400Z 25008KT 5SM -SHSN SCT014 OVC049 01/M01 A3008 RMK SC4SC4 SLP194

CYHM;2007-12-20 05:00;CYHM 200500Z 25009KT 6SM -SHSN BKN011 OVC040 01/M01 A3009 RMK SC6SC2 SLP197

CYHM;2007-12-20 06:00;CYHM 200600Z 25010KT 6SM -SHSN FEW009 OVC015 00/M01 A3009 RMK CF2SC6 SLP199

CYHM;2007-12-20 07:00;CYHM 200700Z 26008KT 6SM BR OVC015 01/M00 A3010 RMK SC8 SLP204

CYHM;2007-12-20 08:00;CYHM 200800Z 26007KT 6SM BR FEW009 BKN030 OVC058 01/M00 A3011 RMK CF1SC6SC1 SLP207

CYHM;2007-12-20 09:00;CYHM 200900Z 26009KT 6SM BR FEW011 BKN051 00/M00 A3011 RMK CF1SC3 SLP206

CYHM;2007-12-20 10:00;CYHM 201000Z 29005KT 7SM -SHSN OVC017 01/M01 A3012 RMK SC8 SLP210

CYHM;2007-12-20 11:00;CYHM 201100Z 28005KT 12SM FEW057 BKN190 M01/M04 A3014 RMK SC2AC2 SLP215

CYHM;2007-12-20 12:00;CYHM 201200Z 28005KT 15SM FEW018 FEW055 SCT180 M02/M04 A3016 RMK SC2SC1AC1 SLP224

CYHM;2007-12-20 13:00;CYHM 201300Z 28004KT 10SM OVC016 M02/M04 A3018 RMK SC8 SLP229

CYHM;2007-12-20 14:00;CYHM 201400Z 30003KT 8SM BKN016 OVC022 M01/M04 A3020 RMK SC6SC2 SLP237

CYHM;2007-12-20 15:00;CYHM 201500Z 33005KT 10SM BKN042 BKN055 M01/M03 A3022 RMK SC6SC1 SLP243

CYHM;2007-12-20 16:00;CYHM 201600Z 35003KT 8SM BKN032 M01/M04 A3020 RMK SC7 SLP239

CYHM;2007-12-20 17:00;CYHM 201700Z 02007KT 10SM OVC031 M00/M04 A3018 RMK SC8 SLP232

CYHM;2007-12-20 18:00;CYHM 201800Z 03002KT 10SM SCT021 OVC027 M00/M04 A3019 RMK SC3SC5 SLP234

CYHM;2007-12-20 19:00;CYHM 201900Z 32002KT 10SM OVC026 00/M05 A3021 RMK SC8 SLP239

CYHM;2007-12-20 20:00;CYHM 202000Z 33002KT 15SM OVC026 00/M05 A3020 RMK SC8 SLP235

CYHM;2007-12-20 21:00;CYHM 202100Z 00000KT 15SM BKN025 M00/M05 A3020 RMK SC7 SLP238

CYHM;2007-12-20 22:00;CYHM 202200Z 36004KT 15SM BKN025 M00/M05 A3022 RMK SC7 SLP242

CYHM;2007-12-20 23:00;CYHM 202300Z 03005KT 15SM BKN027 M01/M04 A3022 RMK SC7 SLP243

CYHM;2007-12-21 00:00;CYHM 210000Z 07007KT 15SM BKN026 M02/M05 A3023 RMK SC5 SLP248

CYHM;2007-12-21 01:00;CYHM 210100Z 06007KT 15SM FEW019 BKN026 M03/M05 A3022 RMK CU2SC4 SLP246

CYHM;2007-12-21 02:00;CYHM 210200Z 08007KT 10SM OVC015 M01/M03 A3023 RMK SC8 SLP249

CYHM;2007-12-21 03:00;CYHM 210300Z 10006KT 12SM FEW010 OVC014 M02/M03 A3023 RMK CF2SC6 SLP249

CYHM;2007-12-21 04:00;CYHM 210400Z 11008KT 7SM OVC009 M02/M03 A3024 RMK SC8 SLP252

CYHM;2007-12-21 04:32;CYHM 210432Z 11006KT 10SM OVC015 RMK SC8

CYHM;2007-12-21 05:00;CYHM 210500Z 10007KT 12SM OVC019 M02/M04 A3023 RMK SC8 SLP250

CYHM;2007-12-21 06:00;CYHM 210600Z 08005KT 12SM FEW022 SCT150 M02/M04 A3023 RMK SC1AC2 SLP248

CYHM;2007-12-21 07:00;CYHM 210700Z 05007KT 10SM FEW025 FEW200 M03/M05 A3023 RMK SC1CI1 SLP247

CYHM;2007-12-21 08:00;CYHM 210800Z 05007KT 6SM BR SCT210 M04/M05 A3024 RMK CI3 SLP251

CYHM;2007-12-21 09:00;CYHM 210900Z 05008KT 5SM BR FEW200 M04/M05 A3021 RMK CI2 FROIN SLP243

CYHM;2007-12-21 09:11;CYHM 210911Z 05008KT 4SM BR FEW003 SCT200 RMK SF1CI2

CYHM;2007-12-21 10:00;CYHM 211000Z 05009KT 5SM BR FEW004 SCT200 M04/M05 A3021 RMK SF1CI2 FROIN SLP242

CYHM;2007-12-21 11:00;CYHM 211100Z 05008KT 6SM BR FEW200 M04/M05 A3020 RMK CI1 SLP239

CYHM;2007-12-21 12:00;CYHM 211200Z 05009KT 6SM BR FEW200 M04/M05 A3022 RMK CI0 SLP246

CYHM;2007-12-21 13:00;CYHM 211300Z 05008KT 6SM BR SKC M05/M06 A3022 RMK SLP247

CYHM;2007-12-21 14:00;CYHM 211400Z 07008KT 5SM BR SKC M05/M06 A3022 RMK SLP247

CYHM;2007-12-21 15:00;CYHM 211500Z 06008KT 6SM BR FEW180 M03/M05 A3023 RMK AC1 AC TR SLP247

CYHM;2007-12-21 16:00;CYHM 211600Z 06008KT 8SM FEW210 M01/M04 A3023 RMK CI1 SLP248

CYHM;2007-12-21 17:00;CYHM 211700Z 05008KT 10SM FEW040 BKN150 BKN210 M00/M03 A3021 RMK CU1AC5CI0 CU TR SLP243

CYHM;2007-12-21 18:00;CYHM 211800Z 09009KT 10SM SCT150 BKN210 M00/M03 A3019 RMK AC3CI2 SLP234

CYHM;2007-12-21 19:00;CYHM 211900Z 08005KT 12SM BKN150 BKN220 01/M03 A3018 RMK AC5CI2 SLP230

CYHM;2007-12-21 20:00;CYHM 212000Z 05006KT 12SM SCT150 BKN210 00/M03 A3018 RMK AC3CI3 SLP231

CYHM;2007-12-21 21:00;CYHM 212100Z 04007KT 12SM FEW150 BKN230 00/M03 A3020 RMK AC2CI1 SLP238

CYHM;2007-12-21 22:00;CYHM 212200Z 04010KT 15SM BKN180 BKN230 M00/M03 A3020 RMK AC5CI1 SLP237

CYHM;2007-12-21 23:00;CYHM 212300Z 04007KT 15SM BKN180 M00/M02 A3021 RMK AC4 SLP242

CYHM;2007-12-22 00:00;CYHM 220000Z 05006KT 15SM SCT170 M00/M02 A3022 RMK AC4 SLP244

CYHM;2007-12-22 01:00;CYHM 220100Z 06006KT 15SM OVC030 00/M01 A3022 RMK SC8 SLP246

CYHM;2007-12-22 02:00;CYHM 220200Z 07005KT 15SM OVC026 01/M01 A3022 RMK SC8 SLP244

CYHM;2007-12-22 03:00;CYHM 220300Z 12004KT 15SM OVC030 02/M02 A3022 RMK SC8 SLP243

CYHM;2007-12-22 04:00;CYHM 220400Z 11003KT 12SM OVC034 01/M01 A3023 RMK SC8 SLP247

CYHM;2007-12-22 05:00;CYHM 220500Z 13006KT 15SM OVC036 02/M01 A3023 RMK SC8 SLP247

CYHM;2007-12-22 06:00;CYHM 220600Z 14005KT 15SM BKN052 02/M01 A3023 RMK SC7 SLP247

CYHM;2007-12-22 07:00;CYHM 220700Z 14004KT 10SM OVC049 02/M01 A3023 RMK SC8 SLP247

CYHM;2007-12-22 08:00;CYHM 220800Z 16004KT 10SM OVC042 02/M01 A3025 RMK SC8 SLP253

CYHM;2007-12-22 09:00;CYHM 220900Z 14007KT 12SM FEW040 OVC083 02/M01 A3023 RMK SC2AC6 SLP246

CYHM;2007-12-22 10:00;CYHM 221000Z 13005KT 12SM OVC032 02/M00 A3023 RMK SC8 SLP246

CYHM;2007-12-22 11:00;CYHM 221100Z 16004KT 10SM OVC027 02/M00 A3023 RMK SC8 SLP248

CYHM;2007-12-22 12:00;CYHM 221200Z 15003KT 15SM OVC024 03/00 A3025 RMK SC8 SLP253

CYHM;2007-12-22 12:29;CYHM 221229Z 10005KT 6SM -SHRA BR OVC025 RMK SC8

CYHM;2007-12-22 13:00;CYHM 221300Z 11004KT 6SM -SHRA BR OVC028 02/01 A3024 RMK SC8 SLP250

CYHM;2007-12-22 13:40;CYHM 221340Z 10004KT 5SM BR OVC029 RMK SC8

CYHM;2007-12-22 14:00;CYHM 221400Z 10004KT 5SM BR OVC030 02/01 A3025 RMK SC8 SLP253

CYHM;2007-12-22 15:00;CYHM 221500Z 13006KT 8SM OVC034 03/01 A3026 RMK SC8 SLP255

CYHM;2007-12-22 16:00;CYHM 221600Z 15005KT 10SM OVC035 03/01 A3024 RMK SC8 SLP251

CYHM;2007-12-22 17:00;CYHM 221700Z CCA 15005KT 12SM OVC037 04/01 A3022 RMK SC8 SLP242

CYHM;2007-12-22 18:00;CYHM 221800Z 13005KT 12SM BKN042 OVC073 03/01 A3019 RMK SC6AC2 SLP233

CYHM;2007-12-22 19:00;CYHM 221900Z 09004KT 15SM BKN047 OVC072 04/01 A3017 RMK SC5AC3 SLP224

CYHM;2007-12-22 20:00;CYHM 222000Z 13007KT 12SM FEW046 BKN060 OVC072 04/01 A3017 RMK SC2SC3AC3 SLP224

CYHM;2007-12-22 21:00;CYHM 222100Z 13009KT 15SM FEW058 BKN072 OVC200 04/01 A3013 RMK SC2AC3CI2 SLP212

CYHM;2007-12-22 22:00;CYHM 222200Z 15007KT 15SM SCT070 BKN200 04/02 A3015 RMK AC4CI2 SLP218

CYHM;2007-12-22 23:00;CYHM 222300Z 15009KT 15SM FEW070 BKN170 BKN210 04/02 A3012 RMK AC2AC2CI2 SLP207

CYHM;2007-12-23 00:00;CYHM 230000Z 16007KT 15SM FEW070 SCT170 BKN210 03/02 A3012 RMK AC1AC2CI2 SLP207

CYHM;2007-12-23 01:00;CYHM 230100Z 14009KT 15SM FEW050 SCT190 BKN210 03/02 A3010 RMK SC2AC2CI2 SLP202

CYHM;2007-12-23 02:00;CYHM 230200Z 15008KT 15SM BKN051 04/02 A3010 RMK SC7 SLP203

CYHM;2007-12-23 03:00;CYHM 230300Z 15009KT 15SM BKN054 BKN170 04/02 A3007 RMK SC6AC2 SLP192

CYHM;2007-12-23 04:00;CYHM 230400Z 16007KT 15SM FEW060 OVC130 04/02 A3007 RMK SC2AC6 SLP192

CYHM;2007-12-23 05:00;CYHM 230500Z 16006KT 15SM FEW065 OVC140 04/02 A3005 RMK SC2AC6 SLP185

CYHM;2007-12-23 06:00;CYHM 230600Z 16010KT 15SM FEW070 OVC140 05/03 A3002 RMK AC2AC6 SLP174

CYHM;2007-12-23 07:00;CYHM 230700Z 16012KT 15SM OVC120 05/03 A2997 RMK AC8 SLP158

CYHM;2007-12-23 08:00;CYHM 230800Z 17007KT 15SM FEW120 OVC210 04/03 A2995 RMK AC2CI6 SLP151

CYHM;2007-12-23 09:00;CYHM 230900Z 13008KT 15SM FEW095 OVC170 04/03 A2987 RMK AC2AC6 PRESFR SLP123

CYHM;2007-12-23 10:00;CYHM 231000Z 14012KT 12SM -SHRA FEW050 OVC080 05/03 A2982 RMK SC2AC6 SLP106

CYHM;2007-12-23 11:00;CYHM 231100Z 15012KT 15SM FEW050 OVC080 05/04 A2978 RMK SC2AC6 SLP092

CYHM;2007-12-23 11:05;CYHM 231105Z 15013KT 15SM -SHRA FEW050 OVC080 RMK SC2AC6

CYHM;2007-12-23 12:00;CYHM 231200Z 14013KT 15SM -SHRA SCT051 BKN068 BKN180 06/04 A2972 RMK SC4AC2AC1 SLP071

CYHM;2007-12-23 13:00;CYHM 231300Z 16016KT 4SM -SHRA BR OVC047 07/05 A2971 RMK SC8 SLP066

CYHM;2007-12-23 14:00;CYHM 231400Z 14013KT 5SM -SHRA BR BKN045 OVC063 06/06 A2965 RERA RMK SC6SC2 PRESFR SLP046

CYHM;2007-12-23 15:00;CYHM 231500Z 16013KT 4SM -SHRA BR OVC038 07/06 A2962 RERA RMK SC8 SLP037

CYHM;2007-12-23 15:50;CYHM 231550Z 17013KT 2 1/2SM -SHRA BR FEW014 OVC028 RMK CF2SC6

CYHM;2007-12-23 16:00;CYHM 231600Z CCA 18012KT 3SM -SHRA BR FEW014 OVC027 08/07 A2958 RMK CF2SC6 /R12/ SLP024

CYHM;2007-12-23 16:20;CYHM 231620Z 18010KT 4SM -SHRA BR SCT009 OVC021 RMK CF3SC5

CYHM;2007-12-23 17:00;CYHM 231700Z 16014G21KT 7SM -SHRA FEW012 OVC023 08/07 A2953 RMK CF1SC8 SLP006

CYHM;2007-12-23 17:48;CYHM 231748Z 23014KT 7SM -SHRA BKN011 OVC024 RERA RMK CF6SC2

CYHM;2007-12-23 18:00;CYHM 231800Z 24017G24KT 8SM -SHRA BKN012 BKN024 OVC045 07/07 A2951 RERA RMK CF5SC2SC2 SLP999

CYHM;2007-12-23 18:45;CYHM 231845Z 25010KT 9SM -SHRA FEW009 SCT024 OVC038 RMK CF2SC2SC4

CYHM;2007-12-23 19:00;CYHM 231900Z CCA 25010KT 8SM -SHRA FEW009 BKN023 OVC046 05/05 A2952 RMK CF2SC3SC3 SLP000

CYHM;2007-12-23 20:00;CYHM 232000Z 24019G26KT 15SM FEW008 SCT022 BKN054 03/M00 A2953 RMK CF2SC2SC3 SLP004

CYHM;2007-12-23 21:00;CYHM 232100Z 24024G32KT 15SM FEW014 SCT030 BKN092 01/M03 A2956 RMK CF2SC2AC2 SLP018

CYHM;2007-12-23 21:44;CYHM 232144Z 24023G30KT 7SM -SHSN OVC020 RMK SC8

CYHM;2007-12-23 22:00;CYHM 232200Z 24028G37KT 12SM -SHSN SCT019 OVC027 M01/M05 A2964 RMK SC3SC5 PRESRR PCPN VRY LGT SLP044

CYHM;2007-12-23 22:12;CYHM 232212Z 23027G35KT 15SM SCT019 OVC028 RMK SC3SC5

CYHM;2007-12-23 23:00;CYHM 232300Z 23020G27KT 12SM -SHSN BKN022 BKN046 M02/M08 A2967 RMK SC5SC2 SLP055

CYHM;2007-12-24 00:00;CYHM 240000Z 24022G28KT 15SM -SHSN SCT028 BKN045 BKN068 M02/M06 A2968 RMK SC3SC2AC2 SLP059

CYHM;2007-12-24 01:00;CYHM 240100Z 24022G30KT 15SM FEW016 SCT035 BKN058 BKN095 M03/M11 A2972 RMK CF1SC3SC2AC1 VIRGA SLP073

CYHM;2007-12-24 01:19;CYHM 240119Z 24023G31KT 4SM -SHSN FEW015 BKN030 BKN045 RMK CF2SC3SC2

CYHM;2007-12-24 01:27;CYHM 240127Z 24021G28KT 1 3/4SM -SHSN VV009 RMK SN8

CYHM;2007-12-24 01:29;CYHM 240129Z 24021G28KT 1 1/4SM -SHSN VV008 RMK SN8

CYHM;2007-12-24 01:35;CYHM 240135Z 23020G26KT 4SM -SHSN FEW015 BKN030 BKN062 RMK CF2SC3SC2

CYHM;2007-12-24 02:00;CYHM 240200Z 24020G28KT 12SM -SHSN SCT030 BKN045 M04/M10 A2971 RMK SC3SC3 SLP069

CYHM;2007-12-24 02:17;CYHM 240217Z 23020G26KT 1 3/4SM -SHSN VV010 RMK SN8

CYHM;2007-12-24 02:22;CYHM 240222Z 23020G26KT 1/2SM SN VV006 RMK SN8

CYHM;2007-12-24 02:35;CYHM 240235Z 24016KT 1SM -SHSN VV012 RMK SN8

CYHM;2007-12-24 02:41;CYHM 240241Z 24016KT 5/8SM -SHSN VV006 RMK SN8

CYHM;2007-12-24 02:50;CYHM 240250Z 24017KT 1 3/4SM -SHSN VV012 RMK SN8

CYHM;2007-12-24 03:00;CYHM 240300Z 23019G27KT 10SM -SHSN SCT033 BKN050 M05/M07 A2971 RMK SC3SC3 SLP071

CYHM;2007-12-24 04:00;CYHM 240400Z 23018G27KT 10SM FEW025 BKN055 M05/M09 A2971 RMK SC2SC5 SLP070

CYHM;2007-12-24 04:18;CYHM 240418Z 23015G20KT 8SM -SHSN BKN056 RMK SC6

CYHM;2007-12-24 05:00;CYHM 240500Z 23015G20KT 5SM -SHSN FEW015 OVC039 M04/M08 A2971 RMK CF2SC6 SLP071

CYHM;2007-12-24 06:00;CYHM 240600Z 23015G20KT 1 1/2SM -SHSN BKN013 M04/M06 A2971 RMK SN2SC6 VIS VRB 1 - 2 /S01/ SLP068

CYHM;2007-12-24 06:39;CYHM 240639Z 24014KT 1SM -SHSN VV006 RMK SN8 VIS VRB 3/4 - 11/4

CYHM;2007-12-24 06:43;CYHM 240643Z 25015G20KT 1/2SM SHSN VV003 RMK SN8

CYHM;2007-12-24 07:00;CYHM 240700Z 25018KT 1/4SM +SHSN DRSN VV003 M05/M06 A2971 RMK SN8 /S02/ SLP069

CYHM;2007-12-24 07:08;CYHM 240708Z 25020KT 3/4SM -SHSN DRSN VV006 RMK SN8 VIS VRB 1/2 - 1

CYHM;2007-12-24 08:00;CYHM 240800Z 24018G24KT 3/4SM -SHSN DRSN VV014 M05/M05 A2971 RMK SN8 VIS VRB 1/2 - 1 /S03/ SLP071

CYHM;2007-12-24 08:15;CYHM 240815Z 23018G24KT 1 1/2SM -SHSN DRSN OVC012 RMK SN2SC6 VIS VRB 1 - 2

CYHM;2007-12-24 08:41;CYHM 240841Z 24018G28KT 3SM -SHSN DRSN OVC040 RMK SC8 VIS VRB 2 - 4

CYHM;2007-12-24 09:00;CYHM 240900Z 24018G27KT 5SM -SHSN DRSN OVC042 M05/M06 A2970 RMK SC8 /S04/ SLP067

CYHM;2007-12-24 10:00;CYHM 241000Z 24020G30KT 8SM -SHSN DRSN OVC040 M04/M07 A2970 RMK SC8 SLP068

CYHM;2007-12-24 11:00;CYHM 241100Z 24020G30KT 6SM -SHSN DRSN OVC035 M04/M07 A2971 RMK SC8 SLP072

CYHM;2007-12-24 12:00;CYHM 241200Z 24020G25KT 6SM -SHSN DRSN SCT024 OVC063 M04/M06 A2974 RMK SC3SC5 SLP081

CYHM;2007-12-24 13:00;CYHM 241300Z 24022G30KT 7SM -SN DRSN BKN021 OVC049 M04/M07 A2975 RMK SC6SC2 SLP087

CYHM;2007-12-24 14:00;CYHM 241400Z 24024G29KT 4SM -SN DRSN BKN018 OVC023 M04/M07 A2977 RMK SC5SC3 SLP093

CYHM;2007-12-24 15:00;CYHM 241500Z 24020G26KT 10SM -SN DRSN SCT018 OVC023 M04/M07 A2981 RMK SC4SC4 SLP108

CYHM;2007-12-24 16:00;CYHM 241600Z 25014KT 4SM -SN DRSN FEW020 OVC032 M04/M06 A2984 RMK SC2SC6 SLP116

CYHM;2007-12-24 17:00;CYHM 241700Z 24022G28KT 5SM -SN DRSN FEW019 OVC034 M03/M07 A2985 RMK SC2SC6 SLP121

CYHM;2007-12-24 18:00;CYHM 241800Z 23025KT 4SM -SN DRSN SCT018 OVC022 M03/M06 A2985 RMK SC3SC5 SLP122

CYHM;2007-12-24 19:00;CYHM 241900Z 24020KT 6SM -SN DRSN OVC020 M03/M06 A2987 RMK SC8 SLP128

CYHM;2007-12-24 20:00;CYHM 242000Z 23019G27KT 4SM -SN DRSN OVC018 M03/M06 A2989 RMK SC8 SLP135

CYHM;2007-12-24 21:00;CYHM 242100Z 22021KT 4SM -SN DRSN OVC017 M03/M06 A2993 RMK SC8 PCPN VRY LGT SLP146

CYHM;2007-12-24 21:30;CYHM 242130Z 23018KT 10SM OVC020 RMK SC8

CYHM;2007-12-24 22:00;CYHM 242200Z 22015KT 10SM OVC021 M02/M06 A2996 RMK SC8 SLP156

CYHM;2007-12-24 23:00;CYHM 242300Z 22017KT 10SM OVC018 M02/M06 A2999 RMK SC8 SLP167

CYHM;2007-12-25 00:00;CYHM 250000Z 23015KT 12SM FEW018 SCT025 OVC035 M02/M06 A3001 RMK SC2SC2SC4 SLP175

CYHM;2007-12-25 01:00;CYHM 250100Z 23012KT 12SM SCT018 OVC030 M02/M06 A3003 RMK SC4SC4 SLP182

CYHM;2007-12-25 02:00;CYHM 250200Z 23012KT 10SM OVC018 M02/M05 A3004 RMK SC8 SLP186

CYHM;2007-12-25 03:00;CYHM 250300Z 23012KT 8SM SCT016 OVC028 M02/M05 A3006 RMK SC4SC4 HZ SLP190

CYHM;2007-12-25 04:00;CYHM 250400Z 24010KT 7SM SCT011 OVC024 M03/M04 A3007 RMK CF3SC5 HZ SLP194

CYHM;2007-12-25 05:00;CYHM 250500Z 25010KT 7SM OVC015 M02/M05 A3007 RMK SC8 HZ SLP196

CYHM;2007-12-25 06:00;CYHM 250600Z 26008KT 8SM OVC017 M02/M05 A3009 RMK SC8 HZ SLP200

CYHM;2007-12-25 07:00;CYHM 250700Z 23009KT 10SM OVC027 M02/M05 A3009 RMK SC7 SLP200

CYHM;2007-12-25 08:00;CYHM 250800Z 25008KT 7SM FEW024 OVC033 M02/M05 A3012 RMK CF2SC6 HZ SLP211

CYHM;2007-12-25 09:00;CYHM 250900Z 25006KT 10SM OVC026 M02/M05 A3014 RMK SC8 SLP217

CYHM;2007-12-25 10:00;CYHM 251000Z 25007KT 10SM OVC024 M02/M05 A3015 RMK SC8 SLP222

CYHM;2007-12-25 11:00;CYHM 251100Z 25006KT 10SM OVC025 M02/M05 A3017 RMK SC8 SLP227

CYHM;2007-12-25 12:00;CYHM 251200Z 23006KT 10SM OVC025 M02/M05 A3018 RMK SC8 SLP233

CYHM;2007-12-25 13:00;CYHM 251300Z 21006KT 12SM OVC026 M02/M05 A3020 RMK SC8 SLP237

CYHM;2007-12-25 14:00;CYHM 251400Z 22009KT 12SM OVC023 M02/M05 A3021 RMK SC8 SLP243

CYHM;2007-12-25 15:00;CYHM 251500Z 24010KT 12SM OVC017 M02/M05 A3023 RMK SC8 SLP250

CYHM;2007-12-25 16:00;CYHM 251600Z 24010KT 10SM OVC017 M02/M05 A3023 RMK SC8 SLP249

CYHM;2007-12-25 16:39;CYHM 251639Z CCA 23007KT 8SM OVC014 RMK SC8 HZ

CYHM;2007-12-25 17:00;CYHM 251700Z 24009KT 8SM OVC013 M01/M04 A3022 RMK SC8 HZ SLP244

CYHM;2007-12-25 18:00;CYHM 251800Z CCA 22009KT 8SM OVC013 M01/M04 A3020 RMK SC8 HZ SLP239

CYHM;2007-12-25 19:00;CYHM 251900Z 23009KT 7SM OVC011 M01/M03 A3020 RMK SC8 HZ SLP237

CYHM;2007-12-25 20:00;CYHM 252000Z 23013KT 8SM OVC012 M01/M03 A3021 RMK SC8 HZ SLP242

CYHM;2007-12-25 21:00;CYHM 252100Z 23012KT 8SM OVC011 M01/M03 A3021 RMK SC8 HZ SLP242

CYHM;2007-12-25 22:00;CYHM 252200Z 23011KT 8SM OVC010 M01/M03 A3021 RMK SC8 SLP241

CYHM;2007-12-25 23:00;CYHM 252300Z 22011KT 9SM OVC010 M01/M02 A3021 RMK SC8 SLP243

CYHM;2007-12-25 23:48;CYHM 252348Z 22013KT 9SM OVC009 RMK SC8

CYHM;2007-12-26 00:00;CYHM 260000Z 22014KT 9SM OVC009 M01/M02 A3020 RMK SC8 SLP240

CYHM;2007-12-26 01:00;CYHM 260100Z 24008KT 9SM OVC008 M01/M02 A3021 RMK SC8 SLP241

CYHM;2007-12-26 02:00;CYHM 260200Z 23008KT 9SM OVC009 M01/M02 A3021 RMK SC7 SLP241

CYHM;2007-12-26 03:00;CYHM 260300Z 23010KT 9SM OVC009 M01/M03 A3020 RMK ST7 SLP237

CYHM;2007-12-26 04:00;CYHM 260400Z 24012KT 8SM OVC008 M01/M03 A3018 RMK SC7 SLP232

CYHM;2007-12-26 05:00;CYHM 260500Z 23008KT 8SM OVC008 M01/M03 A3017 RMK SC7 SLP227

CYHM;2007-12-26 06:00;CYHM 260600Z 22009KT 8SM OVC007 M01/M02 A3017 RMK SC8 SLP229

CYHM;2007-12-26 07:00;CYHM 260700Z 24007KT 8SM OVC007 M02/M03 A3018 RMK SC8 SLP230

CYHM;2007-12-26 08:00;CYHM 260800Z 24009KT 6SM BR OVC005 M02/M03 A3018 RMK SC6 SLP232

CYHM;2007-12-26 09:00;CYHM 260900Z 24007KT 5SM BR OVC004 M02/M03 A3019 RMK SC7 SLP234

CYHM;2007-12-26 10:00;CYHM 261000Z 24010KT 2 1/2SM BR OVC003 M03/M03 A3018 RMK SC8 SLP232

CYHM;2007-12-26 11:00;CYHM 261100Z 22007KT 1 1/2SM BR OVC002 M03/M03 A3018 RMK FG2SC6 SLP231

CYHM;2007-12-26 12:00;CYHM 261200Z 24006KT 2 1/2SM BR OVC002 M03/M03 A3019 RMK SF8 SLP236

CYHM;2007-12-26 13:00;CYHM 261300Z 33002KT 3/4SM BR OVC002 M03/M03 A3022 RMK FG2SF6 SLP244

CYHM;2007-12-26 13:06;CYHM 261306Z 31004KT 1/2SM FZFG OVC002 RMK FG2SF6

CYHM;2007-12-26 13:13;CYHM 261313Z 00000KT 1/8SM FZFG VV001 RMK FG8

CYHM;2007-12-26 14:00;CYHM 261400Z 00000KT 1/8SM FZFG VV001 M03/M03 A3019 RMK FG8 SLP236

CYHM;2007-12-26 15:00;CYHM 261500Z 20003KT 1/8SM FZFG VV001 M03/M03 A3020 RMK FG8 SLP238

CYHM;2007-12-26 16:00;CYHM 261600Z 19002KT 1/4SM FZFG VV001 M03/M03 A3019 RMK FG8 SLP234

CYHM;2007-12-26 16:47;CYHM 261647Z 17004KT 3/4SM BR OVC002 RMK FG3SF5

CYHM;2007-12-26 17:00;CYHM 261700Z 00000KT 1SM BR OVC002 M02/M03 A3015 RMK FG2SF6 SLP222

CYHM;2007-12-26 17:23;CYHM 261723Z 00000KT 1 1/2SM BR OVC002 RMK FG2SF6

CYHM;2007-12-26 18:00;CYHM 261800Z 07002KT 2SM BR OVC002 M02/M02 A3013 RMK FG1SF7 SLP214

CYHM;2007-12-26 19:00;CYHM 261900Z 07006KT 2 1/2SM BR OVC005 M02/M02 A3011 RMK SF8 SLP207

CYHM;2007-12-26 20:00;CYHM 262000Z 08008KT 1 3/4SM BR OVC002 M02/M02 A3012 RMK FG3SC5 SLP211

CYHM;2007-12-26 21:00;CYHM 262100Z 06007KT 2SM BR OVC003 M02/M02 A3010 RMK SC8 SLP205

CYHM;2007-12-26 22:00;CYHM 262200Z 05010KT 2SM BR OVC004 M01/M02 A3008 RMK SC8 SLP197

CYHM;2007-12-26 23:00;CYHM 262300Z 06012KT 4SM BR OVC005 M01/M01 A3005 RMK SC8 SLP189

CYHM;2007-12-27 00:00;CYHM 270000Z 07010KT 5SM BR OVC004 M01/M01 A3005 RMK SC8 SLP187

CYHM;2007-12-27 01:00;CYHM 270100Z 06010KT 5SM BR BKN006 M00/M01 A3007 RMK SC7 SLP193

CYHM;2007-12-27 02:00;CYHM 270200Z 06011KT 6SM BR BKN005 BKN130 M00/M01 A3003 RMK SC5AC2 SLP180

CYHM;2007-12-27 03:00;CYHM 270300Z 05012KT 5SM BR OVC005 00/M00 A3001 RMK SC8 SLP174

CYHM;2007-12-27 04:00;CYHM 270400Z 06014KT 5SM BR BKN005 01/00 A2999 RMK SC7 SLP168

CYHM;2007-12-27 05:00;CYHM 270500Z 06013KT 6SM BR FEW005 BKN120 01/M00 A2998 RMK SC1AC6 SLP164

CYHM;2007-12-27 06:00;CYHM 270600Z 05014KT 8SM OVC120 01/M00 A2997 RMK AC8 SLP159

CYHM;2007-12-27 07:00;CYHM 270700Z 06015KT 8SM FEW005 OVC120 01/M00 A2994 RMK SC2AC6 SLP148

CYHM;2007-12-27 08:00;CYHM 270800Z 06015KT 7SM BKN006 OVC110 01/M00 A2992 RMK SC5AC3 SLP144

CYHM;2007-12-27 09:00;CYHM 270900Z 06014KT 6SM BR BKN006 OVC100 01/00 A2989 RMK SC6AC2 SLP133

CYHM;2007-12-27 10:00;CYHM 271000Z 06011KT 5SM BR BKN006 OVC100 00/M00 A2988 RMK SC5AC3 SLP128

CYHM;2007-12-27 11:00;CYHM 271100Z 05010KT 5SM BR SCT006 OVC110 01/M00 A2987 RMK SC3AC5 SLP124

CYHM;2007-12-27 12:00;CYHM 271200Z 05006KT 6SM BR SCT003 BKN090 OVC110 00/M00 A2987 RMK SF3AC3AC2 SLP123

CYHM;2007-12-27 13:00;CYHM 271300Z 03004KT 3SM BR FEW003 BKN064 OVC075 00/00 A2985 RMK SF2SC5AC2 SLP118

CYHM;2007-12-27 13:32;CYHM 271332Z CCA 00000KT 2SM -SHSN BR BKN017 OVC029 RMK SC6SC2

CYHM;2007-12-27 13:41;CYHM 271341Z 00000KT 1 1/2SM -SHSN BR BKN012 OVC027 RMK SN2SF3SC3

CYHM;2007-12-27 13:48;CYHM 271348Z 00000KT 3/4SM -SHSN BR BKN008 OVC022 RMK SN2SF4SC2

CYHM;2007-12-27 14:00;CYHM 271400Z 00000KT 1SM -SHSN BR BKN015 OVC038 00/00 A2987 RMK SN2SC4SC2 SLP124

CYHM;2007-12-27 14:18;CYHM 271418Z 00000KT 1/2SM -SHSN FG BKN007 OVC022 RMK SN2SF4SC2

CYHM;2007-12-27 14:40;CYHM 271440Z 00000KT 1/4SM -SHSN FG BKN005 OVC018 RMK SN2SF4SC2

CYHM;2007-12-27 15:00;CYHM 271500Z 00000KT 1/2SM -SHSN FG BKN007 OVC020 00/00 A2986 RMK SN2SF4SC2 SLP122

CYHM;2007-12-27 15:44;CYHM 271544Z 00000KT 1/8SM SN FG OVC007 RMK SN5SF3

CYHM;2007-12-27 16:00;CYHM 271600Z 23003KT 1/8SM SN FG BKN002 OVC010 00/00 A2986 RMK SN5SF2SC2 SLP122

CYHM;2007-12-27 16:23;CYHM 271623Z 22004KT 1/2SM SN FG BKN002 OVC011 RMK SN2SF3SC2

CYHM;2007-12-27 16:40;CYHM 271640Z 22006KT 1SM -SN BR BKN002 OVC008 RMK SN2SF5SC2

CYHM;2007-12-27 17:00;CYHM 271700Z 25006KT 1 1/2SM -SN BR BKN003 OVC009 00/00 A2986 RMK SN1SF5SC2 SLP121

CYHM;2007-12-27 17:37;CYHM 271737Z 25006KT 2 1/2SM -SN BR OVC005 RMK SF8

CYHM;2007-12-27 18:00;CYHM 271800Z 26007KT 3SM -SN BR BKN006 OVC010 01/01 A2986 RMK SF5SC3 SLP122

CYHM;2007-12-27 18:30;CYHM 271830Z 27008KT 4SM BR BKN009 BKN015 RMK SC6SC2

CYHM;2007-12-27 19:00;CYHM 271900Z 26010KT 5SM BR BKN012 OVC074 02/01 A2989 RMK SC6AC2 SLP130

CYHM;2007-12-27 20:00;CYHM 272000Z 23009KT 7SM BKN011 02/00 A2991 RMK SC7 SLP138

CYHM;2007-12-27 20:40;CYHM 272040Z 24010KT 8SM FEW011 BKN065 RMK SC2SC2

CYHM;2007-12-27 21:00;CYHM 272100Z 23012KT 8SM FEW011 BKN066 02/M00 A2995 RMK SC1AC6 SC TR SLP152

CYHM;2007-12-27 22:00;CYHM 272200Z 24007KT 7SM BKN048 BKN063 01/M01 A2999 RMK SC6SC2 SLP164

CYHM;2007-12-27 23:00;CYHM 272300Z 23008KT 7SM BKN013 OVC042 01/M01 A3002 RMK SC6SC2 SLP174

CYHM;2007-12-28 00:00;CYHM 280000Z 23009KT 8SM OVC009 01/M01 A3003 RMK SC8 SLP179

CYHM;2007-12-28 00:20;CYHM 280020Z 23008KT 7SM -SHSN OVC009 RMK SC8

CYHM;2007-12-28 01:00;CYHM 280100Z 23011G16KT 7SM -SHSN OVC008 01/00 A3005 RMK SC8 SLP185

CYHM;2007-12-28 02:00;CYHM 280200Z 24010KT 7SM -SHSN OVC008 02/01 A3006 RMK SC8 SLP189

CYHM;2007-12-28 02:43;CYHM 280243Z 25012KT 8SM -SHSN FEW009 SCT014 OVC036 RMK CF2SC2SC4

CYHM;2007-12-28 03:00;CYHM 280300Z 25012KT 8SM -SHSN FEW014 BKN034 OVC053 02/00 A3008 RMK SC2SC4SC2 SLP195

CYHM;2007-12-28 04:00;CYHM 280400Z 25012KT 15SM FEW018 BKN053 02/M02 A3011 RMK CF2SC5 SLP205

CYHM;2007-12-28 05:00;CYHM 280500Z 26009KT 15SM FEW025 BKN044 01/M02 A3013 RMK CF2SC6 SLP213

CYHM;2007-12-28 06:00;CYHM 280600Z 25011KT 15SM BKN034 01/M02 A3015 RMK SC7 SLP219

CYHM;2007-12-28 07:00;CYHM 280700Z 26009KT 15SM OVC027 01/M02 A3019 RMK SC8 SLP232

CYHM;2007-12-28 08:00;CYHM 280800Z 28007KT 15SM OVC024 01/M02 A3023 RMK SC8 SLP245

CYHM;2007-12-28 09:00;CYHM 280900Z 30005KT 15SM OVC020 01/M02 A3023 RMK SC8 SLP245

CYHM;2007-12-28 10:00;CYHM 281000Z 24004KT 15SM FEW022 FEW200 M01/M03 A3026 RMK SC1CI1 SLP255

CYHM;2007-12-28 11:00;CYHM 281100Z 23005KT 15SM BKN220 M03/M04 A3027 RMK CI4 SLP261

CYHM;2007-12-28 12:00;CYHM 281200Z 23003KT 15SM FEW180 SCT220 M03/M04 A3027 RMK AC1CI2 SLP262

CYHM;2007-12-28 13:00;CYHM 281300Z 23003KT 15SM SCT220 M04/M05 A3029 RMK CI2 CONTRAIL SLP269

CYHM;2007-12-28 14:00;CYHM 281400Z 22004KT 15SM FEW150 BKN220 M03/M04 A3028 RMK AC2CI2 SLP265

CYHM;2007-12-28 15:00;CYHM 281500Z 00000KT 15SM BKN150 BKN220 M02/M04 A3026 RMK AC5CI2 SLP257

CYHM;2007-12-28 16:00;CYHM 281600Z 12002KT 15SM BKN120 OVC220 M01/M03 A3023 RMK AC6CI2 SLP249

CYHM;2007-12-28 17:00;CYHM 281700Z 12002KT 15SM FEW110 BKN160 OVC220 00/M02 A3021 RMK AC2AC4CI2 SLP240

CYHM;2007-12-28 18:00;CYHM 281800Z 08006KT 15SM FEW110 BKN170 OVC220 00/M02 A3015 RMK AC2AC5CI2 SLP221

CYHM;2007-12-28 19:00;CYHM 281900Z 10006KT 10SM FEW035 OVC160 01/M02 A3014 RMK SC1AC7 SLP216

CYHM;2007-12-28 20:00;CYHM 282000Z 07011KT 15SM FEW035 FEW160 BKN250 01/M01 A3011 RMK SC2AC1CI2 SLP206

CYHM;2007-12-28 21:00;CYHM 282100Z 07013KT 15SM FEW030 SCT150 OVC250 01/M01 A3007 RMK SC1AC3CI3 SLP194

CYHM;2007-12-28 22:00;CYHM 282200Z 07014KT 10SM FEW008 OVC034 01/M00 A3001 RMK CF1SC8 SLP174

CYHM;2007-12-28 23:00;CYHM 282300Z CCA 06014KT 12SM FEW008 OVC032 01/M00 A2994 RMK CF1SC8 PRESFR SLP151

CYHM;2007-12-29 00:00;CYHM 290000Z 08012KT 15SM BKN036 OVC051 01/M01 A2986 RMK SC6SC2 PRESFR SLP121

CYHM;2007-12-29 01:00;CYHM 290100Z 06010KT 3SM -SHRA BR OVC022 01/M01 A2977 RMK SC8 PRESFR SLP093

CYHM;2007-12-29 01:44;CYHM 290144Z 36006KT 2 1/2SM -SHRA BR FEW008 OVC017 RMK CF1SC7

CYHM;2007-12-29 02:00;CYHM 290200Z 04008KT 5SM -SHRA BR OVC018 01/00 A2973 RMK SC8 SLP080

CYHM;2007-12-29 02:31;CYHM 290231Z 05007KT 2 1/2SM -SHRA BR OVC013 RMK SC8

CYHM;2007-12-29 03:00;CYHM 290300Z 06007KT 2 1/2SM -SHRA BR OVC008 01/01 A2968 RMK SC8 SLP062

CYHM;2007-12-29 04:00;CYHM 290400Z 16005KT 2 1/2SM -SHRA BR OVC006 01/01 A2968 RMK SF8 SLP062

CYHM;2007-12-29 04:09;CYHM 290409Z 21005KT 2SM -SHRA BR OVC004 RMK FG1SF7

CYHM;2007-12-29 04:46;CYHM 290446Z 23013KT 6SM -SHRA BR OVC010 RMK SC8

CYHM;2007-12-29 05:00;CYHM 290500Z 23018G26KT 8SM -SHRA OVC008 04/04 A2969 RMK SC8 CIG RAG SLP065

CYHM;2007-12-29 05:15;CYHM 290515Z 23020G30KT 15SM FEW011 RMK SC2

CYHM;2007-12-29 06:00;CYHM 290600Z 23015G20KT 15SM BKN022 BKN200 04/02 A2971 RMK SC5CI1 SLP068

CYHM;2007-12-29 07:00;CYHM 290700Z 23022G30KT 15SM OVC030 03/00 A2974 RMK SC8 SLP077

CYHM;2007-12-29 07:14;CYHM 290714Z 23028G39KT 15SM OVC034 RMK SC8

CYHM;2007-12-29 08:00;CYHM 290800Z 23022G32KT 15SM OVC032 03/M02 A2978 RMK SC8 SLP091

CYHM;2007-12-29 09:00;CYHM 290900Z 23018G27KT 15SM FEW026 OVC038 02/M02 A2981 RMK CF2SC6 SLP102

CYHM;2007-12-29 10:00;CYHM 291000Z 23020G26KT 15SM FEW025 OVC032 02/M02 A2983 RMK CF2SC6 SLP110

CYHM;2007-12-29 11:00;CYHM 291100Z 23016G22KT 15SM FEW027 BKN047 02/M02 A2986 RMK CF1SC6 SLP119

CYHM;2007-12-29 12:00;CYHM 291200Z 22017G22KT 15SM FEW025 BKN039 02/M02 A2989 RMK CF1SC6 SLP132

CYHM;2007-12-29 13:00;CYHM 291300Z 23016KT 15SM FEW022 BKN044 02/M02 A2990 RMK CF1SC7 SLP134

CYHM;2007-12-29 14:00;CYHM 291400Z 22018G23KT 15SM FEW023 OVC041 02/M02 A2993 RMK CF1SC8 SLP143

CYHM;2007-12-29 15:00;CYHM 291500Z 23018G24KT 15SM OVC034 02/M02 A2994 RMK SC8 SLP146

CYHM;2007-12-29 16:00;CYHM 291600Z 23018G24KT 15SM FEW023 BKN053 02/M02 A2993 RMK CU1SC6 SLP145

CYHM;2007-12-29 17:00;CYHM 291700Z 23017KT 15SM SCT018 OVC052 02/M02 A2994 RMK CU3SC5 SLP147

CYHM;2007-12-29 18:00;CYHM 291800Z 24016KT 15SM OVC018 02/M02 A2992 RMK SC8 SLP141

CYHM;2007-12-29 19:00;CYHM 291900Z 23014KT 190V270 10SM -SHSN SCT017 OVC028 01/M02 A2994 RMK SC3SC5 SLP147

CYHM;2007-12-29 20:00;CYHM 292000Z 24013KT 12SM -SHSN SCT024 OVC042 01/M02 A2996 RMK SC4SC4 PCPN VRY LGT SLP154

CYHM;2007-12-29 21:00;CYHM 292100Z CCA 24013KT 12SM -SHSN BKN024 OVC036 01/M02 A2998 RMK SC5SC3 PCPN VRY LGT SLP160

CYHM;2007-12-29 22:00;CYHM 292200Z 24009KT 12SM SCT020 OVC031 01/M02 A3000 RMK SC4SC4 SLP168

CYHM;2007-12-29 23:00;CYHM 292300Z 24009KT 15SM FEW020 OVC028 01/M03 A3002 RMK SC2SC6 SLP175

CYHM;2007-12-30 00:00;CYHM 300000Z 24010KT 15SM SCT019 OVC026 00/M03 A3004 RMK SC3SC5 SLP181

CYHM;2007-12-30 01:00;CYHM 300100Z 25008KT 15SM SCT018 OVC025 00/M03 A3005 RMK SC4SC4 SLP185

CYHM;2007-12-30 02:00;CYHM 300200Z 26009KT 15SM FEW020 OVC036 M00/M05 A3007 RMK SC2SC6 SLP190

CYHM;2007-12-30 03:00;CYHM 300300Z 23007KT 15SM FEW020 OVC033 M00/M03 A3009 RMK SC2SC6 SLP199

CYHM;2007-12-30 04:00;CYHM 300400Z 24008KT 15SM OVC033 M00/M04 A3011 RMK SC8 SLP205

CYHM;2007-12-30 05:00;CYHM 300500Z 25008KT 15SM OVC035 M01/M04 A3010 RMK SC8 SLP203

CYHM;2007-12-30 06:00;CYHM 300600Z 26005KT 15SM OVC037 M01/M04 A3010 RMK SC8 SLP202

CYHM;2007-12-30 07:00;CYHM 300700Z 25005KT 15SM BKN037 M01/M04 A3009 RMK SC7 SLP200

CYHM;2007-12-30 08:00;CYHM 300800Z 22005KT 15SM OVC033 M01/M04 A3012 RMK SC8 SLP208

CYHM;2007-12-30 09:00;CYHM 300900Z 22005KT 15SM OVC035 M01/M05 A3012 RMK SC8 SLP210

CYHM;2007-12-30 10:00;CYHM 301000Z 23005KT 15SM OVC035 M01/M05 A3011 RMK SC8 SLP206

CYHM;2007-12-30 11:00;CYHM 301100Z 24005KT 15SM OVC032 M01/M05 A3012 RMK SC8 SLP209

CYHM;2007-12-30 12:00;CYHM 301200Z 26004KT 15SM OVC031 M02/M05 A3012 RMK SC8 SLP209

CYHM;2007-12-30 13:00;CYHM 301300Z 26003KT 15SM OVC029 M02/M06 A3011 RMK SC8 SLP207

CYHM;2007-12-30 14:00;CYHM 301400Z 22004KT 15SM OVC029 M02/M05 A3012 RMK SC8 SLP209

CYHM;2007-12-30 15:00;CYHM 301500Z 20003KT 15SM OVC029 M01/M06 A3014 RMK SC8 SLP216

CYHM;2007-12-30 16:00;CYHM 301600Z 27003KT 15SM BKN028 OVC110 M01/M06 A3012 RMK SC7AC1 SLP211

CYHM;2007-12-30 17:00;CYHM 301700Z 00000KT 15SM OVC027 M01/M07 A3009 RMK SC8 SLP199

CYHM;2007-12-30 18:00;CYHM 301800Z 18002KT 15SM OVC025 M01/M05 A3005 RMK SC8 SLP186

CYHM;2007-12-30 19:00;CYHM 301900Z 10003KT 15SM OVC022 M01/M06 A3002 RMK SC8 SLP178

CYHM;2007-12-30 20:00;CYHM 302000Z 08005KT 12SM OVC020 M01/M05 A2999 RMK SC8 SLP168

CYHM;2007-12-30 21:00;CYHM 302100Z 08007KT 12SM -SHSN BKN020 OVC045 M01/M05 A2997 RMK SC6SC2 SLP161

CYHM;2007-12-30 21:42;CYHM 302142Z 07007KT 2 1/2SM -SN OVC015 RMK SN1SC7

CYHM;2007-12-30 21:46;CYHM 302146Z 07007KT 1 3/4SM -SN OVC014 RMK SN2SC6

CYHM;2007-12-30 22:00;CYHM 302200Z 07007KT 2SM -SN BKN016 OVC090 M02/M04 A2995 RMK SN2SC6AC1 SLP152

CYHM;2007-12-30 22:09;CYHM 302209Z 06007KT 3SM -SHSN SCT017 BKN042 OVC066 RMK SC3SC2AC2

CYHM;2007-12-30 22:10;CYHM 302210Z 06007KT 3SM -SHSN SCT017 BKN042 OVC066 RMK SC3SC2AC2

CYHM;2007-12-30 22:15;CYHM 302215Z 06008KT 4SM -SHSN SCT017 OVC066 RMK SC3AC5

CYHM;2007-12-30 22:34;CYHM 302234Z 05008KT 5SM BR FEW017 BKN052 OVC120 RESN RMK SC2SC3AC2

CYHM;2007-12-30 23:00;CYHM 302300Z 05007KT 6SM BR FEW018 BKN052 OVC120 M02/M03 A2993 RESN RMK SC2SC3AC3 SLP145

CYHM;2007-12-30 23:30;CYHM 302330Z 06007KT 6SM BR FEW006 SCT018 BKN054 OVC120 RMK CF2SC2SC2AC2

CYHM;2007-12-31 00:00;CYHM 310000Z 05007KT 5SM BR SCT007 BKN052 BKN100 M02/M03 A2989 RMK SF4SC2AC2 SLP134

CYHM;2007-12-31 01:00;CYHM 310100Z 04008KT 7SM FEW008 SCT050 BKN095 M01/M03 A2986 RMK SF2SC2AC3 SLP124

CYHM;2007-12-31 02:00;CYHM 310200Z 04008KT 8SM SCT010 OVC077 M01/M02 A2986 RMK SC3AC5 SLP124

CYHM;2007-12-31 03:00;CYHM 310300Z 01006KT 9SM FEW012 OVC087 M01/M02 A2984 RMK SC2AC6 SLP117

CYHM;2007-12-31 04:00;CYHM 310400Z 04007KT 12SM OVC070 M01/M02 A2982 RMK AC8 SLP108

CYHM;2007-12-31 05:00;CYHM 310500Z 02005KT 6SM -SHSN OVC060 M01/M02 A2979 RMK SC8 SLP099

CYHM;2007-12-31 06:00;CYHM 310600Z 32003KT 2SM -SHSN OVC009 M01/M02 A2980 RMK SN1SC7 SLP100

CYHM;2007-12-31 07:00;CYHM 310700Z 31005KT 1 1/2SM -SHSN OVC010 M02/M02 A2980 RMK SN2SC6 VIS VRB 1 - 2 /S01/ SLP102

CYHM;2007-12-31 07:13;CYHM 310713Z 31005KT 4SM -SHSN OVC009 RMK SC8

CYHM;2007-12-31 08:00;CYHM 310800Z 28005KT 3SM -SHSN BKN009 M02/M03 A2982 RMK SC6 VIS VRB 2 - 4 SLP107

CYHM;2007-12-31 08:40;CYHM 310840Z 28005KT 1 1/2SM -SHSN FEW012 OVC024 RMK SN2CF1SC6 VIS VRB 1 - 2

CYHM;2007-12-31 09:00;CYHM 310900Z 28005KT 1 1/2SM -SHSN OVC016 M02/M03 A2984 RMK SN2SC6 VIS VRB 1 - 2 SLP114

CYHM;2007-12-31 10:00;CYHM 311000Z 27006KT 2SM -SHSN BKN047 M02/M03 A2984 RMK SN1SC6 /S02/ SLP117

CYHM;2007-12-31 10:13;CYHM 311013Z 27006KT 4SM -SHSN BKN050 RMK SC6

CYHM;2007-12-31 11:00;CYHM 311100Z 27006KT 6SM -SHSN FEW038 BKN100 M03/M04 A2987 RMK SC2AC2 SLP124

CYHM;2007-12-31 11:54;CYHM 311154Z 25006KT 8SM BKN042 BKN100 BKN150 RMK SC5AC2AC1

CYHM;2007-12-31 12:00;CYHM 311200Z 26005KT 8SM BKN049 BKN120 M03/M04 A2988 RMK SC6AC2 SLP130

CYHM;2007-12-31 13:00;CYHM 311300Z 26005KT 5SM -SHSN BR OVC051 M03/M04 A2988 RMK SC8 SLP131

CYHM;2007-12-31 14:00;CYHM 311400Z 24008KT 5SM -SHSN BR FEW017 OVC048 M02/M03 A2991 RMK SC2SC6 SLP139

CYHM;2007-12-31 15:00;CYHM 311500Z 25007KT 6SM BR BKN024 BKN048 BKN110 M01/M03 A2994 RMK SC5SC2AC1 SLP149

CYHM;2007-12-31 15:55;CYHM 311555Z 25008KT 6SM -SHSN OVC021 RMK SC8

CYHM;2007-12-31 16:00;CYHM 311600Z 25008KT 6SM -SHSN OVC021 M01/M03 A2995 RMK SC8 SLP153

CYHM;2007-12-31 17:00;CYHM 311700Z 25009KT 8SM SCT020 OVC024 M01/M04 A2994 RMK SC3SC5 SLP151

CYHM;2007-12-31 18:00;CYHM 311800Z 26008KT 15SM FEW020 FEW035 M00/M03 A2994 RMK CU2SC1 SLP147

CYHM;2007-12-31 19:00;CYHM 311900Z 25011KT 15SM SCT026 00/M04 A2995 RMK SC4 CU ASOCTD SLP153

CYHM;2007-12-31 20:00;CYHM 312000Z 27004KT 15SM FEW026 01/M04 A2995 RMK SC2 SLP152

CYHM;2007-12-31 21:00;CYHM 312100Z 21003KT 12SM FEW026 BKN034 00/M04 A2997 RMK SF1SC6 SLP160

CYHM;2007-12-31 22:00;CYHM 312200Z 17002KT 12SM FEW024 BKN034 OVC042 M00/M03 A2998 RMK SF2SC3SC3 SLP163

CYHM;2007-12-31 23:00;CYHM 312300Z 05004KT 15SM FEW018 SCT038 M02/M04 A2996 RMK SC1SC2 SLP157

