CYOW;2009-01-01 07:00;CYOW 010700Z 31012G17KT 15SM OVC037 M18/M24 A3018 RMK SC8 SLP231

CYOW;2009-01-01 08:00;CYOW 010800Z 28010KT 15SM FEW033 M18/M24 A3022 RMK SC2 SLP243

CYOW;2009-01-01 09:00;CYOW 010900Z 29010KT 15SM FEW035 M19/M24 A3023 RMK SC1 SLP248

CYOW;2009-01-01 10:00;CYOW 011000Z 28009KT 15SM SKC M19/M24 A3024 RMK SLP253

CYOW;2009-01-01 11:00;CYOW 011100Z 28009KT 15SM SKC M19/M24 A3027 RMK SLP262

CYOW;2009-01-01 12:00;CYOW 011200Z 27008KT 15SM SKC M19/M24 A3029 RMK SLP270

CYOW;2009-01-01 13:00;CYOW 011300Z 29010KT 15SM SKC M19/M24 A3032 RMK SLP279

CYOW;2009-01-01 14:00;CYOW 011400Z 29008KT 15SM SKC M19/M24 A3034 RMK SLP285

CYOW;2009-01-01 15:00;CYOW 011500Z 28009KT 15SM SKC M18/M23 A3034 RMK SLP286

CYOW;2009-01-01 16:00;CYOW 011600Z 27007KT 15SM SKC M17/M22 A3033 RMK SLP283

CYOW;2009-01-01 17:00;CYOW 011700Z 27009KT 15SM SKC M16/M22 A3030 RMK SLP274

CYOW;2009-01-01 18:00;CYOW 011800Z 26007KT 15SM FEW240 M15/M22 A3028 RMK CI1 SLP265

CYOW;2009-01-01 19:00;CYOW 011900Z 26009KT 15SM FEW240 M14/M21 A3026 RMK CI1 SLP260

CYOW;2009-01-01 20:00;CYOW 012000Z 27008KT 15SM FEW240 M13/M23 A3027 RMK CI1 SLP261

CYOW;2009-01-01 21:00;CYOW 012100Z 28003KT 15SM FEW240 M14/M22 A3025 RMK CI1 SLP257

CYOW;2009-01-01 22:00;CYOW 012200Z 00000KT 15SM FEW240 M14/M22 A3025 RMK CI1 SLP254

CYOW;2009-01-01 23:00;CYOW 012300Z 00000KT 15SM FEW240 M15/M22 A3024 RMK CI1 SLP251

CYOW;2009-01-02 00:00;CYOW 020000Z 09003KT 15SM FEW240 M15/M22 A3021 RMK CI1 SLP241

CYOW;2009-01-02 01:00;CYOW 020100Z 10002KT 15SM FEW240 M16/M22 A3019 RMK CI1 SLP236

CYOW;2009-01-02 02:00;CYOW 020200Z 16004KT 15SM SCT240 M15/M21 A3016 RMK CI2 SLP224

CYOW;2009-01-02 03:00;CYOW 020300Z 14004KT 15SM FEW150 OVC200 M15/M20 A3012 RMK AC1CI6 SLP210

CYOW;2009-01-02 04:00;CYOW 020400Z 14003KT 15SM OVC200 M15/M19 A3011 RMK CI6 SLP206

CYOW;2009-01-02 05:00;CYOW 020500Z 06005KT 15SM BKN110 OVC200 M15/M19 A3007 RMK AC6CI1 SLP193

CYOW;2009-01-02 06:00;CYOW 020600Z 05005KT 15SM SCT110 OVC200 M16/M20 A3005 RMK AC4CI0 SLP185

CYOW;2009-01-02 07:00;CYOW 020700Z 06007KT 15SM SCT080 OVC110 M17/M20 A3000 RMK AC3AC1 SLP170

CYOW;2009-01-02 08:00;CYOW 020800Z 07011KT 15SM FEW110 M17/M21 A2996 RMK AC2 SLP156

CYOW;2009-01-02 09:00;CYOW 020900Z 08011KT 15SM FEW110 BKN240 M17/M21 A2990 RMK AC2CI2 PRESFR SLP135

CYOW;2009-01-02 10:00;CYOW 021000Z 07011KT 15SM OVC100 M16/M21 A2985 RMK AC8 SLP121

CYOW;2009-01-02 11:00;CYOW 021100Z 08007KT 15SM OVC140 M16/M21 A2986 RMK AC8 SLP123

CYOW;2009-01-02 12:00;CYOW 021200Z 06007KT 15SM BKN140 M16/M21 A2983 RMK AC6 SLP111

CYOW;2009-01-02 13:00;CYOW 021300Z 08010KT 15SM OVC072 M15/M20 A2980 RMK AS8 SLP103

CYOW;2009-01-02 13:31;CYOW 021331Z 08010KT 10SM -SN OVC060 M15/ RMK NS8

CYOW;2009-01-02 14:00;CYOW 021400Z 07007KT 3SM -SN OVC060 M15/M19 A2979 RMK NS8 SLP098

CYOW;2009-01-02 14:19;CYOW 021419Z 07010KT 2SM -SN OVC020 M14/ RMK NS8

CYOW;2009-01-02 15:00;CYOW 021500Z 08009KT 1SM -SN VV012 M14/M18 A2977 RMK SN8 SLP093

CYOW;2009-01-02 15:43;CYOW 021543Z 08007KT 3/4SM -SN VV007 M14/ RMK SN8

CYOW;2009-01-02 16:00;CYOW 021600Z 07010KT 1SM R07/P6000FT/U R32/P6000FT/U -SN VV012 M14/M17 A2975 RMK SN8 /SO2/ SLP084

CYOW;2009-01-02 16:33;CYOW 021633Z 07007KT 1/2SM SN VV007 M14/ RMK SN8

CYOW;2009-01-02 17:00;CYOW 021700Z 06007KT 3/4SM R07/P6000FT/U R32/P6000FT/U -SN VV013 M14/M17 A2971 RESN RMK SN8 /SO3/ SLP073

CYOW;2009-01-02 18:00;CYOW 021800Z 07008KT 3/4SM R07/P6000FT/U R32/P6000FT/U -SN VV012 M14/M16 A2968 RMK SN8 /SO4/ SLP060

CYOW;2009-01-02 18:15;CYOW 021815Z 07008KT 3SM -SN OVC050 M13/ RMK NS8

CYOW;2009-01-02 18:42;CYOW 021842Z 06005KT 1 1/2SM -SN VV010 M13/ RMK SN8

CYOW;2009-01-02 19:00;CYOW 021900Z 05006KT 2SM -SN OVC020 M13/M16 A2968 RMK NS8 SLP060

CYOW;2009-01-02 20:00;CYOW 022000Z 05006KT 3SM -SN OVC020 M13/M15 A2968 RMK NS8 SLP061

CYOW;2009-01-02 21:00;CYOW 022100Z 06004KT 3SM -SN OVC015 M12/M15 A2968 RMK NS8 /SO1/ SLP062

CYOW;2009-01-02 22:00;CYOW 022200Z 09002KT 8SM SCT030 BKN073 M13/M15 A2969 RMK SC3AC4 SLP063

CYOW;2009-01-02 23:00;CYOW 022300Z 05005KT 10SM OVC070 M13/M15 A2968 RMK AC8 SLP060

CYOW;2009-01-03 00:00;CYOW 030000Z 00000KT 12SM OVC070 M13/M15 A2969 RMK AC8 SLP065

CYOW;2009-01-03 01:00;CYOW 030100Z 04002KT 12SM OVC078 M13/M15 A2969 RMK AC8 SLP065

CYOW;2009-01-03 01:55;CYOW 030155Z 36004KT 12SM -SN OVC090 M13/ RMK AC8

CYOW;2009-01-03 02:00;CYOW 030200Z 01003KT 10SM -SN SCT030 OVC052 M13/M15 A2970 RMK SC3SC5 SLP066

CYOW;2009-01-03 02:35;CYOW 030235Z 36003KT 12SM FEW050 BKN068 M13/ RMK SC2AC2

CYOW;2009-01-03 03:00;CYOW 030300Z CCA 35004KT 12SM FEW030 SCT054 M13/M14 A2970 RMK SC1SC2 SLP066

CYOW;2009-01-03 04:00;CYOW 030400Z 31004KT 12SM FEW020 OVC032 M12/M14 A2972 RMK SC2SC6 SLP074

CYOW;2009-01-03 05:00;CYOW 030500Z 29006KT 10SM -SN OVC017 M11/M13 A2974 RMK SC8 SLP080

CYOW;2009-01-03 06:00;CYOW 030600Z 27006KT 10SM -SN OVC021 M11/M13 A2975 RMK SC8 SLP084

CYOW;2009-01-03 07:00;CYOW 030700Z 29007KT 10SM -SN SCT032 M12/M13 A2977 RMK SC2 SLP092

CYOW;2009-01-03 07:30;CYOW 030730Z 30008KT 10SM FEW017 M13/ RMK SC0

CYOW;2009-01-03 08:00;CYOW 030800Z 28009KT 12SM SKC M12/M14 A2979 RMK SLP099

CYOW;2009-01-03 09:00;CYOW 030900Z 29011KT 15SM SKC M12/M14 A2982 RMK SLP106

CYOW;2009-01-03 10:00;CYOW 031000Z CCA 30013KT 15SM FEW090 M13/M14 A2985 RMK AC1 SLP119

CYOW;2009-01-03 11:00;CYOW 031100Z 28012KT 15SM BKN033 M13/M15 A2990 RMK SC5 SLP134

CYOW;2009-01-03 12:00;CYOW 031200Z 29015KT 15SM FEW030 M13/M15 A2994 RMK SC2 SLP149

CYOW;2009-01-03 13:00;CYOW 031300Z 29013G19KT 15SM FEW030 M13/M15 A2997 RMK SC1 SLP159

CYOW;2009-01-03 14:00;CYOW 031400Z 29014KT 15SM FEW050 M13/M16 A2999 RMK SC1 SLP165

CYOW;2009-01-03 15:00;CYOW 031500Z 28014KT 15SM SKC M12/M16 A3000 RMK SLP170

CYOW;2009-01-03 16:00;CYOW 031600Z 29016KT 20SM SKC M12/M16 A3002 RMK SLP174

CYOW;2009-01-03 17:00;CYOW 031700Z 27014G24KT 20SM SKC M11/M16 A3002 RMK SLP174

CYOW;2009-01-03 18:00;CYOW 031800Z 28019KT 20SM SKC M10/M16 A3001 RMK SLP171

CYOW;2009-01-03 19:00;CYOW 031900Z 29018KT 20SM FEW050 M10/M17 A3001 RMK SC1 SLP171

CYOW;2009-01-03 20:00;CYOW 032000Z 28015KT 20SM FEW050 M10/M17 A3002 RMK SC1 SLP175

CYOW;2009-01-03 21:00;CYOW 032100Z 29013G20KT 20SM FEW050 M10/M18 A3003 RMK SC1 SLP180

CYOW;2009-01-03 22:00;CYOW 032200Z 28014KT 20SM SKC M10/M18 A3005 RMK SLP184

CYOW;2009-01-03 23:00;CYOW 032300Z 29012G18KT 15SM SKC M10/M18 A3006 RMK SLP189

CYOW;2009-01-04 00:00;CYOW 040000Z 29012KT 15SM FEW035 M10/M18 A3008 RMK SC1 SLP196

CYOW;2009-01-04 01:00;CYOW 040100Z 31010KT 15SM FEW035 M11/M17 A3012 RMK SC1 SLP208

CYOW;2009-01-04 02:00;CYOW 040200Z 31014KT 15SM FEW035 M11/M17 A3012 RMK SC1 SLP209

CYOW;2009-01-04 03:00;CYOW 040300Z 31010KT 15SM FEW035 M12/M17 A3014 RMK SC1 SLP216

CYOW;2009-01-04 04:00;CYOW 040400Z 29009KT 15SM SCT030 M12/M17 A3014 RMK SC3 SLP216

CYOW;2009-01-04 05:00;CYOW 040500Z 28010KT 15SM SCT030 M13/M18 A3014 RMK SC2 SLP216

CYOW;2009-01-04 06:00;CYOW 040600Z 29009KT 15SM FEW030 M13/M18 A3014 RMK SC1 SLP214

CYOW;2009-01-04 07:00;CYOW 040700Z 29009KT 15SM FEW030 M14/M18 A3014 RMK SC1 SLP215

CYOW;2009-01-04 08:00;CYOW 040800Z 29011KT 15SM FEW030 M14/M18 A3015 RMK SC1 SLP220

CYOW;2009-01-04 09:00;CYOW 040900Z 29010KT 15SM FEW030 M14/M18 A3016 RMK SC1 SLP223

CYOW;2009-01-04 10:00;CYOW 041000Z 29009KT 15SM FEW030 M15/M18 A3016 RMK SC1 SLP223

CYOW;2009-01-04 11:00;CYOW 041100Z 29009KT 15SM FEW030 M15/M18 A3016 RMK SC1 SLP225

CYOW;2009-01-04 12:00;CYOW 041200Z 28008KT 15SM FEW030 M15/M18 A3017 RMK SC2 SLP226

CYOW;2009-01-04 13:00;CYOW 041300Z 27006KT 15SM FEW020 M15/M18 A3016 RMK SC2 SLP225

CYOW;2009-01-04 14:00;CYOW 041400Z 29006KT 15SM FEW020 M15/M18 A3016 RMK SC1 SLP225

CYOW;2009-01-04 15:00;CYOW 041500Z 32005KT 15SM FEW020 M14/M17 A3017 RMK SC1 SLP226

CYOW;2009-01-04 16:00;CYOW 041600Z 28005KT 20SM FEW050 FEW240 M13/M17 A3016 RMK SC1CI1 SLP224

CYOW;2009-01-04 17:00;CYOW 041700Z 26006KT 20SM FEW050 FEW240 M12/M17 A3014 RMK SC1CI1 SLP218

CYOW;2009-01-04 18:00;CYOW 041800Z 29005KT 20SM FEW050 SCT180 M12/M16 A3011 RMK SC1AC2 SLP208

CYOW;2009-01-04 19:00;CYOW 041900Z 02003KT 15SM BKN180 M11/M16 A3008 RMK AS3 SLP198

CYOW;2009-01-04 20:00;CYOW 042000Z 00000KT 15SM OVC160 M11/M16 A3007 RMK AS8 SLP194

CYOW;2009-01-04 21:00;CYOW 042100Z 00000KT 15SM OVC120 M10/M16 A3007 RMK AS8 SLP192

CYOW;2009-01-04 22:00;CYOW 042200Z 00000KT 15SM OVC120 M10/M16 A3008 RMK AS8 SLP195

CYOW;2009-01-04 23:00;CYOW 042300Z 10003KT 15SM OVC090 M10/M15 A3005 RMK AS8 SLP184

CYOW;2009-01-05 00:00;CYOW 050000Z 00000KT 15SM OVC097 M10/M15 A3003 RMK AS8 SLP179

CYOW;2009-01-05 01:00;CYOW 050100Z 08003KT 15SM OVC080 M10/M14 A2999 RMK AS8 SLP167

CYOW;2009-01-05 02:00;CYOW 050200Z 09006KT 15SM OVC075 M10/M14 A2994 RMK AS8 SLP149

CYOW;2009-01-05 02:46;CYOW 050246Z 12004KT 15SM -SN OVC055 M09/ RMK SC8

CYOW;2009-01-05 03:00;CYOW 050300Z 10003KT 12SM -SNPL OVC055 M09/M14 A2993 RMK SC8 SLP144

CYOW;2009-01-05 03:20;CYOW 050320Z 07002KT 15SM OVC048 M09/ RMK SC8

CYOW;2009-01-05 04:00;CYOW 050400Z 00000KT 15SM -PL OVC046 M09/M13 A2992 RMK SC8 SLP142

CYOW;2009-01-05 05:00;CYOW 050500Z 05004KT 5SM -SNPL FEW025 OVC037 M09/M12 A2989 RMK SC2SC6 SLP131

CYOW;2009-01-05 05:35;CYOW 050535Z 00000KT 12SM BKN030 OVC048 M09/ RMK SC6SC2

CYOW;2009-01-05 06:00;CYOW 050600Z 00000KT 15SM BKN030 OVC048 M09/M12 A2990 RMK SC6SC2 SLP133

CYOW;2009-01-05 07:00;CYOW 050700Z 20002KT 15SM FEW030 OVC048 M09/M12 A2989 RMK SC2SC6 SLP130

CYOW;2009-01-05 08:00;CYOW 050800Z 23004KT 15SM SCT018 OVC042 M09/M11 A2989 RMK SC3SC5 SLP131

CYOW;2009-01-05 09:00;CYOW 050900Z 22007KT 12SM BKN016 OVC042 M09/M11 A2989 RMK SC6SC2 SLP130

CYOW;2009-01-05 09:16;CYOW 050916Z 22007KT 12SM OVC014 M09/ RMK SC8

CYOW;2009-01-05 10:00;CYOW 051000Z 23006KT 12SM OVC014 M08/M10 A2989 RMK SC8 SLP132

CYOW;2009-01-05 11:00;CYOW 051100Z 22005KT 12SM OVC014 M07/M10 A2988 RMK SC8 SLP129

CYOW;2009-01-05 12:00;CYOW 051200Z 19005KT 12SM OVC053 M07/M09 A2989 RMK SC8 SLP130

CYOW;2009-01-05 13:00;CYOW 051300Z 24007KT 8SM -SN OVC025 M05/M07 A2991 RMK SC8 SLP138

CYOW;2009-01-05 14:00;CYOW 051400Z 25006KT 10SM -SN SCT025 BKN048 M05/M07 A2991 RMK SC3SC2 SLP138

CYOW;2009-01-05 15:00;CYOW 051500Z 29004KT 15SM SCT020 SCT050 M06/M08 A2991 RMK SC3SC1 PCPN N OVR CITY SLP137

CYOW;2009-01-05 15:28;CYOW 051528Z 30009KT 1SM -SHSN VV012 M05/ RMK SN8

CYOW;2009-01-05 16:00;CYOW 051600Z 31014KT 2SM -SHSN OVC022 M05/M07 A2991 RMK SC8 CVCTV CLD EMBD SLP135

CYOW;2009-01-05 16:42;CYOW 051642Z 29008KT 4SM -SHSN OVC024 M05/ RMK SC8

CYOW;2009-01-05 17:00;CYOW 051700Z 29009KT 3SM -SHSN BKN020 M05/M07 A2989 RMK CU6 SLP129

CYOW;2009-01-05 18:00;CYOW 051800Z 29010KT 10SM FEW020 BKN056 M05/M08 A2986 RMK CU2SC4 SLP120

CYOW;2009-01-05 18:30;CYOW 051830Z 30007KT 3SM -SHSN BKN030 M05/ RMK CU7

CYOW;2009-01-05 18:37;CYOW 051837Z 29006KT 1 1/2SM -SHSN VV010 M05/ RMK SN8

CYOW;2009-01-05 18:51;CYOW 051851Z 30006KT 10SM FEW020 BKN056 M05/ RMK CU2SC3

CYOW;2009-01-05 19:00;CYOW 051900Z 30005KT 10SM BKN057 M05/M08 A2986 RMK SC6 SLP119

CYOW;2009-01-05 19:14;CYOW 051914Z 30008KT 2SM -SHSN SCT020 BKN057 M05/ RMK CU4SC2

CYOW;2009-01-05 19:33;CYOW 051933Z 30007KT 10SM -SHSN FEW020 BKN055 M05/ RMK CU2SC3

CYOW;2009-01-05 20:00;CYOW 052000Z 29008KT 6SM -SHSN FEW020 BKN055 M04/M07 A2985 RMK CU2SC4 SLP118

CYOW;2009-01-05 21:00;CYOW 052100Z 27008KT 5SM -SHSN FEW020 BKN056 M04/M08 A2987 RMK CU2SC3 SLP121

CYOW;2009-01-05 21:26;CYOW 052126Z 27011G16KT 15SM SCT050 M04/ RMK SC3

CYOW;2009-01-05 22:00;CYOW 052200Z 28011KT 15SM FEW050 M04/M08 A2988 RMK SC2 SLP126

CYOW;2009-01-05 23:00;CYOW 052300Z 28008KT 15SM SKC M06/M12 A2990 RMK SLP131

CYOW;2009-01-06 00:00;CYOW 060000Z 27005KT 15SM FEW020 FEW050 M07/M13 A2990 RMK CF1SC2 SLP134

CYOW;2009-01-06 01:00;CYOW 060100Z 25008KT 15SM FEW025 FEW050 M07/M13 A2991 RMK CF1SC1 SLP137

CYOW;2009-01-06 02:00;CYOW 060200Z 24012KT 15SM FEW140 M07/M13 A2991 RMK AC1 SLP137

CYOW;2009-01-06 03:00;CYOW 060300Z 23008KT 15SM SCT140 M08/M12 A2991 RMK AC2 SLP136

CYOW;2009-01-06 04:00;CYOW 060400Z 22006KT 15SM FEW035 SCT140 M08/M12 A2991 RMK SC1AC2 SLP136

CYOW;2009-01-06 05:00;CYOW 060500Z 22009KT 15SM FEW042 FEW130 M08/M12 A2991 RMK SC1AC1 SLP135

CYOW;2009-01-06 06:00;CYOW 060600Z 23011KT 15SM BKN046 M07/M11 A2992 RMK SC5 PCPN DIST N SLP139

CYOW;2009-01-06 06:38;CYOW 060638Z 22009KT 12SM -SN FEW035 BKN050 M08/ RMK SC2SC6

CYOW;2009-01-06 07:00;CYOW 060700Z 22008KT 12SM -SN FEW035 BKN050 M08/M12 A2994 RMK SC2SC6 SLP147

CYOW;2009-01-06 07:25;CYOW 060725Z 22006KT 15SM FEW030 BKN055 M08/ RMK SC2SC5 PCPN DIST N

CYOW;2009-01-06 08:00;CYOW 060800Z 23006KT 15SM FEW033 BKN055 M08/M12 A2994 RMK SC2SC5 PCPN DIST N SLP148

CYOW;2009-01-06 09:00;CYOW 060900Z 23008KT 15SM BKN060 M09/M12 A2995 RMK SC7 SLP149

CYOW;2009-01-06 10:00;CYOW 061000Z 22005KT 15SM BKN060 M10/M13 A2994 RMK SC5 SLP146

CYOW;2009-01-06 11:00;CYOW 061100Z 19006KT 15SM FEW046 SCT060 M10/M13 A2994 RMK SC2SC2 SLP146

CYOW;2009-01-06 12:00;CYOW 061200Z 22006KT 12SM -SN BKN036 M09/M12 A2995 RMK SC7 SLP150

CYOW;2009-01-06 12:42;CYOW 061242Z 24006KT 15SM SCT035 M10/ RMK SC4

CYOW;2009-01-06 13:00;CYOW 061300Z 23006KT 15SM FEW035 M10/M13 A2996 RMK SC1 SLP153

CYOW;2009-01-06 14:00;CYOW 061400Z 25005KT 15SM FEW025 M10/M13 A2997 RMK SC1 SLP156

CYOW;2009-01-06 15:00;CYOW 061500Z 26004KT 15SM FEW035 FEW100 M08/M12 A2999 RMK SC1AC1 SLP162

CYOW;2009-01-06 16:00;CYOW 061600Z 31004KT 15SM FEW035 M07/M11 A2998 RMK SC1 SLP159

CYOW;2009-01-06 17:00;CYOW 061700Z 26006KT 15SM FEW035 M06/M10 A2996 RMK SC1 SLP153

CYOW;2009-01-06 18:00;CYOW 061800Z 31006KT 15SM FEW035 M05/M10 A2993 RMK SC1 SLP143

CYOW;2009-01-06 19:00;CYOW 061900Z 26004KT 15SM FEW035 M04/M10 A2994 RMK SC1 SLP147

CYOW;2009-01-06 20:00;CYOW 062000Z 03002KT 15SM FEW035 FEW100 M04/M10 A2993 RMK SC1AC1 SLP143

CYOW;2009-01-06 21:00;CYOW 062100Z 02003KT 15SM FEW035 M05/M10 A2992 RMK SC1 SLP140

CYOW;2009-01-06 22:00;CYOW 062200Z 00000KT 15SM FEW035 M06/M11 A2994 RMK SC1 SLP146

CYOW;2009-01-06 23:00;CYOW 062300Z 09005KT 15SM SKC M07/M11 A2992 RMK SLP140

CYOW;2009-01-07 00:00;CYOW 070000Z 09005KT 15SM FEW035 M07/M11 A2992 RMK SC1 SLP141

CYOW;2009-01-07 01:00;CYOW 070100Z 09006KT 15SM FEW035 BKN170 M08/M11 A2991 RMK SC1AC5 SLP138

CYOW;2009-01-07 02:00;CYOW 070200Z 08007KT 15SM SCT160 OVC170 M07/M11 A2990 RMK AC3AC5 SLP134

CYOW;2009-01-07 03:00;CYOW 070300Z 08008KT 15SM BKN110 OVC120 M08/M11 A2988 RMK AC5AC3 SLP128

CYOW;2009-01-07 04:00;CYOW 070400Z 07010KT 15SM OVC085 M08/M11 A2985 RMK AC8 SLP115

CYOW;2009-01-07 05:00;CYOW 070500Z 06010KT 15SM OVC078 M07/M11 A2982 RMK AC8 SLP106

CYOW;2009-01-07 06:00;CYOW 070600Z 06012KT 15SM SCT045 OVC060 M07/M11 A2980 RMK SC3SC5 SLP100

CYOW;2009-01-07 06:30;CYOW 070630Z 07014KT 5SM -SN BKN020 OVC043 M08/ RMK SC5SC3

CYOW;2009-01-07 07:00;CYOW 070700Z 07015KT 3SM -SN OVC026 M08/M10 A2976 RMK SC8 SLP084

CYOW;2009-01-07 08:00;CYOW 070800Z 07012KT 5SM -SN BKN020 OVC050 M09/M11 A2974 RMK SC5SC3 SLP078

CYOW;2009-01-07 09:00;CYOW 070900Z 08014KT 2SM -SN OVC020 M09/M11 A2969 RMK SC8 /S02/ SLP062

CYOW;2009-01-07 09:35;CYOW 070935Z 08013G19KT 1 1/2SM -SN VV010 M09/ RMK SN8

CYOW;2009-01-07 10:00;CYOW 071000Z 07013KT 1 1/2SM -SN VV010 M09/M11 A2965 RMK SN8 SLP047

CYOW;2009-01-07 11:00;CYOW 071100Z CCA 07018G24KT 1 1/2SM -SN VV008 M10/M12 A2957 RMK SN8 /S04/ PRESFR SLP023

CYOW;2009-01-07 12:00;CYOW 071200Z CCB 06019G26KT 1 1/2SM -SN DRSN VV008 M10/M12 A2950 RMK SN8 PRESFR /S05/ SLP997

CYOW;2009-01-07 13:00;CYOW 071300Z 07016G22KT 1 1/4SM -SN DRSN VV010 M10/M12 A2951 RMK SN8 /S01/ SLP002

CYOW;2009-01-07 13:19;CYOW 071319Z CCA 06015G21KT 1/2SM R07/6000FT/D R32/6000FT/D SN DRSN VV004 M10/ RMK SN8

CYOW;2009-01-07 14:00;CYOW 071400Z CCA 07017G24KT 5/8SM R07/6000FT/D R32/6000FT/D -SN DRSN VV007 M10/M11 A2946 RMK SN8 /S02/ SLP983

CYOW;2009-01-07 14:13;CYOW 071413Z CCA 07016G21KT 1SM R07/6000FT/D R32/6000FT/U -SN DRSN VV007 M09/ RMK SN8

CYOW;2009-01-07 14:22;CYOW 071422Z 07017G22KT 2SM -SN DRSN OVC032 M09/ RMK SN2SC6

CYOW;2009-01-07 14:40;CYOW 071440Z CCA 07018G24KT 5/8SM R07/6000FT/D R32/6000FT/D -SN DRSN VV005 M09/ RMK SN8

CYOW;2009-01-07 15:00;CYOW 071500Z 08016G24KT 5/8SM R07/4000FT/N R32/4500FT/D -SN DRSN VV005 M09/M11 A2939 RMK SN8 /S04/ PRESFR SLP960

CYOW;2009-01-07 16:00;CYOW 071600Z 07015KT 5/8SM R07/5500FT/N R32/6000FT/N -SN DRSN VV006 M09/M10 A2933 RMK SN8 /S05/ PRESFR SLP940

CYOW;2009-01-07 17:00;CYOW 071700Z CCA 07016KT 5/8SM R07/3500FT/N R32/3000FT/U -SN DRSN VV006 M09/M10 A2923 RMK SN8 /S07/ PRESFR SLP906

CYOW;2009-01-07 18:00;CYOW 071800Z 07016KT 5/8SM R07/3000FT/N R32/3000FT/D -SN DRSN VV004 M08/M10 A2919 RMK SN8 /S08/ SLP894

CYOW;2009-01-07 19:00;CYOW 071900Z 07015KT 5/8SM R07/3000FT/N R32/3500FT/N -SN DRSN VV005 M08/M10 A2912 RMK SN8 /S01/ PRESFR SLP870

CYOW;2009-01-07 20:00;CYOW 072000Z 07016KT 1SM R07/6000FT/D R32/6000FT/D -SN DRSN VV005 M08/M10 A2911 RMK SN8 /S02/ SLP866

CYOW;2009-01-07 20:16;CYOW 072016Z 07011KT 5/8SM R07/5000FT/U R32/5500FT/U -SN DRSN VV005 M08/ RMK SN8

CYOW;2009-01-07 20:49;CYOW 072049Z 07014KT 1 1/2SM -SN DRSN VV010 M08/ RMK SN8

CYOW;2009-01-07 21:00;CYOW 072100Z 07013KT 1 1/2SM -SN DRSN VV010 M08/M10 A2908 RMK SN8 /S03/ SLP855

CYOW;2009-01-07 22:00;CYOW 072200Z 07007KT 1 1/2SM -SN VV006 M08/M10 A2909 RMK SN8 /S04/ SLP858

CYOW;2009-01-07 23:00;CYOW 072300Z 06006KT 1 1/2SM -SN VV006 M08/M10 A2908 RMK SN8 /S05/ SLP853

CYOW;2009-01-08 00:00;CYOW 080000Z 07008KT 1 1/4SM -SN VV006 M08/M10 A2906 RMK SN8 /S06/ SLP848

CYOW;2009-01-08 01:00;CYOW 080100Z 07007KT 1 1/2SM -SN VV010 M08/M10 A2904 RMK SN8 /S01/ SLP842

CYOW;2009-01-08 02:00;CYOW 080200Z 07006KT 1 1/2SM -SN VV013 M08/M10 A2903 RMK SN8 SLP837

CYOW;2009-01-08 02:15;CYOW 080215Z 08004KT 12SM BKN019 OVC054 M08/ RMK SC5SC3

CYOW;2009-01-08 02:53;CYOW 080253Z 08004KT 12SM -SN BKN019 OVC024 M08/ RMK SC5SC3

CYOW;2009-01-08 03:00;CYOW 080300Z 07004KT 12SM -SN BKN013 OVC021 M08/M10 A2902 RMK SC5SC3 SLP833

CYOW;2009-01-08 04:00;CYOW 080400Z 36003KT 10SM -SN BKN019 OVC037 M08/M10 A2900 RMK SC5SC3 VRY LGT SN SLP829

CYOW;2009-01-08 05:00;CYOW 080500Z 00000KT 8SM -SN BKN014 OVC033 M09/M10 A2899 RMK SC5SC3 SLP826

CYOW;2009-01-08 06:00;CYOW 080600Z 27004KT 2SM -SN BKN025 OVC040 M09/M10 A2899 RMK SC6SC2 /S03/ SLP823

CYOW;2009-01-08 07:00;CYOW 080700Z 27005KT 6SM -SN BKN043 OVC052 M08/M10 A2899 RMK SC6SC2 SLP826

CYOW;2009-01-08 08:00;CYOW 080800Z 28009KT 12SM -SN OVC045 M09/M10 A2902 RMK SC8 SLP834

CYOW;2009-01-08 09:00;CYOW 080900Z 27011KT 12SM -SN FEW009 OVC046 M09/M11 A2904 RMK SF1SC8 SLP840

CYOW;2009-01-08 10:00;CYOW 081000Z 27013G18KT 3SM -SN FEW012 BKN051 OVC072 M10/M12 A2906 RMK SF1SC5AC3 SLP849

CYOW;2009-01-08 11:00;CYOW 081100Z 27010KT 3SM -SN FEW013 OVC031 M10/M12 A2909 RMK SF1SC8 /S01/ SLP859

CYOW;2009-01-08 12:00;CYOW 081200Z 26011KT 3SM -SN OVC009 M10/M12 A2914 RMK SF8 SLP875

CYOW;2009-01-08 13:00;CYOW 081300Z 27014KT 6SM -SN DRSN SCT010 OVC032 M10/M13 A2917 RMK SF3SC5 LGT DRSN SLP885

CYOW;2009-01-08 14:00;CYOW 081400Z 29014G20KT 12SM -SN DRSN FEW010 BKN035 OVC080 M11/M14 A2921 RMK SF2SC5AC2 VRY LGT SN SLP900

CYOW;2009-01-08 14:27;CYOW 081427Z 29013G18KT 15SM DRSN SCT015 BKN035 BKN080 M11/ RMK SF3SC3AC1

CYOW;2009-01-08 14:32;CYOW 081432Z 29011G18KT 10SM -SN DRSN SCT015 BKN035 BKN080 M11/ RMK SF3SC3AC1

CYOW;2009-01-08 14:54;CYOW 081454Z 28012G17KT 15SM DRSN SCT020 BKN035 M11/ RMK SC3SC2

CYOW;2009-01-08 15:00;CYOW 081500Z 29014KT 15SM DRSN SCT020 BKN035 M11/M14 A2924 RMK SC3SC2 SLP910

CYOW;2009-01-08 16:00;CYOW 081600Z 29015G20KT 15SM DRSN FEW020 SCT035 M12/M16 A2927 RMK SC1SC2 SLP919

CYOW;2009-01-08 17:00;CYOW 081700Z 29012G18KT 15SM DRSN FEW020 SCT035 M11/M16 A2929 RMK SC1SC2 SLP925

CYOW;2009-01-08 18:00;CYOW 081800Z 29013G21KT 15SM DRSN FEW015 BKN025 M11/M16 A2930 RMK SC2SC4 SLP930

CYOW;2009-01-08 19:00;CYOW 081900Z 27011G16KT 15SM DRSN FEW015 BKN025 M11/M15 A2933 RMK SC2SC4 SLP941

CYOW;2009-01-08 20:00;CYOW 082000Z CCA 29017G25KT 15SM DRSN SCT025 M10/M15 A2937 RMK SC3 PRESRR SLP955

CYOW;2009-01-08 21:00;CYOW 082100Z 29014G22KT 15SM DRSN FEW025 M10/M15 A2943 RMK SC2 PRESRR SLP973

CYOW;2009-01-08 22:00;CYOW 082200Z 28015KT 15SM DRSN FEW025 M10/M15 A2948 RMK SC2 SLP990

CYOW;2009-01-08 23:00;CYOW 082300Z 28018KT 15SM DRSN FEW025 M11/M15 A2952 RMK SC1 SLP005

CYOW;2009-01-09 00:00;CYOW 090000Z 29016G25KT 15SM DRSN FEW020 FEW220 M11/M15 A2955 RMK SC1CI1 SLP015

CYOW;2009-01-09 01:00;CYOW 090100Z 30013G18KT 15SM DRSN FEW020 FEW220 M11/M16 A2959 RMK SC1CI2 SLP027

CYOW;2009-01-09 02:00;CYOW 090200Z 30012G17KT 15SM DRSN FEW020 FEW220 M13/M17 A2962 RMK SC1CI1 SLP037

CYOW;2009-01-09 03:00;CYOW 090300Z 29013KT 15SM DRSN FEW020 BKN150 M13/M17 A2964 RMK SC1AS2 SLP047

CYOW;2009-01-09 04:00;CYOW 090400Z 29013KT 15SM DRSN OVC130 M14/M18 A2967 RMK AS6 SLP056

CYOW;2009-01-09 05:00;CYOW 090500Z 29012KT 15SM DRSN OVC120 M14/M18 A2970 RMK AS5 SLP065

CYOW;2009-01-09 06:00;CYOW 090600Z 28011KT 15SM OVC100 M15/M18 A2973 RMK AS5 SLP078

CYOW;2009-01-09 07:00;CYOW 090700Z 30011KT 15SM OVC110 M15/M19 A2976 RMK AS6 SLP087

CYOW;2009-01-09 08:00;CYOW 090800Z 29009KT 15SM OVC110 M15/M19 A2979 RMK AC8 MOON VISBL SLP097

CYOW;2009-01-09 09:00;CYOW 090900Z 29010KT 15SM SCT062 OVC077 M15/M19 A2982 RMK SC4AC4 MOON VISBL SLP107

CYOW;2009-01-09 10:00;CYOW 091000Z 29009KT 15SM SCT057 BKN070 BKN110 M15/M19 A2984 RMK SC3AC2AC1 SLP113

CYOW;2009-01-09 11:00;CYOW 091100Z 29008KT 15SM SCT059 BKN070 M15/M19 A2986 RMK SC4AC3 SLP122

CYOW;2009-01-09 12:00;CYOW 091200Z 30010KT 15SM BKN055 M15/M18 A2989 RMK SC6 SLP133

CYOW;2009-01-09 13:00;CYOW 091300Z 29009KT 15SM BKN055 M14/M18 A2994 RMK SC7 SLP148

CYOW;2009-01-09 14:00;CYOW 091400Z 29011KT 15SM BKN055 M15/M18 A2997 RMK SC7 SLP159

CYOW;2009-01-09 15:00;CYOW 091500Z 29010G15KT 15SM BKN059 M15/M18 A3000 RMK SC5 SLP171

CYOW;2009-01-09 16:00;CYOW 091600Z 29010KT 15SM FEW070 M15/M19 A3002 RMK AC1 SLP176

CYOW;2009-01-09 17:00;CYOW 091700Z 29010KT 15SM FEW070 M14/M18 A3002 RMK AC1 SLP177

CYOW;2009-01-09 18:00;CYOW 091800Z 27010KT 15SM FEW070 M14/M19 A3002 RMK AC1 SLP175

CYOW;2009-01-09 19:00;CYOW 091900Z 25009KT 15SM FEW070 M14/M21 A3004 RMK AC1 SLP182

CYOW;2009-01-09 20:00;CYOW 092000Z 27010KT 15SM SKC M13/M20 A3007 RMK SLP194

CYOW;2009-01-09 21:00;CYOW 092100Z 27011KT 15SM SKC M14/M21 A3011 RMK SLP205

CYOW;2009-01-09 22:00;CYOW 092200Z 27009KT 15SM SKC M14/M21 A3013 RMK SLP214

CYOW;2009-01-09 23:00;CYOW 092300Z 27006KT 15SM SKC M15/M22 A3015 RMK SLP219

CYOW;2009-01-10 00:00;CYOW 100000Z 28007KT 15SM SKC M15/M21 A3018 RMK SLP230

CYOW;2009-01-10 01:00;CYOW 100100Z 30010KT 15SM SKC M15/M21 A3019 RMK SLP234

CYOW;2009-01-10 02:00;CYOW 100200Z 30008KT 15SM SKC M16/M22 A3021 RMK SLP241

CYOW;2009-01-10 03:00;CYOW 100300Z 30004KT 15SM SKC M17/M22 A3023 RMK SLP249

CYOW;2009-01-10 04:00;CYOW 100400Z 30005KT 15SM SKC M18/M22 A3025 RMK SLP255

CYOW;2009-01-10 05:00;CYOW 100500Z 30004KT 15SM SKC M18/M22 A3026 RMK SLP260

CYOW;2009-01-10 06:00;CYOW 100600Z 31005KT 15SM SKC M18/M22 A3027 RMK SLP261

CYOW;2009-01-10 07:00;CYOW 100700Z 29003KT 15SM SKC M19/M22 A3029 RMK SLP269

CYOW;2009-01-10 08:00;CYOW 100800Z 31004KT 15SM SKC M19/M22 A3029 RMK SLP268

CYOW;2009-01-10 09:00;CYOW 100900Z 27004KT 15SM SKC M20/M23 A3031 RMK SLP275

CYOW;2009-01-10 10:00;CYOW 101000Z 25003KT 15SM SKC M19/M22 A3030 RMK FROIN SLP273

CYOW;2009-01-10 11:00;CYOW 101100Z 22003KT 15SM SKC M21/M24 A3030 RMK FROIN SLP273

CYOW;2009-01-10 12:00;CYOW 101200Z 27005KT 15SM SKC M22/M26 A3033 RMK FROIN SLP284

CYOW;2009-01-10 13:00;CYOW 101300Z 29004KT 15SM SKC M21/M25 A3033 RMK SLP284

CYOW;2009-01-10 14:00;CYOW 101400Z 23003KT 20SM SKC M20/M24 A3033 RMK SLP284

CYOW;2009-01-10 15:00;CYOW 101500Z 31003KT 20SM FEW240 M20/M23 A3033 RMK CI1 SLP284

CYOW;2009-01-10 16:00;CYOW 101600Z 31002KT 20SM FEW240 M17/M20 A3032 RMK CI1 SLP281

CYOW;2009-01-10 17:00;CYOW 101700Z 31002KT 20SM FEW240 M15/M20 A3029 RMK CI1 SLP269

CYOW;2009-01-10 18:00;CYOW 101800Z 00000KT 20SM FEW240 M11/M20 A3025 RMK CI1 SLP256

CYOW;2009-01-10 19:00;CYOW 101900Z 00000KT 20SM FEW240 M12/M20 A3025 RMK CI2 SLP253

CYOW;2009-01-10 20:00;CYOW 102000Z 00000KT 15SM SCT240 M13/M20 A3023 RMK CI2 SLP249

CYOW;2009-01-10 21:00;CYOW 102100Z 00000KT 15SM BKN240 M12/M20 A3022 RMK CI3 SLP244

CYOW;2009-01-10 22:00;CYOW 102200Z 09003KT 15SM BKN240 M15/M21 A3021 RMK CI4 SLP240

CYOW;2009-01-10 23:00;CYOW 102300Z 04005KT 15SM BKN220 M15/M21 A3018 RMK CI4 SLP231

CYOW;2009-01-11 00:00;CYOW 110000Z 08003KT 15SM OVC210 M16/M21 A3016 RMK CS8 MOON VISBL SLP225

CYOW;2009-01-11 01:00;CYOW 110100Z 04006KT 15SM OVC200 M15/M20 A3015 RMK CS8 MOON VISBL SLP221

CYOW;2009-01-11 02:00;CYOW 110200Z 05007KT 15SM OVC160 M15/M21 A3013 RMK AS8 MOON VISBL SLP214

CYOW;2009-01-11 03:00;CYOW 110300Z 05007KT 15SM OVC160 M16/M21 A3011 RMK AS8 MOON VISBL SLP210

CYOW;2009-01-11 04:00;CYOW 110400Z 04011KT 15SM OVC150 M16/M21 A3008 RMK AS8 MOON VISBL SLP200

CYOW;2009-01-11 05:00;CYOW 110500Z 05010KT 15SM OVC140 M15/M21 A3005 RMK AS8 MOON VISBL SLP188

CYOW;2009-01-11 06:00;CYOW 110600Z 05010KT 15SM OVC120 M15/M20 A3002 RMK AS8 MOON VISBL SLP174

CYOW;2009-01-11 07:00;CYOW 110700Z 05006KT 15SM OVC120 M15/M20 A3000 RMK AS8 MOON VISBL SLP170

CYOW;2009-01-11 08:00;CYOW 110800Z 05004KT 15SM OVC110 M14/M19 A3001 RMK AS8 MOON VISBL SLP171

CYOW;2009-01-11 09:00;CYOW 110900Z 04005KT 15SM SCT120 OVC200 M14/M19 A3000 RMK AC4CS2 SLP168

CYOW;2009-01-11 10:00;CYOW 111000Z 36004KT 15SM OVC110 M14/M18 A2999 RMK AC8 MOON VISBL SLP165

CYOW;2009-01-11 11:00;CYOW 111100Z 36004KT 15SM BKN110 OVC200 M14/M18 A2998 RMK AC5CI1 SLP163

CYOW;2009-01-11 12:00;CYOW 111200Z 32008KT 15SM BKN150 M14/M19 A3001 RMK AC3 SLP174

CYOW;2009-01-11 13:00;CYOW 111300Z 31008KT 15SM FEW150 FEW240 M17/M21 A3004 RMK AC2CI1 SLP183

CYOW;2009-01-11 14:00;CYOW 111400Z 30004KT 15SM FEW150 FEW240 M17/M21 A3006 RMK AC1CI1 SLP190

CYOW;2009-01-11 15:00;CYOW 111500Z 27002KT 15SM FEW240 M14/M19 A3006 RMK CI1 SLP189

CYOW;2009-01-11 16:00;CYOW 111600Z 27003KT 15SM FEW240 M13/M18 A3006 RMK CI1 SLP190

CYOW;2009-01-11 17:00;CYOW 111700Z 31005KT 15SM FEW240 M12/M17 A3005 RMK CI1 SLP186

CYOW;2009-01-11 18:00;CYOW 111800Z 25004KT 15SM FEW240 M10/M17 A3005 RMK CI1 SLP184

CYOW;2009-01-11 19:00;CYOW 111900Z 25005KT 15SM FEW240 M10/M17 A3003 RMK CI1 SLP179

CYOW;2009-01-11 20:00;CYOW 112000Z 25005KT 15SM FEW240 M09/M17 A3002 RMK CI1 SLP177

CYOW;2009-01-11 21:00;CYOW 112100Z 25006KT 15SM SCT240 M10/M17 A3002 RMK CI2 SLP177

CYOW;2009-01-11 22:00;CYOW 112200Z 24003KT 15SM BKN240 M12/M18 A3003 RMK CI2 SLP178

CYOW;2009-01-11 23:00;CYOW 112300Z 24003KT 15SM BKN220 M12/M18 A3002 RMK CI3 SLP174

CYOW;2009-01-12 00:00;CYOW 120000Z 24005KT 15SM BKN210 M12/M18 A3003 RMK CI4 SLP179

CYOW;2009-01-12 01:00;CYOW 120100Z 23004KT 15SM BKN210 M13/M18 A3004 RMK CI4 SLP181

CYOW;2009-01-12 02:00;CYOW 120200Z 25003KT 15SM BKN190 M13/M18 A3004 RMK AS5 SLP181

CYOW;2009-01-12 03:00;CYOW 120300Z 00000KT 15SM OVC120 M12/M18 A3003 RMK AS6 SLP179

CYOW;2009-01-12 04:00;CYOW 120400Z 00000KT 15SM FEW050 OVC120 M12/M17 A3002 RMK SC2AS5 SLP174

CYOW;2009-01-12 05:00;CYOW 120500Z 18003KT 15SM FEW050 OVC090 M12/M18 A3002 RMK SC1AS6 SLP174

CYOW;2009-01-12 06:00;CYOW 120600Z 17002KT 15SM FEW040 OVC090 M13/M17 A3002 RMK SC2AS6 SLP174

CYOW;2009-01-12 06:27;CYOW 120627Z 18002KT 10SM -SN OVC040 M13/ RMK SC8

CYOW;2009-01-12 07:00;CYOW 120700Z 19003KT 6SM -SN OVC040 M12/M15 A3002 RMK SC8 SLP174

CYOW;2009-01-12 08:00;CYOW 120800Z 22003KT 6SM -SN BKN030 M13/M15 A3002 RMK SC5 SLP175

CYOW;2009-01-12 09:00;CYOW 120900Z 21004KT 12SM SCT040 M13/M15 A3001 RMK SC3 SLP172

CYOW;2009-01-12 10:00;CYOW 121000Z 24003KT 12SM OVC053 M13/M15 A3002 RMK SC8 SLP175

CYOW;2009-01-12 11:00;CYOW 121100Z 21003KT 15SM OVC062 M13/M15 A3003 RMK SC8 SLP180

CYOW;2009-01-12 12:00;CYOW 121200Z 20003KT 12SM BKN061 M13/M15 A3005 RMK SC7 SLP185

CYOW;2009-01-12 13:00;CYOW 121300Z 20005KT 12SM BKN063 M13/M15 A3006 RMK SC7 SLP190

CYOW;2009-01-12 14:00;CYOW 121400Z 20004KT 15SM BKN062 M13/M15 A3008 RMK SC6 SLP196

CYOW;2009-01-12 15:00;CYOW 121500Z 20006KT 15SM FEW060 M11/M13 A3009 RMK SC1 SLP200

CYOW;2009-01-12 16:00;CYOW 121600Z 22006KT 15SM FEW060 M09/M12 A3011 RMK SC1 SLP204

CYOW;2009-01-12 17:00;CYOW 121700Z 22009KT 15SM SKC M06/M12 A3009 RMK SLP199

CYOW;2009-01-12 18:00;CYOW 121800Z 21007KT 15SM SKC M05/M11 A3007 RMK SLP191

CYOW;2009-01-12 19:00;CYOW 121900Z 23007KT 15SM FEW055 M04/M11 A3007 RMK SC1 SLP192

CYOW;2009-01-12 20:00;CYOW 122000Z 22006KT 15SM OVC046 M04/M10 A3008 RMK SC8 SLP195

CYOW;2009-01-12 21:00;CYOW 122100Z 20005KT 15SM BKN055 M05/M10 A3010 RMK SC5 SLP201

CYOW;2009-01-12 22:00;CYOW 122200Z 19005KT 15SM FEW055 M05/M10 A3012 RMK SC2 SLP207

CYOW;2009-01-12 23:00;CYOW 122300Z 18008KT 15SM BKN063 M05/M10 A3011 RMK SC6 SLP204

CYOW;2009-01-13 00:00;CYOW 130000Z 20004KT 15SM BKN063 OVC240 M06/M10 A3011 RMK SC6CI1 SLP206

CYOW;2009-01-13 01:00;CYOW 130100Z 18005KT 15SM OVC060 M06/M09 A3011 RMK SC8 SLP205

CYOW;2009-01-13 02:00;CYOW 130200Z 20005KT 15SM OVC060 M06/M09 A3011 RMK SC8 SLP207

CYOW;2009-01-13 03:00;CYOW 130300Z 21004KT 15SM OVC060 M06/M09 A3011 RMK SC8 SLP206

CYOW;2009-01-13 04:00;CYOW 130400Z 17003KT 15SM OVC060 M06/M09 A3010 RMK SC8 SLP202

CYOW;2009-01-13 05:00;CYOW 130500Z 18003KT 15SM OVC060 M06/M10 A3010 RMK SC8 SLP201

CYOW;2009-01-13 06:00;CYOW 130600Z 19004KT 15SM BKN060 OVC140 M06/M10 A3008 RMK SC6AS1 SLP194

CYOW;2009-01-13 07:00;CYOW 130700Z 18006KT 15SM SCT037 OVC055 M06/M09 A3006 RMK SC3SC5 SLP187

CYOW;2009-01-13 07:11;CYOW 130711Z 18006KT 15SM -SN SCT033 OVC055 M06/ RMK SC4SC4

CYOW;2009-01-13 07:40;CYOW 130740Z 16006KT 15SM BKN027 OVC055 M06/ RMK SC6SC2

CYOW;2009-01-13 07:45;CYOW 130745Z 17005KT 15SM -SN BKN026 OVC055 M06/ RMK SC6SC2

CYOW;2009-01-13 08:00;CYOW 130800Z 16005KT 15SM -SN BKN026 OVC055 M06/M08 A3005 RMK SC6SC2 SLP184

CYOW;2009-01-13 09:00;CYOW 130900Z 13006KT 12SM -SN OVC021 M06/M07 A3001 RMK SC8 SLP171

CYOW;2009-01-13 09:43;CYOW 130943Z 13004KT 10SM BKN016 OVC029 M06/ RMK SC6SC2

CYOW;2009-01-13 10:00;CYOW 131000Z 16007KT 12SM BKN016 OVC028 M05/M07 A2999 RMK SC6SC2 SLP163

CYOW;2009-01-13 11:00;CYOW 131100Z 18008KT 12SM -SN SCT016 OVC033 M05/M09 A2996 RMK SC3SC5 SLP155

CYOW;2009-01-13 12:00;CYOW 131200Z 18007KT 12SM -SN OVC040 M05/M09 A2993 RMK SC8 VRY LGT SN SLP142

CYOW;2009-01-13 13:00;CYOW 131300Z 16007KT 4SM -SN OVC033 M06/M08 A2990 RMK SC8 SLP131

CYOW;2009-01-13 13:04;CYOW 131304Z 16008KT 1 1/2SM -SN VV011 M06/ RMK SN8

CYOW;2009-01-13 13:44;CYOW 131344Z 14007KT 3SM -SN OVC028 M06/ RMK SC8

CYOW;2009-01-13 14:00;CYOW 131400Z 15006KT 3SM -SN OVC022 M06/M07 A2985 RMK SC8 SLP116

CYOW;2009-01-13 15:00;CYOW 131500Z 15008KT 12SM -SN FEW025 OVC077 M04/M07 A2981 RMK SC2AC6 SLP102

CYOW;2009-01-13 15:33;CYOW 131533Z 17010KT 12SM BKN025 OVC070 M03/ RMK SC6AC2

CYOW;2009-01-13 15:47;CYOW 131547Z 17011KT 3SM -SN OVC016 M03/ RMK SC8

CYOW;2009-01-13 16:00;CYOW 131600Z 16011KT 10SM -SN BKN025 OVC075 M03/M06 A2976 RMK SC5AC3 SLP085

CYOW;2009-01-13 17:00;CYOW 131700Z CCA 17011KT 12SM -SN OVC025 M02/M06 A2969 RMK SC8 PRESFR SLP061

CYOW;2009-01-13 17:11;CYOW 131711Z 18009G15KT 2 1/2SM -SN OVC024 M02/ RMK SN1SC7

CYOW;2009-01-13 17:37;CYOW 131737Z CCA 17009G15KT 3/4SM R07/4500FT/D R32/5000FT/N -SN VV007 M03/ RMK SN8

CYOW;2009-01-13 18:00;CYOW 131800Z 16009KT 1SM R07/5000FT/N R32/6000FT/U -SN VV008 M03/M04 A2963 RMK SN8 /S01/ SLP042

CYOW;2009-01-13 18:26;CYOW 131826Z 17010KT 3SM -SN OVC013 M02/ RMK SC8

CYOW;2009-01-13 19:00;CYOW 131900Z 18011G16KT 6SM -SN OVC015 M02/M04 A2959 RMK SC8 VRY LGT SN SLP028

CYOW;2009-01-13 20:00;CYOW 132000Z CCA 19013KT 4SM -SN DRSN OVC015 M01/M03 A2956 RMK SC8 SLP018

CYOW;2009-01-13 21:00;CYOW 132100Z 19015KT 6SM -SN DRSN OVC013 M01/M02 A2954 RMK SC8 SLP011

CYOW;2009-01-13 22:00;CYOW 132200Z 18015KT 2 1/2SM -SN DRSN OVC012 M01/M02 A2952 RMK SN1SC7 /S01/ SLP004

CYOW;2009-01-13 23:00;CYOW 132300Z CCA 21017KT 3/4SM R07/3000FT/N R32/4000FT/N -SN DRSN VV003 M01/M01 A2952 RMK SN8 /S02/ SLP002

CYOW;2009-01-13 23:07;CYOW 132307Z 21016G25KT 1SM R07/3000FT/N R32/4000FT/N -SN DRSN VV007 M01/ RMK SN8

CYOW;2009-01-13 23:18;CYOW 132318Z 21013G18KT 2SM -SN DRSN OVC015 M01/ RMK SN3SC5

CYOW;2009-01-13 23:29;CYOW 132329Z 22011KT 4SM -SN FEW007 BKN022 OVC086 M01/ RMK SC1SC4AC3

CYOW;2009-01-14 00:00;CYOW 140000Z CCA 26016KT 5SM -SN DRSN FEW007 OVC030 M01/M05 A2954 RMK SC1SC7 SLP009

CYOW;2009-01-14 00:10;CYOW 140010Z 30023G29KT 3/4SM -SHSN DRSN VV006 M05/ RMK SN8

CYOW;2009-01-14 00:34;CYOW 140034Z 30025G31KT 1 1/4SM -SN BLSN OVC037 M11/ RMK BLSN1SC7

CYOW;2009-01-14 01:00;CYOW 140100Z 29019G27KT 1 1/2SM -SN BLSN OVC043 M12/M15 A2965 RMK BLSN1SC7 PRESRR SLP045

CYOW;2009-01-14 01:10;CYOW 140110Z 28028G39KT 5/8SM R07/2600FT/N R32/2200FT/N -SN BLSN OVC030 M13/ RMK BLSN2SC6

CYOW;2009-01-14 01:35;CYOW 140135Z 30020G35KT 2SM BLSN BKN057 M15/ RMK BLSN1SC6

CYOW;2009-01-14 02:00;CYOW 140200Z 31026G34KT 1 1/2SM BLSN FEW020 FEW060 M16/M19 A2971 RMK BLSN1SC1SC1 PRESRR SLP068

CYOW;2009-01-14 02:20;CYOW 140220Z 29025G30KT 4SM BLSN FEW030 FEW060 M16/ RMK BLSN1SC1SC1

CYOW;2009-01-14 03:00;CYOW 140300Z 29019G28KT 15SM DRSN FEW030 M17/M21 A2979 RMK SC1 OCNL BLSN PRESRR SLP095

CYOW;2009-01-14 04:00;CYOW 140400Z 29015G25KT 10SM DRSN FEW030 M19/M28 A2984 RMK SC1 OCNL BLSN PRESRR SLP112

CYOW;2009-01-14 05:00;CYOW 140500Z 29015G20KT 15SM DRSN SKC M20/M26 A2988 RMK OCNL BLSN SLP125

CYOW;2009-01-14 06:00;CYOW 140600Z 29019G24KT 15SM DRSN SKC M21/M27 A2991 RMK SLP136

CYOW;2009-01-14 07:00;CYOW 140700Z 29019G24KT 15SM DRSN SKC M22/M28 A2994 RMK SLP148

CYOW;2009-01-14 08:00;CYOW 140800Z 29017G24KT 15SM DRSN SKC M23/M29 A2997 RMK SLP158

CYOW;2009-01-14 09:00;CYOW 140900Z 30014G24KT 15SM DRSN SKC M23/M29 A2999 RMK SLP164

CYOW;2009-01-14 10:00;CYOW 141000Z 29013G19KT 15SM SKC M24/M30 A3002 RMK OCNL DRSN SLP177

CYOW;2009-01-14 11:00;CYOW 141100Z 30013KT 15SM SKC M25/M31 A3007 RMK OCNL DRSN SLP191

CYOW;2009-01-14 12:00;CYOW 141200Z 29012KT 15SM DRSN SKC M26/M31 A3010 RMK VRY LGT DRSN SLP204

CYOW;2009-01-14 13:00;CYOW 141300Z 29010KT 15SM DRSN SKC M26/M32 A3012 RMK VRY LGT DRSN SLP211

CYOW;2009-01-14 14:00;CYOW 141400Z 31012KT 15SM DRSN SKC M26/M32 A3016 RMK VRY LGT DRSN SLP223

CYOW;2009-01-14 15:00;CYOW 141500Z 29009KT 15SM SKC M26/M32 A3018 RMK SLP232

CYOW;2009-01-14 16:00;CYOW 141600Z 27007KT 15SM SKC M25/M32 A3017 RMK SLP229

CYOW;2009-01-14 17:00;CYOW 141700Z 28006KT 15SM FEW070 M25/M31 A3014 RMK AC1 SLP221

CYOW;2009-01-14 18:00;CYOW 141800Z 25007KT 15SM FEW180 M24/M31 A3013 RMK AC1 SLP217

CYOW;2009-01-14 19:00;CYOW 141900Z 23007KT 15SM FEW180 M23/M31 A3016 RMK AC2 SLP225

CYOW;2009-01-14 20:00;CYOW 142000Z 26006KT 15SM FEW180 M23/M31 A3017 RMK AC2 SLP229

CYOW;2009-01-14 21:00;CYOW 142100Z 26004KT 15SM BKN120 M23/M30 A3017 RMK AC6 SLP231

CYOW;2009-01-14 22:00;CYOW 142200Z 27003KT 15SM BKN120 M23/M30 A3016 RMK AC6 SLP228

CYOW;2009-01-14 23:00;CYOW 142300Z 30002KT 15SM OVC110 M23/M30 A3016 RMK AC8 SLP227

CYOW;2009-01-15 00:00;CYOW 150000Z 31003KT 15SM OVC100 M23/M29 A3017 RMK AC8 SLP232

CYOW;2009-01-15 01:00;CYOW 150100Z 30003KT 15SM OVC090 M23/M29 A3018 RMK AC8 SLP233

CYOW;2009-01-15 02:00;CYOW 150200Z 25003KT 15SM OVC090 M23/M29 A3019 RMK AC8 SLP238

CYOW;2009-01-15 03:00;CYOW 150300Z 21003KT 15SM SCT080 OVC160 M23/M29 A3019 RMK AC3AC0 SLP239

CYOW;2009-01-15 04:00;CYOW 150400Z 23002KT 15SM FEW140 OVC200 M23/M29 A3020 RMK AC2CI5 SLP242

CYOW;2009-01-15 05:00;CYOW 150500Z 27002KT 15SM SCT100 OVC200 M23/M30 A3020 RMK AC2CI2 SLP242

CYOW;2009-01-15 06:00;CYOW 150600Z CCA 27002KT 15SM FEW200 M24/M30 A3020 RMK CI0 SLP241

CYOW;2009-01-15 07:00;CYOW 150700Z 33002KT 15SM FEW200 M25/M30 A3021 RMK CI0 SLP245

CYOW;2009-01-15 08:00;CYOW 150800Z 31004KT 15SM SKC M25/M29 A3022 RMK SLP249

CYOW;2009-01-15 09:00;CYOW 150900Z 32005KT 15SM SKC M26/M30 A3022 RMK SLP249

CYOW;2009-01-15 10:00;CYOW 151000Z 31005KT 15SM SKC M27/M31 A3024 RMK FROIN SLP255

CYOW;2009-01-15 11:00;CYOW 151100Z 29003KT 15SM SKC M28/M32 A3026 RMK FROIN SLP261

CYOW;2009-01-15 12:00;CYOW 151200Z 31005KT 15SM SKC M29/M33 A3028 RMK FROIN SLP270

CYOW;2009-01-15 13:00;CYOW 151300Z 31005KT 15SM SKC M28/M32 A3029 RMK FROIN SLP273

CYOW;2009-01-15 14:00;CYOW 151400Z 31005KT 15SM SKC M29/M33 A3031 RMK SLP278

CYOW;2009-01-15 15:00;CYOW 151500Z 31006KT 15SM SKC M27/M32 A3032 RMK SLP284

CYOW;2009-01-15 16:00;CYOW 151600Z 31004KT 15SM SKC M25/M30 A3032 RMK SLP283

CYOW;2009-01-15 17:00;CYOW 151700Z 31007KT 15SM SKC M23/M29 A3031 RMK SLP280

CYOW;2009-01-15 18:00;CYOW 151800Z 30006KT 15SM SKC M21/M29 A3030 RMK SLP274

CYOW;2009-01-15 19:00;CYOW 151900Z 28007KT 15SM FEW210 M21/M29 A3030 RMK CI1 SLP275

CYOW;2009-01-15 20:00;CYOW 152000Z 27007KT 15SM FEW210 M20/M29 A3031 RMK CI1 SLP277

CYOW;2009-01-15 21:00;CYOW 152100Z 24003KT 15SM FEW210 M20/M29 A3031 RMK CI1 SLP279

CYOW;2009-01-15 22:00;CYOW 152200Z 23003KT 15SM FEW210 M21/M28 A3032 RMK CI1 SLP281

CYOW;2009-01-15 23:00;CYOW 152300Z 32002KT 15SM FEW210 M22/M29 A3032 RMK CI1 SLP281

CYOW;2009-01-16 00:00;CYOW 160000Z CCA 15002KT 15SM SCT200 M23/M29 A3032 RMK CI2 SLP282

CYOW;2009-01-16 01:00;CYOW 160100Z 18002KT 15SM BKN190 M22/M28 A3032 RMK AC4 SLP284

CYOW;2009-01-16 02:00;CYOW 160200Z 15003KT 15SM SCT190 M24/M29 A3032 RMK AC2 SLP282

CYOW;2009-01-16 03:00;CYOW 160300Z 07004KT 15SM SCT180 M22/M29 A3030 RMK AC2 SLP276

CYOW;2009-01-16 04:00;CYOW 160400Z 00000KT 15SM SCT120 M24/M29 A3030 RMK AC2 SLP275

CYOW;2009-01-16 05:00;CYOW 160500Z 00000KT 15SM FEW140 M25/M29 A3030 RMK AC2 SLP275

CYOW;2009-01-16 06:00;CYOW 160600Z 29005KT 15SM SKC M27/M31 A3031 RMK SLP277

CYOW;2009-01-16 07:00;CYOW 160700Z 27002KT 15SM SKC M27/M31 A3032 RMK FROIN SLP281

CYOW;2009-01-16 08:00;CYOW 160800Z 26006KT 15SM SKC M28/M33 A3032 RMK FROIN SLP282

CYOW;2009-01-16 09:00;CYOW 160900Z 27003KT 15SM SKC M28/M33 A3032 RMK FROIN SLP283

CYOW;2009-01-16 10:00;CYOW 161000Z 27004KT 15SM SKC M29/M34 A3035 RMK SLP291

CYOW;2009-01-16 11:00;CYOW 161100Z 29003KT 15SM SCT180 M29/M34 A3035 RMK AC0 SLP292

CYOW;2009-01-16 12:00;CYOW 161200Z 00000KT 15SM FEW180 M30/M34 A3035 RMK AC2 FROIN SLP293

CYOW;2009-01-16 13:00;CYOW 161300Z 22003KT 15SM FEW090 BKN150 M30/M34 A3036 RMK AC2AC1 FROIN SLP296

CYOW;2009-01-16 14:00;CYOW 161400Z 18003KT 15SM FEW060 BKN090 M28/M33 A3038 RMK SC2AS2 SLP302

CYOW;2009-01-16 15:00;CYOW 161500Z 21004KT 12SM OVC050 M26/M30 A3040 RMK SC4 THIN SC SLP309

CYOW;2009-01-16 16:00;CYOW 161600Z CCA 29002KT 3SM IC FEW030 M24/M28 A3038 RMK SC2 SLP304

CYOW;2009-01-16 17:00;CYOW 161700Z 00000KT 3SM IC SCT030 M23/M27 A3036 RMK SC3 SLP297

CYOW;2009-01-16 18:00;CYOW 161800Z 31004KT 3SM IC FEW020 M22/M26 A3035 RMK SC2 SLP292

CYOW;2009-01-16 19:00;CYOW 161900Z 30007KT 3SM IC SKC M21/M27 A3035 RMK SLP293

CYOW;2009-01-16 19:42;CYOW 161942Z 31005KT 15SM SKC M20/

CYOW;2009-01-16 20:00;CYOW 162000Z 31006KT 15SM SKC M21/M27 A3036 RMK SLP297

CYOW;2009-01-16 21:00;CYOW 162100Z 27005KT 15SM FEW240 M20/M27 A3038 RMK CI1 SLP302

CYOW;2009-01-16 22:00;CYOW 162200Z 27003KT 15SM FEW240 M21/M28 A3039 RMK CI1 SLP304

CYOW;2009-01-16 23:00;CYOW 162300Z 23004KT 15SM FEW240 M22/M28 A3039 RMK CI1 SLP304

CYOW;2009-01-17 00:00;CYOW 170000Z 26003KT 15SM FEW180 M22/M28 A3038 RMK AC1 SLP304

CYOW;2009-01-17 01:00;CYOW 170100Z 18004KT 15SM FEW180 M23/M29 A3038 RMK AC1 SLP303

CYOW;2009-01-17 02:00;CYOW 170200Z 21005KT 15SM FEW140 M24/M29 A3038 RMK AC1 SLP302

CYOW;2009-01-17 03:00;CYOW 170300Z 19004KT 15SM BKN078 M24/M29 A3036 RMK AC4 SLP298

CYOW;2009-01-17 04:00;CYOW 170400Z 19003KT 15SM SCT090 M24/M29 A3036 RMK AC2 SLP297

CYOW;2009-01-17 04:54;CYOW 170454Z 17003KT 15SM -SN OVC046 M24/ RMK SC8

CYOW;2009-01-17 05:00;CYOW 170500Z 18004KT 15SM -SN OVC022 M23/M28 A3035 RMK SC8 VRY LGT SN SLP293

CYOW;2009-01-17 05:17;CYOW 170517Z 18005KT 2SM -SN OVC010 M22/ RMK SC8

CYOW;2009-01-17 06:00;CYOW 170600Z 18005KT 1 1/2SM -SN OVC010 M22/M27 A3033 RMK SC8 SLP284

CYOW;2009-01-17 06:30;CYOW 170630Z 18003KT 15SM SCT054 M22/ RMK SC3

CYOW;2009-01-17 07:00;CYOW 170700Z 18003KT 15SM FEW054 SCT082 M22/M26 A3032 RMK SC1AC3 SLP282

CYOW;2009-01-17 08:00;CYOW 170800Z 19002KT 2SM -SN OVC017 M20/M25 A3032 RMK SC8 SLP280

CYOW;2009-01-17 09:00;CYOW 170900Z 17002KT 5SM -SN BKN030 M20/M25 A3031 RMK SC6 SLP275

CYOW;2009-01-17 09:55;CYOW 170955Z 00000KT 15SM FEW072 SCT150 M21/ RMK AC1AC2

CYOW;2009-01-17 10:00;CYOW 171000Z 00000KT 15SM FEW082 SCT098 M21/M25 A3029 RMK AC1AC2 SLP269

CYOW;2009-01-17 11:00;CYOW 171100Z CCA 04003KT 5SM -SN BKN120 M23/M27 A3029 RMK AC5 SLP270

CYOW;2009-01-17 12:00;CYOW 171200Z 07004KT 5SM -SN BKN030 BKN080 M24/M29 A3030 RMK SC5AC2 SLP275

CYOW;2009-01-17 13:00;CYOW 171300Z 03004KT 3SM -SN BKN047 M24/M27 A3031 RMK SC5 SLP278

CYOW;2009-01-17 14:00;CYOW 171400Z 00000KT 2SM -SN FEW030 BKN080 M22/M26 A3031 RMK SC2AC6 SLP277

CYOW;2009-01-17 15:00;CYOW 171500Z 17004KT 4SM -SN BKN072 M19/M23 A3030 RMK AC7 SLP275

CYOW;2009-01-17 16:00;CYOW 171600Z 21004KT 5SM -SN BKN072 M15/M20 A3029 RMK AC5 SN VRY FINE SLP271

CYOW;2009-01-17 17:00;CYOW 171700Z 25006KT 7SM FEW030 M13/M19 A3026 RMK SC2 SLP260

CYOW;2009-01-17 18:00;CYOW 171800Z 21005KT 10SM OVC180 M12/M18 A3024 RMK AS8 SLP253

CYOW;2009-01-17 19:00;CYOW 171900Z 21006KT 10SM FEW100 OVC120 M11/M19 A3023 RMK AC2AS6 SLP248

CYOW;2009-01-17 20:00;CYOW 172000Z 21006KT 10SM OVC090 M10/M20 A3022 RMK AS8 SLP247

CYOW;2009-01-17 21:00;CYOW 172100Z 22007KT 10SM OVC088 M10/M24 A3023 RMK AS8 SLP248

CYOW;2009-01-17 22:00;CYOW 172200Z 10002KT 15SM FEW030 OVC090 M11/M24 A3022 RMK SC2AS6 SLP244

CYOW;2009-01-17 23:00;CYOW 172300Z 06006KT 15SM OVC150 M14/M20 A3022 RMK AS8 SLP244

CYOW;2009-01-18 00:00;CYOW 180000Z 06006KT 15SM OVC120 M15/M19 A3020 RMK AS8 SLP240

CYOW;2009-01-18 01:00;CYOW 180100Z 08006KT 15SM BKN160 OVC180 M16/M19 A3019 RMK AS5AS3 SLP237

CYOW;2009-01-18 02:00;CYOW 180200Z 06011KT 15SM BKN100 OVC110 M16/M20 A3019 RMK AS5AS3 SLP236

CYOW;2009-01-18 03:00;CYOW 180300Z 07011KT 15SM OVC090 M17/M21 A3018 RMK AS8 SLP232

CYOW;2009-01-18 04:00;CYOW 180400Z 07012KT 12SM BKN075 OVC090 M18/M22 A3016 RMK AS5AS3 SLP227

CYOW;2009-01-18 05:00;CYOW 180500Z 07011KT 12SM BKN110 M18/M22 A3014 RMK AS5 SLP217

CYOW;2009-01-18 06:00;CYOW 180600Z 08012KT 12SM OVC060 M18/M22 A3009 RMK SC8 SLP201

CYOW;2009-01-18 06:20;CYOW 180620Z 09013KT 6SM -SN OVC021 M18/ RMK SC8

CYOW;2009-01-18 07:00;CYOW 180700Z 09014KT 5SM -SN OVC042 M17/M21 A3007 RMK SC8 SLP194

CYOW;2009-01-18 08:00;CYOW 180800Z 08012KT 2SM -SN OVC010 M17/M20 A3005 RMK SC8 SLP188

CYOW;2009-01-18 09:00;CYOW 180900Z 08014KT 2SM -SN OVC019 M16/M20 A3002 RMK SC8 /S01/ SLP174

CYOW;2009-01-18 09:45;CYOW 180945Z 08014KT 1SM -SN VV002 M16/ RMK SN8

CYOW;2009-01-18 10:00;CYOW 181000Z 09012G18KT 1SM -SN DRSN VV004 M16/M19 A2999 RMK SN8 /S02/ SLP167

CYOW;2009-01-18 11:00;CYOW 181100Z 08015KT 1SM -SN DRSN VV006 M16/M19 A2999 RMK SN8 /S03/ SLP165

CYOW;2009-01-18 12:00;CYOW 181200Z 08013G18KT 1SM R07/P6000FT/N R32/P6000FT/N -SN VV007 M15/M19 A2997 RMK SN8 /SO4/ SLP159

CYOW;2009-01-18 13:00;CYOW 181300Z 08015KT 2SM -SN DRSN OVC040 M15/M19 A2996 RMK SC8 /S01/ SLP156

CYOW;2009-01-18 14:00;CYOW 181400Z 08013KT 4SM -SN DRSN OVC040 M15/M18 A2995 RMK SC8 SLP152

CYOW;2009-01-18 15:00;CYOW 181500Z 08012KT 1 1/2SM -SN DRSN VV015 M14/M17 A2993 RMK SN8 SLP147

CYOW;2009-01-18 16:00;CYOW 181600Z 07010KT 2SM -SN DRSN OVC040 M13/M16 A2990 RMK SC8 /SO2/ SLP136

CYOW;2009-01-18 16:27;CYOW 181627Z 07010KT 8SM DRSN OVC090 M13/ RMK AC8

CYOW;2009-01-18 16:47;CYOW 181647Z 07011KT 4SM -SN DRSN OVC037 M12/ RMK SC8

CYOW;2009-01-18 17:00;CYOW 181700Z 08009KT 5SM -SN DRSN BKN036 OVC093 M12/M14 A2986 RMK SC6AC2 SLP122

CYOW;2009-01-18 17:29;CYOW 181729Z 07009KT 8SM OVC035 M11/ RMK SC8

CYOW;2009-01-18 18:00;CYOW 181800Z 07011KT 10SM DRSN OVC033 M11/M14 A2983 RMK SC8 SLP112

CYOW;2009-01-18 19:00;CYOW 181900Z 06007KT 6SM -SN OVC032 M10/M13 A2981 RMK SC8 SLP105

CYOW;2009-01-18 20:00;CYOW 182000Z 06010KT 2SM -SN OVC030 M10/M12 A2980 RMK SC8 SLP101

CYOW;2009-01-18 21:00;CYOW 182100Z 07009KT 1 1/2SM -SN VV015 M10/M12 A2980 RMK SN8 /SO1/ SLP100

CYOW;2009-01-18 21:49;CYOW 182149Z 07010KT 3/4SM R07/6000FT/N R32/6000FT/N -SN VV010 M10/ RMK SN8

CYOW;2009-01-18 22:00;CYOW 182200Z 07009KT 3/4SM R07/6000FT/U R32/6000FT/U -SN VV013 M10/M11 A2980 RMK SN8 /SO3/ SLP100

CYOW;2009-01-18 22:50;CYOW 182250Z 07008KT 1 1/2SM -SN VV012 M10/ RMK SN8

CYOW;2009-01-18 23:00;CYOW 182300Z 06008KT 3SM -SN OVC020 M10/M11 A2980 RMK SC8 SLP102

CYOW;2009-01-19 00:00;CYOW 190000Z 07010KT 4SM -SN OVC024 M10/M12 A2980 RMK SC8 SLP100

CYOW;2009-01-19 01:00;CYOW 190100Z 06008KT 6SM -SN OVC032 M10/M12 A2979 RMK SC8 SLP098

CYOW;2009-01-19 02:00;CYOW 190200Z 07008KT 7SM -SN OVC031 M10/M12 A2978 RMK SC8 SLP095

CYOW;2009-01-19 03:00;CYOW 190300Z 07006KT 2SM -SN OVC024 M11/M12 A2977 RMK SN2SC6 SLP092

CYOW;2009-01-19 03:34;CYOW 190334Z 06006KT 5SM -SN OVC021 M11/ RMK SC8

CYOW;2009-01-19 04:00;CYOW 190400Z 08007KT 4SM -SN OVC021 M11/M13 A2976 RMK SC8 /S01/ SLP088

CYOW;2009-01-19 05:00;CYOW 190500Z 07007KT 3SM -SN OVC024 M11/M13 A2974 RMK SN1SC7 SLP080

CYOW;2009-01-19 06:00;CYOW 190600Z 06006KT 8SM -SN OVC027 M11/M13 A2972 RMK SC8 SLP073

CYOW;2009-01-19 07:00;CYOW 190700Z 07009KT 2SM -SN BKN014 OVC024 M11/M13 A2971 RMK SN3SC3SC2 SLP070

CYOW;2009-01-19 07:19;CYOW 190719Z 07009KT 4SM -SN OVC019 M11/ RMK SC8

CYOW;2009-01-19 08:00;CYOW 190800Z 07006KT 6SM -SN OVC021 M11/M13 A2970 RMK SC8 SLP067

CYOW;2009-01-19 09:00;CYOW 190900Z 08007KT 8SM -SN OVC023 M11/M13 A2968 RMK SC8 SLP061

CYOW;2009-01-19 10:00;CYOW 191000Z 08008KT 10SM -SN OVC017 M11/M13 A2967 RMK SC8 SLP057

CYOW;2009-01-19 11:00;CYOW 191100Z 07005KT 10SM -SN OVC017 M11/M13 A2968 RMK SC8 SLP058

CYOW;2009-01-19 12:00;CYOW 191200Z 08004KT 10SM -SN OVC020 M11/M13 A2968 RMK SC8 SLP059

CYOW;2009-01-19 13:00;CYOW 191300Z 08005KT 2SM -SN OVC020 M11/M14 A2968 RMK SC8 SLP059

CYOW;2009-01-19 13:18;CYOW 191318Z 07007KT 1SM -SN VV010 M11/ RMK SN8

CYOW;2009-01-19 14:00;CYOW 191400Z 06005KT 1 1/2SM -SN VV012 M11/M13 A2967 RMK SN8 SLP057

CYOW;2009-01-19 15:00;CYOW 191500Z 12005KT 1 1/2SM -SN VV013 M11/M13 A2967 RMK SN8 SLP056

CYOW;2009-01-19 15:39;CYOW 191539Z 10004KT 3SM -SN OVC020 M11/ RMK SC8

CYOW;2009-01-19 16:00;CYOW 191600Z 09003KT 4SM -SN OVC020 M11/M13 A2966 RMK SC8 SLP054

CYOW;2009-01-19 16:35;CYOW 191635Z 09002KT 1SM -SN VV014 M10/ RMK SN8

CYOW;2009-01-19 17:00;CYOW 191700Z 00000KT 1SM -SN VV013 M10/M13 A2965 RMK SN8 SLP050

CYOW;2009-01-19 18:00;CYOW 191800Z 00000KT 1 1/2SM -SN OVC020 M10/M12 A2963 RMK SC8 /SO2/ SLP044

CYOW;2009-01-19 18:45;CYOW 191845Z 00000KT 3/4SM R07/6000FT/N R32/6000FT/N -SN VV008 M10/ RMK SN8

CYOW;2009-01-19 19:00;CYOW 191900Z 00000KT 1SM R07/P6000FT/U R32/P6000FT/U -SN VV010 M10/M12 A2963 RMK SN8 SLP044

CYOW;2009-01-19 20:00;CYOW 192000Z 00000KT 1 1/2SM -SN VV012 M10/M12 A2964 RMK SN8 SLP045

CYOW;2009-01-19 21:00;CYOW 192100Z 00000KT 1 1/2SM -SN VV017 M10/M12 A2965 RMK SN8 SLP050

CYOW;2009-01-19 22:00;CYOW 192200Z 00000KT 2SM -SN OVC020 M10/M12 A2967 RMK SC8 /SO1/ SLP055

CYOW;2009-01-19 23:00;CYOW 192300Z 27003KT 1 1/2SM -SN OVC020 M10/M12 A2967 RMK SN6SC2 SLP057

CYOW;2009-01-20 00:00;CYOW 200000Z 24002KT 1 1/2SM -SN OVC019 M10/M12 A2968 RMK SN5SC3 /S02/ SLP059

CYOW;2009-01-20 01:00;CYOW 200100Z 24002KT 1 3/4SM -SN OVC019 M10/M12 A2968 RMK SN4SC4 SLP061

CYOW;2009-01-20 02:00;CYOW 200200Z 25003KT 3SM -SN OVC022 M10/M12 A2969 RMK SN1SC7 SLP063

CYOW;2009-01-20 02:32;CYOW 200232Z 26003KT 2SM -SN OVC031 M10/ RMK SN3SC5

CYOW;2009-01-20 03:00;CYOW 200300Z 26003KT 4SM -SN OVC029 M10/M11 A2969 RMK SC8 /S01/ SLP063

CYOW;2009-01-20 04:00;CYOW 200400Z 29004KT 8SM -SN BKN038 M11/M12 A2969 RMK SC7 SLP064

CYOW;2009-01-20 05:00;CYOW 200500Z 28004KT 3SM -SN OVC041 M10/M12 A2970 RMK SN1SC7 SLP065

CYOW;2009-01-20 06:00;CYOW 200600Z 30006KT 6SM -SN BKN028 M12/M14 A2970 RMK SC7 SLP067

CYOW;2009-01-20 06:55;CYOW 200655Z 32005KT 15SM BKN024 M15/ RMK SC6

CYOW;2009-01-20 07:00;CYOW 200700Z 32005KT 15SM BKN024 M15/M16 A2972 RMK SC6 SLP072

CYOW;2009-01-20 07:17;CYOW 200717Z 32005KT 15SM -SN BKN027 M14/ RMK SC6

CYOW;2009-01-20 08:00;CYOW 200800Z 30006KT 15SM -SN SCT027 M14/M15 A2972 RMK SC3 SLP074

CYOW;2009-01-20 08:55;CYOW 200855Z 30006KT 15SM FEW027 M15/ RMK SC2

CYOW;2009-01-20 09:00;CYOW 200900Z 30006KT 15SM FEW027 M15/M17 A2973 RMK SC2 SLP079

CYOW;2009-01-20 10:00;CYOW 201000Z 29005KT 15SM FEW023 M16/M17 A2974 RMK SC2 PCPN DIST E SLP081

CYOW;2009-01-20 11:00;CYOW 201100Z 30006KT 15SM FEW023 M18/M19 A2976 RMK SC2 FROIN SLP087

CYOW;2009-01-20 12:00;CYOW 201200Z 29005KT 15SM FEW025 M17/M18 A2977 RMK SC1 SLP092

CYOW;2009-01-20 13:00;CYOW 201300Z 31007KT 15SM FEW025 M18/M20 A2980 RMK SC1 SLP101

CYOW;2009-01-20 14:00;CYOW 201400Z 31008KT 15SM FEW025 M17/M18 A2980 RMK SC1 SLP102

CYOW;2009-01-20 15:00;CYOW 201500Z 30006KT 15SM FEW025 M15/M17 A2980 RMK SC1 SLP102

CYOW;2009-01-20 16:00;CYOW 201600Z 32009KT 15SM FEW025 M13/M17 A2981 RMK SC1 SLP104

CYOW;2009-01-20 17:00;CYOW 201700Z 31007KT 15SM FEW025 M12/M16 A2980 RMK SC1 SLP100

CYOW;2009-01-20 18:00;CYOW 201800Z 29009KT 15SM FEW025 M12/M16 A2979 RMK SC1 SLP097

CYOW;2009-01-20 19:00;CYOW 201900Z 29008KT 15SM FEW025 M11/M16 A2979 RMK SC1 SLP097

CYOW;2009-01-20 20:00;CYOW 202000Z 26008KT 15SM FEW025 M12/M16 A2979 RMK SC1 SLP097

CYOW;2009-01-20 21:00;CYOW 202100Z 25006KT 15SM SKC M12/M17 A2979 RMK SLP099

CYOW;2009-01-20 22:00;CYOW 202200Z 27006KT 15SM SKC M14/M18 A2981 RMK SLP105

CYOW;2009-01-20 23:00;CYOW 202300Z 30009KT 15SM SKC M14/M18 A2982 RMK SLP108

CYOW;2009-01-21 00:00;CYOW 210000Z 30010KT 15SM SKC M15/M19 A2983 RMK SLP111

CYOW;2009-01-21 01:00;CYOW 210100Z 29006KT 15SM SKC M16/M19 A2983 RMK SLP111

CYOW;2009-01-21 02:00;CYOW 210200Z 29004KT 15SM SKC M17/M20 A2983 RMK SLP112

CYOW;2009-01-21 03:00;CYOW 210300Z 28005KT 15SM SKC M17/M20 A2984 RMK SLP115

CYOW;2009-01-21 04:00;CYOW 210400Z 25004KT 15SM SKC M18/M20 A2984 RMK SLP117

CYOW;2009-01-21 05:00;CYOW 210500Z 27005KT 15SM SKC M19/M22 A2984 RMK SLP116

CYOW;2009-01-21 06:00;CYOW 210600Z 27004KT 15SM FEW240 M20/M24 A2985 RMK CI0 SLP118

CYOW;2009-01-21 07:00;CYOW 210700Z 26003KT 15SM FEW240 M20/M24 A2984 RMK CI0 SLP114

CYOW;2009-01-21 08:00;CYOW 210800Z 29007KT 15SM FEW240 M20/M24 A2985 RMK CI0 SLP117

CYOW;2009-01-21 09:00;CYOW 210900Z 26004KT 15SM FEW240 M21/M24 A2983 RMK CI1 FROIN SLP112

CYOW;2009-01-21 10:00;CYOW 211000Z 22004KT 15SM BKN160 M20/M23 A2983 RMK AC4 FROIN SLP113

CYOW;2009-01-21 11:00;CYOW 211100Z 19004KT 15SM OVC120 M20/M24 A2983 RMK AC8 SLP113

CYOW;2009-01-21 12:00;CYOW 211200Z 20005KT 15SM OVC140 M20/M24 A2984 RMK AC8 SLP117

CYOW;2009-01-21 13:00;CYOW 211300Z 19005KT 15SM BKN085 OVC120 M19/M23 A2984 RMK AC6AC2 SLP116

CYOW;2009-01-21 14:00;CYOW 211400Z 19009KT 15SM BKN061 OVC090 M17/M21 A2982 RMK SC5AC3 SLP110

CYOW;2009-01-21 14:41;CYOW 211441Z 21008KT 4SM -SN SCT015 OVC023 M17/ RMK SC3SC5

CYOW;2009-01-21 15:00;CYOW 211500Z 20007KT 8SM -SN BKN023 OVC050 M16/M20 A2981 RMK SC6SC2 VRY LGT SN SLP107

CYOW;2009-01-21 15:31;CYOW 211531Z 20008KT 2SM -SN OVC014 M15/ RMK SN2SC6

CYOW;2009-01-21 16:00;CYOW 211600Z 20007KT 2SM -SN OVC011 M14/M17 A2979 RMK SN2SC6 SLP101

CYOW;2009-01-21 17:00;CYOW 211700Z 21007KT 4SM -SN BKN014 OVC035 M12/M14 A2976 RMK SC5SC3 /S01/ SLP089

CYOW;2009-01-21 17:33;CYOW 211733Z 22008KT 1 1/2SM -SN VV008 M10/ RMK SN8

CYOW;2009-01-21 18:00;CYOW 211800Z 22010KT 1 1/2SM -SN VV009 M10/M12 A2973 RMK SN8 /SO2/ SLP079

CYOW;2009-01-21 18:55;CYOW 211855Z 23009KT 10SM -SN OVC045 M09/ RMK SC8

CYOW;2009-01-21 19:00;CYOW 211900Z 23010KT 10SM -SN FEW015 OVC030 M09/M11 A2973 RMK SC2SC6 SLP079

CYOW;2009-01-21 19:38;CYOW 211938Z 24011G16KT 10SM -SN DRSN FEW015 OVC070 M09/ RMK SC2AC6

CYOW;2009-01-21 19:46;CYOW 211946Z 24012KT 10SM -SN DRSN FEW015 BKN030 OVC070 M09/ RMK SC2SC4AC2

CYOW;2009-01-21 20:00;CYOW 212000Z 24009G16KT 10SM -SN DRSN FEW015 BKN028 OVC070 M09/M12 A2974 RMK SC2SC5AC2 SLP081

CYOW;2009-01-21 21:00;CYOW 212100Z 23007KT 10SM -SN DRSN FEW015 BKN028 OVC070 M09/M12 A2974 RMK SC2SC5AC2 LGT DRSN SLP082

CYOW;2009-01-21 22:00;CYOW 212200Z 23006KT 10SM -SN OVC027 M08/M11 A2974 RMK SC8 SLP082

CYOW;2009-01-21 23:00;CYOW 212300Z 23006KT 10SM -SN OVC024 M08/M10 A2974 RMK SC8 SLP083

CYOW;2009-01-22 00:00;CYOW 220000Z 24008KT 8SM -SN SCT025 OVC051 M07/M10 A2975 RMK SC3SC5 /S01/ SLP084

CYOW;2009-01-22 01:00;CYOW 220100Z 23009KT 8SM -SN OVC050 M07/M10 A2974 RMK SC8 SLP080

CYOW;2009-01-22 02:00;CYOW 220200Z 23009KT 5SM -SN OVC050 M07/M10 A2973 RMK SC8 SLP077

CYOW;2009-01-22 03:00;CYOW 220300Z 23007KT 10SM -SN BKN026 OVC050 M07/M09 A2972 RMK SC5SC3 SLP073

CYOW;2009-01-22 04:00;CYOW 220400Z 23006KT 10SM -SN BKN031 OVC050 M06/M09 A2972 RMK SC6SC2 SLP072

CYOW;2009-01-22 05:00;CYOW 220500Z 23004KT 10SM -SN OVC039 M06/M09 A2971 RMK SC8 SLP068

CYOW;2009-01-22 06:00;CYOW 220600Z 24008KT 15SM -SN FEW017 OVC033 M06/M08 A2970 RMK SC2SC6 SLP065

CYOW;2009-01-22 07:00;CYOW 220700Z 23009KT 8SM -SN FEW012 OVC041 M05/M08 A2968 RMK SC2SC6 SLP059

CYOW;2009-01-22 08:00;CYOW 220800Z 23012KT 8SM -SN OVC043 M05/M08 A2968 RMK SC8 SLP057

CYOW;2009-01-22 09:00;CYOW 220900Z 23012G18KT 10SM -SN OVC031 M05/M08 A2967 RMK SC8 SLP054

CYOW;2009-01-22 10:00;CYOW 221000Z 22015G21KT 8SM -SN DRSN OVC025 M05/M08 A2966 RMK SC8 SLP052

CYOW;2009-01-22 11:00;CYOW 221100Z 23015G25KT 8SM -SN DRSN OVC014 M05/M07 A2966 RMK SC8 OCNL BLSN SLP053

CYOW;2009-01-22 12:00;CYOW 221200Z 23016G21KT 8SM -SN DRSN OVC012 M05/M07 A2969 RMK SC8 VRY LGT SN SLP060

CYOW;2009-01-22 13:00;CYOW 221300Z 23014G20KT 8SM -SN DRSN OVC013 M04/M07 A2971 RMK SC8 VRY LGT SN SLP066

CYOW;2009-01-22 14:00;CYOW 221400Z 23012G17KT 8SM -SN DRSN OVC011 M04/M06 A2972 RMK SC8 VRY LGT SN SLP070

CYOW;2009-01-22 15:00;CYOW 221500Z 23012G19KT 8SM -SN DRSN BKN012 OVC030 M04/M06 A2973 RMK SC6SC2 VRY LGT SN SLP073

CYOW;2009-01-22 15:50;CYOW 221550Z 23014KT 10SM -SN DRSN SCT016 OVC028 M03/ RMK SC3SC5 VRY LGT SN

CYOW;2009-01-22 16:00;CYOW 221600Z 23013G18KT 10SM -SN DRSN SCT016 OVC028 M03/M06 A2974 RMK SC3SC5 VRY LGT SN SLP077

CYOW;2009-01-22 17:00;CYOW 221700Z CCA 23015KT 10SM -SN DRSN BKN014 OVC023 M03/M06 A2973 RMK SC5SC3 VRY LGT SN SLP076

CYOW;2009-01-22 18:00;CYOW 221800Z 23014KT 10SM -SN DRSN BKN013 OVC020 M03/M05 A2973 RMK SC5SC3 VRY LGT SN SLP073

CYOW;2009-01-22 19:00;CYOW 221900Z 24013G18KT 10SM -SN DRSN BKN014 OVC020 M02/M05 A2974 RMK SC5SC3 VRY LGT SN SLP078

CYOW;2009-01-22 20:00;CYOW 222000Z 23012KT 12SM -SN DRSN BKN016 BKN040 M02/M05 A2976 RMK SC5SC2 VRY LGT SN SLP086

CYOW;2009-01-22 20:21;CYOW 222021Z 24013KT 12SM DRSN FEW015 BKN026 M02/ RMK SC2SC4

CYOW;2009-01-22 21:00;CYOW 222100Z 23012G18KT 12SM DRSN BKN017 BKN025 M02/M05 A2979 RMK SC5SC2 SLP094

CYOW;2009-01-22 22:00;CYOW 222200Z 23010KT 12SM DRSN BKN017 BKN025 M02/M04 A2982 RMK SC5SC2 SLP104

CYOW;2009-01-22 22:54;CYOW 222254Z 23008KT 8SM -SN OVC017 M02/ RMK SC8

CYOW;2009-01-22 23:00;CYOW 222300Z 23009KT 8SM -SN OVC017 M02/M04 A2984 RMK SC8 SLP112

CYOW;2009-01-23 00:00;CYOW 230000Z 24006KT 8SM -SN FEW025 BKN044 M02/M04 A2986 RMK SC2SC5 SLP119

CYOW;2009-01-23 01:00;CYOW 230100Z 27006KT 8SM -SN FEW020 BKN047 M03/M05 A2990 RMK SC2SC5 SLP130

CYOW;2009-01-23 02:00;CYOW 230200Z 33003KT 4SM -SN OVC012 M03/M04 A2991 RMK SC8 SLP134

CYOW;2009-01-23 02:10;CYOW 230210Z 34005KT 4SM -SN FEW008 OVC019 M03/ RMK SC2SC6

CYOW;2009-01-23 03:00;CYOW 230300Z 01005KT 10SM -SN OVC050 M04/M07 A2992 RMK SC8 SLP140

CYOW;2009-01-23 04:00;CYOW 230400Z 04007KT 10SM -SN OVC020 M05/M08 A2994 RMK SC8 SLP144

CYOW;2009-01-23 05:00;CYOW 230500Z 04011KT 10SM -SN BKN020 OVC045 M06/M11 A2996 RMK SC5SC3 SLP151

CYOW;2009-01-23 06:00;CYOW 230600Z 04008KT 10SM -SN OVC021 M07/M12 A2997 RMK SC8 SLP157

CYOW;2009-01-23 07:00;CYOW 230700Z 06010KT 10SM -SN OVC021 M07/M11 A2998 RMK SC8 SLP159

CYOW;2009-01-23 08:00;CYOW 230800Z 07009KT 10SM -SN OVC020 M09/M13 A2998 RMK SC8 SLP160

CYOW;2009-01-23 09:00;CYOW 230900Z 07007KT 15SM -SN OVC018 M10/M14 A2996 RMK SC8 SLP154

CYOW;2009-01-23 10:00;CYOW 231000Z 05006KT 15SM OVC018 M10/M14 A2995 RMK SC8 SLP151

CYOW;2009-01-23 11:00;CYOW 231100Z 07009KT 15SM -SN OVC015 M10/M14 A2993 RMK SC8 SLP142

CYOW;2009-01-23 12:00;CYOW 231200Z 09013G18KT 15SM -SN DRSN OVC016 M10/M14 A2993 RMK SC8 SLP143

CYOW;2009-01-23 13:00;CYOW 231300Z 08013G18KT 12SM -SN DRSN OVC014 M12/M14 A2993 RMK SC8 VRY LGT SN SLP143

CYOW;2009-01-23 14:00;CYOW 231400Z 08010G16KT 6SM -SN DRSN OVC014 M13/M15 A2990 RMK SC8 SLP134

CYOW;2009-01-23 15:00;CYOW 231500Z 08011KT 3SM -SN DRSN OVC016 M13/M15 A2988 RMK SC8 SLP126

CYOW;2009-01-23 16:00;CYOW 231600Z 08012G17KT 6SM -SN DRSN OVC013 M13/M16 A2983 RMK SC8 VRY LGT SN SLP109

CYOW;2009-01-23 17:00;CYOW 231700Z 09010KT 4SM -SN DRSN OVC011 M13/M15 A2977 RMK SC8 VRY LGT SN SLP090

CYOW;2009-01-23 18:00;CYOW 231800Z 09009KT 4SM -SN DRSN OVC010 M13/M15 A2971 RMK SC8 PRESFR SLP070

CYOW;2009-01-23 19:00;CYOW 231900Z 09011KT 10SM -SN DRSN SCT008 OVC029 M13/M15 A2968 RMK SC3SC5 SLP058

CYOW;2009-01-23 19:29;CYOW 231929Z 08008KT 10SM DRSN SCT010 OVC031 M12/ RMK SC3SC5 VRY LGT DRSN

CYOW;2009-01-23 20:00;CYOW 232000Z 08008KT 10SM DRSN FEW010 OVC034 M12/M14 A2965 RMK SC2SC6 VRY LGT DRSN SLP050

CYOW;2009-01-23 21:00;CYOW 232100Z 09009KT 12SM DRSN OVC045 M12/M14 A2962 RMK SC8 SLP041

CYOW;2009-01-23 22:00;CYOW 232200Z 09007KT 12SM OVC037 M11/M14 A2960 RMK SC8 SLP034

CYOW;2009-01-23 23:00;CYOW 232300Z 08006KT 12SM OVC030 M11/M14 A2958 RMK SC8 SLP025

CYOW;2009-01-24 00:00;CYOW 240000Z 09005KT 12SM OVC029 M12/M14 A2956 RMK SC8 SLP018

CYOW;2009-01-24 00:30;CYOW 240030Z 02005KT 12SM -SN OVC025 M12/ RMK SC8

CYOW;2009-01-24 01:00;CYOW 240100Z 02004KT 12SM -SN OVC024 M12/M15 A2956 RMK SC8 SLP017

CYOW;2009-01-24 02:00;CYOW 240200Z 31003KT 10SM -SN BKN023 OVC031 M12/M14 A2957 RMK SC5SC3 SLP023

CYOW;2009-01-24 03:00;CYOW 240300Z 27008KT 10SM -SN BKN020 OVC041 M11/M13 A2961 RMK SC5SC3 SLP037

CYOW;2009-01-24 04:00;CYOW 240400Z 29016G21KT 8SM -SN OVC043 M10/M13 A2966 RMK SC8 SLP053

CYOW;2009-01-24 04:37;CYOW 240437Z CCA 29015G21KT 10SM DRSN OVC080 M10/ RMK AC8

CYOW;2009-01-24 05:00;CYOW 240500Z CCA 29012G18KT 12SM DRSN BKN073 M11/M13 A2971 RMK AC6 SLP069

CYOW;2009-01-24 06:00;CYOW 240600Z 29016G24KT 12SM DRSN OVC075 M10/M13 A2976 RMK AC8 SLP085

CYOW;2009-01-24 07:00;CYOW 240700Z 31023KT 12SM DRSN FEW022 M11/M16 A2981 RMK SC2 SLP103

CYOW;2009-01-24 08:00;CYOW 240800Z 30018KT 12SM DRSN FEW030 M13/M18 A2986 RMK SC1 SLP121

CYOW;2009-01-24 09:00;CYOW 240900Z 30016KT 12SM DRSN FEW030 M15/M19 A2991 RMK SC1 SLP139

CYOW;2009-01-24 10:00;CYOW 241000Z 30011G17KT 12SM DRSN FEW028 M16/M24 A2995 RMK SC2 SLP153

CYOW;2009-01-24 11:00;CYOW 241100Z 29013G18KT 12SM DRSN FEW028 M18/M25 A3000 RMK SC2 SLP170

CYOW;2009-01-24 12:00;CYOW 241200Z 29013KT 12SM DRSN FEW030 M20/M26 A3008 RMK SC2 PRESRR SLP196

CYOW;2009-01-24 13:00;CYOW 241300Z 30011G16KT 15SM DRSN FEW030 M21/M28 A3012 RMK SC2 SLP210

CYOW;2009-01-24 14:00;CYOW 241400Z 29013G19KT 15SM DRSN FEW030 M22/M29 A3015 RMK SC1 SLP222

CYOW;2009-01-24 15:00;CYOW 241500Z 28013G18KT 15SM DRSN SKC M23/M30 A3017 RMK SLP228

CYOW;2009-01-24 16:00;CYOW 241600Z 29015KT 15SM DRSN SKC M23/M31 A3019 RMK SLP233

CYOW;2009-01-24 17:00;CYOW 241700Z 30013KT 20SM DRSN SKC M22/M30 A3019 RMK SLP233

CYOW;2009-01-24 18:00;CYOW 241800Z 26012KT 20SM SKC M22/M30 A3019 RMK SLP233

CYOW;2009-01-24 19:00;CYOW 241900Z 26011KT 20SM SKC M21/M30 A3020 RMK SLP239

CYOW;2009-01-24 20:00;CYOW 242000Z 27012KT 20SM SKC M21/M31 A3022 RMK SLP245

CYOW;2009-01-24 21:00;CYOW 242100Z 27009KT 20SM SKC M21/M30 A3022 RMK SLP246

CYOW;2009-01-24 22:00;CYOW 242200Z 24002KT 20SM SKC M21/M30 A3022 RMK SLP246

CYOW;2009-01-24 23:00;CYOW 242300Z 00000KT 15SM SKC M21/M30 A3022 RMK SLP244

CYOW;2009-01-25 00:00;CYOW 250000Z 18003KT 15SM SKC M23/M30 A3020 RMK SLP239

CYOW;2009-01-25 01:00;CYOW 250100Z 18006KT 15SM SKC M22/M30 A3018 RMK SLP232

CYOW;2009-01-25 02:00;CYOW 250200Z 21006KT 15SM SKC M21/M28 A3017 RMK SLP229

CYOW;2009-01-25 03:00;CYOW 250300Z 21005KT 15SM SKC M20/M27 A3016 RMK SLP227

CYOW;2009-01-25 04:00;CYOW 250400Z 21005KT 15SM FEW030 M20/M27 A3014 RMK SC1 SLP220

CYOW;2009-01-25 05:00;CYOW 250500Z 22008KT 15SM SKC M19/M26 A3012 RMK SLP212

CYOW;2009-01-25 06:00;CYOW 250600Z 22006KT 15SM SKC M18/M25 A3011 RMK SLP207

CYOW;2009-01-25 07:00;CYOW 250700Z 22006KT 15SM FEW030 M18/M24 A3010 RMK SC1 SLP205

CYOW;2009-01-25 08:00;CYOW 250800Z 22008G16KT 15SM SKC M17/M22 A3009 RMK SLP201

CYOW;2009-01-25 09:00;CYOW 250900Z 22009KT 15SM SKC M16/M21 A3007 RMK SLP195

CYOW;2009-01-25 10:00;CYOW 251000Z 23010KT 15SM SKC M16/M20 A3005 RMK SLP190

CYOW;2009-01-25 11:00;CYOW 251100Z 22005KT 15SM FEW040 M15/M20 A3005 RMK SC2 FROIN SLP190

CYOW;2009-01-25 12:00;CYOW 251200Z 22008KT 15SM BKN050 M15/M19 A3006 RMK SC6 FROIN SLP192

CYOW;2009-01-25 13:00;CYOW 251300Z 25009KT 12SM OVC050 M14/M18 A3008 RMK SC8 SLP200

CYOW;2009-01-25 14:00;CYOW 251400Z 24006KT 12SM BKN050 M14/M18 A3010 RMK SC6 SLP204

CYOW;2009-01-25 15:00;CYOW 251500Z 32007KT 12SM OVC047 M13/M18 A3012 RMK SC8 SLP211

CYOW;2009-01-25 16:00;CYOW 251600Z 34008KT 12SM FEW017 BKN062 M15/M20 A3015 RMK SC2SC4 SLP220

CYOW;2009-01-25 17:00;CYOW 251700Z 32008KT 15SM BKN077 M15/M20 A3015 RMK AC4 AC THIN SLP222

CYOW;2009-01-25 18:00;CYOW 251800Z 29008KT 15SM BKN080 M14/M21 A3015 RMK AC3 SLP222

CYOW;2009-01-25 19:00;CYOW 251900Z 29008KT 15SM BKN073 M14/M21 A3017 RMK AC3 SLP227

CYOW;2009-01-25 20:00;CYOW 252000Z 30010KT 15SM BKN073 M14/M22 A3019 RMK AC5 SLP235

CYOW;2009-01-25 21:00;CYOW 252100Z 31012G18KT 15SM BKN072 M14/M23 A3020 RMK AC5 SLP237

CYOW;2009-01-25 22:00;CYOW 252200Z 33007KT 15SM SCT070 M15/M24 A3022 RMK AC2 SLP245

CYOW;2009-01-25 23:00;CYOW 252300Z 33003KT 15SM FEW070 M16/M25 A3024 RMK AC2 SLP250

CYOW;2009-01-26 00:00;CYOW 260000Z 05006KT 15SM BKN062 M17/M24 A3025 RMK SC6 SLP256

CYOW;2009-01-26 01:00;CYOW 260100Z 05002KT 15SM BKN060 M17/M25 A3028 RMK SC6 SLP264

CYOW;2009-01-26 02:00;CYOW 260200Z 04003KT 15SM BKN051 M18/M27 A3029 RMK SC6 SLP268

CYOW;2009-01-26 03:00;CYOW 260300Z 06002KT 15SM BKN049 M19/M27 A3031 RMK SC6 SLP275

CYOW;2009-01-26 04:00;CYOW 260400Z 04004KT 15SM BKN048 M19/M27 A3033 RMK SC6 SLP281

CYOW;2009-01-26 05:00;CYOW 260500Z 04005KT 15SM FEW048 M20/M27 A3034 RMK SC2 SLP284

CYOW;2009-01-26 06:00;CYOW 260600Z 05005KT 15SM FEW050 M21/M28 A3035 RMK SC1 SLP290

CYOW;2009-01-26 07:00;CYOW 260700Z 05005KT 15SM SKC M22/M29 A3035 RMK SLP291

CYOW;2009-01-26 08:00;CYOW 260800Z 06005KT 15SM SKC M22/M29 A3036 RMK SLP294

CYOW;2009-01-26 09:00;CYOW 260900Z 05006KT 15SM SKC M23/M29 A3036 RMK SLP292

CYOW;2009-01-26 10:00;CYOW 261000Z 07004KT 15SM SKC M24/M30 A3035 RMK SLP289

CYOW;2009-01-26 11:00;CYOW 261100Z 06005KT 15SM FEW060 M24/M30 A3035 RMK SC1 SLP290

CYOW;2009-01-26 12:00;CYOW 261200Z 05006KT 15SM FEW060 M24/M29 A3035 RMK SC2 SLP291

CYOW;2009-01-26 13:00;CYOW 261300Z 05008KT 15SM FEW060 M24/M29 A3036 RMK SC2 SLP295

CYOW;2009-01-26 14:00;CYOW 261400Z 04005KT 15SM BKN060 M24/M28 A3037 RMK SC7 SLP298

CYOW;2009-01-26 14:44;CYOW 261444Z 04005KT 1 1/2SM -SN OVC014 M23/ RMK SC8

CYOW;2009-01-26 15:00;CYOW 261500Z 04004KT 1 1/2SM -SN OVC015 M23/M27 A3037 RMK SN2SC6 SLP297

CYOW;2009-01-26 15:15;CYOW 261515Z 04006KT 3SM -SN OVC024 M22/ RMK SC8 VRY LGT SN

CYOW;2009-01-26 16:00;CYOW 261600Z 04005KT 5SM -SN BKN019 BKN030 M21/M26 A3035 RMK SC6SC1 VRY LGT SN SLP292

CYOW;2009-01-26 17:00;CYOW 261700Z 11004KT 5SM -SN BKN017 OVC030 M20/M24 A3032 RMK SC6SC2 VRY LGT SN SLP282

CYOW;2009-01-26 17:46;CYOW 261746Z 00000KT 1 1/2SM -SN OVC013 M18/ RMK SN2SC6

CYOW;2009-01-26 18:00;CYOW 261800Z 02002KT 1 1/2SM -SN BKN013 OVC035 M18/M22 A3030 RMK SN2SC6SC1 SLP274

CYOW;2009-01-26 18:05;CYOW 261805Z 04003KT 6SM -SN SCT015 BKN033 BKN050 M18/ RMK SC3SC2SC2

CYOW;2009-01-26 18:21;CYOW 261821Z 00000KT 12SM FEW030 SCT050 M18/ RMK SC1SC3

CYOW;2009-01-26 19:00;CYOW 261900Z 01002KT 15SM SCT050 M16/M22 A3029 RMK SC3 SLP269

CYOW;2009-01-26 20:00;CYOW 262000Z 00000KT 15SM SCT050 M13/M20 A3028 RMK SC3 SLP268

CYOW;2009-01-26 21:00;CYOW 262100Z 04005KT 15SM BKN050 BKN060 M14/M20 A3028 RMK SC6SC2 SLP265

CYOW;2009-01-26 22:00;CYOW 262200Z 07004KT 15SM OVC049 M15/M21 A3028 RMK SC8 SLP267

CYOW;2009-01-26 23:00;CYOW 262300Z 06003KT 15SM OVC051 M16/M21 A3030 RMK SC8 SLP274

CYOW;2009-01-27 00:00;CYOW 270000Z 05003KT 15SM OVC050 M15/M20 A3030 RMK SC8 SLP274

CYOW;2009-01-27 01:00;CYOW 270100Z 00000KT 15SM OVC048 M15/M20 A3031 RMK SC8 SLP275

CYOW;2009-01-27 01:42;CYOW 270142Z 08002KT 15SM -SN OVC048 M15/ RMK SC8

CYOW;2009-01-27 02:00;CYOW 270200Z 05002KT 12SM -SN OVC048 M15/M20 A3030 RMK SC8 SLP274

CYOW;2009-01-27 03:00;CYOW 270300Z 00000KT 12SM -SN OVC046 M15/M19 A3030 RMK SC8 SLP273

CYOW;2009-01-27 04:00;CYOW 270400Z 04003KT 10SM -SN OVC046 M15/M18 A3031 RMK SC8 SLP277

CYOW;2009-01-27 05:00;CYOW 270500Z 00000KT 8SM -SN OVC043 M14/M18 A3031 RMK SC8 SLP278

CYOW;2009-01-27 06:00;CYOW 270600Z 34002KT 8SM -SN OVC043 M14/M17 A3032 RMK SC8 SLP279

CYOW;2009-01-27 07:00;CYOW 270700Z 00000KT 7SM -SN BKN042 M14/M17 A3034 RMK SC7 SLP284

CYOW;2009-01-27 07:20;CYOW 270720Z 00000KT 10SM BKN042 M14/ RMK SC7

CYOW;2009-01-27 08:00;CYOW 270800Z 26002KT 15SM BKN042 M14/M17 A3034 RMK SC5 SLP286

CYOW;2009-01-27 08:30;CYOW 270830Z 27002KT 15SM -SN SCT037 M15/ RMK SC4

CYOW;2009-01-27 09:00;CYOW 270900Z 26004KT 8SM -SN SCT037 M14/M17 A3035 RMK SC4 SLP289

CYOW;2009-01-27 10:00;CYOW 271000Z 23003KT 12SM SCT037 M15/M18 A3036 RMK SC3 SLP292

CYOW;2009-01-27 11:00;CYOW 271100Z 26005KT 15SM FEW037 M15/M18 A3038 RMK SC2 FROIN SLP298

CYOW;2009-01-27 12:00;CYOW 271200Z 26004KT 15SM FEW040 M16/M19 A3041 RMK SC2 SLP309

CYOW;2009-01-27 13:00;CYOW 271300Z 26004KT 15SM FEW040 M16/M19 A3044 RMK SC1 SLP319

CYOW;2009-01-27 14:00;CYOW 271400Z 27005KT 15SM FEW040 M16/M19 A3047 RMK SC1 SLP329

CYOW;2009-01-27 15:00;CYOW 271500Z 30006KT 15SM SKC M15/M19 A3047 RMK SLP330

CYOW;2009-01-27 16:00;CYOW 271600Z 31007KT 15SM FEW050 M13/M18 A3048 RMK SC1 SLP334

CYOW;2009-01-27 17:00;CYOW 271700Z 32005KT 15SM FEW050 M12/M17 A3047 RMK SC1 SLP328

CYOW;2009-01-27 18:00;CYOW 271800Z 30002KT 15SM FEW050 M11/M17 A3044 RMK SC1 SLP318

CYOW;2009-01-27 19:00;CYOW 271900Z 19002KT 15SM FEW050 M09/M17 A3043 RMK SC1 SLP316

CYOW;2009-01-27 20:00;CYOW 272000Z 24002KT 15SM FEW050 M09/M17 A3042 RMK SC1 SLP313

CYOW;2009-01-27 21:00;CYOW 272100Z 00000KT 15SM FEW050 M09/M17 A3043 RMK SC1 SLP315

CYOW;2009-01-27 22:00;CYOW 272200Z 00000KT 15SM FEW050 M10/M18 A3042 RMK SC1 SLP312

CYOW;2009-01-27 23:00;CYOW 272300Z 10004KT 15SM FEW050 M13/M19 A3040 RMK SC1 SLP306

CYOW;2009-01-28 00:00;CYOW 280000Z 12004KT 15SM FEW220 M14/M19 A3040 RMK CI2 SLP306

CYOW;2009-01-28 01:00;CYOW 280100Z 11004KT 15SM FEW220 M15/M19 A3040 RMK CI2 SLP306

CYOW;2009-01-28 02:00;CYOW 280200Z 11005KT 15SM OVC180 M15/M20 A3039 RMK AC2 SLP303

CYOW;2009-01-28 03:00;CYOW 280300Z 10005KT 15SM OVC170 M15/M19 A3037 RMK AC4 SLP296

CYOW;2009-01-28 04:00;CYOW 280400Z 11006KT 15SM SCT160 OVC240 M15/M20 A3034 RMK AC4CI4 SLP287

CYOW;2009-01-28 05:00;CYOW 280500Z 09005KT 15SM FEW170 OVC250 M15/M19 A3033 RMK AC2CI5 SLP282

CYOW;2009-01-28 06:00;CYOW 280600Z 05006KT 15SM OVC150 M16/M20 A3031 RMK AC8 SLP274

CYOW;2009-01-28 07:00;CYOW 280700Z 05006KT 15SM OVC140 M16/M20 A3030 RMK AC8 SLP272

CYOW;2009-01-28 08:00;CYOW 280800Z 05008KT 15SM OVC120 M16/M19 A3028 RMK AC8 SLP266

CYOW;2009-01-28 09:00;CYOW 280900Z 05007KT 15SM OVC080 M15/M19 A3026 RMK AC8 SLP256

CYOW;2009-01-28 10:00;CYOW 281000Z 07007KT 15SM OVC070 M15/M19 A3020 RMK AC8 SLP238

CYOW;2009-01-28 11:00;CYOW 281100Z 06010KT 15SM OVC060 M14/M18 A3016 RMK SC8 PRESFR SLP224

CYOW;2009-01-28 11:08;CYOW 281108Z 07012KT 10SM -SN OVC050 M13/ RMK SC8

CYOW;2009-01-28 12:00;CYOW 281200Z 07011KT 2SM -SN OVC020 M13/M16 A3012 RMK NS8 SLP209

CYOW;2009-01-28 12:31;CYOW 281231Z 07011G16KT 3/4SM R07/P6000FT/N R32/P6000FT/N -SN VV007 M13/ RMK SN8

CYOW;2009-01-28 13:00;CYOW 281300Z 07010KT 3/4SM R07/P6000FT/N R32/P6000FT/N -SN VV007 M13/M15 A3007 RMK SN8 /SO1/ SLP194

CYOW;2009-01-28 14:00;CYOW 281400Z 07014KT 3/4SM R07/P6000FT/U R32/P6000FT/U -SN VV009 M12/M14 A3001 RMK SN8 /SO2/ PRESFR SLP174

CYOW;2009-01-28 15:00;CYOW 281500Z CCA 08012KT 3/4SM R07/6000FT/D R32/6000FT/D -SN VV006 M12/M14 A2999 RMK SN8 /SO3/ SLP165

CYOW;2009-01-28 16:00;CYOW 281600Z 06012KT 3/4SM R07/3000FT/U R32/3000FT/U -SN VV006 M12/M14 A2992 RMK SN8 /S04/ SLP142

CYOW;2009-01-28 17:00;CYOW 281700Z 06013KT 3/4SM R07/4500FT/U R32/6000FT/U -SN VV006 M12/M13 A2984 RMK SN8 /SO5/ SLP114

CYOW;2009-01-28 18:00;CYOW 281800Z 06012KT 3/4SM R07/6000FT/D R32/6000FT/D -SN DRSN VV009 M11/M13 A2976 RMK SN8 /SO6/ PRESFR SLP088

CYOW;2009-01-28 19:00;CYOW 281900Z 07017G23KT 3/4SM R07/6000FT/U R32/6000FT/N -SN DRSN VV009 M11/M13 A2968 RMK SN8 /SO1/ PRESFR SLP062

CYOW;2009-01-28 20:00;CYOW 282000Z 06015G20KT 3/4SM R07/5500FT/N R32/6000FT/D -SN DRSN VV008 M10/M12 A2963 RMK SN8 /S02/ PRESFR SLP043

CYOW;2009-01-28 21:00;CYOW 282100Z 06016KT 3/4SM R07/6000FT/U R32/6000FT/U -SN DRSN VV009 M10/M11 A2959 RMK SN8 /S03/ PRESFR SLP030

CYOW;2009-01-28 22:00;CYOW 282200Z 06014G20KT 3/4SM R07/6000FT/N R32/6000FT/N -SN DRSN VV007 M09/M11 A2955 RMK SN8 /S04/ SLP016

CYOW;2009-01-28 23:00;CYOW 282300Z CCA 07017KT 3/4SM R07/6000FT/D R32/6000FT/D -SN DRSN VV005 M08/M10 A2948 RMK SN8 /R07/ PRESFR SLP994

CYOW;2009-01-29 00:00;CYOW 290000Z 06009KT 1SM R07/P6000FT/U R32/P6000FT/N -SN DRSN VV005 M08/M10 A2950 RMK SN8 /S08/ SLP999

CYOW;2009-01-29 00:39;CYOW 290039Z CCA 34006KT 3/4SM R07/P6000FT/D R32/P6000FT/D -SN VV004 M08/ RMK SN8

CYOW;2009-01-29 01:00;CYOW 290100Z 31006KT 1 1/4SM -SN VV006 M08/M09 A2951 RMK SN8 /S01/ SLP003

CYOW;2009-01-29 01:32;CYOW 290132Z 30008KT 2SM -SN OVC030 M08/ RMK SN2NS6

CYOW;2009-01-29 02:00;CYOW 290200Z 29010KT 1 1/4SM -SN VV006 M08/M09 A2952 RMK SN8 /S02/ SLP004

CYOW;2009-01-29 02:36;CYOW 290236Z 30010KT 2SM -SN OVC028 M08/ RMK SN2NS6

CYOW;2009-01-29 03:00;CYOW 290300Z 29011KT 4SM -SN FEW011 OVC037 M08/M10 A2955 RMK SC1NS7 /S03/ SLP014

CYOW;2009-01-29 04:00;CYOW 290400Z 28010KT 4SM -SN OVC038 M08/M10 A2959 RMK NS8 /S04/ SLP028

CYOW;2009-01-29 05:00;CYOW 290500Z 27012KT 10SM -SN FEW010 OVC080 M10/M12 A2962 RMK SC1AC8 SLP037

CYOW;2009-01-29 06:00;CYOW 290600Z 26013KT 10SM -SN DRSN FEW012 FEW080 M10/M12 A2966 RMK SC1AC2 SLP052

CYOW;2009-01-29 06:24;CYOW 290624Z 27014KT 15SM DRSN FEW012 FEW080 M10/ RMK SC1AC1

CYOW;2009-01-29 07:00;CYOW 290700Z 27013G18KT 15SM DRSN FEW012 FEW030 M11/M13 A2969 RMK SC1SC1 SLP064

CYOW;2009-01-29 08:00;CYOW 290800Z CCA 27014KT 15SM DRSN FEW012 FEW030 M11/M13 A2973 RMK SC1SC1 SLP076

CYOW;2009-01-29 09:00;CYOW 290900Z 26007KT 15SM SKC M11/M14 A2975 RMK SLP083

CYOW;2009-01-29 10:00;CYOW 291000Z 25009KT 15SM SKC M11/M14 A2977 RMK SLP091

CYOW;2009-01-29 11:00;CYOW 291100Z 22006KT 15SM SKC M13/M15 A2981 RMK SLP102

CYOW;2009-01-29 12:00;CYOW 291200Z 26007KT 15SM FEW240 M14/M16 A2982 RMK CI1 SLP107

CYOW;2009-01-29 13:00;CYOW 291300Z 22002KT 15SM SCT190 BKN240 M14/M15 A2984 RMK AS2CI2 SLP113

CYOW;2009-01-29 14:00;CYOW 291400Z 20005KT 15SM SCT170 BKN240 M14/M16 A2985 RMK AS2CI2 SLP119

CYOW;2009-01-29 15:00;CYOW 291500Z 22006KT 15SM BKN170 BKN240 M12/M15 A2987 RMK AS3CI2 SLP123

CYOW;2009-01-29 16:00;CYOW 291600Z CCA 23005KT 15SM SCT046 OVC170 M10/M14 A2986 RMK SC3AS5 SLP121

CYOW;2009-01-29 16:12;CYOW 291612Z 22003KT 15SM -SN SCT046 OVC170 M10/ RMK SC4AS4

CYOW;2009-01-29 16:46;CYOW 291646Z 21004KT 15SM BKN046 OVC170 M09/ RMK SC6AS2

CYOW;2009-01-29 17:00;CYOW 291700Z 23006KT 12SM -SN BKN046 OVC170 M09/M13 A2985 RMK SC6AS2 SLP116

CYOW;2009-01-29 18:00;CYOW 291800Z 20006KT 7SM -SN OVC045 M07/M11 A2982 RMK SC8 SLP108

CYOW;2009-01-29 19:00;CYOW 291900Z 15004KT 10SM -SN BKN048 M06/M09 A2980 RMK SC7 SLP100

CYOW;2009-01-29 19:25;CYOW 291925Z 17004KT 15SM FEW025 BKN048 M06/ RMK SC1SC6

CYOW;2009-01-29 20:00;CYOW 292000Z 16004KT 15SM SCT030 BKN046 M06/M09 A2980 RMK SC3SC4 CU EMBD SLP101

CYOW;2009-01-29 21:00;CYOW 292100Z 21007KT 15SM BKN030 OVC045 M05/M10 A2981 RMK SC5SC3 SLP103

CYOW;2009-01-29 21:15;CYOW 292115Z 20007KT 15SM -SN BKN032 OVC045 M05/ RMK SC6SC2

CYOW;2009-01-29 22:00;CYOW 292200Z 20004KT 12SM -SN OVC038 M05/M09 A2982 RMK SC8 SLP105

CYOW;2009-01-29 22:34;CYOW 292234Z 19004KT 2SM -SN OVC037 M06/ RMK SN2SC6

CYOW;2009-01-29 22:47;CYOW 292247Z 20004KT 4SM -SN OVC034 M06/ RMK SC8

CYOW;2009-01-29 23:00;CYOW 292300Z 19004KT 6SM -SN OVC035 M06/M08 A2981 RMK SC8 SLP104

CYOW;2009-01-30 00:00;CYOW 300000Z 20005KT 8SM -SN BKN061 OVC080 M06/M08 A2980 RMK SC6AC2 SLP101

CYOW;2009-01-30 01:00;CYOW 300100Z 20007KT 5SM -SN OVC048 M06/M08 A2980 RMK SC8 SLP101

CYOW;2009-01-30 01:28;CYOW 300128Z 19006KT 2SM -SN OVC040 M06/ RMK SN1SC7

CYOW;2009-01-30 02:00;CYOW 300200Z 20005KT 2SM -SN OVC028 M06/M08 A2979 RMK SN1SC7 /S01/ SLP098

CYOW;2009-01-30 03:00;CYOW 300300Z 21005KT 4SM -SN SCT018 OVC033 M06/M08 A2979 RMK SC3SC5 SLP097

CYOW;2009-01-30 04:00;CYOW 300400Z 21004KT 7SM -SN FEW016 OVC050 M06/M08 A2979 RMK SC1SC7 SLP095

CYOW;2009-01-30 05:00;CYOW 300500Z 00000KT 7SM -SN BKN018 OVC075 M06/M08 A2977 RMK SC6AC2 SLP091

CYOW;2009-01-30 06:00;CYOW 300600Z CCA 23004KT 7SM -SN FEW025 OVC060 M07/M09 A2978 RMK SC2SC6 SLP091

CYOW;2009-01-30 07:00;CYOW 300700Z 26004KT 7SM -SN OVC059 M07/M09 A2977 RMK SC8 SLP090

CYOW;2009-01-30 08:00;CYOW 300800Z 00000KT 7SM -SN OVC054 M07/M09 A2977 RMK SC8 SLP088

CYOW;2009-01-30 09:00;CYOW 300900Z 00000KT 8SM -SN BKN055 OVC100 M08/M09 A2976 RMK SC6AC2 SLP084

CYOW;2009-01-30 10:00;CYOW 301000Z 12003KT 8SM -SN FEW050 OVC100 M09/M10 A2976 RMK SC2AC6 SLP084

CYOW;2009-01-30 11:00;CYOW 301100Z 12003KT 8SM -SN OVC100 M09/M10 A2974 RMK AC8 SLP080

CYOW;2009-01-30 12:00;CYOW 301200Z 14004KT 5SM -SN BKN070 OVC100 M08/M09 A2974 RMK AC6AC2 SLP080

CYOW;2009-01-30 13:00;CYOW 301300Z 12003KT 4SM -SN OVC070 M08/M10 A2974 RMK AC8 SLP079

CYOW;2009-01-30 13:32;CYOW 301332Z 15004KT 2SM -SN SCT010 OVC030 M07/ RMK SF3SC5

CYOW;2009-01-30 14:00;CYOW 301400Z 13003KT 1 1/2SM -SN VV012 M07/M08 A2974 RMK SN8 SLP078

CYOW;2009-01-30 15:00;CYOW 301500Z 16004KT 1SM R07/P6000FT/N R32/P6000FT/D -SN VV010 M06/M07 A2972 RMK SN8 /SO1/ SLP071

CYOW;2009-01-30 16:00;CYOW 301600Z 16005KT 3/4SM R07/4000FT/D R32/5500FT/D -SN VV007 M04/M06 A2971 RMK SN8 /S02/ SLP066

CYOW;2009-01-30 17:00;CYOW 301700Z 17004KT 2SM -SN OVC010 M04/M05 A2968 RMK SN4SF4 SLP057

CYOW;2009-01-30 17:45;CYOW 301745Z 17005KT 7SM SCT010 BKN050 M03/ RMK SF3SC3

CYOW;2009-01-30 18:00;CYOW 301800Z 17006KT 7SM BKN010 BKN050 M03/M05 A2965 RMK SF5SC2 SLP046

CYOW;2009-01-30 18:17;CYOW 301817Z 00000KT 4SM -SN BKN010 OVC040 M03/ RMK SF5SC3

CYOW;2009-01-30 18:33;CYOW 301833Z 00000KT 3/4SM R07/6000FT/D R32/6000FT/D -SN VV006 M03/ RMK SN8

CYOW;2009-01-30 19:00;CYOW 301900Z 00000KT 2SM -SN OVC020 M03/M04 A2965 RMK SC8 SLP046

CYOW;2009-01-30 19:30;CYOW 301930Z CCA 27008KT 1/4SM +SN VV002 M03/ RMK SN8 WND ESTD

CYOW;2009-01-30 19:46;CYOW 301946Z 27007KT 1/2SM SN VV006 M04/ RMK SN8 WND ESTD

CYOW;2009-01-30 19:49;CYOW 301949Z 27010KT 2SM -SN OVC022 M04/ RMK SC8 WND ESTD

CYOW;2009-01-30 20:00;CYOW 302000Z 27005KT 2SM -SN OVC025 M03/M05 A2967 RMK SC8 WND ESTD SLP054

CYOW;2009-01-30 20:11;CYOW 302011Z 23007KT 1/4SM +SN VV003 RMK SN8 WND ESTD

CYOW;2009-01-30 20:19;CYOW 302019Z 23005KT 2SM -SN OVC025 M04/ RESN RMK SC8 WND ESTD

CYOW;2009-01-30 21:00;CYOW 302100Z 23008KT 2SM -SN OVC027 M04/M05 A2968 RESN RMK SC8 WND ESTD SLP058

CYOW;2009-01-30 21:48;CYOW 302148Z 23007KT 3/4SM -SN VV005 M04/ RMK SN8 WND ESTD

CYOW;2009-01-30 22:00;CYOW 302200Z 27006KT 3/4SM R07/6000FT/U R32/6000FT/U -SN OVC020 M04/M06 A2970 RMK SC8 WND ESTD SLP065

CYOW;2009-01-30 22:37;CYOW 302237Z 27007KT 1/2SM R07/3500FT/N R32/2800FT/N SN VV004 M05/ RMK SN8 WND ESTD

CYOW;2009-01-30 23:00;CYOW 302300Z 27006KT 1 1/2SM R07/6000FT/U R32/6000FT/U -SN VV010 M05/M06 A2972 RMK SN8 WND ESTD SLP071

CYOW;2009-01-31 00:00;CYOW 310000Z 23008KT 1 1/2SM -SN VV008 M05/M06 A2973 RMK SN8 WND ESTD /S04/ SLP074

CYOW;2009-01-31 00:45;CYOW 310045Z CCA 23004KT 6SM -SN OVC032 M05/ RMK SC8 WND ESTD

CYOW;2009-01-31 01:00;CYOW 310100Z 23004KT 4SM -SN OVC040 M06/M07 A2972 RMK SC8 WND ESTD SLP073

CYOW;2009-01-31 01:18;CYOW 310118Z 23008KT 10SM SCT056 BKN072 M06/ RMK SC3AC3 WND ESTD

CYOW;2009-01-31 01:54;CYOW 310154Z 27012KT 6SM -SN OVC024 M06/ RMK SC8 WND ESTD

CYOW;2009-01-31 02:00;CYOW 310200Z 27010KT 5SM -SN OVC035 M06/M08 A2973 RMK SC8 WND ESTD SLP074

CYOW;2009-01-31 03:00;CYOW 310300Z 23008KT 4SM -SN BKN056 OVC066 M06/M08 A2972 RMK SC5AC3 WND ESTD SLP071

CYOW;2009-01-31 03:35;CYOW 310335Z 23006KT 10SM SCT068 M07/ RMK AC3 WND ESTD

CYOW;2009-01-31 04:00;CYOW 310400Z 23004KT 12SM FEW095 SCT100 M08/M10 A2972 RMK AC1AC3 WND ESTD SLP073

CYOW;2009-01-31 05:00;CYOW 310500Z 27008KT 12SM FEW028 BKN072 M08/M12 A2972 RMK SC1AC6 WND ESTD SLP073

CYOW;2009-01-31 05:50;CYOW 310550Z 27010KT 12SM -SN OVC038 M09/ RMK SC8 WND ESTD

CYOW;2009-01-31 06:00;CYOW 310600Z 27010KT 10SM -SN FEW017 OVC039 M09/M12 A2973 RMK SC2SC6 WND ESTD SLP076

CYOW;2009-01-31 07:00;CYOW 310700Z 32016KT 3SM -SN DRSN OVC052 M12/M15 A2976 RMK SC8 WND ESTD SLP084

CYOW;2009-01-31 08:00;CYOW 310800Z 27012KT 10SM -SN DRSN BKN036 OVC048 M14/M17 A2979 RMK SC5SC3 WND ESTD SLP094

CYOW;2009-01-31 09:00;CYOW 310900Z 27018KT 10SM -SN DRSN OVC063 M15/M18 A2981 RMK SC8 WND ESTD SLP103

CYOW;2009-01-31 10:00;CYOW 311000Z 27014KT 10SM -SN DRSN SCT058 M17/M20 A2983 RMK SC4 WND ESTD SLP111

CYOW;2009-01-31 10:35;CYOW 311035Z CCA 27012KT 10SM DRSN FEW058 M18/ RMK SC0 WND ESTD

CYOW;2009-01-31 11:00;CYOW 311100Z 27012KT 10SM DRSN FEW058 M18/M25 A2985 RMK SC1 WND ESTD SLP117

CYOW;2009-01-31 12:00;CYOW 311200Z 32012KT 10SM DRSN FEW060 M20/M26 A2988 RMK SC2 WND ESTD SLP126

CYOW;2009-01-31 13:00;CYOW 311300Z 32011KT 20SM DRSN FEW060 FEW240 M20/M25 A2991 RMK SC1CI1 WND ESTD SLP136

CYOW;2009-01-31 14:00;CYOW 311400Z 32013KT 20SM DRSN SKC M20/M25 A2993 RMK WND ESTD SLP144

CYOW;2009-01-31 15:00;CYOW 311500Z 32010KT 20SM DRSN SKC M19/M25 A2995 RMK WND ESTD SLP151

CYOW;2009-01-31 16:00;CYOW 311600Z 32010KT 20SM DRSN SKC M19/M25 A2995 RMK WND ESTD SLP152

CYOW;2009-01-31 17:00;CYOW 311700Z 27011KT 20SM FEW240 M18/M25 A2995 RMK CI2 WND ESTD SLP152

CYOW;2009-01-31 18:00;CYOW 311800Z 27009KT 20SM FEW240 M17/M24 A2995 RMK CI2 WND ESTD SLP151

CYOW;2009-01-31 19:00;CYOW 311900Z 27005KT 20SM FEW240 M15/M23 A2993 RMK CI1 WND ESTD SLP144

CYOW;2009-01-31 20:00;CYOW 312000Z 27006KT 20SM FEW240 M15/M23 A2993 RMK CI1 WND ESTD SLP145

CYOW;2009-01-31 21:00;CYOW 312100Z 23003KT 20SM FEW100 FEW240 M14/M23 A2994 RMK AC2CI1 WND ESTD SLP148

CYOW;2009-01-31 22:00;CYOW 312200Z 09002KT 20SM FEW100 FEW240 M15/M23 A2992 RMK AC2CI1 WND ESTD SLP142

CYOW;2009-01-31 23:00;CYOW 312300Z 14005KT 15SM BKN110 M17/M23 A2991 RMK AC6 WND ESTD SLP141

CYOW;2009-02-01 01:00;CYOW 010100Z 14007KT 15SM BKN090 M16/M23 A2991 RMK AC6 WND ESTD SLP139

CYOW;2009-02-01 02:00;CYOW 010200Z 14005KT 15SM OVC076 M15/M20 A2988 RMK AC8 WND ESTD SLP132

CYOW;2009-02-01 02:55;CYOW 010255Z 09007KT 12SM -SN BKN073 OVC100 M15/ RMK AC5AC3 WND STD

CYOW;2009-02-01 03:00;CYOW 010300Z 09007KT 12SM -SN SCT046 OVC098 M14/M18 A2986 RMK SC3AC5 WND ESTD SLP124

CYOW;2009-02-01 04:00;CYOW 010400Z 05008KT 10SM -SN OVC017 M16/M19 A2984 RMK SC8 WND ESTD SLP116

CYOW;2009-02-01 05:00;CYOW 010500Z 09009KT 4SM -SN BKN018 OVC040 M15/M18 A2981 RMK SC5SC3 WND ESTD SLP107

CYOW;2009-02-01 06:00;CYOW 010600Z 09008KT 4SM -SN OVC013 M15/M18 A2978 RMK SC8 WND ESTD SLP095

CYOW;2009-02-01 07:00;CYOW 010700Z 09010KT 12SM -SN OVC042 M15/M18 A2976 RMK SC8 WND ESTD SLP087

CYOW;2009-02-01 08:00;CYOW 010800Z 09011KT 10SM -SN OVC013 M14/M17 A2971 RMK SC8 WND ESTD SLP071

CYOW;2009-02-01 09:00;CYOW 010900Z 09011KT 4SM -SN DRSN OVC009 M15/M17 A2969 RMK SC8 WND ESTD SLP065

CYOW;2009-02-01 10:00;CYOW 011000Z 09008KT 2 1/2SM -SN DRSN OVC005 M15/M17 A2968 RMK SC8 WND ESTD SLP060

CYOW;2009-02-01 11:00;CYOW 011100Z 09010KT 10SM -SN DRSN OVC005 M14/M16 A2964 RMK SC8 WND ESTD SLP048

CYOW;2009-02-01 12:00;CYOW 011200Z 09010KT 10SM FEW004 OVC020 M13/M15 A2962 RMK SF2SC6 WND ESTD SLP040

CYOW;2009-02-01 13:00;CYOW 011300Z 05008KT 10SM OVC017 M13/M14 A2964 RMK SC8 WND ESTD FROIN SLP046

CYOW;2009-02-01 13:33;CYOW 011333Z 05008KT 5SM -FZDZ BR OVC017 M13/ RMK ST8

CYOW;2009-02-01 14:00;CYOW 011400Z 05009KT 4SM -FZDZ BR OVC017 M13/M15 A2963 RMK ST8 WND ESTD SLP044

CYOW;2009-02-01 15:00;CYOW 011500Z 09009KT 5SM BR OVC018 M13/M15 A2961 REFZDZ RMK ST8 WND ESTD SLP038

CYOW;2009-02-01 16:00;CYOW 011600Z 09008KT 5SM BR OVC013 M12/M14 A2959 RMK ST8 WND ESTD SLP031

CYOW;2009-02-01 16:52;CYOW 011652Z 09007KT 4SM -SN -FZDZ BR OVC010 M12/ RMK ST8 WND ESTD

CYOW;2009-02-01 17:00;CYOW 011700Z 09006KT 4SM -SN -FZDZ BR OVC010 M12/M13 A2959 RMK ST8 WND ESTD SLP031

CYOW;2009-02-01 17:17;CYOW 011717Z 09003KT 7SM OVC012 M11/ REFZDZ RMK SC8 WND ESTD

CYOW;2009-02-01 18:00;CYOW 011800Z 14004KT 10SM FEW030 FEW180 M10/M11 A2959 REFZDZ RMK SC2AC1 WND ESTD SLP029

CYOW;2009-02-01 19:00;CYOW 011900Z 05003KT 10SM BKN044 M06/M08 A2960 RMK SC5 WND ESTD SLP032

CYOW;2009-02-01 20:00;CYOW 012000Z 23011KT 10SM BKN030 03/M02 A2961 RMK CU6 WND EQPT BACK IN SVC SLP035

CYOW;2009-02-01 21:00;CYOW 012100Z 22013G18KT 12SM FEW040 BKN200 03/M03 A2963 RMK CU2CI1 SLP042

CYOW;2009-02-01 22:00;CYOW 012200Z 22008KT 12SM FEW040 02/M04 A2965 RMK CU2 SLP049

CYOW;2009-02-01 23:00;CYOW 012300Z 20004KT 15SM FEW050 01/M05 A2968 RMK SC2 SLP056

CYOW;2009-02-02 00:00;CYOW 020000Z 20010KT 15SM FEW050 01/M03 A2968 RMK SC0 SLP058

CYOW;2009-02-02 01:00;CYOW 020100Z 21010KT 15SM SKC 01/M04 A2970 RMK SLP063

CYOW;2009-02-02 02:00;CYOW 020200Z 22011G16KT 15SM SKC 00/M04 A2972 RMK SLP071

CYOW;2009-02-02 03:00;CYOW 020300Z 22011G17KT 15SM FEW150 M00/M04 A2974 RMK AC0 SLP079

CYOW;2009-02-02 04:00;CYOW 020400Z 22012KT 15SM FEW150 M00/M04 A2976 RMK AC1 SLP084

CYOW;2009-02-02 05:00;CYOW 020500Z 22008KT 15SM FEW130 M01/M05 A2977 RMK AC1 SLP089

CYOW;2009-02-02 06:00;CYOW 020600Z 23006KT 15SM FEW140 M02/M05 A2978 RMK AC1 SLP091

CYOW;2009-02-02 07:00;CYOW 020700Z 23007KT 15SM BKN140 M02/M06 A2979 RMK AC2 SLP094

CYOW;2009-02-02 08:00;CYOW 020800Z 21007KT 15SM FEW150 M03/M06 A2980 RMK AC0 SLP098

CYOW;2009-02-02 09:00;CYOW 020900Z 22007KT 15SM FEW150 M02/M07 A2981 RMK AC1 SLP099

CYOW;2009-02-02 10:00;CYOW 021000Z 22009KT 15SM FEW150 M02/M07 A2982 RMK AC1 SLP103

CYOW;2009-02-02 11:00;CYOW 021100Z 22010KT 15SM FEW170 M03/M08 A2984 RMK AC2 SLP111

CYOW;2009-02-02 12:00;CYOW 021200Z 23008KT 15SM FEW170 M04/M08 A2987 RMK AC2 SLP121

CYOW;2009-02-02 13:00;CYOW 021300Z 27008KT 15SM SCT033 M05/M09 A2990 RMK SC3 WND ESTD SLP131

CYOW;2009-02-02 14:00;CYOW 021400Z 27009KT 15SM BKN025 BKN170 M04/M09 A2993 RMK SC5AC1 WND ESTD SLP141

CYOW;2009-02-02 14:27;CYOW 021427Z 27007KT 12SM -SN OVC025 M03/ RMK SC8

CYOW;2009-02-02 15:00;CYOW 021500Z 29009G15KT 15SM FEW030 SCT170 M04/M09 A2996 RMK SC2AC1 SLP150

CYOW;2009-02-02 16:00;CYOW 021600Z 27008KT 15SM BKN040 BKN240 M03/M09 A2996 RMK SC5CI1 SLP152

CYOW;2009-02-02 17:00;CYOW 021700Z 29009KT 15SM BKN033 M02/M08 A2996 RMK SC6 CU ASOCTD SLP150

CYOW;2009-02-02 18:00;CYOW 021800Z 30008KT 15SM SCT033 M02/M08 A2995 RMK SC3 SLP147

CYOW;2009-02-02 19:00;CYOW 021900Z 32007KT 15SM SCT034 M03/M09 A2995 RMK SC3 SLP147

CYOW;2009-02-02 20:00;CYOW 022000Z 32005KT 15SM FEW040 M03/M09 A2995 RMK SC2 SLP149

CYOW;2009-02-02 21:00;CYOW 022100Z 30003KT 15SM FEW040 M03/M10 A2996 RMK SC2 SLP154

CYOW;2009-02-02 22:00;CYOW 022200Z 35002KT 15SM FEW040 M04/M10 A2999 RMK SC1 SLP164

CYOW;2009-02-02 23:00;CYOW 022300Z 00000KT 15SM SKC M04/M10 A3002 RMK SLP171

CYOW;2009-02-03 00:00;CYOW 030000Z 00000KT 15SM SKC M04/M11 A3003 RMK SLP177

CYOW;2009-02-03 01:00;CYOW 030100Z 00000KT 15SM SKC M06/M11 A3003 RMK FROIN SLP177

CYOW;2009-02-03 02:00;CYOW 030200Z 18007KT 15SM SKC M07/M11 A3004 RMK WND ESTD SLP180

CYOW;2009-02-03 03:00;CYOW 030300Z 14008KT 15SM SKC M08/M12 A3005 RMK WND ESTD FROIN SLP183

CYOW;2009-02-03 04:00;CYOW 030400Z 18009KT 15SM SKC M09/M12 A3005 RMK WND ESTD FROIN SLP184

CYOW;2009-02-03 05:00;CYOW 030500Z 18009KT 15SM SKC M10/M13 A3005 RMK WND ESTD FROIN SLP184

CYOW;2009-02-03 06:00;CYOW 030600Z 14008KT 15SM SKC M11/M14 A3006 RMK WND ESTD FROIN SLP187

CYOW;2009-02-03 07:00;CYOW 030700Z 14007KT 15SM SKC M12/M14 A3007 RMK WND ESTD FROIN SLP191

CYOW;2009-02-03 08:00;CYOW 030800Z 36008KT 15SM SKC M12/M14 A3007 RMK WND ESTD FROIN SLP191

CYOW;2009-02-03 09:00;CYOW 030900Z 14010KT 15SM SKC M14/M15 A3008 RMK WND ESTD FROIN SLP194

CYOW;2009-02-03 10:00;CYOW 031000Z 14008KT 15SM SKC M14/M16 A3007 RMK WND ESTD FROIN SLP192

CYOW;2009-02-03 11:00;CYOW 031100Z 09009KT 15SM FEW150 M14/M17 A3007 RMK AC1 WND ESTC FROIN SLP191

CYOW;2009-02-03 12:00;CYOW 031200Z 36009KT 15SM FEW240 M15/M17 A3008 RMK CI1 WND ESTD FROIN SLP193

CYOW;2009-02-03 13:00;CYOW 031300Z 36006KT 15SM FEW070 FEW200 SCT240 M15/M18 A3009 RMK AC1CI2CI1 WND ESTD SLP197

CYOW;2009-02-03 14:00;CYOW 031400Z 05008KT 15SM FEW070 FEW200 SCT240 M14/M17 A3008 RMK AC1CI1CI1 WND ESTD SLP196

CYOW;2009-02-03 15:00;CYOW 031500Z 36007KT 15SM FEW080 FEW200 BKN240 M13/M17 A3008 RMK AC1CI1CI2 WND ESTD SLP197

CYOW;2009-02-03 16:00;CYOW 031600Z 36006KT 15SM FEW080 BKN240 M13/M17 A3007 RMK AC1CI2 WND ESTD SLP193

CYOW;2009-02-03 17:00;CYOW 031700Z 36007KT 15SM BKN240 M11/M16 A3004 RMK CI2 WND ESTD SLP182

CYOW;2009-02-03 18:00;CYOW 031800Z 04006KT 15SM BKN240 M10/M16 A3000 RMK CI2 SLP169

CYOW;2009-02-03 19:00;CYOW 031900Z 03005KT 15SM BKN240 M09/M17 A2998 RMK CI3 SLP161

CYOW;2009-02-03 20:00;CYOW 032000Z 00000KT 15SM BKN220 M07/M16 A2997 RMK CI3 SLP157

CYOW;2009-02-03 21:00;CYOW 032100Z 25004KT 15SM BKN220 M08/M16 A2997 RMK CI3 SLP158

CYOW;2009-02-03 22:00;CYOW 032200Z 26003KT 15SM BKN220 M09/M18 A2998 RMK CI3 SLP161

CYOW;2009-02-03 23:00;CYOW 032300Z 33011KT 15SM BKN210 M11/M17 A2999 RMK CI3 SLP163

CYOW;2009-02-04 00:00;CYOW 040000Z 35009KT 15SM FEW210 M11/M18 A2999 RMK CI2 SLP165

CYOW;2009-02-04 01:00;CYOW 040100Z 36011KT 15SM SKC M12/M18 A2998 RMK SLP161

CYOW;2009-02-04 02:00;CYOW 040200Z 35010KT 15SM SKC M12/M18 A2998 RMK SLP162

CYOW;2009-02-04 03:00;CYOW 040300Z 36012KT 15SM SKC M13/M18 A2999 RMK SLP164

CYOW;2009-02-04 04:00;CYOW 040400Z 32006KT 15SM SKC M16/M19 A3000 RMK SLP170

CYOW;2009-02-04 05:00;CYOW 040500Z 33011KT 15SM SKC M16/M19 A3001 RMK SLP173

CYOW;2009-02-04 06:00;CYOW 040600Z 32009KT 15SM SKC M17/M20 A3001 RMK SLP173

CYOW;2009-02-04 07:00;CYOW 040700Z 33010KT 15SM SKC M17/M20 A3002 RMK SLP176

CYOW;2009-02-04 08:00;CYOW 040800Z 33011KT 15SM SKC M18/M21 A3004 RMK SLP181

CYOW;2009-02-04 09:00;CYOW 040900Z 33013KT 15SM SKC M19/M22 A3004 RMK SLP184

CYOW;2009-02-04 10:00;CYOW 041000Z 32012KT 15SM SKC M19/M26 A3006 RMK SLP189

CYOW;2009-02-04 11:00;CYOW 041100Z 32008KT 15SM SKC M21/M26 A3007 RMK SLP194

CYOW;2009-02-04 12:00;CYOW 041200Z 32010KT 15SM FEW220 M20/M25 A3009 RMK CI1 SLP202

CYOW;2009-02-04 13:00;CYOW 041300Z 33011KT 15SM FEW120 FEW220 M20/M25 A3011 RMK AC1CI1 SLP209

CYOW;2009-02-04 14:00;CYOW 041400Z 31009KT 15SM FEW120 FEW220 M20/M25 A3013 RMK AC1CI0 SLP215

CYOW;2009-02-04 15:00;CYOW 041500Z 33007KT 15SM FEW120 FEW220 M18/M24 A3015 RMK AC1CI1 SLP222

CYOW;2009-02-04 16:00;CYOW 041600Z 29008KT 15SM FEW120 SCT220 M17/M23 A3016 RMK AC1CI1 SLP225

CYOW;2009-02-04 17:00;CYOW 041700Z 31009KT 15SM FEW140 SCT220 M15/M21 A3015 RMK AC1CI2 SLP220

CYOW;2009-02-04 18:00;CYOW 041800Z 32010KT 15SM FEW140 BKN220 M13/M21 A3013 RMK AC1CI3 SLP214

CYOW;2009-02-04 19:00;CYOW 041900Z 34013KT 15SM FEW140 SCT220 M13/M21 A3013 RMK AC1CI2 SLP215

CYOW;2009-02-04 20:00;CYOW 042000Z 29010KT 15SM FEW025 FEW140 SCT230 M13/M21 A3015 RMK CU1AC1CI1 SLP221

CYOW;2009-02-04 21:00;CYOW 042100Z 29012KT 15SM FEW025 FEW140 BKN230 M13/M21 A3016 RMK CU1AC1CI2 SLP226

CYOW;2009-02-04 22:00;CYOW 042200Z 29009G15KT 15SM FEW030 FEW055 BKN230 M13/M21 A3019 RMK SC1SC2CI2 SLP234

CYOW;2009-02-04 23:00;CYOW 042300Z 29007KT 15SM SCT055 BKN230 M13/M21 A3021 RMK SC3CI2 SLP242

CYOW;2009-02-05 00:00;CYOW 050000Z 29008KT 15SM OVC055 M14/M21 A3023 RMK SC8 MOON VISBL SLP248

CYOW;2009-02-05 01:00;CYOW 050100Z 29006KT 15SM BKN053 M14/M21 A3025 RMK SC6 SLP254

CYOW;2009-02-05 02:00;CYOW 050200Z 31010KT 15SM BKN052 M15/M21 A3026 RMK SC4 SLP260

CYOW;2009-02-05 03:00;CYOW 050300Z 33012KT 15SM BKN050 M15/M21 A3028 RMK SC7 SLP265

CYOW;2009-02-05 04:00;CYOW 050400Z 33014KT 15SM BKN051 M16/M22 A3029 RMK SC4 SLP269

CYOW;2009-02-05 05:00;CYOW 050500Z 32010KT 15SM BKN052 M17/M23 A3029 RMK SC6 MOON VISBL SLP270

CYOW;2009-02-05 06:00;CYOW 050600Z 31009KT 15SM FEW050 M18/M24 A3030 RMK SC2 SLP271

CYOW;2009-02-05 07:00;CYOW 050700Z 30008KT 15SM FEW050 M19/M24 A3030 RMK SC2 SLP273

CYOW;2009-02-05 08:00;CYOW 050800Z 29010KT 15SM FEW050 M20/M25 A3031 RMK SC2 SLP276

CYOW;2009-02-05 09:00;CYOW 050900Z 29008KT 15SM FEW050 M21/M25 A3031 RMK SC1 SLP276

CYOW;2009-02-05 10:00;CYOW 051000Z 29010KT 15SM SKC M21/M26 A3032 RMK SLP279

CYOW;2009-02-05 11:00;CYOW 051100Z 30010KT 15SM SKC M22/M27 A3033 RMK SLP282

CYOW;2009-02-05 12:00;CYOW 051200Z 30014KT 15SM FEW220 M22/M27 A3034 RMK CI0 SLP288

CYOW;2009-02-05 13:00;CYOW 051300Z 30011KT 15SM FEW220 M23/M27 A3035 RMK CI0 SLP290

CYOW;2009-02-05 14:00;CYOW 051400Z 31008KT 15SM FEW220 M22/M27 A3036 RMK CI1 SLP294

CYOW;2009-02-05 15:00;CYOW 051500Z 30005KT 15SM FEW220 M21/M26 A3037 RMK CI1 SLP297

CYOW;2009-02-05 16:00;CYOW 051600Z 28009KT 15SM FEW220 M19/M26 A3037 RMK CI1 SLP297

CYOW;2009-02-05 17:00;CYOW 051700Z 27011KT 15SM FEW220 M18/M25 A3035 RMK CI1 SLP289

CYOW;2009-02-05 18:00;CYOW 051800Z 30011KT 15SM FEW240 M17/M24 A3033 RMK CI0 SLP283

CYOW;2009-02-05 19:00;CYOW 051900Z 25011KT 15SM FEW240 M15/M23 A3032 RMK CI1 SLP279

CYOW;2009-02-05 20:00;CYOW 052000Z 25009KT 15SM FEW240 M15/M23 A3032 RMK CI1 SLP279

CYOW;2009-02-05 21:00;CYOW 052100Z 28010KT 15SM FEW240 M15/M23 A3032 RMK CI1 SLP279

CYOW;2009-02-05 22:00;CYOW 052200Z 28007KT 15SM SCT240 M16/M24 A3032 RMK CI2 SLP279

CYOW;2009-02-05 23:00;CYOW 052300Z 20002KT 15SM BKN210 M16/M24 A3031 RMK CI2 SLP277

CYOW;2009-02-06 00:00;CYOW 060000Z 25003KT 15SM OVC230 M16/M24 A3031 RMK CS4 SLP275

CYOW;2009-02-06 01:00;CYOW 060100Z 20003KT 15SM FEW170 OVC230 M17/M23 A3031 RMK AC2CS0 SLP278

CYOW;2009-02-06 02:00;CYOW 060200Z 19004KT 15SM BKN160 OVC220 M17/M24 A3031 RMK AC6CS0 SLP277

CYOW;2009-02-06 03:00;CYOW 060300Z 18003KT 15SM FEW100 OVC140 M17/M24 A3031 RMK AC2AC6 MOON VISBL SLP278

CYOW;2009-02-06 04:00;CYOW 060400Z 16004KT 15SM OVC160 M18/M24 A3031 RMK AC6 SLP277

CYOW;2009-02-06 05:00;CYOW 060500Z 19004KT 15SM OVC140 M18/M23 A3030 RMK AC8 MOON VISBL SLP274

CYOW;2009-02-06 06:00;CYOW 060600Z 20004KT 15SM OVC110 M17/M23 A3028 RMK AC8 SLP267

CYOW;2009-02-06 07:00;CYOW 060700Z 00000KT 15SM OVC093 M16/M22 A3028 RMK AC8 SLP265

CYOW;2009-02-06 07:39;CYOW 060739Z 18005KT 10SM -SN SCT047 OVC110 M16/ RMK SC3AC5

CYOW;2009-02-06 08:00;CYOW 060800Z 18005KT 8SM -SN OVC110 M16/M21 A3027 RMK AC8 SLP261

CYOW;2009-02-06 09:00;CYOW 060900Z 17004KT 6SM -SN OVC085 M15/M20 A3026 RMK AC8 SLP257

CYOW;2009-02-06 10:00;CYOW 061000Z 17002KT 4SM -SN OVC039 M15/M18 A3026 RMK SC8 SLP258

CYOW;2009-02-06 11:00;CYOW 061100Z 19004KT 4SM -SN OVC040 M14/M18 A3025 RMK SC8 SLP256

CYOW;2009-02-06 12:00;CYOW 061200Z 20003KT 12SM -SN SCT040 OVC077 M14/M17 A3026 RMK SC4AC4 SLP257

CYOW;2009-02-06 12:32;CYOW 061232Z 18002KT 15SM FEW040 OVC075 M14/ RMK SC2AC6

CYOW;2009-02-06 13:00;CYOW 061300Z 18003KT 15SM FEW040 OVC070 M14/M17 A3027 RMK SC1AC7 SLP261

CYOW;2009-02-06 13:27;CYOW 061327Z 18002KT 12SM -SN OVC065 M13/ RMK SC8

CYOW;2009-02-06 14:00;CYOW 061400Z 20003KT 10SM -SN OVC065 M13/M16 A3027 RMK SC8 SLP262

CYOW;2009-02-06 15:00;CYOW 061500Z 21004KT 10SM -SN BKN065 M12/M15 A3028 RMK SC7 SLP264

CYOW;2009-02-06 16:00;CYOW 061600Z 24006KT 15SM -SN BKN060 M11/M14 A3028 RMK SC5 SLP265

CYOW;2009-02-06 16:20;CYOW 061620Z 22004KT 15SM SCT060 M10/ RMK SC3

CYOW;2009-02-06 17:00;CYOW 061700Z 21005KT 15SM FEW060 M09/M13 A3026 RMK SC2 SLP259

CYOW;2009-02-06 18:00;CYOW 061800Z 22003KT 15SM BKN035 M07/M12 A3025 RMK SC5 SLP254

CYOW;2009-02-06 19:00;CYOW 061900Z 21003KT 15SM BKN033 M05/M11 A3023 RMK SC5 SLP247

CYOW;2009-02-06 20:00;CYOW 062000Z 00000KT 15SM BKN030 M04/M12 A3024 RMK SC6 SLP249

CYOW;2009-02-06 21:00;CYOW 062100Z 18004KT 15SM SCT029 BKN250 M04/M12 A3024 RMK SC3CI1 SLP249

CYOW;2009-02-06 22:00;CYOW 062200Z 19004KT 15SM FEW030 SCT250 M05/M12 A3025 RMK SC2CI2 SLP253

CYOW;2009-02-06 23:00;CYOW 062300Z 17004KT 15SM SCT250 M06/M12 A3025 RMK CI2 SLP251

CYOW;2009-02-07 00:00;CYOW 070000Z 19005KT 15SM SCT250 M07/M12 A3025 RMK CI2 SLP255

CYOW;2009-02-07 01:00;CYOW 070100Z 20006KT 15SM FEW250 M07/M11 A3025 RMK CI1 SLP255

CYOW;2009-02-07 02:00;CYOW 070200Z 19005KT 15SM FEW250 M08/M11 A3025 RMK CI1 SLP255

CYOW;2009-02-07 03:00;CYOW 070300Z 19005KT 15SM FEW250 M08/M11 A3025 RMK CI1 SLP254

CYOW;2009-02-07 04:00;CYOW 070400Z 20004KT 15SM FEW250 M09/M11 A3025 RMK CI1 SLP251

CYOW;2009-02-07 05:00;CYOW 070500Z 20006KT 15SM FEW250 M10/M11 A3023 RMK CI1 SLP247

CYOW;2009-02-07 06:00;CYOW 070600Z 18004KT 15SM FEW250 M10/M11 A3024 RMK CI1 SLP249

CYOW;2009-02-07 07:00;CYOW 070700Z 18004KT 15SM FEW018 SCT250 M10/M12 A3022 RMK SC2CI0 SLP244

CYOW;2009-02-07 08:00;CYOW 070800Z 16006KT 15SM FEW250 M11/M13 A3020 RMK CI0 SLP237

CYOW;2009-02-07 09:00;CYOW 070900Z 16004KT 15SM BKN250 M11/M14 A3018 RMK CI2 SLP229

CYOW;2009-02-07 10:00;CYOW 071000Z 13003KT 12SM BKN200 M13/M15 A3017 RMK CI5 SLP224

CYOW;2009-02-07 11:00;CYOW 071100Z CCA 13004KT 12SM OVC220 M13/M15 A3012 RMK CS6 SLP209

CYOW;2009-02-07 12:00;CYOW 071200Z 09004KT 12SM BKN200 OVC250 M12/M15 A3010 RMK CI6CI1 SLP201

CYOW;2009-02-07 13:00;CYOW 071300Z 05007KT 10SM FEW200 OVC250 M12/M15 A3006 RMK CI2CI2 SLP188

CYOW;2009-02-07 14:00;CYOW 071400Z 07005KT 12SM SCT034 OVC250 M11/M14 A3005 RMK SC3CI3 SLP186

CYOW;2009-02-07 15:00;CYOW 071500Z 09008KT 12SM OVC030 M09/M12 A2997 RMK SC8 PRESFR SLP159

CYOW;2009-02-07 16:00;CYOW 071600Z 08006KT 12SM OVC028 M07/M11 A2994 RMK SC8 SLP146

CYOW;2009-02-07 17:00;CYOW 071700Z 09007KT 12SM OVC026 M06/M10 A2988 RMK SC8 SLP127

CYOW;2009-02-07 18:00;CYOW 071800Z 10007KT 12SM OVC028 M05/M09 A2981 RMK SC8 PRESFR SLP102

CYOW;2009-02-07 19:00;CYOW 071900Z 07003KT 12SM OVC029 M04/M08 A2976 RMK SC8 SLP087

CYOW;2009-02-07 20:00;CYOW 072000Z 07008KT 12SM OVC029 M03/M07 A2972 RMK SC8 SLP073

CYOW;2009-02-07 21:00;CYOW 072100Z 04006KT 12SM OVC029 M03/M06 A2970 RMK SC8 SLP065

CYOW;2009-02-07 22:00;CYOW 072200Z 23005KT 12SM OVC027 04/00 A2968 RMK SC8 SLP060

CYOW;2009-02-07 23:00;CYOW 072300Z 21012KT 12SM OVC028 06/02 A2967 RMK SC8 SLP056

CYOW;2009-02-08 00:00;CYOW 080000Z 21010KT 12SM OVC036 05/02 A2966 RMK SC8 SLP051

CYOW;2009-02-08 01:00;CYOW 080100Z 21012KT 12SM OVC035 05/03 A2965 RMK SC8 SLP046

CYOW;2009-02-08 02:00;CYOW 080200Z 21013G18KT 12SM OVC041 05/03 A2964 RMK SC8 SLP044

CYOW;2009-02-08 03:00;CYOW 080300Z CCA 22012KT 12SM OVC045 06/03 A2964 RMK SC8 SLP044

CYOW;2009-02-08 04:00;CYOW 080400Z 22012G17KT 12SM OVC040 06/03 A2964 RMK SC8 SLP044

CYOW;2009-02-08 05:00;CYOW 080500Z 22013KT 12SM BKN042 OVC055 06/03 A2965 RMK SC5SC3 SLP045

CYOW;2009-02-08 06:00;CYOW 080600Z 22012G17KT 12SM OVC034 05/03 A2964 RMK SC8 SLP043

CYOW;2009-02-08 07:00;CYOW 080700Z 23010KT 12SM OVC036 05/02 A2966 RMK SC8 SLP048

CYOW;2009-02-08 08:00;CYOW 080800Z 29010G15KT 12SM OVC022 04/01 A2968 RMK SC8 SLP054

CYOW;2009-02-08 08:50;CYOW 080850Z 29010G17KT 12SM -RA OVC014 04/ RMK SC8

CYOW;2009-02-08 09:00;CYOW 080900Z 29011KT 12SM -RA OVC027 03/02 A2970 RMK SC8 SLP063

CYOW;2009-02-08 10:00;CYOW 081000Z 29009KT 10SM -RA FEW008 OVC031 02/01 A2973 RMK SF0SC8 SLP073

CYOW;2009-02-08 11:00;CYOW 081100Z 30011KT 10SM -SN FEW027 OVC035 02/M01 A2976 RMK SF0SC8 SLP084

CYOW;2009-02-08 12:00;CYOW 081200Z 34014KT 4SM -SN FEW017 OVC035 M00/M02 A2983 RMK SC2SC6 PRESRR SLP105

CYOW;2009-02-08 13:00;CYOW 081300Z 31022KT 15SM -SN SCT025 BKN050 BKN090 M01/M05 A2990 RMK SC3SC2AS1 PRESRR SLP128

CYOW;2009-02-08 13:20;CYOW 081320Z 32016G21KT 15SM FEW025 SCT050 BKN090 BKN120 M02/ RMK CU2SC2AS1AC1

CYOW;2009-02-08 14:00;CYOW 081400Z 31015G21KT 15SM FEW025 SCT120 M02/M08 A2996 RMK CU2AC2 PRESRR SLP148

CYOW;2009-02-08 15:00;CYOW 081500Z 31016G24KT 15SM FEW029 SCT120 M02/M07 A2999 RMK SC2AC1 CU ASOCTD SLP161

CYOW;2009-02-08 16:00;CYOW 081600Z 29019G24KT 15SM FEW029 M03/M09 A3002 RMK CF1 SLP171

CYOW;2009-02-08 17:00;CYOW 081700Z 29021KT 15SM FEW030 M04/M11 A3005 RMK CF1 SLP179

CYOW;2009-02-08 18:00;CYOW 081800Z 28013G22KT 15SM FEW030 FEW250 M03/M10 A3005 RMK CF1CI1 SLP181

CYOW;2009-02-08 19:00;CYOW 081900Z 28018G24KT 15SM FEW035 FEW250 M04/M13 A3005 RMK CF1CI1 SLP183

CYOW;2009-02-08 20:00;CYOW 082000Z 29018G27KT 15SM FEW035 BKN170 BKN250 M04/M13 A3008 RMK CF1AC3CI2 SLP193

CYOW;2009-02-08 21:00;CYOW 082100Z 29012G17KT 15SM FEW035 BKN170 BKN250 M04/M13 A3011 RMK CF1AC3CI2 SLP201

CYOW;2009-02-08 22:00;CYOW 082200Z 30008KT 15SM FEW040 FEW075 BKN150 M05/M12 A3012 RMK SC1AC1AS5 SLP205

CYOW;2009-02-08 23:00;CYOW 082300Z 30014G20KT 15SM SCT160 M05/M12 A3015 RMK AS2 SLP217

CYOW;2009-02-09 00:00;CYOW 090000Z 31013KT 15SM FEW063 BKN090 M05/M13 A3019 RMK SC2AC3 SLP229

CYOW;2009-02-09 01:00;CYOW 090100Z 30010KT 15SM FEW090 M06/M13 A3019 RMK AC2 SLP231

CYOW;2009-02-09 02:00;CYOW 090200Z 28004KT 15SM BKN083 M06/M13 A3020 RMK AC6 SLP234

CYOW;2009-02-09 03:00;CYOW 090300Z 23003KT 15SM FEW041 OVC081 M07/M12 A3022 RMK SC1AC8 SLP241

CYOW;2009-02-09 04:00;CYOW 090400Z 22004KT 15SM BKN048 OVC078 M06/M12 A3023 RMK SC5AC3 SLP245

CYOW;2009-02-09 04:55;CYOW 090455Z 23002KT 15SM -SN OVC050 M06/ RMK SC8

CYOW;2009-02-09 05:00;CYOW 090500Z 22002KT 12SM -SN BKN032 OVC046 M06/M12 A3025 RMK SC5SC3 SLP250

CYOW;2009-02-09 06:00;CYOW 090600Z 00000KT 8SM -SN OVC028 M07/M10 A3027 RMK SC8 SLP257

CYOW;2009-02-09 06:55;CYOW 090655Z 12002KT 2SM -SN OVC029 M07/ RMK SC8

CYOW;2009-02-09 07:00;CYOW 090700Z 12002KT 7SM -SN OVC029 M07/M09 A3027 RMK SC8 SLP259

CYOW;2009-02-09 07:30;CYOW 090730Z 00000KT 1SM -SN VV004 M07/ RMK SN8

CYOW;2009-02-09 07:50;CYOW 090750Z 00000KT 8SM -SN OVC035 M07/ RMK SC8

CYOW;2009-02-09 08:00;CYOW 090800Z 00000KT 8SM -SN BKN036 OVC062 M07/M09 A3028 RMK SC6SC2 SLP263

CYOW;2009-02-09 09:00;CYOW 090900Z 05004KT 10SM -SN OVC032 M07/M09 A3030 RMK SC8 SLP268

CYOW;2009-02-09 10:00;CYOW 091000Z CCA 04007KT 12SM -SN FEW020 M10/M13 A3032 RMK SC2 SLP276

CYOW;2009-02-09 10:25;CYOW 091025Z 04007KT 15SM FEW020 M11/ RMK SC2

CYOW;2009-02-09 11:00;CYOW 091100Z 02007KT 12SM BKN016 M10/M13 A3036 RMK SC6 SLP288

CYOW;2009-02-09 12:00;CYOW 091200Z 01002KT 15SM BKN020 BKN240 M10/M13 A3038 RMK SC5CI1 /S01/ SLP297

CYOW;2009-02-09 13:00;CYOW 091300Z 01006KT 20SM FEW240 M11/M15 A3039 RMK CI0 SLP299

CYOW;2009-02-09 14:00;CYOW 091400Z 02006KT 20SM FEW240 M10/M14 A3042 RMK CI1 SLP309

CYOW;2009-02-09 15:00;CYOW 091500Z 36005KT 20SM BKN240 M09/M15 A3045 RMK CI3 SLP320

CYOW;2009-02-09 16:00;CYOW 091600Z 32003KT 20SM BKN240 M08/M15 A3045 RMK CI2 SLP321

CYOW;2009-02-09 17:00;CYOW 091700Z 00000KT 15SM SCT240 M07/M14 A3043 RMK CI1 SLP315

CYOW;2009-02-09 18:00;CYOW 091800Z 31004KT 15SM SCT240 M07/M14 A3042 RMK CI1 SLP311

CYOW;2009-02-09 19:00;CYOW 091900Z 00000KT 15SM SCT240 M06/M15 A3041 RMK CI1 SLP307

CYOW;2009-02-09 20:00;CYOW 092000Z 23005KT 15SM SCT240 M06/M15 A3041 RMK CI1 SLP306

CYOW;2009-02-09 21:00;CYOW 092100Z 00000KT 15SM BKN240 M05/M14 A3041 RMK CI2 SLP305

CYOW;2009-02-09 22:00;CYOW 092200Z 18002KT 15SM FEW180 BKN240 M06/M15 A3042 RMK AC2CI2 SLP308

CYOW;2009-02-09 23:00;CYOW 092300Z 00000KT 15SM FEW180 BKN240 M06/M15 A3042 RMK AC2CI3 SLP308

CYOW;2009-02-10 00:00;CYOW 100000Z 10004KT 15SM BKN150 M08/M14 A3041 RMK AC6 SLP306

CYOW;2009-02-10 01:00;CYOW 100100Z 11005KT 15SM BKN150 M08/M13 A3039 RMK AC6 SLP299

CYOW;2009-02-10 02:00;CYOW 100200Z 15003KT 15SM BKN170 M08/M14 A3038 RMK AC6 SLP298

CYOW;2009-02-10 03:00;CYOW 100300Z 13002KT 15SM SCT120 BKN220 M08/M13 A3037 RMK AC3CI3 SLP294

CYOW;2009-02-10 04:00;CYOW 100400Z 12004KT 15SM BKN130 M08/M13 A3036 RMK AC6 SLP291

CYOW;2009-02-10 05:00;CYOW 100500Z 11003KT 15SM FEW120 OVC210 M09/M14 A3035 RMK AC1CS6 SLP287

CYOW;2009-02-10 06:00;CYOW 100600Z 07003KT 15SM OVC210 M09/M15 A3033 RMK CS6 SLP279

CYOW;2009-02-10 07:00;CYOW 100700Z 07005KT 15SM FEW120 BKN210 M10/M15 A3033 RMK AC1CS2 SLP279

CYOW;2009-02-10 08:00;CYOW 100800Z 05008KT 15SM SCT110 M10/M16 A3030 RMK AC1 SLP268

CYOW;2009-02-10 09:00;CYOW 100900Z 06007KT 15SM FEW120 BKN220 M10/M16 A3028 RMK AC2CS2 SLP263

CYOW;2009-02-10 10:00;CYOW 101000Z 07010KT 15SM FEW120 SCT240 M10/M16 A3026 RMK AC1CS2 SLP255

CYOW;2009-02-10 11:00;CYOW 101100Z 07013KT 15SM FEW120 SCT220 M10/M15 A3018 RMK AC1CS2 SLP229

CYOW;2009-02-10 12:00;CYOW 101200Z 07011KT 15SM BKN180 M10/M15 A3016 RMK AC6 SLP223

CYOW;2009-02-10 13:00;CYOW 101300Z 07009KT 15SM BKN100 OVC170 M10/M15 A3014 RMK AC5AS3 SLP216

CYOW;2009-02-10 14:00;CYOW 101400Z 07010KT 12SM FEW060 BKN090 OVC160 M09/M14 A3010 RMK SC2AC4AS2 PRESFR SLP203

CYOW;2009-02-10 15:00;CYOW 101500Z 06007KT 12SM FEW060 OVC150 M08/M13 A3012 RMK SC2AS6 SLP207

CYOW;2009-02-10 16:00;CYOW 101600Z 07011KT 12SM OVC060 M07/M13 A3004 RMK SC8 PRESFR SLP182

CYOW;2009-02-10 16:19;CYOW 101619Z 07010KT 12SM -FZRA OVC070 M07/ RMK AS8

CYOW;2009-02-10 17:00;CYOW 101700Z 07007KT 12SM OVC063 M07/M12 A3002 REFZRA RMK SC8 SLP173

CYOW;2009-02-10 18:00;CYOW 101800Z 08010KT 12SM OVC057 M06/M11 A2998 RMK SC8 SLP161

CYOW;2009-02-10 19:00;CYOW 101900Z 09005KT 12SM OVC042 M05/M11 A2997 RMK SC8 SLP156

CYOW;2009-02-10 19:25;CYOW 101925Z 10009KT 5SM -FZRA OVC024 M06/ RMK SC8

CYOW;2009-02-10 20:00;CYOW 102000Z 09008KT 10SM OVC020 M06/M10 A2995 REFZRA RMK SC8 SLP150

CYOW;2009-02-10 21:00;CYOW 102100Z 09009KT 8SM OVC017 M06/M09 A2994 RMK SC8 SLP145

CYOW;2009-02-10 22:00;CYOW 102200Z 09006KT 8SM OVC017 M05/M09 A2992 RMK SC8 SLP141

CYOW;2009-02-10 23:00;CYOW 102300Z 06007KT 10SM OVC020 M05/M09 A2992 RMK SC8 SLP140

CYOW;2009-02-11 00:00;CYOW 110000Z 08004KT 8SM OVC018 M05/M09 A2990 RMK SC8 SLP132

CYOW;2009-02-11 01:00;CYOW 110100Z 08004KT 8SM BKN022 OVC037 M05/M09 A2989 RMK SC7SC1 SLP131

CYOW;2009-02-11 02:00;CYOW 110200Z 08005KT 8SM OVC023 M05/M09 A2988 RMK SC8 SLP127

CYOW;2009-02-11 03:00;CYOW 110300Z 08005KT 8SM OVC019 M05/M09 A2987 RMK SC8 SLP123

CYOW;2009-02-11 04:00;CYOW 110400Z 09004KT 8SM -FZDZ OVC017 M05/M08 A2986 RMK ST8 SLP119

CYOW;2009-02-11 04:28;CYOW 110428Z 08004KT 8SM OVC017 M04/ REFZDZ RMK ST8

CYOW;2009-02-11 05:00;CYOW 110500Z 04005KT 8SM SCT017 OVC028 M04/M07 A2986 REFZDZ RMK SC4SC4 SLP120

CYOW;2009-02-11 06:00;CYOW 110600Z 07005KT 10SM BKN022 M04/M07 A2985 RMK SC7 SLP116

CYOW;2009-02-11 07:00;CYOW 110700Z 06004KT 8SM OVC021 M03/M06 A2984 RMK SC8 SLP113

CYOW;2009-02-11 08:00;CYOW 110800Z 04004KT 8SM OVC022 M02/M05 A2984 RMK SC8 SLP113

CYOW;2009-02-11 09:00;CYOW 110900Z 11004KT 7SM BKN040 M02/M04 A2983 RMK SC7 SLP107

CYOW;2009-02-11 09:54;CYOW 110954Z 18004KT 4SM BR FEW005 OVC035 02/ RMK SF2SC6

CYOW;2009-02-11 10:00;CYOW 111000Z 18004KT 4SM BR BKN005 OVC035 03/02 A2982 RMK SF5SC3 MOON VISBL SLP104

CYOW;2009-02-11 11:00;CYOW 111100Z 22005KT 4SM BR OVC005 04/04 A2982 RMK SC8 SLP104

CYOW;2009-02-11 12:00;CYOW 111200Z 20008KT 3SM BR BKN006 OVC025 05/04 A2982 RMK SF6SC2 SLP102

CYOW;2009-02-11 13:00;CYOW 111300Z 20007KT 2SM BR BKN006 OVC040 05/04 A2981 RMK FG2SF5SC1 SLP100

CYOW;2009-02-11 13:49;CYOW 111349Z 20008G16KT 2SM BR BKN004 BKN041 OVC200 05/ RMK FG2SF2SC2CI1

CYOW;2009-02-11 14:00;CYOW 111400Z 20011KT 2SM BR BKN004 BKN041 OVC200 05/05 A2981 RMK FG2SF2SC2CI1 SLP100

CYOW;2009-02-11 14:32;CYOW 111432Z 20010KT 4SM BR SCT004 BKN039 06/ RMK SF3SC4

CYOW;2009-02-11 15:00;CYOW 111500Z 20007KT 4SM BR SCT004 BKN039 06/05 A2979 RMK SF2SC5 SLP094

CYOW;2009-02-11 16:00;CYOW 111600Z 20004KT 6SM BR FEW004 BKN041 OVC210 06/05 A2977 RMK SF2SC4CI1 SLP087

CYOW;2009-02-11 17:00;CYOW 111700Z 21005KT 7SM SCT008 BKN031 OVC210 07/05 A2976 RMK SF3SC3CI1 SLP084

CYOW;2009-02-11 17:33;CYOW 111733Z 20005KT 8SM BKN008 OVC031 07/ RMK SF5SC3

CYOW;2009-02-11 18:00;CYOW 111800Z 22003KT 10SM BKN010 OVC031 08/05 A2976 RMK SF6SC2 SLP081

CYOW;2009-02-11 19:00;CYOW 111900Z CCA 21004KT 8SM BKN010 BKN030 OVC120 08/05 A2968 RMK SF5SC2AS2 PRESFR SLP057

CYOW;2009-02-11 20:00;CYOW 112000Z 22002KT 10SM BKN010 OVC120 08/06 A2969 RMK SC6AS2 SLP060

CYOW;2009-02-11 20:32;CYOW 112032Z 00000KT 7SM -RA BKN011 OVC075 07/ RMK SC6AS2

CYOW;2009-02-11 21:00;CYOW 112100Z 18005KT 7SM -RA BKN012 OVC070 07/06 A2967 RMK SC6AS2 SLP051

CYOW;2009-02-11 21:45;CYOW 112145Z 00000KT 4SM -RA BR BKN008 OVC060 06/ RMK ST6NS2

CYOW;2009-02-11 22:00;CYOW 112200Z 00000KT 3SM -RA BR BKN008 OVC060 06/06 A2963 RMK FG1ST6NS2 SLP040

CYOW;2009-02-11 22:18;CYOW 112218Z 14003KT 1SM R07/P6000FT/D R32/P6000FT/U -RA BR OVC006 04/ RMK FG6ST2 VIS NW-N 1/2

CYOW;2009-02-11 22:24;CYOW 112224Z 13003KT 1/2SM R07/P6000FT/U R32/2600VP6000FT/D -RA FG OVC006 04/ RMK FG7ST1

CYOW;2009-02-11 22:38;CYOW 112238Z 12002KT 2SM BR OVC006 06/ RMK FG4ST4 INTMT -RA

CYOW;2009-02-11 23:00;CYOW 112300Z 16005KT 1 1/2SM -RA BR OVC004 04/03 A2960 RMK FG4ST4 SLP029

CYOW;2009-02-11 23:11;CYOW 112311Z 14003KT 3/4SM R07/2600FT/N R32/2400FT/N -RA BR OVC002 05/ RMK FG6ST2

CYOW;2009-02-11 23:27;CYOW 112327Z CCA 12003KT 1/2SM R07/2000FT/N R32/1600V2200FT/N -RA FG VV001 04/ RMK FG8

CYOW;2009-02-12 00:00;CYOW 120000Z 11006KT 0SM R07/1400FT/N R32/1200V1800FT/N -RA FG VV000 03/03 A2956 RMK FG8 SLP013

CYOW;2009-02-12 01:00;CYOW 120100Z 13004KT 1/8SM R07/1100FT/N R32/1400FT/N -RA FG VV001 04/04 A2951 RMK FG8 SLP998

CYOW;2009-02-12 02:00;CYOW 120200Z 05007KT 1/4SM R07/1400FT/N R32/1800V2400FT/N -RA FG VV001 04/04 A2947 RMK FG8 SLP983

CYOW;2009-02-12 03:00;CYOW 120300Z 06009KT 1/8SM R07/1200FT/N R32/1600FT/N -RA FG VV001 04/04 A2941 RMK FG8 PRESFR SLP964

CYOW;2009-02-12 04:00;CYOW 120400Z 05010KT 1/4SM R07/1200FT/N R32/1600FT/N FG VV001 04/04 A2935 RMK FG8 INTMT -RA PRESFR SLP942

CYOW;2009-02-12 05:00;CYOW 120500Z 07012KT 1/4SM R07/1400FT/N R32/1800FT/N -RA FG VV001 04/04 A2931 RMK FG8 SLP928

CYOW;2009-02-12 05:37;CYOW 120537Z 08008KT 3/4SM R07/2800V4500FT/U R32/3500VP6000FT/U -RA BR VV001 03/ RMK FG8

CYOW;2009-02-12 06:00;CYOW 120600Z 06011KT 1 1/2SM -RA BR OVC007 04/03 A2926 RMK FG2NS6 PRESFR SLP912

CYOW;2009-02-12 06:37;CYOW 120637Z 06013KT 1 1/2SM -RA BR OVC002 04/ RMK FG2NS6

CYOW;2009-02-12 07:00;CYOW 120700Z 07014KT 1 1/2SM -RA BR OVC002 03/03 A2919 RMK FG2NS6 SLP887

CYOW;2009-02-12 08:00;CYOW 120800Z 07011KT 1 1/2SM RA BR OVC002 03/03 A2914 RMK FG1NS7 SLP871

CYOW;2009-02-12 09:00;CYOW 120900Z 07013KT 3SM -RA BR OVC002 03/02 A2911 RERA RMK NS8 /R10 SLP859

CYOW;2009-02-12 10:00;CYOW 121000Z 07013G18KT 4SM -RA BR FEW002 OVC009 03/02 A2910 RMK SF2SC6 SLP856

CYOW;2009-02-12 10:27;CYOW 121027Z 07007KT 2SM -RA BR OVC002 02/ RMK FG1NS7

CYOW;2009-02-12 11:00;CYOW 121100Z 07006KT 3SM -RA BR OVC002 03/02 A2908 RMK FG1NS7 SLP851

CYOW;2009-02-12 11:44;CYOW 121144Z 05005KT 3SM -RA BR BKN002 OVC006 03/ RMK SF3NS5

CYOW;2009-02-12 12:00;CYOW 121200Z 05006KT 3SM -RA BR BKN002 OVC006 03/02 A2907 RMK SF3NS5 SLP849

CYOW;2009-02-12 12:19;CYOW 121219Z 05005KT 1 1/2SM -RA BR BKN002 OVC007 02/ RMK FG4ST2NS2

CYOW;2009-02-12 12:28;CYOW 121228Z 04005KT 1SM R07/P6000FT/U R32/P6000FT/D -RA BR OVC002 02/ RMK FG5ST3

CYOW;2009-02-12 12:47;CYOW 121247Z 03005KT 1/2SM R07/P6000FT/U R32/P6000FT/D -RA FG VV002 02/ RMK FG8

CYOW;2009-02-12 13:00;CYOW 121300Z 02005KT 3/8SM R07/4000VP6000FT/D R32/P6000FT/D -RA FG VV002 02/02 A2908 RMK FG8 SLP852

CYOW;2009-02-12 14:00;CYOW 121400Z 02004KT 3/4SM R07/P6000FT/U R32/P6000FT/D -RA BR VV002 03/02 A2909 RMK FG8 SLP856

CYOW;2009-02-12 15:00;CYOW 121500Z 35004KT 1 1/2SM -RA BR OVC003 03/03 A2911 RMK FG3ST5 SLP860

CYOW;2009-02-12 15:32;CYOW 121532Z 31004KT 3/8SM R07/3000FT/N R32/2600FT/N -RA FG OVC004 03/ RMK FG7ST1

CYOW;2009-02-12 15:44;CYOW 121544Z 32005KT 2SM -RA BR OVC004 03/ RMK FG2ST6

CYOW;2009-02-12 16:00;CYOW 121600Z 31007KT 3SM -RA BR OVC004 03/03 A2913 RMK SF8 SLP869

CYOW;2009-02-12 16:18;CYOW 121618Z 34008KT 5SM -RA BR BKN006 OVC015 03/ RMK SF6NS2

CYOW;2009-02-12 17:00;CYOW 121700Z 34010KT 10SM -RA SCT008 OVC015 03/03 A2915 RMK SF4NS4 SLP876

CYOW;2009-02-12 18:00;CYOW 121800Z 33010G15KT 12SM -RA BKN013 OVC021 03/02 A2919 RMK SC5NS3 SLP888

CYOW;2009-02-12 19:00;CYOW 121900Z 32012KT 12SM -RA OVC014 02/01 A2923 RMK NS8 SLP903

CYOW;2009-02-12 20:00;CYOW 122000Z 32015KT 12SM -RA OVC016 03/01 A2930 RMK NS8 PRESRR SLP924

CYOW;2009-02-12 21:00;CYOW 122100Z 30014KT 5SM -RA BR OVC015 02/01 A2936 RMK NS8 PRESRR SLP945

CYOW;2009-02-12 22:00;CYOW 122200Z 32020G26KT 10SM -RA OVC016 02/M01 A2942 RMK NS8 PRESRR SLP965

CYOW;2009-02-12 22:17;CYOW 122217Z 32021G27KT 10SM -SN OVC020 01/ RMK NS8

CYOW;2009-02-12 23:00;CYOW 122300Z 32020G25KT 15SM -SN BKN020 OVC045 01/M02 A2948 RMK SC6SC2 PRESRR SLP986

CYOW;2009-02-13 00:00;CYOW 130000Z 30017G22KT 15SM -SN BKN022 M00/M04 A2953 RMK SC7 SLP006

CYOW;2009-02-13 00:44;CYOW 130044Z 34018KT 15SM SCT030 OVC120 M01/ RMK SC3AC5

CYOW;2009-02-13 01:00;CYOW 130100Z 32023KT 15SM FEW030 OVC130 M01/M09 A2957 RMK SC2AC6 SLP018

CYOW;2009-02-13 02:00;CYOW 130200Z 34019G27KT 15SM FEW030 BKN150 M03/M10 A2962 RMK SC2AC4 SLP035

CYOW;2009-02-13 03:00;CYOW 130300Z 32019G25KT 15SM FEW130 BKN160 M05/M13 A2967 RMK AC1AC3 SLP052

CYOW;2009-02-13 04:00;CYOW 130400Z 33017G24KT 15SM OVC160 M05/M13 A2971 RMK AC8 MOON VISBL SLP065

CYOW;2009-02-13 05:00;CYOW 130500Z 33015KT 15SM OVC160 M06/M14 A2975 RMK AC6 SLP079

CYOW;2009-02-13 06:00;CYOW 130600Z 33018KT 15SM OVC170 M07/M14 A2979 RMK AC8 MOON VISBL PRESRR SLP094

CYOW;2009-02-13 07:00;CYOW 130700Z 34012KT 15SM FEW160 BKN200 M08/M14 A2982 RMK AC2CS0 SLP106

CYOW;2009-02-13 08:00;CYOW 130800Z 31016KT 15SM OVC200 M09/M15 A2985 RMK CS2 SLP116

CYOW;2009-02-13 09:00;CYOW 130900Z 33011G18KT 15SM FEW180 OVC240 M10/M16 A2988 RMK AC2CS0 SLP127

CYOW;2009-02-13 10:00;CYOW 131000Z 31015KT 15SM BKN160 OVC240 M11/M17 A2991 RMK AC5CS0 SLP137

CYOW;2009-02-13 11:00;CYOW 131100Z 31016KT 15SM OVC180 M11/M16 A2994 RMK AC8 MOON VISBL SLP146

CYOW;2009-02-13 12:00;CYOW 131200Z 32013KT 15SM BKN180 M12/M17 A2996 RMK AC6 SLP155

CYOW;2009-02-13 13:00;CYOW 131300Z 34013KT 15SM FEW020 BKN180 M12/M17 A2999 RMK CF1AS3 SLP163

CYOW;2009-02-13 14:00;CYOW 131400Z 34010G15KT 15SM FEW020 BKN180 M12/M17 A3001 RMK CF1AS2 SLP170

CYOW;2009-02-13 15:00;CYOW 131500Z 34013KT 15SM FEW030 BKN210 M12/M17 A3002 RMK SC1CI2 SLP173

CYOW;2009-02-13 16:00;CYOW 131600Z 30010KT 15SM BKN210 M12/M17 A3002 RMK CI2 SLP176

CYOW;2009-02-13 17:00;CYOW 131700Z 29009KT 20SM SCT220 M11/M16 A3003 RMK CI2 SLP177

CYOW;2009-02-13 18:00;CYOW 131800Z 29010KT 20SM FEW220 M10/M16 A3002 RMK CI1 SLP176

CYOW;2009-02-13 19:00;CYOW 131900Z 29007KT 20SM FEW220 M09/M16 A3002 RMK CI1 SLP174

CYOW;2009-02-13 20:00;CYOW 132000Z 27011KT 20SM FEW220 M08/M15 A3001 RMK CI1 SLP172

CYOW;2009-02-13 21:00;CYOW 132100Z 26014KT 20SM FEW220 M07/M15 A3002 RMK CI1 SLP174

CYOW;2009-02-13 22:00;CYOW 132200Z 27011KT 20SM SKC M08/M15 A3002 RMK SLP174

CYOW;2009-02-13 23:00;CYOW 132300Z 27010KT 15SM SKC M08/M15 A3002 RMK SLP173

CYOW;2009-02-14 00:00;CYOW 140000Z 27011KT 15SM SKC M08/M14 A3001 RMK SLP170

CYOW;2009-02-14 01:00;CYOW 140100Z 30010KT 15SM SKC M08/M15 A3001 RMK SLP170

CYOW;2009-02-14 02:00;CYOW 140200Z 29014KT 15SM SKC M08/M15 A3000 RMK SLP169

CYOW;2009-02-14 03:00;CYOW 140300Z 30013KT 15SM SKC M08/M15 A3000 RMK SLP169

CYOW;2009-02-14 04:00;CYOW 140400Z 30009G15KT 15SM SKC M09/M15 A2999 RMK SLP166

CYOW;2009-02-14 05:00;CYOW 140500Z 29007KT 15SM SKC M10/M16 A3000 RMK SLP168

CYOW;2009-02-14 06:00;CYOW 140600Z 30010KT 15SM SKC M10/M16 A2999 RMK SLP165

CYOW;2009-02-14 07:00;CYOW 140700Z 30010KT 15SM SKC M11/M16 A2999 RMK SLP166

CYOW;2009-02-14 08:00;CYOW 140800Z 30013KT 15SM SKC M12/M16 A2999 RMK SLP165

CYOW;2009-02-14 09:00;CYOW 140900Z CCA 28010KT 15SM SKC M12/M16 A2999 RMK SLP166

CYOW;2009-02-14 10:00;CYOW 141000Z 30010G16KT 15SM SKC M12/M16 A2999 RMK SLP165

CYOW;2009-02-14 11:00;CYOW 141100Z 28009KT 15SM SKC M13/M16 A3000 RMK SLP167

CYOW;2009-02-14 12:00;CYOW 141200Z 27009KT 15SM SKC M13/M16 A2999 RMK SLP166

CYOW;2009-02-14 13:00;CYOW 141300Z 29011KT 20SM SKC M13/M16 A2999 RMK SLP164

CYOW;2009-02-14 14:00;CYOW 141400Z 29012KT 20SM FEW240 M12/M16 A2999 RMK CI1 SLP163

CYOW;2009-02-14 15:00;CYOW 141500Z 28011KT 20SM FEW100 FEW240 M11/M15 A2999 RMK AC1CI1 SLP163

CYOW;2009-02-14 16:00;CYOW 141600Z 30009KT 20SM FEW240 M10/M15 A2998 RMK CI1 SLP160

CYOW;2009-02-14 17:00;CYOW 141700Z 27008KT 20SM FEW240 M08/M14 A2996 RMK CI1 SLP154

CYOW;2009-02-14 18:00;CYOW 141800Z 27009KT 20SM FEW240 M07/M13 A2994 RMK CI1 SLP146

CYOW;2009-02-14 19:00;CYOW 141900Z 27013KT 20SM FEW240 M06/M12 A2992 RMK CI0 SLP140

CYOW;2009-02-14 20:00;CYOW 142000Z 28009KT 20SM FEW240 M05/M13 A2991 RMK CI0 SLP138

CYOW;2009-02-14 21:00;CYOW 142100Z 28011KT 20SM FEW240 M04/M12 A2991 RMK CI1 SLP137

CYOW;2009-02-14 22:00;CYOW 142200Z 26008KT 20SM FEW240 M05/M12 A2992 RMK CI1 SLP141

CYOW;2009-02-14 23:00;CYOW 142300Z 27009KT 15SM FEW240 M05/M12 A2993 RMK CI1 SLP143

CYOW;2009-02-15 00:00;CYOW 150000Z 28008KT 15SM FEW240 M05/M13 A2994 RMK CI1 SLP149

CYOW;2009-02-15 01:00;CYOW 150100Z 29010KT 15SM SKC M06/M13 A2995 RMK SLP151

CYOW;2009-02-15 02:00;CYOW 150200Z 32008KT 15SM SKC M07/M13 A2996 RMK SLP154

CYOW;2009-02-15 03:00;CYOW 150300Z 31010KT 15SM SKC M06/M13 A2996 RMK SLP155

CYOW;2009-02-15 04:00;CYOW 150400Z 31009KT 15SM SKC M07/M13 A2998 RMK SLP160

CYOW;2009-02-15 05:00;CYOW 150500Z 26006KT 15SM SKC M08/M13 A2999 RMK SLP165

CYOW;2009-02-15 06:00;CYOW 150600Z 28007KT 15SM SKC M08/M14 A2999 RMK SLP164

CYOW;2009-02-15 07:00;CYOW 150700Z 30006KT 15SM SKC M09/M14 A3000 RMK SLP168

CYOW;2009-02-15 08:00;CYOW 150800Z 29005KT 15SM SKC M09/M14 A3001 RMK SLP171

CYOW;2009-02-15 09:00;CYOW 150900Z 30007KT 15SM SKC M10/M14 A3003 RMK SLP176

CYOW;2009-02-15 10:00;CYOW 151000Z 30007KT 15SM SKC M11/M15 A3004 RMK SLP180

CYOW;2009-02-15 11:00;CYOW 151100Z 30006KT 15SM SKC M11/M15 A3006 RMK SLP186

CYOW;2009-02-15 12:00;CYOW 151200Z 30006KT 15SM SKC M12/M15 A3006 RMK SLP189

CYOW;2009-02-15 13:00;CYOW 151300Z 31007KT 20SM FEW100 M11/M15 A3009 RMK AC1 SLP198

CYOW;2009-02-15 14:00;CYOW 151400Z 30006KT 20SM FEW100 M11/M14 A3010 RMK AC1 SLP202

CYOW;2009-02-15 15:00;CYOW 151500Z 30006KT 20SM SKC M09/M14 A3012 RMK SLP207

CYOW;2009-02-15 16:00;CYOW 151600Z 28006KT 20SM SKC M09/M14 A3013 RMK SLP211

CYOW;2009-02-15 17:00;CYOW 151700Z 29008KT 20SM FEW240 M08/M13 A3012 RMK CI1 SLP209

CYOW;2009-02-15 18:00;CYOW 151800Z 31010KT 20SM FEW240 M07/M13 A3012 RMK CI1 SLP207

CYOW;2009-02-15 19:00;CYOW 151900Z 30007KT 20SM FEW240 M06/M12 A3011 RMK CI0 SLP204

CYOW;2009-02-15 20:00;CYOW 152000Z 28007KT 20SM FEW240 M05/M12 A3011 RMK CI1 SLP205

CYOW;2009-02-15 21:00;CYOW 152100Z 27008KT 20SM FEW240 M05/M12 A3012 RMK CI1 SLP207

CYOW;2009-02-15 22:00;CYOW 152200Z 27007KT 20SM FEW240 M05/M11 A3012 RMK CI1 SLP208

CYOW;2009-02-15 23:00;CYOW 152300Z 26006KT 15SM FEW240 M06/M11 A3014 RMK CI1 SLP214

CYOW;2009-02-16 00:00;CYOW 160000Z 27004KT 15SM SKC M06/M12 A3015 RMK SLP219

CYOW;2009-02-16 01:00;CYOW 160100Z 26003KT 15SM SKC M06/M12 A3016 RMK SLP221

CYOW;2009-02-16 02:00;CYOW 160200Z 28004KT 15SM SKC M06/M12 A3015 RMK SLP220

CYOW;2009-02-16 03:00;CYOW 160300Z 26004KT 15SM SKC M07/M11 A3016 RMK SLP221

CYOW;2009-02-16 04:00;CYOW 160400Z 28004KT 15SM SKC M08/M12 A3016 RMK SLP222

CYOW;2009-02-16 05:00;CYOW 160500Z 32005KT 15SM SKC M09/M12 A3017 RMK FROIN SLP224

CYOW;2009-02-16 06:00;CYOW 160600Z 33006KT 15SM SKC M09/M13 A3018 RMK SLP228

CYOW;2009-02-16 07:00;CYOW 160700Z 33007KT 15SM SKC M09/M13 A3019 RMK FROIN SLP233

CYOW;2009-02-16 08:00;CYOW 160800Z 33008KT 15SM SKC M10/M14 A3019 RMK FROIN SLP232

CYOW;2009-02-16 09:00;CYOW 160900Z 31004KT 15SM SKC M11/M14 A3019 RMK FROIN SLP233

CYOW;2009-02-16 10:00;CYOW 161000Z 29005KT 15SM FEW021 M11/M14 A3020 RMK SC2 SLP236

CYOW;2009-02-16 11:00;CYOW 161100Z 29006KT 15SM BKN021 M11/M14 A3021 RMK SC6 FROIN SLP237

CYOW;2009-02-16 12:00;CYOW 161200Z 27006KT 15SM FEW020 M12/M14 A3022 RMK SC2 FROIN SLP242

CYOW;2009-02-16 13:00;CYOW 161300Z 29006KT 15SM FEW020 M11/M14 A3022 RMK SC2 SLP244

CYOW;2009-02-16 14:00;CYOW 161400Z 30006KT 15SM FEW020 M10/M14 A3024 RMK SC2 SLP248

CYOW;2009-02-16 15:00;CYOW 161500Z 29005KT 15SM FEW020 M08/M13 A3024 RMK SC2 SLP250

CYOW;2009-02-16 16:00;CYOW 161600Z 30004KT 15SM FEW020 M07/M12 A3025 RMK SC1 SLP251

CYOW;2009-02-16 17:00;CYOW 161700Z 29003KT 15SM FEW020 M05/M12 A3025 RMK SC1 SLP252

CYOW;2009-02-16 18:00;CYOW 161800Z 30003KT 15SM FEW020 M04/M11 A3023 RMK SC2 SLP244

CYOW;2009-02-16 19:00;CYOW 161900Z 33005KT 15SM FEW030 M03/M10 A3022 RMK SC2 SLP243

CYOW;2009-02-16 20:00;CYOW 162000Z 30009KT 15SM FEW030 M02/M10 A3023 RMK SC2 SLP244

CYOW;2009-02-16 21:00;CYOW 162100Z 29007KT 15SM FEW030 M03/M11 A3023 RMK SC1 SLP246

CYOW;2009-02-16 22:00;CYOW 162200Z 27009KT 15SM FEW040 FEW240 M03/M12 A3025 RMK SC1CI0 SLP250

CYOW;2009-02-16 23:00;CYOW 162300Z 26007KT 15SM FEW240 M05/M13 A3026 RMK CI1 SLP256

CYOW;2009-02-17 00:00;CYOW 170000Z 26005KT 15SM FEW240 M06/M13 A3026 RMK CI0 SLP256

CYOW;2009-02-17 01:00;CYOW 170100Z 27004KT 15SM SKC M06/M14 A3026 RMK SLP256

CYOW;2009-02-17 02:00;CYOW 170200Z 25004KT 15SM SKC M06/M14 A3026 RMK SLP256

CYOW;2009-02-17 03:00;CYOW 170300Z 24003KT 15SM SKC M07/M14 A3025 RMK SLP254

CYOW;2009-02-17 04:00;CYOW 170400Z 27003KT 15SM FEW240 M07/M14 A3025 RMK CI0 SLP252

CYOW;2009-02-17 05:00;CYOW 170500Z 31004KT 15SM FEW240 M08/M13 A3025 RMK CI2 SLP252

CYOW;2009-02-17 06:00;CYOW 170600Z 27003KT 15SM FEW240 M09/M14 A3025 RMK CI1 SLP251

CYOW;2009-02-17 07:00;CYOW 170700Z 30004KT 15SM FEW240 M10/M14 A3025 RMK CI2 SLP253

CYOW;2009-02-17 08:00;CYOW 170800Z 29004KT 15SM FEW170 FEW240 M10/M14 A3026 RMK AC1CI0 SLP255

CYOW;2009-02-17 09:00;CYOW 170900Z 29003KT 15SM SCT150 M10/M14 A3025 RMK AC2 SLP253

CYOW;2009-02-17 10:00;CYOW 171000Z 27002KT 15SM FEW170 M10/M14 A3025 RMK AC1 SLP252

CYOW;2009-02-17 11:00;CYOW 171100Z 27003KT 15SM FEW150 FEW170 M11/M14 A3026 RMK AC1AC0 SLP254

CYOW;2009-02-17 12:00;CYOW 171200Z 25002KT 15SM SCT250 M11/M14 A3026 RMK CI2 SLP257

CYOW;2009-02-17 13:00;CYOW 171300Z 00000KT 15SM SCT230 M11/M14 A3027 RMK CI2 SLP258

CYOW;2009-02-17 14:00;CYOW 171400Z 00000KT 15SM FEW230 M09/M13 A3026 RMK CI1 SLP255

CYOW;2009-02-17 15:00;CYOW 171500Z 00000KT 15SM FEW230 M06/M13 A3024 RMK CI1 SLP249

CYOW;2009-02-17 16:00;CYOW 171600Z 21004KT 15SM FEW230 M04/M12 A3023 RMK CI1 SLP245

CYOW;2009-02-17 17:00;CYOW 171700Z 16005KT 15SM FEW230 M02/M12 A3021 RMK CI1 SLP238

CYOW;2009-02-17 18:00;CYOW 171800Z 21005KT 15SM FEW230 M01/M12 A3019 RMK CI1 SLP229

CYOW;2009-02-17 19:00;CYOW 171900Z 18006KT 15SM BKN230 M00/M11 A3015 RMK CI1 SLP218

CYOW;2009-02-17 20:00;CYOW 172000Z 19006KT 15SM BKN230 M00/M11 A3014 RMK CI2 SLP213

CYOW;2009-02-17 21:00;CYOW 172100Z 18006KT 15SM FEW170 BKN230 M00/M11 A3012 RMK AC1CI2 SLP208

CYOW;2009-02-17 22:00;CYOW 172200Z 20006KT 15SM SCT160 BKN230 M01/M11 A3012 RMK AC2CI2 SLP206

CYOW;2009-02-17 23:00;CYOW 172300Z 18003KT 15SM SCT120 BKN170 BKN230 M02/M10 A3011 RMK AC1AS3CI2 SLP203

CYOW;2009-02-18 00:00;CYOW 180000Z 19007KT 15SM FEW150 BKN230 M02/M08 A3011 RMK AS2CI3 SLP204

CYOW;2009-02-18 01:00;CYOW 180100Z 18004KT 15SM BKN080 OVC230 M03/M08 A3010 RMK AC6CI1 SLP202

CYOW;2009-02-18 02:00;CYOW 180200Z 17005KT 15SM SCT080 OVC110 M04/M08 A3009 RMK AC3AC2 SLP199

CYOW;2009-02-18 03:00;CYOW 180300Z 16004KT 15SM FEW080 OVC140 M04/M08 A3008 RMK AC2AC3 SLP193

CYOW;2009-02-18 04:00;CYOW 180400Z 15003KT 15SM OVC130 M04/M08 A3006 RMK AC8 SLP188

CYOW;2009-02-18 05:00;CYOW 180500Z 12004KT 15SM FEW130 M06/M09 A3005 RMK AC2 SLP183

CYOW;2009-02-18 06:00;CYOW 180600Z 09005KT 15SM SKC M06/M08 A3004 RMK SLP180

CYOW;2009-02-18 07:00;CYOW 180700Z 09006KT 15SM FEW160 M06/M09 A3001 RMK AC1 SLP170

CYOW;2009-02-18 08:00;CYOW 180800Z 09008KT 15SM FEW150 M07/M09 A2997 RMK AC2 SLP156

CYOW;2009-02-18 09:00;CYOW 180900Z 09008KT 15SM SKC M07/M10 A2994 RMK SLP146

CYOW;2009-02-18 10:00;CYOW 181000Z 08009KT 15SM SCT180 M07/M10 A2992 RMK AC3 FROIN SLP139

CYOW;2009-02-18 11:00;CYOW 181100Z 08007KT 15SM FEW160 M07/M11 A2989 RMK AC1 FROIN SLP129

CYOW;2009-02-18 12:00;CYOW 181200Z 09009KT 15SM BKN140 BKN200 M07/M11 A2986 RMK AS3CI2 SLP119

CYOW;2009-02-18 13:00;CYOW 181300Z 09011KT 15SM FEW090 BKN160 OVC200 M06/M10 A2982 RMK AC1AS5CI2 SLP106

CYOW;2009-02-18 14:00;CYOW 181400Z 09010KT 15SM SCT100 OVC160 M06/M10 A2980 RMK AC4AS3 SLP098

CYOW;2009-02-18 15:00;CYOW 181500Z 09010KT 15SM BKN090 OVC160 M05/M10 A2978 RMK AC7AS1 SLP090

CYOW;2009-02-18 16:00;CYOW 181600Z 09010KT 15SM OVC085 M04/M09 A2975 RMK AS8 SLP081

CYOW;2009-02-18 17:00;CYOW 181700Z 09012KT 15SM OVC095 M03/M09 A2969 RMK AS8 SLP062

CYOW;2009-02-18 18:00;CYOW 181800Z 09013G18KT 15SM FEW070 OVC085 M02/M08 A2964 RMK AC2AS6 SLP044

CYOW;2009-02-18 19:00;CYOW 181900Z 08015G20KT 15SM FEW065 OVC088 M01/M08 A2959 RMK SC2AS6 SLP026

CYOW;2009-02-18 19:42;CYOW 181942Z 10011KT 15SM -SN BKN050 OVC080 M01/ RMK SC5AS3

CYOW;2009-02-18 20:00;CYOW 182000Z 11011KT 4SM -SN SCT026 OVC050 M01/M06 A2957 RMK SC3SC5 SLP022

CYOW;2009-02-18 20:05;CYOW 182005Z 10011KT 3/4SM R07/P6000FT/D R32/P6000FT/D -SN OVC022 M02/ RMK SN6SC2

CYOW;2009-02-18 20:45;CYOW 182045Z 08008KT 3/4SM R07/5500FT/N R32/6000FT/N -SN OVC013 M02/ RMK SN6SC2

CYOW;2009-02-18 21:00;CYOW 182100Z 07009KT 3/4SM R07/5000FT/U R32/5000FT/N -SN OVC013 M02/M03 A2955 RMK SN6SC2 /S01/ SLP012

CYOW;2009-02-18 21:18;CYOW 182118Z 08009KT 1 1/2SM -SN BKN007 OVC012 M02/ RMK SN3SF2SC2

CYOW;2009-02-18 22:00;CYOW 182200Z 11013KT 1SM R07/P6000FT/N R32/P6000FT/U -SN OVC009 M01/M01 A2952 RMK SN4SF4 SLP004

CYOW;2009-02-18 22:32;CYOW 182232Z 09014KT 2SM -SN DRSN OVC010 M01/ RMK SN2SF6

CYOW;2009-02-18 23:00;CYOW 182300Z 10016KT 4SM -SN DRSN BKN009 OVC015 M01/M02 A2950 RMK SF5SC3 /S02/ SLP997

CYOW;2009-02-18 23:22;CYOW 182322Z 11013KT 5SM -SNPL DRSN SCT009 BKN015 OVC033 M01/ RMK SF4SC2SC2

CYOW;2009-02-19 00:00;CYOW 190000Z 10002KT 5SM -SNPL SCT009 OVC027 M01/M02 A2948 RMK SF3NS5 SLP991

CYOW;2009-02-19 01:00;CYOW 190100Z 10011KT 4SM -SNPL BKN007 OVC030 M01/M02 A2946 RMK SF6NS2 SLP984

CYOW;2009-02-19 02:00;CYOW 190200Z 10012KT 8SM -SN OVC007 M01/M02 A2943 RMK SF8 SLP974

CYOW;2009-02-19 03:00;CYOW 190300Z 08011KT 6SM -SN BKN006 OVC026 M01/M02 A2941 RMK SF6NS2 /SO1/ SLP966

CYOW;2009-02-19 04:00;CYOW 190400Z 09011KT 8SM -SN DRSN BKN006 OVC020 M01/M02 A2938 RMK SF6NS2 SLP955

CYOW;2009-02-19 05:00;CYOW 190500Z 09012KT 5SM -SN DRSN BKN005 OVC020 M01/M02 A2936 RMK SF6SC2 SLP948

CYOW;2009-02-19 06:00;CYOW 190600Z 09012KT 3SM -SN DRSN BKN006 OVC020 M01/M02 A2933 RMK SF5NS3 /SO2/ SLP939

CYOW;2009-02-19 07:00;CYOW 190700Z 08010KT 3SM -SN DRSN OVC005 M01/M02 A2931 RMK SF8 SLP932

CYOW;2009-02-19 08:00;CYOW 190800Z 09011KT 3SM -SN DRSN OVC005 M01/M02 A2929 RMK SF8 SLP924

CYOW;2009-02-19 09:00;CYOW 190900Z 09009KT 3SM -SN DRSN OVC004 M01/M02 A2927 RMK SF8 /S01/ SLP918

CYOW;2009-02-19 10:00;CYOW 191000Z 09009KT 3SM -SN DRSN OVC004 M01/M02 A2926 RMK SF8 SLP914

CYOW;2009-02-19 11:00;CYOW 191100Z 09008KT 3SM -SN DRSN OVC004 M01/M01 A2925 RMK SF8 SLP911

CYOW;2009-02-19 12:00;CYOW 191200Z 10005KT 3SM -SN OVC004 M01/M01 A2925 RMK SF8 /S02/ SLP909

CYOW;2009-02-19 12:17;CYOW 191217Z 11004KT 2SM -SN OVC004 M01/ RMK SN3SF5

CYOW;2009-02-19 13:00;CYOW 191300Z 09004KT 2SM -SN OVC004 M01/M01 A2924 RMK SN3SF5 SLP908

CYOW;2009-02-19 14:00;CYOW 191400Z 17004KT 2SM -SN OVC004 00/M00 A2924 RMK SN3SF5 /S01/ SLP908

CYOW;2009-02-19 14:29;CYOW 191429Z 21006KT 3SM -SN OVC004 00/ RMK SN2SF6

CYOW;2009-02-19 15:00;CYOW 191500Z 22007KT 3SM -SN OVC006 01/M00 A2925 RMK SN2SF6 SLP909

CYOW;2009-02-19 15:17;CYOW 191517Z 22007KT 7SM -SN BKN008 OVC020 01/ RMK SF6SC2

CYOW;2009-02-19 16:00;CYOW 191600Z 21007KT 10SM -SN BKN010 OVC017 01/M00 A2926 RMK SF6SC2 SLP913

CYOW;2009-02-19 17:00;CYOW 191700Z 23011KT 12SM -SN OVC012 01/M01 A2925 RMK SC8 SLP912

CYOW;2009-02-19 17:20;CYOW 191720Z 23012G17KT 15SM OVC012 01/ RMK SC8

CYOW;2009-02-19 18:00;CYOW 191800Z 23015KT 15SM OVC014 00/M03 A2926 RMK SC8 SLP915

CYOW;2009-02-19 18:32;CYOW 191832Z 24014G20KT 15SM OVC018 M00/ RMK SC8

CYOW;2009-02-19 18:48;CYOW 191848Z 23016KT 8SM -SN OVC018 M00/ RMK SC8

CYOW;2009-02-19 19:00;CYOW 191900Z 23013G20KT 12SM -SN OVC018 M01/M05 A2928 RMK SC8 SLP922

CYOW;2009-02-19 20:00;CYOW 192000Z 23014G20KT 8SM -SN OVC020 M01/M05 A2931 RMK SC8 SLP930

CYOW;2009-02-19 21:00;CYOW 192100Z 23015KT 12SM -SN OVC025 M02/M07 A2933 RMK SC8 SLP939

CYOW;2009-02-19 21:22;CYOW 192122Z 23015G21KT 15SM OVC027 M03/ RMK SC8

CYOW;2009-02-19 22:00;CYOW 192200Z 23012KT 15SM OVC034 M03/M08 A2936 RMK SC8 SLP949

CYOW;2009-02-19 23:00;CYOW 192300Z 24014G19KT 15SM OVC035 M04/M10 A2939 RMK SC8 SLP957

CYOW;2009-02-19 23:33;CYOW 192333Z 24011KT 15SM -SN OVC037 M05/ RMK SC8

CYOW;2009-02-20 00:00;CYOW 200000Z 24015G20KT 15SM -SN OVC040 M05/M10 A2942 RMK SC8 SLP968

CYOW;2009-02-20 01:00;CYOW 200100Z 25014G19KT 15SM -SN OVC042 M06/M11 A2943 RMK SC8 SLP973

CYOW;2009-02-20 01:20;CYOW 200120Z 29012KT 3SM -SN OVC017 M08/ RMK SC8

CYOW;2009-02-20 02:00;CYOW 200200Z 29013KT 3SM -SN OVC028 M09/M12 A2945 RMK SC8 SLP980

CYOW;2009-02-20 03:00;CYOW 200300Z 28012G18KT 10SM -SN OVC037 M10/M15 A2947 RMK SC8 SLP985

CYOW;2009-02-20 03:35;CYOW 200335Z 28015KT 12SM OVC034 M11/ RMK SC8

CYOW;2009-02-20 04:00;CYOW 200400Z 27012KT 12SM OVC037 M11/M16 A2947 RMK SC8 SLP986

CYOW;2009-02-20 05:00;CYOW 200500Z 28011KT 12SM OVC035 M12/M17 A2947 RMK SC8 SLP985

CYOW;2009-02-20 06:00;CYOW 200600Z 27010KT 15SM FEW035 M13/M17 A2947 RMK SC1 SLP986

CYOW;2009-02-20 07:00;CYOW 200700Z 27009KT 15SM FEW020 M13/M17 A2948 RMK SC1 SLP988

CYOW;2009-02-20 08:00;CYOW 200800Z 25007KT 15SM FEW025 M14/M17 A2948 RMK SC1 SLP989

CYOW;2009-02-20 09:00;CYOW 200900Z CCA 25006KT 15SM SKC M14/M18 A2948 RMK SLP989

CYOW;2009-02-20 10:00;CYOW 201000Z 25008KT 15SM SKC M15/M18 A2948 RMK FROIN SLP990

CYOW;2009-02-20 11:00;CYOW 201100Z 24010KT 15SM SCT045 M15/M18 A2947 RMK SC4 FROIN SLP988

CYOW;2009-02-20 12:00;CYOW 201200Z 25010KT 15SM BKN044 BKN120 M14/M17 A2948 RMK SC6AC1 SLP991

CYOW;2009-02-20 12:45;CYOW 201245Z 25011KT 15SM -SN BKN044 M13/ RMK SC7

CYOW;2009-02-20 13:00;CYOW 201300Z 26012KT 15SM -SN BKN044 M13/M16 A2949 RMK SC7 SLP996

CYOW;2009-02-20 14:00;CYOW 201400Z 26014KT 15SM -SN FEW018 BKN050 M12/M16 A2951 RMK SC1SC7 SLP000

CYOW;2009-02-20 15:00;CYOW 201500Z 26013G18KT 12SM -SN FEW019 OVC046 M11/M15 A2952 RMK SC2SC6 SLP005

CYOW;2009-02-20 15:49;CYOW 201549Z 25013KT 2SM -SN BKN019 OVC038 M11/ RMK SN3SC4SC1

CYOW;2009-02-20 16:00;CYOW 201600Z 27014G19KT 2SM -SN BKN019 OVC038 M11/M14 A2953 RMK SN3SC4SC1 SLP010

CYOW;2009-02-20 17:00;CYOW 201700Z 27013KT 2SM -SN DRSN OVC021 M10/M13 A2954 RMK SN3SC5 SLP012

CYOW;2009-02-20 18:00;CYOW 201800Z 27013G20KT 3SM -SN DRSN OVC023 M09/M12 A2955 RMK SN2SC6 SLP016

CYOW;2009-02-20 19:00;CYOW 201900Z 27015G20KT 1 1/2SM -SN DRSN OVC018 M08/M11 A2956 RMK SN4SC4 SLP020

CYOW;2009-02-20 19:16;CYOW 201916Z 28018KT 3SM -SN DRSN OVC018 M08/ RMK SN2SC6

CYOW;2009-02-20 20:00;CYOW 202000Z 27017KT 3SM -SN DRSN OVC022 M08/M12 A2959 RMK SN2SC6 SLP029

CYOW;2009-02-20 21:00;CYOW 202100Z 27014KT 8SM -SN DRSN BKN025 OVC070 M07/M11 A2961 RMK SC7AC1 /S01/ SLP036

CYOW;2009-02-20 22:00;CYOW 202200Z 28019G24KT 10SM -SN DRSN BKN026 OVC060 M07/M11 A2964 RMK SC7SC1 SLP045

CYOW;2009-02-20 23:00;CYOW 202300Z 28015G21KT 6SM -SN DRSN BKN025 OVC060 M07/M11 A2967 RMK SC6SC2 SLP056

CYOW;2009-02-21 00:00;CYOW 210000Z 29015G22KT 6SM -SN DRSN OVC050 M08/M11 A2970 RMK SC8 SLP066

CYOW;2009-02-21 01:00;CYOW 210100Z 29015G20KT 6SM -SN DRSN OVC047 M08/M11 A2974 RMK SC8 SLP079

CYOW;2009-02-21 02:00;CYOW 210200Z 30016G21KT 10SM -SN DRSN OVC070 M08/M11 A2977 RMK AC8 SLP089

CYOW;2009-02-21 03:00;CYOW 210300Z 29012KT 12SM -SN DRSN BKN084 OVC110 M08/M11 A2980 RMK AC6AC2 SLP099

CYOW;2009-02-21 04:00;CYOW 210400Z 29011KT 12SM -SN DRSN OVC074 M08/M11 A2981 RMK AC8 SLP104

CYOW;2009-02-21 05:00;CYOW 210500Z 29011G17KT 12SM -SN DRSN FEW026 BKN068 OVC089 M08/M12 A2983 RMK SC2AC4AC1 SLP110

CYOW;2009-02-21 06:00;CYOW 210600Z 29010G15KT 12SM -SN DRSN FEW010 BKN110 OVC130 M08/M11 A2985 RMK SF1AC5AC3 SLP118

CYOW;2009-02-21 06:20;CYOW 210620Z 29010G17KT 12SM DRSN BKN110 OVC130 M08/ RMK AC5AC3

CYOW;2009-02-21 06:30;CYOW 210630Z 28014G19KT 12SM -SN DRSN BKN094 OVC100 M08/ RMK AC5AC3

CYOW;2009-02-21 07:00;CYOW 210700Z 29015KT 12SM -SN DRSN BKN160 BKN180 M08/M12 A2988 RMK AC5AC2 SLP128

CYOW;2009-02-21 08:00;CYOW 210800Z 28010KT 12SM -SN DRSN FEW180 M09/M12 A2992 RMK AC2 SLP139

CYOW;2009-02-21 09:00;CYOW 210900Z 28010G15KT 12SM -SN DRSN FEW018 FEW130 FEW140 M09/M13 A2995 RMK SF1AC2AC1 SLP149

CYOW;2009-02-21 09:45;CYOW 210945Z 28012KT 12SM FEW210 M09/ RMK CI2

CYOW;2009-02-21 10:00;CYOW 211000Z 28011KT 12SM FEW210 M10/M13 A2998 RMK CI2 SLP161

CYOW;2009-02-21 11:00;CYOW 211100Z 29010KT 12SM FEW025 FEW130 M10/M14 A3002 RMK SC1AC2 SLP173

CYOW;2009-02-21 12:00;CYOW 211200Z 28008KT 15SM FEW020 BKN240 M10/M14 A3005 RMK CF1CI2 SLP183

CYOW;2009-02-21 13:00;CYOW 211300Z 27009KT 15SM SCT240 M10/M14 A3008 RMK CI2 SLP194

CYOW;2009-02-21 14:00;CYOW 211400Z 29011KT 15SM FEW020 FEW240 M10/M14 A3009 RMK CF1CI2 SLP198

CYOW;2009-02-21 15:00;CYOW 211500Z 27013KT 15SM FEW240 M09/M13 A3012 RMK CI1 SLP208

CYOW;2009-02-21 16:00;CYOW 211600Z 26012KT 15SM FEW030 M08/M13 A3014 RMK SC1 SLP216

CYOW;2009-02-21 17:00;CYOW 211700Z 28011KT 20SM SKC M07/M13 A3015 RMK SLP217

CYOW;2009-02-21 18:00;CYOW 211800Z 27010KT 20SM SKC M06/M12 A3014 RMK SLP215

CYOW;2009-02-21 19:00;CYOW 211900Z 26007KT 20SM FEW240 M04/M12 A3012 RMK CI1 SLP209

CYOW;2009-02-21 20:00;CYOW 212000Z 22006KT 15SM BKN240 M04/M12 A3013 RMK CI3 SLP210

CYOW;2009-02-21 21:00;CYOW 212100Z 23005KT 15SM BKN180 M03/M12 A3013 RMK AS3 SLP211

CYOW;2009-02-21 22:00;CYOW 212200Z 18004KT 15SM OVC180 M04/M11 A3012 RMK AS8 SLP207

CYOW;2009-02-21 23:00;CYOW 212300Z 16003KT 15SM OVC140 M05/M11 A3012 RMK AS8 SLP207

CYOW;2009-02-22 00:00;CYOW 220000Z 13005KT 15SM BKN110 OVC130 M05/M11 A3011 RMK AS6AS2 SLP205

CYOW;2009-02-22 01:00;CYOW 220100Z 10004KT 15SM OVC080 M05/M10 A3010 RMK AS8 SLP201

CYOW;2009-02-22 02:00;CYOW 220200Z 09004KT 15SM OVC060 M05/M10 A3011 RMK SC8 SLP203

CYOW;2009-02-22 03:00;CYOW 220300Z 09004KT 15SM OVC056 M05/M10 A3011 RMK SC8 SLP205

CYOW;2009-02-22 04:00;CYOW 220400Z 07009KT 15SM OVC040 M05/M10 A3008 RMK SC8 SLP196

CYOW;2009-02-22 05:00;CYOW 220500Z 08009KT 15SM OVC035 M05/M10 A3006 RMK SC8 SLP189

CYOW;2009-02-22 05:15;CYOW 220515Z 08009KT 12SM -SN OVC032 M05/ RMK SC8

CYOW;2009-02-22 06:00;CYOW 220600Z 09011G16KT 12SM -SN OVC022 M05/M10 A3004 RMK SC8 SLP180

CYOW;2009-02-22 06:45;CYOW 220645Z 09012KT 2 1/2SM -SN DRSN OVC026 M06/ RMK SC8

CYOW;2009-02-22 07:00;CYOW 220700Z 09012KT 1 3/4SM -SN DRSN OVC020 M06/M08 A3003 RMK SC8 SLP176

CYOW;2009-02-22 08:00;CYOW 220800Z 09013KT 2SM -SN DRSN OVC030 M06/M08 A2999 RMK SC8 SLP162

CYOW;2009-02-22 09:00;CYOW 220900Z 08016KT 1 3/4SM -SN DRSN OVC020 M06/M08 A2996 RMK SC8 /S01/ SLP152

CYOW;2009-02-22 10:00;CYOW 221000Z 08013G18KT 1 1/2SM -SN DRSN OVC014 M06/M08 A2994 RMK SC8 SLP145

CYOW;2009-02-22 10:45;CYOW 221045Z 08012KT 10SM -SN DRSN FEW008 OVC014 M06/ RMK SF1SC8

CYOW;2009-02-22 11:00;CYOW 221100Z 08011KT 10SM -SN DRSN FEW008 OVC012 M06/M07 A2993 RMK SF1SC8 SLP141

CYOW;2009-02-22 11:33;CYOW 221133Z 07013KT 15SM DRSN SCT007 OVC010 M06/ RMK SF3SC5

CYOW;2009-02-22 12:00;CYOW 221200Z 08012KT 5SM -SN DRSN FEW007 OVC010 M06/M07 A2992 RMK SF2SC6 /SO3/ SLP138

CYOW;2009-02-22 13:00;CYOW 221300Z 07008KT 5SM -SN BKN007 OVC012 M06/M07 A2991 RMK SF6SC2 SLP137

CYOW;2009-02-22 13:30;CYOW 221330Z 06010KT 1 1/2SM -SN VV008 M06/ RMK SN8

CYOW;2009-02-22 14:00;CYOW 221400Z 06006KT 3/4SM R07/P6000FT/D R32/P6000FT/D -SN VV008 M06/M07 A2991 RMK SN8 SLP137

CYOW;2009-02-22 14:48;CYOW 221448Z 09006KT 3SM -SN OVC009 M05/ RMK SF8

CYOW;2009-02-22 15:00;CYOW 221500Z 09005KT 4SM -SN OVC010 M05/M06 A2991 RMK SC8 /SO1/ SLP134

CYOW;2009-02-22 16:00;CYOW 221600Z 11003KT 4SM -SN OVC010 M04/M06 A2991 RMK SC8 SNW FINE SLP134

CYOW;2009-02-22 17:00;CYOW 221700Z 00000KT 8SM FEW010 SCT030 OVC090 M02/M05 A2990 RMK SF2SC2AS4 SLP132

CYOW;2009-02-22 18:00;CYOW 221800Z 20002KT 6SM -SN OVC015 M02/M05 A2988 RMK SC8 SN VRY LGT SLP126

CYOW;2009-02-22 18:45;CYOW 221845Z 22004KT 8SM FEW020 OVC077 M01/ RMK CU2AS6

CYOW;2009-02-22 19:00;CYOW 221900Z 22003KT 8SM FEW020 OVC080 M01/M05 A2988 RMK CU2AS6 SLP124

CYOW;2009-02-22 20:00;CYOW 222000Z 21004KT 8SM BKN030 BKN240 M01/M08 A2987 RMK CU6CI0 SLP123

CYOW;2009-02-22 21:00;CYOW 222100Z 26006KT 10SM BKN033 M01/M05 A2988 RMK CU6 SLP126

CYOW;2009-02-22 22:00;CYOW 222200Z 24004KT 12SM FEW040 BKN240 M02/M08 A2989 RMK CU2CI1 SLP130

CYOW;2009-02-22 23:00;CYOW 222300Z 00000KT 12SM FEW150 SCT240 M03/M08 A2990 RMK AC2CI1 SLP133

CYOW;2009-02-23 00:00;CYOW 230000Z 00000KT 15SM FEW150 M04/M08 A2991 RMK AC1 SLP135

CYOW;2009-02-23 01:00;CYOW 230100Z 00000KT 15SM BKN014 OVC052 M04/M08 A2991 RMK SC5SC2 SLP134

CYOW;2009-02-23 02:00;CYOW 230200Z 00000KT 15SM FEW020 BKN150 M04/M07 A2989 RMK SC2AC3 SLP130

CYOW;2009-02-23 03:00;CYOW 230300Z 23002KT 12SM OVC015 M04/M07 A2989 RMK SC8 SLP128

CYOW;2009-02-23 04:00;CYOW 230400Z 00000KT 12SM BKN021 M05/M07 A2988 RMK SC7 SLP127

CYOW;2009-02-23 05:00;CYOW 230500Z 24002KT 12SM BKN018 M05/M07 A2989 RMK SC7 SLP129

CYOW;2009-02-23 06:00;CYOW 230600Z 27006KT 10SM SCT004 OVC016 M04/M06 A2990 RMK SC3SC5 SLP131

CYOW;2009-02-23 06:45;CYOW 230645Z 28009KT 3SM -SN SCT010 OVC027 M05/ RMK SC3SC5

CYOW;2009-02-23 07:00;CYOW 230700Z 28008KT 2SM -SN SCT007 OVC019 M04/M06 A2990 RMK SC3SC5 SLP132

CYOW;2009-02-23 08:00;CYOW 230800Z 32011KT 4SM -SN FEW009 OVC014 M05/M07 A2990 RMK SF1SC8 SLP132

CYOW;2009-02-23 09:00;CYOW 230900Z 31009G16KT 6SM -SN OVC016 M05/M08 A2992 RMK SC8 SN VRY LGT SLP138

CYOW;2009-02-23 10:00;CYOW 231000Z 29016KT 10SM -SN DRSN OVC019 M07/M10 A2993 RMK SC8 SN VRY LGT SLP142

CYOW;2009-02-23 10:35;CYOW 231035Z 30017KT 10SM DRSN OVC020 M08/ RMK SC8

CYOW;2009-02-23 10:55;CYOW 231055Z 29013KT 10SM -SN DRSN BKN021 M09/ RMK SC6

CYOW;2009-02-23 11:00;CYOW 231100Z 29014KT 10SM -SN DRSN BKN022 M09/M12 A2996 RMK SC6 SN VRY LGT SLP154

CYOW;2009-02-23 12:00;CYOW 231200Z 30017KT 15SM -SN DRSN BKN021 M10/M14 A3000 RMK SC7 SLP166

CYOW;2009-02-23 13:00;CYOW 231300Z 29014KT 15SM DRSN BKN023 M12/M15 A3004 RMK SC6 INTMT -SN SLP179

CYOW;2009-02-23 13:07;CYOW 231307Z 29016KT 15SM DRSN BKN023 BKN150 M12/ RMK SC5AC1

CYOW;2009-02-23 14:00;CYOW 231400Z 30016G21KT 15SM DRSN FEW023 SCT150 BKN210 M12/M16 A3005 RMK SC2AS2CI2 SLP184

CYOW;2009-02-23 15:00;CYOW 231500Z 29018G24KT 15SM DRSN FEW023 BKN150 BKN210 M12/M16 A3007 RMK SC1AS2CI2 SLP191

CYOW;2009-02-23 16:00;CYOW 231600Z 29014G19KT 15SM DRSN FEW025 SCT045 OVC150 M11/M16 A3009 RMK SC1SC3AS4 SLP197

CYOW;2009-02-23 17:00;CYOW 231700Z 29017KT 15SM DRSN FEW025 BKN047 OVC150 M10/M15 A3009 RMK SC1SC6AS1 SLP197

CYOW;2009-02-23 18:00;CYOW 231800Z 29013G20KT 15SM DRSN FEW025 OVC045 M10/M15 A3009 RMK SC1SC7 SLP197

CYOW;2009-02-23 19:00;CYOW 231900Z 30019KT 15SM DRSN FEW025 SCT045 OVC070 M10/M15 A3008 RMK SC1SC4AC3 SLP196

CYOW;2009-02-23 20:00;CYOW 232000Z 28014KT 15SM DRSN FEW033 SCT075 OVC090 M09/M14 A3010 RMK SC2AC2AS3 SLP200

CYOW;2009-02-23 21:00;CYOW 232100Z 29017G24KT 15SM DRSN FEW033 SCT075 OVC100 M08/M14 A3011 RMK SC2AC2AS4 SLP206

CYOW;2009-02-23 22:00;CYOW 232200Z 30014KT 15SM DRSN FEW033 BKN100 OVC230 M08/M14 A3014 RMK SC2AS5CI1 SLP215

CYOW;2009-02-23 23:00;CYOW 232300Z 31015G20KT 15SM DRSN SCT033 OVC120 M09/M14 A3017 RMK SC4AS3 SLP226

CYOW;2009-02-24 00:00;CYOW 240000Z 31016KT 15SM DRSN OVC031 M09/M14 A3019 RMK SC7 SLP234

CYOW;2009-02-24 01:00;CYOW 240100Z 32018G24KT 15SM DRSN OVC031 M09/M14 A3021 RMK SC7 SLP239

CYOW;2009-02-24 02:00;CYOW 240200Z 31016G21KT 15SM DRSN OVC029 M10/M14 A3022 RMK SC8 SLP244

CYOW;2009-02-24 03:00;CYOW 240300Z 31014KT 15SM DRSN OVC029 M10/M15 A3024 RMK SC8 SLP250

CYOW;2009-02-24 04:00;CYOW 240400Z 30010KT 15SM DRSN BKN029 M10/M14 A3024 RMK SC7 SLP251

CYOW;2009-02-24 05:00;CYOW 240500Z 30014G19KT 15SM DRSN SCT029 M11/M15 A3025 RMK SC4 SLP253

CYOW;2009-02-24 06:00;CYOW 240600Z 30012G18KT 15SM DRSN FEW024 M11/M16 A3026 RMK SC2 SLP258

CYOW;2009-02-24 07:00;CYOW 240700Z 30012KT 15SM DRSN FEW024 M12/M16 A3027 RMK SC1 SLP259

CYOW;2009-02-24 08:00;CYOW 240800Z 30012KT 15SM DRSN FEW024 M13/M17 A3028 RMK SC1 SLP263

CYOW;2009-02-24 09:00;CYOW 240900Z 29008KT 15SM DRSN FEW021 M14/M18 A3029 RMK SC2 SLP268

CYOW;2009-02-24 10:00;CYOW 241000Z 27007KT 15SM FEW021 M14/M18 A3031 RMK SC1 SLP273

CYOW;2009-02-24 10:50;CYOW 241050Z 28006KT 12SM -SN BKN022 M14/ RMK SC6

CYOW;2009-02-24 11:00;CYOW 241100Z CCA 29009KT 15SM -SN BKN022 M14/M18 A3032 RMK SC6 SN VRY LGT SLP278

CYOW;2009-02-24 12:00;CYOW 241200Z 29010KT 15SM -SN BKN020 M14/M18 A3034 RMK SC7 SLP284

CYOW;2009-02-24 13:00;CYOW 241300Z 29011KT 15SM -SN OVC019 M14/M18 A3036 RMK SC8 SLP291

CYOW;2009-02-24 14:00;CYOW 241400Z 29011KT 15SM -SN SCT019 M14/M18 A3037 RMK SC3 SLP295

CYOW;2009-02-24 14:26;CYOW 241426Z 29008KT 15SM FEW020 M14/ RMK SC2

CYOW;2009-02-24 15:00;CYOW 241500Z 29007KT 15SM FEW020 M13/M19 A3038 RMK SC1 SLP297

CYOW;2009-02-24 16:00;CYOW 241600Z 29006KT 15SM FEW250 M12/M18 A3038 RMK CI0 SLP298

CYOW;2009-02-24 17:00;CYOW 241700Z 25008KT 15SM FEW250 M10/M16 A3037 RMK CI0 SLP296

CYOW;2009-02-24 18:00;CYOW 241800Z 25010KT 15SM SCT250 M10/M16 A3037 RMK CI1 SLP293

CYOW;2009-02-24 19:00;CYOW 241900Z 27010KT 15SM SCT250 M08/M15 A3036 RMK CI1 SLP291

CYOW;2009-02-24 20:00;CYOW 242000Z 26010KT 15SM BKN250 M08/M15 A3036 RMK CI2 SLP291

CYOW;2009-02-24 21:00;CYOW 242100Z 27010KT 15SM BKN220 M08/M14 A3036 RMK CI3 SLP289

CYOW;2009-02-24 22:00;CYOW 242200Z 28007KT 15SM FEW180 BKN230 M07/M15 A3036 RMK AC2CI2 SLP290

CYOW;2009-02-24 23:00;CYOW 242300Z 27006KT 15SM FEW180 BKN230 M09/M15 A3037 RMK AC1CI2 SLP293

CYOW;2009-02-25 00:00;CYOW 250000Z 26003KT 15SM FEW230 M10/M15 A3037 RMK CI1 SLP294

CYOW;2009-02-25 01:00;CYOW 250100Z 25003KT 15SM FEW230 M09/M15 A3037 RMK CI2 SLP294

CYOW;2009-02-25 02:00;CYOW 250200Z 19005KT 15SM FEW210 M10/M15 A3038 RMK CI2 SLP297

CYOW;2009-02-25 03:00;CYOW 250300Z 19004KT 15SM BKN120 BKN210 M10/M15 A3037 RMK AC5CI1 SLP296

CYOW;2009-02-25 04:00;CYOW 250400Z 18005KT 15SM BKN120 M10/M15 A3037 RMK AC5 SLP296

CYOW;2009-02-25 05:00;CYOW 250500Z 18005KT 15SM FEW120 M11/M15 A3039 RMK AC2 SLP300

CYOW;2009-02-25 06:00;CYOW 250600Z 18003KT 15SM SCT150 M12/M15 A3039 RMK AC3 SLP299

CYOW;2009-02-25 07:00;CYOW 250700Z 17002KT 15SM SCT090 M12/M14 A3039 RMK AC3 SLP302

CYOW;2009-02-25 08:00;CYOW 250800Z 19003KT 15SM FEW090 M12/M14 A3039 RMK AC2 SLP302

CYOW;2009-02-25 09:00;CYOW 250900Z 00000KT 15SM FEW120 M12/M14 A3039 RMK AC2 SLP302

CYOW;2009-02-25 10:00;CYOW 251000Z 00000KT 15SM BKN120 M12/M14 A3040 RMK AC6 SLP303

CYOW;2009-02-25 11:00;CYOW 251100Z 00000KT 15SM FEW120 M13/M15 A3040 RMK AC2 SLP304

CYOW;2009-02-25 12:00;CYOW 251200Z 11002KT 15SM BKN065 BKN120 M12/M14 A3040 RMK SC5AC2 SLP306

CYOW;2009-02-25 13:00;CYOW 251300Z 00000KT 15SM BKN055 BKN120 M11/M14 A3041 RMK SC6AC1 SLP309

CYOW;2009-02-25 14:00;CYOW 251400Z 13002KT 15SM BKN050 M10/M13 A3040 RMK SC7 SLP306

CYOW;2009-02-25 15:00;CYOW 251500Z 18003KT 15SM BKN050 M07/M13 A3039 RMK SC5 SLP302

CYOW;2009-02-25 16:00;CYOW 251600Z 17006KT 15SM FEW050 SCT075 SCT110 M05/M11 A3037 RMK SC2AC2AC1 SLP295

CYOW;2009-02-25 17:00;CYOW 251700Z 18008KT 15SM FEW075 FEW110 M02/M09 A3035 RMK AC2AC1 SLP286

CYOW;2009-02-25 18:00;CYOW 251800Z 17010KT 15SM FEW110 FEW250 M01/M09 A3033 RMK AC1CI0 SLP278

CYOW;2009-02-25 19:00;CYOW 251900Z 18006KT 15SM FEW110 SCT250 M01/M09 A3031 RMK AC1CI1 SLP272

CYOW;2009-02-25 20:00;CYOW 252000Z 16007KT 15SM FEW110 BKN230 M00/M10 A3028 RMK AC1CI2 SLP261

CYOW;2009-02-25 21:00;CYOW 252100Z 13008KT 15SM BKN230 M00/M09 A3025 RMK CI2 SLP252

CYOW;2009-02-25 22:00;CYOW 252200Z 13005KT 15SM FEW180 OVC230 M02/M09 A3024 RMK AC1CI2 SLP249

CYOW;2009-02-25 23:00;CYOW 252300Z 11007KT 15SM FEW180 OVC240 M03/M10 A3022 RMK AC1CI3 SLP241

CYOW;2009-02-26 00:00;CYOW 260000Z 10009KT 15SM OVC240 M04/M10 A3019 RMK CI5 SLP232

CYOW;2009-02-26 01:00;CYOW 260100Z 11007KT 15SM OVC240 M05/M10 A3017 RMK CI5 SLP225

CYOW;2009-02-26 02:00;CYOW 260200Z 09007KT 15SM BKN110 OVC240 M05/M11 A3015 RMK AC5CI3 SLP218

CYOW;2009-02-26 03:00;CYOW 260300Z 07008KT 15SM OVC080 M05/M11 A3014 RMK AS8 SLP212

CYOW;2009-02-26 04:00;CYOW 260400Z 08008KT 15SM OVC060 M05/M11 A3012 RMK NS8 SLP206

CYOW;2009-02-26 05:00;CYOW 260500Z 07005KT 15SM OVC060 M05/M11 A3012 RMK NS8 SLP206

CYOW;2009-02-26 05:39;CYOW 260539Z 04002KT 15SM -SN OVC030 M05/ RMK NS8

CYOW;2009-02-26 06:00;CYOW 260600Z 05003KT 8SM -SN OVC015 M05/M10 A3012 RMK NS8 SLP207

CYOW;2009-02-26 06:18;CYOW 260618Z 09005KT 2SM -SN OVC012 M05/ RMK NS8

CYOW;2009-02-26 07:00;CYOW 260700Z 12006KT 2SM -SN OVC010 M05/M06 A3009 RMK NS8 SLP196

CYOW;2009-02-26 08:00;CYOW 260800Z 11005KT 3SM -SN OVC010 M04/M05 A3007 RMK NS8 SLP189

CYOW;2009-02-26 09:00;CYOW 260900Z 19006KT 4SM -SN OVC008 M00/M01 A3007 RMK NS8 /SO1/ SLP188

CYOW;2009-02-26 10:00;CYOW 261000Z 20008KT 10SM -SN OVC008 01/M00 A3008 RMK NS8 SLP190

CYOW;2009-02-26 11:00;CYOW 261100Z 21006KT 10SM -SN OVC009 01/M00 A3008 RMK NS8 SN VRY LGT SLP192

CYOW;2009-02-26 11:24;CYOW 261124Z 20005KT 8SM OVC010 01/ RMK SC8

CYOW;2009-02-26 12:00;CYOW 261200Z 20004KT 10SM OVC010 01/M00 A3009 RMK SC8 SLP195

CYOW;2009-02-26 13:00;CYOW 261300Z 21003KT 8SM OVC012 01/M00 A3011 RMK SC8 SLP203

CYOW;2009-02-26 13:46;CYOW 261346Z 20002KT 8SM SCT012 OVC021 02/ RMK SC3SC5

CYOW;2009-02-26 14:00;CYOW 261400Z 19002KT 8SM SCT012 OVC021 02/M00 A3012 RMK SC3SC5 SLP207

CYOW;2009-02-26 15:00;CYOW 261500Z 22002KT 8SM OVC019 02/M00 A3013 RMK SC8 SLP209

CYOW;2009-02-26 16:00;CYOW 261600Z 22004KT 10SM OVC017 03/M00 A3014 RMK SC8 SLP211

CYOW;2009-02-26 17:00;CYOW 261700Z 22006KT 10SM OVC015 03/00 A3014 RMK SC8 SLP213

CYOW;2009-02-26 18:00;CYOW 261800Z 23006KT 10SM OVC015 04/00 A3014 RMK SC8 SLP213

CYOW;2009-02-26 19:00;CYOW 261900Z 27004KT 10SM BKN015 OVC048 04/01 A3015 RMK SC6SC2 SLP216

CYOW;2009-02-26 20:00;CYOW 262000Z 00000KT 10SM BKN017 OVC045 04/01 A3016 RMK SC6SC2 SLP219

CYOW;2009-02-26 21:00;CYOW 262100Z 00000KT 8SM BKN018 OVC047 04/01 A3017 RMK SC5SC3 SLP222

CYOW;2009-02-26 22:00;CYOW 262200Z 05005KT 7SM FEW020 OVC048 03/00 A3018 RMK SC2SC6 SLP224

CYOW;2009-02-26 23:00;CYOW 262300Z 07005KT 7SM OVC042 02/M00 A3017 RMK SC8 SLP222

CYOW;2009-02-27 00:00;CYOW 270000Z 09005KT 7SM FEW027 OVC040 02/M00 A3016 RMK SC2SC6 SLP219

CYOW;2009-02-27 01:00;CYOW 270100Z 09006KT 7SM OVC029 02/M00 A3015 RMK SC8 SLP214

CYOW;2009-02-27 02:00;CYOW 270200Z 09006KT 7SM FEW037 01/M01 A3013 RMK SC2 SLP208

CYOW;2009-02-27 03:00;CYOW 270300Z 09007KT 4SM BR SKC 00/M01 A3009 RMK SLP195

CYOW;2009-02-27 04:00;CYOW 270400Z 11006KT 2SM BR FEW042 M01/M02 A3007 RMK SC2 SLP188

CYOW;2009-02-27 05:00;CYOW 270500Z 06005KT 2SM BR OVC037 00/M01 A3004 RMK SC8 SLP179

CYOW;2009-02-27 06:00;CYOW 270600Z 09007KT 3SM BR BKN220 M01/M02 A3000 RMK CS5 SLP166

CYOW;2009-02-27 07:00;CYOW 270700Z 09011KT 4SM BR BKN110 M00/M01 A2993 RMK AC6 SLP141

CYOW;2009-02-27 08:00;CYOW 270800Z CCA 09011KT 6SM BR OVC046 01/M01 A2986 RMK SC8 PRESFR SLP118

CYOW;2009-02-27 08:55;CYOW 270855Z 09007KT 6SM -RA OVC050 01/ RMK SC8

CYOW;2009-02-27 09:00;CYOW 270900Z 09006KT 7SM -RA OVC050 01/M00 A2981 RMK SC8 PRESFR SLP100

CYOW;2009-02-27 09:55;CYOW 270955Z 08008KT 4SM -RA BR FEW042 OVC075 01/ RMK SC2AC6

CYOW;2009-02-27 10:00;CYOW 271000Z 07010KT 4SM -RA BR FEW040 OVC055 01/00 A2976 RMK SC2SC6 SLP081

CYOW;2009-02-27 11:00;CYOW 271100Z CCA 09009KT 4SM -RA BR OVC075 01/00 A2969 RMK AC8 PRESFR SLP059

CYOW;2009-02-27 11:40;CYOW 271140Z 11010KT 5SM BR BKN080 02/ RMK AC6

CYOW;2009-02-27 12:00;CYOW 271200Z 11010KT 5SM BR SCT070 BKN084 02/00 A2963 RMK AC3AC4 PRESFR SLP040

CYOW;2009-02-27 13:00;CYOW 271300Z 14006KT 4SM -RA BR BKN040 OVC080 03/01 A2962 RMK SC5AC3 SLP036

CYOW;2009-02-27 14:00;CYOW 271400Z 17012KT 4SM -RA BR OVC032 07/04 A2957 RMK SC8 SLP020

CYOW;2009-02-27 15:00;CYOW 271500Z 18010KT 4SM -RA BR OVC017 06/05 A2955 RMK SC8 SLP012

CYOW;2009-02-27 16:00;CYOW 271600Z 18012G17KT 4SM -RA BR FEW008 OVC013 07/06 A2953 RMK SF2SC6 SLP006

CYOW;2009-02-27 17:00;CYOW 271700Z 20013G19KT 4SM -RA BR FEW007 OVC010 07/06 A2953 RMK SF2SC6 SLP004

CYOW;2009-02-27 18:00;CYOW 271800Z 21012G17KT 4SM -RA BR SCT007 OVC010 07/06 A2953 RMK SF3SC5 SLP004

CYOW;2009-02-27 19:00;CYOW 271900Z 23010KT 3SM -RA BR FEW006 OVC010 07/06 A2954 RMK SF2SC6 SLP008

CYOW;2009-02-27 20:00;CYOW 272000Z 25010KT 5SM -RA BR FEW005 OVC010 06/06 A2956 RMK SF2SC6 SLP016

CYOW;2009-02-27 20:04;CYOW 272004Z 30024G30KT 7SM -RA OVC005 01/ RMK SF8 PRESRR FROPA

CYOW;2009-02-27 20:21;CYOW 272021Z 30014G20KT 12SM FEW005 OVC012 00/ RMK SF2SC6 PRESRR FROPA WSHFT 2000Z

CYOW;2009-02-27 21:00;CYOW 272100Z 30024G29KT 4SM -FZRA BR OVC008 M02/M03 A2964 RMK SF8 PRESRR FROPA PST HR SLP043

CYOW;2009-02-27 21:43;CYOW 272143Z 31020G27KT 2SM -SHSN FEW005 OVC012 M04/ RMK SF2SC6 CVCTV CLD EMBD

CYOW;2009-02-27 22:00;CYOW 272200Z 32022G32KT 15SM FEW006 OVC015 M04/M07 A2973 REFZRA RMK SF2SC6 PRESRR SLP073

CYOW;2009-02-27 22:10;CYOW 272210Z 34018G25KT 3SM -FZRA OVC017 M04/ RMK SC8

CYOW;2009-02-27 22:32;CYOW 272232Z 33020G25KT 2SM -FZRA OVC033 M05/ RMK SC8 PRESRR

CYOW;2009-02-27 23:00;CYOW 272300Z 32020G27KT 2SM -FZRA OVC037 M06/M08 A2979 RMK SC8 PRESRR SLP093

CYOW;2009-02-27 23:16;CYOW 272316Z 33018G27KT 2SM -SNPL OVC038 M07/ RMK SC8

CYOW;2009-02-27 23:33;CYOW 272333Z 33016G21KT 4SM -SN OVC038 M07/ REFZRA RMK SC8

CYOW;2009-02-28 00:00;CYOW 280000Z 32024KT 1 1/2SM -SN FEW008 OVC020 M08/M10 A2986 RMK SF2SC6 PRESRR WND ESTD SLP119

CYOW;2009-02-28 00:24;CYOW 280024Z 32019G26KT 4SM -SN FEW020 OVC044 M08/ RMK SC2SC6

CYOW;2009-02-28 01:00;CYOW 280100Z CCA 32020KT 4SM -SN FEW020 OVC036 M08/M12 A2994 RMK SC1SC7 PRESRR SLP143

CYOW;2009-02-28 02:00;CYOW 280200Z 32020G25KT 7SM -SN FEW018 OVC030 M09/M13 A3002 RMK SC2SC6 PRESRR SLP170

CYOW;2009-02-28 02:48;CYOW 280248Z 31023KT 10SM FEW049 BKN062 M10/ RMK SC2SC5

CYOW;2009-02-28 03:00;CYOW 280300Z 33023KT 15SM BKN066 M10/M14 A3009 RMK AC6 PRESRR SLP195

CYOW;2009-02-28 04:00;CYOW 280400Z 32022KT 15SM SCT029 M12/M16 A3015 RMK SC4 PRESRR SLP216

CYOW;2009-02-28 05:00;CYOW 280500Z 33017G22KT 15SM FEW029 M13/M18 A3021 RMK SC1 PRESRR SLP237

CYOW;2009-02-28 06:00;CYOW 280600Z 32018KT 15SM FEW029 M15/M19 A3026 RMK SC1 PRESRR SLP255

CYOW;2009-02-28 07:00;CYOW 280700Z 33017KT 15SM SKC M16/M20 A3030 RMK PRESRR SLP267

CYOW;2009-02-28 08:00;CYOW 280800Z 32014KT 15SM SKC M17/M21 A3033 RMK SLP278

CYOW;2009-02-28 09:00;CYOW 280900Z 34012G18KT 15SM SKC M18/M23 A3037 RMK SLP294

CYOW;2009-02-28 10:00;CYOW 281000Z 32015G20KT 15SM SKC M20/M26 A3040 RMK SLP305

CYOW;2009-02-28 11:00;CYOW 281100Z 31014KT 15SM SKC M20/M27 A3043 RMK SLP314

CYOW;2009-02-28 12:00;CYOW 281200Z 33011G16KT 15SM SKC M21/M27 A3045 RMK SLP323

CYOW;2009-02-28 13:00;CYOW 281300Z 32011KT 20SM SKC M21/M27 A3049 RMK SLP335

CYOW;2009-02-28 14:00;CYOW 281400Z 33009KT 20SM SKC M20/M27 A3050 RMK SLP340

CYOW;2009-02-28 15:00;CYOW 281500Z 32007KT 20SM SKC M19/M26 A3051 RMK SLP343

CYOW;2009-02-28 16:00;CYOW 281600Z 32007KT 20SM SKC M18/M26 A3052 RMK SLP345

CYOW;2009-02-28 17:00;CYOW 281700Z 31008KT 20SM SKC M17/M23 A3051 RMK SLP341

CYOW;2009-02-28 18:00;CYOW 281800Z 30004KT 20SM SKC M15/M23 A3047 RMK SLP329

CYOW;2009-02-28 19:00;CYOW 281900Z 32004KT 20SM SKC M14/M23 A3045 RMK SLP324

CYOW;2009-02-28 20:00;CYOW 282000Z 33002KT 20SM SKC M12/M22 A3042 RMK SLP313

CYOW;2009-02-28 21:00;CYOW 282100Z 35003KT 20SM SKC M12/M21 A3040 RMK SLP306

CYOW;2009-02-28 22:00;CYOW 282200Z 20002KT 20SM SKC M11/M22 A3040 RMK SLP305

CYOW;2009-02-28 23:00;CYOW 282300Z 19002KT 20SM SKC M12/M21 A3039 RMK SLP304

CYOW;2009-03-01 01:00;CYOW 010100Z 27003KT 15SM SKC M13/M19 A3041 RMK SLP309

CYOW;2009-03-01 02:00;CYOW 010200Z 34005KT 15SM SKC M13/M19 A3038 RMK SLP300

CYOW;2009-03-01 03:00;CYOW 010300Z 33004KT 15SM SKC M13/M19 A3036 RMK SLP291

CYOW;2009-03-01 04:00;CYOW 010400Z 02004KT 15SM SKC M14/M19 A3034 RMK SLP287

CYOW;2009-03-01 05:00;CYOW 010500Z 03005KT 15SM SKC M14/M20 A3034 RMK FROIN SLP285

CYOW;2009-03-01 06:00;CYOW 010600Z 06005KT 15SM SKC M15/M20 A3032 RMK FROIN SLP277

CYOW;2009-03-01 07:00;CYOW 010700Z 05004KT 15SM SKC M15/M21 A3031 RMK FROIN SLP275

CYOW;2009-03-01 08:00;CYOW 010800Z CCA 04003KT 15SM SKC M16/M21 A3030 RMK FROIN SLP272

CYOW;2009-03-01 09:00;CYOW 010900Z 05005KT 15SM SKC M16/M21 A3029 RMK FROIN SLP269

CYOW;2009-03-01 10:00;CYOW 011000Z CCA 04007KT 15SM SKC M16/M21 A3029 RMK FROIN SLP268

CYOW;2009-03-01 11:00;CYOW 011100Z 04006KT 15SM FEW180 M16/M21 A3027 RMK AC1 FROIN SLP262

CYOW;2009-03-01 12:00;CYOW 011200Z 04006KT 15SM FEW150 M17/M22 A3025 RMK AC1 FROIN SLP254

CYOW;2009-03-01 13:00;CYOW 011300Z 03005KT 15SM FEW150 M16/M21 A3026 RMK AC1 SLP259

CYOW;2009-03-01 14:00;CYOW 011400Z 04006KT 15SM FEW150 M13/M19 A3028 RMK AC1 SLP264

CYOW;2009-03-01 15:00;CYOW 011500Z 09007KT 15SM FEW150 M12/M20 A3027 RMK AC1 SLP259

CYOW;2009-03-01 16:00;CYOW 011600Z 07003KT 15SM SKC M11/M19 A3026 RMK SLP256

CYOW;2009-03-01 17:00;CYOW 011700Z 36004KT 15SM SKC M10/M18 A3025 RMK SLP252

CYOW;2009-03-01 18:00;CYOW 011800Z 36003KT 15SM FEW150 M09/M19 A3022 RMK AC1 SLP245

CYOW;2009-03-01 19:00;CYOW 011900Z 30005KT 15SM FEW240 M08/M16 A3021 RMK CI1 SLP241

CYOW;2009-03-01 20:00;CYOW 012000Z 33007KT 15SM FEW080 M07/M16 A3019 RMK AC2 SLP233

CYOW;2009-03-01 21:00;CYOW 012100Z 28007KT 15SM FEW080 M06/M16 A3021 RMK AC2 SLP240

CYOW;2009-03-01 22:00;CYOW 012200Z 29008KT 15SM FEW080 M06/M16 A3023 RMK AC2 SLP247

CYOW;2009-03-01 23:00;CYOW 012300Z 29011KT 15SM SCT077 M07/M17 A3023 RMK AC3 SLP248

CYOW;2009-03-02 00:00;CYOW 020000Z 30007KT 15SM SCT065 M08/M17 A3025 RMK SC4 SLP252

CYOW;2009-03-02 01:00;CYOW 020100Z 31006KT 15SM BKN065 M08/M16 A3025 RMK SC7 SLP254

CYOW;2009-03-02 02:00;CYOW 020200Z 34010KT 15SM BKN065 M08/M18 A3026 RMK SC7 SLP258

CYOW;2009-03-02 03:00;CYOW 020300Z 36011G16KT 15SM BKN065 BKN240 M09/M17 A3027 RMK SC5CI1 SLP259

CYOW;2009-03-02 04:00;CYOW 020400Z 35014G20KT 15SM BKN065 BKN240 M10/M16 A3028 RMK SC5CI1 SLP264

CYOW;2009-03-02 05:00;CYOW 020500Z 36011KT 15SM SCT065 OVC220 M10/M17 A3032 RMK SC3CI2 SLP277

CYOW;2009-03-02 06:00;CYOW 020600Z 36013G19KT 15SM FEW065 BKN220 M11/M19 A3031 RMK SC2CI3 SLP273

CYOW;2009-03-02 07:00;CYOW 020700Z 35013KT 15SM SCT230 M12/M20 A3031 RMK CI2 SLP275

CYOW;2009-03-02 08:00;CYOW 020800Z 36014KT 15SM SCT230 M13/M21 A3032 RMK CI2 SLP276

CYOW;2009-03-02 09:00;CYOW 020900Z 35015KT 15SM BKN230 M13/M21 A3029 RMK CI6 SLP268

CYOW;2009-03-02 10:00;CYOW 021000Z 35013KT 15SM OVC230 M14/M21 A3030 RMK CI6 SLP271

CYOW;2009-03-02 11:00;CYOW 021100Z 34013KT 15SM BKN230 M15/M21 A3032 RMK CI4 SLP278

CYOW;2009-03-02 12:00;CYOW 021200Z 34015KT 15SM FEW230 M15/M22 A3029 RMK CI2 SLP268

CYOW;2009-03-02 13:00;CYOW 021300Z 35013G18KT 15SM FEW230 M15/M23 A3031 RMK CI2 SLP275

CYOW;2009-03-02 14:00;CYOW 021400Z 36013KT 15SM FEW230 M15/M23 A3032 RMK CI2 SLP278

CYOW;2009-03-02 15:00;CYOW 021500Z 34016KT 15SM SCT230 M14/M22 A3031 RMK CI2 SLP272

CYOW;2009-03-02 16:00;CYOW 021600Z 34015G20KT 15SM SCT230 M13/M22 A3028 RMK CI2 SLP263

CYOW;2009-03-02 17:00;CYOW 021700Z 35013G18KT 15SM BKN230 M12/M21 A3027 RMK CI2 SLP260

CYOW;2009-03-02 18:00;CYOW 021800Z 34016KT 15SM BKN200 M12/M21 A3025 RMK CS4 SLP253

CYOW;2009-03-02 19:00;CYOW 021900Z 32016KT 15SM FEW070 OVC200 M11/M20 A3022 RMK AC1CS4 SLP244

CYOW;2009-03-02 20:00;CYOW 022000Z 33018KT 15SM FEW070 OVC200 M11/M20 A3022 RMK AC1CI3 SLP243

CYOW;2009-03-02 21:00;CYOW 022100Z 36016KT 15SM FEW070 BKN200 M10/M21 A3021 RMK AC1CI2 SLP241

CYOW;2009-03-02 22:00;CYOW 022200Z 36015G20KT 15SM FEW070 BKN220 M10/M20 A3021 RMK AC1CI2 SLP240

CYOW;2009-03-02 23:00;CYOW 022300Z 35013KT 15SM FEW060 BKN240 M10/M21 A3022 RMK SC1CI0 SLP245

CYOW;2009-03-03 00:00;CYOW 030000Z 35012G17KT 15SM FEW060 SCT220 M11/M21 A3025 RMK SC1CI2 SLP252

CYOW;2009-03-03 01:00;CYOW 030100Z 34012G18KT 15SM FEW055 SCT220 M12/M21 A3024 RMK SC2CI1 SLP250

CYOW;2009-03-03 02:00;CYOW 030200Z 34012KT 15SM FEW055 M12/M21 A3025 RMK SC1 SLP252

CYOW;2009-03-03 03:00;CYOW 030300Z 35010G19KT 15SM SKC M13/M22 A3025 RMK SLP254

CYOW;2009-03-03 04:00;CYOW 030400Z 35012G17KT 15SM FEW220 M14/M22 A3023 RMK CI0 SLP248

CYOW;2009-03-03 05:00;CYOW 030500Z 34012G20KT 15SM FEW210 M14/M22 A3022 RMK CI0 SLP244

CYOW;2009-03-03 06:00;CYOW 030600Z 32012KT 15SM FEW210 M15/M22 A3023 RMK CI0 SLP247

CYOW;2009-03-03 07:00;CYOW 030700Z 32011KT 15SM SKC M16/M23 A3023 RMK SLP249

CYOW;2009-03-03 08:00;CYOW 030800Z 33011KT 15SM SKC M16/M23 A3024 RMK SLP250

CYOW;2009-03-03 09:00;CYOW 030900Z 32014KT 15SM SKC M17/M24 A3024 RMK SLP251

CYOW;2009-03-03 10:00;CYOW 031000Z 32012KT 15SM SKC M17/M24 A3026 RMK SLP258

CYOW;2009-03-03 11:00;CYOW 031100Z 31012KT 15SM FEW210 M18/M24 A3028 RMK CI1 SLP263

CYOW;2009-03-03 12:00;CYOW 031200Z 31013KT 15SM FEW210 M18/M25 A3030 RMK CI1 SLP270

CYOW;2009-03-03 13:00;CYOW 031300Z 31011KT 15SM FEW210 M18/M24 A3031 RMK CI1 SLP275

CYOW;2009-03-03 14:00;CYOW 031400Z 31010KT 15SM FEW210 M17/M24 A3032 RMK CI1 SLP279

CYOW;2009-03-03 15:00;CYOW 031500Z 28010KT 15SM SKC M16/M23 A3034 RMK SLP283

CYOW;2009-03-03 16:00;CYOW 031600Z 27010KT 15SM SKC M14/M22 A3034 RMK SLP284

CYOW;2009-03-03 17:00;CYOW 031700Z 27006KT 15SM SKC M13/M22 A3033 RMK SLP280

CYOW;2009-03-03 18:00;CYOW 031800Z 28011KT 15SM SKC M12/M21 A3031 RMK SLP273

CYOW;2009-03-03 19:00;CYOW 031900Z 27010KT 15SM SKC M11/M21 A3029 RMK SLP267

CYOW;2009-03-03 20:00;CYOW 032000Z 26011G16KT 15SM SKC M10/M20 A3028 RMK SLP266

CYOW;2009-03-03 21:00;CYOW 032100Z 27014KT 15SM SKC M09/M20 A3029 RMK SLP267

CYOW;2009-03-03 22:00;CYOW 032200Z 27011KT 15SM SKC M09/M20 A3030 RMK SLP270

CYOW;2009-03-03 23:00;CYOW 032300Z 28009G16KT 15SM SKC M09/M20 A3030 RMK SLP270

CYOW;2009-03-04 00:00;CYOW 040000Z 28007KT 15SM FEW070 FEW210 M10/M19 A3031 RMK AC1CI0 SLP273

CYOW;2009-03-04 01:00;CYOW 040100Z 24003KT 15SM SKC M10/M19 A3031 RMK SLP275

CYOW;2009-03-04 02:00;CYOW 040200Z 21002KT 15SM SKC M10/M19 A3032 RMK SLP278

CYOW;2009-03-04 03:00;CYOW 040300Z 25003KT 15SM SCT180 M11/M19 A3032 RMK AC2 SLP278

CYOW;2009-03-04 04:00;CYOW 040400Z 23003KT 15SM BKN190 M11/M19 A3032 RMK AC5 SLP278

CYOW;2009-03-04 05:00;CYOW 040500Z 23003KT 15SM SKC M12/M19 A3031 RMK SLP275

CYOW;2009-03-04 06:00;CYOW 040600Z 24003KT 15SM SKC M12/M19 A3031 RMK SLP275

CYOW;2009-03-04 07:00;CYOW 040700Z 26005KT 15SM SKC M12/M19 A3031 RMK SLP273

CYOW;2009-03-04 08:00;CYOW 040800Z 25006KT 15SM SKC M13/M19 A3031 RMK SLP272

CYOW;2009-03-04 09:00;CYOW 040900Z 24004KT 15SM SKC M13/M19 A3030 RMK SLP270

CYOW;2009-03-04 10:00;CYOW 041000Z 26004KT 15SM FEW070 M13/M19 A3031 RMK AC1 SLP274

CYOW;2009-03-04 11:00;CYOW 041100Z 26003KT 15SM FEW070 M14/M19 A3032 RMK AC1 SLP277

CYOW;2009-03-04 12:00;CYOW 041200Z 25004KT 15SM FEW070 M14/M19 A3032 RMK AC1 SLP277

CYOW;2009-03-04 13:00;CYOW 041300Z 28005KT 15SM FEW070 M12/M17 A3033 RMK AC1 SLP279

CYOW;2009-03-04 14:00;CYOW 041400Z 29011KT 15SM FEW070 M11/M16 A3032 RMK AC1 SLP278

CYOW;2009-03-04 15:00;CYOW 041500Z 30010KT 15SM FEW200 M09/M15 A3033 RMK CI0 SLP279

CYOW;2009-03-04 16:00;CYOW 041600Z CCA 28007KT 15SM FEW200 M07/M13 A3032 RMK CI0 SLP276

CYOW;2009-03-04 17:00;CYOW 041700Z 25008KT 15SM FEW040 FEW200 M06/M13 A3031 RMK SC1CI0 SLP272

CYOW;2009-03-04 18:00;CYOW 041800Z 25011KT 15SM FEW040 FEW200 M04/M13 A3029 RMK SC1CI0 SLP266

CYOW;2009-03-04 19:00;CYOW 041900Z 27013G19KT 15SM FEW040 FEW200 M03/M13 A3028 RMK SC1CI0 SLP261

CYOW;2009-03-04 20:00;CYOW 042000Z 26012G17KT 15SM FEW040 FEW200 M03/M13 A3027 RMK CU1CI0 SLP258

CYOW;2009-03-04 21:00;CYOW 042100Z 28012G17KT 15SM FEW040 FEW200 M03/M14 A3026 RMK CU1CI0 SLP257

CYOW;2009-03-04 22:00;CYOW 042200Z 29011KT 15SM FEW200 M03/M13 A3026 RMK CI0 SLP257

CYOW;2009-03-04 23:00;CYOW 042300Z 31006KT 15SM FEW200 M04/M13 A3027 RMK CI0 SLP258

CYOW;2009-03-05 00:00;CYOW 050000Z 29002KT 15SM SKC M04/M14 A3028 RMK SLP261

CYOW;2009-03-05 01:00;CYOW 050100Z 30002KT 15SM SKC M04/M14 A3028 RMK SLP263

CYOW;2009-03-05 02:00;CYOW 050200Z 06003KT 15SM SKC M05/M14 A3031 RMK SLP271

CYOW;2009-03-05 03:00;CYOW 050300Z 06005KT 15SM SKC M06/M15 A3033 RMK SLP278

CYOW;2009-03-05 04:00;CYOW 050400Z 08004KT 15SM SKC M08/M16 A3033 RMK SLP280

CYOW;2009-03-05 05:00;CYOW 050500Z 11004KT 15SM SKC M08/M15 A3034 RMK SLP281

CYOW;2009-03-05 06:00;CYOW 050600Z 14003KT 15SM SKC M08/M16 A3033 RMK SLP280

CYOW;2009-03-05 07:00;CYOW 050700Z 11004KT 15SM SKC M10/M15 A3033 RMK SLP280

CYOW;2009-03-05 08:00;CYOW 050800Z 08003KT 15SM SKC M09/M17 A3034 RMK SLP281

CYOW;2009-03-05 09:00;CYOW 050900Z 04003KT 15SM SKC M10/M16 A3035 RMK SLP286

CYOW;2009-03-05 10:00;CYOW 051000Z 05005KT 15SM SKC M11/M16 A3037 RMK SLP293

CYOW;2009-03-05 11:00;CYOW 051100Z 06004KT 15SM FEW200 M11/M17 A3038 RMK CI1 SLP296

CYOW;2009-03-05 12:00;CYOW 051200Z 06006KT 15SM FEW200 M12/M17 A3038 RMK CI1 SLP296

CYOW;2009-03-05 13:00;CYOW 051300Z 07005KT 15SM FEW200 M11/M17 A3038 RMK CI1 SLP296

CYOW;2009-03-05 14:00;CYOW 051400Z 08006KT 15SM FEW200 M09/M15 A3038 RMK CI1 SLP295

CYOW;2009-03-05 15:00;CYOW 051500Z 11005KT 15SM FEW200 M07/M13 A3036 RMK CI0 SLP290

CYOW;2009-03-05 16:00;CYOW 051600Z 10004KT 15SM FEW180 BKN200 M04/M11 A3035 RMK AC2CI2 SLP286

CYOW;2009-03-05 17:00;CYOW 051700Z 08002KT 15SM FEW140 SCT180 BKN200 M02/M10 A3034 RMK AC2AC2CI1 SLP284

CYOW;2009-03-05 18:00;CYOW 051800Z 06006KT 15SM BKN070 BKN100 M01/M09 A3031 RMK AC5AC2 SLP272

CYOW;2009-03-05 19:00;CYOW 051900Z 08008KT 15SM BKN053 OVC080 M01/M08 A3028 RMK SC6AC2 SLP260

CYOW;2009-03-05 20:00;CYOW 052000Z 09010KT 15SM BKN038 OVC050 M01/M08 A3023 RMK SC7SC1 SLP246

CYOW;2009-03-05 21:00;CYOW 052100Z 08009KT 15SM SCT035 OVC130 M01/M07 A3022 RMK SC3AC5 SLP242

CYOW;2009-03-05 22:00;CYOW 052200Z 09011KT 15SM FEW035 BKN071 BKN130 M02/M08 A3018 RMK SC2AC3AC2 SLP228

CYOW;2009-03-05 23:00;CYOW 052300Z 09011KT 15SM FEW035 OVC082 M03/M07 A3019 RMK SC2AC6 SLP231

CYOW;2009-03-05 23:54;CYOW 052354Z 07011KT 12SM -SN OVC060 M03/ RMK SC8

CYOW;2009-03-06 00:00;CYOW 060000Z 08012KT 12SM -SN OVC060 M03/M07 A3018 RMK SC8 SLP229

CYOW;2009-03-06 01:00;CYOW 060100Z 09011KT 12SM OVC052 M04/M06 A3014 RMK SC8 INTMT -SN SLP215

CYOW;2009-03-06 01:37;CYOW 060137Z 09015G21KT 12SM OVC051 M04/ RMK SC8

CYOW;2009-03-06 02:00;CYOW 060200Z 09014KT 12SM OVC052 M04/M06 A3008 RMK SC8 SLP195

CYOW;2009-03-06 03:00;CYOW 060300Z 10010KT 12SM OVC050 M03/M06 A3005 RMK SC8 SLP184

CYOW;2009-03-06 04:00;CYOW 060400Z 10006KT 10SM OVC052 M03/M06 A3001 RMK SC8 SLP169

CYOW;2009-03-06 05:00;CYOW 060500Z 09010KT 15SM OVC055 M03/M06 A2999 RMK SC8 SLP164

CYOW;2009-03-06 05:24;CYOW 060524Z 07009G15KT 10SM -FZRA OVC058 M03/ RMK SC8

CYOW;2009-03-06 06:00;CYOW 060600Z 09008KT 10SM -FZRA OVC055 M03/M06 A2997 RMK SC8 SLP156

CYOW;2009-03-06 06:27;CYOW 060627Z 09012KT 10SM OVC056 M03/ REFZRA RMK SC8

CYOW;2009-03-06 07:00;CYOW 060700Z 09011KT 10SM OVC045 M03/M04 A2993 REFZRA RMK SC8 SLP141

CYOW;2009-03-06 08:00;CYOW 060800Z 08013KT 10SM OVC048 M03/M04 A2987 RMK SC8 SLP123

CYOW;2009-03-06 09:00;CYOW 060900Z 08010KT 7SM OVC038 M03/M04 A2986 RMK SC8 SLP118

CYOW;2009-03-06 10:00;CYOW 061000Z 07010KT 7SM OVC042 M03/M05 A2985 RMK SC8 SLP113

CYOW;2009-03-06 11:00;CYOW 061100Z 07008KT 7SM OVC039 M03/M05 A2982 RMK SC8 SLP106

CYOW;2009-03-06 12:00;CYOW 061200Z 05005KT 6SM BR OVC036 M03/M05 A2982 RMK SC8 SLP105

CYOW;2009-03-06 13:00;CYOW 061300Z 07007KT 6SM BR OVC031 M03/M04 A2980 RMK SC8 SLP097

CYOW;2009-03-06 13:07;CYOW 061307Z 09006KT 6SM -FZRA BR OVC030 M03/ RMK SC8 VRY FINE FZRA

CYOW;2009-03-06 14:00;CYOW 061400Z 08004KT 6SM -FZRA BR OVC028 M02/M03 A2977 RMK SC8 VRY FINE FZRA SLP088

CYOW;2009-03-06 15:00;CYOW 061500Z 04004KT 6SM -FZRA BR OVC026 M01/M02 A2976 RMK SC8 VRY FINE FZRA SLP083

CYOW;2009-03-06 16:00;CYOW 061600Z 09004KT 6SM -FZRA BR OVC023 M00/M02 A2973 RMK SC8 VRY FINE FZRA SLP074

CYOW;2009-03-06 16:35;CYOW 061635Z CCA 10004KT 8SM BKN023 OVC040 00/ REFZRA RMK SC6SC2

CYOW;2009-03-06 17:00;CYOW 061700Z 11003KT 8SM BKN022 OVC040 01/M01 A2969 REFZRA RMK SC6SC2 SLP059

CYOW;2009-03-06 18:00;CYOW 061800Z 12003KT 8SM BKN022 OVC040 03/00 A2963 RMK SC6SC2 SLP040

CYOW;2009-03-06 19:00;CYOW 061900Z 20007KT 15SM BKN023 OVC040 08/02 A2962 RMK SC7SC1 SLP034

CYOW;2009-03-06 20:00;CYOW 062000Z 22006G15KT 15SM BKN024 OVC040 09/04 A2961 RMK SC7SC1 SLP033

CYOW;2009-03-06 21:00;CYOW 062100Z 21009KT 15SM SCT025 OVC035 08/04 A2962 RMK SC3SC5 SLP033

CYOW;2009-03-06 22:00;CYOW 062200Z 19011KT 15SM FEW030 FEW140 09/05 A2958 RMK SC1AC1 SLP021

CYOW;2009-03-06 23:00;CYOW 062300Z 21009KT 10SM VCSH BKN046 09/06 A2962 RMK SC6 SH S-N SLP035

CYOW;2009-03-07 00:00;CYOW 070000Z 25014G19KT 15SM FEW050 09/06 A2968 RMK SC2 SLP054

CYOW;2009-03-07 01:00;CYOW 070100Z 26015G21KT 15SM BKN046 08/02 A2971 RMK SC5 SLP066

CYOW;2009-03-07 02:00;CYOW 070200Z 27015G20KT 15SM FEW034 OVC040 07/02 A2976 RMK SC2SC6 SLP084

CYOW;2009-03-07 03:00;CYOW 070300Z 26013KT 15SM FEW034 OVC038 06/02 A2980 RMK SC2SC6 SLP096

CYOW;2009-03-07 04:00;CYOW 070400Z 28011G18KT 15SM FEW034 OVC045 06/01 A2984 RMK SC2SC6 SLP110

CYOW;2009-03-07 05:00;CYOW 070500Z 27012KT 15SM FEW024 OVC034 06/01 A2988 RMK SC2SC6 SLP122

CYOW;2009-03-07 06:00;CYOW 070600Z 27011KT 15SM OVC036 05/01 A2992 RMK SC8 SLP135

CYOW;2009-03-07 07:00;CYOW 070700Z 27009KT 15SM OVC036 05/01 A2994 RMK SC8 SLP142

CYOW;2009-03-07 08:00;CYOW 070800Z 27008KT 15SM OVC036 04/00 A2996 RMK SC8 SLP151

CYOW;2009-03-07 09:00;CYOW 070900Z 25007KT 15SM OVC034 04/M00 A3000 RMK SC8 SLP163

CYOW;2009-03-07 10:00;CYOW 071000Z 28008KT 15SM OVC034 04/M01 A3003 RMK SC8 SLP172

CYOW;2009-03-07 11:00;CYOW 071100Z 27004KT 15SM OVC034 04/M01 A3004 RMK SC8 SLP175

CYOW;2009-03-07 12:00;CYOW 071200Z 22004KT 12SM OVC030 04/M00 A3004 RMK SC8 SLP176

CYOW;2009-03-07 13:00;CYOW 071300Z 23004KT 12SM OVC033 03/00 A3006 RMK SC8 SLP184

CYOW;2009-03-07 14:00;CYOW 071400Z 23003KT 12SM OVC036 03/00 A3008 RMK SC8 SLP189

CYOW;2009-03-07 15:00;CYOW 071500Z 26002KT 12SM OVC035 04/00 A3010 RMK SC8 SLP197

CYOW;2009-03-07 16:00;CYOW 071600Z 23004KT 12SM BKN034 05/01 A3007 RMK SC7 SLP187

CYOW;2009-03-07 17:00;CYOW 071700Z 24004KT 12SM SCT030 SCT240 06/M01 A3005 RMK SC3CI0 SLP182

CYOW;2009-03-07 18:00;CYOW 071800Z 22004KT 12SM FEW030 BKN240 07/M01 A3002 RMK SC2CI2 SLP169

CYOW;2009-03-07 19:00;CYOW 071900Z 17006KT 12SM FEW030 OVC180 08/M00 A3000 RMK SC2AS2 SLP164

CYOW;2009-03-07 20:00;CYOW 072000Z 19007KT 12SM FEW030 OVC150 07/M00 A2996 RMK SC1AS2 SLP151

CYOW;2009-03-07 21:00;CYOW 072100Z 17006KT 12SM OVC140 06/M00 A2996 RMK AS8 SLP151

CYOW;2009-03-07 22:00;CYOW 072200Z 17005KT 12SM OVC100 05/M00 A2995 RMK AS8 SLP147

CYOW;2009-03-07 23:00;CYOW 072300Z 16005KT 12SM OVC070 03/M00 A2992 RMK AS8 SLP136

CYOW;2009-03-07 23:55;CYOW 072355Z 16003KT 12SM -RA OVC063 03/ RMK SC8

CYOW;2009-03-08 00:00;CYOW 080000Z 15002KT 12SM -RA OVC059 03/M00 A2991 RMK SC8 VRY LGT RA SLP133

CYOW;2009-03-08 01:00;CYOW 080100Z 18003KT 12SM -RA OVC053 03/01 A2990 RMK SC8 SLP129

CYOW;2009-03-08 02:00;CYOW 080200Z 17003KT 5SM -RA OVC044 03/01 A2986 RMK SC8 SLP118

CYOW;2009-03-08 03:00;CYOW 080300Z 16007KT 5SM -RA OVC056 02/01 A2982 RMK SC8 SLP102

CYOW;2009-03-08 04:00;CYOW 080400Z 34006KT 5SM -RA BR OVC004 02/01 A2983 RMK ST8 SLP107

CYOW;2009-03-08 04:50;CYOW 080450Z 27002KT 3SM BR OVC006 02/ RMK ST8

CYOW;2009-03-08 05:00;CYOW 080500Z 00000KT 3SM BR OVC010 02/01 A2981 RMK SC8 SLP100

CYOW;2009-03-08 06:00;CYOW 080600Z 14002KT 2SM BR OVC008 02/01 A2982 RMK ST8 SLP101

CYOW;2009-03-08 07:00;CYOW 080700Z 18004KT 2SM BR FEW010 OVC096 02/01 A2982 RMK SF2AC6 SLP103

CYOW;2009-03-08 08:00;CYOW 080800Z 24002KT 1 1/2SM BR OVC110 01/01 A2982 RMK AC8 SLP102

CYOW;2009-03-08 09:00;CYOW 080900Z 24004KT 1 1/2SM BR SKC 01/00 A2983 RMK SLP106

CYOW;2009-03-08 10:00;CYOW 081000Z 27005KT 2SM BR SKC 00/M00 A2986 RMK FROIN SLP116

CYOW;2009-03-08 11:00;CYOW 081100Z 26007KT 5SM BR FEW110 00/M01 A2990 RMK AC1 FROIN SLP128

CYOW;2009-03-08 12:00;CYOW 081200Z 29007KT 5SM BR FEW020 01/M01 A2993 RMK SC2 SLP139

CYOW;2009-03-08 13:00;CYOW 081300Z 28006KT 15SM FEW020 SCT240 01/M00 A2996 RMK SC2CI0 SLP149

CYOW;2009-03-08 14:00;CYOW 081400Z 32015KT 15SM FEW240 03/M04 A2999 RMK CI0 SLP160

CYOW;2009-03-08 15:00;CYOW 081500Z 33014G20KT 15SM FEW020 BKN240 03/M06 A3001 RMK CF1CI1 SLP167

CYOW;2009-03-08 16:00;CYOW 081600Z 34008KT 15SM FEW020 BKN240 03/M05 A3002 RMK CF1CI2 SLP170

CYOW;2009-03-08 17:00;CYOW 081700Z 33009KT 15SM FEW020 BKN240 04/M05 A3002 RMK CF1CI2 SLP172

CYOW;2009-03-08 18:00;CYOW 081800Z 34009KT 15SM BKN240 04/M06 A3003 RMK CI2 SLP175

CYOW;2009-03-08 19:00;CYOW 081900Z 34011KT 15SM BKN240 04/M07 A3003 RMK CI2 SLP175

CYOW;2009-03-08 20:00;CYOW 082000Z 36007KT 15SM BKN240 03/M08 A3004 RMK CI2 SLP178

CYOW;2009-03-08 21:00;CYOW 082100Z 02009KT 15SM BKN240 03/M09 A3004 RMK CI3 SLP179

CYOW;2009-03-08 22:00;CYOW 082200Z 01007KT 15SM BKN240 02/M10 A3005 RMK CI4 SLP181

CYOW;2009-03-08 23:00;CYOW 082300Z 36006KT 15SM FEW150 BKN240 01/M10 A3005 RMK AC1CI4 SLP181

CYOW;2009-03-09 00:00;CYOW 090000Z 36005KT 15SM FEW150 BKN240 M00/M09 A3005 RMK AC1CI4 SLP182

CYOW;2009-03-09 01:00;CYOW 090100Z 36005KT 15SM FEW150 BKN240 M01/M10 A3004 RMK AC1CS4 SLP178

CYOW;2009-03-09 02:00;CYOW 090200Z 04009KT 15SM OVC230 M01/M11 A3003 RMK CS5 SLP174

CYOW;2009-03-09 03:00;CYOW 090300Z 05010KT 15SM SCT170 OVC230 M01/M11 A3000 RMK AC3CS3 SLP165

CYOW;2009-03-09 04:00;CYOW 090400Z 06014KT 15SM BKN160 OVC210 M01/M11 A2996 RMK AC6CS1 SLP151

CYOW;2009-03-09 05:00;CYOW 090500Z 08011KT 15SM OVC150 M01/M10 A2998 RMK AS8 SLP157

CYOW;2009-03-09 06:00;CYOW 090600Z 08016G21KT 15SM OVC150 M02/M10 A2995 RMK AS8 SLP146

CYOW;2009-03-09 07:00;CYOW 090700Z 07011G17KT 15SM OVC120 M03/M11 A2994 RMK AS8 SLP144

CYOW;2009-03-09 08:00;CYOW 090800Z 08012G25KT 15SM OVC084 M03/M10 A2989 RMK AS8 SLP127

CYOW;2009-03-09 09:00;CYOW 090900Z 08017KT 15SM OVC056 M04/M10 A2989 RMK NS8 SLP128

CYOW;2009-03-09 09:06;CYOW 090906Z 08017KT 15SM -SN OVC049 M04/ RMK NS8

CYOW;2009-03-09 10:00;CYOW 091000Z 08013G20KT 15SM -SN OVC054 M04/M10 A2988 RMK NS8 SLP124

CYOW;2009-03-09 11:00;CYOW 091100Z 07015KT 5SM -SN OVC022 M06/M09 A2987 RMK NS8 SLP120

CYOW;2009-03-09 11:31;CYOW 091131Z 07018G25KT 4SM -SN -FZDZ OVC025 M06/ RMK NS8

CYOW;2009-03-09 12:00;CYOW 091200Z 06020G27KT 4SM -SN -FZDZ OVC030 M06/M08 A2986 RMK NS8 /S01/ SLP119

CYOW;2009-03-09 12:52;CYOW 091252Z 06016G23KT 4SM -SN -FZRA OVC022 M05/ RMK NS8

CYOW;2009-03-09 13:00;CYOW 091300Z 06017G23KT 3SM -SN -FZRA OVC020 M05/M08 A2991 RMK NS8 SLP134

CYOW;2009-03-09 13:11;CYOW 091311Z 05016KT 2SM -SN -FZRA OVC020 M05/ RMK NS8

CYOW;2009-03-09 13:36;CYOW 091336Z 05015KT 1 1/2SM -SN OVC020 M05/ REFZRA RMK NS8

CYOW;2009-03-09 14:00;CYOW 091400Z 05015KT 2SM -SN FEW010 OVC027 M04/M07 A2994 REFZRA RMK SF2NS6 SLP146

CYOW;2009-03-09 15:00;CYOW 091500Z 03011KT 2SM -SN SCT010 OVC025 M03/M06 A2997 RMK SF3NS5 SLP157

CYOW;2009-03-09 16:00;CYOW 091600Z 03015G20KT 3SM -SN FEW013 OVC033 M03/M06 A3000 RMK SF2NS6 SLP167

CYOW;2009-03-09 17:00;CYOW 091700Z 03010G17KT 3SM -SN FEW010 OVC030 M03/M05 A3004 RMK SF2NS6 SLP178

CYOW;2009-03-09 18:00;CYOW 091800Z 01011KT 2SM -SN SCT010 OVC033 M02/M05 A3004 RMK SF4NS4 SLP179

CYOW;2009-03-09 18:44;CYOW 091844Z 01009KT 10SM SCT015 BKN040 M01/ RMK SF3SC3

CYOW;2009-03-09 19:00;CYOW 091900Z 36007KT 12SM BKN020 M01/M05 A3007 RMK SC6 SLP190

CYOW;2009-03-09 20:00;CYOW 092000Z 36005KT 15SM OVC018 M01/M05 A3011 RMK SC8 SLP201

CYOW;2009-03-09 21:00;CYOW 092100Z 02006KT 15SM OVC026 M00/M05 A3014 RMK SC8 SLP213

CYOW;2009-03-09 22:00;CYOW 092200Z 30003KT 15SM BKN027 00/M04 A3017 RMK SC7 SLP224

CYOW;2009-03-09 23:00;CYOW 092300Z 27005KT 15SM BKN027 M00/M05 A3020 RMK SC7 SLP232

CYOW;2009-03-10 00:00;CYOW 100000Z 24004KT 15SM BKN027 M01/M06 A3023 RMK SC6 SLP243

CYOW;2009-03-10 01:00;CYOW 100100Z 27004KT 15SM SCT027 M02/M06 A3026 RMK SC4 SLP253

CYOW;2009-03-10 02:00;CYOW 100200Z 30004KT 15SM FEW027 M03/M06 A3029 RMK SC1 SLP264

CYOW;2009-03-10 03:00;CYOW 100300Z 19003KT 15SM FEW030 M03/M06 A3029 RMK SC1 SLP264

CYOW;2009-03-10 04:00;CYOW 100400Z 18006KT 15SM FEW030 M03/M06 A3028 RMK SC1 SLP262

CYOW;2009-03-10 05:00;CYOW 100500Z 19005KT 15SM SKC M04/M06 A3029 RMK FROIN SLP263

CYOW;2009-03-10 06:00;CYOW 100600Z 20004KT 15SM SKC M04/M06 A3030 RMK FROIN SLP268

CYOW;2009-03-10 07:00;CYOW 100700Z 20003KT 15SM FEW250 M05/M06 A3031 RMK CI0 FROIN SLP269

CYOW;2009-03-10 08:00;CYOW 100800Z 27003KT 15SM SCT250 M05/M07 A3031 RMK CI1 FROIN SLP272

CYOW;2009-03-10 09:00;CYOW 100900Z 20002KT 15SM BKN220 M05/M07 A3032 RMK CS2 FROIN SLP273

CYOW;2009-03-10 10:00;CYOW 101000Z 16002KT 15SM BKN200 M06/M07 A3032 RMK CS2 FROIN SLP273

CYOW;2009-03-10 11:00;CYOW 101100Z 16004KT 15SM SCT200 M06/M07 A3033 RMK CS2 FROIN SLP276

CYOW;2009-03-10 12:00;CYOW 101200Z 12002KT 15SM FEW180 M06/M07 A3034 RMK AC1 SLP280

CYOW;2009-03-10 13:00;CYOW 101300Z 12003KT 15SM BKN019 BKN030 M04/M06 A3033 RMK SC6SC2 SLP278

CYOW;2009-03-10 14:00;CYOW 101400Z 00000KT 15SM BKN017 OVC030 M03/M05 A3034 RMK SC7SC1 SLP283

CYOW;2009-03-10 15:00;CYOW 101500Z 00000KT 15SM OVC016 M02/M04 A3034 RMK SC8 SLP280

CYOW;2009-03-10 16:00;CYOW 101600Z 05004KT 15SM BKN015 OVC030 M01/M04 A3031 RMK SC6SC2 SLP272

CYOW;2009-03-10 17:00;CYOW 101700Z 09009KT 15SM SCT020 OVC150 M00/M03 A3030 RMK SC3AC5 SLP266

CYOW;2009-03-10 18:00;CYOW 101800Z 11009KT 15SM BKN015 OVC040 00/M03 A3025 RMK SC6SC2 SLP251

CYOW;2009-03-10 19:00;CYOW 101900Z 12008KT 15SM BKN017 OVC040 01/M02 A3022 RMK SC6SC2 SLP240

CYOW;2009-03-10 20:00;CYOW 102000Z 08008KT 15SM BKN022 OVC040 01/M02 A3019 RMK SC6SC2 SLP230

CYOW;2009-03-10 21:00;CYOW 102100Z 09011KT 15SM BKN025 OVC100 02/M03 A3016 RMK SC5AC3 SLP218

CYOW;2009-03-10 22:00;CYOW 102200Z 09008KT 15SM OVC024 01/M03 A3016 RMK SC8 SLP218

CYOW;2009-03-10 23:00;CYOW 102300Z 09008KT 15SM OVC026 01/M03 A3015 RMK SC8 SLP216

CYOW;2009-03-11 00:00;CYOW 110000Z 08009KT 10SM SCT032 OVC091 01/M03 A3014 RMK SC4AC4 SLP214

CYOW;2009-03-11 00:22;CYOW 110022Z 08009KT 7SM -SN SCT055 OVC090 01/ RMK SC4AC4

CYOW;2009-03-11 01:00;CYOW 110100Z 08010KT 6SM -SN OVC050 00/M02 A3010 RMK SC8 SLP198

CYOW;2009-03-11 02:00;CYOW 110200Z 09008KT 7SM -SN OVC037 00/M02 A3006 RMK SC8 SLP186

CYOW;2009-03-11 02:44;CYOW 110244Z 09008KT 5SM -RA BR OVC020 00/ RMK SC8

CYOW;2009-03-11 03:00;CYOW 110300Z 10009KT 3SM -RA BR OVC018 00/M01 A3003 RMK NS8 SLP176

CYOW;2009-03-11 03:33;CYOW 110333Z 09009KT 2 1/2SM -RA BR FEW004 OVC017 00/ RMK SF2NS6

CYOW;2009-03-11 04:00;CYOW 110400Z CCA 09009KT 2 1/2SM -RA BR BKN003 OVC017 00/M00 A2998 RMK SF6NS2 PRESFR SLP158

CYOW;2009-03-11 04:51;CYOW 110451Z 10009KT 1 1/2SM -DZ BR OVC003 01/ RMK NS8 CIG RAG

CYOW;2009-03-11 05:00;CYOW 110500Z 09009KT 1 1/2SM -RA BR OVC002 01/00 A2994 RMK NS8 CIG RAG SLP146

CYOW;2009-03-11 06:00;CYOW 110600Z 11011KT 2 1/2SM -RA BR BKN002 OVC011 01/00 A2990 RMK SF6NS2 PRESFR SLP129

CYOW;2009-03-11 06:33;CYOW 110633Z CCA 10010KT 4SM -RA BR BKN002 OVC009 01/ RMK SF6NS2

CYOW;2009-03-11 07:00;CYOW 110700Z CCA 11010KT 4SM -RA BR BKN002 OVC010 01/01 A2986 RMK SF6NS2 PRESFR SLP116

CYOW;2009-03-11 07:37;CYOW 110737Z 12009KT 3SM -RA BR FEW002 OVC011 01/ RMK SF2NS6

CYOW;2009-03-11 08:00;CYOW 110800Z 12011KT 3SM -RA BR FEW002 OVC011 01/01 A2979 RMK SF2NS6 PRESFR SLP095

CYOW;2009-03-11 08:24;CYOW 110824Z 12010KT 4SM -RA BR FEW002 OVC018 02/ RMK SF2SC6

CYOW;2009-03-11 09:00;CYOW 110900Z 12010KT 4SM -RA BR FEW003 OVC012 02/01 A2973 RMK SF2SC6 SLP072

CYOW;2009-03-11 09:42;CYOW 110942Z 13008KT 5SM -RA BR OVC007 02/ RMK NS8 CIG RAG

CYOW;2009-03-11 10:00;CYOW 111000Z 13008KT 5SM -RA BR OVC005 02/02 A2971 RMK NS8 CIG RAG SLP067

CYOW;2009-03-11 11:00;CYOW 111100Z 14008KT 5SM -RA BR OVC006 02/02 A2968 RMK NS8 SLP054

CYOW;2009-03-11 12:00;CYOW 111200Z CCA 14010KT 6SM -RA BR OVC007 03/02 A2962 RMK NS8 PRESFR SLP034

CYOW;2009-03-11 13:00;CYOW 111300Z 18011G17KT 6SM -RA BR OVC008 04/03 A2956 RMK NS8 SLP017

CYOW;2009-03-11 14:00;CYOW 111400Z 19016G22KT 6SM -RA BR BKN008 OVC018 05/04 A2953 RMK ST6NS2 SLP007

CYOW;2009-03-11 14:09;CYOW 111409Z 19014G21KT 2SM -DZ BR BKN010 OVC018 05/ RMK ST6NS2

CYOW;2009-03-11 15:00;CYOW 111500Z 20010KT 1 1/2SM -DZ BR OVC005 05/05 A2954 RMK FG2NS6 SLP008

CYOW;2009-03-11 15:50;CYOW 111550Z 23012G18KT 10SM SCT010 BKN019 BKN050 07/ RMK SF3SC3SC1

CYOW;2009-03-11 16:00;CYOW 111600Z 24016KT 15SM FEW020 SCT050 07/06 A2956 RMK CU2SC2 SLP015

CYOW;2009-03-11 17:00;CYOW 111700Z 25018G30KT 15SM SCT045 07/00 A2959 RMK CU4 SLP025

CYOW;2009-03-11 18:00;CYOW 111800Z 25025G30KT 15SM BKN050 06/M02 A2963 RMK CU5 SLP039

CYOW;2009-03-11 19:00;CYOW 111900Z 25021G31KT 15SM BKN050 05/M04 A2968 RMK CU6 SLP054

CYOW;2009-03-11 20:00;CYOW 112000Z 25018G32KT 15SM BKN059 04/M04 A2971 RMK CU6 SLP063

CYOW;2009-03-11 21:00;CYOW 112100Z CCA 24025G34KT 15SM BKN054 03/M05 A2974 RMK SC6 PRESRR CU EMBED SLP076

CYOW;2009-03-11 22:00;CYOW 112200Z CCA 25026G32KT 15SM SCT047 BKN054 02/M07 A2982 RMK CU3SC2 PRESRR SLP102

CYOW;2009-03-11 23:00;CYOW 112300Z 27026G34KT 15SM BKN052 M00/M09 A2988 RMK SC6 VIRGA ALQDS PRESRR SLP122

CYOW;2009-03-12 00:00;CYOW 120000Z 27025G38KT 15SM OVC055 M02/M11 A2996 RMK SC8 PRESRR SLP150

CYOW;2009-03-12 00:31;CYOW 120031Z 27030G37KT 15SM -SN OVC050 M03/ RMK SC8

CYOW;2009-03-12 01:00;CYOW 120100Z 27029G36KT 15SM SCT040 M05/M14 A3004 RMK SC4 PRESRR SLP178

CYOW;2009-03-12 02:00;CYOW 120200Z 28019G28KT 15SM SCT042 M06/M14 A3012 RMK SC3 PRESRR SLP206

CYOW;2009-03-12 03:00;CYOW 120300Z 29019G25KT 15SM SCT040 M06/M14 A3017 RMK SC3 SLP224

CYOW;2009-03-12 04:00;CYOW 120400Z 29019G28KT 15SM SCT040 M07/M15 A3022 RMK SC3 SLP240

CYOW;2009-03-12 05:00;CYOW 120500Z 30019G27KT 15SM FEW040 M08/M16 A3026 RMK SC1 SLP253

CYOW;2009-03-12 06:00;CYOW 120600Z 30015G21KT 15SM SKC M08/M17 A3030 RMK SLP266

CYOW;2009-03-12 07:00;CYOW 120700Z 30018KT 15SM SKC M09/M17 A3034 RMK SLP279

CYOW;2009-03-12 08:00;CYOW 120800Z 29014G19KT 15SM SKC M09/M17 A3035 RMK SLP283

CYOW;2009-03-12 09:00;CYOW 120900Z 29013G20KT 15SM SKC M10/M18 A3037 RMK SLP292

CYOW;2009-03-12 10:00;CYOW 121000Z 28014KT 15SM SKC M11/M18 A3041 RMK SLP304

CYOW;2009-03-12 11:00;CYOW 121100Z 29011G17KT 15SM SKC M11/M19 A3044 RMK SLP314

CYOW;2009-03-12 12:00;CYOW 121200Z 29017KT 15SM SKC M12/M19 A3047 RMK SLP325

CYOW;2009-03-12 13:00;CYOW 121300Z 29015KT 15SM SKC M12/M19 A3049 RMK SLP333

CYOW;2009-03-12 14:00;CYOW 121400Z 30015KT 15SM FEW030 M11/M18 A3051 RMK SC1 SLP338

CYOW;2009-03-12 15:00;CYOW 121500Z 30018KT 15SM FEW030 M10/M18 A3052 RMK SC1 SLP343

CYOW;2009-03-12 16:00;CYOW 121600Z 29015G21KT 15SM FEW030 M10/M19 A3053 RMK SC1 SLP346

CYOW;2009-03-12 17:00;CYOW 121700Z 30015G21KT 15SM FEW040 FEW240 M10/M18 A3054 RMK CF1CI0 SLP349

CYOW;2009-03-12 18:00;CYOW 121800Z 30016G22KT 15SM FEW040 FEW240 M09/M21 A3053 RMK CF1CI0 SLP346

CYOW;2009-03-12 19:00;CYOW 121900Z 31014KT 15SM FEW045 FEW240 M08/M19 A3051 RMK CF1CI0 SLP341

CYOW;2009-03-12 20:00;CYOW 122000Z 30011G17KT 15SM FEW045 FEW240 M08/M18 A3051 RMK CF1CI0 SLP340

CYOW;2009-03-12 21:00;CYOW 122100Z 30012KT 15SM FEW045 FEW240 M07/M18 A3050 RMK CF1CI0 SLP336

CYOW;2009-03-12 22:00;CYOW 122200Z 30006KT 15SM FEW050 FEW240 M07/M18 A3049 RMK CF1CI0 SLP334

CYOW;2009-03-12 23:00;CYOW 122300Z 32006KT 15SM FEW240 M08/M18 A3048 RMK CI0 SLP330

CYOW;2009-03-13 00:00;CYOW 130000Z 32004KT 15SM FEW240 M08/M18 A3049 RMK CI0 SLP334

CYOW;2009-03-13 01:00;CYOW 130100Z 29003KT 15SM SKC M09/M19 A3050 RMK SLP337

CYOW;2009-03-13 02:00;CYOW 130200Z 27003KT 15SM SKC M09/M19 A3050 RMK SLP339

CYOW;2009-03-13 03:00;CYOW 130300Z 25003KT 15SM SKC M10/M16 A3050 RMK SLP339

CYOW;2009-03-13 04:00;CYOW 130400Z 26004KT 15SM SKC M10/M17 A3052 RMK SLP344

CYOW;2009-03-13 05:00;CYOW 130500Z 28002KT 15SM SKC M11/M17 A3052 RMK SLP346

CYOW;2009-03-13 06:00;CYOW 130600Z 25004KT 15SM SKC M11/M19 A3053 RMK SLP349

CYOW;2009-03-13 07:00;CYOW 130700Z 24003KT 15SM SKC M11/M20 A3053 RMK SLP349

CYOW;2009-03-13 08:00;CYOW 130800Z 27004KT 15SM SKC M12/M19 A3053 RMK SLP348

CYOW;2009-03-13 09:00;CYOW 130900Z 27004KT 15SM SKC M12/M20 A3054 RMK SLP350

CYOW;2009-03-13 10:00;CYOW 131000Z 27003KT 15SM SKC M13/M18 A3054 RMK SLP350

CYOW;2009-03-13 11:00;CYOW 131100Z 26005KT 15SM SKC M13/M19 A3053 RMK SLP349

CYOW;2009-03-13 12:00;CYOW 131200Z 25005KT 15SM SKC M13/M18 A3054 RMK SLP350

CYOW;2009-03-13 13:00;CYOW 131300Z 26007KT 15SM SKC M11/M17 A3054 RMK SLP351

CYOW;2009-03-13 14:00;CYOW 131400Z 29007KT 15SM SKC M10/M17 A3054 RMK SLP351

CYOW;2009-03-13 15:00;CYOW 131500Z 27005KT 15SM SKC M09/M18 A3052 RMK SLP344

CYOW;2009-03-13 16:00;CYOW 131600Z 27006KT 15SM SKC M07/M17 A3050 RMK SLP337

CYOW;2009-03-13 17:00;CYOW 131700Z 24008KT 15SM SKC M06/M17 A3049 RMK SLP333

CYOW;2009-03-13 18:00;CYOW 131800Z 23005KT 15SM SKC M05/M17 A3044 RMK SLP318

CYOW;2009-03-13 19:00;CYOW 131900Z 19009KT 15SM SKC M03/M17 A3040 RMK SLP304

CYOW;2009-03-13 20:00;CYOW 132000Z 24010KT 15SM SKC M03/M16 A3037 RMK SLP293

CYOW;2009-03-13 21:00;CYOW 132100Z 24010KT 15SM FEW150 FEW210 SCT250 M03/M14 A3034 RMK AC1CI1CI0 SLP283

CYOW;2009-03-13 22:00;CYOW 132200Z 23009KT 15SM BKN160 BKN210 BKN250 M03/M14 A3031 RMK AC5CI0CI0 SLP273

CYOW;2009-03-13 23:00;CYOW 132300Z 21008KT 15SM FEW110 BKN150 BKN250 M03/M13 A3029 RMK AC2AC3CI0 SLP267

CYOW;2009-03-14 00:00;CYOW 140000Z 20010G15KT 15SM FEW110 BKN120 BKN250 M04/M12 A3029 RMK AC2AC3CI0 SLP267

CYOW;2009-03-14 01:00;CYOW 140100Z 21010KT 15SM FEW140 FEW250 M05/M11 A3028 RMK AC1CI1 SLP263

CYOW;2009-03-14 02:00;CYOW 140200Z CCA 21007KT 15SM FEW110 FEW210 M05/M11 A3028 RMK AC1CI1 AC CI TR SLP261

CYOW;2009-03-14 03:00;CYOW 140300Z 21007KT 15SM FEW090 FEW210 M06/M11 A3025 RMK AC1CI0 SLP252

CYOW;2009-03-14 04:00;CYOW 140400Z 21006KT 15SM FEW075 SCT089 M06/M11 A3024 RMK AC0AC2 SLP247

CYOW;2009-03-14 05:00;CYOW 140500Z 21005KT 15SM SKC M07/M11 A3023 RMK SLP246

CYOW;2009-03-14 06:00;CYOW 140600Z 21005KT 15SM SKC M07/M11 A3022 RMK FROIN SLP243

CYOW;2009-03-14 07:00;CYOW 140700Z 20003KT 15SM FEW220 M07/M11 A3023 RMK CI0 FROIN SLP244

CYOW;2009-03-14 08:00;CYOW 140800Z 20004KT 15SM SKC M07/M11 A3022 RMK FROIN SLP240

CYOW;2009-03-14 09:00;CYOW 140900Z 21004KT 15SM SKC M08/M11 A3021 RMK FROIN SLP238

CYOW;2009-03-14 10:00;CYOW 141000Z 21004KT 15SM SKC M07/M10 A3020 RMK FROIN SLP236

CYOW;2009-03-14 11:00;CYOW 141100Z 22005KT 12SM FEW240 M07/M09 A3021 RMK CI1 FROIN SLP237

CYOW;2009-03-14 12:00;CYOW 141200Z 22004KT 12SM SKC M06/M09 A3021 RMK SLP238

CYOW;2009-03-14 13:00;CYOW 141300Z 23008KT 12SM SKC M05/M08 A3021 RMK SLP237

CYOW;2009-03-14 14:00;CYOW 141400Z 23008KT 12SM SKC M03/M07 A3021 RMK SLP237

CYOW;2009-03-14 15:00;CYOW 141500Z 22009KT 12SM SKC M01/M07 A3020 RMK SLP235

CYOW;2009-03-14 16:00;CYOW 141600Z 24008KT 15SM SKC 01/M07 A3020 RMK SLP235

CYOW;2009-03-14 17:00;CYOW 141700Z 22010KT 15SM SKC 03/M08 A3019 RMK SLP232

CYOW;2009-03-14 18:00;CYOW 141800Z 24010G15KT 15SM FEW240 04/M08 A3016 RMK CI1 SLP221

CYOW;2009-03-14 19:00;CYOW 141900Z 22011KT 15SM SCT240 05/M08 A3015 RMK CI2 SLP216

CYOW;2009-03-14 20:00;CYOW 142000Z 23011G16KT 15SM FEW240 05/M08 A3013 RMK CI1 SLP208

CYOW;2009-03-14 21:00;CYOW 142100Z 25012KT 15SM FEW240 05/M08 A3013 RMK CI1 SLP208

CYOW;2009-03-14 22:00;CYOW 142200Z 23011KT 15SM SCT240 05/M08 A3012 RMK CI2 SLP206

CYOW;2009-03-14 23:00;CYOW 142300Z 22007KT 15SM FEW240 04/M07 A3011 RMK CI1 SLP203

CYOW;2009-03-15 00:00;CYOW 150000Z 19008KT 15SM FEW240 03/M04 A3012 RMK CI1 SLP206

CYOW;2009-03-15 01:00;CYOW 150100Z 19006KT 15SM FEW240 01/M05 A3013 RMK CI1 SLP208

CYOW;2009-03-15 02:00;CYOW 150200Z 20006KT 15SM FEW140 01/M05 A3013 RMK AC1 SLP208

CYOW;2009-03-15 03:00;CYOW 150300Z 21005KT 15SM FEW140 M00/M05 A3013 RMK AC1 SLP210

CYOW;2009-03-15 04:00;CYOW 150400Z 22006KT 15SM FEW140 FEW240 00/M05 A3014 RMK AC1CI1 SLP211

CYOW;2009-03-15 05:00;CYOW 150500Z 22007KT 15SM FEW240 M00/M05 A3014 RMK CI1 SLP212

CYOW;2009-03-15 06:00;CYOW 150600Z 23007KT 15SM SKC M00/M06 A3014 RMK SLP210

CYOW;2009-03-15 07:00;CYOW 150700Z 22005KT 15SM SKC M01/M06 A3014 RMK SLP211

CYOW;2009-03-15 08:00;CYOW 150800Z 22005KT 15SM FEW140 FEW240 M02/M06 A3014 RMK AC1CI1 FROIN SLP210

CYOW;2009-03-15 09:00;CYOW 150900Z 19003KT 15SM FEW140 FEW240 M02/M06 A3014 RMK AC1CI1 FROIN SLP212

CYOW;2009-03-15 10:00;CYOW 151000Z CCA 18003KT 15SM SCT072 M02/M06 A3015 RMK AC3 FROIN SLP215

CYOW;2009-03-15 11:00;CYOW 151100Z 20003KT 12SM BKN075 M03/M06 A3016 RMK AC6 SLP219

CYOW;2009-03-15 12:00;CYOW 151200Z 21005KT 12SM BKN075 M03/M06 A3018 RMK AC6 SLP225

CYOW;2009-03-15 13:00;CYOW 151300Z 22006KT 12SM SCT075 M02/M05 A3019 RMK AC3 SLP230

CYOW;2009-03-15 14:00;CYOW 151400Z 23005KT 12SM FEW075 01/M05 A3020 RMK AC2 SLP233

CYOW;2009-03-15 15:00;CYOW 151500Z 24006KT 12SM SKC 04/M04 A3020 RMK SLP232

CYOW;2009-03-15 16:00;CYOW 151600Z 25006KT 12SM SKC 06/M04 A3020 RMK SLP231

CYOW;2009-03-15 17:00;CYOW 151700Z 32008KT 12SM SKC 07/M04 A3019 RMK SLP230

CYOW;2009-03-15 18:00;CYOW 151800Z 29006KT 15SM SKC 08/M05 A3018 RMK SLP225

CYOW;2009-03-15 19:00;CYOW 151900Z 27003KT 15SM SKC 09/M05 A3017 RMK SLP222

CYOW;2009-03-15 20:00;CYOW 152000Z 27005KT 15SM SKC 09/M04 A3016 RMK SLP220

CYOW;2009-03-15 21:00;CYOW 152100Z 28002KT 15SM SKC 09/M05 A3017 RMK SLP221

CYOW;2009-03-15 22:00;CYOW 152200Z 00000KT 15SM SKC 09/M05 A3018 RMK SLP225

CYOW;2009-03-15 23:00;CYOW 152300Z 04002KT 15SM SKC 08/M06 A3019 RMK SLP230

CYOW;2009-03-16 00:00;CYOW 160000Z 11002KT 15SM SKC 06/M06 A3021 RMK SLP234

CYOW;2009-03-16 01:00;CYOW 160100Z 11003KT 15SM SKC 05/M06 A3022 RMK SLP238

CYOW;2009-03-16 02:00;CYOW 160200Z 15002KT 15SM SKC 06/M07 A3022 RMK SLP240

CYOW;2009-03-16 03:00;CYOW 160300Z 18002KT 15SM SKC 04/M06 A3024 RMK SLP244

CYOW;2009-03-16 04:00;CYOW 160400Z 19002KT 15SM SKC 04/M06 A3025 RMK SLP248

CYOW;2009-03-16 05:00;CYOW 160500Z 09012KT 15SM SKC 00/M05 A3028 RMK SLP260

CYOW;2009-03-16 06:00;CYOW 160600Z 09011KT 15SM SKC M00/M04 A3031 RMK SLP270

CYOW;2009-03-16 07:00;CYOW 160700Z 07008KT 15SM SKC M01/M05 A3033 RMK SLP275

CYOW;2009-03-16 08:00;CYOW 160800Z 06003KT 15SM SKC M02/M07 A3033 RMK SLP275

CYOW;2009-03-16 09:00;CYOW 160900Z 07008KT 15SM SKC M03/M08 A3034 RMK FROIN SLP280

CYOW;2009-03-16 10:00;CYOW 161000Z CCA 07007KT 15SM SKC M03/M08 A3035 RMK FROIN SLP284

CYOW;2009-03-16 11:00;CYOW 161100Z 07010KT 15SM SKC M03/M09 A3037 RMK FROIN SLP289

CYOW;2009-03-16 12:00;CYOW 161200Z 06009KT 15SM SKC M03/M09 A3039 RMK SLP295

CYOW;2009-03-16 13:00;CYOW 161300Z 07010KT 15SM SKC M02/M10 A3040 RMK SLP301

CYOW;2009-03-16 14:00;CYOW 161400Z 09009KT 15SM SKC M01/M09 A3041 RMK SLP303

CYOW;2009-03-16 15:00;CYOW 161500Z 09008KT 15SM SKC M00/M08 A3040 RMK SLP301

CYOW;2009-03-16 16:00;CYOW 161600Z 08007KT 15SM BKN240 02/M08 A3039 RMK CI1 SLP296

CYOW;2009-03-16 17:00;CYOW 161700Z 07006KT 15SM OVC250 03/M07 A3039 RMK CI2 SLP296

CYOW;2009-03-16 18:00;CYOW 161800Z 07005KT 15SM OVC250 03/M07 A3036 RMK CI2 SLP287

CYOW;2009-03-16 19:00;CYOW 161900Z 09008KT 15SM OVC250 04/M06 A3034 RMK CI1 SLP278

CYOW;2009-03-16 20:00;CYOW 162000Z 08008KT 15SM FEW220 OVC250 04/M06 A3033 RMK CI1CI1 SLP277

CYOW;2009-03-16 21:00;CYOW 162100Z 08009KT 15SM FEW230 OVC250 04/M06 A3031 RMK CI1CI1 SLP270

CYOW;2009-03-16 22:00;CYOW 162200Z 07008KT 15SM FEW230 OVC250 03/M06 A3030 RMK CI1CI2 SLP266

CYOW;2009-03-16 22:49;CYOW 162249Z 06006KT 15SM BKN230 OVC250 02/ RMK CI3CI1

CYOW;2009-03-16 23:00;CYOW 162300Z 06007KT 15SM BKN230 OVC250 02/M06 A3030 RMK CI3CI1 SLP266

CYOW;2009-03-17 00:00;CYOW 170000Z 06005KT 15SM BKN210 OVC250 01/M06 A3030 RMK CI4CI1 SLP266

CYOW;2009-03-17 01:00;CYOW 170100Z 07007KT 15SM BKN200 00/M07 A3029 RMK CI5 SLP264

CYOW;2009-03-17 02:00;CYOW 170200Z 05006KT 15SM BKN200 M00/M08 A3029 RMK CI5 SLP263

CYOW;2009-03-17 03:00;CYOW 170300Z 04006KT 15SM BKN200 M01/M08 A3027 RMK CI4 SLP257

CYOW;2009-03-17 04:00;CYOW 170400Z 05005KT 15SM BKN200 M01/M09 A3027 RMK CI3 SLP255

CYOW;2009-03-17 05:00;CYOW 170500Z 05005KT 15SM BKN220 M02/M10 A3026 RMK CI3 SLP253

CYOW;2009-03-17 06:00;CYOW 170600Z 05006KT 15SM BKN230 M02/M12 A3025 RMK CI2 SLP250

CYOW;2009-03-17 07:00;CYOW 170700Z 04006KT 15SM BKN230 M03/M13 A3024 RMK CI2 SLP247

CYOW;2009-03-17 08:00;CYOW 170800Z 05006KT 15SM BKN240 M03/M13 A3023 RMK CI2 SLP243

CYOW;2009-03-17 09:00;CYOW 170900Z CCA 04005KT 15SM SCT240 M03/M13 A3023 RMK CI2 SLP244

CYOW;2009-03-17 10:00;CYOW 171000Z 06005KT 15SM SCT240 M03/M13 A3023 RMK CI2 SLP243

CYOW;2009-03-17 11:00;CYOW 171100Z 07005KT 15SM FEW240 M03/M13 A3023 RMK CI1 SLP243

CYOW;2009-03-17 12:00;CYOW 171200Z 05004KT 15SM FEW140 M02/M13 A3024 RMK AC1 SLP246

CYOW;2009-03-17 13:00;CYOW 171300Z 08005KT 15SM FEW140 FEW240 M01/M12 A3024 RMK AC1CI0 SLP246

CYOW;2009-03-17 14:00;CYOW 171400Z 08003KT 15SM FEW140 FEW240 00/M11 A3024 RMK AC1CI0 SLP247

CYOW;2009-03-17 15:00;CYOW 171500Z 08002KT 15SM FEW140 SCT240 02/M09 A3023 RMK AC1CI1 SLP242

CYOW;2009-03-17 16:00;CYOW 171600Z 13002KT 15SM FEW140 SCT240 04/M07 A3022 RMK AC1CI1 SLP241

CYOW;2009-03-17 17:00;CYOW 171700Z 19002KT 15SM FEW220 BKN240 06/M05 A3019 RMK CI2CI1 SLP231

CYOW;2009-03-17 18:00;CYOW 171800Z 19004KT 15SM FEW220 BKN240 08/M03 A3016 RMK CI2CI1 SLP219

CYOW;2009-03-17 19:00;CYOW 171900Z 22004KT 15SM FEW210 BKN240 09/M02 A3014 RMK CI2CI0 SLP213

CYOW;2009-03-17 20:00;CYOW 172000Z 17005KT 15SM FEW210 BKN240 10/M01 A3012 RMK CI1CI0 SLP204

CYOW;2009-03-17 21:00;CYOW 172100Z 15004KT 15SM FEW240 11/01 A3010 RMK CI0 SLP196

CYOW;2009-03-17 22:00;CYOW 172200Z 18005KT 15SM FEW240 11/02 A3009 RMK CI0 SLP194

CYOW;2009-03-17 23:00;CYOW 172300Z 17004KT 15SM FEW240 09/01 A3008 RMK CI1 SLP190

CYOW;2009-03-18 00:00;CYOW 180000Z 16004KT 15SM FEW240 07/00 A3008 RMK CI1 SLP191

CYOW;2009-03-18 01:00;CYOW 180100Z 17004KT 15SM FEW240 06/M00 A3007 RMK CI1 SLP187

CYOW;2009-03-18 02:00;CYOW 180200Z 20004KT 15SM SCT240 06/M01 A3005 RMK CI2 SLP183

CYOW;2009-03-18 03:00;CYOW 180300Z 18004KT 15SM SKC 04/M01 A3003 RMK SLP173

CYOW;2009-03-18 04:00;CYOW 180400Z 19003KT 15SM SCT240 05/M00 A3001 RMK CI2 SLP168

CYOW;2009-03-18 05:00;CYOW 180500Z 17004KT 15SM OVC096 04/M00 A2999 RMK AC8 SLP159

CYOW;2009-03-18 06:00;CYOW 180600Z 17007KT 15SM OVC089 04/01 A2994 RMK AC8 SLP142

CYOW;2009-03-18 07:00;CYOW 180700Z 18008KT 10SM FEW080 OVC120 05/02 A2990 RMK AC2AC6 SLP130

CYOW;2009-03-18 08:00;CYOW 180800Z 18009KT 10SM FEW080 OVC110 07/01 A2986 RMK AC2AC6 SLP115

CYOW;2009-03-18 09:00;CYOW 180900Z 20014KT 10SM BKN078 OVC100 07/01 A2985 RMK AC6AC2 SLP110

CYOW;2009-03-18 09:53;CYOW 180953Z 22006KT 10SM -RA OVC080 07/ RMK AC8

CYOW;2009-03-18 10:00;CYOW 181000Z 21005KT 10SM -RA OVC080 07/02 A2985 RMK AC8 SLP112

CYOW;2009-03-18 10:54;CYOW 181054Z 22008KT 10SM OVC080 08/ RMK AC8

CYOW;2009-03-18 11:00;CYOW 181100Z 23006KT 12SM BKN080 OVC120 08/02 A2985 RMK AC6AC2 SLP110

CYOW;2009-03-18 12:00;CYOW 181200Z 23007KT 12SM OVC100 07/02 A2987 RMK AC8 SLP117

CYOW;2009-03-18 13:00;CYOW 181300Z 24006KT 15SM SCT077 BKN100 08/02 A2988 RMK AC3AS4 SLP122

CYOW;2009-03-18 14:00;CYOW 181400Z 23007KT 15SM SCT064 BKN080 OVC120 08/02 A2989 RMK SC3AC3AS2 SLP125

CYOW;2009-03-18 15:00;CYOW 181500Z 25007KT 15SM FEW060 BKN100 BKN140 09/03 A2990 RMK SC2AC3AS2 SLP129

CYOW;2009-03-18 16:00;CYOW 181600Z 27013KT 15SM SCT100 BKN160 10/04 A2989 RMK AC3AS3 SLP127

CYOW;2009-03-18 17:00;CYOW 181700Z 28011KT 15SM FEW100 FEW160 SCT220 BKN240 11/02 A2989 RMK AC1AC2CI2CI0 SLP127

CYOW;2009-03-18 18:00;CYOW 181800Z 28010G15KT 15SM FEW140 SCT240 12/M02 A2989 RMK AC2CI0 SLP124

CYOW;2009-03-18 19:00;CYOW 181900Z 27010G15KT 15SM SCT140 BKN240 13/M03 A2988 RMK AC3CI1 SLP122

CYOW;2009-03-18 20:00;CYOW 182000Z 26004KT 15SM SCT140 BKN240 13/M03 A2986 RMK AC3CI1 SLP116

CYOW;2009-03-18 21:00;CYOW 182100Z 31005KT 15SM FEW220 13/M04 A2985 RMK CI1 SLP111

CYOW;2009-03-18 22:00;CYOW 182200Z 25005KT 15SM SCT100 BKN140 BKN220 13/M05 A2985 RMK AC3AC2CI1 SLP110

CYOW;2009-03-18 23:00;CYOW 182300Z 24010KT 15SM FEW140 BKN160 BKN220 11/M07 A2986 RMK AC1AS6CI1 SLP113

CYOW;2009-03-19 00:00;CYOW 190000Z 25012KT 15SM BKN150 10/M08 A2988 RMK AS7 SLP120

CYOW;2009-03-19 01:00;CYOW 190100Z 26016KT 15SM OVC180 09/M07 A2990 RMK AC8 SLP127

CYOW;2009-03-19 02:00;CYOW 190200Z 26011G19KT 15SM OVC160 08/M07 A2991 RMK AC8 SLP130

CYOW;2009-03-19 03:00;CYOW 190300Z 27013KT 15SM OVC180 07/M07 A2991 RMK AC8 SLP132

CYOW;2009-03-19 04:00;CYOW 190400Z 27013G18KT 15SM SKC 06/M08 A2992 RMK SLP136

CYOW;2009-03-19 05:00;CYOW 190500Z 27012KT 15SM FEW240 05/M08 A2993 RMK CI2 SLP139

CYOW;2009-03-19 06:00;CYOW 190600Z 27011KT 15SM FEW200 04/M08 A2994 RMK CI1 SLP142

CYOW;2009-03-19 07:00;CYOW 190700Z 28009KT 15SM SKC 04/M08 A2994 RMK SLP141

CYOW;2009-03-19 07:49;CYOW 190749Z 28005KT 15SM SKC 02/

CYOW;2009-03-19 08:00;CYOW 190800Z 27006KT 15SM SKC 02/M08 A2993 RMK SLP139

CYOW;2009-03-19 09:00;CYOW 190900Z 20004KT 15SM SKC 02/M07 A2995 RMK SLP146

CYOW;2009-03-19 10:00;CYOW 191000Z 22004KT 15SM SKC 00/M08 A2997 RMK SLP153

CYOW;2009-03-19 11:00;CYOW 191100Z 27006KT 15SM FEW090 M01/M07 A2999 RMK AC1 SLP161

CYOW;2009-03-19 12:00;CYOW 191200Z 33006KT 15SM FEW090 M00/M06 A3003 RMK AC1 SLP173

CYOW;2009-03-19 13:00;CYOW 191300Z 34007KT 15SM BKN042 01/M06 A3005 RMK SC6 SLP181

CYOW;2009-03-19 14:00;CYOW 191400Z 34010KT 15SM FEW040 02/M05 A3007 RMK CU1 SLP188

CYOW;2009-03-19 15:00;CYOW 191500Z 32009KT 15SM SCT040 02/M07 A3010 RMK CU3 SLP196

CYOW;2009-03-19 16:00;CYOW 191600Z 32011KT 15SM BKN037 01/M07 A3012 RMK SC5 CU EMBD SLP203

CYOW;2009-03-19 17:00;CYOW 191700Z 32007KT 15SM FEW040 02/M08 A3012 RMK CU1 SLP205

CYOW;2009-03-19 18:00;CYOW 191800Z 28010KT 15SM FEW040 03/M08 A3013 RMK CU1 SLP206

CYOW;2009-03-19 19:00;CYOW 191900Z 29012G19KT 15SM FEW040 02/M11 A3014 RMK CU1 SLP209

CYOW;2009-03-19 20:00;CYOW 192000Z 35014KT 15SM SKC 01/M12 A3016 RMK SLP216

CYOW;2009-03-19 21:00;CYOW 192100Z 33009KT 15SM SKC 01/M12 A3018 RMK SLP225

CYOW;2009-03-19 22:00;CYOW 192200Z 35010G17KT 15SM SKC 01/M12 A3020 RMK SLP231

CYOW;2009-03-19 23:00;CYOW 192300Z 36009KT 15SM SKC M01/M13 A3022 RMK SLP240

CYOW;2009-03-20 00:00;CYOW 200000Z 35010KT 15SM SKC M02/M15 A3025 RMK SLP250

CYOW;2009-03-20 01:00;CYOW 200100Z 36008KT 15SM SKC M02/M14 A3028 RMK SLP258

CYOW;2009-03-20 02:00;CYOW 200200Z 36009KT 15SM SKC M03/M15 A3030 RMK SLP265

CYOW;2009-03-20 03:00;CYOW 200300Z 36009KT 15SM SKC M03/M15 A3030 RMK SLP267

CYOW;2009-03-20 04:00;CYOW 200400Z 35010G15KT 15SM SKC M04/M16 A3031 RMK SLP269

CYOW;2009-03-20 05:00;CYOW 200500Z 36008KT 15SM SKC M05/M16 A3031 RMK SLP271

CYOW;2009-03-20 06:00;CYOW 200600Z 01008KT 15SM SKC M05/M16 A3033 RMK SLP276

CYOW;2009-03-20 07:00;CYOW 200700Z 01006KT 15SM SKC M06/M15 A3034 RMK SLP279

CYOW;2009-03-20 08:00;CYOW 200800Z 35005KT 15SM SKC M07/M16 A3035 RMK SLP284

CYOW;2009-03-20 09:00;CYOW 200900Z 32005KT 15SM SKC M09/M15 A3038 RMK SLP294

CYOW;2009-03-20 10:00;CYOW 201000Z 35006KT 15SM SKC M09/M14 A3039 RMK SLP300

CYOW;2009-03-20 11:00;CYOW 201100Z 36006KT 15SM SKC M08/M16 A3041 RMK SLP306

CYOW;2009-03-20 12:00;CYOW 201200Z 36006KT 15SM SKC M07/M16 A3045 RMK SLP317

CYOW;2009-03-20 13:00;CYOW 201300Z 01009KT 15SM SKC M06/M17 A3047 RMK SLP324

CYOW;2009-03-20 14:00;CYOW 201400Z 02008KT 15SM SKC M05/M18 A3048 RMK SLP329

CYOW;2009-03-20 15:00;CYOW 201500Z 02004KT 15SM SKC M04/M18 A3048 RMK SLP329

CYOW;2009-03-20 16:00;CYOW 201600Z 34006KT 15SM SKC M04/M18 A3048 RMK SLP328

CYOW;2009-03-20 17:00;CYOW 201700Z 35006KT 15SM SKC M02/M18 A3047 RMK SLP326

CYOW;2009-03-20 18:00;CYOW 201800Z 31002KT 15SM SKC M01/M17 A3046 RMK SLP323

CYOW;2009-03-20 19:00;CYOW 201900Z 24004KT 15SM SKC M01/M16 A3045 RMK SLP318

CYOW;2009-03-20 20:00;CYOW 202000Z 25006KT 15SM SKC 00/M16 A3045 RMK SLP317

CYOW;2009-03-20 21:00;CYOW 202100Z 26004KT 15SM SKC 00/M15 A3044 RMK SLP315

CYOW;2009-03-20 22:00;CYOW 202200Z 27003KT 15SM SKC 01/M15 A3044 RMK SLP316

CYOW;2009-03-20 23:00;CYOW 202300Z 28006KT 15SM SKC M01/M15 A3046 RMK SLP321

CYOW;2009-03-21 00:00;CYOW 210000Z 27005KT 15SM SKC M02/M14 A3046 RMK SLP324

CYOW;2009-03-21 01:00;CYOW 210100Z 27004KT 15SM SKC M02/M14 A3048 RMK SLP328

CYOW;2009-03-21 02:00;CYOW 210200Z 29002KT 15SM SKC M03/M14 A3048 RMK SLP329

CYOW;2009-03-21 03:00;CYOW 210300Z 00000KT 15SM SKC M03/M14 A3047 RMK SLP324

CYOW;2009-03-21 04:00;CYOW 210400Z 00000KT 15SM SKC M04/M13 A3046 RMK SLP322

CYOW;2009-03-21 05:00;CYOW 210500Z 21003KT 15SM SKC M05/M11 A3046 RMK SLP323

CYOW;2009-03-21 06:00;CYOW 210600Z 21002KT 15SM SKC M05/M11 A3048 RMK SLP327

CYOW;2009-03-21 07:00;CYOW 210700Z 20002KT 15SM SKC M05/M11 A3047 RMK FROIN SLP325

CYOW;2009-03-21 08:00;CYOW 210800Z 18004KT 15SM SKC M05/M12 A3047 RMK FROIN SLP324

CYOW;2009-03-21 09:00;CYOW 210900Z 18004KT 15SM SKC M06/M12 A3048 RMK FROIN SLP327

CYOW;2009-03-21 10:00;CYOW 211000Z CCA 16003KT 15SM SKC M07/M13 A3048 RMK FROIN SLP329

CYOW;2009-03-21 11:00;CYOW 211100Z 14003KT 15SM SKC M07/M12 A3049 RMK FROIN SLP332

CYOW;2009-03-21 12:00;CYOW 211200Z 18004KT 15SM SCT240 M06/M10 A3050 RMK CI1 SLP337

CYOW;2009-03-21 13:00;CYOW 211300Z 21006KT 15SM SCT240 M04/M09 A3050 RMK CI1 SLP335

CYOW;2009-03-21 14:00;CYOW 211400Z 22005KT 15SM BKN240 M01/M07 A3049 RMK CI2 SLP334

CYOW;2009-03-21 15:00;CYOW 211500Z 24008KT 15SM BKN240 01/M09 A3049 RMK CI2 SLP333

CYOW;2009-03-21 16:00;CYOW 211600Z 23011KT 15SM BKN240 03/M12 A3048 RMK CI3 SLP327

CYOW;2009-03-21 17:00;CYOW 211700Z 22010G15KT 15SM BKN240 04/M12 A3046 RMK CI4 SLP321

CYOW;2009-03-21 18:00;CYOW 211800Z 20008KT 15SM OVC210 05/M11 A3042 RMK CS4 HALO SLP308

CYOW;2009-03-21 19:00;CYOW 211900Z 21010G15KT 15SM OVC210 06/M11 A3039 RMK CS5 HALO SLP299

CYOW;2009-03-21 20:00;CYOW 212000Z 22011KT 15SM OVC180 05/M09 A3038 RMK AS8 SLP293

CYOW;2009-03-21 21:00;CYOW 212100Z 24010G16KT 15SM FEW090 BKN120 06/M09 A3036 RMK AC1AS5 SLP287

CYOW;2009-03-21 22:00;CYOW 212200Z 21011KT 15SM FEW090 BKN240 05/M08 A3035 RMK AC2CI1 SLP284

CYOW;2009-03-21 23:00;CYOW 212300Z 21008G15KT 15SM BKN080 OVC130 03/M10 A3035 RMK AC5AS2 SLP284

CYOW;2009-03-21 23:47;CYOW 212347Z 20008KT 15SM SCT080 BKN110 02/ RMK AC4AS2

CYOW;2009-03-22 00:00;CYOW 220000Z 21007KT 15SM SCT080 BKN110 02/M10 A3035 RMK AC4AS2 SLP285

CYOW;2009-03-22 01:00;CYOW 220100Z 22008KT 15SM FEW080 BKN100 02/M10 A3035 RMK AC2AC5 SLP283

CYOW;2009-03-22 02:00;CYOW 220200Z 22008KT 15SM BKN100 02/M10 A3034 RMK AC7 SLP279

CYOW;2009-03-22 03:00;CYOW 220300Z 23008KT 15SM FEW065 OVC100 02/M10 A3033 RMK SC2AC6 SLP275

CYOW;2009-03-22 04:00;CYOW 220400Z 25005KT 15SM FEW045 OVC060 01/M08 A3032 RMK SC2SC6 SLP272

CYOW;2009-03-22 04:33;CYOW 220433Z 26006KT 12SM -SN SCT042 OVC055 01/ RMK SC4SC4

CYOW;2009-03-22 05:00;CYOW 220500Z 29006KT 7SM -SN BKN040 OVC055 01/M03 A3031 RMK SC5SC3 SLP270

CYOW;2009-03-22 06:00;CYOW 220600Z 27006KT 4SM -SN OVC033 00/M01 A3031 RMK SC8 SLP269

CYOW;2009-03-22 06:46;CYOW 220646Z 27006KT 5SM -SN SCT009 OVC031 00/ RMK SF3SC5

CYOW;2009-03-22 07:00;CYOW 220700Z 27007KT 4SM -SN SCT009 OVC030 00/M01 A3031 RMK SF3SC5 SLP268

CYOW;2009-03-22 07:20;CYOW 220720Z 28007KT 6SM -SN BKN009 OVC030 00/ RMK SF5SC3

CYOW;2009-03-22 08:00;CYOW 220800Z 29007KT 8SM -SN BKN009 OVC030 00/M01 A3030 RMK SF6SC2 SLP267

CYOW;2009-03-22 09:00;CYOW 220900Z 29008KT 10SM -SN SCT007 OVC021 M00/M02 A3031 RMK SF4SC4 SLP271

CYOW;2009-03-22 09:40;CYOW 220940Z 32009KT 15SM BKN025 BKN050 M01/ RMK SC6SC1

CYOW;2009-03-22 10:00;CYOW 221000Z 34015KT 12SM -SHSN BKN025 OVC050 M01/M04 A3032 RMK SC6SC2 CU ASOCTD SLP274

CYOW;2009-03-22 11:00;CYOW 221100Z 36012KT 15SM BKN033 M02/M07 A3036 RMK SC6 SLP285

CYOW;2009-03-22 12:00;CYOW 221200Z 35013G18KT 15SM SCT033 M03/M09 A3038 RMK SC3 SLP295

CYOW;2009-03-22 13:00;CYOW 221300Z 34015G21KT 15SM FEW030 M04/M11 A3040 RMK SC1 SLP302

CYOW;2009-03-22 14:00;CYOW 221400Z 34013G19KT 15SM FEW030 M03/M13 A3042 RMK SC1 SLP308

CYOW;2009-03-22 15:00;CYOW 221500Z 32018G23KT 15SM FEW030 M03/M14 A3043 RMK SC1 SLP312

CYOW;2009-03-22 16:00;CYOW 221600Z 33016KT 15SM SKC M02/M15 A3043 RMK SLP312

CYOW;2009-03-22 17:00;CYOW 221700Z 32015KT 20SM SKC M01/M16 A3042 RMK SLP309

CYOW;2009-03-22 18:00;CYOW 221800Z 33017KT 20SM SKC M01/M18 A3041 RMK SLP304

CYOW;2009-03-22 19:00;CYOW 221900Z 32014G19KT 20SM SKC 00/M18 A3040 RMK SLP301

CYOW;2009-03-22 20:00;CYOW 222000Z 35012KT 20SM SKC M01/M18 A3039 RMK SLP298

CYOW;2009-03-22 21:00;CYOW 222100Z 31013G21KT 20SM SKC M00/M19 A3039 RMK SLP297

CYOW;2009-03-22 22:00;CYOW 222200Z 35013KT 20SM SKC M01/M19 A3039 RMK SLP296

CYOW;2009-03-22 23:00;CYOW 222300Z 34010G16KT 20SM SKC M02/M19 A3040 RMK SLP300

CYOW;2009-03-23 00:00;CYOW 230000Z 34011G17KT 15SM SKC M03/M20 A3041 RMK SLP306

CYOW;2009-03-23 01:00;CYOW 230100Z 34008KT 15SM SKC M03/M19 A3043 RMK SLP311

CYOW;2009-03-23 02:00;CYOW 230200Z 34011KT 15SM SKC M04/M17 A3045 RMK SLP317

CYOW;2009-03-23 03:00;CYOW 230300Z 33012G17KT 15SM SKC M05/M18 A3045 RMK SLP319

CYOW;2009-03-23 04:00;CYOW 230400Z 34007KT 15SM SKC M06/M17 A3045 RMK SLP320

CYOW;2009-03-23 05:00;CYOW 230500Z 31015KT 15SM SKC M06/M19 A3046 RMK SLP322

CYOW;2009-03-23 06:00;CYOW 230600Z 33010KT 15SM SKC M08/M19 A3045 RMK SLP320

CYOW;2009-03-23 07:00;CYOW 230700Z 33011KT 15SM SKC M08/M20 A3046 RMK SLP321

CYOW;2009-03-23 08:00;CYOW 230800Z 34012KT 15SM SKC M09/M21 A3046 RMK SLP321

CYOW;2009-03-23 09:00;CYOW 230900Z 35012KT 15SM SKC M10/M21 A3047 RMK SLP327

CYOW;2009-03-23 10:00;CYOW 231000Z 33013KT 15SM SKC M11/M22 A3049 RMK SLP332

CYOW;2009-03-23 11:00;CYOW 231100Z 34010G15KT 15SM SKC M12/M22 A3051 RMK SLP340

CYOW;2009-03-23 12:00;CYOW 231200Z 34012G18KT 15SM SKC M11/M21 A3053 RMK SLP348

CYOW;2009-03-23 13:00;CYOW 231300Z 32011G16KT 15SM SKC M11/M21 A3054 RMK SLP351

CYOW;2009-03-23 14:00;CYOW 231400Z 32014G20KT 15SM SKC M10/M21 A3054 RMK SLP352

CYOW;2009-03-23 15:00;CYOW 231500Z 31011G16KT 15SM SKC M08/M21 A3054 RMK SLP350

CYOW;2009-03-23 16:00;CYOW 231600Z 34014G21KT 15SM SKC M07/M21 A3053 RMK SLP346

CYOW;2009-03-23 17:00;CYOW 231700Z 32015KT 15SM SKC M05/M20 A3051 RMK SLP340

CYOW;2009-03-23 18:00;CYOW 231800Z 33010G17KT 15SM SKC M04/M19 A3049 RMK SLP334

CYOW;2009-03-23 19:00;CYOW 231900Z 32013KT 15SM FEW060 M03/M18 A3048 RMK CU1 CU TR SLP330

CYOW;2009-03-23 20:00;CYOW 232000Z 32013G19KT 15SM FEW060 M02/M17 A3048 RMK CU1 CU TR SLP330

CYOW;2009-03-23 21:00;CYOW 232100Z 33012G21KT 15SM FEW060 M02/M17 A3049 RMK CU1 CU TR SLP332

CYOW;2009-03-23 22:00;CYOW 232200Z 01011KT 15SM FEW060 FEW250 M02/M17 A3049 RMK CU1CI0 CU TR SLP334

CYOW;2009-03-23 23:00;CYOW 232300Z 35012KT 15SM FEW250 M03/M17 A3051 RMK CI0 SLP339

CYOW;2009-03-24 00:00;CYOW 240000Z 33011KT 15SM FEW250 M04/M17 A3053 RMK CI1 SLP347

CYOW;2009-03-24 01:00;CYOW 240100Z 35008KT 15SM SKC M04/M17 A3053 RMK SLP348

CYOW;2009-03-24 02:00;CYOW 240200Z 33007KT 15SM SKC M06/M17 A3054 RMK SLP350

CYOW;2009-03-24 03:00;CYOW 240300Z 33005KT 15SM SKC M07/M16 A3054 RMK SLP350

CYOW;2009-03-24 04:00;CYOW 240400Z 35007KT 15SM SKC M06/M16 A3054 RMK SLP350

CYOW;2009-03-24 05:00;CYOW 240500Z 01007KT 15SM SKC M06/M17 A3054 RMK SLP349

CYOW;2009-03-24 06:00;CYOW 240600Z 01005KT 15SM SKC M06/M17 A3053 RMK SLP347

CYOW;2009-03-24 07:00;CYOW 240700Z 36005KT 15SM SKC M08/M17 A3054 RMK SLP348

CYOW;2009-03-24 08:00;CYOW 240800Z 36005KT 15SM SKC M08/M16 A3054 RMK SLP350

CYOW;2009-03-24 09:00;CYOW 240900Z 34004KT 15SM SKC M09/M16 A3056 RMK SLP358

CYOW;2009-03-24 10:00;CYOW 241000Z 35006KT 15SM SKC M08/M16 A3057 RMK SLP360

CYOW;2009-03-24 11:00;CYOW 241100Z 32005KT 15SM SCT200 M10/M17 A3059 RMK CI2 SLP368

CYOW;2009-03-24 12:00;CYOW 241200Z 01005KT 15SM FEW200 M07/M15 A3061 RMK CI1 SLP374

CYOW;2009-03-24 13:00;CYOW 241300Z 36005KT 15SM FEW220 M06/M16 A3062 RMK CI0 SLP377

CYOW;2009-03-24 14:00;CYOW 241400Z 01002KT 15SM FEW220 M03/M15 A3062 RMK CI0 SLP379

CYOW;2009-03-24 15:00;CYOW 241500Z 01002KT 15SM FEW220 M01/M14 A3061 RMK CI1 SLP374

CYOW;2009-03-24 16:00;CYOW 241600Z 07004KT 15SM FEW220 01/M14 A3059 RMK CI1 SLP367

CYOW;2009-03-24 17:00;CYOW 241700Z 01003KT 15SM FEW220 02/M14 A3059 RMK CI1 SLP365

CYOW;2009-03-24 18:00;CYOW 241800Z 05005KT 15SM FEW220 02/M14 A3055 RMK CI1 SLP352

CYOW;2009-03-24 19:00;CYOW 241900Z 09003KT 15SM FEW220 04/M15 A3053 RMK CI0 SLP346

CYOW;2009-03-24 20:00;CYOW 242000Z 07005KT 15SM SKC 04/M14 A3052 RMK SLP341

CYOW;2009-03-24 21:00;CYOW 242100Z 12007KT 15SM FEW200 04/M12 A3051 RMK CI1 SLP337

CYOW;2009-03-24 22:00;CYOW 242200Z 12010KT 15SM FEW180 FEW220 04/M12 A3051 RMK AC1CI0 SLP339

CYOW;2009-03-24 23:00;CYOW 242300Z 10006KT 15SM FEW180 FEW220 01/M11 A3051 RMK AC1CI0 SLP339

CYOW;2009-03-25 00:00;CYOW 250000Z 09002KT 15SM FEW170 00/M11 A3051 RMK AC2 SLP337

CYOW;2009-03-25 01:00;CYOW 250100Z 08006KT 15SM FEW170 M01/M11 A3049 RMK AC2 SLP332

CYOW;2009-03-25 02:00;CYOW 250200Z 09005KT 15SM SKC M02/M11 A3048 RMK SLP329

CYOW;2009-03-25 03:00;CYOW 250300Z 09008KT 15SM SKC M01/M10 A3047 RMK SLP323

CYOW;2009-03-25 04:00;CYOW 250400Z 08007KT 15SM SKC M02/M10 A3045 RMK SLP319

CYOW;2009-03-25 05:00;CYOW 250500Z 09008KT 15SM SKC M03/M09 A3044 RMK SLP314

CYOW;2009-03-25 06:00;CYOW 250600Z 09008KT 15SM SKC M02/M08 A3043 RMK SLP310

CYOW;2009-03-25 07:00;CYOW 250700Z 09005KT 15SM SKC M04/M09 A3042 RMK SLP307

CYOW;2009-03-25 08:00;CYOW 250800Z 07006KT 15SM SKC M03/M08 A3040 RMK SLP302

CYOW;2009-03-25 09:00;CYOW 250900Z 08006KT 15SM SKC M04/M09 A3039 RMK SLP297

CYOW;2009-03-25 10:00;CYOW 251000Z 08007KT 15SM SKC M05/M09 A3038 RMK SLP295

CYOW;2009-03-25 11:00;CYOW 251100Z CCA 08006KT 15SM SKC M05/M09 A3037 RMK FROIN SLP291

CYOW;2009-03-25 12:00;CYOW 251200Z 09009KT 15SM SKC M04/M08 A3036 RMK SLP288

CYOW;2009-03-25 13:00;CYOW 251300Z 09009KT 15SM SKC M01/M07 A3035 RMK SLP284

CYOW;2009-03-25 14:00;CYOW 251400Z 09009KT 15SM SKC 01/M06 A3034 RMK SLP279

CYOW;2009-03-25 15:00;CYOW 251500Z 09009KT 15SM SCT200 04/M06 A3031 RMK CI1 SLP269

CYOW;2009-03-25 16:00;CYOW 251600Z 09008KT 15SM FEW200 BKN240 06/M05 A3029 RMK CI2CI1 SLP262

CYOW;2009-03-25 17:00;CYOW 251700Z 08013KT 15SM SCT160 BKN210 BKN250 07/M06 A3025 RMK AC4CI2CI0 SLP248

CYOW;2009-03-25 18:00;CYOW 251800Z 09013G18KT 15SM SCT160 BKN210 BKN250 08/M05 A3021 RMK AC3CI2CI0 SLP234

CYOW;2009-03-25 19:00;CYOW 251900Z 09012KT 15SM FEW200 SCT250 10/M05 A3017 RMK CI2CI1 SLP223

CYOW;2009-03-25 20:00;CYOW 252000Z 09013KT 15SM FEW200 SCT250 10/M04 A3015 RMK CI2CI1 SLP214

CYOW;2009-03-25 21:00;CYOW 252100Z 08015KT 15SM FEW140 SCT200 BKN250 09/M03 A3012 RMK AC2CI2CI0 SLP204

CYOW;2009-03-25 22:00;CYOW 252200Z 08013KT 15SM FEW140 BKN200 BKN250 08/M03 A3009 RMK AC2CI2CI0 SLP195

CYOW;2009-03-25 23:00;CYOW 252300Z 08013KT 15SM FEW180 BKN240 07/M03 A3008 RMK AC2CI2 SLP190

CYOW;2009-03-26 00:00;CYOW 260000Z 09009KT 15SM FEW180 FEW210 BKN240 04/M04 A3008 RMK AC1CI2CI2 SLP191

CYOW;2009-03-26 01:00;CYOW 260100Z 09009KT 15SM FEW210 FEW240 03/M04 A3008 RMK CI1CI0 SLP193

CYOW;2009-03-26 02:00;CYOW 260200Z 09012KT 15SM SCT220 03/M04 A3007 RMK CI3 SLP187

CYOW;2009-03-26 03:00;CYOW 260300Z 09011KT 15SM OVC110 03/M03 A3006 RMK AC8 SLP183

CYOW;2009-03-26 04:00;CYOW 260400Z 09010KT 15SM FEW060 OVC120 03/M03 A3004 RMK SC2AC6 SLP176

CYOW;2009-03-26 05:00;CYOW 260500Z 10007KT 15SM OVC050 03/M03 A3002 RMK SC8 SLP171

CYOW;2009-03-26 06:00;CYOW 260600Z 12006KT 15SM OVC045 04/M03 A3002 RMK SC8 SLP169

CYOW;2009-03-26 07:00;CYOW 260700Z 13005KT 15SM OVC025 04/M03 A3000 RMK SC8 SLP163

CYOW;2009-03-26 08:00;CYOW 260800Z 12004KT 15SM OVC029 04/M03 A2999 RMK SC8 SLP158

CYOW;2009-03-26 08:29;CYOW 260829Z 16002KT 12SM -RA OVC032 04/ RMK SC8

CYOW;2009-03-26 09:00;CYOW 260900Z 11004KT 8SM -RA OVC018 03/M01 A2998 RMK SC8 SLP156

CYOW;2009-03-26 09:08;CYOW 260908Z 10003KT 10SM -RA OVC018 02/ RMK SC8

CYOW;2009-03-26 10:00;CYOW 261000Z 09007KT 7SM -RA OVC023 02/M01 A2994 RMK SC8 SLP144

CYOW;2009-03-26 11:00;CYOW 261100Z 08006KT 8SM -RA OVC028 02/M02 A2994 RMK SC8 SLP142

CYOW;2009-03-26 12:00;CYOW 261200Z 06006KT 8SM -RA OVC031 02/M02 A2996 RMK SC8 SLP150

CYOW;2009-03-26 12:07;CYOW 261207Z 05006KT 10SM OVC032 02/ RMK SC8

CYOW;2009-03-26 13:00;CYOW 261300Z 09006KT 10SM OVC031 02/M02 A2996 RMK SC8 SLP152

CYOW;2009-03-26 14:00;CYOW 261400Z 09007KT 12SM OVC030 03/M01 A2996 RMK SC8 SLP150

CYOW;2009-03-26 15:00;CYOW 261500Z 09005KT 12SM OVC028 04/M01 A2995 RMK SC8 SLP147

CYOW;2009-03-26 16:00;CYOW 261600Z 09005KT 12SM OVC027 04/M02 A2994 RMK SC8 SLP142

CYOW;2009-03-26 17:00;CYOW 261700Z 09005KT 15SM OVC027 05/M01 A2993 RMK SC8 SLP141

CYOW;2009-03-26 18:00;CYOW 261800Z 09006KT 15SM OVC027 06/M01 A2991 RMK SC8 SLP132

CYOW;2009-03-26 19:00;CYOW 261900Z 09006KT 15SM OVC029 06/M01 A2989 RMK SC8 SLP127

CYOW;2009-03-26 20:00;CYOW 262000Z 12008KT 15SM OVC031 06/M00 A2987 RMK SC8 SLP118

CYOW;2009-03-26 21:00;CYOW 262100Z 11004KT 15SM OVC023 05/02 A2987 RMK SC8 SLP118

CYOW;2009-03-26 21:15;CYOW 262115Z 14002KT 12SM -RA OVC023 05/ RMK SC8

CYOW;2009-03-26 22:00;CYOW 262200Z 09003KT 3SM -RA BR FEW007 OVC021 04/03 A2988 RMK SF1SC7 SLP124

CYOW;2009-03-26 22:34;CYOW 262234Z 08003KT 2SM -RA BR FEW007 OVC020 03/ RMK SF2SC6

CYOW;2009-03-26 23:00;CYOW 262300Z 09007KT 2SM -RA BR FEW012 OVC024 03/02 A2987 RMK SC1SC7 SLP119

CYOW;2009-03-26 23:23;CYOW 262323Z 09006KT 2SM -RA BR FEW002 OVC023 03/ RMK SF2SC6

CYOW;2009-03-26 23:33;CYOW 262333Z 09005KT 1 1/2SM -RA BR OVC001 03/ RMK NS8

CYOW;2009-03-27 00:00;CYOW 270000Z 09005KT 1 1/2SM -RA BR OVC001 03/02 A2986 RMK FG1NS7 SLP118

CYOW;2009-03-27 00:53;CYOW 270053Z 10004KT 1 1/2SM -RA BR SCT002 OVC014 03/ RMK FG1SF2NS5

CYOW;2009-03-27 01:00;CYOW 270100Z 11003KT 1 1/2SM -RA BR SCT002 OVC013 02/02 A2987 RMK FG1SF2NS5 SLP120

CYOW;2009-03-27 01:09;CYOW 270109Z 11004KT 1 1/2SM -RA BR OVC002 03/ RMK FG1NS7

CYOW;2009-03-27 02:00;CYOW 270200Z 08002KT 1 1/2SM -RA BR OVC002 03/02 A2986 RMK FG1NS7 SLP117

CYOW;2009-03-27 03:00;CYOW 270300Z 00000KT 1 1/2SM BR OVC002 02/02 A2987 RMK FG1ST7 INTMT -RA SLP119

CYOW;2009-03-27 04:00;CYOW 270400Z 00000KT 1 1/2SM -RA BR OVC002 03/02 A2986 RMK FG1NS7 SLP116

CYOW;2009-03-27 04:12;CYOW 270412Z CCA 08002KT 1SM R07/3500FT/N R32/5000FT/U -RA BR OVC002 03/ RMK FG2NS6

CYOW;2009-03-27 04:34;CYOW 270434Z 00000KT 3/4SM R07/3500FT/U R32/3000V4500FT/D -RA BR OVC002 02/ RMK FG2NS6

CYOW;2009-03-27 05:00;CYOW 270500Z 00000KT 3/4SM R07/3500V6000FT/N R32/5500FT/D -RA BR OVC005 02/02 A2985 RMK FG2NS6 SLP114

CYOW;2009-03-27 05:38;CYOW 270538Z 19002KT 3/4SM R07/2400FT/N R32/3000FT/N -RA BR OVC003 02/ RMK FG2NS6

CYOW;2009-03-27 06:00;CYOW 270600Z 20002KT 1/2SM R07/3000FT/N R32/4000FT/N -RA FG VV001 02/02 A2985 RMK FG8 SLP114

CYOW;2009-03-27 07:00;CYOW 270700Z 23004KT 1/2SM R07/1800FT/N R32/2400FT/N FG VV001 03/02 A2985 RMK FG8 SLP114

CYOW;2009-03-27 07:37;CYOW 270737Z 25004KT 1/2SM R07/2400FT/N R32/3000FT/U FG OVC022 03/ RMK FG2SC6

CYOW;2009-03-27 08:00;CYOW 270800Z 25005KT 1/2SM R07/2400FT/N R32/P6000FT/U FG OVC020 03/02 A2985 RMK FG2SC6 SLP113

CYOW;2009-03-27 08:04;CYOW 270804Z 26005KT 2SM BR OVC022 03/ RMK FG1SC7

CYOW;2009-03-27 08:16;CYOW 270816Z 27005KT 2SM BR FEW001 OVC022 03/ RMK FG1SF2SC6

CYOW;2009-03-27 08:37;CYOW 270837Z 28007KT 4SM BR FEW002 OVC022 03/ RMK SF2SC6

CYOW;2009-03-27 09:00;CYOW 270900Z 29008KT 7SM OVC028 03/02 A2988 RMK SC8 SLP121

CYOW;2009-03-27 10:00;CYOW 271000Z 26006KT 8SM FEW040 02/01 A2989 RMK SC2 SLP125

CYOW;2009-03-27 11:00;CYOW 271100Z 25006KT 10SM FEW040 01/M00 A2992 RMK SC1 SLP135

CYOW;2009-03-27 12:00;CYOW 271200Z 24005KT 10SM BKN037 02/00 A2995 RMK SC6 SLP146

CYOW;2009-03-27 13:00;CYOW 271300Z 24006KT 10SM BKN037 03/01 A2995 RMK SC7 SLP147

CYOW;2009-03-27 14:00;CYOW 271400Z 26009KT 10SM BKN038 04/01 A2998 RMK SC6 SLP156

CYOW;2009-03-27 15:00;CYOW 271500Z 27009KT 15SM FEW040 05/01 A2998 RMK SC2 SLP157

CYOW;2009-03-27 16:00;CYOW 271600Z 27010KT 15SM SCT040 07/01 A2999 RMK SC3 SLP160

CYOW;2009-03-27 17:00;CYOW 271700Z 27006KT 15SM FEW040 08/M00 A2998 RMK SC1 SLP156

CYOW;2009-03-27 18:00;CYOW 271800Z 20005KT 15SM FEW040 09/01 A2998 RMK SC1 SLP156

CYOW;2009-03-27 19:00;CYOW 271900Z 24008KT 15SM FEW040 10/01 A2998 RMK SC1 SLP156

CYOW;2009-03-27 20:00;CYOW 272000Z 23006KT 15SM SKC 11/00 A2996 RMK SLP148

CYOW;2009-03-27 21:00;CYOW 272100Z 24006KT 15SM FEW040 12/01 A2995 RMK SC1 SLP146

CYOW;2009-03-27 22:00;CYOW 272200Z 21007KT 15SM FEW040 12/00 A2996 RMK SC1 SLP149

CYOW;2009-03-27 23:00;CYOW 272300Z 19004KT 15SM FEW040 FEW240 10/M00 A2996 RMK SC1CI1 SLP148

CYOW;2009-03-28 00:00;CYOW 280000Z 20008KT 15SM FEW040 FEW240 08/00 A2997 RMK SC1CI1 SLP153

CYOW;2009-03-28 01:00;CYOW 280100Z 18004KT 15SM FEW040 06/M00 A2998 RMK SC1 SLP156

CYOW;2009-03-28 02:00;CYOW 280200Z 17003KT 15SM FEW040 04/M01 A2997 RMK SC1 SLP154

CYOW;2009-03-28 03:00;CYOW 280300Z 17004KT 15SM FEW240 04/M01 A2996 RMK CI1 SLP151

CYOW;2009-03-28 04:00;CYOW 280400Z 16004KT 15SM FEW240 04/M01 A2995 RMK CI1 SLP146

CYOW;2009-03-28 05:00;CYOW 280500Z 18003KT 15SM FEW240 04/M01 A2996 RMK CI1 SLP148

CYOW;2009-03-28 06:00;CYOW 280600Z 17003KT 15SM SCT120 03/M02 A2995 RMK AC3 SLP146

CYOW;2009-03-28 07:00;CYOW 280700Z 17003KT 15SM SCT120 03/M02 A2994 RMK AC4 SLP144

CYOW;2009-03-28 08:00;CYOW 280800Z 00000KT 15SM OVC100 03/M02 A2994 RMK AC8 SLP143

CYOW;2009-03-28 09:00;CYOW 280900Z 00000KT 15SM OVC110 03/M01 A2994 RMK AC8 SLP144

CYOW;2009-03-28 10:00;CYOW 281000Z 03005KT 15SM OVC090 03/M01 A2994 RMK AC8 SLP144

CYOW;2009-03-28 11:00;CYOW 281100Z 00000KT 15SM BKN100 01/M02 A2995 RMK AC6 SLP146

CYOW;2009-03-28 12:00;CYOW 281200Z 32003KT 12SM BKN096 01/M01 A2997 RMK AC6 SLP152

CYOW;2009-03-28 13:00;CYOW 281300Z 00000KT 12SM SCT070 03/M00 A2997 RMK AC4 SLP154

CYOW;2009-03-28 14:00;CYOW 281400Z 36005KT 12SM FEW070 07/00 A2999 RMK AC2 SLP158

CYOW;2009-03-28 15:00;CYOW 281500Z 36002KT 15SM FEW070 08/01 A2999 RMK AC1 SLP158

CYOW;2009-03-28 16:00;CYOW 281600Z 34003KT 15SM SKC 10/02 A2998 RMK SLP156

CYOW;2009-03-28 17:00;CYOW 281700Z 36002KT 15SM SKC 12/02 A2996 RMK SLP148

CYOW;2009-03-28 18:00;CYOW 281800Z 00000KT 15SM SKC 12/02 A2994 RMK SLP144

CYOW;2009-03-28 19:00;CYOW 281900Z 34002KT 15SM SKC 13/02 A2993 RMK SLP139

CYOW;2009-03-28 20:00;CYOW 282000Z 28003KT 15SM FEW050 FEW240 13/01 A2992 RMK CU1CI0 SLP136

CYOW;2009-03-28 21:00;CYOW 282100Z 00000KT 15SM FEW050 FEW240 13/01 A2991 RMK CU1CI0 TR CU SLP132

CYOW;2009-03-28 22:00;CYOW 282200Z 01002KT 15SM SCT240 13/01 A2989 RMK CI1 SLP126

CYOW;2009-03-28 23:00;CYOW 282300Z 36003KT 15SM OVC240 11/01 A2990 RMK CI6 SLP127

CYOW;2009-03-29 00:00;CYOW 290000Z 05005KT 15SM OVC240 10/01 A2988 RMK CI5 SLP124

CYOW;2009-03-29 01:00;CYOW 290100Z 03007KT 15SM SCT230 09/01 A2989 RMK CI2 SLP125

CYOW;2009-03-29 02:00;CYOW 290200Z 02008KT 15SM FEW200 08/00 A2987 RMK CI1 SLP120

CYOW;2009-03-29 03:00;CYOW 290300Z 04010KT 15SM FEW240 07/M00 A2983 RMK CI1 SLP105

CYOW;2009-03-29 04:00;CYOW 290400Z 05007KT 15SM FEW065 OVC220 07/M00 A2982 RMK SC1CI6 SLP101

CYOW;2009-03-29 05:00;CYOW 290500Z 05008KT 15SM BKN210 06/M00 A2981 RMK CI5 SLP099

CYOW;2009-03-29 06:00;CYOW 290600Z 05010KT 15SM SCT180 05/M00 A2979 RMK AC4 SLP089

CYOW;2009-03-29 07:00;CYOW 290700Z 07011KT 15SM SCT180 05/M00 A2976 RMK AC3 SLP081

CYOW;2009-03-29 08:00;CYOW 290800Z 07018KT 15SM OVC093 06/M01 A2973 RMK AC8 SLP069

CYOW;2009-03-29 09:00;CYOW 290900Z 07015G21KT 15SM OVC095 06/00 A2970 RMK AC8 SLP059

CYOW;2009-03-29 10:00;CYOW 291000Z 08011KT 15SM OVC075 05/00 A2968 RMK AC8 SLP052

CYOW;2009-03-29 11:00;CYOW 291100Z 08015KT 15SM BKN067 06/M00 A2962 RMK AC7 PRESFR SLP034

CYOW;2009-03-29 12:00;CYOW 291200Z 09017KT 15SM BKN055 05/00 A2958 RMK SC7 SLP021

CYOW;2009-03-29 12:28;CYOW 291228Z 09015G21KT 12SM -RA OVC040 04/ RMK SC8

CYOW;2009-03-29 13:00;CYOW 291300Z 08016KT 10SM -RA OVC033 04/02 A2955 RMK SC8 SLP009

CYOW;2009-03-29 14:00;CYOW 291400Z 07016KT 10SM -RA OVC034 05/03 A2950 RMK SC8 SLP994

CYOW;2009-03-29 15:00;CYOW 291500Z 08011G18KT 10SM -RA OVC036 05/03 A2948 RMK SC8 SLP988

CYOW;2009-03-29 16:00;CYOW 291600Z 07019G25KT 5SM RA BR OVC030 05/04 A2942 RMK NS8 PRESFR SLP968

CYOW;2009-03-29 17:00;CYOW 291700Z 08018KT 5SM RA BR SCT020 OVC033 04/04 A2940 RMK SF3NS5 SLP959

CYOW;2009-03-29 17:24;CYOW 291724Z 08017G22KT 4SM -RA BR SCT005 OVC025 04/ RERA RMK SF3NS5

CYOW;2009-03-29 18:00;CYOW 291800Z 09014KT 2SM -RA BR BKN005 OVC025 05/04 A2937 RERA RMK SF6NS2 SLP950

CYOW;2009-03-29 19:00;CYOW 291900Z 09015KT 2SM -RA BR OVC005 05/04 A2934 RMK SF8 SLP939

CYOW;2009-03-29 20:00;CYOW 292000Z 08015KT 1 1/2SM -RA BR OVC005 05/05 A2933 RMK SF8 SLP936

CYOW;2009-03-29 21:00;CYOW 292100Z 08015KT 2SM -RA BR OVC004 05/05 A2932 RMK SF8 SLP933

CYOW;2009-03-29 22:00;CYOW 292200Z 08011KT 1 1/2SM -RA BR OVC004 06/05 A2932 RMK SF8 SLP932

CYOW;2009-03-29 22:33;CYOW 292233Z 07011KT 4SM -RA BR OVC004 06/ RMK SF8

CYOW;2009-03-29 23:00;CYOW 292300Z 06002KT 2SM -RA BR OVC004 06/05 A2933 RMK FG2SF6 SLP937

CYOW;2009-03-30 00:00;CYOW 300000Z 05005KT 4SM -RA BR OVC004 05/05 A2934 RMK SF8 SLP938

CYOW;2009-03-30 00:20;CYOW 300020Z 04004KT 6SM BR OVC004 05/ RMK SF8

CYOW;2009-03-30 01:00;CYOW 300100Z 05004KT 4SM -RA BR OVC002 05/04 A2935 RMK SF8 SLP942

CYOW;2009-03-30 02:00;CYOW 300200Z 06005KT 3SM -RA BR OVC002 05/04 A2936 RMK SF8 SLP944

CYOW;2009-03-30 02:18;CYOW 300218Z 13002KT 3SM -RA BR OVC004 04/ RMK SF8

CYOW;2009-03-30 02:34;CYOW 300234Z 13002KT 2SM -RA BR OVC004 04/ RMK FG2SF6

CYOW;2009-03-30 03:00;CYOW 300300Z 00000KT 2SM -RA BR OVC004 04/04 A2936 RMK FG2SF6 SLP947

CYOW;2009-03-30 04:00;CYOW 300400Z 24007KT 5SM -RA BR OVC004 05/05 A2937 RMK SF8 SLP950

CYOW;2009-03-30 05:00;CYOW 300500Z 24005KT 4SM -RA BR BKN006 OVC033 05/04 A2936 RMK SF5NS3 SLP948

CYOW;2009-03-30 05:20;CYOW 300520Z 26005KT 4SM -RA BR SCT006 OVC030 05/ RMK SF3NS5

CYOW;2009-03-30 06:00;CYOW 300600Z 24004KT 6SM -RA BR FEW006 OVC028 04/04 A2938 RMK SF2NS6 SLP952

CYOW;2009-03-30 07:00;CYOW 300700Z 26007KT 10SM -RA FEW014 OVC026 04/04 A2939 RMK SC2NS6 SLP957

CYOW;2009-03-30 08:00;CYOW 300800Z 24006KT 4SM -RA BR FEW014 OVC022 04/03 A2940 RMK SC2NS6 SLP961

CYOW;2009-03-30 08:22;CYOW 300822Z 23007KT 3SM -RA BR FEW009 OVC020 04/ RMK SF2NS6

CYOW;2009-03-30 09:00;CYOW 300900Z 25009KT 4SM -RA BR SCT008 OVC020 04/03 A2942 RMK SF3NS5 SLP966

CYOW;2009-03-30 10:00;CYOW 301000Z 25006KT 8SM -RA BKN009 OVC019 04/03 A2944 RMK SF5NS3 SLP974

CYOW;2009-03-30 11:00;CYOW 301100Z 27007KT 8SM -RA BKN010 OVC025 04/03 A2946 RMK SF6NS2 SLP981

CYOW;2009-03-30 12:00;CYOW 301200Z 26008KT 8SM -RA BKN010 OVC030 04/03 A2949 RMK SF7NS1 SLP991

CYOW;2009-03-30 13:00;CYOW 301300Z 29016KT 12SM SCT010 OVC077 04/03 A2951 RMK SF3AC5 SLP996

CYOW;2009-03-30 14:00;CYOW 301400Z 27010G17KT 10SM OVC012 04/02 A2953 RMK SF8 SLP004

CYOW;2009-03-30 14:23;CYOW 301423Z 28013KT 10SM -RA OVC012 04/ RMK SC8

CYOW;2009-03-30 15:00;CYOW 301500Z 28015KT 10SM -RA BKN010 OVC030 04/02 A2956 RMK SF5SC3 SLP015

CYOW;2009-03-30 16:00;CYOW 301600Z 29014G21KT 12SM -RA OVC010 04/03 A2959 RMK SF8 SLP023

CYOW;2009-03-30 16:44;CYOW 301644Z 28013G18KT 15SM -RA OVC009 04/ RMK SC8

CYOW;2009-03-30 17:00;CYOW 301700Z 29017KT 15SM -RA OVC009 03/02 A2962 RMK SC8 SLP034

CYOW;2009-03-30 17:28;CYOW 301728Z 28014KT 15SM -RA SCT008 OVC023 03/ RMK SC3SC5 SUN VISBL

CYOW;2009-03-30 18:00;CYOW 301800Z 29013G21KT 15SM -RA SCT008 OVC015 03/02 A2965 RMK SC4SC4 SUN VISBL SLP043

CYOW;2009-03-30 19:00;CYOW 301900Z 28013G21KT 10SM -RASN SCT008 OVC035 02/01 A2969 RMK SC4SC4 SLP057

CYOW;2009-03-30 19:19;CYOW 301919Z 28015G21KT 5SM -RASN BR OVC008 03/ RMK SC8

CYOW;2009-03-30 19:35;CYOW 301935Z 29015G24KT 5SM -RASN BR SCT008 OVC040 02/ RMK SC4SC4

CYOW;2009-03-30 20:00;CYOW 302000Z 29018KT 4SM -RASN BR SCT008 OVC037 02/00 A2973 RMK SC3SC5 SLP071

CYOW;2009-03-30 20:51;CYOW 302051Z 29015G20KT 15SM -RASN OVC009 02/ RMK SC8

CYOW;2009-03-30 21:00;CYOW 302100Z 29015KT 15SM -RASN OVC009 02/M00 A2977 RMK SC8 SLP086

CYOW;2009-03-30 21:17;CYOW 302117Z 29014KT 15SM -RASN FEW008 OVC038 02/ RMK SC2SC6

CYOW;2009-03-30 21:49;CYOW 302149Z 29016G22KT 15SM OVC017 02/ RMK SC8

CYOW;2009-03-30 22:00;CYOW 302200Z 30014G21KT 15SM OVC018 02/M01 A2982 RMK SC8 SLP103

CYOW;2009-03-30 23:00;CYOW 302300Z 30011G18KT 15SM BKN020 BKN040 02/M01 A2986 RMK SC6SC1 PRESRR SLP116

CYOW;2009-03-31 00:00;CYOW 310000Z 30011KT 15SM OVC021 02/M01 A2990 RMK SC8 SLP130

CYOW;2009-03-31 01:00;CYOW 310100Z 31013G18KT 15SM OVC021 02/M02 A2995 RMK SC8 SLP146

CYOW;2009-03-31 02:00;CYOW 310200Z 30011G16KT 15SM OVC023 01/M02 A2998 RMK SC8 SLP158

CYOW;2009-03-31 03:00;CYOW 310300Z 32011KT 15SM OVC023 01/M02 A3001 RMK SC8 SLP167

CYOW;2009-03-31 04:00;CYOW 310400Z 33013KT 15SM OVC023 01/M03 A3004 RMK SC8 SLP176

CYOW;2009-03-31 05:00;CYOW 310500Z 31011G18KT 15SM OVC023 01/M03 A3007 RMK SC8 SLP186

CYOW;2009-03-31 06:00;CYOW 310600Z 30008KT 15SM OVC023 01/M03 A3010 RMK SC8 SLP198

CYOW;2009-03-31 07:00;CYOW 310700Z 31010KT 15SM OVC023 01/M03 A3012 RMK SC8 SLP205

CYOW;2009-03-31 08:00;CYOW 310800Z 31008KT 15SM OVC023 01/M03 A3013 RMK SC8 SLP208

CYOW;2009-03-31 09:00;CYOW 310900Z 33011KT 15SM OVC023 01/M04 A3015 RMK SC8 SLP215

CYOW;2009-03-31 10:00;CYOW 311000Z 33006KT 15SM OVC021 00/M04 A3017 RMK SC8 SLP221

CYOW;2009-03-31 11:00;CYOW 311100Z 33007KT 15SM OVC023 00/M04 A3019 RMK SC8 SLP230

CYOW;2009-03-31 12:00;CYOW 311200Z 36007KT 15SM OVC024 01/M04 A3023 RMK SC8 SLP243

CYOW;2009-03-31 13:00;CYOW 311300Z 36006KT 15SM OVC023 01/M04 A3024 RMK SC8 SLP247

CYOW;2009-03-31 14:00;CYOW 311400Z 03005KT 15SM OVC022 01/M04 A3025 RMK SC8 SLP251

CYOW;2009-03-31 15:00;CYOW 311500Z 33003KT 15SM OVC023 02/M04 A3026 RMK SC8 SLP254

CYOW;2009-03-31 16:00;CYOW 311600Z 36004KT 15SM OVC024 02/M04 A3026 RMK SC8 SLP254

CYOW;2009-03-31 17:00;CYOW 311700Z 34003KT 15SM OVC027 03/M04 A3026 RMK SC8 SLP252

CYOW;2009-03-31 18:00;CYOW 311800Z 00000KT 15SM BKN029 04/M03 A3025 RMK SC7 SLP248

CYOW;2009-03-31 19:00;CYOW 311900Z 22002KT 15SM BKN030 04/M03 A3023 RMK SC6 SLP243

CYOW;2009-03-31 20:00;CYOW 312000Z 11005KT 15SM BKN031 05/M03 A3022 RMK SC6 SLP239

CYOW;2009-03-31 21:00;CYOW 312100Z 12006KT 15SM FEW030 05/M02 A3020 RMK SC2 SLP231

CYOW;2009-03-31 22:00;CYOW 312200Z 11009KT 15SM SCT028 05/M02 A3021 RMK SC4 SLP234

CYOW;2009-03-31 23:00;CYOW 312300Z 11009KT 15SM BKN024 04/M01 A3019 RMK SC7 SLP230

CYOW;2009-04-01 01:00;CYOW 010100Z 09008KT 15SM BKN022 02/M02 A3019 RMK SC5 SLP228

CYOW;2009-04-01 02:00;CYOW 010200Z 08009KT 15SM FEW020 02/M02 A3016 RMK SC1 SLP218

CYOW;2009-04-01 03:00;CYOW 010300Z 09011G16KT 15SM SKC 02/M02 A3014 RMK SLP213

CYOW;2009-04-01 04:00;CYOW 010400Z 08014G20KT 15SM OVC250 01/M02 A3009 RMK CI0 SLP196

CYOW;2009-04-01 05:00;CYOW 010500Z 09011G18KT 15SM OVC250 01/M02 A3011 RMK CI0 SLP203

CYOW;2009-04-01 06:00;CYOW 010600Z 09014G19KT 15SM OVC250 01/M02 A3008 RMK CI3 PRESFR SLP191

CYOW;2009-04-01 07:00;CYOW 010700Z 09015KT 15SM FEW180 OVC240 01/M02 A3005 RMK AC2CI2 SLP180

CYOW;2009-04-01 08:00;CYOW 010800Z 09012G19KT 15SM FEW160 BKN240 01/M02 A3004 RMK AC2CI2 SLP178

CYOW;2009-04-01 09:00;CYOW 010900Z 09015G20KT 15SM OVC180 01/M02 A3002 RMK AC8 SLP171

CYOW;2009-04-01 10:00;CYOW 011000Z 09015KT 15SM OVC120 01/M02 A3002 RMK AC8 SLP170

CYOW;2009-04-01 11:00;CYOW 011100Z 08011KT 15SM OVC120 01/M02 A3001 RMK AC8 SLP167

CYOW;2009-04-01 12:00;CYOW 011200Z 10010KT 12SM OVC100 01/M02 A2999 RMK AC8 SLP161

CYOW;2009-04-01 13:00;CYOW 011300Z 09014KT 12SM OVC100 02/M01 A2996 RMK AC8 SLP152

CYOW;2009-04-01 14:00;CYOW 011400Z 09012KT 12SM OVC120 03/M01 A2996 RMK AC8 SLP151

CYOW;2009-04-01 15:00;CYOW 011500Z 09011KT 12SM BKN080 OVC120 04/M00 A2993 RMK AC5AC3 SLP141

CYOW;2009-04-01 16:00;CYOW 011600Z 10010G15KT 15SM BKN057 OVC080 05/01 A2993 RMK SC6AC2 SLP139

CYOW;2009-04-01 17:00;CYOW 011700Z 11007KT 15SM OVC039 06/01 A2991 RMK SC8 SLP134

CYOW;2009-04-01 17:11;CYOW 011711Z 11007KT 15SM -RA OVC037 06/ RMK SC8

CYOW;2009-04-01 18:00;CYOW 011800Z 11008KT 8SM -RA OVC028 06/04 A2988 RMK SC8 SLP123

CYOW;2009-04-01 19:00;CYOW 011900Z 16009KT 8SM -RA OVC020 06/05 A2988 RMK SC8 SLP124

CYOW;2009-04-01 20:00;CYOW 012000Z 14011KT 10SM -RA BKN016 OVC050 06/06 A2984 RMK SC6SC2 SLP108

CYOW;2009-04-01 21:00;CYOW 012100Z 17007KT 10SM -RA OVC021 07/06 A2985 RMK SC8 SLP114

CYOW;2009-04-01 22:00;CYOW 012200Z 16006KT 10SM -RA OVC026 07/05 A2984 RMK SC8 SLP109

CYOW;2009-04-01 22:10;CYOW 012210Z 17006KT 10SM OVC022 07/ RMK SC8

CYOW;2009-04-01 22:53;CYOW 012253Z 18009G15KT 10SM -RA FEW019 OVC024 08/ RMK SC1SC7

CYOW;2009-04-01 23:00;CYOW 012300Z 18008G15KT 10SM -RA FEW018 OVC025 08/05 A2985 RMK SC2SC6 SLP112

CYOW;2009-04-01 23:36;CYOW 012336Z 18006KT 15SM FEW021 OVC025 07/ RMK SC2SC6

CYOW;2009-04-02 00:00;CYOW 020000Z 17007KT 15SM FEW020 SCT030 BKN100 07/05 A2985 RMK SC1SC3AC2 SLP112

CYOW;2009-04-02 01:00;CYOW 020100Z 17006KT 15SM OVC022 07/05 A2987 RMK SC8 SLP119

CYOW;2009-04-02 02:00;CYOW 020200Z 18008KT 15SM SKC 07/05 A2987 RMK SLP119

CYOW;2009-04-02 03:00;CYOW 020300Z 19010KT 15SM SKC 06/05 A2988 RMK SLP122

CYOW;2009-04-02 04:00;CYOW 020400Z 19009KT 12SM SCT100 06/05 A2988 RMK AC4 SLP123

CYOW;2009-04-02 05:00;CYOW 020500Z 18007KT 10SM BKN090 06/05 A2988 RMK AC7 SLP123

CYOW;2009-04-02 06:00;CYOW 020600Z 20008KT 10SM BKN093 06/04 A2989 RMK AC6 SLP125

CYOW;2009-04-02 06:50;CYOW 020650Z 24008KT 10SM FEW008 OVC013 05/ RMK SC2SC6

CYOW;2009-04-02 07:00;CYOW 020700Z 23007KT 8SM FEW008 BKN027 OVC090 05/04 A2991 RMK SC1SC6AC2 SLP132

CYOW;2009-04-02 08:00;CYOW 020800Z 23006KT 15SM SKC 05/04 A2993 RMK SLP139

CYOW;2009-04-02 09:00;CYOW 020900Z 22006KT 15SM SKC 04/02 A2994 RMK SLP144

CYOW;2009-04-02 10:00;CYOW 021000Z 20006KT 15SM FEW180 03/01 A2996 RMK AC1 SLP148

CYOW;2009-04-02 11:00;CYOW 021100Z 21005KT 15SM FEW190 03/M00 A2997 RMK AC1 SLP153

CYOW;2009-04-02 12:00;CYOW 021200Z 19004KT 15SM FEW200 03/00 A2999 RMK CI1 SLP160

CYOW;2009-04-02 13:00;CYOW 021300Z 00000KT 15SM FEW200 06/01 A3000 RMK CI1 SLP162

CYOW;2009-04-02 14:00;CYOW 021400Z 19007KT 15SM FEW200 09/01 A2999 RMK CI0 SLP158

CYOW;2009-04-02 15:00;CYOW 021500Z 19010KT 15SM FEW170 FEW210 11/02 A2996 RMK AC1CI0 SLP149

CYOW;2009-04-02 16:00;CYOW 021600Z 20013KT 15SM FEW200 12/00 A2995 RMK CI0 SLP146

CYOW;2009-04-02 17:00;CYOW 021700Z 20010G17KT 15SM FEW200 14/00 A2993 RMK CI0 SLP139

CYOW;2009-04-02 18:00;CYOW 021800Z 19012G17KT 15SM FEW045 FEW200 14/01 A2992 RMK CU1CI0 SLP134

CYOW;2009-04-02 19:00;CYOW 021900Z 22009G15KT 15SM FEW250 15/M00 A2989 RMK CI0 SLP124

CYOW;2009-04-02 20:00;CYOW 022000Z 23012KT 15SM FEW160 SCT200 SCT250 15/M01 A2988 RMK AC2CI1CI0 SLP120

CYOW;2009-04-02 21:00;CYOW 022100Z 23013KT 15SM FEW160 BKN220 BKN250 14/M01 A2989 RMK AC2CI1CI0 SLP125

CYOW;2009-04-02 22:00;CYOW 022200Z 22008KT 15SM FEW100 SCT160 BKN210 BKN250 14/M01 A2988 RMK AC2AC2CI2CI0 SLP120

CYOW;2009-04-02 23:00;CYOW 022300Z 19003KT 15SM FEW100 BKN120 BKN220 13/M01 A2986 RMK AC1AS3CI4 SLP116

CYOW;2009-04-03 00:00;CYOW 030000Z 20004KT 15SM OVC100 12/M00 A2990 RMK AS8 SLP127

CYOW;2009-04-03 01:00;CYOW 030100Z 12002KT 15SM OVC090 11/M00 A2988 RMK AS8 SLP121

CYOW;2009-04-03 02:00;CYOW 030200Z 09003KT 15SM FEW160 08/M01 A2985 RMK AC2 SLP113

CYOW;2009-04-03 03:00;CYOW 030300Z 08004KT 15SM SKC 09/M01 A2983 RMK SLP103

CYOW;2009-04-03 04:00;CYOW 030400Z 09006KT 15SM SCT150 OVC180 07/M01 A2981 RMK AC3AS0 SLP098

CYOW;2009-04-03 05:00;CYOW 030500Z 09007KT 15SM SKC 06/M01 A2979 RMK SLP092

CYOW;2009-04-03 06:00;CYOW 030600Z 06005KT 15SM BKN110 07/M01 A2977 RMK AC5 SLP084

CYOW;2009-04-03 07:00;CYOW 030700Z 07009KT 15SM FEW090 BKN110 07/M01 A2976 RMK AC1AC6 SLP080

CYOW;2009-04-03 08:00;CYOW 030800Z 07011KT 15SM SCT080 BKN120 06/M01 A2971 RMK AC4AC2 SLP065

CYOW;2009-04-03 09:00;CYOW 030900Z 08011KT 15SM BKN072 06/M00 A2968 RMK AC7 SLP053

CYOW;2009-04-03 10:00;CYOW 031000Z 08007KT 15SM -RA OVC060 07/01 A2965 RMK SC8 SLP042

CYOW;2009-04-03 11:00;CYOW 031100Z 07012KT 10SM -RA OVC044 06/03 A2963 RMK SC8 SLP037

CYOW;2009-04-03 12:00;CYOW 031200Z 06012KT 15SM -RA BKN050 OVC100 05/03 A2961 RMK SC7AC1 SLP030

CYOW;2009-04-03 12:42;CYOW 031242Z 06013KT 15SM SCT050 OVC110 05/ RMK SC4AC4

CYOW;2009-04-03 13:00;CYOW 031300Z 06012KT 15SM FEW050 BKN110 OVC140 06/04 A2957 RMK SC2AC4AC2 SLP016

CYOW;2009-04-03 14:00;CYOW 031400Z 07013KT 15SM FEW050 SCT110 OVC160 08/04 A2953 RMK SC1AC3AC4 SLP002

CYOW;2009-04-03 15:00;CYOW 031500Z 07012G17KT 15SM FEW050 SCT110 BKN150 BKN180 BKN200 11/06 A2948 RMK SC1AC2AC2AC1CI1 SLP986

CYOW;2009-04-03 16:00;CYOW 031600Z 08012KT 15SM BKN056 OVC100 14/08 A2944 RMK SC5AC3 SLP971

CYOW;2009-04-03 17:00;CYOW 031700Z 08013G20KT 15SM BKN046 OVC080 15/08 A2939 RMK SC7AC1 SLP955

CYOW;2009-04-03 17:12;CYOW 031712Z 08011G18KT 15SM BKN043 OVC070 14/ RMK SC7AC1

CYOW;2009-04-03 18:00;CYOW 031800Z 10013KT 10SM -RA BKN040 OVC070 13/11 A2934 RMK SC7AC1 SLP939

CYOW;2009-04-03 18:42;CYOW 031842Z 08017G25KT 2SM -RA BR OVC012 11/ RMK FG1SC7

CYOW;2009-04-03 19:00;CYOW 031900Z CCA 08018G24KT 2SM -RA BR OVC010 11/10 A2929 RMK FG2SC6 PRESFR SLP920

CYOW;2009-04-03 19:36;CYOW 031936Z 07016G27KT 8SM -RA BKN008 OVC025 10/ RMK SF5SC3

CYOW;2009-04-03 20:00;CYOW 032000Z 07018G25KT 10SM -RA BKN011 OVC040 10/09 A2923 RMK SF5SC3 SLP901

CYOW;2009-04-03 21:00;CYOW 032100Z 08021G27KT 10SM -RA BKN012 OVC040 10/09 A2918 RMK SF6SC2 SLP883

CYOW;2009-04-03 21:41;CYOW 032141Z 07022G28KT 12SM -RA SCT010 OVC058 11/ RMK SF3SC5

CYOW;2009-04-03 22:00;CYOW 032200Z 07018G27KT 12SM -RA FEW010 OVC052 11/09 A2913 RMK SF2SC6 SLP869

CYOW;2009-04-03 23:00;CYOW 032300Z 07016G21KT 12SM -RA FEW010 BKN030 OVC055 11/09 A2911 RMK SF1SC6SC2 SLP861

CYOW;2009-04-04 00:00;CYOW 040000Z CCA 08019G24KT 6SM -RA FEW012 BKN030 OVC050 10/09 A2910 RMK SF1SC6SC2 /R08/ SLP856

CYOW;2009-04-04 01:00;CYOW 040100Z 08016G26KT 10SM -RA OVC012 10/09 A2908 RMK SC8 VRY LGT RA SLP850

CYOW;2009-04-04 02:00;CYOW 040200Z 08017G25KT 10SM -RA FEW007 OVC012 09/09 A2905 RMK SF1SC8 VRY LGT RA SLP842

CYOW;2009-04-04 03:00;CYOW 040300Z 08018KT 5SM -RA OVC010 09/08 A2903 RMK SC8 SLP834

CYOW;2009-04-04 04:00;CYOW 040400Z 08011G20KT 5SM -RA FEW005 OVC010 08/08 A2902 RMK SF1SC8 SLP828

CYOW;2009-04-04 05:00;CYOW 040500Z 10013KT 5SM -RA FEW008 OVC012 08/08 A2902 RMK SF2NS6 SLP830

CYOW;2009-04-04 06:00;CYOW 040600Z 17012G17KT 7SM -RA OVC005 05/04 A2905 RMK NS8 VRY LGT RA SLP838

CYOW;2009-04-04 07:00;CYOW 040700Z 19011KT 7SM -RA OVC008 04/03 A2905 RMK NS8 SLP838

CYOW;2009-04-04 08:00;CYOW 040800Z 18008KT 7SM -RA OVC007 04/03 A2905 RMK NS8 SLP839

CYOW;2009-04-04 09:00;CYOW 040900Z 16004KT 7SM -RA FEW005 OVC008 03/02 A2905 RMK SF2NS6 SLP842

CYOW;2009-04-04 10:00;CYOW 041000Z 16003KT 4SM -RA BR FEW005 OVC008 03/03 A2907 RMK SF2NS6 SLP847

CYOW;2009-04-04 11:00;CYOW 041100Z 12002KT 3SM -RA BR OVC004 03/03 A2908 RMK SF8 SLP852

CYOW;2009-04-04 12:00;CYOW 041200Z 00000KT 2SM -RA BR OVC004 03/03 A2911 RMK NS8 SLP859

CYOW;2009-04-04 13:00;CYOW 041300Z 29005KT 5SM -RA BR OVC004 04/03 A2913 RMK NS8 SLP868

CYOW;2009-04-04 14:00;CYOW 041400Z 30006KT 2SM -RA BR BKN004 OVC008 05/04 A2915 RMK SF5NS3 SLP875

CYOW;2009-04-04 15:00;CYOW 041500Z 28004KT 2SM -RA BR BKN004 OVC008 05/04 A2918 RMK SF5NS3 SLP884

CYOW;2009-04-04 16:00;CYOW 041600Z 28016G22KT 3SM -RA BR OVC007 04/03 A2921 RMK NS8 SLP893

CYOW;2009-04-04 17:00;CYOW 041700Z 28018G24KT 4SM -RA BR OVC008 04/03 A2924 RMK NS8 SLP904

CYOW;2009-04-04 18:00;CYOW 041800Z 28017G26KT 3SM -RA BR OVC008 04/03 A2927 RMK NS8 SLP916

CYOW;2009-04-04 19:00;CYOW 041900Z 28018G27KT 4SM -RA BR OVC009 03/02 A2930 RMK NS8 SLP925

CYOW;2009-04-04 19:40;CYOW 041940Z 28018G28KT 5SM -RA BR OVC010 03/ RMK NS8

CYOW;2009-04-04 20:00;CYOW 042000Z 28021G27KT 4SM -RA BR OVC010 03/01 A2933 RMK NS8 SLP937

CYOW;2009-04-04 21:00;CYOW 042100Z 28017G25KT 5SM -RA BR OVC010 03/01 A2937 RMK NS8 SLP951

CYOW;2009-04-04 22:00;CYOW 042200Z 28013G22KT 6SM -RA BR OVC012 02/00 A2941 RMK NS8 SLP964

CYOW;2009-04-04 23:00;CYOW 042300Z 28017G28KT 6SM -RA BR OVC012 02/M00 A2945 RMK NS8 SLP977

CYOW;2009-04-05 00:00;CYOW 050000Z 28017G26KT 6SM -SN BR FEW010 OVC012 01/M01 A2948 RMK SF2NS6 SLP988

CYOW;2009-04-05 00:35;CYOW 050035Z 28018G24KT 3SM -SN BR FEW007 OVC012 01/ RMK SF2NS6

CYOW;2009-04-05 01:00;CYOW 050100Z 29018KT 3SM -SN BR SCT008 OVC012 00/M01 A2952 RMK SF3NS5 SLP001

CYOW;2009-04-05 02:00;CYOW 050200Z 28015G21KT 3SM -SN BR SCT008 OVC011 00/M01 A2954 RMK SF3NS5 SLP009

CYOW;2009-04-05 03:00;CYOW 050300Z 29016G21KT 3SM -SN FEW007 OVC011 01/M01 A2956 RMK SF2NS6 SLP016

CYOW;2009-04-05 04:00;CYOW 050400Z 28016KT 6SM -SN BKN011 OVC024 01/M01 A2958 RMK SC5SC3 SLP022

CYOW;2009-04-05 05:00;CYOW 050500Z 28018KT 10SM FEW012 OVC100 01/M01 A2960 RMK SF2AC6 SLP028

CYOW;2009-04-05 05:50;CYOW 050550Z 29019G25KT 10SM -SN FEW013 OVC033 01/ RMK SF2SC6 VRY LGT SN

CYOW;2009-04-05 06:00;CYOW 050600Z 28016G24KT 10SM -SN FEW015 OVC033 01/M01 A2963 RMK SF2SC6 SLP039

CYOW;2009-04-05 07:00;CYOW 050700Z 29017G22KT 10SM -SN OVC017 01/M02 A2965 RMK SC8 VRY LGT SN SLP047

CYOW;2009-04-05 08:00;CYOW 050800Z 30015G22KT 10SM OVC016 01/M02 A2968 RMK SC8 SLP054

CYOW;2009-04-05 09:00;CYOW 050900Z 30017G24KT 10SM FEW016 OVC062 00/M02 A2969 RMK SC2SC6 SLP059

CYOW;2009-04-05 10:00;CYOW 051000Z 29017KT 10SM OVC019 01/M02 A2972 RMK SC8 SLP069

CYOW;2009-04-05 11:00;CYOW 051100Z 28012G18KT 12SM BKN020 00/M03 A2975 RMK SC7 SLP079

CYOW;2009-04-05 12:00;CYOW 051200Z 30013KT 15SM OVC020 00/M03 A2976 RMK SC8 SLP085

CYOW;2009-04-05 13:00;CYOW 051300Z 29016KT 15SM OVC020 01/M02 A2978 RMK SC8 SLP090

CYOW;2009-04-05 14:00;CYOW 051400Z 29013G20KT 15SM OVC020 01/M03 A2979 RMK SC8 SLP092

CYOW;2009-04-05 15:00;CYOW 051500Z 29020KT 15SM BKN021 02/M02 A2978 RMK SC7 SLP089

CYOW;2009-04-05 16:00;CYOW 051600Z 29016G21KT 15SM BKN022 03/M01 A2977 RMK SC6 SLP086

CYOW;2009-04-05 17:00;CYOW 051700Z 29014G20KT 15SM BKN024 05/M01 A2976 RMK CU5 SLP082

CYOW;2009-04-05 18:00;CYOW 051800Z 29013KT 15SM BKN025 07/00 A2975 RMK SC5 SLP079

CYOW;2009-04-05 19:00;CYOW 051900Z 27010G17KT 15SM BKN028 07/M00 A2974 RMK SC6 SLP077

CYOW;2009-04-05 20:00;CYOW 052000Z 29008G15KT 15SM BKN033 08/00 A2975 RMK SC6 SLP080

CYOW;2009-04-05 21:00;CYOW 052100Z 29011KT 15SM BKN036 07/M00 A2976 RMK SC6 SLP081

CYOW;2009-04-05 22:00;CYOW 052200Z 28010KT 15SM SCT033 BKN240 08/M00 A2976 RMK SC3CI1 SLP084

CYOW;2009-04-05 23:00;CYOW 052300Z 29010KT 15SM BKN034 BKN240 07/M00 A2978 RMK SC5CI1 SLP089

CYOW;2009-04-06 00:00;CYOW 060000Z 31007KT 15SM SCT033 BKN240 04/M01 A2980 RMK SC3CI2 SLP096

CYOW;2009-04-06 01:00;CYOW 060100Z 34009KT 15SM FEW032 BKN240 03/M01 A2981 RMK SC2CI2 SLP098

CYOW;2009-04-06 02:00;CYOW 060200Z 33009KT 15SM FEW032 BKN240 02/M02 A2982 RMK SC2CI2 SLP101

CYOW;2009-04-06 03:00;CYOW 060300Z 34008KT 15SM FEW035 BKN240 02/M02 A2980 RMK SC1CI2 SLP096

CYOW;2009-04-06 04:00;CYOW 060400Z 36004KT 15SM FEW035 BKN240 02/M02 A2978 RMK SC1CI2 SLP089

CYOW;2009-04-06 05:00;CYOW 060500Z 36005KT 15SM FEW035 BKN240 01/M02 A2977 RMK SC1CI2 SLP085

CYOW;2009-04-06 06:00;CYOW 060600Z 01003KT 15SM BKN240 00/M03 A2978 RMK CI2 SLP088

CYOW;2009-04-06 07:00;CYOW 060700Z 05004KT 15SM BKN240 01/M02 A2973 RMK CI3 SLP074

CYOW;2009-04-06 08:00;CYOW 060800Z 02005KT 15SM FEW018 SCT120 OVC240 00/M03 A2973 RMK SC1AC2CI2 SLP071

CYOW;2009-04-06 09:00;CYOW 060900Z 05006KT 15SM FEW018 BKN120 OVC240 01/M03 A2969 RMK SC2AC5CI2 SLP059

CYOW;2009-04-06 10:00;CYOW 061000Z 04008KT 15SM BKN015 BKN130 00/M02 A2967 RMK SC5AC2 SLP050

CYOW;2009-04-06 11:00;CYOW 061100Z 04005KT 15SM BKN015 BKN120 01/M02 A2968 RMK SC5AC2 SLP054

CYOW;2009-04-06 12:00;CYOW 061200Z 05009KT 15SM FEW020 OVC120 01/M02 A2965 RMK SC2AC6 SLP045

CYOW;2009-04-06 13:00;CYOW 061300Z 06013KT 1 1/2SM -SN VV010 01/M02 A2961 RMK SN8 SLP032

CYOW;2009-04-06 13:07;CYOW 061307Z 06013KT 3/4SM R07/6000FT/D R32/6000FT/D -SN VV008 01/ RMK SN8

CYOW;2009-04-06 13:18;CYOW 061318Z 06012KT 1/2SM SN VV005 00/ RMK SN8

CYOW;2009-04-06 13:42;CYOW 061342Z 05014G22KT 1SM R07/4000FT/U R32/4500FT/U -SN VV015 00/ RESN RMK SN8

CYOW;2009-04-06 14:00;CYOW 061400Z 07012KT 4SM -RA FEW008 OVC040 00/M01 A2956 RESN RMK SF2NS6 SLP016

CYOW;2009-04-06 14:19;CYOW 061419Z 07011KT 4SM -SNPL BKN008 OVC040 00/ RMK SF5NS3

CYOW;2009-04-06 14:30;CYOW 061430Z 08012KT 3/4SM -SNPL OVC007 00/ RMK SN4SF4

CYOW;2009-04-06 14:52;CYOW 061452Z 06011KT 2SM -SNPL OVC008 00/ RMK SF8

CYOW;2009-04-06 15:00;CYOW 061500Z 07012KT 2SM -SNPL BKN008 OVC040 00/M00 A2953 RMK SF5NS3 SLP006

CYOW;2009-04-06 16:00;CYOW 061600Z 06013G18KT 2SM -SNPL OVC007 01/M00 A2949 RMK SF8 SLP990

CYOW;2009-04-06 16:26;CYOW 061626Z 06013KT 5SM -RA BKN008 OVC040 01/ RMK SF5NS3

CYOW;2009-04-06 17:00;CYOW 061700Z 06013KT 4SM -RA BR OVC009 01/00 A2946 RMK SF8 SLP981

CYOW;2009-04-06 18:00;CYOW 061800Z 05016G26KT 6SM -RA BR OVC006 02/01 A2935 RMK SF8 PRESFR STN PRES DOWN 3.6 MB PST HR SLP945

CYOW;2009-04-06 19:00;CYOW 061900Z 07013G19KT 5SM -RA BR OVC007 02/01 A2938 RMK SF8 SLP954

CYOW;2009-04-06 20:00;CYOW 062000Z 06015G20KT 5SM -RA BR OVC006 03/02 A2934 RMK SF8 SLP941

CYOW;2009-04-06 21:00;CYOW 062100Z 06014KT 5SM -RA BR OVC008 03/02 A2931 RMK SF8 SLP929

CYOW;2009-04-06 22:00;CYOW 062200Z 06012KT 4SM -RA BR OVC009 04/03 A2931 RMK SF8 SLP931

CYOW;2009-04-06 23:00;CYOW 062300Z 05009KT 5SM -RA BR OVC006 04/03 A2929 RMK SF8 SLP923

CYOW;2009-04-07 00:00;CYOW 070000Z 05008KT 10SM -RA OVC006 04/03 A2926 RMK SF8 SLP913

CYOW;2009-04-07 01:00;CYOW 070100Z 05006KT 7SM -RA OVC006 04/04 A2924 RMK SF8 SLP907

CYOW;2009-04-07 02:00;CYOW 070200Z 05006KT 8SM -RA OVC006 04/04 A2923 RMK SF8 SLP902

CYOW;2009-04-07 03:00;CYOW 070300Z 03005KT 3SM -RA BR OVC006 04/04 A2921 RMK FG1SF7 SLP895

CYOW;2009-04-07 03:19;CYOW 070319Z 01005KT 1 1/2SM -RADZ BR OVC004 04/ RMK FG2SF6

CYOW;2009-04-07 04:00;CYOW 070400Z 36006KT 1 1/2SM -RADZ BR OVC004 03/03 A2918 RMK FG2SF6 SLP886

CYOW;2009-04-07 05:00;CYOW 070500Z 03007KT 2SM -RADZ BR OVC004 04/03 A2916 RMK FG2SF6 SLP880

CYOW;2009-04-07 06:00;CYOW 070600Z 01007KT 3SM -RADZ BR OVC004 03/03 A2915 RMK FG1SF7 SLP874

CYOW;2009-04-07 07:00;CYOW 070700Z 33006KT 2SM -RADZ BR OVC004 02/01 A2913 RMK FG1SF7 SLP870

CYOW;2009-04-07 07:20;CYOW 070720Z 31008KT 4SM -RA BR OVC004 02/ RMK SF8

CYOW;2009-04-07 07:44;CYOW 070744Z 30007KT 5SM -SN BR OVC004 01/ RMK SF8

CYOW;2009-04-07 08:00;CYOW 070800Z 29006KT 3SM -SN BR OVC003 01/00 A2913 RMK SN1SF7 SLP868

CYOW;2009-04-07 09:00;CYOW 070900Z 30008KT 6SM -SN BR OVC003 00/M00 A2913 RMK SF8 SLP867

CYOW;2009-04-07 10:00;CYOW 071000Z 28010KT 3SM -SN BR OVC004 M01/M02 A2913 RMK SN1SF7 SLP869

CYOW;2009-04-07 11:00;CYOW 071100Z 28010G15KT 2 1/2SM -SN BR OVC005 M02/M03 A2914 RMK SN2SF6 SLP873

CYOW;2009-04-07 12:00;CYOW 071200Z CCA 26011KT 2 1/2SM -SN BR OVC007 M02/M04 A2916 RMK SN2SF6 /S01/ SLP880

CYOW;2009-04-07 12:51;CYOW 071251Z 27012KT 5SM -SN BR BKN009 OVC025 M02/ RMK SF6SC2

CYOW;2009-04-07 13:00;CYOW 071300Z 26012KT 5SM -SN BR BKN010 OVC025 M02/M04 A2918 RMK SF6SC2 SLP885

CYOW;2009-04-07 14:00;CYOW 071400Z 26014KT 2SM -SN BR OVC007 M03/M04 A2919 RMK SN2SF6 SLP889

CYOW;2009-04-07 15:00;CYOW 071500Z 26013KT 10SM -SN OVC016 M03/M05 A2921 RMK SC8 SLP896

CYOW;2009-04-07 16:00;CYOW 071600Z 27014G19KT 3SM -SN BKN015 OVC028 M03/M06 A2923 RMK SC6SC2 SLP902

CYOW;2009-04-07 17:00;CYOW 071700Z 27012G17KT 5SM -SN BKN011 OVC030 M02/M05 A2924 RMK SC6SC2 SLP907

CYOW;2009-04-07 18:00;CYOW 071800Z 26011KT 6SM -SN BKN008 OVC017 M02/M04 A2926 RMK SF5SC3 SLP912

CYOW;2009-04-07 18:16;CYOW 071816Z 26011KT 1SM R07/4500FT/D R32/6000FT/U -SN VV009 M02/ RMK SN8

CYOW;2009-04-07 18:29;CYOW 071829Z 25011KT 4SM -SN SCT010 OVC026 M02/ RMK SF3SC5

CYOW;2009-04-07 19:00;CYOW 071900Z 26012KT 5SM -SN BKN018 OVC040 M02/M04 A2928 RMK SC6SC2 SLP918

CYOW;2009-04-07 20:00;CYOW 072000Z 26008KT 3SM -SN OVC021 M02/M05 A2929 RMK SC8 SLP922

CYOW;2009-04-07 21:00;CYOW 072100Z 27006KT 3SM -SN BKN011 OVC020 M01/M03 A2930 RMK SF5SC3 SLP928

CYOW;2009-04-07 22:00;CYOW 072200Z 26008KT 3SM -SN SCT010 OVC023 M01/M03 A2932 RMK SF4SC4 SLP935

CYOW;2009-04-07 22:28;CYOW 072228Z 26005KT 5SM -SN FEW008 OVC012 M01/ RMK SC2SC6

CYOW;2009-04-07 22:41;CYOW 072241Z 28007KT 5SM -SN FEW008 BKN018 OVC040 M01/ RMK SC1SC5SC2

CYOW;2009-04-07 23:00;CYOW 072300Z 27010KT 4SM -SN FEW008 SCT018 OVC032 M01/M04 A2934 RMK SC1SC3SC4 SLP942

CYOW;2009-04-08 00:00;CYOW 080000Z 27009KT 4SM -SN FEW013 OVC035 M02/M04 A2936 RMK SC1SC7 MOON VISBL SLP948

CYOW;2009-04-08 01:00;CYOW 080100Z 26008KT 8SM -SN FEW008 OVC041 M02/M04 A2938 RMK SC1SC7 SLP954

CYOW;2009-04-08 02:00;CYOW 080200Z 26008KT 10SM -SN FEW008 OVC039 M02/M04 A2939 RMK SC1SC7 MOON VISBL SLP958

CYOW;2009-04-08 03:00;CYOW 080300Z 25007KT 8SM -SN FEW011 SCT021 OVC037 M02/M04 A2939 RMK SC1SC3SC4 SLP959

CYOW;2009-04-08 04:00;CYOW 080400Z 23007KT 7SM -SN FEW006 OVC050 M02/M04 A2939 RMK SC2SC4 SLP959

CYOW;2009-04-08 04:18;CYOW 080418Z 23007KT 7SM -SN OVC008 M02/ RMK SC8

CYOW;2009-04-08 04:46;CYOW 080446Z 24009KT 7SM -SN FEW009 SCT020 BKN032 M02/ RMK SF0SC3SC3

CYOW;2009-04-08 05:00;CYOW 080500Z 24009KT 8SM -SN FEW009 FEW027 SCT060 M02/M04 A2939 RMK SF0SC2SC2 SLP959

CYOW;2009-04-08 06:00;CYOW 080600Z 23010KT 10SM -SN FEW011 FEW029 BKN038 M02/M04 A2939 RMK SC1SC2SC5 SLP957

CYOW;2009-04-08 07:00;CYOW 080700Z 23007KT 10SM -SN FEW030 BKN062 M03/M05 A2939 RMK SC2SC2 SLP957

CYOW;2009-04-08 08:00;CYOW 080800Z 22008KT 10SM -SN FEW011 FEW025 SCT042 OVC140 M03/M05 A2939 RMK SC1SC2SC2AS4 MOON VISBL SLP957

CYOW;2009-04-08 09:00;CYOW 080900Z 23008KT 15SM -SN FEW010 SCT030 BKN068 M02/M05 A2939 RMK SC1SC2AC4 SLP957

CYOW;2009-04-08 10:00;CYOW 081000Z 21006KT 15SM -SN FEW010 BKN035 OVC200 M02/M05 A2939 RMK SC1SC6CI2 SLP959

CYOW;2009-04-08 10:15;CYOW 081015Z 22007KT 15SM FEW010 OVC037 M02/ RMK SC1SC7

CYOW;2009-04-08 11:00;CYOW 081100Z 21006KT 15SM FEW010 OVC039 M02/M04 A2940 RMK SC2SC6 SLP961

CYOW;2009-04-08 12:00;CYOW 081200Z 22010KT 10SM -SN OVC047 M01/M04 A2941 RMK SC8 SLP966

CYOW;2009-04-08 13:00;CYOW 081300Z 22010KT 10SM -SN OVC041 M01/M04 A2942 RMK SC8 SLP968

CYOW;2009-04-08 14:00;CYOW 081400Z 22010G16KT 10SM -SN BKN026 OVC035 M00/M03 A2942 RMK SC6SC2 SLP970

CYOW;2009-04-08 15:00;CYOW 081500Z 23013KT 10SM -SN BKN017 OVC025 01/M03 A2943 RMK SC5SC3 SLP970

CYOW;2009-04-08 15:25;CYOW 081525Z 22011G17KT 3SM -SN BKN012 OVC025 01/ RMK SC5SC3

CYOW;2009-04-08 15:54;CYOW 081554Z 22011G17KT 5SM -SN BKN015 BKN025 01/ RMK SC5SC2

CYOW;2009-04-08 16:00;CYOW 081600Z 21013KT 5SM -SN BKN015 BKN025 01/M02 A2943 RMK SC5SC2 SLP970

CYOW;2009-04-08 17:00;CYOW 081700Z 23013G18KT 12SM -SN BKN020 OVC035 02/M02 A2943 RMK SC6SC2 SLP970

CYOW;2009-04-08 18:00;CYOW 081800Z 23013G20KT 15SM -SN BKN025 OVC040 02/M02 A2943 RMK SC5SC3 SLP970

CYOW;2009-04-08 19:00;CYOW 081900Z 23013G18KT 15SM -SN FEW020 BKN035 BKN050 03/M02 A2942 RMK SC2SC3SC2 VRY LGT SN SLP969

CYOW;2009-04-08 19:50;CYOW 081950Z 22011KT 15SM -RA FEW015 OVC026 03/ RMK SC2SC6 VRY LGT RA

CYOW;2009-04-08 20:00;CYOW 082000Z 24012G18KT 15SM -RA FEW015 OVC027 02/M02 A2943 RMK SC2SC6 VRY LGT RA SLP972

CYOW;2009-04-08 21:00;CYOW 082100Z 23013KT 15SM -RA SCT025 BKN054 03/M03 A2945 RMK SC3SC4 SLP976

CYOW;2009-04-08 21:35;CYOW 082135Z 24013G18KT 15SM BKN051 03/ RMK SC7

CYOW;2009-04-08 22:00;CYOW 082200Z 22011G19KT 15SM BKN055 BKN070 BKN140 03/M04 A2946 RMK SC5AC2AC1 SLP981

CYOW;2009-04-08 23:00;CYOW 082300Z 21008KT 15SM SCT064 OVC220 03/M04 A2947 RMK SC3CS1 SLP985

CYOW;2009-04-09 00:00;CYOW 090000Z 20006KT 15SM FEW060 OVC140 03/M03 A2948 RMK SC2AS6 MOON VISBL SLP986

CYOW;2009-04-09 01:00;CYOW 090100Z 24012G17KT 15SM SCT050 OVC140 04/M06 A2950 RMK SC3AS5 MOON VISBL SLP993

CYOW;2009-04-09 02:00;CYOW 090200Z 25010KT 15SM BKN061 OVC140 03/M06 A2951 RMK SC5AS3 MOON VISBL SLP998

CYOW;2009-04-09 03:00;CYOW 090300Z 26011KT 15SM OVC090 03/M06 A2952 RMK AS8 MOON VISBL SLP001

CYOW;2009-04-09 03:51;CYOW 090351Z 26006KT 15SM FEW090 BKN220 02/ RMK AC2CI2

CYOW;2009-04-09 04:00;CYOW 090400Z 26008KT 15SM FEW090 BKN220 01/M05 A2953 RMK AC2CI1 SLP005

CYOW;2009-04-09 05:00;CYOW 090500Z 23004KT 15SM BKN042 02/M06 A2953 RMK SC6 MOON VISBL SLP006

CYOW;2009-04-09 06:00;CYOW 090600Z 21004KT 15SM FEW030 BKN040 01/M05 A2953 RMK SC1SC6 MOON VISBL SLP006

CYOW;2009-04-09 07:00;CYOW 090700Z 22005KT 15SM FEW037 OVC076 02/M06 A2954 RMK SC2AC6 MOON VISBL SLP008

CYOW;2009-04-09 08:00;CYOW 090800Z 23005KT 15SM BKN075 01/M06 A2955 RMK AC6 SLP012

CYOW;2009-04-09 09:00;CYOW 090900Z 24006KT 15SM BKN074 01/M05 A2957 RMK AC6 SLP017

CYOW;2009-04-09 10:00;CYOW 091000Z 24007KT 15SM BKN070 BKN220 01/M05 A2960 RMK AC5CI1 SLP027

CYOW;2009-04-09 11:00;CYOW 091100Z 24006KT 15SM BKN050 BKN070 00/M05 A2963 RMK SC5AC1 SLP038

CYOW;2009-04-09 12:00;CYOW 091200Z 25006KT 15SM SCT050 BKN072 01/M05 A2966 RMK SC3AC3 SLP050

CYOW;2009-04-09 13:00;CYOW 091300Z 25010KT 15SM FEW070 BKN120 02/M04 A2968 RMK AC2AC5 SLP057

CYOW;2009-04-09 14:00;CYOW 091400Z 25009KT 15SM FEW050 BKN060 04/M04 A2970 RMK SC2SC5 SLP063

CYOW;2009-04-09 15:00;CYOW 091500Z 29010G17KT 15SM FEW030 SCT050 BKN082 05/M04 A2972 RMK CU1SC2AC2 SLP068

CYOW;2009-04-09 16:00;CYOW 091600Z 26013KT 15SM FEW030 BKN051 BKN080 06/M03 A2972 RMK CU1SC4AC1 SLP069

CYOW;2009-04-09 17:00;CYOW 091700Z 25007KT 15SM SCT045 BKN090 07/M04 A2972 RMK CU4AC2 SLP070

CYOW;2009-04-09 18:00;CYOW 091800Z 22009G15KT 15SM BKN051 BKN100 08/M04 A2973 RMK CU6AC1 SLP070

CYOW;2009-04-09 19:00;CYOW 091900Z 24012G17KT 15SM BKN055 BKN065 08/M05 A2973 RMK CU5SC2 SLP071

CYOW;2009-04-09 20:00;CYOW 092000Z 25013KT 15SM SCT060 BKN073 08/M04 A2973 RMK CU4AC3 SLP072

CYOW;2009-04-09 21:00;CYOW 092100Z 24010KT 15SM SCT060 BKN076 09/M04 A2974 RMK CU4AC3 SLP075

CYOW;2009-04-09 22:00;CYOW 092200Z 24009KT 15SM SCT065 BKN084 09/M05 A2976 RMK CU3AC3 VIRGA SLP080

CYOW;2009-04-09 23:00;CYOW 092300Z 27007KT 15SM BKN070 BKN090 08/M05 A2979 RMK AC6AC2 VIRGA SLP091

CYOW;2009-04-10 00:00;CYOW 100000Z 34013KT 15SM FEW060 BKN070 BKN090 06/M03 A2982 RMK SC1AC6AC1 SLP101

CYOW;2009-04-10 01:00;CYOW 100100Z 01013KT 15SM FEW060 SCT110 04/M02 A2985 RMK SC2AC2 SLP114

CYOW;2009-04-10 02:00;CYOW 100200Z 36009KT 15SM FEW080 SCT100 03/M03 A2988 RMK AC1AC2 SLP123

CYOW;2009-04-10 03:00;CYOW 100300Z 34005KT 15SM FEW110 01/M03 A2991 RMK AC1 SLP134

CYOW;2009-04-10 04:00;CYOW 100400Z 35005KT 15SM SKC 00/M03 A2993 RMK SLP140

CYOW;2009-04-10 05:00;CYOW 100500Z 31003KT 15SM SKC 00/M03 A2994 RMK SLP145

CYOW;2009-04-10 06:00;CYOW 100600Z 33008KT 15SM SKC M01/M05 A2996 RMK SLP150

CYOW;2009-04-10 07:00;CYOW 100700Z 34005KT 15SM SKC M02/M05 A2997 RMK SLP155

CYOW;2009-04-10 08:00;CYOW 100800Z 02004KT 15SM SKC M02/M04 A2998 RMK SLP157

CYOW;2009-04-10 09:00;CYOW 100900Z 32003KT 15SM SKC M02/M05 A3000 RMK SLP165

CYOW;2009-04-10 10:00;CYOW 101000Z 35004KT 15SM FEW080 M03/M05 A3002 RMK AC1 SLP171

CYOW;2009-04-10 11:00;CYOW 101100Z CCA 01004KT 15SM FEW080 M03/M06 A3004 RMK AC1 FROIN SLP178

CYOW;2009-04-10 12:00;CYOW 101200Z 36006KT 15SM SCT040 M01/M06 A3007 RMK SC4 SLP188

CYOW;2009-04-10 13:00;CYOW 101300Z 36006KT 15SM FEW040 00/M06 A3009 RMK SC1 SLP193

CYOW;2009-04-10 14:00;CYOW 101400Z 34009KT 15SM FEW030 01/M06 A3009 RMK SC2 SLP194

CYOW;2009-04-10 15:00;CYOW 101500Z 32008KT 15SM BKN032 02/M06 A3010 RMK SC6 SLP198

CYOW;2009-04-10 16:00;CYOW 101600Z 28006KT 15SM BKN033 02/M06 A3011 RMK SC7 SLP200

CYOW;2009-04-10 17:00;CYOW 101700Z 27010KT 15SM SCT037 05/M05 A3010 RMK SC4 SLP197

CYOW;2009-04-10 18:00;CYOW 101800Z 28006KT 15SM SCT040 05/M05 A3009 RMK SC3 SLP195

CYOW;2009-04-10 19:00;CYOW 101900Z 29010KT 15SM FEW040 05/M05 A3008 RMK SC2 SLP190

CYOW;2009-04-10 20:00;CYOW 102000Z 34005KT 15SM FEW040 06/M06 A3007 RMK SC1 SLP187

CYOW;2009-04-10 21:00;CYOW 102100Z 02002KT 15SM SKC 07/M07 A3006 RMK SLP184

CYOW;2009-04-10 22:00;CYOW 102200Z 02006KT 15SM SKC 07/M07 A3005 RMK SLP183

CYOW;2009-04-10 23:00;CYOW 102300Z 04009KT 15SM FEW210 06/M07 A3005 RMK CI0 SLP182

CYOW;2009-04-11 00:00;CYOW 110000Z 04009KT 15SM FEW040 FEW210 04/M08 A3006 RMK SC1CI0 SLP185

CYOW;2009-04-11 01:00;CYOW 110100Z 01007KT 15SM FEW210 03/M08 A3008 RMK CI0 SLP192

CYOW;2009-04-11 02:00;CYOW 110200Z 02007KT 15SM FEW110 FEW210 03/M08 A3009 RMK AC1CI0 SLP195

CYOW;2009-04-11 03:00;CYOW 110300Z 03010KT 15SM FEW110 FEW210 02/M08 A3009 RMK AC1CI0 SLP195

CYOW;2009-04-11 04:00;CYOW 110400Z 01008KT 15SM FEW210 01/M08 A3009 RMK CI0 SLP194

CYOW;2009-04-11 05:00;CYOW 110500Z 03002KT 15SM FEW110 M00/M08 A3009 RMK AC1 SLP195

CYOW;2009-04-11 06:00;CYOW 110600Z 35006KT 15SM FEW210 M02/M08 A3008 RMK CI0 SLP193

CYOW;2009-04-11 07:00;CYOW 110700Z 36006KT 15SM FEW210 M01/M08 A3008 RMK CI1 SLP191

CYOW;2009-04-11 08:00;CYOW 110800Z 36006KT 15SM SKC M02/M08 A3008 RMK SLP192

CYOW;2009-04-11 09:00;CYOW 110900Z 35006KT 15SM SKC M02/M08 A3010 RMK FROIN SLP197

CYOW;2009-04-11 10:00;CYOW 111000Z 36007KT 15SM FEW110 M02/M07 A3011 RMK AC1 FROIN SLP200

CYOW;2009-04-11 11:00;CYOW 111100Z 36009KT 15SM FEW110 M01/M07 A3013 RMK AC1 SLP207

CYOW;2009-04-11 12:00;CYOW 111200Z 36009KT 15SM FEW110 M01/M07 A3014 RMK AC1 SLP210

CYOW;2009-04-11 13:00;CYOW 111300Z 01012KT 15SM FEW120 01/M08 A3014 RMK AC1 SLP213

CYOW;2009-04-11 14:00;CYOW 111400Z 35012KT 15SM FEW120 02/M10 A3015 RMK AC1 SLP215

CYOW;2009-04-11 15:00;CYOW 111500Z 33010G15KT 15SM FEW120 04/M09 A3015 RMK AC1 SLP215

CYOW;2009-04-11 16:00;CYOW 111600Z 34010G16KT 15SM FEW040 FEW120 03/M08 A3015 RMK CU1AC1 SLP214

CYOW;2009-04-11 17:00;CYOW 111700Z 32011G16KT 15SM FEW050 FEW120 04/M10 A3013 RMK CU1AC1 SLP209

CYOW;2009-04-11 18:00;CYOW 111800Z 34012G17KT 15SM FEW050 SCT120 06/M09 A3012 RMK CU2AC1 SLP205

CYOW;2009-04-11 19:00;CYOW 111900Z 34015G26KT 15SM FEW060 SCT120 05/M10 A3012 RMK CU2AC1 SLP205

CYOW;2009-04-11 20:00;CYOW 112000Z 35015G21KT 15SM FEW060 SCT120 06/M10 A3012 RMK CU2AC1 SLP204

CYOW;2009-04-11 21:00;CYOW 112100Z 34016G22KT 15SM FEW060 FEW120 05/M10 A3012 RMK CU2AC1 SLP205

CYOW;2009-04-11 22:00;CYOW 112200Z 34016KT 15SM FEW060 SCT240 04/M11 A3012 RMK CU2CI0 SLP206

CYOW;2009-04-11 23:00;CYOW 112300Z 34013G19KT 15SM FEW065 03/M10 A3014 RMK SC1 SLP213

CYOW;2009-04-11 23:35;CYOW 112335Z 35010G15KT 15SM FEW065 02/ RMK SC1

CYOW;2009-04-12 00:00;CYOW 120000Z 33012G17KT 15SM FEW065 01/M11 A3016 RMK SC1 SLP218

CYOW;2009-04-12 01:00;CYOW 120100Z 34012G18KT 15SM SKC 01/M11 A3018 RMK SLP225

CYOW;2009-04-12 02:00;CYOW 120200Z 35012G19KT 15SM SKC M00/M11 A3019 RMK SLP229

CYOW;2009-04-12 03:00;CYOW 120300Z 35013G19KT 15SM SKC M01/M11 A3020 RMK SLP232

CYOW;2009-04-12 04:00;CYOW 120400Z 34012KT 15SM SKC M01/M12 A3020 RMK SLP232

CYOW;2009-04-12 05:00;CYOW 120500Z 33009KT 15SM SKC M02/M12 A3021 RMK SLP234

CYOW;2009-04-12 06:00;CYOW 120600Z 32010KT 15SM SKC M03/M12 A3021 RMK SLP235

CYOW;2009-04-12 07:00;CYOW 120700Z 32010KT 15SM SKC M03/M12 A3021 RMK SLP235

CYOW;2009-04-12 08:00;CYOW 120800Z 32009G15KT 15SM SKC M04/M12 A3020 RMK SLP234

CYOW;2009-04-12 09:00;CYOW 120900Z 33011KT 15SM SKC M04/M12 A3021 RMK SLP235

CYOW;2009-04-12 10:00;CYOW 121000Z 32011KT 15SM FEW050 M05/M12 A3022 RMK SC1 SLP239

CYOW;2009-04-12 11:00;CYOW 121100Z 33011G16KT 20SM FEW050 M05/M12 A3023 RMK SC1 SLP244

CYOW;2009-04-12 12:00;CYOW 121200Z 32014KT 20SM FEW050 M04/M12 A3025 RMK SC1 SLP251

CYOW;2009-04-12 13:00;CYOW 121300Z 32013G18KT 20SM FEW030 M04/M12 A3027 RMK CU2 SLP256

CYOW;2009-04-12 14:00;CYOW 121400Z 31014G21KT 15SM SCT030 M02/M12 A3027 RMK CU3 SLP257

CYOW;2009-04-12 15:00;CYOW 121500Z 35014G20KT 20SM SCT042 M01/M11 A3027 RMK CU3 SLP256

CYOW;2009-04-12 16:00;CYOW 121600Z 34016KT 20SM SCT044 M00/M12 A3026 RMK CU3 SLP255

CYOW;2009-04-12 17:00;CYOW 121700Z 31016G22KT 20SM SCT050 01/M11 A3025 RMK CU4 SLP250

CYOW;2009-04-12 18:00;CYOW 121800Z CCA 34017G24KT 20SM SCT052 02/M11 A3025 RMK CU4 SLP248

CYOW;2009-04-12 19:00;CYOW 121900Z 34017KT 20SM SCT055 03/M11 A3023 RMK CU3 SLP244

CYOW;2009-04-12 20:00;CYOW 122000Z 32016G25KT 20SM SCT060 04/M11 A3022 RMK CU3 SLP239

CYOW;2009-04-12 21:00;CYOW 122100Z 33019KT 20SM FEW060 04/M11 A3022 RMK CU2 SLP239

CYOW;2009-04-12 22:00;CYOW 122200Z 34014KT 20SM FEW060 04/M11 A3022 RMK CU2 SLP239

CYOW;2009-04-12 23:00;CYOW 122300Z 35014G19KT 15SM FEW062 03/M11 A3023 RMK SC2 SLP242

CYOW;2009-04-12 23:48;CYOW 122348Z 34011G16KT 15SM FEW062 02/ RMK SC1

CYOW;2009-04-13 00:00;CYOW 130000Z 34010G15KT 15SM FEW062 02/M11 A3023 RMK SC1 SLP243

CYOW;2009-04-13 01:00;CYOW 130100Z 33009KT 15SM SKC 01/M11 A3024 RMK SLP247

CYOW;2009-04-13 02:00;CYOW 130200Z 33007KT 15SM SKC M00/M11 A3025 RMK SLP248

CYOW;2009-04-13 03:00;CYOW 130300Z 32008KT 15SM SKC M01/M11 A3024 RMK SLP245

CYOW;2009-04-13 04:00;CYOW 130400Z 30006KT 15SM SKC M02/M11 A3024 RMK SLP247

CYOW;2009-04-13 05:00;CYOW 130500Z 28008KT 15SM SKC M01/M09 A3026 RMK SLP253

CYOW;2009-04-13 06:00;CYOW 130600Z 31007KT 15SM SKC M02/M10 A3025 RMK SLP249

CYOW;2009-04-13 07:00;CYOW 130700Z 31009KT 15SM SKC M02/M10 A3022 RMK SLP241

CYOW;2009-04-13 08:00;CYOW 130800Z 34008KT 15SM SKC M03/M11 A3021 RMK SLP237

CYOW;2009-04-13 09:00;CYOW 130900Z 33009KT 15SM SKC M03/M11 A3020 RMK SLP233

CYOW;2009-04-13 10:00;CYOW 131000Z 29005KT 15SM SKC M04/M11 A3020 RMK SLP232

CYOW;2009-04-13 11:00;CYOW 131100Z 28006KT 20SM SKC M04/M11 A3021 RMK SLP236

CYOW;2009-04-13 12:00;CYOW 131200Z 31009KT 20SM SKC M02/M11 A3023 RMK SLP243

CYOW;2009-04-13 13:00;CYOW 131300Z 31010KT 20SM SKC 01/M11 A3022 RMK SLP240

CYOW;2009-04-13 14:00;CYOW 131400Z 31011KT 20SM SKC 01/M11 A3022 RMK SLP238

CYOW;2009-04-13 15:00;CYOW 131500Z 30009KT 20SM SKC 03/M11 A3020 RMK SLP233

CYOW;2009-04-13 16:00;CYOW 131600Z 28010G17KT 20SM SKC 04/M11 A3018 RMK SLP226

CYOW;2009-04-13 17:00;CYOW 131700Z 27013G18KT 20SM FEW250 06/M10 A3016 RMK CI0 SLP219

CYOW;2009-04-13 18:00;CYOW 131800Z 28009G16KT 20SM SKC 06/M11 A3013 RMK SLP209

CYOW;2009-04-13 19:00;CYOW 131900Z 30010KT 20SM FEW250 08/M11 A3011 RMK CI1 SLP203

CYOW;2009-04-13 20:00;CYOW 132000Z 28010G15KT 20SM FEW250 09/M11 A3010 RMK CI1 SLP197

CYOW;2009-04-13 21:00;CYOW 132100Z 31011G16KT 20SM FEW250 09/M12 A3007 RMK CI1 SLP189

CYOW;2009-04-13 22:00;CYOW 132200Z 34010KT 20SM FEW250 09/M13 A3006 RMK CI1 SLP186

CYOW;2009-04-13 23:00;CYOW 132300Z 31008KT 20SM FEW250 08/M13 A3006 RMK CI1 SLP185

CYOW;2009-04-14 00:00;CYOW 140000Z 02005KT 20SM FEW250 07/M13 A3006 RMK CI1 SLP185

CYOW;2009-04-14 01:00;CYOW 140100Z 01005KT 15SM FEW250 05/M12 A3008 RMK CI1 SLP192

CYOW;2009-04-14 02:00;CYOW 140200Z 35004KT 15SM FEW250 04/M12 A3010 RMK CI1 SLP198

CYOW;2009-04-14 03:00;CYOW 140300Z 32003KT 15SM FEW250 03/M12 A3012 RMK CI1 SLP204

CYOW;2009-04-14 04:00;CYOW 140400Z 35007KT 15SM FEW250 02/M11 A3011 RMK CI1 SLP202

CYOW;2009-04-14 05:00;CYOW 140500Z 36005KT 15SM SKC 03/M11 A3011 RMK SLP200

CYOW;2009-04-14 06:00;CYOW 140600Z 02008KT 15SM FEW250 02/M11 A3010 RMK CI0 SLP198

CYOW;2009-04-14 07:00;CYOW 140700Z 03003KT 15SM SCT250 01/M11 A3010 RMK CI1 SLP197

CYOW;2009-04-14 08:00;CYOW 140800Z 02007KT 15SM SCT250 01/M10 A3009 RMK CI2 SLP193

CYOW;2009-04-14 09:00;CYOW 140900Z 03005KT 15SM SCT250 01/M10 A3011 RMK CI2 SLP201

CYOW;2009-04-14 10:00;CYOW 141000Z 03006KT 15SM BKN250 00/M10 A3013 RMK CI1 SLP206

CYOW;2009-04-14 11:00;CYOW 141100Z 03004KT 20SM BKN250 01/M10 A3014 RMK CI1 SLP211

CYOW;2009-04-14 12:00;CYOW 141200Z 03007KT 20SM SCT250 02/M09 A3014 RMK CI1 SLP211

CYOW;2009-04-14 13:00;CYOW 141300Z 05007KT 20SM SCT250 04/M09 A3013 RMK CI1 SLP208

CYOW;2009-04-14 14:00;CYOW 141400Z 05009KT 15SM FEW250 06/M09 A3012 RMK CI1 SLP205

CYOW;2009-04-14 15:00;CYOW 141500Z 10005KT 15SM FEW250 07/M08 A3012 RMK CI0 SLP204

CYOW;2009-04-14 16:00;CYOW 141600Z 06003KT 15SM SCT250 08/M09 A3012 RMK CI2 SLP203

CYOW;2009-04-14 17:00;CYOW 141700Z 09010KT 15SM SCT250 09/M09 A3010 RMK CI2 SLP197

CYOW;2009-04-14 18:00;CYOW 141800Z 08011G18KT 15SM SCT250 11/M09 A3008 RMK CI2 SLP189

CYOW;2009-04-14 19:00;CYOW 141900Z 04010KT 15SM SCT250 12/M09 A3007 RMK CI2 SLP186

CYOW;2009-04-14 20:00;CYOW 142000Z 05008KT 15SM BKN250 13/M09 A3005 RMK CI2 SLP182

CYOW;2009-04-14 21:00;CYOW 142100Z 06007KT 15SM BKN250 13/M10 A3005 RMK CI2 SLP181

CYOW;2009-04-14 22:00;CYOW 142200Z 06008KT 15SM BKN250 13/M10 A3005 RMK CI2 SLP180

CYOW;2009-04-14 23:00;CYOW 142300Z 12006KT 20SM BKN250 12/M09 A3006 RMK CI2 SLP183

CYOW;2009-04-15 00:00;CYOW 150000Z 08004KT 15SM BKN250 09/M08 A3007 RMK CI2 SLP186

CYOW;2009-04-15 01:00;CYOW 150100Z 10006KT 15SM SCT250 06/M07 A3009 RMK CI2 SLP193

CYOW;2009-04-15 02:00;CYOW 150200Z 09007KT 15SM FEW250 06/M07 A3010 RMK CI0 SLP198

CYOW;2009-04-15 03:00;CYOW 150300Z 07005KT 15SM SKC 05/M07 A3010 RMK SLP197

CYOW;2009-04-15 04:00;CYOW 150400Z 05007KT 15SM SKC 05/M08 A3010 RMK SLP198

CYOW;2009-04-15 05:00;CYOW 150500Z 05006KT 15SM SKC 04/M08 A3012 RMK SLP203

CYOW;2009-04-15 06:00;CYOW 150600Z 05007KT 15SM SKC 04/M08 A3012 RMK SLP203

CYOW;2009-04-15 07:00;CYOW 150700Z 04008KT 15SM SKC 04/M08 A3013 RMK SLP205

CYOW;2009-04-15 08:00;CYOW 150800Z 06010KT 15SM SKC 04/M09 A3014 RMK SLP208

CYOW;2009-04-15 09:00;CYOW 150900Z 05009KT 15SM SKC 03/M10 A3015 RMK SLP212

CYOW;2009-04-15 10:00;CYOW 151000Z 04008KT 15SM FEW220 02/M10 A3016 RMK CI1 SLP218

CYOW;2009-04-15 11:00;CYOW 151100Z 04008KT 15SM FEW240 03/M09 A3019 RMK CI0 SLP227

CYOW;2009-04-15 12:00;CYOW 151200Z 03008KT 15SM FEW240 04/M09 A3022 RMK CI1 SLP237

CYOW;2009-04-15 13:00;CYOW 151300Z 06009KT 15SM FEW240 07/M09 A3023 RMK CI1 SLP242

CYOW;2009-04-15 14:00;CYOW 151400Z 10009G16KT 15SM FEW240 09/M09 A3024 RMK CI1 SLP245

CYOW;2009-04-15 15:00;CYOW 151500Z 06013KT 15SM SKC 10/M09 A3024 RMK SLP245

CYOW;2009-04-15 16:00;CYOW 151600Z 05010G15KT 15SM SKC 11/M08 A3024 RMK SLP244

CYOW;2009-04-15 17:00;CYOW 151700Z 04013KT 15SM SKC 12/M09 A3022 RMK SLP239

CYOW;2009-04-15 18:00;CYOW 151800Z 01010KT 15SM SKC 13/M09 A3021 RMK SLP235

CYOW;2009-04-15 19:00;CYOW 151900Z 05010KT 15SM SKC 13/M08 A3020 RMK SLP231

CYOW;2009-04-15 20:00;CYOW 152000Z 04011KT 15SM SKC 14/M08 A3019 RMK SLP228

CYOW;2009-04-15 21:00;CYOW 152100Z 02007KT 15SM SKC 14/M08 A3019 RMK SLP226

CYOW;2009-04-15 22:00;CYOW 152200Z 04009KT 15SM FEW240 14/M09 A3019 RMK CI1 SLP228

CYOW;2009-04-15 23:00;CYOW 152300Z 05008KT 20SM FEW240 13/M09 A3020 RMK CI1 SLP230

CYOW;2009-04-16 00:00;CYOW 160000Z 03006KT 15SM FEW240 12/M10 A3022 RMK CI1 SLP237

CYOW;2009-04-16 01:00;CYOW 160100Z 36006KT 15SM FEW200 FEW240 09/M09 A3024 RMK CI1CI1 SLP243

CYOW;2009-04-16 02:00;CYOW 160200Z 01006KT 15SM SKC 09/M08 A3025 RMK SLP249

CYOW;2009-04-16 03:00;CYOW 160300Z 04006KT 15SM SKC 08/M08 A3028 RMK SLP256

CYOW;2009-04-16 04:00;CYOW 160400Z 05005KT 15SM SKC 07/M08 A3029 RMK SLP261

CYOW;2009-04-16 05:00;CYOW 160500Z 04006KT 15SM SKC 06/M08 A3031 RMK SLP266

CYOW;2009-04-16 06:00;CYOW 160600Z 04004KT 15SM SKC 05/M08 A3031 RMK SLP268

CYOW;2009-04-16 07:00;CYOW 160700Z 02005KT 15SM SKC 04/M08 A3032 RMK SLP271

CYOW;2009-04-16 08:00;CYOW 160800Z 36005KT 15SM SKC 03/M08 A3033 RMK SLP274

CYOW;2009-04-16 09:00;CYOW 160900Z 36005KT 15SM SKC 03/M08 A3034 RMK SLP276

CYOW;2009-04-16 09:06;CYOW 160906Z 36006KT 15SM SKC 02/

CYOW;2009-04-16 10:00;CYOW 161000Z 35007KT 15SM FEW200 01/M08 A3036 RMK CI1 SLP283

CYOW;2009-04-16 11:00;CYOW 161100Z 35008KT 15SM FEW250 01/M07 A3038 RMK CI1 SLP291

CYOW;2009-04-16 12:00;CYOW 161200Z 36008KT 15SM FEW250 05/M07 A3040 RMK CI1 SLP299

CYOW;2009-04-16 13:00;CYOW 161300Z 04006KT 15SM FEW250 07/M07 A3041 RMK CI1 SLP302

CYOW;2009-04-16 14:00;CYOW 161400Z 01005KT 15SM FEW250 09/M07 A3042 RMK CI1 SLP306

CYOW;2009-04-16 15:00;CYOW 161500Z 06007KT 15SM FEW250 11/M07 A3042 RMK CI1 SLP304

CYOW;2009-04-16 16:00;CYOW 161600Z 35004KT 15SM FEW250 12/M07 A3040 RMK CI1 SLP299

CYOW;2009-04-16 17:00;CYOW 161700Z 32006KT 15SM FEW250 13/M08 A3039 RMK CI1 SLP293

CYOW;2009-04-16 18:00;CYOW 161800Z 33003KT 15SM SCT250 13/M08 A3037 RMK CI1 SLP287

CYOW;2009-04-16 19:00;CYOW 161900Z 01003KT 15SM BKN250 15/M08 A3036 RMK CI1 SLP284

CYOW;2009-04-16 20:00;CYOW 162000Z 34008KT 15SM BKN250 15/M07 A3034 RMK CI1 SLP278

CYOW;2009-04-16 21:00;CYOW 162100Z 31009KT 15SM BKN250 15/M08 A3033 RMK CI1 SLP275

CYOW;2009-04-16 22:00;CYOW 162200Z 32007KT 15SM BKN250 15/M08 A3033 RMK CI1 SLP273

CYOW;2009-04-16 23:00;CYOW 162300Z 32006KT 20SM BKN250 14/M09 A3033 RMK CI1 SLP273

CYOW;2009-04-17 00:00;CYOW 170000Z 35007KT 15SM SCT250 11/M10 A3033 RMK CI1 SLP274

CYOW;2009-04-17 01:00;CYOW 170100Z 36004KT 15SM FEW240 11/M11 A3034 RMK CI0 SLP276

CYOW;2009-04-17 02:00;CYOW 170200Z 35004KT 15SM FEW240 10/M11 A3033 RMK CI0 SLP275

CYOW;2009-04-17 03:00;CYOW 170300Z 29003KT 15SM FEW240 09/M10 A3032 RMK CI0 SLP272

CYOW;2009-04-17 04:00;CYOW 170400Z 28004KT 15SM SKC 08/M10 A3031 RMK SLP269

CYOW;2009-04-17 05:00;CYOW 170500Z 27003KT 15SM SKC 07/M10 A3031 RMK SLP267

CYOW;2009-04-17 06:00;CYOW 170600Z 27002KT 15SM SKC 06/M09 A3029 RMK SLP262

CYOW;2009-04-17 07:00;CYOW 170700Z 30005KT 15SM FEW230 04/M08 A3028 RMK CI2 SLP259

CYOW;2009-04-17 08:00;CYOW 170800Z 23004KT 15SM FEW230 04/M07 A3027 RMK CI0 SLP255

CYOW;2009-04-17 09:00;CYOW 170900Z 24005KT 15SM SCT240 03/M07 A3026 RMK CI0 SLP252

CYOW;2009-04-17 10:00;CYOW 171000Z 26006KT 15SM FEW200 FEW240 04/M07 A3026 RMK CI1CI0 SLP250

CYOW;2009-04-17 11:00;CYOW 171100Z 23006KT 15SM FEW200 BKN250 03/M07 A3025 RMK CI1CI2 SLP247

CYOW;2009-04-17 12:00;CYOW 171200Z 26006KT 15SM FEW220 BKN250 07/M05 A3025 RMK CI1CI1 SLP246

CYOW;2009-04-17 13:00;CYOW 171300Z 26008KT 15SM FEW220 BKN250 10/M04 A3022 RMK CI1CI1 SLP238

CYOW;2009-04-17 14:00;CYOW 171400Z 27012G17KT 15SM FEW220 BKN250 14/M04 A3019 RMK CI1CI1 SLP229

CYOW;2009-04-17 15:00;CYOW 171500Z 28017KT 15SM FEW200 BKN250 14/M04 A3016 RMK CI1CI2 SLP216

CYOW;2009-04-17 16:00;CYOW 171600Z 27013G20KT 15SM SCT200 BKN250 17/M06 A3013 RMK CI3CI1 SLP205

CYOW;2009-04-17 17:00;CYOW 171700Z 28019G26KT 15SM FEW180 BKN230 19/M06 A3010 RMK AC2CI4 CS ASOCTD HALO SLP194

CYOW;2009-04-17 18:00;CYOW 171800Z 29015KT 15SM SCT180 OVC220 19/M05 A3008 RMK AC3CS2 HALO SLP189

CYOW;2009-04-17 19:00;CYOW 171900Z 28020G27KT 15SM BKN100 OVC210 20/M05 A3006 RMK AC5CS2 SLP182

CYOW;2009-04-17 20:00;CYOW 172000Z 29015KT 15SM BKN100 OVC180 19/M05 A3005 RMK AC5AS3 SLP177

CYOW;2009-04-17 21:00;CYOW 172100Z CCA 30017KT 15SM BKN090 OVC150 19/M05 A3004 RMK AC6AS2 SLP174

CYOW;2009-04-17 22:00;CYOW 172200Z 27012G17KT 15SM SCT090 BKN120 BKN250 19/M05 A3001 RMK AC3AS2CI1 SLP165

CYOW;2009-04-17 23:00;CYOW 172300Z 29013G20KT 15SM BKN095 BKN120 BKN210 18/M05 A3001 RMK AC5AS1CI1 SLP164

CYOW;2009-04-18 00:00;CYOW 180000Z 29009KT 15SM BKN100 BKN120 OVC210 17/M05 A3000 RMK AC6AS1CI1 SLP163

CYOW;2009-04-18 01:00;CYOW 180100Z 33009KT 15SM BKN095 16/M04 A3001 RMK AC7 SLP166

CYOW;2009-04-18 02:00;CYOW 180200Z 35010KT 15SM BKN110 14/M02 A3001 RMK AC7 SLP166

CYOW;2009-04-18 03:00;CYOW 180300Z 34007KT 15SM FEW090 BKN130 13/01 A3000 RMK AC2AC6 SLP162

CYOW;2009-04-18 04:00;CYOW 180400Z 36006KT 15SM SCT100 OVC130 12/01 A2999 RMK AC4AC4 SLP159

CYOW;2009-04-18 05:00;CYOW 180500Z 01004KT 15SM BKN090 OVC130 11/02 A2999 RMK AC6AC2 SLP157

CYOW;2009-04-18 06:00;CYOW 180600Z 04004KT 15SM OVC090 11/02 A2998 RMK AC8 SLP153

CYOW;2009-04-18 07:00;CYOW 180700Z 03004KT 15SM OVC080 11/02 A2996 RMK AC8 SLP149

CYOW;2009-04-18 07:49;CYOW 180749Z 03003KT 15SM -RA OVC065 10/ RMK SC8

CYOW;2009-04-18 08:00;CYOW 180800Z 02005KT 15SM -RA OVC065 10/03 A2997 RMK SC8 SLP151

CYOW;2009-04-18 09:00;CYOW 180900Z 04003KT 15SM -RA OVC065 10/03 A2997 RMK SC8 SLP150

CYOW;2009-04-18 10:00;CYOW 181000Z 02006KT 15SM -RA OVC060 09/04 A2997 RMK SC8 SLP152

CYOW;2009-04-18 10:22;CYOW 181022Z 02005KT 15SM OVC055 09/ RMK SC8

CYOW;2009-04-18 10:28;CYOW 181028Z 03005KT 12SM -RA OVC055 08/ RMK SC8

CYOW;2009-04-18 11:00;CYOW 181100Z 36005KT 12SM -RA OVC053 08/05 A2999 RMK SC8 SLP157

CYOW;2009-04-18 12:00;CYOW 181200Z 01006KT 15SM -RA OVC050 07/04 A2999 RMK SC8 SLP159

CYOW;2009-04-18 12:44;CYOW 181244Z 36008KT 15SM BKN044 OVC100 07/ RMK SC6AC2

CYOW;2009-04-18 13:00;CYOW 181300Z 36009KT 15SM FEW030 OVC044 07/04 A3001 RMK CU2SC6 SLP164

CYOW;2009-04-18 14:00;CYOW 181400Z 04008KT 15SM SCT020 BKN045 OVC086 08/04 A3001 RMK CU3SC2AC2 SLP165

CYOW;2009-04-18 15:00;CYOW 181500Z 02008KT 15SM OVC025 09/03 A3002 RMK SC8 SLP167

CYOW;2009-04-18 16:00;CYOW 181600Z 01004KT 15SM OVC032 09/02 A3003 RMK SC8 SLP171

CYOW;2009-04-18 17:00;CYOW 181700Z 29005KT 15SM OVC033 09/02 A3002 RMK SC8 SLP170

CYOW;2009-04-18 18:00;CYOW 181800Z 32007KT 15SM OVC040 10/02 A3002 RMK SC8 SLP167

CYOW;2009-04-18 19:00;CYOW 181900Z 31004KT 15SM OVC047 10/02 A3001 RMK SC8 SLP164

CYOW;2009-04-18 20:00;CYOW 182000Z 32007KT 15SM BKN042 OVC080 11/01 A3000 RMK SC5AS3 SLP162

CYOW;2009-04-18 21:00;CYOW 182100Z 34010KT 15SM SCT040 OVC090 10/M00 A2999 RMK SC3AS5 SLP159

CYOW;2009-04-18 22:00;CYOW 182200Z 32008KT 15SM FEW040 OVC088 10/M01 A3001 RMK SC2AS6 SLP164

CYOW;2009-04-18 23:00;CYOW 182300Z 32009KT 15SM FEW050 BKN092 09/M01 A3000 RMK SC2AC6 SLP163

CYOW;2009-04-19 00:00;CYOW 190000Z 36008KT 15SM FEW050 BKN095 09/M01 A3002 RMK SC1AC6 SLP168

CYOW;2009-04-19 01:00;CYOW 190100Z 33010KT 15SM BKN095 08/M02 A3004 RMK AC7 SLP176

CYOW;2009-04-19 02:00;CYOW 190200Z 33009KT 15SM BKN110 06/M02 A3005 RMK AC6 SLP181

CYOW;2009-04-19 03:00;CYOW 190300Z 34008KT 15SM SCT110 05/M03 A3006 RMK AC4 SLP184

CYOW;2009-04-19 04:00;CYOW 190400Z 36008KT 15SM FEW110 04/M03 A3008 RMK AC1 SLP188

CYOW;2009-04-19 05:00;CYOW 190500Z 02008KT 15SM SKC 04/M06 A3010 RMK SLP197

CYOW;2009-04-19 06:00;CYOW 190600Z 01009KT 15SM SKC 04/M10 A3011 RMK SLP201

CYOW;2009-04-19 07:00;CYOW 190700Z 02010KT 15SM SKC 03/M13 A3012 RMK SLP203

CYOW;2009-04-19 07:41;CYOW 190741Z 03007KT 15SM SKC 02/

CYOW;2009-04-19 08:00;CYOW 190800Z 01009KT 15SM SKC 02/M13 A3014 RMK SLP209

CYOW;2009-04-19 09:00;CYOW 190900Z 01008KT 15SM SKC M00/M13 A3016 RMK SLP217

CYOW;2009-04-19 10:00;CYOW 191000Z 01006KT 15SM SKC M00/M13 A3018 RMK SLP224

CYOW;2009-04-19 11:00;CYOW 191100Z 01007KT 15SM SKC 01/M12 A3020 RMK SLP231

CYOW;2009-04-19 12:00;CYOW 191200Z 02009KT 20SM SKC 02/M13 A3021 RMK SLP235

CYOW;2009-04-19 13:00;CYOW 191300Z 02008KT 20SM SKC 04/M12 A3022 RMK SLP238

CYOW;2009-04-19 14:00;CYOW 191400Z 04004KT 20SM FEW240 06/M12 A3023 RMK CI1 SLP240

CYOW;2009-04-19 15:00;CYOW 191500Z 03005KT 20SM FEW240 07/M13 A3023 RMK CI1 SLP240

CYOW;2009-04-19 16:00;CYOW 191600Z 03006KT 20SM FEW240 09/M13 A3022 RMK CI1 SLP238

CYOW;2009-04-19 17:00;CYOW 191700Z 35004KT 20SM FEW240 09/M13 A3021 RMK CI1 SLP235

CYOW;2009-04-19 18:00;CYOW 191800Z 36003KT 20SM FEW240 11/M12 A3021 RMK CI2 SLP233

CYOW;2009-04-19 19:00;CYOW 191900Z 06007KT 20SM SCT240 12/M10 A3019 RMK CI2 SLP228

CYOW;2009-04-19 20:00;CYOW 192000Z 06005KT 20SM BKN240 13/M08 A3017 RMK CI2 SLP221

CYOW;2009-04-19 21:00;CYOW 192100Z CCA 04011KT 15SM BKN240 13/M08 A3016 RMK CI2 SLP217

CYOW;2009-04-19 22:00;CYOW 192200Z 08003KT 15SM SCT240 12/M07 A3015 RMK CI1 SLP215

CYOW;2009-04-19 23:00;CYOW 192300Z 08006KT 15SM SCT240 12/M07 A3015 RMK CI1 SLP214

CYOW;2009-04-20 00:00;CYOW 200000Z 09004KT 15SM FEW240 10/M07 A3016 RMK CI1 SLP217

CYOW;2009-04-20 01:00;CYOW 200100Z 11006KT 15SM FEW240 06/M07 A3017 RMK CI1 SLP222

CYOW;2009-04-20 02:00;CYOW 200200Z 10006KT 15SM FEW240 05/M06 A3018 RMK CI1 SLP224

CYOW;2009-04-20 03:00;CYOW 200300Z 09006KT 15SM FEW240 05/M06 A3018 RMK CI1 SLP223

CYOW;2009-04-20 04:00;CYOW 200400Z 08008KT 15SM SKC 04/M06 A3017 RMK SLP221

CYOW;2009-04-20 05:00;CYOW 200500Z 07007KT 15SM SKC 03/M06 A3017 RMK SLP221

CYOW;2009-04-20 06:00;CYOW 200600Z 07009KT 15SM SKC 03/M06 A3015 RMK SLP215

CYOW;2009-04-20 07:00;CYOW 200700Z 07010KT 15SM SKC 03/M06 A3014 RMK SLP212

CYOW;2009-04-20 08:00;CYOW 200800Z 07013KT 15SM SKC 03/M08 A3013 RMK SLP207

CYOW;2009-04-20 09:00;CYOW 200900Z 07013KT 15SM SKC 03/M10 A3012 RMK SLP203

CYOW;2009-04-20 10:00;CYOW 201000Z 07014KT 15SM SCT240 02/M09 A3011 RMK CC1 SLP200

CYOW;2009-04-20 11:00;CYOW 201100Z 09009KT 15SM BKN240 02/M09 A3012 RMK CI2 SLP204

CYOW;2009-04-20 12:00;CYOW 201200Z 09013KT 15SM BKN270 04/M07 A3012 RMK CI5 SLP203

CYOW;2009-04-20 13:00;CYOW 201300Z 09012KT 15SM BKN270 06/M06 A3012 RMK CI5 SLP202

CYOW;2009-04-20 14:00;CYOW 201400Z 08012KT 15SM BKN270 09/M04 A3011 RMK CI6 SLP199

CYOW;2009-04-20 15:00;CYOW 201500Z 11013KT 15SM BKN270 11/M03 A3010 RMK CI6 SLP195

CYOW;2009-04-20 16:00;CYOW 201600Z 11016KT 15SM BKN270 13/M03 A3006 RMK CS3 HALO SLP184

CYOW;2009-04-20 17:00;CYOW 201700Z 11016KT 15SM OVC180 14/M03 A3005 RMK AS8 SLP179

CYOW;2009-04-20 18:00;CYOW 201800Z 11016KT 15SM OVC160 14/M03 A3002 RMK AS8 SLP168

CYOW;2009-04-20 19:00;CYOW 201900Z 11015G21KT 15SM OVC140 15/M04 A2999 RMK AS8 SLP158

CYOW;2009-04-20 20:00;CYOW 202000Z 09018G24KT 15SM OVC130 14/M05 A2997 RMK AS8 SLP152

CYOW;2009-04-20 21:00;CYOW 202100Z 10017G24KT 15SM BKN070 OVC130 14/M06 A2996 RMK AC5AS3 SLP149

CYOW;2009-04-20 22:00;CYOW 202200Z 17010G17KT 15SM OVC060 09/00 A2998 RMK SC8 VIRGA SLP155

CYOW;2009-04-20 22:20;CYOW 202220Z 15009KT 12SM -RA OVC057 08/ RMK SC8 VRY LGT RA

CYOW;2009-04-20 23:00;CYOW 202300Z 12010G15KT 10SM -RA FEW038 OVC050 07/03 A2996 RMK SC1SC8 SLP150

CYOW;2009-04-21 00:00;CYOW 210000Z 10011G16KT 10SM -RA OVC050 06/03 A2994 RMK SC8 SLP144

CYOW;2009-04-21 01:00;CYOW 210100Z 09012G17KT 8SM -RA SCT040 OVC050 06/03 A2994 RMK SC3SC5 SLP142

CYOW;2009-04-21 02:00;CYOW 210200Z 09011KT 8SM -RA OVC036 05/04 A2994 RMK SC8 SLP142

CYOW;2009-04-21 03:00;CYOW 210300Z 09013KT 12SM FEW010 OVC034 05/03 A2991 RMK SF1SC8 SLP133

CYOW;2009-04-21 03:50;CYOW 210350Z 08011G17KT 10SM -RA OVC033 05/ RMK SC8

CYOW;2009-04-21 04:00;CYOW 210400Z 09012KT 10SM -RA FEW010 OVC030 05/03 A2990 RMK SF1SC8 SLP129

CYOW;2009-04-21 05:00;CYOW 210500Z 09013KT 10SM -RA FEW018 OVC030 04/03 A2990 RMK SF1SC8 SLP129

CYOW;2009-04-21 06:00;CYOW 210600Z 08014KT 10SM -RA FEW007 OVC030 04/02 A2988 RMK SF1SC8 SLP120

CYOW;2009-04-21 07:00;CYOW 210700Z 08015KT 10SM -RA FEW006 OVC028 03/02 A2985 RMK SF2SC6 SLP112

CYOW;2009-04-21 08:00;CYOW 210800Z 08013KT 10SM -RA SCT004 OVC032 03/02 A2984 RMK SF3SC5 SLP107

CYOW;2009-04-21 09:00;CYOW 210900Z 09012KT 10SM -RA OVC006 03/02 A2983 RMK ST8 SLP105

CYOW;2009-04-21 10:00;CYOW 211000Z 08015KT 8SM -RA SCT006 OVC028 04/02 A2981 RMK SF3SC5 SLP099

CYOW;2009-04-21 10:10;CYOW 211010Z 08012G17KT 3SM -RA BR FEW005 OVC024 04/ RMK SF2SC6

CYOW;2009-04-21 11:00;CYOW 211100Z 09014KT 5SM -RA BR OVC006 04/03 A2980 RMK SF8 SLP096

CYOW;2009-04-21 12:00;CYOW 211200Z 09013G18KT 4SM -RA BR OVC005 04/03 A2980 RMK SF8 SLP095

CYOW;2009-04-21 13:00;CYOW 211300Z 09014KT 4SM -RA BR OVC005 04/03 A2979 RMK SF8 SLP094

CYOW;2009-04-21 14:00;CYOW 211400Z 09012KT 4SM -RA BR OVC005 05/04 A2978 RMK SF8 SLP089

CYOW;2009-04-21 15:00;CYOW 211500Z 09013KT 4SM -RA BR OVC006 05/04 A2976 RMK SF8 SLP083

CYOW;2009-04-21 16:00;CYOW 211600Z 10011KT 8SM -RA OVC006 06/05 A2976 RMK SF8 SLP080

CYOW;2009-04-21 17:00;CYOW 211700Z 09010G15KT 8SM -RA OVC004 06/05 A2974 RMK SF8 SLP074

CYOW;2009-04-21 17:32;CYOW 211732Z 09012KT 7SM -RA OVC004 07/ RMK SF8

CYOW;2009-04-21 18:00;CYOW 211800Z 09011KT 8SM BKN006 OVC025 08/06 A2972 RMK SF7SC1 SLP068

CYOW;2009-04-21 19:00;CYOW 211900Z 09010KT 8SM BKN007 OVC025 07/06 A2972 RMK SF7SC1 SLP067

CYOW;2009-04-21 20:00;CYOW 212000Z 09006KT 10SM BKN007 OVC025 08/06 A2970 RMK SF7SC1 SLP060

CYOW;2009-04-21 21:00;CYOW 212100Z 09008KT 10SM OVC008 08/06 A2969 RMK SF8 SLP058

CYOW;2009-04-21 22:00;CYOW 212200Z 07007KT 10SM OVC008 08/06 A2968 RMK ST8 SLP056

CYOW;2009-04-21 23:00;CYOW 212300Z 06006KT 10SM OVC006 08/07 A2968 RMK SC8 SLP054

CYOW;2009-04-22 00:00;CYOW 220000Z 06006KT 8SM OVC005 08/06 A2967 RMK SC8 SLP051

CYOW;2009-04-22 00:31;CYOW 220031Z 07008KT 8SM OVC004 07/ RMK SC8

CYOW;2009-04-22 01:00;CYOW 220100Z 07012KT 6SM BR OVC004 07/06 A2965 RMK ST8 SLP046

CYOW;2009-04-22 02:00;CYOW 220200Z 07012KT 4SM BR OVC003 07/06 A2962 RMK ST8 PRESFR SLP034

CYOW;2009-04-22 03:00;CYOW 220300Z 09009KT 4SM -RA BR OVC002 07/06 A2961 RMK ST8 SLP029

CYOW;2009-04-22 03:20;CYOW 220320Z 08007KT 2 1/2SM -RA BR OVC003 07/ RMK ST8

CYOW;2009-04-22 03:52;CYOW 220352Z 24004KT 2 1/2SM RA BR FEW004 OVC028 07/ RMK SF2SC6

CYOW;2009-04-22 04:00;CYOW 220400Z 25002KT 2 1/2SM RA BR FEW003 OVC030 07/07 A2962 RMK SF2SC6 SLP033

CYOW;2009-04-22 04:38;CYOW 220438Z CCA 36005KT 4SM -RA BR FEW002 SCT050 OVC100 07/ RERA RMK SC2SC2AC4

CYOW;2009-04-22 05:00;CYOW 220500Z 33003KT 4SM BR FEW002 SCT009 OVC017 06/06 A2959 RERA RMK SC2SC2SC5 SLP024

CYOW;2009-04-22 05:13;CYOW 220513Z 36002KT 5SM BR FEW002 BKN009 OVC015 07/ RMK SF1SC5SC2

CYOW;2009-04-22 05:47;CYOW 220547Z 00000KT 7SM -RA FEW002 OVC006 07/ RMK SF1SC7

CYOW;2009-04-22 06:00;CYOW 220600Z 00000KT 7SM -RA FEW002 OVC006 07/07 A2957 RMK SF1SC7 SLP017

CYOW;2009-04-22 06:35;CYOW 220635Z 25003KT 1 1/2SM -RA BR OVC005 07/ RMK FG2ST6

CYOW;2009-04-22 06:50;CYOW 220650Z 30002KT 1SM R07/4000VP6000FT/U R32/4500VP6000FT/D -RA BR VV002 07/ RMK FG8

CYOW;2009-04-22 07:00;CYOW 220700Z 36002KT 1 1/4SM -RA BR OVC035 06/06 A2956 RMK FG2SC6 SLP013

CYOW;2009-04-22 07:18;CYOW 220718Z 00000KT 3/4SM R07/3000VP6000FT/D R32/2600FT/N -RA BR VV002 06/ RMK FG8

CYOW;2009-04-22 07:39;CYOW 220739Z 22004KT 1/2SM R07/2400FT/D R32/2400FT/N -RA FG VV001 06/ RMK FG8

CYOW;2009-04-22 08:00;CYOW 220800Z 22004KT 1 1/4SM R07/5500FT/U R32/4000VP6000FT/U -RA BR VV002 06/06 A2957 RMK FG8 SLP018

CYOW;2009-04-22 08:19;CYOW 220819Z 21004KT 3SM -RA BR OVC002 06/ RMK ST8

CYOW;2009-04-22 08:46;CYOW 220846Z 21005KT 3SM BR BKN003 OVC045 06/ RMK SC6SC2

CYOW;2009-04-22 09:00;CYOW 220900Z 21004KT 3SM BR OVC003 06/06 A2957 RMK SC8 SLP017

CYOW;2009-04-22 09:18;CYOW 220918Z 20004KT 4SM BR FEW002 BKN033 BKN065 06/ RMK SF1SC6SC2

CYOW;2009-04-22 09:38;CYOW 220938Z 19003KT 4SM BR SCT002 OVC009 06/ RMK SC3SC5

CYOW;2009-04-22 10:00;CYOW 221000Z 20002KT 4SM BR BKN003 OVC009 06/06 A2957 RMK SC6SC2 SLP018

CYOW;2009-04-22 11:00;CYOW 221100Z 20004KT 6SM BR BKN007 OVC038 07/06 A2960 RMK SC5SC3 SLP028

CYOW;2009-04-22 11:29;CYOW 221129Z 21005KT 10SM FEW009 BKN047 07/ RMK SF2SC5

CYOW;2009-04-22 12:00;CYOW 221200Z 20006KT 15SM SCT050 07/06 A2962 RMK SC3 SLP032

CYOW;2009-04-22 13:00;CYOW 221300Z 20010KT 15SM BKN064 08/05 A2962 RMK SC6 SLP035

CYOW;2009-04-22 14:00;CYOW 221400Z 22013KT 15SM FEW025 SCT060 09/04 A2964 RMK CU1SC3 SLP039

CYOW;2009-04-22 15:00;CYOW 221500Z 22013KT 15SM FEW025 BKN044 10/03 A2965 RMK CU1SC5 SLP042

CYOW;2009-04-22 16:00;CYOW 221600Z 20015KT 15SM FEW025 BKN045 10/02 A2964 RMK CU2SC5 SLP041

CYOW;2009-04-22 17:00;CYOW 221700Z 21013KT 15SM FEW025 BKN044 11/01 A2964 RMK CU2SC5 SLP041

CYOW;2009-04-22 18:00;CYOW 221800Z 19012KT 15SM FEW025 BKN044 10/02 A2964 RMK CU2SC6 SLP041

CYOW;2009-04-22 19:00;CYOW 221900Z 21009G16KT 15SM FEW025 BKN045 11/01 A2963 RMK CU2SC4 SLP038

CYOW;2009-04-22 20:00;CYOW 222000Z 21013KT 15SM FEW025 BKN043 10/00 A2963 RMK CU2SC6 SLP037

CYOW;2009-04-22 21:00;CYOW 222100Z 21013KT 15SM FEW025 BKN045 10/M00 A2963 RMK CU2SC3 VRY DARK W QUAD SLP037

CYOW;2009-04-22 22:00;CYOW 222200Z 21008KT 15SM FEW025 SCT045 BKN075 09/00 A2963 RMK CU1SC3AC3 SLP037

CYOW;2009-04-22 23:00;CYOW 222300Z 23006KT 15SM FEW040 FEW060 BKN071 BKN087 BKN250 09/01 A2963 RMK CF1SC1AC4AC2CI1 TCU ASOCTD SHRA DIST N SLP037

CYOW;2009-04-22 23:26;CYOW 222326Z 24011KT 15SM -SHRA BKN036 BKN060 BKN090 BKN250 07/ RMK SC5SC1AC1CI1 TCU EMBD

CYOW;2009-04-23 00:00;CYOW 230000Z 25006KT 15SM FEW040 BKN056 BKN090 OVC250 07/03 A2964 RMK SC2SC3AC2CI1 SLP039

CYOW;2009-04-23 01:00;CYOW 230100Z 25003KT 15SM BKN092 06/02 A2964 RMK AC6 SLP039

CYOW;2009-04-23 02:00;CYOW 230200Z 26005KT 15SM FEW032 BKN044 06/02 A2963 RMK SC2SC2 SLP038

CYOW;2009-04-23 03:00;CYOW 230300Z 25006KT 15SM FEW030 FEW045 BKN096 05/02 A2962 RMK SC1SC2AC3 SLP035

CYOW;2009-04-23 04:00;CYOW 230400Z 26005KT 15SM FEW030 BKN050 05/03 A2962 RMK SC1SC6 SLP035

CYOW;2009-04-23 05:00;CYOW 230500Z 27006KT 15SM FEW040 SCT060 BKN098 05/02 A2962 RMK SC1SC3AC2 SLP034

CYOW;2009-04-23 06:00;CYOW 230600Z 29008KT 15SM FEW040 SCT070 BKN100 05/03 A2962 RMK SC1AC2AC3 SLP032

CYOW;2009-04-23 06:47;CYOW 230647Z 29010KT 15SM FEW008 SCT060 OVC110 05/ RMK SC2SC2AC5

CYOW;2009-04-23 07:00;CYOW 230700Z 30009KT 15SM FEW008 SCT060 OVC110 05/03 A2962 RMK SC1SC2AC5 SLP032

CYOW;2009-04-23 08:00;CYOW 230800Z 29008KT 15SM -RA FEW008 SCT030 OVC110 05/03 A2962 RMK SC2SC2AC4 SLP034

CYOW;2009-04-23 09:00;CYOW 230900Z 29011KT 10SM -RA FEW007 OVC019 05/04 A2963 RMK SC2SC6 SLP037

CYOW;2009-04-23 10:00;CYOW 231000Z 29009KT 15SM -RA SCT007 OVC017 05/04 A2965 RMK SC4SC4 SLP042

CYOW;2009-04-23 11:00;CYOW 231100Z 29012KT 15SM -RA FEW010 OVC020 05/03 A2968 RMK SC2SC6 SLP052

CYOW;2009-04-23 12:00;CYOW 231200Z 29014G20KT 15SM -RA SCT012 OVC020 05/03 A2971 RMK SC3SC5 SLP064

CYOW;2009-04-23 13:00;CYOW 231300Z 30016KT 15SM -RA FEW014 BKN020 OVC070 06/03 A2974 RMK SC2SC6AC1 SLP074

CYOW;2009-04-23 13:05;CYOW 231305Z 30017KT 15SM FEW014 BKN022 OVC070 06/ RMK SC2SC6AC1

CYOW;2009-04-23 14:00;CYOW 231400Z 30017KT 15SM FEW023 BKN028 06/03 A2977 RMK SC2SC4 SLP085

CYOW;2009-04-23 15:00;CYOW 231500Z 29016KT 15SM BKN024 06/02 A2981 RMK SC7 SLP097

CYOW;2009-04-23 16:00;CYOW 231600Z 28018G24KT 15SM BKN030 08/02 A2983 RMK SC7 SLP105

CYOW;2009-04-23 17:00;CYOW 231700Z 28018G24KT 15SM BKN035 BKN250 09/02 A2984 RMK CU6CI0 SLP109

CYOW;2009-04-23 18:00;CYOW 231800Z 29016G24KT 15SM BKN039 BKN250 10/01 A2986 RMK CU5CI0 SLP114

CYOW;2009-04-23 19:00;CYOW 231900Z 30019G25KT 15SM SCT044 12/01 A2986 RMK CU4 SLP116

CYOW;2009-04-23 20:00;CYOW 232000Z 27020KT 15SM FEW050 11/01 A2988 RMK CU2 SLP123

CYOW;2009-04-23 21:00;CYOW 232100Z 28016G24KT 15SM FEW050 12/01 A2991 RMK CU2 SLP131

CYOW;2009-04-23 22:00;CYOW 232200Z 29019G27KT 15SM FEW052 11/M01 A2994 RMK CU2 SLP143

CYOW;2009-04-23 23:00;CYOW 232300Z 30014KT 20SM FEW053 10/M01 A2997 RMK SC2 CU ASOCTD SLP151

CYOW;2009-04-24 00:00;CYOW 240000Z 30008KT 20SM FEW047 08/M01 A2999 RMK SC1 SLP158

CYOW;2009-04-24 01:00;CYOW 240100Z 25006KT 15SM SKC 08/M01 A3001 RMK SLP165

CYOW;2009-04-24 02:00;CYOW 240200Z 26006KT 15SM SKC 06/M01 A3003 RMK SLP172

CYOW;2009-04-24 03:00;CYOW 240300Z 27007KT 15SM SKC 06/M01 A3004 RMK SLP177

CYOW;2009-04-24 04:00;CYOW 240400Z 25004KT 15SM SKC 06/M01 A3006 RMK SLP183

CYOW;2009-04-24 05:00;CYOW 240500Z 26005KT 15SM SKC 05/M01 A3007 RMK SLP187

CYOW;2009-04-24 06:00;CYOW 240600Z 28004KT 15SM SKC 04/M01 A3008 RMK SLP191

CYOW;2009-04-24 07:00;CYOW 240700Z 27004KT 15SM SKC 04/M01 A3009 RMK SLP194

CYOW;2009-04-24 08:00;CYOW 240800Z 27003KT 15SM SKC 03/M01 A3010 RMK SLP197

CYOW;2009-04-24 08:44;CYOW 240844Z 17002KT 15SM SKC 02/

CYOW;2009-04-24 09:00;CYOW 240900Z 00000KT 15SM SKC 00/M03 A3012 RMK SLP203

CYOW;2009-04-24 10:00;CYOW 241000Z 19003KT 15SM FEW240 02/M01 A3015 RMK CI1 SLP213

CYOW;2009-04-24 11:00;CYOW 241100Z 20006KT 15SM FEW240 02/M01 A3016 RMK CI2 SLP217

CYOW;2009-04-24 12:00;CYOW 241200Z CCA 19003KT 15SM FEW150 SCT240 04/M01 A3017 RMK AC2CI1 SLP221

CYOW;2009-04-24 13:00;CYOW 241300Z 21004KT 15SM BKN110 BKN240 07/01 A3015 RMK AC5CI0 SLP214

CYOW;2009-04-24 14:00;CYOW 241400Z 16007KT 15SM SCT110 09/01 A3016 RMK AC4 SLP219

CYOW;2009-04-24 15:00;CYOW 241500Z 21008KT 15SM SCT240 11/02 A3015 RMK CI1 SLP213

CYOW;2009-04-24 16:00;CYOW 241600Z 19005KT 15SM FEW240 14/04 A3014 RMK CI1 SLP210

CYOW;2009-04-24 17:00;CYOW 241700Z 18012KT 15SM FEW110 FEW240 15/02 A3012 RMK AC2CI0 SLP203

CYOW;2009-04-24 18:00;CYOW 241800Z 16004KT 15SM BKN110 BKN240 16/02 A3009 RMK AC5CI0 SLP194

CYOW;2009-04-24 19:00;CYOW 241900Z 20009KT 15SM FEW120 FEW240 18/01 A3007 RMK AC2CI0 SLP187

CYOW;2009-04-24 20:00;CYOW 242000Z 16008KT 15SM FEW120 SCT240 20/01 A3004 RMK AC2CI0 SLP175

CYOW;2009-04-24 21:00;CYOW 242100Z 16007KT 15SM FEW120 20/01 A3002 RMK AC1 SLP167

CYOW;2009-04-24 22:00;CYOW 242200Z 16008KT 15SM FEW120 FEW240 21/01 A2999 RMK AC2CI0 SLP160

CYOW;2009-04-24 23:00;CYOW 242300Z 17003KT 15SM FEW140 FEW240 20/00 A2999 RMK AC2CI0 SLP158

CYOW;2009-04-25 00:00;CYOW 250000Z 13002KT 15SM BKN089 18/01 A2999 RMK AC5 VIRGA E SLP160

CYOW;2009-04-25 01:00;CYOW 250100Z 12005KT 15SM FEW120 FEW240 14/02 A2999 RMK AC1CI0 SLP157

CYOW;2009-04-25 02:00;CYOW 250200Z 14007KT 15SM BKN080 16/03 A2998 RMK AC6 SLP155

CYOW;2009-04-25 03:00;CYOW 250300Z 16005KT 15SM BKN072 17/04 A2997 RMK AC6 SLP150

CYOW;2009-04-25 03:30;CYOW 250330Z 17006KT 12SM -RA OVC110 19/ RMK AC8

CYOW;2009-04-25 04:00;CYOW 250400Z 18005KT 15SM BKN085 BKN100 18/04 A2996 RMK AC5AC2 SLP148

CYOW;2009-04-25 05:00;CYOW 250500Z 14003KT 15SM OVC070 17/05 A2995 RMK AC8 SLP144

CYOW;2009-04-25 06:00;CYOW 250600Z 17004KT 15SM BKN090 16/06 A2994 RMK AC5 SLP138

CYOW;2009-04-25 07:00;CYOW 250700Z 19008KT 15SM FEW240 16/08 A2994 RMK CI1 SLP139

CYOW;2009-04-25 08:00;CYOW 250800Z 20005KT 15SM SKC 15/08 A2995 RMK SLP142

CYOW;2009-04-25 09:00;CYOW 250900Z 22005KT 15SM FEW110 15/08 A2995 RMK AC1 SLP143

CYOW;2009-04-25 10:00;CYOW 251000Z 22007KT 15SM FEW110 FEW240 15/08 A2995 RMK AC1CI1 SLP144

CYOW;2009-04-25 11:00;CYOW 251100Z 20006KT 15SM FEW110 SCT240 15/08 A2996 RMK AC1CI1 SLP146

CYOW;2009-04-25 12:00;CYOW 251200Z 20008KT 15SM FEW120 SCT240 17/09 A2996 RMK AC2CI1 ACC ASOCTD SLP147

CYOW;2009-04-25 13:00;CYOW 251300Z 21007KT 15SM FEW120 SCT240 20/09 A2995 RMK AC2CI0 ACC ASOCTD SLP143

CYOW;2009-04-25 14:00;CYOW 251400Z 22013G19KT 15SM FEW160 BKN240 22/10 A2996 RMK AC2CI1 SLP148

CYOW;2009-04-25 15:00;CYOW 251500Z 22011G18KT 15SM FEW120 FEW160 BKN240 24/10 A2996 RMK ACC2AC1CI1 SLP146

CYOW;2009-04-25 16:00;CYOW 251600Z 22012KT 15SM SCT120 BKN160 BKN240 25/11 A2996 RMK ACC3AC2CI1 SLP147

CYOW;2009-04-25 17:00;CYOW 251700Z 22009KT 15SM BKN120 BKN160 25/11 A2997 RMK AC5AS2 ACC ASOCTD LWR LYR SLP148

CYOW;2009-04-25 18:00;CYOW 251800Z 22008G17KT 15SM -SHRA BKN100 OVC160 25/11 A2994 RMK AC6AS2 ACC ASOCTD LWR LYR SLP140

CYOW;2009-04-25 18:10;CYOW 251810Z 20012KT 15SM SCT100 BKN160 25/ RMK AC3AS4 SH SE

CYOW;2009-04-25 19:00;CYOW 251900Z 20015G23KT 15SM FEW120 SCT160 BKN240 25/12 A2992 RMK AC2AC2CI0 SLP132

CYOW;2009-04-25 20:00;CYOW 252000Z 21014G25KT 15SM FEW120 BKN240 26/12 A2992 RMK AC1CI2 SLP133

CYOW;2009-04-25 21:00;CYOW 252100Z 21017KT 15SM FEW120 BKN240 26/13 A2990 RMK AC2CI2 SLP125

CYOW;2009-04-25 22:00;CYOW 252200Z 22013G26KT 15SM BKN130 OVC240 26/13 A2990 RMK AC5CI2 SLP124

CYOW;2009-04-25 23:00;CYOW 252300Z 21013G19KT 15SM SCT130 BKN240 25/14 A2990 RMK AC4CI3 SLP126

CYOW;2009-04-25 23:28;CYOW 252328Z 26021G31KT 10SM -SHRA BKN055 BKN090 OVC240 24/ RMK SC5AC2CI2 DIST OCNL LTNG W VIS NW-SW 8

CYOW;2009-04-26 00:00;CYOW 260000Z 28016G21KT 10SM -SHRA FEW055 BKN120 OVC140 18/15 A2999 RMK SC2AC3AC3 DIST OCNL LTNG N SLP156

CYOW;2009-04-26 01:00;CYOW 260100Z 28005KT 10SM -RA SCT080 OVC110 17/15 A2999 RMK AC4AC4 SLP155

CYOW;2009-04-26 02:00;CYOW 260200Z 21006KT 12SM BKN110 17/15 A3001 RMK AC7 SLP164

CYOW;2009-04-26 03:00;CYOW 260300Z 23009KT 15SM FEW190 16/15 A3002 RMK AC1 SLP168

CYOW;2009-04-26 04:00;CYOW 260400Z 24008KT 15SM OVC094 17/15 A3005 RMK AC8 SLP175

CYOW;2009-04-26 05:00;CYOW 260500Z 29012G17KT 15SM BKN013 OVC020 17/15 A3006 RMK SC5SC3 SLP181

CYOW;2009-04-26 06:00;CYOW 260600Z 33014KT 15SM OVC015 12/09 A3013 RMK SC8 SLP203

CYOW;2009-04-26 07:00;CYOW 260700Z 33015KT 15SM OVC027 09/06 A3017 RMK SC8 SLP217

CYOW;2009-04-26 08:00;CYOW 260800Z 35013KT 15SM FEW013 OVC035 08/05 A3021 RMK SF1SC8 SLP231

CYOW;2009-04-26 09:00;CYOW 260900Z 34014G19KT 15SM FEW020 OVC042 08/03 A3025 RMK CF1SC8 SLP245

CYOW;2009-04-26 10:00;CYOW 261000Z 01011KT 15SM FEW020 OVC048 07/03 A3027 RMK SF1SC8 SLP251

CYOW;2009-04-26 11:00;CYOW 261100Z 02012KT 15SM BKN052 07/00 A3031 RMK SC6 SLP264

CYOW;2009-04-26 12:00;CYOW 261200Z 02010G15KT 15SM BKN056 07/M01 A3034 RMK SC6 SLP278

CYOW;2009-04-26 13:00;CYOW 261300Z 03010KT 15SM BKN058 OVC180 07/M03 A3038 RMK SC6AS2 SLP290

CYOW;2009-04-26 14:00;CYOW 261400Z 03012KT 15SM OVC055 08/M02 A3036 RMK SC8 SLP284

CYOW;2009-04-26 15:00;CYOW 261500Z 03008KT 15SM BKN070 10/M01 A3039 RMK AC6 SLP292

CYOW;2009-04-26 16:00;CYOW 261600Z 08006KT 15SM OVC077 10/M00 A3040 RMK AC8 SLP297

CYOW;2009-04-26 17:00;CYOW 261700Z 04006KT 15SM OVC061 10/M01 A3039 RMK SC8 SLP295

CYOW;2009-04-26 18:00;CYOW 261800Z 05004KT 15SM OVC055 11/M01 A3038 RMK SC8 SLP290

CYOW;2009-04-26 19:00;CYOW 261900Z 09008KT 15SM OVC051 12/M02 A3037 RMK SC8 SLP287

CYOW;2009-04-26 20:00;CYOW 262000Z 07010KT 15SM OVC049 12/M02 A3035 RMK SC8 SLP280

CYOW;2009-04-26 21:00;CYOW 262100Z 07008KT 15SM -RA OVC047 11/M02 A3035 RMK SC8 SLP280

CYOW;2009-04-26 22:00;CYOW 262200Z 06005KT 15SM -RA OVC044 11/M02 A3034 RMK SC8 SLP278

CYOW;2009-04-26 23:00;CYOW 262300Z 06007KT 15SM -RA BKN042 BKN120 11/M00 A3033 RMK SC6AC1 SLP274

CYOW;2009-04-26 23:33;CYOW 262333Z 06005KT 15SM BKN042 11/ RMK SC7

CYOW;2009-04-27 00:00;CYOW 270000Z 06005KT 15SM BKN042 11/M02 A3034 RMK SC7 SLP276

CYOW;2009-04-27 01:00;CYOW 270100Z 05003KT 15SM OVC038 11/M01 A3035 RMK SC8 SLP282

CYOW;2009-04-27 02:00;CYOW 270200Z 07005KT 15SM OVC036 11/M02 A3035 RMK SC8 SLP280

CYOW;2009-04-27 03:00;CYOW 270300Z 08008KT 15SM BKN040 OVC100 10/M04 A3032 RMK SC6AC2 SLP271

CYOW;2009-04-27 04:00;CYOW 270400Z 06006KT 15SM SCT040 BKN095 OVC130 10/M04 A3030 RMK SC3AC2AC3 SLP263

CYOW;2009-04-27 05:00;CYOW 270500Z 06007KT 15SM OVC110 10/M03 A3028 RMK AC8 SLP257

CYOW;2009-04-27 06:00;CYOW 270600Z 10003KT 15SM OVC120 09/M02 A3028 RMK AC8 SLP256

CYOW;2009-04-27 07:00;CYOW 270700Z 07004KT 15SM BKN130 09/M02 A3026 RMK AC7 SLP249

CYOW;2009-04-27 08:00;CYOW 270800Z 06004KT 15SM SCT090 OVC130 09/M02 A3025 RMK AC4AC4 ACC ASOCTD LWR LYR SLP247

CYOW;2009-04-27 09:00;CYOW 270900Z 06004KT 15SM BKN090 OVC120 09/M01 A3025 RMK AC7AC1 ACC ASOCTD LWR LYR SLP246

CYOW;2009-04-27 10:00;CYOW 271000Z 07006KT 15SM FEW090 BKN150 08/M01 A3024 RMK ACC2AC2 SLP244

CYOW;2009-04-27 11:00;CYOW 271100Z 08007KT 15SM FEW150 09/00 A3023 RMK AC1 TR AC SLP240

CYOW;2009-04-27 12:00;CYOW 271200Z 09007KT 15SM SKC 10/01 A3023 RMK SLP240

CYOW;2009-04-27 13:00;CYOW 271300Z 12007KT 15SM SKC 12/03 A3022 RMK SLP235

CYOW;2009-04-27 14:00;CYOW 271400Z 12006KT 15SM SKC 15/06 A3020 RMK SLP230

CYOW;2009-04-27 15:00;CYOW 271500Z 17008KT 15SM FEW240 20/09 A3018 RMK CI0 SLP221

CYOW;2009-04-27 16:00;CYOW 271600Z 20010KT 15SM FEW240 22/11 A3016 RMK CI1 SLP217

CYOW;2009-04-27 17:00;CYOW 271700Z 20010KT 15SM SKC 27/12 A3013 RMK SLP205

CYOW;2009-04-27 18:00;CYOW 271800Z 21011G18KT 15SM FEW240 28/12 A3008 RMK CI1 SLP188

CYOW;2009-04-27 19:00;CYOW 271900Z 22015G21KT 15SM FEW050 FEW250 30/13 A3007 RMK CF1CI1 CLDS TR SLP183

CYOW;2009-04-27 20:00;CYOW 272000Z 23016G26KT 15SM FEW050 FEW250 30/12 A3004 RMK CF1CI1 SLP174

CYOW;2009-04-27 21:00;CYOW 272100Z 21017G26KT 15SM FEW050 FEW200 FEW250 30/11 A3002 RMK CF1CC1CI0 SLP167

CYOW;2009-04-27 22:00;CYOW 272200Z 23023G33KT 15SM FEW055 FEW200 BKN250 28/08 A3003 RMK CU1CC2CI1 SLP169

CYOW;2009-04-27 23:00;CYOW 272300Z 23022G29KT 15SM FEW200 BKN270 27/10 A3002 RMK CI1CI1 SLP167

CYOW;2009-04-28 00:00;CYOW 280000Z 23013G18KT 15SM FEW200 BKN270 26/10 A3003 RMK CI1CI1 SLP170

CYOW;2009-04-28 01:00;CYOW 280100Z 23010KT 15SM FEW200 BKN270 25/10 A3004 RMK CI1CI1 SLP172

CYOW;2009-04-28 02:00;CYOW 280200Z 22007KT 15SM FEW210 BKN270 23/10 A3004 RMK CI2CI1 SLP172

CYOW;2009-04-28 03:00;CYOW 280300Z 20008KT 15SM FEW210 BKN250 21/11 A3003 RMK CI2CI1 SLP169

CYOW;2009-04-28 04:00;CYOW 280400Z 21008KT 15SM FEW095 BKN230 20/11 A3003 RMK AC1CI2 SLP169

CYOW;2009-04-28 05:00;CYOW 280500Z 19005KT 15SM FEW095 BKN230 19/11 A3003 RMK AC1CI2 SLP169

CYOW;2009-04-28 06:00;CYOW 280600Z 23006KT 15SM FEW095 SCT130 BKN230 18/11 A3005 RMK AC1AC2CI2 SLP175

CYOW;2009-04-28 07:00;CYOW 280700Z 18005KT 15SM BKN130 BKN220 17/11 A3004 RMK AC5CI2 SLP171

CYOW;2009-04-28 08:00;CYOW 280800Z 19005KT 15SM BKN120 17/11 A3004 RMK AC7 SLP171

CYOW;2009-04-28 09:00;CYOW 280900Z 18005KT 15SM BKN120 BKN190 15/11 A3004 RMK AC6AS1 SLP173

CYOW;2009-04-28 10:00;CYOW 281000Z 20004KT 15SM SCT120 BKN190 BKN230 15/11 A3005 RMK AC4AS2CI1 SLP174

CYOW;2009-04-28 11:00;CYOW 281100Z 19004KT 15SM FEW100 BKN150 BKN190 16/12 A3004 RMK AC2AC5AC1 SLP172

CYOW;2009-04-28 12:00;CYOW 281200Z 19003KT 15SM OVC076 16/12 A3005 RMK AC8 SLP178

CYOW;2009-04-28 12:16;CYOW 281216Z 19004KT 12SM -RA BKN057 OVC070 16/ RMK SC6AC2

CYOW;2009-04-28 13:00;CYOW 281300Z 23006KT 5SM -RA BR OVC046 15/14 A3007 RMK SC8 SLP182

CYOW;2009-04-28 14:00;CYOW 281400Z 24008KT 6SM -RA BR OVC041 16/15 A3006 RMK SC8 SLP180

CYOW;2009-04-28 15:00;CYOW 281500Z 30016G21KT 8SM -RA OVC045 13/12 A3011 RMK SC8 SLP198

CYOW;2009-04-28 16:00;CYOW 281600Z 31015KT 12SM -RA BKN045 OVC060 13/11 A3014 RMK SC5SC3 SLP208

CYOW;2009-04-28 17:00;CYOW 281700Z 34016KT 12SM -RA BKN023 OVC040 11/08 A3018 RMK SC5SC3 SLP222

CYOW;2009-04-28 18:00;CYOW 281800Z CCA 34016G22KT 12SM -RA BKN024 OVC040 09/06 A3024 RMK SC5SC3 PRESRR SLP242

CYOW;2009-04-28 18:49;CYOW 281849Z 34018G24KT 15SM SCT040 BKN180 10/ RMK SC3AC4

CYOW;2009-04-28 19:00;CYOW 281900Z CCA 34019KT 15SM BKN031 BKN180 10/05 A3028 RMK SC5AC2 SLP256

CYOW;2009-04-28 20:00;CYOW 282000Z 34013G19KT 15SM SCT034 BKN180 11/03 A3030 RMK SC3AC4 SLP262

CYOW;2009-04-28 21:00;CYOW 282100Z 34014G19KT 15SM FEW180 BKN210 11/01 A3034 RMK AC2CI5 SLP275

CYOW;2009-04-28 22:00;CYOW 282200Z 34011G16KT 15SM FEW180 BKN210 11/00 A3036 RMK AC2CI5 SLP283

CYOW;2009-04-28 23:00;CYOW 282300Z 34014KT 15SM BKN240 11/M01 A3039 RMK CS3 SLP294

CYOW;2009-04-29 00:00;CYOW 290000Z 35010G15KT 15SM BKN250 10/M01 A3042 RMK CI2 SLP303

CYOW;2009-04-29 01:00;CYOW 290100Z 34004KT 15SM FEW250 07/M01 A3044 RMK CI1 SLP310

CYOW;2009-04-29 02:00;CYOW 290200Z 35009G15KT 15SM SKC 08/M04 A3048 RMK SLP323

CYOW;2009-04-29 03:00;CYOW 290300Z 35007KT 15SM SKC 07/M04 A3050 RMK SLP332

CYOW;2009-04-29 04:00;CYOW 290400Z 33006KT 15SM SKC 05/M04 A3051 RMK SLP335

CYOW;2009-04-29 05:00;CYOW 290500Z 33006KT 15SM SKC 03/M04 A3052 RMK SLP339

CYOW;2009-04-29 06:00;CYOW 290600Z 31004KT 15SM SKC 03/M05 A3053 RMK SLP343

CYOW;2009-04-29 07:00;CYOW 290700Z 33006KT 15SM SKC 02/M05 A3054 RMK SLP345

CYOW;2009-04-29 08:00;CYOW 290800Z 36006KT 15SM SKC 03/M05 A3054 RMK SLP347

CYOW;2009-04-29 09:00;CYOW 290900Z 01005KT 15SM SKC 03/M05 A3056 RMK SLP353

CYOW;2009-04-29 09:36;CYOW 290936Z 36003KT 15SM BKN250 02/ RMK CI2

CYOW;2009-04-29 10:00;CYOW 291000Z 36003KT 15SM BKN250 02/M05 A3058 RMK CI2 SLP359

CYOW;2009-04-29 11:00;CYOW 291100Z 36004KT 15SM SCT250 04/M05 A3059 RMK CI0 SLP365

CYOW;2009-04-29 12:00;CYOW 291200Z 01008KT 15SM FEW250 05/M05 A3061 RMK CI0 SLP370

CYOW;2009-04-29 13:00;CYOW 291300Z 03008KT 15SM FEW250 06/M05 A3062 RMK CI1 SLP375

CYOW;2009-04-29 14:00;CYOW 291400Z 01005KT 15SM FEW250 08/M05 A3062 RMK CI0 SLP372

CYOW;2009-04-29 15:00;CYOW 291500Z 35005KT 15SM SKC 09/M06 A3060 RMK SLP365

CYOW;2009-04-29 16:00;CYOW 291600Z 00000KT 15SM SKC 11/M06 A3058 RMK SLP358

CYOW;2009-04-29 17:00;CYOW 291700Z 25005KT 15SM SKC 12/M05 A3055 RMK SLP349

CYOW;2009-04-29 18:00;CYOW 291800Z 34004KT 15SM SKC 13/M05 A3052 RMK SLP338

CYOW;2009-04-29 19:00;CYOW 291900Z 29004KT 15SM SKC 14/M04 A3049 RMK SLP328

CYOW;2009-04-29 20:00;CYOW 292000Z 25006KT 15SM FEW240 15/M04 A3048 RMK CI1 SLP324

CYOW;2009-04-29 21:00;CYOW 292100Z 30008KT 15SM FEW240 15/M03 A3046 RMK CI0 SLP318

CYOW;2009-04-29 22:00;CYOW 292200Z 30010KT 15SM SKC 14/M04 A3045 RMK SLP315

CYOW;2009-04-29 23:00;CYOW 292300Z 28006KT 15SM SKC 14/M04 A3045 RMK SLP315

CYOW;2009-04-30 00:00;CYOW 300000Z 26005KT 15SM FEW240 12/M03 A3043 RMK CI1 SLP309

CYOW;2009-04-30 01:00;CYOW 300100Z 24004KT 15SM SKC 12/M04 A3043 RMK SLP307

CYOW;2009-04-30 02:00;CYOW 300200Z 21002KT 15SM SKC 11/M04 A3042 RMK SLP306

CYOW;2009-04-30 03:00;CYOW 300300Z 21004KT 15SM SKC 09/M04 A3041 RMK SLP301

CYOW;2009-04-30 04:00;CYOW 300400Z 19004KT 15SM SKC 08/M03 A3040 RMK SLP297

CYOW;2009-04-30 05:00;CYOW 300500Z 19004KT 15SM SKC 08/M03 A3039 RMK SLP295

CYOW;2009-04-30 06:00;CYOW 300600Z 21004KT 15SM SKC 07/M02 A3038 RMK SLP292

CYOW;2009-04-30 07:00;CYOW 300700Z 22002KT 15SM SKC 07/M02 A3038 RMK SLP290

CYOW;2009-04-30 08:00;CYOW 300800Z 00000KT 15SM SKC 05/M02 A3036 RMK SLP286

CYOW;2009-04-30 09:00;CYOW 300900Z 06004KT 15SM FEW240 05/M02 A3035 RMK CI1 SLP282

CYOW;2009-04-30 10:00;CYOW 301000Z 11005KT 15SM FEW200 BKN240 02/M03 A3036 RMK CI2CI0 SLP283

CYOW;2009-04-30 11:00;CYOW 301100Z 09005KT 15SM FEW100 SCT180 BKN220 06/00 A3036 RMK AC2AC2CI1 SLP283

CYOW;2009-04-30 12:00;CYOW 301200Z 11007KT 15SM FEW100 BKN170 BKN220 09/M01 A3035 RMK AC2AC3CI1 SLP281

CYOW;2009-04-30 13:00;CYOW 301300Z 08006KT 15SM FEW100 SCT140 BKN220 11/00 A3032 RMK AC1AC3CI0 SLP272

CYOW;2009-04-30 14:00;CYOW 301400Z 09009KT 15SM BKN130 13/00 A3030 RMK AC6 SLP263

CYOW;2009-04-30 15:00;CYOW 301500Z 11010G15KT 15SM BKN130 15/M00 A3027 RMK AC6 SLP252

CYOW;2009-04-30 16:00;CYOW 301600Z 09009KT 15SM BKN130 17/01 A3022 RMK AC6 SLP237

CYOW;2009-04-30 17:00;CYOW 301700Z 14009G15KT 15SM FEW080 BKN130 18/01 A3019 RMK AC2AC5 SLP226

CYOW;2009-04-30 18:00;CYOW 301800Z 11009KT 15SM FEW080 BKN120 20/04 A3013 RMK AC2AC4 PRESFR SLP206

CYOW;2009-04-30 19:00;CYOW 301900Z 16011KT 15SM BKN067 BKN080 20/02 A3009 RMK AC5AC2 SLP193

CYOW;2009-04-30 20:00;CYOW 302000Z 17012G18KT 15SM BKN070 BKN080 20/03 A3007 RMK AC5AC2 SLP184

CYOW;2009-04-30 21:00;CYOW 302100Z 19013G19KT 15SM BKN054 BKN080 19/03 A3003 RMK SC6AC1 SLP172

CYOW;2009-04-30 22:00;CYOW 302200Z 18008G15KT 15SM BKN058 BKN120 18/03 A3000 RMK SC5AS2 SLP162

CYOW;2009-04-30 23:00;CYOW 302300Z 16008KT 15SM FEW050 OVC130 17/03 A2997 RMK SC2AS6 SLP151

CYOW;2009-05-01 01:00;CYOW 010100Z 17012KT 15SM OVC048 16/04 A2992 RMK SC8 SLP134

CYOW;2009-05-01 01:52;CYOW 010152Z 18012KT 15SM -RA FEW050 OVC090 15/ RMK SC2AS6

CYOW;2009-05-01 02:00;CYOW 010200Z 19011G16KT 15SM -RA SCT037 OVC090 14/04 A2990 RMK SC4AS4 SLP126

CYOW;2009-05-01 03:00;CYOW 010300Z 16009KT 8SM -RA OVC025 10/08 A2984 RMK SC8 PRESFR SLP108

CYOW;2009-05-01 03:50;CYOW 010350Z 17009KT 8SM -RA FEW008 BKN012 OVC020 10/ RMK SF1SC5SC3

CYOW;2009-05-01 04:00;CYOW 010400Z 17009G15KT 8SM -RA FEW008 OVC012 10/09 A2977 RMK SF1SC7 PRESFR SLP085

CYOW;2009-05-01 04:46;CYOW 010446Z 18009KT 4SM -RA BR OVC009 10/ RMK SC8 CIG VRB 7-11

CYOW;2009-05-01 05:00;CYOW 010500Z 17009KT 4SM -RA BR OVC009 10/09 A2970 RMK SC8 CIG VRB 7-11 PRESFR SLP061

CYOW;2009-05-01 06:00;CYOW 010600Z 18011G17KT 4SM -RA BR OVC008 11/10 A2964 RMK SC8 CIG VRB 6-10 /R12/ SLP037

CYOW;2009-05-01 06:52;CYOW 010652Z 20015G21KT 7SM -RA FEW006 OVC013 12/ RMK SC1SC7 CIG VRB 10-16

CYOW;2009-05-01 07:00;CYOW 010700Z 20014G21KT 7SM -RA OVC012 12/11 A2958 RMK SC8 CIG VRB 9-15 SLP018

CYOW;2009-05-01 08:00;CYOW 010800Z 21016G25KT 8SM -RA OVC013 14/12 A2955 RMK SC8 CIG VRB 10-16 SLP007

CYOW;2009-05-01 09:00;CYOW 010900Z 22020G26KT 10SM -RA OVC012 14/12 A2954 RMK SC8 CIG VRB 9-15 SLP005

CYOW;2009-05-01 09:20;CYOW 010920Z 22014G20KT 10SM SCT008 OVC012 14/ RMK SC3SC5

CYOW;2009-05-01 10:00;CYOW 011000Z 22016KT 10SM SCT008 OVC013 14/12 A2956 RMK SF3SC5 SLP009

CYOW;2009-05-01 11:00;CYOW 011100Z 22012G19KT 8SM SCT006 OVC013 14/12 A2959 RMK SF3SC5 SLP019

CYOW;2009-05-01 11:51;CYOW 011151Z 23010KT 12SM SCT015 OVC039 15/ RMK SC3SC5

CYOW;2009-05-01 12:00;CYOW 011200Z 23010G16KT 15SM FEW015 BKN041 15/13 A2961 RMK SC2SC5 SLP028

CYOW;2009-05-01 13:00;CYOW 011300Z 33011G17KT 15SM FEW015 BKN039 BKN180 17/14 A2961 RMK SF1SC5AS2 SLP028

CYOW;2009-05-01 14:00;CYOW 011400Z 24015G20KT 15SM SCT020 BKN040 BKN160 18/14 A2962 RMK SC3SC3AC1 SLP030

CYOW;2009-05-01 15:00;CYOW 011500Z 24017G25KT 15SM FEW020 BKN035 BKN060 18/13 A2963 RMK SC2SC3SC2 SLP036

CYOW;2009-05-01 16:00;CYOW 011600Z 23016G21KT 15SM FEW020 BKN035 BKN060 18/12 A2964 RMK SC1SC5SC2 SLP037

CYOW;2009-05-01 17:00;CYOW 011700Z 23015G21KT 15SM FEW020 BKN040 19/12 A2962 RMK SC2SC4 SLP031

CYOW;2009-05-01 18:00;CYOW 011800Z CCA 23016G22KT 15SM SCT035 21/12 A2959 RMK CU3 TCU EMBD SLP023

CYOW;2009-05-01 19:00;CYOW 011900Z 25021G28KT 15SM SCT035 22/09 A2960 RMK CU3 TCU EMBD SLP024

CYOW;2009-05-01 20:00;CYOW 012000Z 25017G28KT 15SM FEW060 20/07 A2962 RMK CF1 SLP031

CYOW;2009-05-01 21:00;CYOW 012100Z 26020G26KT 15SM FEW060 SCT170 19/05 A2964 RMK CF1AC2 SLP038

CYOW;2009-05-01 22:00;CYOW 012200Z 27019G25KT 15SM FEW035 BKN170 17/04 A2966 RMK SC2AC3 SLP045

CYOW;2009-05-01 23:00;CYOW 012300Z 28015KT 15SM FEW035 BKN120 BKN240 16/03 A2968 RMK SC2AC3CC1 SLP051

CYOW;2009-05-02 00:00;CYOW 020000Z 27011G20KT 15SM FEW035 BKN100 OVC110 15/03 A2970 RMK SC1AC5AC2 SLP058

CYOW;2009-05-02 01:00;CYOW 020100Z 26007KT 15SM BKN058 OVC100 14/03 A2969 RMK SC5AC3 SLP056

CYOW;2009-05-02 02:00;CYOW 020200Z 28011KT 15SM BKN090 OVC110 13/02 A2971 RMK AC5AC3 SLP061

CYOW;2009-05-02 03:00;CYOW 020300Z 27015KT 15SM FEW100 OVC110 12/01 A2972 RMK AC2AC6 SLP065

CYOW;2009-05-02 04:00;CYOW 020400Z 31020KT 15SM SCT032 OVC068 10/04 A2975 RMK SC3AC5 SLP074

CYOW;2009-05-02 04:50;CYOW 020450Z 30012G17KT 15SM -SHRA FEW020 OVC045 07/ RMK SC2SC6

CYOW;2009-05-02 05:00;CYOW 020500Z 30015KT 15SM -SHRA FEW020 OVC051 08/04 A2979 RMK SC2SC6 SLP090

CYOW;2009-05-02 05:45;CYOW 020545Z 31012G32KT 15SM OVC023 06/ RMK SC8

CYOW;2009-05-02 06:00;CYOW 020600Z 32011G18KT 15SM FEW020 BKN036 06/00 A2983 RMK SC2SC5 PRESRR SLP103

CYOW;2009-05-02 07:00;CYOW 020700Z 31011KT 15SM FEW020 04/M01 A2984 RMK SC1 SLP107

CYOW;2009-05-02 08:00;CYOW 020800Z 30008KT 15SM SKC 03/M01 A2986 RMK SLP113

CYOW;2009-05-02 09:00;CYOW 020900Z 27005KT 15SM SKC 03/M01 A2988 RMK SLP119

CYOW;2009-05-02 10:00;CYOW 021000Z 27006KT 15SM FEW020 02/M01 A2988 RMK SC1 SLP122

CYOW;2009-05-02 11:00;CYOW 021100Z 24004KT 15SM FEW240 03/00 A2988 RMK CI1 SLP122

CYOW;2009-05-02 12:00;CYOW 021200Z 24006KT 15SM FEW010 FEW240 05/01 A2989 RMK CF1CI1 TR CUFRA SLP126

CYOW;2009-05-02 13:00;CYOW 021300Z 21008KT 15SM FEW020 SCT240 07/01 A2988 RMK CU2CI2 SLP123

CYOW;2009-05-02 14:00;CYOW 021400Z 26016KT 15SM SCT030 SCT240 09/M01 A2988 RMK CU3CI1 SLP122

CYOW;2009-05-02 15:00;CYOW 021500Z 27014KT 15SM FEW040 SCT240 11/M02 A2988 RMK CU2CI1 SLP120

CYOW;2009-05-02 16:00;CYOW 021600Z 30018KT 15SM FEW050 FEW240 12/M02 A2987 RMK CU2CI0 SLP116

CYOW;2009-05-02 17:00;CYOW 021700Z 31012G22KT 15SM FEW060 FEW240 12/M02 A2985 RMK CU2CI0 SLP112

CYOW;2009-05-02 18:00;CYOW 021800Z 28007G18KT 15SM FEW063 13/M02 A2982 RMK CU2 SLP102

CYOW;2009-05-02 19:00;CYOW 021900Z 23011G17KT 15SM BKN068 13/M02 A2981 RMK CU5 SLP098

CYOW;2009-05-02 20:00;CYOW 022000Z 19013G21KT 15SM BKN072 14/M00 A2979 RMK CU6 VIRGA SLP092

CYOW;2009-05-02 20:13;CYOW 022013Z 25017G22KT 6SM -SHRA BKN060 12/ RMK CU7

CYOW;2009-05-02 21:00;CYOW 022100Z 23012G21KT 15SM BKN080 BKN240 13/02 A2980 RMK CU6CI1 OCNL -SHRA SLP094

CYOW;2009-05-02 22:00;CYOW 022200Z 24013G19KT 15SM FEW060 BKN083 BKN240 12/02 A2981 RMK SC1AC5CI1 VIRGA SLP098

CYOW;2009-05-02 22:47;CYOW 022247Z 23014G20KT 15SM -SHRA FEW060TCU BKN075 BKN095 12/ RMK TCU2AC2AC2

CYOW;2009-05-02 23:00;CYOW 022300Z 25021G26KT 15SM -SHRA FEW060TCU BKN075 BKN095 11/03 A2984 RMK TCU2AC2AC2 SLP107

CYOW;2009-05-02 23:41;CYOW 022341Z 21008KT 15SM FEW045 SCT060TCU SCT095 BKN120 09/ RMK SC2TCU2AC1AC2 SHS DIST E

CYOW;2009-05-03 00:00;CYOW 030000Z 21008KT 15SM FEW045 SCT095 BKN120 09/05 A2981 RMK SC2AC2AC2 SLP099

CYOW;2009-05-03 01:00;CYOW 030100Z 22009KT 15SM BKN110 09/04 A2982 RMK AC5 SLP103

CYOW;2009-05-03 02:00;CYOW 030200Z 21007KT 15SM SCT110 09/04 A2983 RMK AC4 SLP105

CYOW;2009-05-03 03:00;CYOW 030300Z 22009KT 15SM FEW110 09/03 A2983 RMK AC2 SLP105

CYOW;2009-05-03 04:00;CYOW 030400Z 23009KT 15SM SCT110 09/03 A2985 RMK AC4 SLP109

CYOW;2009-05-03 05:00;CYOW 030500Z 23007KT 15SM BKN120 09/03 A2986 RMK AC6 SLP114

CYOW;2009-05-03 06:00;CYOW 030600Z 23007KT 15SM BKN110 09/03 A2986 RMK AC6 SLP115

CYOW;2009-05-03 07:00;CYOW 030700Z 23005KT 15SM BKN110 07/03 A2988 RMK AC5 SLP120

CYOW;2009-05-03 08:00;CYOW 030800Z 27004KT 15SM SCT110 07/02 A2989 RMK AC3 SLP123

CYOW;2009-05-03 09:00;CYOW 030900Z 20003KT 15SM FEW110 06/02 A2990 RMK AC2 SLP129

CYOW;2009-05-03 10:00;CYOW 031000Z 18002KT 15SM SCT110 06/02 A2991 RMK AC4 SLP131

CYOW;2009-05-03 11:00;CYOW 031100Z 27004KT 15SM SCT110 06/02 A2993 RMK AC3 SLP139

CYOW;2009-05-03 12:00;CYOW 031200Z 28009KT 15SM FEW100 SCT120 09/02 A2994 RMK AC1AC2 SLP142

CYOW;2009-05-03 13:00;CYOW 031300Z 28006KT 15SM FEW100 SCT120 10/01 A2995 RMK AC1AC2 SLP145

CYOW;2009-05-03 14:00;CYOW 031400Z 29010KT 15SM FEW085 SCT120 12/01 A2995 RMK AC1AC2 SLP145

CYOW;2009-05-03 15:00;CYOW 031500Z CCA 26010G15KT 15SM BKN089 BKN120 13/M01 A2995 RMK AC5AC0 SLP146

CYOW;2009-05-03 16:00;CYOW 031600Z 26008G15KT 15SM FEW050 SCT090 15/M00 A2994 RMK CU2AC2 SLP140

CYOW;2009-05-03 17:00;CYOW 031700Z 23013G22KT 15SM FEW050 BKN080 BKN120 16/M00 A2990 RMK CU2AC3AC1 SLP127

CYOW;2009-05-03 18:00;CYOW 031800Z 22012G20KT 15SM FEW050 BKN085 BKN120 17/M00 A2987 RMK CU2AC3AC2 SLP116

CYOW;2009-05-03 19:00;CYOW 031900Z 22010G18KT 15SM FEW050 BKN080 17/M01 A2985 RMK CU2AC5 SLP110

CYOW;2009-05-03 20:00;CYOW 032000Z 21015KT 15SM FEW050 BKN090 18/M00 A2983 RMK CU2AC5 SLP103

CYOW;2009-05-03 21:00;CYOW 032100Z 22016G21KT 15SM FEW050 BKN090 18/M00 A2982 RMK CU2AC5 SLP100

CYOW;2009-05-03 22:00;CYOW 032200Z 22012G18KT 15SM FEW050 BKN090 17/00 A2982 RMK CU1AC6 SLP099

CYOW;2009-05-03 23:00;CYOW 032300Z 22011KT 15SM FEW065 BKN095 17/01 A2982 RMK CU2AC5 SLP100

CYOW;2009-05-04 00:00;CYOW 040000Z 21008KT 15SM FEW070 BKN095 BKN250 16/01 A2984 RMK CU1AC5CI1 SLP107

CYOW;2009-05-04 01:00;CYOW 040100Z 21006KT 15SM BKN095 BKN250 14/02 A2986 RMK AC5CI1 SLP114

CYOW;2009-05-04 02:00;CYOW 040200Z 20008KT 15SM SCT095 BKN250 13/02 A2988 RMK AC3CI1 SLP120

CYOW;2009-05-04 03:00;CYOW 040300Z 20007KT 15SM FEW110 BKN250 13/02 A2988 RMK AC2CI1 SLP121

CYOW;2009-05-04 04:00;CYOW 040400Z 23008KT 15SM BKN100 13/02 A2989 RMK AC6 SLP124

CYOW;2009-05-04 05:00;CYOW 040500Z 24008KT 15SM BKN100 12/02 A2990 RMK AC7 SLP128

CYOW;2009-05-04 06:00;CYOW 040600Z 26007KT 15SM BKN095 10/02 A2992 RMK AC6 SLP133

CYOW;2009-05-04 07:00;CYOW 040700Z 25004KT 15SM SCT095 09/01 A2993 RMK AC3 SLP137

CYOW;2009-05-04 08:00;CYOW 040800Z 25005KT 15SM SKC 08/01 A2995 RMK SLP144

CYOW;2009-05-04 09:00;CYOW 040900Z 25006KT 15SM FEW250 08/M01 A2996 RMK CI1 SLP149

CYOW;2009-05-04 10:00;CYOW 041000Z 28006KT 15SM FEW100 FEW250 06/M01 A2999 RMK AC1CI0 SLP158

CYOW;2009-05-04 11:00;CYOW 041100Z 29008KT 15SM FEW240 08/M01 A3002 RMK CI1 SLP168

CYOW;2009-05-04 12:00;CYOW 041200Z 31007KT 15SM FEW240 10/00 A3006 RMK CI1 SLP181

CYOW;2009-05-04 13:00;CYOW 041300Z 32006KT 15SM SKC 12/01 A3009 RMK SLP191

CYOW;2009-05-04 14:00;CYOW 041400Z CCA 36006KT 15SM FEW030 13/01 A3009 RMK CU1 SLP193

CYOW;2009-05-04 15:00;CYOW 041500Z 31003KT 15SM FEW040 BKN240 14/M01 A3011 RMK CU1CI1 SLP197

CYOW;2009-05-04 16:00;CYOW 041600Z 00000KT 15SM FEW050 BKN240 15/M00 A3012 RMK CU1CI1 SLP201

CYOW;2009-05-04 17:00;CYOW 041700Z 33003KT 15SM BKN250 16/M01 A3011 RMK CI1 SLP200

CYOW;2009-05-04 18:00;CYOW 041800Z 30002KT 15SM BKN250 16/M03 A3011 RMK CI1 SLP198

CYOW;2009-05-04 19:00;CYOW 041900Z 30007KT 15SM BKN250 17/M02 A3011 RMK CI1 SLP199

CYOW;2009-05-04 20:00;CYOW 042000Z 01004KT 15SM FEW150 BKN250 17/M02 A3010 RMK AC1CI1 SLP196

CYOW;2009-05-04 21:00;CYOW 042100Z 30004KT 15SM FEW150 SCT250 17/M04 A3010 RMK AC1CI1 SLP194

CYOW;2009-05-04 22:00;CYOW 042200Z 35003KT 15SM FEW150 BKN250 18/M02 A3011 RMK AC1CI1 SLP198

CYOW;2009-05-04 23:00;CYOW 042300Z 03006KT 15SM FEW150 BKN250 17/M02 A3012 RMK AC2CI0 SLP203

CYOW;2009-05-05 00:00;CYOW 050000Z 04006KT 15SM FEW150 BKN250 16/M03 A3014 RMK AC1CI2 SLP208

CYOW;2009-05-05 01:00;CYOW 050100Z 02004KT 15SM BKN250 14/M04 A3016 RMK CI1 SLP215

CYOW;2009-05-05 02:00;CYOW 050200Z 04005KT 15SM SCT250 13/M03 A3017 RMK CI0 SLP219

CYOW;2009-05-05 03:00;CYOW 050300Z 06006KT 15SM FEW250 12/M03 A3018 RMK CI0 SLP221

CYOW;2009-05-05 04:00;CYOW 050400Z 06006KT 15SM SKC 11/M03 A3018 RMK SLP223

CYOW;2009-05-05 05:00;CYOW 050500Z 04005KT 15SM SKC 11/M04 A3019 RMK SLP227

CYOW;2009-05-05 06:00;CYOW 050600Z 05006KT 15SM SKC 10/M04 A3019 RMK SLP226

CYOW;2009-05-05 07:00;CYOW 050700Z 06009KT 15SM SKC 09/M04 A3020 RMK SLP229

CYOW;2009-05-05 08:00;CYOW 050800Z 06007KT 15SM SKC 08/M04 A3023 RMK SLP238

CYOW;2009-05-05 09:00;CYOW 050900Z 06011KT 15SM SKC 08/M04 A3023 RMK SLP239

CYOW;2009-05-05 10:00;CYOW 051000Z 07011KT 15SM FEW250 07/M04 A3023 RMK CI1 SLP240

CYOW;2009-05-05 11:00;CYOW 051100Z 06011KT 15SM FEW250 09/M05 A3023 RMK CI0 SLP240

CYOW;2009-05-05 12:00;CYOW 051200Z 07012KT 15SM SCT250 11/M03 A3024 RMK CI0 SLP241

CYOW;2009-05-05 13:00;CYOW 051300Z 07012G17KT 15SM BKN220 12/M03 A3024 RMK CI2 SLP241

CYOW;2009-05-05 14:00;CYOW 051400Z 07010G15KT 15SM FEW150 BKN220 15/M01 A3023 RMK AC1CI1 SLP240

CYOW;2009-05-05 15:00;CYOW 051500Z 08012G17KT 15SM FEW150 BKN220 17/M01 A3023 RMK AC2CI1 SLP240

CYOW;2009-05-05 16:00;CYOW 051600Z 09013G19KT 15SM SCT150 BKN200 18/00 A3022 RMK AC3CI2 SLP236

CYOW;2009-05-05 17:00;CYOW 051700Z 10012KT 15SM SCT150 BKN200 18/00 A3019 RMK AC4CI2 SLP227

CYOW;2009-05-05 18:00;CYOW 051800Z 05011KT 15SM SCT150 BKN200 18/00 A3016 RMK AC4CI2 SLP216

CYOW;2009-05-05 19:00;CYOW 051900Z 05009KT 15SM SCT150 BKN220 19/03 A3014 RMK AC3CI2 SLP209

CYOW;2009-05-05 20:00;CYOW 052000Z 08012KT 15SM SCT140 BKN200 19/02 A3011 RMK AC3CI2 SLP199

CYOW;2009-05-05 21:00;CYOW 052100Z 07009KT 15SM SCT140 BKN200 19/03 A3011 RMK AC3CI2 SLP197

CYOW;2009-05-05 22:00;CYOW 052200Z 08012KT 15SM BKN150 BKN200 19/03 A3008 RMK AC5CI2 SLP188

CYOW;2009-05-05 23:00;CYOW 052300Z 07008KT 15SM SCT085 BKN140 OVC200 18/03 A3008 RMK AC3AC3CI1 SLP187

CYOW;2009-05-06 00:00;CYOW 060000Z 12011G19KT 15SM BKN085 BKN140 OVC200 18/05 A3007 RMK AC6AC1CI1 SLP184

CYOW;2009-05-06 00:33;CYOW 060033Z 13008G15KT 15SM -SHRA FEW073 BKN090 OVC140 16/ RMK AC2AC6AC1

CYOW;2009-05-06 01:00;CYOW 060100Z 14007KT 15SM FEW070 OVC090 16/05 A3008 RMK AC2AC6 OCNL -SHRA SLP187

CYOW;2009-05-06 01:06;CYOW 060106Z 13006KT 15SM SCT070 OVC090 16/ RMK AC3AC5

CYOW;2009-05-06 02:00;CYOW 060200Z 14004KT 15SM OVC080 14/06 A3008 RMK AC8 SLP187

CYOW;2009-05-06 03:00;CYOW 060300Z 14006KT 15SM OVC080 14/05 A3007 RMK AC8 SLP185

CYOW;2009-05-06 04:00;CYOW 060400Z 13004KT 15SM OVC075 14/06 A3007 RMK AC8 SLP185

CYOW;2009-05-06 05:00;CYOW 060500Z 14004KT 15SM FEW048 OVC075 13/06 A3007 RMK SC1AC7 SLP184

CYOW;2009-05-06 06:00;CYOW 060600Z 13003KT 15SM SCT047 OVC070 12/06 A3005 RMK SC3AC5 SLP179

CYOW;2009-05-06 07:00;CYOW 060700Z 13004KT 15SM BKN040 OVC070 12/06 A3005 RMK SC6AC2 SLP176

CYOW;2009-05-06 08:00;CYOW 060800Z 14004KT 15SM OVC034 12/06 A3003 RMK SC8 SLP172

CYOW;2009-05-06 08:54;CYOW 060854Z 17004KT 15SM -RA OVC034 11/ RMK SC8

CYOW;2009-05-06 09:00;CYOW 060900Z 16005KT 15SM -RA OVC034 11/07 A3004 RMK SC8 SLP175

CYOW;2009-05-06 10:00;CYOW 061000Z 09002KT 15SM OVC030 10/08 A3004 RMK SC8 INTMT -RA SLP174

CYOW;2009-05-06 10:13;CYOW 061013Z 09002KT 15SM OVC030 11/ RMK SC8

CYOW;2009-05-06 11:00;CYOW 061100Z 07004KT 15SM OVC029 11/08 A3005 RMK SC8 SLP177

CYOW;2009-05-06 12:00;CYOW 061200Z 09005KT 15SM OVC030 11/07 A3005 RMK SC8 SLP178

CYOW;2009-05-06 13:00;CYOW 061300Z 11003KT 15SM OVC031 12/08 A3006 RMK SC8 SLP180

CYOW;2009-05-06 14:00;CYOW 061400Z 14004KT 15SM FEW020 OVC030 12/08 A3005 RMK SC2SC6 SLP178

CYOW;2009-05-06 15:00;CYOW 061500Z 15002KT 15SM OVC026 13/08 A3005 RMK SC8 SLP176

CYOW;2009-05-06 16:00;CYOW 061600Z 13003KT 15SM OVC026 14/09 A3004 RMK SC8 SLP173

CYOW;2009-05-06 17:00;CYOW 061700Z 03003KT 15SM BKN025 BKN040 15/09 A3002 RMK SC6SC2 SLP168

CYOW;2009-05-06 18:00;CYOW 061800Z 11004KT 15SM BKN034 15/09 A3001 RMK SC7 SLP163

CYOW;2009-05-06 19:00;CYOW 061900Z 11004KT 15SM BKN043 16/09 A3000 RMK SC7 SLP160

CYOW;2009-05-06 20:00;CYOW 062000Z 10003KT 15SM BKN053 17/09 A2997 RMK SC6 SLP151

CYOW;2009-05-06 21:00;CYOW 062100Z 08006KT 15SM SCT030 BKN056 16/09 A2996 RMK SC3SC4 SLP149

CYOW;2009-05-06 22:00;CYOW 062200Z 12006KT 15SM FEW030 BKN057 OVC180 16/09 A2996 RMK SC2SC3AS3 SLP149

CYOW;2009-05-06 23:00;CYOW 062300Z 12007KT 15SM FEW040 OVC060 16/09 A2996 RMK SC2SC6 SLP147

CYOW;2009-05-07 00:00;CYOW 070000Z 09006KT 15SM BKN062 OVC180 15/09 A2995 RMK SC5AS3 SLP145

CYOW;2009-05-07 01:00;CYOW 070100Z 09007KT 15SM BKN060 OVC180 14/09 A2995 RMK SC5AS3 SLP145

CYOW;2009-05-07 02:00;CYOW 070200Z 09007KT 15SM FEW060 OVC180 13/09 A2994 RMK SC2AS6 SLP142

CYOW;2009-05-07 03:00;CYOW 070300Z 09008KT 15SM OVC170 12/09 A2993 RMK AS8 SLP136

CYOW;2009-05-07 04:00;CYOW 070400Z 09009KT 15SM OVC160 12/09 A2991 RMK AS8 SLP129

CYOW;2009-05-07 05:00;CYOW 070500Z 07008KT 10SM BKN040 OVC150 12/08 A2989 RMK SC6AS2 SLP123

CYOW;2009-05-07 06:00;CYOW 070600Z 06008KT 10SM FEW040 OVC130 12/08 A2984 RMK SC2AS6 SLP107

CYOW;2009-05-07 07:00;CYOW 070700Z 07008KT 10SM OVC110 11/08 A2982 RMK AC8 SLP099

CYOW;2009-05-07 08:00;CYOW 070800Z 07009KT 10SM OVC090 11/08 A2980 RMK AC8 SLP094

CYOW;2009-05-07 08:44;CYOW 070844Z 06007KT 8SM -RA OVC073 11/ RMK AC8

CYOW;2009-05-07 09:00;CYOW 070900Z 05007KT 6SM -RA BR FEW040 OVC070 11/09 A2979 RMK SC2AC6 SLP091

CYOW;2009-05-07 10:00;CYOW 071000Z 07008KT 3SM -RA BR FEW027 OVC072 10/09 A2977 RMK SC2AC6 SLP084

CYOW;2009-05-07 11:00;CYOW 071100Z 06008KT 3SM -RA BR OVC030 10/09 A2976 RMK SC8 SLP080

CYOW;2009-05-07 12:00;CYOW 071200Z 05008KT 3SM -RA BR SCT004 OVC030 11/09 A2975 RMK SF3SC5 SLP077

CYOW;2009-05-07 12:19;CYOW 071219Z 05009KT 3SM -RA BR BKN005 OVC030 11/ RMK SF6SC2

CYOW;2009-05-07 13:00;CYOW 071300Z 05009KT 3SM -RA BR BKN005 OVC030 11/10 A2975 RMK SF6SC2 SLP075

CYOW;2009-05-07 14:00;CYOW 071400Z 06009KT 4SM -RA BR OVC005 11/10 A2974 RMK NS8 SLP072

CYOW;2009-05-07 15:00;CYOW 071500Z 05007KT 8SM -RA OVC005 12/10 A2974 RMK SF8 SLP072

CYOW;2009-05-07 15:47;CYOW 071547Z 36005KT 6SM -RA BR OVC007 12/ RMK SF8

CYOW;2009-05-07 16:00;CYOW 071600Z 04006KT 6SM -RA BR OVC007 13/11 A2973 RMK SF8 SLP071

CYOW;2009-05-07 17:00;CYOW 071700Z 36004KT 7SM -RA OVC009 13/11 A2973 RMK SF8 SLP071

CYOW;2009-05-07 18:00;CYOW 071800Z 33007KT 15SM -SHRA BKN008 OVC014 13/11 A2972 RMK SF5CU3 SLP067

CYOW;2009-05-07 18:30;CYOW 071830Z 36004KT 15SM -SHRA SCT010 BKN014 OVC028 14/ RMK SF3CU3SC2

CYOW;2009-05-07 18:49;CYOW 071849Z 36006KT 15SM BKN014 BKN030 BKN070 15/ RMK CU6SC1AC1

CYOW;2009-05-07 19:00;CYOW 071900Z 32006KT 15SM BKN014 BKN030 BKN070 15/12 A2972 RMK CU6SC1AC1 SLP067

CYOW;2009-05-07 19:35;CYOW 071935Z 29004KT 15SM BKN017 BKN030 BKN060 16/ RMK CU5SC2SC1

CYOW;2009-05-07 20:00;CYOW 072000Z 25003KT 15SM BKN017 BKN035 BKN060 16/11 A2972 RMK CU5SC2SC1 SLP066

CYOW;2009-05-07 21:00;CYOW 072100Z 27003KT 15SM SCT020 BKN035 BKN063 16/11 A2973 RMK CU4SC2SC2 SLP070

CYOW;2009-05-07 22:00;CYOW 072200Z 23004KT 15SM SCT028 BKN050 BKN090 17/11 A2973 RMK CU3SC2AC2 TCU ASOCTD SH DIST E SLP069

CYOW;2009-05-07 23:00;CYOW 072300Z 20004KT 15SM FEW028TCU FEW090 FEW210 17/11 A2973 RMK TCU1AC1CI1 TCU E AC CI TR SLP068

CYOW;2009-05-08 00:00;CYOW 080000Z CCA 16004KT 15SM FEW028 FEW100 FEW210 14/11 A2973 RMK CU1AC1CI0 CU AC TR SLP071

CYOW;2009-05-08 01:00;CYOW 080100Z 15005KT 15SM FEW100 FEW210 13/11 A2974 RMK AC1CI0 SLP074

CYOW;2009-05-08 02:00;CYOW 080200Z 14004KT 15SM FEW100 FEW210 12/10 A2975 RMK AC1CI1 SLP077

CYOW;2009-05-08 03:00;CYOW 080300Z 16005KT 15SM FEW075 FEW210 12/11 A2974 RMK AC2CI0 SLP073

CYOW;2009-05-08 04:00;CYOW 080400Z 18005KT 15SM BKN070 12/11 A2973 RMK AC6 SLP070

CYOW;2009-05-08 05:00;CYOW 080500Z 18005KT 15SM SCT060 OVC080 12/11 A2973 RMK SC3AC5 SLP069

CYOW;2009-05-08 06:00;CYOW 080600Z 18004KT 12SM SCT062 OVC092 12/10 A2973 RMK SC3AC5 SLP068

CYOW;2009-05-08 07:00;CYOW 080700Z 19004KT 12SM -RA SCT080 BKN095 12/10 A2971 RMK AC3AC3 VRY LGT RA SLP064

CYOW;2009-05-08 07:42;CYOW 080742Z 18005KT 10SM BKN043 OVC080 12/ RMK SC5AC3

CYOW;2009-05-08 08:00;CYOW 080800Z 19005KT 8SM OVC042 12/11 A2972 RMK SC8 SLP066

CYOW;2009-05-08 09:00;CYOW 080900Z CCA 20005KT 12SM SCT043 BKN090 12/10 A2971 RMK SC3AC4 SLP061

CYOW;2009-05-08 10:00;CYOW 081000Z 20002KT 10SM BKN050 OVC071 12/10 A2970 RMK SC5AC3 SLP059

CYOW;2009-05-08 11:00;CYOW 081100Z 21006KT 15SM SCT052 12/10 A2970 RMK SC3 SLP060

CYOW;2009-05-08 12:00;CYOW 081200Z 22008KT 15SM FEW050 SCT210 13/10 A2971 RMK SC1CI1 SLP062

CYOW;2009-05-08 13:00;CYOW 081300Z 21007KT 15SM FEW050 BKN210 15/11 A2971 RMK SC1CI2 SLP063

CYOW;2009-05-08 14:00;CYOW 081400Z 27006KT 15SM SCT030 BKN200 16/11 A2971 RMK SC3CI2 SLP064

CYOW;2009-05-08 15:00;CYOW 081500Z 21006KT 15SM BKN026 BKN200 18/12 A2972 RMK SC5CI0 SLP065

CYOW;2009-05-08 16:00;CYOW 081600Z 20008KT 15SM FEW025 BKN031 19/12 A2971 RMK CU2SC3 SLP064

CYOW;2009-05-08 16:33;CYOW 081633Z 27004KT 12SM -RA BKN034 19/ RMK SC7 CU ASOCT

CYOW;2009-05-08 17:00;CYOW 081700Z CCA 24002KT 12SM -RA BKN042 OVC050 17/13 A2971 RMK SC6SC2 CU ASOCT SLP061

CYOW;2009-05-08 18:00;CYOW 081800Z 02005KT 15SM -RA BKN040 OVC074 17/13 A2971 RMK SC6AC2 CU ASOCT SLP061

CYOW;2009-05-08 18:41;CYOW 081841Z CCA 09004KT 15SM -TSRA SCT030CB BKN049 BKN075 18/ RMK CB3SC3AC1 LTGIC

CYOW;2009-05-08 19:00;CYOW 081900Z 06003KT 15SM -TSRA FEW030CB BKN045 17/11 A2970 RMK CB2SC6 SLP060

CYOW;2009-05-08 19:48;CYOW 081948Z 08004KT 15SM -RA FEW030CB BKN040 BKN080 15/ RETS RMK CB1SC5AC1

CYOW;2009-05-08 20:00;CYOW 082000Z 13003KT 15SM -RA FEW032CB BKN040 BKN080 15/13 A2969 RETS RMK CB1SC6AC1 CB E QUAD SLP056

CYOW;2009-05-08 20:34;CYOW 082034Z 12005KT 15SM BKN040 BKN080 17/ RMK SC5AC1

CYOW;2009-05-08 21:00;CYOW 082100Z 12005KT 15SM FEW030 SCT040 19/13 A2968 RMK CU1SC2 SLP050

CYOW;2009-05-08 22:00;CYOW 082200Z 14007KT 15SM FEW030 FEW040 19/13 A2968 RMK CU1SC1 SLP052

CYOW;2009-05-08 23:00;CYOW 082300Z 18005KT 15SM FEW030 BKN190 17/13 A2967 RMK CU1AC6 SLP049

CYOW;2009-05-09 00:00;CYOW 090000Z 17005KT 15SM FEW030TCU FEW050 SCT120 15/11 A2967 RMK TCU2SC1AC1 DIST PCPN S-SSW SLP049

CYOW;2009-05-09 01:00;CYOW 090100Z 16005KT 15SM FEW030TCU SCT056 BKN090 15/11 A2969 RMK TCU2SC2AC2 DIST OCNL LTNG SE S SW SLP055

CYOW;2009-05-09 02:00;CYOW 090200Z 16005KT 15SM FEW090 SCT100 BKN160 15/09 A2970 RMK AC2AC2AC2 SLP059

CYOW;2009-05-09 03:00;CYOW 090300Z 20004KT 15SM FEW150 15/09 A2969 RMK AC2 SLP055

CYOW;2009-05-09 04:00;CYOW 090400Z 18005KT 15SM FEW120 SCT250 13/10 A2969 RMK AC1CI1 SLP054

CYOW;2009-05-09 05:00;CYOW 090500Z 20005KT 15SM FEW120 FEW250 13/10 A2968 RMK AC1CI0 SLP053

CYOW;2009-05-09 06:00;CYOW 090600Z 22006KT 15SM FEW150 FEW250 13/09 A2968 RMK AC1CI0 SLP053

CYOW;2009-05-09 07:00;CYOW 090700Z 20003KT 15SM BKN250 12/10 A2965 RMK CI1 SLP040

CYOW;2009-05-09 08:00;CYOW 090800Z 20002KT 15SM BKN250 12/10 A2965 RMK CI1 SLP043

CYOW;2009-05-09 09:00;CYOW 090900Z 17002KT 15SM FEW150 10/09 A2964 RMK AC1 SLP037

CYOW;2009-05-09 10:00;CYOW 091000Z 16003KT 15SM FEW150 FEW210 11/09 A2964 RMK AC1CI1 SLP037

CYOW;2009-05-09 11:00;CYOW 091100Z 19006KT 15SM FEW100 OVC250 11/10 A2963 RMK AC1CI1 SLP036

CYOW;2009-05-09 12:00;CYOW 091200Z 00000KT 15SM FEW110 OVC250 13/11 A2962 RMK AC2CS2 SLP031

CYOW;2009-05-09 13:00;CYOW 091300Z 00000KT 15SM SCT100 BKN130 OVC220 15/11 A2962 RMK AC4AC2CS2 SLP030

CYOW;2009-05-09 14:00;CYOW 091400Z 00000KT 15SM SCT110 OVC140 16/12 A2960 RMK AC3AS5 SLP024

CYOW;2009-05-09 14:25;CYOW 091425Z 07002KT 15SM -RA BKN080 OVC110 16/ RMK AC5AC3

CYOW;2009-05-09 15:00;CYOW 091500Z 21004KT 15SM -SHRA BKN082 OVC110 16/12 A2959 RMK AC6AC2 CVCTV CLDS EMBD SLP022

CYOW;2009-05-09 16:00;CYOW 091600Z 09002KT 5SM RA BR OVC070 14/13 A2957 RMK AC8 SLP016

CYOW;2009-05-09 16:43;CYOW 091643Z 09007KT 15SM FEW020 OVC058 15/ RERA RMK SC1SC7

CYOW;2009-05-09 17:00;CYOW 091700Z 09008KT 10SM OVC059 15/13 A2953 RERA RMK SC8 SLP002

CYOW;2009-05-09 17:21;CYOW 091721Z 12010KT 10SM -RA OVC063 15/ RMK SC8

CYOW;2009-05-09 18:00;CYOW 091800Z 09006KT 10SM -RA FEW010 OVC062 14/11 A2951 RMK CU1SC8 SLP994

CYOW;2009-05-09 19:00;CYOW 091900Z 09011KT 5SM RA BR FEW010 OVC058 13/11 A2948 RMK SC1SC7 SLP986

CYOW;2009-05-09 20:00;CYOW 092000Z 03007KT 10SM FEW015 SCT060 BKN110 BKN250 15/13 A2943 RERA RMK SC1SC3AC2CI2 INTMT -RA SLP969

CYOW;2009-05-09 20:13;CYOW 092013Z 06008KT 15SM FEW015 SCT060 BKN095 OVC250 15/ RMK SC1SC3AC3CI1

CYOW;2009-05-09 20:32;CYOW 092032Z 08004KT 15SM -RA FEW010 FEW020 FEW055 OVC090 14/ RMK SC1SC1SC2AC6

CYOW;2009-05-09 21:00;CYOW 092100Z 06003KT 3SM RA BR OVC055 14/13 A2944 RMK FG1SC7 SLP971

CYOW;2009-05-09 22:00;CYOW 092200Z 31012KT 4SM -RA BR FEW008 BKN025 OVC060 14/12 A2943 RMK SC1SC4SC3 SLP969

CYOW;2009-05-09 23:00;CYOW 092300Z 31013KT 6SM -RA BR FEW008 BKN043 OVC070 13/12 A2944 RMK SC1SC4AC3 /R13/ SLP970

CYOW;2009-05-10 00:00;CYOW 100000Z 32010KT 6SM -RA BR FEW008 BKN050 OVC080 13/12 A2945 RMK SC1SC5AC3 /R14/ SLP974

CYOW;2009-05-10 01:00;CYOW 100100Z 35012G18KT 10SM -RA FEW015 BKN038 OVC042 12/10 A2949 RMK SC2SC3SC2 SLP987

CYOW;2009-05-10 02:00;CYOW 100200Z 32015KT 10SM -RA BKN015 OVC048 11/09 A2953 RMK SC5SC3 SLP001

CYOW;2009-05-10 03:00;CYOW 100300Z 32017G22KT 10SM -RA SCT020 OVC058 09/08 A2958 RMK SC3SC5 SLP017

CYOW;2009-05-10 04:00;CYOW 100400Z 31012KT 10SM -RA FEW010 OVC064 08/06 A2962 RMK SC1SC8 SLP030

CYOW;2009-05-10 05:00;CYOW 100500Z 31014G19KT 12SM FEW074 OVC110 08/04 A2965 RMK AC1AC8 SLP042

CYOW;2009-05-10 06:00;CYOW 100600Z 31013G19KT 12SM OVC120 07/02 A2968 RMK AC8 SLP054

CYOW;2009-05-10 07:00;CYOW 100700Z 31012G19KT 12SM OVC120 06/01 A2970 RMK AC8 SLP060

CYOW;2009-05-10 08:00;CYOW 100800Z 30013KT 15SM FEW140 FEW180 05/00 A2973 RMK AC1AC2 SLP068

CYOW;2009-05-10 09:00;CYOW 100900Z 28013KT 15SM FEW025 BKN220 04/00 A2975 RMK SC1CI2 SLP076

CYOW;2009-05-10 10:00;CYOW 101000Z 28013KT 15SM BKN028 BKN170 04/M00 A2977 RMK SC5AC2 SLP085

CYOW;2009-05-10 11:00;CYOW 101100Z 29011G16KT 15SM OVC025 04/M00 A2979 RMK SC8 SLP091

CYOW;2009-05-10 12:00;CYOW 101200Z 31016KT 15SM OVC033 03/M01 A2981 RMK SC8 VIRGA SLP097

CYOW;2009-05-10 13:00;CYOW 101300Z 31015KT 15SM SCT025 OVC040 04/M02 A2982 RMK SC3SC5 SLP103

CYOW;2009-05-10 14:00;CYOW 101400Z 32011G16KT 15SM OVC025 05/M00 A2984 RMK SC8 SLP109

CYOW;2009-05-10 15:00;CYOW 101500Z 30015KT 15SM SCT025 OVC048 05/M00 A2986 RMK SC4SC4 SLP115

CYOW;2009-05-10 16:00;CYOW 101600Z 29014KT 15SM BKN024 OVC048 05/M01 A2987 RMK SC6SC2 SLP118

CYOW;2009-05-10 17:00;CYOW 101700Z 30015G20KT 15SM OVC025 05/M00 A2988 RMK SC8 SLP122

CYOW;2009-05-10 18:00;CYOW 101800Z 27012KT 15SM OVC027 06/M00 A2990 RMK SC8 SLP128

CYOW;2009-05-10 19:00;CYOW 101900Z 28013KT 15SM BKN030 OVC060 07/M00 A2991 RMK SC5SC3 SLP131

CYOW;2009-05-10 20:00;CYOW 102000Z 28012G18KT 15SM OVC040 08/M00 A2991 RMK SC8 SLP134

CYOW;2009-05-10 21:00;CYOW 102100Z 27007KT 15SM OVC040 08/00 A2992 RMK SC8 SLP137

CYOW;2009-05-10 22:00;CYOW 102200Z 29010KT 15SM BKN044 09/01 A2993 RMK SC7 SLP139

CYOW;2009-05-10 23:00;CYOW 102300Z 27005KT 15SM BKN044 09/00 A2995 RMK SC6 SLP146

CYOW;2009-05-11 00:00;CYOW 110000Z 30007KT 15SM BKN050 BKN250 09/00 A2996 RMK SC6CI1 SLP151

CYOW;2009-05-11 01:00;CYOW 110100Z 34005KT 15SM SCT055 BKN250 08/M00 A3000 RMK SC4CI2 SLP162

CYOW;2009-05-11 02:00;CYOW 110200Z 31002KT 15SM SCT055 BKN250 06/M02 A3002 RMK SC4CI1 SLP168

CYOW;2009-05-11 03:00;CYOW 110300Z 26004KT 15SM FEW065 SCT250 06/M02 A3002 RMK SC2CI1 SLP170

CYOW;2009-05-11 04:00;CYOW 110400Z 23004KT 15SM FEW065 SCT250 05/M01 A3002 RMK SC1CI1 SLP171

CYOW;2009-05-11 05:00;CYOW 110500Z 27004KT 15SM FEW065 FEW230 04/M01 A3003 RMK SC1CI1 SLP174

CYOW;2009-05-11 06:00;CYOW 110600Z 27003KT 15SM FEW230 03/M01 A3003 RMK CI1 SLP173

CYOW;2009-05-11 07:00;CYOW 110700Z 30004KT 15SM FEW230 02/M02 A3003 RMK CI0 SLP174

CYOW;2009-05-11 08:00;CYOW 110800Z 29005KT 15SM FEW230 03/M01 A3004 RMK CI0 SLP177

CYOW;2009-05-11 08:18;CYOW 110818Z 29005KT 15SM FEW230 02/ RMK CI0

CYOW;2009-05-11 09:00;CYOW 110900Z 28003KT 15SM FEW230 01/M03 A3005 RMK CI1 SLP181

CYOW;2009-05-11 10:00;CYOW 111000Z 31006KT 15SM FEW230 01/M03 A3006 RMK CI1 SLP183

CYOW;2009-05-11 11:00;CYOW 111100Z 29004KT 15SM SCT230 03/00 A3007 RMK CI2 SLP187

CYOW;2009-05-11 12:00;CYOW 111200Z 28004KT 15SM SCT230 06/00 A3009 RMK CI2 SLP193

CYOW;2009-05-11 13:00;CYOW 111300Z 28006KT 15SM FEW230 07/M00 A3010 RMK CI1 SLP196

CYOW;2009-05-11 14:00;CYOW 111400Z 29005KT 15SM FEW240 09/M01 A3010 RMK CI1 SLP196

CYOW;2009-05-11 15:00;CYOW 111500Z 30010KT 15SM FEW040 FEW230 11/M03 A3010 RMK CU1CI1 TR CU SLP195

CYOW;2009-05-11 16:00;CYOW 111600Z 31007KT 15SM FEW050 SCT230 12/M02 A3009 RMK CU1CI1 SLP192

CYOW;2009-05-11 17:00;CYOW 111700Z 27009KT 15SM FEW050 FEW230 13/00 A3008 RMK SC1CI2 SLP189

CYOW;2009-05-11 18:00;CYOW 111800Z 27010KT 15SM FEW050 FEW200 FEW240 12/M04 A3007 RMK SC1CI1CI1 SLP185

CYOW;2009-05-11 19:00;CYOW 111900Z 30008KT 15SM FEW060 FEW250 13/M03 A3006 RMK SC1CI2 SLP182

CYOW;2009-05-11 20:00;CYOW 112000Z 28008KT 15SM FEW060 FEW240 14/M02 A3004 RMK SC1CI2 SLP177

CYOW;2009-05-11 21:00;CYOW 112100Z 26005KT 15SM FEW250 15/M03 A3003 RMK CI1 SLP174

CYOW;2009-05-11 22:00;CYOW 112200Z 27009KT 15SM FEW220 FEW250 15/M04 A3003 RMK CI1CI0 SLP172

CYOW;2009-05-11 23:00;CYOW 112300Z 27008KT 15SM FEW250 14/M03 A3003 RMK CI1 SLP174

CYOW;2009-05-12 00:00;CYOW 120000Z 27007KT 15SM FEW250 12/M04 A3004 RMK CI2 SLP177

CYOW;2009-05-12 01:00;CYOW 120100Z 27005KT 15SM FEW160 10/M05 A3005 RMK AC2 SLP181

CYOW;2009-05-12 02:00;CYOW 120200Z 27004KT 15SM SCT170 10/M05 A3006 RMK AC2 SLP184

CYOW;2009-05-12 03:00;CYOW 120300Z 31006KT 15SM FEW160 08/M04 A3007 RMK AC1 SLP186

CYOW;2009-05-12 04:00;CYOW 120400Z 36008KT 15SM FEW160 FEW250 08/M03 A3008 RMK AC1CI1 SLP190

CYOW;2009-05-12 05:00;CYOW 120500Z 01006KT 15SM FEW250 08/M04 A3009 RMK CI0 SLP193

CYOW;2009-05-12 06:00;CYOW 120600Z 02005KT 15SM SKC 08/M04 A3009 RMK SLP191

CYOW;2009-05-12 07:00;CYOW 120700Z 01004KT 15SM SKC 05/M04 A3010 RMK SLP194

CYOW;2009-05-12 08:00;CYOW 120800Z 35005KT 15SM SKC 04/M03 A3011 RMK SLP198

CYOW;2009-05-12 09:00;CYOW 120900Z 34002KT 15SM FEW180 04/M03 A3013 RMK AC1 SLP205

CYOW;2009-05-12 10:00;CYOW 121000Z 32005KT 15SM FEW180 03/M03 A3015 RMK AC1 SLP213

CYOW;2009-05-12 11:00;CYOW 121100Z 33007KT 15SM FEW180 06/M00 A3017 RMK AC1 SLP221

CYOW;2009-05-12 12:00;CYOW 121200Z 35004KT 15SM FEW180 09/M01 A3019 RMK AC1 SLP227

CYOW;2009-05-12 13:00;CYOW 121300Z 35004KT 15SM SKC 11/M02 A3020 RMK SLP231

CYOW;2009-05-12 14:00;CYOW 121400Z 07003KT 15SM SKC 13/M01 A3021 RMK SLP234

CYOW;2009-05-12 15:00;CYOW 121500Z 30002KT 15SM FEW220 13/M02 A3022 RMK CI1 SLP237

CYOW;2009-05-12 16:00;CYOW 121600Z 33004KT 15SM FEW045 14/M03 A3022 RMK CU1 SLP235

CYOW;2009-05-12 17:00;CYOW 121700Z 05004KT 15SM FEW045 15/M03 A3021 RMK CU1 SLP234

CYOW;2009-05-12 18:00;CYOW 121800Z 06005KT 15SM FEW045 16/M04 A3021 RMK CU1 SLP232

CYOW;2009-05-12 19:00;CYOW 121900Z 26003KT 15SM FEW045 16/M05 A3020 RMK CU1 SLP230

CYOW;2009-05-12 20:00;CYOW 122000Z 07005KT 15SM FEW045 17/M03 A3019 RMK CU1 SLP228

CYOW;2009-05-12 21:00;CYOW 122100Z 08004KT 15SM FEW045 17/M03 A3019 RMK CU1 SLP225

CYOW;2009-05-12 22:00;CYOW 122200Z 23005KT 15SM FEW045 FEW100 17/M04 A3018 RMK CF1AC1 SLP224

CYOW;2009-05-12 23:00;CYOW 122300Z 28005KT 15SM FEW100 17/M03 A3019 RMK AC2 SLP226

CYOW;2009-05-13 00:00;CYOW 130000Z 24002KT 15SM FEW100 16/M04 A3019 RMK AC1 SLP227

CYOW;2009-05-13 01:00;CYOW 130100Z 16003KT 15SM FEW110 14/M03 A3020 RMK AC1 SLP230

CYOW;2009-05-13 02:00;CYOW 130200Z 18005KT 15SM SKC 12/M02 A3022 RMK SLP237

CYOW;2009-05-13 03:00;CYOW 130300Z 20004KT 15SM SKC 11/01 A3023 RMK SLP241

CYOW;2009-05-13 04:00;CYOW 130400Z 20004KT 15SM SKC 10/01 A3025 RMK SLP247

CYOW;2009-05-13 05:00;CYOW 130500Z 21004KT 15SM SKC 09/01 A3026 RMK SLP249

CYOW;2009-05-13 06:00;CYOW 130600Z 22005KT 15SM SKC 09/00 A3028 RMK SLP255

CYOW;2009-05-13 07:00;CYOW 130700Z 26003KT 15SM SKC 07/00 A3029 RMK SLP261

CYOW;2009-05-13 08:00;CYOW 130800Z 23004KT 15SM SKC 08/00 A3030 RMK SLP263

CYOW;2009-05-13 09:00;CYOW 130900Z 19003KT 15SM SKC 06/00 A3030 RMK SLP262

CYOW;2009-05-13 10:00;CYOW 131000Z 18003KT 15SM SKC 05/M00 A3031 RMK SLP266

CYOW;2009-05-13 11:00;CYOW 131100Z 00000KT 15SM SKC 07/01 A3033 RMK SLP272

CYOW;2009-05-13 12:00;CYOW 131200Z 00000KT 15SM SKC 10/02 A3033 RMK SLP273

CYOW;2009-05-13 13:00;CYOW 131300Z 00000KT 15SM SKC 12/03 A3034 RMK SLP276

CYOW;2009-05-13 14:00;CYOW 131400Z 18004KT 15SM SKC 15/03 A3034 RMK SLP277

CYOW;2009-05-13 15:00;CYOW 131500Z 20003KT 15SM FEW260 17/01 A3032 RMK CI0 SLP270

CYOW;2009-05-13 16:00;CYOW 131600Z 22007KT 15SM FEW050 FEW250 19/03 A3031 RMK CU1CI1 SLP268

CYOW;2009-05-13 17:00;CYOW 131700Z 20009G17KT 15SM FEW050 FEW250 19/M00 A3029 RMK CU1CI1 SLP261

CYOW;2009-05-13 18:00;CYOW 131800Z 22011G16KT 15SM FEW050 19/M01 A3027 RMK CU1 SLP252

CYOW;2009-05-13 19:00;CYOW 131900Z 20012G19KT 15SM FEW250 20/00 A3024 RMK CI1 SLP241

CYOW;2009-05-13 20:00;CYOW 132000Z 18014KT 15SM SCT250 21/M00 A3021 RMK CI1 SLP231

CYOW;2009-05-13 21:00;CYOW 132100Z 18009KT 15SM BKN230 20/01 A3019 RMK CI2 SLP224

CYOW;2009-05-13 22:00;CYOW 132200Z 18008KT 15SM FEW230 BKN250 21/00 A3017 RMK CI1CI0 SLP219

CYOW;2009-05-13 23:00;CYOW 132300Z 18007KT 15SM FEW220 FEW250 20/00 A3017 RMK CI1CI0 SLP219

CYOW;2009-05-14 00:00;CYOW 140000Z 18003KT 15SM FEW220 FEW250 19/02 A3016 RMK CI1CI0 SLP214

CYOW;2009-05-14 01:00;CYOW 140100Z 13004KT 15SM FEW220 FEW250 13/03 A3013 RMK CI1CI0 SLP205

CYOW;2009-05-14 02:00;CYOW 140200Z 14006KT 15SM SKC 13/03 A3012 RMK SLP201

CYOW;2009-05-14 03:00;CYOW 140300Z 15008KT 15SM SKC 15/02 A3010 RMK SLP193

CYOW;2009-05-14 04:00;CYOW 140400Z 16008KT 15SM SKC 14/02 A3007 RMK SLP184

CYOW;2009-05-14 05:00;CYOW 140500Z 17009KT 15SM SKC 15/03 A3006 RMK SLP180

CYOW;2009-05-14 06:00;CYOW 140600Z 17010G15KT 15SM BKN140 OVC180 16/03 A3005 RMK AC6AC2 SLP176

CYOW;2009-05-14 07:00;CYOW 140700Z 18013G19KT 15SM OVC110 16/04 A3003 RMK AC8 SLP169

CYOW;2009-05-14 08:00;CYOW 140800Z 18010G17KT 15SM OVC100 16/05 A3004 RMK AC8 SLP173

CYOW;2009-05-14 09:00;CYOW 140900Z 16011G16KT 15SM OVC098 15/05 A3000 RMK AC8 SLP160

CYOW;2009-05-14 10:00;CYOW 141000Z 17011G18KT 15SM FEW041 BKN090 BKN110 15/05 A2997 RMK SC1AC4AC2 SLP150

CYOW;2009-05-14 11:00;CYOW 141100Z 18013KT 15SM FEW041 BKN090 15/05 A2995 RMK SC2AC5 SLP143

CYOW;2009-05-14 12:00;CYOW 141200Z 17012G22KT 15SM BKN043 BKN090 15/06 A2991 RMK SC5AC2 SLP128

CYOW;2009-05-14 13:00;CYOW 141300Z 17014G28KT 15SM BKN040 OVC060 15/07 A2988 RMK SC5SC3 SLP119

CYOW;2009-05-14 14:00;CYOW 141400Z CCA 17017G25KT 15SM BKN032 OVC052 15/08 A2982 RMK SC6SC2 PRESFR SLP099

CYOW;2009-05-14 14:52;CYOW 141452Z 18015G24KT 12SM -RA BKN035 OVC052 14/ RMK SC6SC2

CYOW;2009-05-14 15:00;CYOW 141500Z 18021G26KT 12SM -RA BKN035 OVC052 14/10 A2980 RMK SC6SC2 SLP094

CYOW;2009-05-14 16:00;CYOW 141600Z 17016G22KT 15SM -RA SCT017 BKN030 OVC050 13/11 A2976 RMK SC3SC3SC2 SLP080

CYOW;2009-05-14 17:00;CYOW 141700Z 18018G24KT 8SM -RA SCT012 OVC019 14/12 A2974 RMK SF3SC5 SLP074

CYOW;2009-05-14 17:55;CYOW 141755Z 19015G24KT 8SM -RA BKN012 OVC025 14/ RMK SF5SC3

CYOW;2009-05-14 18:00;CYOW 141800Z 19016G24KT 8SM -RA BKN012 OVC025 14/13 A2973 RMK SF5SC3 SLP071

CYOW;2009-05-14 18:05;CYOW 141805Z 20015G24KT 2 1/2SM -RA BR BKN008 OVC020 14/ RMK SF6SC2

CYOW;2009-05-14 18:21;CYOW 141821Z 21016G22KT 8SM -RA BKN011 OVC020 14/ RMK SF5SC3

CYOW;2009-05-14 18:46;CYOW 141846Z 21016G26KT 15SM FEW010 BKN018 OVC030 16/ RMK SF2SC3SC2

CYOW;2009-05-14 19:00;CYOW 141900Z 21018G29KT 15SM FEW030 BKN050 BKN140 17/14 A2975 RMK SC2SC3AC2 SLP076

CYOW;2009-05-14 20:00;CYOW 142000Z 23018G24KT 15SM SCT050 19/14 A2977 RMK SC3 SLP082

CYOW;2009-05-14 21:00;CYOW 142100Z CCA 25012G20KT 15SM BKN062 20/11 A2980 RMK SC6 TCU EMBD SLP091

CYOW;2009-05-14 22:00;CYOW 142200Z 26021G27KT 15SM BKN060 20/04 A2983 RMK SC5 SLP103

CYOW;2009-05-14 23:00;CYOW 142300Z 25016G24KT 15SM FEW060 FEW085 FEW250 20/05 A2987 RMK CU1AC1CI1 CU TR SLP114

CYOW;2009-05-15 00:00;CYOW 150000Z 26012G17KT 15SM FEW080 FEW250 18/05 A2991 RMK AC2CI1 TCU TOPS DIST E SLP131

CYOW;2009-05-15 01:00;CYOW 150100Z 26015KT 15SM FEW070 17/05 A2996 RMK AC1 SLP146

CYOW;2009-05-15 02:00;CYOW 150200Z 25014G20KT 15SM SKC 16/05 A3000 RMK SLP159

CYOW;2009-05-15 03:00;CYOW 150300Z 25012KT 15SM SKC 15/05 A3003 RMK SLP170

CYOW;2009-05-15 04:00;CYOW 150400Z 25012KT 15SM SKC 13/05 A3006 RMK SLP180

CYOW;2009-05-15 05:00;CYOW 150500Z 26008KT 15SM SKC 11/05 A3009 RMK SLP192

CYOW;2009-05-15 06:00;CYOW 150600Z 27011KT 15SM SKC 11/04 A3011 RMK SLP200

CYOW;2009-05-15 07:00;CYOW 150700Z 26007KT 15SM SKC 10/04 A3015 RMK SLP213

CYOW;2009-05-15 08:00;CYOW 150800Z 27007KT 15SM SKC 09/03 A3018 RMK SLP223

CYOW;2009-05-15 09:00;CYOW 150900Z 28007KT 15SM FEW240 08/03 A3021 RMK CI1 SLP231

CYOW;2009-05-15 10:00;CYOW 151000Z 30008KT 15SM FEW200 FEW240 07/03 A3023 RMK CI1CI1 SLP239

CYOW;2009-05-15 11:00;CYOW 151100Z 28010KT 15SM FEW240 08/03 A3027 RMK CI1 SLP251

CYOW;2009-05-15 12:00;CYOW 151200Z 29007KT 15SM FEW240 10/03 A3028 RMK CI1 SLP257

CYOW;2009-05-15 13:00;CYOW 151300Z 28006KT 15SM FEW240 11/03 A3030 RMK CI1 SLP261

CYOW;2009-05-15 14:00;CYOW 151400Z 28007KT 15SM FEW240 12/03 A3030 RMK CI1 SLP261

CYOW;2009-05-15 15:00;CYOW 151500Z 31007KT 15SM FEW030 FEW240 13/04 A3031 RMK CU1CI1 TR CU SLP265

CYOW;2009-05-15 16:00;CYOW 151600Z 28014KT 15SM FEW030 BKN240 16/04 A3031 RMK CU1CI2 TR CU SLP264

CYOW;2009-05-15 17:00;CYOW 151700Z 29007G17KT 15SM FEW040 BKN240 16/04 A3029 RMK CU1CI2 TR CU SLP259

CYOW;2009-05-15 18:00;CYOW 151800Z 27012G18KT 15SM FEW040 BKN240 17/04 A3029 RMK CU1CI3 TR CU HALO CS ASOCTD SLP259

CYOW;2009-05-15 19:00;CYOW 151900Z 28011KT 15SM FEW050 SCT210 BKN240 17/04 A3029 RMK CU1CI2CI2 TR CU SLP258

CYOW;2009-05-15 20:00;CYOW 152000Z 29012KT 15SM SCT180 BKN210 18/04 A3027 RMK AC3CI2 SLP251

CYOW;2009-05-15 21:00;CYOW 152100Z 31006KT 15SM BKN180 BKN210 18/03 A3026 RMK AC5CI1 SLP249

CYOW;2009-05-15 22:00;CYOW 152200Z 34005KT 15SM BKN180 BKN210 18/03 A3025 RMK AC6CI1 SLP245

CYOW;2009-05-15 23:00;CYOW 152300Z 34002KT 15SM BKN160 BKN210 17/04 A3024 RMK AC6CI1 SLP242

CYOW;2009-05-16 00:00;CYOW 160000Z 16003KT 15SM BKN170 OVC210 16/04 A3022 RMK AC5CS3 SLP237

CYOW;2009-05-16 01:00;CYOW 160100Z 14006KT 15SM BKN150 OVC210 14/04 A3020 RMK AC6CS2 SLP229

CYOW;2009-05-16 02:00;CYOW 160200Z 15005KT 15SM BKN140 BKN210 12/04 A3022 RMK AC5CI0 SLP234

CYOW;2009-05-16 03:00;CYOW 160300Z 18003KT 15SM FEW150 SCT210 13/03 A3022 RMK AC2CI0 SLP235

CYOW;2009-05-16 04:00;CYOW 160400Z 15003KT 15SM FEW150 FEW210 11/04 A3021 RMK AC1CI0 SLP232

CYOW;2009-05-16 05:00;CYOW 160500Z 00000KT 15SM BKN160 12/04 A3019 RMK AC6 SLP224

CYOW;2009-05-16 06:00;CYOW 160600Z 09007KT 15SM BKN150 11/05 A3014 RMK AC7 SLP209

CYOW;2009-05-16 07:00;CYOW 160700Z 07007KT 15SM OVC150 10/05 A3012 RMK AC8 SLP202

CYOW;2009-05-16 08:00;CYOW 160800Z 06005KT 15SM OVC140 10/05 A3011 RMK AC8 SLP200

CYOW;2009-05-16 09:00;CYOW 160900Z 08008KT 15SM OVC150 10/04 A3009 RMK AC8 SLP192

CYOW;2009-05-16 10:00;CYOW 161000Z 09010KT 15SM BKN120 OVC130 10/05 A3007 RMK AC6AC2 SLP184

CYOW;2009-05-16 11:00;CYOW 161100Z 09012KT 15SM OVC100 11/05 A3003 RMK AC8 SLP172

CYOW;2009-05-16 12:00;CYOW 161200Z 09012KT 15SM OVC090 11/05 A3000 RMK AC8 SLP160

CYOW;2009-05-16 13:00;CYOW 161300Z 08012G18KT 15SM OVC110 13/06 A2994 RMK AC8 SLP139

CYOW;2009-05-16 13:52;CYOW 161352Z 09011KT 15SM -SHRA OVC090 14/ RMK AC8 CVCTV CLD EMBD

CYOW;2009-05-16 14:00;CYOW 161400Z 08012KT 15SM -SHRA OVC090 14/07 A2990 RMK AC8 CVCTV CLD EMBD SLP128

CYOW;2009-05-16 15:00;CYOW 161500Z 10013KT 5SM -SHRA BR SCT030 OVC080 12/09 A2984 RMK SC3AC5 PRESFR CVCTV CLD EMBD SLP108

CYOW;2009-05-16 15:35;CYOW 161535Z 11014G19KT 6SM -TSRA BR OVC030 12/ RMK SC8 CB EMBD

CYOW;2009-05-16 15:52;CYOW 161552Z 11009G15KT 2SM +TSRA BR OVC017 12/ RMK SC8 CB EMBD

CYOW;2009-05-16 16:00;CYOW 161600Z 11010KT 4SM -TSRA BR OVC018 12/10 A2982 RERA RMK SC8 CB EMBD SLP100

CYOW;2009-05-16 16:10;CYOW 161610Z 12010KT 5SM -SHRA OVC020 12/ RETS RMK SC8

CYOW;2009-05-16 16:51;CYOW 161651Z 12007KT 8SM BKN008 OVC020 13/ RMK SF6SC2

CYOW;2009-05-16 17:00;CYOW 161700Z 11006KT 8SM OVC008 13/12 A2979 RETS RMK SF8 SLP090

CYOW;2009-05-16 17:39;CYOW 161739Z 13007KT 5SM -RA BR BKN003 OVC010 14/ RMK SF6SC2

CYOW;2009-05-16 18:00;CYOW 161800Z 14006KT 4SM -RA BR BKN004 OVC012 14/13 A2976 RMK SF5SC3 SLP081

CYOW;2009-05-16 19:00;CYOW 161900Z 16006KT 3SM -RA BR OVC003 17/16 A2973 RMK SF8 SLP070

CYOW;2009-05-16 19:26;CYOW 161926Z 18005KT 4SM BR SCT003 OVC130 18/ RMK SF3AS5

CYOW;2009-05-16 20:00;CYOW 162000Z 20010G15KT 4SM BR SCT030 OVC120 20/19 A2971 RMK SC3AS5 SLP064

CYOW;2009-05-16 21:00;CYOW 162100Z 20006KT 5SM -RA BR SCT020 OVC100 20/17 A2970 RMK SC3AS5 SLP058

CYOW;2009-05-16 22:00;CYOW 162200Z 19006KT 6SM -RA BR OVC033 20/17 A2969 RMK SC8 SLP055

CYOW;2009-05-16 22:18;CYOW 162218Z 20007KT 8SM SCT023 OVC110 19/ RMK SC4AS4

CYOW;2009-05-16 23:00;CYOW 162300Z 20006KT 10SM FEW016 BKN027 BKN040 19/17 A2970 RMK SC1SC6SC1 TCU EMBD SLP057

CYOW;2009-05-17 00:00;CYOW 170000Z 21006KT 10SM BKN024 BKN042 BKN160 18/16 A2970 RMK SC5SC2AC1 SLP058

CYOW;2009-05-17 01:00;CYOW 170100Z 23007KT 15SM SCT025 BKN048 BKN140 18/15 A2971 RMK SC3SC2AC2 TCU EMBD SLP063

CYOW;2009-05-17 02:00;CYOW 170200Z 27012G17KT 15SM BKN060 BKN140 16/12 A2974 RMK SC6AC2 SLP072

CYOW;2009-05-17 03:00;CYOW 170300Z 27017G25KT 15SM FEW027 BKN060 13/06 A2978 RMK SC2SC4 SLP085

CYOW;2009-05-17 04:00;CYOW 170400Z 27014G24KT 15SM SCT033 SCT060 09/00 A2982 RMK SC3SC1 SLP098

CYOW;2009-05-17 05:00;CYOW 170500Z 27013G21KT 15SM FEW035 08/M00 A2984 RMK SC2 SLP107

CYOW;2009-05-17 06:00;CYOW 170600Z 27017G22KT 15SM FEW035 07/M01 A2987 RMK SC1 SLP116

CYOW;2009-05-17 07:00;CYOW 170700Z 27014G21KT 15SM FEW040 06/M04 A2991 RMK SC1 SLP129

CYOW;2009-05-17 08:00;CYOW 170800Z 27016KT 15SM FEW040 SCT250 05/M04 A2993 RMK SC1CI1 SLP137

CYOW;2009-05-17 09:00;CYOW 170900Z 25007KT 15SM FEW040 SCT250 04/M03 A2995 RMK SC1CI2 SLP145

CYOW;2009-05-17 10:00;CYOW 171000Z 24008KT 15SM FEW040 FEW150 SCT250 03/M04 A2997 RMK SC1AC1CI2 SLP152

CYOW;2009-05-17 11:00;CYOW 171100Z 25010KT 15SM FEW040 FEW150 SCT240 04/M04 A3000 RMK SC1AC1CI1 SLP161

CYOW;2009-05-17 12:00;CYOW 171200Z 26018KT 15SM BKN040 BKN240 05/M04 A3002 RMK SC5CI0 SLP167

CYOW;2009-05-17 13:00;CYOW 171300Z 28017G22KT 15SM BKN044 06/M04 A3003 RMK SC7 SLP173

CYOW;2009-05-17 14:00;CYOW 171400Z 28017KT 15SM BKN046 06/M04 A3004 RMK SC7 SLP176

CYOW;2009-05-17 15:00;CYOW 171500Z 26016KT 15SM BKN052 07/M03 A3005 RMK SC7 SLP177

CYOW;2009-05-17 16:00;CYOW 171600Z 27014G24KT 15SM BKN057 BKN240 09/M02 A3005 RMK SC5CI1 SLP177

CYOW;2009-05-17 17:00;CYOW 171700Z 27014G20KT 15SM BKN058 09/M03 A3005 RMK SC6 SLP178

CYOW;2009-05-17 18:00;CYOW 171800Z 27016G22KT 15SM BKN055 09/M03 A3005 RMK SC6 SLP181

CYOW;2009-05-17 19:00;CYOW 171900Z 26014G19KT 15SM OVC060 09/M03 A3005 RMK SC8 SLP181

CYOW;2009-05-17 20:00;CYOW 172000Z 27013KT 15SM SCT055 BKN070 09/M02 A3006 RMK SC3AC4 SLP182

CYOW;2009-05-17 21:00;CYOW 172100Z 31016KT 15SM FEW053 BKN070 11/M02 A3007 RMK CU2AC3 SLP187

CYOW;2009-05-17 22:00;CYOW 172200Z 29013KT 15SM FEW053 BKN072 09/M03 A3009 RMK CU2AC4 SLP192

CYOW;2009-05-17 23:00;CYOW 172300Z 28011G16KT 15SM FEW055 BKN067 BKN250 08/M02 A3011 RMK CU1AC6CI0 SLP198

CYOW;2009-05-18 00:00;CYOW 180000Z 29010KT 15SM BKN065 BKN250 08/M02 A3013 RMK SC6CI0 SLP206

CYOW;2009-05-18 01:00;CYOW 180100Z 27004KT 15SM BKN065 BKN250 07/M02 A3014 RMK SC6CI0 SLP211

CYOW;2009-05-18 02:00;CYOW 180200Z 25004KT 15SM BKN065 06/M01 A3016 RMK SC7 SLP217

CYOW;2009-05-18 03:00;CYOW 180300Z 26004KT 15SM OVC065 06/M01 A3017 RMK SC8 SLP220

CYOW;2009-05-18 04:00;CYOW 180400Z 26005KT 15SM OVC065 06/M01 A3018 RMK SC8 SLP223

CYOW;2009-05-18 05:00;CYOW 180500Z 27005KT 15SM OVC065 06/M01 A3019 RMK SC8 SLP228

CYOW;2009-05-18 06:00;CYOW 180600Z 33012KT 15SM OVC065 06/M03 A3020 RMK SC8 SLP232

CYOW;2009-05-18 07:00;CYOW 180700Z 33009KT 15SM OVC065 05/M03 A3022 RMK SC8 SLP237

CYOW;2009-05-18 08:00;CYOW 180800Z 33007KT 15SM BKN065 04/M04 A3024 RMK SC5 SLP243

CYOW;2009-05-18 08:20;CYOW 180820Z 32006KT 15SM SCT065 02/ RMK SC3

CYOW;2009-05-18 09:00;CYOW 180900Z 31007KT 15SM FEW065 FEW220 01/M05 A3025 RMK SC2CI1 SLP248

CYOW;2009-05-18 10:00;CYOW 181000Z 31006KT 15SM FEW065 FEW220 01/M04 A3028 RMK SC1CI1 SLP256

CYOW;2009-05-18 11:00;CYOW 181100Z 33009KT 15SM FEW065 FEW220 04/M04 A3030 RMK SC1CI1 SLP265

CYOW;2009-05-18 12:00;CYOW 181200Z 34008KT 15SM FEW070 05/M04 A3033 RMK AC1 SLP274

CYOW;2009-05-18 13:00;CYOW 181300Z 33008KT 15SM FEW070 06/M04 A3033 RMK AC1 SLP275

CYOW;2009-05-18 14:00;CYOW 181400Z 29007KT 15SM FEW020 FEW070 08/M04 A3033 RMK CF1AC1 SLP276

CYOW;2009-05-18 15:00;CYOW 181500Z 36008KT 15SM FEW020 FEW070 09/M05 A3033 RMK CF1AC1 SLP273

CYOW;2009-05-18 16:00;CYOW 181600Z 29006KT 15SM FEW030 FEW070 09/M03 A3032 RMK CU1AC1 SLP271

CYOW;2009-05-18 17:00;CYOW 181700Z 26006KT 15SM FEW030 FEW070 10/M03 A3031 RMK CU1AC1 SLP266

CYOW;2009-05-18 18:00;CYOW 181800Z 30004KT 15SM FEW040 FEW080 12/M03 A3029 RMK CU1AC1 TR CLDS SLP260

CYOW;2009-05-18 19:00;CYOW 181900Z 30009G15KT 15SM FEW040 FEW080 12/M03 A3028 RMK CU1AC1 TR CLDS SLP259

CYOW;2009-05-18 20:00;CYOW 182000Z 28008KT 15SM FEW050 13/M02 A3026 RMK CU1 SLP252

CYOW;2009-05-18 21:00;CYOW 182100Z 20004KT 15SM SKC 14/M03 A3025 RMK SLP249

CYOW;2009-05-18 22:00;CYOW 182200Z 22002KT 15SM SKC 14/M04 A3025 RMK SLP249

CYOW;2009-05-18 23:00;CYOW 182300Z 27007KT 15SM SKC 14/M09 A3027 RMK SLP253

CYOW;2009-05-19 00:00;CYOW 190000Z 24003KT 15SM FEW150 13/M07 A3027 RMK AC1 SLP253

CYOW;2009-05-19 01:00;CYOW 190100Z 18003KT 15SM FEW150 11/M07 A3027 RMK AC1 SLP254

CYOW;2009-05-19 02:00;CYOW 190200Z 19005KT 15SM FEW150 09/00 A3029 RMK AC1 SLP260

CYOW;2009-05-19 03:00;CYOW 190300Z 19005KT 15SM SKC 08/00 A3029 RMK SLP261

CYOW;2009-05-19 04:00;CYOW 190400Z 18005KT 15SM SKC 06/M00 A3029 RMK SLP261

CYOW;2009-05-19 05:00;CYOW 190500Z 21005KT 15SM SKC 06/M01 A3029 RMK SLP260

CYOW;2009-05-19 06:00;CYOW 190600Z 21005KT 15SM SKC 05/M01 A3028 RMK SLP258

CYOW;2009-05-19 07:00;CYOW 190700Z 20004KT 15SM SKC 05/M01 A3028 RMK SLP259

CYOW;2009-05-19 08:00;CYOW 190800Z 20005KT 15SM SKC 04/M01 A3028 RMK SLP256

CYOW;2009-05-19 09:00;CYOW 190900Z CCA 19003KT 15SM FEW150 04/M01 A3028 RMK AC1 SLP258

CYOW;2009-05-19 10:00;CYOW 191000Z 20005KT 15SM FEW190 04/M01 A3030 RMK AC2 SLP263

CYOW;2009-05-19 11:00;CYOW 191100Z 20008KT 15SM BKN140 07/00 A3029 RMK AC6 SLP262

CYOW;2009-05-19 12:00;CYOW 191200Z 20011G16KT 15SM BKN140 10/01 A3028 RMK AC5 SLP258

CYOW;2009-05-19 13:00;CYOW 191300Z 21011G17KT 15SM BKN110 BKN130 12/00 A3029 RMK AC5AC2 SLP261

CYOW;2009-05-19 14:00;CYOW 191400Z 20011G19KT 15SM BKN100 BKN130 12/01 A3027 RMK AC5AC1 SLP252

CYOW;2009-05-19 15:00;CYOW 191500Z 21014G21KT 15SM FEW090 BKN140 15/00 A3025 RMK AC2AC3 SLP246

CYOW;2009-05-19 16:00;CYOW 191600Z 20018G24KT 15SM BKN090 OVC130 16/M01 A3024 RMK AC6AC2 SLP242

CYOW;2009-05-19 17:00;CYOW 191700Z 20016G22KT 15SM BKN079 OVC100 16/M00 A3022 RMK AC6AC2 SLP238

CYOW;2009-05-19 18:00;CYOW 191800Z 21015G21KT 15SM BKN080 OVC100 17/01 A3022 RMK AC6AC2 SLP236

CYOW;2009-05-19 19:00;CYOW 191900Z 20011KT 15SM SCT040 OVC080 16/06 A3021 RMK SC3AC5 SLP232

CYOW;2009-05-19 20:00;CYOW 192000Z 22014G22KT 15SM BKN045 BKN070 18/04 A3019 RMK SC5AC2 SLP227

CYOW;2009-05-19 21:00;CYOW 192100Z 20009G16KT 15SM FEW045 BKN075 18/03 A3018 RMK SC2AC6 SLP224

CYOW;2009-05-19 22:00;CYOW 192200Z 22009KT 15SM FEW045 BKN072 18/03 A3019 RMK SC2AC6 SLP225

CYOW;2009-05-19 22:28;CYOW 192228Z 31011KT 15SM -RA OVC071 16/ RMK AC8

CYOW;2009-05-19 23:00;CYOW 192300Z 31010G15KT 15SM -RA OVC068 14/08 A3023 RMK AC8 SLP240

CYOW;2009-05-19 23:23;CYOW 192323Z 30011KT 15SM OVC069 14/ RMK AC8

CYOW;2009-05-20 00:00;CYOW 200000Z 30011KT 15SM OVC074 13/08 A3025 RMK AC8 SLP245

CYOW;2009-05-20 01:00;CYOW 200100Z 28006KT 15SM OVC067 12/08 A3026 RMK AC8 SLP250

CYOW;2009-05-20 02:00;CYOW 200200Z 28008KT 15SM OVC068 12/08 A3028 RMK AC8 SLP256

CYOW;2009-05-20 03:00;CYOW 200300Z 31007KT 15SM FEW020 OVC065 11/08 A3029 RMK SC1SC7 SLP260

CYOW;2009-05-20 04:00;CYOW 200400Z 32007KT 15SM SCT021 OVC072 11/08 A3031 RMK SC3AC5 SLP266

CYOW;2009-05-20 05:00;CYOW 200500Z 36006KT 15SM FEW016 FEW022 OVC072 11/08 A3030 RMK SC1SC2AC6 SLP263

CYOW;2009-05-20 06:00;CYOW 200600Z 01008KT 15SM FEW020 OVC075 10/07 A3031 RMK SC1AC7 SLP265

CYOW;2009-05-20 07:00;CYOW 200700Z 01005KT 15SM OVC072 09/05 A3032 RMK AC8 SLP270

CYOW;2009-05-20 08:00;CYOW 200800Z 02006KT 15SM FEW070 OVC170 08/05 A3033 RMK AC2AC6 SLP273

CYOW;2009-05-20 09:00;CYOW 200900Z 02005KT 15SM OVC067 08/05 A3033 RMK AC8 SLP273

CYOW;2009-05-20 10:00;CYOW 201000Z 04004KT 15SM OVC064 08/05 A3034 RMK SC8 SLP276

CYOW;2009-05-20 11:00;CYOW 201100Z 04005KT 15SM BKN070 BKN120 08/05 A3036 RMK AC5AC2 SLP283

CYOW;2009-05-20 11:41;CYOW 201141Z 05006KT 12SM -RA OVC040 08/ RMK SC8

CYOW;2009-05-20 12:00;CYOW 201200Z 07006KT 12SM -RA BKN043 OVC110 08/06 A3036 RMK SC5AC3 SLP286

CYOW;2009-05-20 12:37;CYOW 201237Z 06006KT 15SM SCT045 OVC110 08/ RMK SC3AC5

CYOW;2009-05-20 13:00;CYOW 201300Z 05006KT 15SM SCT045 OVC100 08/05 A3038 RMK SC3AC5 SLP291

CYOW;2009-05-20 13:39;CYOW 201339Z 03005KT 10SM -RA BKN021 OVC100 08/ RMK SC6AC2

CYOW;2009-05-20 14:00;CYOW 201400Z 08007KT 12SM -RA BKN047 BKN062 OVC100 07/06 A3035 RMK SC5SC2AC2 SLP280

CYOW;2009-05-20 15:00;CYOW 201500Z 09006KT 15SM -RA FEW010 BKN040 OVC100 08/06 A3035 RMK SF1SC4AC3 SLP281

CYOW;2009-05-20 15:36;CYOW 201536Z 09005KT 15SM BKN008 BKN040 OVC100 09/ RMK SF5SC2AC1

CYOW;2009-05-20 16:00;CYOW 201600Z 09006KT 15SM BKN008 BKN040 OVC100 09/08 A3034 RMK SF5SC2AC1 SLP276

CYOW;2009-05-20 17:00;CYOW 201700Z 14006KT 15SM BKN008 OVC020 11/09 A3028 RMK SF6SC2 SLP259

CYOW;2009-05-20 17:35;CYOW 201735Z 13006KT 15SM BKN012 OVC040 12/ RMK SF5SC3 A CIG 17

CYOW;2009-05-20 18:00;CYOW 201800Z 11006KT 15SM BKN018 BKN060 13/10 A3024 RMK SC5SC1 SLP243

CYOW;2009-05-20 19:00;CYOW 201900Z 14005KT 15SM BKN200 18/12 A3019 RMK CI2 SLP226

CYOW;2009-05-20 20:00;CYOW 202000Z 16005KT 15SM FEW220 21/12 A3015 RMK CI0 SLP213

CYOW;2009-05-20 21:00;CYOW 202100Z 20013KT 15SM FEW220 24/10 A3011 RMK CI1 SLP198

CYOW;2009-05-20 22:00;CYOW 202200Z 21012KT 15SM FEW220 24/09 A3010 RMK CI1 SLP193

CYOW;2009-05-20 23:00;CYOW 202300Z 23012G17KT 15SM FEW230 24/06 A3009 RMK CI1 SLP191

CYOW;2009-05-21 00:00;CYOW 210000Z 21010KT 15SM SCT230 23/05 A3008 RMK CI1 SLP188

CYOW;2009-05-21 01:00;CYOW 210100Z 21006KT 15SM FEW230 20/05 A3008 RMK CI1 SLP189

CYOW;2009-05-21 02:00;CYOW 210200Z 20005KT 15SM FEW230 19/04 A3009 RMK CI1 SLP190

CYOW;2009-05-21 03:00;CYOW 210300Z 17004KT 15SM SKC 18/04 A3008 RMK SLP190

CYOW;2009-05-21 04:00;CYOW 210400Z 20007KT 15SM SKC 16/05 A3008 RMK SLP189

CYOW;2009-05-21 05:00;CYOW 210500Z 20006KT 15SM SKC 16/05 A3007 RMK SLP186

CYOW;2009-05-21 06:00;CYOW 210600Z 19007KT 15SM SKC 15/05 A3008 RMK SLP186

CYOW;2009-05-21 07:00;CYOW 210700Z 19006KT 15SM SKC 14/06 A3008 RMK SLP186

CYOW;2009-05-21 08:00;CYOW 210800Z 21006KT 15SM SKC 14/06 A3008 RMK SLP186

CYOW;2009-05-21 09:00;CYOW 210900Z 21008KT 15SM FEW230 13/05 A3008 RMK CI1 SLP188

CYOW;2009-05-21 10:00;CYOW 211000Z 22007KT 15SM FEW200 OVC240 14/05 A3010 RMK CI1CI2 SLP194

CYOW;2009-05-21 11:00;CYOW 211100Z 21009KT 15SM FEW200 BKN240 16/06 A3010 RMK CI1CI0 SLP194

CYOW;2009-05-21 12:00;CYOW 211200Z 22010G16KT 15SM FEW200 SCT240 18/07 A3010 RMK CI1CI0 SLP194

CYOW;2009-05-21 13:00;CYOW 211300Z 23011KT 15SM FEW240 22/08 A3009 RMK CI0 SLP189

CYOW;2009-05-21 14:00;CYOW 211400Z 21009G15KT 15SM FEW240 24/08 A3007 RMK CI0 SLP184

CYOW;2009-05-21 15:00;CYOW 211500Z 23013G20KT 15SM FEW240 26/08 A3005 RMK CI0 SLP175

CYOW;2009-05-21 16:00;CYOW 211600Z 22014G20KT 15SM FEW240 27/08 A3002 RMK CI0 SLP167

CYOW;2009-05-21 17:00;CYOW 211700Z 23017KT 15SM FEW270 28/09 A3000 RMK CI1 SLP160

CYOW;2009-05-21 18:00;CYOW 211800Z 20014G21KT 15SM FEW270 27/11 A2999 RMK CI1 SLP154

CYOW;2009-05-21 19:00;CYOW 211900Z 21018KT 15SM FEW270 28/10 A2997 RMK CI1 SLP148

CYOW;2009-05-21 20:00;CYOW 212000Z 20018G25KT 15SM FEW270 29/09 A2995 RMK CI1 SLP142

CYOW;2009-05-21 21:00;CYOW 212100Z 21019G28KT 15SM FEW270 28/09 A2994 RMK CI1 SLP138

CYOW;2009-05-21 22:00;CYOW 212200Z 22016G26KT 15SM FEW270 27/09 A2993 RMK CI1 SLP135

CYOW;2009-05-21 23:00;CYOW 212300Z 21016G22KT 15SM FEW220 FEW270 26/09 A2993 RMK CI1CI0 SLP135

CYOW;2009-05-22 00:00;CYOW 220000Z 22013KT 15SM FEW200 FEW240 FEW270 25/09 A2994 RMK CI1CI2CI0 SLP137

CYOW;2009-05-22 01:00;CYOW 220100Z 21011G16KT 15SM FEW200 FEW240 SCT270 23/09 A2994 RMK CI1CI1CI0 SLP139

CYOW;2009-05-22 02:00;CYOW 220200Z 22011KT 15SM FEW240 22/09 A2996 RMK CI1 SLP144

CYOW;2009-05-22 03:00;CYOW 220300Z 23008KT 15SM SKC 21/08 A2996 RMK SLP147

CYOW;2009-05-22 04:00;CYOW 220400Z 22009KT 15SM SKC 20/08 A2996 RMK SLP146

CYOW;2009-05-22 05:00;CYOW 220500Z 22008KT 15SM SKC 20/08 A2996 RMK SLP146

CYOW;2009-05-22 06:00;CYOW 220600Z 23006KT 15SM SKC 19/09 A2996 RMK SLP145

CYOW;2009-05-22 07:00;CYOW 220700Z 30006KT 15SM SCT230 16/09 A2999 RMK CI1 SLP156

CYOW;2009-05-22 08:00;CYOW 220800Z 33009KT 15SM SCT240 17/12 A3001 RMK CI0 SLP163

CYOW;2009-05-22 09:00;CYOW 220900Z 35010G16KT 15SM FEW050 SCT070 BKN240 16/11 A3004 RMK SC1AC4CI0 SLP173

CYOW;2009-05-22 10:00;CYOW 221000Z 34008KT 15SM FEW050 FEW070 BKN090 BKN120 BKN240 15/10 A3008 RMK SC1AC1AC5AC1CI1 SLP185

CYOW;2009-05-22 11:00;CYOW 221100Z 33008KT 15SM FEW070 BKN085 BKN120 15/09 A3011 RMK AC2AC4AC2 SLP194

CYOW;2009-05-22 12:00;CYOW 221200Z 36007KT 15SM FEW070 BKN090 BKN120 15/07 A3013 RMK AC2AC4AC2 SLP202

CYOW;2009-05-22 13:00;CYOW 221300Z 36009KT 15SM FEW060 BKN100 BKN120 15/07 A3016 RMK SC2AC4AC1 SLP212

CYOW;2009-05-22 13:28;CYOW 221328Z 34007KT 15SM -RA SCT060 BKN100 BKN120 15/ RMK SC3AC3AC1

CYOW;2009-05-22 14:00;CYOW 221400Z 33010KT 15SM -RA FEW020 BKN050 OVC120 14/09 A3018 RMK SC2SC5AC1 SLP221

CYOW;2009-05-22 14:15;CYOW 221415Z 33008KT 15SM FEW020 SCT050 OVC095 14/ RMK SC2SC2AC4

CYOW;2009-05-22 14:46;CYOW 221446Z 35009KT 15SM -RA BKN050 BKN095 OVC120 13/ RMK SC5AC2AC1

CYOW;2009-05-22 15:00;CYOW 221500Z 34005KT 15SM -RA SCT050 BKN100 OVC120 13/08 A3019 RMK SC4AC3AC1 SLP224

CYOW;2009-05-22 15:26;CYOW 221526Z 31005KT 15SM FEW050 SCT090 OVC110 13/ RMK SC2AC2AC4

CYOW;2009-05-22 16:00;CYOW 221600Z 30008KT 15SM FEW050 SCT090 OVC110 14/08 A3019 RMK SC2AC2AC4 SLP224

CYOW;2009-05-22 17:00;CYOW 221700Z 32009KT 15SM BKN059 BKN100 16/06 A3019 RMK SC5AC2 SLP225

CYOW;2009-05-22 18:00;CYOW 221800Z 28006KT 15SM SCT050 BKN120 17/08 A3019 RMK SC3AC4 SLP224

CYOW;2009-05-22 19:00;CYOW 221900Z CCA 31010KT 15SM FEW040 FEW100 17/07 A3019 RMK CU1AC1 CU TR SLP224

CYOW;2009-05-22 20:00;CYOW 222000Z 31004KT 15SM FEW040 18/07 A3018 RMK CU1 SLP222

CYOW;2009-05-22 21:00;CYOW 222100Z 28004KT 15SM FEW040 19/07 A3018 RMK CU1 SLP220

CYOW;2009-05-22 22:00;CYOW 222200Z 27010KT 15SM FEW050 19/07 A3018 RMK CU1 SLP220

CYOW;2009-05-22 23:00;CYOW 222300Z 28008KT 15SM FEW050 19/06 A3018 RMK CU1 SLP220

CYOW;2009-05-23 00:00;CYOW 230000Z 29004KT 15SM FEW050 FEW250 17/05 A3019 RMK CU1CI1 SLP223

CYOW;2009-05-23 01:00;CYOW 230100Z 30004KT 15SM FEW120 15/05 A3020 RMK AC1 SLP229

CYOW;2009-05-23 02:00;CYOW 230200Z 36004KT 15SM SKC 15/02 A3021 RMK SLP232

CYOW;2009-05-23 03:00;CYOW 230300Z 01007KT 15SM SKC 13/02 A3021 RMK SLP231

CYOW;2009-05-23 04:00;CYOW 230400Z 07006KT 15SM FEW210 13/02 A3022 RMK CI1 SLP236

CYOW;2009-05-23 05:00;CYOW 230500Z 07005KT 15SM SKC 10/03 A3023 RMK SLP238

CYOW;2009-05-23 06:00;CYOW 230600Z 06005KT 15SM SKC 11/02 A3023 RMK SLP238

CYOW;2009-05-23 07:00;CYOW 230700Z 06004KT 15SM SKC 09/02 A3022 RMK SLP237

CYOW;2009-05-23 08:00;CYOW 230800Z 05005KT 15SM FEW120 09/02 A3023 RMK AC1 SLP238

CYOW;2009-05-23 09:00;CYOW 230900Z 05006KT 15SM SCT240 09/02 A3023 RMK CI1 SLP239

CYOW;2009-05-23 10:00;CYOW 231000Z 07010KT 15SM FEW230 BKN240 08/01 A3024 RMK CI2CI0 SLP242

CYOW;2009-05-23 11:00;CYOW 231100Z 07010KT 15SM BKN250 BKN280 08/02 A3025 RMK CI3CI3 SLP245

CYOW;2009-05-23 12:00;CYOW 231200Z 08009KT 15SM FEW250 BKN280 09/03 A3025 RMK CI2CS2 HALO SLP245

CYOW;2009-05-23 13:00;CYOW 231300Z 09010KT 15SM BKN180 BKN250 11/03 A3024 RMK AS5CS2 HALO SLP242

CYOW;2009-05-23 14:00;CYOW 231400Z 09010KT 15SM SCT180 BKN250 13/04 A3022 RMK AS3CS1 HALO SLP234

CYOW;2009-05-23 15:00;CYOW 231500Z 10005KT 15SM BKN180 BKN250 14/05 A3019 RMK AS5CI1 SLP225

CYOW;2009-05-23 16:00;CYOW 231600Z 10004KT 15SM FEW180 BKN250 15/05 A3017 RMK AS2CI3 SLP218

CYOW;2009-05-23 17:00;CYOW 231700Z 09005KT 15SM BKN250 17/05 A3015 RMK CI2 SLP211

CYOW;2009-05-23 18:00;CYOW 231800Z 17005KT 15SM BKN250 18/05 A3012 RMK CI2 SLP200

CYOW;2009-05-23 19:00;CYOW 231900Z 18006KT 15SM FEW250 20/05 A3008 RMK CI1 SLP188

CYOW;2009-05-23 20:00;CYOW 232000Z 18007KT 15SM FEW050 FEW250 21/05 A3005 RMK CU1CI2 TR CU SLP179

CYOW;2009-05-23 21:00;CYOW 232100Z 19004KT 15SM FEW050 FEW160 FEW250 22/06 A3003 RMK CU1AC2CI0 TR CU SLP171

CYOW;2009-05-23 22:00;CYOW 232200Z 19006KT 15SM FEW160 FEW210 SCT250 22/05 A3001 RMK AC2CI1CI0 SLP163

CYOW;2009-05-23 23:00;CYOW 232300Z 18006KT 15SM FEW150 FEW210 SCT250 21/07 A3000 RMK AC1CC1CI1 SLP160

CYOW;2009-05-24 00:00;CYOW 240000Z 19005KT 15SM FEW110 FEW150 SCT250 20/08 A3000 RMK AC1AC2CI0 SLP160

CYOW;2009-05-24 01:00;CYOW 240100Z 17004KT 15SM FEW110 SCT150 BKN250 17/08 A2999 RMK AC2AC2CI1 SLP156

CYOW;2009-05-24 02:00;CYOW 240200Z 17004KT 15SM FEW110 SCT150 BKN250 16/08 A2999 RMK AC2AC1CI1 SLP157

CYOW;2009-05-24 03:00;CYOW 240300Z 19004KT 15SM FEW120 BKN250 16/09 A2999 RMK AC2CI1 SLP156

CYOW;2009-05-24 04:00;CYOW 240400Z 21005KT 15SM SCT130 BKN250 15/10 A2998 RMK AC4CI1 SLP153

CYOW;2009-05-24 05:00;CYOW 240500Z 23007KT 15SM BKN140 15/10 A2996 RMK AC5 SLP149

CYOW;2009-05-24 06:00;CYOW 240600Z 23006KT 15SM BKN130 15/09 A2996 RMK AC6 SLP146

CYOW;2009-05-24 07:00;CYOW 240700Z 23003KT 15SM OVC120 15/10 A2995 RMK AC8 SLP142

CYOW;2009-05-24 08:00;CYOW 240800Z 23004KT 15SM BKN130 14/10 A2994 RMK AC7 SLP141

CYOW;2009-05-24 08:43;CYOW 240843Z 22004KT 15SM -SHRA BKN110 14/ RMK AC7

CYOW;2009-05-24 09:00;CYOW 240900Z 23004KT 15SM BKN110 14/10 A2995 RMK AC7 OCNL -SHRA SLP144

CYOW;2009-05-24 09:39;CYOW 240939Z 23004KT 15SM FEW090 BKN120 14/ RMK ACC2AC5 SHS DIST E

CYOW;2009-05-24 10:00;CYOW 241000Z 22004KT 15SM VCSH FEW092 BKN130 14/11 A2995 RMK ACC2AC5 SLP144

CYOW;2009-05-24 11:00;CYOW 241100Z 23005KT 15SM BKN084 BKN130 14/11 A2996 RMK AC5AC1 SLP146

CYOW;2009-05-24 12:00;CYOW 241200Z 23005KT 15SM FEW080 SCT130 16/11 A2996 RMK AC1AC2 SLP146

CYOW;2009-05-24 13:00;CYOW 241300Z 28010KT 15SM FEW030 FEW080 17/08 A2997 RMK CU1AC2 SLP149

CYOW;2009-05-24 14:00;CYOW 241400Z 27008G15KT 15SM FEW030 FEW080 18/07 A2996 RMK CU1AC1 TR CU SLP148

CYOW;2009-05-24 15:00;CYOW 241500Z 30013KT 15SM FEW040 FEW080 18/09 A2997 RMK CU1AC1 SLP151

CYOW;2009-05-24 16:00;CYOW 241600Z 28015KT 15SM FEW044 19/08 A2997 RMK CU2 SLP151

CYOW;2009-05-24 17:00;CYOW 241700Z 29012G17KT 15SM BKN044 20/09 A2998 RMK CU5 SLP152

CYOW;2009-05-24 18:00;CYOW 241800Z 28015KT 15SM BKN056 21/07 A2997 RMK CU5 SLP150

CYOW;2009-05-24 19:00;CYOW 241900Z 26008G20KT 15SM SCT060 21/07 A2997 RMK CU4 SLP150

CYOW;2009-05-24 20:00;CYOW 242000Z 29012G18KT 15SM FEW060 21/06 A2997 RMK CU2 SLP151

CYOW;2009-05-24 21:00;CYOW 242100Z 29014KT 15SM FEW060 20/04 A2998 RMK CU1 SLP152

CYOW;2009-05-24 22:00;CYOW 242200Z 30014KT 15SM FEW060 20/03 A2997 RMK CU1 SLP151

CYOW;2009-05-24 23:00;CYOW 242300Z 30012KT 15SM FEW070 19/02 A2997 RMK AC1 SLP151

CYOW;2009-05-25 00:00;CYOW 250000Z 30009KT 15SM FEW075 18/02 A2999 RMK AC1 SLP155

CYOW;2009-05-25 01:00;CYOW 250100Z 33006KT 15SM FEW075 14/02 A2999 RMK AC1 SLP157

CYOW;2009-05-25 02:00;CYOW 250200Z 36004KT 15SM SKC 15/00 A3001 RMK SLP164

CYOW;2009-05-25 03:00;CYOW 250300Z 02003KT 15SM SKC 14/00 A3002 RMK SLP167

CYOW;2009-05-25 04:00;CYOW 250400Z 00000KT 15SM FEW090 14/M00 A3003 RMK AC1 SLP172

CYOW;2009-05-25 05:00;CYOW 250500Z 24002KT 15SM SCT090 13/01 A3004 RMK AC3 SLP173

CYOW;2009-05-25 06:00;CYOW 250600Z 22003KT 15SM SCT090 12/02 A3003 RMK AC3 SLP172

CYOW;2009-05-25 07:00;CYOW 250700Z 21004KT 15SM FEW090 10/04 A3002 RMK AC2 SLP169

CYOW;2009-05-25 08:00;CYOW 250800Z 32006KT 15SM SKC 07/04 A3003 RMK SLP172

CYOW;2009-05-25 09:00;CYOW 250900Z 34011KT 15SM FEW090 10/01 A3007 RMK AC1 SLP184

CYOW;2009-05-25 10:00;CYOW 251000Z 35011G17KT 15SM FEW090 FEW250 09/03 A3010 RMK AC1CI0 SLP193

CYOW;2009-05-25 11:00;CYOW 251100Z 34015KT 15SM FEW090 SCT250 09/03 A3014 RMK AC1CI0 SLP206

CYOW;2009-05-25 12:00;CYOW 251200Z 35017KT 15SM FEW090 SCT250 08/M00 A3017 RMK AC1CI0 SLP218

CYOW;2009-05-25 13:00;CYOW 251300Z 32009G18KT 15SM BKN250 09/M03 A3019 RMK CI1 SLP226

CYOW;2009-05-25 14:00;CYOW 251400Z 34012G19KT 15SM BKN250 10/M04 A3019 RMK CI2 SLP226

CYOW;2009-05-25 15:00;CYOW 251500Z 35014KT 15SM FEW210 BKN250 11/M04 A3021 RMK CI2CI1 SLP232

CYOW;2009-05-25 16:00;CYOW 251600Z 35015KT 15SM BKN250 11/M04 A3021 RMK CI2 SLP232

CYOW;2009-05-25 17:00;CYOW 251700Z 34010G18KT 15SM FEW200 SCT220 BKN250 12/M03 A3021 RMK CI2CI2CI0 SLP231

CYOW;2009-05-25 18:00;CYOW 251800Z 35008G17KT 15SM BKN220 BKN250 13/M04 A3020 RMK CI4CI1 SLP229

CYOW;2009-05-25 19:00;CYOW 251900Z 34013G18KT 15SM FEW220 BKN250 14/M03 A3020 RMK CI1CI1 SLP228

CYOW;2009-05-25 20:00;CYOW 252000Z 34012KT 15SM FEW220 BKN250 14/M04 A3019 RMK CI1CI1 SLP226

CYOW;2009-05-25 21:00;CYOW 252100Z 32012KT 15SM FEW240 14/M03 A3019 RMK CI1 SLP226

CYOW;2009-05-25 22:00;CYOW 252200Z 36009KT 15SM FEW240 14/M03 A3020 RMK CI1 SLP228

CYOW;2009-05-25 23:00;CYOW 252300Z 36010KT 15SM BKN240 14/M03 A3021 RMK CI2 SLP231

CYOW;2009-05-26 00:00;CYOW 260000Z 02008KT 15SM SCT240 12/M04 A3022 RMK CI1 SLP236

CYOW;2009-05-26 01:00;CYOW 260100Z 02007KT 15SM FEW240 10/M04 A3024 RMK CI1 SLP242

CYOW;2009-05-26 02:00;CYOW 260200Z 03007KT 15SM SKC 10/M04 A3027 RMK SLP252

CYOW;2009-05-26 03:00;CYOW 260300Z 02006KT 15SM SKC 09/M04 A3028 RMK SLP257

CYOW;2009-05-26 04:00;CYOW 260400Z 03006KT 15SM SKC 08/M04 A3029 RMK SLP260

CYOW;2009-05-26 05:00;CYOW 260500Z 03005KT 15SM SKC 07/M03 A3029 RMK SLP262

CYOW;2009-05-26 06:00;CYOW 260600Z 03006KT 15SM SKC 06/M04 A3030 RMK SLP265

CYOW;2009-05-26 07:00;CYOW 260700Z 04006KT 15SM SKC 06/M03 A3032 RMK SLP270

CYOW;2009-05-26 08:00;CYOW 260800Z 05009KT 15SM FEW180 04/M03 A3032 RMK AC1 SLP270

CYOW;2009-05-26 09:00;CYOW 260900Z 07007KT 15SM FEW180 04/M03 A3034 RMK AC2 SLP276

CYOW;2009-05-26 10:00;CYOW 261000Z 06006KT 15SM SCT180 03/M03 A3035 RMK AC3 SLP281

CYOW;2009-05-26 11:00;CYOW 261100Z 08007KT 15SM BKN180 04/M03 A3035 RMK AC6 SLP280

CYOW;2009-05-26 12:00;CYOW 261200Z 09006KT 15SM BKN170 05/M03 A3036 RMK AC6 SLP285

CYOW;2009-05-26 13:00;CYOW 261300Z 11008KT 15SM BKN170 07/M03 A3036 RMK AC6 SLP283

CYOW;2009-05-26 14:00;CYOW 261400Z 10008KT 15SM BKN170 08/M01 A3034 RMK AC6 SLP276

CYOW;2009-05-26 15:00;CYOW 261500Z 07009KT 15SM FEW170 09/M01 A3032 RMK AC2 SLP272

CYOW;2009-05-26 16:00;CYOW 261600Z 09005KT 15SM FEW170 11/M01 A3031 RMK AC0 SLP268

CYOW;2009-05-26 17:00;CYOW 261700Z 10004KT 15SM FEW170 13/M01 A3028 RMK AC0 SLP256

CYOW;2009-05-26 18:00;CYOW 261800Z 08009KT 15SM FEW120 FEW170 15/M01 A3025 RMK AC1AC0 SLP246

CYOW;2009-05-26 19:00;CYOW 261900Z 09009KT 15SM FEW120 SCT170 16/M02 A3022 RMK AC2AC0 SLP235

CYOW;2009-05-26 20:00;CYOW 262000Z 09009KT 15SM FEW120 BKN170 17/M02 A3019 RMK AC2AC2 SLP225

CYOW;2009-05-26 21:00;CYOW 262100Z 09006KT 15SM FEW120 BKN170 17/00 A3016 RMK AC2AC2 SLP218

CYOW;2009-05-26 22:00;CYOW 262200Z 11006KT 15SM FEW120 SCT170 17/M00 A3015 RMK AC2AC1 SLP212

CYOW;2009-05-26 23:00;CYOW 262300Z 09009KT 15SM FEW170 FEW220 OVC250 16/00 A3014 RMK AC1CI1CI0 SLP208

CYOW;2009-05-27 00:00;CYOW 270000Z 08007KT 15SM FEW170 FEW200 OVC250 14/M00 A3013 RMK AC2CC1CI1 SLP207

CYOW;2009-05-27 01:00;CYOW 270100Z 07006KT 15SM BKN180 OVC250 12/M01 A3013 RMK AC5CI0 SLP205

CYOW;2009-05-27 02:00;CYOW 270200Z 07008KT 15SM BKN180 12/M00 A3012 RMK AC6 SLP203

CYOW;2009-05-27 03:00;CYOW 270300Z 08007KT 15SM BKN170 11/M01 A3011 RMK AC6 SLP198

CYOW;2009-05-27 04:00;CYOW 270400Z 08008KT 15SM FEW170 BKN190 11/M00 A3009 RMK AC1AC7 SLP192

CYOW;2009-05-27 05:00;CYOW 270500Z 08008KT 15SM OVC170 11/01 A3008 RMK AC8 SLP187

CYOW;2009-05-27 06:00;CYOW 270600Z 08008KT 15SM FEW140 OVC160 10/01 A3006 RMK AC1AC7 SLP182

CYOW;2009-05-27 07:00;CYOW 270700Z 09008KT 15SM BKN036 OVC060 10/01 A3003 RMK SC6SC2 SLP172

CYOW;2009-05-27 08:00;CYOW 270800Z 09006KT 15SM OVC022 11/02 A3001 RMK SC8 SLP166

CYOW;2009-05-27 09:00;CYOW 270900Z 09006KT 15SM FEW012 OVC023 11/02 A2999 RMK SC2SC6 SLP156

CYOW;2009-05-27 10:00;CYOW 271000Z 09006KT 15SM FEW012 OVC023 11/04 A2998 RMK SC1SC7 SLP153

CYOW;2009-05-27 11:00;CYOW 271100Z 11005KT 15SM FEW010 OVC018 11/07 A2997 RMK SC1SC7 SLP151

CYOW;2009-05-27 11:33;CYOW 271133Z 13005KT 12SM -RA BKN007 OVC020 11/ RMK SC5SC3 VRY LGT RA

CYOW;2009-05-27 12:00;CYOW 271200Z CCA 11008KT 6SM -RA BR BKN005 OVC015 11/10 A2995 RMK SC5SC3 VRY LGT RA SLP145

CYOW;2009-05-27 13:00;CYOW 271300Z 09006KT 5SM -RA BR BKN005 OVC016 10/09 A2994 RMK SC6SC2 SLP141

CYOW;2009-05-27 14:00;CYOW 271400Z 09005KT 6SM -RA BR BKN004 OVC015 11/10 A2993 RMK SC6SC2 SLP137

CYOW;2009-05-27 15:00;CYOW 271500Z 08004KT 3SM -RA BR BKN004 OVC015 11/11 A2993 RMK SC7SC1 SLP136

CYOW;2009-05-27 16:00;CYOW 271600Z 08007KT 6SM -RA BR BKN004 OVC015 11/11 A2992 RMK SC7SC1 SLP133

CYOW;2009-05-27 17:00;CYOW 271700Z 07006KT 5SM -RA BR OVC003 11/10 A2990 RMK SC8 SLP128

CYOW;2009-05-27 18:00;CYOW 271800Z 07007KT 3SM -RADZ BR OVC005 12/11 A2989 RMK SC8 SLP125

CYOW;2009-05-27 19:00;CYOW 271900Z 05006KT 3SM -RADZ BR OVC005 12/11 A2989 RMK ST8 SLP125

CYOW;2009-05-27 20:00;CYOW 272000Z 05006KT 6SM -RA BR OVC006 12/11 A2989 RMK SC8 SLP124

CYOW;2009-05-27 21:00;CYOW 272100Z 07007KT 6SM -RA BR OVC005 13/12 A2988 RMK SC8 SLP122

CYOW;2009-05-27 22:00;CYOW 272200Z 08009KT 6SM -RA BR OVC003 12/11 A2989 RMK SC8 SLP125

CYOW;2009-05-27 23:00;CYOW 272300Z 06008KT 6SM -RA BR OVC004 11/10 A2989 RMK SC8 SLP125

CYOW;2009-05-28 00:00;CYOW 280000Z 07007KT 6SM -RA BR OVC004 11/10 A2990 RMK SC8 SLP127

CYOW;2009-05-28 01:00;CYOW 280100Z 05008KT 6SM -RA BR OVC004 11/10 A2991 RMK SC8 SLP130

CYOW;2009-05-28 02:00;CYOW 280200Z 07007KT 6SM -RA BR OVC004 11/10 A2991 RMK SC8 SLP132

CYOW;2009-05-28 03:00;CYOW 280300Z 07009KT 6SM -RA BR OVC004 11/10 A2991 RMK SC8 SLP130

CYOW;2009-05-28 04:00;CYOW 280400Z 06008KT 6SM -RA BR OVC002 11/10 A2991 RMK SC8 SLP130

CYOW;2009-05-28 05:00;CYOW 280500Z 06008KT 3SM -RA BR OVC002 11/10 A2990 RMK SC8 SLP126

CYOW;2009-05-28 06:00;CYOW 280600Z CCA 07012KT 3SM BR OVC002 11/10 A2990 RMK ST8 SLP127

CYOW;2009-05-28 07:00;CYOW 280700Z 06011G16KT 3SM BR OVC002 11/10 A2989 RMK ST8 SLP125

CYOW;2009-05-28 08:00;CYOW 280800Z 07014G20KT 3SM -RA BR OVC003 10/10 A2988 RMK SC8 SLP122

CYOW;2009-05-28 08:31;CYOW 280831Z 08012KT 6SM BR OVC004 10/ RMK SC8

CYOW;2009-05-28 09:00;CYOW 280900Z 08009KT 7SM OVC007 10/09 A2988 RMK SC8 SLP122

CYOW;2009-05-28 10:00;CYOW 281000Z 08010G16KT 10SM OVC006 10/09 A2989 RMK SC8 SLP123

CYOW;2009-05-28 11:00;CYOW 281100Z 08014KT 10SM OVC009 10/09 A2988 RMK SC8 SLP122

CYOW;2009-05-28 12:00;CYOW 281200Z CCA 09012G17KT 12SM OVC009 10/09 A2989 RMK SC8 SLP123

CYOW;2009-05-28 13:00;CYOW 281300Z 09013G18KT 15SM OVC009 11/09 A2988 RMK SC8 SLP120

CYOW;2009-05-28 13:20;CYOW 281320Z 09016KT 15SM BKN011 OVC025 11/ RMK SC6SC2

CYOW;2009-05-28 14:00;CYOW 281400Z 08014KT 15SM BKN012 OVC025 11/09 A2987 RMK SC6SC2 SLP116

CYOW;2009-05-28 15:00;CYOW 281500Z 08012KT 15SM BKN013 OVC025 12/09 A2984 RMK SC6SC2 SLP107

CYOW;2009-05-28 16:00;CYOW 281600Z 09013KT 15SM BKN014 OVC025 13/10 A2983 RMK SC6SC2 SLP103

CYOW;2009-05-28 16:41;CYOW 281641Z 09010G15KT 12SM -RA BKN017 OVC025 13/ RMK SC6SC2

CYOW;2009-05-28 17:00;CYOW 281700Z CCA 09009KT 12SM -RA BKN019 OVC030 13/11 A2981 RMK SC6SC2 SLP097

CYOW;2009-05-28 17:48;CYOW 281748Z 10009G15KT 15SM OVC018 13/ RMK SC8

CYOW;2009-05-28 18:00;CYOW 281800Z 09010KT 15SM -RA OVC018 13/12 A2979 RMK SC8 VRY LGT RA SLP091

CYOW;2009-05-28 19:00;CYOW 281900Z 09012KT 15SM -RA BKN011 OVC020 13/12 A2977 RMK SC6SC2 SLP084

CYOW;2009-05-28 20:00;CYOW 282000Z 09010G15KT 15SM -RA BKN010 OVC020 13/12 A2975 RMK SC6SC2 VRY LGT RA SLP076

CYOW;2009-05-28 21:00;CYOW 282100Z 09009KT 15SM -RA BKN010 OVC020 13/12 A2973 RMK SC6SC2 SLP070

CYOW;2009-05-28 22:00;CYOW 282200Z 09010KT 15SM -RA BKN009 OVC020 13/12 A2971 RMK SC6SC2 SLP062

CYOW;2009-05-28 23:00;CYOW 282300Z 07007KT 10SM -RA OVC007 13/12 A2970 RMK SC8 VRY LGT RA SLP059

CYOW;2009-05-29 00:00;CYOW 290000Z 08007KT 10SM OVC006 13/12 A2969 RMK SC8 SLP055

CYOW;2009-05-29 01:00;CYOW 290100Z 06007KT 10SM OVC005 13/12 A2968 RMK SC8 SLP051

CYOW;2009-05-29 01:15;CYOW 290115Z 06007KT 12SM OVC004 13/ RMK SC8

CYOW;2009-05-29 02:00;CYOW 290200Z 06007KT 12SM OVC003 13/12 A2966 RMK SC8 SLP047

CYOW;2009-05-29 02:38;CYOW 290238Z 07008KT 12SM OVC002 13/ RMK ST8

CYOW;2009-05-29 03:00;CYOW 290300Z 07006KT 5SM -RA BR OVC001 13/12 A2964 RMK ST8 SLP038

CYOW;2009-05-29 04:00;CYOW 290400Z 07007KT 5SM -RA BR FEW002 OVC005 13/12 A2962 RMK SF2SC6 SLP031

CYOW;2009-05-29 04:13;CYOW 290413Z 07006KT 5SM -RA BR OVC002 13/ RMK ST8 VRY LGT RA

CYOW;2009-05-29 05:00;CYOW 290500Z 08005KT 4SM -RA BR OVC001 14/13 A2960 RMK ST8 SLP025

CYOW;2009-05-29 06:00;CYOW 290600Z 08004KT 2 1/2SM -RA BR OVC002 14/13 A2958 RMK ST8 SLP018

CYOW;2009-05-29 07:00;CYOW 290700Z 07005KT 1 1/2SM -RA BR OVC002 14/13 A2956 RMK FG1ST7 SLP011

CYOW;2009-05-29 08:00;CYOW 290800Z 14005KT 4SM -RA BR SCT001 OVC005 15/14 A2954 RMK SF3SC5 SLP004

CYOW;2009-05-29 09:00;CYOW 290900Z 18008KT 5SM -RA BR BKN004 OVC030 17/16 A2953 RMK SC6SC2 SLP000

CYOW;2009-05-29 09:30;CYOW 290930Z 20008KT 5SM -RADZ BR OVC004 17/ RMK SC8

CYOW;2009-05-29 10:00;CYOW 291000Z 22008KT 4SM -RA BR OVC004 17/16 A2953 RMK SC8 SLP000

CYOW;2009-05-29 10:23;CYOW 291023Z 22009KT 5SM BR OVC004 17/ RMK SC8

CYOW;2009-05-29 11:00;CYOW 291100Z 22007KT 10SM OVC006 17/16 A2955 RMK SC8 SLP007

CYOW;2009-05-29 12:00;CYOW 291200Z 23005KT 10SM BKN005 OVC020 17/16 A2955 RMK SC7SC1 SLP009

CYOW;2009-05-29 13:00;CYOW 291300Z 25006KT 15SM BKN009 OVC020 18/16 A2956 RMK SC5SC3 SLP011

CYOW;2009-05-29 14:00;CYOW 291400Z 27004KT 15SM SCT010 BKN016 OVC030 17/16 A2956 RMK SC3SC4SC1 SLP012

CYOW;2009-05-29 14:14;CYOW 291414Z 30005KT 15SM -RA SCT010 BKN016 OVC030 17/ RMK SC3SC4SC1

CYOW;2009-05-29 14:52;CYOW 291452Z 00000KT 3SM -RA BR FEW006 BKN012 OVC030 16/ RMK SF2SC5SC1

CYOW;2009-05-29 15:00;CYOW 291500Z 30005KT 6SM -RA BR FEW006 BKN012 OVC030 16/15 A2956 RMK SF2SC5SC1 SLP012

CYOW;2009-05-29 16:00;CYOW 291600Z 29007KT 3SM -RA BR FEW006 BKN013 OVC030 15/14 A2957 RMK SF2SC6SC1 SLP015

CYOW;2009-05-29 16:55;CYOW 291655Z 27005KT 3SM -RADZ BR BKN006 OVC013 16/ RMK SF6SC2

CYOW;2009-05-29 17:00;CYOW 291700Z 27006KT 3SM -RADZ BR BKN006 OVC013 15/15 A2959 RMK SF6SC2 SLP020

CYOW;2009-05-29 18:00;CYOW 291800Z 26008KT 12SM -RA BKN008 BKN012 OVC030 15/14 A2960 RMK SF5SC2SC2 SLP024

CYOW;2009-05-29 18:40;CYOW 291840Z 26007KT 15SM SCT008 BKN014 OVC030 16/ RMK SF3SC3SC2

CYOW;2009-05-29 19:00;CYOW 291900Z 27010KT 15SM FEW010 BKN015 OVC030 16/14 A2961 RMK SF2SC3SC3 SLP028

CYOW;2009-05-29 20:00;CYOW 292000Z 29014KT 15SM FEW010 SCT015 OVC034 16/13 A2962 RMK SF2SC2SC4 SLP030

CYOW;2009-05-29 21:00;CYOW 292100Z 29011KT 15SM SCT020 BKN039 17/13 A2963 RMK SC3SC2 SH DIST S-NE SLP034

CYOW;2009-05-29 22:00;CYOW 292200Z 29013KT 15SM SCT020 BKN041 16/12 A2965 RMK SC3SC4 SLP040

CYOW;2009-05-29 23:00;CYOW 292300Z 29010G15KT 15SM SCT020 OVC036 15/12 A2968 RMK SC3SC5 SLP050

CYOW;2009-05-30 00:00;CYOW 300000Z 30006KT 15SM BKN038 15/12 A2968 RMK SC6 SLP053

CYOW;2009-05-30 01:00;CYOW 300100Z 27005KT 15SM FEW043 13/11 A2970 RMK SC2 SLP058

CYOW;2009-05-30 02:00;CYOW 300200Z 26005KT 15SM FEW040 13/10 A2971 RMK SC1 SLP061

CYOW;2009-05-30 03:00;CYOW 300300Z 28004KT 15SM FEW040 12/10 A2971 RMK SC1 SLP061

CYOW;2009-05-30 04:00;CYOW 300400Z 29003KT 15SM FEW100 11/10 A2971 RMK AC2 SLP061

CYOW;2009-05-30 05:00;CYOW 300500Z 29003KT 15SM SCT120 OVC180 11/10 A2970 RMK AC3AC5 SLP058

CYOW;2009-05-30 05:45;CYOW 300545Z 19003KT 12SM -RA FEW030 BKN052 OVC064 11/ RMK SC2SC2SC3

CYOW;2009-05-30 06:00;CYOW 300600Z 21003KT 12SM -RA FEW060 OVC080 11/10 A2968 RMK SC1AC7 SLP054

CYOW;2009-05-30 06:30;CYOW 300630Z 00000KT 15SM FEW048 OVC130 11/ RMK SC2AC6

CYOW;2009-05-30 07:00;CYOW 300700Z 24002KT 15SM BKN046 OVC055 11/10 A2967 RMK SC6SC2 SLP048

CYOW;2009-05-30 08:00;CYOW 300800Z 29004KT 10SM -RA OVC043 11/10 A2966 RMK SC8 SLP046

CYOW;2009-05-30 09:00;CYOW 300900Z 30004KT 10SM -RA FEW018 OVC061 11/11 A2965 RMK SC2SC6 SLP043

CYOW;2009-05-30 10:00;CYOW 301000Z 32006KT 12SM FEW008 OVC028 11/11 A2967 RMK SF2SC6 SLP047

CYOW;2009-05-30 10:09;CYOW 301009Z 31008KT 10SM -RA FEW008 SCT013 OVC028 11/ RMK SF1SC3SC4

CYOW;2009-05-30 10:30;CYOW 301030Z 33014KT 2SM -RA BR SCT004 OVC012 11/ RMK SF3NS5

CYOW;2009-05-30 11:00;CYOW 301100Z 36006KT 4SM -RA BR FEW004 SCT010 OVC060 11/10 A2968 RMK SF2SC2NS5 SLP050

CYOW;2009-05-30 12:00;CYOW 301200Z 32012KT 15SM SCT012 BKN090 10/09 A2968 RMK CF3AC4 SLP053

CYOW;2009-05-30 13:00;CYOW 301300Z 33012KT 15SM OVC010 10/08 A2970 RMK SC8 SLP058

CYOW;2009-05-30 14:00;CYOW 301400Z 30013KT 15SM BKN017 11/08 A2971 RMK SC6 SLP063

CYOW;2009-05-30 15:00;CYOW 301500Z 26012KT 15SM BKN020 13/08 A2971 RMK SC7 SLP064

CYOW;2009-05-30 16:00;CYOW 301600Z 27013KT 15SM BKN022 11/07 A2973 RMK SC6 SLP069

CYOW;2009-05-30 17:00;CYOW 301700Z 30011KT 15SM BKN023 12/07 A2973 RMK SC7 SLP069

CYOW;2009-05-30 18:00;CYOW 301800Z 25011KT 15SM BKN025 13/07 A2972 RMK SC7 SLP067

CYOW;2009-05-30 19:00;CYOW 301900Z 27010G15KT 15SM BKN033 14/07 A2971 RMK SC5 SLP062

CYOW;2009-05-30 20:00;CYOW 302000Z 27010KT 15SM SCT036 16/07 A2969 RMK SC3 SLP057

CYOW;2009-05-30 21:00;CYOW 302100Z 25005KT 15SM FEW040 17/07 A2968 RMK SC2 SLP052

CYOW;2009-05-30 22:00;CYOW 302200Z 20006KT 15SM FEW050 18/07 A2965 RMK SC2 SLP044

CYOW;2009-05-30 23:00;CYOW 302300Z 20011G18KT 15SM FEW045 FEW250 18/10 A2965 RMK CU1CI0 SLP041

CYOW;2009-05-31 00:00;CYOW 310000Z 19010G15KT 15SM FEW045TCU FEW090 FEW250 16/09 A2964 RMK TCU1AC1CI0 SLP039

CYOW;2009-05-31 01:00;CYOW 310100Z 19010KT 15SM FEW050TCU FEW090 SCT250 14/08 A2965 RMK TCU1AC1CI2 SLP041

CYOW;2009-05-31 02:00;CYOW 310200Z 19008KT 15SM FEW090 BKN230 14/08 A2965 RMK AC1CI3 SLP041

CYOW;2009-05-31 03:00;CYOW 310300Z 18005KT 15SM FEW065 BKN220 13/07 A2962 RMK SC1CS6 SLP034

CYOW;2009-05-31 04:00;CYOW 310400Z 18008KT 15SM FEW070 SCT130 OVC220 12/07 A2961 RMK AC2AS2CS4 SLP030

CYOW;2009-05-31 05:00;CYOW 310500Z 19006KT 15SM SCT075 BKN100 BKN220 12/07 A2959 RMK AC3AS2CI2 SLP024

CYOW;2009-05-31 06:00;CYOW 310600Z 20005KT 15SM FEW027 BKN075 BKN100 11/08 A2959 RMK SC2AC3AC2 SLP024

CYOW;2009-05-31 07:00;CYOW 310700Z 23008KT 15SM FEW020 BKN075 11/08 A2960 RMK SC2AC2 SLP025

CYOW;2009-05-31 08:00;CYOW 310800Z 23009KT 15SM FEW025 FEW075 10/08 A2960 RMK SC2AC1 CU EMBD SLP027

CYOW;2009-05-31 09:00;CYOW 310900Z 24007KT 15SM FEW025 FEW075 09/08 A2961 RMK SC2AC1 CU EMBD SLP027

CYOW;2009-05-31 10:00;CYOW 311000Z 25009KT 15SM FEW025 SCT050 09/06 A2962 RMK CU2SC2 SLP030

CYOW;2009-05-31 11:00;CYOW 311100Z 26013G18KT 15SM SCT030 09/05 A2963 RMK CU3 TCU ASOCTD SLP035

CYOW;2009-05-31 12:00;CYOW 311200Z 29015KT 15SM FEW020 09/03 A2966 RMK CU2 TCU ASOCTD SLP046

CYOW;2009-05-31 13:00;CYOW 311300Z 30011KT 15SM SCT025 09/02 A2968 RMK CU3 TCU ASOCTD SLP051

CYOW;2009-05-31 14:00;CYOW 311400Z 28010G15KT 15SM FEW030 10/02 A2968 RMK CU2 TCU ASOCTD SLP053

CYOW;2009-05-31 15:00;CYOW 311500Z 29009G16KT 15SM BKN040 09/M00 A2969 RMK CU5 SLP056

CYOW;2009-05-31 16:00;CYOW 311600Z 26010KT 15SM VCSH SCT040 BKN073 11/00 A2969 RMK CU3AC4 TCU ASOCTD SLP055

CYOW;2009-05-31 17:00;CYOW 311700Z 26010KT 15SM VCSH BKN044TCU 11/00 A2969 RMK TCU6 SLP057

CYOW;2009-05-31 17:04;CYOW 311704Z 30017G27KT 12SM -SHRA BKN044TCU 11/ RMK TCU7

CYOW;2009-05-31 18:00;CYOW 311800Z 30014G20KT 15SM BKN015 BKN040 05/02 A2975 RMK SC5CU2 PRESRR SLP079

CYOW;2009-05-31 19:00;CYOW 311900Z 27013KT 15SM SCT020 BKN240 07/03 A2977 RMK CU3CI0 SLP084

CYOW;2009-05-31 20:00;CYOW 312000Z 29016KT 15SM BKN044 BKN240 09/M01 A2978 RMK CU5CI1 SLP089

CYOW;2009-05-31 21:00;CYOW 312100Z 29017G26KT 15SM VCSH BKN045 10/M00 A2981 RMK CU5 SLP098

CYOW;2009-05-31 22:00;CYOW 312200Z 30016G21KT 15SM SCT050 09/M01 A2984 RMK CU4 SH DIST N SLP107

CYOW;2009-05-31 22:43;CYOW 312243Z 29021G31KT 15SM -SHRA SCT052 09/ RMK CU4 TCU ASOCTD

CYOW;2009-05-31 23:00;CYOW 312300Z 30015G20KT 15SM VCSH SCT053 09/M01 A2987 RMK CU3 TCU ASOCTD SLP117

CYOW;2009-06-01 01:00;CYOW 010100Z 28010G16KT 15SM FEW055 08/M01 A2991 RMK SC2 VIRGA SLP132

CYOW;2009-06-01 02:00;CYOW 010200Z 26007KT 15SM FEW055 07/M00 A2994 RMK SC1 SLP140

CYOW;2009-06-01 03:00;CYOW 010300Z 23003KT 15SM FEW055 06/01 A2994 RMK SC2 SLP142

CYOW;2009-06-01 04:00;CYOW 010400Z 28005KT 15SM BKN055 06/01 A2997 RMK SC5 SLP151

CYOW;2009-06-01 05:00;CYOW 010500Z 30006KT 15SM BKN050 BKN250 06/01 A2998 RMK SC6CI0 SLP155

CYOW;2009-06-01 06:00;CYOW 010600Z 28006KT 15SM FEW034 SCT050 06/01 A2999 RMK SC1SC2 SLP159

CYOW;2009-06-01 07:00;CYOW 010700Z 25003KT 15SM FEW034 SCT250 05/01 A3000 RMK SC2CI0 SLP162

CYOW;2009-06-01 08:00;CYOW 010800Z 24003KT 15SM FEW035 BKN250 05/01 A3000 RMK SC2CI2 SLP162

CYOW;2009-06-01 09:00;CYOW 010900Z 22005KT 15SM SCT160 BKN230 04/02 A3001 RMK AC3CI2 SLP165

CYOW;2009-06-01 10:00;CYOW 011000Z 23004KT 15SM SCT160 BKN250 04/01 A3001 RMK AC4CI2 SLP167

CYOW;2009-06-01 11:00;CYOW 011100Z 23005KT 15SM BKN130 OVC240 05/02 A3003 RMK AC5CI1 SLP174

CYOW;2009-06-01 12:00;CYOW 011200Z 25004KT 15SM SCT130 BKN240 06/02 A3004 RMK AC3CI2 SLP177

CYOW;2009-06-01 13:00;CYOW 011300Z 22006KT 15SM BKN220 09/03 A3005 RMK CI3 SLP179

CYOW;2009-06-01 14:00;CYOW 011400Z 24005KT 15SM SCT180 BKN220 12/03 A3004 RMK AC3CI1 SLP175

CYOW;2009-06-01 15:00;CYOW 011500Z 22010G15KT 15SM FEW040 SCT180 OVC220 13/03 A3003 RMK CU2AC2CI2 SLP172

CYOW;2009-06-01 16:00;CYOW 011600Z 23007KT 15SM SCT040 SCT090 OVC180 13/03 A3003 RMK CU3AC1AS4 SLP172

CYOW;2009-06-01 17:00;CYOW 011700Z 22009KT 15SM SCT044 OVC080 13/04 A3003 RMK CU3AS5 SLP172

CYOW;2009-06-01 17:48;CYOW 011748Z 26011KT 12SM -RA OVC040 12/ RMK NS8

CYOW;2009-06-01 18:00;CYOW 011800Z 26007KT 15SM -RA OVC040 12/04 A3002 RMK NS8 SLP170

CYOW;2009-06-01 19:00;CYOW 011900Z 21011KT 15SM -RA FEW040 OVC050 12/05 A3001 RMK CU2NS6 SLP165

CYOW;2009-06-01 20:00;CYOW 012000Z 21008KT 15SM -RA FEW040 OVC063 11/05 A2997 RMK CU2NS6 RA VRY LGT PST 2 HRS SLP152

CYOW;2009-06-01 21:00;CYOW 012100Z 17007KT 5SM -RA BR OVC054 09/06 A2994 RMK NS8 SLP143

CYOW;2009-06-01 22:00;CYOW 012200Z 14004KT 6SM -RA BR OVC052 09/06 A2991 RMK NS8 SLP134

CYOW;2009-06-01 23:00;CYOW 012300Z 02010KT 2SM -RA BR OVC052 08/07 A2993 RMK NS8 SLP139

CYOW;2009-06-02 00:00;CYOW 020000Z 05006KT 4SM -RA BR OVC056 08/06 A2994 RMK NS8 SLP141

CYOW;2009-06-02 01:00;CYOW 020100Z 06006KT 10SM BKN060 OVC070 07/06 A2991 RMK SC6AC2 SLP133

CYOW;2009-06-02 02:00;CYOW 020200Z 05005KT 10SM FEW003 OVC040 08/07 A2992 RMK SF2SC6 SLP136

CYOW;2009-06-02 03:00;CYOW 020300Z CCA 06005KT 10SM FEW003 OVC034 08/07 A2991 RMK SF1SC8 SLP132

CYOW;2009-06-02 04:00;CYOW 020400Z 00000KT 12SM OVC032 08/07 A2992 RMK SC8 SLP135

CYOW;2009-06-02 05:00;CYOW 020500Z 36002KT 12SM OVC036 08/07 A2990 RMK SC8 SLP128

CYOW;2009-06-02 06:00;CYOW 020600Z 23003KT 15SM OVC026 08/07 A2991 RMK SC8 SLP131

CYOW;2009-06-02 07:00;CYOW 020700Z 30004KT 15SM OVC026 08/07 A2994 RMK SC8 SLP142

CYOW;2009-06-02 08:00;CYOW 020800Z 34006KT 15SM FEW006 OVC022 08/07 A2996 RMK SF2SC6 SLP149

CYOW;2009-06-02 09:00;CYOW 020900Z 36003KT 15SM FEW014 OVC020 08/07 A2998 RMK SC2SC6 SLP155

CYOW;2009-06-02 10:00;CYOW 021000Z 31004KT 15SM BKN011 OVC020 08/07 A3000 RMK SC6SC2 SLP161

CYOW;2009-06-02 11:00;CYOW 021100Z 24002KT 15SM BKN011 BKN020 08/07 A3002 RMK SC6SC2 SLP170

CYOW;2009-06-02 12:00;CYOW 021200Z 24003KT 15SM BKN010 BKN020 09/07 A3004 RMK SC6SC1 SLP176

CYOW;2009-06-02 13:00;CYOW 021300Z 25003KT 15SM FEW010 OVC018 09/08 A3006 RMK SC2SC6 SLP182

CYOW;2009-06-02 14:00;CYOW 021400Z 30005KT 15SM FEW010 BKN025 10/08 A3006 RMK SC1SC6 SLP184

CYOW;2009-06-02 15:00;CYOW 021500Z 30005KT 15SM FEW010 BKN031 12/08 A3006 RMK SC1SC6 SLP183

CYOW;2009-06-02 16:00;CYOW 021600Z 31004KT 15SM FEW010 BKN028 13/07 A3006 RMK SC1SC6 SLP182

CYOW;2009-06-02 17:00;CYOW 021700Z 34006KT 15SM FEW025 BKN045 13/07 A3005 RMK SC2SC3 SLP179

CYOW;2009-06-02 18:00;CYOW 021800Z 25002KT 15SM FEW025 BKN043 14/06 A3004 RMK SC2SC5 SLP176

CYOW;2009-06-02 19:00;CYOW 021900Z 26008KT 15SM BKN047 16/06 A3004 RMK SC6 SLP174

CYOW;2009-06-02 20:00;CYOW 022000Z 26008KT 15SM BKN053 16/06 A3004 RMK SC6 SLP174

CYOW;2009-06-02 21:00;CYOW 022100Z 26010KT 15SM FEW050 16/06 A3003 RMK SC2 SLP172

CYOW;2009-06-02 22:00;CYOW 022200Z 28006KT 15SM FEW050 BKN180 15/06 A3003 RMK SC1AC6 SLP172

CYOW;2009-06-02 23:00;CYOW 022300Z 28007KT 15SM FEW050 FEW180 BKN200 15/05 A3003 RMK SC1AC2CS3 SLP173

CYOW;2009-06-03 00:00;CYOW 030000Z 30005KT 15SM FEW070 FEW180 BKN200 BKN240 14/05 A3002 RMK AC1AC1CS2CI2 SLP168

CYOW;2009-06-03 01:00;CYOW 030100Z 27004KT 15SM FEW070 FEW180 SCT200 BKN220 BKN250 13/05 A3001 RMK AC1AC1CS2CC1CI0 SLP165

CYOW;2009-06-03 02:00;CYOW 030200Z 27004KT 15SM FEW150 BKN220 12/05 A3002 RMK AC1CI1 SLP170

CYOW;2009-06-03 03:00;CYOW 030300Z 22003KT 15SM BKN062 11/05 A3003 RMK SC5 SLP172

CYOW;2009-06-03 04:00;CYOW 030400Z 23004KT 15SM BKN062 10/06 A3003 RMK SC6 SLP173

CYOW;2009-06-03 05:00;CYOW 030500Z 29005KT 15SM BKN064 10/06 A3004 RMK SC6 SLP175

CYOW;2009-06-03 06:00;CYOW 030600Z 32005KT 15SM FEW062 09/06 A3004 RMK SC2 SLP176

CYOW;2009-06-03 07:00;CYOW 030700Z 36003KT 15SM SKC 09/05 A3003 RMK SLP171

CYOW;2009-06-03 08:00;CYOW 030800Z 33002KT 15SM FEW060 08/06 A3003 RMK SC1 SLP171

CYOW;2009-06-03 09:00;CYOW 030900Z 29003KT 15SM FEW055 08/06 A3003 RMK SC2 SLP173

CYOW;2009-06-03 10:00;CYOW 031000Z 01002KT 15SM FEW120 FEW220 07/05 A3004 RMK AC1CI1 SLP176

CYOW;2009-06-03 11:00;CYOW 031100Z 19002KT 15SM FEW120 09/07 A3006 RMK AC1 SLP182

CYOW;2009-06-03 12:00;CYOW 031200Z CCA 20002KT 15SM FEW180 11/08 A3007 RMK AC1 SLP184

CYOW;2009-06-03 13:00;CYOW 031300Z 25002KT 15SM FEW180 14/06 A3007 RMK AC1 SLP184

CYOW;2009-06-03 14:00;CYOW 031400Z 26004KT 15SM FEW060 FEW120 FEW180 14/05 A3006 RMK SC1AC1AC1 SLP181

CYOW;2009-06-03 15:00;CYOW 031500Z CCA 27002KT 15SM FEW045 SCT080 SCT240 16/06 A3005 RMK CU1AC0CI1 SLP176

CYOW;2009-06-03 16:00;CYOW 031600Z 20004KT 15SM FEW045 SCT080 SCT240 18/06 A3003 RMK CU1AC1CI0 CU TR SLP170

CYOW;2009-06-03 17:00;CYOW 031700Z 25007KT 15SM SCT045 BKN080 BKN240 18/06 A3000 RMK CU3AC0CI0 SLP161

CYOW;2009-06-03 18:00;CYOW 031800Z 20003KT 15SM BKN050 18/06 A2998 RMK CU6 SLP153

CYOW;2009-06-03 18:18;CYOW 031818Z CCA 21004KT 15SM -RA BKN057 BKN080 18/ RMK CU6AC1

CYOW;2009-06-03 18:53;CYOW 031853Z 35002KT 15SM SCT055 BKN090 18/ RMK CU4AC2

CYOW;2009-06-03 19:00;CYOW 031900Z 31005KT 15SM SCT055 BKN090 19/08 A2995 RMK CU4AC2 SLP145

CYOW;2009-06-03 20:00;CYOW 032000Z CCA 21009KT 15SM SCT055 BKN090 20/07 A2994 RMK CU4AC2 SLP139

CYOW;2009-06-03 21:00;CYOW 032100Z 31002KT 15SM SCT055 BKN100 19/08 A2993 RMK CU3AC2 SLP136

CYOW;2009-06-03 22:00;CYOW 032200Z 29003KT 15SM SCT055 BKN077 20/07 A2992 RMK CU3AC2 SLP133

CYOW;2009-06-03 23:00;CYOW 032300Z 28005KT 15SM SCT060 BKN076 BKN100 20/06 A2992 RMK SC3AC2AC1 TCU SHRA DIST E SLP133

CYOW;2009-06-04 00:00;CYOW 040000Z 29008KT 15SM FEW070 SCT080 SCT100 BKN250 18/04 A2993 RMK AC2AC1AC1CI0 TCU ASOCT SHRA DIST E SLP136

CYOW;2009-06-04 01:00;CYOW 040100Z 36010KT 15SM FEW065TCU FEW080 FEW100 BKN250 16/06 A2994 RMK TCU1AC1AC1CI0 SLP142

CYOW;2009-06-04 02:00;CYOW 040200Z 02008KT 15SM FEW100 SCT250 14/07 A2998 RMK AC2CI0 SLP154

CYOW;2009-06-04 03:00;CYOW 040300Z 02005KT 15SM FEW110 13/07 A3000 RMK AC1 SLP160

CYOW;2009-06-04 04:00;CYOW 040400Z 33002KT 15SM FEW110 11/06 A3001 RMK AC1 SLP163

CYOW;2009-06-04 05:00;CYOW 040500Z 30002KT 15SM SKC 11/06 A3002 RMK SLP166

CYOW;2009-06-04 06:00;CYOW 040600Z 31003KT 15SM SKC 10/06 A3003 RMK SLP170

CYOW;2009-06-04 07:00;CYOW 040700Z 34004KT 15SM SKC 09/05 A3004 RMK SLP175

CYOW;2009-06-04 08:00;CYOW 040800Z 36005KT 15SM FEW110 08/05 A3005 RMK AC1 SLP177

CYOW;2009-06-04 09:00;CYOW 040900Z 01004KT 15SM FEW110 08/05 A3005 RMK AC1 SLP178

CYOW;2009-06-04 10:00;CYOW 041000Z 00000KT 15SM FEW110 08/05 A3006 RMK AC1 SLP182

CYOW;2009-06-04 11:00;CYOW 041100Z 00000KT 15SM FEW110 10/06 A3007 RMK AC1 SLP185

CYOW;2009-06-04 12:00;CYOW 041200Z 11003KT 15SM FEW110 11/05 A3008 RMK AC1 SLP187

CYOW;2009-06-04 13:00;CYOW 041300Z 05003KT 15SM FEW110 13/03 A3008 RMK AC1 SLP189

CYOW;2009-06-04 14:00;CYOW 041400Z 32002KT 15SM FEW045 FEW120 FEW200 15/03 A3008 RMK CU1AC1CI0 SLP188

CYOW;2009-06-04 15:00;CYOW 041500Z 34002KT 15SM FEW045 FEW120 FEW200 16/02 A3008 RMK CU1AC1CI0 SLP186

CYOW;2009-06-04 16:00;CYOW 041600Z 28008G18KT 15SM FEW045 FEW120 FEW200 16/02 A3007 RMK CU1AC1CI0 SLP183

CYOW;2009-06-04 17:00;CYOW 041700Z 36003KT 15SM FEW045 FEW160 SCT200 16/01 A3005 RMK CU1AC1CI0 CU TR SLP179

CYOW;2009-06-04 18:00;CYOW 041800Z 33008KT 15SM FEW060 FEW240 18/01 A3004 RMK CU1CI1 SLP173

CYOW;2009-06-04 19:00;CYOW 041900Z 30005KT 15SM FEW065 18/02 A3002 RMK CU2 SLP169

CYOW;2009-06-04 20:00;CYOW 042000Z 31006KT 15SM FEW065 18/02 A3001 RMK CU1 SLP163

CYOW;2009-06-04 21:00;CYOW 042100Z 24004KT 15SM FEW075 FEW250 19/02 A2999 RMK CU1CI0 SLP159

CYOW;2009-06-04 22:00;CYOW 042200Z 23007KT 15SM FEW080 FEW250 19/03 A2999 RMK CU1CI0 SLP156

CYOW;2009-06-04 23:00;CYOW 042300Z 22003KT 15SM FEW065 FEW080 19/03 A2998 RMK SC1AC1 SLP153

CYOW;2009-06-05 00:00;CYOW 050000Z 23003KT 15SM FEW100 FEW220 18/03 A2997 RMK AC1CI1 SLP152

CYOW;2009-06-05 01:00;CYOW 050100Z 18003KT 15SM FEW210 FEW250 16/04 A2998 RMK CI1CI0 SLP154

CYOW;2009-06-05 02:00;CYOW 050200Z 18003KT 15SM FEW210 FEW250 15/04 A2999 RMK CI1CI0 SLP158

CYOW;2009-06-05 03:00;CYOW 050300Z 19004KT 15SM SKC 13/05 A3000 RMK SLP161

CYOW;2009-06-05 04:00;CYOW 050400Z 20003KT 15SM SKC 13/06 A3000 RMK SLP161

CYOW;2009-06-05 05:00;CYOW 050500Z 22004KT 15SM SKC 12/06 A3000 RMK SLP161

CYOW;2009-06-05 06:00;CYOW 050600Z 26005KT 15SM SKC 11/06 A2999 RMK SLP159

CYOW;2009-06-05 07:00;CYOW 050700Z 26004KT 15SM SKC 10/06 A2999 RMK SLP156

CYOW;2009-06-05 08:00;CYOW 050800Z 23004KT 15SM SKC 11/06 A2998 RMK SLP155

CYOW;2009-06-05 09:00;CYOW 050900Z 23003KT 15SM FEW200 10/06 A2998 RMK CI1 SLP155

CYOW;2009-06-05 10:00;CYOW 051000Z 19002KT 15SM FEW200 10/06 A2999 RMK CI1 SLP157

CYOW;2009-06-05 11:00;CYOW 051100Z 18003KT 15SM FEW240 09/06 A2999 RMK CI1 SLP158

CYOW;2009-06-05 12:00;CYOW 051200Z 00000KT 15SM SKC 12/07 A3000 RMK SLP160

CYOW;2009-06-05 13:00;CYOW 051300Z 36002KT 15SM FEW240 16/09 A2999 RMK CI1 SLP159

CYOW;2009-06-05 14:00;CYOW 051400Z 00000KT 15SM FEW240 18/08 A2999 RMK CI1 SLP157

CYOW;2009-06-05 15:00;CYOW 051500Z 22004KT 15SM FEW240 19/05 A2998 RMK CI1 SLP153

CYOW;2009-06-05 16:00;CYOW 051600Z 15007KT 15SM FEW030 FEW240 20/06 A2996 RMK CU1CI1 SLP147

CYOW;2009-06-05 17:00;CYOW 051700Z 21007KT 15SM FEW240 20/05 A2994 RMK CI1 SLP141

CYOW;2009-06-05 18:00;CYOW 051800Z 19005KT 15SM FEW240 21/05 A2992 RMK CI1 SLP133

CYOW;2009-06-05 19:00;CYOW 051900Z 19004KT 15SM FEW240 22/05 A2990 RMK CI2 SLP127

CYOW;2009-06-05 20:00;CYOW 052000Z 31002KT 15SM FEW240 22/03 A2988 RMK CI2 SLP118

CYOW;2009-06-05 21:00;CYOW 052100Z 14007KT 15SM FEW240 23/04 A2985 RMK CI2 SLP109

CYOW;2009-06-05 22:00;CYOW 052200Z 18005KT 15SM FEW240 23/03 A2984 RMK CI2 SLP106

CYOW;2009-06-05 23:00;CYOW 052300Z 21005KT 15SM FEW240 22/02 A2984 RMK CI1 SLP105

CYOW;2009-06-06 00:00;CYOW 060000Z 22007KT 15SM FEW240 21/02 A2983 RMK CI2 SLP104

CYOW;2009-06-06 01:00;CYOW 060100Z 20003KT 15SM FEW240 19/01 A2983 RMK CI2 SLP102

CYOW;2009-06-06 02:00;CYOW 060200Z 19004KT 15SM FEW240 17/02 A2983 RMK CI2 SLP102

CYOW;2009-06-06 03:00;CYOW 060300Z 18005KT 15SM SKC 16/02 A2982 RMK SLP100

CYOW;2009-06-06 04:00;CYOW 060400Z 20003KT 15SM SKC 15/03 A2983 RMK SLP102

CYOW;2009-06-06 05:00;CYOW 060500Z 20003KT 15SM SKC 15/03 A2983 RMK SLP103

CYOW;2009-06-06 06:00;CYOW 060600Z 22004KT 15SM SKC 13/04 A2984 RMK SLP104

CYOW;2009-06-06 07:00;CYOW 060700Z 21005KT 15SM SKC 12/05 A2983 RMK SLP102

CYOW;2009-06-06 08:00;CYOW 060800Z 18003KT 15SM SKC 11/05 A2982 RMK SLP100

CYOW;2009-06-06 09:00;CYOW 060900Z 20004KT 15SM FEW240 11/05 A2982 RMK CI2 SLP100

CYOW;2009-06-06 10:00;CYOW 061000Z 20003KT 15SM FEW240 11/05 A2982 RMK CI2 SLP101

CYOW;2009-06-06 11:00;CYOW 061100Z 27005KT 15SM FEW240 12/06 A2983 RMK CI2 SLP104

CYOW;2009-06-06 12:00;CYOW 061200Z 22006KT 15SM SCT110 14/07 A2983 RMK AC3 SLP104

CYOW;2009-06-06 13:00;CYOW 061300Z 21007KT 15SM BKN110 15/08 A2983 RMK AC7 SLP102

CYOW;2009-06-06 14:00;CYOW 061400Z 25005KT 15SM SCT110 16/08 A2985 RMK AC4 SLP108

CYOW;2009-06-06 15:00;CYOW 061500Z 26006KT 15SM SCT110 18/08 A2985 RMK AC3 SLP110

CYOW;2009-06-06 16:00;CYOW 061600Z 27011KT 15SM FEW040 FEW110 21/04 A2985 RMK CU1AC1 TR CU SLP110

CYOW;2009-06-06 17:00;CYOW 061700Z 31007KT 15SM FEW040 FEW110 21/07 A2985 RMK CU1AC1 SLP109

CYOW;2009-06-06 18:00;CYOW 061800Z 31010G18KT 15SM FEW050 FEW110 22/07 A2985 RMK CU2AC1 SLP107

CYOW;2009-06-06 19:00;CYOW 061900Z 31015KT 15SM FEW050 FEW110 22/06 A2985 RMK CU2AC1 SLP107

CYOW;2009-06-06 20:00;CYOW 062000Z 30013KT 15SM FEW060 22/06 A2984 RMK CU2 SLP106

CYOW;2009-06-06 21:00;CYOW 062100Z 29010G17KT 15SM FEW060 FEW240 23/07 A2985 RMK CU2CI0 SLP109

CYOW;2009-06-06 22:00;CYOW 062200Z 31012G19KT 15SM FEW060 FEW240 22/06 A2985 RMK CU1CI1 SLP110

CYOW;2009-06-06 23:00;CYOW 062300Z 30011KT 15SM FEW065 FEW240 21/05 A2985 RMK CU1CI1 SLP111

CYOW;2009-06-07 00:00;CYOW 070000Z 31008KT 15SM FEW065 FEW240 19/04 A2987 RMK CU1CI1 SLP115

CYOW;2009-06-07 01:00;CYOW 070100Z 30007KT 15SM FEW065 FEW080 FEW210 SCT240 17/03 A2988 RMK CU1AC1CI1CI2 SLP118

CYOW;2009-06-07 02:00;CYOW 070200Z 27005KT 15SM FEW080 SCT240 15/03 A2990 RMK AC1CI2 SLP127

CYOW;2009-06-07 03:00;CYOW 070300Z 28006KT 15SM SCT240 14/04 A2992 RMK CI2 SLP133

CYOW;2009-06-07 04:00;CYOW 070400Z 31007KT 15SM SCT210 13/03 A2995 RMK CI2 SLP142

CYOW;2009-06-07 05:00;CYOW 070500Z 27003KT 15SM BKN200 13/04 A2996 RMK CI3 SLP147

CYOW;2009-06-07 06:00;CYOW 070600Z 32006KT 15SM OVC200 11/04 A2999 RMK CS5 SLP157

CYOW;2009-06-07 07:00;CYOW 070700Z 36006KT 15SM BKN180 OVC230 12/03 A3000 RMK AS6CI2 SLP159

CYOW;2009-06-07 08:00;CYOW 070800Z 00000KT 15SM BKN170 OVC230 12/03 A3001 RMK AS5CI2 SLP163

CYOW;2009-06-07 09:00;CYOW 070900Z 31002KT 15SM BKN160 BKN230 12/04 A3002 RMK AC5CI2 SLP167

CYOW;2009-06-07 10:00;CYOW 071000Z 31003KT 15SM BKN150 11/05 A3004 RMK AC7 SLP172

CYOW;2009-06-07 11:00;CYOW 071100Z 00000KT 15SM BKN130 12/07 A3005 RMK AC7 SLP175

CYOW;2009-06-07 12:00;CYOW 071200Z 32002KT 15SM BKN190 13/05 A3005 RMK AC2 SLP177

CYOW;2009-06-07 13:00;CYOW 071300Z 33004KT 15SM BKN110 BKN190 14/04 A3005 RMK AC5AC2 SLP179

CYOW;2009-06-07 14:00;CYOW 071400Z 35007KT 15SM FEW110 SCT190 16/04 A3004 RMK AC2AC2 SLP173

CYOW;2009-06-07 15:00;CYOW 071500Z 29004KT 15SM FEW030 BKN130 17/05 A3004 RMK CU1AC6 SLP173

CYOW;2009-06-07 16:00;CYOW 071600Z 27003KT 15SM OVC130 16/05 A3003 RMK AC8 SLP172

CYOW;2009-06-07 17:00;CYOW 071700Z 29007KT 15SM FEW040 OVC093 16/05 A3005 RMK CU1AC8 TR CU SLP176

CYOW;2009-06-07 18:00;CYOW 071800Z 31005KT 15SM OVC094 15/05 A3004 RMK AC8 SLP173

CYOW;2009-06-07 19:00;CYOW 071900Z 27005KT 15SM OVC088 15/06 A3003 RMK AC8 SLP172

CYOW;2009-06-07 19:44;CYOW 071944Z 27009KT 15SM -RA OVC087 15/ RMK AC8

CYOW;2009-06-07 20:00;CYOW 072000Z 26006KT 12SM -RA OVC085 13/07 A3003 RMK AC8 SLP172

CYOW;2009-06-07 21:00;CYOW 072100Z 24005KT 15SM -RA OVC080 12/08 A3002 RMK AC8 SLP170

CYOW;2009-06-07 21:33;CYOW 072133Z 22006KT 15SM OVC094 12/ RMK AC8

CYOW;2009-06-07 22:00;CYOW 072200Z 23004KT 15SM SCT080 BKN100 13/09 A3003 RMK AC3AC4 SLP172

CYOW;2009-06-07 23:00;CYOW 072300Z 25006KT 15SM FEW025 SCT075 BKN093 14/09 A3002 RMK CF1AC3AC2 SLP169

CYOW;2009-06-08 00:00;CYOW 080000Z 26004KT 15SM FEW075 BKN085 13/08 A3003 RMK AC2AC3 SLP172

CYOW;2009-06-08 01:00;CYOW 080100Z 25005KT 15SM FEW080 BKN130 BKN250 12/08 A3004 RMK AC2AC2CI1 SLP175

CYOW;2009-06-08 02:00;CYOW 080200Z 24004KT 15SM FEW080 SCT140 11/07 A3006 RMK AC2AC2 SLP182

CYOW;2009-06-08 03:00;CYOW 080300Z 22004KT 15SM SCT130 11/08 A3006 RMK AC3 SLP182

CYOW;2009-06-08 04:00;CYOW 080400Z 24003KT 15SM SCT130 10/08 A3007 RMK AC3 SLP184

CYOW;2009-06-08 05:00;CYOW 080500Z 23004KT 15SM MIFG FEW120 10/08 A3006 RMK AC2 SLP182

CYOW;2009-06-08 06:00;CYOW 080600Z 28003KT 15SM MIFG FEW120 09/07 A3007 RMK AC2 SLP184

CYOW;2009-06-08 07:00;CYOW 080700Z 33004KT 15SM FEW120 07/06 A3006 RMK AC1 SLP182

CYOW;2009-06-08 08:00;CYOW 080800Z 36008KT 15SM FEW120 08/06 A3008 RMK AC1 SLP187

CYOW;2009-06-08 09:00;CYOW 080900Z 02006KT 15SM FEW120 FEW250 08/04 A3008 RMK AC1CI1 SLP189

CYOW;2009-06-08 10:00;CYOW 081000Z 02005KT 15SM FEW120 FEW250 08/04 A3010 RMK AC1CI0 SLP195

CYOW;2009-06-08 11:00;CYOW 081100Z 02006KT 15SM FEW120 09/05 A3010 RMK AC1 SLP195

CYOW;2009-06-08 12:00;CYOW 081200Z 04008KT 15SM FEW240 11/05 A3011 RMK CI1 SLP200

CYOW;2009-06-08 13:00;CYOW 081300Z 06005KT 15SM FEW030 FEW240 12/05 A3011 RMK CU1CI1 TR CU SLP200

CYOW;2009-06-08 14:00;CYOW 081400Z 08003KT 15SM FEW030 SCT240 14/06 A3011 RMK CU1CI1 SLP200

CYOW;2009-06-08 15:00;CYOW 081500Z 04003KT 15SM FEW040 BKN240 15/06 A3011 RMK CU2CI1 SLP197

CYOW;2009-06-08 16:00;CYOW 081600Z 02007KT 15SM FEW040 OVC240 16/06 A3010 RMK CU2CS2 HALO SLP194

CYOW;2009-06-08 17:00;CYOW 081700Z 05002KT 15SM FEW050 OVC220 16/06 A3008 RMK SC1CS7 SLP190

CYOW;2009-06-08 18:00;CYOW 081800Z 25002KT 15SM FEW060 OVC220 17/06 A3007 RMK SC1CS8 SLP185

CYOW;2009-06-08 19:00;CYOW 081900Z 02002KT 15SM FEW060 OVC220 17/06 A3006 RMK SC1CS8 SLP183

CYOW;2009-06-08 20:00;CYOW 082000Z 00000KT 15SM OVC220 18/07 A3005 RMK CS8 SLP178

CYOW;2009-06-08 21:00;CYOW 082100Z 00000KT 15SM FEW180 OVC220 18/06 A3003 RMK AC1CS6 SLP173

CYOW;2009-06-08 22:00;CYOW 082200Z 08005KT 15SM BKN180 OVC220 17/07 A3002 RMK AC6CS2 SLP168

CYOW;2009-06-08 23:00;CYOW 082300Z 07007KT 15SM BKN180 OVC190 17/07 A3000 RMK AC6AC2 SLP161

CYOW;2009-06-09 00:00;CYOW 090000Z 12003KT 15SM BKN150 16/07 A3000 RMK AC7 SLP161

CYOW;2009-06-09 01:00;CYOW 090100Z 09003KT 15SM OVC130 15/07 A2999 RMK AC8 SLP158

CYOW;2009-06-09 02:00;CYOW 090200Z 08005KT 15SM OVC150 15/07 A2999 RMK AC8 SLP157

CYOW;2009-06-09 03:00;CYOW 090300Z 10005KT 15SM OVC110 15/08 A2998 RMK AC8 SLP154

CYOW;2009-06-09 04:00;CYOW 090400Z 09007KT 15SM OVC100 14/08 A2996 RMK AC8 SLP147

CYOW;2009-06-09 05:00;CYOW 090500Z 09009KT 15SM OVC100 14/07 A2994 RMK AC8 SLP142

CYOW;2009-06-09 05:30;CYOW 090530Z 09007KT 15SM -RA BKN090 OVC110 13/ RMK AC6AC2

CYOW;2009-06-09 06:00;CYOW 090600Z 09007KT 15SM -RA BKN100 OVC120 12/09 A2994 RMK AC6AC2 SLP139

CYOW;2009-06-09 07:00;CYOW 090700Z 09010KT 15SM -RA OVC057 12/08 A2990 RMK SC8 SLP128

CYOW;2009-06-09 08:00;CYOW 090800Z CCA 09009KT 12SM -RA OVC078 11/08 A2988 RMK AC8 SLP119

CYOW;2009-06-09 09:00;CYOW 090900Z 08008KT 10SM -RA OVC039 11/08 A2986 RMK SC8 SLP114

CYOW;2009-06-09 10:00;CYOW 091000Z 08012KT 10SM -RA FEW019 OVC036 10/08 A2984 RMK SC2SC6 SLP106

CYOW;2009-06-09 11:00;CYOW 091100Z 07012KT 8SM -RA OVC018 10/09 A2982 RMK SC8 SLP099

CYOW;2009-06-09 11:28;CYOW 091128Z 08010G15KT 2SM -RA BR OVC007 10/ RMK FG2SC6

CYOW;2009-06-09 11:52;CYOW 091152Z 07013KT 4SM -RA BR BKN007 OVC020 10/ RMK SF5SC3

CYOW;2009-06-09 12:00;CYOW 091200Z 08013KT 6SM -RA BR SCT007 OVC023 10/09 A2981 RMK SF4SC4 SLP095

CYOW;2009-06-09 12:51;CYOW 091251Z 07009G16KT 6SM -RA BR BKN005 OVC020 10/ RMK SF6SC2

CYOW;2009-06-09 13:00;CYOW 091300Z 07012KT 6SM -RA BR BKN005 OVC020 10/09 A2979 RMK SF6SC2 SLP089

CYOW;2009-06-09 14:00;CYOW 091400Z 08011KT 6SM -RA BR BKN006 OVC020 10/10 A2978 RMK SF6SC2 SLP086

CYOW;2009-06-09 15:00;CYOW 091500Z 08009KT 8SM -RA BKN005 OVC020 11/10 A2979 RMK SF6SC2 SLP089

CYOW;2009-06-09 16:00;CYOW 091600Z 07007KT 10SM -RA BKN005 OVC020 12/11 A2978 RMK SF6SC2 SLP087

CYOW;2009-06-09 17:00;CYOW 091700Z 07005KT 10SM -RA BKN004 OVC020 12/11 A2978 RMK SF6SC2 SLP085

CYOW;2009-06-09 18:00;CYOW 091800Z 05004KT 10SM -RA BKN004 OVC020 12/12 A2978 RMK SF6SC2 SLP086

CYOW;2009-06-09 18:09;CYOW 091809Z 06002KT 2SM -RA BR OVC004 12/ RMK FG1SF7

CYOW;2009-06-09 18:31;CYOW 091831Z 36004KT 1 1/2SM -DZ BR OVC002 12/ RMK FG2SF6

CYOW;2009-06-09 19:00;CYOW 091900Z 03004KT 2 1/2SM -DZ BR OVC003 12/12 A2978 RMK FG1SF7 SLP088

CYOW;2009-06-09 20:00;CYOW 092000Z 02003KT 8SM -DZ BKN003 OVC020 13/12 A2979 RMK SF6SC2 SLP091

CYOW;2009-06-09 21:00;CYOW 092100Z 03003KT 10SM -DZ BKN005 OVC020 13/12 A2980 RMK SF5SC3 VRY LGT DZ SLP094

CYOW;2009-06-09 22:00;CYOW 092200Z 31004KT 10SM -RADZ BKN005 OVC020 13/12 A2981 RMK SF6SC2 VRY LGT DZ SLP096

CYOW;2009-06-09 22:37;CYOW 092237Z 32002KT 10SM FEW005 BKN030 14/ RMK SC2SC6

CYOW;2009-06-09 23:00;CYOW 092300Z 29002KT 10SM FEW005 SCT025 OVC039 14/13 A2981 RMK SC2SC2SC5 SLP098

CYOW;2009-06-09 23:27;CYOW 092327Z 27003KT 8SM BKN006 OVC019 14/ RMK SC6SC2

CYOW;2009-06-10 00:00;CYOW 100000Z 27005KT 10SM FEW007 OVC018 14/12 A2983 RMK SC2SC6 SLP105

CYOW;2009-06-10 01:00;CYOW 100100Z 27004KT 7SM FEW007 OVC021 14/13 A2984 RMK SC2SC6 SLP108

CYOW;2009-06-10 02:00;CYOW 100200Z 27006KT 8SM OVC005 14/13 A2987 RMK SC8 SLP116

CYOW;2009-06-10 02:17;CYOW 100217Z 27006KT 4SM -DZ SCT002 OVC005 13/ RMK SF3SC5

CYOW;2009-06-10 02:48;CYOW 100248Z 28009KT 10SM FEW005 OVC009 13/ RMK SC2SC6

CYOW;2009-06-10 03:00;CYOW 100300Z 27007KT 10SM FEW006 OVC013 13/12 A2988 RMK SC2SC6 SLP121

CYOW;2009-06-10 03:26;CYOW 100326Z 26005KT 10SM FEW009 FEW012 OVC037 13/ RMK SC1SC1SC6

CYOW;2009-06-10 04:00;CYOW 100400Z 26004KT 10SM FEW008 SCT010 OVC040 13/12 A2991 RMK SC1SC2SC5 SLP131

CYOW;2009-06-10 05:00;CYOW 100500Z 25004KT 10SM SCT016 OVC038 13/12 A2992 RMK SC3SC5 SLP133

CYOW;2009-06-10 06:00;CYOW 100600Z 23004KT 10SM OVC015 13/12 A2991 RMK SC8 SLP131

CYOW;2009-06-10 06:12;CYOW 100612Z 22004KT 10SM OVC012 13/ RMK SC8

CYOW;2009-06-10 07:00;CYOW 100700Z 24003KT 10SM OVC012 13/12 A2991 RMK SC8 SLP129

CYOW;2009-06-10 07:44;CYOW 100744Z 29005KT 10SM FEW009 OVC038 13/ RMK SC2SC6

CYOW;2009-06-10 08:00;CYOW 100800Z 30005KT 10SM SCT007 OVC039 13/12 A2990 RMK SC3SC5 SLP126

CYOW;2009-06-10 09:00;CYOW 100900Z 24003KT 15SM SCT007 OVC040 13/11 A2990 RMK SC4SC4 SLP128

CYOW;2009-06-10 10:00;CYOW 101000Z 24003KT 15SM FEW009 OVC037 13/11 A2991 RMK SC2SC6 SLP132

CYOW;2009-06-10 11:00;CYOW 101100Z 26005KT 15SM FEW009 OVC039 13/11 A2992 RMK SF2SC6 SLP133

CYOW;2009-06-10 12:00;CYOW 101200Z 26005KT 15SM SCT010 OVC039 13/12 A2995 RMK SF4SC4 SLP143

CYOW;2009-06-10 13:00;CYOW 101300Z 27005KT 15SM FEW010 OVC038 14/11 A2995 RMK SF2SC6 SLP145

CYOW;2009-06-10 14:00;CYOW 101400Z 24004KT 15SM BKN016 OVC040 15/12 A2995 RMK SC5SC3 SLP144

CYOW;2009-06-10 15:00;CYOW 101500Z 25003KT 15SM FEW015 OVC037 15/11 A2995 RMK SC2SC6 SLP144

CYOW;2009-06-10 16:00;CYOW 101600Z 25005KT 15SM FEW020 OVC035 16/11 A2994 RMK SC2SC6 SLP142

CYOW;2009-06-10 17:00;CYOW 101700Z 27008KT 15SM FEW020 OVC032 16/11 A2995 RMK SC2SC6 SLP145

CYOW;2009-06-10 18:00;CYOW 101800Z 25004KT 15SM FEW020 OVC030 17/11 A2994 RMK SC2SC6 SLP139

CYOW;2009-06-10 19:00;CYOW 101900Z 29005KT 15SM FEW020 OVC039 17/11 A2994 RMK CU1SC7 SLP139

CYOW;2009-06-10 20:00;CYOW 102000Z 25005KT 15SM FEW020 OVC040 17/11 A2994 RMK CU1SC7 SLP138

CYOW;2009-06-10 21:00;CYOW 102100Z 25002KT 15SM OVC042 18/11 A2993 RMK SC8 SLP137

CYOW;2009-06-10 22:00;CYOW 102200Z 00000KT 15SM BKN047 18/12 A2993 RMK SC7 SLP137

CYOW;2009-06-10 23:00;CYOW 102300Z 15002KT 15SM FEW030 BKN040 BKN240 18/12 A2994 RMK SC1SC6CI1 CU ASOCT SLP139

CYOW;2009-06-11 00:00;CYOW 110000Z 11002KT 15SM FEW030 BKN052 17/13 A2994 RMK SC1SC7 CU ASOCT SLP139

CYOW;2009-06-11 01:00;CYOW 110100Z 09003KT 15SM FEW040 BKN052 OVC240 16/12 A2993 RMK SC1SC6CI1 SLP137

CYOW;2009-06-11 02:00;CYOW 110200Z 11004KT 15SM FEW040 BKN050 14/12 A2994 RMK SC1SC6 SLP141

CYOW;2009-06-11 03:00;CYOW 110300Z 14004KT 15SM FEW050 BKN150 13/11 A2994 RMK SC1AC6 SLP141

CYOW;2009-06-11 04:00;CYOW 110400Z 15004KT 15SM BKN150 13/11 A2994 RMK AC6 SLP139

CYOW;2009-06-11 05:00;CYOW 110500Z 16003KT 15SM BKN150 13/11 A2993 RMK AC6 SLP137

CYOW;2009-06-11 06:00;CYOW 110600Z 10002KT 15SM BKN140 13/11 A2993 RMK AC7 SLP136

CYOW;2009-06-11 07:00;CYOW 110700Z 16003KT 15SM BKN140 13/11 A2991 RMK AC7 SLP131

CYOW;2009-06-11 08:00;CYOW 110800Z 18002KT 15SM FEW040 BKN140 13/11 A2993 RMK SC1AC6 SLP136

CYOW;2009-06-11 09:00;CYOW 110900Z 09002KT 15SM FEW110 BKN140 13/11 A2991 RMK AC1AC6 SLP131

CYOW;2009-06-11 10:00;CYOW 111000Z 02002KT 15SM FEW120 BKN150 13/11 A2992 RMK AC1AC6 SLP134

CYOW;2009-06-11 11:00;CYOW 111100Z 05002KT 15SM BKN120 14/12 A2992 RMK AC7 SLP132

CYOW;2009-06-11 12:00;CYOW 111200Z 07004KT 15SM SCT120 15/13 A2991 RMK AC4 SLP128

CYOW;2009-06-11 13:00;CYOW 111300Z 08003KT 15SM SCT120 BKN150 16/13 A2990 RMK AC3AC2 SLP126

CYOW;2009-06-11 14:00;CYOW 111400Z 09003KT 15SM FEW150 18/13 A2989 RMK AC1 SLP123

CYOW;2009-06-11 15:00;CYOW 111500Z 00000KT 15SM FEW030 FEW120 20/13 A2988 RMK CU1AC1 SLP121

CYOW;2009-06-11 16:00;CYOW 111600Z 13004KT 15SM FEW030 SCT120 BKN180 20/13 A2987 RMK CU1AC2AS0 SLP116

CYOW;2009-06-11 17:00;CYOW 111700Z 01003KT 15SM FEW030 SCT120 BKN180 22/13 A2985 RMK CU1AC2AS0 SLP110

CYOW;2009-06-11 18:00;CYOW 111800Z 07003KT 15SM FEW030 FEW120 SCT180 22/13 A2984 RMK CU1AC2AS0 SLP106

CYOW;2009-06-11 19:00;CYOW 111900Z 15003KT 15SM FEW030 SCT180 23/12 A2985 RMK CU1AS2 SLP110

CYOW;2009-06-11 20:00;CYOW 112000Z 09002KT 15SM FEW030 BKN200 22/12 A2981 RMK CU1CS3 SLP094

CYOW;2009-06-11 21:00;CYOW 112100Z 09005KT 15SM FEW030 SCT180 BKN200 22/14 A2981 RMK CU1AS3CS2 CU TR SLP094

CYOW;2009-06-11 22:00;CYOW 112200Z 08005KT 15SM FEW030 SCT180 BKN200 22/14 A2981 RMK CU1AS3CS2 CU TR SLP094

CYOW;2009-06-11 23:00;CYOW 112300Z 08003KT 15SM FEW060 FEW100 SCT180 OVC240 22/14 A2980 RMK SC1AC1AC2CS4 SLP092

CYOW;2009-06-12 00:00;CYOW 120000Z 08003KT 15SM FEW060 FEW090 BKN110 BKN160 OVC240 21/14 A2980 RMK SC1AC1AC6AC2CS1 SLP093

CYOW;2009-06-12 01:00;CYOW 120100Z 05003KT 15SM BKN085 BKN120 21/14 A2980 RMK AC6AC2 SLP091

CYOW;2009-06-12 02:00;CYOW 120200Z 03003KT 15SM SCT090 OVC120 20/14 A2979 RMK AC3AC5 SLP090

CYOW;2009-06-12 03:00;CYOW 120300Z 36007KT 15SM BKN088 OVC120 19/14 A2979 RMK AC6AC2 SLP089

CYOW;2009-06-12 04:00;CYOW 120400Z 01005KT 15SM SCT095 OVC110 18/14 A2979 RMK AC3AC5 SLP088

CYOW;2009-06-12 04:52;CYOW 120452Z 01006KT 15SM -RA OVC092 18/ RMK AC8 RA VRY LGT

CYOW;2009-06-12 05:00;CYOW 120500Z 01005KT 15SM -RA OVC090 18/13 A2977 RMK AC8 SLP083

CYOW;2009-06-12 05:28;CYOW 120528Z 36006KT 15SM OVC088 18/ RMK AC8

CYOW;2009-06-12 06:00;CYOW 120600Z 36006KT 15SM OVC100 18/13 A2976 RMK AC8 SLP076

CYOW;2009-06-12 06:12;CYOW 120612Z 36006KT 15SM -RA OVC096 17/ RMK AC8

CYOW;2009-06-12 06:44;CYOW 120644Z 36006KT 15SM FEW085 OVC100 17/ RMK AC1AC7

CYOW;2009-06-12 07:00;CYOW 120700Z 36006KT 15SM FEW086 OVC120 17/13 A2975 RMK AC1AC7 SLP073

CYOW;2009-06-12 08:00;CYOW 120800Z CCD 36006KT 15SM FEW100 OVC130 17/13 A2975 RMK AC1AC7 SLP075

CYOW;2009-06-12 09:00;CYOW 120900Z 36007KT 15SM FEW090 SCT120 BKN200 OVC240 16/13 A2976 RMK AC1AC2CI3CI0 SLP077

CYOW;2009-06-12 10:00;CYOW 121000Z 35005KT 15SM FEW090 SCT120 OVC240 16/13 A2978 RMK AC2AC1CI1 SLP084

CYOW;2009-06-12 11:00;CYOW 121100Z 36005KT 15SM SCT065 BKN080 16/13 A2979 RMK SC3AC2 SLP088

CYOW;2009-06-12 12:00;CYOW 121200Z 36006KT 15SM BKN027 BKN080 18/13 A2980 RMK SC5AC1 SLP093

CYOW;2009-06-12 13:00;CYOW 121300Z 03003KT 15SM FEW065 FEW100 20/13 A2981 RMK SC1AC1 SLP095

CYOW;2009-06-12 14:00;CYOW 121400Z 02007KT 15SM FEW040 21/14 A2981 RMK SC1 SLP096

CYOW;2009-06-12 15:00;CYOW 121500Z 03004KT 15SM FEW040 21/12 A2981 RMK CU2 SLP095

CYOW;2009-06-12 16:00;CYOW 121600Z 01007KT 15SM SCT040 22/12 A2981 RMK CU3 SLP095

CYOW;2009-06-12 17:00;CYOW 121700Z 36005KT 15SM BKN060 23/11 A2981 RMK CU5 SLP095

CYOW;2009-06-12 18:00;CYOW 121800Z 36007KT 15SM SCT060 23/10 A2981 RMK CU4 SLP094

CYOW;2009-06-12 19:00;CYOW 121900Z 02006KT 15SM FEW060 24/11 A2981 RMK CU2 SLP096

CYOW;2009-06-12 20:00;CYOW 122000Z 03006KT 15SM FEW060 SCT070 25/11 A2981 RMK CU2AC2 SLP096

CYOW;2009-06-12 21:00;CYOW 122100Z 36009KT 15SM FEW060 SCT070 24/10 A2982 RMK CU2AC2 SLP100

CYOW;2009-06-12 22:00;CYOW 122200Z 29005KT 15SM FEW060 FEW070 24/10 A2984 RMK CU1AC1 SLP104

CYOW;2009-06-12 23:00;CYOW 122300Z 32007KT 15SM FEW065 BKN100 BKN120 23/11 A2985 RMK CU1AC4AC1 SLP110

CYOW;2009-06-13 00:00;CYOW 130000Z 31005KT 15SM FEW065 BKN100 21/10 A2986 RMK SC1AC6 SLP112

CYOW;2009-06-13 01:00;CYOW 130100Z 35006KT 15SM BKN100 20/09 A2987 RMK AC5 SLP114

CYOW;2009-06-13 02:00;CYOW 130200Z 36004KT 15SM BKN100 19/09 A2988 RMK AC6 SLP117

CYOW;2009-06-13 03:00;CYOW 130300Z 33003KT 15SM BKN110 18/09 A2989 RMK AC6 SLP121

CYOW;2009-06-13 04:00;CYOW 130400Z 00000KT 15SM BKN110 18/09 A2988 RMK AC7 SLP119

CYOW;2009-06-13 05:00;CYOW 130500Z 34004KT 15SM BKN100 17/10 A2988 RMK AC5 SLP119

CYOW;2009-06-13 06:00;CYOW 130600Z CCA 33002KT 15SM FEW110 15/10 A2988 RMK AC2 SLP120

CYOW;2009-06-13 07:00;CYOW 130700Z 32003KT 15SM BKN100 14/10 A2990 RMK AC6 SLP124

CYOW;2009-06-13 08:00;CYOW 130800Z 30002KT 15SM BKN100 14/11 A2991 RMK AC7 SLP128

CYOW;2009-06-13 09:00;CYOW 130900Z 00000KT 15SM BKN110 BKN240 15/12 A2991 RMK AC6CI1 SLP127

CYOW;2009-06-13 10:00;CYOW 131000Z 00000KT 15SM BKN110 OVC220 14/12 A2993 RMK AC6CI1 SLP135

CYOW;2009-06-13 11:00;CYOW 131100Z 35004KT 15SM BKN110 BKN240 15/10 A2994 RMK AC5CI1 SLP138

CYOW;2009-06-13 12:00;CYOW 131200Z 36005KT 15SM SCT110 BKN240 17/10 A2995 RMK AC3CI1 SLP144

CYOW;2009-06-13 13:00;CYOW 131300Z 01004KT 15SM FEW110 BKN240 19/10 A2995 RMK AC2CI2 SLP144

CYOW;2009-06-13 14:00;CYOW 131400Z 01002KT 15SM FEW110 OVC240 20/10 A2995 RMK AC2CI2 SLP144

CYOW;2009-06-13 15:00;CYOW 131500Z 00000KT 15SM SCT110 BKN240 22/10 A2995 RMK AC3CI1 SLP143

CYOW;2009-06-13 16:00;CYOW 131600Z 35002KT 15SM FEW040 FEW110 BKN240 23/09 A2994 RMK CU1AC2CI2 SLP140

CYOW;2009-06-13 17:00;CYOW 131700Z 04005KT 15SM FEW050 SCT120 OVC240 23/08 A2994 RMK CU2AC2CI2 SLP140

CYOW;2009-06-13 18:00;CYOW 131800Z 36003KT 15SM FEW050 SCT120 OVC240 23/09 A2994 RMK CU2AC2CI4 SLP137

CYOW;2009-06-13 19:00;CYOW 131900Z 27006KT 15SM FEW050 BKN110 OVC240 23/08 A2993 RMK CU2AC4CI2 SLP136

CYOW;2009-06-13 20:00;CYOW 132000Z 26005KT 15SM FEW060 OVC100 23/07 A2992 RMK CU2AC6 SLP133

CYOW;2009-06-13 21:00;CYOW 132100Z 29002KT 15SM FEW060 BKN100 OVC240 23/08 A2991 RMK CU2AC3CI2 SLP130

CYOW;2009-06-13 22:00;CYOW 132200Z 27003KT 15SM FEW060 FEW100 BKN180 23/07 A2991 RMK CU1AC2AS5 SLP128

CYOW;2009-06-13 23:00;CYOW 132300Z 26003KT 15SM FEW065 FEW100 BKN150 22/08 A2991 RMK CU1AC2AS5 SLP129

CYOW;2009-06-14 00:00;CYOW 140000Z 27003KT 15SM FEW070 SCT150 BKN180 22/09 A2992 RMK CU1AS4AC2 SLP131

CYOW;2009-06-14 01:00;CYOW 140100Z 23003KT 15SM FEW075 FEW150 BKN190 20/14 A2993 RMK AC1AS2AC3 SLP134

CYOW;2009-06-14 02:00;CYOW 140200Z 22004KT 15SM FEW075 FEW150 SCT190 18/13 A2994 RMK AC1AS1AC3 SLP139

CYOW;2009-06-14 03:00;CYOW 140300Z 22004KT 15SM FEW190 17/13 A2994 RMK AC2 SLP140

CYOW;2009-06-14 04:00;CYOW 140400Z 22003KT 15SM FEW190 16/13 A2994 RMK AC1 SLP139

CYOW;2009-06-14 05:00;CYOW 140500Z 19004KT 15SM FEW190 15/13 A2994 RMK AC2 SLP138

CYOW;2009-06-14 06:00;CYOW 140600Z 20004KT 15SM FEW130 FEW190 14/12 A2994 RMK AC1AC2 SLP139

CYOW;2009-06-14 07:00;CYOW 140700Z 19003KT 15SM FEW130 FEW190 13/12 A2994 RMK AC2AC1 SLP138

CYOW;2009-06-14 08:00;CYOW 140800Z 22004KT 15SM PRFG FEW130 FEW190 12/12 A2994 RMK AC2AC1 VIS SW 3/4 SLP139

CYOW;2009-06-14 09:00;CYOW 140900Z 21003KT 15SM R07/3500VP6000FT/D R32/1600FT/N MIFG FEW130 FEW220 13/12 A2995 RMK AC1CI1 SLP143

CYOW;2009-06-14 10:00;CYOW 141000Z 20003KT 15SM R07/1600FT/N R32/0700V1200FT/N PRFG FEW130 FEW220 13/12 A2996 RMK AC1CI1 VIS S 3/4 SLP148

CYOW;2009-06-14 11:00;CYOW 141100Z 20002KT 15SM VCFG FEW130 13/12 A2997 RMK AC1 SLP150

CYOW;2009-06-14 12:00;CYOW 141200Z 24002KT 15SM FEW130 FEW240 15/12 A2999 RMK AC1CI1 SLP156

CYOW;2009-06-14 13:00;CYOW 141300Z 21002KT 15SM FEW020 FEW130 FEW240 18/13 A2999 RMK CU1AC1CI2 TR CU AC SLP156

CYOW;2009-06-14 14:00;CYOW 141400Z 23004KT 15SM FEW030 SCT240 20/13 A2999 RMK CU1CI2 TR CU SLP156

CYOW;2009-06-14 15:00;CYOW 141500Z 24005KT 15SM FEW044 SCT082 BKN240 23/12 A2999 RMK CU2AC2CI1 SLP156

CYOW;2009-06-14 16:00;CYOW 141600Z 17004KT 15SM FEW050 BKN240 23/11 A2997 RMK CU2CI2 SH DIST NE SLP149

CYOW;2009-06-14 17:00;CYOW 141700Z 25004KT 15SM SCT050 SCT120 BKN240 24/12 A2995 RMK CU3AC1CI2 TCU ASOCTD SLP144

CYOW;2009-06-14 18:00;CYOW 141800Z 26004KT 15SM VCSH FEW060 SCT120 BKN240 23/11 A2995 RMK CU2AC1CI1 SLP143

CYOW;2009-06-14 19:00;CYOW 141900Z 21009KT 15SM SCT060 BKN240 23/10 A2995 RMK CU4CI0 TCU ASOCTD SLP142

CYOW;2009-06-14 19:15;CYOW 141915Z 22008KT 15SM -SHRA BKN063TCU BKN240 21/ RMK TCU5CI0

CYOW;2009-06-14 20:00;CYOW 142000Z 21006KT 15SM SCT063TCU BKN240 22/11 A2994 RMK TCU4CI0 SLP138

CYOW;2009-06-14 21:00;CYOW 142100Z 22007KT 15SM VCSH SCT065TCU BKN180 BKN240 21/11 A2994 RMK TCU3AC2CI1 SLP139

CYOW;2009-06-14 22:00;CYOW 142200Z 22005KT 15SM FEW065TCU BKN140 BKN240 20/11 A2994 RMK TCU2AC3CI1 SLP140

CYOW;2009-06-14 23:00;CYOW 142300Z 24007KT 15SM SCT065TCU BKN120 BKN220 19/12 A2996 RMK TCU3AC2CI2 SHS DIST ALQDS SLP147

CYOW;2009-06-15 00:00;CYOW 150000Z 27007KT 15SM FEW065TCU SCT100 BKN130 BKN200 18/11 A2998 RMK TCU2ACC2AC2CI2 SHS DIST ALQDS SLP154

CYOW;2009-06-15 01:00;CYOW 150100Z 28003KT 15SM VCSH SCT110 BKN130 BKN200 17/11 A2998 RMK ACC4AC2CI1 SLP154

CYOW;2009-06-15 01:18;CYOW 150118Z 00000KT 15SM -SHRA SCT110 BKN130 17/ RMK ACC4AC3

CYOW;2009-06-15 01:50;CYOW 150150Z 13003KT 15SM BKN120 17/ RMK AC7 ACC ASOCTD OCNL DIST LTNG NW

CYOW;2009-06-15 02:00;CYOW 150200Z 10002KT 15SM -SHRA BKN120 16/11 A2998 RMK AC7 ACC ASOCTD OCNL DIST LTNG NW SLP153

CYOW;2009-06-15 02:30;CYOW 150230Z 00000KT 15SM OVC100 16/ RMK AC8

CYOW;2009-06-15 03:00;CYOW 150300Z 00000KT 15SM BKN095 BKN120 16/11 A2996 RMK AC6AC1 SLP148

CYOW;2009-06-15 04:00;CYOW 150400Z 11002KT 15SM BKN090 BKN130 14/11 A2997 RMK AC5AC2 SLP150

CYOW;2009-06-15 05:00;CYOW 150500Z 20006KT 15SM SCT100 BKN130 14/11 A2998 RMK AC3AC3 SLP152

CYOW;2009-06-15 06:00;CYOW 150600Z 10002KT 15SM FEW070 SCT130 BKN170 13/11 A2997 RMK AC2AC2AC3 SLP151

CYOW;2009-06-15 07:00;CYOW 150700Z 00000KT 15SM BKN067 BKN140 14/11 A2998 RMK AC6AC2 SLP154

CYOW;2009-06-15 07:15;CYOW 150715Z 00000KT 15SM -SHRA BKN067 OVC140 14/ RMK AC6AC2

CYOW;2009-06-15 08:00;CYOW 150800Z 23004KT 15SM -SHRA BKN070 BKN100 OVC140 14/12 A2998 RMK AC5AC2AC2 SLP153

CYOW;2009-06-15 08:18;CYOW 150818Z 00000KT 15SM BKN070 BKN110 BKN140 13/ RMK AC5AC2AC1

CYOW;2009-06-15 09:00;CYOW 150900Z 15002KT 15SM FEW070 BKN110 BKN140 12/11 A2998 RMK AC2AC4AC2 SLP153

CYOW;2009-06-15 10:00;CYOW 151000Z 00000KT 15SM FEW070 SCT110 BKN150 13/11 A3000 RMK ACC2AC2AC2 SLP159

CYOW;2009-06-15 11:00;CYOW 151100Z 00000KT 15SM FEW060TCU BKN110 BKN240 14/12 A3001 RMK TCU2AC4CI0 SLP164

CYOW;2009-06-15 12:00;CYOW 151200Z 27003KT 15SM BKN120 BKN240 16/13 A3002 RMK AC5CI1 ACC ASOCTD SLP166

CYOW;2009-06-15 13:00;CYOW 151300Z 00000KT 15SM BKN120 BKN240 18/12 A3002 RMK AC5CI2 ACC ASOCTD SLP167

CYOW;2009-06-15 14:00;CYOW 151400Z 15002KT 15SM BKN060 BKN120 BKN240 19/10 A3002 RMK SC5AS2CI1 SH DIST S SLP168

CYOW;2009-06-15 15:00;CYOW 151500Z 20006KT 15SM SCT030 BKN120 OVC240 17/13 A3004 RMK SC3AC2CI2 TCU ASOCTD SLP173

CYOW;2009-06-15 15:33;CYOW 151533Z 20007KT 12SM -RA SCT020 OVC070 17/ RMK SC3AS5

CYOW;2009-06-15 16:00;CYOW 151600Z 17005KT 15SM -SHRA FEW020 BKN090 BKN240 16/14 A3005 RMK SC2ACC2CI2 ACC ALQDS SLP177

CYOW;2009-06-15 17:00;CYOW 151700Z 18007KT 15SM BKN050 BKN070 BKN240 16/12 A3005 RMK SC5AC2CI0 TCU ALQDS SLP177

CYOW;2009-06-15 18:00;CYOW 151800Z 15008KT 15SM FEW050TCU BKN140 BKN240 17/13 A3004 RMK TCU2AC4CI0 TCU ALQDS SLP173

CYOW;2009-06-15 19:00;CYOW 151900Z 18003KT 15SM FEW050TCU SCT140 BKN240 19/12 A3004 RMK TCU2AC1CI1 SLP173

CYOW;2009-06-15 20:00;CYOW 152000Z 21005KT 15SM FEW050TCU FEW140 BKN240 20/12 A3003 RMK TCU2AC1CI2 TCU ALQDS SLP170

CYOW;2009-06-15 21:00;CYOW 152100Z 16007KT 15SM FEW050TCU SCT240 21/12 A3002 RMK TCU2CI1 TCU ALQDS SLP167

CYOW;2009-06-15 22:00;CYOW 152200Z 16003KT 15SM FEW050 FEW140 SCT240 21/11 A3003 RMK CU2AC1CI1 TCU S SLP170

CYOW;2009-06-15 23:00;CYOW 152300Z 18003KT 15SM FEW050 SCT240 22/11 A3004 RMK CU2CI0 TCU E SE SLP173

CYOW;2009-06-16 00:00;CYOW 160000Z 20002KT 15SM FEW050 FEW100 FEW240 21/12 A3005 RMK CU2AC0CI0 TCU NE - E SLP178

CYOW;2009-06-16 01:00;CYOW 160100Z 15005KT 15SM FEW050 FEW100 FEW240 18/11 A3006 RMK CU2AC1CI1 SLP181

CYOW;2009-06-16 02:00;CYOW 160200Z 16002KT 15SM FEW050 FEW120 17/11 A3007 RMK CU1AC1 AC TR SLP184

CYOW;2009-06-16 03:00;CYOW 160300Z 00000KT 15SM FEW050 17/11 A3008 RMK CU1 SLP186

CYOW;2009-06-16 04:00;CYOW 160400Z 00000KT 15SM SKC 15/12 A3009 RMK SLP192

CYOW;2009-06-16 05:00;CYOW 160500Z 07002KT 15SM SKC 13/11 A3010 RMK SLP193

CYOW;2009-06-16 06:00;CYOW 160600Z 06005KT 15SM FEW240 14/12 A3011 RMK CI1 SLP196

CYOW;2009-06-16 07:00;CYOW 160700Z 04003KT 15SM SKC 13/12 A3011 RMK SLP198

CYOW;2009-06-16 08:00;CYOW 160800Z 04005KT 15SM SKC 13/12 A3012 RMK SLP201

CYOW;2009-06-16 08:40;CYOW 160840Z 05003KT 1 1/2SM R07/2600FT/N R32/2800FT/N BR FEW002 12/ RMK FG2SF1

CYOW;2009-06-16 09:00;CYOW 160900Z 05005KT 1/2SM R07/2000FT/N R32/1400V2000FT/N FG SKC 12/12 A3014 RMK FG7 SLP207

CYOW;2009-06-16 09:10;CYOW 160910Z 06005KT 0SM R07/1200V1800FT/D R32/1400FT/N FG VV001 12/ RMK FG8

CYOW;2009-06-16 10:00;CYOW 161000Z 05005KT 1/8SM R07/1400FT/N R32/1200FT/N FG VV001 12/12 A3015 RMK FG8 SLP211

CYOW;2009-06-16 10:42;CYOW 161042Z CCA 05003KT 1/4SM R07/1600FT/N R32/1800FT FG SKC 12/ RMK FG7

CYOW;2009-06-16 11:00;CYOW 161100Z 08005KT 1/4SM R07/2000FT/U R32/1600FT/N FG SKC 12/12 A3017 RMK FG7 SLP217

CYOW;2009-06-16 12:00;CYOW 161200Z 06004KT 1/4SM R07/2600FT/N R32/1600FT/U FG SKC 13/12 A3019 RMK FG7 SLP223

CYOW;2009-06-16 12:18;CYOW 161218Z CCA 08003KT 1/2SM R07/5000FT/U R32/6000FT/U FG SKC 13/ RMK FG7

CYOW;2009-06-16 12:22;CYOW 161222Z CCA 09003KT 1SM R07/5000FT/U R32/6000FT/U BR SKC 13/ RMK FG6

CYOW;2009-06-16 12:24;CYOW 161224Z 08003KT 3SM BR BKN002 13/ RMK FG3SF3

CYOW;2009-06-16 12:51;CYOW 161251Z 08005KT 6SM BR BKN004 14/ RMK SF6

CYOW;2009-06-16 13:00;CYOW 161300Z 10003KT 10SM BKN005 BKN020 14/13 A3020 RMK SF5SC2 SLP227

CYOW;2009-06-16 13:12;CYOW 161312Z 06003KT 15SM SCT006 SCT020 15/ RMK SF3SC1

CYOW;2009-06-16 14:00;CYOW 161400Z 07003KT 15SM SKC 18/14 A3021 RMK SLP231

CYOW;2009-06-16 15:00;CYOW 161500Z 12004KT 15SM FEW030 20/14 A3020 RMK CU1 SLP228

CYOW;2009-06-16 16:00;CYOW 161600Z 06005KT 15SM FEW035 21/14 A3020 RMK CU2 SLP227

CYOW;2009-06-16 17:00;CYOW 161700Z 21004KT 15SM SCT035 23/13 A3019 RMK CU4 SLP224

CYOW;2009-06-16 18:00;CYOW 161800Z 12002KT 15SM SCT035 23/14 A3017 RMK CU4 SLP218

CYOW;2009-06-16 19:00;CYOW 161900Z 13005KT 15SM SCT045 24/13 A3016 RMK CU4 SLP214

CYOW;2009-06-16 20:00;CYOW 162000Z 12006KT 15SM SCT045 24/13 A3016 RMK CU3 SLP213

CYOW;2009-06-16 21:00;CYOW 162100Z 15004KT 15SM SCT045 24/12 A3015 RMK CU3 SLP211

CYOW;2009-06-16 22:00;CYOW 162200Z 15002KT 15SM BKN050 23/12 A3015 RMK CU5 SLP210

CYOW;2009-06-16 23:00;CYOW 162300Z 14003KT 15SM FEW065 FEW100 FEW250 23/12 A3015 RMK CU1AC1CI0 AC TR SLP210

CYOW;2009-06-17 00:00;CYOW 170000Z 12003KT 15SM FEW100 FEW250 22/13 A3014 RMK AC1CI0 TCU TOPS DIST E SLP208

CYOW;2009-06-17 01:00;CYOW 170100Z 14003KT 15SM FEW220 FEW250 20/12 A3015 RMK CI0CI1 SLP210

CYOW;2009-06-17 02:00;CYOW 170200Z 10004KT 15SM FEW220 FEW250 18/12 A3015 RMK CI0CI1 SLP210

CYOW;2009-06-17 03:00;CYOW 170300Z 12006KT 15SM SKC 17/12 A3014 RMK SLP208

CYOW;2009-06-17 04:00;CYOW 170400Z 14005KT 15SM SKC 17/12 A3014 RMK SLP208

CYOW;2009-06-17 05:00;CYOW 170500Z 17004KT 15SM SKC 17/12 A3015 RMK SLP210

CYOW;2009-06-17 06:00;CYOW 170600Z 16006KT 15SM FEW240 16/12 A3015 RMK CI0 SLP210

CYOW;2009-06-17 07:00;CYOW 170700Z 17004KT 15SM BKN240 15/12 A3015 RMK CI0 SLP210

CYOW;2009-06-17 08:00;CYOW 170800Z 18003KT 15SM FEW012 BKN240 16/12 A3015 RMK SC1CI0 SLP211

CYOW;2009-06-17 09:00;CYOW 170900Z 16003KT 15SM FEW100 BKN240 14/12 A3015 RMK AC1CI1 SLP212

CYOW;2009-06-17 10:00;CYOW 171000Z 17004KT 15SM BKN240 14/12 A3016 RMK CI1 SLP213

CYOW;2009-06-17 11:00;CYOW 171100Z 18003KT 15SM FEW200 BKN240 16/13 A3016 RMK CI1CI0 SLP215

CYOW;2009-06-17 12:00;CYOW 171200Z 19006KT 15SM FEW200 BKN240 18/13 A3016 RMK CI1CI0 SLP215

CYOW;2009-06-17 13:00;CYOW 171300Z 20008KT 15SM SCT200 BKN240 19/14 A3016 RMK CI2CI1 SLP214

CYOW;2009-06-17 14:00;CYOW 171400Z 18006KT 15SM SCT200 BKN240 20/15 A3016 RMK CI2CI0 SLP212

CYOW;2009-06-17 15:00;CYOW 171500Z 16007KT 15SM FEW040 SCT200 BKN240 22/15 A3014 RMK CU1CI2CI1 SLP208

CYOW;2009-06-17 16:00;CYOW 171600Z 16006KT 15SM FEW040 FEW200 BKN240 23/15 A3013 RMK CU2CI1CI0 SLP203

CYOW;2009-06-17 17:00;CYOW 171700Z 17008G15KT 15SM FEW040 FEW200 BKN240 24/14 A3011 RMK CU2CI1CI0 SLP198

CYOW;2009-06-17 18:00;CYOW 171800Z 15006KT 15SM FEW040 FEW240 24/13 A3009 RMK CU2CI0 SLP189

CYOW;2009-06-17 19:00;CYOW 171900Z 14007KT 15SM FEW040 SCT220 25/13 A3006 RMK CU2CI1 SLP181

CYOW;2009-06-17 20:00;CYOW 172000Z 15006KT 15SM FEW040 BKN220 25/12 A3005 RMK CU2CI1 SLP177

CYOW;2009-06-17 21:00;CYOW 172100Z 18009KT 15SM FEW040 BKN220 26/13 A3004 RMK CU2CI2 SLP172

CYOW;2009-06-17 22:00;CYOW 172200Z 18007KT 15SM FEW040 BKN220 25/12 A3003 RMK CU2CI2 SLP169

CYOW;2009-06-17 23:00;CYOW 172300Z 00000KT 15SM FEW060 SCT200 BKN240 24/13 A3002 RMK CU1CI1CI4 SLP165

CYOW;2009-06-18 00:00;CYOW 180000Z 19003KT 15SM FEW150 SCT200 OVC240 23/14 A3001 RMK AC1CI2CI2 SLP161

CYOW;2009-06-18 01:00;CYOW 180100Z 18003KT 15SM FEW150 OVC240 21/14 A3000 RMK AC2CI1 SLP160

CYOW;2009-06-18 02:00;CYOW 180200Z 16003KT 15SM SCT071 BKN240 20/14 A3001 RMK AC3CI3 SLP162

CYOW;2009-06-18 03:00;CYOW 180300Z 17004KT 15SM BKN057 OVC090 20/15 A3000 RMK SC6AC2 SLP160

CYOW;2009-06-18 04:00;CYOW 180400Z 19005KT 15SM FEW060 SCT080 19/13 A2999 RMK SC1AC3 SLP156

CYOW;2009-06-18 05:00;CYOW 180500Z 17004KT 15SM FEW090 SCT170 18/13 A2999 RMK AC2AC2 SLP154

CYOW;2009-06-18 06:00;CYOW 180600Z 18003KT 15SM FEW170 OVC210 18/12 A2998 RMK AC2CI6 SLP151

CYOW;2009-06-18 07:00;CYOW 180700Z 16004KT 15SM OVC200 17/12 A2996 RMK CI8 SLP147

CYOW;2009-06-18 08:00;CYOW 180800Z 17004KT 15SM OVC096 16/12 A2996 RMK AC8 SLP144

CYOW;2009-06-18 09:00;CYOW 180900Z 17004KT 15SM BKN090 OVC140 17/11 A2995 RMK AC6AC2 SLP143

CYOW;2009-06-18 10:00;CYOW 181000Z 18005KT 15SM FEW070 OVC110 17/11 A2997 RMK AC2AS6 SLP149

CYOW;2009-06-18 11:00;CYOW 181100Z 18002KT 15SM FEW070 OVC100 16/12 A2997 RMK AC2AS6 SLP150

CYOW;2009-06-18 12:00;CYOW 181200Z 12007KT 15SM BKN027 BKN070 OVC100 17/12 A2997 RMK SC5AC1AS2 SLP151

CYOW;2009-06-18 13:00;CYOW 181300Z 13005KT 15SM SCT025 BKN037 OVC070 17/12 A2996 RMK SC3SC3AC2 SLP147

CYOW;2009-06-18 14:00;CYOW 181400Z 11007KT 15SM BKN029 OVC070 18/12 A2994 RMK SC6AC2 SLP141

CYOW;2009-06-18 15:00;CYOW 181500Z 11008KT 15SM BKN030 OVC070 17/12 A2996 RMK SC7AC1 SLP147

CYOW;2009-06-18 15:33;CYOW 181533Z 13008KT 15SM -RA BKN033 OVC050 16/ RMK SC7SC1

CYOW;2009-06-18 16:00;CYOW 181600Z 10007KT 15SM -RA FEW025 BKN040 OVC055 16/14 A2995 RMK CU1SC7SC1 CU TR SLP142

CYOW;2009-06-18 17:00;CYOW 181700Z 11010KT 15SM -RA FEW010 BKN032 OVC060 16/14 A2993 RMK SC1SC4SC3 SLP137

CYOW;2009-06-18 17:33;CYOW 181733Z 09008KT 8SM -RA BKN007 OVC025 15/ RMK SF6SC2

CYOW;2009-06-18 18:00;CYOW 181800Z 08011KT 8SM -RA BKN007 OVC028 15/14 A2993 RMK SF6SC2 SLP135

CYOW;2009-06-18 19:00;CYOW 181900Z 08009KT 8SM -RA BKN007 OVC026 15/14 A2991 RMK SF6NS2 SLP131

CYOW;2009-06-18 20:00;CYOW 182000Z 08009KT 8SM -RA BKN007 BKN017 OVC030 15/14 A2990 RMK SF6SC2NS1 SLP126

CYOW;2009-06-18 21:00;CYOW 182100Z 07010KT 6SM -RA BR BKN007 BKN018 OVC032 15/14 A2988 RMK SF5SC2NS2 SLP121

CYOW;2009-06-18 22:00;CYOW 182200Z 07008KT 5SM -RA BR BKN006 BKN018 OVC036 15/15 A2988 RMK SF6SC1NS2 SLP120

CYOW;2009-06-18 23:00;CYOW 182300Z 07006KT 5SM -RA BR SCT004 OVC010 16/15 A2988 RMK SC4SC4 SLP121

CYOW;2009-06-18 23:17;CYOW 182317Z 07005KT 5SM -RA BR OVC003 16/ RMK SC8

CYOW;2009-06-19 00:00;CYOW 190000Z 07008KT 10SM -RA BKN005 OVC240 15/14 A2988 RMK SC7CI1 VRY LGT RA SLP118

CYOW;2009-06-19 00:37;CYOW 190037Z 06007KT 10SM FEW004 OVC008 15/ RMK SC2SC6

CYOW;2009-06-19 01:00;CYOW 190100Z 05005KT 5SM -DZ SCT003 OVC008 15/15 A2986 RMK SF3SC5 SLP114

CYOW;2009-06-19 02:00;CYOW 190200Z 05006KT 4SM -DZ OVC003 15/15 A2986 RMK SF8 SLP114

CYOW;2009-06-19 02:43;CYOW 190243Z 06004KT 3SM -DZ BR SCT002 OVC008 15/ RMK SF3SC5

CYOW;2009-06-19 03:00;CYOW 190300Z 05003KT 3SM -DZ BR SCT002 OVC008 15/15 A2987 RMK SF3SC5 SLP115

CYOW;2009-06-19 03:25;CYOW 190325Z 04005KT 2SM -DZ BR SCT002 OVC004 15/ RMK SF3ST5

CYOW;2009-06-19 04:00;CYOW 190400Z 02005KT 2SM -DZ BR FEW002 OVC004 15/15 A2987 RMK SF2ST6 SLP115

CYOW;2009-06-19 04:54;CYOW 190454Z 03006KT 5SM BR FEW002 OVC010 15/ RMK SC2SC6

CYOW;2009-06-19 05:00;CYOW 190500Z 02004KT 7SM SCT003 OVC009 15/15 A2986 RMK SC3SC5 SLP113

CYOW;2009-06-19 05:54;CYOW 190554Z 02005KT 8SM -DZ SCT004 OVC006 15/ RMK SF3SC5

CYOW;2009-06-19 06:00;CYOW 190600Z 02007KT 8SM -DZ OVC005 15/15 A2985 RMK SC8 CIG VRB 3-7 SLP111

CYOW;2009-06-19 07:00;CYOW 190700Z 02007KT 4SM -DZ FEW002 OVC008 15/15 A2985 RMK SC2SC6 CIG VRB 6-10 SLP109

CYOW;2009-06-19 08:00;CYOW 190800Z 03005KT 4SM -DZ BR SCT002 OVC004 15/15 A2985 RMK SC3ST5 SLP109

CYOW;2009-06-19 09:00;CYOW 190900Z 05005KT 5SM -DZ OVC004 15/14 A2983 RMK SC8 SLP104

CYOW;2009-06-19 10:00;CYOW 191000Z 06004KT 10SM -DZ BKN004 OVC019 15/14 A2985 RMK SC6SC2 DZ VRY LGT SLP109

CYOW;2009-06-19 10:35;CYOW 191035Z 08002KT 12SM FEW004 OVC020 15/ RMK SF2SC6

CYOW;2009-06-19 11:00;CYOW 191100Z 04002KT 15SM SCT004 OVC020 15/14 A2987 RMK SF3SC5 SLP115

CYOW;2009-06-19 12:00;CYOW 191200Z 07003KT 15SM SCT005 OVC020 16/14 A2986 RMK SF4SC4 SLP113

CYOW;2009-06-19 13:00;CYOW 191300Z 07002KT 15SM FEW010 OVC020 16/14 A2986 RMK SF2SC6 SLP113

CYOW;2009-06-19 14:00;CYOW 191400Z 05006KT 15SM OVC018 17/14 A2985 RMK SC8 SLP110

CYOW;2009-06-19 15:00;CYOW 191500Z 06005KT 15SM OVC019 17/14 A2985 RMK SC8 SLP111

CYOW;2009-06-19 16:00;CYOW 191600Z CCA 00000KT 15SM BKN020 18/14 A2987 RMK SC7 SLP117

CYOW;2009-06-19 17:00;CYOW 191700Z 00000KT 15SM BKN020 18/15 A2985 RMK SC5 SLP110

CYOW;2009-06-19 18:00;CYOW 191800Z 16003KT 15SM BKN018 19/15 A2984 RMK SC6 SLP104

CYOW;2009-06-19 19:00;CYOW 191900Z 10005KT 15SM SCT025 21/15 A2982 RMK CU4 SLP099

CYOW;2009-06-19 20:00;CYOW 192000Z 15002KT 15SM SCT025 21/15 A2981 RMK CU4 SLP096

CYOW;2009-06-19 21:00;CYOW 192100Z 15003KT 15SM SCT030 BKN240 21/16 A2981 RMK CU3CI1 SLP096

CYOW;2009-06-19 22:00;CYOW 192200Z 15005KT 15SM FEW030 SCT240 21/16 A2981 RMK CU2CI1 SLP095

CYOW;2009-06-19 23:00;CYOW 192300Z 14004KT 15SM FEW030 BKN240 20/15 A2982 RMK CU1CI3 SLP097

CYOW;2009-06-20 00:00;CYOW 200000Z 16004KT 15SM FEW180 BKN240 19/15 A2981 RMK AC1CI4 SLP095

CYOW;2009-06-20 01:00;CYOW 200100Z 16004KT 15SM FEW180 BKN240 17/15 A2981 RMK AC1CI2 SLP094

CYOW;2009-06-20 02:00;CYOW 200200Z 17004KT 15SM SCT240 16/15 A2981 RMK CI1 SLP094

CYOW;2009-06-20 03:00;CYOW 200300Z 18003KT 15SM FEW240 15/14 A2980 RMK CI1 SLP093

CYOW;2009-06-20 04:00;CYOW 200400Z 22004KT 15SM FEW240 16/14 A2981 RMK CI1 SLP095

CYOW;2009-06-20 05:00;CYOW 200500Z 23002KT 15SM FEW240 15/14 A2980 RMK CI1 SLP094

CYOW;2009-06-20 06:00;CYOW 200600Z 00000KT 15SM R07/6000FT/U R32/2600V6000FT/N FEW180 15/14 A2978 RMK AC1 SLP085

CYOW;2009-06-20 07:00;CYOW 200700Z 00000KT 15SM SKC 14/14 A2977 RMK SLP081

CYOW;2009-06-20 08:00;CYOW 200800Z 07003KT 15SM FEW180 14/13 A2976 RMK AC0 SLP077

CYOW;2009-06-20 09:00;CYOW 200900Z 08002KT 12SM PRFG BKN240 13/12 A2974 RMK CI1 VIS E-SSE 3/4 SLP072

CYOW;2009-06-20 09:45;CYOW 200945Z 08004KT 4SM BR BKN220 13/ RMK CI2

CYOW;2009-06-20 10:00;CYOW 201000Z 08005KT 2SM BR OVC240 13/13 A2972 RMK CI4 SLP066

CYOW;2009-06-20 10:24;CYOW 201024Z 08005KT 3/4SM BR OVC240 13/ RMK FG2CI2

CYOW;2009-06-20 10:50;CYOW 201050Z 09004KT 3SM BR BKN240 14/ RMK CI2

CYOW;2009-06-20 11:00;CYOW 201100Z 09004KT 4SM BR OVC240 14/14 A2973 RMK CI3 SLP067

CYOW;2009-06-20 12:00;CYOW 201200Z 09006KT 5SM BR OVC240 16/15 A2973 RMK CI3 SLP068

CYOW;2009-06-20 13:00;CYOW 201300Z 09005KT 12SM FEW010 OVC240 18/15 A2971 RMK CF1CI3 SLP063

CYOW;2009-06-20 14:00;CYOW 201400Z 09008KT 12SM SCT012 OVC240 18/15 A2968 RMK CU3CI2 SLP052

CYOW;2009-06-20 14:18;CYOW 201418Z 08007KT 15SM BKN015 OVC240 19/ RMK CU6CI2

CYOW;2009-06-20 15:00;CYOW 201500Z 08010KT 15SM BKN018 OVC033 19/15 A2967 RMK CU5SC3 SLP047

CYOW;2009-06-20 16:00;CYOW 201600Z 09008KT 15SM BKN018 OVC038 20/16 A2967 RMK CU5SC3 SLP047

CYOW;2009-06-20 17:00;CYOW 201700Z 09007KT 15SM SCT020 OVC038 20/16 A2967 RMK CU3SC5 SLP047

CYOW;2009-06-20 18:00;CYOW 201800Z 08010KT 15SM FEW020 OVC038 20/14 A2965 RMK CU2SC6 SLP042

CYOW;2009-06-20 19:00;CYOW 201900Z 08007KT 15SM FEW027 OVC040 21/15 A2964 RMK CU2SC6 SLP038

CYOW;2009-06-20 20:00;CYOW 202000Z 05010KT 15SM FEW030 SCT040 BKN240 21/15 A2963 RMK CU2SC2CI2 SLP036

CYOW;2009-06-20 21:00;CYOW 202100Z 05007KT 15SM FEW030 BKN040 BKN240 21/15 A2963 RMK CU2SC2CI2 SLP036

CYOW;2009-06-20 22:00;CYOW 202200Z 05008KT 15SM FEW030 BKN044 BKN240 22/15 A2963 RMK CU2SC3CI2 SLP035

CYOW;2009-06-20 23:00;CYOW 202300Z 06011KT 15SM FEW031 BKN047 BKN230 21/15 A2964 RMK CU1SC5CI2 SLP038

CYOW;2009-06-21 00:00;CYOW 210000Z 06005KT 15SM FEW035 BKN047 OVC230 21/15 A2964 RMK CU1SC6CI2 SLP036

CYOW;2009-06-21 01:00;CYOW 210100Z 05004KT 15SM BKN047 OVC230 20/15 A2964 RMK SC7CI1 SLP038

CYOW;2009-06-21 02:00;CYOW 210200Z 05004KT 15SM OVC049 20/16 A2966 RMK SC8 SLP043

CYOW;2009-06-21 03:00;CYOW 210300Z 02003KT 15SM OVC050 20/16 A2966 RMK SC8 SLP044

CYOW;2009-06-21 04:00;CYOW 210400Z 05003KT 15SM OVC043 20/16 A2966 RMK SC8 SLP045

CYOW;2009-06-21 05:00;CYOW 210500Z 36004KT 15SM SCT032 OVC045 19/16 A2966 RMK SC4SC4 SLP045

CYOW;2009-06-21 06:00;CYOW 210600Z 36004KT 15SM OVC033 19/16 A2966 RMK SC8 SLP045

CYOW;2009-06-21 07:00;CYOW 210700Z 34004KT 15SM OVC030 18/16 A2967 RMK SC8 SLP046

CYOW;2009-06-21 07:17;CYOW 210717Z 35009KT 15SM -SHRA OVC030 18/ RMK SC8

CYOW;2009-06-21 08:00;CYOW 210800Z 36005KT 10SM -SHRA OVC032 18/17 A2967 RMK SC8 SLP047

CYOW;2009-06-21 09:00;CYOW 210900Z 36002KT 15SM VCSH BKN026 18/17 A2967 RMK SC7 OCNL -SHRA SLP047

CYOW;2009-06-21 09:10;CYOW 210910Z 35004KT 15SM VCSH BKN026 18/ RMK SC7

CYOW;2009-06-21 10:00;CYOW 211000Z 36005KT 15SM BKN030 BKN045 BKN070 17/17 A2968 RMK SC6SC1AC1 SHS DIST NE-SE SLP051

CYOW;2009-06-21 10:20;CYOW 211020Z 36004KT 15SM -SHRA BKN026 BKN045 BKN070 18/ RMK SC6SC1AC1

CYOW;2009-06-21 11:00;CYOW 211100Z 02005KT 15SM FEW015 BKN032 18/17 A2970 RMK SF2SC5 SLP057

CYOW;2009-06-21 11:24;CYOW 211124Z 36005KT 15SM -SHRA BKN024 18/ RMK SC7 RA FINE

CYOW;2009-06-21 11:42;CYOW 211142Z 34006KT 15SM OVC022 18/ RMK SC8

CYOW;2009-06-21 12:00;CYOW 211200Z 34006KT 15SM FEW018 BKN025 19/18 A2972 RMK SF2SC6 SLP063

CYOW;2009-06-21 13:00;CYOW 211300Z 36004KT 15SM FEW010 BKN017 19/17 A2973 RMK SF1SC6 SLP068

CYOW;2009-06-21 14:00;CYOW 211400Z 36004KT 15SM FEW010 OVC018 21/18 A2974 RMK SF1SC7 SLP071

CYOW;2009-06-21 15:00;CYOW 211500Z 02003KT 15SM OVC017 21/18 A2974 RMK SC8 SLP072

CYOW;2009-06-21 15:35;CYOW 211535Z 01006KT 15SM -SHRA SCT020 OVC060TCU 21/ RMK SC3TCU5

CYOW;2009-06-21 16:00;CYOW 211600Z 06004KT 15SM BKN034 BKN070 23/20 A2976 RMK CU5AC2 SLP076

CYOW;2009-06-21 16:38;CYOW 211638Z 07005KT 15SM -SHRA BKN020 BKN070 22/ RMK CU5AC2

CYOW;2009-06-21 17:00;CYOW 211700Z 01006KT 15SM VCSH SCT020 BKN070 22/19 A2976 RMK CU3AC3 SLP076

CYOW;2009-06-21 18:00;CYOW 211800Z 07008KT 15SM VCSH BKN028 BKN076 BKN240 24/18 A2976 RMK CU6AC1CI0 SLP076

CYOW;2009-06-21 19:00;CYOW 211900Z 07009KT 15SM VCSH BKN030 OVC077 24/18 A2977 RMK CU6AC2 SLP080

CYOW;2009-06-21 20:00;CYOW 212000Z 04007KT 15SM VCSH BKN028 BKN240 25/19 A2976 RMK CU6CI0 TCU ASOCTD SLP079

CYOW;2009-06-21 21:00;CYOW 212100Z 06006KT 15SM VCSH BKN030TCU BKN240 25/18 A2977 RMK TCU6CI0 SLP080

CYOW;2009-06-21 22:00;CYOW 212200Z 07006KT 15SM BKN033TCU BKN120 BKN240 25/18 A2977 RMK TCU5AC1CI1 SLP081

CYOW;2009-06-21 23:00;CYOW 212300Z 02006KT 15SM VCSH SCT035TCU BKN055 BKN240 24/18 A2978 RMK TCU4SC1CI1 CB ASOCTD NE SLP083

CYOW;2009-06-22 00:00;CYOW 220000Z 07013KT 15SM -SHRA FEW035TCU SCT060 BKN120 BKN240 23/19 A2979 RMK TCU2SC2AC1CI1 CB ASOCTD HVY SH SE SLP089

CYOW;2009-06-22 00:18;CYOW 220018Z 03004KT 15SM FEW025TCU SCT056 BKN120 BKN240 21/ RMK TCU2SC2AC1CI1 HVY SH DIST S

CYOW;2009-06-22 01:00;CYOW 220100Z 02004KT 15SM FEW035TCU SCT050 BKN100 BKN240 21/18 A2980 RMK TCU1SC2AC2CI1 SLP091

CYOW;2009-06-22 02:00;CYOW 220200Z 05004KT 15SM FEW037 SCT100 BKN240 21/19 A2982 RMK SC2AC1CI1 SLP098

CYOW;2009-06-22 03:00;CYOW 220300Z 06010KT 15SM FEW037 21/18 A2983 RMK SC2 SLP101

CYOW;2009-06-22 04:00;CYOW 220400Z 05006KT 15SM FEW040 20/17 A2983 RMK SC1 SLP102

CYOW;2009-06-22 05:00;CYOW 220500Z 05007KT 15SM FEW040 19/16 A2984 RMK SC1 SLP104

CYOW;2009-06-22 06:00;CYOW 220600Z 01004KT 15SM FEW040 18/16 A2984 RMK SC1 SLP105

CYOW;2009-06-22 07:00;CYOW 220700Z 01005KT 15SM FEW040 18/16 A2984 RMK SC1 SLP106

CYOW;2009-06-22 08:00;CYOW 220800Z 03006KT 15SM FEW050 18/15 A2984 RMK SC1 SLP105

CYOW;2009-06-22 09:00;CYOW 220900Z 03007KT 15SM FEW050 17/15 A2985 RMK SC1 SLP108

CYOW;2009-06-22 10:00;CYOW 221000Z 02007KT 15SM FEW010 FEW050 18/15 A2986 RMK CF1SC1 SLP111

CYOW;2009-06-22 11:00;CYOW 221100Z 02008KT 15SM FEW010 FEW050 18/15 A2987 RMK CF1SC1 CLDS TR SLP114

CYOW;2009-06-22 12:00;CYOW 221200Z 05008KT 15SM FEW010 FEW120 20/15 A2988 RMK CF1AC1 SLP117

CYOW;2009-06-22 13:00;CYOW 221300Z 03010KT 15SM FEW028 21/14 A2988 RMK CF1 SLP117

CYOW;2009-06-22 14:00;CYOW 221400Z 05009KT 15SM FEW032 22/14 A2987 RMK CU2 SLP116

CYOW;2009-06-22 15:00;CYOW 221500Z 02008G15KT 15SM SCT036 23/14 A2986 RMK CU3 SLP111

CYOW;2009-06-22 16:00;CYOW 221600Z 36009KT 15SM SCT044 24/14 A2985 RMK CU3 SLP109

CYOW;2009-06-22 17:00;CYOW 221700Z 07012G17KT 15SM SCT052 26/15 A2985 RMK SC3 SLP106

CYOW;2009-06-22 18:00;CYOW 221800Z 06010KT 15SM SCT058 26/14 A2984 RMK SC3 SLP104

CYOW;2009-06-22 19:00;CYOW 221900Z 06010KT 15SM SCT060 27/14 A2984 RMK SC4 SLP103

CYOW;2009-06-22 20:00;CYOW 222000Z 08010G15KT 15SM FEW058 27/15 A2984 RMK SC2 SLP103

CYOW;2009-06-22 21:00;CYOW 222100Z 08009KT 15SM FEW060 26/15 A2984 RMK SC1 SLP104

CYOW;2009-06-22 22:00;CYOW 222200Z 08007KT 15SM FEW065 26/15 A2983 RMK SC1 SLP102

CYOW;2009-06-22 23:00;CYOW 222300Z 11007KT 15SM FEW065 25/15 A2984 RMK SC1 SLP103

CYOW;2009-06-23 00:00;CYOW 230000Z 11004KT 15SM FEW065 23/15 A2985 RMK SC1 SLP110

CYOW;2009-06-23 01:00;CYOW 230100Z 09007KT 15SM FEW210 21/14 A2987 RMK CI1 SLP115

CYOW;2009-06-23 02:00;CYOW 230200Z 09005KT 15SM FEW210 19/14 A2989 RMK CI1 SLP122

CYOW;2009-06-23 03:00;CYOW 230300Z 09004KT 15SM SKC 18/14 A2990 RMK SLP126

CYOW;2009-06-23 04:00;CYOW 230400Z 06004KT 15SM SKC 19/14 A2991 RMK SLP129

CYOW;2009-06-23 05:00;CYOW 230500Z 06005KT 15SM SKC 19/13 A2990 RMK SLP126

CYOW;2009-06-23 06:00;CYOW 230600Z 04004KT 15SM SKC 18/13 A2989 RMK SLP123

CYOW;2009-06-23 07:00;CYOW 230700Z 01004KT 15SM SKC 17/13 A2988 RMK SLP118

CYOW;2009-06-23 08:00;CYOW 230800Z 36006KT 15SM FEW065 16/13 A2989 RMK SC1 SLP121

CYOW;2009-06-23 09:00;CYOW 230900Z 35006KT 15SM FEW210 14/13 A2990 RMK CI1 SLP125

CYOW;2009-06-23 10:00;CYOW 231000Z 36005KT 15SM FEW210 15/13 A2991 RMK CI1 SLP128

CYOW;2009-06-23 11:00;CYOW 231100Z 36007KT 15SM FEW170 FEW220 18/14 A2991 RMK AC1CI0 SLP130

CYOW;2009-06-23 12:00;CYOW 231200Z 36006KT 15SM FEW170 FEW220 20/14 A2992 RMK AC1CI0 SLP132

CYOW;2009-06-23 13:00;CYOW 231300Z 35007KT 15SM FEW170 FEW220 22/14 A2993 RMK AC1CI1 SLP134

CYOW;2009-06-23 14:00;CYOW 231400Z 35006KT 15SM FEW150 23/15 A2991 RMK AC1 SLP130

CYOW;2009-06-23 15:00;CYOW 231500Z 03007KT 15SM FEW050 FEW170 FEW240 25/15 A2991 RMK CU1AC1CI1 SLP130

CYOW;2009-06-23 16:00;CYOW 231600Z 03007KT 15SM FEW050 FEW240 26/13 A2990 RMK CU1CI1 SLP125

CYOW;2009-06-23 17:00;CYOW 231700Z 07010KT 15SM FEW050 FEW240 27/12 A2988 RMK CU1CI1 SLP120

CYOW;2009-06-23 18:00;CYOW 231800Z 06007KT 15SM FEW240 27/11 A2988 RMK CI1 SLP118

CYOW;2009-06-23 19:00;CYOW 231900Z 07009KT 15SM FEW240 29/11 A2987 RMK CI1 SLP115

CYOW;2009-06-23 20:00;CYOW 232000Z 07003KT 15SM FEW240 29/11 A2986 RMK CI1 SLP110

CYOW;2009-06-23 21:00;CYOW 232100Z 03008KT 15SM FEW240 29/10 A2985 RMK CI1 SLP109

CYOW;2009-06-23 22:00;CYOW 232200Z 12005KT 15SM FEW240 29/11 A2985 RMK CI1 SLP107

CYOW;2009-06-23 23:00;CYOW 232300Z 12006KT 15SM FEW240 28/13 A2985 RMK CI1 SLP108

CYOW;2009-06-24 00:00;CYOW 240000Z 14004KT 15SM FEW200 FEW240 25/14 A2985 RMK CI1CI1 SLP107

CYOW;2009-06-24 01:00;CYOW 240100Z 18003KT 15SM FEW200 FEW240 25/12 A2985 RMK CI1CI0 SLP107

CYOW;2009-06-24 02:00;CYOW 240200Z 22004KT 15SM SKC 24/12 A2986 RMK SLP111

CYOW;2009-06-24 03:00;CYOW 240300Z 23004KT 15SM SKC 23/12 A2986 RMK SLP111

CYOW;2009-06-24 04:00;CYOW 240400Z 14003KT 15SM SKC 18/12 A2987 RMK SLP114

CYOW;2009-06-24 05:00;CYOW 240500Z 18002KT 15SM SKC 19/11 A2986 RMK SLP111

CYOW;2009-06-24 06:00;CYOW 240600Z 00000KT 15SM SKC 20/11 A2986 RMK SLP110

CYOW;2009-06-24 07:00;CYOW 240700Z 26002KT 15SM SKC 20/11 A2986 RMK SLP112

CYOW;2009-06-24 08:00;CYOW 240800Z 07006KT 15SM SKC 16/12 A2987 RMK SLP115

CYOW;2009-06-24 09:00;CYOW 240900Z 07003KT 15SM FEW200 FEW240 16/12 A2988 RMK CI1CI1 SLP117

CYOW;2009-06-24 10:00;CYOW 241000Z 06003KT 15SM FEW200 FEW240 18/12 A2988 RMK CI1CI0 SLP118

CYOW;2009-06-24 11:00;CYOW 241100Z 08002KT 15SM FEW200 20/13 A2988 RMK CI1 SLP119

CYOW;2009-06-24 12:00;CYOW 241200Z 03002KT 15SM FEW200 22/14 A2989 RMK CI1 SLP120

CYOW;2009-06-24 13:00;CYOW 241300Z 08004KT 15SM SCT200 23/14 A2988 RMK CI0 SLP119

CYOW;2009-06-24 14:00;CYOW 241400Z 07005KT 15SM SCT200 24/15 A2988 RMK CI0 SLP119

CYOW;2009-06-24 15:00;CYOW 241500Z 00000KT 15SM FEW200 SCT240 25/15 A2987 RMK CI0CI0 SLP115

CYOW;2009-06-24 16:00;CYOW 241600Z 08004KT 15SM FEW200 FEW240 28/16 A2987 RMK CI1CI0 SLP114

CYOW;2009-06-24 17:00;CYOW 241700Z 12003KT 15SM FEW160 FEW200 29/15 A2986 RMK AC1CI0 SLP111

CYOW;2009-06-24 18:00;CYOW 241800Z 16003KT 15SM FEW160 FEW200 29/15 A2985 RMK AC1CI0 SLP107

CYOW;2009-06-24 19:00;CYOW 241900Z 18003KT 15SM FEW060 FEW160 29/15 A2983 RMK CU1AC1 SLP102

CYOW;2009-06-24 20:00;CYOW 242000Z 17004KT 15SM FEW060 FEW160 30/14 A2982 RMK CU1AC1 SLP097

CYOW;2009-06-24 21:00;CYOW 242100Z CCA 15004KT 15SM FEW060 FEW160 30/15 A2981 RMK CU1AC1 AC TR SLP094

CYOW;2009-06-24 22:00;CYOW 242200Z 12005KT 15SM FEW060 FEW160 30/15 A2979 RMK CU1AC1 SLP087

CYOW;2009-06-24 23:00;CYOW 242300Z 15005KT 15SM FEW200 FEW240 29/16 A2979 RMK CI1CI1 TCU TOPS DIST E SLP089

CYOW;2009-06-25 00:00;CYOW 250000Z 17004KT 15SM FEW200 FEW240 27/16 A2978 RMK CI1CI1 SLP084

CYOW;2009-06-25 01:00;CYOW 250100Z 17003KT 15SM FEW180 FEW200 SCT240 25/15 A2978 RMK AC1CI1CI0 TCU TOP DIST N SLP085

CYOW;2009-06-25 02:00;CYOW 250200Z 19004KT 15SM FEW180 SCT210 25/15 A2979 RMK AC2CI2 SLP087

CYOW;2009-06-25 03:00;CYOW 250300Z 19004KT 15SM FEW200 BKN250 24/15 A2978 RMK CI1CI0 SLP085

CYOW;2009-06-25 04:00;CYOW 250400Z 21003KT 15SM SCT081 OVC250 23/15 A2978 RMK AC3CI0 SLP085

CYOW;2009-06-25 05:00;CYOW 250500Z 19003KT 15SM FEW070 SCT090 BKN240 23/16 A2978 RMK AC2AC2CI0 SLP083

CYOW;2009-06-25 06:00;CYOW 250600Z 19004KT 15SM FEW090 SCT120 22/16 A2976 RMK AC2AC2 SLP078

CYOW;2009-06-25 07:00;CYOW 250700Z 22005KT 15SM FEW120 21/16 A2976 RMK AC2 SLP075

CYOW;2009-06-25 08:00;CYOW 250800Z 00000KT 15SM FEW060 FEW120 SCT200 21/16 A2976 RMK SC1AC1CI2 SLP075

CYOW;2009-06-25 09:00;CYOW 250900Z 19004KT 15SM FEW060 FEW120 FEW200 BKN240 20/16 A2975 RMK SC1AC1CI1CI0 AC TR SLP074

CYOW;2009-06-25 10:00;CYOW 251000Z 19004KT 15SM FEW060TCU FEW200 BKN240 19/16 A2976 RMK TCU1CI1CI2 TCU E SLP076

CYOW;2009-06-25 11:00;CYOW 251100Z 20004KT 15SM FEW060TCU SCT200 BKN240 20/16 A2975 RMK TCU1CI2CI2 TCU E SLP073

CYOW;2009-06-25 12:00;CYOW 251200Z 23003KT 15SM FEW060TCU SCT140 BKN200 BKN250 23/17 A2974 RMK TCU1AC3CI2CI1 SLP071

CYOW;2009-06-25 13:00;CYOW 251300Z 23005KT 15SM SCT140 BKN200 BKN250 24/18 A2973 RMK AC3CI2CI1 SLP068

CYOW;2009-06-25 14:00;CYOW 251400Z 26006KT 15SM FEW140 SCT200 SCT250 26/19 A2972 RMK AC1CI2CI0 SLP064

CYOW;2009-06-25 15:00;CYOW 251500Z 20005KT 15SM FEW140 FEW200 BKN250 28/19 A2971 RMK AC1CI2CI1 AC TR SLP060

CYOW;2009-06-25 16:00;CYOW 251600Z 22009KT 15SM FEW140 FEW200 SCT250 30/19 A2970 RMK AC1CI2CI0 AC TR SLP055

CYOW;2009-06-25 17:00;CYOW 251700Z 25008KT 15SM FEW040 FEW140 SCT250 31/16 A2968 RMK CU1AC1CI1 CU TR SLP048

CYOW;2009-06-25 18:00;CYOW 251800Z 24009KT 15SM FEW040 FEW140 SCT250 32/18 A2964 RMK CU1AC1CI1 CU TR SLP035

CYOW;2009-06-25 19:00;CYOW 251900Z 25005KT 15SM FEW040 SCT250 33/19 A2963 RMK CU1CI1 SLP032

CYOW;2009-06-25 20:00;CYOW 252000Z CCA 29009KT 15SM FEW040 SCT100 BKN240 33/12 A2962 RMK CU1AC3CI1 CU TR SLP030

CYOW;2009-06-25 21:00;CYOW 252100Z 28007KT 15SM FEW040 BKN120 BKN200 31/13 A2962 RMK CU2AC3CI1 TCU ASOCT SLP030

CYOW;2009-06-25 22:00;CYOW 252200Z 25006KT 15SM FEW040 SCT120 BKN200 30/15 A2960 RMK CU1AC3CI2 SLP023

CYOW;2009-06-25 23:00;CYOW 252300Z 30005KT 15SM FEW060TCU FEW180 BKN220 29/14 A2960 RMK TCU1AC1CI6 CB DIST N SLP023

CYOW;2009-06-26 00:00;CYOW 260000Z 17004KT 15SM FEW065 FEW160 SCT220 29/15 A2960 RMK SC1AC1CI2 CB DIST NE SLP023

CYOW;2009-06-26 01:00;CYOW 260100Z 20004KT 15SM FEW160 SCT220 27/17 A2961 RMK AC1CI2 SLP024

CYOW;2009-06-26 02:00;CYOW 260200Z 19007KT 15SM FEW160 FEW220 25/18 A2962 RMK AC1CI2 SLP028

CYOW;2009-06-26 03:00;CYOW 260300Z 20005KT 15SM SCT230 23/17 A2962 RMK CI3 SLP031

CYOW;2009-06-26 04:00;CYOW 260400Z 23005KT 15SM FEW060 BKN170 23/16 A2961 RMK CU1AC6 LTGIC DIST N SLP026

CYOW;2009-06-26 05:00;CYOW 260500Z 24007KT 15SM FEW070 BKN170 23/17 A2961 RMK AC1AC6 LTGIC DIST N-NE SLP025

CYOW;2009-06-26 06:00;CYOW 260600Z 22006KT 15SM FEW020 FEW076 BKN160 22/17 A2961 RMK CU1AC2AC6 SLP025

CYOW;2009-06-26 07:00;CYOW 260700Z 23005KT 15SM FEW040 SCT080 OVC130 22/17 A2961 RMK CU1AC2AC5 SLP024

CYOW;2009-06-26 08:00;CYOW 260800Z 22004KT 15SM FEW080 FEW130 FEW300 21/16 A2960 RMK AC1AC2CI1 LTGIC N CB N SLP021

CYOW;2009-06-26 09:00;CYOW 260900Z 22004KT 15SM FEW060 BKN140 BKN300 20/16 A2959 RMK CU1AC5CI1 LTGIC N SLP019

CYOW;2009-06-26 10:00;CYOW 261000Z 25006KT 15SM FEW070 BKN140 19/16 A2960 RMK AC1AC5 SLP023

CYOW;2009-06-26 11:00;CYOW 261100Z 30012G18KT 15SM FEW070 FEW140 BKN250 21/15 A2965 RMK AC1AC2CI1 SLP037

CYOW;2009-06-26 12:00;CYOW 261200Z 32011G16KT 15SM FEW070 FEW140 FEW250 22/15 A2962 RMK AC1AC2CI0 SLP029

CYOW;2009-06-26 13:00;CYOW 261300Z 35011KT 15SM FEW035 FEW140 23/14 A2964 RMK CU1AC2 SLP036

CYOW;2009-06-26 14:00;CYOW 261400Z 35013G18KT 15SM FEW035 FEW140 BKN250 24/14 A2964 RMK CU1AC2CI1 SLP037

CYOW;2009-06-26 15:00;CYOW 261500Z 34013KT 15SM FEW040 BKN077 BKN140 25/13 A2965 RMK CU1AC4AC2 SLP040

CYOW;2009-06-26 16:00;CYOW 261600Z 32008KT 15SM FEW050 BKN077 BKN140 26/13 A2965 RMK CU2AC4AC1 SH DIST NW SLP041

CYOW;2009-06-26 16:28;CYOW 261628Z CCA 30015G20KT 15SM -SHRA SCT060 BKN076 22/ RMK SC3AC4 CVCTV CLDS EMBD

CYOW;2009-06-26 17:00;CYOW 261700Z 29010G15KT 15SM -SHRA SCT060 BKN077 20/15 A2967 RMK SC3AC4 VRY LGT SH CVCTV CLDS EMBD SLP046

CYOW;2009-06-26 17:39;CYOW 261739Z 28007KT 15SM FEW060 BKN120 19/ RMK CU2AC3

CYOW;2009-06-26 18:00;CYOW 261800Z CCA 30008KT 15SM SCT040 BKN120 22/16 A2965 RMK CU3AC3 VRY DARK S QUAD TCU S SLP039

CYOW;2009-06-26 19:00;CYOW 261900Z 28011KT 15SM SCT040 BKN100 BKN140 23/15 A2965 RMK CU3AC3AC1 TCU ALL QUADS SLP042

CYOW;2009-06-26 20:00;CYOW 262000Z 29011KT 15SM SCT040 BKN100 23/15 A2965 RMK CU3AC3 TCU ALL QUADS SLP041

CYOW;2009-06-26 21:00;CYOW 262100Z 28011KT 15SM SCT040 BKN100 24/15 A2965 RMK CU3AC2 TCU ALL QUADS SLP040

CYOW;2009-06-26 21:54;CYOW 262154Z 28010KT 15SM TS BKN040 BKN100 22/ RMK SC6AC2 CB EMBD

CYOW;2009-06-26 22:00;CYOW 262200Z 27010KT 15SM TS BKN040 BKN100 22/15 A2966 RMK SC6AC2 CB EMBD SLP043

CYOW;2009-06-26 22:34;CYOW 262234Z 31009KT 12SM -TSRA BKN050 BKN100 21/ RMK SC6AC1 CB EMBD OCNL LTNG OVHD

CYOW;2009-06-26 22:40;CYOW 262240Z 34018KT 2SM TSRA FEW008TCU BKN020 BKN100 17/ RMK TCU2SC4AC1 CB EMBD OCNL LTNG OVHD

CYOW;2009-06-26 23:00;CYOW 262300Z 25006KT 12SM -TSRA BKN030 BKN040 18/15 A2967 RMK SC5SC2 CB EMBD OCNL LTNG SE SLP047

CYOW;2009-06-26 23:35;CYOW 262335Z 25004KT 12SM FEW020TCU FEW030 BKN110 20/ RMK TCU2SC1AC2 DIST PCPN E SW

CYOW;2009-06-27 00:00;CYOW 270000Z 27007KT 12SM FEW020TCU SCT050 SCT210 20/18 A2967 RMK TCU2SC2CI1 RESHRA DIST PCPN E SLP046

CYOW;2009-06-27 01:00;CYOW 270100Z 34007KT 15SM FEW048 BKN120 20/17 A2968 RMK SC2AC4 DIST PCPN SE SLP051

CYOW;2009-06-27 02:00;CYOW 270200Z 31005KT 15SM FEW040 SCT120 19/16 A2970 RMK SC1AC3 SLP056

CYOW;2009-06-27 02:15;CYOW 270215Z 31006KT 15SM -RA BKN110 19/ RMK AC6

CYOW;2009-06-27 02:43;CYOW 270243Z 31008KT 15SM BKN110 19/ RMK AC5

CYOW;2009-06-27 03:00;CYOW 270300Z 32010KT 15SM FEW030 BKN130 18/16 A2971 RMK SC2AC5 SLP062

CYOW;2009-06-27 04:00;CYOW 270400Z 32007KT 15SM FEW030 BKN080 18/16 A2971 RMK SC2AC6 SLP062

CYOW;2009-06-27 05:00;CYOW 270500Z 32007KT 10SM -RA BKN080 OVC100 18/16 A2972 RMK AC5AC3 SLP063

CYOW;2009-06-27 06:00;CYOW 270600Z 32007KT 12SM -RA BKN030 18/16 A2972 RMK SC5 SLP063

CYOW;2009-06-27 07:00;CYOW 270700Z 32010KT 12SM BKN062 18/16 A2972 RMK SC5 SLP064

CYOW;2009-06-27 08:00;CYOW 270800Z 32008KT 15SM BKN120 17/15 A2972 RMK AC6 SLP065

CYOW;2009-06-27 09:00;CYOW 270900Z 33007KT 15SM BKN120 17/15 A2974 RMK AC5 SLP071

CYOW;2009-06-27 10:00;CYOW 271000Z 32008KT 15SM SCT060 SCT100 17/14 A2976 RMK SC3AC1 SLP077

CYOW;2009-06-27 11:00;CYOW 271100Z 33011KT 15SM BKN052 BKN120 17/14 A2979 RMK SC5AC2 SLP086

CYOW;2009-06-27 12:00;CYOW 271200Z 33011KT 15SM FEW060 BKN100 17/14 A2979 RMK SC2AC4 SLP090

CYOW;2009-06-27 13:00;CYOW 271300Z 32011KT 15SM BKN077 OVC100 18/14 A2980 RMK AC6AC2 SLP093

CYOW;2009-06-27 14:00;CYOW 271400Z 30006KT 15SM FEW073 BKN120 19/15 A2981 RMK AC2AC5 SLP094

CYOW;2009-06-27 15:00;CYOW 271500Z 32010KT 15SM OVC073 19/15 A2980 RMK AC8 SLP093

CYOW;2009-06-27 16:00;CYOW 271600Z 33007KT 15SM SCT090 BKN120 21/16 A2978 RMK AC3AC4 SLP084

CYOW;2009-06-27 17:00;CYOW 271700Z 34009KT 12SM FEW030 SCT120 23/16 A2977 RMK CU1AC2 SLP082

CYOW;2009-06-27 18:00;CYOW 271800Z 33009KT 12SM SCT036 SCT120 24/15 A2977 RMK CU3AC1 SLP081

CYOW;2009-06-27 19:00;CYOW 271900Z 34009KT 12SM SCT040 25/16 A2977 RMK CU4 SLP080

CYOW;2009-06-27 20:00;CYOW 272000Z 35007KT 12SM SCT048 26/16 A2976 RMK CU4 SLP079

CYOW;2009-06-27 21:00;CYOW 272100Z 34012KT 12SM SCT050 26/15 A2976 RMK CU4 SLP079

CYOW;2009-06-27 22:00;CYOW 272200Z 34010G15KT 12SM BKN053 BKN090 26/15 A2976 RMK CU5AC2 SLP078

CYOW;2009-06-27 23:00;CYOW 272300Z 36008KT 15SM SCT050 BKN070 25/14 A2977 RMK CU4AC3 SLP081

CYOW;2009-06-28 00:00;CYOW 280000Z 03004KT 15SM SCT050 BKN077 24/15 A2977 RMK CU3AC4 SLP081

CYOW;2009-06-28 01:00;CYOW 280100Z 36003KT 15SM FEW050 BKN100 23/15 A2977 RMK CU2AC3 SLP080

CYOW;2009-06-28 02:00;CYOW 280200Z 00000KT 15SM FEW050 BKN085 22/15 A2977 RMK CU2AC6 SLP081

CYOW;2009-06-28 03:00;CYOW 280300Z 10002KT 15SM FEW100 21/15 A2975 RMK AC2 SLP075

CYOW;2009-06-28 04:00;CYOW 280400Z 16002KT 15SM FEW100 19/15 A2975 RMK AC1 SLP073

CYOW;2009-06-28 05:00;CYOW 280500Z 00000KT 15SM FEW100 19/15 A2974 RMK AC1 SLP071

CYOW;2009-06-28 06:00;CYOW 280600Z 00000KT 15SM FEW100 19/16 A2974 RMK AC1 SLP070

CYOW;2009-06-28 07:00;CYOW 280700Z 02002KT 15SM FEW100 18/15 A2974 RMK AC1 SLP071

CYOW;2009-06-28 08:00;CYOW 280800Z 05002KT 15SM BKN080 18/16 A2973 RMK AC4 SLP069

CYOW;2009-06-28 09:00;CYOW 280900Z 05005KT 12SM FEW080 17/16 A2973 RMK AC2 SLP066

CYOW;2009-06-28 09:28;CYOW 280928Z CCA 08003KT 3/4SM R07/1400FT/N R32/1600FT/U BR SKC 16/ RMK FG2

CYOW;2009-06-28 09:44;CYOW 280944Z 08005KT 1/4SM R07/1200FT/N R32/1000FT/N FG SKC 16/ RMK FG3

CYOW;2009-06-28 10:00;CYOW 281000Z CCA 07006KT 1/4SM R07/1400FT/N R32/1400FT/N FG SKC 16/16 A2973 RMK FG4 SLP069

CYOW;2009-06-28 11:00;CYOW 281100Z 09005KT 1/4SM R07/1400FT/N R32/0900FT/N FG SKC 17/17 A2973 RMK FG5 SLP067

CYOW;2009-06-28 12:00;CYOW 281200Z 09008KT 3/4SM BR SKC 18/17 A2973 RMK FG6 SLP066

CYOW;2009-06-28 12:16;CYOW 281216Z 09007KT 3SM BR BKN003 18/ RMK SF6 VIS E 1 MILE

CYOW;2009-06-28 12:44;CYOW 281244Z 11009KT 4SM BR BKN006 20/ RMK SF5

CYOW;2009-06-28 13:00;CYOW 281300Z 09009KT 7SM FEW008 SCT160 21/18 A2971 RMK SF2AC1 SLP062

CYOW;2009-06-28 14:00;CYOW 281400Z 10008KT 10SM FEW015 FEW160 23/18 A2971 RMK CF2AC1 SLP059

CYOW;2009-06-28 15:00;CYOW 281500Z 12007KT 12SM BKN020 24/18 A2969 RMK CU5 SLP054

CYOW;2009-06-28 16:00;CYOW 281600Z 12008KT 12SM BKN028 24/17 A2967 RMK CU6 SLP048

CYOW;2009-06-28 17:00;CYOW 281700Z 13009KT 12SM BKN030 25/17 A2965 RMK CU6 SLP039

CYOW;2009-06-28 18:00;CYOW 281800Z 14006KT 15SM SCT033 26/18 A2962 RMK CU4 SLP030

CYOW;2009-06-28 19:00;CYOW 281900Z 13005KT 15SM BKN033 27/17 A2961 RMK CU5 SLP025

CYOW;2009-06-28 20:00;CYOW 282000Z 11009KT 15SM SCT040 BKN090 27/17 A2959 RMK CU3AC2 SLP018

CYOW;2009-06-28 21:00;CYOW 282100Z 13007KT 15SM SCT040 BKN110 27/17 A2957 RMK CU3AC3 SLP013

CYOW;2009-06-28 21:42;CYOW 282142Z 12006KT 15SM -SHRA BKN044TCU BKN110 25/ RMK TCU5AC2

CYOW;2009-06-28 22:00;CYOW 282200Z 09006KT 15SM BKN045 BKN120 25/18 A2956 RMK CU6AC2 SLP009

CYOW;2009-06-28 22:29;CYOW 282229Z 13011KT 12SM -SHRA BKN040 BKN080 23/ RMK SC6AC2 CB EMBD

CYOW;2009-06-28 23:00;CYOW 282300Z 12010KT 12SM -SHRA BKN040 BKN080 21/19 A2956 RMK SC6AC2 CB EMBD SLP008

CYOW;2009-06-28 23:27;CYOW 282327Z 08009KT 12SM BKN040 OVC100 20/ RMK SC5AC3 CB ASOCT

CYOW;2009-06-29 00:00;CYOW 290000Z 09007KT 15SM BKN056 OVC080 20/18 A2954 RMK SC6AC2 CB ASOCT SLP005

CYOW;2009-06-29 01:00;CYOW 290100Z 27008KT 15SM -SHRA BKN055 OVC080 21/15 A2956 RMK SC6AC2 CB ASOCT SLP011

CYOW;2009-06-29 01:36;CYOW 290136Z 28005KT 15SM SCT050 BKN080 OVC140 20/ RMK SC3AC3AC2

CYOW;2009-06-29 02:00;CYOW 290200Z CCA 26005KT 15SM -SHRA BKN042 OVC080 19/15 A2957 RMK SC6AC2 CVCTV CLDS EMBD SLP014

CYOW;2009-06-29 02:48;CYOW 290248Z 23004KT 15SM OVC041 19/ RMK SC8

CYOW;2009-06-29 03:00;CYOW 290300Z 24005KT 15SM OVC041 19/15 A2956 RMK SC8 SLP009

CYOW;2009-06-29 04:00;CYOW 290400Z 26004KT 15SM OVC040 18/15 A2954 RMK SC8 SLP002

CYOW;2009-06-29 05:00;CYOW 290500Z 24004KT 15SM SCT070 OVC150 18/15 A2953 RMK AC3AC5 SLP999

CYOW;2009-06-29 06:00;CYOW 290600Z 20002KT 15SM FEW010 BKN070 OVC150 18/16 A2952 RMK SC1AC5AC2 SLP996

CYOW;2009-06-29 07:00;CYOW 290700Z 17003KT 15SM SCT010 OVC040 17/16 A2951 RMK SC3SC5 SLP991

CYOW;2009-06-29 07:22;CYOW 290722Z 15003KT 12SM -SHRA SCT010 OVC053 17/ RMK SC3SC5 CVCTV CLDS EMBD

CYOW;2009-06-29 08:00;CYOW 290800Z 14003KT 15SM -RA BKN015 OVC040 17/16 A2950 RMK SC6SC2 SLP989

CYOW;2009-06-29 09:00;CYOW 290900Z CCA 14002KT 3SM -RA BR OVC007 17/16 A2949 RMK SC8 SLP987

CYOW;2009-06-29 10:00;CYOW 291000Z 20003KT 3SM -RA BR OVC007 17/16 A2949 RMK SC8 SLP986

CYOW;2009-06-29 11:00;CYOW 291100Z 21003KT 10SM -RA OVC007 17/16 A2948 RMK SC8 SLP984

CYOW;2009-06-29 12:00;CYOW 291200Z 25003KT 15SM SCT007 BKN039 17/16 A2947 RMK SF4SC2 SLP979

CYOW;2009-06-29 13:00;CYOW 291300Z 00000KT 15SM BKN016 OVC040 18/16 A2947 RMK SC6SC2 SLP980

CYOW;2009-06-29 13:27;CYOW 291327Z 30004KT 15SM SCT009 BKN014 OVC030 19/ RMK SF3SC4SC1

CYOW;2009-06-29 14:00;CYOW 291400Z CCA 30004KT 15SM FEW010 BKN013 BKN045 19/17 A2946 RMK SF2SC4SC2 CU ASOCT SLP976

CYOW;2009-06-29 15:00;CYOW 291500Z 29005KT 15SM FEW016 BKN021 BKN045 21/16 A2945 RMK SC2SC3SC2 CU ASOCT SLP973

CYOW;2009-06-29 16:00;CYOW 291600Z 29006KT 15SM BKN021 BKN070 22/16 A2944 RMK CU5AC2 SLP969

CYOW;2009-06-29 17:00;CYOW 291700Z 24006KT 15SM BKN035 23/17 A2943 RMK CU6 SLP965

CYOW;2009-06-29 18:00;CYOW 291800Z 27009KT 15SM BKN038 24/16 A2941 RMK CU6 SLP959

CYOW;2009-06-29 19:00;CYOW 291900Z 30011KT 15SM BKN045 BKN160 BKN240 25/15 A2940 RMK CU5AC2CI0 SLP957

CYOW;2009-06-29 20:00;CYOW 292000Z 27005KT 15SM FEW045 FEW120 25/14 A2939 RMK CU2AC1 SLP953

CYOW;2009-06-29 21:00;CYOW 292100Z 25004KT 15SM SCT057 BKN100 BKN240 26/15 A2938 RMK CU3AC2CI1 SLP948

CYOW;2009-06-29 22:00;CYOW 292200Z 20011KT 15SM BKN055 BKN100 23/16 A2939 RMK CU6AC2 SLP953

CYOW;2009-06-29 22:19;CYOW 292219Z 21018KT 15SM -SHRA BKN044 OVC100 20/ RMK CU6AC2

CYOW;2009-06-29 23:00;CYOW 292300Z 32004KT 10SM -SHRA BKN044 BKN050 19/15 A2942 RMK CU5SC2 SLP961

CYOW;2009-06-29 23:18;CYOW 292318Z 04002KT 12SM SCT044 BKN068 20/ RMK CU3AC3 DIST PCPN E - SE

CYOW;2009-06-30 00:00;CYOW 300000Z 11003KT 15SM FEW044TCU BKN100 20/17 A2942 RMK TCU2AC4 DIST PCP E SLP963

CYOW;2009-06-30 01:00;CYOW 300100Z 05005KT 15SM FEW044 SCT068 18/16 A2944 RMK CU2AC2 SLP969

CYOW;2009-06-30 02:00;CYOW 300200Z 15004KT 15SM FEW044 FEW078 17/15 A2945 RMK CU1AC2 SLP972

CYOW;2009-06-30 03:00;CYOW 300300Z 17003KT 15SM BKN110 BKN120 17/15 A2945 RMK AC5AC1 SLP972

CYOW;2009-06-30 04:00;CYOW 300400Z 19005KT 15SM BKN110 18/16 A2945 RMK AC6 SLP974

CYOW;2009-06-30 05:00;CYOW 300500Z 17003KT 15SM FEW120 17/15 A2946 RMK AC1 SLP976

CYOW;2009-06-30 06:00;CYOW 300600Z 17003KT 15SM FEW120 16/15 A2946 RMK AC1 SLP976

CYOW;2009-06-30 07:00;CYOW 300700Z 17005KT 15SM FEW140 15/14 A2946 RMK AC1 SLP977

CYOW;2009-06-30 08:00;CYOW 300800Z 16005KT 15SM FEW140 15/14 A2948 RMK AC2 SLP981

CYOW;2009-06-30 09:00;CYOW 300900Z 14004KT 15SM BKN065 BKN110 15/14 A2948 RMK SC5AC2 SLP983

CYOW;2009-06-30 10:00;CYOW 301000Z 09004KT 12SM SCT080 BKN110 16/14 A2950 RMK AC3AC2 SLP988

CYOW;2009-06-30 11:00;CYOW 301100Z 12004KT 15SM SCT080 BKN100 16/15 A2951 RMK AC3AC2 SLP993

CYOW;2009-06-30 12:00;CYOW 301200Z 11004KT 15SM BKN065 BKN085 17/15 A2951 RMK SC6AC2 SLP995

CYOW;2009-06-30 13:00;CYOW 301300Z 10005KT 15SM -RA BKN051 OVC080 17/15 A2953 RMK SC6AC2 VRY LGT RA SLP001

CYOW;2009-06-30 14:00;CYOW 301400Z 08005KT 15SM -RA SCT060 OVC085 17/16 A2954 RMK SC3AC5 SLP004

CYOW;2009-06-30 14:17;CYOW 301417Z 09005KT 15SM BKN065 OVC085 18/ RMK SC5AC3

CYOW;2009-06-30 15:00;CYOW 301500Z 07006KT 15SM SCT065 OVC110 18/17 A2954 RMK SC4AC4 SLP003

CYOW;2009-06-30 16:00;CYOW 301600Z 09005KT 15SM BKN070 OVC110 19/16 A2954 RMK AC5AC3 SLP005

CYOW;2009-06-30 16:34;CYOW 301634Z 10003KT 12SM -RA BKN035 OVC060 19/ RMK SC6SC2

CYOW;2009-06-30 17:00;CYOW 301700Z 10005KT 15SM -RA SCT035 BKN085 20/17 A2954 RMK SC3AC4 SLP005

CYOW;2009-06-30 18:00;CYOW 301800Z 11010KT 15SM SCT023 BKN085 21/17 A2953 RMK SC3AC3 SLP000

CYOW;2009-06-30 19:00;CYOW 301900Z 13008KT 15SM FEW025 SCT110 22/16 A2953 RMK CU1AC2 SLP000

CYOW;2009-06-30 20:00;CYOW 302000Z 13007KT 15SM FEW025 SCT110 BKN210 23/15 A2954 RMK CU1AC2CI1 SLP004

CYOW;2009-06-30 21:00;CYOW 302100Z 13007KT 15SM FEW025 BKN120 23/16 A2954 RMK CU1AC6 SLP005

CYOW;2009-06-30 22:00;CYOW 302200Z 12006KT 15SM FEW025 SCT120 BKN160 22/17 A2955 RMK CU2AC2AS3 SUN DIMELY VSB SLP008

CYOW;2009-06-30 22:51;CYOW 302251Z 12004KT 15SM -RA FEW020 FEW040 SCT110 OVC150 21/ RMK SC1SC1AC2AS5

CYOW;2009-06-30 23:00;CYOW 302300Z 11007KT 15SM -RA FEW020 FEW035 SCT077 OVC110 21/17 A2957 RMK SC1SC2AC2AC4 SLP014

CYOW;2009-06-30 23:40;CYOW 302340Z 16006KT 5SM -TSRA BR FEW008 OVC033 18/ RMK SC2SC6 CB EMBD LTGIC

CYOW;2009-07-01 01:00;CYOW 010100Z 09004KT 10SM FEW013 FEW035 BKN080 OVC110 18/17 A2959 RETS RMK SC1SC1AC5AC2 SLP021

CYOW;2009-07-01 02:00;CYOW 010200Z 12005KT 10SM FEW023 BKN080 OVC110 18/17 A2961 RMK SC2AC3AC2 SLP027

CYOW;2009-07-01 03:00;CYOW 010300Z 11004KT 10SM OVC110 17/17 A2960 RMK AC8 SLP025

CYOW;2009-07-01 04:00;CYOW 010400Z 09003KT 10SM FEW020 BKN060 BKN110 17/16 A2962 RMK CU1SC5AC2 SLP029

CYOW;2009-07-01 05:00;CYOW 010500Z 11004KT 10SM FEW043 BKN093 BKN110 16/16 A2963 RMK SC1AC5AC2 SLP034

CYOW;2009-07-01 06:00;CYOW 010600Z 11005KT 10SM FEW025 SCT093 OVC250 16/15 A2963 RMK CU1AC3CI2 SLP034

CYOW;2009-07-01 07:00;CYOW 010700Z 13006KT 10SM SCT025 OVC250 16/15 A2964 RMK SC3CI5 SLP038

CYOW;2009-07-01 08:00;CYOW 010800Z 10006KT 10SM FEW025 OVC240 15/15 A2965 RMK SC2CI4 SLP040

CYOW;2009-07-01 09:00;CYOW 010900Z 11006KT 10SM FEW025 SCT090 BKN100 BKN240 15/14 A2966 RMK SC1AC3AC2CI1 SLP044

CYOW;2009-07-01 10:00;CYOW 011000Z 11004KT 10SM FEW025 BKN066 BKN090 15/14 A2968 RMK SC1AC4AC2 SLP050

CYOW;2009-07-01 11:00;CYOW 011100Z 10005KT 15SM BKN022 BKN043 16/15 A2969 RMK SC5SC2 SLP055

CYOW;2009-07-01 12:00;CYOW 011200Z 10006KT 15SM BKN033 OVC050 16/15 A2971 RMK SC6SC2 SLP060

CYOW;2009-07-01 12:06;CYOW 011206Z 11006KT 15SM -RA BKN031 OVC050 16/ RMK SC6SC2

CYOW;2009-07-01 12:41;CYOW 011241Z 10005KT 15SM SCT024 BKN035 BKN080 17/ RMK SC3SC3AC1

CYOW;2009-07-01 13:00;CYOW 011300Z 13005KT 15SM SCT025 BKN033 BKN080 18/16 A2972 RMK SC3SC3AC1 SLP064

CYOW;2009-07-01 14:00;CYOW 011400Z 15005KT 15SM FEW013 FEW035 SCT120 20/17 A2972 RMK SF1SC2AC2 SF TR SLP064

CYOW;2009-07-01 15:00;CYOW 011500Z 16005KT 15SM FEW016 BKN030 BKN120 20/17 A2973 RMK SF2SC4AC2 SLP067

CYOW;2009-07-01 16:00;CYOW 011600Z 15006KT 15SM SCT031 BKN120 21/17 A2972 RMK CU3AC2 SLP066

CYOW;2009-07-01 17:00;CYOW 011700Z 16009KT 15SM FEW026 SCT039 23/16 A2971 RMK CU2SC2 SLP062

CYOW;2009-07-01 18:00;CYOW 011800Z 14006KT 15SM SCT030 BKN079 23/16 A2970 RMK CU4AC2 SLP057

CYOW;2009-07-01 19:00;CYOW 011900Z 18005KT 15SM SCT030 BKN080 24/16 A2969 RMK CU3AC2 SLP055

CYOW;2009-07-01 20:00;CYOW 012000Z 18006KT 15SM SCT030TCU SCT080 25/17 A2969 RMK TCU3AC1 SLP055

CYOW;2009-07-01 21:00;CYOW 012100Z 18005KT 15SM BKN030TCU 24/16 A2969 RMK TCU5 SLP055

CYOW;2009-07-01 22:00;CYOW 012200Z 19005KT 15SM SCT030 24/17 A2970 RMK CU4 TCU EMBD E SLP057

CYOW;2009-07-01 23:00;CYOW 012300Z 22007KT 15SM VCSH FEW043TCU FEW250 24/15 A2972 RMK TCU1CI1 CB ASOCT SHRA E SLP063

CYOW;2009-07-01 23:28;CYOW 012328Z 21006KT 15SM TS FEW045TCU FEW180 SCT250 24/ RMK TCU2AC1CI1 CB ASOCT SHRA DIST NE-E

CYOW;2009-07-02 00:00;CYOW 020000Z 16003KT 15SM TS FEW050 FEW180 SCT250 22/15 A2974 RMK SC2AC1CI2 LTGCG NE CB ASOCT SHRA NE-E SLP070

CYOW;2009-07-02 00:19;CYOW 020019Z 10006KT 15SM FEW050 FEW180 SCT250 21/ RETS RMK SC2AC1CI2 CB ASOCT SHRA NE

CYOW;2009-07-02 01:00;CYOW 020100Z 09007KT 15SM FEW050TCU FEW180 SCT250 19/16 A2976 RETS RMK TCU1AC2CI1 CB ASOCT SLP076

CYOW;2009-07-02 02:00;CYOW 020200Z 12006KT 15SM FEW100 FEW180 SCT250 18/15 A2977 RMK AC2AC1CI2 SLP080

CYOW;2009-07-02 03:00;CYOW 020300Z 13005KT 15SM SCT250 18/15 A2976 RMK CI0 SLP078

CYOW;2009-07-02 04:00;CYOW 020400Z 00000KT 15SM BKN250 17/16 A2976 RMK CI0 SLP079

CYOW;2009-07-02 05:00;CYOW 020500Z 06005KT 15SM FEW084 17/15 A2977 RMK AC2 SLP081

CYOW;2009-07-02 06:00;CYOW 020600Z 06004KT 15SM FEW080 16/15 A2976 RMK AC1 SLP078

CYOW;2009-07-02 07:00;CYOW 020700Z 09005KT 15SM OVC210 16/15 A2977 RMK CI6 SLP081

CYOW;2009-07-02 08:00;CYOW 020800Z 09003KT 10SM FEW042 BKN210 16/15 A2977 RMK SC2CI6 SLP082

CYOW;2009-07-02 09:00;CYOW 020900Z 11004KT 8SM FEW045 FEW110 SCT210 15/15 A2978 RMK SC1AC2CI1 SLP085

CYOW;2009-07-02 10:00;CYOW 021000Z 08005KT 6SM BR BKN033 BKN110 BKN250 16/15 A2979 RMK SC5AC1CI1 SLP090

CYOW;2009-07-02 11:00;CYOW 021100Z 07004KT 10SM FEW035 BKN110 BKN250 17/16 A2979 RMK SC2AC3CI1 SLP089

CYOW;2009-07-02 12:00;CYOW 021200Z 05005KT 15SM FEW035 FEW110 SCT210 BKN260 18/16 A2980 RMK SC1AC2CI2CI0 SLP091

CYOW;2009-07-02 13:00;CYOW 021300Z 07004KT 15SM FEW010 FEW035 SCT100 BKN180 BKN250 18/17 A2980 RMK SF1SC2AC2AC2CI0 SF TR SLP093

CYOW;2009-07-02 14:00;CYOW 021400Z 09003KT 15SM FEW010 BKN032 BKN100 BKN250 20/17 A2980 RMK SF1SC5AC2CI1 SF TR SLP091

CYOW;2009-07-02 15:00;CYOW 021500Z 08004KT 15SM FEW015 BKN042 OVC100 21/17 A2979 RMK SF1SC5AC2 SLP089

CYOW;2009-07-02 15:40;CYOW 021540Z 12002KT 4SM -RA BKN022 OVC035 20/ RMK SC5SC3

CYOW;2009-07-02 16:00;CYOW 021600Z 17002KT 12SM -RA BKN019 OVC035 20/18 A2979 RMK SC6SC2 SLP088

CYOW;2009-07-02 17:00;CYOW 021700Z 14003KT 10SM -RA BKN020 OVC100 21/17 A2978 RMK CU5AS3 SLP086

CYOW;2009-07-02 18:00;CYOW 021800Z 06004KT 10SM VCSH SCT017 OVC100 20/18 A2977 RMK CU4AS4 TCU ASOCTD SLP083

CYOW;2009-07-02 19:00;CYOW 021900Z 06002KT 10SM SCT015 OVC100 21/18 A2977 RMK CU3AS5 SLP083

CYOW;2009-07-02 20:00;CYOW 022000Z 04002KT 10SM SCT020 OVC110 22/18 A2976 RMK CU3AS5 SLP078

CYOW;2009-07-02 21:00;CYOW 022100Z 07004KT 10SM SCT020 OVC100 22/18 A2974 RMK CU3AS5 SLP073

CYOW;2009-07-02 21:42;CYOW 022142Z 11008KT 10SM -SHRA BKN017 BKN100 OVC240 20/ RMK CU5AC2CI1 TCU ASOCTD

CYOW;2009-07-02 22:00;CYOW 022200Z 10006KT 7SM -SHRA SCT017 OVC070 19/18 A2974 RMK CU3AC5 VIS S 2 MILES SLP073

CYOW;2009-07-02 23:00;CYOW 022300Z 00000KT 15SM FEW017 FEW025 OVC100 19/18 A2974 RMK CU1SC1AC7 SLP071

CYOW;2009-07-03 00:00;CYOW 030000Z 05003KT 15SM FEW020 BKN055 BKN097 OVC250 19/18 A2974 RMK SC1SC5AC2CI2 SLP073

CYOW;2009-07-03 01:00;CYOW 030100Z 00000KT 10SM OVC015 19/18 A2975 RMK SC8 SLP075

CYOW;2009-07-03 01:20;CYOW 030120Z 00000KT 8SM FEW008 OVC014 19/ RMK SC1SC7

CYOW;2009-07-03 02:00;CYOW 030200Z 29004KT 8SM FEW008 BKN013 OVC110 19/18 A2975 RMK CU1SC5AC2 SLP075

CYOW;2009-07-03 02:45;CYOW 030245Z 29004KT 8SM BKN003 OVC011 18/ RMK SC5SC3

CYOW;2009-07-03 03:00;CYOW 030300Z 29006KT 8SM OVC004 18/17 A2975 RMK SC8 SLP074

CYOW;2009-07-03 03:12;CYOW 030312Z 30006KT 8SM -RA BKN004 OVC011 18/ RMK SC6SC2

CYOW;2009-07-03 03:29;CYOW 030329Z 31006KT 8SM -RA FEW004 OVC020 18/ RMK SC2SC6

CYOW;2009-07-03 04:00;CYOW 030400Z 34004KT 5SM -RA BR FEW005 SCT017 OVC060 18/17 A2974 RMK SC1SC2SC5 SLP073

CYOW;2009-07-03 04:32;CYOW 030432Z 32004KT 5SM -RA BR BKN005 OVC017 18/ RMK SC6SC2

CYOW;2009-07-03 05:00;CYOW 030500Z 32004KT 4SM -RA BR FEW007 OVC020 17/17 A2974 RMK SC1NS7 SLP071

CYOW;2009-07-03 06:00;CYOW 030600Z 31004KT 5SM -RA BR FEW003 OVC006 17/17 A2974 RMK SC2SC6 CIG RAG SLP071

CYOW;2009-07-03 07:00;CYOW 030700Z 28003KT 5SM -RA BR BKN002 OVC007 17/17 A2973 RMK SC6NS2 SLP069

CYOW;2009-07-03 08:00;CYOW 030800Z 25004KT 5SM BR OVC002 17/17 A2973 RMK ST8 SLP069

CYOW;2009-07-03 08:31;CYOW 030831Z 27004KT 5SM -RA BR SCT002 OVC014 17/ RMK SC3SC5

CYOW;2009-07-03 09:00;CYOW 030900Z 27004KT 5SM -RA BR BKN003 OVC110 17/17 A2973 RMK SC6AC2 VRY LGT RA SLP067

CYOW;2009-07-03 09:42;CYOW 030942Z 27005KT 4SM BR BKN003 OVC110 17/ RMK SC6AC2

CYOW;2009-07-03 10:00;CYOW 031000Z 27004KT 4SM BR OVC003 17/17 A2974 RMK SC8 SLP070

CYOW;2009-07-03 10:53;CYOW 031053Z 27005KT 6SM -RA BR OVC003 17/ RMK SC8

CYOW;2009-07-03 11:00;CYOW 031100Z 27005KT 6SM -RA BR OVC003 17/17 A2975 RMK SC8 SLP073

CYOW;2009-07-03 11:38;CYOW 031138Z 28007KT 10SM -RA SCT003 BKN012 OVC040 17/ RMK SF3SC3SC2

CYOW;2009-07-03 12:00;CYOW 031200Z 27007KT 15SM -RA BKN006 BKN015 OVC040 17/17 A2975 RMK SF5SC2SC1 SLP075

CYOW;2009-07-03 13:00;CYOW 031300Z 27009KT 15SM -RA BKN007 BKN015 OVC040 18/17 A2976 RMK SF5SC2SC1 SLP077

CYOW;2009-07-03 13:41;CYOW 031341Z 27007KT 15SM -RA SCT008 OVC036 18/ RMK SF3SC5

CYOW;2009-07-03 14:00;CYOW 031400Z 27010KT 15SM -RA FEW010 BKN035 OVC075 18/17 A2975 RMK SF2SC5AC2 SLP076

CYOW;2009-07-03 14:28;CYOW 031428Z 26007KT 15SM -RA BKN010 OVC035 18/ RMK SF5SC3

CYOW;2009-07-03 15:00;CYOW 031500Z 25009KT 15SM -RA BKN010 OVC035 19/17 A2975 RMK SF5SC3 SLP076

CYOW;2009-07-03 15:28;CYOW 031528Z 27010KT 15SM SCT010 BKN019 OVC035 19/ RMK SF4SC3SC1

CYOW;2009-07-03 16:00;CYOW 031600Z 27008KT 15SM BKN012 OVC020 19/17 A2975 RMK SF5SC3 SLP074

CYOW;2009-07-03 16:08;CYOW 031608Z 26010G15KT 12SM -RA BKN011 OVC020 19/ RMK SF5SC3

CYOW;2009-07-03 17:00;CYOW 031700Z 26007KT 12SM -RA BKN011 OVC020 18/17 A2974 RMK SF5SC3 SLP073

CYOW;2009-07-03 18:00;CYOW 031800Z 25009KT 10SM -RA BKN008 OVC019 18/17 A2973 RMK SF5SC3 SLP069

CYOW;2009-07-03 19:00;CYOW 031900Z 25007KT 10SM -RA BKN009 OVC015 19/18 A2973 RMK SF5SC3 SLP068

CYOW;2009-07-03 20:00;CYOW 032000Z 24009KT 12SM -RA BKN013 OVC020 20/18 A2972 RMK SF5SC3 SLP066

CYOW;2009-07-03 21:00;CYOW 032100Z 28010KT 15SM -RA BKN010 OVC020 19/18 A2972 RMK SF5SC3 SLP066

CYOW;2009-07-03 22:00;CYOW 032200Z 27008KT 15SM -RA SCT010 BKN035 OVC100 18/18 A2973 RMK SF3SC3AS2 SUN DIMILY VSB SLP068

CYOW;2009-07-03 22:19;CYOW 032219Z 28008KT 4SM -RA BR BKN009 OVC035 18/ RMK SF6SC2

CYOW;2009-07-03 23:00;CYOW 032300Z 27007KT 4SM -RA BR FEW008 BKN035 OVC060 18/18 A2974 RMK SF2SC4SC2 SLP071

CYOW;2009-07-04 00:00;CYOW 040000Z 27006KT 5SM -RA BR FEW008 BKN030 BKN082 18/17 A2975 RMK SF1SC5AC2 SLP074

CYOW;2009-07-04 00:45;CYOW 040045Z 27005KT 8SM FEW008 BKN120 BKN160 18/ RMK SF1AC5AC2

CYOW;2009-07-04 01:00;CYOW 040100Z 26006KT 10SM FEW008 FEW048 BKN080 18/17 A2975 RMK SF1SC2AC5 SLP075

CYOW;2009-07-04 02:00;CYOW 040200Z 26006KT 12SM FEW050 BKN070 18/17 A2976 RMK SC2AC6 SLP078

CYOW;2009-07-04 03:00;CYOW 040300Z 27007KT 12SM FEW008 BKN083 BKN100 18/17 A2976 RMK SF1AC4AC1 SLP077

CYOW;2009-07-04 04:00;CYOW 040400Z 27008KT 15SM SCT040 18/17 A2975 RMK SC3 SLP076

CYOW;2009-07-04 05:00;CYOW 040500Z 28009KT 15SM FEW038 17/16 A2976 RMK SC2 SLP078

CYOW;2009-07-04 06:00;CYOW 040600Z 29009KT 15SM BKN110 17/16 A2976 RMK AC6 SLP078

CYOW;2009-07-04 07:00;CYOW 040700Z 28009KT 15SM SCT047 17/15 A2976 RMK SC3 SLP077

CYOW;2009-07-04 08:00;CYOW 040800Z 27007KT 15SM BKN087 16/15 A2975 RMK AC6 SLP076

CYOW;2009-07-04 09:00;CYOW 040900Z CCA 29011KT 15SM FEW018 BKN035 16/15 A2976 RMK SC1SC6 SLP077

CYOW;2009-07-04 10:00;CYOW 041000Z 27012KT 15SM SCT011 BKN082 16/14 A2976 RMK SC3AC4 SLP080

CYOW;2009-07-04 11:00;CYOW 041100Z 28010G16KT 15SM BKN014 BKN080 15/13 A2978 RMK SC6AC1 SLP084

CYOW;2009-07-04 12:00;CYOW 041200Z 29010G16KT 15SM BKN015 BKN080 15/12 A2978 RMK SC6AC1 SLP085

CYOW;2009-07-04 13:00;CYOW 041300Z 28012KT 15SM BKN016 BKN080 16/13 A2978 RMK SC5AC2 SLP086

CYOW;2009-07-04 14:00;CYOW 041400Z 27014KT 15SM BKN017 BKN080 15/12 A2979 RMK SC5AC2 SLP090

CYOW;2009-07-04 15:00;CYOW 041500Z 28015KT 15SM BKN018 BKN080 15/11 A2980 RMK SC5AC2 SLP094

CYOW;2009-07-04 16:00;CYOW 041600Z 28014KT 15SM FEW015 BKN026 BKN080 15/11 A2981 RMK SC2SC3AC2 SLP097

CYOW;2009-07-04 17:00;CYOW 041700Z 28016KT 15SM BKN025 BKN030 16/11 A2982 RMK SC6SC1 SLP098

CYOW;2009-07-04 18:00;CYOW 041800Z 29015G22KT 15SM BKN025 BKN030 16/11 A2981 RMK SC6SC1 SLP097

CYOW;2009-07-04 19:00;CYOW 041900Z 28017G26KT 15SM BKN025 BKN034 16/11 A2982 RMK SC5SC2 SLP098

CYOW;2009-07-04 20:00;CYOW 042000Z 28016G21KT 15SM SCT025 BKN037 16/10 A2982 RMK SC4SC3 SLP100

CYOW;2009-07-04 21:00;CYOW 042100Z 32012G18KT 15SM BKN038 BKN050 16/09 A2983 RMK SC5SC2 SLP104

CYOW;2009-07-04 22:00;CYOW 042200Z 31011KT 15SM SCT040 BKN060 17/10 A2983 RMK SC3SC4 SLP103

CYOW;2009-07-04 23:00;CYOW 042300Z 29010KT 15SM FEW035 BKN071 BKN150 17/10 A2984 RMK CU1AC6AC1 SLP105

CYOW;2009-07-05 00:00;CYOW 050000Z 26005KT 15SM FEW065 SCT070 SCT100 17/10 A2984 RMK SC1AC3AC1 SLP105

CYOW;2009-07-05 01:00;CYOW 050100Z 25004KT 15SM FEW070 16/11 A2983 RMK AC2 SLP102

CYOW;2009-07-05 02:00;CYOW 050200Z 21003KT 15SM FEW070 SCT100 15/11 A2983 RMK AC2AC1 SLP104

CYOW;2009-07-05 03:00;CYOW 050300Z 20004KT 15SM BKN090 14/11 A2983 RMK AC5 SLP102

CYOW;2009-07-05 04:00;CYOW 050400Z 24004KT 15SM SCT064 BKN120 15/11 A2982 RMK SC3AC2 SLP101

CYOW;2009-07-05 05:00;CYOW 050500Z 26004KT 15SM BKN060 BKN120 14/11 A2982 RMK SC6AC1 SLP101

CYOW;2009-07-05 06:00;CYOW 050600Z 26006KT 15SM FEW120 14/10 A2983 RMK AC2 SLP102

CYOW;2009-07-05 07:00;CYOW 050700Z 28005KT 15SM SKC 13/11 A2983 RMK SLP103

CYOW;2009-07-05 08:00;CYOW 050800Z 26004KT 15SM FEW120 12/10 A2983 RMK AC1 SLP103

CYOW;2009-07-05 09:00;CYOW 050900Z 27002KT 15SM FEW120 12/10 A2983 RMK AC1 SLP104

CYOW;2009-07-05 10:00;CYOW 051000Z 25003KT 15SM FEW120 12/10 A2985 RMK AC1 SLP108

CYOW;2009-07-05 11:00;CYOW 051100Z 29006KT 15SM FEW120 14/11 A2986 RMK AC1 SLP112

CYOW;2009-07-05 12:00;CYOW 051200Z 28006KT 15SM FEW120 15/12 A2987 RMK AC1 SLP116

CYOW;2009-07-05 13:00;CYOW 051300Z 29006KT 15SM FEW120 17/13 A2987 RMK AC1 SLP117

CYOW;2009-07-05 14:00;CYOW 051400Z 29003KT 15SM FEW120 19/12 A2986 RMK AC1 SLP112

CYOW;2009-07-05 15:00;CYOW 051500Z 26005KT 15SM FEW120 20/11 A2985 RMK AC1 SLP110

CYOW;2009-07-05 16:00;CYOW 051600Z 26004KT 15SM FEW035 22/12 A2984 RMK CU1 SLP105

CYOW;2009-07-05 17:00;CYOW 051700Z 25004KT 15SM SCT035 22/13 A2982 RMK CU3 SLP100

CYOW;2009-07-05 18:00;CYOW 051800Z 25008KT 15SM BKN045 23/12 A2981 RMK CU6 SLP094

CYOW;2009-07-05 19:00;CYOW 051900Z 25003KT 15SM BKN045 23/12 A2980 RMK CU6 SLP091

CYOW;2009-07-05 20:00;CYOW 052000Z 25007KT 15SM BKN045 23/12 A2978 RMK CU6 SLP086

CYOW;2009-07-05 21:00;CYOW 052100Z 23009KT 15SM BKN040 24/12 A2977 RMK CU5 SLP081

CYOW;2009-07-05 22:00;CYOW 052200Z 20007KT 15SM BKN050 24/12 A2976 RMK CU5 TCU EMBD SLP077

CYOW;2009-07-05 23:00;CYOW 052300Z 17004KT 15SM SCT058 22/12 A2976 RMK CU3 SLP077

CYOW;2009-07-06 00:00;CYOW 060000Z 22006KT 15SM SCT075 SCT210 22/12 A2976 RMK AC4CI1 SLP078

CYOW;2009-07-06 01:00;CYOW 060100Z 18005KT 15SM FEW075 FEW210 20/13 A2977 RMK AC2CI0 SLP081

CYOW;2009-07-06 02:00;CYOW 060200Z CCB 19005KT 15SM FEW080 SCT210 18/12 A2977 RMK AC2CI0 SLP081

CYOW;2009-07-06 03:00;CYOW 060300Z 18003KT 15SM FEW210 17/12 A2977 RMK CI1 SLP081

CYOW;2009-07-06 04:00;CYOW 060400Z 20004KT 15SM BKN083 BKN150 17/12 A2976 RMK AC5AC1 SLP080

CYOW;2009-07-06 05:00;CYOW 060500Z 23005KT 15SM BKN150 17/12 A2976 RMK AC5 SLP079

CYOW;2009-07-06 06:00;CYOW 060600Z 27003KT 15SM FEW140 16/12 A2976 RMK AC1 SLP077

CYOW;2009-07-06 07:00;CYOW 060700Z 21004KT 15SM FEW140 15/12 A2975 RMK AC2 SLP076

CYOW;2009-07-06 08:00;CYOW 060800Z 16003KT 15SM FEW140 SCT210 13/11 A2974 RMK AC1CI0 SLP073

CYOW;2009-07-06 09:00;CYOW 060900Z 00000KT 15SM FEW060 FEW100 SCT210 13/12 A2974 RMK SC1AC1CI0 SLP071

CYOW;2009-07-06 10:00;CYOW 061000Z 21004KT 15SM FEW068 FEW140 13/11 A2974 RMK AC1AC1 SLP073

CYOW;2009-07-06 11:00;CYOW 061100Z 20003KT 15SM SCT090 14/12 A2975 RMK AC3 ACC ASOCTD SLP076

CYOW;2009-07-06 12:00;CYOW 061200Z 22004KT 15SM BKN100 17/13 A2977 RMK AC5 ACC ASOCTD SLP081

CYOW;2009-07-06 13:00;CYOW 061300Z 21006KT 15SM FEW090 BKN180 BKN240 19/13 A2976 RMK ACC2AC4CI1 SLP080

CYOW;2009-07-06 14:00;CYOW 061400Z 18004KT 15SM SCT090 BKN180 BKN240 21/13 A2976 RMK AC3AC2CI1 CC ASOCTD SLP078

CYOW;2009-07-06 15:00;CYOW 061500Z 18006KT 15SM SCT044 SCT080 BKN180 BKN240 22/11 A2975 RMK CU3AC1AC2CI0 SLP076

CYOW;2009-07-06 16:00;CYOW 061600Z 23009KT 15SM FEW050 BKN120 BKN210 22/12 A2974 RMK CU2AC3CI1 SLP073

CYOW;2009-07-06 17:00;CYOW 061700Z 23009KT 15SM FEW050 BKN096 BKN140 OVC250 21/10 A2974 RMK CU2AC3AC2CI1 TCU ASOCT SLP073

CYOW;2009-07-06 18:00;CYOW 061800Z 19007KT 15SM FEW050 BKN110 20/13 A2974 RMK CU2AC6 SLP072

CYOW;2009-07-06 18:40;CYOW 061840Z 31009KT 15SM -SHRA FEW034 SCT052 BKN140 BKN250 18/ RMK SC2SC2AC2CI1 CVCTV CLD EMBD

CYOW;2009-07-06 19:00;CYOW 061900Z CCA 28003KT 15SM -SHRA FEW030 SCT040 BKN063 BKN140 17/13 A2975 RMK SC1SC2SC2AC2 CVCTV CLD EMBD SLP074

CYOW;2009-07-06 19:40;CYOW 061940Z 29004KT 15SM FEW030 BKN058 BKN110 18/ RMK CU1SC4AC2 SHRA DIST E

CYOW;2009-07-06 20:00;CYOW 062000Z 26003KT 15SM FEW030 BKN057 BKN110 18/14 A2974 RMK SC1SC5AC2 SLP071

CYOW;2009-07-06 20:35;CYOW 062035Z 22005KT 15SM -RA FEW025 FEW050 BKN079 BKN110 BKN250 18/ RMK CU1SC2AC2AC2CI1

CYOW;2009-07-06 21:00;CYOW 062100Z 26007KT 15SM FEW025 SCT050 BKN110 BKN250 18/13 A2973 RMK SC1SC2AC2CI1 CU ASOCT SLP070

CYOW;2009-07-06 22:00;CYOW 062200Z 20003KT 15SM FEW050 BKN100 19/13 A2973 RMK CU1AC5 TCU ASOCT SLP070

CYOW;2009-07-06 23:00;CYOW 062300Z 20004KT 15SM FEW035 SCT100 19/12 A2973 RMK SC2AC2 TCU ASOCTD SLP070

CYOW;2009-07-07 00:00;CYOW 070000Z 31004KT 15SM FEW035 SCT060 SCT210 18/12 A2974 RMK CU2SC2CI1 TCU ASOCTD SLP072

CYOW;2009-07-07 01:00;CYOW 070100Z 31004KT 15SM BKN070 BKN080 17/11 A2975 RMK AC5AC2 SLP076

CYOW;2009-07-07 02:00;CYOW 070200Z 29002KT 15SM SCT054 17/10 A2976 RMK SC4 SLP079

CYOW;2009-07-07 03:00;CYOW 070300Z 34005KT 15SM BKN085 16/11 A2975 RMK AC6 SLP076

CYOW;2009-07-07 04:00;CYOW 070400Z 10003KT 15SM FEW058 15/11 A2975 RMK SC1 SLP074

CYOW;2009-07-07 05:00;CYOW 070500Z 00000KT 15SM BKN080 14/12 A2974 RMK AC6 SLP071

CYOW;2009-07-07 06:00;CYOW 070600Z 19003KT 15SM BKN068 15/13 A2973 RMK AC6 SLP070

CYOW;2009-07-07 07:00;CYOW 070700Z 20003KT 15SM FEW040 BKN078 14/13 A2973 RMK SC1AC6 SLP068

CYOW;2009-07-07 07:50;CYOW 070750Z 22002KT 15SM -RA OVC074 15/ RMK AC8

CYOW;2009-07-07 08:00;CYOW 070800Z 22002KT 15SM OVC074 15/12 A2973 RMK AC8 SLP067

CYOW;2009-07-07 09:00;CYOW 070900Z 24004KT 15SM BKN070 OVC100 14/11 A2972 RMK AC6AC2 SLP065

CYOW;2009-07-07 09:55;CYOW 070955Z 28003KT 12SM -RA BKN070 OVC082 14/ RMK AC6AC2

CYOW;2009-07-07 10:00;CYOW 071000Z 26003KT 10SM -RA FEW063 OVC075 14/11 A2973 RMK SC2AC6 SLP067

CYOW;2009-07-07 11:00;CYOW 071100Z 32002KT 4SM -RA BR OVC050 13/12 A2973 RMK SC8 SLP069

CYOW;2009-07-07 12:00;CYOW 071200Z 20002KT 4SM -RA BR SCT017 OVC030 13/12 A2974 RMK CF3SC5 SLP072

CYOW;2009-07-07 13:00;CYOW 071300Z 27002KT 4SM -RA BR FEW003 SCT015 OVC030 13/12 A2974 RMK SF2SC2SC4 SLP072

CYOW;2009-07-07 14:00;CYOW 071400Z 00000KT 4SM -RA BR SCT003 OVC025 14/13 A2973 RMK SF3SC5 SLP069

CYOW;2009-07-07 15:00;CYOW 071500Z 00000KT 5SM -RA BR FEW003 OVC027 13/13 A2974 RMK SF2SC6 SLP074

CYOW;2009-07-07 15:46;CYOW 071546Z 09002KT 8SM FEW003 OVC030 14/ RMK SF2SC6

CYOW;2009-07-07 17:00;CYOW 071700Z 09004KT 12SM SCT008 OVC020 15/13 A2973 RMK SF3SC5 SLP068

CYOW;2009-07-07 18:00;CYOW 071800Z 08005KT 12SM SCT010 BKN057 17/14 A2972 RMK CF4SC2 SLP064

CYOW;2009-07-07 19:00;CYOW 071900Z 12003KT 15SM BKN020 BKN080 18/14 A2971 RMK CU5AC2 SLP060

CYOW;2009-07-07 20:00;CYOW 072000Z 19003KT 15SM SCT024 BKN080 18/13 A2970 RMK CU4AC3 SLP059

CYOW;2009-07-07 20:10;CYOW 072010Z 19005KT 15SM -SHRA BKN028 OVC080 18/ RMK CU5AC3

CYOW;2009-07-07 21:00;CYOW 072100Z 21004KT 12SM -SHRA SCT030 BKN077 17/13 A2971 RMK CU3AC4 SLP061

CYOW;2009-07-07 22:00;CYOW 072200Z 14002KT 15SM BKN018 OVC070 17/14 A2971 RMK CU5AC3 SLP060

CYOW;2009-07-07 23:00;CYOW 072300Z 17004KT 15SM SCT017 BKN070 17/14 A2972 RMK CU3AC4 TCU ASOCT SLP065

CYOW;2009-07-08 00:00;CYOW 080000Z 23002KT 15SM -SHRA SCT017 BKN070 16/14 A2973 RMK CU3AC4 TCU ASOCT SLP070

CYOW;2009-07-08 00:34;CYOW 080034Z 30003KT 15SM FEW020 SCT064 BKN100 16/ RMK CU2SC2AC2 TCU ASOCT

CYOW;2009-07-08 01:00;CYOW 080100Z 26003KT 15SM FEW018 FEW030 BKN073 15/14 A2974 RMK CU1SC2AC5 TCU ASOCT SLP073

CYOW;2009-07-08 02:00;CYOW 080200Z 26002KT 10SM FEW018 BKN053 15/14 A2976 RMK SC1SC6 SLP078

CYOW;2009-07-08 03:00;CYOW 080300Z 00000KT 10SM FEW017 FEW030 BKN046 BKN090 15/14 A2976 RMK SC1SC1SC4AC2 SLP079

CYOW;2009-07-08 04:00;CYOW 080400Z 00000KT 10SM FEW017 FEW030 SCT060 BKN094 15/14 A2977 RMK CU1SC2SC2AC2 SLP083

CYOW;2009-07-08 05:00;CYOW 080500Z 17003KT 10SM FEW017 BKN032 BKN100 14/14 A2977 RMK CU1SC4AC2 SLP084

CYOW;2009-07-08 06:00;CYOW 080600Z 00000KT 10SM FEW017 BKN033 14/14 A2978 RMK CU1SC6 SLP086

CYOW;2009-07-08 07:00;CYOW 080700Z 00000KT 12SM FEW012 FEW030 BKN091 14/13 A2979 RMK SC1SC1AC6 CU ASOCT SLP088

CYOW;2009-07-08 08:00;CYOW 080800Z 18003KT 1/8SM FG VV001 13/12 A2979 RMK FG8 SLP090

CYOW;2009-07-08 08:14;CYOW 080814Z 00000KT 1/4SM FG OVC090 12/ RMK FG2AC6 MOON VISBL

CYOW;2009-07-08 09:00;CYOW 080900Z CCA 00000KT 3/4SM R07/2600V4000FT/U BR FEW005 SCT030 BKN088 12/12 A2980 RMK FG1SC1SC2AC2 SLP092

CYOW;2009-07-08 09:12;CYOW 080912Z 00000KT 2SM R07/3500VP6000FT/U BR FEW005 FEW030 BKN091 12/ RMK CU1SC1AC4

CYOW;2009-07-08 10:00;CYOW 081000Z 00000KT 2 1/2SM BR BCFG FEW005 FEW030 BKN094 12/12 A2982 RMK CU1SC1AC4 SLP098

CYOW;2009-07-08 10:34;CYOW 081034Z 08003KT 3/4SM BR BKN090 13/ RMK FG3AC4

CYOW;2009-07-08 10:49;CYOW 081049Z 09003KT 1/4SM R07/2200FT/N FG VV002 13/ RMK FG8

CYOW;2009-07-08 11:00;CYOW 081100Z 09003KT 1/8SM R07/2000FT/N FG VV002 13/13 A2984 RMK FG8 SLP107

CYOW;2009-07-08 11:38;CYOW 081138Z 10003KT 3/4SM R07/2800FT/N BR VV003 14/ RMK FG8

CYOW;2009-07-08 12:00;CYOW 081200Z 07003KT 1SM R07/6000FT/N BR VV004 14/14 A2986 RMK FG8 SLP113

CYOW;2009-07-08 12:15;CYOW 081215Z 07003KT 4SM BR OVC005 14/ RMK ST8

CYOW;2009-07-08 13:00;CYOW 081300Z 09006KT 12SM OVC006 15/14 A2988 RMK ST8 SLP121

CYOW;2009-07-08 14:00;CYOW 081400Z 13003KT 12SM OVC010 17/14 A2990 RMK SC8 SLP126

CYOW;2009-07-08 15:00;CYOW 081500Z 09004KT 15SM BKN017 BKN090 19/15 A2991 RMK CU6AC1 SLP131

CYOW;2009-07-08 16:00;CYOW 081600Z 04007KT 15SM SCT020 BKN060 18/14 A2992 RMK CU3SC4 SLP134

CYOW;2009-07-08 16:27;CYOW 081627Z 05004KT 15SM -SHRA SCT020TCU BKN080 18/ RMK TCU3AC3

CYOW;2009-07-08 16:49;CYOW 081649Z 07005KT 15SM SCT020 BKN094 19/ RMK CU3AC3

CYOW;2009-07-08 17:00;CYOW 081700Z 04005KT 15SM FEW020 BKN090 20/14 A2993 RMK CU2AC4 SLP136

CYOW;2009-07-08 18:00;CYOW 081800Z 05006KT 15SM SCT030 BKN110 BKN240 20/14 A2994 RMK CU3AC2CI1 TCU ASOCTD SLP139

CYOW;2009-07-08 19:00;CYOW 081900Z 07006KT 15SM SCT030 BKN100 BKN240 21/14 A2994 RMK CU3AC2CI1 SLP140

CYOW;2009-07-08 20:00;CYOW 082000Z 04006KT 15SM SCT030 BKN090 BKN240 21/14 A2995 RMK CU3AC2CI0 SLP144

CYOW;2009-07-08 21:00;CYOW 082100Z 09007KT 15SM BKN033 BKN240 22/14 A2996 RMK CU5CI0 SLP148

CYOW;2009-07-08 22:00;CYOW 082200Z 10008G18KT 15SM VCSH BKN033TCU 20/14 A2998 RMK TCU5 SH N OVR CITY SLP153

CYOW;2009-07-08 22:18;CYOW 082218Z 09005KT 15SM TS FEW035TCU SCT100 BKN270 20/ RMK TCU2AC2CI2 SHRA W-N CB EMBD

CYOW;2009-07-08 22:43;CYOW 082243Z 05004KT 15SM FEW035 SCT100 BKN270 20/ RETS RMK SC2AC2CI1 SHRA DIST W CB ASOCT

CYOW;2009-07-08 23:00;CYOW 082300Z 06005KT 15SM FEW030 FEW100 SCT180 BKN230 20/14 A2999 RETS RMK SC2AC1AC1CI2 SHRA DIST W CB ASOCT SLP158

CYOW;2009-07-09 00:00;CYOW 090000Z 09003KT 15SM FEW043TCU FEW100 SCT240 19/14 A3002 RMK TCU1AC2CI2 CB ASOCT SLP168

CYOW;2009-07-09 01:00;CYOW 090100Z 07002KT 15SM FEW040TCU FEW120 FEW240 18/14 A3004 RMK TCU1AC1CI1 CB ASOCT SLP175

CYOW;2009-07-09 02:00;CYOW 090200Z 05002KT 15SM SCT140 18/14 A3007 RMK AC3 SLP183

CYOW;2009-07-09 03:00;CYOW 090300Z 03004KT 15SM FEW035 17/14 A3008 RMK SC2 SLP185

CYOW;2009-07-09 04:00;CYOW 090400Z 04004KT 15SM SCT032 16/15 A3010 RMK SC3 SLP193

CYOW;2009-07-09 05:00;CYOW 090500Z 05002KT 15SM SKC 16/14 A3011 RMK SLP198

CYOW;2009-07-09 06:00;CYOW 090600Z 04004KT 15SM SKC 15/14 A3012 RMK SLP200

CYOW;2009-07-09 07:00;CYOW 090700Z 04004KT 15SM SKC 15/14 A3013 RMK SLP203

CYOW;2009-07-09 08:00;CYOW 090800Z 05004KT 15SM SKC 15/13 A3014 RMK SLP206

CYOW;2009-07-09 09:00;CYOW 090900Z 03003KT 15SM MIFG FEW140 14/13 A3016 RMK AC1 SLP213

CYOW;2009-07-09 10:00;CYOW 091000Z 03004KT 15SM MIFG FEW140 14/13 A3017 RMK AC1 SLP219

CYOW;2009-07-09 11:00;CYOW 091100Z 04005KT 15SM FEW140 15/14 A3019 RMK AC1 SLP226

CYOW;2009-07-09 12:00;CYOW 091200Z 05006KT 15SM FEW010 FEW140 17/14 A3021 RMK CF1AC1 SLP230

CYOW;2009-07-09 13:00;CYOW 091300Z 06007KT 15SM SCT010 18/15 A3022 RMK CF3 SLP235

CYOW;2009-07-09 14:00;CYOW 091400Z 08005KT 15SM BKN017 20/15 A3023 RMK CU5 SLP237

CYOW;2009-07-09 15:00;CYOW 091500Z 08002KT 15SM BKN024 20/14 A3023 RMK CU6 SLP238

CYOW;2009-07-09 16:00;CYOW 091600Z 09006KT 15SM BKN030 22/14 A3023 RMK CU6 SLP238

CYOW;2009-07-09 17:00;CYOW 091700Z 06005KT 15SM BKN036 22/14 A3023 RMK CU6 SLP239

CYOW;2009-07-09 18:00;CYOW 091800Z 12005KT 15SM BKN040 22/14 A3022 RMK CU5 SLP236

CYOW;2009-07-09 19:00;CYOW 091900Z 13003KT 15SM BKN044 24/12 A3022 RMK CU5 SLP236

CYOW;2009-07-09 20:00;CYOW 092000Z 12005KT 15SM BKN050 24/14 A3022 RMK CU5 SLP234

CYOW;2009-07-09 21:00;CYOW 092100Z 11006KT 15SM SCT050 24/13 A3022 RMK CU4 SLP234

CYOW;2009-07-09 22:00;CYOW 092200Z 13004KT 15SM SCT050 SCT080 24/13 A3021 RMK CU3AC1 SLP230

CYOW;2009-07-09 23:00;CYOW 092300Z 14004KT 15SM FEW060 FEW100 23/13 A3020 RMK CU1AC1 TCU ASOCT SLP228

CYOW;2009-07-10 00:00;CYOW 100000Z 12003KT 15SM FEW060 FEW090 22/14 A3020 RMK SC1AC1 TCU ASOCT SLP228

CYOW;2009-07-10 01:00;CYOW 100100Z 13003KT 15SM FEW060 FEW090 FEW240 19/13 A3021 RMK CU1AC1CI0 SLP230

CYOW;2009-07-10 02:00;CYOW 100200Z 12003KT 15SM FEW090 19/14 A3023 RMK AC1 SLP237

CYOW;2009-07-10 03:00;CYOW 100300Z 15003KT 15SM SKC 18/13 A3023 RMK SLP238

CYOW;2009-07-10 04:00;CYOW 100400Z 15002KT 15SM SKC 16/13 A3024 RMK SLP240

CYOW;2009-07-10 05:00;CYOW 100500Z 17003KT 15SM SKC 17/13 A3024 RMK SLP242

CYOW;2009-07-10 06:00;CYOW 100600Z 11002KT 15SM SKC 17/12 A3025 RMK SLP245

CYOW;2009-07-10 07:00;CYOW 100700Z 05004KT 15SM SKC 16/12 A3025 RMK SLP244

CYOW;2009-07-10 08:00;CYOW 100800Z 00000KT 15SM SKC 14/13 A3025 RMK SLP246

CYOW;2009-07-10 09:00;CYOW 100900Z 32003KT 15SM MIFG FEW180 FEW250 13/13 A3027 RMK AC1CI0 SLP250

CYOW;2009-07-10 10:00;CYOW 101000Z 05004KT 15SM MIFG FEW240 14/13 A3027 RMK CI0 SLP252

CYOW;2009-07-10 11:00;CYOW 101100Z 09003KT 15SM FEW270 15/14 A3027 RMK CI0 SLP252

CYOW;2009-07-10 12:00;CYOW 101200Z 10002KT 15SM FEW012 FEW270 17/14 A3027 RMK CF1CI0 SLP251

CYOW;2009-07-10 13:00;CYOW 101300Z 09003KT 15SM FEW270 19/14 A3027 RMK CI0 SLP251

CYOW;2009-07-10 14:00;CYOW 101400Z 13003KT 15SM SCT270 22/15 A3025 RMK CI0 SLP245

CYOW;2009-07-10 15:00;CYOW 101500Z 23004KT 15SM FEW036 SCT270 23/14 A3025 RMK CU1CI0 SLP243

CYOW;2009-07-10 16:00;CYOW 101600Z 24003KT 15SM FEW048 SCT270 24/12 A3023 RMK CU1CI0 SLP239

CYOW;2009-07-10 17:00;CYOW 101700Z 18003KT 15SM FEW048 BKN270 25/13 A3022 RMK CU1CI2 SLP234

CYOW;2009-07-10 18:00;CYOW 101800Z 20006KT 15SM FEW060 BKN270 25/15 A3019 RMK CU1CI2 SLP225

CYOW;2009-07-10 19:00;CYOW 101900Z 17004KT 15SM FEW060 BKN270 25/15 A3018 RMK CU1CI2 SLP219

CYOW;2009-07-10 20:00;CYOW 102000Z 18007KT 15SM FEW060 BKN270 26/14 A3016 RMK CU1CI2 SLP212

CYOW;2009-07-10 21:00;CYOW 102100Z 20007KT 15SM FEW062 BKN270 26/14 A3015 RMK CU1CI3 SLP209

CYOW;2009-07-10 22:00;CYOW 102200Z 21007KT 15SM FEW062 FEW200 BKN270 26/15 A3015 RMK CU1CI1CI3 SLP209

CYOW;2009-07-10 23:00;CYOW 102300Z 19006KT 15SM FEW062 FEW220 BKN240 26/15 A3012 RMK CU1CI2CI2 SLP201

CYOW;2009-07-11 00:00;CYOW 110000Z 20006KT 15SM FEW220 BKN270 25/15 A3011 RMK CI1CI3 SLP197

CYOW;2009-07-11 01:00;CYOW 110100Z 19005KT 15SM FEW140 FEW220 22/15 A3011 RMK AC1CI1 CI TR SLP195

CYOW;2009-07-11 02:00;CYOW 110200Z 17004KT 15SM FEW140 21/15 A3011 RMK AC1 SLP195

CYOW;2009-07-11 03:00;CYOW 110300Z 19003KT 15SM FEW140 20/15 A3010 RMK AC1 SLP194

CYOW;2009-07-11 04:00;CYOW 110400Z 17003KT 15SM SKC 19/15 A3009 RMK SLP191

CYOW;2009-07-11 05:00;CYOW 110500Z 16003KT 15SM BKN210 18/15 A3008 RMK CI3 SLP186

CYOW;2009-07-11 06:00;CYOW 110600Z 16007KT 15SM BKN210 18/15 A3005 RMK CI7 SLP175

CYOW;2009-07-11 07:00;CYOW 110700Z 18004KT 15SM BKN210 18/15 A3004 RMK CI3 SLP171

CYOW;2009-07-11 08:00;CYOW 110800Z 18007KT 15SM BKN068 19/15 A3003 RMK AC5 SLP168

CYOW;2009-07-11 09:00;CYOW 110900Z CCA 18008KT 15SM BKN065 BKN110 19/15 A3000 RMK SC5AC2 SLP160

CYOW;2009-07-11 10:00;CYOW 111000Z 18007KT 12SM FEW060 FEW074 BKN150 19/15 A3000 RMK SC2AC1AC4 SLP159

CYOW;2009-07-11 11:00;CYOW 111100Z 18008KT 10SM BKN060 OVC100 20/15 A2998 RMK SC5AC3 SLP153

CYOW;2009-07-11 12:00;CYOW 111200Z 18009KT 8SM BKN060 OVC100 20/15 A2996 RMK SC5AC3 SLP146

CYOW;2009-07-11 13:00;CYOW 111300Z 18009KT 8SM BKN060 OVC110 20/16 A2993 RMK SC6AC2 SLP135

CYOW;2009-07-11 13:17;CYOW 111317Z 18008KT 8SM -TSRA OVC057 20/ RMK SC8 CB EMBD

CYOW;2009-07-11 14:00;CYOW 111400Z 16002KT 5SM BR BKN025 OVC110 19/17 A2991 RETS RMK SC6AC2 SLP130

CYOW;2009-07-11 14:36;CYOW 111436Z 18006KT 2SM TSRA BR OVC027 19/ RMK SC8 CB EMBD

CYOW;2009-07-11 14:49;CYOW 111449Z 18005KT 4SM -SHRA BR SCT027 OVC057 19/ RETS RMK SC3SC5

CYOW;2009-07-11 15:00;CYOW 111500Z 17006KT 3SM TS BR FEW027 OVC070 19/18 A2988 RMK SC2AC6 CB EMBD SLP118

CYOW;2009-07-11 15:33;CYOW 111533Z 26009KT 1 1/2SM TSRA BR OVC020CB 19/ RMK CB8 LTGCG

CYOW;2009-07-11 16:00;CYOW 111600Z 17006KT 4SM -TSRA BR FEW020 OVC057 19/18 A2986 RERA RMK SC2SC6 CB EMBD SLP111

CYOW;2009-07-11 16:16;CYOW 111616Z 22007KT 3/4SM R07/P6000FT/N +TSRA BR SCT010 OVC025CB 19/ RMK SF3CB5 CB OVRHD

CYOW;2009-07-11 16:45;CYOW 111645Z 19008KT 3SM -TSRA BR SCT004 OVC023 19/ RERA RMK SF3SC5 CB EMBD

CYOW;2009-07-11 17:00;CYOW 111700Z 18008KT 3SM -SHRA BR FEW004 OVC077 19/18 A2983 RETS RMK SF2AC6 SLP102

CYOW;2009-07-11 17:47;CYOW 111747Z 18008KT 4SM BR SCT010 OVC064 21/ RMK CF3SC5

CYOW;2009-07-11 18:00;CYOW 111800Z 19007KT 4SM BR BKN010 OVC063 21/19 A2982 RMK CF5SC3 SLP097

CYOW;2009-07-11 18:34;CYOW 111834Z 20003KT 3SM -SHRA BR BKN010 OVC080 20/ RMK CF6AC2

CYOW;2009-07-11 19:00;CYOW 111900Z CCA 19006KT 4SM -SHRA BR OVC010 21/20 A2981 RMK SC8 CVCTV CLDS EMBD SLP095

CYOW;2009-07-11 20:00;CYOW 112000Z 21009KT 3SM SHRA BR BKN009 OVC012 21/20 A2979 RMK SF6SC2 CVCTV CLD EMBD SLP089

CYOW;2009-07-11 20:09;CYOW 112009Z 21009KT 4SM BR FEW010 SCT020 BKN090 22/ RERA RMK SF2CU2AC2

CYOW;2009-07-11 21:00;CYOW 112100Z 20008KT 5SM HZ BKN023 BKN090 24/21 A2976 RERA RMK CU5AC1 SLP077

CYOW;2009-07-11 22:00;CYOW 112200Z 21006KT 5SM TS HZ SCT030 SCT100 24/19 A2973 RMK CU3AC1 CB W SLP067

CYOW;2009-07-11 23:00;CYOW 112300Z 20006KT 15SM TS SCT055TCU BKN120 BKN200 23/19 A2973 RMK TCU3AC2CI2 CB ASOCTD N S SLP066

CYOW;2009-07-11 23:10;CYOW 112310Z CCA 22010KT 15SM SCT050TCU BKN120 BKN200 23/ RETS RMK TCU4AC2CI1 CB ASOCTD NE SE DIST SHS ALQDS

CYOW;2009-07-12 00:00;CYOW 120000Z 24008KT 15SM VCSH SCT050TCU BKN120 BKN160 BKN220 21/17 A2974 RMK TCU3AC2AC1CI1 CB ASOCTDC NE S-SE SLP072

CYOW;2009-07-12 00:15;CYOW 120015Z 24006KT 15SM TS VCSH FEW050CB BKN120 BKN160 BKN220 21/ RMK CB2AC3AC2CI1 OCNL LTNG

CYOW;2009-07-12 00:22;CYOW 120022Z 22005KT 15SM -TSRA FEW050CB BKN120 BKN220 21/ RMK CB2AC3CI2 OCNL LTGCGIC

CYOW;2009-07-12 00:49;CYOW 120049Z 22007KT 15SM FEW050CB BKN120 BKN220 21/ RETS RMK CB2AC5CI1 DIST LTGCCCG SE-SW

CYOW;2009-07-12 01:00;CYOW 120100Z 22007KT 15SM FEW050TCU BKN140 BKN220 21/17 A2975 RETS RMK TCU2AC5CI1 CB SE OCNL LTGIGCG SLP074

CYOW;2009-07-12 02:00;CYOW 120200Z 24006KT 15SM FEW050TCU BKN120 20/17 A2976 RMK TCU1AC6 DIST LTNG NW SE SLP077

CYOW;2009-07-12 03:00;CYOW 120300Z 34010G16KT 15SM FEW065 BKN120 19/13 A2980 RMK SC2AC5 SLP092

CYOW;2009-07-12 04:00;CYOW 120400Z 33008KT 15SM BKN060 BKN120 18/13 A2983 RMK SC5AC2 SLP102

CYOW;2009-07-12 05:00;CYOW 120500Z 27002KT 15SM SCT065 17/11 A2982 RMK SC4 SLP099

CYOW;2009-07-12 06:00;CYOW 120600Z 25006KT 15SM FEW065 15/11 A2984 RMK SC2 SLP104

CYOW;2009-07-12 07:00;CYOW 120700Z 24005KT 15SM SKC 14/10 A2984 RMK SLP105

CYOW;2009-07-12 08:00;CYOW 120800Z 25004KT 15SM SKC 13/10 A2985 RMK SLP107

CYOW;2009-07-12 09:00;CYOW 120900Z 28007KT 15SM FEW070 FEW250 13/10 A2986 RMK AC1CI1 SLP111

CYOW;2009-07-12 10:00;CYOW 121000Z 29008KT 15SM FEW250 13/11 A2987 RMK CI1 SLP115

CYOW;2009-07-12 11:00;CYOW 121100Z 28007KT 15SM SCT250 14/11 A2989 RMK CI2 SLP121

CYOW;2009-07-12 12:00;CYOW 121200Z 29008KT 15SM SCT250 14/11 A2990 RMK CI2 SLP126

CYOW;2009-07-12 13:00;CYOW 121300Z 29006KT 15SM FEW020 SCT250 16/12 A2991 RMK CU1CI2 SLP129

CYOW;2009-07-12 14:00;CYOW 121400Z 33006KT 15SM FEW020 BKN240 18/09 A2991 RMK CU1CI2 SLP131

CYOW;2009-07-12 15:00;CYOW 121500Z 25003KT 15SM FEW030 BKN250 19/11 A2992 RMK CU2CI2 SLP131

CYOW;2009-07-12 16:00;CYOW 121600Z 25003KT 15SM FEW030 FEW170 BKN250 20/10 A2991 RMK CU1AC2CI2 SLP127

CYOW;2009-07-12 17:00;CYOW 121700Z 27011KT 15SM FEW044 SCT080 BKN250 20/09 A2990 RMK CU2AC2CI1 SLP126

CYOW;2009-07-12 18:00;CYOW 121800Z 26011KT 15SM SCT050 SCT250 21/09 A2988 RMK CU3CI1 SLP120

CYOW;2009-07-12 19:00;CYOW 121900Z 27011KT 15SM BKN056 BKN088 21/08 A2987 RMK CU5AC1 SLP117

CYOW;2009-07-12 20:00;CYOW 122000Z 27007KT 15SM SCT060 BKN092 21/09 A2988 RMK CU3AC3 SLP119

CYOW;2009-07-12 21:00;CYOW 122100Z 27008KT 15SM VCSH SCT062 BKN091 20/08 A2988 RMK CU3AC3 TCU ASOCTD SLP120

CYOW;2009-07-12 22:00;CYOW 122200Z 28011KT 15SM VCSH FEW062 BKN088 19/08 A2988 RMK CU2AC5 ACC ASOCTD SLP120

CYOW;2009-07-12 22:16;CYOW 122216Z 30010G16KT 12SM -SHRA FEW062 BKN070 18/ RMK CU2ACC5

CYOW;2009-07-12 23:00;CYOW 122300Z 18005KT 15SM -SHRA BKN070TCU BKN090 BKN250 15/12 A2990 RMK TCU5AC2CI1 SLP125

CYOW;2009-07-12 23:20;CYOW 122320Z 21004KT 15SM SCT070TCU BKN090 BKN250 15/ RMK TCU3AC2CI2 DIST SHS ALQDS

CYOW;2009-07-13 00:00;CYOW 130000Z 22005KT 15SM -SHRA FEW070TCU BKN110 BKN180 15/12 A2989 RMK TCU2AC3AC2 SLP123

CYOW;2009-07-13 00:29;CYOW 130029Z 23003KT 15SM FEW080 BKN110 BKN180 15/ RMK ACC2AC3AC2 DIST SHS E-S

CYOW;2009-07-13 01:00;CYOW 130100Z 23005KT 15SM FEW080 BKN100 BKN180 15/12 A2989 RMK ACC2AC5AC1 CB TP DIST NW DIST SH E SLP123

CYOW;2009-07-13 02:00;CYOW 130200Z 25003KT 15SM BKN110 14/12 A2989 RMK AC7 CB TP DIST NW OCNL LTNG SLP124

CYOW;2009-07-13 03:00;CYOW 130300Z 24003KT 15SM FEW085 BKN110 14/12 A2989 RMK AC1AC6 DIST LTNG N SLP122

CYOW;2009-07-13 04:00;CYOW 130400Z 22005KT 15SM FEW085 BKN120 14/12 A2988 RMK AC2AC6 SLP119

CYOW;2009-07-13 05:00;CYOW 130500Z 22004KT 15SM SCT090 BKN120 14/11 A2987 RMK AC3AC4 SLP116

CYOW;2009-07-13 06:00;CYOW 130600Z 25005KT 15SM BKN100 13/11 A2986 RMK AC7 SLP114

CYOW;2009-07-13 07:00;CYOW 130700Z 23003KT 15SM BKN100 12/09 A2985 RMK AC7 SLP109

CYOW;2009-07-13 08:00;CYOW 130800Z 25003KT 15SM BKN100 12/09 A2984 RMK AC7 SLP107

CYOW;2009-07-13 09:00;CYOW 130900Z 27003KT 15SM BKN090 BKN140 11/09 A2984 RMK AC6AC2 SLP106

CYOW;2009-07-13 10:00;CYOW 131000Z 21004KT 15SM FEW075 BKN090 BKN140 12/09 A2985 RMK ACC2AC2AC2 VIRGA SLP108

CYOW;2009-07-13 11:00;CYOW 131100Z 16003KT 15SM VCSH FEW075 BKN090 12/10 A2982 RMK ACC2AC5 SLP100

CYOW;2009-07-13 12:00;CYOW 131200Z 22004KT 15SM BKN100 13/11 A2982 RMK AC6 DIST RAIN SH EAST SLP099

CYOW;2009-07-13 13:00;CYOW 131300Z 27006KT 15SM FEW080 BKN100 15/11 A2982 RMK ACC2AC5 SLP100

CYOW;2009-07-13 14:00;CYOW 131400Z 27007KT 15SM FEW020 SCT090 BKN140 17/11 A2981 RMK CU2AC2AS2 ACC TOP DIST N OVR HILLS SLP096

CYOW;2009-07-13 15:00;CYOW 131500Z 29011KT 15SM BKN030 OVC140 17/10 A2981 RMK CU5AS3 SLP096

CYOW;2009-07-13 16:00;CYOW 131600Z 27014G21KT 15SM SCT030 BKN120 17/10 A2981 RMK CU4AC2 SLP097

CYOW;2009-07-13 17:00;CYOW 131700Z 27014G24KT 15SM SCT040 19/10 A2981 RMK CU4 SLP096

CYOW;2009-07-13 18:00;CYOW 131800Z 28012G19KT 15SM SCT050 19/08 A2981 RMK CU4 SLP095

CYOW;2009-07-13 18:24;CYOW 131824Z 29017G25KT 15SM -SHRA BKN056 17/ RMK CU5

CYOW;2009-07-13 18:48;CYOW 131848Z 28015G21KT 15SM BKN056 19/ RMK CU5

CYOW;2009-07-13 19:00;CYOW 131900Z 29014G22KT 15SM SCT060 BKN080 18/07 A2982 RMK CU4AC2 SLP100

CYOW;2009-07-13 20:00;CYOW 132000Z 28014G23KT 15SM SCT060 SCT080 18/08 A2982 RMK CU3AC1 SLP100

CYOW;2009-07-13 21:00;CYOW 132100Z 31012G17KT 15SM FEW060 SCT090 BKN240 18/08 A2983 RMK CU2AC1CI1 SLP104

CYOW;2009-07-13 22:00;CYOW 132200Z 29010G18KT 15SM FEW050 FEW170 BKN240 18/07 A2984 RMK CU2AC1CI2 SLP106

CYOW;2009-07-13 23:00;CYOW 132300Z 29010G18KT 15SM FEW050 BKN100 OVC110 17/06 A2985 RMK CU1AC6AC2 SLP111

CYOW;2009-07-14 00:00;CYOW 140000Z 28017G27KT 15SM -SHRA FEW060 BKN070 OVC080 16/09 A2988 RMK SC2AC5AC2 SLP119

CYOW;2009-07-14 00:45;CYOW 140045Z 30005KT 15SM FEW090 BKN170 13/ RMK AC2AC5 DIST PCPN E-SE

CYOW;2009-07-14 01:00;CYOW 140100Z 30006KT 15SM BKN170 13/09 A2988 RMK AC5 SLP120

CYOW;2009-07-14 02:00;CYOW 140200Z 25005KT 15SM BKN110 BKN120 13/09 A2990 RMK AC5AC1 SLP126

CYOW;2009-07-14 03:00;CYOW 140300Z 26006KT 15SM BKN100 13/10 A2991 RMK AC6 SLP131

CYOW;2009-07-14 04:00;CYOW 140400Z 26005KT 15SM FEW110 12/10 A2993 RMK AC1 SLP135

CYOW;2009-07-14 05:00;CYOW 140500Z 26004KT 15SM FEW060 BKN110 12/09 A2993 RMK SC2AC5 SLP135

CYOW;2009-07-14 06:00;CYOW 140600Z 26004KT 15SM BKN110 11/09 A2992 RMK AC6 SLP132

CYOW;2009-07-14 07:00;CYOW 140700Z 21003KT 15SM BKN068 11/09 A2992 RMK AC5 SLP132

CYOW;2009-07-14 08:00;CYOW 140800Z 25003KT 15SM FEW042 BKN072 12/09 A2991 RMK SC2AC5 SLP131

CYOW;2009-07-14 09:00;CYOW 140900Z 25004KT 15SM FEW034 BKN160 12/09 A2991 RMK SC2AC3 SLP130

CYOW;2009-07-14 10:00;CYOW 141000Z 27006KT 15SM BKN120 BKN190 12/10 A2993 RMK AC5AC2 SLP136

CYOW;2009-07-14 10:44;CYOW 141044Z 29005KT 15SM -SHRA FEW015 BKN060TCU OVC120 13/ RMK CF2TCU3AC3

CYOW;2009-07-14 11:00;CYOW 141100Z 29006KT 15SM -SHRA FEW015 BKN060TCU OVC120 13/10 A2994 RMK CF2TCU3AC2 SLP140

CYOW;2009-07-14 12:00;CYOW 141200Z 29008KT 15SM BKN015 BKN077 13/11 A2996 RMK CF5AC2 SLP147

CYOW;2009-07-14 13:00;CYOW 141300Z 28012KT 15SM SCT017 BKN070 14/10 A2998 RMK CU3AC3 SLP153

CYOW;2009-07-14 14:00;CYOW 141400Z 27009KT 15SM BKN020 BKN070 14/10 A2998 RMK CU5AC1 SLP154

CYOW;2009-07-14 15:00;CYOW 141500Z 31013KT 15SM BKN028 17/10 A2998 RMK CU6 SLP154

CYOW;2009-07-14 16:00;CYOW 141600Z 29010KT 15SM BKN033 17/10 A2998 RMK CU5 SLP155

CYOW;2009-07-14 17:00;CYOW 141700Z 27009KT 15SM BKN033 18/10 A3000 RMK CU6 SLP160

CYOW;2009-07-14 18:00;CYOW 141800Z 28011KT 15SM SCT038 OVC053 18/10 A3000 RMK CU3SC5 SLP161

CYOW;2009-07-14 19:00;CYOW 141900Z 27011G18KT 15SM OVC038 17/10 A3001 RMK SC8 SLP165

CYOW;2009-07-14 20:00;CYOW 142000Z 28013KT 15SM OVC034 18/11 A3001 RMK SC8 SLP165

CYOW;2009-07-14 21:00;CYOW 142100Z 30009G16KT 15SM FEW033 BKN047 18/11 A3002 RMK CU2SC5 SLP168

CYOW;2009-07-14 22:00;CYOW 142200Z 30010G16KT 15SM SCT038 BKN080 BKN120 19/11 A3002 RMK CU3AC2AC1 SLP167

CYOW;2009-07-14 23:00;CYOW 142300Z CCA 29007KT 15SM FEW040 FEW080 19/11 A3003 RMK CU1AC1 SLP170

CYOW;2009-07-15 00:00;CYOW 150000Z 29006KT 15SM FEW060 FEW090 18/11 A3004 RMK SC1AC2 TCU ASOCT SLP174

CYOW;2009-07-15 01:00;CYOW 150100Z 25002KT 15SM FEW065 SCT070 SCT090 17/11 A3005 RMK SC1AC2AC1 TCU ASOCT SLP177

CYOW;2009-07-15 02:00;CYOW 150200Z 22004KT 15SM BKN070 17/11 A3006 RMK AC5 SLP182

CYOW;2009-07-15 03:00;CYOW 150300Z 02004KT 15SM FEW090 16/11 A3007 RMK AC1 SLP183

CYOW;2009-07-15 04:00;CYOW 150400Z 00000KT 15SM FEW050 15/10 A3007 RMK SC1 SLP185

CYOW;2009-07-15 05:00;CYOW 150500Z 27004KT 15SM FEW050 15/11 A3007 RMK SC1 SLP185

CYOW;2009-07-15 06:00;CYOW 150600Z 31004KT 15SM FEW060 13/09 A3008 RMK SC1 SLP186

CYOW;2009-07-15 07:00;CYOW 150700Z 33004KT 15SM FEW060 13/10 A3008 RMK SC1 SLP189

CYOW;2009-07-15 08:00;CYOW 150800Z 05003KT 15SM SKC 11/09 A3008 RMK SLP187

CYOW;2009-07-15 09:00;CYOW 150900Z 02003KT 15SM FEW040 FEW250 11/09 A3009 RMK SC1CI0 SLP191

CYOW;2009-07-15 10:00;CYOW 151000Z CCA 00000KT 15SM MIFG FEW040 FEW250 11/10 A3011 RMK SC1CI0 SLP199

CYOW;2009-07-15 11:00;CYOW 151100Z 00000KT 15SM FEW010 FEW080 FEW250 13/11 A3012 RMK CF1AC1CI1 SLP200

CYOW;2009-07-15 12:00;CYOW 151200Z 00000KT 15SM FEW250 15/11 A3012 RMK CI1 SLP200

CYOW;2009-07-15 13:00;CYOW 151300Z 00000KT 15SM FEW020 FEW250 16/11 A3011 RMK CF1CI1 SLP196

CYOW;2009-07-15 14:00;CYOW 151400Z 23003KT 15SM FEW025 FEW250 17/11 A3011 RMK CF1CI1 SLP196

CYOW;2009-07-15 15:00;CYOW 151500Z 26003KT 15SM FEW028 FEW250 19/12 A3009 RMK CF1CI1 SLP192

CYOW;2009-07-15 16:00;CYOW 151600Z 27007KT 15SM FEW032 FEW250 20/12 A3008 RMK CU1CI1 SLP188

CYOW;2009-07-15 17:00;CYOW 151700Z 00000KT 15SM FEW032 SCT250 21/13 A3006 RMK CU1CI2 SLP182

CYOW;2009-07-15 18:00;CYOW 151800Z 16003KT 15SM FEW035 BKN250 22/13 A3004 RMK CU1CI2 SLP172

CYOW;2009-07-15 19:00;CYOW 151900Z 23008KT 15SM FEW045 FEW200 BKN250 24/13 A3002 RMK CU1CI1CI3 SLP167

CYOW;2009-07-15 20:00;CYOW 152000Z 27003KT 15SM FEW045 FEW200 BKN250 23/12 A3000 RMK CU1CI1CI3 SLP159

CYOW;2009-07-15 21:00;CYOW 152100Z 14005KT 15SM FEW050 FEW200 BKN250 24/12 A2997 RMK SC1CI1CI4 SLP150

CYOW;2009-07-15 22:00;CYOW 152200Z 16003KT 15SM FEW055 FEW170 SCT200 BKN250 23/13 A2995 RMK SC1AC2CI2CI2 SLP143

CYOW;2009-07-15 23:00;CYOW 152300Z 15004KT 15SM FEW060 SCT140 SCT200 BKN240 23/13 A2994 RMK SC1AC2CC1CI2 SLP141

CYOW;2009-07-16 00:00;CYOW 160000Z 21005KT 15SM FEW070 BKN120 BKN140 BKN180 21/13 A2994 RMK AC1AC4AC1AC1 SLP140

CYOW;2009-07-16 00:29;CYOW 160029Z 18005KT 15SM -RA FEW080 BKN120 BKN140 BKN160 21/ RMK AC1AC6AC1AC1

CYOW;2009-07-16 00:52;CYOW 160052Z 17005KT 15SM OVC120 20/ RMK AC8

CYOW;2009-07-16 01:00;CYOW 160100Z 17006KT 15SM OVC120 20/12 A2992 RMK AC8 SLP133

CYOW;2009-07-16 01:30;CYOW 160130Z 18004KT 15SM -RA OVC120 19/ RMK AC8

CYOW;2009-07-16 02:00;CYOW 160200Z 17005KT 15SM -RA OVC120 18/12 A2992 RMK AC8 SLP133

CYOW;2009-07-16 02:29;CYOW 160229Z 17003KT 15SM OVC120 18/ RMK AC8

CYOW;2009-07-16 02:47;CYOW 160247Z 20002KT 15SM -RA OVC120 18/ RMK AC8

CYOW;2009-07-16 03:00;CYOW 160300Z 20005KT 15SM -RA OVC120 17/12 A2992 RMK AC8 SLP132

CYOW;2009-07-16 03:27;CYOW 160327Z 20006KT 15SM OVC096 17/ RMK AC8

CYOW;2009-07-16 04:00;CYOW 160400Z 22002KT 15SM OVC094 18/11 A2990 RMK AC8 SLP127

CYOW;2009-07-16 05:00;CYOW 160500Z 22007KT 15SM -RA OVC070 18/11 A2989 RMK AC8 SLP124

CYOW;2009-07-16 05:44;CYOW 160544Z 16004KT 15SM OVC057 16/ RMK SC8

CYOW;2009-07-16 06:00;CYOW 160600Z 15005KT 15SM OVC059 16/13 A2985 RMK SC8 SLP109

CYOW;2009-07-16 06:48;CYOW 160648Z 16004KT 15SM -RA OVC058 16/ RMK SC8

CYOW;2009-07-16 07:00;CYOW 160700Z 16005KT 15SM -RA OVC049 16/14 A2982 RMK SC8 -RA INTMT SLP100

CYOW;2009-07-16 08:00;CYOW 160800Z 15007KT 15SM BKN061 16/14 A2979 RMK SC7 SLP089

CYOW;2009-07-16 09:00;CYOW 160900Z 12005KT 15SM -RA OVC060 15/14 A2978 RMK SC8 SLP085

CYOW;2009-07-16 09:40;CYOW 160940Z 12006KT 15SM OVC060 15/ RMK SC8

CYOW;2009-07-16 10:00;CYOW 161000Z 12005KT 15SM BKN057 OVC080 15/14 A2976 RMK SC6AC2 SLP078

CYOW;2009-07-16 11:00;CYOW 161100Z 08006KT 15SM BKN055 15/14 A2974 RMK SC7 SLP073

CYOW;2009-07-16 12:00;CYOW 161200Z 05004KT 15SM OVC055 16/14 A2974 RMK SC8 SLP072

CYOW;2009-07-16 13:00;CYOW 161300Z 10006KT 15SM FEW012 SCT055 SCT095 18/15 A2972 RMK CU1SC3AC1 SLP066

CYOW;2009-07-16 14:00;CYOW 161400Z 19005KT 15SM FEW016 FEW055 SCT095 20/16 A2971 RMK CU1SC2AC2 SLP061

CYOW;2009-07-16 15:00;CYOW 161500Z 23004KT 15SM FEW018 SCT095 21/17 A2971 RMK CU2AC2 SLP061

CYOW;2009-07-16 16:00;CYOW 161600Z 00000KT 15SM SCT020 BKN080 BKN130 22/17 A2970 RMK CU3AC2AC1 SLP057

CYOW;2009-07-16 17:00;CYOW 161700Z 31003KT 15SM BKN028 24/18 A2969 RMK CU6 SLP054

CYOW;2009-07-16 18:00;CYOW 161800Z 00000KT 15SM SCT035TCU BKN090 25/18 A2967 RMK TCU4AC2 SLP047

CYOW;2009-07-16 19:00;CYOW 161900Z 29003KT 15SM SCT035TCU BKN100 25/18 A2966 RMK TCU3AC2 SLP044

CYOW;2009-07-16 20:00;CYOW 162000Z 30003KT 15SM BKN035TCU 25/18 A2965 RMK TCU5 CB ASOCTD S SLP041

CYOW;2009-07-16 21:00;CYOW 162100Z 31012KT 15SM BKN038TCU 25/18 A2968 RMK TCU5 CB SE-S SLP051

CYOW;2009-07-16 22:00;CYOW 162200Z 27007KT 15SM SCT040TCU 26/16 A2967 RMK TCU4 CB DIST E SLP046

CYOW;2009-07-16 23:00;CYOW 162300Z 26011KT 15SM SCT060TCU SCT100 BKN250 25/14 A2968 RMK TCU3AC1CI1 CB ASOCT SLP052

CYOW;2009-07-17 00:00;CYOW 170000Z 25006KT 15SM FEW065TCU FEW100 SCT250 23/13 A2970 RMK TCU1AC1CI1 CB ASOCT SLP057

CYOW;2009-07-17 01:00;CYOW 170100Z 25005KT 15SM SCT040 BKN250 22/14 A2972 RMK SC3CI1 TCU ASOCT SLP064

CYOW;2009-07-17 02:00;CYOW 170200Z 26006KT 15SM BKN040 BKN080 BKN250 21/13 A2973 RMK SC5AC1CI1 SLP068

CYOW;2009-07-17 03:00;CYOW 170300Z 24004KT 15SM FEW050 BKN250 20/12 A2973 RMK SC1CI5 SLP068

CYOW;2009-07-17 04:00;CYOW 170400Z 25005KT 15SM FEW240 19/12 A2973 RMK CI1 SLP068

CYOW;2009-07-17 05:00;CYOW 170500Z 26002KT 15SM BKN230 18/11 A2973 RMK CI5 SLP066

CYOW;2009-07-17 06:00;CYOW 170600Z 18004KT 15SM OVC100 17/12 A2973 RMK AC8 MOON VISBL SLP066

CYOW;2009-07-17 07:00;CYOW 170700Z 23004KT 15SM SCT070 BKN120 17/12 A2974 RMK AC3AC2 SLP072

CYOW;2009-07-17 08:00;CYOW 170800Z 27004KT 15SM FEW060 SCT080 BKN120 16/13 A2974 RMK SC1AC2AC2 SLP071

CYOW;2009-07-17 09:00;CYOW 170900Z 27003KT 15SM SCT057 BKN120 15/14 A2974 RMK SC3AC2 SLP070

CYOW;2009-07-17 10:00;CYOW 171000Z 18002KT 15SM FEW055 FEW120 15/13 A2973 RMK CU1AC1 SLP068

CYOW;2009-07-17 11:00;CYOW 171100Z 18003KT 15SM BKN060 BKN120 15/13 A2975 RMK SC5ACC1 SLP073

CYOW;2009-07-17 12:00;CYOW 171200Z 00000KT 15SM SCT060 17/14 A2976 RMK CU3 TCU ASOCTD SLP076

CYOW;2009-07-17 13:00;CYOW 171300Z 22002KT 15SM BKN060 19/14 A2976 RMK SC6 CU ASOCTD SLP079

CYOW;2009-07-17 14:00;CYOW 171400Z 10003KT 15SM FEW060 21/14 A2974 RMK SC2 CU ASOCTD SLP072

CYOW;2009-07-17 15:00;CYOW 171500Z 18002KT 15SM FEW060 FEW240 22/15 A2974 RMK CU2CI1 SLP071

CYOW;2009-07-17 16:00;CYOW 171600Z 18005KT 15SM SCT030 BKN080 23/16 A2973 RMK CU3AC2 TCU ASOCTD SLP067

CYOW;2009-07-17 16:33;CYOW 171633Z 17004KT 15SM -SHRA BKN030TCU 22/ RMK TCU5 CU ASOCTD

CYOW;2009-07-17 17:00;CYOW 171700Z 25003KT 15SM BKN030 23/15 A2973 RMK CU5 TCU ASOCTD SLP067

CYOW;2009-07-17 18:00;CYOW 171800Z 19009KT 15SM BKN050 BKN240 25/15 A2971 RMK CU5CI0 TCU ASOCTD SLP062

CYOW;2009-07-17 19:00;CYOW 171900Z 19006KT 15SM SCT050 BKN140 BKN240 25/14 A2971 RMK CU3AC2CI1 TCU ASOCTD SLP062

CYOW;2009-07-17 20:00;CYOW 172000Z 20009G19KT 15SM SCT060 OVC180 24/12 A2974 RMK CU3AS5 SLP071

CYOW;2009-07-17 21:00;CYOW 172100Z 20011G17KT 15SM FEW060 BKN120 OVC160 22/13 A2976 RMK CU2AC3AS3 TCU ASOCTD SLP077

CYOW;2009-07-17 22:00;CYOW 172200Z 22010KT 15SM FEW060 BKN140 OVC170 20/13 A2976 RMK CU1AC4AC3 SLP079

CYOW;2009-07-17 23:00;CYOW 172300Z 23006KT 15SM FEW060 BKN110 BKN120 20/13 A2976 RMK CU1AC5AC2 SLP078

CYOW;2009-07-18 00:00;CYOW 180000Z 21006KT 15SM FEW060 BKN160 OVC170 20/14 A2975 RMK CU1AC5AC2 SLP075

CYOW;2009-07-18 00:45;CYOW 180045Z 20003KT 15SM -SHRA BKN080 OVC110 18/ RMK AC5AC3

CYOW;2009-07-18 01:00;CYOW 180100Z 21003KT 15SM -SHRA BKN080 OVC110 18/15 A2975 RMK AC5AC3 SLP076

CYOW;2009-07-18 02:00;CYOW 180200Z 16003KT 15SM OVC100 17/15 A2976 RMK AC8 SLP078

CYOW;2009-07-18 03:00;CYOW 180300Z 09004KT 15SM OVC090 17/15 A2975 RMK AC8 SLP073

CYOW;2009-07-18 03:40;CYOW 180340Z 07003KT 15SM -SHRA BKN090 OVC100 17/ RMK AC5AC3

CYOW;2009-07-18 04:00;CYOW 180400Z 09003KT 15SM -SHRA FEW060 OVC095 17/15 A2974 RMK SC1AC7 SLP072

CYOW;2009-07-18 04:30;CYOW 180430Z 07003KT 15SM BKN050 OVC090 17/ RMK SC5AC3

CYOW;2009-07-18 05:00;CYOW 180500Z 08003KT 12SM -SHRA BKN038 OVC050 17/16 A2973 RMK SC5SC3 SLP066

CYOW;2009-07-18 05:25;CYOW 180525Z 00000KT 4SM -RA FEW007 OVC024 16/ RMK SF2SC6

CYOW;2009-07-18 06:00;CYOW 180600Z CCA 00000KT 2SM RA BKN025 OVC045 16/15 A2971 RMK SC5SC3 /R10/ SLP062

CYOW;2009-07-18 06:15;CYOW 180615Z 00000KT 4SM -RA OVC037 16/ RMK SC8

CYOW;2009-07-18 07:00;CYOW 180700Z 10003KT 5SM -RA OVC050 16/15 A2971 RMK SC8 SLP061

CYOW;2009-07-18 08:00;CYOW 180800Z 07003KT 6SM -RA OVC080 16/15 A2970 RMK AC8 VRY LGT RA SLP057

CYOW;2009-07-18 09:00;CYOW 180900Z 06002KT 10SM FEW009 BKN050 OVC060 16/15 A2970 RMK SF1SC5SC2 /R10/ SLP056

CYOW;2009-07-18 09:30;CYOW 180930Z 08003KT 2SM BR SCT010 OVC063 16/ RMK SF3SC5

CYOW;2009-07-18 10:00;CYOW 181000Z 07004KT 2SM BR SCT002 OVC054 16/15 A2969 RMK ST3SC5 SLP054

CYOW;2009-07-18 11:00;CYOW 181100Z 09005KT 2SM -RA BR BKN002 OVC020 16/16 A2968 RMK SF5SC3 SLP052

CYOW;2009-07-18 11:20;CYOW 181120Z 09004KT 2SM -TSRA BR BKN002 OVC016 16/ RMK SF6NS2 CB EMBD

CYOW;2009-07-18 11:37;CYOW 181137Z 18005KT 1/2SM +TSRA FG OVC002 16/ RMK SF8 CB EMBD

CYOW;2009-07-18 11:44;CYOW 181144Z 21002KT 1SM TSRA BR SCT002 OVC016 16/ RMK SF3NS5 CB EMBD

CYOW;2009-07-18 11:55;CYOW 181155Z 15002KT 2SM -TSRA BR SCT002 OVC010 16/ RMK SF3NS5 CB EMBD

CYOW;2009-07-18 12:00;CYOW 181200Z 00000KT 2 1/2SM -TSRA BR FEW002 OVC008 16/16 A2970 RMK SF2NS6 CB EMBD SLP058

CYOW;2009-07-18 12:28;CYOW 181228Z 26002KT 3SM -SHRA BR SCT002 OVC008 16/ RETS RMK SF4NS4

CYOW;2009-07-18 12:51;CYOW 181251Z 15003KT 10SM SCT003 OVC010 17/ RETS RMK SF3SC5

CYOW;2009-07-18 13:00;CYOW 181300Z 14003KT 12SM SCT005 OVC010 17/16 A2970 RETS RMK SF4SC4 SLP059

CYOW;2009-07-18 14:00;CYOW 181400Z 18005KT 15SM BKN010 19/17 A2970 RMK SC7 CU ASOCTD SLP057

CYOW;2009-07-18 15:00;CYOW 181500Z 21006KT 15SM BKN016 BKN100 20/17 A2970 RMK CU5AC2 SLP057

CYOW;2009-07-18 15:49;CYOW 181549Z 29011G17KT 5SM -SHRA OVC020TCU 17/ RMK TCU8

CYOW;2009-07-18 16:00;CYOW 181600Z 30015G20KT 4SM +SHRA OVC020TCU 17/16 A2973 RMK TCU8 SLP067

CYOW;2009-07-18 16:28;CYOW 181628Z 27008KT 15SM -SHRA SCT020TCU BKN100 18/ RMK TCU3AC2

CYOW;2009-07-18 16:50;CYOW 181650Z 27008KT 15SM SCT020 BKN100 19/ RERA RMK CU3AC2

CYOW;2009-07-18 17:00;CYOW 181700Z 26008KT 15SM BKN020 BKN100 20/17 A2972 RERA RMK CU6AC1 SLP065

CYOW;2009-07-18 17:05;CYOW 181705Z 27009KT 10SM -SHRA BKN020TCU 19/ RMK TCU7

CYOW;2009-07-18 17:44;CYOW 181744Z 28008KT 15SM SCT030 BKN100 19/ RMK CU4AC2 TCU ASOCTD

CYOW;2009-07-18 18:00;CYOW 181800Z 29009KT 15SM BKN030 BKN120 20/16 A2973 RMK CU5AC2 TCU ASOCTD SLP068

CYOW;2009-07-18 19:00;CYOW 181900Z 28006KT 15SM SCT033 SCT120 22/15 A2973 RMK CU3AC1 SLP068

CYOW;2009-07-18 20:00;CYOW 182000Z 32005KT 15SM BKN048 BKN120 21/15 A2973 RMK CU6AC1 SLP067

CYOW;2009-07-18 20:38;CYOW 182038Z 26013G19KT 10SM SHRA BKN040TCU 20/ RMK TCU7

CYOW;2009-07-18 21:00;CYOW 182100Z 31006KT 15SM VCSH SCT040TCU BKN100 18/15 A2974 RERA RMK TCU3AC3 SLP073

CYOW;2009-07-18 22:00;CYOW 182200Z 27006KT 15SM VCSH BKN056TCU BKN100 20/16 A2975 RMK TCU5AC2 SH N OVR CITY SLP075

CYOW;2009-07-18 23:00;CYOW 182300Z 25009KT 15SM SCT057TCU BKN085 BKN110 19/14 A2977 RMK TCU3AC2AC2 SHS DIST N-S SLP082

CYOW;2009-07-19 00:00;CYOW 190000Z 25008KT 15SM FEW058TCU BKN100 19/14 A2979 RMK TCU2AC5 DIST CB TP NW DIST SHS E-S SLP089

CYOW;2009-07-19 01:00;CYOW 190100Z 23005KT 15SM FEW060TCU BKN130 18/14 A2982 RMK TCU1AC6 CB TP DIST N SLP097

CYOW;2009-07-19 02:00;CYOW 190200Z 23006KT 15SM FEW060TCU BKN110 17/14 A2983 RMK TCU1AC6 SLP103

CYOW;2009-07-19 03:00;CYOW 190300Z 22006KT 15SM FEW063 BKN092 16/14 A2984 RMK SC2AC5 SLP104

CYOW;2009-07-19 04:00;CYOW 190400Z 22004KT 15SM SCT063 BKN090 16/14 A2984 RMK SC3AC2 SLP106

CYOW;2009-07-19 05:00;CYOW 190500Z 23005KT 15SM FEW039 BKN065 15/14 A2985 RMK SC2SC4 SLP107

CYOW;2009-07-19 06:00;CYOW 190600Z 22004KT 15SM BKN051 15/13 A2985 RMK SC6 SLP108

CYOW;2009-07-19 07:00;CYOW 190700Z 23005KT 15SM SCT050 14/12 A2985 RMK SC3 SLP108

CYOW;2009-07-19 08:00;CYOW 190800Z 22005KT 15SM FEW050 14/12 A2986 RMK SC1 SLP111

CYOW;2009-07-19 09:00;CYOW 190900Z 22006KT 15SM FEW080 SCT240 13/12 A2987 RMK AC2CI2 SLP115

CYOW;2009-07-19 10:00;CYOW 191000Z 22008KT 15SM FEW008 SCT042 BKN080 BKN240 13/12 A2988 RMK CF1SC3AC2CI1 SLP120

CYOW;2009-07-19 11:00;CYOW 191100Z 23009KT 15SM FEW010 BKN080 14/12 A2990 RMK CF2AC5 SLP126

CYOW;2009-07-19 12:00;CYOW 191200Z 23007KT 15SM FEW017 BKN084 BKN093 16/13 A2993 RMK CF2AC3AC2 SLP136

CYOW;2009-07-19 13:00;CYOW 191300Z 26010KT 15SM FEW020 BKN060 OVC093 16/13 A2995 RMK CF2SC4AC2 DIST SH N OVR CITY SLP143

CYOW;2009-07-19 14:00;CYOW 191400Z 27012G18KT 15SM BKN020 BKN093 18/14 A2996 RMK SC6AC1 SLP146

CYOW;2009-07-19 15:00;CYOW 191500Z 27012KT 15SM SCT020 BKN058 19/15 A2998 RMK CU3SC2 SLP153

CYOW;2009-07-19 16:00;CYOW 191600Z 27013KT 15SM BKN028 BKN060 20/14 A2999 RMK CU5SC1 SLP157

CYOW;2009-07-19 17:00;CYOW 191700Z 27012KT 15SM BKN032 21/14 A3000 RMK CU5 SLP159

CYOW;2009-07-19 18:00;CYOW 191800Z 26009KT 15SM BKN033 BKN052 20/15 A3001 RMK CU6SC1 SH DIST W QUAD S QUAD SLP163

CYOW;2009-07-19 19:00;CYOW 191900Z 27011KT 15SM SCT033 BKN060 22/15 A3001 RMK CU3SC2 TCU ASOCTD SLP163

CYOW;2009-07-19 19:12;CYOW 191912Z 27011G17KT 15SM -SHRA BKN053TCU 19/ RMK TCU6

CYOW;2009-07-19 19:25;CYOW 191925Z 24005KT 15SM SCT055 BKN090 20/ RMK CU3AC2

CYOW;2009-07-19 20:00;CYOW 192000Z 25011KT 15SM FEW055 SCT090 22/15 A3002 RMK CU2AC2 SH DIST S SLP165

CYOW;2009-07-19 21:00;CYOW 192100Z 25005KT 15SM SCT055 23/15 A3002 RMK CU3 SLP167

CYOW;2009-07-19 22:00;CYOW 192200Z 20007KT 15SM SCT044 SCT090 22/15 A3003 RMK CU3AC1 SLP170

CYOW;2009-07-19 23:00;CYOW 192300Z 23007KT 15SM SCT050TCU BKN085 21/15 A3003 RMK TCU3AC2 DIST SHS N-NE SLP171

CYOW;2009-07-20 00:00;CYOW 200000Z 23002KT 15SM FEW050TCU BKN090 20/15 A3005 RMK TCU2AC3 SH DIST E SLP176

CYOW;2009-07-20 01:00;CYOW 200100Z 23004KT 15SM FEW050TCU SCT077 BKN100 20/15 A3007 RMK TCU2AC2AC1 SLP182

CYOW;2009-07-20 02:00;CYOW 200200Z 19005KT 15SM FEW050 SCT075 19/14 A3008 RMK CU1AC3 SLP187

CYOW;2009-07-20 03:00;CYOW 200300Z 19005KT 15SM FEW050 SCT075 17/14 A3010 RMK SC1AC2 SLP192

CYOW;2009-07-20 04:00;CYOW 200400Z 19004KT 15SM FEW075 17/14 A3011 RMK AC2 SLP196

CYOW;2009-07-20 05:00;CYOW 200500Z 20005KT 15SM SCT079 16/14 A3011 RMK AC3 SLP198

CYOW;2009-07-20 06:00;CYOW 200600Z 18004KT 15SM BKN086 15/14 A3012 RMK AC6 SLP200

CYOW;2009-07-20 07:00;CYOW 200700Z 20004KT 15SM BKN083 14/13 A3013 RMK AC6 SLP203

CYOW;2009-07-20 08:00;CYOW 200800Z 19003KT 15SM BKN084 14/13 A3012 RMK AC6 SLP202

CYOW;2009-07-20 09:00;CYOW 200900Z 20004KT 15SM BKN086 14/13 A3014 RMK AC6 SLP206

CYOW;2009-07-20 10:00;CYOW 201000Z 22003KT 15SM FEW052 SCT084 14/13 A3015 RMK SC1AC3 FG BANK OVR RIVER SLP210

CYOW;2009-07-20 11:00;CYOW 201100Z 23003KT 15SM BKN057 15/14 A3016 RMK SC6 FG BANK N OVR RIVER SLP215

CYOW;2009-07-20 12:00;CYOW 201200Z 24003KT 15SM BKN050 16/14 A3017 RMK SC6 SLP219

CYOW;2009-07-20 13:00;CYOW 201300Z 29005KT 15SM FEW010 BKN050 18/15 A3019 RMK CF1SC5 TR CUFRA SLP223

CYOW;2009-07-20 14:00;CYOW 201400Z 27002KT 15SM FEW020 SCT240 20/15 A3019 RMK CU2CI1 SLP224

CYOW;2009-07-20 15:00;CYOW 201500Z 25003KT 15SM BKN020 21/15 A3019 RMK CU5 SLP225

CYOW;2009-07-20 16:00;CYOW 201600Z 27007KT 15SM BKN030 21/15 A3019 RMK CU6 SLP225

CYOW;2009-07-20 17:00;CYOW 201700Z 18004KT 15SM FEW030 SCT040 BKN250 23/14 A3018 RMK CU1CU3CI0 TCU ASOCT SLP221

CYOW;2009-07-20 18:00;CYOW 201800Z 22006KT 15SM SCT047 BKN250 23/14 A3017 RMK CU3CI1 TCU ASOCT SLP219

CYOW;2009-07-20 19:00;CYOW 201900Z 23006KT 15SM SCT049 BKN250 25/14 A3016 RMK CU3CI1 TCU ASOCT SLP214

CYOW;2009-07-20 20:00;CYOW 202000Z 20003KT 15SM SCT053 BKN250 25/14 A3015 RMK CU3CI0 TCU ASOCT SLP212

CYOW;2009-07-20 21:00;CYOW 202100Z 22005KT 15SM SCT056 SCT250 25/13 A3015 RMK CU3CI0 TCU ASOCT SLP211

CYOW;2009-07-20 22:00;CYOW 202200Z 22006KT 15SM FEW055 SCT250 25/14 A3015 RMK CU2CI0 TCU ASOCT SLP210

CYOW;2009-07-20 23:00;CYOW 202300Z 21008KT 15SM FEW055 SCT250 23/15 A3015 RMK CU2CI0 TCU ASOCTD DIST SH W SLP211

CYOW;2009-07-21 00:00;CYOW 210000Z 24006KT 15SM FEW055 BKN110 21/15 A3017 RMK CU1AC5 TCU ASOCTD SLP218

CYOW;2009-07-21 01:00;CYOW 210100Z 25002KT 15SM FEW055 BKN100 21/15 A3018 RMK CU1AC2 SLP221

CYOW;2009-07-21 02:00;CYOW 210200Z 22002KT 15SM BKN110 BKN120 20/15 A3020 RMK AC5AC1 SLP228

CYOW;2009-07-21 03:00;CYOW 210300Z 23003KT 15SM FEW110 19/15 A3020 RMK AC2 SLP226

CYOW;2009-07-21 04:00;CYOW 210400Z 18002KT 15SM FEW110 18/15 A3021 RMK AC1 SLP229

CYOW;2009-07-21 05:00;CYOW 210500Z 19003KT 15SM SKC 18/14 A3021 RMK SLP229

CYOW;2009-07-21 06:00;CYOW 210600Z 00000KT 15SM FEW110 16/13 A3020 RMK AC1 SLP229

CYOW;2009-07-21 07:00;CYOW 210700Z 27002KT 15SM SKC 16/14 A3021 RMK SLP232

CYOW;2009-07-21 08:00;CYOW 210800Z 00000KT 15SM SKC 15/14 A3022 RMK SLP233

CYOW;2009-07-21 09:00;CYOW 210900Z 11002KT 15SM FEW110 SCT240 14/13 A3023 RMK AC2CI0 SLP237

CYOW;2009-07-21 10:00;CYOW 211000Z 00000KT 15SM FEW110 BKN240 16/14 A3024 RMK AC2CI2 SLP241

CYOW;2009-07-21 11:00;CYOW 211100Z 05003KT 15SM SCT240 16/15 A3024 RMK CI2 SLP242

CYOW;2009-07-21 12:00;CYOW 211200Z 05004KT 12SM BKN240 17/15 A3024 RMK CI2 SLP242

CYOW;2009-07-21 13:00;CYOW 211300Z 06002KT 12SM BKN240 20/16 A3024 RMK CI3 SLP242

CYOW;2009-07-21 14:00;CYOW 211400Z 07003KT 12SM BKN240 22/16 A3024 RMK CI2 SLP241

CYOW;2009-07-21 15:00;CYOW 211500Z 07004KT 12SM BKN240 23/16 A3023 RMK CS5 HALO SLP236

CYOW;2009-07-21 16:00;CYOW 211600Z 12003KT 15SM FEW020 BKN240 24/16 A3022 RMK CU1CS6 HALO SLP234

CYOW;2009-07-21 17:00;CYOW 211700Z 12006KT 15SM FEW020 BKN240 24/15 A3021 RMK CU2CS5 HALO SLP231

CYOW;2009-07-21 18:00;CYOW 211800Z 08007KT 15SM FEW030 OVC190 24/15 A3020 RMK CU2AS6 TCU DIST E SLP227

CYOW;2009-07-21 19:00;CYOW 211900Z 08005KT 15SM FEW030 BKN180 25/16 A3019 RMK CU2AS6 SLP223

CYOW;2009-07-21 20:00;CYOW 212000Z 05006KT 15SM FEW040 OVC160 24/16 A3018 RMK CU2AS6 SLP219

CYOW;2009-07-21 21:00;CYOW 212100Z 05006KT 15SM FEW040 BKN160 24/16 A3016 RMK CU2AS6 SLP215

CYOW;2009-07-21 22:00;CYOW 212200Z 06005KT 15SM FEW040 FEW100 BKN160 24/17 A3015 RMK CU1AC1AS6 TR CU SLP211

CYOW;2009-07-21 23:00;CYOW 212300Z 04006KT 15SM FEW040 FEW100 BKN170 23/16 A3014 RMK CU1AC2AS6 CU TR SLP207

CYOW;2009-07-22 00:00;CYOW 220000Z 05006KT 15SM FEW050 FEW100 BKN160 23/16 A3013 RMK SC1AC2AS5 SLP204

CYOW;2009-07-22 01:00;CYOW 220100Z 04004KT 15SM FEW060TCU FEW090 FEW120 BKN140 22/16 A3013 RMK TCU1ACC1AC2AS6 SLP204

CYOW;2009-07-22 02:00;CYOW 220200Z 02005KT 15SM FEW090 OVC130 22/16 A3014 RMK AC1AC8 SLP206

CYOW;2009-07-22 03:00;CYOW 220300Z 17005KT 15SM FEW050 OVC070 21/16 A3015 RMK CU1AC7 SLP209

CYOW;2009-07-22 03:22;CYOW 220322Z 16004KT 15SM -SHRA FEW050 SCT075 OVC120 20/ RMK CU2AC2AC4

CYOW;2009-07-22 04:00;CYOW 220400Z 19005KT 15SM -SHRA FEW052 OVC100 19/17 A3015 RMK CU2AC6 SLP209

CYOW;2009-07-22 05:00;CYOW 220500Z 19006KT 8SM -RA FEW011 OVC040 18/18 A3016 RMK SC2SC6 SLP213

CYOW;2009-07-22 05:52;CYOW 220552Z 22005KT 10SM -RA BKN006 OVC011 18/ RMK SC5SC3

CYOW;2009-07-22 06:00;CYOW 220600Z 24006KT 10SM -RA BKN006 OVC009 18/17 A3015 RMK SC5SC3 SLP211

CYOW;2009-07-22 06:34;CYOW 220634Z 22002KT 10SM -RA FEW006 OVC100 18/ RMK SC2AC6

CYOW;2009-07-22 07:00;CYOW 220700Z 01004KT 10SM -RA FEW006 OVC090 17/16 A3015 RMK SC2AC6 SLP210

CYOW;2009-07-22 07:27;CYOW 220727Z 00000KT 8SM -RA OVC006 17/ RMK SC8

CYOW;2009-07-22 07:49;CYOW 220749Z 26002KT 10SM -RA FEW006 OVC094 17/ RMK SC2AC6

CYOW;2009-07-22 08:00;CYOW 220800Z 25005KT 10SM -RA FEW006 OVC099 17/16 A3014 RMK SC2AC6 SLP206

CYOW;2009-07-22 08:44;CYOW 220844Z 28002KT 10SM FEW006 OVC094 17/ RMK SC2AC6

CYOW;2009-07-22 09:00;CYOW 220900Z 31003KT 10SM FEW006 OVC094 17/16 A3014 RMK SC1AC7 SLP207

CYOW;2009-07-22 10:00;CYOW 221000Z 36005KT 15SM FEW006 OVC110 18/17 A3015 RMK SC1AC7 SLP210

CYOW;2009-07-22 11:00;CYOW 221100Z 04004KT 15SM FEW005 FEW050 BKN110 18/17 A3015 RMK SF1SC2AC6 SLP211

CYOW;2009-07-22 11:04;CYOW 221104Z 07004KT 15SM -SHRA FEW005 FEW050 BKN110 18/ RMK SF1SC2AC6

CYOW;2009-07-22 11:34;CYOW 221134Z 06003KT 4SM -SHRA BR BKN004 BKN110 18/ RMK SF5AC2

CYOW;2009-07-22 12:00;CYOW 221200Z 07003KT 6SM -SHRA BR SCT004 BKN110 18/17 A3016 RMK SF4AC3 SLP213

CYOW;2009-07-22 12:27;CYOW 221227Z 07002KT 7SM BKN004 BKN110 18/ RMK SF5AC2

CYOW;2009-07-22 12:48;CYOW 221248Z 00000KT 12SM BKN006 BKN110 19/ RMK SF6AC2

CYOW;2009-07-22 13:00;CYOW 221300Z 00000KT 12SM BKN006 BKN110 19/18 A3017 RMK SF6AC2 SLP217

CYOW;2009-07-22 13:28;CYOW 221328Z 00000KT 15SM -SHRA SCT006 BKN035 BKN095 19/ RMK SF4SC2AC2

CYOW;2009-07-22 14:00;CYOW 221400Z 18002KT 12SM -SHRA SCT006 BKN038 OVC095 19/18 A3017 RMK SF3SC3AC2 SLP218

CYOW;2009-07-22 14:29;CYOW 221429Z 20002KT 15SM FEW007 BKN012 BKN085 19/ RMK SF2CU2AC2

CYOW;2009-07-22 15:00;CYOW 221500Z 11002KT 15SM FEW007 BKN012 BKN075 20/18 A3017 RMK SF1CU4AC2 SLP216

CYOW;2009-07-22 16:00;CYOW 221600Z 05003KT 15SM SCT013 BKN070 20/17 A3017 RMK CU4AC3 SLP218

CYOW;2009-07-22 17:00;CYOW 221700Z 13007KT 15SM BKN013 BKN060 20/18 A3017 RMK CU5SC2 SLP216

CYOW;2009-07-22 17:17;CYOW 221717Z 13008KT 15SM FEW008 BKN013 OVC057 20/ RMK SF2CU4SC2

CYOW;2009-07-22 18:00;CYOW 221800Z 09008KT 15SM FEW008 SCT013 BKN060 20/17 A3017 RMK SF1CU2SC4 SLP217

CYOW;2009-07-22 19:00;CYOW 221900Z 10004KT 15SM FEW020 BKN060 22/17 A3016 RMK CU2SC5 SLP215

CYOW;2009-07-22 20:00;CYOW 222000Z 10006KT 15SM SCT025TCU BKN055 BKN077 23/17 A3015 RMK TCU4SC2AC1 SLP211

CYOW;2009-07-22 21:00;CYOW 222100Z 09005KT 15SM VCSH FEW025 BKN052 22/17 A3015 RMK CU2SC4 TCU ASOCTD SLP210

CYOW;2009-07-22 22:00;CYOW 222200Z 11004KT 15SM FEW025TCU SCT052 BKN080 BKN250 21/16 A3014 RMK TCU2SC2AC2CI1 SLP206

CYOW;2009-07-22 23:00;CYOW 222300Z 08006KT 15SM FEW025 FEW080 BKN220 OVC250 21/16 A3013 RMK CU1AC1CC6CI1 TCU ASOCT SLP204

CYOW;2009-07-23 00:00;CYOW 230000Z 05008KT 15SM FEW022 FEW090 FEW200 OVC250 20/17 A3013 RMK CU1AC1CC2CI2 SLP203

CYOW;2009-07-23 01:00;CYOW 230100Z 06004KT 15SM FEW025 FEW090 FEW200 BKN250 19/17 A3014 RMK SC1AC1CC1CI0 SLP206

CYOW;2009-07-23 02:00;CYOW 230200Z 06005KT 15SM FEW200 BKN250 18/17 A3014 RMK CC1CI0 SLP206

CYOW;2009-07-23 03:00;CYOW 230300Z 05006KT 10SM SCT250 18/17 A3013 RMK CI0 SLP202

CYOW;2009-07-23 04:00;CYOW 230400Z 07006KT 8SM BKN240 17/16 A3012 RMK CI0 SLP200

CYOW;2009-07-23 05:00;CYOW 230500Z 07008KT 8SM BKN240 17/16 A3011 RMK CI0 SLP198

CYOW;2009-07-23 06:00;CYOW 230600Z 06008KT 10SM BKN240 16/15 A3011 RMK CI3 SLP197

CYOW;2009-07-23 07:00;CYOW 230700Z 06008KT 10SM SCT140 BKN240 16/15 A3011 RMK AC2CI2 SLP197

CYOW;2009-07-23 08:00;CYOW 230800Z 06008KT 10SM BKN140 16/15 A3009 RMK AC7 SLP190

CYOW;2009-07-23 09:00;CYOW 230900Z 06008KT 10SM BKN160 16/15 A3008 RMK AC6 SLP188

CYOW;2009-07-23 10:00;CYOW 231000Z 07009KT 10SM FEW005 SCT140 BKN160 BKN220 16/15 A3008 RMK SC1AC3AC2CI1 SLP188

CYOW;2009-07-23 10:24;CYOW 231024Z 07010KT 12SM BKN006 OVC160 16/ RMK SF6AC2

CYOW;2009-07-23 11:00;CYOW 231100Z 07011KT 12SM BKN006 BKN150 16/15 A3008 RMK SF6AC1 SLP185

CYOW;2009-07-23 12:00;CYOW 231200Z 08011KT 12SM OVC006 17/16 A3007 RMK SF8 SLP184

CYOW;2009-07-23 13:00;CYOW 231300Z 08010G17KT 15SM OVC008 18/16 A3007 RMK SF8 SLP183

CYOW;2009-07-23 13:48;CYOW 231348Z 08012KT 15SM BKN010 BKN140 20/ RMK CU5AC2

CYOW;2009-07-23 14:00;CYOW 231400Z CCB 09015KT 15SM BKN010 BKN140 19/16 A3005 RMK CU5AC2 SLP175

CYOW;2009-07-23 15:00;CYOW 231500Z 09010G15KT 15SM BKN014 BKN050 OVC140 20/17 A3004 RMK SC5SC2AC2 SLP172

CYOW;2009-07-23 15:18;CYOW 231518Z 09011G16KT 15SM -RA BKN016 BKN055 OVC140 20/ RMK SC5SC2AC1

CYOW;2009-07-23 16:00;CYOW 231600Z 08010KT 8SM -RA BKN016 BKN043 OVC100 19/18 A3002 RMK SC6SC2AS1 SLP166

CYOW;2009-07-23 16:33;CYOW 231633Z 08009KT 15SM FEW016 BKN055 OVC087 20/ RMK SC2SC3AS3

CYOW;2009-07-23 16:47;CYOW 231647Z 09008KT 15SM -RA BKN055 OVC087 20/ RMK SC5AS3

CYOW;2009-07-23 17:00;CYOW 231700Z 08008KT 15SM -RA FEW015 BKN055 OVC087 20/18 A3000 RMK SC1SC5AS3 SLP161

CYOW;2009-07-23 18:00;CYOW 231800Z 08009KT 8SM -RA BKN045 OVC085 20/18 A2999 RMK SC6AS2 SLP156

CYOW;2009-07-23 18:31;CYOW 231831Z 08012KT 2SM RA BR OVC040 19/ RMK SC8

CYOW;2009-07-23 18:39;CYOW 231839Z 09010KT 4SM -RA BR OVC050 19/ RERA RMK SC8

CYOW;2009-07-23 19:00;CYOW 231900Z 09006G15KT 6SM -RA BR OVC045 19/18 A2998 RERA RMK SC8 SLP154

CYOW;2009-07-23 21:00;CYOW 232100Z 08013KT 12SM SCT060 BKN140 22/20 A2993 RMK SC3AC4 SLP134

CYOW;2009-07-23 22:00;CYOW 232200Z 09012G19KT 15SM OVC120 22/19 A2990 RMK AC8 SLP126

CYOW;2009-07-23 23:00;CYOW 232300Z 08010G17KT 15SM FEW060TCU FEW092 BKN120 22/19 A2988 RMK TCU1AC2AC5 TR TCU S SLP120

CYOW;2009-07-24 00:00;CYOW 240000Z 09011KT 15SM FEW060TCU BKN120 BKN160 OVC250 22/20 A2988 RMK TCU1AC5AC2CI0 SLP117

CYOW;2009-07-24 00:12;CYOW 240012Z 09011KT 15SM -SHRA FEW060TCU BKN120 BKN160 OVC250 22/ RMK TCU1AC5AC2CI1

CYOW;2009-07-24 01:00;CYOW 240100Z 09011KT 15SM SCT050TCU BKN140 OVC160 22/19 A2986 RMK TCU3AC3AC2 OCNL -SHRA SLP112

CYOW;2009-07-24 01:35;CYOW 240135Z 09010KT 10SM FEW025 OVC099 22/ RMK CU1AC7 LTGIC DIST NW

CYOW;2009-07-24 02:00;CYOW 240200Z 09010KT 10SM SCT050 OVC100 22/19 A2986 RMK SC4AC4 SLP113

CYOW;2009-07-24 03:00;CYOW 240300Z 11007KT 10SM OVC110 21/19 A2986 RMK AC8 SLP111

CYOW;2009-07-24 04:00;CYOW 240400Z 12006KT 10SM FEW020 OVC055 21/18 A2987 RMK CU1SC7 SLP115

CYOW;2009-07-24 05:00;CYOW 240500Z 07005KT 10SM FEW050 OVC080 20/18 A2988 RMK SC2AC6 SLP117

CYOW;2009-07-24 05:06;CYOW 240506Z 07003KT 10SM -SHRA SCT037 OVC080 21/ RMK SC3AC5

CYOW;2009-07-24 06:00;CYOW 240600Z 29003KT 7SM -RA OVC023 19/18 A2988 RMK SC8 SLP118

CYOW;2009-07-24 07:00;CYOW 240700Z 05004KT 5SM -RA BR SCT025 OVC077 19/18 A2987 RMK SC3AC5 SLP114

CYOW;2009-07-24 08:00;CYOW 240800Z 05005KT 3SM -RA BR OVC020 19/18 A2985 RMK NS8 SLP108

CYOW;2009-07-24 08:47;CYOW 240847Z 10006KT 2 1/2SM -RA BR OVC014 19/ RMK NS8

CYOW;2009-07-24 09:00;CYOW 240900Z 07008KT 2SM -RA BR OVC013 19/18 A2984 RMK NS8 SLP105

CYOW;2009-07-24 09:21;CYOW 240921Z 09008KT 4SM -RA BR FEW010 OVC037 19/ RMK CU1SC7

CYOW;2009-07-24 09:33;CYOW 240933Z 11009KT 4SM -RA BR FEW006 OVC033 19/ RMK SC2SC6

CYOW;2009-07-24 10:00;CYOW 241000Z 09007KT 5SM -RA BR FEW006 OVC030 19/18 A2984 RMK SC1SC7 SLP104

CYOW;2009-07-24 11:00;CYOW 241100Z 11006KT 5SM BR FEW010 OVC035 18/17 A2984 RMK SF2SC6 SLP106

CYOW;2009-07-24 12:00;CYOW 241200Z 11006KT 5SM BR FEW010 OVC030 18/17 A2985 RMK SF1SC7 SLP108

CYOW;2009-07-24 12:23;CYOW 241223Z 12007KT 4SM -RA BR OVC030 18/ RMK SC8

CYOW;2009-07-24 13:00;CYOW 241300Z 12007KT 4SM -RA BR OVC029 18/17 A2985 RMK SC8 SLP108

CYOW;2009-07-24 13:39;CYOW 241339Z 12009KT 5SM BR OVC028 18/ RMK SC8

CYOW;2009-07-24 14:00;CYOW 241400Z 11010KT 5SM BR OVC027 18/17 A2985 RMK SC8 SLP109

CYOW;2009-07-24 15:00;CYOW 241500Z 11008KT 7SM SCT005 OVC022 18/17 A2985 RMK SF3SC5 SLP110

CYOW;2009-07-24 15:34;CYOW 241534Z 11009KT 5SM -RA BR OVC012 18/ RMK SC8

CYOW;2009-07-24 16:00;CYOW 241600Z 13006KT 4SM RA BR SCT007 OVC012 18/18 A2985 RMK SF3SC5 SLP109

CYOW;2009-07-24 17:00;CYOW 241700Z 13008KT 3SM RA BR SCT005 OVC030 18/18 A2985 RMK SF4SC4 SLP108

CYOW;2009-07-24 18:00;CYOW 241800Z 14008KT 10SM FEW005 OVC030 18/18 A2984 RERA RMK SF2SC6 SLP104

CYOW;2009-07-24 19:00;CYOW 241900Z 14007KT 10SM BKN005 OVC030 19/18 A2983 RMK SF6SC2 SLP103

CYOW;2009-07-24 20:00;CYOW 242000Z 13006KT 10SM SCT005 BKN030 20/19 A2982 RMK SF3SC4 SLP100

CYOW;2009-07-24 21:00;CYOW 242100Z 11007KT 10SM BKN008 OVC030 20/19 A2982 RMK SF6SC2 SH DIST N OVR CITY SLP100

CYOW;2009-07-24 21:30;CYOW 242130Z 13004KT 7SM -SHRA BKN008TCU OVC030 20/ RMK TCU5SC3

CYOW;2009-07-24 22:00;CYOW 242200Z 00000KT 10SM BKN009TCU OVC030 19/17 A2984 RMK TCU6SC2 SLP106

CYOW;2009-07-24 23:00;CYOW 242300Z 13008KT 12SM FEW030 BKN090 20/19 A2982 RMK SC2AC6 SLP099

CYOW;2009-07-24 23:15;CYOW 242315Z 12007KT 6SM -SHRA FEW005 OVC022 20/ RMK SF2SC6

CYOW;2009-07-24 23:50;CYOW 242350Z 11006KT 10SM FEW008 SCT100 BKN210 19/ RMK SF2AC2CI1

CYOW;2009-07-25 00:00;CYOW 250000Z 12005KT 10SM SCT008 BKN047 BKN210 19/18 A2984 RMK SF3SC2CI0 SLP104

CYOW;2009-07-25 00:55;CYOW 250055Z 08006KT 10SM -SHRA BKN038 OVC110 19/ RMK SC6AC2

CYOW;2009-07-25 01:00;CYOW 250100Z 09008KT 12SM -SHRA BKN037 OVC100 19/18 A2985 RMK SC6AC2 SLP107

CYOW;2009-07-25 01:25;CYOW 250125Z 10006KT 12SM SCT038 OVC065 19/ RMK SC4SC4

CYOW;2009-07-25 02:00;CYOW 250200Z 11007KT 12SM BKN036 BKN110 19/18 A2985 RMK SC5AC2 SLP108

CYOW;2009-07-25 03:00;CYOW 250300Z 05006KT 12SM BKN006 OVC020 19/18 A2985 RMK SF5SC3 SLP109

CYOW;2009-07-25 03:30;CYOW 250330Z 05004KT 10SM -SHRA BKN007 OVC017 19/ RMK SF5SC3

CYOW;2009-07-25 03:50;CYOW 250350Z 30002KT 10SM -TSRA BKN008 OVC020 19/ RMK SF5SC3 CB EMBD

CYOW;2009-07-25 04:00;CYOW 250400Z 33003KT 4SM -TSRA BKN010 OVC016 19/18 A2986 RMK SF5SC3 CB EMBD SLP112

CYOW;2009-07-25 04:40;CYOW 250440Z 16004KT 4SM -RA FEW012 OVC060 18/ RMK SC2SC6

CYOW;2009-07-25 05:00;CYOW 250500Z 11003KT 4SM -RA BKN038 OVC084 18/18 A2985 RMK SC5AC3 SLP107

CYOW;2009-07-25 06:00;CYOW 250600Z 08003KT 10SM FEW002 OVC006 18/18 A2985 RMK SF2SF6 SLP107

CYOW;2009-07-25 06:15;CYOW 250615Z 10003KT 4SM -RA OVC006 18/ RMK SF8

CYOW;2009-07-25 07:00;CYOW 250700Z 09002KT 5SM -RA FEW003 OVC006 18/18 A2985 RMK SF2SF6 SLP108

CYOW;2009-07-25 07:30;CYOW 250730Z 09002KT 6SM BR OVC004 18/ RMK SF8

CYOW;2009-07-25 08:00;CYOW 250800Z 00000KT 6SM BR FEW002 OVC006 18/18 A2985 RMK SF2SF6 SLP107

CYOW;2009-07-25 09:00;CYOW 250900Z 18002KT 10SM FEW005 OVC010 18/17 A2986 RMK SF2SC6 SLP112

CYOW;2009-07-25 10:00;CYOW 251000Z 00000KT 3SM BR FEW005 OVC008 18/17 A2987 RMK SF1SF7 SLP115

CYOW;2009-07-25 10:15;CYOW 251015Z 00000KT 1 1/2SM BR OVC002 18/ RMK ST8

CYOW;2009-07-25 10:25;CYOW 251025Z 00000KT 1/4SM FG VV002 17/ RMK FG8

CYOW;2009-07-25 11:00;CYOW 251100Z 08003KT 3/4SM BR OVC003 18/17 A2987 RMK FG5SF3 SLP115

CYOW;2009-07-25 11:19;CYOW 251119Z 20002KT 2SM BR OVC003 18/ RMK FG3SF5

CYOW;2009-07-25 11:37;CYOW 251137Z 16002KT 2SM BR OVC008 18/ RMK FG3SF5

CYOW;2009-07-25 11:49;CYOW 251149Z 15002KT 3SM BR OVC010 18/ RMK ST8

CYOW;2009-07-25 12:00;CYOW 251200Z 14003KT 3SM BR SCT004 OVC012 18/17 A2987 RMK SF3SC5 SLP116

CYOW;2009-07-25 13:00;CYOW 251300Z 13002KT 5SM BR OVC008 19/17 A2987 RMK SF8 SLP115

CYOW;2009-07-25 13:54;CYOW 251354Z 15005KT 5SM BR FEW008 OVC012 19/ RMK SF2SC6

CYOW;2009-07-25 14:00;CYOW 251400Z 17004KT 5SM BR SCT008 OVC012 19/17 A2988 RMK SF3SC5 SLP119

CYOW;2009-07-25 15:00;CYOW 251500Z 14004KT 8SM BKN013 BKN100 21/17 A2988 RMK CU5AC1 SLP117

CYOW;2009-07-25 16:00;CYOW 251600Z 17003KT 10SM BKN018 22/18 A2988 RMK CU6 SLP117

CYOW;2009-07-25 17:00;CYOW 251700Z 20002KT 12SM BKN026 24/18 A2986 RMK CU6 SLP113

CYOW;2009-07-25 18:00;CYOW 251800Z 13007KT 12SM SCT030 SCT180 24/18 A2985 RMK CU3AC1 SLP108

CYOW;2009-07-25 18:28;CYOW 251828Z 13006KT 12SM -SHRA BKN027TCU 23/ RMK TCU6

CYOW;2009-07-25 18:49;CYOW 251849Z 10003KT 12SM VCSH SCT030 23/ RERA RMK CU4

CYOW;2009-07-25 19:00;CYOW 251900Z 09004KT 12SM BKN033 23/20 A2984 RERA RMK CU5 TCU ASOCTD SLP106

CYOW;2009-07-25 20:00;CYOW 252000Z 12007KT 12SM FEW033 BKN150 25/19 A2982 RMK CU2AC3 SLP099

CYOW;2009-07-25 21:00;CYOW 252100Z 12007KT 12SM FEW150 OVC180 24/19 A2981 RMK AC2AS6 SLP094

CYOW;2009-07-25 22:00;CYOW 252200Z 10008KT 12SM SCT150 OVC180 24/18 A2980 RMK AC3AS5 SLP092

CYOW;2009-07-25 23:00;CYOW 252300Z 09012KT 12SM FEW080 SCT140 BKN180 23/19 A2979 RMK ACC1AC3AS4 SLP089

CYOW;2009-07-26 00:00;CYOW 260000Z 10009KT 12SM FEW020 SCT140 BKN180 22/18 A2980 RMK CF1AC4AS3 SLP093

CYOW;2009-07-26 01:00;CYOW 260100Z 09011KT 12SM -SHRA BKN130 OVC160 21/18 A2979 RMK AC6AS2 SLP088

CYOW;2009-07-26 01:44;CYOW 260144Z 09012KT 12SM FEW070 OVC120 20/ RMK AC1AC7

CYOW;2009-07-26 02:00;CYOW 260200Z 09012KT 12SM FEW070 OVC110 20/18 A2978 RMK AC2AC6 SLP085

CYOW;2009-07-26 02:27;CYOW 260227Z 09011KT 12SM -SHRA SCT063 OVC110 20/ RMK SC3AC5

CYOW;2009-07-26 03:00;CYOW 260300Z 10012KT 6SM -SHRA BR OVC055 20/19 A2978 RERA RMK SC8 CVCTV CLDS EMBD SLP086

CYOW;2009-07-26 03:22;CYOW 260322Z 09011KT 10SM OVC051 20/ RMK SC8 CVCTV CLDS EMBD

CYOW;2009-07-26 04:00;CYOW 260400Z 09010KT 10SM OVC049 19/18 A2976 RMK SC8 SLP079

CYOW;2009-07-26 04:33;CYOW 260433Z 09010KT 10SM -SHRA OVC047 19/ RMK SC8

CYOW;2009-07-26 04:53;CYOW 260453Z 10011KT 10SM OVC047 19/ RMK SC8

CYOW;2009-07-26 05:00;CYOW 260500Z 10011KT 10SM OVC047 19/18 A2976 RMK SC8 SLP077

CYOW;2009-07-26 06:00;CYOW 260600Z 08010KT 10SM FEW006 OVC036 19/18 A2975 RMK SF1SC8 SLP075

CYOW;2009-07-26 07:00;CYOW 260700Z 09008KT 10SM FEW006 OVC037 19/18 A2975 RMK SF1SC8 SLP074

CYOW;2009-07-26 08:00;CYOW 260800Z 09009KT 10SM FEW005 OVC023 18/17 A2975 RMK SF2SC6 SLP074

CYOW;2009-07-26 08:11;CYOW 260811Z 09010KT 10SM -SHRA FEW005 OVC022 18/ RMK SF2SC6

CYOW;2009-07-26 08:52;CYOW 260852Z 09007KT 10SM FEW004 OVC020 17/ RMK SF2SC6

CYOW;2009-07-26 09:00;CYOW 260900Z 09008KT 10SM FEW004 OVC018 17/17 A2974 RMK SF2SC6 SLP072

CYOW;2009-07-26 09:19;CYOW 260919Z 09009KT 10SM SCT003 OVC010 17/ RMK SF4SC4

CYOW;2009-07-26 09:32;CYOW 260932Z 09010KT 8SM BKN003 OVC010 17/ RMK SF5SC3

CYOW;2009-07-26 10:00;CYOW 261000Z 09008KT 8SM BKN003 OVC008 17/16 A2975 RMK SF6SC2 SLP075

CYOW;2009-07-26 10:18;CYOW 261018Z 09007KT 8SM -SHRA BKN003 OVC008 17/ RMK SF6SC2

CYOW;2009-07-26 10:40;CYOW 261040Z 09006KT 8SM OVC003 17/ RMK SF8

CYOW;2009-07-26 11:00;CYOW 261100Z 08005KT 7SM BKN003 OVC008 17/16 A2976 RMK SF6SC2 SLP077

CYOW;2009-07-26 12:00;CYOW 261200Z 10004KT 4SM BR BKN002 OVC008 17/17 A2977 RMK SF5SC3 SLP081

CYOW;2009-07-26 13:00;CYOW 261300Z 07006KT 4SM BR OVC002 19/17 A2977 RMK ST8 SLP083

CYOW;2009-07-26 13:48;CYOW 261348Z 08005KT 5SM BR SCT003 OVC010 18/ RMK SF3SC5

CYOW;2009-07-26 14:00;CYOW 261400Z 07007KT 5SM -SHRA BR FEW003 OVC010TCU 18/18 A2977 RMK SF2TCU6 SLP081

CYOW;2009-07-26 14:14;CYOW 261414Z 07007KT 5SM BR BKN004 OVC009 19/ RMK SF6SC2

CYOW;2009-07-26 14:49;CYOW 261449Z 08007KT 5SM -SHRA BR SCT004 OVC010TCU 19/ RMK SF4TCU4

CYOW;2009-07-26 15:00;CYOW 261500Z 08006KT 5SM -SHRA BR BKN004 OVC010TCU 19/19 A2976 RMK SF6TCU2 SLP080

CYOW;2009-07-26 15:30;CYOW 261530Z 05006KT 4SM BR FEW008 BKN016 20/ RERA RMK SF2SC6

CYOW;2009-07-26 16:00;CYOW 261600Z 07005KT 5SM BR FEW005 BKN020 22/20 A2976 RERA RMK SF2CU5 SLP080

CYOW;2009-07-26 17:00;CYOW 261700Z 08003KT 6SM BR FEW010 BKN030 BKN240 23/21 A2976 RMK SF1CU5CI1 SLP078

CYOW;2009-07-26 18:00;CYOW 261800Z 19006KT 10SM SCT030 BKN240 26/19 A2974 RMK CU3CI1 SLP072

CYOW;2009-07-26 19:00;CYOW 261900Z 19010KT 12SM BKN042 25/18 A2974 RMK CU5 SLP071

CYOW;2009-07-26 20:00;CYOW 262000Z 20007G17KT 15SM SCT040 BKN240 27/18 A2973 RMK CU3CI1 SLP067

CYOW;2009-07-26 21:00;CYOW 262100Z 22008G15KT 15SM SCT040 BKN240 26/18 A2974 RMK CU3CI1 SLP071

CYOW;2009-07-26 22:00;CYOW 262200Z 20007KT 15SM SCT040TCU OVC240 25/18 A2974 RMK TCU3CI1 CB NE SLP072

CYOW;2009-07-26 23:00;CYOW 262300Z 21006KT 15SM FEW040TCU SCT140 BKN250 24/17 A2975 RMK TCU1AC2CI2 CB DIST NE S SLP074

CYOW;2009-07-27 00:00;CYOW 270000Z 19002KT 15SM FEW045TCU FEW160 BKN250 23/17 A2976 RMK TCU1AC2CI2 CB DIST NE SE SLP076

CYOW;2009-07-27 01:00;CYOW 270100Z 13004KT 15SM SCT065 SCT160 BKN250 21/18 A2977 RMK SC3AC1CI2 TCU TPS NW SLP082

CYOW;2009-07-27 02:00;CYOW 270200Z 15005KT 15SM SCT065 BKN120 21/17 A2978 RMK SC4AC3 TCU TPS NW-N DIST LTNG SE SLP083

CYOW;2009-07-27 03:00;CYOW 270300Z 17004KT 15SM FEW065 BKN110 20/18 A2978 RMK SC2AC5 DIST LTNG N E SLP085

CYOW;2009-07-27 04:00;CYOW 270400Z 17005KT 15SM FEW095 BKN140 20/17 A2977 RMK AC1AC6 DIST LTNG E SLP081

CYOW;2009-07-27 05:00;CYOW 270500Z 18004KT 15SM FEW095 SCT140 19/17 A2977 RMK AC2AC2 DIST LTNG NE SLP082

CYOW;2009-07-27 06:00;CYOW 270600Z 17004KT 15SM FEW110 18/17 A2977 RMK AC1 SLP080

CYOW;2009-07-27 07:00;CYOW 270700Z 17004KT 15SM FEW110 17/16 A2978 RMK AC1 SLP083

CYOW;2009-07-27 08:00;CYOW 270800Z 19002KT 12SM FEW130 17/17 A2978 RMK AC2 SLP083

CYOW;2009-07-27 09:00;CYOW 270900Z 16003KT 10SM SCT110 BKN140 17/16 A2978 RMK AC3AC2 SLP085

CYOW;2009-07-27 10:00;CYOW 271000Z 15005KT 7SM SCT006 BKN150 17/16 A2979 RMK ST3AC4 SLP086

CYOW;2009-07-27 11:00;CYOW 271100Z 15005KT 7SM BKN072 17/17 A2980 RMK AC6 ACC ASOCTD SLP091

CYOW;2009-07-27 12:00;CYOW 271200Z 16006KT 7SM TS BKN025 BKN070 18/17 A2980 RMK SC5AC2 CB EMBD SLP091

CYOW;2009-07-27 12:16;CYOW 271216Z 18004KT 5SM -TSRA BR BKN022 OVC070 19/ RMK SC6AC2 CB EMBD

CYOW;2009-07-27 12:23;CYOW 271223Z 23006KT 1SM R07/6000FT/D +TSRA BR BKN015 OVC070 18/ RMK SC6AC2 CB EMBD LTGCG

CYOW;2009-07-27 12:28;CYOW 271228Z 28008KT 3/4SM R07/3500FT/D TSRA BR OVC010 18/ RERA RMK SC8 CB EMBD LTGCG

CYOW;2009-07-27 12:33;CYOW 271233Z 16006KT 4SM TSRA BR OVC020 18/ RERA RMK SC8 CB EMBD

CYOW;2009-07-27 12:53;CYOW 271253Z 15004KT 7SM FEW010 SCT020 OVC140 18/ RETSRA RMK SF2SC2AC4 CB E

CYOW;2009-07-27 13:00;CYOW 271300Z 16003KT 10SM FEW010 SCT030 BKN090 18/18 A2980 RETSRA RMK SF1SC2AC4 ACC ASOCTD SLP092

CYOW;2009-07-27 14:00;CYOW 271400Z 18004KT 12SM FEW008 BKN023 OVC090 20/19 A2979 RMK SF2SC5AC2 SLP088

CYOW;2009-07-27 15:00;CYOW 271500Z 27010KT 15SM SCT015 BKN080 21/18 A2979 RMK CU3AC2 SLP088

CYOW;2009-07-27 15:08;CYOW 271508Z 27009KT 15SM -SHRA SCT015 BKN080 21/ RMK CU4AC2

CYOW;2009-07-27 15:25;CYOW 271525Z 27007KT 15SM SCT020 BKN080 21/ RMK CU3AC2

CYOW;2009-07-27 16:00;CYOW 271600Z 26009KT 15SM BKN017 BKN080 21/18 A2980 RMK CU5AC2 SLP090

CYOW;2009-07-27 17:00;CYOW 271700Z 24010KT 15SM BKN027 BKN060 23/18 A2979 RMK CU5SC2 SH DIST NE OVR GATINEAU HILLS SLP087

CYOW;2009-07-27 18:00;CYOW 271800Z 24009KT 15SM BKN030TCU BKN080 24/18 A2979 RMK TCU5AC2 SH DIST N SLP086

CYOW;2009-07-27 18:27;CYOW 271827Z 25008KT 15SM -SHRA BKN030TCU 22/ RMK TCU6

CYOW;2009-07-27 18:44;CYOW 271844Z 29007KT 15SM BKN030TCU 22/ RMK TCU6 SH DIST E

CYOW;2009-07-27 19:00;CYOW 271900Z 27006KT 15SM BKN030 22/18 A2980 RMK CU5 SLP092

CYOW;2009-07-27 20:00;CYOW 272000Z 23007KT 15SM BKN033 25/18 A2980 RMK CU5 SLP092

CYOW;2009-07-27 21:00;CYOW 272100Z 24012G19KT 15SM SCT033 SCT070 25/15 A2980 RMK CU3AC1 TCU ASOCTD SLP092

CYOW;2009-07-27 22:00;CYOW 272200Z 23010G17KT 15SM FEW030 BKN060 24/16 A2981 RMK CU2SC5 TCU ASOCTD SLP095

CYOW;2009-07-27 23:00;CYOW 272300Z 22016G21KT 15SM FEW030 BKN072 23/17 A2982 RMK SC2AC5 TCU ASOCTD DIST SH SSW SLP097

CYOW;2009-07-28 00:00;CYOW 280000Z 23007KT 15SM FEW030 BKN073 21/17 A2983 RMK SC2AC2 SLP102

CYOW;2009-07-28 01:00;CYOW 280100Z 23008KT 15SM FEW030 SCT082 20/17 A2984 RMK SC1AC2 SLP106

CYOW;2009-07-28 02:00;CYOW 280200Z 23005KT 15SM FEW030 20/17 A2986 RMK SC1 SLP111

CYOW;2009-07-28 03:00;CYOW 280300Z 20004KT 15SM SKC 19/17 A2986 RMK SLP112

CYOW;2009-07-28 04:00;CYOW 280400Z 17003KT 15SM FEW030 18/17 A2986 RMK SC1 SLP113

CYOW;2009-07-28 05:00;CYOW 280500Z 18002KT 15SM FEW051 17/16 A2987 RMK SC1 SLP115

CYOW;2009-07-28 06:00;CYOW 280600Z 20002KT 15SM FEW048 17/16 A2987 RMK SC1 SLP116

CYOW;2009-07-28 07:00;CYOW 280700Z 19004KT 15SM SKC 17/16 A2987 RMK SLP116

CYOW;2009-07-28 08:00;CYOW 280800Z 20003KT 15SM FEW050 FEW210 17/16 A2987 RMK SC1CI0 SLP114

CYOW;2009-07-28 09:00;CYOW 280900Z 20002KT 15SM FEW048 17/16 A2986 RMK SC1 SLP113

CYOW;2009-07-28 10:00;CYOW 281000Z 20003KT 12SM FEW130 17/16 A2987 RMK AC2 SLP114

CYOW;2009-07-28 11:00;CYOW 281100Z 00000KT 5SM BR BKN110 17/17 A2987 RMK AC5 SLP114

CYOW;2009-07-28 12:00;CYOW 281200Z 21004KT 7SM FEW010 SCT093 SCT240 19/17 A2986 RMK CF1AC3CI0 TR CUFRA SLP112

CYOW;2009-07-28 13:00;CYOW 281300Z 19005KT 12SM BKN077 21/18 A2985 RMK AC6 SLP108

CYOW;2009-07-28 14:00;CYOW 281400Z 20006KT 12SM FEW020 FEW070 22/18 A2985 RMK CU1AC2 ACC ASOCTD SLP107

CYOW;2009-07-28 15:00;CYOW 281500Z 18007KT 15SM FEW020 FEW070 25/20 A2983 RMK CU2AC1 SLP102

CYOW;2009-07-28 16:00;CYOW 281600Z 20009KT 15SM FEW024 SCT240 26/20 A2983 RMK CU2CI1 SLP101

CYOW;2009-07-28 17:00;CYOW 281700Z 19011G17KT 15SM BKN033 BKN100 BKN240 27/19 A2981 RMK CU5AC2CI0 SLP095

CYOW;2009-07-28 18:00;CYOW 281800Z 20011G20KT 15SM SCT033 SCT100 BKN180 27/20 A2980 RMK CU3AC1AC2 SLP090

CYOW;2009-07-28 19:00;CYOW 281900Z 19011G18KT 15SM BKN040 BKN140 27/19 A2979 RMK CU5AC2 SLP086

CYOW;2009-07-28 20:00;CYOW 282000Z 19011G17KT 15SM BKN044 BKN240 27/19 A2977 RMK CU5CI1 SLP082

CYOW;2009-07-28 21:00;CYOW 282100Z 20009G15KT 15SM FEW044 BKN150 BKN180 26/19 A2978 RMK CU2AC3AC2 SLP084

CYOW;2009-07-28 22:00;CYOW 282200Z 20013KT 12SM FEW044 BKN140 BKN240 26/19 A2977 RMK CU2AC2CI1 SLP081

CYOW;2009-07-28 23:00;CYOW 282300Z 19007KT 15SM FEW050 BKN120 BKN160 OVC240 26/19 A2977 RMK CU1AC5AC2CI1 SLP080

CYOW;2009-07-29 00:00;CYOW 290000Z 18005KT 15SM FEW080 SCT130 BKN160 BKN240 25/19 A2976 RMK AC1AC3AC2CI2 SLP079

CYOW;2009-07-29 01:00;CYOW 290100Z 20006KT 15SM BKN150 BKN170 OVC240 24/19 A2977 RMK AC6AC2CI1 CB TOPS DIST NW SLP081

CYOW;2009-07-29 02:00;CYOW 290200Z 20008KT 15SM FEW080 SCT120 OVC160 24/18 A2977 RMK AC1AC4AC4 MOON VISBL SLP080

CYOW;2009-07-29 03:00;CYOW 290300Z 22010G15KT 15SM BKN096 OVC160 24/17 A2977 RMK AC6AC2 SLP082

CYOW;2009-07-29 04:00;CYOW 290400Z 23008KT 15SM FEW065 OVC100 23/17 A2977 RMK CU2AC6 SLP082

CYOW;2009-07-29 05:00;CYOW 290500Z 22007KT 15SM FEW063 FEW075 OVC240 22/17 A2977 RMK CU2AC1CI6 SLP081

CYOW;2009-07-29 06:00;CYOW 290600Z 22005KT 15SM OVC110 22/18 A2977 RMK AC8 SLP082

CYOW;2009-07-29 07:00;CYOW 290700Z 19004KT 15SM BKN110 OVC140 21/18 A2976 RMK AC6AC2 SLP079

CYOW;2009-07-29 08:00;CYOW 290800Z 19003KT 15SM FEW045 FEW100 BKN240 20/18 A2975 RMK SC1AC1CI2 SLP075

CYOW;2009-07-29 09:00;CYOW 290900Z 16004KT 12SM SCT120 BKN240 19/18 A2975 RMK AC3CI1 SLP074

CYOW;2009-07-29 10:00;CYOW 291000Z 19003KT 12SM SCT160 BKN210 19/18 A2976 RMK AC3CI2 SLP076

CYOW;2009-07-29 11:00;CYOW 291100Z 21005KT 12SM FEW120 SCT160 BKN210 20/19 A2977 RMK AC2AC2CI2 SLP081

CYOW;2009-07-29 12:00;CYOW 291200Z 19007KT 12SM FEW055 BKN110 BKN160 21/19 A2977 RMK SC1AC4AC2 SLP082

CYOW;2009-07-29 13:00;CYOW 291300Z 19007KT 12SM SCT050 BKN087 OVC110 22/19 A2977 RMK SC4AC1AC3 SLP081

CYOW;2009-07-29 14:00;CYOW 291400Z 18005KT 12SM SCT050 BKN070 OVC110 23/20 A2976 RMK SC4AC3AC1 SLP077

CYOW;2009-07-29 15:00;CYOW 291500Z 20006KT 12SM FEW050 BKN083 25/21 A2975 RMK SC2AC6 ACC ASOCTD SLP072

CYOW;2009-07-29 16:00;CYOW 291600Z 21007KT 12SM FEW026 OVC075 25/20 A2975 RMK CU1AC7 SLP073

CYOW;2009-07-29 16:45;CYOW 291645Z 22008KT 10SM -TSRA SCT029TCU SCT045 OVC070 25/ RMK TCU3SC1AC4 CB ASOCTD

CYOW;2009-07-29 17:00;CYOW 291700Z 22010KT 3SM +TSRA SCT030CB BKN045 OVC070 23/21 A2975 RMK CB3SC2AC3 CB ASOCTD SLP073

CYOW;2009-07-29 17:04;CYOW 291704Z 25011KT 3/4SM R07/P6000FT/D +TSRA BKN030CB OVC045 21/ RMK RA2CB4SC2

CYOW;2009-07-29 17:09;CYOW 291709Z 31021G28KT 1/2SM +TSRA OVC030CB 18/ RMK RA5CB3

CYOW;2009-07-29 17:12;CYOW 291712Z CCA 32017G28KT 7SM -TSRA BKN032CB OVC045 18/ RERA RMK CB5SC3 CB MOVG NE

CYOW;2009-07-29 17:36;CYOW 291736Z 30013KT 1 1/2SM +TSRA OVC030CB 19/ RMK RA2CB6 CB OVHD

CYOW;2009-07-29 17:39;CYOW 291739Z 30015KT 3/4SM R07/3000VP6000FT/D +TSRA OVC030CB 19/ RMK RA4CB4 CB OVHD MOVG NE

CYOW;2009-07-29 17:48;CYOW 291748Z CCA 26007G24KT 4SM -TSRA BKN028CB OVC040 19/ RERA RMK CB5SC3 CB MOVG NE LTGCG

CYOW;2009-07-29 18:00;CYOW 291800Z 33005KT 7SM -TSRA SCT030CB OVC045 19/19 A2974 RERA RMK CB4SC4 CB MOVG NE /R38/ SLP072

CYOW;2009-07-29 18:42;CYOW 291842Z CCA 31003KT 8SM -SHRA FEW018 SCT030TCU BKN070 OVC120 21/ RETSRA RMK CF1TCU3AC2AC2 CB ASOCTD NE

CYOW;2009-07-29 19:00;CYOW 291900Z 32003KT 10SM FEW032TCU SCT070 OVC120 22/20 A2973 RETSRA RMK TCU2AC2AC4 SLP069

CYOW;2009-07-29 19:28;CYOW 291928Z 30002KT 10SM -SHRA FEW070 OVC120 22/ RMK AC2AC6 ACC ASOCTD

CYOW;2009-07-29 19:48;CYOW 291948Z 30002KT 10SM FEW065 OVC120 22/ RMK SC2AC6

CYOW;2009-07-29 20:00;CYOW 292000Z 26002KT 10SM FEW065 BKN120 23/21 A2972 RMK SC2AC5 SLP065

CYOW;2009-07-29 21:00;CYOW 292100Z 21005KT 12SM FEW012 FEW060 OVC130 24/21 A2972 RMK CU1SC2AC6 SLP063

CYOW;2009-07-29 22:00;CYOW 292200Z 26006KT 15SM FEW020 FEW060 BKN120 OVC220 24/19 A2971 RMK CU1SC2AC5CI2 SLP061

CYOW;2009-07-29 23:00;CYOW 292300Z 28005KT 15SM FEW050 SCT065 OVC120 23/19 A2971 RMK CU1SC2AC5 SLP062

CYOW;2009-07-30 00:00;CYOW 300000Z 27002KT 15SM FEW035 SCT047 OVC078 23/19 A2972 RMK CU1SC4AC4 SLP064

CYOW;2009-07-30 01:00;CYOW 300100Z 24002KT 15SM FEW040 BKN078 OVC220 22/19 A2972 RMK SC1AC5CI3 SLP063

CYOW;2009-07-30 02:00;CYOW 300200Z 21003KT 15SM FEW020 BKN071 OVC220 22/19 A2972 RMK CU1AC4CI3 SLP065

CYOW;2009-07-30 03:00;CYOW 300300Z 25004KT 15SM OVC220 21/19 A2972 RMK CI6 SLP064

CYOW;2009-07-30 04:00;CYOW 300400Z 27004KT 15SM FEW020 FEW050 OVC240 20/19 A2972 RMK CF1SC1CI7 SLP063

CYOW;2009-07-30 05:00;CYOW 300500Z 25004KT 15SM OVC250 20/19 A2973 RMK CI8 SLP066

CYOW;2009-07-30 06:00;CYOW 300600Z 26005KT 15SM OVC250 19/18 A2972 RMK CI6 SLP066

CYOW;2009-07-30 07:00;CYOW 300700Z 28007KT 15SM FEW080 BKN250 18/16 A2973 RMK AC1CI3 SLP070

CYOW;2009-07-30 08:00;CYOW 300800Z 28009KT 15SM SKC 17/15 A2976 RMK SLP078

CYOW;2009-07-30 09:00;CYOW 300900Z 27006KT 15SM FEW180 16/14 A2977 RMK AC1 SLP080

CYOW;2009-07-30 10:00;CYOW 301000Z 25003KT 15SM FEW180 15/13 A2977 RMK AC1 SLP081

CYOW;2009-07-30 11:00;CYOW 301100Z 27006KT 15SM FEW180 16/14 A2979 RMK AC1 SLP089

CYOW;2009-07-30 12:00;CYOW 301200Z 30009KT 15SM FEW180 BKN220 17/14 A2979 RMK AC1CI1 SLP090

CYOW;2009-07-30 13:00;CYOW 301300Z 27008KT 15SM FEW160 FEW180 BKN220 18/14 A2981 RMK AC1AC2CI2 LO AC TR SLP094

CYOW;2009-07-30 14:00;CYOW 301400Z 24008KT 15SM FEW160 FEW180 BKN220 19/15 A2981 RMK AC1AC2CI2 LO AC TR SLP096

CYOW;2009-07-30 15:00;CYOW 301500Z 25008KT 15SM FEW050 SCT170 BKN200 20/15 A2983 RMK SC1AC3CI2 SC TR SLP101

CYOW;2009-07-30 16:00;CYOW 301600Z 24011KT 15SM FEW025 BKN110 BKN170 BKN200 22/16 A2984 RMK SC2AC2AC1CI1 HI AC TR SLP106

CYOW;2009-07-30 17:00;CYOW 301700Z 25005KT 15SM SCT025 BKN220 23/16 A2983 RMK CU3CI2 SLP103

CYOW;2009-07-30 18:00;CYOW 301800Z 25008KT 15SM BKN036 BKN220 23/16 A2983 RMK CU5CI2 SLP103

CYOW;2009-07-30 19:00;CYOW 301900Z 27006KT 15SM SCT040 BKN220 23/15 A2983 RMK CU4CI2 SLP103

CYOW;2009-07-30 20:00;CYOW 302000Z 27010KT 15SM SCT042 BKN055 24/15 A2984 RMK CU3SC2 SLP105

CYOW;2009-07-30 21:00;CYOW 302100Z 27008KT 15SM SCT045 BKN060 24/15 A2984 RMK CU3SC2 SLP106

CYOW;2009-07-30 22:00;CYOW 302200Z 24004KT 15SM FEW048 SCT070 BKN120 25/16 A2983 RMK CU2AC1AC2 SLP103

CYOW;2009-07-30 23:00;CYOW 302300Z 27004KT 15SM FEW048 FEW120 FEW250 24/16 A2983 RMK CU2AC1CI1 SLP102

CYOW;2009-07-31 00:00;CYOW 310000Z 22003KT 15SM FEW050 FEW120 BKN250 23/15 A2984 RMK CU1AC1CI1 SLP105

CYOW;2009-07-31 01:00;CYOW 310100Z 17003KT 15SM FEW080 BKN250 21/15 A2984 RMK AC1CI1 VIRGA SLP105

CYOW;2009-07-31 02:00;CYOW 310200Z 19004KT 15SM BKN250 20/15 A2985 RMK CI1 SLP108

CYOW;2009-07-31 03:00;CYOW 310300Z 20005KT 15SM BKN250 19/15 A2985 RMK CI2 SLP109

CYOW;2009-07-31 04:00;CYOW 310400Z 18003KT 15SM BKN160 OVC250 18/15 A2985 RMK AC5CI0 SLP108

CYOW;2009-07-31 05:00;CYOW 310500Z 18004KT 15SM BKN160 OVC240 18/15 A2985 RMK AC5CI2 SLP109

CYOW;2009-07-31 06:00;CYOW 310600Z 20002KT 15SM BKN080 BKN160 OVC240 18/15 A2985 RMK AC6AC1CI1 SLP107

CYOW;2009-07-31 07:00;CYOW 310700Z 18003KT 15SM FEW085 OVC100 18/15 A2984 RMK AC2AC6 SLP104

CYOW;2009-07-31 08:00;CYOW 310800Z 00000KT 15SM BKN064 OVC090 18/15 A2983 RMK SC5AC3 SLP101

CYOW;2009-07-31 09:00;CYOW 310900Z 27005KT 15SM OVC050 18/15 A2983 RMK SC8 SLP103

CYOW;2009-07-31 10:00;CYOW 311000Z 19003KT 15SM BKN050 OVC090 18/15 A2983 RMK SC6AC2 SLP101

CYOW;2009-07-31 11:00;CYOW 311100Z 17003KT 15SM SCT050 OVC065 18/16 A2984 RMK SC3SC5 SLP104

CYOW;2009-07-31 12:00;CYOW 311200Z 17002KT 15SM BKN050 OVC065 18/16 A2985 RMK SC6SC2 SLP109

CYOW;2009-07-31 13:00;CYOW 311300Z 18002KT 15SM BKN070 OVC090 19/16 A2985 RMK AC5AC3 SLP108

CYOW;2009-07-31 14:00;CYOW 311400Z 19004KT 15SM SCT024 OVC063 20/17 A2985 RMK CU3SC5 SLP108

CYOW;2009-07-31 15:00;CYOW 311500Z 26003KT 15SM FEW024 OVC240 21/17 A2984 RMK CU2CS4 HALO SLP104

CYOW;2009-07-31 16:00;CYOW 311600Z 00000KT 15SM FEW030 OVC240 22/18 A2983 RMK CU2CS4 HALO SLP103

CYOW;2009-07-31 17:00;CYOW 311700Z 24002KT 15SM SCT030 BKN240 23/18 A2983 RMK CU3CS1 HALO SLP101

CYOW;2009-07-31 18:00;CYOW 311800Z 28003KT 15SM FEW030 BKN240 24/17 A2982 RMK CU2CS3 HALO SLP098

CYOW;2009-07-31 19:00;CYOW 311900Z 00000KT 15SM FEW030 BKN240 24/16 A2982 RMK CU2CI2 CS ASOCTD SLP099

CYOW;2009-07-31 20:00;CYOW 312000Z 20004KT 15SM SCT040 BKN240 25/17 A2982 RMK CU3CI1 SLP100

CYOW;2009-07-31 21:00;CYOW 312100Z 16002KT 15SM SCT040 SCT240 25/16 A2982 RMK CU3CI1 TCU ASOCTD SLP098

CYOW;2009-07-31 22:00;CYOW 312200Z 29004KT 15SM SCT040 25/17 A2982 RMK CU3 SLP096

CYOW;2009-07-31 23:00;CYOW 312300Z CCA 21002KT 15SM FEW060TCU SCT078 SCT150 BKN250 25/17 A2982 RMK TCU2AC2AC1CI1 CB DIST N SLP099

CYOW;2009-08-01 01:00;CYOW 010100Z 15004KT 15SM FEW053TCU BKN072 BKN120 22/18 A2986 RMK TCU2AC4AC1 SLP113

CYOW;2009-08-01 01:35;CYOW 010135Z 18005KT 12SM -SHRA SCT048 BKN080 BKN120 21/ RMK SC3AC3AC1 CVCTV CLD EMBD

CYOW;2009-08-01 02:00;CYOW 010200Z 18003KT 15SM FEW050TCU OVC110 21/19 A2989 RMK TCU1AC7 SLP121

CYOW;2009-08-01 03:00;CYOW 010300Z 18003KT 15SM FEW080 FEW120 20/18 A2990 RMK ACC1AC2 LTGIC DIST NE SLP124

CYOW;2009-08-01 04:00;CYOW 010400Z 21003KT 15SM FEW120 20/18 A2992 RMK AC1 LTGIC DIST E SLP131

CYOW;2009-08-01 05:00;CYOW 010500Z 20005KT 15SM FEW120 18/17 A2992 RMK AC1 SLP132

CYOW;2009-08-01 06:00;CYOW 010600Z 21004KT 15SM FEW120 18/17 A2992 RMK AC1 SLP133

CYOW;2009-08-01 07:00;CYOW 010700Z 20004KT 15SM SKC 17/16 A2992 RMK SLP133

CYOW;2009-08-01 08:00;CYOW 010800Z 22004KT 15SM FEW120 17/16 A2994 RMK AC1 SLP137

CYOW;2009-08-01 09:00;CYOW 010900Z 23004KT 15SM FEW070 FEW120 16/15 A2995 RMK AC1AC1 ACC ASOCT SLP141

CYOW;2009-08-01 10:00;CYOW 011000Z 22003KT 15SM BCFG FEW010 FEW070 16/15 A2995 RMK SC1AC1 ACC ASOCT SLP143

CYOW;2009-08-01 10:14;CYOW 011014Z 18003KT 5SM BR BKN002 16/ RMK ST2 THIN STRATUS

CYOW;2009-08-01 10:44;CYOW 011044Z 20002KT 5SM BR FEW003 16/ RMK ST2 STRATUS EAST

CYOW;2009-08-01 11:00;CYOW 011100Z 23002KT 6SM BR SCT003 SCT070 16/15 A2998 RMK ST3ACC1 ST EAST ACC NORTH SLP152

CYOW;2009-08-01 12:00;CYOW 011200Z 25003KT 15SM FEW070 18/16 A2999 RMK ACC1 ACC NE SLP155

CYOW;2009-08-01 13:00;CYOW 011300Z 24003KT 15SM FEW010 FEW070 20/17 A3000 RMK CF1AC1 TR CUFRA SLP159

CYOW;2009-08-01 14:00;CYOW 011400Z 23005KT 15SM FEW020 FEW070 22/17 A3001 RMK CU1AC2 SLP161

CYOW;2009-08-01 15:00;CYOW 011500Z 22004KT 15SM FEW020 FEW070 SCT240 23/18 A3002 RMK CU2AC1CI1 TR AC SLP165

CYOW;2009-08-01 16:00;CYOW 011600Z 23007KT 15SM SCT030 BKN240 25/16 A3001 RMK CU3CI0 SLP163

CYOW;2009-08-01 17:00;CYOW 011700Z 20005KT 15SM SCT040 BKN240 25/15 A3000 RMK CU3CI0 SLP158

CYOW;2009-08-01 18:00;CYOW 011800Z 22007KT 15SM FEW050 BKN240 26/15 A2999 RMK CU2CI1 SLP155

CYOW;2009-08-01 19:00;CYOW 011900Z 22007KT 15SM SCT050 SCT240 26/15 A2997 RMK CU3CI0 SLP150

CYOW;2009-08-01 20:00;CYOW 012000Z 21006G15KT 15SM SCT062 BKN240 27/14 A2996 RMK CU3CI1 SLP144

CYOW;2009-08-01 21:00;CYOW 012100Z 21007KT 15SM FEW058 BKN240 26/15 A2996 RMK CU2CI2 SLP144

CYOW;2009-08-01 22:00;CYOW 012200Z 18008KT 15SM FEW060 SCT240 26/16 A2995 RMK CU2CI1 SLP141

CYOW;2009-08-01 23:00;CYOW 012300Z 18007KT 15SM FEW065 SCT240 25/15 A2995 RMK CU1CI2 CU TR SLP141

CYOW;2009-08-02 00:00;CYOW 020000Z 19005KT 15SM FEW065 FEW180 BKN240 23/15 A2996 RMK CU1AC1CI2 SLP144

CYOW;2009-08-02 01:00;CYOW 020100Z 18004KT 15SM FEW180 BKN240 21/14 A2996 RMK AC1CI2 SLP144

CYOW;2009-08-02 02:00;CYOW 020200Z 17004KT 15SM BKN240 19/13 A2995 RMK CI3 SLP142

CYOW;2009-08-02 03:00;CYOW 020300Z 16005KT 15SM BKN240 19/13 A2993 RMK CI3 SLP136

CYOW;2009-08-02 04:00;CYOW 020400Z 14004KT 15SM BKN240 18/14 A2991 RMK CI3 SLP130

CYOW;2009-08-02 05:00;CYOW 020500Z 15004KT 15SM FEW080 BKN240 19/14 A2991 RMK AC2CI4 SLP127

CYOW;2009-08-02 06:00;CYOW 020600Z 13005KT 15SM BKN070 OVC240 19/14 A2988 RMK AC5CI3 ACC ASOCTD SLP118

CYOW;2009-08-02 07:00;CYOW 020700Z 15004KT 15SM BKN077 OVC230 18/15 A2986 RMK AC6CI1 ACC ASOCTD SLP112

CYOW;2009-08-02 08:00;CYOW 020800Z 15004KT 15SM BKN075 OVC190 18/15 A2984 RMK AC6AC2 SLP104

CYOW;2009-08-02 09:00;CYOW 020900Z 15004KT 15SM FEW080 OVC180 18/16 A2982 RMK AC2AC6 SLP098

CYOW;2009-08-02 09:51;CYOW 020951Z 27007KT 15SM -SHRA FEW060 SCT090 OVC170 19/ RMK SC2AC2AC4 ACC ASOCTD

CYOW;2009-08-02 10:00;CYOW 021000Z 35003KT 15SM FEW060 SCT090 OVC170 19/16 A2985 RMK SC2AC2AC4 OCNL -SHRA ACC ASOCTD SLP107

CYOW;2009-08-02 11:00;CYOW 021100Z 12005KT 10SM -SHRA BKN050 OVC120 19/17 A2982 RMK SC5AC3 SLP099

CYOW;2009-08-02 12:00;CYOW 021200Z 16003KT 3SM RA BR OVC050 18/17 A2983 RMK SC8 SLP101

CYOW;2009-08-02 12:10;CYOW 021210Z 16003KT 2SM RA BR OVC020 18/ RMK SC8

CYOW;2009-08-02 12:41;CYOW 021241Z 15004KT 3SM -RA BR SCT010 OVC086 18/ RERA RMK SF3AC5

CYOW;2009-08-02 13:00;CYOW 021300Z 17004KT 3SM -RA BR BKN006 OVC050 18/18 A2982 RERA RMK SF6SC2 SLP099

CYOW;2009-08-02 13:17;CYOW 021317Z 18006KT 2SM -RA BR OVC004 19/ RMK SF8

CYOW;2009-08-02 13:48;CYOW 021348Z 18006KT 3SM BR OVC005 20/ RMK SF8

CYOW;2009-08-02 14:00;CYOW 021400Z 18006KT 3SM BR OVC005 20/19 A2980 RMK SF8 SLP092

CYOW;2009-08-02 15:00;CYOW 021500Z 20005KT 3SM -RA BR OVC006 20/19 A2980 RMK SF8 SLP093

CYOW;2009-08-02 15:26;CYOW 021526Z 20007KT 2SM -RA BR OVC005 20/ RMK SF8

CYOW;2009-08-02 15:48;CYOW 021548Z 20006KT 3SM -RA BR SCT005 OVC083 20/ RMK SF3AC5

CYOW;2009-08-02 16:00;CYOW 021600Z 18005KT 3SM -RA BR SCT005 OVC082 20/19 A2979 RMK SF3AC5 SLP090

CYOW;2009-08-02 17:00;CYOW 021700Z 19005KT 3SM -RA BR SCT006 OVC080 20/20 A2977 RMK SF4AC4 SLP083

CYOW;2009-08-02 17:28;CYOW 021728Z 18006KT 4SM BR SCT007 OVC070 21/ RMK SF4AC4

CYOW;2009-08-02 18:00;CYOW 021800Z 18008KT 10SM FEW010 BKN130 BKN240 22/19 A2975 RMK CF2AC2CI1 SLP075

CYOW;2009-08-02 19:00;CYOW 021900Z 18008KT 12SM FEW020 BKN100 23/18 A2974 RMK CU2AC4 SLP070

CYOW;2009-08-02 20:00;CYOW 022000Z 20005KT 12SM -TSRA BKN030CB BKN090 23/18 A2973 RMK CB5AC2 SLP068

CYOW;2009-08-02 20:55;CYOW 022055Z 19006KT 12SM FEW030 BKN100 20/ RETSRA RMK CU2AC4 CB SOUTHEAST

CYOW;2009-08-02 21:00;CYOW 022100Z 19008KT 12SM FEW010 SCT030 BKN080 BKN240 21/19 A2973 RETSRA RMK CF1CU2AC2CI0 SLP067

CYOW;2009-08-02 22:00;CYOW 022200Z 20008KT 15SM FEW040 21/17 A2974 RMK CU2 SLP071

CYOW;2009-08-02 23:00;CYOW 022300Z 20007KT 15SM FEW050TCU SCT075 BKN095 21/18 A2975 RMK TCU2AC2AC2 SLP073

CYOW;2009-08-02 23:31;CYOW 022331Z 19005KT 15SM -SHRA FEW055TCU SCT080 BKN100 20/ RMK TCU2AC2AC2

CYOW;2009-08-03 00:00;CYOW 030000Z CCA 17003KT 15SM FEW055TCU BKN072 BKN100 20/19 A2976 RERA RMK TCU2AC3AC1 SH DIST E SLP080

CYOW;2009-08-03 01:00;CYOW 030100Z 21005KT 15SM FEW065 SCT090 20/18 A2978 RMK SC2AC2 TCU TPS DIST NE SLP086

CYOW;2009-08-03 02:00;CYOW 030200Z 25007KT 15SM FEW090 19/16 A2981 RMK AC2 SLP096

CYOW;2009-08-03 03:00;CYOW 030300Z 26006KT 15SM FEW090 17/11 A2983 RMK AC1 SLP103

CYOW;2009-08-03 04:00;CYOW 030400Z 26006KT 15SM SKC 16/11 A2986 RMK SLP112

CYOW;2009-08-03 05:00;CYOW 030500Z 28005KT 15SM SKC 14/10 A2988 RMK SLP120

CYOW;2009-08-03 06:00;CYOW 030600Z 26004KT 15SM SKC 14/10 A2989 RMK SLP123

CYOW;2009-08-03 07:00;CYOW 030700Z 24002KT 15SM SKC 14/10 A2989 RMK SLP124

CYOW;2009-08-03 08:00;CYOW 030800Z 23006KT 15SM SKC 13/10 A2991 RMK SLP128

CYOW;2009-08-03 09:00;CYOW 030900Z 22006KT 15SM SKC 12/10 A2991 RMK SLP131

CYOW;2009-08-03 10:00;CYOW 031000Z 22005KT 15SM FEW240 12/10 A2993 RMK CI1 SLP137

CYOW;2009-08-03 11:00;CYOW 031100Z 21004KT 20SM FEW240 12/11 A2995 RMK CI1 SLP143

CYOW;2009-08-03 12:00;CYOW 031200Z 23003KT 15SM SCT240 15/12 A2997 RMK CI2 SLP149

CYOW;2009-08-03 13:00;CYOW 031300Z 24003KT 15SM SCT240 17/13 A2997 RMK CI1 SLP151

CYOW;2009-08-03 14:00;CYOW 031400Z 21006KT 15SM SCT240 19/13 A2997 RMK CI1 SLP151

CYOW;2009-08-03 15:00;CYOW 031500Z 21007KT 15SM FEW020 SCT240 22/14 A2998 RMK CF1CI1 TR CUFRA SLP152

CYOW;2009-08-03 16:00;CYOW 031600Z 21008KT 15SM FEW030 SCT240 22/13 A2998 RMK CU2CI1 SLP152

CYOW;2009-08-03 17:00;CYOW 031700Z 24007G16KT 15SM SCT050 SCT240 23/13 A2996 RMK CU3CI1 SLP146

CYOW;2009-08-03 18:00;CYOW 031800Z 23007KT 15SM FEW053 FEW180 BKN240 24/13 A2995 RMK CU2AC1CI1 SLP142

CYOW;2009-08-03 19:00;CYOW 031900Z 17008KT 15SM FEW053 BKN130 BKN240 24/13 A2993 RMK CU2AC4CI1 SLP137

CYOW;2009-08-03 20:00;CYOW 032000Z 20010G15KT 15SM FEW054 FEW110 SCT140 BKN250 24/14 A2993 RMK CU1AC2AC1CI1 SLP136

CYOW;2009-08-03 21:00;CYOW 032100Z 18009KT 15SM FEW045 SCT140 BKN180 BKN250 24/14 A2992 RMK CU1AC3AC2CI0 SLP134

CYOW;2009-08-03 22:00;CYOW 032200Z 18007KT 15SM FEW050 FEW110 BKN160 BKN180 23/14 A2991 RMK SC1AC2AC5AC1 SLP129

CYOW;2009-08-03 23:00;CYOW 032300Z 18004KT 15SM FEW050 OVC110 22/14 A2991 RMK SC2AC6 SLP131

CYOW;2009-08-03 23:33;CYOW 032333Z 20005KT 15SM -SHRA SCT080 OVC110 22/ RMK AC3AC5

CYOW;2009-08-04 00:00;CYOW 040000Z 19004KT 15SM -SHRA SCT080 OVC110 21/13 A2993 RMK AC4AC4 ACC ASOCTD SLP137

CYOW;2009-08-04 01:00;CYOW 040100Z 16003KT 15SM -SHRA BKN080 OVC110 20/14 A2993 RMK AC7AC1 ACC EMBD SLP137

CYOW;2009-08-04 02:00;CYOW 040200Z 14003KT 15SM -SHRA OVC086 19/15 A2993 RMK AC8 ACC EMBD SLP136

CYOW;2009-08-04 02:18;CYOW 040218Z 14005KT 15SM OVC094 18/ RMK AC8 ACC EMBD

CYOW;2009-08-04 03:00;CYOW 040300Z 13004KT 15SM OVC100 18/14 A2991 RMK AC8 SLP130

CYOW;2009-08-04 04:00;CYOW 040400Z 14005KT 15SM BKN100 18/14 A2991 RMK AC7 SLP128

CYOW;2009-08-04 05:00;CYOW 040500Z 15006KT 15SM FEW065 OVC100 18/14 A2990 RMK SC2AC6 SLP126

CYOW;2009-08-04 06:00;CYOW 040600Z 16003KT 15SM BKN065 OVC086 18/15 A2989 RMK SC5AC3 SLP122

CYOW;2009-08-04 07:00;CYOW 040700Z 17006KT 15SM BKN065 OVC091 18/15 A2988 RMK SC7AC1 SLP117

CYOW;2009-08-04 08:00;CYOW 040800Z 17005KT 15SM BKN062 OVC100 19/15 A2986 RMK SC6AC2 SLP112

CYOW;2009-08-04 09:00;CYOW 040900Z 18005KT 15SM SCT065 OVC120 19/16 A2985 RMK SC3AC5 SLP110

CYOW;2009-08-04 10:00;CYOW 041000Z 18004KT 15SM FEW075 BKN130 19/16 A2985 RMK ACC2AC6 SLP109

CYOW;2009-08-04 11:00;CYOW 041100Z 17003KT 15SM FEW075 BKN100 19/17 A2985 RMK ACC1AC6 SLP110

CYOW;2009-08-04 11:37;CYOW 041137Z 18005KT 15SM -RA BKN064 BKN100 20/ RMK SC5AC2

CYOW;2009-08-04 12:00;CYOW 041200Z 18006KT 15SM -RA SCT060 BKN095 20/17 A2986 RMK SC3AC4 SLP111

CYOW;2009-08-04 12:24;CYOW 041224Z 18005KT 15SM FEW060 BKN120 20/ RMK SC2AC6

CYOW;2009-08-04 13:00;CYOW 041300Z 19010KT 15SM SCT070 21/18 A2985 RMK AC3 SLP108

CYOW;2009-08-04 14:00;CYOW 041400Z 20012KT 15SM FEW100 24/19 A2982 RMK AC2 SLP098

CYOW;2009-08-04 15:00;CYOW 041500Z 21010KT 15SM FEW030 SCT140 25/19 A2980 RMK CU1AC2 SLP092

CYOW;2009-08-04 16:00;CYOW 041600Z 20013KT 15SM FEW030 BKN140 26/20 A2979 RMK CU2AC2 SLP086

CYOW;2009-08-04 17:00;CYOW 041700Z 20011G17KT 15SM FEW030 BKN140 27/20 A2976 RMK CU2AC2 SLP078

CYOW;2009-08-04 18:00;CYOW 041800Z 20015G24KT 15SM FEW030 BKN140 27/20 A2974 RMK CU2AC2 SLP072

CYOW;2009-08-04 19:00;CYOW 041900Z 20014G22KT 15SM BKN040 BKN100 27/20 A2973 RMK SC5AC1 CU ASOCT SLP067

CYOW;2009-08-04 20:00;CYOW 042000Z 22013G21KT 10SM SCT043 OVC120 26/18 A2973 RMK SC4AC4 CU ASOCT SLP067

CYOW;2009-08-04 20:34;CYOW 042034Z 22010G16KT 10SM TS BKN049 OVC120 25/ RMK SC6AC2 CB ASOCT W QUAD

CYOW;2009-08-04 20:54;CYOW 042054Z 21010KT 10SM -TSRA BKN044 OVC120 24/ RMK SC6AC2 CB ASOCT

CYOW;2009-08-04 21:00;CYOW 042100Z 21010KT 10SM -TSRA BKN044 OVC120 24/19 A2973 RMK SC6AC2 CB ASOCT SLP068

CYOW;2009-08-04 21:20;CYOW 042120Z 27018KT 3SM -TSRA BR FEW013 BKN025 OVC060 22/ RMK SF1SC6SC1 CB ASOCT LTGCG

CYOW;2009-08-04 21:28;CYOW 042128Z 26022G27KT 1SM TSRA BR OVC046 19/ RMK RA1SC7 CB EMBD LTGCG

CYOW;2009-08-04 21:46;CYOW 042146Z 21008KT 2 1/2SM -TSRA BR OVC045 18/ RERA RMK SC8 CB EMBD LTGCG

CYOW;2009-08-04 22:00;CYOW 042200Z 23012KT 2 1/2SM -TSRA BR OVC040 18/17 A2977 RERA RMK SC8 CB EMBD LTGCG VSB E 11/2 SLP080

CYOW;2009-08-04 22:12;CYOW 042212Z 24007KT 8SM -TSRA BKN056 OVC100 18/ RMK SC6AC2 CB EMBD LTGCG

CYOW;2009-08-04 23:00;CYOW 042300Z 22005KT 15SM -TSRA FEW020 FEW040 BKN050 OVC110 18/17 A2973 RMK SC1SC2SC3AC3 CB EMBD LTGIC E-SE /R17/ SLP067

CYOW;2009-08-05 00:00;CYOW 050000Z 21005KT 15SM -RA FEW022TCU BKN080 BKN120 19/18 A2973 RETS RMK TCU2AC3AC2 /R20/ SLP067

CYOW;2009-08-05 01:00;CYOW 050100Z 18005KT 10SM -RA SCT090 BKN140 19/18 A2972 RMK AC4AC3 VRY LGT RA SLP063

CYOW;2009-08-05 01:17;CYOW 050117Z 21005KT 12SM FEW084 BKN120 19/ RMK AC2AC5

CYOW;2009-08-05 02:00;CYOW 050200Z 22004KT 12SM FEW100 BKN140 19/18 A2973 RMK AC2AC6 SLP066

CYOW;2009-08-05 03:00;CYOW 050300Z 22003KT 12SM FEW020 FEW060 SCT090 19/18 A2973 RMK SC1SC1AC3 SLP068

CYOW;2009-08-05 04:00;CYOW 050400Z 22007KT 12SM FEW130 19/18 A2973 RMK AC1 SLP069

CYOW;2009-08-05 05:00;CYOW 050500Z 25008KT 12SM FEW010 FEW120 18/17 A2974 RMK SC1AC2 SLP071

CYOW;2009-08-05 06:00;CYOW 050600Z 25009KT 15SM FEW120 17/14 A2976 RMK AC2 SLP076

CYOW;2009-08-05 07:00;CYOW 050700Z 27006KT 15SM SKC 16/13 A2976 RMK SLP079

CYOW;2009-08-05 08:00;CYOW 050800Z 28005KT 15SM SKC 15/13 A2979 RMK SLP087

CYOW;2009-08-05 09:00;CYOW 050900Z 26006KT 15SM SKC 14/13 A2981 RMK SLP094

CYOW;2009-08-05 10:00;CYOW 051000Z 26005KT 15SM FEW060 14/13 A2984 RMK SC1 SLP104

CYOW;2009-08-05 11:00;CYOW 051100Z 26005KT 15SM FEW060 14/13 A2986 RMK SC1 SLP112

CYOW;2009-08-05 12:00;CYOW 051200Z 28007KT 15SM FEW060 16/14 A2987 RMK SC1 SLP117

CYOW;2009-08-05 13:00;CYOW 051300Z 29008KT 15SM FEW060 FEW180 17/14 A2988 RMK SC1AC1 SLP121

CYOW;2009-08-05 14:00;CYOW 051400Z 26009KT 15SM FEW060 FEW180 19/15 A2990 RMK CU2AC1 SLP127

CYOW;2009-08-05 15:00;CYOW 051500Z 29009KT 15SM SCT030 SCT180 20/14 A2992 RMK CU3AC1 SLP131

CYOW;2009-08-05 16:00;CYOW 051600Z 28009KT 15SM BKN041 21/14 A2991 RMK CU5 SLP130

CYOW;2009-08-05 17:00;CYOW 051700Z 26008KT 15SM SCT040 22/13 A2990 RMK CU3 SLP126

CYOW;2009-08-05 18:00;CYOW 051800Z 28012KT 15SM BKN050 22/13 A2990 RMK CU5 SLP125

CYOW;2009-08-05 19:00;CYOW 051900Z 27009KT 15SM BKN052 23/13 A2990 RMK CU5 SLP126

CYOW;2009-08-05 20:00;CYOW 052000Z 28012KT 15SM FEW050 23/12 A2990 RMK CU2 SLP125

CYOW;2009-08-05 21:00;CYOW 052100Z 26010KT 15SM FEW050 23/12 A2990 RMK CU1 SLP125

CYOW;2009-08-05 22:00;CYOW 052200Z 27008KT 15SM FEW050 FEW055 23/12 A2991 RMK CU1SC1 SLP127

CYOW;2009-08-05 23:00;CYOW 052300Z 27008KT 15SM FEW055 FEW080 22/13 A2991 RMK SC1AC2 SC TR SLP128

CYOW;2009-08-06 00:00;CYOW 060000Z 28007KT 15SM FEW060 FEW090 20/12 A2991 RMK SC1AC1 SC TR SLP130

CYOW;2009-08-06 01:00;CYOW 060100Z 27006KT 15SM FEW070 FEW090 19/12 A2992 RMK AC1AC1 SLP132

CYOW;2009-08-06 02:00;CYOW 060200Z 25004KT 15SM FEW090 18/12 A2992 RMK AC1 SLP134

CYOW;2009-08-06 03:00;CYOW 060300Z 22004KT 15SM FEW100 18/12 A2993 RMK AC2 SLP135

CYOW;2009-08-06 04:00;CYOW 060400Z 25004KT 15SM BKN070 17/13 A2993 RMK AC7 SLP137

CYOW;2009-08-06 05:00;CYOW 060500Z 23004KT 15SM BKN063 17/13 A2994 RMK SC7 SLP138

CYOW;2009-08-06 06:00;CYOW 060600Z 25004KT 15SM FEW065 BKN081 16/13 A2993 RMK SC1AC6 SLP134

CYOW;2009-08-06 07:00;CYOW 060700Z 24005KT 15SM FEW050 BKN081 16/13 A2992 RMK SC1AC6 SLP133

CYOW;2009-08-06 08:00;CYOW 060800Z 28003KT 15SM FEW050 FEW060 SCT080 15/12 A2991 RMK SC1SC1AC3 SLP128

CYOW;2009-08-06 09:00;CYOW 060900Z 21005KT 15SM FEW080 FEW200 14/12 A2991 RMK AC1CI2 SLP129

CYOW;2009-08-06 10:00;CYOW 061000Z 22005KT 15SM FEW090 FEW200 FEW240 14/12 A2991 RMK AC1CC1CI1 SLP131

CYOW;2009-08-06 11:00;CYOW 061100Z 24004KT 15SM FEW050 SCT090 SCT260 14/12 A2993 RMK CU2AC2CI1 SLP135

CYOW;2009-08-06 12:00;CYOW 061200Z 26006KT 15SM FEW050 FEW090 FEW140 SCT220 SCT260 15/13 A2993 RMK CU1AC1AC1CI1CI0 CU LO AC TR SLP136

CYOW;2009-08-06 13:00;CYOW 061300Z 29007KT 15SM BKN048 BKN170 17/14 A2993 RMK SC5AC2 CU ASOCT SLP137

CYOW;2009-08-06 14:00;CYOW 061400Z 27007KT 15SM BKN045 17/14 A2994 RMK SC7 CU ASOCT SLP140

CYOW;2009-08-06 15:00;CYOW 061500Z 28007KT 15SM SCT045 BKN140 19/15 A2995 RMK SC4AC2 CU ASOCT SLP142

CYOW;2009-08-06 16:00;CYOW 061600Z 27007KT 15SM SCT045 BKN140 19/14 A2994 RMK CU3AC3 SLP139

CYOW;2009-08-06 16:36;CYOW 061636Z 26008KT 15SM -SHRA BKN051 BKN100 20/ RMK SC5AC2 CU ASOCT

CYOW;2009-08-06 16:50;CYOW 061650Z 27007KT 15SM SCT050 BKN095 19/ RMK CU4AC2

CYOW;2009-08-06 17:00;CYOW 061700Z 26008KT 15SM SCT050 BKN095 20/14 A2993 RMK CU4AC2 TCU ASOCT SLP136

CYOW;2009-08-06 18:00;CYOW 061800Z 29007KT 15SM SCT040 BKN095 22/14 A2992 RMK CU4AC2 TCU ASOCT SLP131

CYOW;2009-08-06 19:00;CYOW 061900Z 30012KT 15SM BKN053 BKN100 21/14 A2991 RMK CU5AC2 TCU ASOCT SLP129

CYOW;2009-08-06 20:00;CYOW 062000Z 28007KT 15SM SCT050 SCT100 22/13 A2991 RMK CU3AC1 TCU ASOCT SLP128

CYOW;2009-08-06 21:00;CYOW 062100Z 34007KT 15SM FEW050TCU FEW051 FEW100 22/13 A2991 RMK TCU1CU1AC2 TCU E SLP131

CYOW;2009-08-06 22:00;CYOW 062200Z 31008KT 15SM FEW050TCU FEW051 FEW100 22/11 A2991 RMK TCU1CU1AC2 LO CLDS TR TCU E SLP131

CYOW;2009-08-06 23:00;CYOW 062300Z 26006KT 15SM FEW055TCU FEW120 21/13 A2992 RMK TCU1AC1 CB ASOCT SLP133

CYOW;2009-08-07 00:00;CYOW 070000Z 24005KT 15SM FEW040 FEW055TCU FEW120 19/14 A2992 RMK SC1TCU1AC1 SC TR CB ASOCT SLP134

CYOW;2009-08-07 01:00;CYOW 070100Z 24006KT 15SM FEW055TCU FEW094 SCT120 SCT240 18/13 A2994 RMK TCU1AC1AC3CI1 SLP139

CYOW;2009-08-07 02:00;CYOW 070200Z 22004KT 15SM FEW120 SCT190 17/13 A2995 RMK AC1AC2 SLP144

CYOW;2009-08-07 03:00;CYOW 070300Z 31017KT 12SM -RA FEW030 OVC076 16/13 A2998 RMK SC1AC7 SLP152

CYOW;2009-08-07 03:46;CYOW 070346Z 30006KT 15SM BKN088 14/ RMK AC6

CYOW;2009-08-07 04:00;CYOW 070400Z 30005KT 15SM BKN100 15/13 A2997 RMK AC6 SLP151

CYOW;2009-08-07 05:00;CYOW 070500Z 27003KT 15SM FEW060 FEW100 14/13 A2996 RMK SC1AC2 SLP145

CYOW;2009-08-07 06:00;CYOW 070600Z 27006KT 15SM FEW010 FEW060 SCT100 13/12 A2996 RMK SC1SC1AC2 SLP146

CYOW;2009-08-07 07:00;CYOW 070700Z 28007KT 12SM FEW010 BKN072 14/13 A2996 RMK SC1AC6 SLP147

CYOW;2009-08-07 08:00;CYOW 070800Z 27005KT 15SM FEW010 FEW070 SCT110 BKN120 14/13 A2997 RMK SC1AC1AC3AC2 SLP151

CYOW;2009-08-07 09:00;CYOW 070900Z 29005KT 15SM FEW010 FEW110 13/12 A2999 RMK SC1AC2 SLP157

CYOW;2009-08-07 10:00;CYOW 071000Z 31006KT 15SM FEW006 FEW011 FEW110 12/11 A3001 RMK CF1SC1AC2 SLP164

CYOW;2009-08-07 11:00;CYOW 071100Z 31007KT 15SM FEW006 FEW011 FEW110 13/12 A3004 RMK SF1SC1AC2 SLP172

CYOW;2009-08-07 12:00;CYOW 071200Z 32011KT 15SM BKN018 13/11 A3006 RMK SC7 SLP182

CYOW;2009-08-07 13:00;CYOW 071300Z 32010G16KT 15SM FEW020 BKN025 14/11 A3008 RMK CU1SC6 SLP187

CYOW;2009-08-07 14:00;CYOW 071400Z 33011G16KT 15SM BKN031 16/11 A3009 RMK CU6 SLP192

CYOW;2009-08-07 15:00;CYOW 071500Z 33013KT 15SM BKN030 17/11 A3009 RMK CU6 SLP191

CYOW;2009-08-07 16:00;CYOW 071600Z 32010G16KT 15SM SCT040 18/11 A3009 RMK CU3 SLP191

CYOW;2009-08-07 17:00;CYOW 071700Z 34007G15KT 15SM FEW040 20/10 A3008 RMK CU2 SLP188

CYOW;2009-08-07 18:00;CYOW 071800Z 33009G15KT 15SM FEW040 19/09 A3008 RMK CU1 SLP188

CYOW;2009-08-07 19:00;CYOW 071900Z 33011G16KT 15SM FEW040 20/08 A3009 RMK SC1 SLP190

CYOW;2009-08-07 20:00;CYOW 072000Z 29008G15KT 15SM FEW050 FEW051 21/08 A3008 RMK SC1CU1 SLP187

CYOW;2009-08-07 21:00;CYOW 072100Z 33007KT 15SM SCT050 20/08 A3010 RMK CU3 SLP194

CYOW;2009-08-07 22:00;CYOW 072200Z 30006KT 15SM FEW050 20/07 A3011 RMK CU2 SLP197

CYOW;2009-08-07 23:00;CYOW 072300Z 34008KT 15SM FEW065 SCT240 19/07 A3013 RMK SC2CI1 SLP203

CYOW;2009-08-08 00:00;CYOW 080000Z 32006KT 15SM FEW070 FEW240 17/06 A3014 RMK AC2CI1 SLP207

CYOW;2009-08-08 01:00;CYOW 080100Z 32003KT 15SM FEW073 17/06 A3015 RMK AC1 SLP210

CYOW;2009-08-08 02:00;CYOW 080200Z 27002KT 15SM FEW070 16/07 A3016 RMK AC1 SLP215

CYOW;2009-08-08 03:00;CYOW 080300Z 26002KT 15SM SKC 15/08 A3017 RMK SLP218

CYOW;2009-08-08 04:00;CYOW 080400Z 23002KT 15SM SKC 13/09 A3018 RMK SLP221

CYOW;2009-08-08 05:00;CYOW 080500Z 22003KT 15SM SKC 13/10 A3019 RMK SLP223

CYOW;2009-08-08 06:00;CYOW 080600Z 23002KT 15SM SKC 12/10 A3019 RMK SLP226

CYOW;2009-08-08 07:00;CYOW 080700Z 30003KT 15SM SKC 11/10 A3021 RMK SLP230

CYOW;2009-08-08 08:00;CYOW 080800Z 00000KT 15SM SKC 12/09 A3020 RMK SLP229

CYOW;2009-08-08 09:00;CYOW 080900Z 00000KT 15SM MIFG SKC 10/09 A3022 RMK SLP234

CYOW;2009-08-08 09:54;CYOW 080954Z 22004KT 15SM R07/3000VP6000FT/D BCFG FEW003 10/ RMK SC1

CYOW;2009-08-08 10:00;CYOW 081000Z 23004KT 15SM R07/3000VP6000FT/U MIFG FEW003 10/09 A3022 RMK SC1 SLP234

CYOW;2009-08-08 11:00;CYOW 081100Z 00000KT 15SM FEW010 FEW240 11/09 A3022 RMK ST1CI1 CLDS TR SLP235

CYOW;2009-08-08 12:00;CYOW 081200Z 24002KT 15SM FEW080 FEW240 13/12 A3025 RMK AC1CI1 SLP247

CYOW;2009-08-08 13:00;CYOW 081300Z 00000KT 15SM SCT240 16/11 A3026 RMK CI0 SLP248

CYOW;2009-08-08 14:00;CYOW 081400Z 00000KT 15SM SCT240 18/10 A3024 RMK CI1 SLP243

CYOW;2009-08-08 15:00;CYOW 081500Z 19004KT 15SM FEW030 BKN240 20/08 A3022 RMK CU1CI1 SLP236

CYOW;2009-08-08 16:00;CYOW 081600Z 28004KT 15SM FEW030 BKN240 20/08 A3022 RMK CU2CI2 SLP236

CYOW;2009-08-08 17:00;CYOW 081700Z 20007KT 15SM SCT040 BKN060 BKN240 21/09 A3021 RMK CU3SC2CI0 SLP231

CYOW;2009-08-08 18:00;CYOW 081800Z 23005KT 15SM BKN060 BKN240 22/10 A3019 RMK CU5CI0 SLP226

CYOW;2009-08-08 19:00;CYOW 081900Z 25003KT 15SM FEW060 BKN240 22/10 A3017 RMK CU2CI1 SLP219

CYOW;2009-08-08 20:00;CYOW 082000Z 22004KT 15SM FEW060 BKN240 23/10 A3016 RMK CU2CI1 SLP216

CYOW;2009-08-08 21:00;CYOW 082100Z 18005KT 15SM FEW060 BKN240 22/11 A3014 RMK CU2CI3 SLP208

CYOW;2009-08-08 22:00;CYOW 082200Z 19005KT 15SM FEW060 BKN150 BKN220 21/12 A3014 RMK CU2AC3CI1 SLP206

CYOW;2009-08-08 23:00;CYOW 082300Z 15003KT 15SM FEW060 SCT150 BKN220 20/13 A3013 RMK SC1AC4CI2 ACC ASOCTD SLP203

CYOW;2009-08-09 00:00;CYOW 090000Z 14004KT 15SM FEW070 BKN170 BKN220 18/14 A3012 RMK AC1AC5CI1 SLP200

CYOW;2009-08-09 01:00;CYOW 090100Z 14005KT 15SM BKN170 BKN210 17/13 A3012 RMK AC5CI1 SLP202

CYOW;2009-08-09 02:00;CYOW 090200Z 14005KT 15SM BKN180 BKN210 17/13 A3012 RMK AC5CI1 SLP202

CYOW;2009-08-09 03:00;CYOW 090300Z 14005KT 15SM BKN180 15/13 A3011 RMK AC6 SLP198

CYOW;2009-08-09 04:00;CYOW 090400Z 14005KT 15SM BKN190 15/13 A3011 RMK AC7 SLP198

CYOW;2009-08-09 05:00;CYOW 090500Z 11005KT 15SM FEW130 BKN190 15/13 A3009 RMK AC1AC6 SLP192

CYOW;2009-08-09 06:00;CYOW 090600Z 14005KT 15SM FEW092 SCT120 BKN190 16/13 A3007 RMK AC2AC2AC3 SLP184

CYOW;2009-08-09 07:00;CYOW 090700Z 14003KT 15SM BKN090 OVC120 16/13 A3006 RMK AC5AC3 SLP180

CYOW;2009-08-09 08:00;CYOW 090800Z 14005KT 15SM FEW055 OVC086 16/13 A3004 RMK SC1AC7 SLP172

CYOW;2009-08-09 09:00;CYOW 090900Z 07003KT 15SM SCT050 OVC083 15/13 A3004 RMK SC4AC4 SLP173

CYOW;2009-08-09 10:00;CYOW 091000Z 09004KT 15SM SCT050 BKN075 15/13 A3002 RMK SC4AC3 SLP168

CYOW;2009-08-09 11:00;CYOW 091100Z 11004KT 15SM BKN086 16/13 A3003 RMK AC7 SLP169

CYOW;2009-08-09 12:00;CYOW 091200Z 12005KT 15SM BKN020 OVC077 17/14 A3001 RMK SC5AC3 SLP162

CYOW;2009-08-09 13:00;CYOW 091300Z 14004KT 15SM BKN020 OVC070 18/15 A3001 RMK SC6AC2 SLP162

CYOW;2009-08-09 14:00;CYOW 091400Z 13005KT 15SM OVC015 18/15 A2998 RMK SC8 SH N OVR CITY SLP152

CYOW;2009-08-09 15:00;CYOW 091500Z 16005KT 15SM SCT015 OVC027 19/16 A2999 RMK SC3SC5 SLP156

CYOW;2009-08-09 16:00;CYOW 091600Z 16005KT 15SM OVC017 20/16 A2997 RMK SC8 SLP149

CYOW;2009-08-09 17:00;CYOW 091700Z 16004KT 15SM FEW017 OVC021 21/17 A2995 RMK SC2SC6 SLP143

CYOW;2009-08-09 18:00;CYOW 091800Z 17004KT 12SM OVC018 21/18 A2992 RMK SC8 SLP133

CYOW;2009-08-09 19:00;CYOW 091900Z 13008KT 10SM OVC017 21/19 A2988 RMK SC8 SLP118

CYOW;2009-08-09 20:00;CYOW 092000Z 23005KT 10SM OVC015 21/19 A2991 RMK SC8 SLP130

CYOW;2009-08-09 21:00;CYOW 092100Z 19006KT 5SM HZ OVC013 21/19 A2988 RMK SC8 SLP119

CYOW;2009-08-09 22:00;CYOW 092200Z 23006KT 5SM HZ OVC012 21/19 A2988 RMK SC8 SLP118

CYOW;2009-08-09 22:48;CYOW 092248Z 22005KT 7SM OVC020 22/ RMK SC8

CYOW;2009-08-09 23:00;CYOW 092300Z 20003KT 8SM BKN020 21/19 A2988 RMK SC7 SLP118

CYOW;2009-08-10 00:00;CYOW 100000Z 18003KT 7SM BKN026 BKN060 BKN250 21/19 A2986 RMK SC5SC1CI1 SLP112

CYOW;2009-08-10 00:18;CYOW 100018Z 15004KT 5SM BR SCT007 BKN025 BKN120 OVC250 20/ RMK ST3SC2AC1CI1

CYOW;2009-08-10 01:00;CYOW 100100Z 16003KT 3SM BR BKN007 OVC025 20/19 A2985 RMK ST5SC3 SLP110

CYOW;2009-08-10 01:33;CYOW 100133Z 15003KT 3SM BR OVC004 20/ RMK FG2ST6

CYOW;2009-08-10 01:44;CYOW 100144Z 16003KT 2SM BR OVC002 20/ RMK FG3ST5

CYOW;2009-08-10 02:00;CYOW 100200Z 16003KT 1 1/2SM BR OVC002 20/19 A2985 RMK FG4ST4 SLP110

CYOW;2009-08-10 02:19;CYOW 100219Z 16003KT 3/4SM R07/3000VP6000FT/D BR VV008 19/ RMK FG8

CYOW;2009-08-10 02:37;CYOW 100237Z 16003KT 1 1/2SM BR OVC250 20/ RMK FG4CI4 MOON DIMLY VISBL

CYOW;2009-08-10 03:00;CYOW 100300Z 19003KT 1/2SM R07/2800VP6000FT/D FG OVC250 20/19 A2984 RMK FG6CI2 MOON DIMLY VISBL SLP106

CYOW;2009-08-10 03:45;CYOW 100345Z 00000KT 3/8SM R07/1000V1600FT/U FG OVC250 19/ RMK FG7CI1 MOON DIMLY VISBL

CYOW;2009-08-10 04:00;CYOW 100400Z 14002KT 3/8SM R07/1200FT/N FG VV005 19/19 A2982 RMK FG8 SLP097

CYOW;2009-08-10 05:00;CYOW 100500Z 15002KT 3/8SM R07/2400FT/N FG VV005 19/19 A2981 RMK FG8 SLP094

CYOW;2009-08-10 05:53;CYOW 100553Z 19004KT 5/8SM R07/4500VP6000FT/U BR VV006 20/ RMK FG8

CYOW;2009-08-10 06:00;CYOW 100600Z 17004KT 3/4SM R07/P6000FT/N BR VV007 20/20 A2981 RMK FG8 SLP094

CYOW;2009-08-10 06:19;CYOW 100619Z 18005KT 1 1/2SM BR OVC002 20/ RMK FG4ST4

CYOW;2009-08-10 06:48;CYOW 100648Z 20004KT 3SM BR OVC002 20/ RMK SF8

CYOW;2009-08-10 07:00;CYOW 100700Z 21004KT 3SM BR OVC002 20/20 A2982 RMK SF8 SLP097

CYOW;2009-08-10 07:17;CYOW 100717Z 00000KT 4SM -SHRA BR OVC006 21/ RMK SF8

CYOW;2009-08-10 07:43;CYOW 100743Z 21002KT 5SM BR OVC006 21/ RMK ST8

CYOW;2009-08-10 08:00;CYOW 100800Z 21003KT 4SM BR OVC006 21/21 A2979 RMK ST8 SLP090

CYOW;2009-08-10 09:00;CYOW 100900Z 24004KT 4SM BR OVC006 21/21 A2980 RMK ST8 SLP091

CYOW;2009-08-10 10:00;CYOW 101000Z 24004KT 5SM BR OVC006 21/21 A2980 RMK ST8 SLP091

CYOW;2009-08-10 11:00;CYOW 101100Z 23004KT 3SM BR BKN005 BKN070 22/21 A2981 RMK ST3AC2 SLP095

CYOW;2009-08-10 11:10;CYOW 101110Z 24005KT 3SM BR SCT005 SCT070 22/ RMK ST3AC1

CYOW;2009-08-10 12:00;CYOW 101200Z 24004KT 5SM BR SCT005 BKN060 22/21 A2981 RMK ST4SC2 SLP095

CYOW;2009-08-10 13:00;CYOW 101300Z 31009KT 12SM FEW010 SCT055 BKN240 24/21 A2982 RMK SF2SC2CI0 SLP097

CYOW;2009-08-10 14:00;CYOW 101400Z 31008KT 12SM FEW030 SCT060 BKN240 25/21 A2982 RMK CU2SC1CI2 SLP096

CYOW;2009-08-10 15:00;CYOW 101500Z 27011KT 12SM SCT022 SCT150 25/21 A2982 RMK CU3AC1 SLP099

CYOW;2009-08-10 16:00;CYOW 101600Z 28008KT 12SM BKN030 BKN150 27/21 A2982 RMK CU5AC1 TCU ASOCTD SLP096

CYOW;2009-08-10 17:00;CYOW 101700Z 27010KT 15SM SCT030 BKN180 28/21 A2981 RMK CU3AC3 TCU ASOCTD SLP094

CYOW;2009-08-10 18:00;CYOW 101800Z 28009KT 15SM FEW030 BKN180 BKN210 28/20 A2981 RMK CU2AC2CC2 TCU ASOCTD SLP094

CYOW;2009-08-10 19:00;CYOW 101900Z 27009KT 15SM FEW040TCU BKN210 29/19 A2980 RMK TCU2CC4 CB DIST N OVR HILLS SLP091

CYOW;2009-08-10 20:00;CYOW 102000Z 26008KT 15SM FEW040TCU BKN160 BKN250 28/20 A2979 RMK TCU2AC2CI2 CB DIST E SLP086

CYOW;2009-08-10 21:00;CYOW 102100Z 29008KT 15SM FEW040TCU BKN160 BKN250 28/20 A2979 RMK TCU2AC3CI0 SLP085

CYOW;2009-08-10 22:00;CYOW 102200Z 28009KT 15SM FEW050TCU BKN190 27/20 A2978 RMK TCU2AC6 SLP082

CYOW;2009-08-10 23:00;CYOW 102300Z 30007KT 15SM FEW050TCU BKN160 BKN220 26/19 A2978 RMK TCU1AC5CI1 SLP083

CYOW;2009-08-11 00:00;CYOW 110000Z 36003KT 15SM FEW050TCU BKN140 25/19 A2979 RMK TCU1AC6 SLP086

CYOW;2009-08-11 01:00;CYOW 110100Z 33004KT 15SM BKN120 24/19 A2979 RMK AC7 TCU TPS DIST N SLP088

CYOW;2009-08-11 02:00;CYOW 110200Z 07003KT 15SM BKN110 24/19 A2980 RMK AC7 SLP090

CYOW;2009-08-11 03:00;CYOW 110300Z 05003KT 15SM SCT047 BKN120 23/19 A2980 RMK SC3AC4 SLP091

CYOW;2009-08-11 04:00;CYOW 110400Z 35005KT 15SM BKN043 BKN110 22/19 A2982 RMK SC6AC1 SLP098

CYOW;2009-08-11 05:00;CYOW 110500Z 00000KT 15SM BKN052 21/18 A2980 RMK SC6 SLP090

CYOW;2009-08-11 06:00;CYOW 110600Z CCA 32003KT 15SM SCT055 19/18 A2980 RMK SC3 SLP090

CYOW;2009-08-11 07:00;CYOW 110700Z 35005KT 15SM FEW055 19/17 A2980 RMK SC1 SLP091

CYOW;2009-08-11 08:00;CYOW 110800Z 36003KT 15SM FEW055 FEW250 18/17 A2979 RMK SC1CI1 SLP089

CYOW;2009-08-11 09:00;CYOW 110900Z 32003KT 15SM SCT031 BKN250 18/17 A2982 RMK SC3CI2 SLP096

CYOW;2009-08-11 10:00;CYOW 111000Z 32005KT 15SM FEW012 FEW030 BKN250 18/17 A2982 RMK SC1SC1CI3 TCU TPS DIST N-NE SLP099

CYOW;2009-08-11 11:00;CYOW 111100Z 33005KT 15SM FEW010 FEW030 BKN250 19/18 A2984 RMK SF1CU1CI3 CU TR SLP105

CYOW;2009-08-11 12:00;CYOW 111200Z 03003KT 15SM BKN013 20/18 A2985 RMK SC7 SLP108

CYOW;2009-08-11 13:00;CYOW 111300Z 36004KT 15SM BKN014 21/19 A2986 RMK SC7 SLP111

CYOW;2009-08-11 13:31;CYOW 111331Z 04005KT 15SM FEW010 BKN017 21/ RMK SF1SC7

CYOW;2009-08-11 14:00;CYOW 111400Z 36002KT 15SM BKN020 BKN035 22/19 A2987 RMK SC5SC2 CU ASOCT SLP114

CYOW;2009-08-11 15:00;CYOW 111500Z 02003KT 15SM BKN019 BKN035 23/19 A2988 RMK SC6SC2 CU ASOCT SLP116

CYOW;2009-08-11 16:00;CYOW 111600Z 01003KT 15SM BKN020 24/20 A2988 RMK CU6 SLP119

CYOW;2009-08-11 17:00;CYOW 111700Z 25003KT 15SM BKN020 BKN040 25/19 A2987 RMK CU5SC2 SLP115

CYOW;2009-08-11 18:00;CYOW 111800Z 26006KT 15SM FEW025TCU 26/19 A2985 RMK TCU2 SLP107

CYOW;2009-08-11 19:00;CYOW 111900Z 28006KT 15SM SCT035TCU 27/18 A2985 RMK TCU3 SLP106

CYOW;2009-08-11 19:39;CYOW 111939Z 29009KT 15SM TS BKN035 26/ RMK CU6 CB EMBD

CYOW;2009-08-11 19:53;CYOW 111953Z 33011G21KT 15SM -TSRA BKN035 23/ RMK SC7 CB EMBD

CYOW;2009-08-11 20:00;CYOW 112000Z 35009G18KT 15SM -TSRA SCT035TCU BKN130 23/18 A2985 RMK TCU4AC2 CB EMBD SLP108

CYOW;2009-08-11 20:07;CYOW 112007Z 36008KT 15SM SCT035TCU BKN130 23/ RETS RMK TCU4AC3

CYOW;2009-08-11 20:19;CYOW 112019Z 35003KT 15SM -SHRA BKN035 BKN130 23/ RETS RMK CU5AC2 TCU EMBD ALL QUADS

CYOW;2009-08-11 20:41;CYOW 112041Z 27003KT 15SM SCT035TCU BKN110 25/ RETS RMK TCU4AC2

CYOW;2009-08-11 21:00;CYOW 112100Z 06008KT 15SM SCT035TCU BKN110 25/20 A2986 RETS RMK TCU3AC2 SLP111

CYOW;2009-08-11 22:00;CYOW 112200Z 05003KT 15SM FEW035TCU FEW120 24/18 A2986 RMK TCU1AC1 TCU E SLP113

CYOW;2009-08-11 23:00;CYOW 112300Z 03003KT 15SM FEW040TCU FEW120 FEW250 25/18 A2986 RMK TCU1AC1CI1 CB ASOCT SLP113

CYOW;2009-08-12 00:00;CYOW 120000Z 15003KT 15SM FEW050CB FEW120 FEW240 24/18 A2988 RMK CB1AC1CI1 SLP117

CYOW;2009-08-12 01:00;CYOW 120100Z 21003KT 15SM FEW050CB FEW120 FEW250 23/18 A2990 RMK CB1AC1CI1 CB NE S SLP124

CYOW;2009-08-12 02:00;CYOW 120200Z 22002KT 15SM FEW040 SCT100 21/18 A2991 RMK SC1AC3 SLP130

CYOW;2009-08-12 03:00;CYOW 120300Z 28002KT 15SM FEW110 20/18 A2991 RMK AC1 SLP130

CYOW;2009-08-12 04:00;CYOW 120400Z 24002KT 15SM FEW050 FEW110 19/18 A2992 RMK SC1AC1 SLP133

CYOW;2009-08-12 05:00;CYOW 120500Z 33004KT 15SM FEW050 19/17 A2993 RMK SC1 SLP134

CYOW;2009-08-12 06:00;CYOW 120600Z 32002KT 15SM SKC 18/17 A2994 RMK SLP137

CYOW;2009-08-12 07:00;CYOW 120700Z 00000KT 15SM SKC 18/17 A2995 RMK SLP141

CYOW;2009-08-12 08:00;CYOW 120800Z 00000KT 15SM SKC 17/16 A2995 RMK SLP141

CYOW;2009-08-12 09:00;CYOW 120900Z 36003KT 15SM SKC 17/16 A2995 RMK SLP142

CYOW;2009-08-12 10:00;CYOW 121000Z 02002KT 15SM MIFG FEW200 FEW250 17/16 A2997 RMK CC1CI0 SLP148

CYOW;2009-08-12 11:00;CYOW 121100Z 02003KT 15SM MIFG FEW200 FEW250 18/16 A2999 RMK CC1CI0 SLP157

CYOW;2009-08-12 12:00;CYOW 121200Z 04003KT 15SM FEW240 19/16 A3001 RMK CI1 SLP161

CYOW;2009-08-12 13:00;CYOW 121300Z 05004KT 15SM FEW240 21/17 A3002 RMK CI1 SLP167

CYOW;2009-08-12 14:00;CYOW 121400Z 00000KT 15SM FEW240 22/19 A3003 RMK CI1 SLP169

CYOW;2009-08-12 15:00;CYOW 121500Z 09002KT 15SM FEW020 24/19 A3004 RMK CU1 SLP171

CYOW;2009-08-12 16:00;CYOW 121600Z 20002KT 15SM BKN025 24/18 A3004 RMK CU5 TCU EMBD SLP173

CYOW;2009-08-12 17:00;CYOW 121700Z 16003KT 15SM BKN033 25/18 A3004 RMK CU5 TCU EMBD SLP172

CYOW;2009-08-12 18:00;CYOW 121800Z 09003KT 15SM BKN035 25/18 A3003 RMK CU6 TCU EMBD SLP170

CYOW;2009-08-12 19:00;CYOW 121900Z 10002KT 15SM BKN045 26/18 A3002 RMK CU6 TCU EMBD SLP167

CYOW;2009-08-12 20:00;CYOW 122000Z 18002KT 15SM BKN045 25/19 A3002 RMK CU5 TCU EMBD SLP166

CYOW;2009-08-12 21:00;CYOW 122100Z 22003KT 15SM SCT045 26/20 A3002 RMK CU3 TCU EMBD SLP166

CYOW;2009-08-12 22:00;CYOW 122200Z 16002KT 15SM FEW045 27/18 A3001 RMK CU1 SLP163

CYOW;2009-08-12 23:00;CYOW 122300Z 15002KT 15SM FEW050TCU FEW090 26/18 A3002 RMK TCU1AC1 SLP165

CYOW;2009-08-13 00:00;CYOW 130000Z 14002KT 15SM FEW050TCU FEW090 24/18 A3003 RMK TCU1AC1 SLP168

CYOW;2009-08-13 01:00;CYOW 130100Z 14002KT 15SM FEW050TCU FEW090 23/16 A3004 RMK TCU1AC1 SLP173

CYOW;2009-08-13 02:00;CYOW 130200Z 00000KT 15SM FEW060 23/17 A3005 RMK SC1 SLP176

CYOW;2009-08-13 03:00;CYOW 130300Z 15003KT 15SM SKC 20/17 A3005 RMK SLP176

CYOW;2009-08-13 04:00;CYOW 130400Z 16003KT 15SM SKC 21/17 A3005 RMK SLP177

CYOW;2009-08-13 05:00;CYOW 130500Z 27002KT 15SM SKC 19/17 A3006 RMK SLP178

CYOW;2009-08-13 06:00;CYOW 130600Z 00000KT 15SM SKC 20/16 A3006 RMK SLP178

CYOW;2009-08-13 07:00;CYOW 130700Z 04003KT 15SM SKC 20/18 A3007 RMK SLP182

CYOW;2009-08-13 08:00;CYOW 130800Z 04002KT 15SM SKC 18/17 A3008 RMK SLP185

CYOW;2009-08-13 09:00;CYOW 130900Z 00000KT 15SM SKC 18/17 A3008 RMK SLP187

CYOW;2009-08-13 10:00;CYOW 131000Z 05003KT 15SM R07/3500VP6000FT/D BCFG FEW090 FEW200 17/16 A3009 RMK AC1CI1 SLP189

CYOW;2009-08-13 11:00;CYOW 131100Z 36003KT 15SM BCFG FEW200 18/17 A3010 RMK CI1 SLP191

CYOW;2009-08-13 12:00;CYOW 131200Z 09004KT 15SM BCFG FEW200 21/18 A3011 RMK CI1 SLP194

CYOW;2009-08-13 13:00;CYOW 131300Z 14002KT 15SM FEW200 23/19 A3012 RMK CI1 SLP198

CYOW;2009-08-13 14:00;CYOW 131400Z 18002KT 15SM FEW200 24/17 A3012 RMK CI1 SLP198

CYOW;2009-08-13 15:00;CYOW 131500Z 20002KT 15SM FEW030TCU 25/17 A3012 RMK TCU1 SLP200

CYOW;2009-08-13 16:00;CYOW 131600Z CCA 28003KT 15SM FEW030 27/18 A3012 RMK CU2 TCU EMBD SLP200

CYOW;2009-08-13 17:00;CYOW 131700Z 25005KT 15SM FEW040 27/18 A3012 RMK CU2 TCU ASOCTD SLP200

CYOW;2009-08-13 18:00;CYOW 131800Z 25003KT 15SM FEW045 28/17 A3011 RMK CU2 SLP197

CYOW;2009-08-13 19:00;CYOW 131900Z 27002KT 15SM FEW050 29/16 A3010 RMK CU1 SLP192

CYOW;2009-08-13 20:00;CYOW 132000Z 21003KT 15SM FEW055 29/16 A3009 RMK CU1 SLP188

CYOW;2009-08-13 21:00;CYOW 132100Z 26006KT 15SM FEW060 29/15 A3009 RMK CU1 CB TP DIST SE SLP188

CYOW;2009-08-13 22:00;CYOW 132200Z 30006KT 15SM FEW060 29/15 A3009 RMK CU1 TCU TPS DIST SE SLP188

CYOW;2009-08-13 23:00;CYOW 132300Z 25003KT 15SM FEW065 28/17 A3008 RMK SC1 SLP186

CYOW;2009-08-14 00:00;CYOW 140000Z 18003KT 15SM FEW065 FEW090 26/18 A3008 RMK SC1AC1 SLP187

CYOW;2009-08-14 01:00;CYOW 140100Z 18004KT 15SM FEW065 FEW090 25/17 A3009 RMK SC1AC1 SLP188

CYOW;2009-08-14 02:00;CYOW 140200Z 18003KT 15SM FEW060 23/18 A3010 RMK SC2 SLP193

CYOW;2009-08-14 03:00;CYOW 140300Z 19003KT 15SM SKC 23/18 A3011 RMK SLP197

CYOW;2009-08-14 04:00;CYOW 140400Z 18004KT 15SM SKC 21/17 A3011 RMK SLP195

CYOW;2009-08-14 05:00;CYOW 140500Z 19003KT 15SM SKC 21/17 A3011 RMK SLP196

CYOW;2009-08-14 06:00;CYOW 140600Z 19003KT 15SM SKC 21/18 A3012 RMK SLP198

CYOW;2009-08-14 07:00;CYOW 140700Z 22005KT 15SM SKC 20/18 A3012 RMK SLP199

CYOW;2009-08-14 08:00;CYOW 140800Z 20003KT 15SM SKC 19/17 A3011 RMK SLP197

CYOW;2009-08-14 09:00;CYOW 140900Z 27002KT 15SM MIFG FEW080 17/17 A3013 RMK AC1 SLP201

CYOW;2009-08-14 10:00;CYOW 141000Z 27004KT 15SM PRFG FEW090 FEW200 17/16 A3014 RMK AC1CI1 FG E AC TR SLP205

CYOW;2009-08-14 11:00;CYOW 141100Z 26003KT 12SM FEW240 18/17 A3015 RMK CI2 SLP209

CYOW;2009-08-14 12:00;CYOW 141200Z 25004KT 12SM FEW240 19/18 A3015 RMK CI2 SLP211

CYOW;2009-08-14 13:00;CYOW 141300Z 29003KT 12SM FEW240 22/19 A3016 RMK CI2 SLP213

CYOW;2009-08-14 14:00;CYOW 141400Z 26004KT 12SM FEW240 24/19 A3016 RMK CI2 SLP215

CYOW;2009-08-14 15:00;CYOW 141500Z 23005KT 12SM FEW240 25/19 A3017 RMK CI1 SLP216

CYOW;2009-08-14 16:00;CYOW 141600Z 22005KT 12SM FEW240 27/18 A3016 RMK CI1 SLP213

CYOW;2009-08-14 17:00;CYOW 141700Z 25008KT 12SM FEW040 FEW240 28/18 A3016 RMK CU1CI1 SLP211

CYOW;2009-08-14 18:00;CYOW 141800Z 25003KT 12SM FEW040 FEW240 29/18 A3015 RMK CU1CI1 SLP208

CYOW;2009-08-14 19:00;CYOW 141900Z 25004KT 15SM FEW044 29/18 A3013 RMK CU1 SLP203

CYOW;2009-08-14 20:00;CYOW 142000Z 23007KT 15SM FEW050 30/16 A3012 RMK CU2 SLP199

CYOW;2009-08-14 21:00;CYOW 142100Z 23007KT 15SM FEW050 30/17 A3012 RMK CU1 SLP198

CYOW;2009-08-14 22:00;CYOW 142200Z 24004KT 15SM FEW050 30/17 A3012 RMK CU1 SLP199

CYOW;2009-08-14 23:00;CYOW 142300Z 22005KT 15SM FEW062 29/18 A3011 RMK CU1 SLP196

CYOW;2009-08-15 00:00;CYOW 150000Z CCA 21004KT 15SM FEW062 27/18 A3011 RMK CU1 SLP197

CYOW;2009-08-15 01:00;CYOW 150100Z 18004KT 15SM FEW062 24/18 A3012 RMK SC1 SLP198

CYOW;2009-08-15 02:00;CYOW 150200Z 18003KT 15SM SKC 23/19 A3012 RMK SLP198

CYOW;2009-08-15 03:00;CYOW 150300Z CCA 19003KT 15SM FEW180 22/18 A3012 RMK AC1 SLP198

CYOW;2009-08-15 04:00;CYOW 150400Z 19004KT 15SM SKC 22/18 A3011 RMK SLP197

CYOW;2009-08-15 05:00;CYOW 150500Z 20003KT 15SM FEW180 21/17 A3012 RMK AC1 SLP198

CYOW;2009-08-15 06:00;CYOW 150600Z 22003KT 15SM FEW210 20/17 A3012 RMK CI1 SLP198

CYOW;2009-08-15 07:00;CYOW 150700Z 26003KT 15SM SKC 20/17 A3013 RMK SLP201

CYOW;2009-08-15 08:00;CYOW 150800Z 20005KT 15SM SKC 19/17 A3013 RMK SLP201

CYOW;2009-08-15 09:00;CYOW 150900Z 20005KT 15SM FEW180 18/16 A3012 RMK AC1 SLP199

CYOW;2009-08-15 10:00;CYOW 151000Z CCA 19005KT 15SM FEW180 FEW210 18/16 A3012 RMK AC1CI1 CI TR SLP200

CYOW;2009-08-15 11:00;CYOW 151100Z 20005KT 12SM FEW240 18/16 A3012 RMK CI1 SLP200

CYOW;2009-08-15 12:00;CYOW 151200Z 20005KT 12SM FEW120 FEW240 19/17 A3014 RMK AC1CI0 SLP204

CYOW;2009-08-15 13:00;CYOW 151300Z 22004KT 12SM FEW120 SCT240 23/18 A3015 RMK AC1CI1 SLP208

CYOW;2009-08-15 14:00;CYOW 151400Z 26004KT 12SM FEW030 FEW240 25/20 A3015 RMK CU1CI0 SLP209

CYOW;2009-08-15 15:00;CYOW 151500Z 29004KT 12SM SKC 27/19 A3015 RMK SLP210

CYOW;2009-08-15 16:00;CYOW 151600Z 24004KT 12SM FEW030 27/20 A3014 RMK CU2 SLP206

CYOW;2009-08-15 17:00;CYOW 151700Z 22005KT 12SM BKN036 29/20 A3011 RMK CU5 SLP197

CYOW;2009-08-15 18:00;CYOW 151800Z 21003KT 12SM BKN040 29/19 A3010 RMK CU5 SLP191

CYOW;2009-08-15 19:00;CYOW 151900Z 23009KT 12SM BKN056 30/17 A3008 RMK CU5 SLP187

CYOW;2009-08-15 20:00;CYOW 152000Z 25006KT 12SM SCT060 30/17 A3008 RMK CU3 SLP184

CYOW;2009-08-15 21:00;CYOW 152100Z 23007KT 12SM FEW060 30/17 A3007 RMK CU2 SLP183

CYOW;2009-08-15 22:00;CYOW 152200Z 23006KT 12SM FEW060 30/17 A3007 RMK CU2 SLP182

CYOW;2009-08-15 23:00;CYOW 152300Z 24003KT 15SM FEW065 29/18 A3007 RMK CU1 SLP183

CYOW;2009-08-16 00:00;CYOW 160000Z 18003KT 15SM FEW280 27/17 A3007 RMK CI0 SLP183

CYOW;2009-08-16 01:00;CYOW 160100Z 18004KT 15SM FEW280 25/18 A3009 RMK CI0 SLP190

CYOW;2009-08-16 02:00;CYOW 160200Z 18003KT 15SM SKC 24/19 A3010 RMK SLP193

CYOW;2009-08-16 03:00;CYOW 160300Z 20003KT 15SM SKC 24/20 A3011 RMK SLP194

CYOW;2009-08-16 04:00;CYOW 160400Z 22005KT 15SM SKC 23/20 A3010 RMK SLP193

CYOW;2009-08-16 05:00;CYOW 160500Z 27004KT 12SM SKC 22/19 A3011 RMK SLP194

CYOW;2009-08-16 06:00;CYOW 160600Z 21003KT 10SM SKC 21/19 A3010 RMK SLP192

CYOW;2009-08-16 07:00;CYOW 160700Z 22003KT 8SM FEW130 21/19 A3010 RMK AC2 SLP191

CYOW;2009-08-16 08:00;CYOW 160800Z 22004KT 6SM BR BKN150 21/19 A3010 RMK AC5 SLP192

CYOW;2009-08-16 09:00;CYOW 160900Z 22004KT 8SM BKN150 21/19 A3011 RMK AC6 SLP194

CYOW;2009-08-16 10:00;CYOW 161000Z 20003KT 6SM BR FEW100 BKN160 20/19 A3011 RMK AC2AC5 SLP196

CYOW;2009-08-16 11:00;CYOW 161100Z 20003KT 4SM BR BKN170 21/19 A3013 RMK AC7 SLP203

CYOW;2009-08-16 12:00;CYOW 161200Z 18004KT 3SM BR FEW090 BKN160 21/19 A3014 RMK AC2AC4 SLP204

CYOW;2009-08-16 13:00;CYOW 161300Z 32004KT 4SM BR SCT160 22/20 A3015 RMK AC3 SLP209

CYOW;2009-08-16 14:00;CYOW 161400Z 23004KT 5SM HZ FEW090 SCT160 25/20 A3014 RMK AC2AC1 SLP206

CYOW;2009-08-16 15:00;CYOW 161500Z 22004KT 5SM HZ FEW090 28/21 A3014 RMK AC2 SLP204

CYOW;2009-08-16 16:00;CYOW 161600Z 21004KT 6SM HZ FEW030 28/20 A3012 RMK CU1 SLP200

CYOW;2009-08-16 17:00;CYOW 161700Z 23005KT 6SM HZ SCT036 29/21 A3011 RMK CU3 SLP196

CYOW;2009-08-16 18:00;CYOW 161800Z 20008KT 6SM HZ SCT048 30/20 A3010 RMK CU3 SLP192

CYOW;2009-08-16 19:00;CYOW 161900Z 23009KT 8SM SCT050 31/20 A3009 RMK CU3 HAZY SLP188

CYOW;2009-08-16 20:00;CYOW 162000Z 22007KT 8SM SCT050 31/20 A3008 RMK CU3 HAZY SLP186

CYOW;2009-08-16 21:00;CYOW 162100Z 24005KT 10SM FEW050 BKN110 29/19 A3007 RMK CU2AC3 SLP182

CYOW;2009-08-16 22:00;CYOW 162200Z 22006KT 8SM FEW100 30/18 A3006 RMK AC2 HAZY SLP180

CYOW;2009-08-16 23:00;CYOW 162300Z 23006KT 10SM FEW100 29/18 A3006 RMK AC2 SLP179

CYOW;2009-08-17 00:00;CYOW 170000Z 20004KT 10SM FEW100 28/19 A3006 RMK AC1 SLP180

CYOW;2009-08-17 01:00;CYOW 170100Z 18004KT 8SM SKC 25/20 A3008 RMK SLP184

CYOW;2009-08-17 02:00;CYOW 170200Z 19005KT 8SM SKC 24/20 A3009 RMK SLP189

CYOW;2009-08-17 03:00;CYOW 170300Z 19004KT 8SM SKC 23/19 A3008 RMK SLP187

CYOW;2009-08-17 04:00;CYOW 170400Z 21004KT 8SM SKC 23/18 A3009 RMK SLP190

CYOW;2009-08-17 05:00;CYOW 170500Z 22006KT 8SM SKC 22/18 A3009 RMK SLP190

CYOW;2009-08-17 06:00;CYOW 170600Z 27004KT 7SM SKC 20/18 A3009 RMK SLP190

CYOW;2009-08-17 07:00;CYOW 170700Z 23003KT 7SM SKC 21/18 A3009 RMK SLP190

CYOW;2009-08-17 08:00;CYOW 170800Z 18003KT 5SM BR SKC 20/18 A3009 RMK SLP189

CYOW;2009-08-17 09:00;CYOW 170900Z 18004KT 4SM BR SKC 19/18 A3008 RMK SLP186

CYOW;2009-08-17 10:00;CYOW 171000Z 16002KT 3SM BR FEW075 FEW090 19/18 A3008 RMK FG1ACC1AC1 SLP187

CYOW;2009-08-17 11:00;CYOW 171100Z 17005KT 3SM BR FEW080 20/18 A3008 RMK FG1ACC1 SLP187

CYOW;2009-08-17 12:00;CYOW 171200Z 18005KT 3SM BR BKN060 BKN120 21/20 A3010 RMK SC5AC2 VIZ N 2 SLP193

CYOW;2009-08-17 12:15;CYOW 171215Z 28004KT 2SM BR SCT007 OVC055 22/ RMK ST3SC5

CYOW;2009-08-17 12:20;CYOW 171220Z 23005KT 2SM SHRA BR SCT006 OVC050TCU 22/ RMK SF3TCU5

CYOW;2009-08-17 12:38;CYOW 171238Z 17004KT 2SM BR FEW006 BKN044 BKN120 22/ RERA RMK SF2SC4AC2

CYOW;2009-08-17 13:00;CYOW 171300Z 16005KT 2SM BR BKN120 22/21 A3007 RERA RMK AC5 SLP183

CYOW;2009-08-17 13:28;CYOW 171328Z 18005KT 3SM BR SCT120 24/ RMK AC3

CYOW;2009-08-17 14:00;CYOW 171400Z 21007KT 4SM HZ FEW060 25/22 A3008 RMK SC1 SLP185

CYOW;2009-08-17 15:00;CYOW 171500Z 23009KT 5SM HZ SKC 28/22 A3008 RMK SLP186

CYOW;2009-08-17 16:00;CYOW 171600Z 20006KT 5SM HZ SKC 30/23 A3007 RMK SLP183

CYOW;2009-08-17 17:00;CYOW 171700Z 21007G15KT 6SM HZ FEW036 FEW200 31/23 A3005 RMK CU2CI1 TCU ASOCT SLP177

CYOW;2009-08-17 18:00;CYOW 171800Z 23011KT 15SM SCT043 32/22 A3004 RMK CU3 TCU ASOCT SLP171

CYOW;2009-08-17 19:00;CYOW 171900Z 23009G20KT 15SM SCT049 32/21 A3002 RMK CU3 TCU ASOCT SLP163

CYOW;2009-08-17 20:00;CYOW 172000Z 22012G19KT 15SM FEW052 32/21 A2998 RMK CU2 TCU ASOCT SLP152

CYOW;2009-08-17 21:00;CYOW 172100Z CCA 24022G30KT 12SM SCT055TCU BKN080 30/20 A2999 RMK TCU4AC2 VIS N 6 SHRA SLP153

CYOW;2009-08-17 21:10;CYOW 172110Z 28019G24KT 15SM -SHRA FEW027 SCT055TCU BKN100 BKN300 28/ RMK SC1TCU3AC3CI1 CB SE

CYOW;2009-08-17 21:43;CYOW 172143Z 27010KT 15SM FEW055TCU SCT110 BKN130 BKN300 28/ RMK TCU1AC3AC1CI2 CB SE

CYOW;2009-08-17 22:00;CYOW 172200Z 30011KT 15SM FEW060TCU SCT100 SCT130 BKN300 29/20 A2999 RMK TCU1AC2AC1CI1 CB SE SLP153

CYOW;2009-08-17 23:00;CYOW 172300Z 23006KT 12SM FEW060TCU SCT140 BKN220 29/21 A3000 RMK TCU1AC3CI2 CB S SLP157

CYOW;2009-08-18 00:00;CYOW 180000Z 19006KT 12SM FEW060TCU SCT095 SCT220 27/21 A3000 RMK TCU1AC2CI1 SLP159

CYOW;2009-08-18 01:00;CYOW 180100Z 21003KT 15SM FEW060 BKN096 BKN110 26/20 A3001 RMK SC1AC4AC1 SLP161

CYOW;2009-08-18 02:00;CYOW 180200Z 20004KT 15SM FEW110 FEW220 25/20 A3001 RMK AC2CI1 SLP162

CYOW;2009-08-18 03:00;CYOW 180300Z 22002KT 15SM FEW220 24/20 A3001 RMK CI1 SLP161

CYOW;2009-08-18 04:00;CYOW 180400Z 18003KT 15SM FEW140 FEW210 23/19 A3000 RMK AC1CI1 SLP159

CYOW;2009-08-18 05:00;CYOW 180500Z 22003KT 15SM FEW210 22/19 A3000 RMK CI1 SLP158

CYOW;2009-08-18 06:00;CYOW 180600Z 21002KT 15SM SKC 22/19 A2998 RMK SLP152

CYOW;2009-08-18 07:00;CYOW 180700Z 21003KT 15SM SKC 21/19 A2997 RMK SLP148

CYOW;2009-08-18 08:00;CYOW 180800Z 19002KT 10SM SKC 21/20 A2996 RMK SLP143

CYOW;2009-08-18 08:40;CYOW 180840Z 17003KT 6SM BR FEW240 20/ RMK CI2 VIS SE - S 3

CYOW;2009-08-18 09:00;CYOW 180900Z 18003KT 6SM BR FEW110 SCT240 21/20 A2994 RMK AC2CI2 VIS S-W 3 SLP139

CYOW;2009-08-18 09:48;CYOW 180948Z 20002KT 4SM BR SCT120 SCT240 21/ RMK AC4CI1

CYOW;2009-08-18 10:00;CYOW 181000Z 28002KT 4SM BR FEW078 SCT120 BKN140 21/20 A2994 RMK AC1AC3AC2 SLP136

CYOW;2009-08-18 10:47;CYOW 181047Z 18002KT 3SM -RA BR OVC062 21/ RMK SC8

CYOW;2009-08-18 11:00;CYOW 181100Z 18003KT 4SM BR BKN060 BKN080 21/20 A2993 RMK SC6AC2 SLP134

CYOW;2009-08-18 12:00;CYOW 181200Z 19007KT 6SM BR FEW060 SCT100 BKN150 23/21 A2992 RMK SC1AC2AC2 SLP130

CYOW;2009-08-18 13:00;CYOW 181300Z 19007KT 6SM HZ FEW060 BKN095 BKN150 24/21 A2990 RMK SC1AC4AC2 SLP124

CYOW;2009-08-18 14:00;CYOW 181400Z 19006KT 8SM FEW060 BKN080 BKN110 25/22 A2990 RMK SC1AC5AC2 HAZY SLP124

CYOW;2009-08-18 15:00;CYOW 181500Z 21009KT 10SM FEW060 BKN100 OVC160 26/22 A2990 RMK SC1AC6AC2 HAZY SLP124

CYOW;2009-08-18 16:00;CYOW 181600Z 24012G19KT 12SM BKN040 BKN100 OVC160 26/21 A2988 RMK SC5AC2AC2 HAZY SLP119

CYOW;2009-08-18 17:00;CYOW 181700Z 25012KT 15SM BKN040 BKN060 OVC100 27/21 A2988 RMK SC5SC2AC2 SLP116

CYOW;2009-08-18 18:00;CYOW 181800Z 23011G17KT 15SM FEW020 BKN040 BKN100 27/22 A2986 RMK CU1SC5AC1 CU TR SLP112

CYOW;2009-08-18 19:00;CYOW 181900Z 22011KT 15SM FEW040 BKN120 27/22 A2985 RMK SC2AC3 CU ASOCT SLP106

CYOW;2009-08-18 20:00;CYOW 182000Z 20007KT 15SM BKN028 BKN100 27/22 A2982 RMK SC6AC1 CU ASOCT SLP098

CYOW;2009-08-18 21:00;CYOW 182100Z 22010G16KT 15SM BKN030 BKN100 28/21 A2980 RMK SC6AC1 CU ASOCT SLP092

CYOW;2009-08-18 22:00;CYOW 182200Z 23009G15KT 15SM SCT030 BKN053 BKN100 27/20 A2979 RMK SC3SC2AC1 CU ASOCT SLP088

CYOW;2009-08-18 23:00;CYOW 182300Z 23011G16KT 15SM FEW035 BKN073 BKN090 BKN200 BKN240 27/20 A2980 RMK SC1AC4AC1CI1CI0 CB ASOCT SLP092

CYOW;2009-08-18 23:22;CYOW 182322Z 26011KT 15SM -SHRA FEW036 BKN060 BKN090 BKN200 25/ RMK SC2SC3AC2CI1 TCU ASOCT

CYOW;2009-08-18 23:53;CYOW 182353Z 24005KT 15SM FEW010 FEW032 BKN066 BKN090 23/ RMK CU1SC1AC5AC1 TCU ASOCT

CYOW;2009-08-19 00:00;CYOW 190000Z CCA 26005KT 15SM FEW032 SCT062 BKN100 BKN120 23/21 A2980 RMK SC2SC2AC2AC1 TCU ASOCT SLP091

CYOW;2009-08-19 01:00;CYOW 190100Z 24007KT 15SM BKN082 23/21 A2982 RMK AC6 SLP098

CYOW;2009-08-19 02:00;CYOW 190200Z 23007KT 15SM FEW100 22/20 A2983 RMK AC1 SLP102

CYOW;2009-08-19 03:00;CYOW 190300Z 23007KT 15SM SKC 21/19 A2984 RMK SLP104

CYOW;2009-08-19 04:00;CYOW 190400Z 26004KT 15SM SKC 20/19 A2985 RMK SLP108

CYOW;2009-08-19 05:00;CYOW 190500Z 23004KT 15SM SKC 20/18 A2985 RMK SLP108

CYOW;2009-08-19 06:00;CYOW 190600Z 21003KT 15SM SKC 19/18 A2985 RMK SLP108

CYOW;2009-08-19 07:00;CYOW 190700Z 25005KT 15SM SCT073 19/17 A2985 RMK AC3 SLP109

CYOW;2009-08-19 08:00;CYOW 190800Z 27005KT 15SM FEW060 19/17 A2986 RMK SC1 SLP111

CYOW;2009-08-19 09:00;CYOW 190900Z 25005KT 15SM SKC 19/17 A2987 RMK SLP114

CYOW;2009-08-19 10:00;CYOW 191000Z 25005KT 15SM FEW050 FEW120 FEW200 18/17 A2987 RMK CU1AC1CI1 SLP115

CYOW;2009-08-19 11:00;CYOW 191100Z 27004KT 15SM FEW050 FEW200 19/17 A2990 RMK CU1CI1 SLP123

CYOW;2009-08-19 12:00;CYOW 191200Z 28008KT 15SM FEW050 FEW200 FEW250 20/17 A2991 RMK CU1CI1CI1 CU LO CI TR SLP130

CYOW;2009-08-19 13:00;CYOW 191300Z 29011KT 15SM FEW050 FEW200 FEW250 20/14 A2992 RMK CU1CI1CI1 CU LO CI TR SLP131

CYOW;2009-08-19 14:00;CYOW 191400Z 30008KT 15SM FEW160 SCT200 BKN250 21/14 A2992 RMK AC1CI1CI0 SLP133

CYOW;2009-08-19 15:00;CYOW 191500Z 28006KT 15SM FEW160 SCT200 BKN250 22/14 A2993 RMK AC1CI1CI0 SLP135

CYOW;2009-08-19 17:00;CYOW 191700Z 27010KT 15SM FEW040 FEW120 SCT200 BKN250 24/14 A2994 RMK CU1AC1CI1CI0 CU TR SLP139

CYOW;2009-08-19 18:00;CYOW 191800Z 25008G15KT 15SM SCT050 25/14 A2994 RMK CU3 SLP139

CYOW;2009-08-19 19:00;CYOW 191900Z 26009KT 15SM SCT050 26/14 A2993 RMK CU3 SLP135

CYOW;2009-08-19 20:00;CYOW 192000Z 31007KT 15SM SCT050 26/13 A2992 RMK CU3 SLP133

CYOW;2009-08-19 21:00;CYOW 192100Z 27007KT 15SM FEW060 26/13 A2991 RMK CU2 SLP130

CYOW;2009-08-19 22:00;CYOW 192200Z 27005KT 15SM FEW060 25/13 A2991 RMK CU2 SLP130

CYOW;2009-08-19 23:00;CYOW 192300Z 27003KT 15SM FEW065 SCT240 24/13 A2991 RMK SC2CI1 SLP127

CYOW;2009-08-20 00:00;CYOW 200000Z 13003KT 15SM BKN060 BKN190 BKN240 23/14 A2992 RMK SC5AS1CI1 SLP131

CYOW;2009-08-20 01:00;CYOW 200100Z 12002KT 15SM SCT062 20/14 A2994 RMK SC4 SLP137

CYOW;2009-08-20 02:00;CYOW 200200Z 12003KT 15SM BKN065 20/15 A2995 RMK SC5 SLP142

CYOW;2009-08-20 03:00;CYOW 200300Z 21004KT 15SM BKN065 BKN200 20/15 A2995 RMK SC5CI2 SLP142

CYOW;2009-08-20 04:00;CYOW 200400Z 21003KT 15SM FEW065 20/15 A2995 RMK SC1 SLP141

CYOW;2009-08-20 05:00;CYOW 200500Z 18002KT 15SM SKC 18/15 A2994 RMK SLP139

CYOW;2009-08-20 06:00;CYOW 200600Z 00000KT 15SM FEW056 17/15 A2995 RMK SC2 SLP141

CYOW;2009-08-20 07:00;CYOW 200700Z 16003KT 15SM FEW070 17/15 A2993 RMK AC1 SLP136

CYOW;2009-08-20 08:00;CYOW 200800Z 12003KT 15SM SKC 16/14 A2993 RMK SLP136

CYOW;2009-08-20 09:00;CYOW 200900Z 14004KT 15SM FEW070 14/13 A2993 RMK AC1 SLP134

CYOW;2009-08-20 10:00;CYOW 201000Z 14002KT 15SM MIFG FEW100 SCT200 14/14 A2993 RMK AC2CI1 SLP134

CYOW;2009-08-20 11:00;CYOW 201100Z 08003KT 15SM SCT150 BKN200 16/15 A2993 RMK AC2CI1 SLP135

CYOW;2009-08-20 12:00;CYOW 201200Z 10005KT 15SM FEW150 BKN200 17/15 A2992 RMK AC1CI2 SLP132

CYOW;2009-08-20 13:00;CYOW 201300Z 09006KT 15SM BKN110 BKN160 19/15 A2992 RMK AC5AC2 SLP131

CYOW;2009-08-20 14:00;CYOW 201400Z 11005KT 15SM BKN090 BKN120 20/16 A2991 RMK AC6AC1 SLP127

CYOW;2009-08-20 14:10;CYOW 201410Z 05003KT 15SM -RA FEW045 OVC080 20/ RMK SC2AC6

CYOW;2009-08-20 15:00;CYOW 201500Z 05008KT 15SM -RA BKN042 OVC080 20/16 A2990 RMK SC6AC2 VRY LGT RA SLP125

CYOW;2009-08-20 15:32;CYOW 201532Z 05009KT 15SM SCT040 OVC078 20/ RMK SC3AC5

CYOW;2009-08-20 16:00;CYOW 201600Z 07009KT 15SM FEW045 OVC080 21/17 A2989 RMK SC2AC6 SLP122

CYOW;2009-08-20 16:28;CYOW 201628Z 08006KT 15SM -RA BKN027 OVC060 20/ RMK SC5SC3

CYOW;2009-08-20 17:00;CYOW 201700Z 08007KT 15SM -RA BKN029 OVC060 20/17 A2989 RMK SC5SC3 VRY LGT RA SLP122

CYOW;2009-08-20 18:00;CYOW 201800Z 11008KT 15SM -RA BKN021 OVC060 22/18 A2987 RMK SC5SC3 VRY LGT RA SLP116

CYOW;2009-08-20 19:00;CYOW 201900Z 13004KT 15SM -RA BKN019 OVC060 22/18 A2986 RMK SC6SC2 VRY LGT RA SLP113

CYOW;2009-08-20 19:21;CYOW 201921Z 09006KT 15SM BKN017 OVC060 22/ RMK SC6SC2

CYOW;2009-08-20 20:00;CYOW 202000Z 09007KT 15SM BKN015 OVC060 22/18 A2985 RMK SC7SC1 SLP107

CYOW;2009-08-20 20:26;CYOW 202026Z 08006KT 15SM BKN013 OVC060 21/ RMK SC7SC1

CYOW;2009-08-20 21:00;CYOW 202100Z 08007KT 15SM BKN013 OVC060 21/18 A2983 RMK SC7SC1 SLP103

CYOW;2009-08-20 22:00;CYOW 202200Z 07008KT 15SM BKN014 OVC060 21/19 A2982 RMK SC7SC1 SLP097

CYOW;2009-08-20 23:00;CYOW 202300Z 09007KT 12SM SCT012 BKN220 BKN250 21/19 A2979 RMK SC4CI2CI0 SLP089

CYOW;2009-08-21 00:00;CYOW 210000Z 08006KT 12SM FEW120 OVC250 20/19 A2978 RMK AC1CI4 SLP084

CYOW;2009-08-21 01:00;CYOW 210100Z 08007KT 10SM FEW030 BKN250 20/19 A2979 RMK SC2CI4 SLP089

CYOW;2009-08-21 02:00;CYOW 210200Z 09009KT 8SM FEW005 FEW030 OVC170 20/19 A2979 RMK SC1SC2AC6 SLP087

CYOW;2009-08-21 03:00;CYOW 210300Z 09008KT 8SM FEW004 SCT040 OVC180 20/19 A2977 RMK SC1SC3AS5 SLP082

CYOW;2009-08-21 04:00;CYOW 210400Z 09008KT 7SM -RA FEW030 OVC160 20/19 A2975 RMK SC1AS7 SLP074

CYOW;2009-08-21 04:16;CYOW 210416Z 09007KT 7SM FEW085 OVC180 20/ RMK AC2AC6

CYOW;2009-08-21 04:30;CYOW 210430Z 09007KT 7SM TS OVC140 20/ RMK AC8 CB EMBD LTGIC E

CYOW;2009-08-21 04:40;CYOW 210440Z 09004KT 7SM -TSRA BKN034 OVC140 20/ RMK SC5AC3 CB EMBD FRQ LTGIC

CYOW;2009-08-21 04:45;CYOW 210445Z 24003KT 1 1/2SM TSRA BR OVC030 20/ RMK SC8 CB EMBD FRQ LTGIC

CYOW;2009-08-21 05:00;CYOW 210500Z 18007KT 4SM TSRA BR FEW007 OVC044 21/21 A2978 RMK SC1SC7 CB EMBD FRQ LTGIC MOVG E SLP084

CYOW;2009-08-21 05:25;CYOW 210525Z 15006KT 7SM -RA OVC050 21/ RETS RMK SC8 LTGIC DIST NE

CYOW;2009-08-21 06:00;CYOW 210600Z 16005KT 8SM -RA FEW040 OVC120 21/20 A2976 RETS RMK SC1AS7 OCNL LTGIC DIST E S SLP077

CYOW;2009-08-21 07:00;CYOW 210700Z 15005KT 10SM FEW080 OVC170 21/21 A2975 RMK AC2AC6 SLP074

CYOW;2009-08-21 07:25;CYOW 210725Z 16005KT 10SM SCT004 SCT065 OVC140 21/ RMK SC3SC1AC4

CYOW;2009-08-21 07:48;CYOW 210748Z 16004KT 8SM FEW004 OVC014 21/ RMK SC2SC6

CYOW;2009-08-21 08:00;CYOW 210800Z 15008KT 8SM -RA SCT004 OVC011 21/21 A2975 RMK SC3SC5 SLP074

CYOW;2009-08-21 08:23;CYOW 210823Z 17005KT 8SM OVC007 21/ RMK SC8

CYOW;2009-08-21 09:00;CYOW 210900Z 18006KT 10SM FEW007 OVC012 21/21 A2978 RMK SC1SC7 SLP083

CYOW;2009-08-21 09:24;CYOW 210924Z 17006KT 10SM FEW007 BKN029 21/ RMK SC2SC6

CYOW;2009-08-21 10:00;CYOW 211000Z 17005KT 10SM FEW007 BKN030 21/21 A2978 RMK SC2SC4 SLP083

CYOW;2009-08-21 10:16;CYOW 211016Z 17005KT 10SM BKN005 BKN013 OVC250 21/ RMK SC5SC2CI2

CYOW;2009-08-21 11:00;CYOW 211100Z 18006KT 15SM FEW006 SCT013 BKN250 21/21 A2978 RMK SF2SC1CI1 SLP084

CYOW;2009-08-21 12:00;CYOW 211200Z 20006KT 15SM FEW013 FEW060 BKN190 22/21 A2979 RMK SF1SC1AC3 SF TR SLP088

CYOW;2009-08-21 13:00;CYOW 211300Z 20006KT 15SM BKN010 BKN060 BKN190 23/21 A2979 RMK SF5SC1AC1 SC TR SLP087

CYOW;2009-08-21 13:39;CYOW 211339Z 17006KT 15SM FEW010 BKN016 BKN060 23/ RMK SF2SC5SC1

CYOW;2009-08-21 14:00;CYOW 211400Z 17007KT 15SM BKN011 OVC030 23/21 A2979 RMK SF5SC3 SLP088

CYOW;2009-08-21 15:00;CYOW 211500Z 19005KT 15SM BKN012 OVC030 23/21 A2981 RMK SF6SC2 SLP094

CYOW;2009-08-21 16:00;CYOW 211600Z 19005KT 15SM SCT013 OVC022 23/21 A2979 RMK SF3SC5 SLP089

CYOW;2009-08-21 17:00;CYOW 211700Z 16005KT 15SM BKN014 OVC025 23/21 A2978 RMK SC5SC3 SLP085

CYOW;2009-08-21 18:00;CYOW 211800Z 19008KT 12SM -RA OVC019 24/21 A2978 RMK SC8 SLP083

CYOW;2009-08-21 18:31;CYOW 211831Z 22005KT 15SM SCT020 BKN110 21/ RMK SC4AC3

CYOW;2009-08-21 19:00;CYOW 211900Z 27002KT 15SM FEW020 BKN130 22/20 A2975 RMK SC2AC6 SLP073

CYOW;2009-08-21 20:00;CYOW 212000Z 18004KT 15SM FEW120 SCT200 24/22 A2974 RMK AC2CI1 SLP072

CYOW;2009-08-21 21:00;CYOW 212100Z 20007KT 15SM FEW040 FEW120 26/20 A2974 RMK CU1AC1 SLP070

CYOW;2009-08-21 22:00;CYOW 212200Z 20007KT 15SM SCT044 25/20 A2974 RMK CU3 SLP071

CYOW;2009-08-21 23:00;CYOW 212300Z 21006KT 15SM FEW050 FEW180 25/19 A2975 RMK CU1AC1 SLP073

CYOW;2009-08-22 00:00;CYOW 220000Z 17004KT 15SM FEW050 FEW180 23/20 A2976 RMK CU1AC1 CU TR SLP077

CYOW;2009-08-22 01:00;CYOW 220100Z 18005KT 15SM FEW180 22/20 A2978 RMK AC1 SLP084

CYOW;2009-08-22 02:00;CYOW 220200Z 17003KT 15SM SKC 21/19 A2978 RMK SLP085

CYOW;2009-08-22 03:00;CYOW 220300Z 20005KT 15SM SKC 21/19 A2979 RMK SLP088

CYOW;2009-08-22 04:00;CYOW 220400Z 20004KT 15SM SKC 20/19 A2979 RMK SLP088

CYOW;2009-08-22 05:00;CYOW 220500Z 22006KT 15SM FEW130 22/18 A2980 RMK AC1 SLP090

CYOW;2009-08-22 06:00;CYOW 220600Z 21006KT 15SM BKN120 21/19 A2981 RMK AC6 SLP093

CYOW;2009-08-22 07:00;CYOW 220700Z 21004KT 15SM SCT110 21/20 A2982 RMK AC3 SLP096

CYOW;2009-08-22 08:00;CYOW 220800Z 20004KT 15SM SKC 20/19 A2982 RMK SLP097

CYOW;2009-08-22 09:00;CYOW 220900Z 18004KT 15SM SKC 20/18 A2983 RMK SLP101

CYOW;2009-08-22 09:45;CYOW 220945Z 20003KT 6SM BR SCT005 19/ RMK SF4

CYOW;2009-08-22 10:00;CYOW 221000Z 19003KT 4SM BR FEW004 SCT210 19/19 A2984 RMK SF2CI1 SLP103

CYOW;2009-08-22 10:34;CYOW 221034Z 19003KT 1SM BR BKN002 BKN240 19/ RMK ST5CI1

CYOW;2009-08-22 11:00;CYOW 221100Z 20003KT 2SM BR BKN002 BKN240 19/19 A2985 RMK SF5CI1 SLP106

CYOW;2009-08-22 11:49;CYOW 221149Z 18006KT 3SM BR BKN004 BKN240 20/ RMK SF5CI2

CYOW;2009-08-22 12:00;CYOW 221200Z 18005KT 4SM BR SCT004 BKN240 20/19 A2986 RMK SF3CI1 SLP113

CYOW;2009-08-22 13:00;CYOW 221300Z 18004KT 5SM BR FEW004 SCT095 BKN110 21/20 A2987 RMK SF2AC2AC3 SLP114

CYOW;2009-08-22 14:00;CYOW 221400Z 18004KT 10SM FEW007 FEW020 BKN090 BKN180 22/20 A2987 RMK SF2CU1AC2AC2 SLP115

CYOW;2009-08-22 15:00;CYOW 221500Z 20006KT 12SM FEW020 BKN100 BKN210 BKN240 24/20 A2988 RMK CU2AC2CC2CI0 SLP117

CYOW;2009-08-22 16:00;CYOW 221600Z 20005KT 15SM FEW030 SCT100 BKN240 25/20 A2987 RMK CU2AC2CI1 SLP114

CYOW;2009-08-22 17:00;CYOW 221700Z 16010KT 15SM SCT030 BKN180 BKN240 27/19 A2985 RMK CU3AC2CI0 SLP109

CYOW;2009-08-22 18:00;CYOW 221800Z 19008KT 15SM SCT040 BKN180 BKN240 27/18 A2985 RMK CU3AC2CI0 SLP106

CYOW;2009-08-22 19:00;CYOW 221900Z CCA 20005KT 15SM SCT044 BKN100 BKN240 27/18 A2983 RMK CU3AC3CI0 SH DIST N SLP102

CYOW;2009-08-22 19:37;CYOW 221937Z 26008KT 15SM -SHRA BKN045TCU OVC100 23/ RMK TCU5AC3

CYOW;2009-08-22 20:00;CYOW 222000Z 32007KT 15SM VCSH SCT045TCU BKN090 23/19 A2984 RERA RMK TCU3AC4 SLP105

CYOW;2009-08-22 21:00;CYOW 222100Z 35008KT 15SM SCT090 BKN240 24/19 A2983 RMK AC3CI1 SLP101

CYOW;2009-08-22 22:00;CYOW 222200Z 01005KT 15SM FEW050 SCT090 BKN240 24/19 A2983 RMK CU2AC2CI0 TCU E SLP102

CYOW;2009-08-22 23:00;CYOW 222300Z 06006KT 15SM FEW050TCU SCT090 BKN240 24/19 A2983 RMK TCU1AC2CI2 SLP102

CYOW;2009-08-23 00:00;CYOW 230000Z 05005KT 15SM FEW050TCU FEW070 SCT090 BKN240 22/19 A2985 RMK TCU1ACC1AC2CI2 SLP107

CYOW;2009-08-23 01:00;CYOW 230100Z 05004KT 15SM FEW050TCU FEW090 BKN240 21/18 A2987 RMK TCU1AC2CI2 SLP116

CYOW;2009-08-23 02:00;CYOW 230200Z 35005KT 15SM FEW090 SCT240 20/18 A2988 RMK AC2CI2 SLP119

CYOW;2009-08-23 03:00;CYOW 230300Z 36005KT 15SM FEW090 20/18 A2988 RMK AC2 SLP118

CYOW;2009-08-23 04:00;CYOW 230400Z 36007KT 15SM FEW090 19/18 A2987 RMK AC1 SLP115

CYOW;2009-08-23 05:00;CYOW 230500Z 35006KT 15SM FEW090 19/18 A2987 RMK AC1 SLP114

CYOW;2009-08-23 06:00;CYOW 230600Z 36006KT 15SM FEW170 19/17 A2986 RMK AC2 SLP110

CYOW;2009-08-23 07:00;CYOW 230700Z 36007KT 15SM FEW170 19/17 A2985 RMK AC2 SLP107

CYOW;2009-08-23 08:00;CYOW 230800Z 01006KT 15SM FEW170 18/16 A2985 RMK AC1 SLP107

CYOW;2009-08-23 09:00;CYOW 230900Z 36006KT 15SM SCT170 18/16 A2985 RMK AC3 SLP110

CYOW;2009-08-23 10:00;CYOW 231000Z 33007KT 15SM FEW005 FEW070 BKN170 17/16 A2987 RMK SF1ACC1AC5 SF ACC TR SLP114

CYOW;2009-08-23 11:00;CYOW 231100Z 34007KT 15SM FEW005 FEW040 17/16 A2988 RMK CF1SC2 SLP117

CYOW;2009-08-23 12:00;CYOW 231200Z 36009KT 15SM FEW010 FEW080 SCT240 18/17 A2988 RMK CF1AC2CI0 SLP120

CYOW;2009-08-23 13:00;CYOW 231300Z 36010KT 15SM FEW010 SCT080 20/17 A2989 RMK CF2AC2 ACC ASOCTD SLP123

CYOW;2009-08-23 14:00;CYOW 231400Z 35005KT 15SM FEW010 FEW080 21/17 A2991 RMK CF1AC1 ACC ASOCTD SLP127

CYOW;2009-08-23 15:00;CYOW 231500Z 32006KT 15SM FEW017 FEW080 SCT180 22/18 A2991 RMK CF2ACC1AC2 SLP130

CYOW;2009-08-23 16:00;CYOW 231600Z 31003KT 15SM BKN024 BKN080 23/18 A2991 RMK CU5AC1 SLP130

CYOW;2009-08-23 17:00;CYOW 231700Z 31005KT 15SM BKN024 BKN130 24/19 A2991 RMK CU6AC1 SLP130

CYOW;2009-08-23 18:00;CYOW 231800Z 30006KT 15SM BKN030 BKN130 24/19 A2991 RMK CU5AC1 SLP129

CYOW;2009-08-23 19:00;CYOW 231900Z 32007KT 15SM BKN030 BKN130 25/19 A2992 RMK CU5AC2 TCU E SLP131

CYOW;2009-08-23 20:00;CYOW 232000Z 27008KT 15SM SCT030 BKN170 24/18 A2992 RMK CU3AC3 TCU ASOCTD SLP133

CYOW;2009-08-23 21:00;CYOW 232100Z 31007KT 15SM FEW030 BKN160 24/18 A2992 RMK CU2AC4 SLP132

CYOW;2009-08-23 22:00;CYOW 232200Z 30007KT 15SM FEW030 BKN130 BKN160 25/18 A2991 RMK CU2AC2AC2 SH DIST W SLP129

CYOW;2009-08-23 23:00;CYOW 232300Z 30005KT 15SM FEW030 FEW060 BKN130 BKN160 23/18 A2993 RMK CU1SC1AC6AC2 LO CLDS TR SLP134

CYOW;2009-08-24 00:00;CYOW 240000Z 26005KT 15SM FEW030 FEW060 BKN120 BKN160 21/18 A2994 RMK CU1SC1AC5AC2 LO CLDS TR SLP139

CYOW;2009-08-24 01:00;CYOW 240100Z 27004KT 15SM FEW060 BKN100 21/18 A2996 RMK SC2AC3 SLP147

CYOW;2009-08-24 02:00;CYOW 240200Z 33005KT 15SM FEW060 FEW100 BKN160 21/17 A2996 RMK SC1AC2AC3 SLP147

CYOW;2009-08-24 03:00;CYOW 240300Z 36006KT 15SM FEW160 20/16 A2997 RMK AC2 SLP150

CYOW;2009-08-24 04:00;CYOW 240400Z 36007KT 15SM BKN085 19/15 A2998 RMK AC6 SLP152

CYOW;2009-08-24 05:00;CYOW 240500Z 35007KT 15SM BKN045 19/15 A2999 RMK SC5 SLP156

CYOW;2009-08-24 06:00;CYOW 240600Z 36006KT 15SM SCT054 BKN078 19/15 A2999 RMK SC3AC4 SLP155

CYOW;2009-08-24 07:00;CYOW 240700Z 32005KT 15SM BKN055 BKN080 19/15 A2999 RMK SC5AC2 SLP157

CYOW;2009-08-24 08:00;CYOW 240800Z 33005KT 15SM BKN078 18/14 A3000 RMK AC6 SLP159

CYOW;2009-08-24 09:00;CYOW 240900Z 27003KT 15SM SCT055 17/15 A3002 RMK SC3 SLP165

CYOW;2009-08-24 10:00;CYOW 241000Z 32004KT 15SM BKN058 17/15 A3003 RMK SC6 SLP169

CYOW;2009-08-24 11:00;CYOW 241100Z 31004KT 15SM BKN060 17/15 A3005 RMK SC6 SLP176

CYOW;2009-08-24 12:00;CYOW 241200Z 29002KT 15SM BKN060 18/15 A3006 RMK SC6 SLP180

CYOW;2009-08-24 13:00;CYOW 241300Z 35003KT 15SM BKN055 20/15 A3006 RMK SC6 SLP181

CYOW;2009-08-24 14:00;CYOW 241400Z 32007KT 15SM BKN055 21/15 A3007 RMK SC6 SLP183

CYOW;2009-08-24 15:00;CYOW 241500Z 28005KT 15SM FEW020 BKN057 21/16 A3008 RMK CU2SC4 SLP186

CYOW;2009-08-24 16:00;CYOW 241600Z 29002KT 15SM FEW030 SCT060 23/15 A3008 RMK CU2SC2 SLP188

CYOW;2009-08-24 17:00;CYOW 241700Z 29008KT 15SM SCT040 SCT060 23/14 A3010 RMK CU3SC1 SLP192

CYOW;2009-08-24 18:00;CYOW 241800Z 27012KT 15SM BKN036 BKN150 23/15 A3010 RMK CU5AC1 SLP192

CYOW;2009-08-24 19:00;CYOW 241900Z 29010KT 15SM SCT036 SCT160 23/14 A3009 RMK CU3AC1 SLP189

CYOW;2009-08-24 20:00;CYOW 242000Z 27008KT 15SM FEW040 FEW160 23/14 A3008 RMK CU2AC1 SLP188

CYOW;2009-08-24 21:00;CYOW 242100Z 28009KT 15SM FEW040 FEW160 23/12 A3008 RMK CU2AC1 SLP188

CYOW;2009-08-24 22:00;CYOW 242200Z 28008KT 15SM FEW040 23/12 A3008 RMK CU2 SLP185

CYOW;2009-08-24 23:00;CYOW 242300Z 29005KT 15SM FEW050 22/12 A3007 RMK CU1 SLP184

CYOW;2009-08-25 00:00;CYOW 250000Z 30006KT 15SM FEW050 19/10 A3008 RMK SC1 SLP187

CYOW;2009-08-25 01:00;CYOW 250100Z 27003KT 15SM SKC 19/11 A3011 RMK SLP196

CYOW;2009-08-25 02:00;CYOW 250200Z 00000KT 15SM SKC 18/11 A3011 RMK SLP198

CYOW;2009-08-25 03:00;CYOW 250300Z 32002KT 15SM SKC 17/11 A3012 RMK SLP199

CYOW;2009-08-25 04:00;CYOW 250400Z 27002KT 15SM SKC 17/12 A3011 RMK SLP197

CYOW;2009-08-25 05:00;CYOW 250500Z 23002KT 15SM SKC 15/12 A3011 RMK SLP198

CYOW;2009-08-25 06:00;CYOW 250600Z 21003KT 15SM SKC 14/12 A3012 RMK SLP199

CYOW;2009-08-25 07:00;CYOW 250700Z 22002KT 15SM SKC 13/12 A3013 RMK SLP202

CYOW;2009-08-25 08:00;CYOW 250800Z 28002KT 15SM SKC 14/12 A3012 RMK SLP200

CYOW;2009-08-25 09:00;CYOW 250900Z 27002KT 15SM FEW180 14/11 A3014 RMK AC1 SLP208

CYOW;2009-08-25 10:00;CYOW 251000Z 19002KT 15SM BKN190 13/12 A3014 RMK AC6 SLP209

CYOW;2009-08-25 11:00;CYOW 251100Z 00000KT 15SM FEW150 14/12 A3014 RMK AC1 SLP208

CYOW;2009-08-25 12:00;CYOW 251200Z 00000KT 15SM SCT150 17/14 A3013 RMK AC2 SLP203

CYOW;2009-08-25 13:00;CYOW 251300Z 19003KT 15SM SCT150 18/14 A3011 RMK AC2 SLP199

CYOW;2009-08-25 14:00;CYOW 251400Z 22004KT 15SM FEW025 FEW150 FEW210 21/15 A3010 RMK CU1AC1CI0 SLP195

CYOW;2009-08-25 15:00;CYOW 251500Z 22011KT 15SM FEW025 FEW150 FEW210 23/15 A3009 RMK CU1AC1CI0 SLP189

CYOW;2009-08-25 16:00;CYOW 251600Z 24012KT 15SM FEW030 SCT150 BKN210 23/15 A3007 RMK CU2AC1CI0 SLP183

CYOW;2009-08-25 17:00;CYOW 251700Z 23010G15KT 15SM FEW035 BKN150 BKN210 24/15 A3005 RMK CU2AC1CI0 SLP178

CYOW;2009-08-25 18:00;CYOW 251800Z 23008KT 15SM FEW045 BKN150 BKN210 24/15 A3003 RMK CU2AC1CI0 SLP171

CYOW;2009-08-25 19:00;CYOW 251900Z 22011KT 15SM FEW045 FEW170 FEW210 26/15 A3000 RMK CU1AC0CI0 SLP161

CYOW;2009-08-25 20:00;CYOW 252000Z 20011G17KT 15SM FEW045 SCT130 BKN210 25/16 A2998 RMK CU1AC1CI0 SLP153

CYOW;2009-08-25 21:00;CYOW 252100Z 20013G19KT 15SM FEW045 FEW200 BKN240 25/16 A2994 RMK CU1CI1CI1 SLP140

CYOW;2009-08-25 22:00;CYOW 252200Z 21012KT 15SM FEW060 SCT130 BKN180 BKN200 24/16 A2994 RMK SC1AC3AC2CI0 SLP140

CYOW;2009-08-25 23:00;CYOW 252300Z 20009KT 15SM FEW130 FEW200 BKN240 23/16 A2994 RMK AC1CI2CI3 SLP138

CYOW;2009-08-26 00:00;CYOW 260000Z CCA 21010KT 15SM FEW130 SCT200 OVC240 21/16 A2995 RMK AC1CI2CI1 SLP142

CYOW;2009-08-26 01:00;CYOW 260100Z 20009KT 15SM FEW200 SCT240 20/15 A2992 RMK CI2CI0 SLP134

CYOW;2009-08-26 02:00;CYOW 260200Z 21008KT 15SM SKC 19/15 A2992 RMK SLP132

CYOW;2009-08-26 03:00;CYOW 260300Z 22008KT 15SM FEW130 19/16 A2991 RMK AC2 SLP128

CYOW;2009-08-26 04:00;CYOW 260400Z 21007KT 15SM FEW200 BKN230 19/16 A2988 RMK CI2CI3 SLP120

CYOW;2009-08-26 05:00;CYOW 260500Z 22010KT 15SM SCT190 20/17 A2988 RMK AC4 SLP117

CYOW;2009-08-26 06:00;CYOW 260600Z 23010KT 12SM BKN059 20/17 A2986 RMK SC6 SLP112

CYOW;2009-08-26 07:00;CYOW 260700Z 22008KT 12SM OVC069 20/17 A2985 RMK AC8 SLP107

CYOW;2009-08-26 08:00;CYOW 260800Z 22007KT 12SM SCT057 OVC075 20/17 A2984 RMK SC3AC5 SLP103

CYOW;2009-08-26 09:00;CYOW 260900Z 23008KT 12SM FEW055 OVC072 20/17 A2985 RMK SC1AC7 SLP106

CYOW;2009-08-26 10:00;CYOW 261000Z 23008KT 12SM FEW050 FEW075 BKN110 20/18 A2985 RMK SC1AC2AC4 SLP108

CYOW;2009-08-26 11:00;CYOW 261100Z 27008KT 15SM BKN037 BKN100 21/18 A2986 RMK SC5AC2 SLP110

CYOW;2009-08-26 12:00;CYOW 261200Z 29012G18KT 15SM FEW025 FEW040 BKN130 20/15 A2988 RMK CU1SC1AC4 SC TR SLP119

CYOW;2009-08-26 13:00;CYOW 261300Z 29012G19KT 15SM FEW025 SCT130 21/14 A2990 RMK CU2AC2 SLP126

CYOW;2009-08-26 14:00;CYOW 261400Z 31012G22KT 15SM BKN037 BKN070 21/13 A2992 RMK CU6AC1 SLP132

CYOW;2009-08-26 15:00;CYOW 261500Z 34015G20KT 15SM FEW035 FEW070 19/11 A2996 RMK CU1AC1 SLP145

CYOW;2009-08-26 16:00;CYOW 261600Z 33013G18KT 15SM FEW035 FEW070 19/10 A2997 RMK CU1AC1 SLP150

CYOW;2009-08-26 17:00;CYOW 261700Z 36016KT 15SM FEW040 FEW070 FEW240 19/09 A2998 RMK CU1AC1CI1 SLP152

CYOW;2009-08-26 18:00;CYOW 261800Z 34012G17KT 15SM FEW040 FEW070 21/09 A2998 RMK CU1AC1 SLP153

CYOW;2009-08-26 19:00;CYOW 261900Z 32012G17KT 15SM FEW040 FEW070 21/08 A2999 RMK CU1AC1 SLP155

CYOW;2009-08-26 20:00;CYOW 262000Z 32008G16KT 15SM FEW070 21/08 A2999 RMK AC1 SLP156

CYOW;2009-08-26 21:00;CYOW 262100Z 33010KT 15SM FEW070 21/08 A3000 RMK AC1 SLP158

CYOW;2009-08-26 22:00;CYOW 262200Z 21007G17KT 15SM FEW070 20/08 A3001 RMK AC1 SLP162

CYOW;2009-08-26 23:00;CYOW 262300Z 32011KT 20SM SKC 19/06 A3003 RMK SLP168

CYOW;2009-08-27 00:00;CYOW 270000Z 32006KT 20SM SKC 16/06 A3005 RMK SLP175

CYOW;2009-08-27 01:00;CYOW 270100Z 34007KT 15SM SKC 15/06 A3007 RMK SLP183

CYOW;2009-08-27 02:00;CYOW 270200Z 36010KT 15SM SKC 16/05 A3009 RMK SLP189

CYOW;2009-08-27 03:00;CYOW 270300Z 35006KT 15SM SKC 14/05 A3011 RMK SLP196

CYOW;2009-08-27 04:00;CYOW 270400Z 36006KT 15SM SKC 13/05 A3011 RMK SLP199

CYOW;2009-08-27 05:00;CYOW 270500Z 34004KT 15SM SKC 11/05 A3012 RMK SLP200

CYOW;2009-08-27 06:00;CYOW 270600Z 33003KT 15SM SKC 12/06 A3011 RMK SLP198

CYOW;2009-08-27 07:00;CYOW 270700Z 28003KT 15SM SKC 10/06 A3013 RMK SLP203

CYOW;2009-08-27 08:00;CYOW 270800Z 32004KT 15SM SKC 10/06 A3013 RMK SLP204

CYOW;2009-08-27 09:00;CYOW 270900Z 25003KT 15SM SKC 09/06 A3014 RMK SLP209

CYOW;2009-08-27 10:00;CYOW 271000Z 27002KT 15SM FEW180 FEW220 08/07 A3016 RMK AC1CI2 SLP213

CYOW;2009-08-27 11:00;CYOW 271100Z 34004KT 15SM FEW180 FEW240 08/06 A3017 RMK AC1CI1 SLP218

CYOW;2009-08-27 12:00;CYOW 271200Z 01006KT 15SM FEW010 FEW240 11/08 A3019 RMK CF1CI1 TR CUFRA SLP227

CYOW;2009-08-27 13:00;CYOW 271300Z 02004KT 15SM FEW020 FEW240 13/06 A3021 RMK CF1CI1 TR CUFRA SLP231

CYOW;2009-08-27 14:00;CYOW 271400Z 33004KT 15SM FEW030 SCT240 13/06 A3020 RMK CU1CI1 SLP230

CYOW;2009-08-27 15:00;CYOW 271500Z 28004KT 15SM FEW030 BKN240 15/07 A3019 RMK CU1CI1 SLP227

CYOW;2009-08-27 16:00;CYOW 271600Z 31008KT 15SM FEW040 BKN240 15/06 A3020 RMK CF1CI1 SLP228

CYOW;2009-08-27 17:00;CYOW 271700Z 32006KT 15SM FEW040 BKN240 17/06 A3019 RMK CF1CI2 TR CF SLP226

CYOW;2009-08-27 18:00;CYOW 271800Z 30004KT 15SM BKN240 18/07 A3017 RMK CI2 SLP220

CYOW;2009-08-27 19:00;CYOW 271900Z 27007KT 15SM BKN240 18/06 A3016 RMK CI2 SLP217

CYOW;2009-08-27 20:00;CYOW 272000Z 34008KT 15SM FEW050 BKN240 19/05 A3016 RMK CU1CI2 TR CU SLP216

CYOW;2009-08-27 21:00;CYOW 272100Z 36008KT 15SM BKN240 18/05 A3016 RMK CI3 SLP216

CYOW;2009-08-27 22:00;CYOW 272200Z 34005KT 15SM BKN240 18/06 A3016 RMK CS4 HALO SLP215

CYOW;2009-08-27 23:00;CYOW 272300Z 03004KT 15SM SCT200 BKN240 16/06 A3016 RMK CI3CS3 SLP215

CYOW;2009-08-28 00:00;CYOW 280000Z 06004KT 15SM FEW200 BKN240 15/06 A3017 RMK CI1CS2 SLP218

CYOW;2009-08-28 01:00;CYOW 280100Z 16002KT 15SM FEW200 BKN240 13/06 A3019 RMK CI1CI1 SLP224

CYOW;2009-08-28 02:00;CYOW 280200Z 00000KT 15SM BKN240 14/06 A3020 RMK CI3 SLP229

CYOW;2009-08-28 03:00;CYOW 280300Z 00000KT 15SM BKN220 13/05 A3020 RMK CI5 SLP228

CYOW;2009-08-28 04:00;CYOW 280400Z 00000KT 15SM BKN220 12/05 A3019 RMK CI3 SLP226

CYOW;2009-08-28 05:00;CYOW 280500Z 00000KT 15SM OVC230 11/07 A3019 RMK CI4 SLP227

CYOW;2009-08-28 06:00;CYOW 280600Z 06003KT 15SM BKN230 12/09 A3019 RMK CI2 SLP226

CYOW;2009-08-28 07:00;CYOW 280700Z 03004KT 15SM FEW190 BKN230 11/09 A3019 RMK AC1CI0 SLP227

CYOW;2009-08-28 08:00;CYOW 280800Z 04004KT 15SM SCT091 OVC230 11/08 A3020 RMK AC3CI1 SLP230

CYOW;2009-08-28 09:00;CYOW 280900Z 07003KT 15SM BKN089 11/08 A3021 RMK AC7 SLP232

CYOW;2009-08-28 10:00;CYOW 281000Z 04006KT 15SM BKN084 BKN230 11/07 A3022 RMK AC6CI1 SLP237

CYOW;2009-08-28 11:00;CYOW 281100Z 06006KT 15SM BKN080 10/07 A3023 RMK AC6 SLP238

CYOW;2009-08-28 12:00;CYOW 281200Z 07006KT 15SM BKN080 11/07 A3024 RMK AC6 SLP243

CYOW;2009-08-28 13:00;CYOW 281300Z 08007KT 15SM BKN077 BKN240 12/07 A3024 RMK AC6CI1 SLP242

CYOW;2009-08-28 14:00;CYOW 281400Z 09007KT 15SM FEW077 SCT240 14/08 A3023 RMK AC2CI2 SLP238

CYOW;2009-08-28 15:00;CYOW 281500Z 07006KT 15SM FEW150 SCT240 16/08 A3023 RMK AC2CI2 SLP238

CYOW;2009-08-28 16:00;CYOW 281600Z 06008KT 15SM FEW090 FEW150 BKN240 17/07 A3021 RMK AC2AC1CI1 SLP233

CYOW;2009-08-28 17:00;CYOW 281700Z 13005KT 15SM BKN090 BKN240 19/08 A3020 RMK AC6CI1 SLP229

CYOW;2009-08-28 18:00;CYOW 281800Z 10005KT 15SM FEW090 OVC270 18/07 A3018 RMK AC2CS3 FAINT HALO SLP222

CYOW;2009-08-28 19:00;CYOW 281900Z 09006G15KT 15SM OVC180 18/07 A3018 RMK AS8 SLP223

CYOW;2009-08-28 20:00;CYOW 282000Z 09007KT 15SM FEW050 FEW090 OVC180 18/08 A3017 RMK CU1AC2AS6 SLP218

CYOW;2009-08-28 21:00;CYOW 282100Z 07008KT 15SM FEW090 OVC180 17/08 A3014 RMK AC1AS7 SLP210

CYOW;2009-08-28 22:00;CYOW 282200Z 07009KT 15SM FEW090 OVC150 17/08 A3014 RMK AC1AS7 SLP207

CYOW;2009-08-28 23:00;CYOW 282300Z 07008KT 15SM BKN170 OVC180 16/09 A3011 RMK AC5AS3 SLP200

CYOW;2009-08-29 00:00;CYOW 290000Z 07010KT 15SM BKN160 OVC180 15/08 A3010 RMK AC5AS3 SLP194

CYOW;2009-08-29 01:00;CYOW 290100Z 07008KT 15SM OVC160 15/08 A3011 RMK AS8 SLP197

CYOW;2009-08-29 02:00;CYOW 290200Z 07009KT 15SM BKN130 OVC160 15/08 A3009 RMK AC5AS3 SLP192

CYOW;2009-08-29 03:00;CYOW 290300Z 07010KT 15SM BKN110 OVC130 14/09 A3007 RMK AC5AC3 SLP184

CYOW;2009-08-29 04:00;CYOW 290400Z 07011G16KT 15SM BKN120 OVC140 14/08 A3004 RMK AC5AC3 SLP175

CYOW;2009-08-29 05:00;CYOW 290500Z 07011KT 15SM BKN120 OVC140 14/07 A3002 RMK AC5AC3 SLP169

CYOW;2009-08-29 06:00;CYOW 290600Z 07012KT 15SM -RA FEW040 OVC100 13/07 A3000 RMK SC1AC7 SLP162

CYOW;2009-08-29 07:00;CYOW 290700Z 06009KT 15SM -RA BKN040 OVC090 13/08 A2999 RMK SC5AC3 SLP156

CYOW;2009-08-29 07:43;CYOW 290743Z 07016KT 15SM FEW060 OVC080 13/ RMK SC2AC6

CYOW;2009-08-29 08:00;CYOW 290800Z 07013KT 15SM FEW060 OVC075 13/07 A2995 RMK SC2AC6 SLP144

CYOW;2009-08-29 09:00;CYOW 290900Z 07015G21KT 15SM BKN051 OVC073 13/07 A2993 RMK SC5AC3 SLP136

CYOW;2009-08-29 10:00;CYOW 291000Z 07011G18KT 15SM FEW010 OVC040 12/09 A2991 RMK SF1SC7 SLP131

CYOW;2009-08-29 10:21;CYOW 291021Z 07012KT 15SM -RA OVC012 12/ RMK SC8

CYOW;2009-08-29 10:34;CYOW 291034Z 07013KT 2SM -RA BR OVC012 11/ RMK SC8

CYOW;2009-08-29 11:00;CYOW 291100Z 06014KT 2SM -RA BR OVC010 11/10 A2989 RMK SC8 SLP124

CYOW;2009-08-29 11:25;CYOW 291125Z 06012G17KT 2SM -RA BR BKN005 OVC010 11/ RMK SF5SC3

CYOW;2009-08-29 12:00;CYOW 291200Z 07015KT 2SM RA BR BKN005 OVC010 11/11 A2987 RMK SF6NS2 SLP118

CYOW;2009-08-29 12:39;CYOW 291239Z 07014G19KT 3SM -RA BR BKN003 OVC010 12/ RMK SF6NS2

CYOW;2009-08-29 13:00;CYOW 291300Z 07014KT 4SM -RA BR BKN003 OVC010 12/11 A2984 RERA RMK SF5NS3 SLP107

CYOW;2009-08-29 14:00;CYOW 291400Z 08016G25KT 5SM -RA BR BKN004 OVC010 12/12 A2981 RMK SF5NS3 SLP098

CYOW;2009-08-29 15:00;CYOW 291500Z 08013G21KT 6SM -RA BR BKN004 OVC010 13/12 A2979 RMK SF6NS2 SLP090

CYOW;2009-08-29 16:00;CYOW 291600Z 08013KT 4SM -RA BR BKN004 OVC010 13/13 A2977 RMK SF6NS2 SLP083

CYOW;2009-08-29 16:38;CYOW 291638Z 09015KT 1 1/2SM +RA BR OVC004 13/ RMK SF8

CYOW;2009-08-29 16:51;CYOW 291651Z 09013G19KT 3SM RA BR OVC004 13/ RERA RMK SF8

CYOW;2009-08-29 17:00;CYOW 291700Z 09012G17KT 3SM RA BR OVC004 14/13 A2974 RERA RMK SF8 SLP074

CYOW;2009-08-29 18:00;CYOW 291800Z 09014G25KT 6SM -RA BR BKN005 OVC010 14/14 A2972 RERA RMK SF6NS2 SLP066

CYOW;2009-08-29 18:09;CYOW 291809Z 08013G19KT 1 1/2SM +RA BR OVC004 14/ RMK SF8

CYOW;2009-08-29 18:43;CYOW 291843Z 07011KT 4SM RA BR OVC004 14/ RERA RMK SF8

CYOW;2009-08-29 19:00;CYOW 291900Z 08010G15KT 4SM -RA BR OVC003 14/14 A2971 RERA RMK SF8 SLP061

CYOW;2009-08-29 19:30;CYOW 291930Z 08011KT 2SM RA BR OVC004 14/ RMK SF8

CYOW;2009-08-29 20:00;CYOW 292000Z 08015G20KT 3SM RA BR OVC003 14/14 A2967 RMK SF8 SLP049

CYOW;2009-08-29 20:24;CYOW 292024Z 08014KT 10SM FEW003 OVC010 15/ RERA RMK SF2SC6

CYOW;2009-08-29 20:55;CYOW 292055Z 07013KT 5SM -RA BR BKN005 OVC017 15/ RMK SF5SC3

CYOW;2009-08-29 21:00;CYOW 292100Z 07010G17KT 4SM -RA BR OVC005 15/14 A2965 RERA RMK SF8 SLP042

CYOW;2009-08-29 21:37;CYOW 292137Z 08014KT 6SM BR OVC004 15/ RMK SF8

CYOW;2009-08-29 22:00;CYOW 292200Z 08011G17KT 6SM BR OVC004 15/14 A2964 RMK SF8 SLP039

CYOW;2009-08-29 22:49;CYOW 292249Z 09010KT 10SM OVC005 15/ RMK SF8

CYOW;2009-08-29 23:00;CYOW 292300Z 09009KT 12SM OVC005 15/15 A2965 RMK SF8 SLP040

CYOW;2009-08-29 23:25;CYOW 292325Z 09011KT 12SM -SHRA OVC005 15/ RMK SF8 CVCTV CLD EMBD

CYOW;2009-08-29 23:53;CYOW 292353Z 10012KT 12SM BKN005 BKN021 15/ RMK SF6SC1

CYOW;2009-08-30 00:00;CYOW 300000Z 11008G15KT 12SM -SHRA OVC005 15/15 A2965 RMK SF8 SLP043

CYOW;2009-08-30 00:17;CYOW 300017Z 06005KT 12SM OVC005 15/ RMK SF8

CYOW;2009-08-30 01:00;CYOW 300100Z 08010KT 15SM OVC005 15/15 A2965 RMK SF8 SLP043

CYOW;2009-08-30 02:00;CYOW 300200Z 08007KT 15SM OVC005 15/15 A2966 RMK SF8 SLP046

CYOW;2009-08-30 02:47;CYOW 300247Z 03005KT 8SM OVC003 15/ RMK ST8

CYOW;2009-08-30 03:00;CYOW 300300Z 02003KT 5SM BR OVC003 15/15 A2967 RMK ST8 SLP048

CYOW;2009-08-30 03:12;CYOW 300312Z 01004KT 4SM -SHRA BR OVC003 15/ RMK SF8 CVCTV CLD EMBD

CYOW;2009-08-30 03:44;CYOW 300344Z 04004KT 3SM BR OVC003 14/ RMK FG1SF7

CYOW;2009-08-30 04:00;CYOW 300400Z 05002KT 4SM BR OVC002 14/14 A2968 RMK ST8 SLP052

CYOW;2009-08-30 04:33;CYOW 300433Z 35003KT 2SM BR OVC002 14/ RMK FG3ST5

CYOW;2009-08-30 05:00;CYOW 300500Z 00000KT 2SM BR OVC002 14/14 A2969 RMK FG3ST5 SLP056

CYOW;2009-08-30 05:17;CYOW 300517Z 00000KT 2SM BR OVC004 14/ RMK FG3SF5

CYOW;2009-08-30 06:00;CYOW 300600Z 15003KT 1 1/2SM BR OVC004 15/14 A2969 RMK FG5ST3 SLP057

CYOW;2009-08-30 06:17;CYOW 300617Z 14003KT 1/2SM R07/2000FT/N R32/1600FT/N FG VV004 14/ RMK FG8

CYOW;2009-08-30 06:48;CYOW 300648Z 16003KT 1 1/4SM BR BKN004 OVC082 14/ RMK FG6SF2AC1

CYOW;2009-08-30 07:00;CYOW 300700Z 17003KT 2SM BR BKN004 OVC082 14/14 A2969 RMK FG3SF4AC1 SLP056

CYOW;2009-08-30 07:18;CYOW 300718Z 15003KT 4SM BR FEW004 BKN090 14/ RMK SF2AC5

CYOW;2009-08-30 08:00;CYOW 300800Z 13002KT 4SM BR FEW004 BKN085 13/13 A2969 RMK SF1AC5 SLP057

CYOW;2009-08-30 09:00;CYOW 300900Z 21004KT 6SM BR FEW004 FEW042 SCT085 13/13 A2972 RMK SF1SC1AC2 SLP065

CYOW;2009-08-30 10:00;CYOW 301000Z 19005KT 10SM FEW004 FEW045 13/13 A2972 RMK SF1SC2 SF TR SLP066

CYOW;2009-08-30 11:00;CYOW 301100Z 21007KT 12SM BKN042 15/13 A2973 RMK SC6 SLP071

CYOW;2009-08-30 12:00;CYOW 301200Z 22007KT 12SM FEW010 BKN050 15/14 A2975 RMK SF2SC6 SLP076

CYOW;2009-08-30 13:00;CYOW 301300Z 23010KT 15SM FEW010 BKN050 16/14 A2976 RMK SF2SC5 SLP081

CYOW;2009-08-30 14:00;CYOW 301400Z 23007KT 15SM VCSH FEW010 OVC040 16/14 A2978 RMK SF2SC6 SLP085

CYOW;2009-08-30 14:55;CYOW 301455Z 24010KT 5SM -SHRA OVC033TCU 16/ RMK TCU8

CYOW;2009-08-30 15:00;CYOW 301500Z 24009KT 15SM VCSH OVC040 16/14 A2979 RMK SC8 SLP089

CYOW;2009-08-30 16:00;CYOW 301600Z 26008KT 15SM FEW010 FEW017 BKN040 18/15 A2978 RMK SF1CU2SC5 SH DIST N SLP086

CYOW;2009-08-30 17:00;CYOW 301700Z 25006KT 15SM SCT025 BKN050 18/14 A2978 RMK CU3SC4 SLP085

CYOW;2009-08-30 18:00;CYOW 301800Z 24005KT 15SM VCSH BKN030 BKN080 18/15 A2978 RMK CU5AC2 TCU ASOCTD SLP084

CYOW;2009-08-30 19:00;CYOW 301900Z 30012KT 15SM VCSH BKN030 BKN080 18/13 A2979 RMK CU5AC2 TCU ASOCTD SLP088

CYOW;2009-08-30 19:14;CYOW 301914Z 29015G20KT 15SM -SHRA OVC060TCU 17/ RMK TCU8

CYOW;2009-08-30 19:44;CYOW 301944Z 28010KT 15SM VCSH SCT030 OVC060 16/ RMK CU3SC5 TCU ASOCTD

CYOW;2009-08-30 20:00;CYOW 302000Z 27007KT 15SM SCT030 BKN060 17/13 A2981 RMK CU3SC3 SLP096

CYOW;2009-08-30 21:00;CYOW 302100Z 29011G16KT 15SM FEW027 BKN080 17/13 A2983 RMK CU2AC4 SLP102

CYOW;2009-08-30 22:00;CYOW 302200Z 29011G18KT 15SM BKN022 BKN080 17/12 A2986 RMK CU5AC2 SLP113

CYOW;2009-08-30 23:00;CYOW 302300Z 30012G17KT 15SM VCSH BKN021 BKN035 15/12 A2989 RMK CU5SC2 TCU ASOCTD SLP122

CYOW;2009-08-30 23:37;CYOW 302337Z 30014G19KT 15SM -SHRA BKN021 BKN039 14/ RMK CU5SC2 TCU ASOCTD

CYOW;2009-08-31 00:00;CYOW 310000Z 32012G17KT 15SM VCSH BKN021 BKN038 14/11 A2992 RMK CU5SC2 TCU ASOCTD SLP134

CYOW;2009-08-31 01:00;CYOW 310100Z 30010KT 15SM SCT022 BKN045 14/10 A2996 RMK CU3SC4 SLP147

CYOW;2009-08-31 02:00;CYOW 310200Z 30008KT 15SM FEW024 BKN055 12/09 A2999 RMK CU1SC6 SLP156

CYOW;2009-08-31 03:00;CYOW 310300Z 30010KT 15SM FEW012 SCT055 12/09 A3001 RMK CF1SC3 SLP164

CYOW;2009-08-31 04:00;CYOW 310400Z 30010KT 15SM FEW012 FEW055 12/09 A3003 RMK CF1SC1 SLP171

CYOW;2009-08-31 05:00;CYOW 310500Z 31007KT 15SM FEW012 11/09 A3005 RMK CF1 SLP179

CYOW;2009-08-31 06:00;CYOW 310600Z 26004KT 15SM FEW010 FEW060 10/09 A3007 RMK SF1SC1 CLDS TR SLP184

CYOW;2009-08-31 07:00;CYOW 310700Z 27007KT 15SM FEW010 09/09 A3008 RMK SF1 SLP188

CYOW;2009-08-31 08:00;CYOW 310800Z 27004KT 15SM FEW010 09/09 A3010 RMK SF1 SLP193

CYOW;2009-08-31 09:00;CYOW 310900Z 27006KT 15SM FEW004 FEW015 09/08 A3011 RMK ST1SC1 SLP197

CYOW;2009-08-31 10:00;CYOW 311000Z 28007KT 15SM FEW004 FEW070 09/09 A3012 RMK SF1AC1 SLP203

CYOW;2009-08-31 11:00;CYOW 311100Z 28006KT 15SM FEW005 10/09 A3014 RMK SC1 SLP209

CYOW;2009-08-31 12:00;CYOW 311200Z CCA 28005KT 15SM FEW005 11/10 A3017 RMK SF2 SLP219

CYOW;2009-08-31 13:00;CYOW 311300Z 29008KT 15SM FEW005 12/10 A3018 RMK SF1 SLP222

CYOW;2009-08-31 14:00;CYOW 311400Z 31007KT 15SM FEW100 14/09 A3019 RMK AC1 SLP225

CYOW;2009-08-31 15:00;CYOW 311500Z 30006KT 15SM FEW100 16/09 A3020 RMK AC1 SLP229

CYOW;2009-08-31 16:00;CYOW 311600Z 29009KT 15SM FEW045 FEW100 16/07 A3019 RMK CU2AC1 SLP227

CYOW;2009-08-31 17:00;CYOW 311700Z 29009KT 20SM FEW048 SCT220 17/07 A3018 RMK SC2CI1 SLP223

CYOW;2009-08-31 18:00;CYOW 311800Z 28011KT 20SM SCT048 18/08 A3018 RMK SC3 SLP223

CYOW;2009-08-31 19:00;CYOW 311900Z 27012KT 20SM FEW051 SCT240 18/08 A3018 RMK SC2CI1 SLP223

CYOW;2009-08-31 20:00;CYOW 312000Z 27008KT 20SM FEW050 18/08 A3018 RMK SC2 SLP221

CYOW;2009-08-31 21:00;CYOW 312100Z 28007KT 20SM FEW052 FEW220 18/08 A3017 RMK SC2CI1 SLP220

CYOW;2009-08-31 22:00;CYOW 312200Z 26007KT 20SM FEW054 FEW240 18/08 A3017 RMK SC1CI0 SLP219

CYOW;2009-08-31 23:00;CYOW 312300Z 27005KT 15SM FEW054 FEW240 17/07 A3018 RMK SC1CI1 SC CI TR SLP223

CYOW;2009-09-01 01:00;CYOW 010100Z 23003KT 15SM FEW060 15/08 A3020 RMK SC1 SLP230

CYOW;2009-09-01 02:00;CYOW 010200Z 24003KT 15SM SKC 14/07 A3022 RMK SLP234

CYOW;2009-09-01 03:00;CYOW 010300Z 27003KT 15SM SKC 13/07 A3022 RMK SLP235

CYOW;2009-09-01 04:00;CYOW 010400Z 20002KT 15SM SKC 11/07 A3023 RMK SLP238

CYOW;2009-09-01 05:00;CYOW 010500Z 21003KT 15SM SKC 10/08 A3024 RMK SLP241

CYOW;2009-09-01 06:00;CYOW 010600Z 22004KT 15SM SKC 10/08 A3024 RMK SLP241

CYOW;2009-09-01 07:00;CYOW 010700Z 23002KT 15SM SKC 10/07 A3024 RMK SLP243

CYOW;2009-09-01 08:00;CYOW 010800Z 23002KT 15SM SKC 10/07 A3024 RMK SLP243

CYOW;2009-09-01 09:00;CYOW 010900Z 23003KT 15SM SKC 11/06 A3025 RMK SLP244

CYOW;2009-09-01 10:00;CYOW 011000Z 23004KT 15SM SKC 09/07 A3025 RMK SLP247

CYOW;2009-09-01 11:00;CYOW 011100Z 23003KT 15SM FEW100 09/07 A3027 RMK AC1 SLP251

CYOW;2009-09-01 12:00;CYOW 011200Z 24003KT 15SM FEW100 10/09 A3028 RMK AC1 SLP257

CYOW;2009-09-01 13:00;CYOW 011300Z 25004KT 15SM FEW100 14/10 A3029 RMK AC1 SLP261

CYOW;2009-09-01 14:00;CYOW 011400Z 25005KT 15SM FEW100 16/10 A3030 RMK AC1 SLP263

CYOW;2009-09-01 15:00;CYOW 011500Z 26002KT 15SM FEW100 18/09 A3030 RMK AC1 SLP263

CYOW;2009-09-01 16:00;CYOW 011600Z 22006KT 15SM SKC 20/09 A3029 RMK SLP258

CYOW;2009-09-01 17:00;CYOW 011700Z 23006KT 15SM SKC 21/08 A3028 RMK SLP254

CYOW;2009-09-01 18:00;CYOW 011800Z 24006KT 15SM SKC 21/08 A3027 RMK SLP252

CYOW;2009-09-01 19:00;CYOW 011900Z 25006KT 15SM FEW045 FEW100 22/09 A3025 RMK CU1AC1 SLP247

CYOW;2009-09-01 20:00;CYOW 012000Z 21006KT 15SM FEW045 FEW100 22/09 A3024 RMK CU1AC1 SLP243

CYOW;2009-09-01 21:00;CYOW 012100Z 23008KT 15SM FEW100 22/10 A3023 RMK AC1 SLP238

CYOW;2009-09-01 22:00;CYOW 012200Z 21007KT 15SM FEW100 22/11 A3022 RMK AC1 SLP236

CYOW;2009-09-01 23:00;CYOW 012300Z 22005KT 15SM SKC 21/12 A3023 RMK SLP237

CYOW;2009-09-02 00:00;CYOW 020000Z CCA 21004KT 15SM FEW240 19/12 A3023 RMK CI1 SLP238

CYOW;2009-09-02 01:00;CYOW 020100Z 19005KT 15SM FEW240 17/11 A3024 RMK CI2 SLP243

CYOW;2009-09-02 02:00;CYOW 020200Z 20003KT 15SM SKC 16/11 A3025 RMK SLP244

CYOW;2009-09-02 03:00;CYOW 020300Z 20004KT 15SM SKC 15/11 A3025 RMK SLP244

CYOW;2009-09-02 04:00;CYOW 020400Z 21005KT 15SM SKC 15/12 A3025 RMK SLP245

CYOW;2009-09-02 05:00;CYOW 020500Z 22004KT 15SM SKC 14/12 A3026 RMK SLP250

CYOW;2009-09-02 06:00;CYOW 020600Z 20004KT 15SM SKC 14/12 A3026 RMK SLP249

CYOW;2009-09-02 07:00;CYOW 020700Z 19004KT 15SM SKC 13/12 A3027 RMK SLP250

CYOW;2009-09-02 08:00;CYOW 020800Z 21005KT 15SM SKC 13/12 A3026 RMK SLP247

CYOW;2009-09-02 09:00;CYOW 020900Z 23004KT 15SM SKC 12/11 A3026 RMK SLP248

CYOW;2009-09-02 10:00;CYOW 021000Z 22004KT 15SM MIFG FEW240 11/11 A3027 RMK CI1 SLP250

CYOW;2009-09-02 11:00;CYOW 021100Z 19004KT 15SM MIFG FEW240 12/11 A3028 RMK CI1 SLP254

CYOW;2009-09-02 12:00;CYOW 021200Z 20004KT 15SM FEW240 12/11 A3029 RMK CI0 SLP258

CYOW;2009-09-02 13:00;CYOW 021300Z 25004KT 15SM FEW240 15/12 A3029 RMK CI1 SLP258

CYOW;2009-09-02 14:00;CYOW 021400Z 25006KT 15SM SKC 18/13 A3028 RMK SLP257

CYOW;2009-09-02 16:00;CYOW 021600Z 23008KT 15SM SKC 21/15 A3027 RMK SLP250

CYOW;2009-09-02 17:00;CYOW 021700Z 25008KT 15SM SKC 22/15 A3025 RMK SLP245

CYOW;2009-09-02 18:00;CYOW 021800Z 26006KT 15SM SKC 23/15 A3024 RMK SLP242

CYOW;2009-09-02 19:00;CYOW 021900Z 20007KT 15SM FEW035 25/16 A3022 RMK CU1 SLP235

CYOW;2009-09-02 20:00;CYOW 022000Z 22005KT 15SM FEW035 25/16 A3021 RMK CU1 SLP230

CYOW;2009-09-02 21:00;CYOW 022100Z 22006KT 15SM SKC 25/15 A3019 RMK SLP225

CYOW;2009-09-02 22:00;CYOW 022200Z 21006KT 15SM SKC 24/16 A3019 RMK SLP224

CYOW;2009-09-02 23:00;CYOW 022300Z 22005KT 15SM SKC 23/15 A3018 RMK SLP221

CYOW;2009-09-03 00:00;CYOW 030000Z 20004KT 15SM SKC 21/15 A3017 RMK SLP219

CYOW;2009-09-03 01:00;CYOW 030100Z 21005KT 15SM SKC 19/15 A3019 RMK SLP223

CYOW;2009-09-03 02:00;CYOW 030200Z 20004KT 15SM SKC 18/15 A3019 RMK SLP223

CYOW;2009-09-03 03:00;CYOW 030300Z 21005KT 15SM SKC 17/15 A3018 RMK SLP221

CYOW;2009-09-03 04:00;CYOW 030400Z 21005KT 15SM SKC 17/14 A3017 RMK SLP219

CYOW;2009-09-03 05:00;CYOW 030500Z 23005KT 15SM SKC 16/14 A3017 RMK SLP218

CYOW;2009-09-03 06:00;CYOW 030600Z 23003KT 15SM SKC 16/14 A3017 RMK SLP217

CYOW;2009-09-03 07:00;CYOW 030700Z 21004KT 15SM SKC 14/13 A3017 RMK SLP216

CYOW;2009-09-03 08:00;CYOW 030800Z 22003KT 15SM SKC 15/13 A3017 RMK SLP216

CYOW;2009-09-03 09:00;CYOW 030900Z 21002KT 15SM MIFG SKC 14/13 A3017 RMK SLP217

CYOW;2009-09-03 10:00;CYOW 031000Z 20002KT 15SM R07/2800VP6000FT/D R32/P6000FT/D PRFG SKC 12/12 A3018 RMK FG E SLP219

CYOW;2009-09-03 11:00;CYOW 031100Z 24003KT 15SM PRFG SKC 13/12 A3018 RMK SLP219

CYOW;2009-09-03 12:00;CYOW 031200Z 21004KT 15SM SKC 14/13 A3018 RMK SLP222

CYOW;2009-09-03 13:00;CYOW 031300Z 27004KT 15SM SKC 16/14 A3017 RMK SLP219

CYOW;2009-09-03 14:00;CYOW 031400Z 29007KT 15SM SKC 18/12 A3018 RMK SLP220

CYOW;2009-09-03 15:00;CYOW 031500Z 27007KT 15SM SKC 20/14 A3017 RMK SLP217

CYOW;2009-09-03 16:00;CYOW 031600Z 26007KT 15SM SKC 21/14 A3016 RMK SLP213

CYOW;2009-09-03 17:00;CYOW 031700Z 27006KT 15SM SKC 22/13 A3014 RMK SLP207

CYOW;2009-09-03 18:00;CYOW 031800Z 26002KT 15SM SKC 23/14 A3012 RMK SLP200

CYOW;2009-09-03 19:00;CYOW 031900Z 26007KT 15SM SKC 25/14 A3010 RMK SLP193

CYOW;2009-09-03 20:00;CYOW 032000Z 23004KT 15SM SKC 25/13 A3008 RMK SLP187

CYOW;2009-09-03 21:00;CYOW 032100Z 22007KT 15SM SKC 25/13 A3006 RMK SLP180

CYOW;2009-09-03 22:00;CYOW 032200Z 22007KT 15SM SKC 25/14 A3005 RMK SLP176

CYOW;2009-09-03 23:00;CYOW 032300Z 23004KT 15SM SKC 23/14 A3005 RMK SLP176

CYOW;2009-09-04 00:00;CYOW 040000Z 22004KT 15SM FEW200 22/13 A3005 RMK CI1 SLP177

CYOW;2009-09-04 01:00;CYOW 040100Z 22003KT 15SM SKC 21/14 A3007 RMK SLP182

CYOW;2009-09-04 02:00;CYOW 040200Z 20004KT 15SM SKC 18/14 A3007 RMK SLP182

CYOW;2009-09-04 03:00;CYOW 040300Z 20005KT 15SM SKC 17/14 A3007 RMK SLP183

CYOW;2009-09-04 04:00;CYOW 040400Z 23004KT 15SM SKC 17/15 A3007 RMK SLP183

CYOW;2009-09-04 05:00;CYOW 040500Z 22005KT 15SM SKC 16/15 A3007 RMK SLP182

CYOW;2009-09-04 06:00;CYOW 040600Z 27004KT 15SM SKC 15/14 A3006 RMK SLP179

CYOW;2009-09-04 07:00;CYOW 040700Z 25004KT 15SM SKC 14/13 A3006 RMK SLP181

CYOW;2009-09-04 08:00;CYOW 040800Z 29006KT 15SM SKC 13/11 A3006 RMK SLP181

CYOW;2009-09-04 09:00;CYOW 040900Z CCA 27004KT 15SM SKC 13/11 A3006 RMK SLP180

CYOW;2009-09-04 10:00;CYOW 041000Z 31005KT 15SM FEW180 FEW240 11/11 A3007 RMK AC1CI0 SLP182

CYOW;2009-09-04 11:00;CYOW 041100Z 27003KT 15SM FEW180 13/12 A3008 RMK AC1 SLP186

CYOW;2009-09-04 12:00;CYOW 041200Z 27002KT 15SM SKC 14/13 A3008 RMK SLP188

CYOW;2009-09-04 13:00;CYOW 041300Z 27003KT 15SM SKC 17/14 A3009 RMK SLP191

CYOW;2009-09-04 14:00;CYOW 041400Z 29004KT 15SM SKC 18/14 A3010 RMK SLP192

CYOW;2009-09-04 15:00;CYOW 041500Z 24004KT 15SM FEW020 20/15 A3010 RMK CF1 TR CUFRA SLP192

CYOW;2009-09-04 16:00;CYOW 041600Z 25005KT 15SM FEW030 23/16 A3009 RMK CU1 SLP191

CYOW;2009-09-04 17:00;CYOW 041700Z 27002KT 15SM FEW030 24/16 A3009 RMK CU2 SLP189

CYOW;2009-09-04 18:00;CYOW 041800Z 31004KT 15SM FEW030 25/14 A3008 RMK CU2 SLP185

CYOW;2009-09-04 19:00;CYOW 041900Z 33003KT 15SM SCT040 25/14 A3006 RMK CU3 SLP181

CYOW;2009-09-04 20:00;CYOW 042000Z 29005KT 15SM SCT040 25/15 A3006 RMK CU4 SLP181

CYOW;2009-09-04 21:00;CYOW 042100Z 27006KT 15SM SCT044 25/15 A3006 RMK CU4 SLP181

CYOW;2009-09-04 22:00;CYOW 042200Z 32007KT 15SM SCT060 23/16 A3007 RMK CU3 SLP182

CYOW;2009-09-04 23:00;CYOW 042300Z CCA 36006KT 15SM FEW060 FEW070 23/15 A3007 RMK CU1AC1 AC TR SLP183

CYOW;2009-09-05 00:00;CYOW 050000Z 36006KT 15SM FEW060 FEW080 21/14 A3008 RMK SC1AC1 SLP188

CYOW;2009-09-05 01:00;CYOW 050100Z 01005KT 15SM FEW080 20/14 A3010 RMK AC1 SLP193

CYOW;2009-09-05 02:00;CYOW 050200Z 36004KT 15SM FEW100 19/13 A3012 RMK AC1 SLP201

CYOW;2009-09-05 03:00;CYOW 050300Z 03005KT 15SM FEW100 19/13 A3012 RMK AC1 SLP200

CYOW;2009-09-05 04:00;CYOW 050400Z 01006KT 15SM FEW100 17/13 A3013 RMK AC1 SLP202

CYOW;2009-09-05 05:00;CYOW 050500Z 02005KT 15SM FEW250 17/12 A3014 RMK CI1 SLP206

CYOW;2009-09-05 06:00;CYOW 050600Z 36006KT 15SM FEW100 16/12 A3014 RMK AC1 SLP208

CYOW;2009-09-05 07:00;CYOW 050700Z 01003KT 15SM SKC 15/12 A3014 RMK SLP208

CYOW;2009-09-05 08:00;CYOW 050800Z 01005KT 15SM FEW065 14/12 A3016 RMK SC1 SLP212

CYOW;2009-09-05 09:00;CYOW 050900Z 05005KT 15SM BKN065 14/11 A3017 RMK SC5 SLP218

CYOW;2009-09-05 10:00;CYOW 051000Z 03006KT 15SM FEW063 FEW064 14/11 A3019 RMK SC1SC2 SLP225

CYOW;2009-09-05 11:00;CYOW 051100Z 02004KT 15SM FEW060 FEW120 13/11 A3022 RMK SC1AC2 TR SC SLP235

CYOW;2009-09-05 12:00;CYOW 051200Z 02005KT 15SM FEW120 14/10 A3025 RMK AC2 SLP243

CYOW;2009-09-05 13:00;CYOW 051300Z 01006KT 15SM FEW120 15/10 A3026 RMK AC2 SLP249

CYOW;2009-09-05 14:00;CYOW 051400Z 02006KT 15SM FEW120 17/10 A3028 RMK AC2 SLP253

CYOW;2009-09-05 15:00;CYOW 051500Z 01006KT 15SM FEW030 FEW120 18/09 A3028 RMK CU1AC1 TR CU SLP254

CYOW;2009-09-05 16:00;CYOW 051600Z 03008KT 15SM FEW030 FEW120 19/07 A3028 RMK CU1AC1 CLDS TR SLP254

CYOW;2009-09-05 17:00;CYOW 051700Z 36008KT 15SM FEW030 FEW120 20/08 A3027 RMK CU1AC1 CLDS TR SLP250

CYOW;2009-09-05 18:00;CYOW 051800Z 01004KT 15SM FEW040 21/09 A3025 RMK CU1 TR CU SLP245

CYOW;2009-09-05 19:00;CYOW 051900Z 01004KT 15SM FEW040 21/09 A3025 RMK CU1 SLP243

CYOW;2009-09-05 20:00;CYOW 052000Z 36006KT 15SM FEW050 22/10 A3024 RMK CU2 SLP240

CYOW;2009-09-05 21:00;CYOW 052100Z 32010KT 15SM FEW050 21/09 A3024 RMK CU2 SLP241

CYOW;2009-09-05 22:00;CYOW 052200Z 34009KT 15SM FEW050 20/09 A3025 RMK CU1 SLP244

CYOW;2009-09-05 23:00;CYOW 052300Z 02006KT 15SM FEW060 19/09 A3025 RMK SC1 SLP245

CYOW;2009-09-06 00:00;CYOW 060000Z 06005KT 15SM FEW060 18/09 A3027 RMK SC1 SLP252

CYOW;2009-09-06 01:00;CYOW 060100Z 06003KT 15SM FEW060 17/10 A3029 RMK SC1 SLP259

CYOW;2009-09-06 02:00;CYOW 060200Z 05004KT 15SM SKC 16/09 A3030 RMK SLP262

CYOW;2009-09-06 03:00;CYOW 060300Z 00000KT 15SM SKC 14/10 A3030 RMK SLP263

CYOW;2009-09-06 04:00;CYOW 060400Z 00000KT 15SM SKC 14/10 A3031 RMK SLP265

CYOW;2009-09-06 05:00;CYOW 060500Z 01003KT 15SM SKC 13/10 A3032 RMK SLP269

CYOW;2009-09-06 06:00;CYOW 060600Z 01004KT 15SM FEW060 12/10 A3034 RMK SC1 SLP274

CYOW;2009-09-06 07:00;CYOW 060700Z 05008KT 15SM FEW060 12/09 A3035 RMK SC1 SLP279

CYOW;2009-09-06 08:00;CYOW 060800Z 05008KT 15SM FEW060 11/08 A3036 RMK SC1 SLP283

CYOW;2009-09-06 09:00;CYOW 060900Z 05008KT 15SM FEW060 10/07 A3038 RMK SC1 SLP288

CYOW;2009-09-06 10:00;CYOW 061000Z 04007KT 15SM SKC 10/07 A3039 RMK SLP294

CYOW;2009-09-06 11:00;CYOW 061100Z 05008KT 20SM SKC 10/06 A3041 RMK SLP299

CYOW;2009-09-06 12:00;CYOW 061200Z 07008KT 20SM SKC 11/06 A3043 RMK SLP306

CYOW;2009-09-06 13:00;CYOW 061300Z 08008KT 20SM SKC 13/07 A3043 RMK SLP307

CYOW;2009-09-06 14:00;CYOW 061400Z 09010KT 20SM SKC 15/08 A3043 RMK SLP308

CYOW;2009-09-06 15:00;CYOW 061500Z 10008KT 20SM SKC 17/08 A3043 RMK SLP308

CYOW;2009-09-06 16:00;CYOW 061600Z 13004KT 20SM SKC 18/09 A3043 RMK SLP306

CYOW;2009-09-06 17:00;CYOW 061700Z 08006KT 20SM FEW030 18/09 A3041 RMK CU1 TR CU SLP300

CYOW;2009-09-06 18:00;CYOW 061800Z 10004KT 20SM FEW040 19/09 A3039 RMK CU1 TR CU SLP293

CYOW;2009-09-06 19:00;CYOW 061900Z 10004KT 20SM FEW040 19/09 A3037 RMK CU1 TR CU SLP287

CYOW;2009-09-06 20:00;CYOW 062000Z 10005KT 20SM FEW240 20/09 A3035 RMK CI1 SLP279

CYOW;2009-09-06 21:00;CYOW 062100Z 10006KT 20SM FEW240 19/08 A3034 RMK CI1 SLP274

CYOW;2009-09-06 22:00;CYOW 062200Z 15004KT 20SM FEW240 19/08 A3032 RMK CI1 SLP269

CYOW;2009-09-06 23:00;CYOW 062300Z 11004KT 15SM FEW240 17/09 A3031 RMK CI1 SLP267

CYOW;2009-09-07 00:00;CYOW 070000Z 11003KT 15SM FEW240 14/09 A3031 RMK CI1 SLP267

CYOW;2009-09-07 01:00;CYOW 070100Z 11006KT 15SM FEW240 13/08 A3031 RMK CI1 SLP266

CYOW;2009-09-07 02:00;CYOW 070200Z 11006KT 15SM FEW240 11/07 A3029 RMK CI1 SLP261

CYOW;2009-09-07 03:00;CYOW 070300Z 10005KT 15SM FEW240 10/06 A3029 RMK CI1 SLP258

CYOW;2009-09-07 04:00;CYOW 070400Z 12003KT 15SM FEW240 11/07 A3028 RMK CI2 SLP256

CYOW;2009-09-07 05:00;CYOW 070500Z 00000KT 15SM SCT240 11/06 A3029 RMK CI2 SLP259

CYOW;2009-09-07 06:00;CYOW 070600Z 00000KT 15SM SCT240 11/06 A3028 RMK CI2 SLP256

CYOW;2009-09-07 07:00;CYOW 070700Z 05002KT 15SM SCT240 11/07 A3027 RMK CI2 SLP252

CYOW;2009-09-07 08:00;CYOW 070800Z 06003KT 15SM BKN240 10/08 A3026 RMK CI2 SLP250

CYOW;2009-09-07 09:00;CYOW 070900Z 07003KT 15SM BKN240 10/08 A3025 RMK CI2 SLP246

CYOW;2009-09-07 10:00;CYOW 071000Z 00000KT 15SM FEW052 BKN240 10/07 A3025 RMK SC2CI2 SLP246

CYOW;2009-09-07 11:00;CYOW 071100Z 07003KT 15SM FEW057 BKN240 10/08 A3025 RMK SC2CI2 SLP246

CYOW;2009-09-07 12:00;CYOW 071200Z 09002KT 15SM SCT060 BKN240 10/08 A3025 RMK SC3CI1 SLP245

CYOW;2009-09-07 13:00;CYOW 071300Z 20002KT 15SM FEW060 BKN240 13/09 A3024 RMK SC2CI1 SLP243

CYOW;2009-09-07 14:00;CYOW 071400Z 22002KT 15SM SCT040 BKN240 16/10 A3023 RMK SC3CI1 SLP241

CYOW;2009-09-07 15:00;CYOW 071500Z 21004KT 15SM FEW040 FEW060 BKN240 19/11 A3022 RMK CU2SC1CI1 SLP235

CYOW;2009-09-07 16:00;CYOW 071600Z 23006KT 15SM FEW040 BKN240 21/12 A3021 RMK CU2CI1 SLP232

CYOW;2009-09-07 17:00;CYOW 071700Z 22005KT 15SM FEW040 BKN240 23/13 A3019 RMK CU2CI2 SLP227

CYOW;2009-09-07 18:00;CYOW 071800Z 19006KT 15SM FEW050 BKN240 24/14 A3018 RMK CU2CI1 SLP220

CYOW;2009-09-07 19:00;CYOW 071900Z 22004KT 15SM SCT050 BKN240 23/14 A3016 RMK CU3CI1 SLP215

CYOW;2009-09-07 20:00;CYOW 072000Z 23004KT 15SM SCT050 BKN240 24/13 A3015 RMK CU3CI0 SLP211

CYOW;2009-09-07 21:00;CYOW 072100Z 23004KT 15SM FEW050 SCT180 24/13 A3013 RMK CU2AC2 SLP205

CYOW;2009-09-07 22:00;CYOW 072200Z 20004KT 15SM FEW050 FEW180 24/14 A3013 RMK CU2AC1 SLP205

CYOW;2009-09-07 23:00;CYOW 072300Z 18003KT 15SM FEW060 FEW240 22/14 A3013 RMK SC1CI0 SLP203

CYOW;2009-09-08 00:00;CYOW 080000Z 18003KT 15SM FEW070 FEW240 20/14 A3013 RMK AC1CI0 SLP204

CYOW;2009-09-08 01:00;CYOW 080100Z 18004KT 15SM FEW240 19/14 A3013 RMK CI0 SLP205

CYOW;2009-09-08 02:00;CYOW 080200Z 21003KT 15SM FEW240 18/14 A3014 RMK CI0 SLP206

CYOW;2009-09-08 03:00;CYOW 080300Z 20004KT 15SM SKC 17/13 A3013 RMK SLP204

CYOW;2009-09-08 04:00;CYOW 080400Z 21004KT 15SM SKC 16/13 A3013 RMK SLP204

CYOW;2009-09-08 05:00;CYOW 080500Z 21003KT 15SM SKC 16/13 A3013 RMK SLP203

CYOW;2009-09-08 06:00;CYOW 080600Z 24004KT 15SM SKC 16/12 A3012 RMK SLP201

CYOW;2009-09-08 07:00;CYOW 080700Z 23003KT 15SM SKC 16/12 A3012 RMK SLP201

CYOW;2009-09-08 08:00;CYOW 080800Z 21005KT 15SM SKC 14/12 A3012 RMK SLP200

CYOW;2009-09-08 09:00;CYOW 080900Z 22004KT 15SM FEW050 14/12 A3012 RMK SC1 SLP200

CYOW;2009-09-08 10:00;CYOW 081000Z 22004KT 15SM FEW055 SCT100 SCT250 13/12 A3012 RMK SC1AC3CI1 SLP199

CYOW;2009-09-08 11:00;CYOW 081100Z 24003KT 15SM SCT100 14/13 A3013 RMK AC3 SLP202

CYOW;2009-09-08 12:00;CYOW 081200Z 23003KT 15SM BKN070 BKN100 15/14 A3013 RMK AC5AC0 SLP205

CYOW;2009-09-08 13:00;CYOW 081300Z 25002KT 15SM BKN070 BKN100 17/15 A3014 RMK AC5AC0 SLP209

CYOW;2009-09-08 14:00;CYOW 081400Z 00000KT 15SM FEW070 FEW100 19/15 A3015 RMK AC2AC0 SLP211

CYOW;2009-09-08 15:00;CYOW 081500Z 36004KT 15SM FEW050 SCT080 21/16 A3015 RMK CU1AC3 SLP211

CYOW;2009-09-08 16:00;CYOW 081600Z 31003KT 15SM FEW050 FEW080 23/16 A3014 RMK CU1AC1 CU TR SLP208

CYOW;2009-09-08 17:00;CYOW 081700Z 22002KT 15SM SCT035 SCT080 24/17 A3014 RMK CU3AC1 SLP205

CYOW;2009-09-08 18:00;CYOW 081800Z 32005KT 15SM BKN037 BKN040 24/17 A3012 RMK CU5SC2 TCU EMBD SLP199

CYOW;2009-09-08 19:00;CYOW 081900Z 35003KT 15SM BKN040 25/17 A3010 RMK CU5 TCU EMBD SLP194

CYOW;2009-09-08 20:00;CYOW 082000Z 35008KT 15SM FEW040 FEW080 25/16 A3010 RMK CU2AC1 TCU ASOCT SLP192

CYOW;2009-09-08 21:00;CYOW 082100Z 02010KT 15SM FEW040 25/15 A3009 RMK CU2 SLP190

CYOW;2009-09-08 22:00;CYOW 082200Z 01007KT 15SM FEW040 24/14 A3010 RMK CU1 SLP192

CYOW;2009-09-08 23:00;CYOW 082300Z 36005KT 15SM FEW060 FEW080 23/14 A3011 RMK SC1AC1 SLP195

CYOW;2009-09-09 00:00;CYOW 090000Z 36006KT 15SM FEW060 20/13 A3012 RMK SC1 SLP200

CYOW;2009-09-09 01:00;CYOW 090100Z 36006KT 15SM SKC 19/13 A3013 RMK SLP205

CYOW;2009-09-09 02:00;CYOW 090200Z 02004KT 15SM SKC 18/13 A3014 RMK SLP209

CYOW;2009-09-09 03:00;CYOW 090300Z 02007KT 15SM FEW080 18/11 A3015 RMK AC1 SLP211

CYOW;2009-09-09 04:00;CYOW 090400Z 02007KT 15SM SKC 17/11 A3016 RMK SLP215

CYOW;2009-09-09 05:00;CYOW 090500Z 02007KT 15SM FEW200 16/10 A3018 RMK CI2 SLP220

CYOW;2009-09-09 06:00;CYOW 090600Z 04007KT 15SM FEW200 16/10 A3019 RMK CI1 SLP222

CYOW;2009-09-09 07:00;CYOW 090700Z 05009KT 15SM SKC 15/10 A3019 RMK SLP225

CYOW;2009-09-09 09:00;CYOW 090900Z 05008KT 15SM SKC 13/09 A3022 RMK SLP236

CYOW;2009-09-09 10:00;CYOW 091000Z 05007KT 15SM FEW200 12/09 A3023 RMK CI1 SLP238

CYOW;2009-09-09 11:00;CYOW 091100Z 04009KT 15SM FEW200 13/09 A3025 RMK CI1 SLP245

CYOW;2009-09-09 12:00;CYOW 091200Z 05005KT 15SM FEW200 14/08 A3027 RMK CI1 SLP253

CYOW;2009-09-09 13:00;CYOW 091300Z 06009KT 15SM FEW200 16/09 A3028 RMK CI1 SLP257

CYOW;2009-09-09 14:00;CYOW 091400Z 08009KT 15SM FEW200 17/09 A3029 RMK CI1 SLP259

CYOW;2009-09-09 15:00;CYOW 091500Z 07005KT 15SM FEW200 19/09 A3030 RMK CI1 SLP261

CYOW;2009-09-09 16:00;CYOW 091600Z 07006KT 15SM FEW200 20/09 A3030 RMK CI1 SLP262

CYOW;2009-09-09 17:00;CYOW 091700Z 04004KT 15SM FEW200 21/09 A3030 RMK CI1 SLP261

CYOW;2009-09-09 18:00;CYOW 091800Z 02008KT 15SM FEW200 22/09 A3028 RMK CI1 SLP256

CYOW;2009-09-09 19:00;CYOW 091900Z 04008KT 15SM FEW200 22/08 A3027 RMK CI1 SLP252

CYOW;2009-09-09 20:00;CYOW 092000Z 08008KT 15SM FEW200 22/10 A3027 RMK CI1 SLP252

CYOW;2009-09-09 21:00;CYOW 092100Z 07006KT 15SM FEW200 22/09 A3026 RMK CI1 SLP249

CYOW;2009-09-09 22:00;CYOW 092200Z 10007KT 15SM FEW200 21/09 A3028 RMK CI1 SLP254

CYOW;2009-09-09 23:00;CYOW 092300Z 10004KT 15SM FEW200 19/09 A3029 RMK CI1 SLP259

CYOW;2009-09-10 00:00;CYOW 100000Z 09003KT 15SM FEW200 17/08 A3030 RMK CI1 SLP262

CYOW;2009-09-10 01:00;CYOW 100100Z 09005KT 15SM SKC 16/09 A3032 RMK SLP270

CYOW;2009-09-10 02:00;CYOW 100200Z 06006KT 15SM SKC 15/08 A3033 RMK SLP272

CYOW;2009-09-10 03:00;CYOW 100300Z 07005KT 15SM SKC 14/08 A3034 RMK SLP275

CYOW;2009-09-10 04:00;CYOW 100400Z 06007KT 15SM SKC 14/08 A3034 RMK SLP275

CYOW;2009-09-10 05:00;CYOW 100500Z 04007KT 15SM SKC 12/07 A3035 RMK SLP279

CYOW;2009-09-10 06:00;CYOW 100600Z 05006KT 15SM SKC 12/07 A3036 RMK SLP281

CYOW;2009-09-10 07:00;CYOW 100700Z 04007KT 15SM SKC 11/07 A3036 RMK SLP284

CYOW;2009-09-10 08:00;CYOW 100800Z 06007KT 15SM SKC 11/07 A3037 RMK SLP286

CYOW;2009-09-10 09:00;CYOW 100900Z 07006KT 15SM SKC 11/06 A3039 RMK SLP292

CYOW;2009-09-10 10:00;CYOW 101000Z 09006KT 15SM FEW070 09/06 A3040 RMK AC1 SLP296

CYOW;2009-09-10 11:00;CYOW 101100Z 08009KT 15SM FEW070 10/06 A3042 RMK AC1 SLP301

CYOW;2009-09-10 12:00;CYOW 101200Z 09008KT 15SM FEW048 FEW070 11/07 A3043 RMK SC1AC1 SLP308

CYOW;2009-09-10 13:00;CYOW 101300Z 09004KT 15SM FEW050 FEW070 13/09 A3045 RMK SC1AC1 SC TR SLP315

CYOW;2009-09-10 14:00;CYOW 101400Z 13004KT 15SM FEW070 FEW210 15/10 A3045 RMK AC1CI0 SLP312

CYOW;2009-09-10 15:00;CYOW 101500Z 16005KT 15SM FEW070 FEW210 18/10 A3044 RMK AC1CI0 SLP308

CYOW;2009-09-10 16:00;CYOW 101600Z 17006KT 15SM FEW230 20/10 A3043 RMK CI0 SLP307

CYOW;2009-09-10 17:00;CYOW 101700Z 17003KT 15SM FEW045 FEW080 SCT250 22/11 A3043 RMK CU1AC1CI1 SLP305

CYOW;2009-09-10 18:00;CYOW 101800Z 23003KT 15SM FEW045 FEW080 SCT250 22/11 A3042 RMK CU1AC1CI1 SLP301

CYOW;2009-09-10 19:00;CYOW 101900Z 16004KT 15SM FEW050 FEW080 SCT250 23/12 A3040 RMK CU1AC1CI1 SLP296

CYOW;2009-09-10 20:00;CYOW 102000Z 11005KT 15SM FEW055 BKN250 24/11 A3039 RMK CU2CI1 SLP292

CYOW;2009-09-10 21:00;CYOW 102100Z 14004KT 15SM FEW055 BKN250 23/11 A3038 RMK SC1CI2 SLP290

CYOW;2009-09-10 22:00;CYOW 102200Z 15004KT 15SM FEW055 BKN250 22/11 A3039 RMK SC1CI2 SLP291

CYOW;2009-09-10 23:00;CYOW 102300Z 12004KT 15SM FEW070 FEW200 BKN250 20/12 A3039 RMK AC1CI2CI2 SLP291

CYOW;2009-09-11 00:00;CYOW 110000Z 10004KT 15SM FEW200 BKN250 17/11 A3039 RMK CI2CI1 SLP293

CYOW;2009-09-11 01:00;CYOW 110100Z 09004KT 15SM BKN250 17/11 A3039 RMK CI5 SLP292

CYOW;2009-09-11 02:00;CYOW 110200Z 09006KT 15SM BKN250 16/12 A3038 RMK CI5 SLP291

CYOW;2009-09-11 03:00;CYOW 110300Z 10005KT 15SM BKN250 15/11 A3038 RMK CI4 SLP288

CYOW;2009-09-11 04:00;CYOW 110400Z 00000KT 15SM BKN250 16/11 A3037 RMK CI3 SLP287

CYOW;2009-09-11 05:00;CYOW 110500Z 03004KT 15SM SCT250 14/11 A3037 RMK CI2 SLP285

CYOW;2009-09-11 06:00;CYOW 110600Z 07003KT 15SM BKN250 13/11 A3036 RMK CI0 SLP284

CYOW;2009-09-11 07:00;CYOW 110700Z 06004KT 15SM BKN250 13/11 A3035 RMK CI0 SLP280

CYOW;2009-09-11 08:00;CYOW 110800Z 00000KT 15SM MIFG SCT250 11/10 A3037 RMK CI0 SLP285

CYOW;2009-09-11 09:00;CYOW 110900Z 00000KT 15SM MIFG FEW250 12/11 A3037 RMK CI0 SLP286

CYOW;2009-09-11 10:00;CYOW 111000Z 00000KT 15SM R07/4000VP6000FT/N R32/P6000FT/U PRFG FEW080 FEW200 BKN250 11/10 A3037 RMK AC1CI2CI1 SLP285

CYOW;2009-09-11 11:00;CYOW 111100Z 08003KT 15SM R07/P6000FT/D R32/3500VP6000FT/N PRFG FEW055 BKN250 11/09 A3037 RMK SC1CI2 SLP287

CYOW;2009-09-11 12:00;CYOW 111200Z 04004KT 15SM FEW055 BKN250 12/11 A3038 RMK SC1CI3 SLP289

CYOW;2009-09-11 13:00;CYOW 111300Z 08005KT 15SM FEW008 FEW055 BKN250 14/12 A3037 RMK CF1SC1CI4 LWR LYRS TR SLP286

CYOW;2009-09-11 14:00;CYOW 111400Z 08004KT 15SM FEW120 BKN250 15/12 A3036 RMK AC1CI3 SLP283

CYOW;2009-09-11 15:00;CYOW 111500Z 05002KT 15SM FEW120 BKN250 17/12 A3035 RMK AC1CI3 SLP279

CYOW;2009-09-11 16:00;CYOW 111600Z 02004KT 15SM FEW025 FEW120 BKN250 19/13 A3033 RMK CU1AC1CI2 CU TR SLP272

CYOW;2009-09-11 17:00;CYOW 111700Z 07006KT 15SM FEW030 FEW140 BKN250 20/13 A3031 RMK CU1AC1CI2 SLP264

CYOW;2009-09-11 18:00;CYOW 111800Z 04009KT 15SM FEW040 FEW140 BKN250 22/12 A3028 RMK CU1AC1CI2 AC TR SLP256

CYOW;2009-09-11 19:00;CYOW 111900Z 07008KT 15SM FEW040 FEW140 BKN250 22/12 A3026 RMK CU1AC1CI2 AC TR SLP249

CYOW;2009-09-11 20:00;CYOW 112000Z 08007KT 15SM FEW045 FEW140 BKN250 22/12 A3024 RMK SC1AC1CI2 SC TR SLP242

CYOW;2009-09-11 21:00;CYOW 112100Z 10006KT 15SM FEW045 FEW140 FEW180 BKN250 21/11 A3024 RMK SC1AC1AC1CI2 SC TR SLP241

CYOW;2009-09-11 22:00;CYOW 112200Z 12005KT 15SM FEW050 FEW140 FEW180 BKN250 20/10 A3024 RMK SC1AC1AC1CI2 SC TR SLP242

CYOW;2009-09-11 23:00;CYOW 112300Z 09004KT 15SM FEW140 FEW180 BKN250 18/11 A3023 RMK AC1AC1CI3 SLP239

CYOW;2009-09-12 00:00;CYOW 120000Z 07004KT 15SM FEW180 BKN250 17/11 A3023 RMK AC1CI2 SLP240

CYOW;2009-09-12 01:00;CYOW 120100Z 07005KT 15SM SCT250 16/11 A3022 RMK CI1 SLP236

CYOW;2009-09-12 02:00;CYOW 120200Z 04006KT 15SM SCT250 15/10 A3021 RMK CI2 SLP232

CYOW;2009-09-12 03:00;CYOW 120300Z 04004KT 15SM SCT250 15/09 A3021 RMK CI2 SLP231

CYOW;2009-09-12 04:00;CYOW 120400Z 03006KT 15SM BKN250 14/09 A3019 RMK CI3 SLP224

CYOW;2009-09-12 05:00;CYOW 120500Z 04005KT 15SM SCT250 13/09 A3019 RMK CI1 SLP224

CYOW;2009-09-12 06:00;CYOW 120600Z 04005KT 15SM SCT250 12/09 A3017 RMK CI2 SLP218

CYOW;2009-09-12 07:00;CYOW 120700Z 02006KT 15SM SCT250 12/09 A3017 RMK CI2 SLP217

CYOW;2009-09-12 08:00;CYOW 120800Z 01006KT 15SM SCT250 11/09 A3015 RMK CI1 SLP211

CYOW;2009-09-12 09:00;CYOW 120900Z 01005KT 15SM FEW250 10/08 A3015 RMK CI1 SLP211

CYOW;2009-09-12 10:00;CYOW 121000Z 01005KT 15SM FEW180 FEW250 10/08 A3015 RMK AC1CI1 CI TR SLP211

CYOW;2009-09-12 11:00;CYOW 121100Z 01005KT 15SM FEW120 SCT250 11/09 A3015 RMK AC2CI0 SLP212

CYOW;2009-09-12 12:00;CYOW 121200Z 02004KT 15SM FEW120 SCT250 12/09 A3015 RMK AC2CI0 SLP212

CYOW;2009-09-12 13:00;CYOW 121300Z 04005KT 15SM FEW120 FEW250 15/09 A3015 RMK AC2CI0 SLP212

CYOW;2009-09-12 14:00;CYOW 121400Z 05004KT 15SM FEW120 FEW250 18/09 A3014 RMK AC2CI0 SLP207

CYOW;2009-09-12 15:00;CYOW 121500Z 08005KT 15SM FEW120 FEW250 19/10 A3012 RMK AC2CI1 SLP200

CYOW;2009-09-12 16:00;CYOW 121600Z 10004KT 15SM FEW045 FEW140 FEW250 21/10 A3010 RMK CF1AC2CI1 SLP193

CYOW;2009-09-12 17:00;CYOW 121700Z 07004KT 15SM FEW045 FEW140 FEW250 22/11 A3008 RMK CF1AC2CI1 SLP186

CYOW;2009-09-12 18:00;CYOW 121800Z 12003KT 15SM FEW050 FEW140 FEW250 23/11 A3005 RMK CU1AC2CI1 SLP178

CYOW;2009-09-12 19:00;CYOW 121900Z 08006KT 15SM FEW055 FEW140 FEW250 24/09 A3003 RMK CU1AC1CI0 SLP171

CYOW;2009-09-12 20:00;CYOW 122000Z 00000KT 15SM FEW055 FEW140 FEW250 24/11 A3002 RMK SC1AC1CI1 SLP166

CYOW;2009-09-12 21:00;CYOW 122100Z 07003KT 15SM FEW060 FEW140 FEW250 24/10 A3001 RMK SC1AC1CI1 SLP162

CYOW;2009-09-12 22:00;CYOW 122200Z 18003KT 15SM FEW140 FEW250 23/10 A2999 RMK AC1CI1 SLP158

CYOW;2009-09-12 23:00;CYOW 122300Z 19003KT 15SM FEW140 FEW250 22/11 A2999 RMK AC1CI1 SLP155

CYOW;2009-09-13 00:00;CYOW 130000Z 21002KT 15SM FEW250 20/11 A2999 RMK CI2 SLP155

CYOW;2009-09-13 01:00;CYOW 130100Z 24004KT 15SM SCT250 18/11 A2998 RMK CI3 SLP154

CYOW;2009-09-13 02:00;CYOW 130200Z 20004KT 15SM SCT250 17/11 A2998 RMK CI3 SLP152

CYOW;2009-09-13 03:00;CYOW 130300Z 22004KT 15SM SCT250 16/11 A2996 RMK CI3 SLP148

CYOW;2009-09-13 04:00;CYOW 130400Z 24003KT 15SM FEW240 16/11 A2995 RMK CI1 SLP142

CYOW;2009-09-13 05:00;CYOW 130500Z 23004KT 15SM SKC 16/11 A2994 RMK SLP141

CYOW;2009-09-13 06:00;CYOW 130600Z 23006KT 15SM SKC 14/11 A2993 RMK SLP137

CYOW;2009-09-13 07:00;CYOW 130700Z 25006KT 15SM FEW060 14/10 A2992 RMK SC2 SLP132

CYOW;2009-09-13 08:00;CYOW 130800Z 25004KT 12SM BKN084 14/11 A2991 RMK AC6 SLP130

CYOW;2009-09-13 09:00;CYOW 130900Z 26006KT 12SM OVC057 16/12 A2991 RMK SC8 SLP128

CYOW;2009-09-13 10:00;CYOW 131000Z 29006KT 12SM SCT060 16/13 A2991 RMK SC3 SLP129

CYOW;2009-09-13 11:00;CYOW 131100Z 30007KT 12SM FEW050 BKN070 16/14 A2992 RMK SC2AC3 SLP132

CYOW;2009-09-13 12:00;CYOW 131200Z 31006KT 15SM FEW050 SCT070 16/15 A2994 RMK SC1AC2 SLP138

CYOW;2009-09-13 13:00;CYOW 131300Z 33010KT 15SM FEW020 FEW050 SCT100 BKN220 18/15 A2994 RMK CU1SC2AC2CI1 SLP141

CYOW;2009-09-13 14:00;CYOW 131400Z CCA 35012KT 15SM BKN025 BKN100 BKN220 19/14 A2995 RMK SC5AC1CI0 CU ASOCTD SLP143

CYOW;2009-09-13 15:00;CYOW 131500Z 36012KT 15SM SCT025 SCT100 SCT220 20/13 A2995 RMK CU4AC1CI1 SLP143

CYOW;2009-09-13 16:00;CYOW 131600Z 35010G16KT 15SM BKN032 BKN046 20/13 A2996 RMK CU5SC2 SLP146

CYOW;2009-09-13 17:00;CYOW 131700Z 35010G18KT 15SM SCT030 BKN055 21/12 A2996 RMK CU3SC2 SLP146

CYOW;2009-09-13 18:00;CYOW 131800Z 34010G15KT 15SM FEW042 SCT050 BKN250 20/11 A2995 RMK CU2SC2CI0 SLP143

CYOW;2009-09-13 19:00;CYOW 131900Z 34009KT 15SM BKN045 BKN050 BKN250 22/12 A2994 RMK CU5SC1CI0 SLP138

CYOW;2009-09-13 20:00;CYOW 132000Z 35008KT 15SM SCT045 BKN250 22/11 A2993 RMK CU4CI0 SLP135

CYOW;2009-09-13 21:00;CYOW 132100Z 30011KT 15SM SCT055 SCT250 22/11 A2992 RMK CU3CI0 SLP132

CYOW;2009-09-13 22:00;CYOW 132200Z 30010G15KT 15SM FEW055 SCT250 21/11 A2992 RMK CU2CI0 SLP132

CYOW;2009-09-13 23:00;CYOW 132300Z 31010G15KT 15SM FEW060 SCT250 18/09 A2993 RMK SC1CI1 SLP136

CYOW;2009-09-14 00:00;CYOW 140000Z CCA 34009KT 15SM BKN250 17/09 A2994 RMK CI2 SLP141

CYOW;2009-09-14 01:00;CYOW 140100Z 36009KT 15SM BKN250 15/08 A2996 RMK CI2 SLP148

CYOW;2009-09-14 02:00;CYOW 140200Z 35007KT 15SM BKN250 14/08 A2997 RMK CI2 SLP150

CYOW;2009-09-14 03:00;CYOW 140300Z 36005KT 15SM BKN250 13/08 A2997 RMK CI2 SLP150

CYOW;2009-09-14 04:00;CYOW 140400Z 35004KT 15SM SCT250 13/07 A2996 RMK CI2 SLP147

CYOW;2009-09-14 05:00;CYOW 140500Z 26002KT 15SM FEW100 SCT250 12/08 A2996 RMK AC1CI1 SLP145

CYOW;2009-09-14 06:00;CYOW 140600Z 22003KT 15SM FEW100 SCT250 11/08 A2995 RMK AC1CI1 SLP143

CYOW;2009-09-14 07:00;CYOW 140700Z 24003KT 15SM FEW100 SCT250 10/08 A2994 RMK AC1CI1 SLP141

CYOW;2009-09-14 08:00;CYOW 140800Z 23005KT 15SM FEW100 SCT250 10/08 A2993 RMK AC1CI1 SLP137

CYOW;2009-09-14 09:00;CYOW 140900Z 22004KT 15SM FEW100 BKN250 09/07 A2992 RMK AC1CI2 SLP134

CYOW;2009-09-14 10:00;CYOW 141000Z 22003KT 15SM FEW100 BKN250 10/08 A2993 RMK AC2CI2 SLP136

CYOW;2009-09-14 11:00;CYOW 141100Z 22005KT 15SM FEW045 SCT100 BKN240 10/08 A2993 RMK SC2AC1CI2 SLP137

CYOW;2009-09-14 12:00;CYOW 141200Z 23006KT 15SM FEW050 SCT100 BKN240 12/09 A2992 RMK SC2AC2CI1 SLP135

CYOW;2009-09-14 13:00;CYOW 141300Z 25007KT 15SM BKN025 BKN240 14/10 A2992 RMK SC3CI1 SLP135

CYOW;2009-09-14 14:00;CYOW 141400Z 27012KT 15SM BKN020 16/11 A2991 RMK SC7 SLP131

CYOW;2009-09-14 15:00;CYOW 141500Z 29010G16KT 15SM OVC020 16/11 A2990 RMK SC8 SLP128

CYOW;2009-09-14 16:00;CYOW 141600Z 30011KT 15SM FEW022 BKN240 18/12 A2989 RMK SC2CI2 SLP124

CYOW;2009-09-14 17:00;CYOW 141700Z 29008KT 15SM FEW030 FEW180 OVC240 19/13 A2987 RMK CU1AC1CI3 SLP118

CYOW;2009-09-14 18:00;CYOW 141800Z 30011KT 15SM FEW035 FEW180 BKN240 21/12 A2985 RMK SC1AC1CI2 AC TR SLP110

CYOW;2009-09-14 19:00;CYOW 141900Z 29009G16KT 15SM FEW040 BKN190 BKN240 23/13 A2983 RMK SC2AC3CI1 SLP103

CYOW;2009-09-14 20:00;CYOW 142000Z 28010KT 15SM FEW050 BKN100 BKN170 23/13 A2982 RMK SC2AC2AC2 SLP099

CYOW;2009-09-14 21:00;CYOW 142100Z 27005KT 10SM -SHRA SCT050 BKN070 OVC170 22/14 A2982 RMK SC3AC3AC2 SLP098

CYOW;2009-09-14 22:00;CYOW 142200Z 36010KT 10SM -SHRA OVC048 17/14 A2983 RMK SC8 VIS 5 NW-E SLP103

CYOW;2009-09-14 23:00;CYOW 142300Z 01003KT 10SM -SHRA FEW006 BKN011 BKN017 17/15 A2982 RMK SF1SC4SC2 TCU ASOCTD SLP099

CYOW;2009-09-14 23:40;CYOW 142340Z 19004KT 10SM BKN063 16/ RMK SC6 DIST PCPN W

CYOW;2009-09-15 00:00;CYOW 150000Z 26003KT 10SM -SHRA BKN027 OVC040 16/15 A2983 RMK SC6SC2 SLP104

CYOW;2009-09-15 00:08;CYOW 150008Z 00000KT 6SM -RA FEW008 OVC013 16/ RMK SF1SC8

CYOW;2009-09-15 00:40;CYOW 150040Z 18003KT 10SM FEW070 OVC110 16/ RMK AC2AC6 DIST OCNL LTNG NW

CYOW;2009-09-15 01:00;CYOW 150100Z 18003KT 10SM BKN073 OVC075 17/15 A2982 RMK AC5AC3 DIST OCNL LTNG NW SLP098

CYOW;2009-09-15 01:15;CYOW 150115Z CCA 00000KT 10SM -TSRA FEW018CB BKN020 OVC030 16/ RMK CB1SC5SC2 TS OVHD CB ASOCTD OCNL LTNG

CYOW;2009-09-15 02:00;CYOW 150200Z 25006KT 10SM -RA BKN018 OVC024 16/15 A2983 RMK SC5SC3 SLP104

CYOW;2009-09-15 03:00;CYOW 150300Z 27005KT 12SM FEW100 BKN120 15/14 A2982 RMK AC2AC5 SLP101

CYOW;2009-09-15 04:00;CYOW 150400Z 27007KT 15SM FEW110 15/14 A2984 RMK AC2 SLP107

CYOW;2009-09-15 05:00;CYOW 150500Z 29004KT 15SM FEW008 14/14 A2985 RMK SF1 SLP109

CYOW;2009-09-15 06:00;CYOW 150600Z 28006KT 15SM FEW008 14/14 A2986 RMK SF1 SLP112

CYOW;2009-09-15 07:00;CYOW 150700Z 30005KT 10SM R07/6000FT/U R32/4000FT/N BCFG FEW008 13/13 A2987 RMK SF1 SLP115

CYOW;2009-09-15 08:00;CYOW 150800Z 30005KT 15SM SCT250 12/12 A2988 RMK CI1 SLP121

CYOW;2009-09-15 09:00;CYOW 150900Z 31008KT 15SM FEW250 12/11 A2990 RMK CI1 SLP126

CYOW;2009-09-15 10:00;CYOW 151000Z 34010KT 15SM FEW010 FEW180 SCT250 11/10 A2992 RMK SF1AC1CI1 SF TR SLP132

CYOW;2009-09-15 11:00;CYOW 151100Z 34008KT 15SM FEW010 FEW180 SCT250 11/09 A2995 RMK SF1AC1CI0 SF TR SLP142

CYOW;2009-09-15 12:00;CYOW 151200Z 35006KT 15SM FEW010 FEW040 12/09 A2997 RMK SF1SC1 SLP151

CYOW;2009-09-15 13:00;CYOW 151300Z 35007KT 15SM BKN019 BKN030 12/10 A3000 RMK SC6SC1 SLP160

CYOW;2009-09-15 14:00;CYOW 151400Z 35010KT 15SM BKN024 BKN030 12/08 A3002 RMK SC6SC1 SLP166

CYOW;2009-09-15 15:00;CYOW 151500Z 34010KT 15SM BKN026 BKN035 13/09 A3003 RMK SC6SC1 SLP170

CYOW;2009-09-15 16:00;CYOW 151600Z 36012KT 15SM BKN028 14/08 A3003 RMK SC6 SLP171

CYOW;2009-09-15 17:00;CYOW 151700Z 34008KT 15SM BKN029 14/08 A3004 RMK SC7 SLP173

CYOW;2009-09-15 18:00;CYOW 151800Z 35009KT 15SM BKN034 15/08 A3004 RMK SC7 SLP173

CYOW;2009-09-15 19:00;CYOW 151900Z 01005KT 15SM BKN034 15/08 A3005 RMK SC7 SLP177

CYOW;2009-09-15 20:00;CYOW 152000Z 36006KT 15SM BKN041 15/08 A3005 RMK SC7 SLP179

CYOW;2009-09-15 21:00;CYOW 152100Z 33006KT 15SM BKN042 15/08 A3007 RMK SC7 SLP185

CYOW;2009-09-15 22:00;CYOW 152200Z 32009KT 15SM BKN055 14/09 A3009 RMK SC7 SLP190

CYOW;2009-09-15 23:00;CYOW 152300Z 35009KT 15SM BKN057 BKN100 14/08 A3011 RMK SC6AC1 SLP196

CYOW;2009-09-16 00:00;CYOW 160000Z 36005KT 15SM BKN060 14/08 A3013 RMK SC7 SLP204

CYOW;2009-09-16 01:00;CYOW 160100Z 34007KT 15SM BKN058 13/08 A3014 RMK SC7 SLP210

CYOW;2009-09-16 02:00;CYOW 160200Z 36006KT 15SM BKN060 13/09 A3016 RMK SC7 SLP214

CYOW;2009-09-16 03:00;CYOW 160300Z 36007KT 15SM OVC061 13/09 A3016 RMK SC8 SLP216

CYOW;2009-09-16 04:00;CYOW 160400Z 35006KT 15SM OVC062 13/09 A3017 RMK SC8 SLP219

CYOW;2009-09-16 05:00;CYOW 160500Z 36008KT 15SM OVC066 13/09 A3019 RMK AC8 SLP224

CYOW;2009-09-16 06:00;CYOW 160600Z 01006KT 15SM BKN064 12/09 A3020 RMK SC7 SLP230

CYOW;2009-09-16 07:00;CYOW 160700Z 05006KT 15SM FEW064 BKN070 12/08 A3022 RMK SC1AC6 SLP237

CYOW;2009-09-16 08:00;CYOW 160800Z 08008KT 15SM BKN068 11/08 A3024 RMK AC6 SLP242

CYOW;2009-09-16 09:00;CYOW 160900Z 07007KT 15SM FEW030 BKN068 10/06 A3026 RMK SC1AC6 SLP251

CYOW;2009-09-16 10:00;CYOW 161000Z 05005KT 15SM FEW030 BKN068 10/05 A3029 RMK SC1AC6 SLP259

CYOW;2009-09-16 11:00;CYOW 161100Z 05005KT 15SM FEW035 09/05 A3031 RMK SC2 SLP267

CYOW;2009-09-16 12:00;CYOW 161200Z 04007KT 15SM FEW035 10/06 A3033 RMK SC1 SLP273

CYOW;2009-09-16 13:00;CYOW 161300Z 05010KT 15SM FEW035 12/06 A3035 RMK SC1 SLP279

CYOW;2009-09-16 14:00;CYOW 161400Z 05011KT 15SM FEW035 13/06 A3036 RMK SC1 SLP285

CYOW;2009-09-16 15:00;CYOW 161500Z 05007KT 15SM BKN043 14/06 A3037 RMK SC6 SLP286

CYOW;2009-09-16 16:00;CYOW 161600Z 05008KT 15SM OVC037 14/06 A3037 RMK SC8 SLP286

CYOW;2009-09-16 17:00;CYOW 161700Z 05006KT 15SM OVC048 14/06 A3037 RMK SC8 SLP288

CYOW;2009-09-16 18:00;CYOW 161800Z 05008KT 15SM OVC046 15/06 A3036 RMK SC8 SLP285

CYOW;2009-09-16 19:00;CYOW 161900Z 04011KT 15SM BKN039 16/07 A3036 RMK SC7 SLP282

CYOW;2009-09-16 20:00;CYOW 162000Z 04007KT 15SM BKN041 15/07 A3035 RMK SC5 SLP280

CYOW;2009-09-16 21:00;CYOW 162100Z 03008KT 15SM BKN047 14/06 A3035 RMK SC6 SLP281

CYOW;2009-09-16 22:00;CYOW 162200Z 03010KT 15SM BKN047 14/06 A3036 RMK SC6 SLP283

CYOW;2009-09-16 23:00;CYOW 162300Z 04007KT 15SM FEW046 13/06 A3036 RMK SC2 SLP284

CYOW;2009-09-17 00:00;CYOW 170000Z 03006KT 15SM FEW046 12/06 A3036 RMK SC1 SLP286

CYOW;2009-09-17 01:00;CYOW 170100Z 04007KT 15SM SKC 11/06 A3036 RMK SLP286

CYOW;2009-09-17 02:00;CYOW 170200Z 03007KT 15SM SKC 10/07 A3036 RMK SLP283

CYOW;2009-09-17 03:00;CYOW 170300Z 04005KT 15SM SKC 10/07 A3035 RMK SLP281

CYOW;2009-09-17 04:00;CYOW 170400Z 04007KT 15SM SKC 10/06 A3035 RMK SLP279

CYOW;2009-09-17 05:00;CYOW 170500Z 04006KT 15SM SKC 09/06 A3034 RMK SLP275

CYOW;2009-09-17 06:00;CYOW 170600Z 04006KT 15SM FEW040 09/06 A3032 RMK SC1 SLP271

CYOW;2009-09-17 07:00;CYOW 170700Z 04005KT 15SM BKN036 09/06 A3031 RMK SC6 SLP268

CYOW;2009-09-17 08:00;CYOW 170800Z 04006KT 15SM BKN040 08/06 A3030 RMK SC6 SLP264

CYOW;2009-09-17 09:00;CYOW 170900Z 06005KT 15SM FEW038 BKN057 09/06 A3029 RMK SC1SC5 SLP261

CYOW;2009-09-17 10:00;CYOW 171000Z 05005KT 15SM BKN040 BKN060 08/06 A3029 RMK SC6SC1 SLP261

CYOW;2009-09-17 11:00;CYOW 171100Z 06004KT 15SM BKN043 08/06 A3029 RMK SC5 SLP259

CYOW;2009-09-17 12:00;CYOW 171200Z 07005KT 15SM FEW045 08/06 A3029 RMK SC2 SLP260

CYOW;2009-09-17 13:00;CYOW 171300Z 09004KT 15SM BKN026 10/07 A3028 RMK SC6 SLP257

CYOW;2009-09-17 14:00;CYOW 171400Z 08002KT 15SM FEW026 12/08 A3028 RMK SC2 SLP255

CYOW;2009-09-17 15:00;CYOW 171500Z 13004KT 15SM FEW023 BKN030 14/10 A3026 RMK SC2SC4 SLP250

CYOW;2009-09-17 16:00;CYOW 171600Z 21003KT 15SM FEW030 16/11 A3024 RMK SC1 SLP242

CYOW;2009-09-17 17:00;CYOW 171700Z 26005KT 15SM SCT030 17/11 A3021 RMK SC4 SLP234

CYOW;2009-09-17 18:00;CYOW 171800Z 22004KT 15SM BKN028 17/12 A3019 RMK SC7 SLP225

CYOW;2009-09-17 19:00;CYOW 171900Z 29004KT 15SM BKN030 18/12 A3015 RMK SC6 SLP212

CYOW;2009-09-17 20:00;CYOW 172000Z 19005KT 15SM BKN033 19/12 A3012 RMK SC6 CU ASOCT SLP201

CYOW;2009-09-17 21:00;CYOW 172100Z 18003KT 15SM FEW039 SCT040 19/12 A3010 RMK CU1SC4 SLP194

CYOW;2009-09-17 22:00;CYOW 172200Z 22007KT 15SM FEW035 19/12 A3008 RMK CU2 SLP188

CYOW;2009-09-17 23:00;CYOW 172300Z 18004KT 15SM FEW035TCU FEW065 17/12 A3005 RMK TCU1SC1 SLP179

CYOW;2009-09-18 00:00;CYOW 180000Z 22004KT 15SM FEW065 16/12 A3004 RMK SC1 SLP175

CYOW;2009-09-18 01:00;CYOW 180100Z 20006KT 15SM SKC 15/12 A3003 RMK SLP171

CYOW;2009-09-18 02:00;CYOW 180200Z 21005KT 15SM BKN053 15/12 A3002 RMK SC6 SLP168

CYOW;2009-09-18 03:00;CYOW 180300Z 22006KT 15SM SCT060 14/12 A3000 RMK SC4 SLP162

CYOW;2009-09-18 04:00;CYOW 180400Z 22006KT 15SM SCT060 13/11 A2999 RMK SC3 SLP157

CYOW;2009-09-18 05:00;CYOW 180500Z 27005KT 15SM FEW060 12/10 A2998 RMK SC2 SLP153

CYOW;2009-09-18 06:00;CYOW 180600Z 23005KT 15SM BKN070 12/10 A2995 RMK AC6 SLP145

CYOW;2009-09-18 07:00;CYOW 180700Z 22004KT 15SM OVC065 12/09 A2993 RMK SC8 SLP137

CYOW;2009-09-18 08:00;CYOW 180800Z 23007KT 15SM OVC056 12/09 A2991 RMK SC8 SLP130

CYOW;2009-09-18 08:34;CYOW 180834Z 23010KT 7SM -SHRA OVC040 12/ RMK SC8

CYOW;2009-09-18 09:00;CYOW 180900Z 23009KT 15SM OVC062 12/10 A2988 RMK SC8 SLP121

CYOW;2009-09-18 10:00;CYOW 181000Z 23008KT 15SM OVC026 12/11 A2988 RMK SC8 SLP119

CYOW;2009-09-18 11:00;CYOW 181100Z 24006KT 15SM OVC023 12/11 A2988 RMK SC8 SLP118

CYOW;2009-09-18 12:00;CYOW 181200Z 26005KT 15SM OVC023 13/11 A2989 RMK SC8 SLP122

CYOW;2009-09-18 12:44;CYOW 181244Z 26007KT 10SM -SHRA SCT007 BKN016 OVC030 13/ RMK SF3SC4SC1

CYOW;2009-09-18 13:00;CYOW 181300Z CCA 28007KT 15SM FEW007 SCT015 OVC036 14/13 A2991 RMK SF2SC2SC4 CVCTV CLDS EMBD SLP128

CYOW;2009-09-18 13:16;CYOW 181316Z 31012KT 15SM -SHRA FEW010 BKN015 BKN040 14/ RMK SF2SC4SC2 CVCTV CLDS EMBD

CYOW;2009-09-18 13:21;CYOW 181321Z 33011G16KT 15SM FEW015 FEW020 BKN045 14/ RMK SF1SC2SC4 CU ASOCT

CYOW;2009-09-18 14:00;CYOW 181400Z CCA 33012KT 15SM FEW015 BKN035 14/11 A2993 RMK SC2SC4 CU ASOCT SLP137

CYOW;2009-09-18 15:00;CYOW 181500Z 32014G20KT 15SM FEW028 BKN044 14/10 A2994 RMK CU2SC3 SLP142

CYOW;2009-09-18 16:00;CYOW 181600Z 32011KT 15SM FEW025 BKN041 16/09 A2995 RMK CU2SC4 SLP144

CYOW;2009-09-18 17:00;CYOW 181700Z 34016KT 15SM FEW025 BKN041 16/08 A2997 RMK CU2SC5 SLP151

CYOW;2009-09-18 18:00;CYOW 181800Z 32017KT 15SM FEW025 BKN050 15/07 A2999 RMK CU2SC4 SLP158

CYOW;2009-09-18 19:00;CYOW 181900Z 31015KT 15SM FEW025 SCT040 14/05 A3000 RMK CU2SC2 SLP160

CYOW;2009-09-18 20:00;CYOW 182000Z 29017KT 15SM FEW025 BKN047 14/07 A3001 RMK CU2SC5 SLP165

CYOW;2009-09-18 20:37;CYOW 182037Z 32020G25KT 15SM -SHRA FEW017 BKN035 12/ RMK CU2SC4

CYOW;2009-09-18 20:56;CYOW 182056Z 33017KT 15SM FEW015 BKN039 13/ RMK CU2SC6

CYOW;2009-09-18 21:00;CYOW 182100Z 32019G24KT 15SM FEW025 BKN056 13/06 A3003 RMK CU2SC5 SLP173

CYOW;2009-09-18 22:00;CYOW 182200Z 32018G24KT 15SM SCT046 13/03 A3005 RMK SC3 CU ASOCT SLP180

CYOW;2009-09-18 23:00;CYOW 182300Z 32010G17KT 15SM BKN052 12/04 A3009 RMK SC5 SLP191

CYOW;2009-09-19 00:00;CYOW 190000Z 32010G15KT 15SM FEW052 10/04 A3012 RMK SC1 SLP202

CYOW;2009-09-19 01:00;CYOW 190100Z 31010KT 15SM SKC 09/03 A3015 RMK SLP213

CYOW;2009-09-19 02:00;CYOW 190200Z 30006KT 15SM SKC 09/03 A3016 RMK SLP217

CYOW;2009-09-19 03:00;CYOW 190300Z 31008KT 15SM FEW150 08/03 A3018 RMK AC1 SLP223

CYOW;2009-09-19 04:00;CYOW 190400Z 29007KT 15SM FEW040 08/03 A3020 RMK SC1 SLP229

CYOW;2009-09-19 05:00;CYOW 190500Z 28006KT 15SM BKN038 08/04 A3021 RMK SC5 SLP232

CYOW;2009-09-19 06:00;CYOW 190600Z 26004KT 15SM FEW038 06/04 A3021 RMK SC2 SLP234

CYOW;2009-09-19 07:00;CYOW 190700Z 27006KT 15SM BKN034 06/04 A3022 RMK SC6 SLP238

CYOW;2009-09-19 08:00;CYOW 190800Z 30007KT 15SM BKN032 07/04 A3023 RMK SC5 SLP241

CYOW;2009-09-19 09:00;CYOW 190900Z 34007KT 15SM SKC 06/03 A3025 RMK SLP247

CYOW;2009-09-19 10:00;CYOW 191000Z 33007KT 15SM FEW150 05/03 A3026 RMK AC1 SLP251

CYOW;2009-09-19 11:00;CYOW 191100Z 33007KT 15SM FEW100 04/02 A3029 RMK AC1 SLP259

CYOW;2009-09-19 12:00;CYOW 191200Z 35005KT 15SM FEW100 06/03 A3031 RMK AC1 SLP266

CYOW;2009-09-19 13:00;CYOW 191300Z 34008KT 15SM FEW050 FEW100 08/03 A3032 RMK SC1AC1 SLP270

CYOW;2009-09-19 14:00;CYOW 191400Z 31007KT 15SM FEW050 FEW100 09/03 A3033 RMK SC1AC1 SLP274

CYOW;2009-09-19 15:00;CYOW 191500Z 24003KT 15SM FEW080 10/03 A3034 RMK AC1 SLP276

CYOW;2009-09-19 16:00;CYOW 191600Z 27005KT 15SM FEW080 FEW160 12/04 A3033 RMK AC1AC1 SLP273

CYOW;2009-09-19 17:00;CYOW 191700Z 31006KT 15SM FEW080 13/05 A3032 RMK AC1 SLP272

CYOW;2009-09-19 18:00;CYOW 191800Z 31006KT 15SM FEW080 14/05 A3031 RMK AC1 SLP265

CYOW;2009-09-19 19:00;CYOW 191900Z 28008KT 15SM FEW080 FEW250 15/04 A3029 RMK AC1CI1 SLP259

CYOW;2009-09-19 20:00;CYOW 192000Z 30007KT 15SM FEW080 FEW250 16/05 A3027 RMK AC1CI0 SLP254

CYOW;2009-09-19 21:00;CYOW 192100Z 29006KT 15SM FEW250 16/05 A3027 RMK CI0 SLP253

CYOW;2009-09-19 22:00;CYOW 192200Z 26005KT 15SM SCT230 16/04 A3027 RMK CI0 SLP252

CYOW;2009-09-19 23:00;CYOW 192300Z 27004KT 15SM SCT250 14/04 A3027 RMK CI1 SLP254

CYOW;2009-09-20 00:00;CYOW 200000Z 19002KT 15SM SCT250 13/03 A3026 RMK CI1 SLP251

CYOW;2009-09-20 01:00;CYOW 200100Z 22002KT 15SM SCT250 12/03 A3027 RMK CI1 SLP253

CYOW;2009-09-20 02:00;CYOW 200200Z 17003KT 15SM FEW250 10/03 A3028 RMK CI0 SLP256

CYOW;2009-09-20 03:00;CYOW 200300Z 19005KT 15SM FEW250 09/04 A3028 RMK CI0 SLP257

CYOW;2009-09-20 04:00;CYOW 200400Z 18004KT 15SM FEW250 08/04 A3027 RMK CI1 SLP255

CYOW;2009-09-20 05:00;CYOW 200500Z 21008KT 15SM FEW250 08/06 A3027 RMK CI0 SLP255

CYOW;2009-09-20 06:00;CYOW 200600Z 24003KT 15SM SKC 07/05 A3028 RMK SLP258

CYOW;2009-09-20 07:00;CYOW 200700Z 21003KT 15SM SKC 07/05 A3029 RMK SLP259

CYOW;2009-09-20 08:00;CYOW 200800Z 22003KT 15SM MIFG SKC 06/05 A3029 RMK SLP259

CYOW;2009-09-20 09:00;CYOW 200900Z 20005KT 15SM MIFG VCFG SKC 05/04 A3030 RMK VIS NW 2 SLP262

CYOW;2009-09-20 10:00;CYOW 201000Z 21005KT 15SM MIFG VCFG FEW250 05/04 A3030 RMK CI1 VIS NW 2 SLP262

CYOW;2009-09-20 11:00;CYOW 201100Z 19003KT 15SM MIFG FEW250 05/04 A3031 RMK CI1 SLP266

CYOW;2009-09-20 12:00;CYOW 201200Z 19002KT 15SM FEW250 05/04 A3031 RMK CI1 SLP268

CYOW;2009-09-20 13:00;CYOW 201300Z 23003KT 15SM FEW250 09/07 A3031 RMK CI1 SLP268

CYOW;2009-09-20 14:00;CYOW 201400Z 25006KT 15SM FEW250 12/07 A3031 RMK CI1 SLP268

CYOW;2009-09-20 15:00;CYOW 201500Z 25005KT 15SM FEW250 15/08 A3030 RMK CI1 SLP263

CYOW;2009-09-20 16:00;CYOW 201600Z 26005KT 15SM FEW250 16/09 A3028 RMK CI1 SLP258

CYOW;2009-09-20 17:00;CYOW 201700Z 26007KT 15SM FEW250 18/08 A3027 RMK CI1 SLP253

CYOW;2009-09-20 18:00;CYOW 201800Z 21005KT 15SM FEW250 19/07 A3025 RMK CI1 SLP245

CYOW;2009-09-20 19:00;CYOW 201900Z 24007KT 15SM FEW250 21/07 A3023 RMK CI1 SLP239

CYOW;2009-09-20 20:00;CYOW 202000Z 21008KT 15SM FEW250 21/07 A3022 RMK CI1 TR CI SLP235

CYOW;2009-09-20 21:00;CYOW 202100Z 25006KT 15SM SKC 22/07 A3022 RMK SLP234

CYOW;2009-09-20 22:00;CYOW 202200Z 23005KT 15SM SKC 21/07 A3021 RMK SLP233

CYOW;2009-09-20 23:00;CYOW 202300Z 19003KT 15SM FEW250 19/07 A3021 RMK CI1 SLP232

CYOW;2009-09-21 00:00;CYOW 210000Z 18004KT 15SM FEW250 16/08 A3021 RMK CI1 SLP234

CYOW;2009-09-21 01:00;CYOW 210100Z 19005KT 15SM SKC 15/08 A3022 RMK SLP236

CYOW;2009-09-21 02:00;CYOW 210200Z 19004KT 15SM SKC 14/06 A3023 RMK SLP239

CYOW;2009-09-21 03:00;CYOW 210300Z 19003KT 15SM SKC 13/04 A3024 RMK SLP241

CYOW;2009-09-21 04:00;CYOW 210400Z 00000KT 15SM SKC 11/04 A3024 RMK SLP241

CYOW;2009-09-21 05:00;CYOW 210500Z 00000KT 15SM SKC 11/04 A3024 RMK SLP241

CYOW;2009-09-21 06:00;CYOW 210600Z 18003KT 15SM SKC 10/03 A3024 RMK SLP241

CYOW;2009-09-21 07:00;CYOW 210700Z 16003KT 15SM SKC 08/03 A3024 RMK SLP242

CYOW;2009-09-21 08:00;CYOW 210800Z 17002KT 15SM SKC 08/03 A3024 RMK SLP243

CYOW;2009-09-21 09:00;CYOW 210900Z 00000KT 15SM SKC 08/01 A3024 RMK SLP243

CYOW;2009-09-21 10:00;CYOW 211000Z 05005KT 15SM SKC 07/03 A3025 RMK SLP246

CYOW;2009-09-21 11:00;CYOW 211100Z 08005KT 15SM FEW240 05/03 A3026 RMK CI1 FG OVR OTTAWA RIVER SLP250

CYOW;2009-09-21 12:00;CYOW 211200Z 05003KT 15SM FEW240 08/05 A3026 RMK CI1 SLP251

CYOW;2009-09-21 13:00;CYOW 211300Z 07004KT 15SM FEW240 11/07 A3026 RMK CI1 SLP250

CYOW;2009-09-21 14:00;CYOW 211400Z 13004KT 15SM FEW240 15/09 A3025 RMK CI1 SLP248

CYOW;2009-09-21 15:00;CYOW 211500Z 06005KT 15SM SCT240 17/10 A3024 RMK CI1 SLP243

CYOW;2009-09-21 16:00;CYOW 211600Z 12005KT 15SM BKN240 20/11 A3023 RMK CI2 SLP240

CYOW;2009-09-21 17:00;CYOW 211700Z 16007KT 15SM BKN240 21/11 A3021 RMK CI2 SLP232

CYOW;2009-09-21 18:00;CYOW 211800Z 11007KT 15SM FEW140 BKN240 22/11 A3019 RMK AC2CI2 SLP223

CYOW;2009-09-21 19:00;CYOW 211900Z 17005KT 15SM FEW140 BKN240 23/11 A3018 RMK AC2CI2 SLP221

CYOW;2009-09-21 20:00;CYOW 212000Z 13006KT 15SM FEW140 BKN240 22/11 A3017 RMK AC2CI2 SLP217

CYOW;2009-09-21 21:00;CYOW 212100Z 15006KT 15SM SCT140 BKN240 23/12 A3016 RMK AC3CI2 SLP215

CYOW;2009-09-21 22:00;CYOW 212200Z 13003KT 15SM FEW100 SCT140 BKN240 21/12 A3015 RMK AC2AC2CI2 SLP212

CYOW;2009-09-21 23:00;CYOW 212300Z 13003KT 15SM FEW140 BKN240 BKN250 18/12 A3016 RMK AC1CC4CI0 SLP213

CYOW;2009-09-22 00:00;CYOW 220000Z 12005KT 15SM SCT100 BKN240 18/12 A3016 RMK AC3CI2 SLP216

CYOW;2009-09-22 01:00;CYOW 220100Z 12004KT 15SM SCT240 16/11 A3016 RMK CI0 SLP215

CYOW;2009-09-22 02:00;CYOW 220200Z 14004KT 15SM BKN210 17/11 A3016 RMK CI2 SLP215

CYOW;2009-09-22 03:00;CYOW 220300Z 14004KT 15SM OVC044 18/12 A3015 RMK SC8 SLP212

CYOW;2009-09-22 04:00;CYOW 220400Z 16004KT 15SM BKN040 OVC120 18/13 A3014 RMK SC5AC3 SLP207

CYOW;2009-09-22 05:00;CYOW 220500Z 18003KT 15SM -SHRA FEW015 BKN070 OVC075 18/14 A3014 RMK SC2AC4AC2 SLP206

CYOW;2009-09-22 06:00;CYOW 220600Z 17004KT 10SM -SHRA FEW010 SCT018 OVC040 17/15 A3014 RMK SF1SC3SC5 SLP205

CYOW;2009-09-22 07:00;CYOW 220700Z 18005KT 10SM -SHRA BKN036 OVC047 17/15 A3013 RMK SC5SC3 SLP203

CYOW;2009-09-22 07:30;CYOW 220730Z 18005KT 10SM BKN031 OVC050 17/ RMK SC6SC2

CYOW;2009-09-22 08:00;CYOW 220800Z 19004KT 10SM BKN035 OVC072 17/16 A3012 RMK SC6AC2 SLP201

CYOW;2009-09-22 09:00;CYOW 220900Z 18003KT 6SM BR FEW010 OVC050 17/16 A3012 RMK SF1SC8 SLP200

CYOW;2009-09-22 10:00;CYOW 221000Z 19003KT 6SM BR BKN025 OVC050 17/17 A3012 RMK SC6SC2 SLP201

CYOW;2009-09-22 11:00;CYOW 221100Z 18005KT 6SM BR FEW025 OVC045 18/16 A3012 RMK SC2SC6 SLP201

CYOW;2009-09-22 12:00;CYOW 221200Z 21008KT 5SM -RA BR BKN010 OVC025 18/17 A3013 RMK SC5SC3 SLP205

CYOW;2009-09-22 12:40;CYOW 221240Z 20008KT 6SM BR BKN009 OVC025 18/ RMK SC5SC3

CYOW;2009-09-22 13:00;CYOW 221300Z 21008KT 8SM BKN008 OVC025 18/17 A3014 RMK SC5SC3 SLP207

CYOW;2009-09-22 14:00;CYOW 221400Z 21007KT 10SM BKN009 OVC025 19/17 A3014 RMK SC6SC2 SLP208

CYOW;2009-09-22 15:00;CYOW 221500Z 22007KT 10SM BKN009 OVC025 19/17 A3014 RMK SC6SC2 SLP209

CYOW;2009-09-22 15:39;CYOW 221539Z 19009KT 10SM BKN011 OVC025 20/ RMK SC6SC2

CYOW;2009-09-22 16:00;CYOW 221600Z 20011G16KT 15SM BKN011 OVC040 21/18 A3012 RMK SC5SC3 SLP201

CYOW;2009-09-22 16:52;CYOW 221652Z 20012G17KT 15SM SCT015 BKN042 22/ RMK SC3SC3

CYOW;2009-09-22 17:00;CYOW 221700Z 21013KT 15SM FEW015 BKN046 23/19 A3011 RMK SC2SC4 SLP197

CYOW;2009-09-22 18:00;CYOW 221800Z 22012KT 15SM BKN016 OVC045 23/19 A3010 RMK SC6SC2 SLP194

CYOW;2009-09-22 19:00;CYOW 221900Z 21010KT 15SM SCT018 BKN045 23/19 A3009 RMK SC3SC2 SLP189

CYOW;2009-09-22 20:00;CYOW 222000Z 21011KT 15SM FEW019 BKN035 22/18 A3009 RMK SC2SC5 SLP189

CYOW;2009-09-22 21:00;CYOW 222100Z 21007G16KT 15SM SCT019 BKN045 22/18 A3008 RMK SC4SC2 SLP187

CYOW;2009-09-22 22:00;CYOW 222200Z 21009KT 15SM BKN016 21/18 A3009 RMK SC7 SLP191

CYOW;2009-09-22 23:00;CYOW 222300Z 22007KT 12SM OVC013 21/18 A3010 RMK SC8 SLP193

CYOW;2009-09-23 00:00;CYOW 230000Z 21003KT 10SM OVC012 20/18 A3010 RMK SC8 SLP194

CYOW;2009-09-23 01:00;CYOW 230100Z 19004KT 12SM SCT013 OVC015 20/18 A3011 RMK SC3SC5 SLP195

CYOW;2009-09-23 02:00;CYOW 230200Z 21006KT 12SM OVC013 19/18 A3009 RMK SC8 SLP190

CYOW;2009-09-23 03:00;CYOW 230300Z 19006KT 12SM BKN017 19/18 A3008 RMK SC6 SLP185

CYOW;2009-09-23 04:00;CYOW 230400Z 20005KT 12SM FEW015 19/18 A3006 RMK SC1 SLP179

CYOW;2009-09-23 05:00;CYOW 230500Z 20004KT 10SM SCT007 OVC015 19/18 A3006 RMK SF3SC5 SLP179

CYOW;2009-09-23 06:00;CYOW 230600Z 18004KT 10SM FEW005 OVC006 19/18 A3005 RMK SF2ST6 SLP175

CYOW;2009-09-23 07:00;CYOW 230700Z 18003KT 10SM SCT009 OVC065 19/18 A3003 RMK ST3SC5 SLP171

CYOW;2009-09-23 08:00;CYOW 230800Z 21004KT 10SM OVC007 19/19 A3004 RMK ST8 SLP172

CYOW;2009-09-23 09:00;CYOW 230900Z 20004KT 10SM SCT007 OVC015 19/18 A3002 RMK ST3SC5 SLP165

CYOW;2009-09-23 10:00;CYOW 231000Z CCE 22006KT 10SM OVC007 20/19 A3001 RMK ST8 SLP162

CYOW;2009-09-23 11:00;CYOW 231100Z 22005KT 6SM BR OVC009 20/19 A3000 RMK SC8 SLP159

CYOW;2009-09-23 12:00;CYOW 231200Z 22005KT 6SM BR OVC010 20/19 A3000 RMK SC8 SLP159

CYOW;2009-09-23 13:00;CYOW 231300Z 21008KT 6SM BR OVC009 21/19 A2998 RMK SC8 SLP153

CYOW;2009-09-23 14:00;CYOW 231400Z 23006KT 7SM OVC012 21/19 A2999 RMK SC8 SLP154

CYOW;2009-09-23 14:04;CYOW 231404Z 22007KT 5SM -RA BR OVC011 21/ RMK SC8 VRY LGT RA

CYOW;2009-09-23 15:00;CYOW 231500Z 22007KT 3SM -RA BR OVC012 20/19 A2998 RMK NS8 SLP153

CYOW;2009-09-23 16:00;CYOW 231600Z 20008KT 3SM -RA BR OVC005 20/19 A2993 RMK NS8 SLP135

CYOW;2009-09-23 16:46;CYOW 231646Z 22008KT 10SM -RA SCT005 OVC015 20/ RMK SC3SC5

CYOW;2009-09-23 17:00;CYOW 231700Z 22008KT 12SM -RA SCT005 OVC029 20/20 A2993 RMK SC3SC5 VRY LGT RA SLP136

CYOW;2009-09-23 17:39;CYOW 231739Z 20005KT 15SM FEW010 BKN016 21/ RMK SC2SC5

CYOW;2009-09-23 18:00;CYOW 231800Z 22008KT 15SM FEW010 BKN015 22/20 A2990 RMK SC2SC5 SLP125

CYOW;2009-09-23 19:00;CYOW 231900Z 25008KT 15SM BKN015 OVC024 22/20 A2989 RMK SC5SC3 SLP122

CYOW;2009-09-23 19:24;CYOW 231924Z 23006KT 15SM -RA SCT006 OVC012 22/ RMK SF3SC5

CYOW;2009-09-23 19:46;CYOW 231946Z CCA 23006KT 1/2SM SHRA BKN010 OVC018 22/ RMK RA1SF5SC2 CVCTV CLDS EMBD

CYOW;2009-09-23 19:52;CYOW 231952Z 26007KT 12SM -SHRA BKN011 OVC025 21/ RERA RMK SF5SC3 CVCTV CLDS EMBD

CYOW;2009-09-23 20:00;CYOW 232000Z 29009KT 15SM -SHRA SCT010 OVC029 21/20 A2988 RERA RMK SF3SC5 CVCTV CLDS EMBD VRY LGT SH SLP119

CYOW;2009-09-23 20:39;CYOW 232039Z 29006KT 15SM FEW010 BKN030 BKN041 20/ RMK SF1SC4SC2 CU ASOCT

CYOW;2009-09-23 21:00;CYOW 232100Z 26004KT 15SM FEW010 SCT030 BKN054 19/18 A2988 RMK SF1SC3SC3 CU ASOCT SLP120

CYOW;2009-09-23 22:00;CYOW 232200Z 27005KT 15SM SCT050 19/18 A2990 RMK SC4 SLP125

CYOW;2009-09-23 23:00;CYOW 232300Z 28006KT 15SM FEW100 FEW240 18/17 A2990 RMK AC1CI1 TCU TOPS N SLP125

CYOW;2009-09-24 00:00;CYOW 240000Z 30007KT 12SM FEW020 OVC033 19/18 A2993 RMK SC2SC6 SLP135

CYOW;2009-09-24 01:00;CYOW 240100Z 34012KT 15SM FEW020 OVC064 19/16 A2997 RMK SC1SC7 SLP148

CYOW;2009-09-24 02:00;CYOW 240200Z 32015KT 15SM FEW030 OVC072 17/13 A2999 RMK SC1AC7 SLP157

CYOW;2009-09-24 03:00;CYOW 240300Z 34009KT 15SM BKN072 15/11 A3001 RMK AC5 SLP164

CYOW;2009-09-24 04:00;CYOW 240400Z 31007KT 15SM SKC 13/11 A3002 RMK SLP168

CYOW;2009-09-24 05:00;CYOW 240500Z 32007KT 15SM SKC 13/11 A3004 RMK SLP174

CYOW;2009-09-24 06:00;CYOW 240600Z 32006KT 15SM SKC 12/10 A3005 RMK SLP178

CYOW;2009-09-24 07:00;CYOW 240700Z 32006KT 15SM SKC 12/10 A3005 RMK SLP178

CYOW;2009-09-24 08:00;CYOW 240800Z 23003KT 15SM MIFG SKC 12/11 A3006 RMK SLP180

CYOW;2009-09-24 09:00;CYOW 240900Z 28002KT 15SM R07/2800V6000FT/N R32/2400FT/N MIFG SKC 10/10 A3007 RMK SLP184

CYOW;2009-09-24 10:00;CYOW 241000Z 27005KT 15SM FEW200 10/10 A3008 RMK CI1 SLP188

CYOW;2009-09-24 11:00;CYOW 241100Z 28005KT 15SM FEW200 10/10 A3009 RMK CI1 SLP192

CYOW;2009-09-24 12:00;CYOW 241200Z 30007KT 15SM FEW200 12/11 A3010 RMK CI0 SLP195

CYOW;2009-09-24 13:00;CYOW 241300Z 29008KT 15SM FEW060 FEW200 13/11 A3011 RMK SC1CI0 SLP199

CYOW;2009-09-24 14:00;CYOW 241400Z 32011KT 15SM FEW015 FEW200 14/11 A3013 RMK CU2CI0 SLP204

CYOW;2009-09-24 15:00;CYOW 241500Z 32006KT 15SM SCT025 15/11 A3013 RMK CU3 SLP205

CYOW;2009-09-24 16:00;CYOW 241600Z 31011KT 15SM SCT025 15/10 A3012 RMK CU3 SLP201

CYOW;2009-09-24 17:00;CYOW 241700Z 31010KT 15SM FEW030 SCT250 16/09 A3011 RMK CU2CI1 SLP198

CYOW;2009-09-24 18:00;CYOW 241800Z 25009KT 15SM FEW032 FEW250 16/08 A3009 RMK CU1CI1 SLP191

CYOW;2009-09-24 19:00;CYOW 241900Z 30012KT 15SM FEW035 FEW250 17/08 A3009 RMK CU1CI1 SLP192

CYOW;2009-09-24 20:00;CYOW 242000Z 29008KT 15SM FEW040 FEW250 17/09 A3009 RMK CU1CI1 SLP192

CYOW;2009-09-24 21:00;CYOW 242100Z 29008KT 15SM FEW045 FEW250 17/07 A3009 RMK CU1CI1 SLP190

CYOW;2009-09-24 22:00;CYOW 242200Z 31010KT 15SM FEW050 FEW080 FEW250 16/07 A3010 RMK SC1AC1CI1 SC TR SLP193

CYOW;2009-09-24 23:00;CYOW 242300Z 29005KT 15SM FEW050 FEW080 FEW250 14/07 A3011 RMK SC1AC1CI1 TCU TOPS DIST S SLP197

CYOW;2009-09-25 00:00;CYOW 250000Z 30005KT 15SM BKN090 13/07 A3012 RMK AC5 SLP202

CYOW;2009-09-25 01:00;CYOW 250100Z 27004KT 15SM FEW060 BKN110 14/07 A3013 RMK SC1AC6 SLP206

CYOW;2009-09-25 02:00;CYOW 250200Z 36005KT 15SM BKN060 OVC110 14/08 A3014 RMK SC6AC2 SLP208

CYOW;2009-09-25 03:00;CYOW 250300Z 36010G15KT 15SM OVC055 13/07 A3016 RMK SC8 SLP217

CYOW;2009-09-25 03:54;CYOW 250354Z 35015KT 15SM -SHRA FEW030 BKN050 11/ RMK SC1SC6

CYOW;2009-09-25 04:00;CYOW 250400Z 36012G18KT 15SM -SHRA FEW025 BKN050 11/07 A3019 RMK SC1SC6 SLP226

CYOW;2009-09-25 04:16;CYOW 250416Z 36011G16KT 15SM FEW025 BKN046 11/ RMK SC1SC6

CYOW;2009-09-25 05:00;CYOW 250500Z 35008KT 15SM FEW050 SCT075 10/06 A3021 RMK SC1AC2 SLP231

CYOW;2009-09-25 06:00;CYOW 250600Z 34008KT 15SM BKN027 09/06 A3023 RMK SC5 SLP239

CYOW;2009-09-25 07:00;CYOW 250700Z 35007KT 15SM OVC019 10/06 A3025 RMK SC8 SLP247

CYOW;2009-09-25 08:00;CYOW 250800Z 35007KT 15SM BKN019 OVC030 09/06 A3027 RMK SC7SC1 SLP252

CYOW;2009-09-25 09:00;CYOW 250900Z 03009KT 15SM BKN028 08/03 A3029 RMK SC6 SLP260

CYOW;2009-09-25 10:00;CYOW 251000Z 36007KT 15SM BKN027 07/02 A3031 RMK SC6 SLP268

CYOW;2009-09-25 11:00;CYOW 251100Z 03004KT 15SM SCT026 07/02 A3034 RMK SC4 SLP277

CYOW;2009-09-25 12:00;CYOW 251200Z 36007KT 15SM SCT025 07/03 A3036 RMK SC4 SLP286

CYOW;2009-09-25 13:00;CYOW 251300Z 03008KT 15SM BKN025 08/03 A3039 RMK SC6 SLP293

CYOW;2009-09-25 14:00;CYOW 251400Z 03009KT 15SM BKN024 09/03 A3040 RMK SC5 SLP298

CYOW;2009-09-25 15:00;CYOW 251500Z 02005KT 15SM SCT028 10/04 A3040 RMK SC4 CU ASOCTD SLP298

CYOW;2009-09-25 16:00;CYOW 251600Z 05007KT 15SM SCT031 12/04 A3039 RMK SC3 CU ASOCTD SLP296

CYOW;2009-09-25 17:00;CYOW 251700Z 16004KT 15SM SCT034 12/04 A3039 RMK CU3 SLP296

CYOW;2009-09-25 18:00;CYOW 251800Z 06004KT 15SM FEW039 13/04 A3039 RMK CU2 SLP293

CYOW;2009-09-25 19:00;CYOW 251900Z 00000KT 15SM FEW040 14/04 A3038 RMK CU2 SLP290

CYOW;2009-09-25 20:00;CYOW 252000Z 04003KT 15SM FEW044 14/04 A3038 RMK CU1 SLP290

CYOW;2009-09-25 21:00;CYOW 252100Z 07003KT 15SM FEW045 14/03 A3037 RMK CU1 SLP288

CYOW;2009-09-25 22:00;CYOW 252200Z 07002KT 15SM FEW050 14/04 A3037 RMK SC1 SLP289

CYOW;2009-09-25 23:00;CYOW 252300Z 11002KT 15SM SKC 11/04 A3037 RMK SLP288

CYOW;2009-09-26 00:00;CYOW 260000Z 15002KT 15SM SKC 12/04 A3038 RMK SLP292

CYOW;2009-09-26 01:00;CYOW 260100Z 14005KT 15SM SKC 08/03 A3038 RMK SLP291

CYOW;2009-09-26 02:00;CYOW 260200Z 12003KT 15SM SKC 08/04 A3038 RMK SLP290

CYOW;2009-09-26 03:00;CYOW 260300Z 14002KT 15SM SKC 07/03 A3037 RMK SLP289

CYOW;2009-09-26 04:00;CYOW 260400Z 14004KT 15SM SKC 06/03 A3037 RMK SLP287

CYOW;2009-09-26 05:00;CYOW 260500Z 13003KT 15SM SKC 06/03 A3036 RMK SLP285

CYOW;2009-09-26 06:00;CYOW 260600Z 13005KT 15SM SKC 04/02 A3035 RMK SLP281

CYOW;2009-09-26 07:00;CYOW 260700Z 09005KT 15SM SKC 04/02 A3032 RMK SLP270

CYOW;2009-09-26 08:00;CYOW 260800Z 08003KT 15SM SKC 03/02 A3031 RMK SLP267

CYOW;2009-09-26 09:00;CYOW 260900Z 10005KT 15SM SKC 03/02 A3030 RMK SLP264

CYOW;2009-09-26 10:00;CYOW 261000Z 09004KT 15SM SKC 03/02 A3029 RMK SLP261

CYOW;2009-09-26 11:00;CYOW 261100Z CCA 07005KT 15SM FEW150 03/02 A3028 RMK AC2 FOG OVR OTTAWA RIVER SLP258

CYOW;2009-09-26 12:00;CYOW 261200Z 07004KT 15SM FEW150 04/03 A3027 RMK AC2 FG OVR OTTAWA RIVER SLP255

CYOW;2009-09-26 13:00;CYOW 261300Z 09004KT 15SM SCT150 07/05 A3025 RMK AC3 FG OVR OTTAWA RIVER SLP247

CYOW;2009-09-26 14:00;CYOW 261400Z 13005KT 15SM FEW150 10/06 A3022 RMK AC2 SLP239

CYOW;2009-09-26 15:00;CYOW 261500Z 16004KT 15SM FEW150 13/07 A3019 RMK AC2 SLP226

CYOW;2009-09-26 16:00;CYOW 261600Z 20005KT 15SM FEW150 15/07 A3014 RMK AC2 SLP210

CYOW;2009-09-26 17:00;CYOW 261700Z 16006KT 15SM FEW150 17/08 A3011 RMK AC2 SLP199

CYOW;2009-09-26 18:00;CYOW 261800Z 17009KT 15SM FEW040 BKN080 18/09 A3007 RMK CU2AC5 SLP186

CYOW;2009-09-26 19:00;CYOW 261900Z 16007G15KT 15SM FEW040 BKN080 19/09 A3004 RMK CU2AC6 SLP175

CYOW;2009-09-26 20:00;CYOW 262000Z 18008KT 15SM FEW050 BKN080 18/09 A3002 RMK CU2AC6 SLP168

CYOW;2009-09-26 21:00;CYOW 262100Z 21008KT 15SM SCT050 OVC100 17/10 A3000 RMK SC3AC5 SLP162

CYOW;2009-09-26 22:00;CYOW 262200Z 22003KT 15SM SCT044 OVC100 16/10 A2999 RMK SC4AC4 SLP159

CYOW;2009-09-26 23:00;CYOW 262300Z 13002KT 15SM BKN042 OVC080 15/11 A2997 RMK SC6AS2 SLP153

CYOW;2009-09-27 00:00;CYOW 270000Z 16006KT 15SM OVC041 15/11 A2996 RMK SC8 SLP147

CYOW;2009-09-27 01:00;CYOW 270100Z 18007KT 15SM OVC040 15/10 A2995 RMK SC8 SLP144

CYOW;2009-09-27 02:00;CYOW 270200Z 17004KT 15SM OVC036 15/10 A2993 RMK SC8 SLP137

CYOW;2009-09-27 03:00;CYOW 270300Z 18009G15KT 15SM OVC033 15/09 A2990 RMK NS8 SLP126

CYOW;2009-09-27 03:43;CYOW 270343Z 17004KT 15SM -RA OVC029 14/ RMK NS8

CYOW;2009-09-27 04:00;CYOW 270400Z 17006KT 12SM -RA OVC029 14/10 A2987 RMK NS8 SLP116

CYOW;2009-09-27 05:00;CYOW 270500Z 18005KT 7SM -RA OVC025 12/11 A2985 RMK NS8 SLP111

CYOW;2009-09-27 06:00;CYOW 270600Z 12004KT 6SM -RA BR FEW006 OVC016 12/11 A2983 RERA RMK SF2NS6 SLP104

CYOW;2009-09-27 06:20;CYOW 270620Z CCA 14006KT 6SM -RA BR SCT004 OVC010 12/ RMK SF3NS5

CYOW;2009-09-27 06:34;CYOW 270634Z 14005KT 6SM -RA BR SCT004 OVC008 11/ RMK SF3NS5

CYOW;2009-09-27 07:00;CYOW 270700Z 15007KT 5SM -RA BR FEW004 OVC008 11/11 A2980 RMK SF2NS6 SLP094

CYOW;2009-09-27 08:00;CYOW 270800Z 14007KT 6SM -RA BR OVC007 11/11 A2977 RMK SF8 SLP084

CYOW;2009-09-27 09:00;CYOW 270900Z 13006KT 4SM -RA BR OVC006 11/11 A2976 RMK SF8 SLP079

CYOW;2009-09-27 09:33;CYOW 270933Z 13006KT 3SM RA BR OVC004 11/ RMK SF8

CYOW;2009-09-27 10:00;CYOW 271000Z 13007KT 4SM -RA BR OVC004 11/11 A2974 RERA RMK SF8 SLP073

CYOW;2009-09-27 11:00;CYOW 271100Z 12008KT 4SM -RA BR BKN004 OVC020 11/11 A2972 RMK SF6NS2 SLP066

CYOW;2009-09-27 12:00;CYOW 271200Z 14007KT 10SM -RA BKN004 OVC020 12/11 A2971 RMK SF5NS3 SLP064

CYOW;2009-09-27 13:00;CYOW 271300Z 13007KT 10SM -RA OVC004 12/12 A2969 RMK SF8 SLP057

CYOW;2009-09-27 14:00;CYOW 271400Z 17004KT 12SM -RA OVC004 13/12 A2970 RMK SF8 RA VRY LGT SLP058

CYOW;2009-09-27 15:00;CYOW 271500Z 16003KT 10SM -RA OVC005 13/13 A2967 RMK SF8 RA VRY LGT SLP050

CYOW;2009-09-27 15:38;CYOW 271538Z 18005KT 12SM OVC005 14/ RMK SF8

CYOW;2009-09-27 16:00;CYOW 271600Z 18004KT 12SM OVC006 14/13 A2965 RMK SF8 SLP042

CYOW;2009-09-27 17:00;CYOW 271700Z 15003KT 12SM OVC007 14/13 A2962 RMK SF8 SLP033

CYOW;2009-09-27 17:22;CYOW 271722Z 12003KT 10SM -RA OVC008 15/ RMK SF8

CYOW;2009-09-27 18:00;CYOW 271800Z 12004KT 12SM -RA OVC008 15/14 A2960 RMK SF8 SLP024

CYOW;2009-09-27 19:00;CYOW 271900Z 13005KT 12SM -RA OVC008 15/14 A2958 RMK SF8 SLP017

CYOW;2009-09-27 19:45;CYOW 271945Z 12003KT 12SM OVC010 15/ RMK SC8

CYOW;2009-09-27 20:00;CYOW 272000Z 11005KT 10SM -RA OVC010 15/14 A2956 RMK SC8 SLP013

CYOW;2009-09-27 21:00;CYOW 272100Z 10005KT 12SM -RA OVC012 15/14 A2955 RMK SC8 RA VRY LGT SLP009

CYOW;2009-09-27 22:00;CYOW 272200Z 09006KT 10SM -RA BKN007 OVC020 14/14 A2955 RMK SF5SC3 RA VRY LGT SLP008

CYOW;2009-09-27 23:00;CYOW 272300Z 10006KT 8SM -RA OVC006 14/14 A2955 RMK SF8 SLP007

CYOW;2009-09-28 00:00;CYOW 280000Z 09006KT 10SM -RA OVC005 14/14 A2955 RMK SF8 SLP007

CYOW;2009-09-28 00:47;CYOW 280047Z 09004KT 10SM -RA OVC004 14/ RMK SF8

CYOW;2009-09-28 01:00;CYOW 280100Z 08005KT 10SM -RA OVC004 14/14 A2953 RMK SF8 SLP003

CYOW;2009-09-28 01:17;CYOW 280117Z 09004KT 8SM OVC003 14/ RMK ST8

CYOW;2009-09-28 02:00;CYOW 280200Z 09004KT 6SM BR OVC003 14/14 A2952 RMK ST8 SLP999

CYOW;2009-09-28 02:17;CYOW 280217Z 11004KT 3SM BR OVC002 14/ RMK FG1ST7

CYOW;2009-09-28 02:32;CYOW 280232Z 13004KT 1 1/2SM BR OVC002 14/ RMK FG5ST3

CYOW;2009-09-28 03:00;CYOW 280300Z 00000KT 3SM BR OVC002 14/14 A2951 RMK FG1ST7 SLP996

CYOW;2009-09-28 03:37;CYOW 280337Z 00000KT 4SM BR OVC004 14/ RMK ST8

CYOW;2009-09-28 04:00;CYOW 280400Z 17002KT 2SM -DZ BR OVC004 14/14 A2951 RMK FG3ST5 SLP993

CYOW;2009-09-28 04:18;CYOW 280418Z 16002KT 1/2SM R07/P6000FT/D R32/P6000FT/D -DZ FG VV002 14/ RMK FG8

CYOW;2009-09-28 04:33;CYOW 280433Z 16002KT 3/8SM R07/3500V5500FT/D R32/3000V5500FT/D -DZ FG VV001 14/ RMK FG8

CYOW;2009-09-28 05:00;CYOW 280500Z 16002KT 1/4SM R07/2400FT/N R32/2200FT/N -DZ FG VV001 14/14 A2950 RMK FG8 SLP991

CYOW;2009-09-28 06:00;CYOW 280600Z 16002KT 3/8SM R07/4000FT/N R32/3000FT/N -DZ FG VV001 14/14 A2948 RMK FG8 SLP984

CYOW;2009-09-28 06:33;CYOW 280633Z 17002KT 3/8SM R07/3000FT/N R32/2600FT/N FG VV001 14/ RMK FG8

CYOW;2009-09-28 07:00;CYOW 280700Z 19004KT 3/4SM R07/P6000FT/U R32/P6000FT BR OVC001 14/14 A2945 RMK FG6ST2 VIS N 2 SLP975

CYOW;2009-09-28 07:13;CYOW 280713Z 19003KT 1 1/2SM BR OVC002 14/ RMK FG5ST3

CYOW;2009-09-28 07:38;CYOW 280738Z 17003KT 3SM BR OVC003 14/ RMK FG1ST7

CYOW;2009-09-28 08:00;CYOW 280800Z 17003KT 3SM BR OVC003 14/14 A2944 RMK FG7ST1 SLP970

CYOW;2009-09-28 08:33;CYOW 280833Z 18003KT 1SM R07/P6000FT/D R32/P6000FT/D BR VV002 14/ RMK FG8

CYOW;2009-09-28 09:00;CYOW 280900Z 18004KT 1SM R07/P6000FT/U R32/P6000FT/D BR VV002 14/14 A2943 RMK FG8 SLP967

CYOW;2009-09-28 09:33;CYOW 280933Z 20003KT 3SM BR OVC002 15/ RMK FG1ST7

CYOW;2009-09-28 10:00;CYOW 281000Z 00000KT 3SM BR OVC002 15/14 A2942 RMK FG1ST7 SLP962

CYOW;2009-09-28 11:00;CYOW 281100Z 00000KT 2SM BR BKN003 OVC017 15/14 A2942 RMK FG2SF5SC2 SLP965

CYOW;2009-09-28 11:30;CYOW 281130Z 18002KT 3SM BR SCT003 BKN017 14/ RMK SF3SC4

CYOW;2009-09-28 12:00;CYOW 281200Z 17002KT 4SM BR SCT002 OVC017 14/14 A2943 RMK SF3SC5 SLP967

CYOW;2009-09-28 13:00;CYOW 281300Z 16004KT 4SM BR BKN010 15/14 A2942 RMK SF6 SLP963

CYOW;2009-09-28 14:00;CYOW 281400Z 14005KT 4SM BR BKN008 OVC020 16/14 A2939 RMK SF5SC3 SLP953

CYOW;2009-09-28 15:00;CYOW 281500Z 12010KT 5SM BR OVC010 16/15 A2935 RMK SC8 SLP941

CYOW;2009-09-28 16:00;CYOW 281600Z 12007KT 5SM BR SCT010 OVC020 16/15 A2932 RMK SF3SC5 SLP930

CYOW;2009-09-28 16:21;CYOW 281621Z 12007KT 5SM -RA BR FEW009 OVC020 17/ RMK SC2SC6

CYOW;2009-09-28 17:00;CYOW 281700Z 13009KT 5SM -RA BR FEW009 OVC014 16/15 A2932 RMK SC2SC6 SLP929

CYOW;2009-09-28 17:42;CYOW 281742Z 12011G16KT 4SM -RA BR SCT009 OVC040 16/ RMK SC3SC5

CYOW;2009-09-28 18:00;CYOW 281800Z 12011KT 5SM -RA BR FEW009 SCT030 OVC080 16/15 A2928 RMK SC1SC2AC5 VRY LGT RA SLP915

CYOW;2009-09-28 18:37;CYOW 281837Z 14011G19KT 4SM RA BR FEW009 OVC014 15/ RMK SC2SC6

CYOW;2009-09-28 18:54;CYOW 281854Z 15011G19KT 2 1/2SM RA BR SCT009 OVC016 15/ RMK SC4SC4

CYOW;2009-09-28 19:00;CYOW 281900Z 14009G16KT 3SM -RA BR BKN009 OVC016 15/14 A2925 RMK SC5SC3 SLP906

CYOW;2009-09-28 19:35;CYOW 281935Z 14007KT 5SM -RA BR FEW006 OVC017 15/ RMK SC1SC7

CYOW;2009-09-28 20:00;CYOW 282000Z 16010G15KT 5SM -RA BR FEW006 BKN018 OVC100 15/14 A2925 RMK SC1SC6AC1 VRY LGT RA VIS S 10 SLP906

CYOW;2009-09-28 20:38;CYOW 282038Z 18007KT 15SM FEW016 SCT040 BKN080 BKN120 15/ RMK SC1SC4AC2AC2 TCU S

CYOW;2009-09-28 21:00;CYOW 282100Z CCA 19008KT 15SM FEW025 FEW080 BKN100 15/13 A2928 RMK SC1AC1AC6 TCU W SLP915

CYOW;2009-09-28 22:00;CYOW 282200Z 16008KT 15SM FEW030 FEW100 BKN180 BKN240 15/12 A2928 RMK SC1AC2AC3CI1 TCU W SLP918

CYOW;2009-09-28 23:00;CYOW 282300Z 16008KT 12SM FEW030 FEW100 BKN180 BKN240 13/12 A2930 RMK SC2AC1AC2CI1 TCU W SLP924

CYOW;2009-09-29 00:00;CYOW 290000Z 19009G17KT 15SM FEW040 FEW140 13/09 A2932 RMK SC1AC1 SLP931

CYOW;2009-09-29 01:00;CYOW 290100Z 20007KT 15SM FEW140 12/09 A2933 RMK AC1 SLP935

CYOW;2009-09-29 02:00;CYOW 290200Z 18007KT 15SM FEW140 BKN240 12/09 A2933 RMK AC1CI3 SLP934

CYOW;2009-09-29 03:00;CYOW 290300Z 17006KT 15SM BKN060 11/10 A2932 RMK SC6 SLP931

CYOW;2009-09-29 04:00;CYOW 290400Z 14004KT 15SM SCT034 BKN050 11/10 A2932 RMK SC3SC2 SLP929

CYOW;2009-09-29 05:00;CYOW 290500Z 15004KT 15SM SCT018 BKN052 11/10 A2932 RMK SC3SC3 SLP931

CYOW;2009-09-29 06:00;CYOW 290600Z 15004KT 15SM FEW008 BKN030 11/11 A2933 RMK SF1SC6 SLP933

CYOW;2009-09-29 07:00;CYOW 290700Z 17007KT 15SM FEW008 BKN038 11/10 A2933 RMK SF1SC6 SLP932

CYOW;2009-09-29 07:40;CYOW 290740Z CCA 17006KT 15SM -RA FEW010 BKN058 12/ RMK SF2SC4 VRY LGT RA

CYOW;2009-09-29 08:00;CYOW 290800Z 17006KT 15SM -RA SCT008 BKN045 11/11 A2931 RMK SF3SC4 VRY LGT RA SLP928

CYOW;2009-09-29 08:45;CYOW 290845Z 17004KT 15SM SCT008 OVC050 12/ RMK SF3SC5

CYOW;2009-09-29 09:00;CYOW 290900Z 17007KT 12SM SCT010 OVC036 12/11 A2931 RMK SF3SC5 SLP925

CYOW;2009-09-29 09:20;CYOW 290920Z 18005KT 12SM -RA SCT015 OVC025 12/ RMK SC3SC5

CYOW;2009-09-29 10:00;CYOW 291000Z 15006KT 15SM FEW015 BKN050 11/11 A2931 RMK SF2SC6 SLP925

CYOW;2009-09-29 11:00;CYOW 291100Z 16007KT 15SM BKN017 OVC030 11/11 A2932 RMK SF5SC3 SLP929

CYOW;2009-09-29 12:00;CYOW 291200Z 14008KT 12SM SCT007 BKN015 OVC040 11/10 A2932 RMK SF3SC4SC1 SLP930

CYOW;2009-09-29 13:00;CYOW 291300Z 14009KT 12SM SCT007 OVC016 11/10 A2932 RMK SF3SC5 SLP929

CYOW;2009-09-29 13:39;CYOW 291339Z 15007KT 8SM -RA BKN006 OVC015 11/ RMK SF5SC3

CYOW;2009-09-29 14:00;CYOW 291400Z 15007KT 8SM -RA BKN007 OVC015 11/10 A2932 RMK SF6SC2 SLP929

CYOW;2009-09-29 15:00;CYOW 291500Z 16006KT 6SM -RA BR BKN005 OVC015 11/11 A2932 RMK ST7SC1 SLP931

CYOW;2009-09-29 16:00;CYOW 291600Z 17004KT 12SM -RA BKN009 OVC020 12/12 A2932 RMK SF5SC3 SLP930

CYOW;2009-09-29 17:00;CYOW 291700Z 18004KT 12SM -RA BKN011 OVC020 13/11 A2932 RMK SC5SC3 VRY LGT RA SLP931

CYOW;2009-09-29 17:27;CYOW 291727Z 15004KT 15SM SCT010 BKN024 13/ RMK SC3SC4

CYOW;2009-09-29 18:00;CYOW 291800Z 00000KT 15SM FEW010 OVC021 14/11 A2933 RMK SC2SC6 SLP932

CYOW;2009-09-29 19:00;CYOW 291900Z 28006KT 10SM -SHRA BKN016 OVC025 14/12 A2934 RMK SC7SC1 CVCTV CLDS EMBD SLP938

CYOW;2009-09-29 20:00;CYOW 292000Z 29009KT 15SM -RA BKN014 BKN025 13/12 A2937 RMK SC6SC1 SLP948

CYOW;2009-09-29 20:24;CYOW 292024Z 29010KT 15SM BKN013 BKN025 13/ RMK SC6SC2 CU EMBD

CYOW;2009-09-29 21:00;CYOW 292100Z 29009KT 15SM BKN017 BKN025 14/12 A2940 RMK SC6SC2 CU EMBD SLP957

CYOW;2009-09-29 22:00;CYOW 292200Z 28007KT 15SM BKN020 BKN025 13/12 A2943 RMK SC5SC1 CU EMBD W QUAD SLP967

CYOW;2009-09-29 22:33;CYOW 292233Z 28011KT 10SM SHRA FEW008 FEW022 BKN060 BKN100 12/ RMK SC1SC2SC4AC1 TCU ASOCT

CYOW;2009-09-29 23:00;CYOW 292300Z 27015KT 15SM -SHRA FEW008 BKN017 BKN060 BKN100 12/11 A2947 RERA RMK SC1SC5SC1AC2 SLP980

CYOW;2009-09-29 23:24;CYOW 292324Z 28011G16KT 15SM OVC015 12/ RMK SC8

CYOW;2009-09-29 23:36;CYOW 292336Z 28016KT 15SM FEW009 OVC013 11/ RMK SC1SC8

CYOW;2009-09-29 23:49;CYOW 292349Z 28016KT 10SM FEW008 OVC011 11/ RMK SC1SC7

CYOW;2009-09-30 00:00;CYOW 300000Z 27016G21KT 10SM -RA FEW008 OVC011 11/09 A2951 RMK SC1SC7 SLP997

CYOW;2009-09-30 00:21;CYOW 300021Z 29018G24KT 10SM FEW009 OVC016 10/ RMK SC1SC7 CIG RAG

CYOW;2009-09-30 01:00;CYOW 300100Z 30018G26KT 15SM FEW014 FEW020 BKN077 09/07 A2954 RMK SC1SC2AC2 SLP007

CYOW;2009-09-30 02:00;CYOW 300200Z 30010G19KT 15SM SCT018 BKN075 09/06 A2956 RMK SC4AC1 SLP012

CYOW;2009-09-30 03:00;CYOW 300300Z 30015G21KT 15SM BKN022 BKN080 07/04 A2959 RMK SC5AC2 TCU ASOCT SLP022

CYOW;2009-09-30 04:00;CYOW 300400Z 30014KT 15SM OVC020 07/04 A2962 RMK SC8 SLP031

CYOW;2009-09-30 05:00;CYOW 300500Z 31015G21KT 15SM FEW017 OVC021 06/03 A2965 RMK SC1SC7 SLP041

CYOW;2009-09-30 06:00;CYOW 300600Z 31015KT 15SM SCT023 BKN040 06/02 A2966 RMK SC3SC2 SLP047

CYOW;2009-09-30 07:00;CYOW 300700Z 30007KT 15SM SCT024 BKN042 06/02 A2968 RMK CU3SC4 SLP054

CYOW;2009-09-30 08:00;CYOW 300800Z 27009KT 15SM -SHRA SCT014 OVC035 05/03 A2971 RMK CU3SC5 SLP063

CYOW;2009-09-30 08:36;CYOW 300836Z 27009KT 10SM -SHRA FEW007 OVC016 05/ RMK SC1SC7

CYOW;2009-09-30 09:00;CYOW 300900Z 28009KT 15SM -SHRA FEW007 OVC015 05/03 A2973 RMK SC2SC6 SLP069

CYOW;2009-09-30 09:29;CYOW 300929Z 27010G15KT 15SM FEW007 BKN016 OVC045 05/ RMK SC1SC6SC1

CYOW;2009-09-30 10:00;CYOW 301000Z 28013KT 15SM FEW009 BKN016 BKN040 05/02 A2974 RMK CU1SC5SC2 SLP075

CYOW;2009-09-30 11:00;CYOW 301100Z 28012G17KT 15SM BKN023 BKN040 04/02 A2976 RMK SC5SC2 SLP081

CYOW;2009-09-30 12:00;CYOW 301200Z 27011G16KT 15SM BKN023 BKN040 05/02 A2978 RMK SC6SC2 SLP089

CYOW;2009-09-30 13:00;CYOW 301300Z 29015KT 15SM BKN021 BKN040 05/02 A2980 RMK SC6SC2 SLP096

CYOW;2009-09-30 14:00;CYOW 301400Z 29014KT 15SM BKN027 BKN046 06/02 A2981 RMK SC5SC2 SLP099

CYOW;2009-09-30 15:00;CYOW 301500Z 31013G20KT 15SM BKN027 BKN052 07/01 A2983 RMK SC5SC1 CU ASOCT SLP104

CYOW;2009-09-30 16:00;CYOW 301600Z 29014KT 15SM BKN025 08/02 A2983 RMK SC6 CU ASOCT SLP106

CYOW;2009-09-30 16:04;CYOW 301604Z 29016KT 15SM -SHRA BKN025 07/ RMK SC6 CU ASOCT

CYOW;2009-09-30 17:00;CYOW 301700Z 28015G22KT 15SM -SHRA BKN025 07/03 A2983 RMK SC7 CVCTV CLDS EMBD SLP106

CYOW;2009-09-30 18:00;CYOW 301800Z 30009KT 15SM -SHRA BKN032 07/04 A2983 RMK SC7 CVCTV CLDS EMBD SLP105

CYOW;2009-09-30 19:00;CYOW 301900Z 28012G20KT 15SM -SHRA BKN035 08/03 A2983 RMK SC7 CU ASOCT VRY LGT SH SLP106

CYOW;2009-09-30 19:13;CYOW 301913Z 30013KT 15SM BKN035 08/ RMK SC6 CU ASOCT

CYOW;2009-09-30 19:30;CYOW 301930Z 30011KT 15SM -SHRA FEW008 BKN030 07/ RMK SC1SC6 CVCTV CLDS EMBD

CYOW;2009-09-30 20:00;CYOW 302000Z 28014KT 15SM -SHRA BKN035 07/03 A2985 RMK SC7 CU ASOCT VRY LGT SH SLP112

CYOW;2009-09-30 21:00;CYOW 302100Z 27010G16KT 15SM -SHRA BKN035 07/03 A2987 RMK SC7 CU ASOCT VRY LGT SH SLP118

CYOW;2009-09-30 22:00;CYOW 302200Z 27008KT 15SM -RA FEW010 OVC031 06/04 A2988 RMK SC2SC6 CU EMBD SLP123

CYOW;2009-09-30 22:31;CYOW 302231Z 32009G16KT 15SM SCT020 OVC047 06/ RMK SC3SC5

CYOW;2009-09-30 23:00;CYOW 302300Z 29006KT 15SM BKN024 OVC050 06/03 A2989 RMK SC6SC2 SLP127

CYOW;2009-10-01 01:00;CYOW 010100Z 31012KT 15SM -SHRA FEW025 OVC056 05/02 A2992 RMK SC2SC6 SLP135

CYOW;2009-10-01 01:26;CYOW 010126Z 31012KT 15SM FEW025 OVC052 05/ RMK SC1SC7

CYOW;2009-10-01 02:00;CYOW 010200Z 31010KT 15SM SCT020 OVC056 05/02 A2992 RMK SC3SC5 SLP135

CYOW;2009-10-01 03:00;CYOW 010300Z 31012KT 15SM FEW020 OVC070 05/01 A2992 RMK SC2AC6 SLP135

CYOW;2009-10-01 04:00;CYOW 010400Z 31011KT 15SM BKN023 OVC070 05/01 A2992 RMK SC6AC2 SLP135

CYOW;2009-10-01 05:00;CYOW 010500Z 28008KT 15SM FEW015 OVC022 04/01 A2991 RMK SC2SC6 SLP134

CYOW;2009-10-01 06:00;CYOW 010600Z 27008KT 15SM FEW014 BKN026 04/01 A2991 RMK SC2SC6 SLP133

CYOW;2009-10-01 06:47;CYOW 010647Z 28009KT 15SM -SHRA SCT015 OVC025 04/ RMK SC4SC4

CYOW;2009-10-01 07:00;CYOW 010700Z 28008KT 15SM -SHRA SCT014 OVC021 04/01 A2991 RMK SC3SC5 SLP133

CYOW;2009-10-01 07:44;CYOW 010744Z 27006KT 15SM -SHRA BKN013 OVC030 04/ RMK SC6SC2

CYOW;2009-10-01 08:00;CYOW 010800Z 27007KT 15SM BKN013 OVC030 04/02 A2991 RMK SC6SC2 SLP133

CYOW;2009-10-01 09:00;CYOW 010900Z 28008KT 15SM BKN013 OVC030 04/01 A2991 RMK SC7SC1 SLP134

CYOW;2009-10-01 10:00;CYOW 011000Z 27006KT 15SM BKN013 OVC030 04/01 A2993 RMK SC6SC2 SLP138

CYOW;2009-10-01 11:00;CYOW 011100Z 27006KT 15SM BKN017 OVC030 04/01 A2993 RMK SC7SC1 SLP140

CYOW;2009-10-01 12:00;CYOW 011200Z 25006KT 15SM BKN020 OVC030 04/02 A2995 RMK SC7SC1 SLP146

CYOW;2009-10-01 13:00;CYOW 011300Z 25007KT 15SM -RA BKN014 OVC025 04/02 A2996 RMK SC7SC1 SLP148

CYOW;2009-10-01 14:00;CYOW 011400Z 27006KT 12SM -RA OVC012 04/03 A2996 RMK SC8 SLP149

CYOW;2009-10-01 15:00;CYOW 011500Z 29006KT 12SM -RA OVC012 04/03 A2996 RMK SC8 SLP148

CYOW;2009-10-01 16:00;CYOW 011600Z 27007KT 15SM -RA BKN016 OVC025 05/03 A2995 RMK SC7SC1 VRY LGT RA SLP146

CYOW;2009-10-01 17:00;CYOW 011700Z 27009KT 15SM -RA BKN022 OVC025 06/02 A2995 RMK SC7SC1 VRY LGT RA SLP147

CYOW;2009-10-01 18:00;CYOW 011800Z 28007KT 15SM -RA BKN024 OVC030 06/02 A2996 RMK SC7SC1 VRY LGT RA SLP150

CYOW;2009-10-01 18:17;CYOW 011817Z 25007KT 15SM BKN024 OVC030 06/ RMK SC7SC1

CYOW;2009-10-01 19:00;CYOW 011900Z 25006KT 15SM BKN025 OVC030 06/02 A2996 RMK SC7SC1 SLP151

CYOW;2009-10-01 20:00;CYOW 012000Z 27004KT 15SM -RA SCT007 OVC013 07/03 A2996 RMK SF3SC5 VRY LGT RA SLP149

CYOW;2009-10-01 21:00;CYOW 012100Z 29005KT 15SM -RA SCT010 OVC018 06/03 A2997 RMK SF4SC4 VRY LGT RA SLP152

CYOW;2009-10-01 22:00;CYOW 012200Z 27003KT 15SM -RA SCT017 OVC024 06/04 A2997 RMK SC3SC5 SLP154

CYOW;2009-10-01 22:26;CYOW 012226Z 23003KT 15SM SCT020 BKN047 06/ RMK SC3SC3

CYOW;2009-10-01 23:00;CYOW 012300Z 25003KT 15SM SCT020 OVC057 06/04 A2997 RMK SC3SC5 MOON VISBL SLP154

CYOW;2009-10-02 00:00;CYOW 020000Z 26002KT 15SM FEW020 OVC077 06/04 A2998 RMK SC1AC7 MOON VISBL SLP157

CYOW;2009-10-02 01:00;CYOW 020100Z 24004KT 15SM FEW020 OVC075 05/04 A2999 RMK SC1AC7 MOON VISBL SLP159

CYOW;2009-10-02 02:00;CYOW 020200Z 24003KT 15SM FEW020 FEW040 BKN060 OVC120 05/04 A2998 RMK SC1SC2SC3AC3 SLP157

CYOW;2009-10-02 03:00;CYOW 020300Z 24003KT 15SM FEW020 SCT030 BKN120 05/04 A2997 RMK SC1SC4AC2 SLP154

CYOW;2009-10-02 04:00;CYOW 020400Z 22003KT 15SM FEW020 FEW030 FEW080 04/03 A2998 RMK SC1SC1AC2 SLP155

CYOW;2009-10-02 05:00;CYOW 020500Z 22005KT 15SM FEW015 FEW080 04/03 A2998 RMK SC1AC2 SLP157

CYOW;2009-10-02 06:00;CYOW 020600Z 26004KT 15SM FEW005 FEW030 03/02 A2998 RMK ST1SC1 SLP156

CYOW;2009-10-02 07:00;CYOW 020700Z 25004KT 12SM MIFG FEW005 03/02 A2997 RMK ST1 SLP154

CYOW;2009-10-02 07:44;CYOW 020744Z 21004KT 4SM BR FEW005 02/ RMK ST1

CYOW;2009-10-02 08:00;CYOW 020800Z 22002KT 10SM OVC002 02/01 A2997 RMK ST6 SLP153

CYOW;2009-10-02 08:39;CYOW 020839Z 26003KT 2 1/4SM R07/P6000FT/N R32/4000VP6000FT/U BR OVC001 03/ RMK FG2ST6

CYOW;2009-10-02 08:47;CYOW 020847Z 30002KT 3/4SM R07/P6000FT/D R32/2800VP6000FT/D BR VV001 03/ RMK FG8

CYOW;2009-10-02 08:50;CYOW 020850Z 31003KT 1/2SM R07/5000FT/D R32/2800V6000FT/D FG VV001 03/ RMK FG8

CYOW;2009-10-02 09:00;CYOW 020900Z 31003KT 1/2SM R07/2800FT/N R32/2400FT/N FG VV001 03/02 A2996 RMK FG8 SLP152

CYOW;2009-10-02 09:26;CYOW 020926Z CCA 20004KT 1SM R07/2600VP6000FT/U R32/2600VP6000FT/U BR VV002 02/ RMK FG8

CYOW;2009-10-02 09:42;CYOW 020942Z 20004KT 1SM R07/P6000FT/D R32/P6000FT/D BR VV001 02/ RMK FG8

CYOW;2009-10-02 09:50;CYOW 020950Z 20004KT 1/2SM R07/3500VP6000FT/D R32/4500VP6000FT/D FG VV001 02/ RMK FG8

CYOW;2009-10-02 10:00;CYOW 021000Z 22004KT 3/8SM R07/2000FT/N R32/2000FT/N FG VV001 02/02 A2996 RMK FG8 SLP151

CYOW;2009-10-02 11:00;CYOW 021100Z 26004KT 1/8SM R07/1800FT/N R32/1600FT/N FG VV001 03/02 A2997 RMK FG8 SLP155

CYOW;2009-10-02 12:00;CYOW 021200Z 00000KT 1/8SM R07/1400FT/N R32/1600FT/N FG VV001 03/02 A2998 RMK FG8 SLP156

CYOW;2009-10-02 13:00;CYOW 021300Z 22002KT 1/8SM R07/1000FT/N R32/0900FT/N FG VV001 03/03 A3000 RMK FG8 SLP164

CYOW;2009-10-02 14:00;CYOW 021400Z 24003KT 3/8SM R07/2600FT/N R32/2800FT/N FG VV002 04/04 A3002 RMK FG8 SLP172

CYOW;2009-10-02 14:13;CYOW 021413Z CCA 19003KT 1SM R07/2800V6000FT/U R32/3500V6000FT/U BR SKC 05/ RMK FG6

CYOW;2009-10-02 14:26;CYOW 021426Z 00000KT 10SM BKN006 05/ RMK SF6

CYOW;2009-10-02 14:35;CYOW 021435Z 31002KT 15SM SCT006 05/ RMK SF3

CYOW;2009-10-02 15:00;CYOW 021500Z CCA 21003KT 15SM FEW009 SCT020 06/05 A3000 RMK SF1CU3 TCU ASOCT SLP162

CYOW;2009-10-02 16:00;CYOW 021600Z 03003KT 15SM FEW020 09/05 A2997 RMK CU2 SLP153

CYOW;2009-10-02 17:00;CYOW 021700Z 11004KT 15SM FEW030 10/04 A2995 RMK CU2 SLP147

CYOW;2009-10-02 18:00;CYOW 021800Z 14006KT 15SM SCT030 BKN170 12/05 A2993 RMK CF3AC2 SLP139

CYOW;2009-10-02 19:00;CYOW 021900Z 13009KT 15SM FEW030 BKN170 11/05 A2993 RMK CF1AC7 SLP137

CYOW;2009-10-02 20:00;CYOW 022000Z 10009KT 15SM FEW030 OVC150 12/05 A2991 RMK SC2AC6 SLP131

CYOW;2009-10-02 21:00;CYOW 022100Z 09008KT 15SM OVC150 11/05 A2989 RMK AC8 SLP126

CYOW;2009-10-02 22:00;CYOW 022200Z 09006KT 15SM SCT060 OVC120 11/06 A2989 RMK SC3AS5 SLP126

CYOW;2009-10-02 22:45;CYOW 022245Z 08007KT 15SM -RA FEW008 OVC014 10/ RMK SF1SC7

CYOW;2009-10-02 23:00;CYOW 022300Z 09007KT 15SM -RA FEW014 OVC020 10/06 A2988 RMK SC2SC6 VRY LGT RA SLP122

CYOW;2009-10-03 00:00;CYOW 030000Z 10010KT 10SM -RA OVC046 09/07 A2988 RMK SC8 SLP124

CYOW;2009-10-03 01:00;CYOW 030100Z 09011KT 10SM -RA OVC040 09/08 A2986 RMK SC8 SLP115

CYOW;2009-10-03 02:00;CYOW 030200Z 09011KT 8SM -RA BKN012 OVC022 09/08 A2984 RMK SC6SC2 SLP110

CYOW;2009-10-03 02:20;CYOW 030220Z 10011KT 6SM -RA FEW008 OVC030 09/ RMK SF2SC6

CYOW;2009-10-03 03:00;CYOW 030300Z 10010G15KT 6SM -RA SCT012 OVC023 09/09 A2984 RMK SF3SC5 SLP107

CYOW;2009-10-03 03:28;CYOW 030328Z 09010KT 4SM -RA BKN005 OVC020 09/ RMK SF5SC3

CYOW;2009-10-03 04:00;CYOW 030400Z 09009KT 4SM -RA BKN005 OVC020 09/09 A2981 RMK SF5SC3 SLP099

CYOW;2009-10-03 05:00;CYOW 030500Z 10007KT 8SM -RA SCT005 OVC015 09/09 A2981 RMK SF3SC5 SLP098

CYOW;2009-10-03 06:00;CYOW 030600Z 10008KT 8SM -RA FEW005 OVC012 10/09 A2981 RMK SF2SC6 SLP097

CYOW;2009-10-03 07:00;CYOW 030700Z 10008KT 10SM -RA FEW005 OVC011 10/09 A2981 RMK SF2SC6 SLP097

CYOW;2009-10-03 07:45;CYOW 030745Z 09007KT 8SM FEW004 OVC011 10/ RMK SF2SC6

CYOW;2009-10-03 08:00;CYOW 030800Z 11007KT 8SM FEW004 OVC011 10/10 A2981 RMK SF2SC6 SLP096

CYOW;2009-10-03 09:00;CYOW 030900Z 12008KT 6SM BR FEW005 OVC013 10/10 A2982 RMK SF2SC6 SLP100

CYOW;2009-10-03 10:00;CYOW 031000Z 09006KT 10SM FEW005 BKN010 OVC020 10/10 A2981 RMK SF1SC5SC2 SLP096

CYOW;2009-10-03 11:00;CYOW 031100Z 11005KT 8SM FEW005 BKN011 OVC020 10/10 A2983 RMK SF1SC5SC2 SLP103

CYOW;2009-10-03 12:00;CYOW 031200Z 11005KT 8SM BKN009 OVC015 11/11 A2985 RMK SC7SC1 SLP111

CYOW;2009-10-03 13:00;CYOW 031300Z 08007KT 8SM BKN009 OVC015 11/11 A2985 RMK SC7SC1 SLP111

CYOW;2009-10-03 14:00;CYOW 031400Z CCA 09006KT 12SM FEW003 BKN011 OVC020 12/12 A2987 RMK SF1SC6SC2 SLP117

CYOW;2009-10-03 14:17;CYOW 031417Z 09007KT 12SM BKN003 BKN010 OVC020 12/ RMK SC5SC2SC2

CYOW;2009-10-03 15:00;CYOW 031500Z 10008KT 12SM BKN004 BKN010 OVC020 13/12 A2988 RMK SC5SC2SC2 SLP119

CYOW;2009-10-03 15:16;CYOW 031516Z 12006KT 15SM SCT005 BKN030 BKN060 14/ RMK SC4SC2SC1

CYOW;2009-10-03 15:46;CYOW 031546Z 09005KT 15SM BKN009 BKN030 14/ RMK SC5SC2

CYOW;2009-10-03 16:00;CYOW 031600Z 14003KT 15SM BKN013 BKN030 15/13 A2986 RMK SC5SC1 SLP115

CYOW;2009-10-03 17:00;CYOW 031700Z 01003KT 15SM FEW013 BKN021 16/12 A2985 RMK SC2SC3 SLP111

CYOW;2009-10-03 18:00;CYOW 031800Z 09006KT 15SM SCT021 16/13 A2983 RMK CU3 SLP104

CYOW;2009-10-03 19:00;CYOW 031900Z 06005KT 15SM FEW020 18/13 A2982 RMK CU2 SLP100

CYOW;2009-10-03 20:00;CYOW 032000Z 06010KT 15SM SCT025 15/13 A2980 RMK CU4 SLP095

CYOW;2009-10-03 21:00;CYOW 032100Z 07012KT 15SM SCT025 BKN120 14/13 A2980 RMK CU3AC2 SLP095

CYOW;2009-10-03 22:00;CYOW 032200Z 09011KT 12SM BKN009 BKN025 13/12 A2982 RMK SC5SC2 SLP101

CYOW;2009-10-03 23:00;CYOW 032300Z 09006KT 6SM BR OVC006 13/12 A2983 RMK ST8 SLP105

CYOW;2009-10-03 23:48;CYOW 032348Z 09007KT 4SM BR OVC004 13/ RMK ST8

CYOW;2009-10-04 00:00;CYOW 040000Z 09007KT 4SM BR OVC004 13/12 A2985 RMK ST8 SLP112

CYOW;2009-10-04 00:49;CYOW 040049Z 09006KT 2 1/2SM BR OVC004 12/ RMK FG2ST6

CYOW;2009-10-04 01:00;CYOW 040100Z 10007KT 2SM BR OVC004 12/12 A2985 RMK FG3ST5 SLP111

CYOW;2009-10-04 02:00;CYOW 040200Z 11004KT 1 3/4SM BR OVC004 12/12 A2986 RMK FG4ST4 SLP114

CYOW;2009-10-04 03:00;CYOW 040300Z 11009KT 1 3/4SM BR OVC004 12/12 A2985 RMK FG4ST4 SLP109

CYOW;2009-10-04 03:17;CYOW 040317Z 12008KT 1 1/4SM TS BR OVC002 12/ RMK FG6ST2 CB EMBD W OCNL LTNG

CYOW;2009-10-04 03:25;CYOW 040325Z 22010KT 1SM R07/P6000FT/D R32/6000FT/D -TSRA BR VV002 12/ RMK FG8 CB EMBD OCL LTNG

CYOW;2009-10-04 03:32;CYOW 040332Z 26013G20KT 2SM +TSRA BR BKN002 OVC025 12/ RMK SF5SC3 CB EMBD OCNL LTNG

CYOW;2009-10-04 03:41;CYOW 040341Z CCA 27007G15KT 3SM +SHRA BR BKN002 OVC025 12/ RETS RMK SF5SC3 CVCTV CLD EMBD

CYOW;2009-10-04 03:50;CYOW 040350Z 34003KT 5SM -SHRA BR SCT002 OVC030 12/ RETSRA RMK SF3SC5

CYOW;2009-10-04 04:00;CYOW 040400Z 03003KT 8SM -SHRA FEW002 BKN035 11/11 A2987 RETSRA RMK SF2SC6 SLP118

CYOW;2009-10-04 04:22;CYOW 040422Z 05004KT 15SM FEW002 BKN040 BKN075 11/ RMK SF1SC5AC2

CYOW;2009-10-04 05:00;CYOW 040500Z 09005KT 4SM BR SCT040 BKN085 11/11 A2986 RMK SC3AC4 SLP114

CYOW;2009-10-04 06:00;CYOW 040600Z 13002KT 6SM BR FEW065 BKN095 10/10 A2986 RMK SC2AC6 SLP114

CYOW;2009-10-04 07:00;CYOW 040700Z 12005KT 5SM BR BKN080 08/08 A2985 RMK AC6 SLP112

CYOW;2009-10-04 07:35;CYOW 040735Z 15004KT 1 1/4SM BR BKN075 09/ RMK FG2AC3

CYOW;2009-10-04 07:45;CYOW 040745Z 16004KT 3/8SM R07/3500VP6000FT/D R32/P6000FT/D FG VV002 09/ RMK FG8

CYOW;2009-10-04 08:00;CYOW 040800Z 15004KT 1/8SM R07/1600FT/N R32/1400FT/N FG VV001 09/09 A2986 RMK FG8 SLP115

CYOW;2009-10-04 09:00;CYOW 040900Z 16003KT 1/4SM R07/2000FT/N R32/2000FT/N FG VV001 10/10 A2987 RMK FG8 SLP116

CYOW;2009-10-04 10:00;CYOW 041000Z 09002KT 1/4SM R07/1600FT/N R32/1600FT/N FG VV001 09/09 A2987 RMK FG8 SLP118

CYOW;2009-10-04 10:20;CYOW 041020Z 00000KT 1/2SM R07/3000V5500FT/U R32/2600V4000FT/U FG VV002 10/ RMK FG8

CYOW;2009-10-04 10:27;CYOW 041027Z 06003KT 3/4SM R07/4500VP6000FT/U R32/3000V5000FT/N BR VV002 10/ RMK FG8

CYOW;2009-10-04 11:00;CYOW 041100Z 11003KT 1SM R07/P6000FT/D R32/P6000FT/D BR OVC002 09/09 A2988 RMK FG5SF3 SLP120

CYOW;2009-10-04 11:33;CYOW 041133Z 09003KT 1 1/2SM BR OVC002 10/ RMK FG3SF5

CYOW;2009-10-04 12:00;CYOW 041200Z 09003KT 2SM BR OVC002 10/10 A2989 RMK ST8 SLP124

CYOW;2009-10-04 12:44;CYOW 041244Z 14003KT 3SM BR BKN003 OVC060 11/ RMK ST5SC3

CYOW;2009-10-04 13:00;CYOW 041300Z 09003KT 3SM BR BKN003 OVC060 11/11 A2990 RMK SF6SC2 SLP128

CYOW;2009-10-04 14:00;CYOW 041400Z 15002KT 4SM BR SCT004 OVC060 11/11 A2991 RMK SF4SC4 SLP130

CYOW;2009-10-04 15:00;CYOW 041500Z 00000KT 6SM BR FEW004 SCT060 BKN120 12/11 A2991 RMK SF2SC2AC3 SLP129

CYOW;2009-10-04 16:00;CYOW 041600Z 19004KT 12SM FEW010 FEW100 BKN120 13/11 A2990 RMK CF2AC1AC5 SLP127

CYOW;2009-10-04 17:00;CYOW 041700Z 17004KT 12SM FEW010 BKN120 14/11 A2988 RMK CF2AC5 SLP122

CYOW;2009-10-04 18:00;CYOW 041800Z 16003KT 15SM SCT017 BKN120 15/11 A2986 RMK CU3AC3 SLP114

CYOW;2009-10-04 19:00;CYOW 041900Z 21007KT 15SM BKN020 OVC120 15/11 A2985 RMK CU6AC2 SLP112

CYOW;2009-10-04 19:44;CYOW 041944Z 21006KT 12SM -SHRA BKN020 OVC120 14/ RMK CU5AC3

CYOW;2009-10-04 20:00;CYOW 042000Z 22008KT 15SM SCT020 BKN120 14/11 A2986 RMK CU3AC4 SLP113

CYOW;2009-10-04 21:00;CYOW 042100Z 23005KT 15SM FEW020 BKN070 OVC120 13/11 A2985 RMK CU2AC3AC3 SLP110

CYOW;2009-10-04 22:00;CYOW 042200Z 17002KT 15SM FEW020 SCT060 BKN120 13/11 A2985 RMK CU2SC2AC3 SLP110

CYOW;2009-10-04 22:39;CYOW 042239Z 17002KT 15SM -SHRA FEW020 BKN060 BKN120 12/ RMK CU1SC5AC2

CYOW;2009-10-04 23:00;CYOW 042300Z 18003KT 15SM FEW020 BKN060 BKN120 12/11 A2985 RMK CU1SC6AC1 OCNL -SHRA SLP111

CYOW;2009-10-04 23:09;CYOW 042309Z 17003KT 15SM FEW020 BKN060 BKN120 12/ RMK CU1SC6AC1

CYOW;2009-10-05 00:00;CYOW 050000Z 18003KT 15SM OVC060 12/10 A2986 RMK SC8 SLP113

CYOW;2009-10-05 01:00;CYOW 050100Z 21003KT 15SM VCSH BKN065 OVC080 12/10 A2986 RMK SC6AC2 SLP113

CYOW;2009-10-05 02:00;CYOW 050200Z 20004KT 15SM BKN060 OVC080 12/10 A2985 RMK SC6AC2 SLP112

CYOW;2009-10-05 02:13;CYOW 050213Z 21004KT 15SM -SHRA BKN060 OVC080 12/ RMK SC6AC2

CYOW;2009-10-05 02:36;CYOW 050236Z 24002KT 15SM BKN060 OVC085 12/ RMK SC5AC3

CYOW;2009-10-05 03:00;CYOW 050300Z 24003KT 15SM SCT060 OVC090 11/10 A2985 RMK SC3AC5 SLP110

CYOW;2009-10-05 04:00;CYOW 050400Z 22004KT 15SM OVC085 11/10 A2984 RMK AC8 SLP107

CYOW;2009-10-05 05:00;CYOW 050500Z 22004KT 12SM MIFG BKN075 10/10 A2983 RMK AC5 SLP104

CYOW;2009-10-05 06:00;CYOW 050600Z 23003KT 12SM MIFG FEW002 BKN065 10/09 A2983 RMK SF1SC6 SF TR SLP104

CYOW;2009-10-05 07:00;CYOW 050700Z 22005KT 5SM BR FEW002 BKN070 09/09 A2982 RMK SF1AC6 SLP101

CYOW;2009-10-05 08:00;CYOW 050800Z 23003KT 10SM FEW002 FEW049 BKN070 09/09 A2982 RMK SF1SC2AC6 SF TR SLP100

CYOW;2009-10-05 08:17;CYOW 050817Z 25003KT 12SM -SHRA FEW002 FEW050 BKN075 09/ RMK SF1SC2AC6

CYOW;2009-10-05 09:00;CYOW 050900Z 24005KT 12SM FEW002 FEW050 BKN080 09/09 A2982 RMK SF1SC2AC5 SF TR SLP102

CYOW;2009-10-05 10:00;CYOW 051000Z 22005KT 15SM FEW004 SCT065 BKN080 09/08 A2982 RMK SF1SC3AC4 SF TR SLP102

CYOW;2009-10-05 11:00;CYOW 051100Z 21004KT 10SM FEW010 BKN060 08/07 A2983 RMK CF1SC4 SLP105

CYOW;2009-10-05 12:00;CYOW 051200Z 21004KT 12SM BKN050 BKN070 BKN240 08/08 A2984 RMK SC5AC1CI1 SLP108

CYOW;2009-10-05 13:00;CYOW 051300Z 22007KT 12SM FEW010 BKN050 10/09 A2984 RMK CF2SC4 SLP107

CYOW;2009-10-05 14:00;CYOW 051400Z 22007KT 12SM -SHRA BKN010 OVC050 10/09 A2984 RMK CU5SC3 SLP106

CYOW;2009-10-05 14:28;CYOW 051428Z 23007KT 12SM BKN010 OVC060 10/ RMK CF6SC2

CYOW;2009-10-05 15:00;CYOW 051500Z 25006KT 15SM OVC010 11/09 A2982 RMK SC8 SLP102

CYOW;2009-10-05 16:00;CYOW 051600Z 27006KT 15SM OVC012 12/09 A2982 RMK SC8 SLP101

CYOW;2009-10-05 17:00;CYOW 051700Z 27007KT 15SM BKN017 13/09 A2982 RMK CU6 SLP099

CYOW;2009-10-05 18:00;CYOW 051800Z 26007KT 15SM VCSH BKN025 BKN060 14/09 A2979 RMK CU6SC1 SLP092

CYOW;2009-10-05 19:00;CYOW 051900Z 27006KT 15SM SCT025TCU SCT060 15/09 A2978 RMK TCU3SC1 TCU ALQDS SLP088

CYOW;2009-10-05 20:00;CYOW 052000Z 24007KT 15SM VCSH SCT030TCU SCT060 13/09 A2979 RMK TCU3SC1 SLP091

CYOW;2009-10-05 21:00;CYOW 052100Z 24004KT 15SM FEW030TCU SCT150 13/09 A2979 RMK TCU2AC1 SLP092

CYOW;2009-10-05 22:00;CYOW 052200Z 25006KT 15SM FEW050 13/09 A2979 RMK SC2 SLP092

CYOW;2009-10-05 23:00;CYOW 052300Z 22005KT 15SM FEW070 11/09 A2981 RMK AC2 SLP096

CYOW;2009-10-06 00:00;CYOW 060000Z 21005KT 15SM FEW080 10/09 A2982 RMK AC2 SLP101

CYOW;2009-10-06 00:30;CYOW 060030Z 30012KT 12SM -RA BKN013 OVC020 11/ RMK SC5SC3

CYOW;2009-10-06 01:00;CYOW 060100Z 29005KT 10SM -RA BKN013 OVC020 10/09 A2984 RMK SC5SC3 SLP108

CYOW;2009-10-06 01:13;CYOW 060113Z 29011KT 8SM RA BKN014 OVC026 10/ RMK SC5SC3

CYOW;2009-10-06 01:27;CYOW 060127Z 25005KT 8SM -RA FEW038 BKN064 OVC070 10/ RMK SC2SC3AC3

CYOW;2009-10-06 02:00;CYOW 060200Z 23005KT 10SM -RA FEW010 BKN018 OVC030 10/09 A2985 RMK SC2SC4SC2 SLP110

CYOW;2009-10-06 02:43;CYOW 060243Z 26005KT 12SM SCT070 10/ RMK AC3

CYOW;2009-10-06 03:00;CYOW 060300Z 25005KT 15SM FEW070 09/09 A2985 RMK AC2 SLP110

CYOW;2009-10-06 04:00;CYOW 060400Z 24007KT 15SM FEW060 09/08 A2985 RMK SC2 SLP112

CYOW;2009-10-06 05:00;CYOW 060500Z 25007KT 15SM FEW060 08/08 A2985 RMK SC1 SLP111

CYOW;2009-10-06 06:00;CYOW 060600Z 27007KT 15SM FEW060 08/07 A2986 RMK SC1 SLP114

CYOW;2009-10-06 07:00;CYOW 060700Z 25006KT 15SM FEW011 08/07 A2986 RMK SC2 SLP115

CYOW;2009-10-06 08:00;CYOW 060800Z 26006KT 15SM FEW010 FEW011 07/07 A2988 RMK SF1SC2 SLP120

CYOW;2009-10-06 09:00;CYOW 060900Z 29009KT 15SM OVC007 08/08 A2990 RMK SF8 SLP127

CYOW;2009-10-06 10:00;CYOW 061000Z 26006KT 15SM FEW005 07/06 A2991 RMK SF1 SLP131

CYOW;2009-10-06 11:00;CYOW 061100Z 29004KT 15SM FEW006 SCT009 07/06 A2992 RMK SF2SC2 SLP134

CYOW;2009-10-06 12:00;CYOW 061200Z 27004KT 15SM FEW006 BKN009 08/08 A2992 RMK SF2SC5 SLP136

CYOW;2009-10-06 12:34;CYOW 061234Z 26004KT 15SM FEW006 BKN013 BKN025 08/ RMK SF2SC4SC2

CYOW;2009-10-06 13:00;CYOW 061300Z 26004KT 15SM SCT005 BKN011 BKN025 09/08 A2993 RMK SF3SC2SC2 SLP137

CYOW;2009-10-06 13:17;CYOW 061317Z 27004KT 15SM BKN005 BKN010 09/ RMK SF5SC2

CYOW;2009-10-06 14:00;CYOW 061400Z 29005KT 15SM SCT005 BKN013 BKN025 10/08 A2993 RMK SF4SC2SC1 SLP138

CYOW;2009-10-06 14:08;CYOW 061408Z 28006KT 15SM FEW010 BKN016 10/ RMK SF1SC5

CYOW;2009-10-06 15:00;CYOW 061500Z 30006KT 15SM BKN016 11/08 A2992 RMK SC7 SLP136

CYOW;2009-10-06 16:00;CYOW 061600Z 30009KT 15SM FEW020 SCT055 12/08 A2991 RMK CU2SC2 SLP131

CYOW;2009-10-06 17:00;CYOW 061700Z 27003KT 15SM FEW020 BKN029 13/08 A2990 RMK CU2SC4 SLP127

CYOW;2009-10-06 18:00;CYOW 061800Z 20005KT 15SM FEW020 BKN037 13/07 A2987 RMK CU2SC6 SLP117

CYOW;2009-10-06 19:00;CYOW 061900Z 19004KT 15SM FEW020 BKN033 13/08 A2984 RMK CU1SC6 SLP108

CYOW;2009-10-06 20:00;CYOW 062000Z CCA 18005KT 15SM BKN032 13/08 A2982 RMK SC7 CU EMBD SLP102

CYOW;2009-10-06 21:00;CYOW 062100Z 16002KT 15SM FEW030 OVC060 13/09 A2981 RMK CU1SC7 SLP097

CYOW;2009-10-06 22:00;CYOW 062200Z 15003KT 15SM OVC038 12/09 A2979 RMK SC8 SLP092

CYOW;2009-10-06 22:54;CYOW 062254Z 19005KT 15SM -RA OVC036 12/ RMK SC8

CYOW;2009-10-06 23:00;CYOW 062300Z 19005KT 15SM -RA OVC036 12/08 A2979 RMK SC8 SLP089

CYOW;2009-10-07 00:00;CYOW 070000Z 16004KT 15SM -RA FEW036 OVC059 10/09 A2975 RMK SC2SC6 VRY LGT RA SLP078

CYOW;2009-10-07 00:21;CYOW 070021Z 16003KT 15SM FEW015 FEW048 OVC059 10/ RMK CU1SC2SC6

CYOW;2009-10-07 01:00;CYOW 070100Z 15005KT 15SM FEW060 OVC110 10/09 A2972 RMK SC2AC6 SLP066

CYOW;2009-10-07 02:00;CYOW 070200Z 10005KT 15SM FEW070 OVC110 10/09 A2966 RMK AC1AC7 MOON VISBL SLP047

CYOW;2009-10-07 03:00;CYOW 070300Z 10006KT 15SM OVC100 10/09 A2960 RMK AC8 SLP027

CYOW;2009-10-07 04:00;CYOW 070400Z 10008KT 15SM FEW050 OVC090 10/09 A2956 RMK SC1AC7 SLP014

CYOW;2009-10-07 04:01;CYOW 070401Z 10009KT 15SM -RA FEW050 OVC090 10/ RMK SC1AC7

CYOW;2009-10-07 05:00;CYOW 070500Z 09011G16KT 7SM -RA OVC035 09/08 A2949 RMK SC8 SLP989

CYOW;2009-10-07 06:00;CYOW 070600Z CCA 09012G18KT 5SM RA BR OVC017 09/08 A2943 RMK NS8 PRESFR SLP968

CYOW;2009-10-07 06:44;CYOW 070644Z 10014KT 5SM RA BR FEW006 OVC016 09/ RMK SF2NS6

CYOW;2009-10-07 07:00;CYOW 070700Z 10010KT 5SM RA BR SCT004 OVC011 09/09 A2936 RMK SF3NS5 PRESFR SLP944

CYOW;2009-10-07 07:11;CYOW 070711Z 11009KT 7SM -RA BKN005 OVC011 09/ RERA RMK SC5SC3

CYOW;2009-10-07 08:00;CYOW 070800Z 10009KT 4SM -RA BR OVC005 10/09 A2930 RERA RMK SC8 PRESFR SLP924

CYOW;2009-10-07 09:00;CYOW 070900Z 12007KT 7SM -RA FEW004 OVC007 10/10 A2926 RMK SC2SC6 /R11/ SLP909

CYOW;2009-10-07 10:00;CYOW 071000Z 11003KT 5SM BR OVC004 11/11 A2922 RMK SC8 SLP898

CYOW;2009-10-07 10:19;CYOW 071019Z 18002KT 5SM -RA BR OVC004 11/ RMK SC8

CYOW;2009-10-07 11:00;CYOW 071100Z 25002KT 5SM -RA BR BKN011 OVC020 12/12 A2922 RMK SC7SC1 SLP897

CYOW;2009-10-07 11:12;CYOW 071112Z 23002KT 8SM FEW010 BKN023 12/ RMK SC2SC5

CYOW;2009-10-07 12:00;CYOW 071200Z 24008KT 8SM -RA BKN010 OVC020 12/11 A2925 RMK SC5SC3 SLP905

CYOW;2009-10-07 12:09;CYOW 071209Z 22010G17KT 10SM -RA FEW010 BKN020 BKN050 12/ RMK SC2SC3SC2

CYOW;2009-10-07 13:00;CYOW 071300Z 22009KT 15SM -RA FEW020 BKN055 13/11 A2925 RMK SC2SC5 VRY LGT RA SLP905

CYOW;2009-10-07 14:00;CYOW 071400Z 24012G20KT 15SM FEW040 BKN120 BKN210 13/10 A2926 RMK SC1AC6CI0 SLP911

CYOW;2009-10-07 15:00;CYOW 071500Z 25013KT 15SM SCT022 BKN140 14/09 A2927 RMK SC3AC3 SLP912

CYOW;2009-10-07 16:00;CYOW 071600Z 25013KT 15SM BKN026 BKN140 14/09 A2929 RMK SC6AC1 CU ASOCT SLP919

CYOW;2009-10-07 17:00;CYOW 071700Z 27011KT 15SM FEW030 BKN042 15/09 A2931 RMK SC2SC5 SLP925

CYOW;2009-10-07 17:55;CYOW 071755Z 27015KT 15SM -RA FEW010 BKN032 14/ RMK SC1SC6

CYOW;2009-10-07 18:00;CYOW 071800Z 27015KT 15SM -RA FEW010 BKN031 14/09 A2933 RMK SC1SC6 SLP933

CYOW;2009-10-07 18:13;CYOW 071813Z 27012G19KT 15SM BKN034 BKN150 14/ RMK SC6AC1

CYOW;2009-10-07 19:00;CYOW 071900Z CCA 25018KT 15SM -RA SCT012 BKN030 14/09 A2936 RMK SC3SC4 CU EMBD SLP943

CYOW;2009-10-07 19:38;CYOW 071938Z CCA 27013G21KT 3/4SM R07/6000FT/D R32/6000FT/D RA BKN015 OVC030 12/ RMK SC7SC1

CYOW;2009-10-07 19:43;CYOW 071943Z 27014G21KT 3SM -RA BKN015 OVC030 12/ RERA RMK SC6SC2

CYOW;2009-10-07 20:00;CYOW 072000Z CCA 28010G22KT 15SM -RA BKN011 BKN030 12/11 A2940 RERA RMK SC5SC2 VRY LGT RA SLP959

CYOW;2009-10-07 21:00;CYOW 072100Z 31019G25KT 15SM -RA SCT010 BKN016 BKN030 11/09 A2946 RMK SC3SC2SC2 PRESRR VRY LGT RA SLP979

CYOW;2009-10-07 21:44;CYOW 072144Z 31018G28KT 15SM OVC041 11/ RMK SC8

CYOW;2009-10-07 22:00;CYOW 072200Z CCA 30017G22KT 15SM OVC041 11/08 A2954 RMK SC8 PRESRR SLP004

CYOW;2009-10-07 23:00;CYOW 072300Z 30021G26KT 15SM FEW033 OVC041 11/06 A2960 RMK SC1SC7 PRESRR SLP025

CYOW;2009-10-08 00:00;CYOW 080000Z 29009G16KT 15SM FEW014 BKN040 BKN080 10/07 A2965 RMK SC1SC6AC1 SH RA N SLP043

CYOW;2009-10-08 00:33;CYOW 080033Z 30013KT 10SM -RA OVC017 10/ RMK SC8

CYOW;2009-10-08 01:00;CYOW 080100Z 33013KT 4SM -RA BR OVC018 09/08 A2970 RMK SC8 PRESRR SLP060

CYOW;2009-10-08 01:34;CYOW 080134Z 32010G15KT 15SM SCT018 BKN040 09/ RMK SC4SC2

CYOW;2009-10-08 02:00;CYOW 080200Z 30006KT 15SM BKN026 OVC040 09/08 A2975 RMK SC6SC2 SLP075

CYOW;2009-10-08 03:00;CYOW 080300Z 28009KT 15SM FEW017 OVC020 10/08 A2978 RMK SC2SC6 SLP087

CYOW;2009-10-08 04:00;CYOW 080400Z 29011KT 15SM FEW015 OVC038 09/07 A2980 RMK SC1SC7 SLP095

CYOW;2009-10-08 05:00;CYOW 080500Z 28013KT 15SM FEW013 BKN044 09/07 A2985 RMK SC2SC6 SLP109

CYOW;2009-10-08 06:00;CYOW 080600Z 28009G15KT 12SM BKN010 OVC044 08/07 A2988 RMK SC6SC2 CIG VRB 7-13 SLP121

CYOW;2009-10-08 06:37;CYOW 080637Z 29010G15KT 12SM FEW011 BKN020 BKN054 09/ RMK SC1SC4SC2

CYOW;2009-10-08 07:00;CYOW 080700Z 30013KT 12SM FEW014 BKN054 09/07 A2989 RMK SC1SC6 SLP123

CYOW;2009-10-08 08:00;CYOW 080800Z 28010KT 15SM FEW016 BKN051 09/07 A2990 RMK SC1SC5 SLP127

CYOW;2009-10-08 09:00;CYOW 080900Z 28007KT 15SM FEW014 SCT020 SCT050 08/06 A2992 RMK SC1SC3SC1 SLP135

CYOW;2009-10-08 10:00;CYOW 081000Z 29008KT 15SM FEW020 FEW050 08/06 A2994 RMK SC2SC1 SLP143

CYOW;2009-10-08 11:00;CYOW 081100Z 26007KT 15SM FEW025 07/06 A2995 RMK SC1 SLP146

CYOW;2009-10-08 12:00;CYOW 081200Z 27009KT 15SM FEW025 07/05 A2998 RMK SC1 SLP156

CYOW;2009-10-08 13:00;CYOW 081300Z 28012G18KT 15SM FEW040 08/06 A3002 RMK SC1 SLP168

CYOW;2009-10-08 14:00;CYOW 081400Z 31008KT 15SM FEW020 09/06 A3001 RMK SC1 SLP166

CYOW;2009-10-08 15:00;CYOW 081500Z 29006KT 15SM FEW020 10/06 A2999 RMK SC1 SLP160

CYOW;2009-10-08 16:00;CYOW 081600Z 24004KT 15SM FEW028 11/05 A2998 RMK CU2 SLP155

CYOW;2009-10-08 17:00;CYOW 081700Z 28009KT 15SM SCT036 BKN250 12/04 A2999 RMK CU3CI1 SLP159

CYOW;2009-10-08 18:00;CYOW 081800Z CCA 27008KT 15SM SCT042 BKN250 13/05 A2999 RMK CU3CI1 SLP157

CYOW;2009-10-08 19:00;CYOW 081900Z 26008KT 15SM FEW043 BKN250 14/05 A2998 RMK CU2CI2 SLP156

CYOW;2009-10-08 20:00;CYOW 082000Z 25006KT 15SM FEW045 FEW220 BKN250 14/05 A2996 RMK CU1CI2CI2 SLP150

CYOW;2009-10-08 21:00;CYOW 082100Z 22009KT 15SM FEW045 FEW210 BKN250 15/06 A2996 RMK SC1CI2CI2 SLP146

CYOW;2009-10-08 22:00;CYOW 082200Z 20004KT 15SM FEW050 FEW190 BKN210 OVC250 14/06 A2997 RMK SC1AC1CS2CI2 SLP150

CYOW;2009-10-08 23:00;CYOW 082300Z 19007KT 15SM FEW040 FEW080 OVC210 12/07 A2996 RMK SC1AC1CI2 SLP148

CYOW;2009-10-09 00:00;CYOW 090000Z 19007KT 15SM SCT150 OVC200 12/07 A2996 RMK AC3CI5 SLP148

CYOW;2009-10-09 01:00;CYOW 090100Z 20006KT 15SM OVC150 11/07 A2995 RMK AC8 SLP146

CYOW;2009-10-09 02:00;CYOW 090200Z 19008KT 15SM OVC140 11/08 A2995 RMK AC8 SLP145

CYOW;2009-10-09 03:00;CYOW 090300Z 18005KT 15SM OVC100 11/08 A2995 RMK AC8 SLP144

CYOW;2009-10-09 03:06;CYOW 090306Z 19005KT 15SM -RA OVC090 11/ RMK AC8

CYOW;2009-10-09 04:00;CYOW 090400Z 19005KT 15SM -RA OVC080 10/08 A2993 RMK AC8 VRY LGT RA SLP138

CYOW;2009-10-09 05:00;CYOW 090500Z 20003KT 15SM -RA OVC070 10/09 A2991 RMK AC8 VRY LGT RA SLP132

CYOW;2009-10-09 06:00;CYOW 090600Z 22003KT 12SM -RA OVC050 11/09 A2991 RMK SC8 SLP132

CYOW;2009-10-09 07:00;CYOW 090700Z 22003KT 12SM -RA OVC063 10/09 A2991 RMK SC8 SLP130

CYOW;2009-10-09 07:25;CYOW 090725Z 00000KT 12SM FEW065 OVC080 10/ RMK SC2AC6

CYOW;2009-10-09 07:53;CYOW 090753Z 00000KT 12SM -RA FEW043 OVC080 10/ RMK SC2AC6

CYOW;2009-10-09 08:00;CYOW 090800Z 17002KT 12SM -RA SCT043 OVC080 10/09 A2990 RMK SC4AC4 SLP126

CYOW;2009-10-09 09:00;CYOW 090900Z 00000KT 8SM -RA OVC028 10/10 A2988 RMK SC8 SLP121

CYOW;2009-10-09 10:00;CYOW 091000Z 27002KT 7SM -RA FEW015 OVC022 10/10 A2988 RMK SC2SC6 SLP121

CYOW;2009-10-09 10:49;CYOW 091049Z 13003KT 2SM -RA BR OVC014 10/ RMK FG3NS5

CYOW;2009-10-09 11:00;CYOW 091100Z 13004KT 2SM -RA BR OVC014 10/09 A2986 RMK FG3NS5 SLP113

CYOW;2009-10-09 11:19;CYOW 091119Z 11002KT 3SM -RA BR SCT005 OVC014 10/ RMK FG1SF2NS5

CYOW;2009-10-09 12:00;CYOW 091200Z 09002KT 3SM -RA BR BKN005 OVC014 10/10 A2985 RMK FG1SF4NS3 SLP110

CYOW;2009-10-09 12:34;CYOW 091234Z 11003KT 2SM -RA BR OVC007 10/ RMK FG3SF5

CYOW;2009-10-09 13:00;CYOW 091300Z 11003KT 1 3/4SM -RA BR BKN002 OVC007 10/10 A2984 RMK FG4SF2SF2 SLP106

CYOW;2009-10-09 14:00;CYOW 091400Z 00000KT 2SM -RA BR OVC003 10/10 A2983 RMK FG3SF5 SLP103

CYOW;2009-10-09 14:34;CYOW 091434Z 00000KT 3SM -RA BR OVC003 11/ RMK FG1SF7

CYOW;2009-10-09 15:00;CYOW 091500Z 00000KT 6SM -RA BR OVC003 11/10 A2981 RMK SF8 SLP096

CYOW;2009-10-09 15:49;CYOW 091549Z 00000KT 10SM -RA BKN005 OVC013 11/ RMK SF6SC2

CYOW;2009-10-09 16:00;CYOW 091600Z 23003KT 8SM -RA BKN005 OVC013 11/10 A2979 RMK SF7SC1 SLP091

CYOW;2009-10-09 17:00;CYOW 091700Z 22004KT 10SM -RA BKN007 OVC014 11/11 A2978 RMK SF7NS1 SLP088

CYOW;2009-10-09 18:00;CYOW 091800Z 27005KT 7SM -RA OVC007 11/11 A2978 RMK SF8 SLP086

CYOW;2009-10-09 19:00;CYOW 091900Z 32005KT 6SM -RA BR BKN007 OVC018 11/11 A2977 RMK SF6NS2 SLP085

CYOW;2009-10-09 20:00;CYOW 092000Z 31002KT 8SM -RA BKN007 OVC018 11/11 A2976 RMK SF6NS2 SLP081

CYOW;2009-10-09 21:00;CYOW 092100Z 30003KT 10SM -RA BKN007 OVC020 11/11 A2977 RMK SF6NS2 SLP083

CYOW;2009-10-09 21:34;CYOW 092134Z 28003KT 8SM -RA SCT009 BKN020 OVC060 11/ RMK SF3SC2SC2

CYOW;2009-10-09 22:00;CYOW 092200Z 29003KT 7SM -RA SCT008 BKN020 OVC055 11/10 A2976 RMK SF3SC2SC3 SLP081

CYOW;2009-10-09 23:00;CYOW 092300Z 30005KT 6SM -RA BR FEW009 SCT013 BKN026 OVC060 11/10 A2976 RMK SF1SC2SC2SC3 SLP080

CYOW;2009-10-10 00:00;CYOW 100000Z 36007KT 8SM -RA SCT015 OVC024 09/08 A2976 RMK SC3SC5 SLP082

CYOW;2009-10-10 01:00;CYOW 100100Z 35008KT 10SM -RA FEW009 BKN030 OVC060 09/08 A2978 RMK SF1SC5SC3 SLP086

CYOW;2009-10-10 02:00;CYOW 100200Z 34008KT 10SM -RA SCT014 OVC022 09/08 A2977 RMK SC3SC5 SLP084

CYOW;2009-10-10 03:00;CYOW 100300Z 34007KT 8SM -RA BKN012 OVC020 09/08 A2976 RMK SC5SC3 SLP079

CYOW;2009-10-10 04:00;CYOW 100400Z 34009KT 8SM -RA BKN022 OVC027 08/08 A2976 RMK SC5SC3 SLP082

CYOW;2009-10-10 05:00;CYOW 100500Z 34006KT 10SM -RA FEW009 BKN045 OVC070 08/06 A2975 RMK SF1SC5AC3 SLP078

CYOW;2009-10-10 06:00;CYOW 100600Z 34006KT 12SM -RA BKN055 OVC070 08/07 A2975 RMK SC5AC3 SLP078

CYOW;2009-10-10 07:00;CYOW 100700Z 34006KT 15SM OVC053 08/06 A2975 RMK SC8 SLP076

CYOW;2009-10-10 08:00;CYOW 100800Z 32007KT 15SM OVC048 08/07 A2975 RMK SC8 SLP077

CYOW;2009-10-10 09:00;CYOW 100900Z 33009KT 15SM OVC060 08/07 A2978 RMK SC8 SLP086

CYOW;2009-10-10 09:35;CYOW 100935Z 32010KT 15SM -SHRA OVC055 07/ RMK SC8

CYOW;2009-10-10 10:00;CYOW 101000Z 33010KT 12SM -RA OVC055 07/05 A2981 RMK SC8 SLP098

CYOW;2009-10-10 10:17;CYOW 101017Z 33009KT 15SM FEW055 BKN072 OVC087 07/ RMK SC2AC5AC2

CYOW;2009-10-10 11:00;CYOW 101100Z 35012KT 15SM OVC066 07/03 A2984 RMK AC8 SLP108

CYOW;2009-10-10 12:00;CYOW 101200Z 34004KT 15SM OVC062 06/02 A2988 RMK SC8 SLP121

CYOW;2009-10-10 13:00;CYOW 101300Z 31005KT 15SM BKN077 07/04 A2991 RMK AC7 SLP131

CYOW;2009-10-10 14:00;CYOW 101400Z 30008KT 15SM FEW010 BKN090 07/03 A2994 RMK CF1AC6 TR CUFRA SLP142

CYOW;2009-10-10 15:00;CYOW 101500Z 31008KT 15SM FEW020 FEW090 09/03 A2996 RMK CF1AC2 SLP149

CYOW;2009-10-10 16:00;CYOW 101600Z 33010KT 15SM FEW030 FEW090 10/02 A2998 RMK CU2AC1 SLP156

CYOW;2009-10-10 17:00;CYOW 101700Z CCA 28013G18KT 15SM SCT040 10/01 A2999 RMK CU4 SLP157

CYOW;2009-10-10 18:00;CYOW 101800Z 31010KT 15SM SCT050 11/01 A2999 RMK CU3 SLP157

CYOW;2009-10-10 19:00;CYOW 101900Z 28008KT 15SM FEW050 11/M00 A2999 RMK CU2 SLP157

CYOW;2009-10-10 20:00;CYOW 102000Z 28012G17KT 15SM FEW050 11/M02 A3001 RMK CU1 SLP164

CYOW;2009-10-10 21:00;CYOW 102100Z 27007KT 15SM FEW050 11/M02 A3001 RMK CU1 TR CU SLP165

CYOW;2009-10-10 22:00;CYOW 102200Z 27005KT 15SM FEW240 10/M01 A3001 RMK CI1 SLP164

CYOW;2009-10-10 23:00;CYOW 102300Z 27003KT 15SM FEW150 FEW240 08/M02 A3001 RMK AC1CI2 SLP165

CYOW;2009-10-11 00:00;CYOW 110000Z 17004KT 15SM FEW170 FEW240 08/M01 A3002 RMK AC1CI2 SLP169

CYOW;2009-10-11 01:00;CYOW 110100Z 18004KT 15SM SCT160 07/M01 A3002 RMK AC4 SLP168

CYOW;2009-10-11 02:00;CYOW 110200Z 19004KT 15SM BKN150 06/M00 A3001 RMK AC7 SLP167

CYOW;2009-10-11 03:00;CYOW 110300Z 19003KT 15SM FEW075 OVC140 07/01 A2999 RMK AC2AC6 SLP161

CYOW;2009-10-11 04:00;CYOW 110400Z 22005KT 15SM FEW060 BKN085 OVC140 07/03 A2999 RMK SC2AC2AC3 SLP159

CYOW;2009-10-11 05:00;CYOW 110500Z 20005KT 15SM BKN065 OVC092 07/03 A2998 RMK SC5AC3 SLP155

CYOW;2009-10-11 06:00;CYOW 110600Z 22005KT 15SM SCT065 BKN095 07/04 A2996 RMK SC4AC3 SLP150

CYOW;2009-10-11 07:00;CYOW 110700Z 25009KT 15SM FEW042 OVC085 08/03 A2997 RMK SC2AC6 SLP153

CYOW;2009-10-11 08:00;CYOW 110800Z 27011KT 15SM FEW034 OVC075 07/03 A2999 RMK SC2AC6 SLP158

CYOW;2009-10-11 08:19;CYOW 110819Z 27012KT 15SM -SHRA SCT040 OVC075 07/ RMK SC4AC4

CYOW;2009-10-11 08:50;CYOW 110850Z 30013G19KT 15SM BKN040 OVC080 05/ RMK SC5AC3

CYOW;2009-10-11 09:00;CYOW 110900Z 30008G15KT 15SM SCT040 BKN085 05/01 A3002 RMK SC4AC3 SLP170

CYOW;2009-10-11 10:00;CYOW 111000Z 29013G24KT 15SM FEW025 FEW040 BKN085 04/M02 A3005 RMK SC1SC2AC2 SLP180

CYOW;2009-10-11 11:00;CYOW 111100Z 29010G15KT 15SM FEW080 03/M02 A3008 RMK AC2 SLP190

CYOW;2009-10-11 12:00;CYOW 111200Z 26004KT 20SM FEW080 02/M02 A3010 RMK AC1 TR AC SLP197

CYOW;2009-10-11 13:00;CYOW 111300Z 26008KT 20SM FEW080 04/M02 A3011 RMK AC1 TR AC SLP199

CYOW;2009-10-11 14:00;CYOW 111400Z 26010G15KT 20SM FEW010 06/M02 A3011 RMK CF1 TR CUFRA SLP201

CYOW;2009-10-11 15:00;CYOW 111500Z 24017G26KT 20SM SCT040 07/M02 A3011 RMK CU3 SLP199

CYOW;2009-10-11 16:00;CYOW 111600Z 28018KT 20SM BKN046 07/M03 A3010 RMK CU5 SLP197

CYOW;2009-10-11 17:00;CYOW 111700Z 28018G28KT 20SM BKN050 08/M03 A3010 RMK CU6 SLP196

CYOW;2009-10-11 18:00;CYOW 111800Z 26016G23KT 20SM VCSH BKN050 08/M01 A3010 RMK CU5 SLP197

CYOW;2009-10-11 19:00;CYOW 111900Z 23016KT 20SM BKN050 09/M01 A3011 RMK CU5 SLP198

CYOW;2009-10-11 20:00;CYOW 112000Z 27017G25KT 20SM BKN060 09/M03 A3012 RMK CU6 SC ASOCTD SLP203

CYOW;2009-10-11 21:00;CYOW 112100Z 25014G20KT 20SM BKN064 09/M03 A3014 RMK SC6 SLP212

CYOW;2009-10-11 22:00;CYOW 112200Z 28007KT 20SM BKN080 08/M03 A3016 RMK AC6 SLP219

CYOW;2009-10-11 23:00;CYOW 112300Z 25006KT 15SM FEW060 SCT080 06/M03 A3019 RMK SC1AC2 SLP226

CYOW;2009-10-12 00:00;CYOW 120000Z 26005KT 15SM FEW060 04/M02 A3021 RMK SC1 SLP234

CYOW;2009-10-12 01:00;CYOW 120100Z 27007KT 15SM FEW060 04/M02 A3023 RMK SC1 SLP243

CYOW;2009-10-12 02:00;CYOW 120200Z 25006KT 15SM FEW060 03/M02 A3025 RMK SC1 SLP249

CYOW;2009-10-12 03:00;CYOW 120300Z 26007KT 15SM SKC 02/M02 A3027 RMK SLP254

CYOW;2009-10-12 04:00;CYOW 120400Z 27008KT 15SM SKC 02/M01 A3028 RMK SLP258

CYOW;2009-10-12 05:00;CYOW 120500Z 27008KT 15SM SKC 02/M01 A3028 RMK SLP260

CYOW;2009-10-12 06:00;CYOW 120600Z 24007KT 15SM SKC 02/M01 A3030 RMK SLP266

CYOW;2009-10-12 07:00;CYOW 120700Z 25007KT 15SM SKC 01/M01 A3031 RMK SLP267

CYOW;2009-10-12 08:00;CYOW 120800Z 24006KT 15SM SKC M00/M02 A3031 RMK SLP270

CYOW;2009-10-12 09:00;CYOW 120900Z 22004KT 15SM SKC 00/M01 A3033 RMK SLP275

CYOW;2009-10-12 10:00;CYOW 121000Z 00000KT 15SM SKC M01/M02 A3035 RMK FROIN SLP281

CYOW;2009-10-12 11:00;CYOW 121100Z 22003KT 15SM FEW240 M01/M03 A3036 RMK CI1 FROIN SLP285

CYOW;2009-10-12 12:00;CYOW 121200Z 23002KT 15SM FEW240 M01/M02 A3036 RMK CI2 FROIN SLP287

CYOW;2009-10-12 13:00;CYOW 121300Z 25003KT 15SM FEW180 BKN240 02/M00 A3037 RMK AC1CI1 SLP291

CYOW;2009-10-12 14:00;CYOW 121400Z 27004KT 15SM FEW180 BKN240 04/01 A3036 RMK AC2CI1 SLP287

CYOW;2009-10-12 15:00;CYOW 121500Z 28004KT 15SM FEW020 BKN170 05/01 A3034 RMK CF1AC5 SLP281

CYOW;2009-10-12 16:00;CYOW 121600Z 24005KT 15SM FEW020 BKN160 06/01 A3034 RMK CF1AC6 SLP278

CYOW;2009-10-12 17:00;CYOW 121700Z 22006KT 15SM FEW030 BKN180 OVC220 08/00 A3032 RMK CU1AC6CI1 SLP274

CYOW;2009-10-12 18:00;CYOW 121800Z 26005KT 15SM FEW040 SCT200 BKN240 09/M01 A3029 RMK SC2CI2CI0 SLP263

CYOW;2009-10-12 19:00;CYOW 121900Z 30006KT 15SM SCT045 BKN080 BKN200 08/M01 A3028 RMK SC4AC1CI2 SLP260

CYOW;2009-10-12 20:00;CYOW 122000Z 24002KT 15SM BKN050 BKN200 BKN240 09/M02 A3028 RMK SC6CI1CI1 SLP257

CYOW;2009-10-12 21:00;CYOW 122100Z 22005KT 15SM BKN051 BKN200 08/M01 A3026 RMK SC6CI1 SLP253

CYOW;2009-10-12 22:00;CYOW 122200Z 21003KT 15SM BKN050 OVC200 08/M02 A3025 RMK SC7CI1 SLP249

CYOW;2009-10-12 23:00;CYOW 122300Z 00000KT 15SM FEW055 BKN110 BKN140 BKN160 07/M02 A3024 RMK SC2AC3AC2AC1 SLP246

CYOW;2009-10-13 00:00;CYOW 130000Z 00000KT 15SM OVC085 07/M01 A3023 RMK AC8 SLP241

CYOW;2009-10-13 01:00;CYOW 130100Z 00000KT 15SM OVC090 06/M00 A3021 RMK AC8 SLP236

CYOW;2009-10-13 02:00;CYOW 130200Z 18002KT 15SM OVC055 06/00 A3021 RMK SC8 SLP236

CYOW;2009-10-13 02:03;CYOW 130203Z 22003KT 15SM -RA FEW007 BKN020 OVC055 06/ RMK SF1SC5SC3

CYOW;2009-10-13 03:00;CYOW 130300Z 34004KT 10SM -RA FEW008 BKN012 OVC035 06/00 A3020 RMK SF1SC6SC2 SLP230

CYOW;2009-10-13 04:00;CYOW 130400Z 07004KT 10SM -RA FEW007 BKN016 OVC023 04/02 A3017 RMK SF1SC5SC3 SLP221

CYOW;2009-10-13 05:00;CYOW 130500Z 07003KT 10SM -RA BKN012 OVC033 04/03 A3015 RMK SC5SC3 SLP213

CYOW;2009-10-13 06:00;CYOW 130600Z 06003KT 10SM -RA BKN015 OVC035 04/02 A3014 RMK SC6SC2 SLP209

CYOW;2009-10-13 07:00;CYOW 130700Z 08005KT 10SM -RA BKN011 BKN022 OVC029 04/03 A3012 RMK SC5SC2SC2 SLP203

CYOW;2009-10-13 08:00;CYOW 130800Z 08004KT 10SM -RA FEW008 BKN011 OVC014 03/02 A3010 RMK SF2SC5SC2 SLP196

CYOW;2009-10-13 09:00;CYOW 130900Z 09005KT 10SM -RA OVC007 03/02 A3008 RMK ST8 SLP191

CYOW;2009-10-13 10:00;CYOW 131000Z 07005KT 10SM -RA SCT006 OVC008 03/02 A3008 RMK SF3SC5 SLP189

CYOW;2009-10-13 11:00;CYOW 131100Z 06004KT 10SM -RA BKN006 OVC007 03/02 A3006 RMK SC6SC2 SLP185

CYOW;2009-10-13 12:00;CYOW 131200Z 07003KT 12SM -RA BKN008 OVC015 03/01 A3006 RMK SC6SC2 SLP184

CYOW;2009-10-13 13:00;CYOW 131300Z 06005KT 12SM -RA BKN009 OVC013 03/02 A3006 RMK SC6SC2 SLP183

CYOW;2009-10-13 14:00;CYOW 131400Z 06002KT 12SM -RA BKN008 OVC015 03/02 A3006 RMK SC7SC1 SLP185

CYOW;2009-10-13 15:00;CYOW 131500Z 34003KT 12SM -RA BKN008 OVC015 04/03 A3006 RMK SC7SC1 SLP183

CYOW;2009-10-13 16:00;CYOW 131600Z 01004KT 15SM -RA BKN010 OVC015 04/03 A3007 RMK SC6SC2 SLP186

CYOW;2009-10-13 17:00;CYOW 131700Z 36006KT 15SM -RA BKN009 OVC015 05/03 A3008 RMK SC6SC2 SLP190

CYOW;2009-10-13 17:45;CYOW 131745Z 27006KT 15SM FEW020 BKN034 05/ RMK SC2SC3 CU ASOCT

CYOW;2009-10-13 18:00;CYOW 131800Z 27004KT 15SM FEW025 BKN035 06/03 A3008 RMK SC2SC3 CU ASOCT SLP190

CYOW;2009-10-13 18:24;CYOW 131824Z 32005KT 8SM -RA BKN008 BKN016 06/ RMK SC5SC2

CYOW;2009-10-13 19:00;CYOW 131900Z 28002KT 15SM -RA BKN015 BKN025 05/03 A3010 RMK SC5SC1 VRY LGT RA SLP196

CYOW;2009-10-13 19:34;CYOW 131934Z 29004KT 15SM FEW025 SCT045 05/ RMK CU1SC3

CYOW;2009-10-13 20:00;CYOW 132000Z 27006KT 15SM FEW025 SCT045 07/04 A3011 RMK CU1SC3 SLP199

CYOW;2009-10-13 21:00;CYOW 132100Z 31005KT 15SM SCT030 06/03 A3012 RMK SC3 CU ASOCT SLP203

CYOW;2009-10-13 22:00;CYOW 132200Z 30007KT 15SM FEW020 05/02 A3014 RMK CU1 SLP209

CYOW;2009-10-13 23:00;CYOW 132300Z 31004KT 15SM FEW025 FEW040 03/01 A3017 RMK SC1SC1 SLP220

CYOW;2009-10-14 00:00;CYOW 140000Z 31007KT 15SM BKN033 04/02 A3021 RMK SC7 SLP234

CYOW;2009-10-14 01:00;CYOW 140100Z 31007KT 15SM FEW020 FEW040 03/01 A3022 RMK SC1SC2 SLP239

CYOW;2009-10-14 01:22;CYOW 140122Z 31005KT 15SM FEW040 02/ RMK SC2

CYOW;2009-10-14 02:00;CYOW 140200Z 30006KT 15SM FEW015 BKN040 03/01 A3025 RMK SC1SC5 SLP247

CYOW;2009-10-14 02:22;CYOW 140222Z 29005KT 15SM SCT040 02/ RMK SC3

CYOW;2009-10-14 03:00;CYOW 140300Z 31005KT 15SM FEW015 02/00 A3025 RMK SC1 SLP250

CYOW;2009-10-14 04:00;CYOW 140400Z 32010KT 15SM SKC 02/M01 A3026 RMK SLP251

CYOW;2009-10-14 05:00;CYOW 140500Z 32011KT 15SM FEW015 01/M01 A3026 RMK SC1 SLP251

CYOW;2009-10-14 06:00;CYOW 140600Z 32008KT 15SM SKC 01/M02 A3027 RMK SLP256

CYOW;2009-10-14 07:00;CYOW 140700Z 32008KT 15SM FEW040 M00/M03 A3027 RMK SC1 SLP256

CYOW;2009-10-14 08:00;CYOW 140800Z 32006KT 15SM FEW040 M01/M03 A3027 RMK SC1 SLP254

CYOW;2009-10-14 09:00;CYOW 140900Z 32005KT 15SM SKC M02/M03 A3027 RMK SLP257

CYOW;2009-10-14 10:00;CYOW 141000Z 27004KT 15SM SKC M00/M03 A3028 RMK SLP260

CYOW;2009-10-14 11:00;CYOW 141100Z 29004KT 15SM FEW060 M01/M04 A3029 RMK SC1 FROIN SLP263

CYOW;2009-10-14 12:00;CYOW 141200Z 27003KT 15SM BKN048 M00/M03 A3030 RMK SC5 FROIN SLP265

CYOW;2009-10-14 13:00;CYOW 141300Z 27006KT 15SM BKN047 01/M02 A3031 RMK SC7 SLP269

CYOW;2009-10-14 14:00;CYOW 141400Z 29006KT 15SM OVC048 03/M03 A3031 RMK SC8 SLP269

CYOW;2009-10-14 15:00;CYOW 141500Z 32006KT 15SM OVC048 03/M06 A3030 RMK SC8 SLP266

CYOW;2009-10-14 16:00;CYOW 141600Z 28007KT 15SM OVC049 03/M05 A3028 RMK SC8 SLP261

CYOW;2009-10-14 17:00;CYOW 141700Z 30010KT 15SM OVC048 03/M05 A3027 RMK SC8 SLP257

CYOW;2009-10-14 18:00;CYOW 141800Z 30008KT 15SM BKN036 OVC045 03/M04 A3026 RMK SC6SC2 SLP253

CYOW;2009-10-14 19:00;CYOW 141900Z 28010KT 15SM BKN035 OVC045 03/M04 A3025 RMK SC6SC2 SLP249

CYOW;2009-10-14 20:00;CYOW 142000Z 28008KT 15SM OVC043 03/M04 A3024 RMK SC8 SLP247

CYOW;2009-10-14 21:00;CYOW 142100Z 27008KT 15SM OVC039 03/M04 A3024 RMK SC8 SLP245

CYOW;2009-10-14 22:00;CYOW 142200Z 30009KT 15SM OVC046 02/M05 A3022 RMK SC8 SLP241

CYOW;2009-10-14 23:00;CYOW 142300Z 29006KT 15SM OVC046 02/M05 A3024 RMK SC8 SLP246

CYOW;2009-10-15 00:00;CYOW 150000Z 32009KT 15SM OVC044 02/M06 A3023 RMK SC8 SLP244

CYOW;2009-10-15 01:00;CYOW 150100Z 33008KT 15SM OVC042 01/M07 A3022 RMK SC8 SLP241

CYOW;2009-10-15 02:00;CYOW 150200Z 32005KT 15SM OVC044 01/M07 A3022 RMK SC8 SLP241

CYOW;2009-10-15 03:00;CYOW 150300Z 32004KT 15SM OVC044 01/M06 A3023 RMK SC8 SLP241

CYOW;2009-10-15 04:00;CYOW 150400Z 34004KT 15SM OVC044 01/M07 A3022 RMK SC8 SLP240

CYOW;2009-10-15 05:00;CYOW 150500Z 04002KT 15SM FEW044 BKN190 M00/M07 A3021 RMK SC2AC2 SLP236

CYOW;2009-10-15 06:00;CYOW 150600Z 07002KT 15SM OVC220 M01/M06 A3021 RMK CI6 SLP236

CYOW;2009-10-15 07:00;CYOW 150700Z 05002KT 15SM BKN220 M01/M08 A3020 RMK CI0 SLP234

CYOW;2009-10-15 08:00;CYOW 150800Z 36002KT 15SM SCT230 M01/M07 A3019 RMK CI0 SLP230

CYOW;2009-10-15 09:00;CYOW 150900Z 00000KT 15SM SCT230 M02/M07 A3019 RMK CI0 SLP229

CYOW;2009-10-15 10:00;CYOW 151000Z 02002KT 15SM BKN150 M02/M06 A3019 RMK AC2 SLP231

CYOW;2009-10-15 11:00;CYOW 151100Z 01004KT 15SM FEW060 M03/M06 A3020 RMK SC2 FROIN SLP234

CYOW;2009-10-15 12:00;CYOW 151200Z 02003KT 15SM FEW060 M03/M05 A3021 RMK SC1 FROIN SLP235

CYOW;2009-10-15 13:00;CYOW 151300Z 02003KT 15SM FEW060 FEW100 SCT240 M01/M05 A3022 RMK SC1AC1CI0 SLP238

CYOW;2009-10-15 14:00;CYOW 151400Z 04003KT 15SM FEW060 FEW100 SCT240 01/M05 A3022 RMK SC1AC1CI0 SLP239

CYOW;2009-10-15 15:00;CYOW 151500Z 05004KT 15SM FEW040 FEW100 FEW240 03/M07 A3020 RMK CU1AC1CI0 SLP232

CYOW;2009-10-15 16:00;CYOW 151600Z 06004KT 15SM BKN047 BKN100 03/M07 A3018 RMK SC6AC1 SLP225

CYOW;2009-10-15 17:00;CYOW 151700Z 04006KT 15SM BKN043 BKN100 03/M07 A3016 RMK SC6AC1 SLP218

CYOW;2009-10-15 18:00;CYOW 151800Z 02004KT 15SM BKN047 04/M07 A3013 RMK SC6 SLP209

CYOW;2009-10-15 19:00;CYOW 151900Z 03008KT 15SM SCT045 04/M06 A3012 RMK SC4 SLP205

CYOW;2009-10-15 20:00;CYOW 152000Z 08009KT 15SM FEW045 FEW100 SCT250 04/M07 A3011 RMK SC1AC1CI0 SLP201

CYOW;2009-10-15 21:00;CYOW 152100Z 05005KT 15SM FEW045 FEW100 SCT250 04/M07 A3011 RMK SC1AC2CI0 SLP200

CYOW;2009-10-15 22:00;CYOW 152200Z 05004KT 15SM FEW040 FEW100 SCT250 03/M07 A3010 RMK SC1AC1CI0 SC TR SLP199

CYOW;2009-10-15 22:27;CYOW 152227Z 06003KT 15SM FEW050 OVC250 02/ RMK SC1CI2

CYOW;2009-10-15 23:00;CYOW 152300Z 09003KT 15SM FEW060 BKN240 01/M07 A3011 RMK SC1CI2 SLP201

CYOW;2009-10-16 00:00;CYOW 160000Z 10005KT 15SM BKN240 M00/M07 A3012 RMK CI0 SLP206

CYOW;2009-10-16 01:00;CYOW 160100Z 10005KT 15SM SKC M01/M07 A3013 RMK SLP209

CYOW;2009-10-16 02:00;CYOW 160200Z 07004KT 15SM SKC M01/M07 A3013 RMK SLP209

CYOW;2009-10-16 03:00;CYOW 160300Z 04005KT 15SM SKC M01/M07 A3012 RMK SLP206

CYOW;2009-10-16 04:00;CYOW 160400Z 04007KT 15SM SKC M01/M07 A3011 RMK SLP203

CYOW;2009-10-16 05:00;CYOW 160500Z 05006KT 15SM SKC M02/M06 A3011 RMK SLP200

CYOW;2009-10-16 06:00;CYOW 160600Z 04005KT 15SM SKC M02/M07 A3010 RMK SLP199

CYOW;2009-10-16 07:00;CYOW 160700Z 03006KT 15SM SKC M02/M07 A3010 RMK SLP198

CYOW;2009-10-16 08:00;CYOW 160800Z 03006KT 15SM SKC M02/M07 A3010 RMK SLP197

CYOW;2009-10-16 09:00;CYOW 160900Z 02006KT 15SM SKC M03/M07 A3010 RMK SLP199

CYOW;2009-10-16 10:00;CYOW 161000Z 02005KT 15SM FEW240 M03/M07 A3011 RMK CI0 SLP202

CYOW;2009-10-16 11:00;CYOW 161100Z 04005KT 15SM FEW240 M02/M07 A3011 RMK CI0 SLP201

CYOW;2009-10-16 12:00;CYOW 161200Z 04005KT 15SM FEW240 M02/M06 A3012 RMK CI0 SLP206

CYOW;2009-10-16 13:00;CYOW 161300Z 03006KT 15SM SCT240 M01/M06 A3013 RMK CI0 SLP208

CYOW;2009-10-16 14:00;CYOW 161400Z 06011KT 15SM SCT240 02/M05 A3013 RMK CI0 SLP210

CYOW;2009-10-16 15:00;CYOW 161500Z 07015KT 15SM SCT240 04/M06 A3012 RMK CI0 SLP206

CYOW;2009-10-16 16:00;CYOW 161600Z 07011KT 15SM SCT240 05/M06 A3012 RMK CI0 SLP204

CYOW;2009-10-16 17:00;CYOW 161700Z 04010KT 15SM FEW070 SCT240 05/M06 A3011 RMK AC1CI0 SLP202

CYOW;2009-10-16 18:00;CYOW 161800Z 09010KT 15SM FEW050 SCT240 06/M06 A3010 RMK CU1CI0 SLP198

CYOW;2009-10-16 19:00;CYOW 161900Z 07004KT 15SM SCT240 06/M07 A3009 RMK CI0 SLP194

CYOW;2009-10-16 20:00;CYOW 162000Z 06007KT 15SM FEW240 06/M07 A3009 RMK CI0 SLP194

CYOW;2009-10-16 21:00;CYOW 162100Z 09006KT 15SM FEW240 06/M07 A3008 RMK CI0 SLP193

CYOW;2009-10-16 22:00;CYOW 162200Z 07004KT 15SM FEW240 04/M07 A3010 RMK CI1 SLP197

CYOW;2009-10-16 22:58;CYOW 162258Z 11004KT 15SM FEW240 02/ RMK CI1

CYOW;2009-10-16 23:00;CYOW 162300Z 11004KT 15SM FEW240 02/M07 A3011 RMK CI1 SLP202

CYOW;2009-10-17 00:00;CYOW 170000Z 09004KT 15SM SKC 02/M07 A3012 RMK SLP205

CYOW;2009-10-17 01:00;CYOW 170100Z 07003KT 15SM SKC 03/M07 A3013 RMK SLP209

CYOW;2009-10-17 02:00;CYOW 170200Z 36004KT 15SM FEW240 00/M06 A3014 RMK CI1 SLP211

CYOW;2009-10-17 03:00;CYOW 170300Z 36004KT 15SM FEW240 01/M05 A3014 RMK CI1 SLP211

CYOW;2009-10-17 04:00;CYOW 170400Z 01004KT 15SM FEW240 M00/M05 A3014 RMK CI1 FROIN SLP212

CYOW;2009-10-17 05:00;CYOW 170500Z 36005KT 15SM SKC M01/M05 A3014 RMK FROIN SLP210

CYOW;2009-10-17 06:00;CYOW 170600Z 36007KT 15SM SKC M01/M05 A3014 RMK FROIN SLP211

CYOW;2009-10-17 07:00;CYOW 170700Z 36007KT 15SM SKC M01/M05 A3014 RMK FROIN SLP212

CYOW;2009-10-17 08:00;CYOW 170800Z 36007KT 15SM SKC M01/M05 A3015 RMK FROIN SLP215

CYOW;2009-10-17 09:00;CYOW 170900Z 36008KT 15SM SKC M01/M05 A3015 RMK FROIN SLP215

CYOW;2009-10-17 10:00;CYOW 171000Z 36006KT 15SM FEW170 M01/M05 A3016 RMK AC1 FROIN SLP220

CYOW;2009-10-17 11:00;CYOW 171100Z CCA 01007KT 15SM BKN170 M01/M05 A3018 RMK AC6 FROIN SLP225

CYOW;2009-10-17 12:00;CYOW 171200Z 36006KT 15SM BKN170 M01/M05 A3019 RMK AC6 FROIN SLP231

CYOW;2009-10-17 13:00;CYOW 171300Z 01006KT 15SM FEW170 BKN280 00/M04 A3021 RMK AC2CI3 SLP235

CYOW;2009-10-17 14:00;CYOW 171400Z 05006KT 15SM OVC280 02/M04 A3021 RMK CI6 CS ASOCTD SLP236

CYOW;2009-10-17 15:00;CYOW 171500Z 05007KT 15SM BKN280 03/M03 A3020 RMK CI4 SLP233

CYOW;2009-10-17 16:00;CYOW 171600Z 05006KT 15SM BKN280 05/M03 A3020 RMK CI2 SLP232

CYOW;2009-10-17 17:00;CYOW 171700Z 02005KT 15SM FEW030 BKN280 06/M04 A3020 RMK CF1CI2 TR CUFRA SLP232

CYOW;2009-10-17 18:00;CYOW 171800Z 07008KT 15SM FEW040 FEW150 BKN280 07/M05 A3019 RMK CU1AC2CI2 SLP228

CYOW;2009-10-17 19:00;CYOW 171900Z 09006KT 15SM FEW050 SCT280 08/M04 A3019 RMK CU1CI1 SLP228

CYOW;2009-10-17 20:00;CYOW 172000Z 07005KT 15SM FEW050 SCT240 08/M05 A3019 RMK CU1CI2 SLP228

CYOW;2009-10-17 21:00;CYOW 172100Z 08006KT 15SM FEW050 SCT280 08/M04 A3019 RMK CU1CI1 SLP230

CYOW;2009-10-17 22:00;CYOW 172200Z 07004KT 15SM FEW050 SCT280 06/M05 A3021 RMK SC1CI1 TR SC SLP235

CYOW;2009-10-17 23:00;CYOW 172300Z 08004KT 15SM FEW150 SCT250 05/M06 A3022 RMK AC1CI1 SLP237

CYOW;2009-10-18 00:00;CYOW 180000Z 07003KT 15SM FEW150 SCT250 05/M05 A3022 RMK AC1CI1 SLP239

CYOW;2009-10-18 01:00;CYOW 180100Z 06004KT 15SM FEW150 SCT250 04/M05 A3023 RMK AC1CI1 SLP242

CYOW;2009-10-18 02:00;CYOW 180200Z 05003KT 15SM FEW150 SCT250 03/M05 A3024 RMK AC1CI1 SLP244

CYOW;2009-10-18 02:47;CYOW 180247Z 02004KT 15SM FEW150 SCT250 02/ RMK AC1CI1

CYOW;2009-10-18 03:00;CYOW 180300Z 02004KT 15SM FEW150 SCT250 02/M05 A3024 RMK AC1CI1 SLP245

CYOW;2009-10-18 04:00;CYOW 180400Z 02004KT 15SM FEW250 01/M04 A3025 RMK CI1 SLP247

CYOW;2009-10-18 05:00;CYOW 180500Z 02005KT 15SM FEW250 M00/M04 A3025 RMK CI0 SLP247

CYOW;2009-10-18 06:00;CYOW 180600Z 03004KT 15SM FEW160 FEW250 M00/M04 A3025 RMK AC1CI0 SLP247

CYOW;2009-10-18 07:00;CYOW 180700Z 02005KT 15SM SCT160 M01/M04 A3025 RMK AC4 SLP250

CYOW;2009-10-18 08:00;CYOW 180800Z 02006KT 15SM BKN160 M01/M04 A3025 RMK AC7 SLP249

CYOW;2009-10-18 09:00;CYOW 180900Z 36007KT 15SM BKN160 M01/M04 A3025 RMK AC7 SLP249

CYOW;2009-10-18 10:00;CYOW 181000Z 01006KT 15SM BKN160 M01/M05 A3026 RMK AC6 SLP251

CYOW;2009-10-18 11:00;CYOW 181100Z 36007KT 15SM FEW160 M02/M05 A3026 RMK AC2 SLP252

CYOW;2009-10-18 12:00;CYOW 181200Z 36006KT 15SM FEW240 M01/M04 A3028 RMK CI1 SLP260

CYOW;2009-10-18 13:00;CYOW 181300Z 05003KT 15SM FEW160 02/M04 A3031 RMK AC1 SLP270

CYOW;2009-10-18 14:00;CYOW 181400Z 08004KT 15SM FEW160 03/M04 A3031 RMK AC1 SLP270

CYOW;2009-10-18 15:00;CYOW 181500Z 01004KT 15SM FEW240 05/M04 A3027 RMK CI1 SLP256

CYOW;2009-10-18 16:00;CYOW 181600Z 34006KT 15SM FEW240 06/M04 A3026 RMK CI1 SLP252

CYOW;2009-10-18 17:00;CYOW 181700Z 02003KT 15SM FEW240 07/M05 A3025 RMK CI1 SLP249

CYOW;2009-10-18 18:00;CYOW 181800Z 32005KT 15SM FEW240 08/M05 A3024 RMK CI1 TR CI SLP245

CYOW;2009-10-18 19:00;CYOW 181900Z 05003KT 15SM FEW240 09/M05 A3022 RMK CI1 SLP238

CYOW;2009-10-18 20:00;CYOW 182000Z 00000KT 15SM FEW240 09/M05 A3021 RMK CI1 SLP234

CYOW;2009-10-18 21:00;CYOW 182100Z 06005KT 15SM FEW240 09/M06 A3019 RMK CI1 SLP230

CYOW;2009-10-18 22:00;CYOW 182200Z 08002KT 15SM SKC 08/M07 A3019 RMK SLP229

CYOW;2009-10-18 23:00;CYOW 182300Z 00000KT 15SM SKC 05/M06 A3019 RMK SLP227

CYOW;2009-10-19 00:00;CYOW 190000Z 25002KT 15SM SKC 06/M06 A3019 RMK SLP228

CYOW;2009-10-19 01:00;CYOW 190100Z 00000KT 15SM SKC 03/M06 A3019 RMK SLP228

CYOW;2009-10-19 02:00;CYOW 190200Z 00000KT 15SM SKC 04/M06 A3019 RMK SLP227

CYOW;2009-10-19 02:40;CYOW 190240Z 00000KT 15SM SKC 02/

CYOW;2009-10-19 03:00;CYOW 190300Z 00000KT 15SM SKC 03/M07 A3018 RMK SLP225

CYOW;2009-10-19 04:00;CYOW 190400Z 16002KT 15SM SKC 02/M07 A3016 RMK SLP220

CYOW;2009-10-19 05:00;CYOW 190500Z 27002KT 15SM SKC M01/M05 A3016 RMK SLP218

CYOW;2009-10-19 06:00;CYOW 190600Z 00000KT 15SM SKC 00/M05 A3017 RMK SLP220

CYOW;2009-10-19 07:00;CYOW 190700Z 36003KT 15SM SKC M01/M04 A3017 RMK FROIN SLP222

CYOW;2009-10-19 08:00;CYOW 190800Z 00000KT 15SM SKC M02/M04 A3016 RMK FROIN SLP217

CYOW;2009-10-19 09:00;CYOW 190900Z 09002KT 15SM SKC M02/M05 A3017 RMK FROIN SLP222

CYOW;2009-10-19 10:00;CYOW 191000Z 00000KT 15SM SKC M02/M04 A3018 RMK FROIN SLP225

CYOW;2009-10-19 11:00;CYOW 191100Z 00000KT 15SM FEW210 M03/M04 A3018 RMK CI1 FROIN SLP226

CYOW;2009-10-19 12:00;CYOW 191200Z 17002KT 15SM FEW150 M02/M05 A3017 RMK AC2 SLP222

CYOW;2009-10-19 13:00;CYOW 191300Z 18004KT 12SM SCT120 00/M04 A3017 RMK AC3 SLP222

CYOW;2009-10-19 14:00;CYOW 191400Z 20006KT 12SM SCT120 04/M03 A3017 RMK AC4 SLP222

CYOW;2009-10-19 15:00;CYOW 191500Z 16003KT 12SM SCT120 07/M02 A3015 RMK AC3 SLP213

CYOW;2009-10-19 16:00;CYOW 191600Z 20010G15KT 12SM SCT120 09/M02 A3014 RMK AC3 SLP209

CYOW;2009-10-19 17:00;CYOW 191700Z 20008KT 15SM FEW120 FEW240 10/M02 A3011 RMK AC2CI1 SLP199

CYOW;2009-10-19 18:00;CYOW 191800Z 23008KT 15SM FEW120 FEW240 11/M01 A3008 RMK AC2CI1 SLP189

CYOW;2009-10-19 19:00;CYOW 191900Z 19009KT 15SM FEW120 SCT240 12/M01 A3005 RMK AC2CI2 SLP181

CYOW;2009-10-19 20:00;CYOW 192000Z 20006KT 15SM FEW120 SCT240 13/M00 A3004 RMK AC2CI1 SLP176

CYOW;2009-10-19 21:00;CYOW 192100Z 19010G16KT 15SM SCT160 12/01 A3002 RMK AC3 SLP172

CYOW;2009-10-19 22:00;CYOW 192200Z 19008KT 15SM BKN085 BKN160 11/03 A3001 RMK AC6AC1 SLP167

CYOW;2009-10-19 23:00;CYOW 192300Z 19008KT 15SM FEW085 BKN095 BKN160 10/03 A3000 RMK AC2AC4AC1 SLP165

CYOW;2009-10-20 00:00;CYOW 200000Z 19007KT 15SM FEW110 SCT140 BKN190 09/04 A2999 RMK AC1AC2AC2 SLP162

CYOW;2009-10-20 01:00;CYOW 200100Z 16004KT 15SM FEW070 SCT100 07/04 A2999 RMK AC2AC2 SLP161

CYOW;2009-10-20 02:00;CYOW 200200Z 18005KT 15SM BKN072 BKN160 08/04 A2999 RMK AC5AC2 SLP162

CYOW;2009-10-20 03:00;CYOW 200300Z 18005KT 15SM BKN062 08/04 A2998 RMK SC6 SLP156

CYOW;2009-10-20 04:00;CYOW 200400Z 22006KT 15SM OVC056 09/05 A2998 RMK SC8 SLP157

CYOW;2009-10-20 05:00;CYOW 200500Z 20006KT 15SM OVC055 09/05 A2998 RMK SC8 SLP156

CYOW;2009-10-20 06:00;CYOW 200600Z 20005KT 15SM OVC052 09/05 A2997 RMK SC8 SLP152

CYOW;2009-10-20 07:00;CYOW 200700Z 20004KT 15SM OVC047 09/06 A2996 RMK SC8 SLP149

CYOW;2009-10-20 08:00;CYOW 200800Z 19003KT 15SM OVC044 09/06 A2996 RMK SC8 SLP148

CYOW;2009-10-20 09:00;CYOW 200900Z 22006KT 15SM BKN050 OVC076 10/06 A2996 RMK SC5AC3 SLP148

CYOW;2009-10-20 10:00;CYOW 201000Z 23006KT 15SM OVC050 11/05 A2996 RMK SC8 SLP150

CYOW;2009-10-20 11:00;CYOW 201100Z 23007KT 15SM BKN050 OVC075 11/06 A2997 RMK SC7AC1 SLP152

CYOW;2009-10-20 12:00;CYOW 201200Z 24006KT 15SM BKN048 OVC070 11/06 A2999 RMK SC7AC1 SLP158

CYOW;2009-10-20 13:00;CYOW 201300Z 24006KT 15SM FEW050 BKN073 11/06 A3000 RMK SC2AC5 SLP163

CYOW;2009-10-20 14:00;CYOW 201400Z 25006KT 15SM FEW050 OVC070 12/06 A3001 RMK SC2AC6 SLP165

CYOW;2009-10-20 15:00;CYOW 201500Z 29007KT 15SM FEW030 OVC073 13/07 A3001 RMK SC2AC6 SLP166

CYOW;2009-10-20 16:00;CYOW 201600Z 29008KT 15SM FEW030 BKN070 14/08 A3002 RMK SC1AC6 SLP170

CYOW;2009-10-20 17:00;CYOW 201700Z 29009KT 15SM BKN036 BKN070 14/08 A3002 RMK SC5AC1 SLP170

CYOW;2009-10-20 18:00;CYOW 201800Z 27009KT 15SM BKN036 15/08 A3003 RMK SC7 SLP171

CYOW;2009-10-20 19:00;CYOW 201900Z 28013KT 15SM BKN035 15/08 A3004 RMK SC7 SLP175

CYOW;2009-10-20 20:00;CYOW 202000Z 29010KT 15SM SCT035 BKN065 15/08 A3005 RMK SC3SC4 SLP178

CYOW;2009-10-20 21:00;CYOW 202100Z 27008KT 15SM SCT035 BKN065 14/08 A3007 RMK SC3SC4 SLP184

CYOW;2009-10-20 22:00;CYOW 202200Z 28008KT 15SM BKN065 BKN120 13/07 A3008 RMK SC6AC2 SLP190

CYOW;2009-10-20 23:00;CYOW 202300Z 30006KT 15SM BKN064 BKN130 12/07 A3010 RMK SC5AC2 SLP195

CYOW;2009-10-21 00:00;CYOW 210000Z 31005KT 15SM BKN120 10/07 A3012 RMK AC6 SLP202

CYOW;2009-10-21 01:00;CYOW 210100Z 35006KT 15SM BKN056 BKN130 10/06 A3014 RMK SC5AC2 SLP208

CYOW;2009-10-21 02:00;CYOW 210200Z 01007KT 15SM BKN043 10/05 A3014 RMK SC7 SLP210

CYOW;2009-10-21 03:00;CYOW 210300Z 36007KT 15SM OVC055 09/04 A3016 RMK SC8 SLP216

CYOW;2009-10-21 04:00;CYOW 210400Z 02004KT 15SM BKN055 OVC140 09/03 A3017 RMK SC6AC2 SLP219

CYOW;2009-10-21 05:00;CYOW 210500Z 01004KT 15SM OVC041 09/03 A3017 RMK SC8 SLP221

CYOW;2009-10-21 06:00;CYOW 210600Z 02005KT 15SM OVC044 09/03 A3018 RMK SC8 SLP221

CYOW;2009-10-21 07:00;CYOW 210700Z 02005KT 15SM OVC044 09/03 A3019 RMK SC8 SLP226

CYOW;2009-10-21 08:00;CYOW 210800Z 02006KT 15SM OVC040 08/03 A3019 RMK SC8 SLP225

CYOW;2009-10-21 09:00;CYOW 210900Z 05004KT 15SM OVC038 08/03 A3019 RMK SC8 SLP227

CYOW;2009-10-21 10:00;CYOW 211000Z 04005KT 15SM OVC040 08/03 A3020 RMK SC8 SLP231

CYOW;2009-10-21 11:00;CYOW 211100Z 02008KT 15SM OVC040 08/02 A3022 RMK SC8 SLP237

CYOW;2009-10-21 12:00;CYOW 211200Z 03007KT 15SM BKN038 07/02 A3022 RMK SC7 SLP238

CYOW;2009-10-21 13:00;CYOW 211300Z 04006KT 15SM BKN038 07/02 A3023 RMK SC7 SLP239

CYOW;2009-10-21 14:00;CYOW 211400Z 02006KT 15SM BKN037 08/02 A3025 RMK SC7 SLP245

CYOW;2009-10-21 15:00;CYOW 211500Z 02006KT 15SM BKN032 08/02 A3024 RMK SC7 SLP244

CYOW;2009-10-21 16:00;CYOW 211600Z 05005KT 15SM BKN032 08/02 A3023 RMK SC7 SLP241

CYOW;2009-10-21 17:00;CYOW 211700Z 04007KT 15SM BKN032 08/00 A3022 RMK SC7 SLP238

CYOW;2009-10-21 18:00;CYOW 211800Z 05007KT 15SM OVC030 08/M00 A3020 RMK SC8 SLP229

CYOW;2009-10-21 19:00;CYOW 211900Z 05005KT 15SM OVC036 09/00 A3018 RMK SC8 SLP224

CYOW;2009-10-21 20:00;CYOW 212000Z 06007KT 15SM BKN034 OVC060 08/00 A3018 RMK SC7SC1 SLP223

CYOW;2009-10-21 21:00;CYOW 212100Z 06007KT 15SM OVC032 08/01 A3017 RMK SC8 SLP219

CYOW;2009-10-21 22:00;CYOW 212200Z 07004KT 15SM OVC034 07/00 A3015 RMK SC8 SLP214

CYOW;2009-10-21 23:00;CYOW 212300Z 04005KT 12SM -RA OVC034 07/00 A3015 RMK SC8 VRY LGT RA SLP214

CYOW;2009-10-22 00:00;CYOW 220000Z 03006KT 12SM -RA OVC034 06/02 A3015 RMK SC8 SLP213

CYOW;2009-10-22 01:00;CYOW 220100Z 06006KT 8SM -RA OVC034 05/03 A3013 RMK SC8 SLP207

CYOW;2009-10-22 02:00;CYOW 220200Z 06006KT 12SM -RA OVC040 05/03 A3010 RMK SC8 SLP198

CYOW;2009-10-22 03:00;CYOW 220300Z 06008KT 4SM -RA BR OVC024 04/03 A3008 RMK NS8 CIG RAG SLP192

CYOW;2009-10-22 03:49;CYOW 220349Z 05006KT 4SM RA BR SCT007 OVC024 04/ RMK SF3NS5

CYOW;2009-10-22 04:00;CYOW 220400Z 05005KT 4SM RA BR BKN007 OVC018 04/04 A3007 RMK SF6NS2 SLP187

CYOW;2009-10-22 05:00;CYOW 220500Z 05008KT 5SM -RA BR OVC005 05/04 A3003 RERA RMK NS8 SLP175

CYOW;2009-10-22 06:00;CYOW 220600Z 08010G16KT 10SM -RA FEW009 OVC019 05/04 A3001 RMK SC2NS6 SLP165

CYOW;2009-10-22 06:44;CYOW 220644Z 09011G18KT 12SM OVC009 05/ RMK SC8

CYOW;2009-10-22 07:00;CYOW 220700Z 09013KT 12SM SCT009 OVC021 05/04 A2999 RMK SC3SC5 SLP158

CYOW;2009-10-22 07:42;CYOW 220742Z 07009KT 12SM OVC006 05/ RMK ST8

CYOW;2009-10-22 08:00;CYOW 220800Z 08010KT 7SM OVC004 04/03 A2997 RMK ST8 PRESFR SLP152

CYOW;2009-10-22 09:00;CYOW 220900Z 09011G16KT 10SM OVC006 03/02 A2996 RMK ST8 SLP148

CYOW;2009-10-22 10:00;CYOW 221000Z 08009KT 8SM OVC004 03/02 A2995 RMK ST8 SLP147

CYOW;2009-10-22 11:00;CYOW 221100Z 07008KT 8SM OVC004 03/02 A2994 RMK ST8 SLP142

CYOW;2009-10-22 12:00;CYOW 221200Z 08009KT 10SM OVC004 03/02 A2991 RMK ST8 SLP134

CYOW;2009-10-22 13:00;CYOW 221300Z 09009KT 2SM BR OVC004 03/02 A2988 RMK ST8 SLP124

CYOW;2009-10-22 14:00;CYOW 221400Z 09006KT 1 1/2SM BR OVC004 03/02 A2985 RMK ST8 SLP114

CYOW;2009-10-22 14:15;CYOW 221415Z 10009KT 1/2SM R07/5500FT/D R32/4000FT/D FG OVC004 03/ RMK FG3ST5

CYOW;2009-10-22 14:33;CYOW 221433Z 08006KT 1/2SM R07/3500FT/U R32/3000FT/N -RA FG OVC004 03/ RMK FG3ST5

CYOW;2009-10-22 15:00;CYOW 221500Z 09007KT 1/2SM R07/3000FT/N R32/2600FT/N -RA FG OVC004 03/03 A2983 RMK FG3ST5 SLP105

CYOW;2009-10-22 16:00;CYOW 221600Z 02007KT 1/2SM R07/3500FT/N R32/2800FT/U -RA FG OVC002 03/02 A2985 RMK FG2ST6 SLP112

CYOW;2009-10-22 16:50;CYOW 221650Z 04008KT 1 3/4SM -RA BR OVC002 03/ RMK FG2ST6

CYOW;2009-10-22 17:00;CYOW 221700Z 05007KT 2SM -RA BR OVC002 03/02 A2982 RMK FG2ST6 SLP101

CYOW;2009-10-22 17:34;CYOW 221734Z 04007KT 4SM -RA BR OVC004 03/ RMK SF8

CYOW;2009-10-22 18:00;CYOW 221800Z 02009KT 2SM -RA BR OVC004 03/02 A2983 RMK FG2SF6 SLP107

CYOW;2009-10-22 18:17;CYOW 221817Z 02008KT 2SM -RA BR OVC006 03/ RMK FG2SF6

CYOW;2009-10-22 18:31;CYOW 221831Z CCA 02008KT 4SM -RA BR OVC006 03/ RERA RMK SF8

CYOW;2009-10-22 19:00;CYOW 221900Z 36007KT 6SM -RA BR BKN006 OVC024 03/03 A2985 RERA RMK SF6SC2 SLP113

CYOW;2009-10-22 20:00;CYOW 222000Z 34009KT 12SM -RA BKN008 OVC023 04/03 A2990 RMK SF5SC3 SLP128

CYOW;2009-10-22 20:33;CYOW 222033Z 33010KT 12SM -RA BKN012 OVC023 04/ RMK SC6SC2

CYOW;2009-10-22 21:00;CYOW 222100Z 33011G16KT 10SM -RAPL OVC012 03/02 A2994 RMK SC8 VRY LGT PL SLP144

CYOW;2009-10-22 21:21;CYOW 222121Z 33011KT 15SM -RA BKN014 BKN035 03/ RMK SC6SC1

CYOW;2009-10-22 21:50;CYOW 222150Z 33011KT 15SM BKN013 BKN035 02/ RMK SC6SC2

CYOW;2009-10-22 22:00;CYOW 222200Z 32010KT 15SM BKN013 BKN035 02/01 A2999 RMK SC6SC2 SLP161

CYOW;2009-10-22 23:00;CYOW 222300Z 36010KT 12SM FEW010 OVC015 02/00 A3004 RMK SC2SC6 SLP177

CYOW;2009-10-23 00:00;CYOW 230000Z 35007KT 12SM FEW013 BKN019 02/M00 A3008 RMK SC1SC6 PRESRR SLP192

CYOW;2009-10-23 01:00;CYOW 230100Z 35009KT 15SM FEW012 BKN025 02/M01 A3014 RMK SC1SC6 PRESRR SLP212

CYOW;2009-10-23 02:00;CYOW 230200Z 36007KT 15SM FEW010 FEW025 01/M02 A3016 RMK CF1SC1 PRESRR SLP219

CYOW;2009-10-23 03:00;CYOW 230300Z 36007KT 15SM BKN022 01/M02 A3018 RMK SC6 SLP225

CYOW;2009-10-23 04:00;CYOW 230400Z 01008KT 15SM OVC024 01/M02 A3020 RMK SC8 SLP232

CYOW;2009-10-23 05:00;CYOW 230500Z 02005KT 15SM OVC022 01/M02 A3022 RMK SC8 SLP237

CYOW;2009-10-23 06:00;CYOW 230600Z 36006KT 15SM OVC024 01/M02 A3023 RMK SC8 SLP241

CYOW;2009-10-23 07:00;CYOW 230700Z 02004KT 15SM OVC024 01/M02 A3024 RMK SC8 SLP246

CYOW;2009-10-23 08:00;CYOW 230800Z 02006KT 15SM FEW015 OVC024 01/M02 A3025 RMK SC1SC7 SLP248

CYOW;2009-10-23 09:00;CYOW 230900Z 04003KT 15SM FEW015 OVC022 00/M02 A3025 RMK SC1SC7 SLP250

CYOW;2009-10-23 10:00;CYOW 231000Z 02004KT 15SM FEW015 BKN022 00/M03 A3027 RMK SC1SC5 SLP255

CYOW;2009-10-23 11:00;CYOW 231100Z 05004KT 15SM FEW012 SCT023 BKN250 M00/M03 A3027 RMK SC1SC4CI2 SLP257

CYOW;2009-10-23 12:00;CYOW 231200Z 05006KT 15SM FEW026 BKN250 M00/M03 A3028 RMK SC2CI2 SLP260

CYOW;2009-10-23 13:00;CYOW 231300Z 05007KT 15SM FEW012 FEW026 SCT200 OVC250 00/M03 A3030 RMK CF1SC2CS2CI2 SLP267

CYOW;2009-10-23 14:00;CYOW 231400Z 09009KT 15SM FEW015 FEW025 SCT200 BKN250 01/M02 A3030 RMK CF1SC1CS2CI3 SLP266

CYOW;2009-10-23 15:00;CYOW 231500Z 08013KT 15SM FEW015 BKN200 BKN250 02/M02 A3027 RMK SC2CS2CI2 SLP256

CYOW;2009-10-23 16:00;CYOW 231600Z 09012KT 15SM FEW020 SCT180 BKN250 02/M02 A3025 RMK SC2AC2CI2 SLP251

CYOW;2009-10-23 17:00;CYOW 231700Z 09013KT 15SM FEW020 FEW150 BKN200 OVC250 03/M02 A3022 RMK SC2AC1CS2CI2 SLP240

CYOW;2009-10-23 18:00;CYOW 231800Z 08011KT 15SM FEW150 OVC240 04/M03 A3016 RMK AC2CI5 SLP220

CYOW;2009-10-23 19:00;CYOW 231900Z 08011KT 15SM SCT130 OVC230 04/M04 A3015 RMK AC3CS5 SLP216

CYOW;2009-10-23 20:00;CYOW 232000Z 09012KT 15SM FEW080 BKN120 OVC230 04/M04 A3014 RMK AC2AS4CS2 SLP211

CYOW;2009-10-23 21:00;CYOW 232100Z 07011KT 15SM -RA BKN085 OVC120 03/M03 A3011 RMK AC5AS3 SLP200

CYOW;2009-10-23 22:00;CYOW 232200Z 08013KT 15SM -RA BKN090 OVC120 03/M01 A3006 RMK AC5AS3 SLP185

CYOW;2009-10-23 22:17;CYOW 232217Z 08013KT 15SM FEW065 OVC090 03/ RMK SC2AC6

CYOW;2009-10-23 22:38;CYOW 232238Z 08012G19KT 15SM -RA SCT065 OVC090 02/ RMK SC3AC5

CYOW;2009-10-23 23:00;CYOW 232300Z 09015G20KT 12SM -RA OVC070 02/M01 A3003 RMK AS8 SLP176

CYOW;2009-10-24 00:00;CYOW 240000Z 08012G18KT 10SM -RA BKN048 OVC075 01/M01 A3001 RMK SC5AS3 SLP168

CYOW;2009-10-24 01:00;CYOW 240100Z 18017KT 6SM -RA BR FEW011 OVC031 01/M00 A2998 RMK SF1SC8 SLP159

CYOW;2009-10-24 01:07;CYOW 240107Z CCA 08016KT 6SM -RA BR FEW009 BKN034 OVC045 01/ RMK SF1SC6SC2

CYOW;2009-10-24 02:00;CYOW 240200Z 08013G18KT 6SM -RA BR SCT007 OVC034 01/00 A2995 RMK SF3SC5 SLP149

CYOW;2009-10-24 03:00;CYOW 240300Z 08015KT 6SM -RA BR SCT007 OVC030 01/01 A2990 RMK SF3SC5 SLP129

CYOW;2009-10-24 04:00;CYOW 240400Z 08017KT 6SM -RA BR SCT005 OVC020 02/01 A2983 RMK SF3SC5 SLP108

CYOW;2009-10-24 05:00;CYOW 240500Z 09014G19KT 6SM -RA BR FEW005 SCT010 OVC018 02/02 A2981 RMK SF2SC2SC5 SLP100

CYOW;2009-10-24 06:00;CYOW 240600Z 09011G16KT 10SM -RA SCT005 OVC018 03/02 A2978 RMK SF3SC5 SLP090

CYOW;2009-10-24 06:44;CYOW 240644Z 09011G16KT 6SM -RA BR SCT005 OVC018 04/ RMK SF3SC5

CYOW;2009-10-24 07:00;CYOW 240700Z 08014KT 4SM -RA BR SCT005 OVC016 04/03 A2975 RMK SF3SC5 SLP080

CYOW;2009-10-24 08:00;CYOW 240800Z 08014KT 6SM -RA BR SCT005 OVC016 04/04 A2973 RMK SF3SC5 SLP072

CYOW;2009-10-24 09:00;CYOW 240900Z 08011KT 3SM -RA BR SCT003 OVC014 05/04 A2971 RMK SF3SC5 SLP064

CYOW;2009-10-24 09:15;CYOW 240915Z 10011KT 10SM -RA FEW003 SCT009 OVC012 05/ RMK SF2SF2SC5

CYOW;2009-10-24 10:00;CYOW 241000Z 09014KT 4SM -RA BR SCT003 OVC012 05/04 A2968 RMK SF3SC5 SLP055

CYOW;2009-10-24 11:00;CYOW 241100Z 09012KT 4SM -RA BR SCT005 OVC010 05/05 A2966 RMK SF4NS4 SLP047

CYOW;2009-10-24 12:00;CYOW 241200Z 09011KT 6SM -RA BR SCT004 OVC008 06/06 A2966 RMK SF4NS4 SLP047

CYOW;2009-10-24 12:45;CYOW 241245Z 09008KT 4SM -RA BR BKN003 OVC008 06/ RMK SF6NS2

CYOW;2009-10-24 13:00;CYOW 241300Z 08010KT 4SM BR OVC003 06/06 A2964 RMK SF8 SLP042

CYOW;2009-10-24 14:00;CYOW 241400Z 09007KT 5SM BR OVC003 07/07 A2963 RMK SF8 SLP037

CYOW;2009-10-24 15:00;CYOW 241500Z 07007KT 4SM BR OVC003 08/08 A2960 RMK SF8 SLP027

CYOW;2009-10-24 16:00;CYOW 241600Z 09006KT 3SM -RA BR BKN003 OVC010 08/08 A2958 RMK SF6NS2 RAIN VRY FINE SLP021

CYOW;2009-10-24 17:00;CYOW 241700Z 08007KT 2SM -RA BR BKN003 OVC010 09/09 A2956 RMK SF6NS2 SLP013

CYOW;2009-10-24 17:22;CYOW 241722Z 05007KT 1 1/2SM -RA BR OVC003 09/ RMK SF8

CYOW;2009-10-24 18:00;CYOW 241800Z 06007KT 2SM -RA BR BKN003 OVC008 09/09 A2953 RMK SF5NS3 SLP002

CYOW;2009-10-24 18:44;CYOW 241844Z 08007KT 3SM -RA BR BKN004 OVC010 09/ RMK SF5NS3

CYOW;2009-10-24 19:00;CYOW 241900Z 07007KT 4SM -RA BR BKN004 OVC012 09/09 A2951 RMK SF5NS3 SLP995

CYOW;2009-10-24 19:25;CYOW 241925Z 09004KT 5SM BR BKN004 OVC010 10/ RMK SF6NS2

CYOW;2009-10-24 20:00;CYOW 242000Z 08004KT 5SM BR OVC004 10/10 A2953 RMK SF8 SLP002

CYOW;2009-10-24 21:00;CYOW 242100Z 10004KT 5SM BR OVC004 10/10 A2953 RMK SF8 SLP002

CYOW;2009-10-24 21:30;CYOW 242130Z 13005KT 5SM BR FEW004 SCT020 BKN075 10/ RMK SF2SC2AC2

CYOW;2009-10-24 22:00;CYOW 242200Z 18005KT 8SM SCT020 BKN077 11/11 A2954 RMK SC3AC3 SLP006

CYOW;2009-10-24 23:00;CYOW 242300Z 22008KT 15SM FEW055 BKN080 12/10 A2955 RMK SC2AC4 SLP009

CYOW;2009-10-25 00:00;CYOW 250000Z 21005KT 15SM FEW065 BKN080 11/09 A2956 RMK SC2AC6 SLP014

CYOW;2009-10-25 01:00;CYOW 250100Z CCB 22005KT 15SM FEW030 FEW065 OVC080 11/09 A2958 RMK SC1SC2AC6 SLP020

CYOW;2009-10-25 02:00;CYOW 250200Z 21005KT 15SM FEW030 BKN085 10/08 A2960 RMK SC1AC6 SLP026

CYOW;2009-10-25 03:00;CYOW 250300Z 23008KT 15SM FEW035 BKN090 OVC120 10/07 A2961 RMK SC2AC5AC2 SLP031

CYOW;2009-10-25 04:00;CYOW 250400Z 24008KT 15SM SCT045 BKN090 OVC120 10/07 A2963 RMK SC3AC2AC2 SLP037

CYOW;2009-10-25 05:00;CYOW 250500Z 25009KT 15SM BKN035 BKN090 09/06 A2966 RMK SC5AC2 SLP046

CYOW;2009-10-25 06:00;CYOW 250600Z 24012G17KT 15SM BKN035 OVC095 09/05 A2970 RMK SC5AC3 SLP060

CYOW;2009-10-25 07:00;CYOW 250700Z 24009KT 15SM BKN035 BKN095 08/05 A2973 RMK SC5AC2 SLP071

CYOW;2009-10-25 08:00;CYOW 250800Z 24007KT 15SM BKN040 BKN095 07/05 A2975 RMK SC6AC1 SLP076

CYOW;2009-10-25 09:00;CYOW 250900Z 24011KT 15SM BKN040 07/04 A2979 RMK SC7 SLP090

CYOW;2009-10-25 10:00;CYOW 251000Z 25012G18KT 15SM BKN040 07/03 A2982 RMK SC7 SLP102

CYOW;2009-10-25 11:00;CYOW 251100Z 27013KT 15SM FEW040 06/01 A2987 RMK SC2 SLP117

CYOW;2009-10-25 12:00;CYOW 251200Z 26009KT 20SM FEW040 FEW240 05/01 A2991 RMK SC2CI0 SLP133

CYOW;2009-10-25 13:00;CYOW 251300Z 24009KT 20SM FEW010 FEW040 FEW240 06/02 A2995 RMK CF1SC1CI0 SLP145

CYOW;2009-10-25 14:00;CYOW 251400Z 26012KT 20SM SCT030 BKN240 07/02 A2997 RMK CF3CI1 SLP153

CYOW;2009-10-25 15:00;CYOW 251500Z 27020G26KT 20SM SCT036 BKN240 08/00 A3000 RMK CU3CI0 SLP161

CYOW;2009-10-25 16:00;CYOW 251600Z 28013KT 20SM FEW040 SCT240 09/00 A3001 RMK CU2CI1 SLP166

CYOW;2009-10-25 17:00;CYOW 251700Z 29014G19KT 20SM FEW040 SCT180 10/01 A3002 RMK CU2AC2 THIN AC SLP169

CYOW;2009-10-25 18:00;CYOW 251800Z 27012G19KT 20SM SCT044 11/01 A3004 RMK CU3 SLP174

CYOW;2009-10-25 19:00;CYOW 251900Z 29009G15KT 20SM FEW050 11/00 A3004 RMK CU2 SLP176

CYOW;2009-10-25 20:00;CYOW 252000Z 31009KT 20SM FEW050 11/01 A3007 RMK CU1 SLP184

CYOW;2009-10-25 21:00;CYOW 252100Z 29008KT 20SM FEW050 10/00 A3008 RMK CU1 SLP189

CYOW;2009-10-25 22:00;CYOW 252200Z 29006KT 20SM FEW050 FEW240 08/M00 A3011 RMK SC1CI1 SLP198

CYOW;2009-10-25 23:00;CYOW 252300Z 31006KT 15SM SKC 06/M01 A3013 RMK SLP206

CYOW;2009-10-26 00:00;CYOW 260000Z 32007KT 15SM SKC 04/M01 A3015 RMK SLP215

CYOW;2009-10-26 01:00;CYOW 260100Z 34011KT 15SM SKC 06/M01 A3018 RMK SLP224

CYOW;2009-10-26 02:00;CYOW 260200Z 34008KT 15SM SKC 04/M01 A3021 RMK SLP234

CYOW;2009-10-26 03:00;CYOW 260300Z 34008KT 15SM SKC 02/M02 A3023 RMK SLP241

CYOW;2009-10-26 04:00;CYOW 260400Z 32005KT 15SM SKC 01/M02 A3025 RMK SLP249

CYOW;2009-10-26 05:00;CYOW 260500Z 32004KT 15SM SKC 02/M02 A3027 RMK SLP255

CYOW;2009-10-26 06:00;CYOW 260600Z 29002KT 15SM SKC 02/M02 A3029 RMK FROIN SLP261

CYOW;2009-10-26 07:00;CYOW 260700Z 23002KT 15SM SKC 01/M02 A3031 RMK FROIN SLP267

CYOW;2009-10-26 08:00;CYOW 260800Z 23003KT 15SM SKC 00/M02 A3032 RMK FROIN SLP270

CYOW;2009-10-26 09:00;CYOW 260900Z 30003KT 15SM SKC M00/M02 A3032 RMK FROIN SLP272

CYOW;2009-10-26 10:00;CYOW 261000Z 32004KT 15SM SKC M01/M02 A3034 RMK FROIN SLP277

CYOW;2009-10-26 11:00;CYOW 261100Z 26002KT 15SM FEW080 M01/M02 A3034 RMK AC2 SLP280

CYOW;2009-10-26 12:00;CYOW 261200Z 35002KT 15SM SCT075 M01/M02 A3036 RMK AC4 FROIN SLP288

CYOW;2009-10-26 13:00;CYOW 261300Z 00000KT 15SM FEW075 FEW240 01/M01 A3039 RMK AC2CI0 SLP296

CYOW;2009-10-26 14:00;CYOW 261400Z 36003KT 15SM BKN100 BKN240 04/M01 A3041 RMK AC5CI0 SLP303

CYOW;2009-10-26 15:00;CYOW 261500Z 04004KT 15SM BKN100 BKN130 04/M02 A3040 RMK AC5AC2 SLP299

CYOW;2009-10-26 16:00;CYOW 261600Z 06004KT 15SM BKN100 04/M02 A3039 RMK AC7 SLP296

CYOW;2009-10-26 17:00;CYOW 261700Z 00000KT 15SM OVC100 04/M02 A3040 RMK AC8 SLP299

CYOW;2009-10-26 18:00;CYOW 261800Z 34002KT 15SM OVC090 04/M02 A3037 RMK AC8 SLP291

CYOW;2009-10-26 19:00;CYOW 261900Z 08002KT 15SM OVC090 05/M01 A3035 RMK AC8 SLP284

CYOW;2009-10-26 20:00;CYOW 262000Z 05002KT 15SM OVC080 05/M01 A3035 RMK AC8 SLP282

CYOW;2009-10-26 20:36;CYOW 262036Z 06006KT 15SM -RA OVC070 05/ RMK AC8 RA VRY LGT

CYOW;2009-10-26 21:00;CYOW 262100Z 06005KT 15SM OVC070 05/M01 A3034 RMK AC8 SLP278

CYOW;2009-10-26 22:00;CYOW 262200Z 09005KT 15SM BKN070 04/M01 A3032 RMK AC6 SLP272

CYOW;2009-10-26 23:00;CYOW 262300Z 06005KT 15SM BKN070 OVC080 04/M01 A3030 RMK AC5AC3 SLP267

CYOW;2009-10-27 00:00;CYOW 270000Z 08006KT 15SM BKN070 OVC075 04/M01 A3030 RMK AC6AC2 SLP265

CYOW;2009-10-27 01:00;CYOW 270100Z 07007KT 15SM SCT075 OVC100 04/M01 A3028 RMK AC3AC5 SLP259

CYOW;2009-10-27 02:00;CYOW 270200Z 06008KT 15SM BKN080 OVC150 04/M01 A3026 RMK AC5AC3 SLP253

CYOW;2009-10-27 03:00;CYOW 270300Z 07012KT 15SM BKN130 OVC160 04/M01 A3023 RMK AC5AC3 SLP241

CYOW;2009-10-27 04:00;CYOW 270400Z 07010KT 15SM BKN130 OVC180 04/M00 A3021 RMK AC6AC2 SLP236

CYOW;2009-10-27 05:00;CYOW 270500Z 06010KT 15SM BKN130 OVC180 04/M00 A3018 RMK AC6AC2 SLP226

CYOW;2009-10-27 06:00;CYOW 270600Z 08010G15KT 15SM OVC140 04/M01 A3017 RMK AC8 SLP221

CYOW;2009-10-27 07:00;CYOW 270700Z 08012KT 15SM OVC140 04/M01 A3015 RMK AC8 SLP214

CYOW;2009-10-27 08:00;CYOW 270800Z 09011KT 15SM OVC130 04/M01 A3013 RMK AC8 SLP209

CYOW;2009-10-27 09:00;CYOW 270900Z 09010KT 15SM BKN130 OVC160 04/M01 A3011 RMK AC5AC3 SLP200

CYOW;2009-10-27 10:00;CYOW 271000Z 09009KT 15SM FEW140 BKN180 04/M01 A3010 RMK AC2AC5 SLP196

CYOW;2009-10-27 11:00;CYOW 271100Z 10009KT 15SM FEW180 BKN210 04/M01 A3007 RMK AC2CI3 SLP187

CYOW;2009-10-27 12:00;CYOW 271200Z 09004KT 15SM FEW140 BKN180 BKN210 03/M00 A3008 RMK AC2AC3CI1 SLP189

CYOW;2009-10-27 13:00;CYOW 271300Z 08006KT 15SM SCT180 BKN210 04/00 A3007 RMK AC3CI2 SLP188

CYOW;2009-10-27 14:00;CYOW 271400Z 08005KT 15SM SCT180 BKN210 05/01 A3005 RMK AC3CI2 SLP180

CYOW;2009-10-27 15:00;CYOW 271500Z 06006KT 15SM SCT095 BKN180 06/01 A3004 RMK AC3AC3 SLP178

CYOW;2009-10-27 16:00;CYOW 271600Z 10006KT 15SM BKN074 OVC140 07/02 A3002 RMK AC6AC2 SLP169

CYOW;2009-10-27 16:05;CYOW 271605Z 08005KT 15SM -RA BKN066 OVC090 07/ RMK AC5AC3 VRY LGT RA

CYOW;2009-10-27 17:00;CYOW 271700Z 07004KT 15SM BKN074 OVC090 07/02 A3002 RMK AC7AC1 SLP170

CYOW;2009-10-27 17:54;CYOW 271754Z 08003KT 15SM -RA BKN068 OVC090 07/ RMK AC7AC1 VRY LGT RA

CYOW;2009-10-27 18:00;CYOW 271800Z 06003KT 15SM -RA BKN068 OVC090 07/03 A3002 RMK AC7AC1 VRY LGT RA SLP168

CYOW;2009-10-27 18:49;CYOW 271849Z 09005KT 15SM FEW070 BKN089 08/ RMK AC2AC6

CYOW;2009-10-27 19:00;CYOW 271900Z 08005KT 15SM FEW070 BKN081 08/03 A3002 RMK AC2AC6 SLP168

CYOW;2009-10-27 20:00;CYOW 272000Z 04004KT 15SM FEW075 BKN085 08/03 A3002 RMK AC2AC5 SLP171

CYOW;2009-10-27 21:00;CYOW 272100Z 06005KT 15SM FEW085 BKN210 08/03 A3003 RMK AC2CI1 SLP172

CYOW;2009-10-27 22:00;CYOW 272200Z 08004KT 15SM FEW085 06/03 A3002 RMK AC1 SLP170

CYOW;2009-10-27 23:00;CYOW 272300Z 04006KT 15SM OVC053 07/03 A3005 RMK SC8 SLP179

CYOW;2009-10-28 00:00;CYOW 280000Z 05005KT 15SM OVC029 07/03 A3007 RMK SC8 PRESRR SLP187

CYOW;2009-10-28 01:00;CYOW 280100Z 09008KT 15SM SCT028 OVC050 06/03 A3007 RMK SC3SC5 SLP186

CYOW;2009-10-28 02:00;CYOW 280200Z 00000KT 15SM SCT050 OVC070 05/03 A3008 RMK SC3AC5 VOON VISBL SLP191

CYOW;2009-10-28 03:00;CYOW 280300Z 05006KT 15SM FEW055 OVC220 05/03 A3005 RMK SC2CI6 SLP179

CYOW;2009-10-28 04:00;CYOW 280400Z 04006KT 15SM FEW060 OVC250 04/03 A3003 RMK SC1CI7 SLP175

CYOW;2009-10-28 05:00;CYOW 280500Z 05005KT 15SM OVC240 04/03 A3003 RMK CI8 SLP174

CYOW;2009-10-28 06:00;CYOW 280600Z 05007KT 15SM OVC240 04/03 A3002 RMK CI8 SLP168

CYOW;2009-10-28 07:00;CYOW 280700Z 06007KT 15SM OVC220 04/03 A3004 RMK CI8 SLP175

CYOW;2009-10-28 08:00;CYOW 280800Z 05009KT 15SM FEW010 OVC200 04/03 A3002 RMK SC1CI7 SLP169

CYOW;2009-10-28 08:50;CYOW 280850Z 06010KT 12SM OVC005 05/ RMK ST8

CYOW;2009-10-28 09:00;CYOW 280900Z 06010KT 12SM OVC006 05/04 A3003 RMK SC8 SLP174

CYOW;2009-10-28 10:00;CYOW 281000Z 07008KT 6SM BR OVC005 05/04 A3005 RMK SC8 SLP179

CYOW;2009-10-28 11:00;CYOW 281100Z 06014KT 6SM BR OVC006 05/05 A3001 RMK SC8 SLP165

CYOW;2009-10-28 12:00;CYOW 281200Z 07012KT 6SM BR OVC007 05/05 A2999 RMK SC8 SLP161

CYOW;2009-10-28 13:00;CYOW 281300Z 06010KT 8SM BKN010 OVC120 06/05 A2999 RMK SC7AC1 SLP161

CYOW;2009-10-28 14:00;CYOW 281400Z 07010KT 12SM BKN011 OVC100 07/05 A3001 RMK SC6AC2 SLP165

CYOW;2009-10-28 15:00;CYOW 281500Z 07010KT 15SM FEW010 OVC094 07/04 A3001 RMK SC2AC6 SLP166

CYOW;2009-10-28 15:51;CYOW 281551Z 07007KT 15SM -RA OVC089 07/ RMK AC8

CYOW;2009-10-28 16:00;CYOW 281600Z 07009KT 15SM -RA OVC084 07/05 A3001 RMK AC8 SLP165

CYOW;2009-10-28 17:00;CYOW 281700Z 05011KT 12SM -RA OVC070 07/06 A3000 RMK AC8 SLP163

CYOW;2009-10-28 18:00;CYOW 281800Z CCA 05011KT 15SM -RA FEW030 OVC057 07/06 A3000 RMK SC1SC7 SLP163

CYOW;2009-10-28 19:00;CYOW 281900Z 05012KT 15SM -RA FEW030 OVC051 07/06 A3000 RMK SC1SC7 SLP163

CYOW;2009-10-28 19:43;CYOW 281943Z 08010KT 15SM -RA BKN015 OVC040 07/ RMK SC5SC3

CYOW;2009-10-28 20:00;CYOW 282000Z 07010G15KT 15SM -RA BKN013 OVC040 07/06 A3003 RMK SC6SC2 SLP174

CYOW;2009-10-28 20:48;CYOW 282048Z 07012KT 15SM FEW015 OVC062 07/ RMK SC2SC6

CYOW;2009-10-28 21:00;CYOW 282100Z 07012G19KT 15SM FEW015 OVC061 07/06 A3004 RMK SC2SC6 SLP177

CYOW;2009-10-28 22:00;CYOW 282200Z 08009KT 15SM -RA BKN018 OVC050 07/06 A3007 RMK SC5SC3 SLP186

CYOW;2009-10-28 22:32;CYOW 282232Z 08009KT 5SM -DZ OVC018 06/ RMK ST8

CYOW;2009-10-28 23:00;CYOW 282300Z 08008KT 4SM -DZ OVC018 06/06 A3009 RMK ST8 SLP193

CYOW;2009-10-29 00:00;CYOW 290000Z 06009KT 15SM -RA OVC017 06/05 A3011 RMK ST8 VRY LGT RA SLP199

CYOW;2009-10-29 00:20;CYOW 290020Z 06009KT 15SM OVC017 06/ RMK SC8

CYOW;2009-10-29 01:00;CYOW 290100Z 07007KT 15SM OVC018 06/05 A3013 RMK SC8 SLP206

CYOW;2009-10-29 02:00;CYOW 290200Z 07006KT 15SM OVC017 06/05 A3016 RMK SC8 SLP216

CYOW;2009-10-29 03:00;CYOW 290300Z 06004KT 15SM OVC021 06/05 A3016 RMK SC8 SLP216

CYOW;2009-10-29 04:00;CYOW 290400Z 07002KT 15SM OVC018 06/05 A3017 RMK SC8 SLP222

CYOW;2009-10-29 04:28;CYOW 290428Z 09004KT 15SM -RA OVC020 06/ RMK SC8

CYOW;2009-10-29 04:48;CYOW 290448Z 07004KT 5SM -DZ OVC030 05/ RMK SC8

CYOW;2009-10-29 05:00;CYOW 290500Z 08007KT 5SM -DZ OVC031 06/05 A3019 RMK SC8 SLP226

CYOW;2009-10-29 05:41;CYOW 290541Z 08003KT 5SM -DZ OVC012 06/ RMK ST8

CYOW;2009-10-29 06:00;CYOW 290600Z 07003KT 8SM -DZ OVC012 06/05 A3020 RMK ST8 SLP230

CYOW;2009-10-29 07:00;CYOW 290700Z 05007KT 4SM -DZ BR OVC010 05/05 A3022 RMK ST8 CIG RAG SLP236

CYOW;2009-10-29 07:29;CYOW 290729Z 07007KT 4SM -DZ BR FEW004 OVC014 05/ RMK SC2ST6

CYOW;2009-10-29 08:00;CYOW 290800Z 07004KT 7SM SCT004 OVC013 05/05 A3022 RMK SC3SC5 SLP236

CYOW;2009-10-29 09:00;CYOW 290900Z 07005KT 8SM FEW004 OVC012 05/05 A3023 RMK SC2SC6 SLP242

CYOW;2009-10-29 10:00;CYOW 291000Z 07005KT 3SM BR OVC006 05/05 A3027 RMK SC8 SLP253

CYOW;2009-10-29 10:36;CYOW 291036Z 07005KT 5SM BR FEW003 OVC011 04/ RMK SF2SC6

CYOW;2009-10-29 11:00;CYOW 291100Z 07004KT 4SM BR SCT003 OVC011 04/04 A3028 RMK SC4SC4 SLP259

CYOW;2009-10-29 11:22;CYOW 291122Z 08005KT 6SM BR BKN004 OVC010 04/ RMK SC6SC2

CYOW;2009-10-29 12:00;CYOW 291200Z 07005KT 6SM BR SCT005 OVC017 04/04 A3029 RMK SC3SC5 SLP262

CYOW;2009-10-29 13:00;CYOW 291300Z 08003KT 12SM OVC015 04/04 A3032 RMK SC8 SLP271

CYOW;2009-10-29 14:00;CYOW 291400Z 09006KT 12SM OVC015 05/04 A3032 RMK SC8 SLP272

CYOW;2009-10-29 15:00;CYOW 291500Z 00000KT 12SM BKN010 OVC017 05/04 A3034 RMK SC5SC3 SLP278

CYOW;2009-10-29 16:00;CYOW 291600Z 04002KT 15SM SCT012 BKN018 OVC025 07/05 A3033 RMK SC3SC3SC2 SLP276

CYOW;2009-10-29 17:00;CYOW 291700Z 05004KT 12SM SCT013 OVC020 07/05 A3031 RMK SC3SC5 SLP269

CYOW;2009-10-29 18:00;CYOW 291800Z 08003KT 12SM OVC015 08/05 A3029 RMK SC8 SLP261

CYOW;2009-10-29 19:00;CYOW 291900Z 15003KT 12SM BKN016 OVC024 08/06 A3028 RMK SC6SC2 SLP258

CYOW;2009-10-29 20:00;CYOW 292000Z 16004KT 12SM SCT015 OVC041 08/05 A3029 RMK SC3SC5 SLP260

CYOW;2009-10-29 21:00;CYOW 292100Z 21004KT 12SM FEW015 OVC039 08/06 A3030 RMK SC2SC6 SLP265

CYOW;2009-10-29 22:00;CYOW 292200Z 17002KT 12SM BKN031 OVC039 07/06 A3030 RMK SC6SC2 SLP264

CYOW;2009-10-29 23:00;CYOW 292300Z 21002KT 15SM FEW026 BKN040 07/06 A3031 RMK SC1SC7 SLP269

CYOW;2009-10-30 00:00;CYOW 300000Z 21002KT 12SM OVC025 07/06 A3032 RMK SC8 SLP271

CYOW;2009-10-30 01:00;CYOW 300100Z 00000KT 10SM OVC023 07/06 A3030 RMK SC8 MOON VISBL SLP265

CYOW;2009-10-30 02:00;CYOW 300200Z 12003KT 7SM OVC020 06/06 A3029 RMK SC8 SLP261

CYOW;2009-10-30 03:00;CYOW 300300Z 16003KT 7SM OVC018 06/06 A3028 RMK SC8 SLP259

CYOW;2009-10-30 04:00;CYOW 300400Z 14003KT 7SM OVC017 06/06 A3025 RMK SC8 SLP250

CYOW;2009-10-30 04:40;CYOW 300440Z 16003KT 5SM BR OVC014 06/ RMK SC8

CYOW;2009-10-30 05:00;CYOW 300500Z 16003KT 5SM BR OVC014 06/06 A3024 RMK SC8 SLP245

CYOW;2009-10-30 05:41;CYOW 300541Z 13002KT 4SM BR FEW002 OVC014 06/ RMK SC2SC6

CYOW;2009-10-30 06:00;CYOW 300600Z 15002KT 4SM BR FEW002 SCT014 BKN023 06/06 A3024 RMK SC1SC2SC4 SLP244

CYOW;2009-10-30 07:00;CYOW 300700Z 00000KT 4SM BR OVC020 06/06 A3023 RMK SC8 SLP242

CYOW;2009-10-30 07:42;CYOW 300742Z 14002KT 4SM BR FEW008 OVC017 06/ RMK SC1SC7

CYOW;2009-10-30 08:00;CYOW 300800Z 12002KT 2 1/2SM -DZ BR SCT002 OVC009 06/06 A3021 RMK SC3ST5 SLP235

CYOW;2009-10-30 09:00;CYOW 300900Z 09005KT 2 1/2SM -DZ BR SCT002 OVC005 06/06 A3020 RMK SC3ST5 SLP230

CYOW;2009-10-30 10:00;CYOW 301000Z 09006KT 2SM -DZ BR OVC006 06/06 A3019 RMK FG1ST7 SLP228

CYOW;2009-10-30 10:14;CYOW 301014Z 08007KT 2 1/2SM -DZ BR OVC002 06/ RMK ST8

CYOW;2009-10-30 11:00;CYOW 301100Z 09006KT 2 1/2SM -DZ BR OVC002 06/06 A3017 RMK FG1ST7 SLP220

CYOW;2009-10-30 12:00;CYOW 301200Z 10008KT 1 1/2SM -DZ BR OVC003 07/07 A3014 RMK FG1ST7 SLP210

CYOW;2009-10-30 13:00;CYOW 301300Z 09010KT 2 1/2SM -DZ BR BKN004 OVC030 07/07 A3011 RMK FG1ST6SC1 SLP201

CYOW;2009-10-30 13:44;CYOW 301344Z 12007KT 3SM BR SCT004 OVC031 08/ RMK SF3SC5

CYOW;2009-10-30 14:00;CYOW 301400Z 10007KT 4SM BR FEW004 OVC034 08/08 A3010 RMK SF2SC6 SLP198

CYOW;2009-10-30 15:00;CYOW 301500Z 11007KT 6SM BR OVC026 09/09 A3008 RMK SC8 SLP190

CYOW;2009-10-30 16:00;CYOW 301600Z 10005KT 6SM BR OVC024 10/09 A3007 RMK SC8 SLP186

CYOW;2009-10-30 17:00;CYOW 301700Z 12007KT 12SM OVC029 12/10 A3003 RMK SC8 SLP172

CYOW;2009-10-30 18:00;CYOW 301800Z 15006KT 10SM -RA FEW030 OVC087 12/11 A3000 RMK SC2AC6 SLP161

CYOW;2009-10-30 19:00;CYOW 301900Z 16005KT 8SM -RA OVC070 12/12 A2998 RMK AC8 SLP154

CYOW;2009-10-30 20:00;CYOW 302000Z 15008KT 8SM -RA OVC067 12/12 A2994 RMK AC8 SLP140

CYOW;2009-10-30 21:00;CYOW 302100Z CCA 15008KT 12SM -RA OVC028 12/11 A2992 RMK SC8 SLP136

CYOW;2009-10-30 22:00;CYOW 302200Z 15007KT 10SM -RA FEW030 OVC051 11/11 A2989 RMK SC1SC7 VRY LGT RA SLP126

CYOW;2009-10-30 22:26;CYOW 302226Z 13008KT 12SM OVC048 11/ RMK SC8

CYOW;2009-10-30 23:00;CYOW 302300Z 14008KT 12SM OVC045 11/11 A2986 RMK SC8 SLP114

CYOW;2009-10-31 00:00;CYOW 310000Z 17008KT 12SM OVC042 12/11 A2984 RMK SC8 SLP108

CYOW;2009-10-31 01:00;CYOW 310100Z CCA 18007KT 12SM BKN042 OVC150 12/10 A2982 RMK SC6AC2 SLP102

CYOW;2009-10-31 02:00;CYOW 310200Z 18007KT 12SM OVC040 12/10 A2978 RMK SC8 SLP089

CYOW;2009-10-31 03:00;CYOW 310300Z 17006KT 12SM BKN042 OVC064 12/09 A2976 RMK SC6SC2 SLP079

CYOW;2009-10-31 04:00;CYOW 310400Z 17007KT 12SM FEW044 BKN210 12/09 A2971 RMK SC2CS6 SLP063

CYOW;2009-10-31 05:00;CYOW 310500Z 18005KT 12SM FEW060 SCT210 11/09 A2971 RMK SC2CI2 SLP064

CYOW;2009-10-31 06:00;CYOW 310600Z 16006KT 12SM BKN060 11/09 A2967 RMK SC6 SLP049

CYOW;2009-10-31 07:00;CYOW 310700Z 16006KT 15SM BKN250 11/09 A2963 RMK CS6 SLP037

CYOW;2009-10-31 08:00;CYOW 310800Z 18012KT 15SM FEW200 BKN250 12/09 A2960 RMK CI1CS6 SLP027

CYOW;2009-10-31 09:00;CYOW 310900Z 19010G19KT 15SM SCT200 BKN220 12/09 A2958 RMK CI3CS4 SLP018

CYOW;2009-10-31 10:00;CYOW 311000Z 18011G16KT 15SM FEW070 BKN120 13/10 A2956 RMK AC2AC5 SLP011

CYOW;2009-10-31 10:33;CYOW 311033Z 19012KT 12SM -RA OVC060 13/ RMK SC8

CYOW;2009-10-31 11:00;CYOW 311100Z 19011G16KT 10SM -RA OVC050 12/11 A2955 RMK SC8 SLP008

CYOW;2009-10-31 11:50;CYOW 311150Z 18015G21KT 3SM RA BR SCT050 OVC090 12/ RMK SC3AS5

CYOW;2009-10-31 12:00;CYOW 311200Z 18016G22KT 3SM RA BR BKN040 OVC090 12/11 A2951 RMK SC5AS3 SLP993

CYOW;2009-10-31 13:00;CYOW 311300Z 17017KT 4SM -RA BR BKN010 OVC120 12/12 A2949 RMK SF3AS5 SLP987

CYOW;2009-10-31 13:21;CYOW 311321Z 19012G18KT 4SM -RA BR OVC008 13/ RMK SF8

CYOW;2009-10-31 14:00;CYOW 311400Z 18012G19KT 4SM -RA BR OVC008 13/13 A2948 RMK SF8 SLP985

CYOW;2009-10-31 15:00;CYOW 311500Z 19017G26KT 4SM -RA BR OVC008 14/14 A2945 RERA RMK SF8 SLP974

CYOW;2009-10-31 16:00;CYOW 311600Z 21017G24KT 4SM -RA BR OVC008 14/14 A2947 RMK SF8 SLP980

CYOW;2009-10-31 16:50;CYOW 311650Z 22021G29KT 15SM SCT010 OVC040 14/ RMK SF3SC5

CYOW;2009-10-31 17:00;CYOW 311700Z 22022G30KT 15SM FEW010 OVC044 14/12 A2945 RMK SF2SC6 SLP974

CYOW;2009-10-31 18:00;CYOW 311800Z 22014G21KT 15SM BKN020 OVC085 12/10 A2946 RMK SC6AC2 SLP977

CYOW;2009-10-31 19:00;CYOW 311900Z 23017G24KT 15SM BKN025 OVC120 13/09 A2947 RMK SC6AC2 SLP982

CYOW;2009-10-31 20:00;CYOW 312000Z 23018G31KT 15SM FEW030 SCT120 SCT220 13/08 A2951 RMK SC2AC2CI1 SLP994

CYOW;2009-10-31 21:00;CYOW 312100Z 24015G28KT 15SM BKN030 BKN060 BKN240 13/07 A2955 RMK SC5SC1CI0 SLP009

CYOW;2009-10-31 22:00;CYOW 312200Z 24014G21KT 15SM FEW030 SCT060 12/04 A2960 RMK SC1SC3 SLP025

CYOW;2009-10-31 23:00;CYOW 312300Z 24008KT 15SM SCT040 BKN072 11/04 A2967 RMK SC3AC4 PRESRR SLP047

CYOW;2009-11-01 01:00;CYOW 010100Z 25011KT 15SM BKN045 09/04 A2974 RMK SC6 SLP074

CYOW;2009-11-01 02:00;CYOW 010200Z 24010KT 15SM SCT043 BKN065 08/03 A2978 RMK SC4SC1 SLP086

CYOW;2009-11-01 03:00;CYOW 010300Z 25010KT 15SM FEW045 SCT065 07/03 A2981 RMK SC2SC1 SLP098

CYOW;2009-11-01 04:00;CYOW 010400Z 25006KT 15SM FEW045 FEW065 06/03 A2983 RMK SC1SC2 SLP104

CYOW;2009-11-01 05:00;CYOW 010500Z 25006KT 15SM FEW065 05/03 A2985 RMK SC2 SLP111

CYOW;2009-11-01 06:00;CYOW 010600Z 23005KT 15SM FEW065 05/03 A2987 RMK SC1 SLP118

CYOW;2009-11-01 07:00;CYOW 010700Z 24006KT 15SM FEW070 05/02 A2990 RMK AC1 SLP127

CYOW;2009-11-01 08:00;CYOW 010800Z 24007KT 15SM FEW037 FEW070 05/03 A2991 RMK SC2AC1 SLP133

CYOW;2009-11-01 09:00;CYOW 010900Z 24007KT 15SM SCT035 05/03 A2995 RMK SC4 SLP144

CYOW;2009-11-01 10:00;CYOW 011000Z 25008KT 15SM BKN039 05/03 A2997 RMK SC5 SLP151

CYOW;2009-11-01 11:00;CYOW 011100Z 25007KT 15SM FEW040 04/03 A3000 RMK SC2 SLP161

CYOW;2009-11-01 12:00;CYOW 011200Z 24006KT 15SM FEW040 04/02 A3003 RMK SC2 SLP174

CYOW;2009-11-01 13:00;CYOW 011300Z 26006KT 15SM FEW040 05/02 A3008 RMK SC2 SLP191

CYOW;2009-11-01 14:00;CYOW 011400Z 30010KT 20SM FEW022 FEW050 07/02 A3011 RMK CF2SC1 SLP199

CYOW;2009-11-01 15:00;CYOW 011500Z 29011G16KT 20SM FEW027 07/02 A3012 RMK CF2 SLP204

CYOW;2009-11-01 16:00;CYOW 011600Z 28010KT 20SM SCT030 08/01 A3014 RMK CU3 SLP208

CYOW;2009-11-01 17:00;CYOW 011700Z 29009KT 20SM SCT030 SCT120 09/01 A3014 RMK CU3AC1 SLP211

CYOW;2009-11-01 18:00;CYOW 011800Z 27007KT 20SM SCT030 BKN240 09/01 A3016 RMK CU3CI1 SLP217

CYOW;2009-11-01 19:00;CYOW 011900Z 30010KT 20SM BKN044 BKN240 10/00 A3018 RMK CU5CI2 SLP223

CYOW;2009-11-01 20:00;CYOW 012000Z 29009KT 20SM BKN050 08/M00 A3020 RMK CU6 SLP231

CYOW;2009-11-01 21:00;CYOW 012100Z 30007KT 20SM SCT050 BKN210 08/00 A3023 RMK SC3CI2 SLP240

CYOW;2009-11-01 22:00;CYOW 012200Z 30005KT 15SM FEW050 BKN210 06/00 A3024 RMK SC2CI2 SLP243

CYOW;2009-11-01 23:00;CYOW 012300Z 32004KT 15SM FEW180 BKN210 06/M00 A3025 RMK AC2CI3 SLP247

CYOW;2009-11-02 00:00;CYOW 020000Z 32005KT 15SM SCT170 BKN210 06/00 A3025 RMK AC2CI2 SLP249

CYOW;2009-11-02 01:00;CYOW 020100Z 36003KT 15SM BKN160 BKN210 06/00 A3025 RMK AC4CI2 SLP250

CYOW;2009-11-02 02:00;CYOW 020200Z 01005KT 15SM BKN160 BKN220 05/M00 A3028 RMK AC4CI2 SLP258

CYOW;2009-11-02 03:00;CYOW 020300Z 01004KT 15SM BKN180 04/M00 A3029 RMK AC4 SLP261

CYOW;2009-11-02 04:00;CYOW 020400Z 04005KT 15SM BKN190 05/M00 A3029 RMK AC7 SLP262

CYOW;2009-11-02 05:00;CYOW 020500Z 04006KT 15SM BKN170 04/M00 A3029 RMK AC7 SLP262

CYOW;2009-11-02 06:00;CYOW 020600Z 04005KT 15SM BKN170 04/M00 A3029 RMK AC7 SLP262

CYOW;2009-11-02 07:00;CYOW 020700Z 05006KT 15SM BKN160 03/M00 A3029 RMK AC6 SLP262

CYOW;2009-11-02 07:34;CYOW 020734Z 05007KT 15SM SCT160 02/ RMK AC4

CYOW;2009-11-02 08:00;CYOW 020800Z 05007KT 15SM FEW160 02/M00 A3028 RMK AC2 SLP258

CYOW;2009-11-02 09:00;CYOW 020900Z 05006KT 15SM FEW160 01/M01 A3029 RMK AC1 SLP261

CYOW;2009-11-02 10:00;CYOW 021000Z 06008KT 15SM FEW150 01/M01 A3030 RMK AC2 SLP264

CYOW;2009-11-02 11:00;CYOW 021100Z 07008KT 15SM SCT140 BKN180 01/M01 A3030 RMK AC4AC1 SLP264

CYOW;2009-11-02 12:00;CYOW 021200Z 07008KT 15SM FEW150 BKN190 01/M01 A3030 RMK AC2AC5 SLP266

CYOW;2009-11-02 13:00;CYOW 021300Z 08008KT 15SM BKN130 01/M01 A3031 RMK AC6 SLP269

CYOW;2009-11-02 14:00;CYOW 021400Z 09008KT 15SM FEW130 SCT170 03/M01 A3031 RMK AC2AC2 SLP267

CYOW;2009-11-02 15:00;CYOW 021500Z 12006KT 15SM FEW170 05/00 A3028 RMK AC2 SLP260

CYOW;2009-11-02 16:00;CYOW 021600Z 11005KT 15SM FEW170 FEW240 07/01 A3025 RMK AC1CI1 SLP249

CYOW;2009-11-02 17:00;CYOW 021700Z 10006KT 15SM FEW170 SCT240 09/01 A3022 RMK AC1CI2 SLP238

CYOW;2009-11-02 18:00;CYOW 021800Z 11005KT 15SM FEW030 SCT240 10/01 A3019 RMK CF1CI1 SLP227

CYOW;2009-11-02 19:00;CYOW 021900Z 18005KT 15SM FEW040 BKN240 10/00 A3017 RMK CU2CI2 SLP221

CYOW;2009-11-02 20:00;CYOW 022000Z 14006KT 15SM FEW040 BKN240 10/01 A3015 RMK CU2CI2 SLP215

CYOW;2009-11-02 21:00;CYOW 022100Z 14004KT 15SM FEW040 BKN240 10/01 A3014 RMK CU1CI2 SLP209

CYOW;2009-11-02 22:00;CYOW 022200Z 10005KT 15SM FEW120 BKN240 06/00 A3012 RMK AC1CI2 SLP203

CYOW;2009-11-02 23:00;CYOW 022300Z 10005KT 15SM BKN240 05/00 A3011 RMK CI2 SLP200

CYOW;2009-11-03 00:00;CYOW 030000Z 11006KT 15SM FEW210 BKN240 05/01 A3009 RMK CI2CI2 SLP196

CYOW;2009-11-03 01:00;CYOW 030100Z 13007KT 15SM BKN120 05/01 A3008 RMK AC6 SLP192

CYOW;2009-11-03 02:00;CYOW 030200Z 14004KT 15SM BKN051 05/01 A3006 RMK SC7 SLP185

CYOW;2009-11-03 03:00;CYOW 030300Z 14004KT 15SM BKN050 OVC055 05/01 A3003 RMK SC6SC2 SLP175

CYOW;2009-11-03 03:40;CYOW 030340Z 14004KT 10SM -RA BKN050 OVC067 05/ RMK SC6AC2

CYOW;2009-11-03 04:00;CYOW 030400Z 15002KT 10SM -RA BKN046 OVC055 05/02 A3001 RMK SC5SC3 SLP167

CYOW;2009-11-03 05:00;CYOW 030500Z 22002KT 10SM -RA OVC046 05/02 A3000 RMK SC8 SLP164

CYOW;2009-11-03 05:44;CYOW 030544Z 08003KT 12SM OVC045 05/ RMK SC8

CYOW;2009-11-03 06:00;CYOW 030600Z 09002KT 12SM OVC042 04/04 A2998 RMK SC8 SLP155

CYOW;2009-11-03 07:00;CYOW 030700Z 16003KT 15SM OVC036 05/04 A2996 RMK SC8 SLP149

CYOW;2009-11-03 08:00;CYOW 030800Z 16004KT 15SM OVC047 05/04 A2994 RMK SC8 SLP141

CYOW;2009-11-03 09:00;CYOW 030900Z 17004KT 15SM OVC036 05/04 A2992 RMK SC8 SLP134

CYOW;2009-11-03 10:00;CYOW 031000Z 22004KT 15SM OVC030 06/05 A2991 RMK SC8 SLP131

CYOW;2009-11-03 11:00;CYOW 031100Z 21004KT 15SM BKN030 OVC035 06/05 A2991 RMK SC6SC2 SLP131

CYOW;2009-11-03 11:31;CYOW 031131Z 22005KT 12SM -RA OVC038 07/ RMK SC8

CYOW;2009-11-03 12:00;CYOW 031200Z 23006KT 12SM -RA OVC032 07/06 A2991 RMK SC8 SLP132

CYOW;2009-11-03 13:00;CYOW 031300Z 25007KT 10SM -RA OVC033 07/06 A2992 RMK SC8 SLP137

CYOW;2009-11-03 14:00;CYOW 031400Z 28009KT 15SM -RA BKN036 07/06 A2993 RMK SC7 VRY LGT RA SLP138

CYOW;2009-11-03 14:24;CYOW 031424Z 28011KT 15SM FEW020 BKN035 07/ RMK CU1SC4

CYOW;2009-11-03 15:00;CYOW 031500Z 29015KT 15SM BKN018 BKN080 07/05 A2994 RMK SC5AC2 CU ASOCT SLP141

CYOW;2009-11-03 16:00;CYOW 031600Z 29013G20KT 15SM BKN020 BKN080 08/02 A2995 RMK SC5AC1 CU ASOCT SLP146

CYOW;2009-11-03 16:24;CYOW 031624Z 28015G20KT 15SM -SHRA BKN022 BKN080 08/ RMK SC6AC1 CU ASOCT

CYOW;2009-11-03 16:35;CYOW 031635Z 28014G22KT 15SM FEW025 BKN047 07/ RMK CU1SC5

CYOW;2009-11-03 17:00;CYOW 031700Z 29016G22KT 15SM SCT030 BKN047 08/02 A2995 RMK CU3SC3 SLP147

CYOW;2009-11-03 18:00;CYOW 031800Z 31011G17KT 15SM SCT030 BKN045 08/01 A2996 RMK CU3SC2 SLP151

CYOW;2009-11-03 19:00;CYOW 031900Z 29012G18KT 15SM FEW030 SCT060 07/M01 A2998 RMK CU2SC1 SLP155

CYOW;2009-11-03 20:00;CYOW 032000Z 29013G18KT 15SM SCT030 08/M02 A2999 RMK CU3 SLP160

CYOW;2009-11-03 21:00;CYOW 032100Z 29014KT 15SM FEW030 SCT080 07/M03 A3001 RMK CU2AC2 SLP167

CYOW;2009-11-03 22:00;CYOW 032200Z 31014KT 15SM FEW030 SCT080 06/M03 A3003 RMK CU2AC2 SLP174

CYOW;2009-11-03 23:00;CYOW 032300Z 33009KT 15SM FEW045 SCT075 BKN085 05/M00 A3006 RMK SC2AC2AC2 SLP184

CYOW;2009-11-04 00:00;CYOW 040000Z 31013KT 15SM FEW042 SCT060 04/M01 A3009 RMK SC2SC2 SLP193

CYOW;2009-11-04 01:00;CYOW 040100Z 30009KT 15SM BKN060 04/M00 A3011 RMK SC7 SLP200

CYOW;2009-11-04 02:00;CYOW 040200Z 29011KT 15SM FEW025 FEW220 02/00 A3013 RMK SC2CI0 SLP207

CYOW;2009-11-04 03:00;CYOW 040300Z 29008KT 15SM FEW025 02/M00 A3014 RMK SC2 SLP211

CYOW;2009-11-04 04:00;CYOW 040400Z 31009KT 15SM FEW047 01/M03 A3015 RMK SC2 SLP215

CYOW;2009-11-04 05:00;CYOW 040500Z 30008KT 15SM FEW050 00/M04 A3018 RMK SC1 SLP223

CYOW;2009-11-04 06:00;CYOW 040600Z 31006KT 15SM SKC M00/M04 A3019 RMK SLP228

CYOW;2009-11-04 07:00;CYOW 040700Z 27007KT 15SM SKC M00/M04 A3021 RMK FROIN SLP236

CYOW;2009-11-04 08:00;CYOW 040800Z 27006KT 15SM SKC M01/M03 A3023 RMK FROIN SLP243

CYOW;2009-11-04 09:00;CYOW 040900Z 24005KT 15SM SKC M02/M03 A3025 RMK FROIN SLP247

CYOW;2009-11-04 10:00;CYOW 041000Z 27006KT 15SM SKC M02/M03 A3026 RMK FROIN SLP253

CYOW;2009-11-04 11:00;CYOW 041100Z 27004KT 15SM SKC M02/M03 A3026 RMK FROIN SLP252

CYOW;2009-11-04 12:00;CYOW 041200Z CCA 23004KT 15SM FEW030 M02/M04 A3027 RMK SC1 FROIN SLP257

CYOW;2009-11-04 13:00;CYOW 041300Z 25005KT 15SM FEW030 M01/M03 A3028 RMK SC1 SLP261

CYOW;2009-11-04 14:00;CYOW 041400Z 28004KT 15SM FEW030 FEW250 01/M02 A3030 RMK SC1CI0 SLP266

CYOW;2009-11-04 15:00;CYOW 041500Z 29004KT 15SM FEW030 SCT250 02/M03 A3029 RMK SC1CI0 SLP264

CYOW;2009-11-04 16:00;CYOW 041600Z 33010G15KT 15SM SCT035 BKN240 03/M05 A3029 RMK SC4CI0 SLP263

CYOW;2009-11-04 17:00;CYOW 041700Z 28007KT 15SM BKN041 03/M06 A3028 RMK SC7 SLP261

CYOW;2009-11-04 18:00;CYOW 041800Z 28007KT 15SM OVC041 03/M05 A3028 RMK SC8 SLP259

CYOW;2009-11-04 19:00;CYOW 041900Z 29004KT 15SM SCT040 BKN110 03/M06 A3027 RMK SC3AC2 SLP256

CYOW;2009-11-04 20:00;CYOW 042000Z 28003KT 15SM SCT040 BKN110 03/M06 A3025 RMK SC3AC2 SLP251

CYOW;2009-11-04 21:00;CYOW 042100Z 00000KT 15SM SCT040 BKN100 03/M06 A3025 RMK SC3AC3 SLP248

CYOW;2009-11-04 22:00;CYOW 042200Z 17002KT 15SM FEW040 SCT100 BKN130 02/M05 A3025 RMK SC2AC2AC2 SLP248

CYOW;2009-11-04 23:00;CYOW 042300Z 16003KT 15SM SCT065 SCT110 02/M05 A3025 RMK SC3AC1 SLP250

CYOW;2009-11-05 00:00;CYOW 050000Z 15003KT 15SM SCT080 OVC100 01/M05 A3025 RMK AC3AC3 SLP250

CYOW;2009-11-05 01:00;CYOW 050100Z 14004KT 15SM SCT075 OVC100 00/M04 A3025 RMK AC4AC2 SLP249

CYOW;2009-11-05 02:00;CYOW 050200Z 15005KT 15SM OVC070 01/M04 A3025 RMK AS8 MOON VISBL SLP250

CYOW;2009-11-05 03:00;CYOW 050300Z 16004KT 15SM OVC070 01/M04 A3024 RMK AS3 SLP247

CYOW;2009-11-05 04:00;CYOW 050400Z 15002KT 15SM FEW070 M01/M05 A3024 RMK AC2 SLP245

CYOW;2009-11-05 05:00;CYOW 050500Z 17003KT 15SM FEW070 M00/M04 A3024 RMK AC1 SLP245

CYOW;2009-11-05 06:00;CYOW 050600Z 16003KT 15SM OVC080 M02/M04 A3023 RMK AC8 MOON VISBL SLP242

CYOW;2009-11-05 07:00;CYOW 050700Z 14004KT 15SM OVC076 M01/M03 A3022 RMK AC8 MOON VISBL SLP238

CYOW;2009-11-05 08:00;CYOW 050800Z 15005KT 15SM OVC074 M01/M03 A3020 RMK AC8 SLP233

CYOW;2009-11-05 09:00;CYOW 050900Z 14005KT 15SM SCT068 M01/M04 A3019 RMK AC4 SLP229

CYOW;2009-11-05 10:00;CYOW 051000Z 14005KT 15SM BKN100 M01/M03 A3017 RMK AC7 SLP224

CYOW;2009-11-05 11:00;CYOW 051100Z 13005KT 15SM BKN100 M01/M03 A3016 RMK AC7 SLP218

CYOW;2009-11-05 12:00;CYOW 051200Z 12006KT 15SM FEW060 BKN100 M00/M03 A3014 RMK SC1AC6 SLP214

CYOW;2009-11-05 13:00;CYOW 051300Z 11006KT 15SM FEW075 BKN100 00/M02 A3013 RMK AC1AC6 SLP209

CYOW;2009-11-05 14:00;CYOW 051400Z 11005KT 15SM SCT055 BKN075 01/M02 A3012 RMK SC3AC4 SLP206

CYOW;2009-11-05 15:00;CYOW 051500Z 12006KT 15SM SCT042 OVC051 03/M02 A3010 RMK SC3SC5 SLP198

CYOW;2009-11-05 16:00;CYOW 051600Z 14008KT 15SM FEW030 OVC040 03/M01 A3007 RMK SC2SC6 SLP188

CYOW;2009-11-05 17:00;CYOW 051700Z 10008KT 15SM FEW026 OVC036 03/M01 A3003 RMK SC2SC6 SLP176

CYOW;2009-11-05 17:23;CYOW 051723Z 10007KT 10SM -RASN BKN022 OVC035 03/ RMK SC6SC2

CYOW;2009-11-05 18:00;CYOW 051800Z 08010KT 10SM -RASN BKN021 OVC033 03/01 A3000 RMK SC6SC2 SLP164

CYOW;2009-11-05 18:47;CYOW 051847Z 11006KT 12SM SCT024 OVC048 04/ RMK SC3SC5

CYOW;2009-11-05 19:00;CYOW 051900Z 09007KT 15SM FEW025 BKN035 OVC050 04/M00 A2997 RMK SC2SC2SC3 SLP156

CYOW;2009-11-05 20:00;CYOW 052000Z 09010KT 15SM BKN030 OVC050 04/M01 A2996 RMK SC6SC2 VIRGA SLP150

CYOW;2009-11-05 20:08;CYOW 052008Z 10009KT 15SM -RA BKN030 OVC050 04/ RMK SC6SC2

CYOW;2009-11-05 21:00;CYOW 052100Z 14007KT 8SM -RA OVC022 03/01 A2996 RMK SC8 SLP150

CYOW;2009-11-05 21:46;CYOW 052146Z 14006KT 8SM -RA OVC013 02/ RMK SC8

CYOW;2009-11-05 22:00;CYOW 052200Z 15006KT 8SM -RA OVC012 02/01 A2996 RMK SC8 SLP152

CYOW;2009-11-05 22:14;CYOW 052214Z 15005KT 4SM -RASN BR FEW004 OVC010 01/ RMK SF2SC6

CYOW;2009-11-05 22:21;CYOW 052221Z 15005KT 1 1/2SM -SN BR OVC004 01/ RMK SN4SF4

CYOW;2009-11-05 23:00;CYOW 052300Z 09002KT 1 1/4SM -SN BR OVC004 00/00 A2997 RMK SN4SF4 SLP153

CYOW;2009-11-05 23:39;CYOW 052339Z CCA 00000KT 3SM -SN BR OVC003 00/ RMK ST8

CYOW;2009-11-06 00:00;CYOW 060000Z 07003KT 4SM -SN BR OVC003 00/00 A2997 RMK SF8 /S01/ SLP155

CYOW;2009-11-06 01:00;CYOW 060100Z 02005KT 3SM -SN BR OVC003 00/00 A2998 RMK SF8 CIG VRB 2-4 SLP158

CYOW;2009-11-06 01:43;CYOW 060143Z CCA 35004KT 1 1/4SM -SN BR OVC003 00/ RMK SN1SF7 CIG VRB 2-4

CYOW;2009-11-06 02:00;CYOW 060200Z 36003KT 1 1/4SM -SN BR OVC004 00/00 A2999 RMK SN1ST7 SLP162

CYOW;2009-11-06 02:20;CYOW 060220Z 33005KT 2SM -SN BR OVC003 00/ RMK ST8

CYOW;2009-11-06 02:49;CYOW 060249Z 35006KT 4SM -SN BR OVC005 01/ RMK SC8

CYOW;2009-11-06 03:00;CYOW 060300Z 35005KT 4SM -SN BR OVC004 01/01 A3002 RMK SC8 VRY LGT SN SLP170

CYOW;2009-11-06 04:00;CYOW 060400Z 34008KT 4SM -SN BR OVC005 01/01 A3003 RMK SC8 VRY LGT SN SLP176

CYOW;2009-11-06 04:16;CYOW 060416Z 34007KT 8SM -SN SCT006 OVC018 01/ RMK SC3SC5

CYOW;2009-11-06 05:00;CYOW 060500Z 35008KT 8SM FEW008 OVC028 01/01 A3005 RMK SC2SC6 SLP180

CYOW;2009-11-06 06:00;CYOW 060600Z 33008KT 15SM FEW007 OVC032 01/01 A3008 RMK SC2SC6 SLP190

CYOW;2009-11-06 06:34;CYOW 060634Z 32007KT 15SM FEW007 BKN012 OVC035 01/ RMK SC1SC6SC2

CYOW;2009-11-06 07:00;CYOW 060700Z 32009KT 15SM FEW008 OVC012 01/01 A3011 RMK SC1SC7 SLP201

CYOW;2009-11-06 08:00;CYOW 060800Z 32011KT 15SM FEW010 OVC016 01/00 A3014 RMK SC2SC6 SLP213

CYOW;2009-11-06 08:17;CYOW 060817Z 33011KT 10SM -SHSN SCT010 OVC016 01/ RMK SC3SC5

CYOW;2009-11-06 09:00;CYOW 060900Z 33012KT 15SM -SHSN FEW011 OVC016 01/M00 A3017 RMK SC2SC6 SLP221

CYOW;2009-11-06 09:20;CYOW 060920Z 32011KT 15SM FEW011 OVC016 01/ RMK SC1SC7

CYOW;2009-11-06 10:00;CYOW 061000Z 32011KT 15SM FEW013 OVC021 01/M01 A3021 RMK SC2SC6 SLP234

CYOW;2009-11-06 11:00;CYOW 061100Z 32013KT 15SM FEW014 OVC033 00/M01 A3024 RMK SC2SC6 SLP245

CYOW;2009-11-06 11:08;CYOW 061108Z 32014KT 15SM -SHSN FEW014 OVC036 00/ RMK SC2SC6

CYOW;2009-11-06 12:00;CYOW 061200Z 32013KT 12SM FEW017 OVC040 00/M02 A3027 RMK SC2SC6 SLP256

CYOW;2009-11-06 13:00;CYOW 061300Z 32013KT 15SM -SHSN BKN020 M00/M02 A3029 RMK CU6 SLP263

CYOW;2009-11-06 13:33;CYOW 061333Z 32011KT 15SM BKN020 M00/ RMK SC7 CU ASOCTD

CYOW;2009-11-06 14:00;CYOW 061400Z 31012KT 15SM OVC022 00/M03 A3030 RMK SC8 SLP267

CYOW;2009-11-06 15:00;CYOW 061500Z 32012KT 15SM OVC022 M00/M03 A3031 RMK SC8 SLP270

CYOW;2009-11-06 16:00;CYOW 061600Z 34011KT 15SM OVC020 00/M03 A3032 RMK SC8 SLP272

CYOW;2009-11-06 17:00;CYOW 061700Z 30010KT 15SM OVC021 M00/M04 A3032 RMK SC8 SLP272

CYOW;2009-11-06 18:00;CYOW 061800Z 30009KT 15SM OVC020 00/M04 A3031 RMK SC8 SLP270

CYOW;2009-11-06 19:00;CYOW 061900Z 28007KT 15SM OVC021 M01/M04 A3031 RMK SC8 SLP270

CYOW;2009-11-06 20:00;CYOW 062000Z 30006KT 15SM OVC018 M01/M04 A3030 RMK SC8 SLP266

CYOW;2009-11-06 21:00;CYOW 062100Z 26009KT 15SM OVC018 M01/M04 A3031 RMK SC8 SLP268

CYOW;2009-11-06 22:00;CYOW 062200Z 26008KT 15SM OVC021 M01/M05 A3030 RMK SC8 SLP265

CYOW;2009-11-06 23:00;CYOW 062300Z 26007KT 15SM OVC022 M01/M05 A3031 RMK SC8 SLP268

CYOW;2009-11-07 00:00;CYOW 070000Z 27005KT 15SM OVC021 M02/M06 A3030 RMK SC8 SLP266

CYOW;2009-11-07 01:00;CYOW 070100Z 22002KT 15SM FEW020 M02/M06 A3029 RMK SC1 SLP264

CYOW;2009-11-07 02:00;CYOW 070200Z 17002KT 15SM FEW018 FEW100 M03/M06 A3028 RMK SC1AC1 SLP262

CYOW;2009-11-07 03:00;CYOW 070300Z 16002KT 15SM FEW100 M03/M06 A3027 RMK AC1 SLP256

CYOW;2009-11-07 04:00;CYOW 070400Z 26011G17KT 12SM SCT016 OVC025 08/07 A2992 RMK SC3SC5 SLP139

CYOW;2009-11-07 05:00;CYOW 070500Z 13003KT 15SM FEW200 M05/M07 A3025 RMK CI1 SLP251

CYOW;2009-11-07 06:00;CYOW 070600Z 14005KT 15SM FEW210 M06/M07 A3024 RMK CI0 SLP247

CYOW;2009-11-07 07:00;CYOW 070700Z 13006KT 15SM OVC088 M05/M06 A3022 RMK AC8 SLP239

CYOW;2009-11-07 08:00;CYOW 070800Z 13005KT 15SM SCT100 BKN220 M04/M05 A3021 RMK AC3CI0 SLP238

CYOW;2009-11-07 09:00;CYOW 070900Z 12005KT 15SM FEW100 BKN110 M04/M05 A3019 RMK AC2AC5 SLP231

CYOW;2009-11-07 10:00;CYOW 071000Z 14003KT 15SM BKN080 OVC110 M03/M04 A3017 RMK AC6AC2 MOON VISBL SLP223

CYOW;2009-11-07 11:00;CYOW 071100Z 13005KT 15SM FEW020 BKN082 M02/M03 A3014 RMK SC1AC6 SLP215

CYOW;2009-11-07 12:00;CYOW 071200Z 13004KT 15SM BKN068 M01/M02 A3013 RMK AC7 SLP210

CYOW;2009-11-07 13:00;CYOW 071300Z 11006KT 15SM OVC067 M01/M02 A3011 RMK AC8 SLP201

CYOW;2009-11-07 14:00;CYOW 071400Z 11006KT 15SM OVC066 M00/M01 A3009 RMK AC8 SLP197

CYOW;2009-11-07 15:00;CYOW 071500Z 11008KT 15SM BKN064 01/M01 A3006 RMK SC7 SLP185

CYOW;2009-11-07 16:00;CYOW 071600Z 14007KT 15SM FEW060 SCT240 04/M01 A3003 RMK SC2CI1 SLP176

CYOW;2009-11-07 17:00;CYOW 071700Z CCA 14009KT 15SM FEW060 SCT240 06/M01 A2997 RMK SC1CI2 PRESFR SLP156

CYOW;2009-11-07 18:00;CYOW 071800Z 16009KT 15SM SCT240 08/M01 A2992 RMK CI2 PRESFR SLP136

CYOW;2009-11-07 19:00;CYOW 071900Z 17008KT 15SM BKN240 10/M02 A2989 RMK CI3 SLP126

CYOW;2009-11-07 20:00;CYOW 072000Z 14010KT 15SM BKN240 11/M01 A2986 RMK CI2 SLP116

CYOW;2009-11-07 21:00;CYOW 072100Z 16007KT 15SM FEW170 BKN240 09/M01 A2985 RMK AC2CI2 SLP111

CYOW;2009-11-07 22:00;CYOW 072200Z 13006KT 15SM SCT170 BKN240 06/M01 A2984 RMK AC3CI1 SLP108

CYOW;2009-11-07 23:00;CYOW 072300Z 09005KT 15SM SCT072 06/00 A2983 RMK AC4 SLP107

CYOW;2009-11-08 00:00;CYOW 080000Z 08004KT 15SM BKN080 OVC160 06/01 A2985 RMK AC6AC2 SLP112

CYOW;2009-11-08 01:00;CYOW 080100Z 13003KT 15SM FEW046 OVC075 06/01 A2985 RMK SC2AC6 SLP113

CYOW;2009-11-08 02:00;CYOW 080200Z 22003KT 15SM FEW045 OVC061 10/02 A2984 RMK SC2SC6 SLP110

CYOW;2009-11-08 03:00;CYOW 080300Z 21007KT 15SM OVC060 11/02 A2984 RMK SC8 SLP110

CYOW;2009-11-08 04:00;CYOW 080400Z 22006KT 15SM BKN060 10/03 A2985 RMK SC7 SLP112

CYOW;2009-11-08 05:00;CYOW 080500Z 21006KT 15SM FEW040 BKN065 10/04 A2985 RMK SC2SC5 SLP114

CYOW;2009-11-08 06:00;CYOW 080600Z 22007KT 15SM OVC055 11/05 A2987 RMK SC8 SLP119

CYOW;2009-11-08 07:00;CYOW 080700Z 23009KT 15SM OVC046 11/06 A2991 RMK SC8 SLP130

CYOW;2009-11-08 08:00;CYOW 080800Z 25006KT 15SM BKN036 11/06 A2994 RMK SC7 SLP141

CYOW;2009-11-08 09:00;CYOW 080900Z 27007KT 15SM BKN034 BKN190 10/06 A2997 RMK SC6AC1 SLP151

CYOW;2009-11-08 10:00;CYOW 081000Z 25003KT 15SM SCT035 SCT190 08/06 A3001 RMK SC3AC1 SLP164

CYOW;2009-11-08 11:00;CYOW 081100Z 23005KT 15SM FEW190 07/05 A3005 RMK AC1 SLP178

CYOW;2009-11-08 12:00;CYOW 081200Z 23005KT 12SM SKC 06/05 A3010 RMK SLP198

CYOW;2009-11-08 13:00;CYOW 081300Z 23004KT 12SM SKC 06/05 A3014 RMK SLP212

CYOW;2009-11-08 14:00;CYOW 081400Z 24006KT 15SM SKC 09/06 A3017 RMK SLP221

CYOW;2009-11-08 15:00;CYOW 081500Z 27008KT 15SM SKC 10/05 A3019 RMK SLP227

CYOW;2009-11-08 16:00;CYOW 081600Z 24006KT 15SM SKC 12/04 A3020 RMK SLP231

CYOW;2009-11-08 17:00;CYOW 081700Z 25007KT 15SM SKC 13/03 A3020 RMK SLP231

CYOW;2009-11-08 18:00;CYOW 081800Z 27008KT 15SM SKC 15/01 A3020 RMK SLP230

CYOW;2009-11-08 19:00;CYOW 081900Z 29008KT 15SM SKC 16/M01 A3020 RMK SLP230

CYOW;2009-11-08 20:00;CYOW 082000Z 29011KT 15SM SKC 15/M02 A3022 RMK SLP235

CYOW;2009-11-08 21:00;CYOW 082100Z 29006KT 15SM FEW240 14/M01 A3023 RMK CI1 SLP241

CYOW;2009-11-08 22:00;CYOW 082200Z 30004KT 15SM FEW240 12/M02 A3026 RMK CI1 SLP249

CYOW;2009-11-08 23:00;CYOW 082300Z 14002KT 15SM FEW240 11/M02 A3027 RMK CI1 SLP254

CYOW;2009-11-09 00:00;CYOW 090000Z 19005KT 15SM FEW240 12/M01 A3029 RMK CI1 SLP261

CYOW;2009-11-09 01:00;CYOW 090100Z 19004KT 15SM FEW170 09/01 A3029 RMK AC1 SLP262

CYOW;2009-11-09 02:00;CYOW 090200Z 20004KT 15SM BKN160 08/01 A3029 RMK AC5 SLP262

CYOW;2009-11-09 03:00;CYOW 090300Z 19004KT 15SM BKN170 08/01 A3029 RMK AC6 SLP261

CYOW;2009-11-09 04:00;CYOW 090400Z 18004KT 15SM BKN170 07/01 A3029 RMK AC6 SLP261

CYOW;2009-11-09 05:00;CYOW 090500Z 18004KT 15SM BKN160 06/02 A3028 RMK AC6 SLP256

CYOW;2009-11-09 06:00;CYOW 090600Z 18004KT 15SM BKN160 06/03 A3026 RMK AC7 SLP249

CYOW;2009-11-09 07:00;CYOW 090700Z 08004KT 15SM BKN170 04/03 A3025 RMK AC6 SLP248

CYOW;2009-11-09 08:00;CYOW 090800Z 08004KT 15SM BKN170 04/02 A3025 RMK AC5 SLP247

CYOW;2009-11-09 09:00;CYOW 090900Z 05006KT 15SM SCT150 03/02 A3024 RMK AC3 SLP244

CYOW;2009-11-09 10:00;CYOW 091000Z 07003KT 15SM SCT150 03/02 A3023 RMK AC3 SLP241

CYOW;2009-11-09 11:00;CYOW 091100Z 07004KT 15SM SCT060 SCT150 04/02 A3021 RMK SC3AC1 SLP233

CYOW;2009-11-09 12:00;CYOW 091200Z 07005KT 12SM BKN067 BKN240 04/02 A3020 RMK AC6CI1 SLP230

CYOW;2009-11-09 13:00;CYOW 091300Z 12004KT 12SM BKN060 06/02 A3018 RMK SC6 SLP225

CYOW;2009-11-09 14:00;CYOW 091400Z 20006KT 12SM SCT060 OVC240 08/03 A3016 RMK SC3CI3 SLP217

CYOW;2009-11-09 15:00;CYOW 091500Z 19005KT 12SM OVC240 11/06 A3012 RMK CI3 SLP203

CYOW;2009-11-09 16:00;CYOW 091600Z 23010KT 12SM OVC240 14/08 A3010 RMK CS2 FAINT HALO SLP197

CYOW;2009-11-09 17:00;CYOW 091700Z 21014KT 12SM OVC190 17/09 A3005 RMK AS8 SLP178

CYOW;2009-11-09 18:00;CYOW 091800Z 22011G18KT 12SM OVC180 17/09 A3005 RMK AS5 SLP177

CYOW;2009-11-09 19:00;CYOW 091900Z 20010G16KT 12SM OVC180 17/10 A3004 RMK AS6 SLP176

CYOW;2009-11-09 20:00;CYOW 092000Z 20008KT 12SM BKN210 17/10 A3004 RMK CI6 SLP174

CYOW;2009-11-09 21:00;CYOW 092100Z 21011KT 12SM SCT050 OVC190 17/10 A3004 RMK SC3AS5 SLP176

CYOW;2009-11-09 22:00;CYOW 092200Z 22011G18KT 12SM SCT050 OVC180 17/09 A3006 RMK SC3AS5 SLP183

CYOW;2009-11-09 23:00;CYOW 092300Z 23010KT 12SM FEW060 OVC170 16/10 A3009 RMK SC2AS6 SLP193

CYOW;2009-11-10 00:00;CYOW 100000Z 23008KT 12SM FEW060 BKN160 OVC170 15/10 A3012 RMK SC1AS5AS2 SLP202

CYOW;2009-11-10 02:00;CYOW 100200Z 27009KT 12SM BKN180 OVC200 14/10 A3015 RMK AC6CI2 SLP213

CYOW;2009-11-10 03:00;CYOW 100300Z 29012G18KT 12SM BKN180 BKN190 14/09 A3017 RMK AS6AS1 SLP219

CYOW;2009-11-10 04:00;CYOW 100400Z 28014KT 15SM BKN170 BKN180 13/09 A3019 RMK AS5AS2 SLP225

CYOW;2009-11-10 05:00;CYOW 100500Z 30014KT 15SM FEW180 FEW200 10/05 A3023 RMK AS2CI1 SLP240

CYOW;2009-11-10 06:00;CYOW 100600Z 30009KT 15SM FEW210 08/04 A3025 RMK CI1 SLP248

CYOW;2009-11-10 07:00;CYOW 100700Z 26005KT 15SM FEW210 06/03 A3029 RMK CI1 SLP260

CYOW;2009-11-10 08:00;CYOW 100800Z 29006KT 15SM FEW210 05/03 A3030 RMK CI1 SLP263

CYOW;2009-11-10 09:00;CYOW 100900Z 24002KT 15SM FEW180 05/03 A3032 RMK AC2 SLP270

CYOW;2009-11-10 10:00;CYOW 101000Z 28006KT 15SM FEW180 04/03 A3033 RMK AC2 SLP274

CYOW;2009-11-10 11:00;CYOW 101100Z 27006KT 15SM FEW180 04/03 A3035 RMK AC2 SLP279

CYOW;2009-11-10 12:00;CYOW 101200Z 29005KT 15SM FEW180 03/02 A3036 RMK AC1 SLP284

CYOW;2009-11-10 13:00;CYOW 101300Z 29005KT 15SM FEW070 FEW180 04/03 A3036 RMK AC1AC1 SLP286

CYOW;2009-11-10 14:00;CYOW 101400Z 22003KT 15SM FEW100 FEW180 07/04 A3037 RMK AC1AC1 SLP289

CYOW;2009-11-10 15:00;CYOW 101500Z 30007KT 15SM FEW180 FEW240 08/04 A3038 RMK AC1CI1 SLP291

CYOW;2009-11-10 16:00;CYOW 101600Z 27007KT 15SM FEW180 FEW210 09/04 A3037 RMK AC1CI0 SLP289

CYOW;2009-11-10 17:00;CYOW 101700Z 28007KT 15SM FEW025 FEW180 FEW210 11/04 A3036 RMK CU1AC1CI0 SLP284

CYOW;2009-11-10 18:00;CYOW 101800Z 29011KT 15SM FEW025 FEW180 12/04 A3035 RMK CU1AC1 SLP281

CYOW;2009-11-10 19:00;CYOW 101900Z 30011KT 15SM FEW025 FEW180 SCT210 11/02 A3034 RMK CU1AC1CI0 SLP279

CYOW;2009-11-10 20:00;CYOW 102000Z 29009KT 15SM FEW025 FEW180 BKN250 11/02 A3035 RMK CU1AC1CI0 SLP281

CYOW;2009-11-10 21:00;CYOW 102100Z 27007KT 15SM FEW180 BKN250 10/00 A3036 RMK AC1CI0 SLP283

CYOW;2009-11-10 22:00;CYOW 102200Z 28006KT 15SM SCT250 08/01 A3037 RMK CI0 SLP287

CYOW;2009-11-10 23:00;CYOW 102300Z 29006KT 15SM FEW250 07/00 A3038 RMK CI1 SLP291

CYOW;2009-11-11 00:00;CYOW 110000Z 29006KT 15SM FEW200 06/M00 A3039 RMK CI1 SLP296

CYOW;2009-11-11 01:00;CYOW 110100Z 30004KT 15SM SKC 06/M00 A3041 RMK SLP303

CYOW;2009-11-11 02:00;CYOW 110200Z 36007KT 15SM SKC 05/M02 A3044 RMK SLP311

CYOW;2009-11-11 03:00;CYOW 110300Z 35009KT 15SM SKC 05/M00 A3045 RMK SLP317

CYOW;2009-11-11 04:00;CYOW 110400Z 34005KT 15SM SKC 02/M01 A3047 RMK SLP321

CYOW;2009-11-11 05:00;CYOW 110500Z 32002KT 15SM SKC 03/M00 A3048 RMK SLP326

CYOW;2009-11-11 05:34;CYOW 110534Z 29004KT 15SM SKC 02/

CYOW;2009-11-11 06:00;CYOW 110600Z 33005KT 15SM SKC M00/M02 A3048 RMK SLP327

CYOW;2009-11-11 07:00;CYOW 110700Z 32005KT 15SM SKC 01/M01 A3049 RMK SLP329

CYOW;2009-11-11 08:00;CYOW 110800Z 32007KT 15SM SKC M01/M02 A3049 RMK SLP329

CYOW;2009-11-11 09:00;CYOW 110900Z 34006KT 15SM SKC M01/M02 A3049 RMK SLP331

CYOW;2009-11-11 10:00;CYOW 111000Z 33005KT 15SM SKC 00/M01 A3051 RMK SLP337

CYOW;2009-11-11 11:00;CYOW 111100Z 36005KT 15SM FEW180 M01/M01 A3053 RMK AC1 SLP344

CYOW;2009-11-11 12:00;CYOW 111200Z 32004KT 15SM FEW180 M01/M02 A3054 RMK AC1 SLP347

CYOW;2009-11-11 13:00;CYOW 111300Z 36004KT 15SM FEW180 01/M00 A3055 RMK AC1 SLP350

CYOW;2009-11-11 14:00;CYOW 111400Z 04005KT 15SM FEW180 03/01 A3055 RMK AC1 SLP350

CYOW;2009-11-11 15:00;CYOW 111500Z 02005KT 15SM FEW180 04/00 A3056 RMK AC1 SLP352

CYOW;2009-11-11 16:00;CYOW 111600Z 09004KT 15SM FEW180 06/00 A3055 RMK AC1 SLP351

CYOW;2009-11-11 17:00;CYOW 111700Z 00000KT 15SM FEW180 06/00 A3053 RMK AC1 SLP342

CYOW;2009-11-11 18:00;CYOW 111800Z 36004KT 15SM FEW180 08/00 A3051 RMK AC1 SLP337

CYOW;2009-11-11 19:00;CYOW 111900Z 34003KT 15SM FEW180 09/M01 A3050 RMK AC1 SLP333

CYOW;2009-11-11 20:00;CYOW 112000Z 09003KT 15SM FEW180 09/M00 A3048 RMK AC1 SLP327

CYOW;2009-11-11 21:00;CYOW 112100Z 07002KT 15SM FEW180 08/M01 A3047 RMK AC1 SLP324

CYOW;2009-11-11 22:00;CYOW 112200Z 06002KT 15SM FEW180 07/M03 A3048 RMK AC1 SLP326

CYOW;2009-11-11 23:00;CYOW 112300Z 06002KT 15SM FEW180 06/M03 A3048 RMK AC1 SLP328

CYOW;2009-11-12 00:00;CYOW 120000Z 01002KT 15SM SKC 05/M02 A3048 RMK SLP327

CYOW;2009-11-12 01:00;CYOW 120100Z 00000KT 15SM SKC 04/M02 A3048 RMK SLP326

CYOW;2009-11-12 02:00;CYOW 120200Z 00000KT 15SM SKC 03/M02 A3046 RMK SLP321

CYOW;2009-11-12 02:29;CYOW 120229Z 04002KT 15SM FEW030 02/ RMK SC1

CYOW;2009-11-12 03:00;CYOW 120300Z 00000KT 15SM FEW030 02/M02 A3045 RMK SC1 SLP315

CYOW;2009-11-12 04:00;CYOW 120400Z 11002KT 15SM SKC 02/M03 A3043 RMK SLP311

CYOW;2009-11-12 05:00;CYOW 120500Z 03003KT 15SM SKC 00/M02 A3042 RMK SLP308

CYOW;2009-11-12 06:00;CYOW 120600Z 03003KT 15SM SKC M00/M02 A3042 RMK SLP306

CYOW;2009-11-12 07:00;CYOW 120700Z 36002KT 15SM SKC M02/M03 A3042 RMK SLP308

CYOW;2009-11-12 08:00;CYOW 120800Z 04003KT 15SM SKC M02/M03 A3042 RMK FROIN SLP305

CYOW;2009-11-12 09:00;CYOW 120900Z 02004KT 15SM FEW020 M02/M03 A3041 RMK SC1 FROIN SLP304

CYOW;2009-11-12 10:00;CYOW 121000Z 09003KT 15SM SKC M04/M04 A3041 RMK FROIN SLP302

CYOW;2009-11-12 11:00;CYOW 121100Z 03003KT 15SM FEW180 M03/M03 A3040 RMK AC1 FROIN SLP300

CYOW;2009-11-12 12:00;CYOW 121200Z CCA 34005KT 15SM FEW180 M05/M06 A3042 RMK AC1 FROIN SLP306

CYOW;2009-11-12 13:00;CYOW 121300Z 36006KT 15SM FEW180 M03/M03 A3043 RMK AC1 SLP310

CYOW;2009-11-12 14:00;CYOW 121400Z 08003KT 15SM FEW180 01/M01 A3041 RMK AC1 SLP304

CYOW;2009-11-12 15:00;CYOW 121500Z 07004KT 15SM FEW100 FEW180 03/M00 A3040 RMK AC1AC1 SLP301

CYOW;2009-11-12 16:00;CYOW 121600Z 11005KT 15SM FEW180 05/M01 A3038 RMK AC1 SLP292

CYOW;2009-11-12 17:00;CYOW 121700Z 02002KT 15SM FEW180 07/M02 A3036 RMK AC1 SLP285

CYOW;2009-11-12 18:00;CYOW 121800Z 10003KT 15SM FEW180 09/M02 A3033 RMK AC1 SLP274

CYOW;2009-11-12 19:00;CYOW 121900Z 00000KT 15SM FEW180 09/M03 A3031 RMK AC1 SLP268

CYOW;2009-11-12 20:00;CYOW 122000Z 06003KT 15SM FEW180 09/M03 A3030 RMK AC1 SLP265

CYOW;2009-11-12 21:00;CYOW 122100Z 06003KT 15SM FEW180 08/M04 A3030 RMK AC1 SLP265

CYOW;2009-11-12 22:00;CYOW 122200Z 06003KT 15SM FEW180 06/M04 A3030 RMK AC1 SLP265

CYOW;2009-11-12 23:00;CYOW 122300Z 08003KT 15SM FEW180 05/M04 A3031 RMK AC1 SLP268

CYOW;2009-11-13 00:00;CYOW 130000Z 09003KT 15SM SKC 04/M03 A3029 RMK SLP265

CYOW;2009-11-13 01:00;CYOW 130100Z 08005KT 15SM SKC 03/M03 A3028 RMK SLP261

CYOW;2009-11-13 02:00;CYOW 130200Z 06004KT 15SM SKC 02/M03 A3028 RMK SLP261

CYOW;2009-11-13 03:00;CYOW 130300Z 05005KT 15SM SKC 01/M03 A3028 RMK SLP259

CYOW;2009-11-13 04:00;CYOW 130400Z 06006KT 15SM SKC 01/M02 A3027 RMK SLP256

CYOW;2009-11-13 05:00;CYOW 130500Z 05007KT 15SM SKC 01/M02 A3026 RMK SLP253

CYOW;2009-11-13 06:00;CYOW 130600Z 05007KT 15SM SKC M00/M03 A3026 RMK SLP251

CYOW;2009-11-13 07:00;CYOW 130700Z 04006KT 15SM SKC M00/M03 A3026 RMK SLP252

CYOW;2009-11-13 08:00;CYOW 130800Z 04006KT 15SM SKC M01/M03 A3025 RMK SLP247

CYOW;2009-11-13 09:00;CYOW 130900Z 05007KT 15SM SKC M01/M03 A3024 RMK SLP245

CYOW;2009-11-13 10:00;CYOW 131000Z 04006KT 15SM SKC M01/M03 A3024 RMK SLP246

CYOW;2009-11-13 11:00;CYOW 131100Z 08006KT 15SM FEW150 M02/M04 A3023 RMK AC1 SLP242

CYOW;2009-11-13 12:00;CYOW 131200Z CCA 07005KT 12SM FEW150 M02/M04 A3026 RMK AC1 FROIN SLP252

CYOW;2009-11-13 13:00;CYOW 131300Z 07009KT 15SM FEW150 M00/M03 A3026 RMK AC1 SLP252

CYOW;2009-11-13 14:00;CYOW 131400Z 06006KT 15SM FEW150 FEW250 01/M03 A3024 RMK AC1CI0 SLP247

CYOW;2009-11-13 15:00;CYOW 131500Z 06006KT 15SM FEW150 FEW250 04/M02 A3024 RMK AC1CI0 SLP245

CYOW;2009-11-13 16:00;CYOW 131600Z 08006KT 15SM FEW150 FEW230 06/M02 A3022 RMK AC1CI0 SLP238

CYOW;2009-11-13 17:00;CYOW 131700Z 07006KT 15SM FEW150 BKN230 08/M03 A3019 RMK AC1CI2 AC TR SLP230

CYOW;2009-11-13 18:00;CYOW 131800Z 08006KT 15SM FEW150 BKN230 09/M03 A3017 RMK AC1CI5 AC TR SLP222

CYOW;2009-11-13 19:00;CYOW 131900Z 08007KT 15SM FEW150 BKN230 10/M03 A3015 RMK AC1CI4 AC TR SLP214

CYOW;2009-11-13 20:00;CYOW 132000Z 06006KT 15SM FEW150 BKN250 10/M03 A3015 RMK AC1CI2 AC TR SLP215

CYOW;2009-11-13 21:00;CYOW 132100Z 06005KT 15SM FEW150 FEW250 09/M04 A3014 RMK AC1CI0 AC TR SLP209

CYOW;2009-11-13 22:00;CYOW 132200Z 07007KT 15SM FEW150 06/M04 A3015 RMK AC1 SLP213

CYOW;2009-11-13 23:00;CYOW 132300Z 07005KT 15SM FEW150 05/M05 A3014 RMK AC1 SLP209

CYOW;2009-11-14 00:00;CYOW 140000Z 07007KT 15SM FEW150 05/M04 A3013 RMK AC1 SLP209

CYOW;2009-11-14 01:00;CYOW 140100Z 06007KT 15SM SKC 04/M05 A3015 RMK SLP215

CYOW;2009-11-14 02:00;CYOW 140200Z 07006KT 15SM SKC 02/M05 A3015 RMK SLP216

CYOW;2009-11-14 03:00;CYOW 140300Z 08005KT 15SM SKC 01/M05 A3014 RMK SLP213

CYOW;2009-11-14 04:00;CYOW 140400Z 05004KT 15SM SKC 02/M04 A3015 RMK SLP216

CYOW;2009-11-14 05:00;CYOW 140500Z 05006KT 15SM SKC 01/M04 A3014 RMK SLP211

CYOW;2009-11-14 06:00;CYOW 140600Z 07007KT 15SM SKC 01/M04 A3012 RMK SLP205

CYOW;2009-11-14 07:00;CYOW 140700Z 06007KT 15SM SKC 01/M04 A3014 RMK SLP209

CYOW;2009-11-14 08:00;CYOW 140800Z 05008KT 15SM SKC 02/M05 A3014 RMK SLP209

CYOW;2009-11-14 09:00;CYOW 140900Z 07009KT 15SM SKC 01/M06 A3013 RMK SLP207

CYOW;2009-11-14 10:00;CYOW 141000Z 08008KT 15SM SKC 01/M06 A3012 RMK SLP205

CYOW;2009-11-14 11:00;CYOW 141100Z 07008KT 15SM FEW150 01/M06 A3011 RMK AC1 SLP201

CYOW;2009-11-14 12:00;CYOW 141200Z 07009KT 12SM SCT280 02/M06 A3010 RMK CI2 SLP197

CYOW;2009-11-14 13:00;CYOW 141300Z 07009KT 12SM FEW100 BKN280 02/M05 A3011 RMK AC1CI2 SLP202

CYOW;2009-11-14 14:00;CYOW 141400Z 07006KT 15SM FEW100 OVC280 03/M04 A3012 RMK AC2CI2 SLP205

CYOW;2009-11-14 15:00;CYOW 141500Z 07009KT 15SM SCT050 OVC280 06/M03 A3010 RMK SC3CI1 SLP196

CYOW;2009-11-14 16:00;CYOW 141600Z 07005KT 15SM BKN073 OVC240 08/M02 A3009 RMK AC6CI2 SLP193

CYOW;2009-11-14 17:00;CYOW 141700Z 08009KT 15SM FEW050 OVC073 09/M01 A3006 RMK SC2AC6 SLP185

CYOW;2009-11-14 18:00;CYOW 141800Z 09012KT 5SM -RA BR OVC030 06/03 A3004 RMK SC8 SLP177

CYOW;2009-11-14 19:00;CYOW 141900Z 04008KT 3SM -RA BR OVC023 06/05 A3002 RMK SC8 VIS S 10 SLP171

CYOW;2009-11-14 20:00;CYOW 142000Z 03004KT 10SM OVC028 07/05 A3003 RMK SC8 SLP173

CYOW;2009-11-14 20:47;CYOW 142047Z 07011KT 12SM -RA OVC024 07/ RMK SC8

CYOW;2009-11-14 21:00;CYOW 142100Z 05008KT 15SM FEW010 OVC020 07/06 A3001 RMK SF2SC6 SLP167

CYOW;2009-11-14 21:36;CYOW 142136Z 06008KT 12SM BKN010 OVC024 07/ RMK SC6SC2

CYOW;2009-11-14 22:00;CYOW 142200Z 07008KT 10SM BKN008 OVC023 07/06 A3001 RMK SF5SC3 SLP166

CYOW;2009-11-14 22:15;CYOW 142215Z 07006KT 10SM OVC005 06/ RMK SF8

CYOW;2009-11-14 22:43;CYOW 142243Z 08009KT 5SM -DZ BR OVC004 06/ RMK SF8

CYOW;2009-11-14 23:00;CYOW 142300Z 08007KT 4SM -DZ BR OVC004 06/06 A2999 RMK SF8 SLP162

CYOW;2009-11-14 23:32;CYOW 142332Z 06005KT 2SM -DZ BR OVC003 06/ RMK FG3ST5

CYOW;2009-11-15 00:00;CYOW 150000Z 05004KT 1 3/4SM -DZ BR OVC003 06/06 A2998 RMK FG4ST4 SLP158

CYOW;2009-11-15 01:00;CYOW 150100Z 06004KT 1 1/4SM -DZ BR OVC003 06/06 A2997 RMK FG5ST3 SLP153

CYOW;2009-11-15 01:20;CYOW 150120Z 06003KT 3/4SM R07/5500FT/N R32/5500FT/U -DZ BR VV002 06/ RMK FG8

CYOW;2009-11-15 02:00;CYOW 150200Z 07002KT 3/4SM R07/4000VP6000FT/D R32/4000V5500FT/D -DZ BR VV002 06/06 A2996 RMK FG8 SLP149

CYOW;2009-11-15 02:20;CYOW 150220Z 00000KT 1/2SM R07/4000FT/N R32/4000FT/N -DZ FG VV002 06/ RMK FG8

CYOW;2009-11-15 02:35;CYOW 150235Z 04002KT 3/4SM R07/6000FT/U R32/5000FT/D -DZ BR VV002 06/ RMK FG8

CYOW;2009-11-15 03:00;CYOW 150300Z 04002KT 3/4SM R07/4000FT/N R32/3000FT/N -DZ BR VV002 06/06 A2995 RMK FG8 SLP145

CYOW;2009-11-15 04:00;CYOW 150400Z 06002KT 3/4SM R07/4000FT/D R32/4000FT/N -DZ BR VV002 07/07 A2994 RMK FG8 SLP141

CYOW;2009-11-15 04:20;CYOW 150420Z 00000KT 3/8SM R07/3500FT/N R32/2800FT/N -DZ FG VV001 06/ RMK FG8

CYOW;2009-11-15 05:00;CYOW 150500Z 04002KT 1/4SM R07/2400FT/N R32/2600FT/N -DZ FG VV001 06/06 A2993 RMK FG8 SLP139

CYOW;2009-11-15 06:00;CYOW 150600Z 32002KT 3/8SM R07/3000FT/N R32/4000FT/N -DZ FG VV001 07/07 A2993 RMK FG8 SLP138

CYOW;2009-11-15 07:00;CYOW 150700Z 00000KT 1/4SM R07/2400FT/N R32/2200FT/N -DZ FG VV002 07/07 A2992 RMK FG8 SLP136

CYOW;2009-11-15 08:00;CYOW 150800Z 09003KT 3/8SM R07/2600FT/N R32/2600FT/N -DZ FG OVC003 06/06 A2991 RMK FG7SF1 SLP131

CYOW;2009-11-15 08:35;CYOW 150835Z 25002KT 3/8SM R07/3500FT/D R32/3000V5000FT/U -DZ FG OVC005 06/ RMK FG7ST1

CYOW;2009-11-15 09:00;CYOW 150900Z 00000KT 3/8SM R07/4000V5500FT/D R32/5000FT/U FG OVC005 06/06 A2991 RMK FG7ST1 SLP132

CYOW;2009-11-15 09:33;CYOW 150933Z 00000KT 1/4SM R07/3500FT/D R32/3500FT/N -DZ FG OVC004 06/ RMK FG7ST1

CYOW;2009-11-15 10:00;CYOW 151000Z 00000KT 3/8SM R07/4500FT/U R32/3500V5000FT/U -DZ FG OVC005 06/06 A2990 RMK FG7ST1 SLP129

CYOW;2009-11-15 11:00;CYOW 151100Z 16002KT 5/8SM R07/P6000FT/D R32/P6000FT/D -DZ BR VV004 06/06 A2990 RMK FG8 SLP129

CYOW;2009-11-15 12:00;CYOW 151200Z 18002KT 1/2SM R07/4000FT/D R32/6000FT/D FG VV003 06/06 A2992 RMK FG8 SLP135

CYOW;2009-11-15 12:40;CYOW 151240Z 20003KT 1/4SM R07/3500FT/D R32/3000FT/D FG VV002 07/ RMK FG8

CYOW;2009-11-15 13:00;CYOW 151300Z 20002KT 1/8SM R07/1600FT/N R32/1600FT/N FG VV001 07/07 A2991 RMK FG8 SLP133

CYOW;2009-11-15 14:00;CYOW 151400Z 23005KT 1/8SM R07/1600FT/N R32/1400FT/N FG VV001 07/07 A2991 RMK FG8 SLP134

CYOW;2009-11-15 14:35;CYOW 151435Z 21005KT 1/2SM R07/2800FT/N R32/2200FT/N FG VV002 07/ RMK FG8

CYOW;2009-11-15 15:00;CYOW 151500Z 20007KT 1/2SM FG VV002 07/07 A2991 RMK FG8 SLP131

CYOW;2009-11-15 15:41;CYOW 151541Z CCA 21007KT 1/4SM R07/2200FT/N R32/2000FT/N FG VV002 08/ RMK FG8

CYOW;2009-11-15 16:00;CYOW 151600Z 20005KT 1/4SM R07/2400FT/N R32/2200FT/N FG VV002 08/08 A2990 RMK FG8 SLP128

CYOW;2009-11-15 16:17;CYOW 151617Z 20006KT 1/2SM R07/3500FT/U R32/2800FT/N FG VV002 09/ RMK FG8

CYOW;2009-11-15 16:43;CYOW 151643Z 22004KT 1 1/2SM BR OVC003 09/ RMK ST8

CYOW;2009-11-15 17:00;CYOW 151700Z 20005KT 2SM BR OVC003 10/10 A2987 RMK ST8 SLP120

CYOW;2009-11-15 17:29;CYOW 151729Z 23006KT 4SM BR BKN004 10/ RMK SF6

CYOW;2009-11-15 18:00;CYOW 151800Z 20004KT 4SM BR BKN005 BKN100 11/11 A2985 RMK SF5AC2 SLP113

CYOW;2009-11-15 18:46;CYOW 151846Z 25004KT 5SM BR SCT010 BKN047 13/ RMK SF4SC3

CYOW;2009-11-15 19:00;CYOW 151900Z 19006KT 6SM BR FEW010 BKN050 13/11 A2985 RMK SF2SC3 SLP111

CYOW;2009-11-15 20:00;CYOW 152000Z 22008KT 6SM BR BKN040 OVC057 12/11 A2987 RMK SC6SC2 SLP117

CYOW;2009-11-15 21:00;CYOW 152100Z 21005KT 6SM -SHRA BR SCT037 OVC061 12/11 A2987 RMK SC3SC5 CVCTV CLD EMBD SLP117

CYOW;2009-11-15 21:17;CYOW 152117Z 23007KT 6SM BR OVC033 12/ RMK SC8

CYOW;2009-11-15 22:00;CYOW 152200Z 22006KT 10SM BKN047 11/10 A2988 RMK SC7 SLP122

CYOW;2009-11-15 23:00;CYOW 152300Z 24009KT 10SM SCT047 OVC240 11/10 A2990 RMK SC4CI4 SLP128

CYOW;2009-11-16 00:00;CYOW 160000Z 24006KT 10SM FEW030 SCT045 OVC240 10/09 A2992 RMK SC2SC2CI2 SLP135

CYOW;2009-11-16 01:00;CYOW 160100Z 25007KT 8SM FEW030 FEW045 OVC230 09/09 A2994 RMK SC1SC2CI4 SLP140

CYOW;2009-11-16 02:00;CYOW 160200Z 28010G15KT 15SM BKN230 09/05 A2995 RMK CI5 SLP146

CYOW;2009-11-16 03:00;CYOW 160300Z 28010KT 15SM BKN230 07/03 A2997 RMK CI4 SLP154

CYOW;2009-11-16 04:00;CYOW 160400Z 28009KT 15SM BKN230 07/02 A2999 RMK CI4 SLP160

CYOW;2009-11-16 05:00;CYOW 160500Z 28007KT 15SM BKN230 06/01 A3001 RMK CI3 SLP167

CYOW;2009-11-16 06:00;CYOW 160600Z 28009KT 15SM FEW040 SCT230 05/01 A3004 RMK SC1CI2 SLP175

CYOW;2009-11-16 07:00;CYOW 160700Z 29011KT 15SM FEW040 FEW230 04/00 A3005 RMK SC1CI1 SLP178

CYOW;2009-11-16 08:00;CYOW 160800Z 29014KT 15SM FEW210 04/M00 A3006 RMK CI1 SLP184

CYOW;2009-11-16 09:00;CYOW 160900Z 29013KT 15SM SCT220 03/M01 A3009 RMK CI2 SLP192

CYOW;2009-11-16 10:00;CYOW 161000Z 29010KT 15SM FEW030 BKN210 03/M02 A3012 RMK SC2CI2 SLP203

CYOW;2009-11-16 10:38;CYOW 161038Z 29007KT 15SM FEW030 BKN210 02/ RMK SC2CI2

CYOW;2009-11-16 11:00;CYOW 161100Z 28007KT 15SM FEW030 BKN210 02/M03 A3014 RMK SC2CI2 SLP209

CYOW;2009-11-16 12:00;CYOW 161200Z 27006KT 15SM FEW030 FEW190 FEW210 01/M03 A3016 RMK SC1AC1CI1 SLP217

CYOW;2009-11-16 13:00;CYOW 161300Z 26006KT 15SM FEW210 01/M03 A3017 RMK CI1 SLP222

CYOW;2009-11-16 14:00;CYOW 161400Z 27007KT 15SM FEW190 FEW220 03/M03 A3018 RMK AC1CI1 SLP224

CYOW;2009-11-16 15:00;CYOW 161500Z 27012KT 15SM FEW220 04/M02 A3017 RMK CI1 SLP221

CYOW;2009-11-16 16:00;CYOW 161600Z 28011KT 15SM FEW180 05/M02 A3016 RMK AC1 SLP219

CYOW;2009-11-16 17:00;CYOW 161700Z 27011KT 15SM FEW180 06/M02 A3015 RMK AC1 SLP215

CYOW;2009-11-16 18:00;CYOW 161800Z 30009KT 15SM FEW180 07/M03 A3014 RMK AC1 SLP212

CYOW;2009-11-16 19:00;CYOW 161900Z 29009KT 15SM FEW180 FEW220 07/M04 A3014 RMK AC1CI1 SLP211

CYOW;2009-11-16 20:00;CYOW 162000Z 30012KT 15SM FEW220 07/M04 A3014 RMK CI2 SLP212

CYOW;2009-11-16 21:00;CYOW 162100Z 30008KT 15SM FEW180 FEW220 07/M05 A3016 RMK AC1CI1 SLP217

CYOW;2009-11-16 22:00;CYOW 162200Z 30005KT 15SM SKC 04/M05 A3016 RMK SLP218

CYOW;2009-11-16 23:00;CYOW 162300Z 27007KT 15SM SKC 04/M05 A3018 RMK SLP224

CYOW;2009-11-17 00:00;CYOW 170000Z 28007KT 15SM SKC 03/M04 A3019 RMK SLP230

CYOW;2009-11-17 01:00;CYOW 170100Z 27005KT 15SM SKC 03/M03 A3020 RMK SLP233

CYOW;2009-11-17 02:00;CYOW 170200Z 29004KT 15SM SKC 03/M04 A3023 RMK SLP241

CYOW;2009-11-17 03:00;CYOW 170300Z 31008KT 15SM SKC 00/M04 A3024 RMK SLP244

CYOW;2009-11-17 04:00;CYOW 170400Z 29006KT 15SM SKC 02/M04 A3025 RMK SLP247

CYOW;2009-11-17 05:00;CYOW 170500Z 30007KT 15SM SKC 01/M04 A3026 RMK SLP253

CYOW;2009-11-17 06:00;CYOW 170600Z 26005KT 15SM SKC M00/M03 A3027 RMK SLP255

CYOW;2009-11-17 07:00;CYOW 170700Z 27005KT 15SM SKC M01/M03 A3028 RMK FROIN SLP260

CYOW;2009-11-17 08:00;CYOW 170800Z 30008KT 15SM SKC M02/M04 A3030 RMK SLP264

CYOW;2009-11-17 09:00;CYOW 170900Z 30005KT 15SM SKC M03/M04 A3031 RMK FROIN SLP270

CYOW;2009-11-17 10:00;CYOW 171000Z 33006KT 15SM SKC M02/M04 A3032 RMK FROIN SLP274

CYOW;2009-11-17 11:00;CYOW 171100Z 32005KT 15SM SKC M03/M05 A3034 RMK FROIN SLP279

CYOW;2009-11-17 12:00;CYOW 171200Z 32005KT 15SM FEW150 M04/M05 A3036 RMK AC1 FROIN SLP287

CYOW;2009-11-17 13:00;CYOW 171300Z 36006KT 15SM FEW150 M01/M03 A3037 RMK AC1 SLP292

CYOW;2009-11-17 14:00;CYOW 171400Z 01006KT 15SM FEW150 01/M03 A3039 RMK AC1 SLP299

CYOW;2009-11-17 15:00;CYOW 171500Z 05005KT 15SM FEW150 02/M03 A3041 RMK AC1 SLP303

CYOW;2009-11-17 16:00;CYOW 171600Z 02004KT 15SM FEW150 03/M03 A3041 RMK AC1 SLP304

CYOW;2009-11-17 17:00;CYOW 171700Z 35004KT 15SM FEW150 04/M03 A3040 RMK AC1 SLP302

CYOW;2009-11-17 18:00;CYOW 171800Z 06002KT 15SM FEW150 05/M03 A3039 RMK AC1 SLP298

CYOW;2009-11-17 19:00;CYOW 171900Z 32003KT 15SM FEW150 05/M03 A3039 RMK AC1 SLP296

CYOW;2009-11-17 20:00;CYOW 172000Z 36002KT 15SM FEW150 06/M03 A3039 RMK AC1 SLP295

CYOW;2009-11-17 21:00;CYOW 172100Z 00000KT 15SM FEW150 05/M04 A3039 RMK AC1 SLP297

CYOW;2009-11-17 22:00;CYOW 172200Z 26002KT 15SM SKC 04/M04 A3039 RMK SLP299

CYOW;2009-11-17 23:00;CYOW 172300Z 00000KT 15SM SKC 02/M04 A3041 RMK SLP303

CYOW;2009-11-18 00:00;CYOW 180000Z 00000KT 15SM SKC 02/M04 A3041 RMK SLP304

CYOW;2009-11-18 01:00;CYOW 180100Z 15004KT 15SM SKC 01/M04 A3042 RMK SLP306

CYOW;2009-11-18 02:00;CYOW 180200Z 08002KT 15SM SKC 02/M03 A3041 RMK SLP305

CYOW;2009-11-18 03:00;CYOW 180300Z 36002KT 15SM SKC M02/M05 A3042 RMK SLP307

CYOW;2009-11-18 04:00;CYOW 180400Z 05003KT 15SM SKC M02/M05 A3042 RMK SLP309

CYOW;2009-11-18 05:00;CYOW 180500Z 00000KT 15SM SKC M02/M04 A3043 RMK SLP312

CYOW;2009-11-18 06:00;CYOW 180600Z 09002KT 15SM SKC M01/M03 A3043 RMK SLP309

CYOW;2009-11-18 07:00;CYOW 180700Z 04003KT 15SM SKC M01/M03 A3043 RMK SLP310

CYOW;2009-11-18 08:00;CYOW 180800Z 02006KT 15SM SKC M03/M03 A3044 RMK FROIN SLP312

CYOW;2009-11-18 09:00;CYOW 180900Z 04004KT 15SM SKC M03/M04 A3044 RMK FROIN SLP313

CYOW;2009-11-18 10:00;CYOW 181000Z 06004KT 15SM SKC M04/M05 A3044 RMK FROIN SLP315

CYOW;2009-11-18 11:00;CYOW 181100Z 04004KT 15SM SKC M03/M04 A3045 RMK FROIN SLP316

CYOW;2009-11-18 12:00;CYOW 181200Z 05005KT 15SM SKC M03/M04 A3045 RMK FROIN SLP319

CYOW;2009-11-18 13:00;CYOW 181300Z 04005KT 15SM SKC M02/M03 A3047 RMK SLP323

CYOW;2009-11-18 14:00;CYOW 181400Z 06003KT 15SM SKC 01/M02 A3047 RMK SLP325

CYOW;2009-11-18 15:00;CYOW 181500Z 08003KT 15SM SKC 01/M01 A3047 RMK SLP325

CYOW;2009-11-18 16:00;CYOW 181600Z 11003KT 15SM SKC 04/M00 A3046 RMK SLP322

CYOW;2009-11-18 17:00;CYOW 181700Z 06002KT 15SM SKC 05/M01 A3043 RMK SLP312

CYOW;2009-11-18 18:00;CYOW 181800Z 10002KT 15SM SKC 07/M00 A3042 RMK SLP305

CYOW;2009-11-18 19:00;CYOW 181900Z 11002KT 15SM SKC 08/M00 A3040 RMK SLP301

CYOW;2009-11-18 20:00;CYOW 182000Z 00000KT 15SM SKC 08/M01 A3039 RMK SLP297

CYOW;2009-11-18 21:00;CYOW 182100Z 07004KT 15SM SKC 07/M01 A3039 RMK SLP296

CYOW;2009-11-18 22:00;CYOW 182200Z 09003KT 15SM SKC 04/M01 A3038 RMK SLP293

CYOW;2009-11-18 23:00;CYOW 182300Z 08003KT 15SM SKC 04/M01 A3038 RMK SLP294

CYOW;2009-11-19 00:00;CYOW 190000Z 06006KT 15SM SKC 03/M02 A3038 RMK SLP295

CYOW;2009-11-19 00:18;CYOW 190018Z 07005KT 15SM SKC 02/

CYOW;2009-11-19 01:00;CYOW 190100Z 07006KT 15SM SKC 02/M02 A3039 RMK SLP296

CYOW;2009-11-19 02:00;CYOW 190200Z 08006KT 15SM SKC 01/M02 A3038 RMK SLP294

CYOW;2009-11-19 03:00;CYOW 190300Z 08003KT 15SM SKC 01/M02 A3037 RMK SLP290

CYOW;2009-11-19 04:00;CYOW 190400Z 07004KT 15SM SKC 01/M02 A3036 RMK SLP288

CYOW;2009-11-19 05:00;CYOW 190500Z 04006KT 15SM SKC 00/M02 A3036 RMK SLP285

CYOW;2009-11-19 06:00;CYOW 190600Z 05006KT 15SM SKC M00/M02 A3036 RMK SLP285

CYOW;2009-11-19 07:00;CYOW 190700Z 05006KT 15SM SKC M00/M02 A3035 RMK SLP283

CYOW;2009-11-19 08:00;CYOW 190800Z 07005KT 15SM SKC M01/M02 A3034 RMK SLP278

CYOW;2009-11-19 09:00;CYOW 190900Z 06006KT 15SM SKC M01/M02 A3033 RMK SLP276

CYOW;2009-11-19 10:00;CYOW 191000Z 06006KT 15SM SKC M01/M02 A3032 RMK SLP274

CYOW;2009-11-19 11:00;CYOW 191100Z 07006KT 15SM FEW180 M01/M03 A3033 RMK AC1 SLP276

CYOW;2009-11-19 12:00;CYOW 191200Z 07006KT 15SM FEW180 M01/M03 A3034 RMK AC1 FROIN SLP278

CYOW;2009-11-19 13:00;CYOW 191300Z 06008KT 15SM FEW180 00/M02 A3033 RMK AC1 SLP275

CYOW;2009-11-19 14:00;CYOW 191400Z 07006KT 15SM FEW180 01/M01 A3033 RMK AC1 SLP276

CYOW;2009-11-19 15:00;CYOW 191500Z 08005KT 15SM FEW180 04/01 A3032 RMK AC1 SLP273

CYOW;2009-11-19 16:00;CYOW 191600Z 07006KT 15SM FEW180 BKN220 06/01 A3029 RMK AC2CI1 SLP264

CYOW;2009-11-19 17:00;CYOW 191700Z 09005KT 15SM FEW180 BKN220 07/02 A3026 RMK AC2CI2 SLP254

CYOW;2009-11-19 18:00;CYOW 191800Z 08006KT 15SM FEW160 BKN220 08/03 A3024 RMK AC2CI2 SLP244

CYOW;2009-11-19 19:00;CYOW 191900Z 08006KT 15SM SCT066 BKN160 BKN220 09/03 A3022 RMK AC3AC2CI2 SLP238

CYOW;2009-11-19 20:00;CYOW 192000Z 06004KT 15SM SCT066 BKN160 BKN220 08/02 A3019 RMK AC3AC2CI1 SLP229

CYOW;2009-11-19 21:00;CYOW 192100Z 05005KT 15SM FEW066 BKN100 BKN160 BKN220 08/02 A3017 RMK AC2AC4AS1CI1 SLP222

CYOW;2009-11-19 21:17;CYOW 192117Z 07005KT 15SM -RA BKN100 BKN160 OVC220 08/ RMK AC6AC2CI1

CYOW;2009-11-19 22:00;CYOW 192200Z 09002KT 15SM -RA FEW045 OVC100 08/02 A3018 RMK SC2AC6 SLP225

CYOW;2009-11-19 23:00;CYOW 192300Z 06007KT 6SM -RA BR BKN037 OVC070 06/04 A3016 RMK SC6AC2 SLP218

CYOW;2009-11-19 23:40;CYOW 192340Z 07010KT 15SM BKN060 OVC110 06/ RMK SC5AC3

CYOW;2009-11-20 00:00;CYOW 200000Z 07010KT 15SM BKN078 OVC110 06/04 A3012 RMK AC6AC2 SLP204

CYOW;2009-11-20 01:00;CYOW 200100Z 08006KT 12SM SCT060 OVC120 05/04 A3010 RMK SC3AC5 SLP199

CYOW;2009-11-20 02:00;CYOW 200200Z 06008KT 12SM SCT057 BKN130 05/03 A3008 RMK SC3AC2 SLP191

CYOW;2009-11-20 03:00;CYOW 200300Z 05008KT 12SM FEW033 OVC050 05/03 A3005 RMK SC2SC6 SLP181

CYOW;2009-11-20 04:00;CYOW 200400Z 11002KT 6SM -RA BR OVC030 04/03 A3005 RMK SC8 SLP179

CYOW;2009-11-20 05:00;CYOW 200500Z 06007KT 4SM -RA BR OVC022 04/04 A3001 RERA RMK SC8 SLP166

CYOW;2009-11-20 05:25;CYOW 200525Z 06006KT 2SM RA BR OVC013 04/ RMK NS8

CYOW;2009-11-20 05:43;CYOW 200543Z 06008KT 2 1/2SM -RA BR FEW013 OVC023 04/ RERA RMK SF2SC6

CYOW;2009-11-20 06:00;CYOW 200600Z 06008KT 2 1/2SM -RA BR OVC010 04/04 A2997 RERA RMK SF8 CIG RAG SLP153

CYOW;2009-11-20 06:27;CYOW 200627Z 07007KT 2SM -RA BR OVC002 04/ RERA RMK ST8

CYOW;2009-11-20 07:00;CYOW 200700Z 09007KT 1 1/2SM -RA BR OVC002 04/04 A2994 RERA RMK ST8 SLP144

CYOW;2009-11-20 08:00;CYOW 200800Z 07007KT 2SM -RA BR OVC002 04/04 A2991 RERA RMK ST8 SLP133

CYOW;2009-11-20 08:45;CYOW 200845Z 03004KT 1 1/2SM BR OVC002 04/ RMK ST8

CYOW;2009-11-20 09:00;CYOW 200900Z 05002KT 1 1/2SM BR OVC002 04/04 A2988 RMK ST8 SLP122

CYOW;2009-11-20 09:30;CYOW 200930Z 08003KT 3/4SM -DZ BR OVC001 04/ RMK FG1ST7

CYOW;2009-11-20 09:52;CYOW 200952Z 11003KT 3/8SM R07/5000FT/D R32/3500V5000FT/N -RA FG VV001 04/ RMK FG8

CYOW;2009-11-20 10:00;CYOW 201000Z 10002KT 3/4SM R07/3500V5000FT/N R32/3500V5000FT/U RA BR VV002 04/04 A2986 RMK FG8 SLP115

CYOW;2009-11-20 10:17;CYOW 201017Z 20002KT 1 1/2SM -RA BR OVC003 04/ RERA RMK FG1SC7

CYOW;2009-11-20 10:34;CYOW 201034Z 19003KT 3/4SM R07/P6000FT/U R32/P6000FT/N -DZ BR VV001 04/ RERA RMK FG8

CYOW;2009-11-20 11:00;CYOW 201100Z 20002KT 3/4SM R07/3500VP6000FT/U R32/5000FT/U -DZ BR OVC002 04/04 A2986 RMK FG1ST7 SLP115

CYOW;2009-11-20 11:24;CYOW 201124Z 21003KT 1 1/2SM BR SCT002 OVC028 05/ RMK SC3SC5

CYOW;2009-11-20 12:00;CYOW 201200Z 20005KT 1SM R07/P6000FT/N R32/P6000FT/N -SHRA BR SCT002 OVC037 05/05 A2986 RMK SF4SC4 SLP115

CYOW;2009-11-20 12:16;CYOW 201216Z 20007KT 3SM BR FEW004 OVC050 06/ RMK SF2SC6

CYOW;2009-11-20 13:00;CYOW 201300Z 21010KT 6SM BR FEW008 BKN020 OVC075 07/07 A2985 RMK SF2SC5AC2 SLP114

CYOW;2009-11-20 14:00;CYOW 201400Z 21011G16KT 12SM BKN017 OVC030 07/07 A2985 RMK SC5SC3 SLP114

CYOW;2009-11-20 15:00;CYOW 201500Z 22014KT 15SM BKN017 OVC030 07/06 A2985 RMK SC6SC2 SLP114

CYOW;2009-11-20 16:00;CYOW 201600Z 23013G19KT 15SM OVC017 07/05 A2983 RMK SC8 SLP107

CYOW;2009-11-20 17:00;CYOW 201700Z 22012G17KT 15SM OVC018 08/05 A2981 RMK SC8 SLP098

CYOW;2009-11-20 17:50;CYOW 201750Z 22013G20KT 15SM -SHRA OVC020 07/ RMK SC8

CYOW;2009-11-20 18:00;CYOW 201800Z 22014G20KT 12SM -SHRA OVC020 08/05 A2979 RMK SC8 CVCTV CLD EMBD SLP092

CYOW;2009-11-20 19:00;CYOW 201900Z 24013G18KT 5SM -RA BR OVC012 07/06 A2979 RMK SC8 SLP090

CYOW;2009-11-20 20:00;CYOW 202000Z 25014KT 5SM -RA BR SCT010 OVC018 07/06 A2981 RMK SF4SC4 SLP097

CYOW;2009-11-20 21:00;CYOW 202100Z 24007KT 7SM OVC020 05/04 A2982 RMK SC8 SLP101

CYOW;2009-11-20 22:00;CYOW 202200Z 23013KT 7SM -RA FEW010 OVC017 06/06 A2982 RMK SF2SC6 SLP101

CYOW;2009-11-20 22:46;CYOW 202246Z 24012KT 10SM -RA SCT007 OVC017 06/ RMK SF3SC5

CYOW;2009-11-20 23:00;CYOW 202300Z 24009G15KT 10SM -RA FEW007 OVC020 06/06 A2982 RMK SF2SC6 SLP104

CYOW;2009-11-21 00:00;CYOW 210000Z 26015G20KT 10SM -RA OVC019 07/07 A2985 RMK SC8 SLP111

CYOW;2009-11-21 01:00;CYOW 210100Z 26010G16KT 10SM -RA FEW007 OVC021 07/07 A2988 RMK SF1SC7 SLP120

CYOW;2009-11-21 01:36;CYOW 210136Z 26012KT 12SM FEW007 OVC022 08/ RMK SF1SC7

CYOW;2009-11-21 02:00;CYOW 210200Z 26010KT 12SM OVC017 08/07 A2990 RMK SC8 SLP127

CYOW;2009-11-21 03:00;CYOW 210300Z 26011KT 12SM OVC017 08/07 A2990 RMK SC8 SLP129

CYOW;2009-11-21 04:00;CYOW 210400Z CCA 26011G17KT 12SM SCT016 OVC025 08/07 A2992 RMK SC3SC5 SLP134

CYOW;2009-11-21 05:00;CYOW 210500Z 27009KT 12SM SCT018 OVC020 08/07 A2994 RMK SC4SC4 SLP140

CYOW;2009-11-21 06:00;CYOW 210600Z 27008KT 12SM OVC024 08/06 A2995 RMK SC8 SLP144

CYOW;2009-11-21 07:00;CYOW 210700Z 27010G15KT 15SM BKN023 08/06 A2996 RMK SC6 SLP149

CYOW;2009-11-21 08:00;CYOW 210800Z 25006KT 15SM OVC017 07/06 A2998 RMK SC8 SLP156

CYOW;2009-11-21 09:00;CYOW 210900Z 28009KT 15SM BKN022 07/05 A2999 RMK SC6 SLP158

CYOW;2009-11-21 10:00;CYOW 211000Z 28009KT 15SM BKN019 07/05 A3000 RMK SC7 SLP163

CYOW;2009-11-21 11:00;CYOW 211100Z 28009KT 15SM OVC018 07/05 A3002 RMK SC8 SLP169

CYOW;2009-11-21 12:00;CYOW 211200Z 28007KT 15SM OVC020 06/05 A3004 RMK SC8 SLP176

CYOW;2009-11-21 13:00;CYOW 211300Z 27006KT 12SM BKN026 06/05 A3005 RMK SC7 SLP181

CYOW;2009-11-21 14:00;CYOW 211400Z 25006KT 12SM FEW030 BKN240 07/05 A3007 RMK SC2CI2 SLP186

CYOW;2009-11-21 15:00;CYOW 211500Z 29012KT 12SM FEW020 BKN240 08/04 A3010 RMK CU2CI2 SLP195

CYOW;2009-11-21 16:00;CYOW 211600Z 30010G15KT 15SM SCT024 BKN240 09/04 A3010 RMK CU3CI1 SLP196

CYOW;2009-11-21 17:00;CYOW 211700Z 29008G15KT 15SM SCT024 BKN240 09/04 A3010 RMK CU3CI0 SLP195

CYOW;2009-11-21 18:00;CYOW 211800Z 30009KT 15SM BKN025 BKN240 08/04 A3010 RMK CU6CI0 SLP197

CYOW;2009-11-21 19:00;CYOW 211900Z 27009KT 15SM BKN025 09/03 A3010 RMK SC6 CU ASOCTD SLP196

CYOW;2009-11-21 20:00;CYOW 212000Z 27009KT 15SM BKN025 08/04 A3011 RMK SC7 SLP200

CYOW;2009-11-21 21:00;CYOW 212100Z 29009KT 15SM BKN022 08/04 A3013 RMK SC7 SLP207

CYOW;2009-11-21 22:00;CYOW 212200Z 28006KT 15SM OVC024 07/04 A3016 RMK SC8 SLP215

CYOW;2009-11-21 23:00;CYOW 212300Z 27006KT 15SM OVC025 07/04 A3017 RMK SC8 SLP219

CYOW;2009-11-22 00:00;CYOW 220000Z 27005KT 15SM OVC026 07/04 A3018 RMK SC8 SLP225

CYOW;2009-11-22 01:00;CYOW 220100Z 30005KT 15SM OVC024 07/04 A3020 RMK SC8 SLP232

CYOW;2009-11-22 02:00;CYOW 220200Z 27004KT 15SM OVC024 07/04 A3021 RMK SC8 SLP234

CYOW;2009-11-22 03:00;CYOW 220300Z 28004KT 15SM OVC024 07/04 A3022 RMK SC8 SLP238

CYOW;2009-11-22 04:00;CYOW 220400Z 30005KT 15SM OVC022 07/03 A3023 RMK SC8 SLP241

CYOW;2009-11-22 05:00;CYOW 220500Z 25004KT 15SM OVC026 07/04 A3024 RMK SC8 SLP243

CYOW;2009-11-22 06:00;CYOW 220600Z 26004KT 15SM OVC026 07/03 A3025 RMK SC8 SLP246

CYOW;2009-11-22 07:00;CYOW 220700Z 31005KT 15SM OVC026 07/02 A3026 RMK SC8 SLP252

CYOW;2009-11-22 08:00;CYOW 220800Z 29004KT 15SM OVC026 06/02 A3027 RMK SC8 SLP255

CYOW;2009-11-22 09:00;CYOW 220900Z 27003KT 15SM OVC026 06/02 A3029 RMK SC8 SLP260

CYOW;2009-11-22 10:00;CYOW 221000Z 25004KT 15SM OVC026 06/02 A3031 RMK SC8 SLP266

CYOW;2009-11-22 11:00;CYOW 221100Z 25003KT 15SM OVC024 06/02 A3032 RMK SC8 SLP270

CYOW;2009-11-22 12:00;CYOW 221200Z 30002KT 15SM OVC022 06/02 A3034 RMK SC8 SLP279

CYOW;2009-11-22 13:00;CYOW 221300Z 00000KT 15SM OVC022 06/02 A3037 RMK SC8 SLP289

CYOW;2009-11-22 14:00;CYOW 221400Z 11004KT 15SM OVC022 05/03 A3039 RMK SC8 SLP295

CYOW;2009-11-22 15:00;CYOW 221500Z 09005KT 15SM OVC023 05/02 A3040 RMK SC8 SLP300

CYOW;2009-11-22 16:00;CYOW 221600Z 10006KT 15SM OVC023 05/02 A3040 RMK SC8 SLP300

CYOW;2009-11-22 17:00;CYOW 221700Z 09005KT 15SM OVC023 05/02 A3039 RMK SC8 SLP297

CYOW;2009-11-22 18:00;CYOW 221800Z 10005KT 15SM OVC024 06/02 A3039 RMK SC8 SLP294

CYOW;2009-11-22 19:00;CYOW 221900Z 13005KT 15SM OVC024 06/02 A3039 RMK SC8 SLP294

CYOW;2009-11-22 20:00;CYOW 222000Z 12004KT 15SM BKN023 06/02 A3039 RMK SC7 SLP297

CYOW;2009-11-22 21:00;CYOW 222100Z 12005KT 15SM BKN023 05/02 A3040 RMK SC6 SLP300

CYOW;2009-11-22 22:00;CYOW 222200Z 12003KT 15SM BKN023 03/01 A3041 RMK SC6 SLP303

CYOW;2009-11-22 23:00;CYOW 222300Z 10005KT 15SM FEW023 02/00 A3041 RMK SC2 SLP303

CYOW;2009-11-23 00:00;CYOW 230000Z 09004KT 15SM BKN021 02/00 A3042 RMK SC6 SLP308

CYOW;2009-11-23 01:00;CYOW 230100Z 09005KT 15SM BKN021 04/01 A3044 RMK SC6 SLP312

CYOW;2009-11-23 02:00;CYOW 230200Z 07005KT 15SM OVC021 03/01 A3044 RMK SC8 SLP314

CYOW;2009-11-23 03:00;CYOW 230300Z 08005KT 15SM OVC021 03/01 A3046 RMK SC8 SLP319

CYOW;2009-11-23 04:00;CYOW 230400Z 05005KT 15SM OVC021 03/01 A3046 RMK SC8 SLP319

CYOW;2009-11-23 05:00;CYOW 230500Z 07007KT 12SM OVC019 03/00 A3046 RMK SC8 SLP319

CYOW;2009-11-23 05:23;CYOW 230523Z 08008KT 12SM OVC019 02/ RMK SC8

CYOW;2009-11-23 06:00;CYOW 230600Z 07007KT 12SM OVC021 02/00 A3045 RMK SC8 SLP318

CYOW;2009-11-23 07:00;CYOW 230700Z 07008KT 12SM OVC025 02/M00 A3046 RMK SC8 SLP320

CYOW;2009-11-23 08:00;CYOW 230800Z 07005KT 12SM OVC025 01/M00 A3045 RMK SC8 SLP318

CYOW;2009-11-23 09:00;CYOW 230900Z 08007KT 12SM OVC023 01/M00 A3045 RMK SC8 SLP318

CYOW;2009-11-23 09:46;CYOW 230946Z 08006KT 10SM FEW008 OVC023 01/ RMK SF1SC7

CYOW;2009-11-23 10:00;CYOW 231000Z 08006KT 8SM FEW008 OVC023 00/M01 A3045 RMK SF2SC6 SLP317

CYOW;2009-11-23 10:48;CYOW 231048Z 07007KT 6SM BR BKN004 BKN023 M01/ RMK SF5SC2

CYOW;2009-11-23 11:00;CYOW 231100Z 07006KT 5SM BR BKN003 BKN023 M01/M01 A3045 RMK SF5SC2 SLP316

CYOW;2009-11-23 11:44;CYOW 231144Z 08006KT 3/4SM R07/P6000FT/D R32/P6000FT/D BR OVC002 M01/ RMK ST8

CYOW;2009-11-23 12:00;CYOW 231200Z 08007KT 1/2SM R07/3000FT/D R32/2600FT/D FZFG VV002 M01/M01 A3045 RMK FG8 SLP316

CYOW;2009-11-23 12:33;CYOW 231233Z 07006KT 1/4SM R07/2000FT/N R32/1800FT/N FZFG VV002 M01/ RMK FG8

CYOW;2009-11-23 13:00;CYOW 231300Z 06004KT 1/4SM R07/1600FT/N R32/1200FT/N FZFG VV002 M01/M01 A3046 RMK FG8 SLP320

CYOW;2009-11-23 13:52;CYOW 231352Z 08002KT 1/8SM FZFG VV002 M01/ RMK FG8

CYOW;2009-11-23 14:00;CYOW 231400Z 11002KT 1/8SM FZFG VV002 M01/M01 A3047 RMK FG8 SLP325

CYOW;2009-11-23 14:21;CYOW 231421Z 04003KT 1/4SM R07/1600FT/N R32/1400FT/N FZFG VV002 M01/ RMK FG8

CYOW;2009-11-23 14:34;CYOW 231434Z 06003KT 1/2SM R07/2800FT/N R32/1600FT/N FZFG VV002 M00/ RMK FG8

CYOW;2009-11-23 15:00;CYOW 231500Z 02002KT 3/4SM R07/3000FT/U R32/4500FT/N BR VV002 M00/M00 A3049 RMK FG8 SLP330

CYOW;2009-11-23 15:39;CYOW 231539Z 01003KT 2SM BR OVC003 M00/ RMK ST8

CYOW;2009-11-23 16:00;CYOW 231600Z 06002KT 3SM BR OVC004 00/00 A3047 RMK ST8 SLP323

CYOW;2009-11-23 17:00;CYOW 231700Z 03003KT 4SM BR OVC005 01/01 A3045 RMK ST8 SLP318

CYOW;2009-11-23 18:00;CYOW 231800Z 09003KT 4SM BR OVC004 01/01 A3043 RMK ST8 SLP312

CYOW;2009-11-23 19:00;CYOW 231900Z 12003KT 4SM BR OVC004 01/01 A3042 RMK ST8 SLP309

CYOW;2009-11-23 19:26;CYOW 231926Z 13004KT 3SM BR OVC003 01/ RMK ST8

CYOW;2009-11-23 20:00;CYOW 232000Z 15003KT 1SM BR OVC002 01/01 A3042 RMK ST8 SLP307

CYOW;2009-11-23 20:30;CYOW 232030Z 13003KT 1/4SM FG VV002 01/ RMK FG8

CYOW;2009-11-23 20:48;CYOW 232048Z 08005KT 1/8SM FG VV001 00/ RMK FG8

CYOW;2009-11-23 21:00;CYOW 232100Z 11004KT 1/8SM R07/1400FT/N R32/1400FT/N FG VV001 00/00 A3041 RMK FG8 SLP305

CYOW;2009-11-23 21:17;CYOW 232117Z 11003KT 1/4SM R07/1600FT/N R32/1400FT/N FG VV002 00/ RMK FG8

CYOW;2009-11-23 21:26;CYOW 232126Z 12003KT 1/8SM R07/1800FT/N R32/1400FT/N FG VV001 00/ RMK FG8

CYOW;2009-11-23 21:38;CYOW 232138Z 08004KT 1/4SM R07/1400FT/N R32/1400FT/N FG VV001 00/ RMK FG8

CYOW;2009-11-23 22:00;CYOW 232200Z CCA 06003KT 1/8SM R07/1200FT/N R32/1200FT/N FZFG VV001 M00/M00 A3041 RMK FG8 SLP304

CYOW;2009-11-23 22:35;CYOW 232235Z 09004KT 1/4SM R07/1400FT/N R32/1200FT/N FG VV001 00/ RMK FG8

CYOW;2009-11-23 23:00;CYOW 232300Z 09002KT 1/4SM R07/1200FT/N R32/1200FT/N FZFG VV001 00/00 A3041 RMK FG8 SLP303

CYOW;2009-11-24 00:00;CYOW 240000Z 05005KT 1/4SM R07/1600FT/N R32/1400FT/N FZFG VV001 M00/M00 A3039 RMK FG8 SLP299

CYOW;2009-11-24 01:00;CYOW 240100Z 05006KT 1/4SM R07/1800FT/N R32/1800FT/N FZFG VV001 M01/M01 A3039 RMK FG8 SLP297

CYOW;2009-11-24 02:00;CYOW 240200Z 08005KT 1/4SM R07/1800FT/N R32/1600FT/N FZFG VV001 M00/M00 A3037 RMK FG8 SLP292

CYOW;2009-11-24 02:23;CYOW 240223Z 08005KT 1/2SM R07/3000FT/N R32/2200FT/N FZFG VV002 00/ RMK FG8

CYOW;2009-11-24 02:51;CYOW 240251Z 09003KT 1/4SM R07/2400FT/N R32/2200FT/N FG VV002 00/ RMK FG8

CYOW;2009-11-24 03:00;CYOW 240300Z CCA 08003KT 1/4SM R07/2400FT/N R32/2200FT/N FG VV002 00/00 A3036 RMK FG8 SLP289

CYOW;2009-11-24 04:00;CYOW 240400Z 04006KT 1/4SM R07/2600FT/N R32/2400FT/N FG VV002 01/01 A3034 RMK FG8 SLP280

CYOW;2009-11-24 05:00;CYOW 240500Z 08004KT 1/4SM R07/2200FT/N R32/2000FT/N FG VV002 01/01 A3033 RMK FG8 SLP277

CYOW;2009-11-24 06:00;CYOW 240600Z 06006KT 1/4SM R07/1800FT/N R32/1600FT/N FG VV002 00/00 A3032 RMK FG8 SLP274

CYOW;2009-11-24 06:12;CYOW 240612Z 04004KT 1/4SM R07/1800FT/N R32/1600FT/N FG VV001 00/ RMK FG8

CYOW;2009-11-24 07:00;CYOW 240700Z 03005KT 1/4SM R07/1600FT/N R32/1400FT/N FZFG VV001 M00/M00 A3032 RMK FG8 SLP274

CYOW;2009-11-24 08:00;CYOW 240800Z 06004KT 1/4SM R07/1600FT/N R32/1400FT/N FZFG VV001 M00/M00 A3032 RMK FG8 SLP273

CYOW;2009-11-24 09:00;CYOW 240900Z 05005KT 1/4SM R07/1400FT/N R32/1400FT/N FZFG VV001 M00/M00 A3031 RMK FG8 SLP268

CYOW;2009-11-24 09:30;CYOW 240930Z 05002KT 1/8SM R07/1200FT/N R32/1200FT/N FZFG VV001 00/ RMK FG8

CYOW;2009-11-24 10:00;CYOW 241000Z 07005KT 1/8SM R07/1400FT/N R32/1400FT/N FZFG VV001 M00/M00 A3030 RMK FG8 SLP267

CYOW;2009-11-24 10:52;CYOW 241052Z 08005KT 1/8SM R07/1800FT/N R32/1600FT/N FG VV001 00/ RMK FG8

CYOW;2009-11-24 11:00;CYOW 241100Z 09004KT 1/8SM R07/2000FT/N R32/1800FT/N FG VV001 00/00 A3030 RMK FG8 SLP266

CYOW;2009-11-24 11:12;CYOW 241112Z 05002KT 1/4SM R07/1600FT/N R32/1400FT/N FG VV001 00/ RMK FG8

CYOW;2009-11-24 12:00;CYOW 241200Z 05002KT 1/4SM R07/1800FT/N R32/1600FT/N FG VV001 00/00 A3031 RMK FG8 SLP269

CYOW;2009-11-24 12:13;CYOW 241213Z 06002KT 1/8SM R07/1600FT/N R32/1600FT/N FG VV001 00/ RMK FG8

CYOW;2009-11-24 13:00;CYOW 241300Z 04003KT 1/8SM R07/1600V2400FT/N R32/1200FT/N FG VV001 00/00 A3031 RMK FG8 SLP269

CYOW;2009-11-24 13:19;CYOW 241319Z 04004KT 1/2SM R07/2800FT/N R32/2600FT/N FG VV003 00/ RMK FG8

CYOW;2009-11-24 14:00;CYOW 241400Z 08004KT 1/2SM R07/3000FT/N R32/2800FT/N FG VV002 01/01 A3030 RMK FG8 SLP266

CYOW;2009-11-24 14:33;CYOW 241433Z 07003KT 3/4SM R07/3500FT/N R32/3000FT/D BR VV002 01/ RMK FG8

CYOW;2009-11-24 15:00;CYOW 241500Z CCA 06004KT 1 1/2SM BR VV004 01/01 A3030 RMK FG8 SLP265

CYOW;2009-11-24 16:00;CYOW 241600Z 04005KT 2SM BR OVC004 02/02 A3028 RMK FG6ST2 SLP258

CYOW;2009-11-24 17:00;CYOW 241700Z 08006KT 1 1/2SM BR VV002 03/03 A3026 RMK FG8 SLP252

CYOW;2009-11-24 18:00;CYOW 241800Z 07002KT 1 1/2SM BR VV003 03/03 A3024 RMK FG8 SLP246

CYOW;2009-11-24 19:00;CYOW 241900Z 07005KT 2 1/2SM BR OVC004 03/03 A3022 RMK FG3ST5 SLP241

CYOW;2009-11-24 20:00;CYOW 242000Z 04005KT 2SM BR OVC003 04/04 A3021 RMK FG5ST3 SLP237

CYOW;2009-11-24 21:00;CYOW 242100Z 05006KT 2SM BR OVC002 04/04 A3020 RMK FG4ST4 SLP233

CYOW;2009-11-24 22:00;CYOW 242200Z 06002KT 2SM BR OVC004 04/04 A3020 RMK FG2ST6 SLP231

CYOW;2009-11-24 22:26;CYOW 242226Z 00000KT 3SM BR SCT004 BKN080 04/ RMK SF3AC4

CYOW;2009-11-24 23:00;CYOW 242300Z 00000KT 3SM BR SCT004 BKN120 04/04 A3019 RMK SF3AC4 SLP228

CYOW;2009-11-25 00:00;CYOW 250000Z 00000KT 4SM BR BKN060 OVC080 04/04 A3018 RMK SC5AC3 SLP226

CYOW;2009-11-25 01:00;CYOW 250100Z 06004KT 7SM OVC044 05/04 A3017 RMK SC8 SLP221

CYOW;2009-11-25 02:00;CYOW 250200Z 06005KT 7SM FEW044 FEW070 04/04 A3016 RMK SC1AC1 SLP219

CYOW;2009-11-25 03:00;CYOW 250300Z 06006KT 7SM BKN044 BKN110 04/04 A3014 RMK SC6AC1 SLP213

CYOW;2009-11-25 04:00;CYOW 250400Z 07006KT 7SM -RA OVC040 04/04 A3013 RMK SC8 VRY LGT RA SLP209

CYOW;2009-11-25 04:27;CYOW 250427Z 07006KT 7SM OVC027 04/ RMK SC8

CYOW;2009-11-25 05:00;CYOW 250500Z 07006KT 7SM OVC025 04/04 A3012 RMK SC8 SLP205

CYOW;2009-11-25 05:42;CYOW 250542Z 07007KT 7SM -RA OVC025 04/ RMK SC8

CYOW;2009-11-25 06:00;CYOW 250600Z 07007KT 8SM OVC028 04/04 A3011 RMK SC8 INTMT -RA SLP199

CYOW;2009-11-25 07:00;CYOW 250700Z 08005KT 7SM OVC026 04/04 A3011 RMK SC8 INTMT -RA SLP201

CYOW;2009-11-25 07:16;CYOW 250716Z 07006KT 7SM OVC025 04/ RMK SC8

CYOW;2009-11-25 08:00;CYOW 250800Z 07004KT 7SM OVC025 04/04 A3011 RMK SC8 SLP199

CYOW;2009-11-25 08:12;CYOW 250812Z 07005KT 7SM -RA OVC025 04/ RMK SC8

CYOW;2009-11-25 09:00;CYOW 250900Z 08005KT 7SM FEW025 OVC050 04/04 A3008 RMK SC2SC6 INTMT -RA SLP192

CYOW;2009-11-25 10:00;CYOW 251000Z 08008KT 5SM BR FEW012 OVC032 04/04 A3006 RMK SC1SC7 INTMT -RA SLP184

CYOW;2009-11-25 10:21;CYOW 251021Z 08008KT 5SM BR FEW003 OVC033 04/ RMK SC2SC6 INTMT -RA

CYOW;2009-11-25 10:54;CYOW 251054Z 09009KT 5SM BR BKN005 OVC040 04/ RMK SC5SC3 INTMT -RA

CYOW;2009-11-25 11:00;CYOW 251100Z 09010KT 5SM BR BKN004 OVC038 04/04 A3005 RMK SC6SC2 SLP180

CYOW;2009-11-25 11:11;CYOW 251111Z 09010KT 5SM -RA BR BKN004 OVC038 04/ RMK SC6SC2

CYOW;2009-11-25 12:00;CYOW 251200Z 09009KT 5SM -RA BR BKN004 OVC038 04/04 A3003 RMK SC6SC2 SLP173

CYOW;2009-11-25 13:00;CYOW 251300Z 09010KT 3SM -RA BR OVC005 04/04 A3002 RMK SC8 SLP171

CYOW;2009-11-25 14:00;CYOW 251400Z 10012KT 3SM -RA BR OVC004 05/05 A3000 RMK SC8 VRY LGT RA SLP165

CYOW;2009-11-25 15:00;CYOW 251500Z 09008KT 3SM -RA BR BKN004 OVC030 05/05 A2998 RMK SC7SC1 VRY LGT RA SLP157

CYOW;2009-11-25 16:00;CYOW 251600Z 09010KT 3SM -DZ BR BKN005 OVC015 06/06 A2994 RMK SC7SC1 SLP143

CYOW;2009-11-25 17:00;CYOW 251700Z 08008KT 5SM BR SCT005 OVC027 07/06 A2990 RMK SC4SC4 SLP131

CYOW;2009-11-25 18:00;CYOW 251800Z 09009KT 4SM BR FEW005 SCT025 OVC054 07/07 A2987 RMK SC2SC2SC4 SLP120

CYOW;2009-11-25 19:00;CYOW 251900Z 09007G16KT 3SM BR SCT006 OVC025 07/07 A2985 RMK SC4SC4 SLP113

CYOW;2009-11-25 20:00;CYOW 252000Z 09007KT 5SM BR BKN006 OVC025 07/07 A2985 RMK SC6SC2 SLP114

CYOW;2009-11-25 20:37;CYOW 252037Z 09007KT 2SM -RA BR OVC005 07/ RMK SC8

CYOW;2009-11-25 21:00;CYOW 252100Z 09009KT 2 1/2SM -RA BR BKN006 OVC025 07/07 A2985 RMK SC7SC1 SLP111

CYOW;2009-11-25 22:00;CYOW 252200Z 09010KT 5SM -RA BR BKN004 OVC015 06/06 A2983 RMK SC6SC2 SLP107

CYOW;2009-11-25 22:40;CYOW 252240Z 09009KT 4SM BR OVC005 06/ RMK SC8

CYOW;2009-11-25 23:00;CYOW 252300Z 09009KT 4SM BR BKN004 OVC010 06/06 A2982 RMK SC7SC1 SLP102

CYOW;2009-11-25 23:27;CYOW 252327Z 10005KT 4SM BR OVC003 06/ RMK ST8 CIG RAG

CYOW;2009-11-25 23:44;CYOW 252344Z 10008KT 4SM -RA BR BKN002 OVC013 06/ RMK SF6SC2

CYOW;2009-11-26 00:00;CYOW 260000Z 11008KT 3SM -RA BR OVC002 07/07 A2980 RMK SC8 SLP096

CYOW;2009-11-26 01:00;CYOW 260100Z 14006KT 3SM -RA BR OVC002 08/08 A2980 RMK SC8 SLP095

CYOW;2009-11-26 02:00;CYOW 260200Z 15006KT 4SM BR SCT001 OVC041 08/08 A2979 RMK SC3SC5 SLP093

CYOW;2009-11-26 02:17;CYOW 260217Z 15006KT 4SM BR SCT002 OVC009 08/ RMK SC3SC5

CYOW;2009-11-26 03:00;CYOW 260300Z 18006KT 8SM FEW007 BKN011 OVC016 09/09 A2979 RMK SC2SC3SC3 SLP091

CYOW;2009-11-26 04:00;CYOW 260400Z 19006KT 10SM SCT007 BKN080 09/09 A2979 RMK SC4AC3 SLP093

CYOW;2009-11-26 05:00;CYOW 260500Z 20006KT 12SM FEW008 BKN018 BKN050 08/08 A2979 RMK SC1SC5SC1 SLP092

CYOW;2009-11-26 06:00;CYOW 260600Z 21008KT 12SM FEW025 07/07 A2981 RMK SC1 SLP097

CYOW;2009-11-26 07:00;CYOW 260700Z 22006KT 12SM OVC020 08/07 A2982 RMK SC8 SLP102

CYOW;2009-11-26 08:00;CYOW 260800Z 21005KT 15SM BKN020 07/07 A2982 RMK SC7 SLP103

CYOW;2009-11-26 09:00;CYOW 260900Z 20006KT 12SM BKN021 OVC070 07/07 A2982 RMK SC6AC2 SLP103

CYOW;2009-11-26 10:00;CYOW 261000Z 20005KT 12SM FEW015 OVC064 07/07 A2983 RMK SC2SC6 SLP105

CYOW;2009-11-26 11:00;CYOW 261100Z 20004KT 8SM FEW015 FEW025 BKN064 07/07 A2983 RMK SC1SC2SC5 SLP104

CYOW;2009-11-26 12:00;CYOW 261200Z 18003KT 8SM FEW015 BKN060 07/07 A2983 RMK SC2SC6 SLP105

CYOW;2009-11-26 13:00;CYOW 261300Z 16005KT 10SM FEW060 BKN150 06/06 A2983 RMK SC2AC2 SLP104

CYOW;2009-11-26 14:00;CYOW 261400Z 21002KT 15SM FEW015 SCT150 08/07 A2984 RMK SC1AC1 SLP107

CYOW;2009-11-26 15:00;CYOW 261500Z 20003KT 12SM BKN011 BKN100 08/08 A2984 RMK SC6AC2 SLP108

CYOW;2009-11-26 16:00;CYOW 261600Z 19006KT 12SM SCT012 OVC059 09/08 A2983 RMK SC3SC5 SLP105

CYOW;2009-11-26 17:00;CYOW 261700Z 19005KT 12SM FEW010 OVC058 09/08 A2982 RMK SC2SC6 SLP100

CYOW;2009-11-26 18:00;CYOW 261800Z 17005KT 12SM OVC060 09/08 A2979 RMK SC8 SLP093

CYOW;2009-11-26 19:00;CYOW 261900Z 18005KT 12SM OVC060 09/07 A2978 RMK SC8 SLP089

CYOW;2009-11-26 20:00;CYOW 262000Z 17004KT 12SM BKN064 09/07 A2978 RMK SC7 SLP089

CYOW;2009-11-26 21:00;CYOW 262100Z 11004KT 12SM SCT060 OVC075 08/07 A2978 RMK SC3AC5 SLP088

CYOW;2009-11-26 22:00;CYOW 262200Z 11004KT 12SM BKN055 OVC080 07/07 A2978 RMK SC5AC3 SLP087

CYOW;2009-11-26 23:00;CYOW 262300Z 10004KT 10SM OVC075 07/07 A2976 RMK AC8 SLP083

CYOW;2009-11-27 00:00;CYOW 270000Z 10004KT 10SM FEW070 SCT090 06/06 A2976 RMK AC2AC2 SLP081

CYOW;2009-11-27 01:00;CYOW 270100Z 07003KT 10SM BKN090 06/06 A2975 RMK AC7 SLP078

CYOW;2009-11-27 02:00;CYOW 270200Z 08003KT 10SM OVC073 06/06 A2974 RMK AC8 SLP074

CYOW;2009-11-27 03:00;CYOW 270300Z 25008KT 6SM -RA BR FEW003 BKN030 OVC070 06/06 A2973 RMK SC1SC4AC3 SLP073

CYOW;2009-11-27 04:00;CYOW 270400Z 34003KT 7SM -RA BKN034 OVC060 06/05 A2972 RMK SC6SC2 SLP067

CYOW;2009-11-27 04:46;CYOW 270446Z 34003KT 4SM -RA BR FEW002 OVC036 06/ RMK SC1SC7 VRY LGT RA

CYOW;2009-11-27 04:54;CYOW 270454Z 30003KT 2 1/2SM -RA BR OVC001 06/ RMK ST8 VRY LGT RA

CYOW;2009-11-27 05:00;CYOW 270500Z 30003KT 1 1/2SM -RA BR OVC001 06/06 A2969 RMK FG1ST7 VRY LGT RA SLP058

CYOW;2009-11-27 05:11;CYOW 270511Z 32003KT 1SM R07/P6000FT/D R32/P6000FT/U -RA BR VV001 06/ RMK FG8 VRY LGT RA

CYOW;2009-11-27 05:19;CYOW 270519Z 31004KT 1/2SM R07/3500VP6000FT/D R32/P6000FT/N -RA FG VV001 06/ RMK FG8 VRY LGT RA

CYOW;2009-11-27 06:00;CYOW 270600Z 32004KT 2SM R07/3000V5000FT/U R32/3000VP6000FT/U -RA BR OVC005 06/06 A2968 RMK FG1SC7 VIS E 1/2 FG SLP052

CYOW;2009-11-27 06:11;CYOW 270611Z 30004KT 2SM BR FEW004 OVC027 06/ RMK SF2SC6 INTMT -RA

CYOW;2009-11-27 06:45;CYOW 270645Z 32004KT 4SM -RA BR FEW004 OVC031 06/ RMK SC2SC6

CYOW;2009-11-27 07:00;CYOW 270700Z 30004KT 7SM -RA FEW002 OVC030 06/06 A2967 RMK SF1SC7 SLP051

CYOW;2009-11-27 08:00;CYOW 270800Z 30008KT 7SM -RA OVC027 06/06 A2966 RMK SC8 SLP048

CYOW;2009-11-27 09:00;CYOW 270900Z 31009KT 8SM -RA SCT027 OVC065 05/04 A2964 RMK SC4SC4 SLP040

CYOW;2009-11-27 10:00;CYOW 271000Z 31010KT 10SM -RA OVC025 04/04 A2963 RMK SC8 SLP038

CYOW;2009-11-27 11:00;CYOW 271100Z 32014KT 10SM -RA FEW004 OVC025 04/03 A2962 RMK SC1SC7 SLP035

CYOW;2009-11-27 12:00;CYOW 271200Z 31009KT 10SM -RA SCT009 OVC023 03/02 A2963 RMK SC3SC5 SLP037

CYOW;2009-11-27 13:00;CYOW 271300Z 31007KT 10SM -RA FEW010 OVC021 03/03 A2961 RMK SC2SC6 SLP031

CYOW;2009-11-27 14:00;CYOW 271400Z 29009KT 10SM -RA BKN015 OVC025 03/02 A2961 RMK SC5SC3 SLP031

CYOW;2009-11-27 14:35;CYOW 271435Z 27008KT 8SM -RA OVC007 03/ RMK SC8

CYOW;2009-11-27 15:00;CYOW 271500Z 27008KT 6SM -RA BR OVC006 02/02 A2962 RMK SC8 SLP033

CYOW;2009-11-27 16:00;CYOW 271600Z 27011KT 6SM -RA BR OVC006 02/02 A2958 RMK SC8 SLP021

CYOW;2009-11-27 17:00;CYOW 271700Z 30013KT 6SM -RA BR BKN005 OVC016 02/02 A2955 RMK SC6SC2 SLP011

CYOW;2009-11-27 18:00;CYOW 271800Z 30012KT 10SM -RA BKN007 OVC016 03/02 A2954 RMK SC5SC3 SLP007

CYOW;2009-11-27 19:00;CYOW 271900Z 29014KT 6SM -RA BR OVC006 03/03 A2951 RMK SC8 SLP998

CYOW;2009-11-27 20:00;CYOW 272000Z 30012KT 10SM -RA OVC006 03/03 A2951 RMK SC8 SLP998

CYOW;2009-11-27 21:00;CYOW 272100Z 29012KT 10SM -RA OVC006 03/03 A2951 RMK SC8 SLP997

CYOW;2009-11-27 22:00;CYOW 272200Z 30009KT 12SM -RA OVC004 03/03 A2950 RMK SC8 SLP993

CYOW;2009-11-27 23:00;CYOW 272300Z 29009KT 12SM -RA OVC003 03/03 A2950 RMK SC8 VRY LGT RA SLP993

CYOW;2009-11-28 00:00;CYOW 280000Z 30011KT 10SM -RA SCT003 OVC029 04/04 A2949 RMK SF3SC5 SLP992

CYOW;2009-11-28 00:17;CYOW 280017Z 29010KT 10SM FEW003 BKN027 OVC080 04/ RMK SF2SC4AC2

CYOW;2009-11-28 01:00;CYOW 280100Z 29010KT 12SM FEW005 BKN024 OVC095 04/04 A2948 RMK SF2SC3AC3 MOON DIMLY VISBL SLP987

CYOW;2009-11-28 02:00;CYOW 280200Z 29012KT 15SM BKN027 OVC110 06/05 A2947 RMK SC6AC2 SLP984

CYOW;2009-11-28 03:00;CYOW 280300Z 32013G19KT 15SM OVC023 07/05 A2947 RMK SC8 SLP982

CYOW;2009-11-28 04:00;CYOW 280400Z 30013G18KT 15SM BKN024 OVC040 06/05 A2947 RMK SC6SC2 SLP983

CYOW;2009-11-28 04:05;CYOW 280405Z 29014KT 15SM -SHRA BKN024 OVC040 06/ RMK SC6SC2

CYOW;2009-11-28 05:00;CYOW 280500Z 31017KT 15SM OVC018 06/05 A2946 RMK SC8 OCNL -SHRA SLP981

CYOW;2009-11-28 05:14;CYOW 280514Z 31018KT 15SM BKN018 06/ RMK SC7

CYOW;2009-11-28 06:00;CYOW 280600Z 33020G30KT 15SM BKN026 06/03 A2949 RMK SC7 SLP989

CYOW;2009-11-28 07:00;CYOW 280700Z 32022G28KT 15SM OVC028 05/02 A2951 RMK SC8 SLP996

CYOW;2009-11-28 08:00;CYOW 280800Z 31016G26KT 15SM OVC024 05/02 A2953 RMK SC8 SLP002

CYOW;2009-11-28 09:00;CYOW 280900Z 31015G24KT 15SM BKN026 04/01 A2955 RMK SC7 SLP010

CYOW;2009-11-28 10:00;CYOW 281000Z 31016G22KT 15SM BKN031 04/01 A2957 RMK SC7 SLP017

CYOW;2009-11-28 11:00;CYOW 281100Z 31018G24KT 15SM BKN025 03/M00 A2959 RMK SC6 SLP023

CYOW;2009-11-28 12:00;CYOW 281200Z 31017G22KT 15SM SCT020 BKN240 02/M01 A2960 RMK SC3CI1 SLP029

CYOW;2009-11-28 13:00;CYOW 281300Z CCA 31018KT 15SM SCT020 SCT240 02/M02 A2962 RMK SC3CI1 SLP035

CYOW;2009-11-28 14:00;CYOW 281400Z 30016G22KT 15SM FEW020 SCT240 02/M02 A2964 RMK SC2CI1 SLP042

CYOW;2009-11-28 15:00;CYOW 281500Z 31014G20KT 15SM FEW020 FEW240 02/M02 A2965 RMK SC2CI1 SLP046

CYOW;2009-11-28 16:00;CYOW 281600Z 29018KT 15SM FEW020 03/M02 A2965 RMK SC2 SLP046

CYOW;2009-11-28 17:00;CYOW 281700Z 28020G25KT 15SM FEW024 03/M02 A2966 RMK SC2 SLP047

CYOW;2009-11-28 18:00;CYOW 281800Z 28017G22KT 15SM FEW025 04/M01 A2966 RMK SC2 SLP048

CYOW;2009-11-28 19:00;CYOW 281900Z 27014G22KT 15SM SCT025 BKN240 04/M02 A2967 RMK SC3CI1 SLP051

CYOW;2009-11-28 20:00;CYOW 282000Z 28017G24KT 15SM FEW027 SCT240 03/M02 A2968 RMK SC2CI1 SLP056

CYOW;2009-11-28 21:00;CYOW 282100Z 29012G17KT 15SM FEW030 SCT180 SCT240 02/M02 A2970 RMK SC2AC2CI0 SLP062

CYOW;2009-11-28 22:00;CYOW 282200Z 29013G18KT 15SM BKN068 02/M02 A2971 RMK AC6 SLP066

CYOW;2009-11-28 23:00;CYOW 282300Z 28010KT 15SM BKN068 OVC130 02/M02 A2972 RMK AC5AC3 SLP068

CYOW;2009-11-29 00:00;CYOW 290000Z 28011KT 15SM BKN072 OVC130 02/M02 A2974 RMK AC6AC2 SLP077

CYOW;2009-11-29 01:00;CYOW 290100Z 28009KT 15SM FEW065 BKN080 OVC130 02/M01 A2976 RMK SC2AC5AC2 SLP083

CYOW;2009-11-29 02:00;CYOW 290200Z 28010G15KT 15SM SCT065 OVC082 02/M01 A2977 RMK SC3AC5 SLP085

CYOW;2009-11-29 03:00;CYOW 290300Z 27008KT 15SM FEW029 OVC070 02/M01 A2977 RMK SC2AC6 SLP085

CYOW;2009-11-29 04:00;CYOW 290400Z 27006KT 15SM FEW027 BKN070 02/M01 A2978 RMK SC2AC6 SLP089

CYOW;2009-11-29 05:00;CYOW 290500Z 25005KT 15SM BKN065 BKN083 01/M01 A2977 RMK SC6AC2 SLP087

CYOW;2009-11-29 06:00;CYOW 290600Z 24004KT 15SM BKN055 BKN083 01/M01 A2977 RMK SC6AC2 SLP086

CYOW;2009-11-29 07:00;CYOW 290700Z 24003KT 15SM BKN055 01/M01 A2978 RMK SC7 SLP089

CYOW;2009-11-29 08:00;CYOW 290800Z 25005KT 15SM BKN050 01/M01 A2979 RMK SC7 SLP091

CYOW;2009-11-29 09:00;CYOW 290900Z 23003KT 15SM OVC060 01/M00 A2979 RMK SC8 SLP093

CYOW;2009-11-29 10:00;CYOW 291000Z 23004KT 15SM OVC060 02/00 A2980 RMK SC8 SLP095

CYOW;2009-11-29 11:00;CYOW 291100Z 25004KT 15SM OVC065 02/01 A2980 RMK SC8 SLP095

CYOW;2009-11-29 12:00;CYOW 291200Z 30003KT 15SM BKN026 01/00 A2981 RMK SC5 SLP099

CYOW;2009-11-29 13:00;CYOW 291300Z 24002KT 15SM BKN025 01/00 A2982 RMK SC6 SLP103

CYOW;2009-11-29 14:00;CYOW 291400Z 22003KT 15SM BKN034 BKN240 02/01 A2982 RMK SC5CI0 SLP105

CYOW;2009-11-29 15:00;CYOW 291500Z 26003KT 15SM BKN036 BKN240 03/01 A2982 RMK SC5CI1 SLP104

CYOW;2009-11-29 16:00;CYOW 291600Z 35002KT 15SM FEW036 BKN200 04/00 A2980 RMK SC2CI3 SLP096

CYOW;2009-11-29 17:00;CYOW 291700Z 19004KT 15SM BKN020 BKN200 04/01 A2978 RMK SC5CI1 SLP090

CYOW;2009-11-29 18:00;CYOW 291800Z 18004KT 15SM SCT020 BKN200 06/01 A2976 RMK SC3CI1 SLP083

CYOW;2009-11-29 19:00;CYOW 291900Z 20006KT 15SM BKN039 BKN180 06/01 A2975 RMK SC5AC2 SLP078

CYOW;2009-11-29 20:00;CYOW 292000Z 19005KT 15SM FEW020 BKN038 BKN120 05/01 A2973 RMK CU2SC3AC1 SLP072

CYOW;2009-11-29 21:00;CYOW 292100Z 15003KT 15SM FEW020 OVC038 05/01 A2972 RMK CU2SC6 SLP070

CYOW;2009-11-29 22:00;CYOW 292200Z 12004KT 15SM OVC038 04/01 A2971 RMK SC8 SLP067

CYOW;2009-11-29 23:00;CYOW 292300Z 09004KT 15SM OVC039 04/01 A2969 RMK SC8 SLP059

CYOW;2009-11-29 23:47;CYOW 292347Z 13004KT 15SM -RA OVC037 04/ RMK NS8

CYOW;2009-11-30 00:00;CYOW 300000Z 12003KT 12SM -RA OVC037 04/02 A2969 RMK NS8 SLP060

CYOW;2009-11-30 01:00;CYOW 300100Z 04005KT 7SM -RA OVC024 03/03 A2967 RMK NS8 SLP053

CYOW;2009-11-30 02:00;CYOW 300200Z 04007KT 6SM -RA BR FEW006 OVC017 03/02 A2965 RERA RMK SF1NS7 SLP045

CYOW;2009-11-30 03:00;CYOW 300300Z 05009KT 5SM -RA BR SCT006 OVC017 02/02 A2963 RMK SF3NS5 SLP039

CYOW;2009-11-30 03:32;CYOW 300332Z 06009KT 5SM -RA BR BKN006 OVC021 02/ RMK SF5NS3

CYOW;2009-11-30 04:00;CYOW 300400Z 05006KT 4SM -RASN BR BKN004 OVC017 01/01 A2963 RMK SF6NS2 SLP038

CYOW;2009-11-30 04:22;CYOW 300422Z 07007KT 3SM -SN BR OVC004 01/ RMK SN1SF7

CYOW;2009-11-30 05:00;CYOW 300500Z 07006KT 3SM -SN BR OVC004 01/01 A2959 RMK FG1SF7 SLP027

CYOW;2009-11-30 05:26;CYOW 300526Z 05006KT 4SM BR OVC004 01/ RMK SF8

CYOW;2009-11-30 06:00;CYOW 300600Z 07004KT 5SM BR OVC004 01/01 A2958 RMK SF8 SLP022

CYOW;2009-11-30 06:18;CYOW 300618Z 06005KT 4SM -SN BR OVC004 01/ RMK SF8

CYOW;2009-11-30 07:00;CYOW 300700Z 01005KT 1 1/2SM -SN BR OVC004 00/00 A2959 RMK SN2SF6 SLP024

CYOW;2009-11-30 08:00;CYOW 300800Z 01005KT 1 1/4SM -SN BR OVC003 00/00 A2958 RMK SN2SF6 SLP022

CYOW;2009-11-30 09:00;CYOW 300900Z 35006KT 1 1/4SM -SN BR OVC003 00/00 A2958 RMK SN2SF6 SLP021

CYOW;2009-11-30 10:00;CYOW 301000Z 33005KT 1 1/2SM -SN BR OVC003 00/00 A2959 RMK SN2SF6 /S01/ SLP024

CYOW;2009-11-30 10:33;CYOW 301033Z 34006KT 3SM -SN BR OVC004 00/ RMK SN1SF7

CYOW;2009-11-30 11:00;CYOW 301100Z 33007KT 3SM -SN BR OVC003 00/00 A2961 RMK SN1SF7 SLP031

CYOW;2009-11-30 11:21;CYOW 301121Z 33007KT 10SM -SN OVC005 00/ RMK SF8

CYOW;2009-11-30 12:00;CYOW 301200Z 32008KT 10SM -SN FEW007 OVC020 00/00 A2964 RMK SF2NS6 /SO2/ SLP043

CYOW;2009-11-30 13:00;CYOW 301300Z 32009KT 5SM -SN FEW007 OVC038 M00/M01 A2967 RMK SF2NS6 SLP052

CYOW;2009-11-30 13:36;CYOW 301336Z 32009KT 2SM -SN FEW009 OVC040 M00/ RMK SF2NS6

CYOW;2009-11-30 13:45;CYOW 301345Z 32011KT 3SM -SN FEW009 OVC050 M00/ RMK SF1NS7

CYOW;2009-11-30 14:00;CYOW 301400Z 32010KT 4SM -SN FEW009 OVC053 M00/M01 A2969 RMK SF1NS7 SLP058

CYOW;2009-11-30 14:44;CYOW 301444Z 33009KT 15SM SCT010 BKN060 M00/ RMK SF3SC3

CYOW;2009-11-30 15:00;CYOW 301500Z 32013KT 15SM FEW010 BKN063 M00/M02 A2970 RMK SF2SC4 SLP063

CYOW;2009-11-30 16:00;CYOW 301600Z 33013KT 15SM BKN017 BKN070 M00/M02 A2972 RMK SC5AC2 SLP068

CYOW;2009-11-30 17:00;CYOW 301700Z 33012KT 15SM BKN024 BKN070 M00/M03 A2971 RMK SC6AC1 SLP066

CYOW;2009-11-30 18:00;CYOW 301800Z CCA 32008KT 15SM BKN020 00/M03 A2971 RMK SC7 SLP065

CYOW;2009-11-30 19:00;CYOW 301900Z 31013KT 15SM BKN028 M01/M04 A2972 RMK SC7 SLP069

CYOW;2009-11-30 20:00;CYOW 302000Z 32010KT 15SM BKN036 M01/M04 A2973 RMK SC7 SLP073

CYOW;2009-11-30 21:00;CYOW 302100Z 26007KT 15SM VCSH BKN037 M00/M03 A2975 RMK SC7 SNW SH N OVR HILLS SLP080

CYOW;2009-11-30 22:00;CYOW 302200Z 27007KT 15SM FEW020 OVC038 M01/M03 A2976 RMK CU2SC6 SLP084

CYOW;2009-11-30 23:00;CYOW 302300Z 27006KT 15SM FEW020 OVC040 M01/M03 A2977 RMK CU2SC6 SLP087

CYOW;2009-12-01 01:00;CYOW 010100Z 28003KT 15SM FEW038 M02/M05 A2979 RMK SC1 SLP092

CYOW;2009-12-01 02:00;CYOW 010200Z 23004KT 15SM FEW035 M02/M05 A2979 RMK SC1 FROIN SLP093

CYOW;2009-12-01 03:00;CYOW 010300Z 20002KT 15SM FEW050 M02/M04 A2978 RMK SC1 FROIN SLP090

CYOW;2009-12-01 04:00;CYOW 010400Z 19002KT 15SM BKN034 M03/M04 A2978 RMK SC6 FROIN SLP091

CYOW;2009-12-01 05:00;CYOW 010500Z CCA 15004KT 15SM BKN089 M03/M04 A2976 RMK AC6 FROIN SLP084

CYOW;2009-12-01 06:00;CYOW 010600Z 15005KT 15SM SCT040 BKN090 M03/M04 A2976 RMK SC3AC4 FROIN SLP084

CYOW;2009-12-01 07:00;CYOW 010700Z 17005KT 15SM BKN065 OVC090 M02/M03 A2976 RMK SC5AC3 FROIN SLP084

CYOW;2009-12-01 08:00;CYOW 010800Z 19005KT 15SM OVC078 M02/M03 A2976 RMK AC8 FROIN SLP082

CYOW;2009-12-01 09:00;CYOW 010900Z 18005KT 15SM FEW062 BKN076 M02/M03 A2973 RMK SC2AC3 FROIN SLP074

CYOW;2009-12-01 10:00;CYOW 011000Z CCA 18006KT 15SM SCT088 M02/M03 A2972 RMK AC4 FROIN SLP070

CYOW;2009-12-01 11:00;CYOW 011100Z 19006KT 15SM FEW100 SCT110 M02/M04 A2971 RMK AC2AC2 FROIN SLP068

CYOW;2009-12-01 12:00;CYOW 011200Z CCA 19004KT 15SM FEW025 BKN060 BKN100 M02/M03 A2973 RMK SC1SC5AC2 FROIN SLP073

CYOW;2009-12-01 13:00;CYOW 011300Z 17003KT 15SM FEW025 BKN054 BKN100 M02/M03 A2974 RMK SC1SC6AC1 FROIN SLP078

CYOW;2009-12-01 14:00;CYOW 011400Z 18004KT 15SM SCT014 OVC049 M01/M01 A2976 RMK SC3SC5 SLP082

CYOW;2009-12-01 14:15;CYOW 011415Z 18004KT 6SM -SN OVC013 M01/ RMK SC8

CYOW;2009-12-01 15:00;CYOW 011500Z 18004KT 10SM -SN SCT015 OVC036 00/M00 A2977 RMK SC3SC5 VRY LGT SN SLP086

CYOW;2009-12-01 15:25;CYOW 011525Z 19003KT 10SM -SN SCT007 BKN014 OVC036 00/ RMK SC3SC3SC2 VRY LGT SN

CYOW;2009-12-01 15:40;CYOW 011540Z 18003KT 10SM -SN BKN006 OVC014 01/ RMK SC5SC3 VRY LGT SN

CYOW;2009-12-01 16:00;CYOW 011600Z 20002KT 3SM -SN OVC005 01/00 A2977 RMK SC8 SLP086

CYOW;2009-12-01 16:21;CYOW 011621Z 00000KT 1SM -SN OVC005 00/ RMK SN5SC3

CYOW;2009-12-01 16:47;CYOW 011647Z 00000KT 8SM -SN OVC005 01/ RMK SC8

CYOW;2009-12-01 17:00;CYOW 011700Z 00000KT 4SM -SN OVC004 01/01 A2976 RMK SC8 SLP084

CYOW;2009-12-01 18:00;CYOW 011800Z 22004KT 15SM -SN BKN005 BKN035 01/01 A2977 RMK SC5SC2 SLP088

CYOW;2009-12-01 18:10;CYOW 011810Z 24003KT 15SM SCT007 BKN036 02/ RMK SC4SC2

CYOW;2009-12-01 19:00;CYOW 011900Z CCA 25005KT 15SM FEW018 BKN031 02/01 A2979 RMK CU2SC3 SLP092

CYOW;2009-12-01 20:00;CYOW 012000Z 26006KT 15SM BKN019 02/00 A2981 RMK SC7 CU EMBD SLP100

CYOW;2009-12-01 21:00;CYOW 012100Z 25004KT 15SM SCT026 02/00 A2984 RMK SC4 SLP109

CYOW;2009-12-01 22:00;CYOW 012200Z 24003KT 15SM BKN030 01/M00 A2987 RMK SC6 SLP119

CYOW;2009-12-01 23:00;CYOW 012300Z 24004KT 15SM SCT035 01/M00 A2989 RMK SC3 SLP128

CYOW;2009-12-02 00:00;CYOW 020000Z 23002KT 15SM FEW011 BKN023 01/M00 A2992 RMK SC1SC6 SLP139

CYOW;2009-12-02 01:00;CYOW 020100Z 20003KT 15SM FEW022 BKN054 00/M00 A2995 RMK SC2SC6 SLP147

CYOW;2009-12-02 02:00;CYOW 020200Z 22004KT 15SM BKN055 00/M01 A2996 RMK SC5 SLP153

CYOW;2009-12-02 03:00;CYOW 020300Z 22003KT 15SM FEW050 M00/M01 A2997 RMK SC1 SLP154

CYOW;2009-12-02 04:00;CYOW 020400Z 20004KT 15SM SKC M01/M01 A2998 RMK SLP159

CYOW;2009-12-02 05:00;CYOW 020500Z 20004KT 15SM SKC M00/M01 A2999 RMK FROIN SLP160

CYOW;2009-12-02 06:00;CYOW 020600Z 20004KT 15SM SKC M01/M01 A2999 RMK FROIN PRESRR SLP162

CYOW;2009-12-02 07:00;CYOW 020700Z 19004KT 15SM SKC M01/M01 A2999 RMK FROIN SLP163

CYOW;2009-12-02 08:00;CYOW 020800Z 00000KT 15SM SKC M01/M02 A3000 RMK FROIN SLP166

CYOW;2009-12-02 09:00;CYOW 020900Z 14002KT 15SM R07/2800FT/N R32/3000V5000FT/D PRFG SKC M02/M02 A3000 RMK FROIN SLP166

CYOW;2009-12-02 09:05;CYOW 020905Z 12002KT 1 1/2SM R07/2400FT/N R32/2800VP6000FT/U BR SKC M02/ RMK FG1 FROIN VIS E 4

CYOW;2009-12-02 09:18;CYOW 020918Z 17005KT 1/2SM R07/2800V4000FT/N R32/P6000FT/D FZFG SKC M03/ RMK FG1 FROIN VIS W 2

CYOW;2009-12-02 09:31;CYOW 020931Z 16004KT 15SM MIFG FEW003 M02/ RMK SC2 FROIN

CYOW;2009-12-02 09:52;CYOW 020952Z 14003KT 1/2SM R07/2000FT/N R32/2200FT/N FZFG SCT045 M04/ RMK FG1SC3 FROIN VIS S 8

CYOW;2009-12-02 10:00;CYOW 021000Z 14003KT 1/2SM R07/3000FT/N R32/2600V4000FT/N FZFG BKN045 M04/M04 A3000 RMK FG1SC6 FROIN SLP166

CYOW;2009-12-02 10:09;CYOW 021009Z 15003KT 8SM R07/4000VP6000FT/U R32/P6000FT/U FEW003 OVC044 M03/ RMK SC1SC8 FROIN

CYOW;2009-12-02 11:00;CYOW 021100Z 13002KT 15SM FEW003 OVC040 M01/M01 A3001 RMK SC1SC8 FROIN SLP167

CYOW;2009-12-02 12:00;CYOW 021200Z 08003KT 15SM FEW003 OVC031 M01/M01 A3000 RMK SC1SC8 FROIN SLP164

CYOW;2009-12-02 13:00;CYOW 021300Z 08004KT 6SM BR FEW003 OVC040 M01/M01 A2999 RMK SC1SC8 FROIN SLP163

CYOW;2009-12-02 14:00;CYOW 021400Z CCA 09003KT 6SM BR OVC037 00/00 A2999 RMK SC8 FROIN SLP162

CYOW;2009-12-02 15:00;CYOW 021500Z 12004KT 10SM BKN031 BKN060 02/02 A2999 RMK SC5SC2 SLP161

CYOW;2009-12-02 16:00;CYOW 021600Z 18008KT 15SM FEW160 BKN210 06/03 A2995 RMK AC1CI2 SLP147

CYOW;2009-12-02 17:00;CYOW 021700Z 18007KT 15SM FEW160 FEW210 07/03 A2991 RMK AC1CI1 SLP134

CYOW;2009-12-02 18:00;CYOW 021800Z 18007KT 15SM FEW210 08/02 A2988 RMK CI1 SLP122

CYOW;2009-12-02 19:00;CYOW 021900Z 17008KT 15SM FEW170 SCT210 08/03 A2988 RMK AC1CI2 SLP121

CYOW;2009-12-02 20:00;CYOW 022000Z 18005KT 15SM FEW170 BKN210 08/02 A2987 RMK AC1CI2 SLP120

CYOW;2009-12-02 21:00;CYOW 022100Z 13004KT 15SM FEW140 BKN230 05/02 A2987 RMK AC2CI4 SLP119

CYOW;2009-12-02 22:00;CYOW 022200Z 09004KT 15SM SCT140 BKN220 04/01 A2985 RMK AC3CI4 SLP113

CYOW;2009-12-02 23:00;CYOW 022300Z 09005KT 15SM SCT140 OVC180 04/02 A2983 RMK AC3AC5 SLP108

CYOW;2009-12-03 00:00;CYOW 030000Z 10006KT 15SM OVC160 05/02 A2983 RMK AS8 SLP106

CYOW;2009-12-03 01:00;CYOW 030100Z 06004KT 15SM OVC120 04/02 A2981 RMK AS8 MOON DIMLY VSBL SLP100

CYOW;2009-12-03 02:00;CYOW 030200Z 06006KT 10SM OVC120 03/02 A2979 RMK AS8 SLP095

CYOW;2009-12-03 03:00;CYOW 030300Z 07007KT 8SM OVC060 03/02 A2976 RMK SC8 SLP083

CYOW;2009-12-03 03:31;CYOW 030331Z 08007KT 8SM OVC060 02/ RMK SC8 MOON VISBL

CYOW;2009-12-03 03:42;CYOW 030342Z 09005KT 8SM -RA OVC060 02/ RMK SC8

CYOW;2009-12-03 04:00;CYOW 030400Z 09006KT 5SM -RA BR FEW016 OVC046 03/02 A2973 RMK SC2SC6 SLP071

CYOW;2009-12-03 04:45;CYOW 030445Z 07009KT 2SM RA BR OVC025 03/ RMK NS8

CYOW;2009-12-03 05:00;CYOW 030500Z 07009KT 2SM RA BR OVC020 03/03 A2966 RMK SC8 SLP048

CYOW;2009-12-03 05:27;CYOW 030527Z 06011KT 2SM RA BR OVC002 03/ RMK NS8

CYOW;2009-12-03 06:00;CYOW 030600Z 06010KT 1 1/2SM RA BR OVC002 03/03 A2959 RMK NS8 SLP022

CYOW;2009-12-03 07:00;CYOW 030700Z 06012KT 2SM -RA BR OVC003 04/04 A2952 RERA RMK NS8 PRESFR SLP000

CYOW;2009-12-03 08:00;CYOW 030800Z 06015KT 3SM -RA BR OVC003 04/04 A2945 RMK NS8 PRESFR SLP978

CYOW;2009-12-03 09:00;CYOW 030900Z 07016G21KT 4SM RA BR OVC004 05/05 A2939 RMK SC8 PRESFR SLP955

CYOW;2009-12-03 10:00;CYOW 031000Z CCA 07017KT 5SM RA BR OVC005 04/04 A2932 RMK SC8 PRESFR /R12/ SLP932

CYOW;2009-12-03 11:00;CYOW 031100Z 07013KT 5SM -RA BR OVC005 05/05 A2928 RERA RMK SC8 SLP918

CYOW;2009-12-03 12:00;CYOW 031200Z 07015KT 5SM -RA BR OVC005 05/05 A2923 RMK SC8 SLP903

CYOW;2009-12-03 13:00;CYOW 031300Z 06011KT 6SM -RA BR BKN005 OVC025 06/06 A2922 RMK SC7SC1 SLP898

CYOW;2009-12-03 14:00;CYOW 031400Z 07007KT 6SM -RA BR BKN007 OVC025 06/06 A2924 RMK SC6SC2 SLP904

CYOW;2009-12-03 15:00;CYOW 031500Z CCA 05006KT 4SM -DZ BR OVC003 06/06 A2926 RMK SC8 SLP912

CYOW;2009-12-03 16:00;CYOW 031600Z 03003KT 3SM -DZ BR OVC006 06/06 A2928 RMK SC8 SLP918

CYOW;2009-12-03 16:53;CYOW 031653Z 02004KT 6SM -DZ BR FEW004 OVC014 07/ RMK SC2SC6

CYOW;2009-12-03 17:00;CYOW 031700Z 01003KT 6SM -DZ BR FEW004 OVC014 07/07 A2929 RMK SC2SC6 SLP922

CYOW;2009-12-03 17:47;CYOW 031747Z 33005KT 3SM -DZ BR OVC005 06/ RMK FG1SF7

CYOW;2009-12-03 18:00;CYOW 031800Z 33004KT 3SM -DZ BR OVC005 06/06 A2933 RMK FG1SF7 SLP934

CYOW;2009-12-03 18:17;CYOW 031817Z 28009KT 1 1/4SM -DZ BR OVC004 06/ RMK FG3SF5

CYOW;2009-12-03 19:00;CYOW 031900Z 29009KT 3SM -DZ BR OVC004 06/06 A2937 RMK FG1SF7 SLP949

CYOW;2009-12-03 19:18;CYOW 031918Z 29009KT 12SM OVC004 06/ RMK SF8

CYOW;2009-12-03 20:00;CYOW 032000Z 27010KT 15SM OVC004 05/05 A2944 RMK SF8 PRESRR SLP971

CYOW;2009-12-03 20:18;CYOW 032018Z 27009G17KT 15SM OVC006 05/ RMK SF8

CYOW;2009-12-03 21:00;CYOW 032100Z 27014G21KT 10SM -DZ OVC007 05/05 A2951 RMK SF8 PRESRR SLP996

CYOW;2009-12-03 21:48;CYOW 032148Z 27014G19KT 15SM OVC009 04/ RMK SC8

CYOW;2009-12-03 22:00;CYOW 032200Z 27014KT 15SM OVC009 05/04 A2956 RMK SC8 SLP014

CYOW;2009-12-03 22:23;CYOW 032223Z 27015G21KT 15SM OVC012 04/ RMK SC8

CYOW;2009-12-03 23:00;CYOW 032300Z 26012KT 15SM OVC012 04/03 A2962 RMK SC8 SLP033

CYOW;2009-12-04 00:00;CYOW 040000Z 26014KT 15SM OVC012 04/02 A2967 RMK SC8 SLP052

CYOW;2009-12-04 00:38;CYOW 040038Z 27010KT 15SM FEW012 FEW016 OVC030 04/ RMK SC1SC2SC6

CYOW;2009-12-04 01:00;CYOW 040100Z 27009KT 15SM FEW012 OVC018 03/02 A2971 RMK SC1SC7 SLP065

CYOW;2009-12-04 02:00;CYOW 040200Z 26008KT 15SM FEW013 OVC020 03/02 A2974 RMK SC2SC6 SLP076

CYOW;2009-12-04 03:00;CYOW 040300Z 27004KT 15SM FEW013 OVC018 03/02 A2975 RMK SC1SC7 SLP079

CYOW;2009-12-04 04:00;CYOW 040400Z 27004KT 12SM SCT012 OVC020 03/02 A2978 RMK SC3SC5 SLP089

CYOW;2009-12-04 05:00;CYOW 040500Z 25005KT 12SM FEW013 OVC034 03/02 A2980 RMK SC1SC7 SLP095

CYOW;2009-12-04 06:00;CYOW 040600Z 22005KT 15SM FEW025 BKN033 03/01 A2982 RMK SC1SC7 SLP102

CYOW;2009-12-04 07:00;CYOW 040700Z 22005KT 15SM FEW016 FEW030 02/01 A2984 RMK SC1SC2 SLP109

CYOW;2009-12-04 08:00;CYOW 040800Z 22006KT 15SM OVC030 02/00 A2987 RMK SC8 SLP119

CYOW;2009-12-04 09:00;CYOW 040900Z 22006KT 15SM FEW032 01/M00 A2989 RMK SC2 SLP126

CYOW;2009-12-04 10:00;CYOW 041000Z 22005KT 15SM FEW038 00/M01 A2990 RMK SC2 SLP130

CYOW;2009-12-04 11:00;CYOW 041100Z 20005KT 15SM FEW025 FEW040 M00/M01 A2991 RMK SC1SC1 SLP135

CYOW;2009-12-04 12:00;CYOW 041200Z 21005KT 15SM FEW040 M00/M01 A2993 RMK SC2 FROIN SLP141

CYOW;2009-12-04 13:00;CYOW 041300Z 20003KT 15SM FEW040 M00/M01 A2995 RMK SC2 FROIN SLP147

CYOW;2009-12-04 14:00;CYOW 041400Z 23006KT 15SM FEW010 FEW040 01/M01 A2998 RMK CF1SC2 SLP156

CYOW;2009-12-04 15:00;CYOW 041500Z 23010KT 15SM FEW060 BKN090 02/M02 A3000 RMK SC2AC3 SLP163

CYOW;2009-12-04 16:00;CYOW 041600Z 23009KT 15SM FEW020 OVC055 03/M01 A2999 RMK CU2SC6 SLP162

CYOW;2009-12-04 17:00;CYOW 041700Z 21008KT 15SM FEW020 BKN057 03/M03 A2999 RMK CU2SC6 SLP160

CYOW;2009-12-04 18:00;CYOW 041800Z 19008KT 15SM FEW020 BKN070 02/M00 A2999 RMK CU2AC5 SLP160

CYOW;2009-12-04 19:00;CYOW 041900Z 20013KT 15SM SCT020 BKN070 04/M01 A2999 RMK CU3AC2 SLP159

CYOW;2009-12-04 20:00;CYOW 042000Z 21008KT 15SM BKN040 04/M02 A2999 RMK CU5 SLP162

CYOW;2009-12-04 21:00;CYOW 042100Z 23012G17KT 15SM SCT050 04/M07 A3001 RMK CU4 SLP167

CYOW;2009-12-04 22:00;CYOW 042200Z 21009KT 15SM BKN067 02/M05 A3005 RMK AC6 SLP179

CYOW;2009-12-04 23:00;CYOW 042300Z 20006KT 15SM FEW067 01/M05 A3008 RMK AC1 SLP189

CYOW;2009-12-05 00:00;CYOW 050000Z 20005KT 15SM FEW070 M00/M05 A3009 RMK AC1 SLP194

CYOW;2009-12-05 01:00;CYOW 050100Z 22009KT 15SM FEW070 00/M06 A3010 RMK AC1 SLP198

CYOW;2009-12-05 02:00;CYOW 050200Z 23006KT 15SM FEW070 M00/M06 A3011 RMK AC1 FROIN SLP202

CYOW;2009-12-05 03:00;CYOW 050300Z 22004KT 15SM FEW170 M01/M06 A3014 RMK AC1 FROIN SLP211

CYOW;2009-12-05 04:00;CYOW 050400Z 22004KT 15SM FEW170 M02/M06 A3014 RMK AC1 FROIN SLP213

CYOW;2009-12-05 05:00;CYOW 050500Z 21004KT 15SM FEW170 M02/M06 A3013 RMK AC1 FROIN SLP207

CYOW;2009-12-05 06:00;CYOW 050600Z 20003KT 15SM SCT150 M02/M06 A3015 RMK AC4 FROIN SLP215

CYOW;2009-12-05 07:00;CYOW 050700Z 21004KT 15SM SCT150 BKN160 M03/M06 A3017 RMK AC3AC2 FROIN SLP223

CYOW;2009-12-05 08:00;CYOW 050800Z CCA 24003KT 15SM BKN160 M02/M07 A3017 RMK AC6 FROIN SLP223

CYOW;2009-12-05 09:00;CYOW 050900Z 07002KT 15SM BKN170 M03/M06 A3018 RMK AC6 FROIN SLP225

CYOW;2009-12-05 10:00;CYOW 051000Z 11002KT 15SM BKN170 M04/M07 A3018 RMK AC6 FROIN SLP225

CYOW;2009-12-05 11:00;CYOW 051100Z 18003KT 15SM BKN180 M03/M06 A3016 RMK AC6 FROIN SLP220

CYOW;2009-12-05 12:00;CYOW 051200Z 17005KT 10SM BKN180 M04/M06 A3018 RMK AS3 FROIN SLP225

CYOW;2009-12-05 13:00;CYOW 051300Z CCA 00000KT 12SM BKN160 M04/M06 A3018 RMK AS2 SLP226

CYOW;2009-12-05 14:00;CYOW 051400Z 20002KT 12SM BKN210 M03/M05 A3016 RMK CI3 SLP220

CYOW;2009-12-05 15:00;CYOW 051500Z 21003KT 10SM OVC180 M01/M05 A3018 RMK AS7 SLP225

CYOW;2009-12-05 16:00;CYOW 051600Z 17004KT 10SM BKN190 M00/M05 A3015 RMK AS6 SLP216

CYOW;2009-12-05 17:00;CYOW 051700Z 18004KT 10SM OVC210 M00/M05 A3011 RMK CI3 SLP204

CYOW;2009-12-05 18:00;CYOW 051800Z 10002KT 10SM FEW020 BKN210 01/M05 A3008 RMK CU1CI3 TR CU SLP192

CYOW;2009-12-05 19:00;CYOW 051900Z 00000KT 12SM BKN180 00/M07 A3007 RMK AS5 SLP190

CYOW;2009-12-05 20:00;CYOW 052000Z 17002KT 12SM OVC180 00/M07 A3008 RMK AS8 SLP191

CYOW;2009-12-05 21:00;CYOW 052100Z 00000KT 12SM BKN180 00/M06 A3008 RMK AS5 SLP192

CYOW;2009-12-05 22:00;CYOW 052200Z 18002KT 12SM BKN180 M01/M06 A3008 RMK AS7 SLP193

CYOW;2009-12-05 23:00;CYOW 052300Z 09002KT 12SM OVC220 M01/M06 A3007 RMK CI6 SLP189

CYOW;2009-12-06 00:00;CYOW 060000Z 12002KT 10SM OVC200 M02/M05 A3005 RMK CS6 SLP184

CYOW;2009-12-06 01:00;CYOW 060100Z 00000KT 8SM OVC220 M03/M06 A3004 RMK CS5 SLP180

CYOW;2009-12-06 02:00;CYOW 060200Z 00000KT 8SM OVC210 M03/M06 A3004 RMK CS5 SLP178

CYOW;2009-12-06 03:00;CYOW 060300Z 24002KT 8SM BKN210 M02/M05 A3003 RMK CI3 SLP175

CYOW;2009-12-06 04:00;CYOW 060400Z 32006KT 6SM BR FEW044 SCT230 M05/M06 A3003 RMK SC2CI2 SLP176

CYOW;2009-12-06 05:00;CYOW 060500Z 29002KT 5SM BR SCT048 M04/M05 A3002 RMK SC4 SLP173

CYOW;2009-12-06 06:00;CYOW 060600Z 31003KT 5SM BR BKN046 M04/M05 A3002 RMK SC6 SLP174

CYOW;2009-12-06 07:00;CYOW 060700Z 26004KT 5SM BR FEW045 M05/M06 A3004 RMK SC2 SLP179

CYOW;2009-12-06 08:00;CYOW 060800Z 27005KT 12SM SCT042 M04/M07 A3005 RMK SC3 SLP181

CYOW;2009-12-06 09:00;CYOW 060900Z 24004KT 10SM SCT041 SCT055 M05/M07 A3005 RMK SC3SC1 FROIN SLP181

CYOW;2009-12-06 10:00;CYOW 061000Z 23004KT 15SM FEW040 BKN065 M05/M07 A3005 RMK SC2SC3 FROIN SLP182

CYOW;2009-12-06 11:00;CYOW 061100Z 21005KT 15SM BKN065 M05/M07 A3006 RMK SC6 FROIN SLP185

CYOW;2009-12-06 12:00;CYOW 061200Z 22005KT 12SM OVC075 M04/M06 A3007 RMK AC8 FROIN SLP189

CYOW;2009-12-06 13:00;CYOW 061300Z 21005KT 12SM BKN073 M04/M06 A3008 RMK AC7 SLP194

CYOW;2009-12-06 14:00;CYOW 061400Z 23005KT 15SM OVC080 M03/M05 A3010 RMK AC8 SLP199

CYOW;2009-12-06 15:00;CYOW 061500Z 24009KT 15SM FEW080 FEW240 M02/M05 A3011 RMK AC2CI0 SLP204

CYOW;2009-12-06 16:00;CYOW 061600Z 26011KT 15SM FEW020 SCT080 M00/M05 A3011 RMK CU2AC1 SLP203

CYOW;2009-12-06 17:00;CYOW 061700Z 27013G18KT 15SM SCT024 01/M07 A3011 RMK CU3 SLP201

CYOW;2009-12-06 18:00;CYOW 061800Z 27014KT 15SM FEW040 01/M09 A3011 RMK CU2 SLP201

CYOW;2009-12-06 19:00;CYOW 061900Z 27011KT 15SM FEW040 01/M09 A3011 RMK CU2 SLP201

CYOW;2009-12-06 20:00;CYOW 062000Z 27011KT 15SM BKN050 02/M09 A3011 RMK CU6 VIRGA SLP204

CYOW;2009-12-06 21:00;CYOW 062100Z 27007KT 15SM OVC044 01/M08 A3013 RMK SC8 VIRGA SLP210

CYOW;2009-12-06 22:00;CYOW 062200Z 25010KT 12SM OVC036 00/M06 A3014 RMK SC8 SLP214

CYOW;2009-12-06 23:00;CYOW 062300Z 26006KT 12SM OVC042 00/M06 A3015 RMK SC8 SLP217

CYOW;2009-12-06 23:33;CYOW 062333Z 24004KT 12SM -SN OVC038 00/ RMK SC8

CYOW;2009-12-07 00:00;CYOW 070000Z 26007KT 8SM -SN OVC037 M00/M04 A3016 RMK SC8 SLP219

CYOW;2009-12-07 01:00;CYOW 070100Z 25002KT 6SM -SN OVC033 M01/M04 A3017 RMK SC8 SLP222

CYOW;2009-12-07 02:00;CYOW 070200Z 32003KT 7SM -SN OVC034 M02/M03 A3016 RMK SC8 SLP220

CYOW;2009-12-07 03:00;CYOW 070300Z 00000KT 6SM -SN OVC043 M02/M03 A3017 RMK SC8 /S01/ SLP222

CYOW;2009-12-07 04:00;CYOW 070400Z 34003KT 10SM -SN OVC038 M02/M02 A3018 RMK SC8 SLP225

CYOW;2009-12-07 04:22;CYOW 070422Z 34005KT 15SM OVC030 M02/ RMK SC8

CYOW;2009-12-07 05:00;CYOW 070500Z 36005KT 15SM FEW011 OVC027 M02/M02 A3019 RMK SC2SC6 SLP228

CYOW;2009-12-07 05:10;CYOW 070510Z 36005KT 12SM -SN FEW010 OVC024 M02/ RMK SC2SC6

CYOW;2009-12-07 06:00;CYOW 070600Z 32005KT 12SM -SN OVC017 M02/M04 A3020 RMK SC8 SLP232

CYOW;2009-12-07 07:00;CYOW 070700Z 27003KT 15SM -SN OVC021 M02/M04 A3021 RMK SC8 SLP237

CYOW;2009-12-07 07:37;CYOW 070737Z 29002KT 15SM BKN025 M03/ RMK SC7

CYOW;2009-12-07 08:00;CYOW 070800Z 26004KT 15SM BKN030 M03/M05 A3022 RMK SC6 SLP240

CYOW;2009-12-07 09:00;CYOW 070900Z 26004KT 15SM BKN033 M04/M05 A3023 RMK SC6 SLP244

CYOW;2009-12-07 10:00;CYOW 071000Z 32002KT 15SM FEW033 BKN180 M04/M05 A3023 RMK SC2AC3 SLP243

CYOW;2009-12-07 11:00;CYOW 071100Z 00000KT 15SM FEW035 SCT075 BKN170 M04/M05 A3023 RMK SC2AC2AC4 SLP243

CYOW;2009-12-07 12:00;CYOW 071200Z 00000KT 15SM FEW140 SCT180 M04/M05 A3022 RMK AC2AC1 SLP242

CYOW;2009-12-07 13:00;CYOW 071300Z 00000KT 15SM FEW004 BKN054 BKN170 M04/M05 A3023 RMK SC1SC6AC2 SLP245

CYOW;2009-12-07 14:00;CYOW 071400Z 00000KT 15SM FEW003 OVC052 M04/M04 A3023 RMK SC1SC8 SLP244

CYOW;2009-12-07 14:28;CYOW 071428Z 17002KT 15SM -SN FEW003 OVC058 M03/ RMK SC1SC7

CYOW;2009-12-07 15:00;CYOW 071500Z 16002KT 15SM FEW004 FEW040 OVC055 M03/M04 A3022 RMK SC1SC1SC7 INTMT -SN SLP242

CYOW;2009-12-07 16:00;CYOW 071600Z 00000KT 5SM -SN BR BKN006 OVC034 M02/M04 A3020 RMK SC5SC3 SLP233

CYOW;2009-12-07 16:29;CYOW 071629Z 18002KT 5SM -SN BR FEW009 OVC012 M02/ RMK SC2SC6

CYOW;2009-12-07 17:00;CYOW 071700Z 00000KT 4SM -SN BR SCT007 OVC013 M02/M03 A3017 RMK SC4SC4 SLP223

CYOW;2009-12-07 17:20;CYOW 071720Z 00000KT 2 1/2SM -SN BR SCT009 OVC013 M02/ RMK SC4SC4

CYOW;2009-12-07 18:00;CYOW 071800Z 00000KT 3SM -SN BR SCT008 OVC043 M02/M04 A3014 RMK SC3SC5 SLP212

CYOW;2009-12-07 19:00;CYOW 071900Z 00000KT 4SM -SN BR SCT016 OVC037 M02/M04 A3012 RMK SC3SC5 SLP205

CYOW;2009-12-07 19:17;CYOW 071917Z 03002KT 2SM -SN BR FEW009 OVC025 M02/ RMK SC1SC7

CYOW;2009-12-07 19:30;CYOW 071930Z 05002KT 1SM R07/P6000FT/N R32/P6000FT/U -SN BR FEW006 OVC011 M02/ RMK SN1SC1SC7

CYOW;2009-12-07 20:00;CYOW 072000Z 07002KT 3SM -SN BR BKN006 OVC035 M02/M03 A3012 RMK SC6SC2 SLP205

CYOW;2009-12-07 20:16;CYOW 072016Z 09004KT 2SM -SN BR BKN006 OVC012 M02/ RMK SC6SC2

CYOW;2009-12-07 20:41;CYOW 072041Z 08004KT 2SM -SN BR SCT006 OVC021 M02/ RMK SC3SC5

CYOW;2009-12-07 21:00;CYOW 072100Z 08004KT 2SM -SN BR FEW006 OVC020 M02/M03 A3012 RMK SC2SC6 /S01/ SLP205

CYOW;2009-12-07 21:05;CYOW 072105Z 09005KT 1SM R07/P6000FT/N R32/P6000FT/U -SHSN BR VV010 M02/ RMK SN8

CYOW;2009-12-07 21:26;CYOW 072126Z 08004KT 2SM -SN BR OVC030 M02/ RMK SN2SC6

CYOW;2009-12-07 22:00;CYOW 072200Z 08004KT 3SM -SN BR OVC030 M03/M03 A3012 RMK SN1SC7 SLP205

CYOW;2009-12-07 22:27;CYOW 072227Z 07004KT 3SM -SN BR FEW007 OVC020 M03/ RMK SN1SC1SC6

CYOW;2009-12-07 23:00;CYOW 072300Z 08002KT 5SM -SN BR FEW006 OVC030 M03/M03 A3012 RMK SC2SC6 SLP207

CYOW;2009-12-08 00:00;CYOW 080000Z 07003KT 8SM -SN FEW006 BKN030 OVC045 M03/M03 A3012 RMK SF1SC6SC2 VRY LGT SN SLP208

CYOW;2009-12-08 01:00;CYOW 080100Z 07003KT 8SM -SN OVC025 M03/M04 A3012 RMK SC8 SLP207

CYOW;2009-12-08 02:00;CYOW 080200Z 04002KT 10SM -SN FEW006 OVC024 M03/M04 A3012 RMK SF1SC8 SLP206

CYOW;2009-12-08 02:48;CYOW 080248Z 05003KT 2SM -SN OVC027 M03/ RMK SC8

CYOW;2009-12-08 03:00;CYOW 080300Z 04004KT 4SM -SN BR BKN022 OVC030 M03/M04 A3012 RMK SC6SC2 SLP206

CYOW;2009-12-08 04:00;CYOW 080400Z 36003KT 5SM -SN BR OVC024 M03/M04 A3014 RMK SC8 SLP212

CYOW;2009-12-08 04:36;CYOW 080436Z 06003KT 10SM SCT015 OVC040 M03/ RMK SC4SC4

CYOW;2009-12-08 05:00;CYOW 080500Z 36004KT 10SM SCT013 OVC038 M03/M04 A3014 RMK SC3SC5 FROIN SLP211

CYOW;2009-12-08 05:24;CYOW 080524Z 32002KT 8SM -SN SCT008 OVC012 M03/ RMK SC3SC5 VRY LGT SN

CYOW;2009-12-08 06:00;CYOW 080600Z 33006KT 6SM -SN BKN015 OVC024 M03/M05 A3015 RMK SC5SC3 SLP216

CYOW;2009-12-08 06:32;CYOW 080632Z 34007KT 10SM -SN OVC018 M03/ RMK SC8

CYOW;2009-12-08 07:00;CYOW 080700Z 32007KT 4SM -SN BR OVC021 M03/M05 A3017 RMK SC8 SLP223

CYOW;2009-12-08 08:00;CYOW 080800Z 34006KT 10SM -SN OVC032 M04/M06 A3019 RMK SC8 SLP229

CYOW;2009-12-08 08:38;CYOW 080838Z 33006KT 10SM OVC038 M04/ RMK SC8

CYOW;2009-12-08 09:00;CYOW 080900Z 33008KT 10SM OVC040 M04/M07 A3020 RMK SC8 FROIN SLP235

CYOW;2009-12-08 10:00;CYOW 081000Z 34006KT 12SM FEW008 BKN051 M04/M07 A3023 RMK SF1SC7 SLP245

CYOW;2009-12-08 11:00;CYOW 081100Z 33006KT 15SM FEW008 SCT054 M06/M08 A3026 RMK SF1SC3 SLP254

CYOW;2009-12-08 12:00;CYOW 081200Z 23006KT 15SM FEW050 M07/M09 A3028 RMK SC2 SLP260

CYOW;2009-12-08 13:00;CYOW 081300Z 31003KT 15SM FEW050 M07/M08 A3029 RMK SC2 SLP266

CYOW;2009-12-08 14:00;CYOW 081400Z 27003KT 15SM FEW043 FEW160 M05/M07 A3032 RMK SC2AC0 SLP275

CYOW;2009-12-08 15:00;CYOW 081500Z 31005KT 15SM FEW040 M04/M07 A3034 RMK SC1 SLP281

CYOW;2009-12-08 16:00;CYOW 081600Z 31006KT 15SM FEW023 M04/M07 A3034 RMK CU2 SLP283

CYOW;2009-12-08 17:00;CYOW 081700Z 27010KT 15SM SCT029 M03/M09 A3034 RMK SC4 CU ASOCT SLP283

CYOW;2009-12-08 17:27;CYOW 081727Z 28008KT 15SM -SN BKN022 M04/ RMK SC5

CYOW;2009-12-08 18:00;CYOW 081800Z 30008KT 15SM -SN BKN022 M04/M09 A3032 RMK SC6 SLP275

CYOW;2009-12-08 19:00;CYOW 081900Z 31005KT 15SM SCT030 M04/M09 A3033 RMK SC4 SLP277

CYOW;2009-12-08 20:00;CYOW 082000Z 23007KT 15SM SCT030 M03/M09 A3032 RMK SC4 SLP275

CYOW;2009-12-08 21:00;CYOW 082100Z 26006KT 15SM SCT033 M04/M10 A3034 RMK SC4 SLP282

CYOW;2009-12-08 22:00;CYOW 082200Z 27003KT 15SM FEW030 M05/M10 A3033 RMK SC2 SLP279

CYOW;2009-12-08 23:00;CYOW 082300Z 32002KT 15SM BKN240 M06/M10 A3032 RMK CI2 SLP274

CYOW;2009-12-09 00:00;CYOW 090000Z 03003KT 15SM FEW180 OVC220 M06/M10 A3030 RMK AS2CI2 SLP269

CYOW;2009-12-09 01:00;CYOW 090100Z 07003KT 15SM BKN240 M07/M10 A3031 RMK CI2 SLP271

CYOW;2009-12-09 02:00;CYOW 090200Z 05006KT 15SM SCT240 M07/M10 A3028 RMK CI0 SLP263

CYOW;2009-12-09 03:00;CYOW 090300Z 08006KT 15SM OVC250 M08/M10 A3030 RMK CI6 SLP268

CYOW;2009-12-09 04:00;CYOW 090400Z 10005KT 15SM FEW030 OVC250 M08/M10 A3028 RMK SC2CI6 SLP263

CYOW;2009-12-09 05:00;CYOW 090500Z 08008KT 15SM OVC240 M08/M10 A3023 RMK CI8 SLP245

CYOW;2009-12-09 06:00;CYOW 090600Z 08011KT 15SM OVC230 M07/M10 A3018 RMK CI8 SLP227

CYOW;2009-12-09 07:00;CYOW 090700Z 07007KT 15SM FEW100 OVC220 M07/M09 A3013 RMK AC2CI6 SLP211

CYOW;2009-12-09 08:00;CYOW 090800Z 07013KT 15SM BKN085 OVC180 M07/M09 A3007 RMK AC5AS3 PRESFR SLP190

CYOW;2009-12-09 09:00;CYOW 090900Z 08015G20KT 15SM OVC110 M06/M08 A2999 RMK AS8 PRESFR SLP162

CYOW;2009-12-09 10:00;CYOW 091000Z 09016G26KT 15SM FEW020 OVC066 M06/M09 A2995 RMK SC1AS8 SLP150

CYOW;2009-12-09 10:41;CYOW 091041Z 08017KT 15SM -SN OVC040 M06/ RMK NS8

CYOW;2009-12-09 10:49;CYOW 091049Z 08019G25KT 2SM -SN VV010 M06/ RMK SN8

CYOW;2009-12-09 11:00;CYOW 091100Z 08018G25KT 1 1/2SM -SN DRSN VV007 M06/M08 A2987 RMK SN8 PRESFR SLP124

CYOW;2009-12-09 11:09;CYOW 091109Z 07018G24KT 1SM -SN DRSN VV006 M06/ RMK SN8

CYOW;2009-12-09 12:00;CYOW 091200Z 07017G24KT 1SM -SN DRSN VV005 M07/M08 A2980 RMK SN8 PRESFR /S01/ SLP100

CYOW;2009-12-09 13:00;CYOW 091300Z CCA 08020G27KT 3/4SM R07/6000FT/D R32/6000FT/D -SN DRSN VV005 M07/M08 A2972 RMK SN8 PRESFR SLP072

CYOW;2009-12-09 14:00;CYOW 091400Z CCA 07020G26KT 3/4SM R07/3500FT/N R32/3000FT/N -SN DRSN VV004 M06/M07 A2963 RMK SN8 PRESFR /S03/ SLP042

CYOW;2009-12-09 14:23;CYOW 091423Z 08019G29KT 1/2SM R07/3000FT/N R32/2600FT/N SN BLSN VV003 M06/ RMK SN8

CYOW;2009-12-09 15:00;CYOW 091500Z 07023G29KT 1/2SM R07/3000FT/N R32/2600FT/N SN BLSN VV004 M06/M07 A2951 RMK SN8 PRESFR /S03/ SLP002

CYOW;2009-12-09 15:19;CYOW 091519Z CCA 07021G30KT 1 1/2SM -SN BLSN OVC010 M05/ RESN RMK SN6SC2

CYOW;2009-12-09 15:50;CYOW 091550Z CCB 08019G31KT 3/4SM R07/5500FT/D R32/3000V5500FT/D -SN BLSN VV007 M05/ RESN RMK SN8

CYOW;2009-12-09 16:00;CYOW 091600Z CCA 08023G30KT 3/4SM R07/4500FT/N R32/2800V4500FT/D -SN BLSN VV007 M05/M06 A2943 RESN RMK SN8 PRESFR /S05/ SLP975

CYOW;2009-12-09 17:00;CYOW 091700Z CCA 08021G26KT 3/4SM R07/4000FT/N R32/4000FT/N -SN BLSN VV005 M04/M05 A2936 RMK SN8 PRESFR /S08/ SLP949

CYOW;2009-12-09 18:00;CYOW 091800Z 08019G25KT 3/4SM R07/4000FT/N R32/4000FT/N -SN BLSN VV004 M04/M04 A2927 RMK SN8 PRESFR /S10/ SLP917

CYOW;2009-12-09 19:00;CYOW 091900Z 08015G25KT 1SM R07/6000FT/N R32/4000V6000FT/D -SN DRSN VV006 M03/M04 A2920 RMK SN8 PRESFR /S01/ SLP894

CYOW;2009-12-09 20:00;CYOW 092000Z 08019G26KT 1 1/2SM -SN DRSN VV007 M03/M04 A2916 RMK SN8 SLP880

CYOW;2009-12-09 20:49;CYOW 092049Z 08020G27KT 2SM -SN DRSN OVC021 M03/ RMK SN4NS4

CYOW;2009-12-09 21:00;CYOW 092100Z 08019G26KT 2 1/2SM -SN DRSN OVC023 M03/M04 A2913 RMK SN1NS7 /S02/ SLP871

CYOW;2009-12-09 22:00;CYOW 092200Z 07017G22KT 3SM -SN DRSN OVC015 M03/M04 A2912 RMK NS8 /S04/ SLP866

CYOW;2009-12-09 23:00;CYOW 092300Z 08016G22KT 3SM -SN DRSN OVC016 M03/M03 A2911 RMK NS8 /S05/ SLP864

CYOW;2009-12-09 23:18;CYOW 092318Z 09015G21KT 1 1/2SM -SN DRSN VV006 M03/ RMK SN8

CYOW;2009-12-09 23:39;CYOW 092339Z 09014KT 2SM -SN DRSN OVC017 M03/ RMK SN1NS7

CYOW;2009-12-10 00:00;CYOW 100000Z 09013KT 2SM -SN DRSN OVC016 M03/M04 A2909 RMK SN1NS7 /S09/ SLP857

CYOW;2009-12-10 00:42;CYOW 100042Z 11008KT 1 1/4SM -SN OVC006 M03/ RMK SN1SC7

CYOW;2009-12-10 01:00;CYOW 100100Z 09010KT 1SM R07/P6000FT/U R32/P6000FT/U -SN OVC011 M03/M03 A2910 RMK SN2SC6 /S01/ SLP861

CYOW;2009-12-10 01:18;CYOW 100118Z 09010KT 4SM -SN SCT006 OVC013 M03/ RMK SC3SC5

CYOW;2009-12-10 02:00;CYOW 100200Z 09007KT 8SM -SN OVC005 M02/M03 A2910 RMK SC8 /S02/ SLP861

CYOW;2009-12-10 03:00;CYOW 100300Z 09005KT 6SM BR SCT004 OVC023 M02/M02 A2912 RMK SC3SC5 SLP866

CYOW;2009-12-10 03:05;CYOW 100305Z 10007KT 4SM -SHSN BR FEW004 OVC023 M02/ RMK SC2SC6 CU ASOCT

CYOW;2009-12-10 03:40;CYOW 100340Z 10005KT 8SM FEW007 SCT030 BKN057 M02/ RMK SC1SC2SC4

CYOW;2009-12-10 04:00;CYOW 100400Z 11005KT 10SM FEW029 BKN052 M02/M02 A2912 RMK SC2SC6 SLP867

CYOW;2009-12-10 05:00;CYOW 100500Z 21007KT 15SM FEW034 OVC047 02/M00 A2911 RMK SC2SC6 SLP864

CYOW;2009-12-10 05:32;CYOW 100532Z 18005KT 15SM -SN OVC026 02/ RMK SC8

CYOW;2009-12-10 06:00;CYOW 100600Z 21008KT 12SM FEW013 OVC025 02/00 A2911 RMK SC2SC6 INTMT -SN SLP862

CYOW;2009-12-10 07:00;CYOW 100700Z CCA 22013G19KT 15SM FEW013 SCT025 BKN037 01/M01 A2913 RMK SC1SC3SC3 SLP868

CYOW;2009-12-10 08:00;CYOW 100800Z 22010G15KT 15SM -SN SCT020 OVC058 01/M02 A2913 RMK SC3SC5 SLP871

CYOW;2009-12-10 09:00;CYOW 100900Z 22016G21KT 4SM -SN FEW013 OVC023 01/M01 A2913 RMK SC1SC7 SLP869

CYOW;2009-12-10 10:00;CYOW 101000Z 22015G22KT 2SM -SN DRSN OVC025 M00/M02 A2916 RMK SN3SC5 SLP878

CYOW;2009-12-10 10:23;CYOW 101023Z 23016KT 7SM -SN OVC023 M00/ RMK SC8

CYOW;2009-12-10 11:00;CYOW 101100Z 22014G24KT 5SM -SN OVC025 M00/M03 A2919 RMK SC8 SLP888

CYOW;2009-12-10 11:11;CYOW 101111Z 22017G25KT 2SM -SN OVC022 M01/ RMK SN2SC6

CYOW;2009-12-10 12:00;CYOW 101200Z CCA 23016G21KT 3SM -SN OVC024 M01/M02 A2921 RMK SC8 /S01/ SLP898

CYOW;2009-12-10 13:00;CYOW 101300Z 24019G28KT 12SM -SN SCT025 BKN068 M01/M05 A2922 RMK SC3AC2 SLP900

CYOW;2009-12-10 13:15;CYOW 101315Z 23015G22KT 12SM SCT025 BKN068 M01/ RMK SC3AC2

CYOW;2009-12-10 13:30;CYOW 101330Z 24016KT 3SM -SN OVC015 M01/ RMK SC8

CYOW;2009-12-10 13:38;CYOW 101338Z 25013G18KT 3/4SM -SN VV006 M02/ RMK SN8

CYOW;2009-12-10 13:53;CYOW 101353Z 24011G17KT 12SM -SN BKN026 OVC040 M02/ RMK SC6SC2

CYOW;2009-12-10 14:00;CYOW 101400Z 23014KT 12SM -SN SCT025 OVC041 M01/M03 A2924 RMK SC4SC4 SLP908

CYOW;2009-12-10 14:38;CYOW 101438Z 23018KT 15SM BKN038 M01/ RMK SC6

CYOW;2009-12-10 15:00;CYOW 101500Z 24018KT 15SM BKN032 BKN060 M01/M05 A2927 RMK SC6SC1 SLP918

CYOW;2009-12-10 16:00;CYOW 101600Z 23022KT 6SM -SN OVC032 M02/M07 A2929 RMK SC8 SLP925

CYOW;2009-12-10 16:39;CYOW 101639Z 25015G22KT 2SM -SN OVC014 M02/ RMK SN3SC5

CYOW;2009-12-10 17:00;CYOW 101700Z 24012G22KT 15SM -SN FEW020 BKN056 M03/M05 A2931 RMK SC2SC4 /S02/ SLP930

CYOW;2009-12-10 17:33;CYOW 101733Z 22012G21KT 15SM FEW025 OVC071 M02/ RMK SC2AC6

CYOW;2009-12-10 18:00;CYOW 101800Z 24015KT 15SM FEW025 OVC048 M02/M07 A2931 RMK SC2SC6 SLP931

CYOW;2009-12-10 19:00;CYOW 101900Z 27010G16KT 12SM BKN031 OVC040 M02/M08 A2934 RMK SC6SC2 SLP941

CYOW;2009-12-10 20:00;CYOW 102000Z 26016KT 12SM OVC028 M02/M08 A2936 RMK SC8 SLP949

CYOW;2009-12-10 21:00;CYOW 102100Z 25010KT 15SM SCT030 OVC059 M03/M08 A2938 RMK SC3SC5 SLP954

CYOW;2009-12-10 22:00;CYOW 102200Z 26009KT 15SM SCT030 OVC053 M03/M08 A2940 RMK SC3SC5 SLP962

CYOW;2009-12-10 23:00;CYOW 102300Z 26013G18KT 15SM FEW030 OVC051 M03/M10 A2943 RMK SC2SC6 SLP970

CYOW;2009-12-11 00:00;CYOW 110000Z 24010KT 15SM OVC050 M04/M07 A2945 RMK SC8 SLP979

CYOW;2009-12-11 01:00;CYOW 110100Z 25013G22KT 15SM OVC060 M04/M09 A2947 RMK SC8 SLP986

CYOW;2009-12-11 02:00;CYOW 110200Z 24013KT 15SM FEW020 OVC084 M04/M09 A2950 RMK SC1AC8 SLP996

CYOW;2009-12-11 03:00;CYOW 110300Z 23014G19KT 15SM SCT015 BKN090 M05/M08 A2952 RMK SC3AC4 SLP004

CYOW;2009-12-11 04:00;CYOW 110400Z 23016G22KT 15SM FEW015 OVC095 M06/M08 A2956 RMK SC1AC8 SLP016

CYOW;2009-12-11 05:00;CYOW 110500Z 24014G19KT 15SM FEW015 BKN080 OVC120 M07/M09 A2959 RMK SC1AC5AC2 SLP025

CYOW;2009-12-11 06:00;CYOW 110600Z 24014G19KT 15SM FEW040 OVC090 M07/M10 A2960 RMK SC2AC4 SLP031

CYOW;2009-12-11 07:00;CYOW 110700Z 23014KT 15SM FEW080 BKN095 M08/M10 A2963 RMK AC2AC4 SLP040

CYOW;2009-12-11 08:00;CYOW 110800Z 24011G16KT 15SM FEW015 FEW060 OVC090 M08/M10 A2966 RMK SC1SC2AC6 SLP049

CYOW;2009-12-11 09:00;CYOW 110900Z 24011KT 15SM FEW015 FEW058 BKN090 M08/M10 A2968 RMK SC1SC2AC4 SLP056

CYOW;2009-12-11 10:00;CYOW 111000Z 24010G15KT 15SM FEW015 FEW060 M08/M10 A2970 RMK SC1SC2 SLP064

CYOW;2009-12-11 11:00;CYOW 111100Z 24011KT 15SM FEW009 FEW060 M09/M10 A2971 RMK SC1SC1 SLP069

CYOW;2009-12-11 11:39;CYOW 111139Z 24008KT 12SM -SN FEW009 BKN024 M09/ RMK SC1SC6

CYOW;2009-12-11 12:00;CYOW 111200Z 23007KT 12SM -SN FEW010 BKN031 M09/M10 A2973 RMK SC1SC6 SLP076

CYOW;2009-12-11 12:24;CYOW 111224Z 22007KT 12SM FEW010 BKN029 BKN120 M09/ RMK SC1SC4AC1

CYOW;2009-12-11 13:00;CYOW 111300Z 24008KT 15SM SCT032 M09/M11 A2975 RMK SC3 SLP082

CYOW;2009-12-11 14:00;CYOW 111400Z 23008KT 15SM FEW030 M08/M11 A2978 RMK SC2 SLP092

CYOW;2009-12-11 15:00;CYOW 111500Z 26013G18KT 15SM BKN043 BKN075 M07/M15 A2981 RMK SC5AC1 SLP102

CYOW;2009-12-11 16:00;CYOW 111600Z 27017KT 15SM FEW050 SCT120 M07/M14 A2981 RMK SC2AC1 SLP102

CYOW;2009-12-11 17:00;CYOW 111700Z 26015G21KT 15SM FEW035 FEW080 M06/M14 A2982 RMK CU2AC1 SLP104

CYOW;2009-12-11 18:00;CYOW 111800Z 27015G21KT 15SM FEW035 SCT080 M06/M14 A2982 RMK CU2AC2 SLP107

CYOW;2009-12-11 19:00;CYOW 111900Z 27016KT 15SM FEW035 FEW080 M07/M15 A2985 RMK CU1AC1 SLP115

CYOW;2009-12-11 20:00;CYOW 112000Z 27015G21KT 15SM FEW035 M07/M16 A2988 RMK CU1 SLP127

CYOW;2009-12-11 21:00;CYOW 112100Z 27011G19KT 15SM FEW035 M07/M16 A2992 RMK CU1 SLP139

CYOW;2009-12-11 22:00;CYOW 112200Z 27013G18KT 15SM FEW035 M07/M16 A2996 RMK CU1 SLP152

CYOW;2009-12-11 23:00;CYOW 112300Z 26011KT 15SM FEW035 M08/M16 A2998 RMK SC1 SLP161

CYOW;2009-12-12 00:00;CYOW 120000Z 24008KT 15SM FEW200 M09/M14 A3001 RMK CI1 SLP172

CYOW;2009-12-12 01:00;CYOW 120100Z 24009KT 15SM SKC M10/M14 A3004 RMK SLP181

CYOW;2009-12-12 02:00;CYOW 120200Z 24008KT 15SM SKC M10/M14 A3007 RMK FROIN SLP190

CYOW;2009-12-12 03:00;CYOW 120300Z 24007KT 15SM SKC M11/M14 A3009 RMK FROIN SLP198

CYOW;2009-12-12 04:00;CYOW 120400Z 23007KT 15SM FEW100 M10/M14 A3012 RMK AC1 FROIN SLP208

CYOW;2009-12-12 05:00;CYOW 120500Z 23005KT 15SM BKN094 M10/M13 A3014 RMK AC6 FROIN SLP213

CYOW;2009-12-12 06:00;CYOW 120600Z 23006KT 15SM BKN030 BKN063 M10/M12 A3015 RMK SC5SC2 FROIN SLP218

CYOW;2009-12-12 06:28;CYOW 120628Z 22006KT 10SM -SN OVC044 M09/ RMK SC8

CYOW;2009-12-12 07:00;CYOW 120700Z 23004KT 3SM -SN OVC030 M09/M11 A3017 RMK SC8 SLP226

CYOW;2009-12-12 08:00;CYOW 120800Z 24009KT 12SM BKN087 M09/M11 A3019 RMK AC6 SLP232

CYOW;2009-12-12 09:00;CYOW 120900Z 22006KT 12SM BKN085 M09/M11 A3021 RMK AC6 FROIN SLP240

CYOW;2009-12-12 10:00;CYOW 121000Z 23009KT 15SM FEW008 BKN083 M09/M11 A3023 RMK SF1AC6 SLP247

CYOW;2009-12-12 11:00;CYOW 121100Z 23007KT 15SM FEW075 M10/M12 A3026 RMK AC2 FROIN SLP256

CYOW;2009-12-12 12:00;CYOW 121200Z CCA 24006KT 15SM SCT060 M10/M12 A3030 RMK SC3 FROIN SLP271

CYOW;2009-12-12 13:00;CYOW 121300Z 24007KT 15SM FEW050 M10/M12 A3033 RMK SC2 SLP280

CYOW;2009-12-12 14:00;CYOW 121400Z 25008KT 15SM FEW020 FEW050 M09/M11 A3036 RMK CF1SC2 TR CUFRA SLP289

CYOW;2009-12-12 15:00;CYOW 121500Z 23009KT 15SM FEW050 M07/M11 A3037 RMK SC1 SLP295

CYOW;2009-12-12 16:00;CYOW 121600Z 22009KT 15SM FEW020 FEW050 M06/M11 A3037 RMK CF1SC1 SLP293

CYOW;2009-12-12 17:00;CYOW 121700Z 25013KT 15SM FEW020 BKN040 M05/M10 A3036 RMK CF2SC3 SLP291

CYOW;2009-12-12 18:00;CYOW 121800Z 23011KT 15SM FEW020 SCT050 M05/M10 A3036 RMK CF2SC2 SLP288

CYOW;2009-12-12 19:00;CYOW 121900Z 25009KT 15SM BKN028 M05/M09 A3035 RMK SC6 SLP287

CYOW;2009-12-12 20:00;CYOW 122000Z 24006KT 15SM BKN033 M04/M09 A3035 RMK SC6 SLP285

CYOW;2009-12-12 21:00;CYOW 122100Z 22006KT 15SM BKN033 M03/M08 A3035 RMK SC7 SLP285

CYOW;2009-12-12 22:00;CYOW 122200Z 23003KT 15SM FEW033 M04/M09 A3036 RMK SC2 SLP288

CYOW;2009-12-12 23:00;CYOW 122300Z 18004KT 15SM FEW040 M05/M09 A3036 RMK SC2 SLP290

CYOW;2009-12-13 00:00;CYOW 130000Z 20006KT 15SM FEW040 M06/M10 A3035 RMK SC2 SLP287

CYOW;2009-12-13 01:00;CYOW 130100Z 18003KT 15SM FEW040 FEW060 M06/M09 A3034 RMK SC1SC2 SLP282

CYOW;2009-12-13 02:00;CYOW 130200Z 09004KT 15SM FEW060 M08/M10 A3033 RMK SC2 FROIN SLP280

CYOW;2009-12-13 03:00;CYOW 130300Z 15003KT 15SM FEW060 FEW110 M09/M10 A3032 RMK SC2AC1 FROIN SLP275

CYOW;2009-12-13 04:00;CYOW 130400Z 14002KT 15SM FEW110 M10/M10 A3029 RMK AC1 FROIN SLP266

CYOW;2009-12-13 05:00;CYOW 130500Z 19004KT 15SM FEW160 M06/M09 A3027 RMK AC2 FROIN SLP259

CYOW;2009-12-13 06:00;CYOW 130600Z 18005KT 15SM FEW160 SCT250 M06/M09 A3025 RMK AC2CI2 FROIN SLP253

CYOW;2009-12-13 07:00;CYOW 130700Z 19005KT 15SM FEW160 SCT250 M06/M09 A3024 RMK AC1CI2 SLP247

CYOW;2009-12-13 08:00;CYOW 130800Z 18005KT 15SM BKN220 M06/M09 A3022 RMK CI4 SLP243

CYOW;2009-12-13 09:00;CYOW 130900Z 17005KT 15SM BKN240 M06/M10 A3019 RMK CI4 SLP232

CYOW;2009-12-13 10:00;CYOW 131000Z 17005KT 15SM BKN210 M06/M11 A3015 RMK CI4 SLP217

CYOW;2009-12-13 11:00;CYOW 131100Z 15005KT 15SM FEW140 BKN210 M06/M11 A3012 RMK AC2CI3 SLP206

CYOW;2009-12-13 12:00;CYOW 131200Z 15005KT 15SM BKN100 M05/M10 A3010 RMK AC7 SLP199

CYOW;2009-12-13 13:00;CYOW 131300Z 14007KT 15SM BKN080 OVC240 M04/M10 A3007 RMK AC7CI1 SLP189

CYOW;2009-12-13 14:00;CYOW 131400Z 14006KT 15SM OVC074 M04/M09 A3003 RMK AC8 SLP176

CYOW;2009-12-13 15:00;CYOW 131500Z 11006KT 15SM OVC050 M03/M09 A2999 RMK SC8 SLP163

CYOW;2009-12-13 15:43;CYOW 131543Z 16006KT 3SM -SN OVC040 M03/ RMK SC8

CYOW;2009-12-13 15:51;CYOW 131551Z 18009KT 2SM -SN OVC033 M03/ RMK SC8

CYOW;2009-12-13 16:00;CYOW 131600Z 16006KT 3SM -SN OVC033 M03/M06 A2996 RMK NS8 SLP153

CYOW;2009-12-13 16:50;CYOW 131650Z 14004KT 15SM OVC054 M02/ RMK NS8

CYOW;2009-12-13 17:00;CYOW 131700Z 14003KT 15SM OVC052 M02/M06 A2989 RMK NS8 SLP129

CYOW;2009-12-13 17:52;CYOW 131752Z 09005KT 6SM -SN OVC031 M02/ RMK NS8

CYOW;2009-12-13 18:00;CYOW 131800Z 09005KT 2SM -SN OVC030 M02/M05 A2983 RMK NS8 SLP110

CYOW;2009-12-13 18:15;CYOW 131815Z 17006KT 3/4SM R07/6000FT/D R32/6000FT/D -SN VV010 M02/ RMK SN8

CYOW;2009-12-13 18:37;CYOW 131837Z 19005KT 3/4SM -SN VV007 M02/ RMK SN8

CYOW;2009-12-13 19:00;CYOW 131900Z 18003KT 1/2SM R07/5000FT/D R32/3500FT/D SN VV005 M02/M03 A2984 RMK SN8 SLP111

CYOW;2009-12-13 19:34;CYOW 131934Z 11003KT 3/4SM -SN VV010 M02/ RESN RMK SN8

CYOW;2009-12-13 20:00;CYOW 132000Z 11003KT 3/4SM R07/P6000FT/U R32/P6000FT/U -SN VV008 M02/M03 A2982 RMK SN8 /SO4/ SLP106

CYOW;2009-12-13 20:17;CYOW 132017Z 13002KT 2SM -SN OVC020 M02/ RMK NS8

CYOW;2009-12-13 20:37;CYOW 132037Z 09003KT 3/4SM -SN VV007 M02/ RMK SN8

CYOW;2009-12-13 21:00;CYOW 132100Z 08003KT 3/4SM R07/6000FT/N R32/6000FT/D -SN VV012 M02/M02 A2982 RMK SN8 /S05/ SLP105

CYOW;2009-12-13 21:30;CYOW 132130Z 09002KT 2SM -SN OVC010 M02/ RMK NS8

CYOW;2009-12-13 22:00;CYOW 132200Z 08003KT 10SM OVC008 M02/M02 A2982 RMK NS8 SLP104

CYOW;2009-12-13 23:00;CYOW 132300Z 11002KT 10SM OVC006 M02/M02 A2984 RMK NS8 SLP110

CYOW;2009-12-14 00:00;CYOW 140000Z 00000KT 4SM BR OVC005 M02/M02 A2985 RMK ST8 SLP116

CYOW;2009-12-14 01:00;CYOW 140100Z 00000KT 4SM BR OVC005 M02/M02 A2986 RMK ST8 SLP118

CYOW;2009-12-14 01:19;CYOW 140119Z 25002KT 3SM BR OVC003 M02/ RMK FG1ST7

CYOW;2009-12-14 02:00;CYOW 140200Z 25003KT 3SM BR OVC003 M02/M03 A2988 RMK FG1ST7 SLP126

CYOW;2009-12-14 02:34;CYOW 140234Z 26002KT 2SM BR BKN003 OVC045 M02/ RMK FG2ST4SC2

CYOW;2009-12-14 03:00;CYOW 140300Z 32002KT 2SM BR BKN003 OVC045 M03/M03 A2990 RMK FG2ST3SC3 SLP132

CYOW;2009-12-14 03:49;CYOW 140349Z 28003KT 2SM BR SCT003 OVC044 M02/ RMK FG2SF2SC4

CYOW;2009-12-14 04:00;CYOW 140400Z 00000KT 2SM BR SCT003 OVC044 M02/M02 A2993 RMK FG2SF2SC4 SLP140

CYOW;2009-12-14 05:00;CYOW 140500Z 23004KT 4SM BR BKN042 M02/M02 A2993 RMK SC7 SLP141

CYOW;2009-12-14 06:00;CYOW 140600Z 27006KT 6SM BR BKN040 M03/M03 A2996 RMK SC6 SLP151

CYOW;2009-12-14 07:00;CYOW 140700Z 00000KT 6SM BR SCT016 BKN040 M03/M03 A2998 RMK SC4SC2 SLP160

CYOW;2009-12-14 08:00;CYOW 140800Z 00000KT 6SM BR BKN018 M02/M02 A3000 RMK SC7 SLP165

CYOW;2009-12-14 09:00;CYOW 140900Z 25003KT 4SM BR BKN019 M03/M03 A3002 RMK SC7 SLP173

CYOW;2009-12-14 09:19;CYOW 140919Z 25004KT 4SM BR BKN013 OVC030 M02/ RMK SC7SC1

CYOW;2009-12-14 10:00;CYOW 141000Z 25003KT 4SM R07/3500VP6000FT/D R32/1200V1800FT/N BR BKN013 BKN031 M03/M03 A3003 RMK SC6SC2 VIS SE 3/4 SLP175

CYOW;2009-12-14 10:19;CYOW 141019Z 27002KT 3/4SM R07/1100V1800FT/N R32/0800V1600FT/N BR BKN005 BKN013 M03/ RMK FG3ST2SC2

CYOW;2009-12-14 10:44;CYOW 141044Z 00000KT 1/2SM R07/1800FT/N R32/1600FT FZFG BKN003 OVC013 M04/ RMK FG4ST2SC2

CYOW;2009-12-14 11:00;CYOW 141100Z 00000KT 5/8SM R07/1400FT/N R32/1100V1800FT/D BR VV002 M03/M03 A3002 RMK FG8 SLP174

CYOW;2009-12-14 11:09;CYOW 141109Z 00000KT 3/8SM R07/1200V1800FT/N R32/0800V1200FT/N FZFG VV001 M02/ RMK FG8

CYOW;2009-12-14 12:00;CYOW 141200Z 27002KT 1/8SM R07/1000FT/N R32/0900FT/N FZFG VV001 M03/M03 A3003 RMK FG8 SLP175

CYOW;2009-12-14 12:15;CYOW 141215Z 00000KT 0SM FZFG VV000 M04/ RMK FG8

CYOW;2009-12-14 12:42;CYOW 141242Z 00000KT 1/4SM R07/0800FT/N R32/0800FT/N FZFG SCT240 M05/ RMK FG2CI1

CYOW;2009-12-14 13:00;CYOW 141300Z 00000KT 1/2SM R07/1200FT/N R32/1100FT/N FZFG SCT240 M05/M05 A3005 RMK FG2CI2 SLP182

CYOW;2009-12-14 13:24;CYOW 141324Z 00000KT 1/4SM R07/1100FT/N R32/0900FT/N FZFG BKN240 M06/ RMK FG2CI2

CYOW;2009-12-14 13:38;CYOW 141338Z 18002KT 3/4SM R07/3000FT/N R32/1200FT/U BR BKN037 BKN240 M06/ RMK FG2SC3CI1

CYOW;2009-12-14 14:00;CYOW 141400Z 20003KT 2SM BR OVC038 M05/M05 A3007 RMK SC8 SLP189

CYOW;2009-12-14 15:00;CYOW 141500Z 20002KT 2SM BR OVC036 M03/M03 A3007 RMK SC8 SLP189

CYOW;2009-12-14 15:29;CYOW 141529Z 26002KT 2SM BR BKN003 OVC036 M03/ RMK SF6SC2

CYOW;2009-12-14 15:44;CYOW 141544Z 00000KT 3SM BR SCT003 OVC036 M03/ RMK SF3SC5

CYOW;2009-12-14 16:00;CYOW 141600Z 00000KT 3SM BR FEW003 OVC036 M03/M03 A3005 RMK SF2SC6 SLP183

CYOW;2009-12-14 17:00;CYOW 141700Z 00000KT 3SM BR OVC037 M03/M03 A3003 RMK SC8 SLP175

CYOW;2009-12-14 18:00;CYOW 141800Z 09002KT 3SM BR OVC033 M02/M02 A3000 RMK SC8 SLP167

CYOW;2009-12-14 19:00;CYOW 141900Z 07002KT 3SM BR OVC031 M01/M01 A2998 RMK SC8 SLP159

CYOW;2009-12-14 20:00;CYOW 142000Z 07005KT 3SM BR OVC032 M01/M02 A2996 RMK SC8 SLP152

CYOW;2009-12-14 20:34;CYOW 142034Z 05004KT 3SM BR BKN008 OVC030 M01/ RMK SF5SC3

CYOW;2009-12-14 21:00;CYOW 142100Z 05004KT 2SM BR OVC007 M01/M02 A2996 RMK ST8 SLP152

CYOW;2009-12-14 21:13;CYOW 142113Z 04004KT 2SM BR SCT007 OVC030 M02/ RMK SF3SC5

CYOW;2009-12-14 21:42;CYOW 142142Z 05005KT 2SM BR SCT003 OVC030 M02/ RMK SF3SC5

CYOW;2009-12-14 22:00;CYOW 142200Z 05005KT 2SM BR OVC003 M02/M02 A2995 RMK ST8 SLP149

CYOW;2009-12-14 22:42;CYOW 142242Z 06007KT 1SM R07/P6000FT/N R32/P6000FT/N BR BKN002 OVC020 M02/ RMK SF6SC2

CYOW;2009-12-14 23:00;CYOW 142300Z CCA 06008KT 1SM R07/P6000FT/D R32/P6000FT/N -SN BR BKN002 OVC017 M02/M02 A2992 RMK SF6SC2 SLP137

CYOW;2009-12-14 23:27;CYOW 142327Z CCA 06007KT 1SM R07/6000FT/D R32/6000FT/D -SN -FZDZ BR OVC002 M02/ RMK ST8

CYOW;2009-12-15 00:00;CYOW 150000Z 07006KT 1SM R07/6000FT/D R32/6000FT/N -SN -FZDZ BR OVC002 M02/M02 A2991 RMK ST8 SLP133

CYOW;2009-12-15 01:00;CYOW 150100Z 08008KT 1SM R07/6000FT/N R32/6000FT/N -SN -FZDZ BR OVC002 M02/M02 A2987 RMK ST8 SLP122

CYOW;2009-12-15 02:00;CYOW 150200Z 06008KT 1 1/4SM R07/6000FT/U R32/6000FT/U -SN -FZDZ BR OVC003 M01/M01 A2986 RMK ST8 SLP118

CYOW;2009-12-15 03:00;CYOW 150300Z 08007KT 1 1/4SM -SN BR OVC018 M01/M01 A2985 RMK ST8 SLP113

CYOW;2009-12-15 03:20;CYOW 150320Z 07007KT 3/4SM R07/6000FT/D R32/6000FT/D -SN VV005 M01/ RMK SN8

CYOW;2009-12-15 04:00;CYOW 150400Z 07008G15KT 1 1/2SM -SN OVC012 M01/M01 A2984 RMK ST8 /S02/ SLP110

CYOW;2009-12-15 05:00;CYOW 150500Z 08007KT 1 1/2SM -SN SCT002 OVC010 M01/M01 A2982 RMK ST3ST5 SLP104

CYOW;2009-12-15 06:00;CYOW 150600Z 07007KT 1 1/4SM -SN OVC002 M01/M01 A2981 RMK ST8 /S03/ SLP100

CYOW;2009-12-15 07:00;CYOW 150700Z 06007KT 1 1/4SM -SN VV008 M01/M01 A2980 RMK SN8 SLP098

CYOW;2009-12-15 08:00;CYOW 150800Z 05006KT 1 1/4SM -SN VV003 M01/M01 A2980 RMK SN8 SLP097

CYOW;2009-12-15 09:00;CYOW 150900Z 05007KT 1SM R07/6000FT/N R32/6000FT/U -SN VV010 M02/M02 A2979 RMK SN8 SLP095

CYOW;2009-12-15 10:00;CYOW 151000Z CCA 04007KT 1 1/2SM -SN BR VV012 M02/M02 A2979 RMK SN8 /S01/ SLP093

CYOW;2009-12-15 11:00;CYOW 151100Z 04005KT 1 1/2SM -SN VV010 M02/M02 A2979 RMK SN8 SLP095

CYOW;2009-12-15 12:00;CYOW 151200Z CCA 36005KT 2SM -SN BR OVC011 M02/M02 A2980 RMK SN2SC6 /SO1/ SLP099

CYOW;2009-12-15 12:27;CYOW 151227Z 35004KT 1 3/4SM -SN BR VV006 M02/ RMK SN8

CYOW;2009-12-15 13:00;CYOW 151300Z 34005KT 1 1/2SM -SN BR VV009 M01/M02 A2983 RMK SN8 SLP108

CYOW;2009-12-15 14:00;CYOW 151400Z 29007KT 1 1/2SM -SN BR VV006 M02/M02 A2986 RMK SN8 SLP118

CYOW;2009-12-15 15:00;CYOW 151500Z 29007KT 1 1/2SM -SN BR VV006 M03/M03 A2987 RMK SN8 SLP121

CYOW;2009-12-15 15:46;CYOW 151546Z 29010KT 8SM -SN OVC024 M03/ RMK SC8

CYOW;2009-12-15 16:00;CYOW 151600Z 29010KT 8SM -SN BKN025 OVC060 M03/M04 A2988 RMK SC6SC2 SLP123

CYOW;2009-12-15 16:06;CYOW 151606Z 29011KT 4SM -SN BR SCT007 OVC016 M03/ RMK SC3SC5

CYOW;2009-12-15 17:00;CYOW 151700Z 29011KT 12SM -SN FEW008 OVC070 M03/M05 A2988 RMK SC2AC6 SLP123

CYOW;2009-12-15 18:00;CYOW 151800Z 27010KT 12SM -SN BKN011 OVC050 M03/M05 A2988 RMK SC6SC2 VRY LGT SN SLP126

CYOW;2009-12-15 19:00;CYOW 151900Z 29013KT 12SM -SN BKN013 OVC050 M04/M05 A2990 RMK SC5SC3 VRY LGT SN SLP131

CYOW;2009-12-15 19:40;CYOW 151940Z 28012G17KT 15SM SCT013 BKN070 M04/ RMK SC3AC4

CYOW;2009-12-15 20:00;CYOW 152000Z 29011G17KT 15SM FEW015 BKN070 M04/M06 A2993 RMK SC2AC5 SLP142

CYOW;2009-12-15 21:00;CYOW 152100Z 27011KT 15SM BKN021 BKN070 M04/M07 A2996 RMK SC5AC2 SLP151

CYOW;2009-12-15 22:00;CYOW 152200Z 28009KT 12SM OVC022 M05/M07 A2998 RMK SC8 SLP158

CYOW;2009-12-15 22:45;CYOW 152245Z 29008KT 12SM SCT024 OVC080 M05/ RMK SC3AC5

CYOW;2009-12-15 23:00;CYOW 152300Z 29008KT 12SM SCT025 OVC078 M06/M08 A3000 RMK SC3AC5 SLP167

CYOW;2009-12-16 00:00;CYOW 160000Z 30008KT 15SM FEW130 M07/M10 A3002 RMK AC2 SLP171

CYOW;2009-12-16 01:00;CYOW 160100Z 28008KT 12SM -SN BKN120 M06/M09 A3004 RMK AC7 VRY LGT SN SLP178

CYOW;2009-12-16 02:00;CYOW 160200Z 29009KT 12SM -SN SCT020 M07/M09 A3006 RMK SC3 VRY LGT SN SLP185

CYOW;2009-12-16 03:00;CYOW 160300Z 28010KT 10SM -SN FEW015 BKN033 M08/M10 A3009 RMK SC2SC6 SLP197

CYOW;2009-12-16 03:50;CYOW 160350Z 31011KT 4SM -SN BKN025 M08/ RMK SC7

CYOW;2009-12-16 04:00;CYOW 160400Z 32009KT 10SM -SN BKN025 M08/M10 A3012 RMK SC7 SLP207

CYOW;2009-12-16 05:00;CYOW 160500Z 31014KT 12SM SCT024 M09/M13 A3014 RMK SC4 SLP214

CYOW;2009-12-16 06:00;CYOW 160600Z 31009KT 15SM FEW024 M12/M14 A3015 RMK SC1 FROIN SLP218

CYOW;2009-12-16 07:00;CYOW 160700Z 30010KT 15SM FEW024 M11/M15 A3018 RMK SC1 FROIN SLP227

CYOW;2009-12-16 08:00;CYOW 160800Z 28004KT 15SM FEW040 M13/M15 A3021 RMK SC2 FROIN SLP237

CYOW;2009-12-16 09:00;CYOW 160900Z 00000KT 15SM BKN058 M12/M15 A3020 RMK SC7 FROIN SLP236

CYOW;2009-12-16 10:00;CYOW 161000Z 18003KT 15SM OVC053 M13/M15 A3020 RMK SC8 FROIN SLP237

CYOW;2009-12-16 10:25;CYOW 161025Z 20004KT 10SM -SN OVC057 M13/ RMK SC8 VRY LGT SN FROIN

CYOW;2009-12-16 11:00;CYOW 161100Z 21003KT 12SM -SN OVC058 M12/M15 A3022 RMK SC8 FROIN SLP241

CYOW;2009-12-16 12:00;CYOW 161200Z 14004KT 10SM -SN FEW025 OVC051 M12/M14 A3019 RMK SC2SC6 VRY LGT SN SLP233

CYOW;2009-12-16 13:00;CYOW 161300Z 18004KT 10SM -SN OVC052 M12/M14 A3019 RMK SC8 VRY LGT SN SLP232

CYOW;2009-12-16 14:00;CYOW 161400Z 21004KT 10SM -SN OVC050 M10/M12 A3019 RMK SC8 VRY LGT SN SLP231

CYOW;2009-12-16 15:00;CYOW 161500Z 25005KT 8SM -SN OVC046 M09/M11 A3019 RMK SC8 VRY LGT SN SLP231

CYOW;2009-12-16 16:00;CYOW 161600Z 27005KT 8SM -SN BKN018 OVC035 M08/M10 A3017 RMK SC6SC2 SLP226

CYOW;2009-12-16 16:12;CYOW 161612Z 28006KT 1 3/4SM -SN VV011 M08/ RMK SN8

CYOW;2009-12-16 16:24;CYOW 161624Z 29013KT 4SM -SN SCT014 BKN021 M08/ RMK SC3SC4

CYOW;2009-12-16 16:41;CYOW 161641Z 31015KT 15SM -SN FEW020 BKN056 M09/ RMK CU1SC4 VRY LGT SN

CYOW;2009-12-16 17:00;CYOW 161700Z 30012KT 15SM -SN FEW020 BKN054 M08/M11 A3017 RMK CU1SC6 VRY LGT SN SLP226

CYOW;2009-12-16 17:37;CYOW 161737Z 30012KT 8SM -SN BKN025 OVC050 M08/ RMK SC6SC2

CYOW;2009-12-16 18:00;CYOW 161800Z 32009KT 15SM -SN SCT025 OVC051 M09/M12 A3017 RMK SC4SC4 VRY LGT SN SLP225

CYOW;2009-12-16 19:00;CYOW 161900Z 31011KT 15SM -SN OVC031 M09/M14 A3017 RMK SC8 VRY LGT SN SLP227

CYOW;2009-12-16 20:00;CYOW 162000Z 28008KT 15SM -SN OVC033 M09/M14 A3018 RMK SC8 VRY LGT SN SLP230

CYOW;2009-12-16 21:00;CYOW 162100Z 31011KT 15SM -SN SCT031 OVC056 M09/M14 A3019 RMK SC3SC5 VRY LGT SN SLP233

CYOW;2009-12-16 22:00;CYOW 162200Z 32014KT 10SM -SN OVC032 M10/M14 A3021 RMK SC8 VRY LGT SN SLP240

CYOW;2009-12-16 23:00;CYOW 162300Z 31015KT 12SM -SN OVC061 M11/M15 A3022 RMK SC8 VRY LGT SN SLP244

CYOW;2009-12-17 00:00;CYOW 170000Z 31012KT 15SM -SN FEW025 OVC048 M12/M16 A3024 RMK SC1SC7 SLP251

CYOW;2009-12-17 01:00;CYOW 170100Z 33011G16KT 15SM -SN FEW020 BKN034 OVC070 M12/M16 A3026 RMK SC1SC5AC2 SLP256

CYOW;2009-12-17 02:00;CYOW 170200Z 33014G19KT 15SM -SN FEW028 FEW045 OVC075 M14/M18 A3028 RMK SC1SC2AC6 SLP264

CYOW;2009-12-17 03:00;CYOW 170300Z 34012G17KT 15SM -SN FEW025 OVC058 M15/M19 A3030 RMK SC1SC7 SLP270

CYOW;2009-12-17 03:36;CYOW 170336Z 33010KT 15SM FEW020 OVC055 M15/ RMK SC1SC8

CYOW;2009-12-17 04:00;CYOW 170400Z 34011KT 15SM FEW020 OVC055 M15/M19 A3031 RMK SC1SC7 SLP274

CYOW;2009-12-17 05:00;CYOW 170500Z 33012KT 15SM FEW020 OVC050 M15/M20 A3032 RMK SC1SC7 SLP277

CYOW;2009-12-17 06:00;CYOW 170600Z 34012KT 15SM FEW020 BKN048 M16/M23 A3033 RMK SC1SC6 SLP282

CYOW;2009-12-17 07:00;CYOW 170700Z 33012G17KT 15SM FEW020 FEW045 M17/M24 A3036 RMK SC1SC2 SLP290

CYOW;2009-12-17 08:00;CYOW 170800Z 33013G18KT 15SM FEW020 M18/M25 A3038 RMK SC1 SLP297

CYOW;2009-12-17 09:00;CYOW 170900Z 33012KT 15SM FEW020 M18/M25 A3038 RMK SC1 SLP298

CYOW;2009-12-17 10:00;CYOW 171000Z 32010KT 15SM FEW020 M19/M25 A3039 RMK SC1 SLP301

CYOW;2009-12-17 11:00;CYOW 171100Z 31010KT 15SM FEW015 M19/M25 A3040 RMK SC1 SLP304

CYOW;2009-12-17 12:00;CYOW 171200Z 30010KT 15SM FEW015 M20/M25 A3041 RMK SC1 SLP308

CYOW;2009-12-17 13:00;CYOW 171300Z 30010KT 15SM FEW015 M20/M25 A3042 RMK SC1 SLP312

CYOW;2009-12-17 14:00;CYOW 171400Z 31010KT 15SM FEW015 M19/M25 A3045 RMK SC1 SLP321

CYOW;2009-12-17 15:00;CYOW 171500Z 30010KT 15SM FEW015 M18/M24 A3046 RMK SC1 SLP326

CYOW;2009-12-17 16:00;CYOW 171600Z 29009KT 15SM FEW020 M17/M23 A3044 RMK SC1 SLP320

CYOW;2009-12-17 17:00;CYOW 171700Z 29008KT 15SM SCT025 M16/M22 A3042 RMK SC3 SLP314

CYOW;2009-12-17 18:00;CYOW 171800Z 30010KT 15SM FEW028 M16/M22 A3040 RMK CU2 SLP305

CYOW;2009-12-17 19:00;CYOW 171900Z 29011KT 15SM FEW031 M15/M22 A3039 RMK CU2 SLP303

CYOW;2009-12-17 20:00;CYOW 172000Z 29006KT 15SM SCT026 M15/M21 A3040 RMK SC4 SLP306

CYOW;2009-12-17 21:00;CYOW 172100Z 28008KT 15SM FEW028 M15/M20 A3040 RMK SC2 SLP307

CYOW;2009-12-17 22:00;CYOW 172200Z 26007KT 15SM FEW030 M16/M21 A3040 RMK SC1 SLP308

CYOW;2009-12-17 23:00;CYOW 172300Z 25007KT 15SM SKC M17/M22 A3041 RMK SLP311

CYOW;2009-12-18 00:00;CYOW 180000Z CCA 25005KT 15SM SKC M17/M21 A3041 RMK SLP310

CYOW;2009-12-18 01:00;CYOW 180100Z 23004KT 15SM SKC M17/M21 A3039 RMK SLP305

CYOW;2009-12-18 02:00;CYOW 180200Z 23004KT 15SM SKC M18/M21 A3038 RMK SLP301

CYOW;2009-12-18 03:00;CYOW 180300Z 23005KT 15SM SKC M18/M22 A3038 RMK SLP300

CYOW;2009-12-18 04:00;CYOW 180400Z 21003KT 15SM SKC M19/M22 A3038 RMK SLP301

CYOW;2009-12-18 05:00;CYOW 180500Z 25004KT 15SM SKC M19/M23 A3038 RMK SLP300

CYOW;2009-12-18 06:00;CYOW 180600Z 22004KT 15SM SKC M20/M23 A3037 RMK SLP297

CYOW;2009-12-18 07:00;CYOW 180700Z 21004KT 15SM SKC M21/M24 A3037 RMK FROIN SLP298

CYOW;2009-12-18 08:00;CYOW 180800Z 19002KT 15SM SKC M20/M23 A3036 RMK FROIN SLP295

CYOW;2009-12-18 09:00;CYOW 180900Z CCA 20004KT 15SM SKC M21/M24 A3036 RMK FROIN SLP292

CYOW;2009-12-18 10:00;CYOW 181000Z CCA 23003KT 15SM FEW002 M21/M23 A3035 RMK ST1 FROIN SLP290

CYOW;2009-12-18 11:00;CYOW 181100Z 26003KT 15SM FEW002 M21/M23 A3034 RMK SC1 FROIN SLP287

CYOW;2009-12-18 12:00;CYOW 181200Z 28002KT 15SM FEW150 M21/M24 A3033 RMK AC2 FROIN SLP283

CYOW;2009-12-18 12:30;CYOW 181230Z 31007KT 3SM BR BKN001 BKN150 M22/ RMK ST2AC2 THIN STRATUS

CYOW;2009-12-18 12:37;CYOW 181237Z 26004KT 10SM SCT150 M21/ RMK AC3 FG BANK S

CYOW;2009-12-18 13:00;CYOW 181300Z 00000KT 1/2SM FZFG SCT150 M22/M25 A3032 RMK FG2AC2 SLP281

CYOW;2009-12-18 13:07;CYOW 181307Z 00000KT 15SM FEW150 M21/ RMK AC2 FROIN

CYOW;2009-12-18 14:00;CYOW 181400Z 22003KT 15SM BKN150 M19/M22 A3034 RMK AC6 SLP288

CYOW;2009-12-18 15:00;CYOW 181500Z 00000KT 15SM FEW150 M18/M20 A3034 RMK AC2 SLP286

CYOW;2009-12-18 16:00;CYOW 181600Z 00000KT 15SM FEW150 M16/M18 A3033 RMK AC1 SLP282

CYOW;2009-12-18 17:00;CYOW 181700Z 31002KT 15SM FEW160 M15/M19 A3031 RMK AC1 TR AC SLP275

CYOW;2009-12-18 18:00;CYOW 181800Z 00000KT 15SM FEW240 M13/M19 A3027 RMK CI1 SLP263

CYOW;2009-12-18 19:00;CYOW 181900Z 26004KT 15SM FEW240 M12/M19 A3025 RMK CI0 SLP255

CYOW;2009-12-18 20:00;CYOW 182000Z 27002KT 15SM FEW240 M11/M20 A3023 RMK CI0 SLP250

CYOW;2009-12-18 21:00;CYOW 182100Z 22003KT 15SM SKC M11/M22 A3022 RMK SLP246

CYOW;2009-12-18 22:00;CYOW 182200Z 26003KT 15SM FEW240 M13/M22 A3022 RMK CI1 SLP245

CYOW;2009-12-18 23:00;CYOW 182300Z 22003KT 15SM SKC M14/M21 A3022 RMK SLP246

CYOW;2009-12-19 00:00;CYOW 190000Z 30004KT 15SM SKC M15/M22 A3021 RMK SLP243

CYOW;2009-12-19 01:00;CYOW 190100Z 00000KT 15SM SKC M14/M20 A3019 RMK SLP237

CYOW;2009-12-19 02:00;CYOW 190200Z 31003KT 15SM SKC M16/M22 A3018 RMK SLP231

CYOW;2009-12-19 03:00;CYOW 190300Z 35002KT 15SM SKC M15/M20 A3017 RMK SLP227

CYOW;2009-12-19 04:00;CYOW 190400Z 36004KT 15SM SKC M16/M21 A3015 RMK SLP221

CYOW;2009-12-19 05:00;CYOW 190500Z 00000KT 15SM SKC M16/M21 A3014 RMK SLP217

CYOW;2009-12-19 06:00;CYOW 190600Z 31003KT 15SM SKC M17/M20 A3011 RMK SLP207

CYOW;2009-12-19 07:00;CYOW 190700Z 30004KT 15SM SKC M17/M19 A3013 RMK FROIN SLP212

CYOW;2009-12-19 08:00;CYOW 190800Z 32005KT 15SM SKC M18/M21 A3011 RMK FROIN SLP207

CYOW;2009-12-19 09:00;CYOW 190900Z 33004KT 15SM SKC M19/M21 A3009 RMK FROIN SLP199

CYOW;2009-12-19 10:00;CYOW 191000Z 36002KT 15SM FEW200 M18/M20 A3008 RMK CI1 FROIN SLP195

CYOW;2009-12-19 11:00;CYOW 191100Z 36004KT 15SM FEW200 M18/M21 A3005 RMK CI1 FROIN SLP186

CYOW;2009-12-19 12:00;CYOW 191200Z CCA 29002KT 15SM FEW240 M19/M21 A3006 RMK CI1 FROIN SLP190

CYOW;2009-12-19 13:00;CYOW 191300Z 31007KT 15SM FEW240 M20/M23 A3006 RMK CI1 FROIN SLP190

CYOW;2009-12-19 14:00;CYOW 191400Z 31004KT 15SM SCT240 M18/M21 A3006 RMK CI2 SLP192

CYOW;2009-12-19 15:00;CYOW 191500Z 31004KT 15SM SCT240 M17/M19 A3006 RMK CI1 SLP191

CYOW;2009-12-19 16:00;CYOW 191600Z 34004KT 15SM SCT240 M15/M19 A3003 RMK CI2 SLP182

CYOW;2009-12-19 17:00;CYOW 191700Z 02005KT 15SM BKN240 M12/M20 A3000 RMK CI2 SLP172

CYOW;2009-12-19 18:00;CYOW 191800Z 04003KT 15SM FEW100 BKN240 M10/M21 A2999 RMK AC1CI2 SLP164

CYOW;2009-12-19 19:00;CYOW 191900Z 01004KT 15SM FEW100 BKN240 M09/M20 A2997 RMK AC1CI3 TR AC SLP159

CYOW;2009-12-19 20:00;CYOW 192000Z 00000KT 15SM FEW100 BKN240 M09/M21 A2997 RMK AC1CI2 SLP159

CYOW;2009-12-19 21:00;CYOW 192100Z 28002KT 15SM FEW100 BKN240 M10/M19 A2997 RMK AC2CI2 SLP161

CYOW;2009-12-19 22:00;CYOW 192200Z 32005KT 15SM BKN240 M12/M19 A2996 RMK CI4 SLP155

CYOW;2009-12-19 23:00;CYOW 192300Z 33008KT 15SM BKN200 M12/M17 A2995 RMK CI5 SLP152

CYOW;2009-12-20 00:00;CYOW 200000Z 32006KT 15SM BKN190 M11/M17 A2995 RMK AS5 SLP154

CYOW;2009-12-20 01:00;CYOW 200100Z 34009KT 15SM OVC190 M11/M17 A2995 RMK AS6 SLP152

CYOW;2009-12-20 02:00;CYOW 200200Z 34008KT 15SM OVC200 M10/M17 A2994 RMK CS6 SLP151

CYOW;2009-12-20 03:00;CYOW 200300Z 33006KT 15SM OVC190 M11/M16 A2994 RMK AS6 SLP149

CYOW;2009-12-20 04:00;CYOW 200400Z 32006KT 15SM OVC190 M12/M16 A2994 RMK AS6 SLP147

CYOW;2009-12-20 05:00;CYOW 200500Z 32005KT 15SM OVC180 M11/M16 A2994 RMK AS6 SLP148

CYOW;2009-12-20 06:00;CYOW 200600Z 32006KT 15SM OVC180 M12/M16 A2992 RMK AS6 SLP142

CYOW;2009-12-20 07:00;CYOW 200700Z 30004KT 15SM OVC160 M12/M16 A2992 RMK AS6 SLP140

CYOW;2009-12-20 08:00;CYOW 200800Z 33004KT 15SM OVC160 M13/M16 A2991 RMK AS6 SLP136

CYOW;2009-12-20 09:00;CYOW 200900Z 32005KT 15SM OVC170 M12/M16 A2990 RMK AS6 SLP133

CYOW;2009-12-20 10:00;CYOW 201000Z 33010KT 15SM OVC170 M12/M17 A2989 RMK AS6 SLP132

CYOW;2009-12-20 11:00;CYOW 201100Z 33011KT 15SM OVC190 M12/M17 A2990 RMK AS6 SLP134

CYOW;2009-12-20 12:00;CYOW 201200Z 33010KT 15SM OVC160 M12/M17 A2991 RMK AS6 SLP139

CYOW;2009-12-20 13:00;CYOW 201300Z 33008KT 15SM OVC160 M12/M17 A2991 RMK AS7 SLP139

CYOW;2009-12-20 14:00;CYOW 201400Z 32008KT 15SM OVC170 M12/M17 A2992 RMK AS8 SLP142

CYOW;2009-12-20 15:00;CYOW 201500Z 33011KT 15SM OVC180 M11/M17 A2993 RMK AS6 SLP145

CYOW;2009-12-20 16:00;CYOW 201600Z 32012KT 15SM OVC200 M11/M16 A2992 RMK CS4 HALO SLP141

CYOW;2009-12-20 17:00;CYOW 201700Z 32010G15KT 15SM OVC200 M09/M15 A2991 RMK CS3 HALO SLP137

CYOW;2009-12-20 18:00;CYOW 201800Z 31013KT 15SM OVC200 M09/M15 A2989 RMK CS4 HALO SLP131

CYOW;2009-12-20 19:00;CYOW 201900Z 32014KT 15SM BKN180 M09/M15 A2989 RMK AS4 SLP131

CYOW;2009-12-20 20:00;CYOW 202000Z 35009KT 15SM BKN170 M08/M14 A2991 RMK AS4 SLP137

CYOW;2009-12-20 21:00;CYOW 202100Z 33015KT 15SM SCT160 BKN200 M08/M14 A2994 RMK AS2CI2 SLP147

CYOW;2009-12-20 22:00;CYOW 202200Z 35010KT 15SM BKN160 M09/M15 A2996 RMK AS3 SLP153

CYOW;2009-12-20 23:00;CYOW 202300Z 32005KT 15SM BKN240 M10/M15 A2996 RMK CS6 SLP154

CYOW;2009-12-21 00:00;CYOW 210000Z 35006KT 15SM FEW160 BKN240 M11/M15 A2996 RMK AS2CI2 SLP157

CYOW;2009-12-21 01:00;CYOW 210100Z 32008KT 15SM FEW160 BKN240 M10/M15 A2996 RMK AC2CI2 SLP155

CYOW;2009-12-21 02:00;CYOW 210200Z 32010KT 15SM FEW160 BKN240 M09/M15 A2996 RMK AC2CI2 SLP155

CYOW;2009-12-21 03:00;CYOW 210300Z 33010G15KT 15SM BKN240 M09/M14 A2996 RMK CI2 SLP153

CYOW;2009-12-21 04:00;CYOW 210400Z 31009KT 15SM BKN240 M11/M15 A2996 RMK CI2 SLP155

CYOW;2009-12-21 05:00;CYOW 210500Z 31009KT 15SM BKN240 M12/M16 A2996 RMK CI2 SLP156

CYOW;2009-12-21 06:00;CYOW 210600Z 29006KT 15SM BKN240 M12/M15 A2997 RMK CI2 SLP158

CYOW;2009-12-21 07:00;CYOW 210700Z 29005KT 15SM SCT240 M13/M15 A2998 RMK CI2 FROIN SLP160

CYOW;2009-12-21 08:00;CYOW 210800Z 29007KT 15SM SCT240 M13/M16 A2999 RMK CI2 FROIN SLP165

CYOW;2009-12-21 09:00;CYOW 210900Z 29007KT 15SM SCT240 M13/M16 A2999 RMK CI2 FROIN SLP163

CYOW;2009-12-21 10:00;CYOW 211000Z 29006KT 15SM SCT240 M14/M16 A2999 RMK CI2 FROIN SLP164

CYOW;2009-12-21 11:00;CYOW 211100Z 28006KT 15SM SCT240 M14/M16 A2999 RMK CI2 FROIN SLP166

CYOW;2009-12-21 12:00;CYOW 211200Z 29006KT 15SM SCT240 M14/M17 A3000 RMK CI2 FROIN SLP169

CYOW;2009-12-21 13:00;CYOW 211300Z 28008KT 15SM SCT240 M14/M17 A3000 RMK CI2 FROIN SLP170

CYOW;2009-12-21 14:00;CYOW 211400Z 29010KT 15SM SCT240 M14/M17 A3001 RMK CI2 SLP172

CYOW;2009-12-21 15:00;CYOW 211500Z 28008KT 15SM SCT240 M12/M17 A3001 RMK CI2 SLP172

CYOW;2009-12-21 16:00;CYOW 211600Z 28011KT 15SM FEW240 M12/M17 A3000 RMK CI2 SLP170

CYOW;2009-12-21 17:00;CYOW 211700Z 29009KT 15SM SCT240 M11/M16 A2999 RMK CI1 SLP164

CYOW;2009-12-21 18:00;CYOW 211800Z 28011KT 15SM FEW240 M10/M16 A2997 RMK CI1 SLP157

CYOW;2009-12-21 19:00;CYOW 211900Z 27013KT 15SM FEW240 M09/M16 A2997 RMK CI2 SLP159

CYOW;2009-12-21 20:00;CYOW 212000Z 27007KT 15SM FEW240 M09/M16 A2998 RMK CI2 SLP162

CYOW;2009-12-21 21:00;CYOW 212100Z 27011KT 15SM FEW240 M09/M16 A2999 RMK CI2 SLP167

CYOW;2009-12-21 22:00;CYOW 212200Z 27009KT 15SM FEW240 M10/M16 A2999 RMK CI2 SLP167

CYOW;2009-12-21 23:00;CYOW 212300Z 28010KT 15SM FEW240 M10/M16 A3001 RMK CI2 SLP171

CYOW;2009-12-22 00:00;CYOW 220000Z 28008KT 15SM FEW240 M11/M16 A3002 RMK CI1 SLP174

CYOW;2009-12-22 01:00;CYOW 220100Z 29010KT 15SM FEW240 M11/M16 A3002 RMK CI1 SLP175

CYOW;2009-12-22 02:00;CYOW 220200Z 29011G17KT 15SM FEW240 M12/M16 A3002 RMK CI1 SLP177

CYOW;2009-12-22 03:00;CYOW 220300Z 29012KT 15SM SKC M12/M17 A3003 RMK SLP179

CYOW;2009-12-22 04:00;CYOW 220400Z 30012KT 15SM SKC M13/M18 A3005 RMK SLP184

CYOW;2009-12-22 05:00;CYOW 220500Z 30011KT 15SM SKC M14/M18 A3005 RMK FROIN SLP187

CYOW;2009-12-22 06:00;CYOW 220600Z 29009KT 15SM SKC M15/M19 A3007 RMK FROIN SLP191

CYOW;2009-12-22 07:00;CYOW 220700Z 29010KT 15SM SKC M16/M19 A3008 RMK FROIN SLP194

CYOW;2009-12-22 08:00;CYOW 220800Z 29010KT 15SM SKC M16/M20 A3008 RMK FROIN SLP195

CYOW;2009-12-22 09:00;CYOW 220900Z 29011KT 15SM SKC M16/M20 A3010 RMK FROIN SLP202

CYOW;2009-12-22 10:00;CYOW 221000Z 29009KT 15SM SKC M17/M20 A3011 RMK FROIN SLP205

CYOW;2009-12-22 11:00;CYOW 221100Z 29012G18KT 15SM SKC M17/M20 A3011 RMK FROIN SLP208

CYOW;2009-12-22 12:00;CYOW 221200Z 29011G16KT 15SM SKC M18/M21 A3012 RMK FROIN SLP210

CYOW;2009-12-22 13:00;CYOW 221300Z 29011KT 15SM FEW040 M18/M21 A3013 RMK SC1 SLP214

CYOW;2009-12-22 14:00;CYOW 221400Z 30012KT 15SM FEW040 M18/M21 A3015 RMK SC1 SLP219

CYOW;2009-12-22 15:00;CYOW 221500Z 29010G15KT 15SM FEW040 M17/M21 A3016 RMK SC1 SLP224

CYOW;2009-12-22 16:00;CYOW 221600Z 29012KT 15SM FEW040 M16/M21 A3015 RMK SC1 SLP221

CYOW;2009-12-22 17:00;CYOW 221700Z 28012KT 15SM FEW040 M15/M20 A3014 RMK SC1 SLP219

CYOW;2009-12-22 18:00;CYOW 221800Z 27011KT 15SM FEW040 M14/M20 A3014 RMK SC1 SLP215

CYOW;2009-12-22 19:00;CYOW 221900Z 27010G16KT 15SM BKN063 M13/M19 A3014 RMK SC6 SLP217

CYOW;2009-12-22 20:00;CYOW 222000Z 26010KT 15SM BKN063 M13/M18 A3015 RMK SC7 SLP221

CYOW;2009-12-22 20:14;CYOW 222014Z 27009G15KT 15SM -SN OVC063 M12/ RMK SC8

CYOW;2009-12-22 21:00;CYOW 222100Z 29011KT 15SM -SN OVC061 M12/M18 A3016 RMK SC8 SLP225

CYOW;2009-12-22 22:00;CYOW 222200Z 28011KT 15SM -SN OVC060 M12/M17 A3017 RMK SC8 SLP228

CYOW;2009-12-22 23:00;CYOW 222300Z 28009KT 15SM -SN OVC062 M12/M17 A3018 RMK SC8 SLP231

CYOW;2009-12-23 00:00;CYOW 230000Z 28010KT 15SM -SN BKN084 M12/M16 A3017 RMK AC7 SLP229

CYOW;2009-12-23 01:00;CYOW 230100Z 29012G18KT 15SM FEW020 BKN083 M11/M16 A3018 RMK SC1AC7 SLP232

CYOW;2009-12-23 02:00;CYOW 230200Z 30010G15KT 15SM FEW020 BKN080 M12/M16 A3018 RMK SC1AC6 SLP230

CYOW;2009-12-23 03:00;CYOW 230300Z 29009KT 15SM FEW020 SCT083 BKN160 M12/M16 A3018 RMK SC1AC4AC2 SLP231

CYOW;2009-12-23 03:39;CYOW 230339Z 29009KT 15SM -SN OVC050 M12/ RMK SC8

CYOW;2009-12-23 04:00;CYOW 230400Z 29011KT 7SM -SN OVC040 M12/M16 A3017 RMK SC8 SLP229

CYOW;2009-12-23 05:00;CYOW 230500Z 29011G18KT 5SM -SN OVC025 M13/M16 A3016 RMK SC8 OCNL DRSN SLP226

CYOW;2009-12-23 06:00;CYOW 230600Z 29011KT 4SM -SN OVC030 M13/M16 A3016 RMK SC8 OCNL DRSN SLP223

CYOW;2009-12-23 06:19;CYOW 230619Z 29011KT 2SM -SN OVC020 M13/ RMK SN1SC7

CYOW;2009-12-23 07:00;CYOW 230700Z 29012KT 1 1/4SM -SN OVC018 M13/M16 A3016 RMK SN1SC7 SLP223

CYOW;2009-12-23 08:00;CYOW 230800Z 28010KT 1 1/4SM -SN OVC017 M13/M15 A3016 RMK SN1SC7 SLP224

CYOW;2009-12-23 09:00;CYOW 230900Z CCA 28010KT 1 1/2SM -SN OVC020 M13/M15 A3015 RMK SN1SC7 /S01/ SLP220

CYOW;2009-12-23 10:00;CYOW 231000Z 29011G16KT 3SM -SN OVC025 M13/M15 A3014 RMK SC8 OCNL DRSN /S03/ SLP217

CYOW;2009-12-23 11:00;CYOW 231100Z 28011KT 4SM -SN OVC050 M12/M14 A3014 RMK SC8 OCNL DRSN SLP217

CYOW;2009-12-23 11:07;CYOW 231107Z 28010KT 1 1/2SM -SN OVC025 M12/ RMK SN2SC6

CYOW;2009-12-23 11:20;CYOW 231120Z 28011KT 15SM -SN OVC046 M12/ RMK SC8

CYOW;2009-12-23 12:00;CYOW 231200Z 29013G18KT 10SM -SN OVC018 M12/M14 A3013 RMK SC8 SLP213

CYOW;2009-12-23 12:24;CYOW 231224Z 29012KT 1 1/2SM -SN VV007 M12/ RMK SN8

CYOW;2009-12-23 12:42;CYOW 231242Z 29011G16KT 4SM -SN SCT025 OVC062 M12/ RMK SC3SC5

CYOW;2009-12-23 13:00;CYOW 231300Z 29011G16KT 12SM -SN OVC056 M12/M14 A3014 RMK SC8 /S01/ SLP214

CYOW;2009-12-23 13:14;CYOW 231314Z 29011G17KT 8SM -SN BKN013 OVC050 M12/ RMK SC6SC2

CYOW;2009-12-23 13:47;CYOW 231347Z 29013KT 12SM -SN FEW020 OVC058 M11/ RMK SC2SC6

CYOW;2009-12-23 14:00;CYOW 231400Z 29012KT 12SM -SN BKN060 M11/M14 A3014 RMK SC7 SLP215

CYOW;2009-12-23 15:00;CYOW 231500Z 29013KT 12SM -SN BKN060 M11/M14 A3015 RMK SC7 SLP220

CYOW;2009-12-23 16:00;CYOW 231600Z 29014KT 15SM -SN BKN038 OVC060 M10/M13 A3015 RMK SC6SC2 SLP218

CYOW;2009-12-23 17:00;CYOW 231700Z 29013KT 15SM -SN BKN040 OVC060 M10/M12 A3014 RMK SC6SC2 SLP217

CYOW;2009-12-23 18:00;CYOW 231800Z 29011KT 15SM -SN BKN026 OVC040 M08/M12 A3014 RMK SC6SC2 SLP217

CYOW;2009-12-23 19:00;CYOW 231900Z 28010G15KT 15SM -SN BKN028 OVC040 M08/M12 A3016 RMK SC7SC1 SLP222

CYOW;2009-12-23 20:00;CYOW 232000Z 29009KT 15SM -SN OVC026 M07/M11 A3017 RMK SC8 SLP227

CYOW;2009-12-23 21:00;CYOW 232100Z 29007KT 15SM -SN OVC024 M06/M10 A3020 RMK SC8 SLP236

CYOW;2009-12-23 22:00;CYOW 232200Z 30009KT 15SM -SN OVC022 M06/M10 A3022 RMK SC8 SLP242

CYOW;2009-12-23 23:00;CYOW 232300Z 30010KT 15SM -SN OVC019 M05/M09 A3024 RMK SC8 SLP249

CYOW;2009-12-23 23:38;CYOW 232338Z 30010KT 15SM DRSN OVC022 M05/ RMK SC8

CYOW;2009-12-24 00:00;CYOW 240000Z 30011KT 15SM DRSN OVC023 M05/M09 A3026 RMK SC8 /S01/ SLP255

CYOW;2009-12-24 01:00;CYOW 240100Z 30013KT 15SM FEW030 OVC050 M05/M08 A3027 RMK SC2SC6 SLP258

CYOW;2009-12-24 02:00;CYOW 240200Z 30009KT 15SM FEW030 BKN048 M05/M08 A3028 RMK SC1SC6 SLP261

CYOW;2009-12-24 03:00;CYOW 240300Z 29009KT 15SM FEW030 OVC050 M05/M08 A3029 RMK SC1SC7 MOON VISBL SLP266

CYOW;2009-12-24 04:00;CYOW 240400Z 30008KT 15SM FEW016 OVC041 M05/M07 A3031 RMK SC1SC7 SLP272

CYOW;2009-12-24 05:00;CYOW 240500Z 29007KT 15SM SCT016 OVC033 M05/M07 A3032 RMK SC3SC5 SLP275

CYOW;2009-12-24 05:39;CYOW 240539Z 29008KT 15SM BKN012 OVC030 M05/ RMK SC6SC2

CYOW;2009-12-24 06:00;CYOW 240600Z 30007KT 15SM OVC010 M05/M06 A3033 RMK SC8 SLP280

CYOW;2009-12-24 07:00;CYOW 240700Z 32008KT 15SM OVC010 M04/M05 A3035 RMK SC8 SLP287

CYOW;2009-12-24 08:00;CYOW 240800Z 30007KT 15SM BKN011 OVC028 M05/M06 A3037 RMK SC6SC2 SLP293

CYOW;2009-12-24 09:00;CYOW 240900Z 32007KT 12SM FEW009 OVC025 M04/M05 A3038 RMK SC2SC6 SLP296

CYOW;2009-12-24 10:00;CYOW 241000Z 32008KT 15SM FEW009 OVC023 M04/M05 A3039 RMK SC1SC7 SLP300

CYOW;2009-12-24 11:00;CYOW 241100Z 34005KT 15SM FEW018 OVC023 M04/M05 A3040 RMK SC1SC7 SLP302

CYOW;2009-12-24 12:00;CYOW 241200Z 27004KT 15SM FEW015 OVC029 M04/M05 A3043 RMK SC1SC7 SLP312

CYOW;2009-12-24 13:00;CYOW 241300Z 28005KT 15SM BKN023 M05/M06 A3045 RMK SC7 SLP319

CYOW;2009-12-24 14:00;CYOW 241400Z 29006KT 15SM BKN019 M04/M05 A3048 RMK SC7 SLP331

CYOW;2009-12-24 15:00;CYOW 241500Z 29005KT 15SM OVC017 M04/M05 A3051 RMK SC8 SLP340

CYOW;2009-12-24 16:00;CYOW 241600Z 31005KT 15SM BKN018 M03/M04 A3050 RMK SC7 SLP337

CYOW;2009-12-24 17:00;CYOW 241700Z 36005KT 15SM BKN015 M02/M04 A3048 RMK SC5 SLP330

CYOW;2009-12-24 18:00;CYOW 241800Z 35004KT 15SM FEW015 M01/M04 A3046 RMK SC1 SLP321

CYOW;2009-12-24 19:00;CYOW 241900Z 36002KT 15SM FEW015 M01/M03 A3046 RMK SC1 SLP321

CYOW;2009-12-24 20:00;CYOW 242000Z 00000KT 15SM BKN019 M01/M03 A3046 RMK SC7 SLP321

CYOW;2009-12-24 21:00;CYOW 242100Z 26004KT 15SM BKN020 M00/M03 A3047 RMK SC7 SLP325

CYOW;2009-12-24 22:00;CYOW 242200Z 31003KT 15SM BKN019 M01/M03 A3048 RMK SC7 SLP328

CYOW;2009-12-24 23:00;CYOW 242300Z 28002KT 15SM BKN019 M01/M03 A3047 RMK SC7 SLP325

CYOW;2009-12-25 00:00;CYOW 250000Z 00000KT 15SM OVC017 M01/M03 A3048 RMK SC8 SLP328

CYOW;2009-12-25 01:00;CYOW 250100Z 00000KT 15SM OVC014 M02/M04 A3048 RMK SC8 SLP328

CYOW;2009-12-25 02:00;CYOW 250200Z 00000KT 15SM OVC011 M01/M04 A3049 RMK SC8 SLP331

CYOW;2009-12-25 03:00;CYOW 250300Z 00000KT 15SM OVC011 M01/M03 A3048 RMK SC8 SLP329

CYOW;2009-12-25 04:00;CYOW 250400Z 09007KT 15SM OVC008 M01/M02 A3046 RMK SC8 SLP323

CYOW;2009-12-25 05:00;CYOW 250500Z 11006KT 15SM OVC006 M01/M02 A3046 RMK SC8 SLP323

CYOW;2009-12-25 06:00;CYOW 250600Z 09008KT 12SM OVC006 M01/M02 A3046 RMK SC8 SLP321

CYOW;2009-12-25 07:00;CYOW 250700Z 07008KT 12SM OVC005 M01/M02 A3046 RMK SC8 SLP323

CYOW;2009-12-25 08:00;CYOW 250800Z 08007KT 12SM OVC005 M01/M02 A3046 RMK SC8 SLP323

CYOW;2009-12-25 09:00;CYOW 250900Z 09009KT 10SM OVC005 M01/M02 A3045 RMK SC8 SLP317

CYOW;2009-12-25 09:39;CYOW 250939Z 09011KT 10SM OVC004 M01/ RMK SC8

CYOW;2009-12-25 10:00;CYOW 251000Z 09007KT 8SM OVC004 M01/M02 A3044 RMK SC8 SLP315

CYOW;2009-12-25 11:00;CYOW 251100Z 09009KT 8SM OVC003 M02/M02 A3045 RMK SC8 SLP319

CYOW;2009-12-25 12:00;CYOW 251200Z 09012KT 8SM OVC004 M02/M02 A3043 RMK SC8 SLP312

CYOW;2009-12-25 13:00;CYOW 251300Z 10011KT 8SM OVC004 M01/M01 A3043 RMK SC8 SLP311

CYOW;2009-12-25 14:00;CYOW 251400Z 08012KT 8SM OVC004 M02/M02 A3044 RMK SC8 SLP315

CYOW;2009-12-25 15:00;CYOW 251500Z 08011G16KT 5SM BR OVC004 M02/M02 A3043 RMK SC8 SLP313

CYOW;2009-12-25 16:00;CYOW 251600Z 10011KT 5SM BR OVC004 M02/M02 A3044 RMK SC8 SLP314

CYOW;2009-12-25 17:00;CYOW 251700Z 09010KT 5SM BR OVC004 M02/M02 A3041 RMK SC8 SLP306

CYOW;2009-12-25 18:00;CYOW 251800Z 08010G15KT 6SM BR OVC005 M02/M02 A3037 RMK SC8 SLP290

CYOW;2009-12-25 19:00;CYOW 251900Z 08013KT 6SM BR OVC005 M02/M03 A3036 RMK SC8 SLP288

CYOW;2009-12-25 20:00;CYOW 252000Z 08009G15KT 10SM OVC005 M03/M03 A3035 RMK SC8 SLP285

CYOW;2009-12-25 21:00;CYOW 252100Z 09015KT 10SM OVC005 M03/M04 A3035 RMK SC8 SLP284

CYOW;2009-12-25 22:00;CYOW 252200Z 09011KT 12SM OVC005 M03/M04 A3035 RMK SC8 SLP283

CYOW;2009-12-25 23:00;CYOW 252300Z 09012KT 12SM OVC006 M03/M04 A3036 RMK SC8 SLP286

CYOW;2009-12-26 00:00;CYOW 260000Z 09016KT 12SM OVC010 M03/M05 A3036 RMK SC8 SLP287

CYOW;2009-12-26 01:00;CYOW 260100Z 08018KT 10SM OVC007 M04/M04 A3034 RMK SC8 SLP282

CYOW;2009-12-26 02:00;CYOW 260200Z 08014G22KT 10SM OVC009 M03/M05 A3032 RMK SC8 SLP275

CYOW;2009-12-26 03:00;CYOW 260300Z 09015G24KT 10SM OVC008 M03/M05 A3031 RMK SC8 SLP270

CYOW;2009-12-26 04:00;CYOW 260400Z 09014G21KT 10SM OVC009 M03/M04 A3031 RMK SC8 SLP270

CYOW;2009-12-26 05:00;CYOW 260500Z 08018KT 10SM OVC009 M03/M04 A3029 RMK SC8 SLP264

CYOW;2009-12-26 06:00;CYOW 260600Z 07018G25KT 8SM OVC008 M03/M04 A3026 RMK SC8 SLP254

CYOW;2009-12-26 07:00;CYOW 260700Z 08016G25KT 8SM OVC007 M03/M04 A3027 RMK SC8 SLP256

CYOW;2009-12-26 07:50;CYOW 260750Z 08016G25KT 8SM -SN OVC007 M03/ RMK SC8

CYOW;2009-12-26 08:00;CYOW 260800Z 08018KT 8SM -SN OVC009 M03/M04 A3025 RMK SC8 SLP250

CYOW;2009-12-26 08:05;CYOW 260805Z 08020G27KT 8SM -FZRA OVC009 M03/ RMK SC8

CYOW;2009-12-26 09:00;CYOW 260900Z 08020KT 8SM -FZRA OVC009 M03/M04 A3022 RMK SC8 SLP241

CYOW;2009-12-26 10:00;CYOW 261000Z 09016G24KT 10SM -FZRA OVC009 M03/M04 A3022 RMK NS8 SLP240

CYOW;2009-12-26 11:00;CYOW 261100Z CCA 08012G21KT 8SM -FZRA OVC010 M03/M04 A3021 RMK NS8 SLP238

CYOW;2009-12-26 12:00;CYOW 261200Z 08013G20KT 7SM -FZRA OVC008 M03/M03 A3021 RMK NS8 SLP238

CYOW;2009-12-26 13:00;CYOW 261300Z 08015G20KT 4SM -FZRA BR OVC009 M02/M03 A3020 RMK NS8 SLP235

CYOW;2009-12-26 13:30;CYOW 261330Z 08013KT 2SM -FZRA BR OVC009 M02/ RMK NS8

CYOW;2009-12-26 14:00;CYOW 261400Z 08015KT 4SM -FZRA BR BKN008 OVC050 M02/M03 A3020 RMK SF5NS3 SLP233

CYOW;2009-12-26 14:21;CYOW 261421Z 08012KT 5SM BR OVC008 M02/ REFZRA RMK SF8

CYOW;2009-12-26 15:00;CYOW 261500Z 08011KT 10SM OVC008 M02/M03 A3020 REFZRA RMK SF8 SLP233

CYOW;2009-12-26 15:27;CYOW 261527Z 08012G17KT 5SM -FZRA BR OVC007 M02/ RMK SF8

CYOW;2009-12-26 16:00;CYOW 261600Z 08011KT 6SM -FZRA BR OVC007 M01/M02 A3016 RMK SF8 SLP222

CYOW;2009-12-26 16:46;CYOW 261646Z 09018G28KT 10SM OVC007 M01/ REFZRA RMK SF8

CYOW;2009-12-26 17:00;CYOW 261700Z 09020KT 8SM -FZRA OVC008 M01/M02 A3013 RMK SF8 WND ESTD DUE ICE ACCRETION SLP211

CYOW;2009-12-26 18:00;CYOW 261800Z 09020KT 3SM -FZRA BR OVC008 M01/M02 A3011 RMK SF8 WND ESTD DUE ICE ACCRETION SLP204

CYOW;2009-12-26 19:00;CYOW 261900Z 09023KT 3SM FZRA BR OVC009 M01/M01 A3012 RMK SF8 WND EST DUE ICE ACCRETION FROM MODERATE FREEZING RAIN SLP205

CYOW;2009-12-26 19:33;CYOW 261933Z CCA 09022KT 4SM -FZRA BR BKN006 OVC030 M01/ RMK SF5NS3 WND ESTD DUE ICE ACCRETION

CYOW;2009-12-26 20:00;CYOW 262000Z 09021KT 3SM -PL BR BKN006 OVC026 M01/M01 A3012 RMK SF5NS3 WND ESTD DUE ICE ACCRETION SLP207

CYOW;2009-12-26 20:25;CYOW 262025Z 09017KT 5SM BR SCT006 OVC026 M01/ RMK SF4NS4 WND ESTD DUE ICE ACCRETION

CYOW;2009-12-26 21:00;CYOW 262100Z 09016KT 5SM BR SCT005 OVC038 M01/M01 A3011 RMK SF3NS5 WND ESTD DUE ICE ACCRETION SLP203

CYOW;2009-12-26 21:19;CYOW 262119Z 09021KT 3SM -FZRA BR BKN005 OVC038 M01/ RMK SF6NS2 WND ESTD DUE ICE ACCRETION

CYOW;2009-12-26 22:00;CYOW 262200Z 09020KT 6SM -FZRA BR BKN005 OVC032 M01/M01 A3012 RMK SF6NS2 WND ESTD DUE ICE ACCRETION SLP205

CYOW;2009-12-26 22:37;CYOW 262237Z 09018KT 4SM -SN BR OVC005 M01/ REFZRA RMK SF8 WND ESTD DUE ICE ACCRETION

CYOW;2009-12-26 23:00;CYOW 262300Z 09017KT 4SM -SN BR OVC007 M01/M01 A3011 RMK SF8 SLP202

CYOW;2009-12-27 00:00;CYOW 270000Z 09020KT 6SM -SN BR OVC006 M01/M01 A3009 RMK SF8 WND ESTD DIE ICE ACCRETION SLP195

CYOW;2009-12-27 01:00;CYOW 270100Z 09018KT 8SM -SN OVC006 M00/M00 A3007 RMK SF8 WND ESTD DUE ICE ACCRETION SLP190

CYOW;2009-12-27 01:07;CYOW 270107Z 09018KT 4SM -SNPL OVC006 M00/ RMK SF8 WND ESTD DUE ICE ACCRETION

CYOW;2009-12-27 02:00;CYOW 270200Z 09021KT 7SM -SNPL OVC006 M00/M00 A3006 RMK SF8 WND ESTD DUE ICE ACCRETION SLP186

CYOW;2009-12-27 03:00;CYOW 270300Z 09021KT 5SM -SNPL OVC006 M00/M00 A3003 RMK SF8 WND ESTD DUE ICE ACCRETION SLP176

CYOW;2009-12-27 03:19;CYOW 270319Z 09022KT 8SM -FZRA OVC006 M00/ RMK SF8 WND ESTD DUE ICE ACCRETION

CYOW;2009-12-27 04:00;CYOW 270400Z 09019KT 5SM -FZRA BR OVC006 00/M00 A3001 RMK SF8 WND ESTD DUE ICE ACCRETION /S01/ SLP168

CYOW;2009-12-27 04:47;CYOW 270447Z 09018KT 6SM -RA BR OVC006 00/ REFZRA RMK SF8 WND ESTD DUE ICE ACCRETION

CYOW;2009-12-27 05:00;CYOW 270500Z 09020KT 5SM -RA BR OVC006 00/00 A2999 REFZRA RMK SF8 WND ESTD DUE ICE ACCRETION SLP162

CYOW;2009-12-27 06:00;CYOW 270600Z 09019KT 6SM -RA BR OVC006 00/00 A2996 RMK SF8 WND ESTD DUE ICE ACCRETION SLP153

CYOW;2009-12-27 07:00;CYOW 270700Z 09018KT 6SM -RA BR OVC006 00/00 A2994 RMK SF8 WND ESTD DUE ICE ACCRETION SLP144

CYOW;2009-12-27 07:45;CYOW 270745Z 09019KT 6SM -RA BR OVC004 00/ RMK SF8 WND ESTD DUE ICE ACCRETION

CYOW;2009-12-27 08:00;CYOW 270800Z 09016KT 5SM -RA BR OVC004 00/00 A2991 RMK SF8 WND ESTD DUE ICE ACCRETION SLP136

CYOW;2009-12-27 09:00;CYOW 270900Z 09016KT 4SM -RA BR OVC004 01/01 A2990 RMK SF8 WND ESTD DUE ICE ACCRETION SLP130

CYOW;2009-12-27 10:00;CYOW 271000Z 09013KT 3SM -RA BR OVC004 00/00 A2988 RMK FG1SF7 WND ESTD DUE ICE ACCRETION SLP124

CYOW;2009-12-27 11:00;CYOW 271100Z 14004KT 3SM -RA BR OVC004 00/00 A2988 RMK FG1SF7 WND ESTD DUE ICE ACCRETION SLP125

CYOW;2009-12-27 12:00;CYOW 271200Z 14002KT 3SM -RASN BR OVC003 00/00 A2988 RMK SF8 WND ESTD DUE ICE ACCRETION SLP124

CYOW;2009-12-27 13:00;CYOW 271300Z 14003KT 1SM BR OVC003 00/00 A2988 RMK SF8 WND ESTD DUE ICE ACCRETION SLP122

CYOW;2009-12-27 13:33;CYOW 271333Z 09005KT 1 1/2SM BR BKN066 00/ RMK FG4AC3 WND ESTD DUE ICE ACCRETION

CYOW;2009-12-27 13:49;CYOW 271349Z 14003KT 2SM BR OVC002 00/ RMK ST8 WND ESTD DUE ICE ACCRETION

CYOW;2009-12-27 14:00;CYOW 271400Z 18004KT 3/4SM R07/P6000FT/D R32/P6000FT/D BR OVC002 00/00 A2987 RMK FG5SF3 WND ESTD DUE ICE ACCRETION SLP120

CYOW;2009-12-27 14:22;CYOW 271422Z 00000KT 1/4SM R07/2400FT/N R32/2600FT/N FG VV002 00/ RMK FG8 WND ESTD DUE ICE ACCRETION

CYOW;2009-12-27 15:00;CYOW 271500Z CCA 23005KT 1/2SM R07/1200FT/U R32/1400FT/N FG VV002 00/00 A2985 RMK FG8 WND ESTD DUE ICE ACCRETION SLP115

CYOW;2009-12-27 15:27;CYOW 271527Z 23004KT 3/4SM R07/2800FT/U R32/3500FT/U BR OVC002 00/ RMK FG4SF4 WND ESTD DUE ICE ACCRETION

CYOW;2009-12-27 15:45;CYOW 271545Z 27007KT 3SM BR OVC003 00/ RMK ST8 WND ESTD DUE ICE ACCRETION

CYOW;2009-12-27 16:00;CYOW 271600Z 27008KT 5SM BR OVC004 00/00 A2985 RMK ST8 WND ESTD DUE ICE ACCRETION SLP112

CYOW;2009-12-27 17:00;CYOW 271700Z 27006KT 6SM BR OVC004 00/00 A2981 RMK ST8 WND ESTD DUE ICE ACCRETION SLP101

CYOW;2009-12-27 18:00;CYOW 271800Z 27006KT 6SM BR OVC004 00/00 A2980 RMK ST8 WND ESTD DUE ICE ACCRETION SLP096

CYOW;2009-12-27 19:00;CYOW 271900Z 27005KT 8SM OVC004 M00/M00 A2979 RMK ST8 WND ESTD DUE ICE ACCRETION SLP093

CYOW;2009-12-27 19:38;CYOW 271938Z 23004KT 10SM SCT004 M00/ RMK SF4 WND ESTD DUE ICE ACCRETION

CYOW;2009-12-27 20:00;CYOW 272000Z 23005KT 10SM SCT004 BKN060 00/M00 A2979 RMK SF3SC3 WND ESTD DUE ICE ACCRETION SLP092

CYOW;2009-12-27 21:00;CYOW 272100Z 23003KT 6SM BR SCT060 BKN190 M00/M00 A2978 RMK SC3AC3 WND ESTD DUE ICE ACCRETION SLP089

CYOW;2009-12-27 22:00;CYOW 272200Z 14002KT 6SM BR SCT022 OVC072 M00/M00 A2977 RMK SC3AC5 WND ESTD DUE ICE ACCRETION SLP088

CYOW;2009-12-27 23:00;CYOW 272300Z 23004KT 6SM BR FEW020 OVC070 M00/M00 A2978 RMK SC2AC6 WND ESTD DUE ICE ACCRETION SLP089

CYOW;2009-12-28 00:00;CYOW 280000Z CCA 23005KT 10SM FEW020 OVC070 01/M00 A2977 RMK SC1AC7 SLP087

CYOW;2009-12-28 01:00;CYOW 280100Z 23006KT 10SM FEW020 OVC079 00/M00 A2976 RMK SC1AC7 SLP085

CYOW;2009-12-28 02:00;CYOW 280200Z 23006KT 15SM FEW040 OVC078 00/M01 A2976 RMK SC1AC7 WND ESTD SLP082

CYOW;2009-12-28 03:00;CYOW 280300Z 23005KT 15SM OVC072 M00/M01 A2975 RMK AC8 WND ESTD SLP079

CYOW;2009-12-28 04:00;CYOW 280400Z 23005KT 15SM OVC063 M00/M01 A2973 RMK SC8 WND ESTD SLP075

CYOW;2009-12-28 05:00;CYOW 280500Z 23005KT 15SM OVC060 M01/M02 A2971 RMK SC8 WND ESTD SLP067

CYOW;2009-12-28 05:12;CYOW 280512Z 23005KT 10SM -SN OVC050 M01/ RMK SC8 WND ESTD

CYOW;2009-12-28 06:00;CYOW 280600Z 23005KT 10SM -SN OVC028 M01/M02 A2969 RMK SC8 WND ESTD SLP060

CYOW;2009-12-28 06:30;CYOW 280630Z 23005KT 15SM FEW030 OVC051 M01/ RMK SC2SC6 WND ESTD

CYOW;2009-12-28 07:00;CYOW 280700Z 23004KT 15SM BKN022 OVC050 M01/M02 A2967 RMK SC5SC3 WND ESTD SLP053

CYOW;2009-12-28 08:00;CYOW 280800Z 18004KT 15SM OVC030 M01/M02 A2965 RMK SC8 WND ESTD SLP048

CYOW;2009-12-28 09:00;CYOW 280900Z 18004KT 10SM OVC036 M01/M02 A2962 RMK SC8 SLP035

CYOW;2009-12-28 10:00;CYOW 281000Z 23003KT 10SM OVC034 M02/M03 A2960 RMK SC8 WND ESTD SLP030

CYOW;2009-12-28 10:29;CYOW 281029Z 23004KT 10SM -SN BKN015 OVC030 M02/ RMK SC6SC2 WND ESTD

CYOW;2009-12-28 11:00;CYOW 281100Z 23004KT 10SM -SN BKN014 OVC030 M02/M03 A2959 RMK SC6SC2 WND ESTD SLP025

CYOW;2009-12-28 11:40;CYOW 281140Z 23002KT 2SM -SN BKN004 OVC030 M02/ RMK SF5NS3 WND ESTD DUE ICE ACCRETION

CYOW;2009-12-28 12:00;CYOW 281200Z 32005KT 2SM -SN BKN004 OVC020 M02/M02 A2957 RMK SF6NS2 WND ESTD DUE ICE ACCRETION SLP020

CYOW;2009-12-28 13:00;CYOW 281300Z 32002KT 4SM BR SCT010 BKN090 M03/M03 A2956 RMK SF3AC4 WND ESTD DUE ICE ACCRETION SLP016

CYOW;2009-12-28 13:37;CYOW 281337Z 32002KT 4SM BR OVC010 M03/ RMK SC8 WND ESTD DUE ICE ACCRETION

CYOW;2009-12-28 14:00;CYOW 281400Z 32002KT 4SM BR SCT010 BKN090 M03/M03 A2955 RMK SC3AC2 WND ESTD DUE ICE ACCRETION. AC THIN. SLP011

CYOW;2009-12-28 15:00;CYOW 281500Z 27003KT 5SM BR FEW010 SCT090 M03/M03 A2954 RMK CF2AC2 WND ESTD DUE ICE ACCRETION. SLP009

CYOW;2009-12-28 16:00;CYOW 281600Z 23003KT 10SM FEW010 SCT090 M02/M04 A2953 RMK CF2AC2 WND ESTD DUE ICE ACCRETION SLP007

CYOW;2009-12-28 17:00;CYOW 281700Z 27006KT 12SM FEW010 FEW090 SCT240 M01/M05 A2951 RMK CU2AC1CI1 WND ESTD DUE ICE ACCRETION SLP998

CYOW;2009-12-28 18:00;CYOW 281800Z 27006KT 12SM BKN020 BKN060 M01/M04 A2949 RMK CU5SC2 WND ESTD DUE ICE ACCRETION SLP991

CYOW;2009-12-28 19:00;CYOW 281900Z 23010KT 2SM -SN SCT020 OVC070 M01/M03 A2948 RMK CU3AC5 WND ESTD DUE ICE ACCRETION SLP990

CYOW;2009-12-28 19:40;CYOW 281940Z 23006KT 3SM -SN BKN008 OVC020 M01/ RMK SF6SC2 WND ESTD DUE ICE ACCRETION

CYOW;2009-12-28 20:00;CYOW 282000Z 23008KT 3SM -SN OVC009 M01/M02 A2949 RMK SF8 WND ESTD DUE ICE ACCRETION SLP991

CYOW;2009-12-28 21:00;CYOW 282100Z 23006KT 4SM -SN OVC009 M02/M02 A2949 RMK SF8 WND ESTD DUE ICE ACCRETION SLP992

CYOW;2009-12-28 22:00;CYOW 282200Z 23004KT 2SM -SN OVC007 M02/M02 A2949 RMK SF8 WND ESTD DUE ICE ACCRETION SLP991

CYOW;2009-12-28 23:00;CYOW 282300Z 23008KT 4SM -SN OVC008 M02/M03 A2949 RMK SF8 WND ESTD DUE ICE ACCRETION SLP992

CYOW;2009-12-29 00:00;CYOW 290000Z 23005KT 8SM BKN050 OVC070 M03/M04 A2949 RMK SC5AC3 WND ESTD SLP992

CYOW;2009-12-29 01:00;CYOW 290100Z 23006KT 10SM BKN045 OVC065 M03/M05 A2948 RMK SC5SC3 WND ESTD SLP990

CYOW;2009-12-29 01:44;CYOW 290144Z 23004KT 4SM -SN OVC056 M03/ RMK SC8 WND ESTD

CYOW;2009-12-29 02:00;CYOW 290200Z 23007KT 3SM -SN BR OVC030 M03/M05 A2948 RMK SC8 WND ESTD SLP989

CYOW;2009-12-29 03:00;CYOW 290300Z CCA 27007KT 1 1/2SM -SN BR OVC012 M04/M04 A2948 RMK SC8 WND ESTD SLP989

CYOW;2009-12-29 04:00;CYOW 290400Z 32025KT 1SM R07/3500FT/U R32/3000FT/U -SN BR OVC027 M10/M12 A2955 RMK SN3SC5 WND ESTD SLP011

CYOW;2009-12-29 04:23;CYOW 290423Z CCA 32028KT 1 1/2SM R07/6000FT/U R32/3500V6000FT/D -SN BR OVC032 M11/ RMK SC8 WND ESTD

CYOW;2009-12-29 05:00;CYOW 290500Z 32025KT 1 1/2SM -SN BR SCT021 OVC036 M12/M14 A2960 RMK SC3SC5 WND ESTD SLP030

CYOW;2009-12-29 05:17;CYOW 290517Z 32033KT 3/4SM R07/3000V6000FT/D R32/3000V6000FT/D -SN BR SCT011 OVC024 M13/ RMK SC3SC5 WND ESTD

CYOW;2009-12-29 05:36;CYOW 290536Z 32032KT 1/2SM R07/2600V4000FT/N R32/2400V4000FT/N -SN BLSN SCT011 OVC025 M14/ RMK SC3SC5 WND ESTD

CYOW;2009-12-29 06:00;CYOW 290600Z 32031KT 1SM R07/3000V4500FT/N R32/3000FT/N -SN BLSN FZFG FEW028 OVC068 M14/M17 A2967 RMK SC2AC6 WND ESTD PRESRR SLP055

CYOW;2009-12-29 07:00;CYOW 290700Z 32026KT 5/8SM R07/3000V6000FT/D R32/3500V6000FT/U -SN BLSN FZFG FEW027 OVC034 M15/M18 A2973 RMK SC2SC6 WND ESTD SLP074

CYOW;2009-12-29 08:00;CYOW 290800Z 32032KT 3/4SM R07/4000V6000FT/U R32/3500V6000FT/U -SN BLSN FZFG SCT023 OVC036 M16/M18 A2979 RMK SC3SC5 WND ESTD SLP094

CYOW;2009-12-29 08:45;CYOW 290845Z 32021KT 3SM -SN BLSN FZFG OVC033 M16/ RMK SC8 WND ESTD

CYOW;2009-12-29 09:00;CYOW 290900Z 32021KT 4SM -SN BLSN OVC032 M16/M20 A2985 RMK SC8 WND ESTD PRERR SLP117

CYOW;2009-12-29 10:00;CYOW 291000Z 32020KT 3SM -SN BLSN FEW029 SCT100 M17/M22 A2991 RMK SC2AC2 WND ESTD SLP136

CYOW;2009-12-29 10:40;CYOW 291040Z 32025KT 4SM BR FEW027 M18/ RMK SC1 WND ESTD

CYOW;2009-12-29 11:00;CYOW 291100Z 32015KT 10SM FEW027 M18/M23 A2997 RMK SC1 WND ESTD PRESRR SLP158

CYOW;2009-12-29 12:00;CYOW 291200Z CCA 31008KT 12SM FEW030 M19/M24 A3003 RMK SC1 PRESRR SLP180

CYOW;2009-12-29 13:00;CYOW 291300Z CCA 32019KT 12SM FEW030 M19/M24 A3008 RMK SC1 WND ESTD SLP194

CYOW;2009-12-29 14:00;CYOW 291400Z 32016KT 12SM FEW030 M19/M24 A3011 RMK SC1 WND ESTD SLP207

CYOW;2009-12-29 15:00;CYOW 291500Z 32019KT 12SM FEW030 M19/M24 A3016 RMK SC1 WND ESTD SLP222

CYOW;2009-12-29 16:00;CYOW 291600Z 32020KT 12SM FEW030 M18/M24 A3017 RMK SC1 WND ESTD SLP226

CYOW;2009-12-29 17:00;CYOW 291700Z 32018KT 12SM FEW030 M18/M23 A3018 RMK SC1 WND ESTD SLP228

CYOW;2009-12-29 18:00;CYOW 291800Z 32018KT 12SM FEW030 M17/M23 A3019 RMK SC1 WND ESTD SLP235

CYOW;2009-12-29 19:00;CYOW 291900Z 27014KT 12SM FEW030 M17/M22 A3021 RMK SC1 WND ESTD SLP241

CYOW;2009-12-29 20:00;CYOW 292000Z 27014KT 12SM FEW020 M16/M21 A3023 RMK SC1 WND ESTD SLP248

CYOW;2009-12-29 21:00;CYOW 292100Z 27018KT 12SM FEW020 M16/M21 A3026 RMK SC1 WND ESTD SLP258

CYOW;2009-12-29 22:00;CYOW 292200Z 27014KT 12SM FEW020 M16/M22 A3027 RMK SC1 WND ESTD SLP262

CYOW;2009-12-29 23:00;CYOW 292300Z 27008KT 12SM FEW020 M17/M22 A3029 RMK SC1 WND ESTD SLP269

CYOW;2009-12-30 00:00;CYOW 300000Z 27006KT 15SM SKC M18/M22 A3031 RMK WND ESTD SLP276

CYOW;2009-12-30 01:00;CYOW 300100Z 27005KT 15SM SKC M18/M21 A3032 RMK WND ESTD SLP280

CYOW;2009-12-30 02:00;CYOW 300200Z 27003KT 15SM FEW020 M18/M21 A3032 RMK SC1 WND ESTD SLP281

CYOW;2009-12-30 03:00;CYOW 300300Z 26004KT 15SM SKC M18/M22 A3032 RMK SLP281

CYOW;2009-12-30 04:00;CYOW 300400Z 27006KT 15SM SKC M19/M22 A3033 RMK SLP283

CYOW;2009-12-30 05:00;CYOW 300500Z 26004KT 15SM SKC M19/M23 A3034 RMK SLP288

CYOW;2009-12-30 06:00;CYOW 300600Z 21004KT 15SM SKC M19/M23 A3035 RMK SLP290

CYOW;2009-12-30 07:00;CYOW 300700Z 26004KT 15SM SKC M20/M23 A3035 RMK SLP290

CYOW;2009-12-30 08:00;CYOW 300800Z 18003KT 15SM FEW140 M20/M23 A3036 RMK AC2 SLP292

CYOW;2009-12-30 09:00;CYOW 300900Z 21005KT 15SM SKC M20/M24 A3035 RMK SLP291

CYOW;2009-12-30 10:00;CYOW 301000Z 21004KT 15SM SKC M20/M23 A3035 RMK SLP290

CYOW;2009-12-30 11:00;CYOW 301100Z CCA 20004KT 15SM FEW038 M20/M23 A3036 RMK SC2 FROIN SLP292

CYOW;2009-12-30 12:00;CYOW 301200Z 18004KT 15SM FEW038 M20/M22 A3035 RMK SC2 FROIN SLP289

CYOW;2009-12-30 13:00;CYOW 301300Z 00000KT 12SM BKN044 M19/M22 A3036 RMK SC6 SLP293

CYOW;2009-12-30 14:00;CYOW 301400Z 16003KT 12SM BKN046 M18/M21 A3035 RMK SC6 SLP290

CYOW;2009-12-30 15:00;CYOW 301500Z 21004KT 12SM OVC043 M16/M19 A3035 RMK SC8 SLP289

CYOW;2009-12-30 15:42;CYOW 301542Z 22002KT 12SM -SN OVC030 M14/ RMK SC8

CYOW;2009-12-30 16:00;CYOW 301600Z 20002KT 12SM -SN OVC028 M13/M15 A3033 RMK SC8 SLP284

CYOW;2009-12-30 17:00;CYOW 301700Z 19002KT 12SM -SN OVC021 M12/M13 A3031 RMK SC8 SLP276

CYOW;2009-12-30 18:00;CYOW 301800Z 19003KT 10SM -SN OVC032 M10/M12 A3028 RMK SC8 SLP264

CYOW;2009-12-30 19:00;CYOW 301900Z 16003KT 10SM -SN OVC041 M10/M11 A3026 RMK SC8 SLP258

CYOW;2009-12-30 20:00;CYOW 302000Z 15005KT 10SM -SN OVC038 M08/M10 A3026 RMK SC8 SLP257

CYOW;2009-12-30 21:00;CYOW 302100Z 16004KT 15SM BKN033 M08/M10 A3024 RMK SC7 SLP252

CYOW;2009-12-30 22:00;CYOW 302200Z 11003KT 15SM FEW035 BKN230 M10/M11 A3023 RMK SC2CI6 SLP247

CYOW;2009-12-30 23:00;CYOW 302300Z 06005KT 15SM SCT013 BKN220 M09/M10 A3022 RMK SC4CI3 SLP244

CYOW;2009-12-31 00:00;CYOW 310000Z 06005KT 15SM FEW029 BKN200 M10/M12 A3021 RMK SC2CI5 SLP240

CYOW;2009-12-31 01:00;CYOW 310100Z 06004KT 15SM OVC026 M10/M11 A3019 RMK SC8 SLP235

CYOW;2009-12-31 02:00;CYOW 310200Z 07005KT 12SM FEW017 OVC024 M10/M12 A3018 RMK SC2SC6 SLP230

CYOW;2009-12-31 03:00;CYOW 310300Z 07005KT 12SM OVC022 M10/M11 A3016 RMK SC8 SLP223

CYOW;2009-12-31 04:00;CYOW 310400Z 07006KT 12SM SCT025 BKN080 M11/M12 A3014 RMK SC3AC3 SLP215

CYOW;2009-12-31 05:00;CYOW 310500Z 06007KT 12SM BKN078 M10/M11 A3013 RMK AC7 SLP212

CYOW;2009-12-31 06:00;CYOW 310600Z 06006KT 12SM FEW070 SCT080 M11/M12 A3010 RMK AC2AC2 SLP202

CYOW;2009-12-31 07:00;CYOW 310700Z 07006KT 12SM FEW100 FEW130 M11/M12 A3011 RMK AC1AC2 SLP206

CYOW;2009-12-31 08:00;CYOW 310800Z 08006KT 12SM BKN045 M10/M11 A3011 RMK SC6 SLP205

CYOW;2009-12-31 09:00;CYOW 310900Z 09006KT 12SM OVC064 M09/M10 A3008 RMK SC8 SLP196

CYOW;2009-12-31 10:00;CYOW 311000Z 10007KT 12SM BKN066 M09/M10 A3008 RMK AC7 SLP193

CYOW;2009-12-31 11:00;CYOW 311100Z 09006KT 12SM OVC078 M08/M09 A3008 RMK AC8 SLP194

CYOW;2009-12-31 12:00;CYOW 311200Z 09005KT 12SM BKN063 M07/M09 A3006 RMK SC7 SLP189

CYOW;2009-12-31 13:00;CYOW 311300Z 08004KT 12SM OVC046 M07/M09 A3006 RMK SC8 SLP187

CYOW;2009-12-31 14:00;CYOW 311400Z 08005KT 8SM -SN OVC033 M07/M08 A3005 RMK SC8 SLP185

CYOW;2009-12-31 14:08;CYOW 311408Z 09005KT 3SM -SN OVC030 M07/ RMK SC8

CYOW;2009-12-31 15:00;CYOW 311500Z 10006KT 6SM -SN OVC045 M06/M07 A3005 RMK SC8 SLP184

CYOW;2009-12-31 16:00;CYOW 311600Z 09006KT 10SM -SN OVC043 M06/M07 A3004 RMK SC8 SLP181

CYOW;2009-12-31 17:00;CYOW 311700Z 09006KT 8SM -SN OVC042 M05/M07 A3002 RMK SC8 /S01/ SLP173

CYOW;2009-12-31 18:00;CYOW 311800Z 09007KT 10SM -SN BKN016 OVC035 M05/M06 A2999 RMK SC6SC2 SLP164

CYOW;2009-12-31 18:18;CYOW 311818Z 09006KT 2SM -SN OVC017 M04/ RMK SN2SC6

CYOW;2009-12-31 19:00;CYOW 311900Z 09007KT 1SM R07/6000FT/U R32/5500FT/U -SN OVC015 M05/M05 A2999 RMK SN4SC4 /S01/ SLP162

CYOW;2009-12-31 20:00;CYOW 312000Z 09006KT 1 1/2SM -SN VV010 M04/M05 A2999 RMK SN8 SLP164

CYOW;2009-12-31 20:23;CYOW 312023Z CCA 10006KT 3/4SM R07/5000FT/D R32/4500FT/D -SN VV006 M04/ RMK SN8

CYOW;2009-12-31 21:00;CYOW 312100Z 09006KT 1SM R07/5000FT/N R32/5000FT/N -SN VV010 M04/M05 A2999 RMK SN8 /S02/ SLP164

CYOW;2009-12-31 22:00;CYOW 312200Z 08008KT 1SM R07/5500FT/D R32/5000FT/D -SN OVC015 M04/M05 A2999 RMK SN6SC2 /S03/ SLP164

CYOW;2009-12-31 22:19;CYOW 312219Z 08009KT 2SM -SN OVC012 M04/ RMK SN3SC5

CYOW;2009-12-31 23:00;CYOW 312300Z 08008KT 4SM -SN OVC010 M05/M05 A2999 RMK SC8 SLP163

CYOW;2009-12-31 23:30;CYOW 312330Z 08008KT 2SM -SN OVC020 M05/ RMK SN1SC7

