CYOW;2006-01-01 00:00;METAR CYOW 010000Z 08013KT 15SM OVC071 M12/M16 A2986 RMK AS8 SLP122=
CYOW;2006-01-01 00:42;SPECI CYOW 010042Z 07012KT 15SM -SN FEW025 OVC043 M11/ RMK SC2SC6 CIG=
CYOW;2006-01-01 01:00;METAR CYOW 010100Z 08011G16KT 12SM -SN OVC047 M11/M16 A2986 RMK SC8 CIG=
CYOW;2006-01-01 03:00;METAR CYOW 010300Z 08010G15KT 12SM OVC045 M11/M15 A2987 RMK SC8 SLP124=
CYOW;2006-01-01 04:00;METAR CYOW 010400Z 08010KT 15SM OVC042 M11/M15 A2986 RMK SC8 SLP123=
CYOW;2006-01-01 05:00;METAR CYOW 010500Z 08009KT 15SM OVC043 M11/M15 A2988 RMK SC8 SLP127=
CYOW;2006-01-01 06:00;METAR CYOW 010600Z 08007KT 15SM OVC038 M11/M14 A2989 RMK SC8 SLP131=
CYOW;2006-01-01 07:00;METAR CYOW 010700Z 08007KT 15SM -SN OVC028 M11/M14 A2990 RMK SC8 SN VRY LGT SLP135=
CYOW;2006-01-01 09:00;METAR CYOW 010900Z 06008KT 15SM -SN OVC024 M11/M14 A2993 RMK SC8 SN VRY LGT SLP144=
CYOW;2006-01-01 10:00;METAR CYOW 011000Z 08005KT 12SM -SN OVC024 M11/M14 A2995 RMK SC8 SLP150=
CYOW;2006-01-01 11:00;METAR CYOW 011100Z 09007KT 15SM -SN BKN022 OVC086 M10/M14 A2996 RMK SC5AC3 SN VRY LGT SLP154=
CYOW;2006-01-01 12:00;METAR CYOW 011200Z 08006KT 15SM -SN BKN016 OVC022 M10/M14 A2999 RMK SC5SC3 SLP164=
CYOW;2006-01-01 13:00;METAR CYOW 011300Z 08006KT 15SM OVC018 M11/M14 A2999 RMK SC8 SLP167=
CYOW;2006-01-01 13:55;SPECI CYOW 011355Z 08006KT 12SM -SN OVC015 M11/ RMK SC8 SNW FINE=
CYOW;2006-01-01 14:00;METAR CYOW 011400Z 09005KT 12SM -SN OVC016 M10/M14 A3002 RMK SC8 SNW=
CYOW;2006-01-01 15:00;METAR CYOW 011500Z 09006KT 12SM -SN OVC016 M10/M13 A3005 RMK SC8 SNW VRY LGT SLP187=
CYOW;2006-01-01 16:00;METAR CYOW 011600Z 10005KT 6SM -SN OVC030 M10/M13 A3004 RMK SC8 SLP181=
CYOW;2006-01-01 17:00;METAR CYOW 011700Z 09003KT 6SM -SN OVC023 M10/M12 A3004 RMK SC8 SLP182=
CYOW;2006-01-01 18:00;METAR CYOW 011800Z 11004KT 6SM -SN FEW015 BKN023 BKN073 M09/M12 A3002 RMK CU2SC3AC1 SLP176=
CYOW;2006-01-01 19:00;METAR CYOW 011900Z 11002KT 7SM -SN SCT035 OVC061 M09/M12 A3003 RMK SC3SC5 SLP178=
CYOW;2006-01-01 20:00;METAR CYOW 012000Z 00000KT 10SM -SN OVC025 M09/M12 A3006 RMK SC8 SN FINE SLP188=
CYOW;2006-01-01 21:00;METAR CYOW 012100Z 12002KT 8SM -SN OVC017 M09/M11 A3008 RMK SC8 SN FINE SLP197=
CYOW;2006-01-01 22:00;METAR CYOW 012200Z 00000KT 8SM -SN OVC015 M09/M11 A3010 RMK SC8 SLP201=
CYOW;2006-01-01 23:00;METAR CYOW 012300Z 00000KT 10SM -SN BKN015 OVC060 M09/M11 A3011 RMK SC5SC3 SN VRY LGT SLP204=
CYOW;2006-01-01 23:45;SPECI CYOW 012345Z 00000KT 12SM FEW015 OVC071 M09/ RMK SC2AC6=
CYOW;2006-01-02 00:00;METAR CYOW 020000Z 13002KT 12SM FEW015 OVC069 M09/M11 A3011 RMK SC2AC6 SLP206=
CYOW;2006-01-02 01:00;METAR CYOW 020100Z 00000KT 12SM FEW016 SCT080 BKN250 M09/M11 A3013 RMK SC2AC2CI1 SLP211=
CYOW;2006-01-02 02:00;METAR CYOW 020200Z 00000KT 12SM FEW025 BKN049 M10/M11 A3012 RMK SC1SC6 SLP208=
CYOW;2006-01-02 03:00;METAR CYOW 020300Z 00000KT 12SM OVC042 M09/M10 A3014 RMK SC8 SLP214=
CYOW;2006-01-02 04:00;METAR CYOW 020400Z 12002KT 10SM -SN OVC025 M09/M10 A3014 RMK SC8 SN VRY LGT SLP216=
CYOW;2006-01-02 05:00;METAR CYOW 020500Z 16002KT 5SM -SN OVC028 M08/M10 A3014 RMK SC8 SLP217=
CYOW;2006-01-02 05:53;SPECI CYOW 020553Z 00000KT 2SM -SN OVC027 M08/ RMK SC8=
CYOW;2006-01-02 06:00;METAR CYOW 020600Z 00000KT 3SM -SN OVC029 M08/M09 A3014 RMK SC8 SLP215=
CYOW;2006-01-02 07:00;METAR CYOW 020700Z 07002KT 8SM -SN OVC017 M07/M09 A3017 RMK SC8 SLP224=
CYOW;2006-01-02 07:48;SPECI CYOW 020748Z 00000KT 10SM OVC018 M07/ RMK SC8=
CYOW;2006-01-02 08:00;METAR CYOW 020800Z 05002KT 10SM OVC017 M07/M08 A3018 RMK SC8 SLP228=
CYOW;2006-01-02 09:00;METAR CYOW 020900Z 05004KT 10SM BKN016 OVC049 M07/M08 A3018 RMK SC6SC2 SLP227=
CYOW;2006-01-02 10:00;METAR CYOW 021000Z 06003KT 10SM BKN014 OVC052 M07/M08 A3018 RMK SC5SC3 SLP228=
CYOW;2006-01-02 11:00;METAR CYOW 021100Z 11002KT 10SM BKN013 BKN051 M07/M09 A3019 RMK SC5SC1 SLP230=
CYOW;2006-01-02 12:00;METAR CYOW 021200Z 07004KT 6SM BR OVC013 M07/M08 A3019 RMK SC8 SLP230=
CYOW;2006-01-02 13:00;METAR CYOW 021300Z 05005KT 5SM BR OVC010 M07/M08 A3019 RMK SC8 SLP233=
CYOW;2006-01-02 13:23;SPECI CYOW 021323Z 05003KT 5SM BR OVC008 M07/ RMK ST8=
CYOW;2006-01-02 14:00;METAR CYOW 021400Z 00000KT 4SM BR OVC007 M07/M08 A3021 RMK ST8 SLP238=
CYOW;2006-01-02 15:00;METAR CYOW 021500Z 04003KT 4SM BR OVC006 M06/M08 A3023 RMK ST8 SLP244=
CYOW;2006-01-02 16:00;METAR CYOW 021600Z 05003KT 4SM BR OVC006 M05/M07 A3022 RMK ST8 SLP241=
CYOW;2006-01-02 17:00;METAR CYOW 021700Z 03005KT 4SM BR OVC005 M05/M06 A3020 RMK ST8 SLP236=
CYOW;2006-01-02 18:00;METAR CYOW 021800Z 04003KT 2SM BR OVC005 M04/M05 A3019 RMK ST8 SLP231=
CYOW;2006-01-02 18:38;SPECI CYOW 021838Z 04005KT 1 1/2SM BR OVC004 M04/ RMK ST8=
CYOW;2006-01-02 19:00;METAR CYOW 021900Z 05003KT 1 1/2SM BR OVC004 M04/M04 A3019 RMK ST8 SLP233=
CYOW;2006-01-02 20:00;METAR CYOW 022000Z 04006KT 1 1/2SM BR OVC004 M04/M04 A3018 RMK ST8 SLP228=
CYOW;2006-01-02 21:00;METAR CYOW 022100Z 05007KT 4SM BR OVC004 M03/M04 A3017 RMK ST8 SLP223=
CYOW;2006-01-02 22:00;METAR CYOW 022200Z 05009KT 4SM BR OVC004 M04/M05 A3016 RMK ST8 SLP221=
CYOW;2006-01-02 23:53;SPECI CYOW 022353Z 05010KT 10SM FEW004 OVC006 M04/ RMK SF2ST6=
CYOW;2006-01-03 00:00;METAR CYOW 030000Z 06010KT 10SM FEW004 OVC006 M04/M05 A3019 RMK SF2ST6 SLP230=
CYOW;2006-01-03 01:00;METAR CYOW 030100Z 07010KT 10SM BKN005 OVC008 M05/M06 A3017 RMK SF6ST2 SLP224=
CYOW;2006-01-03 01:26;SPECI CYOW 030126Z 05010KT 10SM OVC004 M05/ RMK SF8 CIG VRB 3-5=
CYOW;2006-01-03 02:00;METAR CYOW 030200Z 08008KT 6SM BR OVC003 M05/M05 A3016 RMK ST8 SLP221=
CYOW;2006-01-03 03:00;METAR CYOW 030300Z 06009G15KT 5SM BR OVC003 M05/M06 A3015 RMK ST8 SLP216=
CYOW;2006-01-03 03:30;SPECI CYOW 030330Z 06010KT 5SM BR OVC004 M06/ RMK SF8 CIG VRB 3-5=
CYOW;2006-01-03 04:00;METAR CYOW 030400Z 06010KT 3SM BR OVC003 M06/M07 A3014 RMK SF8 CIG VRB 2-4 SLP214=
CYOW;2006-01-03 05:00;METAR CYOW 030500Z 06011KT 4SM BR OVC004 M07/M07 A3013 RMK SF8 CIG VRB 3-5 SLP211=
CYOW;2006-01-03 05:38;SPECI CYOW 030538Z 07012KT 6SM BR SCT004 OVC007 M07/ RMK SF3ST5=
CYOW;2006-01-03 05:53;SPECI CYOW 030553Z 07009KT 8SM FEW004 BKN007 BKN240 M07/ RMK SF2SF2CI0=
CYOW;2006-01-03 06:00;METAR CYOW 030600Z 06009KT 8SM SCT006 BKN011 BKN240 M07/M08 A3013 RMK SF3SC2CI1 SLP209=
CYOW;2006-01-03 06:54;SPECI CYOW 030654Z 07011KT 10SM FEW010 BKN240 M07/ RMK SC2CI1=
CYOW;2006-01-03 07:00;METAR CYOW 030700Z 07011KT 12SM FEW012 BKN240 M07/M09 A3012 RMK SC2CI1 SLP208=
CYOW;2006-01-03 08:00;METAR CYOW 030800Z 07010KT 12SM FEW015 BKN250 M07/M09 A3012 RMK SC1CS2 SLP206=
CYOW;2006-01-03 09:00;METAR CYOW 030900Z 06010KT 12SM FEW015 BKN250 M07/M09 A3011 RMK SC1CS3 FROIN SC TR SLP202=
CYOW;2006-01-03 10:00;METAR CYOW 031000Z 07011KT 12SM FEW015 BKN250 M07/M09 A3010 RMK SC1CS3 FROIN SC TR SLP200=
CYOW;2006-01-03 11:00;METAR CYOW 031100Z 07012KT 12SM SCT250 M07/M10 A3010 RMK CI1 FROIN SLP199=
CYOW;2006-01-03 13:00;METAR CYOW 031300Z 05007KT 15SM FEW250 M08/M10 A3011 RMK CI0 SLP205=
CYOW;2006-01-03 14:00;METAR CYOW 031400Z 07012KT 15SM FEW120 FEW250 M08/M10 A3013 RMK AC1CI1 AC TR SLP209=
CYOW;2006-01-03 15:00;METAR CYOW 031500Z 07009KT 15SM FEW120 FEW250 M06/M10 A3015 RMK AC1CI0 AC TR SLP216=
CYOW;2006-01-03 16:00;METAR CYOW 031600Z 07008KT 15SM FEW120 FEW250 M05/M09 A3014 RMK AC1CI0 AC TR SLP214=
CYOW;2006-01-03 18:00;METAR CYOW 031800Z 07012KT 15SM FEW120 FEW250 M03/M08 A3009 RMK AC1CI1 CLDS TR SLP196=
CYOW;2006-01-03 19:00;METAR CYOW 031900Z 07007KT 15SM FEW120 FEW250 M02/M08 A3009 RMK AC1CI0 AC TR SLP197=
CYOW;2006-01-03 21:00;METAR CYOW 032100Z 09006KT 15SM FEW120 BKN250 M03/M07 A3010 RMK AC1CI1 AC TR SLP199=
CYOW;2006-01-03 22:00;METAR CYOW 032200Z 07005KT 15SM FEW250 M04/M08 A3011 RMK CI0 SLP202=
CYOW;2006-01-03 23:00;METAR CYOW 032300Z 08006KT 15SM FEW250 M05/M09 A3012 RMK CI0 SLP208=
CYOW;2006-01-04 00:00;METAR CYOW 040000Z 04004KT 15SM SKC M06/M09 A3014 RMK SLP214=
CYOW;2006-01-04 01:00;METAR CYOW 040100Z 07005KT 15SM SKC M07/M10 A3012 RMK SLP207=
CYOW;2006-01-04 02:00;METAR CYOW 040200Z 07005KT 15SM SKC M08/M10 A3011 RMK SLP206=
CYOW;2006-01-04 03:00;METAR CYOW 040300Z 04004KT 15SM SKC M08/M10 A3012 RMK SLP209=
CYOW;2006-01-04 04:00;METAR CYOW 040400Z 04005KT 15SM FEW220 M09/M11 A3011 RMK CI1 SLP206=
CYOW;2006-01-04 05:19;SPECI CYOW 040519Z 07006KT 12SM OVC008 M09/ RMK SC6=
CYOW;2006-01-04 06:00;METAR CYOW 040600Z 04002KT 12SM OVC006 M09/M11 A3010 RMK SC8 SLP201=
CYOW;2006-01-04 06:31;SPECI CYOW 040631Z 07004KT 10SM FEW006 BKN050 M08/ RMK SC2SC6=
CYOW;2006-01-04 07:27;SPECI CYOW 040727Z 06004KT 8SM OVC006 M09/ RMK SC8=
CYOW;2006-01-04 08:00;METAR CYOW 040800Z 08006KT 6SM BR OVC005 M09/M10 A3009 RMK ST8 CIG RAG SLP198=
CYOW;2006-01-04 09:00;METAR CYOW 040900Z 09005KT 4SM BR OVC003 M09/M10 A3008 RMK ST8 SLP193=
CYOW;2006-01-04 09:15;SPECI CYOW 040915Z 09006KT 1SM BR OVC003 M09/ RMK FG1ST7=
CYOW;2006-01-04 10:00;METAR CYOW 041000Z 10006KT 3/4SM BR VV002 M10/M10 A3004 RMK FG8 SLP181=
CYOW;2006-01-04 10:51;SPECI CYOW 041051Z 09007KT 1/2SM FZFG VV001 M09/ RMK FG8=
CYOW;2006-01-04 11:00;METAR CYOW 041100Z 09005KT 1/2SM FZFG VV001 M09/M10 A3003 RMK FG8 SLP177=
CYOW;2006-01-04 11:10;SPECI CYOW 041110Z 00000KT 1/4SM FZFG VV001 M09/ RMK FG8=
CYOW;2006-01-04 11:54;SPECI CYOW 041154Z 06007KT 5/8SM BR OVC002 M09/ RMK FG6ST2=
CYOW;2006-01-04 12:00;METAR CYOW 041200Z 06006KT 3/4SM BR OVC002 M09/M10 A3002 RMK FG6ST2 SLP175=
CYOW;2006-01-04 13:00;METAR CYOW 041300Z 08006KT 5/8SM BR VV002 M09/M10 A3000 RMK FG8 SLP168=
CYOW;2006-01-04 14:13;SPECI CYOW 041413Z 09006KT 2SM BR OVC004 M09/ RMK FG2ST6=
CYOW;2006-01-04 15:00;METAR CYOW 041500Z 08008KT 2 1/2SM BR OVC004 M08/M09 A2998 RMK FG2ST6 SLP161=
CYOW;2006-01-04 15:47;SPECI CYOW 041547Z 06006KT 4SM BR BKN006 OVC055 M08/ RMK SF5SC2=
CYOW;2006-01-04 16:00;METAR CYOW 041600Z 05005KT 4SM BR BKN006 OVC060 M08/M08 A2995 RMK SF5SC2 SLP151=
CYOW;2006-01-04 17:00;METAR CYOW 041700Z 06008KT 6SM BR SCT006 OVC050 M07/M08 A2989 RMK SF3SC5 PRESFR SLP130=
CYOW;2006-01-04 18:00;METAR CYOW 041800Z 07006KT 6SM BR OVC021 M06/M07 A2985 RMK SC8 SLP117=
CYOW;2006-01-04 19:00;METAR CYOW 041900Z 08006KT 6SM BR OVC027 M07/M07 A2981 RMK SC8 SLP103=
CYOW;2006-01-04 19:13;SPECI CYOW 041913Z 08006KT 4SM -SN BR OVC028 M07/ RMK SC8=
CYOW;2006-01-04 19:30;SPECI CYOW 041930Z 07007KT 5/8SM -SN BR VV007 M06/ RMK SN8=
CYOW;2006-01-04 20:00;METAR CYOW 042000Z 09009KT 5/8SM -SN BR VV008 M06/M07 A2979 RMK SN8 SLP098=
CYOW;2006-01-04 21:00;METAR CYOW 042100Z 08009KT 5/8SM -SN BR VV009 M06/M07 A2978 RMK SN8 /S01/ SLP093=
CYOW;2006-01-04 22:00;METAR CYOW 042200Z 08009KT 2SM -SN BR OVC013 M06/M07 A2975 RMK SN2SF6 SLP083=
CYOW;2006-01-04 23:00;METAR CYOW 042300Z 08007KT 1 1/2SM -SN BR OVC009 M06/M07 A2973 RMK SN5SF3 /S02/ SLP077=
CYOW;2006-01-05 01:00;METAR CYOW 050100Z 06006KT 2 1/2SM -SN OVC010 M06/M07 A2970 RMK SF8 CIG RAG SLP064=
CYOW;2006-01-05 02:00;METAR CYOW 050200Z 07006KT 3SM -SN OVC008 M06/M07 A2967 RMK NS8 CIG RAG /S01/ SLP054=
CYOW;2006-01-05 02:49;SPECI CYOW 050249Z 07007KT 1 1/2SM -SN -FZRA BR OVC005 M06/ RMK NS8=
CYOW;2006-01-05 03:00;METAR CYOW 050300Z 06006KT 1 1/2SM -SN -FZRA BR OVC005 M06/M07 A2965 RMK NS8 SLP047=
CYOW;2006-01-05 03:20;SPECI CYOW 050320Z 06006KT 1 1/4SM -SN OVC008 M06/ REFZRA RMK SN1NS7=
CYOW;2006-01-05 03:47;SPECI CYOW 050347Z 07006KT 1/2SM SN VV005 M06/ REFZRA RMK SN8=
CYOW;2006-01-05 04:18;SPECI CYOW 050418Z 06006KT 1SM -SN OVC009 M06/ RMK SN2NS6=
CYOW;2006-01-05 04:38;SPECI CYOW 050438Z 06006KT 2SM -SN OVC008 M06/ RMK NS8=
CYOW;2006-01-05 05:25;SPECI CYOW 050525Z 07005KT 1 1/4SM -SN OVC008 M05/ RMK SN2NS6=
CYOW;2006-01-05 06:00;METAR CYOW 050600Z 07005KT 1 1/2SM -SN OVC008 M05/M06 A2959 RMK SN1NS7 /S05/ SLP027=
CYOW;2006-01-05 06:31;SPECI CYOW 050631Z 07005KT 3SM -SN OVC008 M05/ RMK NS8=
CYOW;2006-01-05 08:34;SPECI CYOW 050834Z 07006KT 4SM -PL -FZRA OVC005 M04/ RMK NS8=
CYOW;2006-01-05 09:00;METAR CYOW 050900Z 06005KT 4SM -PL -FZRA OVC005 M04/M05 A2954 RMK NS8 SLP010=
CYOW;2006-01-05 10:00;METAR CYOW 051000Z 07006KT 3SM -PL -FZRA BR OVC004 M04/M04 A2952 RMK NS8 PL VRY LGT SLP003=
CYOW;2006-01-05 10:15;SPECI CYOW 051015Z 06005KT 1 1/2SM -PL -FZRA BR OVC004 M04/ RMK NS8=
CYOW;2006-01-05 11:05;SPECI CYOW 051105Z 06005KT 1 1/2SM -SN -FZRA BR OVC003 M04/ RMK NS8=
CYOW;2006-01-05 11:24;SPECI CYOW 051124Z 06006KT 1 1/2SM -SN BR OVC006 M04/ REFZRA RMK NS8=
CYOW;2006-01-05 14:00;METAR CYOW 051400Z 03006KT 2SM -SN BR OVC005 M03/M04 A2952 RMK FG2ST6 VRY LGT SN SLP004=
CYOW;2006-01-05 15:00;METAR CYOW 051500Z 35004KT 2SM -SN BR OVC008 M03/M03 A2953 RMK FG2ST6 /S01/ SLP006=
CYOW;2006-01-05 16:00;METAR CYOW 051600Z 33007KT 2 1/2SM -SN BR OVC009 M02/M03 A2952 RMK FG1ST7 /S02/ SLP002=
CYOW;2006-01-05 17:00;METAR CYOW 051700Z 34005KT 2 1/2SM -SN BR OVC007 M01/M02 A2951 RMK FG1ST7 /S03/ SLP999=
CYOW;2006-01-05 19:00;METAR CYOW 051900Z 29008KT 2SM -SG BR OVC006 M01/M01 A2953 RMK FG1ST7 SLP005=
CYOW;2006-01-05 20:15;SPECI CYOW 052015Z 32011KT 2SM -SN BR OVC011 M01/ RMK FG2SF6=
CYOW;2006-01-05 21:00;METAR CYOW 052100Z 32010KT 1 1/2SM -SN BR OVC013 M01/M02 A2958 RMK FG2SF6 /S01/ SLP023=
CYOW;2006-01-05 22:31;SPECI CYOW 052231Z 31007KT 6SM -SN BR SCT020 OVC048 M01/ RMK SC3SC5 VRY FINE SN=
CYOW;2006-01-05 23:00;METAR CYOW 052300Z 31011KT 6SM -SN BR OVC023 M01/M02 A2964 RMK SC8 SLP043=
CYOW;2006-01-05 23:25;SPECI CYOW 052325Z 32010G16KT 4SM -SN BR SCT007 OVC030 M01/ RMK CU3SC5=
CYOW;2006-01-06 00:00;METAR CYOW 060000Z 32014KT 8SM -SN FEW014 OVC030 M02/M04 A2965 RMK CF2SC6 SLP048=
CYOW;2006-01-06 01:00;METAR CYOW 060100Z 32010G16KT 10SM -SN FEW015 OVC050 M03/M05 A2969 RMK CF2SC6 SN VRY LGT SLP061=
CYOW;2006-01-06 03:00;METAR CYOW 060300Z 33015KT 12SM -SN BKN018 BKN048 M05/M08 A2973 RMK SC5SC2 SN VRY LGT SLP076=
CYOW;2006-01-06 05:00;METAR CYOW 060500Z 32014KT 15SM SCT020 BKN049 M06/M09 A2976 RMK SC3SC2 SLP083=
CYOW;2006-01-06 06:00;METAR CYOW 060600Z 32014KT 15SM DRSN FEW020 FEW052 BKN090 M08/M11 A2976 RMK CF1SC1AC3 SLP085=
CYOW;2006-01-06 08:00;METAR CYOW 060800Z 31006KT 15SM BKN190 M09/M11 A2980 RMK AC2 SLP098=
CYOW;2006-01-06 09:00;METAR CYOW 060900Z 29007KT 15SM BKN180 M10/M12 A2982 RMK AC3 SLP104=
CYOW;2006-01-06 10:00;METAR CYOW 061000Z 30007KT 15SM SCT077 BKN180 M09/M12 A2982 RMK AC4AC3 SLP105=
CYOW;2006-01-06 11:00;METAR CYOW 061100Z 29006KT 15SM BKN076 M10/M12 A2982 RMK AC3 SLP107=
CYOW;2006-01-06 11:06;SPECI CYOW 061106Z 29006KT 15SM -SN SCT076 BKN150 M10/ RMK AC3AC1=
CYOW;2006-01-06 12:00;METAR CYOW 061200Z 29006KT 12SM -SN BKN077 M10/M11 A2984 RMK AC7 SLP111=
CYOW;2006-01-06 13:00;METAR CYOW 061300Z 29008KT 10SM -SN BKN078 M09/M11 A2985 RMK AC7 SLP114=
CYOW;2006-01-06 14:00;METAR CYOW 061400Z 29009KT 6SM -SN FEW060 BKN077 M09/M11 A2987 RMK SC2AC6 SLP121=
CYOW;2006-01-06 15:00;METAR CYOW 061500Z 29010KT 6SM -SN FEW020 BKN074 M09/M12 A2988 RMK CF1AC6 SLP125=
CYOW;2006-01-06 16:00;METAR CYOW 061600Z 32011KT 5SM -SN BKN018 BKN070 M09/M12 A2985 RMK CU5AC2 SLP115=
CYOW;2006-01-06 16:46;SPECI CYOW 061646Z 30009KT 10SM SCT020 SCT070 M09/ RMK CU3AC1=
CYOW;2006-01-06 20:00;METAR CYOW 062000Z 29011KT 15SM BKN057 M10/M13 A2981 RMK SC4 SLP104=
CYOW;2006-01-06 21:00;METAR CYOW 062100Z 28011KT 15SM FEW020 BKN057 M10/M14 A2983 RMK CU2SC2 SLP109=
CYOW;2006-01-06 22:00;METAR CYOW 062200Z 27009KT 15SM FEW050 M11/M15 A2984 RMK SC2 SLP112=
CYOW;2006-01-06 23:00;METAR CYOW 062300Z 28008KT 15SM FEW050 M12/M15 A2985 RMK SC2 SLP115=
CYOW;2006-01-07 00:00;METAR CYOW 070000Z 29009KT 15SM BKN089 M13/M16 A2985 RMK AC6 SLP117=
CYOW;2006-01-07 01:00;METAR CYOW 070100Z 30010KT 15SM OVC090 M13/M16 A2985 RMK AC6 SLP118=
CYOW;2006-01-07 02:00;METAR CYOW 070200Z 28008KT 15SM FEW090 M14/M17 A2984 RMK AC2 SLP113=
CYOW;2006-01-07 03:00;METAR CYOW 070300Z 29007KT 15SM SKC M15/M18 A2982 RMK SLP109=
CYOW;2006-01-07 04:00;METAR CYOW 070400Z 28005KT 15SM SKC M16/M18 A2982 RMK SLP107=
CYOW;2006-01-07 06:00;METAR CYOW 070600Z 28007KT 15SM SKC M17/M19 A2984 RMK SLP115=
CYOW;2006-01-07 08:00;METAR CYOW 070800Z 23005KT 15SM SKC M19/M20 A2985 RMK SLP117=
CYOW;2006-01-07 09:00;METAR CYOW 070900Z 21004KT 15SM FEW220 M19/M21 A2985 RMK CI0 SLP117=
CYOW;2006-01-07 12:00;METAR CYOW 071200Z 21004KT 15SM FEW180 M21/M24 A2987 RMK AC1 FROIN SLP127=
CYOW;2006-01-07 13:00;METAR CYOW 071300Z 00000KT 15SM FEW180 M20/M23 A2988 RMK AC1 FROIN SLP129=
CYOW;2006-01-07 15:00;METAR CYOW 071500Z 00000KT 15SM BKN093 M17/M20 A2989 RMK AC5 SLP133=
CYOW;2006-01-07 15:49;SPECI CYOW 071549Z 00000KT 12SM -SN BKN044 BKN090 M17/ RMK SC5AC2 SN VRY LGT=
CYOW;2006-01-07 16:00;METAR CYOW 071600Z 00000KT 12SM -SN BKN045 BKN090 M16/M19 A2988 RMK SC6AC2 SN VRY LGT SLP129=
CYOW;2006-01-07 17:00;METAR CYOW 071700Z 05002KT 10SM -SN OVC090 M14/M17 A2984 RMK AC8 SLP117=
CYOW;2006-01-07 18:00;METAR CYOW 071800Z 00000KT 10SM -SN OVC088 M13/M15 A2983 RMK AC8 SN FINE SLP112=
CYOW;2006-01-07 18:47;SPECI CYOW 071847Z 07005KT 12SM OVC087 M12/ RMK AC8=
CYOW;2006-01-07 19:00;METAR CYOW 071900Z 07004KT 12SM FEW015 BKN025 OVC087 M12/M15 A2983 RMK CF1SC6AC2 SLP111=
CYOW;2006-01-07 19:39;SPECI CYOW 071939Z 07004KT 8SM -SN FEW015 OVC040 M12/ RMK CF2SC6=
CYOW;2006-01-07 20:00;METAR CYOW 072000Z 09004KT 3SM -SN OVC038 M12/M15 A2983 RMK SC8 SLP111=
CYOW;2006-01-07 21:00;METAR CYOW 072100Z 08006KT 5SM -SN BKN050 OVC090 M12/M15 A2983 RMK SC6AC2 SLP112=
CYOW;2006-01-07 21:45;SPECI CYOW 072145Z 05006KT 2SM -SN BKN023 M12/ RMK SC6=
CYOW;2006-01-07 21:55;SPECI CYOW 072155Z 05007KT 4SM -SN BKN023 M12/ RMK SC5=
CYOW;2006-01-07 22:00;METAR CYOW 072200Z 05006KT 4SM -SN SCT023 BKN081 M12/M15 A2984 RMK SC4AC2 SLP114=
CYOW;2006-01-07 23:00;METAR CYOW 072300Z 07007KT 4SM -SN OVC023 M12/M15 A2984 RMK SC8 SLP116=
CYOW;2006-01-08 00:00;METAR CYOW 080000Z 07007KT 3SM -SN FEW014 OVC025 M12/M14 A2985 RMK SC2SC6 SN FINE SLP120=
CYOW;2006-01-08 01:00;METAR CYOW 080100Z 07008KT 8SM -SN FEW015 SCT040 OVC064 M13/M15 A2985 RMK SC2SC2SC4 SN FINE SLP121=
CYOW;2006-01-08 02:00;METAR CYOW 080200Z 08007KT 10SM -SN FEW040 OVC074 M12/M14 A2985 RMK SC2AC6 SN FINE MOON DIMLY VISBL SLP121=
CYOW;2006-01-08 03:00;METAR CYOW 080300Z 06007KT 12SM -SN FEW040 OVC074 M12/M14 A2985 RMK SC2AC6 SN FINE MOON DIMLY VISBL SLP119=
CYOW;2006-01-08 03:32;SPECI CYOW 080332Z 06007KT 5/8SM -SN VV006 M12/ RMK SN8=
CYOW;2006-01-08 03:36;SPECI CYOW 080336Z 06007KT 1 1/2SM -SN OVC020 M12/ RMK SN3SC5 MOON DIMLY VISBL=
CYOW;2006-01-08 03:48;SPECI CYOW 080348Z 06007KT 3SM -SN OVC025 M12/ RMK SC8 MOON DIMLY VISBL=
CYOW;2006-01-08 05:00;METAR CYOW 080500Z 07007KT 4SM -SN BKN040 OVC060 M12/M14 A2982 RMK SC5SC2 MOON DIMLY VISBL SLP110=
CYOW;2006-01-08 06:00;METAR CYOW 080600Z 06006KT 10SM -SN BKN037 BKN150 M12/M14 A2983 RMK SC5AC1 SLP110=
CYOW;2006-01-08 06:14;SPECI CYOW 080614Z 06008KT 10SM -SN BKN006 BKN030 M12/ RMK SC6SC2 SN=
CYOW;2006-01-08 07:00;METAR CYOW 080700Z 06007KT 6SM -SN BKN006 OVC029 M12/M13 A2984 RMK SC6SC2 SN FINE SLP115=
CYOW;2006-01-08 07:32;SPECI CYOW 080732Z 07007KT 10SM -SN FEW006 OVC037 M12/ RMK SC2SC6 SN=
CYOW;2006-01-08 09:00;METAR CYOW 080900Z 07007KT 10SM -SN FEW005 OVC052 M11/M12 A2985 RMK SC2SC6 SN FINE SLP116=
CYOW;2006-01-08 09:15;SPECI CYOW 080915Z 08006KT 10SM -SN BKN005 OVC011 M11/ RMK SC5SC3 SN=
CYOW;2006-01-08 10:00;METAR CYOW 081000Z 07006KT 10SM -SN SCT006 OVC010 M11/M12 A2986 RMK SC3SC5 SLP120=
CYOW;2006-01-08 10:34;SPECI CYOW 081034Z 06004KT 1SM -SN OVC017 M11/ RMK SN6SC2=
CYOW;2006-01-08 10:39;SPECI CYOW 081039Z 06004KT 5/8SM -SN VV006 M10/ RMK SN8=
CYOW;2006-01-08 10:46;SPECI CYOW 081046Z 05004KT 1 1/4SM -SN OVC013 M11/ RMK SN4SC4=
CYOW;2006-01-08 10:52;SPECI CYOW 081052Z 05004KT 3SM -SN OVC012 M10/ RMK SC8=
CYOW;2006-01-08 11:00;METAR CYOW 081100Z 05003KT 4SM -SN OVC011 M10/M11 A2987 RMK SC8 /S02/ SLP125=
CYOW;2006-01-08 11:31;SPECI CYOW 081131Z 05004KT 10SM -SN OVC009 M10/ RMK SC8 SN FINE=
CYOW;2006-01-08 12:00;METAR CYOW 081200Z 04004KT 10SM -SN OVC008 M10/M11 A2990 RMK SC8 SN VRY LGT AND FINE FROIN SLP133=
CYOW;2006-01-08 13:00;METAR CYOW 081300Z 03005KT 5SM BR OVC008 M09/M11 A2993 RMK ST8 SLP144=
CYOW;2006-01-08 15:00;METAR CYOW 081500Z 04002KT 5SM BR OVC007 M08/M10 A2998 RMK ST8 SLP162=
CYOW;2006-01-08 16:00;METAR CYOW 081600Z 02002KT 5SM BR OVC007 M08/M10 A2999 RMK ST8 SLP166=
CYOW;2006-01-08 17:00;METAR CYOW 081700Z 00000KT 5SM HZ OVC014 M07/M09 A2999 RMK ST8 SLP164=
CYOW;2006-01-08 18:00;METAR CYOW 081800Z 00000KT 5SM HZ OVC014 M06/M09 A3001 RMK ST8 SLP170=
CYOW;2006-01-08 19:00;METAR CYOW 081900Z 06002KT 5SM HZ OVC014 M06/M08 A3001 RMK ST8 SLP172=
CYOW;2006-01-08 20:00;METAR CYOW 082000Z 07003KT 6SM HZ OVC018 M05/M08 A3002 RMK SC8 SLP175=
CYOW;2006-01-08 21:00;METAR CYOW 082100Z 10005KT 6SM HZ OVC015 M05/M08 A3003 RMK SC8 SLP178=
CYOW;2006-01-08 22:00;METAR CYOW 082200Z 08005KT 6SM HZ OVC015 M06/M08 A3003 RMK SC8 SLP178=
CYOW;2006-01-08 23:00;METAR CYOW 082300Z 09006KT 6SM HZ OVC016 M06/M08 A3004 RMK SC8 SLP180=
CYOW;2006-01-08 23:26;SPECI CYOW 082326Z 09006KT 10SM OVC014 M06/ RMK SC8=
CYOW;2006-01-09 00:00;METAR CYOW 090000Z 08007KT 10SM OVC014 M06/M08 A3004 RMK SC8 SLP181=
CYOW;2006-01-09 01:40;SPECI CYOW 090140Z 08008KT 10SM OVC009 M06/ RMK SC8=
CYOW;2006-01-09 02:00;METAR CYOW 090200Z 07009KT 10SM OVC011 M06/M08 A3004 RMK SC8 SLP181=
CYOW;2006-01-09 02:37;SPECI CYOW 090237Z 09010KT 8SM DRSN OVC007 M07/ RMK SC8=
CYOW;2006-01-09 03:00;METAR CYOW 090300Z 07008KT 8SM OVC007 M07/M08 A3004 RMK SC8 SLP181=
CYOW;2006-01-09 04:00;METAR CYOW 090400Z 06009KT 6SM BR OVC005 M07/M08 A3001 RMK ST8 SLP171=
CYOW;2006-01-09 04:14;SPECI CYOW 090414Z 06010KT 6SM BR OVC004 M07/ RMK ST8=
CYOW;2006-01-09 05:00;METAR CYOW 090500Z 07011KT 3SM DRSN BR OVC003 M07/M08 A2996 RMK ST8 SLP155=
CYOW;2006-01-09 05:32;SPECI CYOW 090532Z 07012KT 2SM -SN DRSN BR OVC004 M07/ RMK ST8=
CYOW;2006-01-09 06:00;METAR CYOW 090600Z 07014KT 2SM -SN DRSN BR BKN004 OVC019 M07/M08 A2992 RMK ST6SC2 SLP140=
CYOW;2006-01-09 06:11;SPECI CYOW 090611Z 07014KT 1 1/2SM -SN DRSN SCT005 OVC042 M07/ RMK SN2SF2SC4=
CYOW;2006-01-09 06:22;SPECI CYOW 090622Z 06014KT 4SM -SN DRSN FEW040 OVC084 M07/ RMK SC2AC6=
CYOW;2006-01-09 09:00;METAR CYOW 090900Z 07013KT 3SM -SN DRSN FEW030 OVC046 M06/M07 A2982 RMK SC2SC6 SLP105=
CYOW;2006-01-09 09:36;SPECI CYOW 090936Z 07013KT 2 1/2SM -SHGS DRSN OVC044 M06/ RMK SC8 CVCTV CLD EMBD=
CYOW;2006-01-09 10:00;METAR CYOW 091000Z 07011KT 1 1/4SM -SN DRSN OVC018 M05/M06 A2978 RMK SN4SC4 /S01/ SLP092=
CYOW;2006-01-09 10:37;SPECI CYOW 091037Z 07012KT 3/4SM -SN DRSN VV006 M05/ RMK SN8=
CYOW;2006-01-09 11:00;METAR CYOW 091100Z 06012KT 5/8SM -SN DRSN VV004 M05/M06 A2977 RMK SN8 /S02/ SLP088=
CYOW;2006-01-09 11:17;SPECI CYOW 091117Z 06013KT 1SM -SN DRSN OVC015 M05/ RMK SN5SC3 VIS VRB 3/4-11/4=
CYOW;2006-01-09 11:45;SPECI CYOW 091145Z 07012KT 3/4SM -SN VV010 M05/ RMK SN8=
CYOW;2006-01-09 12:00;METAR CYOW 091200Z 06012KT 3/4SM -SN DRSN VV010 M05/M06 A2975 RMK SN8 /SO4/ SLP082=
CYOW;2006-01-09 12:46;SPECI CYOW 091246Z 06011KT 1/2SM SN DRSN VV007 M05/ RMK SN8=
CYOW;2006-01-09 13:00;METAR CYOW 091300Z 06011KT 1/2SM SN DRSN VV005 M05/M05 A2974 RMK SN8 /S02/ SLP080=
CYOW;2006-01-09 14:00;METAR CYOW 091400Z 05011KT 1/2SM SN DRSN VV007 M04/M05 A2976 RMK SN8 /SO4/ SLP085=
CYOW;2006-01-09 16:00;METAR CYOW 091600Z 03007KT 1SM -SN DRSN FEW006 OVC012 M03/M04 A2978 RMK SN2SF1SC6 /SO7/ SLP092=
CYOW;2006-01-09 16:25;SPECI CYOW 091625Z 02006KT 1 1/2SM -SN SCT006 OVC010 M03/ RMK SF3SC5=
CYOW;2006-01-09 16:40;SPECI CYOW 091640Z 02005KT 4SM -SN FEW006 OVC010 M03/ RMK SF2SC6 SN=
CYOW;2006-01-09 16:49;SPECI CYOW 091649Z 36004KT 4SM -SN OVC008 M03/ RMK SF8=
CYOW;2006-01-09 17:00;METAR CYOW 091700Z 35004KT 5SM -SN BR OVC008 M02/M04 A2980 RMK SF8 SN=
CYOW;2006-01-09 17:47;SPECI CYOW 091747Z 36003KT 5SM BR OVC010 M02/ RMK ST8=
CYOW;2006-01-09 19:00;METAR CYOW 091900Z 30007KT 5SM BR OVC014 M02/M03 A2985 RMK SC8 SLP114=
CYOW;2006-01-09 21:00;METAR CYOW 092100Z 27008KT 8SM SCT010 OVC032 M02/M04 A2996 RMK SF3SC5 SLP152=
CYOW;2006-01-09 22:34;SPECI CYOW 092234Z 25010KT 10SM -SN OVC021 M02/ RMK SC8 VRY LGT SN=
CYOW;2006-01-09 23:00;METAR CYOW 092300Z 26010KT 8SM OVC021 M02/M04 A3005 RMK SC8 SLP183=
CYOW;2006-01-10 00:00;METAR CYOW 100000Z 26012KT 10SM OVC021 M02/M04 A3010 RMK SC8 SLP198=
CYOW;2006-01-10 03:00;METAR CYOW 100300Z 26007KT 12SM FEW035 FEW090 FEW250 M02/M05 A3018 RMK SC1AC1CI0 SLP226=
CYOW;2006-01-10 04:00;METAR CYOW 100400Z 26007KT 12SM BKN023 M03/M05 A3020 RMK SC7 SLP235=
CYOW;2006-01-10 05:00;METAR CYOW 100500Z 28010KT 12SM BKN025 BKN085 M02/M06 A3022 RMK SC5AC1 SLP240=
CYOW;2006-01-10 06:00;METAR CYOW 100600Z 27009KT 15SM BKN020 BKN080 M02/M06 A3024 RMK SC6AC1 SLP246=
CYOW;2006-01-10 08:00;METAR CYOW 100800Z 23004KT 15SM FEW025 FEW080 M06/M07 A3028 RMK SC1AC2 FROIN SC TR SLP261=
CYOW;2006-01-10 09:00;METAR CYOW 100900Z 24005KT 12SM BKN073 M06/M07 A3028 RMK AC5 FROIN SLP263=
CYOW;2006-01-10 10:00;METAR CYOW 101000Z 23004KT 12SM BKN063 M06/M07 A3029 RMK SC6 FROIN SLP266=
CYOW;2006-01-10 11:00;METAR CYOW 101100Z 22004KT 12SM -SN BKN024 OVC060 M05/M06 A3031 RMK SC7SC1 VRY LGT SN FROIN SLP272=
CYOW;2006-01-10 13:00;METAR CYOW 101300Z 21004KT 15SM FEW020 FEW040 M06/M07 A3035 RMK SC1SC1 SLP285=
CYOW;2006-01-10 14:00;METAR CYOW 101400Z 19004KT 15SM FEW030 M06/M07 A3037 RMK SC2 SLP293=
CYOW;2006-01-10 15:00;METAR CYOW 101500Z 23006KT 12SM BKN030 M04/M06 A3039 RMK SC6 SLP298=
CYOW;2006-01-10 16:00;METAR CYOW 101600Z 24008KT 12SM BKN033 M02/M05 A3039 RMK SC7 SLP297=
CYOW;2006-01-10 17:00;METAR CYOW 101700Z 24010KT 15SM FEW035 M01/M06 A3035 RMK SC1 SLP285=
CYOW;2006-01-10 18:00;METAR CYOW 101800Z 24013KT 15SM BKN032 M00/M05 A3034 RMK SC6 SLP282=
CYOW;2006-01-10 20:00;METAR CYOW 102000Z 24007KT 15SM OVC030 00/M04 A3033 RMK SC8 SLP277=
CYOW;2006-01-10 21:00;METAR CYOW 102100Z 23008KT 15SM FEW030 01/M05 A3031 RMK SC1 SLP272=
CYOW;2006-01-10 22:00;METAR CYOW 102200Z 22003KT 15SM FEW030 M01/M05 A3031 RMK SC1 SLP270=
CYOW;2006-01-10 23:00;METAR CYOW 102300Z 21004KT 15SM FEW030 M02/M05 A3031 RMK SC1 SLP271=
CYOW;2006-01-11 00:00;METAR CYOW 110000Z 21006KT 15SM SKC M04/M06 A3032 RMK SLP276=
CYOW;2006-01-11 01:00;METAR CYOW 110100Z 21007KT 15SM SKC M04/M06 A3031 RMK SLP270=
CYOW;2006-01-11 03:00;METAR CYOW 110300Z 19006KT 15SM OVC210 M03/M05 A3026 RMK CS3 SLP254=
CYOW;2006-01-11 04:00;METAR CYOW 110400Z 18004KT 15SM SCT210 M04/M05 A3023 RMK CI2 SLP245=
CYOW;2006-01-11 06:00;METAR CYOW 110600Z 18003KT 15SM OVC160 M04/M05 A3020 RMK AC8 SLP233=
CYOW;2006-01-11 08:00;METAR CYOW 110800Z 00000KT 15SM OVC120 M04/M04 A3015 RMK AS8 MOON VISBL SLP218=
CYOW;2006-01-11 09:00;METAR CYOW 110900Z 16003KT 12SM OVC110 M02/M05 A3011 RMK AS8 SLP204=
CYOW;2006-01-11 10:00;METAR CYOW 111000Z 00000KT 12SM -FZRA OVC054 M02/M04 A3008 RMK SC8 SLP194=
CYOW;2006-01-11 11:00;METAR CYOW 111100Z 19002KT 10SM -FZRA OVC053 M00/M02 A3008 RMK SC8 SLP191=
CYOW;2006-01-11 12:00;METAR CYOW 111200Z 11002KT 10SM -FZRA OVC052 M00/M01 A3006 RMK SC8 SLP187=
CYOW;2006-01-11 13:00;METAR CYOW 111300Z 07002KT 3SM -FZRA BR BKN017 OVC040 M00/M01 A3005 RMK SC5SC3 SLP182=
CYOW;2006-01-11 14:00;METAR CYOW 111400Z 05005KT 2SM -FZRA BR OVC020 M01/M01 A3002 RMK FG2NS6 SLP174=
CYOW;2006-01-11 15:00;METAR CYOW 111500Z 06006KT 3/4SM -FZRA BR OVC021 M01/M01 A3000 RMK FG4NS4 SLP167=
CYOW;2006-01-11 16:00;METAR CYOW 111600Z 07005KT 3/4SM -FZRA BR OVC025 M00/M01 A2996 RMK FG4NS4 SLP153=
CYOW;2006-01-11 17:00;METAR CYOW 111700Z 08008KT 1 1/2SM -FZRA BR SCT010 OVC037 M00/M00 A2991 RMK FG2ST2NS5 VRY LGT FZRA SLP136=
CYOW;2006-01-11 18:00;METAR CYOW 111800Z 09007KT 1 1/2SM -FZRA BR SCT010 OVC034 00/00 A2988 RMK FG2ST2NS5 VRY LGT FZRA SLP125=
CYOW;2006-01-11 18:36;SPECI CYOW 111836Z 08007KT 2 1/2SM -RA BR OVC032 00/ REFZRA RMK FG1NS7=
CYOW;2006-01-11 19:00;METAR CYOW 111900Z 09008KT 2 1/2SM -RA BR OVC032 00/00 A2985 REFZRA RMK FG1NS7 VRY LGT RA SLP116=
CYOW;2006-01-11 19:20;SPECI CYOW 111920Z 09008KT 2 1/2SM -RA BR BKN002 OVC032 00/ RMK FG1ST4NS3 VRY LGT RA=
CYOW;2006-01-11 20:00;METAR CYOW 112000Z 09007KT 2 1/2SM -RA BR BKN002 OVC025 00/00 A2984 RMK FG1ST4NS3 SLP111=
CYOW;2006-01-11 21:00;METAR CYOW 112100Z 08006KT 2 1/2SM -RA BR BKN005 OVC025 00/00 A2983 RMK FG1ST4NS3 SLP109=
CYOW;2006-01-11 22:00;METAR CYOW 112200Z 08005KT 2 1/2SM -RA BR BKN005 OVC025 00/00 A2981 RMK FG1ST6NS2 VRY LGT RA SLP101=
CYOW;2006-01-11 23:00;METAR CYOW 112300Z 06005KT 2 1/2SM -RA BR BKN003 OVC025 00/00 A2979 RMK FG1ST6NS2 VRY LGT RA SLP094=
CYOW;2006-01-11 23:36;SPECI CYOW 112336Z 07007KT 1SM BR VV002 00/ RMK FG8=
CYOW;2006-01-11 23:52;SPECI CYOW 112352Z 09006KT 1SM BR OVC032 00/ RMK FG1SC7=
CYOW;2006-01-12 00:00;METAR CYOW 120000Z 09007KT 1SM BR OVC035 00/00 A2976 RMK FG1SC7 SLP083=
CYOW;2006-01-12 00:21;SPECI CYOW 120021Z 07004KT 1SM BR SCT002 OVC035 00/ RMK FG1SF3SC4=
CYOW;2006-01-12 01:00;METAR CYOW 120100Z 06006KT 1SM BR OVC035 00/00 A2974 RMK FG1SC7 SLP076=
CYOW;2006-01-12 01:25;SPECI CYOW 120125Z 04005KT 1SM -RA BR OVC032 00/ RMK FG1SC7=
CYOW;2006-01-12 02:28;SPECI CYOW 120228Z 05005KT 1SM BR OVC042 00/ RMK FG1SC7=
CYOW;2006-01-12 02:43;SPECI CYOW 120243Z 05005KT 1SM -RA BR OVC017 00/ RMK FG1SF7 RA VRY LGT=
CYOW;2006-01-12 03:00;METAR CYOW 120300Z 06005KT 1SM -RA BR OVC016 00/00 A2971 RMK FG1NS7 CIG RAG SLP065=
CYOW;2006-01-12 03:21;SPECI CYOW 120321Z 07004KT 1SM -RA BR OVC013 00/ RMK FG1NS7 CIG RAG=
CYOW;2006-01-12 03:39;SPECI CYOW 120339Z 07003KT 1SM -RA BR OVC009 00/ RMK FG1NS7 CIG RAG=
CYOW;2006-01-12 04:00;METAR CYOW 120400Z 10004KT 1SM -RA BR OVC006 00/00 A2968 RMK FG1NS7 CIG RAG SLP055=
CYOW;2006-01-12 04:30;SPECI CYOW 120430Z 00000KT 1SM -RA BR OVC002 00/ RMK FG1NS7 CIG RAG=
CYOW;2006-01-12 05:00;METAR CYOW 120500Z 25002KT 1SM BR OVC004 00/00 A2968 RMK FG1NS7 CIG RAG SLP056=
CYOW;2006-01-12 06:00;METAR CYOW 120600Z 19004KT 1SM BR OVC002 01/01 A2968 RMK FG1NS7 CIG RAG SLP056=
CYOW;2006-01-12 06:13;SPECI CYOW 120613Z 20004KT 1/2SM FG VV001 01/ RMK FG8=
CYOW;2006-01-12 06:37;SPECI CYOW 120637Z 20004KT 3/4SM BR OVC051 01/ RMK FG2SC6=
CYOW;2006-01-12 07:15;SPECI CYOW 120715Z 23006KT 3SM BR SCT009 OVC054 03/ RMK SF2SC6 MOON VISBL=
CYOW;2006-01-12 07:41;SPECI CYOW 120741Z 23008KT 5SM -RA BR BKN011 OVC054 04/ RMK SF6SC2 MOON VISBL=
CYOW;2006-01-12 08:00;METAR CYOW 120800Z 23008KT 5SM -RA BR BKN009 OVC045 04/04 A2971 RMK SF6SC2 SLP066=
CYOW;2006-01-12 08:42;SPECI CYOW 120842Z 23010KT 5SM -RA BR FEW009 OVC021 04/ RMK CF1SC7=
CYOW;2006-01-12 10:00;METAR CYOW 121000Z 22011G16KT 5SM BR FEW015 OVC033 04/03 A2973 RMK CF2SC6 SLP073=
CYOW;2006-01-12 10:31;SPECI CYOW 121031Z 23009KT 5SM BR OVC010 03/ RMK SC8=
CYOW;2006-01-12 11:00;METAR CYOW 121100Z 23008KT 5SM BR OVC012 03/03 A2976 RMK SC8 SLP084=
CYOW;2006-01-12 11:23;SPECI CYOW 121123Z 23011KT 7SM SCT015 OVC030 03/ RMK CF3SC5=
CYOW;2006-01-12 12:00;METAR CYOW 121200Z 23010KT 8SM BKN015 OVC030 03/02 A2979 RMK SF5SC3 SLP092=
CYOW;2006-01-12 13:00;METAR CYOW 121300Z 22010KT 8SM OVC019 03/02 A2981 RMK SC8 SLP100=
CYOW;2006-01-12 14:00;METAR CYOW 121400Z 22008KT 8SM OVC018 03/02 A2983 RMK SC8 SLP106=
CYOW;2006-01-12 16:00;METAR CYOW 121600Z 24007KT 10SM OVC011 03/02 A2985 RMK SC8 SLP114=
CYOW;2006-01-12 17:00;METAR CYOW 121700Z 25006KT 10SM BKN011 OVC020 03/02 A2983 RMK SC6SC2 SLP107=
CYOW;2006-01-12 18:00;METAR CYOW 121800Z 23006KT 10SM BKN014 OVC020 03/02 A2982 RMK SC6SC2 SLP103=
CYOW;2006-01-12 19:00;METAR CYOW 121900Z 22005KT 10SM OVC018 03/02 A2983 RMK SC8 SLP108=
CYOW;2006-01-12 20:00;METAR CYOW 122000Z 21006KT 10SM SCT017 OVC021 03/01 A2985 RMK SC3SC5 SLP112=
CYOW;2006-01-12 21:00;METAR CYOW 122100Z 21003KT 10SM OVC019 03/01 A2986 RMK SC8 SLP115=
CYOW;2006-01-12 22:00;METAR CYOW 122200Z 21005KT 10SM OVC019 03/01 A2988 RMK SC8 SLP121=
CYOW;2006-01-12 23:00;METAR CYOW 122300Z 19005KT 10SM OVC018 03/01 A2987 RMK SC8 SLP120=
CYOW;2006-01-13 00:00;METAR CYOW 130000Z 20004KT 10SM OVC019 03/01 A2989 RMK SC8 SLP128=
CYOW;2006-01-13 01:00;METAR CYOW 130100Z 18005KT 10SM FEW020 SCT250 02/01 A2988 RMK SC2CS0 SLP122=
CYOW;2006-01-13 02:00;METAR CYOW 130200Z 17004KT 10SM SKC 01/00 A2988 RMK SLP122=
CYOW;2006-01-13 04:00;METAR CYOW 130400Z 15004KT 8SM FEW180 BKN220 00/M00 A2987 RMK AC1CI0 SLP120=
CYOW;2006-01-13 06:00;METAR CYOW 130600Z 17004KT 8SM BKN150 00/M00 A2984 RMK AC7 SLP111=
CYOW;2006-01-13 09:00;METAR CYOW 130900Z 15003KT 10SM FEW180 M01/M02 A2981 RMK AC1 SLP099=
CYOW;2006-01-13 10:00;METAR CYOW 131000Z 18004KT 10SM FEW180 M00/M01 A2980 RMK AC1 SLP096=
CYOW;2006-01-13 11:00;METAR CYOW 131100Z 18005KT 15SM FEW230 01/M01 A2979 RMK CI0 SLP094=
CYOW;2006-01-13 12:00;METAR CYOW 131200Z 17005KT 15SM FEW230 01/M01 A2979 RMK CI0 SLP093=
CYOW;2006-01-13 13:00;METAR CYOW 131300Z 15005KT 15SM FEW230 01/M02 A2978 RMK CI0 SLP088=
CYOW;2006-01-13 14:00;METAR CYOW 131400Z 15008KT 15SM FEW140 BKN250 02/M01 A2975 RMK AC1CI3 SLP080=
CYOW;2006-01-13 15:00;METAR CYOW 131500Z 16007KT 15SM SCT120 BKN250 03/M00 A2973 RMK AC3CI2 SLP074=
CYOW;2006-01-13 16:00;METAR CYOW 131600Z 16006KT 15SM SCT120 OVC250 04/M00 A2971 RMK AC3CI2 SLP066=
CYOW;2006-01-13 17:00;METAR CYOW 131700Z 13004KT 15SM SCT120 OVC200 06/M00 A2968 RMK AC3CI3 SLP055=
CYOW;2006-01-13 18:00;METAR CYOW 131800Z 14004KT 15SM FEW120 BKN210 05/01 A2966 RMK AC2CI2 SLP049=
CYOW;2006-01-13 19:00;METAR CYOW 131900Z 17004KT 15SM BKN045 BKN100 OVC210 08/00 A2966 RMK SC5AC2CI1 SLP049=
CYOW;2006-01-13 20:00;METAR CYOW 132000Z 19004KT 15SM BKN056 OVC240 08/01 A2964 RMK SC6CS2 SLP043=
CYOW;2006-01-13 21:00;METAR CYOW 132100Z 00000KT 15SM OVC032 08/01 A2963 RMK SC8 SLP039=
CYOW;2006-01-13 22:00;METAR CYOW 132200Z 12003KT 15SM SCT032 BKN057 06/01 A2960 RMK SC4SC2 SLP029=
CYOW;2006-01-13 23:00;METAR CYOW 132300Z 06004KT 15SM OVC036 06/01 A2959 RMK SC8 SLP023=
CYOW;2006-01-14 00:00;METAR CYOW 140000Z 06005KT 15SM OVC068 06/01 A2954 RMK AC8 SLP007=
CYOW;2006-01-14 01:00;METAR CYOW 140100Z 35006KT 15SM BKN067 04/01 A2950 RMK AC7 SLP995=
CYOW;2006-01-14 02:00;METAR CYOW 140200Z 10006KT 15SM BKN090 03/01 A2948 RMK AC6 SLP987=
CYOW;2006-01-14 03:00;METAR CYOW 140300Z 36005KT 12SM BKN093 03/01 A2947 RMK AC5 SLP984=
CYOW;2006-01-14 04:00;METAR CYOW 140400Z 07004KT 15SM BKN092 OVC210 03/01 A2945 RMK AC5CI0 SLP978=
CYOW;2006-01-14 05:00;METAR CYOW 140500Z 08004KT 15SM BKN081 OVC210 02/01 A2943 RMK AC6CI2 SLP971=
CYOW;2006-01-14 07:00;METAR CYOW 140700Z 05006KT 15SM OVC085 02/01 A2940 RMK AC8 SLP961=
CYOW;2006-01-14 07:34;SPECI CYOW 140734Z 07004KT 10SM -RA OVC061 03/ RMK SC8=
CYOW;2006-01-14 08:00;METAR CYOW 140800Z 06004KT 7SM -RA OVC055 03/01 A2941 RMK NS8 SLP963=
CYOW;2006-01-14 08:31;SPECI CYOW 140831Z 04006KT 7SM -RA OVC053 02/ RMK NS8=
CYOW;2006-01-14 08:49;SPECI CYOW 140849Z 07004KT 8SM OVC099 02/ RMK AC8=
CYOW;2006-01-14 09:00;METAR CYOW 140900Z 05004KT 8SM OVC100 02/01 A2937 RMK AC8 SLP950=
CYOW;2006-01-14 09:31;SPECI CYOW 140931Z 04006KT 7SM -RA OVC048 02/ RMK NS8=
CYOW;2006-01-14 10:00;METAR CYOW 141000Z 04006KT 5SM -RA BR OVC045 02/02 A2933 RMK NS8 SLP938=
CYOW;2006-01-14 11:00;METAR CYOW 141100Z 03008KT 2SM -RA BR OVC050 03/02 A2930 RMK NS8 SLP927=
CYOW;2006-01-14 11:04;SPECI CYOW 141104Z 02008KT 1 1/2SM -RA BR OVC025 02/ RMK NS8=
CYOW;2006-01-14 11:50;SPECI CYOW 141150Z 33008KT 1SM -RA BR FEW001 OVC009 02/ RMK SF2NS6=
CYOW;2006-01-14 12:00;METAR CYOW 141200Z 35006KT 1SM -RA BR FEW001 OVC008 02/02 A2931 RMK SF2NS6 SLP930=
CYOW;2006-01-14 12:20;SPECI CYOW 141220Z 33007KT 1/2SM -RA FG VV003 02/ RMK FG8=
CYOW;2006-01-14 12:43;SPECI CYOW 141243Z 34011KT 1 1/2SM -RA BR SCT004 OVC012 03/ RMK SF3NS5=
CYOW;2006-01-14 13:00;METAR CYOW 141300Z 33011KT 4SM -RA BR BKN005 OVC012 03/03 A2931 RMK SF5NS3 SLP928=
CYOW;2006-01-14 13:20;SPECI CYOW 141320Z 34013KT 10SM -RA FEW008 OVC018 03/ RMK SF2SC6=
CYOW;2006-01-14 14:00;METAR CYOW 141400Z 32015KT 5SM -RA BR FEW008 OVC012 02/02 A2935 RMK SF2NS6 SLP943=
CYOW;2006-01-14 14:50;SPECI CYOW 141450Z 32018KT 5SM -RASN OVC010 01/ RMK NS8=
CYOW;2006-01-14 15:00;METAR CYOW 141500Z 32019KT 3SM -SN OVC015 01/00 A2938 RMK NS8 SLP954=
CYOW;2006-01-14 15:29;SPECI CYOW 141529Z 33021G27KT 2SM -SN OVC016 M00/ RMK NS8=
CYOW;2006-01-14 16:00;METAR CYOW 141600Z 32020G26KT 1 1/2SM -SN OVC015 M01/M03 A2940 RMK NS8 SLP962=
CYOW;2006-01-14 17:00;METAR CYOW 141700Z 33023G31KT 1 1/2SM -SN SCT015 OVC035 M03/M05 A2941 RMK SC3NS5 SLP964=
CYOW;2006-01-14 18:00;METAR CYOW 141800Z 32022G32KT 2SM -SN OVC040 M04/M06 A2945 RMK NS8 /SO2/ SLP980=
CYOW;2006-01-14 18:21;SPECI CYOW 141821Z 32020G29KT 4SM -SN OVC040 M04/ RMK NS8=
CYOW;2006-01-14 18:45;SPECI CYOW 141845Z 32024G33KT 2SM -SN OVC040 M05/ RMK NS8=
CYOW;2006-01-14 19:31;SPECI CYOW 141931Z 32022G28KT 1SM -SN BLSN VV015 M05/ RMK SN8=
CYOW;2006-01-14 20:48;SPECI CYOW 142048Z 32024G30KT 4SM -SN BLSN OVC030 M06/ RMK NS8=
CYOW;2006-01-14 21:00;METAR CYOW 142100Z 32023G29KT 3SM -SN BLSN OVC024 M06/M08 A2959 RMK NS8 /SO2/ SLP025=
CYOW;2006-01-14 23:00;METAR CYOW 142300Z 32022G34KT 15SM BKN024 OVC080 M07/M10 A2966 RMK SC6AS2 SLP049=
CYOW;2006-01-15 00:00;METAR CYOW 150000Z 33024G29KT 15SM DRSN FEW025 BKN081 OVC150 M07/M11 A2972 RMK SC2AC4AS2 DRSN HVY PRESRR SLP070=
CYOW;2006-01-15 02:00;METAR CYOW 150200Z 33022G27KT 15SM DRSN FEW024 BKN140 OVC180 M08/M13 A2974 RMK SC2AC3AC2 MOON DIMLY VISBL SLP076=
CYOW;2006-01-15 06:00;METAR CYOW 150600Z 33019G26KT 15SM DRSN FEW020 SCT220 BKN270 M12/M16 A2982 RMK SC1CC3CI1 SC TR SLP106=
CYOW;2006-01-15 11:00;METAR CYOW 151100Z 34015G24KT 15SM DRSN FEW028 BKN240 M17/M23 A2991 RMK SC1CI2 SLP139=
CYOW;2006-01-15 12:00;METAR CYOW 151200Z 33015KT 15SM FEW028 FEW100 SCT230 M17/M24 A2994 RMK SC1AC1CI2 SC AC TR SLP147=
CYOW;2006-01-15 13:00;METAR CYOW 151300Z 33019KT 20SM FEW030 FEW180 M18/M24 A2994 RMK SC2AC1 SLP150=
CYOW;2006-01-15 14:00;METAR CYOW 151400Z 33018KT 20SM FEW030 FEW180 M18/M25 A2994 RMK SC1AC1 SLP150=
CYOW;2006-01-15 15:00;METAR CYOW 151500Z 32019KT 20SM FEW030 FEW180 M18/M25 A2994 RMK SC1AC1 SLP150=
CYOW;2006-01-15 16:00;METAR CYOW 151600Z 33015G21KT 20SM FEW030 FEW240 M17/M24 A2995 RMK SC1CI1 CLDS TR SLP153=
CYOW;2006-01-15 17:00;METAR CYOW 151700Z 32015G26KT 20SM FEW030 FEW240 M16/M24 A2994 RMK SC1CI1 SLP149=
CYOW;2006-01-15 18:00;METAR CYOW 151800Z 32015KT 20SM FEW030 FEW240 M16/M23 A2993 RMK SC1CI1 CLDS TR SLP146=
CYOW;2006-01-15 19:00;METAR CYOW 151900Z 34018KT 20SM FEW030 FEW240 M15/M24 A2993 RMK SC1CI1 SLP146=
CYOW;2006-01-15 20:00;METAR CYOW 152000Z 31013KT 20SM FEW030 FEW240 M15/M23 A2995 RMK SC1CI1 CLDS TR SLP151=
CYOW;2006-01-15 21:00;METAR CYOW 152100Z 31014G20KT 20SM FEW030 M15/M24 A2997 RMK SC1 TR SC SLP159=
CYOW;2006-01-15 22:00;METAR CYOW 152200Z 33011KT 20SM FEW030 M16/M24 A3000 RMK SC1 TR SC SLP169=
CYOW;2006-01-16 00:00;METAR CYOW 160000Z 32016KT 15SM SKC M17/M24 A3000 RMK SLP170=
CYOW;2006-01-16 02:00;METAR CYOW 160200Z 32016KT 15SM SKC M18/M24 A3000 RMK SLP172=
CYOW;2006-01-16 03:00;METAR CYOW 160300Z 32010G16KT 15SM SKC M18/M24 A3000 RMK SLP171=
CYOW;2006-01-16 04:00;METAR CYOW 160400Z 32012G19KT 15SM SKC M19/M24 A3000 RMK SLP171=
CYOW;2006-01-16 05:00;METAR CYOW 160500Z 29011KT 15SM SKC M19/M24 A2999 RMK SLP168=
CYOW;2006-01-16 07:00;METAR CYOW 160700Z 29010G15KT 15SM SKC M20/M25 A2999 RMK SLP167=
CYOW;2006-01-16 08:00;METAR CYOW 160800Z 30013KT 15SM SKC M20/M25 A2998 RMK SLP164=
CYOW;2006-01-16 09:00;METAR CYOW 160900Z 30016KT 15SM SKC M20/M25 A2997 RMK SLP160=
CYOW;2006-01-16 10:00;METAR CYOW 161000Z 29010KT 15SM SKC M20/M25 A2996 RMK SLP157=
CYOW;2006-01-16 12:00;METAR CYOW 161200Z 29009KT 15SM SKC M21/M25 A2998 RMK SLP164=
CYOW;2006-01-16 13:00;METAR CYOW 161300Z 29008KT 20SM SKC M21/M25 A3000 RMK SLP170=
CYOW;2006-01-16 14:00;METAR CYOW 161400Z 29010KT 20SM SKC M20/M25 A3000 RMK SLP171=
CYOW;2006-01-16 15:00;METAR CYOW 161500Z 29012KT 20SM SKC M19/M24 A2999 RMK SLP169=
CYOW;2006-01-16 16:00;METAR CYOW 161600Z 30015KT 20SM FEW280 M18/M24 A2998 RMK CI1 TR CI SLP164=
CYOW;2006-01-16 18:00;METAR CYOW 161800Z 29012G17KT 20SM FEW180 FEW280 M15/M21 A2995 RMK AC1CI0 SLP154=
CYOW;2006-01-16 19:00;METAR CYOW 161900Z 29012KT 20SM FEW180 FEW280 M14/M21 A2995 RMK AC1CI0 SLP153=
CYOW;2006-01-16 20:00;METAR CYOW 162000Z 27011KT 20SM FEW280 M13/M20 A2995 RMK CI1 SLP154=
CYOW;2006-01-16 21:00;METAR CYOW 162100Z 26008KT 20SM FEW280 M13/M20 A2996 RMK CI1 SLP157=
CYOW;2006-01-16 22:00;METAR CYOW 162200Z 28008KT 20SM FEW280 M14/M20 A2998 RMK CI1 SLP162=
CYOW;2006-01-16 23:00;METAR CYOW 162300Z 28009KT 15SM FEW270 M14/M20 A2999 RMK CI1 SLP168=
CYOW;2006-01-17 00:00;METAR CYOW 170000Z 29008KT 15SM FEW260 M14/M19 A3000 RMK CI1 SLP172=
CYOW;2006-01-17 03:00;METAR CYOW 170300Z 32007KT 15SM FEW240 M14/M18 A3001 RMK CI0 SLP174=
CYOW;2006-01-17 04:00;METAR CYOW 170400Z 26006KT 15SM BKN250 M15/M19 A3005 RMK CS1 SLP186=
CYOW;2006-01-17 05:00;METAR CYOW 170500Z 26004KT 15SM BKN240 M15/M19 A3007 RMK CS2 SLP195=
CYOW;2006-01-17 06:00;METAR CYOW 170600Z 30006KT 15SM BKN250 M15/M19 A3009 RMK CS2 SLP201=
CYOW;2006-01-17 07:00;METAR CYOW 170700Z 32004KT 15SM BKN210 M15/M19 A3009 RMK CS2 SLP201=
CYOW;2006-01-17 08:00;METAR CYOW 170800Z 31006KT 15SM FEW210 M16/M20 A3012 RMK CI0 SLP211=
CYOW;2006-01-17 09:00;METAR CYOW 170900Z 02006KT 15SM SKC M16/M20 A3010 RMK SLP204=
CYOW;2006-01-17 10:00;METAR CYOW 171000Z 02007KT 15SM FEW250 M16/M20 A3012 RMK CI1 FROIN SLP209=
CYOW;2006-01-17 11:00;METAR CYOW 171100Z 04002KT 15SM FEW250 M16/M21 A3014 RMK CI1 FROIN SLP218=
CYOW;2006-01-17 12:00;METAR CYOW 171200Z 03007KT 15SM FEW100 FEW250 M16/M20 A3014 RMK AC1CI1 CLDS TR FROIN SLP219=
CYOW;2006-01-17 14:00;METAR CYOW 171400Z 06007KT 15SM SCT240 M15/M20 A3017 RMK CI1 SLP228=
CYOW;2006-01-17 15:00;METAR CYOW 171500Z 07007KT 15SM SCT240 M14/M19 A3018 RMK CI1 SLP231=
CYOW;2006-01-17 16:00;METAR CYOW 171600Z 08007KT 15SM FEW100 BKN250 M13/M19 A3017 RMK AC1CI4 SLP228=
CYOW;2006-01-17 17:00;METAR CYOW 171700Z 05009KT 15SM SCT100 OVC250 M11/M17 A3012 RMK AC3CI3 SLP212=
CYOW;2006-01-17 18:00;METAR CYOW 171800Z 07013KT 15SM SCT100 OVC250 M10/M16 A3008 RMK AC4CI3 SLP194=
CYOW;2006-01-17 20:00;METAR CYOW 172000Z 07011KT 15SM SCT040 BKN170 OVC210 M07/M12 A3002 RMK SC3AC3CI1 SLP174=
CYOW;2006-01-17 21:00;METAR CYOW 172100Z 08017G22KT 15SM SCT040 BKN110 OVC150 M07/M13 A3000 RMK SC3AC3AS2 SLP170=
CYOW;2006-01-17 22:00;METAR CYOW 172200Z 08015KT 15SM BKN059 OVC090 M07/M12 A2998 RMK SC5AS3 SLP162=
CYOW;2006-01-17 23:00;METAR CYOW 172300Z 08018KT 15SM OVC045 M07/M12 A2995 RMK SC8 SLP152=
CYOW;2006-01-18 00:00;METAR CYOW 180000Z 08018KT 15SM OVC054 M07/M12 A2991 RMK SC8 SLP138=
CYOW;2006-01-18 00:36;SPECI CYOW 180036Z 08017G22KT 12SM -FZRA OVC039 M07/ RMK NS8=
CYOW;2006-01-18 02:00;METAR CYOW 180200Z 08016G22KT 8SM -FZRA OVC038 M07/M10 A2985 RMK NS8=
CYOW;2006-01-18 03:00;METAR CYOW 180300Z 08016G24KT 10SM -FZRA OVC041 M07/M09 A2981 RMK SC8=
CYOW;2006-01-18 04:00;METAR CYOW 180400Z 08016KT 7SM -FZRA OVC034 M06/M08 A2978 RMK NS8 SLP094=
CYOW;2006-01-18 05:00;METAR CYOW 180500Z 08014G19KT 8SM -FZRA OVC031 M05/M06 A2973 RMK NS8 SLP076=
CYOW;2006-01-18 06:00;METAR CYOW 180600Z 08015KT 6SM -FZRA OVC024 M03/M04 A2968 RMK NS8 SLP060=
CYOW;2006-01-18 07:27;SPECI CYOW 180727Z 09013G18KT 5SM -FZRA BR FEW007 OVC013 M00/ RMK CF1NS7=
CYOW;2006-01-18 07:45;SPECI CYOW 180745Z 09014KT 5SM -RA BR FEW005 OVC014 00/ REFZRA RMK CF1NS7 CIG RAG=
CYOW;2006-01-18 08:00;METAR CYOW 180800Z 09012G17KT 5SM -RA BR FEW005 OVC013 00/M00 A2958 REFZRA RMK CF2NS6 CIG RAG SLP025=
CYOW;2006-01-18 09:00;METAR CYOW 180900Z 08011KT 5SM -RA BR OVC005 01/01 A2953 RMK NS8 CIG RAG SLP005=
CYOW;2006-01-18 10:00;METAR CYOW 181000Z 08009KT 5SM -RA BR OVC005 01/01 A2947 RMK NS8 CIG RAG SLP986=
CYOW;2006-01-18 10:45;SPECI CYOW 181045Z 07014KT 5SM -RA BR SCT002 OVC016 01/ RMK SF3NS5=
CYOW;2006-01-18 11:00;METAR CYOW 181100Z 07013KT 5SM -RA BR BKN002 OVC016 01/01 A2941 RMK SF6NS2 /R12/ SLP967=
CYOW;2006-01-18 12:00;METAR CYOW 181200Z 07009KT 5SM -RA BR BKN002 OVC016 01/01 A2937 RMK SF6NS2 SLP952=
CYOW;2006-01-18 13:00;METAR CYOW 181300Z 07012KT 4SM -RA BR OVC004 01/01 A2932 RMK ST8 SLP934=
CYOW;2006-01-18 14:00;METAR CYOW 181400Z 09013KT 4SM -RA BR OVC003 02/02 A2928 RMK ST8 SLP920=
CYOW;2006-01-18 15:51;SPECI CYOW 181551Z 13007KT 1SM -RA BR VV004 04/ RMK FG8=
CYOW;2006-01-18 16:00;METAR CYOW 181600Z 14006KT 1SM -RA BR VV003 04/04 A2919 RMK FG8 SLP891=
CYOW;2006-01-18 16:16;SPECI CYOW 181616Z 14006KT 1/4SM -RA FG VV002 04/ RMK FG8=
CYOW;2006-01-18 17:00;METAR CYOW 181700Z 18005KT 1/4SM -RA FG VV002 05/05 A2915 RMK FG8 SLP877=
CYOW;2006-01-18 17:27;SPECI CYOW 181727Z 21006KT 3SM -RA BR OVC003 05/ RMK ST8=
CYOW;2006-01-18 18:00;METAR CYOW 181800Z 23012G19KT 6SM -RA BR BKN006 OVC016 05/05 A2913 RMK SF5ST3 SLP871=
CYOW;2006-01-18 19:00;METAR CYOW 181900Z 21012G20KT 6SM -RA BR OVC011 03/02 A2916 RMK SF8 SLP879=
CYOW;2006-01-18 20:00;METAR CYOW 182000Z 23013KT 10SM -RA BKN014 OVC020 03/01 A2918 RMK SF5SC3 VRY LGT RA SLP885=
CYOW;2006-01-18 20:47;SPECI CYOW 182047Z 23016KT 12SM SCT010 OVC028 02/ RMK SF3SC5=
CYOW;2006-01-18 21:00;METAR CYOW 182100Z 23013G19KT 12SM SCT010 OVC029 02/M00 A2922 RMK SF3SC5 SLP899=
CYOW;2006-01-18 21:29;SPECI CYOW 182129Z 23014G20KT 4SM -SN BR OVC024 01/ RMK SC8=
CYOW;2006-01-18 22:00;METAR CYOW 182200Z 23018G25KT 6SM -SN BR BKN010 OVC015 01/00 A2927 RMK SF6SC2 VRY LGT SN SLP917=
CYOW;2006-01-18 22:35;SPECI CYOW 182235Z 27026G35KT 3SM -SN BR BKN009 OVC015 M00/ RMK SF5SC3=
CYOW;2006-01-18 23:00;METAR CYOW 182300Z 26019G27KT 4SM -SN BR OVC011 M00/M01 A2936 RMK SF8 PRESRR SLP947=
CYOW;2006-01-18 23:20;SPECI CYOW 182320Z 25017KT 15SM SCT020 BKN088 00/ RMK SC3AC2=
CYOW;2006-01-19 00:00;METAR CYOW 190000Z 25013G19KT 15SM BKN042 OVC085 01/M01 A2942 RMK SC6AC2 CIG RAG PRESRR SLP968=
CYOW;2006-01-19 00:12;SPECI CYOW 190012Z 25017G22KT 12SM -SN OVC039 01/ RMK SC8 SN VRY LGT=
CYOW;2006-01-19 01:00;METAR CYOW 190100Z 25016G21KT 15SM FEW034 OVC092 01/M02 A2947 RMK SC1AC7 SLP983=
CYOW;2006-01-19 02:00;METAR CYOW 190200Z 24013G18KT 15SM FEW030 BKN077 01/M03 A2951 RMK SC1AC6 SLP998=
CYOW;2006-01-19 02:24;SPECI CYOW 190224Z 24015KT 15SM -SN OVC052 01/ RMK SC8=
CYOW;2006-01-19 03:25;SPECI CYOW 190325Z 25015G28KT 4SM -SHSN OVC013 M01/ RMK SC8 VIS N 11/2 CVCTV CLD EMBD=
CYOW;2006-01-19 03:31;SPECI CYOW 190331Z 25015G20KT 4SM -SHSN OVC009 M01/ RMK SC8 VIS N 2 CVCTV CLD EMBD=
CYOW;2006-01-19 03:40;SPECI CYOW 190340Z 24018G28KT 1SM -SHSN OVC007 M01/ RMK SN2SC6 CVCTV CLD EMBD=
CYOW;2006-01-19 03:44;SPECI CYOW 190344Z 25018G28KT 1/2SM SHSN VV002 M01/ RMK SN8 CVCTV CLD EMBD=
CYOW;2006-01-19 03:48;SPECI CYOW 190348Z 25018G28KT 1/4SM +SHSN VV002 M01/ RMK SN8 CVCTV CLD EMBD=
CYOW;2006-01-19 03:54;SPECI CYOW 190354Z 25014G24KT 1/2SM SHSN VV003 M01/ RMK SN8 CVCTV CLD EMBD=
CYOW;2006-01-19 04:05;SPECI CYOW 190405Z 25017KT 4SM -SN FEW011 BKN020 OVC049 M01/ RMK CF2SC5SC2=
CYOW;2006-01-19 04:42;SPECI CYOW 190442Z 24022G29KT 15SM DRSN FEW030 BKN084 M02/ RMK SC1AC6=
CYOW;2006-01-19 05:00;METAR CYOW 190500Z 23020KT 12SM -SHSN DRSN OVC034 M01/M04 A2965 RMK SC8 CVCTV CLD EMBD SLP043=
CYOW;2006-01-19 05:49;SPECI CYOW 190549Z 27015G24KT 1/2SM SHSN DRSN OVC020 M02/ RMK SN3SC5 VIS S 10=
CYOW;2006-01-19 05:52;SPECI CYOW 190552Z 29013G20KT 1/2SM SHSN DRSN VV009 M02/ RMK SN8=
CYOW;2006-01-19 06:20;SPECI CYOW 190620Z 27014G21KT 1/2SM SHSN DRSN VV007 M02/ RESN RMK SN8 CVCTV CLD EMBD=
CYOW;2006-01-19 06:27;SPECI CYOW 190627Z 26015KT 15SM -SHSN DRSN FEW011 SCT030 OVC078 M02/ RESN RMK CF1SC3AC4 CVCTV CLD EMBD VIS S 11/2=
CYOW;2006-01-19 07:28;SPECI CYOW 190728Z 24015G20KT 15SM DRSN SCT047 BKN080 M02/ RMK SC3AC2=
CYOW;2006-01-19 09:00;METAR CYOW 190900Z 26016KT 15SM DRSN BKN069 M02/M07 A2985 RMK AC7 SLP114=
CYOW;2006-01-19 10:00;METAR CYOW 191000Z 24011G17KT 15SM DRSN BKN060 M02/M06 A2990 RMK SC6 SLP129=
CYOW;2006-01-19 11:00;METAR CYOW 191100Z 25011G16KT 15SM BKN059 M03/M06 A2994 RMK SC6 SLP142=
CYOW;2006-01-19 12:00;METAR CYOW 191200Z 24015KT 15SM BKN060 M02/M06 A2998 RMK SC5 SLP158=
CYOW;2006-01-19 13:00;METAR CYOW 191300Z 25012G17KT 15SM SCT055 M02/M05 A3003 RMK SC3 SLP176=
CYOW;2006-01-19 15:00;METAR CYOW 191500Z 25009KT 15SM FEW050 FEW070 FEW250 M02/M08 A3009 RMK SC1AC1CI1 CLDS TR SLP196=
CYOW;2006-01-19 16:00;METAR CYOW 191600Z 25012KT 15SM FEW050 FEW250 M01/M07 A3010 RMK SC1CI1 CI TR SLP198=
CYOW;2006-01-19 17:00;METAR CYOW 191700Z 23011G16KT 15SM FEW020 BKN037 M01/M04 A3009 RMK SC2SC4 SLP195=
CYOW;2006-01-19 18:00;METAR CYOW 191800Z 25010KT 15SM OVC030 M00/M05 A3007 RMK SC8 SLP188=
CYOW;2006-01-19 19:00;METAR CYOW 191900Z 24009KT 15SM OVC032 M00/M06 A3006 RMK SC7 SLP187=
CYOW;2006-01-19 22:00;METAR CYOW 192200Z 17002KT 15SM SCT030 OVC062 M00/M05 A3008 RMK SC3SC5 SLP192=
CYOW;2006-01-19 23:00;METAR CYOW 192300Z 16003KT 15SM SCT040 BKN150 M00/M05 A3007 RMK SC3AC2 SLP190=
CYOW;2006-01-20 00:00;METAR CYOW 200000Z 14002KT 15SM FEW060 BKN190 M01/M04 A3007 RMK SC2AC5 SLP188=
CYOW;2006-01-20 01:00;METAR CYOW 200100Z 14004KT 15SM BKN150 M02/M05 A3006 RMK AC5 SLP185=
CYOW;2006-01-20 03:00;METAR CYOW 200300Z 13006KT 15SM OVC064 M01/M03 A3003 RMK SC7 SLP175=
CYOW;2006-01-20 04:00;METAR CYOW 200400Z 09006KT 12SM OVC044 M01/M03 A3002 RMK SC8 SLP171=
CYOW;2006-01-20 05:00;METAR CYOW 200500Z 09007KT 10SM OVC041 M01/M03 A2999 RMK SC8 SLP162=
CYOW;2006-01-20 07:00;METAR CYOW 200700Z 08007KT 15SM OVC042 M01/M03 A2993 RMK SC8 SLP142=
CYOW;2006-01-20 08:00;METAR CYOW 200800Z 09005KT 15SM OVC040 M01/M03 A2992 RMK SC8 SLP138=
CYOW;2006-01-20 09:00;METAR CYOW 200900Z 05004KT 15SM OVC040 M01/M03 A2991 RMK SC8 SLP133=
CYOW;2006-01-20 10:00;METAR CYOW 201000Z 08003KT 15SM OVC042 M01/M03 A2989 RMK SC8 SLP128=
CYOW;2006-01-20 11:00;METAR CYOW 201100Z 08006KT 15SM FEW030 FEW060 OVC082 M01/M03 A2988 RMK CF1SC2AC6 SLP123=
CYOW;2006-01-20 12:00;METAR CYOW 201200Z 08004KT 15SM OVC047 M01/M03 A2987 RMK SC8 SLP122=
CYOW;2006-01-20 13:00;METAR CYOW 201300Z 07005KT 12SM FEW030 OVC048 M01/M03 A2988 RMK SC2SC6 SLP123=
CYOW;2006-01-20 14:00;METAR CYOW 201400Z 07003KT 12SM OVC023 00/M02 A2989 RMK SC8 SLP128=
CYOW;2006-01-20 15:00;METAR CYOW 201500Z 09003KT 10SM OVC036 00/M01 A2989 RMK SC8 SLP126=
CYOW;2006-01-20 16:00;METAR CYOW 201600Z 21002KT 12SM BKN020 OVC035 02/M00 A2988 RMK SC6SC2 SLP125=
CYOW;2006-01-20 17:00;METAR CYOW 201700Z 22003KT 15SM BKN022 OVC035 05/02 A2987 RMK SC7SC1 SLP120=
CYOW;2006-01-20 18:00;METAR CYOW 201800Z 22006KT 15SM OVC024 06/02 A2987 RMK SC8 SLP119=
CYOW;2006-01-20 19:00;METAR CYOW 201900Z 21007KT 10SM SCT020 OVC045 06/02 A2988 RMK SC4SC4 SLP124=
CYOW;2006-01-20 20:00;METAR CYOW 202000Z 21006KT 15SM FEW030 OVC044 06/03 A2991 RMK SC1SC6 SLP133=
CYOW;2006-01-20 21:00;METAR CYOW 202100Z 21007KT 15SM FEW030 BKN040 06/03 A2994 RMK SC2SC6 SLP142=
CYOW;2006-01-20 22:00;METAR CYOW 202200Z 27005KT 12SM BKN030 OVC040 06/03 A2997 RMK SC7SC1 WND DCTN CHGD SLP154=
CYOW;2006-01-20 23:00;METAR CYOW 202300Z 28005KT 12SM BKN027 OVC038 06/02 A3000 RMK SC6SC2 SLP164=
CYOW;2006-01-21 00:00;METAR CYOW 210000Z 29008KT 10SM OVC028 04/02 A3003 RMK SC8 SLP176=
CYOW;2006-01-21 01:00;METAR CYOW 210100Z 28004KT 10SM BKN022 BKN041 03/01 A3005 RMK SC5SC2 SLP180=
CYOW;2006-01-21 03:00;METAR CYOW 210300Z 31006KT 12SM FEW020 SCT210 01/M01 A3002 RMK SC2CI0 SLP170=
CYOW;2006-01-21 04:00;METAR CYOW 210400Z 19002KT 15SM FEW180 01/M00 A3000 RMK AC2 SLP165=
CYOW;2006-01-21 05:00;METAR CYOW 210500Z 00000KT 15SM OVC022 02/M00 A2999 RMK SC8 SLP161=
CYOW;2006-01-21 06:00;METAR CYOW 210600Z 32002KT 15SM OVC023 01/M00 A2997 RMK SC8 SLP154=
CYOW;2006-01-21 07:10;SPECI CYOW 210710Z 02004KT 5SM -RASN OVC025 01/ RMK SC8=
CYOW;2006-01-21 07:29;SPECI CYOW 210729Z 05004KT 4SM -SN OVC013 01/ RMK NS8 SN WET=
CYOW;2006-01-21 08:20;SPECI CYOW 210820Z 02009KT 1SM -SN VV007 01/ RMK SN8 SN WET=
CYOW;2006-01-21 08:46;SPECI CYOW 210846Z 05009KT 1SM -SN BKN002 OVC024 00/ RMK SN2SF5SC2=
CYOW;2006-01-21 09:14;SPECI CYOW 210914Z 05008KT 3SM -RASN OVC002 00/ RMK NS8=
CYOW;2006-01-21 09:37;SPECI CYOW 210937Z 05008KT 3SM -RA BR OVC002 00/ RMK NS8=
CYOW;2006-01-21 11:00;METAR CYOW 211100Z 01010KT 2 1/2SM -RA BR OVC003 00/00 A2976 RMK NS8 CIG RAG SLP082=
CYOW;2006-01-21 11:20;SPECI CYOW 211120Z 02010KT 4SM -RA BR OVC004 00/ RMK NS8 CIG RAG=
CYOW;2006-01-21 11:52;SPECI CYOW 211152Z 01010KT 3SM -RASN BR OVC003 00/ RMK NS8=
CYOW;2006-01-21 12:00;METAR CYOW 211200Z 01010KT 3SM -RASN BR OVC003 00/00 A2973 RMK NS8 SLP074=
CYOW;2006-01-21 13:00;METAR CYOW 211300Z 35011KT 1SM -RASN BR OVC004 00/00 A2972 RMK SN3NS5 SLP070=
CYOW;2006-01-21 13:22;SPECI CYOW 211322Z 36012KT 1/2SM SN OVC004 00/ RMK SN5NS3=
CYOW;2006-01-21 14:32;SPECI CYOW 211432Z 36009KT 1/4SM +SN VV003 M00/ RMK SN8=
CYOW;2006-01-21 15:00;METAR CYOW 211500Z 35010KT 1/4SM +SN VV003 M00/M00 A2969 RMK SN8 /SO3/ SLP058=
CYOW;2006-01-21 15:11;SPECI CYOW 211511Z 34010KT 1/2SM SN VV004 M00/ RESN RMK SN8=
CYOW;2006-01-21 15:41;SPECI CYOW 211541Z 32013G18KT 1/4SM +SN VV003 M00/ RMK SN8=
CYOW;2006-01-21 16:00;METAR CYOW 211600Z 33015KT 1/4SM +SN VV004 M01/M01 A2972 RMK SN8 /SO5/ SLP068=
CYOW;2006-01-21 17:00;METAR CYOW 211700Z 33017KT 1/4SM +SN VV004 M02/M02 A2976 RMK SN8 /S10/ SLP084=
CYOW;2006-01-21 17:29;SPECI CYOW 211729Z 33017G24KT 1/2SM SN VV007 M02/ RESN RMK SN8=
CYOW;2006-01-21 17:50;SPECI CYOW 211750Z 32015KT 3/4SM -SN OVC012 M02/ RESN RMK SN4NS4=
CYOW;2006-01-21 18:00;METAR CYOW 211800Z 31017KT 1 1/2SM -SN OVC015 M02/M03 A2987 RESN RMK SN2NS6 /S13/ PRESRR 6 MB PST 3 HRS SLP120=
CYOW;2006-01-21 18:17;SPECI CYOW 211817Z 32017G22KT 5SM -SN OVC017 M02/ RMK NS8=
CYOW;2006-01-21 18:30;SPECI CYOW 211830Z 33019KT 10SM FEW012 OVC060 M02/ RMK SF2SC4=
CYOW;2006-01-21 19:00;METAR CYOW 211900Z 32014G20KT 15SM BKN020 BKN060 M02/M03 A2993 RMK SC5SC1 PRERR SLP142=
CYOW;2006-01-21 20:00;METAR CYOW 212000Z 29017G22KT 15SM DRSN BKN028 M02/M03 A3003 RMK SC6 PRESRR SLP174=
CYOW;2006-01-21 22:00;METAR CYOW 212200Z 28017KT 15SM DRSN FEW030 M05/M06 A3018 RMK SC2 PRESRR SLP227=
CYOW;2006-01-21 23:36;SPECI CYOW 212336Z 30011KT 2 1/2SM -SHSN DRSN OVC018 M06/ RMK SN2SC6 CVCTV CLD EMBD=
CYOW;2006-01-22 00:00;METAR CYOW 220000Z 30012G17KT 1 3/4SM -SHSN DRSN BKN017 OVC030 M06/M08 A3030 RMK SN3SC3SC2 CVCTV CLD EMBD SLP268=
CYOW;2006-01-22 00:24;SPECI CYOW 220024Z 28011G17KT 6SM -SHSN DRSN SCT017 BKN030 M06/ RMK SC3SC2 VIS NW 2 CVCTV CLD EMBD=
CYOW;2006-01-22 00:55;SPECI CYOW 220055Z 29013KT 2SM -SHSN DRSN OVC017 M07/ RMK SN3SC5 VIS VRB 1-3 CVCTV CLD EMBD=
CYOW;2006-01-22 01:00;METAR CYOW 220100Z 29013KT 1SM -SHSN DRSN OVC017 M07/M09 A3036 RMK SN4SC4 VIS VRB 3/4-11/4 CVCTV CLD EMBD /S01/ SLP287=
CYOW;2006-01-22 01:11;SPECI CYOW 220111Z 29012KT 2SM -SHSN DRSN SCT012 OVC018 M07/ RMK SC3SC5 CVCTV CLD EMBD=
CYOW;2006-01-22 01:35;SPECI CYOW 220135Z 29010KT 15SM VCSH FEW012 FEW025 M08/ RMK SC1SC1 VIS ESE 4=
CYOW;2006-01-22 02:00;METAR CYOW 220200Z 31011KT 15SM FEW012 SCT032 M08/M11 A3042 RMK SC1SC2 SHSN DIST N PRESRR SLP308=
CYOW;2006-01-22 03:00;METAR CYOW 220300Z 31009KT 15SM FEW020 M10/M13 A3047 RMK SC1 SLP326=
CYOW;2006-01-22 04:00;METAR CYOW 220400Z 28006KT 15SM FEW017 M11/M13 A3052 RMK SC1 SLP342=
CYOW;2006-01-22 05:00;METAR CYOW 220500Z 29006KT 15SM SKC M11/M13 A3055 RMK SLP352=
CYOW;2006-01-22 06:00;METAR CYOW 220600Z 26004KT 15SM SKC M12/M14 A3057 RMK SLP360=
CYOW;2006-01-22 07:00;METAR CYOW 220700Z 28002KT 15SM SKC M12/M14 A3059 RMK SLP367=
CYOW;2006-01-22 08:00;METAR CYOW 220800Z 19002KT 15SM SKC M14/M15 A3061 RMK FROIN SLP373=
CYOW;2006-01-22 09:00;METAR CYOW 220900Z 00000KT 15SM SKC M14/M15 A3061 RMK FROIN SLP375=
CYOW;2006-01-22 10:00;METAR CYOW 221000Z 23002KT 15SM SKC M14/M15 A3062 RMK FROIN SLP380=
CYOW;2006-01-22 11:00;METAR CYOW 221100Z 19003KT 15SM SKC M14/M16 A3063 RMK FROIN SLP382=
CYOW;2006-01-22 12:00;METAR CYOW 221200Z 23004KT 15SM SKC M15/M16 A3065 RMK FROIN SLP388=
CYOW;2006-01-22 13:00;METAR CYOW 221300Z 00000KT 20SM FEW090 M15/M16 A3065 RMK AC2 SLP387=
CYOW;2006-01-22 14:00;METAR CYOW 221400Z 18003KT 20SM FEW080 M14/M15 A3066 RMK AC2 SLP392=
CYOW;2006-01-22 15:00;METAR CYOW 221500Z 16002KT 20SM BKN033 M12/M13 A3066 RMK SC6 SLP393=
CYOW;2006-01-22 16:00;METAR CYOW 221600Z 16005KT 20SM BKN033 M09/M12 A3065 RMK SC7 SLP388=
CYOW;2006-01-22 17:00;METAR CYOW 221700Z 20005KT 15SM BKN037 M08/M10 A3062 RMK SC7 SLP378=
CYOW;2006-01-22 18:00;METAR CYOW 221800Z 18006KT 15SM BKN037 BKN180 M06/M09 A3058 RMK SC3AC1 SLP365=
CYOW;2006-01-22 20:00;METAR CYOW 222000Z 15005KT 15SM FEW040 SCT280 M05/M07 A3055 RMK SC1CI2 SLP354=
CYOW;2006-01-22 21:00;METAR CYOW 222100Z 14004KT 15SM BKN027 M05/M07 A3054 RMK SC6 SLP352=
CYOW;2006-01-22 22:00;METAR CYOW 222200Z 17004KT 15SM BKN024 M04/M06 A3052 RMK SC6 SLP346=
CYOW;2006-01-22 23:00;METAR CYOW 222300Z 13005KT 15SM FEW022 SCT070 M05/M07 A3051 RMK SC2AC0 SLP340=
CYOW;2006-01-23 00:00;METAR CYOW 230000Z 13004KT 15SM FEW020 FEW070 BKN250 M06/M08 A3048 RMK SC1AC1CI2 SC AC TR SLP333=
CYOW;2006-01-23 02:00;METAR CYOW 230200Z 08004KT 15SM BKN210 M07/M09 A3044 RMK CS2 SLP319=
CYOW;2006-01-23 04:00;METAR CYOW 230400Z 07006KT 15SM BKN170 BKN250 M07/M09 A3036 RMK AS5CI1 SLP292=
CYOW;2006-01-23 05:00;METAR CYOW 230500Z 06005KT 15SM OVC180 M08/M10 A3033 RMK AS7 SLP280=
CYOW;2006-01-23 06:00;METAR CYOW 230600Z 07006KT 15SM SCT170 BKN250 M09/M11 A3029 RMK AS3CI2 SLP266=
CYOW;2006-01-23 08:00;METAR CYOW 230800Z 05008KT 12SM SCT200 BKN250 M11/M12 A3025 RMK CS2CI2 SLP251=
CYOW;2006-01-23 10:00;METAR CYOW 231000Z 07007KT 12SM BKN190 BKN250 M10/M12 A3017 RMK AS5CI1 FROIN SLP226=
CYOW;2006-01-23 11:00;METAR CYOW 231100Z 05007KT 12SM BKN180 M10/M11 A3014 RMK AC6 FROIN SLP216=
CYOW;2006-01-23 12:00;METAR CYOW 231200Z 05007KT 10SM OVC180 M09/M11 A3011 RMK AC8 FROIN SLP206=
CYOW;2006-01-23 13:00;METAR CYOW 231300Z 05007KT 12SM BKN170 BKN280 M09/M11 A3009 RMK AC5CI1 SLP198=
CYOW;2006-01-23 14:00;METAR CYOW 231400Z 07007KT 12SM BKN150 OVC180 M08/M10 A3007 RMK AC5AS3 SLP190=
CYOW;2006-01-23 15:00;METAR CYOW 231500Z 06004KT 12SM BKN130 BKN180 M07/M09 A3005 RMK AC5AC2 SLP183=
CYOW;2006-01-23 16:00;METAR CYOW 231600Z 03002KT 12SM FEW130 SCT280 M06/M09 A3002 RMK AC2CI2 SLP174=
CYOW;2006-01-23 17:00;METAR CYOW 231700Z 03003KT 10SM SCT020 M05/M08 A2998 RMK SC1 SLP161=
CYOW;2006-01-23 18:00;METAR CYOW 231800Z 00000KT 10SM BKN017 M03/M06 A2995 RMK SC7 SLP150=
CYOW;2006-01-23 19:00;METAR CYOW 231900Z 16003KT 10SM FEW014 M02/M06 A2992 RMK SC2 SLP139=
CYOW;2006-01-23 20:00;METAR CYOW 232000Z 19003KT 10SM FEW014 M02/M06 A2991 RMK SC1 SLP135=
CYOW;2006-01-23 21:00;METAR CYOW 232100Z 00000KT 8SM FEW020 M02/M06 A2990 RMK SC1 SLP132=
CYOW;2006-01-23 22:00;METAR CYOW 232200Z 23003KT 8SM FEW080 M03/M06 A2989 RMK AC1 SLP130=
CYOW;2006-01-23 23:00;METAR CYOW 232300Z 23003KT 10SM FEW040 FEW080 M04/M06 A2991 RMK SC1AC1 SC TR SLP134=
CYOW;2006-01-24 00:00;METAR CYOW 240000Z 00000KT 10SM FEW035 BKN047 M05/M06 A2990 RMK SC1SC6 SLP134=
CYOW;2006-01-24 03:00;METAR CYOW 240300Z 22003KT 12SM OVC042 M04/M06 A2989 RMK SC7 SLP130=
CYOW;2006-01-24 04:00;METAR CYOW 240400Z 24004KT 12SM OVC041 M03/M05 A2988 RMK SC7 SLP126=
CYOW;2006-01-24 05:00;METAR CYOW 240500Z 20004KT 12SM OVC040 M04/M05 A2988 RMK SC8 SLP124=
CYOW;2006-01-24 06:00;METAR CYOW 240600Z 23004KT 12SM OVC036 M03/M05 A2986 RMK SC8 SLP118=
CYOW;2006-01-24 08:00;METAR CYOW 240800Z 23003KT 12SM OVC036 M02/M06 A2984 RMK SC8 SLP112=
CYOW;2006-01-24 09:00;METAR CYOW 240900Z 21003KT 12SM OVC035 M02/M06 A2982 RMK SC8 SLP105=
CYOW;2006-01-24 10:00;METAR CYOW 241000Z 19005KT 12SM BKN040 M02/M05 A2980 RMK SC7 SLP099=
CYOW;2006-01-24 11:00;METAR CYOW 241100Z 19005KT 12SM BKN036 M03/M05 A2978 RMK SC6 SLP091=
CYOW;2006-01-24 12:00;METAR CYOW 241200Z 19005KT 12SM FEW030 FEW160 M03/M06 A2976 RMK SC2AC1 SLP085=
CYOW;2006-01-24 13:00;METAR CYOW 241300Z 21008KT 12SM FEW150 BKN250 M03/M06 A2977 RMK AC2CI1 SLP087=
CYOW;2006-01-24 14:00;METAR CYOW 241400Z 17006KT 10SM BKN020 OVC160 M03/M06 A2975 RMK SC5AS3 SLP081=
CYOW;2006-01-24 15:00;METAR CYOW 241500Z 18010KT 10SM BKN020 OVC110 M01/M05 A2972 RMK SC6AC2 SLP070=
CYOW;2006-01-24 17:00;METAR CYOW 241700Z 18010KT 8SM OVC082 00/M03 A2963 RMK AC8 SLP041=
CYOW;2006-01-24 18:00;METAR CYOW 241800Z 17012KT 8SM OVC081 01/M03 A2957 RMK AS8 SLP020=
CYOW;2006-01-24 19:00;METAR CYOW 241900Z 17010KT 10SM OVC100 01/M04 A2954 RMK AS8 SLP010=
CYOW;2006-01-24 20:00;METAR CYOW 242000Z 15009KT 12SM BKN110 01/M04 A2952 RMK AC7 SLP001=
CYOW;2006-01-24 21:00;METAR CYOW 242100Z 16007KT 12SM BKN096 OVC110 01/M04 A2950 RMK AC5AS3 SLP995=
CYOW;2006-01-24 22:00;METAR CYOW 242200Z 17005KT 12SM OVC090 01/M04 A2948 RMK AS8 SLP988=
CYOW;2006-01-24 22:49;SPECI CYOW 242249Z 18012G17KT 4SM -SN OVC060 01/ RMK SC8=
CYOW;2006-01-24 23:00;METAR CYOW 242300Z 19009KT 4SM -SN OVC060 01/M02 A2948 RMK SC8 SLP988=
CYOW;2006-01-24 23:05;SPECI CYOW 242305Z 18008KT 2 1/2SM -SN VV020 00/ RMK SN8=
CYOW;2006-01-24 23:25;SPECI CYOW 242325Z 17007KT 3SM -SN OVC060 00/ RMK SC8=
CYOW;2006-01-24 23:47;SPECI CYOW 242347Z 17007KT 8SM -SN FEW005 OVC018 M00/ RMK CF2SC6 SN VRY LGT=
CYOW;2006-01-25 00:00;METAR CYOW 250000Z 17008KT 8SM -SN FEW007 OVC018 00/M01 A2946 RMK CF2SC6 SN VRY LGT SLP981=
CYOW;2006-01-25 00:47;SPECI CYOW 250047Z 17009KT 1 1/2SM -SN FEW007 OVC018 00/ RMK CF2SC6=
CYOW;2006-01-25 01:00;METAR CYOW 250100Z 18009KT 2SM -SN OVC010 01/M00 A2945 RMK SC8 CIG RAG SLP977=
CYOW;2006-01-25 01:03;SPECI CYOW 250103Z 18009KT 4SM -SN FEW008 OVC015 00/ RMK CF1SC7 CIG RAG=
CYOW;2006-01-25 01:17;SPECI CYOW 250117Z 17009G15KT 4SM -SN SCT008 OVC010 01/ RMK CF3SC5=
CYOW;2006-01-25 01:48;SPECI CYOW 250148Z 18009KT 5SM -SN OVC006 00/ RMK SC8=
CYOW;2006-01-25 02:00;METAR CYOW 250200Z 18007KT 5SM -SN OVC006 00/M00 A2943 RMK SC8 CIG RAG SLP973=
CYOW;2006-01-25 02:15;SPECI CYOW 250215Z 18007KT 1 1/2SM -SN OVC008 00/ RMK SC8 CIG RAG=
CYOW;2006-01-25 03:00;METAR CYOW 250300Z 18006KT 1SM -SN VV005 00/M00 A2943 RMK SN8 /S01/ SLP970=
CYOW;2006-01-25 04:46;SPECI CYOW 250446Z 19005KT 8SM -SN FEW006 OVC031 00/ RMK CF1SC7 SN VRY LGT=
CYOW;2006-01-25 05:00;METAR CYOW 250500Z 20005KT 8SM -SN FEW007 OVC031 00/M00 A2942 RMK CF2SC6 SN VRY LGT SLP968=
CYOW;2006-01-25 06:00;METAR CYOW 250600Z 20005KT 8SM -SN FEW007 BKN030 BKN057 00/M00 A2942 RMK CF1SC4SC2 SN VRY LGT SLP966=
CYOW;2006-01-25 07:00;METAR CYOW 250700Z 21003KT 5SM -SN OVC037 00/M00 A2942 RMK SC8 SLP966=
CYOW;2006-01-25 08:00;METAR CYOW 250800Z 21002KT 3SM BR BKN058 M00/M00 A2941 RMK SC7 SLP965=
CYOW;2006-01-25 08:20;SPECI CYOW 250820Z 27002KT 2SM BR BKN003 OVC055 M01/ RMK SF6SC2=
CYOW;2006-01-25 08:30;SPECI CYOW 250830Z 32003KT 2SM -SN BR OVC003 M01/ RMK SF8=
CYOW;2006-01-25 09:00;METAR CYOW 250900Z 27002KT 2SM -SN BR BKN003 OVC013 M00/M00 A2942 RMK SF6SC2 SLP967=
CYOW;2006-01-25 10:00;METAR CYOW 251000Z 27002KT 3SM BR OVC004 00/00 A2942 RMK SF8 SLP969=
CYOW;2006-01-25 11:00;METAR CYOW 251100Z 32002KT 4SM BR OVC004 M00/M00 A2944 RMK SF8 SLP973=
CYOW;2006-01-25 11:28;SPECI CYOW 251128Z 30003KT 3SM -SN BR OVC004 M01/ RMK SF8 SN FINE AND VRY LGT=
CYOW;2006-01-25 11:48;SPECI CYOW 251148Z 32005KT 3SM -SN BR OVC003 M00/ RMK ST8 SN FINE AND VRY LGT=
CYOW;2006-01-25 12:00;METAR CYOW 251200Z 32004KT 3SM -SN BR OVC003 M00/M00 A2946 RMK ST8 SN=
CYOW;2006-01-25 12:09;SPECI CYOW 251209Z 33004KT 2SM -SN BR OVC003 M00/ RMK ST8 SN FINE AND VRY LGT=
CYOW;2006-01-25 12:20;SPECI CYOW 251220Z 32003KT 1 3/4SM BR BKN004 OVC008 M00/ RMK FG2SF4SC2=
CYOW;2006-01-25 12:34;SPECI CYOW 251234Z 35003KT 2 1/2SM BR SCT004 OVC021 M00/ RMK SF3SC5=
CYOW;2006-01-25 13:00;METAR CYOW 251300Z 33005KT 5SM BR FEW004 BKN017 BKN044 BKN250 M00/M01 A2949 RMK SF1SC5SC2CI1 SF CI TR SLP990=
CYOW;2006-01-25 14:00;METAR CYOW 251400Z 32005KT 4SM BR SCT005 BKN010 OVC030 M01/M01 A2952 RMK SF4SC3SC1 SLP000=
CYOW;2006-01-25 14:16;SPECI CYOW 251416Z 34009KT 10SM BKN006 OVC020 M01/ RMK SC7SC1=
CYOW;2006-01-25 14:33;SPECI CYOW 251433Z 33008KT 10SM FEW006 BKN012 OVC040 M01/ RMK SC1SC6SC1=
CYOW;2006-01-25 14:45;SPECI CYOW 251445Z 30006KT 10SM FEW006 SCT011 BKN040 BKN250 M01/ RMK CF1SC3SC2CI1 CUFRA TR=
CYOW;2006-01-25 15:00;METAR CYOW 251500Z 28004KT 10SM FEW011 FEW120 BKN250 M01/M03 A2954 RMK SC1AC2CI1 SC TR SLP009=
CYOW;2006-01-25 15:32;SPECI CYOW 251532Z 29008KT 10SM BKN014 BKN110 BKN250 M00/ RMK SC6AC1CI0=
CYOW;2006-01-25 16:00;METAR CYOW 251600Z 29010KT 10SM BKN016 BKN033 M00/M02 A2956 RMK SC6SC1 SLP014=
CYOW;2006-01-25 17:00;METAR CYOW 251700Z 29012KT 12SM BKN019 OVC250 00/M02 A2956 RMK SC7CI0 SLP017=
CYOW;2006-01-25 17:48;SPECI CYOW 251748Z 32011KT 8SM -SN BKN020 OVC034 M00/ RMK SC6SC1=
CYOW;2006-01-25 18:00;METAR CYOW 251800Z 32012KT 5SM -SN BKN020 OVC035 M00/M03 A2958 RMK SC6SC2 SLP021=
CYOW;2006-01-25 18:25;SPECI CYOW 251825Z 33013KT 15SM OVC016 M00/ RMK SC8=
CYOW;2006-01-25 19:00;METAR CYOW 251900Z 31012KT 12SM OVC021 M00/M04 A2960 RMK SC8 SLP029=
CYOW;2006-01-25 19:50;SPECI CYOW 251950Z 32012KT 12SM -SN OVC023 M00/ RMK SC8 SN VRY LGT=
CYOW;2006-01-25 20:00;METAR CYOW 252000Z 32012KT 12SM -SN OVC025 M00/M03 A2963 RMK SC8 SN VRY LGT SLP040=
CYOW;2006-01-25 20:56;SPECI CYOW 252056Z 30015G21KT 1 1/2SM -SN OVC017 M02/ RMK SN5SC3 VIS VRB 1-2=
CYOW;2006-01-25 21:00;METAR CYOW 252100Z 29017KT 3/4SM -SN DRSN OVC018 M02/M03 A2967 RMK SN6SC2 SLP053=
CYOW;2006-01-25 22:00;METAR CYOW 252200Z 31016G21KT 1SM -SN DRSN OVC015 M03/M04 A2971 RMK SN6SC2 VIS VRB 3/4-11/4 SLP068=
CYOW;2006-01-25 22:19;SPECI CYOW 252219Z 31016KT 1 1/2SM -SN DRSN OVC017 M03/ RMK SN4SC4=
CYOW;2006-01-25 22:37;SPECI CYOW 252237Z 30014KT 3SM -SN DRSN OVC020 M04/ RMK SC8=
CYOW;2006-01-25 23:00;METAR CYOW 252300Z 30017KT 5SM -SN DRSN BKN015 OVC033 M04/M06 A2976 RMK SC5SC3 VIS E 2 /S01/ SLP082=
CYOW;2006-01-26 00:00;METAR CYOW 260000Z 31016G21KT 15SM -SN DRSN SCT017 OVC076 M05/M07 A2979 RMK SC3AC5 DN VRY LGT SLP096=
CYOW;2006-01-26 01:00;METAR CYOW 260100Z 31017KT 15SM -SN DRSN OVC023 M05/M08 A2983 RMK SC8 SN VRY LGT SLP107=
CYOW;2006-01-26 02:00;METAR CYOW 260200Z 31016KT 10SM -SN DRSN OVC020 M06/M09 A2986 RMK SC8 SLP119=
CYOW;2006-01-26 03:00;METAR CYOW 260300Z 31017KT 3SM -SN DRSN OVC026 M07/M10 A2990 RMK SC8 SLP132=
CYOW;2006-01-26 03:23;SPECI CYOW 260323Z 31015KT 1 1/4SM -SN DRSN VV010 M08/ RMK SN8=
CYOW;2006-01-26 04:00;METAR CYOW 260400Z 31017KT 1 1/4SM -SN DRSN VV010 M08/M10 A2992 RMK SN8 /S01/ SLP140=
CYOW;2006-01-26 05:00;METAR CYOW 260500Z 31013G18KT 1 1/2SM -SN DRSN OVC046 M09/M11 A2995 RMK SN3SC5 SLP148=
CYOW;2006-01-26 06:00;METAR CYOW 260600Z 31016KT 1 1/2SM -SN DRSN VV009 M10/M12 A2997 RMK SN8 SLP157=
CYOW;2006-01-26 07:00;METAR CYOW 260700Z 31014KT 3SM -SN DRSN OVC026 M11/M13 A3001 RMK SC8 SLP169=
CYOW;2006-01-26 08:00;METAR CYOW 260800Z 29010KT 3SM -SN DRSN OVC022 M11/M13 A3004 RMK SC8 SLP178=
CYOW;2006-01-26 09:00;METAR CYOW 260900Z 30012KT 1 1/2SM -SN DRSN VV008 M12/M14 A3006 RMK SN8 SLP188=
CYOW;2006-01-26 09:49;SPECI CYOW 260949Z 30012KT 4SM -SN DRSN OVC044 M12/ RMK SC8=
CYOW;2006-01-26 10:00;METAR CYOW 261000Z 30012KT 5SM -SN DRSN OVC044 M12/M15 A3010 RMK SC8 /S01/ SLP199=
CYOW;2006-01-26 10:21;SPECI CYOW 261021Z 30011KT 2SM -SN DRSN VV014 M12/ RMK SN8=
CYOW;2006-01-26 10:39;SPECI CYOW 261039Z 30011KT 5SM -SN DRSN OVC044 M12/ RMK SC8=
CYOW;2006-01-26 11:00;METAR CYOW 261100Z 30012KT 5SM -SN DRSN OVC043 M13/M15 A3013 RMK SC8 SLP210=
CYOW;2006-01-26 12:00;METAR CYOW 261200Z 30012KT 15SM DRSN SCT045 BKN250 M13/M16 A3017 RMK SC2CI1 SLP226=
CYOW;2006-01-26 13:00;METAR CYOW 261300Z 30011KT 20SM FEW050 FEW100 FEW250 M15/M18 A3021 RMK SC1AC1CI1 CLDS TR SLP239=
CYOW;2006-01-26 14:00;METAR CYOW 261400Z 30011KT 20SM FEW070 FEW250 M14/M17 A3026 RMK AC1CI1 CLDS TR SLP255=
CYOW;2006-01-26 15:00;METAR CYOW 261500Z 29011KT 20SM FEW070 FEW250 M14/M17 A3029 RMK AC1CI1 CLDS TR SLP267=
CYOW;2006-01-26 16:00;METAR CYOW 261600Z 28012KT 20SM FEW250 M13/M17 A3032 RMK CI1 SLP277=
CYOW;2006-01-26 17:00;METAR CYOW 261700Z 29009KT 20SM FEW250 M12/M16 A3033 RMK CI1 SLP280=
CYOW;2006-01-26 18:00;METAR CYOW 261800Z 29013KT 20SM SKC M12/M17 A3034 RMK SLP285=
CYOW;2006-01-26 19:00;METAR CYOW 261900Z 29013KT 20SM SKC M12/M17 A3036 RMK SLP289=
CYOW;2006-01-26 20:00;METAR CYOW 262000Z 29011KT 20SM FEW250 M11/M17 A3037 RMK CI1 SLP294=
CYOW;2006-01-26 21:00;METAR CYOW 262100Z 27008KT 20SM FEW250 M11/M17 A3039 RMK CI1 SLP301=
CYOW;2006-01-26 22:00;METAR CYOW 262200Z 27008KT 20SM SKC M12/M17 A3042 RMK SLP310=
CYOW;2006-01-26 23:00;METAR CYOW 262300Z 27006KT 15SM SKC M13/M17 A3045 RMK SLP320=
CYOW;2006-01-27 00:00;METAR CYOW 270000Z 22003KT 15SM SKC M13/M17 A3046 RMK SLP327=
CYOW;2006-01-27 02:00;METAR CYOW 270200Z 27004KT 15SM SKC M14/M18 A3049 RMK SLP335=
CYOW;2006-01-27 03:00;METAR CYOW 270300Z 27006KT 15SM SKC M14/M18 A3049 RMK SLP337=
CYOW;2006-01-27 04:00;METAR CYOW 270400Z 25003KT 15SM SKC M14/M18 A3050 RMK SLP339=
CYOW;2006-01-27 05:00;METAR CYOW 270500Z 22003KT 15SM SKC M15/M19 A3050 RMK SLP340=
CYOW;2006-01-27 06:00;METAR CYOW 270600Z 22005KT 15SM SKC M16/M19 A3050 RMK SLP340=
CYOW;2006-01-27 08:00;METAR CYOW 270800Z 24005KT 15SM SKC M17/M20 A3050 RMK SLP340=
CYOW;2006-01-27 09:00;METAR CYOW 270900Z 26005KT 15SM SKC M16/M19 A3048 RMK SLP333=
CYOW;2006-01-27 10:00;METAR CYOW 271000Z 26004KT 15SM SKC M16/M19 A3048 RMK SLP334=
CYOW;2006-01-27 11:00;METAR CYOW 271100Z 18003KT 15SM SKC M18/M21 A3048 RMK SLP332=
CYOW;2006-01-27 12:00;METAR CYOW 271200Z 18005KT 15SM FEW100 M15/M19 A3046 RMK AC1 FROIN SLP327=
CYOW;2006-01-27 13:00;METAR CYOW 271300Z 24005KT 20SM FEW100 M16/M19 A3047 RMK AC1 TR AC SLP328=
CYOW;2006-01-27 15:00;METAR CYOW 271500Z 21006KT 20SM SKC M12/M16 A3045 RMK SLP322=
CYOW;2006-01-27 16:00;METAR CYOW 271600Z 23009KT 20SM SKC M07/M12 A3040 RMK SLP306=
CYOW;2006-01-27 17:00;METAR CYOW 271700Z 21008KT 20SM SKC M04/M09 A3035 RMK SLP289=
CYOW;2006-01-27 18:00;METAR CYOW 271800Z 21009KT 20SM FEW240 M02/M07 A3030 RMK CI1 SLP270=
CYOW;2006-01-27 19:00;METAR CYOW 271900Z 21006KT 20SM FEW250 00/M05 A3027 RMK CI1 SLP259=
CYOW;2006-01-27 20:00;METAR CYOW 272000Z 22007KT 15SM FEW250 02/M04 A3025 RMK CI0 SLP251=
CYOW;2006-01-27 22:00;METAR CYOW 272200Z 21009KT 15SM BKN260 01/M03 A3023 RMK CI2 SLP244=
CYOW;2006-01-27 23:00;METAR CYOW 272300Z 20008KT 15SM FEW210 SCT260 00/M02 A3021 RMK CI1CI0 SLP239=
CYOW;2006-01-28 00:00;METAR CYOW 280000Z 20007KT 15SM SCT250 M00/M03 A3020 RMK CI1 SLP236=
CYOW;2006-01-28 01:00;METAR CYOW 280100Z 21008KT 12SM SCT250 M01/M03 A3018 RMK CI1 SLP229=
CYOW;2006-01-28 03:00;METAR CYOW 280300Z 23007KT 12SM FEW160 BKN250 00/M03 A3016 RMK AC1CI1 FROIN SLP221=
CYOW;2006-01-28 04:00;METAR CYOW 280400Z 23011KT 12SM SCT160 BKN250 00/M03 A3013 RMK AC2CI1 FROIN SLP212=
CYOW;2006-01-28 05:00;METAR CYOW 280500Z 22010KT 12SM FEW140 SCT250 01/M03 A3011 RMK AC1CI0 SLP205=
CYOW;2006-01-28 07:00;METAR CYOW 280700Z 22009KT 12SM BKN150 BKN250 01/M03 A3009 RMK AC5CI0 SLP196=
CYOW;2006-01-28 08:00;METAR CYOW 280800Z 22011KT 12SM BKN120 01/M03 A3008 RMK AC6 SLP194=
CYOW;2006-01-28 09:00;METAR CYOW 280900Z 22012KT 12SM OVC095 02/M03 A3007 RMK AC8 SLP188=
CYOW;2006-01-28 11:00;METAR CYOW 281100Z 23006KT 12SM SCT120 BKN210 02/M03 A3007 RMK AC3CI2 SLP189=
CYOW;2006-01-28 12:00;METAR CYOW 281200Z 23007KT 10SM FEW120 SCT180 01/M03 A3006 RMK AC2AC1 SLP186=
CYOW;2006-01-28 13:00;METAR CYOW 281300Z 23010KT 12SM FEW210 01/M03 A3007 RMK CI2 SLP189=
CYOW;2006-01-28 14:00;METAR CYOW 281400Z 23009KT 12SM SKC 02/M03 A3008 RMK SLP190=
CYOW;2006-01-28 15:00;METAR CYOW 281500Z 23011KT 12SM SKC 02/M02 A3007 RMK SLP189=
CYOW;2006-01-28 16:00;METAR CYOW 281600Z 24010KT 12SM SKC 03/M02 A3006 RMK SLP184=
CYOW;2006-01-28 17:00;METAR CYOW 281700Z 24007KT 12SM SKC 04/M01 A3004 RMK SLP178=
CYOW;2006-01-28 18:00;METAR CYOW 281800Z 25008KT 20SM SKC 05/M01 A3002 RMK SLP172=
CYOW;2006-01-28 19:00;METAR CYOW 281900Z 26007KT 12SM SKC 06/M01 A3002 RMK SLP172=
CYOW;2006-01-28 20:00;METAR CYOW 282000Z 28003KT 15SM FEW250 06/M01 A3002 RMK CI1 SLP172=
CYOW;2006-01-28 22:00;METAR CYOW 282200Z 27003KT 15SM FEW250 06/M01 A3003 RMK CI1 SLP175=
CYOW;2006-01-28 23:00;METAR CYOW 282300Z 31003KT 15SM FEW250 05/M01 A3005 RMK CI1 SLP182=
CYOW;2006-01-29 00:00;METAR CYOW 290000Z 27004KT 15SM FEW250 04/M01 A3007 RMK CI0 SLP188=
CYOW;2006-01-29 01:00;METAR CYOW 290100Z 34006KT 15SM FEW250 01/M02 A3008 RMK CI0 SLP190=
CYOW;2006-01-29 02:00;METAR CYOW 290200Z 03003KT 15SM FEW250 01/M02 A3009 RMK CI0 SLP196=
CYOW;2006-01-29 04:00;METAR CYOW 290400Z 29003KT 15SM FEW250 00/M03 A3010 RMK CI0 SLP198=
CYOW;2006-01-29 06:00;METAR CYOW 290600Z 00000KT 15SM SCT240 M02/M03 A3011 RMK CS1 FROIN SLP200=
CYOW;2006-01-29 10:00;METAR CYOW 291000Z 06003KT 15SM OVC074 M01/M04 A3007 RMK AS8 SLP187=
CYOW;2006-01-29 11:00;METAR CYOW 291100Z 05008KT 15SM OVC086 M01/M05 A3004 RMK AS8 SLP178=
CYOW;2006-01-29 12:00;METAR CYOW 291200Z 04008KT 12SM FEW062 OVC085 M01/M05 A3003 RMK SC2AS6 SLP175=
CYOW;2006-01-29 13:00;METAR CYOW 291300Z 06009KT 15SM OVC068 M02/M05 A3002 RMK AS8 SLP172=
CYOW;2006-01-29 15:00;METAR CYOW 291500Z 07012G18KT 10SM OVC038 M02/M05 A2996 RMK NS8 SLP153=
CYOW;2006-01-29 16:00;METAR CYOW 291600Z 07015G20KT 12SM SCT040 OVC100 M03/M07 A2994 RMK SC3AS5 SLP144=
CYOW;2006-01-29 16:40;SPECI CYOW 291640Z 07015KT 8SM -SN OVC040 M03/ RMK NS8=
CYOW;2006-01-29 17:00;METAR CYOW 291700Z 07014G20KT 8SM -SN SCT040 OVC070 M04/M08 A2990 RMK SC3AS5 SLP131=
CYOW;2006-01-29 17:17;SPECI CYOW 291717Z 09014KT 12SM SCT040 OVC070 M03/ RMK SC4AS4=
CYOW;2006-01-29 18:00;METAR CYOW 291800Z 07017KT 12SM OVC070 M04/M09 A2985 RMK AS8 SLP113=
CYOW;2006-01-29 20:00;METAR CYOW 292000Z 07025G33KT 12SM DRSN OVC070 M05/M09 A2969 RMK AS8 PRESFR SLP062=
CYOW;2006-01-29 20:46;SPECI CYOW 292046Z 07019G28KT 8SM -SN OVC070 M05/ RMK AS8=
CYOW;2006-01-29 21:00;METAR CYOW 292100Z 07017G24KT 10SM DRSN OVC057 M05/M09 A2968 RMK NS8 SLP057=
CYOW;2006-01-29 21:35;SPECI CYOW 292135Z 07017G24KT 5SM -SN DRSN -FZRA OVC050 M05/ RMK NS8=
CYOW;2006-01-29 21:40;SPECI CYOW 292140Z 07018KT 1SM -SN DRSN -FZRA VV013 M06/ RMK SN8=
CYOW;2006-01-29 21:44;SPECI CYOW 292144Z 08018KT 3/4SM -SN DRSN -FZRA VV010 M06/ RMK SN8=
CYOW;2006-01-29 22:00;METAR CYOW 292200Z 07017KT 3/4SM -SN DRSN VV010 M06/M07 A2966 REFZRA RMK SN8 SLP049=
CYOW;2006-01-29 22:29;SPECI CYOW 292229Z 07015G20KT 1 1/2SM -SN DRSN BKN016 OVC033 M06/ RMK SN2SC4SC2=
CYOW;2006-01-29 22:47;SPECI CYOW 292247Z 08015KT 1SM -SN DRSN VV008 M06/ RMK SN8=
CYOW;2006-01-29 23:00;METAR CYOW 292300Z 07014G19KT 1 1/4SM -SN DRSN OVC021 M06/M07 A2965 RMK SN4NS4 /S02/ SLP047=
CYOW;2006-01-30 00:00;METAR CYOW 300000Z 07018KT 1 1/4SM -SN DRSN OVC020 M06/M07 A2963 RMK SN4NS4 /S03/ SLP041=
CYOW;2006-01-30 00:14;SPECI CYOW 300014Z 07017G22KT 2SM -SN DRSN OVC021 M06/ RMK NS8=
CYOW;2006-01-30 01:00;METAR CYOW 300100Z 08013G18KT 1 3/4SM -SN DRSN OVC020 M06/M07 A2963 RMK SN2NS6 /S01/ SLP039=
CYOW;2006-01-30 03:00;METAR CYOW 300300Z 08011KT 1 1/2SM -SN DRSN OVC020 M05/M06 A2961 RMK SN3NS5 SLP032=
CYOW;2006-01-30 03:50;SPECI CYOW 300350Z 08009KT 4SM -SN FEW010 OVC017 M05/ RMK SF1NS7=
CYOW;2006-01-30 04:00;METAR CYOW 300400Z 07011KT 5SM -SN FEW010 OVC017 M05/M06 A2960 RMK SF1NS7 /S03/ SLP031=
CYOW;2006-01-30 05:00;METAR CYOW 300500Z 07009KT 2SM -SN FEW010 OVC016 M04/M05 A2961 RMK SN2SF1NS6 SLP032=
CYOW;2006-01-30 05:14;SPECI CYOW 300514Z 08006KT 4SM -SN FEW008 OVC011 M04/ RMK SF2NS6=
CYOW;2006-01-30 05:36;SPECI CYOW 300536Z 08008KT 4SM -SNSG FEW008 OVC012 M04/ RMK SF2NS6=
CYOW;2006-01-30 06:20;SPECI CYOW 300620Z 08006KT 8SM -SN FEW008 OVC012 M04/ RMK SF1NS7 SN=
CYOW;2006-01-30 07:00;METAR CYOW 300700Z 07008KT 3SM -SNPL FEW009 OVC011 M04/M05 A2962 RMK SF2NS6 SLP036=
CYOW;2006-01-30 07:21;SPECI CYOW 300721Z 08007KT 8SM -PL -FZRA FEW009 OVC011 M04/ RMK SF2NS6=
CYOW;2006-01-30 08:00;METAR CYOW 300800Z 08010KT 8SM -PL -FZRA BKN008 OVC010 M04/M05 A2962 RMK SF5NS3 SLP036=
CYOW;2006-01-30 08:22;SPECI CYOW 300822Z 09013KT 8SM -FZRA SCT008 OVC010 M04/ RMK SF3NS5=
CYOW;2006-01-30 08:47;SPECI CYOW 300847Z 09012KT 6SM -PL -FZRA OVC008 M04/ RMK SF8 CIG VRB 6-10=
CYOW;2006-01-30 10:00;METAR CYOW 301000Z 09013G18KT 8SM -FZRA OVC008 M04/M05 A2965 RMK SF8 CIG VRB 6-10 SLP048=
CYOW;2006-01-30 11:00;METAR CYOW 301100Z 09011KT 8SM -FZRA OVC008 M05/M06 A2967 RMK SF8 CIG VRB 6-10 SLP055=
CYOW;2006-01-30 12:00;METAR CYOW 301200Z 09010G15KT 6SM -FZRA BR OVC008 M05/M06 A2971 RMK SF8 SLP066=
CYOW;2006-01-30 12:29;SPECI CYOW 301229Z 08010KT 3SM -FZRA BR OVC006 M05/ RMK SF8=
CYOW;2006-01-30 13:00;METAR CYOW 301300Z 08009KT 3SM -FZRA BR OVC005 M05/M06 A2972 RMK SF8 SLP070=
CYOW;2006-01-30 14:00;METAR CYOW 301400Z 09010KT 4SM BR OVC007 M05/M06 A2973 RMK ST8 SLP074=
CYOW;2006-01-30 15:00;METAR CYOW 301500Z 09008KT 5SM BR OVC006 M05/M06 A2974 RMK ST8 SLP078=
CYOW;2006-01-30 16:00;METAR CYOW 301600Z 09011KT 3SM -FZDZ BR OVC005 M05/M06 A2974 RMK ST8 SLP078=
CYOW;2006-01-30 16:39;SPECI CYOW 301639Z 08011KT 2 1/2SM -FZDZ BR OVC004 M05/ RMK ST8=
CYOW;2006-01-30 16:51;SPECI CYOW 301651Z 09011KT 2SM -FZRA BR OVC004 M05/ RMK ST8=
CYOW;2006-01-30 17:00;METAR CYOW 301700Z 09011KT 2SM -FZDZ BR OVC004 M05/M06 A2973 RMK ST8 SLP076=
CYOW;2006-01-30 17:37;SPECI CYOW 301737Z 09009KT 2SM BR OVC004 M05/ REFZDZ RMK ST8=
CYOW;2006-01-30 18:00;METAR CYOW 301800Z 09007KT 1 1/2SM BR OVC003 M05/M06 A2975 REFZRAFZDZ RMK ST8 SLP080=
CYOW;2006-01-30 18:37;SPECI CYOW 301837Z 08008KT 3/4SM BR OVC003 M05/ RMK ST8=
CYOW;2006-01-30 19:00;METAR CYOW 301900Z 08009KT 3/4SM BR OVC003 M05/M06 A2976 RMK ST8 SLP084=
CYOW;2006-01-30 19:10;SPECI CYOW 301910Z 09005KT 3/4SM -FZDZ BR OVC003 M05/ RMK ST8=
CYOW;2006-01-30 19:40;SPECI CYOW 301940Z 08007KT 1/2SM FZFG OVC002 M05/ RMK ST8=
CYOW;2006-01-30 20:00;METAR CYOW 302000Z 09009KT 1/2SM FZFG OVC002 M05/M06 A2976 REFZDZ RMK ST8 SLP084=
CYOW;2006-01-30 20:49;SPECI CYOW 302049Z 08009KT 1 1/2SM BR OVC003 M05/ RMK ST8=
CYOW;2006-01-30 22:00;METAR CYOW 302200Z 09009KT 1 1/2SM BR OVC003 M05/M06 A2976 RMK ST8 SLP086=
CYOW;2006-01-30 22:32;SPECI CYOW 302232Z 08009KT 3SM BR OVC004 M05/ RMK ST8=
CYOW;2006-01-30 23:00;METAR CYOW 302300Z 09010KT 3SM BR OVC004 M05/M06 A2977 RMK ST8 SLP089=
CYOW;2006-01-30 23:46;SPECI CYOW 302346Z 08008KT 4SM BR OVC005 M05/ RMK ST8=
CYOW;2006-01-31 00:00;METAR CYOW 310000Z 09011KT 5SM BR OVC005 M06/M06 A2977 RMK ST8 SLP087=
CYOW;2006-01-31 01:00;METAR CYOW 310100Z 07009KT 6SM BR OVC005 M05/M06 A2977 RMK ST8 SLP087=
CYOW;2006-01-31 01:47;SPECI CYOW 310147Z 06003KT 5SM -SN BR OVC004 M05/ RMK ST8 SN FINE AND VRY LGT=
CYOW;2006-01-31 01:52;SPECI CYOW 310152Z 05006KT 5SM -FZRA BR OVC005 M05/ RMK ST8=
CYOW;2006-01-31 02:00;METAR CYOW 310200Z 07009KT 5SM -FZDZ BR OVC005 M05/M06 A2976 RMK ST8 SLP084=
CYOW;2006-01-31 02:26;SPECI CYOW 310226Z 08009KT 5SM BR OVC005 M05/ REFZDZ RMK ST8=
CYOW;2006-01-31 04:00;METAR CYOW 310400Z 07007KT 3SM BR OVC003 M06/M06 A2975 RMK ST8 SLP081=
CYOW;2006-01-31 04:48;SPECI CYOW 310448Z 06006KT 2 1/2SM -FZRA BR OVC003 M05/ RMK ST8=
CYOW;2006-01-31 05:27;SPECI CYOW 310527Z 07007KT 3SM BR OVC003 M05/ REFZRA RMK ST8=
CYOW;2006-01-31 06:00;METAR CYOW 310600Z 07005KT 3SM BR OVC003 M05/M05 A2973 REFZRA RMK ST8 SLP073=
CYOW;2006-01-31 06:34;SPECI CYOW 310634Z 07007KT 2SM BR OVC002 M04/ RMK ST8=
CYOW;2006-01-31 07:00;METAR CYOW 310700Z 05004KT 1SM BR OVC002 M04/M05 A2972 RMK FG4ST4 VIS NW 2 SLP070=
CYOW;2006-01-31 07:40;SPECI CYOW 310740Z 06006KT 3/4SM BR VV001 M04/ RMK FG8=
CYOW;2006-01-31 07:52;SPECI CYOW 310752Z 07006KT 1/2SM FZFG VV001 M04/ RMK FG8=
CYOW;2006-01-31 08:00;METAR CYOW 310800Z 07005KT 1/2SM FZFG VV001 M04/M04 A2971 RMK FG8 SLP067=
CYOW;2006-01-31 09:00;METAR CYOW 310900Z 09004KT 1/2SM FZFG VV001 M03/M04 A2970 RMK FG8 SLP065=
CYOW;2006-01-31 09:32;SPECI CYOW 310932Z 08006KT 5/8SM BR OVC002 M03/ RMK FG6ST2=
CYOW;2006-01-31 10:00;METAR CYOW 311000Z 07005KT 5/8SM BR OVC002 M03/M03 A2970 RMK FG6ST2 SLP064=
CYOW;2006-01-31 10:27;SPECI CYOW 311027Z 06003KT 1/2SM FZFG VV001 M03/ RMK FG8=
CYOW;2006-01-31 11:00;METAR CYOW 311100Z 04003KT 1/2SM FZFG VV001 M03/M03 A2971 RMK FG8 VIS VRB 3/8-5/8 SLP067=
CYOW;2006-01-31 11:17;SPECI CYOW 311117Z 07005KT 3/8SM FZFG VV001 M03/ RMK FG8=
CYOW;2006-01-31 13:00;METAR CYOW 311300Z 08004KT 1/2SM -FZRA FZFG VV002 M03/M03 A2972 RMK FG8 SLP071=
CYOW;2006-01-31 13:40;SPECI CYOW 311340Z 11003KT 3/4SM -FZRA BR VV003 M02/ RMK FG8=
CYOW;2006-01-31 14:00;METAR CYOW 311400Z 09004KT 1SM -FZRA BR OVC004 M02/M02 A2972 RMK FG5SF3 SLP072=
CYOW;2006-01-31 14:26;SPECI CYOW 311426Z 09002KT 1 1/2SM -SN BR OVC004 M02/ REFZRA RMK FG4SF4=
CYOW;2006-01-31 14:49;SPECI CYOW 311449Z 00000KT 3/4SM -SN BR OVC004 M02/ REFZRA RMK SN6SF2=
CYOW;2006-01-31 15:00;METAR CYOW 311500Z 08002KT 3/4SM -SN OVC006 M02/M02 A2973 REFZRA RMK SN6SF2 SLP075=
CYOW;2006-01-31 15:17;SPECI CYOW 311517Z 09002KT 3/4SM -SN SCT010 OVC026 M02/ RMK SN3SF1SC4=
CYOW;2006-01-31 16:00;METAR CYOW 311600Z 00000KT 3/4SM -SN VV015 M02/M02 A2974 RMK SN8 /SO1/ SLP077=
CYOW;2006-01-31 16:23;SPECI CYOW 311623Z 00000KT 1SM -SN SCT008 OVC026 M01/ RMK SN2SF2SC4=
CYOW;2006-01-31 16:34;SPECI CYOW 311634Z 00000KT 3/4SM -SN OVC007 M01/ RMK SN3SF5=
CYOW;2006-01-31 17:12;SPECI CYOW 311712Z 00000KT 1/2SM SN VV007 M01/ RMK SN8=
CYOW;2006-01-31 17:35;SPECI CYOW 311735Z 28002KT 1SM -SN BKN008 OVC020 M01/ RESN RMK SF5SC3=
CYOW;2006-01-31 17:50;SPECI CYOW 311750Z 00000KT 3SM -SN FEW005 OVC035 M01/ RMK SF2SC6=
CYOW;2006-01-31 18:00;METAR CYOW 311800Z 00000KT 4SM BR FEW006 BKN018 OVC033 M01/M01 A2971 RMK SF2SC5SC2 /SO3/ SLP069=
CYOW;2006-01-31 18:20;SPECI CYOW 311820Z 26002KT 2SM -SN BR SCT006 OVC018 M01/ RMK SF3SC5 SN FINE=
CYOW;2006-01-31 19:00;METAR CYOW 311900Z 26002KT 2SM -SN BR FEW006 OVC017 M01/M01 A2971 RMK SF2SC6 SN FINE SLP069=
CYOW;2006-01-31 20:00;METAR CYOW 312000Z 28002KT 2SM -SN BR OVC005 M00/M01 A2973 RMK SF8 SN=
CYOW;2006-01-31 20:43;SPECI CYOW 312043Z 23003KT 2SM BR OVC004 M00/ RMK ST8=
CYOW;2006-01-31 22:00;METAR CYOW 312200Z 28004KT 2 1/2SM BR OVC005 M01/M01 A2977 RMK ST8 SLP086=
CYOW;2006-01-31 22:44;SPECI CYOW 312244Z 27004KT 4SM BR SCT005 OVC038 M01/ RMK SF3SC5=
CYOW;2006-01-31 23:00;METAR CYOW 312300Z 27003KT 4SM BR FEW005 OVC038 M01/M01 A2979 RMK SF2SC6 SLP092=
CYOW;2006-02-01 01:00;METAR CYOW 010100Z 29005KT 5SM BR FEW004 OVC033 M01/M01 A2980 RMK SF2SC6 SLP099=
CYOW;2006-02-01 02:00;METAR CYOW 010200Z 27002KT 5SM BR FEW004 OVC034 M01/M01 A2982 RMK SF0SC8 SLP104=
CYOW;2006-02-01 03:00;METAR CYOW 010300Z 25004KT 5SM BR OVC044 M01/M02 A2983 RMK SC8 SLP107=
CYOW;2006-02-01 04:00;METAR CYOW 010400Z 25004KT 8SM FEW026 OVC049 M01/M02 A2983 RMK CF2SC6 SLP109=
CYOW;2006-02-01 05:00;METAR CYOW 010500Z 29006KT 15SM FEW030 OVC046 M02/M04 A2983 RMK SC2SC6 SLP109=
CYOW;2006-02-01 06:00;METAR CYOW 010600Z 27007KT 15SM SCT030 OVC047 M02/M05 A2985 RMK SC3SC5 SLP113=
CYOW;2006-02-01 09:00;METAR CYOW 010900Z 28008KT 15SM FEW010 OVC028 M04/M05 A2989 RMK SC1SC7 SLP128=
CYOW;2006-02-01 09:15;SPECI CYOW 010915Z 29008KT 12SM -SN FEW010 OVC029 M04/ RMK SC1SC7 SN VRY LGT=
CYOW;2006-02-01 10:00;METAR CYOW 011000Z 30010KT 10SM -SN FEW010 OVC030 M04/M06 A2989 RMK SC1SC7 SN VRY LGT SLP128=
CYOW;2006-02-01 11:00;METAR CYOW 011100Z 27004KT 10SM -SN FEW010 OVC028 M05/M06 A2990 RMK SC1SC7 SN VRY LGT SLP131=
CYOW;2006-02-01 12:00;METAR CYOW 011200Z 29009KT 12SM -SN FEW010 OVC029 M05/M07 A2992 RMK SC1SC7 SN VRY LGT SLP138=
CYOW;2006-02-01 14:00;METAR CYOW 011400Z 25006KT 15SM SCT033 BKN070 BKN250 M07/M09 A2993 RMK SC3AC1CI1 CI TR SLP142=
CYOW;2006-02-01 15:00;METAR CYOW 011500Z 26007KT 15SM FEW035 FEW250 M07/M09 A2994 RMK SC1CI0 SLP145=
CYOW;2006-02-01 16:00;METAR CYOW 011600Z 25008KT 15SM FEW010 FEW040 FEW250 M06/M09 A2994 RMK SC1SC1CI1 CLDS TR SLP147=
CYOW;2006-02-01 17:00;METAR CYOW 011700Z 26007KT 15SM FEW015 FEW040 FEW250 M05/M09 A2994 RMK SC1SC1CI0 LO CLDS TR SLP145=
CYOW;2006-02-01 18:00;METAR CYOW 011800Z 26007KT 15SM FEW020 FEW270 M05/M10 A2992 RMK SC1CI0 SC TR SLP140=
CYOW;2006-02-01 19:00;METAR CYOW 011900Z 24003KT 15SM FEW020 BKN270 M04/M09 A2991 RMK SC1CS1 SLP135=
CYOW;2006-02-01 20:00;METAR CYOW 012000Z 26002KT 15SM BKN021 BKN270 M04/M08 A2992 RMK SC5CS0 SLP138=
CYOW;2006-02-01 21:00;METAR CYOW 012100Z 12003KT 15SM FEW020 FEW100 BKN260 M05/M08 A2990 RMK SC1AC1CS4 SC AC TR HALO SLP132=
CYOW;2006-02-01 22:00;METAR CYOW 012200Z 00000KT 15SM BKN030 BKN110 BKN250 M05/M08 A2989 RMK SC4AS1CS1 SLP130=
CYOW;2006-02-01 23:00;METAR CYOW 012300Z 00000KT 15SM FEW030 BKN170 OVC250 M05/M07 A2988 RMK SC1AS6CS1 MOON DIMLY VISBL SLP126=
CYOW;2006-02-02 00:00;METAR CYOW 020000Z 00000KT 15SM OVC078 M04/M07 A2989 RMK AC8 SLP128=
CYOW;2006-02-02 01:00;METAR CYOW 020100Z 12006KT 12SM OVC063 M04/M06 A2989 RMK SC8 SLP128=
CYOW;2006-02-02 01:33;SPECI CYOW 020133Z 11006KT 10SM -SN OVC052 M04/ RMK SC8 SN VRY LGT=
CYOW;2006-02-02 03:00;METAR CYOW 020300Z 11005KT 7SM -SN OVC044 M04/M06 A2988 RMK SC8 SLP126=
CYOW;2006-02-02 04:00;METAR CYOW 020400Z 09005KT 7SM -SN OVC034 M04/M05 A2988 RMK SC8 SN VRY LGT SLP124=
CYOW;2006-02-02 05:00;METAR CYOW 020500Z 09007KT 4SM -SN OVC038 M04/M05 A2986 RMK SC8 SLP119=
CYOW;2006-02-02 05:03;SPECI CYOW 020503Z 10007KT 2SM -SN OVC037 M04/ RMK SC8=
CYOW;2006-02-02 05:10;SPECI CYOW 020510Z 10005KT 3SM -SN OVC039 M04/ RMK SC8=
CYOW;2006-02-02 06:00;METAR CYOW 020600Z 09007KT 10SM OVC049 M04/M05 A2986 RMK SC8 SLP118=
CYOW;2006-02-02 06:09;SPECI CYOW 020609Z 08006KT 5SM -SN OVC052 M04/ RMK SC8=
CYOW;2006-02-02 07:00;METAR CYOW 020700Z 08006KT 6SM -SN OVC053 M04/M04 A2985 RMK SC8 SLP116=
CYOW;2006-02-02 07:36;SPECI CYOW 020736Z 07007KT 8SM FEW030 BKN065 M04/ RMK SC1SC6=
CYOW;2006-02-02 08:00;METAR CYOW 020800Z 08006KT 8SM SCT071 BKN130 M04/M04 A2984 RMK AC3AC4 SLP112=
CYOW;2006-02-02 10:00;METAR CYOW 021000Z 08006KT 5SM BR OVC092 M04/M04 A2985 RMK AC8 SLP114=
CYOW;2006-02-02 11:00;METAR CYOW 021100Z 09006KT 4SM BR BKN068 M04/M04 A2984 RMK AC7 SLP112=
CYOW;2006-02-02 11:10;SPECI CYOW 021110Z 09006KT 4SM BR FEW003 BKN071 M04/ RMK CF1AC6=
CYOW;2006-02-02 12:00;METAR CYOW 021200Z 09007KT 4SM BR FEW003 BKN074 M03/M04 A2984 RMK CF1AC7 CUFRA TR SLP110=
CYOW;2006-02-02 13:00;METAR CYOW 021300Z 09007KT 4SM BR FEW004 OVC073 M03/M04 A2985 RMK CF1AC7 CUFRA TR SLP114=
CYOW;2006-02-02 14:00;METAR CYOW 021400Z 06007KT 4SM BR SCT073 BKN270 M03/M04 A2987 RMK AC4CI1 SLP120=
CYOW;2006-02-02 15:00;METAR CYOW 021500Z 06005KT 5SM BR FEW050 BKN076 BKN270 M03/M04 A2988 RMK SC2AC3CS1 SLP124=
CYOW;2006-02-02 16:00;METAR CYOW 021600Z 09005KT 8SM BKN052 BKN075 BKN250 M01/M03 A2989 RMK SC5AC2CS1 SLP129=
CYOW;2006-02-02 17:00;METAR CYOW 021700Z 09005KT 8SM BKN043 BKN250 M00/M02 A2987 RMK SC7CI1 CI TR SLP120=
CYOW;2006-02-02 18:00;METAR CYOW 021800Z 10005KT 10SM BKN063 BKN250 01/M02 A2987 RMK SC7CI1 SLP120=
CYOW;2006-02-02 20:00;METAR CYOW 022000Z 10005KT 10SM BKN180 BKN250 02/M01 A2984 RMK AC5CC1 SLP112=
CYOW;2006-02-02 21:00;METAR CYOW 022100Z 07005KT 10SM FEW041 BKN100 BKN250 02/M01 A2985 RMK SC2AS2CI1 SLP114=
CYOW;2006-02-02 22:00;METAR CYOW 022200Z 05005KT 10SM OVC039 02/M01 A2985 RMK SC8 SLP116=
CYOW;2006-02-02 23:00;METAR CYOW 022300Z 06008KT 10SM SCT039 OVC052 01/M01 A2986 RMK SC3SC5 SLP117=
CYOW;2006-02-03 00:00;METAR CYOW 030000Z 07009KT 8SM SCT039 OVC048 01/M01 A2988 RMK SC3SC5 SLP123=
CYOW;2006-02-03 02:00;METAR CYOW 030200Z 06007KT 6SM HZ OVC058 00/M02 A2987 RMK SC8 SLP121=
CYOW;2006-02-03 03:00;METAR CYOW 030300Z 06009KT 7SM OVC120 M00/M02 A2984 RMK AC8 SLP112=
CYOW;2006-02-03 04:00;METAR CYOW 030400Z 07009KT 7SM FEW030 OVC130 M00/M02 A2983 RMK SC2AC6 SLP109=
CYOW;2006-02-03 05:00;METAR CYOW 030500Z 06007KT 7SM FEW065 OVC100 M00/M02 A2981 RMK SC2AC6 SLP102=
CYOW;2006-02-03 06:00;METAR CYOW 030600Z 07008KT 7SM OVC048 M01/M02 A2980 RMK SC8 SLP097=
CYOW;2006-02-03 06:18;SPECI CYOW 030618Z 07006KT 7SM -FZRA OVC033 M01/ RMK NS8=
CYOW;2006-02-03 07:00;METAR CYOW 030700Z 09010KT 5SM -FZRA BR OVC026 M01/M02 A2979 RMK NS8 SLP093=
CYOW;2006-02-03 10:00;METAR CYOW 031000Z 07010KT 5SM BR OVC045 00/M00 A2970 REFZRA RMK SC8 SLP061=
CYOW;2006-02-03 11:00;METAR CYOW 031100Z 07012KT 4SM BR FEW005 OVC054 00/M00 A2967 RMK SF2SC6 SLP052=
CYOW;2006-02-03 12:00;METAR CYOW 031200Z 07011KT 3SM BR BKN005 OVC060 01/00 A2962 RMK SF5NS3 SLP037=
CYOW;2006-02-03 12:22;SPECI CYOW 031222Z 07013KT 1SM -RA BR BKN003 OVC033 01/ RMK SF6NS2=
CYOW;2006-02-03 13:00;METAR CYOW 031300Z 06013KT 3/4SM -RA BR BKN008 OVC024 01/00 A2959 RMK SF6NS2 SLP027=
CYOW;2006-02-03 14:00;METAR CYOW 031400Z 07013KT 3/4SM -RA BR BKN003 OVC024 01/01 A2955 RMK SF6NS2 SLP012=
CYOW;2006-02-03 15:00;METAR CYOW 031500Z 06011G17KT 1 1/2SM -RA BR OVC004 01/01 A2951 RERA RMK SF8 SLP996=
CYOW;2006-02-03 16:00;METAR CYOW 031600Z 06013KT 1 1/2SM -RA BR OVC004 01/01 A2948 RERA RMK SF8 SLP986=
CYOW;2006-02-03 17:00;METAR CYOW 031700Z 06012KT 2SM -RA BR OVC004 02/01 A2943 RMK SF8 SLP971=
CYOW;2006-02-03 18:00;METAR CYOW 031800Z 09010KT 2SM -RA BR OVC004 02/02 A2941 RMK SF8 /R10/ SLP965=
CYOW;2006-02-03 19:00;METAR CYOW 031900Z 10005KT 3SM -RA BR OVC003 02/02 A2942 RMK SF8 SLP967=
CYOW;2006-02-03 19:44;SPECI CYOW 031944Z 18003KT 1 1/2SM -RA BR OVC003 03/ RMK SF8=
CYOW;2006-02-03 20:00;METAR CYOW 032000Z 19003KT 1SM -RA BR OVC003 03/02 A2943 RMK SF8 SLP970=
CYOW;2006-02-03 20:36;SPECI CYOW 032036Z 18004KT 3/4SM -RA BR OVC002 03/ RMK SF8=
CYOW;2006-02-03 21:00;METAR CYOW 032100Z 20004KT 1SM -RA BR OVC002 03/02 A2945 RMK SF8 SLP976=
CYOW;2006-02-03 21:36;SPECI CYOW 032136Z 21005KT 2SM -RA BR OVC004 03/ RMK SF8=
CYOW;2006-02-03 22:00;METAR CYOW 032200Z 22008KT 2SM -RA BR BKN004 OVC010 03/03 A2948 RMK SF6NS2 SLP986=
CYOW;2006-02-03 22:30;SPECI CYOW 032230Z 22010KT 4SM -RA BR FEW004 OVC015 04/ RMK SF2NS6=
CYOW;2006-02-03 23:00;METAR CYOW 032300Z 23011KT 5SM -RA BR FEW005 OVC017 04/03 A2952 RMK SF2NS6 SLP001=
CYOW;2006-02-04 00:00;METAR CYOW 040000Z 23012G17KT 7SM FEW008 OVC040 04/02 A2958 RMK SF2SC6 SLP021=
CYOW;2006-02-04 03:00;METAR CYOW 040300Z 23012KT 12SM -RA OVC023 03/01 A2972 RMK SC8 SLP069=
CYOW;2006-02-04 03:36;SPECI CYOW 040336Z 24010KT 12SM OVC028 02/ RMK SC8=
CYOW;2006-02-04 04:00;METAR CYOW 040400Z 23009KT 12SM OVC028 03/01 A2976 RMK SC8 SLP083=
CYOW;2006-02-04 05:00;METAR CYOW 040500Z 23010KT 12SM FEW020 OVC028 03/01 A2979 RMK SC2SC6 SLP094=
CYOW;2006-02-04 07:00;METAR CYOW 040700Z 25005KT 15SM OVC022 02/01 A2984 RMK SC8 SLP108=
CYOW;2006-02-04 10:00;METAR CYOW 041000Z 29004KT 15SM OVC017 02/M00 A2988 RMK SC8 SLP125=
CYOW;2006-02-04 11:00;METAR CYOW 041100Z 25003KT 15SM OVC017 02/M01 A2990 RMK SC8 SLP130=
CYOW;2006-02-04 12:00;METAR CYOW 041200Z 00000KT 12SM OVC017 02/M01 A2993 RMK SC8 SLP141=
CYOW;2006-02-04 13:00;METAR CYOW 041300Z 00000KT 12SM OVC017 01/M00 A2994 RMK SC8 SLP145=
CYOW;2006-02-04 14:00;METAR CYOW 041400Z 11002KT 12SM OVC018 02/M00 A2994 RMK SC8 SLP145=
CYOW;2006-02-04 15:00;METAR CYOW 041500Z 14003KT 12SM OVC020 02/M01 A2994 RMK SC8 SLP145=
CYOW;2006-02-04 16:00;METAR CYOW 041600Z 04006KT 12SM OVC020 02/01 A2993 RMK SC8 SLP140=
CYOW;2006-02-04 17:00;METAR CYOW 041700Z 07007KT 12SM OVC023 03/01 A2989 RMK SC8 SLP126=
CYOW;2006-02-04 18:00;METAR CYOW 041800Z 06007KT 12SM OVC021 03/M01 A2984 RMK SC8 SLP110=
CYOW;2006-02-04 19:00;METAR CYOW 041900Z 06012KT 12SM OVC022 03/M01 A2981 RMK SC8 SLP099=
CYOW;2006-02-04 20:00;METAR CYOW 042000Z 06010KT 12SM BKN020 BKN170 03/M01 A2980 RMK SC5AS1 SLP095=
CYOW;2006-02-04 22:00;METAR CYOW 042200Z 07016KT 12SM OVC110 02/M01 A2975 RMK AS8 SLP078=
CYOW;2006-02-04 23:00;METAR CYOW 042300Z 06019G27KT 15SM FEW010 BKN130 02/M01 A2964 RMK CF1AC6 PRESFR SLP043=
CYOW;2006-02-05 00:00;METAR CYOW 050000Z 06019G27KT 15SM FEW010 BKN130 02/M01 A2964 RMK CF1AC6 SLP043=
CYOW;2006-02-05 00:34;SPECI CYOW 050034Z 07020G26KT 10SM -SN OVC057 02/ RMK SC8 SN WET=
CYOW;2006-02-05 01:00;METAR CYOW 050100Z 07021G28KT 7SM -RA OVC057 02/M01 A2958 RMK SC8 SLP023=
CYOW;2006-02-05 01:41;SPECI CYOW 050141Z 07020G26KT 7SM -RAPL OVC050 01/ RMK SC8=
CYOW;2006-02-05 03:00;METAR CYOW 050300Z 07021G26KT 7SM -RA SCT010 OVC040 01/00 A2945 RMK SF4SC4 PRESFR SLP978=
CYOW;2006-02-05 03:16;SPECI CYOW 050316Z 07021G27KT 7SM -RA OVC010 01/ RMK NS8 CIG RAG=
CYOW;2006-02-05 04:00;METAR CYOW 050400Z 07023G29KT 7SM -RA OVC010 01/00 A2938 RMK NS8 CIG VRB 8-12 PRESFR SLP955=
CYOW;2006-02-05 05:00;METAR CYOW 050500Z 08020G31KT 7SM -RA OVC010 01/01 A2932 RMK SF8 RA VRY LGT CIG VRB 7-12 SLP934=
CYOW;2006-02-05 06:00;METAR CYOW 050600Z 08025KT 7SM OVC010 02/01 A2926 RMK SC8 PRESFR SLP914=
CYOW;2006-02-05 06:33;SPECI CYOW 050633Z 08024G30KT 12SM OVC008 02/ RMK SC8=
CYOW;2006-02-05 07:00;METAR CYOW 050700Z 08026G32KT 12SM OVC010 02/01 A2921 RMK SC8 PRESFR SLP897=
CYOW;2006-02-05 07:41;SPECI CYOW 050741Z 09020G29KT 5SM -RA BR OVC022 02/ RMK SC8=
CYOW;2006-02-05 08:28;SPECI CYOW 050828Z 08022KT 7SM -RA FEW005 BKN014 02/ RMK CF2SC2=
CYOW;2006-02-05 08:44;SPECI CYOW 050844Z 09018G27KT 7SM FEW005 BKN022 OVC070 02/ RMK SF2SC5AC2=
CYOW;2006-02-05 09:00;METAR CYOW 050900Z 09016G21KT 7SM -RA BKN007 OVC025 02/02 A2919 RMK SF6SC2 PRESFR SLP890=
CYOW;2006-02-05 10:00;METAR CYOW 051000Z 10014G22KT 7SM -RA OVC006 02/02 A2918 RMK SF8 CIG RAG SLP884=
CYOW;2006-02-05 11:00;METAR CYOW 051100Z 09019G24KT 5SM -RA BR OVC006 02/02 A2916 RMK SF8 CIG RAG SLP880=
CYOW;2006-02-05 12:00;METAR CYOW 051200Z 15010G17KT 10SM SCT006 OVC020 03/02 A2919 RMK SF3SC5 SLP888=
CYOW;2006-02-05 13:00;METAR CYOW 051300Z 18005KT 12SM FEW010 BKN044 03/02 A2917 RMK CF2SC5 SLP884=
CYOW;2006-02-05 15:00;METAR CYOW 051500Z 16008KT 15SM BKN050 03/00 A2917 RMK SC7 SLP881=
CYOW;2006-02-05 16:00;METAR CYOW 051600Z 17008KT 15SM FEW040 BKN058 04/M01 A2915 RMK SC1SC6 SLP875=
CYOW;2006-02-05 17:00;METAR CYOW 051700Z 20016G25KT 20SM VCSH SCT030 BKN060 05/M02 A2913 RMK CU3SC2 SHSN N SLP870=
CYOW;2006-02-05 18:00;METAR CYOW 051800Z 21021G28KT 20SM BKN040 04/M04 A2913 RMK SC6 SLP867=
CYOW;2006-02-05 19:00;METAR CYOW 051900Z 20021G27KT 20SM SCT037 BKN057 04/M04 A2912 RMK SC3SC3 SLP866=
CYOW;2006-02-05 19:48;SPECI CYOW 051948Z 20016G21KT 5SM -SHSN BKN036TCU 03/ RMK TCU6=
CYOW;2006-02-05 19:56;SPECI CYOW 051956Z 20012G20KT 20SM VCSH BKN037 BKN060 03/ RMK CU5SC1=
CYOW;2006-02-05 20:00;METAR CYOW 052000Z 20015G20KT 20SM VCSH BKN037 03/M03 A2913 RMK CU5 SLP868=
CYOW;2006-02-05 21:00;METAR CYOW 052100Z 20015G26KT 15SM VCSH SCT037 BKN063 BKN110 02/M04 A2912 RMK CU3SC2AC1 SLP865=
CYOW;2006-02-05 22:00;METAR CYOW 052200Z 20017G24KT 15SM FEW040 SCT060 BKN120 01/M04 A2913 RMK CU2SC2AC2 SLP867=
CYOW;2006-02-05 23:00;METAR CYOW 052300Z 21016G24KT 15SM FEW030 OVC110 01/M05 A2913 RMK CU2AC6 SLP867=
CYOW;2006-02-06 00:00;METAR CYOW 060000Z 22013G20KT 15SM BKN024 OVC100 M00/M05 A2915 RMK SC6AC2 SLP877=
CYOW;2006-02-06 01:25;SPECI CYOW 060125Z 22018KT 12SM -SHSN FEW024 BKN038 BKN120 OVC250 M01/ RMK SC2SC2AC2CS0 CVCTV CLD EMBD MOON VISBL=
CYOW;2006-02-06 01:45;SPECI CYOW 060145Z 22016G26KT 1 1/2SM -SHSN DRSN OVC018 M03/ RMK SN3SC5 CVCTV CLD EMBD=
CYOW;2006-02-06 01:54;SPECI CYOW 060154Z 23013G20KT 4SM -SHSN DRSN FEW006 BKN020 OVC100 M02/ RMK CF1SC5AC1 CVCTV CLD EMBD=
CYOW;2006-02-06 02:12;SPECI CYOW 060212Z 23015G20KT 12SM FEW012 BKN036 OVC250 M02/ RMK SC1SC5CS1 MOON VISBL=
CYOW;2006-02-06 03:00;METAR CYOW 060300Z 23014G26KT 12SM FEW030 BKN051 OVC250 M03/M08 A2919 RMK SC2SC4CS1 MOON VISBL SLP891=
CYOW;2006-02-06 04:00;METAR CYOW 060400Z 23013G21KT 5SM -SHSN DRSN SCT022 BKN051 M04/M07 A2920 RMK SC3SC2 CVCTV CLD EMBD MOON VISBL SLP894=
CYOW;2006-02-06 05:00;METAR CYOW 060500Z 23012KT 4SM -SHSN DRSN SCT018 OVC030 M04/M07 A2922 RMK SC3SC5 CVCTV CLD EMBD SLP900=
CYOW;2006-02-06 05:30;SPECI CYOW 060530Z 23011G20KT 1 1/4SM -SHSN DRSN OVC018 M05/ RMK SN2SC6 CVCTV CLD EMBD=
CYOW;2006-02-06 06:11;SPECI CYOW 060611Z 25013KT 2SM -SHSN DRSN SCT012 OVC031 M06/ RMK SC3SC5 CVCTV CLD EMBD=
CYOW;2006-02-06 06:21;SPECI CYOW 060621Z 25010KT 4SM -SHSN FEW012 OVC041 M06/ RMK SC2SC6 CVCTV CLD EMBD=
CYOW;2006-02-06 09:46;SPECI CYOW 060946Z 24020KT 3SM -SN DRSN BKN017 OVC025 M09/ RMK SC6SC2=
CYOW;2006-02-06 10:00;METAR CYOW 061000Z 25015G25KT 2SM -SN DRSN BKN015 OVC027 M10/M12 A2936 RMK SC5SC3 /S01/ SLP950=
CYOW;2006-02-06 10:20;SPECI CYOW 061020Z 26017KT 3SM -SN DRSN FEW015 BKN025 OVC051 M10/ RMK SC2SC5SC2=
CYOW;2006-02-06 11:00;METAR CYOW 061100Z 24011G18KT 2SM -SN DRSN FEW010 OVC021 M10/M12 A2939 RMK SC2SC6 SLP957=
CYOW;2006-02-06 11:16;SPECI CYOW 061116Z 24015G20KT 8SM -SN DRSN BKN025 BKN043 OVC110 M10/ RMK SC5SC2AC1=
CYOW;2006-02-06 12:00;METAR CYOW 061200Z 25017KT 7SM -SN DRSN FEW010 SCT040 BKN140 M10/M14 A2940 RMK CU2SC2AC2 SLP964=
CYOW;2006-02-06 12:31;SPECI CYOW 061231Z 24015KT 15SM DRSN FEW010 BKN130 M10/ RMK CF2AC6=
CYOW;2006-02-06 12:47;SPECI CYOW 061247Z 25015KT 2SM -SN DRSN OVC020 M10/ RMK SC8=
CYOW;2006-02-06 13:00;METAR CYOW 061300Z 25018KT 2SM -SN DRSN OVC020 M10/M13 A2942 RMK SC8 SLP970=
CYOW;2006-02-06 13:32;SPECI CYOW 061332Z 25013G20KT 8SM DRSN BKN040 OVC130 M10/ RMK SC6AC2=
CYOW;2006-02-06 14:34;SPECI CYOW 061434Z 26015G20KT 4SM -SN DRSN OVC130 M10/ RMK AC8=
CYOW;2006-02-06 14:40;SPECI CYOW 061440Z 26013G20KT 1 1/2SM -SN DRSN VV013 M10/ RMK SN8=
CYOW;2006-02-06 14:47;SPECI CYOW 061447Z 26015KT 1SM -SN DRSN VV012 M10/ RMK SN8=
CYOW;2006-02-06 15:00;METAR CYOW 061500Z 26014KT 1 1/2SM -SN DRSN OVC033 M10/M13 A2945 RMK SN4SC4 SLP978=
CYOW;2006-02-06 16:00;METAR CYOW 061600Z 27012KT 1SM -SN DRSN VV012 M10/M12 A2945 RMK SN8 SLP981=
CYOW;2006-02-06 16:05;SPECI CYOW 061605Z 27013KT 3/4SM -SN DRSN VV007 M10/ RMK SN8=
CYOW;2006-02-06 16:21;SPECI CYOW 061621Z 26011KT 1SM -SN DRSN VV012 M09/ RMK SN8=
CYOW;2006-02-06 17:00;METAR CYOW 061700Z 27013KT 1 1/2SM -SN DRSN VV013 M09/M11 A2945 RMK SN8 SLP979=
CYOW;2006-02-06 17:29;SPECI CYOW 061729Z 27012KT 10SM DRSN FEW020 SCT130 BKN240 M08/ RMK CU2AC2CI1=
CYOW;2006-02-06 18:21;SPECI CYOW 061821Z 29008KT 4SM -SN OVC027 M08/ RMK SC8=
CYOW;2006-02-06 18:42;SPECI CYOW 061842Z 29010KT 15SM OVC040 M07/ RMK SC8=
CYOW;2006-02-06 19:00;METAR CYOW 061900Z 31008KT 15SM OVC040 M08/M12 A2945 RMK SC8 SLP981=
CYOW;2006-02-06 20:00;METAR CYOW 062000Z 31008KT 15SM BKN040 OVC100 M07/M12 A2948 RMK SC6AC2 SLP989=
CYOW;2006-02-06 21:00;METAR CYOW 062100Z 26009KT 5SM -SN OVC033 M06/M11 A2949 RMK SC8 SLP994=
CYOW;2006-02-06 21:41;SPECI CYOW 062141Z 28009KT 2SM -SN OVC023 M07/ RMK SC8=
CYOW;2006-02-06 22:00;METAR CYOW 062200Z 27009KT 3SM -SN OVC030 M07/M10 A2952 RMK SC8 SLP004=
CYOW;2006-02-07 00:00;METAR CYOW 070000Z 28009KT 4SM -SN SCT015 BKN035 M08/M10 A2959 RMK SC3SC2 SLP027=
CYOW;2006-02-07 00:15;SPECI CYOW 070015Z 28011KT 15SM FEW030 SCT090 M08/ RMK SC2AC1=
CYOW;2006-02-07 04:00;METAR CYOW 070400Z 25008KT 15SM FEW090 BKN250 M09/M14 A2964 RMK AC2CI1 SLP046=
CYOW;2006-02-07 05:00;METAR CYOW 070500Z 25008KT 15SM FEW090 BKN240 M10/M13 A2966 RMK AC1CI1 SLP051=
CYOW;2006-02-07 06:00;METAR CYOW 070600Z 25009KT 15SM BKN029 M10/M13 A2967 RMK SC7 SLP056=
CYOW;2006-02-07 07:28;SPECI CYOW 070728Z 26008KT 15SM BKN034 BKN250 M10/ RMK SC5CI0=
CYOW;2006-02-07 08:53;SPECI CYOW 070853Z 25008KT 12SM -SN BKN037 M11/ RMK SC5=
CYOW;2006-02-07 09:00;METAR CYOW 070900Z 25009KT 12SM -SN BKN033 M11/M14 A2972 RMK SC6 SLP072=
CYOW;2006-02-07 10:00;METAR CYOW 071000Z 24005KT 4SM -SN FEW012 OVC020 M11/M13 A2974 RMK SC2SC6 SLP080=
CYOW;2006-02-07 11:00;METAR CYOW 071100Z 25006KT 10SM -SN FEW012 BKN021 M11/M13 A2976 RMK CU2SC4 SN FINE SLP085=
CYOW;2006-02-07 12:00;METAR CYOW 071200Z 27010KT 10SM -SN FEW012 BKN024 M11/M14 A2979 RMK SC2SC4 SN FINE SLP095=
CYOW;2006-02-07 12:40;SPECI CYOW 071240Z 28014KT 10SM SCT025 M11/ RMK SC4=
CYOW;2006-02-07 13:00;METAR CYOW 071300Z 28012KT 10SM FEW025 M11/M15 A2983 RMK SC2 SLP109=
CYOW;2006-02-07 14:00;METAR CYOW 071400Z 28015KT 15SM FEW025 M11/M15 A2985 RMK SC1 SLP117=
CYOW;2006-02-07 15:00;METAR CYOW 071500Z 29015KT 15SM BKN025 M10/M15 A2987 RMK SC6 SLP124=
CYOW;2006-02-07 16:00;METAR CYOW 071600Z 29012KT 15SM BKN029 BKN050 M10/M15 A2989 RMK SC5SC1 SLP129=
CYOW;2006-02-07 18:00;METAR CYOW 071800Z 29014KT 15SM FEW030 M09/M15 A2988 RMK SC1 SLP128=
CYOW;2006-02-07 19:00;METAR CYOW 071900Z 26012G18KT 15SM FEW030 FEW250 M08/M14 A2990 RMK SC1CI0 SLP133=
CYOW;2006-02-07 21:00;METAR CYOW 072100Z 30012KT 15SM FEW030 M08/M14 A2992 RMK SC1 SLP142=
CYOW;2006-02-08 00:00;METAR CYOW 080000Z 29008KT 15SM OVC047 M07/M13 A2997 RMK SC8 SLP159=
CYOW;2006-02-08 02:00;METAR CYOW 080200Z 30012KT 15SM OVC047 M08/M12 A3000 RMK SC8 MOON VISBL SLP167=
CYOW;2006-02-08 04:00;METAR CYOW 080400Z 31009KT 15SM FEW027 BKN043 M09/M13 A3002 RMK SC1SC6 SLP174=
CYOW;2006-02-08 05:00;METAR CYOW 080500Z 30009KT 15SM FEW025 OVC042 M09/M14 A3002 RMK SC1SC7 MOON VISBL SLP176=
CYOW;2006-02-08 06:00;METAR CYOW 080600Z 32011KT 15SM FEW027 OVC037 M09/M14 A3001 RMK SC1SC7 SLP172=
CYOW;2006-02-08 08:00;METAR CYOW 080800Z 31009KT 15SM SKC M11/M15 A3002 RMK SLP175=
CYOW;2006-02-08 09:00;METAR CYOW 080900Z 30005KT 15SM SKC M12/M15 A3003 RMK SLP177=
CYOW;2006-02-08 10:00;METAR CYOW 081000Z 28006KT 15SM SKC M12/M15 A3004 RMK SLP181=
CYOW;2006-02-08 11:00;METAR CYOW 081100Z 28006KT 15SM SKC M13/M15 A3004 RMK SLP182=
CYOW;2006-02-08 12:00;METAR CYOW 081200Z 29007KT 15SM FEW030 SCT240 M13/M15 A3005 RMK SC2CI0 SLP186=
CYOW;2006-02-08 13:00;METAR CYOW 081300Z 29005KT 15SM FEW030 BKN240 M13/M15 A3006 RMK SC2CI0 SLP190=
CYOW;2006-02-08 14:00;METAR CYOW 081400Z 30007KT 15SM FEW030 FEW220 BKN240 M12/M15 A3007 RMK SC1CI0CI0 SLP191=
CYOW;2006-02-08 15:00;METAR CYOW 081500Z 30006KT 15SM FEW030 FEW180 BKN240 M11/M15 A3006 RMK SC2AC1CI1 SLP189=
CYOW;2006-02-08 17:00;METAR CYOW 081700Z 29009KT 15SM OVC026 M10/M14 A3005 RMK SC8 SLP185=
CYOW;2006-02-08 19:00;METAR CYOW 081900Z 30009KT 15SM FEW030 SCT180 BKN240 M09/M14 A3002 RMK SC2AC2CI0 SLP175=
CYOW;2006-02-08 20:00;METAR CYOW 082000Z 27008KT 15SM FEW030 SCT180 BKN240 M09/M15 A3003 RMK SC1AC2CI1 SLP177=
CYOW;2006-02-08 23:00;METAR CYOW 082300Z 27008KT 15SM FEW180 SCT240 M10/M16 A3002 RMK AC1CI0 SLP177=
CYOW;2006-02-09 00:00;METAR CYOW 090000Z 25004KT 15SM FEW200 M11/M17 A3003 RMK CI0 SLP178=
CYOW;2006-02-09 01:00;METAR CYOW 090100Z 27004KT 15SM SKC M12/M17 A3003 RMK SLP178=
CYOW;2006-02-09 02:00;METAR CYOW 090200Z 27003KT 15SM SKC M12/M16 A3003 RMK SLP178=
CYOW;2006-02-09 03:00;METAR CYOW 090300Z 30009KT 15SM SKC M12/M16 A3003 RMK SLP179=
CYOW;2006-02-09 05:00;METAR CYOW 090500Z 34012KT 15SM FEW220 M13/M17 A3005 RMK CI0 SLP185=
CYOW;2006-02-09 07:00;METAR CYOW 090700Z 30004KT 15SM FEW200 M15/M18 A3005 RMK CI0 SLP184=
CYOW;2006-02-09 08:00;METAR CYOW 090800Z 23002KT 15SM BKN120 M15/M18 A3003 RMK AC6 SLP179=
CYOW;2006-02-09 10:00;METAR CYOW 091000Z 25004KT 15SM BKN100 M15/M18 A3001 RMK AC4 SLP173=
CYOW;2006-02-09 11:00;METAR CYOW 091100Z 26003KT 15SM BKN096 M16/M18 A3000 RMK AC6 SLP170=
CYOW;2006-02-09 12:00;METAR CYOW 091200Z 24004KT 15SM FEW050 SCT100 M17/M19 A3001 RMK SC2AC2 SLP172=
CYOW;2006-02-09 13:00;METAR CYOW 091300Z 25005KT 15SM FEW030 SCT070 M17/M19 A3002 RMK SC2AC1 SLP176=
CYOW;2006-02-09 15:00;METAR CYOW 091500Z 31005KT 15SM FEW050 BKN070 M14/M17 A3001 RMK SC2AC2 SLP172=
CYOW;2006-02-09 16:00;METAR CYOW 091600Z 29004KT 15SM FEW070 SCT240 M13/M18 A3000 RMK AC1CI1 SLP169=
CYOW;2006-02-09 19:00;METAR CYOW 091900Z 30009KT 15SM FEW030 FEW100 BKN240 M11/M19 A2995 RMK CU1AC2CI1 SLP153=
CYOW;2006-02-09 20:00;METAR CYOW 092000Z 27007KT 15SM FEW030 BKN100 BKN240 M10/M18 A2995 RMK CU2AC3CI0 SLP153=
CYOW;2006-02-09 21:00;METAR CYOW 092100Z 28010KT 15SM FEW030 FEW080 SCT240 M10/M19 A2996 RMK CU1AC2CI0 SLP155=
CYOW;2006-02-09 23:00;METAR CYOW 092300Z 30010KT 15SM FEW050 FEW080 SCT240 M11/M21 A2999 RMK CU1AC2CI0 CU TR SLP165=
CYOW;2006-02-10 00:00;METAR CYOW 100000Z 29008KT 15SM BKN098 M11/M20 A3001 RMK AC4 SLP173=
CYOW;2006-02-10 01:00;METAR CYOW 100100Z 30008KT 15SM FEW090 M12/M19 A3002 RMK AC1 SLP176=
CYOW;2006-02-10 03:00;METAR CYOW 100300Z 30006KT 15SM SKC M14/M19 A3004 RMK SLP183=
CYOW;2006-02-10 04:00;METAR CYOW 100400Z 30007KT 15SM SKC M15/M20 A3005 RMK SLP187=
CYOW;2006-02-10 05:00;METAR CYOW 100500Z 31007KT 15SM SKC M16/M20 A3006 RMK SLP191=
CYOW;2006-02-10 07:00;METAR CYOW 100700Z 31006KT 15SM SKC M17/M21 A3008 RMK SLP198=
CYOW;2006-02-10 08:00;METAR CYOW 100800Z 29006KT 15SM SKC M17/M21 A3009 RMK SLP200=
CYOW;2006-02-10 10:00;METAR CYOW 101000Z 32002KT 15SM SKC M19/M22 A3010 RMK SLP204=
CYOW;2006-02-10 11:00;METAR CYOW 101100Z 28003KT 15SM SKC M19/M22 A3011 RMK SLP207=
CYOW;2006-02-10 13:00;METAR CYOW 101300Z 25002KT 15SM SKC M19/M22 A3013 RMK FROIN SLP215=
CYOW;2006-02-10 14:00;METAR CYOW 101400Z 00000KT 15SM SKC M17/M21 A3015 RMK FROIN SLP221=
CYOW;2006-02-10 15:00;METAR CYOW 101500Z 00000KT 15SM SKC M14/M20 A3015 RMK SLP220=
CYOW;2006-02-10 16:00;METAR CYOW 101600Z 26002KT 15SM SKC M13/M21 A3015 RMK SLP221=
CYOW;2006-02-10 17:00;METAR CYOW 101700Z 21004KT 15SM FEW050 FEW070 M12/M21 A3014 RMK SC1AC1 SLP215=
CYOW;2006-02-10 18:00;METAR CYOW 101800Z 00000KT 15SM FEW050 FEW070 M11/M20 A3012 RMK SC1AC1 SLP209=
CYOW;2006-02-10 19:00;METAR CYOW 101900Z 00000KT 15SM FEW050 FEW070 FEW250 M10/M20 A3010 RMK SC1AC1CI0 SC AC TR SLP203=
CYOW;2006-02-10 20:00;METAR CYOW 102000Z 18002KT 20SM FEW050 SCT180 BKN240 M10/M20 A3010 RMK SC1AC1CI2 SLP203=
CYOW;2006-02-10 21:00;METAR CYOW 102100Z 00000KT 20SM SCT240 M09/M20 A3009 RMK CI2 SLP201=
CYOW;2006-02-10 22:00;METAR CYOW 102200Z 00000KT 20SM FEW240 M10/M20 A3009 RMK CI2 SLP201=
CYOW;2006-02-11 00:00;METAR CYOW 110000Z 14003KT 15SM SKC M12/M19 A3011 RMK SLP209=
CYOW;2006-02-11 01:00;METAR CYOW 110100Z 13003KT 15SM SKC M13/M19 A3012 RMK SLP211=
CYOW;2006-02-11 03:00;METAR CYOW 110300Z 15003KT 15SM FEW170 M13/M20 A3013 RMK AC2 SLP212=
CYOW;2006-02-11 05:00;METAR CYOW 110500Z 00000KT 15SM FEW130 M14/M19 A3015 RMK AC1 SLP219=
CYOW;2006-02-11 06:00;METAR CYOW 110600Z 13002KT 15SM SKC M15/M20 A3014 RMK SLP218=
CYOW;2006-02-11 07:00;METAR CYOW 110700Z 00000KT 15SM SKC M14/M19 A3015 RMK SLP219=
CYOW;2006-02-11 08:00;METAR CYOW 110800Z 04004KT 15SM SKC M15/M19 A3014 RMK SLP217=
CYOW;2006-02-11 11:00;METAR CYOW 111100Z 04006KT 15SM SKC M17/M20 A3016 RMK SLP224=
CYOW;2006-02-11 12:00;METAR CYOW 111200Z 04004KT 12SM SKC M17/M20 A3018 RMK FROIN SLP231=
CYOW;2006-02-11 13:00;METAR CYOW 111300Z 00000KT 12SM SKC M17/M20 A3020 RMK FROIN SLP237=
CYOW;2006-02-11 14:00;METAR CYOW 111400Z 09003KT 12SM SKC M15/M19 A3021 RMK SLP242=
CYOW;2006-02-11 15:00;METAR CYOW 111500Z 00000KT 12SM SKC M13/M18 A3021 RMK SLP241=
CYOW;2006-02-11 20:00;METAR CYOW 112000Z 06005KT 15SM FEW240 M07/M16 A3013 RMK CI1 SLP212=
CYOW;2006-02-11 21:00;METAR CYOW 112100Z 06004KT 15SM FEW240 M06/M16 A3013 RMK CI0 SLP211=
CYOW;2006-02-12 00:00;METAR CYOW 120000Z 10003KT 15SM FEW240 M11/M17 A3012 RMK CI0 SLP209=
CYOW;2006-02-12 01:00;METAR CYOW 120100Z 07003KT 15SM SCT250 M10/M17 A3011 RMK CI1 SLP207=
CYOW;2006-02-12 02:00;METAR CYOW 120200Z 07004KT 15SM FEW250 M10/M16 A3011 RMK CI0 SLP207=
CYOW;2006-02-12 03:00;METAR CYOW 120300Z 04008KT 15SM FEW250 M12/M18 A3009 RMK CI0 SLP200=
CYOW;2006-02-12 04:00;METAR CYOW 120400Z 05006KT 15SM FEW250 M12/M18 A3007 RMK CI1 SLP192=
CYOW;2006-02-12 05:00;METAR CYOW 120500Z 05007KT 15SM FEW250 M13/M18 A3005 RMK CI1 SLP187=
CYOW;2006-02-12 06:00;METAR CYOW 120600Z 04007KT 15SM FEW250 M13/M18 A3003 RMK CI1 SLP179=
CYOW;2006-02-12 08:00;METAR CYOW 120800Z 04007KT 15SM FEW120 FEW250 M14/M18 A2998 RMK AC2CI1 CI TR SLP162=
CYOW;2006-02-12 09:00;METAR CYOW 120900Z 04006KT 15SM BKN170 M14/M19 A2996 RMK AS4 FROIN SLP153=
CYOW;2006-02-12 10:00;METAR CYOW 121000Z 03008KT 15SM BKN190 M14/M19 A2994 RMK AS4 FROIN SLP148=
CYOW;2006-02-12 12:00;METAR CYOW 121200Z 04007KT 15SM FEW240 M14/M19 A2994 RMK CI1 SLP147=
CYOW;2006-02-12 13:00;METAR CYOW 121300Z 04009KT 20SM FEW180 FEW240 M14/M19 A2993 RMK AC1CI0 SLP145=
CYOW;2006-02-12 15:00;METAR CYOW 121500Z 04010KT 20SM FEW240 M11/M18 A2988 RMK CI1 SLP127=
CYOW;2006-02-12 20:00;METAR CYOW 122000Z 29005KT 20SM FEW240 M06/M17 A2976 RMK CI1 SLP086=
CYOW;2006-02-12 23:00;METAR CYOW 122300Z 31007KT 15SM FEW250 M09/M18 A2975 RMK CI1 SLP082=
CYOW;2006-02-13 00:00;METAR CYOW 130000Z 27006KT 15SM FEW250 M08/M19 A2976 RMK CI1 SLP087=
CYOW;2006-02-13 01:00;METAR CYOW 130100Z 27007KT 15SM FEW250 M10/M17 A2975 RMK CI1 SLP083=
CYOW;2006-02-13 02:00;METAR CYOW 130200Z 28005KT 15SM FEW250 M10/M17 A2974 RMK CI1 SLP081=
CYOW;2006-02-13 03:00;METAR CYOW 130300Z 27004KT 15SM FEW250 M11/M18 A2974 RMK CI1 SLP079=
CYOW;2006-02-13 04:00;METAR CYOW 130400Z 24004KT 15SM FEW140 FEW240 M11/M18 A2972 RMK AC1CI0 AC TR SLP074=
CYOW;2006-02-13 07:00;METAR CYOW 130700Z 28006KT 15SM OVC080 M10/M13 A2971 RMK AC7 MOON DIMLY VISBL SLP069=
CYOW;2006-02-13 09:20;SPECI CYOW 130920Z 21003KT 10SM -SN OVC081 M10/ RMK AC7 MOON DIMLY VISBL=
CYOW;2006-02-13 10:00;METAR CYOW 131000Z 21005KT 10SM -SN FEW070 OVC080 M10/M12 A2967 RMK AC1AC6 MOON DIMLY VISBL SLP056=
CYOW;2006-02-13 11:00;METAR CYOW 131100Z 22005KT 10SM -SN BKN075 M10/M12 A2967 RMK AC7 SLP056=
CYOW;2006-02-13 12:00;METAR CYOW 131200Z 22005KT 4SM -SN BKN070 BKN240 M10/M11 A2967 RMK AC6CI0 SLP056=
CYOW;2006-02-13 12:49;SPECI CYOW 131249Z 24006KT 7SM BKN026 OVC060 M10/ RMK SC5SC3=
CYOW;2006-02-13 13:00;METAR CYOW 131300Z 23006KT 8SM BKN027 OVC060 M10/M11 A2968 RMK SC6SC2 SLP060=
CYOW;2006-02-13 13:12;SPECI CYOW 131312Z 25006KT 3SM -SN OVC060 M10/ RMK SC8=
CYOW;2006-02-13 14:00;METAR CYOW 131400Z 27009KT 12SM FEW020 SCT240 M09/M11 A2969 RMK CF2CI1 SLP062=
CYOW;2006-02-13 15:00;METAR CYOW 131500Z 30012KT 20SM FEW020 BKN240 M09/M11 A2970 RMK CU2CI1 SLP066=
CYOW;2006-02-13 16:00;METAR CYOW 131600Z 30008KT 20SM FEW020 SCT240 M07/M12 A2971 RMK CU2CI0 SLP068=
CYOW;2006-02-13 17:00;METAR CYOW 131700Z 28014G21KT 20SM FEW030 SCT100 M06/M13 A2970 RMK CU2AC1 SLP067=
CYOW;2006-02-13 18:00;METAR CYOW 131800Z 26010KT 20SM FEW030 SCT100 M05/M14 A2967 RMK CU2AC2 SLP055=
CYOW;2006-02-13 20:00;METAR CYOW 132000Z 31006KT 20SM BKN043 BKN100 M03/M13 A2963 RMK SC6AC1 VIRGA SLP043=
CYOW;2006-02-13 21:00;METAR CYOW 132100Z 23013KT 20SM OVC050 M03/M12 A2963 RMK SC8 VIRGA SLP042=
CYOW;2006-02-13 22:34;SPECI CYOW 132234Z 22011G17KT 10SM -SN OVC070 M04/ RMK AC8=
CYOW;2006-02-13 23:00;METAR CYOW 132300Z 22011KT 8SM -SN DRSN SCT020 OVC047 M04/M07 A2963 RMK SC3SC5 SLP042=
CYOW;2006-02-14 00:00;METAR CYOW 140000Z 22010G16KT 10SM -SN DRSN BKN050 OVC075 M04/M07 A2963 RMK SC5AC3 SLP042=
CYOW;2006-02-14 01:00;METAR CYOW 140100Z 23014G20KT 15SM -SN DRSN FEW040 OVC060 M03/M08 A2964 RMK SC2SC6 SN VRY LGT MOON DIMLY VISBL SLP043=
CYOW;2006-02-14 01:20;SPECI CYOW 140120Z 22016KT 15SM DRSN FEW040 OVC120 M03/ RMK SC2AC5 MOON DIMLY VISBL=
CYOW;2006-02-14 02:00;METAR CYOW 140200Z 23011G17KT 15SM FEW040 OVC120 M04/M09 A2964 RMK SC1AC7 SLP043=
CYOW;2006-02-14 03:00;METAR CYOW 140300Z 23013KT 15SM OVC110 M04/M09 A2964 RMK AS8 SLP043=
CYOW;2006-02-14 04:23;SPECI CYOW 140423Z 23012G21KT 15SM OVC077 M04/ RMK AS8=
CYOW;2006-02-14 06:00;METAR CYOW 140600Z 23010G17KT 12SM OVC088 M04/M08 A2964 RMK AC8 MOON DIMLY VISBL SLP043=
CYOW;2006-02-14 09:00;METAR CYOW 140900Z 23008KT 12SM FEW027 SCT038 OVC075 M04/M08 A2970 RMK SC2SC2AC3 MOON DIMLY VISBL SLP065=
CYOW;2006-02-14 09:29;SPECI CYOW 140929Z 24008KT 12SM -SN SCT043 BKN074 M04/ RMK SC3AC2 SN VRY LGT=
CYOW;2006-02-14 12:00;METAR CYOW 141200Z 35009KT 12SM -SN BKN015 BKN050 M07/M11 A2981 RMK SC5SC2 VRY LGT SN SLP103=
CYOW;2006-02-14 13:00;METAR CYOW 141300Z 34005KT 15SM -SN FEW015 OVC021 M08/M11 A2985 RMK SC2SC6 VRY LGT SN SLP117=
CYOW;2006-02-14 15:00;METAR CYOW 141500Z 26003KT 15SM FEW015 OVC019 M07/M11 A2989 RMK SC2SC6 SLP129=
CYOW;2006-02-14 15:33;SPECI CYOW 141533Z 23003KT 3SM -SN OVC019 M07/ RMK SC8=
CYOW;2006-02-14 16:00;METAR CYOW 141600Z 25003KT 3SM -SN OVC017 M07/M11 A2991 RMK SC8 SLP136=
CYOW;2006-02-14 17:00;METAR CYOW 141700Z 00000KT 4SM -SN OVC023 M06/M10 A2990 RMK SC8 SLP132=
CYOW;2006-02-14 18:00;METAR CYOW 141800Z 00000KT 4SM -SN OVC022 M05/M09 A2989 RMK SC8 SLP130=
CYOW;2006-02-14 18:42;SPECI CYOW 141842Z 00000KT 12SM FEW025 OVC110 M05/ RMK SC2AS6 SUN DIMILY VSBL=
CYOW;2006-02-14 19:00;METAR CYOW 141900Z 04002KT 12SM FEW025 OVC085 M04/M08 A2988 RMK SC2AS6 SUN DIMILY VSBL SLP125=
CYOW;2006-02-14 20:00;METAR CYOW 142000Z 04003KT 12SM SCT025 OVC080 M04/M08 A2987 RMK SC3AS5 SUN DIMILY VSBL SLP122=
CYOW;2006-02-14 20:44;SPECI CYOW 142044Z 10006KT 12SM -SN BKN020 OVC033 M04/ RMK SC5SC3 VRY LGT SN=
CYOW;2006-02-14 20:54;SPECI CYOW 142054Z 09005KT 2SM -SN OVC012 M04/ RMK SN3SF5=
CYOW;2006-02-14 21:00;METAR CYOW 142100Z 09005KT 2SM -SN OVC012 M04/M07 A2986 RMK SN3SF5 SLP120=
CYOW;2006-02-14 21:45;SPECI CYOW 142145Z 09005KT 1/2SM SN VV011 M05/ RMK SN8=
CYOW;2006-02-14 22:00;METAR CYOW 142200Z 09005KT 3/4SM -SN VV011 M05/M06 A2988 RESN RMK SN8 /S01/ SLP125=
CYOW;2006-02-14 23:00;METAR CYOW 142300Z 07006KT 4SM -SN OVC019 M05/M06 A2989 RMK SC8 /S02/ SLP129=
CYOW;2006-02-14 23:31;SPECI CYOW 142331Z 09007KT 4SM -SN OVC012 M05/ RMK SC8=
CYOW;2006-02-15 00:00;METAR CYOW 150000Z 09007KT 5SM -SN OVC009 M05/M06 A2990 RMK SC8 SLP131=
CYOW;2006-02-15 01:00;METAR CYOW 150100Z 09004KT 6SM -SN OVC007 M04/M05 A2989 RMK SC8 SN VRY LGT SLP128=
CYOW;2006-02-15 02:00;METAR CYOW 150200Z 07003KT 4SM -SN OVC006 M04/M05 A2989 RMK NS8 CIG RAG SLP128=
CYOW;2006-02-15 02:16;SPECI CYOW 150216Z 06002KT 1 1/4SM -SN OVC005 M04/ RMK SN1NS7=
CYOW;2006-02-15 02:38;SPECI CYOW 150238Z 06003KT 1SM -SN VV004 M03/ RMK SN8=
CYOW;2006-02-15 03:00;METAR CYOW 150300Z 07003KT 1SM -SN VV004 M03/M04 A2988 RMK SN8 /S01/ SLP126=
CYOW;2006-02-15 05:00;METAR CYOW 150500Z 20005KT 1SM -SN OVC009 M00/M00 A2989 RMK SN2NS6 CIG RAG /S03/ SLP130=
CYOW;2006-02-15 05:38;SPECI CYOW 150538Z 20005KT 2SM -SN OVC012 00/ RMK SC8 CIG RAG=
CYOW;2006-02-15 06:00;METAR CYOW 150600Z 21005KT 2SM -SN OVC020 00/00 A2990 RMK SC8 /S04/ SLP132=
CYOW;2006-02-15 06:20;SPECI CYOW 150620Z 21005KT 4SM -SN OVC011 00/ RMK SC8=
CYOW;2006-02-15 07:00;METAR CYOW 150700Z 21006KT 5SM BR OVC008 01/00 A2990 RMK SC8 SLP130=
CYOW;2006-02-15 07:30;SPECI CYOW 150730Z 21006KT 5SM -SN OVC009 01/ RMK SC8=
CYOW;2006-02-15 08:00;METAR CYOW 150800Z 21008KT 4SM -SN OVC010 01/00 A2990 RMK SC8 CIG VRB 8-12 SLP130=
CYOW;2006-02-15 08:43;SPECI CYOW 150843Z 21007KT 7SM OVC039 01/ RMK SC8=
CYOW;2006-02-15 09:00;METAR CYOW 150900Z 21006KT 7SM OVC031 01/00 A2988 RMK SC8 SLP125=
CYOW;2006-02-15 10:00;METAR CYOW 151000Z 18006KT 7SM OVC021 01/00 A2988 RMK SC8 SLP124=
CYOW;2006-02-15 11:00;METAR CYOW 151100Z 19008KT 8SM OVC055 02/M01 A2986 RMK SC8 SLP119=
CYOW;2006-02-15 12:00;METAR CYOW 151200Z 19007KT 10SM SCT055 OVC100 02/M01 A2985 RMK SC3AC5 SLP115=
CYOW;2006-02-15 13:00;METAR CYOW 151300Z 19007KT 12SM OVC082 03/M02 A2985 RMK AC8 SLP113=
CYOW;2006-02-15 14:00;METAR CYOW 151400Z 25007KT 12SM BKN043 OVC080 03/M01 A2989 RMK SC5AC3 SLP128=
CYOW;2006-02-15 15:00;METAR CYOW 151500Z 26007KT 15SM OVC060 03/M01 A2991 RMK SC8 SLP133=
CYOW;2006-02-15 16:00;METAR CYOW 151600Z 24010KT 12SM FEW060 OVC130 04/M00 A2992 RMK SC1AS7 SUN DIMILY VSBL SLP139=
CYOW;2006-02-15 17:00;METAR CYOW 151700Z 24009G15KT 12SM FEW060 OVC140 05/M00 A2993 RMK SC2AS6 SUN DIMILY VSBL SLP142=
CYOW;2006-02-15 18:00;METAR CYOW 151800Z 24010KT 15SM SCT030 BKN100 05/M00 A2996 RMK SC3AC4 SLP150=
CYOW;2006-02-15 19:00;METAR CYOW 151900Z 24005KT 15SM BKN030 OVC080 05/M00 A2997 RMK SC5AC3 SLP154=
CYOW;2006-02-15 20:00;METAR CYOW 152000Z 24004KT 12SM OVC043 05/M00 A3000 RMK SC8 SLP163=
CYOW;2006-02-15 23:00;METAR CYOW 152300Z 23009KT 15SM FEW045 04/M00 A3008 RMK SC2 SLP192=
CYOW;2006-02-16 00:00;METAR CYOW 160000Z 24007KT 15SM FEW035 FEW150 SCT240 03/M01 A3012 RMK SC1AC1CI0 SLP205=
CYOW;2006-02-16 01:00;METAR CYOW 160100Z 24008KT 15SM FEW150 SCT240 03/M01 A3014 RMK AC1CI0 SLP211=
CYOW;2006-02-16 01:41;SPECI CYOW 160141Z 25008KT 15SM FEW040 SCT140 02/ RMK SC1AC3=
CYOW;2006-02-16 03:00;METAR CYOW 160300Z 34007KT 15SM SCT140 M00/M03 A3021 RMK AC4 SLP236=
CYOW;2006-02-16 05:00;METAR CYOW 160500Z 34008KT 15SM SCT090 OVC150 M01/M05 A3027 RMK AC3AS5 SLP256=
CYOW;2006-02-16 06:00;METAR CYOW 160600Z 36009KT 15SM OVC027 M02/M07 A3031 RMK SC8 MOON VISBL SLP268=
CYOW;2006-02-16 08:00;METAR CYOW 160800Z 02011KT 15SM FEW030 SCT090 OVC150 M05/M12 A3035 RMK SC1AC2AS0 SLP284=
CYOW;2006-02-16 10:00;METAR CYOW 161000Z 05009KT 15SM FEW032 OVC068 M06/M12 A3035 RMK SC1AC7 SLP285=
CYOW;2006-02-16 11:00;METAR CYOW 161100Z 05008KT 15SM BKN032 OVC064 M06/M12 A3035 RMK SC7SC1 SLP285=
CYOW;2006-02-16 12:00;METAR CYOW 161200Z 03013KT 15SM OVC028 M06/M14 A3031 RMK SC8 SLP271=
CYOW;2006-02-16 13:00;METAR CYOW 161300Z 03012KT 15SM OVC022 M07/M14 A3033 RMK SC8 SLP278=
CYOW;2006-02-16 13:22;SPECI CYOW 161322Z 03012KT 2SM -SN BKN011 OVC020 M07/ RMK SF5SC3=
CYOW;2006-02-16 13:45;SPECI CYOW 161345Z 04012KT 1/2SM SN VV007 M08/ RMK SN8=
CYOW;2006-02-16 14:00;METAR CYOW 161400Z 04015KT 1/2SM SN VV006 M08/M10 A3034 RMK SN8 /S01/ SLP282=
CYOW;2006-02-16 15:00;METAR CYOW 161500Z 03012KT 1/2SM SN VV006 M08/M09 A3032 RMK SN8 SLP275=
CYOW;2006-02-16 17:00;METAR CYOW 161700Z 06013KT 3/4SM -SN DRSN VV006 M08/M09 A3027 RMK SN8 SLP259=
CYOW;2006-02-16 17:44;SPECI CYOW 161744Z 05011KT 2 1/2SM -SN DRSN BKN015 OVC030 M08/ RMK SN1SF4SC3=
CYOW;2006-02-16 19:00;METAR CYOW 161900Z 07012KT 8SM -SN DRSN OVC014 M07/M09 A3024 RMK SC8 VRY LGT SN SLP248=
CYOW;2006-02-16 19:29;SPECI CYOW 161929Z 07012KT 8SM DRSN OVC014 M07/ RMK SC8=
CYOW;2006-02-16 19:41;SPECI CYOW 161941Z 07013G18KT 8SM -SN DRSN OVC014 M07/ RMK SC8=
CYOW;2006-02-16 20:00;METAR CYOW 162000Z 06017G22KT 8SM -SN DRSN BKN014 OVC027 M07/M10 A3022 RMK SC5SC3 SLP240=
CYOW;2006-02-16 22:00;METAR CYOW 162200Z 06012KT 10SM DRSN BKN018 OVC025 M07/M10 A3016 RMK SC5SC3 SLP220=
CYOW;2006-02-16 23:00;METAR CYOW 162300Z 09015KT 10SM DRSN OVC013 M07/M09 A3011 RMK SC8 SLP206=
CYOW;2006-02-16 23:23;SPECI CYOW 162323Z 09012KT 8SM DRSN -FZRA OVC012 M07/ RMK SC8=
CYOW;2006-02-16 23:38;SPECI CYOW 162338Z 07014KT 2 1/2SM -PL -FZRA OVC014 M07/ RMK SC8=
CYOW;2006-02-16 23:48;SPECI CYOW 162348Z 08011G16KT 1SM -PL OVC015 M08/ REFZRA RMK SC8=
CYOW;2006-02-17 00:00;METAR CYOW 170000Z 07012KT 1SM -PL OVC015 M08/M09 A3004 REFZRA RMK SC8 SLP181=
CYOW;2006-02-17 00:19;SPECI CYOW 170019Z 07009KT 3SM -PL OVC015 M08/ RMK SC8=
CYOW;2006-02-17 00:31;SPECI CYOW 170031Z 07011G19KT 2SM -PL OVC013 M08/ RMK SC8=
CYOW;2006-02-17 00:50;SPECI CYOW 170050Z 07010KT 4SM -PL OVC014 M08/ RMK SC8=
CYOW;2006-02-17 02:00;METAR CYOW 170200Z 09010KT 1 1/4SM -PL OVC014 M08/M09 A2994 RMK SC8 /S02/ SLP147=
CYOW;2006-02-17 02:52;SPECI CYOW 170252Z 09013KT 4SM -PL OVC012 M08/ RMK SC8=
CYOW;2006-02-17 03:00;METAR CYOW 170300Z 09013KT 4SM -PL OVC012 M08/M09 A2985 RMK SC8 PRESFR /S05/ SLP117=
CYOW;2006-02-17 03:17;SPECI CYOW 170317Z 09016KT 4SM -PL -FZRA BKN012 OVC040 M07/ RMK SC6SC2=
CYOW;2006-02-17 03:30;SPECI CYOW 170330Z 09015KT 8SM -FZRA SCT010 OVC040 M07/ RMK SC4SC4=
CYOW;2006-02-17 03:41;SPECI CYOW 170341Z 08013G19KT 8SM -FZRA OVC008 M07/ RMK SC8 FZRA VRY LGT=
CYOW;2006-02-17 04:00;METAR CYOW 170400Z 08012KT 10SM -FZRA OVC007 M07/M08 A2981 RMK SC8 FZRA VRY LGT SLP103=
CYOW;2006-02-17 04:23;SPECI CYOW 170423Z 08009KT 10SM OVC007 M07/ REFZRA RMK SC8=
CYOW;2006-02-17 05:00;METAR CYOW 170500Z 06010KT 10SM OVC006 M07/M08 A2973 REFZRA RMK SC8 PRESFR SLP078=
CYOW;2006-02-17 05:36;SPECI CYOW 170536Z 08008KT 8SM -FZRA OVC006 M06/ RMK SC8=
CYOW;2006-02-17 07:35;SPECI CYOW 170735Z 08009KT 2SM -FZRA BR OVC003 M04/ RMK SF8=
CYOW;2006-02-17 08:00;METAR CYOW 170800Z 09007KT 1SM -FZRA BR OVC006 M03/M04 A2959 RMK SC8 SLP027=
CYOW;2006-02-17 08:08;SPECI CYOW 170808Z 09006KT 1SM -PL -FZRA BR OVC005 M03/ RMK SF8=
CYOW;2006-02-17 08:35;SPECI CYOW 170835Z 10007KT 4SM -PL -FZRA BR SCT005 OVC048 M03/ RMK SF3SC5=
CYOW;2006-02-17 09:00;METAR CYOW 170900Z 09009KT 4SM -PL -FZRA BR OVC003 M03/M03 A2953 RMK SF8 PRESFR SLP006=
CYOW;2006-02-17 09:19;SPECI CYOW 170919Z 04004KT 4SM -FZRA BR OVC003 M03/ RMK SF8 CIG RAG=
CYOW;2006-02-17 09:47;SPECI CYOW 170947Z 10006KT 4SM -FZRA BR FEW003 OVC040 M02/ RMK CF2SC6=
CYOW;2006-02-17 10:52;SPECI CYOW 171052Z 11011KT 5SM BR OVC003 M02/ REFZRA RMK SF8=
CYOW;2006-02-17 11:00;METAR CYOW 171100Z 11011KT 4SM -FZRA BR OVC003 M02/M02 A2942 RMK SF8 /R10/ SLP970=
CYOW;2006-02-17 13:00;METAR CYOW 171300Z 18005KT 5SM -FZRA BR SCT003 OVC013 01/01 A2931 RMK SF4SC4 VRY LGT FZRA SLP930=
CYOW;2006-02-17 14:30;SPECI CYOW 171430Z 28021G26KT 8SM SCT005 OVC020 M06/ REFZRA RMK SF3SC5=
CYOW;2006-02-17 14:44;SPECI CYOW 171444Z 27019G28KT 3SM -SN BR SCT005 OVC020 M06/ REFZRA RMK SF3SC5=
CYOW;2006-02-17 15:42;SPECI CYOW 171542Z 28028G37KT 1 1/2SM -SN BLSN BR SCT007 OVC018 M10/ RMK SF3SC5=
CYOW;2006-02-17 15:53;SPECI CYOW 171553Z 29025G32KT 1/8SM -SN +BLSN VV006 M10/ RMK BLSN8=
CYOW;2006-02-17 16:00;METAR CYOW 171600Z 27027G35KT 1/8SM -SN +BLSN VV004 M10/M12 A2965 RMK BLSN8 /S02/ PRESRR SLP047=
CYOW;2006-02-17 16:48;SPECI CYOW 171648Z 27028G33KT 1/2SM -SN BLSN OVC017 M12/ RMK BLSN6SF2=
CYOW;2006-02-17 17:00;METAR CYOW 171700Z 28027G34KT 1/2SM -SN BLSN OVC020 M13/M15 A2976 RMK BLSN7SF1 /S03/ PRESRR SLP085=
CYOW;2006-02-17 17:28;SPECI CYOW 171728Z 29028G36KT 1/8SM -SN +BLSN VV003 M13/ RMK BLSN8=
CYOW;2006-02-17 17:43;SPECI CYOW 171743Z 28025G34KT 1/2SM -SN BLSN OVC012 M14/ RMK BLSN7SF1=
CYOW;2006-02-17 18:44;SPECI CYOW 171844Z 27027G35KT 3/4SM -SN BLSN OVC022 M13/ RMK BLSN3SC5=
CYOW;2006-02-17 18:50;SPECI CYOW 171850Z 28023G35KT 2 1/2SM -SN DRSN OVC023 M13/ REBLSN RMK SN2SC6=
CYOW;2006-02-17 19:00;METAR CYOW 171900Z 29026G34KT 3SM -SN DRSN BKN024 M13/M16 A2990 REBLSN RMK SC5 PRESRR SLP132=
CYOW;2006-02-17 19:38;SPECI CYOW 171938Z 28024G29KT 10SM DRSN FEW012 BKN028 M12/ RMK CU2SC2=
CYOW;2006-02-17 22:00;METAR CYOW 172200Z 28021G27KT 20SM FEW030 M12/M17 A3006 RMK SC1 SLP188=
CYOW;2006-02-18 00:00;METAR CYOW 180000Z 28011G16KT 15SM SKC M13/M17 A3015 RMK SLP219=
CYOW;2006-02-18 01:00;METAR CYOW 180100Z 28008KT 15SM SKC M13/M17 A3016 RMK SLP222=
CYOW;2006-02-18 03:00;METAR CYOW 180300Z 28004KT 15SM SKC M14/M17 A3018 RMK SLP230=
CYOW;2006-02-18 04:00;METAR CYOW 180400Z 28002KT 15SM FEW220 M15/M18 A3014 RMK CI1 SLP216=
CYOW;2006-02-18 05:00;METAR CYOW 180500Z 34005KT 8SM -SN OVC050 M15/M18 A3013 RMK SC8 SN VRY LGT SLP213=
CYOW;2006-02-18 05:19;SPECI CYOW 180519Z 34006KT 2SM -SN OVC030 M15/ RMK SC8=
CYOW;2006-02-18 06:29;SPECI CYOW 180629Z 36008KT 2SM -SN OVC015 M16/ RMK SC8=
CYOW;2006-02-18 07:34;SPECI CYOW 180734Z 33011KT 4SM -SN DRSN OVC031 M16/ RMK SC8 MOON VISBL=
CYOW;2006-02-18 08:00;METAR CYOW 180800Z 33013KT 4SM -SN DRSN OVC030 M16/M19 A3009 RMK SC8 MOON VISBL SLP199=
CYOW;2006-02-18 10:00;METAR CYOW 181000Z 31012KT 15SM DRSN SKC M18/M25 A3010 RMK SLP203=
CYOW;2006-02-18 11:00;METAR CYOW 181100Z 32013G18KT 15SM DRSN FEW010 FEW150 M19/M26 A3014 RMK CF1AC1 SLP216=
CYOW;2006-02-18 12:00;METAR CYOW 181200Z 31016KT 20SM DRSN FEW100 M20/M26 A3017 RMK AC1 /SO3/ SLP228=
CYOW;2006-02-18 13:00;METAR CYOW 181300Z 31014G19KT 20SM DRSN FEW010 M20/M26 A3021 RMK CF1 TR CUFRA SLP241=
CYOW;2006-02-18 14:00;METAR CYOW 181400Z 29016G21KT 20SM DRSN FEW020 FEW240 M20/M27 A3023 RMK CF2CI0 SLP248=
CYOW;2006-02-18 15:00;METAR CYOW 181500Z 30016G23KT 20SM DRSN SCT020 M20/M27 A3025 RMK CU3 SLP255=
CYOW;2006-02-18 16:00;METAR CYOW 181600Z 29015G20KT 20SM DRSN SCT027 M20/M27 A3027 RMK CU3 SLP262=
CYOW;2006-02-18 17:00;METAR CYOW 181700Z 28014G19KT 10SM DRSN SCT027 M19/M25 A3028 RMK CU3 SLP264=
CYOW;2006-02-18 20:00;METAR CYOW 182000Z 30012KT 20SM DRSN FEW030 M17/M25 A3025 RMK CU2 SLP254=
CYOW;2006-02-18 22:00;METAR CYOW 182200Z 28007KT 20SM FEW030 M16/M25 A3023 RMK CF1 TR CUFRA SLP248=
CYOW;2006-02-19 00:00;METAR CYOW 190000Z 26003KT 15SM SKC M18/M24 A3024 RMK SLP253=
CYOW;2006-02-19 01:00;METAR CYOW 190100Z 27005KT 15SM SKC M18/M24 A3024 RMK SLP254=
CYOW;2006-02-19 02:00;METAR CYOW 190200Z 26006KT 15SM SKC M19/M25 A3024 RMK SLP253=
CYOW;2006-02-19 03:00;METAR CYOW 190300Z 23006KT 15SM SKC M18/M25 A3023 RMK SLP251=
CYOW;2006-02-19 05:00;METAR CYOW 190500Z 22007KT 15SM FEW240 M19/M25 A3022 RMK CI1 SLP248=
CYOW;2006-02-19 06:00;METAR CYOW 190600Z 22007KT 15SM FEW100 FEW240 M19/M25 A3022 RMK AC1CI0 AC TR SLP246=
CYOW;2006-02-19 08:00;METAR CYOW 190800Z 22005KT 15SM BKN044 M18/M23 A3021 RMK SC6 SLP243=
CYOW;2006-02-19 09:00;METAR CYOW 190900Z 23005KT 15SM FEW045 BKN250 M18/M23 A3021 RMK SC2CI1 SLP241=
CYOW;2006-02-19 09:24;SPECI CYOW 190924Z 24005KT 15SM -SN SCT045 BKN250 M18/ RMK SC2CI0 SN VRY LGT=
CYOW;2006-02-19 10:00;METAR CYOW 191000Z 24005KT 15SM FEW045 SCT250 M18/M22 A3022 RMK SC2CI0 SLP245=
CYOW;2006-02-19 10:26;SPECI CYOW 191026Z 23005KT 12SM -SN FEW050 FEW250 M18/ RMK SC1CI0 SN=
CYOW;2006-02-19 10:45;SPECI CYOW 191045Z 24004KT 15SM FEW050 FEW250 M17/ RMK SC1CI0=
CYOW;2006-02-19 11:00;METAR CYOW 191100Z 24005KT 15SM SCT036 BKN084 M17/M21 A3023 RMK SC2AC2 SHSN DIST N SLP248=
CYOW;2006-02-19 12:00;METAR CYOW 191200Z 25007KT 20SM FEW035 FEW085 FEW250 M18/M21 A3023 RMK SC1AC1CI1 CLDS TR SLP248=
CYOW;2006-02-19 13:00;METAR CYOW 191300Z 23006KT 20SM FEW080 M16/M20 A3023 RMK AC1 SLP248=
CYOW;2006-02-19 14:00;METAR CYOW 191400Z 23007KT 20SM FEW100 M15/M19 A3022 RMK AC2 SLP247=
CYOW;2006-02-19 15:00;METAR CYOW 191500Z 23010KT 20SM FEW010 FEW080 M12/M16 A3021 RMK CF1AC2 TR CUFRA SLP240=
CYOW;2006-02-19 16:00;METAR CYOW 191600Z 23007KT 20SM FEW010 BKN037 M11/M15 A3018 RMK CF1SC5 SLP232=
CYOW;2006-02-19 17:00;METAR CYOW 191700Z 22010KT 20SM FEW010 FEW040 M08/M13 A3016 RMK CF1SC2 SLP223=
CYOW;2006-02-19 21:00;METAR CYOW 192100Z 23013G19KT 20SM BKN063 M06/M13 A3005 RMK SC6 SLP187=
CYOW;2006-02-19 22:00;METAR CYOW 192200Z 23015G23KT 20SM SCT063 M06/M13 A3004 RMK SC3 SLP183=
CYOW;2006-02-19 23:00;METAR CYOW 192300Z 22012G19KT 15SM FEW060 M07/M14 A3003 RMK SC1 SLP179=
CYOW;2006-02-20 01:00;METAR CYOW 200100Z 22011G17KT 15SM FEW050 M09/M14 A3005 RMK SC2 SLP185=
CYOW;2006-02-20 03:00;METAR CYOW 200300Z 23012KT 15SM FEW050 M10/M15 A3002 RMK SC1 SLP175=
CYOW;2006-02-20 04:00;METAR CYOW 200400Z 22010G15KT 15SM FEW050 FEW070 M10/M15 A3000 RMK SC1AC1 SLP170=
CYOW;2006-02-20 06:00;METAR CYOW 200600Z 24008KT 15SM BKN064 M10/M15 A2999 RMK SC4 SLP164=
CYOW;2006-02-20 08:00;METAR CYOW 200800Z 24009KT 15SM FEW064 OVC081 M10/M14 A2997 RMK SC2AS5 MOON DIMLY VISBL SLP159=
CYOW;2006-02-20 10:00;METAR CYOW 201000Z 24011KT 15SM FEW045 M10/M14 A2996 RMK SC1 SLP153=
CYOW;2006-02-20 11:00;METAR CYOW 201100Z 23013KT 15SM FEW050 M10/M14 A2996 RMK SC1 SLP154=
CYOW;2006-02-20 12:00;METAR CYOW 201200Z 24009KT 12SM FEW050 M10/M14 A2996 RMK SC2 SLP156=
CYOW;2006-02-20 13:00;METAR CYOW 201300Z 23009KT 12SM FEW050 M10/M14 A2997 RMK SC1 SLP158=
CYOW;2006-02-20 14:00;METAR CYOW 201400Z 23009KT 15SM FEW050 BKN200 M08/M13 A2997 RMK SC1CI2 SLP158=
CYOW;2006-02-20 15:00;METAR CYOW 201500Z 23011KT 15SM FEW150 FEW180 M07/M12 A2997 RMK AC1AC2 SLP158=
CYOW;2006-02-20 16:00;METAR CYOW 201600Z 23010KT 15SM FEW020 FEW100 FEW150 M06/M12 A2996 RMK CF1AC2AC1 SLP154=
CYOW;2006-02-20 19:00;METAR CYOW 201900Z 23014KT 15SM BKN037 M04/M11 A2991 RMK CU6 SLP137=
CYOW;2006-02-20 20:00;METAR CYOW 202000Z 24012G19KT 15SM BKN050 M03/M11 A2990 RMK SC5 CU ASOCTD SLP133=
CYOW;2006-02-20 21:00;METAR CYOW 202100Z 23011G16KT 15SM BKN052 BKN200 M04/M12 A2989 RMK SC5CI1 SLP131=
CYOW;2006-02-20 22:00;METAR CYOW 202200Z 23011G16KT 15SM BKN050 M04/M11 A2988 RMK SC6 SLP128=
CYOW;2006-02-20 23:00;METAR CYOW 202300Z 22008KT 15SM OVC050 M04/M11 A2989 RMK SC7 SLP131=
CYOW;2006-02-21 00:00;METAR CYOW 210000Z 22010KT 15SM OVC049 M04/M11 A2990 RMK SC8 SLP134=
CYOW;2006-02-21 01:00;METAR CYOW 210100Z 22011G16KT 15SM OVC049 M05/M11 A2990 RMK SC7 SLP134=
CYOW;2006-02-21 05:00;METAR CYOW 210500Z 21004KT 15SM OVC074 M06/M12 A2986 RMK AC8 SLP121=
CYOW;2006-02-21 08:00;METAR CYOW 210800Z 21003KT 15SM FEW120 SCT250 M07/M12 A2982 RMK AC1CI0 SLP105=
CYOW;2006-02-21 09:00;METAR CYOW 210900Z 18002KT 12SM FEW050 FEW120 BKN220 M08/M12 A2979 RMK SC2AC1CI0 SLP097=
CYOW;2006-02-21 11:00;METAR CYOW 211100Z 20002KT 12SM OVC049 M08/M12 A2978 RMK SC8 FROIN SLP091=
CYOW;2006-02-21 12:41;SPECI CYOW 211241Z 19004KT 8SM -SN OVC021 M06/ RMK SC8=
CYOW;2006-02-21 13:00;METAR CYOW 211300Z 19003KT 8SM -SN OVC023 M06/M09 A2976 RMK SC8 VRY LGT SN SLP087=
CYOW;2006-02-21 14:00;METAR CYOW 211400Z 19006KT 4SM -SN OVC017 M05/M08 A2976 RMK SC8 VRY LGT SN SLP086=
CYOW;2006-02-21 15:00;METAR CYOW 211500Z 21007KT 4SM -SN SCT017 OVC034 M04/M07 A2975 RMK SC3SC5 VRY LGT SN SLP082=
CYOW;2006-02-21 16:00;METAR CYOW 211600Z 19006KT 4SM -SN SCT015 OVC035 M04/M06 A2974 RMK SC3SC5 VRY LGT SN SLP078=
CYOW;2006-02-21 18:00;METAR CYOW 211800Z 22010KT 6SM -SN OVC027 M01/M06 A2974 RMK SC8 VRY LGT SN SLP077=
CYOW;2006-02-21 20:00;METAR CYOW 212000Z 23006KT 8SM -SN OVC030 M01/M05 A2975 RMK SC8 SLP081=
CYOW;2006-02-21 20:22;SPECI CYOW 212022Z 27007KT 1/2SM SN VV009 M02/ RMK SN8=
CYOW;2006-02-21 20:29;SPECI CYOW 212029Z 28005KT 2SM -SN BKN014 M02/ RESN RMK SN2SC5=
CYOW;2006-02-21 20:35;SPECI CYOW 212035Z 31006KT 6SM -SN FEW010 BKN034 M02/ RESN RMK SC1SC5=
CYOW;2006-02-21 21:00;METAR CYOW 212100Z 33004KT 10SM -SN FEW010 SCT035 M02/M04 A2977 RESN RMK SC1SC3 /S01/ SLP088=
CYOW;2006-02-21 22:00;METAR CYOW 212200Z 29005KT 4SM -SN OVC016 M02/M04 A2980 RMK SC8 /S02/ SLP097=
CYOW;2006-02-21 23:00;METAR CYOW 212300Z 23005KT 10SM -SN FEW035 BKN100 M03/M04 A2983 RMK SC1AC4 SLP108=
CYOW;2006-02-21 23:26;SPECI CYOW 212326Z 25005KT 15SM FEW100 M03/ RMK AC1=
CYOW;2006-02-22 00:00;METAR CYOW 220000Z 24005KT 15SM SKC M03/M05 A2986 RMK SLP119=
CYOW;2006-02-22 01:00;METAR CYOW 220100Z 24004KT 15SM SKC M04/M05 A2988 RMK SLP127=
CYOW;2006-02-22 02:00;METAR CYOW 220200Z 23004KT 15SM SKC M05/M05 A2990 RMK SLP133=
CYOW;2006-02-22 03:00;METAR CYOW 220300Z 24005KT 15SM BKN041 M05/M06 A2992 RMK SC7 SLP140=
CYOW;2006-02-22 03:13;SPECI CYOW 220313Z 25005KT 3SM -SHSN OVC030 M05/ RMK SC8 CVCTV CLD EMBD=
CYOW;2006-02-22 03:21;SPECI CYOW 220321Z 24005KT 1SM -SHSN VV005 M05/ RMK SN8 CVCTV CLD EMBD=
CYOW;2006-02-22 04:05;SPECI CYOW 220405Z 28007KT 3SM -SN BKN044 M04/ RMK SC6=
CYOW;2006-02-22 04:47;SPECI CYOW 220447Z 29005KT 15SM FEW035 M06/ RMK SC2=
CYOW;2006-02-22 05:00;METAR CYOW 220500Z 29006KT 15SM FEW035 M06/M08 A2993 RMK SC1 SLP143=
CYOW;2006-02-22 07:00;METAR CYOW 220700Z 23004KT 15SM FEW044 M07/M09 A2995 RMK SC1 SLP150=
CYOW;2006-02-22 08:00;METAR CYOW 220800Z 24004KT 15SM FEW050 M09/M11 A2995 RMK SC1 SLP150=
CYOW;2006-02-22 10:00;METAR CYOW 221000Z 21003KT 15SM SCT038 BKN140 M09/M11 A2997 RMK SC4AC2 SLP155=
CYOW;2006-02-22 11:00;METAR CYOW 221100Z 21005KT 15SM FEW015 FEW040 M11/M13 A2997 RMK CF1SC1 CF TR SLP155=
CYOW;2006-02-22 12:00;METAR CYOW 221200Z 21004KT 15SM FEW035 FEW180 M11/M13 A2998 RMK SC2AC1 AC TR SLP159=
CYOW;2006-02-22 13:00;METAR CYOW 221300Z 14002KT 15SM FEW060 BKN180 M11/M13 A2997 RMK SC2AC2 SLP158=
CYOW;2006-02-22 14:00;METAR CYOW 221400Z 19002KT 15SM FEW060 BKN200 M10/M12 A2998 RMK SC2CI2 SLP160=
CYOW;2006-02-22 15:00;METAR CYOW 221500Z 15004KT 15SM FEW060 BKN140 BKN200 M08/M11 A2997 RMK SC2AC3CI0 SLP158=
CYOW;2006-02-22 16:00;METAR CYOW 221600Z 17005KT 15SM FEW053 BKN140 BKN200 M04/M10 A2995 RMK SC2AC3CI0 SLP151=
CYOW;2006-02-22 17:00;METAR CYOW 221700Z 17004KT 15SM BKN049 BKN140 BKN200 M02/M09 A2994 RMK SC5AC1CI0 SLP146=
CYOW;2006-02-22 18:00;METAR CYOW 221800Z 14007KT 15SM SCT050 BKN120 BKN200 M01/M07 A2990 RMK SC3AC2CI0 SLP132=
CYOW;2006-02-22 19:00;METAR CYOW 221900Z 11007KT 15SM BKN053 BKN120 OVC200 M01/M07 A2987 RMK SC5AC2CI0 SLP122=
CYOW;2006-02-22 20:00;METAR CYOW 222000Z 13007KT 15SM BKN053 BKN130 OVC200 M01/M06 A2986 RMK SC5AC2CI0 SLP119=
CYOW;2006-02-22 21:00;METAR CYOW 222100Z 11008KT 15SM SCT050 BKN090 BKN200 M01/M06 A2985 RMK SC3AC2CI1 SLP114=
CYOW;2006-02-22 22:00;METAR CYOW 222200Z 11007KT 15SM BKN045 OVC090 M01/M06 A2984 RMK SC5AC2 SLP112=
CYOW;2006-02-22 23:00;METAR CYOW 222300Z 10005KT 15SM OVC032 M01/M05 A2984 RMK SC7 SLP111=
CYOW;2006-02-22 23:37;SPECI CYOW 222337Z 11004KT 10SM -SN OVC030 M01/ RMK SC8=
CYOW;2006-02-23 00:00;METAR CYOW 230000Z 13002KT 10SM OVC028 M01/M05 A2985 RMK SC8 SLP116=
CYOW;2006-02-23 00:17;SPECI CYOW 230017Z 20005KT 4SM -SN OVC017 00/ RMK SC8=
CYOW;2006-02-23 01:00;METAR CYOW 230100Z 16002KT 7SM OVC038 M01/M02 A2985 RMK SC8 SLP116=
CYOW;2006-02-23 01:31;SPECI CYOW 230131Z 15002KT 6SM -SN OVC037 M02/ RMK SC8=
CYOW;2006-02-23 02:00;METAR CYOW 230200Z 00000KT 6SM -SN SCT016 OVC050 M00/M02 A2984 RMK SC4SC4 SN VRY LGT SLP113=
CYOW;2006-02-23 03:00;METAR CYOW 230300Z 00000KT 7SM -SN FEW032 OVC043 M01/M02 A2984 RMK SC2SC6 SN VRY LGT SLP111=
CYOW;2006-02-23 03:21;SPECI CYOW 230321Z 07004KT 8SM OVC023 M02/ RMK SC8=
CYOW;2006-02-23 04:00;METAR CYOW 230400Z 04002KT 8SM OVC026 M02/M03 A2984 RMK SC8 SLP111=
CYOW;2006-02-23 05:00;METAR CYOW 230500Z 02005KT 8SM FEW010 OVC080 M04/M04 A2982 RMK CF1AC7 SLP107=
CYOW;2006-02-23 06:00;METAR CYOW 230600Z 06005KT 1/2SM FZFG VV009 M04/M05 A2983 RMK FG8 VIS N 11/2 SLP107=
CYOW;2006-02-23 06:05;SPECI CYOW 230605Z 06005KT 0SM FZFG VV001 M04/ RMK FG8=
CYOW;2006-02-23 07:00;METAR CYOW 230700Z 06004KT 0SM FZFG VV000 M04/M04 A2982 RMK FG8 SLP105=
CYOW;2006-02-23 07:30;SPECI CYOW 230730Z 05004KT 1/2SM FZFG OVC005 M05/ RMK FG2SC6=
CYOW;2006-02-23 08:28;SPECI CYOW 230828Z 04002KT 1/2SM FZFG OVC004 M05/ RMK FG2SC3=
CYOW;2006-02-23 09:18;SPECI CYOW 230918Z 27003KT 1/8SM FZFG VV001 M05/ RMK FG8=
CYOW;2006-02-23 10:00;METAR CYOW 231000Z 27002KT 0SM FZFG VV001 M04/M05 A2981 RMK FG8 SLP102=
CYOW;2006-02-23 11:00;METAR CYOW 231100Z 00000KT 0SM FZFG VV001 M04/M04 A2981 RMK FG8 SLP102=
CYOW;2006-02-23 12:00;METAR CYOW 231200Z 27002KT 0SM FZFG VV001 M05/M05 A2981 RMK FG8 SLP102=
CYOW;2006-02-23 13:00;METAR CYOW 231300Z 00000KT 0SM FZFG VV001 M05/M05 A2982 RMK FG8 SLP105=
CYOW;2006-02-23 14:00;METAR CYOW 231400Z 00000KT 1/8SM FZFG SKC M04/M05 A2982 RMK FG7 SLP105=
CYOW;2006-02-23 14:29;SPECI CYOW 231429Z 00000KT 1SM BR BKN250 M03/ RMK FG4CI0=
CYOW;2006-02-23 14:45;SPECI CYOW 231445Z 16002KT 5/8SM BR BKN160 BKN250 M04/ RMK FG4AC1CI0 VSB N 1=
CYOW;2006-02-23 14:53;SPECI CYOW 231453Z 16002KT 1/4SM FZFG BKN160 BKN250 M04/ RMK FG3AC2CI0=
CYOW;2006-02-23 15:00;METAR CYOW 231500Z 00000KT 1/4SM FZFG BKN160 BKN250 M04/M04 A2981 RMK FG3AC2CI0 SLP101=
CYOW;2006-02-23 15:07;SPECI CYOW 231507Z 00000KT 3/4SM BR SCT035 BKN160 BKN250 M04/ RMK FG2SC2AC1CI0=
CYOW;2006-02-23 15:16;SPECI CYOW 231516Z 23003KT 2SM BR BKN035 BKN160 BKN250 M03/ RMK FG1SC4AC1CI0=
CYOW;2006-02-23 15:37;SPECI CYOW 231537Z 23004KT 4SM BR BKN038 BKN120 M03/ RMK SC6AC1=
CYOW;2006-02-23 16:00;METAR CYOW 231600Z 27004KT 10SM SCT035 M02/M03 A2980 RMK SC4 SLP098=
CYOW;2006-02-23 19:00;METAR CYOW 231900Z 31005KT 15SM OVC041 M01/M05 A2976 RMK SC7 SLP086=
CYOW;2006-02-23 19:26;SPECI CYOW 231926Z 31003KT 10SM -SN OVC023 01/ RMK SC8=
CYOW;2006-02-23 20:00;METAR CYOW 232000Z 27002KT 10SM -SN OVC043 01/M04 A2975 RMK SC8 VYR LGT SN SLP082=
CYOW;2006-02-23 21:00;METAR CYOW 232100Z 00000KT 8SM -SN OVC037 01/M04 A2974 RMK SC8 VYR LGT SN SLP076=
CYOW;2006-02-23 22:00;METAR CYOW 232200Z 01003KT 15SM -SN SCT035 BKN077 M00/M03 A2973 RMK SC4AC3 VYR LGT SN SLP075=
CYOW;2006-02-23 22:45;SPECI CYOW 232245Z 11005KT 15SM SCT035 OVC070 M01/ RMK SC4AC3=
CYOW;2006-02-23 23:00;METAR CYOW 232300Z 09005KT 10SM SCT035 BKN070 OVC140 M00/M04 A2972 RMK SC3AC3AC2 SLP070=
CYOW;2006-02-24 00:00;METAR CYOW 240000Z 08005KT 8SM OVC110 M01/M04 A2971 RMK AC8 SLP066=
CYOW;2006-02-24 00:37;SPECI CYOW 240037Z 09008KT 8SM -SN OVC025 M01/ RMK SC8 SN VRY LGT=
CYOW;2006-02-24 00:55;SPECI CYOW 240055Z 17005KT 2SM -SN OVC020 M00/ RMK SC8=
CYOW;2006-02-24 01:00;METAR CYOW 240100Z 18007KT 2SM -SN OVC020 M01/M03 A2968 RMK SC8 SLP058=
CYOW;2006-02-24 01:14;SPECI CYOW 240114Z 19005KT 1SM -SN VV007 M01/ RMK SN8=
CYOW;2006-02-24 01:25;SPECI CYOW 240125Z 17003KT 2SM -SN OVC022 M01/ RMK SC8=
CYOW;2006-02-24 01:30;SPECI CYOW 240130Z 17002KT 1SM -SN VV007 M01/ RMK SN8=
CYOW;2006-02-24 02:28;SPECI CYOW 240228Z 26003KT 3SM -SN OVC003 M01/ RESN RMK SC8=
CYOW;2006-02-24 02:52;SPECI CYOW 240252Z 22006KT 5SM BR SCT006 OVC027 M01/ RESN RMK SC3SC5=
CYOW;2006-02-24 03:00;METAR CYOW 240300Z 23009KT 5SM BR SCT006 OVC046 M01/M01 A2965 RESN RMK SC3SC5 SLP046=
CYOW;2006-02-24 04:00;METAR CYOW 240400Z 28012KT 15SM FEW050 FEW120 M01/M05 A2965 RMK SC1AC1 SLP047=
CYOW;2006-02-24 05:00;METAR CYOW 240500Z 25007KT 15SM SCT045 SCT120 M03/M07 A2966 RMK SC4AC1 AC TR SLP051=
CYOW;2006-02-24 06:00;METAR CYOW 240600Z 23008KT 15SM BKN048 M03/M08 A2967 RMK SC5 SLP054=
CYOW;2006-02-24 07:00;METAR CYOW 240700Z 23011KT 15SM OVC028 M03/M08 A2967 RMK SC8 SLP053=
CYOW;2006-02-24 07:37;SPECI CYOW 240737Z 25016KT 1SM -SHSN VV006 M04/ RMK SN8 CVCTV CLD EMBD=
CYOW;2006-02-24 08:00;METAR CYOW 240800Z 25015G20KT 1/2SM SHSN DRSN VV003 M04/M05 A2966 RMK SN8 CVCTV CLD EMBD SLP050=
CYOW;2006-02-24 08:15;SPECI CYOW 240815Z 28016KT 1SM -SHSN DRSN VV006 M04/ RESN RMK SN8 CVCTV CLD EMBD=
CYOW;2006-02-24 08:26;SPECI CYOW 240826Z 30018KT 3SM -SN DRSN OVC015 M03/ RESN RMK SC8=
CYOW;2006-02-24 09:00;METAR CYOW 240900Z 31020G28KT 4SM -SN BLSN BKN020 OVC062 M04/M06 A2971 RESN RMK SC6SC2 PRESRR /S01/ SLP068=
CYOW;2006-02-24 10:00;METAR CYOW 241000Z 30020G25KT 8SM -SN DRSN BKN018 OVC030 M06/M08 A2979 RMK SC6SC2 OCNL BLSN PRESRR SLP093=
CYOW;2006-02-24 11:00;METAR CYOW 241100Z 31023KT 7SM -SN DRSN SCT024 M07/M10 A2986 RMK SC4 OCNL BLSN PRESRR SLP116=
CYOW;2006-02-24 11:10;SPECI CYOW 241110Z 31022KT 8SM DRSN FEW024 FEW060 M08/ RMK SC2SC1 OCNL BLSN=
CYOW;2006-02-24 12:00;METAR CYOW 241200Z 31017KT 8SM DRSN SCT025 SCT060 M09/M12 A2993 RMK SC3SC1 PRESRR SLP141=
CYOW;2006-02-24 14:00;METAR CYOW 241400Z 32018KT 15SM DRSN FEW020 FEW150 SCT260 M10/M15 A3004 RMK SC1AC2CI0 SC TR SLP179=
CYOW;2006-02-24 15:00;METAR CYOW 241500Z 31018KT 15SM FEW140 FEW260 M09/M15 A3008 RMK AC2CI0 SLP192=
CYOW;2006-02-24 17:00;METAR CYOW 241700Z 31018KT 15SM DRSN FEW100 M08/M15 A3016 RMK AC1 AC TR SLP220=
CYOW;2006-02-24 20:00;METAR CYOW 242000Z 29012G18KT 20SM DRSN SKC M08/M16 A3021 RMK SLP238=
CYOW;2006-02-24 23:00;METAR CYOW 242300Z 28007KT 15SM FEW240 M08/M17 A3026 RMK CI1 SLP255=
CYOW;2006-02-25 00:00;METAR CYOW 250000Z 31011KT 15SM SKC M10/M17 A3029 RMK SLP266=
CYOW;2006-02-25 01:00;METAR CYOW 250100Z 31007KT 15SM FEW210 M11/M17 A3029 RMK CI2 SLP266=
CYOW;2006-02-25 02:00;METAR CYOW 250200Z 33006KT 15SM SCT210 M11/M17 A3029 RMK CI3 SLP265=
CYOW;2006-02-25 04:00;METAR CYOW 250400Z 02005KT 15SM BKN150 M11/M17 A3030 RMK AS4 SLP269=
CYOW;2006-02-25 06:00;METAR CYOW 250600Z 06004KT 15SM OVC120 M12/M18 A3031 RMK AS8 SLP273=
CYOW;2006-02-25 07:00;METAR CYOW 250700Z 09007KT 15SM OVC100 M12/M17 A3029 RMK AS8 SLP268=
CYOW;2006-02-25 09:00;METAR CYOW 250900Z 07008KT 15SM OVC040 M13/M18 A3022 RMK SC8 CIG DFUS SLP242=
CYOW;2006-02-25 09:36;SPECI CYOW 250936Z 08009KT 15SM -SN OVC045 M13/ RMK SC8 SN VRY LGT=
CYOW;2006-02-25 10:00;METAR CYOW 251000Z 08010KT 15SM OVC060 M13/M18 A3017 RMK SC8 CIG DFUS SLP227=
CYOW;2006-02-25 12:00;METAR CYOW 251200Z 08013KT 12SM -SN OVC047 M13/M18 A3012 RMK SC8 SN VRY LGT SLP210=
CYOW;2006-02-25 13:00;METAR CYOW 251300Z 09014G19KT 4SM -SN OVC030 M13/M18 A3010 RMK NS8 SLP202=
CYOW;2006-02-25 13:39;SPECI CYOW 251339Z 08014KT 2SM -SN OVC020 M14/ RMK NS8=
CYOW;2006-02-25 14:00;METAR CYOW 251400Z 06017KT 3SM -SN OVC020 M14/M17 A3006 RMK NS8 SLP188=
CYOW;2006-02-25 14:26;SPECI CYOW 251426Z 06019KT 1SM -SN VV013 M14/ RMK SN8=
CYOW;2006-02-25 15:00;METAR CYOW 251500Z 07018KT 3/4SM -SN VV010 M15/M17 A3003 RMK SN8 SLP178=
CYOW;2006-02-25 15:25;SPECI CYOW 251525Z 06019G25KT 1/2SM SN VV006 M15/ RMK SN8=
CYOW;2006-02-25 16:00;METAR CYOW 251600Z 07021G27KT 1/2SM SN VV005 M15/M17 A2999 RMK SN8 /SO1/ SLP166=
CYOW;2006-02-25 19:00;METAR CYOW 251900Z 05018KT 1/2SM SN BLSN VV007 M13/M15 A2991 RMK SN8 /SO1/ SLP139=
CYOW;2006-02-25 20:00;METAR CYOW 252000Z 04015G20KT 1/2SM SN BLSN VV006 M12/M14 A2993 RMK SN8 /SO2/ SLP146=
CYOW;2006-02-25 21:00;METAR CYOW 252100Z 04015KT 1SM -SN DRSN OVC010 M11/M14 A2996 RMK SN4NS4 /SO3/ SLP157=
CYOW;2006-02-25 22:00;METAR CYOW 252200Z 36011KT 1SM -SN DRSN OVC010 M11/M13 A3002 RMK SN4SF4 SLP174=
CYOW;2006-02-25 22:49;SPECI CYOW 252249Z 35009KT 2SM -SN BKN010 OVC021 M10/ RMK SC6SC2=
CYOW;2006-02-25 23:00;METAR CYOW 252300Z 33009KT 3SM -SN FEW012 BKN024 OVC045 M10/M13 A3006 RMK SC2SC4SC2 /S04/ SLP190=
CYOW;2006-02-26 00:44;SPECI CYOW 260044Z 32010KT 2SM -SN DRSN BKN011 OVC024 M11/ RMK SC5SC3=
CYOW;2006-02-26 01:00;METAR CYOW 260100Z 32010KT 2SM -SN DRSN BKN011 OVC024 M11/M13 A3014 RMK SC5SC3 SLP216=
CYOW;2006-02-26 01:17;SPECI CYOW 260117Z 32009KT 5SM -SN FEW012 BKN042 M11/ RMK SC2SC3=
CYOW;2006-02-26 02:00;METAR CYOW 260200Z 32009KT 12SM -SN FEW015 SCT030 BKN085 M12/M14 A3016 RMK SC2SC2AC1 SN FINE SLP223=
CYOW;2006-02-26 04:00;METAR CYOW 260400Z 32008KT 10SM -SN FEW030 BKN062 BKN082 M11/M15 A3019 RMK SC2SC2AC1 SLP232=
CYOW;2006-02-26 04:49;SPECI CYOW 260449Z 33008KT 15SM FEW030 SCT045 BKN110 M12/ RMK SC2SC2AS1=
CYOW;2006-02-26 05:00;METAR CYOW 260500Z 33008KT 15SM FEW030 SCT045 BKN110 M12/M16 A3018 RMK SC2SC2AS1 SLP231=
CYOW;2006-02-26 05:53;SPECI CYOW 260553Z 30006KT 15SM -SN FEW033 SCT048 BKN120 M13/ RMK SC2SC2AS0 SN VRY LGT=
CYOW;2006-02-26 07:00;METAR CYOW 260700Z 31009KT 12SM -SN BKN037 M13/M16 A3019 RMK SC5 SLP234=
CYOW;2006-02-26 08:21;SPECI CYOW 260821Z 33010KT 15SM BKN038 M13/ RMK SC5=
CYOW;2006-02-26 09:00;METAR CYOW 260900Z 33008KT 15SM BKN038 M13/M16 A3020 RMK SC6 SLP238=
CYOW;2006-02-26 10:00;METAR CYOW 261000Z 33010KT 15SM BKN045 M14/M17 A3021 RMK SC6 SLP239=
CYOW;2006-02-26 11:00;METAR CYOW 261100Z 33012KT 15SM DRSN FEW040 BKN072 M15/M17 A3022 RMK SC2AS3 SLP244=
CYOW;2006-02-26 12:00;METAR CYOW 261200Z 33009KT 20SM FEW075 M15/M18 A3023 RMK AC1 SLP247=
CYOW;2006-02-26 13:00;METAR CYOW 261300Z 30011KT 20SM FEW080 M16/M19 A3024 RMK AC1 SLP249=
CYOW;2006-02-26 14:00;METAR CYOW 261400Z 30009KT 20SM FEW080 M15/M19 A3024 RMK AC1 SLP250=
CYOW;2006-02-26 15:00;METAR CYOW 261500Z 28010KT 20SM SKC M14/M19 A3024 RMK SLP250=
CYOW;2006-02-26 16:00;METAR CYOW 261600Z 28012KT 20SM FEW010 M13/M22 A3022 RMK CF1 SLP243=
CYOW;2006-02-26 17:00;METAR CYOW 261700Z 29016G21KT 20SM SCT036 M13/M21 A3019 RMK CU3 SLP234=
CYOW;2006-02-26 20:00;METAR CYOW 262000Z 27016G25KT 20SM DRSN VCSH SCT030 M13/M21 A3014 RMK CU3 SHSN ALQDS SLP217=
CYOW;2006-02-26 21:00;METAR CYOW 262100Z 30016G26KT 20SM SCT026 M13/M20 A3014 RMK CU3 VIRGA SLP215=
CYOW;2006-02-26 23:00;METAR CYOW 262300Z 30014KT 20SM DRSN FEW030 FEW040 M14/M22 A3014 RMK CU1SC1 SC TR SLP216=
CYOW;2006-02-27 00:00;METAR CYOW 270000Z 31009KT 15SM SKC M15/M23 A3014 RMK SLP218=
CYOW;2006-02-27 01:00;METAR CYOW 270100Z 32010KT 15SM FEW012 M16/M23 A3014 RMK CF1 SLP219=
CYOW;2006-02-27 02:00;METAR CYOW 270200Z 31011KT 15SM FEW070 M16/M23 A3014 RMK AC1 SLP216=
CYOW;2006-02-27 04:00;METAR CYOW 270400Z 28007KT 15SM SKC M17/M24 A3011 RMK SLP209=
CYOW;2006-02-27 05:00;METAR CYOW 270500Z 28007KT 15SM SKC M17/M24 A3010 RMK SLP205=
CYOW;2006-02-27 08:00;METAR CYOW 270800Z 26007KT 15SM SKC M20/M26 A3007 RMK SLP193=
CYOW;2006-02-27 10:00;METAR CYOW 271000Z 27007KT 15SM SKC M21/M25 A3004 RMK FROIN SLP185=
CYOW;2006-02-27 11:00;METAR CYOW 271100Z 28007KT 15SM FEW100 M21/M25 A3004 RMK AC1 FROIN SLP185=
CYOW;2006-02-27 12:00;METAR CYOW 271200Z 29010KT 15SM FEW100 M21/M25 A3003 RMK AC1 FROIN AC TR SLP181=
CYOW;2006-02-27 13:00;METAR CYOW 271300Z 29008KT 15SM FEW100 M20/M25 A3002 RMK AC1 FROIN AC TR SLP179=
CYOW;2006-02-27 17:00;METAR CYOW 271700Z 29010KT 15SM FEW100 M15/M24 A2995 RMK AC1 AC TR SLP154=
CYOW;2006-02-27 18:00;METAR CYOW 271800Z 25014KT 15SM FEW100 M14/M23 A2993 RMK AC1 AC TR SLP147=
CYOW;2006-02-27 19:00;METAR CYOW 271900Z 27013G19KT 15SM FEW160 M13/M24 A2992 RMK AC1 AC TR SLP142=
CYOW;2006-02-27 20:00;METAR CYOW 272000Z 27018KT 15SM DRSN FEW210 M12/M24 A2990 RMK CI1 SLP137=
CYOW;2006-02-27 21:00;METAR CYOW 272100Z 27016G21KT 15SM DRSN FEW240 M11/M24 A2988 RMK CI0 SLP130=
CYOW;2006-02-27 22:00;METAR CYOW 272200Z 29009G15KT 15SM FEW150 FEW250 M11/M24 A2987 RMK AC1CI1 CLDS TR SLP125=
CYOW;2006-02-28 00:00;METAR CYOW 280000Z 26006KT 15SM SKC M12/M24 A2985 RMK SLP121=
CYOW;2006-02-28 01:00;METAR CYOW 280100Z 27007KT 15SM SKC M13/M24 A2985 RMK SLP120=
CYOW;2006-02-28 02:00;METAR CYOW 280200Z 29011KT 15SM SKC M12/M24 A2984 RMK SLP117=
CYOW;2006-02-28 04:00;METAR CYOW 280400Z 27007KT 15SM SKC M14/M24 A2985 RMK SLP117=
CYOW;2006-02-28 05:00;METAR CYOW 280500Z 25006KT 15SM SKC M15/M25 A2984 RMK SLP114=
CYOW;2006-02-28 06:00;METAR CYOW 280600Z 24005KT 15SM SKC M15/M25 A2982 RMK SLP109=
CYOW;2006-02-28 07:00;METAR CYOW 280700Z 26003KT 15SM FEW100 M16/M25 A2981 RMK AC1 SLP106=
CYOW;2006-02-28 08:00;METAR CYOW 280800Z 27008KT 15SM FEW100 M16/M24 A2981 RMK AC1 SLP104=
CYOW;2006-02-28 09:00;METAR CYOW 280900Z 26007KT 15SM FEW100 M17/M24 A2980 RMK AC1 SLP101=
CYOW;2006-02-28 11:00;METAR CYOW 281100Z 27009KT 15SM FEW160 M17/M24 A2979 RMK AC1 SLP098=
CYOW;2006-02-28 12:00;METAR CYOW 281200Z 25006KT 15SM FEW160 M17/M24 A2979 RMK AC1 AC TR SLP098=
CYOW;2006-02-28 14:00;METAR CYOW 281400Z 27018G24KT 15SM DRSN FEW160 SCT220 M15/M23 A2978 RMK AC1CI1 AC TR SLP095=
CYOW;2006-02-28 15:00;METAR CYOW 281500Z 28015G24KT 15SM DRSN BKN180 BKN220 M14/M23 A2978 RMK AC5CI1 SLP093=
CYOW;2006-02-28 17:00;METAR CYOW 281700Z 26017KT 15SM DRSN FEW160 FEW180 BKN220 M12/M24 A2973 RMK AC1AC2CI1 SLP078=
CYOW;2006-02-28 18:00;METAR CYOW 281800Z 27014G19KT 15SM DRSN FEW160 FEW180 BKN220 M11/M23 A2970 RMK AC1AC2CI1 SLP067=
CYOW;2006-02-28 20:00;METAR CYOW 282000Z 27015KT 15SM DRSN FEW100 SCT170 BKN210 M08/M23 A2965 RMK AC1AC3CI2 SLP050=
CYOW;2006-02-28 22:00;METAR CYOW 282200Z 27015G20KT 15SM DRSN BKN100 OVC180 M08/M23 A2964 RMK AC6AC2 SLP045=
CYOW;2006-03-01 00:00;METAR CYOW 010000Z 31011G17KT 12SM DRSN OVC073 M10/M17 A2969 RMK AC8 SLP063=
CYOW;2006-03-01 00:17;SPECI CYOW 010017Z 31013KT 8SM -SN DRSN OVC054 M10/ RMK SC8=
CYOW;2006-03-01 01:00;METAR CYOW 010100Z 29008KT 5SM -SN OVC046 M11/M17 A2972 RMK SC8 SLP073=
CYOW;2006-03-01 03:00;METAR CYOW 010300Z 31006KT 8SM -SN OVC050 M11/M13 A2975 RMK SC8 SLP084=
CYOW;2006-03-01 03:36;SPECI CYOW 010336Z 30009KT 15SM FEW020 FEW080 M11/ RMK CF1AC2=
CYOW;2006-03-01 05:00;METAR CYOW 010500Z 31013KT 15SM FEW020 FEW060 M12/M18 A2976 RMK CF1SC2 CUFRA TR SLP089=
CYOW;2006-03-01 06:00;METAR CYOW 010600Z 31013KT 15SM FEW060 BKN240 M13/M18 A2979 RMK SC1CI5 SC TR PRESRR SLP097=
CYOW;2006-03-01 07:00;METAR CYOW 010700Z 33009KT 15SM FEW240 M14/M18 A2983 RMK CI1 SLP110=
CYOW;2006-03-01 09:00;METAR CYOW 010900Z 33008KT 15SM SKC M16/M20 A2986 RMK SLP120=
CYOW;2006-03-01 11:00;METAR CYOW 011100Z 28006KT 15SM FEW090 FEW240 M17/M22 A2991 RMK AC1CI1 CLDS TR SLP139=
CYOW;2006-03-01 12:00;METAR CYOW 011200Z 29006KT 15SM FEW070 M18/M22 A2993 RMK AC1 AC TR SLP144=
CYOW;2006-03-01 13:00;METAR CYOW 011300Z 27005KT 15SM FEW070 SCT120 M17/M23 A2992 RMK AC1AC2 SLP142=
CYOW;2006-03-01 14:00;METAR CYOW 011400Z 28010KT 15SM FEW070 FEW100 M16/M24 A2994 RMK AC1AC0 LOW AC TR SLP147=
CYOW;2006-03-01 15:00;METAR CYOW 011500Z 27012G19KT 15SM DRSN FEW070 FEW120 SCT200 M15/M23 A2992 RMK AC1AC1CI0 LOW AC TR SLP143=
CYOW;2006-03-01 16:00;METAR CYOW 011600Z 25012KT 15SM FEW070 M14/M22 A2990 RMK AC1 AC TR SLP136=
CYOW;2006-03-01 17:00;METAR CYOW 011700Z 27016KT 15SM FEW200 M13/M22 A2988 RMK CC0 SLP128=
CYOW;2006-03-01 18:00;METAR CYOW 011800Z 26010G15KT 15SM FEW200 M10/M20 A2987 RMK CC1 SLP123=
CYOW;2006-03-01 21:00;METAR CYOW 012100Z 23012KT 15SM SCT060 BKN070 BKN140 M05/M18 A2980 RMK SC3AC2AC1 SLP101=
CYOW;2006-03-01 22:00;METAR CYOW 012200Z 22008KT 15SM FEW060 FEW090 SCT200 M04/M17 A2980 RMK SC2AC1CC1 SLP099=
CYOW;2006-03-01 23:00;METAR CYOW 012300Z 22008KT 15SM FEW064 BKN100 M06/M16 A2977 RMK SC2AC3 SLP091=
CYOW;2006-03-02 00:00;METAR CYOW 020000Z 21008KT 15SM FEW057 SCT100 M06/M16 A2978 RMK SC2AC2 SLP095=
CYOW;2006-03-02 02:00;METAR CYOW 020200Z 21008KT 15SM BKN044 M07/M17 A2977 RMK SC7 SLP091=
CYOW;2006-03-02 03:00;METAR CYOW 020300Z 20007KT 15SM FEW057 BKN150 M07/M14 A2976 RMK SC2AC4 SLP087=
CYOW;2006-03-02 04:00;METAR CYOW 020400Z 21007KT 15SM FEW057 BKN150 M07/M14 A2975 RMK SC2AC3 SLP084=
CYOW;2006-03-02 05:00;METAR CYOW 020500Z 21007KT 15SM OVC054 M06/M13 A2973 RMK SC8 SLP078=
CYOW;2006-03-02 06:00;METAR CYOW 020600Z 23008KT 15SM OVC052 M06/M13 A2973 RMK SC8 SLP074=
CYOW;2006-03-02 07:00;METAR CYOW 020700Z 23007KT 15SM BKN052 OVC130 M07/M13 A2970 RMK SC6AC2 SLP065=
CYOW;2006-03-02 08:00;METAR CYOW 020800Z 23007KT 15SM OVC051 M07/M13 A2968 RMK SC8 SLP060=
CYOW;2006-03-02 12:00;METAR CYOW 021200Z 23006KT 15SM FEW075 M09/M13 A2966 RMK AC2 SLP051=
CYOW;2006-03-02 13:00;METAR CYOW 021300Z 24005KT 15SM SCT100 M08/M13 A2967 RMK AC3 SLP054=
CYOW;2006-03-02 14:00;METAR CYOW 021400Z 30004KT 15SM FEW140 M08/M13 A2965 RMK AC2 SLP050=
CYOW;2006-03-02 16:00;METAR CYOW 021600Z 24005KT 15SM FEW140 FEW220 M05/M12 A2968 RMK AC1CI0 SLP057=
CYOW;2006-03-02 17:00;METAR CYOW 021700Z 01007KT 15SM FEW040 FEW140 M03/M11 A2968 RMK SC2AC1 SLP057=
CYOW;2006-03-02 19:00;METAR CYOW 021900Z 35009KT 15SM FEW040 SCT180 M03/M12 A2968 RMK SC1AC2 SLP056=
CYOW;2006-03-02 20:00;METAR CYOW 022000Z 34011KT 15SM FEW040 SCT160 M03/M12 A2968 RMK SC1AC2 SLP058=
CYOW;2006-03-02 22:00;METAR CYOW 022200Z 35010KT 15SM FEW040 M04/M13 A2975 RMK SC2 SLP081=
CYOW;2006-03-03 00:00;METAR CYOW 030000Z 35009KT 15SM FEW050 M06/M14 A2983 RMK SC1 SLP110=
CYOW;2006-03-03 01:00;METAR CYOW 030100Z 35010KT 15SM FEW050 M07/M15 A2986 RMK SC1 SLP119=
CYOW;2006-03-03 02:00;METAR CYOW 030200Z 34009KT 15SM FEW060 M08/M15 A2989 RMK SC2 SLP129=
CYOW;2006-03-03 03:00;METAR CYOW 030300Z 34010G16KT 15SM OVC039 M08/M15 A2991 RMK SC8 SLP135=
CYOW;2006-03-03 04:00;METAR CYOW 030400Z 35013KT 15SM OVC035 M08/M15 A2992 RMK SC8 SLP140=
CYOW;2006-03-03 05:00;METAR CYOW 030500Z 35006KT 15SM OVC034 M09/M15 A2993 RMK SC8 SLP142=
CYOW;2006-03-03 06:00;METAR CYOW 030600Z 33012KT 15SM OVC035 M09/M15 A2993 RMK SC8 SLP142=
CYOW;2006-03-03 08:00;METAR CYOW 030800Z 32012KT 15SM OVC035 M10/M15 A2993 RMK SC8 SLP143=
CYOW;2006-03-03 09:00;METAR CYOW 030900Z 32014KT 15SM BKN039 M11/M17 A2994 RMK SC7 SLP147=
CYOW;2006-03-03 10:00;METAR CYOW 031000Z 34020KT 15SM BKN035 M13/M19 A2997 RMK SC5 SLP156=
CYOW;2006-03-03 11:00;METAR CYOW 031100Z 34011G20KT 15SM FEW037 M14/M19 A2999 RMK SC2 SLP162=
CYOW;2006-03-03 12:00;METAR CYOW 031200Z 33014G20KT 15SM DRSN FEW039 FEW250 M14/M21 A3002 RMK SC1CI1 CI TR SLP175=
CYOW;2006-03-03 13:00;METAR CYOW 031300Z 30015KT 15SM DRSN FEW025 FEW250 M15/M21 A3003 RMK SC1CI0 SLP179=
CYOW;2006-03-03 14:00;METAR CYOW 031400Z 29016KT 15SM DRSN FEW025 FEW250 M15/M21 A3002 RMK SC1CI1 CLDS TR SLP175=
CYOW;2006-03-03 16:00;METAR CYOW 031600Z 28016G21KT 20SM DRSN BKN250 M12/M21 A2998 RMK CS3 SLP162=
CYOW;2006-03-03 17:00;METAR CYOW 031700Z 28019KT 20SM DRSN FEW120 BKN240 M10/M20 A2996 RMK AC1CS6 AC TR SLP156=
CYOW;2006-03-03 18:00;METAR CYOW 031800Z 29018G24KT 20SM DRSN FEW090 BKN150 BKN240 M10/M19 A2994 RMK AC1AS4CS2 SLP149=
CYOW;2006-03-03 20:00;METAR CYOW 032000Z 29018G30KT 20SM DRSN OVC120 M07/M17 A2988 RMK AS8 SLP127=
CYOW;2006-03-03 21:00;METAR CYOW 032100Z 29018G29KT 20SM DRSN OVC100 M07/M17 A2989 RMK AS8 SLP129=
CYOW;2006-03-03 22:00;METAR CYOW 032200Z 30012G20KT 15SM DRSN OVC050 M07/M15 A2990 RMK SC8 SLP132=
CYOW;2006-03-03 23:00;METAR CYOW 032300Z 31017G22KT 15SM DRSN OVC044 M06/M13 A2990 RMK SC8 SLP133=
CYOW;2006-03-04 00:00;METAR CYOW 040000Z 31014G19KT 15SM BKN040 OVC080 M06/M12 A2992 RMK SC5AC3 SLP140=
CYOW;2006-03-04 01:00;METAR CYOW 040100Z 31016G25KT 15SM SCT040 OVC088 M06/M12 A2991 RMK SC3AS3 SLP138=
CYOW;2006-03-04 03:00;METAR CYOW 040300Z 30014KT 15SM VCSH FEW033 BKN080 M07/M12 A2992 RMK SC2AC3 SLP142=
CYOW;2006-03-04 03:19;SPECI CYOW 040319Z 30011G18KT 12SM -SN BKN030 BKN080 M07/ RMK SC5AC2=
CYOW;2006-03-04 04:33;SPECI CYOW 040433Z 30014G21KT 15SM DRSN BKN030 OVC050 M07/ RMK SC6SC2=
CYOW;2006-03-04 08:00;METAR CYOW 040800Z 30018KT 15SM DRSN BKN037 M08/M11 A2993 RMK SC6 SLP143=
CYOW;2006-03-04 09:00;METAR CYOW 040900Z 30014KT 15SM DRSN OVC027 M07/M11 A2995 RMK SC7 SLP150=
CYOW;2006-03-04 10:00;METAR CYOW 041000Z 31014KT 12SM -SN DRSN BKN027 M08/M11 A2995 RMK SC5 SLP151=
CYOW;2006-03-04 11:00;METAR CYOW 041100Z 30015KT 15SM -SN DRSN OVC036 M07/M10 A2995 RMK SC8 SLP151=
CYOW;2006-03-04 12:00;METAR CYOW 041200Z 30016KT 15SM DRSN BKN023 OVC034 M07/M11 A2996 RMK SC6SC2 SLP152=
CYOW;2006-03-04 13:00;METAR CYOW 041300Z 30017G24KT 10SM VCSH OVC030 M07/M11 A2996 RMK SC8 SLP155=
CYOW;2006-03-04 13:17;SPECI CYOW 041317Z 30017KT 8SM -SHSN OVC037 M07/ RMK SC8 CVCTV CLD EMBD=
CYOW;2006-03-04 14:00;METAR CYOW 041400Z 29014G19KT 15SM DRSN OVC030 M07/M11 A2997 RMK SC8 VIRGA SLP158=
CYOW;2006-03-04 15:33;SPECI CYOW 041533Z 29017G26KT 12SM -SHSN DRSN BKN030 M07/ RMK SC6 CVCTV CLD EMBD=
CYOW;2006-03-04 17:00;METAR CYOW 041700Z 29020G25KT 20SM DRSN FEW080 M05/M12 A2996 RMK AC1 SLP152=
CYOW;2006-03-04 18:00;METAR CYOW 041800Z 29014G19KT 20SM DRSN FEW080 M03/M12 A2993 RMK AC1 SLP143=
CYOW;2006-03-04 19:00;METAR CYOW 041900Z 29014G19KT 20SM DRSN FEW080 M01/M11 A2992 RMK AC1 SLP139=
CYOW;2006-03-04 20:00;METAR CYOW 042000Z 28016G21KT 20SM DRSN FEW080 00/M11 A2992 RMK AC2 SLP138=
CYOW;2006-03-04 21:00;METAR CYOW 042100Z 29014G19KT 20SM FEW080 01/M11 A2992 RMK AC1 SLP140=
CYOW;2006-03-04 22:00;METAR CYOW 042200Z 29012KT 20SM FEW080 01/M11 A2994 RMK AC1 SLP145=
CYOW;2006-03-04 23:00;METAR CYOW 042300Z 29010KT 20SM FEW080 FEW210 FEW260 00/M12 A2998 RMK AC1CI1CI1 CLDS TR SLP159=
CYOW;2006-03-05 00:00;METAR CYOW 050000Z 30010KT 15SM FEW120 FEW240 M02/M11 A3001 RMK AC1CI1 CLDS TR SLP168=
CYOW;2006-03-05 01:00;METAR CYOW 050100Z 31010KT 15SM SKC M02/M12 A3002 RMK SLP173=
CYOW;2006-03-05 04:00;METAR CYOW 050400Z 33013KT 15SM SKC M03/M14 A3006 RMK SLP188=
CYOW;2006-03-05 06:00;METAR CYOW 050600Z 33014KT 15SM SKC M04/M14 A3008 RMK SLP194=
CYOW;2006-03-05 07:00;METAR CYOW 050700Z 32010KT 15SM FEW100 M05/M14 A3009 RMK AC1 SLP195=
CYOW;2006-03-05 09:00;METAR CYOW 050900Z 32008KT 15SM SKC M07/M14 A3010 RMK SLP198=
CYOW;2006-03-05 11:00;METAR CYOW 051100Z 31013KT 15SM SKC M07/M15 A3011 RMK SLP204=
CYOW;2006-03-05 12:00;METAR CYOW 051200Z 31011KT 20SM SKC M08/M15 A3012 RMK SLP207=
CYOW;2006-03-05 13:00;METAR CYOW 051300Z 32015KT 20SM FEW100 M08/M15 A3011 RMK AC1 SLP205=
CYOW;2006-03-05 14:00;METAR CYOW 051400Z 31012KT 20SM SKC M07/M14 A3011 RMK SLP204=
CYOW;2006-03-05 15:00;METAR CYOW 051500Z 29013KT 20SM SKC M07/M14 A3012 RMK SLP207=
CYOW;2006-03-05 16:00;METAR CYOW 051600Z 29014KT 20SM SKC M06/M13 A3011 RMK SLP205=
CYOW;2006-03-05 17:00;METAR CYOW 051700Z 28012G17KT 20SM SKC M04/M13 A3011 RMK SLP203=
CYOW;2006-03-05 18:00;METAR CYOW 051800Z 30014G20KT 20SM SKC M04/M13 A3008 RMK SLP195=
CYOW;2006-03-05 19:00;METAR CYOW 051900Z 27014KT 20SM SKC M03/M12 A3008 RMK SLP193=
CYOW;2006-03-05 20:00;METAR CYOW 052000Z 27012KT 20SM SKC M02/M11 A3007 RMK SLP190=
CYOW;2006-03-05 21:00;METAR CYOW 052100Z 30014KT 20SM SKC M02/M12 A3006 RMK SLP186=
CYOW;2006-03-05 22:00;METAR CYOW 052200Z 29013KT 20SM SKC M02/M12 A3006 RMK SLP188=
CYOW;2006-03-06 00:00;METAR CYOW 060000Z 36008KT 15SM SKC M03/M12 A3010 RMK SLP199=
CYOW;2006-03-06 01:00;METAR CYOW 060100Z 33018KT 15SM FEW150 M06/M13 A3011 RMK AC1 SLP205=
CYOW;2006-03-06 05:00;METAR CYOW 060500Z 34011KT 15SM FEW050 FEW100 M08/M14 A3010 RMK SC1AC1 CLDS TR SLP202=
CYOW;2006-03-06 08:00;METAR CYOW 060800Z 23004KT 15SM FEW050 M10/M14 A3008 RMK SC1 SLP195=
CYOW;2006-03-06 09:00;METAR CYOW 060900Z 29005KT 15SM SKC M11/M14 A3008 RMK FROIN SLP194=
CYOW;2006-03-06 10:00;METAR CYOW 061000Z 29006KT 15SM SKC M11/M14 A3008 RMK FROIN SLP193=
CYOW;2006-03-06 11:00;METAR CYOW 061100Z 29006KT 15SM SKC M12/M14 A3009 RMK FROIN SLP197=
CYOW;2006-03-06 12:00;METAR CYOW 061200Z 30008KT 20SM SKC M12/M15 A3010 RMK FROIN SLP200=
CYOW;2006-03-06 13:00;METAR CYOW 061300Z 30006KT 20SM FEW250 M12/M14 A3011 RMK CI1 SLP203=
CYOW;2006-03-06 14:00;METAR CYOW 061400Z 28005KT 20SM FEW250 M09/M14 A3011 RMK CI1 SLP205=
CYOW;2006-03-06 15:00;METAR CYOW 061500Z 28008KT 20SM FEW250 M08/M13 A3011 RMK CI1 SLP203=
CYOW;2006-03-06 16:00;METAR CYOW 061600Z 30007KT 20SM FEW250 M07/M14 A3009 RMK CI1 SLP199=
CYOW;2006-03-06 17:00;METAR CYOW 061700Z 28006KT 20SM FEW250 M06/M12 A3008 RMK CI1 SLP195=
CYOW;2006-03-06 18:00;METAR CYOW 061800Z 28007KT 20SM FEW250 M05/M12 A3007 RMK CI1 SLP190=
CYOW;2006-03-06 19:00;METAR CYOW 061900Z 29007KT 20SM FEW250 M04/M12 A3006 RMK CI1 SLP187=
CYOW;2006-03-06 20:00;METAR CYOW 062000Z 28010KT 20SM FEW250 M03/M11 A3005 RMK CI1 SLP184=
CYOW;2006-03-06 21:00;METAR CYOW 062100Z 30007KT 20SM FEW250 M03/M11 A3005 RMK CI1 SLP184=
CYOW;2006-03-06 22:00;METAR CYOW 062200Z 27007KT 20SM FEW250 M02/M12 A3006 RMK CI1 SLP187=
CYOW;2006-03-06 23:00;METAR CYOW 062300Z 30004KT 20SM FEW250 M04/M11 A3008 RMK CI1 SLP195=
CYOW;2006-03-07 00:00;METAR CYOW 070000Z 01009KT 15SM FEW250 M04/M12 A3011 RMK CI1 SLP205=
CYOW;2006-03-07 01:00;METAR CYOW 070100Z 36008KT 15SM SKC M05/M13 A3013 RMK SLP211=
CYOW;2006-03-07 03:00;METAR CYOW 070300Z 34011KT 15SM SKC M07/M14 A3016 RMK SLP220=
CYOW;2006-03-07 04:00;METAR CYOW 070400Z 32008KT 15SM SKC M08/M14 A3017 RMK SLP225=
CYOW;2006-03-07 06:00;METAR CYOW 070600Z 32011KT 15SM FEW250 M10/M15 A3017 RMK CI0 SLP226=
CYOW;2006-03-07 08:00;METAR CYOW 070800Z 33010KT 15SM SKC M11/M16 A3018 RMK SLP228=
CYOW;2006-03-07 09:00;METAR CYOW 070900Z 33011KT 15SM FEW250 M12/M16 A3019 RMK CI1 SLP231=
CYOW;2006-03-07 10:00;METAR CYOW 071000Z 33009KT 15SM SKC M12/M16 A3020 RMK SLP236=
CYOW;2006-03-07 11:00;METAR CYOW 071100Z 33007KT 15SM SKC M14/M16 A3022 RMK SLP240=
CYOW;2006-03-07 12:00;METAR CYOW 071200Z 30007KT 15SM SKC M14/M16 A3024 RMK SLP249=
CYOW;2006-03-07 13:00;METAR CYOW 071300Z 30007KT 15SM SKC M13/M16 A3026 RMK SLP257=
CYOW;2006-03-07 14:00;METAR CYOW 071400Z 30007KT 15SM SKC M11/M15 A3027 RMK SLP260=
CYOW;2006-03-07 15:00;METAR CYOW 071500Z 33005KT 15SM FEW100 M09/M14 A3027 RMK AC1 SLP260=
CYOW;2006-03-07 16:00;METAR CYOW 071600Z 31005KT 15SM FEW100 FEW260 M08/M13 A3026 RMK AC1CI0 AC TR SLP256=
CYOW;2006-03-07 18:00;METAR CYOW 071800Z 27007KT 15SM FEW220 BKN260 M06/M12 A3025 RMK CI1CI0 SLP252=
CYOW;2006-03-07 21:00;METAR CYOW 072100Z 28006KT 15SM FEW120 BKN160 BKN250 M04/M13 A3023 RMK AC2AC3CI0 SLP246=
CYOW;2006-03-07 22:00;METAR CYOW 072200Z 26007KT 15SM FEW120 FEW160 SCT250 M04/M12 A3023 RMK AC1AC2CI0 LO AC TR SLP247=
CYOW;2006-03-07 23:00;METAR CYOW 072300Z 27006KT 15SM FEW160 M05/M13 A3024 RMK AC1 SLP248=
CYOW;2006-03-08 00:00;METAR CYOW 080000Z 25006KT 15SM FEW150 M06/M13 A3023 RMK AC1 SLP245=
CYOW;2006-03-08 01:00;METAR CYOW 080100Z 26003KT 15SM SKC M06/M13 A3023 RMK SLP245=
CYOW;2006-03-08 04:00;METAR CYOW 080400Z 19004KT 15SM SKC M07/M14 A3021 RMK SLP240=
CYOW;2006-03-08 05:00;METAR CYOW 080500Z 22004KT 15SM SKC M09/M14 A3023 RMK SLP245=
CYOW;2006-03-08 06:00;METAR CYOW 080600Z 25002KT 15SM SKC M09/M14 A3022 RMK SLP241=
CYOW;2006-03-08 09:00;METAR CYOW 080900Z 22002KT 15SM SKC M11/M14 A3019 RMK SLP232=
CYOW;2006-03-08 10:00;METAR CYOW 081000Z 00000KT 15SM BKN210 M12/M14 A3019 RMK CI3 SLP233=
CYOW;2006-03-08 11:00;METAR CYOW 081100Z 00000KT 15SM BKN150 OVC210 M10/M13 A3019 RMK AC7CI0 SLP231=
CYOW;2006-03-08 12:00;METAR CYOW 081200Z 00000KT 15SM BKN160 OVC210 M11/M13 A3019 RMK AC5CI2 SLP231=
CYOW;2006-03-08 13:00;METAR CYOW 081300Z 08003KT 15SM BKN170 OVC210 M10/M12 A3017 RMK AC6CI2 SLP227=
CYOW;2006-03-08 14:00;METAR CYOW 081400Z 00000KT 15SM FEW140 SCT160 BKN210 M08/M12 A3017 RMK AC2AC2CI2 SLP227=
CYOW;2006-03-08 15:00;METAR CYOW 081500Z 07003KT 15SM FEW007 BKN150 OVC180 M07/M12 A3016 RMK SF1AC4AC1 SLP221=
CYOW;2006-03-08 16:00;METAR CYOW 081600Z 00000KT 15SM FEW007 FEW100 SCT150 BKN250 M04/M09 A3014 RMK SF1AC2AC1CI0 SLP215=
CYOW;2006-03-08 17:00;METAR CYOW 081700Z 07004KT 15SM FEW007 FEW100 BKN150 BKN250 M03/M08 A3011 RMK SF1AC2AC2CI0 SLP204=
CYOW;2006-03-08 18:00;METAR CYOW 081800Z 08006KT 15SM BKN110 OVC160 M03/M07 A3008 RMK AC5AC3 SLP193=
CYOW;2006-03-08 19:00;METAR CYOW 081900Z 09007KT 15SM FEW090 BKN130 OVC150 M02/M06 A3004 RMK AC2AC3AC2 SLP179=
CYOW;2006-03-08 20:00;METAR CYOW 082000Z 09007KT 15SM FEW090 BKN120 OVC150 M02/M07 A3002 RMK AC2AC3AC2 SLP175=
CYOW;2006-03-08 21:00;METAR CYOW 082100Z 08006KT 15SM FEW060 SCT090 BKN120 BKN150 M01/M07 A3001 RMK SC2AC2AC2AC1 SLP170=
CYOW;2006-03-08 22:00;METAR CYOW 082200Z 09010KT 15SM BKN090 OVC150 M01/M07 A2999 RMK AC5AC2 SLP163=
CYOW;2006-03-08 23:00;METAR CYOW 082300Z 09011KT 15SM BKN090 OVC150 M02/M08 A2999 RMK AC5AC3 SLP163=
CYOW;2006-03-09 00:00;METAR CYOW 090000Z 10012KT 15SM OVC092 M03/M09 A2999 RMK AC8 SLP164=
CYOW;2006-03-09 02:00;METAR CYOW 090200Z 09009KT 15SM OVC074 M03/M09 A2999 RMK AC8 SLP162=
CYOW;2006-03-09 03:00;METAR CYOW 090300Z 09007KT 15SM OVC063 M04/M09 A2998 RMK SC8 SLP159=
CYOW;2006-03-09 05:00;METAR CYOW 090500Z 08008KT 15SM OVC045 M04/M09 A2994 RMK SC8 SLP147=
CYOW;2006-03-09 06:00;METAR CYOW 090600Z 06008KT 15SM OVC048 M04/M10 A2993 RMK SC8 SLP143=
CYOW;2006-03-09 07:00;METAR CYOW 090700Z 07008KT 15SM OVC058 M04/M10 A2993 RMK SC8 SLP141=
CYOW;2006-03-09 08:00;METAR CYOW 090800Z 07009KT 15SM OVC066 M04/M10 A2989 RMK AC7 SLP130=
CYOW;2006-03-09 09:00;METAR CYOW 090900Z 07009KT 15SM OVC063 M05/M10 A2987 RMK SC8 SLP120=
CYOW;2006-03-09 10:00;METAR CYOW 091000Z 08010KT 15SM FEW075 OVC200 M05/M11 A2984 RMK AC2CI5 SLP112=
CYOW;2006-03-09 11:00;METAR CYOW 091100Z 08009KT 15SM BKN058 OVC200 M05/M10 A2984 RMK SC6CI2 SLP110=
CYOW;2006-03-09 12:00;METAR CYOW 091200Z 09012KT 15SM BKN049 OVC075 M05/M10 A2982 RMK SC5AC3 SLP103=
CYOW;2006-03-09 13:00;METAR CYOW 091300Z 08012KT 15SM OVC040 M04/M09 A2980 RMK SC8 SLP099=
CYOW;2006-03-09 13:36;SPECI CYOW 091336Z 08012KT 15SM -RA OVC041 M04/ RMK SC8=
CYOW;2006-03-09 13:50;SPECI CYOW 091350Z 09010KT 15SM -FZRA OVC039 M04/ RMK SC8=
CYOW;2006-03-09 14:00;METAR CYOW 091400Z 09011G16KT 15SM -FZRA OVC037 M04/M08 A2977 RMK SC8 SLP089=
CYOW;2006-03-09 16:00;METAR CYOW 091600Z 09012KT 4SM -FZRA BR OVC018 M02/M04 A2971 RMK SC8 SLP067=
CYOW;2006-03-09 17:00;METAR CYOW 091700Z 09012KT 3SM -FZRA BR OVC015 M02/M03 A2968 RMK SC8 SLP057=
CYOW;2006-03-09 18:00;METAR CYOW 091800Z 07009KT 3SM -FZRA BR OVC011 M01/M02 A2966 RMK SC8 SLP051=
CYOW;2006-03-09 18:30;SPECI CYOW 091830Z 06008KT 3SM -FZRA BR OVC007 M01/ RMK SC8 A RPT CIG 500 FT CIG RAG=
CYOW;2006-03-09 19:00;METAR CYOW 091900Z 08009KT 3SM -FZRA BR OVC006 M01/M02 A2963 RMK SC8 CIG RAG SLP041=
CYOW;2006-03-09 19:35;SPECI CYOW 091935Z 07007KT 1 1/2SM -FZRA BR OVC004 M01/ RMK SC8 CIG RAG=
CYOW;2006-03-09 19:40;SPECI CYOW 091940Z 08008KT 1 1/2SM -FZRA BR OVC004 M01/ RMK FG4SC4 CIG RAG=
CYOW;2006-03-09 20:00;METAR CYOW 092000Z 08008KT 3/4SM -FZRA BR OVC004 M00/M01 A2965 RMK FG5SC3 CIG VRBL 2-6 SLP046=
CYOW;2006-03-09 21:00;METAR CYOW 092100Z 08009KT 3/4SM -FZRA BR OVC004 M00/M00 A2963 RMK FG5SC3 CIG VRBL 2-6 SLP040=
CYOW;2006-03-09 22:00;METAR CYOW 092200Z 09007KT 3/4SM -RA BR OVC004 00/M00 A2962 REFZRA RMK FG5SC3 CIG VRBL 2-6 SLP037=
CYOW;2006-03-09 23:29;SPECI CYOW 092329Z 08006KT 3/4SM -RA BR VV001 01/ RMK FG8=
CYOW;2006-03-10 00:00;METAR CYOW 100000Z 09006KT 1SM -RA BR OVC002 01/00 A2962 RMK FG3NS5 SLP035=
CYOW;2006-03-10 00:36;SPECI CYOW 100036Z 09005KT 1/2SM -RA FG VV001 01/ RMK FG8=
CYOW;2006-03-10 02:19;SPECI CYOW 100219Z 09005KT 3/4SM -RA BR VV001 01/ RMK FG8 RA VRY LGT=
CYOW;2006-03-10 03:00;METAR CYOW 100300Z 09005KT 3/4SM -RA BR VV001 01/01 A2961 RMK FG8 SLP031=
CYOW;2006-03-10 03:18;SPECI CYOW 100318Z 09005KT 1SM -RA BR OVC026 01/ RMK FG2SC6=
CYOW;2006-03-10 04:00;METAR CYOW 100400Z 09006KT 3/4SM -RA BR OVC024 01/01 A2959 RMK FG2SC6 RA VRY LGT SLP024=
CYOW;2006-03-10 04:35;SPECI CYOW 100435Z 09005KT 3/4SM BR OVC024 01/ RMK FG2SC6=
CYOW;2006-03-10 05:00;METAR CYOW 100500Z 09005KT 1/2SM FG OVC024 01/01 A2955 RMK FG2SC6 SLP011=
CYOW;2006-03-10 05:18;SPECI CYOW 100518Z 09005KT 1/2SM -RA FG VV001 01/ RMK FG8=
CYOW;2006-03-10 07:00;METAR CYOW 100700Z 07007KT 3/8SM -RA FG VV001 02/02 A2947 RMK FG8 RA VRY LGT SLP984=
CYOW;2006-03-10 07:21;SPECI CYOW 100721Z 08006KT 3/8SM FG VV001 03/ RMK FG8=
CYOW;2006-03-10 08:00;METAR CYOW 100800Z 08006KT 3/8SM FG VV001 02/02 A2943 RMK FG8 SLP972=
CYOW;2006-03-10 08:29;SPECI CYOW 100829Z 08008KT 1SM BR OVC110 02/ RMK FG1AC7=
CYOW;2006-03-10 09:00;METAR CYOW 100900Z 06007KT 2SM BR BKN098 03/02 A2940 RMK AC7 SLP960=
CYOW;2006-03-10 10:00;METAR CYOW 101000Z 06008KT 2 1/2SM BR OVC150 03/02 A2937 RMK AC8 SLP951=
CYOW;2006-03-10 10:24;SPECI CYOW 101024Z 05008KT 1SM BR OVC150 02/ RMK FG1AC7=
CYOW;2006-03-10 11:00;METAR CYOW 101100Z 06006KT 2SM BR OVC160 02/02 A2937 RMK AC8 SLP950=
CYOW;2006-03-10 11:24;SPECI CYOW 101124Z 06008KT 1SM BR SCT110 BKN160 02/ RMK FG1AC3AC2=
CYOW;2006-03-10 12:00;METAR CYOW 101200Z 08008KT 3/4SM BR BKN130 OVC160 02/02 A2935 RMK FG2AC3AC2 SLP945=
CYOW;2006-03-10 13:00;METAR CYOW 101300Z 06008KT 3SM BR SCT060 OVC100 03/02 A2933 RMK SC3AC5 SLP939=
CYOW;2006-03-10 14:00;METAR CYOW 101400Z 11007KT 5SM BR FEW060 BKN070 OVC100 03/02 A2932 RMK SC2AC4AC1 SLP934=
CYOW;2006-03-10 15:00;METAR CYOW 101500Z 11003KT 6SM BR FEW060 BKN110 OVC160 04/03 A2932 RMK SC1AC4AC2 SLP932=
CYOW;2006-03-10 15:14;SPECI CYOW 101514Z 31005KT 6SM -RA BR SCT060 BKN100 OVC160 03/ RMK SC3AC2AC2=
CYOW;2006-03-10 16:00;METAR CYOW 101600Z 21005KT 8SM -RA BKN052 OVC100 08/06 A2932 RMK SC6AC2 VRY LGT RA SLP933=
CYOW;2006-03-10 16:51;SPECI CYOW 101651Z 21012G17KT 8SM BKN014 OVC050 08/ RMK SC5SC3=
CYOW;2006-03-10 17:00;METAR CYOW 101700Z 21014KT 8SM BKN015 OVC050 08/07 A2932 RMK SC5SC3 SLP934=
CYOW;2006-03-10 19:00;METAR CYOW 101900Z 22022KT 10SM OVC016 08/07 A2935 RMK SC8 SLP943=
CYOW;2006-03-10 19:15;SPECI CYOW 101915Z 23011G17KT 5SM -RA BR OVC013 08/ RMK SC8=
CYOW;2006-03-10 20:00;METAR CYOW 102000Z 23010KT 4SM -RA BR OVC013 07/07 A2941 RMK SC8 SLP961=
CYOW;2006-03-10 20:28;SPECI CYOW 102028Z 23012KT 10SM OVC016 07/ RMK SC8=
CYOW;2006-03-10 21:00;METAR CYOW 102100Z 28026G31KT 12SM OVC020 07/04 A2951 RMK SC8 PRESRR OCNL BINOVC SLP996=
CYOW;2006-03-10 22:00;METAR CYOW 102200Z 28024G30KT 15SM OVC018 05/02 A2961 RMK SC8 PRESRR SLP030=
CYOW;2006-03-11 00:00;METAR CYOW 110000Z 28015G22KT 12SM OVC024 04/M00 A2977 RMK SC8 PRESRR SLP086=
CYOW;2006-03-11 01:00;METAR CYOW 110100Z 29014G19KT 12SM OVC027 04/M01 A2984 RMK SC8 PRESRR SLP110=
CYOW;2006-03-11 03:00;METAR CYOW 110300Z 26007KT 15SM BKN030 03/M01 A2993 RMK SC6 SLP139=
CYOW;2006-03-11 04:00;METAR CYOW 110400Z 26006KT 15SM BKN048 02/M01 A2996 RMK SC6 SLP150=
CYOW;2006-03-11 06:00;METAR CYOW 110600Z 23004KT 15SM OVC054 02/M01 A3001 RMK SC8 SLP167=
CYOW;2006-03-11 07:00;METAR CYOW 110700Z 23005KT 15SM OVC050 03/M01 A3004 RMK SC8 SLP175=
CYOW;2006-03-11 08:00;METAR CYOW 110800Z 25003KT 15SM OVC051 02/M01 A3005 RMK SC8 SLP178=
CYOW;2006-03-11 09:00;METAR CYOW 110900Z 23005KT 15SM OVC057 02/M00 A3008 RMK SC8 SLP190=
CYOW;2006-03-11 10:00;METAR CYOW 111000Z 23006KT 15SM OVC059 02/M00 A3012 RMK SC8 SLP203=
CYOW;2006-03-11 11:00;METAR CYOW 111100Z 26006KT 12SM OVC058 02/M00 A3015 RMK SC8 SLP213=
CYOW;2006-03-11 12:00;METAR CYOW 111200Z 26006KT 12SM BKN055 02/M00 A3017 RMK SC6 SLP221=
CYOW;2006-03-11 13:00;METAR CYOW 111300Z 24003KT 12SM BKN055 02/M00 A3020 RMK SC6 SLP232=
CYOW;2006-03-11 15:00;METAR CYOW 111500Z 24005KT 15SM FEW055 05/00 A3022 RMK SC1 SLP240=
CYOW;2006-03-11 16:00;METAR CYOW 111600Z 20007KT 15SM FEW020 FEW060 07/M00 A3022 RMK CU2SC1 SLP237=
CYOW;2006-03-11 17:00;METAR CYOW 111700Z 22007KT 20SM FEW030 FEW240 08/M02 A3021 RMK CU1CI1 SLP236=
CYOW;2006-03-11 18:00;METAR CYOW 111800Z 22007KT 20SM FEW030 FEW240 08/M03 A3021 RMK CU1CI1 SLP235=
CYOW;2006-03-11 19:00;METAR CYOW 111900Z 25007KT 20SM FEW240 08/M02 A3020 RMK CI1 SLP230=
CYOW;2006-03-11 20:00;METAR CYOW 112000Z 22005KT 20SM FEW240 09/M02 A3020 RMK CI1 SLP230=
CYOW;2006-03-11 21:00;METAR CYOW 112100Z 23008KT 20SM SCT240 09/M02 A3020 RMK CI1 SLP232=
CYOW;2006-03-11 22:00;METAR CYOW 112200Z 22005KT 20SM FEW240 09/M01 A3020 RMK CI0 SLP230=
CYOW;2006-03-11 23:00;METAR CYOW 112300Z 19005KT 20SM SKC 08/M02 A3019 RMK SLP229=
CYOW;2006-03-12 00:00;METAR CYOW 120000Z 20008KT 15SM SKC 06/M01 A3022 RMK SLP239=
CYOW;2006-03-12 01:00;METAR CYOW 120100Z 20007KT 15SM SKC 05/00 A3022 RMK SLP240=
CYOW;2006-03-12 03:00;METAR CYOW 120300Z 20005KT 15SM SKC 04/M01 A3022 RMK SLP238=
CYOW;2006-03-12 04:00;METAR CYOW 120400Z 19006KT 15SM SKC 03/M01 A3020 RMK SLP231=
CYOW;2006-03-12 05:00;METAR CYOW 120500Z 17005KT 15SM SKC 02/M02 A3017 RMK SLP223=
CYOW;2006-03-12 06:00;METAR CYOW 120600Z 17003KT 15SM SKC 02/M02 A3017 RMK SLP222=
CYOW;2006-03-12 07:00;METAR CYOW 120700Z 12005KT 15SM FEW250 M00/M03 A3013 RMK CI0 PRESFR PAST 1/2 HR SLP207=
CYOW;2006-03-12 08:00;METAR CYOW 120800Z 11005KT 15SM SCT250 M00/M02 A3009 RMK CS0 SLP194=
CYOW;2006-03-12 09:00;METAR CYOW 120900Z 05003KT 15SM BKN250 M00/M02 A3008 RMK CS0 FROIN SLP190=
CYOW;2006-03-12 10:00;METAR CYOW 121000Z 04006KT 15SM BKN240 M01/M02 A3005 RMK CS0 FROIN SLP179=
CYOW;2006-03-12 11:00;METAR CYOW 121100Z 09006KT 12SM BKN058 BKN240 M01/M02 A3001 RMK SC6CS1 FROIN SLP167=
CYOW;2006-03-12 12:00;METAR CYOW 121200Z 05006KT 12SM BKN052 BKN080 OVC240 M00/M02 A2998 RMK SC5AC2CS0 FROIN SLP157=
CYOW;2006-03-12 13:00;METAR CYOW 121300Z 05005KT 10SM OVC070 01/M02 A2995 RMK AC8 SLP147=
CYOW;2006-03-12 14:00;METAR CYOW 121400Z 06004KT 10SM -RA OVC060 01/M02 A2993 RMK SC8 RA VRY LGT SLP141=
CYOW;2006-03-12 15:00;METAR CYOW 121500Z 35004KT 10SM -RA OVC044 01/M01 A2993 RMK SC8 RA VRY LGT SLP141=
CYOW;2006-03-12 15:43;SPECI CYOW 121543Z 34002KT 2SM -RA BR OVC040 01/ RMK SC8=
CYOW;2006-03-12 16:00;METAR CYOW 121600Z 00000KT 2SM -RA BR OVC038 01/00 A2992 RMK SC8 SLP137=
CYOW;2006-03-12 17:00;METAR CYOW 121700Z 00000KT 2SM -RA BR BKN020 OVC038 02/01 A2992 RMK SC6SC2 SLP137=
CYOW;2006-03-12 18:00;METAR CYOW 121800Z 16003KT 2SM -RA BR BKN068 BKN120 02/02 A2987 RMK AC6AC2 SLP121=
CYOW;2006-03-12 18:46;SPECI CYOW 121846Z 19009KT 4SM BR FEW004 SCT120 BKN240 04/ RMK SF1AC3CI0=
CYOW;2006-03-12 19:00;METAR CYOW 121900Z 20008KT 4SM BR FEW004 FEW070 BKN120 04/04 A2985 RMK SF1AC2AC5 TR SF SLP114=
CYOW;2006-03-12 20:00;METAR CYOW 122000Z 28004KT 4SM BR OVC006 05/04 A2989 RMK ST8 SLP128=
CYOW;2006-03-12 21:00;METAR CYOW 122100Z 32007KT 5SM BR OVC007 04/03 A2989 RMK ST8 SLP128=
CYOW;2006-03-12 22:00;METAR CYOW 122200Z 00000KT 5SM BR BKN006 OVC120 06/05 A2989 RMK ST6AS2 SLP128=
CYOW;2006-03-12 22:20;SPECI CYOW 122220Z 00000KT 5SM BR FEW006 SCT240 06/ RMK ST2CI0=
CYOW;2006-03-12 23:54;SPECI CYOW 122354Z 12002KT 2SM BR BKN250 05/ RMK FG4CI1 VIS VRB 1-3=
CYOW;2006-03-13 00:00;METAR CYOW 130000Z 12002KT 2SM BR BKN250 04/04 A2992 RMK FG4CI1 VIS VRB 1-3 SLP137=
CYOW;2006-03-13 00:31;SPECI CYOW 130031Z 16005KT 1/4SM FG VV001 04/ RMK FG8 VIS VRB 1-8-3/8 MOON VISBL=
CYOW;2006-03-13 00:37;SPECI CYOW 130037Z 17005KT 0SM FG VV000 05/ RMK FG8 MOON DIMLY VISBL=
CYOW;2006-03-13 01:00;METAR CYOW 130100Z 20003KT 0SM FG VV001 04/04 A2993 RMK FG8 MOON DIMLY VISBL SLP140=
CYOW;2006-03-13 02:22;SPECI CYOW 130222Z 25003KT 0SM FG VV001 02/ RMK FG8 MOON DIMLY VISBL=
CYOW;2006-03-13 03:06;SPECI CYOW 130306Z 26003KT 1/4SM FG SKC 01/ RMK FG6=
CYOW;2006-03-13 03:31;SPECI CYOW 130331Z 26003KT 1/8SM FG VV001 00/ RMK FG8 MOON DIMLY VISBL=
CYOW;2006-03-13 03:47;SPECI CYOW 130347Z 26003KT 1/8SM FZFG VV001 M00/ RMK FG8 MOON DIMLY VISBL=
CYOW;2006-03-13 04:00;METAR CYOW 130400Z 24002KT 0SM FZFG VV001 M00/M00 A2995 RMK FG8 MOON DIMLY VISBL SLP148=
CYOW;2006-03-13 05:00;METAR CYOW 130500Z 25002KT 0SM FZFG VV001 M01/M01 A2996 RMK FG8 MOON DIMLY VISBL SLP150=
CYOW;2006-03-13 05:37;SPECI CYOW 130537Z 24002KT 1/4SM FZFG SKC M01/ RMK FG6=
CYOW;2006-03-13 06:00;METAR CYOW 130600Z 24003KT 1/4SM FZFG SKC M01/M02 A2997 RMK FG6 SLP154=
CYOW;2006-03-13 06:28;SPECI CYOW 130628Z 24004KT 1/2SM FZFG FEW025 M01/ RMK FG1SC2=
CYOW;2006-03-13 06:41;SPECI CYOW 130641Z 23004KT 3/4SM BR FEW025 SCT150 M01/ RMK FG1SC1AC1 VIS VRB 1/2-1=
CYOW;2006-03-13 07:00;METAR CYOW 130700Z 18002KT 3/8SM FZFG FEW090 BKN250 M02/M02 A2997 RMK FG2AC1CS1 VIS VRB 1/4-1/2 SLP155=
CYOW;2006-03-13 07:23;SPECI CYOW 130723Z 18002KT 1SM BR BKN150 M01/ RMK FG1AS3=
CYOW;2006-03-13 08:00;METAR CYOW 130800Z 17002KT 1/2SM FZFG OVC120 M00/M01 A2995 RMK FG2AS6 VIS NW 11/2 MOON DIMLY VISBL SLP147=
CYOW;2006-03-13 08:37;SPECI CYOW 130837Z 00000KT 3/4SM BR OVC140 M00/ RMK FG2AS6 VIS VRB 1/2-1 FROIN MOON DIMLY VISBL=
CYOW;2006-03-13 09:00;METAR CYOW 130900Z 00000KT 3SM BR OVC150 M01/M01 A2993 RMK AS7 FROIN MOON DIMLY VISBL SLP141=
CYOW;2006-03-13 10:00;METAR CYOW 131000Z 17003KT 5SM BR FEW100 BKN160 BKN240 M01/M01 A2992 RMK AC2AC3CI1 FROIN SLP137=
CYOW;2006-03-13 11:00;METAR CYOW 131100Z 10002KT 1 3/4SM BR BKN150 BKN250 M01/M01 A2991 RMK FG1AC4CI0 FROIN SLP135=
CYOW;2006-03-13 11:09;SPECI CYOW 131109Z 00000KT 3/4SM BR BKN150 BKN250 M01/ RMK FG2AC3CI0 VIS VRB 1/2-1 FROIN=
CYOW;2006-03-13 11:43;SPECI CYOW 131143Z 06004KT 0SM FZFG VV000 M01/ RMK FG8=
CYOW;2006-03-13 12:00;METAR CYOW 131200Z 07006KT 0SM FZFG VV001 M01/M01 A2989 RMK FG8 SLP127=
CYOW;2006-03-13 13:00;METAR CYOW 131300Z 06007KT 0SM FZFG VV001 M01/M01 A2987 RMK FG8 SLP120=
CYOW;2006-03-13 13:35;SPECI CYOW 131335Z 04011KT 1/4SM FZFG VV002 M01/ RMK FG8=
CYOW;2006-03-13 13:45;SPECI CYOW 131345Z 05007KT 1/2SM FZFG OVC002 M00/ RMK FG6SF2=
CYOW;2006-03-13 14:00;METAR CYOW 131400Z 04007KT 1/2SM FZFG OVC002 M01/M01 A2984 RMK FG6SF2 SLP109=
CYOW;2006-03-13 14:26;SPECI CYOW 131426Z 04007KT 1/2SM -FZRA FZFG OVC002 M00/ RMK FG6SF2=
CYOW;2006-03-13 14:50;SPECI CYOW 131450Z 04010KT 3/4SM -FZRA BR OVC002 M00/ RMK FG5SF3=
CYOW;2006-03-13 15:00;METAR CYOW 131500Z 04010KT 3/4SM -FZRA BR OVC002 M00/M00 A2982 RMK FG5SF3 SLP104=
CYOW;2006-03-13 15:31;SPECI CYOW 131531Z 05009KT 1SM -FZRA BR SCT002 OVC020 M00/ RMK FG3SF1NS4=
CYOW;2006-03-13 16:00;METAR CYOW 131600Z 06010KT 1SM -RA BR OVC002 00/00 A2974 REFZRA RMK FG4SF4 PRESFR SFC TEMP +0.4 SLP078=
CYOW;2006-03-13 16:43;SPECI CYOW 131643Z 07010KT 3SM -RA BR BKN004 OVC030 01/ RMK SF6NS2=
CYOW;2006-03-13 17:00;METAR CYOW 131700Z 08009KT 4SM -RA BR SCT004 OVC030 01/01 A2971 RMK SF3NS5 SLP068=
CYOW;2006-03-13 18:00;METAR CYOW 131800Z 08013G18KT 5SM -RA BR BKN008 OVC040 02/02 A2962 RMK SF6NS2 PRESFR SLP037=
CYOW;2006-03-13 19:00;METAR CYOW 131900Z 08012G17KT 2SM -RA BR OVC007 03/02 A2962 RMK SF8 SLP034=
CYOW;2006-03-13 19:30;SPECI CYOW 131930Z 05011KT 1 1/2SM -DZ BR OVC003 02/ RMK ST8=
CYOW;2006-03-13 20:00;METAR CYOW 132000Z 07017KT 1 1/2SM -DZ BR OVC004 02/02 A2958 RMK ST8 CIG VRB 3-5 SLP023=
CYOW;2006-03-13 21:00;METAR CYOW 132100Z 06013KT 1 1/2SM -DZ BR OVC004 02/02 A2958 RMK ST8 CIG VRB 3 - 5 SLP021=
CYOW;2006-03-13 22:53;SPECI CYOW 132253Z 08008G17KT 1 1/2SM -DZ BR OVC003 01/ RMK ST8 CIG VRB 2-4=
CYOW;2006-03-13 23:00;METAR CYOW 132300Z 08008G15KT 1SM -DZ BR OVC003 01/01 A2953 RMK ST8 CIG VRB 2-4 SLP007=
CYOW;2006-03-13 23:33;SPECI CYOW 132333Z 09013KT 1 1/4SM -DZ BR OVC002 02/ RMK ST8=
CYOW;2006-03-14 00:00;METAR CYOW 140000Z 08010G16KT 1 1/4SM -DZ BR OVC002 02/01 A2952 RMK ST8 SLP001=
CYOW;2006-03-14 00:38;SPECI CYOW 140038Z 08013G18KT 3/4SM -RA BR OVC002 02/ RMK FG3ST5 CIG VRB 1-3=
CYOW;2006-03-14 01:00;METAR CYOW 140100Z 09010G16KT 1SM -RA BR OVC002 01/01 A2946 RMK FG2ST6 CIG VRB 1-3 SLP983=
CYOW;2006-03-14 01:24;SPECI CYOW 140124Z 08012KT 1SM -DZ BR OVC002 01/ RMK FG2ST6 CIG VRB 1-3=
CYOW;2006-03-14 01:54;SPECI CYOW 140154Z 09012KT 3/4SM -DZ BR OVC001 01/ RMK FG4ST4=
CYOW;2006-03-14 02:00;METAR CYOW 140200Z 08010KT 3/4SM -DZ BR OVC001 01/01 A2943 RMK FG4ST4 SLP972=
CYOW;2006-03-14 02:51;SPECI CYOW 140251Z 07009KT 1/2SM -DZ FG VV001 01/ RMK FG8=
CYOW;2006-03-14 03:00;METAR CYOW 140300Z 07009KT 3/8SM -DZ FG VV001 01/01 A2939 RMK FG8 SLP958=
CYOW;2006-03-14 04:52;SPECI CYOW 140452Z 10012KT 1/4SM -TSRA FG VV001 02/ RMK FG8 CB EMBD LTGIC=
CYOW;2006-03-14 05:00;METAR CYOW 140500Z 11009G15KT 3/8SM -TSRA FG VV001 02/02 A2931 RMK FG8 CB EMBD LTGIC SLP932=
CYOW;2006-03-14 05:13;SPECI CYOW 140513Z 10011KT 1 3/4SM -TSRA BR OVC002 02/ RMK FG3ST5 CB EMBD LTGIC=
CYOW;2006-03-14 05:37;SPECI CYOW 140537Z 08007KT 1/2SM -TSRA FG VV001 02/ RMK FG8 CB EMBD LTGIC=
CYOW;2006-03-14 05:48;SPECI CYOW 140548Z 06004KT 3/8SM -DZ FG VV001 02/ RETS RMK FG8=
CYOW;2006-03-14 06:00;METAR CYOW 140600Z 07006KT 1/4SM -DZ FG VV001 02/02 A2926 RETS RMK FG8 SLP913=
CYOW;2006-03-14 06:26;SPECI CYOW 140626Z 08004KT 1/4SM FG VV001 01/ RMK FG8=
CYOW;2006-03-14 07:00;METAR CYOW 140700Z 09006KT 1/4SM FG VV001 01/01 A2922 RMK FG8 SLP900=
CYOW;2006-03-14 08:00;METAR CYOW 140800Z 09003KT 1/4SM FG VV001 02/02 A2922 RMK FG8 SLP899=
CYOW;2006-03-14 08:40;SPECI CYOW 140840Z 27009G15KT 1 1/2SM BR BKN002 OVC018 03/ RMK SF5SC3=
CYOW;2006-03-14 08:47;SPECI CYOW 140847Z 27009KT 1 3/4SM -RA BR BKN003 OVC018 03/ RMK SF5SC3=
CYOW;2006-03-14 09:00;METAR CYOW 140900Z 27006KT 5SM BR SCT003 OVC025 03/03 A2924 RMK SF3SC5 VIS NW 2 SLP905=
CYOW;2006-03-14 10:00;METAR CYOW 141000Z 22005KT 10SM FEW004 SCT026 OVC061 03/02 A2928 RMK SF1SC2SC4 SLP920=
CYOW;2006-03-14 11:00;METAR CYOW 141100Z 24010KT 15SM FEW006 FEW025 BKN064 03/02 A2928 RMK SF1SC2SC5 SF TR SLP920=
CYOW;2006-03-14 12:00;METAR CYOW 141200Z 22012KT 15SM FEW010 OVC062 04/M01 A2929 RMK SF2SC6 SLP924=
CYOW;2006-03-14 13:00;METAR CYOW 141300Z 23022G31KT 15SM OVC047 04/M04 A2931 RMK SC8 SLP928=
CYOW;2006-03-14 14:00;METAR CYOW 141400Z 23013G21KT 15SM BKN041 03/M03 A2931 RMK SC7 SLP928=
CYOW;2006-03-14 15:00;METAR CYOW 141500Z 23021G27KT 15SM SCT045 BKN052 BKN070 02/M04 A2932 RMK SC3SC2AC1 SLP932=
CYOW;2006-03-14 16:00;METAR CYOW 141600Z 25023G34KT 15SM BKN060 BKN150 02/M07 A2932 RMK SC5AC2 SLP933=
CYOW;2006-03-14 17:00;METAR CYOW 141700Z 24022G32KT 15SM BKN052 02/M08 A2932 RMK SC7 SLP933=
CYOW;2006-03-14 18:00;METAR CYOW 141800Z 24017G25KT 15SM OVC052 02/M08 A2930 RMK SC8 SLP925=
CYOW;2006-03-14 19:00;METAR CYOW 141900Z 25014G25KT 15SM OVC058 02/M08 A2932 RMK SC8 SLP934=
CYOW;2006-03-14 20:00;METAR CYOW 142000Z 25017G29KT 15SM OVC065 02/M07 A2933 RMK SC8 SLP935=
CYOW;2006-03-14 21:00;METAR CYOW 142100Z 23017G22KT 15SM OVC058 01/M07 A2934 RMK SC8 SLP940=
CYOW;2006-03-14 21:53;SPECI CYOW 142153Z 24020G25KT 12SM -SN OVC045 00/ RMK SC8=
CYOW;2006-03-14 22:25;SPECI CYOW 142225Z 23019G28KT 1SM -SN OVC011 M01/ RMK SN6SF2=
CYOW;2006-03-14 22:34;SPECI CYOW 142234Z 24017G26KT 3/4SM -SN VV006 M01/ RMK SN8=
CYOW;2006-03-14 22:37;SPECI CYOW 142237Z 24014G26KT 2SM -SN OVC037 M01/ RMK SN3SC5=
CYOW;2006-03-14 22:52;SPECI CYOW 142252Z 24013KT 10SM -SN OVC043 00/ RMK SC8 VRY LGT SN=
CYOW;2006-03-14 23:00;METAR CYOW 142300Z 23012KT 10SM -SN OVC050 00/M05 A2937 RMK SC8 VRY LGT SN SLP951=
CYOW;2006-03-14 23:19;SPECI CYOW 142319Z 23015KT 10SM DRSN BKN043 OVC090 M00/ RMK SC6AC2=
CYOW;2006-03-14 23:48;SPECI CYOW 142348Z 24014G22KT 15SM -SN OVC046 M00/ RMK SC8=
CYOW;2006-03-15 00:00;METAR CYOW 150000Z 26018KT 15SM -SN OVC034 M00/M06 A2939 RMK SC8 SLP956=
CYOW;2006-03-15 01:00;METAR CYOW 150100Z 26012KT 10SM -SN BKN034 OVC140 M01/M05 A2940 RMK SC6AS2 MOON VISBL SLP961=
CYOW;2006-03-15 01:10;SPECI CYOW 150110Z 28015KT 1SM -SHSN VV005 M02/ RMK SN8 CVCTV CLDS EMBD=
CYOW;2006-03-15 01:22;SPECI CYOW 150122Z 26013KT 5SM -SN FEW020 OVC037 M02/ RMK CF1SC7 VIS E 2 SHSN=
CYOW;2006-03-15 03:00;METAR CYOW 150300Z 27013KT 15SM SCT050 OVC150 M02/M07 A2941 RMK SC3AC4 INTMT -SN SLP964=
CYOW;2006-03-15 04:00;METAR CYOW 150400Z 26015KT 15SM -SN FEW025 SCT050 SCT150 M03/M06 A2942 RMK CF1SC2AC1 SN VRY LGT SLP966=
CYOW;2006-03-15 05:00;METAR CYOW 150500Z 27015G21KT 15SM FEW025 BKN120 M03/M09 A2941 RMK CF1AC6 SLP965=
CYOW;2006-03-15 06:00;METAR CYOW 150600Z 27015G20KT 15SM FEW025 FEW060 OVC120 M03/M10 A2944 RMK CF1SC2AC6 MOON VISBL SLP974=
CYOW;2006-03-15 07:00;METAR CYOW 150700Z 29015G22KT 12SM -SN FEW060 OVC100 M04/M09 A2945 RMK SC2AC3 SN VRY LGT SLP980=
CYOW;2006-03-15 08:32;SPECI CYOW 150832Z 28012G18KT 15SM FEW027 BKN096 M06/ RMK SC1AC6=
CYOW;2006-03-15 09:00;METAR CYOW 150900Z 27012G19KT 15SM -SN FEW025 OVC110 M05/M10 A2950 RMK SC1AC7 SN VRY LGT SLP994=
CYOW;2006-03-15 11:00;METAR CYOW 151100Z 26011KT 10SM -SN OVC033 M05/M10 A2953 RMK SC8 SN VRY LGT SLP006=
CYOW;2006-03-15 11:50;SPECI CYOW 151150Z 28010G16KT 1 1/2SM -SN DRSN VV010 M06/ RMK SN8=
CYOW;2006-03-15 12:00;METAR CYOW 151200Z 28016G21KT 10SM DRSN BKN029 M06/M09 A2956 RMK SC6 SLP015=
CYOW;2006-03-15 13:00;METAR CYOW 151300Z 30017KT 12SM SCT020 OVC031 M06/M12 A2958 RMK SC3SC4 SLP022=
CYOW;2006-03-15 14:00;METAR CYOW 151400Z 28019KT 10SM OVC033 M05/M12 A2959 RMK SC8 SLP025=
CYOW;2006-03-15 14:14;SPECI CYOW 151414Z 29018G26KT 3SM -SN OVC022 M05/ RMK SC8=
CYOW;2006-03-15 15:20;SPECI CYOW 151520Z 27017G26KT 10SM BKN031 M05/ RMK SC6=
CYOW;2006-03-15 16:00;METAR CYOW 151600Z 27019G27KT 12SM BKN040 M04/M10 A2961 RMK SC5 SLP032=
CYOW;2006-03-15 16:20;SPECI CYOW 151620Z 29017G26KT 8SM -SN BKN033 M04/ RMK SC6=
CYOW;2006-03-15 16:48;SPECI CYOW 151648Z 27019G24KT 10SM BKN042 M04/ RMK SC6=
CYOW;2006-03-15 17:00;METAR CYOW 151700Z 29017G24KT 10SM FEW030 BKN042 M04/M10 A2962 RMK SC2SC5 SLP035=
CYOW;2006-03-15 18:00;METAR CYOW 151800Z 29017G24KT 10SM -SHSN BKN037 M04/M11 A2962 RMK SC7 CVCTV CLDS EMBD VRY LGT SHSN SLP036=
CYOW;2006-03-15 18:34;SPECI CYOW 151834Z 29016G24KT 15SM OVC041 M03/ RMK SC8=
CYOW;2006-03-15 19:00;METAR CYOW 151900Z 29022G29KT 15SM BKN043 M03/M11 A2964 RMK SC7 SLP042=
CYOW;2006-03-15 20:00;METAR CYOW 152000Z 28022G30KT 15SM BKN048 M03/M11 A2965 RMK SC7 SLP048=
CYOW;2006-03-15 21:00;METAR CYOW 152100Z 29019G27KT 15SM OVC046 M03/M11 A2969 RMK SC7 SLP061=
CYOW;2006-03-15 22:00;METAR CYOW 152200Z 29018G27KT 15SM BKN047 M03/M11 A2971 RMK SC7 SLP069=
CYOW;2006-03-15 23:00;METAR CYOW 152300Z 29017G24KT 15SM SCT045 M03/M11 A2975 RMK SC4 SLP081=
CYOW;2006-03-16 00:00;METAR CYOW 160000Z 30016G24KT 15SM FEW038 BKN085 M04/M11 A2979 RMK SC2AC3 SLP094=
CYOW;2006-03-16 04:00;METAR CYOW 160400Z 29016KT 15SM FEW033 BKN086 OVC220 M05/M11 A2985 RMK SC1AC4CS2 SLP116=
CYOW;2006-03-16 06:00;METAR CYOW 160600Z 30019G25KT 15SM OVC110 M06/M12 A2989 RMK AC8 MOON VISBL SLP128=
CYOW;2006-03-16 07:00;METAR CYOW 160700Z 30017G24KT 15SM FEW025 OVC081 M06/M11 A2990 RMK SC1AC7 SLP132=
CYOW;2006-03-16 09:00;METAR CYOW 160900Z 31017KT 15SM FEW025 BKN090 M07/M13 A2993 RMK CF1AC7 SLP141=
CYOW;2006-03-16 10:00;METAR CYOW 161000Z 31017G22KT 15SM FEW130 M08/M12 A2994 RMK AC1 SLP145=
CYOW;2006-03-16 11:00;METAR CYOW 161100Z 29012KT 15SM FEW020 BKN050 M08/M12 A2996 RMK CF1SC6 SLP153=
CYOW;2006-03-16 12:00;METAR CYOW 161200Z 30012G17KT 15SM SCT050 M08/M13 A2998 RMK SC4 SLP161=
CYOW;2006-03-16 13:00;METAR CYOW 161300Z 30018G24KT 15SM FEW030 SCT050 M08/M13 A2999 RMK SC2SC2 SLP162=
CYOW;2006-03-16 14:00;METAR CYOW 161400Z 30016KT 15SM FEW050 FEW120 M07/M12 A3001 RMK SC1AC1 SC TR SLP169=
CYOW;2006-03-16 16:00;METAR CYOW 161600Z 29012G17KT 15SM FEW030 FEW080 M05/M11 A3001 RMK SC1AC1 CLDS TR SLP169=
CYOW;2006-03-16 17:00;METAR CYOW 161700Z 27012KT 15SM FEW030 FEW080 M04/M11 A3001 RMK SC1AC1 CLDS TR SLP169=
CYOW;2006-03-16 18:00;METAR CYOW 161800Z 28014KT 15SM FEW045 SCT070 M03/M10 A3000 RMK SC2AC2 SLP165=
CYOW;2006-03-16 19:00;METAR CYOW 161900Z 29014KT 15SM FEW045 FEW070 M03/M10 A2999 RMK SC1AC2 SLP161=
CYOW;2006-03-16 20:00;METAR CYOW 162000Z 29014G19KT 15SM FEW045 SCT070 M02/M10 A2998 RMK SC2AC2 SLP160=
CYOW;2006-03-16 21:00;METAR CYOW 162100Z 29014G20KT 15SM FEW045 SCT070 M02/M10 A2999 RMK SC2AC2 SLP162=
CYOW;2006-03-16 22:00;METAR CYOW 162200Z 29014G19KT 15SM SCT055 M02/M10 A2999 RMK SC3 SLP164=
CYOW;2006-03-16 23:00;METAR CYOW 162300Z 28012KT 15SM FEW055 M02/M10 A3002 RMK SC2 SLP171=
CYOW;2006-03-17 00:00;METAR CYOW 170000Z 30011G16KT 15SM FEW055 M03/M11 A3004 RMK SC2 SLP179=
CYOW;2006-03-17 01:00;METAR CYOW 170100Z 29008KT 15SM FEW055 M03/M11 A3005 RMK SC1 SLP183=
CYOW;2006-03-17 03:00;METAR CYOW 170300Z 30010KT 15SM SKC M04/M12 A3006 RMK SLP188=
CYOW;2006-03-17 04:00;METAR CYOW 170400Z 31008KT 15SM SKC M05/M12 A3006 RMK SLP187=
CYOW;2006-03-17 05:00;METAR CYOW 170500Z 30009KT 15SM SKC M06/M12 A3006 RMK SLP188=
CYOW;2006-03-17 07:00;METAR CYOW 170700Z 31008KT 15SM SKC M07/M14 A3007 RMK SLP191=
CYOW;2006-03-17 08:00;METAR CYOW 170800Z 32012KT 15SM SKC M07/M15 A3007 RMK SLP190=
CYOW;2006-03-17 09:00;METAR CYOW 170900Z 34010KT 15SM SKC M08/M14 A3008 RMK SLP192=
CYOW;2006-03-17 10:00;METAR CYOW 171000Z 32012KT 15SM SKC M09/M15 A3009 RMK SLP196=
CYOW;2006-03-17 11:00;METAR CYOW 171100Z 34012KT 15SM SKC M09/M16 A3010 RMK SLP201=
CYOW;2006-03-17 12:00;METAR CYOW 171200Z 32014KT 15SM SKC M10/M16 A3013 RMK SLP210=
CYOW;2006-03-17 13:00;METAR CYOW 171300Z 33012KT 15SM FEW050 M10/M16 A3014 RMK SC1 SLP216=
CYOW;2006-03-17 14:00;METAR CYOW 171400Z 32011KT 15SM FEW070 M09/M17 A3015 RMK AC1 SLP218=
CYOW;2006-03-17 16:00;METAR CYOW 171600Z 35010G16KT 15SM FEW060 M07/M16 A3013 RMK SC2 SLP212=
CYOW;2006-03-17 17:00;METAR CYOW 171700Z 30011G16KT 15SM FEW060 M06/M15 A3012 RMK SC2 SLP207=
CYOW;2006-03-17 18:00;METAR CYOW 171800Z 29014G20KT 15SM SCT060 M06/M15 A3010 RMK SC3 SLP200=
CYOW;2006-03-17 19:00;METAR CYOW 171900Z 28014KT 15SM BKN053 M05/M14 A3009 RMK SC7 SLP198=
CYOW;2006-03-17 20:00;METAR CYOW 172000Z 30016KT 20SM FEW030 BKN054 M05/M14 A3009 RMK SC1SC6 SLP197=
CYOW;2006-03-17 21:00;METAR CYOW 172100Z 31015KT 20SM BKN057 M05/M14 A3008 RMK SC6 SLP194=
CYOW;2006-03-17 22:00;METAR CYOW 172200Z 29013KT 20SM FEW060 FEW080 M05/M15 A3009 RMK SC2AC1 AC TR SLP196=
CYOW;2006-03-17 23:00;METAR CYOW 172300Z 33008KT 20SM FEW075 FEW250 M05/M14 A3009 RMK AC1CI1 SLP197=
CYOW;2006-03-18 00:00;METAR CYOW 180000Z 36008KT 15SM FEW090 FEW250 M05/M15 A3009 RMK AC1CI1 CI TR SLP197=
CYOW;2006-03-18 01:00;METAR CYOW 180100Z 34013KT 15SM FEW090 M06/M15 A3009 RMK AC1 SLP198=
CYOW;2006-03-18 02:00;METAR CYOW 180200Z 34011G17KT 15SM FEW100 M07/M14 A3009 RMK AC2 SLP197=
CYOW;2006-03-18 04:00;METAR CYOW 180400Z 33010KT 15SM BKN055 M08/M15 A3008 RMK SC6 SLP194=
CYOW;2006-03-18 05:00;METAR CYOW 180500Z 35008KT 15SM OVC055 M08/M15 A3006 RMK SC8 SLP189=
CYOW;2006-03-18 06:00;METAR CYOW 180600Z 32007KT 15SM OVC051 M07/M14 A3005 RMK SC8 SLP184=
CYOW;2006-03-18 07:00;METAR CYOW 180700Z 32009KT 15SM FEW050 OVC060 M07/M14 A3003 RMK SC1SC7 SLP178=
CYOW;2006-03-18 08:00;METAR CYOW 180800Z 31008KT 15SM FEW035 BKN045 OVC070 M08/M14 A3002 RMK SC2SC5AC2 SLP173=
CYOW;2006-03-18 09:00;METAR CYOW 180900Z 31013KT 15SM FEW045 OVC080 M08/M15 A3002 RMK SC1AC7 SLP172=
CYOW;2006-03-18 11:00;METAR CYOW 181100Z 30013KT 15SM BKN032 OVC090 M09/M15 A3000 RMK SC6AC2 SLP168=
CYOW;2006-03-18 12:00;METAR CYOW 181200Z 30012KT 15SM FEW030 OVC090 M10/M15 A3002 RMK SC2AC6 SLP172=
CYOW;2006-03-18 13:00;METAR CYOW 181300Z 31011G16KT 15SM FEW030 OVC090 M10/M15 A3002 RMK SC2AC6 SLP172=
CYOW;2006-03-18 15:00;METAR CYOW 181500Z 28013KT 12SM -SN BKN030 OVC090 M09/M14 A3000 RMK SC6AC2 SN FINE SLP168=
CYOW;2006-03-18 16:00;METAR CYOW 181600Z 29013KT 12SM OVC030 M08/M14 A2999 RMK SC8 INTMT -SN SLP165=
CYOW;2006-03-18 17:00;METAR CYOW 181700Z 28012G17KT 15SM BKN030 OVC090 M08/M13 A2998 RMK SC5AC3 INTMT -SN SLP162=
CYOW;2006-03-18 17:26;SPECI CYOW 181726Z 27012KT 15SM BKN033 OVC092 M08/ RMK SC5AC3=
CYOW;2006-03-18 20:00;METAR CYOW 182000Z 28013G20KT 15SM SCT035 OVC088 M07/M13 A2995 RMK SC3AC5 SLP150=
CYOW;2006-03-18 21:00;METAR CYOW 182100Z 26010G16KT 15SM FEW035 BKN078 M06/M13 A2994 RMK SC2AC5 SLP147=
CYOW;2006-03-18 22:00;METAR CYOW 182200Z 27014KT 15SM FEW035 OVC076 M06/M13 A2994 RMK SC1AC7 SLP146=
CYOW;2006-03-18 23:00;METAR CYOW 182300Z 28013KT 20SM BKN069 M06/M13 A2993 RMK AC7 SLP143=
CYOW;2006-03-19 00:00;METAR CYOW 190000Z 30012G18KT 15SM BKN060 M06/M13 A2993 RMK SC7 SLP144=
CYOW;2006-03-19 01:00;METAR CYOW 190100Z 29014KT 15SM BKN048 BKN071 M07/M13 A2994 RMK SC6AC1 SLP145=
CYOW;2006-03-19 02:00;METAR CYOW 190200Z 30010KT 15SM SCT070 M07/M13 A2994 RMK AC2 SLP145=
CYOW;2006-03-19 03:00;METAR CYOW 190300Z 25005KT 15SM FEW100 M08/M14 A2993 RMK AC2 SLP144=
CYOW;2006-03-19 04:12;SPECI CYOW 190412Z 25005KT 15SM -SN BKN050 BKN100 M08/ RMK SC5AC1 SN VRY LGT=
CYOW;2006-03-19 04:24;SPECI CYOW 190424Z 25004KT 15SM FEW040 BKN120 M08/ RMK SC2AC2=
CYOW;2006-03-19 05:00;METAR CYOW 190500Z 22003KT 15SM FEW050 BKN150 M08/M13 A2991 RMK SC2AC4 SLP136=
CYOW;2006-03-19 05:30;SPECI CYOW 190530Z 23004KT 12SM -SN BKN047 OVC120 M08/ RMK SC6AC1=
CYOW;2006-03-19 06:00;METAR CYOW 190600Z 25006KT 12SM -SN BKN045 OVC090 M08/M13 A2990 RMK SC6AC2 MOON DIMLY VISBL SLP134=
CYOW;2006-03-19 07:00;METAR CYOW 190700Z 28008KT 10SM -SN BKN033 OVC058 M08/M12 A2989 RMK SC6SC2 MOON DIMLY VISBL SLP131=
CYOW;2006-03-19 08:00;METAR CYOW 190800Z 29007KT 10SM -SN BKN050 OVC082 M08/M12 A2989 RMK SC6AC2 SLP131=
CYOW;2006-03-19 09:00;METAR CYOW 190900Z 27006KT 12SM -SN BKN041 OVC120 M08/M13 A2989 RMK SC6AC2 SLP131=
CYOW;2006-03-19 10:00;METAR CYOW 191000Z 25005KT 10SM -SN BKN042 OVC084 M08/M12 A2989 RMK SC5AC3 SLP131=
CYOW;2006-03-19 11:46;SPECI CYOW 191146Z 26008KT 1SM -SN OVC012 M08/ RMK SN4SC4=
CYOW;2006-03-19 12:00;METAR CYOW 191200Z 27007KT 2SM -SN SCT012 OVC028 M08/M10 A2990 RMK SC3SC5 SLP134=
CYOW;2006-03-19 13:00;METAR CYOW 191300Z 27009KT 2SM -SN SCT017 BKN070 M07/M10 A2991 RMK SC3AC3 SLP136=
CYOW;2006-03-19 14:00;METAR CYOW 191400Z 28012KT 3SM -SN SCT015 BKN070 M07/M10 A2990 RMK SC3AC4 SLP133=
CYOW;2006-03-19 14:44;SPECI CYOW 191444Z 29011KT 10SM FEW020 BKN070 M06/ RMK CU2AC5=
CYOW;2006-03-19 15:00;METAR CYOW 191500Z 29016KT 10SM VCSH FEW030 BKN070 M06/M12 A2991 RMK CU2AC4 SLP136=
CYOW;2006-03-19 16:00;METAR CYOW 191600Z 30014G19KT 7SM VCSH BKN030 M06/M13 A2991 RMK CU5 SLP136=
CYOW;2006-03-19 18:00;METAR CYOW 191800Z 30013KT 15SM VCSH SCT030 BKN050 M05/M13 A2991 RMK CU3SC2 SLP138=
CYOW;2006-03-19 19:00;METAR CYOW 191900Z 30014KT 15SM VCSH BKN040 BKN090 M05/M13 A2991 RMK CU6AC1 SLP135=
CYOW;2006-03-19 20:00;METAR CYOW 192000Z 28015KT 15SM OVC044 M04/M13 A2991 RMK SC8 SLP138=
CYOW;2006-03-19 21:00;METAR CYOW 192100Z 31015KT 15SM BKN050 OVC093 M05/M11 A2993 RMK SC5AC3 SLP144=
CYOW;2006-03-19 22:00;METAR CYOW 192200Z 30014KT 15SM FEW040 BKN100 M05/M12 A2995 RMK CU2AC2 SLP149=
CYOW;2006-03-20 00:00;METAR CYOW 200000Z 33007KT 15SM FEW045 SCT100 BKN250 M05/M11 A2999 RMK SC2AC1CI1 SLP163=
CYOW;2006-03-20 01:00;METAR CYOW 200100Z 32009KT 15SM SCT051 BKN092 M05/M12 A3001 RMK SC3AC3 SLP169=
CYOW;2006-03-20 02:00;METAR CYOW 200200Z 34008KT 15SM FEW050 OVC083 M05/M12 A3003 RMK SC1AC7 SLP176=
CYOW;2006-03-20 03:19;SPECI CYOW 200319Z 35011KT 12SM -SN FEW022 BKN041 OVC080 M06/ RMK SC2SC4AC2=
CYOW;2006-03-20 04:00;METAR CYOW 200400Z 33013KT 12SM -SN BKN040 BKN087 M07/M11 A3005 RMK SC5AC2 SLP183=
CYOW;2006-03-20 04:33;SPECI CYOW 200433Z 34011G16KT 15SM FEW030 BKN084 M07/ RMK SC2AC2=
CYOW;2006-03-20 06:00;METAR CYOW 200600Z 33009KT 15SM FEW033 BKN083 M08/M13 A3008 RMK SC1AC2 SLP193=
CYOW;2006-03-20 07:00;METAR CYOW 200700Z 30008KT 15SM FEW030 BKN084 BKN250 M08/M13 A3009 RMK SC1AC4CI0 SLP197=
CYOW;2006-03-20 08:00;METAR CYOW 200800Z 31008KT 15SM FEW080 M09/M13 A3009 RMK AC2 SLP196=
CYOW;2006-03-20 11:00;METAR CYOW 201100Z 31010KT 12SM BKN030 M09/M13 A3012 RMK SC7 VIRGA E SLP208=
CYOW;2006-03-20 12:00;METAR CYOW 201200Z 32010G15KT 12SM OVC027 M09/M14 A3014 RMK SC8 SLP216=
CYOW;2006-03-20 14:00;METAR CYOW 201400Z 33016KT 12SM BKN028 M09/M14 A3015 RMK SC7 SLP219=
CYOW;2006-03-20 16:00;METAR CYOW 201600Z 31011G17KT 12SM BKN030 M08/M13 A3014 RMK SC6 SLP216=
CYOW;2006-03-20 17:00;METAR CYOW 201700Z 36013KT 12SM BKN037 M06/M13 A3014 RMK SC6 SLP214=
CYOW;2006-03-20 18:00;METAR CYOW 201800Z 33014KT 12SM BKN044 M06/M14 A3014 RMK SC7 SLP213=
CYOW;2006-03-20 21:00;METAR CYOW 202100Z 30017KT 15SM FEW050 M04/M13 A3011 RMK SC1 SLP205=
CYOW;2006-03-20 22:00;METAR CYOW 202200Z 28014G19KT 15SM SKC M04/M13 A3012 RMK SLP208=
CYOW;2006-03-20 23:00;METAR CYOW 202300Z 31011KT 15SM FEW210 M04/M13 A3011 RMK CI1 SLP204=
CYOW;2006-03-21 00:00;METAR CYOW 210000Z 28009KT 15SM FEW210 M05/M13 A3011 RMK CI1 SLP204=
CYOW;2006-03-21 02:00;METAR CYOW 210200Z 29011KT 15SM SKC M05/M13 A3007 RMK SLP192=
CYOW;2006-03-21 03:00;METAR CYOW 210300Z 30009KT 15SM SKC M06/M13 A3005 RMK SLP183=
CYOW;2006-03-21 04:00;METAR CYOW 210400Z 28011KT 15SM SKC M06/M12 A3005 RMK SLP184=
CYOW;2006-03-21 05:00;METAR CYOW 210500Z 29014G19KT 15SM SKC M06/M12 A3003 RMK SLP178=
CYOW;2006-03-21 07:31;SPECI CYOW 210731Z 28011G17KT 15SM FEW035 M07/ RMK SC2=
CYOW;2006-03-21 08:00;METAR CYOW 210800Z 29011KT 15SM FEW035 M07/M12 A2994 RMK SC2 SLP148=
CYOW;2006-03-21 10:00;METAR CYOW 211000Z 29012KT 15SM BKN028 M06/M11 A2996 RMK SC6 SLP151=
CYOW;2006-03-21 11:00;METAR CYOW 211100Z 27009KT 15SM OVC027 M06/M11 A2996 RMK SC8 SLP151=
CYOW;2006-03-21 12:00;METAR CYOW 211200Z 30011KT 15SM OVC025 M06/M11 A2995 RMK SC8 SLP150=
CYOW;2006-03-21 13:00;METAR CYOW 211300Z 29013KT 15SM OVC024 M06/M10 A2994 RMK SC8 SLP147=
CYOW;2006-03-21 13:21;SPECI CYOW 211321Z 30011KT 15SM -SN OVC025 M06/ RMK SC8 VRY LGT SN=
CYOW;2006-03-21 14:00;METAR CYOW 211400Z 30009G18KT 15SM -SN OVC025 M05/M10 A2992 RMK SC8 VRY LGT SN SLP139=
CYOW;2006-03-21 16:00;METAR CYOW 211600Z 29009KT 15SM OVC025 M04/M09 A2987 RMK SC8 SLP121=
CYOW;2006-03-21 17:00;METAR CYOW 211700Z 29011KT 15SM OVC027 M04/M09 A2985 RMK SC8 SLP115=
CYOW;2006-03-21 19:00;METAR CYOW 211900Z 28010KT 15SM SCT035 M02/M09 A2981 RMK SC3 SLP102=
CYOW;2006-03-21 20:00;METAR CYOW 212000Z 26011KT 15SM SCT035 BKN071 M02/M08 A2980 RMK SC3AC2 SLP099=
CYOW;2006-03-21 22:00;METAR CYOW 212200Z 27011KT 15SM FEW035 BKN070 M01/M08 A2979 RMK SC2AC5 SLP094=
CYOW;2006-03-22 00:00;METAR CYOW 220000Z 28012KT 15SM BKN084 M02/M08 A2979 RMK AC7 SLP096=
CYOW;2006-03-22 03:00;METAR CYOW 220300Z 29009KT 15SM OVC052 M02/M07 A2979 RMK SC8 SLP095=
CYOW;2006-03-22 04:00;METAR CYOW 220400Z 31008KT 15SM FEW070 OVC110 M02/M07 A2979 RMK AC2AC6 SLP093=
CYOW;2006-03-22 05:00;METAR CYOW 220500Z 32011KT 15SM -SN OVC044 M03/M07 A2978 RMK SC8 SLP091=
CYOW;2006-03-22 07:00;METAR CYOW 220700Z 31007KT 15SM -SN FEW020 OVC041 M03/M07 A2978 RMK SC1SC7 SLP090=
CYOW;2006-03-22 09:00;METAR CYOW 220900Z 30008KT 8SM -SN OVC060 M04/M07 A2979 RMK SC8 VIA YQG SLP094=
CYOW;2006-03-22 10:00;METAR CYOW 221000Z 30007KT 8SM -SN OVC054 M04/M07 A2981 RMK SC8 VIA YQG SLP101=
CYOW;2006-03-22 10:30;SPECI CYOW 221030Z 29007KT 5SM -SN OVC011 M05/ RMK SC8 VIA YQG=
CYOW;2006-03-22 10:47;SPECI CYOW 221047Z 28009KT 5SM -SN FEW012 OVC060 M05/ RMK SC2SC6 VIA YQG=
CYOW;2006-03-22 11:00;METAR CYOW 221100Z 29008KT 5SM -SN FEW012 SCT060 OVC130 M05/M07 A2983 RMK SC1SC2AC5 VIA YQG SLP108=
CYOW;2006-03-22 14:00;METAR CYOW 221400Z 28007KT 10SM SCT012 BKN030 M04/M07 A2988 RMK SF3SC2 SLP125=
CYOW;2006-03-22 15:00;METAR CYOW 221500Z 28007KT 15SM FEW015 SCT030 BKN100 M03/M07 A2989 RMK SF1SC2AC2 SLP128=
CYOW;2006-03-22 17:00;METAR CYOW 221700Z 30008KT 15SM SCT050 M02/M07 A2991 RMK CU4 SLP133=
CYOW;2006-03-22 18:00;METAR CYOW 221800Z 31006KT 15SM SCT050 SCT100 M01/M06 A2991 RMK CU3AC1 SLP135=
CYOW;2006-03-22 19:00;METAR CYOW 221900Z 28008KT 15SM FEW050 SCT100 00/M06 A2992 RMK CU2AC1 SLP138=
CYOW;2006-03-22 20:00;METAR CYOW 222000Z 30005KT 15SM FEW050 FEW100 00/M07 A2994 RMK CU2AC1 AC TR SLP143=
CYOW;2006-03-22 21:00;METAR CYOW 222100Z 25008KT 15SM FEW050 FEW080 01/M06 A2996 RMK CU1AC1 SLP150=
CYOW;2006-03-22 22:00;METAR CYOW 222200Z 25007KT 15SM BKN100 00/M06 A2998 RMK AC6 SLP158=
CYOW;2006-03-22 23:00;METAR CYOW 222300Z 27005KT 15SM SCT045 OVC100 00/M05 A3000 RMK SC3AC4 SLP165=
CYOW;2006-03-23 00:00;METAR CYOW 230000Z 26005KT 15SM OVC042 M00/M05 A3002 RMK SC8 SLP173=
CYOW;2006-03-23 01:00;METAR CYOW 230100Z 27005KT 15SM FEW050 OVC100 M00/M05 A3003 RMK SC2AC6 SLP176=
CYOW;2006-03-23 02:00;METAR CYOW 230200Z 29006KT 15SM BKN043 BKN100 M01/M04 A3005 RMK SC5AC2 SLP181=
CYOW;2006-03-23 03:00;METAR CYOW 230300Z 28005KT 15SM FEW040 BKN100 M01/M04 A3005 RMK SC1AC6 SLP183=
CYOW;2006-03-23 04:00;METAR CYOW 230400Z 30004KT 15SM FEW040 BKN100 M01/M04 A3005 RMK SC1AC6 SLP184=
CYOW;2006-03-23 05:00;METAR CYOW 230500Z 27005KT 15SM BKN100 M01/M04 A3005 RMK AC7 SLP184=
CYOW;2006-03-23 06:00;METAR CYOW 230600Z 27005KT 15SM FEW100 SCT240 M02/M05 A3006 RMK AC2CI0 SLP186=
CYOW;2006-03-23 07:00;METAR CYOW 230700Z 27004KT 15SM FEW100 M02/M05 A3007 RMK AC2 SLP189=
CYOW;2006-03-23 09:00;METAR CYOW 230900Z 28007KT 15SM FEW100 M02/M05 A3008 RMK AC1 SLP194=
CYOW;2006-03-23 10:00;METAR CYOW 231000Z 28008KT 15SM BKN073 M02/M04 A3010 RMK AC7 SLP198=
CYOW;2006-03-23 11:00;METAR CYOW 231100Z 30009KT 15SM BKN073 BKN150 M02/M05 A3011 RMK AC5AC2 SLP201=
CYOW;2006-03-23 13:00;METAR CYOW 231300Z 29011KT 15SM BKN081 M01/M04 A3013 RMK AC6 SLP210=
CYOW;2006-03-23 14:00;METAR CYOW 231400Z 28011KT 15SM BKN081 00/M03 A3014 RMK AC6 SLP213=
CYOW;2006-03-23 15:00;METAR CYOW 231500Z 28008KT 15SM BKN077 01/M03 A3014 RMK AC6 SLP213=
CYOW;2006-03-23 16:00;METAR CYOW 231600Z 27009KT 15SM SCT030 OVC076 03/M03 A3015 RMK SC3AC4 SLP215=
CYOW;2006-03-23 17:00;METAR CYOW 231700Z 27008KT 15SM FEW030 OVC076 04/M03 A3014 RMK SC1AC6 SLP212=
CYOW;2006-03-23 18:00;METAR CYOW 231800Z 26008KT 15SM BKN073 04/M02 A3013 RMK AC7 SLP207=
CYOW;2006-03-23 20:00;METAR CYOW 232000Z 25009KT 15SM FEW035 BKN073 06/M02 A3011 RMK CU1AC5 SLP203=
CYOW;2006-03-23 21:00;METAR CYOW 232100Z 25008KT 15SM FEW035 BKN073 05/M02 A3012 RMK CU1AC5 SLP204=
CYOW;2006-03-23 22:00;METAR CYOW 232200Z 26008KT 15SM FEW035 BKN073 05/M02 A3013 RMK CU1AC6 SLP207=
CYOW;2006-03-23 23:00;METAR CYOW 232300Z 26005KT 15SM FEW035 BKN074 04/M02 A3014 RMK SC1AC5 SLP211=
CYOW;2006-03-24 00:00;METAR CYOW 240000Z 25005KT 15SM BKN072 04/M02 A3014 RMK AC6 SLP213=
CYOW;2006-03-24 01:00;METAR CYOW 240100Z 25004KT 15SM BKN074 04/M02 A3015 RMK AC7 SLP214=
CYOW;2006-03-24 02:00;METAR CYOW 240200Z 22006KT 15SM BKN074 03/M02 A3014 RMK AC7 SLP213=
CYOW;2006-03-24 03:00;METAR CYOW 240300Z 21005KT 15SM BKN081 03/M03 A3014 RMK AC6 SLP212=
CYOW;2006-03-24 03:35;SPECI CYOW 240335Z 21005KT 15SM OVC074 02/ RMK AC8=
CYOW;2006-03-24 04:00;METAR CYOW 240400Z 21005KT 15SM OVC072 02/M03 A3014 RMK AC8 SLP210=
CYOW;2006-03-24 05:00;METAR CYOW 240500Z 22005KT 15SM OVC070 02/M03 A3012 RMK AC8 SLP205=
CYOW;2006-03-24 06:00;METAR CYOW 240600Z 21007KT 15SM OVC067 02/M03 A3011 RMK AC8 SLP201=
CYOW;2006-03-24 07:00;METAR CYOW 240700Z 22004KT 15SM OVC064 01/M02 A3011 RMK SC8 SLP200=
CYOW;2006-03-24 08:00;METAR CYOW 240800Z 22004KT 15SM OVC066 01/M03 A3010 RMK AC8 SLP197=
CYOW;2006-03-24 09:00;METAR CYOW 240900Z 20006KT 15SM OVC066 00/M03 A3009 RMK AC8 SLP196=
CYOW;2006-03-24 10:00;METAR CYOW 241000Z 18003KT 15SM OVC069 00/M03 A3010 RMK AC8 SLP198=
CYOW;2006-03-24 11:00;METAR CYOW 241100Z 19007KT 15SM OVC072 00/M03 A3010 RMK AC8 SLP199=
CYOW;2006-03-24 12:00;METAR CYOW 241200Z 22004KT 15SM OVC078 01/M03 A3011 RMK AC8 SLP201=
CYOW;2006-03-24 13:00;METAR CYOW 241300Z 20003KT 15SM BKN068 OVC075 01/M02 A3011 RMK AC6AC2 SLP202=
CYOW;2006-03-24 14:00;METAR CYOW 241400Z 23005KT 15SM BKN061 OVC075 02/M02 A3011 RMK SC5AC3 SLP203=
CYOW;2006-03-24 15:00;METAR CYOW 241500Z 25002KT 15SM BKN048 OVC070 03/M02 A3011 RMK SC5AC3 SLP203=
CYOW;2006-03-24 16:00;METAR CYOW 241600Z 00000KT 15SM BKN050 OVC090 05/M01 A3011 RMK SC5AC3 SLP201=
CYOW;2006-03-24 18:00;METAR CYOW 241800Z 00000KT 15SM -RA BKN048 OVC090 06/00 A3007 RMK SC6AC2 VRY LGT RA SLP187=
CYOW;2006-03-24 19:00;METAR CYOW 241900Z 00000KT 15SM -RA FEW040 BKN058 OVC090 08/00 A3005 RMK CU1SC6AC2 VRY LGT RA SLP182=
CYOW;2006-03-24 19:34;SPECI CYOW 241934Z 00000KT 15SM FEW036 BKN062 OVC110 08/ RMK CU1SC5AC2=
CYOW;2006-03-24 20:00;METAR CYOW 242000Z 00000KT 20SM FEW036 FEW060 BKN097 08/M00 A3005 RMK CU1SC2AC5 SLP180=
CYOW;2006-03-24 21:00;METAR CYOW 242100Z 00000KT 20SM FEW030 FEW060 OVC096 08/M00 A3004 RMK CU1SC1AC6 CU TR SLP178=
CYOW;2006-03-24 22:00;METAR CYOW 242200Z 00000KT 20SM FEW040 OVC096 08/M01 A3004 RMK SC1AC7 SC TR SLP177=
CYOW;2006-03-25 00:00;METAR CYOW 250000Z 00000KT 15SM FEW030 OVC099 06/M02 A3004 RMK SC1AC8 SC TR SLP178=
CYOW;2006-03-25 01:00;METAR CYOW 250100Z 15002KT 15SM FEW040 FEW080 OVC098 06/M01 A3005 RMK SC1AC2AC6 SC TR SLP179=
CYOW;2006-03-25 02:00;METAR CYOW 250200Z 16002KT 15SM BKN077 OVC099 05/M01 A3004 RMK AC5AC3 VIRGA N SLP178=
CYOW;2006-03-25 02:45;SPECI CYOW 250245Z 18002KT 15SM -RA BKN060 OVC100 04/ RMK SC5AC3=
CYOW;2006-03-25 03:00;METAR CYOW 250300Z 18003KT 15SM -RA FEW060 BKN080 OVC100 05/00 A3003 RMK SC2AC3AC2 SLP174=
CYOW;2006-03-25 03:23;SPECI CYOW 250323Z 13002KT 15SM FEW060 FEW080 BKN100 04/ RMK SC1AC2AC5=
CYOW;2006-03-25 04:00;METAR CYOW 250400Z 05003KT 15SM FEW060 OVC100 03/M00 A3002 RMK SC2AC6 SLP172=
CYOW;2006-03-25 07:00;METAR CYOW 250700Z 05004KT 12SM FEW045 BKN079 OVC100 02/M01 A2999 RMK SC2AC4AC2 VIRGA N SLP162=
CYOW;2006-03-25 09:00;METAR CYOW 250900Z 07002KT 10SM FEW055 SCT080 OVC100 02/M01 A2998 RMK SC1AC2AC5 SLP156=
CYOW;2006-03-25 10:00;METAR CYOW 251000Z 00000KT 10SM FEW050 OVC110 02/M01 A2998 RMK SC2AC6 SLP157=
CYOW;2006-03-25 11:00;METAR CYOW 251100Z 07005KT 8SM FEW070 OVC120 02/M01 A2999 RMK AC1AC7 SLP161=
CYOW;2006-03-25 12:00;METAR CYOW 251200Z 09005KT 4SM BR SCT040 OVC080 01/M01 A3001 RMK SC3AC5 VIRGA SLP166=
CYOW;2006-03-25 13:00;METAR CYOW 251300Z 07003KT 4SM BR SCT040 OVC080 02/01 A3001 RMK SC3AS5 SLP167=
CYOW;2006-03-25 14:00;METAR CYOW 251400Z 10004KT 4SM HZ BKN037 OVC080 03/01 A3001 RMK SC6AS2 SLP168=
CYOW;2006-03-25 15:00;METAR CYOW 251500Z 10003KT 4SM -RA BR OVC020 03/01 A3002 RMK SC8 SLP169=
CYOW;2006-03-25 16:00;METAR CYOW 251600Z 08005KT 4SM -RA BR FEW020 OVC027 03/02 A3002 RMK CU2SC6 SLP169=
CYOW;2006-03-25 17:00;METAR CYOW 251700Z 09004KT 5SM BR SCT010 OVC040 04/03 A3001 RMK CF3SC5 INTMT -RA SLP168=
CYOW;2006-03-25 18:00;METAR CYOW 251800Z 07003KT 8SM SCT010 BKN040 05/02 A3001 RMK CF3SC3 VIRGA SLP166=
CYOW;2006-03-25 19:00;METAR CYOW 251900Z 13003KT 10SM SCT020 BKN077 06/02 A3000 RMK CU3AC3 SLP163=
CYOW;2006-03-25 20:00;METAR CYOW 252000Z 00000KT 12SM FEW027 BKN120 07/01 A2999 RMK CU2AC2 SLP159=
CYOW;2006-03-25 21:00;METAR CYOW 252100Z 00000KT 10SM FEW030 BKN120 07/00 A2998 RMK CU2AC2 SLP158=
CYOW;2006-03-25 22:00;METAR CYOW 252200Z 29002KT 10SM FEW030 SCT120 08/00 A2998 RMK CU2AC2 SLP157=
CYOW;2006-03-25 23:00;METAR CYOW 252300Z 31008KT 12SM FEW030 FEW080 SCT120 BKN250 05/00 A2999 RMK SC1AC1AC2CI0 SLP160=
CYOW;2006-03-26 00:00;METAR CYOW 260000Z 34007KT 15SM FEW040 SCT080 BKN140 BKN250 04/01 A2999 RMK SC2AC2AC2CI0 SLP162=
CYOW;2006-03-26 01:00;METAR CYOW 260100Z 35005KT 15SM FEW080 BKN120 04/01 A3000 RMK AC2AC4 SLP164=
CYOW;2006-03-26 03:00;METAR CYOW 260300Z 33003KT 15SM BKN060 OVC082 03/01 A3001 RMK SC6AC2 SLP166=
CYOW;2006-03-26 03:33;SPECI CYOW 260333Z 33006KT 15SM -RA BKN044 OVC060 03/ RMK SC6SC2=
CYOW;2006-03-26 05:00;METAR CYOW 260500Z 32002KT 15SM SCT060 BKN091 02/01 A3001 RMK SC3AC2 SLP168=
CYOW;2006-03-26 06:00;METAR CYOW 260600Z 31006KT 15SM FEW055 SCT100 02/01 A3001 RMK SC2AC2 SLP167=
CYOW;2006-03-26 09:00;METAR CYOW 260900Z 01008KT 15SM BKN071 02/M02 A3000 RMK AC7 SLP165=
CYOW;2006-03-26 10:00;METAR CYOW 261000Z 35004KT 15SM BKN068 01/M02 A3002 RMK AC7 SLP170=
CYOW;2006-03-26 11:00;METAR CYOW 261100Z 31006KT 20SM BKN064 BKN250 00/M02 A3003 RMK SC6CI1 CI TR SLP175=
CYOW;2006-03-26 12:00;METAR CYOW 261200Z 32007KT 20SM FEW060 FEW100 FEW250 00/M03 A3005 RMK SC1AC1CI1 CI TR SLP181=
CYOW;2006-03-26 13:00;METAR CYOW 261300Z 33008KT 20SM BKN053 02/M03 A3006 RMK SC6 SLP185=
CYOW;2006-03-26 14:00;METAR CYOW 261400Z 33008KT 20SM FEW030 BKN053 03/M03 A3006 RMK CU2SC5 SLP186=
CYOW;2006-03-26 15:00;METAR CYOW 261500Z 35011G16KT 20SM FEW030 BKN050 04/M06 A3006 RMK CU1SC6 SLP185=
CYOW;2006-03-26 16:00;METAR CYOW 261600Z 01010KT 20SM SCT050 BKN240 05/M05 A3006 RMK SC3CI1 SLP185=
CYOW;2006-03-26 17:00;METAR CYOW 261700Z 32004KT 20SM FEW050 SCT240 06/M04 A3004 RMK SC2CI0 SLP178=
CYOW;2006-03-26 18:00;METAR CYOW 261800Z 31010KT 20SM FEW050 FEW240 06/M05 A3002 RMK SC1CI1 SLP172=
CYOW;2006-03-26 19:00;METAR CYOW 261900Z 31010G18KT 20SM FEW050 FEW240 07/M05 A3001 RMK SC1CI0 SLP168=
CYOW;2006-03-26 20:00;METAR CYOW 262000Z 31009KT 20SM FEW050 FEW240 07/M06 A3000 RMK SC1CI0 SLP164=
CYOW;2006-03-26 21:00;METAR CYOW 262100Z 34010G15KT 20SM FEW050 FEW240 08/M06 A3000 RMK SC1CI0 SLP165=
CYOW;2006-03-26 22:00;METAR CYOW 262200Z 34010G15KT 20SM FEW050 BKN240 07/M06 A3000 RMK SC1CI0 TR SC SLP165=
CYOW;2006-03-26 23:00;METAR CYOW 262300Z 33012KT 20SM FEW240 06/M07 A3001 RMK CI0 SLP168=
CYOW;2006-03-27 00:00;METAR CYOW 270000Z 33005KT 20SM FEW250 04/M07 A3002 RMK CI0 SLP172=
CYOW;2006-03-27 02:00;METAR CYOW 270200Z 29006KT 15SM FEW250 02/M09 A3007 RMK CI1 SLP186=
CYOW;2006-03-27 04:00;METAR CYOW 270400Z 32009KT 15SM FEW250 02/M08 A3009 RMK CI1 SLP194=
CYOW;2006-03-27 06:00;METAR CYOW 270600Z 32008KT 15SM SKC 01/M08 A3011 RMK SLP199=
CYOW;2006-03-27 07:00;METAR CYOW 270700Z 29005KT 15SM SKC M01/M09 A3011 RMK SLP201=
CYOW;2006-03-27 09:00;METAR CYOW 270900Z 32006KT 15SM SKC M02/M08 A3013 RMK SLP207=
CYOW;2006-03-27 10:00;METAR CYOW 271000Z 29006KT 15SM SKC M01/M08 A3014 RMK SLP211=
CYOW;2006-03-27 12:00;METAR CYOW 271200Z 27005KT 20SM FEW250 M02/M07 A3018 RMK CI1 SLP224=
CYOW;2006-03-27 13:00;METAR CYOW 271300Z 32011KT 20SM FEW240 01/M07 A3019 RMK CI0 SLP229=
CYOW;2006-03-27 16:00;METAR CYOW 271600Z 32011KT 20SM FEW240 05/M05 A3021 RMK CI0 SLP235=
CYOW;2006-03-27 17:00;METAR CYOW 271700Z 33009G15KT 20SM FEW240 05/M06 A3020 RMK CI0 SLP232=
CYOW;2006-03-27 18:00;METAR CYOW 271800Z 01005KT 20SM FEW240 07/M05 A3019 RMK CI1 SLP227=
CYOW;2006-03-27 19:00;METAR CYOW 271900Z 27009KT 20SM SCT240 07/M04 A3017 RMK CI2 SLP223=
CYOW;2006-03-27 20:00;METAR CYOW 272000Z 26010KT 20SM BKN240 07/M05 A3017 RMK CI3 SLP222=
CYOW;2006-03-27 21:00;METAR CYOW 272100Z 26011KT 20SM BKN240 07/M05 A3017 RMK CI4 SLP222=
CYOW;2006-03-27 22:00;METAR CYOW 272200Z 26008KT 20SM BKN240 07/M06 A3017 RMK CI4 SLP223=
CYOW;2006-03-28 00:00;METAR CYOW 280000Z 25003KT 20SM FEW250 06/M07 A3017 RMK CI1 SLP221=
CYOW;2006-03-28 01:00;METAR CYOW 280100Z 21002KT 15SM SCT240 05/M08 A3017 RMK CI1 SLP222=
CYOW;2006-03-28 02:00;METAR CYOW 280200Z 18003KT 15SM FEW240 03/M07 A3017 RMK CI0 SLP223=
CYOW;2006-03-28 04:00;METAR CYOW 280400Z 22004KT 15SM FEW250 02/M07 A3017 RMK CI0 SLP223=
CYOW;2006-03-28 05:00;METAR CYOW 280500Z 23003KT 15SM FEW230 02/M08 A3018 RMK CI0 SLP225=
CYOW;2006-03-28 06:00;METAR CYOW 280600Z 25003KT 15SM FEW240 02/M08 A3019 RMK CI0 SLP227=
CYOW;2006-03-28 07:00;METAR CYOW 280700Z 20003KT 15SM SKC 01/M08 A3018 RMK SLP224=
CYOW;2006-03-28 08:00;METAR CYOW 280800Z 00000KT 15SM SKC M00/M08 A3018 RMK SLP225=
CYOW;2006-03-28 09:00;METAR CYOW 280900Z 00000KT 15SM SKC M01/M07 A3019 RMK SLP228=
CYOW;2006-03-28 10:00;METAR CYOW 281000Z 18003KT 15SM SKC M01/M07 A3019 RMK SLP230=
CYOW;2006-03-28 11:00;METAR CYOW 281100Z 20002KT 15SM SKC M02/M06 A3021 RMK SLP234=
CYOW;2006-03-28 12:00;METAR CYOW 281200Z 00000KT 15SM SKC M01/M05 A3021 RMK SLP236=
CYOW;2006-03-28 13:00;METAR CYOW 281300Z 00000KT 15SM SKC 01/M04 A3022 RMK SLP239=
CYOW;2006-03-28 14:00;METAR CYOW 281400Z 00000KT 15SM SKC 04/M04 A3022 RMK SLP239=
CYOW;2006-03-28 15:00;METAR CYOW 281500Z 00000KT 15SM SKC 07/M05 A3023 RMK SLP241=
CYOW;2006-03-28 16:00;METAR CYOW 281600Z 00000KT 15SM SKC 09/M04 A3022 RMK SLP238=
CYOW;2006-03-28 17:00;METAR CYOW 281700Z 00000KT 15SM SKC 10/M05 A3021 RMK SLP235=
CYOW;2006-03-28 18:00;METAR CYOW 281800Z 26007KT 15SM SKC 11/M07 A3019 RMK SLP229=
CYOW;2006-03-28 19:00;METAR CYOW 281900Z 24003KT 15SM SKC 11/M08 A3017 RMK SLP222=
CYOW;2006-03-28 20:00;METAR CYOW 282000Z 27003KT 20SM SKC 12/M07 A3016 RMK SLP218=
CYOW;2006-03-28 21:00;METAR CYOW 282100Z 23002KT 20SM SKC 12/M08 A3015 RMK SLP215=
CYOW;2006-03-28 22:00;METAR CYOW 282200Z 26002KT 20SM SKC 12/M07 A3015 RMK SLP213=
CYOW;2006-03-28 23:00;METAR CYOW 282300Z 00000KT 20SM SKC 11/M08 A3015 RMK SLP213=
CYOW;2006-03-29 00:00;METAR CYOW 290000Z 16003KT 15SM SKC 09/M08 A3015 RMK SLP214=
CYOW;2006-03-29 01:00;METAR CYOW 290100Z 15005KT 15SM SKC 07/M07 A3016 RMK SLP216=
CYOW;2006-03-29 02:00;METAR CYOW 290200Z 19005KT 15SM SKC 06/M07 A3016 RMK SLP219=
CYOW;2006-03-29 03:00;METAR CYOW 290300Z 21003KT 15SM SKC 06/M07 A3017 RMK SLP220=
CYOW;2006-03-29 04:00;METAR CYOW 290400Z 23003KT 15SM SKC 05/M06 A3017 RMK SLP221=
CYOW;2006-03-29 06:00;METAR CYOW 290600Z 27004KT 15SM SKC 04/M06 A3018 RMK SLP224=
CYOW;2006-03-29 07:00;METAR CYOW 290700Z 26006KT 15SM SKC 03/M06 A3018 RMK SLP223=
CYOW;2006-03-29 08:00;METAR CYOW 290800Z 24004KT 15SM SKC 02/M06 A3017 RMK SLP222=
CYOW;2006-03-29 09:00;METAR CYOW 290900Z 24004KT 15SM SKC 01/M06 A3017 RMK SLP221=
CYOW;2006-03-29 10:00;METAR CYOW 291000Z 23003KT 15SM SKC 01/M06 A3018 RMK SLP225=
CYOW;2006-03-29 11:00;METAR CYOW 291100Z 29005KT 20SM SCT240 M01/M07 A3020 RMK CI1 SLP232=
CYOW;2006-03-29 12:00;METAR CYOW 291200Z 26002KT 15SM FEW240 02/M06 A3022 RMK CI0 SLP237=
CYOW;2006-03-29 13:00;METAR CYOW 291300Z 28008KT 15SM FEW240 04/M07 A3023 RMK CI0 SLP242=
CYOW;2006-03-29 14:00;METAR CYOW 291400Z 27007KT 15SM FEW240 06/M06 A3024 RMK CI1 SLP245=
CYOW;2006-03-29 16:00;METAR CYOW 291600Z 26011KT 15SM SCT240 09/M04 A3024 RMK CI1 SLP244=
CYOW;2006-03-29 18:00;METAR CYOW 291800Z 26011KT 15SM SCT150 BKN240 11/M04 A3023 RMK AC2CI1 SLP240=
CYOW;2006-03-29 19:00;METAR CYOW 291900Z 27007KT 15SM SCT140 OVC230 12/M04 A3022 RMK AC3CI2 SLP237=
CYOW;2006-03-29 20:00;METAR CYOW 292000Z 29008KT 15SM SCT140 OVC230 12/M04 A3021 RMK AC3CI2 SLP235=
CYOW;2006-03-29 21:00;METAR CYOW 292100Z 31006KT 15SM SCT140 OVC200 12/M04 A3020 RMK AC3CS2 SLP232=
CYOW;2006-03-29 22:00;METAR CYOW 292200Z 30005KT 15SM SCT140 OVC200 11/M03 A3020 RMK AC3CS2 SUN DIMILY VSBL SLP230=
CYOW;2006-03-29 23:00;METAR CYOW 292300Z 30004KT 15SM FEW140 BKN240 09/M04 A3020 RMK AC1CI2 SLP231=
CYOW;2006-03-30 00:00;METAR CYOW 300000Z 00000KT 15SM OVC220 10/M05 A3021 RMK CI3 SLP234=
CYOW;2006-03-30 01:00;METAR CYOW 300100Z 18004KT 15SM BKN240 09/M05 A3022 RMK CI2 SLP238=
CYOW;2006-03-30 04:00;METAR CYOW 300400Z 21005KT 15SM SKC 04/M04 A3024 RMK SLP243=
CYOW;2006-03-30 05:00;METAR CYOW 300500Z 24002KT 15SM SKC 04/M04 A3024 RMK SLP245=
CYOW;2006-03-30 06:00;METAR CYOW 300600Z 21005KT 15SM SKC 03/M04 A3024 RMK SLP245=
CYOW;2006-03-30 07:00;METAR CYOW 300700Z 22005KT 15SM SKC 02/M04 A3024 RMK SLP245=
CYOW;2006-03-30 08:00;METAR CYOW 300800Z 23003KT 15SM OVC230 03/M05 A3024 RMK CI2 SLP243=
CYOW;2006-03-30 12:00;METAR CYOW 301200Z 24002KT 15SM BKN240 02/M04 A3028 RMK CI2 SLP259=
CYOW;2006-03-30 13:00;METAR CYOW 301300Z 22003KT 15SM BKN240 04/M03 A3030 RMK CI2 SLP264=
CYOW;2006-03-30 14:00;METAR CYOW 301400Z 23003KT 15SM FEW150 BKN240 06/M02 A3030 RMK AC1CI2 SLP266=
CYOW;2006-03-30 15:00;METAR CYOW 301500Z 26006KT 15SM FEW150 BKN240 09/M02 A3029 RMK AC1CI2 SLP262=
CYOW;2006-03-30 16:00;METAR CYOW 301600Z 27005KT 15SM FEW150 BKN240 11/M02 A3028 RMK AC1CI2 AC TR SLP259=
CYOW;2006-03-30 17:00;METAR CYOW 301700Z 21005KT 15SM BKN240 13/M01 A3025 RMK CI2 SLP249=
CYOW;2006-03-30 18:00;METAR CYOW 301800Z 25011G16KT 15SM FEW200 SCT240 14/M01 A3022 RMK CI1CI0 SLP239=
CYOW;2006-03-30 19:00;METAR CYOW 301900Z 32011KT 15SM FEW240 15/00 A3020 RMK CI0 SLP231=
CYOW;2006-03-30 20:00;METAR CYOW 302000Z 19009KT 15SM FEW240 16/M00 A3017 RMK CI0 SLP222=
CYOW;2006-03-30 21:00;METAR CYOW 302100Z 19010G15KT 15SM FEW240 15/01 A3016 RMK CI0 SLP216=
CYOW;2006-03-30 22:00;METAR CYOW 302200Z 20009KT 12SM FEW240 14/01 A3016 RMK CI0 SLP216=
CYOW;2006-03-30 23:00;METAR CYOW 302300Z 19006KT 12SM FEW240 12/00 A3014 RMK CI0 SLP211=
CYOW;2006-03-31 00:00;METAR CYOW 310000Z 20005KT 15SM FEW240 10/M00 A3016 RMK CI0 SLP216=
CYOW;2006-03-31 02:00;METAR CYOW 310200Z 19005KT 15SM SKC 08/M01 A3016 RMK SLP218=
CYOW;2006-03-31 05:00;METAR CYOW 310500Z 21003KT 15SM SKC 06/M01 A3014 RMK SLP210=
CYOW;2006-03-31 06:00;METAR CYOW 310600Z 20002KT 15SM FEW140 05/M01 A3013 RMK AC2 SLP207=
CYOW;2006-03-31 09:00;METAR CYOW 310900Z 10003KT 15SM BKN150 03/M01 A3009 RMK AC6 SLP192=
CYOW;2006-03-31 10:00;METAR CYOW 311000Z 08003KT 15SM FEW150 03/M01 A3009 RMK AC1 SLP192=
CYOW;2006-03-31 11:00;METAR CYOW 311100Z 05004KT 12SM FEW150 OVC260 04/M01 A3007 RMK AC1CI0 SLP187=
CYOW;2006-03-31 12:00;METAR CYOW 311200Z 05003KT 10SM BKN260 05/M00 A3007 RMK CI2 SLP185=
CYOW;2006-03-31 13:00;METAR CYOW 311300Z 18004KT 10SM BKN260 08/00 A3004 RMK CS2 SLP177=
CYOW;2006-03-31 14:00;METAR CYOW 311400Z 21005KT 10SM SCT270 10/01 A3003 RMK CS2 SLP174=
CYOW;2006-03-31 15:00;METAR CYOW 311500Z 21002KT 10SM FEW270 13/03 A3002 RMK CI1 SLP168=
CYOW;2006-03-31 16:00;METAR CYOW 311600Z 20005KT 12SM FEW270 17/04 A3001 RMK CI1 SLP164=
CYOW;2006-03-31 17:00;METAR CYOW 311700Z 19009KT 12SM FEW210 BKN270 20/04 A2998 RMK CI1CI2 SLP154=
CYOW;2006-03-31 19:00;METAR CYOW 311900Z 18011KT 12SM FEW180 FEW250 BKN270 22/05 A2990 RMK AC1CC1CI2 SLP126=
CYOW;2006-03-31 20:00;METAR CYOW 312000Z 20011KT 12SM FEW180 SCT240 BKN270 22/05 A2986 RMK AC2CI1CS1 SLP114=
CYOW;2006-03-31 21:00;METAR CYOW 312100Z 19008KT 12SM OVC220 22/05 A2983 RMK CS6 SLP105=
CYOW;2006-03-31 22:00;METAR CYOW 312200Z 19007KT 12SM BKN180 OVC220 21/05 A2981 RMK AS5CS3 SLP098=
CYOW;2006-03-31 23:00;METAR CYOW 312300Z 17004KT 12SM FEW160 BKN180 OVC220 19/05 A2978 RMK AC2AS6CS1 SLP087=
CYOW;2006-04-01 00:00;METAR CYOW 010000Z 16005KT 12SM OVC180 18/04 A2977 RMK AS8 SLP085=
CYOW;2006-04-01 01:00;METAR CYOW 010100Z 16005KT 12SM OVC088 18/04 A2977 RMK AS8 SLP084=
CYOW;2006-04-01 02:00;METAR CYOW 010200Z 26010KT 12SM OVC088 16/06 A2981 RMK AS8 SLP096=
CYOW;2006-04-01 02:32;SPECI CYOW 010232Z 26006KT 10SM -RA OVC080 15/ RMK AS8=
CYOW;2006-04-01 03:00;METAR CYOW 010300Z 24004KT 6SM -RA BR OVC080 14/10 A2979 RMK AS8 SLP089=
CYOW;2006-04-01 03:50;SPECI CYOW 010350Z 17004KT 10SM OVC110 13/ RMK AC8=
CYOW;2006-04-01 04:00;METAR CYOW 010400Z 17004KT 10SM OVC130 13/11 A2976 RMK AC8 SLP079=
CYOW;2006-04-01 05:00;METAR CYOW 010500Z 18008KT 8SM OVC008 13/12 A2974 RMK SC8 SLP073=
CYOW;2006-04-01 05:26;SPECI CYOW 010526Z 19008KT 7SM FEW011 OVC180 13/ RMK CF2AC6=
CYOW;2006-04-01 06:00;METAR CYOW 010600Z 19006KT 8SM OVC250 13/12 A2972 RMK CI6 SLP064=
CYOW;2006-04-01 07:00;METAR CYOW 010700Z 19007KT 8SM OVC260 12/11 A2968 RMK CI5 SLP052=
CYOW;2006-04-01 08:00;METAR CYOW 010800Z 17005KT 7SM FEW050 11/10 A2965 RMK SC1 SLP043=
CYOW;2006-04-01 09:00;METAR CYOW 010900Z 18005KT 8SM BKN035 11/10 A2962 RMK SC5 SLP032=
CYOW;2006-04-01 10:00;METAR CYOW 011000Z 17008KT 10SM SCT073 BKN110 12/10 A2959 RMK AC3AC4 SLP022=
CYOW;2006-04-01 10:39;SPECI CYOW 011039Z 18007KT 10SM -RA BKN042 OVC100 13/ RMK SC6AC2=
CYOW;2006-04-01 11:50;SPECI CYOW 011150Z 18006KT 8SM -SHRA SCT025 OVC072 12/ RETS RMK SC3AC5=
CYOW;2006-04-01 12:00;METAR CYOW 011200Z 19006KT 8SM -SHRA BKN029 OVC070 12/11 A2956 RETS RMK SC5AC3 SLP010=
CYOW;2006-04-01 13:00;METAR CYOW 011300Z 20004KT 6SM -RA BR SCT011 OVC025 11/11 A2955 RMK SF3SC5 SLP008=
CYOW;2006-04-01 14:00;METAR CYOW 011400Z 22005KT 4SM -RA BR BKN008 OVC020 11/11 A2954 RMK SF5SC3 SLP006=
CYOW;2006-04-01 14:26;SPECI CYOW 011426Z 21006KT 6SM -RA BR SCT010 OVC028 11/ RMK SF4SC4=
CYOW;2006-04-01 15:00;METAR CYOW 011500Z 22009KT 6SM -RA BR BKN014 OVC030 11/10 A2956 RMK SF6SC2 SLP012=
CYOW;2006-04-01 15:45;SPECI CYOW 011545Z 25013G20KT 10SM -RA FEW015 OVC051 10/ RMK SF2SC6=
CYOW;2006-04-01 16:00;METAR CYOW 011600Z 26011G16KT 15SM -RA FEW020 OVC060 10/08 A2959 RMK CU2SC6 SLP021=
CYOW;2006-04-01 16:36;SPECI CYOW 011636Z 26016KT 15SM FEW020 BKN060 BKN090 11/ RMK CU2SC3AC2=
CYOW;2006-04-01 17:00;METAR CYOW 011700Z 26017G27KT 15SM FEW020 BKN040 BKN090 10/05 A2960 RMK CU2SC4AC1 SLP026=
CYOW;2006-04-01 18:00;METAR CYOW 011800Z 25013G19KT 15SM FEW020 BKN033 BKN090 11/05 A2961 RMK CU1SC5AC2 SLP029=
CYOW;2006-04-01 19:00;METAR CYOW 011900Z 27014KT 15SM BKN033 OVC060 11/05 A2961 RMK SC7SC1 SLP030=
CYOW;2006-04-01 20:00;METAR CYOW 012000Z 28017KT 10SM -RA OVC027 09/05 A2964 RMK SC8 SLP040=
CYOW;2006-04-01 21:00;METAR CYOW 012100Z 29020KT 15SM -RA FEW010 OVC016 08/05 A2967 RMK CF1SC8 CUFRA TR SLP049=
CYOW;2006-04-01 21:33;SPECI CYOW 012133Z 28016KT 10SM -RA OVC013 08/ RMK SC8=
CYOW;2006-04-01 22:00;METAR CYOW 012200Z 29023G29KT 15SM OVC016 07/04 A2972 RMK SC8 SLP066=
CYOW;2006-04-01 23:00;METAR CYOW 012300Z 31016G22KT 20SM OVC017 06/03 A2978 RMK SC8 PRESRR SLP087=
CYOW;2006-04-02 00:00;METAR CYOW 020000Z 32013G22KT 15SM OVC023 06/02 A2984 RMK SC8 PRESRR SLP108=
CYOW;2006-04-02 00:43;SPECI CYOW 020043Z 29013KT 15SM -RA BKN024 OVC038 05/ RMK SC6SC2=
CYOW;2006-04-02 01:00;METAR CYOW 020100Z 29010G16KT 15SM -RA BKN027 OVC040 05/01 A2988 RMK SC6SC2 SLP122=
CYOW;2006-04-02 01:29;SPECI CYOW 020129Z 31016KT 15SM OVC031 05/ RMK SC8=
CYOW;2006-04-02 02:00;METAR CYOW 020200Z 30014G24KT 15SM BKN025 OVC037 05/00 A2992 RMK SC6SC1 SLP135=
CYOW;2006-04-02 04:00;METAR CYOW 020400Z 30010G16KT 15SM SCT034 03/M01 A2996 RMK SC2 SLP150=
CYOW;2006-04-02 05:00;METAR CYOW 020500Z 29009KT 15SM FEW030 02/M02 A2999 RMK SC1 SLP157=
CYOW;2006-04-02 06:00;METAR CYOW 020600Z 30009KT 15SM SKC 01/M02 A3001 RMK SLP166=
CYOW;2006-04-02 07:00;METAR CYOW 020700Z 30009KT 15SM SKC 00/M04 A3001 RMK SLP166=
CYOW;2006-04-02 08:00;METAR CYOW 020800Z 30009KT 15SM FEW250 M00/M05 A3002 RMK CI0 SLP171=
CYOW;2006-04-02 09:00;METAR CYOW 020900Z 32013KT 15SM FEW250 M01/M07 A3004 RMK CI0 SLP178=
CYOW;2006-04-02 11:00;METAR CYOW 021100Z 33013KT 20SM SKC M01/M08 A3009 RMK SLP194=
CYOW;2006-04-02 12:00;METAR CYOW 021200Z 33012G17KT 20SM SKC M00/M09 A3012 RMK SLP205=
CYOW;2006-04-02 13:00;METAR CYOW 021300Z 34011G17KT 20SM SKC 01/M09 A3013 RMK SLP208=
CYOW;2006-04-02 14:00;METAR CYOW 021400Z 32006KT 20SM SKC 03/M08 A3015 RMK SLP215=
CYOW;2006-04-02 16:00;METAR CYOW 021600Z 29007KT 20SM SKC 05/M08 A3014 RMK SLP213=
CYOW;2006-04-02 17:00;METAR CYOW 021700Z 28008KT 20SM SKC 06/M08 A3014 RMK SLP211=
CYOW;2006-04-02 18:00;METAR CYOW 021800Z 31006KT 20SM SKC 08/M08 A3014 RMK SLP210=
CYOW;2006-04-02 19:00;METAR CYOW 021900Z 29007KT 20SM SKC 09/M08 A3013 RMK SLP206=
CYOW;2006-04-02 22:00;METAR CYOW 022200Z 35004KT 20SM BKN270 10/M09 A3008 RMK CI1 SLP191=
CYOW;2006-04-02 23:00;METAR CYOW 022300Z 30002KT 20SM FEW240 BKN270 09/M09 A3008 RMK CI1CS2=
CYOW;2006-04-03 00:00;METAR CYOW 030000Z 04002KT 20SM FEW240 BKN270 09/M10 A3009 RMK CI1CS1 SLP193=
CYOW;2006-04-03 01:00;METAR CYOW 030100Z 03002KT 15SM SCT270 08/M09 A3009 RMK CI0 SLP195=
CYOW;2006-04-03 03:00;METAR CYOW 030300Z 06006KT 15SM BKN210 06/M09 A3006 RMK CS3 SLP183=
CYOW;2006-04-03 05:00;METAR CYOW 030500Z 10004KT 15SM OVC150 04/M07 A3005 RMK AS8 SLP179=
CYOW;2006-04-03 07:00;METAR CYOW 030700Z 08006KT 15SM OVC140 04/M06 A3001 RMK AS8 SLP165=
CYOW;2006-04-03 08:00;METAR CYOW 030800Z 08010KT 15SM OVC120 04/M06 A2996 RMK AS8 SLP151=
CYOW;2006-04-03 09:00;METAR CYOW 030900Z 07009KT 15SM OVC160 04/M06 A2995 RMK AS8 SLP147=
CYOW;2006-04-03 11:00;METAR CYOW 031100Z 09015KT 20SM BKN150 04/M07 A2991 RMK AC7 SLP131=
CYOW;2006-04-03 12:00;METAR CYOW 031200Z 09017KT 20SM OVC120 04/M07 A2987 RMK AC8 SLP118=
CYOW;2006-04-03 14:00;METAR CYOW 031400Z 08017G23KT 20SM OVC120 05/M07 A2981 RMK AC8 SLP098=
CYOW;2006-04-03 15:00;METAR CYOW 031500Z 09017KT 20SM FEW100 OVC120 06/M04 A2980 RMK AC2AS6 SLP095=
CYOW;2006-04-03 16:00;METAR CYOW 031600Z 09011KT 20SM BKN040 OVC100 08/M04 A2978 RMK SC6AS2 SLP088=
CYOW;2006-04-03 16:18;SPECI CYOW 031618Z 09011KT 15SM -RA OVC040 07/ RMK SC8=
CYOW;2006-04-03 17:00;METAR CYOW 031700Z 10011KT 12SM -RA OVC038 06/M01 A2975 RMK SC8 SLP077=
CYOW;2006-04-03 18:00;METAR CYOW 031800Z 10011KT 6SM -RA BR OVC038 06/02 A2972 RMK NS8 SLP069=
CYOW;2006-04-03 19:00;METAR CYOW 031900Z 09011KT 8SM -RA OVC044 06/02 A2970 RMK NS8 SLP060=
CYOW;2006-04-03 19:31;SPECI CYOW 031931Z 07016KT 15SM OVC043 06/ RMK SC8=
CYOW;2006-04-03 20:00;METAR CYOW 032000Z 08013G18KT 15SM OVC042 07/03 A2965 RMK SC8 SLP043=
CYOW;2006-04-03 21:00;METAR CYOW 032100Z 08014G20KT 15SM BKN052 08/02 A2961 RMK SC7 SLP030=
CYOW;2006-04-03 22:00;METAR CYOW 032200Z 07012KT 15SM BKN053 BKN100 OVC250 08/02 A2959 RMK SC6AC2CS0 SLP025=
CYOW;2006-04-03 23:00;METAR CYOW 032300Z 09013G18KT 15SM FEW050 BKN110 BKN250 08/01 A2959 RMK SC1AC6CS1 SLP022=
CYOW;2006-04-04 00:00;METAR CYOW 040000Z 08015KT 15SM FEW050 BKN100 OVC250 08/01 A2956 RMK SC1AC6CS0 VIRGA ALQDS SLP015=
CYOW;2006-04-04 00:35;SPECI CYOW 040035Z 13007KT 15SM -RA OVC077 08/ RMK AC8 CIG RAG VRY LGT RA=
CYOW;2006-04-04 05:00;METAR CYOW 040500Z 12008KT 10SM -RA OVC019 06/05 A2956 RMK SC8 SLP012=
CYOW;2006-04-04 06:00;METAR CYOW 040600Z 13008KT 6SM -RA BR OVC017 05/05 A2954 RMK SC8 SLP006=
CYOW;2006-04-04 06:29;SPECI CYOW 040629Z 12009KT 6SM -RA BR SCT009 OVC014 06/ RMK SF3SC5=
CYOW;2006-04-04 06:48;SPECI CYOW 040648Z 14008KT 6SM -RA BR BKN008 OVC012 06/ RMK SF5SC3=
CYOW;2006-04-04 07:00;METAR CYOW 040700Z 16009KT 5SM -RA BR BKN007 OVC011 06/05 A2951 RMK SF7SC1 SLP998=
CYOW;2006-04-04 07:26;SPECI CYOW 040726Z 16007KT 6SM -RA BR FEW007 SCT020 OVC047 06/ RMK SF2SC2SC4=
CYOW;2006-04-04 08:17;SPECI CYOW 040817Z 18013KT 10SM -RA BKN006 OVC011 05/ RMK SC6SC2=
CYOW;2006-04-04 09:00;METAR CYOW 040900Z 18008KT 8SM -RA OVC007 04/03 A2951 RMK SC8 SLP995=
CYOW;2006-04-04 09:46;SPECI CYOW 040946Z 19009G15KT 10SM -RA FEW007 OVC010 04/ RMK SC2SC6=
CYOW;2006-04-04 10:00;METAR CYOW 041000Z 20009G16KT 10SM -RA FEW008 BKN012 OVC020 03/02 A2953 RMK SC2SC6SC1 SLP003=
CYOW;2006-04-04 10:14;SPECI CYOW 041014Z 21008KT 10SM -RA FEW009 BKN016 OVC024 03/ RMK SC2SC6SC1=
CYOW;2006-04-04 11:00;METAR CYOW 041100Z 21009KT 10SM -RA BKN011 OVC020 02/01 A2955 RMK SC7SC1 SLP011=
CYOW;2006-04-04 11:08;SPECI CYOW 041108Z 22006KT 2SM -RASN BR OVC009 02/ RMK FG1SC7 VRY LGT SN=
CYOW;2006-04-04 11:53;SPECI CYOW 041153Z 28008KT 1 1/2SM -SN BR OVC005 01/ RMK FG2SF6=
CYOW;2006-04-04 12:00;METAR CYOW 041200Z 28009KT 1SM -SN BR OVC006 01/M00 A2958 RMK FG4SF4 SLP020=
CYOW;2006-04-04 13:00;METAR CYOW 041300Z 27016KT 2SM -SN BR OVC009 M01/M01 A2958 RMK FG2SF6 SLP021=
CYOW;2006-04-04 14:00;METAR CYOW 041400Z 28015KT 2SM -SN BR OVC011 M01/M03 A2960 RMK FG2SF6 SLP029=
CYOW;2006-04-04 15:00;METAR CYOW 041500Z 27018KT 1 1/2SM -SN BR OVC011 M01/M03 A2961 RMK FG2SF6 SLP030=
CYOW;2006-04-04 15:29;SPECI CYOW 041529Z 28016G21KT 2SM -SN BR OVC017 M01/ RMK FG1SF7=
CYOW;2006-04-04 16:00;METAR CYOW 041600Z 28015KT 2 1/2SM -SN BR SCT020 OVC037 M01/M04 A2962 RMK FG1SC3SC4 /S02/ SLP033=
CYOW;2006-04-04 16:21;SPECI CYOW 041621Z 29015G24KT 15SM -SG SCT015 OVC035 M01/ RMK SF3SC5=
CYOW;2006-04-04 17:00;METAR CYOW 041700Z 29016G21KT 15SM -SG SCT015 OVC021 M01/M04 A2962 RMK SF3SC5 SLP035=
CYOW;2006-04-04 18:00;METAR CYOW 041800Z 29017G25KT 12SM -SG SCT015 OVC024 M01/M05 A2962 RMK SF3SC5 SLP037=
CYOW;2006-04-04 18:39;SPECI CYOW 041839Z 29017KT 20SM BKN024 BKN071 M01/ RMK SC5AC2=
CYOW;2006-04-04 19:00;METAR CYOW 041900Z 30014G20KT 20SM FEW024 BKN074 OVC250 M00/M04 A2963 RMK SC2AC5CI1 SLP038=
CYOW;2006-04-04 20:00;METAR CYOW 042000Z 30015G20KT 20SM FEW024 BKN044 BKN075 BKN250 01/M05 A2964 RMK SC1SC4AC2CI1 CI TR SLP042=
CYOW;2006-04-04 21:00;METAR CYOW 042100Z 31012G17KT 20SM FEW030 SCT120 BKN250 02/M04 A2963 RMK SC1AS2CC3 SLP037=
CYOW;2006-04-04 22:00;METAR CYOW 042200Z 31012KT 20SM FEW040 BKN160 BKN250 03/M04 A2963 RMK SC1AC5CI1 SC TR SLP039=
CYOW;2006-04-04 23:00;METAR CYOW 042300Z 01007KT 20SM FEW040 SCT160 BKN170 BKN250 03/M04 A2963 RMK SC1AC3AC0CI1 SC CI TR SLP039=
CYOW;2006-04-05 00:00;METAR CYOW 050000Z 03005KT 15SM FEW160 SCT250 00/M05 A2964 RMK AC2CI0 SLP042=
CYOW;2006-04-05 01:00;METAR CYOW 050100Z 04004KT 15SM FEW170 M01/M05 A2965 RMK AC0 SLP047=
CYOW;2006-04-05 02:00;METAR CYOW 050200Z 03002KT 15SM FEW170 M01/M05 A2966 RMK AC0 SLP048=
CYOW;2006-04-05 03:00;METAR CYOW 050300Z 30003KT 15SM FEW170 M02/M05 A2965 RMK AC0 SLP046=
CYOW;2006-04-05 04:00;METAR CYOW 050400Z 30005KT 15SM SKC M03/M07 A2964 RMK SLP044=
CYOW;2006-04-05 06:00;METAR CYOW 050600Z 27002KT 15SM SKC M03/M05 A2963 RMK SLP040=
CYOW;2006-04-05 07:00;METAR CYOW 050700Z 27003KT 15SM FEW180 M03/M05 A2962 RMK AC1 SLP038=
CYOW;2006-04-05 08:00;METAR CYOW 050800Z 26005KT 15SM FEW180 M03/M06 A2962 RMK AC0 SLP036=
CYOW;2006-04-05 09:00;METAR CYOW 050900Z 25005KT 15SM FEW180 M04/M07 A2962 RMK AC0 SLP035=
CYOW;2006-04-05 10:00;METAR CYOW 051000Z 24005KT 15SM FEW150 FEW180 M04/M06 A2962 RMK AC2AC0 SLP037=
CYOW;2006-04-05 11:00;METAR CYOW 051100Z 26005KT 15SM SCT070 SCT150 M04/M06 A2964 RMK AC3AC1 FROIN SLP043=
CYOW;2006-04-05 12:00;METAR CYOW 051200Z 23005KT 15SM FEW070 FEW150 M02/M05 A2966 RMK AC2AC1 FROIN SLP049=
CYOW;2006-04-05 13:00;METAR CYOW 051300Z 29013KT 15SM FEW020 BKN076 M01/M04 A2966 RMK SC2AC3 SLP051=
CYOW;2006-04-05 14:00;METAR CYOW 051400Z 28010KT 15SM BKN017 BKN030 00/M04 A2967 RMK SC5SC2 SLP053=
CYOW;2006-04-05 15:00;METAR CYOW 051500Z 30009G15KT 15SM SCT020 BKN051 01/M03 A2968 RMK SC3SC4 SLP055=
CYOW;2006-04-05 15:07;SPECI CYOW 051507Z 30013KT 10SM -SN SCT020 OVC050 01/ RMK SC3SC5 VRY LGT SN=
CYOW;2006-04-05 16:00;METAR CYOW 051600Z 29010KT 15SM -SN BKN030 OVC050 02/M04 A2968 RMK SC6SC2 VRY LGT SN SLP058=
CYOW;2006-04-05 17:00;METAR CYOW 051700Z 28010KT 15SM -SN BKN030 OVC060 03/M04 A2968 RMK SC6SC2 SLP058=
CYOW;2006-04-05 18:00;METAR CYOW 051800Z 30011KT 15SM -SN SCT030 OVC051 02/M04 A2969 RMK SC3SC5 SLP060=
CYOW;2006-04-05 19:00;METAR CYOW 051900Z 31013KT 15SM -SN SCT020 OVC042 02/M03 A2969 RMK SC3SC5 VRY LGT SN SLP059=
CYOW;2006-04-05 20:00;METAR CYOW 052000Z 30009KT 15SM -SN OVC042 02/M03 A2969 RMK SC8 VRY LGT SN SLP059=
CYOW;2006-04-05 21:00;METAR CYOW 052100Z 28007KT 15SM -SN OVC052 03/M03 A2969 RMK SC8 VRY LGT SN SLP061=
CYOW;2006-04-05 22:00;METAR CYOW 052200Z 26003KT 15SM SCT050 BKN061 03/M03 A2970 RMK SC3SC4 SLP062=
CYOW;2006-04-05 23:00;METAR CYOW 052300Z 27005KT 20SM BKN032 BKN070 BKN250 03/M04 A2971 RMK SC4AC2CI1 SLP065=
CYOW;2006-04-06 00:00;METAR CYOW 060000Z 26006KT 15SM BKN035 OVC100 02/M03 A2972 RMK SC4AC3 SLP071=
CYOW;2006-04-06 01:00;METAR CYOW 060100Z 27004KT 15SM OVC028 02/M02 A2974 RMK SC8 SLP078=
CYOW;2006-04-06 02:00;METAR CYOW 060200Z 22004KT 12SM OVC029 02/M02 A2975 RMK SC8 SLP079=
CYOW;2006-04-06 02:22;SPECI CYOW 060222Z 21005KT 8SM -SN OVC027 02/ RMK SC8=
CYOW;2006-04-06 03:00;METAR CYOW 060300Z 23004KT 8SM -SN OVC019 02/M01 A2975 RMK SC8 SLP078=
CYOW;2006-04-06 04:00;METAR CYOW 060400Z 25004KT 10SM -SN FEW011 FEW020 OVC120 02/M00 A2974 RMK CF1SC2AC6 MOON VISBL SLP077=
CYOW;2006-04-06 04:25;SPECI CYOW 060425Z 26006KT 10SM -SN SCT008 SCT020 OVC120 02/ RMK SF0SC3AC5 MOON VISBL=
CYOW;2006-04-06 05:00;METAR CYOW 060500Z 25005KT 12SM FEW009 OVC027 01/M00 A2975 RMK CF2SC6 MOON VISBL SLP078=
CYOW;2006-04-06 06:00;METAR CYOW 060600Z 27005KT 15SM FEW011 FEW030 BKN120 01/M00 A2974 RMK CF1SC2AC4 SLP076=
CYOW;2006-04-06 06:37;SPECI CYOW 060637Z 26005KT 15SM BKN010 01/ RMK SC7=
CYOW;2006-04-06 07:00;METAR CYOW 060700Z 27006KT 15SM BKN010 OVC110 01/M00 A2974 RMK SC6AC2 SLP077=
CYOW;2006-04-06 07:29;SPECI CYOW 060729Z 28008KT 15SM FEW010 SCT021 OVC049 01/ RMK SF2SC2SC4=
CYOW;2006-04-06 08:00;METAR CYOW 060800Z 27008KT 15SM FEW010 SCT020 BKN052 01/M00 A2975 RMK CF1SC3SC4 SLP079=
CYOW;2006-04-06 09:00;METAR CYOW 060900Z 28008KT 15SM BKN020 BKN110 01/M00 A2976 RMK SC6AC2 SLP083=
CYOW;2006-04-06 10:00;METAR CYOW 061000Z 27006KT 15SM FEW017 BKN023 00/M01 A2978 RMK SC1SC6 SLP088=
CYOW;2006-04-06 11:00;METAR CYOW 061100Z 27009KT 15SM SCT025 02/M01 A2979 RMK SC4 SLP094=
CYOW;2006-04-06 12:00;METAR CYOW 061200Z 28009KT 15SM BKN024 02/M01 A2982 RMK SC7 SLP103=
CYOW;2006-04-06 13:00;METAR CYOW 061300Z 29008KT 15SM SCT025 03/00 A2983 RMK CU3 SLP105=
CYOW;2006-04-06 14:00;METAR CYOW 061400Z 28005KT 15SM BKN023 04/00 A2982 RMK SC6 CU ASOCTD SLP102=
CYOW;2006-04-06 15:00;METAR CYOW 061500Z 30008KT 15SM OVC021 04/M01 A2983 RMK SC7 SLP107=
CYOW;2006-04-06 17:00;METAR CYOW 061700Z 25005KT 15SM SCT030 07/M00 A2981 RMK SC3 CU ASOCT SLP100=
CYOW;2006-04-06 18:00;METAR CYOW 061800Z 27009KT 15SM BKN031 08/00 A2982 RMK SC7 SLP101=
CYOW;2006-04-06 19:00;METAR CYOW 061900Z 27009KT 20SM FEW027 BKN032 07/M01 A2982 RMK CU1SC6 SLP102=
CYOW;2006-04-06 21:00;METAR CYOW 062100Z 30006KT 20SM BKN043 08/M01 A2980 RMK SC6 SLP097=
CYOW;2006-04-06 22:00;METAR CYOW 062200Z 26003KT 20SM SCT055 BKN070 09/M00 A2980 RMK SC3AC2 SLP095=
CYOW;2006-04-06 23:00;METAR CYOW 062300Z 16006KT 20SM FEW040 BKN056 08/01 A2979 RMK SC1SC5 SLP093=
CYOW;2006-04-07 00:00;METAR CYOW 070000Z 17004KT 20SM FEW050 06/01 A2979 RMK SC1 SLP094=
CYOW;2006-04-07 01:00;METAR CYOW 070100Z 17004KT 15SM SKC 04/00 A2979 RMK SLP094=
CYOW;2006-04-07 02:00;METAR CYOW 070200Z 18006KT 15SM BKN140 04/00 A2978 RMK AC7 MOON VISBL SLP090=
CYOW;2006-04-07 03:00;METAR CYOW 070300Z 19004KT 15SM OVC150 04/00 A2977 RMK AC8 MOON VISBL SLP087=
CYOW;2006-04-07 04:00;METAR CYOW 070400Z 20004KT 15SM OVC150 04/01 A2976 RMK AC8 SLP084=
CYOW;2006-04-07 05:00;METAR CYOW 070500Z 20005KT 15SM OVC120 04/01 A2975 RMK AC7 SLP079=
CYOW;2006-04-07 06:00;METAR CYOW 070600Z 20004KT 15SM SCT110 BKN150 04/01 A2973 RMK AC3AC1 SLP073=
CYOW;2006-04-07 07:00;METAR CYOW 070700Z 19004KT 15SM OVC110 04/01 A2972 RMK AC8 SLP067=
CYOW;2006-04-07 08:00;METAR CYOW 070800Z 18004KT 15SM OVC080 03/01 A2971 RMK AC8 SLP063=
CYOW;2006-04-07 09:00;METAR CYOW 070900Z 21003KT 15SM BKN060 OVC071 04/01 A2971 RMK SC5AC3 SLP063=
CYOW;2006-04-07 10:00;METAR CYOW 071000Z 18003KT 8SM -RA OVC043 03/01 A2970 RMK SC8 SLP060=
CYOW;2006-04-07 11:00;METAR CYOW 071100Z 18004KT 8SM -RA OVC048 03/02 A2968 RMK SC8 SLP054=
CYOW;2006-04-07 12:00;METAR CYOW 071200Z 17003KT 6SM -RA BR OVC054 04/02 A2966 RMK SC8 SLP049=
CYOW;2006-04-07 13:00;METAR CYOW 071300Z 18004KT 6SM -RA BR OVC030 04/03 A2965 RMK SC8 SLP045=
CYOW;2006-04-07 16:00;METAR CYOW 071600Z 00000KT 6SM -RA BR OVC030 06/04 A2960 RMK SC8 SLP027=
CYOW;2006-04-07 17:00;METAR CYOW 071700Z 32003KT 3SM -RA BR SCT006 OVC025 05/05 A2958 RMK SF3SC5 SLP021=
CYOW;2006-04-07 17:41;SPECI CYOW 071741Z 33002KT 3SM -RA BR BKN004 OVC020 06/ RMK SF6SC2=
CYOW;2006-04-07 18:00;METAR CYOW 071800Z 33004KT 3SM -RA BR BKN004 OVC020 06/05 A2956 RMK SF6NS2 SLP013=
CYOW;2006-04-07 19:00;METAR CYOW 071900Z 31007KT 3SM -RA BR SCT004 OVC016 05/05 A2954 RMK SF3NS5 SLP009=
CYOW;2006-04-07 20:27;SPECI CYOW 072027Z 34011KT 5SM -RA BR BKN005 OVC020 03/ RMK SF6NS2=
CYOW;2006-04-07 21:00;METAR CYOW 072100Z 35012KT 12SM -RA BKN005 OVC020 02/01 A2956 RMK SF7NS1 SLP013=
CYOW;2006-04-07 21:27;SPECI CYOW 072127Z 34011KT 12SM -RASN SCT008 OVC030 01/ RMK SF3NS5=
CYOW;2006-04-07 23:00;METAR CYOW 072300Z 36007KT 20SM OVC044 01/M04 A2962 RMK SC8 SLP033=
CYOW;2006-04-08 00:00;METAR CYOW 080000Z 32004KT 15SM BKN060 01/M03 A2963 RMK SC6 SLP039=
CYOW;2006-04-08 04:00;METAR CYOW 080400Z 33013KT 15SM SCT190 M03/M10 A2975 RMK AC0 SLP080=
CYOW;2006-04-08 06:00;METAR CYOW 080600Z 34018KT 15SM FEW030 M05/M11 A2982 RMK CF1 SLP105=
CYOW;2006-04-08 07:00;METAR CYOW 080700Z 34017KT 15SM FEW030 M05/M11 A2983 RMK SC1 SLP108=
CYOW;2006-04-08 08:00;METAR CYOW 080800Z 34013G18KT 15SM FEW030 M06/M12 A2985 RMK SC1 SLP115=
CYOW;2006-04-08 09:00;METAR CYOW 080900Z 32014KT 15SM SKC M07/M13 A2987 RMK SLP121=
CYOW;2006-04-08 10:00;METAR CYOW 081000Z 32013KT 15SM FEW180 M07/M13 A2992 RMK AC1 SLP138=
CYOW;2006-04-08 11:00;METAR CYOW 081100Z 32008KT 20SM FEW180 M07/M13 A2993 RMK AC1 SLP141=
CYOW;2006-04-08 12:00;METAR CYOW 081200Z 33010KT 20SM FEW180 M06/M12 A2994 RMK AC1 SLP147=
CYOW;2006-04-08 13:00;METAR CYOW 081300Z 34008KT 20SM FEW180 M04/M11 A2996 RMK AC1 SLP152=
CYOW;2006-04-08 14:00;METAR CYOW 081400Z 32009KT 20SM FEW180 M04/M11 A2996 RMK AC1 SLP153=
CYOW;2006-04-08 15:00;METAR CYOW 081500Z 31008KT 20SM FEW180 M03/M11 A2997 RMK AC1 SLP155=
CYOW;2006-04-08 16:00;METAR CYOW 081600Z 27007KT 20SM FEW020 FEW240 M01/M10 A2998 RMK CF1CI1 TR CUFRA SLP157=
CYOW;2006-04-08 17:00;METAR CYOW 081700Z 30007KT 20SM FEW240 01/M10 A2997 RMK CI2 SLP155=
CYOW;2006-04-08 18:00;METAR CYOW 081800Z 29008KT 20SM FEW020 FEW240 01/M10 A2997 RMK CF1CI1 SLP154=
CYOW;2006-04-08 19:00;METAR CYOW 081900Z 29005KT 20SM FEW180 03/M09 A2996 RMK AC1 SLP153=
CYOW;2006-04-08 20:00;METAR CYOW 082000Z 29008G15KT 20SM FEW180 04/M09 A2996 RMK AC1 SLP152=
CYOW;2006-04-08 21:00;METAR CYOW 082100Z 29007KT 20SM FEW180 04/M08 A2997 RMK AC1 SLP156=
CYOW;2006-04-08 22:00;METAR CYOW 082200Z 26008KT 20SM FEW180 04/M08 A3000 RMK AC1 SLP166=
CYOW;2006-04-09 00:00;METAR CYOW 090000Z 27006KT 20SM FEW150 02/M07 A3005 RMK AC1 SLP181=
CYOW;2006-04-09 01:00;METAR CYOW 090100Z 27006KT 15SM SKC 01/M08 A3006 RMK SLP187=
CYOW;2006-04-09 02:00;METAR CYOW 090200Z 29008KT 15SM SKC 01/M07 A3007 RMK SLP190=
CYOW;2006-04-09 04:00;METAR CYOW 090400Z 29004KT 15SM SKC M01/M07 A3010 RMK SLP199=
CYOW;2006-04-09 05:00;METAR CYOW 090500Z 29004KT 15SM SKC M01/M07 A3011 RMK SLP203=
CYOW;2006-04-09 06:00;METAR CYOW 090600Z 30004KT 15SM SKC M02/M07 A3011 RMK AURBO SLP204=
CYOW;2006-04-09 07:00;METAR CYOW 090700Z 31003KT 15SM SKC M02/M07 A3012 RMK AURBO SLP206=
CYOW;2006-04-09 08:00;METAR CYOW 090800Z 27004KT 15SM SKC M03/M06 A3013 RMK SLP208=
CYOW;2006-04-09 09:00;METAR CYOW 090900Z 23003KT 15SM FEW055 M02/M07 A3014 RMK SC1 FROIN SLP211=
CYOW;2006-04-09 11:00;METAR CYOW 091100Z 28005KT 20SM BKN052 M02/M06 A3017 RMK SC6 SLP222=
CYOW;2006-04-09 12:00;METAR CYOW 091200Z 28006KT 20SM FEW050 M00/M05 A3019 RMK SC2 SLP228=
CYOW;2006-04-09 13:00;METAR CYOW 091300Z 29006KT 20SM FEW240 02/M06 A3020 RMK CI1 SLP232=
CYOW;2006-04-09 14:00;METAR CYOW 091400Z 30004KT 20SM FEW020 FEW240 04/M05 A3021 RMK CF1CI2 SLP235=
CYOW;2006-04-09 15:00;METAR CYOW 091500Z 30008KT 20SM FEW020 SCT240 05/M06 A3020 RMK CU2CI1 SLP233=
CYOW;2006-04-09 16:00;METAR CYOW 091600Z 29007KT 20SM FEW030 BKN240 06/M05 A3018 RMK CU2CI2 SLP226=
CYOW;2006-04-09 17:00;METAR CYOW 091700Z 31011G17KT 20SM FEW040 SCT240 08/M05 A3016 RMK CU2CI1 SLP219=
CYOW;2006-04-09 18:00;METAR CYOW 091800Z 31014G19KT 20SM FEW050 SCT240 08/M05 A3014 RMK CU2CI1 SLP213=
CYOW;2006-04-09 20:00;METAR CYOW 092000Z 31011G17KT 20SM FEW050 FEW240 10/M07 A3012 RMK CU1CI1 SLP204=
CYOW;2006-04-09 21:00;METAR CYOW 092100Z 32011KT 20SM FEW050 10/M07 A3011 RMK CU1 SLP201=
CYOW;2006-04-09 23:00;METAR CYOW 092300Z 31003KT 20SM FEW060 FEW260 09/M07 A3011 RMK SC1CI1 CLDS TR SLP199=
CYOW;2006-04-10 00:00;METAR CYOW 100000Z 00000KT 20SM FEW060 FEW260 08/M07 A3011 RMK SC1CI1 CLDS TR SLP201=
CYOW;2006-04-10 01:00;METAR CYOW 100100Z 19005KT 15SM SKC 05/M04 A3013 RMK SLP208=
CYOW;2006-04-10 02:00;METAR CYOW 100200Z 18005KT 15SM SKC 04/M03 A3014 RMK SLP211=
CYOW;2006-04-10 04:00;METAR CYOW 100400Z 19006KT 15SM SKC 02/M03 A3014 RMK SLP212=
CYOW;2006-04-10 05:00;METAR CYOW 100500Z 22006KT 15SM SKC 01/M03 A3015 RMK SLP213=
CYOW;2006-04-10 08:00;METAR CYOW 100800Z 24003KT 15SM SKC 02/M04 A3016 RMK SLP216=
CYOW;2006-04-10 09:00;METAR CYOW 100900Z 24004KT 15SM SKC 00/M04 A3016 RMK SLP218=
CYOW;2006-04-10 11:00;METAR CYOW 101100Z 22005KT 20SM SKC M00/M04 A3019 RMK FROIN SLP229=
CYOW;2006-04-10 12:00;METAR CYOW 101200Z 23005KT 20SM FEW240 01/M03 A3022 RMK CI1 SLP239=
CYOW;2006-04-10 13:00;METAR CYOW 101300Z 25007KT 20SM FEW180 04/M03 A3022 RMK AC1 SLP240=
CYOW;2006-04-10 14:00;METAR CYOW 101400Z 23006KT 20SM FEW180 06/M03 A3022 RMK AC1 TR AC SLP240=
CYOW;2006-04-10 15:00;METAR CYOW 101500Z 25009KT 20SM FEW180 08/M03 A3022 RMK AC1 SLP239=
CYOW;2006-04-10 16:00;METAR CYOW 101600Z 24008KT 20SM FEW180 11/M02 A3022 RMK AC1 TR AC SLP236=
CYOW;2006-04-10 17:00;METAR CYOW 101700Z 26006KT 20SM FEW020 FEW180 12/M03 A3020 RMK CU1AC1 SLP230=
CYOW;2006-04-10 18:00;METAR CYOW 101800Z 29008G16KT 20SM FEW030 14/M03 A3018 RMK CU2 SLP223=
CYOW;2006-04-10 19:00;METAR CYOW 101900Z 22009G17KT 20SM FEW030 14/M03 A3016 RMK CU2 SLP218=
CYOW;2006-04-10 20:00;METAR CYOW 102000Z 28011KT 20SM FEW040 15/M03 A3015 RMK CU2 SLP213=
CYOW;2006-04-10 21:00;METAR CYOW 102100Z 30007KT 20SM FEW040 16/M04 A3014 RMK CU1 SLP210=
CYOW;2006-04-10 22:00;METAR CYOW 102200Z 30007KT 20SM FEW065 FEW250 15/M04 A3014 RMK CU1CI1 CLDS TR SLP211=
CYOW;2006-04-10 23:00;METAR CYOW 102300Z 25004KT 20SM FEW075 FEW270 14/M04 A3015 RMK AC1CI1 CLDS TR SLP214=
CYOW;2006-04-11 00:00;METAR CYOW 110000Z 19004KT 20SM FEW250 10/01 A3017 RMK CI1 SLP221=
CYOW;2006-04-11 01:00;METAR CYOW 110100Z 18004KT 15SM SKC 08/M00 A3019 RMK SLP228=
CYOW;2006-04-11 04:00;METAR CYOW 110400Z 20006KT 15SM SKC 06/M01 A3022 RMK SLP237=
CYOW;2006-04-11 05:00;METAR CYOW 110500Z 20004KT 15SM SKC 05/M01 A3022 RMK SLP239=
CYOW;2006-04-11 06:00;METAR CYOW 110600Z 20003KT 15SM SKC 04/M01 A3023 RMK SLP239=
CYOW;2006-04-11 08:00;METAR CYOW 110800Z 00000KT 15SM FEW150 SCT250 03/M01 A3024 RMK AC2CI0 SLP244=
CYOW;2006-04-11 09:00;METAR CYOW 110900Z 17003KT 15SM BKN220 BKN260 02/M01 A3026 RMK CI5CI0 SLP250=
CYOW;2006-04-11 10:00;METAR CYOW 111000Z 18002KT 15SM BKN140 BKN250 02/M01 A3027 RMK AS6CI0 SLP254=
CYOW;2006-04-11 11:00;METAR CYOW 111100Z 18003KT 15SM BKN140 01/M01 A3030 RMK AC6 SLP263=
CYOW;2006-04-11 12:00;METAR CYOW 111200Z 19002KT 15SM BKN120 03/00 A3031 RMK AC6 SLP270=
CYOW;2006-04-11 13:00;METAR CYOW 111300Z 22003KT 15SM OVC120 05/M00 A3032 RMK AC7 SLP272=
CYOW;2006-04-11 16:00;METAR CYOW 111600Z 20006KT 15SM FEW100 FEW140 15/M01 A3031 RMK AC1AC1 SLP269=
CYOW;2006-04-11 17:00;METAR CYOW 111700Z 23005KT 15SM FEW140 16/01 A3030 RMK AC1 SLP263=
CYOW;2006-04-11 18:00;METAR CYOW 111800Z 17005KT 15SM FEW060 FEW140 17/01 A3028 RMK CU1AC1 SLP256=
CYOW;2006-04-11 21:00;METAR CYOW 112100Z 20004KT 15SM FEW075 FEW270 19/M00 A3025 RMK AC1CI0 AC TR SLP245=
CYOW;2006-04-11 22:00;METAR CYOW 112200Z 18006KT 15SM SCT270 18/M00 A3024 RMK CI1 SLP243=
CYOW;2006-04-11 23:00;METAR CYOW 112300Z 20005KT 15SM FEW200 OVC270 17/M01 A3023 RMK CI2CI0 SLP240=
CYOW;2006-04-12 00:00;METAR CYOW 120000Z 17003KT 15SM SCT200 OVC270 15/00 A3023 RMK CI3CI0 SLP240=
CYOW;2006-04-12 01:00;METAR CYOW 120100Z 12004KT 15SM FEW180 BKN270 12/M00 A3023 RMK AC2CI0 SLP242=
CYOW;2006-04-12 02:00;METAR CYOW 120200Z 13006KT 15SM FEW180 10/M01 A3023 RMK AC1 SLP242=
CYOW;2006-04-12 03:00;METAR CYOW 120300Z 14007KT 15SM FEW160 11/M00 A3022 RMK AC1 SLP238=
CYOW;2006-04-12 04:00;METAR CYOW 120400Z 14007KT 15SM FEW160 09/M00 A3022 RMK AC2 SLP236=
CYOW;2006-04-12 06:00;METAR CYOW 120600Z 09005KT 15SM FEW160 OVC200 07/M00 A3019 RMK AC2CI0 SLP227=
CYOW;2006-04-12 07:00;METAR CYOW 120700Z 07005KT 15SM FEW150 07/M00 A3018 RMK AC2 SLP223=
CYOW;2006-04-12 10:00;METAR CYOW 121000Z 08005KT 15SM FEW160 OVC250 05/M01 A3015 RMK AC1CI0 AC TR SLP212=
CYOW;2006-04-12 12:00;METAR CYOW 121200Z 09006KT 15SM FEW160 OVC200 08/00 A3014 RMK AC2CI3 SLP210=
CYOW;2006-04-12 13:00;METAR CYOW 121300Z 08005KT 15SM FEW140 OVC230 09/01 A3013 RMK AC2CI3 SLP204=
CYOW;2006-04-12 14:00;METAR CYOW 121400Z 14003KT 15SM SCT140 OVC200 13/02 A3010 RMK AC3CI3 SLP196=
CYOW;2006-04-12 15:00;METAR CYOW 121500Z 17005KT 15SM SCT130 OVC200 16/03 A3008 RMK AC3CI2 SLP190=
CYOW;2006-04-12 16:00;METAR CYOW 121600Z 19009KT 15SM FEW130 BKN200 21/05 A3006 RMK AC2CI2 SLP181=
CYOW;2006-04-12 17:00;METAR CYOW 121700Z 22013KT 15SM SCT130 OVC200 21/04 A3003 RMK AC4CI2 SLP171=
CYOW;2006-04-12 18:00;METAR CYOW 121800Z 22012KT 15SM BKN110 OVC140 21/05 A3001 RMK AC5AC2 SLP164=
CYOW;2006-04-12 19:00;METAR CYOW 121900Z 20013KT 15SM BKN110 OVC160 20/05 A3000 RMK AC6AC2 SLP161=
CYOW;2006-04-12 21:00;METAR CYOW 122100Z 22013G21KT 15SM BKN070 OVC100 19/06 A2997 RMK AC6AC2 SLP151=
CYOW;2006-04-12 22:13;SPECI CYOW 122213Z 19011G17KT 15SM -RA OVC082 18/ RMK AC8=
CYOW;2006-04-12 23:00;METAR CYOW 122300Z 18007KT 10SM -RA OVC064 15/10 A2993 RMK SC8 SLP138=
CYOW;2006-04-13 00:00;METAR CYOW 130000Z 15008KT 15SM OVC078 14/11 A2991 RMK AC8 SLP130=
CYOW;2006-04-13 01:00;METAR CYOW 130100Z 14009KT 15SM BKN074 OVC110 14/10 A2988 RMK AC6AC2 SLP120=
CYOW;2006-04-13 02:00;METAR CYOW 130200Z 14009KT 15SM OVC084 14/10 A2985 RMK AC8 SLP111=
CYOW;2006-04-13 04:00;METAR CYOW 130400Z 16006KT 15SM FEW065 BKN140 14/08 A2976 RMK SC1AC6 SLP081=
CYOW;2006-04-13 05:00;METAR CYOW 130500Z 20016G30KT 15SM OVC055 17/08 A2974 RMK SC8 SLP072=
CYOW;2006-04-13 05:33;SPECI CYOW 130533Z 19017G29KT 12SM -RA OVC020 14/ RMK SC8=
CYOW;2006-04-13 05:45;SPECI CYOW 130545Z 19020G31KT 10SM -RA BKN011 OVC016 13/ RMK SF6SC2=
CYOW;2006-04-13 06:27;SPECI CYOW 130627Z 20016G22KT 8SM -RA OVC009 13/ RMK SC8 RA VRY LGT=
CYOW;2006-04-13 07:00;METAR CYOW 130700Z 20013G18KT 8SM -RA OVC006 12/11 A2969 RMK SC8 RA VRY LGT SLP055=
CYOW;2006-04-13 08:23;SPECI CYOW 130823Z 21010G15KT 10SM -RA FEW009 OVC012 12/ RMK SF2SC6=
CYOW;2006-04-13 09:26;SPECI CYOW 130926Z 23013G21KT 7SM -RA FEW008 OVC013 10/ RMK CF2SC6=
CYOW;2006-04-13 10:00;METAR CYOW 131000Z 23015G21KT 7SM -RA FEW009 OVC017 10/09 A2973 RMK SF2SC6 CIG RAG SLP069=
CYOW;2006-04-13 11:00;METAR CYOW 131100Z 24016G22KT 7SM -RA OVC016 10/09 A2978 RMK SC8 SLP085=
CYOW;2006-04-13 12:00;METAR CYOW 131200Z 25014G20KT 6SM -RA BR OVC015 10/08 A2982 RMK SC8 SLP101=
CYOW;2006-04-13 13:00;METAR CYOW 131300Z 28016G24KT 15SM -RA FEW012 OVC020 09/07 A2985 RMK SF2SC6 SLP111=
CYOW;2006-04-13 13:20;SPECI CYOW 131320Z 27014KT 15SM OVC023 09/ RMK SC8=
CYOW;2006-04-13 14:00;METAR CYOW 131400Z 28015G21KT 10SM SCT012 OVC023 08/07 A2988 RMK SF3SC5 SLP120=
CYOW;2006-04-13 15:00;METAR CYOW 131500Z 29013G21KT 10SM FEW018 OVC027 09/06 A2990 RMK SC2SC6 SLP128=
CYOW;2006-04-13 16:00;METAR CYOW 131600Z 29013G18KT 15SM BKN017 OVC025 08/05 A2992 RMK SC6SC2 SLP134=
CYOW;2006-04-13 17:00;METAR CYOW 131700Z 28013KT 15SM BKN020 OVC025 08/06 A2994 RMK SC5SC3 SLP139=
CYOW;2006-04-13 18:00;METAR CYOW 131800Z 28012G19KT 15SM BKN020 OVC027 09/05 A2995 RMK SC5SC3 SLP145=
CYOW;2006-04-13 19:00;METAR CYOW 131900Z 29013KT 15SM FEW020 BKN028 10/06 A2996 RMK CU1SC6 SLP149=
CYOW;2006-04-13 21:00;METAR CYOW 132100Z 30010G17KT 15SM FEW025 FEW080 11/05 A2997 RMK SC2AC1 AC TR SLP153=
CYOW;2006-04-13 22:00;METAR CYOW 132200Z 32011KT 15SM FEW025 FEW080 11/05 A2996 RMK SC1AC1 CLDS TR SLP148=
CYOW;2006-04-14 00:00;METAR CYOW 140000Z 35006KT 15SM FEW080 08/03 A2997 RMK AC1 SLP153=
CYOW;2006-04-14 01:00;METAR CYOW 140100Z 02005KT 15SM FEW080 07/03 A2998 RMK AC2 SLP155=
CYOW;2006-04-14 04:00;METAR CYOW 140400Z 10004KT 15SM FEW100 04/02 A2998 RMK AC1 SLP155=
CYOW;2006-04-14 05:00;METAR CYOW 140500Z 09002KT 15SM SKC 04/02 A2998 RMK SLP156=
CYOW;2006-04-14 06:00;METAR CYOW 140600Z 06002KT 15SM SKC 05/02 A2996 RMK SLP150=
CYOW;2006-04-14 07:00;METAR CYOW 140700Z 07003KT 15SM SKC 04/02 A2995 RMK SLP146=
CYOW;2006-04-14 08:00;METAR CYOW 140800Z 04004KT 15SM SKC 03/01 A2994 RMK SLP141=
CYOW;2006-04-14 09:00;METAR CYOW 140900Z 03005KT 15SM SKC 02/01 A2991 RMK SLP134=
CYOW;2006-04-14 10:00;METAR CYOW 141000Z 05004KT 15SM SKC 02/00 A2992 RMK FROIN SLP135=
CYOW;2006-04-14 11:00;METAR CYOW 141100Z 07003KT 15SM SKC 02/M00 A2994 RMK FROIN SLP141=
CYOW;2006-04-14 12:00;METAR CYOW 141200Z 07006KT 15SM SKC 04/00 A2993 RMK SLP140=
CYOW;2006-04-14 13:00;METAR CYOW 141300Z 09005KT 15SM FEW200 05/01 A2991 RMK CI0 SLP134=
CYOW;2006-04-14 16:00;METAR CYOW 141600Z 07007KT 15SM FEW050 FEW080 FEW250 11/02 A2983 RMK SC1AC1CI0 SC AC TR SLP104=
CYOW;2006-04-14 17:00;METAR CYOW 141700Z 10007KT 15SM FEW080 FEW250 13/03 A2979 RMK AC1CI0 AC TR SLP092=
CYOW;2006-04-14 19:00;METAR CYOW 141900Z 08007KT 20SM FEW250 15/02 A2971 RMK CI0 SLP063=
CYOW;2006-04-14 20:00;METAR CYOW 142000Z 09009KT 20SM FEW100 SCT250 17/04 A2967 RMK AC2CI0 SLP051=
CYOW;2006-04-14 21:00;METAR CYOW 142100Z 08006KT 20SM SCT094 BKN250 16/04 A2965 RMK AC3CI1 SLP045=
CYOW;2006-04-14 22:00;METAR CYOW 142200Z 08008KT 20SM BKN088 BKN250 16/04 A2961 RMK AC6CI1 SLP031=
CYOW;2006-04-15 00:00;METAR CYOW 150000Z 11008KT 20SM BKN055 OVC220 14/03 A2959 RMK SC5CS1 SLP025=
CYOW;2006-04-15 01:00;METAR CYOW 150100Z 12004KT 15SM BKN070 BKN250 11/03 A2958 RMK AC5CI1 SLP021=
CYOW;2006-04-15 04:00;METAR CYOW 150400Z 12005KT 15SM OVC021 11/05 A2950 RMK SC8 SLP991=
CYOW;2006-04-15 05:00;METAR CYOW 150500Z 12006KT 15SM OVC036 11/05 A2946 RMK SC8 SLP980=
CYOW;2006-04-15 05:26;SPECI CYOW 150526Z 14003KT 15SM -RA OVC017 11/ RMK SC8 RA VRY LGT=
CYOW;2006-04-15 06:13;SPECI CYOW 150613Z 13004KT 10SM -RA OVC014 10/ RMK SC8 RA FINE=
CYOW;2006-04-15 06:34;SPECI CYOW 150634Z 13004KT 12SM OVC013 10/ RMK SC8 MOON VISBL=
CYOW;2006-04-15 07:41;SPECI CYOW 150741Z 25003KT 12SM OVC009 11/ RMK SC8=
CYOW;2006-04-15 09:00;METAR CYOW 150900Z 25007KT 10SM FEW009 OVC030 11/10 A2937 RMK CF2SC6 SLP948=
CYOW;2006-04-15 10:00;METAR CYOW 151000Z 23006KT 7SM FEW013 OVC020 12/10 A2937 RMK CF2SC6 MOON VISBL SLP947=
CYOW;2006-04-15 11:00;METAR CYOW 151100Z 25007KT 5SM BR BKN015 OVC020 11/10 A2937 RMK SF5SC3 SLP947=
CYOW;2006-04-15 12:00;METAR CYOW 151200Z 28008KT 6SM HZ OVC015 12/09 A2939 RMK SC8 SLP956=
CYOW;2006-04-15 13:00;METAR CYOW 151300Z 27011G18KT 10SM OVC017 11/09 A2941 RMK SC8 SLP961=
CYOW;2006-04-15 14:00;METAR CYOW 151400Z 29016KT 12SM BKN020 12/08 A2943 RMK SC7 SLP968=
CYOW;2006-04-15 16:00;METAR CYOW 151600Z 30017KT 15SM BKN030 12/05 A2948 RMK SC7 SLP983=
CYOW;2006-04-15 18:00;METAR CYOW 151800Z 29013G18KT 15SM BKN044 13/05 A2948 RMK SC6 SLP985=
CYOW;2006-04-15 19:00;METAR CYOW 151900Z 30015G25KT 20SM BKN058 13/05 A2950 RMK SC6 SLP991=
CYOW;2006-04-15 20:00;METAR CYOW 152000Z 30018G24KT 20SM BKN052 13/02 A2950 RMK SC6 SLP991=
CYOW;2006-04-15 21:00;METAR CYOW 152100Z 31018KT 20SM BKN063 11/04 A2953 RMK SC7 SLP001=
CYOW;2006-04-15 22:00;METAR CYOW 152200Z 30020G26KT 20SM BKN030 BKN070 09/02 A2957 RMK SC5AC2 SLP016=
CYOW;2006-04-15 23:00;METAR CYOW 152300Z 30014KT 15SM OVC028 08/02 A2963 RMK SC7 SLP035=
CYOW;2006-04-16 00:27;SPECI CYOW 160027Z 30015KT 12SM -RA OVC016 06/ RMK SC8=
CYOW;2006-04-16 00:48;SPECI CYOW 160048Z 29010G16KT 15SM BKN022 BKN058 06/ RMK SC5SC2=
CYOW;2006-04-16 01:00;METAR CYOW 160100Z 29012KT 15SM FEW015 BKN022 06/04 A2967 RMK SC2SC4 SLP050=
CYOW;2006-04-16 04:00;METAR CYOW 160400Z 30008KT 15SM BKN032 06/02 A2972 RMK SC7 SLP066=
CYOW;2006-04-16 05:00;METAR CYOW 160500Z 29010KT 15SM OVC032 06/02 A2973 RMK SC8 SLP071=
CYOW;2006-04-16 07:00;METAR CYOW 160700Z 28007KT 15SM SCT036 05/02 A2974 RMK SC2 SLP075=
CYOW;2006-04-16 13:00;METAR CYOW 161300Z 34016KT 20SM BKN030 07/M02 A2980 RMK SC5 SLP096=
CYOW;2006-04-16 16:00;METAR CYOW 161600Z 32013G18KT 20SM SCT040 10/M02 A2981 RMK SC3 SLP099=
CYOW;2006-04-16 17:00;METAR CYOW 161700Z 36012G19KT 20SM SCT050 11/M01 A2981 RMK SC4 SLP099=
CYOW;2006-04-16 18:00;METAR CYOW 161800Z 34012G17KT 20SM BKN050 11/M01 A2981 RMK SC5 SLP099=
CYOW;2006-04-16 20:00;METAR CYOW 162000Z 01013KT 20SM BKN050 11/M01 A2982 RMK SC5 SLP100=
CYOW;2006-04-16 22:00;METAR CYOW 162200Z 35011KT 20SM BKN050 11/M01 A2984 RMK SC6 SLP109=
CYOW;2006-04-17 00:00;METAR CYOW 170000Z 34012KT 20SM BKN054 09/M01 A2988 RMK SC6 SLP120=
CYOW;2006-04-17 01:00;METAR CYOW 170100Z 36009KT 15SM FEW055 09/M00 A2991 RMK SC2 SLP130=
CYOW;2006-04-17 02:00;METAR CYOW 170200Z 36008KT 15SM FEW060 FEW090 08/00 A2992 RMK SC1AC1 SLP136=
CYOW;2006-04-17 03:00;METAR CYOW 170300Z 35010KT 15SM FEW060 06/M00 A2992 RMK SC2 SLP135=
CYOW;2006-04-17 07:00;METAR CYOW 170700Z 36008KT 15SM BKN030 04/00 A2991 RMK SC4 SLP132=
CYOW;2006-04-17 10:00;METAR CYOW 171000Z 02006KT 20SM BKN030 04/00 A2993 RMK SC6 SLP138=
CYOW;2006-04-17 11:00;METAR CYOW 171100Z 01005KT 20SM FEW033 04/00 A2995 RMK SC2 SLP146=
CYOW;2006-04-17 13:00;METAR CYOW 171300Z 02009KT 20SM FEW040 FEW100 FEW240 08/01 A2998 RMK SC1AC1CI1 SLP155=
CYOW;2006-04-17 14:00;METAR CYOW 171400Z 02009KT 20SM FEW020 FEW240 09/01 A2998 RMK CF1CI1 SLP156=
CYOW;2006-04-17 15:00;METAR CYOW 171500Z 02004KT 20SM FEW020 BKN240 11/01 A2996 RMK CF2CI1 SLP150=
CYOW;2006-04-17 16:00;METAR CYOW 171600Z 36010KT 20SM FEW030 BKN240 12/01 A2996 RMK CU2CI2 SLP148=
CYOW;2006-04-17 17:00;METAR CYOW 171700Z 36007G15KT 20SM SCT044 BKN240 13/02 A2995 RMK CU3CI1 SLP145=
CYOW;2006-04-17 18:00;METAR CYOW 171800Z 36011KT 20SM FEW050 BKN240 14/01 A2994 RMK CU2CI1 SLP140=
CYOW;2006-04-17 19:00;METAR CYOW 171900Z 02013G19KT 20SM FEW050 BKN240 14/01 A2994 RMK CU2CI2 SLP140=
CYOW;2006-04-17 20:00;METAR CYOW 172000Z 01014G22KT 20SM SCT057 SCT084 BKN190 15/01 A2994 RMK CU3AC1AC2 SLP140=
CYOW;2006-04-17 21:00;METAR CYOW 172100Z 34008G15KT 20SM SCT063 BKN240 16/01 A2994 RMK SC3CI1 SLP140=
CYOW;2006-04-17 22:00;METAR CYOW 172200Z 03013KT 20SM FEW062 SCT075 BKN250 15/00 A2994 RMK SC2AC2CI1 SLP142=
CYOW;2006-04-17 23:00;METAR CYOW 172300Z 03014KT 20SM FEW060 FEW100 SCT250 14/M00 A2996 RMK SC1AC2CI0 SC TR SLP148=
CYOW;2006-04-18 00:00;METAR CYOW 180000Z 06006KT 20SM FEW100 SCT200 BKN270 13/00 A2998 RMK AC1CI2CI0 SLP155=
CYOW;2006-04-18 01:00;METAR CYOW 180100Z 03008KT 15SM FEW070 BKN210 12/00 A3000 RMK AC2CI2 SLP163=
CYOW;2006-04-18 03:00;METAR CYOW 180300Z 04007KT 15SM BKN062 BKN240 10/00 A3003 RMK SC5CI0 SLP173=
CYOW;2006-04-18 04:00;METAR CYOW 180400Z 07003KT 15SM FEW060 FEW250 08/00 A3005 RMK SC1CI0 SC TR SLP178=
CYOW;2006-04-18 07:00;METAR CYOW 180700Z 04006KT 15SM FEW050 FEW250 07/01 A3006 RMK SC1CI0 SC TR SLP183=
CYOW;2006-04-18 11:00;METAR CYOW 181100Z 35007KT 15SM FEW250 06/02 A3009 RMK CI1 SLP192=
CYOW;2006-04-18 13:00;METAR CYOW 181300Z 36007KT 15SM FEW250 10/03 A3010 RMK CI0 SLP194=
CYOW;2006-04-18 16:00;METAR CYOW 181600Z 36008KT 15SM FEW250 16/04 A3006 RMK CI0 SLP182=
CYOW;2006-04-18 17:00;METAR CYOW 181700Z 34009G15KT 15SM FEW040 FEW250 18/05 A3004 RMK CU1CI0 CU TR SLP176=
CYOW;2006-04-18 18:00;METAR CYOW 181800Z 34008KT 15SM FEW040 SCT250 18/04 A3002 RMK CU1CI0 SLP167=
CYOW;2006-04-18 19:00;METAR CYOW 181900Z 32005KT 20SM FEW065 BKN069 BKN250 20/04 A3000 RMK CU1AC4CI0 SLP160=
CYOW;2006-04-18 22:00;METAR CYOW 182200Z 36009KT 20SM SCT085 BKN250 19/03 A2998 RMK AC3CI1 SLP154=
CYOW;2006-04-18 23:00;METAR CYOW 182300Z 36006KT 20SM FEW080 FEW200 SCT250 18/02 A2998 RMK AC1CI2CI0 SLP153=
CYOW;2006-04-19 00:00;METAR CYOW 190000Z 03004KT 20SM BKN120 BKN250 17/01 A2999 RMK AC2CI0 SLP157=
CYOW;2006-04-19 01:00;METAR CYOW 190100Z 02005KT 15SM FEW150 16/01 A3001 RMK AC1 SLP163=
CYOW;2006-04-19 02:00;METAR CYOW 190200Z 03007KT 15SM SKC 15/00 A3001 RMK SLP165=
CYOW;2006-04-19 03:00;METAR CYOW 190300Z 01007KT 15SM SKC 13/M00 A3001 RMK SLP164=
CYOW;2006-04-19 04:00;METAR CYOW 190400Z 36008KT 15SM SKC 12/M00 A3001 RMK SLP165=
CYOW;2006-04-19 05:00;METAR CYOW 190500Z 04007KT 15SM SKC 13/M01 A3003 RMK SLP170=
CYOW;2006-04-19 06:00;METAR CYOW 190600Z 08008KT 15SM SKC 11/M00 A3003 RMK SLP171=
CYOW;2006-04-19 07:00;METAR CYOW 190700Z 06008KT 15SM SKC 10/00 A3004 RMK SLP173=
CYOW;2006-04-19 08:00;METAR CYOW 190800Z 07007KT 15SM SKC 09/01 A3003 RMK SLP171=
CYOW;2006-04-19 10:00;METAR CYOW 191000Z 05004KT 15SM FEW220 09/01 A3005 RMK CI0 SLP176=
CYOW;2006-04-19 11:00;METAR CYOW 191100Z 02004KT 15SM FEW250 08/02 A3005 RMK CI0 SLP179=
CYOW;2006-04-19 12:00;METAR CYOW 191200Z 02003KT 15SM FEW250 11/02 A3006 RMK CI0 SLP181=
CYOW;2006-04-19 13:00;METAR CYOW 191300Z 34005KT 15SM FEW250 13/01 A3006 RMK CI1 CI TR SLP180=
CYOW;2006-04-19 14:00;METAR CYOW 191400Z 32005KT 15SM FEW250 15/02 A3005 RMK CI1 CI TR SLP178=
CYOW;2006-04-19 16:00;METAR CYOW 191600Z 35006KT 15SM FEW250 18/03 A3000 RMK CI1 CI TR SLP162=
CYOW;2006-04-19 17:00;METAR CYOW 191700Z 28006KT 15SM FEW250 19/03 A2998 RMK CI1 CI TR SLP154=
CYOW;2006-04-19 19:00;METAR CYOW 191900Z 31010KT 15SM SKC 21/01 A2993 RMK SLP137=
CYOW;2006-04-19 20:00;METAR CYOW 192000Z 31011G16KT 15SM SKC 22/01 A2991 RMK SLP130=
CYOW;2006-04-19 21:00;METAR CYOW 192100Z 34011KT 15SM FEW250 23/00 A2990 RMK CI0 SLP125=
CYOW;2006-04-19 22:00;METAR CYOW 192200Z 34010G15KT 15SM FEW250 23/M01 A2990 RMK CI0 SLP125=
CYOW;2006-04-20 00:00;METAR CYOW 200000Z 33008KT 20SM FEW200 18/M01 A2989 RMK CI0 SLP122=
CYOW;2006-04-20 02:00;METAR CYOW 200200Z 33007KT 15SM FEW200 15/M02 A2991 RMK CI0 SLP129=
CYOW;2006-04-20 03:00;METAR CYOW 200300Z 33008KT 15SM FEW200 14/M02 A2991 RMK CI0 SLP128=
CYOW;2006-04-20 04:00;METAR CYOW 200400Z 36006KT 15SM SKC 15/M03 A2991 RMK SLP128=
CYOW;2006-04-20 06:00;METAR CYOW 200600Z 33005KT 15SM SKC 12/M04 A2991 RMK SLP131=
CYOW;2006-04-20 07:00;METAR CYOW 200700Z 35007KT 15SM SKC 11/M03 A2993 RMK SLP135=
CYOW;2006-04-20 08:00;METAR CYOW 200800Z 32007KT 15SM SKC 10/M04 A2994 RMK SLP140=
CYOW;2006-04-20 09:00;METAR CYOW 200900Z 35007KT 15SM FEW200 08/M03 A2995 RMK CI0 SLP142=
CYOW;2006-04-20 11:00;METAR CYOW 201100Z 35011KT 15SM FEW200 08/M03 A2997 RMK CI1 CI TR SLP151=
CYOW;2006-04-20 12:00;METAR CYOW 201200Z 35008KT 15SM FEW200 11/M02 A2999 RMK CI1 CI TR SLP156=
CYOW;2006-04-20 13:00;METAR CYOW 201300Z 01008KT 15SM FEW200 13/M02 A2999 RMK CI1 SLP158=
CYOW;2006-04-20 14:00;METAR CYOW 201400Z 36008KT 15SM SKC 15/M01 A3000 RMK SLP161=
CYOW;2006-04-20 15:00;METAR CYOW 201500Z 36006KT 15SM SKC 17/M02 A3000 RMK SLP160=
CYOW;2006-04-20 18:00;METAR CYOW 201800Z 02006KT 15SM FEW200 FEW260 22/M06 A2999 RMK CI1CI0 LO CI TR SLP157=
CYOW;2006-04-20 23:00;METAR CYOW 202300Z 08004KT 15SM FEW200 FEW250 BKN280 21/00 A2999 RMK CI1CI2CI0 SLP158=
CYOW;2006-04-21 00:00;METAR CYOW 210000Z 00000KT 15SM FEW200 FEW250 20/M01 A3001 RMK CI1CI1 SLP163=
CYOW;2006-04-21 01:00;METAR CYOW 210100Z 10006KT 15SM FEW200 13/00 A3004 RMK CI0 SLP173=
CYOW;2006-04-21 02:00;METAR CYOW 210200Z 11007KT 15SM SCT220 12/M00 A3005 RMK CI0 SLP177=
CYOW;2006-04-21 04:00;METAR CYOW 210400Z 10006KT 15SM SKC 10/M01 A3009 RMK SLP190=
CYOW;2006-04-21 08:00;METAR CYOW 210800Z 07011KT 15SM SKC 08/M01 A3015 RMK SLP211=
CYOW;2006-04-21 11:00;METAR CYOW 211100Z 07016KT 15SM FEW200 07/M03 A3019 RMK CI0 SLP224=
CYOW;2006-04-21 12:00;METAR CYOW 211200Z 07012G17KT 15SM FEW200 08/M03 A3020 RMK CI0 SLP229=
CYOW;2006-04-21 13:00;METAR CYOW 211300Z 09012G17KT 15SM FEW200 FEW260 10/M02 A3021 RMK CI0CI0 SLP233=
CYOW;2006-04-21 14:00;METAR CYOW 211400Z 08011KT 15SM FEW200 FEW260 12/M01 A3021 RMK CI0CI0 SLP231=
CYOW;2006-04-21 16:00;METAR CYOW 211600Z 07015KT 15SM FEW200 OVC260 16/01 A3019 RMK CI2CI2 SLP224=
CYOW;2006-04-21 17:00;METAR CYOW 211700Z 09015G20KT 15SM FEW200 OVC260 18/02 A3018 RMK CI2CI2 SLP221=
CYOW;2006-04-21 18:00;METAR CYOW 211800Z 09013G18KT 15SM SCT200 OVC260 17/02 A3017 RMK CI2CI2 SLP218=
CYOW;2006-04-21 19:00;METAR CYOW 211900Z 10014G20KT 12SM OVC240 18/03 A3016 RMK CS3 SLP215=
CYOW;2006-04-21 21:00;METAR CYOW 212100Z 08015G21KT 12SM OVC240 18/04 A3013 RMK CS2 SLP204=
CYOW;2006-04-21 22:00;METAR CYOW 212200Z 09015G24KT 12SM OVC240 18/04 A3012 RMK CS2 SLP203=
CYOW;2006-04-21 23:00;METAR CYOW 212300Z 08014KT 12SM SCT220 OVC240 17/03 A3012 RMK CI2CS2 SLP203=
CYOW;2006-04-22 00:00;METAR CYOW 220000Z 07011G16KT 12SM BKN220 15/03 A3013 RMK CI5 SLP205=
CYOW;2006-04-22 01:00;METAR CYOW 220100Z 06012G17KT 12SM BKN200 14/00 A3013 RMK CI5 SLP206=
CYOW;2006-04-22 02:00;METAR CYOW 220200Z 08014KT 12SM BKN220 12/M01 A3012 RMK CI5 SLP203=
CYOW;2006-04-22 03:00;METAR CYOW 220300Z 09015G20KT 15SM FEW200 BKN250 12/M01 A3012 RMK CI1CI3 SLP202=
CYOW;2006-04-22 04:00;METAR CYOW 220400Z 09015KT 15SM OVC210 11/M00 A3012 RMK CS6 SLP203=
CYOW;2006-04-22 05:00;METAR CYOW 220500Z 09013G18KT 15SM OVC150 11/00 A3013 RMK AS8 SLP206=
CYOW;2006-04-22 06:00;METAR CYOW 220600Z 09012KT 15SM BKN170 OVC250 10/00 A3013 RMK AS6CI0 SLP206=
CYOW;2006-04-22 07:00;METAR CYOW 220700Z 09011KT 15SM FEW180 OVC240 09/00 A3014 RMK AC2CI5 SLP207=
CYOW;2006-04-22 08:00;METAR CYOW 220800Z 09013KT 15SM OVC180 08/00 A3014 RMK AS7 SLP207=
CYOW;2006-04-22 09:00;METAR CYOW 220900Z 09012KT 15SM FEW120 OVC170 08/00 A3014 RMK AC2AS6 SLP207=
CYOW;2006-04-22 10:00;METAR CYOW 221000Z 09010G15KT 15SM FEW120 OVC170 08/01 A3013 RMK AC1AS7 SLP206=
CYOW;2006-04-22 11:00;METAR CYOW 221100Z 09011KT 15SM FEW050 BKN071 OVC170 08/01 A3015 RMK SC1AC4AS3 SLP212=
CYOW;2006-04-22 12:00;METAR CYOW 221200Z 09011KT 15SM OVC067 08/01 A3015 RMK AC8 SLP212=
CYOW;2006-04-22 13:00;METAR CYOW 221300Z 09011KT 15SM OVC066 09/01 A3016 RMK AC8 SLP215=
CYOW;2006-04-22 14:00;METAR CYOW 221400Z 08010KT 15SM OVC066 10/01 A3015 RMK AC8 SLP213=
CYOW;2006-04-22 14:17;SPECI CYOW 221417Z 09008KT 12SM -RA OVC047 10/ RMK SC8=
CYOW;2006-04-22 15:00;METAR CYOW 221500Z 09010KT 15SM SCT040 OVC100 09/03 A3015 RERA RMK SC3AC5 SLP214=
CYOW;2006-04-22 16:00;METAR CYOW 221600Z 07009KT 15SM BKN050 OVC080 10/02 A3015 RMK SC6AC2 SLP212=
CYOW;2006-04-22 17:00;METAR CYOW 221700Z 07011KT 15SM SCT050 OVC100 12/01 A3013 RMK SC3AS5 VIRGA SLP207=
CYOW;2006-04-22 19:00;METAR CYOW 221900Z 17009KT 5SM -RA BR OVC043 08/05 A3016 RMK SC8 SLP215=
CYOW;2006-04-22 21:00;METAR CYOW 222100Z 14009KT 4SM -RA BR OVC030 07/05 A3013 RMK NS8 SLP207=
CYOW;2006-04-22 22:00;METAR CYOW 222200Z 11007KT 8SM -RA BKN017 OVC070 07/06 A3013 RMK SC7AS1 SLP206=
CYOW;2006-04-22 23:00;METAR CYOW 222300Z 11007KT 8SM -RA FEW010 OVC022 07/05 A3012 RMK SF2SC6 SLP204=
CYOW;2006-04-23 00:00;METAR CYOW 230000Z 09008KT 8SM -RA FEW008 SCT018 OVC032 06/05 A3013 RMK SF1SC3SC4 SLP207=
CYOW;2006-04-23 00:43;SPECI CYOW 230043Z 10008KT 5SM -RA BR SCT005 OVC012 06/ RMK SF3SC5=
CYOW;2006-04-23 01:00;METAR CYOW 230100Z 09008KT 5SM -RA BR FEW003 BKN015 OVC033 06/05 A3014 RMK SF2SC2SC3 SLP209=
CYOW;2006-04-23 01:20;SPECI CYOW 230120Z 09008KT 6SM -RA BR BKN004 OVC012 06/ RMK SF6SC2 CIG VRB 3-5=
CYOW;2006-04-23 02:00;METAR CYOW 230200Z 09008KT 6SM -RA BR OVC005 06/05 A3014 RMK SF8 CIG VRB 3-7 SLP208=
CYOW;2006-04-23 03:00;METAR CYOW 230300Z 09009KT 8SM -RA BKN005 OVC026 06/05 A3012 RMK SF6SC2 CIG VRB 3-7 SLP202=
CYOW;2006-04-23 04:00;METAR CYOW 230400Z 08010KT 8SM -RA BKN005 OVC026 05/05 A3011 RMK SF6SC2 CIG VRB 3-7 SLP199=
CYOW;2006-04-23 04:41;SPECI CYOW 230441Z 09009KT 6SM -RA BR BKN003 OVC022 05/ RMK SF7SC1 CIG VRB 2-4=
CYOW;2006-04-23 09:00;METAR CYOW 230900Z 09011KT 6SM -RA BR BKN004 OVC019 05/05 A3003 RMK SF7SC1 CIG VRB 3-6 SLP172=
CYOW;2006-04-23 10:00;METAR CYOW 231000Z 09010KT 6SM -RA BR BKN006 OVC026 05/05 A3002 RMK SF6SC2 CIG VRB 4-8 SLP169=
CYOW;2006-04-23 10:01;SPECI CYOW 231001Z 09010KT 6SM -RA BR SCT005 OVC026 05/ RMK SF3SC5=
CYOW;2006-04-23 10:13;SPECI CYOW 231013Z 09010KT 6SM -RA BR SCT005 OVC026 05/ RMK SF3SC5=
CYOW;2006-04-23 10:36;SPECI CYOW 231036Z 09009KT 6SM -RA BR BKN006 BKN012 OVC026 05/ RMK SF5SC2SC2 CIG VRB 4-8=
CYOW;2006-04-23 11:00;METAR CYOW 231100Z 09010KT 6SM -RA BR BKN006 BKN012 OVC027 05/05 A3002 RMK SF5SC2SC2 CIG VRB 4-8 SLP169=
CYOW;2006-04-23 12:00;METAR CYOW 231200Z 09011KT 5SM -DZ BR OVC006 05/05 A3002 RMK ST8 SLP169=
CYOW;2006-04-23 13:00;METAR CYOW 231300Z 08014KT 4SM -DZ BR OVC005 06/05 A3001 RMK ST8 SLP166=
CYOW;2006-04-23 14:00;METAR CYOW 231400Z 09011KT 4SM -DZ BR OVC005 06/05 A3000 RMK ST8 SLP163=
CYOW;2006-04-23 14:29;SPECI CYOW 231429Z 09015KT 2SM -DZ BR OVC004 06/ RMK ST8=
CYOW;2006-04-23 16:00;METAR CYOW 231600Z 08012KT 2SM -DZ BR OVC004 06/06 A2996 RMK ST8 SLP150=
CYOW;2006-04-23 18:46;SPECI CYOW 231846Z 08013G18KT 4SM -DZ BR OVC006 06/ RMK ST8=
CYOW;2006-04-23 19:32;SPECI CYOW 231932Z 09015KT 2 1/2SM -DZ BR OVC008 06/ RMK ST8=
CYOW;2006-04-23 21:00;METAR CYOW 232100Z 08015G21KT 3SM -DZ BR OVC005 06/05 A2989 RMK SF8 SLP125=
CYOW;2006-04-23 22:16;SPECI CYOW 232216Z 08014KT 10SM -RA OVC007 06/ RMK SF8=
CYOW;2006-04-23 22:50;SPECI CYOW 232250Z 08016KT 10SM OVC009 06/ RMK SF8=
CYOW;2006-04-23 23:00;METAR CYOW 232300Z 09013G20KT 10SM BKN009 OVC025 06/05 A2988 RMK SF6SC2 SLP122=
CYOW;2006-04-24 00:00;METAR CYOW 240000Z 08014KT 10SM SCT010 OVC025 06/05 A2988 RMK SF3SC5 SLP121=
CYOW;2006-04-24 01:00;METAR CYOW 240100Z 09011KT 12SM OVC023 06/05 A2987 RMK SC8 SLP120=
CYOW;2006-04-24 02:00;METAR CYOW 240200Z 09012KT 12SM OVC027 07/05 A2987 RMK SC8 SLP120=
CYOW;2006-04-24 04:00;METAR CYOW 240400Z 09013KT 15SM SCT035 07/05 A2984 RMK SC4 SLP108=
CYOW;2006-04-24 05:00;METAR CYOW 240500Z 08012KT 15SM FEW035 07/05 A2982 RMK SC2 SLP103=
CYOW;2006-04-24 07:00;METAR CYOW 240700Z 08011KT 15SM BKN037 06/05 A2978 RMK SC5 SLP087=
CYOW;2006-04-24 08:00;METAR CYOW 240800Z 09012KT 15SM FEW015 OVC023 06/05 A2976 RMK CU1SC7 SLP083=
CYOW;2006-04-24 08:16;SPECI CYOW 240816Z 09009KT 15SM -RA FEW015 OVC024 06/ RMK CU1SC7 VRY LGT RA=
CYOW;2006-04-24 09:53;SPECI CYOW 240953Z 09009KT 15SM FEW012 OVC021 06/ RMK SF1SC7=
CYOW;2006-04-24 10:00;METAR CYOW 241000Z 10008KT 15SM FEW013 OVC021 06/05 A2976 RMK SF1SC7 SLP083=
CYOW;2006-04-24 11:00;METAR CYOW 241100Z 09012KT 12SM SCT005 OVC020 06/05 A2976 RMK SF3SC5 SLP083=
CYOW;2006-04-24 11:54;SPECI CYOW 241154Z 09010KT 8SM -RA SCT005 OVC017 05/ RMK SF3SC5=
CYOW;2006-04-24 12:00;METAR CYOW 241200Z 09009KT 7SM -RA FEW006 OVC018 05/05 A2977 RMK SF2SC6 SLP084=
CYOW;2006-04-24 13:00;METAR CYOW 241300Z 09009KT 3SM -RA BR SCT005 OVC015 06/05 A2976 RMK SF3SC5 SLP083=
CYOW;2006-04-24 13:35;SPECI CYOW 241335Z 09007KT 3SM -RA BR BKN004 OVC012 06/ RMK SF6NS2=
CYOW;2006-04-24 14:00;METAR CYOW 241400Z 09008KT 3SM -RA BR BKN003 OVC010 06/05 A2977 RMK SF6NS2 SLP084=
CYOW;2006-04-24 15:00;METAR CYOW 241500Z 09006KT 4SM -RA BR BKN004 OVC010 06/05 A2976 RMK SF5NS3 SLP082=
CYOW;2006-04-24 16:00;METAR CYOW 241600Z 08008KT 4SM -RA BR BKN003 OVC010 06/06 A2975 RMK SF6NS2 SLP079=
CYOW;2006-04-24 17:00;METAR CYOW 241700Z 10008KT 3SM -RA BR OVC003 07/06 A2975 RMK SF8 SLP078=
CYOW;2006-04-24 18:00;METAR CYOW 241800Z 12004KT 5SM -RA BR BKN003 OVC010 07/07 A2975 RMK SF5NS3 SLP078=
CYOW;2006-04-24 18:40;SPECI CYOW 241840Z 13003KT 5SM -RA BR SCT005 OVC010 08/ RMK SF3NS5=
CYOW;2006-04-24 19:00;METAR CYOW 241900Z 22005KT 10SM -RA SCT008 OVC025 08/07 A2973 RMK SF4NS4 SLP072=
CYOW;2006-04-24 20:00;METAR CYOW 242000Z 20004KT 10SM -RA BKN015 OVC030 09/06 A2971 RMK SF6NS2 SLP066=
CYOW;2006-04-24 21:34;SPECI CYOW 242134Z 32005KT 15SM OVC028 08/ RMK SC8=
CYOW;2006-04-24 22:00;METAR CYOW 242200Z 30004KT 15SM FEW010 BKN033 BKN050 09/07 A2973 RMK CF2SC5SC1 SLP072=
CYOW;2006-04-24 23:00;METAR CYOW 242300Z 27004KT 15SM FEW025 BKN037 OVC090 08/06 A2975 RMK SC1SC4AC3 SLP077=
CYOW;2006-04-25 00:00;METAR CYOW 250000Z 27005KT 15SM FEW025 BKN060 BKN090 08/06 A2976 RMK SC1SC6AC1 SLP081=
CYOW;2006-04-25 01:00;METAR CYOW 250100Z 29004KT 15SM FEW025 BKN030 BKN090 07/05 A2975 RMK SC1SC5AC1 SLP079=
CYOW;2006-04-25 02:00;METAR CYOW 250200Z 24004KT 15SM FEW030 BKN048 07/06 A2976 RMK SC1SC6 SLP081=
CYOW;2006-04-25 03:00;METAR CYOW 250300Z 25005KT 15SM FEW030 BKN046 06/06 A2975 RMK SC1SC5 SLP077=
CYOW;2006-04-25 03:33;SPECI CYOW 250333Z 22004KT 15SM BKN008 OVC015 07/ RMK SC6SC2=
CYOW;2006-04-25 04:00;METAR CYOW 250400Z 24004KT 15SM FEW008 BKN019 07/06 A2975 RMK SC2SC4 SLP077=
CYOW;2006-04-25 04:39;SPECI CYOW 250439Z 25004KT 15SM -RA FEW011 BKN046 07/ RMK SC1SC6 RA=
CYOW;2006-04-25 05:00;METAR CYOW 250500Z 24003KT 15SM FEW012 BKN049 OVC070 07/07 A2971 RMK SC1SC6AC2 SLP066=
CYOW;2006-04-25 06:00;METAR CYOW 250600Z 20003KT 15SM FEW020 BKN045 07/06 A2969 RMK SC1SC4 SLP059=
CYOW;2006-04-25 07:00;METAR CYOW 250700Z 22004KT 15SM BKN042 07/06 A2968 RMK SC6 SLP053=
CYOW;2006-04-25 08:00;METAR CYOW 250800Z 23005KT 15SM BKN042 OVC240 07/06 A2966 RMK SC6CI2 SLP049=
CYOW;2006-04-25 09:00;METAR CYOW 250900Z 21005KT 15SM OVC050 07/06 A2964 RMK SC7 SLP040=
CYOW;2006-04-25 10:00;METAR CYOW 251000Z 22005KT 10SM -RA OVC028 07/06 A2963 RMK SC8 SLP038=
CYOW;2006-04-25 11:00;METAR CYOW 251100Z 23011KT 10SM -RA OVC024 07/06 A2963 RMK SC8 SLP038=
CYOW;2006-04-25 12:00;METAR CYOW 251200Z 28014G21KT 15SM -RA BKN011 OVC020 07/06 A2964 RMK SF5SC3 SLP040=
CYOW;2006-04-25 12:32;SPECI CYOW 251232Z 29021G27KT 15SM -RA OVC017 04/ RMK SC8=
CYOW;2006-04-25 13:00;METAR CYOW 251300Z 31018G24KT 15SM -RA FEW010 OVC033 03/01 A2969 RMK SF2SC6 SLP056=
CYOW;2006-04-25 13:53;SPECI CYOW 251353Z 30017KT 8SM -RA BKN012 OVC020 03/ RMK SF6SC2=
CYOW;2006-04-25 14:00;METAR CYOW 251400Z 31015G21KT 8SM -RA BKN013 OVC020 03/01 A2972 RMK SF6SC2 SLP066=
CYOW;2006-04-25 14:38;SPECI CYOW 251438Z 31018G24KT 15SM FEW015 BKN024 BKN200 04/ RMK SF1SC6CI0=
CYOW;2006-04-25 15:04;SPECI CYOW 251504Z 29019G27KT 15SM FEW012 BKN025 03/ RMK SF2SC5 CU ASOCT=
CYOW;2006-04-25 15:50;SPECI CYOW 251550Z 30017G26KT 3SM -SG BKN014 OVC025 02/ RMK SF6SC2=
CYOW;2006-04-25 18:00;METAR CYOW 251800Z 30019G27KT 15SM BKN042 05/M04 A2980 RMK SC7 SLP095=
CYOW;2006-04-25 19:00;METAR CYOW 251900Z 29020KT 15SM BKN046 06/M05 A2981 RMK SC7 SLP099=
CYOW;2006-04-25 20:00;METAR CYOW 252000Z 30019G30KT 15SM SCT045 05/M07 A2982 RMK SC4 SLP101=
CYOW;2006-04-25 21:00;METAR CYOW 252100Z 30017KT 15SM BKN045 05/M07 A2983 RMK SC5 SLP105=
CYOW;2006-04-25 22:00;METAR CYOW 252200Z 28016G22KT 15SM BKN045 06/M07 A2984 RMK SC5 SLP109=
CYOW;2006-04-25 23:00;METAR CYOW 252300Z 29016KT 20SM FEW060 06/M08 A2985 RMK SC2 SLP110=
CYOW;2006-04-26 00:00;METAR CYOW 260000Z 30013KT 20SM FEW062 04/M09 A2987 RMK SC1 SLP119=
CYOW;2006-04-26 00:47;SPECI CYOW 260047Z 32007KT 15SM SKC 02/=
CYOW;2006-04-26 01:00;METAR CYOW 260100Z 32007KT 15SM SKC 02/M08 A2989 RMK SLP126=
CYOW;2006-04-26 02:21;SPECI CYOW 260221Z 22003KT 15SM SKC 02/=
CYOW;2006-04-26 04:00;METAR CYOW 260400Z 19004KT 15SM SKC 01/M06 A2990 RMK SLP129=
CYOW;2006-04-26 05:00;METAR CYOW 260500Z 21005KT 15SM SKC M01/M05 A2989 RMK SLP128=
CYOW;2006-04-26 06:00;METAR CYOW 260600Z 21004KT 15SM SKC M00/M05 A2988 RMK SLP123=
CYOW;2006-04-26 07:00;METAR CYOW 260700Z 21006KT 15SM SKC M00/M05 A2987 RMK SLP119=
CYOW;2006-04-26 08:00;METAR CYOW 260800Z 23006KT 15SM SKC M00/M05 A2985 RMK SLP112=
CYOW;2006-04-26 10:00;METAR CYOW 261000Z 21007KT 15SM FEW200 M02/M05 A2982 RMK CI1 SLP104=
CYOW;2006-04-26 11:00;METAR CYOW 261100Z 22005KT 15SM SKC M01/M04 A2983 RMK FROIN SLP106=
CYOW;2006-04-26 12:00;METAR CYOW 261200Z 22006KT 15SM FEW140 02/M03 A2982 RMK AC2 SLP101=
CYOW;2006-04-26 13:00;METAR CYOW 261300Z 21006KT 15SM SCT100 BKN120 05/M03 A2979 RMK AC3AC2 SLP092=
CYOW;2006-04-26 14:00;METAR CYOW 261400Z 22015G22KT 15SM BKN085 OVC100 07/M03 A2977 RMK AC6AC2 SLP085=
CYOW;2006-04-26 15:00;METAR CYOW 261500Z 22018G26KT 15SM BKN064 OVC080 08/M05 A2972 RMK SC6AC2 SLP069=
CYOW;2006-04-26 18:00;METAR CYOW 261800Z 22015G22KT 15SM FEW060 SCT100 BKN160 12/M03 A2963 RMK SC1AC2AC4 SLP038=
CYOW;2006-04-26 19:00;METAR CYOW 261900Z 23011G24KT 15SM OVC049 12/M02 A2962 RMK SC8 SLP035=
CYOW;2006-04-26 20:00;METAR CYOW 262000Z 28022G32KT 15SM OVC047 12/M01 A2963 RMK SC8 SLP038=
CYOW;2006-04-26 20:35;SPECI CYOW 262035Z 30017G22KT 15SM -RA OVC041 10/ RMK SC8=
CYOW;2006-04-26 21:00;METAR CYOW 262100Z 30015G22KT 15SM -RA OVC033 08/03 A2967 RMK SC8 SLP051=
CYOW;2006-04-26 22:00;METAR CYOW 262200Z 27011KT 15SM -RA FEW020 BKN034 BKN060 07/04 A2967 RMK CU1SC5SC1 SLP052=
CYOW;2006-04-26 22:10;SPECI CYOW 262210Z 28008KT 15SM FEW020 BKN035 07/ RMK CU2SC4=
CYOW;2006-04-26 23:06;SPECI CYOW 262306Z 32017G28KT 15SM VCSH FEW010 BKN027 OVC070 05/ RERA RMK SC1SC6AC1 SH E=
CYOW;2006-04-27 00:00;METAR CYOW 270000Z 30008KT 15SM FEW034 BKN050 05/01 A2974 RERA RMK SC1SC6 PRESRR SLP077=
CYOW;2006-04-27 00:03;SPECI CYOW 270003Z 30008KT 15SM -RA FEW034 BKN043 05/ RMK SC1SC6=
CYOW;2006-04-27 00:46;SPECI CYOW 270046Z 32009KT 15SM BKN064 BKN090 04/ RMK SC6AC1 TCU E=
CYOW;2006-04-27 01:00;METAR CYOW 270100Z 32007KT 15SM SCT065 BKN080 04/02 A2977 RMK SC3AC3 SLP086=
CYOW;2006-04-27 04:00;METAR CYOW 270400Z 25003KT 15SM SKC 02/01 A2982 RMK SLP102=
CYOW;2006-04-27 05:00;METAR CYOW 270500Z 27003KT 15SM SKC 01/M00 A2983 RMK SLP104=
CYOW;2006-04-27 07:00;METAR CYOW 270700Z 00000KT 1SM BR SKC M01/M01 A2983 RMK FG2 SLP104=
CYOW;2006-04-27 07:07;SPECI CYOW 270707Z 21002KT 1/2SM FZFG SKC M00/ RMK FG1 VIS N 15+=
CYOW;2006-04-27 07:20;SPECI CYOW 270720Z 23002KT 15SM PRFG SKC 00/ RMK VIS S 1/2 FROIN=
CYOW;2006-04-27 08:00;METAR CYOW 270800Z 35004KT 15SM BCFG FEW110 00/M00 A2983 RMK AC0 FROIN SLP106=
CYOW;2006-04-27 09:22;SPECI CYOW 270922Z 36005KT 15SM MIFG SCT100 M00/ RMK AC3 FROIN=
CYOW;2006-04-27 13:00;METAR CYOW 271300Z 36008KT 15SM FEW100 03/M02 A2995 RMK AC1 SLP146=
CYOW;2006-04-27 15:00;METAR CYOW 271500Z 29005KT 15SM FEW060 05/M05 A2997 RMK SC1 SLP155=
CYOW;2006-04-27 16:00;METAR CYOW 271600Z 31009KT 15SM FEW050 05/M06 A2999 RMK SC1 SLP159=
CYOW;2006-04-27 17:00;METAR CYOW 271700Z 29013KT 15SM FEW045 07/M06 A2999 RMK SC1 SLP159=
CYOW;2006-04-27 18:00;METAR CYOW 271800Z 27011KT 15SM FEW050 08/M07 A2998 RMK SC1 SLP158=
CYOW;2006-04-27 19:00;METAR CYOW 271900Z 29011KT 15SM FEW060 08/M09 A2999 RMK SC1 SLP161=
CYOW;2006-04-27 20:00;METAR CYOW 272000Z 25005KT 15SM FEW060 09/M09 A2999 RMK SC1 SLP162=
CYOW;2006-04-27 22:00;METAR CYOW 272200Z 34007KT 15SM FEW060 08/M08 A3003 RMK SC1 SLP173=
CYOW;2006-04-27 23:00;METAR CYOW 272300Z 35009KT 20SM SKC 08/M09 A3004 RMK SLP178=
CYOW;2006-04-28 01:00;METAR CYOW 280100Z 04005KT 15SM SKC 05/M09 A3009 RMK SLP193=
CYOW;2006-04-28 02:00;METAR CYOW 280200Z 02006KT 15SM SKC 04/M09 A3012 RMK SLP203=
CYOW;2006-04-28 03:00;METAR CYOW 280300Z 01006KT 15SM SKC 04/M09 A3014 RMK SLP209=
CYOW;2006-04-28 04:00;METAR CYOW 280400Z 02009KT 15SM SKC 03/M10 A3016 RMK SLP216=
CYOW;2006-04-28 04:40;SPECI CYOW 280440Z 01007KT 15SM SKC 02/=
CYOW;2006-04-28 05:00;METAR CYOW 280500Z 02007KT 15SM SKC 02/M09 A3018 RMK SLP223=
CYOW;2006-04-28 06:00;METAR CYOW 280600Z 00000KT 15SM SKC 01/M09 A3019 RMK SLP230=
CYOW;2006-04-28 07:00;METAR CYOW 280700Z 01004KT 15SM SKC 02/M09 A3021 RMK SLP235=
CYOW;2006-04-28 08:00;METAR CYOW 280800Z 00000KT 15SM SKC 01/M09 A3023 RMK SLP243=
CYOW;2006-04-28 09:00;METAR CYOW 280900Z 35003KT 15SM SKC M00/M09 A3026 RMK SLP251=
CYOW;2006-04-28 11:00;METAR CYOW 281100Z 32004KT 15SM SKC M00/M05 A3030 RMK SLP265=
CYOW;2006-04-28 12:00;METAR CYOW 281200Z 34005KT 15SM SKC 03/M06 A3033 RMK SLP274=
CYOW;2006-04-28 13:00;METAR CYOW 281300Z 34004KT 15SM SKC 05/M06 A3034 RMK SLP280=
CYOW;2006-04-28 14:00;METAR CYOW 281400Z 33005KT 15SM SKC 06/M06 A3036 RMK SLP286=
CYOW;2006-04-28 15:00;METAR CYOW 281500Z 27005KT 15SM SKC 08/M06 A3037 RMK SLP288=
CYOW;2006-04-28 16:00;METAR CYOW 281600Z 32004KT 15SM SKC 09/M06 A3038 RMK SLP291=
CYOW;2006-04-28 17:00;METAR CYOW 281700Z 33010KT 15SM SKC 09/M07 A3037 RMK SLP289=
CYOW;2006-04-28 19:00;METAR CYOW 281900Z 34006KT 20SM SKC 11/M09 A3036 RMK SLP287=
CYOW;2006-04-28 20:00;METAR CYOW 282000Z 34010KT 20SM SKC 12/M10 A3036 RMK SLP284=
CYOW;2006-04-28 21:00;METAR CYOW 282100Z 36005KT 20SM SKC 13/M09 A3035 RMK SLP282=
CYOW;2006-04-28 22:00;METAR CYOW 282200Z 36006KT 20SM SKC 13/M10 A3035 RMK SLP282=
CYOW;2006-04-28 23:00;METAR CYOW 282300Z 34005KT 20SM SKC 12/M11 A3035 RMK SLP283=
CYOW;2006-04-29 00:00;METAR CYOW 290000Z 04003KT 20SM SKC 11/M11 A3036 RMK SLP287=
CYOW;2006-04-29 01:00;METAR CYOW 290100Z 27002KT 15SM SKC 10/M12 A3039 RMK SLP294=
CYOW;2006-04-29 04:00;METAR CYOW 290400Z 00000KT 15SM SKC 06/M06 A3042 RMK SLP305=
CYOW;2006-04-29 05:00;METAR CYOW 290500Z 07002KT 15SM SKC 07/M10 A3044 RMK SLP312=
CYOW;2006-04-29 07:00;METAR CYOW 290700Z 36004KT 15SM SKC 04/M07 A3046 RMK SLP320=
CYOW;2006-04-29 07:51;SPECI CYOW 290751Z 01006KT 15SM SKC 02/=
CYOW;2006-04-29 09:00;METAR CYOW 290900Z 04005KT 15SM SKC 03/M08 A3048 RMK SLP327=
CYOW;2006-04-29 09:16;SPECI CYOW 290916Z 03005KT 15SM SKC 02/=
CYOW;2006-04-29 10:00;METAR CYOW 291000Z 03007KT 15SM SKC 02/M08 A3049 RMK SLP330=
CYOW;2006-04-29 12:00;METAR CYOW 291200Z 05004KT 20SM SKC 06/M06 A3054 RMK SLP346=
CYOW;2006-04-29 13:00;METAR CYOW 291300Z 11008KT 20SM SKC 09/M08 A3054 RMK SLP347=
CYOW;2006-04-29 17:00;METAR CYOW 291700Z 00000KT 20SM SKC 14/M07 A3052 RMK SLP339=
CYOW;2006-04-29 18:00;METAR CYOW 291800Z 32007KT 20SM SKC 15/M07 A3050 RMK SLP332=
CYOW;2006-04-29 19:00;METAR CYOW 291900Z 10005KT 20SM SKC 16/M07 A3048 RMK SLP325=
CYOW;2006-04-29 21:00;METAR CYOW 292100Z 09003KT 20SM FEW240 17/M07 A3045 RMK CI0 SLP316=
CYOW;2006-04-29 22:00;METAR CYOW 292200Z 09002KT 20SM FEW240 16/M07 A3045 RMK CI1 SLP314=
CYOW;2006-04-29 23:00;METAR CYOW 292300Z 13003KT 20SM FEW240 16/M07 A3045 RMK CI0 SLP314=
CYOW;2006-04-30 00:00;METAR CYOW 300000Z 14004KT 20SM FEW240 14/M07 A3044 RMK CI1 SLP312=
CYOW;2006-04-30 01:00;METAR CYOW 300100Z 17002KT 15SM FEW240 13/M07 A3045 RMK CI1 SLP315=
CYOW;2006-04-30 02:00;METAR CYOW 300200Z 13004KT 15SM FEW240 09/M06 A3045 RMK CI0 SLP316=
CYOW;2006-04-30 03:00;METAR CYOW 300300Z 13002KT 15SM OVC220 09/M06 A3045 RMK CI5 SLP316=
CYOW;2006-04-30 05:00;METAR CYOW 300500Z 05004KT 15SM SCT250 08/M05 A3046 RMK CI0 SLP318=
CYOW;2006-04-30 07:00;METAR CYOW 300700Z 34002KT 15SM FEW250 06/M04 A3047 RMK CI0 SLP322=
CYOW;2006-04-30 08:00;METAR CYOW 300800Z 03006KT 15SM SKC 07/M03 A3047 RMK SLP321=
CYOW;2006-04-30 10:00;METAR CYOW 301000Z 03005KT 15SM SKC 06/M05 A3047 RMK SLP321=
CYOW;2006-04-30 12:00;METAR CYOW 301200Z 06004KT 15SM SKC 09/M02 A3051 RMK SLP334=
CYOW;2006-04-30 13:00;METAR CYOW 301300Z 08003KT 15SM SKC 12/M03 A3052 RMK SLP337=
CYOW;2006-04-30 14:00;METAR CYOW 301400Z 07006KT 15SM SKC 15/M04 A3052 RMK SLP337=
CYOW;2006-04-30 15:00;METAR CYOW 301500Z 09008KT 15SM SKC 17/M04 A3052 RMK SLP337=
CYOW;2006-04-30 16:00;METAR CYOW 301600Z 08007KT 15SM SKC 18/M04 A3051 RMK SLP333=
CYOW;2006-04-30 17:00;METAR CYOW 301700Z 09013KT 15SM SKC 19/M03 A3049 RMK SLP327=
CYOW;2006-04-30 18:00;METAR CYOW 301800Z 09008KT 20SM SKC 20/M02 A3048 RMK SLP322=
CYOW;2006-04-30 19:00;METAR CYOW 301900Z 11008G15KT 15SM SKC 21/M03 A3045 RMK SLP315=
CYOW;2006-04-30 21:00;METAR CYOW 302100Z 10009KT 15SM SKC 21/M03 A3042 RMK SLP303=
CYOW;2006-04-30 22:00;METAR CYOW 302200Z 10011KT 15SM SKC 21/M03 A3041 RMK SLP299=
CYOW;2006-04-30 23:00;METAR CYOW 302300Z 09010KT 15SM SKC 19/M03 A3040 RMK SLP297=
CYOW;2006-05-01 00:00;METAR CYOW 010000Z 08006KT 15SM SKC 16/M02 A3040 RMK SLP297=
CYOW;2006-05-01 02:00;METAR CYOW 010200Z 07008KT 15SM SKC 14/M03 A3042 RMK SLP303=
CYOW;2006-05-01 03:00;METAR CYOW 010300Z 07007KT 15SM SKC 13/M03 A3042 RMK SLP305=
CYOW;2006-05-01 04:00;METAR CYOW 010400Z 07008KT 15SM SKC 13/M04 A3043 RMK SLP306=
CYOW;2006-05-01 05:00;METAR CYOW 010500Z 05008KT 15SM SKC 12/M04 A3044 RMK SLP310=
CYOW;2006-05-01 06:00;METAR CYOW 010600Z 07008KT 15SM SKC 11/M04 A3043 RMK SLP307=
CYOW;2006-05-01 08:00;METAR CYOW 010800Z 06009KT 15SM SKC 11/M04 A3042 RMK SLP303=
CYOW;2006-05-01 09:00;METAR CYOW 010900Z 06010KT 15SM SKC 11/M04 A3042 RMK SLP304=
CYOW;2006-05-01 10:00;METAR CYOW 011000Z 07008KT 15SM SKC 09/M04 A3043 RMK SLP306=
CYOW;2006-05-01 12:00;METAR CYOW 011200Z 07006KT 15SM SKC 12/M01 A3045 RMK SLP312=
CYOW;2006-05-01 13:00;METAR CYOW 011300Z 07006KT 15SM SKC 14/M00 A3045 RMK SLP313=
CYOW;2006-05-01 14:00;METAR CYOW 011400Z 07005KT 15SM SKC 17/01 A3045 RMK SLP313=
CYOW;2006-05-01 15:00;METAR CYOW 011500Z 14002KT 15SM FEW280 19/01 A3044 RMK CI1 SLP309=
CYOW;2006-05-01 19:00;METAR CYOW 011900Z 09005KT 15SM FEW280 23/00 A3033 RMK CI1 SLP273=
CYOW;2006-05-01 20:00;METAR CYOW 012000Z 07009KT 15SM FEW280 23/M00 A3031 RMK CI1 SLP265=
CYOW;2006-05-01 21:00;METAR CYOW 012100Z 09012KT 15SM FEW280 23/M02 A3030 RMK CI1 SLP261=
CYOW;2006-05-01 22:00;METAR CYOW 012200Z 10010G15KT 15SM FEW280 22/M02 A3029 RMK CI1 SLP258=
CYOW;2006-05-01 23:00;METAR CYOW 012300Z 09011KT 15SM FEW240 21/M02 A3028 RMK CI1 SLP255=
CYOW;2006-05-02 00:00;METAR CYOW 020000Z 09006KT 15SM FEW240 17/00 A3027 RMK CI1 SLP253=
CYOW;2006-05-02 01:00;METAR CYOW 020100Z 07006KT 15SM SKC 17/01 A3027 RMK SLP251=
CYOW;2006-05-02 02:00;METAR CYOW 020200Z 08007KT 15SM SKC 15/01 A3027 RMK SLP251=
CYOW;2006-05-02 04:00;METAR CYOW 020400Z 07009KT 15SM SKC 14/M01 A3025 RMK SLP243=
CYOW;2006-05-02 06:00;METAR CYOW 020600Z 07009KT 15SM FEW150 11/M01 A3023 RMK AC1 SLP237=
CYOW;2006-05-02 11:00;METAR CYOW 021100Z 05007KT 15SM SCT090 BKN130 12/01 A3018 RMK AC3AC3 SLP220=
CYOW;2006-05-02 12:00;METAR CYOW 021200Z 06011G16KT 15SM SCT130 15/01 A3016 RMK AC3 SLP215=
CYOW;2006-05-02 13:00;METAR CYOW 021300Z 07012G20KT 15SM FEW100 FEW130 15/02 A3014 RMK AC1AC2 SLP208=
CYOW;2006-05-02 18:00;METAR CYOW 021800Z 11011KT 15SM OVC067 16/05 A3004 RMK AC8 SLP174=
CYOW;2006-05-02 19:00;METAR CYOW 021900Z 10014KT 15SM OVC066 16/06 A3002 RMK AC7 SLP169=
CYOW;2006-05-02 20:00;METAR CYOW 022000Z 11013KT 15SM OVC067 14/05 A3001 RMK AC7 SLP164=
CYOW;2006-05-02 23:00;METAR CYOW 022300Z 10011KT 15SM FEW050 BKN090 OVC230 11/06 A3001 RMK SC1AC6CI2 SLP165=
CYOW;2006-05-03 00:00;METAR CYOW 030000Z 09009KT 15SM SCT034 OVC090 09/06 A3001 RMK SC3AC5 SLP164=
CYOW;2006-05-03 02:00;METAR CYOW 030200Z 08009KT 15SM FEW020 OVC044 08/05 A3000 RMK SC2SC6 SLP161=
CYOW;2006-05-03 02:31;SPECI CYOW 030231Z 07008KT 15SM -RA OVC050 08/ RMK SC8=
CYOW;2006-05-03 03:00;METAR CYOW 030300Z 06005KT 6SM -RA OVC017 08/06 A2999 RMK SC8 SLP156=
CYOW;2006-05-03 04:19;SPECI CYOW 030419Z 06006KT 10SM BKN012 OVC040 08/ RMK SC6SC2=
CYOW;2006-05-03 04:52;SPECI CYOW 030452Z 06004KT 12SM OVC007 08/ RMK SC8=
CYOW;2006-05-03 06:00;METAR CYOW 030600Z 05005KT 15SM OVC009 08/06 A2994 RMK SC8 CIG RAG SLP142=
CYOW;2006-05-03 10:00;METAR CYOW 031000Z 04004KT 15SM OVC006 08/07 A2994 RMK SC8 SLP141=
CYOW;2006-05-03 11:00;METAR CYOW 031100Z 04003KT 15SM OVC011 08/07 A2994 RMK SC8 SLP143=
CYOW;2006-05-03 11:07;SPECI CYOW 031107Z 03003KT 15SM SCT006 OVC010 08/ RMK SF3SC5=
CYOW;2006-05-03 12:00;METAR CYOW 031200Z 00000KT 15SM SCT010 OVC014 09/07 A2996 RMK SF3SC5 SLP147=
CYOW;2006-05-03 13:00;METAR CYOW 031300Z 04003KT 15SM FEW010 OVC015 09/06 A2996 RMK SF2SC6 SLP149=
CYOW;2006-05-03 14:00;METAR CYOW 031400Z 07003KT 15SM OVC016 10/07 A2996 RMK SC8 SLP149=
CYOW;2006-05-03 15:00;METAR CYOW 031500Z 03002KT 15SM OVC016 10/07 A2996 RMK SC8 SLP147=
CYOW;2006-05-03 16:00;METAR CYOW 031600Z 33003KT 15SM OVC021 12/07 A2996 RMK SC8 SLP148=
CYOW;2006-05-03 17:00;METAR CYOW 031700Z 36003KT 15SM OVC024 12/07 A2996 RMK SC8 SLP147=
CYOW;2006-05-03 18:00;METAR CYOW 031800Z 08004KT 15SM FEW020 BKN026 13/07 A2995 RMK CU1SC6 SLP145=
CYOW;2006-05-03 20:00;METAR CYOW 032000Z 10004KT 15SM FEW030 BKN210 15/08 A2992 RMK SC2CI2 SLP135=
CYOW;2006-05-03 22:00;METAR CYOW 032200Z 00000KT 15SM FEW030 FEW150 SCT250 16/08 A2991 RMK SC1AC1CI1 SC TR SLP132=
CYOW;2006-05-04 00:00;METAR CYOW 040000Z 10008KT 15SM FEW150 BKN250 13/08 A2990 RMK AC1CI1 SLP126=
CYOW;2006-05-04 01:00;METAR CYOW 040100Z 13004KT 15SM FEW250 11/07 A2991 RMK CI1 SLP131=
CYOW;2006-05-04 02:00;METAR CYOW 040200Z 10005KT 15SM SKC 10/07 A2991 RMK SLP130=
CYOW;2006-05-04 03:00;METAR CYOW 040300Z 12004KT 15SM SKC 09/07 A2991 RMK SLP133=
CYOW;2006-05-04 04:00;METAR CYOW 040400Z 11004KT 15SM SKC 08/06 A2990 RMK SLP127=
CYOW;2006-05-04 06:00;METAR CYOW 040600Z 08003KT 15SM SKC 08/07 A2988 RMK SLP121=
CYOW;2006-05-04 07:00;METAR CYOW 040700Z 11004KT 8SM SKC 06/06 A2986 RMK SLP115=
CYOW;2006-05-04 08:00;METAR CYOW 040800Z 11003KT 6SM BR SKC 06/06 A2986 RMK SLP115=
CYOW;2006-05-04 08:34;SPECI CYOW 040834Z 15003KT 1 1/2SM BR SKC 06/=
CYOW;2006-05-04 08:52;SPECI CYOW 040852Z 15004KT 1/2SM FG SKC 06/ RMK FG1 VIS N 11/2=
CYOW;2006-05-04 09:00;METAR CYOW 040900Z 15008KT 1/2SM FG SKC 05/05 A2985 RMK FG1 VIS N 1 SLP112=
CYOW;2006-05-04 09:09;SPECI CYOW 040909Z 15006KT 8SM BCFG SKC 06/=
CYOW;2006-05-04 10:00;METAR CYOW 041000Z 17004KT 5SM BR FEW150 06/06 A2985 RMK AC1 SLP111=
CYOW;2006-05-04 11:00;METAR CYOW 041100Z 16004KT 8SM FEW150 08/07 A2985 RMK AC1 SLP111=
CYOW;2006-05-04 12:00;METAR CYOW 041200Z 20007KT 15SM FEW150 10/08 A2985 RMK AC1 SLP110=
CYOW;2006-05-04 14:00;METAR CYOW 041400Z 16003KT 15SM FEW150 17/09 A2980 RMK AC1 SLP094=
CYOW;2006-05-04 15:00;METAR CYOW 041500Z 20009KT 15SM FEW140 20/09 A2977 RMK AC1 SLP083=
CYOW;2006-05-04 16:00;METAR CYOW 041600Z 19009G15KT 15SM FEW150 SCT200 23/10 A2974 RMK AC1CI2 SLP073=
CYOW;2006-05-04 17:00;METAR CYOW 041700Z 22012G18KT 15SM FEW060 SCT090 BKN150 BKN250 24/11 A2971 RMK SC2AC2AC2CI0 SLP063=
CYOW;2006-05-04 17:40;SPECI CYOW 041740Z 20011KT 15SM -RA SCT060 BKN120 22/ RMK SC3AC3 VRY LGT RA=
CYOW;2006-05-04 17:50;SPECI CYOW 041750Z 21008KT 15SM FEW060 BKN140 BKN260 23/ RMK SC2AC4CI0=
CYOW;2006-05-04 19:00;METAR CYOW 041900Z 19013G19KT 10SM SCT050 OVC100 23/11 A2965 RMK SC4AC3 SHWRS W QUAD SLP042=
CYOW;2006-05-04 21:00;METAR CYOW 042100Z 21006KT 15SM OVC054 16/15 A2967 RETS RMK SC8 SLP048=
CYOW;2006-05-04 22:00;METAR CYOW 042200Z 21007KT 15SM BKN061 18/15 A2963 RMK SC7 SLP037=
CYOW;2006-05-04 23:00;METAR CYOW 042300Z 22011G16KT 15SM FEW090 FEW150 19/14 A2963 RMK AC1AC1 TCU E-S SLP036=
CYOW;2006-05-05 00:00;METAR CYOW 050000Z 22010KT 15SM FEW090 FEW150 18/13 A2964 RMK AC1AC1 TCU E-S CLDS TR SLP037=
CYOW;2006-05-05 04:00;METAR CYOW 050400Z 27007KT 15SM SKC 13/03 A2970 RMK SLP057=
CYOW;2006-05-05 06:00;METAR CYOW 050600Z 23005KT 15SM SKC 10/04 A2971 RMK SLP061=
CYOW;2006-05-05 07:00;METAR CYOW 050700Z 25005KT 15SM SKC 09/04 A2971 RMK SLP063=
CYOW;2006-05-05 09:00;METAR CYOW 050900Z 26006KT 15SM SKC 08/03 A2973 RMK SLP070=
CYOW;2006-05-05 10:00;METAR CYOW 051000Z 27006KT 15SM FEW090 08/04 A2974 RMK AC1 SLP073=
CYOW;2006-05-05 12:00;METAR CYOW 051200Z 28011KT 15SM FEW090 11/05 A2977 RMK AC1 SLP084=
CYOW;2006-05-05 13:00;METAR CYOW 051300Z 28010KT 15SM FEW060 FEW100 12/06 A2977 RMK SC1AC2 SC TR SLP084=
CYOW;2006-05-05 14:00;METAR CYOW 051400Z 27006KT 15SM FEW060 13/06 A2977 RMK SC1 SLP083=
CYOW;2006-05-05 17:00;METAR CYOW 051700Z 28008G15KT 15SM SCT050 16/06 A2975 RMK CU4 SLP077=
CYOW;2006-05-05 18:00;METAR CYOW 051800Z 27006KT 15SM SCT052 BKN180 BKN240 17/07 A2974 RMK SC4AC1CI2 CU ASOCTD SLP073=
CYOW;2006-05-05 21:00;METAR CYOW 052100Z 30005KT 20SM BKN060 17/06 A2974 RMK SC7 SLP073=
CYOW;2006-05-05 22:00;METAR CYOW 052200Z 31004KT 20SM BKN092 17/05 A2973 RMK AC7 SLP070=
CYOW;2006-05-05 23:00;METAR CYOW 052300Z 00000KT 20SM BKN062 BKN090 16/06 A2973 RMK SC6AC2 SLP069=
CYOW;2006-05-05 23:31;SPECI CYOW 052331Z 30016KT 15SM -SHRA BKN055 15/ RMK SC6 TCU EMBDD=
CYOW;2006-05-06 00:00;METAR CYOW 060000Z 29013KT 15SM VCSH BKN055 13/06 A2976 RMK SC7 SLP080=
CYOW;2006-05-06 03:00;METAR CYOW 060300Z 29005KT 15SM SCT085 10/05 A2981 RMK AC4 SLP096=
CYOW;2006-05-06 05:00;METAR CYOW 060500Z 30004KT 15SM SKC 08/05 A2980 RMK SLP094=
CYOW;2006-05-06 09:00;METAR CYOW 060900Z 36004KT 15SM FEW060 BKN110 BKN230 07/04 A2979 RMK SC1AC5CI1 SLP089=
CYOW;2006-05-06 10:00;METAR CYOW 061000Z 36003KT 15SM -RA BKN041 OVC080 07/05 A2979 RMK SC6AC2 SLP091=
CYOW;2006-05-06 11:00;METAR CYOW 061100Z 29003KT 10SM -RA OVC040 07/06 A2980 RMK SC8 SLP094=
CYOW;2006-05-06 12:00;METAR CYOW 061200Z 34005KT 10SM -RA OVC040 07/06 A2980 RMK SC8 SLP094=
CYOW;2006-05-06 13:00;METAR CYOW 061300Z 35003KT 6SM -RA BR FEW006 OVC030 07/06 A2981 RERA RMK SF2NS6 SLP097=
CYOW;2006-05-06 13:24;SPECI CYOW 061324Z 01004KT 6SM -RA BR BKN006 OVC030 07/ RMK SF6NS2=
CYOW;2006-05-06 15:00;METAR CYOW 061500Z 30006KT 4SM -RA BR BKN006 OVC010 07/06 A2982 RMK SF6NS2 SLP102=
CYOW;2006-05-06 16:00;METAR CYOW 061600Z 29009KT 5SM -RA BR BKN006 OVC010 06/04 A2984 RMK SF5NS3 SLP107=
CYOW;2006-05-06 17:00;METAR CYOW 061700Z 30010KT 15SM -RA OVC010 06/04 A2984 RMK SC8 SLP108=
CYOW;2006-05-06 17:40;SPECI CYOW 061740Z 31013KT 15SM BKN013 OVC060 06/ RMK SC7SC1=
CYOW;2006-05-06 18:00;METAR CYOW 061800Z 30008KT 15SM OVC012 07/05 A2986 RMK SC8 SLP116=
CYOW;2006-05-06 19:00;METAR CYOW 061900Z 29011KT 15SM BKN020 BKN090 10/05 A2987 RMK SC6AC1 SLP119=
CYOW;2006-05-06 19:10;SPECI CYOW 061910Z 34012KT 12SM -SHRA BKN022 08/ RMK SC7 TCU ASOCTD=
CYOW;2006-05-06 20:00;METAR CYOW 062000Z 35010G15KT 15SM VCSH BKN027 BKN080 08/04 A2989 RMK CU5AC2 INTMT SH SLP124=
CYOW;2006-05-06 20:25;SPECI CYOW 062025Z 33012KT 15SM -SHRA BKN022 07/ RMK CU5 SH INTMT=
CYOW;2006-05-06 21:00;METAR CYOW 062100Z 30014G19KT 15SM -SHRA BKN020 08/03 A2992 RMK CU6 SH INTMT TCU ASOCTD SLP134=
CYOW;2006-05-06 21:24;SPECI CYOW 062124Z 30014G19KT 15SM VCSH SCT020 BKN043 08/ RMK CU3SC2 INTMT SH TCU ASOCTD=
CYOW;2006-05-06 23:00;METAR CYOW 062300Z 32009KT 15SM FEW035 08/02 A2994 RMK CU2 SLP142=
CYOW;2006-05-07 00:00;METAR CYOW 070000Z 34006KT 15SM FEW050 07/00 A2996 RMK CU1 SLP150=
CYOW;2006-05-07 01:00;METAR CYOW 070100Z 33005KT 15SM FEW050 05/M01 A2999 RMK CU1 CU TR SLP159=
CYOW;2006-05-07 03:00;METAR CYOW 070300Z 33007KT 15SM SKC 03/M03 A3003 RMK SLP174=
CYOW;2006-05-07 04:00;METAR CYOW 070400Z 34006KT 15SM SKC 03/M03 A3005 RMK SLP181=
CYOW;2006-05-07 05:00;METAR CYOW 070500Z 36003KT 15SM SKC 02/M04 A3007 RMK SLP187=
CYOW;2006-05-07 07:00;METAR CYOW 070700Z 33003KT 15SM SKC 01/M05 A3008 RMK SLP191=
CYOW;2006-05-07 08:00;METAR CYOW 070800Z 27003KT 15SM SKC 00/M03 A3010 RMK SLP197=
CYOW;2006-05-07 10:00;METAR CYOW 071000Z 35005KT 15SM FEW100 M02/M06 A3011 RMK AC1 FROIN AC TR SLP201=
CYOW;2006-05-07 11:00;METAR CYOW 071100Z 02002KT 20SM SKC 01/M04 A3013 RMK SLP207=
CYOW;2006-05-07 12:00;METAR CYOW 071200Z 00000KT 20SM SKC 03/M04 A3014 RMK SLP211=
CYOW;2006-05-07 13:00;METAR CYOW 071300Z 21003KT 20SM SKC 05/M03 A3015 RMK SLP215=
CYOW;2006-05-07 16:00;METAR CYOW 071600Z 26005KT 20SM FEW030 BKN090 09/M01 A3014 RMK CU1AC5 SLP211=
CYOW;2006-05-07 18:00;METAR CYOW 071800Z 24011KT 20SM BKN055 BKN080 12/M01 A3011 RMK CU5AC1 SLP202=
CYOW;2006-05-07 19:00;METAR CYOW 071900Z 22011KT 20SM BKN070 12/M02 A3011 RMK AC7 SLP199=
CYOW;2006-05-07 20:00;METAR CYOW 072000Z 25009G17KT 20SM OVC070 12/M01 A3009 RMK AC8 SLP195=
CYOW;2006-05-07 21:00;METAR CYOW 072100Z 24006KT 20SM OVC067 11/M02 A3009 RMK AC8 SLP195=
CYOW;2006-05-07 22:00;METAR CYOW 072200Z 24009KT 20SM OVC073 12/M02 A3009 RMK AC8 SLP195=
CYOW;2006-05-07 23:00;METAR CYOW 072300Z 24008KT 15SM OVC080 11/M02 A3011 RMK AC7 SLP199=
CYOW;2006-05-08 01:00;METAR CYOW 080100Z 22003KT 15SM SCT095 BKN130 10/M03 A3011 RMK AC3AC2 SLP199=
CYOW;2006-05-08 02:00;METAR CYOW 080200Z 21002KT 15SM SCT120 09/M04 A3011 RMK AC4 SLP200=
CYOW;2006-05-08 04:00;METAR CYOW 080400Z 16003KT 15SM SCT075 BKN100 06/M02 A3011 RMK AC3AC3 SLP201=
CYOW;2006-05-08 06:00;METAR CYOW 080600Z 11003KT 15SM BKN080 07/M01 A3011 RMK AC7 SLP199=
CYOW;2006-05-08 07:00;METAR CYOW 080700Z 12005KT 15SM BKN095 06/00 A3010 RMK AC7 SLP195=
CYOW;2006-05-08 10:00;METAR CYOW 081000Z 06005KT 15SM FEW095 05/00 A3013 RMK AC1 SLP206=
CYOW;2006-05-08 11:00;METAR CYOW 081100Z 08005KT 12SM FEW100 SCT280 06/01 A3014 RMK AC2CI1 SLP208=
CYOW;2006-05-08 12:00;METAR CYOW 081200Z 08004KT 12SM BKN088 08/02 A3014 RMK AC6 SLP208=
CYOW;2006-05-08 13:00;METAR CYOW 081300Z 10004KT 12SM BKN092 11/03 A3015 RMK AC6 SLP214=
CYOW;2006-05-08 14:00;METAR CYOW 081400Z 09003KT 12SM SCT090 13/03 A3015 RMK AC4 SLP212=
CYOW;2006-05-08 15:00;METAR CYOW 081500Z 12004KT 15SM FEW180 FEW280 16/02 A3014 RMK AC2CI1 SLP207=
CYOW;2006-05-08 16:00;METAR CYOW 081600Z 16004KT 15SM FEW090 19/03 A3012 RMK AC2 SLP201=
CYOW;2006-05-08 18:00;METAR CYOW 081800Z 23009KT 15SM FEW280 21/03 A3006 RMK CI1 SLP182=
CYOW;2006-05-08 19:00;METAR CYOW 081900Z 22005KT 15SM FEW280 22/04 A3005 RMK CI0 SLP179=
CYOW;2006-05-08 20:00;METAR CYOW 082000Z 18007G15KT 15SM FEW280 23/03 A3004 RMK CI0 SLP173=
CYOW;2006-05-08 21:00;METAR CYOW 082100Z 24005KT 15SM FEW280 23/03 A3003 RMK CI0 SLP171=
CYOW;2006-05-08 22:00;METAR CYOW 082200Z 21006KT 15SM FEW280 22/02 A3003 RMK CI1 SLP172=
CYOW;2006-05-08 23:00;METAR CYOW 082300Z 20006KT 15SM FEW280 21/02 A3003 RMK CI1 SLP172=
CYOW;2006-05-09 00:00;METAR CYOW 090000Z 19003KT 15SM SKC 19/02 A3004 RMK SLP174=
CYOW;2006-05-09 03:00;METAR CYOW 090300Z 14003KT 15SM SKC 14/02 A3006 RMK SLP181=
CYOW;2006-05-09 04:00;METAR CYOW 090400Z 15003KT 15SM SKC 13/02 A3006 RMK SLP181=
CYOW;2006-05-09 05:00;METAR CYOW 090500Z 10004KT 15SM SKC 10/03 A3006 RMK SLP180=
CYOW;2006-05-09 06:00;METAR CYOW 090600Z 09002KT 15SM SKC 14/01 A3005 RMK SLP177=
CYOW;2006-05-09 07:00;METAR CYOW 090700Z 02004KT 15SM SKC 11/03 A3005 RMK SLP177=
CYOW;2006-05-09 08:00;METAR CYOW 090800Z 05005KT 15SM SKC 11/03 A3005 RMK SLP177=
CYOW;2006-05-09 09:00;METAR CYOW 090900Z 36003KT 15SM SCT270 09/04 A3006 RMK CI1 SLP181=
CYOW;2006-05-09 10:00;METAR CYOW 091000Z 04006KT 15SM FEW220 BKN270 11/04 A3007 RMK CC1CI1 SLP183=
CYOW;2006-05-09 11:00;METAR CYOW 091100Z 05006KT 15SM FEW220 BKN250 12/05 A3008 RMK CI2CI0 SLP186=
CYOW;2006-05-09 12:00;METAR CYOW 091200Z 07006KT 15SM FEW220 BKN250 14/05 A3008 RMK CI2CI1 SLP188=
CYOW;2006-05-09 13:00;METAR CYOW 091300Z 07004KT 15SM FEW220 BKN250 16/07 A3009 RMK CI2CI1 SLP190=
CYOW;2006-05-09 15:00;METAR CYOW 091500Z 05004KT 15SM FEW180 FEW220 BKN250 19/07 A3009 RMK AC1CI2CI0 SLP190=
CYOW;2006-05-09 17:00;METAR CYOW 091700Z 04007KT 15SM FEW200 BKN250 22/07 A3004 RMK CI2CI0 SLP175=
CYOW;2006-05-09 18:00;METAR CYOW 091800Z 09008KT 15SM FEW200 SCT240 BKN260 23/06 A3002 RMK CI2CI1CI0 SLP166=
CYOW;2006-05-09 20:00;METAR CYOW 092000Z 09006KT 15SM FEW200 BKN250 24/06 A2998 RMK CI1CI1 SLP153=
CYOW;2006-05-09 22:00;METAR CYOW 092200Z 11012KT 15SM FEW200 BKN260 23/06 A2996 RMK CI2CI0 SLP148=
CYOW;2006-05-09 23:00;METAR CYOW 092300Z 11010G16KT 15SM FEW210 BKN270 22/06 A2996 RMK CI2CI0 SLP147=
CYOW;2006-05-10 00:00;METAR CYOW 100000Z 10008KT 15SM SCT210 BKN270 19/06 A2996 RMK CI2CI0 SLP145=
CYOW;2006-05-10 01:00;METAR CYOW 100100Z 10006KT 15SM FEW210 BKN270 16/06 A2997 RMK CI2CI0 SLP149=
CYOW;2006-05-10 02:00;METAR CYOW 100200Z 08005KT 15SM FEW210 16/06 A2998 RMK CI1 SLP153=
CYOW;2006-05-10 04:00;METAR CYOW 100400Z 07005KT 15SM SCT170 15/06 A2996 RMK AC3 SLP148=
CYOW;2006-05-10 05:00;METAR CYOW 100500Z 02005KT 15SM BKN170 14/06 A2996 RMK AC5 SLP147=
CYOW;2006-05-10 06:00;METAR CYOW 100600Z 03006KT 15SM BKN190 14/06 A2995 RMK AC6 SLP144=
CYOW;2006-05-10 07:00;METAR CYOW 100700Z 05007KT 15SM BKN170 14/06 A2994 RMK AC7 SLP139=
CYOW;2006-05-10 08:00;METAR CYOW 100800Z 07008KT 15SM OVC170 14/05 A2993 RMK AC8 SLP137=
CYOW;2006-05-10 09:00;METAR CYOW 100900Z 07008KT 15SM SCT160 12/05 A2993 RMK AC3 SLP137=
CYOW;2006-05-10 10:00;METAR CYOW 101000Z 07009KT 15SM SCT160 BKN270 12/05 A2994 RMK AC4CI0 SLP139=
CYOW;2006-05-10 11:00;METAR CYOW 101100Z 07011KT 15SM FEW160 SCT260 14/05 A2994 RMK AC2CI0 SLP141=
CYOW;2006-05-10 12:00;METAR CYOW 101200Z 07014G19KT 15SM FEW160 SCT260 15/04 A2995 RMK AC2CI0 SLP142=
CYOW;2006-05-10 13:00;METAR CYOW 101300Z 08012KT 15SM FEW100 FEW250 17/05 A2995 RMK AC1CI1 SLP143=
CYOW;2006-05-10 14:00;METAR CYOW 101400Z 09011G18KT 15SM FEW100 BKN250 18/06 A2995 RMK AC1CI1 SLP144=
CYOW;2006-05-10 16:00;METAR CYOW 101600Z 10010G16KT 15SM FEW160 FEW200 FEW210 BKN260 19/07 A2994 RMK AC1CC1CI2CI0 AC CC TR SLP139=
CYOW;2006-05-10 17:00;METAR CYOW 101700Z 17011KT 15SM FEW160 FEW200 FEW210 BKN260 19/08 A2991 RMK AC1CC1CI2CI0 AC CC TR SLP131=
CYOW;2006-05-10 18:00;METAR CYOW 101800Z 11009G16KT 15SM FEW120 FEW220 BKN260 20/09 A2991 RMK AC1CI1CI0 SLP129=
CYOW;2006-05-10 19:00;METAR CYOW 101900Z 09008KT 15SM FEW100 BKN260 21/10 A2990 RMK AC1CI1 SLP125=
CYOW;2006-05-10 21:00;METAR CYOW 102100Z 10007KT 15SM FEW100 SCT260 21/11 A2987 RMK AC1CI0 AC TR SLP116=
CYOW;2006-05-10 22:00;METAR CYOW 102200Z 10010G16KT 15SM FEW250 20/11 A2987 RMK CI0 SLP115=
CYOW;2006-05-10 23:00;METAR CYOW 102300Z 08010G15KT 15SM FEW270 20/11 A2986 RMK CI0 SLP113=
CYOW;2006-05-11 00:00;METAR CYOW 110000Z 07008KT 15SM FEW100 BKN270 18/11 A2985 RMK AC1CI0 SLP110=
CYOW;2006-05-11 01:00;METAR CYOW 110100Z 06008KT 15SM FEW100 SCT270 17/11 A2986 RMK AC1CI0 SLP113=
CYOW;2006-05-11 02:00;METAR CYOW 110200Z 08003KT 15SM FEW100 16/11 A2987 RMK AC2 SLP115=
CYOW;2006-05-11 03:00;METAR CYOW 110300Z 08010G17KT 15SM BKN090 15/10 A2987 RMK AC5 SLP117=
CYOW;2006-05-11 04:00;METAR CYOW 110400Z 08013KT 15SM BKN090 13/09 A2987 RMK AC5 SLP115=
CYOW;2006-05-11 05:00;METAR CYOW 110500Z 09011G16KT 15SM FEW090 12/09 A2987 RMK AC2 SLP115=
CYOW;2006-05-11 06:00;METAR CYOW 110600Z 08012G17KT 15SM FEW090 11/09 A2986 RMK AC1 SLP112=
CYOW;2006-05-11 07:00;METAR CYOW 110700Z 08008KT 15SM OVC070 12/09 A2987 RMK AC8 SLP115=
CYOW;2006-05-11 10:00;METAR CYOW 111000Z 08013KT 12SM OVC007 11/10 A2983 RMK SC6 SLP102=
CYOW;2006-05-11 11:00;METAR CYOW 111100Z 08009KT 15SM OVC008 12/10 A2983 RMK SC8 SLP104=
CYOW;2006-05-11 12:00;METAR CYOW 111200Z 09012G19KT 15SM FEW010 BKN070 BKN260 13/11 A2983 RMK SF2AC4CI0 SLP104=
CYOW;2006-05-11 13:00;METAR CYOW 111300Z 09010G16KT 15SM FEW070 BKN100 16/12 A2984 RMK AC2AC4 SLP107=
CYOW;2006-05-11 14:00;METAR CYOW 111400Z 09013KT 15SM FEW070 BKN100 18/13 A2982 RMK AC1AC4 SLP098=
CYOW;2006-05-11 15:00;METAR CYOW 111500Z 08014KT 15SM BKN026 OVC070 18/13 A2980 RMK SC6AC2 SLP092=
CYOW;2006-05-11 16:00;METAR CYOW 111600Z 11015KT 15SM FEW025 BKN035 OVC050 20/13 A2978 RMK CU1SC5SC2 SLP087=
CYOW;2006-05-11 17:00;METAR CYOW 111700Z 10015KT 15SM OVC050 20/13 A2976 RMK SC7 CU ASOCT SLP078=
CYOW;2006-05-11 20:00;METAR CYOW 112000Z 14016G22KT 15SM FEW055 FEW100 BKN170 BKN210 23/11 A2968 RMK CU1AC2AC2CI1 SLP053=
CYOW;2006-05-11 21:00;METAR CYOW 112100Z 15013G21KT 15SM FEW050 SCT100 BKN160 BKN210 23/11 A2968 RMK SC1AC3AC2CI1 SLP053=
CYOW;2006-05-11 22:00;METAR CYOW 112200Z 13013G18KT 15SM FEW060 SCT100 BKN150 22/10 A2969 RMK SC1AC2AC4 SLP054=
CYOW;2006-05-11 23:00;METAR CYOW 112300Z 10016G21KT 15SM SCT060 BKN130 BKN210 22/10 A2969 RMK SC4AC2CI1 TCU N-NE SLP056=
CYOW;2006-05-12 00:00;METAR CYOW 120000Z 10013G21KT 15SM BKN054 BKN120 BKN210 20/10 A2971 RMK SC6AC2CI1 SLP060=
CYOW;2006-05-12 04:00;METAR CYOW 120400Z 09016KT 15SM OVC050 17/10 A2973 RMK SC8 SLP068=
CYOW;2006-05-12 05:00;METAR CYOW 120500Z 09016KT 15SM OVC048 16/10 A2971 RMK SC8 SLP063=
CYOW;2006-05-12 06:00;METAR CYOW 120600Z 09019G24KT 15SM OVC048 16/10 A2970 RMK SC8 SLP057=
CYOW;2006-05-12 07:00;METAR CYOW 120700Z 09016G25KT 15SM OVC045 16/10 A2968 RMK SC8 SLP052=
CYOW;2006-05-12 08:00;METAR CYOW 120800Z 09018G25KT 15SM FEW050 OVC085 16/10 A2965 RMK SC2AC6 SLP042=
CYOW;2006-05-12 08:31;SPECI CYOW 120831Z 08018G32KT 15SM -RA BKN064 OVC085 16/ RMK SC5AC3=
CYOW;2006-05-12 09:00;METAR CYOW 120900Z 09022G31KT 15SM SCT057 OVC066 15/10 A2964 RMK SC4AC4 SLP038=
CYOW;2006-05-12 09:31;SPECI CYOW 120931Z 09023G31KT 15SM -RA BKN058 OVC100 15/ RMK SC5AC3=
CYOW;2006-05-12 10:00;METAR CYOW 121000Z 09022G31KT 15SM -RA FEW040 BKN057 OVC100 14/11 A2965 RMK SC1SC4AC3 RA VRY LGT SLP039=
CYOW;2006-05-12 11:00;METAR CYOW 121100Z 09022G27KT 15SM -RA OVC052 14/11 A2968 RMK SC8 SLP049=
CYOW;2006-05-12 12:00;METAR CYOW 121200Z 10014G20KT 12SM -RA OVC033 13/12 A2971 RMK SC8 SLP060=
CYOW;2006-05-12 13:00;METAR CYOW 121300Z 09013G19KT 10SM -RA OVC042 13/12 A2973 RMK SC8 SLP067=
CYOW;2006-05-12 14:00;METAR CYOW 121400Z 09019G25KT 6SM -RA BR OVC046 13/12 A2974 RMK SC8 SLP071=
CYOW;2006-05-12 14:47;SPECI CYOW 121447Z 09017G24KT 6SM -RA BR SCT009 OVC032 13/ RMK SF3SC5=
CYOW;2006-05-12 15:00;METAR CYOW 121500Z 09018G26KT 6SM -RA BR BKN010 OVC025 13/12 A2975 RMK SF5SC3 SLP077=
CYOW;2006-05-12 16:00;METAR CYOW 121600Z 09016G24KT 15SM -RA BKN008 OVC020 14/13 A2977 RMK SF6SC2 VRY LGT RA SLP082=
CYOW;2006-05-12 17:00;METAR CYOW 121700Z 09017G22KT 15SM -RA BKN009 OVC020 14/13 A2978 RMK SF6SC2 VRY LGT RA SLP087=
CYOW;2006-05-12 18:00;METAR CYOW 121800Z 09015G24KT 12SM -RA BKN010 OVC020 14/13 A2979 RMK SF6SC2 /R11/ SLP091=
CYOW;2006-05-12 19:21;SPECI CYOW 121921Z 09016G21KT 15SM BKN009 OVC037 14/ RMK SF5SC3=
CYOW;2006-05-12 19:35;SPECI CYOW 121935Z 08015G20KT 15SM SCT008 OVC037 14/ RMK SF3SC5=
CYOW;2006-05-12 20:34;SPECI CYOW 122034Z 09018KT 15SM BKN010 OVC041 15/ RMK SF6SC2 CIG VRB 8-12=
CYOW;2006-05-12 21:00;METAR CYOW 122100Z 09018KT 15SM SCT011 OVC043 15/13 A2980 RMK SC3SC5 SLP093=
CYOW;2006-05-12 21:43;SPECI CYOW 122143Z 09012G18KT 15SM BKN009 OVC042 15/ RMK SC6SC2=
CYOW;2006-05-12 23:00;METAR CYOW 122300Z 09016KT 12SM -RA BKN008 OVC036 14/13 A2983 RMK SC7SC1 SLP102=
CYOW;2006-05-13 00:00;METAR CYOW 130000Z 09016KT 4SM -RA BR BKN008 OVC046 14/13 A2985 RMK SF6SC2 SLP108=
CYOW;2006-05-13 00:48;SPECI CYOW 130048Z 09015KT 10SM -RA SCT009 OVC057 14/ RMK SF3SC5=
CYOW;2006-05-13 02:00;METAR CYOW 130200Z 09013G21KT 8SM RA BKN033 OVC052 14/13 A2988 RMK SC5NS3 SLP118=
CYOW;2006-05-13 03:00;METAR CYOW 130300Z 09014KT 5SM RA BR FEW005 OVC020 14/13 A2988 RMK SF2NS6 /R13/ SLP122=
CYOW;2006-05-13 05:00;METAR CYOW 130500Z 08017G24KT 8SM -RA SCT005 OVC012 12/11 A2989 RERA RMK SF3NS5 /R21/ SLP123=
CYOW;2006-05-13 05:43;SPECI CYOW 130543Z 08018G25KT 10SM -RA FEW008 OVC046 12/ RMK SF2SC6=
CYOW;2006-05-13 07:00;METAR CYOW 130700Z 08014G21KT 10SM -RA OVC009 12/11 A2988 RMK SF8 CIG RAG SLP120=
CYOW;2006-05-13 08:00;METAR CYOW 130800Z 08017G26KT 10SM -RA BKN006 OVC011 12/11 A2988 RMK CF5NS3 CIG RAG SLP120=
CYOW;2006-05-13 09:00;METAR CYOW 130900Z 08017G24KT 12SM -RA FEW006 OVC011 11/11 A2989 RMK CF1SC7 SLP123=
CYOW;2006-05-13 10:00;METAR CYOW 131000Z 08015KT 15SM -RA SCT006 OVC012 11/11 A2990 RMK SF4SC4 RA VRY LGT SLP127=
CYOW;2006-05-13 11:00;METAR CYOW 131100Z 09015G21KT 5SM -RA BR BKN006 OVC013 11/11 A2992 RMK SF6NS2 SLP134=
CYOW;2006-05-13 12:00;METAR CYOW 131200Z 09013G19KT 12SM OVC009 12/11 A2993 RMK SF8 RAIN 36.6 MM PST 24 HRS SLP138=
CYOW;2006-05-13 13:00;METAR CYOW 131300Z 09018G24KT 12SM -RA OVC009 12/11 A2995 RMK SF8 RAIN=
CYOW;2006-05-13 14:00;METAR CYOW 131400Z 08018G24KT 12SM -RA OVC010 12/11 A2996 RMK SC8 -RA INTMT SLP148=
CYOW;2006-05-13 15:00;METAR CYOW 131500Z 09017G22KT 12SM OVC013 14/11 A2997 RMK SC8 SLP152=
CYOW;2006-05-13 15:34;SPECI CYOW 131534Z 09016KT 12SM OVC016 14/ RMK SC8=
CYOW;2006-05-13 16:00;METAR CYOW 131600Z 08013G18KT 12SM OVC020 14/11 A2998 RMK SC8 SLP154=
CYOW;2006-05-13 18:00;METAR CYOW 131800Z 08016G22KT 12SM OVC017 14/10 A3000 RMK SC8 SLP161=
CYOW;2006-05-13 20:00;METAR CYOW 132000Z 08016G25KT 12SM OVC013 12/09 A3002 RMK SC8 SLP168=
CYOW;2006-05-13 21:00;METAR CYOW 132100Z 08017G25KT 12SM OVC014 11/09 A3003 RMK SC8 SLP171=
CYOW;2006-05-13 22:49;SPECI CYOW 132249Z 08017G22KT 12SM BKN018 OVC051 12/ RMK SC6SC2=
CYOW;2006-05-13 23:00;METAR CYOW 132300Z 09019G24KT 12SM BKN019 OVC050 12/08 A3005 RMK SC6SC2 SLP177=
CYOW;2006-05-14 01:00;METAR CYOW 140100Z 09016G22KT 15SM BKN034 OVC087 12/07 A3008 RMK SC6AC1 SLP187=
CYOW;2006-05-14 02:00;METAR CYOW 140200Z 08019KT 12SM OVC085 12/07 A3008 RMK AC7 SLP187=
CYOW;2006-05-14 03:00;METAR CYOW 140300Z 08017G24KT 12SM FEW090 FEW240 11/07 A3008 RMK AC1CI1 SLP188=
CYOW;2006-05-14 04:00;METAR CYOW 140400Z 09015G20KT 12SM FEW087 BKN150 BKN250 11/07 A3008 RMK AC2AC3CI0 SLP190=
CYOW;2006-05-14 05:00;METAR CYOW 140500Z 09011G16KT 12SM OVC077 11/06 A3009 RMK AC8 SLP191=
CYOW;2006-05-14 06:00;METAR CYOW 140600Z 08013G18KT 12SM BKN079 11/07 A3008 RMK AC7 SLP189=
CYOW;2006-05-14 08:00;METAR CYOW 140800Z 07008KT 12SM BKN041 BKN085 10/07 A3008 RMK SC5AC2 SLP188=
CYOW;2006-05-14 09:00;METAR CYOW 140900Z 08011G16KT 15SM OVC040 11/07 A3008 RMK SC8 SLP187=
CYOW;2006-05-14 11:00;METAR CYOW 141100Z 07012G17KT 15SM FEW015 OVC036 11/08 A3009 RMK SC1SC6 SLP191=
CYOW;2006-05-14 12:00;METAR CYOW 141200Z 08011G16KT 12SM OVC018 11/08 A3011 RMK SC8 SLP197=
CYOW;2006-05-14 13:00;METAR CYOW 141300Z 09014KT 12SM OVC017 12/09 A3010 RMK SC8 SLP195=
CYOW;2006-05-14 17:00;METAR CYOW 141700Z 08016G21KT 4SM -RA BR BKN010 OVC017 12/11 A3013 RMK SF6NS2 SLP205=
CYOW;2006-05-14 19:00;METAR CYOW 141900Z 07013KT 6SM -RA BR OVC053 13/11 A3012 RMK SC8 SLP203=
CYOW;2006-05-14 20:00;METAR CYOW 142000Z 08011KT 6SM -RA BR OVC057 13/11 A3012 RMK SC8 SLP203=
CYOW;2006-05-14 21:00;METAR CYOW 142100Z 09006KT 6SM -RA BR OVC060 13/12 A3012 RMK SC8 SLP203=
CYOW;2006-05-14 23:00;METAR CYOW 142300Z 08007KT 8SM -RA FEW008 FEW060 BKN100 BKN210 14/13 A3011 RMK CF1SC2AC3CI2 RA VRY LGT SLP197=
CYOW;2006-05-14 23:32;SPECI CYOW 142332Z 09012KT 10SM FEW008 SCT120 OVC250 14/ RMK SC2AC2CS3=
CYOW;2006-05-15 00:00;METAR CYOW 150000Z 10012G18KT 10SM -RA FEW008 BKN090 OVC250 14/11 A3012 RMK CF1AC6CS1 CUFRA TR AS ASOCTD SLP201=
CYOW;2006-05-15 01:00;METAR CYOW 150100Z 09010G15KT 12SM BKN076 BKN120 OVC250 13/10 A3011 RMK AC6AS2CS0 SLP198=
CYOW;2006-05-15 02:00;METAR CYOW 150200Z 07008KT 15SM BKN072 OVC084 13/09 A3011 RMK AC6AC2 SLP198=
CYOW;2006-05-15 04:00;METAR CYOW 150400Z 07007KT 15SM FEW050 OVC087 12/09 A3009 RMK SC2AC6 SLP193=
CYOW;2006-05-15 05:00;METAR CYOW 150500Z 06009KT 15SM OVC050 13/09 A3009 RMK SC8 SLP192=
CYOW;2006-05-15 06:00;METAR CYOW 150600Z 08010G16KT 12SM BKN046 OVC082 12/09 A3009 RMK SC6AC2 SLP191=
CYOW;2006-05-15 06:20;SPECI CYOW 150620Z 08010KT 12SM -RA BKN050 OVC081 12/ RMK SC5AC3=
CYOW;2006-05-15 08:00;METAR CYOW 150800Z 06009KT 12SM -RA OVC053 11/09 A3006 RMK SC8 RA VRY LGT SLP182=
CYOW;2006-05-15 09:00;METAR CYOW 150900Z 07008KT 10SM -RA BKN052 OVC082 11/09 A3005 RMK SC6AC2 SLP178=
CYOW;2006-05-15 12:09;SPECI CYOW 151209Z 08015KT 15SM OVC042 11/ RMK SC8=
CYOW;2006-05-15 13:00;METAR CYOW 151300Z 08011G18KT 15SM OVC030 11/09 A3005 RMK SC8 SLP180=
CYOW;2006-05-15 14:00;METAR CYOW 151400Z 08015KT 15SM SCT014 OVC050 12/09 A3005 RMK SC3SC5 SLP179=
CYOW;2006-05-15 15:00;METAR CYOW 151500Z 09013G19KT 15SM BKN016 OVC030 13/10 A3004 RMK SC6SC2 SLP174=
CYOW;2006-05-15 16:00;METAR CYOW 151600Z 08013G19KT 15SM BKN016 OVC025 14/11 A3003 RMK SC6SC2 SLP171=
CYOW;2006-05-15 17:00;METAR CYOW 151700Z 06013G18KT 15SM BKN018 OVC025 15/11 A3001 RMK SC7SC1 SLP166=
CYOW;2006-05-15 18:00;METAR CYOW 151800Z 10014G20KT 15SM BKN020 BKN220 18/12 A2999 RMK SC6CI0 SLP158=
CYOW;2006-05-15 19:00;METAR CYOW 151900Z 08016G22KT 20SM FEW026 FEW100 SCT210 BKN260 18/12 A2996 RMK SC2AC1CI1CI0 CU ASOCTD SLP147=
CYOW;2006-05-15 21:00;METAR CYOW 152100Z 09015G22KT 20SM FEW025 BKN050 BKN087 17/11 A2992 RMK SC1SC4AC2 SLP133=
CYOW;2006-05-15 21:24;SPECI CYOW 152124Z 08015G21KT 15SM -SHRA FEW025 BKN060 BKN088 16/ RMK SC2SC4AC2 CVCTV CLD EMBD=
CYOW;2006-05-15 21:44;SPECI CYOW 152144Z 08016KT 15SM FEW030 FEW060 BKN077 16/ RMK SC1SC2AC5 SHRA DIST NW-NE=
CYOW;2006-05-15 22:00;METAR CYOW 152200Z 09015G20KT 15SM FEW025 SCT050 BKN076 16/11 A2991 RMK SC1SC2AC4 SLP129=
CYOW;2006-05-15 23:00;METAR CYOW 152300Z 07012G17KT 20SM FEW020TCU OVC042 15/11 A2989 RMK TCU1SC7 TR TCU S QUAD SLP125=
CYOW;2006-05-16 00:00;METAR CYOW 160000Z 07012G17KT 20SM FEW015 FEW040 BKN098 15/11 A2988 RMK SC1SC2AC6 LO SC TR SLP120=
CYOW;2006-05-16 01:00;METAR CYOW 160100Z 07012G17KT 15SM FEW040 BKN096 14/11 A2987 RMK SC2AC4 SLP116=
CYOW;2006-05-16 02:36;SPECI CYOW 160236Z 09008KT 12SM -RA FEW050 OVC080 13/ RMK SC2AC6=
CYOW;2006-05-16 03:00;METAR CYOW 160300Z 09009KT 12SM -RA FEW050 OVC065 13/11 A2985 RMK SC2SC6 SLP110=
CYOW;2006-05-16 03:35;SPECI CYOW 160335Z 08010KT 12SM FEW005 OVC056 13/ RMK SF1SC8 SF TR=
CYOW;2006-05-16 04:00;METAR CYOW 160400Z 08011KT 12SM -RA FEW008 OVC042 12/12 A2983 RMK SF1SC8 SF TR SLP104=
CYOW;2006-05-16 05:32;SPECI CYOW 160532Z 07008KT 10SM FEW005 OVC036 12/ RMK SF2SC6=
CYOW;2006-05-16 06:00;METAR CYOW 160600Z 08009KT 10SM FEW006 OVC038 12/12 A2978 RMK SF2SC6 SLP086=
CYOW;2006-05-16 06:40;SPECI CYOW 160640Z 08009KT 10SM -RA SCT006 BKN032 OVC070 12/ RMK SF3SC3AC2=
CYOW;2006-05-16 07:00;METAR CYOW 160700Z 09010KT 10SM SCT005 BKN034 OVC070 12/11 A2976 RMK SF3SC3AC2 SLP080=
CYOW;2006-05-16 07:18;SPECI CYOW 160718Z 09009KT 10SM -RA SCT007 BKN023 OVC043 12/ RMK SF3SC3SC2=
CYOW;2006-05-16 09:00;METAR CYOW 160900Z 09007KT 10SM FEW004 BKN027 OVC040 12/11 A2973 RMK SF2SC6SC1 SLP071=
CYOW;2006-05-16 10:00;METAR CYOW 161000Z 09009KT 10SM FEW004 SCT030 OVC047 12/11 A2973 RMK SF2SC2SC4 SLP069=
CYOW;2006-05-16 10:10;SPECI CYOW 161010Z 09008KT 8SM -RA SCT004 OVC048 12/ RMK SF3SC5=
CYOW;2006-05-16 10:36;SPECI CYOW 161036Z 09008KT 12SM SCT010 OVC053 12/ RMK SF3SC4=
CYOW;2006-05-16 11:00;METAR CYOW 161100Z 09008KT 12SM SCT010 OVC029 12/11 A2971 RMK SF3SC5 SLP064=
CYOW;2006-05-16 12:00;METAR CYOW 161200Z 09008KT 15SM FEW010 BKN025 BKN070 13/12 A2969 RMK SF2SC4AC1 SLP055=
CYOW;2006-05-16 13:00;METAR CYOW 161300Z 07006KT 15SM FEW010 BKN030 BKN080 14/11 A2970 RMK SF2SC2AC2 CU ASOCT SLP059=
CYOW;2006-05-16 14:00;METAR CYOW 161400Z 10005KT 15SM BKN027 BKN080 16/12 A2968 RMK SC6AC1 CU ASOCT SLP054=
CYOW;2006-05-16 15:00;METAR CYOW 161500Z 13005KT 15SM BKN025 BKN080 16/11 A2967 RMK SC6AC2 CU ASOCT SLP047=
CYOW;2006-05-16 16:00;METAR CYOW 161600Z 16003KT 15SM BKN025 OVC050 17/10 A2964 RMK SC6SC2 CU ASOCT SLP038=
CYOW;2006-05-16 17:00;METAR CYOW 161700Z 06005KT 15SM SCT035 BKN058 17/10 A2962 RMK CU3SC4 SLP032=
CYOW;2006-05-16 18:00;METAR CYOW 161800Z 06005KT 15SM SCT035 BKN052 BKN070 18/10 A2960 RMK CU3SC3AC1 SLP024=
CYOW;2006-05-16 19:00;METAR CYOW 161900Z 11004KT 15SM SCT040 BKN050 BKN080 18/10 A2957 RMK CU4SC2AC2 SLP015=
CYOW;2006-05-16 21:00;METAR CYOW 162100Z 36005KT 15SM SCT035 BKN052 BKN100 19/10 A2953 RMK CU3SC2AC2 SH ALL QUADS SLP999=
CYOW;2006-05-16 23:00;METAR CYOW 162300Z 36005KT 15SM FEW040 BKN090 OVC210 17/09 A2951 RMK SC1AC4CI2 TCU SHRA S-E SLP995=
CYOW;2006-05-17 00:00;METAR CYOW 170000Z 24004KT 15SM FEW040 SCT090 BKN110 OVC200 16/09 A2951 RMK SC1AC3AC2CS2 SLP993=
CYOW;2006-05-17 01:00;METAR CYOW 170100Z 25004KT 15SM SCT120 OVC180 15/10 A2950 RMK AC4AS4 SLP992=
CYOW;2006-05-17 03:34;SPECI CYOW 170334Z 25005KT 15SM -RA OVC056 14/ RMK SC8=
CYOW;2006-05-17 05:00;METAR CYOW 170500Z 26006KT 12SM -RA OVC070 13/11 A2945 RMK AC8 SLP975=
CYOW;2006-05-17 08:00;METAR CYOW 170800Z 23007KT 6SM -RA FEW007 OVC022 12/11 A2942 RERA RMK SF1NS7 SLP962=
CYOW;2006-05-17 09:00;METAR CYOW 170900Z 25007KT 8SM OVC015 12/11 A2941 RMK SC8 SLP960=
CYOW;2006-05-17 12:00;METAR CYOW 171200Z 23006KT 10SM SCT015 OVC062 12/11 A2940 RMK SC3SC5 SLP958=
CYOW;2006-05-17 13:00;METAR CYOW 171300Z 24009KT 10SM BKN014 OVC040 13/12 A2940 RMK SF5SC3 SLP957=
CYOW;2006-05-17 13:17;SPECI CYOW 171317Z 24009KT 6SM -DZ BR BKN007 OVC015 13/ RMK SF6SC2=
CYOW;2006-05-17 13:44;SPECI CYOW 171344Z 24006KT 6SM -RADZ BR BKN008 OVC030 13/ RMK SF6SC2=
CYOW;2006-05-17 14:00;METAR CYOW 171400Z 24006KT 6SM -RADZ BR BKN008 OVC020 13/12 A2941 RMK SF5SC3 SLP959=
CYOW;2006-05-17 14:38;SPECI CYOW 171438Z 23006KT 6SM BR OVC010 13/ RMK SF8=
CYOW;2006-05-17 14:52;SPECI CYOW 171452Z 22007KT 6SM -DZ BR BKN008 OVC015 13/ RMK SF6SC2=
CYOW;2006-05-17 15:00;METAR CYOW 171500Z 23007KT 6SM -DZ BR BKN010 OVC015 13/12 A2940 RMK SF6SC2 SLP957=
CYOW;2006-05-17 17:00;METAR CYOW 171700Z 21003KT 10SM -DZ SCT010 OVC030 14/13 A2939 RMK SF3SC5 SLP954=
CYOW;2006-05-17 17:21;SPECI CYOW 171721Z 22006KT 15SM SCT015 OVC025 15/ RMK SF3SC5=
CYOW;2006-05-17 18:00;METAR CYOW 171800Z 22006KT 15SM OVC021 16/13 A2938 RMK SC8 SLP949=
CYOW;2006-05-17 19:00;METAR CYOW 171900Z 22006KT 15SM SCT020 BKN031 OVC080 16/12 A2937 RMK CU3SC4AC1 SLP948=
CYOW;2006-05-17 21:00;METAR CYOW 172100Z 18005KT 15SM SCT020 OVC039 17/13 A2936 RMK CU4SC4 SLP944=
CYOW;2006-05-17 22:00;METAR CYOW 172200Z 16005KT 15SM BKN040 BKN080 16/14 A2936 RMK CU5AC2 TCU EMBD SLP945=
CYOW;2006-05-17 22:34;SPECI CYOW 172234Z 18006KT 15SM FEW009 FEW014 SCT045TCU BKN070 OVC240 16/ RMK CF1SC2TCU1AC2CI1=
CYOW;2006-05-17 23:00;METAR CYOW 172300Z 18007KT 15SM FEW008 FEW015 BKN072 OVC240 15/13 A2937 RMK CF1SC2AC4CI1 TCU W SLP946=
CYOW;2006-05-17 23:49;SPECI CYOW 172349Z 17005KT 12SM -SHRA SCT050 BKN070 OVC240 14/ RMK SC3AC4CI0 CVCTV CLD EMBD=
CYOW;2006-05-18 00:00;METAR CYOW 180000Z 17005KT 12SM -SHRA FEW008 SCT050 BKN070 BKN100 OVC240 14/13 A2938 RMK CF1SC2AC2AC2CI0 CVCTV CLD EMBD SLP949=
CYOW;2006-05-18 01:00;METAR CYOW 180100Z 16006KT 5SM -RA BR FEW008 FEW050 OVC080 14/13 A2938 RMK CF1SC2AC6 SLP951=
CYOW;2006-05-18 01:17;SPECI CYOW 180117Z 15005KT 5SM BR OVC008 13/ RMK SC8=
CYOW;2006-05-18 01:45;SPECI CYOW 180145Z 13005KT 5SM -RA BR OVC007 13/ RMK SC8=
CYOW;2006-05-18 02:00;METAR CYOW 180200Z 12005KT 5SM -RA BR OVC007 13/13 A2938 RMK SC8 SLP951=
CYOW;2006-05-18 02:40;SPECI CYOW 180240Z 13004KT 4SM -RA BR OVC004 13/ RMK SF8=
CYOW;2006-05-18 03:00;METAR CYOW 180300Z 15004KT 4SM -RA BR OVC005 13/13 A2938 RMK SF8 SLP951=
CYOW;2006-05-18 03:53;SPECI CYOW 180353Z 14003KT 2 1/2SM -RA BR OVC004 13/ RMK ST8 RA VRY LGT=
CYOW;2006-05-18 04:00;METAR CYOW 180400Z 14003KT 2SM -RA BR OVC004 13/13 A2937 RMK ST8 RA VRY LGT SLP948=
CYOW;2006-05-18 04:27;SPECI CYOW 180427Z 14002KT 2SM -RA BR OVC002 13/ RMK ST8 RA VRY LGT CIG RAG=
CYOW;2006-05-18 05:00;METAR CYOW 180500Z 15002KT 2SM -RA BR OVC003 13/13 A2936 RMK ST8 CIG RAG SLP945=
CYOW;2006-05-18 05:37;SPECI CYOW 180537Z 00000KT 4SM -RA BR FEW002 OVC006 13/ RMK SF2SC6 RA VRY LGT=
CYOW;2006-05-18 06:00;METAR CYOW 180600Z 24002KT 8SM -RA FEW004 OVC008 13/13 A2936 RMK SF2SC6 RA VRY LGT SLP943=
CYOW;2006-05-18 06:18;SPECI CYOW 180618Z 24002KT 8SM -RA FEW004 FEW008 OVC025 13/ RMK SF1CF2SC6=
CYOW;2006-05-18 06:35;SPECI CYOW 180635Z 23002KT 8SM -RA SCT003 OVC008 13/ RMK SF3SC5=
CYOW;2006-05-18 07:00;METAR CYOW 180700Z 21002KT 6SM -RA FEW002 OVC011 13/12 A2936 RMK SF2SC6 SLP942=
CYOW;2006-05-18 07:12;SPECI CYOW 180712Z 21002KT 5SM -RA BR OVC003 13/ RMK NS8 CIG RAG=
CYOW;2006-05-18 07:29;SPECI CYOW 180729Z 00000KT 4SM +SHRA BR SCT003 OVC031 13/ RMK SF3SC5 CVCTV CLD EMBD=
CYOW;2006-05-18 07:49;SPECI CYOW 180749Z 00000KT 5SM -RA BR OVC005 13/ RERA RMK ST8=
CYOW;2006-05-18 08:25;SPECI CYOW 180825Z 00000KT 8SM OVC002 13/ RMK ST8=
CYOW;2006-05-18 09:00;METAR CYOW 180900Z 12002KT 1 1/2SM BR OVC002 13/12 A2936 RMK FG1ST7 SLP944=
CYOW;2006-05-18 09:18;SPECI CYOW 180918Z 17002KT 1SM BR OVC002 13/ RMK FG2ST6=
CYOW;2006-05-18 10:00;METAR CYOW 181000Z 20002KT 3/4SM BR VV001 12/12 A2937 RMK FG8 SLP947=
CYOW;2006-05-18 10:12;SPECI CYOW 181012Z 20002KT 2SM -RA BR OVC003 13/ RMK ST8 RA FINE=
CYOW;2006-05-18 11:00;METAR CYOW 181100Z 13002KT 3SM -DZ BR OVC003 13/13 A2938 RMK ST8 SLP949=
CYOW;2006-05-18 12:00;METAR CYOW 181200Z 09003KT 6SM BR OVC005 13/13 A2939 RMK ST8 SLP954=
CYOW;2006-05-18 13:38;SPECI CYOW 181338Z 10004KT 1SM BR OVC004 13/ RMK FG3ST5 CIG VRBL 3-5=
CYOW;2006-05-18 14:00;METAR CYOW 181400Z 09007KT 3/4SM BR OVC004 12/12 A2940 RMK FG3ST5 CIG=
CYOW;2006-05-18 15:00;METAR CYOW 181500Z 09008KT 3SM BR OVC006 13/12 A2941 RMK ST8 CIG VRBL 4-8 SLP960=
CYOW;2006-05-18 16:51;SPECI CYOW 181651Z 07008KT 12SM SCT010 SCT035 BKN062 15/ RMK SF3CU1SC2=
CYOW;2006-05-18 22:13;SPECI CYOW 182213Z 11010KT 12SM TS OVC014 14/ RMK SC8 CB EMBD LTGIC TSTM SOUTH=
CYOW;2006-05-18 22:40;SPECI CYOW 182240Z 13006KT 15SM -TSRA OVC016 14/ RMK SC8 CB EMBD=
CYOW;2006-05-19 00:26;SPECI CYOW 190026Z 07013G18KT 5SM -TSRA BR FEW006 OVC090 13/ RERA RMK CF1AC7 CB EMBD=
CYOW;2006-05-19 00:43;SPECI CYOW 190043Z 07008G16KT 5SM -RA BR FEW007 SCT060 OVC090 13/ RETSRA RMK CF1SC2AC5=
CYOW;2006-05-19 01:10;SPECI CYOW 190110Z 11008KT 10SM FEW007 FEW030 BKN080 OVC110 13/ RMK CF1SC1AC5AC2=
CYOW;2006-05-19 02:13;SPECI CYOW 190213Z 12006KT 6SM -RA BR SCT008 OVC045 13/ RMK CF3SC5 RA VRY LGT=
CYOW;2006-05-19 02:26;SPECI CYOW 190226Z 09006KT 5SM -RA BR OVC011 13/ RMK SC8=
CYOW;2006-05-19 02:44;SPECI CYOW 190244Z 08006KT 8SM SCT006 OVC011 13/ RMK CF3SC5=
CYOW;2006-05-19 03:22;SPECI CYOW 190322Z 10005KT 8SM -RA BKN005 OVC013 13/ RMK CF6SC2 RA VRY LGT=
CYOW;2006-05-19 04:18;SPECI CYOW 190418Z 11004KT 8SM -RA OVC008 13/ RMK CF8=
CYOW;2006-05-19 04:26;SPECI CYOW 190426Z 11006KT 8SM -RA OVC004 13/ RMK SF8=
CYOW;2006-05-19 06:38;SPECI CYOW 190638Z 18005KT 8SM SCT005 OVC013 12/ RMK CF3SC5=
CYOW;2006-05-19 12:08;SPECI CYOW 191208Z 20004KT 15SM BKN013 OVC050 12/ RMK SC7SC1=
CYOW;2006-05-19 19:00;METAR CYOW 191900Z 29005KT 15SM SCT030 BKN057 OVC093 15/09 A2949 RMK CU3SC2AC2 SLP988=
CYOW;2006-05-19 20:00;METAR CYOW 192000Z 30005KT 15SM FEW030 SCT090 OVC250 15/08 A2946 RMK CU2AC2CS2 SLP979=
CYOW;2006-05-19 21:00;METAR CYOW 192100Z 31006KT 15SM FEW030 BKN090 OVC250 15/08 A2946 RMK CU2AC3CS3 SLP979=
CYOW;2006-05-19 22:00;METAR CYOW 192200Z 27004KT 15SM FEW030 SCT060 OVC090 14/09 A2945 RMK CU1SC2AS5 SLP973=
CYOW;2006-05-19 23:00;METAR CYOW 192300Z 29005KT 15SM BKN080 BKN150 BKN230 14/09 A2943 RMK AC5AS2CI0 SLP968=
CYOW;2006-05-20 00:00;METAR CYOW 200000Z 03005KT 12SM FEW030 BKN070 BKN230 13/11 A2943 RMK CU2AC5CI0 SLP968=
CYOW;2006-05-20 00:27;SPECI CYOW 200027Z 36003KT 12SM -RA FEW030 OVC070 13/ RMK CU2AC6=
CYOW;2006-05-20 01:00;METAR CYOW 200100Z 34006KT 10SM -RA OVC060 13/11 A2942 RMK SC8 SLP964=
CYOW;2006-05-20 02:00;METAR CYOW 200200Z 29006KT 10SM -RA OVC062 12/10 A2941 RMK SC8 SLP960=
CYOW;2006-05-20 04:00;METAR CYOW 200400Z 27007KT 10SM -RA FEW006 BKN019 OVC033 12/11 A2939 RMK SF1SC5SC2 SLP954=
CYOW;2006-05-20 07:00;METAR CYOW 200700Z 27012KT 10SM -RA FEW012 BKN022 OVC069 10/09 A2936 RMK SC2SC3AC2 SLP943=
CYOW;2006-05-20 08:00;METAR CYOW 200800Z 27013G19KT 10SM -RA BKN016 OVC060 10/09 A2935 RMK SC6SC2 SLP941=
CYOW;2006-05-20 09:00;METAR CYOW 200900Z 27011G17KT 10SM -RA SCT012 OVC017 10/09 A2936 RMK SC3SC5 SLP944=
CYOW;2006-05-20 09:10;SPECI CYOW 200910Z 27011KT 10SM -RA FEW007 BKN012 OVC020 09/ RMK SC2SC5SC1=
CYOW;2006-05-20 10:00;METAR CYOW 201000Z 27013G19KT 10SM -RA SCT008 OVC012 09/08 A2936 RMK SF3SC5 SLP946=
CYOW;2006-05-20 11:00;METAR CYOW 201100Z 27013G18KT 8SM -RA SCT009 BKN012 OVC018 08/07 A2939 RMK SF3SC3SC2 SLP953=
CYOW;2006-05-20 12:00;METAR CYOW 201200Z 27014KT 6SM -RA BR SCT008 OVC012 08/07 A2940 RMK SF4NS4 SLP959=
CYOW;2006-05-20 13:00;METAR CYOW 201300Z 27011KT 10SM -RA SCT008 OVC012 08/07 A2942 RMK SF3NS5 SLP963=
CYOW;2006-05-20 13:44;SPECI CYOW 201344Z 27010G16KT 6SM -RA BR OVC007 08/ RMK NS8=
CYOW;2006-05-20 14:00;METAR CYOW 201400Z 27013KT 5SM -RA BR BKN007 OVC013 08/07 A2942 RMK SF6NS2 SLP966=
CYOW;2006-05-20 15:00;METAR CYOW 201500Z 27013KT 4SM -RA BR OVC008 08/07 A2945 RMK SF8 SLP974=
CYOW;2006-05-20 16:00;METAR CYOW 201600Z 28013G19KT 10SM -RA OVC013 08/07 A2945 RMK NS8 SLP977=
CYOW;2006-05-20 17:00;METAR CYOW 201700Z 28012G17KT 10SM -RA OVC017 08/07 A2946 RMK NS8 SLP980=
CYOW;2006-05-20 18:00;METAR CYOW 201800Z 28013G20KT 10SM -RA SCT010 OVC017 09/07 A2948 RMK SF3NS5 SLP986=
CYOW;2006-05-20 19:00;METAR CYOW 201900Z 28020KT 10SM -RA OVC017 09/07 A2949 RMK NS8 SLP990=
CYOW;2006-05-20 20:00;METAR CYOW 202000Z 29014G21KT 12SM -RA BKN017 OVC050 09/07 A2951 RMK SF6NS2 SLP995=
CYOW;2006-05-20 21:00;METAR CYOW 202100Z 29015G27KT 15SM -RA BKN018 OVC050 09/07 A2952 RMK SC6SC2 RA VRY LGT SLP999=
CYOW;2006-05-20 22:00;METAR CYOW 202200Z 29011G20KT 15SM BKN018 OVC250 09/07 A2954 RMK SC7CI0 SLP005=
CYOW;2006-05-20 23:00;METAR CYOW 202300Z 29011G16KT 15SM BKN017 OVC025 09/06 A2956 RMK SC6SC2 SLP013=
CYOW;2006-05-21 00:00;METAR CYOW 210000Z 28017KT 15SM BKN018 OVC081 09/06 A2957 RMK SC6AC2 SLP017=
CYOW;2006-05-21 01:37;SPECI CYOW 210137Z 27009G17KT 15SM -RA BKN025 OVC058 08/ RMK SC6SC2=
CYOW;2006-05-21 02:00;METAR CYOW 210200Z 27010KT 15SM -RA BKN021 OVC060 08/06 A2960 RMK SC6SC2 SLP025=
CYOW;2006-05-21 03:00;METAR CYOW 210300Z 27009KT 15SM -RA FEW012 SCT020 OVC056 08/06 A2960 RMK SC1SC2SC5 SLP027=
CYOW;2006-05-21 03:33;SPECI CYOW 210333Z 27009KT 15SM FEW006 BKN046 OVC061 08/ RMK SF1SC5SC2 SF TR=
CYOW;2006-05-21 04:00;METAR CYOW 210400Z 27008KT 15SM FEW008 OVC054 08/06 A2960 RMK SF1SC7 SF TR SLP026=
CYOW;2006-05-21 05:00;METAR CYOW 210500Z 24003KT 15SM BKN031 BKN120 08/06 A2959 RMK SC5AC2 SLP023=
CYOW;2006-05-21 06:00;METAR CYOW 210600Z 19004KT 15SM FEW030 SCT100 08/06 A2958 RMK SC1AC2 SLP021=
CYOW;2006-05-21 07:00;METAR CYOW 210700Z 21005KT 15SM FEW100 07/05 A2957 RMK AC1 SLP017=
CYOW;2006-05-21 08:00;METAR CYOW 210800Z 15003KT 12SM FEW100 SCT230 05/04 A2953 RMK AC1CI2 SLP004=
CYOW;2006-05-21 09:00;METAR CYOW 210900Z 17004KT 12SM BKN079 BKN230 06/05 A2951 RMK AC6CI0 SLP997=
CYOW;2006-05-21 09:51;SPECI CYOW 210951Z 17004KT 10SM -RA BKN058 BKN075 BKN230 07/ RMK SC5AC2CI0=
CYOW;2006-05-21 10:00;METAR CYOW 211000Z 16004KT 10SM -RA BKN062 BKN080 BKN240 07/05 A2949 RMK SC6AC1CI0 SLP990=
CYOW;2006-05-21 11:00;METAR CYOW 211100Z 16006KT 12SM FEW040 OVC051 07/06 A2948 RMK SC1SC7 SHRA DIST N-E SLP985=
CYOW;2006-05-21 11:45;SPECI CYOW 211145Z 19005KT 5SM -RA BR SCT010 OVC035 08/ RMK SC3NS5=
CYOW;2006-05-21 12:00;METAR CYOW 211200Z 20005KT 5SM -RA BR BKN010 OVC030 08/07 A2947 RMK SC6NS2 SLP981=
CYOW;2006-05-21 12:27;SPECI CYOW 211227Z 19006KT 4SM RA BR OVC008 08/ RMK NS8=
CYOW;2006-05-21 13:00;METAR CYOW 211300Z 20008KT 3SM RA BR OVC008 08/07 A2945 RMK NS8 SLP977=
CYOW;2006-05-21 13:47;SPECI CYOW 211347Z 22007KT 10SM BKN005 OVC033 09/ RERA RMK SF6SC2=
CYOW;2006-05-21 14:00;METAR CYOW 211400Z 22004KT 10SM BKN007 OVC035 09/08 A2944 RERA RMK SF6SC2 SLP973=
CYOW;2006-05-21 14:54;SPECI CYOW 211454Z 27013KT 15SM -SHRA BKN010TCU 10/ RMK TCU6=
CYOW;2006-05-21 15:00;METAR CYOW 211500Z 21014KT 15SM BKN015 10/08 A2944 RMK CU6 TCU E SLP972=
CYOW;2006-05-21 16:00;METAR CYOW 211600Z 30013KT 20SM BKN030 11/07 A2945 RMK CU6 FROPA PST HR SLP977=
CYOW;2006-05-21 17:57;SPECI CYOW 211757Z 23015KT 20SM -SHRA BKN047TCU 10/ RMK TCU6=
CYOW;2006-05-21 18:00;METAR CYOW 211800Z 22014KT 20SM -SHRA BKN050TCU 11/05 A2948 RMK TCU6 SLP984=
CYOW;2006-05-21 18:28;SPECI CYOW 211828Z 25008KT 20SM VCSH BKN040 10/ RMK CU7=
CYOW;2006-05-21 19:00;METAR CYOW 211900Z 26008KT 20SM VCSH BKN050 BKN090 11/02 A2948 RMK CU6AC2 SLP985=
CYOW;2006-05-21 20:00;METAR CYOW 212000Z 25012KT 20SM SCT050 BKN080 11/02 A2949 RMK CU4AC2 SLP988=
CYOW;2006-05-21 21:00;METAR CYOW 212100Z 28009G16KT 20SM SCT050 BKN083 11/03 A2951 RMK CU3AC4 SLP996=
CYOW;2006-05-21 22:00;METAR CYOW 212200Z 30010G16KT 15SM VCSH FEW030 BKN052 BKN085 11/02 A2953 RMK CU1SC5AC1 SHRA W AND NNE TCU EMBD SLP003=
CYOW;2006-05-21 22:37;SPECI CYOW 212237Z 29017KT 15SM -SHRA FEW030 BKN052 BKN080 09/ RMK CU1SC6AC1 CVCTV CLD EMBD=
CYOW;2006-05-21 23:00;METAR CYOW 212300Z 34009KT 15SM FEW025 SCT045 BKN077 09/04 A2956 RMK CU1SC3AC3 SHRA DIST SE SLP014=
CYOW;2006-05-22 00:00;METAR CYOW 220000Z 30015G20KT 20SM FEW025 SCT040 BKN071 08/04 A2961 RMK SC2SC2AC3 SLP029=
CYOW;2006-05-22 01:00;METAR CYOW 220100Z 29016KT 15SM -RA BKN027 OVC042 07/04 A2963 RMK SC6SC2 RA VRY LGT SLP038=
CYOW;2006-05-22 01:21;SPECI CYOW 220121Z 31013G24KT 15SM SCT025 OVC047 06/ RMK SC3SC5=
CYOW;2006-05-22 02:00;METAR CYOW 220200Z 30018KT 15SM SCT020 OVC041 06/02 A2967 RMK SC4SC4 SLP051=
CYOW;2006-05-22 03:00;METAR CYOW 220300Z 30015KT 15SM BKN025 BKN039 06/03 A2968 RMK SC5SC2 SLP054=
CYOW;2006-05-22 04:00;METAR CYOW 220400Z 31011G20KT 15SM OVC023 06/01 A2971 RMK SC8 SLP062=
CYOW;2006-05-22 05:00;METAR CYOW 220500Z 31014G19KT 15SM OVC026 05/00 A2973 RMK SC7 SLP072=
CYOW;2006-05-22 06:00;METAR CYOW 220600Z 31013KT 15SM OVC027 04/M01 A2976 RMK SC8 SLP082=
CYOW;2006-05-22 08:00;METAR CYOW 220800Z 31012G19KT 15SM BKN023 BKN110 04/M00 A2979 RMK SC6AC2 SLP091=
CYOW;2006-05-22 10:00;METAR CYOW 221000Z 30011G17KT 20SM BKN024 BKN110 04/M01 A2983 RMK SC6AC2 SLP106=
CYOW;2006-05-22 12:00;METAR CYOW 221200Z 31012G18KT 20SM BKN030 BKN110 05/00 A2986 RMK SC5AC2 SLP116=
CYOW;2006-05-22 13:00;METAR CYOW 221300Z 29014KT 20SM OVC030 06/00 A2988 RMK SC8 VIRGA SLP120=
CYOW;2006-05-22 15:00;METAR CYOW 221500Z 27013KT 20SM OVC030 07/01 A2989 RMK SC8 SLP125=
CYOW;2006-05-22 16:00;METAR CYOW 221600Z 29011G17KT 20SM OVC035 08/01 A2988 RMK SC8 VIRGA SLP123=
CYOW;2006-05-22 17:00;METAR CYOW 221700Z 27015KT 15SM VCSH OVC030 08/02 A2989 RMK SC8 SLP125=
CYOW;2006-05-22 18:00;METAR CYOW 221800Z 30014G20KT 15SM BKN030 BKN050 10/02 A2988 RMK SC5SC2 SLP123=
CYOW;2006-05-22 19:00;METAR CYOW 221900Z 29016G25KT 15SM VCSH BKN037 10/02 A2988 RMK SC6 SLP121=
CYOW;2006-05-22 20:00;METAR CYOW 222000Z 29015KT 15SM BKN040 BKN062 11/02 A2988 RMK SC5SC2 VIRGA SLP122=
CYOW;2006-05-22 21:00;METAR CYOW 222100Z 29012G17KT 15SM VCSH BKN048 BKN063 11/02 A2988 RMK SC5SC2 SLP123=
CYOW;2006-05-22 23:00;METAR CYOW 222300Z 35013KT 15SM -SHRA FEW020 BKN041 OVC080 08/03 A2992 RMK CF1SC6AC2 SHRA VRY LGT CUFRA TR SLP136=
CYOW;2006-05-22 23:30;SPECI CYOW 222330Z 31012KT 20SM FEW020 SCT040 OVC069 08/ RMK CF1SC4AC3 CUFRA TR=
CYOW;2006-05-23 00:00;METAR CYOW 230000Z 32009G19KT 20SM FEW035 BKN074 BKN250 08/02 A2993 RMK SC2AC3CS1 VIRGA N SLP140=
CYOW;2006-05-23 01:00;METAR CYOW 230100Z 30011KT 20SM BKN052 BKN080 OVC250 08/02 A2994 RMK SC6AC1CS0 SLP142=
CYOW;2006-05-23 02:00;METAR CYOW 230200Z 30006KT 15SM OVC041 08/02 A2995 RMK SC8 SLP146=
CYOW;2006-05-23 03:00;METAR CYOW 230300Z 31012KT 15SM BKN037 OVC081 08/02 A2994 RMK SC6AC2 SLP143=
CYOW;2006-05-23 04:00;METAR CYOW 230400Z 30010G16KT 15SM FEW037 BKN082 07/02 A2994 RMK SC2AC2 SLP143=
CYOW;2006-05-23 05:00;METAR CYOW 230500Z 28007KT 15SM OVC041 07/03 A2994 RMK SC7 SLP142=
CYOW;2006-05-23 07:00;METAR CYOW 230700Z 27006KT 15SM BKN049 OVC093 06/03 A2994 RMK SC5AC2 SLP140=
CYOW;2006-05-23 08:00;METAR CYOW 230800Z 27005KT 15SM FEW050 OVC096 07/03 A2993 RMK SC2AC6 SLP138=
CYOW;2006-05-23 09:00;METAR CYOW 230900Z 31007KT 15SM FEW040 BKN089 07/03 A2993 RMK SC2AC6 SLP139=
CYOW;2006-05-23 10:00;METAR CYOW 231000Z 31007KT 20SM SCT037 BKN089 06/02 A2994 RMK SC3AC4 SLP141=
CYOW;2006-05-23 11:00;METAR CYOW 231100Z 32011KT 15SM BKN032 OVC090 07/02 A2996 RMK SC6AC1 SLP147=
CYOW;2006-05-23 12:00;METAR CYOW 231200Z 32011KT 15SM BKN027 BKN090 08/02 A2997 RMK SC6AC1 SLP152=
CYOW;2006-05-23 13:00;METAR CYOW 231300Z 32012G19KT 15SM OVC025 08/03 A2999 RMK SC7 SLP159=
CYOW;2006-05-23 14:00;METAR CYOW 231400Z 32012KT 15SM BKN030 BKN048 10/03 A2999 RMK SC5SC1 SLP159=
CYOW;2006-05-23 15:00;METAR CYOW 231500Z 32010G16KT 15SM BKN030 10/04 A2999 RMK SC7 SLP158=
CYOW;2006-05-23 16:00;METAR CYOW 231600Z 30011G16KT 15SM OVC038 11/04 A2999 RMK SC7 SLP159=
CYOW;2006-05-23 17:00;METAR CYOW 231700Z 29009KT 15SM BKN033 12/05 A2998 RMK SC6 SLP154=
CYOW;2006-05-23 18:00;METAR CYOW 231800Z 28013KT 15SM SCT035 13/05 A2997 RMK SC4 SLP151=
CYOW;2006-05-23 19:00;METAR CYOW 231900Z 27011G16KT 15SM SCT035 15/06 A2995 RMK SC3 SLP145=
CYOW;2006-05-23 20:00;METAR CYOW 232000Z 29013KT 15SM OVC046 15/06 A2994 RMK SC7 SLP142=
CYOW;2006-05-23 21:00;METAR CYOW 232100Z 28014G19KT 15SM BKN051 16/08 A2994 RMK SC7 SLP143=
CYOW;2006-05-23 22:00;METAR CYOW 232200Z 29017KT 15SM BKN056 15/07 A2996 RMK SC7 SLP147=
CYOW;2006-05-23 23:00;METAR CYOW 232300Z 31014KT 15SM FEW040 SCT051 BKN090 15/07 A2996 RMK CU1SC4AC2 SLP150=
CYOW;2006-05-24 00:00;METAR CYOW 240000Z 32013G18KT 15SM FEW050 FEW080 BKN095 14/06 A2998 RMK CU1AC2AC4 SLP154=
CYOW;2006-05-24 01:00;METAR CYOW 240100Z 31009KT 15SM FEW060 BKN085 13/05 A2999 RMK SC2AC6 SLP157=
CYOW;2006-05-24 02:00;METAR CYOW 240200Z 32008KT 15SM BKN065 OVC092 13/05 A3000 RMK SC5AC3 SLP162=
CYOW;2006-05-24 04:00;METAR CYOW 240400Z 29004KT 15SM BKN088 11/06 A2999 RMK AC5 SLP160=
CYOW;2006-05-24 05:00;METAR CYOW 240500Z 29004KT 15SM FEW080 10/06 A2999 RMK AC1 SLP157=
CYOW;2006-05-24 06:00;METAR CYOW 240600Z 29005KT 15SM FEW070 09/05 A2998 RMK AC1 SLP155=
CYOW;2006-05-24 07:00;METAR CYOW 240700Z 27005KT 15SM FEW080 08/06 A2998 RMK AC1 SLP154=
CYOW;2006-05-24 08:00;METAR CYOW 240800Z 27003KT 15SM SKC 08/07 A2998 RMK SLP154=
CYOW;2006-05-24 09:00;METAR CYOW 240900Z 27002KT 15SM FEW040 FEW080 FEW240 07/06 A2999 RMK CF1AC1CI0 SLP157=
CYOW;2006-05-24 10:00;METAR CYOW 241000Z 00000KT 15SM MIFG FEW050 FEW080 07/06 A2999 RMK SC1AC1 SLP160=
CYOW;2006-05-24 11:00;METAR CYOW 241100Z 00000KT 15SM FEW060 08/07 A3001 RMK SC1 SLP165=
CYOW;2006-05-24 12:00;METAR CYOW 241200Z 28003KT 15SM FEW060 11/07 A3002 RMK SC1 SLP166=
CYOW;2006-05-24 13:00;METAR CYOW 241300Z 00000KT 15SM FEW100 14/07 A3001 RMK AC1 SLP164=
CYOW;2006-05-24 14:00;METAR CYOW 241400Z 25003KT 15SM FEW100 14/06 A3000 RMK AC1 SLP162=
CYOW;2006-05-24 16:00;METAR CYOW 241600Z 29005KT 15SM FEW035 FEW160 17/05 A2998 RMK CU1AC1 SLP153=
CYOW;2006-05-24 17:00;METAR CYOW 241700Z 28007KT 15SM FEW035 FEW160 19/05 A2996 RMK CU1AC1 SLP146=
CYOW;2006-05-24 18:00;METAR CYOW 241800Z 30007KT 15SM FEW040 FEW100 20/03 A2993 RMK CU1AC1 SLP137=
CYOW;2006-05-24 21:00;METAR CYOW 242100Z 30006KT 15SM FEW050 FEW100 SCT240 21/03 A2989 RMK CU1AC1CI2 CU TR SLP123=
CYOW;2006-05-24 23:00;METAR CYOW 242300Z 20002KT 15SM BKN140 BKN180 BKN240 20/04 A2987 RMK AC5AC1CI0 SLP116=
CYOW;2006-05-25 00:00;METAR CYOW 250000Z 21005KT 15SM SCT090 BKN150 18/07 A2987 RMK AC4AC1 SLP115=
CYOW;2006-05-25 01:00;METAR CYOW 250100Z 18005KT 15SM BKN100 17/07 A2985 RMK AC6 SLP111=
CYOW;2006-05-25 05:00;METAR CYOW 250500Z 19007KT 15SM SKC 12/05 A2983 RMK SLP103=
CYOW;2006-05-25 07:00;METAR CYOW 250700Z 19006KT 15SM SKC 11/06 A2982 RMK SLP100=
CYOW;2006-05-25 09:00;METAR CYOW 250900Z 19003KT 15SM BKN240 10/06 A2979 RMK CI2 SLP090=
CYOW;2006-05-25 10:00;METAR CYOW 251000Z 20006KT 15SM FEW090 BKN240 09/06 A2981 RMK AC0CC5 SLP096=
CYOW;2006-05-25 12:00;METAR CYOW 251200Z 20006KT 15SM BKN093 13/08 A2982 RMK AC7 SLP098=
CYOW;2006-05-25 13:00;METAR CYOW 251300Z 20006KT 15SM SCT095 15/09 A2981 RMK AC3 SLP095=
CYOW;2006-05-25 14:00;METAR CYOW 251400Z 20007KT 15SM SCT120 18/09 A2978 RMK AC3 SLP087=
CYOW;2006-05-25 18:00;METAR CYOW 251800Z 22011KT 15SM BKN260 24/10 A2971 RMK CI1 SLP062=
CYOW;2006-05-25 19:00;METAR CYOW 251900Z 22010G18KT 15SM FEW170 BKN270 25/09 A2970 RMK AC1CS1 AC TR SLP057=
CYOW;2006-05-25 20:00;METAR CYOW 252000Z 21010G18KT 15SM FEW170 BKN270 26/09 A2968 RMK AC1CS1 AC TR SLP051=
CYOW;2006-05-25 22:00;METAR CYOW 252200Z 19011G16KT 15SM FEW150 BKN270 25/09 A2966 RMK AC1CS1 ACSL ASOCTD SLP044=
CYOW;2006-05-25 23:00;METAR CYOW 252300Z 20010KT 15SM SCT120 SCT150 OVC270 24/10 A2965 RMK AC3AC1CI0 ACSL ASOCTD SLP040=
CYOW;2006-05-26 00:00;METAR CYOW 260000Z 20007KT 15SM SCT120 BKN150 OVC270 23/09 A2964 RMK AC4AC2CI1 ACSL ASOCTD SLP037=
CYOW;2006-05-26 04:00;METAR CYOW 260400Z 22004KT 15SM BKN140 18/11 A2967 RMK AC7 SLP047=
CYOW;2006-05-26 06:00;METAR CYOW 260600Z 18002KT 15SM OVC130 17/10 A2965 RMK AC8 SLP040=
CYOW;2006-05-26 07:00;METAR CYOW 260700Z 16004KT 15SM BKN130 OVC180 16/10 A2963 RMK AC6AC2 SLP034=
CYOW;2006-05-26 09:00;METAR CYOW 260900Z 19003KT 15SM SCT120 BKN150 16/10 A2962 RMK AC4AC3 SLP029=
CYOW;2006-05-26 10:00;METAR CYOW 261000Z 18004KT 15SM SCT120 OVC150 16/10 A2962 RMK AC3AC5 SLP031=
CYOW;2006-05-26 11:00;METAR CYOW 261100Z 18004KT 15SM SCT120 BKN260 16/11 A2962 RMK AC3CS2 SLP031=
CYOW;2006-05-26 12:00;METAR CYOW 261200Z 18003KT 12SM FEW120 SCT160 BKN260 18/12 A2962 RMK AC1AC2CS1 SLP030=
CYOW;2006-05-26 13:00;METAR CYOW 261300Z 21006KT 12SM FEW110 SCT160 BKN240 19/12 A2962 RMK AC2AC2CS2 SLP032=
CYOW;2006-05-26 14:00;METAR CYOW 261400Z 20006KT 12SM FEW120 FEW170 BKN250 20/13 A2962 RMK AC1AC1CS4 SLP029=
CYOW;2006-05-26 16:00;METAR CYOW 261600Z 19005KT 12SM BKN063 OVC250 20/14 A2960 RMK SC6CS2 SLP025=
CYOW;2006-05-26 16:52;SPECI CYOW 261652Z 20004KT 12SM -RA BKN040 OVC100 20/ RMK SC6AS2 RA VRY LGT=
CYOW;2006-05-26 17:00;METAR CYOW 261700Z 19004KT 12SM -RA BKN040 OVC100 20/15 A2959 RMK SC5AS3 RA VRY LGT SLP022=
CYOW;2006-05-26 18:00;METAR CYOW 261800Z 16004KT 10SM -RA SCT030 OVC100 19/16 A2959 RMK SC3AS5 RA VRY LGT SLP020=
CYOW;2006-05-26 20:00;METAR CYOW 262000Z 20006KT 5SM -RA HZ FEW020 OVC083 19/16 A2959 RMK SC2AS6 SLP021=
CYOW;2006-05-26 21:00;METAR CYOW 262100Z 19004KT 6SM HZ FEW030 OVC077 19/17 A2959 RMK CU2AC6 SLP020=
CYOW;2006-05-26 22:00;METAR CYOW 262200Z 21003KT 6SM HZ OVC090 19/16 A2959 RMK AC8 SLP020=
CYOW;2006-05-26 22:30;SPECI CYOW 262230Z 21002KT 6SM -RA HZ OVC100 19/ RMK AC8 RA VRY LGT=
CYOW;2006-05-26 23:00;METAR CYOW 262300Z 24003KT 6SM -RA HZ OVC100 19/17 A2960 RMK AC8 SLP023=
CYOW;2006-05-26 23:43;SPECI CYOW 262343Z 24003KT 5SM HZ OVC100 19/ RMK AC8=
CYOW;2006-05-27 00:00;METAR CYOW 270000Z 23003KT 5SM HZ OVC100 19/17 A2960 RMK AC8 SLP025=
CYOW;2006-05-27 01:00;METAR CYOW 270100Z 26004KT 5SM BR BKN100 18/17 A2961 RMK AC5 SLP026=
CYOW;2006-05-27 03:00;METAR CYOW 270300Z 26003KT 15SM OVC240 17/15 A2962 RMK CI2 SLP031=
CYOW;2006-05-27 04:00;METAR CYOW 270400Z 28004KT 15SM BKN056 OVC080 16/15 A2964 RMK SC6AC2 SLP037=
CYOW;2006-05-27 05:00;METAR CYOW 270500Z 26004KT 12SM BKN050 OVC073 17/15 A2965 RMK SC6AC2 SLP041=
CYOW;2006-05-27 05:54;SPECI CYOW 270554Z 34011KT 8SM OVC011 17/ RMK SC8=
CYOW;2006-05-27 06:21;SPECI CYOW 270621Z 35005KT 15SM OVC019 17/ RMK SC8=
CYOW;2006-05-27 07:00;METAR CYOW 270700Z 33009KT 15SM FEW011 OVC033 16/14 A2968 RMK CF1SC7 SLP051=
CYOW;2006-05-27 08:00;METAR CYOW 270800Z 32008KT 15SM FEW011 OVC036 15/12 A2971 RMK CF1SC8 SLP060=
CYOW;2006-05-27 09:00;METAR CYOW 270900Z 33011KT 15SM BKN015 OVC035 14/11 A2973 RMK SC6SC2 SLP070=
CYOW;2006-05-27 10:00;METAR CYOW 271000Z 34009G16KT 15SM OVC016 14/11 A2976 RMK SC8 SLP079=
CYOW;2006-05-27 11:00;METAR CYOW 271100Z 01011G17KT 15SM OVC017 14/11 A2979 RMK SC8 SLP090=
CYOW;2006-05-27 12:00;METAR CYOW 271200Z 34009KT 15SM OVC018 14/10 A2983 RMK SC8 SLP103=
CYOW;2006-05-27 15:00;METAR CYOW 271500Z 35005KT 20SM SCT023 16/11 A2989 RMK SC4 SLP123=
CYOW;2006-05-27 16:00;METAR CYOW 271600Z 29004KT 20SM SCT030 18/12 A2989 RMK SC3 SLP123=
CYOW;2006-05-27 18:00;METAR CYOW 271800Z 33005KT 20SM FEW040 BKN240 22/11 A2991 RMK SC2CI0 SLP127=
CYOW;2006-05-27 20:00;METAR CYOW 272000Z 32009KT 20SM FEW050 FEW240 23/08 A2992 RMK CU1CI0 SLP132=
CYOW;2006-05-27 21:00;METAR CYOW 272100Z 33009KT 20SM FEW060 FEW240 23/07 A2992 RMK CU1CI0 CU TR SLP132=
CYOW;2006-05-27 23:00;METAR CYOW 272300Z 32006KT 20SM FEW270 23/08 A2995 RMK CI1 SLP142=
CYOW;2006-05-28 00:00;METAR CYOW 280000Z 25004KT 20SM FEW270 22/09 A2995 RMK CI0 SLP142=
CYOW;2006-05-28 01:00;METAR CYOW 280100Z 28005KT 20SM FEW270 20/08 A2997 RMK CI0 SLP150=
CYOW;2006-05-28 02:00;METAR CYOW 280200Z 27002KT 15SM SCT270 19/08 A2999 RMK CI1 SLP158=
CYOW;2006-05-28 05:00;METAR CYOW 280500Z 23003KT 15SM SKC 16/08 A3004 RMK SLP174=
CYOW;2006-05-28 06:00;METAR CYOW 280600Z 25002KT 15SM SKC 14/08 A3006 RMK SLP180=
CYOW;2006-05-28 08:00;METAR CYOW 280800Z 19002KT 15SM SKC 12/09 A3006 RMK SLP181=
CYOW;2006-05-28 09:00;METAR CYOW 280900Z 00000KT 20SM FEW250 10/09 A3008 RMK CI0 SLP188=
CYOW;2006-05-28 12:00;METAR CYOW 281200Z 18002KT 15SM FEW270 15/12 A3014 RMK CI0 SLP208=
CYOW;2006-05-28 13:00;METAR CYOW 281300Z 21003KT 15SM SCT270 19/12 A3015 RMK CI1 SLP210=
CYOW;2006-05-28 15:00;METAR CYOW 281500Z 24003KT 15SM FEW240 BKN270 23/14 A3014 RMK CI1CI1 SLP207=
CYOW;2006-05-28 16:00;METAR CYOW 281600Z 21005KT 15SM SCT240 BKN270 25/11 A3014 RMK CI3CI0 SLP207=
CYOW;2006-05-28 17:00;METAR CYOW 281700Z 23007KT 15SM SCT210 BKN270 25/11 A3013 RMK CI4CI0 SLP204=
CYOW;2006-05-28 21:00;METAR CYOW 282100Z 22007KT 15SM BKN180 24/14 A3006 RMK AS7 SLP180=
CYOW;2006-05-28 22:00;METAR CYOW 282200Z 20008KT 15SM BKN140 BKN180 OVC250 23/14 A3005 RMK AS5AC2CS1 SLP176=
CYOW;2006-05-29 00:00;METAR CYOW 290000Z 23004KT 20SM BKN130 OVC170 22/15 A3007 RMK AS5AC3 SLP183=
CYOW;2006-05-29 02:28;SPECI CYOW 290228Z 21004KT 15SM BKN097 OVC140 20/ RMK AC6AC2=
CYOW;2006-05-29 02:41;SPECI CYOW 290241Z 21004KT 15SM -RA OVC100 20/ RMK AC8 RA VRY LGT=
CYOW;2006-05-29 03:32;SPECI CYOW 290332Z 24002KT 15SM BKN071 OVC120 20/ RMK AC6AC2=
CYOW;2006-05-29 04:46;SPECI CYOW 290446Z 22006KT 10SM -RA OVC072 19/ RMK AS8=
CYOW;2006-05-29 05:00;METAR CYOW 290500Z 21004KT 12SM -RA OVC059 18/14 A3006 RMK SC8 SLP181=
CYOW;2006-05-29 06:00;METAR CYOW 290600Z 23005KT 6SM RA BR OVC031 16/15 A3007 RMK SC8 SLP182=
CYOW;2006-05-29 06:33;SPECI CYOW 290633Z 20003KT 6SM -RA BR SCT005 OVC041 16/ RERA RMK SF3SC5=
CYOW;2006-05-29 07:00;METAR CYOW 290700Z 00000KT 6SM BR FEW003 OVC037 16/15 A3005 RERA RMK SF1SC7 SLP177=
CYOW;2006-05-29 07:27;SPECI CYOW 290727Z 22002KT 5SM -RA BR FEW003 OVC037 16/ RMK SF2SC6=
CYOW;2006-05-29 09:00;METAR CYOW 290900Z 19003KT 5SM BR BKN045 OVC100 16/16 A3005 RMK SC6AC2 SLP176=
CYOW;2006-05-29 10:00;METAR CYOW 291000Z 20004KT 12SM BKN071 17/15 A3005 RMK AC7 SLP177=
CYOW;2006-05-29 11:00;METAR CYOW 291100Z 21002KT 12SM BKN062 17/15 A3006 RMK SC6 SLP179=
CYOW;2006-05-29 12:00;METAR CYOW 291200Z 23002KT 6SM HZ SCT033 18/16 A3007 RMK SC4 SLP182=
CYOW;2006-05-29 13:00;METAR CYOW 291300Z 29004KT 6SM HZ FEW040 FEW280 19/16 A3007 RMK SC2CI0 SLP183=
CYOW;2006-05-29 14:00;METAR CYOW 291400Z 32004KT 10SM SCT280 21/17 A3007 RMK CI1 SLP183=
CYOW;2006-05-29 17:00;METAR CYOW 291700Z 00000KT 10SM BKN028 BKN280 25/19 A3006 RMK CU5CI0 SLP181=
CYOW;2006-05-29 19:00;METAR CYOW 291900Z 29009KT 12SM SCT030 BKN280 27/19 A3004 RMK CU3CI0 SLP174=
CYOW;2006-05-29 20:00;METAR CYOW 292000Z 29003KT 12SM FEW032 SCT280 27/19 A3004 RMK CU2CI0 SLP173=
CYOW;2006-05-29 22:00;METAR CYOW 292200Z 23002KT 12SM FEW030 FEW270 28/18 A3002 RMK CU1CI0 CU TR SLP166=
CYOW;2006-05-30 00:00;METAR CYOW 300000Z 23002KT 12SM FEW180 FEW270 27/17 A3003 RMK AC1CI0 AC TR RE-TRANSMISSION SLP168=
CYOW;2006-05-30 01:00;METAR CYOW 300100Z 00000KT 12SM FEW250 25/17 A3003 RMK CI1 SLP168=
CYOW;2006-05-30 03:17;SPECI CYOW 300317Z 00000KT 12SM -TSRA BKN062CB 23/ RMK CB6 LTGICCG TSTM W MOVG E=
CYOW;2006-05-30 03:40;SPECI CYOW 300340Z 23003KT 12SM TS BKN060 BKN150 23/ RMK SC5AC2 CB EMBD LTGICCG TSTM SE=
CYOW;2006-05-30 04:00;METAR CYOW 300400Z 28003KT 12SM FEW060 BKN085 BKN180 22/18 A3006 RETS RMK SC2AC3AC1 SLP179=
CYOW;2006-05-30 04:08;SPECI CYOW 300408Z 29007KT 10SM -SHRA BKN050 BKN100 22/ RMK SC5AC2=
CYOW;2006-05-30 04:36;SPECI CYOW 300436Z 31004KT 12SM FEW060 BKN110 22/ RMK SC2AC5=
CYOW;2006-05-30 05:00;METAR CYOW 300500Z 20002KT 10SM FEW060 OVC110 22/19 A3005 RMK SC2AC5 SLP177=
CYOW;2006-05-30 06:00;METAR CYOW 300600Z 32006KT 10SM OVC140 20/19 A3005 RMK AC7 SLP177=
CYOW;2006-05-30 08:00;METAR CYOW 300800Z 24003KT 10SM BKN084 OVC160 21/19 A3007 RMK AC6AC2 SLP181=
CYOW;2006-05-30 10:00;METAR CYOW 301000Z 10003KT 5SM BR FEW030 SCT070 SCT210 BKN250 18/18 A3007 RMK SC2AC2CC1CI0 TCU ASOCTD SLP182=
CYOW;2006-05-30 12:00;METAR CYOW 301200Z 09008KT 10SM FEW045 BKN170 BKN240 20/18 A3009 RMK SC2AC2CI0 SLP189=
CYOW;2006-05-30 13:00;METAR CYOW 301300Z 03003KT 15SM FEW040 FEW150 BKN240 22/19 A3011 RMK SC1AC2CI0 SLP197=
CYOW;2006-05-30 14:00;METAR CYOW 301400Z 10003KT 15SM FEW150 BKN240 24/20 A3010 RMK AC2CI1 SLP191=
CYOW;2006-05-30 15:00;METAR CYOW 301500Z 08005KT 15SM FEW150 BKN240 25/19 A3009 RMK AC2CI2 SLP189=
CYOW;2006-05-30 17:00;METAR CYOW 301700Z 08002KT 15SM FEW150 SCT220 BKN250 27/20 A3009 RMK AC1CI1CI1 SLP188=
CYOW;2006-05-30 18:00;METAR CYOW 301800Z 15004KT 15SM FEW035 FEW140 SCT240 28/21 A3007 RMK CU1AC1CI1 CU TR SLP182=
CYOW;2006-05-30 19:00;METAR CYOW 301900Z 00000KT 15SM FEW040 FEW240 29/20 A3006 RMK CU1CI1 CU TR SLP178=
CYOW;2006-05-30 20:00;METAR CYOW 302000Z 26002KT 15SM FEW040 FEW240 30/20 A3004 RMK CU1CI1 CU TR SLP172=
CYOW;2006-05-30 21:00;METAR CYOW 302100Z 13005KT 15SM FEW040 FEW240 30/20 A3003 RMK CU1CI0 CU TR SLP168=
CYOW;2006-05-30 22:00;METAR CYOW 302200Z 12008KT 15SM FEW170 FEW240 30/20 A3002 RMK AC1CI0 AC TR SLP166=
CYOW;2006-05-30 23:00;METAR CYOW 302300Z 12006KT 15SM FEW040 FEW250 SCT270 27/20 A3002 RMK CU1CI1CI0 SLP166=
CYOW;2006-05-31 01:00;METAR CYOW 310100Z 12006KT 15SM FEW050 FEW180 FEW220 BKN270 24/19 A3003 RMK SC1AC1CI2CI0 CU ASOCT AC TR SLP170=
CYOW;2006-05-31 01:10;SPECI CYOW 310110Z 13005KT 15SM TS BKN100 24/ RMK AC5 LTGCG NW CB ASOCTD=
CYOW;2006-05-31 02:00;METAR CYOW 310200Z 17004KT 12SM TS SCT033 OVC220 24/19 A3007 RMK SC4CI4 LTGCC CB ASOCTD SLP181=
CYOW;2006-05-31 03:00;METAR CYOW 310300Z 14007KT 15SM FEW090 BKN180 23/19 A3005 RMK AC2AC6 LTGCC SE CB ASOCTD SLP175=
CYOW;2006-05-31 04:00;METAR CYOW 310400Z 02005KT 15SM TS FEW100 SCT220 23/19 A3004 RMK AC1CI2 CB ASOCTD SLP171=
CYOW;2006-05-31 06:00;METAR CYOW 310600Z 07006KT 12SM FEW150 20/17 A3006 RMK AC1 SLP179=
CYOW;2006-05-31 07:00;METAR CYOW 310700Z 09005KT 12SM FEW080 18/16 A3005 RMK AC1 SLP177=
CYOW;2006-05-31 09:00;METAR CYOW 310900Z 09003KT 6SM BR FEW040 17/16 A3005 RMK CU1 SLP177=
CYOW;2006-05-31 10:00;METAR CYOW 311000Z 10002KT 6SM BR FEW040 FEW240 17/16 A3006 RMK CU1CI1 SLP180=
CYOW;2006-05-31 11:00;METAR CYOW 311100Z 13003KT 6SM BR FEW060 SCT240 19/18 A3007 RMK SC2CI0 SLP181=
CYOW;2006-05-31 12:00;METAR CYOW 311200Z 20005KT 10SM FEW050 SCT150 21/18 A3006 RMK CU1AC2 CU TR SLP180=
CYOW;2006-05-31 15:00;METAR CYOW 311500Z 17004KT 10SM SCT150 27/21 A3003 RMK AC3 HAZY SLP169=
CYOW;2006-05-31 18:00;METAR CYOW 311800Z 24010G15KT 10SM FEW050 BKN120 29/21 A3001 RMK CU1AC6=
CYOW;2006-05-31 21:00;METAR CYOW 312100Z 22010KT 12SM FEW030 FEW035TCU FEW100 BKN250 29/21 A2997 RMK CU1TCU1AC1CI2 CU TR SLP149=
CYOW;2006-05-31 21:34;SPECI CYOW 312134Z 23010G15KT 10SM -SHRA SCT032TCU BKN120 BKN250 28/ RMK TCU3AC2CI1=
CYOW;2006-05-31 21:41;SPECI CYOW 312141Z 23011KT 10SM TS SCT032CB BKN120 BKN250 28/ RMK CB3AC2CI1 LTGIC TS N MOVG E=
CYOW;2006-05-31 21:57;SPECI CYOW 312157Z 25011KT 10SM FEW030TCU SCT035 BKN110 BKN250 28/ RETS RMK TCU2SC2AC2CI0=
CYOW;2006-05-31 22:00;METAR CYOW 312200Z 26011KT 10SM FEW030TCU FEW035 BKN110 BKN250 28/18 A2996 RETS RMK TCU2SC1AC3CI0 SLP144=
CYOW;2006-05-31 23:00;METAR CYOW 312300Z 27005KT 15SM FEW053 FEW140 BKN250 27/20 A2995 RMK SC2AC1CI2 TCU CB ASOCTD SLP143=
CYOW;2006-05-31 23:13;SPECI CYOW 312313Z 28005KT 15SM -SHRA BKN060 BKN140 OVC250 27/ RMK SC5AC2CI0 TCU CB ASOCTD=
CYOW;2006-05-31 23:18;SPECI CYOW 312318Z 30009KT 15SM -TSRA BKN045 BKN140 OVC250 26/ RMK SC5AC2CI0 CB EMBD MOVG W-E=
CYOW;2006-06-01 00:41;SPECI CYOW 010041Z 21003KT 15SM FEW050 BKN120 23/ RETS RMK SC2AC5=
CYOW;2006-06-01 01:00;METAR CYOW 010100Z 00000KT 15SM FEW050 BKN130 22/20 A2999 RETS RMK SC1AC6 SLP154=
CYOW;2006-06-01 03:00;METAR CYOW 010300Z 24003KT 15SM OVC085 22/21 A3000 RMK AC8 SLP158=
CYOW;2006-06-01 05:31;SPECI CYOW 010531Z 33007KT 12SM -RA OVC020 22/ RMK SC8=
CYOW;2006-06-01 06:00;METAR CYOW 010600Z 33008KT 5SM RA BR OVC018 20/19 A3000 RMK SC8 SLP160=
CYOW;2006-06-01 07:00;METAR CYOW 010700Z 27002KT 5SM BR FEW025 OVC084 20/19 A3000 RERA RMK CF1AC7 SLP159=
CYOW;2006-06-01 07:22;SPECI CYOW 010722Z 31003KT 8SM -RA OVC087 20/ RMK AC8=
CYOW;2006-06-01 07:52;SPECI CYOW 010752Z 30004KT 5SM BR FEW030 OVC080 20/ RMK CF2AC6=
CYOW;2006-06-01 08:16;SPECI CYOW 010816Z 30004KT 5SM -RA BR FEW008 OVC040 20/ RMK CF1SC7 RA VRY LGT=
CYOW;2006-06-01 09:00;METAR CYOW 010900Z 30006KT 4SM -RA BR FEW004 OVC047 20/19 A2999 RMK SF1SC7 SLP157=
CYOW;2006-06-01 10:00;METAR CYOW 011000Z 30005KT 4SM -RA BR FEW008 OVC064 19/19 A3000 RERA RMK CF1SC7 SLP159=
CYOW;2006-06-01 12:00;METAR CYOW 011200Z 01007KT 10SM -RA OVC063 19/17 A3002 RMK SC8 SLP165=
CYOW;2006-06-01 13:00;METAR CYOW 011300Z 04007KT 12SM -RA OVC068 19/17 A3002 RMK AC8 SLP165=
CYOW;2006-06-01 14:00;METAR CYOW 011400Z 12005KT 15SM -RA SCT015 OVC070 19/17 A3002 RMK SC3AC5 VRY LGT RA SLP167=
CYOW;2006-06-01 14:39;SPECI CYOW 011439Z 05005KT 15SM FEW015 OVC070 19/ RMK SC2AC6=
CYOW;2006-06-01 15:00;METAR CYOW 011500Z 04008KT 15SM FEW015 OVC075 19/16 A3002 RMK SC2AC6 SLP168=
CYOW;2006-06-01 16:00;METAR CYOW 011600Z 05007KT 15SM FEW020 OVC075 20/15 A3003 RMK SC2AC6 SLP169=
CYOW;2006-06-01 17:00;METAR CYOW 011700Z 10005KT 15SM SCT075 BKN110 21/15 A3003 RMK AC3AC2 SLP169=
CYOW;2006-06-01 18:00;METAR CYOW 011800Z 14004KT 15SM SCT030 BKN120 21/16 A3001 RMK CU3AC2 SLP162=
CYOW;2006-06-01 20:00;METAR CYOW 012000Z 18002KT 20SM FEW033 BKN100 BKN150 22/16 A2998 RMK CU1AC4AC2 SLP153=
CYOW;2006-06-01 22:00;METAR CYOW 012200Z 22003KT 20SM FEW030 FEW150 SCT250 22/15 A2995 RMK CU1AC2CI2 CC ASOCTD SLP142=
CYOW;2006-06-02 00:00;METAR CYOW 020000Z 17002KT 20SM FEW050 FEW160 FEW210 SCT250 22/15 A2994 RMK CF1AC1CC2CI0 CUFRA TR SLP140=
CYOW;2006-06-02 01:00;METAR CYOW 020100Z 14002KT 20SM BKN240 19/15 A2995 RMK CC0 SLP141=
CYOW;2006-06-02 02:00;METAR CYOW 020200Z 23002KT 15SM FEW210 20/15 A2996 RMK CI1 SLP146=
CYOW;2006-06-02 03:00;METAR CYOW 020300Z 16004KT 15SM FEW210 17/15 A2997 RMK CI0 SLP149=
CYOW;2006-06-02 04:00;METAR CYOW 020400Z 20004KT 15SM SKC 17/15 A2996 RMK SLP146=
CYOW;2006-06-02 05:00;METAR CYOW 020500Z 27002KT 15SM SKC 15/14 A2995 RMK SLP144=
CYOW;2006-06-02 06:00;METAR CYOW 020600Z 28003KT 15SM SKC 15/15 A2994 RMK SLP141=
CYOW;2006-06-02 10:00;METAR CYOW 021000Z 33005KT 15SM BKN230 OVC250 12/10 A2995 RMK CC5CI1 SLP144=
CYOW;2006-06-02 12:00;METAR CYOW 021200Z 01005KT 15SM FEW150 SCT200 BKN250 17/11 A2997 RMK AC2CC2CI1 SLP151=
CYOW;2006-06-02 13:00;METAR CYOW 021300Z 07003KT 15SM FEW150 BKN200 BKN230 19/12 A2997 RMK AC2CC2CI2 SLP151=
CYOW;2006-06-02 15:00;METAR CYOW 021500Z 10004KT 15SM FEW150 FEW180 SCT210 BKN250 22/12 A2996 RMK AC2AC1CC2CI1 SLP145=
CYOW;2006-06-02 16:00;METAR CYOW 021600Z 11003KT 15SM FEW045 FEW150 FEW180 BKN210 BKN250 23/12 A2996 RMK CU1AC2AC1CC2CI1 SLP144=
CYOW;2006-06-02 18:00;METAR CYOW 021800Z 09005KT 15SM FEW050 FEW150 BKN190 BKN210 BKN250 25/11 A2993 RMK CU1AC2AC3CC1CI0 SLP136=
CYOW;2006-06-02 20:00;METAR CYOW 022000Z 21003KT 15SM FEW050 BKN130 OVC190 24/11 A2991 RMK CU2AC4AS2 SLP130=
CYOW;2006-06-02 22:00;METAR CYOW 022200Z 00000KT 15SM BKN060 OVC180 23/14 A2991 RMK SC6AS2 SH NE SLP130=
CYOW;2006-06-02 22:46;SPECI CYOW 022246Z 02013KT 15SM -SHRA BKN060TCU OVC180 20/ RMK TCU5AS3=
CYOW;2006-06-02 23:00;METAR CYOW 022300Z 02009G15KT 15SM +SHRA BKN073TCU OVC180 18/14 A2992 RMK TCU5AS3 SLP132=
CYOW;2006-06-02 23:31;SPECI CYOW 022331Z 04008KT 15SM OVC092 19/ RERA RMK AC8=
CYOW;2006-06-02 23:40;SPECI CYOW 022340Z 05005KT 15SM -SHRA OVC093 19/ RERA RMK AC8=
CYOW;2006-06-03 00:00;METAR CYOW 030000Z 05003KT 15SM VCSH BKN097 OVC180 19/13 A2991 RERA RMK AC6AS2 SLP130=
CYOW;2006-06-03 01:00;METAR CYOW 030100Z 04004KT 15SM BKN100 OVC180 18/15 A2991 RMK AC6AS2 SLP128=
CYOW;2006-06-03 03:00;METAR CYOW 030300Z 01006KT 15SM OVC110 18/15 A2989 RMK AC8 SLP123=
CYOW;2006-06-03 07:00;METAR CYOW 030700Z 05005KT 15SM OVC100 17/14 A2986 RMK AC8 SLP112=
CYOW;2006-06-03 07:24;SPECI CYOW 030724Z 04005KT 15SM -RA OVC085 17/ RMK AC8=
CYOW;2006-06-03 09:00;METAR CYOW 030900Z 02006KT 15SM FEW073 OVC086 17/14 A2985 RMK AC2AC6 SLP109=
CYOW;2006-06-03 09:20;SPECI CYOW 030920Z 03005KT 15SM -RA BKN058 OVC090 17/ RMK SC6AC2=
CYOW;2006-06-03 09:43;SPECI CYOW 030943Z 05002KT 15SM BKN064 OVC092 17/ RMK SC6AC2=
CYOW;2006-06-03 11:00;METAR CYOW 031100Z 36006KT 4SM -RA BR BKN060 OVC120 16/14 A2989 RMK SC5AS3 SLP123=
CYOW;2006-06-03 12:00;METAR CYOW 031200Z 06004KT 10SM -RA OVC030 16/14 A2990 RMK SC8 SLP127=
CYOW;2006-06-03 13:00;METAR CYOW 031300Z 07006KT 12SM -RA SCT026 OVC090 15/13 A2991 RMK SC3AS5 SLP128=
CYOW;2006-06-03 14:00;METAR CYOW 031400Z 07007KT 12SM -RA SCT030 OVC086 15/13 A2991 RMK SC3AS5 SLP129=
CYOW;2006-06-03 15:00;METAR CYOW 031500Z 07008KT 12SM -RA FEW020 FEW040 OVC090 15/12 A2992 RMK CU1SC2AS6 SLP132=
CYOW;2006-06-03 17:00;METAR CYOW 031700Z 05009KT 4SM -RA SCT010 OVC030 15/14 A2992 RMK SF3NS5 SLP132=
CYOW;2006-06-03 17:44;SPECI CYOW 031744Z 06007KT 5SM -RA BR BKN008 OVC027 15/ RMK SF6NS2=
CYOW;2006-06-03 18:00;METAR CYOW 031800Z 05007KT 6SM -RA BR SCT008 OVC030 15/14 A2991 RMK SF3NS5 SLP130=
CYOW;2006-06-03 20:00;METAR CYOW 032000Z 03006KT 5SM -RA BR BKN008 OVC027 15/14 A2991 RMK CF5NS3 SLP130=
CYOW;2006-06-03 22:00;METAR CYOW 032200Z 04008KT 10SM -RA SCT008 BKN035 OVC070 15/14 A2991 RMK CF3SC3AS2 SLP129=
CYOW;2006-06-03 23:00;METAR CYOW 032300Z 05007KT 10SM RA BKN007 BKN020 OVC070 15/14 A2992 RMK SC6SC2AS1 CIG RAG SLP132=
CYOW;2006-06-03 23:39;SPECI CYOW 032339Z 08006KT 12SM -RA FEW003 SCT006 BKN020 OVC055 14/ RERA RMK SF1SC2SC3SC2=
CYOW;2006-06-04 00:00;METAR CYOW 040000Z 07006KT 12SM -RA FEW003 FEW006 SCT050 OVC077 14/14 A2992 RERA RMK SF1SC2SC2AS4 SF TR SLP134=
CYOW;2006-06-04 01:00;METAR CYOW 040100Z 05005KT 12SM -RA FEW003 FEW007 BKN044 OVC084 15/14 A2993 RMK CF1SC1SC6AS1 RA VRY LGT CUFRA TR SLP136=
CYOW;2006-06-04 02:44;SPECI CYOW 040244Z 04007KT 15SM OVC064 15/ RMK SC8=
CYOW;2006-06-04 03:00;METAR CYOW 040300Z 05006KT 15SM BKN062 OVC071 15/13 A2994 RMK SC6AC2 SLP139=
CYOW;2006-06-04 04:00;METAR CYOW 040400Z 03006KT 15SM -RA OVC081 14/13 A2994 RMK AC8 RA VRY LGT SLP140=
CYOW;2006-06-04 07:22;SPECI CYOW 040722Z 04007KT 15SM FEW070 OVC092 14/ RMK AC2AC6=
CYOW;2006-06-04 08:00;METAR CYOW 040800Z 05005KT 15SM BKN092 OVC250 14/12 A2993 RMK AC7CI0 SLP136=
CYOW;2006-06-04 11:00;METAR CYOW 041100Z 04006KT 20SM FEW170 BKN230 BKN250 14/11 A2995 RMK AC2CI2CC1 SLP143=
CYOW;2006-06-04 12:00;METAR CYOW 041200Z 03010KT 20SM BKN180 BKN250 15/11 A2995 RMK AC5CI1 SLP144=
CYOW;2006-06-04 13:00;METAR CYOW 041300Z 02007KT 20SM SCT180 BKN250 15/10 A2995 RMK AC3CI2 SLP145=
CYOW;2006-06-04 14:00;METAR CYOW 041400Z 03008KT 20SM FEW180 BKN250 16/10 A2995 RMK AC2CI3 SLP143=
CYOW;2006-06-04 15:00;METAR CYOW 041500Z 05011KT 20SM FEW020 BKN240 18/09 A2993 RMK CU1CI3 TR CU SLP137=
CYOW;2006-06-04 17:00;METAR CYOW 041700Z 08011G19KT 20SM FEW060 FEW170 BKN240 21/09 A2990 RMK CU2AC1CI2 SLP125=
CYOW;2006-06-04 18:00;METAR CYOW 041800Z 05011G17KT 20SM FEW060 BKN140 BKN240 21/09 A2989 RMK CU2AC2CI0 SLP122=
CYOW;2006-06-04 19:00;METAR CYOW 041900Z 13009KT 20SM SCT080 BKN150 19/09 A2987 RMK CU3AC3 VIRGA SLP115=
CYOW;2006-06-04 20:00;METAR CYOW 042000Z 12006KT 20SM SCT080 BKN140 20/10 A2986 RMK CU3AC4 SLP113=
CYOW;2006-06-04 22:00;METAR CYOW 042200Z 19003KT 20SM FEW080 BKN140 BKN180 20/08 A2983 RMK AC1AC6AC1 SLP104=
CYOW;2006-06-04 23:00;METAR CYOW 042300Z 18004KT 20SM BKN150 BKN220 20/09 A2982 RMK AC5CI0 SLP100=
CYOW;2006-06-05 01:00;METAR CYOW 050100Z 17004KT 20SM FEW120 BKN170 BKN240 17/10 A2983 RMK AS2AC3CC1 SLP101=
CYOW;2006-06-05 03:00;METAR CYOW 050300Z 16005KT 15SM BKN170 14/09 A2983 RMK AC6 SLP104=
CYOW;2006-06-05 04:00;METAR CYOW 050400Z 16005KT 15SM BKN160 14/09 A2983 RMK AC6 SLP103=
CYOW;2006-06-05 05:00;METAR CYOW 050500Z 18004KT 15SM SCT150 SCT250 15/08 A2983 RMK AC2CI0 SLP104=
CYOW;2006-06-05 06:00;METAR CYOW 050600Z 18003KT 15SM SCT110 14/08 A2983 RMK AC2 SLP103=
CYOW;2006-06-05 07:00;METAR CYOW 050700Z 00000KT 15SM FEW110 14/08 A2983 RMK AC1 SLP102=
CYOW;2006-06-05 08:00;METAR CYOW 050800Z 19003KT 15SM FEW110 13/08 A2983 RMK AC1 SLP101=
CYOW;2006-06-05 09:00;METAR CYOW 050900Z 23002KT 20SM FEW110 13/09 A2984 RMK AC1 SLP105=
CYOW;2006-06-05 11:00;METAR CYOW 051100Z 00000KT 15SM FEW150 13/09 A2987 RMK AC1 SLP116=
CYOW;2006-06-05 12:00;METAR CYOW 051200Z 25004KT 12SM FEW150 FEW250 15/11 A2988 RMK AC1CI1 SLP118=
CYOW;2006-06-05 13:00;METAR CYOW 051300Z 26002KT 15SM FEW250 17/12 A2988 RMK CI1 SLP121=
CYOW;2006-06-05 14:00;METAR CYOW 051400Z 29003KT 15SM FEW250 20/12 A2989 RMK CI1 SLP123=
CYOW;2006-06-05 15:00;METAR CYOW 051500Z 20004KT 15SM FEW250 22/12 A2988 RMK CI1 SLP120=
CYOW;2006-06-05 16:00;METAR CYOW 051600Z 20003KT 15SM FEW030 FEW180 22/12 A2988 RMK CU1AC2 SLP118=
CYOW;2006-06-05 17:00;METAR CYOW 051700Z 00000KT 15SM FEW044 FEW180 24/13 A2987 RMK CU2AC1 SLP117=
CYOW;2006-06-05 18:00;METAR CYOW 051800Z 14003KT 15SM FEW050 25/12 A2986 RMK CU2 SLP112=
CYOW;2006-06-05 19:00;METAR CYOW 051900Z 13008KT 15SM SCT060 25/10 A2986 RMK CU3 SLP111=
CYOW;2006-06-05 20:00;METAR CYOW 052000Z 17006KT 15SM SCT070 26/09 A2986 RMK CU3 SLP111=
CYOW;2006-06-05 21:00;METAR CYOW 052100Z 17005KT 15SM FEW095 FEW250 26/09 A2985 RMK AC2CI1 SLP109=
CYOW;2006-06-05 22:00;METAR CYOW 052200Z 20005KT 15SM FEW100 FEW250 25/09 A2985 RMK AC2CI1 SLP109=
CYOW;2006-06-06 00:00;METAR CYOW 060000Z 18003KT 20SM FEW120 FEW270 23/11 A2987 RMK AC1CI1 CI TR SLP116=
CYOW;2006-06-06 02:00;METAR CYOW 060200Z 23004KT 15SM FEW110 FEW210 20/12 A2990 RMK AC1CI1 AC TR SLP125=
CYOW;2006-06-06 03:00;METAR CYOW 060300Z 23005KT 15SM FEW120 20/12 A2991 RMK AC2 SLP127=
CYOW;2006-06-06 04:00;METAR CYOW 060400Z 22004KT 15SM SCT120 19/11 A2991 RMK AC3 SLP127=
CYOW;2006-06-06 05:00;METAR CYOW 060500Z 21004KT 15SM FEW120 18/12 A2991 RMK AC1 SLP130=
CYOW;2006-06-06 06:00;METAR CYOW 060600Z 26004KT 15SM SKC 17/11 A2991 RMK SLP130=
CYOW;2006-06-06 07:00;METAR CYOW 060700Z 18003KT 15SM SKC 15/11 A2992 RMK SLP131=
CYOW;2006-06-06 09:00;METAR CYOW 060900Z 16005KT 20SM FEW150 FEW250 13/10 A2993 RMK AC1CI1 CLDS TR SLP135=
CYOW;2006-06-06 10:00;METAR CYOW 061000Z 00000KT 20SM FEW170 14/10 A2995 RMK AC1 SLP142=
CYOW;2006-06-06 11:00;METAR CYOW 061100Z 23002KT 15SM FEW170 15/10 A2996 RMK AC1 SLP146=
CYOW;2006-06-06 13:00;METAR CYOW 061300Z 19004KT 15SM FEW170 21/12 A2999 RMK AC0 SLP154=
CYOW;2006-06-06 14:00;METAR CYOW 061400Z 18007KT 15SM FEW170 23/12 A2998 RMK AC0 SLP153=
CYOW;2006-06-06 15:00;METAR CYOW 061500Z 18006KT 15SM FEW170 FEW240 25/11 A2998 RMK AC1CI0 AC TR SLP152=
CYOW;2006-06-06 16:00;METAR CYOW 061600Z 18008KT 15SM FEW170 FEW240 26/11 A2998 RMK AC1CI0 AC TR SLP152=
CYOW;2006-06-06 17:00;METAR CYOW 061700Z 20006KT 15SM FEW060 FEW170 SCT250 27/12 A2997 RMK CU1AC1CI0 CU AC TR SLP149=
CYOW;2006-06-06 18:00;METAR CYOW 061800Z 20005KT 15SM FEW060 FEW170 27/11 A2996 RMK CU1AC0 CU TR SLP144=
CYOW;2006-06-06 19:00;METAR CYOW 061900Z 22005KT 15SM FEW060 FEW170 28/11 A2995 RMK CU1AC0 CU TR SLP142=
CYOW;2006-06-06 22:00;METAR CYOW 062200Z 14007KT 15SM FEW065 27/10 A2993 RMK CU1 CU TR SLP136=
CYOW;2006-06-06 23:00;METAR CYOW 062300Z 14003KT 15SM FEW065 26/11 A2994 RMK SC1 SLP138=
CYOW;2006-06-07 00:00;METAR CYOW 070000Z 10004KT 15SM FEW070 25/12 A2994 RMK AC1 SLP139=
CYOW;2006-06-07 01:00;METAR CYOW 070100Z 09003KT 15SM FEW080 23/11 A2994 RMK AC1 SLP140=
CYOW;2006-06-07 02:00;METAR CYOW 070200Z 09003KT 15SM FEW100 21/12 A2995 RMK AC1 SLP143=
CYOW;2006-06-07 03:00;METAR CYOW 070300Z 09006KT 15SM FEW100 20/11 A2995 RMK AC1 SLP143=
CYOW;2006-06-07 04:00;METAR CYOW 070400Z 11006KT 15SM SKC 17/11 A2995 RMK SLP142=
CYOW;2006-06-07 07:00;METAR CYOW 070700Z 02004KT 15SM SKC 16/11 A2994 RMK SLP137=
CYOW;2006-06-07 08:00;METAR CYOW 070800Z 07005KT 15SM SKC 15/11 A2994 RMK SLP139=
CYOW;2006-06-07 11:00;METAR CYOW 071100Z 07003KT 15SM FEW260 17/12 A2996 RMK CI0 SLP147=
CYOW;2006-06-07 12:00;METAR CYOW 071200Z 04005KT 15SM FEW210 BKN260 18/13 A2995 RMK CI2CI0 SLP142=
CYOW;2006-06-07 13:00;METAR CYOW 071300Z 05004KT 15SM FEW180 SCT210 BKN240 20/14 A2996 RMK AC2CI2CI0 SLP144=
CYOW;2006-06-07 14:00;METAR CYOW 071400Z 08007KT 15SM FEW180 SCT210 BKN240 22/14 A2994 RMK AC2CI2CI0 SLP139=
CYOW;2006-06-07 16:00;METAR CYOW 071600Z 09009G15KT 15SM FEW120 FEW170 SCT210 BKN240 25/15 A2993 RMK AC1AC2CI2CI0 SLP134=
CYOW;2006-06-07 17:00;METAR CYOW 071700Z 08008KT 15SM FEW050 FEW120 SCT170 BKN200 BKN240 25/13 A2991 RMK CU1AC1AC2CI2CI0 CU TR SLP128=
CYOW;2006-06-07 20:00;METAR CYOW 072000Z 09009KT 15SM FEW050 BKN160 OVC210 25/12 A2988 RMK CU1AC5CI2 SLP119=
CYOW;2006-06-07 21:00;METAR CYOW 072100Z 09010KT 15SM SCT140 BKN160 OVC200 24/14 A2987 RMK AC3AC2CI2 SLP116=
CYOW;2006-06-07 22:00;METAR CYOW 072200Z 07007KT 15SM BKN130 OVC160 24/13 A2987 RMK AC5AC2 SLP114=
CYOW;2006-06-07 23:00;METAR CYOW 072300Z 07005KT 15SM BKN140 23/14 A2986 RMK AC6 SLP112=
CYOW;2006-06-08 00:00;METAR CYOW 080000Z 05005KT 15SM BKN140 OVC180 23/14 A2986 RMK AC6AC2 SLP113=
CYOW;2006-06-08 01:00;METAR CYOW 080100Z 05007KT 15SM BKN150 BKN180 22/13 A2985 RMK AC6AC2 SLP110=
CYOW;2006-06-08 02:00;METAR CYOW 080200Z 11010G16KT 15SM FEW160 BKN180 20/13 A2988 RMK AC2AC1 SLP117=
CYOW;2006-06-08 03:00;METAR CYOW 080300Z 11007KT 15SM FEW160 BKN180 BKN200 18/11 A2989 RMK AC1AC4CI1 SLP122=
CYOW;2006-06-08 05:00;METAR CYOW 080500Z 06008KT 15SM OVC110 17/11 A2989 RMK AC5 SLP123=
CYOW;2006-06-08 07:00;METAR CYOW 080700Z 05004KT 15SM OVC079 17/11 A2988 RMK AC8 SLP117=
CYOW;2006-06-08 09:00;METAR CYOW 080900Z 02004KT 15SM OVC100 17/11 A2987 RMK AC8 SLP114=
CYOW;2006-06-08 10:00;METAR CYOW 081000Z 36004KT 15SM FEW060 OVC095 17/12 A2986 RMK SC1AC7 SLP112=
CYOW;2006-06-08 11:00;METAR CYOW 081100Z 01004KT 15SM SCT040 OVC095 17/13 A2986 RMK SC3AC5 SLP113=
CYOW;2006-06-08 13:00;METAR CYOW 081300Z 06009G15KT 15SM FEW025 FEW040 OVC120 19/13 A2987 RMK CU1SC2AC5 SLP114=
CYOW;2006-06-08 14:00;METAR CYOW 081400Z 06007KT 15SM FEW025 FEW040 OVC100 19/12 A2986 RMK CU1SC2AC5 SLP111=
CYOW;2006-06-08 15:00;METAR CYOW 081500Z 08011G16KT 15SM BKN046 OVC090 19/10 A2986 RMK SC5AC3 CU ASOCT SLP111=
CYOW;2006-06-08 16:00;METAR CYOW 081600Z 07009KT 15SM BKN043 OVC090 17/11 A2986 RMK SC6AC2 CU ASOCT SLP112=
CYOW;2006-06-08 17:00;METAR CYOW 081700Z 08010KT 15SM OVC035 16/11 A2986 RMK SC8 CU ASOCT SLP112=
CYOW;2006-06-08 18:00;METAR CYOW 081800Z 08008KT 15SM -RA OVC038 16/11 A2986 RMK SC8 VRY LGT RA SLP112=
CYOW;2006-06-08 19:00;METAR CYOW 081900Z 14005KT 12SM -RA OVC039 15/13 A2985 RMK SC8 SLP110=
CYOW;2006-06-08 20:24;SPECI CYOW 082024Z 09003KT 15SM SCT022 OVC039 15/ RMK SC3SC5=
CYOW;2006-06-08 21:00;METAR CYOW 082100Z 07003KT 15SM FEW012 FEW020 OVC045 16/12 A2983 RMK CF1SC1SC7 CUFRA TR SLP103=
CYOW;2006-06-08 22:00;METAR CYOW 082200Z 07003KT 15SM FEW012 SCT025 OVC073 17/12 A2982 RMK CF1SC4AS4 CUFRA TR SLP101=
CYOW;2006-06-08 23:00;METAR CYOW 082300Z 07003KT 15SM -RA FEW012 FEW027 BKN043 OVC070 16/12 A2984 RMK CF1SC1SC6AC2 RA VRY LGT CUFRA TR SLP106=
CYOW;2006-06-09 00:00;METAR CYOW 090000Z 09008KT 15SM -RA FEW012 BKN017 OVC037 15/12 A2984 RMK CF1SC6SC2 RA VRY LGT CUFRA TR SLP107=
CYOW;2006-06-09 00:18;SPECI CYOW 090018Z 08006KT 4SM -RA BR FEW006 BKN014 OVC022 14/ RMK CF1SC6SC2=
CYOW;2006-06-09 00:33;SPECI CYOW 090033Z 05004KT 10SM -RA FEW006 FEW020 OVC032 13/ RMK CF1SC2SC6 CUFRA TR=
CYOW;2006-06-09 01:00;METAR CYOW 090100Z 04005KT 10SM -RA FEW006 FEW020 OVC036 14/12 A2984 RMK CF1SC1SC7 CUFRA TR SLP106=
CYOW;2006-06-09 02:00;METAR CYOW 090200Z 04004KT 10SM -RA FEW006 BKN045 OVC065 13/12 A2984 RMK CF1SC5SC3 CUFRA TR SLP107=
CYOW;2006-06-09 03:00;METAR CYOW 090300Z 06004KT 10SM -RA FEW007 SCT025 BKN050 OVC080 13/12 A2983 RMK SF2SC2SC2AC2 SLP103=
CYOW;2006-06-09 03:16;SPECI CYOW 090316Z 06003KT 10SM -RA SCT006 OVC014 13/ RMK SF3SC5=
CYOW;2006-06-09 04:00;METAR CYOW 090400Z 06006KT 12SM -RA SCT007 OVC023 13/12 A2982 RMK SF4SC4 SLP099=
CYOW;2006-06-09 05:00;METAR CYOW 090500Z 05003KT 12SM -RA FEW005 BKN015 OVC031 13/12 A2981 RMK SF2SC4SC2 RA VRY LGT SLP097=
CYOW;2006-06-09 05:28;SPECI CYOW 090528Z 05003KT 10SM FEW007 OVC019 13/ RMK SF2SC6=
CYOW;2006-06-09 06:00;METAR CYOW 090600Z 05002KT 12SM FEW005 SCT016 OVC024 13/12 A2980 RMK SF1SC2SC5 SLP094=
CYOW;2006-06-09 07:00;METAR CYOW 090700Z 00000KT 12SM FEW009 BKN016 OVC023 13/12 A2980 RMK SF1SC4SC3 SLP092=
CYOW;2006-06-09 08:00;METAR CYOW 090800Z 01002KT 12SM BKN019 OVC028 13/12 A2978 RMK SC6SC2 SLP087=
CYOW;2006-06-09 09:00;METAR CYOW 090900Z 00000KT 15SM OVC019 13/12 A2979 RMK SC8 SLP088=
CYOW;2006-06-09 09:49;SPECI CYOW 090949Z 00000KT 15SM FEW009 OVC024 13/ RMK CF1SC7=
CYOW;2006-06-09 10:00;METAR CYOW 091000Z 26002KT 15SM FEW009 OVC024 13/12 A2979 RMK CF1SC7 SLP088=
CYOW;2006-06-09 11:00;METAR CYOW 091100Z 00000KT 15SM SCT025 OVC041 14/13 A2978 RMK SC3SC5 SLP087=
CYOW;2006-06-09 12:00;METAR CYOW 091200Z 27002KT 15SM OVC023 14/13 A2978 RMK SC8 SLP085=
CYOW;2006-06-09 13:00;METAR CYOW 091300Z 21002KT 15SM FEW010 OVC025 15/12 A2977 RMK SC2SC6 CU ASOCT SLP084=
CYOW;2006-06-09 14:00;METAR CYOW 091400Z 23002KT 15SM -RA FEW010 OVC020 15/13 A2976 RMK SC2SC6 CU ASOCT VRY LGT RA SLP080=
CYOW;2006-06-09 14:48;SPECI CYOW 091448Z 27003KT 8SM -RA BKN008 OVC020 14/ RMK SF5SC3 CU EMBD=
CYOW;2006-06-09 15:00;METAR CYOW 091500Z 27003KT 8SM -RA BKN011 OVC020 14/13 A2976 RMK SF5SC3 CU EMBD SLP078=
CYOW;2006-06-09 16:00;METAR CYOW 091600Z 00000KT 10SM -RA SCT010 OVC021 15/13 A2975 RMK SF3SC5 SLP075=
CYOW;2006-06-09 17:00;METAR CYOW 091700Z 27002KT 15SM -RA FEW010 OVC038 15/13 A2973 RMK SF2SC6 VRY LGT RA SLP070=
CYOW;2006-06-09 18:00;METAR CYOW 091800Z 32003KT 15SM -RA FEW025 OVC042 16/13 A2971 RMK CU2SC6 VRY LGT RA SLP064=
CYOW;2006-06-09 19:00;METAR CYOW 091900Z 00000KT 15SM -RA SCT013 OVC022 16/13 A2971 RMK SC4SC4 VRY LGT RA SLP061=
CYOW;2006-06-09 20:00;METAR CYOW 092000Z 16004KT 15SM -RA SCT013 OVC040 16/14 A2969 RMK SC4SC4 SLP056=
CYOW;2006-06-09 21:00;METAR CYOW 092100Z 00000KT 15SM -RA FEW010 BKN018 OVC070 16/14 A2968 RMK CF1SC5AC2 SLP052=
CYOW;2006-06-09 22:34;SPECI CYOW 092234Z 35009KT 5SM -RA BR BKN012 OVC030 14/ RERA RMK SC6SC2 CIG RAG=
CYOW;2006-06-09 22:44;SPECI CYOW 092244Z 36009KT 5SM -RA BR FEW012 OVC022 14/ RERA RMK CF2SC6=
CYOW;2006-06-09 23:00;METAR CYOW 092300Z 36007KT 4SM -RA BR FEW012 OVC030 14/13 A2968 RERA RMK CF2SC6 SLP052=
CYOW;2006-06-09 23:15;SPECI CYOW 092315Z 36009KT 3SM RA BR SCT005 OVC011 14/ RMK SF3SC5 CIG RAG=
CYOW;2006-06-09 23:25;SPECI CYOW 092325Z 33012KT 2 1/2SM RA BR OVC005 13/ RMK SF8 CIG RAG=
CYOW;2006-06-09 23:43;SPECI CYOW 092343Z 33012KT 5SM -RA BR SCT005 OVC016 13/ RERA RMK SF3SC5=
CYOW;2006-06-10 00:00;METAR CYOW 100000Z 32015KT 5SM -RA BR FEW006 OVC011 12/11 A2969 RERA RMK SF2SC6 SLP057=
CYOW;2006-06-10 01:00;METAR CYOW 100100Z 32012G17KT 6SM -RA BR FEW008 OVC014 11/10 A2970 RMK SF2SC6 SLP060=
CYOW;2006-06-10 02:00;METAR CYOW 100200Z 33016KT 8SM -RA SCT008 OVC014 10/09 A2971 RMK SF3SC5 CIG RAG SLP063=
CYOW;2006-06-10 02:19;SPECI CYOW 100219Z 33014G19KT 8SM -RA FEW009 OVC026 10/ RMK SF2SC6=
CYOW;2006-06-10 03:00;METAR CYOW 100300Z 32010G15KT 8SM -RA FEW009 OVC028 10/09 A2971 RMK SF2SC6 SLP064=
CYOW;2006-06-10 04:00;METAR CYOW 100400Z 32013KT 8SM -RA FEW009 OVC016 09/08 A2971 RMK SF2SC6 SLP061=
CYOW;2006-06-10 05:00;METAR CYOW 100500Z 32014KT 10SM -RA FEW009 OVC016 09/08 A2970 RMK SF1SC7 SLP060=
CYOW;2006-06-10 06:00;METAR CYOW 100600Z 32012G18KT 15SM -RA SCT011 OVC040 09/07 A2970 RMK SF4SC4 SLP059=
CYOW;2006-06-10 07:00;METAR CYOW 100700Z 32014G19KT 15SM -RA OVC013 08/07 A2969 RMK SF8 VRY LGT RA SLP055=
CYOW;2006-06-10 07:22;SPECI CYOW 100722Z 33014G19KT 15SM OVC014 08/ RMK SC8=
CYOW;2006-06-10 08:00;METAR CYOW 100800Z 32013G20KT 15SM OVC014 08/06 A2968 RMK SC8 SLP054=
CYOW;2006-06-10 09:00;METAR CYOW 100900Z 32012G19KT 15SM OVC012 08/06 A2968 RMK SC8 SLP053=
CYOW;2006-06-10 10:00;METAR CYOW 101000Z 32014KT 15SM FEW013 OVC016 08/06 A2968 RMK SC2SC6 SLP054=
CYOW;2006-06-10 11:00;METAR CYOW 101100Z 32016G21KT 15SM BKN016 OVC030 08/05 A2968 RMK SC6SC2 SLP054=
CYOW;2006-06-10 12:00;METAR CYOW 101200Z 32015G22KT 15SM OVC015 08/06 A2969 RMK SC8 SLP056=
CYOW;2006-06-10 13:00;METAR CYOW 101300Z 32017KT 15SM OVC016 09/06 A2969 RMK SC8 SLP056=
CYOW;2006-06-10 14:00;METAR CYOW 101400Z 32016KT 15SM OVC017 09/06 A2967 RMK SC8 SLP051=
CYOW;2006-06-10 15:00;METAR CYOW 101500Z 32011G19KT 15SM OVC020 10/06 A2968 RMK SC8 SLP052=
CYOW;2006-06-10 16:00;METAR CYOW 101600Z 29012G21KT 15SM OVC020 10/06 A2969 RMK SC8 SLP056=
CYOW;2006-06-10 18:00;METAR CYOW 101800Z 30016G24KT 15SM OVC022 11/07 A2969 RMK SC8 SLP057=
CYOW;2006-06-10 19:00;METAR CYOW 101900Z 30019KT 15SM OVC027 11/06 A2969 RMK SC8 SLP058=
CYOW;2006-06-10 20:00;METAR CYOW 102000Z 34016G22KT 15SM OVC028 12/06 A2969 RMK SC8 SLP057=
CYOW;2006-06-10 21:00;METAR CYOW 102100Z 34017G25KT 15SM OVC028 12/06 A2968 RMK SC8 SLP055=
CYOW;2006-06-10 22:00;METAR CYOW 102200Z 32021G26KT 20SM OVC033 11/05 A2969 RMK SC8 SLP058=
CYOW;2006-06-10 22:25;SPECI CYOW 102225Z 32020KT 15SM -RA OVC033 11/ RMK SC8 RA VRY LGT=
CYOW;2006-06-10 23:00;METAR CYOW 102300Z 32021G26KT 20SM OVC029 10/05 A2970 RMK SC8 SLP060=
CYOW;2006-06-11 00:00;METAR CYOW 110000Z 31016G25KT 15SM -RA BKN025 OVC037 09/05 A2971 RMK SC6SC2 RA VRY LGT SLP064=
CYOW;2006-06-11 01:00;METAR CYOW 110100Z 31015G20KT 12SM -RA BKN024 OVC040 08/05 A2971 RMK SC6SC2 SLP065=
CYOW;2006-06-11 02:00;METAR CYOW 110200Z 30015G20KT 12SM -RA OVC022 07/06 A2972 RMK SC8 SLP066=
CYOW;2006-06-11 03:00;METAR CYOW 110300Z 30015KT 12SM -RA OVC017 07/06 A2971 RMK SC8 SLP064=
CYOW;2006-06-11 04:00;METAR CYOW 110400Z 30015G20KT 12SM -RA BKN018 OVC031 07/06 A2969 RMK SC6SC2 SLP058=
CYOW;2006-06-11 05:00;METAR CYOW 110500Z 30014KT 12SM -RA FEW009 BKN019 OVC031 07/06 A2968 RERA RMK SF1SC6SC1 SLP055=
CYOW;2006-06-11 06:00;METAR CYOW 110600Z 30015KT 10SM -RA FEW009 BKN015 OVC029 07/06 A2968 RMK SF1SC6SC1 SLP054=
CYOW;2006-06-11 07:00;METAR CYOW 110700Z 31012KT 5SM -RA BR FEW009 BKN015 OVC020 07/06 A2968 RMK SF2SC5SC2 SLP053=
CYOW;2006-06-11 08:00;METAR CYOW 110800Z 31012G17KT 10SM -RA OVC017 07/06 A2967 RMK SC8 RA VRY LGT SLP051=
CYOW;2006-06-11 08:54;SPECI CYOW 110854Z 31011KT 15SM OVC012 08/ RMK SC8=
CYOW;2006-06-11 09:00;METAR CYOW 110900Z 31011KT 15SM OVC012 08/06 A2968 RMK SC8 SLP055=
CYOW;2006-06-11 10:00;METAR CYOW 111000Z 31011KT 15SM OVC011 08/07 A2969 RMK SC8 SLP058=
CYOW;2006-06-11 11:00;METAR CYOW 111100Z 31012KT 15SM OVC012 08/07 A2971 RMK SC8 SLP065=
CYOW;2006-06-11 12:00;METAR CYOW 111200Z 31011G16KT 15SM OVC012 09/07 A2973 RMK SC8 SLP069=
CYOW;2006-06-11 13:00;METAR CYOW 111300Z 31012KT 15SM OVC012 10/08 A2974 RMK SC8 SLP073=
CYOW;2006-06-11 14:00;METAR CYOW 111400Z 30012G17KT 15SM OVC012 11/08 A2975 RMK SC8 SLP077=
CYOW;2006-06-11 15:00;METAR CYOW 111500Z 30011G18KT 15SM OVC013 12/09 A2976 RMK SC8 SLP081=
CYOW;2006-06-11 16:00;METAR CYOW 111600Z 31012G19KT 15SM BKN018 14/10 A2976 RMK SC7 SLP082=
CYOW;2006-06-11 17:00;METAR CYOW 111700Z 30012KT 15SM OVC019 14/10 A2977 RMK SC8 SLP083=
CYOW;2006-06-11 18:00;METAR CYOW 111800Z 28012G17KT 15SM OVC020 14/10 A2978 RMK SC8 SLP088=
CYOW;2006-06-11 19:00;METAR CYOW 111900Z 29012KT 15SM OVC022 14/10 A2979 RMK SC8 SLP089=
CYOW;2006-06-11 20:00;METAR CYOW 112000Z 27011KT 15SM SCT024 BKN120 15/11 A2979 RMK SC3AC4 SLP092=
CYOW;2006-06-11 21:00;METAR CYOW 112100Z 28009KT 15SM FEW025 BKN120 15/11 A2979 RMK SC2AC5 SLP092=
CYOW;2006-06-11 22:00;METAR CYOW 112200Z 28011KT 20SM FEW020 FEW030 FEW140 BKN170 BKN250 16/11 A2979 RMK CF1SC1AC2AS2CI0 CUFRA AND SC TR SLP091=
CYOW;2006-06-11 23:00;METAR CYOW 112300Z 27009KT 20SM FEW030 FEW140 SCT250 17/11 A2979 RMK SC1AC1CI1 SLP092=
CYOW;2006-06-12 00:00;METAR CYOW 120000Z 30008KT 20SM FEW034 SCT160 SCT250 16/11 A2980 RMK SC2AC2CI0 SLP095=
CYOW;2006-06-12 02:00;METAR CYOW 120200Z 30008KT 15SM BKN040 BKN250 15/11 A2984 RMK SC6CI1 CI TR SLP106=
CYOW;2006-06-12 03:00;METAR CYOW 120300Z 34011G17KT 15SM OVC039 15/10 A2985 RMK SC7 SLP112=
CYOW;2006-06-12 04:00;METAR CYOW 120400Z 33008KT 15SM BKN038 14/10 A2986 RMK SC5 SLP115=
CYOW;2006-06-12 05:00;METAR CYOW 120500Z 30007KT 15SM FEW040 12/10 A2987 RMK SC1 SLP116=
CYOW;2006-06-12 06:00;METAR CYOW 120600Z 27008KT 15SM FEW030 SCT120 SCT250 12/10 A2988 RMK SC2AC1CI0 SLP121=
CYOW;2006-06-12 07:00;METAR CYOW 120700Z 27004KT 15SM BKN029 13/10 A2989 RMK SC6 SLP124=
CYOW;2006-06-12 08:00;METAR CYOW 120800Z 29007KT 15SM OVC026 13/11 A2990 RMK SC7 SLP128=
CYOW;2006-06-12 09:00;METAR CYOW 120900Z 26006KT 15SM OVC023 13/11 A2991 RMK SC8 SLP131=
CYOW;2006-06-12 10:00;METAR CYOW 121000Z 27005KT 20SM OVC022 13/11 A2993 RMK SC7 SLP136=
CYOW;2006-06-12 11:00;METAR CYOW 121100Z 27005KT 15SM OVC023 13/11 A2994 RMK SC8 SLP139=
CYOW;2006-06-12 12:00;METAR CYOW 121200Z 32008KT 15SM OVC021 14/10 A2994 RMK SC8 SLP139=
CYOW;2006-06-12 13:00;METAR CYOW 121300Z 33009KT 15SM OVC022 14/10 A2995 RMK SC8 SLP142=
CYOW;2006-06-12 14:00;METAR CYOW 121400Z 32007KT 15SM OVC023 15/11 A2996 RMK SC8 SLP145=
CYOW;2006-06-12 15:00;METAR CYOW 121500Z 32007KT 15SM OVC024 16/12 A2995 RMK SC8 SLP143=
CYOW;2006-06-12 16:00;METAR CYOW 121600Z 28007KT 15SM BKN025 17/13 A2995 RMK SC7 SLP144=
CYOW;2006-06-12 18:00;METAR CYOW 121800Z 27010KT 15SM SCT030 BKN087 20/14 A2995 RMK SC3AC3 SLP143=
CYOW;2006-06-12 19:00;METAR CYOW 121900Z 29010KT 15SM FEW030 BKN090 20/14 A2995 RMK SC2AC4 ACC EAST SLP142=
CYOW;2006-06-12 20:00;METAR CYOW 122000Z 29010KT 15SM SCT037 BKN090 21/14 A2995 RMK SC3AC4 ACC EAST SLP142=
CYOW;2006-06-12 23:00;METAR CYOW 122300Z 28010KT 20SM FEW040 FEW100 22/14 A2994 RMK SC2AC1 SLP138=
CYOW;2006-06-13 00:00;METAR CYOW 130000Z 30007KT 20SM FEW040 FEW100 FEW250 21/14 A2994 RMK SC1AC1CI1 SC AC TR CC ASOCTD SLP141=
CYOW;2006-06-13 01:00;METAR CYOW 130100Z 29006KT 20SM FEW035 BKN092 BKN250 20/14 A2997 RMK SC1AC6CI1 SC CI TR SLP149=
CYOW;2006-06-13 02:00;METAR CYOW 130200Z 28006KT 15SM BKN092 19/13 A2999 RMK AC6 SLP155=
CYOW;2006-06-13 03:00;METAR CYOW 130300Z 29007KT 15SM FEW090 17/13 A2999 RMK AC1 SLP155=
CYOW;2006-06-13 04:00;METAR CYOW 130400Z 28006KT 15SM SKC 16/13 A2999 RMK SLP157=
CYOW;2006-06-13 05:00;METAR CYOW 130500Z 29007KT 15SM SKC 16/13 A2999 RMK SLP158=
CYOW;2006-06-13 06:00;METAR CYOW 130600Z 31006KT 15SM SKC 14/12 A2999 RMK SLP157=
CYOW;2006-06-13 07:00;METAR CYOW 130700Z 30005KT 15SM FEW090 13/12 A2999 RMK AC1 SLP156=
CYOW;2006-06-13 08:00;METAR CYOW 130800Z 32005KT 15SM BKN056 14/13 A2999 RMK SC7 SLP157=
CYOW;2006-06-13 09:00;METAR CYOW 130900Z 33004KT 15SM FEW055 BKN082 14/12 A2999 RMK SC2AC4 SLP157=
CYOW;2006-06-13 10:00;METAR CYOW 131000Z 30004KT 15SM FEW050 BKN086 14/13 A3000 RMK SC2AC6 SLP160=
CYOW;2006-06-13 11:00;METAR CYOW 131100Z 27003KT 15SM FEW050 BKN086 15/13 A3001 RMK SC2AC6 SLP164=
CYOW;2006-06-13 12:00;METAR CYOW 131200Z 31004KT 15SM FEW050 BKN084 16/13 A3002 RMK SC2AC6 SLP165=
CYOW;2006-06-13 13:00;METAR CYOW 131300Z 33005KT 15SM FEW060 BKN085 17/12 A3002 RMK SC2AC5 SLP168=
CYOW;2006-06-13 14:00;METAR CYOW 131400Z 32005KT 15SM FEW060 BKN073 OVC085 18/12 A3003 RMK SC1AC5AC2 SLP171=
CYOW;2006-06-13 15:00;METAR CYOW 131500Z 31005KT 15SM SCT060 OVC075 20/13 A3004 RMK SC3AC4 SLP173=
CYOW;2006-06-13 16:00;METAR CYOW 131600Z 32005KT 15SM BKN057 OVC070 20/12 A3005 RMK SC5AC2 SLP176=
CYOW;2006-06-13 17:00;METAR CYOW 131700Z 33005KT 15SM OVC060 21/11 A3004 RMK SC8 SLP173=
CYOW;2006-06-13 18:00;METAR CYOW 131800Z 31006KT 15SM SCT050 OVC082 21/10 A3003 RMK SC3AC5 SLP169=
CYOW;2006-06-13 22:00;METAR CYOW 132200Z 27003KT 15SM FEW045 BKN100 OVC180 20/11 A3000 RMK CU1AC5AC2 CU TR SLP161=
CYOW;2006-06-13 23:00;METAR CYOW 132300Z 26005KT 15SM FEW050 BKN082 BKN200 21/12 A3000 RMK SC1AC6CI1 SC TR SLP161=
CYOW;2006-06-14 00:00;METAR CYOW 140000Z 25004KT 15SM FEW060 FEW080 FEW100 BKN200 20/12 A3001 RMK SC1AC1AC1CI1 SC TR SLP163=
CYOW;2006-06-14 01:00;METAR CYOW 140100Z 25004KT 15SM BKN100 OVC200 19/12 A3002 RMK AC6CI1 SLP165=
CYOW;2006-06-14 03:00;METAR CYOW 140300Z 24003KT 15SM SCT095 OVC180 17/12 A3003 RMK AC4AC2 SLP171=
CYOW;2006-06-14 04:00;METAR CYOW 140400Z 26005KT 15SM SCT068 BKN093 17/12 A3004 RMK AC4AC3 SLP173=
CYOW;2006-06-14 05:00;METAR CYOW 140500Z 26006KT 15SM FEW068 BKN180 16/11 A3003 RMK AC2AC4 SLP171=
CYOW;2006-06-14 06:00;METAR CYOW 140600Z 30004KT 15SM FEW080 BKN190 15/11 A3003 RMK AC2AC4 SLP170=
CYOW;2006-06-14 07:00;METAR CYOW 140700Z 29003KT 15SM SCT098 BKN180 14/11 A3002 RMK AC3AC3 SLP168=
CYOW;2006-06-14 08:00;METAR CYOW 140800Z 32005KT 15SM BKN200 13/11 A3002 RMK CC6 SLP166=
CYOW;2006-06-14 09:00;METAR CYOW 140900Z 33004KT 15SM FEW060 SCT200 13/11 A3002 RMK SC1CC4 SLP167=
CYOW;2006-06-14 10:00;METAR CYOW 141000Z 30002KT 15SM FEW060 FEW180 12/11 A3003 RMK SC1AC1 SLP169=
CYOW;2006-06-14 11:00;METAR CYOW 141100Z 33004KT 15SM FEW180 15/11 A3004 RMK AC1 SLP173=
CYOW;2006-06-14 12:00;METAR CYOW 141200Z 01006KT 15SM FEW180 17/10 A3005 RMK AC1 SLP175=
CYOW;2006-06-14 13:00;METAR CYOW 141300Z 36004KT 15SM FEW160 19/10 A3005 RMK AC1 SLP178=
CYOW;2006-06-14 14:00;METAR CYOW 141400Z 02002KT 15SM FEW160 21/10 A3005 RMK AC1 SLP177=
CYOW;2006-06-14 15:00;METAR CYOW 141500Z 33006KT 15SM FEW050 FEW160 22/11 A3005 RMK CU1AC1 SLP176=
CYOW;2006-06-14 16:00;METAR CYOW 141600Z 29007KT 15SM FEW050 FEW160 23/09 A3004 RMK CU2AC1 AC TR SLP173=
CYOW;2006-06-14 17:00;METAR CYOW 141700Z 04005KT 15SM SCT050 BKN072 BKN160 23/08 A3002 RMK CU4AC2AC1 HI AC TR SLP168=
CYOW;2006-06-14 18:00;METAR CYOW 141800Z 06006KT 15SM SCT050 BKN100 BKN160 22/09 A3002 RMK CU4AC2AC1 HI AC TR SLP165=
CYOW;2006-06-14 19:00;METAR CYOW 141900Z 19003KT 15SM BKN050 BKN160 23/09 A3001 RMK CU5AC1 AC TR SLP162=
CYOW;2006-06-14 21:00;METAR CYOW 142100Z 33006KT 15SM SCT060 22/09 A2998 RMK CU4 SLP154=
CYOW;2006-06-14 22:00;METAR CYOW 142200Z 03003KT 15SM SCT060 BKN100 23/08 A2998 RMK CU3AC2 SLP152=
CYOW;2006-06-14 23:00;METAR CYOW 142300Z 07004KT 15SM VCSH FEW060TCU SCT090 BKN110 22/10 A2998 RMK TCU1AC3AC2 SLP153=
CYOW;2006-06-15 03:00;METAR CYOW 150300Z 35006KT 15SM FEW120 17/10 A2999 RMK AC2 SLP155=
CYOW;2006-06-15 04:00;METAR CYOW 150400Z 36007KT 15SM SKC 16/08 A2998 RMK SLP153=
CYOW;2006-06-15 05:00;METAR CYOW 150500Z 36007KT 15SM SKC 15/07 A2998 RMK SLP152=
CYOW;2006-06-15 06:00;METAR CYOW 150600Z 36006KT 15SM SKC 15/07 A2997 RMK SLP150=
CYOW;2006-06-15 07:00;METAR CYOW 150700Z 36007KT 15SM SKC 14/07 A2997 RMK SLP149=
CYOW;2006-06-15 08:00;METAR CYOW 150800Z 35008KT 15SM FEW090 13/06 A2996 RMK AC2 SLP147=
CYOW;2006-06-15 09:00;METAR CYOW 150900Z 36006KT 15SM FEW090 13/06 A2997 RMK AC1 SLP149=
CYOW;2006-06-15 11:00;METAR CYOW 151100Z 31005KT 15SM FEW090 15/09 A3000 RMK AC1 SLP161=
CYOW;2006-06-15 13:00;METAR CYOW 151300Z 32008KT 15SM FEW090 FEW220 20/10 A3002 RMK AC1CI0 SLP165=
CYOW;2006-06-15 15:00;METAR CYOW 151500Z 34011KT 15SM FEW100 BKN220 BKN250 23/10 A3001 RMK AC2CI2CI1 SLP164=
CYOW;2006-06-15 17:00;METAR CYOW 151700Z 31014G19KT 15SM FEW060 FEW090 SCT120 BKN200 BKN250 23/09 A2999 RMK CU1AC2AC2CI1CI1 TCU EMBD SLP158=
CYOW;2006-06-15 18:00;METAR CYOW 151800Z 32012G18KT 15SM SCT060 BKN090 BKN250 25/10 A2998 RMK SC3AC2CI0 CU ASOCT SLP154=
CYOW;2006-06-15 20:00;METAR CYOW 152000Z 31010G17KT 20SM SCT065 BKN081 25/09 A2996 RMK SC3AC2 SLP148=
CYOW;2006-06-15 21:00;METAR CYOW 152100Z 30013G18KT 20SM FEW065 SCT120 25/10 A2996 RMK SC1AC3 SLP146=
CYOW;2006-06-15 21:51;SPECI CYOW 152151Z 31012G18KT 20SM -SHRA FEW060 BKN080 23/ RMK SC2AC4 SHRA VRY LGT CVCTV CLD EMBD=
CYOW;2006-06-15 22:00;METAR CYOW 152200Z 33008G25KT 20SM VCSH SCT060 BKN090 23/09 A2997 RMK SC3AC3 SHRA E CVCTV CLD EMBD SLP149=
CYOW;2006-06-16 00:00;METAR CYOW 160000Z 27005KT 20SM FEW090 FEW120 23/10 A2997 RMK AC1AC2 SLP148=
CYOW;2006-06-16 03:00;METAR CYOW 160300Z 23004KT 15SM SKC 19/09 A2998 RMK SLP153=
CYOW;2006-06-16 04:00;METAR CYOW 160400Z 23004KT 15SM SKC 18/09 A2999 RMK SLP154=
CYOW;2006-06-16 06:00;METAR CYOW 160600Z 28010KT 15SM SKC 18/09 A3001 RMK SLP161=
CYOW;2006-06-16 08:00;METAR CYOW 160800Z 29008KT 15SM SKC 16/09 A3002 RMK SLP166=
CYOW;2006-06-16 09:00;METAR CYOW 160900Z 30009KT 15SM BKN240 16/09 A3004 RMK CI0 SLP173=
CYOW;2006-06-16 10:00;METAR CYOW 161000Z 29006KT 15SM BKN240 16/09 A3006 RMK CI1 SLP180=
CYOW;2006-06-16 11:00;METAR CYOW 161100Z 29010KT 15SM SCT240 17/09 A3008 RMK CI1 SLP186=
CYOW;2006-06-16 12:00;METAR CYOW 161200Z 29007KT 15SM SCT240 18/09 A3009 RMK CI1 SLP191=
CYOW;2006-06-16 14:00;METAR CYOW 161400Z 28009KT 15SM FEW210 BKN250 22/11 A3010 RMK CI1CI0 SLP192=
CYOW;2006-06-16 15:00;METAR CYOW 161500Z 30009KT 15SM FEW210 BKN250 24/11 A3009 RMK CI1CI0 SLP191=
CYOW;2006-06-16 17:00;METAR CYOW 161700Z 27009KT 15SM FEW090 FEW210 BKN250 27/10 A3008 RMK AC1CI2CI1 AC TR SLP187=
CYOW;2006-06-16 18:00;METAR CYOW 161800Z 26006KT 15SM FEW050 SCT090 BKN210 BKN250 28/12 A3006 RMK CU1AC3CI1CI0 CU TR SLP178=
CYOW;2006-06-16 19:00;METAR CYOW 161900Z 27004G16KT 15SM FEW050 BKN250 28/11 A3004 RMK CU2CI2 SLP173=
CYOW;2006-06-16 21:00;METAR CYOW 162100Z 23011KT 15SM FEW060 FEW090 BKN250 29/09 A3002 RMK CU1AC2CI1 SLP166=
CYOW;2006-06-16 22:00;METAR CYOW 162200Z 22008KT 15SM SCT090 BKN250 27/09 A3001 RMK AC3CI2 SLP162=
CYOW;2006-06-16 23:00;METAR CYOW 162300Z 18008KT 15SM SCT090 BKN250 26/11 A3000 RMK AC3CI1 SLP158=
CYOW;2006-06-17 00:00;METAR CYOW 170000Z 21008KT 15SM FEW090 SCT200 BKN250 24/12 A2999 RMK AC2CC2CI1 SLP157=
CYOW;2006-06-17 02:00;METAR CYOW 170200Z 22008KT 15SM BKN140 OVC170 23/11 A3001 RMK AS6AC2 SLP161=
CYOW;2006-06-17 03:00;METAR CYOW 170300Z 22007KT 15SM OVC110 22/11 A3002 RMK AS8 SLP165=
CYOW;2006-06-17 03:31;SPECI CYOW 170331Z 22007KT 12SM -RA OVC120 21/ RMK AS8 RA VRY LGT=
CYOW;2006-06-17 04:00;METAR CYOW 170400Z 23006KT 10SM -RA FEW050 OVC110 20/13 A3002 RMK SC2AS6 SLP165=
CYOW;2006-06-17 06:00;METAR CYOW 170600Z 20003KT 12SM -RA FEW100 OVC140 18/13 A3001 RMK AC2AC6 RA VRY LGT SLP161=
CYOW;2006-06-17 07:00;METAR CYOW 170700Z 21006KT 6SM -RA BR BKN030 OVC070 17/15 A3000 RMK SC6AC2 SLP159=
CYOW;2006-06-17 07:19;SPECI CYOW 170719Z 21005KT 5SM RA BR FEW009 OVC060 16/ RMK SF2SC6=
CYOW;2006-06-17 07:37;SPECI CYOW 170737Z 20003KT 5SM +RA BR BKN006 OVC040 16/ RMK SF6SC2=
CYOW;2006-06-17 08:00;METAR CYOW 170800Z 22005KT 2SM +RA BR OVC004 16/15 A3000 RMK SF8 SLP159=
CYOW;2006-06-17 08:14;SPECI CYOW 170814Z 21007KT 3SM -RA BR BKN006 OVC040 16/ RERA RMK SF6SC2=
CYOW;2006-06-17 09:00;METAR CYOW 170900Z 22011KT 3SM RA BR BKN006 OVC036 17/16 A2998 RERA RMK SF5SC3 /R10/ SLP153=
CYOW;2006-06-17 09:44;SPECI CYOW 170944Z 20008KT 8SM BKN006 OVC033 17/ RERA RMK SF6SC2=
CYOW;2006-06-17 09:52;SPECI CYOW 170952Z 20009KT 8SM FEW005 BKN030 OVC056 17/ RERA RMK SF2SC4SC2=
CYOW;2006-06-17 10:00;METAR CYOW 171000Z 21008KT 7SM SCT007 BKN030 OVC056 17/16 A2998 RERA RMK SF3SC3SC2 SLP152=
CYOW;2006-06-17 11:00;METAR CYOW 171100Z 21008KT 8SM FEW007 BKN031 OVC070 17/16 A2999 RMK SF2SC5AC1 SLP156=
CYOW;2006-06-17 12:00;METAR CYOW 171200Z 20005KT 8SM FEW008 OVC110 17/16 A2999 RMK SF2AC6 SLP157=
CYOW;2006-06-17 13:00;METAR CYOW 171300Z 21009KT 10SM FEW008 BKN120 19/16 A2999 RMK CF2AC2 SLP156=
CYOW;2006-06-17 14:00;METAR CYOW 171400Z 23010G16KT 10SM FEW010 BKN120 20/16 A2998 RMK CF2AC3 SLP152=
CYOW;2006-06-17 15:00;METAR CYOW 171500Z 25008KT 12SM FEW010 FEW120 BKN240 21/16 A2998 RMK CF1AC2CI0 HAZY SLP152=
CYOW;2006-06-17 16:00;METAR CYOW 171600Z 22004KT 10SM BKN090 23/17 A2997 RMK AC3 HAZY SLP149=
CYOW;2006-06-17 18:00;METAR CYOW 171800Z 23007KT 10SM FEW030 BKN180 25/18 A2996 RMK CU2AC5=
CYOW;2006-06-17 19:00;METAR CYOW 171900Z 23005KT 10SM BKN150 26/19 A2995 RMK AC5 HAZY SLP143=
CYOW;2006-06-17 21:00;METAR CYOW 172100Z 20006KT 12SM SCT240 27/20 A2994 RMK CI1 SLP137=
CYOW;2006-06-17 22:00;METAR CYOW 172200Z 16006KT 12SM FEW080 SCT250 26/20 A2992 RMK AC1CI1 SLP132=
CYOW;2006-06-17 23:00;METAR CYOW 172300Z 17006KT 12SM FEW035 FEW080 SCT250 26/20 A2990 RMK CU1AC1CI0 SLP125=
CYOW;2006-06-18 00:00;METAR CYOW 180000Z 18006KT 10SM SCT250 25/21 A2989 RMK CI1 SLP123=
CYOW;2006-06-18 01:00;METAR CYOW 180100Z 17002KT 10SM FEW250 24/20 A2990 RMK CI1 SLP124=
CYOW;2006-06-18 02:00;METAR CYOW 180200Z 20004KT 10SM FEW250 25/20 A2991 RMK CI1 SLP130=
CYOW;2006-06-18 04:00;METAR CYOW 180400Z 20003KT 10SM SKC 23/19 A2993 RMK SLP134=
CYOW;2006-06-18 05:00;METAR CYOW 180500Z 19004KT 10SM SKC 23/18 A2993 RMK SLP136=
CYOW;2006-06-18 07:00;METAR CYOW 180700Z 18004KT 10SM FEW250 21/17 A2994 RMK CI0 SLP136=
CYOW;2006-06-18 08:00;METAR CYOW 180800Z 21003KT 10SM FEW250 20/16 A2994 RMK CI0 SLP136=
CYOW;2006-06-18 09:00;METAR CYOW 180900Z 17003KT 10SM FEW250 19/16 A2994 RMK CI0 SLP140=
CYOW;2006-06-18 10:00;METAR CYOW 181000Z 18006KT 12SM FEW250 19/16 A2995 RMK CI0 SLP142=
CYOW;2006-06-18 11:00;METAR CYOW 181100Z 18004KT 12SM FEW250 20/16 A2995 RMK CI0 SLP142=
CYOW;2006-06-18 12:00;METAR CYOW 181200Z 21005KT 12SM FEW250 22/16 A2996 RMK CI0 SLP144=
CYOW;2006-06-18 13:00;METAR CYOW 181300Z 20007KT 12SM SKC 24/17 A2995 RMK SLP141=
CYOW;2006-06-18 14:00;METAR CYOW 181400Z 21007KT 10SM FEW240 26/18 A2994 RMK CI0 HAZY SLP138=
CYOW;2006-06-18 15:00;METAR CYOW 181500Z 20007KT 10SM FEW240 27/18 A2992 RMK CI2 HAZY SLP131=
CYOW;2006-06-18 16:00;METAR CYOW 181600Z 18010KT 8SM SCT240 28/19 A2990 RMK CI2 HAZY SLP125=
CYOW;2006-06-18 18:00;METAR CYOW 181800Z 20011KT 6SM HZ FEW240 31/20 A2988 RMK CI2 SLP116=
CYOW;2006-06-18 19:00;METAR CYOW 181900Z 21014KT 6SM HZ FEW240 31/19 A2986 RMK CI2 SLP112=
CYOW;2006-06-18 20:00;METAR CYOW 182000Z 21014KT 5SM HZ FEW050 BKN240 31/20 A2985 RMK CU1CI2 TR CU SLP109=
CYOW;2006-06-18 21:00;METAR CYOW 182100Z 20013G20KT 4SM HZ FEW050 BKN240 30/21 A2984 RMK CU1CI2 TR CU SLP105=
CYOW;2006-06-18 22:00;METAR CYOW 182200Z 21015G20KT 4SM HZ BKN240 30/20 A2982 RMK CI2 SLP099=
CYOW;2006-06-18 23:00;METAR CYOW 182300Z 20010G19KT 6SM HZ FEW210 BKN270 29/20 A2982 RMK CI1CI2 SLP096=
CYOW;2006-06-19 00:00;METAR CYOW 190000Z 20009G16KT 8SM FEW210 BKN270 28/20 A2982 RMK CI2CI1=
CYOW;2006-06-19 01:00;METAR CYOW 190100Z 21010KT 8SM FEW220 SCT270 27/19 A2982 RMK CI2CI0 HAZY SLP097=
CYOW;2006-06-19 02:00;METAR CYOW 190200Z 21007KT 10SM FEW220 SCT270 25/19 A2982 RMK CI2CI0 SLP098=
CYOW;2006-06-19 03:00;METAR CYOW 190300Z 20006KT 10SM FEW250 25/19 A2981 RMK CI1 SLP093=
CYOW;2006-06-19 04:00;METAR CYOW 190400Z 21006KT 10SM FEW110 24/19 A2980 RMK AC1 SLP090=
CYOW;2006-06-19 05:00;METAR CYOW 190500Z 22007KT 10SM SKC 23/19 A2979 RMK SLP086=
CYOW;2006-06-19 06:00;METAR CYOW 190600Z 21006KT 10SM SKC 23/18 A2978 RMK SLP082=
CYOW;2006-06-19 08:00;METAR CYOW 190800Z 21010KT 10SM SCT180 24/18 A2975 RMK AC3 SLP072=
CYOW;2006-06-19 09:00;METAR CYOW 190900Z 22009KT 8SM BKN120 BKN240 BKN270 23/18 A2974 RMK AC5CI0CC1 HAZY SLP071=
CYOW;2006-06-19 10:00;METAR CYOW 191000Z 21008KT 6SM HZ BKN140 BKN250 23/18 A2975 RMK AC6CI1 SLP073=
CYOW;2006-06-19 11:14;SPECI CYOW 191114Z 20006KT 5SM -RA HZ BKN120 23/ RMK AC7=
CYOW;2006-06-19 12:00;METAR CYOW 191200Z 21006KT 4SM -RA HZ BKN028 OVC120 23/19 A2976 RMK SC6AC2 RA VRY LGT SLP076=
CYOW;2006-06-19 13:00;METAR CYOW 191300Z 28009KT 12SM FEW020 OVC024 22/18 A2978 RMK CU2SC6 SLP082=
CYOW;2006-06-19 13:45;SPECI CYOW 191345Z 27008KT 10SM -RA FEW020 BKN030 BKN120 22/ RMK CU1SC5AC2=
CYOW;2006-06-19 14:00;METAR CYOW 191400Z 27008KT 12SM SCT016 BKN042 BKN120 23/19 A2978 RMK CU3SC2AC2 INTMT -RA SLP082=
CYOW;2006-06-19 14:49;SPECI CYOW 191449Z 27007KT 12SM -RA FEW021 BKN071 OVC120 23/ RMK CU2AC4AC2=
CYOW;2006-06-19 15:00;METAR CYOW 191500Z 27007KT 12SM FEW020 SCT046 BKN120 23/18 A2978 RMK CU2SC2AC3 INTMT LGT RA SLP083=
CYOW;2006-06-19 15:32;SPECI CYOW 191532Z 28010KT 10SM -RA SCT020 OVC047 22/ RMK CU3SC5=
CYOW;2006-06-19 16:00;METAR CYOW 191600Z 26004KT 10SM SHRA FEW020 OVC040TCU 21/19 A2978 RMK CU2TCU6 SLP083=
CYOW;2006-06-19 17:00;METAR CYOW 191700Z 26005KT 12SM -RA FEW020 SCT040 OVC120 21/18 A2977 RERA RMK CU2SC2AS5 SLP081=
CYOW;2006-06-19 18:00;METAR CYOW 191800Z 22005KT 15SM SCT013 OVC047 22/20 A2976 RMK CU4SC4 SLP076=
CYOW;2006-06-19 19:00;METAR CYOW 191900Z 22006KT 15SM BKN023 OVC120 23/19 A2975 RMK CU6AS2 SLP075=
CYOW;2006-06-19 20:00;METAR CYOW 192000Z 22008G15KT 15SM BKN019 23/19 A2973 RMK SC7 CU ASOCTD SLP069=
CYOW;2006-06-19 21:00;METAR CYOW 192100Z 22011KT 15SM SCT020 BKN240 24/19 A2972 RMK CU4CI2 SLP062=
CYOW;2006-06-19 22:00;METAR CYOW 192200Z 20009KT 15SM SCT024 SCT240 25/19 A2973 RMK CU3CI1 TCU ASOCTD SLP068=
CYOW;2006-06-19 22:39;SPECI CYOW 192239Z 18008KT 15SM TS FEW025CB SCT029 BKN100 BKN240 24/ RMK CB2SC2AC2CS1 TS W MOVG NNE LTGIC=
CYOW;2006-06-19 23:00;METAR CYOW 192300Z 19010G15KT 15SM TS SCT025CB SCT029 BKN080 BKN240 24/19 A2971 RMK CB3SC1AC1CS1 TS NW MOVG NNE LTGICCG VIS NW 7 SLP059=
CYOW;2006-06-19 23:15;SPECI CYOW 192315Z 28014G21KT 1/2SM +TSRA VV007 18/ RMK RA8 CB EMBD LTGIC TEMP DROPPED 6 DEGS PAST 5 MINS=
CYOW;2006-06-19 23:22;SPECI CYOW 192322Z 23007G27KT 12SM TSRA BKN030CB BKN040 18/ RERA RMK CB6SC2 LTGIC TS MOVG E=
CYOW;2006-06-19 23:47;SPECI CYOW 192347Z 23008KT 15SM FEW020TCU BKN030 BKN080 BKN240 20/ RETSRA RMK TCU1SC4AC1CI0 TS DIST E TD 16.8=
CYOW;2006-06-20 00:00;METAR CYOW 200000Z 22004KT 15SM FEW020CB FEW025TCU BKN100 BKN250 20/17 A2972 RETSRA RMK CB2TCU1AC2CI0 TS DIST E PRES UNSTDY SLP064=
CYOW;2006-06-20 02:00;METAR CYOW 200200Z 20005KT 15SM FEW100 FEW250 19/15 A2975 RMK AC1CI1 AC TR SLP074=
CYOW;2006-06-20 03:00;METAR CYOW 200300Z 20004KT 15SM FEW250 18/14 A2976 RMK CI1 SLP077=
CYOW;2006-06-20 04:00;METAR CYOW 200400Z 22004KT 15SM SCT140 18/15 A2976 RMK AC3 SLP076=
CYOW;2006-06-20 05:00;METAR CYOW 200500Z 22005KT 12SM BKN140 18/16 A2975 RMK AC7 SLP074=
CYOW;2006-06-20 06:00;METAR CYOW 200600Z 26005KT 12SM SCT090 BKN250 18/16 A2975 RMK AC3CI1 SLP073=
CYOW;2006-06-20 07:00;METAR CYOW 200700Z 25006KT 10SM -RA OVC075 18/17 A2974 RMK AS8 SLP071=
CYOW;2006-06-20 07:41;SPECI CYOW 200741Z 33002KT 12SM BKN073 OVC110 18/ RMK AC6AC2=
CYOW;2006-06-20 08:00;METAR CYOW 200800Z 19005KT 12SM BKN068 OVC100 18/17 A2973 RMK AC6AC2 SLP067=
CYOW;2006-06-20 09:00;METAR CYOW 200900Z 22005KT 12SM BKN074 BKN100 17/16 A2974 RMK AC6AC2 SLP071=
CYOW;2006-06-20 10:00;METAR CYOW 201000Z 22004KT 10SM FEW120 SCT160 SCT210 SCT250 17/16 A2975 RMK AC2AC2CC1CI1 CI TR SLP075=
CYOW;2006-06-20 11:00;METAR CYOW 201100Z 21004KT 15SM FEW120 SCT210 SCT250 18/17 A2976 RMK AC2CI2CI0 SLP079=
CYOW;2006-06-20 12:00;METAR CYOW 201200Z 28006KT 15SM BKN072 BKN120 19/17 A2977 RMK AC5AC2 SLP083=
CYOW;2006-06-20 13:00;METAR CYOW 201300Z 27004KT 15SM FEW040 BKN069 OVC090 19/17 A2979 RMK SC1AC6AC1 SLP089=
CYOW;2006-06-20 14:00;METAR CYOW 201400Z 27007KT 15SM SCT015 BKN040 OVC060 20/17 A2980 RMK SF3SC2SC2 SLP093=
CYOW;2006-06-20 14:04;SPECI CYOW 201404Z 28008KT 15SM -RA SCT015 BKN040 OVC060 20/ RMK SF3SC2SC2=
CYOW;2006-06-20 15:00;METAR CYOW 201500Z 33011KT 15SM FEW016 BKN040 OVC060 19/16 A2982 RMK SC2SC4SC1 CU EMBD SLP097=
CYOW;2006-06-20 16:00;METAR CYOW 201600Z 32011KT 15SM BKN026 20/15 A2983 RMK SC6 CU EMBD SLP103=
CYOW;2006-06-20 18:00;METAR CYOW 201800Z 33013KT 15SM BKN029 20/14 A2983 RMK SC6 SLP103=
CYOW;2006-06-20 19:00;METAR CYOW 201900Z 32011G16KT 15SM BKN037 19/12 A2986 RMK SC6 SLP111=
CYOW;2006-06-20 20:00;METAR CYOW 202000Z 32010KT 15SM OVC042 19/12 A2988 RMK SC7 SLP119=
CYOW;2006-06-20 21:00;METAR CYOW 202100Z 34012G17KT 15SM BKN050 20/11 A2990 RMK SC6 SLP124=
CYOW;2006-06-20 22:00;METAR CYOW 202200Z 31009G16KT 15SM SCT050 20/11 A2992 RMK SC4 SLP131=
CYOW;2006-06-20 23:00;METAR CYOW 202300Z 31005KT 15SM FEW050 19/11 A2993 RMK SC2 TCU SE-S SLP134=
CYOW;2006-06-21 00:00;METAR CYOW 210000Z 32005KT 15SM FEW050 19/11 A2993 RMK SC1 TCU SE-S SLP135=
CYOW;2006-06-21 01:00;METAR CYOW 210100Z 25003KT 15SM SKC 18/11 A2994 RMK SLP139=
CYOW;2006-06-21 03:00;METAR CYOW 210300Z 28002KT 15SM SKC 15/11 A2997 RMK SLP151=
CYOW;2006-06-21 04:00;METAR CYOW 210400Z 00000KT 15SM SKC 15/10 A2999 RMK SLP155=
CYOW;2006-06-21 05:00;METAR CYOW 210500Z 32004KT 15SM SKC 13/10 A3000 RMK SLP159=
CYOW;2006-06-21 06:00;METAR CYOW 210600Z 30002KT 15SM SKC 13/11 A3001 RMK SLP164=
CYOW;2006-06-21 08:00;METAR CYOW 210800Z 23002KT 15SM SKC 12/10 A3002 RMK SLP167=
CYOW;2006-06-21 09:00;METAR CYOW 210900Z 27003KT 15SM SKC 11/09 A3004 RMK SLP173=
CYOW;2006-06-21 10:00;METAR CYOW 211000Z 30002KT 15SM FEW200 10/09 A3005 RMK CI1 SLP176=
CYOW;2006-06-21 12:00;METAR CYOW 211200Z 29004KT 15SM FEW120 SCT250 15/12 A3007 RMK AC1CI0 SLP185=
CYOW;2006-06-21 13:00;METAR CYOW 211300Z 25005KT 15SM FEW100 BKN230 18/12 A3008 RMK AC1CI1 SLP189=
CYOW;2006-06-21 14:00;METAR CYOW 211400Z 26004KT 15SM FEW120 BKN240 19/10 A3006 RMK AC2CI3 SLP182=
CYOW;2006-06-21 15:00;METAR CYOW 211500Z 32007KT 15SM FEW120 BKN240 20/09 A3006 RMK AC2CI2 SLP179=
CYOW;2006-06-21 16:00;METAR CYOW 211600Z 26005KT 15SM FEW045 FEW120 SCT240 21/10 A3005 RMK CU1AC1CI1 SLP175=
CYOW;2006-06-21 17:00;METAR CYOW 211700Z 20005KT 15SM FEW045 FEW120 FEW240 22/09 A3004 RMK CU1AC1CI0 CU TR SLP174=
CYOW;2006-06-21 19:00;METAR CYOW 211900Z 21008KT 15SM FEW060 SCT120 23/11 A3003 RMK SC2AC1 SLP170=
CYOW;2006-06-21 20:00;METAR CYOW 212000Z 21008KT 15SM FEW060 SCT100 24/11 A3001 RMK SC1AC2 SLP163=
CYOW;2006-06-21 21:00;METAR CYOW 212100Z 20007KT 15SM FEW060 24/13 A3001 RMK SC1 SLP163=
CYOW;2006-06-21 22:00;METAR CYOW 212200Z 21007KT 15SM FEW060 23/11 A2999 RMK SC1 SLP158=
CYOW;2006-06-21 23:00;METAR CYOW 212300Z 18008KT 15SM FEW060 FEW220 23/11 A2997 RMK SC1CI2 SC TR SLP149=
CYOW;2006-06-22 00:00;METAR CYOW 220000Z 18005KT 15SM FEW220 21/10 A2995 RMK CI1 SLP143=
CYOW;2006-06-22 01:00;METAR CYOW 220100Z 19006KT 15SM FEW150 FEW220 FEW250 19/09 A2995 RMK AC1CI0CI1 AC TR SLP143=
CYOW;2006-06-22 02:00;METAR CYOW 220200Z 20004KT 15SM FEW150 SCT250 18/10 A2997 RMK AC1CI0 SLP149=
CYOW;2006-06-22 03:00;METAR CYOW 220300Z 19005KT 15SM OVC069 19/11 A2996 RMK AC8 SLP148=
CYOW;2006-06-22 04:00;METAR CYOW 220400Z 19003KT 15SM OVC051 19/12 A2995 RMK SC8 SLP143=
CYOW;2006-06-22 06:00;METAR CYOW 220600Z 15004KT 15SM OVC077 18/13 A2991 RMK AC8 SLP127=
CYOW;2006-06-22 07:00;METAR CYOW 220700Z 15004KT 15SM SCT090 BKN130 17/13 A2988 RMK AC4AC2 SLP120=
CYOW;2006-06-22 07:35;SPECI CYOW 220735Z 00000KT 15SM -RA OVC110 17/ RMK AC8 RA VRY LGT=
CYOW;2006-06-22 08:00;METAR CYOW 220800Z 00000KT 15SM -RA SCT055 OVC110 17/14 A2988 RMK SC3AC5 RA VRY LGT SLP117=
CYOW;2006-06-22 10:00;METAR CYOW 221000Z 17003KT 6SM -RA BR OVC044 17/16 A2986 RMK SC8 SLP113=
CYOW;2006-06-22 11:49;SPECI CYOW 221149Z 22005KT 15SM FEW045 BKN090 19/ RMK SC2AC4=
CYOW;2006-06-22 12:00;METAR CYOW 221200Z 21005KT 15SM FEW045 FEW090 BKN120 19/17 A2987 RMK SC1AC2AC2 SC TR SLP115=
CYOW;2006-06-22 13:00;METAR CYOW 221300Z 24009KT 15SM FEW025 SCT045 21/19 A2987 RMK SC2SC2 SLP115=
CYOW;2006-06-22 14:00;METAR CYOW 221400Z 24012KT 12SM BKN021 BKN045 23/19 A2987 RMK SC5SC2 SLP116=
CYOW;2006-06-22 15:00;METAR CYOW 221500Z 23013G18KT 15SM SCT020 SCT045 SCT120 24/19 A2988 RMK SC3SC1AC1 AC TR SLP117=
CYOW;2006-06-22 18:00;METAR CYOW 221800Z 23011G20KT 15SM BKN030 BKN120 26/19 A2989 RMK SC5AC1 SLP121=
CYOW;2006-06-22 19:00;METAR CYOW 221900Z 23011G17KT 15SM FEW035 BKN045 27/19 A2987 RMK CU2SC3 TCU EMBD SLP116=
CYOW;2006-06-22 20:00;METAR CYOW 222000Z 24011KT 15SM FEW035TCU BKN045 28/18 A2988 RMK TCU2CU4 SLP119=
CYOW;2006-06-22 21:00;METAR CYOW 222100Z 26008KT 15SM FEW035TCU BKN045 27/18 A2988 RMK TCU2CU4 SLP116=
CYOW;2006-06-22 22:00;METAR CYOW 222200Z 26009G15KT 15SM FEW035TCU SCT045 29/16 A2987 RMK TCU1CU3 SLP115=
CYOW;2006-06-23 00:00;METAR CYOW 230000Z 25004KT 15SM FEW060 FEW080 FEW150 BKN250 26/14 A2990 RMK CU1AC1AC1CI0 CU LWR AC TR SLP124=
CYOW;2006-06-23 01:00;METAR CYOW 230100Z 25003KT 15SM FEW064 FEW190 FEW200 OVC250 24/15 A2991 RMK SC1AC1CC1CI0 CC TR SLP126=
CYOW;2006-06-23 04:00;METAR CYOW 230400Z 28009KT 15SM SCT210 BKN250 22/13 A2994 RMK CC2CI1 SLP136=
CYOW;2006-06-23 06:00;METAR CYOW 230600Z 32009KT 15SM BKN250 20/15 A2997 RMK CI2 SLP149=
CYOW;2006-06-23 07:00;METAR CYOW 230700Z 35011KT 15SM FEW180 BKN250 18/15 A2998 RMK AC1CI0 AC TR SLP152=
CYOW;2006-06-23 09:00;METAR CYOW 230900Z 36005KT 15SM BKN018 OVC250 16/13 A3002 RMK SC3CI0 SLP166=
CYOW;2006-06-23 10:00;METAR CYOW 231000Z 32009KT 15SM BKN018 OVC250 16/12 A3005 RMK SC7CI1 SLP176=
CYOW;2006-06-23 11:00;METAR CYOW 231100Z 33011KT 20SM BKN016 15/11 A3008 RMK SC7 SLP186=
CYOW;2006-06-23 12:00;METAR CYOW 231200Z 36009KT 20SM BKN016 BKN250 15/11 A3010 RMK SC5CI2 SLP194=
CYOW;2006-06-23 13:00;METAR CYOW 231300Z 32007KT 20SM FEW016 FEW040 SCT220 BKN260 16/11 A3012 RMK SC1SC2CI2CI0 LWR SC TR SLP201=
CYOW;2006-06-23 14:00;METAR CYOW 231400Z 31006KT 20SM FEW040 SCT064 BKN250 16/11 A3014 RMK SC1SC2CI1 SLP205=
CYOW;2006-06-23 15:00;METAR CYOW 231500Z 31007KT 20SM FEW040 FEW070 FEW210 SCT270 18/12 A3013 RMK SC1AC1CI2CI0 SC AC TR SLP203=
CYOW;2006-06-23 16:00;METAR CYOW 231600Z 34008KT 20SM FEW030 FEW100 FEW220 SCT270 20/12 A3014 RMK CU1AC1CI2CI0 CU AC TR SLP207=
CYOW;2006-06-23 17:00;METAR CYOW 231700Z 36006KT 20SM FEW032 FEW100 BKN220 BKN270 19/11 A3013 RMK CU1AC1CI4CI0 CU AC TR SLP203=
CYOW;2006-06-23 18:00;METAR CYOW 231800Z 31007KT 20SM FEW038 FEW120 BKN240 BKN270 20/11 A3012 RMK CU1AC1CS3CI0 CU AC TR SLP199=
CYOW;2006-06-23 19:00;METAR CYOW 231900Z 34009KT 20SM FEW044 FEW150 BKN240 BKN270 21/10 A3011 RMK CU1AC1CS3CI1 CU AC TR SLP198=
CYOW;2006-06-23 21:00;METAR CYOW 232100Z 25004KT 20SM FEW040 BKN250 21/11 A3011 RMK SC1CS3 SLP195=
CYOW;2006-06-23 22:00;METAR CYOW 232200Z 28007KT 20SM FEW040 BKN240 BKN270 21/10 A3009 RMK SC1CS2CI0 SLP190=
CYOW;2006-06-23 23:00;METAR CYOW 232300Z 32004KT 20SM FEW044 SCT240 BKN270 21/10 A3009 RMK SC1CI2CI1 SC TR SLP191=
CYOW;2006-06-24 00:00;METAR CYOW 240000Z 29003KT 20SM FEW045 FEW240 BKN270 20/09 A3010 RMK SC1CI2CI1 SC TR SLP194=
CYOW;2006-06-24 01:00;METAR CYOW 240100Z 35006KT 20SM FEW100 FEW250 18/08 A3010 RMK AC1CI1 AC TR SLP194=
CYOW;2006-06-24 02:00;METAR CYOW 240200Z 35004KT 15SM FEW080 FEW250 17/08 A3011 RMK AC1CI1 CLDS TR SLP199=
CYOW;2006-06-24 03:00;METAR CYOW 240300Z 36006KT 15SM SKC 16/07 A3011 RMK SLP199=
CYOW;2006-06-24 04:00;METAR CYOW 240400Z 36005KT 15SM SKC 15/07 A3011 RMK SLP198=
CYOW;2006-06-24 05:00;METAR CYOW 240500Z 36004KT 15SM SKC 14/07 A3011 RMK SLP197=
CYOW;2006-06-24 06:00;METAR CYOW 240600Z 00000KT 15SM SKC 13/08 A3011 RMK SLP199=
CYOW;2006-06-24 07:00;METAR CYOW 240700Z 35003KT 15SM SKC 13/09 A3011 RMK SLP198=
CYOW;2006-06-24 09:00;METAR CYOW 240900Z 34003KT 15SM FEW200 11/08 A3011 RMK CI1 SLP197=
CYOW;2006-06-24 10:00;METAR CYOW 241000Z 00000KT 15SM FEW100 FEW180 12/08 A3012 RMK AC1AC1 SLP200=
CYOW;2006-06-24 11:00;METAR CYOW 241100Z 01002KT 15SM FEW100 14/09 A3013 RMK AC1 SLP205=
CYOW;2006-06-24 12:00;METAR CYOW 241200Z 02003KT 15SM FEW100 16/10 A3015 RMK AC1 SLP212=
CYOW;2006-06-24 13:00;METAR CYOW 241300Z 36003KT 15SM FEW100 18/08 A3016 RMK AC1 SLP215=
CYOW;2006-06-24 14:00;METAR CYOW 241400Z 00000KT 15SM FEW100 20/08 A3016 RMK AC1 SLP215=
CYOW;2006-06-24 15:00;METAR CYOW 241500Z 00000KT 15SM SKC 21/07 A3016 RMK SLP214=
CYOW;2006-06-24 16:00;METAR CYOW 241600Z 32004KT 15SM FEW050 22/08 A3015 RMK CU1 SLP211=
CYOW;2006-06-24 17:00;METAR CYOW 241700Z 26007KT 15SM FEW050 FEW150 23/10 A3014 RMK CU1AC1 SLP208=
CYOW;2006-06-24 18:00;METAR CYOW 241800Z 27010KT 15SM FEW050 FEW150 23/09 A3014 RMK CU1AC1 SLP208=
CYOW;2006-06-24 19:00;METAR CYOW 241900Z 31010KT 15SM FEW050 FEW150 24/10 A3013 RMK CU1AC1 SLP204=
CYOW;2006-06-24 20:00;METAR CYOW 242000Z 30010KT 15SM FEW050 FEW150 25/09 A3012 RMK CU1AC1 SLP202=
CYOW;2006-06-24 21:00;METAR CYOW 242100Z 27007KT 15SM FEW050 FEW150 25/09 A3011 RMK CU1AC1 CU TR SLP199=
CYOW;2006-06-24 22:00;METAR CYOW 242200Z 31007KT 15SM FEW150 FEW200 25/09 A3011 RMK AC1CI0 AC TR SLP197=
CYOW;2006-06-24 23:00;METAR CYOW 242300Z 31005KT 15SM BKN200 24/07 A3010 RMK CI0 SLP195=
CYOW;2006-06-25 00:00;METAR CYOW 250000Z 33003KT 15SM BKN220 23/07 A3010 RMK CI2 SLP194=
CYOW;2006-06-25 01:00;METAR CYOW 250100Z 29002KT 15SM FEW180 BKN220 22/06 A3011 RMK AC1CI0 SLP198=
CYOW;2006-06-25 03:00;METAR CYOW 250300Z 18002KT 15SM SKC 20/06 A3013 RMK SLP203=
CYOW;2006-06-25 04:00;METAR CYOW 250400Z 17003KT 15SM SKC 18/09 A3014 RMK SLP206=
CYOW;2006-06-25 05:00;METAR CYOW 250500Z 00000KT 15SM SKC 19/10 A3014 RMK SLP208=
CYOW;2006-06-25 06:00;METAR CYOW 250600Z 00000KT 15SM SKC 16/10 A3014 RMK SLP208=
CYOW;2006-06-25 07:00;METAR CYOW 250700Z 00000KT 15SM SKC 16/10 A3014 RMK SLP208=
CYOW;2006-06-25 08:00;METAR CYOW 250800Z 02003KT 15SM SKC 15/10 A3014 RMK SLP207=
CYOW;2006-06-25 09:00;METAR CYOW 250900Z 06003KT 15SM FEW150 FEW220 14/10 A3015 RMK AC1CI0 SLP211=
CYOW;2006-06-25 10:00;METAR CYOW 251000Z 06003KT 15SM FEW220 14/11 A3016 RMK CI1 SLP212=
CYOW;2006-06-25 11:00;METAR CYOW 251100Z 06003KT 15SM FEW220 16/11 A3016 RMK CI0 SLP214=
CYOW;2006-06-25 12:00;METAR CYOW 251200Z 07004KT 15SM FEW220 18/12 A3017 RMK CI0 SLP217=
CYOW;2006-06-25 13:00;METAR CYOW 251300Z 06004KT 15SM FEW220 BKN250 21/12 A3017 RMK CI2CI0 SLP217=
CYOW;2006-06-25 14:00;METAR CYOW 251400Z 10002KT 15SM FEW220 BKN250 23/12 A3017 RMK CI2CI1 SLP216=
CYOW;2006-06-25 15:00;METAR CYOW 251500Z 09006KT 15SM FEW120 SCT220 BKN250 24/12 A3016 RMK AC1CI2CI1 SLP214=
CYOW;2006-06-25 17:00;METAR CYOW 251700Z 10007KT 15SM FEW050 FEW120 BKN220 BKN240 26/11 A3015 RMK CU1AC2CI2CI1 CU TR SLP210=
CYOW;2006-06-25 18:00;METAR CYOW 251800Z 05005KT 15SM FEW050 FEW120 BKN220 BKN240 26/11 A3014 RMK CU1AC2CI2CI1 CU TR SLP205=
CYOW;2006-06-25 19:00;METAR CYOW 251900Z 10006KT 15SM FEW050 FEW120 FEW220 SCT240 27/11 A3013 RMK CU1AC1CI1CI0 CU TR SLP204=
CYOW;2006-06-25 20:00;METAR CYOW 252000Z 09002KT 15SM FEW050 FEW250 27/11 A3011 RMK CU1CI0 SLP198=
CYOW;2006-06-25 21:00;METAR CYOW 252100Z 05002KT 15SM FEW050 OVC100 26/11 A3011 RMK CU1AC6 SLP197=
CYOW;2006-06-25 22:00;METAR CYOW 252200Z 09003KT 15SM FEW050 SCT100 OVC160 26/12 A3010 RMK CU1AC3AC3 SLP194=
CYOW;2006-06-26 00:00;METAR CYOW 260000Z 08004KT 20SM BKN110 BKN150 BKN260 24/13 A3010 RMK AC5AC1CS1 SLP194=
CYOW;2006-06-26 01:00;METAR CYOW 260100Z 07004KT 20SM BKN110 BKN260 23/14 A3011 RMK AC6CS1 SLP195=
CYOW;2006-06-26 02:00;METAR CYOW 260200Z 07005KT 15SM BKN092 BKN120 BKN230 22/13 A3011 RMK AC5AC1CI1 SLP198=
CYOW;2006-06-26 03:00;METAR CYOW 260300Z 07004KT 15SM BKN081 BKN120 OVC220 22/12 A3011 RMK AC6AC1CI1 SLP195=
CYOW;2006-06-26 04:00;METAR CYOW 260400Z 05004KT 15SM FEW080 BKN130 BKN230 22/13 A3011 RMK AC2AC3CI1 SLP195=
CYOW;2006-06-26 05:00;METAR CYOW 260500Z 04005KT 15SM SCT080 BKN120 BKN240 22/12 A3010 RMK AC3AC2CI1 SLP193=
CYOW;2006-06-26 06:00;METAR CYOW 260600Z 04006KT 15SM SCT080 BKN200 21/13 A3009 RMK AC3CI2 SLP189=
CYOW;2006-06-26 07:00;METAR CYOW 260700Z 04006KT 15SM SCT080 BKN250 20/12 A3008 RMK AC4CI1 SLP187=
CYOW;2006-06-26 08:00;METAR CYOW 260800Z 05005KT 15SM SCT080 BKN250 19/13 A3008 RMK AC3CI1 SLP186=
CYOW;2006-06-26 10:00;METAR CYOW 261000Z 05005KT 15SM FEW120 BKN180 BKN250 18/13 A3008 RMK AC2AS4CI0 SLP187=
CYOW;2006-06-26 12:00;METAR CYOW 261200Z 09006KT 15SM SCT170 OVC240 19/15 A3009 RMK AC4CS4 SLP190=
CYOW;2006-06-26 13:00;METAR CYOW 261300Z 08008KT 15SM SCT090 SCT160 OVC240 21/16 A3010 RMK AC3AC1CS4 SLP194=
CYOW;2006-06-26 14:00;METAR CYOW 261400Z 06009KT 15SM SCT090 SCT160 OVC190 22/16 A3010 RMK AC3AC1AS4 SLP194=
CYOW;2006-06-26 15:00;METAR CYOW 261500Z 07009KT 15SM SCT160 OVC210 23/16 A3010 RMK AC3CS5 SLP192=
CYOW;2006-06-26 16:00;METAR CYOW 261600Z 07008KT 15SM SCT160 OVC200 23/16 A3010 RMK AC3CS5 SLP192=
CYOW;2006-06-26 17:00;METAR CYOW 261700Z 09010G15KT 15SM SCT170 OVC210 25/16 A3010 RMK AC3CI2 SLP191=
CYOW;2006-06-26 18:00;METAR CYOW 261800Z 08015KT 15SM FEW040 SCT160 OVC210 25/17 A3009 RMK CU1AC2CI3 SLP188=
CYOW;2006-06-26 19:00;METAR CYOW 261900Z 09014G20KT 15SM FEW034 SCT170 OVC230 25/16 A3008 RMK CU2AC2CI2 CC ASOCTD SLP185=
CYOW;2006-06-26 20:00;METAR CYOW 262000Z 09012G19KT 15SM FEW033 FEW170 OVC230 24/15 A3007 RMK SC1AC1CI5 SLP182=
CYOW;2006-06-26 21:00;METAR CYOW 262100Z 08012G17KT 15SM FEW032 FEW120 OVC240 24/16 A3006 RMK SC2AC1CS4 SLP179=
CYOW;2006-06-26 22:00;METAR CYOW 262200Z 09013KT 15SM SCT040 BKN090 OVC240 23/16 A3006 RMK SC4AC2CS1 SLP180=
CYOW;2006-06-26 23:00;METAR CYOW 262300Z 08011KT 15SM FEW024 BKN034 BKN049 OVC250 22/16 A3005 RMK CU1SC6SC2CS0 CU TR SLP178=
CYOW;2006-06-27 00:00;METAR CYOW 270000Z 09009G16KT 15SM FEW024 BKN038 OVC250 22/16 A3005 RMK CU1SC7CS0 CU TR SLP175=
CYOW;2006-06-27 01:00;METAR CYOW 270100Z 09009G16KT 15SM -RA FEW020 OVC030 20/17 A3005 RMK CF1SC8 RA VRY LGT CUFRA TR SLP175=
CYOW;2006-06-27 02:00;METAR CYOW 270200Z 08009KT 15SM BKN022 OVC050 20/17 A3006 RMK SC6SC2 SLP179=
CYOW;2006-06-27 02:44;SPECI CYOW 270244Z 07007KT 12SM BKN012 OVC020 20/ RMK SC5SC3=
CYOW;2006-06-27 03:00;METAR CYOW 270300Z 07006KT 12SM SCT011 BKN018 OVC029 20/17 A3006 RMK SC3SC2SC2 SLP180=
CYOW;2006-06-27 03:19;SPECI CYOW 270319Z 08005KT 10SM -RA SCT011 BKN019 OVC029 19/ RMK SC3SC3SC2=
CYOW;2006-06-27 03:29;SPECI CYOW 270329Z 09006KT 10SM -RA BKN011 OVC017 19/ RMK SC6SC2=
CYOW;2006-06-27 04:00;METAR CYOW 270400Z 07006KT 10SM RA BKN009 OVC022 19/18 A3005 RMK SC5SC3 SLP177=
CYOW;2006-06-27 04:33;SPECI CYOW 270433Z 07005KT 10SM BKN006 OVC020 19/ RERA RMK SC6SC2=
CYOW;2006-06-27 06:00;METAR CYOW 270600Z 10008KT 8SM OVC005 19/18 A3003 RMK SF8 SLP168=
CYOW;2006-06-27 06:24;SPECI CYOW 270624Z 09008KT 6SM BR OVC004 19/ RMK SF8 CIG VRB 3-5=
CYOW;2006-06-27 06:50;SPECI CYOW 270650Z 09007KT 5SM -RA BR BKN004 OVC020 19/ RMK SF7SC1 CIG VRB 3-5=
CYOW;2006-06-27 07:25;SPECI CYOW 270725Z 09008KT 3SM RA BR BKN003 OVC012 19/ RERA RMK SF6SC2=
CYOW;2006-06-27 07:50;SPECI CYOW 270750Z 10004KT 2SM +RA BR SCT003 BKN008 OVC032 19/ RMK SF3SF3SC2=
CYOW;2006-06-27 08:00;METAR CYOW 270800Z 09005KT 5SM -RA BR FEW002 OVC009 19/19 A3000 RERA RMK SF2SC6 /R10/ SLP160=
CYOW;2006-06-27 08:23;SPECI CYOW 270823Z 00000KT 5SM -RA BR OVC003 19/ RMK SF8=
CYOW;2006-06-27 09:00;METAR CYOW 270900Z 12005KT 4SM -DZ BR BKN004 OVC011 20/19 A2999 RMK SF7SC1 CIG VRB 3-5 SLP154=
CYOW;2006-06-27 09:35;SPECI CYOW 270935Z 13004KT 3SM -RA BR FEW003 OVC026 20/ RERA RMK SF2SC6=
CYOW;2006-06-27 10:00;METAR CYOW 271000Z 14005KT 5SM -RA BR FEW003 BKN031 OVC060 20/19 A2999 RERA RMK SF1SC6SC2 SF TR SLP155=
CYOW;2006-06-27 11:00;METAR CYOW 271100Z 15007KT 10SM -RA OVC038 21/20 A2998 RMK SC8 VRY LGT RA SLP153=
CYOW;2006-06-27 12:00;METAR CYOW 271200Z 16007KT 12SM SCT007 OVC030 21/20 A2998 RMK SF3SC5 SLP153=
CYOW;2006-06-27 12:14;SPECI CYOW 271214Z 17006KT 10SM BKN008 OVC030 21/ RMK SF5SC3=
CYOW;2006-06-27 12:19;SPECI CYOW 271219Z 18006KT 6SM -RA BR BKN010 OVC030 21/ RMK SF6SC2=
CYOW;2006-06-27 12:45;SPECI CYOW 271245Z 18006KT 12SM -RA SCT010 OVC027 22/ RMK SF3SC5 VRY LGT RA=
CYOW;2006-06-27 13:00;METAR CYOW 271300Z 18007KT 12SM FEW010 OVC031 22/20 A2998 RMK SF2SC6 SLP153=
CYOW;2006-06-27 14:00;METAR CYOW 271400Z 20006KT 15SM SCT012 OVC030 23/21 A2998 RMK SF3SC4 SLP152=
CYOW;2006-06-27 15:00;METAR CYOW 271500Z 19005KT 15SM BKN014 OVC020 24/21 A2999 RMK SF6SC2 SLP154=
CYOW;2006-06-27 16:00;METAR CYOW 271600Z 18009KT 15SM SCT015 OVC031 26/22 A2997 RMK SF3SC4 SLP148=
CYOW;2006-06-27 16:08;SPECI CYOW 271608Z 18008KT 15SM FEW015 BKN030 BKN200 26/ RMK SF2SC3CI1=
CYOW;2006-06-27 16:19;SPECI CYOW 271619Z 19009KT 15SM -RA FEW015 BKN033 OVC200 25/ RMK SF1SC6CI1 TCU EMBD=
CYOW;2006-06-27 16:48;SPECI CYOW 271648Z 19004KT 15SM FEW015 BKN030 BKN200 25/ RMK SF1SC5CI1 TCU EMBD=
CYOW;2006-06-27 17:00;METAR CYOW 271700Z 20007KT 15SM FEW015 BKN030 BKN200 26/22 A2995 RMK SF1SC4CI1 TCU EMBD SLP142=
CYOW;2006-06-27 18:00;METAR CYOW 271800Z 16011G18KT 8SM -RA BKN021 OVC035 24/21 A2994 RMK SC6SC2 TCU EMBD SLP138=
CYOW;2006-06-27 18:07;SPECI CYOW 271807Z 16013G19KT 15SM BKN020 BKN035 25/ RMK SC5SC2 TCU EMBD=
CYOW;2006-06-27 19:00;METAR CYOW 271900Z 19009G17KT 15SM -SHRA BKN022 OVC030 26/22 A2992 RMK SC6SC1 TCU EMBD SLP131=
CYOW;2006-06-27 20:00;METAR CYOW 272000Z 25015G22KT 6SM -SHRA BR OVC030 20/19 A2994 RERA RMK SC8 CVCTV CLDS EMBD SLP139=
CYOW;2006-06-27 20:22;SPECI CYOW 272022Z 18007KT 6SM -TSRA BR OVC024 20/ RMK SC8 CB EMBD=
CYOW;2006-06-27 20:42;SPECI CYOW 272042Z 17006KT 6SM -SHRA BR OVC031 20/ RETS RMK SC8 CVCTV CLDS EMBD=
CYOW;2006-06-27 21:00;METAR CYOW 272100Z 18005KT 8SM -SHRA BKN030 OVC080 20/19 A2996 RETS RMK SC7AC1 CVCTV CLDS EMBD SLP147=
CYOW;2006-06-27 23:00;METAR CYOW 272300Z 17005KT 15SM -SHRA SCT005 SCT020 OVC120 20/19 A2995 RMK SF3SC1AC4 CVCTV CLDS EMBD SUN VISBL /R12/ SLP143=
CYOW;2006-06-27 23:35;SPECI CYOW 272335Z 18006KT 15SM FEW008 SCT020 OVC120 20/ RMK SF2SC2AC4=
CYOW;2006-06-27 23:46;SPECI CYOW 272346Z 18006KT 15SM -RA SCT008 SCT020 OVC120 20/ RMK SF3SC1AC4=
CYOW;2006-06-28 00:00;METAR CYOW 280000Z 20005KT 15SM -RA SCT008 BKN020 OVC120 20/19 A2998 RMK SF3SC2AC3 SLP153=
CYOW;2006-06-28 00:15;SPECI CYOW 280015Z 20007KT 12SM -RA OVC009 20/ RMK SC8 CIG RAG=
CYOW;2006-06-28 01:00;METAR CYOW 280100Z 18005KT 15SM -RA SCT007 BKN012 OVC120 20/19 A2999 RMK SF3SC2AC2 SLP156=
CYOW;2006-06-28 01:29;SPECI CYOW 280129Z 18006KT 15SM -RA FEW007 SCT090 OVC140 20/ RMK SF2AC2AC5 RA VRY LGT=
CYOW;2006-06-28 01:47;SPECI CYOW 280147Z 18006KT 15SM FEW008 FEW060 OVC130 20/ RMK CF1SC2AC6=
CYOW;2006-06-28 02:16;SPECI CYOW 280216Z 20005KT 15SM OVC009 20/ RMK SC8=
CYOW;2006-06-28 03:00;METAR CYOW 280300Z 21004KT 15SM OVC008 20/19 A3001 RMK SC8 SLP162=
CYOW;2006-06-28 04:00;METAR CYOW 280400Z 18003KT 12SM BKN007 OVC011 20/19 A3001 RMK CF6SC2 SLP162=
CYOW;2006-06-28 04:22;SPECI CYOW 280422Z 18006KT 12SM FEW009 OVC029 20/ RMK CF2SC6=
CYOW;2006-06-28 05:00;METAR CYOW 280500Z 19004KT 12SM FEW012 BKN020 OVC120 20/19 A3000 RMK SC2SC3AC3 SLP160=
CYOW;2006-06-28 06:00;METAR CYOW 280600Z 18003KT 15SM FEW007 BKN010 OVC110 20/18 A3000 RMK CF1SC6AC1 SLP159=
CYOW;2006-06-28 07:00;METAR CYOW 280700Z 16004KT 15SM SCT007 OVC011 19/18 A2999 RMK CF3SC5 SLP155=
CYOW;2006-06-28 08:22;SPECI CYOW 280822Z 15004KT 15SM FEW005 OVC060 19/ RMK CF1SC7=
CYOW;2006-06-28 09:00;METAR CYOW 280900Z 00000KT 15SM FEW005 SCT010 OVC086 18/18 A2999 RMK SF2SC2AC4 SLP156=
CYOW;2006-06-28 09:14;SPECI CYOW 280914Z 00000KT 15SM SCT007 OVC010 18/ RMK SF3SC5=
CYOW;2006-06-28 09:46;SPECI CYOW 280946Z 16004KT 15SM FEW007 FEW011 OVC070 18/ RMK CF1SC1AC6=
CYOW;2006-06-28 10:00;METAR CYOW 281000Z 16005KT 15SM FEW011 OVC070 18/18 A2999 RMK SC1AC7 SLP156=
CYOW;2006-06-28 11:00;METAR CYOW 281100Z 18004KT 15SM FEW010 OVC070 19/18 A3001 RMK SC1AC7 SLP162=
CYOW;2006-06-28 12:00;METAR CYOW 281200Z 20005KT 15SM BKN008 OVC040 20/18 A3001 RMK SC6SC2 SLP162=
CYOW;2006-06-28 13:00;METAR CYOW 281300Z 23005KT 10SM BKN010 OVC020 20/18 A3001 RMK SC5SC3 SLP162=
CYOW;2006-06-28 14:00;METAR CYOW 281400Z 24003KT 15SM BKN007 OVC020 21/19 A3000 RMK SC7SC1 SLP161=
CYOW;2006-06-28 15:00;METAR CYOW 281500Z 22003KT 15SM BKN010 OVC020 21/19 A3001 RMK SC6SC2 SLP161=
CYOW;2006-06-28 15:48;SPECI CYOW 281548Z 19003KT 15SM SCT015 OVC030 23/ RMK SC3SC5=
CYOW;2006-06-28 16:00;METAR CYOW 281600Z 22005KT 15SM FEW015 BKN030 OVC070 23/20 A3000 RMK SC2SC5AC1 SLP159=
CYOW;2006-06-28 17:00;METAR CYOW 281700Z 23003KT 15SM SCT020 BKN025 BKN070 24/20 A2999 RMK CU3SC2AC1 TCU EMBD SLP154=
CYOW;2006-06-28 18:00;METAR CYOW 281800Z 20002KT 15SM SCT020 BKN025 25/20 A2997 RMK CU3SC2 SLP148=
CYOW;2006-06-28 19:00;METAR CYOW 281900Z 21004KT 15SM SCT020 BKN025 27/20 A2996 RMK CU3SC2 SLP145=
CYOW;2006-06-28 20:00;METAR CYOW 282000Z 21005KT 15SM FEW020TCU FEW025 27/19 A2994 RMK TCU1CU2 SLP140=
CYOW;2006-06-28 21:00;METAR CYOW 282100Z 20006KT 15SM FEW020TCU SCT025 27/19 A2994 RMK TCU1CU2 SLP140=
CYOW;2006-06-28 22:00;METAR CYOW 282200Z 19007KT 15SM FEW040TCU FEW041 27/19 A2994 RMK TCU1CU2 TCU TR SLP137=
CYOW;2006-06-28 23:00;METAR CYOW 282300Z 22006KT 10SM FEW040TCU BKN220 27/19 A2995 RMK TCU2CI0 HZ SLP141=
CYOW;2006-06-29 00:00;METAR CYOW 290000Z 34007KT 15SM FEW040TCU FEW120 BKN220 23/17 A2996 RMK TCU2AC1CI2 AC TR TCU MOVG W-E SLP145=
CYOW;2006-06-29 01:00;METAR CYOW 290100Z 31008KT 15SM FEW030 BKN110 OVC230 21/16 A2997 RMK SC2AC4CI1 TCU ASOCTD SLP149=
CYOW;2006-06-29 03:00;METAR CYOW 290300Z 27004KT 15SM FEW190 OVC230 19/16 A2997 RMK AC2CI2 SLP150=
CYOW;2006-06-29 04:00;METAR CYOW 290400Z 22003KT 15SM OVC170 19/17 A2998 RMK AC8 SLP153=
CYOW;2006-06-29 05:00;METAR CYOW 290500Z 00000KT 15SM OVC170 20/17 A2998 RMK AC8 SLP152=
CYOW;2006-06-29 06:00;METAR CYOW 290600Z 00000KT 15SM OVC160 19/17 A2998 RMK AC8 SLP151=
CYOW;2006-06-29 07:00;METAR CYOW 290700Z 14002KT 15SM SCT140 OVC210 18/17 A2996 RMK AC3CI3 SLP147=
CYOW;2006-06-29 09:00;METAR CYOW 290900Z 22003KT 4SM BR SCT044 OVC130 19/18 A2995 RMK SC3AC5 SLP141=
CYOW;2006-06-29 09:22;SPECI CYOW 290922Z 18005KT 2 1/2SM BR FEW050 SCT170 OVC220 19/ RMK CU2AC2CI5=
CYOW;2006-06-29 10:00;METAR CYOW 291000Z 22004KT 2 1/2SM BR BKN045 OVC220 19/18 A2996 RMK SC5CI3 SLP144=
CYOW;2006-06-29 10:26;SPECI CYOW 291026Z 26002KT 2 1/2SM BR BKN006 OVC035 19/ RMK SC5SC3=
CYOW;2006-06-29 12:00;METAR CYOW 291200Z 23005KT 4SM BR BKN006 OVC035 20/18 A2996 RMK SC5SC3 SLP145=
CYOW;2006-06-29 13:00;METAR CYOW 291300Z 18005KT 4SM BR BKN006 BKN040TCU BKN120 20/18 A2995 RMK SF5TCU1AC1 SLP142=
CYOW;2006-06-29 14:00;METAR CYOW 291400Z 24005KT 4SM HZ BKN010 BKN030 22/19 A2995 RMK SF5CU2 SLP142=
CYOW;2006-06-29 14:20;SPECI CYOW 291420Z 23002KT 4SM TS HZ BKN013CB OVC030 22/ RMK CB5CU3=
CYOW;2006-06-29 14:28;SPECI CYOW 291428Z 27006KT 4SM -TSRA BR FEW012 BKN030CB 20/ RMK SF2CB5 OB LATE DUE TO POWER FAILURE=
CYOW;2006-06-29 14:49;SPECI CYOW 291449Z 27005KT 6SM TS HZ FEW012 SCT033CB SCT100 20/ RMK SF1CB2AC1=
CYOW;2006-06-29 15:00;METAR CYOW 291500Z 27005KT 6SM TS HZ FEW030CB SCT100 21/16 A2995 RMK CB2AC1 CB E SLP141=
CYOW;2006-06-29 15:28;SPECI CYOW 291528Z 29007KT 6SM HZ SCT030 SCT100 22/ RETS RMK CU3AC1=
CYOW;2006-06-29 17:00;METAR CYOW 291700Z 21006KT 10SM TS SCT040TCU BKN041 24/18 A2991 RMK TCU4SC3 CB EMBD SLP129=
CYOW;2006-06-29 17:26;SPECI CYOW 291726Z 23012KT 10SM SCT040 BKN041 26/ RETS RMK CU4SC2 TCU EMBD=
CYOW;2006-06-29 18:00;METAR CYOW 291800Z 23014KT 12SM SCT040 BKN041 26/17 A2989 RETS RMK CU3SC2 TCU EMBD SLP120=
CYOW;2006-06-29 18:37;SPECI CYOW 291837Z 21011KT 15SM TS FEW030CB SCT035TCU BKN140 26/ RMK CB2TCU2AS2 TS NW MOVG NE LTGICCG=
CYOW;2006-06-29 19:00;METAR CYOW 291900Z 22010G16KT 15SM BKN037 BKN140 25/17 A2990 RETS RMK SC6AS1 SHRA DIST N TCU EMBD SLP123=
CYOW;2006-06-29 19:17;SPECI CYOW 291917Z 29016KT 15SM -SHRA FEW030 BKN049 BKN092 22/ RMK SC2SC3AS2 TCU EMBD WSHFT 1912Z=
CYOW;2006-06-29 19:39;SPECI CYOW 291939Z 28008KT 12SM TS FEW035CB BKN045 BKN100 21/ RMK CB2SC3AS2 TS W MOVG NE LTGIC=
CYOW;2006-06-29 20:00;METAR CYOW 292000Z 25007G15KT 12SM TS FEW035CB BKN041 BKN110 20/16 A2993 RMK CB2SC3AS2 TS W LTGIC SLP133=
CYOW;2006-06-29 20:09;SPECI CYOW 292009Z 25012KT 6SM -TSRA SCT035CB BKN050 BKN100 19/ RMK CB3SC2AS1 LTGIC=
CYOW;2006-06-29 21:00;METAR CYOW 292100Z 21006KT 10SM -SHRA OVC048 17/14 A2995 RETS RMK SC8 CVCTV CLD EMBD RERA SLP142=
CYOW;2006-06-29 21:30;SPECI CYOW 292130Z 18003KT 15SM FEW035 BKN110 BKN250 18/ RMK SC2AC3CI1 SHRA DIST N=
CYOW;2006-06-29 22:00;METAR CYOW 292200Z 21006KT 12SM FEW030TCU FEW035 BKN120 BKN250 19/16 A2990 RMK TCU1SC1AC3CI0 SLP125=
CYOW;2006-06-29 23:00;METAR CYOW 292300Z 24007KT 15SM FEW040TCU FEW090 SCT120 BKN180 OVC250 20/15 A2990 RMK TCU1AC2AC2AC2CI1 TCU NW-NE SLP126=
CYOW;2006-06-30 00:00;METAR CYOW 300000Z 26003KT 15SM FEW040 SCT110 OVC240 19/16 A2991 RMK SC1AC3CI2 SLP130=
CYOW;2006-06-30 00:12;SPECI CYOW 300012Z 21003KT 15SM -RA FEW040 SCT090 BKN110 OVC240 19/ RMK SC1AC4AC1CI2 SC TR=
CYOW;2006-06-30 01:00;METAR CYOW 300100Z 27002KT 15SM FEW040 BKN090 BKN110 OVC240 18/16 A2991 RMK SC1AC4AC2CI1 SLP129=
CYOW;2006-06-30 01:09;SPECI CYOW 300109Z 28005KT 15SM TS SCT010 BKN044 BKN085 OVC240 18/ RMK SF3SC2AC2CI1 LTGIC CB EMBD=
CYOW;2006-06-30 01:47;SPECI CYOW 300147Z 27004KT 15SM -RA SCT084 OVC095 18/ RETS RMK AC3AC5=
CYOW;2006-06-30 02:00;METAR CYOW 300200Z 27004KT 15SM -RA OVC090 18/16 A2992 RETS RMK AC8 SLP133=
CYOW;2006-06-30 03:00;METAR CYOW 300300Z 00000KT 15SM FEW090 OVC120 17/15 A2990 RMK AC2AC6 SLP124=
CYOW;2006-06-30 04:00;METAR CYOW 300400Z 29005KT 15SM FEW010 BKN088 16/15 A2991 RMK SC1AC6 SC TR SLP127=
CYOW;2006-06-30 05:00;METAR CYOW 300500Z 28004KT 15SM BKN083 16/15 A2990 RMK AC7 SLP124=
CYOW;2006-06-30 06:00;METAR CYOW 300600Z 24004KT 15SM BKN064 16/14 A2989 RMK SC6 LTGCG W SLP123=
CYOW;2006-06-30 07:00;METAR CYOW 300700Z 25004KT 15SM FEW020 SCT060 BKN120 15/14 A2989 RMK SC1SC2AC4 SLP123=
CYOW;2006-06-30 07:37;SPECI CYOW 300737Z 30007KT 15SM SCT004 OVC030 15/ RMK SF3SC5=
CYOW;2006-06-30 08:03;SPECI CYOW 300803Z 34013KT 10SM -TSRA FEW005 OVC030 16/ RMK CF1SC8 CB EMBD=
CYOW;2006-06-30 08:49;SPECI CYOW 300849Z 01004KT 15SM FEW010 BKN060 OVC100 15/ RETS RMK SC1SC4AC3 LTGIC E=
CYOW;2006-06-30 09:00;METAR CYOW 300900Z 35003KT 15SM FEW010 SCT060 BKN100 OVC150 15/14 A2988 RETS RMK SC1SC2AC2AC3 LTGIC E SLP119=
CYOW;2006-06-30 09:36;SPECI CYOW 300936Z 29004KT 15SM -RA FEW015 SCT030 BKN090 OVC180 15/ RMK SC1SC2AC2AC2=
CYOW;2006-06-30 09:50;SPECI CYOW 300950Z 30002KT 12SM FEW008 BKN020 BKN080 OVC150 15/ RMK SF0SC5AC2AC1=
CYOW;2006-06-30 10:00;METAR CYOW 301000Z 26002KT 12SM FEW008 BKN020 BKN075 16/15 A2989 RMK CF1SC4AC2 SLP122=
CYOW;2006-06-30 10:12;SPECI CYOW 301012Z 29003KT 12SM BKN005 BKN030 BKN080 16/ RMK SC5SC2AC1=
CYOW;2006-06-30 11:00;METAR CYOW 301100Z 27005KT 12SM BKN007 OVC030 16/15 A2990 RMK SF7SC1 SLP125=
CYOW;2006-06-30 11:50;SPECI CYOW 301150Z 29004KT 15SM SCT011 BKN030 BKN100 17/ RMK SF3SC2AC1=
CYOW;2006-06-30 12:00;METAR CYOW 301200Z 27005KT 15SM FEW011 BKN030 BKN100 17/16 A2991 RMK SF2SC3AC1 SLP128=
CYOW;2006-06-30 13:00;METAR CYOW 301300Z 27007KT 15SM BKN013 OVC030 17/15 A2992 RMK SF5SC2 SLP132=
CYOW;2006-06-30 14:00;METAR CYOW 301400Z 27005KT 15SM BKN013 OVC030 18/16 A2991 RMK SF5SC3 SLP131=
CYOW;2006-06-30 16:00;METAR CYOW 301600Z 33009KT 15SM FEW015 BKN030 OVC070 16/14 A2993 RMK SF2SC3AC2 SLP135=
CYOW;2006-06-30 17:00;METAR CYOW 301700Z 31005KT 15SM FEW030 SCT090 18/13 A2991 RMK CU2AC2 SLP130=
CYOW;2006-06-30 18:00;METAR CYOW 301800Z 31007KT 20SM FEW030 FEW090 SCT240 20/14 A2990 RMK CU2AC1CI1 SLP125=
CYOW;2006-06-30 20:00;METAR CYOW 302000Z 26006KT 20SM FEW040 SCT090 BKN240 21/13 A2990 RMK CU2AC1CI1 SLP127=
CYOW;2006-06-30 21:00;METAR CYOW 302100Z 26010KT 20SM TS VCSH BKN036CB 21/13 A2990 RMK CB6 LTGCG SLP127=
CYOW;2006-06-30 21:12;SPECI CYOW 302112Z 26006KT 15SM -TSRA BKN036CB 19/ RMK CB6 TCU AND CU ASOCTD LTGCG=
CYOW;2006-06-30 21:40;SPECI CYOW 302140Z 27009KT 20SM VCSH SCT050TCU SCT240 19/ RETS RMK TCU3CI0 CB S=
CYOW;2006-07-01 00:00;METAR CYOW 010000Z 27006KT 20SM FEW050 19/13 A2993 RMK CU2 CB DIST S SLP137=
CYOW;2006-07-01 01:00;METAR CYOW 010100Z 26004KT 20SM FEW050 17/12 A2995 RMK SC2 SLP142=
CYOW;2006-07-01 02:00;METAR CYOW 010200Z 26004KT 15SM FEW050 16/12 A2996 RMK SC2 SLP148=
CYOW;2006-07-01 03:00;METAR CYOW 010300Z 24005KT 15SM FEW120 16/12 A2998 RMK AC2 SLP152=
CYOW;2006-07-01 04:00;METAR CYOW 010400Z 22004KT 15SM FEW110 15/12 A2998 RMK AC1 SLP154=
CYOW;2006-07-01 05:00;METAR CYOW 010500Z 22005KT 15SM SCT090 15/12 A2998 RMK AC3 SLP154=
CYOW;2006-07-01 06:00;METAR CYOW 010600Z 20005KT 15SM SCT100 15/12 A2997 RMK AC3 SLP151=
CYOW;2006-07-01 07:00;METAR CYOW 010700Z 22004KT 15SM SCT100 14/13 A2997 RMK AC4 SLP150=
CYOW;2006-07-01 08:00;METAR CYOW 010800Z 22004KT 15SM FEW100 14/13 A2996 RMK AC2 SLP148=
CYOW;2006-07-01 09:00;METAR CYOW 010900Z 21005KT 15SM FEW100 13/12 A2996 RMK AC1 SLP148=
CYOW;2006-07-01 10:00;METAR CYOW 011000Z 22005KT 15SM FEW100 14/12 A2997 RMK AC1 SLP151=
CYOW;2006-07-01 11:00;METAR CYOW 011100Z 23006KT 15SM SCT097 SCT220 15/13 A2998 RMK AC3CI0 SLP152=
CYOW;2006-07-01 12:00;METAR CYOW 011200Z 24005KT 15SM BKN100 16/14 A2999 RMK AC6 ACC ASOCTD SLP155=
CYOW;2006-07-01 13:00;METAR CYOW 011300Z 24007KT 15SM FEW050 FEW100 19/14 A2999 RMK SC2AC1 SLP156=
CYOW;2006-07-01 14:00;METAR CYOW 011400Z 25008KT 12SM FEW020 21/14 A2998 RMK CU1 SLP154=
CYOW;2006-07-01 15:00;METAR CYOW 011500Z 28010KT 12SM FEW020 FEW100 FEW240 23/16 A2998 RMK CU1AC1CI0 SLP152=
CYOW;2006-07-01 16:00;METAR CYOW 011600Z 26006KT 12SM FEW030 BKN240 24/16 A2997 RMK CU2CI1 SLP150=
CYOW;2006-07-01 17:00;METAR CYOW 011700Z 27011KT 12SM FEW040 BKN240 25/16 A2996 RMK CU2CI1 SLP147=
CYOW;2006-07-01 18:00;METAR CYOW 011800Z 28006KT 12SM FEW040 BKN210 BKN240 25/16 A2995 RMK CU2CI2CI2 SLP141=
CYOW;2006-07-01 19:00;METAR CYOW 011900Z 30005KT 12SM FEW040 FEW090 BKN240 25/17 A2994 RMK CU1AC1CS3 SLP138=
CYOW;2006-07-01 19:43;SPECI CYOW 011943Z 30011KT 10SM +SHRA BKN030TCU BKN240 23/ RMK TCU6CI1=
CYOW;2006-07-01 20:00;METAR CYOW 012000Z 26004KT 12SM VCSH SCT030TCU BKN240 24/19 A2994 RERA RMK TCU3CI1 TCU S SLP138=
CYOW;2006-07-01 21:00;METAR CYOW 012100Z 26004KT 12SM FEW040 SCT090 BKN240 25/17 A2991 RMK CU1AC2CI1 SLP130=
CYOW;2006-07-01 22:00;METAR CYOW 012200Z 18004KT 12SM FEW040 SCT090 BKN160 BKN240 25/18 A2990 RMK SC1AC2AC2CI1 SLP126=
CYOW;2006-07-01 22:36;SPECI CYOW 012236Z 14005KT 10SM -RA BKN060 BKN150 BKN240 23/ RMK SC5AC2CI1 RA VRY LGT HAZY=
CYOW;2006-07-01 23:00;METAR CYOW 012300Z 15005KT 10SM BKN065 BKN150 23/18 A2989 RMK SC6AC2=
CYOW;2006-07-02 00:00;METAR CYOW 020000Z 21005KT 12SM OVC110 23/16 A2990 RMK AC8 SLP125=
CYOW;2006-07-02 00:14;SPECI CYOW 020014Z 21005KT 12SM -RA BKN060 OVC120 22/ RMK SC6AC2=
CYOW;2006-07-02 00:25;SPECI CYOW 020025Z 21005KT 12SM FEW060 OVC120 22/ RMK SC2AC6=
CYOW;2006-07-02 02:00;METAR CYOW 020200Z 18006KT 12SM OVC110 22/14 A2986 RMK AS8 SLP111=
CYOW;2006-07-02 02:06;SPECI CYOW 020206Z 20005KT 12SM -RA OVC110 22/ RMK AS8 RA VRY LGT=
CYOW;2006-07-02 03:00;METAR CYOW 020300Z 18003KT 10SM -RA BKN047 OVC091 19/16 A2985 RMK SC6AC2 SLP107=
CYOW;2006-07-02 04:00;METAR CYOW 020400Z 17004KT 6SM -RA BR BKN029 OVC044 18/16 A2983 RERA RMK SC6SC2 SLP102=
CYOW;2006-07-02 04:18;SPECI CYOW 020418Z 18010KT 6SM TSRA BR BKN025CB OVC040 18/ RMK CB5SC3 LTGICCG=
CYOW;2006-07-02 05:32;SPECI CYOW 020532Z 16008KT 3SM -SHRA BR FEW003 BKN030 OVC060 17/ RETSRA RMK SF1SC5SC3 TCU EMBD SF TR=
CYOW;2006-07-02 06:00;METAR CYOW 020600Z 18008KT 5SM BR BKN050 OVC140 18/17 A2973 RETSRA RMK SC6AC2 SLP067=
CYOW;2006-07-02 06:54;SPECI CYOW 020654Z 16005KT 8SM -RA OVC076 18/ RMK AC8=
CYOW;2006-07-02 07:32;SPECI CYOW 020732Z 21005KT 8SM OVC054 19/ RERA RMK SC8=
CYOW;2006-07-02 08:00;METAR CYOW 020800Z 24005KT 8SM OVC053 19/18 A2968 RERA RMK SC8 SLP051=
CYOW;2006-07-02 09:00;METAR CYOW 020900Z 22007KT 8SM FEW015 FEW041 SCT110 20/19 A2968 RMK SC1SC2AC2 SLP050=
CYOW;2006-07-02 10:00;METAR CYOW 021000Z 22008KT 6SM BR FEW090 21/19 A2967 RMK AC1 SLP047=
CYOW;2006-07-02 11:00;METAR CYOW 021100Z 23010G16KT 5SM HZ FEW090 21/19 A2968 RMK AC1 SLP051=
CYOW;2006-07-02 12:00;METAR CYOW 021200Z 24013G18KT 8SM FEW012 FEW090 23/19 A2968 RMK CF1AC1 CLDS TR HAZY SLP049=
CYOW;2006-07-02 13:00;METAR CYOW 021300Z 23016G22KT 12SM FEW020 24/19 A2968 RMK CU2 SLP051=
CYOW;2006-07-02 14:00;METAR CYOW 021400Z 25017G24KT 15SM BKN030 25/18 A2970 RMK CU6 SLP055=
CYOW;2006-07-02 15:00;METAR CYOW 021500Z 26017G28KT 15SM BKN036 26/18 A2970 RMK CU6 SLP056=
CYOW;2006-07-02 16:00;METAR CYOW 021600Z 25013G25KT 15SM BKN040 27/18 A2969 RMK CU5 SLP055=
CYOW;2006-07-02 17:00;METAR CYOW 021700Z 25016G29KT 15SM BKN050 28/19 A2969 RMK CU5 SLP053=
CYOW;2006-07-02 18:00;METAR CYOW 021800Z 25015G22KT 15SM BKN050 BKN240 28/17 A2969 RMK CU5CI0 SLP052=
CYOW;2006-07-02 19:00;METAR CYOW 021900Z 27017G24KT 15SM BKN060 28/15 A2969 RMK CU5 SLP052=
CYOW;2006-07-02 21:00;METAR CYOW 022100Z 30015G20KT 15SM FEW063 SCT240 27/17 A2975 RMK CU2CI1 SLP073=
CYOW;2006-07-02 22:00;METAR CYOW 022200Z 30020G30KT 15SM FEW045 FEW120 FEW250 25/15 A2978 RMK SC1AC1CI0 SC AC TR SLP085=
CYOW;2006-07-03 00:00;METAR CYOW 030000Z 31017G24KT 20SM FEW040 FEW090 FEW250 22/13 A2987 RMK SC1AC1CI1 SC AC TR SLP113=
CYOW;2006-07-03 01:00;METAR CYOW 030100Z 32009KT 20SM FEW030 FEW080 FEW250 21/13 A2989 RMK SC1AC1CI1 SC AC TR SLP121=
CYOW;2006-07-03 03:00;METAR CYOW 030300Z 36004KT 15SM FEW250 19/14 A2994 RMK CI0 SLP138=
CYOW;2006-07-03 04:00;METAR CYOW 030400Z 02006KT 15SM FEW250 18/14 A2995 RMK CI0 SLP141=
CYOW;2006-07-03 06:00;METAR CYOW 030600Z 11002KT 15SM SCT250 16/13 A2997 RMK CI0 SLP150=
CYOW;2006-07-03 08:00;METAR CYOW 030800Z 19004KT 15SM BKN150 15/13 A2998 RMK AS3 SLP152=
CYOW;2006-07-03 09:00;METAR CYOW 030900Z 21002KT 20SM FEW090 SCT250 15/13 A3000 RMK AC1CI1 SLP158=
CYOW;2006-07-03 10:00;METAR CYOW 031000Z 14002KT 20SM FEW090 FEW250 14/13 A3000 RMK AC1CI0 AC TR SLP158=
CYOW;2006-07-03 11:00;METAR CYOW 031100Z 15004KT 20SM FEW100 FEW240 17/14 A3000 RMK AC1CI1 SLP158=
CYOW;2006-07-03 12:00;METAR CYOW 031200Z 17003KT 20SM FEW100 19/15 A3000 RMK ACC1 SLP158=
CYOW;2006-07-03 13:00;METAR CYOW 031300Z 19003KT 20SM SKC 21/16 A2999 RMK SLP157=
CYOW;2006-07-03 14:00;METAR CYOW 031400Z 19005KT 20SM FEW180 23/16 A2999 RMK AC2 SLP156=
CYOW;2006-07-03 15:00;METAR CYOW 031500Z 19005KT 20SM BKN110 24/16 A2998 RMK AC6 SLP153=
CYOW;2006-07-03 16:00;METAR CYOW 031600Z 20004KT 20SM FEW040 SCT110 26/17 A2998 RMK CU2AC2 SLP151=
CYOW;2006-07-03 17:00;METAR CYOW 031700Z 20005KT 15SM FEW040 SCT110 27/17 A2996 RMK CU2AC2 SLP144=
CYOW;2006-07-03 18:00;METAR CYOW 031800Z 21006KT 15SM FEW044 BKN110 28/17 A2995 RMK CU2AC2 SLP142=
CYOW;2006-07-03 19:00;METAR CYOW 031900Z 21006KT 15SM FEW050 FEW110 BKN240 28/16 A2993 RMK CU1AC1CI1 SLP134=
CYOW;2006-07-03 20:00;METAR CYOW 032000Z 22006KT 12SM FEW050 BKN240 28/17 A2991 RMK CU2CI1 SLP127=
CYOW;2006-07-03 21:00;METAR CYOW 032100Z 18007KT 12SM BKN060TCU BKN240 27/18 A2990 RMK TCU5CI2 SLP124=
CYOW;2006-07-03 21:14;SPECI CYOW 032114Z 20010G15KT 12SM -SHRA BKN050TCU OVC240 27/ RMK TCU6CI2=
CYOW;2006-07-03 21:34;SPECI CYOW 032134Z 18006KT 12SM SCT050TCU BKN090 BKN240 24/ RMK TCU3AC3CI0 SH E=
CYOW;2006-07-03 22:00;METAR CYOW 032200Z 21011G18KT 12SM FEW004 SCT030TCU BKN120 BKN240 24/19 A2989 RMK SF1TCU3AC3CC1 SHRA DIST NW-E SF TR SLP123=
CYOW;2006-07-03 22:13;SPECI CYOW 032213Z 22005KT 12SM TS FEW020CB SCT030 BKN072 BKN240 23/ RMK CB2SC2AC2CI1 TS N MOVG E LTGICCG=
CYOW;2006-07-03 22:27;SPECI CYOW 032227Z 28008KT 3SM -TSRA BKN026CB BKN070 BKN240 22/ RMK CB5AC2CI1 TS MOVG E LTGICCG VIS SE 15=
CYOW;2006-07-03 23:00;METAR CYOW 032300Z 03005KT 15SM FEW030TCU BKN075 BKN250 20/18 A2991 RETSRA RMK TCU2AC2CI2 SHRA DIST W AND NE QUAD SLP130=
CYOW;2006-07-04 00:00;METAR CYOW 040000Z 09004KT 15SM FEW025TCU SCT070 BKN250 20/18 A2990 RMK TCU2AC1CI2 SHRA DIST NNW SLP126=
CYOW;2006-07-04 01:00;METAR CYOW 040100Z 14003KT 15SM FEW025TCU FEW030 BKN210 BKN270 19/18 A2990 RMK TCU1SC1CS3CI1 SLP126=
CYOW;2006-07-04 02:00;METAR CYOW 040200Z 08003KT 12SM FEW025TCU FEW075 BKN210 20/18 A2991 RMK TCU1AC1CS4 OCNL LTNG DIST NNE SLP129=
CYOW;2006-07-04 03:00;METAR CYOW 040300Z 20003KT 12SM SCT160 BKN230 20/18 A2991 RMK AC3CI1 SLP127=
CYOW;2006-07-04 04:00;METAR CYOW 040400Z 19003KT 12SM OVC150 20/18 A2989 RMK AC7 SLP122=
CYOW;2006-07-04 05:00;METAR CYOW 040500Z 22004KT 12SM OVC130 21/18 A2988 RMK AS8 SLP120=
CYOW;2006-07-04 06:00;METAR CYOW 040600Z 23004KT 12SM BKN130 20/18 A2988 RMK AC7 SLP116=
CYOW;2006-07-04 07:00;METAR CYOW 040700Z 21005KT 12SM OVC140 20/18 A2988 RMK AC8 AS ASOCTD SLP116=
CYOW;2006-07-04 08:00;METAR CYOW 040800Z 19004KT 12SM BKN120 OVC170 19/18 A2988 RMK AC6AC1 SLP116=
CYOW;2006-07-04 09:13;SPECI CYOW 040913Z 15002KT 12SM BKN110 OVC170 19/ RMK AC6AS1=
CYOW;2006-07-04 10:00;METAR CYOW 041000Z 19003KT 12SM BKN100 BKN170 BKN250 19/17 A2988 RMK AC6AS1CI0 SLP118=
CYOW;2006-07-04 13:00;METAR CYOW 041300Z 21005KT 12SM FEW100 SCT180 23/19 A2988 RMK AC1AC1 SLP117=
CYOW;2006-07-04 14:00;METAR CYOW 041400Z 17005KT 12SM FEW020 FEW100 SCT170 23/19 A2986 RMK CU1AC1AC2 CU TR SLP111=
CYOW;2006-07-04 15:00;METAR CYOW 041500Z 17005KT 12SM FEW020 FEW100 BKN170 25/18 A2982 RMK CU1AC2AC2 SLP099=
CYOW;2006-07-04 16:00;METAR CYOW 041600Z 21007KT 15SM FEW020 FEW100 SCT170 26/18 A2982 RMK CU2AC1AC1 LO AC TR SLP096=
CYOW;2006-07-04 17:00;METAR CYOW 041700Z 18005KT 15SM SCT040 BKN070 OVC100 26/19 A2979 RMK SC4AC2AC1 CU ASOCTD SLP086=
CYOW;2006-07-04 18:00;METAR CYOW 041800Z 19005KT 15SM FEW030 SCT040 BKN130 26/18 A2976 RMK CU2SC2AC2 TCU EMBD SLP077=
CYOW;2006-07-04 18:06;SPECI CYOW 041806Z 19009KT 15SM -SHRA FEW030 SCT040 BKN130 26/ RMK CU2SC2AC2 TCU EMBD=
CYOW;2006-07-04 18:20;SPECI CYOW 041820Z 20009KT 12SM FEW030 FEW040 BKN130 26/ RMK CU2SC1AC4 TCU EMBD=
CYOW;2006-07-04 19:00;METAR CYOW 041900Z 21010G15KT 12SM FEW030 SCT040 OVC130 25/20 A2975 RMK CU2SC2AC4 TCU EMBD SLP074=
CYOW;2006-07-04 21:00;METAR CYOW 042100Z 24011G19KT 10SM FEW030 BKN040 BKN130 25/19 A2973 RMK CU2SC2AC2 TCU EMBD HAZY SLP068=
CYOW;2006-07-04 22:00;METAR CYOW 042200Z 30009KT 12SM FEW030 SCT120 23/18 A2975 RMK CU1AC2 SLP073=
CYOW;2006-07-04 23:00;METAR CYOW 042300Z 31005KT 15SM FEW050TCU SCT120 BKN220 22/17 A2975 RMK TCU1AC2CI3 SLP073=
CYOW;2006-07-04 23:51;SPECI CYOW 042351Z 21004KT 15SM -RA FEW050TCU FEW120 BKN140 BKN250 22/ RMK TCU1AC1AC3CI1=
CYOW;2006-07-05 00:00;METAR CYOW 050000Z 26004KT 15SM FEW050 FEW120 SCT150 BKN220 BKN250 22/18 A2975 RMK SC1AC1AC2CI2CI1 TCU SE-S SLP074=
CYOW;2006-07-05 01:00;METAR CYOW 050100Z 27003KT 15SM FEW050 FEW120 SCT220 20/18 A2976 RMK SC1AC1CI2 SLP078=
CYOW;2006-07-05 03:00;METAR CYOW 050300Z 31007KT 15SM FEW050 BKN068 BKN120 OVC240 20/18 A2979 RMK SC1AC5AC2CI2 SC TR SLP086=
CYOW;2006-07-05 04:00;METAR CYOW 050400Z 20005KT 15SM SCT080 19/18 A2978 RMK AC3 SLP084=
CYOW;2006-07-05 05:00;METAR CYOW 050500Z 24005KT 15SM FEW090 18/17 A2979 RMK AC2 SLP086=
CYOW;2006-07-05 06:00;METAR CYOW 050600Z 25002KT 15SM BKN250 17/16 A2980 RMK CI0 SLP090=
CYOW;2006-07-05 07:00;METAR CYOW 050700Z 27009KT 15SM FEW120 17/15 A2980 RMK AC1 SLP090=
CYOW;2006-07-05 08:00;METAR CYOW 050800Z 27008KT 15SM BKN073 17/15 A2981 RMK AC5 SLP093=
CYOW;2006-07-05 09:00;METAR CYOW 050900Z 30006KT 15SM FEW010 BKN050 16/15 A2982 RMK CF1SC6 SLP100=
CYOW;2006-07-05 09:05;SPECI CYOW 050905Z 29008KT 15SM BKN010 OVC050 16/ RMK SC7SC1=
CYOW;2006-07-05 09:22;SPECI CYOW 050922Z 29011KT 12SM OVC008 16/ RMK SC8=
CYOW;2006-07-05 10:00;METAR CYOW 051000Z 28008KT 12SM BKN008 BKN064 16/15 A2985 RMK SC5SC2 SLP107=
CYOW;2006-07-05 11:00;METAR CYOW 051100Z 30009KT 15SM SCT010 OVC017 17/15 A2987 RMK SC4SC3 SLP114=
CYOW;2006-07-05 12:00;METAR CYOW 051200Z 29008KT 15SM FEW010 BKN019 BKN090 17/14 A2989 RMK SC2SC4AC2 SLP121=
CYOW;2006-07-05 14:00;METAR CYOW 051400Z 29009KT 15SM BKN034 18/14 A2991 RMK SC6 SLP128=
CYOW;2006-07-05 15:00;METAR CYOW 051500Z 29012G17KT 15SM BKN035 BKN036 19/13 A2992 RMK CU5SC2 SLP131=
CYOW;2006-07-05 16:00;METAR CYOW 051600Z 30012G17KT 15SM BKN042 20/12 A2993 RMK SC7 CU EMBD SLP135=
CYOW;2006-07-05 17:00;METAR CYOW 051700Z 31010G15KT 20SM BKN042 BKN250 20/13 A2993 RMK SC6CI1 CI TR SLP135=
CYOW;2006-07-05 18:00;METAR CYOW 051800Z 29012G17KT 20SM FEW037 SCT045 BKN250 20/12 A2993 RMK CU2SC2CI0 SLP135=
CYOW;2006-07-06 20:00;METAR CYOW 062000Z 30010KT 15SM FEW040 SCT060 22/13 A3009 RMK CU2SC2 SLP191=
CYOW;2006-07-06 21:00;METAR CYOW 062100Z 30011KT 15SM FEW040 BKN060 OVC070 21/13 A3009 RMK CU2SC3AC2 SLP192=
CYOW;2006-07-06 22:00;METAR CYOW 062200Z 29012G17KT 15SM FEW040 BKN064 21/12 A3009 RMK CU1SC5 SLP192=
CYOW;2006-07-06 23:00;METAR CYOW 062300Z 31011KT 20SM FEW045 FEW070 SCT250 21/12 A3010 RMK CU1AC2CI0 SLP195=
CYOW;2006-07-07 00:00;METAR CYOW 070000Z 31008KT 20SM FEW070 BKN250 20/12 A3012 RMK AC1CI0 SLP199=
CYOW;2006-07-07 01:00;METAR CYOW 070100Z 31006KT 20SM FEW180 OVC250 18/12 A3013 RMK AC1CI2 AC TR SLP204=
CYOW;2006-07-07 03:00;METAR CYOW 070300Z 24004KT 15SM SKC 17/13 A3016 RMK SLP216=
CYOW;2006-07-07 04:00;METAR CYOW 070400Z 22003KT 15SM SKC 17/13 A3017 RMK SLP219=
CYOW;2006-07-07 05:00;METAR CYOW 070500Z 24002KT 15SM SKC 16/13 A3017 RMK SLP219=
CYOW;2006-07-07 06:00;METAR CYOW 070600Z 24003KT 15SM SKC 15/13 A3017 RMK SLP219=
CYOW;2006-07-07 07:00;METAR CYOW 070700Z 25004KT 15SM SKC 15/12 A3018 RMK SLP220=
CYOW;2006-07-07 08:00;METAR CYOW 070800Z 23002KT 15SM SKC 15/13 A3018 RMK SLP221=
CYOW;2006-07-07 09:00;METAR CYOW 070900Z 27004KT 15SM SCT250 14/12 A3019 RMK CI1 SLP225=
CYOW;2006-07-07 10:00;METAR CYOW 071000Z 25004KT 15SM SCT250 14/12 A3020 RMK CI1 SLP228=
CYOW;2006-07-07 11:00;METAR CYOW 071100Z 26004KT 15SM FEW250 15/13 A3021 RMK CI0 SLP230=
CYOW;2006-07-07 12:00;METAR CYOW 071200Z 29005KT 15SM FEW250 17/14 A3022 RMK CI0 SLP235=
CYOW;2006-07-07 13:00;METAR CYOW 071300Z 26006KT 15SM SKC 19/15 A3022 RMK HAZY SLP236=
CYOW;2006-07-07 14:00;METAR CYOW 071400Z 26005KT 15SM SKC 21/16 A3023 RMK HAZY SLP239=
CYOW;2006-07-07 15:00;METAR CYOW 071500Z 27006KT 15SM SKC 23/15 A3022 RMK HAZY SLP236=
CYOW;2006-07-07 16:00;METAR CYOW 071600Z 26005KT 15SM SKC 24/14 A3022 RMK HAZY SLP236=
CYOW;2006-07-07 17:00;METAR CYOW 071700Z 27008KT 15SM FEW045 26/14 A3021 RMK CU1 CU TR SLP232=
CYOW;2006-07-07 19:00;METAR CYOW 071900Z 27008KT 15SM SCT240 27/13 A3019 RMK CI0 SLP224=
CYOW;2006-07-07 20:00;METAR CYOW 072000Z 25009KT 15SM FEW250 28/13 A3018 RMK CI0 SLP221=
CYOW;2006-07-07 21:00;METAR CYOW 072100Z 27006KT 15SM FEW250 28/13 A3017 RMK CI0 SLP217=
CYOW;2006-07-07 22:00;METAR CYOW 072200Z 27004KT 15SM FEW220 28/13 A3017 RMK CI0 SLP217=
CYOW;2006-07-07 23:00;METAR CYOW 072300Z 22003KT 15SM FEW250 27/14 A3017 RMK CI0 SLP216=
CYOW;2006-07-08 00:00;METAR CYOW 080000Z 21004KT 15SM FEW250 25/15 A3017 RMK CI0 SLP218=
CYOW;2006-07-08 01:00;METAR CYOW 080100Z 20004KT 15SM FEW250 22/17 A3019 RMK CI0 SLP223=
CYOW;2006-07-08 03:00;METAR CYOW 080300Z 20004KT 15SM SKC 20/16 A3021 RMK SLP229=
CYOW;2006-07-08 04:00;METAR CYOW 080400Z 19005KT 15SM SKC 19/16 A3021 RMK SLP230=
CYOW;2006-07-08 06:00;METAR CYOW 080600Z 20004KT 15SM SKC 17/16 A3020 RMK SLP226=
CYOW;2006-07-08 07:00;METAR CYOW 080700Z 23003KT 15SM SKC 17/15 A3019 RMK SLP225=
CYOW;2006-07-08 08:00;METAR CYOW 080800Z 24004KT 15SM SKC 17/15 A3019 RMK SLP224=
CYOW;2006-07-08 09:00;METAR CYOW 080900Z 23006KT 15SM FEW250 17/15 A3020 RMK CI1 SLP226=
CYOW;2006-07-08 10:00;METAR CYOW 081000Z 20004KT 12SM BKN250 16/15 A3021 RMK CI2 SLP229=
CYOW;2006-07-08 11:00;METAR CYOW 081100Z 20004KT 12SM BKN250 16/15 A3022 RMK CI2 SLP233=
CYOW;2006-07-08 12:00;METAR CYOW 081200Z 20003KT 12SM BKN250 18/15 A3023 RMK CI2 SLP237=
CYOW;2006-07-08 13:00;METAR CYOW 081300Z 21004KT 12SM BKN250 21/15 A3022 RMK CI1 SLP234=
CYOW;2006-07-08 14:00;METAR CYOW 081400Z 21006KT 12SM SCT250 23/15 A3021 RMK CI1 SLP230=
CYOW;2006-07-08 15:00;METAR CYOW 081500Z 24007KT 12SM FEW250 25/15 A3019 RMK CI1 SLP223=
CYOW;2006-07-08 16:00;METAR CYOW 081600Z 27004KT 12SM FEW250 26/15 A3018 RMK CI1 SLP219=
CYOW;2006-07-08 18:00;METAR CYOW 081800Z 22007KT 12SM FEW040 28/14 A3013 RMK CU2 SLP201=
CYOW;2006-07-08 19:00;METAR CYOW 081900Z 20009KT 12SM SCT060 28/15 A3011 RMK CU3 SLP196=
CYOW;2006-07-08 21:00;METAR CYOW 082100Z 23007KT 12SM FEW060 28/15 A3007 RMK CU2 SLP181=
CYOW;2006-07-08 22:00;METAR CYOW 082200Z 21007KT 12SM FEW060 28/15 A3005 RMK CU1 CU TR SLP176=
CYOW;2006-07-08 23:00;METAR CYOW 082300Z 21008G15KT 12SM FEW075 FEW250 26/16 A3003 RMK AC1CI0 AC TR SLP170=
CYOW;2006-07-09 00:00;METAR CYOW 090000Z 20006KT 12SM FEW250 25/15 A3003 RMK CI0 SLP170=
CYOW;2006-07-09 01:00;METAR CYOW 090100Z 19006KT 15SM FEW250 23/15 A3003 RMK CI0 SLP168=
CYOW;2006-07-09 02:00;METAR CYOW 090200Z 20007KT 15SM FEW250 22/15 A3003 RMK CI0 SLP168=
CYOW;2006-07-09 04:00;METAR CYOW 090400Z 20004KT 12SM SKC 19/15 A3001 RMK SLP161=
CYOW;2006-07-09 07:00;METAR CYOW 090700Z 00000KT 12SM SKC 17/14 A2997 RMK SLP149=
CYOW;2006-07-09 09:00;METAR CYOW 090900Z 20003KT 12SM FEW080 FEW250 16/13 A2995 RMK AC1CI0 SLP143=
CYOW;2006-07-09 10:00;METAR CYOW 091000Z 23002KT 12SM SCT070 SCT250 16/13 A2996 RMK AC3CI0 SLP144=
CYOW;2006-07-09 11:00;METAR CYOW 091100Z 21003KT 12SM FEW070 17/14 A2995 RMK AC2 SLP143=
CYOW;2006-07-09 12:00;METAR CYOW 091200Z 22007KT 12SM FEW120 19/14 A2995 RMK AC1 SLP142=
CYOW;2006-07-09 13:00;METAR CYOW 091300Z 21006KT 12SM FEW120 21/15 A2995 RMK AC1 SLP142=
CYOW;2006-07-09 14:00;METAR CYOW 091400Z 22006KT 12SM FEW050 FEW180 23/16 A2995 RMK SC1AC1 SLP141=
CYOW;2006-07-09 15:00;METAR CYOW 091500Z 22004KT 12SM FEW036 FEW180 FEW240 25/16 A2994 RMK CU1AC1CI0 TR CU SLP139=
CYOW;2006-07-09 16:00;METAR CYOW 091600Z 23010KT 12SM FEW044 SCT180 27/16 A2993 RMK CU2AC1 SLP136=
CYOW;2006-07-09 18:00;METAR CYOW 091800Z 20010G18KT 15SM SCT050 SCT240 27/15 A2991 RMK CU3CI0 SLP130=
CYOW;2006-07-09 19:00;METAR CYOW 091900Z 22011G16KT 15SM SCT060 BKN150 BKN240 28/16 A2990 RMK CU3AC2CI0 SLP126=
CYOW;2006-07-09 20:00;METAR CYOW 092000Z 21008KT 12SM FEW060 BKN150 28/16 A2989 RMK CU2AC3 SLP121=
CYOW;2006-07-09 21:00;METAR CYOW 092100Z 20012KT 12SM FEW058 BKN140 27/16 A2988 RMK CU2AC4 SLP117=
CYOW;2006-07-09 22:00;METAR CYOW 092200Z 20009KT 12SM FEW057 SCT140 BKN180 27/16 A2987 RMK CU2AC2AC3 SLP115=
CYOW;2006-07-09 23:00;METAR CYOW 092300Z 22008KT 12SM FEW050 BKN130 BKN250 26/15 A2988 RMK CU1AC5CC1 CU TR SLP117=
CYOW;2006-07-10 00:00;METAR CYOW 100000Z 20008KT 12SM FEW100 BKN140 BKN250 25/16 A2988 RMK AS2AC3CI1 SLP119=
CYOW;2006-07-10 01:00;METAR CYOW 100100Z 20006KT 12SM BKN140 BKN250 24/15 A2988 RMK AC6CI0 SLP119=
CYOW;2006-07-10 03:00;METAR CYOW 100300Z 18004KT 12SM FEW040 BKN150 21/16 A2989 RMK SC1AC6 SLP121=
CYOW;2006-07-10 04:00;METAR CYOW 100400Z 17005KT 12SM FEW070 BKN150 BKN250 21/15 A2988 RMK AC1AC6CI0 SLP119=
CYOW;2006-07-10 05:00;METAR CYOW 100500Z 18004KT 10SM SCT070 OVC087 20/15 A2989 RMK AC3AC5 SLP120=
CYOW;2006-07-10 06:00;METAR CYOW 100600Z 18006KT 10SM BKN067 OVC130 20/15 A2988 RMK AC6AC2 SLP118=
CYOW;2006-07-10 09:00;METAR CYOW 100900Z 23003KT 10SM BKN100 BKN250 20/15 A2989 RMK AC6CI0 SLP121=
CYOW;2006-07-10 10:00;METAR CYOW 101000Z 19003KT 10SM SCT100 BKN220 BKN260 19/16 A2989 RMK AC3CS2CI1 SLP122=
CYOW;2006-07-10 12:00;METAR CYOW 101200Z 20005KT 5SM HZ FEW140 BKN240 20/17 A2991 RMK AC2CS5 SLP130=
CYOW;2006-07-10 13:00;METAR CYOW 101300Z 20006KT 4SM HZ SCT120 21/17 A2992 RMK AC4 SLP131=
CYOW;2006-07-10 14:00;METAR CYOW 101400Z 21006KT 4SM HZ SCT090 23/18 A2992 RMK AC3 SLP131=
CYOW;2006-07-10 15:00;METAR CYOW 101500Z 18006KT 4SM HZ FEW020 FEW240 25/18 A2992 RMK CU1CI1 TR CU SLP131=
CYOW;2006-07-10 16:00;METAR CYOW 101600Z 17005KT 5SM HZ FEW030 26/19 A2992 RMK CU2 SLP131=
CYOW;2006-07-10 17:00;METAR CYOW 101700Z 18008KT 5SM HZ BKN033 BKN130 26/18 A2992 RMK CU6AC2 SLP131=
CYOW;2006-07-10 18:00;METAR CYOW 101800Z 22009KT 5SM HZ BKN033 27/18 A2991 RMK CU5 SLP128=
CYOW;2006-07-10 19:00;METAR CYOW 101900Z 19008KT 5SM HZ BKN040 27/18 A2991 RMK CU6 TCU ASOCTD SLP126=
CYOW;2006-07-10 20:00;METAR CYOW 102000Z 22009KT 5SM HZ BKN040 27/17 A2991 RMK CU5 SLP127=
CYOW;2006-07-10 22:00;METAR CYOW 102200Z 20006KT 12SM FEW040 BKN140 BKN250 25/17 A2993 RMK CU1AC5CC2 CU TR SLP133=
CYOW;2006-07-10 23:00;METAR CYOW 102300Z 18009KT 12SM FEW040 SCT130 BKN250 25/18 A2993 RMK CU1AC4CI2 CU TR SLP134=
CYOW;2006-07-11 00:00;METAR CYOW 110000Z 18003KT 10SM SCT120 BKN250 24/18 A2994 RMK AC3CS2 SLP137=
CYOW;2006-07-11 01:00;METAR CYOW 110100Z 14003KT 10SM SCT070 SCT150 OVC250 22/18 A2994 RMK AC3AC1CS2 SLP139=
CYOW;2006-07-11 02:00;METAR CYOW 110200Z 25008KT 10SM -RA SCT040 OVC065 21/17 A2998 RMK SC3SC5 SLP152=
CYOW;2006-07-11 03:00;METAR CYOW 110300Z 00000KT 12SM FEW100 OVC140 20/17 A2997 RETS RMK AC2AC6 SLP150=
CYOW;2006-07-11 04:00;METAR CYOW 110400Z 15003KT 12SM BKN130 19/17 A2999 RMK AC7 SLP155=
CYOW;2006-07-11 05:00;METAR CYOW 110500Z 11004KT 12SM FEW140 SCT250 18/16 A2996 RMK AC2CI0 SLP146=
CYOW;2006-07-11 06:00;METAR CYOW 110600Z 16003KT 10SM SCT150 BKN250 18/16 A2997 RMK AC3CI2 SLP150=
CYOW;2006-07-11 07:00;METAR CYOW 110700Z 14003KT 10SM FEW011 SCT150 BKN250 17/16 A2999 RMK SC1AC2CI1 SLP154=
CYOW;2006-07-11 07:52;SPECI CYOW 110752Z 13002KT 10SM BKN010 BKN120 17/ RMK SC6AC1=
CYOW;2006-07-11 08:21;SPECI CYOW 110821Z 18003KT 10SM FEW009 SCT150 BKN250 17/ RMK SC2AC2CI1=
CYOW;2006-07-11 09:00;METAR CYOW 110900Z 16004KT 8SM FEW009 FEW040 SCT150 BKN220 17/16 A2999 RMK SC1SC1AC2CI0 SLP154=
CYOW;2006-07-11 10:00;METAR CYOW 111000Z 14004KT 6SM BR FEW040 SCT120 BKN250 17/16 A3000 RMK SC2AC1CI0 SLP158=
CYOW;2006-07-11 11:00;METAR CYOW 111100Z 18003KT 12SM BKN046 18/17 A3001 RMK SC6 SLP162=
CYOW;2006-07-11 12:00;METAR CYOW 111200Z 18005KT 8SM BKN007 OVC020 19/17 A3002 RMK SC6SC2 SLP164=
CYOW;2006-07-11 13:00;METAR CYOW 111300Z 18004KT 10SM BKN009 OVC020 20/18 A3002 RMK SC6SC2 SLP167=
CYOW;2006-07-11 15:00;METAR CYOW 111500Z 24003KT 12SM BKN014 OVC060 22/18 A3003 RMK SC5SC2 SLP170=
CYOW;2006-07-11 16:00;METAR CYOW 111600Z 25004KT 15SM FEW014 SCT060 OVC071 22/17 A3004 RMK SC2SC2AC4 SLP172=
CYOW;2006-07-11 17:00;METAR CYOW 111700Z 02002KT 15SM FEW020 SCT030 SCT080 24/18 A3003 RMK CU2SC2AC1 SLP170=
CYOW;2006-07-11 18:00;METAR CYOW 111800Z 28003KT 15SM FEW025TCU SCT030 SCT080 25/17 A3003 RMK TCU2SC2AC1 SLP170=
CYOW;2006-07-11 19:00;METAR CYOW 111900Z 23005KT 15SM BKN031 25/17 A3003 RMK CU5 TCU EMBD SLP168=
CYOW;2006-07-11 20:00;METAR CYOW 112000Z 27006KT 15SM BKN037 26/17 A3002 RMK SC6 CU ASOCTD SLP167=
CYOW;2006-07-11 21:00;METAR CYOW 112100Z 29008KT 15SM BKN037 BKN070 26/17 A3003 RMK SC5AC1 CU ASOCTD SLP168=
CYOW;2006-07-11 22:00;METAR CYOW 112200Z 27005KT 15SM SCT040 26/18 A3002 RMK CU3 TCU EMBD SLP167=
CYOW;2006-07-11 23:00;METAR CYOW 112300Z 30007KT 15SM FEW040 BKN250 26/17 A3003 RMK CU2CI2 TCU E-S CC ASOCTD SLP168=
CYOW;2006-07-12 00:00;METAR CYOW 120000Z 25002KT 15SM FEW040 OVC250 25/18 A3003 RMK CU1CI3 CU TR SLP170=
CYOW;2006-07-12 01:00;METAR CYOW 120100Z 25003KT 15SM FEW035 FEW080 OVC250 23/18 A3004 RMK CF1AC1CI2 CUFRA TR SLP173=
CYOW;2006-07-12 02:00;METAR CYOW 120200Z 22003KT 15SM OVC250 23/18 A3006 RMK CI5 SLP179=
CYOW;2006-07-12 03:00;METAR CYOW 120300Z 18004KT 15SM OVC250 21/18 A3006 RMK CI3 SLP179=
CYOW;2006-07-12 04:00;METAR CYOW 120400Z 20004KT 15SM OVC250 21/19 A3006 RMK CI6 SLP180=
CYOW;2006-07-12 06:00;METAR CYOW 120600Z 21004KT 12SM OVC240 20/18 A3006 RMK CI0 SLP178=
CYOW;2006-07-12 07:00;METAR CYOW 120700Z 20003KT 10SM OVC240 19/18 A3005 RMK CI3 SLP176=
CYOW;2006-07-12 08:00;METAR CYOW 120800Z 00000KT 8SM BKN240 18/18 A3005 RMK CI5 SLP174=
CYOW;2006-07-12 09:00;METAR CYOW 120900Z 18004KT 4SM BR BKN220 OVC250 18/17 A3005 RMK CI5CI0 SLP177=
CYOW;2006-07-12 10:00;METAR CYOW 121000Z 16002KT 4SM BR BKN220 OVC250 18/17 A3005 RMK CI6CI0 SLP177=
CYOW;2006-07-12 11:00;METAR CYOW 121100Z 15002KT 4SM BR BKN220 OVC250 18/17 A3006 RMK CI6CI0 SLP180=
CYOW;2006-07-12 12:00;METAR CYOW 121200Z 13003KT 4SM BR BKN200 OVC250 19/18 A3005 RMK CI6CI2 SLP177=
CYOW;2006-07-12 13:00;METAR CYOW 121300Z 14002KT 6SM BR FEW180 BKN200 OVC240 20/18 A3005 RMK AC2CI6CI1 SLP177=
CYOW;2006-07-12 14:00;METAR CYOW 121400Z 12003KT 10SM FEW180 BKN200 OVC240 21/19 A3004 RMK AC2CI6CI1 SLP173=
CYOW;2006-07-12 15:00;METAR CYOW 121500Z 09003KT 15SM BKN150 OVC200 22/19 A3004 RMK AC5CI3 SLP172=
CYOW;2006-07-12 16:00;METAR CYOW 121600Z 08003KT 15SM BKN140 OVC200 22/19 A3002 RMK AC6CI2 SLP166=
CYOW;2006-07-12 16:48;SPECI CYOW 121648Z 10004KT 15SM -RA SCT050 OVC120 22/ RMK SC3AC5 VRY LGT RA=
CYOW;2006-07-12 17:00;METAR CYOW 121700Z 07004KT 15SM -RA SCT050 BKN080 OVC120 22/19 A3001 RMK SC3AC3AC2 VRY LGT RA SLP162=
CYOW;2006-07-12 18:00;METAR CYOW 121800Z 09003KT 15SM -RA BKN036 OVC070 22/19 A2999 RMK SC5AC3 VRY LGT RA SLP157=
CYOW;2006-07-12 19:00;METAR CYOW 121900Z 09006KT 15SM -RA SCT050 OVC120 22/20 A2998 RMK SC3AC5 SLP153=
CYOW;2006-07-12 19:46;SPECI CYOW 121946Z 07009KT 15SM FEW050 OVC130 23/ RMK SC2AC6=
CYOW;2006-07-12 20:00;METAR CYOW 122000Z 08006KT 15SM FEW050 OVC120 23/20 A2997 RMK SC2AC6 SLP149=
CYOW;2006-07-12 21:00;METAR CYOW 122100Z 09007KT 15SM FEW050 OVC140 24/19 A2996 RMK SC2AC6 SLP144=
CYOW;2006-07-12 22:00;METAR CYOW 122200Z 08006KT 15SM FEW050 OVC140 23/19 A2994 RMK SC2AC5 SLP139=
CYOW;2006-07-12 23:00;METAR CYOW 122300Z 07008KT 15SM FEW040 BKN140 BKN240 23/19 A2992 RMK CU1AC4CI2 SLP131=
CYOW;2006-07-13 00:00;METAR CYOW 130000Z 05005KT 15SM FEW020 SCT190 BKN240 23/19 A2991 RMK CF1AC3CI1 CUFRA TR SLP130=
CYOW;2006-07-13 01:00;METAR CYOW 130100Z 04006KT 15SM SCT150 22/17 A2992 RMK AC3 TCU N SLP133=
CYOW;2006-07-13 02:00;METAR CYOW 130200Z 04005KT 15SM FEW170 21/17 A2994 RMK AC2 SLP138=
CYOW;2006-07-13 03:00;METAR CYOW 130300Z 02006KT 15SM FEW180 20/17 A2993 RMK AC1 SLP136=
CYOW;2006-07-13 04:00;METAR CYOW 130400Z 01005KT 15SM SKC 19/17 A2993 RMK SLP135=
CYOW;2006-07-13 05:00;METAR CYOW 130500Z 35005KT 15SM SKC 19/17 A2993 RMK SLP134=
CYOW;2006-07-13 06:00;METAR CYOW 130600Z 36003KT 15SM SKC 19/16 A2993 RMK SLP136=
CYOW;2006-07-13 07:00;METAR CYOW 130700Z 33007KT 15SM SKC 17/16 A2994 RMK SLP137=
CYOW;2006-07-13 08:00;METAR CYOW 130800Z 32005KT 12SM SKC 17/16 A2994 RMK SLP137=
CYOW;2006-07-13 09:00;METAR CYOW 130900Z 31006KT 8SM FEW240 17/16 A2994 RMK CI1 SLP137=
CYOW;2006-07-13 10:00;METAR CYOW 131000Z 31005KT 4SM BR FEW240 18/17 A2994 RMK CI1 SLP140=
CYOW;2006-07-13 11:00;METAR CYOW 131100Z 32004KT 10SM FEW240 20/19 A2996 RMK CI0 SLP145=
CYOW;2006-07-13 12:00;METAR CYOW 131200Z 32005KT 10SM FEW240 22/19 A2996 RMK CI0 SLP146=
CYOW;2006-07-13 13:00;METAR CYOW 131300Z 02004KT 15SM FEW240 24/19 A2998 RMK CI1 CI TR SLP153=
CYOW;2006-07-13 14:00;METAR CYOW 131400Z 04002KT 15SM FEW040 26/19 A2999 RMK CU1 CU TR SLP157=
CYOW;2006-07-13 15:00;METAR CYOW 131500Z 35003KT 15SM FEW040 SCT190 27/19 A2997 RMK CU2AC1 SLP150=
CYOW;2006-07-13 16:00;METAR CYOW 131600Z 05002KT 15SM FEW040 SCT090 BKN180 28/19 A2996 RMK CU2AC2AC1 SLP147=
CYOW;2006-07-13 17:00;METAR CYOW 131700Z 31002KT 15SM FEW040 SCT090 BKN180 29/20 A2995 RMK CU2AC2AC1 TCU EMBD SLP142=
CYOW;2006-07-13 20:00;METAR CYOW 132000Z 23004KT 12SM FEW044TCU SCT048 BKN071 30/19 A2994 RMK TCU2CU2AC2 SLP136=
CYOW;2006-07-13 21:00;METAR CYOW 132100Z 25008KT 12SM FEW050TCU FEW055 SCT086 30/17 A2993 RMK TCU1CU1AC2 SLP133=
CYOW;2006-07-13 22:00;METAR CYOW 132200Z 20005KT 12SM FEW055 FEW080 FEW250 30/19 A2992 RMK CU1AC1CI0 SLP130=
CYOW;2006-07-13 23:00;METAR CYOW 132300Z 21005KT 15SM FEW060 SCT090 29/19 A2992 RMK CU2AC1 SLP130=
CYOW;2006-07-14 00:00;METAR CYOW 140000Z 24003KT 15SM FEW060 FEW100 FEW270 29/19 A2991 RMK CU1AC1CI0 CU TR SLP128=
CYOW;2006-07-14 01:00;METAR CYOW 140100Z 22005KT 15SM FEW100 FEW270 26/19 A2992 RMK AC1CI1 CLDS TR SLP130=
CYOW;2006-07-14 02:00;METAR CYOW 140200Z 21004KT 15SM SKC 25/20 A2992 RMK SLP131=
CYOW;2006-07-14 03:00;METAR CYOW 140300Z 20005KT 15SM SKC 24/20 A2992 RMK SLP130=
CYOW;2006-07-14 04:00;METAR CYOW 140400Z 21005KT 15SM FEW180 23/20 A2992 RMK AC1 SLP131=
CYOW;2006-07-14 05:00;METAR CYOW 140500Z 21005KT 15SM FEW150 22/20 A2993 RMK AC1 SLP133=
CYOW;2006-07-14 06:00;METAR CYOW 140600Z 22005KT 15SM BKN068 22/20 A2992 RMK AC5 SLP132=
CYOW;2006-07-14 07:00;METAR CYOW 140700Z 25005KT 15SM SKC 21/19 A2994 RMK SLP136=
CYOW;2006-07-14 08:00;METAR CYOW 140800Z 22006KT 15SM FEW050 21/19 A2995 RMK CF1 SLP140=
CYOW;2006-07-14 09:00;METAR CYOW 140900Z 24004KT 15SM BKN086 20/18 A2996 RMK AC5 SLP143=
CYOW;2006-07-14 10:00;METAR CYOW 141000Z 24005KT 15SM FEW090 FEW250 20/18 A2996 RMK AC1CI0 AC TR SLP145=
CYOW;2006-07-14 11:00;METAR CYOW 141100Z 24005KT 15SM FEW090 FEW250 21/18 A2997 RMK AC1CI1 CLDS TR SLP148=
CYOW;2006-07-14 12:00;METAR CYOW 141200Z 28009KT 15SM FEW090 FEW250 23/18 A2997 RMK AC1CI1 CLDS TR SLP148=
CYOW;2006-07-14 13:00;METAR CYOW 141300Z 27007KT 15SM FEW090 FEW250 24/18 A2997 RMK AC1CI1 AC TR SLP148=
CYOW;2006-07-14 14:00;METAR CYOW 141400Z 25005KT 15SM FEW090 FEW250 26/18 A2996 RMK AC1CI1 AC TR SLP145=
CYOW;2006-07-14 15:00;METAR CYOW 141500Z 21006KT 15SM FEW090 SCT250 27/18 A2995 RMK AC1CI2 AC TR SLP141=
CYOW;2006-07-14 16:00;METAR CYOW 141600Z 25008KT 15SM FEW090 SCT250 29/17 A2995 RMK AC1CI1 AC TR SLP142=
CYOW;2006-07-14 17:00;METAR CYOW 141700Z 25009KT 15SM FEW220 30/16 A2995 RMK CI0 SLP140=
CYOW;2006-07-14 18:00;METAR CYOW 141800Z 23011KT 15SM SCT240 31/17 A2993 RMK CI1 SLP135=
CYOW;2006-07-14 19:00;METAR CYOW 141900Z 23009KT 15SM FEW040 FEW240 31/16 A2993 RMK CU1CI0 TR CU SLP134=
CYOW;2006-07-14 20:00;METAR CYOW 142000Z 23007KT 15SM FEW040 FEW240 32/16 A2992 RMK CU1CI0 TR CU SLP130=
CYOW;2006-07-14 21:00;METAR CYOW 142100Z 24005KT 15SM FEW050 FEW240 31/16 A2990 RMK CU1CI1 TR CU SLP125=
CYOW;2006-07-14 22:00;METAR CYOW 142200Z 21006KT 15SM FEW050 FEW240 31/16 A2988 RMK CU1CI0 TR CU SLP117=
CYOW;2006-07-14 23:00;METAR CYOW 142300Z 19007KT 15SM BKN240 30/18 A2988 RMK CI2 SLP117=
CYOW;2006-07-15 00:00;METAR CYOW 150000Z 19008KT 12SM SCT210 BKN240 28/20 A2989 RMK CI1CI1 SLP121=
CYOW;2006-07-15 02:00;METAR CYOW 150200Z 17003KT 12SM BKN250 23/19 A2991 RMK CI4 SLP128=
CYOW;2006-07-15 03:00;METAR CYOW 150300Z 19004KT 12SM BKN250 24/19 A2990 RMK CI2 SLP125=
CYOW;2006-07-15 04:00;METAR CYOW 150400Z 19003KT 12SM BKN250 23/18 A2990 RMK CI2 SLP124=
CYOW;2006-07-15 05:00;METAR CYOW 150500Z 20003KT 12SM BKN250 22/18 A2989 RMK CI2 SLP122=
CYOW;2006-07-15 06:00;METAR CYOW 150600Z 19003KT 12SM BKN250 21/18 A2989 RMK CI3 SLP121=
CYOW;2006-07-15 07:00;METAR CYOW 150700Z 26002KT 12SM BKN180 BKN240 21/18 A2988 RMK AS6CI0 SLP118=
CYOW;2006-07-15 08:00;METAR CYOW 150800Z 12002KT 12SM OVC240 20/17 A2986 RMK CS7 SLP112=
CYOW;2006-07-15 09:00;METAR CYOW 150900Z 16005KT 12SM OVC230 20/17 A2987 RMK CS7 SLP114=
CYOW;2006-07-15 10:00;METAR CYOW 151000Z 12003KT 12SM BKN052 OVC220 20/18 A2986 RMK SC7CS1 SLP111=
CYOW;2006-07-15 11:00;METAR CYOW 151100Z 10002KT 12SM SCT060 BKN100 OVC230 21/18 A2985 RMK SC3AC2CS2 SLP109=
CYOW;2006-07-15 12:00;METAR CYOW 151200Z 15003KT 12SM BKN060 OVC120 22/18 A2985 RMK SC6AS2 SLP109=
CYOW;2006-07-15 13:00;METAR CYOW 151300Z 18004KT 10SM SCT060 BKN130 22/19 A2985 RMK SC3AC4 SLP107=
CYOW;2006-07-15 13:13;SPECI CYOW 151313Z 16003KT 10SM -SHRA BKN055TCU OVC120 22/ RMK TCU6AC2=
CYOW;2006-07-15 13:35;SPECI CYOW 151335Z 19004KT 10SM SCT055 BKN140 22/ RMK SC3AC3=
CYOW;2006-07-15 14:00;METAR CYOW 151400Z 17004KT 10SM SCT055 BKN140 23/20 A2984 RMK CU3AC3 SLP103=
CYOW;2006-07-15 15:00;METAR CYOW 151500Z 20004KT 6SM HZ FEW017 FEW060 BKN140 24/20 A2985 RMK CF2SC1AC3 SLP109=
CYOW;2006-07-15 16:00;METAR CYOW 151600Z 19004KT 6SM -RA HZ FEW020 OVC080 25/21 A2985 RMK CF1AS7 SLP106=
CYOW;2006-07-15 16:41;SPECI CYOW 151641Z 19004KT 6SM HZ BKN058 27/ RMK SC6=
CYOW;2006-07-15 18:00;METAR CYOW 151800Z 19004KT 6SM -SHRA HZ FEW030 BKN070 27/21 A2983 RMK CU2ACC4 SLP102=
CYOW;2006-07-15 18:33;SPECI CYOW 151833Z 32010KT 2SM +SHRA BR OVC030TCU 23/ RMK TCU8=
CYOW;2006-07-15 18:46;SPECI CYOW 151846Z 02010G20KT 10SM -SHRA FEW030TCU BKN056 22/ RERA RMK TCU2CU4=
CYOW;2006-07-15 18:54;SPECI CYOW 151854Z 16005KT 12SM FEW030TCU BKN057 24/ RERA RMK TCU2CU4=
CYOW;2006-07-15 19:00;METAR CYOW 151900Z 12003KT 12SM BKN050 25/21 A2983 RERA RMK CU5 SH S SLP100=
CYOW;2006-07-15 21:00;METAR CYOW 152100Z 23007KT 6SM HZ BKN050TCU 28/22 A2983 RMK TCU6 SLP100=
CYOW;2006-07-15 22:00;METAR CYOW 152200Z 02005KT 10SM VCSH FEW009 BKN049TCU 29/23 A2982 RMK CF1TCU5 SH SE QUAD CUFRA TR SLP099=
CYOW;2006-07-15 23:00;METAR CYOW 152300Z 12004KT 10SM FEW012 FEW040TCU FEW070 SCT250 27/23 A2983 RMK CF1TCU2AC1CI0 CUFRA TR SLP102=
CYOW;2006-07-16 00:00;METAR CYOW 160000Z 14004KT 12SM FEW035TCU FEW075 FEW250 25/22 A2984 RMK TCU1AC1CI1 CLDS TR /R13/ SLP105=
CYOW;2006-07-16 01:00;METAR CYOW 160100Z 19004KT 12SM FEW035TCU FEW075 FEW250 23/21 A2986 RMK TCU1AC1CI1 CLDS TR SLP110=
CYOW;2006-07-16 02:00;METAR CYOW 160200Z 21005KT 12SM FEW040 23/20 A2988 RMK SC1 TS DIST NNE LTGIC SLP117=
CYOW;2006-07-16 03:00;METAR CYOW 160300Z 27003KT 15SM SKC 23/19 A2989 RMK SLP121=
CYOW;2006-07-16 04:00;METAR CYOW 160400Z 25002KT 15SM SKC 23/19 A2991 RMK SLP127=
CYOW;2006-07-16 05:00;METAR CYOW 160500Z 00000KT 15SM SKC 22/18 A2991 RMK SLP128=
CYOW;2006-07-16 06:00;METAR CYOW 160600Z 24005KT 15SM SKC 21/17 A2992 RMK SLP130=
CYOW;2006-07-16 07:00;METAR CYOW 160700Z 24005KT 15SM SKC 20/17 A2992 RMK SLP131=
CYOW;2006-07-16 08:00;METAR CYOW 160800Z 23002KT 15SM SKC 20/17 A2993 RMK SLP134=
CYOW;2006-07-16 09:00;METAR CYOW 160900Z 21003KT 15SM FEW050 FEW250 20/17 A2994 RMK SC1CI1 CLDS TR SLP136=
CYOW;2006-07-16 10:00;METAR CYOW 161000Z 21003KT 15SM FEW050 FEW250 20/17 A2994 RMK SC1CI0 SC TR SLP139=
CYOW;2006-07-16 11:00;METAR CYOW 161100Z 23003KT 15SM FEW160 FEW260 20/17 A2995 RMK AC2CI0 SLP142=
CYOW;2006-07-16 12:00;METAR CYOW 161200Z 24003KT 15SM BKN260 22/19 A2995 RMK CI2 SLP143=
CYOW;2006-07-16 13:00;METAR CYOW 161300Z 24005KT 15SM BKN250 25/19 A2993 RMK CI3 SLP134=
CYOW;2006-07-16 14:00;METAR CYOW 161400Z 24006KT 15SM FEW180 BKN250 25/19 A2994 RMK AC2CI2 SLP139=
CYOW;2006-07-16 15:00;METAR CYOW 161500Z 27006KT 15SM FEW180 BKN240 27/19 A2995 RMK AC1CI2 SLP142=
CYOW;2006-07-16 16:00;METAR CYOW 161600Z 27007KT 15SM BKN240 BKN280 29/20 A2995 RMK CI2CI2 SLP142=
CYOW;2006-07-16 17:00;METAR CYOW 161700Z 22006KT 15SM SCT140 BKN180 OVC240 29/20 A2994 RMK AC3AS3CI1 SLP138=
CYOW;2006-07-16 18:00;METAR CYOW 161800Z 22008KT 15SM FEW120 BKN240 30/19 A2991 RMK ACC2CI2 SLP128=
CYOW;2006-07-16 19:00;METAR CYOW 161900Z 26009KT 15SM FEW040 BKN240 33/19 A2988 RMK CU1CI2 TR CU SLP119=
CYOW;2006-07-16 20:00;METAR CYOW 162000Z 27006KT 15SM FEW120 BKN240 32/19 A2987 RMK AC1CI2 TR AC SLP115=
CYOW;2006-07-16 21:00;METAR CYOW 162100Z 21007KT 15SM SCT180 BKN240 32/19 A2985 RMK AC3CI0 SLP109=
CYOW;2006-07-16 22:00;METAR CYOW 162200Z 21006KT 15SM FEW080 FEW180 FEW260 32/20 A2984 RMK AC1AC1CI0 LO AC TR SLP104=
CYOW;2006-07-16 23:00;METAR CYOW 162300Z 21010G15KT 15SM FEW035 FEW180 FEW260 30/22 A2984 RMK CU1AC1CI1 CU TR SLP104=
CYOW;2006-07-17 00:00;METAR CYOW 170000Z 22008KT 15SM FEW150 SCT270 30/18 A2984 RMK AC1CI1 SLP103=
CYOW;2006-07-17 01:00;METAR CYOW 170100Z 23006KT 15SM FEW120 FEW270 28/18 A2986 RMK AC1CI1 SLP109=
CYOW;2006-07-17 03:00;METAR CYOW 170300Z 24006KT 15SM FEW250 26/20 A2988 RMK CI1 SLP117=
CYOW;2006-07-17 04:00;METAR CYOW 170400Z 22006KT 15SM FEW250 25/19 A2988 RMK CI1 SLP119=
CYOW;2006-07-17 05:00;METAR CYOW 170500Z 22005KT 15SM SCT120 BKN250 25/20 A2988 RMK AC3CI1 SLP119=
CYOW;2006-07-17 06:00;METAR CYOW 170600Z 25003KT 15SM BKN140 BKN250 23/19 A2989 RMK AC5CI0 SLP120=
CYOW;2006-07-17 08:00;METAR CYOW 170800Z 27005KT 15SM BKN140 BKN250 23/19 A2988 RMK AC5CI0 SLP119=
CYOW;2006-07-17 09:00;METAR CYOW 170900Z 21004KT 15SM FEW120 SCT250 22/19 A2989 RMK AC2CI0 SLP120=
CYOW;2006-07-17 10:00;METAR CYOW 171000Z 21004KT 15SM SCT110 BKN250 22/20 A2989 RMK AC4CI1 SLP120=
CYOW;2006-07-17 11:00;METAR CYOW 171100Z 22003KT 15SM FEW110 SCT250 23/20 A2990 RMK ACC2CI1 SLP122=
CYOW;2006-07-17 12:00;METAR CYOW 171200Z 25003KT 15SM FEW250 25/20 A2990 RMK CI0 SLP122=
CYOW;2006-07-17 13:00;METAR CYOW 171300Z 25003KT 15SM FEW180 26/21 A2988 RMK AC1 SLP116=
CYOW;2006-07-17 14:00;METAR CYOW 171400Z 00000KT 12SM FEW180 28/22 A2987 RMK AC1 SLP114=
CYOW;2006-07-17 15:00;METAR CYOW 171500Z 15006KT 12SM FEW030 FEW250 30/22 A2988 RMK CU1CI2 TR CU SLP117=
CYOW;2006-07-17 16:00;METAR CYOW 171600Z 25006KT 12SM FEW036 BKN250 31/22 A2987 RMK CU2CI0 SLP112=
CYOW;2006-07-17 17:00;METAR CYOW 171700Z 22009KT 12SM FEW040 BKN250 31/22 A2986 RMK CU2CI2 SLP109=
CYOW;2006-07-17 18:00;METAR CYOW 171800Z 21007G16KT 12SM FEW040 BKN250 32/23 A2984 RMK CU2CI2 SLP104=
CYOW;2006-07-17 19:00;METAR CYOW 171900Z 19010KT 12SM FEW044 OVC250 32/23 A2981 RMK CU2CS2 SLP093=
CYOW;2006-07-17 20:00;METAR CYOW 172000Z 20011KT 12SM FEW044 OVC250 33/23 A2979 RMK CU2CS1 SLP087=
CYOW;2006-07-17 21:00;METAR CYOW 172100Z 20013KT 12SM SCT047 BKN250 32/22 A2978 RMK CU3CI1 SLP082=
CYOW;2006-07-17 22:00;METAR CYOW 172200Z 19009G16KT 12SM FEW035 FEW250 31/24 A2975 RMK CU1CI0 SLP073=
CYOW;2006-07-17 23:00;METAR CYOW 172300Z 19010G18KT 12SM FEW037 FEW140 FEW250 30/23 A2975 RMK CU1AC1CI1 AC TR SLP073=
CYOW;2006-07-18 00:00;METAR CYOW 180000Z 20008KT 12SM BKN180 BKN220 29/21 A2977 RMK AC6CS1 SLP079=
CYOW;2006-07-18 01:00;METAR CYOW 180100Z 20010G15KT 12SM FEW030TCU SCT080 OVC190 29/21 A2975 RMK TCU1AC3AS3 TS DIST N LTGIC SLP073=
CYOW;2006-07-18 03:00;METAR CYOW 180300Z 19005KT 12SM SCT064 OVC089 27/21 A2979 RMK SC3AC5 SLP086=
CYOW;2006-07-18 03:18;SPECI CYOW 180318Z 19005KT 12SM TS BKN062 OVC120 27/ RMK SC6AC2 CB EMBD LTGICCG TS W MOVG NE=
CYOW;2006-07-18 03:30;SPECI CYOW 180330Z 20005KT 12SM TS SCT060CB BKN082 OVC160 27/ RMK CB4AC3AS1 FRQ LTGICCG=
CYOW;2006-07-18 03:40;SPECI CYOW 180340Z 31024G35KT 4SM TSRA BKN040CB OVC080 25/ RMK CB6AC2 FRQ LTGICCG=
CYOW;2006-07-18 03:45;SPECI CYOW 180345Z 33027G34KT 3/4SM +TSRA VV005 19/ RMK RA8 CB EMBD FRQ LTGIC=
CYOW;2006-07-18 03:51;SPECI CYOW 180351Z 35015G34KT 4SM TSRA BKN040CB OVC084 19/ RERA RMK CB5AC3 FRQ LTGICCG=
CYOW;2006-07-18 04:25;SPECI CYOW 180425Z 09005KT 15SM FEW040 SCT080 BKN150 BKN240 20/ RETS RMK SC2AC2AC3CI1 TS DIST NE-SE FRQ LTGICCGCC=
CYOW;2006-07-18 05:00;METAR CYOW 180500Z 16003KT 15SM BKN120 BKN250 19/19 A2980 RETS RMK AC5CI0 SLP090=
CYOW;2006-07-18 06:00;METAR CYOW 180600Z 16004KT 15SM BKN040 OVC110 20/19 A2983 RMK SC6AC2 /R13/ SLP100=
CYOW;2006-07-18 06:10;SPECI CYOW 180610Z 08007KT 10SM -SHRA BKN040 OVC120 20/ RMK SC5AC3 TCU EMBD=
CYOW;2006-07-18 06:25;SPECI CYOW 180625Z 02003G15KT 12SM SCT040 OVC160 20/ RMK SC3AC4=
CYOW;2006-07-18 07:00;METAR CYOW 180700Z 19004KT 12SM FEW040 OVC100 20/19 A2979 RMK SC2AC6 SLP088=
CYOW;2006-07-18 07:19;SPECI CYOW 180719Z 22005KT 12SM -RA BKN027 OVC100 20/ RMK SC6AC2=
CYOW;2006-07-18 07:29;SPECI CYOW 180729Z 21004KT 12SM OVC026 20/ RMK SC8=
CYOW;2006-07-18 09:00;METAR CYOW 180900Z 28002KT 12SM FEW017 SCT120 BKN240 20/20 A2982 RMK SC2AC2CI2 SLP096=
CYOW;2006-07-18 09:31;SPECI CYOW 180931Z 28005KT 12SM FEW009 BKN014 BKN240 21/ RMK CF1SC6CI0 CUFRA TR=
CYOW;2006-07-18 09:46;SPECI CYOW 180946Z 27003KT 15SM FEW006 FEW015 BKN140 BKN220 21/ RMK CF1SC2AC3CI1 CUFRA TR=
CYOW;2006-07-18 10:00;METAR CYOW 181000Z 31002KT 15SM FEW008 FEW015 BKN110 BKN250 21/20 A2986 RMK CF1SC1AC5CI1 CUFRA TR SLP110=
CYOW;2006-07-18 10:16;SPECI CYOW 181016Z 32004KT 15SM -RA FEW010 BKN100 OVC250 21/ RMK SC1AC6CI0 RA VRY LGT=
CYOW;2006-07-18 11:00;METAR CYOW 181100Z 30004KT 15SM SCT100 BKN150 BKN240 21/19 A2988 RMK AC3AC3CI1 SLP117=
CYOW;2006-07-18 12:00;METAR CYOW 181200Z 33006KT 15SM FEW025 SCT100 OVC130 21/20 A2991 RMK CU2AC2AC3 SLP127=
CYOW;2006-07-18 13:00;METAR CYOW 181300Z 35007KT 15SM FEW020 BKN120 BKN180 22/19 A2993 RMK CU2AC3AC2 SLP135=
CYOW;2006-07-18 15:00;METAR CYOW 181500Z 31007KT 15SM FEW020 FEW090 SCT180 24/17 A2997 RMK CU2AC1AC2 SLP148=
CYOW;2006-07-18 16:00;METAR CYOW 181600Z 35008KT 15SM FEW020 FEW090 SCT180 25/16 A2998 RMK CU1AC1AC2 SLP151=
CYOW;2006-07-18 17:00;METAR CYOW 181700Z 31004KT 15SM FEW035 25/17 A2999 RMK CU2 SLP153=
CYOW;2006-07-18 18:00;METAR CYOW 181800Z 01005KT 15SM SCT040 25/17 A2999 RMK CU3 SLP155=
CYOW;2006-07-18 20:00;METAR CYOW 182000Z 35008KT 15SM FEW040 26/15 A3001 RMK CU2 SLP163=
CYOW;2006-07-18 21:00;METAR CYOW 182100Z 34011KT 15SM FEW040 26/14 A3002 RMK CU2 SLP165=
CYOW;2006-07-18 22:00;METAR CYOW 182200Z 33011KT 15SM FEW040 25/14 A3003 RMK CU2 SLP169=
CYOW;2006-07-18 23:00;METAR CYOW 182300Z 33010KT 15SM FEW050 FEW090 25/13 A3005 RMK SC1AC2 TCU SE SLP174=
CYOW;2006-07-19 00:00;METAR CYOW 190000Z 36005KT 15SM FEW080 24/13 A3005 RMK AC2 TCU S SLP177=
CYOW;2006-07-19 02:00;METAR CYOW 190200Z 01004KT 15SM FEW080 21/13 A3009 RMK AC1 AC TR SLP190=
CYOW;2006-07-19 03:00;METAR CYOW 190300Z 36003KT 15SM SKC 21/13 A3011 RMK SLP195=
CYOW;2006-07-19 05:00;METAR CYOW 190500Z 01002KT 15SM SKC 18/14 A3014 RMK SLP205=
CYOW;2006-07-19 06:00;METAR CYOW 190600Z 34003KT 15SM SKC 18/14 A3015 RMK SLP209=
CYOW;2006-07-19 07:00;METAR CYOW 190700Z 00000KT 15SM SKC 18/14 A3015 RMK SLP210=
CYOW;2006-07-19 10:00;METAR CYOW 191000Z 00000KT 15SM SKC 16/14 A3019 RMK SLP225=
CYOW;2006-07-19 11:00;METAR CYOW 191100Z 03003KT 15SM SKC 18/13 A3021 RMK SLP229=
CYOW;2006-07-19 12:00;METAR CYOW 191200Z 02003KT 15SM SKC 19/14 A3022 RMK SLP232=
CYOW;2006-07-19 13:00;METAR CYOW 191300Z 05005KT 15SM SKC 22/13 A3022 RMK SLP234=
CYOW;2006-07-19 14:00;METAR CYOW 191400Z 03003KT 15SM SKC 24/14 A3023 RMK SLP236=
CYOW;2006-07-19 15:00;METAR CYOW 191500Z 06007KT 15SM FEW055 25/11 A3024 RMK CU1 CU TR SLP239=
CYOW;2006-07-19 16:00;METAR CYOW 191600Z 07004KT 15SM FEW055 FEW140 25/12 A3023 RMK CU1AC1 CLDS TR SLP238=
CYOW;2006-07-19 17:00;METAR CYOW 191700Z 13006KT 15SM FEW055 FEW140 26/12 A3022 RMK CU1AC1 CLDS TR SLP235=
CYOW;2006-07-19 18:00;METAR CYOW 191800Z 16006KT 15SM FEW055 FEW180 26/12 A3020 RMK CU1AC1 CLDS TR SLP227=
CYOW;2006-07-19 19:00;METAR CYOW 191900Z 07003KT 15SM FEW055 FEW180 FEW210 26/12 A3019 RMK CU1AC1CI0 CU AC TR SLP225=
CYOW;2006-07-19 21:00;METAR CYOW 192100Z 09003KT 15SM FEW055 FEW180 27/11 A3017 RMK CU1AC1 CLDS TR SLP218=
CYOW;2006-07-19 22:00;METAR CYOW 192200Z 17002KT 15SM FEW055 FEW180 26/12 A3015 RMK CU1AC1 CLDS TR SLP211=
CYOW;2006-07-19 23:00;METAR CYOW 192300Z 12003KT 15SM FEW250 26/13 A3016 RMK CI1 SLP215=
CYOW;2006-07-20 00:00;METAR CYOW 200000Z 13003KT 15SM FEW250 24/14 A3016 RMK CI1 SLP213=
CYOW;2006-07-20 01:00;METAR CYOW 200100Z 12006KT 15SM FEW250 20/13 A3014 RMK CI1 SLP206=
CYOW;2006-07-20 04:00;METAR CYOW 200400Z 13005KT 15SM SKC 18/13 A3015 RMK SLP209=
CYOW;2006-07-20 05:00;METAR CYOW 200500Z 13004KT 15SM SKC 18/13 A3013 RMK SLP204=
CYOW;2006-07-20 06:00;METAR CYOW 200600Z 14003KT 15SM SKC 18/13 A3013 RMK SLP203=
CYOW;2006-07-20 07:00;METAR CYOW 200700Z 12002KT 15SM FEW150 18/14 A3012 RMK AC2 SLP200=
CYOW;2006-07-20 08:00;METAR CYOW 200800Z 09003KT 15SM FEW070 17/14 A3010 RMK AC1 SLP194=
CYOW;2006-07-20 09:00;METAR CYOW 200900Z 05005KT 15SM FEW070 FEW180 17/14 A3009 RMK AC1AC1 SLP189=
CYOW;2006-07-20 10:00;METAR CYOW 201000Z 09003KT 15SM FEW180 SCT250 16/14 A3008 RMK AC1CI1 SLP186=
CYOW;2006-07-20 11:00;METAR CYOW 201100Z 12002KT 15SM FEW180 FEW250 18/15 A3009 RMK AC1CI0 SLP189=
CYOW;2006-07-20 12:00;METAR CYOW 201200Z 19002KT 15SM SCT070 21/16 A3010 RMK AC2 SLP193=
CYOW;2006-07-20 13:00;METAR CYOW 201300Z 19007KT 15SM FEW070 23/18 A3010 RMK AC1 SLP192=
CYOW;2006-07-20 14:00;METAR CYOW 201400Z 18009KT 15SM FEW070 26/19 A3007 RMK AC1 SLP183=
CYOW;2006-07-20 16:00;METAR CYOW 201600Z 19008KT 15SM SCT030 SCT070 SCT240 28/21 A3003 RMK CU3AC1CI0 AC TR SLP170=
CYOW;2006-07-20 17:00;METAR CYOW 201700Z 18013KT 15SM SCT030 SCT070 BKN240 29/20 A3001 RMK CU4AC1CI0 AC TR SLP162=
CYOW;2006-07-20 18:00;METAR CYOW 201800Z 19010G16KT 15SM SCT030 BKN180 30/20 A3000 RMK CU4AC1 SLP159=
CYOW;2006-07-20 19:00;METAR CYOW 201900Z 21011KT 15SM BKN057 30/20 A2997 RMK CU6 TCU ALQDS SLP150=
CYOW;2006-07-20 20:00;METAR CYOW 202000Z 21011KT 15SM SCT055 BKN180 30/19 A2995 RMK CU4AC1 TCU EMBD SLP141=
CYOW;2006-07-20 21:00;METAR CYOW 202100Z 20011G16KT 15SM FEW055 BKN150 30/20 A2994 RMK CU2AC4 TCU EMBD SLP138=
CYOW;2006-07-20 22:00;METAR CYOW 202200Z 22010G16KT 10SM FEW055 SCT150 OVC180 29/19 A2994 RMK CU1AC2AC4 SLP138=
CYOW;2006-07-21 00:00;METAR CYOW 210000Z 22005KT 8SM BKN150 OVC250 27/19 A2991 RMK AC6CI2 HAZY SLP128=
CYOW;2006-07-21 01:00;METAR CYOW 210100Z 22006KT 8SM FEW044 BKN076 BKN140 OVC250 26/20 A2992 RMK SC1AC4AC2CS2 SLP131=
CYOW;2006-07-21 04:00;METAR CYOW 210400Z 32012KT 15SM OVC140 23/18 A2993 RMK AC8 SLP135=
CYOW;2006-07-21 05:00;METAR CYOW 210500Z 32011KT 15SM FEW020 OVC100 22/18 A2993 RMK CF1AC7 SLP134=
CYOW;2006-07-21 06:00;METAR CYOW 210600Z 11004KT 15SM SCT090 OVC120 21/18 A2991 RMK AC3AC4 SLP129=
CYOW;2006-07-21 08:00;METAR CYOW 210800Z 36006KT 15SM FEW017 SCT070 OVC150 21/18 A2990 RMK SC2AC2AC5 SLP123=
CYOW;2006-07-21 09:00;METAR CYOW 210900Z 03004KT 15SM SCT070 BKN160 21/18 A2991 RMK AC4AC2 SLP128=
CYOW;2006-07-21 10:00;METAR CYOW 211000Z 03005KT 15SM BKN044 BKN160 20/18 A2992 RMK SC6AC1 SLP132=
CYOW;2006-07-21 11:00;METAR CYOW 211100Z 01005KT 12SM BKN010 BKN044 20/18 A2993 RMK ST5SC2 SLP133=
CYOW;2006-07-21 12:00;METAR CYOW 211200Z 36006KT 12SM SCT010 SCT080 21/18 A2993 RMK CU3AC1 SLP135=
CYOW;2006-07-21 13:00;METAR CYOW 211300Z 32007KT 12SM SCT016 SCT240 21/17 A2993 RMK CU3CI0 SLP135=
CYOW;2006-07-21 15:00;METAR CYOW 211500Z 32006KT 15SM BKN030 24/17 A2993 RMK CU5 SLP133=
CYOW;2006-07-21 16:00;METAR CYOW 211600Z 32007KT 15SM BKN030 23/16 A2992 RMK CU6 SLP132=
CYOW;2006-07-21 17:00;METAR CYOW 211700Z 34008KT 15SM BKN033 24/17 A2992 RMK CU6 SLP131=
CYOW;2006-07-21 18:00;METAR CYOW 211800Z 32008KT 15SM BKN044 BKN240 24/16 A2992 RMK CU6CI0 SLP132=
CYOW;2006-07-21 19:00;METAR CYOW 211900Z 31005KT 15SM BKN044 BKN240 25/16 A2992 RMK CU5CI0 SLP133=
CYOW;2006-07-21 22:00;METAR CYOW 212200Z 34011KT 15SM FEW045 BKN250 23/15 A2991 RMK SC2CS5 SLP130=
CYOW;2006-07-21 23:00;METAR CYOW 212300Z 33011KT 20SM FEW170 OVC250 22/14 A2992 RMK AS2CS6 SLP131=
CYOW;2006-07-22 00:00;METAR CYOW 220000Z 01010KT 20SM FEW150 FEW180 BKN270 21/14 A2993 RMK AS2AC1CS2 AC TR SLP135=
CYOW;2006-07-22 01:00;METAR CYOW 220100Z 01007KT 20SM FEW150 SCT270 20/13 A2993 RMK AC1CI1 SLP134=
CYOW;2006-07-22 03:00;METAR CYOW 220300Z 36003KT 15SM BKN210 19/14 A2993 RMK CS6 SLP136=
CYOW;2006-07-22 04:00;METAR CYOW 220400Z 36004KT 15SM OVC210 19/14 A2993 RMK CS7 SLP136=
CYOW;2006-07-22 05:00;METAR CYOW 220500Z 36004KT 15SM BKN210 18/14 A2992 RMK CS4 SLP132=
CYOW;2006-07-22 07:00;METAR CYOW 220700Z 35004KT 15SM OVC180 17/14 A2991 RMK AS7 SLP127=
CYOW;2006-07-22 08:00;METAR CYOW 220800Z 01007KT 15SM OVC180 17/14 A2988 RMK AS6 SLP120=
CYOW;2006-07-22 09:00;METAR CYOW 220900Z 02005KT 15SM OVC180 17/14 A2987 RMK AS7 SLP116=
CYOW;2006-07-22 10:00;METAR CYOW 221000Z 34006KT 20SM FEW150 BKN180 OVC220 16/14 A2990 RMK AC2AS5CI1 SLP126=
CYOW;2006-07-22 11:00;METAR CYOW 221100Z 00000KT 20SM FEW100 BKN210 OVC250 18/14 A2991 RMK AC2CS4CI2 SLP127=
CYOW;2006-07-22 12:00;METAR CYOW 221200Z 02006KT 20SM FEW050 SCT150 OVC180 18/14 A2989 RMK SC1AC2AS5 SLP123=
CYOW;2006-07-22 13:00;METAR CYOW 221300Z 06007KT 20SM FEW140 OVC170 19/14 A2988 RMK AC1AS7 SLP117=
CYOW;2006-07-22 14:00;METAR CYOW 221400Z 05007KT 20SM OVC170 20/14 A2987 RMK AS8 SLP115=
CYOW;2006-07-22 15:00;METAR CYOW 221500Z 06008KT 20SM OVC160 20/14 A2987 RMK AS8 SLP115=
CYOW;2006-07-22 16:00;METAR CYOW 221600Z 04007KT 20SM OVC140 20/14 A2987 RMK AS8 SLP115=
CYOW;2006-07-22 17:00;METAR CYOW 221700Z 04007KT 20SM FEW030 OVC140 21/14 A2985 RMK CU1AS7 SLP110=
CYOW;2006-07-22 18:00;METAR CYOW 221800Z 03007KT 20SM OVC140 21/14 A2984 RMK AS8 SLP105=
CYOW;2006-07-22 19:00;METAR CYOW 221900Z 03007KT 20SM FEW030 BKN044 OVC120 21/14 A2985 RMK CU1SC5AS2 SLP108=
CYOW;2006-07-22 20:00;METAR CYOW 222000Z 02008KT 20SM FEW030 SCT046 OVC110 21/15 A2985 RMK CU2SC2AS4 SLP107=
CYOW;2006-07-22 21:00;METAR CYOW 222100Z 04006KT 20SM SCT030 BKN052 OVC100 21/15 A2984 RMK SC3SC3AS2 SLP105=
CYOW;2006-07-22 22:00;METAR CYOW 222200Z 04006KT 20SM FEW024 BKN048 OVC120 21/15 A2983 RMK CF1SC5AS2 CUFRA TR SLP102=
CYOW;2006-07-22 23:00;METAR CYOW 222300Z 05003KT 20SM FEW030 BKN058 OVC120 21/14 A2984 RMK SC1SC4AS2 SLP105=
CYOW;2006-07-23 00:00;METAR CYOW 230000Z 17002KT 20SM BKN035 BKN060 OVC120 20/15 A2985 RMK SC6SC1AS1 SLP108=
CYOW;2006-07-23 02:00;METAR CYOW 230200Z 00000KT 15SM FEW040 BKN120 18/15 A2986 RMK SC1AS6 SLP111=
CYOW;2006-07-23 03:00;METAR CYOW 230300Z 26003KT 15SM FEW040 FEW080 BKN120 18/15 A2985 RMK SC1AC1AS6 SLP109=
CYOW;2006-07-23 04:00;METAR CYOW 230400Z 25002KT 15SM FEW040 FEW080 OVC120 18/15 A2985 RMK SC1AC1AS6 SLP108=
CYOW;2006-07-23 06:00;METAR CYOW 230600Z 25003KT 15SM FEW060 SCT160 BKN240 17/14 A2986 RMK SC1AC2CI1 SLP112=
CYOW;2006-07-23 07:00;METAR CYOW 230700Z 24004KT 15SM SCT047 BKN160 16/14 A2987 RMK SC3AC2 SLP114=
CYOW;2006-07-23 08:00;METAR CYOW 230800Z 00000KT 15SM FEW050 FEW160 BKN250 16/14 A2986 RMK SC1AC2CI1 SC TR SLP113=
CYOW;2006-07-23 09:00;METAR CYOW 230900Z 30002KT 15SM FEW050 FEW150 BKN250 15/14 A2987 RMK SC1AC2CC2 SC TR SLP114=
CYOW;2006-07-23 10:00;METAR CYOW 231000Z 30003KT 20SM MIFG FEW040 FEW160 SCT250 14/13 A2988 RMK SC1AC1CI2 SC TR SLP118=
CYOW;2006-07-23 11:00;METAR CYOW 231100Z 31003KT 20SM FEW040 FEW150 FEW250 16/14 A2989 RMK SC1AC1CI2 SC AC TR SLP122=
CYOW;2006-07-23 12:00;METAR CYOW 231200Z 34007KT 20SM FEW100 SCT180 18/14 A2990 RMK AC2AC2 SLP124=
CYOW;2006-07-23 13:00;METAR CYOW 231300Z 32006KT 20SM FEW180 SCT240 19/14 A2991 RMK AC2CI1 SLP127=
CYOW;2006-07-23 15:00;METAR CYOW 231500Z 29007KT 20SM FEW032 FEW180 SCT240 22/15 A2990 RMK CU2AC1CI1 SLP125=
CYOW;2006-07-23 16:00;METAR CYOW 231600Z 23005KT 20SM SCT040 BKN120 23/13 A2991 RMK CU4AC1 SLP127=
CYOW;2006-07-23 17:00;METAR CYOW 231700Z 28005KT 20SM SCT040 BKN110 24/14 A2991 RMK CU3AC3 SH EAST SLP127=
CYOW;2006-07-23 18:00;METAR CYOW 231800Z 31006KT 20SM VCSH SCT040 BKN110 25/14 A2990 RMK CU3AC2 SH EAST TCU ASOCTD SLP124=
CYOW;2006-07-23 19:00;METAR CYOW 231900Z 28008KT 20SM VCSH SCT044TCU BKN120 25/13 A2989 RMK TCU3AC2 SH EAST SLP121=
CYOW;2006-07-23 20:00;METAR CYOW 232000Z 32007KT 20SM SCT050TCU SCT120 25/13 A2988 RMK TCU3AC1 SLP118=
CYOW;2006-07-23 21:00;METAR CYOW 232100Z 21006KT 20SM SCT050TCU BKN120 BKN240 25/15 A2988 RMK TCU3AC2CI1 SLP118=
CYOW;2006-07-23 22:00;METAR CYOW 232200Z 17002KT 20SM SCT054TCU BKN090 BKN120 BKN250 23/14 A2989 RMK TCU3AS2AC2CI1 SH DIST NNE E AND SSW SLP122=
CYOW;2006-07-23 22:45;SPECI CYOW 232245Z 24009KT 15SM -SHRA SCT050TCU BKN090 BKN130 20/ RMK TCU3AS2AC2=
CYOW;2006-07-23 23:00;METAR CYOW 232300Z 22006KT 15SM -SHRA SCT034 BKN070 BKN120 BKN250 20/14 A2990 RMK SC3AS2AC2CI1 TCU EMBD CI TR SLP126=
CYOW;2006-07-23 23:30;SPECI CYOW 232330Z 23003KT 20SM FEW035TCU FEW040 BKN110 19/ RMK TCU2SC1AC5 SH DIST NNW-SSE=
CYOW;2006-07-24 00:00;METAR CYOW 240000Z 27005KT 20SM FEW030TCU FEW035 BKN110 BKN160 19/14 A2991 RMK TCU1SC1AC4AS2 SH DIST NNW-NE SLP129=
CYOW;2006-07-24 01:00;METAR CYOW 240100Z 25004KT 20SM FEW015 BKN079 BKN140 19/15 A2992 RMK SC1AC5AS2 SC TR SLP131=
CYOW;2006-07-24 02:00;METAR CYOW 240200Z 25006KT 15SM BKN110 BKN180 18/15 A2993 RMK AC5AC2 SLP136=
CYOW;2006-07-24 03:00;METAR CYOW 240300Z 25004KT 15SM BKN100 BKN160 17/15 A2993 RMK AC5AS2 SLP135=
CYOW;2006-07-24 04:00;METAR CYOW 240400Z 27005KT 15SM BKN110 BKN250 17/15 A2994 RMK AC5CI0 SLP137=
CYOW;2006-07-24 05:00;METAR CYOW 240500Z 23002KT 15SM FEW100 FEW250 17/14 A2994 RMK AC2CI0 SLP137=
CYOW;2006-07-24 06:00;METAR CYOW 240600Z 21003KT 15SM FEW250 15/14 A2993 RMK CI0 SLP136=
CYOW;2006-07-24 08:00;METAR CYOW 240800Z 22004KT 15SM FEW100 FEW250 15/13 A2993 RMK AC1CI1 CLDS TR SLP136=
CYOW;2006-07-24 12:00;METAR CYOW 241200Z 24003KT 15SM FEW010 FEW040 17/14 A2996 RMK CF1SC1 CLDS TR SLP148=
CYOW;2006-07-24 13:00;METAR CYOW 241300Z 00000KT 20SM FEW050 FEW240 19/15 A2996 RMK SC1CI1 SLP148=
CYOW;2006-07-24 15:00;METAR CYOW 241500Z 22007KT 20SM FEW036 BKN240 23/14 A2996 RMK CU2CI1 SLP147=
CYOW;2006-07-24 16:00;METAR CYOW 241600Z 25008KT 20SM FEW040 BKN240 24/13 A2995 RMK CU2CI2 SLP142=
CYOW;2006-07-24 17:00;METAR CYOW 241700Z 26008KT 20SM FEW050 BKN240 25/13 A2994 RMK CU2CI2 SLP137=
CYOW;2006-07-24 18:00;METAR CYOW 241800Z 22008KT 20SM SCT050 OVC240 25/14 A2993 RMK CU3CI3 SLP136=
CYOW;2006-07-24 19:00;METAR CYOW 241900Z 23009KT 20SM SCT050 OVC180 25/13 A2992 RMK CU3AS5 SLP133=
CYOW;2006-07-24 20:00;METAR CYOW 242000Z 21006KT 20SM FEW050 BKN150 OVC240 25/13 A2991 RMK CU2AC4CS2 SLP130=
CYOW;2006-07-24 21:00;METAR CYOW 242100Z 19007KT 15SM SCT044 OVC120 24/16 A2991 RMK CU3AS5 SLP129=
CYOW;2006-07-24 21:31;SPECI CYOW 242131Z 20007KT 12SM -RA FEW044 OVC093 23/ RMK CU2AS6=
CYOW;2006-07-24 22:00;METAR CYOW 242200Z 19005KT 12SM -RA FEW040 FEW090 OVC110 22/17 A2991 RMK CU2AC1AS6 SLP129=
CYOW;2006-07-24 23:00;METAR CYOW 242300Z 16004KT 15SM FEW035 BKN130 OVC250 22/18 A2991 RMK SC2AC5CS1 SLP127=
CYOW;2006-07-25 00:00;METAR CYOW 250000Z 16004KT 15SM SCT091 BKN120 OVC250 21/16 A2990 RMK AC3AS3CI1 SLP126=
CYOW;2006-07-25 01:00;METAR CYOW 250100Z 16003KT 15SM BKN099 OVC140 21/15 A2989 RMK AC6AS2 SLP123=
CYOW;2006-07-25 02:00;METAR CYOW 250200Z 16005KT 15SM OVC082 21/15 A2988 RMK AC8 SLP120=
CYOW;2006-07-25 03:00;METAR CYOW 250300Z 17006KT 15SM OVC081 21/15 A2987 RMK AC8 SLP115=
CYOW;2006-07-25 03:53;SPECI CYOW 250353Z 19007KT 15SM -RA BKN055 OVC094 21/ RMK SC5AC3=
CYOW;2006-07-25 04:00;METAR CYOW 250400Z 20004KT 15SM -RA SCT063 OVC084 21/16 A2986 RMK SC4AC3 SLP111=
CYOW;2006-07-25 04:46;SPECI CYOW 250446Z 16007KT 12SM BKN073 OVC120 19/ RMK AC6AC2 TS DIST NW=
CYOW;2006-07-25 05:00;METAR CYOW 250500Z 17007KT 15SM OVC085 19/17 A2983 RMK AC8 TS DIST N SLP103=
CYOW;2006-07-25 06:00;METAR CYOW 250600Z 18010G16KT 15SM BKN073 OVC110 20/16 A2982 RMK AC6AC2 TS DIST W SLP096=
CYOW;2006-07-25 06:27;SPECI CYOW 250627Z 19012KT 12SM TS FEW050CB BKN087 OVC150 21/ RMK CB2AC5AC1 LTGICCG TS W MOVG NE=
CYOW;2006-07-25 07:00;METAR CYOW 250700Z 21008KT 10SM -TSRA BKN056CB OVC100 21/17 A2981 RMK CB5AC3 LTGICCG TS NW MOVG E SLP095=
CYOW;2006-07-25 08:00;METAR CYOW 250800Z 32004KT 6SM TSRA BR FEW008 BKN034CB OVC080 19/18 A2984 RMK CF1CB6AC2 FRQ LTGICCG SLP105=
CYOW;2006-07-25 08:19;SPECI CYOW 250819Z 31003KT 1SM +TSRA VV005 19/ RMK RA8 CB EMBD FRQ LTGICCG=
CYOW;2006-07-25 08:28;SPECI CYOW 250828Z 16005KT 4SM TSRA BR FEW008 BKN035CB OVC080 19/ RERA RMK CF1CB5AC2 LTGICCG=
CYOW;2006-07-25 08:44;SPECI CYOW 250844Z 13005KT 5SM -SHRA BR FEW008 SCT040 OVC100 19/ RETSRA RMK CF1SC3AC4 TS DIST SE=
CYOW;2006-07-25 09:00;METAR CYOW 250900Z 15009KT 10SM SCT045 OVC120 19/18 A2981 RETSRA RMK SC4AC4 OCNL LTNG DIST E /R10/ SLP093=
CYOW;2006-07-25 09:54;SPECI CYOW 250954Z 17003KT 8SM -RA SCT030 BKN110 OVC250 19/ RMK SC3AC4CS1=
CYOW;2006-07-25 10:00;METAR CYOW 251000Z 19006KT 8SM -RA FEW030 BKN110 OVC250 20/18 A2981 RMK SC2AC5CS1 RA VRY LGT SLP093=
CYOW;2006-07-25 12:00;METAR CYOW 251200Z 26006KT 10SM -RA SCT030 OVC140 20/19 A2986 RMK SC3AC5 VRY LGT RA SLP111=
CYOW;2006-07-25 13:00;METAR CYOW 251300Z 29003KT 12SM FEW030 BKN140 OVC210 20/19 A2985 RMK SC1AC5CI2 SLP108=
CYOW;2006-07-25 14:00;METAR CYOW 251400Z 25005KT 10SM SCT015 BKN030 OVC140 22/19 A2986 RMK SC3SC2AC2 SLP113=
CYOW;2006-07-25 15:00;METAR CYOW 251500Z 25004KT 10SM BKN012 OVC025 22/20 A2987 RMK SC6SC2 SLP115=
CYOW;2006-07-25 16:00;METAR CYOW 251600Z 27002KT 12SM SCT015 OVC046 22/20 A2986 RMK SC3SC5 SLP111=
CYOW;2006-07-25 16:11;SPECI CYOW 251611Z 30003KT 8SM -RA SCT015 BKN027 OVC045 22/ RMK SC3SC3SC2=
CYOW;2006-07-25 17:00;METAR CYOW 251700Z 26003KT 12SM OVC027 23/21 A2985 RMK SC8 SLP108=
CYOW;2006-07-25 18:00;METAR CYOW 251800Z 27003KT 12SM FEW020 BKN030 25/21 A2982 RMK CU2SC3 SLP099=
CYOW;2006-07-25 19:00;METAR CYOW 251900Z 26004KT 12SM FEW020 BKN030 26/20 A2984 RMK CU2SC3 SLP103=
CYOW;2006-07-25 20:00;METAR CYOW 252000Z 16003KT 15SM FEW020 BKN030 BKN150 27/21 A2983 RMK CU2SC2AC1 SLP101=
CYOW;2006-07-25 20:35;SPECI CYOW 252035Z 16006KT 15SM TS SCT025 BKN056 OVC080 25/ RMK CU3SC3AC1 CB EMBD=
CYOW;2006-07-25 20:48;SPECI CYOW 252048Z 18005KT 10SM -TSRA BKN031 OVC055 24/ RMK SC6SC2 CB EMBD=
CYOW;2006-07-25 21:00;METAR CYOW 252100Z 18007KT 1 1/2SM -TSRA BR BKN027 OVC055 23/21 A2986 RMK FG1SC6SC1 CB EMBD SLP112=
CYOW;2006-07-25 21:13;SPECI CYOW 252113Z 18009G16KT 8SM -TSRA SCT025 BKN057 22/ RMK CU3SC3 CB EMBD=
CYOW;2006-07-25 21:29;SPECI CYOW 252129Z 09004KT 15SM FEW025 BKN050 23/ RETS RMK CU2SC5=
CYOW;2006-07-25 22:00;METAR CYOW 252200Z 19003KT 8SM FEW025 BKN047 24/22 A2985 RETS RMK CU1SC6 VSB W 3 SLP110=
CYOW;2006-07-25 22:05;SPECI CYOW 252205Z 17004KT 15SM -RA FEW025 BKN050 BKN140 25/ RMK CU1SC4AC1 VRY LGT RA=
CYOW;2006-07-25 22:22;SPECI CYOW 252222Z 14004KT 12SM FEW025TCU FEW140 25/ RMK TCU1AC2 CB TOP DIST SSW=
CYOW;2006-07-26 00:00;METAR CYOW 260000Z 17005KT 12SM FEW025 FEW120 SCT250 23/21 A2985 RMK CU1AC1CI2 CU AC TR /R13/ SLP109=
CYOW;2006-07-26 02:00;METAR CYOW 260200Z 17004KT 12SM FEW050 SCT130 21/20 A2987 RMK SC1AC3 SC TR SLP115=
CYOW;2006-07-26 03:00;METAR CYOW 260300Z 18003KT 12SM SCT130 21/19 A2987 RMK AC3 SLP116=
CYOW;2006-07-26 04:00;METAR CYOW 260400Z 21003KT 12SM FEW120 SCT250 20/19 A2988 RMK AC2CI0 SLP117=
CYOW;2006-07-26 05:00;METAR CYOW 260500Z 18003KT 10SM FEW250 20/19 A2988 RMK CI0 SLP117=
CYOW;2006-07-26 07:00;METAR CYOW 260700Z 22005KT 10SM FEW250 20/18 A2988 RMK CI0 SLP119=
CYOW;2006-07-26 09:00;METAR CYOW 260900Z 20004KT 10SM FEW090 FEW250 19/18 A2988 RMK AC1CI0 SLP120=
CYOW;2006-07-26 10:00;METAR CYOW 261000Z 19003KT 5SM BR FEW150 FEW250 18/18 A2988 RMK AC1CI1 AC TR SLP117=
CYOW;2006-07-26 10:13;SPECI CYOW 261013Z 18004KT 6SM BR PRFG FEW002 FEW150 FEW250 19/ RMK SF1AC1CI1 FG BANK E-SSW VIS 1 AC TR=
CYOW;2006-07-26 10:21;SPECI CYOW 261021Z 18003KT 1SM BR FEW002 FEW250 18/ RMK FG1SF1CI1 VIS NW 4=
CYOW;2006-07-26 10:44;SPECI CYOW 261044Z 21004KT 8SM FEW005 SCT100 19/ RMK SF1AC2=
CYOW;2006-07-26 11:00;METAR CYOW 261100Z 22003KT 8SM FEW005 FEW035 BKN085 20/19 A2991 RMK SF1SC2AC3 SLP127=
CYOW;2006-07-26 12:00;METAR CYOW 261200Z 20004KT 15SM BKN110 20/19 A2990 RMK AC5 SLP125=
CYOW;2006-07-26 13:00;METAR CYOW 261300Z 23004KT 15SM FEW060 BKN075 BKN100 22/20 A2991 RMK SC2AC2AC2 SLP127=
CYOW;2006-07-26 14:00;METAR CYOW 261400Z 21005KT 15SM FEW100 FEW250 24/20 A2990 RMK AC1CI1 SLP124=
CYOW;2006-07-26 15:00;METAR CYOW 261500Z 18005KT 15SM FEW100 SCT250 26/19 A2989 RMK AC1CI1 SLP120=
CYOW;2006-07-26 16:00;METAR CYOW 261600Z 18007KT 15SM FEW030 SCT100 BKN220 27/20 A2988 RMK CU1AC2CI2 SLP119=
CYOW;2006-07-26 18:00;METAR CYOW 261800Z 20007KT 15SM BKN032 BKN150 28/21 A2986 RMK CU5AC2 TCU EMBD SLP111=
CYOW;2006-07-26 19:00;METAR CYOW 261900Z 19009G15KT 15SM SCT035 BKN160 29/21 A2984 RMK CU3AC2 TCU EMBD SLP105=
CYOW;2006-07-26 20:00;METAR CYOW 262000Z 19009G16KT 15SM FEW035 BKN150 28/21 A2983 RMK CU2AC3 TCU EMBD SLP100=
CYOW;2006-07-26 22:00;METAR CYOW 262200Z 19005KT 15SM FEW035 OVC140 28/21 A2981 RMK SC1AC6 SLP094=
CYOW;2006-07-26 23:00;METAR CYOW 262300Z 20006KT 10SM BKN130 OVC210 27/20 A2980 RMK AC5CI2 SLP091=
CYOW;2006-07-27 00:00;METAR CYOW 270000Z 17004KT 10SM BKN170 OVC210 26/21 A2980 RMK AC6CI2 SLP091=
CYOW;2006-07-27 01:00;METAR CYOW 270100Z 18005KT 6SM HZ OVC170 26/21 A2981 RMK AC8 SLP093=
CYOW;2006-07-27 02:00;METAR CYOW 270200Z 18005KT 8SM OVC170 25/21 A2981 RMK AC8 SLP095=
CYOW;2006-07-27 03:00;METAR CYOW 270300Z 18005KT 8SM OVC170 25/21 A2981 RMK AC8 SLP092=
CYOW;2006-07-27 04:00;METAR CYOW 270400Z 19005KT 8SM BKN060 OVC150 25/21 A2980 RMK SC6AC2 SLP091=
CYOW;2006-07-27 05:00;METAR CYOW 270500Z 19005KT 8SM BKN060 OVC160 25/20 A2979 RMK SC6AC2 SLP086=
CYOW;2006-07-27 06:00;METAR CYOW 270600Z 20004KT 8SM OVC160 24/20 A2978 RMK AC8 SLP082=
CYOW;2006-07-27 07:00;METAR CYOW 270700Z 23004KT 8SM OVC170 23/20 A2978 RMK AC8 SLP083=
CYOW;2006-07-27 08:00;METAR CYOW 270800Z 20003KT 8SM FEW050 OVC130 23/20 A2977 RMK SC1AC7 SLP080=
CYOW;2006-07-27 09:00;METAR CYOW 270900Z 17004KT 8SM -RA OVC100 22/20 A2977 RMK AC8 VRY LGT RA SLP081=
CYOW;2006-07-27 10:00;METAR CYOW 271000Z 16004KT 4SM -RA BR OVC100 22/20 A2977 RMK AC8 VRY LGT RA SLP081=
CYOW;2006-07-27 10:26;SPECI CYOW 271026Z 17003KT 2 1/2SM -RA BR FEW060 OVC090 22/ RMK SC1AC7 VRY LGT RA=
CYOW;2006-07-27 11:40;SPECI CYOW 271140Z 21007KT 1 1/2SM -RA BR OVC033 22/ RMK FG2SC6=
CYOW;2006-07-27 12:00;METAR CYOW 271200Z 18004KT 3SM -RA BR BKN035 OVC070 22/20 A2979 RMK SC5AC3 SLP087=
CYOW;2006-07-27 12:28;SPECI CYOW 271228Z 21006KT 6SM BR FEW035 BKN053 OVC070 23/ RMK SC2SC4AC1=
CYOW;2006-07-27 13:00;METAR CYOW 271300Z 19007KT 10SM FEW035 FEW050 BKN070 BKN140 23/21 A2980 RMK SC1SC2AC2AC1 SLP090=
CYOW;2006-07-27 14:00;METAR CYOW 271400Z 23008KT 15SM BKN033 BKN060 25/20 A2980 RMK SC5SC2 SLP091=
CYOW;2006-07-27 16:00;METAR CYOW 271600Z 22011KT 15SM SCT040 BKN090 27/20 A2980 RMK SC3AC3 CU EMBD SLP089=
CYOW;2006-07-27 17:00;METAR CYOW 271700Z 22012KT 15SM FEW030 BKN090 28/20 A2979 RMK CU1AC6 SLP086=
CYOW;2006-07-27 18:00;METAR CYOW 271800Z 20011G16KT 15SM BKN043 BKN090 28/21 A2978 RMK SC5AC2 CU ASOCT SLP084=
CYOW;2006-07-27 20:00;METAR CYOW 272000Z 22014G21KT 12SM FEW040 FEW100 SCT250 30/20 A2977 RMK CU2AC1CI1 SLP079=
CYOW;2006-07-27 21:00;METAR CYOW 272100Z 22014G19KT 12SM FEW040 FEW100 SCT250 30/20 A2977 RMK CU2AC1CC1 SLP079=
CYOW;2006-07-27 22:00;METAR CYOW 272200Z 21010G15KT 12SM BKN052 28/21 A2977 RMK SC6 SH DIST N TCU EMBD SLP080=
CYOW;2006-07-27 23:00;METAR CYOW 272300Z 22005KT 15SM BKN044 BKN220 28/21 A2976 RMK CU5CI1 TCU EMBD SLP078=
CYOW;2006-07-28 00:00;METAR CYOW 280000Z 27004KT 15SM SCT050 BKN220 28/21 A2978 RMK CU4CI1 TCU ASOCTD SLP083=
CYOW;2006-07-28 01:00;METAR CYOW 280100Z 26004KT 15SM FEW058 FEW180 SCT250 25/18 A2980 RMK SC2AC1CI0 TCU E-S SLP090=
CYOW;2006-07-28 02:00;METAR CYOW 280200Z 27004KT 15SM FEW050 SCT250 24/18 A2984 RMK CU2CI0 SLP102=
CYOW;2006-07-28 03:00;METAR CYOW 280300Z 28004KT 15SM FEW050 23/18 A2984 RMK SC2 SLP103=
CYOW;2006-07-28 04:00;METAR CYOW 280400Z 24003KT 15SM FEW050 22/18 A2984 RMK SC1 SLP105=
CYOW;2006-07-28 05:00;METAR CYOW 280500Z 21004KT 15SM SCT180 21/18 A2984 RMK AC2 SLP105=
CYOW;2006-07-28 06:00;METAR CYOW 280600Z 25004KT 15SM SKC 20/18 A2983 RMK SLP102=
CYOW;2006-07-28 07:00;METAR CYOW 280700Z 18002KT 15SM OVC200 20/18 A2984 RMK CI5 SLP103=
CYOW;2006-07-28 08:00;METAR CYOW 280800Z 18002KT 15SM FEW240 20/18 A2983 RMK CI0 SLP100=
CYOW;2006-07-28 09:00;METAR CYOW 280900Z 19003KT 15SM FEW230 BKN250 19/17 A2984 RMK CI2CI0 SLP104=
CYOW;2006-07-28 10:00;METAR CYOW 281000Z 21003KT 15SM FEW180 SCT220 BKN250 19/17 A2985 RMK AC1CI3CI0 TCU SE AC TR SLP109=
CYOW;2006-07-28 11:00;METAR CYOW 281100Z 26004KT 15SM SCT180 BKN220 BKN250 20/18 A2985 RMK AC3CI2CI1 SLP107=
CYOW;2006-07-28 12:00;METAR CYOW 281200Z 22002KT 12SM FEW180 BKN200 BKN250 21/19 A2985 RMK AC2CI3CI2 SLP107=
CYOW;2006-07-28 13:00;METAR CYOW 281300Z 22004KT 12SM BKN180 OVC200 21/19 A2985 RMK AC5CI2 SLP107=
CYOW;2006-07-28 14:00;METAR CYOW 281400Z 29002KT 12SM BKN180 OVC200 22/19 A2983 RMK AC5CI2 SLP102=
CYOW;2006-07-28 15:00;METAR CYOW 281500Z 33003KT 15SM FEW080 SCT180 OVC220 23/19 A2983 RMK AC1AC3CI3 SLP100=
CYOW;2006-07-28 16:00;METAR CYOW 281600Z 33003KT 15SM FEW020 BKN050 BKN180 BKN200 24/20 A2982 RMK CU2SC3AC2CI0 SLP098=
CYOW;2006-07-28 17:00;METAR CYOW 281700Z 28007KT 15SM SCT025 BKN180 OVC220 25/19 A2982 RMK CU3AC3CI2 SLP099=
CYOW;2006-07-28 18:00;METAR CYOW 281800Z 29007KT 15SM SCT025 OVC180 25/20 A2982 RMK CU3AS5 SLP096=
CYOW;2006-07-28 19:00;METAR CYOW 281900Z 30006KT 15SM SCT022 SCT180 BKN240 25/20 A2981 RMK CU3AS1CI0 SLP095=
CYOW;2006-07-28 20:00;METAR CYOW 282000Z 27005KT 15SM SCT022 BKN240 26/20 A2981 RMK CU4CI0 SLP095=
CYOW;2006-07-28 21:00;METAR CYOW 282100Z 29009KT 15SM SCT028 SCT240 27/20 A2981 RMK CU3CI1 SLP093=
CYOW;2006-07-28 22:00;METAR CYOW 282200Z 26007KT 15SM FEW030 27/20 A2981 RMK CU2 SLP093=
CYOW;2006-07-28 23:00;METAR CYOW 282300Z 27007KT 15SM FEW030 FEW240 27/19 A2980 RMK CU1CI1 SLP091=
CYOW;2006-07-29 00:00;METAR CYOW 290000Z 25003KT 15SM FEW050 FEW240 26/19 A2981 RMK CU1CI1 SLP093=
CYOW;2006-07-29 01:00;METAR CYOW 290100Z 21003KT 15SM FEW050 FEW240 25/19 A2982 RMK CU1CI1 SLP096=
CYOW;2006-07-29 02:00;METAR CYOW 290200Z 19005KT 15SM SKC 23/19 A2982 RMK SLP098=
CYOW;2006-07-29 03:00;METAR CYOW 290300Z 19004KT 15SM BKN086 22/19 A2982 RMK AC5 SLP098=
CYOW;2006-07-29 04:00;METAR CYOW 290400Z 19004KT 15SM FEW064 22/19 A2982 RMK SC1 SLP096=
CYOW;2006-07-29 05:00;METAR CYOW 290500Z 24004KT 15SM FEW065 22/19 A2981 RMK SC2 SLP095=
CYOW;2006-07-29 06:00;METAR CYOW 290600Z 24005KT 15SM SCT120 21/19 A2981 RMK AC3 SLP093=
CYOW;2006-07-29 07:00;METAR CYOW 290700Z 25004KT 15SM SCT120 20/18 A2981 RMK AC3 SLP094=
CYOW;2006-07-29 08:00;METAR CYOW 290800Z 22005KT 15SM SKC 20/18 A2980 RMK SLP091=
CYOW;2006-07-29 09:00;METAR CYOW 290900Z 23005KT 15SM FEW120 20/17 A2980 RMK AC1 ACC ASOCTD SLP092=
CYOW;2006-07-29 10:00;METAR CYOW 291000Z 23006KT 15SM FEW120 20/17 A2981 RMK AC2 SLP094=
CYOW;2006-07-29 11:00;METAR CYOW 291100Z 23006KT 12SM FEW120 21/17 A2982 RMK AC2 SLP099=
CYOW;2006-07-29 12:00;METAR CYOW 291200Z 24006KT 12SM FEW120 22/19 A2982 RMK AC1 SLP097=
CYOW;2006-07-29 13:00;METAR CYOW 291300Z 29010KT 12SM FEW090 24/19 A2981 RMK AC2 SLP094=
CYOW;2006-07-29 14:00;METAR CYOW 291400Z 29009KT 12SM FEW090 25/20 A2980 RMK AC1 SLP092=
CYOW;2006-07-29 15:00;METAR CYOW 291500Z 30007KT 12SM FEW028 SCT120 27/20 A2982 RMK CU1AC2 SLP097=
CYOW;2006-07-29 16:00;METAR CYOW 291600Z 26007KT 12SM FEW030 27/21 A2981 RMK CU2 SLP094=
CYOW;2006-07-29 17:00;METAR CYOW 291700Z 26009KT 12SM SCT030 BKN240 29/21 A2980 RMK CU3CI1 SLP090=
CYOW;2006-07-29 19:00;METAR CYOW 291900Z 29010KT 12SM SCT040TCU BKN210 29/20 A2977 RMK TCU3CS2 SLP080=
CYOW;2006-07-29 20:00;METAR CYOW 292000Z 26010KT 12SM SCT040TCU 28/20 A2976 RMK TCU4 SLP075=
CYOW;2006-07-29 21:00;METAR CYOW 292100Z 28007KT 12SM FEW050TCU SCT090 BKN240 28/21 A2975 RMK TCU2AC1CI2 SLP073=
CYOW;2006-07-29 22:00;METAR CYOW 292200Z 30010KT 12SM FEW030TCU FEW040 BKN090 OVC180 26/20 A2975 RMK TCU1SC1AC4AS2 SLP075=
CYOW;2006-07-29 23:00;METAR CYOW 292300Z 27005KT 12SM FEW040 SCT100 BKN180 BKN240 25/20 A2975 RMK SC1AC3AS2CC2 SC TR SLP073=
CYOW;2006-07-30 00:00;METAR CYOW 300000Z 29007KT 15SM FEW030 SCT100 BKN180 BKN250 25/20 A2976 RMK SC2AC2AS2CI1 SLP076=
CYOW;2006-07-30 01:00;METAR CYOW 300100Z 36007KT 15SM FEW040 SCT080 BKN150 BKN250 24/19 A2978 RMK SC2AC2AC2CI1 SLP085=
CYOW;2006-07-30 02:00;METAR CYOW 300200Z 32009KT 15SM FEW100 BKN250 23/17 A2981 RMK AC1CI1 SLP093=
CYOW;2006-07-30 03:00;METAR CYOW 300300Z 34010KT 15SM FEW050 SCT250 22/17 A2982 RMK SC2CI0 SLP097=
CYOW;2006-07-30 04:00;METAR CYOW 300400Z 36011KT 15SM FEW250 21/13 A2983 RMK CI0 SLP101=
CYOW;2006-07-30 05:00;METAR CYOW 300500Z 36009KT 15SM FEW250 19/12 A2984 RMK CI0 SLP105=
CYOW;2006-07-30 06:00;METAR CYOW 300600Z 35007KT 15SM SKC 18/11 A2986 RMK SLP112=
CYOW;2006-07-30 07:00;METAR CYOW 300700Z 36006KT 15SM SKC 17/11 A2987 RMK SLP115=
CYOW;2006-07-30 08:00;METAR CYOW 300800Z 36006KT 15SM SKC 16/10 A2989 RMK SLP120=
CYOW;2006-07-30 09:00;METAR CYOW 300900Z 03004KT 15SM FEW250 15/11 A2988 RMK CI1 SLP119=
CYOW;2006-07-30 10:00;METAR CYOW 301000Z 36005KT 20SM FEW250 14/10 A2989 RMK CI1 SLP123=
CYOW;2006-07-30 11:00;METAR CYOW 301100Z 01004KT 20SM FEW210 FEW270 15/10 A2991 RMK CI1CI0 SLP130=
CYOW;2006-07-30 12:00;METAR CYOW 301200Z 01006KT 20SM FEW180 FEW240 17/10 A2993 RMK AC1CI0 SLP136=
CYOW;2006-07-30 13:00;METAR CYOW 301300Z 02002KT 20SM FEW240 18/10 A2993 RMK CI1 SLP136=
CYOW;2006-07-30 14:00;METAR CYOW 301400Z 04002KT 20SM FEW020 FEW180 FEW240 19/11 A2992 RMK CU1AC1CI1 TR CU AC SLP133=
CYOW;2006-07-30 15:00;METAR CYOW 301500Z 00000KT 20SM FEW030 FEW240 20/10 A2992 RMK CU1CI1 TR CLDS SLP133=
CYOW;2006-07-30 16:00;METAR CYOW 301600Z 00000KT 20SM FEW040 FEW240 21/11 A2991 RMK CU1CI1 SLP129=
CYOW;2006-07-30 17:00;METAR CYOW 301700Z 32004KT 20SM FEW040 FEW240 22/09 A2990 RMK CU1CI1 TR CLDS SLP124=
CYOW;2006-07-30 18:00;METAR CYOW 301800Z 34004KT 20SM FEW240 23/09 A2990 RMK CI1 SLP124=
CYOW;2006-07-30 19:00;METAR CYOW 301900Z 24005KT 20SM FEW240 24/09 A2988 RMK CI1 SLP117=
CYOW;2006-07-30 20:00;METAR CYOW 302000Z 27006KT 20SM FEW240 24/10 A2987 RMK CI1 SLP115=
CYOW;2006-07-30 21:00;METAR CYOW 302100Z 32007KT 20SM FEW240 25/08 A2985 RMK CI2 SLP109=
CYOW;2006-07-30 22:00;METAR CYOW 302200Z 27006KT 20SM FEW250 25/10 A2984 RMK CI1 SLP104=
CYOW;2006-07-30 23:00;METAR CYOW 302300Z 28004KT 20SM FEW250 24/10 A2984 RMK CI1 SLP106=
CYOW;2006-07-31 00:00;METAR CYOW 310000Z 21002KT 20SM FEW270 24/11 A2984 RMK CI0 SLP105=
CYOW;2006-07-31 01:00;METAR CYOW 310100Z 13002KT 20SM FEW100 FEW270 20/11 A2985 RMK AC1CI1 AC TR SLP107=
CYOW;2006-07-31 02:00;METAR CYOW 310200Z 16005KT 15SM FEW060 SCT250 20/11 A2985 RMK SC2CI1 SLP109=
CYOW;2006-07-31 03:00;METAR CYOW 310300Z 15004KT 15SM BKN067 20/12 A2985 RMK AC7 SLP109=
CYOW;2006-07-31 04:00;METAR CYOW 310400Z 15004KT 15SM BKN071 20/13 A2985 RMK AC7 SLP109=
CYOW;2006-07-31 05:00;METAR CYOW 310500Z 19003KT 15SM FEW040 SCT070 19/14 A2985 RMK SC1AC2 SLP107=
CYOW;2006-07-31 06:00;METAR CYOW 310600Z 17004KT 15SM FEW140 18/15 A2982 RMK AC2 SLP099=
CYOW;2006-07-31 07:00;METAR CYOW 310700Z 19004KT 15SM BKN044 BKN120 18/16 A2983 RMK SC6AC1 SLP101=
CYOW;2006-07-31 08:00;METAR CYOW 310800Z 00000KT 15SM OVC046 19/17 A2983 RMK SC7 SLP102=
CYOW;2006-07-31 09:00;METAR CYOW 310900Z 19003KT 15SM BKN047 OVC067 19/17 A2983 RMK SC6AC1 SLP101=
CYOW;2006-07-31 10:00;METAR CYOW 311000Z 19004KT 15SM BKN048 BKN064 19/17 A2983 RMK SC6SC2 SLP101=
CYOW;2006-07-31 11:00;METAR CYOW 311100Z 20003KT 12SM BKN030 OVC063 20/18 A2985 RMK SC5SC3 SLP108=
CYOW;2006-07-31 12:00;METAR CYOW 311200Z 22004KT 12SM SCT020 BKN070 BKN240 22/18 A2985 RMK SC3AC2CI1 SLP106=
CYOW;2006-07-31 13:00;METAR CYOW 311300Z 22005KT 12SM FEW030 OVC063 23/18 A2985 RMK SC2SC6 SLP107=
CYOW;2006-07-31 14:00;METAR CYOW 311400Z 22004KT 12SM BKN063 23/19 A2985 RMK SC6 SLP106=
CYOW;2006-07-31 15:00;METAR CYOW 311500Z 19004KT 12SM FEW040 BKN052 25/20 A2984 RMK SC2SC5 SLP105=
CYOW;2006-07-31 16:00;METAR CYOW 311600Z 26002KT 10SM SCT040 OVC073 26/20 A2984 RMK SC3AC5 SLP105=
CYOW;2006-07-31 17:00;METAR CYOW 311700Z 20004KT 10SM BKN022 BKN040 27/21 A2983 RMK SC5SC2 SLP102=
CYOW;2006-07-31 18:00;METAR CYOW 311800Z 22004KT 10SM SCT028 BKN240 29/22 A2980 RMK CU3CI0 SLP092=
CYOW;2006-07-31 19:00;METAR CYOW 311900Z 21003KT 10SM SCT030 BKN240 29/22 A2978 RMK CU4CI0 SLP085=
CYOW;2006-07-31 20:00;METAR CYOW 312000Z 13005KT 10SM SCT033 SCT180 BKN240 29/22 A2975 RMK CU3AC1CI0 SLP075=
CYOW;2006-07-31 21:00;METAR CYOW 312100Z 25006KT 10SM BKN040 BKN180 30/21 A2977 RMK CU5AC1 SLP080=
CYOW;2006-07-31 22:00;METAR CYOW 312200Z 28004KT 12SM SCT033 BKN071 BKN150 29/22 A2977 RMK SC4AC2AC1 SLP081=
CYOW;2006-07-31 23:00;METAR CYOW 312300Z 32006KT 12SM FEW030TCU FEW035 BKN075 BKN120 28/21 A2979 RMK TCU1SC1AC3AS2 TCU ESE SLP088=
CYOW;2006-07-31 23:06;SPECI CYOW 312306Z 30005KT 10SM -RA FEW030TCU FEW035 SCT075 BKN100 28/ RMK TCU1SC1AC2AS4 TCU ESE=
CYOW;2006-07-31 23:37;SPECI CYOW 312337Z 00000KT 12SM FEW025TCU SCT070 BKN120 BKN170 27/ RMK TCU1AC2AS2AC2 TCU E-SE=
CYOW;2006-08-01 00:00;METAR CYOW 010000Z 22002KT 12SM FEW030 FEW070 BKN120 BKN180 28/22 A2978 RMK SC1AC2AS2AC2 SLP083=
CYOW;2006-08-01 00:30;SPECI CYOW 010030Z 22007KT 12SM -RA FEW030 FEW070 BKN110 BKN180 27/ RMK SC1AC2AS4AC1 RA VRY LGT=
CYOW;2006-08-01 01:00;METAR CYOW 010100Z 27003KT 12SM FEW030 SCT080 BKN120 BKN180 25/23 A2979 RMK SC1AC3AS2AC2 SC TR SLP088=
CYOW;2006-08-01 02:00;METAR CYOW 010200Z 25006KT 12SM FEW015 SCT080 BKN120 BKN220 24/22 A2982 RMK SC1AC2AC3CI1 OCNL LTNG DIST SSW SLP095=
CYOW;2006-08-01 03:00;METAR CYOW 010300Z 23005KT 12SM FEW050 BKN120 BKN240 24/22 A2980 RMK SC2AC4CI1 OCNL LTNG DIST S SLP091=
CYOW;2006-08-01 03:16;SPECI CYOW 010316Z 23005KT 6SM -TSRA BKN040 OVC100 23/ RMK SC6AC2 CB EMBD LTGICCG=
CYOW;2006-08-01 04:00;METAR CYOW 010400Z 22006KT 1 1/2SM +TSRA SCT008 OVC031CB 23/22 A2981 RMK RA2SF2CB4 LTGIC VIS VRB 1-2 /R10/ SLP095=
CYOW;2006-08-01 04:16;SPECI CYOW 010416Z 17004KT 5SM -SHRA FEW007 BKN040 OVC080 23/ RETSRA RMK SF1SC6AC2 OCNL LTNG DIST E=
CYOW;2006-08-01 04:40;SPECI CYOW 010440Z 14004KT 10SM -TSRA BKN050 OVC120 23/ RERA RMK SC6AC2 CB EMBD LTGICCG NW=
CYOW;2006-08-01 05:00;METAR CYOW 010500Z 07005KT 10SM -TSRA SCT031CB OVC052 23/22 A2980 RERA RMK CB3SC5 FRQ LTGICCG SW-N SLP090=
CYOW;2006-08-01 05:18;SPECI CYOW 010518Z 06004KT 10SM TS OVC026CB 23/ RMK CB8 FRQ LTGICCG=
CYOW;2006-08-01 05:26;SPECI CYOW 010526Z 06004KT 5SM TSRA OVC026CB 23/ RMK CB8 FRQ LTGICCG=
CYOW;2006-08-01 06:00;METAR CYOW 010600Z 09004KT 5SM -TSRA FEW004 BKN018CB OVC030 23/22 A2978 RERA RMK SF2CB5SC2 LTGICCG /R19/ SLP083=
CYOW;2006-08-01 07:00;METAR CYOW 010700Z 00000KT 8SM -TSRA FEW004 BKN016CB OVC030 23/22 A2978 RERA RMK SF2CB5SC2 LTGICCG SLP082=
CYOW;2006-08-01 07:17;SPECI CYOW 010717Z 00000KT 3/4SM +TSRA VV005 23/ RMK RA8 CB EMBD FRQ LTGIC=
CYOW;2006-08-01 07:29;SPECI CYOW 010729Z 00000KT 2SM +TSRA SCT007 OVC040CB 23/ RMK SF3CB5 FRQ LTGICCG=
CYOW;2006-08-01 07:44;SPECI CYOW 010744Z 23005KT 12SM TS SCT030CB BKN070 OVC120 23/ RERA RMK CB3AC3AC2 LTGICCG TS MOVG E=
CYOW;2006-08-01 08:00;METAR CYOW 010800Z 00000KT 12SM FEW030CB BKN071 OVC120 23/21 A2976 RETSRA RMK CB2AC4AC2 TS DIST E PRES UNSTDY /R20/ SLP075=
CYOW;2006-08-01 10:00;METAR CYOW 011000Z 18002KT 3SM BR FEW030CB FEW080 FEW250 23/22 A2976 RMK CB1AC1CI1 CB NE DIST AC TR SLP077=
CYOW;2006-08-01 10:16;SPECI CYOW 011016Z 18002KT 2 1/2SM BR FEW080 FEW250 23/ RMK AC1CI1 CB TOP NE=
CYOW;2006-08-01 11:00;METAR CYOW 011100Z 18002KT 3SM BR FEW080 FEW250 23/22 A2976 RMK AC1CI1 SLP077=
CYOW;2006-08-01 15:00;METAR CYOW 011500Z 18008KT 12SM FEW080 SCT250 31/26 A2974 RMK AC1CI1 WND=
CYOW;2006-08-01 16:00;METAR CYOW 011600Z 18008KT 12SM FEW140 SCT250 33/25 A2974 RMK AC1CI1 WND=
CYOW;2006-08-01 18:00;METAR CYOW 011800Z 18012KT 15SM FEW035 FEW140 SCT250 35/25 A2970 RMK CU1AC2CI0 WND ESTD CU TR SLP055=
CYOW;2006-08-01 19:00;METAR CYOW 011900Z 18012KT 15SM FEW040 FEW250 35/25 A2969 RMK CU1CI1 WND=
CYOW;2006-08-01 20:00;METAR CYOW 012000Z 25013G18KT 15SM FEW035 FEW250 36/24 A2968 RMK CU1CI1 CLDS TR SLP048=
CYOW;2006-08-01 21:00;METAR CYOW 012100Z 26012G19KT 15SM FEW040 FEW250 36/23 A2965 RMK CU1CI0 CU TR SLP039=
CYOW;2006-08-01 22:00;METAR CYOW 012200Z 25013G18KT 15SM FEW180 36/23 A2965 RMK AC0 SLP039=
CYOW;2006-08-01 23:00;METAR CYOW 012300Z 24012G19KT 15SM FEW180 FEW220 BKN250 34/22 A2966 RMK AC1CC2CI4 AC TR SLP043=
CYOW;2006-08-02 00:00;METAR CYOW 020000Z 26008KT 15SM FEW050 FEW110 BKN250 32/22 A2969 RMK CU1AC2CI5 CU TR N SLP051=
CYOW;2006-08-02 01:00;METAR CYOW 020100Z 27010G15KT 15SM BKN170 OVC250 32/21 A2971 RMK AC6CI2 SLP057=
CYOW;2006-08-02 02:00;METAR CYOW 020200Z 28009KT 15SM OVC150 32/22 A2973 RMK AC8 SLP065=
CYOW;2006-08-02 03:00;METAR CYOW 020300Z 26007KT 15SM OVC160 30/22 A2973 RMK AC8 SLP064=
CYOW;2006-08-02 04:00;METAR CYOW 020400Z 23006KT 15SM BKN190 30/22 A2973 RMK AC5 SLP067=
CYOW;2006-08-02 05:00;METAR CYOW 020500Z 26006KT 15SM FEW110 OVC200 29/22 A2973 RMK AC2CI6 SLP066=
CYOW;2006-08-02 06:00;METAR CYOW 020600Z 23003KT 15SM FEW040 BKN100 27/23 A2973 RMK CU1AC6 SLP067=
CYOW;2006-08-02 07:00;METAR CYOW 020700Z 25005KT 15SM BKN060 OVC150 27/23 A2973 RMK SC6AC2 SLP067=
CYOW;2006-08-02 08:00;METAR CYOW 020800Z 28007KT 15SM FEW070 FEW150 SCT180 26/21 A2974 RMK AC1AC2AC2 SLP069=
CYOW;2006-08-02 09:00;METAR CYOW 020900Z 28006KT 15SM FEW150 SCT250 25/21 A2973 RMK AC1CI0 SLP067=
CYOW;2006-08-02 10:00;METAR CYOW 021000Z 28007KT 15SM FEW120 FEW200 BKN250 25/21 A2975 RMK AC2CI1CI0 SLP073=
CYOW;2006-08-02 11:00;METAR CYOW 021100Z 28008KT 15SM FEW150 FEW250 25/21 A2976 RMK AC1CI0 AC TR SLP075=
CYOW;2006-08-02 12:00;METAR CYOW 021200Z 30006KT 15SM FEW150 FEW250 26/21 A2976 RMK AC1CI0 AC TR SLP075=
CYOW;2006-08-02 13:00;METAR CYOW 021300Z 26006KT 15SM SCT160 BKN210 27/22 A2976 RMK AC3CI3 SLP075=
CYOW;2006-08-02 14:00;METAR CYOW 021400Z 27005KT 15SM SCT090 BKN130 OVC150 27/22 A2976 RMK AC3AC3AC1 SLP075=
CYOW;2006-08-02 15:00;METAR CYOW 021500Z 25004KT 15SM SCT080 OVC130 27/23 A2976 RMK AC3AC4 SLP076=
CYOW;2006-08-02 16:00;METAR CYOW 021600Z 23013KT 15SM FEW030 SCT080 OVC130 29/23 A2973 RMK CU1AC3AC4 CU TR SLP068=
CYOW;2006-08-02 17:00;METAR CYOW 021700Z 25009G17KT 15SM BKN036 OVC080 28/23 A2972 RMK SC6AC2 CU EMBD SLP063=
CYOW;2006-08-02 18:00;METAR CYOW 021800Z 24013KT 15SM BKN036 BKN080 30/23 A2967 RMK SC6AC2 CU EMBD SLP046=
CYOW;2006-08-02 19:00;METAR CYOW 021900Z 25015G24KT 15SM OVC045 28/20 A2966 RMK SC8 CU EMBD SLP041=
CYOW;2006-08-02 20:00;METAR CYOW 022000Z 31016KT 15SM OVC040 28/22 A2966 RMK SC7 CU EMBD SLP041=
CYOW;2006-08-02 21:00;METAR CYOW 022100Z 31009KT 15SM FEW040 BKN120 BKN180 27/23 A2970 RMK SC2AC3AC2 CU EMBD SLP057=
CYOW;2006-08-02 22:00;METAR CYOW 022200Z 32005KT 15SM FEW060 SCT100 BKN160 27/23 A2968 RMK SC1AC2AC4 SLP050=
CYOW;2006-08-02 23:00;METAR CYOW 022300Z 09003KT 15SM VCSH OVC052 27/23 A2965 RMK SC8 SH N-NE SLP040=
CYOW;2006-08-02 23:46;SPECI CYOW 022346Z 05006KT 10SM -SHRA FEW008 OVC052 26/ RMK SF2SC6 CVCTV CLD EMBD=
CYOW;2006-08-03 00:00;METAR CYOW 030000Z 07007KT 15SM VCSH BKN052 BKN100 25/23 A2962 RMK SC6AC1 TCU ASOCTD SLP030=
CYOW;2006-08-03 00:33;SPECI CYOW 030033Z 08005KT 10SM SHRA OVC048 24/ RMK SC8 CVCTV CLD EMBD=
CYOW;2006-08-03 00:36;SPECI CYOW 030036Z 07008KT 2SM +SHRA BR OVC020 24/ RMK SF8 CVCTV CLD EMBD=
CYOW;2006-08-03 00:48;SPECI CYOW 030048Z 07010KT 2SM +TSRA BR OVC040 24/ RMK SC8 LTGIC CB EMBD=
CYOW;2006-08-03 01:00;METAR CYOW 030100Z 07011KT 3SM +TSRA BR OVC040 24/23 A2959 RMK SC8 LTGIC CB EMBD /R10/ SLP021=
CYOW;2006-08-03 01:10;SPECI CYOW 030110Z 10008G15KT 5SM +TSRA BR FEW011 OVC035 24/ RMK CF2SC6 LTGIC CB EMBD=
CYOW;2006-08-03 01:22;SPECI CYOW 030122Z 01002KT 5SM +TSRA BR SCT004 OVC027 24/ RMK SF3SC5 LTGIC CB EMBD=
CYOW;2006-08-03 02:00;METAR CYOW 030200Z 06004KT 8SM TSRA FEW004 OVC018 24/23 A2957 RERA RMK SF2SC6 LTGIC CB EMBD /R20/ SLP013=
CYOW;2006-08-03 03:00;METAR CYOW 030300Z 30011G16KT 7SM TSRA OVC016 23/22 A2959 RERA RMK SC8 LTGIC CB EMBD SLP019=
CYOW;2006-08-03 03:16;SPECI CYOW 030316Z 05004G15KT 10SM TSRA SCT004 OVC012 23/ RMK CF3SC5 LTGIC CB EMBD=
CYOW;2006-08-03 03:31;SPECI CYOW 030331Z 11003KT 15SM -RA FEW006 OVC021 23/ RETS RMK SC2SC6=
CYOW;2006-08-03 04:00;METAR CYOW 030400Z 00000KT 15SM -RA SCT008 OVC023 23/21 A2962 RETS RMK SC3SC5 SLP029=
CYOW;2006-08-03 04:27;SPECI CYOW 030427Z 28002KT 8SM -RA OVC009 22/ RMK SC8=
CYOW;2006-08-03 04:33;SPECI CYOW 030433Z 00000KT 1 1/2SM +SHRA BR OVC008 22/ RMK SF8 CVCTV CLD EMBD=
CYOW;2006-08-03 05:19;SPECI CYOW 030519Z 32003KT 8SM OVC008 22/ RMK SC8=
CYOW;2006-08-03 06:00;METAR CYOW 030600Z 05012KT 2 1/2SM +SHRA BR SCT004 OVC016 20/19 A2962 RMK SF3SC5 CVCTV CLD EMBD SLP030=
CYOW;2006-08-03 06:29;SPECI CYOW 030629Z 03011KT 4SM RA BR FEW003 OVC010 19/ RERA RMK SF2NS6=
CYOW;2006-08-03 07:00;METAR CYOW 030700Z 05013KT 8SM -RA SCT005 OVC028 19/18 A2966 RERA RMK CF3SC5 SLP044=
CYOW;2006-08-03 07:38;SPECI CYOW 030738Z 05012G17KT 15SM FEW008 OVC022 19/ RMK CF1SC7=
CYOW;2006-08-03 08:00;METAR CYOW 030800Z 05010KT 15SM FEW008 OVC025 19/17 A2969 RMK CF1SC7 SLP052=
CYOW;2006-08-03 08:37;SPECI CYOW 030837Z 06010KT 12SM FEW005 OVC013 18/ RMK CF2SC6 CIG RAG=
CYOW;2006-08-03 09:00;METAR CYOW 030900Z 07008KT 12SM SCT005 OVC024 18/17 A2969 RMK CF4SC4 SLP054=
CYOW;2006-08-03 09:04;SPECI CYOW 030904Z 07008KT 10SM -RA SCT005 OVC022 18/ RMK CF3SC5=
CYOW;2006-08-03 09:33;SPECI CYOW 030933Z 08006KT 15SM FEW013 OVC030 18/ RMK SF1SC7=
CYOW;2006-08-03 10:00;METAR CYOW 031000Z 06004KT 15SM FEW008 BKN012 OVC018 18/17 A2972 RMK CF1SC6SC2 CUFRA TR SLP063=
CYOW;2006-08-03 10:29;SPECI CYOW 031029Z 08004KT 15SM FEW012 FEW025 OVC042 18/ RMK CF1SC2SC6=
CYOW;2006-08-03 11:00;METAR CYOW 031100Z 11002KT 15SM BKN049 OVC070 19/17 A2975 RMK SC5AC3 SLP074=
CYOW;2006-08-03 12:00;METAR CYOW 031200Z 01004KT 15SM BKN052 OVC070 19/18 A2979 RMK SC6AC2 SLP086=
CYOW;2006-08-03 13:00;METAR CYOW 031300Z 00000KT 15SM OVC059 20/17 A2979 RMK SC8 SLP087=
CYOW;2006-08-03 14:00;METAR CYOW 031400Z 35005KT 15SM FEW020 BKN060 OVC090 21/19 A2981 RMK CU1SC5AC2 SLP093=
CYOW;2006-08-03 16:00;METAR CYOW 031600Z 00000KT 15SM SCT030 24/18 A2982 RMK CU4 SLP097=
CYOW;2006-08-03 17:00;METAR CYOW 031700Z 26003KT 15SM SCT030 25/17 A2982 RMK CU3 SLP096=
CYOW;2006-08-03 18:00;METAR CYOW 031800Z 27003KT 15SM SCT040 26/17 A2982 RMK CU4 SLP097=
CYOW;2006-08-03 19:00;METAR CYOW 031900Z 08005KT 15SM SCT040 27/16 A2981 RMK CU4 SLP093=
CYOW;2006-08-03 20:00;METAR CYOW 032000Z 20004KT 15SM BKN057 27/15 A2981 RMK SC6 CU EMBD SLP093=
CYOW;2006-08-03 21:00;METAR CYOW 032100Z 26002KT 15SM BKN057 BKN220 27/16 A2981 RMK SC6CI1 CU EMBD SLP094=
CYOW;2006-08-03 22:00;METAR CYOW 032200Z 16002KT 15SM BKN055 BKN180 OVC220 26/17 A2979 RMK SC5AC2CI1 CU EMBD SLP087=
CYOW;2006-08-03 23:00;METAR CYOW 032300Z 18003KT 15SM BKN190 25/19 A2978 RMK AC7 SLP084=
CYOW;2006-08-04 00:00;METAR CYOW 040000Z 20002KT 15SM FEW040 FEW150 OVC180 25/17 A2980 RMK SC1AC1AC7 SC TR SLP090=
CYOW;2006-08-04 01:00;METAR CYOW 040100Z 22003KT 15SM FEW150 BKN180 24/17 A2980 RMK AC1AC6 SLP091=
CYOW;2006-08-04 02:00;METAR CYOW 040200Z 23003KT 15SM OVC160 24/18 A2981 RMK AC8 SLP095=
CYOW;2006-08-04 03:00;METAR CYOW 040300Z 31003KT 15SM SCT068 OVC180 22/19 A2982 RMK AC3AC5 SLP098=
CYOW;2006-08-04 04:00;METAR CYOW 040400Z 00000KT 15SM SCT240 23/18 A2982 RMK CI3 SLP096=
CYOW;2006-08-04 05:00;METAR CYOW 040500Z 20003KT 15SM FEW066 21/18 A2981 RMK AC2 SLP095=
CYOW;2006-08-04 06:00;METAR CYOW 040600Z 25003KT 15SM SCT140 21/19 A2981 RMK AC4 SLP094=
CYOW;2006-08-04 07:00;METAR CYOW 040700Z 27003KT 15SM FEW150 20/18 A2980 RMK AC2 SLP091=
CYOW;2006-08-04 08:00;METAR CYOW 040800Z 30005KT 15SM FEW140 18/17 A2980 RMK AC1 SLP091=
CYOW;2006-08-04 09:00;METAR CYOW 040900Z 29003KT 15SM FEW150 18/17 A2980 RMK AC2 SLP092=
CYOW;2006-08-04 10:00;METAR CYOW 041000Z 29005KT 15SM FEW150 18/18 A2982 RMK AC1 SLP096=
CYOW;2006-08-04 11:00;METAR CYOW 041100Z 29004KT 15SM FEW150 20/18 A2982 RMK AC1 SLP099=
CYOW;2006-08-04 12:00;METAR CYOW 041200Z 28004KT 15SM FEW180 21/19 A2984 RMK AC1 SLP104=
CYOW;2006-08-04 13:00;METAR CYOW 041300Z 26004KT 15SM FEW150 FEW180 23/18 A2985 RMK AC1AC1 SLP107=
CYOW;2006-08-04 14:00;METAR CYOW 041400Z 28006KT 15SM FEW150 FEW180 25/20 A2985 RMK AC1AC1 SLP109=
CYOW;2006-08-04 15:00;METAR CYOW 041500Z 27006KT 15SM FEW030 FEW160 26/18 A2986 RMK CU1AC1 SLP112=
CYOW;2006-08-04 16:00;METAR CYOW 041600Z 26007KT 15SM FEW030 FEW160 27/18 A2986 RMK CU1AC1 SLP112=
CYOW;2006-08-04 17:00;METAR CYOW 041700Z 29009KT 15SM FEW030 FEW160 28/17 A2986 RMK CU1AC1 AC TR SLP110=
CYOW;2006-08-04 18:00;METAR CYOW 041800Z 26009KT 15SM FEW030 29/18 A2985 RMK CU1 SLP107=
CYOW;2006-08-04 19:00;METAR CYOW 041900Z 27011G16KT 20SM FEW055 29/16 A2984 RMK CU2 TCU ASOCTD CB TOP DIST NW SLP103=
CYOW;2006-08-04 20:00;METAR CYOW 042000Z 28014KT 20SM FEW060 FEW120 29/14 A2984 RMK CU1AC1 TCU ASOCTD SLP104=
CYOW;2006-08-04 21:00;METAR CYOW 042100Z 30013G19KT 20SM FEW055 FEW120 28/16 A2985 RMK CU2AC1 AC TR SLP107=
CYOW;2006-08-04 22:00;METAR CYOW 042200Z 28015KT 20SM FEW055 FEW120 28/13 A2985 RMK CU1AC1 AC TR SLP108=
CYOW;2006-08-04 23:00;METAR CYOW 042300Z 29009G15KT 20SM FEW055 FEW120 27/14 A2986 RMK CU1AC1 TCU ASOCTD AC TR SLP111=
CYOW;2006-08-05 00:00;METAR CYOW 050000Z 32009G16KT 20SM FEW050 FEW100 FEW250 25/14 A2990 RMK CU1AC1CI1 CLDS TR SLP124=
CYOW;2006-08-05 01:00;METAR CYOW 050100Z 34010KT 20SM FEW050 FEW100 FEW250 23/15 A2993 RMK CU1AC1CI1 CLDS TR SLP134=
CYOW;2006-08-05 02:00;METAR CYOW 050200Z 33009KT 15SM SCT075 22/15 A2996 RMK AC2 SLP144=
CYOW;2006-08-05 03:00;METAR CYOW 050300Z 34008KT 15SM FEW090 21/14 A2999 RMK AC2 SLP154=
CYOW;2006-08-05 04:00;METAR CYOW 050400Z 36009G15KT 15SM SKC 21/12 A3000 RMK SLP160=
CYOW;2006-08-05 05:00;METAR CYOW 050500Z 35007KT 15SM SKC 19/11 A3002 RMK SLP167=
CYOW;2006-08-05 06:00;METAR CYOW 050600Z 32007KT 15SM SKC 17/11 A3004 RMK SLP173=
CYOW;2006-08-05 07:00;METAR CYOW 050700Z 32003KT 15SM SKC 16/11 A3005 RMK SLP176=
CYOW;2006-08-05 08:00;METAR CYOW 050800Z 32005KT 15SM SKC 15/11 A3007 RMK SLP181=
CYOW;2006-08-05 09:00;METAR CYOW 050900Z 01004KT 15SM FEW150 15/11 A3008 RMK AC1 SLP185=
CYOW;2006-08-05 10:00;METAR CYOW 051000Z 00000KT 15SM FEW150 15/10 A3010 RMK AC1 SLP193=
CYOW;2006-08-05 11:00;METAR CYOW 051100Z 33003KT 20SM FEW150 15/12 A3013 RMK AC2 SLP202=
CYOW;2006-08-05 12:00;METAR CYOW 051200Z 01004KT 20SM FEW150 17/11 A3014 RMK AC2 SLP208=
CYOW;2006-08-05 13:00;METAR CYOW 051300Z 02004KT 20SM FEW240 18/09 A3016 RMK CI1 SLP214=
CYOW;2006-08-05 14:00;METAR CYOW 051400Z 36004KT 20SM FEW030 FEW180 FEW240 20/10 A3017 RMK CU1AC1CI0 SLP216=
CYOW;2006-08-05 15:00;METAR CYOW 051500Z 28006KT 20SM FEW040 SCT180 20/10 A3017 RMK CU2AC1 SLP216=
CYOW;2006-08-05 16:00;METAR CYOW 051600Z 31005KT 20SM SCT040 21/11 A3016 RMK CU4 SLP212=
CYOW;2006-08-05 17:00;METAR CYOW 051700Z 29009KT 20SM BKN050 22/11 A3016 RMK CU5 SLP212=
CYOW;2006-08-05 18:00;METAR CYOW 051800Z 30007G17KT 20SM BKN056 22/11 A3016 RMK CU5 SLP214=
CYOW;2006-08-05 19:00;METAR CYOW 051900Z 27008KT 20SM BKN056 BKN240 23/11 A3016 RMK CU5CI1 SLP215=
CYOW;2006-08-05 20:00;METAR CYOW 052000Z 29007KT 20SM SCT060 SCT240 24/11 A3015 RMK CU3CI1 SLP211=
CYOW;2006-08-05 21:00;METAR CYOW 052100Z 27006KT 20SM SCT060 SCT240 24/11 A3015 RMK CU3CI1 SLP211=
CYOW;2006-08-05 22:00;METAR CYOW 052200Z 27007KT 20SM FEW055 SCT250 23/11 A3016 RMK CU2CI1 SLP213=
CYOW;2006-08-05 23:00;METAR CYOW 052300Z 28005KT 20SM FEW055 FEW250 23/12 A3015 RMK CU1CI1 SLP211=
CYOW;2006-08-06 00:00;METAR CYOW 060000Z 26004KT 20SM FEW060 FEW250 22/12 A3016 RMK SC1CI1 SC TR SLP215=
CYOW;2006-08-06 01:00;METAR CYOW 060100Z 27002KT 20SM FEW150 FEW250 21/11 A3017 RMK AC1CI0 AC TR SLP216=
CYOW;2006-08-06 02:00;METAR CYOW 060200Z 26002KT 15SM SKC 21/11 A3018 RMK SLP219=
CYOW;2006-08-06 03:00;METAR CYOW 060300Z 19003KT 15SM FEW250 18/12 A3017 RMK CI1 SLP219=
CYOW;2006-08-06 04:00;METAR CYOW 060400Z 19002KT 15SM SKC 17/12 A3018 RMK SLP221=
CYOW;2006-08-06 05:00;METAR CYOW 060500Z 19004KT 15SM SKC 17/12 A3017 RMK SLP218=
CYOW;2006-08-06 06:00;METAR CYOW 060600Z 20004KT 15SM SKC 16/12 A3018 RMK SLP221=
CYOW;2006-08-06 07:00;METAR CYOW 060700Z 19004KT 15SM SKC 16/11 A3019 RMK SLP225=
CYOW;2006-08-06 08:00;METAR CYOW 060800Z 19004KT 15SM SKC 15/12 A3019 RMK SLP224=
CYOW;2006-08-06 09:00;METAR CYOW 060900Z 20002KT 15SM FEW250 15/11 A3019 RMK CI0 SLP225=
CYOW;2006-08-06 10:00;METAR CYOW 061000Z 19002KT 20SM FEW120 FEW250 15/11 A3021 RMK AC1CI1 SLP232=
CYOW;2006-08-06 11:00;METAR CYOW 061100Z 16004KT 20SM FEW120 FEW220 BKN260 16/12 A3021 RMK AC1CC1CI2 AC TR SLP232=
CYOW;2006-08-06 12:00;METAR CYOW 061200Z 18005KT 20SM BKN180 BKN240 18/14 A3021 RMK AC3CI0 SLP232=
CYOW;2006-08-06 13:00;METAR CYOW 061300Z 19005KT 20SM FEW120 SCT180 20/15 A3021 RMK ACC2AC2 SLP232=
CYOW;2006-08-06 14:00;METAR CYOW 061400Z 18007KT 20SM FEW180 22/16 A3020 RMK AC2 SLP229=
CYOW;2006-08-06 15:00;METAR CYOW 061500Z 19007KT 20SM FEW030 FEW180 24/17 A3018 RMK CU1AC1 SLP221=
CYOW;2006-08-06 16:00;METAR CYOW 061600Z 18008KT 20SM FEW040 FEW180 25/15 A3017 RMK CU2AC1 SLP218=
CYOW;2006-08-06 17:00;METAR CYOW 061700Z 22011KT 20SM FEW048 SCT180 26/14 A3016 RMK CU2AC1 SLP215=
CYOW;2006-08-06 18:00;METAR CYOW 061800Z 21008KT 20SM SCT050 BKN180 BKN220 27/14 A3014 RMK CU4AC2CC1 SLP207=
CYOW;2006-08-06 19:00;METAR CYOW 061900Z 19011KT 20SM FEW050 SCT180 BKN240 27/15 A3013 RMK CU2AC1CI1 SLP202=
CYOW;2006-08-06 20:00;METAR CYOW 062000Z 20009G15KT 20SM FEW050 BKN240 27/14 A3010 RMK CU2CI2 SLP194=
CYOW;2006-08-06 21:00;METAR CYOW 062100Z 18011KT 20SM FEW050 BKN240 27/14 A3008 RMK CU1CI2 SLP186=
CYOW;2006-08-06 22:00;METAR CYOW 062200Z 17007KT 20SM BKN250 26/15 A3006 RMK CI3 SLP179=
CYOW;2006-08-06 23:00;METAR CYOW 062300Z 17004KT 20SM BKN170 BKN250 24/16 A3003 RMK AS6CI1 SLP169=
CYOW;2006-08-07 00:00;METAR CYOW 070000Z 18002KT 20SM BKN180 BKN240 23/15 A3001 RMK AS6CI1 SLP163=
CYOW;2006-08-07 01:00;METAR CYOW 070100Z 17004KT 15SM SCT210 BKN240 22/15 A3000 RMK CC3CI2 SLP160=
CYOW;2006-08-07 02:00;METAR CYOW 070200Z 18005KT 15SM BKN210 BKN240 22/15 A2998 RMK CC5CI2 SLP154=
CYOW;2006-08-07 03:00;METAR CYOW 070300Z 18005KT 15SM FEW090 BKN220 BKN250 21/15 A2995 RMK AC2CC2CI1 SLP142=
CYOW;2006-08-07 04:00;METAR CYOW 070400Z 19005KT 15SM FEW060 BKN180 BKN250 21/16 A2993 RMK SC2AC3CI2 SLP136=
CYOW;2006-08-07 05:00;METAR CYOW 070500Z 18005KT 15SM SCT170 BKN250 21/16 A2991 RMK AC4CI1 SLP128=
CYOW;2006-08-07 06:00;METAR CYOW 070600Z 22005KT 15SM FEW055 FEW170 20/16 A2989 RMK SC1AC2 SLP122=
CYOW;2006-08-07 07:00;METAR CYOW 070700Z 22005KT 15SM FEW120 BKN180 20/16 A2988 RMK AC2AC3 SLP119=
CYOW;2006-08-07 08:00;METAR CYOW 070800Z 21004KT 15SM BKN120 20/17 A2987 RMK AC6 SLP115=
CYOW;2006-08-07 09:00;METAR CYOW 070900Z 22005KT 15SM BKN088 BKN120 21/18 A2986 RMK AC5AC2 SLP111=
CYOW;2006-08-07 10:00;METAR CYOW 071000Z 22007KT 12SM BKN100 BKN140 22/18 A2986 RMK AC5AC1 SLP111=
CYOW;2006-08-07 11:00;METAR CYOW 071100Z 22008KT 10SM FEW100 FEW140 22/18 A2987 RMK AC2AC1 SLP113=
CYOW;2006-08-07 12:00;METAR CYOW 071200Z 23008KT 10SM FEW030 SCT120 23/18 A2987 RMK CF1AC2 SLP115=
CYOW;2006-08-07 13:00;METAR CYOW 071300Z 25009KT 10SM FEW030 FEW090 24/19 A2988 RMK CF2AC1 SLP116=
CYOW;2006-08-07 14:00;METAR CYOW 071400Z 24006KT 10SM FEW030 25/19 A2987 RMK CF2 SLP114=
CYOW;2006-08-07 15:00;METAR CYOW 071500Z 26007KT 12SM SCT030 26/19 A2987 RMK CU3 SLP113=
CYOW;2006-08-07 16:00;METAR CYOW 071600Z 26008KT 12SM BKN040 BKN240 27/19 A2987 RMK CU5CI0 SLP113=
CYOW;2006-08-07 17:00;METAR CYOW 071700Z 26010G15KT 15SM BKN050 BKN240 27/17 A2986 RMK CU5CI1 SLP112=
CYOW;2006-08-07 18:00;METAR CYOW 071800Z 32012KT 15SM BKN062 BKN240 29/16 A2985 RMK CU5CI0 SLP107=
CYOW;2006-08-07 19:00;METAR CYOW 071900Z 31012KT 15SM SCT065 BKN240 28/15 A2985 RMK CU3CI1 SLP107=
CYOW;2006-08-07 20:00;METAR CYOW 072000Z 30011G16KT 15SM SCT070 BKN240 29/16 A2985 RMK CU3CI1 SLP106=
CYOW;2006-08-07 21:00;METAR CYOW 072100Z 32013KT 15SM FEW070 SCT120 BKN240 29/15 A2985 RMK CU2AC1CI0 SLP106=
CYOW;2006-08-07 22:00;METAR CYOW 072200Z 31013KT 15SM FEW050 FEW075 SCT120 SCT250 26/15 A2985 RMK CU1AC2AC1CI0 SLP109=
CYOW;2006-08-08 00:00;METAR CYOW 080000Z 31010G15KT 15SM FEW070 FEW250 25/14 A2988 RMK AC1CI0 SLP119=
CYOW;2006-08-08 01:00;METAR CYOW 080100Z 31010KT 15SM FEW070 24/13 A2991 RMK AC1 SLP128=
CYOW;2006-08-08 02:00;METAR CYOW 080200Z 34015G21KT 15SM FEW060 SCT100 22/13 A2995 RMK SC1AC2 SLP140=
CYOW;2006-08-08 03:00;METAR CYOW 080300Z 33019KT 15SM BKN100 21/12 A2997 RMK AC6 SLP150=
CYOW;2006-08-08 04:00;METAR CYOW 080400Z 34009KT 15SM FEW100 19/13 A2999 RMK AC2 SLP155=
CYOW;2006-08-08 05:00;METAR CYOW 080500Z 32010KT 15SM FEW120 18/13 A3001 RMK AC1 SLP161=
CYOW;2006-08-08 06:00;METAR CYOW 080600Z 34010KT 15SM FEW100 17/13 A3002 RMK AC1 SLP165=
CYOW;2006-08-08 07:00;METAR CYOW 080700Z 33008KT 15SM FEW100 16/12 A3004 RMK AC1 SLP173=
CYOW;2006-08-08 08:00;METAR CYOW 080800Z 31007KT 15SM FEW100 15/11 A3006 RMK AC1 SLP179=
CYOW;2006-08-08 09:00;METAR CYOW 080900Z 32008KT 15SM FEW100 FEW250 14/11 A3007 RMK AC1CI1 SLP183=
CYOW;2006-08-08 10:00;METAR CYOW 081000Z 34012KT 20SM FEW100 FEW250 15/10 A3008 RMK AC1CI0 AC TR SLP187=
CYOW;2006-08-08 11:00;METAR CYOW 081100Z 33011KT 15SM FEW100 15/10 A3010 RMK AC1 SLP193=
CYOW;2006-08-08 12:00;METAR CYOW 081200Z 34009KT 15SM FEW100 16/10 A3012 RMK AC1 SLP200=
CYOW;2006-08-08 13:00;METAR CYOW 081300Z 36011KT 15SM FEW100 17/11 A3014 RMK AC1 SLP206=
CYOW;2006-08-08 14:00;METAR CYOW 081400Z 34009KT 15SM FEW100 18/11 A3014 RMK AC1 SLP206=
CYOW;2006-08-08 15:00;METAR CYOW 081500Z 34007KT 15SM FEW100 20/12 A3014 RMK AC1 SLP208=
CYOW;2006-08-08 16:00;METAR CYOW 081600Z 31007KT 15SM FEW035 FEW100 22/13 A3014 RMK CU1AC1 AC TR SLP206=
CYOW;2006-08-08 17:00;METAR CYOW 081700Z 04002KT 15SM FEW035 FEW100 23/12 A3014 RMK CU2AC1 AC TR SLP205=
CYOW;2006-08-08 19:00;METAR CYOW 081900Z 29005KT 15SM FEW040 22/10 A3014 RMK CU1 SLP207=
CYOW;2006-08-08 20:00;METAR CYOW 082000Z 34010KT 15SM FEW040 23/09 A3014 RMK CU1 SLP206=
CYOW;2006-08-08 21:00;METAR CYOW 082100Z 34006KT 15SM FEW040 23/10 A3014 RMK CU1 SLP206=
CYOW;2006-08-08 22:00;METAR CYOW 082200Z 33011KT 15SM FEW040 23/08 A3014 RMK CU1 SLP206=
CYOW;2006-08-08 23:00;METAR CYOW 082300Z 32009KT 15SM FEW050 FEW250 23/08 A3013 RMK SC1CI1 SLP203=
CYOW;2006-08-09 00:00;METAR CYOW 090000Z 32008KT 15SM FEW060 FEW250 21/09 A3013 RMK SC1CI1 SLP204=
CYOW;2006-08-09 01:00;METAR CYOW 090100Z 34003KT 15SM FEW250 19/09 A3014 RMK CI1 SLP208=
CYOW;2006-08-09 02:00;METAR CYOW 090200Z 27004KT 15SM SKC 18/11 A3015 RMK SLP211=
CYOW;2006-08-09 03:00;METAR CYOW 090300Z 32005KT 15SM SKC 17/11 A3015 RMK SLP212=
CYOW;2006-08-09 04:00;METAR CYOW 090400Z 22003KT 15SM SKC 16/11 A3015 RMK SLP210=
CYOW;2006-08-09 05:00;METAR CYOW 090500Z 25003KT 15SM SKC 15/10 A3016 RMK SLP213=
CYOW;2006-08-09 06:00;METAR CYOW 090600Z 27002KT 15SM FEW250 15/10 A3016 RMK CI1 SLP214=
CYOW;2006-08-09 07:00;METAR CYOW 090700Z 25003KT 15SM SCT250 15/11 A3015 RMK CI1 SLP211=
CYOW;2006-08-09 08:00;METAR CYOW 090800Z 30002KT 15SM BKN250 13/10 A3014 RMK CI1 SLP207=
CYOW;2006-08-09 09:00;METAR CYOW 090900Z 25004KT 15SM FEW250 13/10 A3014 RMK CI1 SLP209=
CYOW;2006-08-09 10:00;METAR CYOW 091000Z 24003KT 15SM FEW180 FEW250 12/10 A3015 RMK AC1CI0 SLP212=
CYOW;2006-08-09 11:00;METAR CYOW 091100Z 24003KT 15SM FEW140 13/11 A3015 RMK AC1 SLP212=
CYOW;2006-08-09 12:00;METAR CYOW 091200Z 25002KT 15SM FEW140 16/13 A3015 RMK AC1 SLP211=
CYOW;2006-08-09 13:00;METAR CYOW 091300Z 28004KT 15SM FEW140 19/13 A3015 RMK AC1 SLP211=
CYOW;2006-08-09 14:00;METAR CYOW 091400Z 26004KT 15SM FEW140 21/12 A3014 RMK AC1 SLP206=
CYOW;2006-08-09 15:00;METAR CYOW 091500Z 26007KT 15SM FEW040 FEW140 23/11 A3012 RMK CU1AC1 SLP199=
CYOW;2006-08-09 16:00;METAR CYOW 091600Z 26008KT 15SM FEW040 FEW140 24/11 A3010 RMK CU1AC1 SLP192=
CYOW;2006-08-09 17:00;METAR CYOW 091700Z 26008KT 15SM FEW040 25/11 A3007 RMK CU1 SLP184=
CYOW;2006-08-09 18:00;METAR CYOW 091800Z 24008KT 15SM FEW040 FEW250 25/11 A3005 RMK CU1CI0 SLP176=
CYOW;2006-08-09 19:00;METAR CYOW 091900Z 26009KT 15SM FEW040 FEW250 25/11 A3002 RMK CU1CI0 SLP168=
CYOW;2006-08-09 20:00;METAR CYOW 092000Z 23007KT 15SM FEW040 FEW250 26/10 A3000 RMK CU1CI0 SLP160=
CYOW;2006-08-09 21:00;METAR CYOW 092100Z 23011KT 15SM SCT250 26/10 A2997 RMK CI0 SLP150=
CYOW;2006-08-09 22:00;METAR CYOW 092200Z 23010G15KT 15SM FEW240 BKN260 26/10 A2995 RMK CI1CI0 SLP143=
CYOW;2006-08-09 23:00;METAR CYOW 092300Z 23006KT 15SM OVC270 25/09 A2994 RMK CI2 SLP140=
CYOW;2006-08-10 00:00;METAR CYOW 100000Z 20006KT 15SM FEW180 OVC270 23/13 A2994 RMK AC1CI2 ACC ASOCTD SLP137=
CYOW;2006-08-10 01:00;METAR CYOW 100100Z 20008KT 15SM FEW180 OVC270 22/11 A2992 RMK AC1CI2 SLP131=
CYOW;2006-08-10 02:00;METAR CYOW 100200Z 21007KT 15SM BKN270 20/09 A2992 RMK CI2 SLP132=
CYOW;2006-08-10 03:00;METAR CYOW 100300Z 23008KT 15SM BKN270 19/10 A2991 RMK CI1 SLP129=
CYOW;2006-08-10 04:00;METAR CYOW 100400Z 23006KT 15SM BKN270 19/11 A2991 RMK CI1 SLP127=
CYOW;2006-08-10 05:00;METAR CYOW 100500Z 23006KT 15SM SCT190 BKN270 18/11 A2990 RMK AC3CI0 SLP125=
CYOW;2006-08-10 06:00;METAR CYOW 100600Z 24004KT 15SM FEW190 BKN270 16/12 A2989 RMK AC2CI0 SLP122=
CYOW;2006-08-10 07:00;METAR CYOW 100700Z 22004KT 15SM FEW190 BKN220 OVC270 16/12 A2988 RMK AC2CI3CI0 SLP119=
CYOW;2006-08-10 08:00;METAR CYOW 100800Z 23004KT 15SM OVC230 16/12 A2987 RMK CI6 SLP115=
CYOW;2006-08-10 09:00;METAR CYOW 100900Z 26003KT 15SM FEW150 OVC190 16/12 A2986 RMK AC1AC7 SLP113=
CYOW;2006-08-10 10:00;METAR CYOW 101000Z 24005KT 15SM SCT064 BKN170 OVC270 16/12 A2988 RMK SC3AC3CI0 SLP118=
CYOW;2006-08-10 11:00;METAR CYOW 101100Z 27005KT 15SM BKN060 OVC170 18/12 A2989 RMK SC6AC2 SLP121=
CYOW;2006-08-10 12:00;METAR CYOW 101200Z 31006KT 15SM BKN061 OVC150 19/13 A2988 RMK SC6AC2 SLP120=
CYOW;2006-08-10 13:00;METAR CYOW 101300Z 32006KT 15SM BKN060 BKN080 OVC120 19/14 A2987 RMK SC5AC2AC1 SLP115=
CYOW;2006-08-10 13:49;SPECI CYOW 101349Z 36008KT 15SM -RA BKN064 OVC080 18/ RMK SC6AC2=
CYOW;2006-08-10 14:00;METAR CYOW 101400Z 31008KT 15SM BKN065 OVC110 19/14 A2988 RMK SC5AC2 SLP117=
CYOW;2006-08-10 15:00;METAR CYOW 101500Z 33008KT 15SM FEW030 BKN060 OVC080 20/15 A2988 RMK SC2SC4AC2 SLP119=
CYOW;2006-08-10 15:08;SPECI CYOW 101508Z 31006KT 15SM BKN018 BKN030 BKN060 OVC080 20/ RMK SC5SC2SC1AC1 AC TR=
CYOW;2006-08-10 16:00;METAR CYOW 101600Z 33011KT 15SM -RA BKN019 OVC030 19/15 A2988 RMK SC6SC2 VRY LGT RA SLP120=
CYOW;2006-08-10 16:44;SPECI CYOW 101644Z 01008KT 20SM SCT018 BKN035 BKN061 20/ RMK SC3SC3SC1=
CYOW;2006-08-10 16:51;SPECI CYOW 101651Z 01008KT 20SM -RA SCT018 BKN035 BKN061 20/ RMK SC3SC3SC1 RA VRY LGT=
CYOW;2006-08-10 17:00;METAR CYOW 101700Z 36007KT 20SM SCT019 BKN038 BKN090 20/14 A2990 RMK SC3SC3AC1 SLP125=
CYOW;2006-08-10 18:00;METAR CYOW 101800Z 35008KT 20SM FEW025 FEW040 BKN090 BKN150 22/14 A2989 RMK CU2SC1AC2AC1 SLP121=
CYOW;2006-08-10 19:00;METAR CYOW 101900Z 34005KT 20SM FEW040 SCT050 SCT120 23/13 A2988 RMK CU2SC2AC1 SLP118=
CYOW;2006-08-10 20:00;METAR CYOW 102000Z 01010KT 20SM FEW050 SCT060 SCT080 SCT250 23/11 A2988 RMK CU2SC2AC1CI0 AC TR SLP117=
CYOW;2006-08-10 21:00;METAR CYOW 102100Z 01009G18KT 20SM FEW055 FEW065 FEW085 FEW250 24/10 A2988 RMK CU1SC1AC1CI0 AC TR SLP118=
CYOW;2006-08-10 22:00;METAR CYOW 102200Z 35012KT 20SM FEW055 FEW080 23/09 A2990 RMK CU1AC2 SLP126=
CYOW;2006-08-10 23:00;METAR CYOW 102300Z 01010G15KT 20SM FEW060 FEW080 22/08 A2990 RMK SC1AC1 AC TR TCU E-S SLP126=
CYOW;2006-08-11 00:00;METAR CYOW 110000Z 36010G15KT 20SM FEW060 FEW090 20/08 A2991 RMK SC1AC1 AC TR TCU E-S SLP130=
CYOW;2006-08-11 01:00;METAR CYOW 110100Z 35009KT 15SM FEW090 19/08 A2994 RMK AC1 SLP139=
CYOW;2006-08-11 02:00;METAR CYOW 110200Z 36009G15KT 15SM FEW090 18/07 A2996 RMK AC1 SLP144=
CYOW;2006-08-11 03:00;METAR CYOW 110300Z 36012KT 15SM SKC 17/07 A2997 RMK SLP149=
CYOW;2006-08-11 04:00;METAR CYOW 110400Z 36010KT 15SM SKC 16/07 A2998 RMK SLP153=
CYOW;2006-08-11 05:00;METAR CYOW 110500Z 01008KT 15SM SKC 15/08 A2999 RMK SLP157=
CYOW;2006-08-11 06:00;METAR CYOW 110600Z 01010KT 15SM SKC 15/08 A3000 RMK SLP159=
CYOW;2006-08-11 07:00;METAR CYOW 110700Z 36008KT 15SM SKC 14/08 A3001 RMK SLP162=
CYOW;2006-08-11 08:00;METAR CYOW 110800Z 34010KT 15SM SKC 12/08 A3002 RMK SLP165=
CYOW;2006-08-11 09:00;METAR CYOW 110900Z 34009KT 15SM FEW090 12/07 A3002 RMK AC1 SLP168=
CYOW;2006-08-11 10:00;METAR CYOW 111000Z 34010KT 15SM FEW090 FEW270 11/07 A3003 RMK AC1CI1 SLP171=
CYOW;2006-08-11 11:00;METAR CYOW 111100Z 34010KT 20SM FEW240 12/07 A3005 RMK CI1 SLP175=
CYOW;2006-08-11 12:00;METAR CYOW 111200Z 35010KT 20SM FEW240 13/07 A3005 RMK CI1 SLP177=
CYOW;2006-08-11 13:00;METAR CYOW 111300Z 36008KT 20SM FEW020 FEW240 14/08 A3005 RMK CU1CI1 SLP177=
CYOW;2006-08-11 14:00;METAR CYOW 111400Z 34007KT 20SM FEW030 16/08 A3005 RMK CU1 SLP179=
CYOW;2006-08-11 15:00;METAR CYOW 111500Z 34010G15KT 20SM SCT040 18/08 A3005 RMK CU3 SLP178=
CYOW;2006-08-11 16:00;METAR CYOW 111600Z 33011G17KT 20SM SCT050 19/07 A3005 RMK CU3 SLP177=
CYOW;2006-08-11 17:00;METAR CYOW 111700Z 33013G18KT 20SM BKN050 18/08 A3005 RMK CU5 SLP176=
CYOW;2006-08-11 18:00;METAR CYOW 111800Z 33007KT 20SM BKN058 20/07 A3005 RMK CU5 SLP175=
CYOW;2006-08-11 19:00;METAR CYOW 111900Z 33008G15KT 20SM FEW055 SCT060 SCT075 21/07 A3003 RMK CU2SC2AC1 SLP171=
CYOW;2006-08-11 20:00;METAR CYOW 112000Z 34007KT 20SM FEW060 SCT075 20/07 A3002 RMK SC2AC1 SLP167=
CYOW;2006-08-11 21:00;METAR CYOW 112100Z 33013KT 20SM FEW060 SCT080 21/06 A3002 RMK SC2AC1 SLP167=
CYOW;2006-08-11 22:00;METAR CYOW 112200Z 32008KT 20SM FEW060 FEW080 20/06 A3003 RMK CU1AC1 SLP170=
CYOW;2006-08-11 23:00;METAR CYOW 112300Z 33008KT 20SM FEW055 FEW060 FEW080 20/06 A3003 RMK CU1SC1AC1 CU AC TR SLP172=
CYOW;2006-08-12 00:00;METAR CYOW 120000Z 31006KT 20SM FEW060 FEW080 18/07 A3004 RMK SC1AC1 CLDS TR SLP175=
CYOW;2006-08-12 01:00;METAR CYOW 120100Z 34006KT 20SM FEW060 16/06 A3005 RMK SC1 SLP178=
CYOW;2006-08-12 02:00;METAR CYOW 120200Z 32004KT 15SM FEW050 14/06 A3006 RMK SC1 SLP181=
CYOW;2006-08-12 03:00;METAR CYOW 120300Z 34006KT 15SM SKC 13/07 A3007 RMK SLP183=
CYOW;2006-08-12 04:00;METAR CYOW 120400Z 36006KT 15SM SKC 14/05 A3008 RMK SLP186=
CYOW;2006-08-12 05:00;METAR CYOW 120500Z 34004KT 15SM SKC 13/05 A3008 RMK SLP186=
CYOW;2006-08-12 06:00;METAR CYOW 120600Z 32003KT 15SM SKC 12/06 A3007 RMK SLP184=
CYOW;2006-08-12 07:00;METAR CYOW 120700Z 26005KT 15SM SKC 10/07 A3007 RMK SLP183=
CYOW;2006-08-12 08:00;METAR CYOW 120800Z 27005KT 15SM SKC 10/06 A3008 RMK SLP187=
CYOW;2006-08-12 09:00;METAR CYOW 120900Z 29004KT 15SM SKC 10/07 A3008 RMK SLP188=
CYOW;2006-08-12 10:00;METAR CYOW 121000Z 28002KT 20SM FEW250 09/07 A3009 RMK CI0 SLP191=
CYOW;2006-08-12 11:00;METAR CYOW 121100Z 31004KT 20SM FEW250 10/08 A3011 RMK CI0 SLP196=
CYOW;2006-08-12 12:00;METAR CYOW 121200Z 30006KT 20SM FEW250 12/08 A3012 RMK CI0 SLP201=
CYOW;2006-08-12 13:00;METAR CYOW 121300Z 31009KT 20SM FEW250 15/09 A3012 RMK CI1 SLP201=
CYOW;2006-08-12 14:00;METAR CYOW 121400Z 33009KT 20SM FEW036 FEW250 17/08 A3012 RMK CU2CI0 SLP202=
CYOW;2006-08-12 15:00;METAR CYOW 121500Z 34011KT 20SM FEW040 FEW250 18/08 A3011 RMK CU1CI1 SLP199=
CYOW;2006-08-12 16:00;METAR CYOW 121600Z 31009KT 20SM FEW048 FEW250 20/08 A3009 RMK CU1CI1 SLP191=
CYOW;2006-08-12 17:00;METAR CYOW 121700Z 33008G19KT 20SM FEW052 BKN250 21/08 A3008 RMK CU1CI3 SLP186=
CYOW;2006-08-12 18:00;METAR CYOW 121800Z 32010G15KT 20SM FEW060 BKN250 20/06 A3008 RMK CU2CI4 SLP188=
CYOW;2006-08-12 19:00;METAR CYOW 121900Z 34011G19KT 20SM FEW060 SCT250 21/07 A3008 RMK CU2CI2 SLP187=
CYOW;2006-08-12 20:00;METAR CYOW 122000Z 35010KT 20SM FEW064 SCT080 22/06 A3006 RMK CU2AC2 SLP181=
CYOW;2006-08-12 21:00;METAR CYOW 122100Z 30011KT 20SM FEW064 FEW250 21/05 A3005 RMK CU2CI1 SLP179=
CYOW;2006-08-12 22:00;METAR CYOW 122200Z 35012KT 20SM FEW060 FEW240 SCT270 21/05 A3005 RMK SC1CI1CI0 SLP178=
CYOW;2006-08-12 23:00;METAR CYOW 122300Z 34008KT 20SM FEW060 FEW260 20/05 A3005 RMK SC1CI0 SC TR SLP178=
CYOW;2006-08-13 00:00;METAR CYOW 130000Z 32005KT 20SM FEW060 SCT260 18/06 A3006 RMK SC1CI1 SC TR SLP180=
CYOW;2006-08-13 01:00;METAR CYOW 130100Z 32002KT 15SM BKN260 18/06 A3006 RMK CI2 SLP182=
CYOW;2006-08-13 02:00;METAR CYOW 130200Z 25003KT 15SM BKN260 17/07 A3007 RMK CI2 SLP183=
CYOW;2006-08-13 03:00;METAR CYOW 130300Z 29003KT 15SM BKN260 15/08 A3007 RMK CI2 SLP184=
CYOW;2006-08-13 04:00;METAR CYOW 130400Z 32003KT 15SM SCT260 14/09 A3007 RMK CI1 SLP183=
CYOW;2006-08-13 05:00;METAR CYOW 130500Z 32002KT 15SM FEW260 13/09 A3006 RMK CI0 SLP181=
CYOW;2006-08-13 06:00;METAR CYOW 130600Z 29003KT 15SM FEW260 12/08 A3006 RMK CI0 SLP181=
CYOW;2006-08-13 07:00;METAR CYOW 130700Z 32005KT 15SM FEW250 11/08 A3007 RMK CI0 SLP183=
CYOW;2006-08-13 08:00;METAR CYOW 130800Z 27004KT 15SM FEW250 10/08 A3008 RMK CI0 SLP188=
CYOW;2006-08-13 09:00;METAR CYOW 130900Z 30002KT 15SM BKN250 11/08 A3008 RMK CI2 SLP187=
CYOW;2006-08-13 10:00;METAR CYOW 131000Z 27005KT 20SM BKN250 10/08 A3009 RMK CI2 SLP191=
CYOW;2006-08-13 11:00;METAR CYOW 131100Z 28004KT 20SM FEW250 BKN270 11/10 A3010 RMK CS0CI2 SLP194=
CYOW;2006-08-13 12:00;METAR CYOW 131200Z 25002KT 20SM SCT250 13/11 A3009 RMK CI2 SLP191=
CYOW;2006-08-13 13:00;METAR CYOW 131300Z 30005KT 20SM FEW250 15/11 A3009 RMK CI2 SLP191=
CYOW;2006-08-13 14:00;METAR CYOW 131400Z 31004KT 20SM FEW250 18/11 A3008 RMK CI2 SLP187=
CYOW;2006-08-13 15:00;METAR CYOW 131500Z 27007KT 20SM FEW030 SCT250 21/11 A3007 RMK CU1CI1 SLP183=
CYOW;2006-08-13 16:00;METAR CYOW 131600Z 29007KT 20SM FEW040 BKN250 22/11 A3006 RMK CU1CI2 SLP180=
CYOW;2006-08-13 17:00;METAR CYOW 131700Z 29010KT 20SM FEW050 BKN250 23/09 A3004 RMK CU2CI2 SLP174=
CYOW;2006-08-13 18:00;METAR CYOW 131800Z 28010G15KT 20SM FEW050 BKN250 23/10 A3002 RMK CU2CI4 SLP168=
CYOW;2006-08-13 19:00;METAR CYOW 131900Z 30012KT 20SM FEW050 BKN250 23/09 A3001 RMK CU2CI2 SLP164=
CYOW;2006-08-13 20:00;METAR CYOW 132000Z 31009KT 20SM FEW060 BKN250 24/09 A3000 RMK CU2CI2 SLP160=
CYOW;2006-08-13 21:00;METAR CYOW 132100Z 32009KT 20SM FEW060 BKN250 24/09 A2999 RMK CU1CI2 CS ASOCTD SLP156=
CYOW;2006-08-13 23:00;METAR CYOW 132300Z 30005KT 20SM BKN250 24/11 A2996 RMK CI2 SLP147=
CYOW;2006-08-14 00:00;METAR CYOW 140000Z 25002KT 20SM FEW100 FEW250 23/11 A2996 RMK AC1CI2 AC TR SLP145=
CYOW;2006-08-14 01:00;METAR CYOW 140100Z 17004KT 20SM FEW100 SCT250 20/11 A2996 RMK AC1CI2 SLP145=
CYOW;2006-08-14 02:00;METAR CYOW 140200Z 17005KT 15SM FEW100 SCT250 18/12 A2996 RMK AC1CI1 SLP146=
CYOW;2006-08-14 03:00;METAR CYOW 140300Z 18004KT 15SM SCT250 18/12 A2995 RMK CI1 SLP141=
CYOW;2006-08-14 04:00;METAR CYOW 140400Z 20004KT 15SM FEW250 17/12 A2994 RMK CI0 SLP138=
CYOW;2006-08-14 05:00;METAR CYOW 140500Z 22005KT 15SM FEW230 16/12 A2994 RMK CC2 SLP138=
CYOW;2006-08-14 06:00;METAR CYOW 140600Z 22005KT 15SM SCT250 16/12 A2993 RMK CI0 SLP136=
CYOW;2006-08-14 07:00;METAR CYOW 140700Z 26003KT 15SM FEW180 BKN250 16/11 A2993 RMK AC1CI1 SLP134=
CYOW;2006-08-14 08:00;METAR CYOW 140800Z 20005KT 15SM SCT150 BKN250 14/11 A2992 RMK AC4CI1 SLP131=
CYOW;2006-08-14 09:00;METAR CYOW 140900Z 20005KT 15SM FEW150 BKN210 14/11 A2991 RMK AC2CS3 SLP127=
CYOW;2006-08-14 10:00;METAR CYOW 141000Z 20004KT 15SM SCT150 BKN190 BKN250 14/11 A2990 RMK AC3AC2CS0 SLP126=
CYOW;2006-08-14 11:00;METAR CYOW 141100Z 20004KT 20SM BKN120 BKN240 14/11 A2988 RMK AC5CI1 SLP120=
CYOW;2006-08-14 12:00;METAR CYOW 141200Z 20004KT 20SM SCT120 SCT220 17/12 A2988 RMK AC3CI1 SLP119=
CYOW;2006-08-14 13:00;METAR CYOW 141300Z 22006KT 20SM SCT120 SCT220 19/13 A2987 RMK AC3CI0 SLP114=
CYOW;2006-08-14 14:00;METAR CYOW 141400Z 22006KT 15SM BKN190 21/13 A2985 RMK AC6 SLP109=
CYOW;2006-08-14 15:00;METAR CYOW 141500Z 22006KT 15SM FEW030 BKN170 BKN220 23/13 A2982 RMK CU1AC5CI1 SLP099=
CYOW;2006-08-14 16:00;METAR CYOW 141600Z 23010KT 15SM FEW040 BKN170 24/12 A2980 RMK CU1AC6 SLP092=
CYOW;2006-08-14 17:00;METAR CYOW 141700Z 23010G17KT 15SM FEW050 SCT170 BKN220 24/11 A2977 RMK CU1AC3CS2 SLP083=
CYOW;2006-08-14 18:00;METAR CYOW 141800Z 23009KT 15SM FEW050 BKN150 BKN190 25/11 A2974 RMK CU1AC5AC2 SLP072=
CYOW;2006-08-14 19:00;METAR CYOW 141900Z 23011G19KT 15SM OVC150 25/11 A2972 RMK AC8 SLP065=
CYOW;2006-08-14 20:00;METAR CYOW 142000Z 19012G21KT 15SM OVC140 23/15 A2970 RMK AC8 SLP058=
CYOW;2006-08-14 20:53;SPECI CYOW 142053Z 20007G17KT 15SM -SHRA OVC120 22/ RMK AC8 CVCTV CLD EMBD=
CYOW;2006-08-14 21:00;METAR CYOW 142100Z 20009KT 15SM -SHRA OVC120 22/14 A2968 RMK AC8 CVCTV CLD EMBD SLP053=
CYOW;2006-08-14 21:14;SPECI CYOW 142114Z 19009KT 15SM OVC130 21/ RMK AC8=
CYOW;2006-08-14 22:00;METAR CYOW 142200Z 20011KT 15SM BKN100 OVC140 22/14 A2966 RMK AC6AC2 SLP045=
CYOW;2006-08-14 22:42;SPECI CYOW 142242Z 20010G15KT 15SM -RA BKN090 OVC120 22/ RMK AC6AC2 RA VRY LGT=
CYOW;2006-08-14 23:00;METAR CYOW 142300Z 20009KT 15SM BKN089 OVC250 22/14 A2965 RMK AC7CS0 SLP040=
CYOW;2006-08-15 00:00;METAR CYOW 150000Z 18006KT 15SM BKN074 OVC250 21/15 A2962 RMK AC7CS0 SH=
CYOW;2006-08-15 00:10;SPECI CYOW 150010Z 18006KT 12SM -SHRA OVC073 21/ RMK AC8 CVCTV CLD EMBD=
CYOW;2006-08-15 00:22;SPECI CYOW 150022Z 18006KT 12SM OVC065 21/ RMK SC8=
CYOW;2006-08-15 01:00;METAR CYOW 150100Z 20007KT 12SM OVC068 22/16 A2961 RMK AC8 SLP027=
CYOW;2006-08-15 02:00;METAR CYOW 150200Z 22008G16KT 12SM OVC049 22/17 A2961 RMK SC7 SLP027=
CYOW;2006-08-15 03:00;METAR CYOW 150300Z 22009G16KT 12SM SCT045 20/17 A2960 RMK SC3 SLP024=
CYOW;2006-08-15 04:00;METAR CYOW 150400Z 22009KT 10SM BKN023 BKN034 20/18 A2961 RMK SC5SC2 SLP027=
CYOW;2006-08-15 05:00;METAR CYOW 150500Z 25006KT 10SM FEW030 19/17 A2963 RMK SC2 SLP032=
CYOW;2006-08-15 06:00;METAR CYOW 150600Z 27007KT 15SM FEW250 18/16 A2963 RMK CI0 SLP034=
CYOW;2006-08-15 07:00;METAR CYOW 150700Z 27005KT 15SM FEW250 17/14 A2965 RMK CI0 SLP039=
CYOW;2006-08-15 08:00;METAR CYOW 150800Z 27004KT 15SM FEW150 16/13 A2967 RMK AC1 SLP046=
CYOW;2006-08-15 09:00;METAR CYOW 150900Z 27003KT 15SM FEW120 15/12 A2968 RMK AC1 SLP052=
CYOW;2006-08-15 10:00;METAR CYOW 151000Z 26008KT 20SM FEW250 15/12 A2969 RMK CI1 SLP056=
CYOW;2006-08-15 11:00;METAR CYOW 151100Z 20002KT 15SM FEW120 16/13 A2971 RMK AC1 SLP063=
CYOW;2006-08-15 12:00;METAR CYOW 151200Z 24006KT 15SM FEW120 17/13 A2972 RMK AC1 SLP065=
CYOW;2006-08-15 13:00;METAR CYOW 151300Z 25007KT 15SM FEW030 FEW120 20/14 A2973 RMK CU1AC1 SLP068=
CYOW;2006-08-15 14:00;METAR CYOW 151400Z 28013G19KT 15SM SCT035 22/13 A2973 RMK CU3 SLP067=
CYOW;2006-08-15 15:00;METAR CYOW 151500Z 27012G17KT 15SM SCT040 23/13 A2974 RMK CU3 SLP070=
CYOW;2006-08-15 18:00;METAR CYOW 151800Z 26013KT 15SM BKN045 BKN080 23/12 A2976 RMK SC6AC2 CU ASOCT SLP076=
CYOW;2006-08-15 19:00;METAR CYOW 151900Z 30012G19KT 15SM BKN045 BKN080 23/13 A2978 RMK SC6AC1 CU ASOCT SLP084=
CYOW;2006-08-15 20:00;METAR CYOW 152000Z 29011G16KT 15SM SCT045 BKN077 23/13 A2980 RMK CU3AC2 SLP090=
CYOW;2006-08-15 21:00;METAR CYOW 152100Z 29008KT 15SM FEW045 BKN089 23/13 A2982 RMK CU2AC4 SLP099=
CYOW;2006-08-15 22:00;METAR CYOW 152200Z 28009KT 15SM FEW045 BKN081 22/12 A2985 RMK CU2AC6 SLP110=
CYOW;2006-08-15 23:00;METAR CYOW 152300Z 29007KT 20SM FEW050 BKN091 21/13 A2988 RMK SC1AC6 SLP117=
CYOW;2006-08-16 00:00;METAR CYOW 160000Z 28007KT 20SM FEW050 BKN090 21/12 A2990 RMK SC1AC6 SLP125=
CYOW;2006-08-16 01:00;METAR CYOW 160100Z 27005KT 15SM BKN094 20/13 A2993 RMK AC7 SLP134=
CYOW;2006-08-16 02:00;METAR CYOW 160200Z 27005KT 15SM OVC090 19/13 A2994 RMK AC8 SLP140=
CYOW;2006-08-16 03:00;METAR CYOW 160300Z 27007KT 15SM OVC086 19/14 A2995 RMK AC8 SLP143=
CYOW;2006-08-16 04:00;METAR CYOW 160400Z 25004KT 15SM OVC085 19/14 A2996 RMK AC8 SLP147=
CYOW;2006-08-16 05:00;METAR CYOW 160500Z 26006KT 15SM OVC086 18/14 A2998 RMK AC8 SLP153=
CYOW;2006-08-16 06:00;METAR CYOW 160600Z 27005KT 15SM OVC083 18/14 A2999 RMK AC8 SLP155=
CYOW;2006-08-16 07:00;METAR CYOW 160700Z 28007KT 15SM BKN084 18/14 A2999 RMK AC7 MOON VISBL SLP157=
CYOW;2006-08-16 09:00;METAR CYOW 160900Z 26006KT 15SM FEW080 16/13 A3002 RMK AC1 SLP168=
CYOW;2006-08-16 10:00;METAR CYOW 161000Z 29006KT 15SM FEW030 FEW080 15/13 A3005 RMK CU1AC1 CU TR SLP177=
CYOW;2006-08-16 11:00;METAR CYOW 161100Z 30007KT 15SM FEW080 16/14 A3007 RMK AC1 SLP184=
CYOW;2006-08-16 12:00;METAR CYOW 161200Z 30005KT 15SM FEW080 18/15 A3010 RMK AC1 SLP192=
CYOW;2006-08-16 13:00;METAR CYOW 161300Z 31007KT 15SM FEW025 FEW080 19/15 A3013 RMK CU1AC1 AC TR SLP202=
CYOW;2006-08-16 14:00;METAR CYOW 161400Z 31006KT 15SM FEW025 FEW080 20/15 A3014 RMK CU2AC1 AC TR SLP206=
CYOW;2006-08-16 15:00;METAR CYOW 161500Z 29008KT 15SM FEW025 SCT080 21/15 A3015 RMK CU2AC1 SLP209=
CYOW;2006-08-16 16:00;METAR CYOW 161600Z 29008KT 15SM BKN031 22/14 A3015 RMK SC6 CU ASOCT SLP209=
CYOW;2006-08-16 17:00;METAR CYOW 161700Z 28008KT 15SM BKN037 24/14 A3015 RMK SC6 CU ASOCT SLP210=
CYOW;2006-08-16 18:00;METAR CYOW 161800Z 27010G15KT 15SM SCT040 BKN071 25/14 A3015 RMK SC4AC2 CU ASOCT SLP211=
CYOW;2006-08-16 19:00;METAR CYOW 161900Z 31012KT 15SM FEW040 24/13 A3015 RMK CU1 SLP211=
CYOW;2006-08-16 20:00;METAR CYOW 162000Z 28009G15KT 15SM FEW040 25/13 A3015 RMK CU1 SLP211=
CYOW;2006-08-16 21:00;METAR CYOW 162100Z 33009G15KT 15SM FEW040 25/13 A3016 RMK CU1 SLP213=
CYOW;2006-08-16 22:00;METAR CYOW 162200Z 30012KT 15SM FEW050 24/12 A3017 RMK CU1 SLP216=
CYOW;2006-08-16 23:00;METAR CYOW 162300Z 31008KT 15SM FEW058 23/12 A3018 RMK SC1 SLP219=
CYOW;2006-08-17 00:00;METAR CYOW 170000Z 31005KT 15SM FEW050 FEW080 21/13 A3019 RMK SC1AC1 SLP224=
CYOW;2006-08-17 01:00;METAR CYOW 170100Z 31004KT 15SM FEW080 20/13 A3020 RMK AC1 SLP228=
CYOW;2006-08-17 02:00;METAR CYOW 170200Z 27003KT 15SM SKC 20/13 A3021 RMK SLP231=
CYOW;2006-08-17 03:00;METAR CYOW 170300Z 31004KT 15SM SKC 18/13 A3022 RMK SLP234=
CYOW;2006-08-17 04:00;METAR CYOW 170400Z 28002KT 15SM SKC 17/13 A3022 RMK SLP235=
CYOW;2006-08-17 05:00;METAR CYOW 170500Z 00000KT 15SM SKC 16/13 A3023 RMK SLP237=
CYOW;2006-08-17 06:00;METAR CYOW 170600Z 27002KT 15SM SKC 16/13 A3023 RMK SLP238=
CYOW;2006-08-17 07:00;METAR CYOW 170700Z 31003KT 15SM FEW080 15/13 A3025 RMK AC1 SLP243=
CYOW;2006-08-17 08:00;METAR CYOW 170800Z 31002KT 15SM SKC 15/13 A3025 RMK SLP244=
CYOW;2006-08-17 09:00;METAR CYOW 170900Z 00000KT 15SM SKC 14/13 A3025 RMK SLP245=
CYOW;2006-08-17 10:00;METAR CYOW 171000Z 34003KT 15SM MIFG FEW080 13/12 A3027 RMK AC1 SLP250=
CYOW;2006-08-17 11:00;METAR CYOW 171100Z 30003KT 15SM MIFG FEW080 14/13 A3029 RMK AC1 SLP257=
CYOW;2006-08-17 12:00;METAR CYOW 171200Z 03002KT 15SM FEW080 17/14 A3030 RMK AC1 SLP261=
CYOW;2006-08-17 13:00;METAR CYOW 171300Z 00000KT 15SM FEW080 20/14 A3030 RMK AC1 SLP262=
CYOW;2006-08-17 14:00;METAR CYOW 171400Z 16003KT 15SM FEW080 FEW260 21/14 A3029 RMK AC1CI1 SLP258=
CYOW;2006-08-17 15:00;METAR CYOW 171500Z 16003KT 15SM FEW040 FEW080 FEW260 23/14 A3029 RMK CU1AC1CI1 SLP257=
CYOW;2006-08-17 16:00;METAR CYOW 171600Z 25003KT 15SM FEW040 FEW080 24/13 A3027 RMK CU2AC1 AC TR SLP251=
CYOW;2006-08-17 17:00;METAR CYOW 171700Z 19006KT 15SM FEW040 FEW080 FEW250 25/13 A3025 RMK CU2AC1CI1 AC CI TR SLP243=
CYOW;2006-08-17 18:00;METAR CYOW 171800Z 31003KT 15SM FEW040 FEW080 FEW250 25/13 A3023 RMK CU2AC1CI1 AC CI TR SLP238=
CYOW;2006-08-17 19:00;METAR CYOW 171900Z 00000KT 15SM FEW040 FEW080 BKN250 26/13 A3021 RMK CU2AC1CI0 AC TR SLP231=
CYOW;2006-08-17 20:00;METAR CYOW 172000Z 18003KT 15SM FEW040 FEW080 BKN250 26/13 A3020 RMK CU2AC1CI0 AC TR SLP227=
CYOW;2006-08-17 21:00;METAR CYOW 172100Z 15004KT 15SM FEW040 FEW080 BKN250 26/13 A3019 RMK CU2AC1CI1 AC TR SLP224=
CYOW;2006-08-17 22:00;METAR CYOW 172200Z 13004KT 15SM FEW040 FEW100 BKN250 26/13 A3019 RMK CU1AC2CI1 SLP223=
CYOW;2006-08-17 23:00;METAR CYOW 172300Z 10005KT 15SM FEW080 OVC250 25/15 A3018 RMK AC1CI3 SLP221=
CYOW;2006-08-18 00:00;METAR CYOW 180000Z 10004KT 15SM SCT200 OVC250 23/15 A3018 RMK CI0CI5 SLP220=
CYOW;2006-08-18 01:00;METAR CYOW 180100Z 10004KT 15SM OVC250 21/15 A3019 RMK CI4 SLP222=
CYOW;2006-08-18 02:00;METAR CYOW 180200Z 13005KT 15SM OVC240 20/14 A3019 RMK CI8 SLP224=
CYOW;2006-08-18 03:00;METAR CYOW 180300Z 15004KT 15SM OVC220 20/14 A3019 RMK CI8 SLP223=
CYOW;2006-08-18 04:00;METAR CYOW 180400Z 17004KT 15SM FEW220 OVC240 20/14 A3019 RMK CI2CI3 SLP223=
CYOW;2006-08-18 05:00;METAR CYOW 180500Z 15005KT 15SM FEW210 OVC240 19/15 A3019 RMK CI2CI6 SLP223=
CYOW;2006-08-18 06:00;METAR CYOW 180600Z 15004KT 15SM OVC210 19/14 A3017 RMK CI8 SLP216=
CYOW;2006-08-18 07:00;METAR CYOW 180700Z 15004KT 15SM FEW150 OVC180 19/14 A3015 RMK AC2AC6 SLP209=
CYOW;2006-08-18 08:00;METAR CYOW 180800Z 17003KT 15SM OVC230 18/14 A3015 RMK CI8 SLP210=
CYOW;2006-08-18 09:00;METAR CYOW 180900Z 18003KT 15SM BKN240 18/14 A3014 RMK CI7 SLP207=
CYOW;2006-08-18 10:00;METAR CYOW 181000Z 08002KT 15SM SCT210 BKN250 18/14 A3015 RMK CI3CI0 SLP210=
CYOW;2006-08-18 11:00;METAR CYOW 181100Z 00000KT 20SM FEW050 BKN210 17/14 A3016 RMK SC1CC4 SLP212=
CYOW;2006-08-18 12:00;METAR CYOW 181200Z 10003KT 20SM FEW030 SCT220 18/15 A3015 RMK SC1CC2 SC TR SLP209=
CYOW;2006-08-18 13:00;METAR CYOW 181300Z 08002KT 20SM FEW050 FEW210 SCT250 21/15 A3014 RMK SC1CC2CI0 SLP208=
CYOW;2006-08-18 14:00;METAR CYOW 181400Z 08003KT 15SM FEW050 FEW250 23/15 A3014 RMK SC2CI0 SLP206=
CYOW;2006-08-18 15:00;METAR CYOW 181500Z 11003KT 15SM FEW050 FEW250 25/15 A3012 RMK SC1CI0 SLP198=
CYOW;2006-08-18 16:00;METAR CYOW 181600Z 17004KT 15SM FEW030 FEW070 FEW270 26/16 A3010 RMK CF1AC1CI0 CUFRA TR SLP193=
CYOW;2006-08-18 17:00;METAR CYOW 181700Z 15004KT 15SM FEW040 FEW070 FEW270 27/16 A3008 RMK CU1AC1CI0 CU TR SLP185=
CYOW;2006-08-18 18:00;METAR CYOW 181800Z 15008KT 15SM FEW045 FEW055 FEW270 28/16 A3005 RMK CU1SC1CI1 CU TR SLP176=
CYOW;2006-08-18 19:00;METAR CYOW 181900Z 19007KT 15SM SCT050 BKN270 29/17 A3003 RMK CU3CI0 SLP170=
CYOW;2006-08-18 20:00;METAR CYOW 182000Z 24004KT 12SM SCT056 BKN270 30/17 A3002 RMK CU3CI0 SLP167=
CYOW;2006-08-18 21:00;METAR CYOW 182100Z 23007KT 12SM SCT060 SCT140 BKN270 30/16 A3002 RMK CU3AC1CI0 SLP164=
CYOW;2006-08-18 22:00;METAR CYOW 182200Z 21006KT 12SM FEW060 SCT090 BKN240 29/17 A2999 RMK CU2AC2CI0 SLP157=
CYOW;2006-08-18 23:00;METAR CYOW 182300Z 21005KT 12SM BKN083 BKN110 27/17 A2999 RMK AC5AC2 SH NE SLP154=
CYOW;2006-08-19 00:00;METAR CYOW 190000Z 19004KT 12SM BKN070 26/16 A2999 RMK AC6 SH NE SLP154=
CYOW;2006-08-19 01:00;METAR CYOW 190100Z 22003KT 12SM BKN060 OVC073 25/17 A2999 RMK SC5AC3 SLP156=
CYOW;2006-08-19 02:00;METAR CYOW 190200Z 20002KT 12SM OVC130 24/17 A2999 RMK AC8 SLP156=
CYOW;2006-08-19 03:00;METAR CYOW 190300Z 19006KT 12SM FEW075 BKN110 23/17 A2998 RMK AC2AC5 SLP150=
CYOW;2006-08-19 04:00;METAR CYOW 190400Z 22003KT 15SM OVC087 23/17 A2998 RMK AC8 SLP150=
CYOW;2006-08-19 05:00;METAR CYOW 190500Z 21002KT 15SM BKN093 22/18 A2997 RMK AC6 SLP149=
CYOW;2006-08-19 06:00;METAR CYOW 190600Z 20003KT 15SM BKN120 21/18 A2996 RMK AC3 SLP145=
CYOW;2006-08-19 07:00;METAR CYOW 190700Z 25003KT 15SM OVC100 20/18 A2996 RMK AC7 SLP143=
CYOW;2006-08-19 08:00;METAR CYOW 190800Z 29002KT 15SM BKN100 20/18 A2994 RMK AC6 SLP139=
CYOW;2006-08-19 09:00;METAR CYOW 190900Z 29002KT 15SM OVC090 20/18 A2995 RMK AC8 SLP140=
CYOW;2006-08-19 10:00;METAR CYOW 191000Z 28002KT 15SM BKN085 20/18 A2996 RMK AC6 SLP143=
CYOW;2006-08-19 11:00;METAR CYOW 191100Z 29002KT 12SM BKN080 BKN240 20/19 A2996 RMK AC5CI1 SLP146=
CYOW;2006-08-19 12:00;METAR CYOW 191200Z 28002KT 12SM BKN090 21/19 A2997 RMK AC6 SLP148=
CYOW;2006-08-19 13:00;METAR CYOW 191300Z 33004KT 12SM BKN100 23/18 A2997 RMK AC7 SLP148=
CYOW;2006-08-19 14:00;METAR CYOW 191400Z 01002KT 12SM FEW032 BKN100 25/17 A2996 RMK CU2AC5 SLP145=
CYOW;2006-08-19 15:00;METAR CYOW 191500Z 16004KT 12SM FEW040 BKN150 27/15 A2994 RMK CU1AC6 SLP139=
CYOW;2006-08-19 16:00;METAR CYOW 191600Z 14005KT 12SM FEW044 BKN150 28/17 A2993 RMK CU2AC4 SLP135=
CYOW;2006-08-19 17:00;METAR CYOW 191700Z 14004KT 15SM SCT044 BKN067 BKN240 27/18 A2992 RMK CU3AC2CI0 SLP130=
CYOW;2006-08-19 18:00;METAR CYOW 191800Z 19006KT 15SM BKN060 BKN150 27/17 A2990 RMK CU5AC2 SLP124=
CYOW;2006-08-19 19:00;METAR CYOW 191900Z 30002KT 15SM BKN060 BKN240 28/16 A2988 RMK CU5CI1 SLP117=
CYOW;2006-08-19 20:00;METAR CYOW 192000Z 05004KT 15SM FEW060TCU BKN073 27/17 A2986 RMK TCU2AC5 SLP112=
CYOW;2006-08-19 21:00;METAR CYOW 192100Z 17006KT 12SM -SHRA BKN030 OVC093 24/20 A2986 RMK SC5AC3 TCU EMBD SLP111=
CYOW;2006-08-19 21:42;SPECI CYOW 192142Z 22004KT 2SM +SHRA BKN020 OVC070 23/ RMK SC6AC2 TCU EMBD=
CYOW;2006-08-19 21:52;SPECI CYOW 192152Z 23005KT 5SM -SHRA SCT020 OVC080 22/ RERA RMK SC3AC5 TCU EMBD=
CYOW;2006-08-19 22:00;METAR CYOW 192200Z 23004KT 5SM -SHRA SCT025 OVC081 22/19 A2985 RERA RMK SC3AC5 TCU EMBD SLP109=
CYOW;2006-08-19 22:13;SPECI CYOW 192213Z 23003KT 12SM FEW030 OVC082 23/ RMK SC2AC6=
CYOW;2006-08-19 23:00;METAR CYOW 192300Z 18007KT 10SM FEW030 OVC068 23/19 A2985 RMK SC1AC7 SLP106=
CYOW;2006-08-20 00:00;METAR CYOW 200000Z 18007KT 10SM FEW030 OVC056 22/19 A2984 RMK SC2SC6 SLP105=
CYOW;2006-08-20 01:00;METAR CYOW 200100Z 18003KT 10SM BKN062 BKN170 20/18 A2984 RMK SC6AC1 SLP104=
CYOW;2006-08-20 02:00;METAR CYOW 200200Z 00000KT 10SM BKN036 OVC120 20/18 A2984 RMK SC6AC2 SLP106=
CYOW;2006-08-20 03:00;METAR CYOW 200300Z 00000KT 10SM SCT038 OVC092 20/18 A2982 RMK SC3AC5 SLP098=
CYOW;2006-08-20 04:00;METAR CYOW 200400Z 07004KT 10SM FEW035 OVC087 20/18 A2981 RMK SC1AC7 SLP094=
CYOW;2006-08-20 05:00;METAR CYOW 200500Z 09004KT 6SM BR BKN012 BKN041 20/18 A2980 RMK SC5SC2 SLP090=
CYOW;2006-08-20 05:12;SPECI CYOW 200512Z 08004KT 6SM BR FEW012 BKN026 BKN094 20/ RMK SC2SC4AC1=
CYOW;2006-08-20 05:39;SPECI CYOW 200539Z 05003KT 5SM BR BKN006 OVC025 20/ RMK SC6SC2=
CYOW;2006-08-20 06:00;METAR CYOW 200600Z 05005KT 5SM BR BKN005 OVC012 20/18 A2978 RMK ST6SC2 SLP083=
CYOW;2006-08-20 06:21;SPECI CYOW 200621Z 05007KT 6SM BR FEW005 OVC036 19/ RMK SF2SC6=
CYOW;2006-08-20 06:45;SPECI CYOW 200645Z 06008KT 6SM BR BKN005 OVC033 19/ RMK SF6SC2=
CYOW;2006-08-20 07:00;METAR CYOW 200700Z 06010KT 6SM BR OVC005 19/17 A2976 RMK ST8 SLP077=
CYOW;2006-08-20 07:06;SPECI CYOW 200706Z 06011KT 6SM BR OVC004 19/ RMK ST8=
CYOW;2006-08-20 08:00;METAR CYOW 200800Z 07007KT 5SM BR OVC005 19/17 A2975 RMK ST8 SLP074=
CYOW;2006-08-20 08:29;SPECI CYOW 200829Z 07007KT 3SM -RA BR OVC004 19/ RMK ST8=
CYOW;2006-08-20 09:00;METAR CYOW 200900Z 08005KT 5SM BR OVC003 19/18 A2976 RMK ST8 SLP076=
CYOW;2006-08-20 09:21;SPECI CYOW 200921Z 07004KT 3SM -RA BR OVC003 19/ RMK ST8=
CYOW;2006-08-20 09:31;SPECI CYOW 200931Z 07003KT 3SM -DZ BR OVC003 19/ RMK ST8=
CYOW;2006-08-20 10:00;METAR CYOW 201000Z 01003KT 3SM -DZ BR OVC004 19/18 A2976 RMK ST8 SLP076=
CYOW;2006-08-20 11:00;METAR CYOW 201100Z 01011KT 4SM -RA BR BKN004 OVC011 18/18 A2976 RERA RMK SF6SC2 CIG VRB 3-6 SLP079=
CYOW;2006-08-20 11:12;SPECI CYOW 201112Z 01002KT 8SM -RA FEW004 SCT012 OVC038 17/ RMK SF2SC2SC4=
CYOW;2006-08-20 12:00;METAR CYOW 201200Z 02013KT 6SM -RA BR BKN006 OVC033 17/16 A2978 RMK CF6NS2 SLP084=
CYOW;2006-08-20 15:00;METAR CYOW 201500Z 05013KT 12SM BKN009 OVC040 17/15 A2981 RMK SF6SC2 SLP096=
CYOW;2006-08-20 16:00;METAR CYOW 201600Z 03009KT 12SM OVC012 17/15 A2982 RMK SC8 SLP100=
CYOW;2006-08-20 17:00;METAR CYOW 201700Z 01007KT 7SM -DZ OVC013 17/15 A2985 RMK SF8 SLP107=
CYOW;2006-08-20 17:43;SPECI CYOW 201743Z 36009KT 12SM -DZ OVC008 17/ RMK SF8=
CYOW;2006-08-20 18:00;METAR CYOW 201800Z 01009KT 12SM -DZ BKN008 OVC020 17/15 A2985 RMK SF6SC2 SLP109=
CYOW;2006-08-20 19:00;METAR CYOW 201900Z 01008KT 4SM -DZ BR BKN008 OVC015 17/16 A2985 RMK SF6SC2 SLP108=
CYOW;2006-08-20 19:35;SPECI CYOW 201935Z 01009KT 2SM -DZ BR OVC005 17/ RMK SF8=
CYOW;2006-08-20 20:00;METAR CYOW 202000Z 01007KT 1 1/2SM -DZ BR OVC005 17/15 A2986 RMK SF8 SLP112=
CYOW;2006-08-20 21:00;METAR CYOW 202100Z 02006KT 10SM -DZ BKN006 OVC023 16/15 A2988 RMK SF5SC3 SLP118=
CYOW;2006-08-20 21:52;SPECI CYOW 202152Z 36007KT 12SM -DZ SCT006 OVC029 17/ RMK SF3SC5=
CYOW;2006-08-20 22:00;METAR CYOW 202200Z 35008KT 12SM -DZ FEW006 SCT018 OVC026 17/15 A2988 RMK SF2SC2SC4 SLP121=
CYOW;2006-08-20 22:32;SPECI CYOW 202232Z 36007KT 15SM FEW012 BKN021 OVC033 17/ RMK SC2SC5SC2=
CYOW;2006-08-20 23:00;METAR CYOW 202300Z 34005KT 15SM FEW011 BKN015 BKN030 OVC250 17/15 A2990 RMK SC1SC6SC1CI0 SLP126=
CYOW;2006-08-20 23:14;SPECI CYOW 202314Z 35008KT 12SM -RA FEW011 BKN022 OVC250 17/ RMK SC2SC6CI0=
CYOW;2006-08-21 00:00;METAR CYOW 210000Z 34007KT 3SM -RA BR FEW008 OVC016 16/15 A2992 RMK SF2SC6 SLP132=
CYOW;2006-08-21 00:16;SPECI CYOW 210016Z 33007KT 15SM -RA FEW008 BKN012 OVC030 16/ RMK SF2SC5SC2=
CYOW;2006-08-21 00:30;SPECI CYOW 210030Z 31005KT 15SM FEW008 SCT012 OVC021 16/ RMK SF1SC2SC4=
CYOW;2006-08-21 01:00;METAR CYOW 210100Z 34011KT 15SM FEW008 FEW012 OVC022 16/14 A2993 RMK SF1SC2SC6 SLP137=
CYOW;2006-08-21 01:22;SPECI CYOW 210122Z 36011G17KT 6SM -RA BR OVC021 16/ RMK SC8=
CYOW;2006-08-21 02:00;METAR CYOW 210200Z 36006KT 12SM -RA OVC026 15/14 A2995 RMK SC7 SLP144=
CYOW;2006-08-21 02:49;SPECI CYOW 210249Z 30004KT 15SM BKN029 OVC057 15/ RMK SC6SC2=
CYOW;2006-08-21 03:00;METAR CYOW 210300Z 31006KT 15SM SCT030 BKN044 15/14 A2996 RMK SC3SC4 SLP145=
CYOW;2006-08-21 04:00;METAR CYOW 210400Z 33009KT 15SM FEW080 BKN100 15/13 A2996 RMK AC2AC5 SLP146=
CYOW;2006-08-21 05:00;METAR CYOW 210500Z 33009KT 15SM FEW060 BKN110 15/13 A2996 RMK SC2AC4 SLP147=
CYOW;2006-08-21 06:00;METAR CYOW 210600Z 33010KT 15SM BKN078 15/12 A2996 RMK AC7 SLP148=
CYOW;2006-08-21 07:00;METAR CYOW 210700Z 33009KT 15SM BKN085 BKN250 15/12 A2998 RMK AC6CI0 SLP153=
CYOW;2006-08-21 08:00;METAR CYOW 210800Z 32006KT 15SM FEW080 FEW240 14/11 A2998 RMK AC2CI0 SLP154=
CYOW;2006-08-21 09:00;METAR CYOW 210900Z 28007KT 15SM FEW100 13/12 A3001 RMK AC1 SLP163=
CYOW;2006-08-21 10:00;METAR CYOW 211000Z 30005KT 20SM FEW100 FEW240 12/11 A3002 RMK AC1CI1 CLDS TR SLP166=
CYOW;2006-08-21 11:00;METAR CYOW 211100Z 30006KT 20SM FEW120 FEW240 12/11 A3003 RMK AC1CI1 SLP171=
CYOW;2006-08-21 12:00;METAR CYOW 211200Z 28005KT 20SM FEW120 FEW240 14/12 A3004 RMK AC1CI1 SLP174=
CYOW;2006-08-21 13:00;METAR CYOW 211300Z 29006KT 20SM FEW240 16/12 A3004 RMK CI1 SLP174=
CYOW;2006-08-21 14:00;METAR CYOW 211400Z 30006KT 20SM FEW240 18/13 A3005 RMK CI1 SLP177=
CYOW;2006-08-21 15:00;METAR CYOW 211500Z 31005KT 20SM FEW240 20/13 A3005 RMK CI2 SLP176=
CYOW;2006-08-21 16:00;METAR CYOW 211600Z 30004KT 20SM FEW240 22/12 A3005 RMK CI1 SLP176=
CYOW;2006-08-21 17:00;METAR CYOW 211700Z 26010KT 20SM FEW040 FEW240 22/12 A3004 RMK CU1CI2 SLP174=
CYOW;2006-08-21 18:00;METAR CYOW 211800Z 28008KT 20SM FEW050 SCT240 24/10 A3003 RMK CU1CI2 TR CU SLP170=
CYOW;2006-08-21 19:00;METAR CYOW 211900Z 27008KT 20SM FEW050 SCT240 24/11 A3002 RMK CU1CI2 TR CU SLP166=
CYOW;2006-08-21 20:00;METAR CYOW 212000Z 31007KT 20SM BKN240 24/10 A3002 RMK CI2 SLP166=
CYOW;2006-08-21 21:00;METAR CYOW 212100Z 31007KT 20SM BKN240 24/11 A3001 RMK CS5 SLP162=
CYOW;2006-08-21 22:00;METAR CYOW 212200Z 31004KT 20SM BKN240 24/12 A2999 RMK CS4 SLP158=
CYOW;2006-08-21 23:00;METAR CYOW 212300Z 00000KT 20SM BKN250 23/12 A2999 RMK CI4 CS ASOCTD SLP155=
CYOW;2006-08-22 00:00;METAR CYOW 220000Z 28002KT 20SM FEW240 SCT270 22/11 A2997 RMK CS2CI1 SLP151=
CYOW;2006-08-22 01:00;METAR CYOW 220100Z 18002KT 15SM FEW240 BKN270 19/12 A2998 RMK CS2CI1 SLP152=
CYOW;2006-08-22 02:00;METAR CYOW 220200Z 17004KT 15SM FEW250 18/12 A2998 RMK CI1 SLP154=
CYOW;2006-08-22 03:00;METAR CYOW 220300Z 20004KT 15SM FEW250 18/14 A2998 RMK CI0 SLP154=
CYOW;2006-08-22 04:00;METAR CYOW 220400Z 20003KT 15SM FEW250 17/13 A2999 RMK CI1 SLP155=
CYOW;2006-08-22 05:00;METAR CYOW 220500Z 21005KT 15SM FEW170 SCT220 16/13 A3000 RMK AC2CI1 SLP160=
CYOW;2006-08-22 07:00;METAR CYOW 220700Z 21005KT 15SM SCT170 BKN250 15/12 A3000 RMK AC3CI1 SLP158=
CYOW;2006-08-22 08:00;METAR CYOW 220800Z 22005KT 15SM BKN059 16/13 A2998 RMK SC7 SLP153=
CYOW;2006-08-22 09:00;METAR CYOW 220900Z 21004KT 15SM BKN044 BKN100 16/13 A2998 RMK SC6AC1 SLP151=
CYOW;2006-08-22 10:00;METAR CYOW 221000Z 21005KT 15SM FEW040 FEW120 SCT250 15/13 A2997 RMK SC1AC2CI0 SLP150=
CYOW;2006-08-22 11:00;METAR CYOW 221100Z 23005KT 15SM SCT080 16/13 A2999 RMK AC3 SLP154=
CYOW;2006-08-22 12:00;METAR CYOW 221200Z 27004KT 15SM SCT080 17/14 A2999 RMK AC3 SLP157=
CYOW;2006-08-22 13:00;METAR CYOW 221300Z 26007KT 15SM FEW080 20/14 A2999 RMK AC1 SLP158=
CYOW;2006-08-22 14:00;METAR CYOW 221400Z 28007KT 15SM BKN034 21/15 A3000 RMK SC6 SLP159=
CYOW;2006-08-22 15:00;METAR CYOW 221500Z 29009KT 15SM BKN036 21/15 A3000 RMK SC6 SLP161=
CYOW;2006-08-22 16:00;METAR CYOW 221600Z 34007KT 15SM SCT035 22/15 A3001 RMK SC4 CU ASOCT SLP163=
CYOW;2006-08-22 17:00;METAR CYOW 221700Z 35006G21KT 15SM SCT035 24/14 A3000 RMK CU3 SLP161=
CYOW;2006-08-22 18:00;METAR CYOW 221800Z 27010KT 15SM BKN035 24/14 A2999 RMK CU5 SLP156=
CYOW;2006-08-22 19:00;METAR CYOW 221900Z 30009G15KT 15SM SCT035 25/13 A2999 RMK CU3 TCU ALQDS SLP155=
CYOW;2006-08-22 20:00;METAR CYOW 222000Z 32008KT 15SM FEW034TCU SCT035 25/12 A2998 RMK TCU1CU2 SLP152=
CYOW;2006-08-22 21:00;METAR CYOW 222100Z 33011KT 15SM FEW034TCU FEW035 24/11 A2998 RMK TCU1CU2 SLP153=
CYOW;2006-08-22 22:00;METAR CYOW 222200Z 34009KT 15SM FEW035 23/11 A2999 RMK CU1 SLP154=
CYOW;2006-08-22 23:00;METAR CYOW 222300Z 34005KT 15SM FEW060 FEW110 22/11 A2999 RMK SC1AC2 SC TR SLP154=
CYOW;2006-08-23 00:00;METAR CYOW 230000Z 34006KT 15SM BKN100 20/10 A2999 RMK AC5 SLP158=
CYOW;2006-08-23 01:00;METAR CYOW 230100Z 36005KT 15SM BKN100 19/11 A3002 RMK AC5 SLP165=
CYOW;2006-08-23 02:00;METAR CYOW 230200Z 36006KT 15SM BKN110 18/10 A3002 RMK AC6 SLP166=
CYOW;2006-08-23 03:00;METAR CYOW 230300Z 35005KT 15SM BKN100 17/11 A3002 RMK AC6 SLP168=
CYOW;2006-08-23 04:00;METAR CYOW 230400Z 00000KT 15SM SCT110 16/11 A3003 RMK AC4 SLP170=
CYOW;2006-08-23 05:00;METAR CYOW 230500Z 20003KT 15SM BKN100 16/11 A3003 RMK AC6 SLP171=
CYOW;2006-08-23 06:00;METAR CYOW 230600Z 27003KT 15SM BKN110 15/11 A3003 RMK AC6 SLP171=
CYOW;2006-08-23 07:00;METAR CYOW 230700Z 32003KT 15SM BKN110 15/11 A3004 RMK AC7 SLP172=
CYOW;2006-08-23 08:00;METAR CYOW 230800Z 35005KT 15SM FEW080 BKN110 14/10 A3003 RMK AC2AC5 SLP171=
CYOW;2006-08-23 09:00;METAR CYOW 230900Z 34003KT 15SM BKN100 14/11 A3003 RMK AC6 SLP171=
CYOW;2006-08-23 10:00;METAR CYOW 231000Z 00000KT 15SM SCT100 SCT220 14/11 A3003 RMK AC3CI1 SLP170=
CYOW;2006-08-23 11:00;METAR CYOW 231100Z 34003KT 15SM SCT100 13/11 A3004 RMK AC3 SLP173=
CYOW;2006-08-23 12:00;METAR CYOW 231200Z 25003KT 15SM BKN090 15/12 A3006 RMK AC6 SLP179=
CYOW;2006-08-23 13:00;METAR CYOW 231300Z 33007KT 15SM FEW060 BKN090 16/11 A3007 RMK SC1AC6 SLP184=
CYOW;2006-08-23 14:00;METAR CYOW 231400Z 31005KT 15SM FEW060 BKN090 16/08 A3008 RMK SC1AC5 SC TR SLP185=
CYOW;2006-08-23 15:00;METAR CYOW 231500Z 34005KT 15SM FEW040 BKN095 17/07 A3008 RMK CU1AC5 SLP187=
CYOW;2006-08-23 18:00;METAR CYOW 231800Z 27008KT 15SM BKN051 20/07 A3005 RMK CU5 SLP176=
CYOW;2006-08-23 19:00;METAR CYOW 231900Z 29009G16KT 15SM BKN059 20/07 A3003 RMK SC7 CU ASOCT SLP171=
CYOW;2006-08-23 20:00;METAR CYOW 232000Z 29012KT 15SM BKN060 OVC075 19/06 A3003 RMK SC5AC2 CU ASOCT SLP170=
CYOW;2006-08-23 21:00;METAR CYOW 232100Z 27008KT 15SM FEW060 BKN090 20/07 A3002 RMK CU1AC4 SLP167=
CYOW;2006-08-23 22:00;METAR CYOW 232200Z 28011KT 15SM FEW040 FEW060 SCT080 19/06 A3001 RMK CU1SC1AC2 SLP164=
CYOW;2006-08-23 23:00;METAR CYOW 232300Z 27004KT 15SM FEW060 FEW090 OVC240 17/07 A3001 RMK SC1AC1CI4 SC AC TR SLP162=
CYOW;2006-08-24 00:00;METAR CYOW 240000Z 29003KT 15SM FEW060 FEW090 SCT200 BKN240 16/07 A3000 RMK SC1AC1CI2CI2 SC AC TR SLP162=
CYOW;2006-08-24 01:00;METAR CYOW 240100Z 27002KT 15SM FEW100 BKN220 16/07 A3001 RMK AC1CI2 AC TR SLP165=
CYOW;2006-08-24 02:00;METAR CYOW 240200Z 00000KT 15SM SCT230 15/07 A3002 RMK CI0 SLP167=
CYOW;2006-08-24 03:00;METAR CYOW 240300Z 00000KT 15SM BKN150 14/08 A3002 RMK AC4 SLP166=
CYOW;2006-08-24 04:00;METAR CYOW 240400Z 04006KT 15SM BKN150 15/08 A3001 RMK AC6 SLP165=
CYOW;2006-08-24 05:00;METAR CYOW 240500Z 20004KT 15SM OVC094 13/08 A3002 RMK AC7 SLP167=
CYOW;2006-08-24 06:00;METAR CYOW 240600Z 18003KT 15SM OVC100 13/08 A3001 RMK AC8 SLP162=
CYOW;2006-08-24 07:00;METAR CYOW 240700Z 00000KT 15SM BKN110 14/08 A3001 RMK AC7 SLP163=
CYOW;2006-08-24 08:00;METAR CYOW 240800Z 23002KT 15SM FEW040 BKN083 13/09 A3001 RMK SC1AC6 SLP163=
CYOW;2006-08-24 09:00;METAR CYOW 240900Z 26002KT 15SM OVC069 14/08 A3002 RMK AC8 SLP167=
CYOW;2006-08-24 10:00;METAR CYOW 241000Z 05003KT 15SM BKN080 BKN110 13/09 A3002 RMK AC6AC2 SLP168=
CYOW;2006-08-24 10:42;SPECI CYOW 241042Z 14002KT 15SM -RA BKN073 OVC090 14/ RMK AC6AC2=
CYOW;2006-08-24 11:00;METAR CYOW 241100Z 14003KT 15SM -RA BKN080 OVC130 13/10 A3003 RMK AC6AC2 VRY LGT RA SLP171=
CYOW;2006-08-24 11:49;SPECI CYOW 241149Z 20003KT 15SM FEW060 BKN080 BKN130 13/ RMK SC1AC4AC2=
CYOW;2006-08-24 12:00;METAR CYOW 241200Z 18003KT 15SM FEW060 BKN091 BKN130 13/09 A3005 RMK SC1AC4AC2 SLP178=
CYOW;2006-08-24 13:00;METAR CYOW 241300Z 18004KT 15SM FEW060 BKN087 OVC130 14/11 A3005 RMK SC2AC5AC1 SLP176=
CYOW;2006-08-24 14:00;METAR CYOW 241400Z 26003KT 15SM FEW090 OVC130 16/10 A3005 RMK AC2AC6 SLP176=
CYOW;2006-08-24 15:00;METAR CYOW 241500Z 27002KT 15SM FEW025 FEW090 BKN130 17/11 A3005 RMK CU1AC2AC3 SLP177=
CYOW;2006-08-24 16:00;METAR CYOW 241600Z 06002KT 15SM FEW025 BKN100 BKN130 17/11 A3004 RMK CU1AC4AC1 SLP175=
CYOW;2006-08-24 17:00;METAR CYOW 241700Z 26004KT 15SM FEW025 BKN100 BKN130 19/11 A3003 RMK CU2AC3AC0 TCU EMBD SLP172=
CYOW;2006-08-24 18:00;METAR CYOW 241800Z 34002KT 15SM SCT025 BKN100 20/10 A3003 RMK CU4AC2 TCU EMBD SLP170=
CYOW;2006-08-24 19:00;METAR CYOW 241900Z 03002KT 15SM FEW025 BKN100 21/09 A3002 RMK CU2AC2 TCU EMBD SLP166=
CYOW;2006-08-24 20:00;METAR CYOW 242000Z 34003KT 15SM FEW035 SCT100 20/08 A3001 RMK CU2AC2 TCU EMBD SLP163=
CYOW;2006-08-24 21:00;METAR CYOW 242100Z 01010KT 15SM FEW050 BKN080 19/09 A3001 RMK CU2AC3 TCU EMBD SLP163=
CYOW;2006-08-24 22:00;METAR CYOW 242200Z 05003KT 15SM FEW050 FEW080 20/09 A3001 RMK CU2AC1 SLP165=
CYOW;2006-08-24 23:00;METAR CYOW 242300Z 07006KT 15SM FEW055 FEW070 FEW100 18/09 A3001 RMK SC1AC1AC1 TCU ASOCTD SLP163=
CYOW;2006-08-25 00:00;METAR CYOW 250000Z 10003KT 15SM FEW060 FEW100 16/10 A3002 RMK SC1AC1 SLP168=
CYOW;2006-08-25 01:00;METAR CYOW 250100Z 00000KT 15SM FEW050 FEW100 16/10 A3005 RMK SC1AC1 SC TR SLP177=
CYOW;2006-08-25 02:00;METAR CYOW 250200Z 05005KT 15SM FEW098 15/08 A3006 RMK AC2 SLP180=
CYOW;2006-08-25 03:00;METAR CYOW 250300Z 05007KT 15SM FEW100 14/07 A3006 RMK AC1 SLP182=
CYOW;2006-08-25 04:00;METAR CYOW 250400Z 06005KT 15SM FEW100 13/08 A3006 RMK AC1 SLP181=
CYOW;2006-08-25 05:00;METAR CYOW 250500Z 04007KT 15SM BKN090 BKN110 13/08 A3006 RMK AC6AC1 SLP181=
CYOW;2006-08-25 06:00;METAR CYOW 250600Z 03005KT 15SM OVC100 13/08 A3008 RMK AC8 SLP186=
CYOW;2006-08-25 07:00;METAR CYOW 250700Z 04007KT 15SM BKN080 13/08 A3008 RMK AC7 SLP186=
CYOW;2006-08-25 08:00;METAR CYOW 250800Z 05005KT 15SM SCT080 12/08 A3007 RMK AC3 SLP185=
CYOW;2006-08-25 09:00;METAR CYOW 250900Z 03007KT 15SM BKN080 11/08 A3008 RMK AC7 SLP188=
CYOW;2006-08-25 10:00;METAR CYOW 251000Z 05010KT 15SM BKN081 BKN120 11/07 A3009 RMK AC6AC1 SLP190=
CYOW;2006-08-25 11:00;METAR CYOW 251100Z 05007KT 20SM FEW080 BKN250 12/07 A3010 RMK AC2CI1 SLP195=
CYOW;2006-08-25 12:00;METAR CYOW 251200Z 06007KT 20SM FEW072 BKN250 13/06 A3011 RMK AC2CI2 SLP199=
CYOW;2006-08-25 13:00;METAR CYOW 251300Z 07010G15KT 20SM FEW076 BKN250 14/06 A3011 RMK AC2CI1 SLP198=
CYOW;2006-08-25 14:00;METAR CYOW 251400Z 06008KT 20SM FEW075 SCT250 16/07 A3012 RMK AC1CI1 SLP200=
CYOW;2006-08-25 15:00;METAR CYOW 251500Z 07008KT 20SM FEW035 FEW080 FEW250 17/08 A3012 RMK SC1AC1CI1 SC AC TR SLP202=
CYOW;2006-08-25 16:00;METAR CYOW 251600Z 07008KT 20SM FEW035 FEW080 FEW250 18/07 A3012 RMK SC1AC1CI1 SC AC TR SLP202=
CYOW;2006-08-25 17:00;METAR CYOW 251700Z 07012KT 20SM FEW044 SCT250 19/08 A3011 RMK SC1CI2 SC TR SLP197=
CYOW;2006-08-25 18:00;METAR CYOW 251800Z 11006KT 20SM FEW048 FEW210 BKN250 19/08 A3010 RMK CU1CI2CI1 CU TR SLP193=
CYOW;2006-08-25 19:00;METAR CYOW 251900Z 07004KT 20SM FEW050 BKN240 20/09 A3009 RMK CU2CI2 SLP190=
CYOW;2006-08-25 20:00;METAR CYOW 252000Z 09007KT 20SM FEW050 BKN240 21/09 A3008 RMK CU2CI2 SLP187=
CYOW;2006-08-25 21:00;METAR CYOW 252100Z 05005KT 20SM FEW050 BKN240 20/08 A3008 RMK CU2CI3 SLP187=
CYOW;2006-08-25 22:00;METAR CYOW 252200Z 07005KT 20SM FEW050 BKN240 19/08 A3009 RMK CU2CI3 SLP190=
CYOW;2006-08-25 23:00;METAR CYOW 252300Z 08004KT 20SM FEW060 BKN240 18/09 A3009 RMK SC1CI5 SLP191=
CYOW;2006-08-26 00:00;METAR CYOW 260000Z 08003KT 15SM FEW060 FEW240 17/10 A3011 RMK SC1CI2 TR SC SLP198=
CYOW;2006-08-26 01:00;METAR CYOW 260100Z 07003KT 15SM FEW060 FEW240 16/10 A3014 RMK SC1CI1 SLP206=
CYOW;2006-08-26 02:00;METAR CYOW 260200Z 05005KT 15SM SKC 15/10 A3015 RMK SLP211=
CYOW;2006-08-26 03:00;METAR CYOW 260300Z 05004KT 15SM SKC 14/09 A3016 RMK SLP216=
CYOW;2006-08-26 04:00;METAR CYOW 260400Z 05005KT 15SM SKC 13/09 A3016 RMK SLP215=
CYOW;2006-08-26 05:00;METAR CYOW 260500Z 05006KT 15SM SKC 12/08 A3017 RMK SLP217=
CYOW;2006-08-26 06:00;METAR CYOW 260600Z 04007KT 15SM SKC 11/08 A3016 RMK SLP216=
CYOW;2006-08-26 07:00;METAR CYOW 260700Z 05006KT 15SM SKC 11/08 A3016 RMK SLP216=
CYOW;2006-08-26 08:00;METAR CYOW 260800Z 04006KT 15SM SKC 11/08 A3017 RMK SLP218=
CYOW;2006-08-26 09:00;METAR CYOW 260900Z 04007KT 15SM SKC 10/07 A3018 RMK SLP222=
CYOW;2006-08-26 10:00;METAR CYOW 261000Z 04005KT 15SM FEW080 FEW250 10/06 A3019 RMK AC1CI0 SLP227=
CYOW;2006-08-26 11:00;METAR CYOW 261100Z 04006KT 20SM FEW240 10/07 A3022 RMK CI0 SLP234=
CYOW;2006-08-26 12:00;METAR CYOW 261200Z 05007KT 20SM FEW240 12/07 A3023 RMK CI0 SLP239=
CYOW;2006-08-26 13:00;METAR CYOW 261300Z 08011KT 20SM FEW240 14/07 A3023 RMK CI0 SLP240=
CYOW;2006-08-26 14:00;METAR CYOW 261400Z 08009KT 20SM FEW240 16/08 A3024 RMK CI1 SLP241=
CYOW;2006-08-26 15:00;METAR CYOW 261500Z 08010KT 20SM FEW240 18/08 A3022 RMK CI1 SLP235=
CYOW;2006-08-26 16:00;METAR CYOW 261600Z 07008G15KT 20SM FEW240 20/08 A3022 RMK CI1 SLP235=
CYOW;2006-08-26 17:00;METAR CYOW 261700Z 09009KT 20SM SCT240 21/07 A3022 RMK CI1 SLP234=
CYOW;2006-08-26 18:00;METAR CYOW 261800Z 10009KT 20SM BKN240 22/08 A3022 RMK CI2 SLP233=
CYOW;2006-08-26 19:00;METAR CYOW 261900Z 08009KT 20SM BKN240 22/08 A3019 RMK CI5 SLP225=
CYOW;2006-08-26 20:00;METAR CYOW 262000Z 08006KT 20SM BKN220 21/10 A3017 RMK CS6 SLP219=
CYOW;2006-08-26 21:00;METAR CYOW 262100Z 11010KT 20SM BKN220 22/09 A3017 RMK CS4 SLP217=
CYOW;2006-08-26 22:00;METAR CYOW 262200Z 09007KT 20SM FEW170 SCT250 21/09 A3016 RMK AC1CI2 AC TR SLP216=
CYOW;2006-08-26 23:00;METAR CYOW 262300Z 09008KT 20SM FEW050 FEW150 BKN250 19/09 A3016 RMK SC1AC1CI2 AC TR SLP216=
CYOW;2006-08-27 00:00;METAR CYOW 270000Z 07005KT 20SM FEW040 FEW150 BKN250 18/09 A3016 RMK SC1AC1CS3 SC AC TR SLP214=
CYOW;2006-08-27 01:00;METAR CYOW 270100Z 07008KT 15SM FEW040 BKN250 17/09 A3015 RMK SC1CS4 SLP213=
CYOW;2006-08-27 02:00;METAR CYOW 270200Z 07008KT 15SM BKN063 OVC250 17/09 A3016 RMK SC7CS0 SLP214=
CYOW;2006-08-27 03:00;METAR CYOW 270300Z 10007KT 15SM BKN042 BKN060 OVC240 16/10 A3014 RMK SC5SC2CS0 SLP209=
CYOW;2006-08-27 04:00;METAR CYOW 270400Z 09005KT 15SM FEW035 OVC220 16/11 A3014 RMK SC2CS3 SLP207=
CYOW;2006-08-27 05:00;METAR CYOW 270500Z 10006KT 15SM FEW040 OVC250 15/12 A3013 RMK SC2CS5 SLP204=
CYOW;2006-08-27 06:00;METAR CYOW 270600Z 10006KT 15SM BKN034 OVC060 15/13 A3011 RMK SC6SC2 SLP197=
CYOW;2006-08-27 07:00;METAR CYOW 270700Z 10007KT 15SM OVC025 16/13 A3009 RMK SC8 SLP191=
CYOW;2006-08-27 07:54;SPECI CYOW 270754Z 10007KT 12SM -RA OVC023 16/ RMK SC8=
CYOW;2006-08-27 08:00;METAR CYOW 270800Z 10007KT 12SM -RA OVC023 16/14 A3008 RMK SC8 SLP186=
CYOW;2006-08-27 09:00;METAR CYOW 270900Z 11009KT 10SM -RA OVC020 16/14 A3005 RMK SC8 SLP177=
CYOW;2006-08-27 10:00;METAR CYOW 271000Z 11006KT 10SM -RA OVC019 16/15 A3004 RMK SC8 SLP174=
CYOW;2006-08-27 10:44;SPECI CYOW 271044Z 14008KT 6SM BR FEW008 BKN012 OVC019 16/ RMK SF2SC3SC2=
CYOW;2006-08-27 10:51;SPECI CYOW 271051Z 14007KT 6SM BR BKN007 OVC012 16/ RMK SF6SC2=
CYOW;2006-08-27 11:00;METAR CYOW 271100Z 15007KT 8SM BKN007 OVC012 16/15 A3003 RMK SF6SC2 SLP171=
CYOW;2006-08-27 11:16;SPECI CYOW 271116Z 16005KT 8SM -RA OVC009 16/ RMK SF8 RA VRY LGT=
CYOW;2006-08-27 12:00;METAR CYOW 271200Z 16006KT 6SM -RA BR OVC007 17/15 A3003 RMK SF8 SLP171=
CYOW;2006-08-27 13:00;METAR CYOW 271300Z 15003KT 5SM -RA BR OVC008 16/15 A3000 RMK SF8 SLP161=
CYOW;2006-08-27 14:00;METAR CYOW 271400Z 16005KT 5SM -RA BR OVC008 17/15 A2999 RMK SF8 SLP157=
CYOW;2006-08-27 16:00;METAR CYOW 271600Z 14003KT 5SM -RA BR OVC009 17/16 A2996 RERA RMK SF8 SLP148=
CYOW;2006-08-27 17:00;METAR CYOW 271700Z 16005KT 6SM BR OVC008 18/17 A2995 RMK SF8 SLP144=
CYOW;2006-08-27 17:38;SPECI CYOW 271738Z 18004KT 5SM -RA BR OVC007 18/ RMK SF8=
CYOW;2006-08-27 18:00;METAR CYOW 271800Z 19006KT 6SM -RA BR OVC007 18/17 A2994 RMK SF8 SLP140=
CYOW;2006-08-27 18:30;SPECI CYOW 271830Z 20007KT 8SM OVC010 19/ RMK SF8=
CYOW;2006-08-27 19:00;METAR CYOW 271900Z 19006KT 10SM OVC012 19/17 A2992 RMK SC8 SLP133=
CYOW;2006-08-27 20:00;METAR CYOW 272000Z 20007KT 8SM OVC013 19/17 A2991 RMK SC8 SLP128=
CYOW;2006-08-27 20:45;SPECI CYOW 272045Z 19004KT 8SM OVC015 20/ RMK SC8=
CYOW;2006-08-27 21:00;METAR CYOW 272100Z 19005KT 10SM OVC020 20/18 A2990 RMK SC8 SLP126=
CYOW;2006-08-27 22:00;METAR CYOW 272200Z 20006KT 10SM BKN017 OVC030 21/19 A2990 RMK SC7SC1 SLP125=
CYOW;2006-08-27 22:22;SPECI CYOW 272222Z 20003KT 10SM FEW009 OVC013 21/ RMK SF1SC7=
CYOW;2006-08-27 22:49;SPECI CYOW 272249Z 08003KT 10SM BKN009 OVC018 21/ RMK SC7SC1=
CYOW;2006-08-27 23:00;METAR CYOW 272300Z 10002KT 10SM FEW003 OVC008 20/18 A2991 RMK SF1SC7 SLP128=
CYOW;2006-08-27 23:21;SPECI CYOW 272321Z 11002KT 10SM FEW009 BKN012 OVC020 20/ RMK SF1SC6SC2=
CYOW;2006-08-27 23:33;SPECI CYOW 272333Z 09003KT 10SM -RA FEW009 OVC012 20/ RMK SF1SC7 RA VRY LGT=
CYOW;2006-08-28 00:00;METAR CYOW 280000Z 14004KT 10SM FEW009 OVC011 20/18 A2991 RMK SF1SC7 SLP129=
CYOW;2006-08-28 01:00;METAR CYOW 280100Z 18003KT 10SM OVC012 19/17 A2992 RMK SC8 SLP133=
CYOW;2006-08-28 01:20;SPECI CYOW 280120Z 21005KT 10SM FEW012 BKN022 BKN034 19/ RMK SC2SC3SC2=
CYOW;2006-08-28 02:00;METAR CYOW 280200Z 33005KT 10SM BKN007 OVC012 19/17 A2994 RMK SC5SC3 SLP141=
CYOW;2006-08-28 02:17;SPECI CYOW 280217Z 00000KT 10SM -RA BKN008 OVC012 19/ RMK SC5SC3=
CYOW;2006-08-28 02:28;SPECI CYOW 280228Z 22003KT 10SM -RA SCT007 OVC016 20/ RMK SC3SC5=
CYOW;2006-08-28 02:38;SPECI CYOW 280238Z 22002KT 12SM FEW012 OVC024 19/ RMK SC2SC6=
CYOW;2006-08-28 03:00;METAR CYOW 280300Z 30003KT 12SM FEW004 BKN015 OVC025 19/18 A2994 RMK SF1SC6SC2 SLP141=
CYOW;2006-08-28 04:00;METAR CYOW 280400Z 34004KT 12SM BKN039 19/18 A2995 RMK SC7 SLP144=
CYOW;2006-08-28 05:00;METAR CYOW 280500Z 35007KT 12SM BKN040 18/17 A2996 RMK SC7 SLP145=
CYOW;2006-08-28 06:00;METAR CYOW 280600Z 34006KT 15SM FEW040 17/16 A2996 RMK SC1 SLP145=
CYOW;2006-08-28 07:00;METAR CYOW 280700Z 35009KT 12SM SKC 16/15 A2995 RMK SLP142=
CYOW;2006-08-28 08:00;METAR CYOW 280800Z 35006KT 15SM SKC 15/14 A2996 RMK SLP148=
CYOW;2006-08-28 09:00;METAR CYOW 280900Z 01004KT 15SM SKC 15/14 A2997 RMK SLP150=
CYOW;2006-08-28 10:00;METAR CYOW 281000Z 36006KT 15SM FEW040 FEW250 14/13 A2998 RMK SC1CI1 CLDS TR SLP153=
CYOW;2006-08-28 11:00;METAR CYOW 281100Z 01005KT 15SM FEW050 FEW250 14/13 A2998 RMK SC1CI1 SLP154=
CYOW;2006-08-28 12:00;METAR CYOW 281200Z 36006KT 12SM FEW020 FEW250 16/14 A3001 RMK CU1CI1 SLP162=
CYOW;2006-08-28 13:00;METAR CYOW 281300Z 36007KT 15SM FEW020 FEW250 18/14 A2999 RMK CU1CI1 SLP157=
CYOW;2006-08-28 14:00;METAR CYOW 281400Z 02005KT 15SM FEW020 FEW080 SCT250 19/15 A2999 RMK CU1AC1CI0 SLP157=
CYOW;2006-08-28 15:00;METAR CYOW 281500Z 34004KT 15SM FEW030 FEW080 SCT250 20/15 A2999 RMK CU2AC1CI0 SLP158=
CYOW;2006-08-28 16:00;METAR CYOW 281600Z 01003KT 15SM SCT030 SCT250 22/13 A2999 RMK CU3CI0 SLP155=
CYOW;2006-08-28 17:00;METAR CYOW 281700Z 05005KT 15SM BKN044 BKN250 23/12 A2998 RMK CU5CI0 SLP152=
CYOW;2006-08-28 18:00;METAR CYOW 281800Z 02005KT 15SM BKN044 BKN250 24/13 A2996 RMK CU6CI0 SLP146=
CYOW;2006-08-28 19:00;METAR CYOW 281900Z 01005KT 15SM BKN044 BKN250 23/13 A2996 RMK CU6CI0 SLP145=
CYOW;2006-08-28 20:00;METAR CYOW 282000Z 32005KT 15SM BKN044 BKN250 22/13 A2995 RMK CU5CI0 SLP141=
CYOW;2006-08-28 21:00;METAR CYOW 282100Z 27003KT 15SM BKN050 22/12 A2995 RMK CU5 SLP142=
CYOW;2006-08-28 22:00;METAR CYOW 282200Z 33002KT 15SM FEW050 SCT250 23/13 A2994 RMK SC2CI1 SLP138=
CYOW;2006-08-28 23:00;METAR CYOW 282300Z 29003KT 15SM SCT052 BKN270 22/13 A2994 RMK SC3CS2 SLP138=
CYOW;2006-08-29 00:00;METAR CYOW 290000Z 33005KT 15SM FEW055 BKN270 20/13 A2993 RMK SC2CS2 SLP137=
CYOW;2006-08-29 02:00;METAR CYOW 290200Z 00000KT 15SM FEW055 BKN250 20/13 A2993 RMK SC1CI2 SC TR SLP135=
CYOW;2006-08-29 03:00;METAR CYOW 290300Z 03002KT 15SM FEW050 FEW150 BKN250 18/12 A2992 RMK SC1AC1CI2 SC TR SLP134=
CYOW;2006-08-29 04:00;METAR CYOW 290400Z 00000KT 15SM OVC220 17/14 A2991 RMK CS7 SLP130=
CYOW;2006-08-29 05:00;METAR CYOW 290500Z 00000KT 15SM OVC180 17/14 A2991 RMK AS8 SLP130=
CYOW;2006-08-29 06:00;METAR CYOW 290600Z 02003KT 12SM OVC170 16/15 A2992 RMK AS8 SLP132=
CYOW;2006-08-29 07:00;METAR CYOW 290700Z 05003KT 10SM OVC180 16/15 A2991 RMK AS8 SLP128=
CYOW;2006-08-29 08:00;METAR CYOW 290800Z 04003KT 10SM OVC170 17/15 A2991 RMK AS8 SLP127=
CYOW;2006-08-29 09:00;METAR CYOW 290900Z 04005KT 15SM OVC180 16/15 A2990 RMK AS8 SLP126=
CYOW;2006-08-29 10:00;METAR CYOW 291000Z 03004KT 10SM FEW120 BKN190 16/15 A2991 RMK AC2AS4 SLP128=
CYOW;2006-08-29 12:00;METAR CYOW 291200Z 01006KT 12SM FEW120 OVC210 17/15 A2991 RMK AC2CI5 SLP130=
CYOW;2006-08-29 13:00;METAR CYOW 291300Z 08004KT 12SM FEW120 BKN200 18/15 A2991 RMK AC2CI3 SLP128=
CYOW;2006-08-29 14:00;METAR CYOW 291400Z 07006KT 12SM FEW160 BKN200 20/15 A2991 RMK AC2CI2 SLP129=
CYOW;2006-08-29 15:00;METAR CYOW 291500Z 08005KT 12SM FEW160 BKN200 21/15 A2990 RMK AC2CI2 SLP126=
CYOW;2006-08-29 16:00;METAR CYOW 291600Z 05003KT 15SM FEW035 SCT220 22/15 A2989 RMK CU1CI2 SLP122=
CYOW;2006-08-29 17:00;METAR CYOW 291700Z 04006KT 15SM FEW035 SCT220 24/15 A2989 RMK CU1CI2 SLP121=
CYOW;2006-08-29 18:00;METAR CYOW 291800Z 05008KT 15SM FEW040 SCT180 BKN240 24/14 A2988 RMK CU1AC2CI2 SLP120=
CYOW;2006-08-29 19:00;METAR CYOW 291900Z 06003KT 15SM FEW040 BKN150 BKN220 25/14 A2988 RMK CU1AC4CI1 SLP117=
CYOW;2006-08-29 20:00;METAR CYOW 292000Z 04004KT 15SM FEW040 BKN150 BKN220 25/14 A2987 RMK CU1AC4CI1 SLP114=
CYOW;2006-08-29 21:00;METAR CYOW 292100Z 05003KT 15SM FEW050 BKN170 BKN240 25/14 A2987 RMK CU1AC5CI1 CU TR SLP114=
CYOW;2006-08-29 22:00;METAR CYOW 292200Z 10002KT 15SM FEW050 SCT170 BKN210 25/14 A2988 RMK CU1AC4CI2 CU TR SLP117=
CYOW;2006-08-29 23:00;METAR CYOW 292300Z 18002KT 15SM FEW050 FEW100 FEW200 SCT220 BKN250 24/15 A2988 RMK SC1AC1CC2CC2CI0 SC AC TR SLP118=
CYOW;2006-08-30 00:00;METAR CYOW 300000Z 00000KT 15SM FEW064 FEW100 SCT220 BKN250 23/15 A2988 RMK SC2AC1CC2CI1 AC TR SLP120=
CYOW;2006-08-30 01:00;METAR CYOW 300100Z 01004KT 15SM BKN066 BKN072 22/14 A2991 RMK AC5AC2 SLP129=
CYOW;2006-08-30 02:00;METAR CYOW 300200Z 01011KT 15SM SCT060 BKN072 21/15 A2993 RMK SC3AC3 SLP135=
CYOW;2006-08-30 03:00;METAR CYOW 300300Z 03010KT 15SM BKN057 BKN110 20/14 A2994 RMK SC5AC2 SLP139=
CYOW;2006-08-30 04:00;METAR CYOW 300400Z 02009KT 15SM FEW050 SCT070 19/12 A2996 RMK SC2AC2 SLP145=
CYOW;2006-08-30 05:00;METAR CYOW 300500Z 02017KT 15SM FEW057 18/11 A2997 RMK SC1 SLP150=
CYOW;2006-08-30 06:00;METAR CYOW 300600Z 01009G17KT 15SM SCT050 16/09 A2999 RMK SC4 SLP156=
CYOW;2006-08-30 07:00;METAR CYOW 300700Z 36013G18KT 15SM BKN053 15/08 A3001 RMK SC6 SLP162=
CYOW;2006-08-30 08:00;METAR CYOW 300800Z 36013G18KT 15SM SCT053 BKN062 14/07 A3002 RMK SC3SC2 SLP167=
CYOW;2006-08-30 09:00;METAR CYOW 300900Z 36011KT 15SM SCT065 13/07 A3005 RMK SC3 SLP177=
CYOW;2006-08-30 10:00;METAR CYOW 301000Z 01008KT 15SM FEW065 12/06 A3007 RMK SC2 SLP183=
CYOW;2006-08-30 11:00;METAR CYOW 301100Z 01009KT 15SM FEW065 11/05 A3010 RMK SC1 SLP192=
CYOW;2006-08-30 12:00;METAR CYOW 301200Z 02009G16KT 15SM FEW065 12/05 A3011 RMK SC1 SLP197=
CYOW;2006-08-30 13:00;METAR CYOW 301300Z 02013KT 15SM FEW040 FEW070 FEW260 13/05 A3012 RMK SC1AC1CI1 CLDS TR SLP200=
CYOW;2006-08-30 14:00;METAR CYOW 301400Z 01006KT 15SM FEW040 FEW070 FEW260 14/05 A3013 RMK SC1AC1CI1 CLDS TR SLP205=
CYOW;2006-08-30 15:00;METAR CYOW 301500Z 35008KT 15SM FEW040 FEW070 16/05 A3014 RMK SC1AC1 CLDS TR SLP206=
CYOW;2006-08-30 16:00;METAR CYOW 301600Z 35010KT 15SM FEW040 16/05 A3013 RMK SC1 SC TR SLP204=
CYOW;2006-08-30 17:00;METAR CYOW 301700Z 01009KT 15SM FEW040 17/06 A3011 RMK SC1 SC TR SLP199=
CYOW;2006-08-30 18:00;METAR CYOW 301800Z 31008KT 15SM FEW040 19/07 A3011 RMK SC1 SC TR SLP199=
CYOW;2006-08-30 19:00;METAR CYOW 301900Z 34004KT 15SM FEW040 19/07 A3011 RMK SC1 SC TR SLP198=
CYOW;2006-08-30 20:00;METAR CYOW 302000Z 34012KT 15SM FEW080 20/06 A3011 RMK AC1 AC TR SLP197=
CYOW;2006-08-30 21:00;METAR CYOW 302100Z 01009KT 15SM FEW080 20/06 A3011 RMK AC1 AC TR SLP198=
CYOW;2006-08-30 22:00;METAR CYOW 302200Z 36011KT 15SM FEW080 19/06 A3012 RMK AC1 AC TR SLP201=
CYOW;2006-08-30 23:00;METAR CYOW 302300Z 36010KT 15SM FEW180 18/05 A3013 RMK AC1 SLP203=
CYOW;2006-08-31 00:00;METAR CYOW 310000Z 36008KT 15SM FEW180 16/05 A3014 RMK AC1 SLP208=
CYOW;2006-08-31 01:00;METAR CYOW 310100Z 36011KT 15SM SKC 15/05 A3015 RMK SLP213=
CYOW;2006-08-31 02:00;METAR CYOW 310200Z 36007KT 15SM SKC 14/05 A3016 RMK SLP215=
CYOW;2006-08-31 03:00;METAR CYOW 310300Z 34005KT 15SM SKC 12/06 A3018 RMK SLP222=
CYOW;2006-08-31 04:00;METAR CYOW 310400Z 32006KT 15SM SKC 10/06 A3021 RMK SLP231=
CYOW;2006-08-31 05:00;METAR CYOW 310500Z 36008KT 15SM SKC 11/07 A3021 RMK SLP233=
CYOW;2006-08-31 06:00;METAR CYOW 310600Z 35004KT 15SM SKC 11/07 A3022 RMK SLP234=
CYOW;2006-08-31 07:00;METAR CYOW 310700Z 35005KT 15SM SKC 10/07 A3022 RMK SLP237=
CYOW;2006-08-31 08:00;METAR CYOW 310800Z 36006KT 15SM SKC 10/07 A3023 RMK SLP238=
CYOW;2006-08-31 09:00;METAR CYOW 310900Z 36006KT 15SM SKC 09/07 A3024 RMK SLP242=
CYOW;2006-08-31 10:00;METAR CYOW 311000Z 36006KT 15SM FEW200 FEW250 09/07 A3025 RMK CI1CI0 SLP244=
CYOW;2006-08-31 11:00;METAR CYOW 311100Z 36006KT 15SM FEW220 10/07 A3026 RMK CI0 SLP250=
CYOW;2006-08-31 12:00;METAR CYOW 311200Z 36006KT 15SM FEW220 12/08 A3028 RMK CI0 SLP256=
CYOW;2006-08-31 13:00;METAR CYOW 311300Z 35005KT 15SM FEW260 14/08 A3029 RMK CI0 SLP260=
CYOW;2006-08-31 14:00;METAR CYOW 311400Z 35006KT 15SM SCT220 15/08 A3030 RMK CI1 SLP262=
CYOW;2006-08-31 15:00;METAR CYOW 311500Z 35006KT 15SM FEW220 17/09 A3030 RMK CI1 SLP263=
CYOW;2006-08-31 16:00;METAR CYOW 311600Z 35008KT 15SM FEW220 18/09 A3029 RMK CI1 SLP260=
CYOW;2006-08-31 17:00;METAR CYOW 311700Z 34007KT 15SM FEW220 20/09 A3029 RMK CI0 SLP259=
CYOW;2006-08-31 18:00;METAR CYOW 311800Z 35007KT 15SM FEW220 21/09 A3029 RMK CI0 SLP259=
CYOW;2006-08-31 19:00;METAR CYOW 311900Z 30003KT 15SM FEW045 FEW220 22/09 A3029 RMK CU1CI0 CU TR SLP258=
CYOW;2006-08-31 20:00;METAR CYOW 312000Z 00000KT 15SM FEW045 FEW220 22/09 A3028 RMK SC1CI0 SLP256=
CYOW;2006-08-31 21:00;METAR CYOW 312100Z 09004KT 15SM FEW045 FEW220 22/10 A3028 RMK SC1CI0 SLP256=
CYOW;2006-08-31 22:00;METAR CYOW 312200Z 10004KT 15SM FEW045 FEW220 22/10 A3029 RMK SC1CI0 SLP258=
CYOW;2006-08-31 23:00;METAR CYOW 312300Z 00000KT 15SM FEW050 FEW080 FEW180 FEW220 21/11 A3030 RMK SC1AC1AC1CI0 SLP261=
CYOW;2006-09-01 00:00;METAR CYOW 010000Z 29003KT 15SM FEW100 BKN220 19/11 A3031 RMK AC1CI1 SLP264=
CYOW;2006-09-01 01:00;METAR CYOW 010100Z 33006KT 15SM FEW220 17/11 A3032 RMK CI1 SLP268=
CYOW;2006-09-01 02:00;METAR CYOW 010200Z 33005KT 15SM SKC 16/11 A3032 RMK SLP270=
CYOW;2006-09-01 03:00;METAR CYOW 010300Z 36005KT 15SM SKC 16/11 A3033 RMK SLP271=
CYOW;2006-09-01 04:00;METAR CYOW 010400Z 00000KT 15SM SKC 14/11 A3035 RMK SLP279=
CYOW;2006-09-01 05:00;METAR CYOW 010500Z 11002KT 15SM SKC 15/11 A3035 RMK SLP279=
CYOW;2006-09-01 06:00;METAR CYOW 010600Z 02005KT 15SM SKC 14/11 A3035 RMK SLP279=
CYOW;2006-09-01 07:00;METAR CYOW 010700Z 05005KT 15SM SKC 12/10 A3035 RMK SLP279=
CYOW;2006-09-01 08:00;METAR CYOW 010800Z 02003KT 15SM SKC 12/10 A3035 RMK SLP279=
CYOW;2006-09-01 09:00;METAR CYOW 010900Z 02004KT 15SM FEW050 12/10 A3035 RMK SC1 SLP278=
CYOW;2006-09-01 10:00;METAR CYOW 011000Z 05003KT 15SM FEW200 FEW240 12/11 A3037 RMK CI1CI0 SLP286=
CYOW;2006-09-01 11:00;METAR CYOW 011100Z 03004KT 15SM FEW220 12/11 A3039 RMK CI0 SLP292=
CYOW;2006-09-01 12:00;METAR CYOW 011200Z 04003KT 15SM FEW220 14/12 A3039 RMK CI0 SLP294=
CYOW;2006-09-01 13:00;METAR CYOW 011300Z 02003KT 15SM FEW240 17/12 A3039 RMK CI1 SLP291=
CYOW;2006-09-01 14:00;METAR CYOW 011400Z 05005KT 15SM FEW240 18/12 A3039 RMK CI1 SLP293=
CYOW;2006-09-01 15:00;METAR CYOW 011500Z 07006KT 15SM BKN240 20/12 A3039 RMK CI1 SLP292=
CYOW;2006-09-01 16:00;METAR CYOW 011600Z 10007KT 15SM FEW040 BKN240 21/12 A3038 RMK CU1CI1 SLP288=
CYOW;2006-09-01 17:00;METAR CYOW 011700Z 06011G16KT 15SM FEW040 FEW240 23/10 A3036 RMK CU1CI0 SLP281=
CYOW;2006-09-01 18:00;METAR CYOW 011800Z 06008G15KT 15SM FEW040 SCT240 23/11 A3035 RMK CU2CI0 SLP278=
CYOW;2006-09-01 19:00;METAR CYOW 011900Z 09008KT 20SM FEW044 SCT250 23/11 A3033 RMK CU2CI0 SLP272=
CYOW;2006-09-01 20:00;METAR CYOW 012000Z 07010KT 20SM FEW050 BKN250 23/11 A3033 RMK CU1CI1 SLP272=
CYOW;2006-09-01 21:00;METAR CYOW 012100Z 09009KT 20SM FEW050 BKN270 23/11 A3033 RMK SC1CI1 SC TR SLP271=
CYOW;2006-09-01 22:00;METAR CYOW 012200Z 10009KT 20SM FEW050 SCT270 22/11 A3033 RMK SC1CI1 SC TR SLP271=
CYOW;2006-09-01 23:00;METAR CYOW 012300Z 09005KT 20SM FEW050 BKN270 20/11 A3034 RMK SC1CI1 SC TR SLP275=
CYOW;2006-09-02 00:00;METAR CYOW 020000Z 08006KT 20SM FEW050 BKN270 19/11 A3034 RMK SC1CI1 SC TR SLP274=
CYOW;2006-09-02 01:00;METAR CYOW 020100Z 06004KT 15SM BKN270 18/12 A3035 RMK CI1 SLP279=
CYOW;2006-09-02 02:00;METAR CYOW 020200Z 08008KT 15SM BKN270 17/11 A3035 RMK CI1 SLP279=
CYOW;2006-09-02 03:00;METAR CYOW 020300Z 07006KT 15SM BKN270 16/13 A3035 RMK CI1 SLP279=
CYOW;2006-09-02 04:00;METAR CYOW 020400Z 06009KT 15SM BKN270 15/10 A3035 RMK CI1 SLP280=
CYOW;2006-09-02 05:00;METAR CYOW 020500Z 07010KT 15SM BKN270 15/10 A3035 RMK CI1 SLP280=
CYOW;2006-09-02 06:00;METAR CYOW 020600Z 07009KT 15SM BKN270 15/10 A3034 RMK CI0 SLP276=
CYOW;2006-09-02 07:00;METAR CYOW 020700Z 07009KT 15SM BKN270 14/10 A3034 RMK CI0 SLP274=
CYOW;2006-09-02 08:00;METAR CYOW 020800Z 07010KT 15SM BKN270 14/10 A3034 RMK CI0 SLP273=
CYOW;2006-09-02 09:00;METAR CYOW 020900Z 08010KT 15SM BKN270 14/10 A3035 RMK CI0 SLP278=
CYOW;2006-09-02 10:00;METAR CYOW 021000Z 07008KT 15SM FEW120 BKN270 13/10 A3036 RMK AC1CI1 SLP281=
CYOW;2006-09-02 11:00;METAR CYOW 021100Z 07008KT 15SM FEW120 BKN270 13/10 A3037 RMK AC1CI5 SLP285=
CYOW;2006-09-02 12:00;METAR CYOW 021200Z 07009KT 15SM FEW060 FEW180 OVC270 13/10 A3038 RMK SC1AC2CS5 ACC ASOCTD SLP290=
CYOW;2006-09-02 13:00;METAR CYOW 021300Z 08009KT 15SM FEW180 OVC220 15/11 A3039 RMK AC2CS6 SLP293=
CYOW;2006-09-02 14:00;METAR CYOW 021400Z 08012KT 15SM FEW120 OVC180 16/12 A3039 RMK AC2AS6 SLP294=
CYOW;2006-09-02 15:00;METAR CYOW 021500Z 06009KT 15SM OVC180 18/12 A3038 RMK AS8 SLP290=
CYOW;2006-09-02 16:00;METAR CYOW 021600Z 06009KT 15SM FEW030 OVC180 20/13 A3038 RMK CU1AS7 SLP288=
CYOW;2006-09-02 17:00;METAR CYOW 021700Z 07010KT 15SM FEW030 BKN180 OVC240 21/12 A3036 RMK CU2AS5CI1 SLP283=
CYOW;2006-09-02 18:00;METAR CYOW 021800Z 09010KT 15SM FEW040 OVC150 20/12 A3035 RMK CU2AS6 SLP280=
CYOW;2006-09-02 19:00;METAR CYOW 021900Z 08011KT 15SM FEW040 OVC150 20/12 A3035 RMK CU2AS6 SLP278=
CYOW;2006-09-02 20:00;METAR CYOW 022000Z 09011KT 15SM FEW040 OVC140 19/12 A3033 RMK CU2AS6 SLP273=
CYOW;2006-09-02 21:00;METAR CYOW 022100Z 06008KT 15SM FEW040 OVC140 19/12 A3031 RMK CU2AS6 SLP267=
CYOW;2006-09-02 21:34;SPECI CYOW 022134Z 06009KT 15SM -RA FEW020 BKN060 OVC080 18/ RMK SC1SC6AC2 RA VRY LGT=
CYOW;2006-09-02 22:00;METAR CYOW 022200Z 06009KT 15SM -RA FEW020 BKN065 OVC080 17/13 A3029 RMK SC1SC6AC2 SLP260=
CYOW;2006-09-02 22:54;SPECI CYOW 022254Z 07005KT 15SM FEW010 OVC110 16/ RMK CF1AC8 CUFRA TR=
CYOW;2006-09-02 23:00;METAR CYOW 022300Z 06005KT 15SM FEW010 OVC110 16/14 A3029 RMK CF1AC8 CUFRA TR SLP260=
CYOW;2006-09-03 00:00;METAR CYOW 030000Z 05009KT 12SM OVC110 16/13 A3026 RMK AC8 SLP250=
CYOW;2006-09-03 01:00;METAR CYOW 030100Z 06009KT 15SM OVC110 16/12 A3025 RMK AC8 SLP245=
CYOW;2006-09-03 01:26;SPECI CYOW 030126Z 05010KT 15SM -RA OVC100 16/ RMK AC8=
CYOW;2006-09-03 02:00;METAR CYOW 030200Z 07012KT 15SM -RA OVC095 16/11 A3023 RMK AS8 SLP238=
CYOW;2006-09-03 03:00;METAR CYOW 030300Z 08013G18KT 10SM -RA SCT040 OVC079 15/11 A3022 RERA RMK SC3AS5 SLP234=
CYOW;2006-09-03 04:00;METAR CYOW 030400Z 06009KT 6SM +RA BR SCT040 OVC061 14/12 A3022 RMK SC3SC5 SLP234=
CYOW;2006-09-03 05:00;METAR CYOW 030500Z 05009KT 6SM +RA BR OVC052 14/12 A3021 RMK NS8 /R10/ SLP230=
CYOW;2006-09-03 05:35;SPECI CYOW 030535Z 04009KT 2SM +RA BR SCT008 OVC027 13/ RMK SF3NS5=
CYOW;2006-09-03 05:54;SPECI CYOW 030554Z 07014KT 4SM +RA BR FEW008 OVC033 13/ RMK SF2NS6=
CYOW;2006-09-03 06:00;METAR CYOW 030600Z 08014KT 4SM +RA BR FEW008 OVC024 13/11 A3019 RMK SF2NS6 /R22/ SLP226=
CYOW;2006-09-03 07:00;METAR CYOW 030700Z 06009KT 5SM RA BR FEW008 BKN012 OVC040 12/11 A3017 RERA RMK SF2SC4NS2 SLP218=
CYOW;2006-09-03 08:00;METAR CYOW 030800Z 07011KT 5SM -RA BR SCT007 BKN017 OVC042 12/11 A3015 RERA RMK SF3SC2NS2 /R10/ SLP212=
CYOW;2006-09-03 09:00;METAR CYOW 030900Z 06013G18KT 4SM -RA BR SCT004 BKN017 OVC042 12/11 A3013 RMK SF3SC3NS2 SLP203=
CYOW;2006-09-03 10:00;METAR CYOW 031000Z 06012G17KT 3SM -RA BR BKN006 OVC012 12/11 A3011 RMK SF6SC2 CIG VRB 4-8 SLP198=
CYOW;2006-09-03 10:23;SPECI CYOW 031023Z 06013KT 2SM -RA BR BKN006 OVC015 12/ RMK SF7SC1 CIG VRB 4-8=
CYOW;2006-09-03 12:00;METAR CYOW 031200Z 07014G20KT 2 1/2SM -RA BR OVC005 12/11 A3010 RMK SF8 RAIN 45 MM PST 24 HRS SLP195=
CYOW;2006-09-03 13:00;METAR CYOW 031300Z 07013KT 2SM -RA BR OVC005 12/11 A3009 RMK SF8 SLP192=
CYOW;2006-09-03 14:00;METAR CYOW 031400Z 08011G16KT 2SM -RA BR OVC004 12/11 A3008 RMK SF8 SLP188=
CYOW;2006-09-03 15:00;METAR CYOW 031500Z 08012KT 2 1/2SM -RA BR OVC004 12/12 A3006 RMK SF8 SLP182=
CYOW;2006-09-03 16:00;METAR CYOW 031600Z 08011G16KT 3SM -RA BR OVC004 13/12 A3005 RMK SF8 SLP179=
CYOW;2006-09-03 17:00;METAR CYOW 031700Z 07008G16KT 7SM -RA OVC005 13/13 A3003 RMK SF8 RA VRY LGT SLP172=
CYOW;2006-09-03 18:00;METAR CYOW 031800Z 08011KT 3SM -RA OVC005 14/13 A3002 RMK SF8 SLP169=
CYOW;2006-09-03 18:23;SPECI CYOW 031823Z 08011KT 2SM -DZ BR OVC005 14/ RMK SF8=
CYOW;2006-09-03 19:00;METAR CYOW 031900Z 08011KT 1 1/2SM -DZ BR OVC004 14/14 A3001 RMK SF8 SLP163=
CYOW;2006-09-03 20:00;METAR CYOW 032000Z 07011KT 1 1/2SM -DZ BR OVC004 14/14 A2999 RMK SF8 SLP159=
CYOW;2006-09-03 21:00;METAR CYOW 032100Z 07004KT 1 1/2SM -DZ BR OVC004 15/14 A2999 RMK SF8 SLP159=
CYOW;2006-09-03 22:00;METAR CYOW 032200Z 08004KT 3SM -DZ BR OVC005 15/14 A2999 RMK SF8 CIG VRB 3-7 SLP158=
CYOW;2006-09-03 22:14;SPECI CYOW 032214Z 06004KT 2SM -DZ BR OVC005 15/ RMK SF8 CIG VRB 3-7=
CYOW;2006-09-03 22:38;SPECI CYOW 032238Z 07004KT 3SM -DZ BR OVC004 15/ RMK SF8 CIG VRB 3-5 DZ VRY LGT=
CYOW;2006-09-03 23:00;METAR CYOW 032300Z 07005KT 3SM -DZ BR OVC004 14/14 A2999 RMK SF8 CIG VRB 3-5 SLP156=
CYOW;2006-09-03 23:20;SPECI CYOW 032320Z 07005KT 1 3/4SM -RADZ BR BKN004 OVC030 14/ RMK SF7SC1 CIG VRB 3-5=
CYOW;2006-09-03 23:36;SPECI CYOW 032336Z 07005KT 1 3/4SM -RADZ BR BKN003 OVC030 14/ RMK SF7SC1 CIG VRB 2-4=
CYOW;2006-09-03 23:51;SPECI CYOW 032351Z 08006KT 3SM -DZ BR BKN003 OVC024 14/ RMK SF6SC2 CIG VRB 2-4=
CYOW;2006-09-04 00:00;METAR CYOW 040000Z 09006KT 5SM -DZ BR SCT003 OVC023 14/14 A2998 RMK SF4SC4 SLP153=
CYOW;2006-09-04 00:24;SPECI CYOW 040024Z 09006KT 5SM -DZ BR BKN003 OVC018 14/ RMK SF6SC2 CIG VRB 2-4 DZ VRY LGT=
CYOW;2006-09-04 00:42;SPECI CYOW 040042Z 08005KT 5SM BR BKN003 OVC021 14/ RMK SF6SC2 CIG VRB 2-4=
CYOW;2006-09-04 01:00;METAR CYOW 040100Z 09006KT 6SM BR OVC003 14/14 A2999 RMK SF8 CIG VRB 2-4 SLP156=
CYOW;2006-09-04 01:54;SPECI CYOW 040154Z 10004KT 3SM -DZ BR OVC003 14/ RMK SF8 CIG VRB 2-4=
CYOW;2006-09-04 02:00;METAR CYOW 040200Z 09004KT 3SM -DZ BR OVC003 14/14 A2998 RMK SF8 CIG VRB 2-4 SLP153=
CYOW;2006-09-04 02:15;SPECI CYOW 040215Z 09004KT 2SM -DZ BR OVC002 14/ RMK SF8=
CYOW;2006-09-04 03:00;METAR CYOW 040300Z 07002KT 1 1/2SM -DZ BR OVC003 14/14 A2997 RMK SF8 CIG VRB 2-5 SLP151=
CYOW;2006-09-04 03:28;SPECI CYOW 040328Z 09002KT 2SM -DZ BR SCT003 OVC007 14/ RMK SF3ST5=
CYOW;2006-09-04 04:00;METAR CYOW 040400Z 09002KT 2SM -DZ BR SCT003 OVC007 14/14 A2996 RMK SF3ST5 SLP149=
CYOW;2006-09-04 05:00;METAR CYOW 040500Z 30005KT 2SM -DZ BR OVC003 14/14 A2996 RMK SF8 CIG VRB 2-4 SLP149=
CYOW;2006-09-04 06:00;METAR CYOW 040600Z 29007KT 3SM -DZ BR SCT003 BKN012 OVC032 14/14 A2996 RMK SF3SC3SC2 DZ VRY LGT SLP148=
CYOW;2006-09-04 06:13;SPECI CYOW 040613Z 28006KT 5SM BR SCT005 BKN050 OVC100 14/ RMK SF3SC3AC2=
CYOW;2006-09-04 06:25;SPECI CYOW 040625Z 27008KT 15SM BKN006 OVC040 14/ RMK SF6SC2=
CYOW;2006-09-04 07:00;METAR CYOW 040700Z 27008KT 10SM BKN003 OVC011 14/13 A2996 RMK SF6SC2 SLP148=
CYOW;2006-09-04 08:00;METAR CYOW 040800Z 24006KT 10SM OVC004 14/13 A2996 RMK SF8 CIG VRB 3-5 SLP149=
CYOW;2006-09-04 08:46;SPECI CYOW 040846Z 25005KT 15SM BKN006 OVC018 14/ RMK SF5SC3=
CYOW;2006-09-04 09:00;METAR CYOW 040900Z 25006KT 15SM OVC005 14/13 A2996 RMK SF8 SLP147=
CYOW;2006-09-04 09:25;SPECI CYOW 040925Z 25006KT 12SM OVC003 14/ RMK ST8=
CYOW;2006-09-04 10:00;METAR CYOW 041000Z 26006KT 6SM BR OVC003 14/13 A2996 RMK ST8 SLP147=
CYOW;2006-09-04 10:12;SPECI CYOW 041012Z 25005KT 1 3/4SM -DZ BR OVC002 14/ RMK ST8=
CYOW;2006-09-04 11:00;METAR CYOW 041100Z 26005KT 1 3/4SM -DZ BR OVC004 14/13 A2996 RMK SF8 CIG VRB 3-6 SLP149=
CYOW;2006-09-04 11:42;SPECI CYOW 041142Z 26007KT 2SM -DZ BR OVC003 14/ RMK SF8=
CYOW;2006-09-04 12:00;METAR CYOW 041200Z 27006KT 2SM -DZ BR OVC003 14/14 A2998 RMK SF8 SLP154=
CYOW;2006-09-04 12:24;SPECI CYOW 041224Z 27007KT 4SM BR OVC003 14/ RMK SF8=
CYOW;2006-09-04 13:00;METAR CYOW 041300Z 27007KT 4SM -DZ BR OVC004 14/14 A2999 RMK SF8 SLP159=
CYOW;2006-09-04 14:00;METAR CYOW 041400Z 28009KT 7SM OVC004 15/14 A3000 RMK SF8 SLP161=
CYOW;2006-09-04 14:38;SPECI CYOW 041438Z 27006KT 2 1/2SM -DZ BR OVC004 15/ RMK SF8 DZ INTMT=
CYOW;2006-09-04 15:00;METAR CYOW 041500Z 28008KT 7SM OVC006 16/15 A3000 RMK SF8 INTMT DZ SLP162=
CYOW;2006-09-04 16:00;METAR CYOW 041600Z 27007KT 12SM OVC012 17/15 A3000 RMK SC8 SLP162=
CYOW;2006-09-04 17:00;METAR CYOW 041700Z 30008KT 10SM OVC030 17/15 A3001 RMK SC8 SH N SLP163=
CYOW;2006-09-04 17:07;SPECI CYOW 041707Z 31007KT 4SM -RA FEW008 OVC030 17/ RMK SF2SC6 RA=
CYOW;2006-09-04 18:00;METAR CYOW 041800Z 30006KT 12SM -RA SCT008 OVC033 17/15 A3001 RMK SF3SC5 RA VRY LGT SLP164=
CYOW;2006-09-04 18:28;SPECI CYOW 041828Z 30008KT 20SM SCT010 BKN044 18/ RMK CF3SC4=
CYOW;2006-09-04 19:00;METAR CYOW 041900Z 29006KT 20SM SCT012 BKN026 18/15 A3001 RMK CU3SC4 SLP164=
CYOW;2006-09-04 20:00;METAR CYOW 042000Z 31007KT 20SM SCT020 BKN037 19/15 A3001 RMK CU3SC4 SLP163=
CYOW;2006-09-04 21:00;METAR CYOW 042100Z 28008KT 20SM FEW020 OVC037 18/14 A3002 RMK CU2SC6 SLP166=
CYOW;2006-09-04 22:00;METAR CYOW 042200Z 30009KT 20SM FEW020 OVC033 18/14 A3002 RMK CU1SC7 SLP169=
CYOW;2006-09-05 00:00;METAR CYOW 050000Z 28004KT 15SM SCT024 OVC038 17/14 A3005 RMK SC3SC5 SLP178=
CYOW;2006-09-05 00:34;SPECI CYOW 050034Z 31005KT 15SM -SHRA FEW020 OVC041 16/ RMK SC2SC6 SH VRY LGT CVCTV CLD EMBD=
CYOW;2006-09-05 00:42;SPECI CYOW 050042Z 29003KT 15SM FEW020 OVC043 16/ RMK SC2SC5 SH DIST ESE=
CYOW;2006-09-05 01:00;METAR CYOW 050100Z 27003KT 15SM FEW025 BKN045 OVC100 16/14 A3007 RMK SC2SC4AC1 SLP183=
CYOW;2006-09-05 02:00;METAR CYOW 050200Z 29004KT 15SM BKN039 16/14 A3007 RMK SC7 SLP185=
CYOW;2006-09-05 03:00;METAR CYOW 050300Z 28005KT 15SM FEW030 SCT250 15/14 A3007 RMK SC1CI0 SC TR SLP185=
CYOW;2006-09-05 04:00;METAR CYOW 050400Z 30005KT 15SM FEW030 FEW250 14/13 A3007 RMK SC1CI0 SC TR SLP185=
CYOW;2006-09-05 05:00;METAR CYOW 050500Z 23003KT 15SM FEW010 SCT250 14/13 A3007 RMK SC2CI0 SLP185=
CYOW;2006-09-05 05:19;SPECI CYOW 050519Z 24004KT 15SM BKN003 14/ RMK SC5=
CYOW;2006-09-05 05:41;SPECI CYOW 050541Z 24003KT 3SM BR BKN002 14/ RMK SF5=
CYOW;2006-09-05 06:00;METAR CYOW 050600Z 25002KT 2SM BR BKN002 14/13 A3008 RMK SF5 SLP187=
CYOW;2006-09-05 06:14;SPECI CYOW 050614Z 00000KT 3SM BR FEW002 13/ RMK SF1=
CYOW;2006-09-05 06:26;SPECI CYOW 050626Z 26002KT 2SM BR FEW001 FEW250 13/ RMK SF1CI1 SF TR=
CYOW;2006-09-05 06:37;SPECI CYOW 050637Z 25003KT 1SM BR FEW002 FEW250 13/ RMK FG1SF1CI0 VIS VRB 3/4-11/2=
CYOW;2006-09-05 06:46;SPECI CYOW 050646Z 24003KT 1/2SM FG BKN003 13/ RMK FG5SF2=
CYOW;2006-09-05 07:00;METAR CYOW 050700Z 26003KT 1SM BR BKN002 13/13 A3007 RMK FG2SF5 VIS VRB 3/4-11/2 SLP185=
CYOW;2006-09-05 07:16;SPECI CYOW 050716Z 25003KT 3SM BR OVC002 13/ RMK ST7=
CYOW;2006-09-05 07:35;SPECI CYOW 050735Z 25003KT 1SM BR OVC002 13/ RMK FG2ST6 VIS VRB 3/4-11/2=
CYOW;2006-09-05 07:46;SPECI CYOW 050746Z 25002KT 1/4SM FG VV001 13/ RMK FG8=
CYOW;2006-09-05 08:00;METAR CYOW 050800Z 26004KT 1/8SM FG VV001 14/13 A3008 RMK FG8 SLP188=
CYOW;2006-09-05 09:00;METAR CYOW 050900Z 31003KT 1/8SM FG VV001 14/14 A3007 RMK FG8 SLP184=
CYOW;2006-09-05 09:21;SPECI CYOW 050921Z 29004KT 1/4SM FG VV001 14/ RMK FG8=
CYOW;2006-09-05 10:00;METAR CYOW 051000Z 27003KT 1/8SM FG VV001 14/14 A3007 RMK FG8 SLP184=
CYOW;2006-09-05 12:00;METAR CYOW 051200Z 25003KT 1/8SM FG VV001 14/13 A3008 RMK FG8 SLP189=
CYOW;2006-09-05 12:38;SPECI CYOW 051238Z 25002KT 2 1/2SM BR VV002 14/ RMK FG8=
CYOW;2006-09-05 13:00;METAR CYOW 051300Z 24003KT 3SM BR OVC002 14/14 A3008 RMK SF8 SLP188=
CYOW;2006-09-05 14:00;METAR CYOW 051400Z 26004KT 10SM SCT003 BKN025 OVC100 15/15 A3009 RMK SF3SC3AC1 SLP190=
CYOW;2006-09-05 15:00;METAR CYOW 051500Z 25002KT 15SM FEW005 SCT030 BKN120 BKN210 18/16 A3007 RMK SF1SC2AC2CI0 SLP185=
CYOW;2006-09-05 16:00;METAR CYOW 051600Z 28002KT 15SM FEW120 BKN220 19/14 A3005 RMK AC2CI2 SLP179=
CYOW;2006-09-05 17:00;METAR CYOW 051700Z 27004KT 15SM FEW040 SCT045 BKN180 BKN220 21/14 A3004 RMK CU1SC2AC2CI1 SLP174=
CYOW;2006-09-05 18:00;METAR CYOW 051800Z 20003KT 15SM FEW034 SCT035 BKN180 BKN220 22/14 A3001 RMK CU2SC2AC2CI1 SLP164=
CYOW;2006-09-05 20:00;METAR CYOW 052000Z 19004KT 15SM BKN040 OVC180 21/15 A2998 RMK SC6AC2 CU ASOCT SLP152=
CYOW;2006-09-05 21:00;METAR CYOW 052100Z 19005KT 15SM FEW040 BKN180 BKN240 21/15 A2996 RMK CU2AC5CI0 SLP146=
CYOW;2006-09-05 22:00;METAR CYOW 052200Z 18005KT 15SM FEW040 BKN180 BKN240 20/15 A2995 RMK CU1AC5CI1 CU TR SLP142=
CYOW;2006-09-05 23:00;METAR CYOW 052300Z 20003KT 15SM FEW060 FEW080 SCT180 OVC240 19/15 A2994 RMK SC1AC1AC3CI2 SC TR SLP141=
CYOW;2006-09-06 00:00;METAR CYOW 060000Z 20003KT 15SM FEW060 FEW080 BKN180 OVC240 18/14 A2994 RMK SC1AC1AC6CI2 SC AC TR SLP139=
CYOW;2006-09-06 01:00;METAR CYOW 060100Z 20004KT 15SM FEW180 SCT240 17/14 A2994 RMK AC2CI1 SLP141=
CYOW;2006-09-06 02:00;METAR CYOW 060200Z 20004KT 15SM FEW060 FEW180 SCT240 16/14 A2995 RMK SC1AC2CI0 SC TR SLP143=
CYOW;2006-09-06 03:00;METAR CYOW 060300Z 22003KT 15SM FEW180 FEW240 15/14 A2994 RMK AC1CI0 SLP139=
CYOW;2006-09-06 04:00;METAR CYOW 060400Z 22004KT 15SM FEW180 15/14 A2994 RMK AC1 SLP139=
CYOW;2006-09-06 05:00;METAR CYOW 060500Z 22004KT 15SM FEW180 15/13 A2993 RMK AC1 SLP136=
CYOW;2006-09-06 06:00;METAR CYOW 060600Z 22003KT 15SM BKN180 14/13 A2992 RMK AC2 SLP134=
CYOW;2006-09-06 07:00;METAR CYOW 060700Z 21004KT 15SM PRFG FEW180 13/13 A2992 RMK AC1 VIS S 1/2 SLP132=
CYOW;2006-09-06 08:00;METAR CYOW 060800Z 24002KT 15SM SCT074 13/13 A2991 RMK AC3 SLP128=
CYOW;2006-09-06 09:00;METAR CYOW 060900Z 20003KT 1/2SM FG FEW070 13/12 A2990 RMK FG1AC1 SLP126=
CYOW;2006-09-06 09:07;SPECI CYOW 060907Z 20004KT 1/4SM FG FEW070 12/ RMK FG1AC1=
CYOW;2006-09-06 09:38;SPECI CYOW 060938Z 26005KT 1 1/2SM BR BKN054 12/ RMK SC6 VIS SE 3/8=
CYOW;2006-09-06 09:48;SPECI CYOW 060948Z 25003KT 15SM PRFG BKN053 13/ RMK SC6 VIS S 1/2=
CYOW;2006-09-06 10:00;METAR CYOW 061000Z 24002KT 15SM PRFG BKN054 BKN080 12/12 A2991 RMK SC5AC2 VIS SE 3/4 SLP130=
CYOW;2006-09-06 11:00;METAR CYOW 061100Z 27002KT 15SM FEW055 SCT080 13/12 A2992 RMK SC2AC2 SLP133=
CYOW;2006-09-06 12:00;METAR CYOW 061200Z 31003KT 15SM SCT055 SCT080 15/14 A2994 RMK SC3AC1 SLP141=
CYOW;2006-09-06 13:00;METAR CYOW 061300Z 01009KT 15SM FEW020 SCT055 SCT080 17/14 A2995 RMK SC1SC2AC1 SLP144=
CYOW;2006-09-06 14:00;METAR CYOW 061400Z 02012KT 15SM FEW020 BKN055 BKN080 18/14 A2998 RMK SC2SC4AC1 SLP152=
CYOW;2006-09-06 15:00;METAR CYOW 061500Z 36009KT 15SM FEW020 BKN061 OVC080 17/13 A3000 RMK CU2SC6AC1 SLP159=
CYOW;2006-09-06 16:00;METAR CYOW 061600Z 36009G15KT 15SM FEW020 BKN060 OVC080 17/12 A3002 RMK CU2SC6AC1 SLP166=
CYOW;2006-09-06 17:00;METAR CYOW 061700Z 02006KT 15SM FEW020 BKN061 OVC080 16/12 A3002 RMK CU2SC5AC1 SLP168=
CYOW;2006-09-06 17:04;SPECI CYOW 061704Z 36006KT 15SM -RA FEW020 BKN061 OVC080 16/ RMK CU2SC5AC1=
CYOW;2006-09-06 18:00;METAR CYOW 061800Z 35007KT 15SM -RA BKN017 OVC050 16/13 A3003 RMK SC6SC2 VRY LGT RA SLP170=
CYOW;2006-09-06 18:11;SPECI CYOW 061811Z 36009KT 15SM BKN018 OVC050 17/ RMK SC6SC2=
CYOW;2006-09-06 19:00;METAR CYOW 061900Z 34011KT 15SM BKN022 OVC080 17/12 A3003 RMK SC6AC2 SLP170=
CYOW;2006-09-06 20:00;METAR CYOW 062000Z 35007KT 15SM SCT020 OVC110 17/12 A3003 RMK SC3AC4 SLP171=
CYOW;2006-09-06 21:00;METAR CYOW 062100Z 33009KT 15SM FEW020 BKN060 BKN100 17/12 A3003 RMK SC2SC3AC1 SLP171=
CYOW;2006-09-06 22:00;METAR CYOW 062200Z 34006KT 15SM BKN027 16/11 A3003 RMK SC6 SLP172=
CYOW;2006-09-06 23:00;METAR CYOW 062300Z 02004KT 15SM BKN027 OVC250 16/11 A3004 RMK SC6CI1 SLP174=
CYOW;2006-09-07 00:00;METAR CYOW 070000Z 36003KT 15SM FEW030 BKN250 14/10 A3005 RMK SC2CI0 SLP177=
CYOW;2006-09-07 01:00;METAR CYOW 070100Z 31004KT 15SM FEW030 SCT250 13/10 A3007 RMK SC2CI0 SLP183=
CYOW;2006-09-07 02:00;METAR CYOW 070200Z 31003KT 15SM FEW040 SCT240 12/10 A3008 RMK SC1CI1 SLP186=
CYOW;2006-09-07 03:00;METAR CYOW 070300Z 31004KT 15SM FEW240 12/10 A3008 RMK CI1 SLP186=
CYOW;2006-09-07 04:00;METAR CYOW 070400Z 28002KT 15SM FEW150 FEW240 11/10 A3008 RMK AC1CI0 SLP186=
CYOW;2006-09-07 05:00;METAR CYOW 070500Z 30002KT 15SM BKN050 10/09 A3009 RMK SC6 SLP191=
CYOW;2006-09-07 06:00;METAR CYOW 070600Z 30002KT 15SM FEW050 11/10 A3008 RMK SC2 SLP188=
CYOW;2006-09-07 07:00;METAR CYOW 070700Z 31004KT 15SM FEW033 BKN043 10/09 A3007 RMK SC2SC2 SLP186=
CYOW;2006-09-07 08:00;METAR CYOW 070800Z 27002KT 15SM BKN036 10/10 A3007 RMK SC7 SLP186=
CYOW;2006-09-07 08:48;SPECI CYOW 070848Z 25002KT 15SM FEW005 BKN035 10/ RMK ST1SC7 ST NE=
CYOW;2006-09-07 09:00;METAR CYOW 070900Z 28002KT 15SM FEW004 BKN033 10/09 A3008 RMK ST1SC6 VIS S 2 ST NE SLP188=
CYOW;2006-09-07 09:33;SPECI CYOW 070933Z 31004KT 1SM BR FEW033 09/ RMK SC1 VIS N-SE 15=
CYOW;2006-09-07 09:37;SPECI CYOW 070937Z 28002KT 1/2SM FG SKC 08/ RMK FG2 VIS E 2=
CYOW;2006-09-07 09:40;SPECI CYOW 070940Z 28003KT 1/8SM FG SKC 09/ RMK FG4=
CYOW;2006-09-07 10:00;METAR CYOW 071000Z 30004KT 1/8SM FG SKC 09/09 A3008 RMK FG4 SLP189=
CYOW;2006-09-07 11:00;METAR CYOW 071100Z 25002KT 1/8SM FG SKC 10/09 A3009 RMK FG4 SLP193=
CYOW;2006-09-07 12:00;METAR CYOW 071200Z 00000KT 1/4SM FG SKC 10/09 A3010 RMK FG2 SLP196=
CYOW;2006-09-07 12:40;SPECI CYOW 071240Z 18002KT 3/4SM BR SKC 10/ RMK FG2=
CYOW;2006-09-07 13:00;METAR CYOW 071300Z 21002KT 3/4SM BR SKC 10/10 A3011 RMK FG4 SLP199=
CYOW;2006-09-07 13:17;SPECI CYOW 071317Z 18002KT 2SM BR SCT002 11/ RMK FG2SF2=
CYOW;2006-09-07 13:31;SPECI CYOW 071331Z 00000KT 10SM FEW003 11/ RMK SF2=
CYOW;2006-09-07 14:00;METAR CYOW 071400Z 00000KT 15SM SKC 13/11 A3011 RMK SLP200=
CYOW;2006-09-07 15:00;METAR CYOW 071500Z 24004KT 15SM FEW030 17/10 A3012 RMK CU1 SLP202=
CYOW;2006-09-07 16:00;METAR CYOW 071600Z 26006KT 15SM FEW030 18/10 A3011 RMK CU1 SLP198=
CYOW;2006-09-07 17:00;METAR CYOW 071700Z 18006KT 15SM FEW035 19/11 A3008 RMK CU1 SLP189=
CYOW;2006-09-07 18:00;METAR CYOW 071800Z 25003KT 15SM SCT035 20/12 A3007 RMK CU3 SLP183=
CYOW;2006-09-07 19:00;METAR CYOW 071900Z 25006G15KT 15SM FEW040 22/11 A3004 RMK CU2 SLP175=
CYOW;2006-09-07 20:00;METAR CYOW 072000Z 25007KT 15SM SCT040 22/12 A3002 RMK CU3 SLP168=
CYOW;2006-09-07 21:00;METAR CYOW 072100Z 24005KT 15SM FEW040 22/11 A3001 RMK CU2 SLP164=
CYOW;2006-09-07 22:00;METAR CYOW 072200Z 23007KT 15SM FEW040 22/11 A2999 RMK CU1 SLP159=
CYOW;2006-09-07 23:00;METAR CYOW 072300Z 19004KT 15SM FEW040 OVC240 20/12 A2999 RMK SC1CI0 SLP156=
CYOW;2006-09-08 00:00;METAR CYOW 080000Z 20004KT 15SM BKN240 18/13 A2999 RMK CI2 SLP156=
CYOW;2006-09-08 01:00;METAR CYOW 080100Z 21005KT 15SM BKN240 17/13 A2999 RMK CI0 SLP159=
CYOW;2006-09-08 02:00;METAR CYOW 080200Z 20005KT 15SM SKC 16/13 A2999 RMK SLP158=
CYOW;2006-09-08 03:00;METAR CYOW 080300Z 19005KT 8SM SCT250 15/14 A2999 RMK CI0 SLP156=
CYOW;2006-09-08 04:00;METAR CYOW 080400Z 20004KT 7SM FEW250 15/14 A2999 RMK CI0 SLP157=
CYOW;2006-09-08 05:00;METAR CYOW 080500Z 19004KT 7SM FEW250 15/13 A2999 RMK CI0 SLP158=
CYOW;2006-09-08 06:00;METAR CYOW 080600Z 18003KT 7SM FEW030 FEW240 14/13 A2999 RMK SC1CI1 SLP156=
CYOW;2006-09-08 07:00;METAR CYOW 080700Z 20003KT 7SM FEW070 SCT100 14/13 A2999 RMK AC1AC3 SLP155=
CYOW;2006-09-08 08:00;METAR CYOW 080800Z 21003KT 8SM SCT110 14/12 A2999 RMK AC4 SLP155=
CYOW;2006-09-08 09:00;METAR CYOW 080900Z 20004KT 5SM BR BKN084 13/12 A2998 RMK AC6 SLP152=
CYOW;2006-09-08 10:00;METAR CYOW 081000Z 21003KT 3SM BR FEW003 BKN120 13/13 A2998 RMK SF1AC6 SLP154=
CYOW;2006-09-08 10:10;SPECI CYOW 081010Z 22004KT 2SM BR SCT088 BKN120 13/ RMK AC4AC2=
CYOW;2006-09-08 11:00;METAR CYOW 081100Z 20006KT 2SM BR BKN090 OVC120 15/14 A2998 RMK AC6AC2 SLP152=
CYOW;2006-09-08 12:00;METAR CYOW 081200Z 21007KT 6SM BR BKN100 16/15 A2999 RMK AC5 SLP155=
CYOW;2006-09-08 13:00;METAR CYOW 081300Z 23007KT 12SM FEW100 BKN250 18/15 A2999 RMK AC1CI2 AC TR SLP157=
CYOW;2006-09-08 14:00;METAR CYOW 081400Z 24006KT 12SM FEW100 BKN250 20/16 A2999 RMK AC1CI1 AC TR SLP158=
CYOW;2006-09-08 15:00;METAR CYOW 081500Z 22014KT 15SM FEW250 23/16 A2999 RMK CI1 CI TR SLP155=
CYOW;2006-09-08 16:00;METAR CYOW 081600Z 23011G16KT 15SM FEW035 24/16 A2997 RMK CU1 CU TR SLP151=
CYOW;2006-09-08 17:00;METAR CYOW 081700Z 23013G18KT 15SM FEW040 25/16 A2996 RMK CU2 SLP147=
CYOW;2006-09-08 18:00;METAR CYOW 081800Z 23014G20KT 15SM FEW040 26/15 A2994 RMK CU2 SLP138=
CYOW;2006-09-08 19:00;METAR CYOW 081900Z 19011G17KT 12SM SCT040 26/16 A2991 RMK CU3 SLP129=
CYOW;2006-09-08 20:00;METAR CYOW 082000Z 20012G17KT 12SM FEW040 SCT110 SCT240 27/16 A2990 RMK CU2AC1CI0 SLP124=
CYOW;2006-09-08 21:00;METAR CYOW 082100Z 21008KT 12SM SCT050TCU BKN240 25/16 A2988 RMK TCU3CI1 SH NW SLP119=
CYOW;2006-09-08 21:21;SPECI CYOW 082121Z 21011KT 12SM TS FEW050CB SCT120 BKN240 RMK CB2AC2CI2 TS NORTHWEST=
CYOW;2006-09-08 21:37;SPECI CYOW 082137Z 22014G20KT 10SM -TSRA BKN050CB BKN120 24/ RMK CB5AC2 LTGIC=
CYOW;2006-09-08 21:44;SPECI CYOW 082144Z 26027G41KT 1/2SM +TSRA OVC030CB 17/ RMK CB8 LTGIC=
CYOW;2006-09-08 22:00;METAR CYOW 082200Z 23009G18KT 12SM -TSRA SCT030CB BKN120 BKN240 17/14 A2991 RERA RMK CB4AC2CI1 LTGCG PRESFR /R10/ SLP128=
CYOW;2006-09-08 22:24;SPECI CYOW 082224Z 21006KT 15SM -SHRA FEW050CB BKN110 BKN240 17/ RETSRA RMK CB2AC5CI1=
CYOW;2006-09-08 22:52;SPECI CYOW 082252Z 21003KT 15SM FEW050TCU BKN130 BKN240 18/ RETSRA RMK TCU1AC4CI1=
CYOW;2006-09-08 23:00;METAR CYOW 082300Z 21003KT 12SM BKN130 BKN240 18/15 A2991 RETSRA RMK AC5CI1 SLP127=
CYOW;2006-09-09 00:00;METAR CYOW 090000Z 00000KT 12SM BKN110 BKN240 18/16 A2993 RMK AC6CI1 SLP137=
CYOW;2006-09-09 00:40;SPECI CYOW 090040Z 35002KT 12SM -SHRA BKN024TCU BKN110 18/ RMK TCU5AC1=
CYOW;2006-09-09 01:00;METAR CYOW 090100Z 31004KT 12SM SCT030 OVC110 18/16 A2995 RMK SC3AC5 SLP142=
CYOW;2006-09-09 01:11;SPECI CYOW 090111Z 29004KT 8SM -SHRA FEW025 OVC110 18/ RMK SC2ACC6=
CYOW;2006-09-09 01:37;SPECI CYOW 090137Z 00000KT 12SM SCT060 OVC090 18/ RMK SC3AC5=
CYOW;2006-09-09 01:52;SPECI CYOW 090152Z 19002KT 12SM -SHRA FEW060 OVC090 18/ RMK SC2ACC6 SH INTMT=
CYOW;2006-09-09 02:00;METAR CYOW 090200Z 18005KT 12SM OVC090 17/16 A2994 RMK AC8 SLP140=
CYOW;2006-09-09 03:00;METAR CYOW 090300Z 19006KT 12SM BKN081 BKN120 BKN250 16/15 A2993 RMK AC5AC2CI0 SLP134=
CYOW;2006-09-09 04:00;METAR CYOW 090400Z 29003KT 12SM TS OVC040 16/15 A2993 RMK SC8 CB EMBD TS W MOVG N LTGICCG SLP136=
CYOW;2006-09-09 04:12;SPECI CYOW 090412Z 29007KT 10SM -TSRA BKN040CB OVC070 17/ RMK CB5AC3 LTGICCG=
CYOW;2006-09-09 04:27;SPECI CYOW 090427Z 00000KT 10SM -SHRA BKN037 OVC083 17/ RETS RMK SC6AC2 TCU EMBD=
CYOW;2006-09-09 05:00;METAR CYOW 090500Z 21004KT 10SM OVC061 16/15 A2994 RETS RMK SC8 SLP137=
CYOW;2006-09-09 05:07;SPECI CYOW 090507Z 23004KT 8SM SHRA SCT025 OVC045 16/ RMK SC3SC5 TCU EMBD=
CYOW;2006-09-09 05:20;SPECI CYOW 090520Z 20002KT 10SM FEW001 SCT050 OVC120 16/ RERA RMK SF1SC4AC4 SF TR=
CYOW;2006-09-09 06:00;METAR CYOW 090600Z 19004KT 10SM FEW060 BKN140 16/15 A2991 RERA RMK SC2AC5 SLP130=
CYOW;2006-09-09 07:00;METAR CYOW 090700Z 28002KT 10SM OVC110 16/15 A2991 RMK AC7 SLP128=
CYOW;2006-09-09 08:00;METAR CYOW 090800Z 25002KT 10SM OVC100 16/15 A2992 RMK AC8 SLP131=
CYOW;2006-09-09 09:00;METAR CYOW 090900Z 00000KT 6SM BR BKN100 OVC150 15/15 A2991 RMK AC5AC2 SLP127=
CYOW;2006-09-09 09:45;SPECI CYOW 090945Z 21003KT 3SM BR BKN002 OVC120 16/ RMK SF6AC2=
CYOW;2006-09-09 09:54;SPECI CYOW 090954Z 20002KT 2SM BR BKN005 OVC120 16/ RMK SF6AC2 CIG VRB 3-7=
CYOW;2006-09-09 10:00;METAR CYOW 091000Z 19002KT 2SM BR OVC005 15/15 A2992 RMK SF8 CIG VRB 3-7 SLP132=
CYOW;2006-09-09 10:16;SPECI CYOW 091016Z 29004KT 4SM -RA BR OVC003 15/ RMK SF8 CIG VRB 2-4=
CYOW;2006-09-09 10:31;SPECI CYOW 091031Z 31007KT 12SM BKN006 OVC018 15/ RMK SF6SC2 CIG VRB 4-8=
CYOW;2006-09-09 11:00;METAR CYOW 091100Z 34006KT 12SM FEW004 BKN009 OVC018 14/13 A2995 RMK SF2SC6SC1 SLP141=
CYOW;2006-09-09 11:12;SPECI CYOW 091112Z 33008KT 10SM -DZ FEW004 OVC009 13/ RMK SF2SC6=
CYOW;2006-09-09 11:41;SPECI CYOW 091141Z 34010KT 2SM -DZ BR OVC008 12/ RMK ST8=
CYOW;2006-09-09 12:00;METAR CYOW 091200Z 34007KT 1 1/2SM -DZ BR OVC005 12/11 A2998 RMK ST8 SLP153=
CYOW;2006-09-09 12:25;SPECI CYOW 091225Z 33010KT 10SM -DZ SCT004 OVC008 12/ RMK SF3ST5=
CYOW;2006-09-09 13:00;METAR CYOW 091300Z 33010KT 12SM SCT005 OVC016 11/10 A2999 RMK SF3SC5 SLP158=
CYOW;2006-09-09 14:00;METAR CYOW 091400Z 30008KT 12SM BKN008 OVC025 12/11 A3002 RMK SF6SC2 SLP166=
CYOW;2006-09-09 15:00;METAR CYOW 091500Z 32010KT 12SM BKN010 OVC063 12/10 A3004 RMK SF6SC2 SLP174=
CYOW;2006-09-09 16:00;METAR CYOW 091600Z 33011G16KT 15SM OVC012 13/10 A3003 RMK SC8 SLP172=
CYOW;2006-09-09 17:00;METAR CYOW 091700Z 33010G15KT 15SM OVC016 13/10 A3004 RMK SC8 SLP175=
CYOW;2006-09-09 18:00;METAR CYOW 091800Z 34010G15KT 15SM BKN025 BKN070 14/10 A3005 RMK SC6AC2 SLP178=
CYOW;2006-09-09 19:00;METAR CYOW 091900Z 35011KT 20SM BKN030 BKN070 17/10 A3005 RMK SC5AC2 SLP177=
CYOW;2006-09-09 20:00;METAR CYOW 092000Z 35009KT 20SM BKN040 BKN240 16/08 A3006 RMK SC5CI0 SLP180=
CYOW;2006-09-09 21:00;METAR CYOW 092100Z 01009G15KT 20SM BKN047 16/07 A3007 RMK SC6 SLP183=
CYOW;2006-09-09 22:00;METAR CYOW 092200Z 35009KT 20SM FEW035 BKN058 16/06 A3008 RMK SC1SC6 SLP186=
CYOW;2006-09-09 23:00;METAR CYOW 092300Z 36007KT 20SM BKN063 14/05 A3011 RMK SC6 SLP196=
CYOW;2006-09-10 00:00;METAR CYOW 100000Z 01008KT 20SM BKN062 13/05 A3013 RMK SC6 SLP205=
CYOW;2006-09-10 01:00;METAR CYOW 100100Z 35009KT 15SM BKN063 13/05 A3015 RMK SC6 SLP212=
CYOW;2006-09-10 02:00;METAR CYOW 100200Z 36007KT 15SM BKN064 12/05 A3016 RMK SC7 SLP217=
CYOW;2006-09-10 03:00;METAR CYOW 100300Z 36007KT 15SM BKN064 12/05 A3018 RMK SC7 SLP223=
CYOW;2006-09-10 04:00;METAR CYOW 100400Z 36006KT 15SM BKN063 11/05 A3019 RMK SC7 SLP226=
CYOW;2006-09-10 05:00;METAR CYOW 100500Z 01007KT 15SM BKN062 11/05 A3020 RMK SC7 SLP229=
CYOW;2006-09-10 06:00;METAR CYOW 100600Z 36007KT 15SM BKN064 11/05 A3020 RMK SC7 SLP230=
CYOW;2006-09-10 07:00;METAR CYOW 100700Z 36007KT 15SM BKN065 10/05 A3021 RMK SC7 SLP233=
CYOW;2006-09-10 08:00;METAR CYOW 100800Z 01008KT 15SM BKN065 09/05 A3023 RMK SC7 SLP238=
CYOW;2006-09-10 09:00;METAR CYOW 100900Z 01009KT 15SM BKN067 08/05 A3024 RMK AC7 SLP243=
CYOW;2006-09-10 10:00;METAR CYOW 101000Z 01008KT 15SM SCT064 08/04 A3025 RMK SC3 SLP246=
CYOW;2006-09-10 11:00;METAR CYOW 101100Z 01008KT 20SM BKN065 08/04 A3028 RMK SC6 SLP255=
CYOW;2006-09-10 12:00;METAR CYOW 101200Z 02007KT 20SM FEW068 09/05 A3030 RMK AC1 SLP264=
CYOW;2006-09-10 13:00;METAR CYOW 101300Z 03007KT 20SM FEW070 11/05 A3031 RMK AC1 SLP267=
CYOW;2006-09-10 15:00;METAR CYOW 101500Z 05007KT 20SM SCT040 SCT070 15/03 A3034 RMK CU3AC1 SLP275=
CYOW;2006-09-10 16:00;METAR CYOW 101600Z 04007KT 20SM BKN060 15/02 A3034 RMK CU5 SLP276=
CYOW;2006-09-10 17:00;METAR CYOW 101700Z 03008KT 20SM BKN057 15/03 A3034 RMK CU6 SLP275=
CYOW;2006-09-10 18:00;METAR CYOW 101800Z 34003KT 20SM BKN060 15/02 A3033 RMK CU6 SLP274=
CYOW;2006-09-10 19:00;METAR CYOW 101900Z 02004KT 20SM BKN063 16/02 A3033 RMK CU5 SLP273=
CYOW;2006-09-10 20:00;METAR CYOW 102000Z 02003KT 20SM BKN063 16/02 A3032 RMK CU5 SLP270=
CYOW;2006-09-10 21:00;METAR CYOW 102100Z 04005KT 20SM BKN070 15/02 A3032 RMK CU5 SLP271=
CYOW;2006-09-10 22:00;METAR CYOW 102200Z 07005KT 20SM BKN069 15/02 A3033 RMK AC5 SLP274=
CYOW;2006-09-10 23:00;METAR CYOW 102300Z 06005KT 20SM BKN069 15/02 A3034 RMK AC6 SLP276=
CYOW;2006-09-11 00:00;METAR CYOW 110000Z 02007KT 20SM BKN070 13/03 A3035 RMK AC5 SLP282=
CYOW;2006-09-11 01:00;METAR CYOW 110100Z 02006KT 15SM FEW070 12/04 A3038 RMK AC2 SLP290=
CYOW;2006-09-11 02:00;METAR CYOW 110200Z 01006KT 15SM FEW070 11/04 A3038 RMK AC1 SLP292=
CYOW;2006-09-11 03:00;METAR CYOW 110300Z 02007KT 15SM FEW070 10/04 A3039 RMK AC1 SLP292=
CYOW;2006-09-11 04:00;METAR CYOW 110400Z 02007KT 15SM FEW070 10/04 A3040 RMK AC2 SLP297=
CYOW;2006-09-11 05:00;METAR CYOW 110500Z 03006KT 15SM BKN070 10/03 A3041 RMK AC5 SLP301=
CYOW;2006-09-11 06:00;METAR CYOW 110600Z 03006KT 15SM FEW070 09/03 A3041 RMK AC2 SLP300=
CYOW;2006-09-11 07:00;METAR CYOW 110700Z 04006KT 15SM FEW070 08/03 A3042 RMK AC1 SLP302=
CYOW;2006-09-11 08:00;METAR CYOW 110800Z 04006KT 15SM FEW075 08/03 A3042 RMK AC2 SLP305=
CYOW;2006-09-11 09:00;METAR CYOW 110900Z 04004KT 15SM SCT075 07/03 A3043 RMK AC3 SLP309=
CYOW;2006-09-11 10:00;METAR CYOW 111000Z 03005KT 15SM BKN064 BKN210 07/03 A3045 RMK SC6CI1 CI TR SLP315=
CYOW;2006-09-11 11:00;METAR CYOW 111100Z 04006KT 20SM SCT060 SCT240 08/03 A3046 RMK SC3CI0 SLP319=
CYOW;2006-09-11 12:00;METAR CYOW 111200Z 05006KT 20SM FEW060 BKN240 09/03 A3047 RMK SC2CI1 SLP321=
CYOW;2006-09-11 13:00;METAR CYOW 111300Z 06007KT 20SM FEW060 BKN240 11/04 A3048 RMK SC1CI1 SLP325=
CYOW;2006-09-11 14:00;METAR CYOW 111400Z 09006KT 20SM BKN240 13/05 A3049 RMK CI1 SLP328=
CYOW;2006-09-11 15:00;METAR CYOW 111500Z 09007KT 20SM FEW040 BKN240 14/05 A3048 RMK CU1CI0 SLP326=
CYOW;2006-09-11 16:00;METAR CYOW 111600Z 07007KT 20SM SCT044 SCT240 14/03 A3048 RMK CU3CI0 SLP324=
CYOW;2006-09-11 17:00;METAR CYOW 111700Z 05008KT 20SM SCT052 SCT240 16/03 A3047 RMK CU3CI1 SLP320=
CYOW;2006-09-11 18:00;METAR CYOW 111800Z 05006KT 20SM FEW052 SCT240 16/03 A3044 RMK CU2CI2 SLP311=
CYOW;2006-09-11 19:00;METAR CYOW 111900Z 05002KT 20SM FEW052 SCT240 17/04 A3043 RMK CU2CI1 SLP307=
CYOW;2006-09-11 20:00;METAR CYOW 112000Z 07006KT 20SM FEW052 SCT240 16/04 A3041 RMK CU2CI2 SLP301=
CYOW;2006-09-11 21:00;METAR CYOW 112100Z 07007KT 20SM FEW052 SCT240 17/04 A3041 RMK CU1CI1 SLP299=
CYOW;2006-09-11 22:00;METAR CYOW 112200Z 10004KT 20SM FEW250 16/04 A3039 RMK CI2 SLP294=
CYOW;2006-09-11 23:00;METAR CYOW 112300Z 07003KT 20SM FEW250 14/04 A3038 RMK CI2 SLP291=
CYOW;2006-09-12 00:00;METAR CYOW 120000Z 07005KT 15SM FEW250 13/04 A3038 RMK CI1 SLP291=
CYOW;2006-09-12 01:00;METAR CYOW 120100Z 07005KT 15SM FEW250 12/04 A3039 RMK CI0 SLP294=
CYOW;2006-09-12 02:00;METAR CYOW 120200Z 07006KT 15SM SKC 11/04 A3038 RMK SLP290=
CYOW;2006-09-12 03:00;METAR CYOW 120300Z 06005KT 15SM SKC 11/04 A3037 RMK SLP288=
CYOW;2006-09-12 04:00;METAR CYOW 120400Z 05007KT 15SM SKC 10/04 A3037 RMK SLP287=
CYOW;2006-09-12 05:00;METAR CYOW 120500Z 06007KT 15SM SKC 10/04 A3036 RMK SLP285=
CYOW;2006-09-12 06:00;METAR CYOW 120600Z 06007KT 15SM SKC 09/05 A3036 RMK SLP282=
CYOW;2006-09-12 07:00;METAR CYOW 120700Z 07006KT 15SM SKC 08/05 A3034 RMK SLP278=
CYOW;2006-09-12 08:00;METAR CYOW 120800Z 06008KT 15SM SKC 07/04 A3034 RMK SLP277=
CYOW;2006-09-12 09:00;METAR CYOW 120900Z 06007KT 15SM SKC 07/04 A3034 RMK SLP278=
CYOW;2006-09-12 10:00;METAR CYOW 121000Z 05006KT 15SM FEW250 06/04 A3034 RMK CI0 SLP277=
CYOW;2006-09-12 11:00;METAR CYOW 121100Z 05006KT 15SM FEW250 07/04 A3035 RMK CI0 SLP279=
CYOW;2006-09-12 12:00;METAR CYOW 121200Z 07007KT 15SM FEW250 09/05 A3035 RMK CI0 SLP281=
CYOW;2006-09-12 13:00;METAR CYOW 121300Z 09006KT 15SM FEW250 11/06 A3035 RMK CI0 SLP280=
CYOW;2006-09-12 14:00;METAR CYOW 121400Z 09007KT 15SM FEW250 13/07 A3035 RMK CI0 SLP280=
CYOW;2006-09-12 15:00;METAR CYOW 121500Z 09006KT 15SM FEW180 SCT250 16/08 A3032 RMK AC1CI0 SLP271=
CYOW;2006-09-12 17:00;METAR CYOW 121700Z 10005KT 15SM FEW045 FEW180 SCT250 19/07 A3027 RMK CU1AC1CI0 SLP254=
CYOW;2006-09-12 18:00;METAR CYOW 121800Z 07006KT 15SM FEW045 FEW180 SCT250 18/07 A3025 RMK CU1AC1CI0 SLP245=
CYOW;2006-09-12 19:00;METAR CYOW 121900Z 10006KT 15SM FEW045 FEW180 SCT250 19/07 A3022 RMK CU1AC1CI0 SLP237=
CYOW;2006-09-12 20:00;METAR CYOW 122000Z 10006KT 15SM FEW180 BKN250 19/06 A3020 RMK AC1CI1 AC TR SLP228=
CYOW;2006-09-12 21:00;METAR CYOW 122100Z 07009KT 15SM FEW140 FEW180 BKN250 19/06 A3018 RMK AC1AC1CI0 LO AC TR SLP222=
CYOW;2006-09-12 22:00;METAR CYOW 122200Z 09006KT 15SM FEW140 FEW180 SCT250 18/06 A3017 RMK AC1AC1CI0 SLP218=
CYOW;2006-09-12 23:00;METAR CYOW 122300Z 07005KT 15SM SCT220 BKN240 16/07 A3015 RMK CC3CI1 SLP213=
CYOW;2006-09-13 00:00;METAR CYOW 130000Z 07006KT 15SM BKN200 BKN240 15/07 A3014 RMK CC5CI0 SLP210=
CYOW;2006-09-13 01:00;METAR CYOW 130100Z 07007KT 15SM SCT210 BKN240 13/07 A3014 RMK CC3CI2 SLP208=
CYOW;2006-09-13 02:00;METAR CYOW 130200Z 09006KT 15SM FEW140 BKN210 12/07 A3013 RMK AC1CI4 SLP206=
CYOW;2006-09-13 03:00;METAR CYOW 130300Z 08006KT 15SM SCT120 OVC210 12/07 A3012 RMK AC4CI2 SLP201=
CYOW;2006-09-13 04:00;METAR CYOW 130400Z 08006KT 15SM FEW160 BKN180 OVC210 11/07 A3010 RMK AC2AC4CI2 SLP194=
CYOW;2006-09-13 05:00;METAR CYOW 130500Z 08007KT 15SM SCT160 OVC180 11/07 A3008 RMK AC4AC4 SLP187=
CYOW;2006-09-13 06:00;METAR CYOW 130600Z 09006KT 15SM OVC140 11/07 A3006 RMK AC8 MOON VISBL SLP182=
CYOW;2006-09-13 07:00;METAR CYOW 130700Z 09004KT 15SM OVC130 10/07 A3006 RMK AC8 SLP180=
CYOW;2006-09-13 08:00;METAR CYOW 130800Z 12005KT 15SM OVC140 10/08 A3005 RMK AC8 SLP176=
CYOW;2006-09-13 09:00;METAR CYOW 130900Z 11005KT 15SM OVC110 11/08 A3004 RMK AC8 SLP173=
CYOW;2006-09-13 10:00;METAR CYOW 131000Z 05003KT 15SM BKN051 BKN110 10/08 A3002 RMK SC5AC2 SLP169=
CYOW;2006-09-13 10:22;SPECI CYOW 131022Z 08004KT 15SM -RA BKN050 BKN110 10/ RMK SC6AC1 RA VRY LGT=
CYOW;2006-09-13 11:00;METAR CYOW 131100Z 09005KT 15SM -RA BKN049 11/08 A3002 RMK SC7 VRY LGT RA SLP166=
CYOW;2006-09-13 12:00;METAR CYOW 131200Z 08007KT 15SM -RA BKN046 11/09 A3001 RMK SC7 VRY LGT RA SLP164=
CYOW;2006-09-13 13:00;METAR CYOW 131300Z 09007KT 12SM -RA BKN024 OVC040 11/10 A3000 RMK SC6SC2 SLP160=
CYOW;2006-09-13 14:00;METAR CYOW 131400Z 10008KT 10SM -RA BKN019 OVC030 12/11 A2999 RMK SC7SC1 SLP157=
CYOW;2006-09-13 15:00;METAR CYOW 131500Z 10007KT 10SM -RA BKN016 OVC025 12/11 A2997 RMK SC7SC1 SLP152=
CYOW;2006-09-13 15:16;SPECI CYOW 131516Z 10008KT 10SM -RA BKN011 OVC020 12/ RMK SF6SC2=
CYOW;2006-09-13 16:00;METAR CYOW 131600Z 11008KT 10SM -RA FEW006 BKN011 OVC020 12/11 A2995 RMK SF2SF5SC2 SLP145=
CYOW;2006-09-13 17:00;METAR CYOW 131700Z 11008KT 10SM -RA FEW005 BKN010 OVC018 13/12 A2994 RMK SF2SF5SC1 SLP139=
CYOW;2006-09-13 18:00;METAR CYOW 131800Z 11007KT 6SM -RA BR BKN006 OVC010 13/12 A2992 RMK SF6SF2 SLP135=
CYOW;2006-09-13 19:00;METAR CYOW 131900Z 10007KT 3SM -RA BR BKN005 OVC010 13/12 A2991 RMK SF6SF2 SLP131=
CYOW;2006-09-13 20:00;METAR CYOW 132000Z 10008KT 3SM -RA BR BKN005 OVC010 13/12 A2990 RMK SF6SF2 SLP126=
CYOW;2006-09-13 21:00;METAR CYOW 132100Z 10007KT 3SM -RA BR BKN005 OVC010 13/12 A2990 RMK SF6SF2 SLP126=
CYOW;2006-09-13 22:00;METAR CYOW 132200Z 09006KT 3SM -RA BR BKN005 OVC010 13/12 A2990 RMK SF6SF2 SLP126=
CYOW;2006-09-13 22:39;SPECI CYOW 132239Z 09007KT 4SM -RA BR BKN003 OVC012 13/ RMK SF6SC2=
CYOW;2006-09-13 22:50;SPECI CYOW 132250Z 09008KT 2 1/2SM RA BR BKN003 OVC015 13/ RMK SF6SC2=
CYOW;2006-09-13 23:00;METAR CYOW 132300Z 10007KT 4SM -RA BR BKN003 OVC025 13/12 A2989 RMK SF6SC2 SLP124=
CYOW;2006-09-14 00:00;METAR CYOW 140000Z 10006KT 4SM -RA BR BKN003 OVC010 13/12 A2989 RMK SF6NS2 /R15/ SLP123=
CYOW;2006-09-14 00:34;SPECI CYOW 140034Z 09005KT 5SM -DZ OVC003 13/ RMK ST8=
CYOW;2006-09-14 01:00;METAR CYOW 140100Z 10007KT 3SM -DZ OVC003 13/13 A2989 RMK ST8 SLP124=
CYOW;2006-09-14 01:08;SPECI CYOW 140108Z 10006KT 3SM -RA BR BKN003 OVC011 13/ RMK SF5SC3=
CYOW;2006-09-14 01:20;SPECI CYOW 140120Z 10006KT 4SM -DZ OVC004 13/ RMK ST8=
CYOW;2006-09-14 01:49;SPECI CYOW 140149Z 11005KT 1 1/2SM -DZ BR OVC002 13/ RMK ST8=
CYOW;2006-09-14 02:00;METAR CYOW 140200Z 11005KT 1 1/2SM -DZ BR OVC002 13/13 A2989 RMK ST8 SLP124=
CYOW;2006-09-14 02:33;SPECI CYOW 140233Z 12004KT 4SM RA BR OVC003 14/ RMK NS8=
CYOW;2006-09-14 03:00;METAR CYOW 140300Z 11004KT 5SM BR SCT003 OVC008 14/13 A2989 RERA RMK SF3SC5 SLP123=
CYOW;2006-09-14 03:08;SPECI CYOW 140308Z 11003KT 5SM RA BR SCT003 OVC008 14/ RMK SF3NS5=
CYOW;2006-09-14 03:42;SPECI CYOW 140342Z 13004KT 5SM BR SCT005 OVC011 14/ RERA RMK SF3NS5=
CYOW;2006-09-14 04:00;METAR CYOW 140400Z 13004KT 5SM BR OVC006 14/14 A2988 RERA RMK NS8 SLP122=
CYOW;2006-09-14 05:00;METAR CYOW 140500Z 14004KT 5SM BR SCT004 OVC008 14/14 A2988 RMK SF3NS5 SLP122=
CYOW;2006-09-14 06:00;METAR CYOW 140600Z 14003KT 5SM BR OVC006 14/14 A2988 RMK ST8 CIG RAG SLP122=
CYOW;2006-09-14 06:44;SPECI CYOW 140644Z 14003KT 5SM BR FEW006 OVC016 14/ RMK SF2SC6=
CYOW;2006-09-14 07:00;METAR CYOW 140700Z 14003KT 5SM BR FEW006 OVC017 14/14 A2988 RMK CF2SC6 SLP122=
CYOW;2006-09-14 08:00;METAR CYOW 140800Z 14003KT 4SM BR OVC018 15/14 A2988 RMK SC8 SLP122=
CYOW;2006-09-14 09:00;METAR CYOW 140900Z 11003KT 4SM BR OVC018 15/14 A2990 RMK SC8 SLP126=
CYOW;2006-09-14 10:00;METAR CYOW 141000Z 12004KT 4SM BR OVC016 14/14 A2991 RMK SC8 SLP130=
CYOW;2006-09-14 11:00;METAR CYOW 141100Z 10003KT 4SM BR OVC015 14/14 A2992 RMK SC8 SLP135=
CYOW;2006-09-14 12:00;METAR CYOW 141200Z 12003KT 4SM BR OVC014 15/14 A2994 RMK SC8 SLP141=
CYOW;2006-09-14 13:00;METAR CYOW 141300Z 11004KT 3SM BR OVC013 15/14 A2995 RMK SC8 SLP145=
CYOW;2006-09-14 13:17;SPECI CYOW 141317Z 10005KT 3SM -RA BR OVC013 15/ RMK SC8=
CYOW;2006-09-14 13:40;SPECI CYOW 141340Z 12004KT 2SM -RA BR OVC003 15/ RMK FG1SF7=
CYOW;2006-09-14 14:00;METAR CYOW 141400Z 13004KT 2SM -RA BR BKN005 OVC015 15/14 A2997 RMK FG1SF6SC2 SLP150=
CYOW;2006-09-14 15:00;METAR CYOW 141500Z 14006KT 4SM -RA BR BKN006 OVC015 15/15 A2998 RMK SF6SC2 SLP154=
CYOW;2006-09-14 16:00;METAR CYOW 141600Z 15003KT 6SM -RA BR BKN006 OVC015 15/15 A2998 RMK SF6SC2 SLP155=
CYOW;2006-09-14 17:00;METAR CYOW 141700Z 16004KT 8SM -RA BKN009 OVC020 16/15 A2998 RMK SF6SC2 SLP155=
CYOW;2006-09-14 18:00;METAR CYOW 141800Z 00000KT 10SM -RA SCT010 OVC021 16/15 A2999 RMK SF4SC4 SLP156=
CYOW;2006-09-14 18:14;SPECI CYOW 141814Z 00000KT 10SM SCT010 OVC018 16/ RMK SF3SC5=
CYOW;2006-09-14 19:00;METAR CYOW 141900Z 10003KT 12SM SCT007 OVC020 17/15 A2999 RMK SF3SC5 SLP156=
CYOW;2006-09-14 20:00;METAR CYOW 142000Z 05004KT 12SM FEW007 OVC015 17/15 A3000 RMK SF2SF6 SLP161=
CYOW;2006-09-14 21:00;METAR CYOW 142100Z 04006KT 12SM -RA FEW007 OVC022 17/15 A3001 RMK SF2SC6 SLP164=
CYOW;2006-09-14 22:00;METAR CYOW 142200Z 06005KT 12SM -RA FEW007 BKN025 OVC040 16/15 A3001 RMK SF2SC5SC1 SLP164=
CYOW;2006-09-14 22:34;SPECI CYOW 142234Z 05006KT 12SM SCT004 BKN008 OVC042 16/ RMK SF3CF3SC2=
CYOW;2006-09-14 23:00;METAR CYOW 142300Z 06006KT 12SM FEW005 SCT012 BKN054 16/15 A3002 RMK SF2SC2SC4 SLP167=
CYOW;2006-09-14 23:47;SPECI CYOW 142347Z 03005KT 6SM BR BKN004 OVC022 16/ RMK SF6SC2=
CYOW;2006-09-15 00:00;METAR CYOW 150000Z 03004KT 5SM BR OVC004 16/15 A3003 RMK ST8 CIG RAG SLP172=
CYOW;2006-09-15 00:39;SPECI CYOW 150039Z 03006KT 5SM BR FEW004 OVC014 16/ RMK SF2SC6=
CYOW;2006-09-15 01:00;METAR CYOW 150100Z 03006KT 5SM BR FEW004 OVC008 16/15 A3005 RMK SF2ST6 SLP176=
CYOW;2006-09-15 01:19;SPECI CYOW 150119Z 06006KT 5SM BR FEW008 SCT020 BKN070 16/ RMK SF2SC2AC3=
CYOW;2006-09-15 02:00;METAR CYOW 150200Z 07004KT 5SM BR FEW008 BKN100 15/15 A3005 RMK CF1AC6 SLP179=
CYOW;2006-09-15 02:25;SPECI CYOW 150225Z 04005KT 5SM BR OVC005 15/ RMK ST8=
CYOW;2006-09-15 03:00;METAR CYOW 150300Z 05005KT 4SM BR OVC004 16/15 A3006 RMK ST8 SLP180=
CYOW;2006-09-15 04:00;METAR CYOW 150400Z 04005KT 3SM BR OVC002 15/15 A3007 RMK ST8 SLP185=
CYOW;2006-09-15 04:35;SPECI CYOW 150435Z 03006KT 4SM BR OVC007 16/ RMK ST8=
CYOW;2006-09-15 05:00;METAR CYOW 150500Z 03006KT 4SM BR OVC005 15/15 A3008 RMK ST8 CIG VRB 3-7 SLP187=
CYOW;2006-09-15 06:00;METAR CYOW 150600Z 02008KT 4SM BR FEW006 OVC011 15/14 A3008 RMK CF1ST7 SLP186=
CYOW;2006-09-15 07:00;METAR CYOW 150700Z 06005KT 5SM BR OVC011 15/14 A3008 RMK ST8 SLP188=
CYOW;2006-09-15 08:00;METAR CYOW 150800Z 04004KT 5SM BR OVC010 16/14 A3008 RMK ST8 SLP188=
CYOW;2006-09-15 09:00;METAR CYOW 150900Z 07003KT 5SM BR OVC011 16/14 A3008 RMK SC8 SLP187=
CYOW;2006-09-15 10:00;METAR CYOW 151000Z 01005KT 8SM OVC013 15/14 A3010 RMK SC8 SLP193=
CYOW;2006-09-15 11:00;METAR CYOW 151100Z 02005KT 10SM OVC015 16/14 A3012 RMK SC8 SLP201=
CYOW;2006-09-15 13:00;METAR CYOW 151300Z 02004KT 12SM OVC015 16/15 A3015 RMK SC8 SLP212=
CYOW;2006-09-15 14:00;METAR CYOW 151400Z 01005KT 12SM FEW011 OVC016 17/14 A3016 RMK SC2SC6 SLP216=
CYOW;2006-09-15 15:00;METAR CYOW 151500Z 03007KT 12SM OVC015 17/15 A3018 RMK SC8 SLP220=
CYOW;2006-09-15 15:14;SPECI CYOW 151514Z 04005KT 10SM -DZ OVC012 17/ RMK SC8 DZ VRY LGT=
CYOW;2006-09-15 15:43;SPECI CYOW 151543Z 02006KT 12SM SCT009 OVC012 17/ RMK SC3SC5=
CYOW;2006-09-15 16:00;METAR CYOW 151600Z 04005KT 12SM SCT011 OVC017 18/15 A3017 RMK SC3SC4 SLP218=
CYOW;2006-09-15 17:00;METAR CYOW 151700Z 05004KT 12SM SCT014 OVC019 19/15 A3016 RMK SC4SC3 SLP216=
CYOW;2006-09-15 18:00;METAR CYOW 151800Z 07003KT 15SM FEW015 OVC021 19/15 A3016 RMK SC2SC6 SLP215=
CYOW;2006-09-15 19:00;METAR CYOW 151900Z 04004KT 15SM OVC022 19/15 A3015 RMK SC8 SLP212=
CYOW;2006-09-15 20:00;METAR CYOW 152000Z 05003KT 15SM OVC019 19/15 A3016 RMK SC8 SLP215=
CYOW;2006-09-15 21:00;METAR CYOW 152100Z 00000KT 15SM OVC023 19/15 A3016 RMK SC8 SLP213=
CYOW;2006-09-15 22:00;METAR CYOW 152200Z 30004KT 15SM OVC022 19/15 A3015 RMK SC8 SLP210=
CYOW;2006-09-15 23:00;METAR CYOW 152300Z 34004KT 15SM BKN021 BKN080 18/14 A3015 RMK SC7AC1 AC TR SLP211=
CYOW;2006-09-16 00:00;METAR CYOW 160000Z 31003KT 15SM BKN021 18/14 A3015 RMK SC7 SLP212=
CYOW;2006-09-16 01:00;METAR CYOW 160100Z 27004KT 15SM BKN021 16/14 A3016 RMK SC6 SLP216=
CYOW;2006-09-16 02:00;METAR CYOW 160200Z 31004KT 15SM FEW020 FEW250 16/14 A3017 RMK SC1CI0 SLP217=
CYOW;2006-09-16 03:00;METAR CYOW 160300Z 30004KT 15SM SKC 15/14 A3017 RMK SLP217=
CYOW;2006-09-16 04:00;METAR CYOW 160400Z 27002KT 15SM SKC 15/14 A3017 RMK SLP217=
CYOW;2006-09-16 04:20;SPECI CYOW 160420Z 23003KT 3/4SM BR SKC 14/ RMK FG1=
CYOW;2006-09-16 04:36;SPECI CYOW 160436Z 24004KT 10SM PRFG SKC 14/ RMK VIS 1/2 E-S FG=
CYOW;2006-09-16 05:00;METAR CYOW 160500Z 27003KT 10SM SKC 14/13 A3017 RMK SLP218=
CYOW;2006-09-16 06:00;METAR CYOW 160600Z 29002KT 10SM PRFG SKC 14/13 A3017 RMK SLP217=
CYOW;2006-09-16 06:11;SPECI CYOW 160611Z 31002KT 1/2SM FG SKC 14/ RMK FG1=
CYOW;2006-09-16 07:00;METAR CYOW 160700Z 00000KT 1/2SM FG SKC 14/13 A3016 RMK FG1 SLP215=
CYOW;2006-09-16 07:21;SPECI CYOW 160721Z 31003KT 15SM BCFG BKN016 14/ RMK SC0=
CYOW;2006-09-16 08:00;METAR CYOW 160800Z 26002KT 1SM BR FEW018 12/12 A3016 RMK SC2 VIS SE 8 SLP215=
CYOW;2006-09-16 08:15;SPECI CYOW 160815Z 26003KT 8SM BCFG OVC018 13/ RMK SC6=
CYOW;2006-09-16 09:00;METAR CYOW 160900Z 27002KT 8SM BCFG FEW010 FEW018 13/13 A3016 RMK SC1SC1 SLP216=
CYOW;2006-09-16 10:00;METAR CYOW 161000Z 27002KT 15SM BCFG FEW012 FEW020 13/12 A3017 RMK SC1SC2 SLP218=
CYOW;2006-09-16 11:00;METAR CYOW 161100Z 27003KT 12SM MIFG FEW020 13/13 A3018 RMK SC2 SLP220=
CYOW;2006-09-16 12:00;METAR CYOW 161200Z 27002KT 12SM FEW010 13/13 A3019 RMK CF1 SLP226=
CYOW;2006-09-16 13:00;METAR CYOW 161300Z 28005KT 12SM BKN005 15/14 A3020 RMK CF5 SLP228=
CYOW;2006-09-16 13:08;SPECI CYOW 161308Z 28006KT 12SM BKN008 15/ RMK CF6=
CYOW;2006-09-16 13:47;SPECI CYOW 161347Z 29005KT 12SM SCT008 16/ RMK CF4=
CYOW;2006-09-16 14:00;METAR CYOW 161400Z 00000KT 12SM FEW008 17/15 A3019 RMK CF2 SLP226=
CYOW;2006-09-16 15:00;METAR CYOW 161500Z 30003KT 12SM FEW010 18/14 A3018 RMK CF2 SLP221=
CYOW;2006-09-16 16:00;METAR CYOW 161600Z 31002KT 15SM FEW020 20/15 A3016 RMK CU2 SLP215=
CYOW;2006-09-16 17:00;METAR CYOW 161700Z 00000KT 15SM SCT030 21/15 A3015 RMK CU3 SLP211=
CYOW;2006-09-16 18:00;METAR CYOW 161800Z 23002KT 15SM SCT030 22/16 A3013 RMK CU3 SLP205=
CYOW;2006-09-16 19:00;METAR CYOW 161900Z 23002KT 15SM SCT030 22/16 A3012 RMK CU3 SLP200=
CYOW;2006-09-16 20:00;METAR CYOW 162000Z 18005KT 15SM FEW030 23/16 A3010 RMK CU2 SLP193=
CYOW;2006-09-16 21:00;METAR CYOW 162100Z 18005KT 15SM FEW030 22/16 A3008 RMK CU2 SLP188=
CYOW;2006-09-16 22:00;METAR CYOW 162200Z 16005KT 15SM FEW030 SCT240 21/16 A3008 RMK CU1CI0 SLP186=
CYOW;2006-09-16 23:00;METAR CYOW 162300Z 16004KT 15SM SCT250 19/16 A3006 RMK CI1 SLP182=
CYOW;2006-09-17 00:00;METAR CYOW 170000Z 16002KT 15SM SCT250 18/15 A3006 RMK CI1 SLP181=
CYOW;2006-09-17 01:00;METAR CYOW 170100Z 19002KT 15SM FEW250 17/15 A3006 RMK CI0 SLP182=
CYOW;2006-09-17 02:00;METAR CYOW 170200Z 18004KT 15SM FEW250 16/15 A3005 RMK CI0 SLP179=
CYOW;2006-09-17 03:00;METAR CYOW 170300Z 21004KT 10SM FEW250 16/15 A3005 RMK CI0 SLP179=
CYOW;2006-09-17 04:00;METAR CYOW 170400Z 21005KT 10SM SKC 16/15 A3004 RMK SLP174=
CYOW;2006-09-17 05:00;METAR CYOW 170500Z 21005KT 10SM FEW250 15/15 A3003 RMK CI0 SLP170=
CYOW;2006-09-17 06:00;METAR CYOW 170600Z 24004KT 12SM FEW250 15/14 A3001 RMK CI0 SLP164=
CYOW;2006-09-17 07:00;METAR CYOW 170700Z 18003KT 10SM SCT250 14/14 A2999 RMK CI0 SLP158=
CYOW;2006-09-17 08:00;METAR CYOW 170800Z 22003KT 6SM BR FEW120 FEW250 14/14 A2999 RMK AC1CI0 AC TR SLP155=
CYOW;2006-09-17 09:00;METAR CYOW 170900Z 26004KT 6SM BR FEW100 FEW250 14/13 A2999 RMK AC1CI0 SLP156=
CYOW;2006-09-17 10:00;METAR CYOW 171000Z 23004KT 5SM BR BKN031 14/13 A3000 RMK SC6 SLP161=
CYOW;2006-09-17 10:23;SPECI CYOW 171023Z 22004KT 2SM BR FEW002 BKN030 14/ RMK SF2SC6=
CYOW;2006-09-17 10:49;SPECI CYOW 171049Z 21006KT 1SM BR FEW002 OVC033 14/ RMK SF2SC6 VIS VRB 1/2-2=
CYOW;2006-09-17 11:00;METAR CYOW 171100Z 21004KT 3/4SM BR FEW002 OVC034 14/13 A3000 RMK SF2SC6 VIS VRB 1/2-11/2 SLP161=
CYOW;2006-09-17 11:11;SPECI CYOW 171111Z 20005KT 1 1/2SM BR FEW002 BKN034 14/ RMK SF2SC6 VIS VRB 1-2=
CYOW;2006-09-17 12:00;METAR CYOW 171200Z 20004KT 3SM BR OVC033 14/14 A3000 RMK SC8 SLP162=
CYOW;2006-09-17 13:00;METAR CYOW 171300Z 20005KT 4SM BR OVC034 16/14 A2999 RMK SC8 SLP159=
CYOW;2006-09-17 14:00;METAR CYOW 171400Z 22005KT 4SM BR OVC032 17/15 A2999 RMK SC8 SLP159=
CYOW;2006-09-17 16:00;METAR CYOW 171600Z 19009KT 10SM FEW017 BKN040 20/15 A2995 RMK CU2SC4 SLP142=
CYOW;2006-09-17 17:00;METAR CYOW 171700Z 21008KT 10SM BKN020 21/16 A2992 RMK CU6 SLP133=
CYOW;2006-09-17 18:00;METAR CYOW 171800Z 21011KT 12SM BKN027 BKN240 23/16 A2988 RMK CU6CI0 SLP118=
CYOW;2006-09-17 19:00;METAR CYOW 171900Z 22011KT 12SM BKN030 BKN240 23/16 A2985 RMK CU5CI1 SLP109=
CYOW;2006-09-17 20:00;METAR CYOW 172000Z 21012KT 12SM FEW030 SCT180 23/16 A2982 RMK CU2AC2 SLP099=
CYOW;2006-09-17 22:00;METAR CYOW 172200Z 20008KT 12SM SCT031 SCT170 BKN250 22/16 A2980 RMK CU3AC1CI0 AC TR SLP093=
CYOW;2006-09-17 23:00;METAR CYOW 172300Z 20008KT 12SM FEW150 BKN250 20/16 A2979 RMK AC1CI2 AC TR SLP087=
CYOW;2006-09-18 00:00;METAR CYOW 180000Z 21005KT 12SM BKN250 19/15 A2982 RMK CI2 SLP098=
CYOW;2006-09-18 01:00;METAR CYOW 180100Z 20005KT 10SM SCT250 18/15 A2984 RMK CI1 SLP105=
CYOW;2006-09-18 02:00;METAR CYOW 180200Z 19004KT 10SM FEW250 17/15 A2982 RMK CI0 SLP099=
CYOW;2006-09-18 03:00;METAR CYOW 180300Z 20007KT 10SM FEW250 17/15 A2982 RMK CI0 SLP097=
CYOW;2006-09-18 04:00;METAR CYOW 180400Z 22004KT 10SM SKC 17/15 A2983 RMK SLP101=
CYOW;2006-09-18 05:00;METAR CYOW 180500Z 16002KT 8SM SKC 15/14 A2981 RMK SLP096=
CYOW;2006-09-18 06:00;METAR CYOW 180600Z 15004KT 8SM FEW250 15/14 A2979 RMK CI0 SLP089=
CYOW;2006-09-18 07:00;METAR CYOW 180700Z 18003KT 8SM SKC 15/14 A2978 RMK SLP085=
CYOW;2006-09-18 08:00;METAR CYOW 180800Z 18004KT 8SM BKN048 15/14 A2978 RMK SC6 SLP085=
CYOW;2006-09-18 09:00;METAR CYOW 180900Z 19004KT 10SM BKN042 16/14 A2977 RMK SC6 SLP082=
CYOW;2006-09-18 10:00;METAR CYOW 181000Z 16002KT 10SM OVC045 16/15 A2976 RMK SC8 SLP080=
CYOW;2006-09-18 11:00;METAR CYOW 181100Z 18008KT 4SM BR OVC044 16/15 A2977 RMK SC8 SLP083=
CYOW;2006-09-18 12:00;METAR CYOW 181200Z 20006KT 5SM HZ OVC044 18/16 A2976 RMK SC8 SLP080=
CYOW;2006-09-18 13:00;METAR CYOW 181300Z 21006KT 6SM HZ SCT067 BKN240 19/16 A2976 RMK AC3CI1 SLP077=
CYOW;2006-09-18 14:00;METAR CYOW 181400Z 20008KT 6SM HZ BKN180 BKN220 20/17 A2975 RMK AC5CI1 SLP075=
CYOW;2006-09-18 15:00;METAR CYOW 181500Z 21010KT 6SM HZ BKN180 BKN240 23/17 A2973 RMK AC5CI1 SLP067=
CYOW;2006-09-18 16:00;METAR CYOW 181600Z 22010G16KT 6SM HZ SCT050 BKN180 BKN240 24/17 A2973 RMK SC3AC3CI0 SLP066=
CYOW;2006-09-18 17:00;METAR CYOW 181700Z 22009G17KT 10SM BKN180 BKN240 25/17 A2971 RMK AC5CI2 SLP060=
CYOW;2006-09-18 18:00;METAR CYOW 181800Z 20011KT 10SM FEW036 FEW180 BKN240 25/16 A2969 RMK CU1AC2CI2 TR CU SLP053=
CYOW;2006-09-18 19:00;METAR CYOW 181900Z 20012KT 10SM FEW180 BKN240 BKN280 25/17 A2968 RMK AC2CI1CI1 SLP050=
CYOW;2006-09-18 20:00;METAR CYOW 182000Z 19013KT 10SM SCT180 BKN240 26/16 A2966 RMK AC3CI1 SLP044=
CYOW;2006-09-18 21:00;METAR CYOW 182100Z 19014G22KT 10SM SCT080 BKN180 OVC240 25/14 A2965 RMK AC3AC2CI1 SLP041=
CYOW;2006-09-18 22:00;METAR CYOW 182200Z 20009G16KT 12SM SCT100 BKN180 OVC230 24/15 A2966 RMK AC3AC2CS2 SLP043=
CYOW;2006-09-18 23:00;METAR CYOW 182300Z 19007KT 12SM BKN056 BKN075 OVC230 23/15 A2966 RMK SC6AC2CS1 SLP044=
CYOW;2006-09-19 00:00;METAR CYOW 190000Z 19003KT 12SM OVC056 23/15 A2965 RMK SC8 SLP041=
CYOW;2006-09-19 01:00;METAR CYOW 190100Z 20003KT 10SM BKN049 OVC070 22/15 A2965 RMK SC6AC2 SLP040=
CYOW;2006-09-19 01:54;SPECI CYOW 190154Z 20004KT 10SM -RA OVC049 22/ RMK SC8 RA VRY LGT=
CYOW;2006-09-19 02:00;METAR CYOW 190200Z 18005KT 10SM -RA OVC050 21/15 A2965 RMK SC8 RA VRY LGT SLP040=
CYOW;2006-09-19 03:00;METAR CYOW 190300Z 20003KT 10SM -RA OVC039 21/16 A2964 RMK SC8 SLP036=
CYOW;2006-09-19 04:00;METAR CYOW 190400Z 18004KT 6SM -RA BR OVC033 19/17 A2963 RMK SC8 SLP033=
CYOW;2006-09-19 06:00;METAR CYOW 190600Z 19006KT 6SM -RA BR OVC031 19/17 A2960 RMK SC8 SLP022=
CYOW;2006-09-19 06:45;SPECI CYOW 190645Z 20006KT 2SM -RA BR FEW007 OVC014 19/ RERA RMK SF2SC6=
CYOW;2006-09-19 07:00;METAR CYOW 190700Z 20006KT 2SM -RA BR BKN005 OVC020 19/18 A2959 RERA RMK SF5SC3 SLP019=
CYOW;2006-09-19 08:00;METAR CYOW 190800Z 20006KT 1 3/4SM RA BR OVC003 19/18 A2958 RMK SF8 SLP015=
CYOW;2006-09-19 08:22;SPECI CYOW 190822Z 29008KT 3SM -RA BR FEW004 BKN012 OVC040 19/ RERA RMK SF2SC4SC2=
CYOW;2006-09-19 08:37;SPECI CYOW 190837Z 29009G15KT 3SM RA BR OVC005 18/ RMK SF8 CIG VRB 3-7=
CYOW;2006-09-19 09:00;METAR CYOW 190900Z 29008KT 6SM -RA BR OVC005 17/16 A2960 RERA RMK SF8 CIG VRB 3-7 /R10/ SLP024=
CYOW;2006-09-19 09:26;SPECI CYOW 190926Z 30005KT 10SM RA FEW005 SCT035 OVC077 15/ RMK SF2SC2AC4=
CYOW;2006-09-19 09:49;SPECI CYOW 190949Z 24005KT 10SM -RA BKN004 OVC030 15/ RERA RMK SF7SC1 CIG VRB 3-6=
CYOW;2006-09-19 10:00;METAR CYOW 191000Z 27009KT 10SM -RA BKN005 OVC030 14/14 A2960 RERA RMK SF7SC1 CIG VRB 3-7 SLP023=
CYOW;2006-09-19 11:00;METAR CYOW 191100Z 28008KT 10SM -RA BKN008 OVC030 13/12 A2961 RMK SF7SC1 SLP026=
CYOW;2006-09-19 12:00;METAR CYOW 191200Z 28010KT 10SM -RA BKN008 OVC030 13/12 A2963 RMK SF7SC1 SLP034=
CYOW;2006-09-19 13:00;METAR CYOW 191300Z 29007KT 10SM -RA SCT010 OVC024 13/13 A2964 RMK SF4SC4 SLP037=
CYOW;2006-09-19 13:04;SPECI CYOW 191304Z 31006KT 4SM -RA BR BKN005 OVC025 14/ RMK SF6SC2=
CYOW;2006-09-19 13:47;SPECI CYOW 191347Z 27004KT 6SM -RA BR BKN005 OVC025 14/ RMK SF6SC2 CIG VRB 3-6=
CYOW;2006-09-19 14:00;METAR CYOW 191400Z 27004KT 2 1/2SM -RA BR BKN002 OVC025 14/13 A2964 RMK FG1SF6SC1 CIG VRB 2-6 SLP038=
CYOW;2006-09-19 14:43;SPECI CYOW 191443Z 27007KT 6SM -RA BR BKN004 OVC025 14/ RMK SF7SC1=
CYOW;2006-09-19 15:00;METAR CYOW 191500Z 27005KT 10SM BKN003 OVC025 14/14 A2965 RMK SF6SC2 SLP042=
CYOW;2006-09-19 15:39;SPECI CYOW 191539Z 25005KT 12SM FEW003 SCT025 BKN062 15/ RMK SF2SC2SC3=
CYOW;2006-09-19 16:00;METAR CYOW 191600Z 23006KT 15SM FEW003 FEW025 SCT060 BKN091 15/14 A2966 RMK SF1SC2SC2AC2 SLP046=
CYOW;2006-09-19 17:00;METAR CYOW 191700Z 21004KT 15SM FEW040 SCT090 18/13 A2965 RMK SC2AC2 SLP042=
CYOW;2006-09-19 18:00;METAR CYOW 191800Z 22008KT 15SM FEW040 SCT090 20/13 A2965 RMK SC1AC2 SLP042=
CYOW;2006-09-19 19:00;METAR CYOW 191900Z 17009KT 15SM BKN041 BKN090 21/14 A2964 RMK SC5AC1 CU ASOCT SLP037=
CYOW;2006-09-19 20:00;METAR CYOW 192000Z 20004KT 15SM SCT040 OVC071 20/13 A2964 RMK SC3AC4 CU ASOCT SLP036=
CYOW;2006-09-19 21:00;METAR CYOW 192100Z 22007KT 15SM BKN044 BKN070 20/12 A2963 RMK SC5AC2 CU ASOCT SLP033=
CYOW;2006-09-19 22:00;METAR CYOW 192200Z 21007KT 15SM BKN045 BKN070 19/13 A2963 RMK SC5AC2 CU ASOCT SLP035=
CYOW;2006-09-19 23:00;METAR CYOW 192300Z 27010KT 15SM FEW040 BKN050 BKN070 18/11 A2965 RMK SC1SC5AC2 SLP042=
CYOW;2006-09-20 00:00;METAR CYOW 200000Z 29013KT 15SM SCT080 16/08 A2968 RMK AC3 SLP052=
CYOW;2006-09-20 01:00;METAR CYOW 200100Z 28008KT 15SM BKN079 15/08 A2970 RMK AC7 SLP057=
CYOW;2006-09-20 02:00;METAR CYOW 200200Z 26007KT 15SM OVC077 15/09 A2970 RMK AC8 SLP058=
CYOW;2006-09-20 03:00;METAR CYOW 200300Z 25005KT 15SM FEW077 14/08 A2970 RMK AC2 SLP060=
CYOW;2006-09-20 04:00;METAR CYOW 200400Z 24005KT 15SM FEW077 13/08 A2970 RMK AC1 SLP058=
CYOW;2006-09-20 05:00;METAR CYOW 200500Z 22004KT 15SM SKC 12/08 A2968 RMK SLP054=
CYOW;2006-09-20 06:00;METAR CYOW 200600Z 22003KT 15SM SKC 12/08 A2967 RMK SLP049=
CYOW;2006-09-20 07:00;METAR CYOW 200700Z 17002KT 15SM SKC 09/07 A2967 RMK SLP047=
CYOW;2006-09-20 08:00;METAR CYOW 200800Z 21004KT 15SM SCT075 11/08 A2965 RMK AC4 SLP040=
CYOW;2006-09-20 09:00;METAR CYOW 200900Z 11003KT 15SM FEW075 BKN110 09/08 A2964 RMK AC2AC3 SLP037=
CYOW;2006-09-20 10:00;METAR CYOW 201000Z 12002KT 15SM SCT075 BKN120 09/08 A2964 RMK AC4AC2 SLP038=
CYOW;2006-09-20 11:00;METAR CYOW 201100Z 18005KT 15SM BKN075 BKN120 10/09 A2965 RMK AC5AC2 SLP040=
CYOW;2006-09-20 13:00;METAR CYOW 201300Z 24005KT 15SM BKN073 12/10 A2965 RMK AC7 SLP044=
CYOW;2006-09-20 14:00;METAR CYOW 201400Z 27005KT 15SM FEW025 OVC080 13/10 A2966 RMK SC1AC7 SLP045=
CYOW;2006-09-20 15:00;METAR CYOW 201500Z 27007KT 15SM FEW025 OVC068 14/10 A2966 RMK SC2AC6 SLP047=
CYOW;2006-09-20 15:12;SPECI CYOW 201512Z 28008KT 15SM -RA FEW025 OVC058 14/ RMK SC2SC6 VRY LGT RA=
CYOW;2006-09-20 16:00;METAR CYOW 201600Z 29007KT 15SM SCT025 OVC037 14/09 A2965 RMK SC3SC5 SLP044=
CYOW;2006-09-20 16:12;SPECI CYOW 201612Z 27008KT 15SM -RA SCT025 OVC042 14/ RMK SC3SC5=
CYOW;2006-09-20 17:00;METAR CYOW 201700Z 29012KT 15SM SCT025 OVC045 14/10 A2965 RMK SC3SC5 SLP044=
CYOW;2006-09-20 18:00;METAR CYOW 201800Z 29011KT 15SM -RA FEW025 OVC045 15/10 A2965 RMK SC2SC5 SLP043=
CYOW;2006-09-20 18:54;SPECI CYOW 201854Z 29013G18KT 15SM SCT025 OVC063 14/ RMK SC3SC4=
CYOW;2006-09-20 19:00;METAR CYOW 201900Z 30013KT 15SM FEW025 BKN065 OVC130 13/09 A2966 RMK CU1SC6AC1 CU TR SLP046=
CYOW;2006-09-20 20:00;METAR CYOW 202000Z 30012G18KT 15SM FEW025 BKN065 OVC110 13/08 A2967 RMK CU1SC6AC1 CU TR SLP049=
CYOW;2006-09-20 21:00;METAR CYOW 202100Z 30012G17KT 15SM SCT030 OVC110 12/07 A2969 RMK SC3AC5 SLP057=
CYOW;2006-09-20 22:00;METAR CYOW 202200Z 31013KT 15SM OVC039 11/06 A2972 RMK SC7 SLP066=
CYOW;2006-09-20 23:00;METAR CYOW 202300Z 31013KT 15SM FEW030 SCT046 BKN140 11/04 A2973 RMK SC1SC3AC2 SLP072=
CYOW;2006-09-21 00:00;METAR CYOW 210000Z 30010G16KT 15SM BKN044 10/04 A2977 RMK SC7 SLP084=
CYOW;2006-09-21 01:00;METAR CYOW 210100Z 32011KT 15SM SCT057 BKN140 10/03 A2980 RMK SC4AC2 SLP095=
CYOW;2006-09-21 01:37;SPECI CYOW 210137Z 32008KT 15SM -RA FEW030 OVC051 09/ RMK CU1SC7=
CYOW;2006-09-21 02:00;METAR CYOW 210200Z 28009KT 15SM FEW030 BKN062 09/04 A2983 RMK CF1SC7 SLP103=
CYOW;2006-09-21 03:00;METAR CYOW 210300Z 27007KT 15SM FEW070 08/03 A2984 RMK AC1 SLP108=
CYOW;2006-09-21 04:00;METAR CYOW 210400Z 26005KT 15SM SKC 06/03 A2986 RMK SLP115=
CYOW;2006-09-21 05:00;METAR CYOW 210500Z 26006KT 15SM SKC 05/03 A2987 RMK SLP118=
CYOW;2006-09-21 06:00;METAR CYOW 210600Z 24004KT 15SM BKN052 05/03 A2989 RMK SC6 SLP125=
CYOW;2006-09-21 07:00;METAR CYOW 210700Z 27005KT 15SM FEW050 05/03 A2990 RMK SC2 SLP129=
CYOW;2006-09-21 08:00;METAR CYOW 210800Z 26003KT 15SM FEW180 05/03 A2991 RMK AC1 SLP133=
CYOW;2006-09-21 09:00;METAR CYOW 210900Z 25003KT 15SM FEW020 05/03 A2993 RMK SC1 SLP139=
CYOW;2006-09-21 10:00;METAR CYOW 211000Z 21004KT 15SM FEW015 03/02 A2994 RMK CF1 SLP143=
CYOW;2006-09-21 11:00;METAR CYOW 211100Z 22005KT 15SM FEW020 04/02 A2996 RMK SC1 SLP147=
CYOW;2006-09-21 12:00;METAR CYOW 211200Z 24005KT 15SM FEW020 05/03 A2997 RMK SC1 SLP153=
CYOW;2006-09-21 13:00;METAR CYOW 211300Z 22003KT 15SM FEW020 08/05 A2998 RMK SC1 SLP156=
CYOW;2006-09-21 14:00;METAR CYOW 211400Z 23007KT 15SM FEW020 10/04 A2999 RMK SC1 SLP158=
CYOW;2006-09-21 15:00;METAR CYOW 211500Z 28007KT 15SM FEW015 FEW025 13/04 A2998 RMK CU1SC1 SLP156=
CYOW;2006-09-21 16:00;METAR CYOW 211600Z 31008KT 15SM BKN049 13/04 A2998 RMK SC6 CU ASOCT SLP155=
CYOW;2006-09-21 17:00;METAR CYOW 211700Z 30012KT 15SM BKN051 14/05 A2998 RMK SC6 CU ASOCT SLP154=
CYOW;2006-09-21 18:00;METAR CYOW 211800Z 31010G17KT 15SM SCT045 16/04 A2999 RMK CU4 SLP157=
CYOW;2006-09-21 19:00;METAR CYOW 211900Z 31011G17KT 15SM SCT045 15/04 A2999 RMK SC4 CU ASOCT SLP159=
CYOW;2006-09-21 20:00;METAR CYOW 212000Z 27011KT 15SM FEW045 SCT046 15/05 A2999 RMK CU1SC2 SLP159=
CYOW;2006-09-21 21:00;METAR CYOW 212100Z 29008G15KT 15SM FEW045 SCT046 SCT090 16/05 A2999 RMK CU1SC2AC1 AC TR SLP159=
CYOW;2006-09-21 22:00;METAR CYOW 212200Z 28007KT 15SM FEW045 BKN090 14/05 A3000 RMK SC2AC3 SLP161=
CYOW;2006-09-21 23:00;METAR CYOW 212300Z 30004KT 15SM BKN092 13/05 A3001 RMK AC5 SLP165=
CYOW;2006-09-22 00:00;METAR CYOW 220000Z 33002KT 15SM BKN070 13/05 A3003 RMK AC6 SLP173=
CYOW;2006-09-22 01:00;METAR CYOW 220100Z 19003KT 15SM OVC056 12/05 A3005 RMK SC8 SLP179=
CYOW;2006-09-22 02:00;METAR CYOW 220200Z 36003KT 15SM FEW065 BKN094 11/07 A3008 RMK SC2AC2 SLP188=
CYOW;2006-09-22 03:00;METAR CYOW 220300Z 00000KT 15SM BKN055 10/07 A3009 RMK SC6 SLP191=
CYOW;2006-09-22 03:26;SPECI CYOW 220326Z 26002KT 15SM -RA BKN055 10/ RMK SC7=
CYOW;2006-09-22 03:41;SPECI CYOW 220341Z 00000KT 15SM BKN055 11/ RMK SC7=
CYOW;2006-09-22 04:00;METAR CYOW 220400Z 19004KT 15SM -RA OVC051 11/07 A3010 RMK SC8 SLP196=
CYOW;2006-09-22 05:00;METAR CYOW 220500Z 00000KT 15SM -RA OVC058 10/08 A3011 RMK SC8 SLP200=
CYOW;2006-09-22 05:27;SPECI CYOW 220527Z 00000KT 15SM SCT070 10/ RMK AC4=
CYOW;2006-09-22 06:00;METAR CYOW 220600Z 06002KT 15SM SCT076 10/08 A3011 RMK AC3 SLP199=
CYOW;2006-09-22 07:00;METAR CYOW 220700Z 00000KT 15SM BKN074 09/08 A3011 RMK AC6 SLP200=
CYOW;2006-09-22 08:00;METAR CYOW 220800Z 18002KT 15SM BKN069 09/08 A3012 RMK AC6 SLP203=
CYOW;2006-09-22 09:00;METAR CYOW 220900Z 15002KT 15SM BKN071 08/07 A3013 RMK AC6 SLP204=
CYOW;2006-09-22 10:00;METAR CYOW 221000Z 00000KT 15SM BKN070 08/07 A3014 RMK AC6 SLP209=
CYOW;2006-09-22 11:00;METAR CYOW 221100Z 00000KT 15SM MIFG FEW070 07/06 A3014 RMK AC2 SLP210=
CYOW;2006-09-22 12:00;METAR CYOW 221200Z 15003KT 15SM FEW070 09/08 A3015 RMK AC1 SLP212=
CYOW;2006-09-22 13:00;METAR CYOW 221300Z 16002KT 15SM FEW100 SCT260 10/08 A3015 RMK AC1CI0 AC TR SLP213=
CYOW;2006-09-22 14:00;METAR CYOW 221400Z 20005KT 15SM FEW100 BKN240 12/09 A3017 RMK AC2CI1 SLP219=
CYOW;2006-09-22 15:00;METAR CYOW 221500Z 19006KT 15SM FEW100 BKN180 BKN240 14/09 A3015 RMK AC2AC4CI0 SLP211=
CYOW;2006-09-22 16:00;METAR CYOW 221600Z 18004KT 15SM FEW030 FEW100 SCT180 OVC220 15/09 A3014 RMK CU1AC2AC2CI3 CU TR SLP209=
CYOW;2006-09-22 17:00;METAR CYOW 221700Z 19007KT 15SM FEW030 FEW100 SCT180 OVC210 16/08 A3013 RMK CU1AC2AC2CI3 CU TR SLP206=
CYOW;2006-09-22 18:00;METAR CYOW 221800Z 16003KT 15SM SCT040 SCT180 OVC220 16/08 A3010 RMK CU3AC1CI2 SLP195=
CYOW;2006-09-22 19:00;METAR CYOW 221900Z 18005KT 15SM SCT040 OVC220 17/08 A3008 RMK CU3CS3 SLP187=
CYOW;2006-09-22 20:00;METAR CYOW 222000Z 21007KT 15SM SCT040 OVC220 18/08 A3006 RMK CU3CS1 SLP181=
CYOW;2006-09-22 21:00;METAR CYOW 222100Z 17005KT 15SM FEW050 SCT120 BKN160 OVC240 17/07 A3003 RMK CU2AC2AS2CI1 SLP173=
CYOW;2006-09-22 22:00;METAR CYOW 222200Z 13003KT 15SM BKN160 BKN240 16/09 A3003 RMK AS6CS2 SLP171=
CYOW;2006-09-22 23:00;METAR CYOW 222300Z 11004KT 15SM SCT150 BKN240 14/09 A3002 RMK AC3CI1 SLP167=
CYOW;2006-09-23 00:00;METAR CYOW 230000Z 10005KT 15SM OVC150 13/09 A3000 RMK AS8 SLP162=
CYOW;2006-09-23 01:00;METAR CYOW 230100Z 11005KT 15SM BKN220 13/08 A2999 RMK CI3 SLP160=
CYOW;2006-09-23 02:00;METAR CYOW 230200Z 10006KT 15SM OVC140 13/08 A2997 RMK AC8 SLP153=
CYOW;2006-09-23 03:00;METAR CYOW 230300Z 12007KT 15SM OVC120 13/08 A2995 RMK AC8 SLP145=
CYOW;2006-09-23 04:00;METAR CYOW 230400Z 11007KT 15SM FEW120 SCT180 OVC240 13/08 A2992 RMK AC2AC2CI0 SLP133=
CYOW;2006-09-23 05:00;METAR CYOW 230500Z 13004KT 15SM BKN110 OVC180 13/09 A2991 RMK AC6AC2 SLP131=
CYOW;2006-09-23 06:00;METAR CYOW 230600Z 12004KT 15SM OVC160 12/09 A2989 RMK AC8 SLP123=
CYOW;2006-09-23 07:00;METAR CYOW 230700Z 15004KT 15SM OVC048 13/10 A2987 RMK SC8 SLP116=
CYOW;2006-09-23 08:00;METAR CYOW 230800Z 14005KT 15SM FEW060 OVC074 13/10 A2984 RMK SC2AC6 SLP107=
CYOW;2006-09-23 09:00;METAR CYOW 230900Z 16004KT 7SM -RA OVC042 13/11 A2982 RMK SC8 SLP099=
CYOW;2006-09-23 09:14;SPECI CYOW 230914Z 12004KT 8SM -RA BKN010 OVC033 13/ RMK SF6SC2=
CYOW;2006-09-23 09:35;SPECI CYOW 230935Z 13004KT 4SM -DZ BR OVC013 13/ RMK ST8=
CYOW;2006-09-23 10:00;METAR CYOW 231000Z 14005KT 4SM -DZ BR OVC008 13/12 A2979 RMK ST8 CIG RAG SLP090=
CYOW;2006-09-23 10:15;SPECI CYOW 231015Z 13005KT 3SM -RA BR SCT005 OVC020 12/ RMK SF4SC4=
CYOW;2006-09-23 10:49;SPECI CYOW 231049Z 14006KT 2SM -RA BR SCT004 OVC020 12/ RMK SF3NS5=
CYOW;2006-09-23 11:00;METAR CYOW 231100Z 15006KT 1 1/2SM -RA BR SCT003 OVC028 12/12 A2976 RMK SF3NS5 SLP078=
CYOW;2006-09-23 12:00;METAR CYOW 231200Z 15006KT 1 1/2SM -RA BR FEW003 OVC046 13/12 A2975 RMK SF2NS6 SLP075=
CYOW;2006-09-23 13:00;METAR CYOW 231300Z 13005KT 2SM -RA BR SCT004 OVC010 13/12 A2974 RMK SF3NS5 SLP072=
CYOW;2006-09-23 13:21;SPECI CYOW 231321Z 17004KT 1SM +RA BR SCT003 OVC010 13/ RMK SF3NS5=
CYOW;2006-09-23 13:52;SPECI CYOW 231352Z 17003KT 1 1/2SM -RA BR SCT003 OVC010 13/ RMK SF3NS5=
CYOW;2006-09-23 14:00;METAR CYOW 231400Z 15004KT 1 1/2SM -RA BR SCT004 OVC010 13/13 A2971 RMK SF4NS4 SLP064=
CYOW;2006-09-23 14:52;SPECI CYOW 231452Z 18003KT 2SM BR OVC004 14/ RMK SF8=
CYOW;2006-09-23 15:00;METAR CYOW 231500Z 19003KT 2SM BR OVC004 14/13 A2971 RMK SF8 SLP064=
CYOW;2006-09-23 15:48;SPECI CYOW 231548Z 23003KT 2SM -RA BR OVC004 14/ RMK SF8=
CYOW;2006-09-23 16:00;METAR CYOW 231600Z 25004KT 2SM -RA BR OVC004 15/14 A2971 RMK SF8 SLP062=
CYOW;2006-09-23 17:00;METAR CYOW 231700Z 23004KT 2SM -RA BR OVC004 16/15 A2968 RMK SF8 SLP053=
CYOW;2006-09-23 17:47;SPECI CYOW 231747Z 23005KT 4SM BR OVC006 17/ RMK SF8=
CYOW;2006-09-23 18:00;METAR CYOW 231800Z 23005KT 5SM BR OVC008 17/15 A2968 RMK SF8 SLP051=
CYOW;2006-09-23 19:00;METAR CYOW 231900Z 23004KT 5SM BR SCT008 OVC015 17/16 A2967 RMK SF3SC5 SLP049=
CYOW;2006-09-23 20:00;METAR CYOW 232000Z 22004KT 6SM HZ FEW010 BKN030 19/17 A2968 RMK CF2SC6 SLP050=
CYOW;2006-09-23 21:00;METAR CYOW 232100Z 20004KT 6SM HZ SCT013 OVC030 19/16 A2968 RMK CU3SC5 SLP051=
CYOW;2006-09-23 22:00;METAR CYOW 232200Z 21004KT 10SM FEW012 FEW020 BKN250 20/17 A2968 RMK CU1SC1CI2 CU TR SLP050=
CYOW;2006-09-23 23:00;METAR CYOW 232300Z 20003KT 10SM FEW170 BKN250 18/16 A2968 RMK AC2CI1 SLP051=
CYOW;2006-09-24 00:00;METAR CYOW 240000Z 17003KT 10SM BKN054 BKN160 OVC250 17/16 A2968 RMK SC5AC1CI1 SLP051=
CYOW;2006-09-24 01:00;METAR CYOW 240100Z 17003KT 8SM BKN160 17/16 A2967 RMK AC7 SLP048=
CYOW;2006-09-24 01:51;SPECI CYOW 240151Z 17003KT 5SM BR BKN003 BKN150 17/ RMK SF5AC2=
CYOW;2006-09-24 02:00;METAR CYOW 240200Z 18004KT 4SM BR SCT003 BKN170 17/16 A2965 RMK SF3AC4 SLP041=
CYOW;2006-09-24 02:23;SPECI CYOW 240223Z 18004KT 2 1/2SM BR FEW003 BKN140 17/ RMK SF1AC6=
CYOW;2006-09-24 03:00;METAR CYOW 240300Z 17004KT 2 1/2SM BR FEW003 OVC046 17/16 A2963 RMK SF1SC6 SLP035=
CYOW;2006-09-24 04:00;METAR CYOW 240400Z 19005KT 3SM BR BKN004 OVC041 17/17 A2962 RMK SF5SC2 SLP032=
CYOW;2006-09-24 04:46;SPECI CYOW 240446Z 20008KT 3SM -RA BR OVC004 18/ RMK SF8 CIG VRB 3-5=
CYOW;2006-09-24 05:00;METAR CYOW 240500Z 20005KT 3SM -RA BR BKN005 OVC031 18/17 A2958 RMK SF6SC2 SLP019=
CYOW;2006-09-24 05:29;SPECI CYOW 240529Z 18003KT 3SM -RA BR SCT005 OVC110 17/ RMK SF3AC5 RA VRY LGT=
CYOW;2006-09-24 06:00;METAR CYOW 240600Z 18003KT 2SM -RA BR FEW003 OVC100 17/16 A2956 RMK SF2AC6 SLP009=
CYOW;2006-09-24 06:34;SPECI CYOW 240634Z 15002KT 1 3/4SM BR BKN003 OVC090 17/ RMK SF6AC2=
CYOW;2006-09-24 06:53;SPECI CYOW 240653Z 00000KT 1 1/2SM -RA BR OVC003 17/ RMK SF8=
CYOW;2006-09-24 07:00;METAR CYOW 240700Z 09003KT 1 1/2SM -RA BR OVC003 17/17 A2951 RMK SF8 SLP992=
CYOW;2006-09-24 07:48;SPECI CYOW 240748Z 19008KT 3SM -RA BR BKN004 OVC012 18/ RERA RMK SF6SC2 CIG VRB 3-6=
CYOW;2006-09-24 08:00;METAR CYOW 240800Z 19008KT 5SM -RA BR SCT006 OVC024 18/17 A2946 RERA RMK SF3SC5 SLP978=
CYOW;2006-09-24 09:00;METAR CYOW 240900Z 16008KT 5SM -RA BR BKN006 OVC020 17/17 A2942 RMK SF5SC3 SLP961=
CYOW;2006-09-24 09:35;SPECI CYOW 240935Z 18011KT 6SM BR BKN006 OVC015 18/ RMK SF6SC2 CIG VRB 4-8=
CYOW;2006-09-24 10:00;METAR CYOW 241000Z 19010KT 6SM BR SCT006 OVC029 18/17 A2937 RMK SF3SC5 SLP946=
CYOW;2006-09-24 10:30;SPECI CYOW 241030Z 20012G17KT 6SM -DZ BR FEW008 OVC017 19/ RMK SF2SC6=
CYOW;2006-09-24 11:00;METAR CYOW 241100Z 21012G17KT 6SM -DZ BR SCT008 OVC017 19/17 A2935 RMK SF3SC5 SLP938=
CYOW;2006-09-24 12:00;METAR CYOW 241200Z 22012G20KT 7SM FEW014 BKN120 BKN160 20/17 A2934 RMK SF2AC3AC1 SLP936=
CYOW;2006-09-24 13:00;METAR CYOW 241300Z 22016G21KT 15SM SCT020 SCT120 21/17 A2933 RMK CU3AC1 SLP931=
CYOW;2006-09-24 14:00;METAR CYOW 241400Z 25017G27KT 15SM SCT030 19/13 A2932 RMK CU3 SLP928=
CYOW;2006-09-24 15:00;METAR CYOW 241500Z 23022G28KT 15SM FEW040 21/13 A2931 RMK CU2 SLP924=
CYOW;2006-09-24 16:00;METAR CYOW 241600Z 24022G32KT 15SM SCT040 SCT180 22/13 A2931 RMK CU3AC1 SLP927=
CYOW;2006-09-24 17:00;METAR CYOW 241700Z 29021G28KT 15SM BKN044 BKN070 19/12 A2935 RMK CU5AC1 SLP939=
CYOW;2006-09-24 18:00;METAR CYOW 241800Z 29027G33KT 15SM BKN023 BKN070 15/10 A2941 RMK SC6AC1 SLP959=
CYOW;2006-09-24 19:00;METAR CYOW 241900Z 29020G28KT 15SM BKN023 BKN070 15/10 A2946 RMK CU6AC1 SLP976=
CYOW;2006-09-24 20:00;METAR CYOW 242000Z 32017G24KT 15SM OVC030 14/09 A2951 RMK SC8 SLP993=
CYOW;2006-09-24 21:00;METAR CYOW 242100Z 31012KT 15SM BKN044 14/09 A2954 RMK SC6 SLP005=
CYOW;2006-09-24 22:00;METAR CYOW 242200Z 29013KT 20SM FEW032 BKN040 14/09 A2958 RMK SC1SC6 SLP016=
CYOW;2006-09-24 23:00;METAR CYOW 242300Z 31015KT 20SM BKN030 BKN070 12/08 A2962 RMK SC6AC1 SLP030=
CYOW;2006-09-25 00:00;METAR CYOW 250000Z 32010KT 15SM BKN029 11/07 A2964 RMK SC7 SLP039=
CYOW;2006-09-25 01:00;METAR CYOW 250100Z 35007KT 15SM OVC031 11/06 A2967 RMK SC7 SLP047=
CYOW;2006-09-25 02:00;METAR CYOW 250200Z 36011KT 15SM OVC026 11/06 A2969 RMK SC8 SLP055=
CYOW;2006-09-25 03:00;METAR CYOW 250300Z 35008KT 15SM OVC034 10/05 A2971 RMK SC8 SLP063=
CYOW;2006-09-25 04:00;METAR CYOW 250400Z 34013KT 15SM BKN034 10/03 A2972 RMK SC7 SLP066=
CYOW;2006-09-25 05:00;METAR CYOW 250500Z 32006KT 15SM FEW035 FEW070 08/02 A2973 RMK SC2AC1 SLP070=
CYOW;2006-09-25 06:00;METAR CYOW 250600Z 32007KT 15SM FEW070 06/02 A2975 RMK AC1 SLP077=
CYOW;2006-09-25 07:00;METAR CYOW 250700Z 32005KT 15SM FEW070 05/01 A2975 RMK AC1 SLP078=
CYOW;2006-09-25 08:00;METAR CYOW 250800Z 27004KT 15SM SKC 05/03 A2976 RMK SLP081=
CYOW;2006-09-25 09:00;METAR CYOW 250900Z 27004KT 15SM SKC 05/03 A2976 RMK SLP080=
CYOW;2006-09-25 09:05;SPECI CYOW 250905Z 25004KT 15SM FEW005 04/ RMK SC1=
CYOW;2006-09-25 10:00;METAR CYOW 251000Z 25003KT 15SM FEW005 04/03 A2977 RMK SC1 SC TR SLP085=
CYOW;2006-09-25 11:00;METAR CYOW 251100Z 27004KT 15SM FEW010 FEW080 04/03 A2979 RMK ST1AC1 SLP092=
CYOW;2006-09-25 12:00;METAR CYOW 251200Z 25005KT 15SM FEW010 05/04 A2980 RMK ST2 SLP094=
CYOW;2006-09-25 13:00;METAR CYOW 251300Z 26006KT 15SM FEW010 FEW050 07/05 A2981 RMK CF1SC1 SLP098=
CYOW;2006-09-25 14:00;METAR CYOW 251400Z 29006KT 15SM FEW020 FEW080 10/04 A2982 RMK CU1AC2 SLP100=
CYOW;2006-09-25 15:00;METAR CYOW 251500Z 27005KT 15SM BKN030 10/04 A2981 RMK CU5 SLP098=
CYOW;2006-09-25 16:00;METAR CYOW 251600Z 25008KT 15SM BKN040 11/04 A2979 RMK CU5 SLP090=
CYOW;2006-09-25 17:00;METAR CYOW 251700Z 25009KT 15SM BKN040 13/03 A2976 RMK CU5 SLP082=
CYOW;2006-09-25 18:00;METAR CYOW 251800Z 25009KT 15SM BKN044 BKN090 13/03 A2974 RMK CU5AC1 SLP074=
CYOW;2006-09-25 19:00;METAR CYOW 251900Z 23008G16KT 15SM SCT050 BKN067 BKN180 15/04 A2973 RMK CU3AC2AC2 SLP071=
CYOW;2006-09-25 20:00;METAR CYOW 252000Z 23011KT 15SM BKN052 14/04 A2972 RMK SC7 SLP067=
CYOW;2006-09-25 21:00;METAR CYOW 252100Z 21007KT 12SM -RA OVC044 13/05 A2971 RMK SC8 SLP062=
CYOW;2006-09-25 22:00;METAR CYOW 252200Z 18004KT 12SM -RA SCT057 BKN100 12/07 A2970 RMK SC3AS4 RA VRY LGT SLP060=
CYOW;2006-09-25 23:00;METAR CYOW 252300Z 18007KT 15SM -RA SCT055 OVC072 12/08 A2968 RMK SC3AS4 RA VRY LGT SLP053=
CYOW;2006-09-26 00:00;METAR CYOW 260000Z 20006KT 12SM -RA BKN057 OVC070 12/08 A2968 RMK SC6AS2 RA VRY LGT SLP053=
CYOW;2006-09-26 01:00;METAR CYOW 260100Z 20005KT 12SM -RA FEW020 BKN057 OVC080 11/10 A2968 RERA RMK SC1SC6AC1 SLP052=
CYOW;2006-09-26 01:23;SPECI CYOW 260123Z 20005KT 12SM SCT050 BKN074 11/ RMK SC3AS3=
CYOW;2006-09-26 02:00;METAR CYOW 260200Z 22007KT 15SM FEW050 FEW075 BKN150 11/09 A2965 RMK SC1AC2AC4 SLP044=
CYOW;2006-09-26 03:00;METAR CYOW 260300Z 23009KT 15SM FEW040 FEW080 FEW240 11/09 A2966 RMK SC1AC1CI0 SC TR SLP045=
CYOW;2006-09-26 04:00;METAR CYOW 260400Z 24007KT 15SM FEW030 FEW070 FEW250 10/08 A2968 RMK SC1AC1CI0 SLP052=
CYOW;2006-09-26 05:00;METAR CYOW 260500Z 26008KT 15SM SCT050 10/08 A2971 RMK SC4 SLP061=
CYOW;2006-09-26 06:00;METAR CYOW 260600Z 27011KT 15SM BKN037 10/08 A2971 RMK SC6 SLP064=
CYOW;2006-09-26 07:00;METAR CYOW 260700Z 27014KT 15SM BKN035 10/06 A2973 RMK SC7 SLP070=
CYOW;2006-09-26 08:00;METAR CYOW 260800Z 28014KT 15SM SCT040 10/05 A2975 RMK SC4 SLP076=
CYOW;2006-09-26 09:00;METAR CYOW 260900Z 26006KT 15SM BKN038 09/05 A2978 RMK SC6 SLP088=
CYOW;2006-09-26 10:00;METAR CYOW 261000Z 27004KT 15SM SCT037 07/05 A2981 RMK SC3 SLP097=
CYOW;2006-09-26 11:00;METAR CYOW 261100Z 24004KT 15SM FEW040 07/05 A2984 RMK SC1 SLP108=
CYOW;2006-09-26 12:00;METAR CYOW 261200Z 25004KT 15SM FEW040 08/06 A2987 RMK SC1 SLP119=
CYOW;2006-09-26 13:00;METAR CYOW 261300Z 28010KT 15SM FEW040 FEW100 10/06 A2989 RMK SC1AC2 SLP126=
CYOW;2006-09-26 14:00;METAR CYOW 261400Z 28013KT 15SM FEW040 FEW100 12/07 A2991 RMK SC1AC2 SLP133=
CYOW;2006-09-26 15:00;METAR CYOW 261500Z 28010KT 15SM SCT026 BKN040 13/07 A2993 RMK SC3SC2 SLP137=
CYOW;2006-09-26 16:00;METAR CYOW 261600Z 30010KT 15SM FEW025 BKN056 13/07 A2994 RMK SC2SC4 CU ASOCT SLP141=
CYOW;2006-09-26 17:00;METAR CYOW 261700Z 29009KT 15SM FEW025 BKN055 14/06 A2994 RMK CU1SC4 SLP142=
CYOW;2006-09-26 18:00;METAR CYOW 261800Z 28010G17KT 15SM FEW025 SCT050 15/05 A2994 RMK CU1SC3 CU TR SLP142=
CYOW;2006-09-26 19:00;METAR CYOW 261900Z 27008KT 15SM FEW025 FEW050 16/04 A2995 RMK CU1SC2 CU TR SLP143=
CYOW;2006-09-26 20:00;METAR CYOW 262000Z 30006KT 15SM FEW025 FEW050 16/03 A2995 RMK CU1SC2 CU TR SLP145=
CYOW;2006-09-26 21:00;METAR CYOW 262100Z 28008KT 15SM FEW040 15/03 A2995 RMK SC1 SLP144=
CYOW;2006-09-26 22:00;METAR CYOW 262200Z 24004KT 15SM FEW040 FEW260 15/03 A2995 RMK SC1CI0 SC TR SLP144=
CYOW;2006-09-26 23:00;METAR CYOW 262300Z 18003KT 15SM FEW240 13/03 A2995 RMK CI2 SLP144=
CYOW;2006-09-27 00:00;METAR CYOW 270000Z 16004KT 15SM FEW240 12/03 A2995 RMK CI1 SLP145=
CYOW;2006-09-27 01:00;METAR CYOW 270100Z 17005KT 15SM SKC 09/04 A2996 RMK SLP149=
CYOW;2006-09-27 02:00;METAR CYOW 270200Z 19005KT 15SM SKC 10/07 A2996 RMK SLP150=
CYOW;2006-09-27 03:00;METAR CYOW 270300Z 18004KT 15SM SKC 09/07 A2997 RMK SLP152=
CYOW;2006-09-27 04:00;METAR CYOW 270400Z 19005KT 15SM SKC 09/07 A2997 RMK SLP151=
CYOW;2006-09-27 05:00;METAR CYOW 270500Z 17004KT 15SM FEW180 08/07 A2996 RMK AC2 SLP150=
CYOW;2006-09-27 06:00;METAR CYOW 270600Z 17004KT 15SM BKN063 08/07 A2996 RMK SC5 SLP147=
CYOW;2006-09-27 07:00;METAR CYOW 270700Z 17004KT 15SM SKC 07/06 A2995 RMK SLP144=
CYOW;2006-09-27 08:00;METAR CYOW 270800Z 17005KT 15SM SKC 07/07 A2994 RMK SLP140=
CYOW;2006-09-27 09:00;METAR CYOW 270900Z 16003KT 15SM SKC 07/05 A2993 RMK SLP139=
CYOW;2006-09-27 10:00;METAR CYOW 271000Z 12003KT 15SM FEW200 05/04 A2992 RMK CI1 SLP136=
CYOW;2006-09-27 11:00;METAR CYOW 271100Z 13005KT 15SM FEW170 05/04 A2991 RMK AC1 SLP131=
CYOW;2006-09-27 12:00;METAR CYOW 271200Z 14004KT 15SM FEW170 08/06 A2990 RMK AC1 SLP129=
CYOW;2006-09-27 13:00;METAR CYOW 271300Z 18006KT 15SM FEW170 11/07 A2989 RMK AC1 SLP124=
CYOW;2006-09-27 14:00;METAR CYOW 271400Z 18007G15KT 15SM FEW170 FEW240 14/08 A2987 RMK AC1CI0 SLP119=
CYOW;2006-09-27 15:00;METAR CYOW 271500Z 19008KT 15SM FEW170 FEW250 16/09 A2985 RMK AC1CI0 SLP111=
CYOW;2006-09-27 16:00;METAR CYOW 271600Z 19010KT 15SM FEW072 SCT250 19/09 A2984 RMK AC1CI1 SLP106=
CYOW;2006-09-27 17:00;METAR CYOW 271700Z 18013KT 15SM FEW070 FEW250 20/10 A2981 RMK AC1CI0 SLP098=
CYOW;2006-09-27 18:00;METAR CYOW 271800Z 20013KT 15SM FEW040 FEW070 SCT250 21/11 A2979 RMK CU1AC1CI1 CU TR SLP091=
CYOW;2006-09-27 19:00;METAR CYOW 271900Z 18013KT 15SM FEW040 FEW070 BKN250 22/11 A2978 RMK CU1AC2CI1 CU TR SLP086=
CYOW;2006-09-27 21:00;METAR CYOW 272100Z 19007KT 15SM FEW040 BKN075 BKN220 21/12 A2975 RMK CU1AC5CI2 CU TR SLP075=
CYOW;2006-09-27 22:00;METAR CYOW 272200Z 19013G18KT 15SM FEW100 SCT240 21/11 A2975 RMK AC1CI1 SLP076=
CYOW;2006-09-27 23:00;METAR CYOW 272300Z 18006KT 15SM FEW100 FEW180 19/11 A2975 RMK AC1AC2 SLP076=
CYOW;2006-09-28 00:00;METAR CYOW 280000Z 18008KT 15SM BKN200 19/10 A2974 RMK CI5 SLP073=
CYOW;2006-09-28 01:00;METAR CYOW 280100Z 18008KT 15SM SCT140 BKN210 18/10 A2973 RMK AC3CI2 SLP069=
CYOW;2006-09-28 02:00;METAR CYOW 280200Z 17010KT 15SM FEW090 BKN120 17/10 A2971 RMK AC2AC5 SLP064=
CYOW;2006-09-28 03:00;METAR CYOW 280300Z 18008KT 15SM FEW100 BKN130 17/10 A2971 RMK AC2AC5 SLP063=
CYOW;2006-09-28 04:00;METAR CYOW 280400Z 18011KT 15SM OVC130 17/10 A2971 RMK AC8 SLP062=
CYOW;2006-09-28 05:00;METAR CYOW 280500Z 19013KT 15SM OVC110 17/10 A2971 RMK AC8 SLP061=
CYOW;2006-09-28 05:34;SPECI CYOW 280534Z 18011G17KT 15SM -RA OVC120 17/ RMK AC8 VRY LGT RA=
CYOW;2006-09-28 06:00;METAR CYOW 280600Z 19010G16KT 15SM OVC120 17/10 A2970 RMK AC8 SLP058=
CYOW;2006-09-28 07:00;METAR CYOW 280700Z 19008G15KT 15SM SCT140 OVC240 16/10 A2970 RMK AC3CI0 SLP056=
CYOW;2006-09-28 08:00;METAR CYOW 280800Z 19008KT 15SM OVC180 16/10 A2970 RMK AC8 SLP056=
CYOW;2006-09-28 09:00;METAR CYOW 280900Z 18009KT 15SM BKN100 15/11 A2969 RMK AC6 SLP055=
CYOW;2006-09-28 10:00;METAR CYOW 281000Z 18010KT 15SM OVC130 15/11 A2969 RMK AC8 SLP056=
CYOW;2006-09-28 11:00;METAR CYOW 281100Z 19008KT 10SM FEW060 BKN110 OVC160 15/11 A2971 RMK SC1AC5AC2 SLP060=
CYOW;2006-09-28 12:00;METAR CYOW 281200Z 19006KT 10SM BKN053 BKN110 OVC160 15/11 A2971 RMK SC5AC2AC1 SLP062=
CYOW;2006-09-28 13:00;METAR CYOW 281300Z 18007KT 10SM SCT055 BKN083 OVC160 15/11 A2971 RMK SC3AC4AC1 SLP060=
CYOW;2006-09-28 14:00;METAR CYOW 281400Z 18006KT 10SM SCT040 OVC060 15/11 A2971 RMK SC3SC5 SLP060=
CYOW;2006-09-28 16:00;METAR CYOW 281600Z 27009KT 6SM -RA BR SCT012 OVC025 14/12 A2972 RMK SF3SC5 SLP064=
CYOW;2006-09-28 17:00;METAR CYOW 281700Z 26004KT 8SM -RA FEW010 SCT025 OVC049 13/12 A2972 RMK SF1SC3SC4 SLP065=
CYOW;2006-09-28 18:00;METAR CYOW 281800Z 31002KT 8SM -RA FEW020 OVC061 13/12 A2970 RMK SC1SC7 SLP059=
CYOW;2006-09-28 19:00;METAR CYOW 281900Z 31003KT 8SM -RA FEW020 OVC054 13/12 A2970 RMK SC1SC7 SLP057=
CYOW;2006-09-28 20:00;METAR CYOW 282000Z 30006KT 8SM -RA SCT010 OVC025 13/12 A2970 RMK SF3SC5 SLP057=
CYOW;2006-09-28 21:00;METAR CYOW 282100Z 33008KT 8SM -RA FEW025 OVC035 12/11 A2969 RMK SC2SC6 SLP056=
CYOW;2006-09-28 22:00;METAR CYOW 282200Z 33007KT 6SM -RA BR SCT025 OVC040 11/10 A2971 RMK SC3SC5 SLP062=
CYOW;2006-09-28 22:54;SPECI CYOW 282254Z 34003KT 6SM -RA BR FEW008 BKN049 OVC080 11/ RMK SF2SC3AC3=
CYOW;2006-09-28 23:00;METAR CYOW 282300Z 32004KT 6SM -RA BR SCT008 OVC048 11/10 A2971 RMK SF3SC5 SLP064=
CYOW;2006-09-29 00:00;METAR CYOW 290000Z 00000KT 8SM -RA FEW008 OVC053 11/10 A2971 RMK SF1SC7 SLP064=
CYOW;2006-09-29 01:00;METAR CYOW 290100Z 00000KT 8SM -RA FEW008 OVC032 11/10 A2973 RMK SF1NS7 SLP068=
CYOW;2006-09-29 01:32;SPECI CYOW 290132Z 21003KT 8SM -RA OVC004 11/ RMK NS8=
CYOW;2006-09-29 02:00;METAR CYOW 290200Z 32006KT 6SM -RA BR OVC006 11/10 A2973 RMK NS8 CIG RAG SLP068=
CYOW;2006-09-29 03:00;METAR CYOW 290300Z 32009KT 8SM -RA OVC007 10/09 A2971 RMK NS8 SLP063=
CYOW;2006-09-29 03:13;SPECI CYOW 290313Z 31007KT 10SM -DZ SCT007 OVC013 10/ RMK SF4ST4 CIG RAG=
CYOW;2006-09-29 03:30;SPECI CYOW 290330Z 31007KT 15SM -RA FEW007 OVC032 10/ RMK CF1SC7=
CYOW;2006-09-29 04:00;METAR CYOW 290400Z 33007KT 10SM -RA FEW009 OVC042 10/08 A2971 RMK CF1SC7 SLP064=
CYOW;2006-09-29 04:35;SPECI CYOW 290435Z 32008KT 15SM -RA FEW009 OVC011 09/ RMK CF1SC7=
CYOW;2006-09-29 05:00;METAR CYOW 290500Z 31007KT 8SM -RA FEW009 OVC012 09/08 A2971 RMK SF1SC7 SLP063=
CYOW;2006-09-29 06:00;METAR CYOW 290600Z 33008KT 15SM -RA FEW007 OVC010 09/08 A2969 RMK SF2SC6 SLP056=
CYOW;2006-09-29 07:00;METAR CYOW 290700Z 31008KT 10SM -RA SCT010 OVC045 08/07 A2970 RMK CF3SC5 SLP059=
CYOW;2006-09-29 07:31;SPECI CYOW 290731Z 29007KT 10SM -RA FEW002 BKN005 OVC015 08/ RMK SF1CF4SC3=
CYOW;2006-09-29 08:00;METAR CYOW 290800Z 28008KT 15SM -RA OVC003 08/07 A2971 RMK NS8 CIG RAG SLP063=
CYOW;2006-09-29 08:45;SPECI CYOW 290845Z 30006KT 15SM BKN005 OVC011 08/ RMK CF6SC2=
CYOW;2006-09-29 09:00;METAR CYOW 290900Z 34006KT 15SM FEW011 OVC089 08/07 A2970 RMK SC2AC6 SLP060=
CYOW;2006-09-29 09:26;SPECI CYOW 290926Z 31008KT 15SM OVC009 08/ RMK SC8=
CYOW;2006-09-29 10:00;METAR CYOW 291000Z 29009KT 15SM OVC008 07/06 A2972 RMK SC8 SLP066=
CYOW;2006-09-29 11:00;METAR CYOW 291100Z 30008KT 15SM OVC012 07/06 A2972 RMK SC8 SLP068=
CYOW;2006-09-29 12:00;METAR CYOW 291200Z 27007KT 15SM OVC014 07/06 A2974 RMK SC8 SLP074=
CYOW;2006-09-29 13:00;METAR CYOW 291300Z 27007G17KT 15SM OVC014 08/06 A2975 RMK SC7 SLP078=
CYOW;2006-09-29 14:00;METAR CYOW 291400Z 30008KT 12SM BKN015 OVC035 08/06 A2975 RMK SC6SC1 SLP077=
CYOW;2006-09-29 15:00;METAR CYOW 291500Z 28010KT 12SM BKN011 OVC035 08/06 A2975 RMK SC7SC1 SLP077=
CYOW;2006-09-29 16:00;METAR CYOW 291600Z 28009KT 15SM SCT018 BKN032 10/06 A2976 RMK CU3SC4 SLP079=
CYOW;2006-09-29 16:31;SPECI CYOW 291631Z 28014KT 12SM -RA OVC024 09/ RMK SC8=
CYOW;2006-09-29 17:00;METAR CYOW 291700Z 30009G15KT 15SM SCT025 BKN030 09/06 A2976 RMK SC3SC4 CU EMBD SLP080=
CYOW;2006-09-29 17:11;SPECI CYOW 291711Z 30011KT 10SM -RA BKN014 OVC020 09/ RMK SC6SC2=
CYOW;2006-09-29 17:33;SPECI CYOW 291733Z 30010KT 15SM BKN019 OVC025 09/ RMK SC6SC1=
CYOW;2006-09-29 18:00;METAR CYOW 291800Z 28011G16KT 12SM SCT030 OVC044 09/06 A2976 RMK SC3SC4 SLP082=
CYOW;2006-09-29 18:13;SPECI CYOW 291813Z 27012G17KT 8SM -RA OVC019 09/ RMK SC8=
CYOW;2006-09-29 18:50;SPECI CYOW 291850Z 27012KT 8SM -RA BKN012 OVC020 08/ RMK SC6SC2=
CYOW;2006-09-29 19:00;METAR CYOW 291900Z 28012KT 10SM -RA SCT012 OVC020 08/05 A2979 RMK SC3SC5 SLP090=
CYOW;2006-09-29 19:25;SPECI CYOW 291925Z 28010G15KT 12SM SCT012 OVC023 08/ RMK SC3SC5=
CYOW;2006-09-29 20:00;METAR CYOW 292000Z 27010KT 15SM SCT014 OVC033 09/04 A2980 RMK SC3SC4 SLP093=
CYOW;2006-09-29 21:00;METAR CYOW 292100Z 28012G18KT 15SM FEW015 SCT025 BKN061 09/03 A2981 RMK CU1SC2SC4 SLP098=
CYOW;2006-09-29 22:00;METAR CYOW 292200Z 27008KT 20SM FEW020 BKN069 09/03 A2983 RMK SC2AC5 SLP106=
CYOW;2006-09-29 23:00;METAR CYOW 292300Z 26004KT 20SM SCT065 08/04 A2985 RMK SC3 SLP110=
CYOW;2006-09-30 00:00;METAR CYOW 300000Z 27005KT 15SM BKN066 08/04 A2987 RMK AC7 SLP117=
CYOW;2006-09-30 01:00;METAR CYOW 300100Z 27006KT 15SM BKN089 08/03 A2989 RMK AC7 SLP126=
CYOW;2006-09-30 02:00;METAR CYOW 300200Z 27005KT 15SM BKN086 07/04 A2991 RMK AC6 SLP133=
CYOW;2006-09-30 03:00;METAR CYOW 300300Z 26005KT 15SM FEW090 06/03 A2993 RMK AC1 SLP140=
CYOW;2006-09-30 04:00;METAR CYOW 300400Z 24005KT 15SM SKC 05/03 A2995 RMK SLP147=
CYOW;2006-09-30 05:00;METAR CYOW 300500Z 22002KT 15SM FEW090 05/03 A2996 RMK AC1 SLP150=
CYOW;2006-09-30 06:00;METAR CYOW 300600Z 00000KT 15SM SKC 04/02 A2998 RMK SLP156=
CYOW;2006-09-30 07:00;METAR CYOW 300700Z 22002KT 15SM FEW090 04/02 A2999 RMK AC2 SLP158=
CYOW;2006-09-30 08:00;METAR CYOW 300800Z 22002KT 15SM FEW090 03/02 A3000 RMK AC2 SLP162=
CYOW;2006-09-30 08:39;SPECI CYOW 300839Z 19002KT 15SM FEW070 02/ RMK AC1=
CYOW;2006-09-30 09:00;METAR CYOW 300900Z 18002KT 15SM MIFG FEW050 02/01 A3001 RMK SC1 SLP166=
CYOW;2006-09-30 10:00;METAR CYOW 301000Z 00000KT 15SM SKC 02/01 A3002 RMK SLP169=
CYOW;2006-09-30 11:00;METAR CYOW 301100Z 22002KT 15SM R07/4500VP6000FT/D R32/3000VP6000FT/D BCFG FEW180 02/01 A3004 RMK AC1 FROIN SLP176=
CYOW;2006-09-30 12:00;METAR CYOW 301200Z 16003KT 20SM FEW180 FEW240 02/01 A3006 RMK AC1CI1 SLP185=
CYOW;2006-09-30 13:00;METAR CYOW 301300Z 17003KT 20SM FEW180 SCT240 05/03 A3009 RMK AC2CI2 SLP194=
CYOW;2006-09-30 14:00;METAR CYOW 301400Z 17005KT 15SM FEW060 BKN160 08/05 A3010 RMK SC2AS4 SLP197=
CYOW;2006-09-30 15:00;METAR CYOW 301500Z 17004KT 15SM FEW020 FEW060 FEW160 SCT240 11/04 A3010 RMK CU1SC2AC1CI2 TR CU AC SLP195=
CYOW;2006-09-30 16:00;METAR CYOW 301600Z 15005KT 15SM FEW030 FEW080 SCT240 13/06 A3008 RMK CU1AC2CI2 SLP189=
CYOW;2006-09-30 17:00;METAR CYOW 301700Z 16008KT 15SM SCT030 BKN090 14/07 A3007 RMK CU4AC2 SLP186=
CYOW;2006-09-30 18:00;METAR CYOW 301800Z 15012G17KT 15SM SCT040 BKN100 15/06 A3005 RMK CU4AC3 SLP179=
CYOW;2006-09-30 19:00;METAR CYOW 301900Z 18004KT 15SM SCT051 BKN240 16/05 A3003 RMK CU3CI1 SLP173=
CYOW;2006-09-30 20:00;METAR CYOW 302000Z 18008KT 15SM SCT056 BKN240 16/04 A3003 RMK CU3CI1 SLP172=
CYOW;2006-09-30 21:00;METAR CYOW 302100Z 16008KT 15SM FEW060 BKN140 15/04 A3003 RMK CU2AS4 SLP172=
CYOW;2006-09-30 22:00;METAR CYOW 302200Z 16007KT 15SM FEW030 FEW050 BKN110 BKN250 14/04 A3002 RMK CU1SC2AS3CI1 CU TR SLP171=
CYOW;2006-10-01 00:00;METAR CYOW 010000Z 17006KT 15SM FEW045 OVC082 13/04 A3004 RMK SC1AS7 SLP176=
CYOW;2006-10-01 01:00;METAR CYOW 010100Z 16006KT 15SM OVC065 12/05 A3004 RMK SC8 SLP177=
CYOW;2006-10-01 02:00;METAR CYOW 010200Z 15007KT 15SM OVC037 11/05 A3004 RMK SC8 SLP175=
CYOW;2006-10-01 03:00;METAR CYOW 010300Z 13007KT 15SM -RA FEW030 BKN062 OVC073 11/06 A3002 RMK SC1SC4AC3 RA VRY LGT SLP170=
CYOW;2006-10-01 03:36;SPECI CYOW 010336Z 13006KT 15SM FEW040 BKN064 OVC072 11/ RMK SC1SC4AC3=
CYOW;2006-10-01 04:00;METAR CYOW 010400Z 13006KT 15SM FEW035 OVC059 11/06 A3000 RMK SC1SC7 SLP163=
CYOW;2006-10-01 05:00;METAR CYOW 010500Z 12006KT 15SM BKN030 OVC043 11/06 A2999 RMK SC6SC2 SLP158=
CYOW;2006-10-01 05:26;SPECI CYOW 010526Z 11006KT 15SM -RA BKN028 OVC044 11/ RMK SC6SC2 RA VRY LGT=
CYOW;2006-10-01 06:00;METAR CYOW 010600Z 10006KT 12SM -RA SCT023 OVC038 10/07 A2997 RMK SC3SC5 SLP152=
CYOW;2006-10-01 07:00;METAR CYOW 010700Z 10010KT 15SM BKN029 OVC040 10/08 A2996 RMK SC6SC2 SLP146=
CYOW;2006-10-01 07:16;SPECI CYOW 010716Z 09008KT 12SM -RA BKN021 OVC035 10/ RMK SC6SC2=
CYOW;2006-10-01 07:52;SPECI CYOW 010752Z 09008KT 12SM OVC028 10/ RMK SC8=
CYOW;2006-10-01 08:00;METAR CYOW 010800Z 08007KT 12SM OVC028 10/08 A2993 RMK SC8 SLP138=
CYOW;2006-10-01 08:40;SPECI CYOW 010840Z 09010KT 12SM -RA OVC027 10/ RMK SC8=
CYOW;2006-10-01 09:00;METAR CYOW 010900Z 09008KT 10SM -RA OVC028 09/08 A2992 RMK SC8 SLP135=
CYOW;2006-10-01 09:38;SPECI CYOW 010938Z 08010KT 10SM RA FEW004 OVC020 09/ RMK SF2SC6=
CYOW;2006-10-01 10:00;METAR CYOW 011000Z 09010KT 10SM -RA SCT004 OVC020 09/09 A2991 RERA RMK SF3SC5 SLP132=
CYOW;2006-10-01 11:00;METAR CYOW 011100Z 09010KT 5SM -RA BR BKN003 OVC020 10/09 A2990 RERA RMK SF6SC2 CIG VRB 2-4 SLP128=
CYOW;2006-10-01 11:30;SPECI CYOW 011130Z 09009KT 2 1/2SM -RA BR OVC003 10/ RMK SF8=
CYOW;2006-10-01 12:00;METAR CYOW 011200Z 09009KT 2SM RA BR BKN003 OVC020 10/09 A2989 RMK SF6NS2 SLP123=
CYOW;2006-10-01 12:36;SPECI CYOW 011236Z 08016KT 3SM -RA BR SCT004 OVC015 10/ RMK SF3NS5=
CYOW;2006-10-01 13:00;METAR CYOW 011300Z 10010KT 4SM -RA BR FEW004 OVC017 11/10 A2989 RMK SF2NS6 SLP125=
CYOW;2006-10-01 14:00;METAR CYOW 011400Z 12009KT 6SM BR FEW008 OVC017 12/10 A2989 RMK SF2NS6 SLP124=
CYOW;2006-10-01 14:51;SPECI CYOW 011451Z 10007KT 3SM -RA BR SCT004 OVC020 12/ RMK SF3NS5=
CYOW;2006-10-01 15:00;METAR CYOW 011500Z 11007KT 3SM -RA BR FEW005 OVC017 12/11 A2989 RMK SF2NS6 SLP124=
CYOW;2006-10-01 15:12;SPECI CYOW 011512Z 10007KT 2SM -RA BR SCT004 OVC013 12/ RMK SF4NS4=
CYOW;2006-10-01 16:00;METAR CYOW 011600Z 14009KT 4SM BR FEW006 OVC010 12/11 A2989 RMK SF2NS6 SLP125=
CYOW;2006-10-01 17:00;METAR CYOW 011700Z 19006KT 10SM BKN010 OVC060 14/12 A2990 RMK SF6SC2 SLP126=
CYOW;2006-10-01 17:11;SPECI CYOW 011711Z 20005KT 8SM -SHRA BKN012 OVC038TCU 14/ RMK SF6TCU2=
CYOW;2006-10-01 18:00;METAR CYOW 011800Z 24012G18KT 8SM VCSH OVC006 13/11 A2991 RMK SF8 SLP129=
CYOW;2006-10-01 18:15;SPECI CYOW 011815Z 24010G15KT 4SM -SHRA BR OVC006 12/ RMK SF8=
CYOW;2006-10-01 18:36;SPECI CYOW 011836Z 26009KT 5SM BR SCT007 OVC012 13/ RMK SF4NS4=
CYOW;2006-10-01 19:00;METAR CYOW 011900Z 27008KT 10SM OVC013 13/11 A2992 RMK SC8 SLP135=
CYOW;2006-10-01 20:00;METAR CYOW 012000Z 27007KT 10SM FEW013 OVC018 13/11 A2995 RMK SF2SC6 SLP143=
CYOW;2006-10-01 21:00;METAR CYOW 012100Z 28006KT 15SM BKN017 OVC090 13/11 A2996 RMK SC6AC2 SLP147=
CYOW;2006-10-01 22:00;METAR CYOW 012200Z 28005KT 15SM FEW010 BKN028 BKN088 OVC250 13/10 A2997 RMK CF1SC5AC2CI0 CUFRA TR SLP153=
CYOW;2006-10-01 23:00;METAR CYOW 012300Z 29005KT 15SM FEW008 BKN028 BKN089 BKN250 12/10 A2998 RMK CF1SC5AC2CI0 CUFRA TR SLP156=
CYOW;2006-10-02 00:00;METAR CYOW 020000Z 28002KT 12SM BKN028 BKN090 OVC250 12/10 A3000 RMK SC6AC2CI0 SLP161=
CYOW;2006-10-02 01:00;METAR CYOW 020100Z 29003KT 15SM FEW030 FEW090 BKN140 11/10 A3001 RMK SC1AC1AC2 SLP166=
CYOW;2006-10-02 02:00;METAR CYOW 020200Z 29003KT 15SM BKN033 BKN086 11/09 A3003 RMK SC5AC2 SLP171=
CYOW;2006-10-02 03:00;METAR CYOW 020300Z 28003KT 12SM BKN032 09/09 A3003 RMK SC5 SLP173=
CYOW;2006-10-02 04:00;METAR CYOW 020400Z 29004KT 10SM BKN033 11/10 A3003 RMK SC7 SLP172=
CYOW;2006-10-02 05:00;METAR CYOW 020500Z 29005KT 10SM FEW030 10/09 A3003 RMK SC2 SLP173=
CYOW;2006-10-02 06:00;METAR CYOW 020600Z 26003KT 3SM BR BKN002 BKN030 09/09 A3004 RMK SF5SC1 SLP176=
CYOW;2006-10-02 06:16;SPECI CYOW 020616Z 28002KT 1 1/4SM BR OVC002 09/ RMK FG4SF3 CIG VRB 1-3=
CYOW;2006-10-02 06:27;SPECI CYOW 020627Z 00000KT 1/2SM R32/3500V6000FT/D FG BKN001 09/ RMK FG6SF2 RVR RWY 32 3500 FT=
CYOW;2006-10-02 06:34;SPECI CYOW 020634Z 00000KT 1/4SM R07/3000V6000FT/D R32/2200V2800FT/N FG SKC 09/ RMK FG7 RVR RWY 07 3000 FT RVR RWY 32 2200 FT=
CYOW;2006-10-02 07:10;SPECI CYOW 020710Z 23002KT 0SM R07/1100V1200FT/N R32/0900V1100FT/N FG SKC 09/ RMK FG7 RVR RWY 07 1100 FT RVR RWY 32 0900 FT=
CYOW;2006-10-02 07:34;SPECI CYOW 020734Z 24002KT 0SM R07/0900V1200FT/N R32/0700V1100FT/N FG VV001 09/ RMK FG8 RVR RWY 07 0900 FT RVR RWY 32 0700 FT=
CYOW;2006-10-02 08:50;SPECI CYOW 020850Z 26004KT 1/2SM R07/2600VP6000FT/N R32/2800V5000FT/N FG SKC 08/ RMK FG6 RVR RWY 07 2600 FT RVR RWY 32 2800 FT=
CYOW;2006-10-02 09:00;METAR CYOW 020900Z 27004KT 2SM BR SKC 07/07 A3007 RMK FG1 SLP185=
CYOW;2006-10-02 10:00;METAR CYOW 021000Z 26007KT 1/2SM R07/2600V3500FT/N R32/3000VP6000FT/U FG SCT001 07/06 A3009 RMK FG2SF1 VIS VRB 1/4-3/4 RVR RWY 07 2600 FT RVR RWY 32 3000 FT SLP192=
CYOW;2006-10-02 10:13;SPECI CYOW 021013Z 26007KT 3/4SM R07/3000V6000FT/N BR SCT001 07/ RMK FG2SF1 VIS VRB 1/2-11/4 RVR RWY 07 3000 FT=
CYOW;2006-10-02 10:40;SPECI CYOW 021040Z 27006KT 3SM BR FEW080 07/ RMK AC1=
CYOW;2006-10-02 11:00;METAR CYOW 021100Z 27005KT 4SM BR FEW080 07/07 A3011 RMK AC1 SLP197=
CYOW;2006-10-02 12:00;METAR CYOW 021200Z 27004KT 1/4SM R07/1600FT R32/1200FT FG SKC 07/07 A3012 RMK FG5 SLP202=
CYOW;2006-10-02 13:00;METAR CYOW 021300Z 28007KT 1/2SM R07/2800FT R32/2400FT FG VV004 09/08 A3014 RMK FG8 SLP208=
CYOW;2006-10-02 13:37;SPECI CYOW 021337Z 27008KT 1SM BR OVC002 09/ RMK FG3SF5=
CYOW;2006-10-02 13:44;SPECI CYOW 021344Z 28007KT 2SM BR OVC002 10/ RMK SF8=
CYOW;2006-10-02 14:00;METAR CYOW 021400Z 30005KT 3SM BR OVC003 10/09 A3014 RMK SF8 SLP211=
CYOW;2006-10-02 14:37;SPECI CYOW 021437Z 28006KT 5SM BR OVC005 11/ RMK SF8=
CYOW;2006-10-02 15:00;METAR CYOW 021500Z 28006KT 6SM BR BKN006 12/10 A3014 RMK CF7 SLP211=
CYOW;2006-10-02 15:35;SPECI CYOW 021535Z 30008KT 7SM SCT010 12/ RMK CF4=
CYOW;2006-10-02 16:00;METAR CYOW 021600Z 29007KT 10SM SCT010 12/10 A3014 RMK CF4 SLP211=
CYOW;2006-10-02 17:00;METAR CYOW 021700Z 26008KT 12SM SCT016 14/10 A3014 RMK CU4 SLP208=
CYOW;2006-10-02 18:00;METAR CYOW 021800Z 25009KT 12SM FEW020 15/10 A3013 RMK CU2 SLP204=
CYOW;2006-10-02 19:00;METAR CYOW 021900Z 26007KT 12SM FEW030 15/10 A3011 RMK CU2 SLP200=
CYOW;2006-10-02 20:00;METAR CYOW 022000Z 29002KT 15SM FEW040 15/10 A3011 RMK CU1 SLP200=
CYOW;2006-10-02 21:00;METAR CYOW 022100Z 23002KT 15SM FEW040 16/10 A3010 RMK CU1 SLP195=
CYOW;2006-10-02 22:00;METAR CYOW 022200Z 00000KT 15SM FEW250 15/10 A3008 RMK CI1 SLP189=
CYOW;2006-10-02 23:00;METAR CYOW 022300Z 12002KT 15SM FEW250 14/10 A3007 RMK CI1 SLP186=
CYOW;2006-10-03 00:00;METAR CYOW 030000Z 18004KT 15SM SKC 13/10 A3007 RMK SLP186=
CYOW;2006-10-03 01:00;METAR CYOW 030100Z 19005KT 15SM SKC 13/10 A3007 RMK SLP184=
CYOW;2006-10-03 02:00;METAR CYOW 030200Z 18004KT 15SM SKC 12/09 A3007 RMK SLP185=
CYOW;2006-10-03 03:00;METAR CYOW 030300Z 19004KT 15SM SKC 11/09 A3006 RMK SLP183=
CYOW;2006-10-03 04:00;METAR CYOW 030400Z 20003KT 15SM FEW210 11/09 A3006 RMK CI1 SLP183=
CYOW;2006-10-03 05:00;METAR CYOW 030500Z 18005KT 15SM FEW210 11/09 A3005 RMK CI2 SLP178=
CYOW;2006-10-03 07:00;METAR CYOW 030700Z 12004KT 15SM FEW120 08/07 A3004 RMK AC1 SLP176=
CYOW;2006-10-03 08:00;METAR CYOW 030800Z 15005KT 15SM FEW140 08/07 A3002 RMK AC1 SLP167=
CYOW;2006-10-03 09:00;METAR CYOW 030900Z 14003KT 12SM VCFG FEW120 SCT160 08/08 A3003 RMK AC1AC2 FG BANK W SLP172=
CYOW;2006-10-03 09:39;SPECI CYOW 030939Z 11002KT 12SM -TSRA SCT040CB BKN100 09/ RMK CB3AC3 LTGIC=
CYOW;2006-10-03 09:54;SPECI CYOW 030954Z 16003KT 12SM VCFG BKN029 BKN090 09/ RETSRA RMK SC5AC2 FG BANK W=
CYOW;2006-10-03 10:00;METAR CYOW 031000Z 16004KT 12SM VCFG BKN031 BKN090 09/09 A3004 RETSRA RMK SC5AC2 FG BANK W SLP175=
CYOW;2006-10-03 11:00;METAR CYOW 031100Z 09002KT 12SM OVC024 10/09 A3004 RMK SC8 SLP174=
CYOW;2006-10-03 12:00;METAR CYOW 031200Z 15002KT 8SM FEW025 SCT180 BKN220 10/09 A3005 RMK SC1AC2CS3 SLP177=
CYOW;2006-10-03 13:00;METAR CYOW 031300Z 20002KT 12SM FEW030 BKN110 OVC220 12/11 A3005 RMK SC1AC5CS2 SLP177=
CYOW;2006-10-03 14:00;METAR CYOW 031400Z 19003KT 12SM SCT005 BKN030 OVC110 13/12 A3004 RMK SF3SC3AC2 SLP175=
CYOW;2006-10-03 14:54;SPECI CYOW 031454Z 21004KT 12SM BKN007 OVC030 14/ RMK SF5SC3=
CYOW;2006-10-03 15:00;METAR CYOW 031500Z 23003KT 12SM BKN006 OVC030 15/13 A3003 RMK SF5SC3 SLP172=
CYOW;2006-10-03 16:00;METAR CYOW 031600Z 22004KT 12SM BKN008 OVC020 15/14 A3003 RMK SF6SC2 SLP172=
CYOW;2006-10-03 16:28;SPECI CYOW 031628Z 24005KT 8SM -RA BKN008 OVC018 15/ RMK SF6SC2=
CYOW;2006-10-03 17:00;METAR CYOW 031700Z 25004KT 8SM -RA OVC009 15/14 A3005 RMK SF8 SLP176=
CYOW;2006-10-03 18:00;METAR CYOW 031800Z 26005KT 12SM -RA BKN005 OVC025 16/14 A3003 RMK SF6SC2 VRY LGT RA SLP171=
CYOW;2006-10-03 18:18;SPECI CYOW 031818Z 28006KT 12SM SCT005 BKN024 OVC060 16/ RMK SF3SC2SC2=
CYOW;2006-10-03 19:00;METAR CYOW 031900Z 23006KT 15SM FEW010 SCT025 OVC062 17/15 A3003 RMK SF2SC2SC4 SLP171=
CYOW;2006-10-03 20:00;METAR CYOW 032000Z 25004KT 12SM BKN012 OVC030 17/15 A3005 RMK SC5SC3 SLP178=
CYOW;2006-10-03 21:00;METAR CYOW 032100Z 30003KT 12SM SCT015 OVC032 17/15 A3006 RMK SC3SC5 SLP183=
CYOW;2006-10-03 22:00;METAR CYOW 032200Z 26002KT 15SM BKN030 17/15 A3007 RMK SC7 SLP186=
CYOW;2006-10-03 23:00;METAR CYOW 032300Z 21002KT 15SM BKN034 BKN220 17/15 A3009 RMK SC6CI1 SLP193=
CYOW;2006-10-04 00:00;METAR CYOW 040000Z 20005KT 15SM SKC 16/15 A3011 RMK SLP197=
CYOW;2006-10-04 01:00;METAR CYOW 040100Z 23003KT 12SM BCFG SKC 15/14 A3012 RMK SLP202=
CYOW;2006-10-04 02:00;METAR CYOW 040200Z 20002KT 1/2SM R07/1400FT/N R32/0900FT/N FG SKC 15/14 A3012 RMK FG1 VIS N 2 SLP201=
CYOW;2006-10-04 02:15;SPECI CYOW 040215Z 20003KT 4SM BR BCFG SKC 15/=
CYOW;2006-10-04 03:00;METAR CYOW 040300Z 19004KT 1/2SM R07/1200V2400FT/U R32/1800FT/N FG SKC 15/14 A3011 RMK FG1 VIS N 2 SLP197=
CYOW;2006-10-04 04:00;METAR CYOW 040400Z 17003KT 1/4SM R07/2000FT/N R32/1200FT/N FG SKC 13/13 A3011 RMK FG2 SLP198=
CYOW;2006-10-04 04:23;SPECI CYOW 040423Z 18002KT 0SM R07/1200FT/N R32/1000FT/N FG VV001 13/ RMK FG8=
CYOW;2006-10-04 05:00;METAR CYOW 040500Z 00000KT 0SM R07/0800FT/N R32/0700FT/N FG VV000 12/12 A3010 RMK FG8 SLP194=
CYOW;2006-10-04 06:00;METAR CYOW 040600Z 12003KT 1/4SM R07/2000FT/U R32/1800FT/N FG VV001 12/12 A3005 RMK FG8 SLP179=
CYOW;2006-10-04 07:00;METAR CYOW 040700Z 14004KT 1/8SM R07/1200FT/N R32/1100FT/N FG VV001 13/12 A3005 RMK FG8 SLP178=
CYOW;2006-10-04 08:00;METAR CYOW 040800Z 09003KT 1/8SM R07/1400FT/N R32/1100FT/N FG VV001 13/12 A3004 RMK FG8 SLP175=
CYOW;2006-10-04 09:00;METAR CYOW 040900Z 08003KT 1/8SM R07/1200FT/N R32/1100FT/N FG VV001 12/12 A3003 RMK FG8 SLP172=
CYOW;2006-10-04 10:00;METAR CYOW 041000Z 09003KT 1/4SM R07/1400FT/N R32/1200FT/N FG VV001 13/12 A3003 RMK FG8 SLP170=
CYOW;2006-10-04 11:00;METAR CYOW 041100Z 10004KT 1/8SM R07/1400FT/N R32/1200FT/N FG VV001 13/13 A3001 RMK FG8 SLP163=
CYOW;2006-10-04 12:00;METAR CYOW 041200Z 17005KT 1/4SM R07/1400FT/N R32/1400FT/N FG VV001 15/14 A2997 RMK FG8 SLP151=
CYOW;2006-10-04 12:50;SPECI CYOW 041250Z 19007KT 1/2SM R07/3500FT/N R32/4000FT/U FG VV003 15/ RMK FG8=
CYOW;2006-10-04 13:00;METAR CYOW 041300Z 19008KT 1 1/2SM R07/3500FT/N R32/4000FT/U BR OVC003 15/15 A2996 RMK FG6SF2 SLP146=
CYOW;2006-10-04 13:46;SPECI CYOW 041346Z 19006KT 3SM BR OVC005 16/ RMK SF8=
CYOW;2006-10-04 14:00;METAR CYOW 041400Z 19008KT 3SM BR OVC007 16/15 A2993 RMK SF8 SLP136=
CYOW;2006-10-04 14:10;SPECI CYOW 041410Z 20007KT 3SM -RA BR OVC006 16/ RMK SF8=
CYOW;2006-10-04 15:00;METAR CYOW 041500Z 17006KT 4SM -RA BR SCT010 OVC057 16/15 A2988 RMK SF4SC4 SLP118=
CYOW;2006-10-04 15:30;SPECI CYOW 041530Z 17008KT 3SM -RA BR SCT010 OVC029 16/ RMK SF3SC5=
CYOW;2006-10-04 16:52;SPECI CYOW 041652Z 21010G15KT 4SM -RA BR BKN009 OVC030 16/ RMK SF6SC2=
CYOW;2006-10-04 17:00;METAR CYOW 041700Z 21010KT 4SM -RA BR OVC009 16/15 A2982 RMK SF8 SLP098=
CYOW;2006-10-04 18:00;METAR CYOW 041800Z 22008KT 4SM -RA BR OVC009 16/15 A2979 RMK SF8 SLP090=
CYOW;2006-10-04 19:26;SPECI CYOW 041926Z 28010KT 10SM -RA BKN008 OVC020 16/ RMK SF7SC1 VRY LGT RA=
CYOW;2006-10-04 19:51;SPECI CYOW 041951Z 34017G22KT 10SM -RA SCT010 OVC051 12/ RMK SF3SC5=
CYOW;2006-10-04 20:00;METAR CYOW 042000Z 34016G24KT 3SM -RA BR SCT010 OVC024 12/10 A2982 RMK SF3SC5 SLP100=
CYOW;2006-10-04 21:00;METAR CYOW 042100Z 34017KT 15SM FEW010 SCT025 OVC047 12/09 A2987 RMK SF1SC2SC5 PRESRR SLP118=
CYOW;2006-10-04 22:00;METAR CYOW 042200Z 33010G15KT 15SM FEW020 BKN029 OVC050 12/09 A2991 RMK SC2SC6SC1 SLP130=
CYOW;2006-10-04 22:05;SPECI CYOW 042205Z 32014KT 15SM -RA FEW020 OVC028 12/ RMK SC2SC6=
CYOW;2006-10-04 23:00;METAR CYOW 042300Z 34014G21KT 15SM -RA OVC020 11/08 A2996 RMK SC8 CIG RAG SLP147=
CYOW;2006-10-04 23:26;SPECI CYOW 042326Z 34017G25KT 15SM BKN024 OVC120 10/ RMK SC6AC2 CIG RAG=
CYOW;2006-10-05 00:00;METAR CYOW 050000Z 35016G25KT 15SM BKN025 OVC150 10/05 A3002 RMK SC7AC1 PRESRR SLP167=
CYOW;2006-10-05 01:00;METAR CYOW 050100Z 36011G18KT 15SM BKN040 10/05 A3007 RMK SC6 SLP185=
CYOW;2006-10-05 02:00;METAR CYOW 050200Z 35009G15KT 15SM BKN040 10/06 A3011 RMK SC6 SLP197=
CYOW;2006-10-05 03:00;METAR CYOW 050300Z 36012G22KT 15SM FEW025 FEW040 08/03 A3015 RMK CF1SC1 SLP212=
CYOW;2006-10-05 04:00;METAR CYOW 050400Z 34009KT 15SM SKC 07/03 A3017 RMK SLP219=
CYOW;2006-10-05 05:00;METAR CYOW 050500Z 32006KT 15SM SKC 05/03 A3018 RMK SLP223=
CYOW;2006-10-05 06:00;METAR CYOW 050600Z 32007KT 15SM SKC 05/02 A3020 RMK SLP230=
CYOW;2006-10-05 07:00;METAR CYOW 050700Z 32004KT 15SM SKC 04/02 A3022 RMK SLP236=
CYOW;2006-10-05 08:00;METAR CYOW 050800Z 33006KT 15SM SKC 03/01 A3023 RMK SLP241=
CYOW;2006-10-05 09:00;METAR CYOW 050900Z 34006KT 15SM SKC 03/01 A3026 RMK SLP250=
CYOW;2006-10-05 09:23;SPECI CYOW 050923Z 34005KT 15SM SKC 02/=
CYOW;2006-10-05 10:00;METAR CYOW 051000Z 36007KT 15SM SKC 03/01 A3027 RMK SLP255=
CYOW;2006-10-05 11:00;METAR CYOW 051100Z 35007KT 15SM FEW250 03/01 A3029 RMK CI0 SLP260=
CYOW;2006-10-05 12:00;METAR CYOW 051200Z 35009KT 15SM FEW030 FEW250 04/02 A3030 RMK SC1CI0 SC TR SLP265=
CYOW;2006-10-05 13:00;METAR CYOW 051300Z 01008KT 15SM FEW030 FEW250 05/02 A3034 RMK SC1CI0 SLP276=
CYOW;2006-10-05 14:00;METAR CYOW 051400Z 36008KT 15SM FEW030 FEW250 07/03 A3035 RMK SC2CI0 SLP281=
CYOW;2006-10-05 15:00;METAR CYOW 051500Z 35007KT 15SM FEW020 FEW130 SCT250 08/02 A3036 RMK SC1AC1CI0 SLP286=
CYOW;2006-10-05 16:00;METAR CYOW 051600Z 35008KT 15SM FEW020 SCT170 BKN250 08/02 A3036 RMK SC1AC2CI1 SLP285=
CYOW;2006-10-05 17:00;METAR CYOW 051700Z 34007KT 15SM FEW020 SCT170 BKN220 09/02 A3034 RMK SC1AC3CI2 SLP279=
CYOW;2006-10-05 18:00;METAR CYOW 051800Z 32007KT 15SM FEW020 SCT170 BKN230 10/02 A3031 RMK SC1AC2CI3 SLP269=
CYOW;2006-10-05 19:00;METAR CYOW 051900Z 35007KT 15SM FEW020 SCT140 OVC220 10/02 A3031 RMK SC1AC2CI4 SC TR SLP267=
CYOW;2006-10-05 20:00;METAR CYOW 052000Z 33008KT 15SM FEW030 SCT140 OVC220 10/02 A3031 RMK SC1AC2CI4 SC TR SLP267=
CYOW;2006-10-05 21:00;METAR CYOW 052100Z 32007KT 15SM FEW030 FEW140 OVC220 10/03 A3031 RMK SC1AC2CI4 SLP270=
CYOW;2006-10-05 22:00;METAR CYOW 052200Z 32008KT 15SM FEW030 FEW140 OVC240 08/02 A3032 RMK SC1AC2CI4 SLP273=
CYOW;2006-10-05 23:00;METAR CYOW 052300Z 32006KT 15SM FEW140 OVC210 08/02 A3034 RMK AC1CI6 SLP279=
CYOW;2006-10-06 00:00;METAR CYOW 060000Z 36006KT 15SM OVC200 OVC240 07/02 A3036 RMK CS1CI7 SLP285=
CYOW;2006-10-06 01:00;METAR CYOW 060100Z 01007KT 15SM OVC180 07/02 A3036 RMK AS6 SLP286=
CYOW;2006-10-06 02:00;METAR CYOW 060200Z 01007KT 15SM OVC180 OVC240 06/02 A3038 RMK AS0CI5 SLP293=
CYOW;2006-10-06 03:00;METAR CYOW 060300Z 36006KT 15SM OVC230 06/02 A3040 RMK CS8 SLP298=
CYOW;2006-10-06 04:00;METAR CYOW 060400Z 01006KT 15SM SCT240 05/01 A3040 RMK CI2 SLP298=
CYOW;2006-10-06 05:00;METAR CYOW 060500Z 01006KT 15SM FEW240 04/01 A3040 RMK CI1 SLP300=
CYOW;2006-10-06 06:00;METAR CYOW 060600Z 36007KT 15SM SKC 04/01 A3042 RMK SLP304=
CYOW;2006-10-06 07:00;METAR CYOW 060700Z 36006KT 15SM SKC 03/01 A3042 RMK SLP307=
CYOW;2006-10-06 08:00;METAR CYOW 060800Z 02005KT 15SM SKC 03/01 A3043 RMK SLP310=
CYOW;2006-10-06 09:00;METAR CYOW 060900Z 03004KT 15SM SKC 03/01 A3046 RMK SLP318=
CYOW;2006-10-06 10:00;METAR CYOW 061000Z 04004KT 15SM SKC 03/01 A3047 RMK SLP323=
CYOW;2006-10-06 11:00;METAR CYOW 061100Z 03005KT 15SM FEW040 02/00 A3049 RMK SC1 SLP329=
CYOW;2006-10-06 12:00;METAR CYOW 061200Z 03006KT 15SM FEW040 03/01 A3053 RMK SC1 SLP342=
CYOW;2006-10-06 13:00;METAR CYOW 061300Z 04007KT 15SM FEW040 05/02 A3054 RMK SC1 SLP348=
CYOW;2006-10-06 14:00;METAR CYOW 061400Z 08006KT 15SM FEW040 08/03 A3056 RMK SC1 SLP354=
CYOW;2006-10-06 15:00;METAR CYOW 061500Z 07006KT 15SM FEW040 10/03 A3056 RMK SC1 SLP352=
CYOW;2006-10-06 16:00;METAR CYOW 061600Z 08006KT 15SM FEW040 11/03 A3055 RMK SC1 SLP349=
CYOW;2006-10-06 17:00;METAR CYOW 061700Z 02006KT 15SM FEW040 12/02 A3053 RMK SC1 SLP343=
CYOW;2006-10-06 18:00;METAR CYOW 061800Z 14002KT 15SM FEW040 12/02 A3051 RMK SC1 SLP335=
CYOW;2006-10-06 19:00;METAR CYOW 061900Z 13003KT 20SM FEW240 13/02 A3049 RMK CI1 SLP328=
CYOW;2006-10-06 20:00;METAR CYOW 062000Z 00000KT 20SM FEW240 13/02 A3048 RMK CI1 SLP324=
CYOW;2006-10-06 21:00;METAR CYOW 062100Z 00000KT 20SM FEW240 14/01 A3047 RMK CI1 SLP323=
CYOW;2006-10-06 22:00;METAR CYOW 062200Z 05002KT 20SM FEW240 13/01 A3047 RMK CI1 SLP323=
CYOW;2006-10-06 23:00;METAR CYOW 062300Z 04002KT 20SM FEW240 11/00 A3048 RMK CI0 SLP326=
CYOW;2006-10-07 00:00;METAR CYOW 070000Z 02004KT 15SM SKC 10/00 A3049 RMK SLP330=
CYOW;2006-10-07 01:00;METAR CYOW 070100Z 11004KT 15SM SKC 07/00 A3049 RMK SLP329=
CYOW;2006-10-07 02:00;METAR CYOW 070200Z 00000KT 15SM SKC 06/01 A3050 RMK SLP331=
CYOW;2006-10-07 03:00;METAR CYOW 070300Z 00000KT 15SM SKC 08/01 A3050 RMK SLP332=
CYOW;2006-10-07 04:00;METAR CYOW 070400Z 05002KT 15SM SKC 08/01 A3049 RMK SLP329=
CYOW;2006-10-07 05:00;METAR CYOW 070500Z 11002KT 15SM SKC 05/00 A3048 RMK SLP325=
CYOW;2006-10-07 06:00;METAR CYOW 070600Z 03004KT 15SM SKC 05/02 A3047 RMK SLP321=
CYOW;2006-10-07 07:00;METAR CYOW 070700Z 03005KT 15SM SKC 03/01 A3047 RMK SLP322=
CYOW;2006-10-07 08:00;METAR CYOW 070800Z 01004KT 15SM SKC 03/01 A3046 RMK SLP320=
CYOW;2006-10-07 09:00;METAR CYOW 070900Z 02002KT 15SM SKC 03/02 A3046 RMK SLP320=
CYOW;2006-10-07 10:00;METAR CYOW 071000Z 02002KT 15SM FEW120 03/01 A3048 RMK AC1 SLP324=
CYOW;2006-10-07 11:00;METAR CYOW 071100Z 00000KT 15SM MIFG FEW120 02/00 A3048 RMK AC1 SLP324=
CYOW;2006-10-07 12:00;METAR CYOW 071200Z 02003KT 15SM FEW240 02/00 A3050 RMK CI1 SLP331=
CYOW;2006-10-07 13:00;METAR CYOW 071300Z 16002KT 15SM FEW240 07/02 A3050 RMK CI1 SLP331=
CYOW;2006-10-07 14:00;METAR CYOW 071400Z 18002KT 15SM FEW240 09/04 A3049 RMK CI2 SLP330=
CYOW;2006-10-07 15:00;METAR CYOW 071500Z 29002KT 15SM FEW240 11/03 A3048 RMK CI2 SLP324=
CYOW;2006-10-07 17:00;METAR CYOW 071700Z 00000KT 15SM FEW240 14/03 A3044 RMK CI1 SLP312=
CYOW;2006-10-07 18:00;METAR CYOW 071800Z 26002KT 15SM FEW240 15/02 A3042 RMK CI1 SLP303=
CYOW;2006-10-07 19:00;METAR CYOW 071900Z 26002KT 15SM FEW240 15/02 A3040 RMK CI1 SLP297=
CYOW;2006-10-07 20:00;METAR CYOW 072000Z 20004KT 15SM FEW240 17/01 A3037 RMK CI2 SLP289=
CYOW;2006-10-07 21:00;METAR CYOW 072100Z 25003KT 15SM FEW100 FEW240 17/02 A3037 RMK AC1CI1 SLP287=
CYOW;2006-10-07 23:00;METAR CYOW 072300Z 17003KT 15SM FEW100 FEW250 13/00 A3034 RMK AC1CI0 TR AC SLP279=
CYOW;2006-10-08 00:00;METAR CYOW 080000Z 18004KT 15SM SKC 13/00 A3034 RMK SLP278=
CYOW;2006-10-08 01:00;METAR CYOW 080100Z 19003KT 15SM FEW250 12/01 A3034 RMK CI1 SLP277=
CYOW;2006-10-08 02:00;METAR CYOW 080200Z 19004KT 15SM FEW250 10/01 A3034 RMK CI0 SLP276=
CYOW;2006-10-08 03:00;METAR CYOW 080300Z 21005KT 15SM FEW120 SCT250 09/03 A3034 RMK AC1CI0 SLP276=
CYOW;2006-10-08 04:00;METAR CYOW 080400Z 20005KT 15SM BKN250 09/04 A3033 RMK CI1 SLP274=
CYOW;2006-10-08 05:00;METAR CYOW 080500Z 21003KT 15SM FEW250 08/05 A3034 RMK CI0 SLP276=
CYOW;2006-10-08 06:00;METAR CYOW 080600Z 22002KT 15SM FEW250 08/05 A3033 RMK CI0 SLP272=
CYOW;2006-10-08 07:00;METAR CYOW 080700Z 00000KT 15SM FEW250 07/05 A3032 RMK CI0 SLP271=
CYOW;2006-10-08 08:00;METAR CYOW 080800Z 21004KT 15SM FEW120 FEW250 06/04 A3032 RMK AC1CI0 TR AC SLP269=
CYOW;2006-10-08 09:00;METAR CYOW 080900Z 20006KT 15SM SCT250 05/04 A3032 RMK CS0 SLP269=
CYOW;2006-10-08 10:00;METAR CYOW 081000Z 21005KT 15SM FEW250 04/03 A3032 RMK CI0 SLP269=
CYOW;2006-10-08 11:00;METAR CYOW 081100Z 20006KT 15SM BKN250 04/03 A3032 RMK CI2 SLP270=
CYOW;2006-10-08 12:00;METAR CYOW 081200Z 20005KT 15SM BKN250 05/03 A3032 RMK CI2 SLP270=
CYOW;2006-10-08 13:00;METAR CYOW 081300Z 20005KT 15SM BKN250 08/05 A3032 RMK CI2 SLP270=
CYOW;2006-10-08 14:00;METAR CYOW 081400Z 22007KT 15SM BKN250 11/06 A3031 RMK CI2 SLP268=
CYOW;2006-10-08 15:00;METAR CYOW 081500Z 23007KT 15SM BKN250 13/07 A3030 RMK CI2 SLP263=
CYOW;2006-10-08 16:00;METAR CYOW 081600Z 21008KT 15SM BKN250 16/08 A3027 RMK CI2 SLP252=
CYOW;2006-10-08 17:00;METAR CYOW 081700Z 20008KT 15SM BKN250 18/07 A3024 RMK CI2 SLP244=
CYOW;2006-10-08 18:00;METAR CYOW 081800Z 19009KT 15SM BKN250 19/09 A3021 RMK CI2 SLP232=
CYOW;2006-10-08 19:00;METAR CYOW 081900Z 19008KT 15SM BKN250 20/07 A3017 RMK CI3 SLP220=
CYOW;2006-10-08 21:00;METAR CYOW 082100Z 21007KT 15SM BKN250 20/07 A3015 RMK CI2 SLP211=
CYOW;2006-10-08 22:00;METAR CYOW 082200Z 20008KT 15SM BKN250 19/08 A3013 RMK CI2 SLP206=
CYOW;2006-10-08 23:00;METAR CYOW 082300Z 19006KT 15SM SCT250 16/08 A3013 RMK CI1 SLP205=
CYOW;2006-10-09 00:00;METAR CYOW 090000Z 19006KT 15SM SCT250 14/07 A3012 RMK CI1 SLP202=
CYOW;2006-10-09 01:00;METAR CYOW 090100Z 20005KT 15SM BKN250 13/07 A3011 RMK CI1 SLP199=
CYOW;2006-10-09 02:00;METAR CYOW 090200Z 21005KT 15SM SCT250 12/08 A3010 RMK CI1 SLP196=
CYOW;2006-10-09 03:00;METAR CYOW 090300Z 19005KT 15SM FEW250 11/09 A3009 RMK CI1 SLP193=
CYOW;2006-10-09 04:00;METAR CYOW 090400Z 18004KT 15SM FEW250 10/09 A3008 RMK CI0 SLP189=
CYOW;2006-10-09 05:00;METAR CYOW 090500Z 23005KT 12SM FEW250 12/10 A3008 RMK CI0 SLP187=
CYOW;2006-10-09 06:00;METAR CYOW 090600Z 25004KT 12SM FEW250 11/10 A3008 RMK CI0 SLP189=
CYOW;2006-10-09 07:00;METAR CYOW 090700Z 00000KT 12SM FEW250 10/09 A3007 RMK CI0 SLP185=
CYOW;2006-10-09 08:00;METAR CYOW 090800Z 17003KT 10SM MIFG SKC 09/08 A3006 RMK SLP180=
CYOW;2006-10-09 09:00;METAR CYOW 090900Z 20005KT 10SM FEW250 10/09 A3005 RMK CI0 SLP179=
CYOW;2006-10-09 10:00;METAR CYOW 091000Z 22006KT 10SM SCT250 10/09 A3006 RMK CI0 SLP180=
CYOW;2006-10-09 10:49;SPECI CYOW 091049Z 22004KT 2 1/2SM BR FEW001 SCT250 10/ RMK SF1CI1=
CYOW;2006-10-09 11:00;METAR CYOW 091100Z 22005KT 2 1/2SM BR FEW001 SCT250 11/10 A3006 RMK SF1CI1 SLP182=
CYOW;2006-10-09 11:13;SPECI CYOW 091113Z 22006KT 1SM BR BKN001 BKN250 10/ RMK FG3SF2CI1=
CYOW;2006-10-09 11:25;SPECI CYOW 091125Z 23006KT 1/8SM FG VV002 10/ RMK FG8=
CYOW;2006-10-09 12:00;METAR CYOW 091200Z CCA 23008KT 1/4SM R07/3000FT R32/3000FT FG VV002 11/10 A3007 RMK FG8 SLP186=
CYOW;2006-10-09 12:32;SPECI CYOW 091232Z 24007KT 1/2SM R32/3000V5500FT R07/5500FT FG VV002 11/ RMK FG8=
CYOW;2006-10-09 12:47;SPECI CYOW 091247Z 25007KT 2SM BR OVC002 11/ RMK FG2SF6=
CYOW;2006-10-09 13:00;METAR CYOW 091300Z 24006KT 4SM BR OVC003 12/11 A3008 RMK SF7 SLP189=
CYOW;2006-10-09 13:38;SPECI CYOW 091338Z 25005KT 6SM BR BKN005 13/ RMK SF5=
CYOW;2006-10-09 13:49;SPECI CYOW 091349Z 24005KT 15SM FEW005 BKN250 13/ RMK SF2CI2=
CYOW;2006-10-09 14:00;METAR CYOW 091400Z 25007KT 15SM FEW010 SCT250 13/12 A3010 RMK SF1CI1 SLP194=
CYOW;2006-10-09 15:00;METAR CYOW 091500Z 28007KT 15SM BKN250 17/11 A3009 RMK CI2 SLP191=
CYOW;2006-10-09 16:00;METAR CYOW 091600Z 29009KT 15SM BKN250 18/10 A3009 RMK CI2 SLP192=
CYOW;2006-10-09 17:00;METAR CYOW 091700Z 29009KT 15SM FEW160 BKN250 19/11 A3009 RMK AC1CI2 SLP192=
CYOW;2006-10-09 18:00;METAR CYOW 091800Z 30010KT 15SM FEW160 SCT250 BKN260 20/10 A3008 RMK AC1CI0CI1 SLP187=
CYOW;2006-10-09 19:00;METAR CYOW 091900Z 30011KT 15SM FEW180 FEW250 BKN260 20/09 A3008 RMK AC1CI1CI1 AC LO CI TR SLP186=
CYOW;2006-10-09 20:00;METAR CYOW 092000Z 28009KT 15SM FEW160 SCT240 BKN260 19/09 A3007 RMK AC1CI2CI1 SLP185=
CYOW;2006-10-09 21:00;METAR CYOW 092100Z 27008KT 15SM FEW160 SCT240 BKN260 19/09 A3007 RMK AC1CI2CI1 SLP185=
CYOW;2006-10-09 22:00;METAR CYOW 092200Z 28008KT 15SM FEW150 SCT240 BKN270 18/08 A3008 RMK AC1CI2CI1 SLP188=
CYOW;2006-10-09 23:00;METAR CYOW 092300Z 34009KT 15SM FEW150 SCT240 BKN270 16/06 A3009 RMK AC1CI2CI2 TR AC SLP191=
CYOW;2006-10-10 00:00;METAR CYOW 100000Z 01011KT 15SM BKN250 15/02 A3010 RMK CI3 SLP196=
CYOW;2006-10-10 01:00;METAR CYOW 100100Z 01009KT 15SM FEW210 BKN250 13/00 A3011 RMK CI2CS4 SLP200=
CYOW;2006-10-10 02:00;METAR CYOW 100200Z 01010KT 15SM BKN066 OVC150 13/M01 A3013 RMK AC6AC1 SLP206=
CYOW;2006-10-10 03:00;METAR CYOW 100300Z 02011KT 15SM BKN065 BKN150 BKN240 12/M01 A3013 RMK SC5AC2CI0 SLP205=
CYOW;2006-10-10 04:00;METAR CYOW 100400Z 01010G15KT 15SM BKN060 BKN240 11/M01 A3014 RMK SC5CI1 SLP210=
CYOW;2006-10-10 05:00;METAR CYOW 100500Z 02007KT 15SM OVC094 11/M01 A3014 RMK AC8 SLP207=
CYOW;2006-10-10 06:00;METAR CYOW 100600Z 02007KT 15SM BKN059 OVC100 10/M01 A3014 RMK SC6AC2 SLP209=
CYOW;2006-10-10 07:00;METAR CYOW 100700Z 02007KT 15SM BKN058 OVC100 10/M01 A3014 RMK SC6AC2 SLP206=
CYOW;2006-10-10 08:00;METAR CYOW 100800Z 02007KT 15SM BKN110 OVC250 09/M01 A3014 RMK AC6CI1 SLP208=
CYOW;2006-10-10 09:00;METAR CYOW 100900Z 02006KT 15SM SCT083 OVC120 08/M01 A3014 RMK AC3AC4 SLP207=
CYOW;2006-10-10 10:00;METAR CYOW 101000Z 04004KT 15SM FEW080 BKN130 08/M00 A3014 RMK AC2AC5 SLP209=
CYOW;2006-10-10 11:00;METAR CYOW 101100Z 02006KT 15SM BKN130 BKN180 08/M00 A3016 RMK AC5AC2 SLP215=
CYOW;2006-10-10 12:00;METAR CYOW 101200Z 02006KT 15SM BKN130 BKN180 08/00 A3017 RMK AC6AC1 SLP218=
CYOW;2006-10-10 13:00;METAR CYOW 101300Z 03008KT 15SM BKN130 OVC170 09/00 A3019 RMK AC6AC1 SLP224=
CYOW;2006-10-10 14:00;METAR CYOW 101400Z 03006KT 15SM BKN110 OVC160 09/00 A3018 RMK AC6AC1 SLP222=
CYOW;2006-10-10 15:00;METAR CYOW 101500Z 06006KT 15SM BKN100 OVC150 09/01 A3017 RMK AC6AC1 SLP220=
CYOW;2006-10-10 15:14;SPECI CYOW 101514Z 05007KT 15SM -RA BKN100 OVC150 09/ RMK AC6AC1 VRY LGT RA=
CYOW;2006-10-10 16:00;METAR CYOW 101600Z 04007KT 15SM -RA BKN090 OVC120 10/02 A3016 RMK AC6AC1 SLP217=
CYOW;2006-10-10 17:00;METAR CYOW 101700Z 05003KT 15SM SCT110 OVC160 10/01 A3016 RMK AC3AC4 SLP215=
CYOW;2006-10-10 18:00;METAR CYOW 101800Z 07005KT 15SM FEW090 BKN110 OVC250 11/01 A3013 RMK AC2AC5CI1 CI TR SLP206=
CYOW;2006-10-10 19:00;METAR CYOW 101900Z 05004KT 15SM BKN078 BKN120 OVC250 11/01 A3011 RMK AC6AC2CI1 CI TR SLP199=
CYOW;2006-10-10 20:00;METAR CYOW 102000Z 04005KT 15SM BKN083 OVC120 11/01 A3010 RMK AC6AC2 SLP197=
CYOW;2006-10-10 21:00;METAR CYOW 102100Z 08005KT 15SM BKN083 OVC120 11/01 A3010 RMK AC6AC2 SLP195=
CYOW;2006-10-10 22:00;METAR CYOW 102200Z 13004KT 15SM BKN081 OVC100 10/02 A3009 RMK AC6AC2 SLP194=
CYOW;2006-10-10 23:00;METAR CYOW 102300Z 10005KT 15SM SCT080 BKN110 09/01 A3008 RMK AC4AC2 SLP188=
CYOW;2006-10-11 00:00;METAR CYOW 110000Z 09005KT 15SM SCT077 OVC220 08/01 A3008 RMK AC3CI5 SLP188=
CYOW;2006-10-11 01:00;METAR CYOW 110100Z 07006KT 15SM FEW080 BKN098 08/01 A3006 RMK AC1AC6 SLP184=
CYOW;2006-10-11 02:00;METAR CYOW 110200Z 07007KT 15SM BKN170 08/01 A3005 RMK AC6 SLP181=
CYOW;2006-10-11 03:00;METAR CYOW 110300Z 06006KT 15SM SCT110 BKN180 08/01 A3003 RMK AC3AC4 SLP174=
CYOW;2006-10-11 04:00;METAR CYOW 110400Z 08008KT 15SM OVC130 07/02 A3002 RMK AC8 MOON VISBL SLP168=
CYOW;2006-10-11 05:00;METAR CYOW 110500Z 08008KT 15SM OVC140 07/02 A2998 RMK AC8 SLP157=
CYOW;2006-10-11 06:00;METAR CYOW 110600Z 08009KT 15SM OVC140 07/02 A2996 RMK AC8 SLP149=
CYOW;2006-10-11 07:00;METAR CYOW 110700Z 09010G15KT 15SM OVC140 07/02 A2993 RMK AC8 SLP138=
CYOW;2006-10-11 08:00;METAR CYOW 110800Z 09009KT 15SM OVC160 07/02 A2990 RMK AC8 MOON VISBL SLP129=
CYOW;2006-10-11 09:00;METAR CYOW 110900Z 09009KT 15SM OVC068 07/03 A2988 RMK AC8 SLP123=
CYOW;2006-10-11 09:30;SPECI CYOW 110930Z 09009KT 15SM -RA OVC060 07/ RMK SC8=
CYOW;2006-10-11 10:00;METAR CYOW 111000Z 09010KT 15SM -RA OVC080 07/04 A2987 RMK AC8 SLP117=
CYOW;2006-10-11 11:00;METAR CYOW 111100Z 09012KT 15SM -RA BKN037 OVC080 06/04 A2985 RMK SC5AC3 SLP111=
CYOW;2006-10-11 12:00;METAR CYOW 111200Z 09010KT 15SM -RA BKN024 OVC080 07/05 A2983 RMK SC5AC3 SLP105=
CYOW;2006-10-11 13:00;METAR CYOW 111300Z 10012G19KT 3SM -RA BR OVC021 07/06 A2980 RMK SC8 SLP095=
CYOW;2006-10-11 13:42;SPECI CYOW 111342Z 11009KT 3SM -RA BR BKN005 OVC020 08/ RMK SF6SC2=
CYOW;2006-10-11 14:00;METAR CYOW 111400Z 11008KT 3SM -RA BR BKN009 OVC020 09/08 A2979 RMK SF5SC3 SLP090=
CYOW;2006-10-11 14:30;SPECI CYOW 111430Z 11010KT 2SM RA BR OVC004 10/ RMK FG3SF5=
CYOW;2006-10-11 15:21;SPECI CYOW 111521Z 09007KT 2SM RA BR OVC002 10/ RMK FG3SF5=
CYOW;2006-10-11 16:00;METAR CYOW 111600Z 10011KT 3SM -RA BR SCT005 OVC032 10/10 A2976 RERA RMK SF3SC5 SLP081=
CYOW;2006-10-11 17:00;METAR CYOW 111700Z 09008KT 6SM -RA BR FEW010 OVC041 11/10 A2976 RMK SF2SC6 SLP079=
CYOW;2006-10-11 18:00;METAR CYOW 111800Z 10008KT 6SM -RA BR FEW010 OVC041 11/10 A2974 RMK SF2SC6 VRY LGT RA SLP073=
CYOW;2006-10-11 19:00;METAR CYOW 111900Z 09010KT 6SM -RA BR FEW010 OVC041 12/11 A2971 RMK SF2SC6 SLP065=
CYOW;2006-10-11 19:15;SPECI CYOW 111915Z 09009KT 6SM BR FEW010 OVC041 12/ RMK SF2SC6=
CYOW;2006-10-11 20:00;METAR CYOW 112000Z 09010KT 6SM -RA BR FEW010 BKN040 OVC085 12/11 A2970 RMK SF2SC6AC1 SLP059=
CYOW;2006-10-11 21:00;METAR CYOW 112100Z 09009KT 6SM -RA BR FEW010 OVC053 12/11 A2968 RMK SF1SC7 SLP052=
CYOW;2006-10-11 23:00;METAR CYOW 112300Z 13007KT 10SM -RA OVC053 14/11 A2964 RMK SC8 SLP041=
CYOW;2006-10-12 00:00;METAR CYOW 120000Z 15008KT 10SM -RA OVC054 15/11 A2963 RMK SC8 SLP035=
CYOW;2006-10-12 00:47;SPECI CYOW 120047Z 15012G17KT 15SM OVC089 15/ RMK AC8=
CYOW;2006-10-12 01:00;METAR CYOW 120100Z 15013KT 15SM OVC090 15/10 A2960 RMK AC8 SLP026=
CYOW;2006-10-12 02:00;METAR CYOW 120200Z 14014G20KT 15SM FEW065 OVC090 15/10 A2958 RMK SC1AC7 SLP019=
CYOW;2006-10-12 02:47;SPECI CYOW 120247Z 14013KT 15SM -RA OVC062 14/ RMK SC8=
CYOW;2006-10-12 03:00;METAR CYOW 120300Z 14012KT 15SM -RA OVC075 15/10 A2956 RMK AC8 SLP013=
CYOW;2006-10-12 04:00;METAR CYOW 120400Z 13011G17KT 8SM -RA OVC048 13/10 A2952 RMK SC8 SLP000=
CYOW;2006-10-12 05:00;METAR CYOW 120500Z 13012KT 8SM -RA OVC044 13/11 A2948 RMK SC8 SLP985=
CYOW;2006-10-12 06:00;METAR CYOW 120600Z 13011G17KT 8SM -RA SCT056 OVC080 13/11 A2944 RMK SC3AC5 SLP971=
CYOW;2006-10-12 06:24;SPECI CYOW 120624Z 14012KT 8SM OVC055 13/ RMK SC8=
CYOW;2006-10-12 07:00;METAR CYOW 120700Z 13011KT 10SM OVC065 14/11 A2941 RMK SC8 SLP961=
CYOW;2006-10-12 08:00;METAR CYOW 120800Z 11007KT 15SM OVC044 13/11 A2938 RMK SC8 SLP950=
CYOW;2006-10-12 08:44;SPECI CYOW 120844Z 11008KT 8SM -RA OVC045 13/ RMK SC8=
CYOW;2006-10-12 09:00;METAR CYOW 120900Z 12009KT 8SM -RA OVC044 13/12 A2934 RMK SC8 SLP938=
CYOW;2006-10-12 10:00;METAR CYOW 121000Z 12008KT 8SM -RA OVC034 13/12 A2932 RMK SC8 SLP931=
CYOW;2006-10-12 11:00;METAR CYOW 121100Z 19006KT 8SM -RA BKN012 OVC030 14/12 A2934 RMK SF6SC2 SLP937=
CYOW;2006-10-12 12:00;METAR CYOW 121200Z 21007KT 10SM -RA FEW015 BKN040 OVC088 14/13 A2935 RMK SF2SC4AC2 SLP941=
CYOW;2006-10-12 13:00;METAR CYOW 121300Z 25012KT 15SM -RA SCT010 BKN040 OVC090 12/10 A2940 RMK SF3SC3AC2 VRY LGT RA SLP956=
CYOW;2006-10-12 14:00;METAR CYOW 121400Z 24008KT 15SM FEW040 BKN064 OVC090 11/08 A2940 RMK SC2SC6AC1 SLP957=
CYOW;2006-10-12 15:00;METAR CYOW 121500Z 23006KT 15SM FEW040 BKN051 OVC090 11/08 A2942 RMK SC2SC6AC1 SLP963=
CYOW;2006-10-12 16:00;METAR CYOW 121600Z 22009KT 15SM FEW020 BKN050 BKN090 12/08 A2943 RMK CU1SC5AC2 CU TR SLP968=
CYOW;2006-10-12 16:13;SPECI CYOW 121613Z 23015G20KT 10SM -SHRA FEW020 BKN050 BKN090 11/ RMK CU1SC5AC2=
CYOW;2006-10-12 16:25;SPECI CYOW 121625Z 23012G18KT 15SM FEW020 BKN040 BKN090 12/ RMK CU1SC4AC2=
CYOW;2006-10-12 17:00;METAR CYOW 121700Z 23013KT 15SM FEW020 BKN035 BKN100 11/05 A2943 RMK CU1SC5AC2 CU TR SLP969=
CYOW;2006-10-12 18:00;METAR CYOW 121800Z 25012KT 15SM FEW020 SCT035 BKN110 11/03 A2943 RMK CU1SC2AC3 SLP967=
CYOW;2006-10-12 19:00;METAR CYOW 121900Z 25011KT 15SM FEW020 BKN045 BKN110 11/02 A2943 RMK CU1SC4AC1 SLP968=
CYOW;2006-10-12 20:00;METAR CYOW 122000Z 23012KT 15SM FEW020 BKN045 BKN090 11/01 A2945 RMK CU2SC5AC1 SLP975=
CYOW;2006-10-12 21:00;METAR CYOW 122100Z 24015KT 15SM SCT040 BKN100 10/M00 A2948 RMK CU3AC2 SLP986=
CYOW;2006-10-12 22:00;METAR CYOW 122200Z 25009KT 15SM FEW040 FEW070 08/00 A2951 RMK CU1AC2 SLP996=
CYOW;2006-10-12 23:00;METAR CYOW 122300Z 22006KT 15SM FEW040 FEW070 06/M00 A2954 RMK SC1AC2 SLP004=
CYOW;2006-10-13 00:00;METAR CYOW 130000Z 20007KT 15SM FEW080 05/M01 A2957 RMK AC2 SLP017=
CYOW;2006-10-13 01:00;METAR CYOW 130100Z 24011KT 15SM FEW040 04/M00 A2960 RMK SC2 SLP026=
CYOW;2006-10-13 02:00;METAR CYOW 130200Z 24008KT 15SM FEW015 03/M01 A2962 RMK CF1 SLP034=
CYOW;2006-10-13 03:00;METAR CYOW 130300Z 20005KT 15SM FEW016 03/M01 A2965 RMK CF1 SLP042=
CYOW;2006-10-13 03:04;SPECI CYOW 130304Z 18005KT 15SM FEW015 02/ RMK CF1=
CYOW;2006-10-13 04:00;METAR CYOW 130400Z 19005KT 15SM SKC 01/M02 A2967 RMK SLP050=
CYOW;2006-10-13 05:00;METAR CYOW 130500Z 18006KT 15SM FEW100 01/M02 A2967 RMK AC1 SLP051=
CYOW;2006-10-13 06:00;METAR CYOW 130600Z 19009KT 15SM BKN082 01/M02 A2967 RMK AC5 SLP050=
CYOW;2006-10-13 07:00;METAR CYOW 130700Z 18005KT 15SM SKC 01/M04 A2967 RMK SLP050=
CYOW;2006-10-13 08:00;METAR CYOW 130800Z 18004KT 15SM SKC M00/M03 A2967 RMK SLP051=
CYOW;2006-10-13 09:00;METAR CYOW 130900Z 18004KT 15SM FEW220 M01/M04 A2968 RMK CI1 SLP053=
CYOW;2006-10-13 10:00;METAR CYOW 131000Z CCA 18004KT 15SM FEW220 M02/M04 A2970 RMK CI1 FROIN SLP061=
CYOW;2006-10-13 12:00;METAR CYOW 131200Z 16004KT 15SM FEW035 FEW090 01/M01 A2970 RMK SC1AC1 SLP062=
CYOW;2006-10-13 13:00;METAR CYOW 131300Z 18009KT 15SM FEW035 FEW090 03/00 A2970 RMK SC1AC1 CLDS TR SLP063=
CYOW;2006-10-13 14:00;METAR CYOW 131400Z 20011KT 15SM FEW020 FEW035 FEW090 05/00 A2970 RMK CU1SC1AC1 SC AC TR SLP062=
CYOW;2006-10-13 15:00;METAR CYOW 131500Z 20013KT 15SM FEW025 BKN057 06/M00 A2970 RMK CU1SC4 SLP061=
CYOW;2006-10-13 17:00;METAR CYOW 131700Z 18010G19KT 15SM SCT040 BKN055 07/M01 A2967 RMK SC3SC4 CU ASOCT SLP051=
CYOW;2006-10-13 18:00;METAR CYOW 131800Z 19013G18KT 15SM OVC037 07/M01 A2967 RMK SC8 SLP052=
CYOW;2006-10-13 18:51;SPECI CYOW 131851Z 18014G19KT 12SM -SHRA BKN035TCU OVC063 05/ RMK TCU6SC2=
CYOW;2006-10-13 19:00;METAR CYOW 131900Z 17011G19KT 15SM VCSH OVC051 05/01 A2967 RMK SC8 SLP051=
CYOW;2006-10-13 20:00;METAR CYOW 132000Z 16014G21KT 12SM -SHRA BKN037TCU OVC060 05/M01 A2967 RMK TCU5SC3 SLP052=
CYOW;2006-10-13 20:39;SPECI CYOW 132039Z 14011G16KT 15SM OVC062 05/ RMK SC8=
CYOW;2006-10-13 21:00;METAR CYOW 132100Z 16011KT 12SM -SHRA SCT040TCU OVC082 06/M01 A2966 RMK TCU3AC5 SCT SH PST 3 HRS SLP049=
CYOW;2006-10-13 21:33;SPECI CYOW 132133Z 16010KT 15SM VCSH OVC040 06/ RMK SC8 VIRGA=
CYOW;2006-10-13 22:00;METAR CYOW 132200Z 19008G26KT 15SM VCSH OVC055 07/M03 A2967 RMK SC8 VIRGA SLP053=
CYOW;2006-10-13 23:00;METAR CYOW 132300Z 18005KT 15SM SCT080 BKN180 06/M02 A2967 RMK AC3AC3 SLP053=
CYOW;2006-10-13 23:38;SPECI CYOW 132338Z 23006KT 12SM -SHRA BKN047TCU OVC080 07/ RMK TCU6AC2=
CYOW;2006-10-14 00:00;METAR CYOW 140000Z 22016G24KT 12SM -SHRA BKN040TCU OVC080 06/M00 A2971 RMK TCU6AC2 SLP067=
CYOW;2006-10-14 00:44;SPECI CYOW 140044Z 24010KT 5SM -RA BR OVC010 04/ RMK SF8=
CYOW;2006-10-14 01:00;METAR CYOW 140100Z 23011KT 4SM -RA BR OVC010 04/02 A2973 RMK SF8 SLP073=
CYOW;2006-10-14 02:00;METAR CYOW 140200Z 22008KT 12SM -RA FEW010 OVC017 02/00 A2972 RMK CF2SC6 SLP070=
CYOW;2006-10-14 02:42;SPECI CYOW 140242Z 17005KT 15SM FEW011 OVC074 02/ RMK CF1AC8=
CYOW;2006-10-14 03:00;METAR CYOW 140300Z 18008KT 15SM FEW011 OVC074 03/01 A2970 RMK CF1AC8 SLP061=
CYOW;2006-10-14 04:00;METAR CYOW 140400Z 19007KT 15SM BKN084 OVC110 04/01 A2968 RMK AC7AC1 SLP055=
CYOW;2006-10-14 04:34;SPECI CYOW 140434Z 18009KT 15SM -RA OVC056 04/ RMK SC8=
CYOW;2006-10-14 05:00;METAR CYOW 140500Z 18009KT 15SM -RA OVC055 04/02 A2968 RMK SC8 SLP055=
CYOW;2006-10-14 06:00;METAR CYOW 140600Z 17004KT 15SM -RA FEW025 OVC045 04/02 A2966 RMK CF2SC6 SLP049=
CYOW;2006-10-14 07:00;METAR CYOW 140700Z 17006KT 10SM -RA FEW026 OVC042 04/02 A2966 RMK CF2SC6 SLP047=
CYOW;2006-10-14 08:00;METAR CYOW 140800Z 17004KT 15SM -RA FEW011 OVC084 04/03 A2964 RMK CF1AC7 RA VRY LGT SLP040=
CYOW;2006-10-14 08:29;SPECI CYOW 140829Z 18003KT 15SM FEW011 OVC082 04/ RMK CF1AC7=
CYOW;2006-10-14 09:00;METAR CYOW 140900Z 16005KT 15SM OVC094 04/03 A2963 RMK AC8 SLP037=
CYOW;2006-10-14 10:00;METAR CYOW 141000Z 17006KT 15SM -RA OVC080 05/03 A2963 RMK AC8 SLP039=
CYOW;2006-10-14 11:00;METAR CYOW 141100Z 19006KT 12SM -RA SCT020 OVC033 05/02 A2964 RMK SC3SC5 SLP041=
CYOW;2006-10-14 12:00;METAR CYOW 141200Z 18007KT 12SM -RA SCT040 OVC070 04/02 A2962 RMK SC3AC5 SLP036=
CYOW;2006-10-14 13:00;METAR CYOW 141300Z 16006KT 12SM -RA OVC071 04/02 A2961 RMK AC8 SLP032=
CYOW;2006-10-14 14:00;METAR CYOW 141400Z 18009KT 12SM -RA SCT027 OVC040 05/03 A2962 RMK SC3SC5 SLP035=
CYOW;2006-10-14 15:00;METAR CYOW 141500Z 18009G15KT 12SM -RA FEW017 OVC040 04/02 A2962 RMK CU2SC6 SLP036=
CYOW;2006-10-14 16:00;METAR CYOW 141600Z 18010KT 15SM FEW020 OVC090 06/03 A2962 RMK CU2AS6 SLP036=
CYOW;2006-10-14 17:00;METAR CYOW 141700Z 18009KT 15SM FEW018 BKN110 06/03 A2964 RMK CU2AS5 SLP041=
CYOW;2006-10-14 17:23;SPECI CYOW 141723Z 18009KT 15SM BKN013 BKN110 06/ RMK SC6AS1 CU ASOCTD=
CYOW;2006-10-14 18:00;METAR CYOW 141800Z 18010KT 15SM BKN013 BKN160 07/04 A2964 RMK SC5AC1 SLP042=
CYOW;2006-10-14 19:00;METAR CYOW 141900Z 21008KT 15SM SCT013 BKN160 08/03 A2965 RMK CU4AC2 SLP044=
CYOW;2006-10-14 20:00;METAR CYOW 142000Z 19010KT 15SM SCT017 BKN063 08/03 A2967 RMK CF3SC3 SLP050=
CYOW;2006-10-14 21:00;METAR CYOW 142100Z 23008KT 15SM VCSH FEW030TCU 08/01 A2968 RMK TCU2 SLP056=
CYOW;2006-10-14 22:00;METAR CYOW 142200Z 23008KT 15SM VCSH SCT030 07/00 A2970 RMK CU3 TCU ASOCTD SLP061=
CYOW;2006-10-14 23:00;METAR CYOW 142300Z 23006KT 15SM FEW030 06/01 A2972 RMK SC2 SLP069=
CYOW;2006-10-15 00:00;METAR CYOW 150000Z 23006KT 15SM FEW030 04/01 A2974 RMK SC1 SLP077=
CYOW;2006-10-15 01:00;METAR CYOW 150100Z 25006KT 15SM FEW030 03/M00 A2977 RMK SC1 SLP085=
CYOW;2006-10-15 02:00;METAR CYOW 150200Z 26006KT 15SM SKC 02/M01 A2980 RMK SLP095=
CYOW;2006-10-15 03:00;METAR CYOW 150300Z 26007KT 15SM SKC 02/M01 A2981 RMK SLP100=
CYOW;2006-10-15 04:00;METAR CYOW 150400Z 25006KT 15SM FEW150 02/M01 A2982 RMK AC2 SLP102=
CYOW;2006-10-15 05:00;METAR CYOW 150500Z 22004KT 15SM FEW130 SCT150 02/M01 A2982 RMK AC1AC2 SLP104=
CYOW;2006-10-15 06:00;METAR CYOW 150600Z 22002KT 15SM BKN100 BKN150 02/M00 A2982 RMK AC5AC1 SLP103=
CYOW;2006-10-15 07:00;METAR CYOW 150700Z 20003KT 15SM BKN110 BKN150 03/00 A2982 RMK AC5AC1 SLP102=
CYOW;2006-10-15 08:00;METAR CYOW 150800Z 19005KT 15SM SCT067 02/00 A2983 RMK AC4 SLP106=
CYOW;2006-10-15 09:00;METAR CYOW 150900Z 18003KT 15SM SCT074 02/01 A2984 RMK AC3 SLP108=
CYOW;2006-10-15 10:00;METAR CYOW 151000Z 18002KT 15SM SCT080 03/01 A2985 RMK AC3 SLP112=
CYOW;2006-10-15 11:00;METAR CYOW 151100Z 24003KT 15SM BKN081 04/01 A2985 RMK AC7 SLP114=
CYOW;2006-10-15 12:00;METAR CYOW 151200Z 25003KT 15SM FEW010 BKN084 04/01 A2987 RMK CF1AC6 SLP118=
CYOW;2006-10-15 13:00;METAR CYOW 151300Z 23006KT 15SM FEW010 BKN081 04/01 A2988 RMK CF1AC6 SLP123=
CYOW;2006-10-15 14:00;METAR CYOW 151400Z 26008KT 15SM FEW020 BKN082 06/02 A2990 RMK CF2AC6 SLP130=
CYOW;2006-10-15 15:00;METAR CYOW 151500Z 26010G16KT 15SM BKN024 BKN080 07/01 A2991 RMK CU5AC2 SLP133=
CYOW;2006-10-15 16:00;METAR CYOW 151600Z 22012KT 15SM BKN030 BKN068 08/01 A2992 RMK CU5AC2 SLP136=
CYOW;2006-10-15 17:00;METAR CYOW 151700Z 31009KT 15SM BKN044 08/M00 A2993 RMK CU6 SLP138=
CYOW;2006-10-15 18:00;METAR CYOW 151800Z 24016G21KT 15SM BKN053 10/M02 A2992 RMK SC6 CU ASOCTD SLP137=
CYOW;2006-10-15 19:00;METAR CYOW 151900Z 25009G16KT 15SM BKN057 09/M02 A2992 RMK SC6 SLP137=
CYOW;2006-10-15 20:00;METAR CYOW 152000Z 24010G15KT 15SM BKN067 10/M01 A2994 RMK AC6 SLP142=
CYOW;2006-10-15 21:00;METAR CYOW 152100Z 23010G19KT 15SM BKN079 08/02 A2995 RMK AC6 SLP146=
CYOW;2006-10-15 22:00;METAR CYOW 152200Z 25009KT 15SM BKN078 08/01 A2996 RMK AC6 SLP150=
CYOW;2006-10-15 23:00;METAR CYOW 152300Z 25010G16KT 15SM SCT053 BKN081 07/00 A2999 RMK SC3AC4 SLP160=
CYOW;2006-10-16 00:00;METAR CYOW 160000Z 26008KT 15SM SCT050 BKN080 07/01 A3001 RMK SC3AC2 SLP166=
CYOW;2006-10-16 01:00;METAR CYOW 160100Z 25007KT 15SM BKN053 BKN080 07/01 A3003 RMK SC5AC2 SLP173=
CYOW;2006-10-16 02:00;METAR CYOW 160200Z 25004KT 15SM SCT055 BKN083 06/01 A3005 RMK SC3AC3 SLP179=
CYOW;2006-10-16 03:00;METAR CYOW 160300Z 23004KT 15SM BKN081 06/01 A3007 RMK AC7 SLP185=
CYOW;2006-10-16 04:00;METAR CYOW 160400Z 23004KT 15SM SCT076 05/01 A3008 RMK AC4 SLP189=
CYOW;2006-10-16 05:00;METAR CYOW 160500Z 22004KT 15SM SCT075 05/01 A3009 RMK AC3 SLP193=
CYOW;2006-10-16 06:00;METAR CYOW 160600Z 22005KT 15SM FEW075 04/01 A3011 RMK AC2 SLP198=
CYOW;2006-10-16 07:00;METAR CYOW 160700Z 22003KT 15SM FEW075 04/01 A3012 RMK AC2 SLP203=
CYOW;2006-10-16 08:00;METAR CYOW 160800Z 24003KT 15SM FEW075 03/00 A3014 RMK AC1 SLP208=
CYOW;2006-10-16 08:52;SPECI CYOW 160852Z 26003KT 15SM SKC 02/=
CYOW;2006-10-16 09:00;METAR CYOW 160900Z 25003KT 15SM SKC 02/M00 A3016 RMK SLP216=
CYOW;2006-10-16 10:00;METAR CYOW 161000Z 22003KT 15SM FEW240 02/M00 A3018 RMK CI1 FROIN SLP223=
CYOW;2006-10-16 11:00;METAR CYOW 161100Z 19003KT 15SM FEW240 01/M01 A3019 RMK CI1 FROIN SLP227=
CYOW;2006-10-16 12:00;METAR CYOW 161200Z 18003KT 15SM BKN150 01/M01 A3019 RMK AC6 SLP228=
CYOW;2006-10-16 13:00;METAR CYOW 161300Z 20003KT 15SM SCT180 03/00 A3021 RMK AC3 SLP234=
CYOW;2006-10-16 14:00;METAR CYOW 161400Z 20006KT 15SM FEW180 07/02 A3022 RMK AC2 SLP239=
CYOW;2006-10-16 15:00;METAR CYOW 161500Z 20008KT 15SM FEW180 10/02 A3022 RMK AC2 SLP238=
CYOW;2006-10-16 16:00;METAR CYOW 161600Z 20009KT 15SM FEW020 FEW180 FEW240 11/01 A3022 RMK CU1AC1CI0 SLP238=
CYOW;2006-10-16 18:00;METAR CYOW 161800Z 23012G18KT 15SM BKN047 13/02 A3019 RMK CU5 SLP228=
CYOW;2006-10-16 19:00;METAR CYOW 161900Z 23006KT 15SM BKN047 13/02 A3019 RMK CU5 SLP228=
CYOW;2006-10-16 20:00;METAR CYOW 162000Z 22007KT 15SM SCT050 14/03 A3019 RMK CU3 SLP225=
CYOW;2006-10-16 21:00;METAR CYOW 162100Z 20008KT 15SM FEW050 FEW250 13/03 A3018 RMK CU1CI1 TR CI SLP224=
CYOW;2006-10-16 22:00;METAR CYOW 162200Z 19005KT 15SM FEW060 FEW150 FEW250 12/03 A3019 RMK SC1AC1CI1 TR SC AND AC SLP226=
CYOW;2006-10-16 23:00;METAR CYOW 162300Z 16004KT 15SM FEW150 09/02 A3020 RMK AC1 SLP232=
CYOW;2006-10-17 00:00;METAR CYOW 170000Z 18005KT 15SM FEW150 09/02 A3022 RMK AC1 SLP238=
CYOW;2006-10-17 01:00;METAR CYOW 170100Z 16004KT 15SM FEW150 08/02 A3022 RMK AC1 SLP238=
CYOW;2006-10-17 02:00;METAR CYOW 170200Z 16006KT 15SM FEW110 08/02 A3021 RMK AC2 SLP235=
CYOW;2006-10-17 03:00;METAR CYOW 170300Z 18004KT 15SM BKN090 08/02 A3022 RMK AC6 SLP235=
CYOW;2006-10-17 04:00;METAR CYOW 170400Z 15006KT 15SM BKN090 07/01 A3021 RMK AC7 SLP233=
CYOW;2006-10-17 05:00;METAR CYOW 170500Z 13005KT 15SM OVC200 05/01 A3019 RMK CI6 SLP226=
CYOW;2006-10-17 06:00;METAR CYOW 170600Z 13005KT 15SM OVC240 06/01 A3019 RMK CI8 SLP225=
CYOW;2006-10-17 07:00;METAR CYOW 170700Z 09005KT 15SM OVC230 06/02 A3016 RMK CI8 SLP217=
CYOW;2006-10-17 08:00;METAR CYOW 170800Z 09005KT 15SM OVC220 05/02 A3015 RMK CI8 SLP212=
CYOW;2006-10-17 09:00;METAR CYOW 170900Z 08007KT 15SM FEW085 OVC230 05/02 A3013 RMK AC1CI7 SLP205=
CYOW;2006-10-17 10:00;METAR CYOW 171000Z 09007KT 15SM OVC240 05/01 A3012 RMK CI8 SLP203=
CYOW;2006-10-17 11:00;METAR CYOW 171100Z 09007KT 15SM OVC210 05/01 A3010 RMK CI8 SLP197=
CYOW;2006-10-17 12:00;METAR CYOW 171200Z 10008KT 15SM BKN092 OVC190 05/02 A3009 RMK AC6AC2 SLP194=
CYOW;2006-10-17 13:00;METAR CYOW 171300Z 10009KT 12SM OVC090 07/02 A3007 RMK AC8 SLP185=
CYOW;2006-10-17 14:00;METAR CYOW 171400Z 10011KT 10SM OVC100 08/02 A3005 RMK AC8 SLP180=
CYOW;2006-10-17 15:00;METAR CYOW 171500Z 09006KT 15SM BKN080 OVC100 08/03 A3002 RMK AC6AS2 SLP171=
CYOW;2006-10-17 16:00;METAR CYOW 171600Z 08006KT 12SM -RA BKN075 OVC090 08/05 A3000 RMK AC5AS3 SLP163=
CYOW;2006-10-17 17:00;METAR CYOW 171700Z 09007KT 10SM -RA FEW050 BKN070 OVC090 08/06 A2998 RMK SC1AC4AS3 SLP155=
CYOW;2006-10-17 18:00;METAR CYOW 171800Z 12010KT 4SM -RA BR BKN021 OVC070 08/06 A2995 RMK SC7AS1 SLP145=
CYOW;2006-10-17 19:00;METAR CYOW 171900Z 09011KT 3SM RA BR SCT025 OVC038 07/06 A2990 RMK SC3NS5 SLP129=
CYOW;2006-10-17 19:25;SPECI CYOW 171925Z 09012KT 4SM -RA FEW005 OVC025 07/ RERA RMK SF2NS6=
CYOW;2006-10-17 19:43;SPECI CYOW 171943Z 09010KT 4SM -RA BR FEW005 BKN012 OVC025 07/ RERA RMK SF1SC5NS2=
CYOW;2006-10-17 20:00;METAR CYOW 172000Z 09013KT 4SM -RA BR SCT005 BKN010 OVC020 08/06 A2986 RERA RMK SF4SF3NS1 SLP117=
CYOW;2006-10-17 20:15;SPECI CYOW 172015Z 09013KT 4SM -RA BR BKN005 BKN010 OVC025 08/ RMK SF6SF2NS1=
CYOW;2006-10-17 21:00;METAR CYOW 172100Z 09012KT 6SM -RA BR BKN005 OVC010 08/07 A2983 RMK SF6SF2 SLP105=
CYOW;2006-10-17 21:35;SPECI CYOW 172135Z 10011KT 4SM -RA BR OVC004 08/ RMK SF8 CIG VRB 3-5=
CYOW;2006-10-17 22:00;METAR CYOW 172200Z 09014KT 3SM -RA BR OVC004 08/07 A2979 RMK SF8 CIG VRB 3-5 SLP093=
CYOW;2006-10-17 22:40;SPECI CYOW 172240Z 09017KT 6SM -RA BR FEW003 OVC029 08/ RMK SF2SC6=
CYOW;2006-10-17 23:09;SPECI CYOW 172309Z 09017KT 4SM -RA BR FEW004 OVC017 08/ RMK SF2SC6=
CYOW;2006-10-17 23:21;SPECI CYOW 172321Z 13007G17KT 4SM -RA BR OVC003 08/ RERA RMK SF8=
CYOW;2006-10-18 00:00;METAR CYOW 180000Z 12012G19KT 4SM -RA BR OVC004 08/07 A2973 RERA RMK NS8 CIG RAG SLP072=
CYOW;2006-10-18 01:00;METAR CYOW 180100Z 10012KT 4SM -RA BR OVC004 08/07 A2970 RMK NS8 CIG RAG SLP062=
CYOW;2006-10-18 02:00;METAR CYOW 180200Z 10014KT 4SM -RA BR SCT004 OVC010 08/08 A2968 RMK SF3NS5 SLP053=
CYOW;2006-10-18 03:00;METAR CYOW 180300Z 12008G15KT 4SM -RA BR OVC004 09/08 A2965 RMK NS8 SLP043=
CYOW;2006-10-18 04:00;METAR CYOW 180400Z 10009KT 3SM -RA BR OVC004 09/08 A2962 RMK NS8 CIG RAG SLP033=
CYOW;2006-10-18 05:00;METAR CYOW 180500Z 10009KT 4SM -RA BR OVC003 09/09 A2959 RMK NS8 SLP025=
CYOW;2006-10-18 05:27;SPECI CYOW 180527Z 09008KT 4SM -DZ BR OVC004 09/ RMK SF8=
CYOW;2006-10-18 06:00;METAR CYOW 180600Z 10007KT 2SM -DZ BR OVC003 09/09 A2958 RMK SF8 /R10/ SLP019=
CYOW;2006-10-18 07:00;METAR CYOW 180700Z 14004KT 1 1/2SM -DZ BR OVC002 10/10 A2958 RMK ST8 SLP019=
CYOW;2006-10-18 08:00;METAR CYOW 180800Z 24007KT 4SM -DZ BR OVC002 10/10 A2959 RMK ST8 CIG VRB 1-3 SLP024=
CYOW;2006-10-18 08:36;SPECI CYOW 180836Z 00000KT 12SM FEW007 OVC027 10/ RMK SF2SC6=
CYOW;2006-10-18 09:00;METAR CYOW 180900Z 23007KT 12SM FEW008 OVC027 13/12 A2962 RMK CF1SC7 SLP031=
CYOW;2006-10-18 10:00;METAR CYOW 181000Z 23010KT 15SM OVC034 13/11 A2965 RMK SC8 SLP041=
CYOW;2006-10-18 11:00;METAR CYOW 181100Z 23010KT 15SM OVC032 13/11 A2967 RMK SC8 SLP050=
CYOW;2006-10-18 12:00;METAR CYOW 181200Z 23009KT 15SM OVC030 12/10 A2970 RMK SC8 SLP060=
CYOW;2006-10-18 13:00;METAR CYOW 181300Z 24010KT 15SM OVC034 12/10 A2973 RMK SC8 SLP069=
CYOW;2006-10-18 14:00;METAR CYOW 181400Z 25013KT 15SM FEW030 FEW035 13/10 A2974 RMK SC1SC1 SLP075=
CYOW;2006-10-18 15:00;METAR CYOW 181500Z 26009G18KT 15SM BKN021 BKN030 15/10 A2976 RMK CU5SC2 SLP080=
CYOW;2006-10-18 16:00;METAR CYOW 181600Z 26013KT 15SM SCT020 BKN042 14/10 A2977 RMK CU3SC4 SLP083=
CYOW;2006-10-18 17:00;METAR CYOW 181700Z 26013KT 15SM OVC032 14/09 A2977 RMK SC8 CU ASOCT SLP085=
CYOW;2006-10-18 18:00;METAR CYOW 181800Z 25009KT 15SM FEW025 OVC031 13/09 A2978 RMK CU1SC7 SLP086=
CYOW;2006-10-18 19:00;METAR CYOW 181900Z 25010KT 15SM FEW025 OVC029 13/09 A2978 RMK CU1SC8 SLP086=
CYOW;2006-10-18 20:00;METAR CYOW 182000Z 25007KT 15SM FEW025 OVC033 13/09 A2979 RMK CU1SC8 SLP090=
CYOW;2006-10-18 21:00;METAR CYOW 182100Z 25003KT 15SM FEW025 OVC029 13/09 A2980 RMK CU1SC8 SLP093=
CYOW;2006-10-18 22:00;METAR CYOW 182200Z 21003KT 15SM FEW027 OVC034 13/10 A2980 RMK SC2SC6 SLP093=
CYOW;2006-10-18 23:00;METAR CYOW 182300Z 20004KT 15SM OVC033 13/10 A2981 RMK SC8 SLP095=
CYOW;2006-10-19 00:00;METAR CYOW 190000Z 20004KT 15SM OVC035 13/10 A2981 RMK SC8 SLP096=
CYOW;2006-10-19 01:00;METAR CYOW 190100Z 21005KT 15SM OVC040 12/10 A2981 RMK SC8 SLP098=
CYOW;2006-10-19 02:00;METAR CYOW 190200Z 21005KT 15SM FEW030 BKN050 12/10 A2981 RMK SC2SC5 SLP098=
CYOW;2006-10-19 03:00;METAR CYOW 190300Z 19005KT 15SM OVC054 12/09 A2980 RMK SC8 SLP092=
CYOW;2006-10-19 04:00;METAR CYOW 190400Z 20002KT 15SM OVC050 12/09 A2979 RMK SC8 SLP089=
CYOW;2006-10-19 05:00;METAR CYOW 190500Z 20005KT 15SM OVC055 12/10 A2978 RMK SC8 SLP087=
CYOW;2006-10-19 06:00;METAR CYOW 190600Z 19006KT 15SM OVC054 12/10 A2977 RMK SC8 SLP082=
CYOW;2006-10-19 07:00;METAR CYOW 190700Z 20005KT 10SM FEW008 OVC051 12/10 A2976 RMK CF1SC8 SLP078=
CYOW;2006-10-19 08:00;METAR CYOW 190800Z 22006KT 8SM SCT007 OVC048 12/10 A2975 RMK SC3SC5 SLP077=
CYOW;2006-10-19 09:00;METAR CYOW 190900Z 20006KT 8SM FEW008 OVC050 12/10 A2974 RMK CF1SC7 SLP073=
CYOW;2006-10-19 10:00;METAR CYOW 191000Z 20008KT 8SM OVC046 12/11 A2973 RMK SC8 SLP071=
CYOW;2006-10-19 11:00;METAR CYOW 191100Z 20008KT 8SM OVC043 12/11 A2973 RMK SC8 SLP068=
CYOW;2006-10-19 12:00;METAR CYOW 191200Z 18009KT 6SM BR OVC055 12/11 A2970 RMK SC8 SLP060=
CYOW;2006-10-19 13:00;METAR CYOW 191300Z 20008KT 6SM BR BKN017 OVC040 13/10 A2971 RMK SC5SC3 SLP061=
CYOW;2006-10-19 13:32;SPECI CYOW 191332Z 19008KT 4SM -RA BR SCT015 OVC040 12/ RMK SC3SC5=
CYOW;2006-10-19 14:00;METAR CYOW 191400Z 18007KT 6SM -RA BR SCT015 OVC041 12/10 A2968 RMK SC3SC5 SLP051=
CYOW;2006-10-19 14:50;SPECI CYOW 191450Z 19008KT 12SM FEW015 BKN039 13/ RMK SC1SC6=
CYOW;2006-10-19 15:00;METAR CYOW 191500Z 19011KT 12SM FEW015 BKN045 BKN070 13/11 A2968 RMK SC1SC6AC1 SLP051=
CYOW;2006-10-19 16:00;METAR CYOW 191600Z 19010KT 10SM FEW015 OVC042 15/11 A2965 RMK SC1SC7 SLP041=
CYOW;2006-10-19 17:00;METAR CYOW 191700Z 20012KT 15SM OVC030 15/11 A2962 RMK SC8 SLP034=
CYOW;2006-10-19 18:00;METAR CYOW 191800Z 21012G18KT 15SM BKN019 OVC025 15/11 A2962 RMK SC6SC2 SLP031=
CYOW;2006-10-19 18:18;SPECI CYOW 191818Z 22009KT 6SM -RA BR OVC016 14/ RMK SC8 VRY LGT RA=
CYOW;2006-10-19 19:00;METAR CYOW 191900Z 22012KT 6SM -DZ BR OVC011 14/12 A2960 RMK SF8 VRY LGT DZ SLP026=
CYOW;2006-10-19 20:00;METAR CYOW 192000Z 23007KT 1SM -DZ BR OVC008 14/12 A2960 RMK FG2SF6 SLP024=
CYOW;2006-10-19 20:11;SPECI CYOW 192011Z 29012KT 4SM -DZ BR OVC010 11/ RMK ST8=
CYOW;2006-10-19 20:46;SPECI CYOW 192046Z 29009KT 4SM -DZ BR OVC015 11/ RMK SF8=
CYOW;2006-10-19 21:00;METAR CYOW 192100Z 29006KT 10SM -RA OVC018 11/09 A2961 RMK SC8 VRY FINE RA SLP028=
CYOW;2006-10-19 21:19;SPECI CYOW 192119Z 30007KT 15SM OVC021 11/ RMK SC8=
CYOW;2006-10-19 22:00;METAR CYOW 192200Z 30008KT 15SM OVC026 10/09 A2962 RMK SC8 SLP031=
CYOW;2006-10-19 22:29;SPECI CYOW 192229Z 29007KT 15SM -DZ FEW007 OVC029 10/ RMK SF2SC6=
CYOW;2006-10-19 23:00;METAR CYOW 192300Z 29006KT 15SM -RA FEW007 OVC030 10/09 A2963 RMK CF1SC7 SLP036=
CYOW;2006-10-19 23:43;SPECI CYOW 192343Z 30005KT 15SM FEW007 OVC033 10/ RMK CF1SC8=
CYOW;2006-10-20 00:00;METAR CYOW 200000Z 30005KT 15SM FEW007 OVC035 10/09 A2963 RMK CF1SC8 SLP035=
CYOW;2006-10-20 01:00;METAR CYOW 200100Z 31007KT 15SM FEW020 OVC035 10/08 A2964 RMK SC2SC6 SLP038=
CYOW;2006-10-20 02:00;METAR CYOW 200200Z 31009KT 15SM OVC016 09/07 A2967 RMK SC8 SLP049=
CYOW;2006-10-20 03:00;METAR CYOW 200300Z 32012KT 15SM FEW008 OVC033 08/04 A2969 RMK CF1SC8 SLP056=
CYOW;2006-10-20 04:00;METAR CYOW 200400Z 33012KT 15SM OVC044 08/04 A2969 RMK SC8 SLP057=
CYOW;2006-10-20 05:00;METAR CYOW 200500Z 35010KT 15SM FEW012 BKN044 07/03 A2970 RMK SC1SC5 SLP060=
CYOW;2006-10-20 06:00;METAR CYOW 200600Z 33007KT 15SM FEW015 BKN050 06/03 A2971 RMK CF1SC5 SLP062=
CYOW;2006-10-20 07:00;METAR CYOW 200700Z 33005KT 15SM FEW015 04/02 A2971 RMK SC1 SLP062=
CYOW;2006-10-20 08:00;METAR CYOW 200800Z 30003KT 15SM FEW020 BKN100 04/02 A2968 RMK SC1AC4 SLP054=
CYOW;2006-10-20 09:00;METAR CYOW 200900Z 35002KT 15SM FEW020 BKN240 04/02 A2968 RMK SC2CI2 SLP054=
CYOW;2006-10-20 10:00;METAR CYOW 201000Z 00000KT 15SM BKN023 04/02 A2969 RMK SC6 SLP056=
CYOW;2006-10-20 11:00;METAR CYOW 201100Z 33006KT 15SM BKN023 04/02 A2969 RMK SC7 SLP057=
CYOW;2006-10-20 12:00;METAR CYOW 201200Z 35005KT 15SM BKN025 04/02 A2968 RMK SC7 SLP054=
CYOW;2006-10-20 13:00;METAR CYOW 201300Z 01009KT 15SM OVC025 05/02 A2964 RMK SC8 SLP041=
CYOW;2006-10-20 14:00;METAR CYOW 201400Z 01010KT 15SM OVC024 06/01 A2963 RMK SC8 SLP038=
CYOW;2006-10-20 15:00;METAR CYOW 201500Z 02008KT 15SM OVC025 06/01 A2963 RMK SC8 SLP038=
CYOW;2006-10-20 16:00;METAR CYOW 201600Z 01007KT 15SM OVC023 06/01 A2962 RMK SC8 SLP032=
CYOW;2006-10-20 16:26;SPECI CYOW 201626Z 34009KT 15SM -RA OVC024 06/ RMK SC8=
CYOW;2006-10-20 17:00;METAR CYOW 201700Z 36008KT 4SM -RA BR BKN019 OVC033 05/02 A2960 RMK SC7SC1 SLP028=
CYOW;2006-10-20 18:00;METAR CYOW 201800Z 35008KT 3SM -RA BR BKN015 OVC024 04/02 A2959 RMK SC6SC2 SLP024=
CYOW;2006-10-20 19:00;METAR CYOW 201900Z 34011KT 4SM RA BR OVC012 03/01 A2960 RMK NS8 MDT RAIN PST HR SLP028=
CYOW;2006-10-20 20:00;METAR CYOW 202000Z 33009KT 4SM RA BR OVC010 03/01 A2961 RMK NS8 SLP032=
CYOW;2006-10-20 21:00;METAR CYOW 202100Z 32013KT 10SM -RA OVC012 03/01 A2963 RMK NS8 SLP039=
CYOW;2006-10-20 21:45;SPECI CYOW 202145Z 32011KT 12SM -RA FEW013 OVC033 03/ RMK SF2NS6=
CYOW;2006-10-20 22:00;METAR CYOW 202200Z 31008KT 12SM -RA FEW017 BKN030 04/01 A2965 RMK CF2SC5 SLP046=
CYOW;2006-10-20 23:00;METAR CYOW 202300Z 31011KT 15SM FEW020 BKN080 04/01 A2967 RMK CF2AC6 SLP052=
CYOW;2006-10-21 00:00;METAR CYOW 210000Z 31011KT 15SM FEW020 BKN097 OVC130 04/01 A2968 RMK SF2AC3AC3 SLP056=
CYOW;2006-10-21 01:00;METAR CYOW 210100Z 30012G20KT 15SM FEW025 BKN030 OVC100 04/00 A2971 RMK CF1SC5AC2 SLP064=
CYOW;2006-10-21 02:00;METAR CYOW 210200Z 31013G18KT 15SM BKN033 03/M01 A2972 RMK SC5 SLP068=
CYOW;2006-10-21 03:00;METAR CYOW 210300Z 30011G16KT 15SM FEW020 OVC036 03/M01 A2974 RMK SC2SC6 SLP074=
CYOW;2006-10-21 04:00;METAR CYOW 210400Z 30012KT 15SM OVC033 03/M01 A2975 RMK SC8 SLP078=
CYOW;2006-10-21 05:00;METAR CYOW 210500Z 31015KT 15SM OVC030 03/M03 A2976 RMK SC8 SLP081=
CYOW;2006-10-21 06:00;METAR CYOW 210600Z 30015KT 15SM OVC034 03/M04 A2978 RMK SC8 SLP090=
CYOW;2006-10-21 07:00;METAR CYOW 210700Z 31013G18KT 15SM OVC031 03/M04 A2980 RMK SC8 SLP097=
CYOW;2006-10-21 07:15;SPECI CYOW 210715Z 31012G17KT 15SM OVC032 02/ RMK SC8=
CYOW;2006-10-21 08:00;METAR CYOW 210800Z 33012G18KT 15SM OVC031 02/M04 A2982 RMK SC8 SLP101=
CYOW;2006-10-21 09:00;METAR CYOW 210900Z 32012G17KT 15SM OVC033 02/M04 A2984 RMK SC8 SLP109=
CYOW;2006-10-21 10:00;METAR CYOW 211000Z 32010G16KT 15SM OVC033 02/M04 A2986 RMK SC8 SLP115=
CYOW;2006-10-21 11:00;METAR CYOW 211100Z 31007KT 15SM OVC033 02/M04 A2988 RMK SC8 SLP123=
CYOW;2006-10-21 12:00;METAR CYOW 211200Z 31007KT 15SM OVC030 02/M04 A2990 RMK SC8 SLP130=
CYOW;2006-10-21 13:00;METAR CYOW 211300Z 31007KT 15SM BKN033 03/M03 A2991 RMK SC7 SLP134=
CYOW;2006-10-21 14:00;METAR CYOW 211400Z 31010KT 15SM BKN038 03/M03 A2993 RMK SC6 SLP141=
CYOW;2006-10-21 15:00;METAR CYOW 211500Z 31014KT 15SM OVC033 03/M03 A2994 RMK SC8 SLP145=
CYOW;2006-10-21 16:00;METAR CYOW 211600Z 31011G17KT 15SM BKN037 04/M03 A2995 RMK SC7 SLP148=
CYOW;2006-10-21 17:00;METAR CYOW 211700Z 32014KT 15SM BKN038 04/M04 A2996 RMK SC6 SLP149=
CYOW;2006-10-21 18:00;METAR CYOW 211800Z 30012G18KT 15SM SCT040 06/M04 A2995 RMK SC4 SLP147=
CYOW;2006-10-21 19:00;METAR CYOW 211900Z 30012G17KT 15SM SCT044 06/M04 A2995 RMK SC3 SLP147=
CYOW;2006-10-21 20:00;METAR CYOW 212000Z 32014G19KT 15SM FEW050 06/M05 A2996 RMK SC2 SLP151=
CYOW;2006-10-21 21:00;METAR CYOW 212100Z 30011KT 15SM FEW050 07/M04 A2998 RMK SC1 SLP157=
CYOW;2006-10-21 22:00;METAR CYOW 212200Z 32007KT 15SM FEW050 05/M04 A2999 RMK SC1 SLP159=
CYOW;2006-10-21 23:00;METAR CYOW 212300Z 33003KT 15SM FEW100 04/M05 A3000 RMK AC1 SLP165=
CYOW;2006-10-22 01:00;METAR CYOW 220100Z 01002KT 15SM SKC 04/M05 A3003 RMK SLP173=
CYOW;2006-10-22 01:32;SPECI CYOW 220132Z 06003KT 15SM SKC 02/=
CYOW;2006-10-22 02:00;METAR CYOW 220200Z 00000KT 15SM FEW100 02/M05 A3002 RMK AC1 SLP171=
CYOW;2006-10-22 03:00;METAR CYOW 220300Z 20003KT 15SM FEW060 02/M04 A3003 RMK SC1 SLP173=
CYOW;2006-10-22 04:00;METAR CYOW 220400Z 20002KT 15SM SKC 01/M04 A3003 RMK SLP173=
CYOW;2006-10-22 05:00;METAR CYOW 220500Z 06003KT 15SM SKC 01/M04 A3003 RMK SLP175=
CYOW;2006-10-22 06:00;METAR CYOW 220600Z 11002KT 15SM SKC 01/M05 A3004 RMK SLP177=
CYOW;2006-10-22 07:00;METAR CYOW 220700Z 06005KT 15SM SKC M01/M05 A3004 RMK SLP176=
CYOW;2006-10-22 08:00;METAR CYOW 220800Z 06005KT 15SM SKC M01/M05 A3003 RMK SLP174=
CYOW;2006-10-22 09:00;METAR CYOW 220900Z 11003KT 15SM SKC M03/M06 A3003 RMK SLP175=
CYOW;2006-10-22 10:00;METAR CYOW 221000Z 11004KT 15SM FEW060 M01/M05 A3002 RMK SC1 SLP172=
CYOW;2006-10-22 11:00;METAR CYOW 221100Z 11005KT 15SM FEW060 BKN240 M01/M05 A3002 RMK SC1CI2 FROIN SLP170=
CYOW;2006-10-22 12:00;METAR CYOW 221200Z 09004KT 12SM BKN072 OVC240 M01/M04 A3001 RMK AC5CI2 SLP168=
CYOW;2006-10-22 13:00;METAR CYOW 221300Z 09004KT 12SM BKN056 BKN072 OVC240 00/M03 A3001 RMK SC5AC2CS2 SLP167=
CYOW;2006-10-22 14:00;METAR CYOW 221400Z 09006KT 12SM SCT056 OVC072 01/M03 A2999 RMK SC3AC5 SLP163=
CYOW;2006-10-22 15:00;METAR CYOW 221500Z 09008KT 12SM SCT050 OVC070 02/M02 A2996 RMK SC3AC5 SLP150=
CYOW;2006-10-22 16:00;METAR CYOW 221600Z 09008KT 12SM OVC044 03/M03 A2994 RMK SC8 SLP144=
CYOW;2006-10-22 16:33;SPECI CYOW 221633Z 09012KT 10SM -SN OVC040 03/ RMK NS8=
CYOW;2006-10-22 17:00;METAR CYOW 221700Z 09010KT 4SM -SN OVC036 02/M02 A2991 RMK NS8 SLP134=
CYOW;2006-10-22 17:10;SPECI CYOW 221710Z 09011KT 2SM -SN OVC030 02/ RMK NS8=
CYOW;2006-10-22 18:00;METAR CYOW 221800Z 08011KT 3SM -RASN OVC033 01/M01 A2987 RMK NS8 SLP119=
CYOW;2006-10-22 18:41;SPECI CYOW 221841Z 08012KT 4SM -RA FEW004 OVC032 01/ RMK SF2NS6=
CYOW;2006-10-22 19:00;METAR CYOW 221900Z 08013KT 4SM -RA SCT004 OVC028 01/00 A2982 RMK SF3NS5 SLP104=
CYOW;2006-10-22 20:00;METAR CYOW 222000Z 08016KT 5SM -RA SCT004 OVC037 02/00 A2979 RMK SF3NS5 SLP093=
CYOW;2006-10-22 21:00;METAR CYOW 222100Z 08016G21KT 3SM -RA BR SCT004 OVC032 02/01 A2977 RMK SF4NS4 SLP088=
CYOW;2006-10-22 22:00;METAR CYOW 222200Z 09014G21KT 3SM -RA BR BKN010 OVC020 02/00 A2975 RMK SF6NS2 SLP081=
CYOW;2006-10-22 22:13;SPECI CYOW 222213Z 08015KT 3SM -RA BR OVC007 02/ RMK SF8=
CYOW;2006-10-22 22:48;SPECI CYOW 222248Z 08015KT 4SM -RA BR OVC007 02/ RMK SF8=
CYOW;2006-10-22 23:00;METAR CYOW 222300Z 07014KT 4SM -RA BR OVC007 02/00 A2973 RMK SF8 SLP074=
CYOW;2006-10-23 00:00;METAR CYOW 230000Z 08016KT 5SM -RA BR OVC006 02/01 A2971 RMK SF8 SLP066=
CYOW;2006-10-23 01:00;METAR CYOW 230100Z 08017KT 5SM -RA BR OVC006 02/01 A2969 RMK SF8 SLP060=
CYOW;2006-10-23 02:00;METAR CYOW 230200Z 08014KT 5SM -RA BR OVC005 03/01 A2968 RMK SF8 SLP054=
CYOW;2006-10-23 03:00;METAR CYOW 230300Z 08015KT 4SM -RA BR OVC005 03/01 A2965 RMK SF8 SLP046=
CYOW;2006-10-23 04:00;METAR CYOW 230400Z 08014KT 4SM -RA BR OVC006 03/01 A2963 RMK SF8 SLP038=
CYOW;2006-10-23 05:00;METAR CYOW 230500Z 07012KT 4SM -RA BR OVC005 03/01 A2961 RMK SF8 SLP032=
CYOW;2006-10-23 05:34;SPECI CYOW 230534Z 07008KT 2SM -RA BR OVC004 02/ RMK SF8=
CYOW;2006-10-23 06:00;METAR CYOW 230600Z 07009KT 2SM -RA BR OVC004 02/01 A2959 RMK SF8 SLP027=
CYOW;2006-10-23 06:33;SPECI CYOW 230633Z 07010KT 5SM -RA BR OVC004 02/ RMK SF8=
CYOW;2006-10-23 07:00;METAR CYOW 230700Z 07009KT 6SM -RA BR OVC004 02/01 A2958 RMK SF8 SLP022=
CYOW;2006-10-23 07:18;SPECI CYOW 230718Z 07008KT 5SM -RA BR OVC003 02/ RMK ST8=
CYOW;2006-10-23 08:00;METAR CYOW 230800Z 07008KT 4SM -RA BR OVC003 02/01 A2957 RMK ST8 SLP018=
CYOW;2006-10-23 08:32;SPECI CYOW 230832Z 07008KT 3SM BR OVC003 02/ RMK ST8=
CYOW;2006-10-23 09:00;METAR CYOW 230900Z 06007KT 5SM BR OVC003 02/01 A2956 RMK ST8 SLP015=
CYOW;2006-10-23 09:34;SPECI CYOW 230934Z 07008KT 2SM BR OVC002 02/ RMK ST8=
CYOW;2006-10-23 09:52;SPECI CYOW 230952Z 07006KT 1SM -DZ BR OVC002 02/ RMK FG2ST6=
CYOW;2006-10-23 10:00;METAR CYOW 231000Z 06005KT 1SM -DZ BR OVC002 02/01 A2956 RMK FG2ST6 SLP015=
CYOW;2006-10-23 10:08;SPECI CYOW 231008Z 06006KT 1SM -RADZ BR OVC002 02/ RMK FG2ST6=
CYOW;2006-10-23 11:00;METAR CYOW 231100Z 06006KT 3/4SM -DZ BR OVC002 03/02 A2956 RMK FG3ST5 SLP016=
CYOW;2006-10-23 12:00;METAR CYOW 231200Z 05004KT 3/4SM -DZ BR OVC002 03/02 A2957 RMK FG3ST5 SLP018=
CYOW;2006-10-23 13:00;METAR CYOW 231300Z 00000KT 3/4SM -DZ BR OVC002 03/02 A2959 RMK FG3ST5 SLP023=
CYOW;2006-10-23 13:43;SPECI CYOW 231343Z 00000KT 1SM BR OVC003 03/ RMK FG2ST6=
CYOW;2006-10-23 14:00;METAR CYOW 231400Z 28002KT 1SM BR OVC002 03/02 A2959 RMK FG2ST6 SLP026=
CYOW;2006-10-23 15:00;METAR CYOW 231500Z 27005KT 3SM -DZ BR OVC002 03/03 A2960 RMK ST8 SLP029=
CYOW;2006-10-23 15:29;SPECI CYOW 231529Z 27008KT 4SM -RA BR OVC010 04/ RMK SC8=
CYOW;2006-10-23 16:00;METAR CYOW 231600Z 29008KT 8SM -RA SCT008 OVC012 04/03 A2961 RMK SF3SC5 SLP031=
CYOW;2006-10-23 16:31;SPECI CYOW 231631Z 28009KT 12SM OVC012 04/ RMK SC8=
CYOW;2006-10-23 16:50;SPECI CYOW 231650Z 28007KT 8SM -DZ OVC006 04/ RMK SF8=
CYOW;2006-10-23 17:00;METAR CYOW 231700Z 27007KT 10SM -DZ SCT006 OVC014 05/03 A2961 RMK SF4SC4 SLP032=
CYOW;2006-10-23 18:00;METAR CYOW 231800Z 27008KT 12SM OVC014 05/02 A2961 RMK SC8 SLP032=
CYOW;2006-10-23 19:00;METAR CYOW 231900Z 27008KT 15SM OVC017 06/02 A2962 RMK SC8 SLP033=
CYOW;2006-10-23 20:00;METAR CYOW 232000Z 29007KT 15SM FEW020 OVC033 05/02 A2962 RMK CF2SC6 SLP035=
CYOW;2006-10-23 21:00;METAR CYOW 232100Z 28007KT 15SM SCT017 OVC030 05/02 A2963 RMK SC3SC5 SLP039=
CYOW;2006-10-23 22:00;METAR CYOW 232200Z 27005KT 15SM SCT020 OVC030 04/02 A2964 RMK CF3SC5 SLP042=
CYOW;2006-10-23 23:00;METAR CYOW 232300Z 28005KT 15SM FEW020 SCT030 OVC045 04/01 A2965 RMK CF1SC3SC4 SLP043=
CYOW;2006-10-24 00:00;METAR CYOW 240000Z 24004KT 15SM FEW024 FEW030 OVC046 04/01 A2965 RMK CF1SC2SC6 SLP046=
CYOW;2006-10-24 01:00;METAR CYOW 240100Z 25005KT 15SM FEW024 OVC048 04/02 A2965 RMK CF1SC8 SLP046=
CYOW;2006-10-24 02:00;METAR CYOW 240200Z 25003KT 15SM FEW018 BKN048 OVC100 04/01 A2965 RMK SC1SC5AC2 SLP043=
CYOW;2006-10-24 03:00;METAR CYOW 240300Z 26004KT 15SM SCT018 BKN030 OVC100 04/02 A2964 RMK SC3SC3AC2 SLP042=
CYOW;2006-10-24 04:00;METAR CYOW 240400Z 27005KT 15SM SCT018 BKN030 OVC100 04/02 A2963 RMK SC3SC4AC1 SLP038=
CYOW;2006-10-24 04:20;SPECI CYOW 240420Z 27004KT 10SM FEW009 BKN018 OVC030 03/ RMK SF2SC5SC2=
CYOW;2006-10-24 05:00;METAR CYOW 240500Z 27006KT 10SM FEW009 BKN016 OVC030 04/02 A2962 RMK SF1SC6SC2 SLP036=
CYOW;2006-10-24 05:16;SPECI CYOW 240516Z 27007KT 10SM OVC013 04/ RMK SC8=
CYOW;2006-10-24 06:00;METAR CYOW 240600Z 27006KT 10SM OVC014 03/01 A2962 RMK SC8 SLP033=
CYOW;2006-10-24 07:00;METAR CYOW 240700Z 26006KT 10SM OVC014 03/01 A2962 RMK SC8 SLP035=
CYOW;2006-10-24 07:32;SPECI CYOW 240732Z 26006KT 10SM FEW008 OVC014 03/ RMK SF2SC6=
CYOW;2006-10-24 07:51;SPECI CYOW 240751Z 26006KT 8SM -DZ SCT008 014 03/ RMK SF3SC5=
CYOW;2006-10-24 08:00;METAR CYOW 240800Z 27006KT 8SM -DZ SCT008 OVC014 03/01 A2962 RMK SF3SC5 SLP035=
CYOW;2006-10-24 08:08;SPECI CYOW 240808Z 27006KT 6SM -RADZ BR BKN008 OVC014 03/ RMK ST5SC3=
CYOW;2006-10-24 08:25;SPECI CYOW 240825Z 27007KT 8SM -RA BKN009 OVC014 03/ RMK ST5SC3=
CYOW;2006-10-24 09:00;METAR CYOW 240900Z 27005KT 8SM -RA BKN008 OVC013 03/02 A2962 RMK SF5SC3 SLP033=
CYOW;2006-10-24 10:00;METAR CYOW 241000Z 28004KT 10SM -RA BKN007 OVC012 03/02 A2962 RMK SF6SC2 SLP034=
CYOW;2006-10-24 11:00;METAR CYOW 241100Z 31006KT 10SM -RA BKN014 OVC025 03/02 A2963 RMK SF5SC3 VRY LGT RA SLP037=
CYOW;2006-10-24 12:00;METAR CYOW 241200Z 31006KT 10SM -RA BKN012 OVC025 03/01 A2964 RMK SF5SC3 SLP040=
CYOW;2006-10-24 13:00;METAR CYOW 241300Z 30007KT 12SM -RA BKN010 OVC020 03/02 A2965 RMK SF6SC2 SLP045=
CYOW;2006-10-24 13:31;SPECI CYOW 241331Z 31006KT 12SM -RADZ BKN011 OVC020 04/ RMK SF6SC2=
CYOW;2006-10-24 14:00;METAR CYOW 241400Z 31007KT 12SM -RADZ BKN008 OVC020 04/02 A2966 RMK SF7SC1 SLP047=
CYOW;2006-10-24 15:00;METAR CYOW 241500Z 32009KT 12SM -RADZ BKN011 OVC020 05/03 A2966 RMK SF7SC1 SLP048=
CYOW;2006-10-24 16:00;METAR CYOW 241600Z 33011KT 15SM -RA BKN016 OVC020 05/03 A2966 RMK SC7SC1 SLP049=
CYOW;2006-10-24 16:17;SPECI CYOW 241617Z 33011KT 15SM BKN016 BKN025 05/ RMK SC6SC2=
CYOW;2006-10-24 17:00;METAR CYOW 241700Z 32010KT 15SM BKN022 06/03 A2967 RMK SC7 SLP050=
CYOW;2006-10-24 18:00;METAR CYOW 241800Z 33011G17KT 15SM BKN024 07/02 A2967 RMK SC7 SLP051=
CYOW;2006-10-24 18:48;SPECI CYOW 241848Z 31011KT 15SM -RA BKN020 06/ RMK SC7=
CYOW;2006-10-24 19:00;METAR CYOW 241900Z 30009KT 15SM BKN024 06/04 A2968 RMK SC7 SLP054=
CYOW;2006-10-24 19:06;SPECI CYOW 241906Z 31012KT 15SM -RA OVC022 06/ RMK SC8=
CYOW;2006-10-24 20:00;METAR CYOW 242000Z 30010KT 15SM -RA BKN020 OVC035 06/03 A2969 RMK SC6SC2 SLP059=
CYOW;2006-10-24 21:00;METAR CYOW 242100Z 29010KT 15SM -RA BKN023 OVC035 06/03 A2971 RMK SC7SC1 SLP063=
CYOW;2006-10-24 22:00;METAR CYOW 242200Z 30012KT 15SM -RA BKN026 OVC033 06/03 A2972 RMK SC7SC1 VRY LGT RA SLP069=
CYOW;2006-10-24 23:00;METAR CYOW 242300Z 28009KT 15SM -RA FEW011 OVC020 05/03 A2973 RMK CF2SC6 SLP073=
CYOW;2006-10-25 00:00;METAR CYOW 250000Z 30012KT 15SM -RA FEW010 OVC023 05/03 A2974 RMK CF2SC6 SLP077=
CYOW;2006-10-25 01:00;METAR CYOW 250100Z 29011KT 15SM -RA FEW010 OVC022 05/03 A2975 RMK CF2SC6 VRY LGT RA SLP078=
CYOW;2006-10-25 02:00;METAR CYOW 250200Z 30013G18KT 15SM -RA FEW010 OVC020 05/03 A2975 RMK CF2SC6 SLP080=
CYOW;2006-10-25 03:00;METAR CYOW 250300Z 30011G17KT 15SM -RA OVC015 04/03 A2976 RMK SC8 CIG RAG SLP082=
CYOW;2006-10-25 03:17;SPECI CYOW 250317Z 30009KT 15SM SCT008 OVC015 04/ RMK SF3SC5 CIG RAG=
CYOW;2006-10-25 04:00;METAR CYOW 250400Z 30009G15KT 15SM FEW009 OVC013 04/03 A2977 RMK SF1SC7 CIG RAG SLP085=
CYOW;2006-10-25 04:21;SPECI CYOW 250421Z 33013KT 15SM FEW013 SCT029 OVC110 04/ RMK SC2SC2AC4=
CYOW;2006-10-25 05:00;METAR CYOW 250500Z 31010G16KT 15SM FEW030 OVC080 04/02 A2978 RMK SC1AC7 SLP089=
CYOW;2006-10-25 06:00;METAR CYOW 250600Z 32013KT 15SM FEW010 FEW030 BKN120 04/01 A2979 RMK CF1SC2AC4 SLP092=
CYOW;2006-10-25 07:00;METAR CYOW 250700Z 31012KT 15SM BKN032 BKN120 04/02 A2980 RMK SC5AC2 SLP096=
CYOW;2006-10-25 08:00;METAR CYOW 250800Z 31014KT 15SM BKN033 OVC090 04/01 A2982 RMK SC6AC2 SLP100=
CYOW;2006-10-25 09:00;METAR CYOW 250900Z 31011G18KT 15SM SCT028 OVC120 04/01 A2983 RMK SC3AC5 SLP106=
CYOW;2006-10-25 10:00;METAR CYOW 251000Z 31012G18KT 15SM BKN028 04/00 A2985 RMK SC6 SLP111=
CYOW;2006-10-25 11:00;METAR CYOW 251100Z 31015KT 15SM BKN028 04/00 A2986 RMK SC6 SLP115=
CYOW;2006-10-25 12:00;METAR CYOW 251200Z 31013KT 15SM FEW030 SCT120 04/01 A2988 RMK SC2AC2 SLP122=
CYOW;2006-10-25 13:00;METAR CYOW 251300Z 31011G16KT 15SM FEW020 BKN048 04/01 A2989 RMK SC1SC4 SLP127=
CYOW;2006-10-25 14:00;METAR CYOW 251400Z 31013G18KT 15SM BKN020 BKN045 05/01 A2991 RMK SC6SC1 SLP133=
CYOW;2006-10-25 17:00;METAR CYOW 251700Z 31016G24KT 15SM SCT025 BKN064 07/01 A2992 RMK SC3SC2 SLP135=
CYOW;2006-10-25 18:00;METAR CYOW 251800Z 31013G21KT 15SM -RA BKN030 07/01 A2992 RMK SC7 SLP135=
CYOW;2006-10-25 18:27;SPECI CYOW 251827Z 31018KT 15SM SCT031 BKN047 07/ RMK SC4SC2 CU ASOCT=
CYOW;2006-10-25 19:00;METAR CYOW 251900Z 29015G20KT 15SM BKN031 08/01 A2992 RMK SC6 CU ASOCT SLP137=
CYOW;2006-10-25 20:00;METAR CYOW 252000Z 30014G20KT 15SM -SHRA BKN031 07/00 A2994 RMK SC6 CU ASOCT SLP141=
CYOW;2006-10-25 20:10;SPECI CYOW 252010Z 30013KT 15SM BKN037 08/ RMK SC6 CU ASOCT=
CYOW;2006-10-25 21:00;METAR CYOW 252100Z 30012G17KT 15SM BKN037 07/M01 A2995 RMK SC6 CU ASOCT SLP146=
CYOW;2006-10-25 21:14;SPECI CYOW 252114Z 31013G19KT 15SM -SHRA BKN037 06/ RMK SC7 CU ASOCT=
CYOW;2006-10-25 22:00;METAR CYOW 252200Z 29013KT 15SM BKN034 BKN060 05/00 A2997 RMK SC5SC1 CU ASOCT SLP154=
CYOW;2006-10-25 23:00;METAR CYOW 252300Z 29013G19KT 15SM VCSH BKN048 05/M00 A2999 RMK SC6 SH N SLP161=
CYOW;2006-10-26 01:00;METAR CYOW 260100Z 30013KT 15SM FEW030 BKN057 04/M00 A3002 RMK SC1SC6 SLP170=
CYOW;2006-10-26 02:00;METAR CYOW 260200Z 30010KT 15SM FEW025 FEW055 03/M01 A3002 RMK SC1SC2 SLP170=
CYOW;2006-10-26 03:00;METAR CYOW 260300Z 29011KT 15SM FEW025 FEW055 03/M01 A3002 RMK CF1SC1 SLP171=
CYOW;2006-10-26 03:44;SPECI CYOW 260344Z 29007KT 15SM SCT025 02/ RMK SC4=
CYOW;2006-10-26 04:00;METAR CYOW 260400Z 31009KT 15SM FEW025 02/M01 A3003 RMK SC2 SLP174=
CYOW;2006-10-26 05:00;METAR CYOW 260500Z 30010KT 15SM FEW025 FEW060 02/M01 A3003 RMK SC1SC1 SLP175=
CYOW;2006-10-26 06:00;METAR CYOW 260600Z 29009KT 15SM BKN030 02/M01 A3005 RMK SC6 SLP180=
CYOW;2006-10-26 07:00;METAR CYOW 260700Z 29009KT 15SM BKN031 02/M01 A3006 RMK SC6 SLP184=
CYOW;2006-10-26 08:00;METAR CYOW 260800Z 30007KT 15SM OVC028 03/M01 A3007 RMK SC8 SLP187=
CYOW;2006-10-26 09:00;METAR CYOW 260900Z 31011KT 15SM OVC028 03/M01 A3008 RMK SC8 SLP191=
CYOW;2006-10-26 10:00;METAR CYOW 261000Z 31012KT 15SM BKN022 OVC070 03/M01 A3010 RMK SC6AC2 SLP196=
CYOW;2006-10-26 11:00;METAR CYOW 261100Z 31009KT 15SM FEW030 BKN049 02/M01 A3011 RMK SC2SC4 SLP199=
CYOW;2006-10-26 12:00;METAR CYOW 261200Z 30010KT 15SM BKN048 03/M02 A3012 RMK SC7 SLP203=
CYOW;2006-10-26 13:00;METAR CYOW 261300Z 30011KT 15SM BKN046 03/M01 A3013 RMK SC7 SLP206=
CYOW;2006-10-26 14:00;METAR CYOW 261400Z 32009KT 15SM BKN045 04/M01 A3014 RMK SC7 SLP211=
CYOW;2006-10-26 15:00;METAR CYOW 261500Z 29011G16KT 15SM BKN023 04/M01 A3015 RMK SC7 SLP215=
CYOW;2006-10-26 16:00;METAR CYOW 261600Z 33007KT 15SM BKN033 05/M03 A3015 RMK SC7 SLP215=
CYOW;2006-10-26 17:00;METAR CYOW 261700Z 32011G16KT 15SM OVC030 05/M03 A3015 RMK SC8 SLP214=
CYOW;2006-10-26 18:00;METAR CYOW 261800Z 30012KT 15SM BKN035 05/M03 A3014 RMK SC7 SLP213=
CYOW;2006-10-26 19:00;METAR CYOW 261900Z 29011KT 15SM BKN036 06/M02 A3014 RMK SC7 SLP212=
CYOW;2006-10-26 20:00;METAR CYOW 262000Z 30010G15KT 15SM BKN035 05/M03 A3014 RMK SC7 SLP213=
CYOW;2006-10-26 21:00;METAR CYOW 262100Z 27008KT 15SM BKN038 05/M03 A3014 RMK SC7 SLP212=
CYOW;2006-10-26 22:00;METAR CYOW 262200Z 28008KT 15SM BKN038 04/M03 A3015 RMK SC7 SLP216=
CYOW;2006-10-26 23:00;METAR CYOW 262300Z 28006KT 15SM BKN036 04/M03 A3017 RMK SC7 SLP222=
CYOW;2006-10-27 00:00;METAR CYOW 270000Z 31006KT 15SM BKN035 03/M03 A3018 RMK SC6 SLP225=
CYOW;2006-10-27 01:00;METAR CYOW 270100Z 31004KT 15SM BKN032 02/M03 A3018 RMK SC6 SLP225=
CYOW;2006-10-27 02:00;METAR CYOW 270200Z 33003KT 15SM BKN032 02/M03 A3018 RMK SC5 SLP226=
CYOW;2006-10-27 03:00;METAR CYOW 270300Z 33004KT 15SM BKN031 02/M03 A3018 RMK SC6 SLP226=
CYOW;2006-10-27 04:00;METAR CYOW 270400Z 01005KT 15SM BKN029 03/M03 A3019 RMK SC7 SLP227=
CYOW;2006-10-27 05:00;METAR CYOW 270500Z 34007KT 15SM BKN026 02/M03 A3018 RMK SC5 SLP226=
CYOW;2006-10-27 06:00;METAR CYOW 270600Z 31004KT 15SM BKN029 01/M03 A3019 RMK SC7 SLP227=
CYOW;2006-10-27 07:00;METAR CYOW 270700Z 36003KT 15SM FEW025 01/M04 A3017 RMK SC2 SLP222=
CYOW;2006-10-27 08:00;METAR CYOW 270800Z 27003KT 15SM BKN025 00/M03 A3017 RMK SC6 SLP222=
CYOW;2006-10-27 09:00;METAR CYOW 270900Z 00000KT 15SM OVC026 01/M03 A3017 RMK SC8 SLP223=
CYOW;2006-10-27 10:00;METAR CYOW 271000Z 00000KT 15SM OVC026 01/M03 A3018 RMK SC8 SLP225=
CYOW;2006-10-27 11:00;METAR CYOW 271100Z 27002KT 15SM BKN026 02/M03 A3018 RMK SC7 SLP225=
CYOW;2006-10-27 12:00;METAR CYOW 271200Z 00000KT 15SM OVC023 02/M04 A3017 RMK SC8 SLP221=
CYOW;2006-10-27 13:00;METAR CYOW 271300Z 00000KT 15SM OVC023 02/M03 A3017 RMK SC8 SLP223=
CYOW;2006-10-27 14:00;METAR CYOW 271400Z 19003KT 15SM OVC023 03/M03 A3018 RMK SC8 SLP225=
CYOW;2006-10-27 15:00;METAR CYOW 271500Z 15004KT 15SM OVC023 03/M03 A3017 RMK SC8 SLP223=
CYOW;2006-10-27 16:00;METAR CYOW 271600Z 09004KT 15SM BKN024 04/M02 A3014 RMK SC5 SLP210=
CYOW;2006-10-27 17:00;METAR CYOW 271700Z 00000KT 15SM SCT025 BKN200 05/M02 A3010 RMK SC3CI2 SLP198=
CYOW;2006-10-27 18:00;METAR CYOW 271800Z 10003KT 15SM FEW025 BKN210 06/M02 A3009 RMK SC2CI3 SLP193=
CYOW;2006-10-27 19:00;METAR CYOW 271900Z 09004KT 15SM BKN180 06/M02 A3005 RMK AC6 SLP180=
CYOW;2006-10-27 21:00;METAR CYOW 272100Z 11005KT 15SM FEW150 SCT180 BKN220 05/M02 A3001 RMK AC2AC1CS2 SLP167=
CYOW;2006-10-27 22:00;METAR CYOW 272200Z 10003KT 15SM BKN140 BKN180 BKN220 05/M02 A2999 RMK AC5AC1CS1 SLP161=
CYOW;2006-10-27 23:00;METAR CYOW 272300Z 07008KT 15SM BKN120 OVC170 05/M02 A2997 RMK AC6AC2 SLP153=
CYOW;2006-10-28 00:00;METAR CYOW 280000Z 08010KT 15SM OVC110 04/M01 A2993 RMK AC8 SLP141=
CYOW;2006-10-28 01:00;METAR CYOW 280100Z 08010KT 15SM OVC100 04/M01 A2990 RMK AS8 SLP131=
CYOW;2006-10-28 02:00;METAR CYOW 280200Z 08014KT 15SM OVC100 04/M01 A2986 RMK AS8 SLP118=
CYOW;2006-10-28 03:00;METAR CYOW 280300Z 09013G21KT 15SM SCT082 OVC120 04/M01 A2981 RMK AC4AS4 SLP098=
CYOW;2006-10-28 04:00;METAR CYOW 280400Z 09014KT 15SM BKN064 OVC080 04/M01 A2977 RMK SC6AC2 SLP085=
CYOW;2006-10-28 04:21;SPECI CYOW 280421Z 09014KT 15SM -RA OVC048 04/ RMK SC8=
CYOW;2006-10-28 05:00;METAR CYOW 280500Z 09010G15KT 15SM -RA OVC036 04/M00 A2973 RMK SC8 SLP073=
CYOW;2006-10-28 06:00;METAR CYOW 280600Z 09012KT 8SM -RA OVC030 03/01 A2968 RMK SC8 SLP056=
CYOW;2006-10-28 07:00;METAR CYOW 280700Z 09013KT 5SM -RA BR OVC030 03/01 A2962 RMK SC8 SLP035=
CYOW;2006-10-28 07:35;SPECI CYOW 280735Z 09015G22KT 5SM -RA BR FEW005 OVC034 03/ RMK CF1SC7=
CYOW;2006-10-28 08:00;METAR CYOW 280800Z 08016KT 4SM -RA BR FEW005 OVC036 03/01 A2953 RMK CF1SC7 SLP006=
CYOW;2006-10-28 08:35;SPECI CYOW 280835Z 08017KT 4SM -RA BR BKN005 OVC030 03/ RMK CF6SC2=
CYOW;2006-10-28 09:00;METAR CYOW 280900Z 08017G22KT 4SM -RA BR FEW004 OVC040 03/02 A2948 RMK CF2SC6 SLP988=
CYOW;2006-10-28 09:49;SPECI CYOW 280949Z 08016G21KT 5SM -RA BR BKN003 OVC007 03/ RMK CF6NS2=
CYOW;2006-10-28 10:00;METAR CYOW 281000Z 09017G25KT 8SM -RA BKN004 OVC007 03/02 A2944 RMK CF6NS2 SLP973=
CYOW;2006-10-28 12:00;METAR CYOW 281200Z 09017KT 4SM -RA BR OVC004 04/03 A2933 RMK SF8 SLP938=
CYOW;2006-10-28 13:00;METAR CYOW 281300Z 09015KT 4SM -RA BR OVC004 04/03 A2929 RMK SF8 SLP922=
CYOW;2006-10-28 14:00;METAR CYOW 281400Z 09015G20KT 3SM -RA BR OVC004 05/04 A2924 RMK SF8 SLP906=
CYOW;2006-10-28 15:00;METAR CYOW 281500Z 09015G20KT 4SM -RA BR OVC004 05/04 A2917 RMK SF8 PRESFR SLP883=
CYOW;2006-10-28 16:00;METAR CYOW 281600Z 09016G21KT 3SM -RA BR OVC004 06/05 A2912 RMK SF8 SLP866=
CYOW;2006-10-28 16:42;SPECI CYOW 281642Z 08018KT 2SM -RA BR OVC004 06/ RMK SF8=
CYOW;2006-10-28 17:00;METAR CYOW 281700Z 08014G22KT 1 1/2SM -RA BR OVC004 06/05 A2905 RMK SF8 PRESFR SLP841=
CYOW;2006-10-28 18:00;METAR CYOW 281800Z 08013G19KT 2 1/2SM -RA BR OVC004 06/05 A2899 RMK SF8 PRESFR SLP821=
CYOW;2006-10-28 19:00;METAR CYOW 281900Z 09012KT 2SM -RA BR OVC003 07/06 A2896 RMK SF8 SLP811=
CYOW;2006-10-28 20:00;METAR CYOW 282000Z 14004KT 3SM -RA BR OVC003 07/06 A2895 RMK ST8 SLP806=
CYOW;2006-10-28 21:00;METAR CYOW 282100Z 18004KT 4SM -RA BR OVC003 07/07 A2894 RMK ST8 SLP803=
CYOW;2006-10-28 21:43;SPECI CYOW 282143Z 24012G20KT 5SM -RA BR SCT010 OVC033 07/ RMK SF3NS5 WSHFT 2140Z=
CYOW;2006-10-28 22:00;METAR CYOW 282200Z 24013KT 6SM -RA BR SCT010 OVC030 07/05 A2895 RMK SF3NS5 SLP805=
CYOW;2006-10-28 23:00;METAR CYOW 282300Z 23012G18KT 6SM -RA BR SCT010 OVC025 05/03 A2897 RMK SF4NS4 SLP814=
CYOW;2006-10-29 00:00;METAR CYOW 290000Z 23011G17KT 8SM -RA SCT015 OVC020 04/02 A2897 RMK SC3SC5 SLP815=
CYOW;2006-10-29 00:32;SPECI CYOW 290032Z 24013KT 10SM SCT016 OVC022 04/ RMK SC3SC5=
CYOW;2006-10-29 01:00;METAR CYOW 290100Z 25010G17KT 15SM FEW016 BKN022 OVC045 04/01 A2896 RMK SC2SC5SC2 SLP810=
CYOW;2006-10-29 02:00;METAR CYOW 290200Z 25012G17KT 15SM FEW020 OVC030 04/01 A2894 RMK SC2SC6 SLP804=
CYOW;2006-10-29 03:00;METAR CYOW 290300Z 24013G19KT 15SM BKN030 BKN070 03/M00 A2892 RMK SC6AC1 SLP797=
CYOW;2006-10-29 03:15;SPECI CYOW 290315Z 25015G21KT 15SM -RA BKN030 BKN070 03/ RMK SC6AC1=
CYOW;2006-10-29 04:00;METAR CYOW 290400Z 24012KT 15SM -RA SCT030 OVC070 03/M00 A2891 RMK SC4AC4 SLP793=
CYOW;2006-10-29 05:00;METAR CYOW 290500Z 23013G22KT 10SM -RA OVC037 03/00 A2889 RMK SC8 SLP786=
CYOW;2006-10-29 05:32;SPECI CYOW 290532Z 23014G21KT 8SM -RA SCT014 OVC037 02/ RMK SC3SC5=
CYOW;2006-10-29 06:00;METAR CYOW 290600Z 24015G20KT 8SM -RA BKN016 OVC035 02/00 A2888 RMK SC5SC3 SLP783=
CYOW;2006-10-29 06:47;SPECI CYOW 290647Z 24014G22KT 8SM -RA BKN012 OVC030 02/ RMK SC6SC2=
CYOW;2006-10-29 07:00;METAR CYOW 290700Z 25017KT 8SM -RA BKN012 OVC030 02/00 A2889 RMK SC6SC2 SLP785=
CYOW;2006-10-29 08:00;METAR CYOW 290800Z 24016G22KT 10SM -RA BKN014 OVC027 02/00 A2889 RMK SC6SC2 SLP787=
CYOW;2006-10-29 08:33;SPECI CYOW 290833Z 24016G21KT 8SM -RA SCT008 OVC013 02/ RMK SF3SC5=
CYOW;2006-10-29 09:00;METAR CYOW 290900Z 25020G26KT 8SM -RA FEW008 OVC014 02/00 A2891 RMK SF2SC6 SLP793=
CYOW;2006-10-29 10:00;METAR CYOW 291000Z 24018KT 8SM -RA BKN012 OVC022 02/00 A2893 RMK SC5SC3 SLP801=
CYOW;2006-10-29 10:19;SPECI CYOW 291019Z 24020G26KT 6SM -RASN FEW008 OVC013 02/ RMK SF2SC6=
CYOW;2006-10-29 11:00;METAR CYOW 291100Z 27022G27KT 10SM BKN013 OVC045 02/M01 A2896 RMK SC5SC3 INTMT -RA-SN SLP811=
CYOW;2006-10-29 12:00;METAR CYOW 291200Z 25017G27KT 10SM -RASN FEW017 OVC037 02/M00 A2901 RMK SF2SC6 -RA-SN INTMT SLP826=
CYOW;2006-10-29 12:30;SPECI CYOW 291230Z 25018KT 15SM BKN050 BKN120 03/ RMK SC6AC2 SH NE=
CYOW;2006-10-29 13:00;METAR CYOW 291300Z 25017G26KT 15SM BKN033 BKN120 03/M01 A2905 RMK SC6AC1 SLP840=
CYOW;2006-10-29 14:00;METAR CYOW 291400Z 26020G31KT 15SM OVC036 04/M02 A2908 RMK SC8 SLP851=
CYOW;2006-10-29 15:00;METAR CYOW 291500Z 26023G28KT 15SM -SHGS OVC037 04/M02 A2911 RMK SC8 SLP861=
CYOW;2006-10-29 15:30;SPECI CYOW 291530Z 26021G33KT 15SM -SHRA OVC037 04/ RMK SC8 CVCTV CLD EMBD=
CYOW;2006-10-29 16:00;METAR CYOW 291600Z 26020G32KT 15SM OVC040 04/M03 A2913 RMK SC8 SLP870=
CYOW;2006-10-29 17:00;METAR CYOW 291700Z 27027G40KT 15SM -SHSN OVC035 04/M03 A2918 RMK SC8 SLP884=
CYOW;2006-10-29 18:00;METAR CYOW 291800Z 26026G36KT 15SM -SHSN OVC033 05/M03 A2922 RMK SC8 CVCTV CLD EMBD -SHSN INTMT SLP897=
CYOW;2006-10-29 19:00;METAR CYOW 291900Z 27026G35KT 12SM -SHRA OVC030 04/M03 A2926 RMK SC8 CVCTV EMBD -SHRA INTMT SLP911=
CYOW;2006-10-29 20:00;METAR CYOW 292000Z 27022G28KT 15SM OVC036 04/M03 A2930 RMK SC8 VIRGA INTMT -SHRA SLP925=
CYOW;2006-10-29 21:00;METAR CYOW 292100Z 27026G37KT 15SM -RA OVC035 04/M03 A2935 RMK SC8 -RA INTMT SLP944=
CYOW;2006-10-29 22:00;METAR CYOW 292200Z 27018G25KT 12SM -RA OVC034 04/M03 A2941 RMK SC8 -RA INTMT SLP962=
CYOW;2006-10-29 23:00;METAR CYOW 292300Z 27025G31KT 15SM OVC038 04/M04 A2946 RMK SC8 -RA INTMT SLP980=
CYOW;2006-10-29 23:31;SPECI CYOW 292331Z 27021G32KT 15SM BKN040 OVC085 04/ RMK SC6AC2=
CYOW;2006-10-30 00:00;METAR CYOW 300000Z 27023G36KT 15SM OVC040 04/M04 A2950 RMK SC8 VIRGA ALQDS SLP995=
CYOW;2006-10-30 01:00;METAR CYOW 300100Z 28018G30KT 15SM OVC043 04/M04 A2954 RMK SC8 VIRGA N SLP007=
CYOW;2006-10-30 01:17;SPECI CYOW 300117Z 28027G33KT 15SM -RA OVC040 04/ RMK SC8=
CYOW;2006-10-30 02:00;METAR CYOW 300200Z 27018G30KT 15SM OVC043 04/M04 A2957 RMK SC8 INTMT -RA MOON DIMLY VISBL SLP019=
CYOW;2006-10-30 02:10;SPECI CYOW 300210Z 27020G29KT 15SM OVC043 04/ RMK SC8 VIRGA NE=
CYOW;2006-10-30 03:00;METAR CYOW 300300Z 27020G27KT 15SM OVC047 04/M05 A2959 RMK SC8 SLP026=
CYOW;2006-10-30 04:00;METAR CYOW 300400Z 27022G28KT 15SM OVC047 04/M05 A2962 RMK SC8 SLP035=
CYOW;2006-10-30 05:00;METAR CYOW 300500Z 27026G33KT 15SM BKN047 OVC057 04/M05 A2965 RMK SC5SC3 SLP044=
CYOW;2006-10-30 06:00;METAR CYOW 300600Z 28017G30KT 15SM OVC057 04/M05 A2967 RMK SC8 SLP052=
CYOW;2006-10-30 07:00;METAR CYOW 300700Z 28021G29KT 15SM BKN053 04/M04 A2970 RMK SC7 SLP062=
CYOW;2006-10-30 08:00;METAR CYOW 300800Z 29023G33KT 15SM BKN050 04/M06 A2972 RMK SC7 SLP068=
CYOW;2006-10-30 09:00;METAR CYOW 300900Z 27011G17KT 15SM BKN045 04/M04 A2975 RMK SC6 SLP078=
CYOW;2006-10-30 10:00;METAR CYOW 301000Z 28013G21KT 15SM BKN042 03/M05 A2977 RMK SC5 SLP086=
CYOW;2006-10-30 11:00;METAR CYOW 301100Z 27013KT 15SM SCT042 03/M05 A2979 RMK SC3 SLP094=
CYOW;2006-10-30 12:00;METAR CYOW 301200Z 25009KT 20SM SCT040 02/M04 A2984 RMK SC3 SLP108=
CYOW;2006-10-30 13:00;METAR CYOW 301300Z 27012KT 20SM FEW040 03/M04 A2986 RMK SC2 SLP116=
CYOW;2006-10-30 14:00;METAR CYOW 301400Z 28013G18KT 20SM FEW040 04/M03 A2988 RMK SC2 SLP122=
CYOW;2006-10-30 15:00;METAR CYOW 301500Z 30015G21KT 20SM FEW032 05/M03 A2990 RMK CU2 SLP130=
CYOW;2006-10-30 16:00;METAR CYOW 301600Z 29016G22KT 20SM FEW036 06/M03 A2991 RMK CU2 SLP133=
CYOW;2006-10-30 17:00;METAR CYOW 301700Z 28018KT 20SM FEW040 08/M02 A2989 RMK CU2 SLP127=
CYOW;2006-10-30 18:00;METAR CYOW 301800Z 29017G22KT 20SM FEW044 08/M03 A2989 RMK CU2 SLP127=
CYOW;2006-10-30 19:00;METAR CYOW 301900Z 27013G20KT 20SM FEW048 10/M02 A2990 RMK CU1 SLP129=
CYOW;2006-10-30 20:00;METAR CYOW 302000Z 30010G15KT 20SM FEW050 FEW240 10/M02 A2991 RMK CU1CI0 TR CU SLP134=
CYOW;2006-10-30 22:00;METAR CYOW 302200Z 32006KT 20SM FEW240 06/M03 A2995 RMK CI1 SLP145=
CYOW;2006-10-30 23:00;METAR CYOW 302300Z 33005KT 15SM FEW240 04/M03 A2995 RMK CI1 SLP147=
CYOW;2006-10-31 00:00;METAR CYOW 310000Z 35002KT 15SM FEW240 05/M02 A2996 RMK CI1 SLP149=
CYOW;2006-10-31 01:00;METAR CYOW 310100Z 17002KT 15SM FEW240 04/M03 A2996 RMK CI1 SLP150=
CYOW;2006-10-31 02:00;METAR CYOW 310200Z 15003KT 15SM FEW240 03/M03 A2997 RMK CI1 SLP153=
CYOW;2006-10-31 03:00;METAR CYOW 310300Z 09003KT 15SM FEW240 04/M03 A2997 RMK CI1 SLP152=
CYOW;2006-10-31 04:00;METAR CYOW 310400Z 07005KT 15SM SCT250 03/M03 A2996 RMK CI2 SLP149=
CYOW;2006-10-31 04:44;SPECI CYOW 310444Z 08008KT 15SM BKN250 02/ RMK CI2=
CYOW;2006-10-31 05:00;METAR CYOW 310500Z 07008KT 15SM BKN250 01/M03 A2995 RMK CI2 SLP145=
CYOW;2006-10-31 06:00;METAR CYOW 310600Z 07007KT 15SM BKN250 01/M04 A2994 RMK CI2 SLP142=
CYOW;2006-10-31 07:00;METAR CYOW 310700Z 08008KT 15SM BKN240 01/M04 A2992 RMK CI3 SLP136=
CYOW;2006-10-31 08:00;METAR CYOW 310800Z 07009KT 15SM BKN240 00/M04 A2988 RMK CI3 SLP123=
CYOW;2006-10-31 09:00;METAR CYOW 310900Z 07009KT 15SM SCT190 BKN240 M00/M04 A2987 RMK AC3CI1 SLP118=
CYOW;2006-10-31 10:00;METAR CYOW 311000Z 08010KT 15SM FEW190 BKN220 00/M04 A2984 RMK AC2CI4 SLP108=
CYOW;2006-10-31 11:00;METAR CYOW 311100Z 07007KT 15SM BKN210 00/M03 A2981 RMK CI7 SLP099=
CYOW;2006-10-31 12:00;METAR CYOW 311200Z 07006KT 15SM BKN140 OVC210 01/M03 A2979 RMK AC6CI2 SLP094=
CYOW;2006-10-31 13:00;METAR CYOW 311300Z 06009KT 15SM BKN120 OVC140 01/M02 A2979 RMK AC5AC3 SLP092=
CYOW;2006-10-31 14:00;METAR CYOW 311400Z 07008KT 15SM BKN100 OVC130 01/M02 A2978 RMK AC5AC3 SLP089=
CYOW;2006-10-31 14:15;SPECI CYOW 311415Z 08009KT 15SM -RA BKN086 OVC100 01/ RMK AC5AC3 VRY LGT RA=
CYOW;2006-10-31 15:00;METAR CYOW 311500Z 08005KT 15SM -RA BKN073 OVC100 02/M01 A2976 RMK AC6AC2 SLP084=
CYOW;2006-10-31 16:00;METAR CYOW 311600Z 09006KT 15SM -RA SCT075 OVC110 03/01 A2973 RMK AC3AC5 VRY LGT RA SLP074=
CYOW;2006-10-31 17:00;METAR CYOW 311700Z 07004KT 15SM -RA BKN058 OVC090 04/01 A2971 RMK SC6AC2 VRY LGT RA SLP067=
CYOW;2006-10-31 18:00;METAR CYOW 311800Z 08005KT 15SM -RA BKN050 OVC090 05/02 A2969 RMK SC6AC2 VRY LGT RA SLP060=
CYOW;2006-10-31 19:00;METAR CYOW 311900Z 05005KT 15SM -RA BKN048 OVC060 06/03 A2968 RMK SC6SC2 VRY LGT RA SLP055=
CYOW;2006-10-31 20:00;METAR CYOW 312000Z 05005KT 15SM -RA BKN040 OVC060 05/02 A2969 RMK SC6SC2 VRY LGT RA SLP059=
CYOW;2006-10-31 21:00;METAR CYOW 312100Z 07005KT 15SM -RA BKN048 OVC060 05/03 A2969 RMK SC7SC1 SLP060=
CYOW;2006-10-31 22:00;METAR CYOW 312200Z 08004KT 12SM -RA SCT050 OVC160 05/03 A2969 RMK SC4AC4 VRY LGT RA SLP060=
CYOW;2006-10-31 23:00;METAR CYOW 312300Z 06003KT 12SM -RA BKN054 OVC160 05/03 A2972 RMK SC7AC1 VRY LGT RA SLP068=
CYOW;2006-10-31 23:28;SPECI CYOW 312328Z 05005KT 15SM OVC180 05/ RMK AS8 MOON VSBL=
CYOW;2006-11-01 00:00;METAR CYOW 010000Z 06004KT 15SM OVC180 05/04 A2972 RMK AS8 MOON VSBL SLP068=
CYOW;2006-11-01 01:00;METAR CYOW 010100Z 23006KT 15SM OVC220 10/09 A2972 RMK CI8 SLP070=
CYOW;2006-11-01 02:00;METAR CYOW 010200Z 24008KT 12SM FEW035 11/09 A2975 RMK SC2 SLP079=
CYOW;2006-11-01 03:00;METAR CYOW 010300Z 28006KT 15SM FEW010 FEW030 06/05 A2979 RMK CF1SC1 SLP093=
CYOW;2006-11-01 04:00;METAR CYOW 010400Z 28008KT 15SM SKC 07/01 A2982 RMK SLP104=
CYOW;2006-11-01 05:00;METAR CYOW 010500Z 27013G18KT 15SM FEW230 07/01 A2985 RMK CI0 SLP113=
CYOW;2006-11-01 06:00;METAR CYOW 010600Z 28010KT 15SM FEW050 05/M01 A2988 RMK SC1 SLP122=
CYOW;2006-11-01 07:00;METAR CYOW 010700Z 28007KT 15SM FEW090 04/M01 A2991 RMK AC1 SLP132=
CYOW;2006-11-01 08:00;METAR CYOW 010800Z 29009KT 15SM SKC 04/M02 A2992 RMK SLP137=
CYOW;2006-11-01 09:00;METAR CYOW 010900Z 27005KT 15SM SKC 03/M02 A2995 RMK SLP147=
CYOW;2006-11-01 09:17;SPECI CYOW 010917Z 27005KT 15SM SKC 02/=
CYOW;2006-11-01 10:00;METAR CYOW 011000Z 26004KT 15SM SKC 02/M03 A2998 RMK SLP157=
CYOW;2006-11-01 11:00;METAR CYOW 011100Z CCA 25004KT 15SM FEW140 01/M04 A2999 RMK AC2 FROIN SLP160=
CYOW;2006-11-01 12:00;METAR CYOW 011200Z 21002KT 15SM FEW140 01/M04 A3001 RMK AC2 FROIN SLP167=
CYOW;2006-11-01 13:00;METAR CYOW 011300Z 18003KT 15SM FEW140 02/M03 A3002 RMK AC0 SLP169=
CYOW;2006-11-01 14:00;METAR CYOW 011400Z 22005KT 15SM FEW140 05/M02 A3002 RMK AC1 SLP169=
CYOW;2006-11-01 15:00;METAR CYOW 011500Z 23009KT 15SM FEW140 06/M03 A3001 RMK AC1 SLP165=
CYOW;2006-11-01 16:00;METAR CYOW 011600Z 22010KT 15SM FEW040 FEW140 07/M03 A3000 RMK SC1AC1 AC TR SLP162=
CYOW;2006-11-01 17:00;METAR CYOW 011700Z 23010G16KT 15SM FEW040 FEW140 08/M03 A2997 RMK SC1AC1 AC TR SLP152=
CYOW;2006-11-01 18:00;METAR CYOW 011800Z 23011KT 15SM FEW040 FEW260 09/M03 A2994 RMK SC1CI0 SC TR SLP141=
CYOW;2006-11-01 19:00;METAR CYOW 011900Z 20010G15KT 15SM FEW040 FEW260 10/M03 A2991 RMK SC1CI0 SC TR SLP132=
CYOW;2006-11-01 21:00;METAR CYOW 012100Z 22011KT 15SM FEW040 FEW260 09/M04 A2990 RMK CU1CI0 CU TR SLP129=
CYOW;2006-11-01 22:00;METAR CYOW 012200Z 20008KT 15SM FEW120 SCT180 07/M03 A2989 RMK AC2AC1 SLP127=
CYOW;2006-11-01 23:00;METAR CYOW 012300Z 21008KT 15SM FEW120 BKN170 05/M03 A2990 RMK AC2AC3 SLP130=
CYOW;2006-11-02 00:00;METAR CYOW 020000Z 22011KT 15SM SCT160 OVC200 05/M04 A2991 RMK AC3CI2 SLP132=
CYOW;2006-11-02 01:00;METAR CYOW 020100Z 23009KT 15SM FEW140 OVC200 05/M04 A2990 RMK AC2CS6 SLP131=
CYOW;2006-11-02 03:00;METAR CYOW 020300Z 24007KT 15SM OVC140 04/M03 A2991 RMK AC8 MOON VSBL SLP131=
CYOW;2006-11-02 04:00;METAR CYOW 020400Z 24007KT 15SM OVC120 04/M03 A2990 RMK AC8 MOON VSBL SLP130=
CYOW;2006-11-02 05:00;METAR CYOW 020500Z 25006KT 15SM FEW110 FEW140 OVC160 04/M03 A2992 RMK AC1AC2AC5 MOON VSBL SLP136=
CYOW;2006-11-02 06:00;METAR CYOW 020600Z 27006KT 15SM SCT055 SCT180 03/M05 A2994 RMK SC3AC1 SLP141=
CYOW;2006-11-02 07:00;METAR CYOW 020700Z 26007KT 15SM SKC 02/M06 A2995 RMK SLP145=
CYOW;2006-11-02 08:00;METAR CYOW 020800Z 27007KT 15SM FEW050 02/M07 A2995 RMK SC1 SLP146=
CYOW;2006-11-02 09:00;METAR CYOW 020900Z 26005KT 15SM SKC 00/M07 A2995 RMK SLP147=
CYOW;2006-11-02 10:00;METAR CYOW 021000Z 24003KT 15SM FEW020 FEW070 M00/M06 A2996 RMK CF1AC1 SLP150=
CYOW;2006-11-02 11:00;METAR CYOW 021100Z 24003KT 15SM FEW180 M02/M06 A2996 RMK AC1 SLP149=
CYOW;2006-11-02 12:00;METAR CYOW 021200Z 21003KT 15SM FEW180 M01/M06 A2996 RMK AC1 SLP151=
CYOW;2006-11-02 13:00;METAR CYOW 021300Z 24002KT 15SM FEW060 M00/M05 A2997 RMK SC1 SLP155=
CYOW;2006-11-02 14:00;METAR CYOW 021400Z 27002KT 15SM BKN070 02/M04 A2997 RMK AC5 SLP155=
CYOW;2006-11-02 15:00;METAR CYOW 021500Z 25007KT 15SM FEW060 BKN073 04/M05 A2996 RMK SC2AC5 SLP151=
CYOW;2006-11-02 16:00;METAR CYOW 021600Z 27011KT 15SM BKN053 BKN070 05/M07 A2996 RMK SC5AC2 SLP150=
CYOW;2006-11-02 17:00;METAR CYOW 021700Z 25008KT 15SM FEW020 BKN050 BKN070 05/M06 A2995 RMK CU1SC5AC2 SLP146=
CYOW;2006-11-02 18:00;METAR CYOW 021800Z 22007KT 15SM FEW020 SCT050 BKN077 05/M06 A2994 RMK CU1SC3AC3 SLP141=
CYOW;2006-11-02 19:00;METAR CYOW 021900Z 23009KT 15SM FEW020 BKN047 BKN070 05/M06 A2994 RMK CU1SC5AC1 SLP141=
CYOW;2006-11-02 20:00;METAR CYOW 022000Z 24010KT 15SM FEW020 SCT045 BKN080 04/M06 A2994 RMK CU1SC3AC3 SLP141=
CYOW;2006-11-02 21:00;METAR CYOW 022100Z 23007KT 15SM FEW020 SCT045 BKN090 04/M05 A2994 RMK CU1SC3AC3 SLP145=
CYOW;2006-11-02 21:41;SPECI CYOW 022141Z 27011G16KT 8SM -SN BKN022 OVC035 02/ RMK SC6SC2=
CYOW;2006-11-02 22:00;METAR CYOW 022200Z 23009G18KT 2 1/2SM -SN BKN008 OVC020 01/M01 A2997 RMK SN1SF4SC3 SLP153=
CYOW;2006-11-02 22:14;SPECI CYOW 022214Z 21004KT 15SM SCT035 BKN100 01/ RMK SC3AC3=
CYOW;2006-11-02 23:00;METAR CYOW 022300Z 21003KT 15SM BKN050 BKN060 01/M02 A2997 RMK SC5SC2 SLP155=
CYOW;2006-11-02 23:36;SPECI CYOW 022336Z 25009KT 15SM -SN FEW050 BKN060 01/ RMK SC1SC6=
CYOW;2006-11-02 23:50;SPECI CYOW 022350Z 26006KT 15SM FEW040 OVC068 01/ RMK SC1AC7=
CYOW;2006-11-03 01:00;METAR CYOW 030100Z 25007KT 15SM BKN100 00/M03 A2998 RMK AC6 SLP159=
CYOW;2006-11-03 02:00;METAR CYOW 030200Z 25005KT 15SM SCT095 M00/M03 A2998 RMK AC3 SLP159=
CYOW;2006-11-03 03:00;METAR CYOW 030300Z 25004KT 15SM BKN092 M01/M04 A2999 RMK AC6 SLP162=
CYOW;2006-11-03 04:00;METAR CYOW 030400Z 25004KT 15SM FEW090 M01/M04 A3000 RMK AC2 FROIN SLP164=
CYOW;2006-11-03 05:00;METAR CYOW 030500Z 24006KT 15SM BKN086 M02/M04 A3001 RMK AC6 FROIN SLP167=
CYOW;2006-11-03 06:00;METAR CYOW 030600Z 25005KT 15SM BKN088 M02/M04 A3003 RMK AC7 FROIN SLP174=
CYOW;2006-11-03 07:00;METAR CYOW 030700Z 24005KT 15SM BKN089 M02/M05 A3004 RMK AC7 FROIN SLP179=
CYOW;2006-11-03 08:00;METAR CYOW 030800Z 25004KT 15SM FEW090 M02/M05 A3005 RMK AC2 FROIN SLP183=
CYOW;2006-11-03 10:00;METAR CYOW 031000Z 26003KT 15SM SKC M03/M05 A3008 RMK SLP192=
CYOW;2006-11-03 11:00;METAR CYOW 031100Z 26003KT 15SM FEW090 M03/M05 A3010 RMK AC1 FROIN SLP198=
CYOW;2006-11-03 12:00;METAR CYOW 031200Z 27005KT 15SM FEW090 M03/M05 A3011 RMK AC1 FROIN SLP203=
CYOW;2006-11-03 13:00;METAR CYOW 031300Z 26005KT 15SM FEW040 M01/M04 A3014 RMK SC1 FROIN SLP212=
CYOW;2006-11-03 14:00;METAR CYOW 031400Z 28008KT 15SM FEW040 01/M03 A3015 RMK SC1 SLP217=
CYOW;2006-11-03 15:00;METAR CYOW 031500Z 28012KT 15SM FEW025 02/M03 A3015 RMK CU1 SLP217=
CYOW;2006-11-03 16:00;METAR CYOW 031600Z 27010G15KT 15SM FEW030 03/M05 A3016 RMK CU2 SLP219=
CYOW;2006-11-03 17:00;METAR CYOW 031700Z 29012G18KT 15SM SCT040 03/M07 A3015 RMK CU3 SLP216=
CYOW;2006-11-03 19:00;METAR CYOW 031900Z 28011KT 15SM BKN055 04/M07 A3016 RMK SC6 CU ASOCTD SLP217=
CYOW;2006-11-03 21:00;METAR CYOW 032100Z 31010KT 15SM FEW060 03/M07 A3019 RMK SC2 SLP229=
CYOW;2006-11-03 22:00;METAR CYOW 032200Z 30006KT 15SM FEW060 01/M08 A3021 RMK SC2 SLP236=
CYOW;2006-11-03 23:00;METAR CYOW 032300Z 31007KT 15SM FEW060 M00/M08 A3023 RMK SC1 SLP243=
CYOW;2006-11-04 00:00;METAR CYOW 040000Z 30004KT 15SM SKC M00/M08 A3025 RMK SLP251=
CYOW;2006-11-04 01:00;METAR CYOW 040100Z 24003KT 15SM SKC M01/M07 A3026 RMK SLP254=
CYOW;2006-11-04 02:00;METAR CYOW 040200Z 25003KT 15SM FEW080 M01/M08 A3027 RMK AC1 SLP258=
CYOW;2006-11-04 03:00;METAR CYOW 040300Z 20002KT 15SM FEW080 M02/M07 A3029 RMK AC1 SLP262=
CYOW;2006-11-04 04:00;METAR CYOW 040400Z 24005KT 15SM FEW080 M02/M07 A3030 RMK AC2 SLP266=
CYOW;2006-11-04 05:00;METAR CYOW 040500Z 23004KT 15SM SCT070 M02/M08 A3031 RMK AC3 SLP269=
CYOW;2006-11-04 06:00;METAR CYOW 040600Z 00000KT 15SM BKN080 M02/M08 A3031 RMK AC6 SLP269=
CYOW;2006-11-04 07:00;METAR CYOW 040700Z 22003KT 15SM BKN071 M02/M08 A3033 RMK AC7 SLP275=
CYOW;2006-11-04 07:36;SPECI CYOW 040736Z 26005KT 15SM -SN BKN070 M03/ RMK AC7=
CYOW;2006-11-04 08:00;METAR CYOW 040800Z 00000KT 15SM BKN070 M02/M08 A3033 RMK AC7 INTMT -SN SLP275=
CYOW;2006-11-04 08:10;SPECI CYOW 040810Z 20003KT 15SM BKN070 BKN230 M02/ RMK AC6CI1=
CYOW;2006-11-04 09:00;METAR CYOW 040900Z 27002KT 15SM SCT075 BKN180 BKN230 M03/M07 A3034 RMK AC3AC2CI1 SLP281=
CYOW;2006-11-04 10:00;METAR CYOW 041000Z 30004KT 15SM SCT083 BKN230 M03/M07 A3035 RMK AC4CI1 SLP285=
CYOW;2006-11-04 11:00;METAR CYOW 041100Z 25003KT 15SM BKN085 BKN230 M02/M06 A3037 RMK AC5CI2 SLP290=
CYOW;2006-11-04 12:00;METAR CYOW 041200Z 25003KT 15SM FEW030 BKN090 M02/M05 A3039 RMK SC1AC6 FROIN SLP296=
CYOW;2006-11-04 13:00;METAR CYOW 041300Z 22002KT 15SM FEW030 BKN088 M02/M05 A3041 RMK SC1AC6 SLP304=
CYOW;2006-11-04 14:00;METAR CYOW 041400Z 25004KT 15SM OVC092 M00/M04 A3042 RMK AC8 SLP308=
CYOW;2006-11-04 16:00;METAR CYOW 041600Z 30006KT 15SM FEW020 BKN090 02/M06 A3042 RMK CU1AC6 SLP309=
CYOW;2006-11-04 17:00;METAR CYOW 041700Z 31006KT 15SM FEW030 BKN090 03/M07 A3041 RMK CU2AC6 SLP304=
CYOW;2006-11-04 18:00;METAR CYOW 041800Z 30005KT 15SM FEW030TCU OVC090 04/M08 A3039 RMK TCU2AC6 SLP299=
CYOW;2006-11-04 19:00;METAR CYOW 041900Z 28006KT 15SM FEW040 OVC088 04/M07 A3039 RMK CU2AC6 SLP298=
CYOW;2006-11-04 20:00;METAR CYOW 042000Z 27003KT 15SM FEW040 OVC082 04/M07 A3039 RMK CU2AC6 SLP298=
CYOW;2006-11-04 21:00;METAR CYOW 042100Z 00000KT 15SM FEW050 OVC082 03/M07 A3040 RMK CU1AC7 SLP302=
CYOW;2006-11-04 22:00;METAR CYOW 042200Z 00000KT 15SM OVC077 03/M08 A3041 RMK AC8 SLP303=
CYOW;2006-11-04 23:00;METAR CYOW 042300Z 00000KT 15SM FEW050 OVC070 03/M07 A3042 RMK SC2AC6 SLP309=
CYOW;2006-11-05 00:00;METAR CYOW 050000Z 16004KT 15SM FEW048 OVC072 02/M07 A3043 RMK SC2AC6 VIRGA NW SLP311=
CYOW;2006-11-05 00:31;SPECI CYOW 050031Z 18003KT 15SM -SN FEW048 OVC075 02/ RMK SC2AC6=
CYOW;2006-11-05 01:00;METAR CYOW 050100Z 25004KT 10SM -SN FEW050 OVC075 02/M04 A3043 RMK SC2AC6 VSB LWR W SLP312=
CYOW;2006-11-05 01:18;SPECI CYOW 050118Z 22003KT 15SM FEW050 BKN073 02/ RMK SC1AC6=
CYOW;2006-11-05 02:00;METAR CYOW 050200Z 23002KT 15SM FEW056 BKN073 02/M04 A3044 RMK SC1AC6 SLP315=
CYOW;2006-11-05 03:00;METAR CYOW 050300Z 21004KT 15SM SCT075 BKN160 00/M05 A3045 RMK AC4AC1 SLP316=
CYOW;2006-11-05 04:00;METAR CYOW 050400Z 24004KT 15SM FEW070 BKN250 M00/M04 A3045 RMK AC2CI2 SLP316=
CYOW;2006-11-05 05:00;METAR CYOW 050500Z 23003KT 15SM SCT070 BKN160 BKN250 00/M04 A3045 RMK AC3AC2CI1 SLP318=
CYOW;2006-11-05 06:00;METAR CYOW 050600Z 21004KT 15SM BKN072 M01/M04 A3045 RMK AC7 SLP318=
CYOW;2006-11-05 07:00;METAR CYOW 050700Z 21004KT 15SM OVC070 M00/M04 A3045 RMK AC8 SLP319=
CYOW;2006-11-05 08:00;METAR CYOW 050800Z 20003KT 15SM BKN070 OVC140 M00/M04 A3045 RMK AC6AC2 SLP317=
CYOW;2006-11-05 09:00;METAR CYOW 050900Z 18004KT 15SM OVC070 M00/M04 A3045 RMK AS8 SLP317=
CYOW;2006-11-05 10:00;METAR CYOW 051000Z 18003KT 15SM OVC070 M01/M04 A3045 RMK AS8 SLP317=
CYOW;2006-11-05 11:00;METAR CYOW 051100Z 17002KT 15SM SCT070 OVC130 M01/M04 A3045 RMK AC4AC4 SLP316=
CYOW;2006-11-05 12:00;METAR CYOW 051200Z 18004KT 5SM -SN OVC040 M00/M03 A3044 RMK SC8 SN FINE SLP315=
CYOW;2006-11-05 12:43;SPECI CYOW 051243Z 18005KT 6SM BR OVC030 00/ RMK SC8=
CYOW;2006-11-05 13:00;METAR CYOW 051300Z 18006KT 5SM -SN OVC017 00/M02 A3045 RMK SC8 SLP316=
CYOW;2006-11-05 13:37;SPECI CYOW 051337Z 18004KT 2SM -SN FEW006 OVC017 00/ RMK SF2NS6=
CYOW;2006-11-05 14:00;METAR CYOW 051400Z 17006KT 1SM -SN SCT006 OVC016 00/M01 A3044 RMK SN2SF2NS4 SLP313=
CYOW;2006-11-05 14:45;SPECI CYOW 051445Z 18006KT 1 1/2SM -SN BKN006 OVC012 00/ RMK SF5NS3=
CYOW;2006-11-05 15:00;METAR CYOW 051500Z 18006KT 2SM -SN OVC006 01/M01 A3043 RMK SF8 SLP310=
CYOW;2006-11-05 16:00;METAR CYOW 051600Z 18006KT 3SM -RASN OVC007 02/01 A3041 RMK SF8 SLP305=
CYOW;2006-11-05 16:44;SPECI CYOW 051644Z 20007KT 4SM -RA BR OVC008 03/ RMK SF8=
CYOW;2006-11-05 17:00;METAR CYOW 051700Z 20006KT 4SM -RA BR OVC009 03/01 A3039 RMK SF8 SLP299=
CYOW;2006-11-05 18:00;METAR CYOW 051800Z 19005KT 4SM -RA BR BKN009 OVC015 04/02 A3037 RMK SF5NS3 RA VRY LGT SLP289=
CYOW;2006-11-05 19:00;METAR CYOW 051900Z 19005KT 4SM -DZ BR OVC016 05/02 A3036 RMK NS8 SLP286=
CYOW;2006-11-05 20:00;METAR CYOW 052000Z 20010KT 5SM -RA BR OVC067 05/02 A3034 RMK AC8 VRY LGT RA SLP278=
CYOW;2006-11-05 20:39;SPECI CYOW 052039Z 19009KT 5SM HZ OVC063 05/ RMK SC8=
CYOW;2006-11-05 21:00;METAR CYOW 052100Z 20006KT 5SM HZ OVC065 05/02 A3031 RMK SC8 SLP271=
CYOW;2006-11-05 22:00;METAR CYOW 052200Z 19006KT 6SM HZ OVC064 05/01 A3032 RMK SC8 SLP272=
CYOW;2006-11-05 23:00;METAR CYOW 052300Z 19005KT 10SM OVC020 05/01 A3032 RMK SC8 SLP272=
CYOW;2006-11-06 00:00;METAR CYOW 060000Z 18005KT 10SM BKN020 OVC063 04/01 A3031 RMK SC6SC2 SLP269=
CYOW;2006-11-06 01:00;METAR CYOW 060100Z 19004KT 10SM FEW020 OVC062 04/01 A3031 RMK SC2SC6 SLP268=
CYOW;2006-11-06 02:00;METAR CYOW 060200Z 21002KT 10SM OVC062 04/01 A3031 RMK SC8 SLP269=
CYOW;2006-11-06 02:29;SPECI CYOW 060229Z 25002KT 10SM -RA OVC062 04/ RMK SC8=
CYOW;2006-11-06 03:00;METAR CYOW 060300Z 29002KT 10SM -RA SCT041 OVC060 04/01 A3032 RMK SC3SC5 VRY LGT RA SLP272=
CYOW;2006-11-06 03:21;SPECI CYOW 060321Z 17002KT 10SM FEW040 BKN060 OVC078 03/ RMK SC2SC5AC2=
CYOW;2006-11-06 03:40;SPECI CYOW 060340Z 17003KT 8SM -RA BKN056 OVC075 03/ RMK SC6AC2=
CYOW;2006-11-06 04:00;METAR CYOW 060400Z 17004KT 8SM -RA OVC050 04/02 A3030 RMK SC8 SLP267=
CYOW;2006-11-06 05:00;METAR CYOW 060500Z 20003KT 10SM -RA BKN048 OVC075 04/02 A3030 RMK SC6AC2 VRY LGT RA SLP267=
CYOW;2006-11-06 06:00;METAR CYOW 060600Z 18003KT 10SM -RA OVC046 05/03 A3030 RMK SC8 VRY LGT RA SLP265=
CYOW;2006-11-06 06:24;SPECI CYOW 060624Z 18003KT 10SM OVC042 04/ RMK SC8=
CYOW;2006-11-06 07:00;METAR CYOW 060700Z 25003KT 12SM OVC045 05/03 A3031 RMK SC8 SLP267=
CYOW;2006-11-06 08:00;METAR CYOW 060800Z 00000KT 15SM OVC054 05/03 A3031 RMK SC8 SLP267=
CYOW;2006-11-06 09:00;METAR CYOW 060900Z 00000KT 15SM OVC058 04/02 A3031 RMK SC8 SLP267=
CYOW;2006-11-06 09:17;SPECI CYOW 060917Z 18003KT 12SM -RA OVC058 05/ RMK SC8=
CYOW;2006-11-06 10:00;METAR CYOW 061000Z 17004KT 12SM OVC062 04/02 A3031 RMK SC8 INTMT -RA SLP268=
CYOW;2006-11-06 10:11;SPECI CYOW 061011Z 18004KT 10SM OVC062 04/ RMK SC8=
CYOW;2006-11-06 11:00;METAR CYOW 061100Z 16003KT 10SM OVC060 04/02 A3032 RMK SC8 SLP271=
CYOW;2006-11-06 12:00;METAR CYOW 061200Z 19004KT 12SM OVC064 04/02 A3033 RMK SC8 SLP274=
CYOW;2006-11-06 14:00;METAR CYOW 061400Z 18003KT 10SM OVC065 06/03 A3034 RMK SC8 SLP279=
CYOW;2006-11-06 15:00;METAR CYOW 061500Z 25002KT 10SM BKN086 08/03 A3033 RMK AC6 SLP276=
CYOW;2006-11-06 16:00;METAR CYOW 061600Z 17002KT 10SM BKN086 10/03 A3031 RMK AC7 SLP270=
CYOW;2006-11-06 17:00;METAR CYOW 061700Z 00000KT 10SM FEW086 SCT240 11/02 A3030 RMK AC2CI1 SLP264=
CYOW;2006-11-06 18:00;METAR CYOW 061800Z 23002KT 10SM FEW240 12/02 A3028 RMK CI1 SLP257=
CYOW;2006-11-06 19:00;METAR CYOW 061900Z 20004KT 12SM FEW090 12/02 A3027 RMK AC2 SLP254=
CYOW;2006-11-06 20:00;METAR CYOW 062000Z 20006KT 12SM FEW090 13/01 A3026 RMK AC2 SLP250=
CYOW;2006-11-06 21:00;METAR CYOW 062100Z 22003KT 12SM FEW240 12/01 A3026 RMK CI0 SLP250=
CYOW;2006-11-06 22:00;METAR CYOW 062200Z 17003KT 12SM SKC 09/01 A3025 RMK SLP249=
CYOW;2006-11-06 23:00;METAR CYOW 062300Z 18004KT 12SM FEW240 08/02 A3025 RMK CI0 SLP249=
CYOW;2006-11-07 00:00;METAR CYOW 070000Z 18004KT 15SM SKC 07/02 A3025 RMK SLP246=
CYOW;2006-11-07 01:00;METAR CYOW 070100Z 18004KT 15SM SKC 06/02 A3023 RMK SLP242=
CYOW;2006-11-07 02:00;METAR CYOW 070200Z 00000KT 15SM FEW060 06/02 A3023 RMK SC2 SLP242=
CYOW;2006-11-07 03:00;METAR CYOW 070300Z 06003KT 15SM FEW060 04/01 A3022 RMK SC2 SLP237=
CYOW;2006-11-07 04:00;METAR CYOW 070400Z 06004KT 10SM FEW060 03/01 A3021 RMK SC2 SLP234=
CYOW;2006-11-07 04:41;SPECI CYOW 070441Z 09003KT 10SM FEW060 FEW100 02/ RMK SC1AC1=
CYOW;2006-11-07 05:00;METAR CYOW 070500Z 08004KT 10SM FEW060 FEW100 02/M00 A3019 RMK SC1AC1 SLP227=
CYOW;2006-11-07 06:00;METAR CYOW 070600Z 06004KT 10SM FEW100 02/00 A3018 RMK AC1 SLP224=
CYOW;2006-11-07 07:00;METAR CYOW 070700Z 04003KT 8SM BKN100 03/01 A3018 RMK AC5 SLP223=
CYOW;2006-11-07 07:42;SPECI CYOW 070742Z 11004KT 8SM BKN100 02/ RMK AC7=
CYOW;2006-11-07 08:00;METAR CYOW 070800Z 10003KT 8SM BKN100 02/01 A3016 RMK AC7 SLP218=
CYOW;2006-11-07 09:00;METAR CYOW 070900Z 07005KT 8SM BKN110 02/00 A3015 RMK AC7 SLP214=
CYOW;2006-11-07 10:00;METAR CYOW 071000Z 05003KT 8SM FEW080 OVC120 02/00 A3014 RMK AC2AC6 SLP211=
CYOW;2006-11-07 11:00;METAR CYOW 071100Z 05004KT 8SM BKN082 BKN120 03/01 A3014 RMK AC6AC2 SLP209=
CYOW;2006-11-07 12:00;METAR CYOW 071200Z 06002KT 8SM BKN081 BKN110 04/01 A3013 RMK AC6AC1 SLP207=
CYOW;2006-11-07 13:00;METAR CYOW 071300Z 09003KT 8SM BKN079 03/01 A3012 RMK AC7 SLP205=
CYOW;2006-11-07 14:00;METAR CYOW 071400Z 15003KT 12SM FEW080 BKN120 06/01 A3011 RMK AC2AC5 SLP200=
CYOW;2006-11-07 15:00;METAR CYOW 071500Z 20007KT 12SM FEW030 SCT080 BKN140 09/02 A3009 RMK SC1AC2AC2 SLP195=
CYOW;2006-11-07 16:00;METAR CYOW 071600Z 21007KT 12SM FEW030 BKN073 11/02 A3008 RMK SC1AC6 SLP190=
CYOW;2006-11-07 17:00;METAR CYOW 071700Z 20005KT 15SM BKN053 OVC070 10/02 A3006 RMK SC6AC2 SLP185=
CYOW;2006-11-07 18:00;METAR CYOW 071800Z 20009KT 15SM FEW060 SCT070 BKN140 BKN180 11/03 A3003 RMK SC2AC2AC2AC0 SLP174=
CYOW;2006-11-07 19:00;METAR CYOW 071900Z 20008KT 15SM FEW040 BKN073 BKN100 11/03 A3001 RMK SC2AC3AC2 SLP167=
CYOW;2006-11-07 20:00;METAR CYOW 072000Z 20007KT 15SM FEW040 OVC081 11/02 A3000 RMK SC2AC6 SLP162=
CYOW;2006-11-07 21:00;METAR CYOW 072100Z 21007KT 15SM SCT040 OVC080 10/01 A2999 RMK SC3AC5 SLP161=
CYOW;2006-11-07 22:00;METAR CYOW 072200Z 22007KT 15SM SCT040 OVC074 10/01 A3000 RMK SC3AC5 SLP164=
CYOW;2006-11-07 22:46;SPECI CYOW 072246Z 22008KT 10SM -RA OVC054 09/ RMK SC8=
CYOW;2006-11-07 23:00;METAR CYOW 072300Z 21009KT 10SM -RA OVC055 09/02 A3001 RMK SC8 SLP167=
CYOW;2006-11-08 00:00;METAR CYOW 080000Z 21006KT 10SM -RA OVC060 08/04 A3002 RMK SC8 SLP168=
CYOW;2006-11-08 01:00;METAR CYOW 080100Z 20003KT 10SM -RA OVC054 07/05 A3000 RMK SC8 SLP164=
CYOW;2006-11-08 02:00;METAR CYOW 080200Z 18003KT 5SM -RA BR OVC031 07/05 A3000 RMK SC8 SLP164=
CYOW;2006-11-08 03:00;METAR CYOW 080300Z 17004KT 5SM -RA BR OVC048 07/05 A2999 RMK SC8 MOON VSBL SLP159=
CYOW;2006-11-08 06:00;METAR CYOW 080600Z 12004KT 5SM -RA BR OVC020 06/05 A2992 RMK NS8 SLP134=
CYOW;2006-11-08 07:00;METAR CYOW 080700Z 11005KT 4SM -RA BR OVC018 06/05 A2990 RMK NS8 SLP129=
CYOW;2006-11-08 07:39;SPECI CYOW 080739Z 09005KT 4SM -RA BR FEW004 OVC017 06/ RMK CF1NS7=
CYOW;2006-11-08 08:00;METAR CYOW 080800Z 09006KT 3SM -RA BR SCT008 OVC015 06/05 A2988 RMK SF3NS5 SLP121=
CYOW;2006-11-08 08:19;SPECI CYOW 080819Z 09006KT 3SM -RA BR OVC007 06/ RMK NS8=
CYOW;2006-11-08 09:00;METAR CYOW 080900Z 10007KT 2SM -RA BR OVC004 06/05 A2985 RMK NS8 VRY LGT RA SLP113=
CYOW;2006-11-08 09:17;SPECI CYOW 080917Z 09005KT 1 1/2SM BR OVC002 06/ RMK FG1ST7=
CYOW;2006-11-08 09:51;SPECI CYOW 080951Z 09005KT 1 1/2SM -DZ BR OVC002 06/ RMK FG1ST7=
CYOW;2006-11-08 10:00;METAR CYOW 081000Z 09006KT 1 1/2SM -DZ BR OVC002 06/06 A2985 RMK FG1ST7 SLP110=
CYOW;2006-11-08 10:23;SPECI CYOW 081023Z 09007KT 1SM R07/5500FT/N R32/6000FT/U -RA BR OVC001 06/ RMK FG1ST7=
CYOW;2006-11-08 11:00;METAR CYOW 081100Z 09006KT 1 1/2SM -RA BR OVC001 06/06 A2984 RMK FG1ST7 SLP107=
CYOW;2006-11-08 12:00;METAR CYOW 081200Z 09006KT 2SM -RA BR OVC002 06/06 A2983 RMK FG1ST7 SLP104=
CYOW;2006-11-08 13:00;METAR CYOW 081300Z 09006KT 2SM -RA BR OVC002 07/06 A2981 RMK FG1ST7 SLP099=
CYOW;2006-11-08 14:00;METAR CYOW 081400Z 09006KT 2SM -RA BR OVC002 07/06 A2979 RMK FG1ST7 SLP093=
CYOW;2006-11-08 15:00;METAR CYOW 081500Z 09006KT 1/2SM R07/4500FT R32/4000FT -RA FG OVC002 08/07 A2978 RMK FG4ST4 SLP087=
CYOW;2006-11-08 15:26;SPECI CYOW 081526Z 10006KT 1SM R07/6000FT R32/4500FT -RA BR OVC002 08/ RMK FG2ST6=
CYOW;2006-11-08 16:00;METAR CYOW 081600Z 09005KT 1SM R07/6000FT R32/6000FT -RA BR OVC002 08/07 A2975 RMK FG2ST6 SLP079=
CYOW;2006-11-08 17:00;METAR CYOW 081700Z 09004KT 1SM R07/6000FT R32/6000FT -RA BR OVC002 08/08 A2972 RMK FG2ST6 SLP069=
CYOW;2006-11-08 18:00;METAR CYOW 081800Z 08007KT 1SM R07/4500FT/D R32/3500V6000FT/D -RA BR OVC002 08/08 A2970 RMK FG2ST6 VRY LGT RA SLP061=
CYOW;2006-11-08 19:00;METAR CYOW 081900Z 08007KT 3/4SM R07/4500FT/U R32/4000FT/U -RA BR OVC002 08/08 A2968 RMK FG3ST5 VRY LGT RA SLP053=
CYOW;2006-11-08 20:00;METAR CYOW 082000Z 09006KT 3/4SM R07/0600FT/N R32/6000FT/D -RA BR OVC002 08/08 A2969 RMK FG3ST5 VRY LGT RA SLP056=
CYOW;2006-11-08 21:00;METAR CYOW 082100Z 08005KT 1SM R07/6000FT/N R32/6000FT/U -RA BR OVC002 08/08 A2968 RMK FG2ST6 SLP052=
CYOW;2006-11-08 22:00;METAR CYOW 082200Z 07006KT 1 1/2SM R07/6000FT/D R32/6000FT/N -RA BR OVC002 08/07 A2968 RMK FG2ST6 SLP053=
CYOW;2006-11-08 22:17;SPECI CYOW 082217Z 07004KT 3SM -RA BR OVC004 08/ RMK ST8=
CYOW;2006-11-08 22:51;SPECI CYOW 082251Z 07005KT 4SM -RA BR OVC002 08/ RMK ST8=
CYOW;2006-11-08 23:00;METAR CYOW 082300Z 06006KT 4SM -DZ BR BKN002 OVC008 08/07 A2968 RMK SF6ST2 SLP053=
CYOW;2006-11-09 00:00;METAR CYOW 090000Z 07004KT 2SM -DZ BR OVC002 08/07 A2966 RMK ST8 SLP048=
CYOW;2006-11-09 00:22;SPECI CYOW 090022Z 07005KT 3SM -DZ BR OVC002 08/ RMK ST8 VRY LGT DZ=
CYOW;2006-11-09 01:00;METAR CYOW 090100Z 06005KT 2 1/2SM -DZ BR OVC002 08/07 A2965 RMK ST8 SLP043=
CYOW;2006-11-09 02:00;METAR CYOW 090200Z 04004KT 2SM -DZ BR OVC002 08/07 A2964 RMK ST8 SLP039=
CYOW;2006-11-09 03:00;METAR CYOW 090300Z 05003KT 2SM -DZ BR OVC002 08/07 A2962 RMK ST8 CIG VRB 1-3 SLP034=
CYOW;2006-11-09 04:00;METAR CYOW 090400Z 04004KT 2SM -DZ BR OVC002 08/07 A2962 RMK ST8 SLP034=
CYOW;2006-11-09 05:00;METAR CYOW 090500Z 05002KT 1 1/2SM -DZ BR OVC001 08/07 A2962 RMK ST8 VRY LGT DZ SLP032=
CYOW;2006-11-09 05:56;SPECI CYOW 090556Z 04002KT 1 1/2SM BR SCT001 OVC013 08/ RMK SF3ST5=
CYOW;2006-11-09 06:00;METAR CYOW 090600Z 05002KT 1 1/2SM BR SCT001 OVC013 08/07 A2960 RMK SF3ST5 SLP026=
CYOW;2006-11-09 07:00;METAR CYOW 090700Z 07002KT 2 1/2SM BR FEW004 OVC010 08/07 A2959 RMK CF2ST6 SLP022=
CYOW;2006-11-09 07:51;SPECI CYOW 090751Z 00000KT 2 1/2SM BR OVC002 08/ RMK ST8=
CYOW;2006-11-09 08:00;METAR CYOW 090800Z 11002KT 2SM BR OVC002 08/07 A2957 RMK ST8 SLP018=
CYOW;2006-11-09 08:31;SPECI CYOW 090831Z 00000KT 1/2SM FG VV002 08/ RMK FG8=
CYOW;2006-11-09 09:00;METAR CYOW 090900Z 18002KT 1/2SM FG VV002 07/07 A2956 RMK FG8 SLP015=
CYOW;2006-11-09 10:00;METAR CYOW 091000Z 22002KT 1SM R07/6000FT/D R32/6000FT/D BR VV002 08/07 A2957 RMK FG8 SLP017=
CYOW;2006-11-09 10:38;SPECI CYOW 091038Z 17002KT 1/2SM R07/5000FT/U R32/6000FT/D FG VV001 08/ RMK FG8=
CYOW;2006-11-09 11:00;METAR CYOW 091100Z 18002KT 1/2SM R07/3500V5000FT/N R32/5000FT/D FG VV002 08/07 A2956 RMK FG8 SLP014=
CYOW;2006-11-09 11:15;SPECI CYOW 091115Z 24003KT 1SM R07/P6000FT/D R32/6000FT/U BR OVC017 08/ RMK FG1SC7=
CYOW;2006-11-09 12:00;METAR CYOW 091200Z 20004KT 1SM R07/6000FT/D R32/6000FT/D BR OVC018 08/07 A2956 RMK FG2ST6 SLP014=
CYOW;2006-11-09 13:00;METAR CYOW 091300Z 20005KT 4SM BR OVC013 09/08 A2955 RMK ST8 SLP010=
CYOW;2006-11-09 13:30;SPECI CYOW 091330Z 21005KT 6SM BR SCT015 BKN250 10/ RMK SF3CI1=
CYOW;2006-11-09 15:00;METAR CYOW 091500Z 22006KT 10SM BKN012 OVC100 11/09 A2953 RMK SF5AC3 SLP002=
CYOW;2006-11-09 16:00;METAR CYOW 091600Z 22010G16KT 10SM OVC009 11/09 A2950 RMK SF8 SLP993=
CYOW;2006-11-09 16:14;SPECI CYOW 091614Z 21007KT 10SM -RA OVC010 11/ RMK SF8=
CYOW;2006-11-09 17:00;METAR CYOW 091700Z 22011KT 10SM -RA BKN009 OVC020 11/09 A2948 RMK SF5SC3 VRY LGT RA SLP984=
CYOW;2006-11-09 18:00;METAR CYOW 091800Z 21008G17KT 10SM -RA BKN010 OVC020 10/08 A2946 RMK SF5SC3 SLP978=
CYOW;2006-11-09 19:00;METAR CYOW 091900Z 22009KT 8SM -RA OVC013 10/08 A2945 RMK SF8 VRY LGT RA SLP976=
CYOW;2006-11-09 20:00;METAR CYOW 092000Z 23006KT 8SM -RA OVC013 10/09 A2946 RMK SF8 SLP978=
CYOW;2006-11-09 21:00;METAR CYOW 092100Z 23005KT 8SM -RA OVC012 10/09 A2946 RMK SF8 SLP979=
CYOW;2006-11-09 23:00;METAR CYOW 092300Z 25007KT 10SM BKN015 OVC020 11/09 A2948 RMK ST6SC2 SLP986=
CYOW;2006-11-10 00:00;METAR CYOW 100000Z 25007KT 5SM BR FEW013 SCT060 10/08 A2950 RMK SF2SC2 SLP992=
CYOW;2006-11-10 01:00;METAR CYOW 100100Z 24008KT 5SM BR FEW030 BKN060 10/08 A2952 RMK CF2SC6 SLP998=
CYOW;2006-11-10 02:00;METAR CYOW 100200Z 25009KT 5SM BR BKN060 10/08 A2954 RMK SC6 SLP006=
CYOW;2006-11-10 03:00;METAR CYOW 100300Z 29013KT 15SM FEW023 BKN057 11/07 A2958 RMK SC1SC6 SLP018=
CYOW;2006-11-10 04:00;METAR CYOW 100400Z 29016G21KT 15SM FEW020 BKN041 10/05 A2961 RMK CF1SC6 SLP029=
CYOW;2006-11-10 05:00;METAR CYOW 100500Z 29010KT 15SM OVC041 09/04 A2966 RMK SC8 SLP045=
CYOW;2006-11-10 06:00;METAR CYOW 100600Z 30013G19KT 15SM OVC034 08/03 A2969 RMK SC8 SLP058=
CYOW;2006-11-10 07:00;METAR CYOW 100700Z 29011KT 15SM SCT034 BKN041 08/03 A2972 RMK SC3SC4 SLP068=
CYOW;2006-11-10 08:00;METAR CYOW 100800Z 29010G17KT 15SM BKN034 OVC045 08/03 A2975 RMK SC6SC2 SLP077=
CYOW;2006-11-10 09:00;METAR CYOW 100900Z 30013KT 15SM FEW033 06/01 A2979 RMK SC2 SLP092=
CYOW;2006-11-10 10:00;METAR CYOW 101000Z 29011KT 15SM OVC029 05/00 A2985 RMK SC8 SLP113=
CYOW;2006-11-10 11:00;METAR CYOW 101100Z 32013KT 15SM FEW030 04/M01 A2989 RMK SC2 SLP124=
CYOW;2006-11-10 12:00;METAR CYOW 101200Z 31008KT 15SM BKN028 04/M01 A2991 RMK SC5 SLP133=
CYOW;2006-11-10 13:00;METAR CYOW 101300Z 31010KT 15SM BKN024 05/M01 A2996 RMK SC6 SLP149=
CYOW;2006-11-10 14:00;METAR CYOW 101400Z 29012KT 15SM SCT026 SCT045 06/00 A2998 RMK SC3SC1 SLP157=
CYOW;2006-11-10 15:00;METAR CYOW 101500Z 30010KT 15SM BKN025 05/M00 A3000 RMK SC7 SLP162=
CYOW;2006-11-10 16:00;METAR CYOW 101600Z 28009KT 15SM BKN025 06/M00 A3001 RMK SC7 SLP166=
CYOW;2006-11-10 17:00;METAR CYOW 101700Z 31011KT 15SM BKN027 06/M00 A3000 RMK SC7 SLP164=
CYOW;2006-11-10 18:00;METAR CYOW 101800Z 32008KT 15SM BKN027 06/M00 A2999 RMK SC7 SLP161=
CYOW;2006-11-10 19:00;METAR CYOW 101900Z 29007KT 15SM BKN026 06/M00 A3001 RMK SC7 SLP165=
CYOW;2006-11-10 20:00;METAR CYOW 102000Z 29008KT 15SM BKN026 06/M00 A3002 RMK SC7 SLP171=
CYOW;2006-11-10 21:00;METAR CYOW 102100Z 31009KT 15SM SCT027 BKN060 BKN250 05/M00 A3004 RMK SC4SC2CI1 SLP175=
CYOW;2006-11-10 22:00;METAR CYOW 102200Z 31004KT 15SM SCT080 SCT240 04/M01 A3004 RMK AC3CI0 SLP176=
CYOW;2006-11-10 23:00;METAR CYOW 102300Z 33005KT 15SM BKN100 04/M00 A3005 RMK AC6 SLP179=
CYOW;2006-11-11 00:00;METAR CYOW 110000Z 35003KT 15SM BKN100 04/M01 A3005 RMK AC3 SLP179=
CYOW;2006-11-11 01:00;METAR CYOW 110100Z 01002KT 15SM FEW170 04/M01 A3004 RMK AC2 SLP176=
CYOW;2006-11-11 02:00;METAR CYOW 110200Z 04002KT 15SM FEW030 BKN160 04/M01 A3002 RMK CU1AC6 TR CU SLP172=
CYOW;2006-11-11 03:00;METAR CYOW 110300Z 00000KT 15SM OVC027 04/M00 A3002 RMK SC8 SLP172=
CYOW;2006-11-11 04:00;METAR CYOW 110400Z 07002KT 15SM OVC025 04/M00 A3002 RMK SC8 SLP169=
CYOW;2006-11-11 05:00;METAR CYOW 110500Z 09003KT 15SM OVC022 04/00 A3001 RMK SC8 SLP167=
CYOW;2006-11-11 06:00;METAR CYOW 110600Z 09005KT 15SM OVC023 04/00 A2999 RMK SC8 SLP158=
CYOW;2006-11-11 07:00;METAR CYOW 110700Z 09006KT 15SM FEW022 BKN110 04/00 A2997 RMK SC1AC6 SLP152=
CYOW;2006-11-11 08:00;METAR CYOW 110800Z 08008KT 15SM FEW022 BKN077 BKN110 03/M00 A2994 RMK SC1AC6AC1 SLP142=
CYOW;2006-11-11 09:00;METAR CYOW 110900Z 05007KT 15SM FEW022 BKN066 03/M00 A2991 RMK SC1AC6 SLP131=
CYOW;2006-11-11 10:00;METAR CYOW 111000Z 07010KT 15SM OVC060 03/M00 A2987 RMK SC8 MOON VSBL SLP120=
CYOW;2006-11-11 11:00;METAR CYOW 111100Z 06009KT 15SM BKN056 03/00 A2985 RMK SC7 SLP113=
CYOW;2006-11-11 12:00;METAR CYOW 111200Z 04011G17KT 12SM -RA OVC052 04/00 A2985 RMK SC8 SLP113=
CYOW;2006-11-11 13:00;METAR CYOW 111300Z 07013KT 15SM -RA OVC050 03/01 A2980 RMK SC8 SLP095=
CYOW;2006-11-11 14:00;METAR CYOW 111400Z 05011KT 10SM -RA FEW010 OVC036 04/02 A2984 RMK SF2SC6 SLP110=
CYOW;2006-11-11 15:00;METAR CYOW 111500Z 02010G15KT 3SM -RA BR BKN008 OVC016 04/02 A2986 RMK SF3NS5 SLP117=
CYOW;2006-11-11 15:47;SPECI CYOW 111547Z 03012KT 3SM RA BR BKN005 OVC016 04/ RMK SF6NS2=
CYOW;2006-11-11 16:00;METAR CYOW 111600Z 03011KT 5SM -RA BR BKN006 OVC015 04/02 A2986 RERA RMK SF6NS2 SLP117=
CYOW;2006-11-11 17:00;METAR CYOW 111700Z 04011KT 15SM -RA BKN008 OVC040 04/02 A2987 RMK SF5NS3 VRY LGT RA SLP120=
CYOW;2006-11-11 18:00;METAR CYOW 111800Z 04009KT 12SM -RA BKN008 OVC020 04/03 A2987 RMK SF5NS3 SLP120=
CYOW;2006-11-11 19:00;METAR CYOW 111900Z 04008KT 12SM -RA OVC013 04/02 A2988 RMK SC8 SLP121=
CYOW;2006-11-11 20:00;METAR CYOW 112000Z 01007KT 4SM RA BR OVC014 04/03 A2990 RMK NS8 SLP129=
CYOW;2006-11-11 21:00;METAR CYOW 112100Z 01008KT 5SM -RA BR OVC007 04/02 A2992 RMK SF8 SLP137=
CYOW;2006-11-11 22:00;METAR CYOW 112200Z 02011KT 15SM -RA BKN009 OVC017 04/02 A2995 RMK SF6NS2 SLP146=
CYOW;2006-11-11 23:00;METAR CYOW 112300Z 02011KT 5SM -RA BR FEW010 OVC020 03/01 A2997 RMK SF2NS6 SLP155=
CYOW;2006-11-12 00:00;METAR CYOW 120000Z 01010KT 12SM -RA SCT010 OVC020 03/01 A3000 RMK SF4SC4 SLP164=
CYOW;2006-11-12 01:00;METAR CYOW 120100Z 36012G17KT 15SM -RA SCT012 OVC024 03/00 A3004 RMK SF3SC5 VRY LGT RA SLP178=
CYOW;2006-11-12 01:11;SPECI CYOW 120111Z 01011KT 5SM -PL SCT015 OVC025 02/ RMK SC4SC4=
CYOW;2006-11-12 01:26;SPECI CYOW 120126Z 01012KT 12SM -RA FEW015 BKN025 OVC043 02/ RMK SC2SC4SC2=
CYOW;2006-11-12 02:00;METAR CYOW 120200Z 01011KT 12SM -RA FEW015 OVC024 02/M00 A3005 RMK SC1SC7 SLP180=
CYOW;2006-11-12 02:20;SPECI CYOW 120220Z 01011KT 15SM FEW015 BKN023 OVC033 02/ RMK SC1SC5SC2=
CYOW;2006-11-12 03:00;METAR CYOW 120300Z 02008KT 15SM FEW015 SCT025 OVC048 02/M01 A3008 RMK SC1SC3SC4 SLP192=
CYOW;2006-11-12 04:00;METAR CYOW 120400Z 01009KT 15SM SCT029 OVC050 02/M01 A3008 RMK SC3SC5 SLP191=
CYOW;2006-11-12 05:00;METAR CYOW 120500Z 04009KT 15SM FEW030 OVC052 02/M01 A3007 RMK SC2SC6 SLP189=
CYOW;2006-11-12 06:00;METAR CYOW 120600Z 01009KT 15SM FEW015 BKN032 OVC052 02/M01 A3010 RMK SC1SC4SC3 SLP197=
CYOW;2006-11-12 07:00;METAR CYOW 120700Z 36011KT 15SM BKN025 OVC052 02/M01 A3012 RMK SC6SC2 SLP206=
CYOW;2006-11-12 08:00;METAR CYOW 120800Z 36009G15KT 15SM OVC026 02/M02 A3014 RMK SC8 SLP212=
CYOW;2006-11-12 09:00;METAR CYOW 120900Z 01012KT 15SM OVC027 02/M02 A3016 RMK SC8 SLP219=
CYOW;2006-11-12 10:00;METAR CYOW 121000Z 03011KT 15SM OVC027 02/M02 A3018 RMK SC8 SLP224=
CYOW;2006-11-12 11:00;METAR CYOW 121100Z 01009KT 15SM OVC026 03/M02 A3022 RMK SC8 SLP237=
CYOW;2006-11-12 12:00;METAR CYOW 121200Z 01008KT 15SM OVC026 03/M02 A3021 RMK SC8 SLP234=
CYOW;2006-11-12 13:00;METAR CYOW 121300Z 36008KT 15SM OVC027 03/M02 A3026 RMK SC8 SLP251=
CYOW;2006-11-12 14:00;METAR CYOW 121400Z 02007KT 15SM OVC028 03/M01 A3027 RMK SC8 SLP256=
CYOW;2006-11-12 15:00;METAR CYOW 121500Z 02006KT 15SM VCSH OVC028 03/M01 A3028 RMK SC8 SH S SLP260=
CYOW;2006-11-12 15:16;SPECI CYOW 121516Z 04005KT 15SM -SHRA BKN027 BKN035 03/ RMK SC6SC2=
CYOW;2006-11-12 16:00;METAR CYOW 121600Z 02008KT 15SM -SHRA OVC024 03/M01 A3029 RMK SC8 SLP263=
CYOW;2006-11-12 17:00;METAR CYOW 121700Z 02008KT 15SM OVC024 04/M01 A3028 RMK SC8 SLP259=
CYOW;2006-11-12 18:00;METAR CYOW 121800Z 03009KT 15SM OVC023 04/M01 A3028 RMK SC8 SLP258=
CYOW;2006-11-12 19:00;METAR CYOW 121900Z 04008KT 15SM OVC023 04/M01 A3028 RMK SC8 SLP257=
CYOW;2006-11-12 20:00;METAR CYOW 122000Z 04009KT 15SM OVC022 05/M01 A3028 RMK SC8 SLP258=
CYOW;2006-11-12 21:00;METAR CYOW 122100Z 05009KT 15SM OVC020 04/M01 A3030 RMK SC8 SLP264=
CYOW;2006-11-12 22:00;METAR CYOW 122200Z 02008KT 15SM OVC021 04/M00 A3031 RMK SC8 SLP268=
CYOW;2006-11-12 23:00;METAR CYOW 122300Z 06005KT 15SM OVC021 04/M00 A3031 RMK SC8 SLP270=
CYOW;2006-11-13 00:00;METAR CYOW 130000Z 04006KT 15SM OVC019 04/M00 A3031 RMK SC8 SLP268=
CYOW;2006-11-13 01:00;METAR CYOW 130100Z 05005KT 15SM OVC018 04/00 A3031 RMK SC8 SLP269=
CYOW;2006-11-13 02:00;METAR CYOW 130200Z 04006KT 15SM OVC017 04/00 A3030 RMK SC8 SLP266=
CYOW;2006-11-13 03:00;METAR CYOW 130300Z 06004KT 15SM OVC016 04/00 A3031 RMK SC8 SLP268=
CYOW;2006-11-13 04:00;METAR CYOW 130400Z 05005KT 15SM OVC015 04/00 A3028 RMK SC8 SLP260=
CYOW;2006-11-13 04:35;SPECI CYOW 130435Z 04007KT 15SM OVC014 04/ RMK SC8=
CYOW;2006-11-13 05:00;METAR CYOW 130500Z 07007KT 15SM OVC014 04/01 A3026 RMK SC8 SLP253=
CYOW;2006-11-13 06:00;METAR CYOW 130600Z 02003KT 15SM OVC013 04/00 A3027 RMK SC8 SLP254=
CYOW;2006-11-13 07:00;METAR CYOW 130700Z 05003KT 15SM OVC013 04/01 A3026 RMK SC8 SLP253=
CYOW;2006-11-13 07:16;SPECI CYOW 130716Z 05006KT 10SM -DZ OVC012 04/ RMK ST8=
CYOW;2006-11-13 08:00;METAR CYOW 130800Z 05005KT 8SM -DZ OVC011 03/02 A3025 RMK ST8 SLP250=
CYOW;2006-11-13 08:17;SPECI CYOW 130817Z 01004KT 5SM -DZ BR OVC008 03/ RMK ST8=
CYOW;2006-11-13 08:32;SPECI CYOW 130832Z 06005KT 2SM -DZ BR FEW004 OVC008 03/ RMK SF2ST6=
CYOW;2006-11-13 09:00;METAR CYOW 130900Z 05005KT 2SM -DZ BR SCT004 OVC009 03/02 A3023 RMK SF3ST5 SLP242=
CYOW;2006-11-13 10:00;METAR CYOW 131000Z 07004KT 3SM -DZ BR OVC005 03/02 A3024 RMK SF8 SLP244=
CYOW;2006-11-13 10:33;SPECI CYOW 131033Z 06006KT 2SM -DZ BR OVC004 03/ RMK SF8=
CYOW;2006-11-13 10:50;SPECI CYOW 131050Z 06006KT 1 1/2SM -RADZ BR OVC004 03/ RMK FG2SF6=
CYOW;2006-11-13 11:00;METAR CYOW 131100Z 06007KT 1 1/2SM -RADZ BR OVC004 03/02 A3022 RMK FG2SF6 SLP237=
CYOW;2006-11-13 11:20;SPECI CYOW 131120Z 08008KT 1 1/2SM -DZ BR OVC004 04/ RMK FG2SF6=
CYOW;2006-11-13 12:00;METAR CYOW 131200Z 07006KT 2SM -DZ BR OVC004 04/02 A3021 RMK FG2SF6 SLP235=
CYOW;2006-11-13 13:00;METAR CYOW 131300Z 07006KT 4SM -DZ BR OVC005 04/03 A3020 RMK ST8 SLP233=
CYOW;2006-11-13 13:43;SPECI CYOW 131343Z 09008KT 5SM BR OVC004 04/ RMK ST8=
CYOW;2006-11-13 14:00;METAR CYOW 131400Z 09008KT 5SM BR OVC005 04/03 A3019 RMK ST8 SLP228=
CYOW;2006-11-13 14:29;SPECI CYOW 131429Z 09006KT 4SM -DZ BR OVC005 04/ RMK ST8=
CYOW;2006-11-13 15:00;METAR CYOW 131500Z 09007KT 5SM BR OVC005 04/03 A3019 RMK ST8 SLP227=
CYOW;2006-11-13 16:00;METAR CYOW 131600Z 09008KT 5SM BR OVC004 04/03 A3017 RMK ST8 SLP223=
CYOW;2006-11-13 17:00;METAR CYOW 131700Z 08007KT 5SM BR OVC004 05/04 A3014 RMK ST8 SLP211=
CYOW;2006-11-13 18:00;METAR CYOW 131800Z 09009KT 5SM BR OVC004 05/04 A3011 RMK ST8 SLP201=
CYOW;2006-11-13 19:00;METAR CYOW 131900Z 09006KT 5SM BR OVC004 06/05 A3010 RMK ST8 SLP197=
CYOW;2006-11-13 20:00;METAR CYOW 132000Z 08007KT 4SM BR OVC003 06/05 A3009 RMK ST8 SLP193=
CYOW;2006-11-13 21:00;METAR CYOW 132100Z 09008KT 4SM BR OVC003 06/05 A3007 RMK ST8 SLP187=
CYOW;2006-11-13 22:00;METAR CYOW 132200Z 08005KT 4SM BR OVC003 06/05 A3007 RMK ST8 SLP186=
CYOW;2006-11-13 22:29;SPECI CYOW 132229Z 08006KT 4SM -DZ BR OVC003 06/ RMK ST8=
CYOW;2006-11-13 23:00;METAR CYOW 132300Z 08005KT 4SM -DZ BR OVC003 06/05 A3006 RMK ST8 SLP184=
CYOW;2006-11-13 23:25;SPECI CYOW 132325Z 07005KT 4SM -RA BR OVC003 06/ RMK ST8 INTMT -DZ=
CYOW;2006-11-13 23:40;SPECI CYOW 132340Z 07005KT 5SM -RA BR OVC004 06/ RMK ST8=
CYOW;2006-11-14 00:00;METAR CYOW 140000Z 07006KT 5SM -RA BR OVC004 06/05 A3005 RMK ST8 SLP180=
CYOW;2006-11-14 01:00;METAR CYOW 140100Z 09007KT 4SM -RA BR OVC003 07/06 A3004 RMK ST8 SLP178=
CYOW;2006-11-14 02:00;METAR CYOW 140200Z 09010KT 4SM -RA BR OVC003 07/06 A3002 RMK ST8 SLP171=
CYOW;2006-11-14 03:00;METAR CYOW 140300Z 09008KT 3SM -RA BR OVC003 07/06 A3000 RMK NS8 SLP164=
CYOW;2006-11-14 03:33;SPECI CYOW 140333Z 09007KT 4SM -RA BR OVC003 07/ RMK NS8=
CYOW;2006-11-14 04:00;METAR CYOW 140400Z 09009KT 5SM -RA BR OVC003 07/06 A2999 RMK NS8 SLP159=
CYOW;2006-11-14 04:46;SPECI CYOW 140446Z 09010KT 6SM -RA BR OVC004 07/ RMK NS8=
CYOW;2006-11-14 05:00;METAR CYOW 140500Z 09010KT 6SM -RA BR OVC004 07/06 A2997 RMK NS8 SLP153=
CYOW;2006-11-14 06:00;METAR CYOW 140600Z 09010KT 5SM -RA BR OVC003 07/07 A2995 RERA RMK NS8 SLP146=
CYOW;2006-11-14 06:45;SPECI CYOW 140645Z 07007KT 6SM -RA BR OVC004 08/ RMK NS8=
CYOW;2006-11-14 07:00;METAR CYOW 140700Z 07007KT 6SM -RA BR OVC004 08/07 A2994 RMK NS8 SLP141=
CYOW;2006-11-14 08:00;METAR CYOW 140800Z 08008KT 6SM -RA BR OVC005 08/07 A2992 RERA RMK NS8 SLP136=
CYOW;2006-11-14 09:00;METAR CYOW 140900Z 07007KT 6SM -RA BR OVC005 07/06 A2991 RMK NS8 SLP133=
CYOW;2006-11-14 10:00;METAR CYOW 141000Z 05005KT 4SM RA BR OVC005 07/06 A2990 RMK NS8 SLP130=
CYOW;2006-11-14 10:37;SPECI CYOW 141037Z 04005KT 6SM -RA BR OVC004 07/ RERA RMK NS8=
CYOW;2006-11-14 11:00;METAR CYOW 141100Z 05005KT 6SM -RA BR OVC003 07/06 A2988 RERA RMK NS8 /R10/ SLP124=
CYOW;2006-11-14 12:00;METAR CYOW 141200Z 05004KT 6SM -RA BR OVC003 07/06 A2988 RMK NS8 /R13/ SLP121=
CYOW;2006-11-14 13:00;METAR CYOW 141300Z 04004KT 5SM -RA BR OVC004 07/06 A2988 RMK NS8 SLP120=
CYOW;2006-11-14 14:00;METAR CYOW 141400Z 06007KT 6SM -RA BR OVC005 08/07 A2985 RMK NS8 SLP111=
CYOW;2006-11-14 15:00;METAR CYOW 141500Z 07007KT 6SM -RA BR OVC005 08/07 A2982 RMK NS8 SLP103=
CYOW;2006-11-14 16:00;METAR CYOW 141600Z 08005KT 6SM -RA BR OVC007 08/07 A2981 RMK NS8 SLP097=
CYOW;2006-11-14 17:00;METAR CYOW 141700Z 00000KT 10SM -RA OVC008 09/07 A2979 RMK SC8 SLP092=
CYOW;2006-11-14 18:00;METAR CYOW 141800Z 04002KT 4SM -DZRA BR OVC008 09/08 A2978 RMK ST8 SLP087=
CYOW;2006-11-14 19:00;METAR CYOW 141900Z 35003KT 10SM -DZRA BKN006 OVC024 09/08 A2976 RMK SF6SC2 SLP083=
CYOW;2006-11-14 20:00;METAR CYOW 142000Z 31004KT 10SM -DZRA FEW005 BKN008 OVC020 09/08 A2978 RMK SF2ST5SC1 SLP087=
CYOW;2006-11-14 20:29;SPECI CYOW 142029Z 30006KT 3SM -DZ BR OVC004 09/ RMK ST8=
CYOW;2006-11-14 21:00;METAR CYOW 142100Z 29003KT 3SM -DZ BR BKN004 OVC009 09/08 A2978 RMK SF5ST3 SLP089=
CYOW;2006-11-14 21:48;SPECI CYOW 142148Z 29005KT 2SM -DZ BR OVC003 08/ RMK FG2ST6=
CYOW;2006-11-14 22:00;METAR CYOW 142200Z 28004KT 2SM -DZ BR OVC003 08/08 A2979 RMK FG2ST6 SLP090=
CYOW;2006-11-14 22:48;SPECI CYOW 142248Z 26004KT 6SM -DZ BR OVC003 08/ RMK ST8=
CYOW;2006-11-14 23:00;METAR CYOW 142300Z 26006KT 3SM -DZ BR OVC002 08/07 A2980 RMK ST8 SLP094=
CYOW;2006-11-15 00:00;METAR CYOW 150000Z 27005KT 4SM -DZ BR OVC002 08/07 A2981 RMK ST8 SLP097=
CYOW;2006-11-15 00:40;SPECI CYOW 150040Z 26005KT 4SM BR OVC002 07/ RMK ST8=
CYOW;2006-11-15 01:00;METAR CYOW 150100Z 26006KT 4SM BR OVC002 07/07 A2981 RMK ST8 SLP098=
CYOW;2006-11-15 01:26;SPECI CYOW 150126Z 26007KT 4SM BR SCT002 OVC004 07/ RMK SF3ST5 CIG RAG=
CYOW;2006-11-15 01:46;SPECI CYOW 150146Z 27004KT 4SM -DZ BR SCT002 OVC003 07/ RMK SF3ST5 CIG RAG=
CYOW;2006-11-15 02:00;METAR CYOW 150200Z 28005KT 3SM BR OVC003 07/06 A2982 RMK ST8 INTMT -DZ SLP103=
CYOW;2006-11-15 02:36;SPECI CYOW 150236Z 25005KT 8SM OVC003 07/ RMK ST8 CIG RAG=
CYOW;2006-11-15 03:00;METAR CYOW 150300Z 24004KT 8SM FEW002 OVC003 07/06 A2983 RMK SF2ST6 SLP106=
CYOW;2006-11-15 03:29;SPECI CYOW 150329Z 24004KT 4SM -DZ OVC003 07/ RMK ST8=
CYOW;2006-11-15 04:00;METAR CYOW 150400Z 25004KT 8SM FEW004 OVC026 06/06 A2983 RMK SF2SC6 SLP106=
CYOW;2006-11-15 04:14;SPECI CYOW 150414Z 24004KT 4SM -RA BR OVC002 06/ RMK ST8=
CYOW;2006-11-15 05:00;METAR CYOW 150500Z 25004KT 4SM -DZ OVC002 06/05 A2986 RMK ST8 SLP114=
CYOW;2006-11-15 05:14;SPECI CYOW 150514Z 25004KT 1 1/2SM -DZ BR OVC002 06/ RMK ST8=
CYOW;2006-11-15 05:49;SPECI CYOW 150549Z 25003KT 4SM -DZ OVC004 06/ RMK SF8 CIG RAG=
CYOW;2006-11-15 06:00;METAR CYOW 150600Z 25003KT 4SM -DZ FEW002 OVC010 06/06 A2986 RMK SF2ST6 SLP114=
CYOW;2006-11-15 06:20;SPECI CYOW 150620Z 27004KT 7SM FEW008 OVC045 06/ RMK CF2SC6=
CYOW;2006-11-15 06:35;SPECI CYOW 150635Z 27002KT 4SM -RA BR FEW002 OVC010 06/ RMK CF2NS6=
CYOW;2006-11-15 07:00;METAR CYOW 150700Z 26003KT 4SM -RA BR OVC003 06/05 A2986 RMK NS8 SLP116=
CYOW;2006-11-15 07:19;SPECI CYOW 150719Z 26003KT 8SM FEW001 OVC005 06/ RMK SF1ST7=
CYOW;2006-11-15 08:00;METAR CYOW 150800Z 22003KT 8SM FEW003 OVC009 06/05 A2988 RMK CF1SC7 SLP120=
CYOW;2006-11-15 08:36;SPECI CYOW 150836Z 00000KT 1 1/2SM -DZ OVC004 06/ RMK ST8=
CYOW;2006-11-15 08:52;SPECI CYOW 150852Z 22003KT 1SM -DZ BR VV002 06/ RMK FG8=
CYOW;2006-11-15 09:00;METAR CYOW 150900Z 22003KT 1SM -DZ BR VV002 06/06 A2989 RMK FG8 SLP126=
CYOW;2006-11-15 09:36;SPECI CYOW 150936Z 00000KT 1 1/2SM -DZ BR OVC005 06/ RMK ST8=
CYOW;2006-11-15 09:48;SPECI CYOW 150948Z 00000KT 1 1/4SM BR VV002 06/ RMK FG8=
CYOW;2006-11-15 10:00;METAR CYOW 151000Z 00000KT 1 1/4SM BR VV002 06/06 A2989 RMK FG8 SLP125=
CYOW;2006-11-15 10:15;SPECI CYOW 151015Z 00000KT 1/2SM R07/6000FT/D R32/5000FT/D FG VV002 06/ RMK FG8=
CYOW;2006-11-15 11:00;METAR CYOW 151100Z 00000KT 1/2SM FG VV002 06/06 A2990 RMK FG8 SLP129=
CYOW;2006-11-15 12:00;METAR CYOW 151200Z 22004KT 1SM BR VV002 06/06 A2992 RMK FG8 SLP135=
CYOW;2006-11-15 13:00;METAR CYOW 151300Z 23006KT 10SM SCT005 OVC042 07/06 A2994 RMK SF3SC5 SLP141=
CYOW;2006-11-15 14:00;METAR CYOW 151400Z 22005KT 15SM FEW005 BKN037 07/05 A2995 RMK SF1SC6 SLP147=
CYOW;2006-11-15 15:00;METAR CYOW 151500Z 22005KT 15SM FEW010 BKN046 08/05 A2997 RMK SF1SC6 SLP153=
CYOW;2006-11-15 16:00;METAR CYOW 151600Z 24007KT 15SM FEW025 BKN047 BKN090 08/04 A2997 RMK CU1SC4AC1 SLP154=
CYOW;2006-11-15 18:00;METAR CYOW 151800Z 22004KT 12SM FEW025 BKN035 08/04 A2998 RMK CU1SC6 SLP156=
CYOW;2006-11-15 19:00;METAR CYOW 151900Z 23007KT 12SM FEW025 BKN044 09/04 A2998 RMK CU1SC6 SLP156=
CYOW;2006-11-15 20:00;METAR CYOW 152000Z 20003KT 12SM FEW025 OVC034 08/04 A2999 RMK CU1SC7 SLP159=
CYOW;2006-11-15 21:00;METAR CYOW 152100Z 00000KT 15SM FEW025 BKN039 08/04 A2999 RMK CU1SC6 SLP160=
CYOW;2006-11-15 22:00;METAR CYOW 152200Z 14004KT 15SM BKN040 06/04 A3000 RMK SC6 SLP164=
CYOW;2006-11-15 23:00;METAR CYOW 152300Z 11002KT 15SM FEW044 06/03 A3001 RMK SC1 SLP166=
CYOW;2006-11-16 00:00;METAR CYOW 160000Z 11004KT 15SM SKC 05/03 A3000 RMK SLP163=
CYOW;2006-11-16 01:00;METAR CYOW 160100Z 11002KT 8SM SCT036 BKN250 04/03 A3000 RMK SC3CI1 SLP164=
CYOW;2006-11-16 02:00;METAR CYOW 160200Z 09002KT 8SM FEW030 05/04 A3001 RMK SC2 SLP165=
CYOW;2006-11-16 03:00;METAR CYOW 160300Z 06003KT 8SM OVC031 06/05 A3000 RMK SC8 SLP164=
CYOW;2006-11-16 03:44;SPECI CYOW 160344Z 03005KT 4SM -RA BR OVC029 06/ RMK SC8=
CYOW;2006-11-16 04:00;METAR CYOW 160400Z 04004KT 4SM -RA BR OVC026 06/04 A2999 RMK SC8 SLP160=
CYOW;2006-11-16 04:47;SPECI CYOW 160447Z 06004KT 2 1/2SM -RA BR OVC024 06/ RMK NS8=
CYOW;2006-11-16 05:00;METAR CYOW 160500Z 06005KT 2SM -RA BR OVC030 05/05 A2999 RMK NS8 SLP158=
CYOW;2006-11-16 06:00;METAR CYOW 160600Z 06007KT 2SM -RA BR OVC020 06/05 A2996 RMK NS8 SLP151=
CYOW;2006-11-16 06:13;SPECI CYOW 160613Z 06008KT 2SM -RA BR SCT003 OVC018 06/ RMK CF3NS5=
CYOW;2006-11-16 06:40;SPECI CYOW 160640Z 06009KT 3SM -RA BR SCT003 OVC017 06/ RMK CF3NS5=
CYOW;2006-11-16 07:00;METAR CYOW 160700Z 05010KT 3SM -RA BR FEW003 OVC014 06/05 A2994 RMK CF2NS6 SLP143=
CYOW;2006-11-16 07:17;SPECI CYOW 160717Z 06012KT 3SM -RA BR OVC003 06/ RMK NS8 CIG RAG=
CYOW;2006-11-16 08:00;METAR CYOW 160800Z 06013KT 3SM -RA BR BKN003 OVC008 06/05 A2991 RMK CF5NS3 SLP131=
CYOW;2006-11-16 09:00;METAR CYOW 160900Z 07010KT 4SM -RA BR OVC003 06/06 A2989 RMK NS8 PRESFR SLP124=
CYOW;2006-11-16 10:00;METAR CYOW 161000Z 08007KT 3SM -RA BR OVC002 07/06 A2986 RMK NS8 SLP115=
CYOW;2006-11-16 10:32;SPECI CYOW 161032Z 08009KT 2 1/2SM -RA BR OVC002 07/ RMK NS8=
CYOW;2006-11-16 11:00;METAR CYOW 161100Z 08010KT 2 1/2SM -RA BR OVC002 07/07 A2984 RMK NS8 SLP109=
CYOW;2006-11-16 11:21;SPECI CYOW 161121Z 08010KT 3SM -RA BR OVC002 08/ RMK NS8=
CYOW;2006-11-16 12:00;METAR CYOW 161200Z 08014KT 3SM -RA BR OVC002 08/07 A2982 RMK NS8 SLP102=
CYOW;2006-11-16 13:00;METAR CYOW 161300Z 08011KT 2SM -RA BR OVC003 08/08 A2982 RMK FG2NS6 SLP103=
CYOW;2006-11-16 13:48;SPECI CYOW 161348Z 07012KT 5SM -RA BR SCT003 OVC038 09/ RMK SF3NS5=
CYOW;2006-11-16 14:00;METAR CYOW 161400Z 07012KT 5SM -RA BR SCT003 OVC042 09/08 A2978 RMK SF3NS5 SLP087=
CYOW;2006-11-16 14:12;SPECI CYOW 161412Z 07012KT 5SM -RA BR BKN003 OVC040 09/ RMK SF5NS3=
CYOW;2006-11-16 15:00;METAR CYOW 161500Z 09014KT 5SM -RA BR BKN003 OVC040 09/09 A2976 RMK SF6NS2 SLP080=
CYOW;2006-11-16 16:00;METAR CYOW 161600Z 08011KT 4SM -RA BR BKN003 OVC040 10/09 A2971 RMK SF7NS1 SLP066=
CYOW;2006-11-16 17:00;METAR CYOW 161700Z 08009KT 4SM -RA BR BKN005 OVC040 10/10 A2967 RMK SF6NS2 SLP052=
CYOW;2006-11-16 18:00;METAR CYOW 161800Z 09012KT 4SM -RA BR BKN005 OVC050 11/10 A2962 RMK SF5NS3 SLP035=
CYOW;2006-11-16 19:00;METAR CYOW 161900Z 09013KT 5SM -RA BR BKN005 OVC070 12/11 A2958 RMK SF5NS3 SLP019=
CYOW;2006-11-16 20:00;METAR CYOW 162000Z 09013KT 3SM -RA BR BKN005 OVC070 13/12 A2954 RMK SF6NS2 SLP006=
CYOW;2006-11-16 21:00;METAR CYOW 162100Z 10014G20KT 4SM -RA BR SCT007 OVC035 13/12 A2951 RMK SF4SC4 SLP997=
CYOW;2006-11-16 22:00;METAR CYOW 162200Z 08015KT 4SM -RA BR BKN005 OVC046 14/13 A2945 RMK SF6SC2 PRESFR SLP974=
CYOW;2006-11-16 22:42;SPECI CYOW 162242Z 08015KT 6SM -RA BR FEW010 OVC032 14/ RMK SF2SC6=
CYOW;2006-11-16 23:00;METAR CYOW 162300Z 08013KT 6SM -RA BR SCT005 OVC040 14/13 A2942 RMK SF3SC5 SLP967=
CYOW;2006-11-16 23:49;SPECI CYOW 162349Z 09012KT 10SM FEW007 BKN030 OVC150 14/ RMK CF1SC5AC2=
CYOW;2006-11-17 00:00;METAR CYOW 170000Z 11012G18KT 10SM FEW007 SCT030 OVC150 14/13 A2941 RMK CF1SC2AC5 /R13/ SLP960=
CYOW;2006-11-17 00:40;SPECI CYOW 170040Z 13015KT 15SM OVC008 15/ RMK ST8=
CYOW;2006-11-17 01:00;METAR CYOW 170100Z 15011G20KT 15SM FEW007 BKN090 OVC180 15/14 A2939 RMK SF1AC4AC3 SLP956=
CYOW;2006-11-17 02:00;METAR CYOW 170200Z 16014G20KT 15SM FEW100 OVC240 15/13 A2936 RMK AC1CI7 SLP946=
CYOW;2006-11-17 03:00;METAR CYOW 170300Z 15011G16KT 15SM FEW090 15/13 A2936 RMK AC2 SLP943=
CYOW;2006-11-17 04:00;METAR CYOW 170400Z 13009KT 15SM BKN040 15/13 A2936 RMK SC7 SLP944=
CYOW;2006-11-17 05:00;METAR CYOW 170500Z 09003KT 15SM OVC030 14/13 A2935 RMK SC8 SLP942=
CYOW;2006-11-17 06:00;METAR CYOW 170600Z 10002KT 15SM BKN025 13/12 A2934 RMK SC7 SLP937=
CYOW;2006-11-17 07:00;METAR CYOW 170700Z 10003KT 15SM FEW017 OVC027 13/12 A2934 RMK SC1SC7 SLP938=
CYOW;2006-11-17 08:00;METAR CYOW 170800Z 20004KT 15SM FEW017 13/12 A2935 RMK SC2 SLP940=
CYOW;2006-11-17 08:11;SPECI CYOW 170811Z 21003KT 15SM OVC011 13/ RMK SC8=
CYOW;2006-11-17 08:29;SPECI CYOW 170829Z 16006KT 15SM OVC008 13/ RMK SC8=
CYOW;2006-11-17 09:00;METAR CYOW 170900Z 18005KT 15SM OVC006 13/12 A2934 RMK SC8 SLP938=
CYOW;2006-11-17 09:15;SPECI CYOW 170915Z 19008KT 10SM OVC004 13/ RMK SC8=
CYOW;2006-11-17 09:37;SPECI CYOW 170937Z 20006KT 8SM -RA FEW005 OVC012 13/ RMK CF2SC6=
CYOW;2006-11-17 10:00;METAR CYOW 171000Z 20008KT 8SM -RA FEW007 OVC014 13/12 A2937 RMK CF2SC6 VRY LGT RA SLP947=
CYOW;2006-11-17 11:00;METAR CYOW 171100Z 22009KT 10SM BKN007 OVC013 12/11 A2939 RMK CF6SC2 SLP954=
CYOW;2006-11-17 12:00;METAR CYOW 171200Z 21012G17KT 12SM BKN010 OVC053 11/09 A2942 RMK SF6SC2 SLP965=
CYOW;2006-11-17 13:00;METAR CYOW 171300Z 20013G18KT 12SM BKN013 BKN060 10/08 A2946 RMK SF5SC2 SLP978=
CYOW;2006-11-17 14:00;METAR CYOW 171400Z 21013KT 15SM BKN013 OVC060 10/08 A2949 RMK SF6SC2 SLP988=
CYOW;2006-11-17 14:22;SPECI CYOW 171422Z 21015G21KT 12SM -RA BKN010 OVC060 09/ RMK SF6SC2=
CYOW;2006-11-17 15:00;METAR CYOW 171500Z 24014G19KT 15SM BKN011 BKN040 08/07 A2952 RMK SF5SC2 SLP998=
CYOW;2006-11-17 16:00;METAR CYOW 171600Z 25018G24KT 15SM SCT015 BKN029 07/03 A2956 RMK SF3SC4 SLP012=
CYOW;2006-11-17 17:00;METAR CYOW 171700Z 23017KT 15SM FEW010 BKN024 07/04 A2958 RMK SF2SC6 SLP018=
CYOW;2006-11-17 17:50;SPECI CYOW 171750Z 25015KT 10SM -RA OVC018 07/ RMK SC8=
CYOW;2006-11-17 18:00;METAR CYOW 171800Z 25015G21KT 6SM -RA BR OVC017 06/04 A2961 RMK SC8 SLP030=
CYOW;2006-11-17 19:00;METAR CYOW 171900Z 27011KT 15SM -RA BKN018 OVC049 06/03 A2963 RMK SC6SC2 VRY LGT RA SLP036=
CYOW;2006-11-17 19:47;SPECI CYOW 171947Z 24013G18KT 15SM SCT022 BKN058 OVC240 06/ RMK SC3SC3CI1=
CYOW;2006-11-17 20:00;METAR CYOW 172000Z 25011KT 15SM VCSH SCT020 BKN060 BKN240 06/03 A2966 RMK SC3SC2CI1 SLP045=
CYOW;2006-11-17 21:00;METAR CYOW 172100Z 25015KT 15SM VCSH SCT022 BKN055 06/00 A2969 RMK SC3SC2 SLP057=
CYOW;2006-11-17 22:00;METAR CYOW 172200Z 26011KT 15SM FEW027 OVC050 05/01 A2974 RMK SC2SC6 SLP073=
CYOW;2006-11-17 23:00;METAR CYOW 172300Z 29015G20KT 15SM SCT025 OVC050 04/00 A2978 RMK SC3SC5 SLP088=
CYOW;2006-11-18 00:00;METAR CYOW 180000Z 28013KT 15SM SCT050 04/M01 A2982 RMK SC3 SLP103=
CYOW;2006-11-18 01:00;METAR CYOW 180100Z 27009G16KT 15SM BKN033 04/M01 A2985 RMK SC6 SLP113=
CYOW;2006-11-18 02:00;METAR CYOW 180200Z 29009KT 15SM FEW020 03/M02 A2988 RMK SC2 SLP121=
CYOW;2006-11-18 03:00;METAR CYOW 180300Z 27009KT 15SM FEW020 02/M02 A2990 RMK SC2 SLP130=
CYOW;2006-11-18 04:00;METAR CYOW 180400Z 28010KT 15SM SCT023 02/M02 A2991 RMK SC4 SLP133=
CYOW;2006-11-18 05:00;METAR CYOW 180500Z 27008KT 15SM FEW018 01/M02 A2993 RMK SC2 SLP138=
CYOW;2006-11-18 06:00;METAR CYOW 180600Z 26005KT 15SM FEW061 00/M02 A2994 RMK SC2 SLP143=
CYOW;2006-11-18 07:00;METAR CYOW 180700Z 26007KT 15SM BKN018 00/M02 A2995 RMK SC7 SLP147=
CYOW;2006-11-18 08:00;METAR CYOW 180800Z 24003KT 15SM FEW018 OVC078 01/M02 A2996 RMK CF1AC7 SLP149=
CYOW;2006-11-18 09:00;METAR CYOW 180900Z 28006KT 15SM FEW016 OVC077 01/M02 A2996 RMK SC2AC6 SLP152=
CYOW;2006-11-18 10:00;METAR CYOW 181000Z 27005KT 15SM FEW016 OVC077 01/M02 A2997 RMK SC2AC6 SLP155=
CYOW;2006-11-18 11:00;METAR CYOW 181100Z 28002KT 15SM FEW014 OVC077 01/M01 A2999 RMK CF1AC7 SLP161=
CYOW;2006-11-18 12:00;METAR CYOW 181200Z 27004KT 15SM FEW012 BKN077 02/M01 A3001 RMK CF1AC6 SLP167=
CYOW;2006-11-18 13:00;METAR CYOW 181300Z 27005KT 15SM FEW010 BKN076 02/M01 A3002 RMK CF1AC6 SLP170=
CYOW;2006-11-18 14:00;METAR CYOW 181400Z 29007KT 15SM FEW010 OVC078 02/M01 A3002 RMK CF1AC7 SLP170=
CYOW;2006-11-18 15:00;METAR CYOW 181500Z 31006KT 15SM BKN017 OVC077 03/M01 A3003 RMK CF6AC2 SLP173=
CYOW;2006-11-18 16:00;METAR CYOW 181600Z 28007KT 15SM BKN018 OVC080 03/M01 A3002 RMK SC6AC2 SLP169=
CYOW;2006-11-18 17:00;METAR CYOW 181700Z 29008KT 15SM OVC020 03/M01 A3001 RMK SC8 SLP168=
CYOW;2006-11-18 18:00;METAR CYOW 181800Z 30008KT 15SM OVC020 03/M01 A3000 RMK SC8 SLP164=
CYOW;2006-11-18 19:00;METAR CYOW 181900Z 27006KT 15SM OVC020 03/M01 A3001 RMK SC8 SLP167=
CYOW;2006-11-18 20:00;METAR CYOW 182000Z 29006KT 15SM OVC022 03/M02 A3001 RMK SC8 SLP167=
CYOW;2006-11-18 21:00;METAR CYOW 182100Z 27006KT 15SM OVC023 03/M03 A3002 RMK SC8 SLP173=
CYOW;2006-11-18 22:00;METAR CYOW 182200Z 27005KT 15SM OVC020 02/M02 A3002 RMK SC8 SLP172=
CYOW;2006-11-18 23:00;METAR CYOW 182300Z 31007KT 15SM OVC017 02/M01 A3002 RMK SC8 SLP171=
CYOW;2006-11-19 00:00;METAR CYOW 190000Z 31007KT 15SM OVC025 02/M02 A3002 RMK SC8 SLP170=
CYOW;2006-11-19 01:00;METAR CYOW 190100Z 33007KT 15SM BKN027 OVC120 02/M02 A3003 RMK SC7AC1 SLP173=
CYOW;2006-11-19 02:00;METAR CYOW 190200Z 33008KT 15SM BKN025 OVC120 01/M03 A3003 RMK SC7AC1 SLP174=
CYOW;2006-11-19 03:00;METAR CYOW 190300Z 33006KT 15SM BKN023 OVC120 01/M03 A3003 RMK SC7AC1 SLP175=
CYOW;2006-11-19 04:00;METAR CYOW 190400Z 32006KT 15SM OVC023 01/M03 A3002 RMK SC8 SLP173=
CYOW;2006-11-19 05:00;METAR CYOW 190500Z 34006KT 15SM OVC021 01/M03 A3002 RMK SC8 SLP173=
CYOW;2006-11-19 06:00;METAR CYOW 190600Z 35007KT 15SM OVC021 01/M04 A3002 RMK SC8 SLP171=
CYOW;2006-11-19 07:00;METAR CYOW 190700Z 33007KT 15SM OVC021 00/M04 A3002 RMK SC8 SLP171=
CYOW;2006-11-19 08:00;METAR CYOW 190800Z 33008KT 15SM OVC017 00/M04 A3001 RMK SC8 VIRGA NW SLP168=
CYOW;2006-11-19 09:00;METAR CYOW 190900Z 32007KT 15SM OVC021 00/M04 A3002 RMK SC8 VIRGA N SLP170=
CYOW;2006-11-19 10:00;METAR CYOW 191000Z 34007KT 15SM OVC022 M00/M04 A3002 RMK SC8 VIRGA N SLP170=
CYOW;2006-11-19 11:00;METAR CYOW 191100Z 35003KT 15SM OVC019 M00/M04 A3002 RMK SC8 SLP171=
CYOW;2006-11-19 11:22;SPECI CYOW 191122Z 01005KT 15SM -SN OVC019 M00/ RMK SC8=
CYOW;2006-11-19 11:48;SPECI CYOW 191148Z 33005KT 15SM OVC021 M00/ RMK SC8=
CYOW;2006-11-19 12:00;METAR CYOW 191200Z 32007KT 15SM OVC020 M00/M04 A3002 RMK SC8 SLP172=
CYOW;2006-11-19 13:00;METAR CYOW 191300Z 36006KT 15SM -SN OVC018 M00/M04 A3002 RMK SC8 SN FINE SLP173=
CYOW;2006-11-19 13:36;SPECI CYOW 191336Z 34005KT 15SM OVC021 00/ RMK SC8=
CYOW;2006-11-19 14:00;METAR CYOW 191400Z 34006KT 15SM OVC020 00/M04 A3002 RMK SC8 SLP173=
CYOW;2006-11-19 15:00;METAR CYOW 191500Z 34007KT 15SM OVC025 01/M04 A3003 RMK SC8 SLP174=
CYOW;2006-11-19 16:00;METAR CYOW 191600Z 31007KT 15SM OVC022 01/M05 A3003 RMK SC8 SLP174=
CYOW;2006-11-19 17:00;METAR CYOW 191700Z 32008KT 15SM OVC022 01/M05 A3001 RMK SC8 SLP169=
CYOW;2006-11-19 18:00;METAR CYOW 191800Z 32008KT 15SM OVC024 01/M05 A3000 RMK SC8 SLP165=
CYOW;2006-11-19 19:00;METAR CYOW 191900Z 33008KT 15SM OVC030 01/M06 A2999 RMK SC8 SLP163=
CYOW;2006-11-19 20:00;METAR CYOW 192000Z 32008KT 15SM OVC031 01/M06 A2999 RMK SC8 SLP161=
CYOW;2006-11-19 21:00;METAR CYOW 192100Z 34009KT 15SM OVC032 01/M06 A2999 RMK SC8 SLP162=
CYOW;2006-11-19 22:00;METAR CYOW 192200Z 34008KT 15SM OVC026 01/M05 A2999 RMK SC8 SLP162=
CYOW;2006-11-19 23:00;METAR CYOW 192300Z 33009KT 15SM OVC028 01/M05 A3000 RMK SC8 SLP165=
CYOW;2006-11-20 00:00;METAR CYOW 200000Z 34010KT 15SM OVC027 01/M06 A3000 RMK SC8 SLP165=
CYOW;2006-11-20 01:00;METAR CYOW 200100Z 34009KT 15SM OVC026 00/M06 A3000 RMK SC8 SLP165=
CYOW;2006-11-20 02:00;METAR CYOW 200200Z 35007KT 15SM OVC029 00/M06 A3000 RMK SC8 SLP165=
CYOW;2006-11-20 03:00;METAR CYOW 200300Z 36009KT 15SM OVC028 00/M06 A3000 RMK SC8 SLP165=
CYOW;2006-11-20 04:00;METAR CYOW 200400Z 34010KT 15SM OVC029 00/M06 A2999 RMK SC8 SLP163=
CYOW;2006-11-20 05:00;METAR CYOW 200500Z 33010KT 15SM OVC028 M00/M06 A3000 RMK SC8 SLP166=
CYOW;2006-11-20 06:00;METAR CYOW 200600Z 33010KT 15SM OVC026 M01/M06 A3000 RMK SC8 SLP166=
CYOW;2006-11-20 07:00;METAR CYOW 200700Z 35008KT 15SM BKN031 OVC090 M01/M07 A3002 RMK SC7AC1 SLP170=
CYOW;2006-11-20 08:00;METAR CYOW 200800Z 34008G15KT 15SM OVC027 M01/M08 A3002 RMK SC8 VIRGA N SLP173=
CYOW;2006-11-20 09:00;METAR CYOW 200900Z 34010KT 15SM BKN029 M01/M08 A3004 RMK SC7 VIRGA N SLP178=
CYOW;2006-11-20 10:00;METAR CYOW 201000Z 34008KT 15SM BKN031 M01/M07 A3005 RMK SC7 SLP183=
CYOW;2006-11-20 11:00;METAR CYOW 201100Z 31006KT 15SM BKN031 BKN160 M02/M07 A3007 RMK SC5AC1 SLP187=
CYOW;2006-11-20 12:00;METAR CYOW 201200Z 32010KT 15SM OVC028 M01/M07 A3008 RMK SC8 SLP193=
CYOW;2006-11-20 13:00;METAR CYOW 201300Z 32011KT 15SM BKN028 BKN120 M01/M07 A3011 RMK SC5AC2 SLP200=
CYOW;2006-11-20 14:00;METAR CYOW 201400Z 32008KT 15SM SCT025 BKN120 M01/M06 A3011 RMK SC3AC3 SLP203=
CYOW;2006-11-20 15:00;METAR CYOW 201500Z 32010KT 15SM BKN030 BKN120 M01/M07 A3013 RMK SC5AC2 SLP209=
CYOW;2006-11-20 16:00;METAR CYOW 201600Z 34008KT 15SM OVC033 01/M07 A3014 RMK SC8 SLP213=
CYOW;2006-11-20 17:00;METAR CYOW 201700Z 32010KT 15SM OVC031 00/M06 A3014 RMK SC8 SLP213=
CYOW;2006-11-20 18:00;METAR CYOW 201800Z 32011KT 15SM OVC025 00/M06 A3016 RMK SC8 SLP219=
CYOW;2006-11-20 19:00;METAR CYOW 201900Z 32008KT 15SM OVC027 00/M06 A3017 RMK SC8 SLP224=
CYOW;2006-11-20 20:00;METAR CYOW 202000Z 30011KT 15SM OVC032 00/M07 A3019 RMK SC8 SLP230=
CYOW;2006-11-20 21:00;METAR CYOW 202100Z 31010KT 15SM OVC033 00/M07 A3022 RMK SC8 OCNL BINOVC SLP238=
CYOW;2006-11-20 22:00;METAR CYOW 202200Z 33010KT 15SM OVC031 M01/M08 A3024 RMK SC8 SLP246=
CYOW;2006-11-20 23:00;METAR CYOW 202300Z 31009KT 15SM OVC029 M01/M08 A3026 RMK SC8 SLP253=
CYOW;2006-11-21 00:00;METAR CYOW 210000Z 32008KT 15SM OVC027 M02/M08 A3030 RMK SC8 SLP266=
CYOW;2006-11-21 01:00;METAR CYOW 210100Z 31010KT 15SM OVC030 M02/M09 A3033 RMK SC8 SLP276=
CYOW;2006-11-21 02:00;METAR CYOW 210200Z 31006KT 15SM OVC029 M02/M08 A3034 RMK SC8 SLP280=
CYOW;2006-11-21 03:00;METAR CYOW 210300Z 28004KT 15SM OVC028 M02/M08 A3035 RMK SC8 SLP283=
CYOW;2006-11-21 04:00;METAR CYOW 210400Z 27004KT 15SM OVC027 M02/M08 A3035 RMK SC8 SLP284=
CYOW;2006-11-21 05:00;METAR CYOW 210500Z 27007KT 15SM OVC027 M02/M08 A3037 RMK SC8 SLP290=
CYOW;2006-11-21 06:00;METAR CYOW 210600Z 26007KT 15SM OVC028 M02/M09 A3039 RMK SC8 SLP297=
CYOW;2006-11-21 07:00;METAR CYOW 210700Z 28004KT 15SM OVC028 M03/M09 A3040 RMK SC8 SLP302=
CYOW;2006-11-21 08:00;METAR CYOW 210800Z 26006KT 15SM OVC025 M03/M09 A3042 RMK SC8 SLP307=
CYOW;2006-11-21 09:00;METAR CYOW 210900Z 25005KT 15SM BKN026 M03/M09 A3043 RMK SC7 SLP313=
CYOW;2006-11-21 10:00;METAR CYOW 211000Z 26003KT 15SM BKN026 M03/M09 A3045 RMK SC7 SLP320=
CYOW;2006-11-21 11:00;METAR CYOW 211100Z 24004KT 15SM BKN025 M03/M09 A3046 RMK SC7 SLP323=
CYOW;2006-11-21 12:00;METAR CYOW 211200Z 20002KT 15SM FEW025 M04/M09 A3048 RMK SC1 SLP329=
CYOW;2006-11-21 13:00;METAR CYOW 211300Z 18003KT 15SM FEW025 M04/M08 A3049 RMK SC1 SLP332=
CYOW;2006-11-21 14:00;METAR CYOW 211400Z 20006KT 15SM FEW025 M02/M09 A3051 RMK SC1 SLP338=
CYOW;2006-11-21 15:00;METAR CYOW 211500Z 20005KT 15SM FEW025 M01/M08 A3053 RMK SC1 SLP344=
CYOW;2006-11-21 16:00;METAR CYOW 211600Z 19006KT 15SM FEW025 M00/M07 A3051 RMK SC1 SLP340=
CYOW;2006-11-21 17:00;METAR CYOW 211700Z 22007KT 15SM FEW025 02/M07 A3050 RMK SC1 SLP335=
CYOW;2006-11-21 18:00;METAR CYOW 211800Z 21008KT 15SM FEW025 FEW140 BKN240 02/M06 A3048 RMK SC1AC1CI2 SLP329=
CYOW;2006-11-21 19:00;METAR CYOW 211900Z 22009KT 15SM FEW025 FEW140 BKN240 02/M07 A3048 RMK SC1AC2CI2 SLP326=
CYOW;2006-11-21 20:00;METAR CYOW 212000Z 22009KT 15SM FEW025 FEW140 BKN240 BKN260 02/M06 A3047 RMK SC1AC2CI2CI1 SLP324=
CYOW;2006-11-21 21:00;METAR CYOW 212100Z 20004KT 15SM FEW025 BKN200 BKN260 02/M06 A3046 RMK SC2CI2CI1 SLP321=
CYOW;2006-11-21 22:00;METAR CYOW 212200Z 20007KT 15SM FEW025 FEW200 SCT240 01/M06 A3045 RMK SC1CI1CI0 SLP319=
CYOW;2006-11-21 23:00;METAR CYOW 212300Z 22005KT 15SM FEW240 01/M05 A3048 RMK CI1 SLP327=
CYOW;2006-11-22 00:00;METAR CYOW 220000Z 20004KT 15SM FEW230 01/M05 A3049 RMK CI1 SLP333=
CYOW;2006-11-22 01:00;METAR CYOW 220100Z 17006KT 15SM FEW220 M01/M05 A3050 RMK CI1 SLP334=
CYOW;2006-11-22 02:00;METAR CYOW 220200Z 19005KT 15SM FEW220 M00/M04 A3051 RMK CI1 SLP337=
CYOW;2006-11-22 03:00;METAR CYOW 220300Z 00000KT 15SM BKN160 M01/M04 A3050 RMK AC5 SLP336=
CYOW;2006-11-22 04:00;METAR CYOW 220400Z 00000KT 15SM FEW150 M01/M04 A3049 RMK AC2 SLP332=
CYOW;2006-11-22 05:00;METAR CYOW 220500Z 21002KT 15SM SKC M01/M04 A3049 RMK SLP333=
CYOW;2006-11-22 06:00;METAR CYOW 220600Z 19004KT 15SM BKN150 M02/M04 A3048 RMK AC5 FROIN SLP329=
CYOW;2006-11-22 07:00;METAR CYOW 220700Z 18004KT 15SM SKC M02/M04 A3050 RMK SLP333=
CYOW;2006-11-22 08:00;METAR CYOW 220800Z 17002KT 15SM SKC M03/M05 A3050 RMK FROIN SLP334=
CYOW;2006-11-22 09:00;METAR CYOW 220900Z 10003KT 15SM SCT150 M04/M06 A3049 RMK AC3 FROIN SLP333=
CYOW;2006-11-22 10:00;METAR CYOW 221000Z 18003KT 15SM SKC M03/M05 A3052 RMK FROIN SLP341=
CYOW;2006-11-22 11:00;METAR CYOW 221100Z 20002KT 15SM FEW150 M02/M04 A3052 RMK AC1 FROIN SLP341=
CYOW;2006-11-22 12:00;METAR CYOW 221200Z 17002KT 15SM MIFG FEW150 M04/M05 A3053 RMK AC1 FROIN SLP344=
CYOW;2006-11-22 13:00;METAR CYOW 221300Z 00000KT 12SM FEW150 M03/M04 A3052 RMK AC1 FROIN SLP341=
CYOW;2006-11-22 14:00;METAR CYOW 221400Z 09002KT 12SM FEW150 M01/M03 A3051 RMK AC1 SLP340=
CYOW;2006-11-22 15:00;METAR CYOW 221500Z 00000KT 15SM SKC 01/M02 A3052 RMK SLP341=
CYOW;2006-11-22 16:00;METAR CYOW 221600Z 10004KT 15SM FEW150 03/M01 A3051 RMK AC1 SLP339=
CYOW;2006-11-22 17:00;METAR CYOW 221700Z 06004KT 15SM FEW180 04/M01 A3048 RMK AC1 SLP329=
CYOW;2006-11-22 18:00;METAR CYOW 221800Z 02003KT 15SM FEW180 05/M01 A3045 RMK AC1 SLP318=
CYOW;2006-11-22 19:00;METAR CYOW 221900Z 06003KT 15SM FEW180 06/M01 A3043 RMK AC1 SLP311=
CYOW;2006-11-22 20:00;METAR CYOW 222000Z 07005KT 15SM FEW180 05/M01 A3042 RMK AC1 SLP309=
CYOW;2006-11-22 21:00;METAR CYOW 222100Z 07002KT 15SM FEW180 04/M02 A3044 RMK AC1 SLP315=
CYOW;2006-11-22 22:00;METAR CYOW 222200Z 05004KT 15SM SKC 04/M02 A3045 RMK SLP317=
CYOW;2006-11-22 23:00;METAR CYOW 222300Z 05005KT 15SM SKC 03/M02 A3045 RMK SLP318=
CYOW;2006-11-22 23:25;SPECI CYOW 222325Z 07004KT 15SM SKC 02/=
CYOW;2006-11-23 00:00;METAR CYOW 230000Z 06007KT 15SM SKC 02/M02 A3045 RMK SLP319=
CYOW;2006-11-23 01:00;METAR CYOW 230100Z 08005KT 15SM SKC 00/M03 A3045 RMK SLP318=
CYOW;2006-11-23 02:00;METAR CYOW 230200Z 07006KT 10SM SKC 01/M03 A3044 RMK SLP315=
CYOW;2006-11-23 03:00;METAR CYOW 230300Z 07006KT 15SM SKC 00/M03 A3043 RMK SLP310=
CYOW;2006-11-23 04:00;METAR CYOW 230400Z 06006KT 8SM SKC M00/M03 A3041 RMK SLP305=
CYOW;2006-11-23 06:00;METAR CYOW 230600Z 07005KT 8SM SKC M01/M04 A3039 RMK SLP298=
CYOW;2006-11-23 07:00;METAR CYOW 230700Z 05006KT 8SM SKC M01/M04 A3040 RMK SLP299=
CYOW;2006-11-23 08:00;METAR CYOW 230800Z 07005KT 15SM SKC M01/M04 A3040 RMK SLP300=
CYOW;2006-11-23 09:00;METAR CYOW 230900Z 07007KT 7SM SKC M01/M04 A3039 RMK SLP298=
CYOW;2006-11-23 10:00;METAR CYOW 231000Z 05006KT 7SM SKC M02/M04 A3038 RMK FROIN SLP293=
CYOW;2006-11-23 11:00;METAR CYOW 231100Z 06006KT 7SM SKC M02/M04 A3036 RMK FROIN SLP286=
CYOW;2006-11-23 12:00;METAR CYOW 231200Z 11002KT 7SM SKC M03/M05 A3037 RMK FROIN SLP292=
CYOW;2006-11-23 13:00;METAR CYOW 231300Z 05004KT 3SM BR SKC M02/M04 A3037 RMK FROIN SLP292=
CYOW;2006-11-23 14:00;METAR CYOW 231400Z 08004KT 8SM FEW180 M01/M03 A3036 RMK AC1 SLP289=
CYOW;2006-11-23 15:00;METAR CYOW 231500Z 02004KT 12SM FEW180 00/M02 A3036 RMK AC1 SLP286=
CYOW;2006-11-23 16:00;METAR CYOW 231600Z 09002KT 15SM FEW180 02/M01 A3033 RMK AC1 SLP278=
CYOW;2006-11-23 17:00;METAR CYOW 231700Z 00000KT 15SM FEW180 04/M01 A3030 RMK AC1 SLP267=
CYOW;2006-11-23 18:00;METAR CYOW 231800Z 02002KT 15SM FEW190 06/M01 A3030 RMK AC0 SLP266=
CYOW;2006-11-23 19:00;METAR CYOW 231900Z 00000KT 15SM FEW190 07/M02 A3028 RMK AC0 SLP260=
CYOW;2006-11-23 20:00;METAR CYOW 232000Z 00000KT 15SM FEW190 08/M02 A3026 RMK AC0 SLP253=
CYOW;2006-11-23 21:00;METAR CYOW 232100Z 00000KT 15SM FEW120 FEW190 07/M03 A3027 RMK AC1AC0 SLP254=
CYOW;2006-11-23 22:00;METAR CYOW 232200Z 00000KT 15SM SKC 05/M03 A3025 RMK SLP249=
CYOW;2006-11-23 23:00;METAR CYOW 232300Z 20002KT 15SM SKC 04/M03 A3025 RMK SLP247=
CYOW;2006-11-24 00:00;METAR CYOW 240000Z 00000KT 15SM SKC 03/M02 A3023 RMK SLP244=
CYOW;2006-11-24 00:32;SPECI CYOW 240032Z 27003KT 15SM SKC 02/=
CYOW;2006-11-24 01:00;METAR CYOW 240100Z 28002KT 15SM SKC 02/M03 A3024 RMK SLP246=
CYOW;2006-11-24 02:00;METAR CYOW 240200Z 31007KT 15SM SKC 01/M03 A3024 RMK SLP245=
CYOW;2006-11-24 03:00;METAR CYOW 240300Z 31005KT 15SM SKC 01/M02 A3023 RMK SLP243=
CYOW;2006-11-24 04:00;METAR CYOW 240400Z 31004KT 15SM SKC M00/M02 A3023 RMK SLP243=
CYOW;2006-11-24 05:00;METAR CYOW 240500Z 32007KT 15SM SKC M01/M04 A3024 RMK SLP245=
CYOW;2006-11-24 06:00;METAR CYOW 240600Z 33007KT 15SM SKC M00/M04 A3024 RMK SLP245=
CYOW;2006-11-24 07:00;METAR CYOW 240700Z 32005KT 15SM SKC 00/M04 A3025 RMK SLP248=
CYOW;2006-11-24 08:00;METAR CYOW 240800Z 32007KT 15SM SKC M01/M04 A3026 RMK SLP253=
CYOW;2006-11-24 09:00;METAR CYOW 240900Z 33006KT 15SM SKC M01/M04 A3027 RMK SLP256=
CYOW;2006-11-24 10:00;METAR CYOW 241000Z 31004KT 15SM SKC M01/M04 A3027 RMK SLP256=
CYOW;2006-11-24 11:00;METAR CYOW 241100Z 32008KT 15SM SKC M02/M05 A3031 RMK SLP267=
CYOW;2006-11-24 14:00;METAR CYOW 241400Z 35006KT 15SM FEW190 02/M02 A3034 RMK AC1 SLP278=
CYOW;2006-11-24 15:00;METAR CYOW 241500Z 35007KT 15SM FEW190 03/M02 A3036 RMK AC1 SLP285=
CYOW;2006-11-24 16:00;METAR CYOW 241600Z 32007KT 15SM SKC 04/M03 A3036 RMK SLP287=
CYOW;2006-11-24 17:00;METAR CYOW 241700Z 35006KT 15SM FEW250 04/M03 A3034 RMK CI1 SLP281=
CYOW;2006-11-24 18:00;METAR CYOW 241800Z 01003KT 15SM FEW120 FEW250 05/M03 A3033 RMK AC1CI0 AC TR SLP275=
CYOW;2006-11-24 19:00;METAR CYOW 241900Z 09002KT 15SM FEW250 06/M03 A3032 RMK CI0 SLP273=
CYOW;2006-11-24 20:00;METAR CYOW 242000Z 36002KT 15SM FEW120 FEW250 06/M04 A3032 RMK AC1CI0 SLP273=
CYOW;2006-11-24 21:00;METAR CYOW 242100Z 07004KT 15SM FEW250 05/M04 A3031 RMK CI0 SLP270=
CYOW;2006-11-24 22:00;METAR CYOW 242200Z 09002KT 15SM FEW250 04/M05 A3031 RMK CI0 SLP269=
CYOW;2006-11-24 23:00;METAR CYOW 242300Z 18002KT 15SM FEW250 04/M04 A3033 RMK CI1 SLP277=
CYOW;2006-11-24 23:23;SPECI CYOW 242323Z 16003KT 15SM FEW250 02/ RMK CI1=
CYOW;2006-11-25 00:00;METAR CYOW 250000Z 13004KT 15SM FEW250 M00/M05 A3033 RMK CI1 SLP278=
CYOW;2006-11-25 01:00;METAR CYOW 250100Z 13005KT 15SM SKC M02/M06 A3032 RMK SLP275=
CYOW;2006-11-25 02:00;METAR CYOW 250200Z 12004KT 15SM SKC M01/M05 A3033 RMK SLP277=
CYOW;2006-11-25 03:00;METAR CYOW 250300Z 12007KT 15SM FEW270 M02/M05 A3032 RMK CI0 SLP273=
CYOW;2006-11-25 04:00;METAR CYOW 250400Z 12005KT 15SM SKC M02/M05 A3030 RMK SLP267=
CYOW;2006-11-25 05:00;METAR CYOW 250500Z 09004KT 15SM SKC M01/M06 A3030 RMK SLP266=
CYOW;2006-11-25 06:00;METAR CYOW 250600Z 07005KT 15SM SKC M01/M05 A3029 RMK SLP263=
CYOW;2006-11-25 07:00;METAR CYOW 250700Z 06006KT 15SM SKC M01/M05 A3029 RMK SLP264=
CYOW;2006-11-25 08:00;METAR CYOW 250800Z 07004KT 15SM SKC M02/M05 A3030 RMK SLP267=
CYOW;2006-11-25 09:00;METAR CYOW 250900Z 09005KT 15SM SKC M03/M06 A3029 RMK SLP263=
CYOW;2006-11-25 10:00;METAR CYOW 251000Z 08006KT 15SM SCT250 M03/M06 A3028 RMK CI0 SLP260=
CYOW;2006-11-25 11:00;METAR CYOW 251100Z 05005KT 15SM FEW250 M03/M06 A3029 RMK CI2 SLP262=
CYOW;2006-11-25 11:22;SPECI CYOW 251122Z 09004KT 15SM SCT008 SCT250 M04/ RMK SF2CI1=
CYOW;2006-11-25 13:00;METAR CYOW 251300Z 07004KT 12SM SCT008 BKN240 M02/M05 A3031 RMK ST2CI0 FROIN SLP269=
CYOW;2006-11-25 14:00;METAR CYOW 251400Z 09004KT 12SM FEW010 SCT240 M01/M04 A3029 RMK ST1CI0 SLP264=
CYOW;2006-11-25 15:00;METAR CYOW 251500Z 12005KT 10SM FEW020 SCT240 02/M03 A3029 RMK SC1CI1 SLP263=
CYOW;2006-11-25 16:00;METAR CYOW 251600Z 12004KT 10SM FEW180 SCT240 03/M02 A3027 RMK AC2CI0 SLP257=
CYOW;2006-11-25 17:00;METAR CYOW 251700Z 15006KT 12SM FEW100 SCT240 06/M01 A3025 RMK AC2CI0 SLP249=
CYOW;2006-11-25 18:00;METAR CYOW 251800Z 17006KT 12SM SCT110 SCT240 07/M01 A3021 RMK AC3CI0 SLP236=
CYOW;2006-11-25 19:00;METAR CYOW 251900Z 19005KT 15SM SCT110 BKN240 09/M01 A3020 RMK AC3CI0 SLP233=
CYOW;2006-11-25 20:00;METAR CYOW 252000Z 16004KT 15SM FEW110 BKN240 09/M01 A3019 RMK AC1CI1 SLP230=
CYOW;2006-11-25 21:00;METAR CYOW 252100Z 10003KT 15SM FEW110 BKN240 06/M01 A3020 RMK AC2CI0 SLP231=
CYOW;2006-11-25 22:00;METAR CYOW 252200Z 09004KT 15SM FEW110 BKN240 03/M02 A3019 RMK AC1CI1 SLP230=
CYOW;2006-11-25 23:00;METAR CYOW 252300Z 14004KT 15SM BKN240 03/M02 A3019 RMK CI2 SLP230=
CYOW;2006-11-26 00:00;METAR CYOW 260000Z 06004KT 15SM BKN240 04/M02 A3019 RMK CI2 SLP230=
CYOW;2006-11-26 01:00;METAR CYOW 260100Z 05005KT 15SM BKN270 03/M02 A3019 RMK CI2 SLP230=
CYOW;2006-11-26 01:47;SPECI CYOW 260147Z 06005KT 15SM BKN240 02/ RMK CI2=
CYOW;2006-11-26 02:00;METAR CYOW 260200Z 05006KT 15SM BKN270 02/M02 A3019 RMK CI2 SLP229=
CYOW;2006-11-26 03:00;METAR CYOW 260300Z 11006KT 15SM BKN270 M01/M04 A3017 RMK CI2 SLP223=
CYOW;2006-11-26 04:00;METAR CYOW 260400Z 04005KT 15SM BKN270 00/M03 A3016 RMK CI2 SLP219=
CYOW;2006-11-26 05:00;METAR CYOW 260500Z 07005KT 15SM SCT270 M00/M03 A3016 RMK CI1 SLP219=
CYOW;2006-11-26 06:00;METAR CYOW 260600Z 05005KT 15SM FEW100 SCT270 M00/M03 A3015 RMK AC1CI1 SLP216=
CYOW;2006-11-26 07:00;METAR CYOW 260700Z 07005KT 15SM FEW100 SCT270 M01/M03 A3014 RMK AC1CI1 SLP211=
CYOW;2006-11-26 08:00;METAR CYOW 260800Z 06006KT 15SM FEW100 SCT250 M00/M03 A3015 RMK AC1CI1 SLP215=
CYOW;2006-11-26 09:00;METAR CYOW 260900Z 03007KT 15SM FEW150 BKN250 M00/M03 A3015 RMK AC2CI1 SLP214=
CYOW;2006-11-26 10:00;METAR CYOW 261000Z 05003KT 15SM BKN160 BKN250 M00/M03 A3015 RMK AC6CI1 SLP214=
CYOW;2006-11-26 11:00;METAR CYOW 261100Z 07004KT 15SM FEW050 BKN160 M01/M03 A3015 RMK SC1AC5 SLP214=
CYOW;2006-11-26 12:00;METAR CYOW 261200Z 09002KT 12SM OVC040 01/M03 A3017 RMK SC8 SLP222=
CYOW;2006-11-26 13:00;METAR CYOW 261300Z 17005KT 12SM SCT050 BKN240 01/M02 A3017 RMK SC3CI0 SLP222=
CYOW;2006-11-26 14:00;METAR CYOW 261400Z 20002KT 12SM OVC054 04/M00 A3018 RMK SC8 SLP225=
CYOW;2006-11-26 15:00;METAR CYOW 261500Z 27003KT 12SM OVC050 04/00 A3021 RMK SC8 SLP236=
CYOW;2006-11-26 16:00;METAR CYOW 261600Z 21005KT 12SM OVC046 06/02 A3021 RMK SC8 SLP235=
CYOW;2006-11-26 17:00;METAR CYOW 261700Z 23005KT 10SM BKN050 OVC070 08/03 A3020 RMK SC6AC2 SLP232=
CYOW;2006-11-26 18:00;METAR CYOW 261800Z 23005KT 10SM OVC073 09/04 A3020 RMK AC8 SLP231=
CYOW;2006-11-26 19:00;METAR CYOW 261900Z 26005KT 12SM OVC072 10/04 A3020 RMK AC8 SLP231=
CYOW;2006-11-26 20:00;METAR CYOW 262000Z 22005KT 12SM SCT080 BKN240 10/04 A3020 RMK AC3CI1 SLP233=
CYOW;2006-11-26 21:00;METAR CYOW 262100Z 34003KT 12SM OVC072 08/04 A3022 RMK AC8 SLP240=
CYOW;2006-11-26 22:00;METAR CYOW 262200Z 06003KT 12SM OVC038 08/03 A3023 RMK SC8 SLP242=
CYOW;2006-11-26 23:00;METAR CYOW 262300Z 05003KT 12SM OVC037 08/03 A3025 RMK SC8 SLP249=
CYOW;2006-11-27 00:00;METAR CYOW 270000Z 07003KT 12SM OVC033 08/03 A3025 RMK SC8 SLP250=
CYOW;2006-11-27 01:00;METAR CYOW 270100Z 05003KT 12SM OVC031 07/03 A3026 RMK SC8 SLP251=
CYOW;2006-11-27 02:00;METAR CYOW 270200Z 09003KT 12SM OVC027 07/03 A3025 RMK SC8 SLP248=
CYOW;2006-11-27 03:00;METAR CYOW 270300Z 04003KT 12SM OVC024 07/03 A3025 RMK SC8 SLP250=
CYOW;2006-11-27 04:00;METAR CYOW 270400Z 04004KT 12SM OVC024 07/03 A3025 RMK SC8 SLP248=
CYOW;2006-11-27 05:00;METAR CYOW 270500Z 09003KT 12SM OVC022 07/02 A3024 RMK SC8 SLP245=
CYOW;2006-11-27 06:00;METAR CYOW 270600Z 06005KT 12SM BKN022 OVC030 07/02 A3022 RMK SC6SC2 SLP239=
CYOW;2006-11-27 07:00;METAR CYOW 270700Z 05005KT 12SM FEW022 OVC030 06/02 A3023 RMK SC2SC6 SLP242=
CYOW;2006-11-27 08:00;METAR CYOW 270800Z 07005KT 12SM OVC028 06/02 A3023 RMK SC8 SLP241=
CYOW;2006-11-27 08:45;SPECI CYOW 270845Z 07007KT 10SM -RA OVC029 06/ RMK SC8=
CYOW;2006-11-27 09:00;METAR CYOW 270900Z 06006KT 12SM OVC029 06/02 A3021 RMK SC8 INTMT -RA SLP234=
CYOW;2006-11-27 09:08;SPECI CYOW 270908Z 04006KT 12SM OVC029 06/ RMK SC8=
CYOW;2006-11-27 10:00;METAR CYOW 271000Z 07008KT 12SM OVC029 05/03 A3020 RMK SC8 SLP232=
CYOW;2006-11-27 11:00;METAR CYOW 271100Z 07006KT 10SM OVC032 05/03 A3021 RMK SC8 SLP235=
CYOW;2006-11-27 12:00;METAR CYOW 271200Z 04006KT 7SM OVC030 05/03 A3022 RMK SC8 SLP238=
CYOW;2006-11-27 13:00;METAR CYOW 271300Z 05007KT 5SM HZ OVC026 05/02 A3022 RMK SC8 SLP239=
CYOW;2006-11-27 14:00;METAR CYOW 271400Z 06005KT 5SM HZ OVC019 05/03 A3023 RMK SC8 SLP240=
CYOW;2006-11-27 15:00;METAR CYOW 271500Z 03005KT 5SM HZ OVC018 06/03 A3024 RMK SC8 SLP244=
CYOW;2006-11-27 16:00;METAR CYOW 271600Z 05006KT 5SM HZ OVC018 06/03 A3024 RMK SC8 SLP244=
CYOW;2006-11-27 17:00;METAR CYOW 271700Z 04006KT 5SM HZ BKN010 OVC017 06/03 A3022 RMK SF5SC3 SLP238=
CYOW;2006-11-27 18:00;METAR CYOW 271800Z 07005KT 5SM HZ SCT010 OVC017 06/03 A3021 RMK SF3SC5 SLP235=
CYOW;2006-11-27 18:17;SPECI CYOW 271817Z 07005KT 5SM -RA HZ OVC010 06/ RMK SC8=
CYOW;2006-11-27 19:00;METAR CYOW 271900Z 05004KT 4SM -RA BR BKN010 OVC018 06/04 A3021 RMK SF5SC3 SLP234=
CYOW;2006-11-27 19:41;SPECI CYOW 271941Z 05003KT 2SM -RA BR BKN012 OVC018 06/ RMK SF6NS2=
CYOW;2006-11-27 20:00;METAR CYOW 272000Z 05004KT 2SM -RA BR BKN013 OVC023 06/04 A3023 RMK SF6NS2 SLP242=
CYOW;2006-11-27 21:00;METAR CYOW 272100Z 08004KT 2SM -RA BR BKN012 OVC030 06/04 A3025 RMK SF5NS3 SLP247=
CYOW;2006-11-27 22:00;METAR CYOW 272200Z 05006KT 1 1/2SM -RA BR FEW004 OVC010 05/04 A3025 RMK SF2NS6 SLP249=
CYOW;2006-11-27 22:37;SPECI CYOW 272237Z 08006KT 2 1/2SM -RA BR OVC008 05/ RMK SF8=
CYOW;2006-11-27 23:00;METAR CYOW 272300Z 07007KT 2SM -RA BR OVC009 05/03 A3027 RMK SF8 SLP254=
CYOW;2006-11-28 00:00;METAR CYOW 280000Z 09003KT 2SM -RA BR FEW004 OVC009 04/03 A3030 RMK SF2NS6 SLP265=
CYOW;2006-11-28 01:00;METAR CYOW 280100Z 08007KT 2SM -RA BR SCT004 OVC009 04/03 A3030 RMK SF4NS4 SLP266=
CYOW;2006-11-28 01:18;SPECI CYOW 280118Z 08005KT 1 1/2SM -RADZ BR BKN003 OVC009 04/ RMK FG2SF5NS2=
CYOW;2006-11-28 02:00;METAR CYOW 280200Z 08005KT 1 1/2SM -RADZ BR OVC003 04/03 A3031 RMK FG2ST6 SLP270=
CYOW;2006-11-28 02:19;SPECI CYOW 280219Z 08007KT 1 1/2SM -DZ BR OVC003 04/ RMK FG2ST6=
CYOW;2006-11-28 02:35;SPECI CYOW 280235Z 08008KT 1 1/4SM -DZ BR OVC002 04/ RMK FG2ST6=
CYOW;2006-11-28 03:52;SPECI CYOW 280352Z 08007KT 2SM -DZ BR BKN002 OVC013 03/ RMK SF6SC2=
CYOW;2006-11-28 04:00;METAR CYOW 280400Z 08008KT 2SM -DZ BR BKN002 OVC013 03/01 A3034 RMK SF6SC2 SLP277=
CYOW;2006-11-28 04:33;SPECI CYOW 280433Z 08006KT 2SM -DZ BR SCT003 OVC007 03/ RMK SF4ST4=
CYOW;2006-11-28 05:00;METAR CYOW 280500Z 07009KT 4SM -DZ BR BKN008 OVC014 03/01 A3034 RMK SF5SC3 SLP279=
CYOW;2006-11-28 05:17;SPECI CYOW 280517Z 09006KT 5SM -DZ BR SCT008 OVC016 03/ RMK SF3SC5=
CYOW;2006-11-28 05:33;SPECI CYOW 280533Z 08007KT 5SM -DZ BR BKN008 OVC016 02/ RMK SF5SC3=
CYOW;2006-11-28 05:48;SPECI CYOW 280548Z 07008KT 6SM BR BKN007 OVC017 02/ RMK SF5SC3=
CYOW;2006-11-28 06:00;METAR CYOW 280600Z 07012KT 6SM BR BKN007 OVC017 02/00 A3034 RMK SF5SC3 SLP280=
CYOW;2006-11-28 06:18;SPECI CYOW 280618Z 07012G17KT 8SM FEW007 OVC018 02/ RMK SF2SC6=
CYOW;2006-11-28 07:00;METAR CYOW 280700Z 08008KT 10SM BKN018 OVC027 02/M01 A3036 RMK SC6SC2 SLP287=
CYOW;2006-11-28 08:00;METAR CYOW 280800Z 08010KT 10SM FEW013 BKN024 OVC042 01/M01 A3037 RMK SC2SC4SC2 SLP290=
CYOW;2006-11-28 08:32;SPECI CYOW 280832Z 07011G16KT 10SM BKN012 OVC025 01/ RMK SC5SC3=
CYOW;2006-11-28 09:00;METAR CYOW 280900Z 07009KT 10SM BKN011 OVC025 01/M02 A3038 RMK SC6SC2 SLP294=
CYOW;2006-11-28 10:00;METAR CYOW 281000Z 08014G20KT 10SM OVC014 00/M04 A3039 RMK SC8 SLP295=
CYOW;2006-11-28 10:40;SPECI CYOW 281040Z 08012G17KT 12SM OVC017 00/ RMK SC8=
CYOW;2006-11-28 11:00;METAR CYOW 281100Z 08011KT 12SM OVC017 00/M04 A3039 RMK SC8 SLP296=
CYOW;2006-11-28 12:00;METAR CYOW 281200Z 08009KT 10SM OVC017 00/M05 A3042 RMK SC8 SLP306=
CYOW;2006-11-28 13:00;METAR CYOW 281300Z 09012KT 15SM OVC017 00/M04 A3042 RMK SC8 SLP307=
CYOW;2006-11-28 14:00;METAR CYOW 281400Z 08014KT 15SM OVC017 00/M05 A3042 RMK SC8 SLP307=
CYOW;2006-11-28 15:00;METAR CYOW 281500Z 08008KT 15SM BKN017 OVC025 00/M04 A3043 RMK SC5SC3 SLP309=
CYOW;2006-11-28 16:00;METAR CYOW 281600Z 06013G18KT 15SM BKN017 OVC035 01/M04 A3039 RMK SC5SC3 SLP297=
CYOW;2006-11-28 17:00;METAR CYOW 281700Z 09009G15KT 15SM BKN019 OVC035 01/M04 A3037 RMK SC6SC2 SLP289=
CYOW;2006-11-28 18:00;METAR CYOW 281800Z 10011G16KT 15SM OVC019 01/M04 A3036 RMK SC8 SLP286=
CYOW;2006-11-28 19:00;METAR CYOW 281900Z 08007KT 15SM OVC018 01/M04 A3035 RMK SC8 SLP282=
CYOW;2006-11-28 20:00;METAR CYOW 282000Z 09015KT 15SM OVC015 00/M04 A3032 RMK SC8 SLP274=
CYOW;2006-11-28 21:00;METAR CYOW 282100Z 09011KT 15SM -RA OVC016 M00/M03 A3032 RMK SC8 SLP273=
CYOW;2006-11-28 21:08;SPECI CYOW 282108Z 09009KT 12SM -FZRA OVC016 M00/ RMK SC8=
CYOW;2006-11-28 22:00;METAR CYOW 282200Z 09010KT 12SM -FZRA OVC016 M01/M03 A3031 RMK SC8 VRY LGT FZRA SLP271=
CYOW;2006-11-28 23:00;METAR CYOW 282300Z 07009KT 12SM -FZRA OVC014 M01/M03 A3032 RMK SC8 VRY LGT FZRA SLP272=
CYOW;2006-11-28 23:21;SPECI CYOW 282321Z 09009KT 12SM FEW008 OVC011 M01/ REFZRA RMK SF1SC7=
CYOW;2006-11-29 01:00;METAR CYOW 290100Z 08008KT 10SM OVC009 M01/M03 A3030 RMK SC8 SLP266=
CYOW;2006-11-29 02:00;METAR CYOW 290200Z 07008KT 8SM BKN009 OVC015 M01/M03 A3028 RMK SC6SC2 SLP261=
CYOW;2006-11-29 03:00;METAR CYOW 290300Z 08006KT 10SM OVC009 M01/M03 A3027 RMK SC8 SLP257=
CYOW;2006-11-29 04:00;METAR CYOW 290400Z 08007KT 10SM OVC007 M01/M03 A3026 RMK SC8 SLP252=
CYOW;2006-11-29 05:00;METAR CYOW 290500Z 07008KT 8SM OVC005 M01/M03 A3024 RMK ST8 SLP247=
CYOW;2006-11-29 05:46;SPECI CYOW 290546Z 08008KT 5SM BR OVC003 M01/ RMK ST8=
CYOW;2006-11-29 06:00;METAR CYOW 290600Z 07006KT 5SM BR OVC003 M01/M02 A3023 RMK ST8 SLP243=
CYOW;2006-11-29 06:32;SPECI CYOW 290632Z 08006KT 3SM BR OVC002 M01/ RMK ST8=
CYOW;2006-11-29 07:00;METAR CYOW 290700Z 08006KT 1SM BR OVC002 M00/M02 A3022 RMK FG2ST6 SLP241=
CYOW;2006-11-29 07:10;SPECI CYOW 290710Z 09007KT 1/2SM FZFG VV001 M01/ RMK FG8=
CYOW;2006-11-29 08:00;METAR CYOW 290800Z 09006KT 3/8SM R07/2800FT/N R32/2600FT/N FZFG VV001 M00/M01 A3023 RMK FG8 SLP242=
CYOW;2006-11-29 09:00;METAR CYOW 290900Z 08006KT 1/4SM R07/2200FT/N R32/2000FT/N FZFG VV001 M00/M01 A3022 RMK FG8 SLP240=
CYOW;2006-11-29 11:00;METAR CYOW 291100Z 09005KT 3/8SM R07/2200FT/N R32/2000FT/N FG VV001 00/M01 A3020 RMK FG8 SLP232=
CYOW;2006-11-29 13:00;METAR CYOW 291300Z 08004KT 1/4SM R07/2000FT/N R32/1800FT/N FG VV001 00/M00 A3018 RMK FG8 SLP226=
CYOW;2006-11-29 14:45;SPECI CYOW 291445Z 09004KT 3/4SM R07/5500FT/U R32/3000V5000FT/U BR OVC030 02/ RMK FG6SC2=
CYOW;2006-11-29 15:00;METAR CYOW 291500Z 09003KT 1 1/2SM BR OVC030 03/02 A3016 RMK FG6SC2 SLP219=
CYOW;2006-11-29 15:25;SPECI CYOW 291525Z 10004KT 3SM BR BKN029 04/ RMK SC7=
CYOW;2006-11-29 16:00;METAR CYOW 291600Z 09002KT 5SM BR BKN029 OVC060 04/03 A3014 RMK SC6SC2 SLP212=
CYOW;2006-11-29 17:00;METAR CYOW 291700Z 11002KT 6SM BR SCT030 OVC062 07/05 A3011 RMK SC3SC5 SLP203=
CYOW;2006-11-29 18:00;METAR CYOW 291800Z 08003KT 6SM BR OVC031 07/05 A3010 RMK SC8 SLP197=
CYOW;2006-11-29 19:00;METAR CYOW 291900Z 10005KT 6SM BR BKN035 OVC090 08/06 A3008 RMK SC6AC2 SLP191=
CYOW;2006-11-29 20:00;METAR CYOW 292000Z 21007KT 10SM BKN035 OVC054 14/09 A3007 RMK SC6SC2 SLP188=
CYOW;2006-11-29 21:00;METAR CYOW 292100Z 20006KT 10SM FEW035 OVC061 14/09 A3008 RMK SC2SC6 SLP190=
CYOW;2006-11-29 22:00;METAR CYOW 292200Z 20005KT 12SM SCT050 OVC074 14/09 A3008 RMK SC4AC4 SLP188=
CYOW;2006-11-29 23:00;METAR CYOW 292300Z 21006KT 12SM OVC034 14/09 A3008 RMK SC8 SLP190=
CYOW;2006-11-30 00:00;METAR CYOW 300000Z 20007KT 15SM OVC032 14/09 A3008 RMK SC8 SLP190=
CYOW;2006-11-30 01:00;METAR CYOW 300100Z 20009KT 15SM OVC017 14/09 A3007 RMK SC8 SLP187=
CYOW;2006-11-30 02:00;METAR CYOW 300200Z 21007KT 12SM OVC018 14/09 A3006 RMK SC8 SLP184=
CYOW;2006-11-30 03:00;METAR CYOW 300300Z 20006KT 10SM OVC020 13/09 A3006 RMK SC8 SLP182=
CYOW;2006-11-30 04:00;METAR CYOW 300400Z 20007KT 10SM FEW024 OVC062 13/09 A3004 RMK SC1SC7 SLP175=
CYOW;2006-11-30 05:00;METAR CYOW 300500Z 19009KT 10SM SCT025 12/09 A3001 RMK SC3 SLP166=
CYOW;2006-11-30 06:00;METAR CYOW 300600Z 19008KT 8SM BKN047 OVC090 13/09 A2999 RMK SC6AC2 SLP157=
CYOW;2006-11-30 07:00;METAR CYOW 300700Z 20010KT 10SM OVC027 13/10 A2997 RMK SC8 SLP152=
CYOW;2006-11-30 08:00;METAR CYOW 300800Z 21013G18KT 12SM OVC048 14/11 A2996 RMK SC8 SLP148=
CYOW;2006-11-30 09:00;METAR CYOW 300900Z 21011KT 10SM -RA OVC082 14/11 A2995 RMK AC8 RA VRY LGT SLP144=
CYOW;2006-11-30 10:00;METAR CYOW 301000Z 22009KT 10SM OVC029 13/12 A2994 RMK SC8 SLP142=
CYOW;2006-11-30 11:00;METAR CYOW 301100Z 21011G16KT 12SM BKN120 OVC160 14/12 A2991 RMK AC6AC2 SLP132=
CYOW;2006-11-30 12:00;METAR CYOW 301200Z 21013KT 12SM BKN020 OVC080 15/11 A2992 RMK SC5AC3 SLP134=
CYOW;2006-11-30 13:00;METAR CYOW 301300Z 21009KT 12SM SCT020 OVC063 14/11 A2990 RMK SC3SC5 SLP128=
CYOW;2006-11-30 14:00;METAR CYOW 301400Z 21013KT 15SM SCT040 BKN140 16/12 A2989 RMK SC4AC2 SLP123=
CYOW;2006-11-30 15:00;METAR CYOW 301500Z 21012G17KT 12SM BKN049 16/12 A2987 RMK SC7 SLP116=
CYOW;2006-11-30 16:00;METAR CYOW 301600Z 22015G20KT 6SM -RA BR OVC044 15/12 A2986 RMK SC8 SLP112=
CYOW;2006-11-30 17:00;METAR CYOW 301700Z 21010G16KT 12SM -RA OVC048 14/12 A2982 RMK SC8 SLP100=
CYOW;2006-11-30 17:49;SPECI CYOW 301749Z 22011G18KT 10SM -RA BKN010 OVC030 14/ RMK SC7SC1=
CYOW;2006-11-30 18:00;METAR CYOW 301800Z 21013KT 10SM -RA BKN011 OVC030 14/12 A2980 RMK SC7SC1 SLP092=
CYOW;2006-11-30 19:00;METAR CYOW 301900Z 25010G16KT 3SM -RA BR OVC008 13/12 A2979 RMK SF8 SLP091=
CYOW;2006-11-30 20:00;METAR CYOW 302000Z 34016KT 6SM -RA BR OVC017 07/05 A2984 RMK SC8 SLP106=
CYOW;2006-11-30 21:00;METAR CYOW 302100Z 34014KT 6SM -RA BR OVC033 05/03 A2987 RMK SC8 SLP119=
CYOW;2006-11-30 22:00;METAR CYOW 302200Z 33010KT 10SM -RA BKN035 OVC062 04/02 A2990 RMK SC5SC3 SLP129=
CYOW;2006-11-30 23:00;METAR CYOW 302300Z 33007KT 10SM -RA FEW035 OVC071 04/02 A2991 RMK SC2AC6 SLP131=
CYOW;2006-12-01 00:00;METAR CYOW 010000Z 32007KT 8SM -RA FEW008 OVC071 04/02 A2993 RMK SF1AS8 /R11/ SLP137=
CYOW;2006-12-01 01:00;METAR CYOW 010100Z 29004KT 8SM -RA OVC070 04/02 A2993 RMK AS8 SLP139=
CYOW;2006-12-01 01:42;SPECI CYOW 010142Z 28004KT 15SM -RA FEW005 OVC043 03/ RMK SF2SC6=
CYOW;2006-12-01 02:00;METAR CYOW 010200Z 25003KT 15SM -RA FEW005 OVC044 03/02 A2994 RMK SF2SC6 SLP141=
CYOW;2006-12-01 02:47;SPECI CYOW 010247Z 28005KT 15SM -RA BKN007 OVC055 03/ RMK SF6SC2=
CYOW;2006-12-01 03:00;METAR CYOW 010300Z 27003KT 15SM -RA FEW003 BKN005 OVC055 03/02 A2996 RMK SF1SF6SC2 SLP150=
CYOW;2006-12-01 03:14;SPECI CYOW 010314Z 29003KT 15SM FEW004 SCT009 OVC055 04/ RMK SF1SC2SC5=
CYOW;2006-12-01 04:00;METAR CYOW 010400Z 30003KT 15SM FEW005 FEW022 OVC053 03/02 A2996 RMK SF1SC2SC6 SLP147=
CYOW;2006-12-01 05:00;METAR CYOW 010500Z 33007KT 15SM FEW015 SCT046 OVC100 03/02 A2997 RMK CF1SC3AC4 SLP151=
CYOW;2006-12-01 05:49;SPECI CYOW 010549Z 35006KT 15SM -RA FEW024 OVC063 03/ RMK SC2SC6=
CYOW;2006-12-01 06:00;METAR CYOW 010600Z 36006KT 15SM -RA FEW027 BKN063 OVC100 03/01 A2997 RMK SC1SC6AC2 SLP151=
CYOW;2006-12-01 06:22;SPECI CYOW 010622Z 35007KT 15SM FEW012 FEW025 OVC100 03/ RMK SC1SC1AC7=
CYOW;2006-12-01 07:00;METAR CYOW 010700Z 36008KT 15SM FEW011 FEW045 OVC100 03/M00 A2998 RMK SC1SC2AC6 SLP154=
CYOW;2006-12-01 07:49;SPECI CYOW 010749Z 36009KT 15SM FEW011 FEW017 OVC048 02/ RMK SC1SC2SC6=
CYOW;2006-12-01 08:00;METAR CYOW 010800Z 35010KT 15SM FEW011 FEW018 OVC047 02/M01 A2999 RMK SC1SC2SC6 SLP159=
CYOW;2006-12-01 08:13;SPECI CYOW 010813Z 36010KT 15SM -RA FEW011 FEW020 OVC047 02/ RMK SC1SC2SC6=
CYOW;2006-12-01 09:00;METAR CYOW 010900Z 36010KT 15SM -RA FEW011 OVC047 01/M01 A3000 RMK SC2SC6 SLP165=
CYOW;2006-12-01 09:12;SPECI CYOW 010912Z 36008KT 15SM -PL FEW012 OVC051 01/ RMK SC2SC6=
CYOW;2006-12-01 10:00;METAR CYOW 011000Z 01009KT 15SM -PL FEW020 OVC050 01/M02 A3000 RMK SC2SC6 SLP163=
CYOW;2006-12-01 11:00;METAR CYOW 011100Z 02012KT 12SM -PL FEW011 OVC070 01/M02 A2999 RMK SF1AC7 SLP161=
CYOW;2006-12-01 12:00;METAR CYOW 011200Z 03009KT 10SM -PL -FZRA SCT011 OVC048 00/M02 A2999 RMK SF4SC4 SLP162=
CYOW;2006-12-01 13:00;METAR CYOW 011300Z 03011KT 8SM -SN FEW010 OVC019 M00/M02 A2997 REFZRA RMK SF2SC6 SLP155=
CYOW;2006-12-01 14:00;METAR CYOW 011400Z 04011KT 8SM -SN FEW010 OVC017 M01/M03 A2995 RMK SF1SC7 /S01/ SLP146=
CYOW;2006-12-01 15:00;METAR CYOW 011500Z 06015KT 8SM -SN OVC010 M00/M02 A2992 RMK SC8 SLP137=
CYOW;2006-12-01 15:36;SPECI CYOW 011536Z 07011KT 3SM -PL BR OVC005 M00/ RMK SC8=
CYOW;2006-12-01 16:00;METAR CYOW 011600Z 07013G20KT 6SM -PL BR SCT005 OVC012 M00/M02 A2988 RMK SF3SC5 SLP125=
CYOW;2006-12-01 16:07;SPECI CYOW 011607Z 07014G19KT 6SM -PL -FZRA BR BKN008 OVC015 M00/ RMK SF5SC3 VRI LGT PL=
CYOW;2006-12-01 17:00;METAR CYOW 011700Z 07018G26KT 8SM -PL -FZRA BKN012 OVC023 M01/M04 A2977 RMK SF5SC3 PRESFR VRY LGT PL SLP087=
CYOW;2006-12-01 18:40;SPECI CYOW 011840Z 07016G25KT 8SM -FZRA OVC011 M01/ RMK SC8=
CYOW;2006-12-01 19:00;METAR CYOW 011900Z 07016G21KT 8SM -FZRA OVC010 M01/M03 A2957 RMK SC8 PREFR 4.6 MB IN 1 HR SLP018=
CYOW;2006-12-01 19:37;SPECI CYOW 011937Z 07016G22KT 2 1/2SM -PL -FZRA OVC008 M01/ RMK SF8 PRESFR CVCTV CLD EMBD=
CYOW;2006-12-01 20:00;METAR CYOW 012000Z 07017G23KT 3SM -PL -FZRA OVC008 M01/M03 A2946 RMK SF8 PRESFR 3.6 MB PST HR SLP982=
CYOW;2006-12-01 21:00;METAR CYOW 012100Z 07014G24KT 3SM -PL -FZRA OVC007 M00/M02 A2936 RMK SF8 PRESFR 3.4 MB PST HR SLP947=
CYOW;2006-12-01 22:00;METAR CYOW 012200Z 07015G20KT 3SM -RA BR OVC009 00/M01 A2944 REFZRA RMK SF8 PRES UNSTDY WND ESTD DUE ICE ACCRETION SLP975=
CYOW;2006-12-01 22:26;SPECI CYOW 012226Z 07010G15KT 3SM -RAPL BR OVC010 00/ RMK SF8 PRES UNSTDY WND EST DUE ICE ACCRETION=
CYOW;2006-12-01 23:00;METAR CYOW 012300Z 07010G15KT 15SM SCT006 OVC012 00/M01 A2933 RMK SF3SC5 PRESFR 3.6 MB PST HR WND ESTD DUE ICE ACCRETION SLP939=
CYOW;2006-12-02 00:00;METAR CYOW 020000Z 18004KT 15SM OVC007 01/M01 A2942 RMK SF8 PRESRR 3 MB PST HR WND ESTD DUE ICE ACCRETION WND FROM SOUTH SLP969=
CYOW;2006-12-02 00:21;SPECI CYOW 020021Z 18003KT 2 1/2SM -SN OVC007 00/ RMK SF8 WND ESTD DUE ICE ACCRETION=
CYOW;2006-12-02 01:00;METAR CYOW 020100Z 18002KT 2 1/2SM -SN OVC005 00/M01 A2943 RMK SF8 WND=
CYOW;2006-12-02 01:41;SPECI CYOW 020141Z 27004KT 12SM -SN OVC004 00/ RMK SF8 SN FINE WND=
CYOW;2006-12-02 02:00;METAR CYOW 020200Z 27006KT 15SM OVC004 00/M01 A2945 RMK SF8 WND ESTD DUE ICE ACCRETION SLP979=
CYOW;2006-12-02 02:45;SPECI CYOW 020245Z 27008KT 15SM SCT005 OVC010 01/ RMK SF3SC5=
CYOW;2006-12-02 03:00;METAR CYOW 020300Z 27005KT 15SM SCT006 OVC030 01/M01 A2948 RMK SF3SC5 WND ESTD DUE ICE ACCRETION SLP987=
CYOW;2006-12-02 04:00;METAR CYOW 020400Z 27008KT 15SM FEW006 BKN025 OVC040 01/M00 A2948 RMK SF2SC4SC2 WND ESTD DUE ICE ACCRETION SLP987=
CYOW;2006-12-02 04:45;SPECI CYOW 020445Z 21006KT 15SM -RA BKN030 OVC045 02/ RMK SC5SC3=
CYOW;2006-12-02 05:00;METAR CYOW 020500Z 21007KT 15SM -RA BKN030 OVC045 02/M00 A2949 RMK SC5SC3 SLP991=
CYOW;2006-12-02 05:19;SPECI CYOW 020519Z 22008KT 15SM BKN028 OVC045 02/ RMK SC6SC2=
CYOW;2006-12-02 06:00;METAR CYOW 020600Z 22013KT 15SM BKN030 OVC045 02/01 A2950 RMK SC6SC2 SLP994=
CYOW;2006-12-02 07:00;METAR CYOW 020700Z 23017G28KT 15SM BKN035 OVC060 02/M02 A2954 RMK SC6SC2 SLP009=
CYOW;2006-12-02 07:34;SPECI CYOW 020734Z 23016G25KT 10SM -SN FEW017 OVC045 01/ RMK SC2SC6=
CYOW;2006-12-02 07:50;SPECI CYOW 020750Z 24018G24KT 2SM -SN OVC017 01/ RMK SN2SC6=
CYOW;2006-12-02 08:00;METAR CYOW 020800Z 29015G24KT 2SM -SN OVC016 M00/M01 A2961 RMK SN2SC6 PRESRR SLP032=
CYOW;2006-12-02 08:05;SPECI CYOW 020805Z 29017KT 1SM R07/P6000FT/D R32/P6000FT/D -SN VV010 M01/ RMK SN8=
CYOW;2006-12-02 08:15;SPECI CYOW 020815Z 28014G27KT 8SM -SN SCT012 OVC038 M01/ RMK SC3SC5=
CYOW;2006-12-02 08:35;SPECI CYOW 020835Z 27017G22KT 15SM SCT012 OVC042 M01/ RMK SC3SC5=
CYOW;2006-12-02 09:00;METAR CYOW 020900Z 27018G25KT 15SM FEW012 BKN025 OVC040 M02/M05 A2969 RMK SC2SC3SC3 PRESRR SLP061=
CYOW;2006-12-02 10:00;METAR CYOW 021000Z 27014KT 15SM BKN029 OVC041 M01/M05 A2975 RMK SC5SC3 SLP079=
CYOW;2006-12-02 10:17;SPECI CYOW 021017Z 27015KT 15SM -SN OVC030 M01/ RMK SC8=
CYOW;2006-12-02 11:00;METAR CYOW 021100Z 26011KT 15SM -SN BKN028 BKN043 M01/M05 A2980 RMK SC5SC2 SLP098=
CYOW;2006-12-02 13:00;METAR CYOW 021300Z 26017G23KT 15SM FEW040 M03/M08 A2990 RMK SC2 SLP131=
CYOW;2006-12-02 14:00;METAR CYOW 021400Z 27018KT 15SM FEW040 FEW120 M02/M08 A2993 RMK SC2AC1 SLP142=
CYOW;2006-12-02 16:00;METAR CYOW 021600Z 27016G24KT 12SM VCSH BKN030 BKN077 M02/M08 A2999 RMK SC5AC2 SLP162=
CYOW;2006-12-02 17:00;METAR CYOW 021700Z 27013G18KT 15SM SCT033 SCT077 M02/M08 A3001 RMK SC3AC1 SLP168=
CYOW;2006-12-02 18:00;METAR CYOW 021800Z 27012KT 15SM VCSH BKN040 BKN070 M01/M08 A3003 RMK SC5AC2 SLP175=
CYOW;2006-12-02 19:00;METAR CYOW 021900Z 28014G21KT 15SM VCSH SCT035 SCT063 M01/M08 A3005 RMK SC3SC1 SLP180=
CYOW;2006-12-02 20:00;METAR CYOW 022000Z 29011G18KT 15SM FEW035 FEW040 M01/M08 A3007 RMK SC1SC2 SLP189=
CYOW;2006-12-02 21:00;METAR CYOW 022100Z 27008KT 15SM SCT050 M02/M08 A3011 RMK SC3 SLP204=
CYOW;2006-12-02 22:00;METAR CYOW 022200Z 30009KT 15SM FEW050 M02/M07 A3015 RMK SC2 SLP215=
CYOW;2006-12-02 23:00;METAR CYOW 022300Z 29011G18KT 15SM FEW033 M03/M08 A3019 RMK SC2 SLP229=
CYOW;2006-12-03 00:00;METAR CYOW 030000Z 30013KT 15SM FEW022 FEW035 M03/M08 A3022 RMK CU1SC1 SLP240=
CYOW;2006-12-03 01:00;METAR CYOW 030100Z 28011KT 15SM FEW022 FEW035 M04/M09 A3025 RMK CU1SC2 SLP250=
CYOW;2006-12-03 02:00;METAR CYOW 030200Z 29011KT 15SM FEW023 FEW035 M04/M09 A3027 RMK CF1SC1 BOTH LYRS TR SLP257=
CYOW;2006-12-03 03:00;METAR CYOW 030300Z 29010G16KT 15SM FEW025 M05/M09 A3028 RMK CF1 CUFRA TR SLP260=
CYOW;2006-12-03 04:00;METAR CYOW 030400Z 27007KT 15SM FEW025 M06/M10 A3030 RMK CF1 CUFRA TR SLP268=
CYOW;2006-12-03 05:00;METAR CYOW 030500Z 25005KT 15SM FEW025 M06/M10 A3032 RMK CF1 CUFRA TR SLP274=
CYOW;2006-12-03 06:00;METAR CYOW 030600Z 24005KT 15SM FEW025 FEW035 M06/M09 A3033 RMK CF1SC1 SLP279=
CYOW;2006-12-03 07:00;METAR CYOW 030700Z 25004KT 15SM FEW025 FEW040 M07/M10 A3034 RMK CF1SC2 CUFRA TR SLP282=
CYOW;2006-12-03 08:00;METAR CYOW 030800Z 23004KT 15SM FEW025 BKN045 M06/M09 A3034 RMK CF1SC6 CUFRA TR SLP281=
CYOW;2006-12-03 09:00;METAR CYOW 030900Z 00000KT 15SM FEW025 BKN032 OVC044 M05/M09 A3032 RMK CF1SC5SC3 CUFRA TR SLP275=
CYOW;2006-12-03 09:32;SPECI CYOW 030932Z 09003KT 12SM -SN BKN031 OVC042 M05/ RMK SC6SC2=
CYOW;2006-12-03 10:00;METAR CYOW 031000Z 09004KT 15SM BKN030 OVC100 M05/M08 A3030 RMK SC6AC2 INTMT -SN SLP267=
CYOW;2006-12-03 10:08;SPECI CYOW 031008Z 09004KT 15SM BKN030 OVC100 M05/ RMK SC6AC2=
CYOW;2006-12-03 11:00;METAR CYOW 031100Z 10005KT 15SM FEW025 BKN044 OVC100 M05/M08 A3028 RMK SC2SC2AC3 SLP262=
CYOW;2006-12-03 12:00;METAR CYOW 031200Z 12005KT 12SM OVC022 M05/M08 A3028 RMK SC8 SLP262=
CYOW;2006-12-03 13:00;METAR CYOW 031300Z 11006KT 2SM -SN OVC018 M05/M07 A3026 RMK SC8 SLP255=
CYOW;2006-12-03 13:23;SPECI CYOW 031323Z 08005KT 4SM -SN OVC020 M04/ RMK SC8=
CYOW;2006-12-03 13:53;SPECI CYOW 031353Z 04006KT 2SM -SN OVC015 M04/ RMK SC8=
CYOW;2006-12-03 14:00;METAR CYOW 031400Z 02006KT 1 1/2SM -SN OVC015 M04/M07 A3025 RMK SC8 SLP252=
CYOW;2006-12-03 14:27;SPECI CYOW 031427Z 08005KT 10SM OVC013 M04/ RMK SC8=
CYOW;2006-12-03 15:00;METAR CYOW 031500Z 08007KT 12SM BKN010 M04/M06 A3023 RMK SC7 SLP244=
CYOW;2006-12-03 16:00;METAR CYOW 031600Z 05005KT 10SM OVC008 M03/M06 A3022 RMK SC8 SLP240=
CYOW;2006-12-03 16:51;SPECI CYOW 031651Z 09004KT 12SM SCT007 SCT040 M02/ RMK SC3SC1=
CYOW;2006-12-03 17:00;METAR CYOW 031700Z 09004KT 12SM FEW007 SCT040 M02/M05 A3018 RMK SC2SC2 SLP228=
CYOW;2006-12-03 18:00;METAR CYOW 031800Z 00000KT 12SM FEW007 SCT040 M00/M04 A3016 RMK SF2SC2 SLP220=
CYOW;2006-12-03 19:00;METAR CYOW 031900Z 01002KT 12SM FEW030 BKN050 00/M03 A3015 RMK SC2SC5 SLP217=
CYOW;2006-12-03 20:00;METAR CYOW 032000Z 24010KT 12SM FEW050 OVC073 01/M04 A3014 RMK SC2AC6 SLP214=
CYOW;2006-12-03 21:00;METAR CYOW 032100Z 24008KT 12SM FEW050 OVC072 01/M04 A3014 RMK SC2AC6 SLP214=
CYOW;2006-12-03 21:44;SPECI CYOW 032144Z 22007KT 12SM -SN OVC053 01/ RMK SC8 SN VRY LGT=
CYOW;2006-12-03 22:00;METAR CYOW 032200Z 23009KT 12SM SCT053 OVC073 01/M04 A3014 RMK SC3AC5 INTMT -SN SLP211=
CYOW;2006-12-03 23:00;METAR CYOW 032300Z 23006KT 12SM -SN BKN042 OVC072 00/M04 A3013 RMK SC6AC2 -SN INTMT SLP209=
CYOW;2006-12-04 00:00;METAR CYOW 040000Z 27008KT 12SM -SN FEW022 BKN042 OVC067 M00/M04 A3014 RMK SC2SC3AC3 SLP211=
CYOW;2006-12-04 01:00;METAR CYOW 040100Z 24008KT 15SM -SN FEW012 OVC053 M01/M04 A3012 RMK CF1SC8 CUFRA TR SLP207=
CYOW;2006-12-04 01:20;SPECI CYOW 040120Z 25010KT 15SM BKN050 OVC100 M01/ RMK SC7AC1=
CYOW;2006-12-04 02:00;METAR CYOW 040200Z 25009KT 15SM BKN051 BKN100 M01/M07 A3012 RMK SC6AC1 SLP206=
CYOW;2006-12-04 03:00;METAR CYOW 040300Z 24009KT 15SM BKN057 M02/M08 A3011 RMK SC7 SLP204=
CYOW;2006-12-04 04:00;METAR CYOW 040400Z 24010KT 15SM FEW037 BKN059 M03/M08 A3011 RMK SC2SC5 SLP201=
CYOW;2006-12-04 05:00;METAR CYOW 040500Z 24008KT 15SM FEW035 BKN063 M03/M08 A3011 RMK SC2SC5 SLP201=
CYOW;2006-12-04 06:00;METAR CYOW 040600Z 25006KT 15SM FEW020 SCT065 M04/M09 A3010 RMK CF1SC4 CUFRA TR SLP198=
CYOW;2006-12-04 07:00;METAR CYOW 040700Z 25006KT 15SM SCT073 M05/M09 A3010 RMK AC4 SLP198=
CYOW;2006-12-04 08:00;METAR CYOW 040800Z 29003KT 15SM SCT034 BKN075 M06/M10 A3010 RMK SC3AC2 SLP199=
CYOW;2006-12-04 09:00;METAR CYOW 040900Z 27005KT 15SM FEW040 M06/M10 A3008 RMK SC2 SLP193=
CYOW;2006-12-04 10:00;METAR CYOW 041000Z 27002KT 15SM FEW020 SCT080 M07/M10 A3008 RMK CF1AC3 CUFRA TR SLP192=
CYOW;2006-12-04 11:00;METAR CYOW 041100Z 26004KT 15SM FEW020 FEW080 M07/M10 A3008 RMK CF1AC2 CUFRA TR SLP192=
CYOW;2006-12-04 11:17;SPECI CYOW 041117Z 26005KT 15SM -SN FEW080 M07/ RMK AC2=
CYOW;2006-12-04 12:00;METAR CYOW 041200Z 25005KT 10SM -SN BKN017 M07/M10 A3007 RMK SC5 FROIN SLP189=
CYOW;2006-12-04 12:36;SPECI CYOW 041236Z 24004KT 10SM FEW010 SCT020 M07/ RMK CF1SC2 FROIN=
CYOW;2006-12-04 13:00;METAR CYOW 041300Z 25004KT 10SM BKN020 M07/M10 A3007 RMK SC5 FROIN SLP189=
CYOW;2006-12-04 14:00;METAR CYOW 041400Z 27004KT 12SM BKN015 M05/M08 A3008 RMK SC6 SLP191=
CYOW;2006-12-04 15:00;METAR CYOW 041500Z 31010KT 15SM BKN015 M05/M08 A3007 RMK SC6 SLP189=
CYOW;2006-12-04 16:00;METAR CYOW 041600Z 31009KT 15SM FEW017 SCT080 M05/M09 A3008 RMK SC2AC1 SLP192=
CYOW;2006-12-04 17:00;METAR CYOW 041700Z 34011KT 15SM FEW023 SCT080 M05/M11 A3008 RMK SC2AC1 SLP192=
CYOW;2006-12-04 18:00;METAR CYOW 041800Z 34009KT 15SM VCSH SCT033 M05/M11 A3008 RMK SC3 SLP193=
CYOW;2006-12-04 19:00;METAR CYOW 041900Z 33009KT 15SM VCSH FEW030 M05/M12 A3008 RMK SC2 SLP192=
CYOW;2006-12-04 20:00;METAR CYOW 042000Z 31008KT 15SM VCSH SCT044 M05/M12 A3008 RMK SC3 SLP193=
CYOW;2006-12-04 20:12;SPECI CYOW 042012Z 27007KT 15SM -SHSN SCT040 M05/ RMK CU4 SH ALQDS=
CYOW;2006-12-04 21:00;METAR CYOW 042100Z 27012KT 15SM -SHSN SCT040TCU M05/M11 A3010 RMK TCU4 SH INTMT SH ALQDS SLP199=
CYOW;2006-12-04 22:00;METAR CYOW 042200Z 28007KT 15SM FEW020 SCT040 M06/M12 A3010 RMK SC1SC2 SLP200=
CYOW;2006-12-04 23:00;METAR CYOW 042300Z 27007KT 15SM OVC120 M07/M12 A3010 RMK AS4 SLP201=
CYOW;2006-12-05 00:00;METAR CYOW 050000Z 27005KT 15SM FEW020 BKN130 M07/M12 A3011 RMK CF1AS2 CUFRA TR SLP203=
CYOW;2006-12-05 01:00;METAR CYOW 050100Z 30002KT 15SM FEW020 BKN120 M08/M12 A3010 RMK CF1AS3 SLP202=
CYOW;2006-12-05 02:00;METAR CYOW 050200Z 34003KT 15SM OVC130 M08/M12 A3010 RMK AS3 SLP201=
CYOW;2006-12-05 03:00;METAR CYOW 050300Z 06002KT 15SM FEW100 BKN120 M08/M12 A3009 RMK AC1AS3 SLP197=
CYOW;2006-12-05 04:00;METAR CYOW 050400Z 06004KT 15SM BKN120 M09/M13 A3008 RMK AS2 AC ASOCTD SLP194=
CYOW;2006-12-05 05:00;METAR CYOW 050500Z 08003KT 15SM BKN120 M10/M13 A3007 RMK AS2 SLP191=
CYOW;2006-12-05 06:00;METAR CYOW 050600Z 08003KT 15SM BKN110 M10/M13 A3006 RMK AS2 SLP189=
CYOW;2006-12-05 07:00;METAR CYOW 050700Z 00000KT 15SM BKN100 M10/M13 A3007 RMK AC3 SLP190=
CYOW;2006-12-05 09:00;METAR CYOW 050900Z 05005KT 15SM FEW055 SCT100 M10/M13 A3007 RMK SC1AC1 SLP191=
CYOW;2006-12-05 10:00;METAR CYOW 051000Z 05006KT 15SM FEW100 M11/M13 A3008 RMK AC2 FROIN SLP196=
CYOW;2006-12-05 11:00;METAR CYOW 051100Z 05005KT 15SM SCT070 BKN098 M10/M13 A3011 RMK AC3AC2 FROIN SLP205=
CYOW;2006-12-05 12:00;METAR CYOW 051200Z 05005KT 15SM BKN052 BKN070 M10/M13 A3012 RMK SC5AC2 FROIN SLP208=
CYOW;2006-12-05 13:00;METAR CYOW 051300Z 04004KT 15SM FEW050 FEW120 M10/M13 A3014 RMK SC1AC1 SLP214=
CYOW;2006-12-05 14:00;METAR CYOW 051400Z 05005KT 15SM FEW050 FEW120 FEW180 M09/M12 A3015 RMK SC1AC1AC0 SC TR SLP218=
CYOW;2006-12-05 15:00;METAR CYOW 051500Z 05005KT 15SM FEW120 FEW180 M08/M12 A3016 RMK AC1AC0 SLP223=
CYOW;2006-12-05 16:00;METAR CYOW 051600Z 00000KT 15SM FEW120 FEW180 M07/M13 A3018 RMK AC1AC0 SLP229=
CYOW;2006-12-05 17:00;METAR CYOW 051700Z 05002KT 15SM FEW120 M06/M12 A3017 RMK AC1 SLP225=
CYOW;2006-12-05 18:00;METAR CYOW 051800Z 01002KT 15SM FEW030 FEW120 M05/M11 A3017 RMK SC1AC1 SLP225=
CYOW;2006-12-05 19:00;METAR CYOW 051900Z 28002KT 15SM FEW030 SCT077 M04/M11 A3017 RMK SC1AC2 SLP226=
CYOW;2006-12-05 21:00;METAR CYOW 052100Z 18004KT 15SM -SN SCT030 BKN060 M04/M10 A3021 RMK SC3SC4 SLP237=
CYOW;2006-12-05 21:55;SPECI CYOW 052155Z 16003KT 15SM SCT030 BKN060 M05/ RMK SC3SC4=
CYOW;2006-12-05 22:00;METAR CYOW 052200Z 16003KT 15SM BKN033 BKN060 M05/M10 A3021 RMK SC5SC2 SLP238=
CYOW;2006-12-05 23:29;SPECI CYOW 052329Z 15004KT 15SM BKN028 M06/ RMK SC5=
CYOW;2006-12-06 00:00;METAR CYOW 060000Z 15004KT 15SM BKN023 M06/M10 A3022 RMK SC6 SLP242=
CYOW;2006-12-06 01:00;METAR CYOW 060100Z 17005KT 15SM FEW020 M06/M09 A3022 RMK SC1 SLP244=
CYOW;2006-12-06 02:00;METAR CYOW 060200Z 19004KT 15SM FEW020 SCT070 M06/M08 A3022 RMK SC1AC0 SLP244=
CYOW;2006-12-06 03:00;METAR CYOW 060300Z 19003KT 15SM FEW050 M06/M08 A3022 RMK SC1 SLP240=
CYOW;2006-12-06 04:00;METAR CYOW 060400Z 18005KT 15SM FEW060 M07/M09 A3021 RMK SC2 SLP237=
CYOW;2006-12-06 05:00;METAR CYOW 060500Z 17004KT 15SM FEW060 SCT240 M08/M10 A3019 RMK SC1CI0 SLP231=
CYOW;2006-12-06 06:00;METAR CYOW 060600Z 16004KT 15SM BKN046 BKN110 M07/M10 A3017 RMK SC5AC2 SLP224=
CYOW;2006-12-06 07:00;METAR CYOW 060700Z 17005KT 15SM FEW040 SCT110 OVC220 M05/M07 A3016 RMK SC2AC2CS0 SLP222=
CYOW;2006-12-06 08:00;METAR CYOW 060800Z 14005KT 15SM FEW045 OVC220 M05/M07 A3014 RMK SC1CS0 SLP216=
CYOW;2006-12-06 09:00;METAR CYOW 060900Z 15007KT 6SM BR SCT040 OVC070 M04/M06 A3010 RMK SC3AS5 MOON VSBL SLP201=
CYOW;2006-12-06 09:09;SPECI CYOW 060909Z 16008KT 5SM -SN BR BKN040 OVC070 M04/ RMK SC6AS2 MOON VSBL=
CYOW;2006-12-06 10:00;METAR CYOW 061000Z 16009KT 10SM -SN OVC022 M03/M05 A3006 RMK SC8 VRY LGT SN SLP188=
CYOW;2006-12-06 10:53;SPECI CYOW 061053Z 17011KT 12SM OVC080 M03/ RMK AC8=
CYOW;2006-12-06 11:00;METAR CYOW 061100Z 17011G16KT 12SM OVC080 M03/M07 A3003 RMK AC8 SLP177=
CYOW;2006-12-06 11:14;SPECI CYOW 061114Z 17011KT 12SM -SN OVC050 M03/ RMK SC8=
CYOW;2006-12-06 12:00;METAR CYOW 061200Z 18011G19KT 12SM -SN OVC034 M03/M08 A2999 RMK SC8 SLP163=
CYOW;2006-12-06 12:48;SPECI CYOW 061248Z 17012KT 15SM OVC087 M03/ RMK AC8=
CYOW;2006-12-06 13:00;METAR CYOW 061300Z 17012G17KT 15SM OVC082 M03/M07 A2995 RMK AC8 SLP149=
CYOW;2006-12-06 14:00;METAR CYOW 061400Z 18009G15KT 15SM OVC069 M03/M07 A2991 RMK AC8 SLP136=
CYOW;2006-12-06 15:00;METAR CYOW 061500Z 17011KT 15SM BKN026 OVC050 M02/M08 A2988 RMK SC6SC2 SLP125=
CYOW;2006-12-06 15:25;SPECI CYOW 061525Z 18011G16KT 10SM -SN BKN025 OVC039 M01/ RMK SC7SC1=
CYOW;2006-12-06 16:00;METAR CYOW 061600Z 18006KT 10SM -SN BKN025 OVC039 M01/M07 A2985 RMK SC7SC1 SLP114=
CYOW;2006-12-06 16:18;SPECI CYOW 061618Z 19005KT 12SM OVC041 M01/ RMK SC8=
CYOW;2006-12-06 17:00;METAR CYOW 061700Z 22014KT 15SM OVC032 01/M06 A2982 RMK SC8 SLP106=
CYOW;2006-12-06 17:11;SPECI CYOW 061711Z 21012G19KT 10SM -SN OVC027 01/ RMK SC8=
CYOW;2006-12-06 18:00;METAR CYOW 061800Z 20011G17KT 15SM -SN OVC026 02/M04 A2980 RMK SC8 VRY LGT SN SLP097=
CYOW;2006-12-06 19:00;METAR CYOW 061900Z 21014KT 15SM -SN OVC036 02/M03 A2978 RMK SC8 VRY LGT SN SLP091=
CYOW;2006-12-06 20:00;METAR CYOW 062000Z 21015G24KT 15SM OVC037 02/M02 A2977 RMK SC8 SLP089=
CYOW;2006-12-06 21:00;METAR CYOW 062100Z 20014G20KT 10SM OVC038 03/M03 A2978 RMK SC8 SLP089=
CYOW;2006-12-06 22:00;METAR CYOW 062200Z 20011G16KT 12SM OVC032 03/M02 A2979 RMK SC8 SLP093=
CYOW;2006-12-06 23:00;METAR CYOW 062300Z 19011KT 12SM OVC027 03/M01 A2980 RMK SC8 SLP097=
CYOW;2006-12-06 23:30;SPECI CYOW 062330Z 20011KT 15SM -RA OVC030 03/ RMK SC8=
CYOW;2006-12-06 23:44;SPECI CYOW 062344Z 20011KT 15SM -RA OVC014 02/ RMK SC8 CIG RAG=
CYOW;2006-12-07 00:00;METAR CYOW 070000Z 21010G15KT 15SM -RA FEW009 OVC014 02/M00 A2981 RMK SF1SC7 CIG RAG SLP099=
CYOW;2006-12-07 01:00;METAR CYOW 070100Z 21009G15KT 10SM -RA OVC011 02/00 A2981 RMK SC8 CIG RAG SLP100=
CYOW;2006-12-07 01:37;SPECI CYOW 070137Z 21009KT 8SM -RA FEW008 OVC013 02/ RMK SF1SC7=
CYOW;2006-12-07 02:00;METAR CYOW 070200Z 20009KT 8SM -RA FEW008 OVC013 02/00 A2980 RMK SF0SC8 SLP096=
CYOW;2006-12-07 03:00;METAR CYOW 070300Z 20008KT 10SM -RA FEW008 OVC013 02/01 A2979 RMK SF1SC7 SLP094=
CYOW;2006-12-07 04:00;METAR CYOW 070400Z 19008KT 8SM -RA FEW005 OVC013 02/01 A2979 RMK CF1SC7 -RA INTMT SLP094=
CYOW;2006-12-07 05:00;METAR CYOW 070500Z 21008KT 6SM -RA BR FEW005 OVC011 02/01 A2979 RMK SF1SC7 SLP092=
CYOW;2006-12-07 05:20;SPECI CYOW 070520Z 20006KT 5SM -RA BR FEW015 OVC050 02/ RMK SC2SC6 MOON VISBL=
CYOW;2006-12-07 05:37;SPECI CYOW 070537Z 20006KT 5SM -RA BR FEW009 OVC014 02/ RMK SF1SC7=
CYOW;2006-12-07 06:00;METAR CYOW 070600Z 21006KT 5SM -RA BR FEW005 OVC012 02/01 A2978 RMK SF2SC6 SLP090=
CYOW;2006-12-07 07:00;METAR CYOW 070700Z 22005KT 5SM -RA BR FEW006 OVC012 02/00 A2977 RMK SF2SC6 SLP087=
CYOW;2006-12-07 07:17;SPECI CYOW 070717Z 21004KT 5SM -RA BR OVC007 02/ RMK SC8 CIG VRBL 5-9=
CYOW;2006-12-07 08:00;METAR CYOW 070800Z 21004KT 4SM -RA BR OVC005 01/00 A2977 RMK NS8 SLP086=
CYOW;2006-12-07 08:55;SPECI CYOW 070855Z 29007KT 3SM -SN OVC005 00/ RMK NS8=
CYOW;2006-12-07 09:00;METAR CYOW 070900Z 29008KT 1 1/4SM -SN VV003 00/M01 A2977 RMK SN8 SLP085=
CYOW;2006-12-07 10:00;METAR CYOW 071000Z 29010KT 1 1/4SM -SN VV003 M01/M02 A2978 RMK SN8 SLP090=
CYOW;2006-12-07 10:14;SPECI CYOW 071014Z 30016KT 3SM -SN FEW008 OVC018 M01/ RMK SF2SC6 FROPA=
CYOW;2006-12-07 11:00;METAR CYOW 071100Z 30010KT 4SM -SN FEW005 OVC033 M01/M03 A2981 RMK CF1SC7 SLP099=
CYOW;2006-12-07 12:00;METAR CYOW 071200Z 30008KT 4SM -SN BR BKN011 OVC020 M01/M03 A2984 RMK SC7SC1 SLP109=
CYOW;2006-12-07 13:00;METAR CYOW 071300Z 30013KT 10SM -SN SCT010 OVC042 M03/M05 A2985 RMK SC3SC5 VRY LGT SN SLP115=
CYOW;2006-12-07 14:00;METAR CYOW 071400Z 30012G17KT 15SM FEW010 OVC048 M04/M08 A2988 RMK SC1SC7 SLP125=
CYOW;2006-12-07 14:39;SPECI CYOW 071439Z 29011G18KT 12SM -SN OVC033 M05/ RMK SC8=
CYOW;2006-12-07 15:00;METAR CYOW 071500Z 28013KT 8SM -SN FEW011 OVC030 M06/M08 A2993 RMK SC2SC6 SLP140=
CYOW;2006-12-07 16:00;METAR CYOW 071600Z 29015KT 15SM -SN OVC043 M07/M10 A2994 RMK SC8 VRY LGT SN SLP145=
CYOW;2006-12-07 16:35;SPECI CYOW 071635Z 30015KT 15SM OVC047 M07/ RMK SC8=
CYOW;2006-12-07 17:00;METAR CYOW 071700Z 29015KT 15SM SCT016 OVC040 M07/M11 A2995 RMK SC3SC5 SLP149=
CYOW;2006-12-07 18:00;METAR CYOW 071800Z 29014KT 15SM BKN019 OVC040 M08/M12 A2997 RMK SC6SC2 SLP157=
CYOW;2006-12-07 19:00;METAR CYOW 071900Z 29013KT 15SM OVC049 M09/M13 A2999 RMK SC8 SLP161=
CYOW;2006-12-07 20:00;METAR CYOW 072000Z 29011G16KT 15SM FEW050 SCT130 M09/M14 A3000 RMK SC1AC2 SLP167=
CYOW;2006-12-07 21:00;METAR CYOW 072100Z 29010KT 15SM FEW050 FEW100 M09/M15 A3003 RMK SC1AC2 SLP176=
CYOW;2006-12-07 22:00;METAR CYOW 072200Z 28011G16KT 15SM FEW050 FEW100 M10/M15 A3007 RMK SC1AC1 SC TR SLP189=
CYOW;2006-12-07 23:00;METAR CYOW 072300Z 28012KT 15SM FEW100 M11/M16 A3009 RMK AC1 SLP198=
CYOW;2006-12-07 23:32;SPECI CYOW 072332Z 29011KT 12SM -SHSN FEW009 SCT014 M11/ RMK CF1SC2=
CYOW;2006-12-08 00:00;METAR CYOW 080000Z 31014KT 12SM -SHSN FEW010 FEW018 M12/M16 A3011 RMK SC0SC1 VIS N 5 SLP206=
CYOW;2006-12-08 01:00;METAR CYOW 080100Z 32013KT 15SM FEW010 FEW018 M13/M17 A3013 RMK CF1SC1 SLP211=
CYOW;2006-12-08 02:00;METAR CYOW 080200Z 32012KT 15SM FEW010 FEW018 M13/M17 A3011 RMK SC1SC1 SLP206=
CYOW;2006-12-08 03:00;METAR CYOW 080300Z 31012KT 15SM FEW010 FEW018 M14/M18 A3011 RMK SC1SC1 SLP205=
CYOW;2006-12-08 04:00;METAR CYOW 080400Z 31010KT 15SM FEW010 FEW018 M15/M19 A3011 RMK SC1SC1 SLP207=
CYOW;2006-12-08 05:00;METAR CYOW 080500Z 31008KT 15SM FEW015 FEW030 M15/M19 A3012 RMK SC1SC1 SLP209=
CYOW;2006-12-08 06:00;METAR CYOW 080600Z 31009KT 15SM FEW015 FEW050 M15/M19 A3011 RMK SC1SC1 AURBO SLP206=
CYOW;2006-12-08 07:00;METAR CYOW 080700Z 31009KT 15SM FEW020 M16/M19 A3011 RMK SC1 SLP206=
CYOW;2006-12-08 08:00;METAR CYOW 080800Z 31009KT 15SM FEW038 BKN048 M16/M19 A3012 RMK SC1SC6 SLP208=
CYOW;2006-12-08 09:00;METAR CYOW 080900Z 32008KT 15SM FEW035 M16/M19 A3011 RMK SC1 SLP207=
CYOW;2006-12-08 10:00;METAR CYOW 081000Z 31009KT 15SM FEW050 M16/M20 A3013 RMK SC1 SLP212=
CYOW;2006-12-08 11:00;METAR CYOW 081100Z 32009KT 15SM FEW020 BKN041 M15/M19 A3014 RMK SC1SC2 SLP218=
CYOW;2006-12-08 12:00;METAR CYOW 081200Z 30007KT 15SM FEW020 FEW040 M15/M19 A3016 RMK CF1SC1 CUFRA TR SLP225=
CYOW;2006-12-08 13:00;METAR CYOW 081300Z 31011KT 15SM FEW020 FEW040 FEW120 M14/M18 A3019 RMK CU1SC1AC1 ALL LYRS TR VIRGA N SLP234=
CYOW;2006-12-08 14:00;METAR CYOW 081400Z 31010G15KT 15SM VCSH FEW016 FEW120 M13/M17 A3020 RMK SC1AC1 CU ASOCTD AC TR SLP238=
CYOW;2006-12-08 15:00;METAR CYOW 081500Z 30015KT 15SM FEW016 M12/M16 A3022 RMK SC1 FU PLUME N VIRGA N SLP244=
CYOW;2006-12-08 16:00;METAR CYOW 081600Z 28007KT 15SM FEW018 M11/M16 A3020 RMK SC1 SC TR SLP238=
CYOW;2006-12-08 17:00;METAR CYOW 081700Z 29013KT 15SM FEW018 M11/M16 A3019 RMK CF1 CUFRA TR SLP232=
CYOW;2006-12-08 18:00;METAR CYOW 081800Z 26011KT 15SM FEW020 FEW250 M10/M15 A3017 RMK CF1CI1 BOTH LYRS TR SLP227=
CYOW;2006-12-08 19:00;METAR CYOW 081900Z 27012KT 15SM FEW022 FEW250 M10/M16 A3016 RMK CF1CI1 BOTH LYRS TR SLP223=
CYOW;2006-12-08 20:00;METAR CYOW 082000Z 27012KT 20SM FEW020 FEW250 M09/M16 A3016 RMK CF1CI1 SLP224=
CYOW;2006-12-08 21:00;METAR CYOW 082100Z 27006KT 20SM FEW020 FEW150 FEW250 M09/M16 A3015 RMK CF1AC1CI1 ALL CLDS TR SLP220=
CYOW;2006-12-08 22:00;METAR CYOW 082200Z 26006KT 15SM FEW150 M10/M16 A3015 RMK AC1 SLP219=
CYOW;2006-12-08 23:00;METAR CYOW 082300Z 23002KT 15SM FEW060 FEW250 M10/M16 A3014 RMK SC1CI1 SLP216=
CYOW;2006-12-09 00:00;METAR CYOW 090000Z 20003KT 15SM OVC033 M10/M14 A3013 RMK SC8 SLP213=
CYOW;2006-12-09 01:00;METAR CYOW 090100Z 21008KT 15SM SCT024 OVC190 M07/M13 A3010 RMK SC3AC5 SLP202=
CYOW;2006-12-09 02:00;METAR CYOW 090200Z 18005KT 15SM FEW024 OVC093 M07/M12 A3008 RMK SC2AC6 SLP196=
CYOW;2006-12-09 03:00;METAR CYOW 090300Z 22003KT 15SM FEW024 OVC090 M07/M11 A3007 RMK SC2AC6 SLP190=
CYOW;2006-12-09 04:00;METAR CYOW 090400Z 24009KT 12SM FEW032 OVC080 M05/M09 A3005 RMK SC2AC6 SLP185=
CYOW;2006-12-09 04:03;SPECI CYOW 090403Z 23010KT 10SM -SN OVC062 M05/ RMK SC8=
CYOW;2006-12-09 04:11;SPECI CYOW 090411Z 23010G15KT 2SM -SN DRSN VV011 M05/ RMK SN8=
CYOW;2006-12-09 04:18;SPECI CYOW 090418Z 23010G15KT 1 1/4SM -SN DRSN VV008 M05/ RMK SN8=
CYOW;2006-12-09 04:47;SPECI CYOW 090447Z 23011G16KT 1 1/2SM -SN DRSN VV013 M05/ RMK SN8=
CYOW;2006-12-09 06:00;METAR CYOW 090600Z 23012G18KT 15SM -SN DRSN FEW020 OVC039 M05/M08 A3003 RMK SC1SC7 SLP178=
CYOW;2006-12-09 07:00;METAR CYOW 090700Z 23012G17KT 15SM DRSN OVC030 M04/M08 A3003 RMK SC8 SLP178=
CYOW;2006-12-09 08:00;METAR CYOW 090800Z 24009KT 15SM OVC028 M04/M08 A3005 RMK SC8 SLP182=
CYOW;2006-12-09 09:00;METAR CYOW 090900Z 24014G20KT 15SM OVC028 M03/M07 A3003 RMK SC8 SLP176=
CYOW;2006-12-09 09:29;SPECI CYOW 090929Z 23018KT 15SM -SN OVC025 M03/ RMK SC8=
CYOW;2006-12-09 10:00;METAR CYOW 091000Z 23015G24KT 12SM OVC027 M03/M07 A3003 RMK SC8 OCNL=
CYOW;2006-12-09 11:00;METAR CYOW 091100Z 23018KT 15SM OVC018 M03/M07 A3005 RMK SC8 SLP183=
CYOW;2006-12-09 12:00;METAR CYOW 091200Z 22017G22KT 12SM OVC020 M03/M07 A3007 RMK SC8 SLP191=
CYOW;2006-12-09 13:00;METAR CYOW 091300Z 22013KT 12SM OVC020 M02/M07 A3007 RMK SC8 SLP191=
CYOW;2006-12-09 14:00;METAR CYOW 091400Z 23012G17KT 10SM OVC019 M02/M07 A3008 RMK SC8 SLP194=
CYOW;2006-12-09 15:00;METAR CYOW 091500Z 23017KT 10SM OVC020 M02/M07 A3010 RMK SC8 SLP199=
CYOW;2006-12-09 16:00;METAR CYOW 091600Z 23014KT 10SM OVC022 M02/M07 A3009 RMK SC8 SLP196=
CYOW;2006-12-09 17:00;METAR CYOW 091700Z 23012G17KT 12SM OVC022 M01/M06 A3007 RMK SC8 SLP191=
CYOW;2006-12-09 18:00;METAR CYOW 091800Z 22016KT 12SM OVC021 M01/M06 A3005 RMK SC8 SLP183=
CYOW;2006-12-09 19:00;METAR CYOW 091900Z 23014KT 12SM OVC024 M01/M06 A3005 RMK SC8 SLP182=
CYOW;2006-12-09 20:00;METAR CYOW 092000Z 23012G17KT 12SM BKN033 BKN250 M00/M06 A3004 RMK SC6CI1 SLP180=
CYOW;2006-12-09 21:00;METAR CYOW 092100Z 23007KT 15SM SCT030 BKN250 M00/M06 A3003 RMK SC3CI1 SLP175=
CYOW;2006-12-09 22:00;METAR CYOW 092200Z 20004KT 15SM OVC230 M01/M06 A3003 RMK CS5 SLP176=
CYOW;2006-12-09 23:00;METAR CYOW 092300Z 23006KT 15SM OVC220 M00/M06 A3004 RMK CS8 SLP178=
CYOW;2006-12-10 00:00;METAR CYOW 100000Z 20005KT 15SM SCT130 BKN200 M00/M05 A3002 RMK AC2CI3 SLP172=
CYOW;2006-12-10 01:00;METAR CYOW 100100Z 23010KT 15SM BKN150 BKN200 01/M04 A3002 RMK AC3CI2 SLP174=
CYOW;2006-12-10 02:00;METAR CYOW 100200Z 22010KT 15SM SCT150 BKN190 01/M04 A3001 RMK AC3AC2 SLP169=
CYOW;2006-12-10 03:00;METAR CYOW 100300Z 22011KT 15SM FEW150 BKN190 01/M04 A2999 RMK AC2AC3 SLP162=
CYOW;2006-12-10 04:00;METAR CYOW 100400Z 23012KT 15SM FEW190 01/M05 A2999 RMK AC2 SLP160=
CYOW;2006-12-10 05:00;METAR CYOW 100500Z 23012KT 15SM FEW190 SCT280 01/M05 A2998 RMK AC1CI1 SLP158=
CYOW;2006-12-10 06:00;METAR CYOW 100600Z 23012G17KT 15SM SCT280 01/M05 A2997 RMK CI1 SLP156=
CYOW;2006-12-10 07:00;METAR CYOW 100700Z 23009G16KT 15SM SCT280 02/M05 A2999 RMK CI1 SLP161=
CYOW;2006-12-10 08:00;METAR CYOW 100800Z 22010KT 15SM FEW280 01/M05 A2999 RMK CI1 SLP160=
CYOW;2006-12-10 09:00;METAR CYOW 100900Z 23010KT 15SM FEW280 01/M05 A2998 RMK CI1 SLP158=
CYOW;2006-12-10 10:00;METAR CYOW 101000Z 22009KT 15SM FEW280 01/M05 A3000 RMK CI1 SLP164=
CYOW;2006-12-10 11:00;METAR CYOW 101100Z 23007KT 15SM FEW120 SCT280 01/M05 A3002 RMK AC1CI1 SLP172=
CYOW;2006-12-10 12:00;METAR CYOW 101200Z 22006KT 15SM BKN033 BKN230 01/M05 A3006 RMK SC5CS2 SLP184=
CYOW;2006-12-10 13:00;METAR CYOW 101300Z 22007KT 15SM BKN030 01/M05 A3007 RMK SC6 SLP189=
CYOW;2006-12-10 14:00;METAR CYOW 101400Z 22011KT 15SM BKN025 01/M05 A3008 RMK SC7 SLP191=
CYOW;2006-12-10 15:00;METAR CYOW 101500Z 23010G15KT 15SM BKN023 02/M04 A3009 RMK SC7 SLP196=
CYOW;2006-12-10 16:00;METAR CYOW 101600Z 23009G16KT 12SM BKN023 02/M04 A3010 RMK SC7 SLP197=
CYOW;2006-12-10 17:00;METAR CYOW 101700Z 26012G20KT 12SM BKN030 BKN230 03/M03 A3009 RMK SC5CI1 SLP196=
CYOW;2006-12-10 18:00;METAR CYOW 101800Z 24009KT 10SM FEW030 BKN230 04/M04 A3009 RMK SC2CI1 SLP195=
CYOW;2006-12-10 19:00;METAR CYOW 101900Z 27008KT 10SM FEW030 OVC230 04/M03 A3011 RMK SC2CI1 SLP201=
CYOW;2006-12-10 20:00;METAR CYOW 102000Z 31006KT 10SM FEW033 OVC230 03/M03 A3013 RMK SC2CI2 SLP208=
CYOW;2006-12-10 21:00;METAR CYOW 102100Z 29003KT 10SM BKN038 BKN230 04/M03 A3015 RMK SC6CI1 SLP216=
CYOW;2006-12-10 22:00;METAR CYOW 102200Z 27006KT 12SM OVC037 03/M02 A3017 RMK SC8 SLP221=
CYOW;2006-12-10 23:00;METAR CYOW 102300Z 24004KT 12SM OVC036 03/M02 A3018 RMK SC8 SLP225=
CYOW;2006-12-11 00:00;METAR CYOW 110000Z 22004KT 15SM OVC032 03/M02 A3019 RMK SC8 SLP229=
CYOW;2006-12-11 01:00;METAR CYOW 110100Z 23006KT 15SM OVC029 03/M02 A3020 RMK SC8 SLP232=
CYOW;2006-12-11 02:00;METAR CYOW 110200Z 23004KT 15SM OVC029 03/M02 A3020 RMK SC8 SLP232=
CYOW;2006-12-11 03:00;METAR CYOW 110300Z 00000KT 15SM FEW022 OVC029 02/M02 A3019 RMK SC2SC6 SLP230=
CYOW;2006-12-11 04:00;METAR CYOW 110400Z 21002KT 15SM BKN026 OVC031 03/M01 A3020 RMK SC6SC2 SLP231=
CYOW;2006-12-11 05:00;METAR CYOW 110500Z 24003KT 15SM FEW026 OVC032 03/M02 A3020 RMK SC2SC6 SLP233=
CYOW;2006-12-11 05:16;SPECI CYOW 110516Z 27003KT 10SM -RA OVC031 02/ RMK SC8=
CYOW;2006-12-11 06:00;METAR CYOW 110600Z 26003KT 12SM -RA BKN031 OVC052 02/M01 A3021 RMK SC6SC2 SLP236=
CYOW;2006-12-11 07:00;METAR CYOW 110700Z 24003KT 10SM -RA BKN022 OVC030 02/M00 A3022 RMK SC6SC2 SLP238=
CYOW;2006-12-11 07:51;SPECI CYOW 110751Z 27003KT 6SM -RASN BR OVC016 01/ RMK SC8=
CYOW;2006-12-11 08:00;METAR CYOW 110800Z 27003KT 6SM -RASN BR OVC016 01/M00 A3024 RMK SC8 SLP246=
CYOW;2006-12-11 08:31;SPECI CYOW 110831Z 00000KT 6SM -RA BR OVC016 01/ RMK SC8=
CYOW;2006-12-11 09:00;METAR CYOW 110900Z 00000KT 5SM -RASN BR OVC014 01/M00 A3025 RMK SC8 SLP250=
CYOW;2006-12-11 09:32;SPECI CYOW 110932Z 27002KT 3SM -SN BR OVC014 01/ RMK SC8=
CYOW;2006-12-11 10:00;METAR CYOW 111000Z 24003KT 3SM -SN BR OVC015 01/M01 A3027 RMK SC8 SLP255=
CYOW;2006-12-11 10:17;SPECI CYOW 111017Z 00000KT 1 1/2SM -SN BR OVC015 01/ RMK SN2SC6=
CYOW;2006-12-11 10:35;SPECI CYOW 111035Z 22002KT 1 1/4SM -SN BR VV011 01/ RMK SN8=
CYOW;2006-12-11 11:00;METAR CYOW 111100Z 21002KT 1 1/4SM -SN BR OVC017 00/M01 A3029 RMK SN6SC2 SLP261=
CYOW;2006-12-11 11:08;SPECI CYOW 111108Z 19003KT 3/4SM R07/P6000FT/D R32/P6000FT/D -SN BR OVC020 00/ RMK FG5SC3=
CYOW;2006-12-11 11:42;SPECI CYOW 111142Z 24002KT 3/4SM -SN BR FEW003 OVC014 00/ RMK FG3SF1SC4 RVR RWY07 6000FT RWY32 6000FT=
CYOW;2006-12-11 12:00;METAR CYOW 111200Z 22002KT 3/4SM R07/P6000FT R32/P6000FT -SN BR SCT003 OVC016 00/M01 A3031 RMK FG3SF1SC4 SLP269=
CYOW;2006-12-11 13:00;METAR CYOW 111300Z 24002KT 1/2SM -SN FG OVC002 00/M01 A3034 RMK FG5SF3 SLP278=
CYOW;2006-12-11 13:39;SPECI CYOW 111339Z 28003KT 3/4SM -SN BR SCT002 OVC020 00/ RMK FG3SF1SC4=
CYOW;2006-12-11 14:00;METAR CYOW 111400Z 30003KT 3/4SM -SN BR SCT002 OVC027 00/M01 A3036 RMK FG2SF2SC4 SLP287=
CYOW;2006-12-11 15:00;METAR CYOW 111500Z 30003KT 1SM BR SCT002 OVC008 01/M00 A3039 RMK FG2SF2SC4 SLP297=
CYOW;2006-12-11 15:45;SPECI CYOW 111545Z 30003KT 1SM BR SCT008 OVC033 01/ RMK FG2SF2SC4=
CYOW;2006-12-11 16:00;METAR CYOW 111600Z 31003KT 1 1/2SM R07/P6000FT R32/P6000FT BR FEW008 BKN033 OVC100 01/M00 A3040 RMK FG2SF1SC3AC3 SLP299=
CYOW;2006-12-11 17:00;METAR CYOW 111700Z 31002KT 2SM BR FEW004 OVC030 02/00 A3041 RMK SF2SC6 SLP302=
CYOW;2006-12-11 18:00;METAR CYOW 111800Z 29002KT 2SM BR OVC025 02/01 A3041 RMK SC8 SLP304=
CYOW;2006-12-11 19:00;METAR CYOW 111900Z 31002KT 2SM BR OVC034 02/01 A3042 RMK SC8 SLP308=
CYOW;2006-12-11 19:49;SPECI CYOW 111949Z 31005KT 2SM BR BKN004 OVC032 02/ RMK SF5SC3=
CYOW;2006-12-11 20:00;METAR CYOW 112000Z 31005KT 2 1/2SM BR SCT004 OVC033 02/00 A3045 RMK SF3SC5 SLP318=
CYOW;2006-12-11 21:00;METAR CYOW 112100Z 35004KT 3SM BR OVC032 02/01 A3047 RMK SC8 SLP324=
CYOW;2006-12-11 22:00;METAR CYOW 112200Z 36003KT 4SM BR OVC031 02/01 A3049 RMK SC8 SLP331=
CYOW;2006-12-11 23:00;METAR CYOW 112300Z 01004KT 6SM BR OVC030 02/00 A3050 RMK SC8 SLP335=
CYOW;2006-12-12 00:00;METAR CYOW 120000Z 02005KT 12SM OVC029 02/00 A3053 RMK SC8 SLP345=
CYOW;2006-12-12 01:00;METAR CYOW 120100Z 04003KT 15SM OVC029 02/M00 A3054 RMK SC8 SLP349=
CYOW;2006-12-12 02:00;METAR CYOW 120200Z 03006KT 15SM OVC029 02/M01 A3054 RMK SC8 SLP349=
CYOW;2006-12-12 03:00;METAR CYOW 120300Z 04004KT 15SM OVC028 02/M01 A3056 RMK SC8 SLP354=
CYOW;2006-12-12 04:00;METAR CYOW 120400Z 06003KT 15SM OVC028 02/M01 A3057 RMK SC8 SLP357=
CYOW;2006-12-12 05:00;METAR CYOW 120500Z 05004KT 15SM OVC027 02/M02 A3058 RMK SC8 SLP361=
CYOW;2006-12-12 06:00;METAR CYOW 120600Z 06005KT 15SM OVC026 01/M02 A3057 RMK SC8 SLP358=
CYOW;2006-12-12 07:00;METAR CYOW 120700Z 07005KT 15SM OVC026 01/M02 A3058 RMK SC8 SLP362=
CYOW;2006-12-12 08:00;METAR CYOW 120800Z 05005KT 15SM OVC026 01/M02 A3059 RMK SC8 SLP366=
CYOW;2006-12-12 09:00;METAR CYOW 120900Z 07006KT 15SM OVC025 01/M02 A3058 RMK SC8 SLP362=
CYOW;2006-12-12 10:00;METAR CYOW 121000Z 08006KT 15SM OVC025 00/M02 A3058 RMK SC8 SLP361=
CYOW;2006-12-12 11:00;METAR CYOW 121100Z 08008KT 15SM OVC024 00/M02 A3059 RMK SC8 SLP363=
CYOW;2006-12-12 12:00;METAR CYOW 121200Z 08009KT 12SM OVC024 M00/M02 A3057 RMK SC8 SLP359=
CYOW;2006-12-12 13:00;METAR CYOW 121300Z 06009KT 12SM FEW025 M01/M03 A3058 RMK SC2 SLP360=
CYOW;2006-12-12 14:00;METAR CYOW 121400Z 07010KT 15SM BKN024 M01/M03 A3056 RMK SC5 SLP356=
CYOW;2006-12-12 15:00;METAR CYOW 121500Z 09012KT 15SM FEW020 M01/M03 A3055 RMK SC2 SLP351=
CYOW;2006-12-12 16:00;METAR CYOW 121600Z 10010KT 15SM SCT025 M00/M03 A3054 RMK SC4 SLP347=
CYOW;2006-12-12 17:00;METAR CYOW 121700Z 09011KT 15SM OVC031 M00/M03 A3051 RMK SC8 SLP339=
CYOW;2006-12-12 18:00;METAR CYOW 121800Z 08007KT 15SM OVC029 M00/M03 A3050 RMK SC8 SLP334=
CYOW;2006-12-12 19:00;METAR CYOW 121900Z 10010KT 15SM OVC030 M01/M03 A3048 RMK SC8 SLP326=
CYOW;2006-12-12 20:00;METAR CYOW 122000Z 09011KT 15SM SCT030 BKN081 M00/M03 A3044 RMK SC4AC3 SLP314=
CYOW;2006-12-12 21:00;METAR CYOW 122100Z 08010KT 15SM SCT030 OVC070 M01/M03 A3042 RMK SC3AC5 SLP308=
CYOW;2006-12-12 22:00;METAR CYOW 122200Z 08011KT 15SM FEW030 OVC076 M01/M03 A3041 RMK SC2AC6 SLP304=
CYOW;2006-12-12 22:07;SPECI CYOW 122207Z 09009KT 15SM -RA FEW030 OVC076 M01/ RMK SC2AC6 VRY LGT RA=
CYOW;2006-12-12 23:26;SPECI CYOW 122326Z 09011KT 15SM FEW085 BKN120 M01/ RMK AC2AC5=
CYOW;2006-12-13 00:00;METAR CYOW 130000Z 09009KT 15SM OVC085 M01/M03 A3038 RMK AC8 SLP293=
CYOW;2006-12-13 01:00;METAR CYOW 130100Z 08011KT 15SM FEW011 BKN095 M01/M03 A3034 RMK SC1AC6 SLP279=
CYOW;2006-12-13 02:00;METAR CYOW 130200Z 08008KT 15SM FEW100 OVC210 M01/M04 A3031 RMK AC2CI6 SLP270=
CYOW;2006-12-13 03:00;METAR CYOW 130300Z 09011KT 15SM OVC110 M01/M04 A3027 RMK AC8 SLP258=
CYOW;2006-12-13 04:00;METAR CYOW 130400Z 09010KT 15SM OVC110 M01/M04 A3025 RMK AC7 SLP250=
CYOW;2006-12-13 05:00;METAR CYOW 130500Z 08010KT 15SM OVC120 M02/M04 A3022 RMK AC8 SLP242=
CYOW;2006-12-13 06:00;METAR CYOW 130600Z 09009KT 12SM OVC160 M02/M04 A3019 RMK AC8 SLP228=
CYOW;2006-12-13 07:00;METAR CYOW 130700Z 09007KT 8SM OVC190 M02/M04 A3017 RMK AC8 SLP224=
CYOW;2006-12-13 08:00;METAR CYOW 130800Z 10006KT 8SM OVC028 M01/M03 A3016 RMK SC8 SLP218=
CYOW;2006-12-13 09:00;METAR CYOW 130900Z 13007KT 8SM OVC120 01/M01 A3012 RMK AC8 SLP207=
CYOW;2006-12-13 10:00;METAR CYOW 131000Z 13006KT 8SM OVC028 02/M00 A3010 RMK SC8 SLP198=
CYOW;2006-12-13 10:02;SPECI CYOW 131002Z 14006KT 7SM -RA OVC027 02/ RMK SC8=
CYOW;2006-12-13 10:47;SPECI CYOW 131047Z 14009KT 10SM OVC034 04/ RMK SC8=
CYOW;2006-12-13 11:00;METAR CYOW 131100Z 14008KT 10SM OVC032 04/02 A3007 RMK SC8 SLP189=
CYOW;2006-12-13 11:26;SPECI CYOW 131126Z 16008KT 10SM -RA OVC024 04/ RMK SC8=
CYOW;2006-12-13 12:00;METAR CYOW 131200Z 18008KT 12SM -RA OVC035 05/03 A3005 RMK SC8 SLP182=
CYOW;2006-12-13 13:00;METAR CYOW 131300Z 18009KT 8SM -RA OVC019 05/04 A3002 RMK SC8 SLP173=
CYOW;2006-12-13 14:00;METAR CYOW 131400Z 19009KT 12SM -RA SCT011 OVC017 06/04 A3001 RMK SF3SC5 SLP168=
CYOW;2006-12-13 15:00;METAR CYOW 131500Z 19009KT 12SM BKN017 OVC022 07/05 A3000 RMK SC6SC2 SLP163=
CYOW;2006-12-13 16:00;METAR CYOW 131600Z 18008KT 12SM OVC020 07/05 A2996 RMK SC8 SLP152=
CYOW;2006-12-13 17:00;METAR CYOW 131700Z 20007KT 12SM OVC019 07/05 A2994 RMK SC8 SLP142=
CYOW;2006-12-13 18:00;METAR CYOW 131800Z 19012KT 12SM OVC028 08/05 A2990 RMK SC8 SLP129=
CYOW;2006-12-13 19:00;METAR CYOW 131900Z 20009KT 12SM BKN027 OVC036 08/05 A2988 RMK SC6SC2 SLP123=
CYOW;2006-12-13 20:00;METAR CYOW 132000Z 19006KT 12SM OVC025 08/05 A2988 RMK SC8 SLP123=
CYOW;2006-12-13 21:00;METAR CYOW 132100Z 19005KT 12SM BKN021 OVC033 08/05 A2988 RMK SC6SC2 SLP124=
CYOW;2006-12-13 22:00;METAR CYOW 132200Z 20006KT 15SM FEW030 SCT080 07/05 A2988 RMK SC1AC2 SLP122=
CYOW;2006-12-13 23:00;METAR CYOW 132300Z 21007KT 15SM FEW060 06/04 A2987 RMK SC1 SLP118=
CYOW;2006-12-14 00:00;METAR CYOW 140000Z 21009KT 15SM SKC 06/03 A2986 RMK SLP115=
CYOW;2006-12-14 01:00;METAR CYOW 140100Z 23011KT 15SM SCT055 06/01 A2986 RMK SC3 SLP116=
CYOW;2006-12-14 02:00;METAR CYOW 140200Z 22011G16KT 15SM SKC 05/01 A2985 RMK SLP114=
CYOW;2006-12-14 03:00;METAR CYOW 140300Z 22010G16KT 15SM FEW030 FEW050 04/00 A2985 RMK SC2SC1 SLP114=
CYOW;2006-12-14 04:00;METAR CYOW 140400Z 22009KT 15SM BKN048 04/01 A2985 RMK SC7 SLP113=
CYOW;2006-12-14 05:00;METAR CYOW 140500Z 22009KT 15SM OVC019 04/01 A2986 RMK SC8 SLP116=
CYOW;2006-12-14 06:00;METAR CYOW 140600Z 22008KT 12SM OVC022 04/01 A2986 RMK SC8 SLP116=
CYOW;2006-12-14 07:00;METAR CYOW 140700Z 22007KT 12SM OVC029 03/01 A2985 RMK SC8 SLP114=
CYOW;2006-12-14 08:00;METAR CYOW 140800Z 21006KT 12SM OVC024 03/01 A2986 RMK SC8 SLP117=
CYOW;2006-12-14 09:00;METAR CYOW 140900Z 20006KT 10SM OVC023 03/00 A2986 RMK SC8 SLP117=
CYOW;2006-12-14 10:00;METAR CYOW 141000Z 19006KT 10SM OVC021 03/00 A2985 RMK SC8 SLP112=
CYOW;2006-12-14 11:00;METAR CYOW 141100Z 21007KT 10SM OVC020 03/M00 A2985 RMK SC8 SLP112=
CYOW;2006-12-14 12:00;METAR CYOW 141200Z 22008KT 10SM FEW020 BKN110 03/M00 A2985 RMK SC2AC5 SLP112=
CYOW;2006-12-14 13:00;METAR CYOW 141300Z 22005KT 12SM FEW020 BKN090 BKN120 03/M00 A2986 RMK SC2AC2AC1 SLP115=
CYOW;2006-12-14 14:00;METAR CYOW 141400Z 23008KT 12SM FEW020 BKN058 BKN100 03/01 A2986 RMK SC2SC2AC2 SLP117=
CYOW;2006-12-14 15:00;METAR CYOW 141500Z 23005KT 12SM BKN015 BKN060 BKN100 04/01 A2986 RMK SC5SC2AC1 SLP117=
CYOW;2006-12-14 16:00;METAR CYOW 141600Z 23007KT 12SM BKN014 OVC025 05/02 A2984 RMK SC6SC2 SLP110=
CYOW;2006-12-14 17:00;METAR CYOW 141700Z 20007KT 15SM SCT020 BKN100 BKN120 07/04 A2980 RMK SC3AC2AC1 SLP095=
CYOW;2006-12-14 18:00;METAR CYOW 141800Z 21007KT 15SM FEW020 BKN100 08/04 A2978 RMK SC2AC5 SLP087=
CYOW;2006-12-14 19:00;METAR CYOW 141900Z 22005KT 15SM BKN100 09/04 A2977 RMK AC6 SLP086=
CYOW;2006-12-14 20:00;METAR CYOW 142000Z 20007KT 15SM FEW040 BKN110 BKN140 09/04 A2975 RMK SC2AC3AC1 SLP078=
CYOW;2006-12-14 21:00;METAR CYOW 142100Z 19007KT 15SM FEW040 OVC100 08/04 A2975 RMK SC2AC6 SLP079=
CYOW;2006-12-14 22:00;METAR CYOW 142200Z 18004KT 15SM SCT077 BKN090 07/03 A2976 RMK AC3AC4 SLP080=
CYOW;2006-12-14 23:00;METAR CYOW 142300Z 14004KT 15SM FEW080 BKN110 06/03 A2974 RMK AC2AC6 SLP075=
CYOW;2006-12-15 00:00;METAR CYOW 150000Z 14005KT 15SM OVC130 06/03 A2972 RMK AC8 SLP069=
CYOW;2006-12-15 01:00;METAR CYOW 150100Z 14003KT 15SM OVC120 04/02 A2971 RMK AC8 SLP064=
CYOW;2006-12-15 02:00;METAR CYOW 150200Z 14002KT 15SM OVC100 04/02 A2969 RMK AC8 SLP057=
CYOW;2006-12-15 03:00;METAR CYOW 150300Z 06004KT 15SM OVC081 04/02 A2967 RMK AC8 SLP051=
CYOW;2006-12-15 04:00;METAR CYOW 150400Z 13002KT 15SM FEW080 OVC130 04/02 A2966 RMK AC2AC6 SLP047=
CYOW;2006-12-15 05:00;METAR CYOW 150500Z 15006KT 15SM OVC075 06/02 A2962 RMK AC8 SLP034=
CYOW;2006-12-15 06:00;METAR CYOW 150600Z 15006KT 15SM BKN095 07/02 A2959 RMK AC7 SLP023=
CYOW;2006-12-15 07:00;METAR CYOW 150700Z 17008KT 15SM BKN060 OVC120 07/02 A2957 RMK SC5AC3 SLP018=
CYOW;2006-12-15 07:13;SPECI CYOW 150713Z 19006KT 15SM -RA BKN055 OVC090 07/ RMK SC5AC3=
CYOW;2006-12-15 07:42;SPECI CYOW 150742Z 18006KT 15SM FEW055 OVC100 08/ RMK SC2AC6=
CYOW;2006-12-15 08:00;METAR CYOW 150800Z 18005KT 15SM BKN063 BKN100 08/02 A2956 RMK SC6AC1 SLP015=
CYOW;2006-12-15 09:00;METAR CYOW 150900Z 20004KT 15SM OVC048 08/02 A2956 RMK SC8 SLP015=
CYOW;2006-12-15 10:00;METAR CYOW 151000Z 19005KT 15SM OVC044 09/03 A2956 RMK SC8 SLP012=
CYOW;2006-12-15 11:00;METAR CYOW 151100Z 20006KT 15SM OVC043 09/03 A2955 RMK SC8 SLP010=
CYOW;2006-12-15 12:00;METAR CYOW 151200Z 20005KT 15SM OVC045 09/03 A2955 RMK SC8 SLP009=
CYOW;2006-12-15 13:00;METAR CYOW 151300Z 21005KT 15SM OVC040 08/03 A2956 RMK SC8 SLP012=
CYOW;2006-12-15 14:00;METAR CYOW 151400Z 20006KT 15SM FEW040 FEW120 BKN220 09/03 A2954 RMK CU1AC2CI0 CU TR SLP008=
CYOW;2006-12-15 15:00;METAR CYOW 151500Z 20006KT 15SM FEW040 BKN110 09/04 A2955 RMK CU1AC7 CU TR SLP010=
CYOW;2006-12-15 15:50;SPECI CYOW 151550Z 25015G22KT 15SM -RA FEW020 OVC037 08/ RMK SC2SC6=
CYOW;2006-12-15 16:00;METAR CYOW 151600Z 24011G18KT 15SM -RA FEW020 OVC032 07/04 A2954 RMK SC2SC6 SLP008=
CYOW;2006-12-15 16:29;SPECI CYOW 151629Z 25008G18KT 15SM SCT040 BKN072 07/ RMK SC3AC2=
CYOW;2006-12-15 17:00;METAR CYOW 151700Z 23004KT 15SM SCT045 BKN080 07/04 A2953 RMK SC3AC2 SLP003=
CYOW;2006-12-15 18:00;METAR CYOW 151800Z 21007KT 15SM FEW025 SCT030 BKN080 08/04 A2951 RMK CU2SC2AC2 SLP995=
CYOW;2006-12-15 19:00;METAR CYOW 151900Z 23007KT 15SM FEW030 BKN048 09/04 A2952 RMK CU2SC4 SLP998=
CYOW;2006-12-15 20:00;METAR CYOW 152000Z 26006KT 12SM BKN033 OVC070 09/04 A2953 RMK SC6AC2 CU ASOCTD SLP003=
CYOW;2006-12-15 21:00;METAR CYOW 152100Z 26003KT 12SM FEW070 BKN093 BKN240 08/04 A2955 RMK AC2AC5CI0 SLP010=
CYOW;2006-12-15 22:00;METAR CYOW 152200Z 16005KT 12SM BKN057 OVC078 07/03 A2956 RMK SC6AC2 SLP013=
CYOW;2006-12-15 22:41;SPECI CYOW 152241Z 09003KT 10SM -RA OVC036 06/ RMK SC8=
CYOW;2006-12-15 23:00;METAR CYOW 152300Z 26010KT 6SM -RA BR OVC020 06/04 A2958 RMK SC8 SLP021=
CYOW;2006-12-15 23:44;SPECI CYOW 152344Z 29006KT 5SM -RA BR FEW007 OVC027 05/ RMK SF2SC6=
CYOW;2006-12-16 00:00;METAR CYOW 160000Z 25006KT 5SM RA BR SCT007 OVC020 05/04 A2960 RMK SF3NS5 SLP026=
CYOW;2006-12-16 01:00;METAR CYOW 160100Z 25005KT 6SM -RA BR OVC027 04/03 A2961 RMK NS8 SLP031=
CYOW;2006-12-16 02:00;METAR CYOW 160200Z 24005KT 6SM -RA BR OVC021 04/03 A2963 RMK NS8 SLP038=
CYOW;2006-12-16 02:33;SPECI CYOW 160233Z 25007KT 6SM -RA BR OVC012 04/ RMK NS8=
CYOW;2006-12-16 03:00;METAR CYOW 160300Z 25006KT 6SM -RA BR OVC020 04/02 A2965 RMK NS8 SLP043=
CYOW;2006-12-16 04:00;METAR CYOW 160400Z 26006KT 15SM -RA OVC015 04/02 A2967 RMK NS8 SLP049=
CYOW;2006-12-16 04:47;SPECI CYOW 160447Z 26006KT 12SM FEW015 OVC072 04/ RMK SF2AC6=
CYOW;2006-12-16 05:00;METAR CYOW 160500Z 27005KT 12SM FEW008 OVC012 04/02 A2969 RMK SF2SC6 SLP057=
CYOW;2006-12-16 05:32;SPECI CYOW 160532Z 27007KT 12SM OVC009 04/ RMK SC8=
CYOW;2006-12-16 06:00;METAR CYOW 160600Z 27005KT 12SM OVC008 04/02 A2971 RMK SC8 SLP066=
CYOW;2006-12-16 07:00;METAR CYOW 160700Z 29012KT 15SM OVC009 04/02 A2975 RMK SC8 SLP077=
CYOW;2006-12-16 08:00;METAR CYOW 160800Z 27009KT 15SM OVC009 04/02 A2978 RMK SC8 SLP089=
CYOW;2006-12-16 08:29;SPECI CYOW 160829Z 29012KT 12SM -DZ OVC007 04/ RMK ST8=
CYOW;2006-12-16 09:00;METAR CYOW 160900Z 29011KT 12SM -DZ OVC008 04/02 A2981 RMK ST8 SLP099=
CYOW;2006-12-16 09:31;SPECI CYOW 160931Z 30010G15KT 15SM FEW008 OVC023 04/ RMK SF1SC7=
CYOW;2006-12-16 10:00;METAR CYOW 161000Z 29009KT 15SM FEW008 OVC014 04/01 A2985 RMK CF1SC7 SLP113=
CYOW;2006-12-16 11:00;METAR CYOW 161100Z 29011KT 15SM FEW010 OVC016 03/00 A2991 RMK CF1SC7 SLP131=
CYOW;2006-12-16 12:00;METAR CYOW 161200Z 29010G16KT 15SM FEW020 OVC054 03/M00 A2996 RMK CF2SC6 SLP151=
CYOW;2006-12-16 12:17;SPECI CYOW 161217Z 29013KT 15SM BKN020 OVC055 02/ RMK SC6SC2 SFC TEMP +2C=
CYOW;2006-12-16 13:00;METAR CYOW 161300Z 31011KT 15SM BKN023 BKN055 02/M01 A3000 RMK SC5SC2 SLP164=
CYOW;2006-12-16 14:00;METAR CYOW 161400Z 31011KT 15SM FEW030 02/M02 A3002 RMK SC2 SLP172=
CYOW;2006-12-16 15:00;METAR CYOW 161500Z 33010KT 15SM FEW020 02/M03 A3004 RMK CU2 SLP177=
CYOW;2006-12-16 16:00;METAR CYOW 161600Z 29008KT 15SM SCT024 03/M03 A3006 RMK CU3 SLP184=
CYOW;2006-12-16 17:00;METAR CYOW 161700Z 28010KT 15SM BKN033 04/M04 A3007 RMK SC7 SLP186=
CYOW;2006-12-16 18:00;METAR CYOW 161800Z 30009KT 15SM OVC033 03/M04 A3007 RMK SC8 SLP186=
CYOW;2006-12-16 19:00;METAR CYOW 161900Z 28011KT 15SM BKN033 03/M04 A3008 RMK SC6 SLP189=
CYOW;2006-12-16 20:00;METAR CYOW 162000Z 28005KT 15SM BKN033 02/M04 A3008 RMK SC6 SLP192=
CYOW;2006-12-16 21:00;METAR CYOW 162100Z 27005KT 15SM FEW033 BKN280 02/M05 A3010 RMK SC2CI1 SLP199=
CYOW;2006-12-16 22:00;METAR CYOW 162200Z 29003KT 15SM FEW280 01/M05 A3011 RMK CI1 SLP201=
CYOW;2006-12-16 23:00;METAR CYOW 162300Z 00000KT 15SM SKC 01/M05 A3012 RMK SLP205=
CYOW;2006-12-17 00:00;METAR CYOW 170000Z 14002KT 15SM SKC M00/M05 A3011 RMK SLP201=
CYOW;2006-12-17 01:00;METAR CYOW 170100Z 17003KT 15SM FEW110 FEW250 M00/M05 A3011 RMK AC1CI1 SLP202=
CYOW;2006-12-17 02:00;METAR CYOW 170200Z 14005KT 15SM BKN140 M01/M04 A3009 RMK AC4 SLP194=
CYOW;2006-12-17 03:00;METAR CYOW 170300Z 18003KT 15SM FEW120 BKN160 M00/M04 A3007 RMK AC1AC4 SLP187=
CYOW;2006-12-17 04:00;METAR CYOW 170400Z 17004KT 15SM FEW120 SCT160 BKN210 M01/M04 A3004 RMK AC1AC2CI2 SLP178=
CYOW;2006-12-17 05:00;METAR CYOW 170500Z 17005KT 15SM FEW100 SCT160 BKN220 M00/M03 A3000 RMK AC1AC2CI2 SLP165=
CYOW;2006-12-17 06:00;METAR CYOW 170600Z 12004KT 15SM FEW100 SCT220 M02/M04 A2999 RMK AC1CI2 SLP163=
CYOW;2006-12-17 07:00;METAR CYOW 170700Z 14006KT 15SM FEW082 FEW240 M00/M03 A2995 RMK AC1CI1 SLP147=
CYOW;2006-12-17 08:00;METAR CYOW 170800Z 16006KT 15SM FEW012 SCT088 BKN240 01/M02 A2991 RMK CF1AC4CI1 CUFRA TR SLP133=
CYOW;2006-12-17 09:00;METAR CYOW 170900Z 19004KT 15SM SCT039 OVC088 02/M02 A2989 RMK SC3AC5 SLP126=
CYOW;2006-12-17 10:00;METAR CYOW 171000Z 21003KT 15SM BKN027 OVC040 02/M02 A2987 RMK SC5SC3 SLP121=
CYOW;2006-12-17 10:32;SPECI CYOW 171032Z 19006KT 12SM -RA OVC025 03/ RMK SC8=
CYOW;2006-12-17 10:55;SPECI CYOW 171055Z 20007KT 15SM OVC024 03/ RMK SC8=
CYOW;2006-12-17 11:00;METAR CYOW 171100Z 20007KT 15SM OVC024 03/M01 A2985 RMK SC8 SLP112=
CYOW;2006-12-17 12:00;METAR CYOW 171200Z 20007KT 15SM OVC031 04/M00 A2983 RMK SC8 SLP107=
CYOW;2006-12-17 13:00;METAR CYOW 171300Z 22007KT 15SM BKN020 OVC025 05/01 A2984 RMK SC6SC2 SLP111=
CYOW;2006-12-17 14:00;METAR CYOW 171400Z 23008KT 15SM BKN016 OVC025 06/03 A2985 RMK SC5SC3 SLP112=
CYOW;2006-12-17 15:00;METAR CYOW 171500Z 23009KT 12SM OVC037 06/03 A2986 RMK SC8 SLP116=
CYOW;2006-12-17 16:00;METAR CYOW 171600Z 23010KT 15SM SCT040 BKN160 08/05 A2985 RMK SC3AC2 SLP112=
CYOW;2006-12-17 17:00;METAR CYOW 171700Z 25010KT 15SM FEW025 BKN160 09/05 A2982 RMK SC2AC5 SLP103=
CYOW;2006-12-17 18:00;METAR CYOW 171800Z 26015KT 15SM FEW025 BKN120 OVC200 10/04 A2982 RMK SC1AC5CS2 SLP104=
CYOW;2006-12-17 19:00;METAR CYOW 171900Z 25007KT 15SM FEW030 SCT140 OVC210 10/04 A2983 RMK SC1AC3CS4 SLP107=
CYOW;2006-12-17 20:00;METAR CYOW 172000Z 25007KT 15SM FEW030 SCT140 BKN220 09/05 A2986 RMK SC1AC2CI2 SLP117=
CYOW;2006-12-17 21:00;METAR CYOW 172100Z 28005KT 15SM FEW140 SCT250 08/04 A2988 RMK AC2CI1 SLP124=
CYOW;2006-12-17 22:00;METAR CYOW 172200Z 26004KT 15SM FEW140 SCT210 07/03 A2990 RMK AC1CI1 SLP128=
CYOW;2006-12-17 23:00;METAR CYOW 172300Z 29006KT 15SM FEW140 BKN200 06/01 A2993 RMK AC2CI4 SLP139=
CYOW;2006-12-18 00:00;METAR CYOW 180000Z 27005KT 15SM BKN190 06/M01 A2995 RMK AC6 SLP146=
CYOW;2006-12-18 01:00;METAR CYOW 180100Z 30007KT 15SM OVC180 05/M01 A2996 RMK AC6 SLP150=
CYOW;2006-12-18 02:00;METAR CYOW 180200Z 26006KT 15SM OVC160 04/M02 A2998 RMK AC6 SLP155=
CYOW;2006-12-18 03:00;METAR CYOW 180300Z 26005KT 15SM OVC160 04/M02 A2999 RMK AS8 SLP159=
CYOW;2006-12-18 04:00;METAR CYOW 180400Z 25004KT 15SM OVC170 03/M02 A2999 RMK AS8 SLP160=
CYOW;2006-12-18 05:00;METAR CYOW 180500Z 21003KT 15SM OVC170 03/M02 A2999 RMK AS7 SLP159=
CYOW;2006-12-18 06:00;METAR CYOW 180600Z 23005KT 15SM OVC180 03/M02 A2997 RMK AS6 SLP154=
CYOW;2006-12-18 06:23;SPECI CYOW 180623Z 25005KT 15SM BKN180 BKN240 02/ RMK AS5CI1=
CYOW;2006-12-18 07:00;METAR CYOW 180700Z 24005KT 15SM BKN180 BKN210 02/M02 A2998 RMK AS5CI1 SLP156=
CYOW;2006-12-18 08:00;METAR CYOW 180800Z 26006KT 15SM FEW120 BKN180 BKN210 02/M02 A2999 RMK AC2AS2CI2 SLP160=
CYOW;2006-12-18 09:00;METAR CYOW 180900Z 25005KT 15SM BKN110 BKN210 02/M02 A2999 RMK AC6CI2 SLP162=
CYOW;2006-12-18 10:00;METAR CYOW 181000Z 25005KT 15SM OVC093 02/M02 A2999 RMK AC8 SLP162=
CYOW;2006-12-18 11:00;METAR CYOW 181100Z 26004KT 15SM OVC098 02/M02 A3000 RMK AC8 SLP163=
CYOW;2006-12-18 12:00;METAR CYOW 181200Z 24004KT 15SM OVC084 02/M02 A3001 RMK AC8 SLP166=
CYOW;2006-12-18 13:00;METAR CYOW 181300Z 25005KT 15SM BKN076 OVC090 02/M02 A3002 RMK AC6AC2 SLP172=
CYOW;2006-12-18 14:00;METAR CYOW 181400Z 28008KT 15SM SCT080 BKN120 BKN230 03/M02 A3003 RMK AC3AC2CI0 SLP175=
CYOW;2006-12-18 15:00;METAR CYOW 181500Z 28011G16KT 15SM SCT090 BKN110 04/M02 A3005 RMK AC3AC4 SLP182=
CYOW;2006-12-18 16:00;METAR CYOW 181600Z 28012KT 15SM FEW040 FEW090 BKN120 04/M03 A3005 RMK CU1AC2AC3 CU TR SLP181=
CYOW;2006-12-18 17:00;METAR CYOW 181700Z 29011KT 15SM BKN059 BKN090 05/M03 A3004 RMK SC5AC2 CU ASOCT SLP178=
CYOW;2006-12-18 18:00;METAR CYOW 181800Z 30011KT 15SM OVC061 04/M04 A3004 RMK SC8 SLP178=
CYOW;2006-12-18 19:00;METAR CYOW 181900Z 29012G17KT 15SM FEW040 OVC060 03/M05 A3006 RMK CU1SC7 SLP185=
CYOW;2006-12-18 20:00;METAR CYOW 182000Z 30012KT 15SM SCT060 BKN074 04/M06 A3008 RMK SC3AC4 SLP192=
CYOW;2006-12-18 21:00;METAR CYOW 182100Z 29011G16KT 15SM OVC076 03/M06 A3012 RMK AC8 SLP205=
CYOW;2006-12-18 22:00;METAR CYOW 182200Z 28009KT 15SM BKN077 02/M04 A3014 RMK AC6 SLP211=
CYOW;2006-12-18 23:00;METAR CYOW 182300Z 26010KT 15SM BKN068 01/M04 A3014 RMK AC7 SLP213=
CYOW;2006-12-18 23:11;SPECI CYOW 182311Z 27011KT 15SM -SN BKN057 01/ RMK SC7=
CYOW;2006-12-18 23:36;SPECI CYOW 182336Z 27007KT 15SM BKN060 BKN080 01/ RMK SC5AC2=
CYOW;2006-12-19 00:00;METAR CYOW 190000Z 27007KT 15SM SCT060 BKN074 01/M03 A3016 RMK SC4AC3 SLP220=
CYOW;2006-12-19 01:00;METAR CYOW 190100Z 28010KT 15SM FEW060 BKN074 00/M04 A3018 RMK SC2AC5 SLP224=
CYOW;2006-12-19 02:00;METAR CYOW 190200Z 28009KT 15SM BKN065 00/M04 A3019 RMK SC6 SLP229=
CYOW;2006-12-19 03:00;METAR CYOW 190300Z 29008KT 15SM FEW040 BKN065 00/M04 A3019 RMK SC2SC6 VIRGA OVRHD SLP230=
CYOW;2006-12-19 04:00;METAR CYOW 190400Z 29007KT 15SM FEW040 SCT065 M01/M05 A3020 RMK SC1SC3 SLP232=
CYOW;2006-12-19 05:00;METAR CYOW 190500Z 28007KT 15SM FEW030 SCT065 M01/M05 A3020 RMK SC1SC2 SLP233=
CYOW;2006-12-19 06:00;METAR CYOW 190600Z 27005KT 15SM FEW030 BKN051 M01/M05 A3020 RMK SC1SC4 SLP233=
CYOW;2006-12-19 07:00;METAR CYOW 190700Z 26004KT 15SM BKN051 M02/M05 A3021 RMK SC5 SLP236=
CYOW;2006-12-19 08:00;METAR CYOW 190800Z 25004KT 15SM SCT050 M02/M06 A3022 RMK SC3 SLP237=
CYOW;2006-12-19 09:00;METAR CYOW 190900Z 25004KT 15SM BKN049 M02/M06 A3021 RMK SC6 SLP237=
CYOW;2006-12-19 10:00;METAR CYOW 191000Z 24002KT 15SM BKN049 M02/M06 A3021 RMK SC6 SLP236=
CYOW;2006-12-19 11:00;METAR CYOW 191100Z 26003KT 15SM FEW040 BKN052 M02/M06 A3022 RMK SC2SC5 VIRGA N QUAD SLP239=
CYOW;2006-12-19 12:00;METAR CYOW 191200Z 22002KT 15SM FEW055 BKN150 M02/M07 A3021 RMK SC2AS2 SLP237=
CYOW;2006-12-19 13:00;METAR CYOW 191300Z 24004KT 12SM OVC052 M02/M07 A3022 RMK SC8 SLP238=
CYOW;2006-12-19 13:20;SPECI CYOW 191320Z 25004KT 12SM -SN OVC050 M02/ RMK SC8=
CYOW;2006-12-19 13:39;SPECI CYOW 191339Z 29006KT 2SM -SN OVC040 M01/ RMK SN3SC5=
CYOW;2006-12-19 14:00;METAR CYOW 191400Z 28008KT 3SM -SN OVC024 M02/M06 A3023 RMK SC8 SLP242=
CYOW;2006-12-19 14:40;SPECI CYOW 191440Z 28003KT 10SM FEW050 OVC080 M01/ RMK SC2AC6=
CYOW;2006-12-19 15:00;METAR CYOW 191500Z 27003KT 10SM SCT035 OVC080 M01/M05 A3022 RMK SC3AC5 VIRGA SLP241=
CYOW;2006-12-19 15:04;SPECI CYOW 191504Z 27004KT 10SM -SN OVC033 M01/ RMK SC8=
CYOW;2006-12-19 15:20;SPECI CYOW 191520Z 31004KT 1SM -SN VV010 M02/ RMK SN8=
CYOW;2006-12-19 15:32;SPECI CYOW 191532Z 29004KT 4SM -SN BKN028 M01/ RMK SC7=
CYOW;2006-12-19 15:50;SPECI CYOW 191550Z 31004KT 12SM FEW030 SCT080 M01/ RMK CU2AC2=
CYOW;2006-12-19 16:00;METAR CYOW 191600Z 31003KT 12SM FEW030 SCT047 BKN087 M01/M04 A3021 RMK CU2SC2AC2 SLP237=
CYOW;2006-12-19 17:00;METAR CYOW 191700Z 26003KT 15SM SCT026 01/M05 A3019 RMK CU3 SLP230=
CYOW;2006-12-19 18:00;METAR CYOW 191800Z 31009KT 15SM VCSH BKN047 01/M05 A3018 RMK CU5 TCU ASOCTD SLP227=
CYOW;2006-12-19 19:00;METAR CYOW 191900Z 31009KT 15SM VCSH SCT050 02/M06 A3018 RMK CU3 TCU ASOCTD SLP226=
CYOW;2006-12-19 20:00;METAR CYOW 192000Z 28009KT 15SM VCSH SCT060TCU 02/M07 A3019 RMK TCU3 SLP229=
CYOW;2006-12-19 21:00;METAR CYOW 192100Z 29007KT 15SM SCT060 01/M08 A3020 RMK CU3 SLP233=
CYOW;2006-12-19 22:00;METAR CYOW 192200Z 27005KT 15SM FEW060 M01/M08 A3022 RMK CU2 SLP239=
CYOW;2006-12-19 23:00;METAR CYOW 192300Z 26003KT 15SM FEW060 M01/M07 A3023 RMK SC1 SLP244=
CYOW;2006-12-20 00:00;METAR CYOW 200000Z 28004KT 15SM FEW060 M01/M08 A3026 RMK SC1 SLP253=
CYOW;2006-12-20 01:00;METAR CYOW 200100Z 30003KT 15SM SKC M02/M07 A3027 RMK SLP258=
CYOW;2006-12-20 02:00;METAR CYOW 200200Z 00000KT 15SM SKC M02/M07 A3028 RMK SLP259=
CYOW;2006-12-20 03:00;METAR CYOW 200300Z 22002KT 15SM SKC M03/M07 A3028 RMK SLP262=
CYOW;2006-12-20 04:00;METAR CYOW 200400Z 20002KT 15SM SKC M04/M08 A3029 RMK SLP265=
CYOW;2006-12-20 05:00;METAR CYOW 200500Z 19004KT 15SM SKC M03/M07 A3028 RMK SLP261=
CYOW;2006-12-20 06:00;METAR CYOW 200600Z 21004KT 15SM FEW095 M05/M08 A3029 RMK AC2 SLP265=
CYOW;2006-12-20 07:00;METAR CYOW 200700Z 18004KT 15SM BKN098 M04/M07 A3029 RMK AC6 SLP264=
CYOW;2006-12-20 08:00;METAR CYOW 200800Z 21004KT 15SM FEW050 OVC094 M04/M07 A3029 RMK SC1AC7 SLP264=
CYOW;2006-12-20 09:00;METAR CYOW 200900Z 17005KT 15SM FEW090 M05/M08 A3026 RMK AC1 SLP255=
CYOW;2006-12-20 10:00;METAR CYOW 201000Z 19005KT 15SM FEW090 M05/M08 A3025 RMK AC2 SLP252=
CYOW;2006-12-20 11:00;METAR CYOW 201100Z CCA 17005KT 15SM SKC M05/M08 A3025 RMK FROIN SLP249=
CYOW;2006-12-20 12:00;METAR CYOW 201200Z 19005KT 15SM FEW180 M04/M07 A3026 RMK AC1 FROIN SLP253=
CYOW;2006-12-20 13:00;METAR CYOW 201300Z 19006KT 15SM FEW180 M04/M07 A3023 RMK AC2 SLP245=
CYOW;2006-12-20 14:00;METAR CYOW 201400Z 19007KT 12SM FEW180 M02/M05 A3023 RMK AC2 SLP245=
CYOW;2006-12-20 15:00;METAR CYOW 201500Z 20006KT 10SM FEW180 FEW240 M01/M04 A3020 RMK AC1CI0 SLP233=
CYOW;2006-12-20 16:00;METAR CYOW 201600Z 20008KT 10SM FEW010 FEW180 01/M02 A3016 RMK CF2AC1 SLP220=
CYOW;2006-12-20 17:00;METAR CYOW 201700Z 21012KT 10SM FEW017 FEW180 04/M01 A3011 RMK CF1AC1 SLP202=
CYOW;2006-12-20 18:00;METAR CYOW 201800Z 22010G15KT 12SM SKC 05/M02 A3007 RMK SLP188=
CYOW;2006-12-20 19:00;METAR CYOW 201900Z 23010G17KT 15SM FEW240 06/M03 A3004 RMK CI1 SLP179=
CYOW;2006-12-20 20:00;METAR CYOW 202000Z 23013KT 15SM SCT240 07/M03 A3005 RMK CI2 SLP181=
CYOW;2006-12-20 21:00;METAR CYOW 202100Z 22010G16KT 15SM FEW180 BKN240 06/M03 A3004 RMK AC2CI1 SLP177=
CYOW;2006-12-20 22:00;METAR CYOW 202200Z 22011G20KT 15SM BKN100 06/M05 A3003 RMK AC6 SLP176=
CYOW;2006-12-20 23:00;METAR CYOW 202300Z 21012G20KT 15SM BKN090 05/M05 A3004 RMK AC5 SLP178=
CYOW;2006-12-21 00:00;METAR CYOW 210000Z 22014G20KT 15SM OVC210 04/M03 A3004 RMK CI8 SLP179=
CYOW;2006-12-21 01:00;METAR CYOW 210100Z 23011G18KT 15SM FEW220 04/M03 A3005 RMK CI2 SLP181=
CYOW;2006-12-21 02:00;METAR CYOW 210200Z 23011KT 15SM SKC 04/M04 A3005 RMK SLP183=
CYOW;2006-12-21 03:00;METAR CYOW 210300Z 23010KT 15SM SKC 03/M04 A3006 RMK SLP184=
CYOW;2006-12-21 04:00;METAR CYOW 210400Z 23010KT 15SM SKC 03/M05 A3005 RMK SLP183=
CYOW;2006-12-21 04:49;SPECI CYOW 210449Z 23008KT 15SM SKC 02/=
CYOW;2006-12-21 05:00;METAR CYOW 210500Z 23008KT 15SM SKC 02/M05 A3005 RMK SLP183=
CYOW;2006-12-21 06:00;METAR CYOW 210600Z 23010KT 15SM SKC 02/M05 A3005 RMK SLP180=
CYOW;2006-12-21 07:00;METAR CYOW 210700Z 24008KT 15SM SKC 01/M05 A3007 RMK SLP186=
CYOW;2006-12-21 08:00;METAR CYOW 210800Z 25007KT 15SM SKC 01/M05 A3008 RMK SLP192=
CYOW;2006-12-21 09:00;METAR CYOW 210900Z 26003KT 15SM SKC M01/M06 A3009 RMK SLP195=
CYOW;2006-12-21 10:00;METAR CYOW 211000Z 27006KT 15SM SKC M01/M06 A3010 RMK SLP197=
CYOW;2006-12-21 11:00;METAR CYOW 211100Z 24005KT 15SM SKC M01/M06 A3011 RMK SLP201=
CYOW;2006-12-21 12:00;METAR CYOW 211200Z 25006KT 15SM FEW250 M02/M06 A3012 RMK CI1 SLP205=
CYOW;2006-12-21 13:00;METAR CYOW 211300Z 25007KT 15SM FEW040 FEW250 M02/M05 A3014 RMK SC1CI0 SLP211=
CYOW;2006-12-21 14:00;METAR CYOW 211400Z 26008KT 15SM FEW035 M00/M04 A3018 RMK SC1 SLP226=
CYOW;2006-12-21 15:00;METAR CYOW 211500Z 29012G19KT 15SM FEW020 FEW031 FEW280 02/M04 A3021 RMK CF1SC1CI0 SLP234=
CYOW;2006-12-21 16:00;METAR CYOW 211600Z 29015KT 15SM FEW025 FEW280 03/M05 A3021 RMK CF1CI0 SLP234=
CYOW;2006-12-21 17:00;METAR CYOW 211700Z 28014KT 15SM FEW035 FEW280 03/M05 A3021 RMK CU1CI0 SLP235=
CYOW;2006-12-21 18:00;METAR CYOW 211800Z 30012KT 15SM FEW035 FEW280 04/M06 A3020 RMK SC1CI0 SLP232=
CYOW;2006-12-21 19:00;METAR CYOW 211900Z 29014G19KT 15SM FEW040 FEW280 04/M06 A3021 RMK SC1CI1 SLP235=
CYOW;2006-12-21 20:00;METAR CYOW 212000Z 30014KT 15SM FEW040 FEW280 04/M06 A3024 RMK SC1CI1 SLP244=
CYOW;2006-12-21 21:00;METAR CYOW 212100Z 28009KT 15SM FEW040 SCT260 03/M07 A3027 RMK SC1CI1 SLP255=
CYOW;2006-12-21 21:29;SPECI CYOW 212129Z 27007KT 15SM SCT260 02/ RMK CI1=
CYOW;2006-12-21 22:00;METAR CYOW 212200Z 29007KT 15SM FEW260 01/M07 A3031 RMK CI1 SLP268=
CYOW;2006-12-21 23:00;METAR CYOW 212300Z 28005KT 15SM FEW260 00/M08 A3032 RMK CI1 SLP273=
CYOW;2006-12-22 00:00;METAR CYOW 220000Z 29003KT 15SM SKC M00/M08 A3034 RMK SLP280=
CYOW;2006-12-22 01:00;METAR CYOW 220100Z 27005KT 15SM SKC M02/M08 A3035 RMK SLP285=
CYOW;2006-12-22 02:00;METAR CYOW 220200Z 33004KT 15SM SKC M02/M08 A3037 RMK SLP291=
CYOW;2006-12-22 03:00;METAR CYOW 220300Z 29003KT 15SM SKC M01/M08 A3039 RMK SLP299=
CYOW;2006-12-22 04:00;METAR CYOW 220400Z 01003KT 15SM SKC M02/M08 A3040 RMK SLP302=
CYOW;2006-12-22 05:00;METAR CYOW 220500Z 03006KT 15SM SKC M02/M10 A3039 RMK SLP297=
CYOW;2006-12-22 06:00;METAR CYOW 220600Z 05006KT 15SM OVC220 M02/M11 A3038 RMK CI6 SLP294=
CYOW;2006-12-22 07:00;METAR CYOW 220700Z 05006KT 15SM OVC240 M03/M10 A3038 RMK CI8 SLP293=
CYOW;2006-12-22 08:00;METAR CYOW 220800Z 06004KT 15SM OVC190 M03/M10 A3039 RMK AC8 SLP298=
CYOW;2006-12-22 09:00;METAR CYOW 220900Z 08003KT 15SM SCT180 OVC240 M03/M10 A3042 RMK AC3CI5 SLP306=
CYOW;2006-12-22 10:00;METAR CYOW 221000Z 08006KT 15SM OVC220 M04/M10 A3040 RMK CI8 SLP300=
CYOW;2006-12-22 11:00;METAR CYOW 221100Z 08007KT 15SM OVC200 M03/M10 A3039 RMK CI8 SLP299=
CYOW;2006-12-22 12:00;METAR CYOW 221200Z 09007KT 15SM FEW150 OVC190 M04/M10 A3041 RMK AC1AS7 SLP304=
CYOW;2006-12-22 13:00;METAR CYOW 221300Z 09008KT 15SM FEW150 BKN190 M04/M09 A3041 RMK AC2AS5 SLP304=
CYOW;2006-12-22 14:00;METAR CYOW 221400Z 09009KT 15SM FEW150 BKN170 OVC250 M03/M09 A3039 RMK AC2AC2CS2 AS ASOCTD SLP300=
CYOW;2006-12-22 15:00;METAR CYOW 221500Z 08011KT 15SM FEW120 BKN170 OVC250 M02/M09 A3039 RMK AC2AC3CS2 SLP296=
CYOW;2006-12-22 16:00;METAR CYOW 221600Z 09011KT 15SM SCT110 BKN170 OVC250 M02/M09 A3035 RMK AC4AS3CS1 SLP285=
CYOW;2006-12-22 17:00;METAR CYOW 221700Z 08009KT 15SM BKN100 BKN160 OVC230 M02/M09 A3032 RMK AC6AS2CS1 SLP275=
CYOW;2006-12-22 18:00;METAR CYOW 221800Z 07009KT 15SM BKN089 OVC160 M02/M09 A3030 RMK AC7AS1 SLP266=
CYOW;2006-12-22 19:00;METAR CYOW 221900Z 08009KT 15SM -FZRA BKN075 OVC140 M02/M08 A3026 RMK AC7AS1 SLP255=
CYOW;2006-12-22 20:00;METAR CYOW 222000Z 09014KT 15SM -FZRA SCT045 BKN068 OVC140 M02/M09 A3024 RMK SC4AS3AS1 SLP246=
CYOW;2006-12-22 21:00;METAR CYOW 222100Z 09012G17KT 12SM -FZRA BKN038 OVC067 M02/M07 A3021 RMK SC5AS3 SLP238=
CYOW;2006-12-22 22:00;METAR CYOW 222200Z 09011KT 8SM -FZRA BKN025 OVC068 M03/M06 A3020 RMK NS6AS2 SLP234=
CYOW;2006-12-22 23:00;METAR CYOW 222300Z 09011KT 8SM -FZRA OVC021 M03/M05 A3017 RMK NS8 SLP225=
CYOW;2006-12-23 00:00;METAR CYOW 230000Z 08011KT 8SM -FZRA OVC019 M03/M05 A3014 RMK NS8 SLP214=
CYOW;2006-12-23 00:13;SPECI CYOW 230013Z 09011KT 8SM -FZRA SCT007 OVC019 M03/ RMK SF3NS5=
CYOW;2006-12-23 00:34;SPECI CYOW 230034Z 09011KT 6SM -FZRA BR BKN007 OVC017 M03/ RMK SF6NS2=
CYOW;2006-12-23 01:00;METAR CYOW 230100Z 09010KT 6SM -FZRA BR BKN007 OVC016 M03/M05 A3011 RMK SF6NS2 SLP202=
CYOW;2006-12-23 02:00;METAR CYOW 230200Z 08011KT 5SM -FZRA BR BKN006 OVC015 M02/M04 A3007 RMK SF6NS2 SLP189=
CYOW;2006-12-23 02:48;SPECI CYOW 230248Z 08013KT 5SM -FZRA BR BKN004 OVC013 M02/ RMK SF6NS2=
CYOW;2006-12-23 03:00;METAR CYOW 230300Z 09010G16KT 5SM -FZRA BR BKN004 OVC013 M01/M03 A3002 RMK SF6NS2 SLP173=
CYOW;2006-12-23 04:00;METAR CYOW 230400Z 08009KT 3SM -FZRA BR OVC003 M01/M03 A2998 RMK NS8 SLP159=
CYOW;2006-12-23 05:00;METAR CYOW 230500Z 09008KT 5SM -FZRA BR OVC003 M01/M02 A2995 RMK NS8 SLP148=
CYOW;2006-12-23 06:00;METAR CYOW 230600Z 09009KT 5SM -FZRA BR OVC003 M01/M02 A2990 RMK NS8 SLP132=
CYOW;2006-12-23 07:00;METAR CYOW 230700Z 09009KT 5SM -FZRA BR OVC003 M00/M01 A2988 RMK NS8 CIG RAG SLP125=
CYOW;2006-12-23 07:39;SPECI CYOW 230739Z 09007KT 4SM -RA BR OVC002 00/ REFZRA RMK NS8=
CYOW;2006-12-23 08:00;METAR CYOW 230800Z 09007KT 2SM -RA BR OVC003 00/M01 A2986 REFZRA RMK NS8 SLP118=
CYOW;2006-12-23 09:00;METAR CYOW 230900Z 08007KT 3SM -RA BR OVC002 00/M01 A2983 RMK NS8 SLP107=
CYOW;2006-12-23 09:43;SPECI CYOW 230943Z 09005KT 4SM BR OVC002 00/ RMK NS8=
CYOW;2006-12-23 10:00;METAR CYOW 231000Z 09007KT 3SM BR OVC002 00/M01 A2979 RMK NS8 SLP096=
CYOW;2006-12-23 10:27;SPECI CYOW 231027Z 09006KT 2SM -DZ BR OVC002 00/ RMK ST8=
CYOW;2006-12-23 10:46;SPECI CYOW 231046Z 08007KT 2SM -RA BR OVC002 00/ RMK NS8 CIG RAG=
CYOW;2006-12-23 11:00;METAR CYOW 231100Z 08007KT 1 1/2SM -RA BR OVC001 00/M01 A2977 RMK NS8 SLP088=
CYOW;2006-12-23 12:00;METAR CYOW 231200Z 08004KT 4SM BR OVC002 00/M01 A2974 RMK NS8 SLP076=
CYOW;2006-12-23 12:31;SPECI CYOW 231231Z 08004KT 1 1/2SM BR FEW001 OVC002 00/ RMK FG2SF1NS6=
CYOW;2006-12-23 12:51;SPECI CYOW 231251Z 08004KT 1/2SM FG VV002 00/ RMK FG8=
CYOW;2006-12-23 13:00;METAR CYOW 231300Z 07005KT 1/2SM FG VV002 00/M01 A2974 RMK FG8 SLP076=
CYOW;2006-12-23 13:18;SPECI CYOW 231318Z 08004KT 1/2SM -DZ FG VV002 00/ RMK FG8=
CYOW;2006-12-23 14:48;SPECI CYOW 231448Z 09002KT 1/8SM R07/1800FT R32/1800FT FG VV001 00/ RMK FG8=
CYOW;2006-12-23 15:00;METAR CYOW 231500Z 08003KT 1/8SM R07/2000FT R32/1800FT FG VV001 00/M00 A2972 RMK FG8 SLP069=
CYOW;2006-12-23 16:00;METAR CYOW 231600Z 00000KT 1/8SM R07/1100FT R32/1100FT FG VV001 01/00 A2968 RMK FG8 SLP058=
CYOW;2006-12-23 16:30;SPECI CYOW 231630Z 00000KT 0SM R07/0700FT R32/0600FT FG SKC 02/ RMK FG6=
CYOW;2006-12-23 17:00;METAR CYOW 231700Z 00000KT 1/4SM R07/1100FT R32/1100FT FG BKN020 02/01 A2965 RMK FG5CU2 SLP048=
CYOW;2006-12-23 17:24;SPECI CYOW 231724Z 25003KT 1/2SM R07/2000FT R32/2200FT FG BKN025 02/ RMK FG3SC4=
CYOW;2006-12-23 17:31;SPECI CYOW 231731Z 22003KT 1 1/2SM BR BKN027 03/ RMK FG2SC6 CU ASOCTD=
CYOW;2006-12-23 17:40;SPECI CYOW 231740Z 22003KT 4SM BR BKN027 03/ RMK SC7 CU ASOCTD=
CYOW;2006-12-23 18:00;METAR CYOW 231800Z 24002KT 5SM BR OVC020 03/02 A2964 RMK SC8 SLP043=
CYOW;2006-12-23 19:00;METAR CYOW 231900Z 25008KT 12SM OVC018 04/02 A2964 RMK SC8 SLP043=
CYOW;2006-12-23 20:00;METAR CYOW 232000Z 21006KT 12SM OVC037 04/02 A2963 RMK SC8 SLP040=
CYOW;2006-12-23 21:00;METAR CYOW 232100Z 21007KT 15SM OVC038 05/02 A2962 RMK SC8 SLP035=
CYOW;2006-12-23 22:00;METAR CYOW 232200Z 21007KT 15SM OVC027 05/02 A2962 RMK SC8 SLP034=
CYOW;2006-12-23 23:00;METAR CYOW 232300Z 22009KT 15SM BKN037 OVC080 05/02 A2962 RMK SC6AC2 SLP033=
CYOW;2006-12-23 23:47;SPECI CYOW 232347Z 22011KT 15SM -RA BKN026 OVC080 05/ RMK SC6AC2=
CYOW;2006-12-24 00:00;METAR CYOW 240000Z 24013KT 15SM -RA BKN026 OVC080 05/02 A2962 RMK SC6AC2 SLP036=
CYOW;2006-12-24 01:00;METAR CYOW 240100Z 24010KT 15SM -RA BKN025 OVC046 04/02 A2963 RMK SC5SC3 SLP037=
CYOW;2006-12-24 01:33;SPECI CYOW 240133Z 23011G16KT 15SM SCT025 OVC058 05/ RMK SC3SC5=
CYOW;2006-12-24 02:00;METAR CYOW 240200Z 23014G19KT 15SM FEW025 OVC058 05/01 A2962 RMK SC2SC6 SLP035=
CYOW;2006-12-24 03:00;METAR CYOW 240300Z 24017KT 15SM FEW025 BKN058 OVC079 04/00 A2963 RMK SC1SC4AC3 SLP037=
CYOW;2006-12-24 04:00;METAR CYOW 240400Z 24012G18KT 15SM FEW058 OVC076 04/00 A2963 RMK SC2AC6 SLP039=
CYOW;2006-12-24 05:00;METAR CYOW 240500Z 23012KT 15SM FEW050 OVC066 04/M00 A2963 RMK SC2AC6 SLP038=
CYOW;2006-12-24 06:00;METAR CYOW 240600Z 23013KT 15SM BKN064 BKN076 04/00 A2964 RMK SC6AC2 SLP041=
CYOW;2006-12-24 07:00;METAR CYOW 240700Z 25010G18KT 15SM FEW032 OVC056 04/M00 A2967 RMK SC2SC6 SLP050=
CYOW;2006-12-24 08:00;METAR CYOW 240800Z 24010G15KT 15SM SCT030 OVC055 04/M01 A2969 RMK SC4SC4 SLP058=
CYOW;2006-12-24 09:00;METAR CYOW 240900Z 24012G18KT 15SM BKN031 OVC092 03/M00 A2969 RMK SC6AC2 SLP058=
CYOW;2006-12-24 09:42;SPECI CYOW 240942Z 24010G16KT 15SM -RA OVC035 03/ RMK SC8=
CYOW;2006-12-24 10:00;METAR CYOW 241000Z 24011G16KT 15SM -RA OVC035 03/M00 A2968 RMK SC8 SLP056=
CYOW;2006-12-24 11:00;METAR CYOW 241100Z 25010G15KT 8SM -RA FEW014 OVC035 03/00 A2971 RMK SC2SC6 SLP066=
CYOW;2006-12-24 12:00;METAR CYOW 241200Z 25010G17KT 10SM -RA SCT010 OVC020 03/01 A2975 RMK SF3SC5 SLP080=
CYOW;2006-12-24 13:00;METAR CYOW 241300Z 28016KT 12SM -RA SCT010 OVC015 02/00 A2978 RMK SF3SC5 SLP090=
CYOW;2006-12-24 13:33;SPECI CYOW 241333Z 29017G22KT 12SM BKN012 BKN120 02/ RMK SC6AC2=
CYOW;2006-12-24 14:00;METAR CYOW 241400Z 29012G19KT 12SM BKN013 BKN240 02/M01 A2985 RMK SC5CI1 SLP113=
CYOW;2006-12-24 14:43;SPECI CYOW 241443Z 29018KT 15SM FEW013 BKN240 02/ RMK SC2CI1=
CYOW;2006-12-24 15:00;METAR CYOW 241500Z 29017KT 15SM FEW013 SCT240 02/M02 A2989 RMK SC2CI2 SLP128=
CYOW;2006-12-24 16:00;METAR CYOW 241600Z 29016KT 15SM FEW017 FEW240 03/M02 A2991 RMK SC1CI1 SLP134=
CYOW;2006-12-24 17:00;METAR CYOW 241700Z 28010G16KT 20SM FEW020 FEW240 04/M03 A2992 RMK SC1CI1 SLP137=
CYOW;2006-12-24 18:00;METAR CYOW 241800Z 27012KT 20SM SKC 05/M04 A2993 RMK SLP140=
CYOW;2006-12-24 19:00;METAR CYOW 241900Z 26013KT 20SM SKC 07/M05 A2994 RMK SLP141=
CYOW;2006-12-24 20:00;METAR CYOW 242000Z 24012KT 20SM FEW030 07/M05 A2995 RMK CU1 SLP146=
CYOW;2006-12-24 21:00;METAR CYOW 242100Z 28015G27KT 20SM SCT050 06/M05 A2999 RMK CU3 SLP159=
CYOW;2006-12-24 22:00;METAR CYOW 242200Z 27010G15KT 15SM BKN050 05/M04 A3000 RMK SC5 SLP164=
CYOW;2006-12-24 23:00;METAR CYOW 242300Z 25008KT 15SM BKN053 04/M04 A3003 RMK SC6 SLP174=
CYOW;2006-12-25 00:00;METAR CYOW 250000Z 25009KT 15SM BKN047 04/M03 A3006 RMK SC7 SLP184=
CYOW;2006-12-25 01:00;METAR CYOW 250100Z 26006KT 15SM SCT045 03/M04 A3007 RMK SC4 SLP187=
CYOW;2006-12-25 01:10;SPECI CYOW 250110Z 25005KT 15SM SCT045 02/ RMK SC3=
CYOW;2006-12-25 02:00;METAR CYOW 250200Z 24006KT 15SM FEW041 02/M04 A3008 RMK SC2 SLP191=
CYOW;2006-12-25 03:00;METAR CYOW 250300Z 24006KT 15SM SKC 01/M04 A3008 RMK SLP192=
CYOW;2006-12-25 04:00;METAR CYOW 250400Z 23006KT 15SM SKC 01/M04 A3010 RMK SLP197=
CYOW;2006-12-25 05:00;METAR CYOW 250500Z 25007KT 15SM FEW050 00/M04 A3012 RMK SC1 SLP206=
CYOW;2006-12-25 06:00;METAR CYOW 250600Z 26005KT 15SM FEW050 M01/M04 A3012 RMK SC1 SLP205=
CYOW;2006-12-25 07:00;METAR CYOW 250700Z 22005KT 15SM SKC M01/M04 A3014 RMK SLP211=
CYOW;2006-12-25 08:00;METAR CYOW 250800Z 22006KT 15SM SKC M01/M04 A3014 RMK SLP211=
CYOW;2006-12-25 09:00;METAR CYOW 250900Z 22006KT 15SM SKC M01/M04 A3012 RMK SLP205=
CYOW;2006-12-25 10:00;METAR CYOW 251000Z 21006KT 15SM FEW260 M02/M04 A3013 RMK CI1 FROIN SLP208=
CYOW;2006-12-25 11:00;METAR CYOW 251100Z 22005KT 15SM FEW240 M02/M04 A3012 RMK CI1 FROIN SLP206=
CYOW;2006-12-25 12:00;METAR CYOW 251200Z 21007KT 15SM SCT240 M03/M05 A3010 RMK CI2 SLP199=
CYOW;2006-12-25 13:00;METAR CYOW 251300Z 20006KT 10SM BKN220 M02/M04 A3010 RMK CI3 SLP197=
CYOW;2006-12-25 14:00;METAR CYOW 251400Z 21007KT 4SM BR BKN002 BKN220 M01/M02 A3011 RMK ST3CI2 SLP202=
CYOW;2006-12-25 15:00;METAR CYOW 251500Z 20005KT 4SM BR BKN003 OVC180 00/M02 A3011 RMK ST2AS6 SLP202=
CYOW;2006-12-25 16:00;METAR CYOW 251600Z 20005KT 4SM BR SCT006 OVC180 01/M01 A3009 RMK ST2AS2 SLP195=
CYOW;2006-12-25 17:00;METAR CYOW 251700Z 22006KT 5SM BR OVC010 03/01 A3004 RMK ST8 SLP179=
CYOW;2006-12-25 18:00;METAR CYOW 251800Z 19004KT 7SM BKN010 03/01 A2999 RMK SF7 SLP162=
CYOW;2006-12-25 19:00;METAR CYOW 251900Z 20005KT 7SM OVC013 04/01 A2999 RMK SC8 SLP162=
CYOW;2006-12-25 19:46;SPECI CYOW 251946Z 17005KT 7SM BKN150 OVC240 04/ RMK AC6CS2=
CYOW;2006-12-25 20:00;METAR CYOW 252000Z 17005KT 7SM OVC150 04/01 A2998 RMK AC8 SLP158=
CYOW;2006-12-25 21:00;METAR CYOW 252100Z 15003KT 7SM OVC120 03/01 A2998 RMK AS8 SLP158=
CYOW;2006-12-25 22:00;METAR CYOW 252200Z 10005KT 8SM BKN180 02/M00 A2994 RMK AC7 SLP143=
CYOW;2006-12-25 23:00;METAR CYOW 252300Z 10004KT 10SM OVC140 01/M01 A2992 RMK AC8 SLP139=
CYOW;2006-12-26 00:00;METAR CYOW 260000Z 07005KT 10SM OVC140 01/M01 A2990 RMK AS8 SLP130=
CYOW;2006-12-26 01:00;METAR CYOW 260100Z 09008KT 10SM OVC130 01/M01 A2987 RMK AS8 SLP122=
CYOW;2006-12-26 02:00;METAR CYOW 260200Z 08006KT 10SM OVC088 01/M01 A2983 RMK AS8 SLP109=
CYOW;2006-12-26 03:00;METAR CYOW 260300Z 07005KT 10SM OVC062 01/M01 A2981 RMK NS8 SLP100=
CYOW;2006-12-26 03:32;SPECI CYOW 260332Z 12008KT 8SM -RA OVC036 01/ RMK NS8=
CYOW;2006-12-26 03:51;SPECI CYOW 260351Z 12003KT 4SM -RASN BR OVC033 01/ RMK NS8=
CYOW;2006-12-26 04:00;METAR CYOW 260400Z 12003KT 4SM -RASN BR OVC033 01/M01 A2980 RMK SC8 SLP096=
CYOW;2006-12-26 04:20;SPECI CYOW 260420Z 09004KT 3SM -SN BR OVC020 01/ RMK NS8=
CYOW;2006-12-26 04:31;SPECI CYOW 260431Z 07004KT 1 1/4SM -SN BR OVC020 00/ RMK SN3SC5=
CYOW;2006-12-26 04:37;SPECI CYOW 260437Z 06004KT 3/4SM R07/P6000FT/D R32/P6000FT/D -SN BR VV008 00/ RMK SN8=
CYOW;2006-12-26 05:00;METAR CYOW 260500Z 07005KT 3/4SM R07/P6000FT/U R32/P6000FT/U -SN BR VV008 00/M01 A2976 RMK SN8 SLP083=
CYOW;2006-12-26 05:10;SPECI CYOW 260510Z 08005KT 1SM R07/P6000FT/U R32/P6000FT/U -SN BR SCT003 VV009 00/ RMK ST3SN5=
CYOW;2006-12-26 05:38;SPECI CYOW 260538Z 08005KT 3/4SM R07/P6000FT/N R32/P6000FT/D -SN BR OVC003 00/ RMK SN6ST2=
CYOW;2006-12-26 06:00;METAR CYOW 260600Z 07006KT 5/8SM R07/P6000FT/U R32/P6000FT/U -SN BR OVC002 00/M01 A2971 RMK SN6ST2 /S02/ SLP067=
CYOW;2006-12-26 06:32;SPECI CYOW 260632Z 07006KT 1SM R07/P6000FT/D R32/P6000FT/D -SN BR OVC002 00/ RMK SN5ST3=
CYOW;2006-12-26 07:00;METAR CYOW 260700Z 06006KT 1SM R07/P6000FT/D R32/P6000FT/U -SN BR OVC002 00/M01 A2969 RMK SN5SF3 /S01/ SLP060=
CYOW;2006-12-26 08:00;METAR CYOW 260800Z 06007KT 1 1/4SM -SN BR OVC002 00/M01 A2965 RMK FG4SF4 SLP046=
CYOW;2006-12-26 08:18;SPECI CYOW 260818Z 06006KT 2SM -SN BR OVC003 00/ RMK FG2SF6=
CYOW;2006-12-26 08:33;SPECI CYOW 260833Z 05005KT 3SM -SN BR OVC003 00/ RMK SF8=
CYOW;2006-12-26 09:00;METAR CYOW 260900Z 05007KT 2 1/2SM -SN BR OVC003 00/M01 A2961 RMK SN2SF6 SLP031=
CYOW;2006-12-26 10:00;METAR CYOW 261000Z 05008KT 2 1/2SM -SN BR OVC003 00/M01 A2956 RMK SN2NS6 SLP015=
CYOW;2006-12-26 11:00;METAR CYOW 261100Z 05008KT 1 3/4SM -SN BR OVC003 00/M01 A2953 RMK SN4NS4 /S02/ SLP005=
CYOW;2006-12-26 12:00;METAR CYOW 261200Z 06008KT 2SM -SN OVC003 00/M01 A2951 RMK SN2NS6 /SO5/ SLP999=
CYOW;2006-12-26 12:42;SPECI CYOW 261242Z 05009KT 1SM -SN BR OVC003 00/ RMK SN3NS5=
CYOW;2006-12-26 13:00;METAR CYOW 261300Z 05009KT 1 1/2SM -SN BR OVC004 00/M01 A2948 RMK SN2NS6 SLP988=
CYOW;2006-12-26 14:00;METAR CYOW 261400Z 01006KT 1 1/2SM -SN BR OVC003 00/M01 A2949 RMK SN2NS6 SN FINE SLP991=
CYOW;2006-12-26 14:26;SPECI CYOW 261426Z 02006KT 1SM -SN BR OVC003 00/ RMK SN3NS5 SN FINE=
CYOW;2006-12-26 15:00;METAR CYOW 261500Z 01006KT 1SM -SN BR OVC003 00/M01 A2947 RMK SN3NS5 SN=
CYOW;2006-12-26 16:00;METAR CYOW 261600Z 02006KT 3/4SM -SN OVC003 01/M01 A2945 RMK SN4NS4 /SO1/ SLP976=
CYOW;2006-12-26 17:41;SPECI CYOW 261741Z 35007KT 2SM -SN OVC006 01/ RMK SF8=
CYOW;2006-12-26 18:00;METAR CYOW 261800Z 35006KT 2SM -SN OVC007 01/M00 A2944 RMK SF8 /SO3/ SLP973=
CYOW;2006-12-26 18:12;SPECI CYOW 261812Z 34008KT 5SM -SN OVC009 01/ RMK SF8 SN FINE=
CYOW;2006-12-26 19:00;METAR CYOW 261900Z 35010KT 10SM -RA FEW010 OVC040 02/M00 A2943 RMK SF2SC6 SLP972=
CYOW;2006-12-26 19:33;SPECI CYOW 261933Z 33009KT 10SM -RA BKN010 BKN040 02/ RMK SF6SC2=
CYOW;2006-12-26 20:00;METAR CYOW 262000Z 33009KT 10SM -RA BKN010 OVC033 02/M00 A2946 RMK SF6SC2 OCNL BIOVC SLP982=
CYOW;2006-12-26 20:23;SPECI CYOW 262023Z 33012KT 10SM BKN013 OVC040 02/ RMK SF6SC2 OCNL BINOVC=
CYOW;2006-12-26 20:43;SPECI CYOW 262043Z 34011KT 12SM SCT017 OVC050 01/ RMK SF3SC5=
CYOW;2006-12-26 21:00;METAR CYOW 262100Z 33011KT 12SM BKN017 OVC050 01/M01 A2951 RMK SF6SC2 SLP996=
CYOW;2006-12-26 22:00;METAR CYOW 262200Z 34012KT 15SM FEW017 OVC057 01/M02 A2954 RMK SF2SC6 SLP008=
CYOW;2006-12-26 23:00;METAR CYOW 262300Z 33015KT 15SM BKN016 OVC060 01/M02 A2957 RMK SF6SC2 SLP019=
CYOW;2006-12-27 00:00;METAR CYOW 270000Z 32015KT 15SM BKN016 OVC058 00/M03 A2960 RMK SC6SC2 SLP028=
CYOW;2006-12-27 00:16;SPECI CYOW 270016Z 33015KT 15SM OVC014 M00/ RMK SC8=
CYOW;2006-12-27 01:00;METAR CYOW 270100Z 32013KT 15SM BKN015 OVC021 M01/M04 A2961 RMK SC6SC2 SLP033=
CYOW;2006-12-27 02:00;METAR CYOW 270200Z 33015G20KT 15SM OVC015 M02/M05 A2963 RMK SC8 SLP039=
CYOW;2006-12-27 03:00;METAR CYOW 270300Z 33014KT 15SM OVC015 M02/M06 A2966 RMK SC8 SLP050=
CYOW;2006-12-27 04:00;METAR CYOW 270400Z 33015G20KT 15SM OVC017 M03/M07 A2968 RMK SC8 SLP058=
CYOW;2006-12-27 05:00;METAR CYOW 270500Z 33014KT 15SM OVC017 M04/M08 A2970 RMK SC8 SLP063=
CYOW;2006-12-27 06:00;METAR CYOW 270600Z 34011G16KT 15SM OVC018 M05/M09 A2971 RMK SC8 SLP065=
CYOW;2006-12-27 07:00;METAR CYOW 270700Z 32012KT 15SM BKN018 M06/M10 A2972 RMK SC7 SLP071=
CYOW;2006-12-27 08:00;METAR CYOW 270800Z 31009KT 15SM OVC016 M07/M11 A2974 RMK SC8 SLP077=
CYOW;2006-12-27 09:00;METAR CYOW 270900Z 32007KT 15SM BKN017 M08/M12 A2976 RMK SC6 SLP085=
CYOW;2006-12-27 10:00;METAR CYOW 271000Z 32009KT 15SM BKN017 M09/M13 A2978 RMK SC6 SLP090=
CYOW;2006-12-27 11:00;METAR CYOW 271100Z 32005KT 15SM SCT015 BKN090 M10/M13 A2979 RMK SC4AC2 SLP093=
CYOW;2006-12-27 12:00;METAR CYOW 271200Z 31007KT 15SM SCT015 M10/M14 A2981 RMK SC4 SLP101=
CYOW;2006-12-27 13:00;METAR CYOW 271300Z 30006KT 15SM SCT015 BKN100 BKN270 M10/M14 A2984 RMK SC3AC2CI1 SLP112=
CYOW;2006-12-27 15:00;METAR CYOW 271500Z 31005KT 15SM FEW012 FEW018 SCT100 BKN150 BKN270 M09/M13 A2987 RMK CF1SC2AC2AC2CI1 VIRGA NW SLP122=
CYOW;2006-12-27 15:50;SPECI CYOW 271550Z 28007KT 15SM -SHSN BKN019 BKN150 M09/ RMK SC6AC1 CU ASOCTD=
CYOW;2006-12-27 16:00;METAR CYOW 271600Z 28008KT 15SM -SHSN BKN019 BKN150 M09/M13 A2988 RMK SC6AC1 CU ASOCTD SLP124=
CYOW;2006-12-27 16:47;SPECI CYOW 271647Z 27008KT 15SM BKN019 BKN150 BKN270 M08/ RMK SC5AC2CI1 CU ASOCTD=
CYOW;2006-12-27 17:00;METAR CYOW 271700Z 29011KT 15SM SCT019 BKN150 BKN270 M08/M13 A2987 RMK SC4AC2CI1 SLP122=
CYOW;2006-12-27 18:00;METAR CYOW 271800Z 30010KT 15SM SCT021 BKN150 BKN270 M08/M13 A2986 RMK SC4AC1CI1 CU ASOCTD SLP120=
CYOW;2006-12-27 18:35;SPECI CYOW 271835Z 27011KT 15SM -SHSN BKN022 M08/ RMK SC7 CU ASOCTD=
CYOW;2006-12-27 19:00;METAR CYOW 271900Z 26009KT 14SM -SHSN BKN022 M07/M12 A2988 RMK SC7 CU ASOCTD SLP126=
CYOW;2006-12-27 20:00;METAR CYOW 272000Z 26011KT 15SM -SHSN BKN023 OVC100 M07/M12 A2991 RMK SC6AC2 CU ASOCTD SLP134=
CYOW;2006-12-27 20:31;SPECI CYOW 272031Z 27010KT 15SM BKN024 BKN100 OVC250 08/ RMK SC6AC1CI1 CU ASOCTD=
CYOW;2006-12-27 21:00;METAR CYOW 272100Z 28009KT 15SM SCT025 BKN100 BKN250 M07/M13 A2994 RMK SC4AC1CI1 SLP145=
CYOW;2006-12-27 22:00;METAR CYOW 272200Z 28008KT 15SM FEW025 BKN110 BKN250 M08/M13 A2996 RMK SC2AC2CI2 SLP155=
CYOW;2006-12-27 23:00;METAR CYOW 272300Z 28005KT 15SM FEW025 SCT100 BKN180 M08/M13 A2999 RMK SC1AC2AC2 SLP163=
CYOW;2006-12-28 00:00;METAR CYOW 280000Z 28004KT 15SM FEW180 M09/M13 A3001 RMK AC1 SLP171=
CYOW;2006-12-28 01:00;METAR CYOW 280100Z 22004KT 15SM FEW180 M09/M13 A3003 RMK AC1 SLP177=
CYOW;2006-12-28 02:00;METAR CYOW 280200Z 20002KT 15SM FEW048 OVC058 M09/M12 A3004 RMK SC2SC2 SLP182=
CYOW;2006-12-28 02:09;SPECI CYOW 280209Z 00000KT 15SM -SN FEW047 SCT055 M09/ RMK SC2SC0=
CYOW;2006-12-28 03:00;METAR CYOW 280300Z 33004KT 12SM -SN BKN031 M09/M12 A3006 RMK SC7 SLP187=
CYOW;2006-12-28 03:18;SPECI CYOW 280318Z 34002KT 15SM FEW030 SCT045 M09/ RMK SC2SC2=
CYOW;2006-12-28 04:00;METAR CYOW 280400Z 00000KT 15SM FEW030 FEW040 M09/M12 A3006 RMK SC1SC1 SLP188=
CYOW;2006-12-28 05:00;METAR CYOW 280500Z 00000KT 15SM OVC100 M08/M12 A3007 RMK AC8 SLP190=
CYOW;2006-12-28 06:00;METAR CYOW 280600Z 15002KT 15SM -SN OVC060 M08/M11 A3008 RMK SC8 SLP195=
CYOW;2006-12-28 07:00;METAR CYOW 280700Z 11005KT 7SM -SN OVC049 M08/M11 A3007 RMK SC8 SLP191=
CYOW;2006-12-28 07:43;SPECI CYOW 280743Z 09006KT 1 1/4SM -SN VV008 M08/ RMK SN8=
CYOW;2006-12-28 08:00;METAR CYOW 280800Z 09005KT 3/4SM R07/6000FT/D R32/6000FT/D -SN VV006 M08/M10 A3008 RMK SN8 SLP195=
CYOW;2006-12-28 08:13;SPECI CYOW 280813Z 08004KT 1 1/2SM -SN OVC018 M08/ RMK SC8=
CYOW;2006-12-28 08:26;SPECI CYOW 280826Z 08005KT 3SM -SN OVC017 M08/ RMK SC8=
CYOW;2006-12-28 09:00;METAR CYOW 280900Z 09007KT 4SM -SN OVC017 M08/M10 A3009 RMK SC8 /S01/ SLP199=
CYOW;2006-12-28 10:00;METAR CYOW 281000Z 09005KT 7SM -SN OVC016 M07/M10 A3012 RMK SC8 SLP209=
CYOW;2006-12-28 10:38;SPECI CYOW 281038Z 05004KT 15SM BKN016 OVC030 M07/ RMK SC6SC2=
CYOW;2006-12-28 11:00;METAR CYOW 281100Z 05004KT 15SM FEW013 OVC025 M07/M10 A3016 RMK CF2SC6 SLP222=
CYOW;2006-12-28 12:00;METAR CYOW 281200Z 04004KT 15SM FEW011 OVC027 M07/M10 A3020 RMK SC2SC6 SLP235=
CYOW;2006-12-28 12:32;SPECI CYOW 281232Z 03004KT 12SM BKN014 OVC025 M07/ RMK SC6SC2=
CYOW;2006-12-28 13:00;METAR CYOW 281300Z 04003KT 12SM BKN014 OVC025 M07/M10 A3024 RMK SC6SC2 SLP250=
CYOW;2006-12-28 13:19;SPECI CYOW 281319Z 02002KT 15SM SCT009 OVC014 M07/ RMK SC3SC5=
CYOW;2006-12-28 13:32;SPECI CYOW 281332Z 01002KT 12SM -SN BKN009 OVC014 M07/ RMK SC6SC2=
CYOW;2006-12-28 14:00;METAR CYOW 281400Z 01002KT 10SM -SN BKN009 OVC014 M07/M09 A3029 RMK SC5SC3 SLP267=
CYOW;2006-12-28 14:40;SPECI CYOW 281440Z 33002KT 12SM -SN SCT010 OVC016 M06/ RMK SC4SC4=
CYOW;2006-12-28 15:00;METAR CYOW 281500Z 00000KT 12SM -SN FEW010 OVC016 M06/M09 A3032 RMK SC2SC6 SLP277=
CYOW;2006-12-28 15:46;SPECI CYOW 281546Z 34005KT 15SM BKN015 BKN031 M06/ RMK SC6SC2=
CYOW;2006-12-28 16:00;METAR CYOW 281600Z 32003KT 15SM BKN015 BKN031 M06/M09 A3034 RMK SC5SC2 SLP282=
CYOW;2006-12-28 17:00;METAR CYOW 281700Z 30004KT 15SM BKN015 M06/M10 A3034 RMK SC6 CU ASOCTD SLP282=
CYOW;2006-12-28 18:00;METAR CYOW 281800Z 30004KT 15SM FEW015 SCT280 M05/M09 A3034 RMK SC2CI0 CU ASOCTD SLP282=
CYOW;2006-12-28 19:00;METAR CYOW 281900Z 35003KT 15SM FEW018 FEW280 M04/M09 A3035 RMK SC1CI0 SLP286=
CYOW;2006-12-28 20:00;METAR CYOW 282000Z 28006KT 15SM FEW020 FEW280 M04/M10 A3037 RMK SC1CI0 SLP294=
CYOW;2006-12-28 21:00;METAR CYOW 282100Z 30006KT 15SM FEW023 FEW280 M05/M10 A3040 RMK SC1CI0 SLP303=
CYOW;2006-12-28 22:00;METAR CYOW 282200Z 35006KT 15SM FEW025 FEW280 M06/M11 A3044 RMK SC1CI0 SLP316=
CYOW;2006-12-28 23:00;METAR CYOW 282300Z 33002KT 15SM FEW280 M08/M12 A3046 RMK CI0 SLP324=
CYOW;2006-12-29 00:00;METAR CYOW 290000Z 01005KT 15SM SKC M07/M12 A3048 RMK SLP331=
CYOW;2006-12-29 01:00;METAR CYOW 290100Z 36007KT 15SM SKC M08/M12 A3051 RMK SLP339=
CYOW;2006-12-29 02:00;METAR CYOW 290200Z 36006KT 15SM SKC M08/M13 A3053 RMK SLP346=
CYOW;2006-12-29 03:00;METAR CYOW 290300Z 34005KT 15SM FEW240 M10/M14 A3056 RMK CI0 SLP357=
CYOW;2006-12-29 04:00;METAR CYOW 290400Z 34006KT 15SM SCT230 M10/M14 A3058 RMK CI0 SLP364=
CYOW;2006-12-29 05:00;METAR CYOW 290500Z 36008KT 15SM FEW240 M10/M15 A3059 RMK CI0 SLP366=
CYOW;2006-12-29 06:00;METAR CYOW 290600Z 01007KT 15SM BKN220 M11/M15 A3061 RMK CI5 SLP375=
CYOW;2006-12-29 07:00;METAR CYOW 290700Z 36005KT 15SM FEW210 M12/M16 A3065 RMK CI2 SLP387=
CYOW;2006-12-29 08:00;METAR CYOW 290800Z 02008KT 15SM FEW240 M12/M18 A3067 RMK CI0 SLP395=
CYOW;2006-12-29 09:00;METAR CYOW 290900Z 36005KT 15SM SKC M13/M18 A3070 RMK SLP406=
CYOW;2006-12-29 10:00;METAR CYOW 291000Z 36006KT 15SM SKC M13/M18 A3071 RMK SLP410=
CYOW;2006-12-29 11:00;METAR CYOW 291100Z 01006KT 15SM SKC M13/M18 A3073 RMK SLP416=
CYOW;2006-12-29 12:00;METAR CYOW 291200Z 01005KT 15SM FEW120 M14/M18 A3076 RMK AC1 SLP425=
CYOW;2006-12-29 13:00;METAR CYOW 291300Z 03006KT 15SM FEW120 FEW220 M14/M18 A3077 RMK AC1CI0 SLP429=
CYOW;2006-12-29 14:00;METAR CYOW 291400Z 03004KT 15SM FEW220 M13/M18 A3079 RMK CI1 SLP437=
CYOW;2006-12-29 15:00;METAR CYOW 291500Z 05005KT 15SM FEW220 M12/M18 A3082 RMK CI1 SLP446=
CYOW;2006-12-29 16:00;METAR CYOW 291600Z 07004KT 15SM FEW220 M11/M17 A3081 RMK CI1 SLP443=
CYOW;2006-12-29 17:00;METAR CYOW 291700Z 11003KT 15SM FEW220 M10/M17 A3078 RMK CI1 SLP435=
CYOW;2006-12-29 18:00;METAR CYOW 291800Z 14002KT 15SM SCT240 M08/M18 A3077 RMK CI2 SLP430=
CYOW;2006-12-29 19:00;METAR CYOW 291900Z 10002KT 14SM FEW140 SCT240 M09/M18 A3075 RMK AC1CI2 SLP424=
CYOW;2006-12-29 20:00;METAR CYOW 292000Z 00000KT 15SM FEW140 FEW240 M09/M18 A3076 RMK AC1CI1 SLP427=
CYOW;2006-12-29 21:00;METAR CYOW 292100Z 08004KT 15SM FEW140 SCT240 M09/M18 A3076 RMK AC1CI2 SLP428=
CYOW;2006-12-29 22:00;METAR CYOW 292200Z 10003KT 15SM FEW140 SCT240 M10/M18 A3076 RMK AC2CI1 SLP425=
CYOW;2006-12-29 23:00;METAR CYOW 292300Z 08003KT 15SM BKN180 M11/M18 A3074 RMK AS5 SLP420=
CYOW;2006-12-30 00:00;METAR CYOW 300000Z 00000KT 15SM OVC180 M10/M18 A3073 RMK AS6 SLP418=
CYOW;2006-12-30 01:00;METAR CYOW 300100Z 06003KT 12SM OVC140 M10/M17 A3072 RMK AS8 SLP415=
CYOW;2006-12-30 02:00;METAR CYOW 300200Z 08004KT 12SM OVC120 M10/M17 A3071 RMK AS7 SLP409=
CYOW;2006-12-30 03:00;METAR CYOW 300300Z 09005KT 15SM OVC100 M10/M16 A3067 RMK AS8 SLP396=
CYOW;2006-12-30 04:00;METAR CYOW 300400Z 09003KT 15SM OVC090 M10/M16 A3066 RMK AS8 MOON VISBL SLP393=
CYOW;2006-12-30 05:00;METAR CYOW 300500Z 08005KT 15SM OVC100 M10/M16 A3063 RMK AS8 MOON VISBL SLP382=
CYOW;2006-12-30 06:00;METAR CYOW 300600Z 07004KT 15SM OVC080 M10/M16 A3060 RMK AS8 MOON VISBL SLP371=
CYOW;2006-12-30 07:00;METAR CYOW 300700Z 06004KT 15SM OVC080 M10/M16 A3057 RMK AS8 SLP363=
CYOW;2006-12-30 08:00;METAR CYOW 300800Z 05005KT 15SM OVC070 M09/M15 A3054 RMK AS8 SLP352=
CYOW;2006-12-30 09:00;METAR CYOW 300900Z 07005KT 15SM OVC041 M09/M15 A3051 RMK ST8 SLP342=
CYOW;2006-12-30 10:00;METAR CYOW 301000Z 05008KT 15SM -SN OVC028 M09/M14 A3047 RMK NS8 VRY LGT SN SLP328=
CYOW;2006-12-30 10:34;SPECI CYOW 301034Z 05005KT 1 1/2SM -SN VV009 M09/ RMK SN8=
CYOW;2006-12-30 11:00;METAR CYOW 301100Z 03006KT 1 1/2SM -SN VV010 M09/M12 A3046 RMK SN8 SLP324=
CYOW;2006-12-30 11:42;SPECI CYOW 301142Z 02008KT 1SM -SN VV007 M09/ RMK SN8=
CYOW;2006-12-30 12:00;METAR CYOW 301200Z 03006KT 1SM -SN VV008 M09/M11 A3045 RMK SN8 SLP320=
CYOW;2006-12-30 13:00;METAR CYOW 301300Z 01006KT 1/2SM R07/6000FT/N R32/6000FT/D SN VV006 M09/M11 A3044 RMK SN8 SLP318=
CYOW;2006-12-30 14:00;METAR CYOW 301400Z 01004KT 1/2SM R32/6000FT/U SN VV006 M09/M11 A3044 RMK SN8 SLP318=
CYOW;2006-12-30 14:37;SPECI CYOW 301437Z 01003KT 3/4SM R32/6000FT/N -SN VV008 M08/ RMK SN8=
CYOW;2006-12-30 16:00;METAR CYOW 301600Z 35003KT 2SM -SN FEW010 OVC028 M08/M10 A3042 RMK SF2SC6 SLP311=
CYOW;2006-12-30 16:30;SPECI CYOW 301630Z 30002KT 10SM FEW010 SCT030 BKN060 M07/ RMK SF1CF2SC4=
CYOW;2006-12-30 17:00;METAR CYOW 301700Z 32003KT 12SM FEW030 BKN140 M07/M10 A3038 RMK CF2AC5 SLP298=
CYOW;2006-12-30 18:00;METAR CYOW 301800Z 25004KT 15SM FEW030 BKN120 M07/M10 A3038 RMK CF2AC5 /SO5/ SLP295=
CYOW;2006-12-30 19:00;METAR CYOW 301900Z 27007KT 15SM FEW030 FEW120 M06/M10 A3036 RMK CF1AC2 SLP288=
CYOW;2006-12-30 21:00;METAR CYOW 302100Z 25005KT 15SM FEW090 M05/M10 A3038 RMK AC2 SLP295=
CYOW;2006-12-30 22:00;METAR CYOW 302200Z 27005KT 15SM FEW090 M07/M10 A3039 RMK AC1 SLP300=
CYOW;2006-12-30 23:00;METAR CYOW 302300Z 26008KT 15SM SKC M07/M10 A3041 RMK SLP306=
CYOW;2006-12-31 00:00;METAR CYOW 310000Z 26007KT 15SM SKC M08/M10 A3042 RMK SLP311=
CYOW;2006-12-31 01:00;METAR CYOW 310100Z 25007KT 15SM SKC M07/M10 A3044 RMK SLP318=
CYOW;2006-12-31 02:00;METAR CYOW 310200Z 25005KT 15SM SKC M07/M09 A3045 RMK SLP322=
CYOW;2006-12-31 03:00;METAR CYOW 310300Z 24004KT 15SM FEW100 M08/M10 A3045 RMK AC1 FROIN SLP320=
CYOW;2006-12-31 04:00;METAR CYOW 310400Z 24006KT 15SM SKC M08/M10 A3044 RMK SLP318=
CYOW;2006-12-31 06:00;METAR CYOW 310600Z 23002KT 15SM FEW021 M10/M10 A3042 RMK SC2 FROIN SLP311=
CYOW;2006-12-31 07:00;METAR CYOW 310700Z 26004KT 15SM FEW021 M09/M11 A3043 RMK SC1 SLP315=
CYOW;2006-12-31 08:00;METAR CYOW 310800Z 24005KT 15SM FEW021 M08/M10 A3045 RMK SC1 SC TR FROIN SLP320=
CYOW;2006-12-31 10:00;METAR CYOW 311000Z 24004KT 15SM BKN021 M07/M09 A3044 RMK SC6 FROIN SLP316=
CYOW;2006-12-31 11:00;METAR CYOW 311100Z 00000KT 15SM FEW021 M09/M10 A3044 RMK SC2 FROIN SLP317=
CYOW;2006-12-31 12:00;METAR CYOW 311200Z 20004KT 15SM SCT020 M08/M11 A3045 RMK SC3 SLP321=
CYOW;2006-12-31 13:00;METAR CYOW 311300Z 19003KT 15SM MIFG SCT180 M08/M10 A3045 RMK AC2 SHALLOW FOG OVR RWYS SLP322=
CYOW;2006-12-31 14:00;METAR CYOW 311400Z 21004KT 15SM FEW050 FEW090 BKN280 M07/M09 A3048 RMK SC2AC1CI1 SLP329=
CYOW;2006-12-31 15:00;METAR CYOW 311500Z 23003KT 15SM FEW050 BKN280 M06/M07 A3047 RMK SC1CI2 SLP326=
CYOW;2006-12-31 16:00;METAR CYOW 311600Z 00000KT 15SM FEW020 BKN280 M04/M06 A3043 RMK CU1CI2 SLP313=
CYOW;2006-12-31 17:00;METAR CYOW 311700Z 17004KT 15SM BKN022 BKN280 M04/M06 A3041 RMK SC5CI2 CU ASOCTD SLP306=
CYOW;2006-12-31 18:00;METAR CYOW 311800Z 14003KT 15SM FEW010 BKN022 OVC280 M02/M06 A3040 RMK CF1SC6CS1 SLP303=
CYOW;2006-12-31 19:00;METAR CYOW 311900Z 11006KT 15SM OVC020 M02/M06 A3039 RMK SC8 SLP299=
CYOW;2006-12-31 20:00;METAR CYOW 312000Z 12004KT 15SM OVC017 M02/M06 A3036 RMK SC8 SLP289=
CYOW;2006-12-31 22:00;METAR CYOW 312200Z 08005KT 15SM BKN280 M05/M08 A3028 RMK CI2 SLP260=
