CYQB;2008-01-01 01:00;CYQB 010100Z 22009KT 15SM SCT110 M08/M12 A2998 RMK AC2 SLP158

CYQB;2008-01-01 02:00;CYQB 010200Z 24009KT 15SM BKN048 BKN130 M09/M13 A3002 RMK SC5AC1 SLP171

CYQB;2008-01-01 03:00;CYQB 010300Z 23002KT 15SM -SHSN BKN050 OVC130 M09/M13 A3003 RMK SC6AC2 SLP174

CYQB;2008-01-01 04:00;CYQB 010400Z 00000KT 10SM -SHSN OVC044 M10/M13 A3003 RMK SC8 SLP173

CYQB;2008-01-01 05:00;CYQB 010500Z 00000KT 10SM -SHSN SCT008 OVC044 M09/M13 A3002 RMK SC4SC4 SLP170

CYQB;2008-01-01 06:00;CYQB 010600Z 00000KT 10SM -SHSN OVC008 M09/M12 A3002 RMK SC8 SLP170

CYQB;2008-01-01 07:00;CYQB 010700Z 24002KT 8SM -SHSN OVC008 M08/M11 A3004 RMK SC8 SLP177

CYQB;2008-01-01 07:43;CYQB 010743Z CCA 27008KT 8SM -SHSN OVC005 M07/ RMK ST8

CYQB;2008-01-01 08:00;CYQB 010800Z 27009KT 6SM -SHSN SCT005 OVC010 M07/M09 A3004 RMK ST4SC4 SLP178

CYQB;2008-01-01 09:00;CYQB 010900Z 26015KT 8SM -SHSN BKN004 OVC010 M06/M08 A3004 RMK SF5SC3 SLP177

CYQB;2008-01-01 09:36;CYQB 010936Z 26012KT 4SM -SN BR OVC003 M07/ RMK ST8

CYQB;2008-01-01 10:00;CYQB 011000Z 26013KT 3SM -SN BR OVC003 M07/M09 A3005 RMK ST8 SLP181

CYQB;2008-01-01 11:00;CYQB 011100Z 26010KT 6SM BR OVC004 M08/M10 A3007 RMK ST8 SLP188

CYQB;2008-01-01 12:00;CYQB 011200Z 24011KT 4SM BR OVC002 M08/M10 A3008 RMK ST8 SLP190

CYQB;2008-01-01 12:16;CYQB 011216Z 25009KT 4SM BR OVC004 M08/ RMK ST8

CYQB;2008-01-01 13:00;CYQB 011300Z 28004KT 5/8SM R06/P6000FT/N BR OVC002 M08/M10 A3008 RMK FG5SF3 SLP191

CYQB;2008-01-01 13:21;CYQB 011321Z CCA 36002KT 1/2SM R06/P6000FT/N FZFG OVC002 RMK FG6SF2

CYQB;2008-01-01 14:00;CYQB 011400Z 06003KT 1 1/2SM BR BKN003 M09/M11 A3007 RMK SF7 VIS NW-NE 7 SLP189

CYQB;2008-01-01 15:00;CYQB 011500Z 36003KT 2SM BR OVC003 M09/M11 A3007 RMK ST8 VIS NE 6 SLP187

CYQB;2008-01-01 16:00;CYQB 011600Z 01004KT 2 1/4SM BR OVC005 M08/M10 A3002 RMK ST8 SLP172

CYQB;2008-01-01 16:22;CYQB 011622Z 05005KT 1 1/4SM BR OVC004 M07/ RMK ST8

CYQB;2008-01-01 17:00;CYQB 011700Z 07004KT 1 3/4SM BR OVC004 M07/M09 A3000 RMK ST8 SUN DIMLY VIS SLP165

CYQB;2008-01-01 17:34;CYQB 011734Z 03004KT 8SM FEW004 SCT020 BKN100 M07/ RMK SF1SC2AC2 VIS LWR S

CYQB;2008-01-01 18:00;CYQB 011800Z 03005KT 12SM FEW025 SCT100 OVC200 M07/M09 A2997 RMK SC1AC2CS2 SLP154

CYQB;2008-01-01 19:00;CYQB 011900Z 06006KT 20SM OVC090 M05/M09 A2994 RMK AS8 VIS LWR S SLP144

CYQB;2008-01-01 20:00;CYQB 012000Z 07004KT 25SM OVC060 M05/M10 A2992 RMK NS8 VIS LWR SW SLP139

CYQB;2008-01-01 21:00;CYQB 012100Z 06010KT 20SM VCSH FEW020 OVC060 M05/M10 A2992 RMK SC1NS7 VIS LWR W SLP136

CYQB;2008-01-01 22:00;CYQB 012200Z 06011KT 15SM FEW020 OVC050 M05/M09 A2990 RMK SC2NS6 VIS LWR SW VIRGA SLP130

CYQB;2008-01-01 22:45;CYQB 012245Z 07011KT 15SM -SN FEW020 OVC039 M05/ RMK SC2NS6

CYQB;2008-01-01 23:00;CYQB 012300Z 07012KT 2 1/2SM -SN VV012 M05/M08 A2989 RMK SN8 SLP126

CYQB;2008-01-01 23:17;CYQB 012317Z 07010KT 1 1/2SM -SN VV009 M05/ RMK SN8

CYQB;2008-01-02 00:00;CYQB 020000Z 07011KT 1 1/2SM -SN VV008 M05/M08 A2987 RMK SN8 SLP119

CYQB;2008-01-02 01:00;CYQB 020100Z 07014KT 1 1/4SM -SN DRSN VV009 M06/M08 A2985 RMK SN8 SLP113

CYQB;2008-01-02 01:31;CYQB 020131Z 07013KT 2SM -SN DRSN VV015 M06/ RMK SN8

CYQB;2008-01-02 02:00;CYQB 020200Z CCA 07015G20KT 4SM -SN DRSN BKN021 OVC044 M06/M09 A2983 RMK SC6SC2 /S01/ SLP106

CYQB;2008-01-02 03:00;CYQB 020300Z 07013G24KT 10SM -SN FEW021 OVC049 M06/M09 A2981 RMK SC2SC6 SLP098

CYQB;2008-01-02 04:00;CYQB 020400Z 07017G24KT 4SM -SN FEW008 FEW020 OVC041 M06/M10 A2978 RMK ST1SC2SC6 SLP090

CYQB;2008-01-02 05:00;CYQB 020500Z 07015G20KT 10SM FEW008 BKN022 OVC057 M07/M11 A2977 RMK ST1SC6SC1 SLP086

CYQB;2008-01-02 06:00;CYQB 020600Z 08013G20KT 15SM FEW020 OVC065 M08/M12 A2976 RMK SC2SC6 SLP084

CYQB;2008-01-02 07:00;CYQB 020700Z 07012G19KT 10SM FEW028 SCT039 OVC062 M08/M13 A2977 RMK SC1SC3SC4 SLP087

CYQB;2008-01-02 08:00;CYQB 020800Z 07007KT 10SM BKN039 OVC076 M08/M14 A2978 RMK SC6AC2 SLP091

CYQB;2008-01-02 09:00;CYQB 020900Z 02005KT 10SM FEW028 OVC044 M09/M14 A2979 RMK SC2SC6 SLP094

CYQB;2008-01-02 10:00;CYQB 021000Z 00000KT 10SM BKN026 OVC044 M09/M14 A2982 RMK SC6SC2 SLP102

CYQB;2008-01-02 10:45;CYQB 021045Z 36004KT 8SM -SHSN BKN026 OVC073 M10/ RMK SC6AC2

CYQB;2008-01-02 11:00;CYQB 021100Z 01005KT 8SM -SN FEW026 FEW073 OVC095 M10/M15 A2984 RMK SC1AC2AS6 SLP111

CYQB;2008-01-02 12:00;CYQB 021200Z 33010KT 15SM -SHSN FEW070 BKN120 OVC190 M11/M18 A2986 RMK AC2AC3CI1 SLP116

CYQB;2008-01-02 12:53;CYQB 021253Z 35009KT 15SM FEW070 SCT140 BKN210 M12/ RMK AC2AC2CI1

CYQB;2008-01-02 13:00;CYQB 021300Z 35009KT 15SM FEW070 SCT140 BKN210 M12/M19 A2987 RMK AC2AC2CI1 SLP121

CYQB;2008-01-02 14:00;CYQB 021400Z 36013KT 15SM FEW140 SCT210 M13/M23 A2989 RMK AC2CI2 SLP127

CYQB;2008-01-02 15:00;CYQB 021500Z 35015G20KT 15SM FEW140 BKN210 M13/M22 A2991 RMK AC1CI0 SLP135

CYQB;2008-01-02 16:00;CYQB 021600Z 35012KT 15SM FEW210 M13/M23 A2992 RMK CI1 SLP139

CYQB;2008-01-02 17:00;CYQB 021700Z 33013KT 15SM FEW210 M12/M23 A2992 RMK CI1 SLP139

CYQB;2008-01-02 18:00;CYQB 021800Z 34013KT 14SM SKC M12/M22 A2993 RMK SLP142

CYQB;2008-01-02 19:00;CYQB 021900Z 32013G18KT 30SM FEW050 M13/M23 A2996 RMK SC1 SLP152

CYQB;2008-01-02 20:00;CYQB 022000Z 30010KT 30SM FEW050 M14/M24 A3002 RMK SC1 SLP170

CYQB;2008-01-02 21:00;CYQB 022100Z 31014KT 30SM FEW070 M16/M25 A3006 RMK AC1 SLP187

CYQB;2008-01-02 22:00;CYQB 022200Z 30009KT 15SM SKC M17/M26 A3012 RMK SLP206

CYQB;2008-01-02 23:00;CYQB 022300Z 31009KT 15SM FEW200 M18/M26 A3017 RMK CI0 SLP223

CYQB;2008-01-03 00:00;CYQB 030000Z 31007KT 15SM FEW070 BKN130 M18/M26 A3019 RMK AC1AC2 SLP231

CYQB;2008-01-03 01:00;CYQB 030100Z 30011KT 15SM FEW070 BKN120 M18/M26 A3020 RMK AC1AC2 SLP234

CYQB;2008-01-03 02:00;CYQB 030200Z 31004KT 15SM BKN110 M17/M26 A3023 RMK AC6 SLP245

CYQB;2008-01-03 03:00;CYQB 030300Z 29009KT 15SM OVC120 M19/M27 A3026 RMK AC8 SLP253

CYQB;2008-01-03 04:00;CYQB 030400Z 29006KT 15SM BKN110 M20/M28 A3027 RMK AC2 SLP258

CYQB;2008-01-03 05:00;CYQB 030500Z 31008KT 15SM SCT110 M20/M28 A3029 RMK AC2 SLP263

CYQB;2008-01-03 06:00;CYQB 030600Z 30006KT 15SM SKC M21/M29 A3030 RMK SLP269

CYQB;2008-01-03 07:00;CYQB 030700Z 27008KT 15SM FEW210 M22/M29 A3033 RMK CI1 SLP278

CYQB;2008-01-03 08:00;CYQB 030800Z 28008KT 15SM FEW210 M25/M31 A3036 RMK CI0 SLP288

CYQB;2008-01-03 09:00;CYQB 030900Z 28008KT 15SM SKC M24/M31 A3039 RMK SLP301

CYQB;2008-01-03 10:00;CYQB 031000Z 30010KT 15SM SKC M22/M30 A3040 RMK SLP303

CYQB;2008-01-03 11:00;CYQB 031100Z 31008KT 15SM SKC M22/M30 A3042 RMK SLP311

CYQB;2008-01-03 12:00;CYQB 031200Z 29006KT 25SM FEW200 M25/M32 A3045 RMK CI0 SLP321

CYQB;2008-01-03 13:00;CYQB 031300Z 30005KT 25SM SKC M25/M32 A3049 RMK SLP332

CYQB;2008-01-03 14:00;CYQB 031400Z 32007KT 25SM SKC M21/M30 A3052 RMK SLP342

CYQB;2008-01-03 15:00;CYQB 031500Z 25004KT 25SM SKC M20/M29 A3055 RMK SLP354

CYQB;2008-01-03 16:00;CYQB 031600Z 24010KT 25SM SKC M19/M28 A3054 RMK SLP351

CYQB;2008-01-03 17:00;CYQB 031700Z 25011KT 25SM SKC M18/M27 A3055 RMK SLP353

CYQB;2008-01-03 18:00;CYQB 031800Z 23012KT 25SM SKC M17/M27 A3053 RMK SLP348

CYQB;2008-01-03 19:00;CYQB 031900Z 24013KT 25SM SKC M17/M26 A3054 RMK SLP349

CYQB;2008-01-03 20:00;CYQB 032000Z 24012KT 25SM FEW030 M17/M26 A3055 RMK CF1 SLP354

CYQB;2008-01-03 21:00;CYQB 032100Z 23014KT 25SM FEW220 M18/M26 A3055 RMK CI1 SLP356

CYQB;2008-01-03 22:00;CYQB 032200Z 25013KT 25SM FEW220 M19/M26 A3056 RMK CI0 SLP358

CYQB;2008-01-03 23:00;CYQB 032300Z 25008G15KT 15SM FEW220 M20/M26 A3059 RMK CI0 SLP367

CYQB;2008-01-04 00:00;CYQB 040000Z 25010KT 15SM FEW220 M21/M27 A3058 RMK CI0 SLP364

CYQB;2008-01-04 01:00;CYQB 040100Z 26011KT 15SM FEW220 M22/M28 A3058 RMK CI1 SLP363

CYQB;2008-01-04 02:00;CYQB 040200Z 24003KT 15SM BKN150 M22/M28 A3056 RMK AS2 SLP357

CYQB;2008-01-04 03:00;CYQB 040300Z 27005KT 15SM BKN150 M22/M27 A3054 RMK AS4 SLP351

CYQB;2008-01-04 04:00;CYQB 040400Z CCA 26006KT 15SM BKN170 OVC210 M21/M26 A3052 RMK AS4CS2 SLP343

CYQB;2008-01-04 05:00;CYQB 040500Z 27002KT 15SM OVC100 M21/M26 A3047 RMK AS7 SLP328

CYQB;2008-01-04 05:16;CYQB 040516Z 31003KT 15SM -SN OVC100 M21/ RMK AS7

CYQB;2008-01-04 06:00;CYQB 040600Z 33004KT 15SM -SN OVC061 M20/M25 A3044 RMK SC8 SLP316

CYQB;2008-01-04 06:31;CYQB 040631Z 33002KT 2 1/2SM -SN OVC021 M20/ RMK SC8

CYQB;2008-01-04 07:00;CYQB 040700Z 00000KT 1 1/4SM -SN VV018 M20/M25 A3041 RMK SN8 SLP306

CYQB;2008-01-04 08:00;CYQB 040800Z CCA 05003KT 2 1/4SM -SN OVC030 M20/M25 A3037 RMK SN6SC2 /S01/ SLP292

CYQB;2008-01-04 09:00;CYQB 040900Z 01002KT 2SM -SN OVC025 M19/M24 A3032 RMK SN2SC6 /S02/ SLP276

CYQB;2008-01-04 10:00;CYQB 041000Z 35004KT 2 1/4SM -SN OVC030 M19/M24 A3028 RMK SN2SC6 SLP263

CYQB;2008-01-04 10:36;CYQB 041036Z 34004KT 2SM -SN VV014 M18/ RMK SN8

CYQB;2008-01-04 11:00;CYQB 041100Z 32002KT 2SM -SN VV015 M18/M23 A3026 RMK SN8 /S03/ SLP256

CYQB;2008-01-04 11:28;CYQB 041128Z 28002KT 3SM -SN VV015 M18/ RMK SN8

CYQB;2008-01-04 12:00;CYQB 041200Z 00000KT 2 1/2SM -SN VV013 M18/M22 A3025 RMK SN8 /S04/ SLP252

CYQB;2008-01-04 12:35;CYQB 041235Z 26005KT 5SM -SN BKN018 OVC040 M16/ RMK SC5SC3

CYQB;2008-01-04 13:00;CYQB 041300Z 25003KT 5SM -SN BKN018 OVC038 M16/M21 A3025 RMK SC6SC2 SLP251

CYQB;2008-01-04 14:00;CYQB 041400Z 27007KT 2SM -SN OVC016 M15/M20 A3024 RMK SC8 SLP248

CYQB;2008-01-04 14:40;CYQB 041440Z 27009KT 1 3/4SM -SN OVC015 M14/ RMK SN2SC6

CYQB;2008-01-04 15:00;CYQB 041500Z 26007KT 1 3/4SM -SN OVC015 M14/M18 A3024 RMK SN2SC6 SLP249

CYQB;2008-01-04 16:00;CYQB 041600Z 27009KT 1 3/4SM -SN OVC014 M13/M17 A3023 RMK SN2SC6 SLP244

CYQB;2008-01-04 16:22;CYQB 041622Z 26010KT 2 1/2SM -SN OVC013 M12/ RMK SN1SC7

CYQB;2008-01-04 16:50;CYQB 041650Z 26011KT 4SM -SN OVC012 M12/ RMK SC8

CYQB;2008-01-04 17:00;CYQB 041700Z 26010KT 4SM -SN OVC012 M12/M15 A3021 RMK SC8 SLP238

CYQB;2008-01-04 17:27;CYQB 041727Z 26011KT 3SM -SN OVC016 M11/ RMK SC8 /S01/

CYQB;2008-01-04 18:00;CYQB 041800Z 27013KT 4SM -SN OVC014 M10/M14 A3020 RMK SC8 SLP234

CYQB;2008-01-04 18:40;CYQB 041840Z 26012KT 4SM -SN OVC011 M10/ RMK SC8

CYQB;2008-01-04 19:00;CYQB 041900Z 25011KT 5SM -SN OVC011 M10/M13 A3019 RMK SC8 SLP229

CYQB;2008-01-04 20:00;CYQB 042000Z 26014KT 10SM -SN BKN013 BKN049 M10/M13 A3018 RMK SC5SC2 SLP226

CYQB;2008-01-04 21:00;CYQB 042100Z 27015KT 10SM -SN BKN013 BKN048 M09/M11 A3019 RMK SC5SC2 SLP229

CYQB;2008-01-04 21:45;CYQB 042145Z 27016KT 6SM -SN DRSN SCT013 BKN049 M08/ RMK SC3SC4

CYQB;2008-01-04 22:00;CYQB 042200Z 27014KT 5SM -SN DRSN SCT013 OVC049 M08/M10 A3020 RMK SC4SC4 SLP234

CYQB;2008-01-04 23:00;CYQB 042300Z 27011KT 5SM -SN SCT013 OVC045 M08/M10 A3019 RMK SC4SC4 SLP232

CYQB;2008-01-05 00:00;CYQB 050000Z 28011KT 8SM -SN SCT013 OVC042 M07/M10 A3019 RMK SC3SC5 SLP231

CYQB;2008-01-05 01:00;CYQB 050100Z 26015KT 6SM -SN OVC039 M06/M09 A3020 RMK SC8 SLP232

CYQB;2008-01-05 02:00;CYQB 050200Z 26014KT 7SM -SN FEW012 OVC036 M05/M08 A3020 RMK SC1SC7 SLP233

CYQB;2008-01-05 03:00;CYQB 050300Z 26015KT 7SM -SN FEW012 OVC032 M05/M07 A3019 RMK SC1SC7 SLP229

CYQB;2008-01-05 04:00;CYQB 050400Z 26010KT 8SM -SN FEW010 OVC028 M05/M07 A3021 RMK SF1SC7 SLP236

CYQB;2008-01-05 04:53;CYQB 050453Z 26005KT 8SM SCT010 OVC027 M04/ RMK SF4SC4

CYQB;2008-01-05 05:00;CYQB 050500Z 26006KT 7SM -SN BKN011 OVC026 M04/M07 A3021 RMK SC6SC2 -SN INTMT SLP235

CYQB;2008-01-05 06:00;CYQB 050600Z 26005KT 7SM -SN SCT010 OVC027 M04/M07 A3022 RMK SF3SC5 SLP238

CYQB;2008-01-05 07:00;CYQB 050700Z CCA 26008KT 7SM -SN SCT010 OVC028 M04/M07 A3023 RMK SF3SC5 SLP243

CYQB;2008-01-05 08:00;CYQB 050800Z 26007KT 7SM -SN FEW010 OVC027 M04/M07 A3023 RMK SF2SC6 SLP242

CYQB;2008-01-05 09:00;CYQB 050900Z 26006KT 6SM -SN SCT012 OVC027 M04/M07 A3024 RMK SF3SC5 SLP244

CYQB;2008-01-05 10:00;CYQB 051000Z 25007KT 6SM -SN SCT013 OVC028 M04/M07 A3024 RMK SF3SC5 SLP244

CYQB;2008-01-05 11:00;CYQB 051100Z 27007KT 5SM -SN FEW010 OVC029 M04/M07 A3025 RMK SF2SC6 SLP247

CYQB;2008-01-05 12:00;CYQB 051200Z 27005KT 5SM -SN FEW010 OVC026 M04/M07 A3025 RMK SF1SC7 SLP248

CYQB;2008-01-05 13:00;CYQB 051300Z 27004KT 6SM -SN FEW010 OVC027 M05/M07 A3025 RMK SF1SC7 SLP250

CYQB;2008-01-05 14:00;CYQB 051400Z 25004KT 2 1/2SM -SN FEW010 OVC030 M04/M07 A3025 RMK SF2SC6 SLP248

CYQB;2008-01-05 15:00;CYQB 051500Z 26003KT 2SM -SN FEW010 OVC030 M04/M06 A3025 RMK SF2SC6 SLP248

CYQB;2008-01-05 15:43;CYQB 051543Z 25004KT 1 1/2SM -SN BKN009 OVC015 M03/ RMK SF6SC2

CYQB;2008-01-05 16:00;CYQB 051600Z 24003KT 1 1/2SM -SN SCT011 OVC034 M03/M06 A3023 RMK SF4SC4 SLP243

CYQB;2008-01-05 17:00;CYQB 051700Z 24005KT 2SM -SN SCT010 OVC035 M03/M06 A3021 RMK SF4SC4 SLP236

CYQB;2008-01-05 17:41;CYQB 051741Z 24003KT 6SM -SN FEW011 OVC038 M03/ RMK SF2SC5

CYQB;2008-01-05 18:00;CYQB 051800Z 25002KT 10SM -SN FEW011 OVC037 M03/M06 A3019 RMK SF2SC6 SLP227

CYQB;2008-01-05 18:20;CYQB 051820Z 00000KT 10SM FEW011 OVC036 M02/ RMK SF2SC6

CYQB;2008-01-05 18:33;CYQB 051833Z 25002KT 10SM FEW011 OVC037 M02/ RMK SF2SC6

CYQB;2008-01-05 19:00;CYQB 051900Z 25003KT 10SM FEW011 OVC037 M02/M06 A3018 RMK SF2SC6 SLP224

CYQB;2008-01-05 20:00;CYQB 052000Z 00000KT 10SM FEW011 OVC039 M02/M06 A3017 RMK SF2SC6 SLP221

CYQB;2008-01-05 21:00;CYQB 052100Z 00000KT 8SM FEW015 OVC040 M03/M06 A3016 RMK SF1SC7 SLP217

CYQB;2008-01-05 22:00;CYQB 052200Z 00000KT 8SM FEW040 OVC067 M03/M06 A3014 RMK SC2AC6 SLP212

CYQB;2008-01-05 23:00;CYQB 052300Z 08002KT 8SM FEW040 BKN054 OVC070 M03/M06 A3012 RMK SC2SC4AC2 SLP205

CYQB;2008-01-06 00:00;CYQB 060000Z 01002KT 8SM OVC055 M03/M06 A3011 RMK SC8 SLP202

CYQB;2008-01-06 01:00;CYQB 060100Z 01003KT 8SM OVC051 M03/M06 A3010 RMK SC8 SLP196

CYQB;2008-01-06 02:00;CYQB 060200Z 01002KT 10SM OVC052 M03/M06 A3009 RMK SC8 SLP193

CYQB;2008-01-06 03:00;CYQB 060300Z 00000KT 9SM OVC042 M03/M06 A3008 RMK SC8 SLP189

CYQB;2008-01-06 04:00;CYQB 060400Z 00000KT 10SM FEW018 OVC036 M04/M06 A3007 RMK SC1SC8 SLP186

CYQB;2008-01-06 05:00;CYQB 060500Z 00000KT 7SM -SG OVC016 M03/M06 A3006 RMK ST8 SLP182

CYQB;2008-01-06 05:37;CYQB 060537Z 00000KT 4SM -FZDZ BR OVC012 M03/ RMK ST8

CYQB;2008-01-06 06:00;CYQB 060600Z 35002KT 2SM -FZDZ BR OVC010 M03/M05 A3005 RMK ST8 TR ICE ON INDICATOR SLP179

CYQB;2008-01-06 06:35;CYQB 060635Z 00000KT 1 3/4SM -FZDZ BR OVC007 M03/ RMK FG1ST7

CYQB;2008-01-06 07:00;CYQB 060700Z CCB 00000KT 1 1/4SM -SN BR OVC008 M03/M05 A3004 REFZDZ RMK FG2ST6 CIG VRB 6-10 SLP177

CYQB;2008-01-06 07:05;CYQB 060705Z CCA 00000KT 1 1/4SM -SN BR SCT006 OVC012 M03/ RMK FG2ST2SC4

CYQB;2008-01-06 07:48;CYQB 060748Z 00000KT 1 1/2SM -SG -FZDZ BR OVC009 M03/ RMK FG1ST7 CIG VRB 6-12

CYQB;2008-01-06 08:00;CYQB 060800Z 00000KT 1 1/2SM -SG -FZDZ BR OVC009 M03/M05 A3003 RMK FG1ST7 CIG VRB 6-12 SLP175

CYQB;2008-01-06 09:00;CYQB 060900Z 21004KT 2SM -SNSG BR OVC008 M02/M04 A3002 REFZDZ RMK FG1SF7 CIG VRB 6-10 SLP171

CYQB;2008-01-06 09:31;CYQB 060931Z 24003KT 1 1/2SM -SN BR BKN008 OVC013 M02/ RMK FG1SF6SC2

CYQB;2008-01-06 10:00;CYQB 061000Z 26004KT 1 1/2SM -SG BR OVC008 M02/M04 A3003 RMK FG1SF7 SLP172

CYQB;2008-01-06 10:44;CYQB 061044Z 26003KT 1 1/4SM -SG BR BKN006 OVC011 M02/ RMK FG1SF5SC2

CYQB;2008-01-06 11:00;CYQB 061100Z CCB 26004KT 1 1/4SM -SNSG BR BKN006 OVC010 M02/M03 A3004 RMK SN4SF2SC2 /S01/ SLP176

CYQB;2008-01-06 11:32;CYQB 061132Z 27006KT 1 1/4SM -SN -FZDZ BR OVC006 M01/ RMK FG2SF6

CYQB;2008-01-06 12:00;CYQB 061200Z 26005KT 1 1/4SM -SN -FZDZ BR OVC008 M01/M02 A3006 RMK FG2SF6 SLP182

CYQB;2008-01-06 12:22;CYQB 061222Z 25008KT 2SM -SG -FZDZ BR OVC006 M01/ RMK FG1SF7

CYQB;2008-01-06 13:00;CYQB 061300Z 26007KT 1SM R06/P6000FT/D -SG -FZDZ BR OVC006 M01/M02 A3007 RMK FG2SF6 SLP186

CYQB;2008-01-06 13:18;CYQB 061318Z 25005KT 1SM R06/P6000FT/D -FZDZ BR OVC004 M01/ RMK FG2SF6

CYQB;2008-01-06 13:30;CYQB 061330Z 26008KT 3/4SM R06/4500FT/N -FZDZ BR OVC004 M01/ RMK FG3SF5

CYQB;2008-01-06 14:00;CYQB 061400Z 26008KT 3/4SM R06/4000FT/N -FZDZ BR OVC004 M01/M02 A3007 RMK FG3SF5 SLP187

CYQB;2008-01-06 14:30;CYQB 061430Z 25006KT 3/4SM R06/4000FT/N BR OVC003 M00/ RMK FG4ST4 REFZDZ

CYQB;2008-01-06 14:41;CYQB 061441Z 25006KT 1/2SM R06/3500FT/D FZFG VV002 M00/ RMK FG8 REFZDZ

CYQB;2008-01-06 15:00;CYQB 061500Z 24005KT 1/2SM R06/2600FT/N FZFG VV002 M00/M02 A3008 RMK FG8 REFZDZ SLP191

CYQB;2008-01-06 15:19;CYQB 061519Z 23006KT 3/8SM R06/1600V2200FT/N FZFG VV002 M00/ RMK FG8

CYQB;2008-01-06 16:00;CYQB 061600Z 24006KT 1/4SM R06/1400FT/N FZFG VV002 M00/M01 A3008 RMK FG8 SLP189

CYQB;2008-01-06 17:00;CYQB 061700Z 23005KT 1/4SM R06/1400FT/N FG VV002 00/M01 A3008 RMK FG8 SLP190

CYQB;2008-01-06 18:00;CYQB 061800Z 25003KT 1/4SM R06/1600FT/N FG VV002 00/M01 A3007 RMK FG8 SLP188

CYQB;2008-01-06 19:00;CYQB 061900Z 21002KT 1/8SM R06/1100FT/N FG VV001 00/M00 A3007 RMK FG8 SLP187

CYQB;2008-01-06 20:00;CYQB 062000Z 20002KT 1/8SM R06/1000FT/N FG VV001 00/M01 A3008 RMK FG8 SLP190

CYQB;2008-01-06 21:00;CYQB 062100Z 23003KT 1/8SM R06/1200FT/N FG VV002 01/M00 A3008 RMK FG8 SLP191

CYQB;2008-01-06 21:50;CYQB 062150Z 00000KT 1/8SM R06/1800FT/N FG VV001 00/ RMK FG8

CYQB;2008-01-06 22:00;CYQB 062200Z 00000KT 1/8SM R06/1600V2200FT/U FG VV001 00/M01 A3009 RMK FG8 SLP193

CYQB;2008-01-06 23:00;CYQB 062300Z 13002KT 1/8SM R06/1600V2200FT/U FG VV001 00/M01 A3010 RMK FG8 SLP196

CYQB;2008-01-07 00:00;CYQB 070000Z 15002KT 1/8SM R06/1600FT/N FG VV001 00/M01 A3011 RMK FG8 SLP199

CYQB;2008-01-07 00:44;CYQB 070044Z 00000KT 1/4SM R06/2000FT/N -DZ FG VV003 00/ RMK FG8

CYQB;2008-01-07 01:00;CYQB 070100Z 00000KT 1/4SM R06/2600FT/N -DZ FG OVC007 00/M01 A3010 RMK FG6ST2 SLP197

CYQB;2008-01-07 02:00;CYQB 070200Z 02002KT 1/4SM R06/2600FT/N -DZ FG OVC008 00/M01 A3010 RMK FG6ST2 SLP197

CYQB;2008-01-07 02:47;CYQB 070247Z 00000KT 1 1/2SM R06/2600VP6000FT/U BR SCT005 OVC015 01/ RMK FG2SF2SC4

CYQB;2008-01-07 03:00;CYQB 070300Z 00000KT 1SM R06/4000VP6000FT/D BR SCT005 OVC015 01/M00 A3009 RMK FG2SF2SC5 VIS VRB 3/4-11/4 SLP194

CYQB;2008-01-07 03:50;CYQB 070350Z 09002KT 1/2SM R06/2400FT/N FG SCT007 OVC016 01/ RMK FG3SF1SC4

CYQB;2008-01-07 04:00;CYQB 070400Z 06002KT 3/8SM R06/2200FT/N FG FEW008 OVC017 01/M00 A3008 RMK FG2SF1SC6 ROOF VIS 2 SLP190

CYQB;2008-01-07 04:36;CYQB 070436Z 35003KT 3SM R06/3500VP6000FT/D BR FEW007 OVC016 01/ RMK SF1SC7

CYQB;2008-01-07 05:00;CYQB 070500Z 00000KT 3SM R06/3000V4500FT/U BR PRFG FEW007 OVC021 00/M01 A3008 RMK FG1SF1SC7 SLP190

CYQB;2008-01-07 06:00;CYQB 070600Z 00000KT 5SM BR OVC017 01/M00 A3008 RMK SC8 SLP189

CYQB;2008-01-07 07:00;CYQB 070700Z 14002KT 3SM BR BCFG OVC021 01/M00 A3007 RMK SC8 ROOF VIS 6 SLP186

CYQB;2008-01-07 08:00;CYQB 070800Z 10002KT 4SM R06/4000VP6000FT/U BR BCFG OVC023 01/M00 A3004 RMK SC8 ROOF VIS 8 SLP176

CYQB;2008-01-07 09:00;CYQB 070900Z 00000KT 6SM BR BCFG OVC025 01/M01 A3003 RMK SC8 SLP173

CYQB;2008-01-07 10:00;CYQB 071000Z 02002KT 10SM OVC025 01/M01 A3001 RMK SC8 SLP165

CYQB;2008-01-07 11:00;CYQB 071100Z 36002KT 8SM OVC023 01/M00 A3001 RMK SC8 SLP166

CYQB;2008-01-07 12:00;CYQB 071200Z 13003KT 8SM R06/4000VP6000FT/D BKN022 OVC043 01/00 A3000 RMK SC6SC2 SLP162

CYQB;2008-01-07 12:48;CYQB 071248Z 00000KT 2 1/2SM -DZ BR OVC019 01/ RMK FG2SC6

CYQB;2008-01-07 13:00;CYQB 071300Z 00000KT 2 1/2SM -DZ BR OVC018 01/M00 A3000 RMK FG2SC6 SLP162

CYQB;2008-01-07 13:29;CYQB 071329Z 01002KT 3SM BR OVC017 02/ RMK SC8

CYQB;2008-01-07 14:00;CYQB 071400Z 00000KT 1 3/4SM R06/3500VP6000FT/D -DZ BR OVC013 02/00 A2999 RMK FG2SC6 SLP160

CYQB;2008-01-07 14:04;CYQB 071404Z 00000KT 3/4SM R06/3000VP6000FT/D -DZ BR OVC011 02/ RMK FG3SC5

CYQB;2008-01-07 14:19;CYQB 071419Z 00000KT 5/8SM R06/2800FT/N -DZ BR OVC008 02/ RMK FG4ST4

CYQB;2008-01-07 14:54;CYQB 071454Z 00000KT 1/2SM R06/1400V2200FT/N -DZ FG VV008 02/ RMK FG8

CYQB;2008-01-07 15:00;CYQB 071500Z 00000KT 1/2SM R06/1600FT/N -DZ FG VV008 02/00 A2999 RMK FG8 SLP158

CYQB;2008-01-07 15:21;CYQB 071521Z 00000KT 3/8SM R06/1200FT/N -DZ FG VV005 02/ RMK FG8

CYQB;2008-01-07 16:00;CYQB 071600Z 35003KT 3/8SM R06/1100V1600FT/N -DZ FG SCT002 VV005 03/02 A2997 RMK SF3FG5 VIS N 1/8 SLP154

CYQB;2008-01-07 16:35;CYQB 071635Z 00000KT 3/8SM R06/1200V1600FT/N -DZ FG FEW002 VV007 03/ RMK SF2FG6

CYQB;2008-01-07 17:00;CYQB 071700Z 19002KT 3/8SM R06/1200FT/N -DZ FG VV007 03/02 A2996 RMK FG8 SLP148

CYQB;2008-01-07 17:33;CYQB 071733Z 23002KT 3/8SM R06/1200FT/N -RADZ FG VV007 03/ RMK FG8

CYQB;2008-01-07 17:45;CYQB 071745Z 24003KT 1/4SM R06/2600FT/N -RADZ FG VV007 02/ RMK FG8 CIG VRB 6-8

CYQB;2008-01-07 17:49;CYQB 071749Z 28002KT 3/8SM R06/2800VP6000FT/N -RADZ FG FEW002 VV007 02/ RMK ST2FG6 CIG VRB 6-8

CYQB;2008-01-07 18:00;CYQB 071800Z 00000KT 1/4SM R06/5000FT/D -RADZ FG FEW002 VV007 03/02 A2996 RMK SF2FG6 CIG VRB 6-8 SLP148

CYQB;2008-01-07 19:00;CYQB 071900Z 27005KT 1/2SM R06/P6000FT/D -RADZ FG FEW002 VV006 03/02 A2997 RMK SF2FG6 CIG VRB 4-8 SLP153

CYQB;2008-01-07 19:50;CYQB 071950Z 25007KT 1SM R06/P6000FT/U -RA BR FEW002 OVC006 03/ RMK SF2ST6

CYQB;2008-01-07 20:00;CYQB 072000Z 27005KT 3SM -RA BR FEW002 OVC007 03/02 A2999 RMK SF2ST6 SLP158

CYQB;2008-01-07 20:52;CYQB 072052Z 26009KT 1/4SM R06/2800V6000FT/D -RA FG VV002 03/ RMK FG8

CYQB;2008-01-07 21:00;CYQB 072100Z 26009KT 1/4SM R06/2200FT/N -RA FG VV003 03/01 A3000 RMK FG8 SLP162

CYQB;2008-01-07 21:45;CYQB 072145Z 26010KT 1/2SM R06/2800FT/N -RA FG VV005 02/ RMK FG8

CYQB;2008-01-07 22:00;CYQB 072200Z 26011KT 1SM R06/3500VP6000FT/U -RA BR OVC004 03/01 A3001 RMK FG3ST5 SLP167

CYQB;2008-01-07 23:00;CYQB 072300Z 25010KT 2SM -RA BR BKN005 OVC011 03/02 A3002 RMK ST5SC3 SLP168

CYQB;2008-01-07 23:40;CYQB 072340Z 24008KT 1 1/2SM R06/3000VP6000FT/U BR BKN005 OVC011 03/ RMK ST6SC2

CYQB;2008-01-08 00:00;CYQB 080000Z 23004KT 3/4SM R06/2800FT/N BR BKN004 OVC008 03/02 A3003 RMK ST6SC2 SLP172

CYQB;2008-01-08 00:30;CYQB 080030Z 12002KT 3/8SM R06/2800FT/N FG VV002 02/ RMK FG8 TWR VIS 1/8

CYQB;2008-01-08 00:49;CYQB 080049Z 00000KT 1/4SM R06/1800FT/N FG VV002 02/ RMK FG8 TWR VIS 1/8

CYQB;2008-01-08 01:00;CYQB 080100Z 00000KT 1/4SM R06/1600FT/N FG VV002 02/01 A3003 RMK FG8 TWR VIS 1/8 SLP174

CYQB;2008-01-08 02:00;CYQB 080200Z 03002KT 1/4SM R06/1400FT/N FG VV002 02/01 A3003 RMK FG8 SLP171

CYQB;2008-01-08 03:00;CYQB 080300Z 00000KT 1/4SM R06/1600FT/N FG VV002 02/01 A3001 RMK FG8 SLP167

CYQB;2008-01-08 04:00;CYQB 080400Z 00000KT 1/4SM R06/2400FT/U -DZ FG VV003 02/01 A3000 RMK FG8 SLP164

CYQB;2008-01-08 04:22;CYQB 080422Z 13003KT 1/4SM R06/2400FT/N -RA FG VV002 02/ RMK FG8

CYQB;2008-01-08 05:00;CYQB 080500Z 00000KT 1/4SM R06/2000FT/N -RA FG VV002 02/01 A2997 RMK FG8 SLP154

CYQB;2008-01-08 05:30;CYQB 080530Z 04002KT 3/8SM R06/2800FT/N -RA FG BKN003 OVC012 02/ RMK FG4ST3SC1

CYQB;2008-01-08 06:00;CYQB 080600Z 02002KT 3/8SM R06/2800FT/N -RA FG VV003 02/01 A2995 RMK FG8 SLP146

CYQB;2008-01-08 07:00;CYQB 080700Z 01006KT 1/4SM R06/2400FT/N -RA FG VV003 02/01 A2992 RMK FG8 SLP135

CYQB;2008-01-08 07:32;CYQB 080732Z 04007KT 1/2SM R06/3500VP6000FT/U -RA FG SCT002 OVC006 02/ RMK FG3SF1SC4 VIS E 2

CYQB;2008-01-08 08:00;CYQB 080800Z 02002KT 1/2SM R06/P6000FT/D -RA FG SCT002 OVC006 02/01 A2989 RMK FG3SF1SC4 VIS E 5 SLP124

CYQB;2008-01-08 08:45;CYQB 080845Z 00000KT 1 1/2SM R06/3000VP6000FT/D -RA BR BKN003 OVC006 02/ RMK FG2SF3SC2

CYQB;2008-01-08 09:00;CYQB 080900Z 02003KT 1 1/2SM R06/3500VP6000FT/D -DZ BR SCT002 OVC008 03/02 A2986 RMK FG2SF2SC4 SLP113

CYQB;2008-01-08 10:00;CYQB 081000Z 02003KT 1 3/4SM R06/3000FT/N -DZ BR SCT002 OVC008 03/02 A2986 RMK FG2ST2ST4 SLP114

CYQB;2008-01-08 11:00;CYQB 081100Z 18004KT 1/2SM R06/2800FT/N -DZ FG OVC005 03/02 A2987 RMK FG4ST4 SLP118

CYQB;2008-01-08 11:15;CYQB 081115Z 20005KT 1/2SM R06/2200FT/N FG VV004 03/ RMK FG8

CYQB;2008-01-08 12:00;CYQB 081200Z 00000KT 1SM R06/P6000FT/U BR VV003 02/01 A2989 RMK FG8 SLP123

CYQB;2008-01-08 12:17;CYQB 081217Z 24005KT 3/4SM R06/P6000FT/N BR VV004 02/ RMK FG8

CYQB;2008-01-08 13:00;CYQB 081300Z 27011KT 1 1/4SM BR OVC006 04/03 A2990 RMK ST8 SLP128

CYQB;2008-01-08 13:23;CYQB 081323Z 26009G15KT 1 1/4SM BR OVC005 05/ RMK ST8 CIG VRB 4-6

CYQB;2008-01-08 13:42;CYQB 081342Z 14003KT 3/4SM R06/P6000FT/D BR VV004 03/ RMK FG8 CIG VRB 3-5

CYQB;2008-01-08 14:00;CYQB 081400Z 16003KT 3/4SM R06/2800V4500FT/N -DZ BR OVC003 03/02 A2991 RMK FG6ST2 SLP130

CYQB;2008-01-08 14:18;CYQB 081418Z 18004KT 1/2SM R06/1200V2200FT/N -RA FG SCT002 OVC007 04/ RMK FG3ST1SC4

CYQB;2008-01-08 14:42;CYQB 081442Z 10002KT 3/8SM R06/1600FT/N -RA FG OVC005 04/ RMK FG6ST2

CYQB;2008-01-08 14:52;CYQB 081452Z 16002KT 1/4SM R06/1200FT/N -RA FG OVC006 03/ RMK FG6ST2

CYQB;2008-01-08 15:00;CYQB 081500Z 16002KT 1/4SM R06/1100V1800FT/N -DZ FG OVC006 04/03 A2991 RMK FG6ST2 SLP130

CYQB;2008-01-08 15:18;CYQB 081518Z 18003KT 1/4SM R06/1100FT/N FG VV005 03/ RMK FG8

CYQB;2008-01-08 15:39;CYQB 081539Z 25003KT 1/8SM R06/0900V1200FT/N -DZ FG OVC004 04/ RMK FG6ST2

CYQB;2008-01-08 16:00;CYQB 081600Z 36002KT 1/8SM R06/1000FT/N -DZ FG BKN002 OVC006 04/03 A2989 RMK FG6ST2SC1 SLP125

CYQB;2008-01-08 17:00;CYQB 081700Z 24005KT 1/8SM R06/1200FT/N -DZ FG VV001 04/03 A2988 RMK FG8 SLP121

CYQB;2008-01-08 17:19;CYQB 081719Z 26007KT 1/8SM R06/2000FT/U -RADZ FG VV001 04/ RMK FG8

CYQB;2008-01-08 18:00;CYQB 081800Z 23005KT 1/4SM R06/1200V2000FT/N -RADZ FG BKN002 OVC006 04/03 A2988 RMK FG6ST2SC1 SLP122

CYQB;2008-01-08 18:15;CYQB 081815Z 00000KT 1/4SM R06/P6000FT/N FG BKN002 OVC005 04/ RMK FG6ST2SC1

CYQB;2008-01-08 18:28;CYQB 081828Z 00000KT 1/4SM R06/1100FT/N FG VV002 04/ RMK FG8

CYQB;2008-01-08 18:54;CYQB 081854Z 22003KT 1/8SM R06/0700FT/N FG VV001 05/ RMK FG8

CYQB;2008-01-08 19:00;CYQB 081900Z 23003KT 1/8SM R06/0700FT/N FG VV001 05/05 A2988 RMK FG8 SLP120

CYQB;2008-01-08 19:34;CYQB 081934Z 17004KT 1/8SM R06/0800FT/N -RA FG VV001 04/ RMK FG8

CYQB;2008-01-08 20:00;CYQB 082000Z 15004KT 1/8SM R06/1000FT/N -RA FG VV001 04/04 A2989 RMK FG8 SLP123

CYQB;2008-01-08 20:20;CYQB 082020Z 09004KT 1/8SM R06/1200FT/N -RA FG VV002 04/ RMK FG8

CYQB;2008-01-08 20:50;CYQB 082050Z CCA 07007KT 3/8SM R06/2000FT/N FG VV002 02/ RMK FG8 VIS S 1/8

CYQB;2008-01-08 21:00;CYQB 082100Z 07008KT 3/8SM R06/2400FT/N -RA FG VV002 02/02 A2989 RMK FG8 SLP123

CYQB;2008-01-08 21:12;CYQB 082112Z 07010KT 1/2SM R06/3500VP6000FT/U -RA FG OVC001 02/ RMK FG6ST2 VIS S 1/4

CYQB;2008-01-08 21:23;CYQB 082123Z 07010KT 3/4SM R06/P6000FT/U -RA BR OVC001 02/ RMK FG6ST2 VIS S 1/4

CYQB;2008-01-08 21:40;CYQB 082140Z 07009KT 1SM R06/P6000FT/U -RA BR OVC002 02/ RMK FG5ST3

CYQB;2008-01-08 22:00;CYQB 082200Z 07010KT 1SM R06/P6000FT/N -RA BR OVC002 02/02 A2988 RMK FG5ST3 SLP120

CYQB;2008-01-08 23:00;CYQB 082300Z 08008KT 1 1/4SM -RA BR OVC003 02/01 A2987 RMK FG4ST4 SLP119

CYQB;2008-01-09 00:00;CYQB 090000Z 07008KT 2SM BR OVC003 02/01 A2985 RMK FG2ST6 VIS S - SW 1 SLP112

CYQB;2008-01-09 00:35;CYQB 090035Z 07007KT 1 1/2SM -RA BR OVC002 02/ RMK FG3ST5

CYQB;2008-01-09 01:00;CYQB 090100Z 07007KT 1 1/2SM -RA BR OVC002 02/00 A2984 RMK FG3ST5 SLP108

CYQB;2008-01-09 01:30;CYQB 090130Z 08009KT 2 1/2SM -RA BR OVC004 02/ RMK FG2ST6

CYQB;2008-01-09 02:00;CYQB 090200Z 08008G16KT 2SM -RA BR OVC003 02/00 A2981 RMK FG2ST6 SLP099

CYQB;2008-01-09 03:00;CYQB 090300Z 09004KT 8SM -RA OVC003 01/00 A2982 RMK ST8 VIS N-NE 4 SLP100

CYQB;2008-01-09 04:00;CYQB 090400Z 08007KT 3SM -RA BR OVC003 01/M00 A2978 RMK ST8 SLP089

CYQB;2008-01-09 04:36;CYQB 090436Z 07004KT 2SM -DZ BR OVC002 01/ RMK FG1ST7 VIS W-NE 4

CYQB;2008-01-09 05:00;CYQB 090500Z 08009G16KT 6SM -RADZ BR OVC002 01/M00 A2975 RMK ST8 VIS NE-S 2 SLP077

CYQB;2008-01-09 06:00;CYQB 090600Z 09010KT 3SM -RA BR BKN003 BKN013 OVC045 01/M00 A2974 RMK SF7SC1SC1 VIS NW-NE 6 SLP073

CYQB;2008-01-09 07:00;CYQB 090700Z 07004KT 8SM -RA OVC003 01/M00 A2973 RMK ST8 VIS E-SW 3 SLP071

CYQB;2008-01-09 08:00;CYQB 090800Z 07008KT 3SM -RA BR OVC002 01/M01 A2969 RMK ST8 VIS N-NE 8 SLP058

CYQB;2008-01-09 08:42;CYQB 090842Z 07012G17KT 8SM OVC002 01/ RMK ST8

CYQB;2008-01-09 09:00;CYQB 090900Z 08008G16KT 12SM OVC003 01/M01 A2967 RMK ST8 SLP050

CYQB;2008-01-09 10:00;CYQB 091000Z 07010KT 9SM OVC003 01/M01 A2963 RMK ST8 SLP036

CYQB;2008-01-09 11:00;CYQB 091100Z 07010G15KT 8SM OVC003 01/M01 A2959 RMK ST8 SLP024

CYQB;2008-01-09 11:44;CYQB 091144Z 06009KT 10SM BKN004 OVC048 01/ RMK ST6SC2

CYQB;2008-01-09 12:00;CYQB 091200Z 08010G16KT 10SM OVC004 01/M01 A2953 RMK ST8 PRESFR SLP002

CYQB;2008-01-09 12:44;CYQB 091244Z 08009G17KT 2SM BR OVC002 00/ RMK ST8

CYQB;2008-01-09 13:00;CYQB 091300Z 07011G16KT 2SM BR OVC002 00/M01 A2946 RMK ST8 PRESFR SLP978

CYQB;2008-01-09 13:19;CYQB 091319Z 07013KT 2SM BR OVC003 01/ RMK ST8

CYQB;2008-01-09 13:28;CYQB 091328Z 07012KT 2SM -RA BR OVC004 01/ RMK ST8

CYQB;2008-01-09 13:40;CYQB 091340Z 07014KT 2SM BR OVC002 00/ RMK ST8

CYQB;2008-01-09 14:00;CYQB 091400Z 09013KT 2SM -RA BR OVC003 00/M01 A2943 RMK ST8 SLP968

CYQB;2008-01-09 15:00;CYQB 091500Z 07008KT 2SM -RA BR BKN002 OVC033 01/M01 A2942 RMK ST7SC1 SLP964

CYQB;2008-01-09 16:00;CYQB 091600Z 07008KT 2SM -RA BR OVC002 01/M01 A2939 RMK ST8 SLP955

CYQB;2008-01-09 16:43;CYQB 091643Z 07006KT 3SM BR OVC004 01/ RMK ST8

CYQB;2008-01-09 17:00;CYQB 091700Z 04004KT 3SM BR OVC004 01/M01 A2935 RMK ST8 SLP941

CYQB;2008-01-09 17:27;CYQB 091727Z 07005KT 5SM BR FEW004 BKN048 01/ RMK ST2SC5

CYQB;2008-01-09 18:00;CYQB 091800Z 05006KT 8SM BKN042 01/M00 A2931 RMK SC7 SLP930

CYQB;2008-01-09 19:00;CYQB 091900Z 23037G44KT 10SM BKN035 06/00 A2934 RMK SC7 SLP939

CYQB;2008-01-09 20:00;CYQB 092000Z 23029G42KT 15SM BKN035 05/M01 A2936 RMK SC7 SLP944

CYQB;2008-01-09 21:00;CYQB 092100Z 23028G35KT 15SM OVC037 05/M01 A2936 RMK SC8 SLP947

CYQB;2008-01-09 22:00;CYQB 092200Z 23029G39KT 15SM OVC042 05/M02 A2936 RMK SC8 SLP945

CYQB;2008-01-09 23:00;CYQB 092300Z 24034G45KT 15SM BKN049 OVC070 04/M03 A2936 RMK SC6AC2 SLP944

CYQB;2008-01-10 00:00;CYQB 100000Z 23034G49KT 15SM FEW015 OVC039 04/M03 A2937 RMK SC2SC6 SLP949

CYQB;2008-01-10 01:00;CYQB 100100Z 24038G51KT 15SM BKN042 OVC072 03/M03 A2937 RMK SC6AC2 SLP948

CYQB;2008-01-10 01:50;CYQB 100150Z 25037G44KT 3SM -SHSN SCT015 OVC026 02/ RMK SC4SC4

CYQB;2008-01-10 02:00;CYQB 100200Z 27029G44KT 3SM -SHSN OVC017 02/M02 A2943 RMK SC8 PRESRR SLP968

CYQB;2008-01-10 02:05;CYQB 100205Z CCA 27031G43KT 1/2SM R06/2000FT/N SHSN VV002 00/ RMK SN8 PRESRR

CYQB;2008-01-10 02:25;CYQB 100225Z 25025G35KT 3/8SM R06/3500V5000FT/N SHSN VV003 00/ RMK SN8

CYQB;2008-01-10 02:48;CYQB 100248Z 25032G40KT 1/2SM R06/P6000FT/D SHSN OVC008 00/ RMK SN4SF4

CYQB;2008-01-10 03:00;CYQB 100300Z 26029G38KT 1 1/4SM -SHSN BKN008 OVC015 00/M02 A2945 RMK SF6SC2 SLP975

CYQB;2008-01-10 03:30;CYQB 100330Z 25026G35KT 3SM -SHSN BKN008 OVC017 00/ RMK SF5SC3

CYQB;2008-01-10 03:49;CYQB 100349Z 25030G40KT 1 1/4SM -SHSN BKN008 OVC012 00/ RMK SF5SC3

CYQB;2008-01-10 04:00;CYQB 100400Z 25030G40KT 2 1/2SM -SHSN SCT008 BKN012 OVC019 00/M02 A2951 RMK SF3SC3SC2 PRESRR SLP995

CYQB;2008-01-10 04:31;CYQB 100431Z 25029G39KT 6SM -SHSN SCT008 BKN012 OVC035 01/ RMK SF3SC3SC2

CYQB;2008-01-10 05:00;CYQB 100500Z 25027G35KT 15SM -SHSN FEW008 SCT012 OVC042 01/M01 A2954 RMK SF2SC2SC4 SLP006

CYQB;2008-01-10 06:00;CYQB 100600Z 25029G34KT 15SM -SHSN FEW012 OVC045 02/M02 A2957 RMK SC2SC6 SLP017

CYQB;2008-01-10 07:00;CYQB 100700Z 25032G38KT 15SM FEW012 OVC031 02/M02 A2961 RMK SC2SC6 SLP030

CYQB;2008-01-10 08:00;CYQB 100800Z 26026G32KT 15SM OVC035 02/M02 A2964 RMK SC8 SLP042

CYQB;2008-01-10 09:00;CYQB 100900Z 26026G32KT 15SM OVC038 02/M03 A2967 RMK SC8 SLP050

CYQB;2008-01-10 10:00;CYQB 101000Z 26027G35KT 15SM BKN038 01/M04 A2972 RMK SC5 SLP065

CYQB;2008-01-10 11:00;CYQB 101100Z 27025G35KT 15SM BKN048 01/M05 A2978 RMK SC5 PRESRR SLP088

CYQB;2008-01-10 12:00;CYQB 101200Z 26024G30KT 15SM BKN040 01/M05 A2983 RMK SC5 SLP106

CYQB;2008-01-10 13:00;CYQB 101300Z 26019G32KT 15SM BKN037 01/M05 A2989 RMK SC6 SLP123

CYQB;2008-01-10 14:00;CYQB 101400Z 26020G26KT 15SM BKN031 01/M05 A2994 RMK SC6 SLP141

CYQB;2008-01-10 15:00;CYQB 101500Z 28017G22KT 15SM BKN036 00/M06 A2997 RMK SC6 SLP153

CYQB;2008-01-10 15:18;CYQB 101518Z 28019G27KT 15SM SCT036 01/ RMK SC3

CYQB;2008-01-10 16:00;CYQB 101600Z 26019G26KT 15SM SCT036 01/M05 A2996 RMK SC3 SLP150

CYQB;2008-01-10 17:00;CYQB 101700Z 29020G25KT 15SM FEW036 01/M06 A2997 RMK SC2 SLP151

CYQB;2008-01-10 18:00;CYQB 101800Z 28017G22KT 15SM FEW036 FEW200 01/M06 A2997 RMK SC2CI1 SLP154

CYQB;2008-01-10 19:00;CYQB 101900Z 27018KT 15SM FEW038 FEW200 02/M06 A2999 RMK SC1CI1 SLP159

CYQB;2008-01-10 20:00;CYQB 102000Z 27017G22KT 15SM FEW035 BKN200 01/M07 A3000 RMK SC1CI1 SLP163

CYQB;2008-01-10 21:00;CYQB 102100Z 27018KT 15SM FEW030 BKN220 00/M07 A3002 RMK SC1CI1 SLP169

CYQB;2008-01-10 22:00;CYQB 102200Z 28016G21KT 15SM FEW030 BKN220 M01/M08 A3006 RMK SC1CI1 SLP181

CYQB;2008-01-10 23:00;CYQB 102300Z 26010G17KT 15SM BKN240 M01/M08 A3009 RMK CI4 SLP192

CYQB;2008-01-11 00:00;CYQB 110000Z 23009KT 15SM FEW035 BKN240 M02/M08 A3010 RMK SC2CS4 SLP197

CYQB;2008-01-11 01:00;CYQB 110100Z 25010KT 15SM BKN240 M03/M08 A3010 RMK CS4 SLP197

CYQB;2008-01-11 02:00;CYQB 110200Z 22005KT 15SM BKN240 M04/M08 A3011 RMK CS6 SLP201

CYQB;2008-01-11 03:00;CYQB 110300Z 27007KT 15SM BKN250 M05/M09 A3012 RMK CI1 SLP203

CYQB;2008-01-11 04:00;CYQB 110400Z 24004KT 15SM SCT250 M05/M09 A3013 RMK CI0 SLP206

CYQB;2008-01-11 05:00;CYQB 110500Z 34002KT 15SM SCT250 M05/M08 A3011 RMK CI1 SLP201

CYQB;2008-01-11 06:00;CYQB 110600Z 27002KT 15SM BKN240 M05/M09 A3011 RMK CI4 SLP200

CYQB;2008-01-11 07:00;CYQB 110700Z 00000KT 15SM OVC220 M05/M09 A3010 RMK CI7 SLP196

CYQB;2008-01-11 08:00;CYQB 110800Z 07005KT 15SM OVC210 M05/M09 A3009 RMK CI8 SLP193

CYQB;2008-01-11 09:00;CYQB 110900Z 08007KT 15SM OVC160 M04/M09 A3007 RMK AC8 SLP186

CYQB;2008-01-11 10:00;CYQB 111000Z 09004KT 15SM OVC120 M04/M08 A3005 RMK AC8 SLP179

CYQB;2008-01-11 11:00;CYQB 111100Z 08012KT 15SM OVC090 M04/M08 A3000 RMK AS8 SLP163

CYQB;2008-01-11 12:00;CYQB 111200Z 08014G20KT 15SM OVC070 M03/M07 A3002 RMK AS8 SLP170

CYQB;2008-01-11 12:33;CYQB 111233Z 07019G26KT 2SM -SN DRSN VV008 RMK SN8

CYQB;2008-01-11 12:50;CYQB 111250Z 07020KT 1SM R06/P6000FT/D -SN DRSN VV008 RMK SN8

CYQB;2008-01-11 13:00;CYQB 111300Z 07015G22KT 1SM R06/P6000FT/U -SN DRSN OVC023 M03/M06 A3000 RMK SN6SC2 SLP162

CYQB;2008-01-11 13:19;CYQB 111319Z 07020G26KT 5/8SM R06/6000FT/D -SN DRSN VV007 RMK SN8

CYQB;2008-01-11 13:51;CYQB 111351Z 07018G27KT 3/4SM R06/5000FT/U -SN DRSN VV008 M04/ RMK SN8

CYQB;2008-01-11 14:00;CYQB 111400Z 08020G27KT 3/4SM R06/5500FT/U -SN BLSN VV008 M04/M06 A2997 RMK SN8 VIS VRB 1/2-1 SLP154

CYQB;2008-01-11 15:00;CYQB 111500Z CCA 07017G26KT 3/4SM R06/4000V5500FT/D -SN BLSN VV007 M04/M06 A2992 RMK SN8 VIS VRB 1/2-1 SLP136

CYQB;2008-01-11 16:00;CYQB 111600Z 07018G25KT 3/4SM R06/3500V5000FT/D -SN BLSN VV007 M03/M06 A2987 RMK SN8 VIS VRB 1/2-1 SLP119

CYQB;2008-01-11 17:00;CYQB 111700Z CCB 07019G26KT 3/4SM R06/5500FT/D -SN BLSN BKN008 OVC022 M03/M06 A2981 RMK SN3SF3SC2 VIS VRB 1/2-1 PRESFR /S02/ SLP099

CYQB;2008-01-11 18:00;CYQB 111800Z 07018G27KT 3/4SM R06/4000V5500FT/D -SN BLSN OVC006 M03/M06 A2975 RMK SN6SF2 VIS VRB 1/2-1 PRESFR /S03/ SLP077

CYQB;2008-01-11 19:00;CYQB 111900Z 07017G27KT 1 1/4SM R06/6000FT/N -SN BLSN OVC007 M03/M05 A2970 RMK SN5SF3 /S01/ SLP061

CYQB;2008-01-11 19:50;CYQB 111950Z CCA 07019G29KT 2SM -SN BLSN OVC007 M02/ RMK SN3SF5

CYQB;2008-01-11 20:00;CYQB 112000Z 07018G27KT 1 3/4SM -SN BKN007 OVC019 M02/M05 A2966 REBLSN RMK SN3SF3SC2 SLP048

CYQB;2008-01-11 20:45;CYQB 112045Z 07019G29KT 3/4SM R06/P6000FT/N -SN BLSN OVC006 M02/ RMK SN5SF3

CYQB;2008-01-11 21:00;CYQB 112100Z 07020G26KT 1 1/4SM -SN BLSN OVC006 M02/M04 A2964 RMK SN5SF3 /S02/ SLP041

CYQB;2008-01-11 22:00;CYQB 112200Z 07018G24KT 1 1/2SM -SN OVC006 M02/M04 A2964 REBLSN RMK SN5SF3 /S03/ SLP040

CYQB;2008-01-11 23:00;CYQB 112300Z 07012G18KT 1 1/2SM -SN BLSN OVC006 M02/M04 A2960 RMK SN5SF3 SLP029

CYQB;2008-01-11 23:22;CYQB 112322Z 07014G25KT 3SM -SN BKN006 OVC016 M01/ RMK SF6SC2

CYQB;2008-01-11 23:55;CYQB 112355Z 08013G21KT 6SM -PL SCT005 OVC017 M01/ RMK SF3SC5

CYQB;2008-01-12 00:00;CYQB 120000Z 08011G18KT 6SM -PL SCT005 OVC017 M01/M04 A2960 RMK SF3SC5 SLP028

CYQB;2008-01-12 00:05;CYQB 120005Z 07014KT 1 1/2SM -PLSGSN SCT005 OVC015 M01/ RMK SF3SC5

CYQB;2008-01-12 00:20;CYQB 120020Z 07009G17KT 3/4SM R06/4000VP6000FT/D -SN BKN005 OVC015 M01/ REPL RMK SF6SC2

CYQB;2008-01-12 00:35;CYQB 120035Z CCA 08012G18KT 2SM -SN SCT005 OVC020 M01/ REPL RMK SF4SC4

CYQB;2008-01-12 01:00;CYQB 120100Z CCA 08011G17KT 4SM -PLSN BKN005 OVC013 M01/M03 A2961 RMK SF4SC4 -PL INTMT /S01/ SLP029

CYQB;2008-01-12 02:00;CYQB 120200Z 08009KT 5SM -PLSN OVC013 M01/M03 A2961 RMK SC8 SLP030

CYQB;2008-01-12 03:00;CYQB 120300Z 07009KT 5SM -PLSN FEW005 OVC010 M01/M03 A2961 RMK SF2SC6 SLP031

CYQB;2008-01-12 03:26;CYQB 120326Z 06004KT 6SM -PL FEW005 OVC010 M01/ RMK SF2SC6

CYQB;2008-01-12 04:00;CYQB 120400Z 03003KT 6SM -FZDZ SCT007 OVC015 M01/M02 A2963 RMK SF4SC4 SLP036

CYQB;2008-01-12 04:23;CYQB 120423Z 08003KT 8SM SCT015 OVC030 M00/ RMK SF4SC4

CYQB;2008-01-12 05:00;CYQB 120500Z 04003KT 2SM -FZDZ BR SCT018 OVC023 M01/M02 A2961 RMK ST4SC4 SLP032

CYQB;2008-01-12 05:42;CYQB 120542Z 00000KT 5SM BR OVC025 M01/ RMK SC8

CYQB;2008-01-12 06:00;CYQB 120600Z 03002KT 7SM OVC028 M01/M02 A2962 REFZDZ RMK SC8 SLP035

CYQB;2008-01-12 07:00;CYQB 120700Z 22007KT 10SM OVC031 02/M01 A2965 RMK SC8 SLP043

CYQB;2008-01-12 08:00;CYQB 120800Z 24016G22KT 12SM FEW015 OVC025 03/M02 A2967 RMK SC1SC7 SLP049

CYQB;2008-01-12 09:00;CYQB 120900Z 23022G29KT 15SM FEW015 BKN035 OVC050 03/M03 A2967 RMK SF1SC5SC3 SLP052

CYQB;2008-01-12 10:00;CYQB 121000Z 24019G26KT 15SM OVC033 02/M03 A2969 RMK SC8 SLP057

CYQB;2008-01-12 11:00;CYQB 121100Z 25021G26KT 15SM OVC038 02/M04 A2972 RMK SC8 SLP067

CYQB;2008-01-12 12:00;CYQB 121200Z 24018KT 15SM BKN048 02/M04 A2974 RMK SC7 SLP074

CYQB;2008-01-12 13:00;CYQB 121300Z 23015KT 20SM BKN042 02/M03 A2976 RMK SC7 SLP081

CYQB;2008-01-12 13:18;CYQB 121318Z 24015KT 12SM -SHGS OVC044 01/ RMK SC8

CYQB;2008-01-12 14:00;CYQB 121400Z 24017KT 20SM FEW025 OVC050 02/M03 A2978 RMK SC1SC7 SLP088

CYQB;2008-01-12 15:00;CYQB 121500Z 25022G27KT 15SM FEW025 OVC055 02/M04 A2981 RMK SC2SC6 SLP097

CYQB;2008-01-12 16:00;CYQB 121600Z 27016G24KT 10SM -SHSN BKN032 01/M04 A2982 RMK SC7 SLP102

CYQB;2008-01-12 17:00;CYQB 121700Z 25025KT 20SM -SHSN FEW030 BKN048 01/M06 A2982 RMK SC1SC6 SLP103

CYQB;2008-01-12 17:19;CYQB 121719Z 25022G28KT 20SM FEW030 BKN048 01/ RMK SC1SC6

CYQB;2008-01-12 18:00;CYQB 121800Z 25021G28KT 20SM FEW030 BKN050 01/M07 A2984 RMK SC1SC6 SLP108

CYQB;2008-01-12 19:00;CYQB 121900Z 26020G26KT 20SM BKN040 00/M07 A2986 RMK SC6 SLP117

CYQB;2008-01-12 20:00;CYQB 122000Z 27018G26KT 30SM BKN042 M01/M08 A2991 RMK SC6 SLP131

CYQB;2008-01-12 21:00;CYQB 122100Z 27015G20KT 30SM FEW040 M01/M09 A2994 RMK SC1 SLP142

CYQB;2008-01-12 22:00;CYQB 122200Z 28014G19KT 15SM FEW040 M03/M09 A2997 RMK SC2 SLP151

CYQB;2008-01-12 23:00;CYQB 122300Z 29011KT 15SM FEW035 M03/M09 A3000 RMK SC1 SLP161

CYQB;2008-01-13 00:00;CYQB 130000Z 29010KT 15SM FEW035 M04/M10 A3002 RMK SC1 SLP170

CYQB;2008-01-13 01:00;CYQB 130100Z 28009KT 15SM FEW030 M06/M11 A3005 RMK SC1 SLP179

CYQB;2008-01-13 02:00;CYQB 130200Z 27009KT 15SM SKC M07/M12 A3007 RMK SLP185

CYQB;2008-01-13 03:00;CYQB 130300Z 28013KT 15SM SKC M06/M12 A3008 RMK SLP192

CYQB;2008-01-13 04:00;CYQB 130400Z 26012KT 15SM SKC M07/M13 A3010 RMK SLP197

CYQB;2008-01-13 05:00;CYQB 130500Z 27016KT 15SM SKC M08/M13 A3011 RMK SLP201

CYQB;2008-01-13 06:00;CYQB 130600Z 25012G20KT 15SM SKC M08/M13 A3014 RMK SLP212

CYQB;2008-01-13 07:00;CYQB 130700Z 24010KT 15SM SKC M09/M14 A3017 RMK SLP220

CYQB;2008-01-13 08:00;CYQB 130800Z 25011KT 15SM SKC M10/M15 A3018 RMK SLP224

CYQB;2008-01-13 09:00;CYQB 130900Z 24009KT 15SM SKC M11/M15 A3019 RMK SLP229

CYQB;2008-01-13 10:00;CYQB 131000Z 25009KT 15SM SKC M12/M16 A3022 RMK SLP237

CYQB;2008-01-13 11:00;CYQB 131100Z 25011KT 15SM SKC M12/M16 A3024 RMK SLP246

CYQB;2008-01-13 12:00;CYQB 131200Z 26011KT 30SM SKC M13/M16 A3026 RMK SLP254

CYQB;2008-01-13 13:00;CYQB 131300Z 26013KT 30SM FEW020 M12/M16 A3028 RMK CF1 SLP260

CYQB;2008-01-13 14:00;CYQB 131400Z 24008KT 30SM SKC M11/M16 A3030 RMK SLP268

CYQB;2008-01-13 15:00;CYQB 131500Z 24005KT 30SM SKC M10/M16 A3031 RMK SLP270

CYQB;2008-01-13 16:00;CYQB 131600Z 22009KT 30SM SKC M09/M15 A3031 RMK SLP271

CYQB;2008-01-13 17:00;CYQB 131700Z 24011KT 30SM SKC M08/M15 A3030 RMK SLP267

CYQB;2008-01-13 18:00;CYQB 131800Z 21011KT 30SM SKC M07/M14 A3030 RMK SLP268

CYQB;2008-01-13 19:00;CYQB 131900Z 23010KT 30SM FEW250 M07/M14 A3030 RMK CI1 SLP267

CYQB;2008-01-13 20:00;CYQB 132000Z 20007KT 30SM FEW250 M07/M14 A3030 RMK CI1 SLP265

CYQB;2008-01-13 21:00;CYQB 132100Z 23006KT 30SM FEW100 FEW250 M07/M14 A3028 RMK AC1CI1 SLP260

CYQB;2008-01-13 22:00;CYQB 132200Z 24004KT 15SM FEW250 M09/M15 A3028 RMK CI1 SLP261

CYQB;2008-01-13 23:00;CYQB 132300Z 25003KT 15SM FEW250 M09/M15 A3031 RMK CI1 SLP269

CYQB;2008-01-14 00:00;CYQB 140000Z 04004KT 15SM FEW230 M10/M15 A3030 RMK CI1 SLP267

CYQB;2008-01-14 01:00;CYQB 140100Z 03004KT 15SM BKN230 M10/M15 A3029 RMK CI2 SLP265

CYQB;2008-01-14 02:00;CYQB 140200Z 05004KT 15SM BKN230 M10/M15 A3029 RMK CI2 SLP264

CYQB;2008-01-14 03:00;CYQB 140300Z 07005KT 15SM BKN200 M10/M15 A3026 RMK CI5 SLP254

CYQB;2008-01-14 04:00;CYQB 140400Z 06007KT 15SM BKN200 M10/M14 A3026 RMK CI6 SLP254

CYQB;2008-01-14 05:00;CYQB 140500Z 04007KT 15SM OVC200 M09/M14 A3022 RMK CI7 SLP241

CYQB;2008-01-14 06:00;CYQB 140600Z 07011G16KT 15SM FEW010 OVC130 M08/M12 A3022 RMK SF1AC7 SLP238

CYQB;2008-01-14 07:00;CYQB 140700Z 09007KT 15SM FEW010 OVC100 M07/M11 A3024 RMK SF1AC7 SLP245

CYQB;2008-01-14 08:00;CYQB 140800Z 08018KT 15SM FEW010 OVC087 M07/M11 A3022 RMK SF1AC7 SLP239

CYQB;2008-01-14 09:00;CYQB 140900Z 07017G22KT 15SM SCT010 BKN068 OVC087 M07/M11 A3021 RMK SF4AC2AC2 SLP234

CYQB;2008-01-14 10:00;CYQB 141000Z 08016G25KT 15SM SCT012 OVC060 M07/M11 A3019 RMK SF4SC4 SLP229

CYQB;2008-01-14 11:00;CYQB 141100Z 08015G24KT 15SM BKN012 OVC060 M07/M11 A3019 RMK SF5SC3 SLP228

CYQB;2008-01-14 11:37;CYQB 141137Z 08015G22KT 15SM SCT012 OVC065 M07/ RMK SF3SC5

CYQB;2008-01-14 12:00;CYQB 141200Z 08017G26KT 15SM SCT011 OVC067 M07/M11 A3017 RMK SF3SC5 SLP223

CYQB;2008-01-14 12:22;CYQB 141222Z 08011G19KT 15SM BKN012 OVC060 M07/ RMK SF5SC3

CYQB;2008-01-14 12:49;CYQB 141249Z 09012G18KT 20SM SCT011 OVC055 M07/ RMK SF3SC5

CYQB;2008-01-14 13:00;CYQB 141300Z 08009G18KT 25SM SCT011 OVC048 M07/M11 A3016 RMK SF3SC5 SLP218

CYQB;2008-01-14 14:00;CYQB 141400Z 09013G18KT 25SM FEW012 BKN047 OVC059 M07/M11 A3015 RMK SF2SC3SC2 SLP215

CYQB;2008-01-14 15:00;CYQB 141500Z 07015G22KT 25SM FEW012 OVC063 M07/M11 A3014 RMK SC2AS6 SLP212

CYQB;2008-01-14 16:00;CYQB 141600Z 08018G24KT 25SM FEW012 OVC072 M07/M12 A3012 RMK SC2AS6 SLP206

CYQB;2008-01-14 17:00;CYQB 141700Z 07016G21KT 25SM FEW014 OVC075 M07/M11 A3010 RMK SC2AS6 SLP197

CYQB;2008-01-14 18:00;CYQB 141800Z 07020G25KT 25SM FEW015 OVC072 M06/M12 A3005 RMK SC2AS6 SLP182

CYQB;2008-01-14 19:00;CYQB 141900Z 07014G22KT 30SM FEW015 OVC054 M06/M11 A3002 RMK SC2SC6 SLP171

CYQB;2008-01-14 20:00;CYQB 142000Z 08016KT 20SM -SN FEW015 OVC035 M06/M11 A3001 RMK SC1SC7 SLP169

CYQB;2008-01-14 21:00;CYQB 142100Z 07018KT 25SM FEW015 OVC064 M06/M11 A3000 RMK SC1SC7 SLP164

CYQB;2008-01-14 22:00;CYQB 142200Z 07016G22KT 15SM FEW015 OVC049 M06/M11 A3000 RMK SC1SC7 SLP163

CYQB;2008-01-14 23:00;CYQB 142300Z 06013G21KT 15SM FEW015 OVC068 M06/M11 A2998 RMK SC1AC7 SLP158

CYQB;2008-01-15 00:00;CYQB 150000Z 07007KT 15SM FEW015 OVC068 M06/M11 A2997 RMK SC2AC6 SLP153

CYQB;2008-01-15 01:00;CYQB 150100Z 07007KT 15SM FEW015 BKN063 OVC083 M06/M10 A2996 RMK SC1SC6AS2 SLP150

CYQB;2008-01-15 02:00;CYQB 150200Z 07008KT 15SM FEW015 OVC078 M06/M11 A2995 RMK SC1AC7 SLP146

CYQB;2008-01-15 03:00;CYQB 150300Z 07007KT 15SM FEW015 OVC090 M06/M11 A2992 RMK SC1AC8 SLP138

CYQB;2008-01-15 04:00;CYQB 150400Z 06009KT 15SM FEW015 OVC090 M07/M11 A2991 RMK SC1AC8 SLP133

CYQB;2008-01-15 05:00;CYQB 150500Z 06007KT 15SM FEW015 OVC070 M07/M12 A2987 RMK SC1AC8 SLP121

CYQB;2008-01-15 06:00;CYQB 150600Z 06003KT 15SM OVC075 M07/M12 A2985 RMK AC8 SLP113

CYQB;2008-01-15 07:00;CYQB 150700Z 08003KT 15SM FEW015 OVC075 M07/M12 A2984 RMK SC1AC8 SLP111

CYQB;2008-01-15 08:00;CYQB 150800Z 32002KT 15SM FEW015 OVC090 M07/M12 A2983 RMK SC1AC8 SLP107

CYQB;2008-01-15 09:00;CYQB 150900Z 27004KT 15SM FEW012 OVC075 M09/M12 A2981 RMK SC1AC8 SLP100

CYQB;2008-01-15 10:00;CYQB 151000Z 25003KT 15SM FEW012 OVC090 M09/M13 A2979 RMK SC1AC8 SLP093

CYQB;2008-01-15 11:00;CYQB 151100Z 23004KT 15SM FEW012 OVC090 M09/M13 A2978 RMK SC1AC8 SLP090

CYQB;2008-01-15 12:00;CYQB 151200Z 10003KT 15SM FEW012 BKN110 BKN200 M08/M12 A2978 RMK SC1AC5CI0 SLP090

CYQB;2008-01-15 13:00;CYQB 151300Z 12004KT 8SM -SN FEW009 BKN018 OVC100 M08/M12 A2980 RMK SF2SC5AC2 SLP096

CYQB;2008-01-15 13:44;CYQB 151344Z 24004KT 30SM FEW012 SCT025 BKN220 M08/ RMK SC2SC2CI2

CYQB;2008-01-15 14:00;CYQB 151400Z 29003KT 30SM FEW012 BKN150 BKN220 M08/M11 A2980 RMK SC2AC3CI0 SLP095

CYQB;2008-01-15 15:00;CYQB 151500Z 25005KT 30SM FEW015 SCT150 BKN220 M07/M11 A2980 RMK SC2AC2CI1 SLP095

CYQB;2008-01-15 16:00;CYQB 151600Z 23007KT 30SM FEW015 SCT080 BKN220 M06/M11 A2978 RMK SC2AC2CI1 SLP089

CYQB;2008-01-15 17:00;CYQB 151700Z 24009KT 30SM FEW018 FEW080 BKN220 M06/M11 A2976 RMK SC1AC2CI1 SLP084

CYQB;2008-01-15 18:00;CYQB 151800Z 23009KT 30SM FEW018 FEW080 BKN220 M06/M12 A2975 RMK SC1AC2CI1 SLP080

CYQB;2008-01-15 19:00;CYQB 151900Z 23012KT 30SM FEW090 BKN200 M05/M12 A2975 RMK AC2CI1 SLP078

CYQB;2008-01-15 20:00;CYQB 152000Z 23013KT 30SM FEW090 BKN140 M05/M12 A2975 RMK AC1AC2 SLP080

CYQB;2008-01-15 21:00;CYQB 152100Z 23012KT 30SM FEW120 BKN200 M06/M12 A2976 RMK AC1CI2 SLP082

CYQB;2008-01-15 22:00;CYQB 152200Z 23011KT 30SM FEW120 SCT200 M06/M12 A2976 RMK AC1CI1 SLP084

CYQB;2008-01-15 23:00;CYQB 152300Z 27009KT 15SM FEW120 FEW200 M07/M12 A2978 RMK AC1CI0 SLP088

CYQB;2008-01-16 00:00;CYQB 160000Z 31009KT 15SM SKC M08/M13 A2979 RMK SLP094

CYQB;2008-01-16 02:00;CYQB 160200Z 36007KT 15SM FEW020 M08/M14 A2984 RMK SC1 SLP110

CYQB;2008-01-16 03:00;CYQB 160300Z 35005KT 15SM FEW012 BKN018 M08/M14 A2986 RMK SC1SC6 SLP118

CYQB;2008-01-16 04:00;CYQB 160400Z 34006KT 15SM FEW012 BKN022 M08/M14 A2988 RMK SC1SC6 SLP123

CYQB;2008-01-16 05:00;CYQB 160500Z 34006KT 15SM OVC022 M09/M15 A2989 RMK SC8 SLP126

CYQB;2008-01-16 06:00;CYQB 160600Z 34006KT 15SM BKN023 M09/M15 A2991 RMK SC7 SLP133

CYQB;2008-01-16 07:00;CYQB 160700Z 33008KT 15SM SCT022 M09/M15 A2994 RMK SC3 SLP142

CYQB;2008-01-16 08:00;CYQB 160800Z 30005KT 15SM BKN022 M10/M16 A2997 RMK SC7 SLP152

CYQB;2008-01-16 09:00;CYQB 160900Z 31009KT 15SM BKN024 M09/M15 A3000 RMK SC7 SLP163

CYQB;2008-01-16 10:00;CYQB 161000Z 32004KT 15SM BKN026 M10/M15 A3002 RMK SC7 SLP171

CYQB;2008-01-16 11:00;CYQB 161100Z 30004KT 15SM SCT025 BKN085 M11/M16 A3004 RMK SC4AC2 SLP178

CYQB;2008-01-16 12:00;CYQB 161200Z 29003KT 20SM FEW025 SCT085 M12/M17 A3007 RMK SC2AC2 SLP189

CYQB;2008-01-16 13:00;CYQB 161300Z 20003KT 30SM FEW025 SCT085 M13/M16 A3011 RMK SC1AC3 SLP200

CYQB;2008-01-16 14:00;CYQB 161400Z 19003KT 30SM FEW085 M11/M15 A3013 RMK AC2 SLP209

CYQB;2008-01-16 15:00;CYQB 161500Z 18004KT 30SM FEW085 M09/M14 A3016 RMK AC2 SLP219

CYQB;2008-01-16 16:00;CYQB 161600Z 20005KT 30SM FEW090 M08/M14 A3017 RMK AC2 SLP224

CYQB;2008-01-16 17:00;CYQB 161700Z 25008KT 30SM FEW090 M07/M14 A3017 RMK AC2 SLP224

CYQB;2008-01-16 18:00;CYQB 161800Z 24011KT 30SM FEW090 M07/M13 A3018 RMK AC2 SLP225

CYQB;2008-01-16 19:00;CYQB 161900Z 23014KT 30SM FEW060 M07/M13 A3019 RMK SC1 SLP228

CYQB;2008-01-16 20:00;CYQB 162000Z 23015KT 30SM FEW060 M07/M14 A3022 RMK SC1 SLP238

CYQB;2008-01-16 21:00;CYQB 162100Z 23010KT 30SM FEW050 M08/M14 A3025 RMK SC1 SLP250

CYQB;2008-01-16 22:00;CYQB 162200Z 23007KT 30SM SKC M09/M15 A3028 RMK SLP259

CYQB;2008-01-16 23:00;CYQB 162300Z 22003KT 30SM FEW200 M10/M15 A3030 RMK CI0 SLP268

CYQB;2008-01-17 00:00;CYQB 170000Z 23008KT 30SM FEW070 M10/M15 A3032 RMK AC1 SLP275

CYQB;2008-01-17 01:00;CYQB 170100Z 26009KT 30SM FEW070 M11/M15 A3034 RMK AC1 SLP282

CYQB;2008-01-17 02:00;CYQB 170200Z 24005KT 30SM FEW070 M12/M16 A3035 RMK AC1 SLP285

CYQB;2008-01-17 03:00;CYQB 170300Z 24004KT 15SM FEW070 M13/M16 A3036 RMK AC1 SLP287

CYQB;2008-01-17 04:00;CYQB 170400Z 23007KT 15SM SKC M12/M16 A3037 RMK SLP291

CYQB;2008-01-17 05:00;CYQB 170500Z 00000KT 15SM FEW070 M14/M17 A3036 RMK AC1 SLP289

CYQB;2008-01-17 06:00;CYQB 170600Z 29002KT 15SM FEW070 M16/M19 A3036 RMK AC1 SLP289

CYQB;2008-01-17 07:00;CYQB 170700Z 00000KT 15SM FEW070 M16/M22 A3036 RMK AC1 SLP288

CYQB;2008-01-17 08:00;CYQB 170800Z 36002KT 15SM FEW070 M18/M23 A3037 RMK AC1 SLP291

CYQB;2008-01-17 09:00;CYQB 170900Z 34002KT 15SM FEW070 M16/M20 A3036 RMK AC1 SLP289

CYQB;2008-01-17 10:00;CYQB 171000Z 04002KT 15SM FEW070 M17/M20 A3037 RMK AC1 SLP290

CYQB;2008-01-17 11:00;CYQB 171100Z 00000KT 15SM FEW003 SCT070 M18/M24 A3037 RMK SF2AC0 SLP292

CYQB;2008-01-17 11:23;CYQB 171123Z 00000KT 15SM BKN003 BKN070 M19/ RMK ST5AC0

CYQB;2008-01-17 11:39;CYQB 171139Z 00000KT 15SM SCT004 BKN150 M18/ RMK ST3AC3

CYQB;2008-01-17 12:00;CYQB 171200Z 00000KT 15SM FEW004 BKN150 BKN170 M18/M22 A3037 RMK ST1CI5CI0 SLP292

CYQB;2008-01-17 13:00;CYQB 171300Z 00000KT 15SM FEW002 BKN150 M17/M21 A3037 RMK ST1AC6 SLP292

CYQB;2008-01-17 14:00;CYQB 171400Z 00000KT 30SM FEW150 BKN210 M14/M19 A3037 RMK AC1CS2 SLP291

CYQB;2008-01-17 15:00;CYQB 171500Z 26002KT 30SM FEW150 BKN210 M11/M13 A3036 RMK AC1CC2 SLP288

CYQB;2008-01-17 16:00;CYQB 171600Z 00000KT 30SM FEW150 BKN210 M11/M15 A3033 RMK AC2CC1 SLP278

CYQB;2008-01-17 17:00;CYQB 171700Z 08002KT 30SM BKN150 M10/M14 A3029 RMK AC6 SLP265

CYQB;2008-01-17 18:00;CYQB 171800Z 00000KT 30SM BKN150 BKN190 M06/M14 A3026 RMK AC5CI1 SLP253

CYQB;2008-01-17 19:00;CYQB 171900Z 00000KT 30SM BKN180 BKN220 M06/M13 A3024 RMK AC5CI0 SLP246

CYQB;2008-01-17 20:00;CYQB 172000Z 00000KT 30SM SCT150 BKN220 M08/M14 A3023 RMK AC3CS2 SLP243

CYQB;2008-01-17 21:00;CYQB 172100Z 11002KT 30SM FEW120 BKN150 OVC220 M07/M14 A3021 RMK AC2AC3CS0 SLP237

CYQB;2008-01-17 22:00;CYQB 172200Z 03003KT 15SM BKN120 OVC150 M07/M13 A3020 RMK AC5AS2 SLP232

CYQB;2008-01-17 23:00;CYQB 172300Z 03005KT 15SM BKN150 OVC170 M07/M13 A3018 RMK AC5AS2 SLP226

CYQB;2008-01-18 00:00;CYQB 180000Z 04004KT 15SM BKN090 OVC120 M07/M13 A3015 RMK AC5AC3 SLP216

CYQB;2008-01-18 01:00;CYQB 180100Z 02004KT 15SM SCT085 BKN100 OVC120 M07/M12 A3012 RMK AC4AC2AC2 SLP207

CYQB;2008-01-18 02:00;CYQB 180200Z 05005KT 15SM BKN086 OVC100 M07/M13 A3011 RMK AC5AC3 SLP203

CYQB;2008-01-18 03:00;CYQB 180300Z 03005KT 15SM BKN120 OVC140 M07/M12 A3010 RMK AC6AS0 SLP198

CYQB;2008-01-18 04:00;CYQB 180400Z 06005KT 15SM FEW100 OVC140 M06/M11 A3008 RMK AC2AC6 SLP191

CYQB;2008-01-18 05:00;CYQB 180500Z 07007KT 15SM BKN041 BKN080 OVC120 M05/M10 A3005 RMK SC5AC2AC1 SLP180

CYQB;2008-01-18 06:00;CYQB 180600Z 07007KT 15SM BKN049 OVC080 M05/M10 A3001 RMK SC7AC1 SLP166

CYQB;2008-01-18 06:50;CYQB 180650Z 07007KT 15SM -SHSN OVC033 M05/ RMK SC8

CYQB;2008-01-18 07:00;CYQB 180700Z 07007KT 15SM -SHSN OVC034 M05/M09 A2997 RMK SC8 SLP153

CYQB;2008-01-18 07:30;CYQB 180730Z 08006KT 2SM -SHSN VV014 M05/ RMK SN8

CYQB;2008-01-18 07:40;CYQB 180740Z 08005KT 3SM -SHSN OVC030 M05/ RMK SC8

CYQB;2008-01-18 08:00;CYQB 180800Z 07004KT 4SM -SHSN OVC032 M05/M08 A2994 RMK SC8 SLP145

CYQB;2008-01-18 09:00;CYQB 180900Z 07007KT 6SM -SHSN OVC028 M05/M07 A2989 RMK SC8 SLP126

CYQB;2008-01-18 09:33;CYQB 180933Z 07007KT 1 1/2SM -SN OVC028 M05/ RMK SN2SC6

CYQB;2008-01-18 10:00;CYQB 181000Z 07008KT 1 1/2SM -SN OVC032 M05/M07 A2983 RMK SN2SC6 /S01/ SLP107

CYQB;2008-01-18 10:20;CYQB 181020Z 07008KT 6SM -SN OVC032 M05/ RMK SC8

CYQB;2008-01-18 10:26;CYQB 181026Z 08008KT 3/8SM R06/P6000FT/D SN VV003 M05/ RMK SN8

CYQB;2008-01-18 11:00;CYQB 181100Z 07009KT 1 1/2SM -SN OVC010 M05/M07 A2979 RMK SC8 SLP094

CYQB;2008-01-18 11:19;CYQB 181119Z 07009KT 3/8SM R06/P6000FT/D SN VV005 M04/ RMK SN8

CYQB;2008-01-18 12:00;CYQB 181200Z 07010KT 3/8SM R06/P6000FT/D SN VV004 M04/M06 A2974 RMK SN8 /S01/ SLP075

CYQB;2008-01-18 12:28;CYQB 181228Z 07010KT 1/4SM R06/3000FT/N +SN VV002 M04/ RMK SN8

CYQB;2008-01-18 13:00;CYQB 181300Z 07008KT 1/4SM R06/2800V4000FT/N +SN VV003 M04/M06 A2969 RMK SN8 /S02/ SLP058

CYQB;2008-01-18 14:00;CYQB 181400Z 07007KT 1/4SM R06/3500V4500FT/D +SN VV003 M03/M05 A2966 RMK SN8 /S04/ SLP050

CYQB;2008-01-18 15:00;CYQB 181500Z 06005KT 3/8SM R06/3500FT/D SN VV003 M03/M05 A2964 RMK SN8 /S05/ SLP042

CYQB;2008-01-18 15:15;CYQB 181515Z 05003KT 1/2SM R06/2600FT/N SN OVC003 M03/ RMK SN2ST6

CYQB;2008-01-18 15:43;CYQB 181543Z 36004KT 3/4SM R06/5500FT/U -SN OVC007 M02/ RMK SN2ST6

CYQB;2008-01-18 16:00;CYQB 181600Z 00000KT 3/4SM R06/3000V5500FT/U -SN OVC009 M02/M04 A2961 RMK SN4ST4 SLP030

CYQB;2008-01-18 16:18;CYQB 181618Z 04002KT 4SM -SN BKN007 OVC016 M02/ RMK ST6SC2

CYQB;2008-01-18 16:41;CYQB 181641Z 02002KT 4SM BR OVC014 M01/ RMK SC8

CYQB;2008-01-18 17:00;CYQB 181700Z 35002KT 6SM BKN011 OVC022 M01/M03 A2955 RMK SC6SC2 SLP012

CYQB;2008-01-18 17:32;CYQB 181732Z 22015KT 8SM BKN020 BKN027 02/ RMK SC5SC2

CYQB;2008-01-18 18:00;CYQB 181800Z 23018G25KT 15SM BKN025 OVC030 02/M02 A2950 RMK SC6SC2 VIS 3 NW QUAD SLP995

CYQB;2008-01-18 19:00;CYQB 181900Z 24020G26KT 8SM -SHSN BKN028 OVC040 02/M03 A2949 RMK SC6SC2 SLP989

CYQB;2008-01-18 20:00;CYQB 182000Z 23024G38KT 8SM -SHSN BKN028 OVC050 01/M05 A2950 RMK SC6SC2 SLP994

CYQB;2008-01-18 21:00;CYQB 182100Z 25023G29KT 10SM SCT028 BKN045 00/M05 A2955 RMK SC3SC4 SLP011

CYQB;2008-01-18 22:00;CYQB 182200Z 24029G37KT 8SM BKN032 OVC050 M01/M07 A2960 RMK SC5SC3 SLP026

CYQB;2008-01-18 22:48;CYQB 182248Z 25023G33KT 6SM -SN SCT030 OVC045 M03/ RMK SC3SC5

CYQB;2008-01-18 23:00;CYQB 182300Z 25026G33KT 6SM -SN SCT030 OVC045 M03/M07 A2964 RMK SC3SC5 SLP041

CYQB;2008-01-19 00:00;CYQB 190000Z 25026G34KT 6SM -SN FEW030 OVC060 M03/M08 A2966 RMK SC1SC7 SLP048

CYQB;2008-01-19 01:00;CYQB 190100Z 25024G32KT 6SM -SN FEW030 OVC060 M04/M08 A2968 RMK SC1SC7 SLP056

CYQB;2008-01-19 02:00;CYQB 190200Z 25026G36KT 6SM -SN OVC060 M04/M08 A2970 RMK SC8 SLP060

CYQB;2008-01-19 03:00;CYQB 190300Z 25026G36KT 1 1/2SM -SN BLSN SCT012 BKN025 OVC060 M04/M07 A2974 RMK SF3SC3SC2 PRESRR SLP074

CYQB;2008-01-19 03:16;CYQB 190316Z 26025G30KT 5SM -SHSN BLSN BKN025 OVC035 M04/ RMK SC6SC2

CYQB;2008-01-19 04:00;CYQB 190400Z 27019G26KT 1 1/4SM -SHSN BLSN OVC017 M05/M08 A2980 RMK SN3SC5 SLP096

CYQB;2008-01-19 04:29;CYQB 190429Z 29016G24KT 10SM -SHSN BKN020 OVC035 M05/ REBLSN RMK SC6SC2

CYQB;2008-01-19 05:00;CYQB 190500Z 28013KT 15SM BKN028 M06/M12 A2984 REBLSN RMK SC5 SLP108

CYQB;2008-01-19 06:00;CYQB 190600Z 25011G17KT 15SM FEW028 FEW180 M08/M14 A2986 RMK SC2AC1 SLP116

CYQB;2008-01-19 07:00;CYQB 190700Z 29008KT 15SM BKN058 BKN150 M08/M14 A2987 RMK SC6AC1 SLP120

CYQB;2008-01-19 08:00;CYQB 190800Z 20005KT 15SM OVC061 M09/M15 A2987 RMK SC8 SLP118

CYQB;2008-01-19 09:00;CYQB 190900Z 25006KT 15SM FEW028 BKN140 M10/M15 A2986 RMK SC2AC6 SLP117

CYQB;2008-01-19 10:00;CYQB 191000Z 24005KT 15SM BKN120 M10/M14 A2985 RMK AC7 SLP112

CYQB;2008-01-19 11:00;CYQB 191100Z 25009KT 15SM BKN022 OVC046 M08/M12 A2985 RMK SC5SC3 SLP114

CYQB;2008-01-19 12:00;CYQB 191200Z 26008KT 15SM BKN026 OVC051 M08/M12 A2985 RMK SC6SC2 VIS NW-NE 4 SLP113

CYQB;2008-01-19 12:09;CYQB 191209Z 25008KT 10SM -SHSN BKN025 OVC048 M07/ RMK SC6SC2 VIS NW-NE 2

CYQB;2008-01-19 12:50;CYQB 191250Z 24012G17KT 15SM BKN039 OVC061 M06/ RMK SC6SC2

CYQB;2008-01-19 13:00;CYQB 191300Z 24015KT 15SM BKN047 OVC057 M06/M11 A2985 RMK SC6SC2 SLP112

CYQB;2008-01-19 13:46;CYQB 191346Z 24017KT 15SM -SHSN OVC030 M06/ RMK SC8 PCPN VRY LGT

CYQB;2008-01-19 14:00;CYQB 191400Z 24015G20KT 15SM -SHSN OVC030 M05/M11 A2983 RMK SC8 PCPN VRY LGT SLP108

CYQB;2008-01-19 14:31;CYQB 191431Z 24015KT 15SM OVC031 M05/ RMK SC8

CYQB;2008-01-19 15:00;CYQB 191500Z 25019G28KT 15SM OVC026 M06/M10 A2983 RMK SC8 SLP108

CYQB;2008-01-19 15:24;CYQB 191524Z 25017G26KT 4SM -SHSN OVC024 M05/ RMK SC8

CYQB;2008-01-19 15:42;CYQB 191542Z 25018G25KT 3/4SM R06/P6000FT/N -SHSN OVC021 M06/ RMK SN4SC4

CYQB;2008-01-19 16:00;CYQB 191600Z 25013G18KT 1 1/2SM -SHSN OVC023 M05/M09 A2981 RMK SN4SC4 SLP099

CYQB;2008-01-19 16:23;CYQB 191623Z 25016G21KT 2 1/2SM -SHSN OVC014 M05/ RMK SC8

CYQB;2008-01-19 17:00;CYQB 191700Z 25018G25KT 3SM -SHSN BKN016 OVC020 M05/M08 A2980 RMK SC5SC3 VIS HIER SE-SW SLP095

CYQB;2008-01-19 17:30;CYQB 191730Z 25018KT 1 1/2SM -SHSN BKN015 OVC030 M05/ RMK SN2SC5SC2

CYQB;2008-01-19 17:47;CYQB 191747Z 26016KT 2SM -SHSN BKN019 OVC030 M05/ RMK SN2SC5SC2

CYQB;2008-01-19 18:00;CYQB 191800Z 25014KT 1 1/2SM -SHSN BKN020 OVC024 M05/M08 A2977 RMK SN2SC4SC2 SLP087

CYQB;2008-01-19 19:00;CYQB 191900Z 27012G17KT 2 1/2SM -SHSN BKN019 OVC033 M05/M08 A2978 RMK SC5SC3 SLP088

CYQB;2008-01-19 19:05;CYQB 191905Z 27011G17KT 3SM -SHSN SCT019 BKN035 OVC042 M05/ RMK SC4SC3SC1

CYQB;2008-01-19 20:00;CYQB 192000Z 27008KT 10SM FEW015 SCT040 BKN060 OVC120 M05/M09 A2977 RMK CU2SC2SC2AC1 OCNL -SHSN SLP085

CYQB;2008-01-19 21:00;CYQB 192100Z 28006KT 10SM -SHSN FEW015 BKN028 BKN055 M05/M09 A2978 RMK CU2SC3SC2 VIS 3 N QUAD SLP090

CYQB;2008-01-19 22:00;CYQB 192200Z 30003KT 15SM FEW030 SCT045 SCT065 M07/M12 A2981 RMK SC2SC1SC1 VIS 3 N QUAD DUE -SHSN SLP099

CYQB;2008-01-19 23:00;CYQB 192300Z 31006KT 15SM OVC044 M07/M14 A2982 RMK SC8 SLP103

CYQB;2008-01-20 00:00;CYQB 200000Z 27009KT 15SM BKN055 BKN088 M08/M16 A2983 RMK SC5AC2 SLP107

CYQB;2008-01-20 01:00;CYQB 200100Z 33003KT 15SM FEW060 BKN095 M09/M16 A2983 RMK SC2AC2 SLP108

CYQB;2008-01-20 02:00;CYQB 200200Z 27005KT 15SM FEW060 BKN094 M09/M17 A2986 RMK SC2AC5 SLP115

CYQB;2008-01-20 03:00;CYQB 200300Z 25006KT 15SM FEW060 BKN082 M11/M17 A2986 RMK SC2AC5 SLP116

CYQB;2008-01-20 04:00;CYQB 200400Z 25008KT 15SM FEW070 M13/M18 A2987 RMK AC2 SLP120

CYQB;2008-01-20 05:00;CYQB 200500Z 27008KT 15SM BKN076 M14/M19 A2988 RMK AC6 SLP124

CYQB;2008-01-20 06:00;CYQB 200600Z 28008KT 15SM BKN080 M14/M20 A2988 RMK AC5 SLP124

CYQB;2008-01-20 07:00;CYQB 200700Z 27008KT 15SM FEW080 M16/M21 A2987 RMK AC2 SLP121

CYQB;2008-01-20 08:00;CYQB 200800Z 29008KT 15SM SKC M16/M22 A2986 RMK SLP119

CYQB;2008-01-20 09:00;CYQB 200900Z 28009KT 15SM SKC M18/M24 A2988 RMK SLP124

CYQB;2008-01-20 10:00;CYQB 201000Z 27008KT 15SM SKC M20/M26 A2990 RMK SLP130

CYQB;2008-01-20 11:00;CYQB 201100Z 23008KT 15SM SKC M21/M28 A2993 RMK SLP141

CYQB;2008-01-20 12:00;CYQB 201200Z 25013KT 20SM FEW040 M22/M29 A2995 RMK SC1 SLP150

CYQB;2008-01-20 13:00;CYQB 201300Z 25012KT 30SM SKC M23/M29 A2997 RMK SLP157

CYQB;2008-01-20 14:00;CYQB 201400Z 23010KT 30SM SKC M22/M29 A3000 RMK SLP165

CYQB;2008-01-20 15:00;CYQB 201500Z 25013KT 30SM SKC M21/M28 A3001 RMK SLP170

CYQB;2008-01-20 16:00;CYQB 201600Z 25015KT 30SM FEW025 M20/M28 A3000 RMK CF1 SLP165

CYQB;2008-01-20 17:00;CYQB 201700Z 27013KT 30SM FEW025 M19/M27 A2998 RMK CF1 SLP160

CYQB;2008-01-20 18:00;CYQB 201800Z 27016KT 30SM FEW030 M18/M27 A2997 RMK CF1 SLP157

CYQB;2008-01-20 19:00;CYQB 201900Z 27015G20KT 30SM FEW030 M18/M27 A2999 RMK CF2 SLP162

CYQB;2008-01-20 20:00;CYQB 202000Z 27012KT 30SM FEW032 SCT200 M18/M27 A3000 RMK CF2CI0 SLP167

CYQB;2008-01-20 21:00;CYQB 202100Z 28008KT 30SM FEW030 FEW080 M19/M28 A3002 RMK CF2AC1 SLP174

CYQB;2008-01-20 22:00;CYQB 202200Z 25005KT 15SM FEW030 FEW080 M20/M28 A3004 RMK CF1AC1 SLP180

CYQB;2008-01-20 23:00;CYQB 202300Z 32004KT 15SM FEW035 FEW050 M21/M29 A3007 RMK CF1SC2 SLP189

CYQB;2008-01-21 00:00;CYQB 210000Z 32004KT 15SM FEW030 BKN079 BKN100 M21/M27 A3009 RMK SC1AC2AC0 SLP198

CYQB;2008-01-21 01:00;CYQB 210100Z 30004KT 15SM FEW030 BKN083 M21/M29 A3011 RMK SC1AC3 SLP204

CYQB;2008-01-21 02:00;CYQB 210200Z 31012G17KT 15SM BKN075 M20/M29 A3013 RMK AC1 SLP210

CYQB;2008-01-21 03:00;CYQB 210300Z 30008KT 15SM SCT080 M22/M31 A3016 RMK AC4 SLP223

CYQB;2008-01-21 04:00;CYQB 210400Z 30009KT 15SM FEW070 M22/M31 A3022 RMK AC2 SLP241

CYQB;2008-01-21 05:00;CYQB 210500Z 29010G16KT 15SM FEW070 M23/M33 A3024 RMK AC1 SLP250

CYQB;2008-01-21 06:00;CYQB 210600Z 29009KT 15SM FEW040 FEW210 M24/M33 A3028 RMK SC1CI1 SLP261

CYQB;2008-01-21 07:00;CYQB 210700Z 27009KT 15SM SKC M26/M33 A3031 RMK SLP274

CYQB;2008-01-21 08:00;CYQB 210800Z 25010KT 15SM SKC M26/M33 A3034 RMK SLP283

CYQB;2008-01-21 09:00;CYQB 210900Z 26014KT 15SM SKC M27/M34 A3036 RMK SLP289

CYQB;2008-01-21 10:00;CYQB 211000Z 26010KT 15SM FEW025 M27/M34 A3038 RMK SC1 SLP296

CYQB;2008-01-21 11:00;CYQB 211100Z 27013KT 15SM FEW025 FEW220 M28/M34 A3041 RMK SC1CI1 SLP307

CYQB;2008-01-21 12:00;CYQB 211200Z 27012KT 30SM FEW020 FEW140 FEW200 M28/M34 A3044 RMK SC1AC1CI1 AC LENTICULAR E SLP317

CYQB;2008-01-21 13:00;CYQB 211300Z 28010KT 30SM FEW150 FEW200 M28/M34 A3045 RMK AC1CI1 AC LENTICULAR SLP322

CYQB;2008-01-21 14:00;CYQB 211400Z 27012KT 30SM FEW150 FEW200 M24/M32 A3046 RMK AC1CI1 AC LENTICULAR VIS 3 SE QUAD SLP325

CYQB;2008-01-21 15:00;CYQB 211500Z 25013KT 30SM FEW150 FEW200 M23/M30 A3047 RMK AC1CI1 SLP329

CYQB;2008-01-21 16:00;CYQB 211600Z 26012KT 30SM FEW015 FEW150 M22/M29 A3047 RMK CF1AC1 SLP328

CYQB;2008-01-21 17:00;CYQB 211700Z 26013KT 30SM FEW015 FEW035 M20/M28 A3046 RMK CF1SC1 SLP325

CYQB;2008-01-21 18:00;CYQB 211800Z 26016KT 30SM FEW020 FEW035 M20/M28 A3046 RMK CF1SC1 SLP324

CYQB;2008-01-21 19:00;CYQB 211900Z 26016KT 30SM FEW020 FEW035 M19/M28 A3045 RMK CF1SC1 SLP322

CYQB;2008-01-21 20:00;CYQB 212000Z 25010G15KT 30SM FEW020 FEW035 FEW200 M18/M26 A3046 RMK CF1SC1CI1 SLP323

CYQB;2008-01-21 21:00;CYQB 212100Z 26008KT 30SM FEW020 FEW035 SCT200 M19/M27 A3047 RMK CF1SC1CI0 SLP327

CYQB;2008-01-21 22:00;CYQB 212200Z 28002KT 30SM FEW020 FEW200 M20/M29 A3048 RMK CF1CI0 SLP330

CYQB;2008-01-21 23:00;CYQB 212300Z 00000KT 30SM FEW200 M21/M27 A3048 RMK CI0 SLP330

CYQB;2008-01-22 00:00;CYQB 220000Z 00000KT 30SM FEW200 M22/M29 A3049 RMK CI1 SLP334

CYQB;2008-01-22 01:00;CYQB 220100Z 00000KT 30SM FEW180 M22/M28 A3050 RMK AC1 SLP338

CYQB;2008-01-22 02:00;CYQB 220200Z 00000KT 30SM BKN170 M21/M27 A3050 RMK AC2 SLP337

CYQB;2008-01-22 03:00;CYQB 220300Z 02005KT 15SM SCT140 M22/M28 A3047 RMK AC2 SLP329

CYQB;2008-01-22 04:00;CYQB 220400Z 00000KT 15SM FEW120 M23/M29 A3047 RMK AC2 SLP328

CYQB;2008-01-22 05:00;CYQB 220500Z 34002KT 15SM FEW053 BKN120 M23/M30 A3044 RMK SC2AC2 SLP317

CYQB;2008-01-22 05:43;CYQB 220543Z 03002KT 10SM -SHSN FEW022 BKN048 BKN120 M22/ RMK SC2SC3AC2

CYQB;2008-01-22 06:00;CYQB 220600Z 02004KT 8SM -SHSN SCT022 BKN048 M22/M28 A3042 RMK SC4SC2 SLP311

CYQB;2008-01-22 07:00;CYQB 220700Z 03004KT 6SM -SHSN BKN019 OVC045 M21/M26 A3041 RMK SC6SC2 SLP305

CYQB;2008-01-22 08:00;CYQB 220800Z 02004KT 12SM -SHSN BKN030 BKN045 OVC120 M21/M26 A3038 RMK SC5SC2AC0 SLP296

CYQB;2008-01-22 08:51;CYQB 220851Z 04003KT 3SM -SHSN OVC025 M20/ RMK SC8

CYQB;2008-01-22 09:00;CYQB 220900Z 00000KT 6SM -SN BKN022 OVC028 M20/M25 A3035 RMK SC6SC2 SLP287

CYQB;2008-01-22 10:00;CYQB 221000Z 02003KT 1 3/4SM -SN OVC022 M19/M24 A3032 RMK SN3SC5 SLP275

CYQB;2008-01-22 10:27;CYQB 221027Z 02002KT 3SM -SN FEW015 OVC022 M19/ RMK SF2SC6

CYQB;2008-01-22 11:00;CYQB 221100Z 02003KT 4SM -SN FEW012 BKN020 OVC030 M19/M23 A3029 RMK SF2SC6SC1 SLP266

CYQB;2008-01-22 11:29;CYQB 221129Z 02004KT 4SM -SN FEW009 BKN020 OVC028 M18/ RMK SF2SC5SC1

CYQB;2008-01-22 11:52;CYQB 221152Z 01004KT 2SM -SN FEW008 BKN012 OVC020 M18/ RMK SF2SC5SC1

CYQB;2008-01-22 12:00;CYQB 221200Z 02003KT 2SM -SN FEW008 BKN012 OVC020 M18/M22 A3026 RMK SF2SC5SC1 SLP257

CYQB;2008-01-22 13:00;CYQB 221300Z 04002KT 1 1/4SM -SN BKN007 OVC012 M17/M21 A3023 RMK SN4SF2SC2 /S01/ SLP246

CYQB;2008-01-22 13:52;CYQB 221352Z 05003KT 3/4SM R06/P6000FT/D -SN OVC006 M16/ RMK SN6SF2

CYQB;2008-01-22 14:00;CYQB 221400Z 04004KT 3/4SM R06/5500FT/D -SN OVC006 M16/M20 A3020 RMK SN6SF2 SLP236

CYQB;2008-01-22 14:13;CYQB 221413Z 03004KT 1 1/2SM -SN BKN006 OVC020 M15/ RMK SN2SF4SC2

CYQB;2008-01-22 15:00;CYQB 221500Z 03004KT 1 1/2SM -SN BKN008 OVC020 M14/M18 A3015 RMK SN2SF3SC2 SLP217

CYQB;2008-01-22 16:00;CYQB 221600Z 04005KT 1SM R06/P6000FT/D -SN BKN008 OVC016 M13/M17 A3009 RMK SN5SF2SC2 SLP198

CYQB;2008-01-22 16:32;CYQB 221632Z 04005KT 3/4SM R06/4000FT/N -SN OVC006 M12/ RMK SN6SF2

CYQB;2008-01-22 17:00;CYQB 221700Z 03005KT 3/4SM R06/4500FT/N -SN OVC006 M12/M16 A3003 RMK SN6SF2 PRESFR /S03/ SLP176

CYQB;2008-01-22 17:39;CYQB 221739Z 05006KT 5/8SM R06/3000FT/D -SN OVC005 M11/ RMK SN6SF2 PRESFR

CYQB;2008-01-22 18:00;CYQB 221800Z CCA 05005KT 3/4SM R06/4500FT/N -SN OVC006 M11/M14 A2995 RMK SN6SF2 PRESFR /S03/ SLP150

CYQB;2008-01-22 18:42;CYQB 221842Z 06005KT 3/4SM R06/3500FT/N -SN OVC007 M10/ RMK SN6SF2 PRESFR

CYQB;2008-01-22 19:00;CYQB 221900Z 07006KT 3/4SM R06/4500FT/U -SN OVC007 M10/M13 A2990 RMK SN5SF3 SLP133

CYQB;2008-01-22 19:28;CYQB 221928Z 06004KT 1SM R06/6000FT/U -SN OVC008 M10/ RMK SN4SF4

CYQB;2008-01-22 20:00;CYQB 222000Z 06003KT 1 1/4SM -SN OVC014 M10/M13 A2989 RMK SC8 /S01/ SLP129

CYQB;2008-01-22 20:30;CYQB 222030Z 07003KT 1SM R06/P6000FT/U -SN OVC014 M10/ RMK SC8

CYQB;2008-01-22 21:00;CYQB 222100Z 07004KT 1SM R06/P6000FT/N -SN OVC008 M10/M13 A2987 RMK SN2SC6 SLP121

CYQB;2008-01-22 22:00;CYQB 222200Z 07004KT 1SM R06/P6000FT/D -SN OVC007 M10/M13 A2983 RMK SN2SC6 SLP109

CYQB;2008-01-22 23:00;CYQB 222300Z 07004KT 1SM R06/P6000FT/U -SN OVC009 M10/M12 A2981 RMK SN2SC6 /S03/ SLP102

CYQB;2008-01-22 23:33;CYQB 222333Z 06005KT 2 1/2SM -SN OVC018 M10/ RMK SC8

CYQB;2008-01-23 00:00;CYQB 230000Z 05004KT 3SM -SN SCT009 OVC026 M10/M12 A2978 RMK SC4SC4 SLP091

CYQB;2008-01-23 01:00;CYQB 230100Z 05005KT 1 1/2SM -SN SCT010 OVC028 M10/M12 A2975 RMK SC4SC3 MOON DIMLY VISBL /S01/ SLP079

CYQB;2008-01-23 01:47;CYQB 230147Z 07005KT 2SM -SN BKN016 OVC031 M10/ RMK SC5SC2 MOON DIMLY VISBL

CYQB;2008-01-23 02:00;CYQB 230200Z 07006KT 2SM -SN BKN012 OVC032 M10/M12 A2971 RMK SC6SC2 SLP066

CYQB;2008-01-23 02:33;CYQB 230233Z 07008KT 1 1/2SM -SN VV009 M09/ RMK SN8

CYQB;2008-01-23 03:00;CYQB 230300Z 06008KT 1 1/2SM -SN VV010 M09/M12 A2968 RMK SN8 SLP058

CYQB;2008-01-23 04:00;CYQB 230400Z CCA 05006KT 1 1/2SM -SN VV011 M09/M12 A2967 RMK SN8 /S03/ SLP052

CYQB;2008-01-23 05:00;CYQB 230500Z 35002KT 1 1/2SM -SN VV008 M09/M12 A2966 RMK SN8 SLP050

CYQB;2008-01-23 06:00;CYQB 230600Z CCA 00000KT 2SM -SN BKN011 OVC030 M09/M12 A2968 RMK SN3SF3SC2 /S04/ SLP055

CYQB;2008-01-23 07:00;CYQB 230700Z 24003KT 3SM -SN BKN022 BKN034 M09/M12 A2970 RMK SC6SC2 SLP063

CYQB;2008-01-23 08:00;CYQB 230800Z 24008KT 4SM -SN OVC026 M09/M12 A2972 RMK SC8 SLP070

CYQB;2008-01-23 09:00;CYQB 230900Z 24008KT 15SM FEW025 M11/M14 A2973 RMK SC2 SLP074

CYQB;2008-01-23 10:00;CYQB 231000Z 24010KT 15SM FEW025 M13/M16 A2975 RMK SC1 SLP079

CYQB;2008-01-23 11:00;CYQB 231100Z 26009KT 15SM FEW015 M15/M18 A2977 RMK SC1 SLP086

CYQB;2008-01-23 12:00;CYQB 231200Z 26011KT 15SM FEW059 BKN072 M13/M16 A2979 RMK SC1AS2 SLP094

CYQB;2008-01-23 12:17;CYQB 231217Z 26009KT 6SM -SHSN FEW034 BKN100 M13/ RMK SC2AC2

CYQB;2008-01-23 13:00;CYQB 231300Z 24008KT 10SM -SHSN FEW030 BKN045 BKN080 M13/M16 A2979 RMK SC1SC4AC2 SLP094

CYQB;2008-01-23 13:37;CYQB 231337Z 25008KT 1 1/2SM -SHSN SCT017 BKN034 M12/ RMK SN1SC2SC3

CYQB;2008-01-23 14:00;CYQB 231400Z 25007KT 1 1/2SM -SHSN FEW020 BKN030 M12/M15 A2979 RMK SN1SC2SC4 SLP094

CYQB;2008-01-23 15:00;CYQB 231500Z 23004KT 1 1/2SM -SHSN BKN030 M12/M15 A2979 RMK SN1SC6 SLP093

CYQB;2008-01-23 16:00;CYQB 231600Z 23003KT 2SM -SHSN FEW022 FEW033 BKN080 M11/M14 A2977 RMK SC1SC2AC2 SLP088

CYQB;2008-01-23 16:22;CYQB 231622Z 24005KT 1SM R06/P6000FT/N -SHSN OVC020 M10/ RMK SN2SC5

CYQB;2008-01-23 16:45;CYQB 231645Z 24008KT 3SM -SHSN FEW026 BKN080 M09/ RMK SC2AC2

CYQB;2008-01-23 17:00;CYQB 231700Z 25009KT 6SM -SHSN FEW025 BKN082 M09/M12 A2975 RMK SC2AC2 SLP080

CYQB;2008-01-23 17:33;CYQB 231733Z 25010KT 15SM BKN016 M08/ RMK SC6

CYQB;2008-01-23 18:00;CYQB 231800Z 26016KT 20SM BKN016 BKN080 M08/M11 A2974 RMK SC6AC1 SLP075

CYQB;2008-01-23 19:00;CYQB 231900Z 25014KT 15SM BKN027 BKN032 M07/M11 A2973 RMK SC6SC1 SLP073

CYQB;2008-01-23 20:00;CYQB 232000Z 24028G36KT 10SM DRSN SCT030 BKN054 M08/M11 A2973 RMK SC3SC2 SLP074

CYQB;2008-01-23 20:40;CYQB 232040Z 25026G31KT 3SM BLSN FEW012 BKN024 M08/ RMK SC2SC4

CYQB;2008-01-23 20:50;CYQB 232050Z 25019G32KT 5SM -SHSN BLSN FEW016 BKN029 M08/ RMK SC2SC5 VIS HIGHER NW

CYQB;2008-01-23 21:00;CYQB 232100Z 25025G34KT 1/2SM R06/4000VP6000FT/D -SHSN BLSN FEW008 BKN022 M08/M11 A2976 RMK SF2SC6 SLP082

CYQB;2008-01-23 21:07;CYQB 232107Z 27020G30KT 3SM -SHSN BLSN SCT022 BKN049 M08/ RMK SC4SC3

CYQB;2008-01-23 21:18;CYQB 232118Z 27022G28KT 3/4SM R06/4000VP6000FT/D -SHSN BLSN OVC068 M09/ RMK SN2AC5

CYQB;2008-01-23 21:26;CYQB 232126Z 27021G29KT 3SM -SHSN BLSN BKN051 M09/ RMK SC6 TCU ASOCTD

CYQB;2008-01-23 21:47;CYQB 232147Z 26017KT 15SM DRSN FEW020 SCT050 M09/ RMK CU2SC2

CYQB;2008-01-23 22:00;CYQB 232200Z 28019KT 15SM DRSN FEW020 SCT065 M10/M14 A2981 RMK CU1SC2 SLP100

CYQB;2008-01-23 23:00;CYQB 232300Z 28020G26KT 15SM DRSN FEW056 M12/M18 A2987 RMK SC2 PRESRR SLP120

CYQB;2008-01-24 00:00;CYQB 240000Z 29018KT 15SM DRSN FEW055 M14/M20 A2993 RMK SC2 PRESRR SLP143

CYQB;2008-01-24 01:00;CYQB 240100Z 28018KT 15SM SKC M16/M22 A2997 RMK SLP154

CYQB;2008-01-24 02:00;CYQB 240200Z 30010G18KT 15SM SKC M17/M23 A2999 RMK SLP163

CYQB;2008-01-24 03:00;CYQB 240300Z 27013KT 15SM SKC M19/M23 A3001 RMK SLP168

CYQB;2008-01-24 04:00;CYQB 240400Z 32004KT 15SM SKC M20/M27 A3003 RMK SLP174

CYQB;2008-01-24 05:00;CYQB 240500Z 30003KT 15SM SKC M20/M27 A3003 RMK SLP175

CYQB;2008-01-24 06:00;CYQB 240600Z 19003KT 15SM SKC M22/M28 A3004 RMK SLP180

CYQB;2008-01-24 07:00;CYQB 240700Z 29003KT 15SM SKC M22/M28 A3005 RMK SLP184

CYQB;2008-01-24 08:00;CYQB 240800Z 27004KT 15SM FEW210 M25/M30 A3005 RMK CI0 SLP183

CYQB;2008-01-24 09:00;CYQB 240900Z 31002KT 15SM FEW210 M25/M30 A3006 RMK CI0 SLP185

CYQB;2008-01-24 10:00;CYQB 241000Z 27002KT 15SM SCT230 M27/M33 A3006 RMK CI0 SLP187

CYQB;2008-01-24 11:00;CYQB 241100Z 00000KT 15SM SCT200 M25/M30 A3006 RMK CI0 SLP188

CYQB;2008-01-24 12:00;CYQB 241200Z 36003KT 25SM SCT200 M28/M33 A3007 RMK CI1 SLP192

CYQB;2008-01-24 13:00;CYQB 241300Z 03005KT 25SM BKN200 M24/M30 A3008 RMK CI2 SLP195

CYQB;2008-01-24 14:00;CYQB 241400Z 03006KT 25SM BKN210 M22/M29 A3009 RMK CI3 SLP197

CYQB;2008-01-24 15:00;CYQB 241500Z 00000KT 25SM BKN170 BKN210 M20/M27 A3009 RMK AC5CI0 SLP199

CYQB;2008-01-24 16:00;CYQB 241600Z 00000KT 25SM BKN150 BKN210 M19/M27 A3010 RMK AC5CI2 SLP201

CYQB;2008-01-24 17:00;CYQB 241700Z 23008KT 25SM FEW030 BKN150 OVC200 M17/M25 A3008 RMK SC1AC4CI1 SLP196

CYQB;2008-01-24 18:00;CYQB 241800Z 23008KT 25SM SCT150 BKN180 M17/M25 A3006 RMK AC3CS2 SLP189

CYQB;2008-01-24 19:00;CYQB 241900Z 22008KT 25SM SCT180 M16/M24 A3005 RMK CI1 SLP184

CYQB;2008-01-24 20:00;CYQB 242000Z 23008KT 25SM FEW180 M16/M24 A3006 RMK CI1 SLP186

CYQB;2008-01-24 21:00;CYQB 242100Z 23009KT 25SM FEW180 M17/M24 A3006 RMK CI1 SLP188

CYQB;2008-01-24 22:00;CYQB 242200Z 26010KT 15SM FEW180 M18/M26 A3007 RMK CI1 SLP191

CYQB;2008-01-24 23:00;CYQB 242300Z 26007KT 15SM FEW180 M19/M26 A3007 RMK CI1 SLP192

CYQB;2008-01-25 00:00;CYQB 250000Z 28006KT 15SM FEW180 M20/M27 A3008 RMK CI1 SLP195

CYQB;2008-01-25 01:00;CYQB 250100Z 25003KT 15SM FEW180 M19/M26 A3008 RMK CI1 SLP196

CYQB;2008-01-25 02:00;CYQB 250200Z 00000KT 15SM FEW180 M21/M27 A3009 RMK CI1 SLP200

CYQB;2008-01-25 03:00;CYQB 250300Z 17002KT 15SM FEW140 M21/M27 A3009 RMK AC1 SLP199

CYQB;2008-01-25 04:00;CYQB 250400Z 19003KT 15SM FEW150 M23/M28 A3010 RMK AC0 SLP200

CYQB;2008-01-25 05:00;CYQB 250500Z 24002KT 15SM FEW150 M22/M27 A3009 RMK AC1 SLP199

CYQB;2008-01-25 06:00;CYQB 250600Z 03003KT 15SM FEW150 M22/M27 A3010 RMK AC1 SLP201

CYQB;2008-01-25 07:00;CYQB 250700Z 35002KT 15SM FEW090 M22/M28 A3011 RMK AC1 SLP204

CYQB;2008-01-25 08:00;CYQB 250800Z 32002KT 15SM FEW090 M25/M29 A3012 RMK AC0 SLP207

CYQB;2008-01-25 09:00;CYQB 250900Z 29006KT 15SM FEW090 FEW210 M26/M30 A3011 RMK AC1CI0 FROIN SLP204

CYQB;2008-01-25 10:00;CYQB 251000Z 28007KT 8SM FEW090 FEW210 M27/M31 A3011 RMK AC1CI0 IC SLP204

CYQB;2008-01-25 11:00;CYQB 251100Z 25012KT 12SM FEW003 SCT210 M23/M28 A3011 RMK ST1CI0 DIST ST CIG SE-SW SLP206

CYQB;2008-01-25 12:00;CYQB 251200Z 23010KT 10SM FEW003 FEW120 SCT210 M24/M29 A3012 RMK SF1AC1CI0 DIST SF CIG S-W SLP207

CYQB;2008-01-25 13:00;CYQB 251300Z 24005KT 15SM FEW003 FEW120 SCT210 M23/M30 A3014 RMK SF1AC2CI0 SLP215

CYQB;2008-01-25 14:00;CYQB 251400Z 21005KT 15SM FEW003 SCT100 BKN210 M22/M27 A3014 RMK SF1AC1CI0 SLP215

CYQB;2008-01-25 15:00;CYQB 251500Z 00000KT 30SM FEW004 BKN120 BKN210 M20/M25 A3012 RMK SF1AC5CI1 SLP207

CYQB;2008-01-25 16:00;CYQB 251600Z 22006KT 30SM FEW005 FEW090 BKN110 M18/M24 A3009 RMK SF1AC1AC6 ACSL NE SLP197

CYQB;2008-01-25 16:40;CYQB 251640Z 24003KT 8SM -SN SCT030 OVC110 M17/ RMK SC3AC2

CYQB;2008-01-25 17:00;CYQB 251700Z 23003KT 5SM -SN SCT030 BKN110 M17/M23 A3004 RMK SC1AC3 SLP182

CYQB;2008-01-25 18:00;CYQB 251800Z 27006KT 3SM -SN BKN025 OVC100 M16/M21 A3000 RMK SN2SC2AC2 SLP165

CYQB;2008-01-25 18:19;CYQB 251819Z 27005KT 1 3/4SM -SN BKN020 OVC100 M15/ RMK SN2SC4AC1

CYQB;2008-01-25 19:00;CYQB 251900Z 26011KT 1 1/2SM -SN OVC026 M15/M20 A2998 RMK SN3SC4 SLP159

CYQB;2008-01-25 19:42;CYQB 251942Z 27012KT 2 1/2SM -SN BKN027 OVC075 M15/ RMK SN2SC3AC1

CYQB;2008-01-25 20:00;CYQB 252000Z 27012KT 2 1/4SM -SN BKN030 OVC080 M14/M19 A2998 RMK SN2SC3AC2 SLP160

CYQB;2008-01-25 20:15;CYQB 252015Z 26010KT 3SM -SN BKN035 OVC075 M14/ RMK SN1SC4AC2

CYQB;2008-01-25 21:00;CYQB 252100Z 26012KT 3SM -SN SCT025 BKN064 M15/M19 A3000 RMK SC3SC2 SLP168

CYQB;2008-01-25 22:00;CYQB 252200Z 26006KT 8SM -SN FEW015 SCT045 BKN100 M16/M20 A3001 RMK SF1SC3AC2 SLP172

CYQB;2008-01-25 22:38;CYQB 252238Z 25007KT 12SM FEW015 FEW035 SCT090 M15/ RMK SF1SC2AC2

CYQB;2008-01-25 23:00;CYQB 252300Z 24007KT 14SM FEW015 FEW035 SCT095 M16/M20 A3002 RMK SF1SC1AC1 SLP175

CYQB;2008-01-26 00:00;CYQB 260000Z CCA 22006KT 12SM FEW066 BKN091 M15/M20 A3004 RMK SC2AC4 SLP181

CYQB;2008-01-26 01:00;CYQB 260100Z 25008KT 15SM FEW060 OVC089 M14/M18 A3006 RMK SC1AC6 SLP186

CYQB;2008-01-26 02:00;CYQB 260200Z 25008KT 12SM FEW045 OVC085 M14/M18 A3006 RMK SC2AC6 SLP187

CYQB;2008-01-26 03:00;CYQB 260300Z 27008KT 15SM FEW045 OVC090 M13/M17 A3006 RMK SC1AC7 SLP188

CYQB;2008-01-26 04:00;CYQB 260400Z 25007KT 15SM OVC090 M13/M18 A3007 RMK AC7 SLP190

CYQB;2008-01-26 05:00;CYQB 260500Z 00000KT 15SM BKN090 M15/M20 A3008 RMK AC6 SLP192

CYQB;2008-01-26 06:00;CYQB 260600Z 32003KT 15SM BKN100 M16/M21 A3007 RMK AC5 SLP190

CYQB;2008-01-26 07:00;CYQB 260700Z 26005KT 15SM BKN090 M17/M21 A3009 RMK AC6 SLP196

CYQB;2008-01-26 08:00;CYQB 260800Z 25009KT 15SM BKN080 M14/M19 A3010 RMK AC6 SLP199

CYQB;2008-01-26 09:00;CYQB 260900Z 26008KT 15SM OVC070 M14/M18 A3011 RMK AC7 SLP204

CYQB;2008-01-26 10:00;CYQB 261000Z 27010KT 15SM OVC070 M13/M18 A3012 RMK AC7 SLP208

CYQB;2008-01-26 11:00;CYQB 261100Z 25008KT 15SM FEW025 BKN070 M13/M18 A3015 RMK CF1AC6 SLP216

CYQB;2008-01-26 12:00;CYQB 261200Z 29004KT 30SM FEW015 BKN070 M14/M19 A3018 RMK CF1AC7 SLP227

CYQB;2008-01-26 13:00;CYQB 261300Z 05003KT 30SM FEW015 BKN070 BKN220 M15/M19 A3020 RMK CF1AC3CI0 SLP235

CYQB;2008-01-26 14:00;CYQB 261400Z 01005KT 20SM FEW015 FEW070 SCT220 M15/M20 A3023 RMK CF1AC2CI0 SLP244

CYQB;2008-01-26 15:00;CYQB 261500Z 00000KT 30SM FEW050 FEW220 M14/M18 A3024 RMK SC1CI1 SLP247

CYQB;2008-01-26 16:00;CYQB 261600Z 24005KT 30SM FEW070 FEW220 M10/M16 A3023 RMK SC1CI1 SLP245

CYQB;2008-01-26 17:00;CYQB 261700Z 24003KT 30SM FEW070 FEW220 M09/M15 A3022 RMK SC1CI1 SLP239

CYQB;2008-01-26 18:00;CYQB 261800Z 20006KT 30SM FEW046 M08/M14 A3020 RMK SC2 SLP234

CYQB;2008-01-26 19:00;CYQB 261900Z 22006KT 30SM BKN048 M09/M14 A3021 RMK SC6 SLP235

CYQB;2008-01-26 20:00;CYQB 262000Z 23007KT 30SM -SN SCT011 SCT026 M08/M14 A3022 RMK CU3SC1 SLP241

CYQB;2008-01-26 20:27;CYQB 262027Z 23007KT 30SM FEW020 SCT035 M08/ RMK CU2SC1

CYQB;2008-01-26 21:00;CYQB 262100Z 24007KT 30SM FEW040 FEW200 M09/M15 A3024 RMK SC1CI1 SLP246

CYQB;2008-01-26 22:00;CYQB 262200Z 25003KT 15SM FEW040 FEW200 M10/M16 A3025 RMK SC1CI1 SLP250

CYQB;2008-01-26 23:00;CYQB 262300Z 29002KT 15SM SKC M13/M18 A3026 RMK SLP254

CYQB;2008-01-27 00:00;CYQB 270000Z 01003KT 15SM SKC M14/M18 A3027 RMK SLP256

CYQB;2008-01-27 01:00;CYQB 270100Z 36003KT 15SM SKC M17/M20 A3028 RMK SLP259

CYQB;2008-01-27 02:00;CYQB 270200Z 03005KT 15SM SKC M15/M19 A3028 RMK SLP259

CYQB;2008-01-27 03:00;CYQB 270300Z 01007KT 15SM SKC M16/M20 A3028 RMK SLP261

CYQB;2008-01-27 04:00;CYQB 270400Z 02007KT 15SM SKC M17/M20 A3028 RMK SLP262

CYQB;2008-01-27 05:00;CYQB 270500Z 03005KT 15SM SKC M17/M21 A3028 RMK SLP260

CYQB;2008-01-27 06:00;CYQB 270600Z 03005KT 15SM FEW220 M18/M22 A3028 RMK CI0 SLP261

CYQB;2008-01-27 07:00;CYQB 270700Z 05004KT 15SM FEW210 M18/M22 A3028 RMK CI0 SLP260

CYQB;2008-01-27 08:00;CYQB 270800Z 02007KT 15SM SKC M19/M23 A3027 RMK SLP257

CYQB;2008-01-27 09:00;CYQB 270900Z 02006KT 15SM SKC M19/M22 A3026 RMK SLP255

CYQB;2008-01-27 10:00;CYQB 271000Z 04006KT 15SM FEW200 M19/M23 A3027 RMK CI1 SLP256

CYQB;2008-01-27 11:00;CYQB 271100Z 02007KT 15SM FEW025 FEW150 FEW200 M19/M23 A3028 RMK SC1AC1CI0 SLP262

CYQB;2008-01-27 11:37;CYQB 271137Z 02005KT 15SM BKN004 BKN025 M18/ RMK SF6SC1

CYQB;2008-01-27 12:00;CYQB 271200Z 02006KT 15SM OVC004 M18/M24 A3029 RMK ST8 SLP265

CYQB;2008-01-27 12:44;CYQB 271244Z 04005KT 15SM FEW004 FEW035 SCT150 BKN200 M18/ RMK SF1SC1AC2CI0

CYQB;2008-01-27 13:00;CYQB 271300Z 02004KT 15SM FEW004 FEW041 SCT150 BKN220 M18/M23 A3030 RMK SF1SC2AC2CI0 SLP268

CYQB;2008-01-27 13:24;CYQB 271324Z 03006KT 15SM -SHSN FEW004 BKN043 BKN150 BKN220 M17/ RMK SF1SC5AC1CI0

CYQB;2008-01-27 14:00;CYQB 271400Z 05003KT 15SM -SHSN FEW004 BKN045 BKN220 M16/M22 A3030 RMK SF1SC6CI0 SLP269

CYQB;2008-01-27 15:00;CYQB 271500Z 04006KT 15SM -SN FEW008 SCT050 BKN160 OVC200 M13/M18 A3030 RMK SC1SC2AC2CI1 SLP269

CYQB;2008-01-27 16:00;CYQB 271600Z 07007KT 30SM -SN FEW007 OVC038 M11/M19 A3029 RMK SF1SC8 SLP263

CYQB;2008-01-27 17:00;CYQB 271700Z 07008KT 25SM -SN FEW007 OVC032 M10/M14 A3025 RMK SF1SC8 SLP252

CYQB;2008-01-27 18:00;CYQB 271800Z 07008KT 20SM -SN OVC044 M09/M13 A3022 RMK SC7 SLP241

CYQB;2008-01-27 19:00;CYQB 271900Z 07008KT 11SM -SN FEW009 OVC044 M08/M12 A3022 RMK SF1SC6 SLP242

CYQB;2008-01-27 20:00;CYQB 272000Z CCA 08008KT 7SM -SN OVC040 M08/M12 A3021 RMK SC6 SLP238

CYQB;2008-01-27 20:43;CYQB 272043Z 06007KT 25SM FEW030 FEW045 M08/ RMK SC1SC2

CYQB;2008-01-27 21:00;CYQB 272100Z 08006KT 25SM BKN040 M08/M12 A3023 RMK SC3 SLP243

CYQB;2008-01-27 22:00;CYQB 272200Z 06003KT 15SM BKN040 M08/M12 A3024 RMK SC5 SLP248

CYQB;2008-01-27 23:00;CYQB 272300Z 07008KT 13SM -SN FEW040 BKN058 M08/M12 A3024 RMK SC2SC5 SLP247

CYQB;2008-01-28 00:00;CYQB 280000Z 07008KT 14SM -SN FEW040 OVC057 M08/M11 A3023 RMK SC1SC8 SLP243

CYQB;2008-01-28 01:00;CYQB 280100Z 07005KT 15SM FEW050 M09/M12 A3022 RMK SC2 SLP239

CYQB;2008-01-28 02:00;CYQB 280200Z 02002KT 15SM FEW050 M10/M12 A3023 RMK SC2 SLP244

CYQB;2008-01-28 03:00;CYQB 280300Z 05004KT 15SM BKN043 M09/M12 A3023 RMK SC6 SLP244

CYQB;2008-01-28 04:00;CYQB 280400Z 05006KT 15SM BKN044 M09/M12 A3024 RMK SC7 SLP247

CYQB;2008-01-28 05:00;CYQB 280500Z 03005KT 15SM FEW040 M10/M13 A3024 RMK SC1 SLP245

CYQB;2008-01-28 06:00;CYQB 280600Z 06006KT 15SM SKC M11/M14 A3023 RMK SLP242

CYQB;2008-01-28 07:00;CYQB 280700Z 05005KT 15SM FEW040 M11/M15 A3023 RMK SC2 SLP244

CYQB;2008-01-28 08:00;CYQB 280800Z 36002KT 15SM FEW040 M13/M17 A3022 RMK SC1 SLP238

CYQB;2008-01-28 09:00;CYQB 280900Z 36004KT 15SM SKC M13/M16 A3019 RMK SLP231

CYQB;2008-01-28 10:00;CYQB 281000Z 02004KT 15SM SKC M14/M17 A3022 RMK SLP241

CYQB;2008-01-28 11:00;CYQB 281100Z 04006KT 15SM SKC M14/M17 A3022 RMK SLP240

CYQB;2008-01-28 12:00;CYQB 281200Z 01003KT 30SM FEW100 M15/M18 A3022 RMK AC1 SLP239

CYQB;2008-01-28 13:00;CYQB 281300Z 04002KT 30SM FEW010 FEW100 M17/M19 A3021 RMK SF1AC1 SLP237

CYQB;2008-01-28 14:00;CYQB 281400Z 34005KT 30SM FEW009 FEW100 M13/M17 A3023 RMK SF2AC1 SLP244

CYQB;2008-01-28 15:00;CYQB 281500Z 02003KT 30SM FEW009 FEW100 M10/M15 A3024 RMK SF1AC1 SLP245

CYQB;2008-01-28 16:00;CYQB 281600Z 08004KT 30SM FEW009 M09/M14 A3022 RMK SF1 SLP239

CYQB;2008-01-28 17:00;CYQB 281700Z 10006KT 30SM FEW009 FEW200 M08/M12 A3018 RMK SF1CI1 SLP225

CYQB;2008-01-28 18:00;CYQB 281800Z 08003KT 30SM FEW009 FEW200 M07/M12 A3014 RMK SF1CI1 SLP214

CYQB;2008-01-28 19:00;CYQB 281900Z 00000KT 30SM FEW009 FEW200 M06/M11 A3013 RMK SF1CI1 SLP209

CYQB;2008-01-28 20:00;CYQB 282000Z 00000KT 30SM FEW200 M06/M12 A3012 RMK CI1 SLP206

CYQB;2008-01-28 21:00;CYQB 282100Z 00000KT 30SM FEW200 M06/M12 A3012 RMK CI1 SLP207

CYQB;2008-01-28 22:00;CYQB 282200Z 00000KT 30SM SKC M07/M12 A3012 RMK SLP207

CYQB;2008-01-28 23:00;CYQB 282300Z 36002KT 15SM SKC M11/M13 A3012 RMK SLP207

CYQB;2008-01-29 00:00;CYQB 290000Z 00000KT 15SM FEW200 M12/M15 A3014 RMK CI1 SLP212

CYQB;2008-01-29 01:00;CYQB 290100Z 36003KT 10SM FEW015 FEW040 M11/M14 A3011 RMK SC1SC1 SLP205

CYQB;2008-01-29 01:45;CYQB 290145Z 33005KT 15SM BKN010 M13/ RMK SC7

CYQB;2008-01-29 02:00;CYQB 290200Z 35004KT 15SM BKN010 M11/M15 A3010 RMK SC6 SLP200

CYQB;2008-01-29 03:00;CYQB 290300Z 01003KT 15SM OVC011 M11/M14 A3007 RMK SC8 SLP190

CYQB;2008-01-29 04:00;CYQB 290400Z 35003KT 15SM OVC010 M11/M15 A3006 RMK SC8 SLP184

CYQB;2008-01-29 05:00;CYQB 290500Z 05003KT 15SM OVC011 M11/M14 A3003 RMK SC8 SLP176

CYQB;2008-01-29 06:00;CYQB 290600Z 35005KT 15SM OVC010 M11/M14 A3000 RMK SC8 SLP166

CYQB;2008-01-29 07:00;CYQB 290700Z 04002KT 15SM BKN010 M12/M15 A2999 RMK SC7 SLP160

CYQB;2008-01-29 08:00;CYQB 290800Z 03002KT 15SM BKN010 M13/M16 A2997 RMK SC6 SLP153

CYQB;2008-01-29 09:00;CYQB 290900Z 03003KT 15SM BKN010 M12/M15 A2994 RMK SC7 SLP146

CYQB;2008-01-29 10:00;CYQB 291000Z 03004KT 15SM OVC010 M11/M14 A2993 RMK SC8 SLP142

CYQB;2008-01-29 11:00;CYQB 291100Z 36003KT 15SM OVC008 M10/M14 A2994 RMK SC8 SLP143

CYQB;2008-01-29 12:00;CYQB 291200Z 06006KT 15SM OVC009 M09/M12 A2991 RMK ST8 SLP133

CYQB;2008-01-29 12:44;CYQB 291244Z 07010KT 10SM -SG OVC010 RMK ST8

CYQB;2008-01-29 13:00;CYQB 291300Z 07008KT 10SM -SG OVC010 M08/M11 A2990 RMK ST8 SLP131

CYQB;2008-01-29 14:00;CYQB 291400Z 08008KT 10SM -SG BKN011 OVC035 M08/M11 A2988 RMK ST7SC1 SLP125

CYQB;2008-01-29 15:00;CYQB 291500Z 07007KT 10SM -SG OVC011 M08/M11 A2987 RMK ST8 SLP122

CYQB;2008-01-29 16:00;CYQB 291600Z 09010KT 15SM -SG BKN012 OVC021 M07/M10 A2985 RMK SC7SC1 SLP114

CYQB;2008-01-29 16:49;CYQB 291649Z 07012G17KT 15SM SCT012 BKN024 OVC160 M06/ RMK SC3SC3AC2

CYQB;2008-01-29 17:00;CYQB 291700Z 07012G18KT 15SM SCT011 BKN024 OVC160 M06/M10 A2981 RMK SC3SC2AC2 SLP099

CYQB;2008-01-29 18:00;CYQB 291800Z 07015KT 15SM FEW011 OVC120 M06/M10 A2978 RMK SF1AS7 SLP089

CYQB;2008-01-29 19:00;CYQB 291900Z 08005KT 15SM OVC065 M06/M10 A2978 RMK SC8 SLP091

CYQB;2008-01-29 19:48;CYQB 291948Z 08008KT 15SM -SN OVC067 M05/ RMK SC8

CYQB;2008-01-29 20:00;CYQB 292000Z 08008KT 15SM -SN OVC061 M05/M09 A2976 RMK SC8 PCPN VRY LGT SLP084

CYQB;2008-01-29 21:00;CYQB 292100Z 08008KT 15SM -SN FEW008 OVC064 M05/M09 A2976 RMK SF2SC6 PCPN VRY LGT SLP084

CYQB;2008-01-29 22:00;CYQB 292200Z 07011G16KT 12SM -SN SCT008 OVC055 M05/M08 A2975 RMK SF3SC5 PCPN VERY LGT SLP081

CYQB;2008-01-29 23:00;CYQB 292300Z 09006KT 12SM -SN SCT008 OVC030 M05/M08 A2977 RMK SF3SC5 SLP085

CYQB;2008-01-30 00:00;CYQB 300000Z 06008KT 15SM -SN SCT008 OVC028 M05/M07 A2975 RMK ST4SC4 SLP081

CYQB;2008-01-30 00:42;CYQB 300042Z 07008KT 15SM -SN BKN008 OVC028 M05/ RMK ST4SC4

CYQB;2008-01-30 01:00;CYQB 300100Z 08008KT 15SM BKN008 OVC028 M04/M07 A2976 RMK ST6SC2 SLP082

CYQB;2008-01-30 02:00;CYQB 300200Z 07010KT 15SM BKN007 OVC030 M04/M07 A2973 RMK SF6SC2 SLP073

CYQB;2008-01-30 03:00;CYQB 300300Z 08008KT 15SM BKN007 OVC030 M04/M07 A2972 RMK SF6SC2 SLP069

CYQB;2008-01-30 03:48;CYQB 300348Z 07012KT 15SM SCT007 OVC030 M04/ RMK SF3SC5

CYQB;2008-01-30 04:00;CYQB 300400Z 07012G17KT 15SM SCT007 OVC034 M04/M07 A2969 RMK SF3SC5 SLP060

CYQB;2008-01-30 05:00;CYQB 300500Z 07010G16KT 15SM SCT007 OVC034 M04/M07 A2967 RMK SF3SC5 SLP051

CYQB;2008-01-30 06:00;CYQB 300600Z 08013KT 15SM FEW007 OVC042 M04/M07 A2963 RMK SF2SC6 SLP038

CYQB;2008-01-30 07:00;CYQB 300700Z 08013KT 15SM FEW007 OVC045 M03/M06 A2963 RMK SF2SC6 SLP037

CYQB;2008-01-30 07:36;CYQB 300736Z 07013KT 15SM -FZRA FEW007 OVC047 M02/ RMK SF2SC6

CYQB;2008-01-30 08:00;CYQB 300800Z 08013G20KT 15SM -FZRA FEW007 OVC042 M02/M06 A2958 RMK SF2SC6 SLP022

CYQB;2008-01-30 09:00;CYQB 300900Z 08015G21KT 8SM -FZRA FEW007 OVC030 M01/M04 A2952 RMK SF2SC6 PRESFR SLP001

CYQB;2008-01-30 10:00;CYQB 301000Z 08011G18KT 6SM -FZRA BR FEW007 OVC018 M01/M04 A2947 RMK SF2SC6 SLP984

CYQB;2008-01-30 11:00;CYQB 301100Z 09009G15KT 4SM -FZRA BR BKN008 OVC015 M01/M03 A2945 RMK SF6SC2 SLP976

CYQB;2008-01-30 11:19;CYQB 301119Z 07013KT 6SM -FZRA BR FEW008 OVC018 M00/ RMK SF2SC6

CYQB;2008-01-30 12:00;CYQB 301200Z 08009KT 4SM -FZRA BR FEW005 OVC018 M00/M03 A2941 RMK SF2SC6 SLP963

CYQB;2008-01-30 12:50;CYQB 301250Z 07012G17KT 4SM -RA BR FEW005 OVC018 00/ REFZRA RMK SF1SC7

CYQB;2008-01-30 13:00;CYQB 301300Z 07011G16KT 2SM -RA BR FEW005 OVC017 00/M02 A2937 REFZRA RMK SF1SC7 SLP950

CYQB;2008-01-30 14:00;CYQB 301400Z 08008KT 3SM -RA BR FEW005 SCT016 OVC021 00/M02 A2934 RMK SF1SC2SC5 SLP939

CYQB;2008-01-30 15:00;CYQB 301500Z CCA 08007KT 3SM -RAPLSN FEW005 OVC021 01/M01 A2932 RMK SF1SC7 SLP932

CYQB;2008-01-30 15:15;CYQB 301515Z 08008KT 1SM R06/P6000FT/D -SHSN OVC020 01/ RMK SN6SC2

CYQB;2008-01-30 15:28;CYQB 301528Z 09007KT 1 1/2SM -SHSN OVC011 01/ RMK SN4SC4

CYQB;2008-01-30 15:53;CYQB 301553Z 08007KT 2SM -SHRASN FEW003 OVC014 01/ RMK SF2SC6

CYQB;2008-01-30 16:00;CYQB 301600Z 07008KT 2SM -SHRASN FEW003 OVC013 00/M01 A2931 RMK SF2SC6 SLP930

CYQB;2008-01-30 16:17;CYQB 301617Z 08007KT 1 1/2SM -SHRA BR SCT002 BKN012 OVC020 01/ RMK FG2ST2SC3SC2

CYQB;2008-01-30 16:45;CYQB 301645Z 08007KT 1 1/2SM -SHRA BR BKN002 OVC025 00/ RMK FG2ST5SC1

CYQB;2008-01-30 17:00;CYQB 301700Z 08008KT 1 1/4SM -SHRA BR BKN001 OVC020 00/M01 A2927 RMK FG3ST4SC1 SLP916

CYQB;2008-01-30 17:15;CYQB 301715Z 08007KT 1SM R06/P6000FT/N -SHRA BR BKN002 OVC020 00/ RMK FG3ST4SC1 CIG VBL 1-3

CYQB;2008-01-30 18:00;CYQB 301800Z 09005KT 1SM R06/P6000FT/N -RA BR BKN002 OVC016 01/M01 A2924 RMK FG2ST5SC1 CIG VRB 1-3 SLP906

CYQB;2008-01-30 18:36;CYQB 301836Z 00000KT 1 3/4SM -RASN BR BKN003 OVC012 01/ RMK FG2ST6SC1

CYQB;2008-01-30 18:51;CYQB 301851Z 25007KT 3/4SM R06/P6000FT/D -SN BR OVC004 01/ RMK SN2ST6

CYQB;2008-01-30 19:00;CYQB 301900Z 24006KT 3/4SM R06/P6000FT/U -SN BR BKN004 OVC013 01/M01 A2928 RMK SN2ST5SC1 SLP919

CYQB;2008-01-30 19:21;CYQB 301921Z 25018KT 1/2SM R06/P6000FT/D SN FZFG BKN008 OVC022 M00/ RMK SN3ST3SC2

CYQB;2008-01-30 19:36;CYQB 301936Z 25017KT 3/8SM R06/3000V4500FT/D SN BKN007 OVC018 M01/ RMK SN2ST5SC1

CYQB;2008-01-30 20:00;CYQB 302000Z 25020KT 1/2SM R06/4500FT/U SN VV008 M01/M03 A2933 RMK SN8 SLP935

CYQB;2008-01-30 20:15;CYQB 302015Z 24018G24KT 1/4SM R06/4000V5500FT/U SN +BLSN VV006 M02/ RMK SN8

CYQB;2008-01-30 20:53;CYQB 302053Z 24015G20KT 3/8SM R06/5000FT/U SN BLSN BKN010 OVC020 M03/ REBLSN RMK SN5SC2SC2

CYQB;2008-01-30 21:00;CYQB 302100Z 24015G21KT 1/2SM R06/4500VP6000FT/U SN BLSN BKN010 OVC023 M03/M05 A2939 REBLSN RMK SN4SC2SC2 SLP955

CYQB;2008-01-30 21:14;CYQB 302114Z 23013G21KT 10SM -SN DRSN FEW012 BKN026 OVC036 M03/ RESN REBLSN RMK SC2SC4SC2 VIS N-E 3

CYQB;2008-01-30 21:42;CYQB 302142Z 10015KT 8SM BCFG SCT010 BKN030 RMK ST4ST3 VIA YQB FIC

CYQB;2008-01-30 22:00;CYQB 302200Z 23015G24KT 10SM -SHSN DRSN FEW012 OVC030 M04/M07 A2944 RMK CF1SC8 RESN REBLSN VIS N-E 3 PRESRR SLP974

CYQB;2008-01-30 23:00;CYQB 302300Z 23021KT 12SM -SN DRSN FEW020 SCT030 OVC056 M04/M08 A2950 RMK CF1SC2SC6 SLP993

CYQB;2008-01-30 23:32;CYQB 302332Z 24016G25KT 12SM DRSN FEW028 OVC055 M05/ RMK CF2SC6

CYQB;2008-01-31 00:00;CYQB 310000Z CCA 24023G30KT 15SM FEW028 OVC055 M05/M10 A2956 RMK SC2SC6 PRESRR SLP015

CYQB;2008-01-31 01:00;CYQB 310100Z 24020G29KT 15SM DRSN FEW030 OVC064 M06/M12 A2963 RMK SC2SC6 PRESRR SLP036

CYQB;2008-01-31 02:00;CYQB 310200Z 24023G29KT 15SM FEW030 BKN066 M06/M13 A2969 RMK SC1SC6 PRESRR SLP056

CYQB;2008-01-31 03:00;CYQB 310300Z 25025G30KT 15SM DRSN FEW030 FEW065 M07/M13 A2974 RMK SC1SC2 PRESRR SLP076

CYQB;2008-01-31 04:00;CYQB 310400Z 25022G29KT 15SM DRSN FEW030 SCT055 M08/M15 A2983 RMK SC1SC2 PRESRR SLP105

CYQB;2008-01-31 05:00;CYQB 310500Z 24022G31KT 15SM FEW055 M09/M16 A2987 RMK SC2 SLP120

CYQB;2008-01-31 06:00;CYQB 310600Z 24027G33KT 15SM FEW055 M10/M17 A2992 RMK SC2 SLP135

CYQB;2008-01-31 07:00;CYQB 310700Z 24026G31KT 15SM BKN045 M11/M17 A2998 RMK SC5 PRESRR SLP158

CYQB;2008-01-31 08:00;CYQB 310800Z 24023G29KT 15SM FEW045 M11/M17 A3003 RMK SC2 SLP174

CYQB;2008-01-31 09:00;CYQB 310900Z 24022G31KT 15SM FEW048 M11/M17 A3009 RMK SC2 PRESRR SLP194

CYQB;2008-01-31 10:00;CYQB 311000Z 24022G29KT 15SM FEW020 FEW048 M11/M17 A3014 RMK SC1SC2 SLP210

CYQB;2008-01-31 11:00;CYQB 311100Z 26025KT 15SM FEW030 M11/M17 A3020 RMK SC2 SLP231

CYQB;2008-01-31 12:00;CYQB 311200Z 26014G20KT 30SM FEW030 FEW045 M12/M17 A3027 RMK SC1SC1 SLP256

CYQB;2008-01-31 13:00;CYQB 311300Z 25012KT 30SM FEW040 M12/M17 A3033 RMK SC1 SLP276

CYQB;2008-01-31 14:00;CYQB 311400Z 25014G21KT 30SM FEW038 M11/M16 A3036 RMK SC1 SLP288

CYQB;2008-01-31 15:00;CYQB 311500Z 25015G25KT 30SM SCT033 M09/M15 A3038 RMK SC4 SLP294

CYQB;2008-01-31 16:00;CYQB 311600Z 25022G27KT 20SM SCT038 M10/M17 A3041 RMK SC4 SLP304

CYQB;2008-01-31 17:00;CYQB 311700Z 26018G24KT 20SM BKN040 M09/M16 A3043 RMK SC5 SLP310

CYQB;2008-01-31 18:00;CYQB 311800Z 26017KT 30SM FEW030 M08/M15 A3045 RMK CU2 SLP317

CYQB;2008-01-31 19:00;CYQB 311900Z 27007KT 30SM FEW035 M08/M15 A3046 RMK CU2 SLP321

CYQB;2008-01-31 20:00;CYQB 312000Z 27012G17KT 30SM FEW035 FEW240 M08/M16 A3049 RMK CU1CC1 SLP332

CYQB;2008-01-31 21:00;CYQB 312100Z 25014KT 30SM FEW040 FEW240 M08/M15 A3052 RMK CU1CI1 SLP340

CYQB;2008-01-31 22:00;CYQB 312200Z 25012KT 30SM FEW040 FEW240 M09/M16 A3054 RMK SC1CI1 SLP348

CYQB;2008-01-31 23:00;CYQB 312300Z 26009KT 15SM FEW040 M11/M16 A3057 RMK SC2 SLP357

CYQB;2008-02-01 01:00;CYQB 010100Z 27009KT 15SM SCT230 M12/M17 A3062 RMK CI1 SLP377

CYQB;2008-02-01 02:00;CYQB 010200Z 26007KT 15SM FEW230 M13/M17 A3066 RMK CI0 SLP389

CYQB;2008-02-01 03:00;CYQB 010300Z 24008KT 15SM FEW210 M12/M16 A3067 RMK CI1 SLP394

CYQB;2008-02-01 04:00;CYQB 010400Z 23008KT 15SM FEW210 M12/M16 A3067 RMK CI1 SLP393

CYQB;2008-02-01 05:00;CYQB 010500Z 24002KT 15SM FEW210 M14/M18 A3067 RMK CI1 SLP394

CYQB;2008-02-01 06:00;CYQB 010600Z 00000KT 15SM SKC M14/M18 A3067 RMK SLP392

CYQB;2008-02-01 07:00;CYQB 010700Z 03004KT 15SM SKC M15/M19 A3068 RMK SLP395

CYQB;2008-02-01 08:00;CYQB 010800Z 03003KT 15SM SKC M16/M19 A3069 RMK SLP399

CYQB;2008-02-01 09:00;CYQB 010900Z 02006KT 15SM FEW200 M16/M19 A3067 RMK CS0 SLP393

CYQB;2008-02-01 10:00;CYQB 011000Z 02003KT 15SM FEW230 M15/M19 A3068 RMK CS0 SLP396

CYQB;2008-02-01 11:00;CYQB 011100Z 02005KT 15SM SCT170 M15/M19 A3070 RMK AS3 SLP402

CYQB;2008-02-01 12:00;CYQB 011200Z 02005KT 15SM BKN120 M15/M19 A3067 RMK AS6 SLP394

CYQB;2008-02-01 13:00;CYQB 011300Z 04004KT 15SM BKN120 OVC220 M14/M18 A3066 RMK AS6CS2 SLP391

CYQB;2008-02-01 14:00;CYQB 011400Z 04005KT 15SM OVC090 M12/M17 A3067 RMK AS8 SLP393

CYQB;2008-02-01 15:00;CYQB 011500Z CCA 07006KT 15SM OVC070 M10/M15 A3067 RMK AS8 SLP393

CYQB;2008-02-01 16:00;CYQB 011600Z 07012KT 15SM OVC075 M09/M14 A3062 RMK AS8 SLP376

CYQB;2008-02-01 17:00;CYQB 011700Z 08015G20KT 15SM OVC040 M07/M13 A3058 RMK NS8 SLP363

CYQB;2008-02-01 17:14;CYQB 011714Z 09009G18KT 3SM -SN OVC030 M08/ RMK NS8 VIS NW-NE 8

CYQB;2008-02-01 17:25;CYQB 011725Z 08011G18KT 1 1/2SM -SN VV021 M08/ RMK SN8

CYQB;2008-02-01 17:45;CYQB 011745Z 08014KT 1/2SM R06/5000FT/D SN VV009 M08/ RMK SN8

CYQB;2008-02-01 18:00;CYQB 011800Z 06015KT 1/2SM R06/3000V5000FT/D SN BLSN VV007 M08/M12 A3052 RMK SN8 SLP342

CYQB;2008-02-01 18:10;CYQB 011810Z 07014G22KT 1/4SM R06/3500FT/U SN +BLSN VV007 M09/ RMK SN8

CYQB;2008-02-01 19:00;CYQB 011900Z CCA 07014G22KT 1/4SM R06/3500FT/N +SN DRSN VV005 M08/M11 A3049 REBLSN RMK SN8 /S01/ SLP330

CYQB;2008-02-01 19:50;CYQB 011950Z 07020G28KT 3/4SM R06/P6000FT/D -SN DRSN BKN010 OVC045 M09/ RMK SC5SC3 REBLSN

CYQB;2008-02-01 20:00;CYQB 012000Z CCA 08022G30KT 3/4SM R06/P6000FT/D -SN DRSN BKN010 OVC040 M08/M12 A3043 RMK SC6SC2 REBLSN SLP312

CYQB;2008-02-01 21:00;CYQB 012100Z 07018G28KT 3/4SM R06/5500FT/N -SN DRSN OVC009 M08/M11 A3040 RMK SC8 SLP301

CYQB;2008-02-01 21:44;CYQB 012144Z 07019G28KT 1/4SM R06/5500FT/D SN DRSN VV008 M08/ RMK SN8

CYQB;2008-02-01 22:00;CYQB 012200Z 07021G28KT 1/4SM R06/5000FT/U SN DRSN VV008 M08/M11 A3035 RMK SN8 /S03/ SLP285

CYQB;2008-02-01 22:39;CYQB 012239Z 08020G31KT 3/8SM R06/3500FT/U SN DRSN VV003 M08/ RMK SN8

CYQB;2008-02-01 23:00;CYQB 012300Z 07020G28KT 3/8SM R06/5000FT/N SN BLSN VV004 M08/M11 A3032 RMK SN8 /S04/ SLP273

CYQB;2008-02-01 23:20;CYQB 012320Z 08018G32KT 3/8SM R06/4000FT/N -SN BLSN VV003 M08/ RMK SN8 RESN

CYQB;2008-02-01 23:49;CYQB 012349Z 07019G29KT 1/2SM R06/3500V6000FT/D -SN BLSN VV003 M08/ RMK SN8 RESN

CYQB;2008-02-02 00:00;CYQB 020000Z 07021G29KT 1/2SM R06/3000V5000FT/D -SN BLSN VV003 M08/M11 A3028 RMK SN8 RESN /S06/ SLP261

CYQB;2008-02-02 00:37;CYQB 020037Z 07020G31KT 3/8SM R06/2600FT/N SN DRSN VV002 M08/ RMK SN8

CYQB;2008-02-02 01:00;CYQB 020100Z 07021G31KT 3/8SM R06/3500V5000FT/U SN BLSN VV003 M08/M11 A3024 RMK SN8 SLP247

CYQB;2008-02-02 01:31;CYQB 020131Z 07019G34KT 1/2SM R06/2800V5500FT/D SN BLSN VV005 M08/ RMK SN8

CYQB;2008-02-02 02:00;CYQB 020200Z 07018G26KT 1/2SM R06/3500FT/U SN BLSN VV004 M08/M11 A3020 RMK SN8 /S02/ SLP234

CYQB;2008-02-02 03:00;CYQB 020300Z CCB 07021G32KT 1/2SM R06/2600V4000FT/N SN BLSN VV003 M08/M11 A3013 RMK SN8 PRESFR /S04/ SLP208

CYQB;2008-02-02 03:30;CYQB 020330Z 07020G31KT 1/2SM R06/2800FT/N SNPL BLSN VV004 M08/ RMK SN8

CYQB;2008-02-02 04:00;CYQB 020400Z 07030G40KT 1/2SM R06/1200V2200FT/N SNPL BLSN VV004 M08/M11 A3004 RMK SN8 PRESFR /S08/ SLP180

CYQB;2008-02-02 05:00;CYQB 020500Z 07027G37KT 3/4SM R06/2600V5000FT/D -SNPL BLSN VV012 M08/M11 A2995 RMK SN8 RESN PRESFR /S10/ SLP150

CYQB;2008-02-02 06:00;CYQB 020600Z 07025G34KT 3/4SM R06/1800V2800FT/N -SNPL BLSN OVC012 M08/M10 A2989 RMK SN4SC4 SLP126

CYQB;2008-02-02 07:00;CYQB 020700Z 07026G40KT 3/4SM R06/2800V5500FT/U -SNPL BLSN VV009 M07/M10 A2980 RMK SN8 SLP097

CYQB;2008-02-02 08:00;CYQB 020800Z 07030G40KT 1SM R06/3500VP6000FT/D -SN BLSN OVC012 M07/M10 A2973 RMK SN3SC5 SLP072

CYQB;2008-02-02 09:00;CYQB 020900Z 07021G33KT 3/4SM R06/5000FT/U -SN BLSN OVC012 M07/M10 A2970 RMK SN3SC5 /S03/ SLP061

CYQB;2008-02-02 10:00;CYQB 021000Z 07020G25KT 1 1/2SM -SN BLSN OVC012 M07/M09 A2970 RMK SN2SC6 /S04/ SLP061

CYQB;2008-02-02 10:40;CYQB 021040Z 07018G25KT 1/2SM -SN BLSN OVC010 M07/ RMK SN2SC6

CYQB;2008-02-02 11:00;CYQB 021100Z 06013G20KT 1/2SM -SN BLSN OVC012 M07/M09 A2968 RMK SN2SC6 SLP055

CYQB;2008-02-02 11:30;CYQB 021130Z 07013G19KT 3/4SM -SN BLSN BKN011 OVC035 M07/ RMK SN2SC3SC3

CYQB;2008-02-02 12:00;CYQB 021200Z 07009G15KT 3/4SM -SN BLSN SCT011 OVC037 M07/M09 A2970 RMK SN1SC2SC5 /S01/ SLP061

CYQB;2008-02-02 12:28;CYQB 021228Z 08007KT 3SM -SN FEW011 OVC038 RMK SC2SC6

CYQB;2008-02-02 13:00;CYQB 021300Z 08004KT 30SM FEW013 OVC037 M07/M10 A2973 RMK SC2SC6 SLP073

CYQB;2008-02-02 13:16;CYQB 021316Z 12003KT 30SM -SN FEW011 OVC030 M07/ RMK SC2SC6 VIS N-NW QUAD 3

CYQB;2008-02-02 13:21;CYQB 021321Z 15002KT 3SM -SN SCT009 OVC020 M07/ RMK SF3SC5 VIS E-SE QUAD 6

CYQB;2008-02-02 13:26;CYQB 021326Z 17002KT 3/4SM -SN VV009 M07/ RMK SN8

CYQB;2008-02-02 13:35;CYQB 021335Z 23002KT 3/8SM SN VV003 M07/ RMK SN8

CYQB;2008-02-02 13:50;CYQB 021350Z 20003KT 1 1/2SM -SN SCT009 VV013 M07/ RMK SF3SN5

CYQB;2008-02-02 14:00;CYQB 021400Z CCA 19004KT 3/4SM -SN VV009 M07/M09 A2979 RMK SN8 /S02/ PRESRR SLP093

CYQB;2008-02-02 14:08;CYQB 021408Z 20003KT 5/8SM -SN VV007 M07/ RMK SN8

CYQB;2008-02-02 14:25;CYQB 021425Z 22004KT 1/2SM SN VV005 M07/ RMK SN8

CYQB;2008-02-02 15:00;CYQB 021500Z 23011KT 1/2SM SN VV005 M06/M09 A2982 RMK SN8 /S03/ SLP104

CYQB;2008-02-02 15:32;CYQB 021532Z 22013KT 1 1/4SM -SN BKN011 OVC020 M06/ RMK SN2SF4SC2

CYQB;2008-02-02 16:00;CYQB 021600Z 23016G22KT 1 1/2SM -SN DRSN BKN009 OVC020 M05/M08 A2984 RMK SN2SC3SC3 SLP110

CYQB;2008-02-02 16:40;CYQB 021640Z 25023KT 6SM -SN DRSN SCT020 OVC034 M05/ RMK SC4SC4

CYQB;2008-02-02 17:00;CYQB 021700Z 25018G24KT 6SM -SN DRSN FEW012 SCT022 OVC034 M05/M08 A2986 RMK SF2SC2SC4 SLP117

CYQB;2008-02-02 17:39;CYQB 021739Z 25020G25KT 30SM DRSN FEW017 BKN025 BKN035 OVC200 M05/ RMK SC2SC2SC2CI0

CYQB;2008-02-02 18:00;CYQB 021800Z 26017G25KT 30SM DRSN BKN018 BKN035 OVC200 M05/M08 A2988 RMK SC5SC2CI0 SLP122

CYQB;2008-02-02 18:20;CYQB 021820Z 26017KT 3SM -SHSN DRSN BKN017 BKN035 OVC200 M05/ RMK SC6SC2CI0

CYQB;2008-02-02 19:00;CYQB 021900Z 27018KT 8SM -SHSN DRSN BKN019 BKN035 M05/M07 A2991 RMK SC5SC2 SLP132

CYQB;2008-02-02 20:00;CYQB 022000Z 27019G24KT 8SM -SHSN DRSN SCT019 BKN035 M05/M09 A2995 RMK SC4SC2 SLP147

CYQB;2008-02-02 21:00;CYQB 022100Z 25017G24KT 15SM -SHSN DRSN FEW019 BKN035 M05/M10 A2998 RMK SC2SC3 VIS NE 30 SLP157

CYQB;2008-02-02 21:32;CYQB 022132Z 27011KT 30SM FEW035 FEW200 M06/ RMK SC2CI0

CYQB;2008-02-02 22:00;CYQB 022200Z 27010KT 30SM FEW035 FEW200 M07/M11 A3001 RMK SC1CI1 SLP166

CYQB;2008-02-02 23:00;CYQB 022300Z 30005KT 15SM FEW040 M06/M10 A3003 RMK SC2 SLP174

CYQB;2008-02-03 00:00;CYQB 030000Z 26005KT 15SM BKN040 M06/M10 A3005 RMK SC6 SLP180

CYQB;2008-02-03 01:00;CYQB 030100Z 27005KT 15SM BKN041 M07/M11 A3007 RMK SC7 SLP187

CYQB;2008-02-03 02:00;CYQB 030200Z CCA 25005KT 15SM OVC039 M07/M12 A3008 RMK SC8 OBS TAKEN +11 SLP190

CYQB;2008-02-03 03:00;CYQB 030300Z 27006KT 15SM OVC041 M08/M12 A3008 RMK SC8 SLP193

CYQB;2008-02-03 04:00;CYQB 030400Z 27006KT 15SM SCT040 BKN150 BKN200 M10/M14 A3010 RMK SC3AC2CI1 SLP197

CYQB;2008-02-03 05:00;CYQB 030500Z 23006KT 15SM SCT150 BKN210 M11/M14 A3010 RMK AC3CI1 SLP198

CYQB;2008-02-03 06:00;CYQB 030600Z 27003KT 15SM FEW150 BKN250 M12/M15 A3010 RMK AC2CI1 SLP199

CYQB;2008-02-03 07:00;CYQB 030700Z 25005KT 15SM BKN160 M13/M16 A3012 RMK AC6 SLP204

CYQB;2008-02-03 08:00;CYQB 030800Z 00000KT 15SM SCT110 BKN160 M12/M15 A3012 RMK AC3AC2 SLP206

CYQB;2008-02-03 09:00;CYQB 030900Z 04002KT 15SM FEW110 SCT250 M14/M16 A3012 RMK AC2CI0 SLP207

CYQB;2008-02-03 10:00;CYQB 031000Z 35002KT 15SM SCT110 BKN250 M15/M18 A3013 RMK AC3CI0 SLP210

CYQB;2008-02-03 11:00;CYQB 031100Z 35003KT 15SM FEW110 SCT250 M15/M18 A3016 RMK AC2CI1 SLP218

CYQB;2008-02-03 12:00;CYQB 031200Z 00000KT 30SM FEW110 M17/M20 A3017 RMK AC2 SLP223

CYQB;2008-02-03 13:00;CYQB 031300Z 00000KT 30SM FEW110 FEW240 M17/M20 A3017 RMK AC1CI1 SLP222

CYQB;2008-02-03 14:00;CYQB 031400Z 00000KT 30SM FEW095 SCT240 M14/M18 A3017 RMK AC2CI1 CC ASOCTD SLP221

CYQB;2008-02-03 15:00;CYQB 031500Z 25005KT 30SM FEW020 SCT100 BKN240 M11/M14 A3017 RMK CF1AC2CI0 SLP222

CYQB;2008-02-03 16:00;CYQB 031600Z 23007KT 20SM FEW020 BKN080 OVC240 M08/M13 A3017 RMK CF1AC6CI1 VIRGA SLP221

CYQB;2008-02-03 17:00;CYQB 031700Z 23009KT 20SM BKN058 OVC100 M07/M12 A3015 RMK SC6AS2 SUN DIMLY VISBL SLP215

CYQB;2008-02-03 17:38;CYQB 031738Z 24009KT 10SM -SN OVC035 M07/ RMK SC8

CYQB;2008-02-03 18:00;CYQB 031800Z 23009KT 2 1/4SM -SN OVC015 M07/M11 A3014 RMK SC8 SLP213

CYQB;2008-02-03 18:27;CYQB 031827Z 23008KT 3SM -SN OVC030 M07/ RMK SC8

CYQB;2008-02-03 18:51;CYQB 031851Z 23008KT 2 1/4SM -SN OVC019 M07/ RMK SC8

CYQB;2008-02-03 19:00;CYQB 031900Z 23008KT 2 1/2SM -SN OVC019 M07/M10 A3014 RMK SC8 SLP213

CYQB;2008-02-03 20:00;CYQB 032000Z 23008KT 3SM -SN OVC025 M06/M09 A3015 RMK SC8 SLP215

CYQB;2008-02-03 20:33;CYQB 032033Z 23008KT 4SM -SN FEW030 BKN220 M06/ RMK SC2CI2

CYQB;2008-02-03 21:00;CYQB 032100Z 23008KT 8SM -SN FEW030 FEW080 BKN220 M07/M10 A3016 RMK SC1AC2CI1 SLP218

CYQB;2008-02-03 21:33;CYQB 032133Z 23010KT 10SM FEW030 FEW080 BKN220 M07/ RMK SC1AC2CI0

CYQB;2008-02-03 22:00;CYQB 032200Z 24009KT 10SM FEW030 FEW080 BKN220 M07/M10 A3017 RMK SC1AC2CI0 SLP221

CYQB;2008-02-03 23:00;CYQB 032300Z 25012KT 10SM BKN072 BKN220 M08/M11 A3018 RMK AC5CI0 SLP227

CYQB;2008-02-04 00:00;CYQB 040000Z 24011KT 10SM BKN072 M08/M11 A3020 RMK AC6 SLP233

CYQB;2008-02-04 01:00;CYQB 040100Z 23010KT 15SM FEW070 M09/M12 A3021 RMK AC2 SLP236

CYQB;2008-02-04 02:00;CYQB 040200Z 27007KT 15SM FEW070 M12/M15 A3023 RMK AC1 SLP242

CYQB;2008-02-04 03:00;CYQB 040300Z 27007KT 15SM SKC M13/M16 A3024 RMK SLP245

CYQB;2008-02-04 04:00;CYQB 040400Z 28007KT 15SM SKC M13/M16 A3025 RMK SLP250

CYQB;2008-02-04 05:00;CYQB 040500Z 27004KT 15SM SKC M14/M16 A3027 RMK SLP256

CYQB;2008-02-04 06:00;CYQB 040600Z 23003KT 15SM SKC M15/M17 A3027 RMK SLP257

CYQB;2008-02-04 07:00;CYQB 040700Z 24005KT 15SM SKC M15/M17 A3028 RMK SLP259

CYQB;2008-02-04 08:00;CYQB 040800Z 25006KT 15SM SKC M14/M16 A3031 RMK SLP271

CYQB;2008-02-04 09:00;CYQB 040900Z 25003KT 15SM SKC M15/M18 A3032 RMK SLP275

CYQB;2008-02-04 10:00;CYQB 041000Z 28004KT 15SM SKC M15/M18 A3032 RMK SLP275

CYQB;2008-02-04 11:00;CYQB 041100Z 22002KT 15SM FEW240 M16/M18 A3034 RMK CI1 SLP281

CYQB;2008-02-04 12:00;CYQB 041200Z 36002KT 30SM FEW240 M16/M17 A3036 RMK CI2 SLP288

CYQB;2008-02-04 12:33;CYQB 041233Z 19005KT 1/2SM FZFG FEW240 M15/ RMK FG2CI0

CYQB;2008-02-04 13:00;CYQB 041300Z 29002KT 2SM PRFG FEW240 M14/M16 A3039 RMK FG1CI1 VIS NW-NE 6 SLP297

CYQB;2008-02-04 13:14;CYQB 041314Z 00000KT 6SM PRFG FEW240 M14/ RMK CI1 VIS SW-S 4

CYQB;2008-02-04 13:36;CYQB 041336Z CCA 22002KT 10SM SCT240 M15/ RMK CI1 VIS W-S 5

CYQB;2008-02-04 14:00;CYQB 041400Z CCA 20005KT 10SM FEW010 SCT240 M13/M16 A3041 RMK SC1CI1 PREVAILING VIS 10IC VIS W-S 5 SLP303

CYQB;2008-02-04 15:00;CYQB 041500Z 00000KT 10SM FEW010 FEW240 M13/M15 A3041 RMK CF1CI1 PREVAILING VIS 10IC VIS W-SE 5 SLP305

CYQB;2008-02-04 16:00;CYQB 041600Z 27002KT 10SM FEW010 FEW240 M11/M13 A3041 RMK CF1CI1 VIS W-SE LWR SLP304

CYQB;2008-02-04 17:00;CYQB 041700Z 27005KT 10SM FEW020 FEW240 M10/M14 A3040 RMK CF1CI0 SLP301

CYQB;2008-02-04 18:00;CYQB 041800Z 26003KT 10SM FEW020 FEW240 M08/M12 A3038 RMK CF1CI1 SLP295

CYQB;2008-02-04 19:00;CYQB 041900Z 22002KT 15SM FEW020 FEW230 M06/M11 A3037 RMK CU1CI1 SLP290

CYQB;2008-02-04 20:00;CYQB 042000Z 26004KT 15SM FEW030 FEW230 M07/M12 A3036 RMK SC1CI1 SLP287

CYQB;2008-02-04 21:00;CYQB 042100Z 27003KT 15SM FEW030 FEW220 M07/M12 A3035 RMK SC1CI1 SLP284

CYQB;2008-02-04 22:00;CYQB 042200Z 05002KT 15SM FEW220 M08/M12 A3035 RMK CI0 SLP283

CYQB;2008-02-04 23:00;CYQB 042300Z 02002KT 15SM FEW220 M10/M14 A3037 RMK CI0 SLP290

CYQB;2008-02-05 00:00;CYQB 050000Z 00000KT 15SM FEW220 M12/M16 A3038 RMK CI1 SLP294

CYQB;2008-02-05 01:00;CYQB 050100Z 01004KT 15SM FEW210 M10/M14 A3037 RMK CI1 SLP291

CYQB;2008-02-05 02:00;CYQB 050200Z 04004KT 15SM FEW210 M11/M14 A3036 RMK CI1 SLP288

CYQB;2008-02-05 03:00;CYQB 050300Z 02006KT 15SM BKN210 M11/M14 A3034 RMK CI6 SLP280

CYQB;2008-02-05 04:00;CYQB 050400Z 10002KT 15SM BKN200 M11/M14 A3032 RMK CS7 SLP274

CYQB;2008-02-05 05:00;CYQB 050500Z 02002KT 15SM BKN190 M10/M14 A3029 RMK CS7 SLP265

CYQB;2008-02-05 06:00;CYQB 050600Z 05003KT 15SM FEW140 BKN190 M10/M13 A3026 RMK AC1AS6 SLP252

CYQB;2008-02-05 07:00;CYQB 050700Z 08009KT 15SM BKN170 M09/M12 A3021 RMK AS7 SLP235

CYQB;2008-02-05 08:00;CYQB 050800Z 06012KT 15SM OVC110 M07/M10 A3018 RMK AC8 SLP225

CYQB;2008-02-05 09:00;CYQB 050900Z 08014KT 15SM BKN072 OVC140 M07/M10 A3014 RMK AC7AC1 SLP212

CYQB;2008-02-05 09:33;CYQB 050933Z 10005KT 6SM -SN BKN027 OVC070 M07/ RMK SC7AC1

CYQB;2008-02-05 10:00;CYQB 051000Z 07011KT 1 1/2SM -SN OVC025 M06/M09 A3012 RMK SN2SC6 SLP205

CYQB;2008-02-05 11:00;CYQB 051100Z 07018G25KT 1SM R06/P6000FT/D -SN OVC017 M06/M09 A3006 RMK SN4SC4 PRESFR SLP185

CYQB;2008-02-05 12:00;CYQB 051200Z 06018KT 3/4SM R06/P6000FT/U -SN DRSN VV006 M05/M08 A3002 RMK SN8 SLP171

CYQB;2008-02-05 12:22;CYQB 051222Z 08013G21KT 1/2SM R06/P6000FT/D -SN BLSN OVC016 M05/ RMK SN6SC2

CYQB;2008-02-05 13:00;CYQB 051300Z 09011G18KT 3/8SM SN BLSN VV004 M05/M07 A2999 RMK SN8 /S02/ SLP162

CYQB;2008-02-05 14:00;CYQB 051400Z 07015KT 1/2SM -SN BLSN VV006 M05/M07 A2993 RMK SN8 /S03/ PRESFR SLP142

CYQB;2008-02-05 15:00;CYQB 051500Z CCA 08010G18KT 3/4SM R06/P6000FT/N -SN BLSN BKN007 OVC015 M04/M06 A2989 RMK SN2SF3SC2 /S05/ SLP127

CYQB;2008-02-05 15:29;CYQB 051529Z 08010G16KT 1/2SM R06/3500V5000FT/N -SN BLSN BKN006 OVC017 M04/ RMK SN2SF3SC2

CYQB;2008-02-05 16:00;CYQB 051600Z 07014G20KT 3/8SM R06/4000FT/D -SN BLSN VV004 M04/M06 A2985 RMK SN8 /S06/ SLP112

CYQB;2008-02-05 17:00;CYQB 051700Z 07013KT 1/2SM R06/5000FT/N -SN BLSN BKN005 OVC014 M03/M06 A2978 RMK SN2SF5SC2 SLP091

CYQB;2008-02-05 17:18;CYQB 051718Z 08012G19KT 1SM R06/P6000FT/N -SN BLSN BKN005 OVC015 M03/ RMK SN2SF4SC2

CYQB;2008-02-05 17:41;CYQB 051741Z 08013G18KT 3/8SM R06/2200FT/N -SN BLSN VV004 M03/ RMK SN8

CYQB;2008-02-05 18:00;CYQB 051800Z 07014KT 1/4SM R06/2000FT/N SN +BLSN VV003 M03/M05 A2973 RMK SN8 SLP074

CYQB;2008-02-05 18:30;CYQB 051830Z 07012G19KT 5/8SM R06/4000VP6000FT/U -SN BLSN BKN006 OVC021 M03/ RESN RMK SN2SF4SC2

CYQB;2008-02-05 18:43;CYQB 051843Z 08009G16KT 3/8SM R06/2800VP6000FT/D SN VV003 M03/ RMK SN8

CYQB;2008-02-05 19:00;CYQB 051900Z 08011G16KT 1/2SM R06/2600V4000FT/N -PLSN BKN005 OVC015 M03/M05 A2969 RMK SN2SF4SC2 RESN REBLSN SLP059

CYQB;2008-02-05 19:26;CYQB 051926Z 07011G16KT 3/4SM R06/P6000FT/N -PLSN BKN008 OVC016 M03/ RMK SN1SF4SC3

CYQB;2008-02-05 20:00;CYQB 052000Z 07009KT 3/4SM R06/P6000FT/N PL FEW008 OVC014 M02/M04 A2969 RMK SF2SC6 SLP059

CYQB;2008-02-05 20:30;CYQB 052030Z 07008KT 3/4SM R06/P6000FT/U -PL FEW004 OVC014 M02/ REPL RMK SF2SC6

CYQB;2008-02-05 20:48;CYQB 052048Z 08007KT 3/4SM R06/P6000FT/U -PLSN FEW004 OVC014 M02/ RMK SN1SF2SC6

CYQB;2008-02-05 21:00;CYQB 052100Z 06008KT 3/4SM R06/P6000FT/U -PLSN BKN008 OVC016 M02/M04 A2968 RMK SN2SF4SC2 SLP056

CYQB;2008-02-05 21:45;CYQB 052145Z 09003KT 1SM R06/P6000FT/N -SN OVC018 M02/ RMK SN1SC7

CYQB;2008-02-05 22:00;CYQB 052200Z 07002KT 1SM R06/P6000FT/U -FZDZ BR FEW008 OVC018 M03/M04 A2970 RMK SF2SC6 SLP061

CYQB;2008-02-05 22:35;CYQB 052235Z 09002KT 1 1/2SM -FZDZ BR FEW002 OVC015 M03/ RMK SF2SC6

CYQB;2008-02-05 23:00;CYQB 052300Z 10003KT 5SM -FZDZ BR BKN004 OVC014 M03/M05 A2971 RMK ST6SC2 SLP066

CYQB;2008-02-05 23:29;CYQB 052329Z 09002KT 6SM BR BKN006 OVC014 M03/ RMK ST6SC2

CYQB;2008-02-05 23:30;CYQB 052330Z CCA 09002KT 6SM BR BKN006 OVC014 M03/ REFZDZ RMK ST6SC2

CYQB;2008-02-06 00:00;CYQB 060000Z 18002KT 5SM -FZDZ BKN005 OVC012 M03/M05 A2974 RMK ST6SC2 SLP076

CYQB;2008-02-06 01:00;CYQB 060100Z 23005KT 5SM -FZDZ OVC009 M03/M05 A2978 RMK SC8 SLP087

CYQB;2008-02-06 02:00;CYQB 060200Z CCA 23011KT 5SM BR SCT009 OVC024 M02/M04 A2978 REFZDZ RMK SF4SC4 SLP090

CYQB;2008-02-06 02:09;CYQB 060209Z CCA 22008KT 5SM BR BKN007 OVC021 M02/ REFZDZ RMK SF5SC3

CYQB;2008-02-06 03:00;CYQB 060300Z 26013KT 8SM FEW007 OVC024 M02/M04 A2981 RMK SF1SC7 SLP098

CYQB;2008-02-06 04:00;CYQB 060400Z 28013G18KT 15SM BKN029 M03/M06 A2981 RMK SC7 SLP099

CYQB;2008-02-06 05:00;CYQB 060500Z 27005KT 15SM BKN028 M06/M08 A2980 RMK SC6 SLP095

CYQB;2008-02-06 06:00;CYQB 060600Z 26005KT 15SM SCT030 M07/M10 A2979 RMK SC3 SLP094

CYQB;2008-02-06 07:00;CYQB 060700Z 32009KT 15SM FEW030 FEW250 M05/M09 A2981 RMK SC1CI1 SLP100

CYQB;2008-02-06 08:00;CYQB 060800Z 32005KT 15SM FEW030 BKN240 M05/M09 A2982 RMK SC1CI2 SLP102

CYQB;2008-02-06 09:00;CYQB 060900Z 35003KT 15SM FEW020 BKN150 M05/M10 A2982 RMK SC1AC6 SLP101

CYQB;2008-02-06 10:00;CYQB 061000Z 23004KT 15SM FEW020 BKN150 M07/M11 A2983 RMK SC1AC6 SLP104

CYQB;2008-02-06 11:00;CYQB 061100Z 28002KT 15SM BKN011 OVC150 M07/M10 A2983 RMK SF6AC2 SLP104

CYQB;2008-02-06 12:00;CYQB 061200Z 19003KT 25SM OVC012 M06/M10 A2982 RMK SC8 SLP102

CYQB;2008-02-06 13:00;CYQB 061300Z 15003KT 25SM OVC015 M06/M09 A2980 RMK SC8 SLP095

CYQB;2008-02-06 14:00;CYQB 061400Z 00000KT 12SM OVC014 M06/M08 A2981 RMK SC8 SLP098

CYQB;2008-02-06 14:30;CYQB 061430Z 00000KT 12SM -SN OVC015 M06/ RMK SC8 PCPN VRY LGT

CYQB;2008-02-06 15:00;CYQB 061500Z 00000KT 1SM R06/P6000FT/D -SN VV008 M05/M08 A2981 RMK SN8 SLP099

CYQB;2008-02-06 16:00;CYQB 061600Z 00000KT 1 1/4SM -SN OVC016 M05/M07 A2978 RMK SN5SC3 SLP090

CYQB;2008-02-06 17:00;CYQB 061700Z CCA 00000KT 4SM -SN OVC020 M04/M07 A2975 RMK SC8 /S01/ SLP078

CYQB;2008-02-06 18:00;CYQB 061800Z 18003KT 3SM -SN BKN020 OVC035 M04/M07 A2976 RMK SC6SC2 SLP082

CYQB;2008-02-06 18:43;CYQB 061843Z 00000KT 1 1/4SM -SN BR BKN016 OVC031 M04/ RMK SF7SC1

CYQB;2008-02-06 19:00;CYQB 061900Z 00000KT 1 1/2SM -SN BKN019 OVC034 M04/M06 A2976 RMK SF7SC1 SLP084

CYQB;2008-02-06 19:16;CYQB 061916Z 00000KT 3SM -SN OVC037 M04/ RMK SF8

CYQB;2008-02-06 19:41;CYQB 061941Z 00000KT 6SM SCT040 OVC075 M04/ RMK SC3AC5

CYQB;2008-02-06 20:00;CYQB 062000Z 00000KT 6SM FEW040 SCT078 OVC086 M04/M06 A2976 RMK SC2AC2AC4 SLP083

CYQB;2008-02-06 20:45;CYQB 062045Z 00000KT 5SM BR BKN006 BKN088 M03/ RMK SF5AC2

CYQB;2008-02-06 21:00;CYQB 062100Z 00000KT 5SM BR SCT005 BKN085 BKN120 M04/M06 A2976 RMK SF4AC2AC2 SLP081

CYQB;2008-02-06 22:00;CYQB 062200Z 00000KT 8SM FEW005 BKN100 BKN130 M05/M07 A2978 RMK SF1AC4AC2 VIS LWR S SLP090

CYQB;2008-02-06 23:00;CYQB 062300Z 00000KT 15SM FEW005 SCT100 BKN130 M04/M10 A2979 RMK SF1AC3AC3 SLP092

CYQB;2008-02-07 00:00;CYQB 070000Z 00000KT 15SM FEW025 FEW250 M07/M12 A2980 RMK SF1CI1 SLP097

CYQB;2008-02-07 01:00;CYQB 070100Z 00000KT 15SM FEW025 BKN220 M07/M14 A2981 RMK SF1CI6 SLP101

CYQB;2008-02-07 02:00;CYQB 070200Z 00000KT 15SM FEW025 BKN220 M08/M15 A2983 RMK SF1CI6 SLP108

CYQB;2008-02-07 03:00;CYQB 070300Z 00000KT 15SM FEW030 OVC210 M09/M16 A2983 RMK SF2CI6 SLP106

CYQB;2008-02-07 04:00;CYQB 070400Z 00000KT 15SM FEW030 OVC210 M09/M16 A2986 RMK SF2CI6 SLP117

CYQB;2008-02-07 05:00;CYQB 070500Z 00000KT 15SM FEW025 BKN210 M10/M16 A2986 RMK SF2CI6 SLP116

CYQB;2008-02-07 06:00;CYQB 070600Z 00000KT 15SM BKN190 M11/M17 A2983 RMK CI6 SLP106

CYQB;2008-02-07 07:00;CYQB 070700Z 00000KT 15SM FEW025 BKN200 M11/M16 A2985 RMK SF1CI6 SLP113

CYQB;2008-02-07 08:00;CYQB 070800Z 00000KT 15SM BKN200 M11/M16 A2984 RMK CI6 SLP110

CYQB;2008-02-07 09:00;CYQB 070900Z 05012KT 15SM BKN200 M11/M17 A2981 RMK CI6 SLP098

CYQB;2008-02-07 10:00;CYQB 071000Z 07007KT 15SM FEW025 BKN230 M11/M16 A2985 RMK SF1CI6 SLP113

CYQB;2008-02-07 11:00;CYQB 071100Z 07005KT 15SM FEW020 OVC220 M11/M15 A2989 RMK SC1CI6 SLP125

CYQB;2008-02-07 12:00;CYQB 071200Z 08011KT 20SM FEW020 OVC210 M11/M16 A2988 RMK SC2CI6 SLP123

CYQB;2008-02-07 13:00;CYQB 071300Z 07011G20KT 30SM FEW020 OVC220 M11/M16 A2986 RMK SC2CI6 SLP118

CYQB;2008-02-07 14:00;CYQB 071400Z 08009G17KT 20SM FEW020 OVC220 M11/M15 A2989 RMK SC1CI7 SLP129

CYQB;2008-02-07 14:25;CYQB 071425Z 10009G17KT 20SM -SHSN FEW017 OVC220 M11/ RMK SC2CI6

CYQB;2008-02-07 15:00;CYQB 071500Z 08009KT 10SM -SHSN SCT012 OVC220 M11/M15 A2991 RMK SC4CS4 VIS HIER NW-NE SLP135

CYQB;2008-02-07 16:00;CYQB 071600Z 07014G19KT 20SM BKN017 BKN220 M11/M15 A2990 RMK SC6CS2 SLP132

CYQB;2008-02-07 17:00;CYQB 071700Z 10011G17KT 20SM -SHSN BKN017 BKN220 M11/M15 A2992 RMK SC5CS2 SLP138

CYQB;2008-02-07 17:34;CYQB 071734Z 08014G20KT 15SM -SHSN BKN017 BKN220 M11/ RMK SC5CI2 VIS E LWR

CYQB;2008-02-07 18:00;CYQB 071800Z 08014G20KT 20SM BKN017 BKN220 M11/M15 A2993 RMK SC5CI1 VIS LWR E SLP140

CYQB;2008-02-07 19:00;CYQB 071900Z 07013KT 15SM SCT016 BKN220 M11/M15 A2994 RMK SC4CI2 SLP145

CYQB;2008-02-07 20:00;CYQB 072000Z 08015G20KT 15SM SCT021 BKN220 M11/M15 A2996 RMK SC3CI2 SLP151

CYQB;2008-02-07 21:00;CYQB 072100Z 07015G20KT 15SM FEW020 BKN210 M11/M16 A2997 RMK SC1CI5 SLP156

CYQB;2008-02-07 22:00;CYQB 072200Z 07013G20KT 15SM FEW020 BKN230 M11/M15 A2999 RMK CU1CI5 SLP161

CYQB;2008-02-07 23:00;CYQB 072300Z 07015G21KT 15SM FEW020 BKN220 M11/M15 A3001 RMK SC2CI3 SLP167

CYQB;2008-02-08 00:00;CYQB 080000Z CCA 07010G19KT 15SM FEW010 BKN200 M11/M15 A3001 RMK SC1CI3 IC SLP169

CYQB;2008-02-08 01:00;CYQB 080100Z 07011G18KT 15SM -SN FEW010 BKN066 BKN200 M12/M15 A3003 RMK SC1SC4CI1 SLP174

CYQB;2008-02-08 02:00;CYQB 080200Z 07016KT 15SM -SN FEW010 OVC048 M11/M15 A3003 RMK CU1SC7 SLP176

CYQB;2008-02-08 03:00;CYQB 080300Z CCA 07013G20KT 4SM -SN OVC038 M11/M15 A3003 RMK SC8 SLP176

CYQB;2008-02-08 04:00;CYQB 080400Z 07014G20KT 8SM -SN FEW012 OVC036 M11/M15 A3003 RMK CF1SC7 SLP175

CYQB;2008-02-08 05:00;CYQB 080500Z 07013G18KT 8SM -SN FEW012 OVC034 M10/M14 A3003 RMK CF1SC7 SLP176

CYQB;2008-02-08 06:00;CYQB 080600Z 08013KT 10SM -SN FEW010 OVC027 M10/M14 A3003 RMK SC1SC7 SLP176

CYQB;2008-02-08 07:00;CYQB 080700Z 07010G19KT 10SM -SN FEW010 OVC024 M10/M14 A3004 RMK SF2SC6 SLP178

CYQB;2008-02-08 08:00;CYQB 080800Z 07013KT 10SM -SN FEW010 OVC026 M10/M14 A3004 RMK SF2SC6 SLP178

CYQB;2008-02-08 09:00;CYQB 080900Z 08011G17KT 8SM -SN FEW010 OVC025 M09/M13 A3003 RMK SF2SC6 SLP175

CYQB;2008-02-08 10:00;CYQB 081000Z 08007KT 6SM -SN FEW010 OVC028 M09/M13 A3003 RMK SF1SC7 SLP173

CYQB;2008-02-08 11:00;CYQB 081100Z 07009KT 5SM -SN SCT030 OVC065 M09/M13 A3001 RMK SN1SC3SC4 SLP169

CYQB;2008-02-08 12:00;CYQB 081200Z 09003KT 2SM -SN VV018 M09/M12 A3002 RMK SN8 SLP172

CYQB;2008-02-08 13:00;CYQB 081300Z 25002KT 1 1/2SM -SN VV010 M09/M12 A3005 RMK SN8 SLP181

CYQB;2008-02-08 14:00;CYQB 081400Z 00000KT 1 1/2SM -SN VV014 M09/M12 A3004 RMK SN8 /S01/ SLP177

CYQB;2008-02-08 15:00;CYQB 081500Z 00000KT 2SM -SN VV016 M09/M12 A3003 RMK SN8 /S02/ SLP174

CYQB;2008-02-08 15:48;CYQB 081548Z 00000KT 3SM -SN BKN009 OVC030 RMK SN2SC6SC1

CYQB;2008-02-08 16:00;CYQB 081600Z 13002KT 3SM -SN OVC009 M08/M11 A3003 RMK SN2SC6 /S03/ SLP173

CYQB;2008-02-08 17:00;CYQB 081700Z 27002KT 3SM -SN SCT009 OVC047 M08/M11 A3001 RMK SN2SC2SC4 SLP167

CYQB;2008-02-08 17:44;CYQB 081744Z 27003KT 3SM -SN BKN012 OVC030 M08/ RMK SN2SC4SC2

CYQB;2008-02-08 18:00;CYQB 081800Z 27003KT 4SM -SN SCT012 OVC025 M08/M11 A2999 RMK SF4SC4 /S04/ SLP162

CYQB;2008-02-08 19:00;CYQB 081900Z 24005KT 5SM -SN FEW012 OVC029 M07/M12 A2997 RMK SC2SC6 SLP153

CYQB;2008-02-08 20:00;CYQB 082000Z 27004KT 8SM BKN024 OVC060 M07/M12 A2996 RMK SC5SC2 SLP152

CYQB;2008-02-08 21:00;CYQB 082100Z 28003KT 10SM BKN020 OVC060 M08/M12 A2996 RMK SC5SC2 SLP152

CYQB;2008-02-08 22:00;CYQB 082200Z 25002KT 10SM SCT020 OVC150 M09/M12 A2997 RMK SC3AS3 SLP154

CYQB;2008-02-08 23:00;CYQB 082300Z 27002KT 15SM SCT180 M10/M14 A2997 RMK AS2 SLP156

CYQB;2008-02-09 00:00;CYQB 090000Z 00000KT 15SM FEW170 M11/M14 A2998 RMK AS2 SLP158

CYQB;2008-02-09 01:00;CYQB 090100Z 00000KT 15SM FEW150 M14/M15 A2998 RMK AS2 SLP158

CYQB;2008-02-09 02:00;CYQB 090200Z 00000KT 15SM FEW180 M13/M16 A2999 RMK AS1 SLP161

CYQB;2008-02-09 03:00;CYQB 090300Z 00000KT 15SM FEW030 SCT180 M13/M17 A2999 RMK SF1AS3 SLP162

CYQB;2008-02-09 04:00;CYQB 090400Z 00000KT 5SM BR FEW030 SCT210 M15/M18 A3000 RMK SF1CI3 SLP165

CYQB;2008-02-09 05:00;CYQB 090500Z 00000KT 5SM BR FEW030 FEW130 M14/M17 A3001 RMK SF1AS2 SLP167

CYQB;2008-02-09 06:00;CYQB 090600Z 00000KT 10SM FEW160 M17/M20 A3000 RMK AS1 SLP164

CYQB;2008-02-09 07:00;CYQB 090700Z 21002KT 1/4SM R06/2600V4500FT/D FZFG FEW150 M17/M21 A3000 RMK FG2AS1 SLP166

CYQB;2008-02-09 08:00;CYQB 090800Z 00000KT 1/4SM R06/1000FT/N FZFG SKC M17/M19 A3001 RMK FG6 SLP168

CYQB;2008-02-09 09:00;CYQB 090900Z 00000KT 1/4SM R06/3500VP6000FT/N FZFG VV001 M14/M17 A3001 RMK FG8 SLP169

CYQB;2008-02-09 10:00;CYQB 091000Z 00000KT 1/8SM R06/1200FT/N FZFG VV001 M14/M17 A3003 RMK FG8 SLP175

CYQB;2008-02-09 11:00;CYQB 091100Z 00000KT 1/8SM R06/0900FT/N FZFG VV001 M13/M16 A3003 RMK FG8 SLP176

CYQB;2008-02-09 12:00;CYQB 091200Z CCA 00000KT 1/8SM R06/0800V1400FT/N FZFG SKC M13/M15 A3004 RMK FG7 FROIN SLP180

CYQB;2008-02-09 13:00;CYQB 091300Z 00000KT 0SM R06/1200FT/N FZFG VV001 M14/M16 A3005 RMK FG8 FROIN SLP183

CYQB;2008-02-09 14:00;CYQB 091400Z 00000KT 0SM R06/0500FT/N FZFG VV001 M13/M15 A3004 RMK FG8 SUN DIMLY VISBL SLP179

CYQB;2008-02-09 14:11;CYQB 091411Z 00000KT 1/8SM R06/0600FT/N FZFG VV001 M12/ RMK FG8 SUN DIML VISBL

CYQB;2008-02-09 14:21;CYQB 091421Z 00000KT 0SM R06/0600V0800FT/N FZFG VV001 M12/ RMK FG8 SUN DIMLY VISBL

CYQB;2008-02-09 14:46;CYQB 091446Z 27002KT 1/8SM R06/0700V1200FT/N FZFG VV001 M12/ RMK FG8 SUN DIMLY VISBL

CYQB;2008-02-09 15:00;CYQB 091500Z 29003KT 1/4SM R06/1600V2600FT/N FZFG VV001 M12/M14 A3005 RMK FG8 SUN DIMLY VISBL SLP182

CYQB;2008-02-09 15:26;CYQB 091526Z 00000KT 3/4SM R06/2800VP6000FT/N BR BKN200 M12/ RMK FG3CI1

CYQB;2008-02-09 15:48;CYQB 091548Z 00000KT 2 1/2SM BR FEW200 M11/ RMK FG2CI0

CYQB;2008-02-09 16:00;CYQB 091600Z 00000KT 3SM BR FEW200 M11/M12 A3005 RMK FG1CI0 SLP181

CYQB;2008-02-09 17:00;CYQB 091700Z 36002KT 5SM BR FEW015 SCT200 M08/M10 A3001 RMK CF1CI2 VSB N 6 SLP169

CYQB;2008-02-09 18:00;CYQB 091800Z 00000KT 6SM BR FEW015 FEW030 BKN200 M06/M08 A2998 RMK CF1SC1CS2 SLP158

CYQB;2008-02-09 19:00;CYQB 091900Z 18004KT 8SM FEW030 OVC200 M05/M10 A2997 RMK SC1CS6 SLP155

CYQB;2008-02-09 20:00;CYQB 092000Z 00000KT 8SM FEW030 BKN170 OVC200 M04/M10 A2997 RMK SC1AS5CI3 SLP154

CYQB;2008-02-09 21:00;CYQB 092100Z 00000KT 8SM SCT033 BKN110 OVC200 M05/M09 A2995 RMK SC3AS4CS1 SLP149

CYQB;2008-02-09 22:00;CYQB 092200Z 05002KT 8SM BKN038 OVC100 M04/M09 A2994 RMK SC6AS2 SLP146

CYQB;2008-02-09 23:00;CYQB 092300Z 01003KT 8SM BKN033 OVC100 M04/M09 A2994 RMK SC6AS2 SLP144

CYQB;2008-02-10 00:00;CYQB 100000Z 07004KT 6SM HZ OVC033 M05/M09 A2993 RMK SC8 SLP141

CYQB;2008-02-10 00:17;CYQB 100017Z 07005KT 5SM -SN OVC027 M04/ RMK SC8

CYQB;2008-02-10 01:00;CYQB 100100Z 07006KT 5SM -SN OVC020 M05/M09 A2991 RMK SC8 SLP134

CYQB;2008-02-10 01:29;CYQB 100129Z 07009KT 3SM -SN OVC010 M05/ RMK SC8

CYQB;2008-02-10 02:00;CYQB 100200Z 07011KT 1 1/2SM -SN OVC011 M05/M08 A2989 RMK SN2SC6 SLP127

CYQB;2008-02-10 03:00;CYQB 100300Z 08011G18KT 1 1/2SM -SN OVC022 M05/M07 A2985 RMK SN2SC6 SLP115

CYQB;2008-02-10 04:00;CYQB 100400Z 06017KT 1SM R06/P6000FT/D -SN OVC018 M05/M07 A2982 RMK SN2SC6 SLP103

CYQB;2008-02-10 05:00;CYQB 100500Z 06014KT 3/4SM R06/P6000FT/U -SN OVC017 M04/M07 A2978 RMK SN5SC3 /S01/ SLP091

CYQB;2008-02-10 06:00;CYQB 100600Z 06015KT 3/4SM R06/P6000FT/U -SN OVC017 M04/M06 A2974 RMK SN6SC2 SLP076

CYQB;2008-02-10 07:00;CYQB 100700Z 08009KT 3/4SM R06/P6000FT/D -SN OVC023 M04/M06 A2971 RMK SN5SC3 SLP065

CYQB;2008-02-10 08:00;CYQB 100800Z 08009G15KT 3/4SM R06/P6000FT/D -SN OVC017 M04/M06 A2967 RMK SN5SC3 /S01/ SLP052

CYQB;2008-02-10 09:00;CYQB 100900Z 08010G15KT 1 1/2SM -SN SCT005 OVC015 M04/M06 A2963 RMK SN2SC2SC4 SLP039

CYQB;2008-02-10 10:00;CYQB 101000Z 08010KT 1SM R06/P6000FT/D -SN SCT007 OVC024 M04/M06 A2960 RMK SN3SC1SC4 SLP028

CYQB;2008-02-10 10:24;CYQB 101024Z 08010G16KT 3/4SM R06/P6000FT/D -SN VV004 M04/ RMK SN8

CYQB;2008-02-10 11:00;CYQB 101100Z 08010KT 3/4SM R06/P6000FT/D -SN VV004 M04/M06 A2958 RMK SN8 SLP022

CYQB;2008-02-10 12:00;CYQB 101200Z 08011KT 3/4SM R06/P6000FT/D -SN OVC019 M04/M06 A2957 RMK SN7SC1 /S06/ SLP017

CYQB;2008-02-10 13:00;CYQB 101300Z 07017KT 3/4SM R06/6000FT/N -SN OVC019 M04/M06 A2954 RMK SN7SC1 /S03/ SLP008

CYQB;2008-02-10 14:00;CYQB 101400Z 08009KT 1SM R06/P6000FT/N -SN OVC007 M03/M06 A2952 RMK SN3SC5 /S06/ SLP002

CYQB;2008-02-10 14:29;CYQB 101429Z 08011KT 1/2SM R06/5000FT/D SN OVC011 M03/ RMK SN5SC3

CYQB;2008-02-10 15:00;CYQB 101500Z CCA 08008KT 3/4SM R06/P6000FT/U -SN OVC011 M03/M05 A2949 RESN RMK SN4SC4 /S09/ SLP991

CYQB;2008-02-10 16:00;CYQB 101600Z 08009KT 3SM -SN OVC009 M03/M05 A2947 RMK SN2SC6 SLP984

CYQB;2008-02-10 16:29;CYQB 101629Z 08012KT 1 1/2SM -SN OVC020 RMK SN3SC5

CYQB;2008-02-10 17:00;CYQB 101700Z 08013KT 1SM R06/6000FT/U -SN BKN008 OVC024 M03/M05 A2943 RMK SN3SC3SC2 SUN DIMLY VSBL SLP971

CYQB;2008-02-10 17:45;CYQB 101745Z 07012KT 3SM -SN OVC029 M02/ RMK SN2SC6

CYQB;2008-02-10 18:00;CYQB 101800Z 07013KT 3SM -SN BKN009 OVC032 M02/M05 A2941 RMK SC5SC3 /S10/ SLP963

CYQB;2008-02-10 18:24;CYQB 101824Z 08012KT 1 1/2SM -SN BKN013 OVC030 M02/ RMK SN2SC4SC2

CYQB;2008-02-10 19:00;CYQB 101900Z 07012G18KT 1SM R06/P6000FT/N -SN BKN008 OVC020 M02/M05 A2939 RMK SC6SC2 /S01/ SLP955

CYQB;2008-02-10 20:00;CYQB 102000Z 09008KT 3/4SM R06/5000FT/D -SN VV006 M03/M05 A2938 RMK SN8 SLP954

CYQB;2008-02-10 21:00;CYQB 102100Z 10002KT 1/2SM R06/2800FT/N SN OVC009 M03/M05 A2939 RMK SN6SC2 /S05/ SLP957

CYQB;2008-02-10 22:00;CYQB 102200Z CCA 20004KT 3/4SM R06/P6000FT/N -SN BKN005 OVC012 M03/M05 A2940 RESN RMK SN2SF5SC1 /S07/ SLP961

CYQB;2008-02-10 23:00;CYQB 102300Z CCA 18005KT 3/4SM R06/P6000FT/D -SN BKN008 OVC017 M03/M05 A2942 RMK SN2SF5SC2 /S08/ SLP967

CYQB;2008-02-10 23:35;CYQB 102335Z 18005KT 1/2SM R06/3000V4500FT/N SN VV004 M03/ RMK SN8

CYQB;2008-02-11 00:00;CYQB 110000Z 23004KT 1/2SM R06/4000VP6000FT/D SN VV004 M03/M05 A2945 RMK SN8 /S09/ SLP975

CYQB;2008-02-11 00:25;CYQB 110025Z 32015G20KT 1 1/2SM -SN BLSN SCT005 OVC030 M04/ RESN RMK SN2SF2SC4

CYQB;2008-02-11 00:40;CYQB 110040Z 29017KT 6SM -SN BLSN SCT005 OVC027 M04/ RESN RMK SF4SC4

CYQB;2008-02-11 01:00;CYQB 110100Z 25010KT 10SM FEW008 SCT030 OVC050 M03/M07 A2944 RESN REBLSN RMK SF2SC2SC5 SLP973

CYQB;2008-02-11 02:00;CYQB 110200Z 26014KT 10SM DRSN FEW008 OVC055 M03/M07 A2944 RMK SF2SC6 SLP974

CYQB;2008-02-11 03:00;CYQB 110300Z 27022G27KT 10SM DRSN OVC035 M05/M09 A2945 RMK SC8 SLP978

CYQB;2008-02-11 04:00;CYQB 110400Z 27017KT 6SM -SN DRSN OVC021 M06/M09 A2947 RMK SC8 SLP982

CYQB;2008-02-11 05:00;CYQB 110500Z 26020G29KT 5SM -SN DRSN OVC014 M07/M11 A2948 RMK SC8 SLP987

CYQB;2008-02-11 06:00;CYQB 110600Z 26020G27KT 1 1/2SM -SN DRSN OVC010 M08/M11 A2950 RMK SN2SC6 SLP994

CYQB;2008-02-11 07:00;CYQB 110700Z 26019G27KT 1 1/2SM -SN DRSN OVC013 M09/M13 A2953 RMK SC8 SLP003

CYQB;2008-02-11 08:00;CYQB 110800Z 26023G28KT 3SM -SN DRSN OVC017 M10/M14 A2955 RMK SC8 SLP010

CYQB;2008-02-11 09:00;CYQB 110900Z 26022G28KT 1 1/2SM -SN DRSN OVC011 M12/M15 A2959 RMK SC8 SLP023

CYQB;2008-02-11 10:00;CYQB 111000Z 25018G24KT 1SM R06/P6000FT/D -SN DRSN OVC008 M12/M15 A2963 RMK SC8 /S01/ SLP037

CYQB;2008-02-11 11:00;CYQB 111100Z 26021G26KT 1 1/2SM -SN DRSN BKN014 OVC038 M13/M16 A2966 RMK SC6SC2 SLP049

CYQB;2008-02-11 12:00;CYQB 111200Z 26018G24KT 2SM -SN BLSN BKN018 OVC036 M14/M17 A2971 RMK SC5SC3 SLP066

CYQB;2008-02-11 13:00;CYQB 111300Z 26019G24KT 2SM -SN BLSN BKN014 OVC031 M14/M17 A2975 RMK SC5SC3 SLP078

CYQB;2008-02-11 14:00;CYQB 111400Z 26019G24KT 1 1/2SM -SN BLSN OVC020 M14/M17 A2977 RMK BLSN3SC5 SLP087

CYQB;2008-02-11 15:00;CYQB 111500Z 25022KT 5SM BLSN FEW020 BKN060 M14/M18 A2980 RMK SC2SC5 SLP096

CYQB;2008-02-11 16:00;CYQB 111600Z 25021G26KT 8SM DRSN SCT030 BKN110 M14/M18 A2983 RMK SC3AC1 REBLSN SLP108

CYQB;2008-02-11 17:00;CYQB 111700Z 25024G29KT 8SM DRSN BKN032 BKN110 M13/M17 A2984 RMK SC5AC0 SLP110

CYQB;2008-02-11 18:00;CYQB 111800Z 25020G31KT 8SM DRSN SCT033 BKN270 M13/M16 A2986 RMK SC4CI0 SLP119

CYQB;2008-02-11 19:00;CYQB 111900Z 26021G28KT 8SM DRSN VCBLSN OVC033 M12/M16 A2988 RMK SC5 VIS E-SW 20 SLP124

CYQB;2008-02-11 20:00;CYQB 112000Z 25018G26KT 12SM DRSN BKN035 BKN070 M12/M16 A2992 RMK SC5AC1 SLP136

CYQB;2008-02-11 21:00;CYQB 112100Z 25022G28KT 10SM DRSN OVC037 M12/M17 A2994 RMK SC6 SLP144

CYQB;2008-02-11 22:00;CYQB 112200Z 25022KT 5SM BLSN BKN032 M13/M17 A2997 RMK SC5 SLP154

CYQB;2008-02-11 23:00;CYQB 112300Z 25020KT 12SM DRSN BKN033 M13/M17 A3000 REBLSN RMK SC6 SLP166

CYQB;2008-02-12 00:00;CYQB 120000Z 24015KT 12SM DRSN SCT035 M14/M19 A3005 RMK SC3 SLP182

CYQB;2008-02-12 01:00;CYQB 120100Z 24016KT 15SM DRSN SCT037 M15/M19 A3008 RMK SC2 SLP191

CYQB;2008-02-12 02:00;CYQB 120200Z 25017KT 15SM FEW035 FEW075 M14/M18 A3011 RMK SC1AC2 SLP203

CYQB;2008-02-12 03:00;CYQB 120300Z 25016KT 15SM FEW015 BKN070 M15/M19 A3014 RMK SC1AC2 SLP213

CYQB;2008-02-12 04:00;CYQB 120400Z 25018KT 15SM BKN061 M15/M20 A3015 RMK SC2 SLP217

CYQB;2008-02-12 05:00;CYQB 120500Z 26018KT 15SM FEW060 M16/M20 A3017 RMK SC2 SLP223

CYQB;2008-02-12 06:00;CYQB 120600Z 25015KT 15SM SKC M16/M21 A3019 RMK SLP231

CYQB;2008-02-12 07:00;CYQB 120700Z 25020KT 15SM SKC M16/M21 A3021 RMK SLP236

CYQB;2008-02-12 08:00;CYQB 120800Z 26016KT 15SM SKC M17/M22 A3022 RMK SLP242

CYQB;2008-02-12 09:00;CYQB 120900Z 26017KT 15SM SKC M18/M22 A3025 RMK SLP251

CYQB;2008-02-12 10:00;CYQB 121000Z 26016KT 15SM SKC M19/M26 A3028 RMK SLP259

CYQB;2008-02-12 11:00;CYQB 121100Z 25015KT 15SM SKC M19/M25 A3030 RMK SLP267

CYQB;2008-02-12 12:00;CYQB 121200Z 26015KT 30SM FEW030 M20/M25 A3032 RMK CF1 SLP276

CYQB;2008-02-12 13:00;CYQB 121300Z 26013KT 30SM SKC M20/M25 A3035 RMK SLP284

CYQB;2008-02-12 14:00;CYQB 121400Z 24011KT 30SM SKC M18/M24 A3035 RMK SLP286

CYQB;2008-02-12 15:00;CYQB 121500Z 25012KT 30SM SKC M17/M23 A3036 RMK SLP289

CYQB;2008-02-12 16:00;CYQB 121600Z 24016KT 30SM SKC M16/M22 A3040 RMK SLP301

CYQB;2008-02-12 17:00;CYQB 121700Z 23012G19KT 30SM SKC M15/M22 A3038 RMK SLP296

CYQB;2008-02-12 18:00;CYQB 121800Z 23015KT 30SM FEW220 M15/M21 A3036 RMK CI1 SLP288

CYQB;2008-02-12 19:00;CYQB 121900Z CCA 22012G18KT 30SM FEW220 M14/M21 A3036 RMK CS1 SLP287

CYQB;2008-02-12 20:00;CYQB 122000Z 23015KT 25SM FEW220 M14/M21 A3037 RMK CS1 SLP291

CYQB;2008-02-12 21:00;CYQB 122100Z 26011KT 25SM FEW220 M14/M20 A3038 RMK CS1 SLP294

CYQB;2008-02-12 22:00;CYQB 122200Z 27008KT 25SM BKN250 M16/M23 A3038 RMK CS2 SLP296

CYQB;2008-02-12 23:00;CYQB 122300Z 29004KT 15SM BKN250 M17/M23 A3038 RMK CS2 SLP295

CYQB;2008-02-13 00:00;CYQB 130000Z 00000KT 15SM OVC250 M16/M23 A3038 RMK CS4 SLP295

CYQB;2008-02-13 01:00;CYQB 130100Z 05002KT 15SM OVC240 M17/M23 A3037 RMK CS4 SLP293

CYQB;2008-02-13 02:00;CYQB 130200Z 04003KT 15SM OVC240 M16/M22 A3035 RMK CS7 SLP286

CYQB;2008-02-13 03:00;CYQB 130300Z 03007KT 15SM OVC210 M17/M22 A3031 RMK CS8 SLP271

CYQB;2008-02-13 04:00;CYQB 130400Z 04003KT 15SM OVC200 M16/M22 A3028 RMK CS8 SLP262

CYQB;2008-02-13 05:00;CYQB 130500Z 06005KT 15SM OVC150 M16/M21 A3028 RMK AS8 SLP262

CYQB;2008-02-13 06:00;CYQB 130600Z 06008KT 15SM OVC120 M15/M20 A3024 RMK AS8 SLP248

CYQB;2008-02-13 07:00;CYQB 130700Z 07011KT 15SM OVC090 M14/M18 A3020 RMK AS8 SLP235

CYQB;2008-02-13 08:00;CYQB 130800Z 07015G21KT 15SM OVC087 M12/M18 A3014 RMK AS8 PRESFR SLP215

CYQB;2008-02-13 08:26;CYQB 130826Z 08015G20KT 15SM -SN OVC038 M10/ RMK SC8

CYQB;2008-02-13 09:00;CYQB 130900Z 08017G24KT 15SM -SN OVC040 M10/M15 A3011 RMK SC8 SLP201

CYQB;2008-02-13 09:22;CYQB 130922Z 08021G26KT 3/4SM R06/P6000FT/D -SN DRSN VV006 M10/ RMK SN8

CYQB;2008-02-13 09:40;CYQB 130940Z 08015G27KT 1/2SM R06/P6000FT/D -SN BLSN VV004 M10/ RMK SN8

CYQB;2008-02-13 10:00;CYQB 131000Z 07018KT 3/8SM R06/P6000FT/D SN BLSN VV004 M10/M13 A3006 RMK SN8 PRESFR SLP184

CYQB;2008-02-13 11:00;CYQB 131100Z 08016G27KT 1/4SM R06/6000FT/N SN +BLSN VV004 M10/M12 A3000 RMK SN8 PRESFR /SO3/ SLP166

CYQB;2008-02-13 11:25;CYQB 131125Z 08016G21KT 3/8SM R06/P6000FT/N SN BLSN VV005 M10/ RMK SN8

CYQB;2008-02-13 12:00;CYQB 131200Z 09016G25KT 3/8SM R06/P6000FT/D -SN BLSN VV005 M10/M12 A2999 RESN RMK SN8 /S04/ SLP161

CYQB;2008-02-13 12:40;CYQB 131240Z 09015KT 1/2SM R06/P6000FT/N -SN BLSN VV006 M09/ RMK SN8

CYQB;2008-02-13 13:00;CYQB 131300Z 07020G26KT 3/8SM R06/4500FT/N SN BLSN VV004 M09/M12 A2994 RMK SN8 PRESFR/S01/ SLP144

CYQB;2008-02-13 13:21;CYQB 131321Z 08014G20KT 1/2SM R06/5500FT/U -SN BLSN OVC019 M09/ RESN RMK SN7SC1

CYQB;2008-02-13 14:00;CYQB 131400Z 09012G20KT 1/2SM R06/4000V6000FT/N -SN BLSN VV008 M09/M11 A2990 RMK SN8 /S02/ SLP131

CYQB;2008-02-13 14:20;CYQB 131420Z 09013G19KT 3/8SM R06/4500FT/D SN BLSN VV005 M09/ RMK SN8

CYQB;2008-02-13 14:45;CYQB 131445Z 09011G17KT 1/2SM R06/3500FT/N -SN BLSN VV007 M09/ RESN RMK SN8

CYQB;2008-02-13 15:00;CYQB 131500Z 08012G17KT 1/2SM R06/3500FT/N -SN BLSN VV005 M08/M11 A2986 RESN RMK SN8 /S04/ SLP117

CYQB;2008-02-13 16:00;CYQB 131600Z 08015KT 1/2SM R06/4000FT/U -SN BLSN VV006 M08/M10 A2983 RMK SN8 /S05/ SLP106

CYQB;2008-02-13 17:00;CYQB 131700Z 08012G18KT 1/2SM R06/4000FT/N -SN BLSN VV006 M07/M10 A2979 RMK SN8 /S06/ SLP093

CYQB;2008-02-13 18:00;CYQB 131800Z 07013G19KT 5/8SM R06/5000FT/U -SN BLSN VV007 M07/M09 A2975 RMK SN8 /S07/ SLP079

CYQB;2008-02-13 19:00;CYQB 131900Z 07012KT 1/2SM R06/5500FT/N SN VV008 M06/M08 A2972 REBLSN RMK SN8 /S01/ SLP070

CYQB;2008-02-13 19:10;CYQB 131910Z 07012KT 1 1/4SM -SN OVC030 M06/ RESN RMK SN3SC5

CYQB;2008-02-13 19:34;CYQB 131934Z 07011G16KT 2 1/4SM -SN FEW008 OVC030 M06/ RESN RMK SN3SF1SC5

CYQB;2008-02-13 20:00;CYQB 132000Z CCA 08010G15KT 2SM -SN FEW008 OVC027 M06/M08 A2969 RESN RMK SN3SF1SC5 /S02/ SLP061

CYQB;2008-02-13 20:45;CYQB 132045Z 07013KT 3SM -SN FEW008 OVC023 M06/ RMK SF2SC6

CYQB;2008-02-13 21:00;CYQB 132100Z 07009G17KT 5SM -SN FEW008 OVC019 M06/M08 A2970 RMK SF2SC6 SLP063

CYQB;2008-02-13 22:00;CYQB 132200Z 07009KT 5SM -SN FEW008 OVC022 M05/M08 A2968 RMK SF1SC7 SLP056

CYQB;2008-02-13 23:00;CYQB 132300Z 08007KT 15SM -SN FEW008 OVC019 M05/M08 A2968 RMK SF2SC6 SLP056

CYQB;2008-02-13 23:31;CYQB 132331Z 08007KT 15SM FEW008 OVC019 M05/ RMK SF2SC6

CYQB;2008-02-14 00:00;CYQB 140000Z 07007KT 15SM FEW008 OVC019 M05/M08 A2967 RMK SF1SC8 SLP054

CYQB;2008-02-14 01:00;CYQB 140100Z 06005KT 15SM FEW008 OVC019 M05/M08 A2969 RMK SF1SC8 SLP058

CYQB;2008-02-14 02:00;CYQB 140200Z 04003KT 15SM OVC017 M05/M08 A2970 RMK SC8 SLP061

CYQB;2008-02-14 03:00;CYQB 140300Z 23005KT 15SM OVC014 M05/M08 A2971 RMK SC8 SLP065

CYQB;2008-02-14 04:00;CYQB 140400Z 22003KT 15SM OVC007 M05/M08 A2970 RMK ST8 SLP063

CYQB;2008-02-14 05:00;CYQB 140500Z 23004KT 15SM OVC007 M05/M08 A2969 RMK ST8 SLP060

CYQB;2008-02-14 06:00;CYQB 140600Z 23008KT 15SM OVC037 M05/M07 A2969 RMK SC8 SLP059

CYQB;2008-02-14 07:00;CYQB 140700Z 28004KT 15SM OVC038 M05/M08 A2974 RMK SC8 SLP075

CYQB;2008-02-14 08:00;CYQB 140800Z 33006KT 15SM OVC034 M05/M10 A2976 RMK SC8 SLP081

CYQB;2008-02-14 09:00;CYQB 140900Z 33010KT 15SM FEW035 M07/M12 A2977 RMK SC1 SLP086

CYQB;2008-02-14 10:00;CYQB 141000Z 30007KT 15SM SKC M09/M14 A2982 RMK SLP103

CYQB;2008-02-14 11:00;CYQB 141100Z 30008KT 15SM SKC M09/M15 A2987 RMK SLP119

CYQB;2008-02-14 12:00;CYQB 141200Z 27011KT 15SM SKC M13/M17 A2988 RMK SLP125

CYQB;2008-02-14 13:00;CYQB 141300Z 26010KT 15SM SKC M12/M16 A2991 RMK SLP134

CYQB;2008-02-14 14:00;CYQB 141400Z 27008KT 15SM SKC M10/M15 A2993 RMK SLP140

CYQB;2008-02-14 15:00;CYQB 141500Z 27008KT 15SM SKC M08/M15 A2995 RMK SLP146

CYQB;2008-02-14 16:00;CYQB 141600Z 31008KT 15SM SKC M07/M15 A2995 RMK SLP146

CYQB;2008-02-14 17:00;CYQB 141700Z 23013G18KT 15SM FEW250 M07/M14 A2994 RMK CI1 SLP144

CYQB;2008-02-14 18:00;CYQB 141800Z 25016KT 15SM BKN230 M06/M14 A2995 RMK CI2 SLP146

CYQB;2008-02-14 19:00;CYQB 141900Z 26014G20KT 30SM FEW040 BKN230 M06/M13 A2995 RMK CF1CI2 SLP148

CYQB;2008-02-14 20:00;CYQB 142000Z 27013KT 30SM FEW040 SCT230 M06/M13 A2996 RMK CU1CI2 SLP151

CYQB;2008-02-14 21:00;CYQB 142100Z 25011KT 30SM FEW040 FEW090 SCT210 M06/M14 A2999 RMK CU2AC1CI1 SLP161

CYQB;2008-02-14 22:00;CYQB 142200Z 25013KT 30SM FEW040 BKN130 BKN210 M07/M14 A3000 RMK SC2AC3CI0 SLP166

CYQB;2008-02-14 23:00;CYQB 142300Z 26008KT 15SM FEW040 BKN160 BKN210 M08/M15 A3001 RMK SC1AC5CI0 SLP169

CYQB;2008-02-15 00:00;CYQB 150000Z 26004KT 15SM FEW160 OVC230 M10/M15 A3001 RMK AC2CS2 SLP169

CYQB;2008-02-15 01:00;CYQB 150100Z 26004KT 15SM FEW160 FEW230 M10/M15 A3001 RMK AC1CS1 SLP169

CYQB;2008-02-15 02:00;CYQB 150200Z 26004KT 15SM FEW055 FEW150 FEW230 M12/M16 A2999 RMK SC1AC1CS0 SLP163

CYQB;2008-02-15 03:00;CYQB 150300Z 23002KT 15SM FEW039 FEW060 BKN230 M12/M17 A2997 RMK SC1SC2CS1 SLP156

CYQB;2008-02-15 03:20;CYQB 150320Z 00000KT 10SM -SN SCT035 BKN056 BKN230 M12/ RMK SC3SC2CS0

CYQB;2008-02-15 04:00;CYQB 150400Z 00000KT 10SM -SN SCT040 BKN060 BKN230 M11/M14 A2996 RMK SC3SC2CS0 SLP152

CYQB;2008-02-15 05:00;CYQB 150500Z 04004KT 5SM -SN OVC030 M10/M13 A2993 RMK SC8 SLP142

CYQB;2008-02-15 06:00;CYQB 150600Z 03003KT 4SM -SN OVC032 M10/M13 A2991 RMK SC8 SLP133

CYQB;2008-02-15 06:43;CYQB 150643Z 02003KT 1 1/2SM -SN OVC019 M10/ RMK SC8

CYQB;2008-02-15 07:00;CYQB 150700Z 01004KT 1 1/2SM -SN OVC019 M10/M12 A2988 RMK SC8 /S01/ SLP123

CYQB;2008-02-15 08:00;CYQB 150800Z 02003KT 1 1/2SM -SN OVC015 M10/M12 A2985 RMK SC8 SLP114

CYQB;2008-02-15 09:00;CYQB 150900Z 02003KT 1 1/2SM -SN OVC015 M09/M12 A2983 RMK SC8 SLP106

CYQB;2008-02-15 10:00;CYQB 151000Z 02003KT 1SM R06/P6000FT/U -SN VV006 M09/M12 A2981 RMK SN8 /S03/ SLP100

CYQB;2008-02-15 10:46;CYQB 151046Z 36002KT 1SM R06/P6000FT/N -SN OVC014 M09/ RMK SN2SC6

CYQB;2008-02-15 11:00;CYQB 151100Z 35003KT 2SM -SN OVC016 M09/M11 A2978 RMK SN2SC6 /S04/ SLP091

CYQB;2008-02-15 12:00;CYQB 151200Z 36002KT 1SM -SN BKN011 OVC027 M08/M10 A2977 RMK SN2SC4SC2 /S05/ SLP087

CYQB;2008-02-15 13:00;CYQB 151300Z 00000KT 1 1/2SM -SN BKN015 OVC029 M08/M10 A2977 RMK SC6SC2 SLP087

CYQB;2008-02-15 13:27;CYQB 151327Z 00000KT 1SM -SN BKN010 OVC030 M07/ RMK SF6SC2 CIG VRB 7-13

CYQB;2008-02-15 13:34;CYQB 151334Z 00000KT 4SM -SN FEW010 OVC020 M07/ RMK SF2SC6

CYQB;2008-02-15 14:00;CYQB 151400Z 00000KT 3SM -SN FEW010 OVC018 M07/M09 A2975 RMK SF2SC6 SLP081

CYQB;2008-02-15 15:00;CYQB 151500Z 23005KT 2SM -SN OVC014 M05/M07 A2973 RMK SC8 SLP073

CYQB;2008-02-15 16:00;CYQB 151600Z 26010KT 1 1/2SM -SN BKN014 OVC035 M04/M06 A2972 RMK SC6SC2 SLP070

CYQB;2008-02-15 17:00;CYQB 151700Z 26014KT 1SM -SN DRSN BKN012 OVC025 M03/M05 A2970 RMK SC6SC2 SLP064

CYQB;2008-02-15 17:12;CYQB 151712Z 27014KT 3SM -SN DRSN FEW012 OVC031 M03/ RMK SC2SC6

CYQB;2008-02-15 17:50;CYQB 151750Z 30017G24KT 10SM DRSN FEW012 OVC070 M05/ RMK SC2AC6

CYQB;2008-02-15 18:00;CYQB 151800Z 31017G24KT 20SM DRSN FEW012 OVC090 M05/M10 A2972 RMK SC2AC6 SLP069

CYQB;2008-02-15 19:00;CYQB 151900Z 26011KT 20SM DRSN FEW012 BKN048 M06/M12 A2974 RMK SF1SC6 SLP077

CYQB;2008-02-15 20:00;CYQB 152000Z 27016G22KT 25SM FEW012 FEW045 FEW090 SCT220 M08/M15 A2979 RMK SF1SC1AC1CI0 SLP094

CYQB;2008-02-15 21:00;CYQB 152100Z 28016G25KT 25SM FEW025 FEW090 SCT160 M09/M16 A2984 RMK SC1AC1AC1 SLP112

CYQB;2008-02-15 22:00;CYQB 152200Z 28016G22KT 25SM FEW025 FEW090 M10/M17 A2990 RMK SC1AC1 SLP130

CYQB;2008-02-15 23:00;CYQB 152300Z 28011KT 25SM FEW045 FEW210 M12/M19 A2995 RMK SC1CI0 SLP148

CYQB;2008-02-16 00:00;CYQB 160000Z 29011G19KT 15SM FEW045 FEW210 M13/M19 A2998 RMK SC1CI0 SLP159

CYQB;2008-02-16 01:00;CYQB 160100Z 29018G24KT 15SM FEW040 FEW210 M13/M20 A3001 RMK SC1CI1 SLP168

CYQB;2008-02-16 02:00;CYQB 160200Z 28014KT 15SM FEW040 M15/M21 A3004 RMK SC1 SLP177

CYQB;2008-02-16 03:00;CYQB 160300Z 30011KT 15SM FEW025 M15/M20 A3007 RMK SC1 SLP189

CYQB;2008-02-16 04:00;CYQB 160400Z 29011KT 15SM FEW025 M17/M23 A3010 RMK SC1 SLP200

CYQB;2008-02-16 05:00;CYQB 160500Z 30009KT 15SM SKC M18/M24 A3012 RMK SLP207

CYQB;2008-02-16 06:00;CYQB 160600Z 28003KT 15SM SKC M19/M28 A3013 RMK SLP210

CYQB;2008-02-16 07:00;CYQB 160700Z 25007KT 15SM SKC M19/M28 A3015 RMK SLP215

CYQB;2008-02-16 08:00;CYQB 160800Z 26012KT 15SM SKC M21/M28 A3015 RMK SLP216

CYQB;2008-02-16 09:00;CYQB 160900Z 27012KT 15SM FEW025 M22/M28 A3016 RMK SC1 SLP221

CYQB;2008-02-16 10:00;CYQB 161000Z 27011KT 15SM FEW025 M21/M28 A3018 RMK SC1 SLP227

CYQB;2008-02-16 11:00;CYQB 161100Z 26011KT 15SM SKC M22/M28 A3021 RMK SLP238

CYQB;2008-02-16 12:00;CYQB 161200Z 27011KT 15SM FEW020 M22/M28 A3023 RMK SC1 SLP246

CYQB;2008-02-16 13:00;CYQB 161300Z 27011KT 30SM SKC M22/M28 A3025 RMK SLP252

CYQB;2008-02-16 14:00;CYQB 161400Z 28012G17KT 30SM SKC M19/M26 A3027 RMK SLP257

CYQB;2008-02-16 15:00;CYQB 161500Z 26012KT 30SM SKC M18/M24 A3027 RMK SLP257

CYQB;2008-02-16 16:00;CYQB 161600Z 25014KT 30SM FEW030 M17/M25 A3026 RMK CF1 SLP256

CYQB;2008-02-16 17:00;CYQB 161700Z 24013KT 30SM FEW030 M16/M24 A3024 RMK CF1 SLP248

CYQB;2008-02-16 18:00;CYQB 161800Z 25013KT 30SM FEW030 FEW240 M15/M24 A3023 RMK CF1CI1 SLP245

CYQB;2008-02-16 19:00;CYQB 161900Z 23013KT 30SM FEW030 FEW240 M15/M23 A3022 RMK CF2CI1 SLP242

CYQB;2008-02-16 20:00;CYQB 162000Z 23017KT 30SM FEW030 FEW240 M14/M23 A3023 RMK CF1CI1 SLP244

CYQB;2008-02-16 21:00;CYQB 162100Z 24014KT 30SM FEW030 M14/M22 A3024 RMK CF1 SLP247

CYQB;2008-02-16 22:00;CYQB 162200Z 25009KT 30SM FEW240 M15/M23 A3024 RMK CI1 SLP249

CYQB;2008-02-16 23:00;CYQB 162300Z 22002KT 15SM SKC M16/M24 A3026 RMK SLP256

CYQB;2008-02-17 00:00;CYQB 170000Z 28002KT 15SM SKC M18/M25 A3028 RMK SLP261

CYQB;2008-02-17 01:00;CYQB 170100Z 00000KT 15SM SKC M21/M26 A3028 RMK SLP262

CYQB;2008-02-17 02:00;CYQB 170200Z 00000KT 15SM SKC M23/M28 A3027 RMK SLP259

CYQB;2008-02-17 03:00;CYQB 170300Z 01003KT 15SM FEW200 M22/M27 A3028 RMK CI0 SLP264

CYQB;2008-02-17 04:00;CYQB 170400Z 02003KT 15SM FEW200 M20/M25 A3028 RMK CI0 SLP261

CYQB;2008-02-17 05:00;CYQB 170500Z 02003KT 15SM SCT150 M20/M26 A3026 RMK AS1 SLP257

CYQB;2008-02-17 06:00;CYQB 170600Z 04002KT 15SM BKN130 M22/M29 A3025 RMK AS2 SLP250

CYQB;2008-02-17 07:00;CYQB 170700Z 01004KT 15SM FEW040 BKN200 M19/M25 A3023 RMK SC1CI1 SLP244

CYQB;2008-02-17 08:00;CYQB 170800Z 02006KT 15SM SCT150 M20/M25 A3022 RMK AS1 SLP240

CYQB;2008-02-17 09:00;CYQB 170900Z 02004KT 15SM BKN120 M19/M25 A3021 RMK AS2 SLP237

CYQB;2008-02-17 10:00;CYQB 171000Z 01004KT 15SM BKN160 M19/M24 A3020 RMK AS3 SLP235

CYQB;2008-02-17 11:00;CYQB 171100Z CCA 04004KT 15SM OVC041 M18/M23 A3019 RMK SC8 OBS TAKEN +14 SLP232

CYQB;2008-02-17 11:45;CYQB 171145Z 02003KT 12SM -SN OVC044 M17/ RMK SN2SC6

CYQB;2008-02-17 12:00;CYQB 171200Z 01003KT 3SM -SN VV028 M17/M22 A3021 RMK SN8 SLP238

CYQB;2008-02-17 13:00;CYQB 171300Z 05005KT 2SM -SN VV022 M16/M20 A3017 RMK SN8 SLP224

CYQB;2008-02-17 13:43;CYQB 171343Z 02003KT 4SM -SN OVC037 M15/ RMK SN2SC6

CYQB;2008-02-17 14:00;CYQB 171400Z 04003KT 6SM -SN BKN038 OVC054 M14/M18 A3017 RMK SC6SC2 SLP224

CYQB;2008-02-17 15:00;CYQB 171500Z 09003KT 15SM -SN SCT038 BKN100 OVC210 M12/M16 A3013 RMK SC3AC1CI1 SLP211

CYQB;2008-02-17 15:41;CYQB 171541Z 07005KT 15SM FEW040 SCT100 BKN210 M10/ RMK SC2AC2CI0

CYQB;2008-02-17 16:00;CYQB 171600Z 07005KT 15SM FEW040 FEW100 BKN210 M09/M14 A3010 RMK SC1AC2CI0 SLP200

CYQB;2008-02-17 17:00;CYQB 171700Z 06006KT 15SM BKN210 M08/M13 A3005 RMK CI0 SLP184

CYQB;2008-02-17 18:00;CYQB 171800Z CCA 06006KT 15SM BKN210 M06/M13 A3002 RMK CI0 SLP172

CYQB;2008-02-17 19:00;CYQB 171900Z 04003KT 15SM OVC210 M05/M13 A3000 RMK CS4 SLP165

CYQB;2008-02-17 20:00;CYQB 172000Z 04005KT 15SM OVC210 M04/M12 A2996 RMK CS6 SLP152

CYQB;2008-02-17 21:00;CYQB 172100Z 04005KT 15SM SCT084 OVC210 M03/M11 A2993 RMK AC3CS5 SLP141

CYQB;2008-02-17 22:00;CYQB 172200Z 06004KT 15SM BKN084 OVC210 M04/M10 A2991 RMK AC6CS2 SLP133

CYQB;2008-02-17 23:00;CYQB 172300Z 07003KT 15SM OVC036 M03/M10 A2989 RMK SC8 SLP127

CYQB;2008-02-17 23:06;CYQB 172306Z 00000KT 10SM -SN OVC018 M04/ RMK SC8

CYQB;2008-02-17 23:11;CYQB 172311Z 00000KT 1 1/2SM -SN VV013 M04/ RMK SN8

CYQB;2008-02-17 23:25;CYQB 172325Z 00000KT 1 1/4SM -SN VV008 M04/ RMK SN8

CYQB;2008-02-18 00:00;CYQB 180000Z CCA 05005KT 3/4SM R06/P6000FT/U -SN VV006 M04/M07 A2987 RMK SN8 /S01/ SLP121

CYQB;2008-02-18 01:00;CYQB 180100Z 07007KT 3/4SM R06/P6000FT/U -SN VV009 M04/M07 A2982 RMK SN8 /S03/ SLP105

CYQB;2008-02-18 01:21;CYQB 180121Z 07007KT 1SM R06/P6000FT/U -SN VV009 M04/ RMK SN8 VIS VRB 3/4-11/4 CIG VRB 9-10

CYQB;2008-02-18 02:00;CYQB 180200Z 07008KT 1SM R06/P6000FT/D -SN VV006 M04/M06 A2977 RMK SN8 /S04/ SLP087

CYQB;2008-02-18 02:42;CYQB 180242Z 07011KT 1SM R06/P6000FT/U -SNPL VV007 M03/ RMK SN8

CYQB;2008-02-18 03:00;CYQB 180300Z 07010KT 1 1/2SM -PLSN VV008 M03/M05 A2972 RMK SN8 /S05/ SLP069

CYQB;2008-02-18 03:31;CYQB 180331Z 07010KT 1 1/2SM -PL OVC008 M02/ RMK PL3SF5

CYQB;2008-02-18 04:00;CYQB 180400Z 07011KT 1 1/2SM -FZRA OVC020 M02/M04 A2968 RMK SC8 SLP056

CYQB;2008-02-18 05:00;CYQB 180500Z CCA 07009KT 1 1/2SM -FZRA FEW006 OVC017 M01/M03 A2965 RMK SF2SC6 REFZRA SLP045

CYQB;2008-02-18 05:37;CYQB 180537Z 07006KT 1 1/2SM -RAPL FEW002 BKN006 OVC012 M01/ RMK SF2SC5SC2 REFZRA

CYQB;2008-02-18 06:00;CYQB 180600Z CCA 07008KT 1 1/2SM -SNPL SCT002 OVC006 M01/M03 A2961 RMK SF3SC5 REFZRA SLP033

CYQB;2008-02-18 06:35;CYQB 180635Z 07007KT 1 1/2SM -RA BR SCT002 OVC008 M01/ RMK SF3SC5

CYQB;2008-02-18 07:00;CYQB 180700Z 08007KT 1 1/2SM -RA BR SCT002 OVC007 M01/M02 A2958 RMK SF4SC4 SLP021

CYQB;2008-02-18 08:00;CYQB 180800Z 07005KT 1SM R06/P6000FT/N -RA BR FEW002 SCT007 OVC018 M00/M02 A2953 RMK SF2SF2SC5 RIME ON INDICATOR SLP006

CYQB;2008-02-18 09:00;CYQB 180900Z 05007KT 1 1/2SM BR FEW002 OVC015 M00/M02 A2950 RMK SF2SC6 SLP994

CYQB;2008-02-18 10:00;CYQB 181000Z 04004KT 1SM R06/P6000FT/N -RA BR SCT002 OVC017 M00/M02 A2948 RMK SF3SC5 SLP985

CYQB;2008-02-18 11:00;CYQB 181100Z 06006KT 1SM R06/P6000FT/U -RA BR SCT002 OVC022 00/M02 A2944 RMK SF4SC4 SLP973

CYQB;2008-02-18 11:20;CYQB 181120Z 04006KT 3/4SM R06/P6000FT/U -RA BR BKN002 OVC021 M00/ RMK ST5SC3

CYQB;2008-02-18 12:00;CYQB 181200Z 07004KT 1/2SM R06/P6000FT/D -RA FG OVC002 00/M01 A2942 RMK ST8 SLP965

CYQB;2008-02-18 12:51;CYQB 181251Z 06008KT 5/8SM R06/P6000FT/D BR OVC002 01/ RMK ST8

CYQB;2008-02-18 13:00;CYQB 181300Z 06003KT 5/8SM R06/6000FT/D BR OVC002 01/M01 A2939 RMK ST8 SLP958

CYQB;2008-02-18 14:00;CYQB 181400Z 06006KT 1SM R06/P6000FT/N BR SCT002 BKN020 OVC077 01/M00 A2937 RMK ST3SC3AC1 SLP949

CYQB;2008-02-18 14:44;CYQB 181444Z 05005KT 2SM BR FEW002 BKN030 OVC077 01/ RMK ST2SC6AC1

CYQB;2008-02-18 15:00;CYQB 181500Z 05003KT 3SM BR FEW002 BKN028 OVC077 02/00 A2936 RMK ST2SC6AC1 SLP944

CYQB;2008-02-18 16:00;CYQB 181600Z 07002KT 3SM -SHRA BR OVC020 02/00 A2937 RMK SC8 SLP948

CYQB;2008-02-18 16:43;CYQB 181643Z 35003KT 4SM BR OVC016 02/ RMK SC8

CYQB;2008-02-18 17:00;CYQB 181700Z 05004KT 4SM BR BKN015 OVC040 02/00 A2936 RMK SC6SC2 SLP944

CYQB;2008-02-18 18:00;CYQB 181800Z 12003KT 4SM BR SCT010 OVC020 02/00 A2935 RMK SC3SC5 SLP941

CYQB;2008-02-18 19:00;CYQB 181900Z 24005KT 8SM SCT020 OVC032 05/03 A2935 RMK SC3SC5 SLP941

CYQB;2008-02-18 20:00;CYQB 182000Z 24007KT 10SM FEW020 OVC035 05/02 A2936 RMK SC2SC6 SLP947

CYQB;2008-02-18 21:00;CYQB 182100Z 25018KT 12SM OVC038 04/M01 A2938 RMK SC8 SLP952

CYQB;2008-02-18 22:00;CYQB 182200Z 25020G25KT 12SM BKN038 OVC100 04/M01 A2938 RMK SC5AC3 SLP951

CYQB;2008-02-18 23:00;CYQB 182300Z 25020G30KT 12SM FEW028 OVC100 03/M02 A2939 RMK SC2AC6 SLP955

CYQB;2008-02-19 00:00;CYQB 190000Z 25020G27KT 15SM FEW022 BKN040 BKN120 02/M02 A2938 RMK SC2SC2AC2 SLP953

CYQB;2008-02-19 01:00;CYQB 190100Z 24018KT 15SM FEW025 BKN035 02/M03 A2941 RMK SC2SC5 SLP961

CYQB;2008-02-19 02:00;CYQB 190200Z 24014KT 15SM OVC036 02/M02 A2941 RMK SC8 SLP961

CYQB;2008-02-19 03:00;CYQB 190300Z 26015KT 15SM OVC039 02/M03 A2936 RMK SC8 SLP947

CYQB;2008-02-19 04:00;CYQB 190400Z 25016G21KT 15SM FEW022 OVC042 02/M03 A2939 RMK SC2SC6 SLP954

CYQB;2008-02-19 05:00;CYQB 190500Z 25017G22KT 8SM -SHSN OVC045 02/M03 A2939 RMK SC8 SLP956

CYQB;2008-02-19 06:00;CYQB 190600Z 25019G29KT 10SM -SHSN OVC062 01/M03 A2939 RMK SC8 SLP954

CYQB;2008-02-19 07:00;CYQB 190700Z 25019KT 15SM BKN050 01/M05 A2941 RMK SC6 SLP961

CYQB;2008-02-19 08:00;CYQB 190800Z 25014KT 15SM SCT058 M00/M06 A2942 RMK SC4 SLP966

CYQB;2008-02-19 09:00;CYQB 190900Z 26014G19KT 15SM FEW055 M02/M08 A2943 RMK SC2 SLP969

CYQB;2008-02-19 10:00;CYQB 191000Z 25010KT 15SM SKC M03/M09 A2945 RMK SLP977

CYQB;2008-02-19 11:00;CYQB 191100Z 25008KT 15SM FEW070 M05/M10 A2948 RMK AC1 SLP986

CYQB;2008-02-19 12:00;CYQB 191200Z 27005KT 25SM FEW070 M06/M10 A2950 RMK AC2 SLP992

CYQB;2008-02-19 13:00;CYQB 191300Z 25008KT 25SM FEW070 BKN110 M04/M09 A2952 RMK AC2AC5 SLP001

CYQB;2008-02-19 14:00;CYQB 191400Z 25005KT 25SM BKN050 BKN070 BKN110 M02/M08 A2953 RMK SC5AC2AC1 VCSH SLP002

CYQB;2008-02-19 14:29;CYQB 191429Z 23008KT 15SM -SN BKN026 BKN050 OVC070 M02/ RMK SC6SC2AC1

CYQB;2008-02-19 14:53;CYQB 191453Z 24007KT 2 1/2SM -SHSN FEW019 OVC025 M02/ RMK SN1SC1SC6

CYQB;2008-02-19 15:00;CYQB 191500Z 23009KT 1 1/2SM -SHSN VV010 M03/M06 A2953 RMK SN8 SLP002

CYQB;2008-02-19 15:07;CYQB 191507Z 23008KT 1/2SM R06/4000VP6000FT/D SHSN VV007 M03/ RMK SN8

CYQB;2008-02-19 15:19;CYQB 191519Z CCA 24009KT 3/4SM R06/P6000FT/U -SHSN VV012 M03/ RMK SN8 VIS VRB 1/2-1 RESN

CYQB;2008-02-19 16:00;CYQB 191600Z 24006KT 3/4SM R06/4500VP6000FT/N -SHSN VV010 M03/M06 A2953 RMK SN8 VIS VRB 1/2-1 RESN /S01/ SLP002

CYQB;2008-02-19 16:39;CYQB 191639Z CCA 24006KT 1SM R06/P6000FT/D -SHSN BKN007 OVC015 M03/ RMK SN3SF2SC2 VIS VRB 3/4-11/4

CYQB;2008-02-19 17:00;CYQB 191700Z 24007KT 1SM R06/P6000FT/U -SHSN BKN009 OVC014 M03/M05 A2953 RMK SN2SF4SC2 VIS VRB 3/4-11/4 /S02/ SLP003

CYQB;2008-02-19 18:00;CYQB 191800Z 24020G27KT 1SM R06/P6000FT/N -SHSN BLSN BKN010 OVC026 M03/M06 A2953 RMK SN2SF4SC2 VIS VRB 3/4-11/4 SLP004

CYQB;2008-02-19 19:00;CYQB 191900Z 25023G29KT 1SM R06/P6000FT/U -SN BLSN SCT010 BKN020 OVC080 M04/M06 A2954 RMK SN2SF2SC2AC2 VIS VRB 3/4-11/4 /S01/ SLP006

CYQB;2008-02-19 19:21;CYQB 191921Z 20019G28KT 1/2SM R06/3000VP6000FT/D -SHSN BLSN VV006 M04/ RMK SN8

CYQB;2008-02-19 20:00;CYQB 192000Z 25016G22KT 5/8SM R06/3500FT/N -SHSN BLSN VV006 M04/M06 A2955 RMK SN8 SLP009

CYQB;2008-02-19 20:39;CYQB 192039Z 25018G26KT 1 1/2SM -SHSN BLSN SCT010 OVC023 M05/ RMK SN3SF1SC4

CYQB;2008-02-19 20:50;CYQB 192050Z 25017G24KT 1SM R06/P6000FT/N -SHSN BLSN VV011 M05/ RMK SN8

CYQB;2008-02-19 21:00;CYQB 192100Z 24017KT 1SM R06/4000VP6000FT/D -SHSN BLSN VV006 M05/M06 A2956 RMK SN8 VIS VRB 3/4-11/4 /S02/ SLP012

CYQB;2008-02-19 21:32;CYQB 192132Z 24014G21KT 1 1/2SM -SHSN BLSN BKN014 OVC022 M05/ RMK SN3CF3SC2

CYQB;2008-02-19 22:00;CYQB 192200Z 25018KT 1SM R06/P6000FT/U -SHSN BLSN VV008 M05/M07 A2956 RMK SN8 VIS VRB 3/4-11/4 /S03/ SLP015

CYQB;2008-02-19 23:00;CYQB 192300Z 23015KT 5/8SM R06/P6000FT/U -SHSN BLSN VV006 M05/M07 A2957 RMK SN8 /S04/ SLP018

CYQB;2008-02-19 23:36;CYQB 192336Z 24020G25KT 3/8SM R06/5000FT/D -SHSN BLSN VV003 M05/ RMK SN8

CYQB;2008-02-19 23:50;CYQB 192350Z 25019G24KT 5/8SM R06/P6000FT/U -SHSN BLSN OVC021 M05/ RMK SN6SC2

CYQB;2008-02-20 00:00;CYQB 200000Z 24019G24KT 1/2SM R06/P6000FT/D -SHSN BLSN VV007 M05/M07 A2959 RMK SN8 SLP024

CYQB;2008-02-20 00:21;CYQB 200021Z 25019G25KT 5/8SM R06/P6000FT/U -SHSN BLSN OVC014 M05/ RMK SN6SC2 TWR VIS 11/2

CYQB;2008-02-20 00:36;CYQB 200036Z 25016G22KT 5SM -SHSN BKN011 BKN025 M05/ RMK SC5SC2

CYQB;2008-02-20 01:00;CYQB 200100Z 25016KT 10SM BKN010 BKN060 M05/M07 A2961 RMK SF5SC2 SLP031

CYQB;2008-02-20 01:15;CYQB 200115Z 25017KT 6SM -SHSN BKN015 M05/ RMK SC7

CYQB;2008-02-20 02:00;CYQB 200200Z 25015KT 10SM FEW017 BKN050 M06/M08 A2962 RMK SC2SC3 SLP036

CYQB;2008-02-20 03:00;CYQB 200300Z 27011KT 15SM BKN038 M06/M09 A2963 RMK SC7 SLP038

CYQB;2008-02-20 04:00;CYQB 200400Z 27011KT 15SM BKN050 M07/M10 A2963 RMK SC6 SLP039

CYQB;2008-02-20 05:00;CYQB 200500Z 26009KT 15SM BKN078 M09/M12 A2965 RMK AC6 SLP044

CYQB;2008-02-20 06:00;CYQB 200600Z 27016KT 15SM BKN080 M10/M13 A2967 RMK AC6 SLP052

CYQB;2008-02-20 07:00;CYQB 200700Z 27016G21KT 15SM OVC058 M11/M15 A2971 RMK SC7 SLP066

CYQB;2008-02-20 08:00;CYQB 200800Z 26019KT 15SM BKN050 M13/M16 A2975 RMK SC7 SLP078

CYQB;2008-02-20 09:00;CYQB 200900Z 27018KT 15SM OVC059 M14/M18 A2978 RMK SC8 SLP088

CYQB;2008-02-20 10:00;CYQB 201000Z 27017KT 15SM SCT080 M15/M19 A2981 RMK AC4 SLP098

CYQB;2008-02-20 11:00;CYQB 201100Z 27013G18KT 15SM FEW010 FEW210 M16/M20 A2983 RMK SF1CI1 SLP106

CYQB;2008-02-20 12:00;CYQB 201200Z 28015G21KT 15SM FEW010 FEW210 M16/M21 A2984 RMK SF1CI1 SLP111

CYQB;2008-02-20 13:00;CYQB 201300Z 27010KT 15SM FEW020 SCT210 M17/M21 A2987 RMK SC1CI1 SLP122

CYQB;2008-02-20 14:00;CYQB 201400Z 29012G19KT 15SM FEW020 FEW210 M16/M21 A2988 RMK SC1CI1 SLP125

CYQB;2008-02-20 15:00;CYQB 201500Z 27016G21KT 15SM FEW020 FEW210 M16/M22 A2990 RMK CF1CI1 SLP130

CYQB;2008-02-20 16:00;CYQB 201600Z 27019G24KT 15SM SCT030 BKN210 M15/M20 A2991 RMK CF2CI0 SLP133

CYQB;2008-02-20 17:00;CYQB 201700Z 26017KT 15SM FEW037 SCT210 M14/M20 A2990 RMK SC2CI1 SLP132

CYQB;2008-02-20 18:00;CYQB 201800Z 27014G20KT 15SM FEW040 FEW060 FEW210 M14/M20 A2990 RMK SC1SC1CI1 SLP131

CYQB;2008-02-20 19:00;CYQB 201900Z 25016KT 20SM FEW040 FEW210 M13/M20 A2991 RMK CU1CI0 SLP134

CYQB;2008-02-20 20:00;CYQB 202000Z 27010KT 20SM FEW040 BKN210 M13/M21 A2992 RMK CU1CI1 SLP138

CYQB;2008-02-20 21:00;CYQB 202100Z 27014KT 20SM FEW040 FEW100 BKN210 M13/M22 A2994 RMK CU1AC1CI1 SLP144

CYQB;2008-02-20 22:00;CYQB 202200Z 29008KT 20SM FEW040 FEW100 SCT210 M14/M22 A2996 RMK CU1AC1CI1 SLP152

CYQB;2008-02-20 23:00;CYQB 202300Z 29006KT 15SM FEW040 FEW080 FEW210 M15/M23 A3000 RMK CU1AC1CI1 SLP165

CYQB;2008-02-21 00:00;CYQB 210000Z 32009KT 15SM FEW040 FEW100 SCT210 M15/M23 A3002 RMK SC1AC1CI2 SLP173

CYQB;2008-02-21 01:00;CYQB 210100Z 29005KT 15SM FEW040 FEW100 SCT210 M15/M23 A3006 RMK SC1AC1CI1 SLP185

CYQB;2008-02-21 02:00;CYQB 210200Z 27010KT 15SM FEW075 BKN210 M15/M22 A3008 RMK AC2CI1 SLP192

CYQB;2008-02-21 03:00;CYQB 210300Z 25008KT 15SM BKN074 M16/M23 A3009 RMK AC6 SLP197

CYQB;2008-02-21 04:00;CYQB 210400Z 23008KT 15SM SCT070 M17/M24 A3011 RMK AC4 SLP202

CYQB;2008-02-21 05:00;CYQB 210500Z 23009KT 15SM SKC M18/M24 A3011 RMK SLP205

CYQB;2008-02-21 06:00;CYQB 210600Z 25009KT 15SM BKN210 M19/M25 A3013 RMK CI2 SLP210

CYQB;2008-02-21 07:00;CYQB 210700Z 24010KT 15SM BKN200 M19/M25 A3014 RMK CI3 SLP215

CYQB;2008-02-21 08:00;CYQB 210800Z 25010KT 15SM FEW200 M19/M26 A3016 RMK CI2 SLP219

CYQB;2008-02-21 09:00;CYQB 210900Z 25008KT 15SM SCT220 M20/M26 A3017 RMK CI3 SLP224

CYQB;2008-02-21 10:00;CYQB 211000Z 25009KT 15SM BKN220 M21/M27 A3019 RMK CI3 SLP230

CYQB;2008-02-21 11:00;CYQB 211100Z 24008KT 15SM SCT210 M21/M27 A3020 RMK CI3 SLP234

CYQB;2008-02-21 12:00;CYQB 211200Z 26005KT 30SM FEW030 FEW220 M21/M28 A3022 RMK SC1CI1 SLP243

CYQB;2008-02-21 13:00;CYQB 211300Z 26005KT 30SM FEW200 M20/M26 A3026 RMK CI1 SLP255

CYQB;2008-02-21 14:00;CYQB 211400Z 24008KT 30SM FEW040 M18/M25 A3028 RMK SC1 SLP261

CYQB;2008-02-21 15:00;CYQB 211500Z 25010KT 30SM FEW040 M17/M24 A3029 RMK CU1 SLP264

CYQB;2008-02-21 16:00;CYQB 211600Z 25015KT 30SM FEW040 M16/M24 A3028 RMK CU1 SLP263

CYQB;2008-02-21 17:00;CYQB 211700Z 25015KT 30SM FEW040 M15/M23 A3027 RMK CU1 SLP259

CYQB;2008-02-21 18:00;CYQB 211800Z 24015G21KT 30SM FEW040 M14/M22 A3026 RMK CU1 SLP255

CYQB;2008-02-21 19:00;CYQB 211900Z 24018KT 50SM FEW040 M13/M22 A3024 RMK CU1 SLP249

CYQB;2008-02-21 20:00;CYQB 212000Z 24016KT 50SM FEW040 M13/M22 A3023 RMK CU1 SLP246

CYQB;2008-02-21 21:00;CYQB 212100Z 25014KT 50SM FEW040 FEW200 M13/M21 A3023 RMK CU1CI1 SLP244

CYQB;2008-02-21 22:00;CYQB 212200Z 26013G18KT 50SM FEW140 FEW200 M13/M22 A3023 RMK AC1CI0 SLP244

CYQB;2008-02-21 23:00;CYQB 212300Z 26011KT 15SM SCT140 M14/M22 A3024 RMK AC3 SLP247

CYQB;2008-02-22 00:00;CYQB 220000Z 28004KT 15SM FEW140 M16/M24 A3025 RMK AC2 SLP253

CYQB;2008-02-22 01:00;CYQB 220100Z 27010KT 15SM SKC M18/M24 A3025 RMK SLP251

CYQB;2008-02-22 02:00;CYQB 220200Z 27009KT 15SM SKC M17/M24 A3025 RMK SLP252

CYQB;2008-02-22 03:00;CYQB 220300Z 25008KT 15SM SKC M18/M24 A3026 RMK SLP255

CYQB;2008-02-22 04:00;CYQB 220400Z 13002KT 15SM SKC M17/M23 A3026 RMK SLP256

CYQB;2008-02-22 05:00;CYQB 220500Z 18004KT 15SM SKC M18/M23 A3028 RMK SLP260

CYQB;2008-02-22 06:00;CYQB 220600Z 03002KT 15SM SKC M18/M24 A3028 RMK SLP260

CYQB;2008-02-22 07:00;CYQB 220700Z 00000KT 15SM SKC M21/M26 A3028 RMK SLP261

CYQB;2008-02-22 08:00;CYQB 220800Z 34002KT 15SM SKC M22/M28 A3028 RMK SLP261

CYQB;2008-02-22 09:00;CYQB 220900Z 36005KT 15SM FEW210 M21/M26 A3026 RMK CI1 SLP254

CYQB;2008-02-22 10:00;CYQB 221000Z 02002KT 15SM FEW210 M22/M27 A3026 RMK CI1 SLP256

CYQB;2008-02-22 11:00;CYQB 221100Z 36003KT 15SM FEW210 M21/M27 A3027 RMK CI1 SLP257

CYQB;2008-02-22 12:00;CYQB 221200Z 02003KT 15SM FEW120 SCT210 M21/M26 A3028 RMK AC1CI2 SLP260

CYQB;2008-02-22 13:00;CYQB 221300Z 01003KT 15SM FEW140 BKN210 M19/M25 A3028 RMK AC2CI2 SLP260

CYQB;2008-02-22 14:00;CYQB 221400Z 01005KT 15SM FEW150 BKN210 M16/M23 A3027 RMK AC2CI2 SLP258

CYQB;2008-02-22 15:00;CYQB 221500Z 00000KT 15SM OVC100 M13/M21 A3025 RMK AC8 SLP249

CYQB;2008-02-22 16:00;CYQB 221600Z 05002KT 15SM OVC100 M11/M18 A3022 RMK AC8 SLP240

CYQB;2008-02-22 17:00;CYQB 221700Z 13004KT 15SM OVC078 M10/M17 A3018 RMK AC8 SLP227

CYQB;2008-02-22 18:00;CYQB 221800Z 13002KT 15SM OVC080 M09/M16 A3014 RMK AC8 SLP214

CYQB;2008-02-22 19:00;CYQB 221900Z 13002KT 15SM FEW030 OVC080 M08/M15 A3012 RMK SC1AS8 SLP206

CYQB;2008-02-22 20:00;CYQB 222000Z 13003KT 15SM FEW030 OVC080 M07/M14 A3009 RMK SC1AS8 SLP197

CYQB;2008-02-22 21:00;CYQB 222100Z 00000KT 15SM -SN FEW030 FEW060 OVC080 M07/M16 A3007 RMK SC1SC1AS7 SLP190

CYQB;2008-02-22 22:00;CYQB 222200Z 13002KT 6SM -SN FEW030 OVC048 M07/M13 A3006 RMK SC1SC7 SLP187

CYQB;2008-02-22 22:33;CYQB 222233Z 00000KT 2 1/2SM -SN VV012 M08/ RMK SN8

CYQB;2008-02-22 23:00;CYQB 222300Z 35002KT 5SM -SN FEW025 OVC041 M08/M12 A3006 RMK SC2SC6 SLP186

CYQB;2008-02-23 00:00;CYQB 230000Z 01004KT 6SM -SN FEW025 OVC040 M08/M12 A3005 RMK SC2SC6 OBS TAKEN +02 SLP181

CYQB;2008-02-23 01:00;CYQB 230100Z 36004KT 6SM -SN BKN035 M09/M12 A3003 RMK SC6 SLP177

CYQB;2008-02-23 02:00;CYQB 230200Z 01004KT 15SM SCT035 M10/M13 A3001 RMK SC3 SLP168

CYQB;2008-02-23 03:00;CYQB 230300Z 03006KT 15SM FEW035 M11/M15 A2999 RMK SC1 SLP163

CYQB;2008-02-23 04:00;CYQB 230400Z 04003KT 15SM FEW030 M12/M16 A2998 RMK SC1 SLP159

CYQB;2008-02-23 05:00;CYQB 230500Z 35003KT 15SM FEW030 M12/M16 A2997 RMK SC1 SLP155

CYQB;2008-02-23 06:00;CYQB 230600Z 03005KT 15SM FEW030 M13/M17 A2994 RMK SC1 SLP146

CYQB;2008-02-23 07:00;CYQB 230700Z 03006KT 15SM FEW030 M14/M17 A2997 RMK SC1 SLP153

CYQB;2008-02-23 08:00;CYQB 230800Z 31003KT 15SM SCT015 M17/M19 A2996 RMK SC4 SLP152

CYQB;2008-02-23 09:00;CYQB 230900Z 36003KT 15SM FEW020 M15/M18 A2994 RMK SC2 SLP143

CYQB;2008-02-23 10:00;CYQB 231000Z 02004KT 15SM BKN018 M15/M19 A2995 RMK SC5 SLP149

CYQB;2008-02-23 11:00;CYQB 231100Z 28004KT 3SM R06/1600FT/N BR FEW018 M18/M21 A2997 RMK SC2 SLP156

CYQB;2008-02-23 11:14;CYQB 231114Z 28003KT 1/8SM R06/0900FT/N FZFG SKC M17/ RMK FG6

CYQB;2008-02-23 12:00;CYQB 231200Z 31004KT 1/4SM R06/1200V1600FT/N FZFG BKN200 M17/M19 A2999 RMK FG6CI1 SLP161

CYQB;2008-02-23 12:34;CYQB 231234Z 32003KT 4SM R06/1000V1600FT/N BR SCT020 M17/ RMK FG4SC1 VSBY 1/4 E-S

CYQB;2008-02-23 13:00;CYQB 231300Z 00000KT 15SM SCT020 SCT200 M17/M19 A3000 RMK SC4CI1 SLP165

CYQB;2008-02-23 14:00;CYQB 231400Z 25003KT 15SM SCT015 M14/M17 A3000 RMK SC4 VIS S 2 SLP167

CYQB;2008-02-23 15:00;CYQB 231500Z 24004KT 15SM FEW020 BKN200 M11/M14 A3000 RMK SC1CI1 SLP165

CYQB;2008-02-23 16:00;CYQB 231600Z 25009KT 15SM FEW030 BKN200 M09/M13 A2999 RMK CU1CI1 SLP162

CYQB;2008-02-23 17:00;CYQB 231700Z 23014KT 30SM FEW030 BKN220 M09/M13 A2996 RMK CU1CI1 SLP153

CYQB;2008-02-23 18:00;CYQB 231800Z 23012KT 30SM FEW030 BKN220 M08/M13 A2994 RMK CU1CI0 SLP143

CYQB;2008-02-23 19:00;CYQB 231900Z 23014KT 30SM FEW030 FEW220 M07/M13 A2992 RMK CU1CI1 SLP136

CYQB;2008-02-23 20:00;CYQB 232000Z 23015KT 30SM FEW030 M06/M14 A2991 RMK CU1 SLP133

CYQB;2008-02-23 21:00;CYQB 232100Z 25016KT 30SM FEW030 M06/M14 A2990 RMK CF1 SLP131

CYQB;2008-02-23 22:00;CYQB 232200Z 25015KT 30SM FEW030 M06/M14 A2991 RMK CF1 SLP134

CYQB;2008-02-23 23:00;CYQB 232300Z 26014KT 15SM FEW120 M08/M15 A2992 RMK AC1 SLP139

CYQB;2008-02-24 00:00;CYQB 240000Z 26013KT 15SM SKC M09/M14 A2995 RMK SLP148

CYQB;2008-02-24 01:00;CYQB 240100Z 26012KT 15SM SKC M10/M15 A2996 RMK SLP153

CYQB;2008-02-24 02:00;CYQB 240200Z 26011KT 15SM SKC M10/M14 A2996 RMK SLP153

CYQB;2008-02-24 03:00;CYQB 240300Z 00000KT 15SM SKC M13/M17 A2997 RMK SLP155

CYQB;2008-02-24 04:00;CYQB 240400Z 25007KT 15SM SKC M11/M15 A2997 RMK SLP154

CYQB;2008-02-24 05:00;CYQB 240500Z 27008KT 15SM FEW200 M12/M15 A2997 RMK CI1 SLP154

CYQB;2008-02-24 06:00;CYQB 240600Z 26008KT 15SM SCT085 M12/M15 A2997 RMK AC4 SLP153

CYQB;2008-02-24 07:00;CYQB 240700Z 25011KT 15SM FEW085 M12/M15 A2996 RMK AC2 SLP152

CYQB;2008-02-24 08:00;CYQB 240800Z 24013KT 15SM FEW085 M11/M14 A2995 RMK AC1 SLP148

CYQB;2008-02-24 09:00;CYQB 240900Z 23012KT 15SM FEW220 M12/M15 A2996 RMK CI1 FROIN SLP150

CYQB;2008-02-24 10:00;CYQB 241000Z 24012KT 15SM FEW220 M12/M15 A2996 RMK CI1 FROIN SLP151

CYQB;2008-02-24 11:00;CYQB 241100Z 26012KT 15SM FEW220 M13/M17 A2997 RMK CI1 SLP153

CYQB;2008-02-24 12:00;CYQB 241200Z 26011KT 12SM FEW010 FEW220 M14/M17 A2998 RMK CF1CI0 SLP157

CYQB;2008-02-24 13:00;CYQB 241300Z 26011KT 8SM FEW220 M12/M15 A2998 RMK CI1 SLP159

CYQB;2008-02-24 14:00;CYQB 241400Z 25012KT 12SM FEW010 FEW220 M11/M14 A2998 RMK CF1CI1 SLP157

CYQB;2008-02-24 15:00;CYQB 241500Z 25015KT 15SM FEW220 M09/M13 A2997 RMK CI0 SLP153

CYQB;2008-02-24 16:00;CYQB 241600Z 24013KT 15SM FEW160 FEW220 M07/M12 A2994 RMK AC1CI0 SLP144

CYQB;2008-02-24 17:00;CYQB 241700Z 26011KT 15SM FEW025 FEW220 M05/M11 A2991 RMK CU1CI0 SLP133

CYQB;2008-02-24 18:00;CYQB 241800Z 25012KT 25SM FEW025 FEW220 M03/M10 A2986 RMK CF1CI0 SLP117

CYQB;2008-02-24 19:00;CYQB 241900Z 25018G25KT 25SM FEW030 FEW220 M02/M09 A2983 RMK CF1CI1 SLP108

CYQB;2008-02-24 20:00;CYQB 242000Z 25018KT 25SM FEW030 FEW220 M02/M09 A2983 RMK CF1CI1 SLP105

CYQB;2008-02-24 21:00;CYQB 242100Z 25020KT 25SM FEW030 FEW220 M02/M09 A2981 RMK CF1CI1 SLP098

CYQB;2008-02-24 22:00;CYQB 242200Z 26020G25KT 25SM FEW030 FEW220 M03/M09 A2981 RMK SC1CI1 SLP099

CYQB;2008-02-24 23:00;CYQB 242300Z 26017G24KT 15SM FEW090 FEW210 M03/M09 A2982 RMK AC1CI1 SLP103

CYQB;2008-02-25 00:00;CYQB 250000Z 25014KT 15SM FEW060 FEW210 M04/M09 A2982 RMK SC1CI0 SLP103

CYQB;2008-02-25 01:00;CYQB 250100Z 27010KT 15SM FEW060 M04/M09 A2982 RMK SC1 SLP102

CYQB;2008-02-25 02:00;CYQB 250200Z 27009KT 15SM FEW060 M06/M10 A2982 RMK SC1 SLP104

CYQB;2008-02-25 03:00;CYQB 250300Z 26010KT 15SM BKN065 M06/M09 A2981 RMK SC5 SLP101

CYQB;2008-02-25 04:00;CYQB 250400Z 26010KT 15SM FEW060 M06/M10 A2982 RMK SC1 SLP102

CYQB;2008-02-25 05:00;CYQB 250500Z 26010KT 15SM FEW080 M06/M10 A2982 RMK AC1 SLP102

CYQB;2008-02-25 06:00;CYQB 250600Z 26010KT 8SM BKN065 M06/M09 A2982 RMK SC6 SLP102

CYQB;2008-02-25 07:00;CYQB 250700Z 25008KT 8SM BKN068 M05/M09 A2982 RMK AC6 SLP104

CYQB;2008-02-25 08:00;CYQB 250800Z 25009KT 15SM FEW020 BKN068 M05/M08 A2982 RMK SC1AC6 SLP104

CYQB;2008-02-25 09:00;CYQB 250900Z 24007KT 10SM OVC014 M04/M08 A2983 RMK SC8 SLP104

CYQB;2008-02-25 10:00;CYQB 251000Z 23007KT 10SM OVC012 M05/M08 A2983 RMK SC8 SLP105

CYQB;2008-02-25 11:00;CYQB 251100Z 22005KT 8SM OVC011 M05/M08 A2983 RMK SC8 SLP105

CYQB;2008-02-25 12:00;CYQB 251200Z 24006KT 6SM BR OVC010 M05/M08 A2984 RMK SC8 SLP109

CYQB;2008-02-25 13:00;CYQB 251300Z 26009KT 6SM BR OVC010 M05/M08 A2985 RMK SC8 VIS LWR W SLP112

CYQB;2008-02-25 14:00;CYQB 251400Z CCA 26008KT 6SM -SHSN BR OVC011 M05/M08 A2985 RMK SC8 VIS LWR W SLP113

CYQB;2008-02-25 15:00;CYQB 251500Z 27010KT 6SM BR OVC012 M04/M08 A2985 RMK SC8 VIS LWR W SLP113

CYQB;2008-02-25 16:00;CYQB 251600Z 24007KT 6SM HZ OVC012 M03/M07 A2983 RMK SF6 SLP108

CYQB;2008-02-25 17:00;CYQB 251700Z 25012KT 6SM HZ SCT012 OVC200 M02/M07 A2981 RMK SF4CI2 SLP100

CYQB;2008-02-25 18:00;CYQB 251800Z 26014KT 6SM HZ SCT028 OVC200 M01/M06 A2979 RMK SC4CI3 SLP093

CYQB;2008-02-25 19:00;CYQB 251900Z 24012KT 10SM BKN027 BKN082 OVC200 M00/M06 A2978 RMK SC5AC1CI2 SLP089

CYQB;2008-02-25 20:00;CYQB 252000Z 25010G15KT 10SM BKN028 OVC079 M00/M07 A2978 RMK SC6AC2 SLP089

CYQB;2008-02-25 20:46;CYQB 252046Z 24008KT 8SM -SHSN OVC027 M01/ RMK SC8

CYQB;2008-02-25 21:00;CYQB 252100Z 25010KT 15SM -SHSN BKN027 OVC075 M01/M07 A2978 RMK SC6AC2 SLP087

CYQB;2008-02-25 22:00;CYQB 252200Z 26009KT 15SM -SHSN BKN025 OVC040 M01/M06 A2979 RMK SC6SC2 SLP091

CYQB;2008-02-25 22:30;CYQB 252230Z 25007KT 15SM OVC025 M01/ RMK SC8

CYQB;2008-02-25 23:00;CYQB 252300Z 24005KT 15SM OVC024 M01/M07 A2980 RMK SC8 SLP095

CYQB;2008-02-26 00:00;CYQB 260000Z 22004KT 15SM OVC024 M02/M06 A2981 RMK SC8 SLP098

CYQB;2008-02-26 01:00;CYQB 260100Z 24003KT 15SM SCT025 OVC068 M02/M07 A2981 RMK SC4AC4 SLP098

CYQB;2008-02-26 01:50;CYQB 260150Z 00000KT 15SM -SHSN FEW025 OVC062 M03/ RMK SC2SC6

CYQB;2008-02-26 02:00;CYQB 260200Z 00000KT 15SM -SHSN FEW025 OVC060 M04/M07 A2980 RMK SC2SC6 SLP096

CYQB;2008-02-26 03:00;CYQB 260300Z 00000KT 15SM OVC040 M03/M07 A2980 RMK SC8 SLP096

CYQB;2008-02-26 04:00;CYQB 260400Z 23003KT 15SM -SHSN OVC040 M02/M07 A2979 RMK SC8 SLP092

CYQB;2008-02-26 05:00;CYQB 260500Z 26006KT 10SM -SHSN FEW030 OVC040 M03/M07 A2979 RMK SC2SC6 SLP092

CYQB;2008-02-26 06:00;CYQB 260600Z 26008KT 5SM -SN OVC040 M03/M06 A2979 RMK SC8 SLP093

CYQB;2008-02-26 07:00;CYQB 260700Z 23006KT 6SM -SN OVC046 M03/M06 A2980 RMK SC8 SLP096

CYQB;2008-02-26 08:00;CYQB 260800Z 26007KT 5SM -SN OVC047 M03/M06 A2979 RMK SC8 SLP093

CYQB;2008-02-26 09:00;CYQB 260900Z 23005KT 6SM -SN OVC048 M03/M06 A2981 RMK SC8 SLP099

CYQB;2008-02-26 10:00;CYQB 261000Z 00000KT 6SM -SN FEW048 OVC060 M04/M06 A2981 RMK SC2SC6 SLP097

CYQB;2008-02-26 11:00;CYQB 261100Z 34004KT 6SM BR FEW040 BKN100 M04/M07 A2980 RMK SC2AS6 SLP094

CYQB;2008-02-26 12:00;CYQB 261200Z 02004KT 1 1/2SM -SN FEW008 OVC040 M04/M07 A2982 RMK SF2SC6 SLP103

CYQB;2008-02-26 12:32;CYQB 261232Z 06005KT 1 1/4SM -SN BR OVC008 M03/ RMK SF8

CYQB;2008-02-26 13:00;CYQB 261300Z 08006KT 3SM -SN OVC008 M03/M06 A2982 RMK SF8 SLP103

CYQB;2008-02-26 14:00;CYQB 261400Z 07010KT 6SM -SN OVC011 M03/M06 A2983 RMK SC8 SLP104

CYQB;2008-02-26 14:45;CYQB 261445Z 09008KT 7SM SCT011 OVC017 M03/ RMK SF3SC5

CYQB;2008-02-26 15:00;CYQB 261500Z 09009KT 7SM FEW011 OVC018 M03/M07 A2982 RMK SF2SC6 SLP101

CYQB;2008-02-26 16:00;CYQB 261600Z 07010KT 8SM FEW020 OVC040 M03/M07 A2981 RMK SC2SC6 SLP097

CYQB;2008-02-26 17:00;CYQB 261700Z 10009KT 1 1/2SM -SN OVC018 M03/M08 A2978 RMK SC8 SLP090

CYQB;2008-02-26 18:00;CYQB 261800Z 07009KT 1 1/2SM -SN OVC018 M04/M07 A2976 RMK SC8 SLP082

CYQB;2008-02-26 18:51;CYQB 261851Z 07009KT 1 1/4SM -SN VV010 M03/ RMK SN8

CYQB;2008-02-26 19:00;CYQB 261900Z 07008KT 1 1/4SM -SN VV012 M03/M07 A2974 RMK SN8 SLP075

CYQB;2008-02-26 19:20;CYQB 261920Z 07010KT 1 1/4SM -SN OVC021 M04/ RMK SN3SC5

CYQB;2008-02-26 20:00;CYQB 262000Z 08010G15KT 1 1/4SM -SN OVC027 M04/M07 A2972 RMK SN3SC5 SLP070

CYQB;2008-02-26 20:36;CYQB 262036Z 07010KT 1 1/4SM -SN VV014 M04/ RMK SN8

CYQB;2008-02-26 21:00;CYQB 262100Z 07011KT 1 1/4SM -SN VV011 M04/M07 A2972 RMK SN8 /S01/ SLP069

CYQB;2008-02-26 21:43;CYQB 262143Z 07009G16KT 1SM R06/P6000FT/N -SN VV009 M04/ RMK SN8

CYQB;2008-02-26 21:53;CYQB 262153Z 07009KT 1 1/2SM -SN BKN014 OVC031 M04/ RMK SN2SC5SC2

CYQB;2008-02-26 22:00;CYQB 262200Z 07011KT 1 1/4SM -SN OVC012 M04/M07 A2970 RMK SN4SC4 SLP063

CYQB;2008-02-26 22:40;CYQB 262240Z 08009G17KT 1 1/4SM -SN SCT015 OVC020 M04/ RMK SN2SC2SC4

CYQB;2008-02-26 23:00;CYQB 262300Z 07010G15KT 1 1/2SM -SN BKN014 OVC028 M04/M07 A2970 RMK SN2SC3SC2 SLP061

CYQB;2008-02-27 00:00;CYQB 270000Z 07013KT 1 1/4SM -SN OVC010 M05/M07 A2967 RMK SN3SC5 /S02/ SLP052

CYQB;2008-02-27 01:00;CYQB 270100Z 07015G22KT 1 1/4SM -SN DRSN OVC010 M05/M07 A2965 RMK SN3SC5 SLP044

CYQB;2008-02-27 02:00;CYQB 270200Z 07016G24KT 1 1/4SM -SN DRSN OVC010 M05/M07 A2963 RMK SN3SC5 /S01/ SLP037

CYQB;2008-02-27 03:00;CYQB 270300Z 08015G20KT 1 1/4SM -SN BKN008 OVC025 M05/M07 A2959 RMK SC6SC2 SLP024

CYQB;2008-02-27 04:00;CYQB 270400Z 07018G24KT 1SM R06/P6000FT/N -SN BKN008 OVC025 M05/M07 A2953 RMK SC7SC1 SLP006

CYQB;2008-02-27 05:00;CYQB 270500Z 07016G22KT 4SM -SN BKN009 OVC030 M05/M08 A2953 RMK SC7SC1 SLP003

CYQB;2008-02-27 05:44;CYQB 270544Z 07018G25KT 1SM R06/P6000FT/D -SN DRSN BKN009 OVC025 M06/ RMK SC7SC1

CYQB;2008-02-27 06:00;CYQB 270600Z 07017G31KT 3/4SM R06/P6000FT/N -SN BLSN OVC009 M06/M08 A2951 RMK SN6SC2 VIS VRB 1/2-1 SLP999

CYQB;2008-02-27 07:00;CYQB 270700Z 06017G27KT 1SM R06/P6000FT/U -SN BLSN OVC009 M06/M09 A2950 RMK SN6SC2 VIS VRB 1/2-11/2 SLP995

CYQB;2008-02-27 08:00;CYQB 270800Z 07014G21KT 1SM R06/P6000FT/U -SN DRSN BKN009 OVC025 M06/M09 A2947 RMK SN2SC2SC3 /S01/ SLP983

CYQB;2008-02-27 09:00;CYQB 270900Z 07014KT 1 3/4SM -SN DRSN BKN009 OVC025 M06/M09 A2945 RMK SN2SC5SC2 SLP977

CYQB;2008-02-27 10:00;CYQB 271000Z 07012G21KT 1SM R06/P6000FT/D -SN DRSN BKN009 OVC025 M06/M09 A2944 RMK SN3SC2SC2 /S02/ SLP972

CYQB;2008-02-27 11:00;CYQB 271100Z 07011G19KT 5SM -SN BLSN FEW009 OVC029 M06/M09 A2943 RMK SC2SC6 SLP969

CYQB;2008-02-27 11:52;CYQB 271152Z 07012G19KT 1 1/2SM -SN BLSN FEW009 VV012 M06/ RMK SC2SN6

CYQB;2008-02-27 12:00;CYQB 271200Z 07012G19KT 1 1/2SM -SN BLSN FEW009 VV013 M06/M09 A2943 RMK SC2SN6 /S03/ SLP969

CYQB;2008-02-27 13:00;CYQB 271300Z 07009G15KT 2SM -SN BLSN OVC025 M06/M09 A2945 RMK SN2SC6 SLP975

CYQB;2008-02-27 13:28;CYQB 271328Z 06013G19KT 3SM -SN BLSN OVC027 M06/ RMK SN2SC6

CYQB;2008-02-27 14:00;CYQB 271400Z 08010G16KT 2SM -SN BLSN OVC024 M05/M09 A2945 RMK SN3SC5 /S01/ SLP978

CYQB;2008-02-27 15:00;CYQB 271500Z 07013G18KT 2SM -SN BLSN OVC021 M05/M09 A2946 RMK SN3SC5 SLP982

CYQB;2008-02-27 16:00;CYQB 271600Z CCA 07007KT 5SM -SN OVC022 M05/M08 A2948 RMK SN2SC6 REBLSN SLP986

CYQB;2008-02-27 17:00;CYQB 271700Z 10005KT 3SM -SN FEW009 OVC021 M05/M08 A2948 RMK SC2SC6 SLP988

CYQB;2008-02-27 17:17;CYQB 271717Z 10006KT 2 1/2SM -SN OVC021 M05/ RMK SN4SC4

CYQB;2008-02-27 18:00;CYQB 271800Z 10006KT 1 1/2SM -SN OVC027 M05/M08 A2948 RMK SN4SC4 SLP988

CYQB;2008-02-27 19:00;CYQB 271900Z 09006KT 2 1/2SM -SN BKN020 OVC100 M05/M09 A2949 RMK SN2SC5AC1 SLP991

CYQB;2008-02-27 20:00;CYQB 272000Z 09005KT 2 1/2SM -SN OVC022 M05/M09 A2950 RMK SN2SC6 SLP993

CYQB;2008-02-27 20:47;CYQB 272047Z 13003KT 5SM -SN BKN022 OVC030 M05/ RMK SC5SC3

CYQB;2008-02-27 21:00;CYQB 272100Z 11002KT 4SM -SN BKN015 OVC022 M05/M09 A2952 RMK SC6SC2 SLP001

CYQB;2008-02-27 22:00;CYQB 272200Z 11005KT 5SM -SN BKN024 OVC030 M05/M09 A2955 RMK SC6SC2 SLP010

CYQB;2008-02-27 23:00;CYQB 272300Z 10004KT 3SM -SN OVC024 M06/M09 A2958 RMK SN2SC6 SLP021

CYQB;2008-02-28 00:00;CYQB 280000Z 12002KT 2SM -SN BKN012 OVC028 M06/M09 A2960 RMK SN4SC2SC2 SLP028

CYQB;2008-02-28 00:42;CYQB 280042Z 01013KT 6SM -SN BKN024 OVC032 M06/ RMK SC5SC3

CYQB;2008-02-28 01:00;CYQB 280100Z 24007KT 15SM -SN FEW010 OVC029 M07/M13 A2962 RMK SF2SC6 SLP035

CYQB;2008-02-28 02:00;CYQB 280200Z 35012G19KT 12SM -SN DRSN FEW010 BKN031 OVC040 M09/M16 A2964 RMK SF1SC5SC2 SLP041

CYQB;2008-02-28 03:00;CYQB 280300Z 35013KT 15SM FEW030 BKN038 OVC065 M10/M18 A2965 RMK SC1SC6SC1 SLP047

CYQB;2008-02-28 04:00;CYQB 280400Z 35011KT 15SM OVC036 M11/M19 A2967 RMK SC8 SLP051

CYQB;2008-02-28 05:00;CYQB 280500Z 34013KT 15SM BKN030 OVC160 M12/M20 A2968 RMK SC6AC2 SLP055

CYQB;2008-02-28 06:00;CYQB 280600Z 34009KT 15SM OVC035 M13/M20 A2970 RMK SC8 SLP062

CYQB;2008-02-28 07:00;CYQB 280700Z 32009KT 15SM OVC037 M14/M20 A2972 RMK SC8 SLP070

CYQB;2008-02-28 08:00;CYQB 280800Z 32008KT 15SM OVC039 M14/M21 A2973 RMK SC8 SLP073

CYQB;2008-02-28 09:00;CYQB 280900Z 32008KT 15SM OVC040 M15/M21 A2977 RMK SC8 SLP086

CYQB;2008-02-28 10:00;CYQB 281000Z 32008KT 15SM OVC041 M15/M21 A2980 RMK SC8 SLP096

CYQB;2008-02-28 11:00;CYQB 281100Z 32006KT 15SM BKN041 M16/M22 A2982 RMK SC7 SLP104

CYQB;2008-02-28 12:00;CYQB 281200Z 32003KT 15SM BKN043 M16/M22 A2986 RMK SC7 SLP117

CYQB;2008-02-28 13:00;CYQB 281300Z 31002KT 15SM BKN043 M16/M22 A2989 RMK SC7 SLP127

CYQB;2008-02-28 13:38;CYQB 281338Z 23003KT 15SM -SHSN BKN043 M16/ RMK SC7

CYQB;2008-02-28 14:00;CYQB 281400Z 24006KT 15SM -SHSN BKN044 M16/M22 A2992 RMK SC6 SLP137

CYQB;2008-02-28 14:11;CYQB 281411Z 24007KT 15SM BKN044 M16/ RMK SC6

CYQB;2008-02-28 15:00;CYQB 281500Z 22010KT 15SM BKN044 BKN210 M16/M23 A2994 RMK SC5CI1 SLP144

CYQB;2008-02-28 16:00;CYQB 281600Z CCA 22013KT 15SM SCT040 BKN210 M14/M21 A2995 RMK SC4CI2 SLP150

CYQB;2008-02-28 17:00;CYQB 281700Z 22016KT 15SM FEW040 FEW210 M14/M22 A2997 RMK SC1CI0 SLP155

CYQB;2008-02-28 18:00;CYQB 281800Z 24017KT 15SM FEW040 FEW210 M13/M21 A2998 RMK SC1CI0 SLP158

CYQB;2008-02-28 19:00;CYQB 281900Z 24017KT 50SM FEW040 FEW210 M12/M21 A2999 RMK CU1CI1 SLP163

CYQB;2008-02-28 20:00;CYQB 282000Z 23018KT 50SM FEW040 FEW210 M11/M21 A3001 RMK CU1CI1 SLP169

CYQB;2008-02-28 21:00;CYQB 282100Z 30012G18KT 50SM FEW040 FEW210 M10/M22 A3005 RMK CU1CI1 SLP181

CYQB;2008-02-28 22:00;CYQB 282200Z 32008KT 50SM FEW040 FEW210 M11/M23 A3008 RMK SC1CI1 SLP194

CYQB;2008-02-28 23:00;CYQB 282300Z 32007KT 15SM FEW040 FEW210 M13/M25 A3014 RMK SC1CI1 SLP214

CYQB;2008-02-29 00:00;CYQB 290000Z 31003KT 15SM SKC M14/M26 A3019 RMK SLP231

CYQB;2008-02-29 01:00;CYQB 290100Z 30005KT 15SM SKC M15/M26 A3023 RMK SLP244

CYQB;2008-02-29 02:00;CYQB 290200Z 34007KT 15SM SKC M16/M27 A3026 RMK SLP253

CYQB;2008-02-29 03:00;CYQB 290300Z 34008KT 15SM SKC M17/M28 A3028 RMK SLP260

CYQB;2008-02-29 04:00;CYQB 290400Z 35004KT 15SM SKC M18/M28 A3030 RMK SLP268

CYQB;2008-02-29 05:00;CYQB 290500Z 28006KT 15SM SKC M19/M29 A3032 RMK SLP275

CYQB;2008-02-29 06:00;CYQB 290600Z 29005KT 15SM FEW210 M19/M29 A3035 RMK CI1 SLP285

CYQB;2008-02-29 07:00;CYQB 290700Z 30006KT 15SM SCT220 M20/M30 A3037 RMK CI1 SLP292

CYQB;2008-02-29 08:00;CYQB 290800Z 29004KT 15SM FEW220 M23/M32 A3039 RMK CI1 SLP298

CYQB;2008-02-29 09:00;CYQB 290900Z 22003KT 15SM FEW220 M24/M32 A3042 RMK CI1 SLP308

CYQB;2008-02-29 10:00;CYQB 291000Z 00000KT 15SM FEW220 M26/M33 A3044 RMK CI1 SLP317

CYQB;2008-02-29 11:00;CYQB 291100Z CCA 05003KT 30SM FEW020 FEW150 M24/M30 A3047 RMK CF1AC1 AC LENTICULAR SLP326

CYQB;2008-02-29 12:00;CYQB 291200Z 27002KT 30SM FEW015 M25/M30 A3050 RMK CF1 SLP337

CYQB;2008-02-29 13:00;CYQB 291300Z 00000KT 30SM FEW015 M22/M29 A3052 RMK CF1 SLP345

CYQB;2008-02-29 14:00;CYQB 291400Z 26002KT 30SM FEW018 M21/M28 A3054 RMK CF1 SLP349

CYQB;2008-02-29 15:00;CYQB 291500Z 20006KT 30SM FEW018 M18/M25 A3053 RMK CF1 SLP348

CYQB;2008-02-29 16:00;CYQB 291600Z 23009KT 30SM FEW220 M16/M25 A3052 RMK CI1 SLP343

CYQB;2008-02-29 17:00;CYQB 291700Z 22009KT 30SM FEW220 M14/M25 A3050 RMK CI0 SLP338

CYQB;2008-02-29 18:00;CYQB 291800Z 24009KT 30SM BKN220 M13/M24 A3049 RMK CI2 SLP331

CYQB;2008-02-29 19:00;CYQB 291900Z 23008KT 30SM BKN220 M12/M23 A3048 RMK CI4 SLP328

CYQB;2008-02-29 20:00;CYQB 292000Z 27003KT 30SM BKN200 M11/M23 A3045 RMK CS3 SLP319

CYQB;2008-02-29 21:00;CYQB 292100Z 27004KT 30SM BKN200 M11/M23 A3044 RMK CS2 SLP314

CYQB;2008-02-29 22:00;CYQB 292200Z 00000KT 30SM SCT180 BKN220 M12/M24 A3043 RMK AS2CI1 SLP312

CYQB;2008-02-29 23:00;CYQB 292300Z 08003KT 30SM SCT200 M13/M24 A3042 RMK CI2 SLP308

CYQB;2008-03-01 01:00;CYQB 010100Z 02005KT 15SM FEW160 BKN230 M14/M23 A3039 RMK AS1CS1 SLP298

CYQB;2008-03-01 02:00;CYQB 010200Z 03005KT 15SM FEW150 BKN200 M15/M23 A3036 RMK AS1CS1 SLP289

CYQB;2008-03-01 03:00;CYQB 010300Z 07008KT 15SM FEW110 BKN150 M14/M22 A3033 RMK AS1CS1 SLP280

CYQB;2008-03-01 04:00;CYQB 010400Z 08007KT 15SM FEW088 BKN110 M13/M22 A3032 RMK AS2CS1 SLP274

CYQB;2008-03-01 05:00;CYQB 010500Z 07009KT 15SM SCT092 BKN110 M13/M20 A3030 RMK AC3AC1 SLP267

CYQB;2008-03-01 06:00;CYQB 010600Z 06012KT 15SM BKN092 OVC110 M12/M20 A3027 RMK AC5AC1 SLP256

CYQB;2008-03-01 07:00;CYQB 010700Z 07010KT 4SM -SN OVC013 M12/M19 A3023 RMK SC8 SLP245

CYQB;2008-03-01 07:27;CYQB 010727Z 07010KT 1SM R06/P6000FT/D -SN VV005 M12/ RMK SN8

CYQB;2008-03-01 08:00;CYQB 010800Z 07011KT 3/4SM R06/P6000FT/U -SN VV007 M12/M18 A3019 RMK SN8 SLP230

CYQB;2008-03-01 09:00;CYQB 010900Z 07011KT 1SM R06/P6000FT/N -SN VV010 M11/M15 A3015 RMK SN8 SLP217

CYQB;2008-03-01 09:27;CYQB 010927Z 09008G18KT 3/4SM R06/P6000FT/D -SN VV008 M11/ RMK SN8

CYQB;2008-03-01 10:00;CYQB 011000Z 07015G20KT 5/8SM R06/P6000FT/U -SN VV010 M11/M14 A3012 RMK SN8 SLP207

CYQB;2008-03-01 10:23;CYQB 011023Z 07016G21KT 5/8SM R06/P6000FT/D -SN VV007 M11/ RMK SN8

CYQB;2008-03-01 11:00;CYQB 011100Z CCA 07015KT 3/4SM R06/P6000FT/D -SN VV007 M11/M14 A3009 RMK SN8 /S01/ SLP197

CYQB;2008-03-01 11:24;CYQB 011124Z 07015KT 5/8SM R06/P6000FT/U -SN VV005 M11/ RMK SN8

CYQB;2008-03-01 11:37;CYQB 011137Z 07012KT 3/4SM R06/P6000FT/U -SN OVC009 M10/ RMK SN6SC2

CYQB;2008-03-01 12:00;CYQB 011200Z CCA 08013KT 5/8SM R06/P6000FT/N -SN VV007 M10/M13 A3007 RMK SN8 /S03/ SLP188

CYQB;2008-03-01 13:00;CYQB 011300Z CCA 07012G18KT 5/8SM R06/P6000FT/D -SN VV007 M10/M13 A3005 RMK SN8 /S01/ SLP182

CYQB;2008-03-01 14:00;CYQB 011400Z 07014KT 5/8SM R06/P6000FT/N -SN VV008 M09/M12 A3002 RMK SN8 SLP172

CYQB;2008-03-01 15:00;CYQB 011500Z CCA 07017KT 3/4SM R06/P6000FT/U -SN OVC008 M09/M12 A3000 RMK SN6SC2 /S03/ SLP164

CYQB;2008-03-01 16:00;CYQB 011600Z 07016G22KT 1SM R06/P6000FT/U -SN OVC009 M08/M11 A2996 RMK SN4SC4 /S04/ SLP153

CYQB;2008-03-01 16:40;CYQB 011640Z 07016G26KT 1SM R06/P6000FT/D -SN OVC013 M07/ RMK SN4SC4

CYQB;2008-03-01 17:00;CYQB 011700Z 07019G25KT 1SM R06/P6000FT/N -SN DRSN OVC012 M07/M10 A2994 RMK SN3SC5 SLP144

CYQB;2008-03-01 17:40;CYQB 011740Z 07016G27KT 1SM R06/P6000FT/D -SN DRSN VV008 M07/ RMK SN8

CYQB;2008-03-01 18:00;CYQB 011800Z 07018G26KT 3/4SM R06/6000FT/D -SN DRSN VV009 M07/M10 A2991 RMK SN8 /S06/ SLP133

CYQB;2008-03-01 18:37;CYQB 011837Z 07015G24KT 1 1/4SM -SN DRSN OVC014 M06/ RMK SN3SC5

CYQB;2008-03-01 19:00;CYQB 011900Z 07017G25KT 1 1/4SM -SN DRSN OVC015 M06/M09 A2988 RMK SN2SC6 /S01/ SLP125

CYQB;2008-03-01 19:39;CYQB 011939Z 07019G26KT 1 1/2SM -SN DRSN BKN015 OVC046 M06/ RMK SC6SC2

CYQB;2008-03-01 20:00;CYQB 012000Z 07017G25KT 1 1/2SM -SN DRSN BKN015 OVC048 M06/M09 A2987 RMK SC6SC2 SLP121

CYQB;2008-03-01 21:00;CYQB 012100Z CCA 07014G19KT 1 1/2SM -SN DRSN FEW015 BKN023 OVC041 M06/M09 A2986 RMK SC2SC3SC3 /S03/ VIS LWR N-NE SLP118

CYQB;2008-03-01 22:00;CYQB 012200Z 07013G19KT 2SM -SN FEW015 OVC033 M06/M09 A2986 RMK SC2SC6 SLP119

CYQB;2008-03-01 23:00;CYQB 012300Z 07011G17KT 2SM -SN SCT011 OVC030 M06/M08 A2986 RMK SC3SC5 SLP119

CYQB;2008-03-01 23:26;CYQB 012326Z 07012G19KT 4SM -SN SCT009 BKN025 OVC030 M06/ RMK SC4SC2SC2

CYQB;2008-03-02 00:00;CYQB 020000Z 07013KT 5SM -SN FEW009 BKN026 OVC049 M06/M08 A2986 RMK SC1SC5SC2 SLP117

CYQB;2008-03-02 01:00;CYQB 020100Z 06010KT 8SM -SN FEW008 BKN025 OVC034 M05/M09 A2986 RMK SF1SC6SC2 SLP116

CYQB;2008-03-02 02:00;CYQB 020200Z 06006KT 10SM -SN FEW008 OVC032 M05/M09 A2986 RMK SF1SC7 SLP118

CYQB;2008-03-02 03:00;CYQB 020300Z 09005KT 8SM -SN FEW008 OVC043 M05/M09 A2987 RMK SF1SC7 SLP120

CYQB;2008-03-02 04:00;CYQB 020400Z 06004KT 8SM -SN FEW029 OVC045 M06/M09 A2987 RMK SC1SC7 SLP119

CYQB;2008-03-02 05:00;CYQB 020500Z 00000KT 2 1/2SM -SN OVC013 M06/M09 A2988 RMK SC8 SLP122

CYQB;2008-03-02 06:00;CYQB 020600Z 22004KT 3SM -SN OVC011 M07/M09 A2988 RMK SC8 SLP124

CYQB;2008-03-02 07:00;CYQB 020700Z 27005KT 12SM -SN FEW010 SCT045 OVC068 M06/M09 A2989 RMK SF2SC2SC4 SLP128

CYQB;2008-03-02 08:00;CYQB 020800Z 36013KT 15SM -SN FEW010 FEW045 BKN068 OVC110 M05/M11 A2989 RMK SF2SC1SC2AC3 SLP125

CYQB;2008-03-02 09:00;CYQB 020900Z 35012KT 15SM FEW010 SCT036 OVC068 M06/M13 A2991 RMK SF2SC2AC4 SLP134

CYQB;2008-03-02 10:00;CYQB 021000Z 31006KT 15SM FEW010 BKN036 M07/M12 A2994 RMK SF1SC5 SLP143

CYQB;2008-03-02 11:00;CYQB 021100Z 32009KT 20SM FEW030 BKN084 M07/M13 A2998 RMK SC2AC4 SLP157

CYQB;2008-03-02 12:00;CYQB 021200Z 36009G15KT 30SM FEW030 SCT060 BKN089 M07/M14 A3001 RMK SC1AC3AS2 SLP168

CYQB;2008-03-02 13:00;CYQB 021300Z 32007KT 30SM FEW060 BKN099 M08/M14 A3005 RMK AC2AS2 SLP182

CYQB;2008-03-02 14:00;CYQB 021400Z 32007KT 30SM FEW099 M07/M14 A3007 RMK AC1 SLP189

CYQB;2008-03-02 15:00;CYQB 021500Z 28006KT 30SM SKC M06/M13 A3009 RMK SLP194

CYQB;2008-03-02 16:00;CYQB 021600Z 33010KT 30SM SKC M04/M12 A3009 RMK SLP195

CYQB;2008-03-02 17:00;CYQB 021700Z 30011KT 30SM SKC M03/M12 A3009 RMK SLP196

CYQB;2008-03-02 18:00;CYQB 021800Z 31016G21KT 30SM FEW045 M03/M12 A3010 RMK SC1 SLP197

CYQB;2008-03-02 19:00;CYQB 021900Z 32018G24KT 30SM SKC M02/M12 A3010 RMK SLP196

CYQB;2008-03-02 20:00;CYQB 022000Z 31015G21KT 30SM SKC M02/M12 A3011 RMK SLP202

CYQB;2008-03-02 21:00;CYQB 022100Z CCA 32014G22KT 30SM SKC M02/M13 A3011 RMK SLP201

CYQB;2008-03-02 22:00;CYQB 022200Z 32006KT 30SM FEW230 M02/M14 A3014 RMK CI1 SLP212

CYQB;2008-03-02 23:00;CYQB 022300Z 29009KT 30SM FEW230 M04/M14 A3018 RMK CI1 SLP223

CYQB;2008-03-03 00:00;CYQB 030000Z 27003KT 15SM SKC M05/M15 A3019 RMK SLP227

CYQB;2008-03-03 01:00;CYQB 030100Z 27015KT 15SM SKC M06/M14 A3019 RMK SLP230

CYQB;2008-03-03 02:00;CYQB 030200Z 25010KT 15SM SKC M06/M15 A3022 RMK SLP237

CYQB;2008-03-03 03:00;CYQB 030300Z 26011KT 15SM SKC M08/M15 A3022 RMK SLP238

CYQB;2008-03-03 04:00;CYQB 030400Z 27014KT 15SM SKC M09/M15 A3022 RMK SLP237

CYQB;2008-03-03 05:00;CYQB 030500Z 26011KT 15SM SKC M10/M15 A3022 RMK SLP238

CYQB;2008-03-03 06:00;CYQB 030600Z 27004KT 15SM SKC M12/M15 A3022 RMK SLP238

CYQB;2008-03-03 07:00;CYQB 030700Z 28007KT 15SM SKC M13/M16 A3021 RMK SLP236

CYQB;2008-03-03 08:00;CYQB 030800Z 00000KT 15SM SKC M16/M19 A3020 RMK SLP231

CYQB;2008-03-03 09:00;CYQB 030900Z 27003KT 15SM SKC M17/M19 A3020 RMK SLP234

CYQB;2008-03-03 10:00;CYQB 031000Z 00000KT 15SM FEW110 M15/M19 A3022 RMK AC2 SLP240

CYQB;2008-03-03 11:00;CYQB 031100Z 02002KT 30SM OVC090 M12/M17 A3019 RMK AC7 SLP230

CYQB;2008-03-03 12:00;CYQB 031200Z 03002KT 30SM BKN060 BKN080 M11/M17 A3018 RMK SC6AC2 SLP224

CYQB;2008-03-03 12:34;CYQB 031234Z 04006KT 30SM -SN OVC070 M11/ RMK AC8

CYQB;2008-03-03 13:00;CYQB 031300Z 04006KT 30SM -SN OVC055 M11/M16 A3016 RMK SC8 SLP217

CYQB;2008-03-03 13:25;CYQB 031325Z 03006KT 30SM OVC045 M10/ RMK SC8

CYQB;2008-03-03 14:00;CYQB 031400Z 07005KT 30SM -SN OVC041 M09/M14 A3012 RMK SC8 VIS 8 NW QUAD SLP204

CYQB;2008-03-03 14:34;CYQB 031434Z 05009KT 15SM OVC043 M09/ RMK SC8

CYQB;2008-03-03 15:00;CYQB 031500Z CCA 09007KT 15SM OVC053 M08/M14 A3007 RMK SC8 SLP189

CYQB;2008-03-03 16:00;CYQB 031600Z 07006KT 15SM OVC047 M07/M15 A3002 RMK SC8 SLP170

CYQB;2008-03-03 16:13;CYQB 031613Z 07007KT 8SM -PL OVC047 M07/ RMK SC8

CYQB;2008-03-03 16:39;CYQB 031639Z 08003KT 10SM -FZRA OVC044 M07/ RMK SC8

CYQB;2008-03-03 17:00;CYQB 031700Z 08004KT 8SM -FZRA OVC043 M06/M12 A2999 RMK SC8 SLP160

CYQB;2008-03-03 18:00;CYQB 031800Z 06007KT 7SM -FZRA OVC036 M06/M11 A2994 RMK SC8 SLP143

CYQB;2008-03-03 18:17;CYQB 031817Z 04009KT 15SM OVC037 M06/ RMK SC8 REFZRA

CYQB;2008-03-03 19:00;CYQB 031900Z 06007KT 20SM OVC032 M05/M10 A2989 REFZRA RMK SC8 SLP126

CYQB;2008-03-03 20:00;CYQB 032000Z 06005KT 25SM BKN032 OVC042 M05/M09 A2983 RMK SC6SC2 SLP107

CYQB;2008-03-03 20:14;CYQB 032014Z 04006KT 25SM -FZRA BKN032 OVC042 M05/ RMK SC6SC2

CYQB;2008-03-03 20:52;CYQB 032052Z 04004KT 25SM SCT032 OVC041 M04/ REFZRA RMK SC4SC4

CYQB;2008-03-03 21:00;CYQB 032100Z 05004KT 25SM SCT032 OVC040 M04/M08 A2978 REFZRA RMK SC3SC5 SLP092

CYQB;2008-03-03 21:44;CYQB 032144Z 03004KT 25SM -FZRA FEW032 OVC042 M02/ RMK SC2SC6

CYQB;2008-03-03 22:00;CYQB 032200Z 02007KT 25SM FEW032 BKN048 OVC100 M02/M07 A2975 REFZRA RMK SC2SC5AS1 SLP080

CYQB;2008-03-03 23:00;CYQB 032300Z 03004KT 25SM BKN046 OVC100 M02/M07 A2973 RMK SC5AS3 SLP073

CYQB;2008-03-04 00:00;CYQB 040000Z 03004KT 25SM BKN057 M02/M07 A2970 RMK SC7 SLP064

CYQB;2008-03-04 01:00;CYQB 040100Z 02003KT 25SM BKN060 BKN100 M01/M06 A2969 RMK SC5AS2 SLP059

CYQB;2008-03-04 02:00;CYQB 040200Z 03004KT 25SM OVC060 M01/M06 A2964 RMK SC8 SLP041

CYQB;2008-03-04 03:00;CYQB 040300Z 31002KT 15SM OVC064 M01/M05 A2961 RMK SC8 SLP032

CYQB;2008-03-04 04:00;CYQB 040400Z 00000KT 10SM OVC060 M01/M05 A2958 RMK SC8 SLP022

CYQB;2008-03-04 05:00;CYQB 040500Z 28003KT 10SM OVC056 M01/M04 A2959 RMK SC8 SLP024

CYQB;2008-03-04 05:50;CYQB 040550Z 26009KT 10SM -RA OVC054 02/ RMK SC8

CYQB;2008-03-04 06:00;CYQB 040600Z 26009KT 10SM -RA OVC049 02/M02 A2958 RMK SC8 SLP020

CYQB;2008-03-04 07:00;CYQB 040700Z 26010KT 10SM -RA OVC036 02/M02 A2956 RMK SC8 SLP012

CYQB;2008-03-04 08:00;CYQB 040800Z 26010G15KT 10SM -RA OVC028 02/M02 A2954 RMK SC8 SLP006

CYQB;2008-03-04 09:00;CYQB 040900Z 24010KT 3SM -RA BR OVC013 01/M02 A2955 RMK SC8 SLP011

CYQB;2008-03-04 10:00;CYQB 041000Z 27015G25KT 3SM -RA BR OVC021 02/M00 A2960 RMK SC8 SLP027

CYQB;2008-03-04 11:00;CYQB 041100Z 25013KT 2 1/2SM -RA BR FEW010 OVC038 02/M00 A2965 RMK SF1SC7 SLP044

CYQB;2008-03-04 11:17;CYQB 041117Z 25011KT 2 1/2SM -RA BR FEW006 BKN038 OVC060 02/ RMK SF2SC5SC2

CYQB;2008-03-04 11:50;CYQB 041150Z 25009KT 2 1/2SM BR FEW006 BKN035 OVC060 02/ RMK SF1SC4SC3

CYQB;2008-03-04 12:00;CYQB 041200Z 25010KT 2 1/2SM BR FEW006 BKN035 OVC060 02/M00 A2967 RMK SF1SC4SC3 SLP051

CYQB;2008-03-04 12:38;CYQB 041238Z 26013KT 4SM BR FEW010 BKN035 OVC150 02/ RMK SF1SC6AC2

CYQB;2008-03-04 13:00;CYQB 041300Z 27015G27KT 4SM BR FEW009 BKN035 OVC150 02/M00 A2972 RMK SF2SC5AC1 MT OBSCD SLP069

CYQB;2008-03-04 14:00;CYQB 041400Z 31018KT 10SM FEW010 BKN040 BKN150 02/M03 A2978 RMK SF1SC6AC1 SLP087

CYQB;2008-03-04 15:00;CYQB 041500Z 32016KT 15SM FEW020 BKN032 00/M06 A2985 RMK CF1SC6 SLP113

CYQB;2008-03-04 16:00;CYQB 041600Z 32010G26KT 20SM FEW030 BKN045 M03/M11 A2996 RMK CF1SC6 PRESRR SLP149

CYQB;2008-03-04 17:00;CYQB 041700Z 32012G22KT 25SM FEW030 FEW045 BKN250 M03/M11 A3002 RMK CF1SC1CI1 SLP168

CYQB;2008-03-04 18:00;CYQB 041800Z 30019G25KT 25SM FEW030 SCT250 M03/M11 A3003 RMK SC1CI2 SLP173

CYQB;2008-03-04 19:00;CYQB 041900Z 30011G18KT 25SM FEW032 FEW050 SCT240 M04/M13 A3006 RMK SC1SC1CI0 SLP181

CYQB;2008-03-04 20:00;CYQB 042000Z 34009KT 25SM FEW032 FEW050 SCT240 M04/M15 A3009 RMK SC1SC1CI0 SLP193

CYQB;2008-03-04 21:00;CYQB 042100Z 34009KT 30SM FEW240 M04/M16 A3012 RMK CI2 SLP203

CYQB;2008-03-04 22:00;CYQB 042200Z 31007KT 30SM FEW070 BKN240 M05/M15 A3015 RMK AC1CI2 SLP214

CYQB;2008-03-04 23:00;CYQB 042300Z 32006KT 30SM FEW090 BKN240 M06/M16 A3017 RMK AC1CI2 SLP220

CYQB;2008-03-05 00:00;CYQB 050000Z 34006KT 30SM BKN230 M07/M16 A3020 RMK CI2 SLP230

CYQB;2008-03-05 01:00;CYQB 050100Z 36007KT 30SM BKN230 M07/M16 A3021 RMK CI2 SLP234

CYQB;2008-03-05 02:00;CYQB 050200Z 04005KT 30SM OVC210 M08/M16 A3023 RMK CI6 SLP241

CYQB;2008-03-05 03:00;CYQB 050300Z 07012G17KT 15SM OVC200 M07/M15 A3024 RMK CI8 SLP245

CYQB;2008-03-05 04:00;CYQB 050400Z 07015G25KT 15SM OVC170 M08/M16 A3022 RMK AC8 SLP239

CYQB;2008-03-05 05:00;CYQB 050500Z 07017G25KT 15SM OVC150 M08/M16 A3021 RMK AC8 SLP234

CYQB;2008-03-05 06:00;CYQB 050600Z 08016G26KT 15SM OVC130 M09/M16 A3022 RMK AC8 SLP239

CYQB;2008-03-05 07:00;CYQB 050700Z 07020G31KT 15SM OVC100 M09/M16 A3019 RMK AC8 SLP227

CYQB;2008-03-05 08:00;CYQB 050800Z 08020G30KT 15SM OVC065 M09/M17 A3018 RMK SC8 SLP225

CYQB;2008-03-05 09:00;CYQB 050900Z 08018G29KT 15SM OVC021 M10/M17 A3013 RMK SC8 SLP209

CYQB;2008-03-05 09:11;CYQB 050911Z 08018G27KT 8SM -SN OVC018 M10/ RMK SC8

CYQB;2008-03-05 09:22;CYQB 050922Z 08018G31KT 1 3/4SM -SN OVC009 M10/ RMK SC8

CYQB;2008-03-05 10:00;CYQB 051000Z 08023G32KT 3/4SM R06/P6000FT/D -SN BLSN VV007 M11/M15 A3009 RMK SN8 SLP195

CYQB;2008-03-05 10:13;CYQB 051013Z 08028G35KT 1/4SM R06/4000VP6000FT/D -SN +BLSN VV006 M11/ RMK SN8

CYQB;2008-03-05 10:34;CYQB 051034Z 07026G35KT 1/8SM R06/2800V4500FT/D SN +BLSN VV003 M11/ RMK SN8

CYQB;2008-03-05 11:00;CYQB 051100Z 07025G36KT 1/8SM R06/2400V3500FT/N -SN +BLSN VV003 M11/M14 A3005 RESN RMK SN8 SLP180

CYQB;2008-03-05 12:00;CYQB 051200Z CCA 07025G35KT 1/8SM R06/2200FT/N -SN +BLSN VV003 M11/M14 A3000 RMK SN8 /S02/ SLP164

CYQB;2008-03-05 13:00;CYQB 051300Z CCA 07030G38KT 1/8SM R06/0800V1400FT/N SN +BLSN VV002 M11/M14 A2993 RMK SN8 PRESFR /S03/ SLP141

CYQB;2008-03-05 13:40;CYQB 051340Z 07027G37KT 1/8SM R06/0900V1600FT/N SNPL +BLSN VV003 M11/M14 RMK SN8 PRESFR

CYQB;2008-03-05 14:00;CYQB 051400Z 07031G39KT 1/4SM R06/1100V2000FT/N -SNPL +BLSN VV004 M10/M13 A2982 RESN RMK SN8 PRESFR /S05/ SLP103

CYQB;2008-03-05 15:00;CYQB 051500Z 07035G44KT 1/4SM R06/0900V1400FT/N PLSN +BLSN VV006 M10/M13 A2975 RMK SN8 PRESFR /S07/ SLP078

CYQB;2008-03-05 16:00;CYQB 051600Z 07030G40KT 1/4SM R06/1000V1400FT/N SNPL +BLSN VV004 M10/M13 A2969 REPL RMK SN8 PRESFR /S09/ SLP058

CYQB;2008-03-05 16:51;CYQB 051651Z 08024G38KT 1/8SM R06/0900V1400FT/N -SNPL +BLSN VV007 M10/ RESN RMK SN8

CYQB;2008-03-05 17:00;CYQB 051700Z 08030G38KT 1/8SM R06/0700V1400FT/N -SNPL +BLSN VV006 M10/M12 A2964 RESN RMK SN8 PRESFR /S11/ SLP041

CYQB;2008-03-05 17:37;CYQB 051737Z 07026G37KT 1/2SM R06/1400V2200FT/N -SNPL BLSN BKN015 OVC030 M10/ RMK SN5SC1SC2 PRESFR

CYQB;2008-03-05 18:00;CYQB 051800Z 07026G40KT 3/8SM R06/1400FT/N -SNPL BLSN OVC028 M10/M13 A2956 RMK SN6SC2 PRESFR /S12/ SLP017

CYQB;2008-03-05 19:00;CYQB 051900Z CCA 07024G36KT 3/8SM R06/1200V2200FT/N SN DRSN VV017 M10/M13 A2954 REBLSN RMK SN8 VIS VRB 1/4-1/2 /S01/ SLP010

CYQB;2008-03-05 20:00;CYQB 052000Z 07020G25KT 3/8SM R06/2400FT/N SN DRSN VV012 M09/M12 A2952 RMK SN8 VIS VRB 1/4-1/2 /S02/ SLP001

CYQB;2008-03-05 21:00;CYQB 052100Z 07019G30KT 1/2SM R06/2800FT/N SN DRSN VV020 M09/M12 A2951 RMK SN8 /S03/ SLP000

CYQB;2008-03-05 21:38;CYQB 052138Z 08011G22KT 5/8SM R06/5000FT/N -SN DRSN VV019 M09/ RESN RMK SN8

CYQB;2008-03-05 22:00;CYQB 052200Z CCA 09016G22KT 1 1/4SM -SN DRSN SCT012 OVC032 M09/M12 A2954 RESN RMK SN2SF1SC5 /S04/ SLP008

CYQB;2008-03-05 22:33;CYQB 052233Z 10012G26KT 1 1/2SM -SN DRSN SCT010 OVC024 M09/ RMK SN2SF1SC5

CYQB;2008-03-05 22:40;CYQB 052240Z 11010G18KT 3SM -SN DRSN SCT012 OVC022 M08/ RMK SN2SF2SC4

CYQB;2008-03-05 23:00;CYQB 052300Z CCA 12013G18KT 4SM -SN BKN012 OVC018 M09/M12 A2961 RMK SN1SF5SC2 PRESRR SLP033

CYQB;2008-03-05 23:33;CYQB 052333Z 10009G15KT 1 1/2SM -SN OVC016 M09/ RMK SN6SC2

CYQB;2008-03-06 00:00;CYQB 060000Z 10006KT 1 1/4SM -SN OVC022 M09/M12 A2964 RMK SN1SC7 /S05/ SLP041

CYQB;2008-03-06 00:11;CYQB 060011Z 12006KT 5SM -SN FEW012 OVC020 M09/ RMK SF1SC7

CYQB;2008-03-06 01:00;CYQB 060100Z 28002KT 5SM -SN OVC020 M09/M12 A2967 RMK SC8 SLP053

CYQB;2008-03-06 02:00;CYQB 060200Z CCA 25013KT 5SM -SN BKN022 OVC062 M09/M12 A2971 RMK SC5SC3 /S01/ SLP067

CYQB;2008-03-06 03:00;CYQB 060300Z 26016KT 5SM -SN OVC020 M09/M12 A2975 RMK SC8 SLP079

CYQB;2008-03-06 04:00;CYQB 060400Z 26019KT 10SM DRSN SCT020 M11/M14 A2981 RMK SC4 PRESRR SLP099

CYQB;2008-03-06 05:00;CYQB 060500Z 26018G24KT 15SM DRSN FEW018 M11/M15 A2987 RMK SC2 PRESRR SLP121

CYQB;2008-03-06 06:00;CYQB 060600Z 26019G25KT 15SM DRSN FEW017 M12/M16 A2992 RMK SC1 SLP137

CYQB;2008-03-06 07:00;CYQB 060700Z 27017G22KT 15SM DRSN FEW015 M12/M16 A2996 RMK SC1 SLP152

CYQB;2008-03-06 08:00;CYQB 060800Z 25011KT 15SM FEW015 M13/M17 A3001 RMK SC1 SLP167

CYQB;2008-03-06 09:00;CYQB 060900Z 23009KT 15SM FEW015 M13/M18 A3004 RMK SC1 SLP178

CYQB;2008-03-06 10:00;CYQB 061000Z 26013KT 15SM FEW015 M14/M18 A3006 RMK SC1 SLP186

CYQB;2008-03-06 11:00;CYQB 061100Z 25006KT 30SM SKC M14/M18 A3008 RMK SLP194

CYQB;2008-03-06 12:00;CYQB 061200Z 27010KT 30SM SKC M15/M18 A3013 RMK SLP210

CYQB;2008-03-06 13:00;CYQB 061300Z 26007KT 30SM SKC M13/M17 A3016 RMK SLP218

CYQB;2008-03-06 14:00;CYQB 061400Z 26006KT 30SM SKC M11/M16 A3017 RMK SLP221

CYQB;2008-03-06 15:00;CYQB 061500Z 22009KT 30SM FEW240 M08/M14 A3017 RMK CI1 SLP224

CYQB;2008-03-06 16:00;CYQB 061600Z 25007KT 30SM FEW020 FEW240 M07/M13 A3019 RMK SC1CI1 SLP228

CYQB;2008-03-06 17:00;CYQB 061700Z 27005KT 30SM FEW030 FEW100 BKN240 M05/M11 A3019 RMK SC1AC1CI3 SLP228

CYQB;2008-03-06 18:00;CYQB 061800Z 27004KT 30SM FEW030 FEW070 OVC090 M04/M11 A3017 RMK SC1AC1AS6 SLP221

CYQB;2008-03-06 19:00;CYQB 061900Z 28003KT 30SM FEW030 BKN100 OVC200 M03/M10 A3018 RMK SC1AS5CS2 SLP224

CYQB;2008-03-06 20:00;CYQB 062000Z 28004KT 30SM FEW030 FEW095 OVC200 M03/M10 A3019 RMK SC1AC1CI6 SLP228

CYQB;2008-03-06 21:00;CYQB 062100Z 24003KT 30SM FEW030 FEW070 SCT200 M02/M09 A3018 RMK SC1AC1CI2 SLP225

CYQB;2008-03-06 22:00;CYQB 062200Z 21002KT 30SM FEW058 BKN200 M04/M10 A3019 RMK SC2CI0 SLP228

CYQB;2008-03-06 23:00;CYQB 062300Z 36002KT 15SM FEW048 FEW120 SCT200 M04/M11 A3020 RMK SC1AC1CI0 SLP231

CYQB;2008-03-07 00:00;CYQB 070000Z 02002KT 15SM SCT070 BKN200 M05/M10 A3021 RMK AC3CI2 SLP237

CYQB;2008-03-07 01:00;CYQB 070100Z 05003KT 15SM BKN064 M05/M10 A3022 RMK SC6 SLP239

CYQB;2008-03-07 02:00;CYQB 070200Z 04002KT 15SM OVC059 M05/M09 A3023 RMK SC6 SLP242

CYQB;2008-03-07 03:00;CYQB 070300Z 01002KT 15SM SCT060 OVC086 M06/M10 A3022 RMK SC4AC4 SLP240

CYQB;2008-03-07 04:00;CYQB 070400Z 00000KT 15SM OVC081 M06/M09 A3022 RMK AC8 SLP239

CYQB;2008-03-07 05:00;CYQB 070500Z 00000KT 15SM BKN080 M07/M10 A3023 RMK AC6 SLP242

CYQB;2008-03-07 06:00;CYQB 070600Z 00000KT 15SM BKN078 M06/M09 A3023 RMK AC7 SLP242

CYQB;2008-03-07 07:00;CYQB 070700Z 00000KT 15SM BKN075 OVC150 M05/M09 A3024 RMK AC6AC2 SLP245

CYQB;2008-03-07 08:00;CYQB 070800Z 00000KT 15SM OVC072 M07/M11 A3025 RMK AC8 SLP250

CYQB;2008-03-07 09:00;CYQB 070900Z 00000KT 10SM SCT034 OVC070 M07/M10 A3027 RMK SC4AC4 SLP256

CYQB;2008-03-07 10:00;CYQB 071000Z 00000KT 10SM OVC047 M06/M09 A3028 RMK SC8 SLP260

CYQB;2008-03-07 11:00;CYQB 071100Z 00000KT 10SM FEW040 BKN060 OVC230 M07/M10 A3027 RMK SC2SC5CI1 SLP255

CYQB;2008-03-07 12:00;CYQB 071200Z 00000KT 10SM BKN035 BKN060 OVC230 M06/M09 A3030 RMK SC6SC2CI1 OBS TAKEN +10 SLP264

CYQB;2008-03-07 13:00;CYQB 071300Z 00000KT 10SM BKN034 M05/M08 A3030 RMK SC7 SLP266

CYQB;2008-03-07 14:00;CYQB 071400Z 05002KT 10SM BKN029 BKN040 M02/M07 A3030 RMK SC6SC2 SLP266

CYQB;2008-03-07 15:00;CYQB 071500Z 00000KT 15SM FEW040 OVC160 00/M06 A3030 RMK SC1AS4 SLP265

CYQB;2008-03-07 16:00;CYQB 071600Z 00000KT 15SM FEW040 OVC140 02/M06 A3029 RMK SC1AS6 SLP261

CYQB;2008-03-07 17:00;CYQB 071700Z 04002KT 15SM FEW050 OVC140 03/M05 A3027 RMK SC1AS6 SLP256

CYQB;2008-03-07 18:00;CYQB 071800Z 36002KT 15SM FEW060 OVC160 04/M04 A3024 RMK SC1AS6 SLP244

CYQB;2008-03-07 19:00;CYQB 071900Z 08004KT 10SM FEW050 OVC140 03/M04 A3020 RMK SC1AS7 SLP230

CYQB;2008-03-07 20:00;CYQB 072000Z 07004KT 10SM FEW100 OVC190 04/M04 A3017 RMK AC1AS6 SLP219

CYQB;2008-03-07 21:00;CYQB 072100Z 08005KT 10SM FEW080 OVC190 03/M04 A3013 RMK AC2AS6 SLP206

CYQB;2008-03-07 22:00;CYQB 072200Z 01004KT 10SM FEW080 OVC190 04/M04 A3011 RMK AC2AS6 SLP202

CYQB;2008-03-07 23:00;CYQB 072300Z 36005KT 10SM OVC087 04/M04 A3011 RMK AC8 SLP202

CYQB;2008-03-08 00:00;CYQB 080000Z 35005KT 10SM OVC070 03/M04 A3011 RMK AC8 SLP201

CYQB;2008-03-08 01:00;CYQB 080100Z 09006KT 10SM OVC110 02/M04 A3003 RMK AC8 SLP172

CYQB;2008-03-08 01:31;CYQB 080131Z 36005KT 10SM OVC090 02/ RMK AC8

CYQB;2008-03-08 02:00;CYQB 080200Z 36004KT 10SM OVC080 01/M03 A3008 RMK AC8 SLP190

CYQB;2008-03-08 03:00;CYQB 080300Z 03005KT 10SM OVC038 02/M04 A3003 RMK SC8 SLP172

CYQB;2008-03-08 03:45;CYQB 080345Z 05004KT 8SM -SN BKN018 OVC038 01/ RMK SC5SC3

CYQB;2008-03-08 04:00;CYQB 080400Z 07003KT 8SM -SN BKN018 OVC038 01/M03 A2998 RMK SC6SC2 SLP156

CYQB;2008-03-08 05:00;CYQB 080500Z 07006KT 1 3/4SM -SN OVC010 00/M02 A2995 RMK SN2SC6 SLP145

CYQB;2008-03-08 05:10;CYQB 080510Z 07004KT 1 1/4SM -SN OVC004 00/ RMK SN4SC4

CYQB;2008-03-08 05:35;CYQB 080535Z 07005KT 1SM R06/6000FT/D -SN VV004 00/ RMK SN8 CIG VRB 2-6

CYQB;2008-03-08 06:00;CYQB 080600Z 07009KT 3/4SM R06/P6000FT/U -SN VV004 00/M02 A2993 RMK SN8 CIG VRB 2-6 /S02/ SLP140

CYQB;2008-03-08 06:35;CYQB 080635Z 07007KT 5/8SM R06/P6000FT/N -SN VV002 M00/ RMK SN8

CYQB;2008-03-08 07:00;CYQB 080700Z 08006KT 5/8SM R06/P6000FT/D -SN VV002 M00/M02 A2989 RMK SN8 /S02/ SLP127

CYQB;2008-03-08 08:00;CYQB 080800Z 07005KT 3/4SM R06/P6000FT/U -SN VV005 M00/M02 A2988 RMK SN8 /S04/ SLP121

CYQB;2008-03-08 08:50;CYQB 080850Z 06005KT 1SM R06/P6000FT/U -SN OVC007 M00/ RMK SN3SC5

CYQB;2008-03-08 09:00;CYQB 080900Z 05004KT 1SM R06/P6000FT/D -SN OVC006 M00/M02 A2986 RMK SN3SC5 /S06/ CIG VRB 3-9 SLP114

CYQB;2008-03-08 10:00;CYQB 081000Z CCA 04003KT 2 1/4SM -SN BKN009 OVC017 00/M02 A2986 RMK SC6SC2 /S07/ SLP115

CYQB;2008-03-08 10:47;CYQB 081047Z CCA 09002KT 2 1/2SM -SN SCT008 OVC011 00/ RMK SF3SC5

CYQB;2008-03-08 11:00;CYQB 081100Z 04003KT 4SM -SN BKN008 OVC012 00/M02 A2986 RMK SF6SC2 SLP113

CYQB;2008-03-08 11:22;CYQB 081122Z 35003KT 3SM -SN FEW004 OVC008 00/ RMK SF2ST6

CYQB;2008-03-08 11:39;CYQB 081139Z 03005KT 3SM -SN BKN008 OVC013 M00/ RMK SF5SC3

CYQB;2008-03-08 12:00;CYQB 081200Z 34005KT 6SM -SN FEW004 BKN011 OVC018 M01/M04 A2986 RMK SF2SF5SC2 SLP116

CYQB;2008-03-08 13:00;CYQB 081300Z 36005KT 6SM -SN FEW004 BKN011 OVC018 M01/M05 A2990 RMK SF2SF5SC2 SLP128

CYQB;2008-03-08 14:00;CYQB 081400Z 36007KT 8SM FEW005 BKN011 OVC018 M02/M06 A2991 RMK SF1SC6SC1 SLP132

CYQB;2008-03-08 15:00;CYQB 081500Z 08009G15KT 10SM FEW008 BKN012 OVC026 M01/M04 A2992 RMK SF1SC6SC2 SLP137

CYQB;2008-03-08 16:00;CYQB 081600Z 09009KT 10SM FEW008 BKN012 OVC020 M01/M04 A2992 RMK SF1SC6SC2 -SHSN N-NE SLP136

CYQB;2008-03-08 17:00;CYQB 081700Z 08014G20KT 10SM FEW008 BKN013 OVC039 M02/M05 A2991 RMK SF2SC5SC2 VCSH SLP133

CYQB;2008-03-08 18:00;CYQB 081800Z 07014G20KT 10SM FEW014 OVC040 M03/M06 A2993 RMK CF2SC6 SLP140

CYQB;2008-03-08 18:30;CYQB 081830Z 07014KT 6SM -SN FEW015 OVC040 M03/ RMK CF2SC6

CYQB;2008-03-08 19:00;CYQB 081900Z 08014G19KT 4SM -SN SCT012 OVC032 M03/M07 A2991 RMK CF4SC4 SLP132

CYQB;2008-03-08 19:25;CYQB 081925Z 07018G27KT 2SM -SN OVC015 M04/ RMK SN3SC5

CYQB;2008-03-08 20:00;CYQB 082000Z 09014G22KT 4SM -SN BKN013 OVC044 M04/M07 A2986 RMK SF5SC3 PRESFR SLP115

CYQB;2008-03-08 21:00;CYQB 082100Z 07020G29KT 10SM -SN BKN015 OVC055 M04/M08 A2986 RMK SF6SC2 VC BLSN SLP117

CYQB;2008-03-08 21:09;CYQB 082109Z 07029G36KT 2 1/2SM -SN BLSN BKN013 OVC026 M04/ RMK BLSN2SF4SC2

CYQB;2008-03-08 21:22;CYQB 082122Z 07019G35KT 1 1/2SM R06/3500VP6000FT/U -SN BLSN OVC015 M05/ RMK BLSN3SC5

CYQB;2008-03-08 21:32;CYQB 082132Z 07025G36KT 1SM R06/3000V4500FT/N -SN BLSN OVC012 M05/ RMK BLSN5SC3

CYQB;2008-03-08 22:00;CYQB 082200Z 07018G30KT 1SM R06/4000VP6000FT/D -SN BLSN OVC011 M05/M08 A2985 RMK BLSN5SC3 SLP113

CYQB;2008-03-08 22:50;CYQB 082250Z 07028G38KT 1/2SM R06/2200FT/N -SN BLSN VV007 M06/ RMK BLSN8

CYQB;2008-03-08 23:00;CYQB 082300Z 07028G38KT 1/4SM R06/1600V2800FT/N -SN +BLSN VV006 M06/M09 A2983 RMK BLSN8 SLP105

CYQB;2008-03-08 23:10;CYQB 082310Z 07025G46KT 1/4SM R06/2000FT/N SN +BLSN VV004 M06/ RMK BLSN8

CYQB;2008-03-08 23:45;CYQB 082345Z 07028G42KT 1/8SM R06/1200V2000FT/N SNPL +BLSN VV003 M06/ RMK BLSN8

CYQB;2008-03-09 00:00;CYQB 090000Z 06030G41KT 1/8SM R06/0700V1100FT/N -SNPL +BLSN VV005 M07/M10 A2976 RMK BLSN8 PRESFR RESN SLP083

CYQB;2008-03-09 00:13;CYQB 090013Z 06032G42KT 1/4SM R06/0600V1200FT/N -SNPL +BLSN VV004 M07/ RMK BLSN8 PRESFR RESN

CYQB;2008-03-09 01:00;CYQB 090100Z 07025G33KT 1/4SM R06/3000FT/N -SN +BLSN VV004 M07/M10 A2970 RMK BLSN8 PRESFR REPL /S04/ SLP062

CYQB;2008-03-09 01:10;CYQB 090110Z 07025G33KT 1/8SM R06/3500FT/N SN +BLSN VV003 M07/ RMK BLSN8 PRESFR REPL /S05/

CYQB;2008-03-09 01:29;CYQB 090129Z 07034G42KT 1/8SM R06/2800FT/N -SN +BLSN VV005 M07/ RMK BLSN8 PRESFR REPL RESN

CYQB;2008-03-09 02:00;CYQB 090200Z 07031G45KT 1/8SM R06/0500V1100FT/N -SN +BLSN BKN008 OVC023 M08/M11 A2969 RMK BLSN2SF4SC2 RESN /S06/ SLP059

CYQB;2008-03-09 02:37;CYQB 090237Z 07036G49KT 0SM R06/0400V0600FT/N -SN +BLSN VV000 M08/ RMK BLSN8 PK WND G55 0213Z

CYQB;2008-03-09 03:00;CYQB 090300Z CCA 07031G45KT 1/8SM R06/0700V1000FT/N -SN +BLSN VV000 M08/M10 A2950 RMK BLSN8 PRESFR SLP995

CYQB;2008-03-09 03:21;CYQB 090321Z 07035G55KT 1/8SM R06/0700V1100FT/N -SN +BLSN BKN003 OVC008 M08/ RMK BLSN5SF2SC1

CYQB;2008-03-09 03:48;CYQB 090348Z 07040G58KT 0SM R06/0300V0700FT/N -SN +BLSN VV000 M08/ RMK BLSN8 PK WND G66 0328Z

CYQB;2008-03-09 04:00;CYQB 090400Z 07035G58KT 1/8SM R06/0600V1000FT/N -SN +BLSN VV000 M08/M10 A2934 RMK BLSN8 PRESFR /S08/ SLP940

CYQB;2008-03-09 04:25;CYQB 090425Z 07032G50KT 1/4SM R06/1200V2200FT/U -SN +BLSN BKN010 OVC035 M08/ RMK BLSN4SC3SC1

CYQB;2008-03-09 04:49;CYQB 090449Z 08033G49KT 3/8SM R06/3000FT/N -SN BLSN SCT010 OVC025 M07/ RMK BLSN2SC2SC4

CYQB;2008-03-09 05:00;CYQB 090500Z 07036G43KT 3/8SM R06/3000FT/N -SN BLSN SCT010 OVC028 M07/M10 A2929 RMK BLSN2SC2SC4 SLP923

CYQB;2008-03-09 06:00;CYQB 090600Z 07036G52KT 1/8SM R06/1000FT/N -SN +BLSN VV004 M08/M10 A2929 RMK BLSN8 /S09/ SLP924

CYQB;2008-03-09 07:00;CYQB 090700Z 08028G42KT 1/4SM R06/1000FT/N -SN +BLSN VV002 M08/M10 A2929 RMK BLSN8 /S01/ SLP922

CYQB;2008-03-09 08:00;CYQB 090800Z 07029G38KT 1/4SM R06/1000V1800FT/N -SN +BLSN VV004 M08/M11 A2928 RMK BLSN8 /S02/ SLP921

CYQB;2008-03-09 08:37;CYQB 090837Z 08020G32KT 3/8SM R06/3000FT/N -SN BLSN VV007 M08/ RMK BLSN8

CYQB;2008-03-09 09:00;CYQB 090900Z 07016G34KT 3/8SM R06/2200FT/N -SN BLSN VV006 M08/M11 A2932 RMK BLSN8 /S03/ SLP933

CYQB;2008-03-09 10:00;CYQB 091000Z 07016G27KT 1/2SM R06/3500VP6000FT/U -SN BLSN VV008 M08/M11 A2936 RMK BLSN8 /S04/ SLP948

CYQB;2008-03-09 11:00;CYQB 091100Z 07015G22KT 1 1/2SM -SN BLSN OVC028 M08/M11 A2944 RMK SN3SC5 OBS TAKEN +17 SLP973

CYQB;2008-03-09 12:00;CYQB 091200Z 07014G19KT 3SM -SN DRSN FEW015 OVC040 M08/M12 A2949 REBLSN RMK SN1SC2SC6 PRESRR /S05/ SLP992

CYQB;2008-03-09 13:00;CYQB 091300Z CCA 06014G26KT 1 1/4SM -SN DRSN OVC027 M09/M13 A2957 RMK SN4SC4 PRESRR SLP019

CYQB;2008-03-09 14:00;CYQB 091400Z 07011G16KT 2 1/4SM -SN OVC024 M08/M13 A2963 RMK SN1SC7 VIS VRB 11/2-3 PRESRR SLP039

CYQB;2008-03-09 15:00;CYQB 091500Z 09011KT 1 3/4SM -SN VV025 M08/M13 A2969 RMK SN8 /S01/ SLP059

CYQB;2008-03-09 15:15;CYQB 091515Z 07012KT 6SM -SN BKN023 OVC040 M07/ RMK SC6SC2 VIS SW-N 3 SUN DIMLY VISBL

CYQB;2008-03-09 15:50;CYQB 091550Z 08007KT 3SM -SN FEW009 BKN015 OVC030 M08/ RMK SF2SC3SC3 SUN DIMLY VISBL

CYQB;2008-03-09 16:00;CYQB 091600Z 10008KT 2 1/4SM -SN SCT009 OVC020 M08/M14 A2975 RMK SN2SF2SC4 VIS VRB 11/2-3 SUN DIMLY VISBL SLP078

CYQB;2008-03-09 17:00;CYQB 091700Z CCA 20005KT 1SM -SN SCT010 OVC020 M08/M12 A2980 RMK SN3SF1SC4 VIS VRB 3/4-11/4 SLP095

CYQB;2008-03-09 18:00;CYQB 091800Z 18009KT 3SM -SN BKN023 OVC035 M08/M11 A2983 RMK SC6SC2 VIS VRB 2-4 SLP107

CYQB;2008-03-09 19:00;CYQB 091900Z 20002KT 3SM -SN BKN025 OVC035 M06/M10 A2987 RMK SC7SC1 VIS VRB 2-4 SLP119

CYQB;2008-03-09 19:58;CYQB 091958Z 04009KT 1/2SM SN VV008 M08/ RMK SN8

CYQB;2008-03-09 20:00;CYQB 092000Z 04009KT 1/2SM SN VV007 M08/M11 A2990 RMK SN8 VIS VRB 3/8-5/8 SLP131

CYQB;2008-03-09 20:39;CYQB 092039Z CCA 05004KT 2 1/2SM -SN FEW008 OVC030 M08/ RESN RMK SF2SC6 VIS NW-NE HIER

CYQB;2008-03-09 21:00;CYQB 092100Z 05003KT 6SM -SN FEW008 BKN032 M08/M11 A2995 RESN RMK SF1SC7 SLP147

CYQB;2008-03-09 22:00;CYQB 092200Z 32011KT 30SM FEW008 FEW040 FEW220 M08/M16 A3000 RMK SF1SC2CI0 SLP163

CYQB;2008-03-09 23:00;CYQB 092300Z 32011KT 30SM FEW008 FEW080 FEW220 M10/M17 A3006 RMK SF1AC1CI1 PRESRR SLP185

CYQB;2008-03-10 00:00;CYQB 100000Z 34009KT 15SM FEW090 M11/M18 A3011 RMK AC2 SLP200

CYQB;2008-03-10 01:00;CYQB 100100Z 33013KT 15SM FEW090 M11/M18 A3014 RMK AC2 SLP210

CYQB;2008-03-10 02:00;CYQB 100200Z 32010KT 15SM FEW090 M12/M19 A3017 RMK AC2 SLP221

CYQB;2008-03-10 03:00;CYQB 100300Z 31007KT 15SM FEW090 M13/M19 A3018 RMK AC1 SLP227

CYQB;2008-03-10 04:00;CYQB 100400Z 33005KT 15SM SKC M13/M19 A3019 RMK SLP229

CYQB;2008-03-10 05:00;CYQB 100500Z 34005KT 15SM SKC M13/M19 A3021 RMK SLP235

CYQB;2008-03-10 06:00;CYQB 100600Z 34006KT 15SM SKC M13/M20 A3023 RMK SLP242

CYQB;2008-03-10 07:00;CYQB 100700Z 33005KT 15SM SCT250 M14/M20 A3024 RMK CI3 SLP246

CYQB;2008-03-10 08:00;CYQB 100800Z 33004KT 15SM BKN250 M14/M20 A3024 RMK CI5 SLP247

CYQB;2008-03-10 09:00;CYQB 100900Z 00000KT 15SM SCT250 M16/M21 A3025 RMK CI3 SLP252

CYQB;2008-03-10 10:00;CYQB 101000Z 26004KT 15SM FEW250 M19/M25 A3027 RMK CI1 SLP258

CYQB;2008-03-10 11:00;CYQB 101100Z 00000KT 20SM FEW200 M20/M23 A3028 RMK CI0 SLP262

CYQB;2008-03-10 12:00;CYQB 101200Z 00000KT 30SM BKN210 M18/M22 A3030 RMK CI2 SLP266

CYQB;2008-03-10 13:00;CYQB 101300Z 14002KT 20SM BKN210 M15/M20 A3030 RMK CI2 SLP269

CYQB;2008-03-10 14:00;CYQB 101400Z 22005KT 20SM BKN210 M14/M18 A3030 RMK CI2 SLP267

CYQB;2008-03-10 15:00;CYQB 101500Z 25006KT 20SM BKN210 M12/M17 A3029 RMK CI2 SLP265

CYQB;2008-03-10 16:00;CYQB 101600Z 22008KT 20SM FEW160 BKN210 M10/M16 A3027 RMK AC1CI1 SLP258

CYQB;2008-03-10 17:00;CYQB 101700Z 23012KT 20SM FEW160 BKN210 M09/M16 A3025 RMK AC1CI1 SLP249

CYQB;2008-03-10 18:00;CYQB 101800Z 21013KT 30SM BKN210 M08/M15 A3022 RMK CI2 SLP238

CYQB;2008-03-10 19:00;CYQB 101900Z 23015KT 30SM BKN210 M07/M16 A3020 RMK CI2 SLP232

CYQB;2008-03-10 20:00;CYQB 102000Z 23017KT 30SM FEW150 BKN210 M07/M16 A3018 RMK AC1CI2 SLP226

CYQB;2008-03-10 21:00;CYQB 102100Z 24018KT 30SM BKN220 M07/M17 A3016 RMK CI2 CONTRAILS SLP220

CYQB;2008-03-10 22:00;CYQB 102200Z 24013KT 30SM BKN220 M07/M16 A3016 RMK CI2 SLP218

CYQB;2008-03-10 23:00;CYQB 102300Z 25012KT 30SM BKN220 M09/M17 A3015 RMK CI2 SLP217

CYQB;2008-03-11 00:00;CYQB 110000Z 26011KT 15SM SCT220 M10/M16 A3016 RMK CI2 SLP221

CYQB;2008-03-11 01:00;CYQB 110100Z 26006KT 15SM FEW220 M11/M17 A3016 RMK CI0 SLP219

CYQB;2008-03-11 02:00;CYQB 110200Z 25006KT 15SM SKC M11/M16 A3014 RMK SLP215

CYQB;2008-03-11 03:00;CYQB 110300Z 00000KT 15SM FEW220 M14/M18 A3013 RMK CI0 SLP210

CYQB;2008-03-11 04:00;CYQB 110400Z 22006KT 15SM FEW220 M13/M17 A3012 RMK CI1 SLP205

CYQB;2008-03-11 05:00;CYQB 110500Z 26004KT 15SM SKC M16/M19 A3011 RMK SLP204

CYQB;2008-03-11 06:00;CYQB 110600Z 24008KT 15SM SKC M14/M18 A3011 RMK SLP204

CYQB;2008-03-11 07:00;CYQB 110700Z 24008KT 15SM SKC M14/M18 A3010 RMK SLP200

CYQB;2008-03-11 08:00;CYQB 110800Z 23006KT 15SM SKC M15/M19 A3009 RMK SLP196

CYQB;2008-03-11 09:00;CYQB 110900Z 26005KT 15SM SKC M16/M19 A3008 RMK SLP194

CYQB;2008-03-11 10:00;CYQB 111000Z 29002KT 15SM SKC M17/M20 A3008 RMK SLP191

CYQB;2008-03-11 11:00;CYQB 111100Z 23003KT 15SM FEW210 M16/M20 A3007 RMK CI1 SLP188

CYQB;2008-03-11 12:00;CYQB 111200Z 28005KT 20SM SCT240 M17/M20 A3006 RMK CI2 SLP187

CYQB;2008-03-11 13:00;CYQB 111300Z 26010KT 25SM FEW085 FEW210 M14/M18 A3006 RMK AC2CI1 SLP184

CYQB;2008-03-11 14:00;CYQB 111400Z 26013KT 25SM BKN082 M11/M16 A3004 RMK AC6 SLP178

CYQB;2008-03-11 15:00;CYQB 111500Z 25013KT 25SM BKN080 M10/M16 A3002 RMK AC6 SLP173

CYQB;2008-03-11 16:00;CYQB 111600Z 26009KT 30SM BKN078 M09/M15 A3000 RMK AC6 SLP165

CYQB;2008-03-11 17:00;CYQB 111700Z 24006KT 30SM BKN078 M06/M13 A2996 RMK AC6 SLP153

CYQB;2008-03-11 18:00;CYQB 111800Z 24009KT 30SM FEW078 SCT210 M04/M11 A2993 RMK AC2CI1 SLP141

CYQB;2008-03-11 19:00;CYQB 111900Z 26012G17KT 30SM FEW078 FEW160 SCT210 M03/M11 A2990 RMK AC1AC0CI0 SLP132

CYQB;2008-03-11 20:00;CYQB 112000Z 26012KT 30SM FEW080 BKN210 M03/M11 A2988 RMK AC1CI1 SLP124

CYQB;2008-03-11 20:33;CYQB 112033Z 31019KT 6SM IC DRSN FEW018 FEW080 RMK ST1AS2 VIA YQB

CYQB;2008-03-11 20:48;CYQB 112048Z CCA 25010KT 30SM BKN210 M03/M11 RMK CI2

CYQB;2008-03-11 21:00;CYQB 112100Z 24009KT 30SM FEW080 FEW160 OVC210 M03/M11 A2985 RMK AC1AC1CI1 SLP115

CYQB;2008-03-11 22:00;CYQB 112200Z 25009KT 30SM FEW120 BKN220 M03/M10 A2984 RMK AC2CI4 SLP110

CYQB;2008-03-11 23:00;CYQB 112300Z 25011KT 30SM FEW120 OVC160 M04/M11 A2982 RMK AC2AS4 SLP104

CYQB;2008-03-12 00:00;CYQB 120000Z 20002KT 15SM FEW080 OVC140 M06/M11 A2981 RMK AC2AS4 SLP101

CYQB;2008-03-12 01:00;CYQB 120100Z 00000KT 15SM FEW080 BKN150 M05/M11 A2979 RMK AC2AS4 SLP094

CYQB;2008-03-12 02:00;CYQB 120200Z 25002KT 15SM OVC140 M06/M12 A2977 RMK AC7 SLP087

CYQB;2008-03-12 03:00;CYQB 120300Z 00000KT 15SM OVC100 OVC220 M07/M11 A2974 RMK AC6CI0 SLP077

CYQB;2008-03-12 04:00;CYQB 120400Z 26002KT 15SM SCT047 OVC100 M09/M12 A2972 RMK SC2AC6 SLP071

CYQB;2008-03-12 05:00;CYQB 120500Z 00000KT 15SM BKN040 OVC100 M07/M11 A2970 RMK SC6AC2 SLP064

CYQB;2008-03-12 06:00;CYQB 120600Z 36002KT 12SM -SN OVC037 M06/M10 A2969 RMK SC8 SLP058

CYQB;2008-03-12 07:00;CYQB 120700Z 24002KT 12SM -SN OVC042 M07/M10 A2966 RMK SC8 SLP048

CYQB;2008-03-12 08:00;CYQB 120800Z 23004KT 15SM -SN SCT040 OVC055 M05/M08 A2963 RMK SC3SC5 SLP037

CYQB;2008-03-12 08:52;CYQB 120852Z 00000KT 10SM -SN OVC011 M06/ RMK SC8

CYQB;2008-03-12 09:00;CYQB 120900Z 02003KT 12SM -SN BKN013 OVC030 M05/M09 A2961 RMK SC6SC2 SLP032

CYQB;2008-03-12 10:00;CYQB 121000Z 00000KT 8SM -SN OVC013 M06/M09 A2960 RMK SC8 SLP029

CYQB;2008-03-12 10:32;CYQB 121032Z 01002KT 1 1/2SM -SN OVC007 M06/ RMK SN3SC5

CYQB;2008-03-12 11:00;CYQB 121100Z 09002KT 1 1/4SM -SN OVC010 M06/M08 A2959 RMK SN2SC6 SLP026

CYQB;2008-03-12 12:00;CYQB 121200Z 02002KT 1 1/4SM -SN BR OVC010 M05/M08 A2959 RMK SN2SC6 SLP025

CYQB;2008-03-12 13:00;CYQB 121300Z 36002KT 1 1/2SM -SN BR OVC017 M05/M07 A2959 RMK SC8 SLP024

CYQB;2008-03-12 14:00;CYQB 121400Z 00000KT 3SM -SN BR SCT017 OVC038 M03/M06 A2959 RMK SC4SC4 SLP024

CYQB;2008-03-12 15:00;CYQB 121500Z 00000KT 3SM -SN BR SCT017 OVC035 M02/M05 A2958 RMK SC3SC5 SLP022

CYQB;2008-03-12 15:26;CYQB 121526Z 23006KT 3SM BR SCT017 OVC035 M02/ RMK SC3SC5

CYQB;2008-03-12 16:00;CYQB 121600Z 23007KT 6SM BR FEW017 BKN035 OVC090 M02/M05 A2957 RMK SF2SC5AC1 SLP019

CYQB;2008-03-12 17:00;CYQB 121700Z 24007KT 6SM BR FEW017 BKN035 OVC090 M01/M05 A2957 RMK SF1SC4AC1 SLP018

CYQB;2008-03-12 18:00;CYQB 121800Z 21009KT 10SM FEW022 OVC039 M00/M04 A2957 RMK SF2SC6 SLP016

CYQB;2008-03-12 18:50;CYQB 121850Z 24011KT 3SM -SHSN BKN018 OVC180 00/ RMK SC5AC2

CYQB;2008-03-12 19:00;CYQB 121900Z 24011KT 3SM -SHSN BKN018 OVC180 00/M03 A2958 RMK SC5AC2 SLP019

CYQB;2008-03-12 19:29;CYQB 121929Z 25008KT 2SM -SHSN SCT010 BKN057 OVC210 M00/ RMK SC4SC2CI1 TCU ASOCTD N

CYQB;2008-03-12 20:00;CYQB 122000Z 26009KT 7SM BKN040 BKN210 01/M04 A2959 RMK SC5CI1 SLP022

CYQB;2008-03-12 21:00;CYQB 122100Z 33016G21KT 15SM FEW040 FEW140 BKN210 00/M08 A2961 RMK SC2AC1CI0 SLP029

CYQB;2008-03-12 22:00;CYQB 122200Z 34013G20KT 30SM FEW020 SCT085 BKN210 01/M10 A2966 RMK SF1AC3CI1 TCU ASOCTD E SLP046

CYQB;2008-03-12 23:00;CYQB 122300Z 35012KT 30SM FEW080 BKN160 M03/M12 A2972 RMK AC2AC2 SLP066

CYQB;2008-03-13 00:00;CYQB 130000Z 36014KT 30SM FEW090 M05/M15 A2977 RMK AC2 SLP084

CYQB;2008-03-13 01:00;CYQB 130100Z 36010G17KT 15SM FEW085 M06/M16 A2981 RMK AC2 SLP099

CYQB;2008-03-13 02:00;CYQB 130200Z 36006KT 15SM FEW060 M07/M17 A2984 RMK SC1 SLP108

CYQB;2008-03-13 03:00;CYQB 130300Z 35009G17KT 15SM SKC M09/M18 A2987 RMK SLP120

CYQB;2008-03-13 04:00;CYQB 130400Z 34004KT 15SM SKC M10/M19 A2989 RMK SLP128

CYQB;2008-03-13 05:00;CYQB 130500Z 35006KT 15SM SKC M11/M20 A2992 RMK SLP137

CYQB;2008-03-13 06:00;CYQB 130600Z 36006KT 15SM SKC M12/M21 A2993 RMK SLP141

CYQB;2008-03-13 07:00;CYQB 130700Z 36006KT 15SM SKC M13/M21 A2995 RMK SLP148

CYQB;2008-03-13 08:00;CYQB 130800Z 36003KT 15SM SKC M13/M21 A2996 RMK SLP150

CYQB;2008-03-13 09:00;CYQB 130900Z 35004KT 15SM SKC M15/M22 A2998 RMK SLP158

CYQB;2008-03-13 10:00;CYQB 131000Z 33006KT 15SM SKC M15/M23 A3001 RMK SLP168

CYQB;2008-03-13 11:00;CYQB 131100Z 33006KT 30SM SKC M16/M23 A3003 RMK SLP175

CYQB;2008-03-13 12:00;CYQB 131200Z 28006KT 30SM FEW220 M17/M23 A3006 RMK CI0 SLP186

CYQB;2008-03-13 13:00;CYQB 131300Z 19004KT 30SM FEW220 M14/M21 A3007 RMK CI0 SLP190

CYQB;2008-03-13 14:00;CYQB 131400Z 21002KT 30SM FEW220 M13/M20 A3007 RMK CI1 SLP190

CYQB;2008-03-13 15:00;CYQB 131500Z 25005KT 30SM FEW220 M12/M19 A3008 RMK CI1 SLP191

CYQB;2008-03-13 16:00;CYQB 131600Z 25004KT 30SM FEW220 M11/M21 A3006 RMK CI1 SLP186

CYQB;2008-03-13 17:00;CYQB 131700Z 19004KT 30SM FEW220 M10/M20 A3004 RMK CI1 SLP180

CYQB;2008-03-13 18:00;CYQB 131800Z 23004KT 30SM FEW220 M08/M19 A3001 RMK CI1 SLP169

CYQB;2008-03-13 19:00;CYQB 131900Z 25010KT 30SM FEW220 M07/M17 A2999 RMK CI1 SLP161

CYQB;2008-03-13 20:00;CYQB 132000Z 22008KT 30SM SCT240 M07/M19 A2997 RMK CI1 SLP154

CYQB;2008-03-13 21:00;CYQB 132100Z 24004KT 30SM FEW180 SCT240 M06/M20 A2995 RMK AC1CI1 SLP147

CYQB;2008-03-13 22:00;CYQB 132200Z 14003KT 30SM FEW180 SCT240 M07/M20 A2993 RMK AC1CI1 SLP142

CYQB;2008-03-13 23:00;CYQB 132300Z 06004KT 20SM FEW180 SCT240 M07/M20 A2993 RMK AC1CI1 SLP142

CYQB;2008-03-14 00:00;CYQB 140000Z 07007KT 15SM SCT150 BKN240 M08/M17 A2995 RMK AC4CI1 SLP149

CYQB;2008-03-14 01:00;CYQB 140100Z 07006KT 15SM BKN120 BKN240 M08/M19 A2999 RMK AC5CI1 SLP161

CYQB;2008-03-14 02:00;CYQB 140200Z 08009KT 15SM BKN082 OVC240 M08/M14 A2998 RMK AC6CI0 SLP158

CYQB;2008-03-14 03:00;CYQB 140300Z 07010G15KT 15SM BKN095 OVC240 M08/M14 A2994 RMK AC6CI0 SLP146

CYQB;2008-03-14 04:00;CYQB 140400Z 07016KT 15SM OVC085 M08/M15 A2994 RMK AC6 SLP143

CYQB;2008-03-14 05:00;CYQB 140500Z 07015G20KT 15SM BKN051 OVC074 M08/M15 A2992 RMK SC6AC2 SLP139

CYQB;2008-03-14 06:00;CYQB 140600Z 08013G20KT 15SM BKN025 OVC047 M08/M15 A2992 RMK SC7SC1 SLP139

CYQB;2008-03-14 06:45;CYQB 140645Z 08016G21KT 15SM -SN BKN021 OVC049 M08/ RMK SC6SC2

CYQB;2008-03-14 07:00;CYQB 140700Z 07016G21KT 7SM -SN BKN024 OVC050 M08/M16 A2990 RMK SC6SC2 SLP132

CYQB;2008-03-14 08:00;CYQB 140800Z 07015G21KT 7SM -SN DRSN BKN019 OVC041 M08/M15 A2989 RMK SC5SC3 SLP127

CYQB;2008-03-14 09:00;CYQB 140900Z 07016G22KT 5SM -SN DRSN OVC037 M09/M15 A2989 RMK SC8 SLP125

CYQB;2008-03-14 10:00;CYQB 141000Z 07018G26KT 6SM -SN DRSN OVC032 M09/M16 A2989 RMK SC8 SLP125

CYQB;2008-03-14 11:00;CYQB 141100Z 07018G24KT 5SM -SN DRSN OVC032 M09/M15 A2989 RMK SC8 SLP128

CYQB;2008-03-14 12:00;CYQB 141200Z 07020G27KT 5SM -SN DRSN OVC031 M09/M16 A2990 RMK SC8 SLP130

CYQB;2008-03-14 13:00;CYQB 141300Z 07015G28KT 4SM -SN DRSN BKN033 BKN230 M09/M15 A2990 RMK SN1SC5CI1 SLP131

CYQB;2008-03-14 14:00;CYQB 141400Z 07019G26KT 5SM -SN DRSN BKN030 BKN230 M08/M14 A2991 RMK SN1SC6CI1 VIS LWR E SLP133

CYQB;2008-03-14 15:00;CYQB 141500Z 08016G26KT 4SM -SN BKN030 OVC230 M08/M14 A2992 RMK SN1SC6CI1 VIS LWR E SLP136

CYQB;2008-03-14 16:00;CYQB 141600Z 08015G20KT 8SM -SN BKN028 OVC230 M07/M13 A2991 RMK SC7CI1 SLP135

CYQB;2008-03-14 17:00;CYQB 141700Z 08010G16KT 10SM -SN BKN024 OVC034 M07/M12 A2991 RMK SC7SC1 SLP135

CYQB;2008-03-14 18:00;CYQB 141800Z 11012KT 6SM -SN BKN025 OVC035 M06/M12 A2990 RMK SC6SC2 SLP131

CYQB;2008-03-14 19:00;CYQB 141900Z CCA 09008KT 15SM -SN BKN025 OVC035 M06/M11 A2991 RMK SC6SC2 SLP133

CYQB;2008-03-14 20:00;CYQB 142000Z 09010KT 15SM FEW015 OVC025 M06/M11 A2990 RMK SC1SC8 SLP131

CYQB;2008-03-14 21:00;CYQB 142100Z 08009KT 25SM BKN025 BKN050 OVC230 M06/M11 A2989 RMK SC6SC1CI0 SLP127

CYQB;2008-03-14 22:00;CYQB 142200Z 08006KT 25SM BKN026 OVC050 M06/M10 A2990 RMK SC7SC1 SLP130

CYQB;2008-03-14 23:00;CYQB 142300Z 07010KT 15SM BKN023 OVC045 M06/M11 A2991 RMK SC7SC1 SLP132

CYQB;2008-03-15 00:00;CYQB 150000Z 08008KT 15SM BKN023 OVC050 M06/M11 A2991 RMK SC6SC2 SLP132

CYQB;2008-03-15 01:00;CYQB 150100Z 07009KT 15SM FEW015 BKN024 M06/M10 A2990 RMK SC1SC7 SLP131

CYQB;2008-03-15 02:00;CYQB 150200Z 08007KT 15SM FEW014 OVC026 M06/M10 A2991 RMK SF1SC7 SLP132

CYQB;2008-03-15 03:00;CYQB 150300Z 08011KT 15SM FEW014 OVC027 M06/M10 A2990 RMK SF1SC7 SLP130

CYQB;2008-03-15 04:00;CYQB 150400Z 08010KT 15SM FEW014 BKN026 M06/M10 A2990 RMK SF1SC7 SLP129

CYQB;2008-03-15 05:00;CYQB 150500Z 07011KT 15SM FEW014 BKN026 M06/M10 A2988 RMK SC1SC7 SLP124

CYQB;2008-03-15 06:00;CYQB 150600Z 07011KT 15SM FEW010 OVC026 M06/M10 A2988 RMK SC1SC7 SLP122

CYQB;2008-03-15 07:00;CYQB 150700Z 08011G17KT 15SM FEW010 OVC025 M06/M10 A2986 RMK SC1SC7 SLP117

CYQB;2008-03-15 08:00;CYQB 150800Z 07011G17KT 15SM FEW000 SCT025 OVC230 M06/M10 A2984 RMK SC1SC2CS5 SLP110

CYQB;2008-03-15 09:00;CYQB 150900Z 08015KT 15SM FEW025 BKN080 M06/M11 A2983 RMK SC2AC6 SLP107

CYQB;2008-03-15 10:00;CYQB 151000Z 07012KT 15SM FEW025 FEW080 FEW160 BKN230 M06/M11 A2984 RMK SC1AC1AC1CI2 SLP111

CYQB;2008-03-15 11:00;CYQB 151100Z 08011G17KT 15SM FEW025 BKN073 BKN230 M06/M10 A2985 RMK SC1AC6CI1 SLP112

CYQB;2008-03-15 12:00;CYQB 151200Z 08011G20KT 15SM FEW025 BKN079 BKN230 M05/M09 A2984 RMK SC1AC7CI1 SLP110

CYQB;2008-03-15 13:00;CYQB 151300Z 07011G17KT 15SM FEW015 BKN078 BKN230 M05/M09 A2985 RMK SC1AC6CI1 SLP112

CYQB;2008-03-15 13:42;CYQB 151342Z 08011G17KT 15SM FEW010 BKN015 BKN078 M04/ RMK CF1SC7AC1 CLDS TPG HILL E

CYQB;2008-03-15 14:00;CYQB 151400Z 07013KT 15SM FEW010 BKN016 M04/M08 A2984 RMK CF1SC7 CLDS TPG HILLS E SLP109

CYQB;2008-03-15 15:00;CYQB 151500Z 07016KT 15SM FEW010 OVC016 M03/M08 A2983 RMK CF1SC8 SLP107

CYQB;2008-03-15 16:00;CYQB 151600Z 07014G19KT 15SM FEW010 OVC017 M02/M07 A2982 RMK CF1SC8 SLP102

CYQB;2008-03-15 17:00;CYQB 151700Z 08009KT 15SM FEW010 OVC027 M02/M07 A2981 RMK CF1SC8 SLP100

CYQB;2008-03-15 18:00;CYQB 151800Z 08011KT 20SM -SHSN BKN038 M02/M06 A2979 RMK SC7 SLP093

CYQB;2008-03-15 19:00;CYQB 151900Z 08010G15KT 10SM -SN FEW027 OVC035 M02/M06 A2979 RMK SC2SC6 VIS N 5 SLP091

CYQB;2008-03-15 19:56;CYQB 151956Z 07008KT 1 1/2SM -SN VV011 M02/ RMK SN8

CYQB;2008-03-15 20:00;CYQB 152000Z 08009KT 1 1/2SM -SN VV008 M02/M06 A2980 RMK SN8 SLP096

CYQB;2008-03-15 20:19;CYQB 152019Z 07008KT 1SM R06/5000FT/N -SN VV007 M03/ RMK SN8 VIS VRB 3/4-11/4

CYQB;2008-03-15 20:27;CYQB 152027Z 08006KT 1/2SM R06/3500V5000FT/D SN VV004 M03/ RMK SN8

CYQB;2008-03-15 20:53;CYQB 152053Z 09005KT 1/2SM R06/2400FT/N SN VV003 M03/ RMK SN8

CYQB;2008-03-15 21:00;CYQB 152100Z 08005KT 3/8SM R06/2600FT/N SN VV003 M03/M05 A2981 RMK SN8 /S02/ SLP098

CYQB;2008-03-15 21:13;CYQB 152113Z 09004KT 1/2SM R06/2800FT/N SN VV004 M03/ RMK SN8

CYQB;2008-03-15 22:00;CYQB 152200Z 08006KT 1/2SM R06/5000FT/N SN VV005 M03/M05 A2981 RMK SN8 VIS VRB 3/8-5/8 /S04/ SLP097

CYQB;2008-03-15 23:00;CYQB 152300Z 09006KT 5/8SM R06/5000FT/U -SN VV005 M03/M05 A2980 RESN RMK SN8 /S07/ SLP096

CYQB;2008-03-16 00:00;CYQB 160000Z 08008KT 3/4SM R06/P6000FT/U -SN OVC006 M03/M05 A2981 RMK SC8 /S08/ SLP097

CYQB;2008-03-16 01:00;CYQB 160100Z 08006KT 1/2SM R06/P6000FT/N SN VV005 M03/M05 A2981 RMK SN8 /S01/ SLP099

CYQB;2008-03-16 01:40;CYQB 160140Z 09005KT 1SM R06/P6000FT/U -SN VV007 M03/ RESN RMK SN8

CYQB;2008-03-16 02:00;CYQB 160200Z 09005KT 3/4SM R06/P6000FT/U -SN VV005 M03/M05 A2981 RESN RMK SN8 VIS VRB 1/2-1 SLP099

CYQB;2008-03-16 02:41;CYQB 160241Z 07005KT 2 1/2SM -SN OVC005 M03/M04 RMK SF8

CYQB;2008-03-16 03:00;CYQB 160300Z 09003KT 2SM -SN OVC005 M03/M04 A2982 RMK SF8 /S02/ SLP103

CYQB;2008-03-16 04:00;CYQB 160400Z CCA 08005KT 1 1/4SM -SN OVC006 M02/M04 A2983 RMK SF8 /S03/ SLP104

CYQB;2008-03-16 04:35;CYQB 160435Z 06004KT 1/2SM R06/3000FT/N SN VV002 M02/ RMK SN8

CYQB;2008-03-16 05:00;CYQB 160500Z 10002KT 2 1/2SM -SN SCT006 OVC010 M02/M04 A2983 RESN RMK SF2SC6 /S04/ SLP104

CYQB;2008-03-16 06:00;CYQB 160600Z 00000KT 4SM -SN SCT004 OVC008 M02/M04 A2983 RMK SF4SC4 SLP107

CYQB;2008-03-16 07:00;CYQB 160700Z 00000KT 4SM -SN OVC004 M02/M04 A2984 RMK SF8 SLP109

CYQB;2008-03-16 08:00;CYQB 160800Z 27002KT 4SM -SN OVC006 M02/M04 A2986 RMK SF8 SLP115

CYQB;2008-03-16 09:00;CYQB 160900Z 27002KT 4SM -SN OVC008 M02/M04 A2987 RMK SF8 /S01/ SLP120

CYQB;2008-03-16 09:44;CYQB 160944Z 27003KT 5SM -SN OVC011 M02/ RMK SC8

CYQB;2008-03-16 10:00;CYQB 161000Z 24004KT 5SM -SN OVC011 M02/M05 A2988 RMK SC8 SLP123

CYQB;2008-03-16 10:44;CYQB 161044Z 24005KT 6SM BR VCSH FEW006 OVC012 M02/ RMK SF1SC8

CYQB;2008-03-16 11:00;CYQB 161100Z 24007KT 5SM BR FEW008 OVC013 M02/M05 A2989 RMK SF2SC6 SLP127

CYQB;2008-03-16 11:32;CYQB 161132Z 25008KT 3SM BR SCT007 BKN050 M03/ RMK SF2SC6

CYQB;2008-03-16 11:51;CYQB 161151Z 25008KT 2SM BR SCT003 BKN050 M02/ RMK FG2SF2SC3

CYQB;2008-03-16 12:00;CYQB 161200Z 24008KT 2SM BR BKN005 BKN050 M02/M04 A2991 RMK FG2SF4SC2 SLP131

CYQB;2008-03-16 12:28;CYQB 161228Z 24006KT 2 1/2SM BR OVC003 M02/ RMK ST8

CYQB;2008-03-16 13:00;CYQB 161300Z 24007KT 2 1/2SM BR BKN007 BKN050 M02/M04 A2992 RMK FG2ST5SC1 SLP137

CYQB;2008-03-16 13:41;CYQB 161341Z 24005KT 3SM BR BKN006 OVC050 M01/ RMK FG2ST6SC1 CIG VRB 4-8

CYQB;2008-03-16 14:00;CYQB 161400Z 24005KT 3SM BR BKN006 OVC050 M01/M03 A2994 RMK FG1ST6SC2 CIG VRB 4-8 SLP142

CYQB;2008-03-16 14:40;CYQB 161440Z 21002KT 4SM BR FEW008 OVC064 M01/ RMK FG1CF1SC6

CYQB;2008-03-16 15:00;CYQB 161500Z 00000KT 6SM BR FEW008 BKN065 00/M02 A2995 RMK SF2SC6 SLP145

CYQB;2008-03-16 16:00;CYQB 161600Z 11002KT 8SM FEW025 BKN071 01/M02 A2996 RMK SC2AC3 VIS LWR SE SLP149

CYQB;2008-03-16 17:00;CYQB 161700Z 33008KT 15SM FEW025 BKN070 02/M02 A2997 RMK SC1AC2 VIS SE 5 SLP151

CYQB;2008-03-16 18:00;CYQB 161800Z 33009KT 15SM FEW025 BKN060 03/M04 A2997 RMK SC1SC3 SLP153

CYQB;2008-03-16 19:00;CYQB 161900Z 34010KT 15SM FEW015 SCT040 BKN060 03/M04 A2999 RMK SF1SC3SC4 SLP159

CYQB;2008-03-16 19:50;CYQB 161950Z 33010KT 15SM FEW015 BKN035 BKN060 02/ RMK SC1SC5SC2

CYQB;2008-03-16 20:00;CYQB 162000Z 31012KT 15SM FEW015 BKN035 OVC060 02/M05 A3002 RMK SF1SC6SC2 DIST SH SLP169

CYQB;2008-03-16 21:00;CYQB 162100Z 34009KT 15SM FEW025 OVC040 01/M06 A3005 RMK SC1SC8 VIS SE 5 SLP178

CYQB;2008-03-16 22:00;CYQB 162200Z 34014G20KT 15SM FEW025 OVC045 00/M07 A3008 RMK SC1SC8 SLP189

CYQB;2008-03-16 23:00;CYQB 162300Z 35015G21KT 15SM BKN048 OVC094 M00/M08 A3011 RMK SC6AC2 SLP199

CYQB;2008-03-17 00:00;CYQB 170000Z 35018G24KT 15SM SCT048 BKN071 OVC094 M01/M09 A3015 RMK SC4AC2AC2 SLP213

CYQB;2008-03-17 01:00;CYQB 170100Z 36017G22KT 15SM SCT050 OVC097 M02/M10 A3018 RMK SC4AC4 SLP225

CYQB;2008-03-17 02:00;CYQB 170200Z 36020G26KT 15SM -SN BKN033 OVC060 M03/M11 A3021 RMK SC6SC2 SLP234

CYQB;2008-03-17 03:00;CYQB 170300Z 36017KT 15SM SCT035 OVC071 M03/M11 A3024 RMK SC4AC4 SLP244

CYQB;2008-03-17 04:00;CYQB 170400Z 36013KT 15SM SCT070 M04/M12 A3025 RMK AC4 SLP249

CYQB;2008-03-17 05:00;CYQB 170500Z 35017G25KT 15SM SCT050 M05/M13 A3027 RMK SC4 SLP255

CYQB;2008-03-17 06:00;CYQB 170600Z 35012KT 15SM FEW040 M06/M13 A3030 RMK SC2 SLP265

CYQB;2008-03-17 07:00;CYQB 170700Z 34014KT 15SM FEW040 M06/M14 A3033 RMK SC1 SLP273

CYQB;2008-03-17 08:00;CYQB 170800Z 33010KT 15SM FEW040 M07/M15 A3036 RMK SC1 SLP283

CYQB;2008-03-17 09:00;CYQB 170900Z 34011KT 15SM FEW030 M08/M15 A3039 RMK SC1 SLP296

CYQB;2008-03-17 10:00;CYQB 171000Z 34011G17KT 20SM FEW030 M08/M15 A3042 RMK SC1 SLP307

CYQB;2008-03-17 11:00;CYQB 171100Z 33008G15KT 20SM FEW030 M08/M16 A3045 RMK SC1 SLP317

CYQB;2008-03-17 12:00;CYQB 171200Z 34013KT 20SM FEW030 M09/M16 A3048 RMK SC1 SLP326

CYQB;2008-03-17 13:00;CYQB 171300Z 36014G19KT 20SM SKC M07/M15 A3050 RMK SLP335

CYQB;2008-03-17 14:00;CYQB 171400Z 36009KT 20SM FEW030 M05/M15 A3052 RMK SC1 SLP341

CYQB;2008-03-17 15:00;CYQB 171500Z 00000KT 20SM FEW030 M03/M14 A3053 RMK SC1 SLP344

CYQB;2008-03-17 16:00;CYQB 171600Z 20011KT 20SM FEW030 M05/M12 A3053 RMK SC1 SLP342

CYQB;2008-03-17 17:00;CYQB 171700Z 20011KT 20SM SKC M04/M12 A3052 RMK SLP341

CYQB;2008-03-17 18:00;CYQB 171800Z 22009KT 30SM SKC M03/M11 A3052 RMK SLP339

CYQB;2008-03-17 19:00;CYQB 171900Z 23010G15KT 30SM SKC M02/M11 A3052 RMK SLP339

CYQB;2008-03-17 20:00;CYQB 172000Z 19010KT 30SM SKC M01/M11 A3050 RMK SLP334

CYQB;2008-03-17 21:00;CYQB 172100Z 17004KT 30SM SKC M00/M11 A3049 RMK SLP331

CYQB;2008-03-17 22:00;CYQB 172200Z 12003KT 30SM SKC M01/M12 A3050 RMK SLP335

CYQB;2008-03-17 23:00;CYQB 172300Z 07008KT 30SM SKC M02/M11 A3052 RMK SLP339

CYQB;2008-03-18 00:00;CYQB 180000Z 07007KT 15SM SKC M04/M11 A3051 RMK SLP338

CYQB;2008-03-18 01:00;CYQB 180100Z 01003KT 15SM SKC M05/M12 A3053 RMK SLP343

CYQB;2008-03-18 02:00;CYQB 180200Z 04003KT 15SM SKC M06/M11 A3056 RMK SLP354

CYQB;2008-03-18 03:00;CYQB 180300Z 00000KT 15SM SKC M09/M14 A3056 RMK SLP353

CYQB;2008-03-18 04:00;CYQB 180400Z 01004KT 15SM SKC M07/M13 A3053 RMK SLP344

CYQB;2008-03-18 05:00;CYQB 180500Z 36003KT 15SM SKC M08/M14 A3053 RMK SLP343

CYQB;2008-03-18 06:00;CYQB 180600Z 03002KT 15SM SKC M09/M14 A3053 RMK SLP343

CYQB;2008-03-18 07:00;CYQB 180700Z 02006KT 15SM SKC M08/M15 A3053 RMK SLP344

CYQB;2008-03-18 08:00;CYQB 180800Z 04005KT 15SM SKC M11/M17 A3052 RMK SLP341

CYQB;2008-03-18 09:00;CYQB 180900Z 03004KT 15SM SKC M11/M18 A3053 RMK SLP344

CYQB;2008-03-18 10:00;CYQB 181000Z 02004KT 15SM SKC M12/M18 A3053 RMK SLP343

CYQB;2008-03-18 11:00;CYQB 181100Z 36003KT 30SM FEW120 FEW200 M12/M18 A3053 RMK AC1CI1 SLP344

CYQB;2008-03-18 12:00;CYQB 181200Z 01005KT 30SM FEW120 FEW200 M12/M18 A3053 RMK AC1CI1 SLP346

CYQB;2008-03-18 13:00;CYQB 181300Z 04003KT 30SM FEW120 FEW200 M09/M17 A3053 RMK AC1CI1 SLP345

CYQB;2008-03-18 14:00;CYQB 181400Z 00000KT 30SM FEW200 M06/M15 A3052 RMK CI1 SLP343

CYQB;2008-03-18 15:00;CYQB 181500Z 00000KT 30SM FEW200 M05/M15 A3051 RMK CI1 SLP337

CYQB;2008-03-18 16:00;CYQB 181600Z 00000KT 30SM FEW200 M02/M12 A3046 RMK CI0 SLP321

CYQB;2008-03-18 17:00;CYQB 181700Z 09004KT 30SM FEW200 M02/M12 A3043 RMK CI0 SLP309

CYQB;2008-03-18 18:00;CYQB 181800Z 12003KT 30SM FEW200 M01/M14 A3040 RMK CI0 SLP298

CYQB;2008-03-18 19:00;CYQB 181900Z 14004KT 30SM FEW220 00/M13 A3036 RMK CI0 SLP287

CYQB;2008-03-18 20:00;CYQB 182000Z 02003KT 30SM FEW220 01/M14 A3034 RMK CI1 PRESFR SLP279

CYQB;2008-03-18 21:00;CYQB 182100Z 03004KT 30SM FEW220 01/M12 A3032 RMK CI1 SLP273

CYQB;2008-03-18 22:00;CYQB 182200Z 08005KT 30SM BKN200 00/M12 A3030 RMK CI2 SLP266

CYQB;2008-03-18 23:00;CYQB 182300Z 06006KT 30SM BKN200 M02/M11 A3029 RMK CI3 SLP261

CYQB;2008-03-19 00:00;CYQB 190000Z 07007KT 15SM BKN250 M03/M10 A3029 RMK CI4 SLP262

CYQB;2008-03-19 01:00;CYQB 190100Z 06005KT 15SM BKN220 M04/M10 A3028 RMK CI2 SLP259

CYQB;2008-03-19 02:00;CYQB 190200Z 08008KT 15SM BKN170 M04/M10 A3025 RMK AC6 SLP248

CYQB;2008-03-19 03:00;CYQB 190300Z 07009KT 15SM BKN200 M04/M11 A3020 RMK CI6 SLP233

CYQB;2008-03-19 04:00;CYQB 190400Z 07011KT 15SM SCT140 M04/M12 A3020 RMK AC4 SLP231

CYQB;2008-03-19 05:00;CYQB 190500Z 08008KT 15SM BKN170 M03/M11 A3019 RMK AC6 SLP229

CYQB;2008-03-19 06:00;CYQB 190600Z 07008KT 15SM BKN120 M04/M09 A3017 RMK AC6 SLP221

CYQB;2008-03-19 07:00;CYQB 190700Z 08009G15KT 15SM BKN190 M04/M08 A3011 RMK AC6 SLP202

CYQB;2008-03-19 08:00;CYQB 190800Z 08011KT 15SM BKN160 M04/M09 A3009 RMK AC6 SLP193

CYQB;2008-03-19 09:00;CYQB 190900Z 07014KT 15SM BKN140 M04/M09 A3006 RMK AC6 SLP182

CYQB;2008-03-19 10:00;CYQB 191000Z 08009KT 15SM BKN090 M03/M09 A3006 RMK AC6 SLP185

CYQB;2008-03-19 11:00;CYQB 191100Z 09006KT 30SM FEW040 SCT060 OVC090 M03/M08 A3004 RMK SC1SC2AS6 SLP178

CYQB;2008-03-19 12:00;CYQB 191200Z 08010KT 30SM FEW060 OVC070 M02/M08 A3001 RMK SC1AS7 SLP168

CYQB;2008-03-19 13:00;CYQB 191300Z 08008KT 30SM OVC047 M02/M07 A2999 RMK SC8 SLP160

CYQB;2008-03-19 13:36;CYQB 191336Z CCA 08009G16KT 10SM -SN OVC020 M02/ RMK SC8

CYQB;2008-03-19 14:00;CYQB 191400Z 07009KT 5SM -SN OVC013 M01/M08 A2997 RMK SC8 VIS NW-NE 2 SLP155

CYQB;2008-03-19 14:45;CYQB 191445Z 07012G17KT 1SM R06/4000V5500FT/D -SN OVC007 M02/ RMK SN6SC2

CYQB;2008-03-19 15:00;CYQB 191500Z 07013KT 1/2SM R06/4500FT/D SN OVC007 M02/M06 A2995 RMK SN6SC2 SLP146

CYQB;2008-03-19 16:00;CYQB 191600Z 07013KT 1/2SM R06/3500V5000FT/D SN VV007 M02/M04 A2992 RMK SN8 SLP136

CYQB;2008-03-19 17:00;CYQB 191700Z 08013G19KT 1/2SM R06/2600FT/N SN VV005 M01/M03 A2989 RMK SN8 SLP125

CYQB;2008-03-19 18:00;CYQB 191800Z 08014G19KT 1/2SM R06/P6000FT/D SN VV005 M01/M03 A2984 RMK SN8 /S03/ SLP109

CYQB;2008-03-19 19:00;CYQB 191900Z 07012G19KT 1/2SM R06/5000FT/U SN VV005 M00/M03 A2981 RMK SN8 /S02/ SLP100

CYQB;2008-03-19 20:00;CYQB 192000Z 07013G18KT 1/2SM R06/P6000FT/U SN VV005 M00/M03 A2979 RMK SN8 /S04/ SLP092

CYQB;2008-03-19 21:00;CYQB 192100Z 08012G17KT 1/2SM R06/4500FT/U SN VV005 M00/M03 A2975 RMK SN8 /S05/ SLP080

CYQB;2008-03-19 22:00;CYQB 192200Z 08010KT 3/4SM R06/P6000FT/D -SN BKN003 OVC009 M00/M02 A2974 RMK SN4SF3SF1 RESN SLP074

CYQB;2008-03-19 23:00;CYQB 192300Z 08009KT 1/2SM R06/P6000FT/N SN SCT002 VV005 M00/M02 A2972 RMK SF4SN4 /S08/ SLP070

CYQB;2008-03-20 00:00;CYQB 200000Z 08009KT 1/2SM R06/P6000FT/D SN SCT002 VV004 M00/M02 A2971 RMK SF4SN4 /S10/ SLP064

CYQB;2008-03-20 01:00;CYQB 200100Z 08009KT 1/2SM R06/P6000FT/U SN BKN002 VV004 M00/M02 A2967 RMK SF4SN4 /S03/ SLP052

CYQB;2008-03-20 02:00;CYQB 200200Z CCA 08012KT 5/8SM R06/P6000FT/D -SN SCT002 VV006 M00/M02 A2966 RESN RMK SF3SN5 /S04/ VRB CIG 3-9 SLP047

CYQB;2008-03-20 03:00;CYQB 200300Z 07013KT 5/8SM R06/P6000FT/D -SN VV003 M00/M02 A2962 RMK SN8 SLP034

CYQB;2008-03-20 04:00;CYQB 200400Z 08014KT 5/8SM R06/6000FT/N -SN VV003 M01/M02 A2959 RMK SN8 /S05/ SLP022

CYQB;2008-03-20 05:00;CYQB 200500Z 08012KT 5/8SM R06/P6000FT/U -SN VV003 M01/M02 A2955 RMK SN8 /S06/ SLP011

CYQB;2008-03-20 06:00;CYQB 200600Z 07013KT 5/8SM R06/P6000FT/U -SN OVC003 M01/M02 A2955 RMK SN6SF2 /S07/ SLP009

CYQB;2008-03-20 07:00;CYQB 200700Z 07013G19KT 1/2SM R06/P6000FT/N SN VV005 M01/M03 A2950 RMK SN8 /S01/ SLP993

CYQB;2008-03-20 08:00;CYQB 200800Z 07014G19KT 1/2SM R06/P6000FT/U SN OVC004 M01/M03 A2949 RMK SN6SF2 /S02/ SLP989

CYQB;2008-03-20 09:00;CYQB 200900Z CCA 06013KT 3SM -SN OVC005 M01/M03 A2949 RMK SN3SF5 RESN /S03/ SLP990

CYQB;2008-03-20 10:00;CYQB 201000Z 07012KT 3SM -SN OVC008 M01/M03 A2950 RMK SN2SF6 SLP993

CYQB;2008-03-20 11:00;CYQB 201100Z 07012G17KT 5SM -SN SCT008 OVC035 M02/M04 A2948 RMK SF4SC4 SLP987

CYQB;2008-03-20 12:00;CYQB 201200Z 07012G17KT 5SM -SN SCT009 OVC039 M02/M04 A2948 RMK SF3SC5 SLP988

CYQB;2008-03-20 13:00;CYQB 201300Z 07008KT 8SM FEW010 OVC032 M01/M03 A2948 RMK SF2SC6 SLP985

CYQB;2008-03-20 14:00;CYQB 201400Z 07011KT 10SM FEW010 OVC033 M01/M03 A2948 RMK SF1SC7 SLP988

CYQB;2008-03-20 15:00;CYQB 201500Z 06007KT 12SM FEW010 OVC045 M01/M03 A2947 RMK SF1SC7 SLP983

CYQB;2008-03-20 15:25;CYQB 201525Z 07008KT 6SM -SN FEW010 OVC039 M01/ RMK SF1SC7

CYQB;2008-03-20 15:42;CYQB 201542Z 08007KT 1 1/2SM -SN VV015 M01/ RMK SN8

CYQB;2008-03-20 16:00;CYQB 201600Z 08007KT 3/4SM R06/5500FT/D -SN VV008 M01/M08 A2947 RMK SN8 SLP982

CYQB;2008-03-20 16:32;CYQB 201632Z 09005KT 1 1/2SM -SN VV013 M01/ RMK SN8

CYQB;2008-03-20 17:00;CYQB 201700Z 09005KT 1SM R06/P6000FT/D -SN VV008 M01/M03 A2947 RMK SN8 SLP984

CYQB;2008-03-20 17:32;CYQB 201732Z 07006KT 1/2SM R06/3000V4000FT/D SN VV004 M01/ RMK SN8

CYQB;2008-03-20 18:00;CYQB 201800Z CCA 09004KT 1/2SM R06/3500FT/N SN VV005 M01/M03 A2946 RMK SN8 /S03/ SLP980

CYQB;2008-03-20 18:48;CYQB 201848Z 10004KT 1/2SM R06/3500FT/U SN VV006 M01/ RMK SN8

CYQB;2008-03-20 19:00;CYQB 201900Z 07003KT 1/2SM R06/4500FT/N SN VV006 M01/M03 A2946 RMK SN8 /S01/ SLP980

CYQB;2008-03-20 20:00;CYQB 202000Z 11006KT 5/8SM R06/3500V5500FT/D -SN VV006 M02/M04 A2946 RESN RMK SN8 /S02/ SLP981

CYQB;2008-03-20 21:00;CYQB 202100Z 11003KT 5/8SM R06/4000FT/U -SN VV008 M02/M04 A2947 RMK SN8 CIG VRB 6-10 SLP983

CYQB;2008-03-20 21:38;CYQB 202138Z 18002KT 1 1/2SM -SN FEW004 VV012 M02/ RMK SF1SN7

CYQB;2008-03-20 22:00;CYQB 202200Z 21003KT 1 1/2SM -SN OVC014 M02/M04 A2947 RMK SN7NS1 SLP982

CYQB;2008-03-20 22:47;CYQB 202247Z 17004KT 1 3/4SM -SN OVC020 M02/ RMK SN7NS1

CYQB;2008-03-20 23:00;CYQB 202300Z 16004KT 1 3/4SM -SN FEW007 VV020 M02/M05 A2948 RMK SF2SN6 SLP985

CYQB;2008-03-20 23:39;CYQB 202339Z 00000KT 3SM -SN FEW002 OVC007 M02/ RMK SF2NS6

CYQB;2008-03-21 00:00;CYQB 210000Z 10004KT 5SM -SN FEW004 OVC007 M02/M04 A2949 RMK SF2NS6 SLP989

CYQB;2008-03-21 00:30;CYQB 210030Z CCA 08002KT 7SM BKN004 OVC040 M03/ RMK SF6SC2

CYQB;2008-03-21 00:52;CYQB 210052Z 16002KT 6SM -SN SCT004 SCT040 OVC073 M03/ RMK SF3SC1AC4

CYQB;2008-03-21 01:00;CYQB 210100Z 00000KT 8SM -SN BKN004 BKN040 OVC070 M03/M05 A2950 RMK SF6SC2AC1 SLP992

CYQB;2008-03-21 02:00;CYQB 210200Z 30007KT 15SM FEW004 FEW040 BKN084 M01/M04 A2950 RMK SF1SC1AC5 SLP992

CYQB;2008-03-21 03:00;CYQB 210300Z 29010G15KT 15SM FEW005 FEW040 BKN110 M02/M06 A2950 RMK SF1SC1AS0 MOON DMLY VSBL SLP994

CYQB;2008-03-21 04:00;CYQB 210400Z 30013G18KT 15SM FEW040 BKN093 M04/M08 A2950 RMK SC1AC4 SLP994

CYQB;2008-03-21 05:00;CYQB 210500Z 31012G20KT 15SM FEW040 BKN085 M04/M09 A2950 RMK SC1AC6 SLP994

CYQB;2008-03-21 06:00;CYQB 210600Z 31018G25KT 10SM DRSN BKN075 OVC110 M06/M11 A2949 RMK AC6AS2 SLP989

CYQB;2008-03-21 07:00;CYQB 210700Z 30016G24KT 10SM DRSN BKN095 OVC130 M06/M12 A2950 RMK AC6AS2 SLP994

CYQB;2008-03-21 08:00;CYQB 210800Z 30018G27KT 10SM FEW040 BKN087 M07/M13 A2952 RMK SC1AS5 SLP001

CYQB;2008-03-21 09:00;CYQB 210900Z 27014KT 10SM FEW040 BKN100 M09/M14 A2954 RMK SC1AS5 SLP007

CYQB;2008-03-21 10:00;CYQB 211000Z 26015G22KT 10SM DRSN FEW030 BKN100 M11/M15 A2956 RMK SC1AC5 SLP013

CYQB;2008-03-21 11:00;CYQB 211100Z 24016G21KT 15SM FEW030 BKN110 OVC150 M11/M16 A2957 RMK SC2AC4AC2 SLP017

CYQB;2008-03-21 12:00;CYQB 211200Z 24017G25KT 15SM FEW030 OVC110 M12/M16 A2958 RMK SC2AS6 SLP022

CYQB;2008-03-21 13:00;CYQB 211300Z 26018G24KT 15SM FEW030 OVC110 M11/M16 A2957 RMK SC2AS6 SLP019

CYQB;2008-03-21 14:00;CYQB 211400Z 28015G26KT 15SM FEW030 OVC110 M11/M16 A2956 RMK SC2AC6 SLP014

CYQB;2008-03-21 15:00;CYQB 211500Z 27014G22KT 20SM FEW035 OVC110 M10/M16 A2955 RMK SC2AS6 SLP010

CYQB;2008-03-21 16:00;CYQB 211600Z 27017G22KT 20SM FEW035 OVC120 M09/M15 A2952 RMK SC2AC6 SLP001

CYQB;2008-03-21 17:00;CYQB 211700Z 31021G30KT 20SM FEW035 OVC110 M08/M14 A2951 RMK SC2AC6 SLP998

CYQB;2008-03-21 18:00;CYQB 211800Z 29025G33KT 15SM DRSN FEW035 OVC110 M08/M13 A2950 RMK CU1AC7 SLP996

CYQB;2008-03-21 19:00;CYQB 211900Z 28020G30KT 15SM DRSN FEW030 OVC120 M08/M13 A2950 RMK CF1AC7 SLP995

CYQB;2008-03-21 19:30;CYQB 211930Z 27024G31KT 15SM -SHSN DRSN FEW030 SCT090 OVC120 M08/ RMK CF2AC2AC4

CYQB;2008-03-21 20:00;CYQB 212000Z 28018G31KT 5SM -SHSN BLSN FEW030 OVC130 M08/M11 A2951 RMK CF2AC6 SLP997

CYQB;2008-03-21 21:00;CYQB 212100Z 27019G26KT 7SM -SHSN DRSN BKN029 OVC120 M08/M12 A2953 RMK SC6AC2 REBLSN SLP006

CYQB;2008-03-21 21:52;CYQB 212152Z 27014KT 8SM DRSN BKN025 OVC100 M08/ RMK SC7AC1

CYQB;2008-03-21 22:00;CYQB 212200Z 28017KT 7SM -SHSN DRSN BKN025 OVC100 M08/M12 A2956 RMK SC7AC1 SLP016

CYQB;2008-03-21 23:00;CYQB 212300Z 27018G26KT 7SM -SHSN DRSN BKN023 OVC100 M08/M12 A2957 RMK SC7AC1 SLP019

CYQB;2008-03-22 00:00;CYQB 220000Z 27024G29KT 6SM -SHSN DRSN BKN020 OVC150 M08/M12 A2957 RMK SC7AC1 SLP018

CYQB;2008-03-22 01:00;CYQB 220100Z 27023G28KT 5SM -SHSN DRSN BKN020 OVC150 M08/M12 A2957 RMK SC7AC1 SLP020

CYQB;2008-03-22 02:00;CYQB 220200Z 28023G30KT 10SM -SHSN DRSN SCT020 OVC160 M08/M12 A2957 RMK SC3AC5 SLP018

CYQB;2008-03-22 03:00;CYQB 220300Z 29021G26KT 10SM -SHSN DRSN SCT025 OVC160 M09/M12 A2958 RMK SC4AC4 SLP022

CYQB;2008-03-22 04:00;CYQB 220400Z 29017KT 10SM -SHSN DRSN SCT025 OVC150 M09/M13 A2959 RMK SC3AC5 SLP025

CYQB;2008-03-22 04:44;CYQB 220444Z 28017KT 15SM DRSN FEW025 OVC150 M09/ RMK SC2AC6

CYQB;2008-03-22 05:00;CYQB 220500Z 28015G25KT 15SM DRSN FEW025 OVC150 M09/M14 A2961 RMK SC2AC6 SLP031

CYQB;2008-03-22 06:00;CYQB 220600Z 26015KT 15SM DRSN SCT035 OVC160 M09/M14 A2962 RMK SC3AC5 SLP035

CYQB;2008-03-22 07:00;CYQB 220700Z 27018KT 15SM DRSN SCT030 OVC160 M10/M16 A2962 RMK CF3AC5 SLP037

CYQB;2008-03-22 08:00;CYQB 220800Z 29012G22KT 15SM DRSN FEW030 BKN160 M10/M17 A2962 RMK CF2AC6 SLP037

CYQB;2008-03-22 09:00;CYQB 220900Z 27011KT 15SM FEW030 SCT160 BKN200 M11/M17 A2964 RMK CF2AC2CI1 SLP042

CYQB;2008-03-22 10:00;CYQB 221000Z 25010KT 15SM FEW040 FEW160 BKN200 M12/M17 A2964 RMK SC1AC2CI3 SLP044

CYQB;2008-03-22 11:00;CYQB 221100Z 25012KT 30SM FEW040 FEW150 BKN210 M12/M17 A2965 RMK SC1AC2CI2 SLP045

CYQB;2008-03-22 12:00;CYQB 221200Z 26015KT 30SM FEW030 SCT140 BKN210 M12/M16 A2965 RMK SC2AC2CI2 SLP045

CYQB;2008-03-22 13:00;CYQB 221300Z 27016KT 30SM SCT036 BKN210 M11/M16 A2965 RMK SC3CI2 SLP047

CYQB;2008-03-22 14:00;CYQB 221400Z 29015G22KT 30SM DRSN BKN037 BKN120 OVC220 M10/M16 A2965 RMK SC6AC1CI1 SLP046

CYQB;2008-03-22 15:00;CYQB 221500Z 28013G24KT 20SM DRSN SCT036 BKN140 BKN220 M09/M15 A2965 RMK SC4AC1CI1 SLP047

CYQB;2008-03-22 16:00;CYQB 221600Z 28017G25KT 20SM DRSN SCT037 BKN220 M08/M14 A2965 RMK SC3CI2 SLP046

CYQB;2008-03-22 17:00;CYQB 221700Z 27019G27KT 20SM DRSN BKN039 BKN220 M07/M13 A2965 RMK SC6CI1 SLP045

CYQB;2008-03-22 18:00;CYQB 221800Z 28021G28KT 20SM DRSN BKN045 M05/M11 A2964 RMK SC7 SLP042

CYQB;2008-03-22 19:00;CYQB 221900Z 27018G25KT 20SM DRSN BKN041 M04/M10 A2964 RMK SC7 SLP043

CYQB;2008-03-22 20:00;CYQB 222000Z 28025G33KT 20SM DRSN BKN043 M04/M11 A2964 RMK SC6 SLP042

CYQB;2008-03-22 21:00;CYQB 222100Z 28022G30KT 20SM DRSN BKN046 BKN220 M04/M11 A2965 RMK SC5CI1 SLP046

CYQB;2008-03-22 22:00;CYQB 222200Z 28023G32KT 15SM -SHSN DRSN BKN045 OVC250 M05/M10 A2967 RMK CU6CI0 SLP054

CYQB;2008-03-22 23:00;CYQB 222300Z 27017G24KT 15SM -SHSN DRSN BKN046 BKN250 M05/M10 A2971 RMK CU5CI1 SLP066

CYQB;2008-03-23 00:00;CYQB 230000Z 29015G22KT 15SM BKN045 BKN250 M06/M12 A2974 RMK CU6CI1 DIST SHSN N-NE SLP077

CYQB;2008-03-23 01:00;CYQB 230100Z 30015G22KT 15SM BKN045 BKN250 M06/M12 A2978 RMK CU5CI2 SLP089

CYQB;2008-03-23 02:00;CYQB 230200Z 26010KT 15SM FEW043 BKN200 M07/M13 A2979 RMK SC2CI4 SLP093

CYQB;2008-03-23 03:00;CYQB 230300Z 28012KT 15SM FEW048 BKN200 M08/M13 A2981 RMK SC2CI4 DIST SHSN SW SLP098

CYQB;2008-03-23 04:00;CYQB 230400Z 29011G16KT 15SM FEW052 OVC210 M08/M15 A2981 RMK SC2CI4 SLP101

CYQB;2008-03-23 05:00;CYQB 230500Z 28013G18KT 15SM FEW054 BKN200 M09/M15 A2983 RMK SC2CI2 SLP105

CYQB;2008-03-23 06:00;CYQB 230600Z 28019G24KT 15SM FEW055 SCT190 M10/M17 A2985 RMK SC1CI1 SLP112

CYQB;2008-03-23 07:00;CYQB 230700Z 28012G17KT 15SM FEW040 FEW190 M11/M18 A2987 RMK SC1AC1 SLP121

CYQB;2008-03-23 08:00;CYQB 230800Z 30009G18KT 15SM FEW040 M12/M19 A2989 RMK SC1 SLP126

CYQB;2008-03-23 09:00;CYQB 230900Z 27016G21KT 15SM FEW040 FEW190 M13/M19 A2992 RMK SC1AC1 SLP138

CYQB;2008-03-23 10:00;CYQB 231000Z 27019KT 15SM FEW180 M14/M20 A2994 RMK AC1 SLP144

CYQB;2008-03-23 11:00;CYQB 231100Z 27019G27KT 30SM FEW090 FEW150 FEW220 M14/M20 A2997 RMK AC1AC1CI1 SLP153

CYQB;2008-03-23 12:00;CYQB 231200Z 27014KT 30SM FEW080 FEW220 M14/M20 A2999 RMK AC1CI1 SLP160

CYQB;2008-03-23 13:00;CYQB 231300Z 27010G15KT 30SM FEW032 FEW220 M13/M20 A3001 RMK SC1CI1 SLP167

CYQB;2008-03-23 14:00;CYQB 231400Z 26018KT 30SM FEW035 FEW220 M12/M19 A3002 RMK SC1CI1 SLP172

CYQB;2008-03-23 15:00;CYQB 231500Z 27016G26KT 30SM SKC M12/M18 A3004 RMK SLP178

CYQB;2008-03-23 16:00;CYQB 231600Z 26022G27KT 30SM SKC M11/M18 A3004 RMK SLP178

CYQB;2008-03-23 17:00;CYQB 231700Z 26021KT 30SM SKC M10/M18 A3006 RMK SLP183

CYQB;2008-03-23 18:00;CYQB 231800Z 26019G25KT 30SM SKC M09/M17 A3006 RMK SLP183

CYQB;2008-03-23 19:00;CYQB 231900Z 28019G24KT 30SM SKC M08/M18 A3006 RMK SLP186

CYQB;2008-03-23 20:00;CYQB 232000Z 28017G24KT 30SM SKC M08/M17 A3006 RMK SLP186

CYQB;2008-03-23 21:00;CYQB 232100Z 26016G25KT 30SM SKC M08/M17 A3007 RMK SLP190

CYQB;2008-03-23 22:00;CYQB 232200Z 28015KT 30SM SKC M08/M19 A3009 RMK SLP196

CYQB;2008-03-23 23:00;CYQB 232300Z 29010G17KT 20SM FEW220 M09/M20 A3011 RMK CI1 SLP202

CYQB;2008-03-24 00:00;CYQB 240000Z 28007KT 20SM FEW040 M11/M23 A3013 RMK SC1 SLP208

CYQB;2008-03-24 01:00;CYQB 240100Z 24007KT 20SM SKC M12/M22 A3015 RMK SLP215

CYQB;2008-03-24 02:00;CYQB 240200Z 25006KT 15SM SKC M13/M23 A3016 RMK SLP220

CYQB;2008-03-24 03:00;CYQB 240300Z 24003KT 15SM SKC M15/M24 A3017 RMK SLP223

CYQB;2008-03-24 04:00;CYQB 240400Z 29006KT 15SM SKC M12/M25 A3019 RMK SLP229

CYQB;2008-03-24 05:00;CYQB 240500Z 19002KT 15SM SKC M16/M26 A3020 RMK SLP235

CYQB;2008-03-24 06:00;CYQB 240600Z 00000KT 15SM SKC M18/M26 A3021 RMK SLP238

CYQB;2008-03-24 07:00;CYQB 240700Z 30002KT 15SM SKC M19/M27 A3022 RMK SLP241

CYQB;2008-03-24 08:00;CYQB 240800Z 00000KT 15SM SKC M21/M26 A3022 RMK SLP241

CYQB;2008-03-24 09:00;CYQB 240900Z 02003KT 15SM SKC M20/M27 A3022 RMK SLP240

CYQB;2008-03-24 10:00;CYQB 241000Z 01002KT 15SM FEW250 M20/M27 A3022 RMK CI1 SLP242

CYQB;2008-03-24 11:00;CYQB 241100Z 01002KT 20SM FEW100 M20/M28 A3024 RMK AC1 SLP247

CYQB;2008-03-24 12:00;CYQB 241200Z 00000KT 20SM FEW100 M22/M29 A3026 RMK AC1 SLP255

CYQB;2008-03-24 13:00;CYQB 241300Z 00000KT 20SM FEW200 M17/M25 A3028 RMK CI1 SLP260

CYQB;2008-03-24 14:00;CYQB 241400Z 22004KT 20SM FEW200 M13/M21 A3029 RMK CI1 SLP265

CYQB;2008-03-24 15:00;CYQB 241500Z 23009KT 20SM FEW200 M12/M19 A3029 RMK CI1 SLP263

CYQB;2008-03-24 16:00;CYQB 241600Z 23010G15KT 20SM FEW200 M10/M20 A3028 RMK CI1 SLP262

CYQB;2008-03-24 17:00;CYQB 241700Z 25014KT 20SM FEW200 M09/M19 A3028 RMK CI0 SLP260

CYQB;2008-03-24 18:00;CYQB 241800Z 24015KT 20SM FEW035 FEW200 M08/M19 A3027 RMK SC1CI1 SLP257

CYQB;2008-03-24 19:00;CYQB 241900Z 21017G25KT 20SM FEW030 FEW200 M08/M20 A3026 RMK SC1CI0 SLP255

CYQB;2008-03-24 20:00;CYQB 242000Z 24017KT 20SM FEW028 FEW200 M07/M19 A3026 RMK SC1CI0 SLP253

CYQB;2008-03-24 21:00;CYQB 242100Z 23012G18KT 30SM FEW028 FEW200 M07/M19 A3025 RMK SC1CI1 SLP252

CYQB;2008-03-24 22:00;CYQB 242200Z CCA 25012KT 30SM FEW025 FEW220 M08/M19 A3025 RMK SC1CI0 SLP252

CYQB;2008-03-24 23:00;CYQB 242300Z 26009KT 30SM FEW220 M10/M20 A3026 RMK CI1 SLP254

CYQB;2008-03-25 00:00;CYQB 250000Z 28005KT 20SM FEW220 M12/M22 A3027 RMK CI1 SLP257

CYQB;2008-03-25 01:00;CYQB 250100Z 25004KT 20SM SKC M11/M22 A3028 RMK SLP262

CYQB;2008-03-25 02:00;CYQB 250200Z 28007KT 20SM SKC M15/M23 A3029 RMK SLP264

CYQB;2008-03-25 03:00;CYQB 250300Z 00000KT 15SM SKC M15/M21 A3029 RMK SLP265

CYQB;2008-03-25 04:00;CYQB 250400Z 29002KT 15SM SKC M16/M25 A3030 RMK SLP268

CYQB;2008-03-25 05:00;CYQB 250500Z 07004KT 15SM SKC M17/M24 A3031 RMK SLP270

CYQB;2008-03-25 06:00;CYQB 250600Z 02004KT 15SM SKC M16/M23 A3031 RMK SLP272

CYQB;2008-03-25 07:00;CYQB 250700Z 04004KT 15SM SKC M17/M24 A3031 RMK SLP271

CYQB;2008-03-25 08:00;CYQB 250800Z 03008KT 15SM SKC M17/M25 A3030 RMK SLP269

CYQB;2008-03-25 09:00;CYQB 250900Z 02006KT 15SM SKC M18/M25 A3030 RMK SLP266

CYQB;2008-03-25 10:00;CYQB 251000Z 04004KT 15SM SKC M19/M26 A3031 RMK SLP270

CYQB;2008-03-25 11:00;CYQB 251100Z 02004KT 30SM SKC M18/M26 A3032 RMK SLP275

CYQB;2008-03-25 12:00;CYQB 251200Z 02005KT 30SM SKC M17/M25 A3032 RMK SLP275

CYQB;2008-03-25 13:00;CYQB 251300Z 05002KT 30SM SKC M14/M20 A3031 RMK SLP270

CYQB;2008-03-25 14:00;CYQB 251400Z 00000KT 30SM SKC M11/M18 A3029 RMK SLP265

CYQB;2008-03-25 15:00;CYQB 251500Z 14004KT 30SM SKC M08/M17 A3027 RMK SLP255

CYQB;2008-03-25 16:00;CYQB 251600Z 26002KT 30SM SKC M06/M16 A3023 RMK SLP244

CYQB;2008-03-25 17:00;CYQB 251700Z 25006KT 30SM SKC M03/M16 A3019 RMK SLP231

CYQB;2008-03-25 18:00;CYQB 251800Z 27007KT 15SM SKC M02/M12 A3015 RMK SLP216

CYQB;2008-03-25 19:00;CYQB 251900Z 28007KT 15SM FEW240 M01/M10 A3012 RMK CI0 SLP206

CYQB;2008-03-25 20:00;CYQB 252000Z 27004KT 15SM OVC210 M01/M11 A3008 RMK CS6 SLP191

CYQB;2008-03-25 21:00;CYQB 252100Z 27003KT 15SM OVC130 M01/M10 A3005 RMK AS7 SLP182

CYQB;2008-03-25 22:00;CYQB 252200Z 12003KT 15SM OVC120 M02/M12 A3002 RMK AS8 SLP170

CYQB;2008-03-25 23:00;CYQB 252300Z 09005KT 15SM OVC110 M02/M11 A2998 RMK AS8 SLP157

CYQB;2008-03-26 00:00;CYQB 260000Z 06004KT 15SM OVC100 M02/M10 A2996 RMK AS8 SLP152

CYQB;2008-03-26 01:00;CYQB 260100Z 04002KT 15SM OVC080 M02/M10 A2996 RMK AS8 SLP152

CYQB;2008-03-26 02:00;CYQB 260200Z 08006KT 15SM BKN059 OVC080 M01/M10 A2993 RMK SC6AS2 SLP141

CYQB;2008-03-26 03:00;CYQB 260300Z 19008G16KT 15SM -SN BKN034 OVC052 M00/M09 A2991 RMK SC6SC2 PCPN VRY LGT SLP132

CYQB;2008-03-26 04:00;CYQB 260400Z 21014G20KT 15SM -SN BKN027 OVC050 00/M06 A2988 RMK SC7SC1 PCPN VRY LGT SLP124

CYQB;2008-03-26 05:00;CYQB 260500Z 20009G15KT 10SM -SN FEW004 BKN010 OVC034 00/M06 A2984 RMK SF2SC4SC2 PCPN VRY LGT SLP110

CYQB;2008-03-26 05:17;CYQB 260517Z 16008KT 10SM FEW004 BKN012 OVC026 00/ RMK SF2SC4SC2

CYQB;2008-03-26 05:45;CYQB 260545Z 17006KT 6SM -SN BR SCT004 OVC011 M01/ RMK SF3SC5

CYQB;2008-03-26 06:00;CYQB 260600Z 17006KT 10SM -SN FEW004 OVC016 M00/M05 A2981 RMK SF2SC6 SLP097

CYQB;2008-03-26 07:00;CYQB 260700Z 19003KT 3/4SM R06/P6000FT/U -SN OVC008 M01/M04 A2978 RMK SN6SF2 SLP087

CYQB;2008-03-26 08:00;CYQB 260800Z 08005KT 3/4SM R06/P6000FT/U -SN OVC006 M02/M04 A2974 RMK SN6SF2 /S01/ SLP074

CYQB;2008-03-26 09:00;CYQB 260900Z 09004KT 1SM R06/P6000FT/D -SN OVC010 M02/M04 A2971 RMK SN6SF2 /S02/ SLP066

CYQB;2008-03-26 10:00;CYQB 261000Z 07003KT 3SM -SN OVC008 M02/M04 A2970 RMK SN2SF6 SLP060

CYQB;2008-03-26 10:20;CYQB 261020Z 08003KT 2SM -SN SCT008 OVC014 M02/ RMK SN2SF2SC5

CYQB;2008-03-26 10:42;CYQB 261042Z CCA 06002KT 1SM R06/P6000FT/D -SN BR SCT007 OVC012 M02/ RMK SN2SF2SC5

CYQB;2008-03-26 11:00;CYQB 261100Z 13002KT 3/4SM R06/P6000FT/N -SN BR SCT007 OVC012 M02/M04 A2968 RMK SN2SF2SC5 SLP056

CYQB;2008-03-26 11:05;CYQB 261105Z 00000KT 1/2SM R06/4500VP6000FT/D -SN FZFG OVC010 M02/ RMK SN4SC4

CYQB;2008-03-26 11:32;CYQB 261132Z 05002KT 1/2SM R06/P6000FT/N -SN FZFG VV006 M01/ RMK SN8

CYQB;2008-03-26 12:00;CYQB 261200Z 00000KT 3/4SM R06/4500VP6000FT/U -SN BR OVC008 M01/M03 A2968 RMK SN5SF3 /S03/ SLP054

CYQB;2008-03-26 12:42;CYQB 261242Z 23009KT 1 3/4SM -SN BR OVC006 01/ RMK SN3SF5 TOWER VIS HIER

CYQB;2008-03-26 13:00;CYQB 261300Z 23008KT 1SM R06/4500FT/N -SN BR SCT004 OVC008 00/M01 A2967 RMK SN2SF2SF5 VIS VRB 3/4-11/4 TOWER VIS HIER SLP050

CYQB;2008-03-26 13:21;CYQB 261321Z 23009KT 2 1/2SM -SN BR BKN004 OVC008 01/ RMK SN2SF3SF3

CYQB;2008-03-26 13:29;CYQB 261329Z 23011KT 1 1/2SM -SN BR BKN004 OVC008 01/ RMK SN2SF3SF3

CYQB;2008-03-26 13:43;CYQB 261343Z 24012KT 2SM -SN OVC010 01/ RMK SN2SF6

CYQB;2008-03-26 14:00;CYQB 261400Z 23011KT 2SM -SN BR OVC009 01/M01 A2966 RMK SN2SF6 SLP048

CYQB;2008-03-26 14:34;CYQB 261434Z CCA 23015KT 5SM -RASN BR SCT004 OVC010 01/ RMK SF3SF5

CYQB;2008-03-26 15:00;CYQB 261500Z 23010G15KT 5SM -RASN BR SCT005 OVC008 01/M01 A2966 RMK SF3SF5 SLP046

CYQB;2008-03-26 16:00;CYQB 261600Z 24017KT 6SM -RASN FEW005 OVC009 02/M01 A2965 RMK SF2SF6 SLP044

CYQB;2008-03-26 16:14;CYQB 261614Z 24016G22KT 6SM -RASN FEW005 SCT009 OVC014 02/ RMK SF2SF2SC5

CYQB;2008-03-26 16:38;CYQB 261638Z 24017KT 6SM BR FEW005 BKN018 OVC060 02/ RMK SF2SC5SC2 CLDS TPG HILL N

CYQB;2008-03-26 17:00;CYQB 261700Z CCA 24017KT 6SM BR FEW010 BKN019 03/M00 A2965 RMK CF1SC6 CLDS TPG HILL N SLP043

CYQB;2008-03-26 17:24;CYQB 261724Z 24023G28KT 6SM -SHRA BR FEW010 BKN016 03/ RMK CF1SC6 TCU ASOCTD CLDS TPG HILL N

CYQB;2008-03-26 17:39;CYQB 261739Z 28026G36KT 1/2SM R06/2600V3500FT/N SHSN SCT002 BKN010 OVC018 00/ RMK CF3SC4SC1 TCU ASOCTD

CYQB;2008-03-26 17:50;CYQB 261750Z 27010G24KT 3SM -TSSN FEW008 BKN018 01/ RMK SF2SC5 CB EMBDD RESHSN

CYQB;2008-03-26 18:00;CYQB 261800Z 26011KT 10SM FEW010 SCT018 SCT100 BKN230 01/M01 A2967 RETSSN RMK CF2SC1AC1CI0 SLP049

CYQB;2008-03-26 19:00;CYQB 261900Z 24010G19KT 5SM -SHGS BKN018 OVC045 02/M00 A2970 RMK SC6SC2 TCU ASOCTD SLP061

CYQB;2008-03-26 19:08;CYQB 261908Z 25012KT 10SM -SHSN BKN018 BKN045 02/ RMK SC6SC2 TCU ASOCTD

CYQB;2008-03-26 19:42;CYQB 261942Z 31020G27KT 15SM SCT018 BKN040 03/ RMK SC4SC2

CYQB;2008-03-26 20:00;CYQB 262000Z 29014G22KT 15SM FEW020 BKN040 BKN055 03/M01 A2972 RMK SC2SC2SC2 SLP067

CYQB;2008-03-26 20:29;CYQB 262029Z 28012G24KT 15SM -SHSN FEW020 SCT045 SCT090 BKN230 02/ RMK CF2SC2AC1CI0

CYQB;2008-03-26 21:00;CYQB 262100Z 27014G20KT 15SM -SHSN SCT040 SCT060 BKN080 BKN230 02/M03 A2975 RMK SC3SC1AC2CI0 SLP077

CYQB;2008-03-26 21:18;CYQB 262118Z 27018G27KT 15SM SCT040 SCT060 BKN080 BKN230 02/ RMK SC3SC1AC2CI0

CYQB;2008-03-26 22:00;CYQB 262200Z 28018G25KT 15SM SCT043 BKN230 02/M05 A2979 RMK SC3CI2 SLP090

CYQB;2008-03-26 23:00;CYQB 262300Z 29013G24KT 15SM FEW050 BKN230 00/M07 A2983 RMK SC2CI2 SLP105

CYQB;2008-03-27 00:00;CYQB 270000Z 29013G22KT 15SM SCT050 BKN230 M01/M08 A2988 RMK SC4CI0 SLP121

CYQB;2008-03-27 01:00;CYQB 270100Z 28011G17KT 15SM FEW040 SCT230 02/M10 A2993 RMK SC1CI1 SLP139

CYQB;2008-03-27 02:00;CYQB 270200Z 28009KT 15SM FEW050 FEW220 M03/M11 A2997 RMK SC1CI1 SLP151

CYQB;2008-03-27 03:00;CYQB 270300Z 26006KT 15SM SKC M05/M12 A2997 RMK SLP154

CYQB;2008-03-27 04:00;CYQB 270400Z 29007KT 15SM SKC M06/M13 A2999 RMK SLP159

CYQB;2008-03-27 05:00;CYQB 270500Z 22005KT 15SM SKC M07/M14 A3000 RMK SLP163

CYQB;2008-03-27 06:00;CYQB 270600Z 00000KT 15SM BKN110 M08/M14 A2998 RMK AS2 SLP157

CYQB;2008-03-27 07:00;CYQB 270700Z 05003KT 15SM BKN070 M07/M13 A2997 RMK AS5 SLP155

CYQB;2008-03-27 08:00;CYQB 270800Z 29002KT 15SM BKN075 M09/M14 A2997 RMK AS3 SLP154

CYQB;2008-03-27 09:00;CYQB 270900Z 03004KT 15SM FEW050 BKN075 OVC130 M09/M14 A2998 RMK SC1AS3AS1 SLP157

CYQB;2008-03-27 10:00;CYQB 271000Z 04004KT 15SM FEW040 SCT065 BKN090 M09/M14 A2995 RMK SC2SC2AS2 SLP148

CYQB;2008-03-27 11:00;CYQB 271100Z 02005KT 20SM BKN037 BKN055 M09/M14 A2994 RMK SC5SC1 SLP145

CYQB;2008-03-27 11:42;CYQB 271142Z 36003KT 1SM R06/P6000FT/D -SN VV005 M08/ RMK SN8

CYQB;2008-03-27 11:51;CYQB 271151Z 36003KT 1/2SM R06/P6000FT/D SN VV004 M08/ RMK SN8

CYQB;2008-03-27 12:00;CYQB 271200Z 02004KT 3/4SM R06/4500VP6000FT/U -SN OVC019 M08/M12 A2994 RMK SC8 SLP142

CYQB;2008-03-27 12:14;CYQB 271214Z 01004KT 1/2SM R06/P6000FT/D SN VV006 M08/ RMK SN8

CYQB;2008-03-27 13:00;CYQB 271300Z 02002KT 1 1/2SM -SN OVC014 M07/M10 A2993 RMK SC8 /S01/ SLP139

CYQB;2008-03-27 13:45;CYQB 271345Z 04002KT 1/2SM R06/4000FT/N SN VV007 M06/ RMK SN8

CYQB;2008-03-27 14:00;CYQB 271400Z 03003KT 1/2SM R06/4000FT/N SN VV005 M06/M09 A2992 RMK SN8 SLP135

CYQB;2008-03-27 14:10;CYQB 271410Z 04003KT 1/4SM R06/1600FT/N +SN VV003 M06/ RMK SN8

CYQB;2008-03-27 14:20;CYQB 271420Z 04002KT 1/2SM R06/2600V4500FT/N SN VV006 M06/ RMK SN8

CYQB;2008-03-27 15:00;CYQB 271500Z 00000KT 3/4SM R06/4500VP6000FT/U -SN OVC020 M05/M08 A2992 RMK SC8 SLP136

CYQB;2008-03-27 15:11;CYQB 271511Z 00000KT 1/2SM R06/P6000FT/U SN OVC016 M04/ RMK SC8

CYQB;2008-03-27 15:27;CYQB 271527Z 00000KT 1/2SM R06/4500VP6000FT/U SN VV008 M03/ RMK SN8

CYQB;2008-03-27 16:00;CYQB 271600Z 26008KT 6SM BKN035 BKN070 M02/M05 A2992 RMK SC6AC1 SLP135

CYQB;2008-03-27 17:00;CYQB 271700Z CCA 25011KT 10SM BKN025 M00/M04 A2992 RMK SC7 CU ASOCTD SLP136

CYQB;2008-03-27 17:18;CYQB 271718Z 26008KT 6SM -SN BKN022 OVC080 01/ RMK SC7AS0 CU ASOCTD VIS LWR W

CYQB;2008-03-27 18:00;CYQB 271800Z 27008KT 6SM -SHSN BKN025 01/M04 A2990 RMK CU5 SLP131

CYQB;2008-03-27 18:21;CYQB 271821Z 23008KT 10SM BKN028 01/ RMK CU6

CYQB;2008-03-27 19:00;CYQB 271900Z 24012KT 15SM SCT028 BKN065 01/M04 A2990 RMK CU3SC2 SLP130

CYQB;2008-03-27 19:40;CYQB 271940Z 23008KT 4SM -SHSN BKN030 OVC050 01/ RMK CU5SC2

CYQB;2008-03-27 19:50;CYQB 271950Z  30008KT 1/2SM R06/3500VP6000FT/D SHGS VV004 M01/ RMK SN8

CYQB;2008-03-27 20:00;CYQB 272000Z 29005KT 1SM R06/3500VP6000FT/U -SHGS BKN018 OVC036 M00/M03 A2991 RMK SN2SC4SC2 SLP133

CYQB;2008-03-27 20:08;CYQB 272008Z 28006KT 1SM R06/4500VP6000FT/D -SHSN BKN010 OVC022 M00/ RMK SN2SC4SC2

CYQB;2008-03-27 20:20;CYQB 272020Z 27005KT 5SM -SHSN OVC049 M00/ RMK SC8 CU ASOCTD

CYQB;2008-03-27 21:00;CYQB 272100Z 26006KT 10SM FEW012 OVC052 00/M03 A2992 RMK SF1SC7 SLP135

CYQB;2008-03-27 22:00;CYQB 272200Z 24008KT 15SM OVC057 00/M03 A2993 RMK SC6 SLP139

CYQB;2008-03-27 22:10;CYQB 272210Z 23007KT 15SM -SHSN OVC050 00/ RMK SC7

CYQB;2008-03-27 23:00;CYQB 272300Z 25007KT 15SM BKN075 M01/M03 A2995 RMK AC5 SLP147

CYQB;2008-03-28 00:00;CYQB 280000Z 23004KT 15SM BKN076 M01/M04 A2998 RMK AC7 SLP156

CYQB;2008-03-28 01:00;CYQB 280100Z 23002KT 15SM BKN069 M02/M04 A2999 RMK AC5 SLP161

CYQB;2008-03-28 02:00;CYQB 280200Z 27005KT 15SM SCT070 M04/M07 A3001 RMK AC4 SLP166

CYQB;2008-03-28 03:00;CYQB 280300Z 32003KT 15SM FEW070 M05/M10 A3002 RMK AC1 SLP170

CYQB;2008-03-28 04:00;CYQB 280400Z 03003KT 15SM FEW070 FEW240 M05/M10 A3002 RMK AC1CI0 SLP171

CYQB;2008-03-28 05:00;CYQB 280500Z 35007KT 15SM BKN240 M06/M11 A3003 RMK CI0 SLP172

CYQB;2008-03-28 06:00;CYQB 280600Z 05002KT 15SM BKN240 M07/M12 A3003 RMK CI2 FROIN SLP175

CYQB;2008-03-28 07:00;CYQB 280700Z 02005KT 15SM SCT200 M08/M12 A3003 RMK CI2 FROIN SLP173

CYQB;2008-03-28 08:00;CYQB 280800Z 02005KT 15SM BKN200 M09/M13 A3003 RMK CI2 SLP175

CYQB;2008-03-28 09:00;CYQB 280900Z 01005KT 15SM BKN200 M09/M14 A3004 RMK CI2 SLP177

CYQB;2008-03-28 10:00;CYQB 281000Z 36006KT 15SM FEW140 FEW200 M10/M15 A3005 RMK ACC1CI0 SLP179

CYQB;2008-03-28 11:00;CYQB 281100Z 02003KT 15SM FEW140 SCT190 M10/M16 A3005 RMK AC1CI1 SLP181

CYQB;2008-03-28 12:00;CYQB 281200Z CCB 07008KT 15SM FEW040 FEW140 BKN200 M07/M14 A3005 RMK SC1AC1CI2 OBS TAKEN +07 SLP181

CYQB;2008-03-28 13:00;CYQB 281300Z 07012G17KT 15SM FEW120 OVC180 M06/M12 A3005 RMK AC1CI2 SLP180

CYQB;2008-03-28 14:00;CYQB 281400Z 07016KT 30SM FEW025 FEW140 OVC180 M05/M12 A3004 RMK CU1AC1CI2 SLP178

CYQB;2008-03-28 15:00;CYQB 281500Z 06013G19KT 30SM FEW030 FEW140 BKN200 M04/M13 A3004 RMK CU1AC1CI2 SLP178

CYQB;2008-03-28 16:00;CYQB 281600Z 08011G16KT 30SM FEW030 FEW140 BKN200 M03/M12 A3003 RMK CU1AC1CI2 SLP175

CYQB;2008-03-28 17:00;CYQB 281700Z 09008KT 30SM FEW030 BKN140 OVC200 M02/M12 A3001 RMK CU1AC2CI2 SLP166

CYQB;2008-03-28 18:00;CYQB 281800Z 07008KT 30SM FEW030 BKN140 OVC200 M02/M11 A2999 RMK CU1AC3CI1 SLP161

CYQB;2008-03-28 19:00;CYQB 281900Z 07009KT 30SM FEW030 SCT140 BKN200 M02/M11 A2998 RMK CU1AS3CS0 SLP158

CYQB;2008-03-28 20:00;CYQB 282000Z 07010KT 30SM FEW030 SCT140 OVC200 M02/M11 A2997 RMK CU1AS3CS1 SLP154

CYQB;2008-03-28 21:00;CYQB 282100Z 07007KT 30SM FEW030 SCT140 OVC200 M02/M10 A2997 RMK CU2AS2CI0 SLP153

CYQB;2008-03-28 22:00;CYQB 282200Z 08006KT 30SM FEW030 SCT140 OVC200 M03/M10 A2999 RMK CU2AS2CI0 SLP159

CYQB;2008-03-28 23:00;CYQB 282300Z 09004KT 30SM FEW040 SCT120 OVC200 M03/M10 A3002 RMK CU1AS2CI0 SLP169

CYQB;2008-03-29 00:00;CYQB 290000Z 08004KT 20SM FEW042 FEW080 BKN120 OVC200 M03/M10 A3003 RMK CU1AC2AC2CI0 SLP174

CYQB;2008-03-29 01:00;CYQB 290100Z 08004KT 20SM SCT042 BKN080 BKN200 M03/M10 A3006 RMK SC3AC2CI0 SLP182

CYQB;2008-03-29 02:00;CYQB 290200Z 08002KT 15SM SCT050 BKN080 M04/M10 A3007 RMK SC4AC2 SLP187

CYQB;2008-03-29 03:00;CYQB 290300Z 27002KT 12SM -SHSN BKN029 OVC050 M04/M09 A3008 RMK SC6SC2 SLP191

CYQB;2008-03-29 03:49;CYQB 290349Z 14002KT 3/4SM R06/P6000FT/N -SN VV006 M05/ RMK SN8

CYQB;2008-03-29 04:00;CYQB 290400Z 14002KT 3/4SM R06/P6000FT/N -SN VV006 M05/M08 A3010 RMK SN8 /S01/ SLP197

CYQB;2008-03-29 04:30;CYQB 290430Z 34008KT 1/2SM R06/P6000FT/U SN VV003 M06/ RMK SN8 /S02/

CYQB;2008-03-29 05:00;CYQB 290500Z 34009KT 3/4SM R06/P6000FT/U -SN VV009 M07/M10 A3011 RESN RMK SN8 /S03/ SLP199

CYQB;2008-03-29 05:27;CYQB 290527Z 34008KT 5SM -SN OVC017 M07/ RMK SC8

CYQB;2008-03-29 06:00;CYQB 290600Z 33008KT 4SM -SN BKN016 OVC041 M08/M12 A3011 RMK SC7SC1 SLP201

CYQB;2008-03-29 07:00;CYQB 290700Z 34005KT 1SM R06/P6000FT/N -SN BR VV007 M08/M12 A3011 RMK SN8 SLP203

CYQB;2008-03-29 08:00;CYQB 290800Z 31008KT 3/4SM R06/P6000FT/N -SN BR VV006 M09/M13 A3012 RMK SN8 /S01/ SLP206

CYQB;2008-03-29 08:49;CYQB 290849Z 35006KT 2SM -SN OVC037 M09/ RMK SN3SC5 VIS HIER N

CYQB;2008-03-29 09:00;CYQB 290900Z CCA 32004KT 8SM -SN SCT040 OVC068 M09/M14 A3013 RMK SC3AC5 SLP207

CYQB;2008-03-29 09:23;CYQB 290923Z 31006KT 15SM SCT040 BKN068 M10/ RMK SC3AC3

CYQB;2008-03-29 10:00;CYQB 291000Z 30006KT 15SM FEW040 BKN065 M10/M16 A3014 RMK SC1SC6 SLP213

CYQB;2008-03-29 11:00;CYQB 291100Z 29005KT 15SM FEW040 SCT065 M13/M19 A3016 RMK SC1SC3 SLP218

CYQB;2008-03-29 12:00;CYQB 291200Z 25010KT 15SM FEW040 SCT065 M14/M19 A3018 RMK SC1SC4 SLP226

CYQB;2008-03-29 13:00;CYQB 291300Z 25005KT 6SM BR BKN020 M10/M16 A3021 RMK SC4 SLP235

CYQB;2008-03-29 14:00;CYQB 291400Z 36007KT 3SM -SHSN OVC021 M07/M13 A3023 RMK SC8 SLP243

CYQB;2008-03-29 14:46;CYQB 291446Z 33006KT 15SM VCSH OVC040 M06/ RMK SC6 VIS NE 6

CYQB;2008-03-29 15:00;CYQB 291500Z 23005KT 15SM VCSH BKN044 M06/M13 A3025 RMK SC7 VIS NE 6 SLP247

CYQB;2008-03-29 16:00;CYQB 291600Z 32002KT 15SM BKN047 M04/M13 A3025 RMK SC7 SLP248

CYQB;2008-03-29 17:00;CYQB 291700Z 33013G19KT 30SM SCT055 M04/M14 A3026 RMK SC3 SLP251

CYQB;2008-03-29 18:00;CYQB 291800Z 32014G22KT 30SM SCT060 M03/M14 A3027 RMK SC3 SLP254

CYQB;2008-03-29 19:00;CYQB 291900Z 32014G20KT 30SM FEW070 M02/M14 A3027 RMK AC2 SLP254

CYQB;2008-03-29 20:00;CYQB 292000Z 31015KT 30SM FEW070 M02/M14 A3027 RMK SC2 SLP256

CYQB;2008-03-29 21:00;CYQB 292100Z 31014G21KT 30SM FEW060 M01/M13 A3029 RMK SC2 SLP261

CYQB;2008-03-29 22:00;CYQB 292200Z 33013G20KT 30SM FEW060 M01/M13 A3031 RMK SC1 SLP270

CYQB;2008-03-29 23:00;CYQB 292300Z 31010G16KT 30SM FEW060 M02/M14 A3034 RMK SC1 SLP280

CYQB;2008-03-30 00:00;CYQB 300000Z 29005KT 15SM FEW060 M04/M15 A3037 RMK SC1 SLP291

CYQB;2008-03-30 01:00;CYQB 300100Z 28004KT 15SM FEW060 M07/M16 A3041 RMK SC1 SLP305

CYQB;2008-03-30 02:00;CYQB 300200Z 32006KT 15SM SCT120 M04/M14 A3044 RMK AC3 SLP315

CYQB;2008-03-30 03:00;CYQB 300300Z 34007KT 15SM SCT084 M04/M14 A3047 RMK AC4 SLP322

CYQB;2008-03-30 04:00;CYQB 300400Z 29006KT 15SM SKC M06/M15 A3047 RMK SLP325

CYQB;2008-03-30 05:00;CYQB 300500Z 34007KT 15SM SKC M06/M15 A3048 RMK SLP328

CYQB;2008-03-30 06:00;CYQB 300600Z 26003KT 15SM SKC M06/M15 A3050 RMK SLP335

CYQB;2008-03-30 07:00;CYQB 300700Z 22003KT 15SM SKC M07/M15 A3053 RMK SLP343

CYQB;2008-03-30 08:00;CYQB 300800Z 35004KT 15SM SKC M07/M15 A3054 RMK SLP347

CYQB;2008-03-30 09:00;CYQB 300900Z 34006KT 15SM SKC M07/M16 A3056 RMK SLP353

CYQB;2008-03-30 10:00;CYQB 301000Z 34007KT 20SM FEW300 M08/M15 A3058 RMK CI1 SLP362

CYQB;2008-03-30 11:00;CYQB 301100Z 33006KT 20SM SKC M08/M16 A3062 RMK SLP373

CYQB;2008-03-30 12:00;CYQB 301200Z 18005KT 20SM SKC M08/M15 A3065 RMK SLP384

CYQB;2008-03-30 13:00;CYQB 301300Z 20005KT 20SM SKC M07/M13 A3066 RMK SLP389

CYQB;2008-03-30 14:00;CYQB 301400Z 22007KT 20SM SKC M05/M12 A3068 RMK SLP394

CYQB;2008-03-30 15:00;CYQB 301500Z 22009KT 20SM SKC M04/M11 A3069 RMK SLP398

CYQB;2008-03-30 16:00;CYQB 301600Z 19007KT 20SM SKC M03/M11 A3069 RMK SLP397

CYQB;2008-03-30 17:00;CYQB 301700Z 23008KT 20SM SKC M01/M11 A3069 RMK SLP396

CYQB;2008-03-30 18:00;CYQB 301800Z 23008KT 20SM SKC M00/M10 A3068 RMK SLP393

CYQB;2008-03-30 19:00;CYQB 301900Z 24007KT 20SM SKC 01/M08 A3066 RMK SLP386

CYQB;2008-03-30 20:00;CYQB 302000Z 24007KT 20SM SKC 02/M08 A3064 RMK SLP381

CYQB;2008-03-30 21:00;CYQB 302100Z 24009KT 20SM FEW300 02/M08 A3064 RMK CI1 SLP380

CYQB;2008-03-30 22:00;CYQB 302200Z 24007KT 20SM FEW300 01/M08 A3065 RMK CI1 SLP383

CYQB;2008-03-30 23:00;CYQB 302300Z 26008KT 20SM FEW240 M01/M09 A3065 RMK CI0 SLP385

CYQB;2008-03-31 00:00;CYQB 310000Z 00000KT 20SM FEW220 M01/M11 A3065 RMK CI0 SLP384

CYQB;2008-03-31 01:00;CYQB 310100Z 18002KT 15SM FEW220 M03/M11 A3064 RMK CI0 SLP381

CYQB;2008-03-31 02:00;CYQB 310200Z 00000KT 15SM FEW200 M05/M11 A3064 RMK CI0 SLP380

CYQB;2008-03-31 03:00;CYQB 310300Z 00000KT 15SM FEW190 M04/M10 A3062 RMK CI1 SLP374

CYQB;2008-03-31 04:00;CYQB 310400Z 36004KT 15SM FEW150 M03/M10 A3060 RMK AC2 SLP368

CYQB;2008-03-31 05:00;CYQB 310500Z 04003KT 15SM SCT150 M04/M10 A3058 RMK AC2 SLP362

CYQB;2008-03-31 06:00;CYQB 310600Z 02004KT 15SM SCT160 M05/M11 A3057 RMK AC2 SLP355

CYQB;2008-03-31 07:00;CYQB 310700Z 02005KT 15SM SCT150 M05/M11 A3055 RMK AC3 SLP350

CYQB;2008-03-31 08:00;CYQB 310800Z 02003KT 15SM BKN160 M05/M11 A3051 RMK AC6 SLP336

CYQB;2008-03-31 09:00;CYQB 310900Z 01003KT 15SM BKN130 M05/M11 A3048 RMK AC6 SLP326

CYQB;2008-03-31 10:00;CYQB 311000Z CCA 35005KT 15SM BKN130 M04/M11 A3048 RMK AC7 SLP325

CYQB;2008-03-31 11:00;CYQB 311100Z 04006KT 30SM OVC110 M04/M10 A3046 RMK AC8 SLP320

CYQB;2008-03-31 12:00;CYQB 311200Z 08004KT 30SM OVC120 M02/M09 A3045 RMK AC8 SLP315

CYQB;2008-03-31 13:00;CYQB 311300Z 06004KT 30SM BKN110 OVC230 M01/M10 A3041 RMK AC6CS2 SLP304

CYQB;2008-03-31 14:00;CYQB 311400Z 04005KT 30SM BKN100 OVC230 01/M09 A3040 RMK AC6CI1 SLP300

CYQB;2008-03-31 15:00;CYQB 311500Z 06005KT 30SM BKN080 OVC230 02/M08 A3038 RMK AC7CI1 SLP291

CYQB;2008-03-31 16:00;CYQB 311600Z 23004KT 30SM BKN045 OVC080 02/M07 A3037 RMK SC6AC2 DIST SH SW SLP288

CYQB;2008-03-31 16:23;CYQB 311623Z 28008KT 15SM -SHSN BKN030 OVC070 02/ RMK SC6AC2

CYQB;2008-03-31 17:00;CYQB 311700Z 26013KT 2 1/2SM -SHSN OVC025 01/M04 A3036 RMK SC8 SUN DMLY VISBL SLP286

CYQB;2008-03-31 17:32;CYQB 311732Z 26009KT 6SM -SHSN FEW009 OVC026 00/ RMK SF2SC6

CYQB;2008-03-31 18:00;CYQB 311800Z 24006KT 6SM -SHSN BKN013 OVC022 00/M03 A3035 RMK SF6SC2 SLP281

CYQB;2008-03-31 19:00;CYQB 311900Z 22007KT 8SM -SHSN SCT008 OVC025 01/M03 A3032 RMK SF3SC5 SLP272

CYQB;2008-03-31 19:47;CYQB 311947Z 21005KT 2 1/2SM -SHSN FEW008 BKN015 OVC027 01/ RMK SF2SC4SC2

CYQB;2008-03-31 20:00;CYQB 312000Z 22003KT 2 1/2SM -SHSN FEW008 BKN012 OVC024 01/M03 A3030 RMK SF2SC5SC2 SLP265

CYQB;2008-03-31 21:00;CYQB 312100Z 00000KT 2SM -SHSN FEW005 BKN009 OVC022 00/M02 A3028 RMK SF2SF5SC2 SLP260

CYQB;2008-03-31 21:26;CYQB 312126Z 00000KT 3SM -SHSN SCT006 OVC030 01/ RMK SF4SC4

CYQB;2008-03-31 22:00;CYQB 312200Z 02002KT 3SM -SHSN FEW006 SCT014 OVC021 01/M02 A3026 RMK SF2SF2SC4 SLP253

CYQB;2008-03-31 22:24;CYQB 312224Z 02003KT 1 1/2SM -SHSN BR FEW005 OVC007 00/ RMK SF2ST6

CYQB;2008-03-31 23:00;CYQB 312300Z 03004KT 2SM -SHSN BR FEW002 OVC010 00/M02 A3026 RMK SF2ST6 SLP251

CYQB;2008-03-31 23:23;CYQB 312323Z 03004KT 2SM -SHSN BR FEW005 OVC015 00/ RMK SF2SC6

CYQB;2008-04-01 01:00;CYQB 010100Z 07005KT 1 1/2SM -SHSN VV003 00/M02 A3022 RMK SN8 /S01/ SLP236

CYQB;2008-04-01 02:00;CYQB 010200Z 07005KT 1SM R06/P6000FT/U -SHSN VV003 00/M02 A3019 RMK SN8 SLP226

CYQB;2008-04-01 02:50;CYQB 010250Z 06005KT 3/4SM R06/P6000FT/U -SHSN VV002 00/ RMK SN8

CYQB;2008-04-01 03:00;CYQB 010300Z 06004KT 3/4SM R06/P6000FT/U -SHSN VV002 M00/M02 A3015 RMK SN8 /S05/ SLP215

CYQB;2008-04-01 04:00;CYQB 010400Z 07004KT 3/4SM R06/5500FT/N -SHSN OVC007 M00/M02 A3013 RMK SN6SF2 SLP207

CYQB;2008-04-01 05:00;CYQB 010500Z 07004KT 3/4SM R06/5000FT/N -SHSN OVC007 00/M02 A3010 RMK SN7SF1 /SO7/ SLP197

CYQB;2008-04-01 05:47;CYQB 010547Z 07006KT 1SM R06/P6000FT/U -SHSN OVC007 00/ RMK SN6SF2

CYQB;2008-04-01 06:00;CYQB 010600Z 07007KT 1SM R06/P6000FT/D -RASN OVC007 00/M02 A3007 RMK SN6SF2 /S08/ SLP185

CYQB;2008-04-01 07:00;CYQB 010700Z 07009KT 1SM R06/P6000FT/U -RASN OVC003 00/M02 A3003 RMK SN2SC6 PRESFR SLP174

CYQB;2008-04-01 07:33;CYQB 010733Z 07007KT 3SM -RA BR OVC003 00/ RMK FG2SC6

CYQB;2008-04-01 08:00;CYQB 010800Z 07011KT 5SM -RA BR OVC004 00/M02 A2999 RMK SC8 SLP159

CYQB;2008-04-01 09:00;CYQB 010900Z 07010KT 4SM -RA BR BKN004 OVC005 00/M02 A2996 RMK SF6SC2 SLP150

CYQB;2008-04-01 09:53;CYQB 010953Z 08008KT 3SM -RA BR OVC003 00/ RMK SF8 CIG VRB 2-4

CYQB;2008-04-01 10:00;CYQB 011000Z 08009KT 3SM -RA BR OVC003 00/M02 A2993 RMK ST8 CIG VRB 2-4 SLP138

CYQB;2008-04-01 10:42;CYQB 011042Z 08012KT 4SM -RA BR BKN004 OVC012 00/ RMK SF6SC2 CIG VRB 2-6

CYQB;2008-04-01 11:00;CYQB 011100Z 07013KT 4SM -RA BR BKN005 OVC015 00/M02 A2989 RMK SF6SC2 CIG VRB 3-7 SLP126

CYQB;2008-04-01 12:00;CYQB 011200Z 08013G20KT 8SM -RA BKN006 OVC013 01/M01 A2986 RMK SF5SC3 CIG VRB 4-8 SLP115

CYQB;2008-04-01 13:00;CYQB 011300Z 08011G19KT 3SM -RA BR BKN005 OVC012 01/M01 A2981 RMK SF6SC2 SLP099

CYQB;2008-04-01 14:00;CYQB 011400Z CCA 07013G20KT 3SM -RA BR BKN005 OVC013 01/M01 A2976 RMK SF6SC2 CIG VRB 3-7 SLP083

CYQB;2008-04-01 15:00;CYQB 011500Z CCA 08012G22KT 5SM -RA BR BKN005 OVC012 01/M01 A2971 RMK SF6SC2 CIG VRB 3-7 SLP064

CYQB;2008-04-01 15:50;CYQB 011550Z 07015G21KT 10SM OVC006 01/ RMK ST8

CYQB;2008-04-01 16:00;CYQB 011600Z 07014G20KT 10SM BKN005 OVC011 01/M01 A2965 RMK SF6SC2 CIG VRB 3-7 PRESFR SLP044

CYQB;2008-04-01 17:00;CYQB 011700Z 09009G18KT 10SM BKN005 OVC010 01/M01 A2961 RMK SF5SC3 SLP030

CYQB;2008-04-01 17:24;CYQB 011724Z 08009KT 10SM SCT006 OVC011 02/ RMK SF3SC5

CYQB;2008-04-01 17:41;CYQB 011741Z 08008G17KT 10SM -RA FEW006 OVC010 01/ RMK SF2SC6

CYQB;2008-04-01 18:00;CYQB 011800Z 08008G16KT 6SM -RA BR FEW004 OVC010 01/M01 A2957 RMK SF2SC6 SLP017

CYQB;2008-04-01 18:37;CYQB 011837Z 09006KT 2 1/2SM RA BR BKN003 OVC013 01/ RMK FG2SF4SC2

CYQB;2008-04-01 19:00;CYQB 011900Z 08009KT 3SM -RA BR BKN003 OVC010 01/M01 A2954 RERA RMK SF6SC2 VIS SE 11/2 SLP008

CYQB;2008-04-01 19:47;CYQB 011947Z 07006G15KT 1 1/2SM -RA BR BKN003 OVC010 01/ RERA RMK FG2SF5SC2

CYQB;2008-04-01 20:00;CYQB 012000Z 06009KT 1 1/4SM R06/6000FT/D -RA BR BKN002 OVC010 01/M01 A2951 RERA RMK FG2SF5SC2 SLP998

CYQB;2008-04-01 21:00;CYQB 012100Z 08004KT 1SM R06/P6000FT/D -RA BR OVC002 01/M01 A2950 RMK FG3SF5 SLP993

CYQB;2008-04-01 22:00;CYQB 012200Z 05005KT 3/4SM R06/P6000FT/N -RA BR OVC002 01/M01 A2947 RMK FG2SF6 SLP983

CYQB;2008-04-01 22:36;CYQB 012236Z 08005KT 1SM R06/P6000FT/U BR OVC002 01/ RMK FG2SF6

CYQB;2008-04-01 23:00;CYQB 012300Z 07007KT 1 1/2SM BR BKN002 OVC005 01/M01 A2945 RMK SF6SC2 SLP978

CYQB;2008-04-02 00:00;CYQB 020000Z 06005KT 4SM BR BKN002 BKN007 OVC042 01/M01 A2944 RMK SF5SF2SC2 VIS SE 2 FG SLP971

CYQB;2008-04-02 01:00;CYQB 020100Z 04004KT 1 1/2SM BR BKN004 OVC045 01/M01 A2943 RMK FG5SF2SC1 SLP970

CYQB;2008-04-02 02:00;CYQB 020200Z 00000KT 4SM R06/2400VP6000FT/N BR FEW004 BKN045 BKN120 00/M01 A2942 RMK SF2SC2AC2 VIS SE 2 SLP965

CYQB;2008-04-02 03:00;CYQB 020300Z 23030KT 8SM FEW004 BKN038 06/M01 A2942 RMK SF2SC5 SLP965

CYQB;2008-04-02 04:00;CYQB 020400Z 24023G28KT 15SM BKN053 04/M02 A2946 RMK SC6 SLP979

CYQB;2008-04-02 05:00;CYQB 020500Z 24026G35KT 15SM FEW020 BKN044 03/M02 A2947 RMK SC2SC6 SLP983

CYQB;2008-04-02 05:34;CYQB 020534Z 24030G38KT 8SM -SHSN OVC046 03/ RMK SC8

CYQB;2008-04-02 06:00;CYQB 020600Z 24031G39KT 8SM -SHSN OVC054 03/M03 A2948 RMK SC8 SLP985

CYQB;2008-04-02 06:06;CYQB 020606Z 24028G39KT 8SM -SHSN OVC040 02/ RMK SC8

CYQB;2008-04-02 07:00;CYQB 020700Z 27025G36KT 4SM -SHSN OVC022 01/M03 A2952 RMK SC8 VIS E-SE 2 SLP999

CYQB;2008-04-02 08:00;CYQB 020800Z 28025G35KT 6SM -SHSN OVC033 M01/M05 A2959 RMK SC8 SLP022

CYQB;2008-04-02 09:00;CYQB 020900Z 28023G34KT 15SM OVC033 M02/M08 A2967 RMK SC8 SLP051

CYQB;2008-04-02 10:00;CYQB 021000Z CCA 27022G34KT 15SM FEW028 FEW150 M05/M11 A2977 RMK SC2AC1 PAST HR G45 PRESRR SLP083

CYQB;2008-04-02 11:00;CYQB 021100Z 27020G26KT 25SM FEW030 FEW150 M06/M12 A2981 RMK SC2AC1 SLP098

CYQB;2008-04-02 12:00;CYQB 021200Z 27014G28KT 30SM FEW040 M05/M11 A2986 RMK CU2 SLP115

CYQB;2008-04-02 13:00;CYQB 021300Z 27023KT 30SM BKN032 M05/M11 A2991 RMK SC6 SLP133

CYQB;2008-04-02 14:00;CYQB 021400Z 28024G32KT 30SM SCT036 M04/M11 A2994 RMK SC4 SLP141

CYQB;2008-04-02 15:00;CYQB 021500Z 27019G27KT 30SM FEW036 M03/M11 A2996 RMK SC1 SLP149

CYQB;2008-04-02 16:00;CYQB 021600Z 27024G32KT 30SM FEW038 M02/M11 A2997 RMK SC1 SLP154

CYQB;2008-04-02 17:00;CYQB 021700Z 29022G31KT 30SM FEW038 M02/M11 A2998 RMK SC1 SLP157

CYQB;2008-04-02 18:00;CYQB 021800Z 27022G31KT 30SM FEW035 M01/M10 A3000 RMK SC1 SLP162

CYQB;2008-04-02 19:00;CYQB 021900Z 30019G34KT 30SM FEW035 M00/M11 A3001 RMK SC1 SLP167

CYQB;2008-04-02 20:00;CYQB 022000Z 29022G30KT 30SM FEW035 FEW080 M00/M12 A3003 RMK SC1AC1 SLP171

CYQB;2008-04-02 21:00;CYQB 022100Z 28027G36KT 30SM FEW040 FEW080 M01/M13 A3005 RMK SC1AC1 SLP179

CYQB;2008-04-02 22:00;CYQB 022200Z 28029G36KT 30SM FEW040 FEW080 FEW230 M01/M12 A3007 RMK SC1AC1CI1 SLP187

CYQB;2008-04-02 23:00;CYQB 022300Z 29021G31KT 30SM FEW060 M02/M12 A3011 RMK SC2 SLP199

CYQB;2008-04-03 00:00;CYQB 030000Z 30015G20KT 30SM FEW060 M02/M12 A3014 RMK SC2 SLP209

CYQB;2008-04-03 01:00;CYQB 030100Z 29018G24KT 15SM FEW060 M02/M11 A3016 RMK CU2 SLP218

CYQB;2008-04-03 02:00;CYQB 030200Z 29013G20KT 15SM FEW060 M03/M12 A3018 RMK CU2 SLP225

CYQB;2008-04-03 03:00;CYQB 030300Z 30018G24KT 15SM FEW060 M03/M12 A3020 RMK CU2 SLP232

CYQB;2008-04-03 04:00;CYQB 030400Z 28013G20KT 15SM FEW060 M04/M12 A3023 RMK CU1 SLP240

CYQB;2008-04-03 05:00;CYQB 030500Z 25011KT 15SM SKC M05/M12 A3025 RMK SLP246

CYQB;2008-04-03 06:00;CYQB 030600Z 25009KT 15SM SKC M06/M12 A3026 RMK SLP251

CYQB;2008-04-03 07:00;CYQB 030700Z 28005KT 15SM SKC M07/M12 A3026 RMK SLP252

CYQB;2008-04-03 08:00;CYQB 030800Z 21004KT 15SM SKC M08/M13 A3025 RMK SLP248

CYQB;2008-04-03 09:00;CYQB 030900Z 23008KT 15SM FEW250 M07/M12 A3025 RMK CI0 SLP247

CYQB;2008-04-03 10:00;CYQB 031000Z 22007KT 15SM FEW040 FEW250 M07/M12 A3024 RMK SC1CI0 SLP245

CYQB;2008-04-03 11:00;CYQB 031100Z 22006KT 30SM FEW040 M07/M12 A3024 RMK SC1 SLP246

CYQB;2008-04-03 12:00;CYQB 031200Z 23013KT 30SM FEW040 SCT240 M05/M11 A3025 RMK SC1CI3 SLP247

CYQB;2008-04-03 13:00;CYQB 031300Z 25014KT 30SM OVC054 M03/M09 A3024 RMK SC6 SLP245

CYQB;2008-04-03 14:00;CYQB 031400Z 26015G20KT 30SM FEW060 M01/M07 A3023 RMK SC2 SLP242

CYQB;2008-04-03 15:00;CYQB 031500Z 24020KT 30SM FEW060 FEW160 00/M07 A3022 RMK SC1AS1 SLP237

CYQB;2008-04-03 16:00;CYQB 031600Z 24020KT 30SM FEW060 FEW160 01/M06 A3020 RMK SC1AS1 SLP232

CYQB;2008-04-03 17:00;CYQB 031700Z 24019G26KT 30SM FEW060 FEW210 02/M06 A3017 RMK SC1CS1 SLP220

CYQB;2008-04-03 18:00;CYQB 031800Z 25020G25KT 30SM FEW050 FEW210 03/M05 A3016 RMK CU1CS1 SLP218

CYQB;2008-04-03 19:00;CYQB 031900Z 25018KT 30SM FEW065 FEW210 04/M05 A3014 RMK CU1CS1 SLP209

CYQB;2008-04-03 20:00;CYQB 032000Z 25019G24KT 30SM FEW078 SCT210 04/M05 A3011 RMK AC2CI1 SLP201

CYQB;2008-04-03 21:00;CYQB 032100Z 26018KT 30SM SCT064 BKN210 04/M04 A3010 RMK SC3CS2 SLP197

CYQB;2008-04-03 22:00;CYQB 032200Z 25019G25KT 30SM FEW064 BKN210 04/M04 A3010 RMK SC2CS2 SLP197

CYQB;2008-04-03 23:00;CYQB 032300Z 26015KT 30SM SCT075 BKN180 03/M04 A3011 RMK AC3CS2 SLP202

CYQB;2008-04-04 00:00;CYQB 040000Z 25014KT 15SM SCT075 BKN200 03/M05 A3012 RMK AC3CS2 SLP204

CYQB;2008-04-04 01:00;CYQB 040100Z 25013KT 15SM FEW080 02/M05 A3013 RMK AC2 SLP206

CYQB;2008-04-04 02:00;CYQB 040200Z 23010KT 15SM SCT080 02/M06 A3014 RMK AC3 SLP210

CYQB;2008-04-04 03:00;CYQB 040300Z 23008KT 15SM BKN096 02/M05 A3014 RMK AC6 SLP210

CYQB;2008-04-04 04:00;CYQB 040400Z 23007KT 15SM FEW090 SCT250 01/M06 A3014 RMK AC2CI0 SLP209

CYQB;2008-04-04 05:00;CYQB 040500Z 23008KT 15SM SCT090 BKN220 00/M07 A3014 RMK AC3CI0 SLP209

CYQB;2008-04-04 06:00;CYQB 040600Z 25007KT 15SM SCT080 SCT220 M01/M07 A3013 RMK AC3CI0 SLP206

CYQB;2008-04-04 07:00;CYQB 040700Z 25003KT 15SM FEW090 M02/M08 A3012 RMK AC1 SLP204

CYQB;2008-04-04 08:00;CYQB 040800Z 25006KT 15SM SKC M03/M08 A3011 RMK SLP201

CYQB;2008-04-04 09:00;CYQB 040900Z 25008KT 15SM SKC M02/M09 A3011 RMK SLP200

CYQB;2008-04-04 10:00;CYQB 041000Z 22004KT 25SM FEW230 M04/M10 A3011 RMK CI1 SLP198

CYQB;2008-04-04 11:00;CYQB 041100Z 10003KT 30SM BKN240 M03/M10 A3012 RMK CI2 SLP204

CYQB;2008-04-04 12:00;CYQB 041200Z 04002KT 25SM BKN240 M01/M08 A3012 RMK CI2 SLP202

CYQB;2008-04-04 13:00;CYQB 041300Z 34002KT 15SM BKN240 M00/M07 A3012 RMK CI2 SLP203

CYQB;2008-04-04 14:00;CYQB 041400Z 12002KT 15SM BKN200 02/M06 A3010 RMK CI2 SLP197

CYQB;2008-04-04 15:00;CYQB 041500Z 15002KT 15SM SCT180 BKN210 04/M07 A3007 RMK AS4CI2 SLP187

CYQB;2008-04-04 16:00;CYQB 041600Z 03004KT 15SM BKN170 OVC210 05/M07 A3003 RMK AS6CI2 SLP173

CYQB;2008-04-04 17:00;CYQB 041700Z 00000KT 15SM OVC140 05/M08 A3001 RMK AC8 SLP166

CYQB;2008-04-04 18:00;CYQB 041800Z 00000KT 15SM OVC120 05/M05 A3000 RMK AC8 SLP161

CYQB;2008-04-04 19:00;CYQB 041900Z 03004KT 15SM OVC074 05/M06 A2993 RMK AC8 PRESFR SLP140

CYQB;2008-04-04 20:00;CYQB 042000Z 15003KT 10SM OVC066 04/M04 A2991 RMK AC8 SLP132

CYQB;2008-04-04 21:00;CYQB 042100Z 18005KT 15SM OVC055 04/M02 A2990 RMK SC8 SLP129

CYQB;2008-04-04 22:00;CYQB 042200Z 16004KT 15SM -RA BKN018 OVC050 03/M02 A2990 RMK SC6SC2 SLP130

CYQB;2008-04-04 23:00;CYQB 042300Z 12008KT 10SM -RA OVC013 02/M01 A2988 RMK SC8 SLP123

CYQB;2008-04-04 23:42;CYQB 042342Z 11007KT 3SM -RA OVC007 02/ RMK NS8

CYQB;2008-04-05 00:00;CYQB 050000Z 09004KT 4SM -RA OVC009 02/M01 A2988 RMK NS8 SLP123

CYQB;2008-04-05 01:00;CYQB 050100Z 06007KT 6SM -RASN BKN008 OVC013 01/M01 A2987 RMK SF5NS3 SLP118

CYQB;2008-04-05 02:00;CYQB 050200Z 06007KT 1 1/2SM -SN OVC004 01/M01 A2986 RMK SF8 SLP115

CYQB;2008-04-05 03:00;CYQB 050300Z 07007KT 1 1/2SM -SN OVC006 01/M01 A2983 RMK SF8 SLP105

CYQB;2008-04-05 04:00;CYQB 050400Z 07013KT 1 1/2SM -SN OVC009 01/M01 A2982 RMK SF8 SLP102

CYQB;2008-04-05 05:00;CYQB 050500Z 07015KT 1SM R06/P6000FT/U -SN OVC007 01/M01 A2981 RMK SF8 SLP097

CYQB;2008-04-05 06:00;CYQB 050600Z 07010KT 1SM R06/P6000FT/D -SN OVC004 01/M02 A2981 RMK SN5SF3 /S01/ SLP096

CYQB;2008-04-05 07:00;CYQB 050700Z 07012KT 3SM -SN OVC003 01/M02 A2979 RMK SF8 SLP091

CYQB;2008-04-05 08:00;CYQB 050800Z 08013KT 4SM -SN BKN003 OVC010 01/M01 A2978 RMK SF6SC2 SLP089

CYQB;2008-04-05 09:00;CYQB 050900Z 07010G15KT 4SM -SN BKN005 OVC025 01/M01 A2980 RMK SF6SC2 /S01/ SLP094

CYQB;2008-04-05 09:25;CYQB 050925Z 07011KT 5SM -RASN BKN005 OVC025 01/ RMK SF6SC2

CYQB;2008-04-05 10:00;CYQB 051000Z 07012KT 4SM -RASN BKN004 OVC020 01/M01 A2982 RMK SF7SC1 SLP101

CYQB;2008-04-05 10:44;CYQB 051044Z 07012KT 3SM -SN OVC003 01/ RMK SF8

CYQB;2008-04-05 11:00;CYQB 051100Z 07010KT 2SM -SN BKN004 OVC022 01/M01 A2983 RMK SF7SC1 SLP105

CYQB;2008-04-05 12:00;CYQB 051200Z 07007KT 2SM -SN BKN004 OVC007 01/M01 A2986 RMK SF6SF2 SLP113

CYQB;2008-04-05 13:00;CYQB 051300Z 07004KT 3SM -RASN OVC003 01/M01 A2989 RMK SF8 SLP124

CYQB;2008-04-05 14:00;CYQB 051400Z 07004KT 2SM -RASN OVC004 01/M01 A2991 RMK SF8 SLP131

CYQB;2008-04-05 15:00;CYQB 051500Z 07006KT 3SM -RA BKN007 OVC020 02/M00 A2993 RMK SF6SC2 SLP140

CYQB;2008-04-05 16:00;CYQB 051600Z 09005KT 8SM BKN008 OVC025 02/00 A2995 RMK SF5SC3 SLP146

CYQB;2008-04-05 17:00;CYQB 051700Z 14004KT 8SM BKN008 BKN011 OVC060 03/00 A2998 RMK SF6SC1SC1 VIS N 3 SLP155

CYQB;2008-04-05 17:38;CYQB 051738Z 13004KT 15SM BKN010 BKN025 OVC060 03/ RMK SF6SC1SC1 VIS N 4

CYQB;2008-04-05 18:00;CYQB 051800Z 13004KT 12SM BKN010 BKN030 OVC060 03/M00 A3000 RMK SF6SC1SC1 SLP163

CYQB;2008-04-05 19:00;CYQB 051900Z 12004KT 20SM BKN012 OVC021 03/M00 A3003 RMK SF5SC3 SLP171

CYQB;2008-04-05 20:00;CYQB 052000Z 10004KT 20SM FEW013 OVC019 03/M00 A3004 RMK SF2SC6 SLP176

CYQB;2008-04-05 21:00;CYQB 052100Z 08005KT 20SM OVC020 03/M01 A3007 RMK SC8 SLP185

CYQB;2008-04-05 22:00;CYQB 052200Z 08005KT 15SM BKN024 03/M01 A3009 RMK SC6 SLP194

CYQB;2008-04-05 23:00;CYQB 052300Z 07007KT 15SM BKN021 02/M01 A3012 RMK SC6 SLP202

CYQB;2008-04-06 00:00;CYQB 060000Z 07006KT 15SM BKN025 02/M01 A3017 RMK SC7 SLP220

CYQB;2008-04-06 01:00;CYQB 060100Z 07003KT 15SM OVC028 02/M01 A3021 RMK SC8 SLP233

CYQB;2008-04-06 02:00;CYQB 060200Z 06003KT 15SM OVC028 02/M01 A3022 RMK SC8 SLP238

CYQB;2008-04-06 03:00;CYQB 060300Z 05004KT 15SM OVC029 02/M01 A3024 RMK SC8 SLP245

CYQB;2008-04-06 04:00;CYQB 060400Z 02003KT 8SM OVC029 01/M01 A3026 RMK SC8 HAZY SLP252

CYQB;2008-04-06 05:00;CYQB 060500Z 08003KT 8SM BKN028 01/M01 A3028 RMK SC7 HAZY SLP259

CYQB;2008-04-06 06:00;CYQB 060600Z 05002KT 8SM BKN027 01/M01 A3030 RMK SC7 SLP266

CYQB;2008-04-06 07:00;CYQB 060700Z 07003KT 6SM BR BKN027 01/M01 A3031 RMK SC5 SLP268

CYQB;2008-04-06 08:00;CYQB 060800Z 03004KT 5SM BR SCT027 01/M02 A3033 RMK SC3 SLP275

CYQB;2008-04-06 09:00;CYQB 060900Z 05004KT 5SM BR FEW004 SCT027 00/M02 A3034 RMK SF1SC2 SLP277

CYQB;2008-04-06 10:00;CYQB 061000Z 07007KT 5SM BR SCT003 BKN026 00/M02 A3036 RMK SF3SC1 SLP284

CYQB;2008-04-06 11:00;CYQB 061100Z CCA 08007KT 5SM BR OVC003 01/M02 A3039 RMK SF5 SLP295

CYQB;2008-04-06 12:00;CYQB 061200Z 08008KT 5SM BR OVC002 01/M01 A3041 RMK SF6 VIS HIER N QUAD SLP303

CYQB;2008-04-06 12:26;CYQB 061226Z 07008KT 6SM BR OVC005 01/ RMK SF7

CYQB;2008-04-06 13:00;CYQB 061300Z 07008KT 10SM BKN006 OVC021 02/M01 A3043 RMK SF6SC1 HAZY SLP309

CYQB;2008-04-06 13:22;CYQB 061322Z 07009KT 12SM SCT006 OVC022 02/ RMK SF3SC5

CYQB;2008-04-06 14:00;CYQB 061400Z 07009KT 15SM FEW006 OVC023 03/M00 A3044 RMK SF1SC7 SLP313

CYQB;2008-04-06 15:00;CYQB 061500Z 07010KT 15SM FEW006 SCT024 BKN070 04/M00 A3045 RMK SF1SC3AC4 SLP314

CYQB;2008-04-06 16:00;CYQB 061600Z 06009KT 15SM FEW006 BKN026 BKN070 04/M00 A3046 RMK SF1SC4AC2 SLP317

CYQB;2008-04-06 17:00;CYQB 061700Z 08008KT 20SM BKN025 04/M00 A3046 RMK SC7 SLP317

CYQB;2008-04-06 18:00;CYQB 061800Z 07007KT 20SM BKN029 05/M00 A3046 RMK SC7 SLP317

CYQB;2008-04-06 19:00;CYQB 061900Z 08013KT 20SM BKN034 05/M00 A3046 RMK SC7 SLP319

CYQB;2008-04-06 20:00;CYQB 062000Z 08010G15KT 20SM BKN032 05/M00 A3046 RMK SC6 SLP319

CYQB;2008-04-06 21:00;CYQB 062100Z 08011KT 20SM BKN034 05/M00 A3046 RMK SC4 SLP318

CYQB;2008-04-06 22:00;CYQB 062200Z 08008G15KT 20SM FEW034 05/M01 A3045 RMK SC2 SLP316

CYQB;2008-04-06 23:00;CYQB 062300Z 07009KT 20SM BKN034 04/M01 A3046 RMK SC7 SLP317

CYQB;2008-04-07 00:00;CYQB 070000Z 06009G15KT 15SM BKN034 03/M01 A3047 RMK SC7 SLP320

CYQB;2008-04-07 01:00;CYQB 070100Z 07007KT 15SM BKN033 02/M01 A3047 RMK SC7 SLP323

CYQB;2008-04-07 02:00;CYQB 070200Z 07010KT 15SM BKN033 02/M01 A3048 RMK SC7 SLP324

CYQB;2008-04-07 03:00;CYQB 070300Z 07009KT 15SM BKN030 03/M01 A3049 RMK SC7 SLP328

CYQB;2008-04-07 04:00;CYQB 070400Z 07007KT 15SM BKN030 03/M01 A3049 RMK SC7 SLP327

CYQB;2008-04-07 05:00;CYQB 070500Z 05007KT 15SM BKN030 02/M01 A3049 RMK SC7 SLP329

CYQB;2008-04-07 06:00;CYQB 070600Z 07008KT 15SM BKN037 02/M01 A3047 RMK SC7 SLP323

CYQB;2008-04-07 07:00;CYQB 070700Z 07007KT 15SM FEW040 02/M01 A3047 RMK SC2 SLP323

CYQB;2008-04-07 08:00;CYQB 070800Z 08009KT 15SM FEW040 02/M01 A3047 RMK SC2 SLP323

CYQB;2008-04-07 09:00;CYQB 070900Z 09007KT 15SM FEW040 01/M02 A3048 RMK SC1 SLP325

CYQB;2008-04-07 10:00;CYQB 071000Z 07011KT 30SM FEW220 02/M02 A3049 RMK CI1 SLP327

CYQB;2008-04-07 11:00;CYQB 071100Z 07009KT 30SM FEW220 02/M01 A3050 RMK CI1 SLP332

CYQB;2008-04-07 12:00;CYQB 071200Z 08009KT 30SM BKN220 02/M01 A3051 RMK CI2 SLP334

CYQB;2008-04-07 13:00;CYQB 071300Z 08010KT 30SM BKN220 03/M02 A3051 RMK CI2 SLP335

CYQB;2008-04-07 14:00;CYQB 071400Z 07009KT 30SM BKN220 04/M02 A3052 RMK CI2 SLP337

CYQB;2008-04-07 15:00;CYQB 071500Z 08012KT 30SM SCT220 05/M03 A3050 RMK CI1 SLP331

CYQB;2008-04-07 16:00;CYQB 071600Z 09011KT 30SM FEW220 05/M03 A3049 RMK CI1 SLP327

CYQB;2008-04-07 17:00;CYQB 071700Z 08011KT 30SM FEW220 06/M03 A3047 RMK CI1 SLP320

CYQB;2008-04-07 18:00;CYQB 071800Z 09009G16KT 30SM FEW220 06/M03 A3046 RMK CI0 SLP317

CYQB;2008-04-07 19:00;CYQB 071900Z 09009KT 30SM SKC 07/M03 A3044 RMK SLP312

CYQB;2008-04-07 20:00;CYQB 072000Z 08010G15KT 30SM SKC 06/M02 A3042 RMK SLP305

CYQB;2008-04-07 21:00;CYQB 072100Z 08006KT 30SM SKC 06/M03 A3041 RMK SLP301

CYQB;2008-04-07 22:00;CYQB 072200Z 09007KT 30SM FEW220 05/M03 A3040 RMK CI1 SLP299

CYQB;2008-04-07 23:00;CYQB 072300Z 08006KT 30SM FEW220 04/M03 A3040 RMK CI0 SLP299

CYQB;2008-04-08 00:00;CYQB 080000Z 08007KT 15SM FEW220 03/M03 A3041 RMK CI0 SLP300

CYQB;2008-04-08 01:00;CYQB 080100Z 07008KT 15SM FEW220 02/M03 A3042 RMK CI1 SLP304

CYQB;2008-04-08 02:00;CYQB 080200Z 08007KT 15SM FEW220 02/M03 A3041 RMK CI1 SLP303

CYQB;2008-04-08 03:00;CYQB 080300Z 07009KT 15SM FEW220 02/M03 A3042 RMK CI1 SLP304

CYQB;2008-04-08 04:00;CYQB 080400Z 08007KT 15SM FEW220 02/M03 A3041 RMK CI1 SLP301

CYQB;2008-04-08 05:00;CYQB 080500Z 08008KT 15SM FEW220 01/M03 A3042 RMK CI2 SLP304

CYQB;2008-04-08 06:00;CYQB 080600Z 08007KT 15SM BKN250 01/M03 A3041 RMK CI5 SLP301

CYQB;2008-04-08 07:00;CYQB 080700Z 07008KT 15SM OVC250 01/M04 A3040 RMK CI8 SLP297

CYQB;2008-04-08 08:00;CYQB 080800Z 08007KT 15SM BKN250 01/M04 A3039 RMK CI5 SLP295

CYQB;2008-04-08 09:00;CYQB 080900Z 07008KT 15SM FEW250 01/M04 A3039 RMK CI1 SLP293

CYQB;2008-04-08 11:00;CYQB 081100Z 07005KT 30SM SCT250 M00/M04 A3039 RMK CI2 SLP294

CYQB;2008-04-08 12:00;CYQB 081200Z 08008KT 30SM FEW250 02/M04 A3039 RMK CI1 SLP293

CYQB;2008-04-08 13:00;CYQB 081300Z 07007KT 30SM BKN210 03/M03 A3038 RMK CI4 SLP291

CYQB;2008-04-08 14:00;CYQB 081400Z 07009KT 30SM FEW180 BKN210 04/M04 A3036 RMK AC1CI2 SLP284

CYQB;2008-04-08 15:00;CYQB 081500Z 07009KT 30SM FEW180 OVC210 05/M04 A3035 RMK AC2CI6 SLP280

CYQB;2008-04-08 16:00;CYQB 081600Z 06007KT 30SM FEW180 BKN210 07/M05 A3033 RMK AC2CI4 SLP274

CYQB;2008-04-08 17:00;CYQB 081700Z 04007KT 30SM FEW150 BKN210 08/M04 A3031 RMK AC2CI1 SLP268

CYQB;2008-04-08 18:00;CYQB 081800Z 06009KT 30SM SCT150 BKN210 08/M04 A3030 RMK AC3CI1 SLP264

CYQB;2008-04-08 19:00;CYQB 081900Z 06006KT 30SM FEW040 FEW095 BKN150 08/M04 A3028 RMK SC1AC2AS5 SLP258

CYQB;2008-04-08 20:00;CYQB 082000Z 08004KT 30SM SCT069 BKN085 OVC150 06/M03 A3026 RMK AC3AC2AS2 SLP251

CYQB;2008-04-08 21:00;CYQB 082100Z 03002KT 30SM SCT057 BKN089 OVC150 07/M03 A3028 RMK SC3AC2AS3 SLP255

CYQB;2008-04-08 22:00;CYQB 082200Z 09003KT 30SM BKN056 BKN120 06/M04 A3027 RMK SC5AC2 SLP253

CYQB;2008-04-08 23:00;CYQB 082300Z 00000KT 30SM BKN057 BKN120 06/M03 A3025 RMK SC6AC1 SLP247

CYQB;2008-04-09 00:00;CYQB 090000Z 04003KT 15SM BKN052 06/M02 A3026 RMK SC7 SLP249

CYQB;2008-04-09 01:00;CYQB 090100Z 05006KT 15SM BKN059 04/M03 A3027 RMK SC6 SLP252

CYQB;2008-04-09 02:00;CYQB 090200Z 10003KT 15SM BKN061 04/M03 A3027 RMK SC6 SLP252

CYQB;2008-04-09 03:00;CYQB 090300Z 04004KT 15SM FEW058 FEW085 03/M03 A3027 RMK SC1AC2 SLP252

CYQB;2008-04-09 04:00;CYQB 090400Z 06004KT 15SM FEW053 FEW085 02/M02 A3026 RMK SC1AC1 SLP251

CYQB;2008-04-09 05:00;CYQB 090500Z 04005KT 15SM FEW220 02/M02 A3026 RMK CI0 SLP249

CYQB;2008-04-09 06:00;CYQB 090600Z 04003KT 15SM SCT055 01/M02 A3025 RMK SC2 SLP247

CYQB;2008-04-09 07:00;CYQB 090700Z 04004KT 15SM SKC 01/M03 A3025 RMK SLP246

CYQB;2008-04-09 08:00;CYQB 090800Z 05002KT 15SM FEW200 00/M03 A3025 RMK CI1 SLP246

CYQB;2008-04-09 09:00;CYQB 090900Z 05004KT 15SM FEW200 00/M03 A3024 RMK CI2 SLP242

CYQB;2008-04-09 10:00;CYQB 091000Z 03004KT 20SM FEW060 FEW120 FEW220 M00/M04 A3024 RMK SC1AC1CI1 SLP243

CYQB;2008-04-09 11:00;CYQB 091100Z 03004KT 30SM BKN110 OVC220 01/M03 A3025 RMK AC5CI1 SLP245

CYQB;2008-04-09 12:00;CYQB 091200Z 05004KT 30SM FEW080 BKN120 OVC220 03/M03 A3024 RMK AC1AC5CI2 SLP244

CYQB;2008-04-09 13:00;CYQB 091300Z 08004KT 30SM FEW120 OVC210 03/M02 A3023 RMK AC2CI3 SLP240

CYQB;2008-04-09 14:00;CYQB 091400Z 05007KT 30SM FEW120 OVC210 05/M03 A3022 RMK AC1CS2 SLP235

CYQB;2008-04-09 15:00;CYQB 091500Z 06005KT 30SM BKN220 06/M03 A3020 RMK CI2 SLP229

CYQB;2008-04-09 16:00;CYQB 091600Z 03004KT 30SM SCT250 08/M03 A3018 RMK CI2 SLP224

CYQB;2008-04-09 17:00;CYQB 091700Z 07006KT 30SM FEW250 09/M03 A3014 RMK CI2 SLP209

CYQB;2008-04-09 18:00;CYQB 091800Z 08007KT 30SM FEW250 10/M02 A3010 RMK CI1 SLP195

CYQB;2008-04-09 19:00;CYQB 091900Z 05005KT 30SM FEW250 11/M02 A3008 RMK CI1 SLP187

CYQB;2008-04-09 20:00;CYQB 092000Z 09005KT 15SM BKN230 09/M02 A3003 RMK CI2 SLP171

CYQB;2008-04-09 21:00;CYQB 092100Z 06006KT 15SM SCT190 BKN230 08/M01 A2999 RMK AC2CI2 SLP157

CYQB;2008-04-09 22:00;CYQB 092200Z 06006KT 15SM SCT180 BKN230 07/M03 A2999 RMK AC2CI2 SLP157

CYQB;2008-04-09 23:00;CYQB 092300Z 05006KT 15SM BKN150 BKN230 06/M03 A2997 RMK AC4CI3 SLP150

CYQB;2008-04-10 00:00;CYQB 100000Z 07006KT 15SM BKN100 OVC230 05/M02 A2995 RMK AC5CI3 SLP145

CYQB;2008-04-10 00:34;CYQB 100034Z 04005KT 15SM -SHRA OVC060 04/ RMK SC8

CYQB;2008-04-10 01:00;CYQB 100100Z 05007KT 15SM OVC062 04/M01 A2995 RMK SC8 SLP144

CYQB;2008-04-10 02:00;CYQB 100200Z 01003KT 15SM OVC066 04/M01 A2994 RMK AC8 SLP142

CYQB;2008-04-10 03:00;CYQB 100300Z 12004KT 15SM BKN070 BKN095 03/M00 A2992 RMK AC6AC2 SLP133

CYQB;2008-04-10 04:00;CYQB 100400Z 06002KT 15SM BKN081 03/M00 A2988 RMK AC6 SLP122

CYQB;2008-04-10 05:00;CYQB 100500Z 00000KT 15SM BKN055 BKN080 03/00 A2988 RMK SC5AC2 SLP122

CYQB;2008-04-10 06:00;CYQB 100600Z 00000KT 15SM FEW055 BKN065 03/00 A2987 RMK SC2SC2 SLP118

CYQB;2008-04-10 07:00;CYQB 100700Z 35003KT 15SM FEW035 FEW065 03/M00 A2985 RMK SC1SC1 SLP110

CYQB;2008-04-10 08:00;CYQB 100800Z 24015KT 15SM BKN039 07/03 A2985 RMK SC7 SLP112

CYQB;2008-04-10 09:00;CYQB 100900Z 25022G29KT 15SM BKN038 05/01 A2986 RMK SC7 SLP115

CYQB;2008-04-10 10:00;CYQB 101000Z 25008KT 15SM BKN054 04/01 A2989 RMK SC6 SLP123

CYQB;2008-04-10 11:00;CYQB 101100Z 25018G24KT 15SM FEW030 OVC040 04/00 A2991 RMK SC1SC8 SLP132

CYQB;2008-04-10 12:00;CYQB 101200Z 25018KT 15SM FEW030 BKN042 OVC070 04/M00 A2992 RMK SC1SC6AC2 SLP135

CYQB;2008-04-10 13:00;CYQB 101300Z 25022G28KT 15SM FEW040 BKN060 OVC093 03/M00 A2992 RMK SC2SC4AC2 SLP136

CYQB;2008-04-10 14:00;CYQB 101400Z 25026G32KT 15SM BKN045 OVC090 04/M01 A2993 RMK SC6AC2 SLP139

CYQB;2008-04-10 15:00;CYQB 101500Z 24020KT 15SM OVC038 04/M01 A2995 RMK SC8 DIST SH NE SLP146

CYQB;2008-04-10 16:00;CYQB 101600Z 28019G25KT 15SM BKN037 04/M02 A2998 RMK SC6 SLP155

CYQB;2008-04-10 17:00;CYQB 101700Z 28020KT 15SM OVC036 04/M02 A2999 RMK SC8 SLP158

CYQB;2008-04-10 18:00;CYQB 101800Z 27016KT 15SM BKN035 BKN085 04/M02 A2999 RMK SC5AC2 SLP159

CYQB;2008-04-10 19:00;CYQB 101900Z 29023G28KT 15SM BKN044 BKN085 04/M02 A3001 RMK SC6AC1 SLP166

CYQB;2008-04-10 20:00;CYQB 102000Z 28016G26KT 15SM BKN045 04/M02 A3003 RMK SC7 SLP171

CYQB;2008-04-10 21:00;CYQB 102100Z 27019KT 15SM BKN048 05/M03 A3004 RMK SC6 SLP174

CYQB;2008-04-10 22:00;CYQB 102200Z 25011KT 15SM BKN049 05/M02 A3005 RMK SC6 SLP179

CYQB;2008-04-10 23:00;CYQB 102300Z 28015KT 15SM BKN045 04/M02 A3008 RMK SC6 SLP187

CYQB;2008-04-11 00:00;CYQB 110000Z 28016KT 15SM BKN040 04/M02 A3010 RMK SC5 SLP196

CYQB;2008-04-11 01:00;CYQB 110100Z 29015G20KT 15SM SCT040 04/M02 A3012 RMK SC4 SLP203

CYQB;2008-04-11 02:00;CYQB 110200Z 30008KT 15SM BKN037 04/M02 A3011 RMK SC5 SLP201

CYQB;2008-04-11 03:00;CYQB 110300Z 29008KT 15SM BKN035 03/M02 A3011 RMK SC5 SLP201

CYQB;2008-04-11 04:00;CYQB 110400Z 30010G15KT 15SM BKN032 03/M02 A3011 RMK SC6 SLP198

CYQB;2008-04-11 05:00;CYQB 110500Z 29009KT 15SM BKN034 02/M02 A3011 RMK SC6 SLP200

CYQB;2008-04-11 06:00;CYQB 110600Z 31006KT 15SM BKN032 02/M02 A3011 RMK SC6 SLP198

CYQB;2008-04-11 07:00;CYQB 110700Z 32004KT 15SM BKN033 02/M03 A3008 RMK SC6 SLP190

CYQB;2008-04-11 08:00;CYQB 110800Z 34007G16KT 15SM BKN033 02/M04 A3009 RMK SC6 SLP194

CYQB;2008-04-11 09:00;CYQB 110900Z 31005KT 15SM BKN028 01/M03 A3011 RMK SC7 SLP201

CYQB;2008-04-11 10:00;CYQB 111000Z 26010KT 50SM BKN031 01/M03 A3012 RMK SC7 SLP204

CYQB;2008-04-11 11:00;CYQB 111100Z 27008KT 50SM BKN030 01/M03 A3012 RMK SC7 SLP203

CYQB;2008-04-11 12:00;CYQB 111200Z 26008KT 30SM BKN032 01/M03 A3014 RMK SC7 SLP209

CYQB;2008-04-11 13:00;CYQB 111300Z 32008KT 30SM BKN031 BKN220 03/M03 A3013 RMK SC6CI0 SLP205

CYQB;2008-04-11 14:00;CYQB 111400Z 32008KT 50SM BKN033 BKN220 03/M04 A3010 RMK SC6CI1 SLP196

CYQB;2008-04-11 15:00;CYQB 111500Z 29006KT 50SM FEW037 BKN210 03/M04 A3008 RMK SC2CS3 SLP190

CYQB;2008-04-11 16:00;CYQB 111600Z 29007KT 50SM FEW038 BKN200 04/M03 A3006 RMK SC2CS2 SLP182

CYQB;2008-04-11 17:00;CYQB 111700Z 31007KT 30SM FEW040 FEW130 OVC250 05/M03 A3004 RMK SC1AC1CS4 SLP175

CYQB;2008-04-11 18:00;CYQB 111800Z 27005KT 15SM FEW040 FEW130 OVC250 05/M04 A2999 RMK SC1AC2CS5 SLP158

CYQB;2008-04-11 19:00;CYQB 111900Z 22010KT 15SM FEW040 SCT130 OVC250 04/M03 A2996 RMK SC2AC2CS4 SLP148

CYQB;2008-04-11 20:00;CYQB 112000Z 22009KT 15SM SCT120 OVC250 04/M03 A2992 RMK AC4CS4 SLP136

CYQB;2008-04-11 21:00;CYQB 112100Z 23007KT 15SM BKN090 OVC250 04/M03 A2991 RMK AC7CS1 SLP132

CYQB;2008-04-11 22:00;CYQB 112200Z 09003KT 15SM FEW060 OVC098 04/M03 A2986 RMK SC2AC6 SLP113

CYQB;2008-04-11 23:00;CYQB 112300Z 35005KT 15SM BKN055 OVC090 04/M03 A2989 RMK SC7AC1 SLP124

CYQB;2008-04-12 00:00;CYQB 120000Z 04004KT 15SM -SHSN BKN065 OVC080 04/M02 A2987 RMK SC7AC1 SLP119

CYQB;2008-04-12 01:00;CYQB 120100Z 25002KT 15SM -SHSN OVC030 03/M02 A2988 RMK SC8 SLP120

CYQB;2008-04-12 02:00;CYQB 120200Z 06008KT 10SM -SHSN OVC020 03/M01 A2989 RMK SC8 SLP124

CYQB;2008-04-12 02:04;CYQB 120204Z 07007KT 10SM -SHSN OVC018 02/ RMK SC8

CYQB;2008-04-12 03:00;CYQB 120300Z 06007KT 10SM -SHSN BKN016 OVC040 01/00 A2987 RMK SC6SC2 SLP118

CYQB;2008-04-12 03:32;CYQB 120332Z 07008KT 6SM -SHSN SCT004 OVC012 01/ RMK SF3SC5

CYQB;2008-04-12 04:00;CYQB 120400Z 07008KT 6SM -SHSN SCT004 BKN007 OVC015 01/01 A2984 RMK SF3SF2SC2 SLP108

CYQB;2008-04-12 04:37;CYQB 120437Z 07013KT 6SM -SHRASN FEW004 BKN008 OVC015 01/ RMK SF2SF3SC2

CYQB;2008-04-12 05:00;CYQB 120500Z 07009G15KT 6SM -SHRASN BR FEW004 BKN007 OVC011 01/01 A2982 RMK SF2SF4SC2 SLP100

CYQB;2008-04-12 05:37;CYQB 120537Z 07012KT 12SM FEW004 BKN016 OVC020 01/ RMK SF2SC5SC1

CYQB;2008-04-12 06:00;CYQB 120600Z 08012KT 12SM FEW005 OVC016 01/01 A2979 RMK SF2SC6 SLP092

CYQB;2008-04-12 07:00;CYQB 120700Z 08015G22KT 15SM FEW012 OVC035 02/00 A2977 RMK SC2SC6 SLP083

CYQB;2008-04-12 08:00;CYQB 120800Z 08016G22KT 15SM BKN010 BKN035 OVC055 02/00 A2973 RMK SF6SC2SC1 SLP070

CYQB;2008-04-12 09:00;CYQB 120900Z 07017G27KT 15SM FEW010 FEW018 OVC039 01/M01 A2968 RMK SF2SC1SC6 SLP053

CYQB;2008-04-12 10:00;CYQB 121000Z 07017G27KT 30SM FEW010 FEW020 OVC034 01/M01 A2964 RMK SF1SC1SC7 DIST SH SW SLP042

CYQB;2008-04-12 10:40;CYQB 121040Z 07020G27KT 30SM -SN FEW010 BKN020 OVC035 01/ RMK SF1SC5SC3 VIS LWR SW

CYQB;2008-04-12 11:00;CYQB 121100Z CCA 07015G27KT 2 1/4SM -SN OVC025 01/M01 A2964 RMK SN2SC6 SLP040

CYQB;2008-04-12 11:11;CYQB 121111Z 07017G25KT 1 1/4SM -SN OVC019 01/ RMK SN4SC4

CYQB;2008-04-12 11:22;CYQB 121122Z 07018G24KT 5/8SM R06/P6000FT/D -SN VV006 00/ RMK SN8

CYQB;2008-04-12 12:00;CYQB 121200Z 06017G24KT 5/8SM R06/4500FT/N -SN BKN005 OVC009 00/M00 A2962 RMK SN4SF2SF2 SLP034

CYQB;2008-04-12 12:24;CYQB 121224Z 07019G24KT 1/2SM R06/4000FT/N SN BKN004 OVC012 00/ RMK SN4SF2SC2

CYQB;2008-04-12 13:00;CYQB 121300Z 07015G22KT 3/8SM R06/2800FT/N SN SCT004 VV011 00/M00 A2960 RMK SF4SN4 /S01/ SLP026

CYQB;2008-04-12 14:00;CYQB 121400Z CCA 06014G22KT 3/8SM R06/2000FT/N SN SCT004 VV009 00/00 A2959 RMK SF4SN4 /S02/ SLP023

CYQB;2008-04-12 14:17;CYQB 121417Z 06014G20KT 1SM R06/4000VP6000FT/U -SN OVC004 00/ RESN RMK SN3SF5

CYQB;2008-04-12 14:26;CYQB 121426Z 07012G19KT 1 3/4SM -SN FEW004 SCT008 VV014 00/ RESN RMK SF2SF2SN4

CYQB;2008-04-12 15:00;CYQB 121500Z 07016G22KT 2SM -SN FEW006 BKN012 OVC025 00/00 A2956 RESN RMK SN2SF1SC5SC1 SLP012

CYQB;2008-04-12 15:30;CYQB 121530Z 08015G22KT 3SM -SN BKN007 OVC017 01/ RMK SN1SF5SC2

CYQB;2008-04-12 16:00;CYQB 121600Z 08017KT 2 1/4SM -SN BKN007 OVC017 00/00 A2955 RMK SN1SF6SC1 SLP010

CYQB;2008-04-12 17:00;CYQB 121700Z 07015KT 3SM -SN BKN006 BKN011 OVC025 01/01 A2953 RMK SN1SF5SF2SC1 SLP003

CYQB;2008-04-12 17:42;CYQB 121742Z 07014G21KT 2SM -SN OVC007 01/ RMK SN1SF7

CYQB;2008-04-12 18:00;CYQB 121800Z 07016G22KT 1 1/2SM -SN OVC005 01/00 A2952 RMK SN2SF6 SLP001

CYQB;2008-04-12 18:13;CYQB 121813Z 07012G19KT 2SM -SN BKN006 OVC012 01/ RMK SN2SF5SC1 VIS VRB 1-3

CYQB;2008-04-12 19:00;CYQB 121900Z 07012G17KT 2SM -SN BKN005 OVC010 01/00 A2952 RMK SN2SF5SC1 VIS VRB 1-3 SLP000

CYQB;2008-04-12 20:00;CYQB 122000Z 06013G19KT 2SM -SN BKN006 OVC009 01/01 A2951 RMK SN2SF4SC2 VIS VRB 1-3 SLP998

CYQB;2008-04-12 21:00;CYQB 122100Z 06012G19KT 1 1/2SM -SN SCT006 VV009 01/00 A2953 RMK SF3SN5 VIS VRB 1-2 SLP003

CYQB;2008-04-12 22:00;CYQB 122200Z 06007KT 1 1/2SM -SN SCT005 BKN008 OVC015 01/00 A2955 RMK SF3SF3SC2 VIS VRB 1-2 SLP010

CYQB;2008-04-12 22:36;CYQB 122236Z 04004KT 1 1/2SM -SN FEW004 SCT008 OVC017 00/ RMK SF2SF2SC5 VIS VRB 1-2

CYQB;2008-04-12 23:00;CYQB 122300Z 03003KT 1 1/2SM -SN FEW004 BKN011 OVC020 01/00 A2957 RMK SN1SF1SC5SC2 SLP017

CYQB;2008-04-12 23:27;CYQB 122327Z 00000KT 1SM R06/P6000FT/N -SN OVC008 00/ RMK SN4SF4

CYQB;2008-04-12 23:48;CYQB 122348Z 18002KT 1SM R06/P6000FT/U -SN BKN004 OVC009 00/ RMK SN1SF6SC2

CYQB;2008-04-13 00:00;CYQB 130000Z 20002KT 1SM R06/P6000FT/D -SN OVC005 00/00 A2960 RMK SN2SF6 SLP026

CYQB;2008-04-13 00:16;CYQB 130016Z 22003KT 1 1/2SM -SN BKN002 OVC010 00/ RMK SF6SC2

CYQB;2008-04-13 01:00;CYQB 130100Z 19003KT 4SM -SN BKN004 BKN014 OVC025 00/00 A2962 RMK SF6SC2SC1 SLP033

CYQB;2008-04-13 01:19;CYQB 130119Z 19004KT 3SM -SN FEW005 OVC016 00/ RMK SF2SC6

CYQB;2008-04-13 02:00;CYQB 130200Z 21003KT 4SM -SN FEW005 OVC028 00/00 A2962 RMK SF2SC6 SLP034

CYQB;2008-04-13 03:00;CYQB 130300Z 20004KT 3SM -SN BR FEW005 OVC032 00/00 A2962 RMK SF2SC6 SLP034

CYQB;2008-04-13 04:00;CYQB 130400Z 21004KT 5SM -SN BR FEW005 OVC035 00/00 A2963 RMK SF2SC6 SLP038

CYQB;2008-04-13 04:48;CYQB 130448Z 20004KT 8SM FEW005 OVC035 00/ RMK SF2SC6

CYQB;2008-04-13 05:00;CYQB 130500Z 22003KT 8SM FEW005 OVC036 00/00 A2961 RMK SF2SC6 SLP032

CYQB;2008-04-13 06:00;CYQB 130600Z 33002KT 15SM FEW005 OVC043 00/M00 A2961 RMK SF2SC6 SLP029

CYQB;2008-04-13 07:00;CYQB 130700Z 00000KT 15SM FEW005 FEW035 BKN085 M00/M00 A2960 RMK SF1SC1AC6 SLP027

CYQB;2008-04-13 08:00;CYQB 130800Z 10002KT 15SM FEW035 BKN055 BKN085 M01/M01 A2960 RMK SC1SC6AC1 SLP028

CYQB;2008-04-13 09:00;CYQB 130900Z 05003KT 15SM FEW005 OVC040 M01/M01 A2960 RMK SF2SC6 SLP026

CYQB;2008-04-13 09:56;CYQB 130956Z 00000KT 1/2SM R06/4000VP6000FT/U FZFG BKN044 M00/ RMK FG3SC4 VIS SW-N 3

CYQB;2008-04-13 10:00;CYQB 131000Z 00000KT 1/2SM R06/P6000FT/D FZFG BKN044 M01/M01 A2960 RMK FG3SC4 VIS NE ET SW 4 SLP028

CYQB;2008-04-13 10:12;CYQB 131012Z 00000KT 6SM PRFG BKN044 M02/ RMK FG2SC6 VIS SW-NW 1/2 BCFG OVR RWY

CYQB;2008-04-13 11:00;CYQB 131100Z 28004KT 10SM FEW010 BKN046 M01/M02 A2961 RMK SF1SC6 DIST BCFG NE-SE SLP029

CYQB;2008-04-13 12:00;CYQB 131200Z 31004KT 10SM FEW010 BKN051 00/M03 A2962 RMK SF1SC7 SLP033

CYQB;2008-04-13 13:00;CYQB 131300Z 27003KT 15SM FEW015 BKN051 01/M02 A2963 RMK SC1SC7 SLP036

CYQB;2008-04-13 13:32;CYQB 131332Z 28002KT 15SM -SHSN FEW010 BKN048 02/ RMK SC1SC7

CYQB;2008-04-13 14:00;CYQB 131400Z 27005KT 15SM -SHSN FEW010 BKN055 BKN230 02/M02 A2964 RMK CU1SC6CI1 SLP039

CYQB;2008-04-13 15:00;CYQB 131500Z 31007KT 15SM FEW015 BKN030 BKN075 BKN230 03/M03 A2964 RMK CF1SC5AC1CI1 SLP039

CYQB;2008-04-13 16:00;CYQB 131600Z 27005KT 15SM BKN036 BKN075 04/M03 A2963 RMK SC6AC1 DIST SHSN E-SW SLP036

CYQB;2008-04-13 17:00;CYQB 131700Z 27004KT 15SM BKN035 BKN230 04/M02 A2961 RMK SC6CI1 TCU ASOCTD SLP031

CYQB;2008-04-13 18:00;CYQB 131800Z 21012KT 15SM BKN040 BKN060 OVC230 04/M02 A2960 RMK SC6SC1CI1 TCU ASOCTD DIST SNSH N SLP028

CYQB;2008-04-13 19:00;CYQB 131900Z 23015KT 15SM FEW035 BKN055 OVC230 04/M02 A2960 RMK SC1SC6CI1 TCU ASOCTD DIST SHSN ALL QUADS SLP028

CYQB;2008-04-13 19:06;CYQB 131906Z 23013G19KT 15SM -SHPL FEW035 BKN047 OVC230 04/ RMK SC1SC6CI1 TCU ASOCTD

CYQB;2008-04-13 19:22;CYQB 131922Z 28015KT 6SM -SHPLSN FEW020 OVC040 03/ RMK SC1SC7 TCU EMBD

CYQB;2008-04-13 20:00;CYQB 132000Z 27007KT 8SM BKN033 OVC230 04/M01 A2961 RMK SC6CI1 TCU EMBD DIST SHSN NW QUAD SLP032

CYQB;2008-04-13 20:05;CYQB 132005Z CCA 28014KT 8SM -SHRA OVC037 03/ RMK SC8 TCU EMBD

CYQB;2008-04-13 21:00;CYQB 132100Z 27011KT 10SM BKN040 BKN070 OVC230 04/01 A2963 RMK SC5AC1CI0 TCU ASOCTD SLP037

CYQB;2008-04-13 21:43;CYQB 132143Z 27012G19KT 15SM -SHRA FEW045 SCT070 BKN230 03/ RMK SC2AC2CI0 TCU ASOCTD

CYQB;2008-04-13 22:00;CYQB 132200Z 27012KT 30SM FEW045 SCT071 BKN230 03/00 A2965 RMK SC2AC2CI1 TCU ASOCTD SLP043

CYQB;2008-04-13 23:00;CYQB 132300Z 25010KT 30SM FEW045 SCT100 OVC230 03/00 A2966 RMK SC1AC3CI2 SLP047

CYQB;2008-04-14 00:00;CYQB 140000Z 31008KT 15SM FEW040 FEW100 BKN230 03/M02 A2968 RMK SC1AC2CI3 SLP055

CYQB;2008-04-14 01:00;CYQB 140100Z 26006KT 15SM BKN073 OVC230 03/M01 A2971 RMK AC5CI1 SLP064

CYQB;2008-04-14 02:00;CYQB 140200Z 25007KT 15SM OVC091 02/M01 A2972 RMK AC6 SLP067

CYQB;2008-04-14 03:00;CYQB 140300Z 10004KT 15SM BKN051 OVC082 01/M00 A2972 RMK SC6AC2 SLP069

CYQB;2008-04-14 04:00;CYQB 140400Z 12003KT 15SM OVC040 01/M01 A2973 RMK SC8 SLP070

CYQB;2008-04-14 05:00;CYQB 140500Z 00000KT 15SM FEW040 FEW150 M00/M01 A2974 RMK SC1AC2 SLP074

CYQB;2008-04-14 06:00;CYQB 140600Z 27003KT 15SM FEW060 M02/M02 A2975 RMK SC2 SLP077

CYQB;2008-04-14 07:00;CYQB 140700Z 19002KT 15SM BKN096 M01/M02 A2976 RMK AC7 SLP082

CYQB;2008-04-14 08:00;CYQB 140800Z 35008KT 15SM SCT090 00/M04 A2978 RMK AC3 SLP088

CYQB;2008-04-14 09:00;CYQB 140900Z 36009KT 15SM FEW040 FEW090 01/M05 A2980 RMK SC1AC2 SLP094

CYQB;2008-04-14 10:00;CYQB 141000Z 34005KT 15SM FEW040 FEW100 00/M06 A2982 RMK SC1AC1 SLP101

CYQB;2008-04-14 11:00;CYQB 141100Z 32006KT 15SM FEW100 FEW230 M00/M06 A2985 RMK AC1CI0 SLP110

CYQB;2008-04-14 12:00;CYQB 141200Z 30005KT 30SM FEW025 FEW230 01/M05 A2987 RMK CF1CI0 SLP118

CYQB;2008-04-14 13:00;CYQB 141300Z 32005KT 30SM FEW030 FEW230 02/M05 A2988 RMK CU1CI1 SLP120

CYQB;2008-04-14 14:00;CYQB 141400Z 30010KT 30SM FEW040 FEW130 FEW230 03/M06 A2989 RMK CU1AC1CI1 SLP123

CYQB;2008-04-14 15:00;CYQB 141500Z 31007G16KT 30SM FEW040 FEW230 04/M07 A2989 RMK CU1CI1 SLP123

CYQB;2008-04-14 16:00;CYQB 141600Z 33013G18KT 30SM FEW045 05/M08 A2989 RMK CU2 SLP123

CYQB;2008-04-14 17:00;CYQB 141700Z 34010G21KT 30SM FEW050 FEW230 06/M08 A2989 RMK CU1CI1 SLP124

CYQB;2008-04-14 18:00;CYQB 141800Z 33012G18KT 30SM FEW065 FEW230 06/M08 A2989 RMK CU2CI1 SLP126

CYQB;2008-04-14 19:00;CYQB 141900Z 34009KT 30SM FEW065 FEW230 07/M06 A2989 RMK CU2CI1 SLP125

CYQB;2008-04-14 20:00;CYQB 142000Z 34015KT 30SM FEW065 FEW230 08/M08 A2989 RMK CU2CI1 SLP124

CYQB;2008-04-14 21:00;CYQB 142100Z 32013KT 30SM FEW065 SCT230 08/M07 A2990 RMK CU1CI0 SLP127

CYQB;2008-04-14 22:00;CYQB 142200Z 34008KT 30SM FEW065 FEW110 BKN230 08/M07 A2992 RMK CU1AS2CI0 SLP134

CYQB;2008-04-14 23:00;CYQB 142300Z 01006KT 30SM FEW065 FEW110 SCT230 07/M07 A2994 RMK CU1AS1CI0 SLP142

CYQB;2008-04-15 00:00;CYQB 150000Z 35003KT 30SM FEW065 FEW230 07/M07 A2996 RMK CU1CI0 SLP148

CYQB;2008-04-15 01:00;CYQB 150100Z 29003KT 15SM SKC 04/M06 A2998 RMK SLP156

CYQB;2008-04-15 02:00;CYQB 150200Z 29004KT 15SM SKC 03/M06 A3000 RMK SLP161

CYQB;2008-04-15 03:00;CYQB 150300Z 29003KT 15SM SKC 04/M06 A3001 RMK SLP166

CYQB;2008-04-15 04:00;CYQB 150400Z 27005KT 15SM SKC 01/M06 A3003 RMK SLP173

CYQB;2008-04-15 05:00;CYQB 150500Z 27005KT 15SM SKC M00/M06 A3004 RMK SLP176

CYQB;2008-04-15 06:00;CYQB 150600Z 31003KT 15SM SKC M01/M07 A3006 RMK SLP181

CYQB;2008-04-15 07:00;CYQB 150700Z 00000KT 15SM SKC M02/M07 A3006 RMK SLP183

CYQB;2008-04-15 08:00;CYQB 150800Z 28004KT 15SM SKC M02/M06 A3007 RMK SLP186

CYQB;2008-04-15 09:00;CYQB 150900Z 28005KT 15SM SKC M05/M08 A3008 RMK SLP190

CYQB;2008-04-15 10:00;CYQB 151000Z 28005KT 15SM SKC M05/M08 A3011 RMK SLP198

CYQB;2008-04-15 11:00;CYQB 151100Z 28005KT 30SM SKC M02/M07 A3013 RMK SLP206

CYQB;2008-04-15 12:00;CYQB 151200Z 25003KT 15SM SKC 00/M05 A3015 RMK SLP212

CYQB;2008-04-15 13:00;CYQB 151300Z 24007KT 30SM FEW220 02/M06 A3014 RMK CI1 SLP211

CYQB;2008-04-15 14:00;CYQB 151400Z 22005KT 30SM FEW220 03/M05 A3015 RMK CI0 SLP213

CYQB;2008-04-15 15:00;CYQB 151500Z 24011KT 30SM FEW220 04/M05 A3014 RMK CI0 SLP211

CYQB;2008-04-15 16:00;CYQB 151600Z 24013KT 30SM FEW220 05/M07 A3013 RMK CI1 SLP205

CYQB;2008-04-15 17:00;CYQB 151700Z 22016KT 30SM FEW220 05/M07 A3010 RMK CI1 SLP196

CYQB;2008-04-15 18:00;CYQB 151800Z 23018KT 30SM FEW220 06/M07 A3009 RMK CI1 SLP192

CYQB;2008-04-15 19:00;CYQB 151900Z 23016G21KT 30SM FEW150 FEW210 06/M07 A3008 RMK AC1CI1 ACSL NE SLP190

CYQB;2008-04-15 20:00;CYQB 152000Z 23017G22KT 30SM FEW150 SCT220 07/M07 A3007 RMK AC1CI1 ACSL NW AND NE SLP186

CYQB;2008-04-15 21:00;CYQB 152100Z 24016KT 30SM BKN220 08/M07 A3008 RMK CI2 SLP188

CYQB;2008-04-15 22:00;CYQB 152200Z 25010KT 30SM BKN140 06/M06 A3008 RMK AC5 SLP191

CYQB;2008-04-15 23:00;CYQB 152300Z 26010KT 30SM BKN160 06/M04 A3008 RMK AC4 SLP190

CYQB;2008-04-16 00:00;CYQB 160000Z 26008KT 30SM FEW130 05/M05 A3008 RMK AC1 SLP191

CYQB;2008-04-16 01:00;CYQB 160100Z 23005KT 15SM FEW130 04/M06 A3010 RMK AC1 SLP195

CYQB;2008-04-16 02:00;CYQB 160200Z 21004KT 15SM FEW130 02/M05 A3010 RMK AC1 SLP197

CYQB;2008-04-16 03:00;CYQB 160300Z 00000KT 15SM SKC 01/M05 A3011 RMK SLP199

CYQB;2008-04-16 04:00;CYQB 160400Z 00000KT 15SM SKC M00/M05 A3012 RMK SLP202

CYQB;2008-04-16 05:00;CYQB 160500Z 14002KT 15SM SKC 01/M05 A3013 RMK SLP205

CYQB;2008-04-16 06:00;CYQB 160600Z 31002KT 15SM SKC M00/M05 A3013 RMK SLP205

CYQB;2008-04-16 07:00;CYQB 160700Z 00000KT 15SM SKC M01/M05 A3012 RMK SLP204

CYQB;2008-04-16 08:00;CYQB 160800Z 00000KT 15SM SKC M02/M05 A3013 RMK SLP207

CYQB;2008-04-16 09:00;CYQB 160900Z 35003KT 15SM FEW200 M02/M05 A3014 RMK CI0 SLP211

CYQB;2008-04-16 10:00;CYQB 161000Z 00000KT 30SM FEW160 BKN200 M02/M05 A3016 RMK AC1CI1 AC LENTICULAR NE SLP217

CYQB;2008-04-16 11:00;CYQB 161100Z 24006KT 30SM FEW160 BKN200 01/M04 A3018 RMK AC1CI1 AC LENTICULAR NE SLP223

CYQB;2008-04-16 12:00;CYQB 161200Z 25005KT 30SM FEW160 BKN200 02/M04 A3020 RMK AC1CC2 AC LENTICULAR SLP230

CYQB;2008-04-16 13:00;CYQB 161300Z 26011KT 30SM FEW160 BKN200 03/M03 A3020 RMK AC1CC2 AC LENTICULAR NE SLP229

CYQB;2008-04-16 14:00;CYQB 161400Z 24011KT 30SM BKN200 05/M03 A3019 RMK CC2 SLP225

CYQB;2008-04-16 15:00;CYQB 161500Z 24011KT 30SM BKN200 06/M03 A3017 RMK CI2 CC ASOCTD SLP221

CYQB;2008-04-16 16:00;CYQB 161600Z 25012KT 30SM BKN200 07/M03 A3016 RMK CI1 SLP217

CYQB;2008-04-16 17:00;CYQB 161700Z 24012KT 30SM BKN200 09/M03 A3014 RMK CI2 SLP210

CYQB;2008-04-16 18:00;CYQB 161800Z 24007KT 30SM BKN210 10/M03 A3012 RMK CI2 SLP204

CYQB;2008-04-16 19:00;CYQB 161900Z 23009KT 30SM BKN210 12/M02 A3010 RMK CI2 CONTRAILS SLP197

CYQB;2008-04-16 20:00;CYQB 162000Z 24010KT 30SM BKN200 12/M01 A3011 RMK CI2 CONTRAILS SLP198

CYQB;2008-04-16 21:00;CYQB 162100Z 25013KT 30SM BKN200 12/M01 A3010 RMK CI2 SLP197

CYQB;2008-04-16 22:00;CYQB 162200Z 25011KT 30SM BKN200 11/M01 A3010 RMK CI1 CONTRAILS SLP196

CYQB;2008-04-16 23:00;CYQB 162300Z 24006KT 30SM BKN210 11/M01 A3009 RMK CI2 SLP194

CYQB;2008-04-17 00:00;CYQB 170000Z 21004KT 15SM SCT210 09/M01 A3010 RMK CI1 SLP194

CYQB;2008-04-17 01:00;CYQB 170100Z 21002KT 15SM SCT210 08/M01 A3011 RMK CI1 SLP199

CYQB;2008-04-17 02:00;CYQB 170200Z 00000KT 15SM FEW210 07/M01 A3011 RMK CI1 SLP200

CYQB;2008-04-17 03:00;CYQB 170300Z 00000KT 15SM SKC 04/M01 A3011 RMK SLP201

CYQB;2008-04-17 04:00;CYQB 170400Z 02003KT 15SM SKC 03/M02 A3010 RMK SLP197

CYQB;2008-04-17 05:00;CYQB 170500Z 35002KT 15SM FEW210 02/M02 A3010 RMK CI0 SLP197

CYQB;2008-04-17 06:00;CYQB 170600Z 00000KT 15SM FEW210 01/M02 A3010 RMK CI0 SLP196

CYQB;2008-04-17 07:00;CYQB 170700Z 00000KT 15SM SKC 01/M02 A3011 RMK SLP198

CYQB;2008-04-17 08:00;CYQB 170800Z 30002KT 15SM SKC M01/M03 A3011 RMK SLP200

CYQB;2008-04-17 09:00;CYQB 170900Z 00000KT 15SM FEW120 00/M03 A3012 RMK AC1 SLP202

CYQB;2008-04-17 10:00;CYQB 171000Z 01002KT 30SM FEW120 FEW200 FEW220 00/M03 A3012 RMK AC1CI1CC1 SLP203

CYQB;2008-04-17 11:00;CYQB 171100Z 00000KT 30SM FEW200 FEW220 01/M02 A3014 RMK CI0CI1 SLP207

CYQB;2008-04-17 12:00;CYQB 171200Z 00000KT 30SM FEW200 03/M02 A3013 RMK CI1 SLP206

CYQB;2008-04-17 13:00;CYQB 171300Z 24006KT 30SM FEW200 09/M03 A3012 RMK CI1 SLP203

CYQB;2008-04-17 14:00;CYQB 171400Z 25005KT 30SM FEW200 10/M03 A3011 RMK CI1 SLP199

CYQB;2008-04-17 15:00;CYQB 171500Z 25007KT 30SM FEW200 11/M03 A3009 RMK CI0 OBS TAKEN +17 SLP192

CYQB;2008-04-17 16:00;CYQB 171600Z 19007KT 30SM FEW200 12/M02 A3008 RMK CI1 SLP190

CYQB;2008-04-17 17:00;CYQB 171700Z 25007KT 30SM FEW200 14/M03 A3007 RMK CI1 SLP186

CYQB;2008-04-17 18:00;CYQB 171800Z 23006KT 30SM SCT200 15/M03 A3006 RMK CI1 SLP181

CYQB;2008-04-17 19:00;CYQB 171900Z 24006KT 30SM SCT210 16/M02 A3004 RMK CI1 SLP175

CYQB;2008-04-17 20:00;CYQB 172000Z 28003KT 30SM SCT210 17/M02 A3003 RMK CI1 SLP170

CYQB;2008-04-17 21:00;CYQB 172100Z 26003KT 30SM SCT210 18/M01 A3002 RMK CI1 SLP167

CYQB;2008-04-17 22:00;CYQB 172200Z 27003KT 30SM FEW140 FEW210 17/M01 A3001 RMK AC1CI1 SLP166

CYQB;2008-04-17 23:00;CYQB 172300Z 24003KT 30SM FEW210 18/M01 A3001 RMK CI1 SLP166

CYQB;2008-04-18 00:00;CYQB 180000Z 33003KT 30SM FEW140 FEW210 14/M01 A3003 RMK AC1CI1 SLP170

CYQB;2008-04-18 01:00;CYQB 180100Z 02002KT 15SM FEW210 12/00 A3004 RMK CI1 SLP175

CYQB;2008-04-18 02:00;CYQB 180200Z 01005KT 15SM SKC 11/M01 A3005 RMK SLP177

CYQB;2008-04-18 03:00;CYQB 180300Z 02005KT 15SM SKC 09/M01 A3003 RMK SLP172

CYQB;2008-04-18 04:00;CYQB 180400Z 03006KT 15SM SKC 08/M01 A3003 RMK SLP172

CYQB;2008-04-18 05:00;CYQB 180500Z 02004KT 15SM SKC 07/M01 A3002 RMK SLP168

CYQB;2008-04-18 06:00;CYQB 180600Z 02007KT 15SM SKC 07/M02 A3001 RMK SLP165

CYQB;2008-04-18 07:00;CYQB 180700Z 36003KT 15SM FEW210 06/M01 A3001 RMK CI0 SLP164

CYQB;2008-04-18 08:00;CYQB 180800Z 07004KT 15SM FEW210 05/M01 A3001 RMK CI1 SLP165

CYQB;2008-04-18 09:00;CYQB 180900Z 01005KT 15SM FEW210 06/M02 A3003 RMK CI1 SLP172

CYQB;2008-04-18 10:00;CYQB 181000Z 05004KT 30SM FEW160 FEW200 05/M02 A3006 RMK AC2CI1 SLP180

CYQB;2008-04-18 11:00;CYQB 181100Z 01004KT 30SM FEW160 FEW200 FEW220 05/M00 A3009 RMK AC1CI2CC1 SLP190

CYQB;2008-04-18 12:00;CYQB 181200Z CCA 07006KT 30SM FEW160 FEW200 07/00 A3009 RMK AC1CI1 SLP193

CYQB;2008-04-18 13:00;CYQB 181300Z 08010KT 30SM FEW200 09/01 A3010 RMK CI1 SLP196

CYQB;2008-04-18 14:00;CYQB 181400Z 09012KT 30SM FEW200 09/01 A3011 RMK CI1 SLP197

CYQB;2008-04-18 15:00;CYQB 181500Z 08010G19KT 30SM BKN110 BKN200 09/02 A3012 RMK AC2CI0 SLP202

CYQB;2008-04-18 16:00;CYQB 181600Z 07012G17KT 30SM FEW110 FEW200 11/02 A3010 RMK AC2CI1 SLP196

CYQB;2008-04-18 17:00;CYQB 181700Z 08009KT 30SM FEW200 12/02 A3009 RMK CI0 SLP192

CYQB;2008-04-18 18:00;CYQB 181800Z 11008KT 30SM FEW200 11/02 A3009 RMK CI1 SLP192

CYQB;2008-04-18 19:00;CYQB 181900Z 12008KT 30SM FEW200 10/02 A3009 RMK CI1 SLP192

CYQB;2008-04-18 20:00;CYQB 182000Z 09012KT 30SM FEW200 11/02 A3008 RMK CI0 SLP188

CYQB;2008-04-18 21:00;CYQB 182100Z 09006KT 30SM FEW200 10/02 A3006 RMK CI0 SLP182

CYQB;2008-04-18 22:00;CYQB 182200Z 08008G15KT 30SM FEW200 10/01 A3006 RMK CI0 SLP180

CYQB;2008-04-18 23:00;CYQB 182300Z 07010KT 15SM SCT200 09/01 A3006 RMK CI1 SLP181

CYQB;2008-04-19 00:00;CYQB 190000Z 07005KT 15SM FEW200 08/01 A3006 RMK CI0 SLP183

CYQB;2008-04-19 01:00;CYQB 190100Z 07005KT 15SM SCT200 07/00 A3009 RMK CI1 SLP192

CYQB;2008-04-19 02:00;CYQB 190200Z 05006KT 15SM SCT110 08/00 A3009 RMK AC2 SLP192

CYQB;2008-04-19 03:00;CYQB 190300Z 09005KT 15SM BKN090 06/01 A3009 RMK AC3 SLP192

CYQB;2008-04-19 04:00;CYQB 190400Z 07006KT 15SM SCT130 06/01 A3009 RMK AC2 SLP191

CYQB;2008-04-19 05:00;CYQB 190500Z 07004KT 15SM SCT160 06/01 A3010 RMK AC2 SLP194

CYQB;2008-04-19 06:00;CYQB 190600Z 07007KT 15SM SCT160 06/01 A3009 RMK AC2 SLP193

CYQB;2008-04-19 07:00;CYQB 190700Z 07008KT 15SM BKN100 06/01 A3010 RMK AC2 SLP194

CYQB;2008-04-19 08:00;CYQB 190800Z 05007KT 15SM SCT100 BKN200 06/01 A3011 RMK AC2CI1 SLP198

CYQB;2008-04-19 09:00;CYQB 190900Z 07012KT 15SM FEW100 FEW200 06/M00 A3011 RMK AC1CI1 SLP198

CYQB;2008-04-19 10:00;CYQB 191000Z 08008KT 30SM SCT080 BKN200 06/M00 A3012 RMK AC3CI0 ACC ASOCTD SLP202

CYQB;2008-04-19 11:00;CYQB 191100Z 08007KT 30SM FEW080 SCT095 SCT200 05/00 A3014 RMK AC1AC3CI0 SLP207

CYQB;2008-04-19 12:00;CYQB 191200Z 08009KT 30SM SCT095 SCT200 06/01 A3015 RMK AC3CI0 SLP212

CYQB;2008-04-19 13:00;CYQB 191300Z 08013KT 30SM BKN081 07/M01 A3015 RMK AC6 SLP212

CYQB;2008-04-19 14:00;CYQB 191400Z 07009G17KT 30SM BKN077 07/01 A3016 RMK AC6 SLP216

CYQB;2008-04-19 15:00;CYQB 191500Z 09012G18KT 30SM BKN080 BKN220 07/00 A3017 RMK AC5CI1 SLP219

CYQB;2008-04-19 16:00;CYQB 191600Z 07017G25KT 30SM SCT090 BKN220 07/M00 A3017 RMK AC4CI2 SLP217

CYQB;2008-04-19 17:00;CYQB 191700Z 09010G16KT 30SM SCT090 BKN220 07/00 A3016 RMK AC4CI2 SLP216

CYQB;2008-04-19 18:00;CYQB 191800Z 09012G17KT 30SM SCT110 OVC220 06/01 A3017 RMK AC3CI2 SLP219

CYQB;2008-04-19 19:00;CYQB 191900Z 08013G20KT 30SM FEW090 BKN110 OVC220 07/00 A3016 RMK AC2AC3CI0 SLP215

CYQB;2008-04-19 20:00;CYQB 192000Z 09011G17KT 30SM FEW090 BKN220 06/00 A3014 RMK AC2CI1 SLP211

CYQB;2008-04-19 21:00;CYQB 192100Z 08013KT 30SM BKN220 06/M01 A3014 RMK CI2 SLP207

CYQB;2008-04-19 22:00;CYQB 192200Z 08010G15KT 30SM BKN220 06/M01 A3013 RMK CS1 SLP206

CYQB;2008-04-19 23:00;CYQB 192300Z 09012KT 30SM BKN220 05/M01 A3013 RMK CS1 SLP204

CYQB;2008-04-20 00:00;CYQB 200000Z 07012G18KT 30SM FEW220 04/M01 A3014 RMK CS0 SLP209

CYQB;2008-04-20 01:00;CYQB 200100Z 08011G18KT 15SM SKC 04/M01 A3015 RMK SLP212

CYQB;2008-04-20 02:00;CYQB 200200Z 08011KT 15SM SKC 04/M01 A3015 RMK SLP214

CYQB;2008-04-20 03:00;CYQB 200300Z 07010G17KT 15SM SKC 03/M01 A3015 RMK SLP213

CYQB;2008-04-20 04:00;CYQB 200400Z 08011G16KT 15SM SKC 03/M01 A3015 RMK SLP213

CYQB;2008-04-20 05:00;CYQB 200500Z 08007KT 15SM SKC 03/M00 A3016 RMK SLP215

CYQB;2008-04-20 06:00;CYQB 200600Z 08006KT 15SM FEW230 03/M00 A3016 RMK CI2 SLP216

CYQB;2008-04-20 07:00;CYQB 200700Z 07010KT 15SM FEW140 03/M00 A3017 RMK AC1 SLP218

CYQB;2008-04-20 08:00;CYQB 200800Z 06009KT 15SM FEW140 03/M01 A3017 RMK AC1 SLP221

CYQB;2008-04-20 09:00;CYQB 200900Z 05006KT 15SM FEW140 FEW230 03/M01 A3018 RMK AC1CI1 SLP223

CYQB;2008-04-20 10:00;CYQB 201000Z 06007KT 20SM FEW140 FEW230 03/M01 A3019 RMK AC1CI1 SLP226

CYQB;2008-04-20 11:00;CYQB 201100Z 07010KT 30SM FEW240 04/M00 A3019 RMK CI0 SLP228

CYQB;2008-04-20 12:00;CYQB 201200Z 08010G16KT 30SM FEW240 05/00 A3021 RMK CI0 SLP232

CYQB;2008-04-20 13:00;CYQB 201300Z 07012G19KT 30SM FEW240 07/00 A3021 RMK CI0 SLP234

CYQB;2008-04-20 14:00;CYQB 201400Z 07011G18KT 30SM BKN240 08/01 A3022 RMK CI1 SLP236

CYQB;2008-04-20 15:00;CYQB 201500Z 07010KT 30SM FEW160 SCT240 08/01 A3022 RMK AC1CI1 SLP237

CYQB;2008-04-20 16:00;CYQB 201600Z 08011KT 30SM FEW120 SCT240 10/01 A3022 RMK AC2CI1 SLP235

CYQB;2008-04-20 17:00;CYQB 201700Z 08010KT 30SM SCT120 SCT240 11/02 A3021 RMK AC3CI1 SLP233

CYQB;2008-04-20 18:00;CYQB 201800Z 08010KT 30SM SCT120 SCT240 11/02 A3021 RMK AC3CI1 SLP234

CYQB;2008-04-20 19:00;CYQB 201900Z 07010KT 30SM SCT120 SCT240 10/02 A3021 RMK AC2CI1 SLP233

CYQB;2008-04-20 20:00;CYQB 202000Z 07010KT 30SM BKN120 BKN240 10/02 A3021 RMK AC5CI1 SLP233

CYQB;2008-04-20 21:00;CYQB 202100Z 08015G20KT 30SM BKN120 BKN240 09/M00 A3021 RMK AC5CI1 SLP232

CYQB;2008-04-20 22:00;CYQB 202200Z 08010G15KT 30SM FEW080 SCT120 OVC200 08/M01 A3021 RMK AC2AC1CI4 SLP234

CYQB;2008-04-20 23:00;CYQB 202300Z 08009KT 30SM BKN130 OVC190 07/M01 A3022 RMK AC5CI0 SLP237

CYQB;2008-04-21 00:00;CYQB 210000Z 08009G15KT 15SM BKN100 OVC230 07/M02 A3023 RMK AC5CI2 SLP241

CYQB;2008-04-21 01:00;CYQB 210100Z 07010KT 15SM OVC100 06/M01 A3025 RMK AC8 SLP245

CYQB;2008-04-21 02:00;CYQB 210200Z 07010KT 15SM SCT100 BKN200 06/M01 A3026 RMK AC4CI2 SLP249

CYQB;2008-04-21 03:00;CYQB 210300Z 07012KT 15SM FEW100 BKN200 04/00 A3026 RMK AC2CI2 SLP250

CYQB;2008-04-21 04:00;CYQB 210400Z 07007KT 15SM BKN200 04/01 A3027 RMK CI4 SLP253

CYQB;2008-04-21 05:00;CYQB 210500Z 07011KT 15SM FEW100 BKN210 04/01 A3028 RMK AC2CI3 SLP255

CYQB;2008-04-21 06:00;CYQB 210600Z 07010KT 15SM BKN180 04/01 A3028 RMK AC7 SLP255

CYQB;2008-04-21 07:00;CYQB 210700Z 07010KT 15SM SCT180 BKN230 04/02 A3028 RMK AC3CI1 SLP258

CYQB;2008-04-21 08:00;CYQB 210800Z 07011KT 15SM FEW090 BKN200 04/02 A3030 RMK AC2CI2 SLP262

CYQB;2008-04-21 09:00;CYQB 210900Z 08009KT 15SM FEW090 SCT220 03/02 A3031 RMK AC1CI1 SLP266

CYQB;2008-04-21 10:00;CYQB 211000Z 07009KT 15SM FEW015 BKN110 OVC240 03/02 A3033 RMK SC1AC5CI2 SLP273

CYQB;2008-04-21 11:00;CYQB 211100Z 07008KT 15SM SCT009 BKN120 OVC240 04/02 A3035 RMK SF3AC2CI1 SLP279

CYQB;2008-04-21 12:00;CYQB 211200Z 08012KT 15SM SCT009 SCT120 OVC240 04/03 A3036 RMK SF3AC1CI2 SLP284

CYQB;2008-04-21 13:00;CYQB 211300Z 07012G17KT 15SM FEW009 FEW160 OVC240 06/02 A3037 RMK SF1AC1CI2 SLP287

CYQB;2008-04-21 14:00;CYQB 211400Z 09008KT 15SM FEW160 OVC240 06/02 A3038 RMK AC2CI1 SLP289

CYQB;2008-04-21 15:00;CYQB 211500Z 09009KT 15SM SCT170 OVC240 07/02 A3038 RMK AC4CI2 SLP291

CYQB;2008-04-21 16:00;CYQB 211600Z 08008KT 15SM FEW140 OVC240 08/02 A3038 RMK AC2CI3 SLP290

CYQB;2008-04-21 17:00;CYQB 211700Z 10009KT 15SM FEW140 OVC230 08/02 A3038 RMK AC1CI2 SLP289

CYQB;2008-04-21 18:00;CYQB 211800Z 09010KT 30SM FEW140 OVC230 09/02 A3037 RMK AC1CI2 SLP287

CYQB;2008-04-21 19:00;CYQB 211900Z 08010KT 30SM FEW140 OVC230 11/02 A3036 RMK AC1CI2 SLP283

CYQB;2008-04-21 20:00;CYQB 212000Z 09011KT 30SM FEW150 OVC230 11/02 A3035 RMK AC1CI2 SLP279

CYQB;2008-04-21 21:00;CYQB 212100Z 09008KT 30SM FEW150 BKN230 12/03 A3033 RMK AC1CI2 SLP273

CYQB;2008-04-21 22:00;CYQB 212200Z 07007KT 30SM BKN230 10/02 A3032 RMK CI2 SLP270

CYQB;2008-04-21 23:00;CYQB 212300Z 08006KT 30SM BKN220 09/02 A3032 RMK CI2 SLP269

CYQB;2008-04-22 00:00;CYQB 220000Z 07008KT 15SM BKN220 09/02 A3032 RMK CI2 SLP269

CYQB;2008-04-22 01:00;CYQB 220100Z 06004KT 15SM SCT220 07/02 A3032 RMK CI2 SLP270

CYQB;2008-04-22 02:00;CYQB 220200Z 06005KT 15SM SCT200 07/02 A3031 RMK CI2 SLP266

CYQB;2008-04-22 03:00;CYQB 220300Z 06002KT 15SM SCT240 06/02 A3030 RMK CI2 SLP264

CYQB;2008-04-22 04:00;CYQB 220400Z 08003KT 15SM FEW150 SCT240 06/02 A3030 RMK AC1CI2 SLP263

CYQB;2008-04-22 05:00;CYQB 220500Z 04003KT 15SM FEW150 BKN200 05/02 A3029 RMK AC1CI1 SLP260

CYQB;2008-04-22 06:00;CYQB 220600Z 03003KT 15SM SCT160 05/02 A3028 RMK AC2 SLP256

CYQB;2008-04-22 07:00;CYQB 220700Z 06003KT 15SM SCT180 04/01 A3027 RMK CI2 SLP252

CYQB;2008-04-22 08:00;CYQB 220800Z 06003KT 15SM FEW180 04/02 A3026 RMK CI1 SLP249

CYQB;2008-04-22 09:00;CYQB 220900Z 05003KT 15SM FEW200 04/02 A3025 RMK CI1 SLP246

CYQB;2008-04-22 10:00;CYQB 221000Z 03003KT 30SM FEW150 FEW180 04/02 A3026 RMK AC1CI2 SLP249

CYQB;2008-04-22 11:00;CYQB 221100Z 04003KT 30SM FEW080 SCT160 05/02 A3026 RMK AC1AC2 SLP250

CYQB;2008-04-22 12:00;CYQB 221200Z 07005KT 30SM FEW080 FEW160 07/02 A3028 RMK AC1AC1 SLP256

CYQB;2008-04-22 13:00;CYQB 221300Z 10003KT 30SM FEW080 BKN160 08/03 A3029 RMK AC1AC2 SLP259

CYQB;2008-04-22 14:00;CYQB 221400Z 08005KT 30SM FEW180 BKN200 09/03 A3029 RMK CI1CI2 SLP259

CYQB;2008-04-22 15:00;CYQB 221500Z 10004KT 30SM FEW150 BKN210 09/03 A3028 RMK AC2CI2 SLP257

CYQB;2008-04-22 16:00;CYQB 221600Z 10005KT 30SM BKN180 11/03 A3026 RMK AC5 SLP251

CYQB;2008-04-22 17:00;CYQB 221700Z 12006KT 30SM BKN150 12/03 A3025 RMK AC5 SLP245

CYQB;2008-04-22 18:00;CYQB 221800Z 10008KT 30SM BKN150 BKN240 13/03 A3023 RMK AC5CI1 ACC ASOCTD NE SLP240

CYQB;2008-04-22 19:00;CYQB 221900Z 09007KT 30SM FEW150 BKN240 12/03 A3022 RMK AC1CI5 SLP234

CYQB;2008-04-22 20:00;CYQB 222000Z 04005KT 30SM BKN240 14/04 A3019 RMK CI5 SLP227

CYQB;2008-04-22 21:00;CYQB 222100Z 09005KT 30SM BKN240 14/04 A3018 RMK CI4 SLP222

CYQB;2008-04-22 22:00;CYQB 222200Z 08008KT 30SM BKN220 11/05 A3018 RMK CI3 SLP222

CYQB;2008-04-22 23:00;CYQB 222300Z 07008KT 20SM FEW150 SCT180 BKN220 09/04 A3017 RMK AC2CC2CI1 TCU TOPS NW SLP220

CYQB;2008-04-23 00:00;CYQB 230000Z 07007KT 15SM SCT090 SCT180 07/04 A3018 RMK AC2AC0 SLP222

CYQB;2008-04-23 01:00;CYQB 230100Z 07006KT 15SM BKN120 07/04 A3019 RMK AC6 SLP224

CYQB;2008-04-23 02:00;CYQB 230200Z 07005KT 15SM BKN130 06/03 A3018 RMK AC6 SLP222

CYQB;2008-04-23 03:00;CYQB 230300Z 08004KT 15SM BKN170 06/03 A3017 RMK AC2 SLP220

CYQB;2008-04-23 04:00;CYQB 230400Z 06005KT 15SM SCT120 BKN180 06/03 A3017 RMK AC3AC1 SLP217

CYQB;2008-04-23 05:00;CYQB 230500Z 05004KT 15SM FEW120 SCT180 06/03 A3016 RMK AC1AC1 SLP214

CYQB;2008-04-23 06:00;CYQB 230600Z 04005KT 15SM BKN110 06/03 A3014 RMK AC6 SLP210

CYQB;2008-04-23 07:00;CYQB 230700Z 07007KT 15SM SCT160 05/03 A3012 RMK AC3 SLP203

CYQB;2008-04-23 08:00;CYQB 230800Z 06007KT 15SM FEW120 05/03 A3012 RMK AC2 SLP202

CYQB;2008-04-23 09:00;CYQB 230900Z 04004KT 15SM BKN100 05/03 A3011 RMK AC5 SLP198

CYQB;2008-04-23 10:00;CYQB 231000Z 05002KT 15SM FEW100 FEW220 04/02 A3011 RMK AC1CI1 SLP200

CYQB;2008-04-23 11:00;CYQB 231100Z 05005KT 20SM FEW100 FEW220 05/03 A3012 RMK AC1CI1 SLP201

CYQB;2008-04-23 12:00;CYQB 231200Z 07007KT 20SM FEW085 BKN220 06/03 A3011 RMK AC2CI0 SLP200

CYQB;2008-04-23 13:00;CYQB 231300Z 01003KT 20SM FEW220 08/04 A3010 RMK CI1 SLP194

CYQB;2008-04-23 14:00;CYQB 231400Z 02003KT 20SM FEW220 10/05 A3008 RMK CI1 SLP188

CYQB;2008-04-23 15:00;CYQB 231500Z 10005KT 20SM FEW220 13/07 A3006 RMK CI1 SLP182

CYQB;2008-04-23 16:00;CYQB 231600Z 09007KT 20SM FEW100 BKN220 13/06 A3005 RMK AC2CI1 SLP179

CYQB;2008-04-23 17:00;CYQB 231700Z 07010KT 20SM FEW090 BKN220 12/06 A3004 RMK AC2CI1 SLP175

CYQB;2008-04-23 18:00;CYQB 231800Z 10014KT 15SM SCT090 BKN220 09/04 A3003 RMK AC2CI0 SLP172

CYQB;2008-04-23 19:00;CYQB 231900Z 09012G17KT 15SM BKN130 OVC220 08/04 A3003 RMK AC4CI0 SLP172

CYQB;2008-04-23 20:00;CYQB 232000Z 09009KT 15SM OVC120 07/03 A3002 RMK AC8 SLP169

CYQB;2008-04-23 21:00;CYQB 232100Z 09010KT 14SM OVC090 06/03 A3002 RMK AC8 SLP168

CYQB;2008-04-23 22:00;CYQB 232200Z 10007G15KT 15SM -SHRA OVC062 05/03 A3002 RMK SC8 SLP168

CYQB;2008-04-23 22:48;CYQB 232248Z 09006KT 15SM OVC059 04/ RMK SC8

CYQB;2008-04-23 23:00;CYQB 232300Z 08010KT 15SM -SHRA FEW030 OVC055 05/02 A3003 RMK SC1SC7 VIS NW 5 SLP171

CYQB;2008-04-23 23:36;CYQB 232336Z 09005KT 9SM -SHRA FEW004 FEW030 OVC079 04/ RMK ST1SC1AC7 VIS N-E 4

CYQB;2008-04-24 00:00;CYQB 240000Z 09007KT 10SM -SHRA FEW003 FEW030 BKN098 OVC200 04/02 A3003 RMK ST1SC2AC6CI1 VIS N-E 5 SLP170

CYQB;2008-04-24 00:41;CYQB 240041Z 08007KT 15SM SCT007 SCT030 BKN130 OVC200 03/ RMK ST3SC1AC3CI1

CYQB;2008-04-24 01:00;CYQB 240100Z 09007KT 12SM BKN007 BKN020 OVC130 03/02 A3004 RMK ST5SC2AC1 SLP174

CYQB;2008-04-24 02:00;CYQB 240200Z 07007KT 12SM BKN006 BKN020 OVC130 03/02 A3004 RMK ST6SC2AC1 SLP176

CYQB;2008-04-24 03:00;CYQB 240300Z 10007KT 12SM BKN006 OVC020 03/02 A3004 RMK ST6SC2 SLP174

CYQB;2008-04-24 04:00;CYQB 240400Z 09003KT 10SM OVC008 03/02 A3007 RMK ST8 SLP185

CYQB;2008-04-24 05:00;CYQB 240500Z 05005KT 10SM OVC007 03/02 A3007 RMK ST8 SLP185

CYQB;2008-04-24 06:00;CYQB 240600Z 18002KT 8SM OVC007 03/02 A3008 RMK ST8 SLP187

CYQB;2008-04-24 07:00;CYQB 240700Z 27003KT 8SM OVC006 03/02 A3008 RMK ST8 SLP189

CYQB;2008-04-24 07:35;CYQB 240735Z 22003KT 5SM BR OVC004 03/ RMK ST8

CYQB;2008-04-24 08:00;CYQB 240800Z 23004KT 3/4SM R06/3000V4500FT/N BR VV002 02/02 A3009 RMK FG8 SLP193

CYQB;2008-04-24 08:51;CYQB 240851Z 27005KT 2SM BR SCT002 OVC025 02/ RMK FG2SF2SC4

CYQB;2008-04-24 09:00;CYQB 240900Z 26005KT 2SM BR SCT003 OVC027 02/02 A3012 RMK FG1SF2SC5 SLP203

CYQB;2008-04-24 09:14;CYQB 240914Z 23005KT 8SM FEW003 BKN025 02/ RMK SF2SC4

CYQB;2008-04-24 10:00;CYQB 241000Z 00000KT 15SM FEW003 FEW028 FEW210 02/02 A3013 RMK SF1SC1CI0 SLP205

CYQB;2008-04-24 11:00;CYQB 241100Z 28004KT 15SM FEW030 FEW240 05/03 A3014 RMK SC1CI0 SLP209

CYQB;2008-04-24 12:00;CYQB 241200Z 31011KT 25SM FEW030 FEW240 07/02 A3016 RMK SC1CI0 SLP217

CYQB;2008-04-24 13:00;CYQB 241300Z 30010KT 30SM FEW030 08/02 A3017 RMK SC1 SLP220

CYQB;2008-04-24 14:00;CYQB 241400Z 31010KT 30SM FEW030 09/02 A3017 RMK SC1 SLP221

CYQB;2008-04-24 15:00;CYQB 241500Z 32007KT 30SM FEW035 FEW240 10/01 A3017 RMK SC1CI0 SLP217

CYQB;2008-04-24 16:00;CYQB 241600Z 31010G16KT 30SM SKC 13/M00 A3016 RMK SLP215

CYQB;2008-04-24 17:00;CYQB 241700Z 31011G18KT 30SM FEW260 14/M02 A3017 RMK CI0 SLP220

CYQB;2008-04-24 18:00;CYQB 241800Z 34011G21KT 30SM SKC 16/M04 A3017 RMK SLP217

CYQB;2008-04-24 19:00;CYQB 241900Z 35010KT 30SM SKC 16/M02 A3017 RMK SLP217

CYQB;2008-04-24 20:00;CYQB 242000Z 34016KT 30SM FEW080 17/M03 A3015 RMK CF1 SLP213

CYQB;2008-04-24 21:00;CYQB 242100Z 34007G15KT 30SM FEW080 FEW230 17/M03 A3016 RMK CF1CI1 SLP214

CYQB;2008-04-24 22:00;CYQB 242200Z 35011KT 30SM FEW090 FEW230 16/M03 A3015 RMK CF1CI0 SLP213

CYQB;2008-04-24 23:00;CYQB 242300Z 02005KT 30SM FEW090 FEW230 16/M04 A3015 RMK CF1CI0 SLP213

CYQB;2008-04-25 00:00;CYQB 250000Z 07007KT 30SM FEW230 12/01 A3016 RMK CI0 SLP215

CYQB;2008-04-25 01:00;CYQB 250100Z 06006KT 15SM SKC 09/02 A3018 RMK SLP221

CYQB;2008-04-25 02:00;CYQB 250200Z 01005KT 15SM SKC 08/02 A3018 RMK SLP223

CYQB;2008-04-25 03:00;CYQB 250300Z 02005KT 15SM SKC 07/01 A3019 RMK SLP224

CYQB;2008-04-25 04:00;CYQB 250400Z 01003KT 15SM SKC 06/M00 A3018 RMK SLP223

CYQB;2008-04-25 05:00;CYQB 250500Z 01004KT 15SM SKC 05/M01 A3019 RMK SLP225

CYQB;2008-04-25 06:00;CYQB 250600Z 36004KT 15SM SKC 05/M02 A3018 RMK SLP221

CYQB;2008-04-25 07:00;CYQB 250700Z 03003KT 15SM SKC 03/M02 A3018 RMK SLP221

CYQB;2008-04-25 08:00;CYQB 250800Z 01004KT 15SM SKC 04/M02 A3018 RMK SLP222

CYQB;2008-04-25 09:00;CYQB 250900Z 03003KT 15SM FEW250 03/M02 A3018 RMK CI0 SLP221

CYQB;2008-04-25 10:00;CYQB 251000Z 01005KT 30SM FEW220 FEW260 03/M02 A3020 RMK CC1CI0 SLP229

CYQB;2008-04-25 11:00;CYQB 251100Z 03004KT 30SM FEW260 04/M02 A3022 RMK CI0 SLP236

CYQB;2008-04-25 12:00;CYQB 251200Z 06004KT 30SM FEW260 06/M01 A3022 RMK CI0 SLP237

CYQB;2008-04-25 13:00;CYQB 251300Z 07006KT 30SM FEW260 07/M00 A3022 RMK CI0 SLP237

CYQB;2008-04-25 14:00;CYQB 251400Z 09007KT 30SM BKN260 09/01 A3022 RMK CI0 SLP237

CYQB;2008-04-25 15:00;CYQB 251500Z 09011G16KT 30SM FEW260 OVC300 10/M01 A3023 RMK CI1CS2 SLP238

CYQB;2008-04-25 16:00;CYQB 251600Z 08010KT 30SM FEW260 OVC280 10/M02 A3022 RMK CI2CS2 SLP235

CYQB;2008-04-25 17:00;CYQB 251700Z 07009KT 30SM FEW220 OVC260 10/M02 A3021 RMK CI2CS2 SLP233

CYQB;2008-04-25 18:00;CYQB 251800Z 08013G18KT 30SM FEW150 OVC260 12/M02 A3019 RMK AC2CS2 SLP225

CYQB;2008-04-25 19:00;CYQB 251900Z 09011G16KT 30SM FEW150 OVC260 12/M02 A3017 RMK AC2CS2 SLP218

CYQB;2008-04-25 20:00;CYQB 252000Z 08009KT 30SM FEW140 BKN240 12/M02 A3017 RMK AC2CS3 SLP217

CYQB;2008-04-25 21:00;CYQB 252100Z 07011KT 30SM FEW160 BKN240 11/M02 A3017 RMK AC2CS4 SLP219

CYQB;2008-04-25 22:00;CYQB 252200Z 09010G16KT 30SM BKN200 12/M03 A3017 RMK CS2 SLP217

CYQB;2008-04-25 23:00;CYQB 252300Z 07010KT 30SM SCT200 11/M02 A3018 RMK CS2 SLP221

CYQB;2008-04-26 00:00;CYQB 260000Z 07007KT 30SM FEW200 08/M01 A3018 RMK CS1 SLP223

CYQB;2008-04-26 01:00;CYQB 260100Z 07008KT 15SM FEW100 FEW200 08/00 A3019 RMK AC1CI1 SLP227

CYQB;2008-04-26 02:00;CYQB 260200Z 06006KT 15SM FEW200 07/01 A3020 RMK CI1 SLP230

CYQB;2008-04-26 03:00;CYQB 260300Z 06010KT 15SM SKC 06/01 A3020 RMK SLP228

CYQB;2008-04-26 04:00;CYQB 260400Z 07012KT 15SM SKC 06/01 A3019 RMK SLP225

CYQB;2008-04-26 05:00;CYQB 260500Z 07011KT 15SM SKC 05/01 A3019 RMK SLP227

CYQB;2008-04-26 06:00;CYQB 260600Z 07009KT 15SM SKC 05/01 A3020 RMK SLP228

CYQB;2008-04-26 07:00;CYQB 260700Z 07008KT 15SM SKC 05/01 A3020 RMK SLP229

CYQB;2008-04-26 08:00;CYQB 260800Z 07008KT 15SM SKC 04/01 A3021 RMK SLP231

CYQB;2008-04-26 09:00;CYQB 260900Z 06009KT 15SM SKC 04/01 A3022 RMK SLP234

CYQB;2008-04-26 10:00;CYQB 261000Z 07010KT 30SM FEW220 04/01 A3022 RMK CI0 SLP235

CYQB;2008-04-26 11:00;CYQB 261100Z 07013KT 30SM FEW220 05/01 A3023 RMK CI1 SLP239

CYQB;2008-04-26 12:00;CYQB 261200Z 07012KT 30SM FEW220 07/01 A3023 RMK CI1 SLP240

CYQB;2008-04-26 13:00;CYQB 261300Z 08012G17KT 30SM FEW220 08/01 A3024 RMK CI1 SLP241

CYQB;2008-04-26 14:00;CYQB 261400Z 08016KT 30SM FEW220 10/01 A3022 RMK CI2 SLP236

CYQB;2008-04-26 15:00;CYQB 261500Z 07016G21KT 30SM FEW220 10/M00 A3021 RMK CI2 SLP233

CYQB;2008-04-26 16:00;CYQB 261600Z 07016KT 30SM FEW150 FEW210 12/M01 A3020 RMK AC1CI1 SLP228

CYQB;2008-04-26 17:00;CYQB 261700Z 07015G24KT 30SM FEW150 FEW210 12/M01 A3018 RMK AC1CI1 SLP222

CYQB;2008-04-26 18:00;CYQB 261800Z 07014G21KT 30SM FEW150 SCT210 14/M01 A3016 RMK AC2CI1 SLP215

CYQB;2008-04-26 19:00;CYQB 261900Z 07015G21KT 30SM SCT150 BKN210 15/M01 A3014 RMK AC4CI1 SLP208

CYQB;2008-04-26 20:00;CYQB 262000Z 07013G20KT 30SM BKN130 BKN210 14/M01 A3014 RMK AC5CI2 SLP207

CYQB;2008-04-26 21:00;CYQB 262100Z 07012KT 30SM -SHRA BKN100 BKN210 12/M01 A3014 RMK AC6CI1 SLP208

CYQB;2008-04-26 22:00;CYQB 262200Z 08013KT 30SM -SHRA BKN100 OVC210 11/01 A3013 RMK AC6CI2 SLP204

CYQB;2008-04-26 23:00;CYQB 262300Z 08013G18KT 30SM BKN100 OVC120 10/02 A3012 RMK AC7AC1 VIRGA SLP203

CYQB;2008-04-27 00:00;CYQB 270000Z 07011G16KT 30SM BKN110 BKN150 OVC240 09/01 A3013 RMK AC5AC2CI1 VIRGA SLP204

CYQB;2008-04-27 01:00;CYQB 270100Z 07011KT 15SM BKN110 OVC220 09/01 A3014 RMK AC6CI2 SLP209

CYQB;2008-04-27 02:00;CYQB 270200Z 08009KT 15SM BKN100 OVC200 08/02 A3015 RMK AC7CI1 SLP212

CYQB;2008-04-27 03:00;CYQB 270300Z 08009KT 15SM OVC100 09/02 A3014 RMK AC8 SLP210

CYQB;2008-04-27 04:00;CYQB 270400Z 07007KT 15SM SCT090 OVC100 09/02 A3016 RMK AC3AC5 SLP214

CYQB;2008-04-27 05:00;CYQB 270500Z 07009KT 15SM BKN110 08/02 A3014 RMK AC3 SLP210

CYQB;2008-04-27 06:00;CYQB 270600Z 08010G16KT 15SM BKN090 08/02 A3012 RMK AC3 SLP202

CYQB;2008-04-27 07:00;CYQB 270700Z 08009KT 15SM BKN065 09/01 A3013 RMK AC5 SLP204

CYQB;2008-04-27 08:00;CYQB 270800Z 08009G15KT 15SM OVC042 08/01 A3013 RMK SC7 SLP204

CYQB;2008-04-27 09:00;CYQB 270900Z 08007KT 15SM OVC038 08/02 A3014 RMK SC7 SLP208

CYQB;2008-04-27 09:28;CYQB 270928Z 10006KT 15SM -DZ OVC036 08/ RMK SC8

CYQB;2008-04-27 10:00;CYQB 271000Z 07006KT 15SM -DZ OVC043 08/03 A3016 RMK SC8 SLP215

CYQB;2008-04-27 10:42;CYQB 271042Z 09005KT 15SM -RADZ OVC038 07/ RMK SC8

CYQB;2008-04-27 11:00;CYQB 271100Z 09004KT 15SM -DZ OVC028 07/04 A3019 RMK SC8 SLP224

CYQB;2008-04-27 11:15;CYQB 271115Z 08005KT 10SM -RADZ BKN022 OVC035 07/ RMK SC7SC1

CYQB;2008-04-27 11:47;CYQB 271147Z 06005KT 30SM FEW012 SCT020 OVC034 07/ RMK SF1SC3SC5

CYQB;2008-04-27 12:00;CYQB 271200Z 07007KT 30SM FEW012 FEW020 OVC037 07/06 A3019 RMK SF1SC2SC6 SLP225

CYQB;2008-04-27 12:39;CYQB 271239Z 07008KT 20SM FEW009 FEW012 FEW020 OVC036 07/ RMK SF1ST1SC1SC7

CYQB;2008-04-27 13:00;CYQB 271300Z 06009KT 20SM FEW010 FEW020 OVC034 07/06 A3019 RMK ST1SC2SC6 SLP225

CYQB;2008-04-27 14:00;CYQB 271400Z 07007KT 30SM FEW012 OVC033 08/06 A3020 RMK SF1SC8 SLP228

CYQB;2008-04-27 15:00;CYQB 271500Z 07008KT 50SM FEW014 OVC034 09/06 A3020 RMK CF1SC8 SLP228

CYQB;2008-04-27 16:00;CYQB 271600Z 07010G15KT 50SM FEW016 BKN038 09/06 A3019 RMK CF1SC6 SLP225

CYQB;2008-04-27 17:00;CYQB 271700Z 09009KT 50SM BKN034 BKN160 11/06 A3018 RMK SC6AC1 SLP223

CYQB;2008-04-27 18:00;CYQB 271800Z 09010G15KT 30SM FEW035 SCT095 SCT250 11/07 A3017 RMK SC1AC2CI0 SLP220

CYQB;2008-04-27 19:00;CYQB 271900Z 08009G15KT 30SM FEW035 FEW045 FEW250 12/07 A3016 RMK SC1SC1CI0 SLP216

CYQB;2008-04-27 20:00;CYQB 272000Z 08013KT 25SM FEW035 BKN230 13/07 A3015 RMK SC1CI2 SLP212

CYQB;2008-04-27 21:00;CYQB 272100Z 09012KT 25SM FEW035 FEW210 12/07 A3014 RMK SC1CI0 SLP207

CYQB;2008-04-27 22:00;CYQB 272200Z 08012KT 25SM FEW040 12/07 A3013 RMK SC1 SLP206

CYQB;2008-04-27 23:00;CYQB 272300Z 07010KT 25SM FEW040 10/06 A3014 RMK SC1 SLP207

CYQB;2008-04-28 00:00;CYQB 280000Z 08011KT 25SM FEW210 09/06 A3012 RMK CI1 SLP203

CYQB;2008-04-28 01:00;CYQB 280100Z 07010KT 15SM SKC 08/06 A3014 RMK SLP209

CYQB;2008-04-28 02:00;CYQB 280200Z 07009KT 15SM SCT220 08/06 A3014 RMK CI2 SLP208

CYQB;2008-04-28 03:00;CYQB 280300Z 08005KT 15SM BKN230 07/05 A3014 RMK CI3 SLP207

CYQB;2008-04-28 04:00;CYQB 280400Z 07007KT 15SM BKN240 07/05 A3014 RMK CI4 SLP207

CYQB;2008-04-28 05:00;CYQB 280500Z 07006KT 15SM BKN250 06/05 A3013 RMK CI5 SLP204

CYQB;2008-04-28 06:00;CYQB 280600Z 07009KT 15SM BKN200 06/05 A3012 RMK CI4 SLP203

CYQB;2008-04-28 07:00;CYQB 280700Z 07013G18KT 15SM BKN210 06/05 A3012 RMK CI6 SLP201

CYQB;2008-04-28 08:00;CYQB 280800Z 08011G17KT 15SM BKN200 06/04 A3011 RMK CI6 SLP199

CYQB;2008-04-28 09:00;CYQB 280900Z 07009KT 15SM BKN210 06/05 A3012 RMK CI6 SLP202

CYQB;2008-04-28 10:00;CYQB 281000Z 07007KT 20SM FEW007 OVC190 06/05 A3013 RMK SF1CI6 SLP204

CYQB;2008-04-28 11:00;CYQB 281100Z 08009KT 20SM SCT007 OVC190 06/05 A3014 RMK SF4CI4 SLP207

CYQB;2008-04-28 11:48;CYQB 281148Z 07015G20KT 15SM BKN007 BKN190 07/ RMK SF6CI2

CYQB;2008-04-28 12:00;CYQB 281200Z 07018KT 15SM BKN007 BKN190 07/05 A3011 RMK SF6CI2 SLP197

CYQB;2008-04-28 12:43;CYQB 281243Z 07015KT 15SM SCT007 BKN190 07/ RMK SF3CI4

CYQB;2008-04-28 13:00;CYQB 281300Z 07015KT 20SM FEW007 OVC200 07/05 A3009 RMK SF2CC6 SLP193

CYQB;2008-04-28 14:00;CYQB 281400Z 08013G20KT 20SM FEW007 SCT025 OVC180 08/05 A3008 RMK SF2SC2CC4 SLP187

CYQB;2008-04-28 15:00;CYQB 281500Z 08014G19KT 20SM BKN019 OVC180 09/06 A3005 RMK SC6CC2 SLP179

CYQB;2008-04-28 16:00;CYQB 281600Z 08014G25KT 20SM SCT019 OVC170 10/06 A3002 RMK SC3CC5 SLP167

CYQB;2008-04-28 17:00;CYQB 281700Z 08018G24KT 20SM FEW019 OVC150 11/06 A2997 RMK SC2AC6 SLP153

CYQB;2008-04-28 18:00;CYQB 281800Z 07020G25KT 15SM FEW060 OVC140 12/06 A2996 RMK SC2AC6 SLP146

CYQB;2008-04-28 18:49;CYQB 281849Z 09018G27KT 15SM -RA OVC060 12/ RMK SC8

CYQB;2008-04-28 19:00;CYQB 281900Z 08015G27KT 15SM -RA OVC059 12/06 A2994 RMK SC8 SLP140

CYQB;2008-04-28 20:00;CYQB 282000Z 10013G18KT 10SM -RA FEW045 OVC072 10/07 A2992 RMK SC2AC6 SLP132

CYQB;2008-04-28 21:00;CYQB 282100Z 07013KT 4SM -RA BR BKN054 OVC070 08/07 A2991 RMK SC6AC2 SLP132

CYQB;2008-04-28 22:00;CYQB 282200Z 07010KT 2 1/2SM -RA BR FEW027 OVC040 09/07 A2991 RMK SC2SC6 SLP131

CYQB;2008-04-28 23:00;CYQB 282300Z 08010KT 2 1/2SM -RA BR SCT028 OVC048 08/07 A2990 RMK SC4SC4 SLP128

CYQB;2008-04-29 00:00;CYQB 290000Z 08008KT 3SM -RA BR OVC032 08/07 A2990 RMK SC8 SLP126

CYQB;2008-04-29 01:00;CYQB 290100Z 09008KT 4SM -RA BR FEW028 OVC032 07/06 A2989 RMK CF2SC6 SLP123

CYQB;2008-04-29 02:00;CYQB 290200Z 08010KT 4SM -RA BR OVC019 07/06 A2987 RMK SC8 SLP117

CYQB;2008-04-29 03:00;CYQB 290300Z 08010KT 4SM -RA BR OVC019 07/06 A2985 RMK SC8 SLP110

CYQB;2008-04-29 04:00;CYQB 290400Z 08011KT 4SM -RA BR FEW011 OVC019 07/06 A2981 RMK SF1SC7 SLP098

CYQB;2008-04-29 05:00;CYQB 290500Z 08009KT 4SM -RA BR FEW006 OVC020 07/06 A2980 RMK SF2SC6 SLP092

CYQB;2008-04-29 06:00;CYQB 290600Z 08009KT 5SM -RA BR FEW005 OVC017 06/06 A2977 RMK SF2SC6 SLP084

CYQB;2008-04-29 07:00;CYQB 290700Z 07007KT 5SM -RA BR FEW010 OVC018 06/06 A2975 RMK SF2SC6 SLP078

CYQB;2008-04-29 08:00;CYQB 290800Z 08010G15KT 5SM -RA BR FEW005 OVC016 06/06 A2975 RMK SF2SC6 SLP076

CYQB;2008-04-29 09:00;CYQB 290900Z 08010KT 5SM -RA BR FEW005 OVC017 06/06 A2973 RMK SF2SC6 SLP069

CYQB;2008-04-29 09:36;CYQB 290936Z 07011G16KT 5SM -RA BR FEW005 SCT011 OVC014 06/ RMK SF2SF2SC4

CYQB;2008-04-29 10:00;CYQB 291000Z 09009G15KT 6SM -RA BR SCT005 OVC011 06/06 A2972 RMK SF4SC4 SLP066

CYQB;2008-04-29 11:00;CYQB 291100Z 07011G16KT 6SM -RA BR SCT005 OVC015 06/06 A2972 RMK SF3SC5 SLP065

CYQB;2008-04-29 11:32;CYQB 291132Z 08007KT 5SM -RA BR SCT004 OVC012 06/ RMK SF4SC4

CYQB;2008-04-29 12:00;CYQB 291200Z 07009KT 6SM -RA BR FEW005 SCT012 OVC016 06/06 A2971 RMK SF2SF2SC4 SLP063

CYQB;2008-04-29 13:00;CYQB 291300Z 07010G15KT 6SM -RA BR SCT006 OVC016 06/06 A2970 RMK SF4SC4 SLP061

CYQB;2008-04-29 13:21;CYQB 291321Z 07011KT 6SM -RA BR FEW004 SCT011 OVC018 06/ RMK SF2SF2SC4

CYQB;2008-04-29 13:37;CYQB 291337Z 11005KT 5SM -RA BR BKN004 OVC016 06/ RMK SF6SC2

CYQB;2008-04-29 14:00;CYQB 291400Z 07011KT 6SM -RA BR BKN004 OVC016 06/06 A2970 RMK SF5SC3 SLP061

CYQB;2008-04-29 14:19;CYQB 291419Z 11008KT 6SM -RA BR BKN005 BKN011 OVC028 06/ RMK SF5SF2SC2

CYQB;2008-04-29 15:00;CYQB 291500Z 07007KT 5SM -RA BR SCT004 BKN011 OVC014 06/06 A2970 RMK SF3SF3SC2 SLP060

CYQB;2008-04-29 16:00;CYQB 291600Z 07006KT 5SM -RA BR SCT004 BKN008 OVC014 07/07 A2970 RMK SF3SF3SC2 SLP058

CYQB;2008-04-29 17:00;CYQB 291700Z 05005KT 5SM -RA BR SCT004 BKN009 OVC014 07/07 A2968 RMK SF3SF3SC2 SLP054

CYQB;2008-04-29 17:36;CYQB 291736Z 06005KT 8SM -RA FEW004 BKN014 OVC030 08/ RMK SF2SC3SC2

CYQB;2008-04-29 18:00;CYQB 291800Z 06005KT 8SM -RA FEW004 BKN010 OVC025 08/08 A2964 RMK SF2SC3SC2 SLP041

CYQB;2008-04-29 18:25;CYQB 291825Z 16003KT 10SM -RA FEW004 SCT010 OVC033 08/ RMK SF2SC2SC5

CYQB;2008-04-29 19:00;CYQB 291900Z 18003KT 10SM -RA FEW004 SCT014 OVC027 08/07 A2967 RMK SF2SC2SC4 SLP051

CYQB;2008-04-29 20:00;CYQB 292000Z 28006KT 5SM -RA BR FEW006 BKN035 OVC045 08/07 A2964 RMK SF2SC3SC2 SLP041

CYQB;2008-04-29 21:00;CYQB 292100Z 29005KT 5SM -RA BR FEW006 BKN030 OVC043 07/07 A2965 RMK SF2SC3SC2 SLP042

CYQB;2008-04-29 22:00;CYQB 292200Z 29007KT 8SM -RA FEW006 BKN032 OVC046 07/06 A2966 RMK SF2SC3SC3 SLP045

CYQB;2008-04-29 23:00;CYQB 292300Z 31007KT 8SM -RA FEW004 BKN037 OVC046 05/04 A2964 RMK SF2SC3SC2 SLP040

CYQB;2008-04-30 00:00;CYQB 300000Z 30007KT 5SM -RA BR FEW004 BKN027 OVC038 04/03 A2967 RMK SF2SC3SC2 SLP050

CYQB;2008-04-30 01:00;CYQB 300100Z 26006KT 5SM -RA BR FEW004 OVC034 03/03 A2966 RMK SF2SC6 SLP047

CYQB;2008-04-30 01:31;CYQB 300131Z 25012KT 4SM -RASN BR BKN011 OVC022 02/ RMK SC6SC2

CYQB;2008-04-30 02:00;CYQB 300200Z 25013KT 2SM -RASN OVC010 01/01 A2966 RMK SF8 SLP046

CYQB;2008-04-30 02:47;CYQB 300247Z 25016KT 2SM -RASN OVC016 02/ RMK SF8

CYQB;2008-04-30 03:00;CYQB 300300Z 25016KT 2SM -RASN OVC015 01/01 A2969 RMK SF8 SLP057

CYQB;2008-04-30 03:34;CYQB 300334Z 26014KT 1SM R06/P6000FT/D -SN OVC007 01/ RMK SF8

CYQB;2008-04-30 04:00;CYQB 300400Z 26014KT 3SM -SN OVC020 01/01 A2969 RMK SC8 SLP057

CYQB;2008-04-30 04:24;CYQB 300424Z 27015G20KT 10SM FEW020 OVC045 01/ RMK SC2SC6

CYQB;2008-04-30 05:00;CYQB 300500Z 27017KT 15SM FEW030 OVC048 01/01 A2970 RMK SC2SC6 SLP059

CYQB;2008-04-30 07:00;CYQB 300700Z 27018KT 15SM OVC054 01/M00 A2973 RMK SC8 SLP070

CYQB;2008-04-30 08:00;CYQB 300800Z 26015G20KT 15SM SCT030 OVC048 00/M01 A2975 RMK SC4SC4 SLP076

CYQB;2008-04-30 09:00;CYQB 300900Z 25012KT 15SM SCT030 OVC051 00/M02 A2977 RMK SC4SC4 SLP083

CYQB;2008-04-30 10:00;CYQB 301000Z 26010KT 15SM FEW008 BKN030 OVC050 00/M02 A2979 RMK SF1SC5SC2 SLP091

CYQB;2008-04-30 10:40;CYQB 301040Z 26014KT 15SM -SHSN FEW008 BKN030 OVC050 00/ RMK SF1SC6SC1

CYQB;2008-04-30 11:00;CYQB 301100Z 25013KT 15SM -SHSN FEW008 BKN030 OVC050 01/M02 A2982 RMK SF1SC6SC1 SLP101

CYQB;2008-04-30 12:00;CYQB 301200Z 25018KT 15SM -SHSN FEW008 BKN030 01/M01 A2985 RMK SF2SC6 SLP110

CYQB;2008-04-30 13:00;CYQB 301300Z 27014G19KT 15SM -SHSN FEW008 BKN032 02/M01 A2988 RMK SF2SC5 SLP120

CYQB;2008-04-30 14:00;CYQB 301400Z 27016KT 15SM -SHSN FEW008 OVC023 02/M02 A2989 RMK SF2SC6 SLP126

CYQB;2008-04-30 15:00;CYQB 301500Z 28008KT 15SM -SHSN FEW012 BKN030 02/M02 A2992 RMK SF2SC5 SLP135

CYQB;2008-04-30 16:00;CYQB 301600Z 28007KT 15SM -SHSN FEW012 BKN032 02/M02 A2993 RMK SF2SC5 SLP140

CYQB;2008-04-30 17:00;CYQB 301700Z 29010KT 15SM -SHSN FEW012 BKN032 BKN060 03/M02 A2994 RMK SF2SC3SC2 SLP143

CYQB;2008-04-30 17:49;CYQB 301749Z 28006KT 30SM FEW012 BKN055 05/ RMK CF2SC3

CYQB;2008-04-30 18:00;CYQB 301800Z 25004KT 30SM FEW015 SCT055 04/M02 A2994 RMK CF2SC2 SLP142

CYQB;2008-04-30 19:00;CYQB 301900Z 25011KT 30SM VCSH BKN045 05/M05 A2996 RMK SC6 SLP147

CYQB;2008-04-30 20:00;CYQB 302000Z 28003KT 30SM VCSH BKN060 06/M04 A2997 RMK SC6 OBS TAKEN +07 SLP150

CYQB;2008-04-30 21:00;CYQB 302100Z 27002KT 30SM VCSH BKN050 BKN064 06/M06 A2997 RMK SC5SC2 SLP153

CYQB;2008-04-30 22:00;CYQB 302200Z 25007KT 30SM VCSH SCT065 BKN130 07/M06 A2998 RMK SC4AC1 SLP156

CYQB;2008-04-30 23:00;CYQB 302300Z 36004KT 30SM FEW062 SCT086 07/M07 A3001 RMK CF2AC2 VIRGA SLP166

CYQB;2008-05-01 01:00;CYQB 010100Z 02004KT 15SM FEW080 04/M04 A3005 RMK AC1 SLP179

CYQB;2008-05-01 02:00;CYQB 010200Z 36003KT 15SM FEW080 03/M03 A3007 RMK AC1 SLP186

CYQB;2008-05-01 03:00;CYQB 010300Z 05003KT 15SM SKC 02/M03 A3008 RMK SLP190

CYQB;2008-05-01 04:00;CYQB 010400Z 02003KT 15SM SKC 01/M03 A3010 RMK SLP195

CYQB;2008-05-01 05:00;CYQB 010500Z 36002KT 15SM SKC 00/M03 A3010 RMK SLP197

CYQB;2008-05-01 06:00;CYQB 010600Z 01004KT 15SM SKC M00/M03 A3011 RMK SLP200

CYQB;2008-05-01 07:00;CYQB 010700Z 36003KT 15SM FEW080 M00/M03 A3013 RMK AC1 SLP205

CYQB;2008-05-01 08:00;CYQB 010800Z 02005KT 15SM SKC M01/M03 A3014 RMK SLP208

CYQB;2008-05-01 09:00;CYQB 010900Z 01005KT 15SM SKC M01/M03 A3014 RMK SLP210

CYQB;2008-05-01 10:00;CYQB 011000Z 03004KT 15SM SKC M01/M04 A3017 RMK SLP218

CYQB;2008-05-01 11:00;CYQB 011100Z 02003KT 15SM FEW100 M00/M03 A3019 RMK AC1 SLP225

CYQB;2008-05-01 12:00;CYQB 011200Z 05003KT 15SM FEW080 02/M02 A3019 RMK AC1 SLP228

CYQB;2008-05-01 13:00;CYQB 011300Z 17002KT 15SM FEW020 FEW080 03/M02 A3020 RMK CF1AC1 SLP230

CYQB;2008-05-01 14:00;CYQB 011400Z 00000KT 15SM SCT032 04/M01 A3019 RMK CF3 SLP228

CYQB;2008-05-01 15:00;CYQB 011500Z 18007KT 15SM SCT040 06/M01 A3017 RMK CF3 SLP221

CYQB;2008-05-01 16:00;CYQB 011600Z 16005KT 15SM SCT054 06/M02 A3016 RMK CF4 SLP215

CYQB;2008-05-01 17:00;CYQB 011700Z 28007KT 15SM SCT055 08/M06 A3014 RMK CU4 SH E SLP210

CYQB;2008-05-01 18:00;CYQB 011800Z 29009G17KT 15SM FEW075 08/M05 A3014 RMK CU2 VIRGA SLP210

CYQB;2008-05-01 19:00;CYQB 011900Z 32010G16KT 30SM SCT070 09/M06 A3014 RMK CU3 VIRGA SLP208

CYQB;2008-05-01 20:00;CYQB 012000Z 31005KT 30SM SCT072 08/M06 A3014 RMK CU4 VIRGA SLP209

CYQB;2008-05-01 21:00;CYQB 012100Z 35011KT 30SM FEW070 09/M06 A3014 RMK CU2 SLP209

CYQB;2008-05-01 22:00;CYQB 012200Z 36008KT 30SM FEW070 08/M07 A3014 RMK AC1 SLP210

CYQB;2008-05-01 23:00;CYQB 012300Z 01007KT 30SM FEW055 07/M06 A3015 RMK CU1 SLP214

CYQB;2008-05-02 00:00;CYQB 020000Z 03006KT 30SM FEW050 06/M06 A3017 RMK SC1 SLP218

CYQB;2008-05-02 01:00;CYQB 020100Z 02005KT 15SM SKC 05/M06 A3019 RMK SLP225

CYQB;2008-05-02 02:00;CYQB 020200Z 05005KT 15SM SKC 04/M05 A3020 RMK SLP230

CYQB;2008-05-02 03:00;CYQB 020300Z 34004KT 15SM SKC 02/M04 A3020 RMK SLP229

CYQB;2008-05-02 04:00;CYQB 020400Z 36002KT 15SM SKC 01/M05 A3020 RMK SLP230

CYQB;2008-05-02 05:00;CYQB 020500Z 02004KT 15SM SKC 01/M05 A3021 RMK SLP232

CYQB;2008-05-02 06:00;CYQB 020600Z 01003KT 15SM SKC 00/M05 A3021 RMK SLP233

CYQB;2008-05-02 07:00;CYQB 020700Z 02005KT 15SM SKC M00/M05 A3020 RMK SLP230

CYQB;2008-05-02 08:00;CYQB 020800Z 03004KT 15SM SKC M00/M05 A3021 RMK SLP232

CYQB;2008-05-02 09:00;CYQB 020900Z 03002KT 15SM SKC M01/M06 A3021 RMK SLP232

CYQB;2008-05-02 10:00;CYQB 021000Z 02003KT 15SM SKC M01/M06 A3022 RMK SLP237

CYQB;2008-05-02 11:00;CYQB 021100Z 02006KT 15SM SKC 00/M05 A3024 RMK SLP242

CYQB;2008-05-02 12:00;CYQB 021200Z 01004KT 30SM SKC 02/M05 A3025 RMK SLP246

CYQB;2008-05-02 13:00;CYQB 021300Z 05004KT 30SM SKC 04/M04 A3024 RMK SLP242

CYQB;2008-05-02 14:00;CYQB 021400Z 10004KT 30SM SKC 06/M03 A3023 RMK SLP241

CYQB;2008-05-02 15:00;CYQB 021500Z 10004KT 30SM SKC 07/M04 A3023 RMK SLP239

CYQB;2008-05-02 16:00;CYQB 021600Z 07007KT 30SM SKC 08/M02 A3022 RMK SLP235

CYQB;2008-05-02 17:00;CYQB 021700Z 08004KT 30SM SKC 09/M03 A3021 RMK SLP232

CYQB;2008-05-02 18:00;CYQB 021800Z 07004KT 30SM FEW020 10/M01 A3019 RMK SC1 SLP227

CYQB;2008-05-02 19:00;CYQB 021900Z 12008KT 30SM FEW020 10/M02 A3018 RMK SC1 SLP222

CYQB;2008-05-02 20:00;CYQB 022000Z 11009KT 30SM FEW020 11/M01 A3017 RMK SC1 SLP220

CYQB;2008-05-02 21:00;CYQB 022100Z 09010KT 30SM SKC 10/M02 A3017 RMK SLP219

CYQB;2008-05-02 22:00;CYQB 022200Z 07014KT 30SM SKC 11/M03 A3016 RMK SLP217

CYQB;2008-05-02 23:00;CYQB 022300Z 07010KT 30SM FEW250 10/M03 A3017 RMK CI0 SLP219

CYQB;2008-05-03 00:00;CYQB 030000Z 08007KT 30SM FEW250 09/M01 A3018 RMK CI1 SLP222

CYQB;2008-05-03 01:00;CYQB 030100Z 08007KT 30SM FEW250 08/M02 A3019 RMK CI1 SLP226

CYQB;2008-05-03 02:00;CYQB 030200Z 07009KT 15SM SKC 06/01 A3020 RMK SLP229

CYQB;2008-05-03 03:00;CYQB 030300Z 08009KT 15SM SKC 06/02 A3020 RMK SLP231

CYQB;2008-05-03 04:00;CYQB 030400Z 07011G18KT 15SM FEW020 05/02 A3019 RMK SC1 SLP228

CYQB;2008-05-03 05:00;CYQB 030500Z 07012G18KT 15SM FEW010 05/03 A3019 RMK SC1 SLP226

CYQB;2008-05-03 06:00;CYQB 030600Z 08010KT 15SM FEW010 04/02 A3019 RMK SC1 SLP227

CYQB;2008-05-03 07:00;CYQB 030700Z 07010KT 15SM FEW010 04/02 A3018 RMK SF2 SLP222

CYQB;2008-05-03 08:00;CYQB 030800Z 07018KT 15SM SCT010 04/02 A3017 RMK SF3 SLP218

CYQB;2008-05-03 08:23;CYQB 030823Z 07015G21KT 15SM BKN009 04/ RMK SF6

CYQB;2008-05-03 09:00;CYQB 030900Z 07014G19KT 30SM SCT009 BKN250 03/02 A3017 RMK SF4CI0 SLP217

CYQB;2008-05-03 10:00;CYQB 031000Z 08010KT 30SM FEW009 BKN250 04/02 A3017 RMK SF2CI0 CC ASOCTD SLP217

CYQB;2008-05-03 11:00;CYQB 031100Z 07016G24KT 30SM FEW009 FEW210 BKN250 04/02 A3017 RMK SF2CS1CI0 SLP220

CYQB;2008-05-03 12:00;CYQB 031200Z 07017G27KT 30SM FEW013 FEW160 BKN250 05/02 A3017 RMK SC2AC1CI0 SLP217

CYQB;2008-05-03 13:00;CYQB 031300Z 08015G29KT 30SM FEW013 BKN110 BKN250 06/02 A3015 RMK SC1AC6CI0 SLP213

CYQB;2008-05-03 14:00;CYQB 031400Z 07015KT 20SM BKN100 07/02 A3015 RMK AC7 SLP212

CYQB;2008-05-03 15:00;CYQB 031500Z 08012G17KT 20SM FEW065 BKN110 08/03 A3015 RMK SC1AC6 SLP212

CYQB;2008-05-03 16:00;CYQB 031600Z 08013G18KT 20SM BKN067 BKN100 08/03 A3014 RMK SC6AC1 SLP209

CYQB;2008-05-03 17:00;CYQB 031700Z 08010G16KT 20SM BKN064 09/03 A3014 RMK SC7 SLP210

CYQB;2008-05-03 18:00;CYQB 031800Z 09009KT 20SM BKN064 BKN100 09/03 A3013 RMK SC6AS2 SLP205

CYQB;2008-05-03 19:00;CYQB 031900Z 08007KT 20SM -RA BKN052 OVC085 09/04 A3012 RMK SC6AS2 VRY LGT PCPN SLP201

CYQB;2008-05-03 20:00;CYQB 032000Z 08008KT 20SM -RA BKN050 OVC080 09/04 A3011 RMK SC6AS2 VRY LGT PCPN SLP197

CYQB;2008-05-03 21:00;CYQB 032100Z 08010KT 15SM -RA BKN045 OVC080 08/04 A3010 RMK SC7AS1 SLP194

CYQB;2008-05-03 22:00;CYQB 032200Z 08008KT 20SM -RA FEW045 BKN056 BKN080 08/04 A3010 RMK SC1SC6AC1 SLP194

CYQB;2008-05-03 23:00;CYQB 032300Z 09010G16KT 20SM -RA BKN059 BKN080 08/03 A3009 RMK SC6AC1 VRY LGT PCPN SLP192

CYQB;2008-05-03 23:42;CYQB 032342Z 12015KT 20SM BKN051 OVC080 08/ RMK SC7AS1

CYQB;2008-05-04 00:00;CYQB 040000Z 11014G21KT 20SM -RA SCT044 OVC051 08/02 A3010 RMK SC3SC5 -RA INTMT SLP194

CYQB;2008-05-04 01:00;CYQB 040100Z 11013G20KT 15SM OVC043 08/02 A3009 RMK SC8 SLP192

CYQB;2008-05-04 02:00;CYQB 040200Z 11014G21KT 15SM OVC049 08/02 A3007 RMK SC8 SLP185

CYQB;2008-05-04 03:00;CYQB 040300Z 10009G16KT 15SM OVC034 08/02 A3006 RMK SC8 SLP181

CYQB;2008-05-04 04:00;CYQB 040400Z 09009KT 15SM OVC032 08/02 A3004 RMK SC8 SLP175

CYQB;2008-05-04 05:00;CYQB 040500Z 09007KT 15SM OVC033 08/03 A3003 RMK SC8 SLP173

CYQB;2008-05-04 06:00;CYQB 040600Z 09009KT 15SM OVC031 08/03 A3002 RMK SC8 SLP167

CYQB;2008-05-04 07:00;CYQB 040700Z 08007KT 15SM OVC031 08/03 A3000 RMK SC8 SLP161

CYQB;2008-05-04 08:00;CYQB 040800Z 08007KT 15SM OVC031 08/03 A2998 RMK SC8 SLP154

CYQB;2008-05-04 09:00;CYQB 040900Z 08006KT 15SM OVC027 08/04 A2997 RMK SC8 SLP151

CYQB;2008-05-04 10:00;CYQB 041000Z 08007KT 15SM OVC022 07/04 A2996 RMK SC8 SLP149

CYQB;2008-05-04 10:09;CYQB 041009Z 07009KT 15SM -SHRA OVC020 07/ RMK SC8

CYQB;2008-05-04 11:00;CYQB 041100Z 07010KT 12SM -SHRA OVC020 07/05 A2997 RMK SC8 SLP150

CYQB;2008-05-04 12:00;CYQB 041200Z 07010KT 4SM -SHRA OVC020 07/05 A2997 RMK SC8 SLP150

CYQB;2008-05-04 12:42;CYQB 041242Z 08009KT 4SM -SHRA BR FEW004 OVC014 07/ RMK SF2SC6

CYQB;2008-05-04 13:00;CYQB 041300Z 08007KT 4SM -SHRA BR SCT004 OVC012 07/06 A2997 RMK SF4SC4 SLP150

CYQB;2008-05-04 14:00;CYQB 041400Z 11005KT 4SM -SHRA BR BKN003 OVC013 07/06 A2997 RMK SF6SC2 CIG RAG SLP152

CYQB;2008-05-04 15:00;CYQB 041500Z 08005KT 3SM -SHRA BR BKN004 OVC018 07/07 A2998 RMK SF6SC2 CIG RAG SLP155

CYQB;2008-05-04 16:00;CYQB 041600Z CCA 08005KT 3SM -SHRA BR BKN005 OVC015 08/07 A2997 RMK SF5SC3 OBS TAKEN +8 SLP153

CYQB;2008-05-04 17:00;CYQB 041700Z 09004KT 4SM -RA BR BKN004 OVC020 08/08 A2997 RMK SF6SC2 SLP151

CYQB;2008-05-04 17:44;CYQB 041744Z 07006KT 1 3/4SM -DZ BR BKN003 OVC010 08/ RMK FG2SF5SC2

CYQB;2008-05-04 18:00;CYQB 041800Z 08006KT 1 1/2SM -DZ BR BKN004 OVC015 08/08 A2996 RMK FG1SF6SC2 SLP148

CYQB;2008-05-04 19:00;CYQB 041900Z 09004KT 1 1/4SM R06/6000FT/D -DZ BR BKN003 OVC015 09/08 A2996 RMK FG2SF5SC2 SLP147

CYQB;2008-05-04 19:28;CYQB 041928Z 10004KT 1 1/4SM -RA BR BKN003 OVC010 09/ RMK FG2SF5SC2

CYQB;2008-05-04 20:00;CYQB 042000Z 09005KT 1 1/4SM -RA BR BKN004 OVC010 09/09 A2995 RMK FG2SF5SC2 CIG VRB 3-5 SLP145

CYQB;2008-05-04 20:34;CYQB 042034Z 09005KT 2 1/2SM -RA BR BKN004 OVC010 09/ RMK FG1SF6SC2 CIG VRB 3-5 VIS S 11/4

CYQB;2008-05-04 21:00;CYQB 042100Z 12006KT 2 1/2SM -DZ BR BKN004 OVC010 09/09 A2996 RMK FG1SF6SC1 CIG VRB 3-5 VIS S 11/4 SLP147

CYQB;2008-05-04 22:00;CYQB 042200Z 11005KT 2 1/2SM -DZ BR BKN005 OVC014 09/09 A2997 RMK FG1SF6SC1 SLP150

CYQB;2008-05-04 23:00;CYQB 042300Z 08004KT 2 1/2SM -DZ BR SCT006 OVC013 09/09 A2998 RMK FG1SF3SC4 VIS E-SE 11/4 SLP153

CYQB;2008-05-04 23:27;CYQB 042327Z 07005KT 2 1/2SM BR FEW006 SCT013 OVC026 08/ RMK FG1SF2SC2SC4 VIS E-S 11/4

CYQB;2008-05-05 00:00;CYQB 050000Z 07006KT 1 1/2SM BR SCT005 OVC026 08/08 A2997 RMK FG2SF2SC5 SLP153

CYQB;2008-05-05 00:14;CYQB 050014Z 07005KT 1 1/4SM -RA BR BKN002 OVC026 08/ RMK FG2SF4SC2

CYQB;2008-05-05 01:00;CYQB 050100Z 06005KT 1 1/4SM BR BKN002 OVC022 08/08 A2999 RMK FG2SF5SC1 SLP159

CYQB;2008-05-05 01:50;CYQB 050150Z 08004KT 1 1/4SM -DZ BR BKN002 OVC019 08/ RMK FG3SF4SC1

CYQB;2008-05-05 02:00;CYQB 050200Z 07004KT 1 1/4SM -DZ BR BKN002 OVC019 08/08 A3000 RMK FG3SF4SC1 SLP160

CYQB;2008-05-05 03:00;CYQB 050300Z 08003KT 1 1/4SM -DZ BR BKN002 OVC020 08/08 A3000 RMK FG3SF4SC1 SLP160

CYQB;2008-05-05 04:00;CYQB 050400Z 04002KT 1 1/2SM -RA BR SCT002 OVC010 08/08 A3000 RMK FG2SF2SC5 SLP162

CYQB;2008-05-05 04:41;CYQB 050441Z 00000KT 3SM R06/4000VP6000FT/D BR FEW002 OVC007 08/ RMK SF1ST7

CYQB;2008-05-05 05:00;CYQB 050500Z 04002KT 3SM BR FEW002 OVC006 08/08 A3000 RMK SF1ST7 SLP163

CYQB;2008-05-05 06:00;CYQB 050600Z 23006KT 5SM BR BKN005 OVC010 09/09 A3001 RMK SF6SC2 SLP165

CYQB;2008-05-05 06:50;CYQB 050650Z 24008KT 5SM BR FEW008 BKN018 BKN056 09/ RMK SF2SC3SC2

CYQB;2008-05-05 07:00;CYQB 050700Z 24011KT 5SM BR FEW005 BKN020 OVC048 09/09 A3001 RMK SF2SC3SC3 SLP165

CYQB;2008-05-05 08:00;CYQB 050800Z 25008KT 10SM FEW030 BKN050 BKN075 08/08 A3002 RMK SC2SC3AC1 SLP168

CYQB;2008-05-05 09:00;CYQB 050900Z 24010KT 10SM FEW005 FEW012 BKN042 08/08 A3003 RMK SF1SC1SC6 SLP170

CYQB;2008-05-05 10:00;CYQB 051000Z 25008KT 15SM FEW005 BKN043 BKN075 BKN250 08/08 A3003 RMK SF1SC5AC1CI1 SLP171

CYQB;2008-05-05 11:00;CYQB 051100Z 25006KT 30SM FEW005 FEW045 BKN070 BKN250 08/07 A3005 RMK SF1SC2AC2CI1 SLP179

CYQB;2008-05-05 12:00;CYQB 051200Z 24006KT 30SM FEW005 FEW045 SCT070 09/07 A3006 RMK SF1SC1AC2 SLP183

CYQB;2008-05-05 13:00;CYQB 051300Z 22008KT 30SM FEW015 FEW070 10/07 A3006 RMK SC1AC1 TCU ASOCT NE SLP183

CYQB;2008-05-05 14:00;CYQB 051400Z CCA 21010KT 30SM FEW025 FEW070 10/07 A3006 RMK SC2AC1 TCU ASOCT NE SLP183

CYQB;2008-05-05 15:00;CYQB 051500Z 23009KT 30SM SCT025 SCT070 11/07 A3007 RMK SC3AC1 SLP184

CYQB;2008-05-05 16:00;CYQB 051600Z 24009KT 50SM FEW025 13/08 A3005 RMK SC1 CU ASOCT SLP179

CYQB;2008-05-05 17:00;CYQB 051700Z 22010KT 50SM FEW040 13/07 A3004 RMK CU1 SLP175

CYQB;2008-05-05 18:00;CYQB 051800Z 20008KT 50SM FEW040 14/05 A3002 RMK CU1 SLP166

CYQB;2008-05-05 19:00;CYQB 051900Z 22008KT 50SM FEW035 15/04 A3000 RMK SC1 SLP162

CYQB;2008-05-05 20:00;CYQB 052000Z 20009KT 30SM FEW035 16/00 A2999 RMK SC1 SLP158

CYQB;2008-05-05 21:00;CYQB 052100Z 19009KT 30SM FEW035 FEW250 16/01 A2998 RMK SC1CI1 SLP155

CYQB;2008-05-05 22:00;CYQB 052200Z 23009KT 30SM FEW250 16/00 A2998 RMK CI1 SLP154

CYQB;2008-05-05 23:00;CYQB 052300Z 23008KT 30SM FEW250 15/M00 A2998 RMK CI1 SLP154

CYQB;2008-05-06 00:00;CYQB 060000Z 23005KT 20SM FEW250 14/00 A2998 RMK CI1 SLP153

CYQB;2008-05-06 01:00;CYQB 060100Z 28002KT 15SM SKC 11/02 A2997 RMK SLP152

CYQB;2008-05-06 02:00;CYQB 060200Z 31002KT 15SM SKC 10/02 A2999 RMK SLP156

CYQB;2008-05-06 03:00;CYQB 060300Z 36003KT 15SM SKC 09/02 A2998 RMK SLP154

CYQB;2008-05-06 04:00;CYQB 060400Z 03005KT 15SM SKC 08/02 A2998 RMK SLP154

CYQB;2008-05-06 05:00;CYQB 060500Z 03005KT 15SM SKC 08/02 A2997 RMK SLP152

CYQB;2008-05-06 06:00;CYQB 060600Z 36005KT 15SM SKC 06/02 A2997 RMK SLP150

CYQB;2008-05-06 07:00;CYQB 060700Z 02006KT 15SM SKC 05/02 A2996 RMK SLP148

CYQB;2008-05-06 08:00;CYQB 060800Z 04003KT 15SM SKC 05/01 A2996 RMK SLP148

CYQB;2008-05-06 09:00;CYQB 060900Z CCA 01004KT 30SM FEW100 FEW250 04/01 A2996 RMK AC2CI0 SLP148

CYQB;2008-05-06 10:00;CYQB 061000Z 02006KT 30SM FEW100 BKN250 04/01 A2996 RMK AC1CI2 SLP146

CYQB;2008-05-06 11:00;CYQB 061100Z 02002KT 15SM BKN250 06/02 A2996 RMK CI2 HAZY SLP146

CYQB;2008-05-06 12:00;CYQB 061200Z 34002KT 15SM FEW100 BKN250 08/03 A2996 RMK AC1CI1 HAZY SLP147

CYQB;2008-05-06 13:00;CYQB 061300Z 06005KT 10SM BKN110 OVC240 11/03 A2995 RMK AC5CI1 HAZY DIST SH W SLP144

CYQB;2008-05-06 14:00;CYQB 061400Z 11005KT 15SM VCSH OVC100 12/04 A2994 RMK AC8 HAZY SLP139

CYQB;2008-05-06 15:00;CYQB 061500Z 36002KT 15SM BKN100 BKN220 14/04 A2992 RMK AC6CI1 HAZY SLP133

CYQB;2008-05-06 16:00;CYQB 061600Z 12005KT 20SM SCT080 BKN210 16/05 A2989 RMK AC3CI1 HAZY SLP124

CYQB;2008-05-06 17:00;CYQB 061700Z 15006KT 20SM SCT080 SCT096 BKN200 18/05 A2986 RMK AC3AC1CI1 TCU ASOCT SLP115

CYQB;2008-05-06 18:00;CYQB 061800Z 26012KT 20SM BKN085 BKN180 19/06 A2984 RMK AC5AC1 SLP105

CYQB;2008-05-06 19:00;CYQB 061900Z 24014G21KT 20SM FEW060 20/07 A2982 RMK SC2 CU ASOCTD SLP098

CYQB;2008-05-06 20:00;CYQB 062000Z 25016G24KT 30SM FEW060 FEW230 20/03 A2981 RMK CU1CI1 SLP097

CYQB;2008-05-06 21:00;CYQB 062100Z 24015KT 30SM FEW060 SCT230 19/04 A2980 RMK CU1CI1 SLP093

CYQB;2008-05-06 22:00;CYQB 062200Z 25011G17KT 30SM FEW060 SCT230 18/M00 A2980 RMK SC2CI1 CU ASOCTD SLP093

CYQB;2008-05-06 23:00;CYQB 062300Z 24010KT 30SM FEW060 SCT090 BKN180 17/01 A2981 RMK SC2AC2CI2 SLP095

CYQB;2008-05-07 00:00;CYQB 070000Z 31018G25KT 30SM FEW060 SCT090 BKN220 16/02 A2981 RMK SC1AC2CI1 VIA YYY FSS SLP096

CYQB;2008-05-07 01:00;CYQB 070100Z 22012G17KT 15SM FEW060 BKN220 14/04 A2986 RMK SC1CI2 SLP111

CYQB;2008-05-07 02:00;CYQB 070200Z 35007KT 15SM FEW070 BKN090 13/05 A2988 RMK AC1AC6 SLP120

CYQB;2008-05-07 03:00;CYQB 070300Z 27003KT 15SM FEW035 FEW080 10/04 A2989 RMK SC1AC2 SLP123

CYQB;2008-05-07 04:00;CYQB 070400Z 33009KT 15SM FEW080 10/03 A2990 RMK AC1 SLP126

CYQB;2008-05-07 05:00;CYQB 070500Z 34005KT 15SM SCT075 10/02 A2990 RMK AC3 SLP127

CYQB;2008-05-07 06:00;CYQB 070600Z 29004KT 15SM FEW075 08/02 A2990 RMK AC1 SLP125

CYQB;2008-05-07 07:00;CYQB 070700Z 29005KT 15SM FEW080 07/01 A2989 RMK AC1 SLP124

CYQB;2008-05-07 08:00;CYQB 070800Z 34006KT 15SM SKC 08/00 A2989 RMK SLP124

CYQB;2008-05-07 09:00;CYQB 070900Z 31004KT 15SM FEW080 06/00 A2990 RMK AC1 SLP127

CYQB;2008-05-07 10:00;CYQB 071000Z 35004KT 30SM FEW080 06/01 A2991 RMK AC1 SLP131

CYQB;2008-05-07 11:00;CYQB 071100Z 35006KT 30SM FEW060 08/01 A2994 RMK SC1 SLP139

CYQB;2008-05-07 12:00;CYQB 071200Z 34008KT 50SM FEW060 09/00 A2994 RMK SC1 SLP142

CYQB;2008-05-07 13:00;CYQB 071300Z 34005KT 30SM FEW060 11/M01 A2996 RMK SC1 CU ASOCT S SLP146

CYQB;2008-05-07 14:00;CYQB 071400Z 30012G17KT 30SM FEW058 FEW240 13/M00 A2994 RMK SC2CI1 CU ASOCT SLP142

CYQB;2008-05-07 15:00;CYQB 071500Z 34008KT 30SM FEW062 13/M02 A2992 RMK SC2 SLP134

CYQB;2008-05-07 16:00;CYQB 071600Z 34007KT 30SM FEW060 FEW240 14/M01 A2991 RMK SC1CI1 SLP130

CYQB;2008-05-07 17:00;CYQB 071700Z 36002KT 30SM FEW060 FEW220 14/M02 A2986 RMK SC1CI1 SLP115

CYQB;2008-05-07 18:00;CYQB 071800Z 25005KT 30SM FEW060 FEW220 15/M02 A2986 RMK SC1CI1 SLP112

CYQB;2008-05-07 19:00;CYQB 071900Z 17008KT 30SM FEW060 FEW180 15/M00 A2983 RMK CU1CI1 SLP105

CYQB;2008-05-07 20:00;CYQB 072000Z 21013KT 30SM BKN200 15/M00 A2982 RMK CI6 SLP101

CYQB;2008-05-07 21:00;CYQB 072100Z 21008KT 30SM BKN170 OVC190 15/M02 A2980 RMK AC6CI2 SLP093

CYQB;2008-05-07 22:00;CYQB 072200Z 21005KT 30SM BKN170 OVC190 15/M02 A2978 RMK AC6CI2 SLP088

CYQB;2008-05-07 23:00;CYQB 072300Z 21003KT 30SM BKN150 OVC160 14/M01 A2977 RMK AC6AC2 SLP083

CYQB;2008-05-08 00:00;CYQB 080000Z 22003KT 30SM OVC130 14/M01 A2976 RMK AC8 SLP079

CYQB;2008-05-08 01:00;CYQB 080100Z 19003KT 15SM -SHRA OVC070 13/00 A2975 RMK AC8 SLP077

CYQB;2008-05-08 02:00;CYQB 080200Z 05008KT 15SM BKN065 OVC085 12/03 A2972 RMK SC6AC2 SLP064

CYQB;2008-05-08 03:00;CYQB 080300Z 12004KT 10SM -RA OVC061 11/03 A2969 RMK SC8 SLP056

CYQB;2008-05-08 04:00;CYQB 080400Z 10007KT 10SM -RA OVC043 10/05 A2967 RMK SC8 SLP047

CYQB;2008-05-08 05:00;CYQB 080500Z 11008KT 7SM -RA OVC028 08/06 A2964 RMK SC8 SLP040

CYQB;2008-05-08 06:00;CYQB 080600Z 05004KT 7SM -RA OVC016 08/07 A2959 RMK SC8 SLP023

CYQB;2008-05-08 07:00;CYQB 080700Z 07009KT 5SM -RA BR BKN011 OVC040 08/07 A2953 RMK SC7SC1 SLP002

CYQB;2008-05-08 08:00;CYQB 080800Z 06007KT 5SM -RA BR SCT010 OVC039 08/07 A2951 RMK SC3SC5 SLP996

CYQB;2008-05-08 09:00;CYQB 080900Z 07005KT 5SM -RA BR BKN005 OVC016 08/07 A2949 RMK SF5SC3 SLP987

CYQB;2008-05-08 09:37;CYQB 080937Z 07008KT 1 1/4SM -RA BR BKN003 OVC014 08/ RMK SF6SC2 /RO1/

CYQB;2008-05-08 10:00;CYQB 081000Z 07006KT 1SM R06/P6000FT/D -RA BR BKN003 OVC011 08/07 A2948 RMK SF7SC1 /R02/ SLP984

CYQB;2008-05-08 11:00;CYQB 081100Z 07007KT 1 1/2SM -DZ BR OVC002 08/08 A2948 RMK ST8 SLP984

CYQB;2008-05-08 12:00;CYQB 081200Z 08007KT 1 1/2SM R06/5500FT/U -DZ BR OVC002 08/08 A2947 RMK ST8 SLP982

CYQB;2008-05-08 13:00;CYQB 081300Z 09005KT 1SM R06/5000FT/D -DZ BR OVC002 08/08 A2947 RMK FG2ST6 CIG VRB 1-3 SLP981

CYQB;2008-05-08 14:00;CYQB 081400Z 06004KT 1SM R06/5000FT/U -DZ BR OVC002 09/09 A2946 RMK FG2ST6 SLP979

CYQB;2008-05-08 15:00;CYQB 081500Z 02004KT 1SM R06/P6000FT/D -DZ BR OVC002 09/09 A2946 RMK FG2ST6 SLP978

CYQB;2008-05-08 15:35;CYQB 081535Z 09002KT 5SM BR BKN005 OVC015 10/ RMK SF5SC3

CYQB;2008-05-08 16:00;CYQB 081600Z 18002KT 5SM BR BKN006 OVC015 11/10 A2946 RMK SF6SC2 SLP978

CYQB;2008-05-08 17:00;CYQB 081700Z 29008KT 10SM VCSH SCT006 BKN017 OVC045 13/11 A2947 RMK SF3CF2SC2 SLP982

CYQB;2008-05-08 18:00;CYQB 081800Z 28016KT 15SM SCT045 BKN063 16/10 A2949 RMK CF4SC2 SLP986

CYQB;2008-05-08 19:00;CYQB 081900Z 28018G26KT 30SM FEW035 BKN045 14/01 A2951 RMK CF1SC7 SLP995

CYQB;2008-05-08 19:51;CYQB 081951Z 30017G26KT 30SM -SHRA BKN045 13/ RMK SC7

CYQB;2008-05-08 20:00;CYQB 082000Z 31017G22KT 30SM BKN045 13/07 A2955 RMK SC7 OCNL -SHRA SLP006

CYQB;2008-05-08 20:19;CYQB 082019Z 30018G27KT 30SM BKN045 12/ RMK SC7

CYQB;2008-05-08 21:00;CYQB 082100Z 31013G21KT 30SM BKN047 13/05 A2959 RMK SC7 SLP023

CYQB;2008-05-08 22:00;CYQB 082200Z 30018G24KT 30SM BKN050 13/04 A2963 RMK SC6 SLP034

CYQB;2008-05-08 23:00;CYQB 082300Z 30009G16KT 30SM SCT060 11/04 A2966 RMK SC3 SLP045

CYQB;2008-05-09 00:00;CYQB 090000Z 27009KT 30SM FEW057 10/04 A2969 RMK SC1 SLP055

CYQB;2008-05-09 01:00;CYQB 090100Z 24007KT 15SM FEW057 09/03 A2972 RMK SC1 SLP068

CYQB;2008-05-09 02:00;CYQB 090200Z 27009KT 15SM FEW060 08/03 A2976 RMK SC1 SLP079

CYQB;2008-05-09 03:00;CYQB 090300Z 29011KT 15SM FEW060 09/04 A2977 RMK SC1 SLP084

CYQB;2008-05-09 04:00;CYQB 090400Z 31008KT 15SM FEW060 08/03 A2978 RMK SC1 SLP088

CYQB;2008-05-09 05:00;CYQB 090500Z 32008KT 15SM FEW050 07/03 A2979 RMK SC1 SLP089

CYQB;2008-05-09 06:00;CYQB 090600Z 33006KT 15SM SKC 07/02 A2979 RMK SLP089

CYQB;2008-05-09 07:00;CYQB 090700Z 32007KT 15SM FEW050 06/01 A2981 RMK SC1 SLP094

CYQB;2008-05-09 08:00;CYQB 090800Z 31007KT 15SM SCT031 06/01 A2983 RMK SC3 SLP103

CYQB;2008-05-09 09:00;CYQB 090900Z 33007KT 15SM FEW030 FEW230 06/00 A2985 RMK SC1CI1 SLP110

CYQB;2008-05-09 10:00;CYQB 091000Z 29005KT 15SM FEW030 FEW230 05/00 A2987 RMK SC1CI1 SLP118

CYQB;2008-05-09 11:00;CYQB 091100Z 33006KT 15SM FEW030 FEW230 06/M00 A2989 RMK SC1CI0 SLP124

CYQB;2008-05-09 12:00;CYQB 091200Z 34005KT 30SM FEW028 SCT230 07/01 A2990 RMK CF1CI0 SLP128

CYQB;2008-05-09 13:00;CYQB 091300Z 02006KT 30SM FEW250 08/01 A2991 RMK CI0 SLP130

CYQB;2008-05-09 14:00;CYQB 091400Z 33005KT 30SM FEW250 10/02 A2990 RMK CI1 SLP126

CYQB;2008-05-09 15:00;CYQB 091500Z 19003KT 30SM FEW250 11/02 A2988 RMK CI1 SLP120

CYQB;2008-05-09 16:00;CYQB 091600Z 22009KT 30SM SCT250 13/04 A2986 RMK CI0 SLP114

CYQB;2008-05-09 17:00;CYQB 091700Z 22004KT 15SM FEW150 SCT250 14/03 A2983 RMK AC1CI0 SLP104

CYQB;2008-05-09 18:00;CYQB 091800Z 19011KT 30SM FEW150 BKN250 15/02 A2982 RMK AC1CI2 SLP099

CYQB;2008-05-09 19:00;CYQB 091900Z 19007KT 30SM FEW150 OVC250 16/04 A2981 RMK AC1CI3 SLP095

CYQB;2008-05-09 20:00;CYQB 092000Z 17005KT 30SM FEW050 FEW150 OVC250 16/01 A2980 RMK CF1AC1CI3 SLP094

CYQB;2008-05-09 21:00;CYQB 092100Z 25003KT 30SM FEW050 FEW150 250  A2979 RMK CF1AC1CI2 SLP090

CYQB;2008-05-09 22:00;CYQB 092200Z 07014KT 30SM FEW150 OVC250 15/02 A2980 RMK AC1CI2 SLP093

CYQB;2008-05-09 23:00;CYQB 092300Z 07011G18KT 30SM FEW150 BKN250 14/01 A2982 RMK AC1CI2 SLP098

CYQB;2008-05-10 00:00;CYQB 100000Z 08010KT 25SM FEW170 BKN250 12/02 A2983 RMK AC2CI2 SLP102

CYQB;2008-05-10 01:00;CYQB 100100Z 08008KT 15SM FEW160 BKN250 11/03 A2983 RMK AC2CI2 SLP103

CYQB;2008-05-10 02:00;CYQB 100200Z 06007KT 15SM FEW160 BKN250 10/02 A2983 RMK AC2CI2 SLP105

CYQB;2008-05-10 03:00;CYQB 100300Z 07008KT 15SM FEW160 BKN250 10/M01 A2983 RMK AC2CI1 SLP104

CYQB;2008-05-10 04:00;CYQB 100400Z 07008KT 15SM FEW200 10/00 A2984 RMK CI2 SLP106

CYQB;2008-05-10 05:00;CYQB 100500Z 07005KT 15SM FEW200 09/01 A2984 RMK CI1 SLP108

CYQB;2008-05-10 06:00;CYQB 100600Z 06008KT 15SM SKC 09/02 A2984 RMK SLP107

CYQB;2008-05-10 07:00;CYQB 100700Z 05008KT 15SM FEW200 08/02 A2984 RMK CI2 SLP106

CYQB;2008-05-10 08:00;CYQB 100800Z 04007KT 15SM FEW200 08/01 A2983 RMK CI2 SLP104

CYQB;2008-05-10 09:00;CYQB 100900Z 06008KT 20SM FEW170 BKN230 07/01 A2984 RMK AC2CI1 SLP105

CYQB;2008-05-10 10:00;CYQB 101000Z 07008KT 30SM FEW030 FEW170 BKN230 08/02 A2985 RMK CF1AC2CI1 SLP110

CYQB;2008-05-10 11:00;CYQB 101100Z 08009G15KT 30SM FEW020 SCT200 08/03 A2986 RMK CF1CI2 SLP114

CYQB;2008-05-10 12:00;CYQB 101200Z 07013G18KT 30SM FEW020 SCT200 08/05 A2988 RMK CF1CI2 SLP119

CYQB;2008-05-10 13:00;CYQB 101300Z 09013KT 30SM FEW020 BKN200 08/04 A2989 RMK CU1CI2 SLP122

CYQB;2008-05-10 14:00;CYQB 101400Z 08012G17KT 30SM FEW020 BKN200 09/04 A2989 RMK CF1CI2 CC ASOCTD SLP124

CYQB;2008-05-10 15:00;CYQB 101500Z 09013KT 30SM FEW020 BKN200 10/04 A2989 RMK CF1CI2 SLP124

CYQB;2008-05-10 16:00;CYQB 101600Z 08013G19KT 30SM FEW020 BKN200 12/03 A2988 RMK CF1CI2 SLP120

CYQB;2008-05-10 17:00;CYQB 101700Z 09017G24KT 30SM FEW020 BKN200 12/03 A2987 RMK CF1CI2 SLP118

CYQB;2008-05-10 18:00;CYQB 101800Z 08014G21KT 30SM FEW020 SCT180 OVC250 13/03 A2987 RMK SF2CC2CI4 SLP117

CYQB;2008-05-10 19:00;CYQB 101900Z 09015G22KT 30SM FEW020 SCT150 OVC240 12/03 A2986 RMK SC1AC2CI5 SLP114

CYQB;2008-05-10 20:00;CYQB 102000Z 07014G19KT 30SM FEW020 SCT150 OVC240 12/03 A2987 RMK SC1AC3CI4 SLP116

CYQB;2008-05-10 21:00;CYQB 102100Z 07014G21KT 30SM FEW020 FEW150 BKN240 12/03 A2987 RMK SC1AC2CI1 SLP118

CYQB;2008-05-10 22:00;CYQB 102200Z 07016G21KT 30SM FEW020 FEW150 BKN240 12/03 A2988 RMK SC1AC2CI1 SLP120

CYQB;2008-05-10 23:00;CYQB 102300Z 08007G17KT 30SM FEW025 OVC240 10/04 A2990 RMK SC1CI2 SLP126

CYQB;2008-05-11 00:00;CYQB 110000Z 09009KT 30SM FEW050 BKN240 09/04 A2991 RMK SC1CI2 SLP131

CYQB;2008-05-11 01:00;CYQB 110100Z 07012G20KT 15SM SCT240 08/04 A2993 RMK CI2 SLP138

CYQB;2008-05-11 02:00;CYQB 110200Z 07015KT 15SM BKN240 08/04 A2994 RMK CI2 SLP140

CYQB;2008-05-11 03:00;CYQB 110300Z 07011G16KT 15SM SKC 08/03 A2995 RMK SLP144

CYQB;2008-05-11 04:00;CYQB 110400Z 08007KT 15SM SKC 07/03 A2996 RMK SLP146

CYQB;2008-05-11 05:00;CYQB 110500Z 07007KT 15SM FEW006 06/04 A2995 RMK SF1 SLP145

CYQB;2008-05-11 06:00;CYQB 110600Z 05006KT 15SM FEW006 06/04 A2997 RMK SF2 SLP150

CYQB;2008-05-11 07:00;CYQB 110700Z 06006KT 15SM FEW007 05/04 A2997 RMK SF2 SLP151

CYQB;2008-05-11 07:30;CYQB 110730Z 06006KT 15SM BKN007 06/ RMK SF5

CYQB;2008-05-11 08:00;CYQB 110800Z 04005KT 15SM BKN007 06/04 A2998 RMK SF7 SLP155

CYQB;2008-05-11 09:00;CYQB 110900Z 06007KT 8SM BKN008 06/04 A2998 RMK SF7 SLP154

CYQB;2008-05-11 10:00;CYQB 111000Z 01005KT 8SM BKN008 06/04 A3000 RMK SF7 SLP160

CYQB;2008-05-11 11:00;CYQB 111100Z 07010KT 30SM BKN010 06/04 A2999 RMK SF7 SLP158

CYQB;2008-05-11 12:00;CYQB 111200Z 07006KT 30SM BKN011 07/04 A3000 RMK SC7 SLP163

CYQB;2008-05-11 13:00;CYQB 111300Z 08010KT 30SM SCT012 08/05 A3000 RMK SC3 SLP161

CYQB;2008-05-11 14:00;CYQB 111400Z 10008KT 30SM FEW015 10/05 A3001 RMK SC1 SLP164

CYQB;2008-05-11 15:00;CYQB 111500Z 09011KT 30SM FEW015 10/04 A2999 RMK SC1 SLP157

CYQB;2008-05-11 16:00;CYQB 111600Z 09014KT 30SM FEW015 FEW200 12/05 A2995 RMK SC1CI1 SLP144

CYQB;2008-05-11 17:00;CYQB 111700Z 08017KT 30SM FEW015 FEW200 14/04 A2993 RMK SC1CI1 SLP137

CYQB;2008-05-11 18:00;CYQB 111800Z 07014G20KT 30SM FEW020 SCT200 14/04 A2993 RMK SC1CI1 SLP137

CYQB;2008-05-11 19:00;CYQB 111900Z 07013G18KT 30SM FEW020 BKN200 15/03 A2990 RMK SC1CI2 SLP126

CYQB;2008-05-11 20:00;CYQB 112000Z 07014G21KT 30SM FEW020 BKN200 14/02 A2987 RMK SC1CS3 SLP118

CYQB;2008-05-11 21:00;CYQB 112100Z 09014G20KT 30SM FEW020 BKN210 13/01 A2988 RMK SC1CS5 SLP119

CYQB;2008-05-11 22:00;CYQB 112200Z 09014KT 30SM SCT210 13/02 A2988 RMK CS2 SLP120

CYQB;2008-05-11 23:00;CYQB 112300Z 08015G22KT 30SM SCT210 15/01 A2989 RMK CS1 SLP125

CYQB;2008-05-12 00:00;CYQB 120000Z 08010G15KT 30SM SCT210 10/02 A2991 RMK CI2 SLP129

CYQB;2008-05-12 01:00;CYQB 120100Z 07015KT 15SM SCT210 09/02 A2992 RMK CI1 SLP134

CYQB;2008-05-12 02:00;CYQB 120200Z 07012G18KT 15SM SKC 09/03 A2991 RMK SLP131

CYQB;2008-05-12 03:00;CYQB 120300Z 07014G22KT 15SM SKC 08/03 A2990 RMK SLP127

CYQB;2008-05-12 04:00;CYQB 120400Z 07013G19KT 15SM FEW200 08/04 A2990 RMK CI0 SLP127

CYQB;2008-05-12 05:00;CYQB 120500Z 08009G18KT 15SM BKN220 09/03 A2991 RMK CI2 SLP130

CYQB;2008-05-12 06:00;CYQB 120600Z 08007KT 15SM BKN230 08/04 A2992 RMK CI5 SLP132

CYQB;2008-05-12 07:00;CYQB 120700Z 07012KT 15SM BKN220 08/03 A2991 RMK CI3 SLP130

CYQB;2008-05-12 08:00;CYQB 120800Z 07010KT 15SM BKN210 08/03 A2991 RMK CI5 SLP130

CYQB;2008-05-12 09:00;CYQB 120900Z 07011KT 15SM BKN190 07/03 A2991 RMK AC6 SLP130

CYQB;2008-05-12 10:00;CYQB 121000Z 07009KT 30SM FEW012 FEW190 BKN220 07/03 A2994 RMK SF1AC1CI0 SLP142

CYQB;2008-05-12 11:00;CYQB 121100Z 08007KT 30SM FEW012 SCT210 09/03 A3000 RMK SF1CI1 SLP161

CYQB;2008-05-12 12:00;CYQB 121200Z 08010KT 30SM FEW010 BKN210 09/04 A3001 RMK SF1CI1 SLP165

CYQB;2008-05-12 13:00;CYQB 121300Z 05012KT 30SM FEW010 BKN200 10/04 A3002 RMK SF1CI1 SLP166

CYQB;2008-05-12 14:00;CYQB 121400Z 08012KT 30SM FEW010 BKN200 11/03 A3000 RMK SF1CI1 SLP162

CYQB;2008-05-12 15:00;CYQB 121500Z 07011KT 30SM FEW010 SCT200 13/03 A3000 RMK SF1CI1 SLP159

CYQB;2008-05-12 16:00;CYQB 121600Z 08012G18KT 30SM FEW010 FEW200 14/02 A2998 RMK SF1CI1 SLP155

CYQB;2008-05-12 17:00;CYQB 121700Z 08014KT 30SM FEW010 FEW200 15/02 A2997 RMK CF1CI1 SLP149

CYQB;2008-05-12 18:00;CYQB 121800Z 06012KT 30SM FEW010 FEW200 16/02 A2995 RMK CF1CI1 SLP145

CYQB;2008-05-12 19:00;CYQB 121900Z 07010G16KT 30SM FEW040 BKN240 17/01 A2994 RMK CU1CI0 SLP141

CYQB;2008-05-12 20:00;CYQB 122000Z 07012G18KT 30SM FEW040 BKN240 17/01 A2993 RMK CU1CI2 SLP138

CYQB;2008-05-12 21:00;CYQB 122100Z 07012KT 30SM FEW040 SCT240 16/03 A2993 RMK CF1CI1 SLP138

CYQB;2008-05-12 22:00;CYQB 122200Z 08010G16KT 30SM BKN240 16/02 A2994 RMK CI2 SLP141

CYQB;2008-05-12 23:00;CYQB 122300Z 09012KT 30SM BKN230 14/02 A2996 RMK CI2 SLP147

CYQB;2008-05-13 00:00;CYQB 130000Z 07010KT 30SM BKN230 13/02 A2997 RMK CI2 SLP150

CYQB;2008-05-13 01:00;CYQB 130100Z 07010G15KT 15SM BKN200 12/02 A3000 RMK CI2 SLP159

CYQB;2008-05-13 02:00;CYQB 130200Z 07008KT 15SM FEW190 11/02 A3001 RMK AS0 SLP164

CYQB;2008-05-13 03:00;CYQB 130300Z 07006KT 15SM FEW180 10/04 A3001 RMK AS1 SLP165

CYQB;2008-05-13 04:00;CYQB 130400Z 04004KT 15SM FEW180 10/04 A3002 RMK AS1 SLP168

CYQB;2008-05-13 05:00;CYQB 130500Z 06005KT 15SM FEW180 09/05 A3003 RMK AS0 SLP170

CYQB;2008-05-13 06:00;CYQB 130600Z 05006KT 15SM BKN220 09/04 A3003 RMK CI2 SLP170

CYQB;2008-05-13 07:00;CYQB 130700Z 08006KT 15SM BKN230 08/04 A3004 RMK CI5 SLP173

CYQB;2008-05-13 08:00;CYQB 130800Z 36002KT 15SM OVC190 07/03 A3006 RMK AC5 SLP179

CYQB;2008-05-13 09:00;CYQB 130900Z 36003KT 15SM OVC180 07/02 A3007 RMK AC8 SLP185

CYQB;2008-05-13 10:00;CYQB 131000Z 12002KT 30SM BKN180 07/01 A3010 RMK AC3 SLP193

CYQB;2008-05-13 11:00;CYQB 131100Z 01003KT 30SM BKN180 08/01 A3011 RMK AC3 SLP197

CYQB;2008-05-13 12:00;CYQB 131200Z 04005KT 30SM SCT180 11/02 A3012 RMK AC2 SLP202

CYQB;2008-05-13 13:00;CYQB 131300Z 06004KT 30SM FEW200 13/03 A3013 RMK CI1 SLP203

CYQB;2008-05-13 14:00;CYQB 131400Z 07005KT 30SM FEW015 FEW200 15/03 A3013 RMK SC1CI1 SLP203

CYQB;2008-05-13 15:00;CYQB 131500Z 00000KT 30SM FEW015 FEW200 17/03 A3011 RMK SC1CI1 SLP198

CYQB;2008-05-13 16:00;CYQB 131600Z 09004KT 30SM FEW020 FEW200 18/02 A3010 RMK SC1CI1 SLP193

CYQB;2008-05-13 17:00;CYQB 131700Z 11008KT 30SM FEW020 FEW200 19/02 A3008 RMK SC1CI1 SLP189

CYQB;2008-05-13 18:00;CYQB 131800Z 08007KT 30SM FEW030 FEW220 19/00 A3007 RMK CU1CI1 SLP184

CYQB;2008-05-13 19:00;CYQB 131900Z 08006KT 30SM FEW030 FEW220 20/00 A3005 RMK CU1CI1 SLP178

CYQB;2008-05-13 20:00;CYQB 132000Z 07005KT 30SM FEW030 FEW220 20/00 A3004 RMK CU1CI1 SLP173

CYQB;2008-05-13 21:00;CYQB 132100Z 16006KT 30SM FEW030 FEW220 20/00 A3004 RMK CU1CI1 SLP173

CYQB;2008-05-13 22:00;CYQB 132200Z 12004KT 30SM FEW030 FEW220 20/M01 A3003 RMK CU1CI1 SLP171

CYQB;2008-05-13 23:00;CYQB 132300Z 09005KT 30SM FEW030 FEW220 19/00 A3003 RMK CU1CI0 SLP172

CYQB;2008-05-14 00:00;CYQB 140000Z 07006KT 30SM FEW220 17/00 A3003 RMK CI1 SLP172

CYQB;2008-05-14 01:00;CYQB 140100Z 07004KT 15SM FEW220 16/01 A3004 RMK CI1 SLP175

CYQB;2008-05-14 02:00;CYQB 140200Z 06004KT 15SM SKC 14/02 A3006 RMK SLP181

CYQB;2008-05-14 03:00;CYQB 140300Z 36003KT 15SM SKC 12/03 A3006 RMK SLP182

CYQB;2008-05-14 04:00;CYQB 140400Z 36005KT 15SM SKC 12/02 A3007 RMK SLP183

CYQB;2008-05-14 05:00;CYQB 140500Z 02004KT 15SM SKC 11/02 A3006 RMK SLP181

CYQB;2008-05-14 06:00;CYQB 140600Z 03005KT 15SM SKC 10/01 A3006 RMK SLP180

CYQB;2008-05-14 07:00;CYQB 140700Z 03004KT 30SM SKC 09/01 A3006 RMK SLP179

CYQB;2008-05-14 08:00;CYQB 140800Z 04003KT 30SM SKC 08/01 A3006 RMK SLP179

CYQB;2008-05-14 09:00;CYQB 140900Z 01004KT 30SM SKC 07/01 A3007 RMK SLP183

CYQB;2008-05-14 10:00;CYQB 141000Z 03005KT 30SM SKC 07/01 A3008 RMK SLP186

CYQB;2008-05-14 11:00;CYQB 141100Z 02004KT 30SM SKC 09/02 A3009 RMK SLP190

CYQB;2008-05-14 12:00;CYQB 141200Z 07006KT 30SM SKC 12/02 A3008 RMK SLP186

CYQB;2008-05-14 13:00;CYQB 141300Z 07004KT 30SM SKC 15/04 A3008 RMK SLP186

CYQB;2008-05-14 14:00;CYQB 141400Z 12003KT 30SM SKC 16/04 A3006 RMK SLP179

CYQB;2008-05-14 15:00;CYQB 141500Z 08004KT 30SM FEW240 19/05 A3004 RMK CI1 SLP173

CYQB;2008-05-14 16:00;CYQB 141600Z 04003KT 30SM FEW240 21/04 A3002 RMK CI1 SLP166

CYQB;2008-05-14 17:00;CYQB 141700Z 00000KT 30SM FEW060 FEW240 22/02 A2998 RMK CU1CI0 SLP155

CYQB;2008-05-14 18:00;CYQB 141800Z 19002KT 30SM FEW060 BKN240 23/03 A2995 RMK CU1CS1 SLP142

CYQB;2008-05-14 19:00;CYQB 141900Z 16007KT 30SM SCT230 24/05 A2991 RMK CI1 SLP130

CYQB;2008-05-14 20:00;CYQB 142000Z 14004KT 50SM SCT230 25/04 A2989 RMK CI1 SLP121

CYQB;2008-05-14 21:00;CYQB 142100Z 14012G17KT 50SM BKN230 25/04 A2986 RMK CI2 SLP114

CYQB;2008-05-14 22:00;CYQB 142200Z 14011G17KT 30SM BKN230 24/03 A2985 RMK CI2 SLP110

CYQB;2008-05-14 23:00;CYQB 142300Z 14008KT 30SM BKN230 23/03 A2986 RMK CI4 SLP111

CYQB;2008-05-15 00:00;CYQB 150000Z 07009KT 30SM FEW150 BKN230 20/04 A2986 RMK AC1CI4 SLP114

CYQB;2008-05-15 01:00;CYQB 150100Z 07008KT 15SM FEW150 BKN230 18/05 A2988 RMK AC1CI2 SLP119

CYQB;2008-05-15 02:00;CYQB 150200Z 07010KT 15SM BKN230 17/05 A2988 RMK CS2 SLP118

CYQB;2008-05-15 03:00;CYQB 150300Z 06008KT 15SM FEW170 BKN230 16/05 A2986 RMK AC1CS2 SLP113

CYQB;2008-05-15 04:00;CYQB 150400Z CCA 06007KT 15SM FEW170 BKN230 16/05 A2986 RMK AC1CS3 SLP112

CYQB;2008-05-15 05:00;CYQB 150500Z 07005KT 15SM OVC230 16/04 A2985 RMK CS5 SLP109

CYQB;2008-05-15 06:00;CYQB 150600Z 07006KT 15SM OVC220 15/04 A2984 RMK CS6 SLP106

CYQB;2008-05-15 07:00;CYQB 150700Z 07006KT 15SM OVC220 15/03 A2985 RMK CS6 SLP107

CYQB;2008-05-15 08:00;CYQB 150800Z 06006KT 15SM FEW150 BKN220 14/03 A2984 RMK AC2CS4 SLP105

CYQB;2008-05-15 09:00;CYQB 150900Z 06008KT 15SM FEW130 SCT170 BKN220 13/04 A2984 RMK AC2AC2CI1 SLP104

CYQB;2008-05-15 10:00;CYQB 151000Z 05005KT 15SM SCT130 SCT170 BKN220 14/04 A2985 RMK AC3AC1CI1 SLP107

CYQB;2008-05-15 11:00;CYQB 151100Z 07003KT 20SM SCT090 OVC120 14/04 A2986 RMK AC3AC5 SLP111

CYQB;2008-05-15 12:00;CYQB 151200Z 04003KT 20SM FEW090 BKN120 OVC220 15/04 A2986 RMK AC2AC5CI0 SLP114

CYQB;2008-05-15 13:00;CYQB 151300Z 20004KT 20SM FEW050 SCT090 BKN120 OVC220 17/05 A2987 RMK SC2AC2AC3CI0 SLP115

CYQB;2008-05-15 13:52;CYQB 151352Z 24007KT 20SM -SHRA FEW030 BKN087 OVC220 17/ RMK CU2AC4CI0

CYQB;2008-05-15 14:00;CYQB 151400Z 23008KT 20SM -SHRA FEW030 BKN090 OVC120 17/08 A2987 RMK CU2AC4AC2 SLP116

CYQB;2008-05-15 15:00;CYQB 151500Z 24011KT 15SM -SHRA SCT028 OVC090 16/09 A2987 RMK SC4AC4 SLP116

CYQB;2008-05-15 16:00;CYQB 151600Z CCA 25006KT 10SM -SHRA FEW015 BKN048 OVC090 15/12 A2987 RMK CF2SC3AC2 SLP115

CYQB;2008-05-15 17:00;CYQB 151700Z 27008KT 6SM -SHRA BR BKN007 OVC015 14/12 A2987 RMK SF7SC1 SLP117

CYQB;2008-05-15 17:29;CYQB 151729Z 26006KT 6SM -SHRA BR SCT007 OVC012 14/ RMK SF4SC4

CYQB;2008-05-15 17:44;CYQB 151744Z 26006KT 6SM -SHRA BR FEW007 SCT012 OVC022 14/ RMK SF1SC3SC4

CYQB;2008-05-15 18:00;CYQB 151800Z 31006KT 6SM -SHRA BR FEW007 BKN016 OVC022 14/13 A2987 RMK SF1SC4SC3 SLP117

CYQB;2008-05-15 18:50;CYQB 151850Z 29008KT 10SM SCT017 BKN075 15/ RMK CF3AC3

CYQB;2008-05-15 19:00;CYQB 151900Z 29008KT 10SM SCT017 BKN075 15/12 A2988 RMK CF3AC3 SLP119

CYQB;2008-05-15 20:00;CYQB 152000Z 34008G21KT 15SM FEW032 SCT062 BKN230 16/09 A2989 RMK CF1SC2CI1 SLP121

CYQB;2008-05-15 21:00;CYQB 152100Z 32016KT 30SM SCT042 BKN120 16/09 A2990 RMK CF3AC1 SLP127

CYQB;2008-05-15 22:00;CYQB 152200Z 33012KT 30SM FEW040 FEW120 FEW230 16/06 A2992 RMK CF1AC1CI1 SLP133

CYQB;2008-05-15 23:00;CYQB 152300Z 34014KT 30SM FEW050 FEW120 FEW230 15/05 A2993 RMK SC2AC1CI1 SLP137

CYQB;2008-05-16 00:00;CYQB 160000Z 36007KT 30SM FEW060 FEW230 14/05 A2994 RMK SC2CI1 SLP141

CYQB;2008-05-16 01:00;CYQB 160100Z 32004KT 15SM FEW060 11/05 A2996 RMK SC1 SLP146

CYQB;2008-05-16 02:00;CYQB 160200Z 31005KT 15SM SKC 10/04 A2997 RMK SLP149

CYQB;2008-05-16 03:00;CYQB 160300Z 36007KT 15SM SKC 09/04 A2997 RMK SLP149

CYQB;2008-05-16 04:00;CYQB 160400Z 35005KT 15SM SKC 08/04 A2996 RMK SLP148

CYQB;2008-05-16 05:00;CYQB 160500Z 33007KT 15SM SKC 07/03 A2996 RMK SLP146

CYQB;2008-05-16 06:00;CYQB 160600Z 33007KT 15SM SKC 07/03 A2995 RMK SLP145

CYQB;2008-05-16 07:00;CYQB 160700Z 33006KT 15SM SKC 06/02 A2994 RMK SLP141

CYQB;2008-05-16 08:00;CYQB 160800Z 32008KT 15SM SKC 05/02 A2993 RMK SLP136

CYQB;2008-05-16 09:00;CYQB 160900Z 04007KT 15SM SKC 05/02 A2992 RMK SLP135

CYQB;2008-05-16 10:00;CYQB 161000Z 35006KT 15SM SKC 05/02 A2992 RMK SLP133

CYQB;2008-05-16 11:00;CYQB 161100Z 35005KT 15SM FEW220 07/03 A2992 RMK CI1 SLP132

CYQB;2008-05-16 12:00;CYQB 161200Z 35005KT 30SM FEW030 FEW220 09/02 A2992 RMK CU1CI1 SLP133

CYQB;2008-05-16 13:00;CYQB 161300Z 36003KT 30SM FEW030 FEW220 11/02 A2991 RMK CU1CI1 SLP130

CYQB;2008-05-16 14:00;CYQB 161400Z 00000KT 30SM FEW030 FEW220 13/02 A2987 RMK CU1CI1 SLP118

CYQB;2008-05-16 15:00;CYQB 161500Z 19007KT 30SM FEW030 BKN240 14/02 A2985 RMK CU1CI3 SLP110

CYQB;2008-05-16 16:00;CYQB 161600Z 25005KT 30SM BKN250 15/02 A2981 RMK CI2 SLP098

CYQB;2008-05-16 17:00;CYQB 161700Z 18005KT 30SM BKN250 15/02 A2978 RMK CI2 SLP087

CYQB;2008-05-16 18:00;CYQB 161800Z 15005KT 30SM BKN250 16/01 A2976 RMK CI3 SLP078

CYQB;2008-05-16 19:00;CYQB 161900Z 22008KT 30SM BKN250 17/02 A2973 RMK CI3 SLP068

CYQB;2008-05-16 20:00;CYQB 162000Z 20006KT 30SM OVC250 17/01 A2970 RMK CI4 SLP057

CYQB;2008-05-16 21:00;CYQB 162100Z 21006KT 30SM OVC250 18/00 A2967 RMK CI4 SLP048

CYQB;2008-05-16 22:00;CYQB 162200Z 20004KT 20SM FEW180 OVC220 17/M02 A2966 RMK AC1CI3 SLP044

CYQB;2008-05-16 23:00;CYQB 162300Z 22003KT 20SM FEW180 OVC220 17/M01 A2965 RMK AC1CI3 SLP043

CYQB;2008-05-17 00:00;CYQB 170000Z 07007KT 15SM FEW180 BKN220 15/02 A2966 RMK AC1CI3 SLP046

CYQB;2008-05-17 01:00;CYQB 170100Z 08007KT 15SM SCT220 14/02 A2966 RMK CI1 SLP046

CYQB;2008-05-17 02:00;CYQB 170200Z 05003KT 15SM SCT220 12/01 A2966 RMK CI2 SLP046

CYQB;2008-05-17 03:00;CYQB 170300Z 05005KT 15SM FEW220 11/03 A2964 RMK CI1 SLP039

CYQB;2008-05-17 04:00;CYQB 170400Z 02003KT 15SM FEW160 SCT220 09/02 A2963 RMK AC1CI1 SLP034

CYQB;2008-05-17 05:00;CYQB 170500Z 36004KT 15SM FEW220 08/02 A2960 RMK CI2 SLP025

CYQB;2008-05-17 06:00;CYQB 170600Z 02003KT 15SM FEW220 08/02 A2958 RMK CI1 SLP019

CYQB;2008-05-17 07:00;CYQB 170700Z 03004KT 15SM FEW190 07/02 A2956 RMK CI1 SLP010

CYQB;2008-05-17 08:00;CYQB 170800Z 00000KT 15SM FEW190 06/01 A2955 RMK CI1 SLP008

CYQB;2008-05-17 09:00;CYQB 170900Z 36002KT 15SM FEW190 06/01 A2954 RMK CI1 SLP006

CYQB;2008-05-17 10:00;CYQB 171000Z 00000KT 30SM FEW200 05/01 A2954 RMK CI1 SLP005

CYQB;2008-05-17 11:00;CYQB 171100Z 03002KT 30SM FEW120 SCT200 07/02 A2953 RMK AC2CI1 SLP003

CYQB;2008-05-17 12:00;CYQB 171200Z 07006KT 30SM FEW250 11/04 A2952 RMK CI1 SLP997

CYQB;2008-05-17 13:00;CYQB 171300Z 07005KT 30SM FEW250 13/03 A2950 RMK CI1 SLP992

CYQB;2008-05-17 14:00;CYQB 171400Z 09008KT 30SM FEW250 15/03 A2948 RMK CI1 SLP984

CYQB;2008-05-17 15:00;CYQB 171500Z 10008KT 30SM FEW025 FEW250 16/05 A2946 RMK CU1CI1 CU TR SLP978

CYQB;2008-05-17 16:00;CYQB 171600Z 09008G15KT 30SM FEW025 FEW250 17/02 A2943 RMK CU1CI1 CU TR SLP967

CYQB;2008-05-17 17:00;CYQB 171700Z 08010KT 30SM FEW025 FEW250 17/01 A2941 RMK CU1CI2 CU TR SLP959

CYQB;2008-05-17 18:00;CYQB 171800Z 10009KT 30SM FEW025 SCT250 18/01 A2939 RMK CU1CI2 CU TR SLP955

CYQB;2008-05-17 19:00;CYQB 171900Z 07012KT 30SM FEW025 SCT250 19/02 A2937 RMK CU1CI2 CU TR SLP948

CYQB;2008-05-17 20:00;CYQB 172000Z 09009KT 30SM FEW025 FEW250 18/M00 A2936 RMK CU1CI2 CU TR SLP943

CYQB;2008-05-17 21:00;CYQB 172100Z 07009KT 30SM FEW025 SCT250 18/00 A2934 RMK CU1CI2 SLP938

CYQB;2008-05-17 22:00;CYQB 172200Z 09010KT 30SM FEW025 SCT250 18/01 A2934 RMK CU1CI2 SLP937

CYQB;2008-05-17 23:00;CYQB 172300Z 07009KT 30SM SCT250 16/02 A2935 RMK CI1 SLP939

CYQB;2008-05-18 00:00;CYQB 180000Z 07010KT 30SM FEW250 14/02 A2934 RMK CI2 CC ASOCTD SLP936

CYQB;2008-05-18 01:00;CYQB 180100Z 07008KT 15SM SCT250 12/03 A2934 RMK CI2 SLP937

CYQB;2008-05-18 02:00;CYQB 180200Z 08005KT 15SM FEW220 12/01 A2934 RMK CI1 SLP938

CYQB;2008-05-18 03:00;CYQB 180300Z 24004KT 15SM FEW220 08/02 A2934 RMK CI1 SLP936

CYQB;2008-05-18 04:00;CYQB 180400Z 23004KT 15SM FEW150 07/03 A2933 RMK AC2 SLP934

CYQB;2008-05-18 05:00;CYQB 180500Z 00000KT 15SM FEW090 BKN140 08/04 A2931 RMK AC1AC4 SLP928

CYQB;2008-05-18 06:00;CYQB 180600Z 36002KT 15SM FEW044 BKN090 BKN140 10/05 A2930 RMK SC1AC4AC2 SLP922

CYQB;2008-05-18 07:00;CYQB 180700Z 36003KT 15SM -SHRA SCT025 BKN040 OVC090 09/04 A2929 RMK SC3SC3AC2 SLP920

CYQB;2008-05-18 08:00;CYQB 180800Z 03003KT 15SM -SHRA BKN024 OVC040 10/04 A2928 RMK SC5SC3 SLP918

CYQB;2008-05-18 09:00;CYQB 180900Z 34002KT 15SM BKN015 BKN024 OVC040 09/04 A2928 RMK SC6SC2SC1 SLP915

CYQB;2008-05-18 10:00;CYQB 181000Z 00000KT 20SM FEW010 SCT017 BKN090 08/M02 A2929 RMK SF2SC2AC1 SLP921

CYQB;2008-05-18 11:00;CYQB 181100Z 25013KT 15SM FEW010 SCT017 BKN058 11/02 A2929 RMK SF2SC2SC2 TCU EMBDD SLP921

CYQB;2008-05-18 12:00;CYQB 181200Z 25013KT 15SM BKN015 BKN060 11/08 A2931 RMK SC5AC2 SLP926

CYQB;2008-05-18 13:00;CYQB 181300Z 25011G16KT 15SM BKN018 12/08 A2932 RMK SC6 SLP929

CYQB;2008-05-18 14:00;CYQB 181400Z 24017KT 15SM BKN020 14/07 A2931 RMK SC4 SLP928

CYQB;2008-05-18 15:00;CYQB 181500Z 25014G21KT 15SM BKN039 16/07 A2931 RMK SC5 SLP926

CYQB;2008-05-18 16:00;CYQB 181600Z 25014KT 20SM SCT049 17/07 A2929 RMK SC4 SLP919

CYQB;2008-05-18 17:00;CYQB 181700Z 26014G19KT 15SM SCT049 17/06 A2928 RMK SC4 SLP916

CYQB;2008-05-18 18:00;CYQB 181800Z 22014G20KT 15SM SCT049 SCT210 18/05 A2926 RMK SC3CI1 SLP910

CYQB;2008-05-18 19:00;CYQB 181900Z 29005KT 20SM SCT060 18/06 A2926 RMK CU4 SH S SLP909

CYQB;2008-05-18 20:00;CYQB 182000Z 26009G19KT 30SM FEW074 SCT250 19/03 A2925 RMK CU2CI0 SLP904

CYQB;2008-05-18 21:00;CYQB 182100Z 25012G19KT 30SM FEW060 FEW250 19/05 A2924 RMK CU1CI1 CI TR SLP902

CYQB;2008-05-18 22:00;CYQB 182200Z 26014KT 30SM FEW060 BKN220 19/05 A2923 RMK CU2CI2 SLP900

CYQB;2008-05-18 23:00;CYQB 182300Z 25007KT 30SM FEW060 BKN200 17/04 A2924 RMK SC1CS2 SLP902

CYQB;2008-05-19 00:00;CYQB 190000Z 30004KT 20SM FEW060 BKN170 16/05 A2923 RMK SC1AC5 ACC SLP898

CYQB;2008-05-19 01:00;CYQB 190100Z 00000KT 15SM BKN160 13/07 A2923 RMK AC6 SLP899

CYQB;2008-05-19 02:00;CYQB 190200Z 25004KT 15SM FEW100 BKN150 12/06 A2923 RMK AC1AC7 SLP899

CYQB;2008-05-19 03:00;CYQB 190300Z 25006KT 15SM BKN095 BKN150 12/06 A2924 RMK AC6AC2 SLP902

CYQB;2008-05-19 04:00;CYQB 190400Z 25007KT 15SM BKN070 12/06 A2923 RMK AC7 SLP900

CYQB;2008-05-19 04:35;CYQB 190435Z 22011KT 15SM -SHRA BKN060 12/ RMK SC7

CYQB;2008-05-19 05:00;CYQB 190500Z 22010KT 15SM -SHRA BKN047 OVC065 11/M07 A2922 RMK SC6SC2 SLP895

CYQB;2008-05-19 06:00;CYQB 190600Z 32006KT 10SM -SHRA OVC050 10/09 A2920 RMK SC8 SLP888

CYQB;2008-05-19 07:00;CYQB 190700Z 28004KT 8SM -SHRA FEW010 OVC029 09/09 A2920 RMK SF2SC6 SLP887

CYQB;2008-05-19 08:00;CYQB 190800Z 00000KT 10SM -SHRA OVC043 09/09 A2917 RMK SC8 SLP880

CYQB;2008-05-19 09:00;CYQB 190900Z 14002KT 10SM -SHRA OVC032 09/09 A2917 RMK SC8 SLP877

CYQB;2008-05-19 09:20;CYQB 190920Z 18003KT 1 1/2SM -SHRA BR BKN003 OVC030 09/ RMK SF6SC2

CYQB;2008-05-19 09:33;CYQB 190933Z 20004KT 2SM -SHRA BR FEW003 OVC006 09/ RMK SF2SF6

CYQB;2008-05-19 10:00;CYQB 191000Z 18003KT 8SM -SHRA FEW007 BKN017 09/08 A2916 RMK SF2SC5 SLP875

CYQB;2008-05-19 10:36;CYQB 191036Z 19004KT 10SM FEW008 BKN015 09/ RMK SF2SC5

CYQB;2008-05-19 11:00;CYQB 191100Z 19006KT 10SM SCT010 BKN020 09/08 A2915 RMK SF3SC4 SLP873

CYQB;2008-05-19 11:55;CYQB 191155Z 25011KT 10SM -SHRA SCT010 OVC036 09/ RMK SF4SC3

CYQB;2008-05-19 12:00;CYQB 191200Z 25009G15KT 8SM -SHRA SCT010 OVC017 09/08 A2916 RMK SF4SC4 SLP875

CYQB;2008-05-19 12:30;CYQB 191230Z 26010KT 10SM SCT010 OVC020 09/ RMK SF4SC4

CYQB;2008-05-19 13:00;CYQB 191300Z 25010KT 12SM BKN010 BKN049 10/08 A2917 RMK SF5SC2 SLP878

CYQB;2008-05-19 14:00;CYQB 191400Z 22010KT 12SM SCT010 OVC021 10/07 A2917 RMK SF4SC4 SLP880

CYQB;2008-05-19 15:00;CYQB 191500Z 24013KT 12SM SCT010 BKN020 10/07 A2918 RMK SF3SC4 SLP883

CYQB;2008-05-19 16:00;CYQB 191600Z 24013G18KT 12SM FEW017 OVC032 09/07 A2918 RMK SF2SC6 SLP884

CYQB;2008-05-19 16:06;CYQB 191606Z 23011G18KT 12SM -SHRA SCT015 OVC032 10/ RMK SF3SC5

CYQB;2008-05-19 16:27;CYQB 191627Z 22009G15KT 12SM SCT015 OVC021 10/ RMK SF3SC5

CYQB;2008-05-19 17:00;CYQB 191700Z 25018KT 15SM OVC022 10/06 A2918 RMK SC8 SLP882

CYQB;2008-05-19 18:00;CYQB 191800Z 25016KT 15SM BKN023 OVC040 10/06 A2918 RMK SC6SC2 SLP884

CYQB;2008-05-19 19:00;CYQB 191900Z 26010KT 15SM FEW020 BKN048 11/06 A2919 RMK CU2SC6 SLP885

CYQB;2008-05-19 20:00;CYQB 192000Z 26013KT 15SM FEW025 BKN050 11/06 A2919 RMK CU2SC6 SLP886

CYQB;2008-05-19 21:00;CYQB 192100Z 25017KT 15SM FEW022 BKN039 11/M00 A2920 RMK CU2SC6 SLP888

CYQB;2008-05-19 22:00;CYQB 192200Z 25010G19KT 15SM SCT020 BKN029 10/06 A2921 RMK CU3SC4 SLP893

CYQB;2008-05-19 23:00;CYQB 192300Z 23013KT 15SM BKN017 09/06 A2922 RMK SC7 SLP896

CYQB;2008-05-20 00:00;CYQB 200000Z CCA 24012G17KT 15SM OVC016 09/06 A2923 RMK SC8 SLP900

CYQB;2008-05-20 01:00;CYQB 200100Z 24013KT 15SM BKN022 BKN100 09/07 A2924 RMK SC5AC2 SLP904

CYQB;2008-05-20 02:00;CYQB 200200Z 25014KT 15SM BKN021 OVC100 09/07 A2925 RMK SC5AC3 OBS TAKEN +23 SLP907

CYQB;2008-05-20 03:00;CYQB 200300Z 27016G22KT 15SM FEW015 BKN068 08/05 A2925 RMK SC2AC4 SLP908

CYQB;2008-05-20 03:52;CYQB 200352Z 25012G18KT 15SM -SHRA BKN064 08/ RMK SC7

CYQB;2008-05-20 04:00;CYQB 200400Z 25011KT 15SM -SHRA BKN068 BKN080 08/06 A2928 RMK AC5AC2 SLP917

CYQB;2008-05-20 04:28;CYQB 200428Z CCA 25009KT 15SM FEW065 BKN080 BKN120 08/ RMK SC2AC3AC2

CYQB;2008-05-20 05:00;CYQB 200500Z 25012KT 15SM SCT040 BKN095 08/05 A2930 RMK SC4AC2 SLP924

CYQB;2008-05-20 06:00;CYQB 200600Z 26013G18KT 15SM BKN045 BKN100 07/04 A2931 RMK SC6AC1 SLP927

CYQB;2008-05-20 07:00;CYQB 200700Z 26014G19KT 15SM FEW030 OVC090 07/03 A2931 RMK SC2AC6 SLP927

CYQB;2008-05-20 08:00;CYQB 200800Z 27012G18KT 15SM FEW030 SCT060 BKN080 07/02 A2931 RMK SC1SC3AC2 SLP927

CYQB;2008-05-20 09:00;CYQB 200900Z 27013KT 30SM SCT020 BKN061 06/02 A2932 RMK SC3SC3 SLP931

CYQB;2008-05-20 10:00;CYQB 201000Z 27013KT 30SM FEW025 FEW060 BKN250 06/02 A2933 RMK SC1SC2CI1 SLP935

CYQB;2008-05-20 11:00;CYQB 201100Z 27017G22KT 30SM SCT020 BKN200 06/02 A2935 RMK SC4CI1 SLP941

CYQB;2008-05-20 12:00;CYQB 201200Z 28014G25KT 30SM SCT025 SCT200 07/01 A2937 RMK SC3CI1 SLP948

CYQB;2008-05-20 13:00;CYQB 201300Z 26016KT 30SM BKN030 07/01 A2939 RMK SC7 SLP953

CYQB;2008-05-20 14:00;CYQB 201400Z 25015KT 30SM BKN038 08/01 A2939 RMK SC7 SLP956

CYQB;2008-05-20 15:00;CYQB 201500Z 27018G24KT 30SM BKN042 09/02 A2941 RMK SC7 SLP961

CYQB;2008-05-20 16:00;CYQB 201600Z 27015G20KT 30SM FEW030 BKN051 10/03 A2941 RMK CU2SC6 SLP960

CYQB;2008-05-20 17:00;CYQB 201700Z 24017G22KT 30SM FEW030 BKN046 BKN070 11/03 A2939 RMK CU2SC4AC1 SLP955

CYQB;2008-05-20 18:00;CYQB 201800Z 23019G24KT 20SM FEW030 BKN055 BKN090 12/04 A2938 RMK CU2SC4AC2 SLP950

CYQB;2008-05-20 19:00;CYQB 201900Z 24016KT 20SM FEW025 BKN050 BKN130 13/05 A2937 RMK CU2SC3AC1 SLP946

CYQB;2008-05-20 19:50;CYQB 201950Z 26013G21KT 15SM -SHRA FEW025 BKN041 RMK CU2SC6

CYQB;2008-05-20 20:00;CYQB 202000Z 26013G20KT 15SM -SHRA FEW021 BKN039 13/05 A2936 RMK CU1SC6 SLP945

CYQB;2008-05-20 20:48;CYQB 202048Z 27012G17KT 20SM FEW022 SCT040 BKN089 RMK CU1SC3AC2

CYQB;2008-05-20 21:00;CYQB 202100Z 26014KT 20SM FEW020 BKN055 13/05 A2936 RMK CU1SC4 SLP944

CYQB;2008-05-20 22:00;CYQB 202200Z 26012KT 20SM FEW020 BKN050 BKN260 13/04 A2936 RMK CU1SC4CI0 SLP942

CYQB;2008-05-20 23:00;CYQB 202300Z 35008KT 20SM FEW025 BKN064 BKN260 11/06 A2937 RMK CU1SC4CI0 SLP948

CYQB;2008-05-21 00:00;CYQB 210000Z 34004KT 20SM BKN036 BKN066 11/07 A2939 RMK SC5SC2 SLP954

CYQB;2008-05-21 01:00;CYQB 210100Z 35003KT 15SM BKN050 BKN075 10/07 A2939 RMK SC6AC2 SLP955

CYQB;2008-05-21 02:00;CYQB 210200Z 34003KT 15SM SCT060 09/07 A2939 RMK SC4 SLP956

CYQB;2008-05-21 03:00;CYQB 210300Z 00000KT 15SM SCT056 08/06 A2939 RMK SC4 SLP953

CYQB;2008-05-21 04:00;CYQB 210400Z 30002KT 15SM FEW010 FEW120 06/06 A2938 RMK SF1AC1 SLP951

CYQB;2008-05-21 05:00;CYQB 210500Z 01004KT 15SM FEW050 FEW120 07/06 A2937 RMK SC1AC1 SLP947

CYQB;2008-05-21 06:00;CYQB 210600Z 36004KT 15SM FEW060 SCT080 BKN250 07/06 A2936 RMK SC2AC2CI0 SLP943

CYQB;2008-05-21 07:00;CYQB 210700Z 01002KT 15SM FEW050 BKN100 BKN130 07/06 A2936 RMK SC1AC5AC2 SLP943

CYQB;2008-05-21 08:00;CYQB 210800Z 02004KT 15SM SCT100 BKN130 07/05 A2935 RMK AC3AC3 SLP941

CYQB;2008-05-21 09:00;CYQB 210900Z 36005KT 15SM FEW100 BKN130 06/05 A2936 RMK AC1AC6 SLP943

CYQB;2008-05-21 10:00;CYQB 211000Z 02004KT 30SM BKN110 07/05 A2936 RMK AC6 ACC ASOCTD SLP945

CYQB;2008-05-21 11:00;CYQB 211100Z 35002KT 30SM FEW110 08/06 A2938 RMK AC2 SLP951

CYQB;2008-05-21 12:00;CYQB 211200Z 07006KT 30SM FEW020 FEW100 FEW200 10/07 A2939 RMK CU1AC1CI1 SLP952

CYQB;2008-05-21 13:00;CYQB 211300Z 07009KT 30SM FEW020 SCT110 BKN230 12/07 A2939 RMK CU1AC2CI1 SLP954

CYQB;2008-05-21 14:00;CYQB 211400Z 10007KT 30SM FEW020 SCT110 BKN220 13/07 A2939 RMK CU1AC2CI0 SLP954

CYQB;2008-05-21 15:00;CYQB 211500Z 09004KT 30SM FEW030TCU SCT100 SCT220 14/07 A2939 RMK TCU2AC1CI0 SLP953

CYQB;2008-05-21 15:50;CYQB 211550Z 10003KT 30SM TS BKN040CB BKN100 BKN220 13/ RMK CB5AC0CI0

CYQB;2008-05-21 16:00;CYQB 211600Z 18004KT 30SM TS SCT030 SCT100 SCT220 13/05 A2938 RMK CU4AC1CI1 CB S DIST SH S SLP949

CYQB;2008-05-21 16:10;CYQB 211610Z 22016G22KT 10SM -TSRA SCT030 BKN043TCU OVC100 13/ RMK CU4TCU2AC2 CB EMBD

CYQB;2008-05-21 16:24;CYQB 211624Z 27020G28KT 10SM TSRA SCT030 BKN050TCU BKN100 BKN240 09/ RMK CU4TCU2AC1CI1 CB EMBD

CYQB;2008-05-21 16:35;CYQB 211635Z 32009G19KT 15SM -TSRA FEW030 BKN065TCU BKN240 10/ RMK CU2TCU4CI1 CB EMBD VIS LWR S

CYQB;2008-05-21 16:37;CYQB 211637Z CCA 32009G19KT 15SM -TSRA FEW030 BKN065TCU BKN240 10/ RMK CU2TCU4CI1 CB EMBD VIS LWR S RERA

CYQB;2008-05-21 16:40;CYQB 211640Z 36009KT 15SM -SHRA FEW030 BKN065TCU BKN240 11/ RETS RMK CU2TCU4CI1 CB EMBD VIS LWR S RERA

CYQB;2008-05-21 17:00;CYQB 211700Z 02007KT 15SM FEW030 BKN065TCU BKN240 12/06 A2940 RETSRA RMK CU2TCU4CI1 SLP957

CYQB;2008-05-21 18:00;CYQB 211800Z 07009KT 30SM SCT065TCU BKN090 BKN240 12/05 A2938 RMK TCU3AC3CI1 SLP952

CYQB;2008-05-21 19:00;CYQB 211900Z 15003KT 30SM -SHRA BKN055TCU BKN080 BKN240 14/05 A2938 RMK TCU5AC2CI1 SLP952

CYQB;2008-05-21 19:25;CYQB 211925Z 14002KT 30SM SCT055TCU BKN095 BKN240 14/ RMK TCU3AC2CI1

CYQB;2008-05-21 20:00;CYQB 212000Z 10003KT 30SM FEW055 SCT100 BKN240 15/04 A2939 RMK CU2AC2CI1 SLP954

CYQB;2008-05-21 21:00;CYQB 212100Z 23009KT 30SM -SHRA BKN036TCU BKN100 13/06 A2940 RMK TCU5AC2 SLP959

CYQB;2008-05-21 22:00;CYQB 212200Z 14007KT 30SM SCT040TCU BKN120 BKN240 11/08 A2942 RMK TCU3AC2CI1 SHWRS E SLP964

CYQB;2008-05-21 23:00;CYQB 212300Z 09004KT 30SM FEW040 BKN085 BKN240 11/09 A2943 RMK CU2AC4CI1 SLP967

CYQB;2008-05-22 00:00;CYQB 220000Z 07007KT 30SM FEW040 BKN060 BKN240 11/08 A2943 RMK CF2SC4CI1 SLP967

CYQB;2008-05-22 00:30;CYQB 220030Z 13004KT 15SM -SHRA BKN039TCU BKN060 11/ RMK TCU5SC2

CYQB;2008-05-22 00:46;CYQB 220046Z 24019KT 10SM -TSRA BKN031CB OVC060 09/ RMK CB5SC3 LTGCC

CYQB;2008-05-22 01:00;CYQB 220100Z 25011G17KT 5SM -TSRA BR BKN033TCU OVC060 08/07 A2947 RMK TCU5SC3 CB EMBDD SLP980

CYQB;2008-05-22 01:11;CYQB 220111Z 27005KT 5SM -SHRA BR OVC032TCU 08/ RETS RMK TCU8

CYQB;2008-05-22 02:00;CYQB 220200Z 25006KT 10SM -SHRA FEW020 OVC039TCU 08/07 A2948 RETS RMK CF2TCU6 SLP985

CYQB;2008-05-22 03:00;CYQB 220300Z 31003KT 10SM -SHRA FEW020 OVC038TCU 08/08 A2947 RMK SC2TCU6 SLP979

CYQB;2008-05-22 04:00;CYQB 220400Z 23006KT 8SM SHRA FEW020 OVC039TCU 08/07 A2948 RMK SC2TCU6 SLP984

CYQB;2008-05-22 05:00;CYQB 220500Z 22002KT 10SM -SHRA FEW020 OVC036TCU 08/07 A2948 RMK SC1TCU7 RERA SLP985

CYQB;2008-05-22 06:00;CYQB 220600Z 00000KT 8SM -SHRA FEW015 OVC035TCU 07/07 A2948 RMK SC1TCU7 SLP986

CYQB;2008-05-22 07:00;CYQB 220700Z 00000KT 7SM SHRA FEW008 FEW020 OVC035TCU 07/06 A2948 RMK SF1SC2TCU6 SLP986

CYQB;2008-05-22 08:00;CYQB 220800Z 08005KT 7SM -SHRA FEW004 OVC030 07/07 A2948 RERA RMK SF2SC6 SLP984

CYQB;2008-05-22 09:00;CYQB 220900Z 07003KT 10SM -SHRA FEW004 OVC026 07/06 A2948 RMK SF2SC6 SLP986

CYQB;2008-05-22 09:36;CYQB 220936Z 08003KT 15SM FEW005 OVC024 07/ RMK SF2SC6

CYQB;2008-05-22 10:00;CYQB 221000Z 08004KT 15SM FEW005 BKN020 OVC033 07/06 A2950 RMK SF2SC6SC1 SLP990

CYQB;2008-05-22 11:00;CYQB 221100Z 09003KT 12SM -SHRA FEW005 BKN018 OVC030 07/05 A2951 RMK SF2SC6SC1 SLP994

CYQB;2008-05-22 11:35;CYQB 221135Z 07003KT 8SM -SHRA FEW005 SCT008 BKN018 OVC030 07/ RMK SF2SF2SC3SC1

CYQB;2008-05-22 12:00;CYQB 221200Z 09002KT 8SM -SHRA SCT008 OVC021 07/06 A2952 RMK SF4SC4 SLP997

CYQB;2008-05-22 12:36;CYQB 221236Z 08002KT 8SM -SHRA FEW005 BKN009 OVC021 07/ RMK SF2SF5SC2 VIS N 4

CYQB;2008-05-22 13:00;CYQB 221300Z 04004KT 8SM -SHRA FEW005 BKN008 OVC025 08/07 A2953 RMK SF2SF5SC2 VIS N 4 SLP000

CYQB;2008-05-22 14:00;CYQB 221400Z 07003KT 10SM -SHRA FEW005 BKN009 OVC022 08/07 A2953 RMK SF2SF5SC2 VIS N 4 SLP000

CYQB;2008-05-22 15:00;CYQB 221500Z 04003KT 12SM -SHRA SCT009 BKN022 OVC060 10/07 A2953 RMK SF3SC4SC1 VIS LWR N-NE SLP002

CYQB;2008-05-22 15:41;CYQB 221541Z 00000KT 12SM FEW009 BKN022 OVC041 10/ RMK SF2SC4SC2

CYQB;2008-05-22 16:00;CYQB 221600Z 19003KT 12SM -SHRA FEW009 BKN019 OVC041 10/07 A2953 RMK SF2SC5SC2 SLP001

CYQB;2008-05-22 17:00;CYQB 221700Z 23005KT 12SM -SHRA BKN020 OVC040 11/06 A2953 RMK SC6SC2 SLP000

CYQB;2008-05-22 18:00;CYQB 221800Z 23006KT 15SM -SHRA FEW020 OVC045 11/07 A2953 RMK SC2SC6 SLP000

CYQB;2008-05-22 19:00;CYQB 221900Z 02002KT 5SM -SHRA BR FEW010 OVC027 10/07 A2954 RMK SF2SC6 SLP005

CYQB;2008-05-22 20:00;CYQB 222000Z 00000KT 10SM -SHRA FEW020 OVC055 11/08 A2954 RMK CF2SC5 SLP006

CYQB;2008-05-22 20:38;CYQB 222038Z 00000KT 30SM FEW020 SCT050 BKN110 11/ RMK CF2SC2AC3

CYQB;2008-05-22 21:00;CYQB 222100Z 23004KT 30SM FEW020 SCT050 BKN130 11/08 A2954 RMK CF2SC2AC3 SLP005

CYQB;2008-05-22 22:00;CYQB 222200Z 31002KT 30SM FEW020 BKN034 BKN130 12/06 A2955 RMK CF2SC3AC2 SHWRS NE SLP008

CYQB;2008-05-22 22:15;CYQB 222215Z 34003KT 15SM -SHRA FEW020 BKN042 BKN130 11/ RMK CF2SC4AC2

CYQB;2008-05-22 23:00;CYQB 222300Z 15002KT 15SM -SHRA FEW020 BKN050 10/09 A2956 RMK CF2SC6 SLP012

CYQB;2008-05-23 00:00;CYQB 230000Z 26002KT 15SM -SHRA FEW020 OVC060 10/09 A2957 RMK CF2SC6 SLP015

CYQB;2008-05-23 01:00;CYQB 230100Z 24002KT 15SM FEW020 SCT060 BKN210 10/09 A2958 RMK CF1SC3CI2 SLP018

CYQB;2008-05-23 02:00;CYQB 230200Z 25007KT 15SM FEW020 BKN046 BKN210 10/09 A2959 RMK CF1SC4CI1 SLP020

CYQB;2008-05-23 03:00;CYQB 230300Z 29005KT 15SM FEW020 BKN066 BKN072 11/08 A2958 RMK CF1SC5SC1 SLP019

CYQB;2008-05-23 04:00;CYQB 230400Z 29004KT 15SM BKN070 11/07 A2959 RMK SC6 SLP020

CYQB;2008-05-23 05:00;CYQB 230500Z 22005KT 15SM BKN100 09/08 A2959 RMK AS6 OBS TAKEN +18 SLP020

CYQB;2008-05-23 06:00;CYQB 230600Z 23004KT 15SM BKN100 09/08 A2959 RMK AS6 SLP020

CYQB;2008-05-23 07:00;CYQB 230700Z 27005KT 15SM BKN100 08/07 A2959 RMK AS6 SLP023

CYQB;2008-05-23 08:00;CYQB 230800Z 07002KT 15SM BKN100 08/07 A2961 RMK AS6 SLP028

CYQB;2008-05-23 09:00;CYQB 230900Z 03004KT 30SM BKN095 10/07 A2963 RMK AS6 SLP035

CYQB;2008-05-23 10:00;CYQB 231000Z 00000KT 30SM FEW090 SCT240 07/06 A2965 RMK AS2CI1 SLP043

CYQB;2008-05-23 11:00;CYQB 231100Z 00000KT 30SM FEW010 BKN100 BKN240 09/08 A2967 RMK CF1AC5CI2 SLP048

CYQB;2008-05-23 12:00;CYQB 231200Z 27002KT 30SM FEW010 SCT070 BKN100 BKN240 11/07 A2968 RMK CF1AC4AC2CI2 SLP052

CYQB;2008-05-23 13:00;CYQB 231300Z 29003KT 30SM FEW015 SCT060 BKN100 OVC240 11/07 A2969 RMK CF1SC3AC3CI1 SLP056

CYQB;2008-05-23 14:00;CYQB 231400Z 33008KT 30SM FEW020 SCT060 OVC080 12/07 A2970 RMK CF1SC2AC5 SLP059

CYQB;2008-05-23 15:00;CYQB 231500Z 31009KT 30SM FEW025 BKN060 OVC080 13/05 A2970 RMK SC2SC2AC3 SLP058

CYQB;2008-05-23 15:39;CYQB 231539Z 32015KT 15SM -SHRA FEW025 BKN040 OVC080 12/ RMK SC2SC3AC2

CYQB;2008-05-23 16:00;CYQB 231600Z 32012KT 15SM -SHRA FEW025 BKN040 BKN080 13/08 A2970 RMK SC2SC3AC2 SLP058

CYQB;2008-05-23 17:00;CYQB 231700Z 34010G15KT 15SM SCT040 BKN120 BKN240 14/05 A2969 RMK SC3AC2CI1 CU ASOCTD SLP054

CYQB;2008-05-23 17:11;CYQB 231711Z 35015KT 15SM -SHRA SCT040 BKN120 BKN240 14/ RMK SC3AC2CI1

CYQB;2008-05-23 17:42;CYQB 231742Z 33013G19KT 30SM BKN045 BKN120 15/ RMK SC5AC1 TCU ASOCTD

CYQB;2008-05-23 18:00;CYQB 231800Z CCA 34015G22KT 30SM BKN045 BKN240 16/04 A2968 RMK SC6CI0 TCU ASOCTD SLP053

CYQB;2008-05-23 19:00;CYQB 231900Z 34010G22KT 30SM BKN050 BKN140 BKN240 16/04 A2969 RMK CU6AC1CI1 TCU ASOCTD SH NW QUAD SLP055

CYQB;2008-05-23 19:09;CYQB 231909Z 33020G26KT 30SM -SHRA BKN050 BKN240 13/ RMK CU6CI1 TCU ASOCTD VIS LWR W

CYQB;2008-05-23 19:43;CYQB 231943Z 34012G18KT 30SM BKN052 BKN110 BKN240 15/ RMK CU6AC1CI1 TCU ASOCTD SH SW QUAD

CYQB;2008-05-23 20:00;CYQB 232000Z 02021G27KT 30SM BKN052 BKN110 BKN240 15/04 A2971 RMK CU5AC1CI2 TCU ASOCTD SLP061

CYQB;2008-05-23 21:00;CYQB 232100Z 03017G22KT 30SM SCT050 BKN110 BKN240 16/04 A2972 RMK CU4AC2CI1 TCU ASOCTD SLP065

CYQB;2008-05-23 22:00;CYQB 232200Z 36012G19KT 30SM SCT050 BKN130 BKN240 16/04 A2973 RMK CU3AC3CI1 SLP068

CYQB;2008-05-23 23:00;CYQB 232300Z 35006KT 30SM FEW050 BKN150 BKN240 16/04 A2974 RMK SC2AC2CI1 SLP073

CYQB;2008-05-24 00:00;CYQB 240000Z 34014G20KT 30SM FEW050 BKN110 14/04 A2977 RMK SC2AC2 SH E QUAD SLP082

CYQB;2008-05-24 01:00;CYQB 240100Z 35006KT 30SM FEW050 SCT090 13/05 A2979 RMK SC2AC2 SLP090

CYQB;2008-05-24 02:00;CYQB 240200Z 00000KT 15SM FEW050 SCT090 12/05 A2980 RMK SC1AC3 SLP093

CYQB;2008-05-24 03:00;CYQB 240300Z 00000KT 15SM SCT090 BKN120 11/06 A2982 RMK AC3AC4 SLP098

CYQB;2008-05-24 04:00;CYQB 240400Z 30005KT 15SM SCT090 BKN130 10/06 A2981 RMK AC3AC2 SLP096

CYQB;2008-05-24 05:00;CYQB 240500Z 30006KT 15SM BKN100 09/06 A2981 RMK AC5 SLP094

CYQB;2008-05-24 06:00;CYQB 240600Z 30004KT 15SM BKN100 BKN120 08/05 A2979 RMK AC5AC1 SLP089

CYQB;2008-05-24 07:00;CYQB 240700Z 05003KT 15SM SCT100 07/05 A2980 RMK AC3 SLP091

CYQB;2008-05-24 08:00;CYQB 240800Z 03005KT 15SM FEW100 07/05 A2981 RMK AC2 SLP095

CYQB;2008-05-24 09:00;CYQB 240900Z 32007KT 30SM BKN090 07/04 A2981 RMK AC5 SLP097

CYQB;2008-05-24 10:00;CYQB 241000Z 34007KT 30SM FEW090 08/04 A2982 RMK AC2 SLP099

CYQB;2008-05-24 11:00;CYQB 241100Z 33008KT 30SM SCT090 11/04 A2983 RMK AC3 SLP104

CYQB;2008-05-24 12:00;CYQB 241200Z 34009KT 30SM BKN080 12/04 A2985 RMK AC7 SLP110

CYQB;2008-05-24 13:00;CYQB 241300Z 32008KT 30SM FEW040 FEW080 14/03 A2986 RMK CU1AC1 SLP114

CYQB;2008-05-24 14:00;CYQB 241400Z 30011KT 30SM BKN050 14/03 A2986 RMK SC6 CU ASOCTD SLP114

CYQB;2008-05-24 15:00;CYQB 241500Z 32012KT 30SM BKN060 16/02 A2986 RMK SC6 SLP112

CYQB;2008-05-24 16:00;CYQB 241600Z 25013G19KT 30SM BKN070 17/02 A2985 RMK AC6 SLP110

CYQB;2008-05-24 17:00;CYQB 241700Z 36012KT 30SM BKN071 18/02 A2985 RMK AC6 SLP109

CYQB;2008-05-24 18:00;CYQB 241800Z 35014KT 30SM BKN080 BKN240 18/02 A2985 RMK AC6CI0 SLP109

CYQB;2008-05-24 19:00;CYQB 241900Z 33014KT 30SM BKN078 BKN240 19/02 A2985 RMK AC6CI1 SLP109

CYQB;2008-05-24 20:00;CYQB 242000Z 35010G17KT 30SM BKN080 BKN240 20/M00 A2985 RMK AC6CI1 VIA YQB FIC SLP110

CYQB;2008-05-24 21:00;CYQB 242100Z 01011G16KT 30SM SCT080 BKN240 19/00 A2986 RMK AC3CI0 SLP111

CYQB;2008-05-24 22:00;CYQB 242200Z 35010G16KT 30SM FEW080 BKN240 19/M00 A2986 RMK AC2CI1 SLP114

CYQB;2008-05-24 23:00;CYQB 242300Z 36012KT 30SM FEW080 BKN240 18/M00 A2988 RMK AC1CI1 SLP119

CYQB;2008-05-25 00:00;CYQB 250000Z 36007KT 30SM FEW075 FEW240 17/M00 A2990 RMK AC1CI0 SLP126

CYQB;2008-05-25 01:00;CYQB 250100Z 35005KT 15SM FEW075 FEW240 15/M00 A2992 RMK AC1CI1 SLP133

CYQB;2008-05-25 02:00;CYQB 250200Z 32003KT 15SM FEW080 10/02 A2994 RMK AC1 SLP140

CYQB;2008-05-25 03:00;CYQB 250300Z 32006KT 15SM SKC 08/02 A2995 RMK SLP144

CYQB;2008-05-25 04:00;CYQB 250400Z 32006KT 15SM SKC 08/02 A2996 RMK SLP147

CYQB;2008-05-25 05:00;CYQB 250500Z 33007KT 15SM SKC 09/01 A2996 RMK SLP147

CYQB;2008-05-25 06:00;CYQB 250600Z 36007KT 15SM SKC 09/01 A2996 RMK SLP148

CYQB;2008-05-25 07:00;CYQB 250700Z 01004KT 15SM SKC 08/01 A2997 RMK SLP150

CYQB;2008-05-25 08:00;CYQB 250800Z 34007KT 15SM SKC 09/00 A2997 RMK SLP151

CYQB;2008-05-25 09:00;CYQB 250900Z 32006KT 30SM FEW240 07/00 A2998 RMK CI1 SLP155

CYQB;2008-05-25 10:00;CYQB 251000Z 32003KT 30SM FEW240 07/03 A3000 RMK CI1 SLP161

CYQB;2008-05-25 11:00;CYQB 251100Z 21003KT 50SM SCT240 09/05 A3000 RMK CI1 SLP162

CYQB;2008-05-25 12:00;CYQB 251200Z 21005KT 30SM BKN240 11/05 A3002 RMK CI2 MTN AT 50 SM ESE VISBL SLP167

CYQB;2008-05-25 13:00;CYQB 251300Z 21005KT 30SM FEW240 13/06 A3002 RMK CI1 MTN AT 50 SM ESE VISBL SLP167

CYQB;2008-05-25 14:00;CYQB 251400Z 21009KT 30SM FEW040 BKN240 16/07 A3001 RMK CU1CI1 SLP163

CYQB;2008-05-25 15:00;CYQB 251500Z 22014KT 30SM FEW045 BKN250 17/03 A2999 RMK CU1CI2 MTN AT 50 SM ESE CLEARLY VISBL SLP156

CYQB;2008-05-25 16:00;CYQB 251600Z 23016G21KT 30SM FEW050 FEW230 19/02 A2996 RMK CU1CI1 SLP147

CYQB;2008-05-25 17:00;CYQB 251700Z 24018G24KT 30SM FEW060 FEW220 20/03 A2993 RMK CU1CI1 SLP136

CYQB;2008-05-25 18:00;CYQB 251800Z 22020G28KT 30SM FEW060 FEW240 21/02 A2991 RMK CU1CI1 SLP129

CYQB;2008-05-25 19:00;CYQB 251900Z 23020G31KT 30SM FEW060 FEW240 22/02 A2988 RMK CU1CI1 SLP120

CYQB;2008-05-25 20:00;CYQB 252000Z 24018G27KT 30SM FEW060 FEW240 22/03 A2986 RMK CU1CI1 SLP111

CYQB;2008-05-25 21:00;CYQB 252100Z 23020G25KT 30SM FEW060 FEW240 22/03 A2984 RMK CU1CI0 SLP107

CYQB;2008-05-25 22:00;CYQB 252200Z 23017KT 30SM FEW250 22/04 A2982 RMK CI0 SLP099

CYQB;2008-05-25 23:00;CYQB 252300Z 23017G24KT 30SM BKN250 21/04 A2982 RMK CI1 SLP098

CYQB;2008-05-26 00:00;CYQB 260000Z 23013G21KT 30SM FEW190 BKN250 20/04 A2982 RMK AC1CI1 SLP098

CYQB;2008-05-26 01:00;CYQB 260100Z 24008KT 15SM FEW190 SCT250 18/04 A2982 RMK AC1CI0 SLP100

CYQB;2008-05-26 02:00;CYQB 260200Z 26007KT 15SM FEW170 BKN250 14/05 A2982 RMK AC2CI1 SLP100

CYQB;2008-05-26 03:00;CYQB 260300Z 26008KT 15SM FEW070 BKN200 14/05 A2981 RMK AC1CI2 SLP095

CYQB;2008-05-26 04:00;CYQB 260400Z 24009KT 15SM FEW070 FEW160 15/05 A2980 RMK AC1AC1 SLP091

CYQB;2008-05-26 05:00;CYQB 260500Z 23007KT 15SM BKN140 15/06 A2978 RMK AC6 SLP085

CYQB;2008-05-26 06:00;CYQB 260600Z 24008KT 15SM BKN150 BKN240 14/05 A2977 RMK AC5CI2 SLP080

CYQB;2008-05-26 07:00;CYQB 260700Z 24009KT 15SM BKN110 OVC240 15/05 A2977 RMK AC6CI2 SLP081

CYQB;2008-05-26 08:00;CYQB 260800Z 22010KT 15SM SCT110 BKN160 BKN240 14/05 A2976 RMK AC3AC2CI2 SLP079

CYQB;2008-05-26 09:00;CYQB 260900Z 24005KT 30SM FEW110 SCT160 BKN240 14/05 A2977 RMK AC2AC2CI1 SLP081

CYQB;2008-05-26 10:00;CYQB 261000Z 23006KT 30SM SCT110 BKN150 BKN240 13/05 A2978 RMK AC4AC2CI1 SLP085

CYQB;2008-05-26 11:00;CYQB 261100Z 24009KT 30SM FEW140 BKN240 14/05 A2978 RMK AC2CI1 SLP085

CYQB;2008-05-26 12:00;CYQB 261200Z 25011KT 30SM FEW120 BKN250 15/06 A2978 RMK AC2CS5 SLP086

CYQB;2008-05-26 13:00;CYQB 261300Z 25013KT 30SM FEW085 BKN140 OVC250 15/07 A2981 RMK AC2AC3CS2 SLP094

CYQB;2008-05-26 13:39;CYQB 261339Z 25015G21KT 30SM -SHRA BKN080 OVC140 14/ RMK AC5AS3 VIS LWR W

CYQB;2008-05-26 14:00;CYQB 261400Z 26016KT 15SM -SHRA BKN080 OVC140 14/08 A2982 RMK AC7AS1 SLP099

CYQB;2008-05-26 15:00;CYQB 261500Z 23007KT 6SM -SHRA FEW015 BKN038 OVC086 12/10 A2981 RMK SF2SC4AC2 SLP095

CYQB;2008-05-26 15:49;CYQB 261549Z 25010KT 5SM -SHRA BR BKN008 OVC080 12/ RMK SF7AC1

CYQB;2008-05-26 16:00;CYQB 261600Z 24009KT 5SM -SHRA BR BKN008 OVC070 12/11 A2981 RMK SF7AC1 SLP097

CYQB;2008-05-26 17:00;CYQB 261700Z 23008KT 8SM -SHRA BKN010 OVC022 13/12 A2979 RMK SF7SC1 SLP090

CYQB;2008-05-26 17:33;CYQB 261733Z 25006KT 8SM -SHRA SCT010 BKN020 OVC082 14/ RMK SF4SC3AC1

CYQB;2008-05-26 18:00;CYQB 261800Z 24008KT 6SM -SHRA BKN012 OVC069 13/12 A2979 RMK SF7AC1 SLP088

CYQB;2008-05-26 19:00;CYQB 261900Z 20006KT 12SM FEW008 SCT018 BKN070 14/12 A2974 RMK SF2SC2AC4 SLP073

CYQB;2008-05-26 20:00;CYQB 262000Z 21003KT 12SM -SHRA FEW008 FEW015 OVC073 14/11 A2973 RMK SF1SC2AC6 SLP070

CYQB;2008-05-26 21:00;CYQB 262100Z CCA 18003KT 10SM -SHRA FEW014 OVC058 14/11 A2970 RMK SF1SC8 VIS SW-NW 6 SLP058

CYQB;2008-05-26 22:00;CYQB 262200Z 01006KT 15SM FEW007 OVC069 14/12 A2968 RMK SF1AC8 DIST SH ALQDS BUT MOSTLY N SLP051

CYQB;2008-05-26 23:00;CYQB 262300Z 05006KT 15SM FEW010 OVC065 14/12 A2964 RMK SF1SC8 DIST SH N QUAD SLP038

CYQB;2008-05-27 00:00;CYQB 270000Z 06004KT 25SM FEW015 OVC045 14/12 A2963 RMK SF1SC8 SLP034

CYQB;2008-05-27 01:00;CYQB 270100Z 36005KT 15SM -SHRA OVC045 13/12 A2962 RMK SC8 SLP032

CYQB;2008-05-27 01:24;CYQB 270124Z 35002KT 15SM OVC047 13/ RMK SC8

CYQB;2008-05-27 02:00;CYQB 270200Z 01004KT 12SM OVC045 13/12 A2962 RMK SC8 SLP032

CYQB;2008-05-27 02:22;CYQB 270222Z 00000KT 12SM -SHRA FEW015 OVC045 13/ RMK SF2SC6

CYQB;2008-05-27 03:00;CYQB 270300Z 03003KT 10SM FEW015 OVC045 13/12 A2961 RMK SF2SC6 SLP028

CYQB;2008-05-27 04:00;CYQB 270400Z 00000KT 12SM FEW015 OVC040 13/12 A2959 RMK SF2SC6 SLP022

CYQB;2008-05-27 05:00;CYQB 270500Z 00000KT 12SM FEW015 OVC042 13/12 A2956 RMK SF2SC6 SLP013

CYQB;2008-05-27 06:00;CYQB 270600Z 00000KT 12SM -SHRA FEW015 OVC025 12/12 A2953 RMK SF2SC6 LTNGCC SLP999

CYQB;2008-05-27 06:11;CYQB 270611Z 29002KT 10SM TSRA FEW015 OVC025CB 12/ RMK SF2CB6 LTNG ALL QUADS

CYQB;2008-05-27 06:16;CYQB 270616Z 32012KT 2 1/2SM +TSRA BKN007 OVC020CB 12/ RMK SF5CB3 LTNG ALL QUADS

CYQB;2008-05-27 06:33;CYQB 270633Z 18004KT 8SM -TSRA FEW008 SCT015 BKN030CB OVC095 RMK SF2SC2CB2AC2 RERA LTNG ALL QUADS

CYQB;2008-05-27 06:36;CYQB 270636Z CCA 18004KT 8SM -TSRA FEW008 SCT015 BKN030CB OVC095 12/ RMK SF2SC2CB2AC2 RERA LTNG ALL QUADS

CYQB;2008-05-27 06:51;CYQB 270651Z CCA 21003KT 12SM FEW012 BKN022 BKN062 13/ RMK SF1SC4SC2 RETS RERA LTNG E

CYQB;2008-05-27 07:00;CYQB 270700Z 27003KT 12SM BKN018 BKN028 BKN062 13/13 A2952 RMK SC5SC2SC1 RETS RERA LTNG E SLP998

CYQB;2008-05-27 08:00;CYQB 270800Z 24007KT 12SM BKN012 14/13 A2953 RMK SC7 SLP000

CYQB;2008-05-27 08:16;CYQB 270816Z 25009KT 12SM BKN009 OVC020 14/ RMK SF6SC2

CYQB;2008-05-27 09:00;CYQB 270900Z 25015KT 8SM BKN010 OVC020 14/14 A2955 RMK SF7SC1 SLP008

CYQB;2008-05-27 09:29;CYQB 270929Z 24012KT 5SM BR OVC008 14/ RMK SF8

CYQB;2008-05-27 09:45;CYQB 270945Z 23008KT 8SM FEW008 SCT012 BKN018 14/ RMK SF2CF2SC2 VIS LWR NW-NE

CYQB;2008-05-27 10:00;CYQB 271000Z 22010KT 8SM FEW008 BKN016 14/13 A2958 RMK SF2SC4 VIS LWR NW-NE SLP016

CYQB;2008-05-27 11:00;CYQB 271100Z 27011KT 15SM BKN013 BKN040 14/11 A2962 RMK SF7SC1 SLP031

CYQB;2008-05-27 12:00;CYQB 271200Z 33013KT 15SM SCT020 BKN041 BKN058 11/08 A2966 RMK SC4SC2SC1 SLP045

CYQB;2008-05-27 13:00;CYQB 271300Z 29008KT 15SM FEW040 BKN046 11/06 A2969 RMK SC1SC6 SLP055

CYQB;2008-05-27 14:00;CYQB 271400Z 32007KT 15SM FEW030 BKN053 10/05 A2973 RMK SC1SC6 SLP069

CYQB;2008-05-27 15:00;CYQB 271500Z 31012G17KT 15SM SCT032 BKN064 11/05 A2977 RMK SC4SC3 SLP081

CYQB;2008-05-27 16:00;CYQB 271600Z 33011G24KT 15SM BKN040 12/04 A2980 RMK SC7 SLP092

CYQB;2008-05-27 17:00;CYQB 271700Z 30016KT 15SM BKN040 13/05 A2981 RMK SC6 SLP096

CYQB;2008-05-27 18:00;CYQB 271800Z 29014G21KT 15SM BKN052 14/06 A2983 RMK SC6 SLP104

CYQB;2008-05-27 19:00;CYQB 271900Z 32010G17KT 30SM SCT050 13/03 A2985 RMK SC3 SLP109

CYQB;2008-05-27 20:00;CYQB 272000Z 30016KT 30SM BKN055 13/03 A2986 RMK SC6 SLP111

CYQB;2008-05-27 21:00;CYQB 272100Z 32012G20KT 30SM SCT060 13/02 A2987 RMK SC4 SLP115

CYQB;2008-05-27 22:00;CYQB 272200Z 31012G21KT 30SM SCT065 13/M00 A2989 RMK SC4 SLP122

CYQB;2008-05-27 23:00;CYQB 272300Z 31017KT 30SM SCT065 SCT200 11/M02 A2993 RMK SC4CI1 SLP135

CYQB;2008-05-28 00:00;CYQB 280000Z 30007KT 30SM FEW060 FEW200 09/M02 A2995 RMK SC2CI1 SLP145

CYQB;2008-05-28 01:00;CYQB 280100Z 28008KT 30SM FEW060 08/M02 A2997 RMK SC1 SLP151

CYQB;2008-05-28 02:00;CYQB 280200Z 26006KT 15SM FEW060 06/M01 A2999 RMK SC1 SLP157

CYQB;2008-05-28 03:00;CYQB 280300Z 27007KT 15SM SKC 05/M01 A3000 RMK SLP162

CYQB;2008-05-28 04:00;CYQB 280400Z 32009KT 15SM SKC 06/M01 A3003 RMK SLP171

CYQB;2008-05-28 05:00;CYQB 280500Z 31006KT 15SM SKC 06/M01 A3004 RMK SLP175

CYQB;2008-05-28 06:00;CYQB 280600Z 23006KT 15SM SKC 05/M01 A3006 RMK SLP181

CYQB;2008-05-28 07:00;CYQB 280700Z 25012KT 15SM SKC 03/M00 A3007 RMK SLP185

CYQB;2008-05-28 08:00;CYQB 280800Z 26011KT 15SM FEW070 03/00 A3008 RMK AC2 SLP190

CYQB;2008-05-28 09:00;CYQB 280900Z 27010KT 30SM FEW060 02/00 A3010 RMK SC2 SLP195

CYQB;2008-05-28 10:00;CYQB 281000Z 27010KT 30SM FEW060 03/01 A3012 RMK SC2 SLP203

CYQB;2008-05-28 11:00;CYQB 281100Z 27010KT 15SM FEW045 05/01 A3014 RMK SC1 SLP209

CYQB;2008-05-28 12:00;CYQB 281200Z 29008KT 15SM FEW040 07/01 A3015 RMK SC2 SLP213

CYQB;2008-05-28 13:00;CYQB 281300Z 32011G16KT 15SM FEW040 08/M02 A3015 RMK SC2 SLP211

CYQB;2008-05-28 14:00;CYQB 281400Z 27010G17KT 15SM SCT045 10/M00 A3014 RMK SC3 SLP207

CYQB;2008-05-28 15:00;CYQB 281500Z 29008G20KT 15SM SCT050 SCT240 11/M00 A3013 RMK SC3CI1 SLP205

CYQB;2008-05-28 16:00;CYQB 281600Z 26016G28KT 15SM SCT050 SCT240 12/01 A3011 RMK CU3CI1 SLP199

CYQB;2008-05-28 17:00;CYQB 281700Z 25018G24KT 15SM FEW050 FEW240 13/01 A3009 RMK CU2CI1 SLP192

CYQB;2008-05-28 18:00;CYQB 281800Z 27016G24KT 15SM FEW060 BKN240 14/M00 A3008 RMK CU1CI2 SLP188

CYQB;2008-05-28 19:00;CYQB 281900Z 30012G21KT 30SM FEW060 FEW240 15/M01 A3006 RMK CU2CI1 SLP182

CYQB;2008-05-28 20:00;CYQB 282000Z 26017G26KT 30SM FEW060 15/M01 A3004 RMK CU2 SLP175

CYQB;2008-05-28 21:00;CYQB 282100Z 25016G24KT 30SM FEW060 FEW240 16/M00 A3002 RMK CU1CI0 SLP168

CYQB;2008-05-28 22:00;CYQB 282200Z 26016KT 30SM FEW120 FEW240 16/00 A3000 RMK AC2CI1 ACSL E SLP160

CYQB;2008-05-28 23:00;CYQB 282300Z 23013G21KT 30SM FEW090 SCT240 15/00 A2998 RMK AC2CI0 SLP156

CYQB;2008-05-29 00:00;CYQB 290000Z 24013KT 20SM BKN082 BKN140 14/01 A2997 RMK AC5AC2 SLP149

CYQB;2008-05-29 01:00;CYQB 290100Z 23011KT 15SM BKN088 14/01 A2995 RMK AC7 SLP143

CYQB;2008-05-29 02:00;CYQB 290200Z 24016G22KT 15SM OVC088 14/02 A2994 RMK AC8 SLP140

CYQB;2008-05-29 03:00;CYQB 290300Z 24016G24KT 15SM OVC083 13/03 A2993 RMK AC8 SLP138

CYQB;2008-05-29 04:00;CYQB 290400Z 25018G24KT 15SM OVC095 13/03 A2991 RMK AC8 SLP131

CYQB;2008-05-29 05:00;CYQB 290500Z 24013G19KT 15SM BKN083 13/03 A2990 RMK AC5 SLP126

CYQB;2008-05-29 06:00;CYQB 290600Z 25018KT 15SM BKN097 12/03 A2988 RMK AC7 SLP119

CYQB;2008-05-29 07:00;CYQB 290700Z 24016G21KT 15SM SCT080 BKN110 OVC170 12/04 A2985 RMK AC3AC2AC2 SLP110

CYQB;2008-05-29 08:00;CYQB 290800Z 24019G24KT 15SM OVC110 12/04 A2984 RMK AC8 SLP106

CYQB;2008-05-29 08:26;CYQB 290826Z 24018G24KT 15SM -SHRA OVC073 11/ RMK AC8

CYQB;2008-05-29 09:00;CYQB 290900Z 24017G25KT 15SM -SHRA SCT040 OVC060 11/04 A2983 RMK SC3SC5 SLP102

CYQB;2008-05-29 10:00;CYQB 291000Z 24020G25KT 15SM -SHRA FEW011 SCT040 OVC080 11/04 A2982 RMK SF1SC3AC4 SLP098

CYQB;2008-05-29 11:00;CYQB 291100Z 24019G27KT 20SM FEW011 OVC080 11/04 A2982 RMK SF1AC7 SLP098

CYQB;2008-05-29 12:00;CYQB 291200Z 25017G24KT 20SM -SHRA FEW060 BKN070 10/05 A2982 RMK SC2AC6 SLP099

CYQB;2008-05-29 12:25;CYQB 291225Z 25017G22KT 30SM FEW060 BKN090 10/ RMK SC2AC6

CYQB;2008-05-29 13:00;CYQB 291300Z 25018KT 30SM FEW060 BKN100 10/04 A2982 RMK SC2AC6 SLP100

CYQB;2008-05-29 14:00;CYQB 291400Z 25023G32KT 30SM FEW060 SCT100 12/04 A2981 RMK SC2AC2 SLP094

CYQB;2008-05-29 15:00;CYQB 291500Z 25024G31KT 30SM FEW045 SCT140 14/05 A2981 RMK CU2AC2 SLP096

CYQB;2008-05-29 16:00;CYQB 291600Z 25017G22KT 30SM BKN060 16/06 A2981 RMK CU5 SLP097

CYQB;2008-05-29 17:00;CYQB 291700Z 32022G28KT 30SM BKN064 18/01 A2981 RMK CU5 SLP097

CYQB;2008-05-29 18:00;CYQB 291800Z 29018G33KT 30SM FEW060 18/M01 A2983 RMK CU2 SLP101

CYQB;2008-05-29 19:00;CYQB 291900Z 28022G28KT 30SM FEW060 18/00 A2984 RMK CU2 SLP106

CYQB;2008-05-29 20:00;CYQB 292000Z 31017G26KT 30SM FEW060 18/M01 A2985 RMK CU2 SLP109

CYQB;2008-05-29 21:00;CYQB 292100Z 32020G26KT 30SM FEW060 17/M02 A2988 RMK CU2 SLP118

CYQB;2008-05-29 22:00;CYQB 292200Z 32014G20KT 50SM FEW060 17/M01 A2989 RMK CU1 SLP124

CYQB;2008-05-29 23:00;CYQB 292300Z 31015G21KT 15SM FEW060 16/M02 A2992 RMK CU1 SLP132

CYQB;2008-05-30 02:00;CYQB 300200Z 31006KT 15SM SKC 11/M01 A3000 RMK SLP159

CYQB;2008-05-30 03:00;CYQB 300300Z 34004KT 15SM SKC 10/M00 A3002 RMK SLP166

CYQB;2008-05-30 04:00;CYQB 300400Z 34005KT 15SM SKC 09/00 A3003 RMK SLP172

CYQB;2008-05-30 05:00;CYQB 300500Z 29005KT 15SM SKC 06/00 A3006 RMK SLP179

CYQB;2008-05-30 06:00;CYQB 300600Z 33006KT 15SM SKC 08/M00 A3007 RMK SLP184

CYQB;2008-05-30 07:00;CYQB 300700Z 00000KT 15SM SKC 05/M00 A3009 RMK SLP190

CYQB;2008-05-30 08:00;CYQB 300800Z 12002KT 15SM SKC 05/M00 A3010 RMK SLP195

CYQB;2008-05-30 09:00;CYQB 300900Z 00000KT 30SM FEW020 FEW250 04/M01 A3012 RMK SC1CI1 SLP202

CYQB;2008-05-30 10:00;CYQB 301000Z 32002KT 30SM FEW250 04/00 A3013 RMK CI1 SLP205

CYQB;2008-05-30 11:00;CYQB 301100Z 29003KT 30SM FEW250 07/02 A3015 RMK CI0 SLP211

CYQB;2008-05-30 12:00;CYQB 301200Z 01007KT 30SM SCT250 09/00 A3014 RMK CI1 SLP207

CYQB;2008-05-30 13:00;CYQB 301300Z 29004KT 30SM FEW250 10/01 A3014 RMK CI1 SLP207

CYQB;2008-05-30 14:00;CYQB 301400Z 24006KT 30SM FEW250 12/03 A3016 RMK CI1 SLP213

CYQB;2008-05-30 15:00;CYQB 301500Z 23014KT 30SM FEW250 13/03 A3014 RMK CI0 SLP209

CYQB;2008-05-30 16:00;CYQB 301600Z 23013G18KT 30SM FEW250 14/03 A3012 RMK CI1 SLP201

CYQB;2008-05-30 17:00;CYQB 301700Z 22014G19KT 30SM FEW160 BKN250 15/04 A3009 RMK AC2CI0 SLP191

CYQB;2008-05-30 18:00;CYQB 301800Z 22016KT 30SM FEW250 16/03 A3007 RMK CI1 SLP183

CYQB;2008-05-30 19:00;CYQB 301900Z 21013KT 30SM SCT250 17/02 A3004 RMK CI1 SLP174

CYQB;2008-05-30 20:00;CYQB 302000Z 24013KT 30SM BKN250 17/02 A3002 RMK CS1 SLP166

CYQB;2008-05-30 21:00;CYQB 302100Z 24012KT 30SM BKN250 18/00 A3000 RMK CS2 SLP161

CYQB;2008-05-30 22:00;CYQB 302200Z 26011KT 30SM BKN250 18/00 A2999 RMK CS2 SLP156

CYQB;2008-05-30 23:00;CYQB 302300Z 25006KT 30SM OVC220 16/01 A2998 RMK CS8 SLP154

CYQB;2008-05-31 00:00;CYQB 310000Z 22003KT 30SM OVC220 15/03 A2998 RMK CS8 SLP153

CYQB;2008-05-31 01:00;CYQB 310100Z 00000KT 30SM OVC200 14/04 A2997 RMK CS8 SLP151

CYQB;2008-05-31 02:00;CYQB 310200Z 02002KT 30SM OVC200 14/04 A2997 RMK CS8 SLP149

CYQB;2008-05-31 03:00;CYQB 310300Z 00000KT 30SM OVC180 12/05 A2996 RMK CI8 SLP146

CYQB;2008-05-31 04:00;CYQB 310400Z 36004KT 15SM OVC160 13/03 A2995 RMK CI8 SLP145

CYQB;2008-05-31 05:00;CYQB 310500Z 03004KT 15SM SCT100 OVC160 12/03 A2994 RMK AC4AC4 SLP140

CYQB;2008-05-31 06:00;CYQB 310600Z 02002KT 15SM OVC074 12/03 A2993 RMK AC8 SLP137

CYQB;2008-05-31 07:00;CYQB 310700Z 36003KT 15SM OVC076 12/04 A2992 RMK AC8 SLP132

CYQB;2008-05-31 08:00;CYQB 310800Z 07003KT 15SM OVC070 12/06 A2989 RMK AC8 SLP121

CYQB;2008-05-31 08:06;CYQB 310806Z 10002KT 15SM -RA OVC070 11/ RMK AC8

CYQB;2008-05-31 09:00;CYQB 310900Z 00000KT 15SM -RA OVC054 10/07 A2988 RMK SC8 SLP119

CYQB;2008-05-31 10:00;CYQB 311000Z 06006KT 15SM -RA FEW050 OVC084 10/08 A2985 RMK SC2AC6 SLP108

CYQB;2008-05-31 11:00;CYQB 311100Z 07006KT 30SM FEW050 OVC078 10/08 A2984 RMK SC2AC6 SLP106

CYQB;2008-05-31 12:00;CYQB 311200Z 06006KT 30SM BKN039 OVC080 10/08 A2982 RMK SC6AC2 SLP100

CYQB;2008-05-31 13:00;CYQB 311300Z 08008KT 30SM FEW032 OVC048 11/08 A2980 RMK SC2SC6 SLP091

CYQB;2008-05-31 13:29;CYQB 311329Z 07013KT 20SM -SHRA OVC037 11/ RMK SC8

CYQB;2008-05-31 14:00;CYQB 311400Z 07015G21KT 30SM OVC034 11/08 A2976 RMK SC8 SLP079

CYQB;2008-05-31 15:00;CYQB 311500Z 08010G20KT 30SM FEW010 OVC024 11/08 A2974 RMK SF1SC7 SLP073

CYQB;2008-05-31 16:00;CYQB 311600Z 08015G20KT 30SM OVC019 12/08 A2970 RMK SC8 SLP059

CYQB;2008-05-31 17:00;CYQB 311700Z 07013G21KT 30SM OVC020 11/08 A2967 RMK SC8 SLP047

CYQB;2008-05-31 18:00;CYQB 311800Z 07012G21KT 30SM OVC020 11/08 A2966 RMK SC8 SLP044

CYQB;2008-05-31 18:15;CYQB 311815Z 07015KT 8SM -SHRA OVC022 11/ RMK SC8

CYQB;2008-05-31 19:00;CYQB 311900Z 08014G21KT 8SM -SHRA BKN018 OVC033 10/09 A2960 RMK SC5SC3 PRESFR SLP024

CYQB;2008-05-31 19:38;CYQB 311938Z 08011G25KT 8SM -SHRA FEW007 BKN018 OVC033 11/ RMK SF2SC5SC2 PRESFR

CYQB;2008-05-31 20:00;CYQB 312000Z 08016G21KT 15SM BKN008 OVC015 10/10 A2959 RMK SF6SC2 SLP022

CYQB;2008-05-31 20:33;CYQB 312033Z 08012G22KT 12SM -SHRA BKN009 OVC015 11/ RMK SF6SC2

CYQB;2008-05-31 21:00;CYQB 312100Z 08009KT 15SM -SHRA BKN009 OVC015 11/10 A2958 RMK SF5SC3 SLP018

CYQB;2008-05-31 21:40;CYQB 312140Z 07012G17KT 15SM -SHRA FEW009 OVC019 11/ RMK SF2SC6

CYQB;2008-05-31 22:00;CYQB 312200Z 07012KT 15SM FEW009 OVC018 12/10 A2956 RMK SF1SC7 OCNL -SHRA SLP012

CYQB;2008-05-31 23:00;CYQB 312300Z 08008G15KT 8SM -SHRA FEW009 OVC017 11/10 A2956 RMK SF2SC6 SLP012

CYQB;2008-06-01 01:00;CYQB 010100Z 07011KT 3SM -SHRA BR BKN005 OVC030 10/10 A2957 RMK SF7SC1 SLP015

CYQB;2008-06-01 02:00;CYQB 010200Z 07008KT 8SM -SHRA BKN005 OVC030 10/10 A2957 RMK SF7SC1 SLP015

CYQB;2008-06-01 02:28;CYQB 010228Z 09005KT 15SM BKN007 OVC036 10/ RMK SF5SC3

CYQB;2008-06-01 03:00;CYQB 010300Z 09004KT 8SM -DZ BKN007 OVC031 10/09 A2958 RMK SF5SC3 SLP019

CYQB;2008-06-01 04:00;CYQB 010400Z 06003KT 8SM -DZ BKN008 OVC021 10/09 A2959 RMK SF5SC3 SLP020

CYQB;2008-06-01 05:00;CYQB 010500Z 06002KT 4SM -RA BR BKN010 OVC044 10/10 A2958 RMK SF5SC3 SLP017

CYQB;2008-06-01 05:44;CYQB 010544Z 23003KT 2SM -RA BR OVC007 10/ RMK SF8

CYQB;2008-06-01 06:00;CYQB 010600Z 00000KT 1 1/2SM -RA BR BKN005 OVC020 10/10 A2957 RMK FG2SF6SC1 SLP015

CYQB;2008-06-01 07:00;CYQB 010700Z 00000KT 1 1/2SM -RA BR BKN004 OVC010 10/10 A2957 RMK FG1SF5SC2 SLP015

CYQB;2008-06-01 07:37;CYQB 010737Z 21002KT 3SM -DZ BR SCT007 OVC021 10/ RMK SF3SC5

CYQB;2008-06-01 08:00;CYQB 010800Z 23002KT 2 1/2SM -DZ BR SCT006 OVC016 10/10 A2958 RMK SF4SC4 SLP019

CYQB;2008-06-01 08:45;CYQB 010845Z 00000KT 2SM -RA BR SCT003 OVC007 10/ RMK FG1SF2SF5

CYQB;2008-06-01 09:00;CYQB 010900Z 00000KT 2SM -RA BR BKN005 OVC008 10/10 A2959 RMK FG1SF6SF2 VIS 1 W SLP022

CYQB;2008-06-01 09:42;CYQB 010942Z 16002KT 1 1/4SM -RA BR OVC003 10/ RMK FG2SF6

CYQB;2008-06-01 10:00;CYQB 011000Z 15003KT 1 1/2SM -RA BR OVC003 10/10 A2960 RMK FG2SF6 SLP025

CYQB;2008-06-01 11:00;CYQB 011100Z 12004KT 5SM -RA BR OVC005 10/10 A2961 RMK SF8 SLP029

CYQB;2008-06-01 12:00;CYQB 011200Z 14003KT 8SM -RADZ OVC004 10/10 A2962 RMK SF8 VIS 4 WNW SLP033

CYQB;2008-06-01 12:19;CYQB 011219Z 09004KT 8SM -DZ FEW003 OVC005 10/ RMK SF2SF6 VIS 4 WNW

CYQB;2008-06-01 12:46;CYQB 011246Z 10004KT 10SM FEW003 SCT005 BKN008 OVC030 11/ RMK SF1SF2SC4SC1 VIS 5 WNW

CYQB;2008-06-01 13:00;CYQB 011300Z 13004KT 10SM FEW003 SCT005 BKN007 OVC030 10/10 A2963 RMK SF1SF2SC4SC1 VIS 5 WNW SLP034

CYQB;2008-06-01 13:42;CYQB 011342Z 06006KT 20SM FEW002 BKN005 OVC033 11/ RMK SF1SC6SC1 VIS 5 WNW

CYQB;2008-06-01 14:00;CYQB 011400Z 08007KT 20SM FEW002 BKN005 OVC033 11/10 A2962 RMK SF1SC7SC1 VIS 5 WNW SLP031

CYQB;2008-06-01 15:00;CYQB 011500Z 07005KT 10SM -DZ FEW002 OVC006 11/10 A2964 RMK SF1SC8 SLP038

CYQB;2008-06-01 15:18;CYQB 011518Z 08007KT 10SM FEW003 OVC006 11/ RMK SF1SC8 VIS 5 WNW

CYQB;2008-06-01 15:49;CYQB 011549Z 07010KT 15SM FEW003 OVC010 12/ RMK SF1SC8

CYQB;2008-06-01 16:00;CYQB 011600Z 07009KT 15SM FEW003 OVC008 12/10 A2963 RMK SF1SC8 SLP036

CYQB;2008-06-01 17:00;CYQB 011700Z 07010KT 20SM OVC009 12/10 A2964 RMK SC8 SLP039

CYQB;2008-06-01 17:52;CYQB 011752Z 07009KT 20SM -RA OVC009 12/ RMK SC8

CYQB;2008-06-01 18:00;CYQB 011800Z 07008KT 20SM -RA OVC010 12/10 A2965 RMK SC8 SLP041

CYQB;2008-06-01 19:00;CYQB 011900Z 09005KT 5SM -RA BR FEW005 BKN010 OVC022 11/10 A2965 RMK SF2SC5SC1 SLP043

CYQB;2008-06-01 19:21;CYQB 011921Z 09005KT 5SM -RA BR BKN006 BKN010 OVC020 11/ RMK SF5SC2SC1

CYQB;2008-06-01 20:00;CYQB 012000Z 09005KT 2SM -RA BR BKN006 OVC011 11/10 A2967 RMK SF5SC3 SLP049

CYQB;2008-06-01 20:22;CYQB 012022Z 11006KT 2SM -RA BR SCT003 BKN012 OVC020 11/ RMK SF4SC3SC1

CYQB;2008-06-01 21:00;CYQB 012100Z 08007KT 5SM -RA BR FEW003 BKN005 OVC020 11/10 A2967 RMK SF2SF4SC2 SLP050

CYQB;2008-06-01 22:00;CYQB 012200Z 08005KT 6SM -RA BR FEW005 BKN008 OVC020 11/10 A2968 RMK SF2SF4SC2 SLP052

CYQB;2008-06-01 23:00;CYQB 012300Z 09006KT 6SM -RA BR BKN006 OVC011 10/09 A2970 RMK SF7SC1 SLP058

CYQB;2008-06-02 00:00;CYQB 020000Z 08008KT 6SM -RA BR FEW005 BKN008 OVC020 10/09 A2971 RMK SF2SF6SC1 SLP061

CYQB;2008-06-02 00:36;CYQB 020036Z 07010KT 8SM FEW005 BKN008 OVC020 10/ RMK SF2SF6SC1

CYQB;2008-06-02 01:00;CYQB 020100Z 08007KT 8SM BKN008 OVC023 10/09 A2972 RMK SF5SC3 SLP065

CYQB;2008-06-02 01:32;CYQB 020132Z 08007KT 8SM SCT008 OVC025 10/ RMK SF3SC5

CYQB;2008-06-02 02:00;CYQB 020200Z 08005KT 8SM FEW008 OVC027 10/08 A2973 RMK SF2SC6 SLP069

CYQB;2008-06-02 03:00;CYQB 020300Z 07008KT 10SM FEW009 OVC031 10/08 A2974 RMK SF2SC6 SLP071

CYQB;2008-06-02 04:00;CYQB 020400Z 06007KT 10SM FEW008 OVC031 10/09 A2973 RMK SF2SC6 SLP070

CYQB;2008-06-02 05:00;CYQB 020500Z 06005KT 15SM FEW009 OVC038 10/09 A2973 RMK SF1SC7 SLP069

CYQB;2008-06-02 06:00;CYQB 020600Z 06005KT 15SM FEW010 OVC031 10/09 A2973 RMK CF1SC7 SLP069

CYQB;2008-06-02 07:00;CYQB 020700Z 05005KT 15SM FEW010 OVC032 10/08 A2973 RMK CF1SC7 SLP069

CYQB;2008-06-02 08:00;CYQB 020800Z 04003KT 15SM FEW009 BKN034 OVC059 10/09 A2973 RMK SF1SC5SC2 SLP069

CYQB;2008-06-02 09:00;CYQB 020900Z 02002KT 30SM FEW009 BKN035 10/09 A2974 RMK SF1SC6 SLP073

CYQB;2008-06-02 10:00;CYQB 021000Z 03004KT 30SM FEW007 BKN039 BKN090 10/09 A2975 RMK SF1SC5AC2 SLP076

CYQB;2008-06-02 11:00;CYQB 021100Z 00000KT 30SM FEW007 BKN042 10/09 A2977 RMK SF1SC6 SLP083

CYQB;2008-06-02 12:00;CYQB 021200Z 03002KT 30SM FEW008 OVC043 11/08 A2978 RMK SF1SC6 SLP088

CYQB;2008-06-02 13:00;CYQB 021300Z 00000KT 30SM OVC045 12/09 A2980 RMK SC8 SLP093

CYQB;2008-06-02 14:00;CYQB 021400Z 00000KT 30SM FEW045 BKN087 14/08 A2981 RMK SC2AC3 SLP095

CYQB;2008-06-02 15:00;CYQB 021500Z 26003KT 30SM BKN030 OVC090 13/08 A2983 RMK SC5AC2 SLP102

CYQB;2008-06-02 16:00;CYQB 021600Z 24005KT 30SM BKN032 OVC090 14/10 A2982 RMK SC6AC2 SLP101

CYQB;2008-06-02 17:00;CYQB 021700Z 25010KT 30SM BKN033 OVC090 15/10 A2981 RMK SC6AC2 SLP095

CYQB;2008-06-02 18:00;CYQB 021800Z 24008KT 30SM BKN030 15/10 A2980 RMK SC7 SLP092

CYQB;2008-06-02 19:00;CYQB 021900Z 22006KT 30SM BKN033 16/11 A2979 RMK SC5 SLP090

CYQB;2008-06-02 20:00;CYQB 022000Z 24008KT 30SM FEW030 FEW050 17/10 A2979 RMK SC1SC1 SLP089

CYQB;2008-06-02 21:00;CYQB 022100Z 24010KT 30SM FEW030 19/11 A2978 RMK SC1 SLP084

CYQB;2008-06-02 22:00;CYQB 022200Z 23010G15KT 30SM FEW030 FEW075 19/11 A2977 RMK SC1AC2 SLP081

CYQB;2008-06-02 23:00;CYQB 022300Z 24008KT 30SM FEW030 FEW075 FEW250 17/10 A2978 RMK SC1AC1CI2 SLP084

CYQB;2008-06-03 00:00;CYQB 030000Z 27005KT 30SM -SHRA SCT075 BKN094 BKN250 16/12 A2979 RMK AC3AC2CI2 SLP090

CYQB;2008-06-03 00:45;CYQB 030045Z 33002KT 15SM FEW100 RMK AC2

CYQB;2008-06-03 01:00;CYQB 030100Z 36010G16KT 6SM -SHRA BKN026 OVC100 13/11 A2982 RMK SC6AC2 RERA SLP098

CYQB;2008-06-03 01:45;CYQB 030145Z CCA 33002KT 15SM FEW100 RMK AC2

CYQB;2008-06-03 02:00;CYQB 030200Z 36002KT 15SM FEW100 12/11 A2981 RMK AC2 SLP096

CYQB;2008-06-03 03:00;CYQB 030300Z 24004KT 15SM BKN014 12/11 A2983 RMK SC6 SLP101

CYQB;2008-06-03 03:20;CYQB 030320Z 24006KT 10SM OVC009 12/ RMK ST8

CYQB;2008-06-03 04:00;CYQB 030400Z 24010KT 8SM OVC007 12/12 A2983 RMK ST8 SLP103

CYQB;2008-06-03 04:22;CYQB 030422Z 25009G15KT 8SM OVC004 12/ RMK ST8

CYQB;2008-06-03 05:00;CYQB 030500Z 22002KT 8SM OVC004 12/12 A2983 RMK ST8 SLP103

CYQB;2008-06-03 05:08;CYQB 030508Z 23004KT 8SM OVC005 12/ RMK ST8

CYQB;2008-06-03 05:16;CYQB 030516Z 26003KT 8SM OVC006 12/ RMK ST8

CYQB;2008-06-03 05:44;CYQB 030544Z 27006KT 8SM BKN004 BKN130 12/ RMK ST5AC2

CYQB;2008-06-03 05:54;CYQB 030554Z 26006KT 10SM SCT005 SCT130 12/ RMK ST3AC1

CYQB;2008-06-03 06:00;CYQB 030600Z 26005KT 10SM SCT005 SCT130 12/11 A2983 RMK ST3AC1 SLP104

CYQB;2008-06-03 07:00;CYQB 030700Z 19004KT 8SM SCT005 BKN100 11/10 A2985 RMK SF2AC2 SLP110

CYQB;2008-06-03 07:28;CYQB 030728Z 19002KT 8SM -SHRA FEW005 BKN058 BKN090 11/ RMK SF2SC4AC2 TCU EMBD

CYQB;2008-06-03 08:00;CYQB 030800Z CCA 00000KT 5SM -SHRA BR FEW005 OVC055 11/11 A2985 RMK SF2SC6 TCU EMBD VIS 1 E-S SLP110

CYQB;2008-06-03 08:50;CYQB 030850Z 00000KT 1 1/2SM -SHRA BR SCT003 OVC058 11/ RMK FG2SF2SC4 VIS 1/2 E-S

CYQB;2008-06-03 09:00;CYQB 030900Z 00000KT 1SM R06/P6000FT/D -SHRA BR BKN004 OVC055 11/11 A2986 RMK FG2SF3SC2 VIS 1/2 E-SW SLP111

CYQB;2008-06-03 09:18;CYQB 030918Z 20005KT 1SM R06/P6000FT/D -SHRA BR SCT004 BKN060 OVC090 11/ RMK FG2SF2SC4AC1 VIS 1/2 E-SW

CYQB;2008-06-03 09:36;CYQB 030936Z 31003KT 1 1/2SM -SHRA BR BKN003 OVC060 11/ RMK FG1SF4SC3

CYQB;2008-06-03 10:00;CYQB 031000Z 33004KT 1 1/2SM -SHRA BR SCT003 OVC056 11/11 A2988 RMK FG1SF2SC5 SLP118

CYQB;2008-06-03 10:28;CYQB 031028Z 22002KT 2SM -SHRA BR FEW003 OVC064 11/ RMK SF2SC6 VIS NW-E 5

CYQB;2008-06-03 10:47;CYQB 031047Z CCA 26004KT 10SM FEW003 OVC063 12/ RMK SF1SC7 VIS E-SW 2

CYQB;2008-06-03 11:00;CYQB 031100Z 26006KT 8SM VCFG FEW003 OVC067 12/11 A2990 RMK SF1AC7 VIS E-SE 2 SLP126

CYQB;2008-06-03 11:14;CYQB 031114Z 26003KT 8SM -SHRA VCFG FEW003 OVC063 12/ RMK SF2SC6 VIS LWR SE

CYQB;2008-06-03 12:00;CYQB 031200Z 31003KT 10SM VCFG FEW003 BKN062 12/10 A2991 RMK SF1SC7 SLP128

CYQB;2008-06-03 13:00;CYQB 031300Z 35004KT 20SM FEW005 BKN090 BKN220 13/09 A2992 RMK SF1AC5CI1 SLP134

CYQB;2008-06-03 14:00;CYQB 031400Z 26002KT 30SM FEW015 SCT100 BKN220 14/09 A2993 RMK CF1AC4CI2 SLP135

CYQB;2008-06-03 15:00;CYQB 031500Z 20005KT 30SM FEW015 FEW030 FEW100 BKN200 15/08 A2992 RMK CF1SC1AC2CI3 SLP134

CYQB;2008-06-03 16:00;CYQB 031600Z 24009KT 30SM FEW015 SCT100 BKN220 15/09 A2993 RMK CF2AC2CI3 SLP137

CYQB;2008-06-03 17:00;CYQB 031700Z 23009KT 30SM FEW030 SCT100 BKN220 15/09 A2993 RMK CU1AC2CI3 SLP136

CYQB;2008-06-03 18:00;CYQB 031800Z 22014KT 30SM FEW012 FEW030 SCT110 BKN220 16/10 A2992 RMK CF1CU1AC2CI1 SLP133

CYQB;2008-06-03 19:00;CYQB 031900Z 21013KT 30SM FEW030TCU SCT110 SCT250 18/09 A2991 RMK TCU2AC2CI0 SLP128

CYQB;2008-06-03 19:45;CYQB 031945Z 32010G16KT 30SM -SHRA BKN045TCU BKN250 15/ RMK TCU6CI1 CB NW VIS 4

CYQB;2008-06-03 20:00;CYQB 032000Z 27013KT 15SM -SHRA BKN040TCU BKN250 14/09 A2993 RMK TCU6CI1 VIS NW 4 SLP136

CYQB;2008-06-03 20:30;CYQB 032030Z 23008KT 15SM BKN037TCU BKN079 BKN250 RMK TCU5AC2CI1

CYQB;2008-06-03 21:00;CYQB 032100Z 24007KT 30SM FEW037 SCT070 BKN100 BKN250 15/10 A2993 RMK CU2AC2AC2CI1 TCU ASOCTD SLP136

CYQB;2008-06-03 22:00;CYQB 032200Z 23010KT 30SM FEW040 FEW070 FEW250 17/09 A2991 RMK CU2AC1CI1 SLP129

CYQB;2008-06-03 23:00;CYQB 032300Z 26006KT 30SM FEW100 FEW250 17/09 A2992 RMK AC1CI1 SLP132

CYQB;2008-06-04 00:00;CYQB 040000Z 29002KT 30SM FEW100 FEW250 15/10 A2992 RMK AC1CI0 SLP132

CYQB;2008-06-04 01:00;CYQB 040100Z 00000KT 30SM FEW100 FEW250 13/09 A2993 RMK AC1CI0 OBS TAKEN +8 SLP136

CYQB;2008-06-04 02:00;CYQB 040200Z 00000KT 15SM FEW100 12/09 A2995 RMK AC2 SLP142

CYQB;2008-06-04 03:00;CYQB 040300Z 02004KT 15SM SCT100 12/09 A2994 RMK AC3 SLP142

CYQB;2008-06-04 04:00;CYQB 040400Z 00000KT 15SM FEW100 10/08 A2996 RMK AC2 SLP147

CYQB;2008-06-04 05:00;CYQB 040500Z 36004KT 15SM FEW100 09/08 A2997 RMK AC2 SLP149

CYQB;2008-06-04 06:00;CYQB 040600Z 36003KT 15SM SKC 09/08 A2998 RMK SLP153

CYQB;2008-06-04 07:00;CYQB 040700Z 02005KT 15SM SKC 09/07 A2998 RMK SLP155

CYQB;2008-06-04 08:00;CYQB 040800Z 06005KT 15SM FEW100 08/06 A2999 RMK AC1 SLP158

CYQB;2008-06-04 09:00;CYQB 040900Z 07013KT 30SM FEW100 09/04 A3000 RMK AC1 SLP160

CYQB;2008-06-04 10:00;CYQB 041000Z 07009G15KT 30SM FEW100 FEW150 10/03 A3001 RMK AC1AC1 SLP164

CYQB;2008-06-04 11:00;CYQB 041100Z 08012G17KT 15SM SKC 11/02 A3003 RMK SLP169

CYQB;2008-06-04 12:00;CYQB 041200Z 07015G20KT 30SM FEW100 12/02 A3002 RMK AC1 SLP168

CYQB;2008-06-04 13:00;CYQB 041300Z 08018KT 30SM FEW100 FEW270 13/02 A3003 RMK AC1CI1 SLP172

CYQB;2008-06-04 14:00;CYQB 041400Z 07016G22KT 30SM FEW100 FEW270 14/02 A3003 RMK AC1CI1 SLP170

CYQB;2008-06-04 15:00;CYQB 041500Z 07014G19KT 30SM FEW100 FEW270 16/03 A3003 RMK AC2CI0 SLP170

CYQB;2008-06-04 16:00;CYQB 041600Z 09011G17KT 30SM FEW050 FEW100 FEW160 SCT270 16/04 A3002 RMK CU1AC1AC1CI0 CU N SLP168

CYQB;2008-06-04 17:00;CYQB 041700Z 08013KT 30SM FEW050 FEW130 SCT270 17/04 A3001 RMK CU1AC1CI0 SLP164

CYQB;2008-06-04 18:00;CYQB 041800Z 08011G16KT 30SM FEW050 FEW130 BKN270 18/05 A2999 RMK CU1AC1CS2 SLP157

CYQB;2008-06-04 19:00;CYQB 041900Z 09010G15KT 30SM FEW050 FEW130 FEW270 18/05 A2999 RMK CU1AC1CI0 SLP157

CYQB;2008-06-04 20:00;CYQB 042000Z 12012KT 30SM FEW040 BKN280 18/06 A3000 RMK CU1CI2 SLP159

CYQB;2008-06-04 21:00;CYQB 042100Z 11013KT 30SM FEW040 BKN280 17/04 A2999 RMK CU1CI2 OBS TKN +09 SLP157

CYQB;2008-06-04 22:00;CYQB 042200Z 08012KT 30SM FEW040 SCT280 17/04 A2998 RMK CU1CI2 SLP154

CYQB;2008-06-04 23:00;CYQB 042300Z 09013G18KT 30SM FEW280 16/03 A2999 RMK CI1 SLP158

CYQB;2008-06-05 00:00;CYQB 050000Z 10008KT 30SM FEW280 14/03 A3001 RMK CI1 SLP165

CYQB;2008-06-05 01:00;CYQB 050100Z 10007KT 30SM FEW280 13/04 A3002 RMK CI1 SLP167

CYQB;2008-06-05 02:00;CYQB 050200Z 07007KT 15SM SKC 13/04 A3003 RMK SLP172

CYQB;2008-06-05 03:00;CYQB 050300Z 07006KT 15SM SKC 12/05 A3005 RMK SLP176

CYQB;2008-06-05 04:00;CYQB 050400Z 03004KT 15SM SKC 11/06 A3006 RMK SLP182

CYQB;2008-06-05 05:00;CYQB 050500Z 05007KT 15SM SKC 10/06 A3007 RMK SLP184

CYQB;2008-06-05 06:00;CYQB 050600Z 04007KT 15SM SKC 10/05 A3006 RMK SLP180

CYQB;2008-06-05 07:00;CYQB 050700Z 05006KT 15SM SKC 10/05 A3007 RMK SLP185

CYQB;2008-06-05 08:00;CYQB 050800Z 07009KT 15SM BKN250 10/06 A3008 RMK CI2 SLP189

CYQB;2008-06-05 09:00;CYQB 050900Z 07008KT 15SM FEW100 BKN250 10/06 A3008 RMK AC1CI2 SLP188

CYQB;2008-06-05 10:00;CYQB 051000Z 07008KT 30SM FEW100 BKN250 10/05 A3011 RMK AC1CI1 SLP197

CYQB;2008-06-05 11:00;CYQB 051100Z 07012KT 30SM FEW100 BKN250 12/05 A3012 RMK AC2CI3 SLP201

CYQB;2008-06-05 12:00;CYQB 051200Z 07009G16KT 30SM FEW100 BKN250 13/06 A3013 RMK AC2CI3 SLP204

CYQB;2008-06-05 13:00;CYQB 051300Z 07014G20KT 30SM FEW100 BKN250 15/05 A3013 RMK AC2CI2 SLP203

CYQB;2008-06-05 14:00;CYQB 051400Z 08012KT 30SM SCT250 15/05 A3015 RMK CI2 SLP212

CYQB;2008-06-05 15:00;CYQB 051500Z 08012KT 30SM FEW250 17/05 A3015 RMK CI1 SLP212

CYQB;2008-06-05 16:00;CYQB 051600Z 09009KT 30SM FEW250 18/06 A3015 RMK CI1 SLP212

CYQB;2008-06-05 17:00;CYQB 051700Z 08010KT 30SM FEW030 FEW250 20/06 A3014 RMK CU1CI1 CU TR SLP206

CYQB;2008-06-05 18:00;CYQB 051800Z 07011KT 30SM FEW030 FEW250 20/06 A3013 RMK CU1CI1 CI TR SLP204

CYQB;2008-06-05 19:00;CYQB 051900Z 11009KT 30SM FEW250 21/05 A3012 RMK CI1 SLP202

CYQB;2008-06-05 20:00;CYQB 052000Z 09011G16KT 30SM FEW030 FEW250 21/06 A3010 RMK SC1CI1 SLP195

CYQB;2008-06-05 21:00;CYQB 052100Z 09009KT 30SM FEW030 SCT250 21/06 A3011 RMK SC1CI1 SLP196

CYQB;2008-06-05 22:00;CYQB 052200Z 07009KT 30SM FEW030 BKN250 19/05 A3011 RMK SC1CI2 SLP198

CYQB;2008-06-05 23:00;CYQB 052300Z 09010KT 30SM FEW035 OVC250 18/04 A3011 RMK SC1CI2 SLP197

CYQB;2008-06-06 00:00;CYQB 060000Z 09006KT 30SM FEW035 OVC250 16/04 A3011 RMK SC1CI2 SLP198

CYQB;2008-06-06 01:00;CYQB 060100Z 08005KT 15SM BKN250 15/04 A3011 RMK CI2 SLP198

CYQB;2008-06-06 02:00;CYQB 060200Z 09004KT 15SM OVC250 14/03 A3011 RMK CI2 SLP198

CYQB;2008-06-06 03:00;CYQB 060300Z 09003KT 15SM OVC250 13/06 A3011 RMK CI2 SLP199

CYQB;2008-06-06 04:00;CYQB 060400Z 04002KT 15SM OVC250 14/05 A3013 RMK CI2 SLP205

CYQB;2008-06-06 05:00;CYQB 060500Z 07004KT 15SM OVC220 14/06 A3011 RMK CS3 SLP198

CYQB;2008-06-06 06:00;CYQB 060600Z 07005KT 15SM OVC200 14/07 A3011 RMK CS4 SLP196

CYQB;2008-06-06 07:00;CYQB 060700Z 06006KT 15SM OVC160 14/07 A3010 RMK AS6 SLP194

CYQB;2008-06-06 08:00;CYQB 060800Z 08006KT 15SM BKN039 OVC160 13/08 A3010 RMK SC5AS2 SLP192

CYQB;2008-06-06 08:23;CYQB 060823Z 07007KT 15SM -SHRA BKN036 OVC050 13/ RMK SC6SC2

CYQB;2008-06-06 08:50;CYQB 060850Z 06006KT 15SM OVC043 13/ RMK SC8

CYQB;2008-06-06 09:00;CYQB 060900Z 07006KT 15SM OVC045 13/08 A3009 RMK SC8 SLP191

CYQB;2008-06-06 10:00;CYQB 061000Z 07009KT 50SM BKN045 BKN062 OVC160 13/08 A3011 RMK SC5SC2AC1 SLP195

CYQB;2008-06-06 11:00;CYQB 061100Z 07006KT 30SM SCT040 BKN062 OVC140 14/08 A3011 RMK SC4SC2AC2 SLP197

CYQB;2008-06-06 12:00;CYQB 061200Z 07006KT 30SM BKN038 OVC062 14/08 A3010 RMK SC6SC2 SLP195

CYQB;2008-06-06 13:00;CYQB 061300Z 06005KT 30SM BKN038 OVC063 15/09 A3009 RMK SC7SC1 SLP192

CYQB;2008-06-06 14:00;CYQB 061400Z 06004KT 20SM BKN030 OVC062 16/10 A3008 RMK SC7SC1 VIS 10 W SLP189

CYQB;2008-06-06 14:39;CYQB 061439Z 02003KT 20SM -RA OVC029 16/ RMK SC8

CYQB;2008-06-06 15:00;CYQB 061500Z 05004KT 10SM -RA OVC026 17/11 A3008 RMK SC8 PCPN VRY LGT SLP188

CYQB;2008-06-06 15:22;CYQB 061522Z 05006KT 10SM OVC027 17/ RMK SC8

CYQB;2008-06-06 16:00;CYQB 061600Z 36003KT 15SM OVC028 18/12 A3009 RMK SC8 SLP190

CYQB;2008-06-06 17:00;CYQB 061700Z 18002KT 15SM OVC026 18/13 A3007 RMK SC8 SLP185

CYQB;2008-06-06 18:00;CYQB 061800Z 21003KT 10SM SCT021 OVC026 19/14 A3006 RMK SC4SC4 SLP180

CYQB;2008-06-06 19:00;CYQB 061900Z 19004KT 10SM SCT015 BKN019 OVC030 18/15 A3005 RMK SC4SC3SC1 SLP176

CYQB;2008-06-06 20:00;CYQB 062000Z 21005KT 15SM SCT015 OVC025 19/15 A3004 RMK SC4SC4 SLP173

CYQB;2008-06-06 21:00;CYQB 062100Z 24005KT 15SM FEW015 BKN025 OVC040 19/15 A3003 RMK SC2SC5SC1 SLP168

CYQB;2008-06-06 22:00;CYQB 062200Z 26005KT 15SM OVC021 19/15 A3002 RMK SC8 SLP166

CYQB;2008-06-06 23:00;CYQB 062300Z 26003KT 15SM OVC018 18/15 A3001 RMK SC8 SLP163

CYQB;2008-06-07 00:00;CYQB 070000Z 26003KT 15SM OVC018 18/15 A3002 RMK SC8 SLP165

CYQB;2008-06-07 01:00;CYQB 070100Z 00000KT 15SM OVC018 18/15 A3002 RMK SC8 SLP167

CYQB;2008-06-07 02:00;CYQB 070200Z 22002KT 15SM OVC018 17/15 A3003 RMK SC8 SLP169

CYQB;2008-06-07 03:00;CYQB 070300Z 22003KT 15SM OVC018 17/15 A3003 RMK SC8 SLP169

CYQB;2008-06-07 03:51;CYQB 070351Z 26004KT 15SM OVC013 17/ RMK SC8

CYQB;2008-06-07 04:00;CYQB 070400Z 27003KT 15SM OVC012 17/15 A3004 RMK SC8 SLP172

CYQB;2008-06-07 04:18;CYQB 070418Z 00000KT 15SM OVC009 17/ RMK ST8

CYQB;2008-06-07 05:00;CYQB 070500Z 00000KT 15SM BKN009 OVC025 16/15 A3002 RMK SF6SC2 SLP166

CYQB;2008-06-07 06:00;CYQB 070600Z 24002KT 15SM OVC007 16/15 A3001 RMK ST8 SLP163

CYQB;2008-06-07 07:00;CYQB 070700Z 23002KT 5SM BR OVC006 16/15 A2999 RMK SF8 SLP157

CYQB;2008-06-07 07:43;CYQB 070743Z 05002KT 5SM BR OVC005 16/ RMK SF8

CYQB;2008-06-07 08:00;CYQB 070800Z 00000KT 4SM BR OVC004 16/16 A2998 RMK SF8 SLP154

CYQB;2008-06-07 09:00;CYQB 070900Z 00000KT 1SM R06/P6000FT/N BR OVC004 16/15 A2996 RMK FG2SF6 SLP146

CYQB;2008-06-07 09:07;CYQB 070907Z 00000KT 1SM R06/P6000FT/D -SHRA BR OVC003 16/ RMK FG2SF6

CYQB;2008-06-07 09:34;CYQB 070934Z 00000KT 3/4SM R06/P6000FT/D BR OVC003 16/ RMK FG2SF6

CYQB;2008-06-07 10:00;CYQB 071000Z 11002KT 3/4SM R06/P6000FT/D BR OVC004 16/15 A2994 RMK FG2SF6 SLP141

CYQB;2008-06-07 10:45;CYQB 071045Z 05002KT 1/4SM R06/3000FT/N FG OVC006 16/ RMK FG3ST5

CYQB;2008-06-07 11:00;CYQB 071100Z 00000KT 1/4SM R06/3000FT/N FG OVC011 16/16 A2994 RMK FG6ST2 SLP141

CYQB;2008-06-07 11:15;CYQB 071115Z 05002KT 5/8SM R06/P6000FT/U BR OVC011 16/ RMK FG5ST3

CYQB;2008-06-07 11:31;CYQB 071131Z 04003KT 3/4SM R06/P6000FT/D BR BKN002 OVC013 17/ RMK FG5SF2ST2

CYQB;2008-06-07 12:00;CYQB 071200Z 04003KT 1 1/4SM BR BKN003 OVC012 17/16 A2994 RMK FG5SF2ST2 SLP138

CYQB;2008-06-07 12:18;CYQB 071218Z 02003KT 2SM BR SCT003 BKN006 OVC012 17/ RMK FG2SF2SF3SC2

CYQB;2008-06-07 12:43;CYQB 071243Z 04002KT 2 1/2SM BR SCT005 BKN011 OVC021 17/ RMK FG2SF2SF3SC2

CYQB;2008-06-07 13:00;CYQB 071300Z 01003KT 4SM BR SCT005 OVC011 18/16 A2993 RMK FG1SF3ST4 SLP136

CYQB;2008-06-07 13:14;CYQB 071314Z 33003KT 3SM -SHRA BR OVC007 17/ RMK FG1SF7 VSBY S 6

CYQB;2008-06-07 13:33;CYQB 071333Z 03003KT 3SM -SHRA BR SCT007 OVC020 17/ RMK FG2SF2ST4

CYQB;2008-06-07 14:00;CYQB 071400Z 12006KT 3SM -SHRA BR SCT004 OVC016 17/17 A2988 RMK FG2SF2ST4 SLP119

CYQB;2008-06-07 14:29;CYQB 071429Z 00000KT 3SM BR BKN003 OVC007 18/ RMK FG2SF3ST3

CYQB;2008-06-07 15:00;CYQB 071500Z 01002KT 4SM BR BKN006 OVC013 19/17 A2988 RMK FG1SF4ST3 SLP118

CYQB;2008-06-07 15:31;CYQB 071531Z 00000KT 4SM BR SCT006 OVC013 19/ RMK FG1SF2ST5

CYQB;2008-06-07 16:00;CYQB 071600Z 04002KT 5SM BR FEW006 OVC013 20/18 A2985 RMK FG1SF2ST6 SLP109

CYQB;2008-06-07 16:40;CYQB 071640Z 00000KT 10SM FEW008 BKN012 22/ RMK CF2CF5

CYQB;2008-06-07 17:00;CYQB 071700Z 31002KT 10SM SCT013 BKN120 23/19 A2981 RMK CF3AC1 SLP097

CYQB;2008-06-07 18:00;CYQB 071800Z 30004KT 10SM FEW015 FEW120 SCT250 26/21 A2979 RMK CF1AC1CI0 HAZY SLP088

CYQB;2008-06-07 19:00;CYQB 071900Z 27009KT 10SM FEW025TCU SCT120 27/21 A2977 RMK TCU1AC2 SLP082

CYQB;2008-06-07 20:00;CYQB 072000Z 26014G19KT 10SM FEW030TCU 28/21 A2975 RMK TCU2 SLP075

CYQB;2008-06-07 21:00;CYQB 072100Z 25016G22KT 8SM FEW020TCU 29/20 A2974 RMK TCU2 SLP070

CYQB;2008-06-07 22:00;CYQB 072200Z CCA 23015KT 10SM FEW040TCU SCT090 29/19 A2972 RMK TCU2AC1 SHRA N SLP063

CYQB;2008-06-07 23:00;CYQB 072300Z 25009KT 15SM FEW035TCU FEW300 28/19 A2972 RMK TCU2CI1 SLP063

CYQB;2008-06-08 00:00;CYQB 080000Z 24009KT 15SM FEW035 SCT090 BKN300 27/18 A2973 RMK SC1AC1CI0 SLP067

CYQB;2008-06-08 01:00;CYQB 080100Z 25006KT 15SM FEW025 SCT090 SCT300 24/17 A2974 RMK CF1AC0CI0 SLP072

CYQB;2008-06-08 02:00;CYQB 080200Z 27004KT 15SM SKC 22/16 A2977 RMK SLP080

CYQB;2008-06-08 03:00;CYQB 080300Z 24006KT 15SM SKC 22/16 A2976 RMK SLP078

CYQB;2008-06-08 04:00;CYQB 080400Z 21006KT 15SM SKC 20/16 A2977 RMK SLP080

CYQB;2008-06-08 05:00;CYQB 080500Z 23008KT 15SM SKC 20/15 A2977 RMK SLP081

CYQB;2008-06-08 06:00;CYQB 080600Z 23007KT 15SM SKC 20/15 A2977 RMK SLP081

CYQB;2008-06-08 07:00;CYQB 080700Z 24008KT 15SM SKC 19/15 A2977 RMK SLP081

CYQB;2008-06-08 08:00;CYQB 080800Z 24005KT 15SM FEW040 18/15 A2978 RMK SC2 SLP083

CYQB;2008-06-08 09:00;CYQB 080900Z 24004KT 30SM SCT040 17/15 A2978 RMK SC4 SLP082

CYQB;2008-06-08 10:00;CYQB 081000Z 26004KT 30SM FEW040 BKN120 BKN250 18/16 A2978 RMK SC2AC2CI1 SLP084

CYQB;2008-06-08 11:00;CYQB 081100Z 26007KT 30SM FEW035 SCT120 BKN250 20/18 A2977 RMK SC2AC2CI2 SLP079

CYQB;2008-06-08 12:00;CYQB 081200Z 24011KT 20SM FEW030 SCT160 BKN250 22/19 A2975 RMK SC1AC2CI2 SLP075

CYQB;2008-06-08 13:00;CYQB 081300Z 24013G19KT 20SM FEW025 SCT150 BKN240 24/19 A2974 RMK CU2AC2CI2 VIS N-E 10 SLP069

CYQB;2008-06-08 14:00;CYQB 081400Z 26015KT 20SM SCT035 SCT150 BKN240 26/20 A2972 RMK CU3AC1CI1 SLP062

CYQB;2008-06-08 15:00;CYQB 081500Z 24018KT 20SM FEW035 SCT150 BKN240 27/20 A2968 RMK CU2AC1CI0 SLP051

CYQB;2008-06-08 16:00;CYQB 081600Z 25013G20KT 20SM BKN038 BKN250 27/21 A2968 RMK CU5CI1 SLP050

CYQB;2008-06-08 17:00;CYQB 081700Z 25014G19KT 20SM BKN030 BKN250 28/21 A2966 RMK CU5CI1 SLP044

CYQB;2008-06-08 18:00;CYQB 081800Z 27017G22KT 20SM SCT030TCU SCT250 29/22 A2964 RMK TCU3CI0 SLP035

CYQB;2008-06-08 19:00;CYQB 081900Z 24021KT 20SM BKN030TCU BKN200 30/21 A2961 RMK TCU5CI0 SLP027

CYQB;2008-06-08 20:00;CYQB 082000Z 36012G22KT 10SM BKN036CB BKN150 26/19 A2962 RMK CB5AC0 VCSH LTNG E SLP030

CYQB;2008-06-08 20:13;CYQB 082013Z 36014KT 10SM -TSRA BKN034CB BKN150 25/ RMK CB6AC1

CYQB;2008-06-08 20:24;CYQB 082024Z 36022G30KT 1/2SM R06/2800FT/N +TSRA FG OVC030CB 22/ RMK FG4CB4

CYQB;2008-06-08 20:50;CYQB 082050Z 23005KT 15SM TS BKN030TCU BKN100 22/ RMK TCU6AC2 VCSH CB EMBD

CYQB;2008-06-08 21:00;CYQB 082100Z 25007KT 20SM TS SCT030TCU BKN100 24/22 A2965 RMK TCU3AC3 CB EMBD SLP042

CYQB;2008-06-08 21:20;CYQB 082120Z 23003KT 20SM FEW030TCU SCT100 SCT210 25/ RMK TCU2AC2CI0

CYQB;2008-06-08 22:00;CYQB 082200Z 22006KT 20SM FEW030TCU BKN090 BKN210 25/23 A2965 RMK TCU2AC4CI1 SLP040

CYQB;2008-06-08 23:00;CYQB 082300Z 23008KT 20SM FEW090 FEW220 25/22 A2966 RMK AC2CI0 SLP044

CYQB;2008-06-09 00:00;CYQB 090000Z 25009KT 20SM FEW015 FEW090 24/22 A2967 RMK CU1AC2 SLP045

CYQB;2008-06-09 01:00;CYQB 090100Z 25005KT 20SM FEW030 23/21 A2969 RMK CU2 SLP053

CYQB;2008-06-09 02:00;CYQB 090200Z 26007KT 15SM FEW030 22/20 A2972 RMK CF1 SLP064

CYQB;2008-06-09 03:00;CYQB 090300Z 20002KT 10SM SKC 21/20 A2972 RMK SLP064

CYQB;2008-06-09 03:45;CYQB 090345Z 07006KT 2SM R06/3500V6000FT/N BR BKN003 20/ RMK FG1SF5

CYQB;2008-06-09 04:00;CYQB 090400Z 05005KT 5SM BR BKN004 20/18 A2972 RMK SF7 SLP064

CYQB;2008-06-09 04:30;CYQB 090430Z 03002KT 10SM SCT005 BKN140 20/ RMK SF3AC2 VSBY SE 4

CYQB;2008-06-09 04:42;CYQB 090442Z 01004KT 10SM BKN003 BKN140 20/ RMK SF6AC1

CYQB;2008-06-09 05:00;CYQB 090500Z 36005KT 10SM BKN003 20/18 A2973 RMK SF5 SLP067

CYQB;2008-06-09 05:10;CYQB 090510Z 36003KT 10SM FEW003 BKN140 20/ RMK SF2AC2

CYQB;2008-06-09 06:00;CYQB 090600Z 36006KT 15SM FEW003 BKN160 19/17 A2974 RMK SF1AC4 SLP070

CYQB;2008-06-09 07:00;CYQB 090700Z 35005KT 15SM BKN140 19/17 A2974 RMK AC6 SLP069

CYQB;2008-06-09 08:00;CYQB 090800Z 03006KT 15SM BKN150 19/15 A2976 RMK AC6 SLP077

CYQB;2008-06-09 09:00;CYQB 090900Z 36005KT 30SM BKN160 18/14 A2977 RMK AC6 SLP081

CYQB;2008-06-09 10:00;CYQB 091000Z 04004KT 30SM BKN150 18/14 A2979 RMK AC7 SLP089

CYQB;2008-06-09 11:00;CYQB 091100Z 03005KT 15SM FEW060 BKN150 20/14 A2981 RMK SC2AC5 SLP095

CYQB;2008-06-09 12:00;CYQB 091200Z 07006KT 15SM OVC069 18/13 A2986 RMK AC8 SLP110

CYQB;2008-06-09 13:00;CYQB 091300Z 07011G19KT 15SM OVC071 18/11 A2985 RMK AC8 OBS TAKEN +01 SLP109

CYQB;2008-06-09 14:00;CYQB 091400Z 08010KT 30SM OVC071 17/11 A2986 RMK AC8 SLP110

CYQB;2008-06-09 15:00;CYQB 091500Z 07010KT 30SM OVC069 18/11 A2985 RMK AC8 SLP107

CYQB;2008-06-09 16:00;CYQB 091600Z 08008G15KT 30SM BKN070 BKN081 19/12 A2984 RMK AC6AC1 SLP106

CYQB;2008-06-09 17:00;CYQB 091700Z 09011KT 30SM BKN065 19/12 A2985 RMK SC7 SLP107

CYQB;2008-06-09 18:00;CYQB 091800Z 09007KT 30SM OVC067 19/12 A2984 RMK AC8 SLP105

CYQB;2008-06-09 19:00;CYQB 091900Z 08009KT 30SM BKN065 BKN130 19/12 A2985 RMK SC5AC2 SLP107

CYQB;2008-06-09 20:00;CYQB 092000Z 08010G15KT 30SM OVC082 19/12 A2985 RMK AC8 SLP108

CYQB;2008-06-09 21:00;CYQB 092100Z 07011KT 30SM OVC076 18/12 A2985 RMK AC8 SLP107

CYQB;2008-06-09 21:22;CYQB 092122Z 08008KT 30SM -SHRA OVC067 18/ RMK AC8

CYQB;2008-06-09 22:00;CYQB 092200Z 07011KT 30SM OVC059 18/11 A2984 RMK SC8 SLP105

CYQB;2008-06-09 23:00;CYQB 092300Z 07008KT 30SM OVC044 17/11 A2985 RMK SC8 SLP107

CYQB;2008-06-10 00:00;CYQB 100000Z 09008KT 30SM OVC037 17/10 A2983 RMK SC8 SLP103

CYQB;2008-06-10 01:00;CYQB 100100Z CCA 08005KT 15SM OVC038 17/11 A2983 RMK SC8 SLP101

CYQB;2008-06-10 02:00;CYQB 100200Z 09005KT 15SM BKN027 17/10 A2983 RMK SC7 SLP104

CYQB;2008-06-10 03:00;CYQB 100300Z 09008KT 15SM BKN030 16/10 A2982 RMK SC6 SLP099

CYQB;2008-06-10 04:00;CYQB 100400Z 07008KT 15SM SCT030 BKN085 15/10 A2981 RMK SC4AC2 SLP097

CYQB;2008-06-10 05:00;CYQB 100500Z 09007KT 15SM FEW030 BKN085 15/10 A2982 RMK SC2AC2 SLP098

CYQB;2008-06-10 06:00;CYQB 100600Z 07007KT 15SM BKN032 15/10 A2982 RMK SC6 SLP099

CYQB;2008-06-10 07:00;CYQB 100700Z 07006KT 15SM BKN033 14/10 A2982 RMK SC6 SLP100

CYQB;2008-06-10 08:00;CYQB 100800Z 06007KT 15SM BKN038 14/11 A2983 RMK SC6 SLP102

CYQB;2008-06-10 09:00;CYQB 100900Z 07006KT 15SM FEW020 SCT080 BKN200 14/12 A2984 RMK SC2AC2CI3 SLP105

CYQB;2008-06-10 10:00;CYQB 101000Z 07005KT 15SM BKN024 14/12 A2986 RMK SC6 SLP113

CYQB;2008-06-10 11:00;CYQB 101100Z 07006KT 15SM BKN018 OVC030 14/12 A2986 RMK SC6SC2 SLP113

CYQB;2008-06-10 12:00;CYQB 101200Z 08005KT 15SM OVC014 15/12 A2987 RMK SC8 SLP117

CYQB;2008-06-10 13:00;CYQB 101300Z 05003KT 15SM OVC019 16/13 A2989 RMK SC8 SLP121

CYQB;2008-06-10 13:50;CYQB 101350Z 07004KT 20SM OVC012 17/ RMK SC8

CYQB;2008-06-10 14:00;CYQB 101400Z 03004KT 20SM OVC011 17/13 A2989 RMK SC8 SLP121

CYQB;2008-06-10 15:00;CYQB 101500Z 05004KT 20SM OVC011 19/15 A2987 RMK SC8 SLP116

CYQB;2008-06-10 15:47;CYQB 101547Z 06002KT 20SM FEW013 BKN100 20/ RMK SC2AC4

CYQB;2008-06-10 16:00;CYQB 101600Z 11004KT 20SM SCT012 BKN100 20/16 A2986 RMK SC2AC2 SLP114

CYQB;2008-06-10 17:00;CYQB 101700Z 01002KT 20SM FEW020 FEW240 23/18 A2984 RMK SC1CI1 SLP105

CYQB;2008-06-10 18:00;CYQB 101800Z 08002KT 20SM FEW025 FEW220 25/20 A2980 RMK CU1CI1 SLP090

CYQB;2008-06-10 19:00;CYQB 101900Z 03003KT 20SM FEW025 FEW220 27/21 A2975 RMK CU1CI1 SLP076

CYQB;2008-06-10 20:00;CYQB 102000Z 12002KT 20SM FEW030 BKN240 28/21 A2974 RMK CU1CI2 SLP072

CYQB;2008-06-10 20:23;CYQB 102023Z 12005KT 15SM -TSRA BKN030CB BKN160 BKN240 27/ RMK CB5AC2CI1

CYQB;2008-06-10 20:30;CYQB 102030Z 13004KT 12SM -TSRA FEW009 BKN030CB BKN063 BKN160 26/ RMK SF1CB5SC2AC1

CYQB;2008-06-10 20:42;CYQB 102042Z 29004KT 15SM SCT030TCU BKN060 OVC160 26/ RETS RMK TCU3SC2AC3 OCNL -SHRA VIS N 5 CB N

CYQB;2008-06-10 20:49;CYQB 102049Z 02002KT 15SM FEW030TCU SCT060 BKN160 OVC210 27/ RETS RMK TCU2SC1AC2CI2 DIST LTNG SW

CYQB;2008-06-10 21:00;CYQB 102100Z 02003KT 15SM SCT030CB BKN073 OVC160 26/22 A2972 RETS RMK CB3AC3AC2 LTGCG AND CB SE QUAD SLP063

CYQB;2008-06-10 21:15;CYQB 102115Z CCA 19029G44KT 1/2SM R06/P6000FT/N +TSRA FG VV005 21/ RMK RA8 CB

CYQB;2008-06-10 21:18;CYQB 102118Z 23024G44KT 1/2SM +TSRA FG SCT005 OVC020CB 20/ RMK FG2ST2CB4

CYQB;2008-06-10 21:28;CYQB 102128Z CCA 19005G19KT 2 1/4SM -TSRA BR SCT006 OVC038CB 20/ RERA RMK SF2CB6 LTGCG LTGCC

CYQB;2008-06-10 21:44;CYQB 102144Z 22005KT 7SM -TSRA FEW006 OVC056CB 21/ RETSRA RMK SF1CB8 LTGCG LTGCC

CYQB;2008-06-10 22:00;CYQB 102200Z 23005KT 15SM -TSRA SCT037 BKN052CB OVC160 20/19 A2971 RETSRA RMK SC3CB2AC2 VIS WNW-E 5 SLP062

CYQB;2008-06-10 22:21;CYQB 102221Z 18002KT 8SM FEW040 SCT060 OVC170 20/ RETS RMK SC2SC2AC4 CB E

CYQB;2008-06-10 23:00;CYQB 102300Z 22002KT 15SM FEW020 SCT060 BKN160 BKN240 20/19 A2970 RETS RMK SC2SC2AC2CI2 SLP056

CYQB;2008-06-11 00:00;CYQB 110000Z 15002KT 15SM FEW010 SCT160 BKN240 21/19 A2970 RMK SF1AC1CI2 SLP058

CYQB;2008-06-11 01:00;CYQB 110100Z 03006KT 15SM FEW002 FEW070 BKN240 20/19 A2969 RMK SF1AC2CI0 SLP053

CYQB;2008-06-11 02:00;CYQB 110200Z 08004KT 15SM FEW002 FEW070 BKN130 OVC240 20/19 A2969 RMK SF1AC2AC2CI0 DIST LTGCG S SLP055

CYQB;2008-06-11 02:27;CYQB 110227Z 12003KT 12SM -SHRA FEW041 SCT060 BKN130 OVC230 20/ RMK SC2SC2AC3CI1

CYQB;2008-06-11 03:00;CYQB 110300Z 29002KT 12SM -SHRA BKN032 OVC060 20/18 A2969 RMK SC7SC1 SLP053

CYQB;2008-06-11 03:03;CYQB 110303Z 27002KT 12SM OVC027 20/ RMK SC8

CYQB;2008-06-11 04:00;CYQB 110400Z 22013KT 8SM FEW015 SCT050 OVC160 21/19 A2971 RMK SF2SC2AC5 HIER VIS S QUAD SLP060

CYQB;2008-06-11 05:00;CYQB 110500Z 24011KT 15SM FEW050 BKN160 OVC200 20/18 A2971 RMK SC1AC5CI2 SLP062

CYQB;2008-06-11 06:00;CYQB 110600Z 27009KT 15SM FEW015 SCT091 SCT160 BKN220 19/18 A2973 RMK SF1AC2AC1CI0 SLP069

CYQB;2008-06-11 07:00;CYQB 110700Z 25010KT 15SM FEW009 FEW035 BKN063 BKN080 19/17 A2975 RMK SF1SC1SC4AC2 SLP074

CYQB;2008-06-11 08:00;CYQB 110800Z 25012KT 15SM FEW011 SCT050 BKN090 19/17 A2975 RMK ST1SC2AC2 SLP073

CYQB;2008-06-11 09:00;CYQB 110900Z 24017KT 15SM FEW011 FEW045 BKN074 19/17 A2975 RMK SF1SC2AC5 DIST TCU EMBD SLP076

CYQB;2008-06-11 09:44;CYQB 110944Z 25015G20KT 15SM -SHRA BKN012 BKN030 OVC070 18/ RMK SC6SC1AC1 TCU EMBD

CYQB;2008-06-11 10:00;CYQB 111000Z CCA 24015KT 15SM -SHRA BKN013 BKN025 BKN090 BKN200 18/16 A2978 RMK SF5SC1AC1CI1 VIS NE AND SW 7 TCU EMBD SLP083

CYQB;2008-06-11 10:32;CYQB 111032Z 27010G15KT 20SM FEW013 FEW030 BKN075 18/ RMK SF2SC1AC3

CYQB;2008-06-11 11:00;CYQB 111100Z 27012KT 20SM FEW012 FEW030 BKN059 18/16 A2983 RMK SF1SC1SC3 SLP100

CYQB;2008-06-11 12:00;CYQB 111200Z 27010G15KT 25SM FEW020 SCT090 19/15 A2986 RMK SC2AC2 SLP111

CYQB;2008-06-11 13:00;CYQB 111300Z 28011G18KT 25SM FEW030 FEW090 18/13 A2988 RMK CU2AC1 SLP117

CYQB;2008-06-11 14:00;CYQB 111400Z 27017KT 25SM BKN042 20/14 A2989 RMK SC5 SLP122

CYQB;2008-06-11 15:00;CYQB 111500Z 26011G16KT 25SM SCT045 BKN075 19/14 A2990 RMK SC4AC2 CU ASOCTD SLP125

CYQB;2008-06-11 16:00;CYQB 111600Z 26012KT 25SM FEW030 BKN050 21/14 A2989 RMK CU2SC5 SLP123

CYQB;2008-06-11 17:00;CYQB 111700Z 25014KT 30SM SCT030 BKN050 22/15 A2987 RMK CU4SC2 SLP116

CYQB;2008-06-11 18:00;CYQB 111800Z 28009G18KT 25SM -SHRA BKN038 BKN070 21/14 A2986 RMK SC5AC1 VIS NW 6 TCU ASOCTD SLP111

CYQB;2008-06-11 18:38;CYQB 111838Z 29007KT 25SM BKN038TCU BKN070 20/ RMK TCU5AC2 DIST PCPN E

CYQB;2008-06-11 19:00;CYQB 111900Z 27008KT 25SM FEW030 BKN045TCU BKN070 21/15 A2985 RMK CF2TCU4AC1 DIST CB N MOVG ESE LGTIC SLP107

CYQB;2008-06-11 19:12;CYQB 111912Z 25009KT 15SM TS FEW030 BKN045TCU BKN110 21/ RMK CF2TCU4AC1 CB NW MOVG E LGTIC

CYQB;2008-06-11 19:16;CYQB 111916Z 26010KT 15SM -TSRA FEW030 BKN045TCU BKN078 21/ RMK CF2TCU4AC1 CB EMBD

CYQB;2008-06-11 19:45;CYQB 111945Z 33017G31KT 2 1/2SM +TSRA BKN028 BKN045TCU 16/ RMK FG1CF4TCU2 CB EMBD

CYQB;2008-06-11 20:00;CYQB 112000Z 33009G16KT 5SM -SHRA FEW028 SCT045TCU OVC066 16/13 A2990 RETS RMK CF2TCU2AC4 DIST CB EMBD ESE SLP125

CYQB;2008-06-11 20:28;CYQB 112028Z 34006KT 10SM FEW028 FEW045TCU BKN065 BKN300 17/ RMK CF1TCU2AC3CI1

CYQB;2008-06-11 21:00;CYQB 112100Z 27008KT 15SM -SHRA FEW028 SCT045TCU BKN097 BKN300 18/14 A2991 RETS RMK CF1TCU2AC2CI1 SLP130

CYQB;2008-06-11 22:00;CYQB 112200Z 25010KT 15SM FEW028 FEW045TCU SCT095 BKN300 18/14 A2993 RMK CF1TCU1AC4CI0 TCU AND CB DIST N MOVG ESE SLP135

CYQB;2008-06-11 23:00;CYQB 112300Z 25010KT 20SM FEW028 FEW045 FEW095 FEW300 18/14 A2995 RMK CU1SC1AC1CI1 TCU DIST N SLP144

CYQB;2008-06-12 00:00;CYQB 120000Z 26009KT 20SM FEW025 FEW040 BKN085 17/14 A2997 RMK CU1SC2AC3 TCU DIST NE SLP151

CYQB;2008-06-12 01:00;CYQB 120100Z 25010KT 20SM FEW040 FEW085 16/13 A2999 RMK SC2AC1 DIST PCPN NE SLP157

CYQB;2008-06-12 02:00;CYQB 120200Z 27010KT 15SM FEW060 14/11 A3002 RMK SC2 SLP167

CYQB;2008-06-12 03:00;CYQB 120300Z 27008KT 15SM FEW060 SCT085 13/11 A3004 RMK SC1AC2 SLP173

CYQB;2008-06-12 04:00;CYQB 120400Z 25002KT 15SM FEW035 FEW080 13/11 A3005 RMK SC1AC1 SLP175

CYQB;2008-06-12 05:00;CYQB 120500Z 31008KT 15SM FEW030 FEW080 13/10 A3006 RMK SC2AC1 SLP180

CYQB;2008-06-12 06:00;CYQB 120600Z 34010G15KT 15SM FEW030 13/08 A3009 RMK SC1 SLP190

CYQB;2008-06-12 07:00;CYQB 120700Z 33008KT 15SM FEW030 FEW080 11/07 A3012 RMK SC1AC1 SLP199

CYQB;2008-06-12 08:00;CYQB 120800Z 28006KT 15SM FEW030 FEW075 10/07 A3014 RMK SC1AC1 SLP205

CYQB;2008-06-12 09:00;CYQB 120900Z 29007KT 30SM FEW025 FEW070 09/07 A3016 RMK SC1AC1 SLP215

CYQB;2008-06-12 10:00;CYQB 121000Z 29006KT 30SM FEW030 FEW090 10/08 A3019 RMK SC1AC1 SLP224

CYQB;2008-06-12 11:00;CYQB 121100Z 30007KT 30SM SKC 12/07 A3021 RMK SLP231

CYQB;2008-06-12 12:00;CYQB 121200Z 31009KT 30SM FEW022 14/08 A3022 RMK CF1 SLP235

CYQB;2008-06-12 13:00;CYQB 121300Z 31012G19KT 30SM FEW032 15/06 A3023 RMK CU1 SLP237

CYQB;2008-06-12 14:00;CYQB 121400Z 30008KT 30SM FEW040 16/06 A3023 RMK CU1 SLP238

CYQB;2008-06-12 15:00;CYQB 121500Z 28009KT 30SM FEW050 FEW240 17/05 A3024 RMK CU1CI0 SLP241

CYQB;2008-06-12 16:00;CYQB 121600Z 31011G17KT 30SM FEW050 FEW250 19/04 A3023 RMK CU1CI0 SLP239

CYQB;2008-06-12 17:00;CYQB 121700Z 29006KT 30SM FEW050 BKN240 20/06 A3022 RMK CU1CI0 SLP236

CYQB;2008-06-12 18:00;CYQB 121800Z 32015KT 30SM FEW050 SCT240 21/05 A3021 RMK CU1CI0 SLP232

CYQB;2008-06-12 19:00;CYQB 121900Z 31011G18KT 30SM FEW060 22/04 A3021 RMK CU1 SLP230

CYQB;2008-06-12 20:00;CYQB 122000Z 29012G17KT 30SM FEW050 FEW240 22/05 A3021 RMK CU1CI0 SLP231

CYQB;2008-06-12 21:00;CYQB 122100Z 32013KT 30SM FEW050 FEW240 23/03 A3021 RMK CU1CI0 SLP232

CYQB;2008-06-12 22:00;CYQB 122200Z 31009G17KT 30SM FEW240 22/04 A3021 RMK CI0 SLP230

CYQB;2008-06-12 23:00;CYQB 122300Z 29003KT 30SM BKN270 20/06 A3022 RMK CI2 SLP233

CYQB;2008-06-13 00:00;CYQB 130000Z 29005KT 30SM SCT270 19/06 A3022 RMK CI1 SLP235

CYQB;2008-06-13 01:00;CYQB 130100Z 29005KT 30SM FEW160 BKN270 16/06 A3022 RMK AC2CI1 SLP236

CYQB;2008-06-13 02:00;CYQB 130200Z 00000KT 15SM BKN250 15/07 A3023 RMK CI4 SLP237

CYQB;2008-06-13 03:00;CYQB 130300Z 01003KT 15SM BKN250 15/05 A3023 RMK CI3 SLP239

CYQB;2008-06-13 04:00;CYQB 130400Z 35006KT 15SM SCT240 14/05 A3025 RMK CI1 SLP245

CYQB;2008-06-13 05:00;CYQB 130500Z 36005KT 15SM FEW230 14/04 A3026 RMK CI1 SLP247

CYQB;2008-06-13 06:00;CYQB 130600Z 36004KT 15SM SKC 11/05 A3026 RMK SLP248

CYQB;2008-06-13 07:00;CYQB 130700Z 36002KT 15SM FEW240 10/05 A3026 RMK CI1 SLP248

CYQB;2008-06-13 08:00;CYQB 130800Z 01004KT 30SM FEW240 10/05 A3028 RMK CI1 SLP253

CYQB;2008-06-13 09:00;CYQB 130900Z 35007KT 30SM FEW240 10/04 A3028 RMK CI0 SLP255

CYQB;2008-06-13 10:00;CYQB 131000Z 35006KT 30SM FEW160 FEW240 11/04 A3029 RMK AC1CI1 SLP259

CYQB;2008-06-13 11:00;CYQB 131100Z 34006KT 30SM FEW250 13/04 A3030 RMK CI0 SLP261

CYQB;2008-06-13 12:00;CYQB 131200Z 36003KT 30SM FEW250 14/07 A3031 RMK CI1 SLP266

CYQB;2008-06-13 13:00;CYQB 131300Z 03002KT 30SM SCT250 17/08 A3030 RMK CI0 SLP261

CYQB;2008-06-13 14:00;CYQB 131400Z 11004KT 30SM SCT250 19/07 A3027 RMK CI0 SLP252

CYQB;2008-06-13 15:00;CYQB 131500Z 07007KT 30SM FEW250 20/06 A3027 RMK CI0 SLP252

CYQB;2008-06-13 16:00;CYQB 131600Z 10003KT 30SM FEW250 21/05 A3026 RMK CI0 SLP247

CYQB;2008-06-13 17:00;CYQB 131700Z 12004KT 30SM FEW250 21/03 A3023 RMK CI0 SLP238

CYQB;2008-06-13 18:00;CYQB 131800Z 00000KT 30SM FEW250 23/05 A3021 RMK CI0 SLP232

CYQB;2008-06-13 19:00;CYQB 131900Z 11003KT 30SM FEW250 23/08 A3018 RMK CI0 SLP222

CYQB;2008-06-13 20:00;CYQB 132000Z 08004KT 30SM BKN220 24/08 A3016 RMK CI1 SLP213

CYQB;2008-06-13 21:00;CYQB 132100Z 06010KT 30SM FEW100 OVC220 23/08 A3015 RMK AC1CI0 SLP210

CYQB;2008-06-13 22:00;CYQB 132200Z 05006KT 30SM BKN140 23/07 A3015 RMK AC7 SLP211

CYQB;2008-06-13 23:00;CYQB 132300Z 07005KT 30SM BKN140 22/08 A3014 RMK AC7 SLP209

CYQB;2008-06-14 00:00;CYQB 140000Z 09005KT 30SM SCT150 BKN200 21/08 A3013 RMK AC3CI1 SLP202

CYQB;2008-06-14 01:00;CYQB 140100Z 09006KT 15SM FEW130 SCT150 OVC200 19/08 A3012 RMK AC2AC1CI1 SLP200

CYQB;2008-06-14 02:00;CYQB 140200Z 07005KT 15SM FEW140 BKN200 18/08 A3012 RMK AC2CI2 SLP199

CYQB;2008-06-14 03:00;CYQB 140300Z 02003KT 15SM FEW130 BKN200 17/09 A3012 RMK AC2CI1 SLP199

CYQB;2008-06-14 04:00;CYQB 140400Z 35004KT 15SM BKN240 16/10 A3011 RMK CI3 SLP197

CYQB;2008-06-14 05:00;CYQB 140500Z 02003KT 15SM BKN240 15/09 A3009 RMK CI0 SLP191

CYQB;2008-06-14 06:00;CYQB 140600Z 04004KT 15SM SCT240 15/08 A3008 RMK CI0 SLP187

CYQB;2008-06-14 07:00;CYQB 140700Z 06009KT 15SM FEW120 SCT240 15/08 A3008 RMK AC1CI0 SLP188

CYQB;2008-06-14 08:00;CYQB 140800Z 05006KT 15SM FEW120 FEW240 15/07 A3008 RMK AC1CI0 SLP185

CYQB;2008-06-14 09:00;CYQB 140900Z 05005KT 15SM FEW100 BKN240 BKN260 14/06 A3008 RMK AC1CI0CI0 SLP186

CYQB;2008-06-14 10:00;CYQB 141000Z 06008KT 15SM BKN089 BKN240 15/07 A3007 RMK AC2CI1 SLP184

CYQB;2008-06-14 11:00;CYQB 141100Z 07010KT 50SM FEW089 BKN280 17/07 A3006 RMK AC2CI2 SLP180

CYQB;2008-06-14 12:00;CYQB 141200Z 07012G19KT 50SM FEW089 BKN230 18/06 A3006 RMK AC2CI1 SLP180

CYQB;2008-06-14 13:00;CYQB 141300Z CCA 07008G15KT 30SM FEW085 BKN230 20/07 A3005 RMK AC2CI2 OBS TAKEN +08 SLP175

CYQB;2008-06-14 14:00;CYQB 141400Z 07009G15KT 50SM BKN090 BKN220 20/07 A3003 RMK AC6CI1 SLP170

CYQB;2008-06-14 15:00;CYQB 141500Z 07012G18KT 30SM BKN081 BKN220 21/08 A3000 RMK AC6CI1 SLP161

CYQB;2008-06-14 16:00;CYQB 141600Z 08011G17KT 30SM BKN077 BKN230 22/09 A2999 RMK AC6CI2 SLP155

CYQB;2008-06-14 17:00;CYQB 141700Z 07012G18KT 50SM FEW075 BKN120 OVC230 24/09 A2996 RMK AC2AC2CI0 SLP145

CYQB;2008-06-14 18:00;CYQB 141800Z 07011KT 50SM BKN075 BKN120 BKN230 23/09 A2994 RMK AC5AC1CI1 SLP140

CYQB;2008-06-14 18:38;CYQB 141838Z 09011KT 8SM SHRA FEW014 BKN030 OVC045 21/ RMK SF2SC6SC1 TCU EMBDD

CYQB;2008-06-14 18:52;CYQB 141852Z 07009KT 20SM SCT030 OVC060 19/ RMK CF3SC4 SHWRS E

CYQB;2008-06-14 19:00;CYQB 141900Z 06008KT 30SM FEW030 OVC060 20/13 A2993 RERA RMK CF2SC6 SLP136

CYQB;2008-06-14 20:00;CYQB 142000Z 09005KT 30SM SCT030 OVC055 20/13 A2992 RMK CF3SC4 SLP131

CYQB;2008-06-14 21:00;CYQB 142100Z 09007KT 30SM OVC055 19/10 A2991 RMK SC8 SLP129

CYQB;2008-06-14 22:00;CYQB 142200Z 13003KT 30SM OVC060 18/10 A2991 RMK SC8 SLP129

CYQB;2008-06-14 22:15;CYQB 142215Z 12006KT 20SM -SHRA OVC052 18/ RMK SC8

CYQB;2008-06-14 23:00;CYQB 142300Z 09012KT 20SM -SHRA OVC054 16/09 A2990 RMK SC8 SLP127

CYQB;2008-06-14 23:16;CYQB 142316Z 10006KT 30SM BKN054 BKN080 16/ RMK SC5AC2 SHWRS E

CYQB;2008-06-15 00:00;CYQB 150000Z 08008KT 30SM SCT060 BKN160 16/10 A2990 RMK SC3AC3 SLP127

CYQB;2008-06-15 01:00;CYQB 150100Z 07011KT 15SM FEW055 BKN170 16/10 A2991 RMK SC2AC2 SLP129

CYQB;2008-06-15 02:00;CYQB 150200Z 07010G16KT 15SM BKN050 BKN170 16/10 A2990 RMK SC6AC2 SLP127

CYQB;2008-06-15 03:00;CYQB 150300Z 06008KT 15SM BKN083 BKN200 15/11 A2988 RMK AC6CI1 SLP120

CYQB;2008-06-15 04:00;CYQB 150400Z 08007KT 15SM BKN057 BKN083 OVC120 16/10 A2988 RMK SC5AC2AC2 SLP118

CYQB;2008-06-15 05:00;CYQB 150500Z 01004KT 15SM OVC064 16/11 A2988 RMK SC8 SLP120

CYQB;2008-06-15 05:13;CYQB 150513Z 04004KT 15SM -SHRA OVC059 16/ RMK SC8

CYQB;2008-06-15 06:00;CYQB 150600Z 06007KT 4SM -SHRA BR OVC027 14/12 A2987 RMK SC8 TCU EMBD SLP117

CYQB;2008-06-15 06:13;CYQB 150613Z 06008KT 4SM -SHRA BR FEW009 OVC032TCU 14/ RERA RMK SF1TCU7

CYQB;2008-06-15 07:00;CYQB 150700Z 04006KT 12SM -SHRA FEW009 OVC030 13/12 A2987 RERA RMK SF1SC7 TCU EMBD SLP115

CYQB;2008-06-15 08:00;CYQB 150800Z CCA 08006G16KT 3SM -SHRA BR FEW007 OVC033 12/12 A2988 RERA RMK SF2SC6 TCU EMBD SLP118

CYQB;2008-06-15 08:34;CYQB 150834Z 06007KT 5SM -SHRA BR BKN002 OVC028 13/ RMK SF5SC3 TCU EMBD

CYQB;2008-06-15 09:00;CYQB 150900Z 07009KT 4SM -SHRA BR BKN003 OVC018 13/12 A2986 RMK ST5SC3 TCU EMBD SLP113

CYQB;2008-06-15 09:34;CYQB 150934Z 08010KT 5SM -SHRA BR SCT003 OVC017 13/ RMK ST3SC5

CYQB;2008-06-15 10:00;CYQB 151000Z 07012G17KT 4SM -SHRA BR SCT003 OVC017 13/13 A2986 RMK ST3SC5 TCU EMBD SLP113

CYQB;2008-06-15 10:40;CYQB 151040Z 07015KT 4SM -SHRA BR BKN005 OVC018 13/ RMK SF5SC3

CYQB;2008-06-15 11:00;CYQB 151100Z 08013G18KT 4SM -SHRA BR SCT005 OVC016 13/12 A2987 RMK SF3SC5 TCU EMBD SLP115

CYQB;2008-06-15 12:00;CYQB 151200Z 07015KT 4SM -SHRA BR SCT005 BKN029 OVC036 14/13 A2988 RMK SF3SC2SC2 TCU EMBD SLP119

CYQB;2008-06-15 13:00;CYQB 151300Z 07011KT 4SM -SHRA BR FEW005 BKN018 OVC036 14/14 A2989 RMK SF2SC3SC3 TCU EMBD SLP122

CYQB;2008-06-15 14:00;CYQB 151400Z 09009KT 4SM -SHRA BR BKN005 BKN039 OVC060 15/14 A2988 RMK SF5SC2SC1 TCU EMBD SLP118

CYQB;2008-06-15 14:16;CYQB 151416Z 07009KT 5SM -SHRA BR FEW007 BKN041 OVC060 15/ RMK SF2SC2SC3

CYQB;2008-06-15 15:00;CYQB 151500Z 07008KT 5SM -DZ BR SCT008 BKN022 OVC035 15/14 A2989 RMK SF4SC2SC2 TCU EMBD SLP122

CYQB;2008-06-15 15:10;CYQB 151510Z 07009KT 5SM -RA BR FEW005 SCT008 BKN024 OVC036 15/ RMK SF2SF2SC2SC2 TCU EMBD

CYQB;2008-06-15 16:00;CYQB 151600Z 06010KT 5SM -RA BR SCT007 OVC036 16/15 A2988 RMK SF4SC4 TCU EMBD SLP119

CYQB;2008-06-15 16:17;CYQB 151617Z 07010KT 10SM SCT007 BKN037 OVC150 16/ RMK SF3SC4AC1 TCU EMBD

CYQB;2008-06-15 17:00;CYQB 151700Z 07010KT 10SM FEW007 BKN041 OVC150 16/15 A2987 RMK SF2SC5AC1 SLP115

CYQB;2008-06-15 18:00;CYQB 151800Z 09008KT 20SM FEW007 SCT042 BKN076 BKN180 17/15 A2985 RMK SF2SC2SC2AC1 SLP110

CYQB;2008-06-15 19:00;CYQB 151900Z 07011KT 20SM FEW008 BKN064 BKN090 18/16 A2985 RMK SF2SC3AC2 SLP108

CYQB;2008-06-15 20:00;CYQB 152000Z 08012KT 20SM FEW008 BKN065 BKN090 18/15 A2983 RMK CF1SC4AC2 SLP102

CYQB;2008-06-15 21:00;CYQB 152100Z 07009KT 20SM FEW065 SCT100 BKN220 18/15 A2982 RMK SC2AC2CI2 SLP099

CYQB;2008-06-15 22:00;CYQB 152200Z 09008KT 20SM FEW010 BKN023 BKN100 18/15 A2981 RMK CF1SC4AC2 SLP094

CYQB;2008-06-15 23:00;CYQB 152300Z 09011KT 20SM FEW010 OVC024 17/14 A2980 RMK CF1SC6 SLP093

CYQB;2008-06-16 00:00;CYQB 160000Z 08012KT 30SM OVC029 16/13 A2981 RMK SC7 SLP096

CYQB;2008-06-16 01:00;CYQB 160100Z 05009KT 15SM BKN028 16/13 A2983 RMK SC7 SLP101

CYQB;2008-06-16 02:00;CYQB 160200Z 08009KT 15SM BKN032 16/13 A2982 RMK SC7 SLP099

CYQB;2008-06-16 03:00;CYQB 160300Z 08011G18KT 15SM FEW025 OVC036 16/13 A2981 RMK SC1SC8 SLP095

CYQB;2008-06-16 04:00;CYQB 160400Z 08012G17KT 15SM FEW025 OVC028 16/12 A2980 RMK SC1SC8 SLP093

CYQB;2008-06-16 05:00;CYQB 160500Z 07011G18KT 15SM FEW011 OVC029 15/13 A2979 RMK ST1SC8 SLP090

CYQB;2008-06-16 06:00;CYQB 160600Z 07005KT 15SM FEW008 OVC028 15/13 A2979 RMK ST1SC8 SLP088

CYQB;2008-06-16 07:00;CYQB 160700Z 08010KT 15SM FEW009 BKN029 OVC140 15/13 A2978 RMK ST1SC6AC2 SLP084

CYQB;2008-06-16 08:00;CYQB 160800Z 08010KT 15SM FEW008 SCT021 OVC027 14/13 A2977 RMK ST2SC2SC4 SLP082

CYQB;2008-06-16 08:29;CYQB 160829Z 07009G15KT 12SM BKN005 OVC027 14/ RMK ST6SC2

CYQB;2008-06-16 09:00;CYQB 160900Z 07008KT 15SM BKN005 OVC027 14/13 A2976 RMK ST6SC2 SLP078

CYQB;2008-06-16 09:40;CYQB 160940Z 06009KT 15SM BKN006 BKN029 OVC120 14/ RMK ST5SC1AC1

CYQB;2008-06-16 10:00;CYQB 161000Z 07009KT 14SM BKN006 BKN017 OVC030 14/13 A2977 RMK ST5SC2SC1 SLP081

CYQB;2008-06-16 11:00;CYQB 161100Z 08011KT 15SM BKN006 BKN024 OVC120 14/13 A2976 RMK ST5SC2AC1 SLP078

CYQB;2008-06-16 11:29;CYQB 161129Z 08007KT 20SM SCT006 BKN016 BKN024 OVC120 15/ RMK ST3SC2SC2AC1

CYQB;2008-06-16 12:00;CYQB 161200Z 09007KT 20SM SCT006 BKN015 OVC120 15/13 A2975 RMK ST4SC3AC1 SLP075

CYQB;2008-06-16 13:00;CYQB 161300Z 09009KT 20SM BKN010 OVC020 16/14 A2976 RMK ST5SC3 SLP078

CYQB;2008-06-16 13:14;CYQB 161314Z 07010KT 20SM FEW010 BKN015 17/ RMK ST2SC5 VIS LWR N

CYQB;2008-06-16 13:48;CYQB 161348Z 08009KT 20SM FEW010 OVC012 17/ RMK SF1SC7 VIS LWR N

CYQB;2008-06-16 14:00;CYQB 161400Z 07008KT 20SM FEW010 OVC014 17/15 A2975 RMK SF1SC7 SLP077

CYQB;2008-06-16 15:00;CYQB 161500Z 07010KT 20SM -RA FEW010 BKN019 OVC100 17/14 A2974 RMK CF1SC6AC1 SLP072

CYQB;2008-06-16 16:00;CYQB 161600Z CCA 09007KT 15SM -SHRA FEW010 BKN017 OVC030 17/15 A2974 RMK CF1SC6SC1 TCU EMBD SLP072

CYQB;2008-06-16 17:00;CYQB 161700Z 09009KT 10SM -SHRA FEW010 OVC017 17/15 A2973 RMK CF1SC7 SLP069

CYQB;2008-06-16 18:00;CYQB 161800Z CCA 09008KT 10SM -SHRA BKN017 OVC056 17/15 A2972 RMK SC6SC2 TCU EMBD SLP066

CYQB;2008-06-16 19:00;CYQB 161900Z 08010KT 10SM -SHRA SCT011 OVC041 17/15 A2971 RMK CF4SC4 CLDS TPG HILL N-E SLP062

CYQB;2008-06-16 20:00;CYQB 162000Z 07012KT 6SM -SHRA SCT009 BKN020 BKN065 17/16 A2970 RMK CF3SC3SC1 SLP057

CYQB;2008-06-16 20:14;CYQB 162014Z 07012KT 5SM -SHRA BR BKN005 BKN020 OVC065 17/ RMK CF5SC2SC2

CYQB;2008-06-16 20:44;CYQB 162044Z 05012KT 5SM -SHRA BR SCT005 BKN020 BKN065 16/ RMK CF3SC2SC2

CYQB;2008-06-16 21:00;CYQB 162100Z 07011G16KT 5SM -SHRA BR BKN005 BKN020 OVC065 16/16 A2969 RERA RMK CF5SC2SC1 SLP054

CYQB;2008-06-16 22:00;CYQB 162200Z 05008KT 10SM -SHRA BKN006 BKN020 16/15 A2970 RMK SF5SC2 SLP056

CYQB;2008-06-16 22:32;CYQB 162232Z 07012KT 6SM -SHRA FEW006 BKN040 OVC100 16/ RMK SF2SC4AC2

CYQB;2008-06-16 23:00;CYQB 162300Z CCA 07011KT 8SM FEW006 FEW040 BKN110 16/15 A2970 RMK SF2SC1AC5 CLDS TPG HILL N-E SLP056

CYQB;2008-06-16 23:44;CYQB 162344Z 08015KT 8SM FEW006 FEW040 BKN110 BKN320 16/ RMK SF2SC1AC5CI1 DIST CB W CLDS TPG HILL N-E

CYQB;2008-06-17 00:00;CYQB 170000Z 09010G16KT 8SM FEW005 SCT020 BKN110 BKN320 16/15 A2968 RMK SF2SC2AC2CI2 DIST CB W DIST TCU N CLDS TPG HILL N-E SLP051

CYQB;2008-06-17 01:00;CYQB 170100Z 07011KT 10SM SCT008 BKN160 OVC320 16/15 A2968 RMK SF2AC3CI2 DIST CB S OCNL LTGIC CLDS TPG HILL N-E SLP051

CYQB;2008-06-17 01:32;CYQB 170132Z 06009KT 10SM BKN013 BKN160 OVC320 16/ RMK SF5AC2CI2

CYQB;2008-06-17 02:00;CYQB 170200Z 06010KT 10SM SCT013 BKN140 OVC250 16/15 A2968 RMK SF3AC3CI2 DIST CB W OCNL LTGIC SLP052

CYQB;2008-06-17 03:00;CYQB 170300Z 11003KT 15SM FEW012 BKN070 BKN110 OVC250 16/15 A2970 RMK SF2AC3AC1CI2 SLP058

CYQB;2008-06-17 03:11;CYQB 170311Z 26004KT 9SM -TSRA FEW012 BKN061TCU OVC110 16/ RMK ST2TCU4AC2 CB EMBD

CYQB;2008-06-17 03:42;CYQB 170342Z 03005KT 12SM -SHRA SCT020TCU OVC078 16/ RETS RMK TCU3AC5

CYQB;2008-06-17 04:00;CYQB 170400Z 05006KT 9SM -SHRA BKN027TCU OVC075 16/15 A2971 RETS RMK TCU5AC3 CIG RAG SLP062

CYQB;2008-06-17 05:00;CYQB 170500Z 09006KT 9SM -SHRA SCT030TCU OVC100 15/15 A2969 RMK TCU3AC5 SLP054

CYQB;2008-06-17 05:43;CYQB 170543Z 10007KT 12SM FEW006 FEW030 OVC110 16/ RMK ST1SC1AC6 TCU ASOCTD

CYQB;2008-06-17 06:00;CYQB 170600Z 09008KT 10SM FEW007 FEW030 BKN130 OVC210 16/15 A2968 RMK ST2SC1AC5CI2 SLP050

CYQB;2008-06-17 07:00;CYQB 170700Z 09004KT 12SM FEW007 BKN026 OVC130 15/15 A2968 RMK ST1SC5AC2 SLP050

CYQB;2008-06-17 08:00;CYQB 170800Z 07007KT 6SM BR FEW005 OVC013 15/15 A2966 RMK SF2SC6 SLP045

CYQB;2008-06-17 08:30;CYQB 170830Z 07006KT 6SM -SHRA BR BKN004 OVC013 15/ RMK SF5SC3

CYQB;2008-06-17 08:49;CYQB 170849Z 07006KT 9SM FEW004 SCT013 OVC046 15/ RMK SF2SC1SC5

CYQB;2008-06-17 09:00;CYQB 170900Z 07008KT 10SM FEW004 SCT013 BKN050 OVC120 15/15 A2965 RMK SF2SC1SC5AC1 SLP041

CYQB;2008-06-17 10:00;CYQB 171000Z 10004KT 15SM FEW004 FEW013 BKN052 OVC120 15/15 A2966 RMK ST1SC1SC5AC2 SLP044

CYQB;2008-06-17 11:00;CYQB 171100Z 09006KT 10SM FEW005 FEW015 BKN025 OVC045 16/15 A2967 RMK SF1SC1SC6SC1 VIS NW 3 SLP047

CYQB;2008-06-17 12:00;CYQB 171200Z 08005KT 10SM FEW005 BKN021 BKN035 16/15 A2967 RMK SF1SC4SC2 SLP049

CYQB;2008-06-17 13:00;CYQB 171300Z 10006KT 10SM SCT010 BKN035 17/15 A2968 RMK SF4SC3 SLP051

CYQB;2008-06-17 14:00;CYQB 171400Z 09006KT 15SM SCT014 BKN038 BKN150 19/16 A2967 RMK CU4SC2AC1 SLP047

CYQB;2008-06-17 15:00;CYQB 171500Z 10006KT 15SM SCT018 BKN040 BKN230 19/15 A2966 RMK CU4SC2CI1 CB EMBDD S SHWRS S-SW SLP044

CYQB;2008-06-17 15:49;CYQB 171549Z 07009KT 15SM TS FEW010 BKN025CB BKN070 19/ RMK SF1CB4AC2 SHWRS S-SW VIS LWR S-SW

CYQB;2008-06-17 16:00;CYQB 171600Z 09010KT 15SM -TSRA FEW010 BKN025CB BKN070 18/15 A2965 RMK SF1CB4AC2 SLP040

CYQB;2008-06-17 17:00;CYQB 171700Z 02006KT 12SM -TSRA FEW020 BKN035CB BKN080 16/14 A2965 RMK SF2CB4AC2 SLP041

CYQB;2008-06-17 17:34;CYQB 171734Z 10008KT 15SM FEW005 SCT035CB BKN110 16/ RETS RMK SF1CB2AC3 SHWRS N-NE

CYQB;2008-06-17 18:00;CYQB 171800Z 07004KT 15SM FEW006 SCT035 BKN110 18/15 A2964 RETS RMK SF1SC2AC2 SLP039

CYQB;2008-06-17 19:00;CYQB 171900Z 07008KT 20SM SCT030 BKN100 19/14 A2964 RMK CU4AC1 CB TOPS E SLP037

CYQB;2008-06-17 20:00;CYQB 172000Z 08011KT 20SM SCT020 SCT100 19/15 A2963 RMK CU3AC1 SLP035

CYQB;2008-06-17 21:00;CYQB 172100Z 09011G16KT 20SM SCT018 SCT100 SCT300 19/15 A2963 RMK CU4AC1CI1 DIST TCU N-S DIST CB W SLP033

CYQB;2008-06-17 22:00;CYQB 172200Z 10008KT 25SM FEW018 SCT100 BKN300 17/15 A2965 RMK CU2AC1CI2 DIST CB TOP-LTNGS W TCU ASOCT SLP041

CYQB;2008-06-17 23:00;CYQB 172300Z 11006KT 15SM FEW012 BKN035 BKN100 BKN300 17/14 A2967 RMK CF1SC4AC1CI2 CB S-NW MOVG E OCNL LTGIC SHRA ASOCTD SLP048

CYQB;2008-06-17 23:11;CYQB 172311Z 18004KT 15SM BKN012CB BKN035 BKN100 BKN300 17/ RMK CB5SC1AC1CI2 DIST SHRA NW

CYQB;2008-06-17 23:23;CYQB 172323Z 27003KT 7SM -SHRA FEW012 BKN020 17/ RMK CF2SC5 CB EMBD

CYQB;2008-06-18 00:00;CYQB 180000Z 08003KT 10SM -SHRA FEW012 FEW025 BKN080 16/14 A2967 RMK CF1SC2AC5 CB S SLP049

CYQB;2008-06-18 00:44;CYQB 180044Z 20004KT 7SM -SHRA BKN010 OVC025 15/ RMK CF5SC3

CYQB;2008-06-18 01:00;CYQB 180100Z 23003KT 7SM -SHRA FEW008 BKN010 OVC025 15/14 A2967 RMK SF1CF6SC2 SLP048

CYQB;2008-06-18 01:17;CYQB 180117Z 34003KT 7SM -SHRA FEW008 SCT010 OVC079 15/ RMK SF1CF4AC4

CYQB;2008-06-18 02:00;CYQB 180200Z 24002KT 10SM BKN008 OVC120 15/14 A2967 RMK SF5AC3 SLP047

CYQB;2008-06-18 03:00;CYQB 180300Z 15003KT 10SM BKN007 OVC140 14/13 A2967 RMK SF6AC2 SLP047

CYQB;2008-06-18 03:32;CYQB 180332Z 13005KT 12SM SCT007 SCT019 OVC084 15/ RMK SF2SC1AC6

CYQB;2008-06-18 04:00;CYQB 180400Z 16004KT 8SM BKN005 OVC080 15/14 A2967 RMK ST6AC2 SLP047

CYQB;2008-06-18 05:00;CYQB 180500Z 18003KT 7SM BKN007 BKN030 OVC080 15/14 A2966 RMK ST6SC2AC1 SLP045

CYQB;2008-06-18 06:00;CYQB 180600Z 18002KT 9SM BKN008 OVC030 15/14 A2965 RMK ST6SC2 SLP042

CYQB;2008-06-18 06:41;CYQB 180641Z 17002KT 9SM -SHRA SCT008 SCT032 OVC046 15/ RMK ST2SC1SC5

CYQB;2008-06-18 07:00;CYQB 180700Z 18002KT 7SM -SHRA SCT008 BKN025 OVC046 14/14 A2964 RMK ST2SC4SC2 SLP039

CYQB;2008-06-18 08:00;CYQB 180800Z 23002KT 8SM -SHRA FEW008 BKN017 OVC045 14/14 A2964 RMK ST2SC5SC1 SLP038

CYQB;2008-06-18 09:00;CYQB 180900Z 19003KT 3SM -SHRA BR SCT009 OVC015 14/13 A2965 RMK ST4SC4 SLP041

CYQB;2008-06-18 09:17;CYQB 180917Z 19005KT 4SM -SHRA BR BKN006 OVC014 14/ RMK ST6SC2

CYQB;2008-06-18 10:00;CYQB 181000Z 20004KT 5SM -SHRA BR OVC010 14/13 A2966 RMK ST8 VIS NW-NE 2 SLP045

CYQB;2008-06-18 11:00;CYQB 181100Z 23010KT 8SM -SHRA BKN009 OVC022 14/13 A2967 RMK SF5SC3 SLP048

CYQB;2008-06-18 11:34;CYQB 181134Z 27004KT 15SM -SHRA FEW009 OVC036 14/ RMK SF1SC7 VIS LWR NW

CYQB;2008-06-18 12:00;CYQB 181200Z 19003KT 15SM -SHRA FEW009 OVC040 14/13 A2969 RMK SF1SC7 SLP054

CYQB;2008-06-18 12:27;CYQB 181227Z 22003KT 15SM -SHRA BKN010 OVC040 14/ RMK SC6SC2

CYQB;2008-06-18 12:43;CYQB 181243Z 20003KT 10SM -SHRA FEW006 BKN010 OVC040 14/ RMK SF2SC3SC2

CYQB;2008-06-18 13:00;CYQB 181300Z 22003KT 12SM -SHRA FEW008 BKN010 BKN040 OVC060 14/13 A2970 RMK SF2SC2SC2SC2 SLP057

CYQB;2008-06-18 14:00;CYQB 181400Z 23004KT 12SM -SHRA FEW005 BKN010 BKN049 15/13 A2970 RMK SF2SC3SC2 SLP060

CYQB;2008-06-18 14:29;CYQB 181429Z 22003KT 12SM -SHRA SCT008 BKN043 15/ RMK SF4SC3

CYQB;2008-06-18 15:00;CYQB 181500Z 16004KT 12SM BKN013 BKN040 15/13 A2972 RMK SC5SC2 SLP065

CYQB;2008-06-18 15:21;CYQB 181521Z 00000KT 10SM -SHRA BKN013 BKN040 15/ RMK SC5SC2

CYQB;2008-06-18 16:00;CYQB 181600Z 11002KT 8SM -SHRA FEW007 SCT012 BKN035 OVC070 15/14 A2972 RMK SF2SC2SC3AC1 SLP066

CYQB;2008-06-18 17:00;CYQB 181700Z 11003KT 12SM -SHRA FEW009 BKN022 BKN040 BKN070 16/13 A2972 RMK SF2SC3SC1AC2 SLP065

CYQB;2008-06-18 18:00;CYQB 181800Z 09002KT 15SM SCT016 BKN045 BKN080 17/12 A2972 RMK CU3SC2AC2 SLP063

CYQB;2008-06-18 19:00;CYQB 181900Z 08005KT 20SM FEW020 SCT045 BKN070 18/14 A2971 RMK CU1CU2AC3 TCU ASOCTD SLP061

CYQB;2008-06-18 20:00;CYQB 182000Z 08008KT 20SM FEW022 BKN082 18/13 A2971 RMK CU2AC2 SLP060

CYQB;2008-06-18 21:00;CYQB 182100Z 07008KT 20SM FEW020 SCT080 BKN260 18/14 A2970 RMK CU2AC1CI1 SLP059

CYQB;2008-06-18 22:00;CYQB 182200Z 09007KT 15SM -SHRA FEW020 BKN077 BKN260 17/11 A2972 RMK CU2AC4CI1 SLP064

CYQB;2008-06-18 23:00;CYQB 182300Z 10011G16KT 20SM -SHRA FEW014 SCT040TCU BKN090 BKN260 15/14 A2973 RMK SC2TCU2AC3CI1 CLDS TPG HILLS NW SLP069

CYQB;2008-06-18 23:45;CYQB 182345Z 07014KT 20SM FEW014 SCT040 BKN140 BKN260 15/ RMK SC2CU1AC2CI1 CLDS TPG HILLS NW

CYQB;2008-06-19 00:00;CYQB 190000Z 08010G16KT 15SM FEW008 SCT015 BKN140 15/13 A2974 RMK SF1SC2AC3 CLDS TPG HILLS NW SLP073

CYQB;2008-06-19 01:00;CYQB 190100Z 07008KT 15SM BKN010 BKN100 14/13 A2976 RMK SC6AC1 SLP080

CYQB;2008-06-19 01:28;CYQB 190128Z 08008KT 10SM OVC009 14/ RMK SF7 CIG VRB 8-10

CYQB;2008-06-19 01:46;CYQB 190146Z 09006KT 8SM -SHRA OVC009 14/ RMK SF8 CIG VRB 8-10

CYQB;2008-06-19 02:00;CYQB 190200Z 10005KT 8SM -SHRA FEW007 OVC009 14/13 A2978 RMK SF1SC7 TCU EMBD CIG VRB 8-10 SLP087

CYQB;2008-06-19 02:35;CYQB 190235Z 08006KT 8SM -SHRA SCT007 BKN032 OVC065 14/ RMK SF3SC3SC2 TCU EMBD

CYQB;2008-06-19 03:00;CYQB 190300Z 08008KT 10SM -SHRA FEW006 OVC073 14/13 A2978 RMK SF2AC6 SLP087

CYQB;2008-06-19 04:00;CYQB 190400Z 07008KT 10SM -RA FEW006 OVC066 14/13 A2979 RMK SF2SC6 SLP090

CYQB;2008-06-19 04:29;CYQB 190429Z 06006KT 15SM FEW006 BKN077 14/ RMK SF2AC5

CYQB;2008-06-19 05:00;CYQB 190500Z 07005KT 15SM FEW006 BKN076 BKN100 14/13 A2979 RMK SF2AC5AC1 SLP089

CYQB;2008-06-19 05:53;CYQB 190553Z 08007KT 15SM BKN007 BKN076 14/ RMK SF5AC2

CYQB;2008-06-19 06:00;CYQB 190600Z 07008KT 15SM BKN009 BKN075 14/13 A2979 RMK SF6AC2 SLP089

CYQB;2008-06-19 06:38;CYQB 190638Z 08008KT 15SM BKN011 BKN090 14/ RMK ST6AC1

CYQB;2008-06-19 07:00;CYQB 190700Z 07011KT 15SM BKN011 BKN078 14/13 A2980 RMK ST5AC2 SLP091

CYQB;2008-06-19 07:29;CYQB 190729Z 07007KT 15SM SCT018 BKN084 14/ RMK SC3AC3

CYQB;2008-06-19 08:00;CYQB 190800Z 07006KT 15SM SCT013 BKN085 14/13 A2979 RMK SC3AC3 SLP090

CYQB;2008-06-19 09:00;CYQB 190900Z 08005KT 15SM FEW006 BKN018 BKN100 14/13 A2981 RMK ST1SC5AC1 SLP095

CYQB;2008-06-19 10:00;CYQB 191000Z 07005KT 15SM FEW007 OVC016 14/13 A2982 RMK ST2SC6 SLP099

CYQB;2008-06-19 11:00;CYQB 191100Z 08006KT 8SM -DZ BKN009 OVC018 14/13 A2982 RMK SC7SC1 SLP100

CYQB;2008-06-19 12:00;CYQB 191200Z 09006KT 6SM -DZ BR SCT009 BKN020 OVC038 15/13 A2983 RMK SF3SC2SC2 SLP103

CYQB;2008-06-19 12:24;CYQB 191224Z 09007KT 6SM -RA BR BKN009 OVC038 14/ RMK SF6SC2

CYQB;2008-06-19 13:00;CYQB 191300Z 10006KT 6SM -RA BR SCT009 BKN019 OVC028 15/13 A2984 RMK SF3SC2SC2 SLP105

CYQB;2008-06-19 13:26;CYQB 191326Z 08009KT 6SM -RA BR BKN009 BKN020 OVC060 14/ RMK SF5SC2SC2

CYQB;2008-06-19 13:52;CYQB 191352Z 10007KT 6SM -RA BR FEW004 SCT009 BKN013 OVC020 14/ RMK SF2SF2SC3SC1

CYQB;2008-06-19 14:00;CYQB 191400Z 09009KT 6SM -RA BR SCT004 BKN009 OVC013 14/13 A2984 RMK SF3SF2SC2 SLP105

CYQB;2008-06-19 14:50;CYQB 191450Z 10007KT 7SM FEW005 BKN009 BKN040 OVC080 15/ RMK SF2SF2SC2AC2

CYQB;2008-06-19 15:00;CYQB 191500Z 09007KT 7SM FEW005 BKN009 BKN040 BKN080 15/14 A2984 RMK SF2SF2SC2AC1 SLP105

CYQB;2008-06-19 15:30;CYQB 191530Z 10009KT 8SM SCT009 BKN011 BKN050 16/ RMK SF3SC3SC1

CYQB;2008-06-19 16:00;CYQB 191600Z 12006KT 10SM FEW009 BKN012 BKN030 BKN050 16/14 A2983 RMK SF2SC3SC2SC1 SLP102

CYQB;2008-06-19 16:07;CYQB 191607Z 11004KT 10SM -SHRA FEW009 BKN013 BKN030 BKN070 16/ RMK SF2SC5SC1AC1 TCU ASOCTD VIS LWR N

CYQB;2008-06-19 16:33;CYQB 191633Z 06005KT 10SM -TSRA FEW009 BKN015 BKN030 BKN070 16/ RMK SF2SC5SC1AC1 CB EMBD VIS LWR SW

CYQB;2008-06-19 17:00;CYQB 191700Z 18002KT 8SM R06/3500VP6000FT/U +TSRAGR FEW007 BKN012 BKN030 OVC070 14/12 A2983 RMK SF2SC3SC2AC1 HAIL DIAM 9 MM SLP102

CYQB;2008-06-19 17:14;CYQB 191714Z 04002G15KT 10SM -TSRA FEW007 SCT013CB BKN030 BKN070 15/ RERAGR RMK SF1CB2SC2AC2 VIS LWR NE-E LTGCG

CYQB;2008-06-19 17:36;CYQB 191736Z 13002KT 15SM TS FEW013CB SCT030 BKN050 BKN070 17/ RERAGR RMK CB2SC1SC2AC2 VIS LWR NE

CYQB;2008-06-19 18:00;CYQB 191800Z 11004KT 15SM SCT018 BKN050 BKN090 BKN230 17/15 A2982 RETSRAGR RMK CU4SC1AC1CI1 CB ASOCTD NE SLP099

CYQB;2008-06-19 19:00;CYQB 191900Z 09006KT 15SM FEW008 SCT020 BKN045 BKN080 17/14 A2983 RMK SF1SC3SC2AC2 VIS 30 NE SLP102

CYQB;2008-06-19 19:16;CYQB 191916Z 19005KT 15SM -SHRA FEW008 BKN018 BKN035 BKN090 BKN180 17/ RMK SF1SC5SC1AC1CI1

CYQB;2008-06-19 19:36;CYQB 191936Z 21003KT 6SM -TSRA FEW008 BKN025 OVC070 13/ RERA RMK SF1SC7AC1 CB EMBDD

CYQB;2008-06-19 20:00;CYQB 192000Z CCA 35008KT 8SM -SHRA FEW008 BKN025 OVC070 14/12 A2985 RETSRA RMK SF1SC6AC2 CB EMBD SLP108

CYQB;2008-06-19 20:35;CYQB 192035Z 06003KT 20SM FEW008 FEW020 SCT035 BKN075 BKN180 14/ RETSRA RMK SF1SC2SC2AC3CI1 OCNL -SHRA

CYQB;2008-06-19 21:00;CYQB 192100Z 05005KT 20SM FEW008 FEW020 BKN065 OVC090 15/13 A2985 RMK SF1SC2SC6AC1 SLP109

CYQB;2008-06-19 22:00;CYQB 192200Z 04005KT 15SM FEW015 BKN050 BKN090 15/13 A2984 RMK CU1SC6AC1 SLP106

CYQB;2008-06-19 23:00;CYQB 192300Z 08009KT 20SM FEW010 BKN017 BKN050 OVC090 16/14 A2986 RMK SF1SC5SC2AC1 SLP111

CYQB;2008-06-20 00:00;CYQB 200000Z 09009KT 20SM SCT010 SCT037 BKN054 BKN070 15/13 A2985 RMK SF3SC1SC3AC1 SLP110

CYQB;2008-06-20 00:45;CYQB 200045Z 11007KT 10SM -SHRA FEW004 BKN007 OVC037 15/ RMK SF1SF6SC2

CYQB;2008-06-20 01:00;CYQB 200100Z 11008KT 10SM -SHRA FEW004 SCT007 OVC037 15/14 A2985 RMK SF1SF3SC5 SLP110

CYQB;2008-06-20 01:17;CYQB 200117Z 13012G17KT 6SM -SHRA FEW004 BKN013 OVC028 15/ RERA RMK SF1SF7SF1

CYQB;2008-06-20 01:45;CYQB 200145Z 17003KT 10SM FEW008 OVC025 15/ RERA RMK SF2SC6 OCNL -SHRA

CYQB;2008-06-20 02:00;CYQB 200200Z 15003KT 10SM FEW008 OVC024 15/14 A2988 RERA RMK SF2SC6 SLP118

CYQB;2008-06-20 03:00;CYQB 200300Z 16002KT 10SM FEW008 OVC020 15/13 A2988 RMK SF2SC6 SLP118

CYQB;2008-06-20 04:00;CYQB 200400Z 00000KT 10SM FEW010 BKN020 BKN040 OVC090 15/13 A2988 RMK SF1SC5SC2AC1 CLD TPG HILLS W-NE SLP120

CYQB;2008-06-20 04:43;CYQB 200443Z 18003KT 8SM -SHRA FEW010 OVC021 15/ RMK SF2SC6

CYQB;2008-06-20 05:00;CYQB 200500Z 19003KT 10SM FEW010 OVC022 14/13 A2989 RMK SF2SC6 SLP121

CYQB;2008-06-20 06:00;CYQB 200600Z 26002KT 15SM FEW012 FEW025 OVC061 14/13 A2989 RMK ST1SC1SC6 CLDS TPG HILLS W-NE SLP123

CYQB;2008-06-20 07:00;CYQB 200700Z 00000KT 15SM FEW012 BKN034 OVC093 14/13 A2990 RMK SF1SC6AC2 SLP126

CYQB;2008-06-20 08:00;CYQB 200800Z 00000KT 12SM FEW011 FEW037 SCT070 BKN097 14/13 A2990 RMK SF1SC2AC2AC3 SLP126

CYQB;2008-06-20 09:00;CYQB 200900Z 11002KT 15SM FEW008 FEW035 BKN090 BKN220 14/13 A2992 RMK SF1SC1AC5CI1 SLP131

CYQB;2008-06-20 10:00;CYQB 201000Z 25002KT 15SM FEW008 FEW035 BKN090 BKN220 14/12 A2993 RMK SF1SC1AC6CI1 SLP136

CYQB;2008-06-20 11:00;CYQB 201100Z 13003KT 15SM FEW008 FEW050 SCT080 BKN220 15/13 A2994 RMK SF1SC1AC3CI1 SLP140

CYQB;2008-06-20 12:00;CYQB 201200Z 21006KT 15SM FEW008 FEW040 BKN070 BKN220 16/13 A2995 RMK SF1SC1AC5CI2 SLP143

CYQB;2008-06-20 13:00;CYQB 201300Z 26009KT 15SM FEW008 FEW020 BKN070 BKN220 17/12 A2995 RMK SF1SC1AC6CI1 SLP144

CYQB;2008-06-20 14:00;CYQB 201400Z 24005KT 15SM FEW020 BKN080 17/13 A2995 RMK SC1AC6 SLP143

CYQB;2008-06-20 15:00;CYQB 201500Z 25005KT 15SM FEW020TCU BKN080 19/13 A2995 RMK TCU2AC4 SLP142

CYQB;2008-06-20 16:00;CYQB 201600Z 23004KT 15SM BKN030 BKN080 19/13 A2993 RMK CU6AC1 SLP136

CYQB;2008-06-20 17:00;CYQB 201700Z 25007KT 30SM BKN030 BKN090 21/12 A2992 RMK CU5AC1 SLP133

CYQB;2008-06-20 18:00;CYQB 201800Z 25020G29KT 30SM -SHRA FEW030 BKN050 BKN090 16/12 A2993 RMK CU2SC5AC1 VIS W-NE 4 TCU EMBD SLP135

CYQB;2008-06-20 19:00;CYQB 201900Z 30003KT 30SM -SHRA FEW025 BKN085 17/14 A2993 RMK CU2AC5 VIS LWR NE / TCU EMBD SLP137

CYQB;2008-06-20 19:20;CYQB 201920Z 28005KT 30SM FEW025 BKN083 19/ RMK CU2AC6 VIS LWR NE / TCU EMBD

CYQB;2008-06-20 20:00;CYQB 202000Z 27010KT 30SM FEW030TCU FEW083 BKN220 20/14 A2992 RMK TCU2AC1CC2 TCU S SLP133

CYQB;2008-06-20 20:27;CYQB 202027Z 26007KT 15SM TS VCSH FEW030CB SCT060 BKN081 19/ RMK CB2AC2AC3 SHWRS S

CYQB;2008-06-20 21:00;CYQB 202100Z 25007KT 30SM TS VCSH SCT030CB BKN055 BKN110 BKN220 19/13 A2992 RMK CB4SC2AC1CS1 SH SE-SW SLP132

CYQB;2008-06-20 21:04;CYQB 202104Z 28005KT 30SM VCSH SCT030CB BKN055 BKN110 BKN220 20/ RETS RMK CB4SC2AC1CS1 SH SE-SW

CYQB;2008-06-20 22:00;CYQB 202200Z 26007KT 15SM VCSH BKN030TCU BKN150 19/14 A2990 RMK TCU6AC1 SH ALQDS SLP126

CYQB;2008-06-20 22:15;CYQB 202215Z 25006KT 15SM -SHRA FEW030TCU FEW060 SCT085 BKN100 19/ RMK TCU2AC1AC2AC3

CYQB;2008-06-20 22:35;CYQB 202235Z 24008KT 15SM VCSH FEW030TCU FEW050 SCT080 BKN110 BKN180 19/ RMK TCU2AC1AC2AC2CI1 SH S

CYQB;2008-06-20 23:00;CYQB 202300Z 22005KT 15SM VCSH FEW030TCU SCT065 BKN085 BKN120 19/14 A2991 RMK TCU2AC2AC2AC1 SH S SLP129

CYQB;2008-06-20 23:30;CYQB 202330Z 21007KT 15SM -SHRA BKN030TCU BKN048 BKN080 17/ RMK TCU5AC2AC1

CYQB;2008-06-21 00:00;CYQB 210000Z 20004KT 15SM -SHRA BKN030TCU BKN080 BKN093 16/15 A2992 RMK TCU5AC2AC1 VIS LWR NE SLP133

CYQB;2008-06-21 00:55;CYQB 210055Z 00000KT 15SM BKN030TCU BKN050 BKN080 17/ RMK TCU5AC2AC1

CYQB;2008-06-21 01:00;CYQB 210100Z 00000KT 15SM BKN030TCU BKN050 BKN080 17/15 A2994 RMK TCU5AC2AC1 SLP140

CYQB;2008-06-21 02:00;CYQB 210200Z 20002KT 15SM FEW030 BKN080 BKN120 15/15 A2995 RMK CU2AC3AC2 TCU ASOCTD SLP144

CYQB;2008-06-21 03:00;CYQB 210300Z 36002KT 8SM FEW035 OVC100 15/15 A2995 RMK SC1AC6 SLP144

CYQB;2008-06-21 04:00;CYQB 210400Z 36002KT 8SM FEW038 BKN090 15/14 A2996 RMK SC1AC6 SLP145

CYQB;2008-06-21 05:00;CYQB 210500Z 36002KT 7SM FEW007 FEW030 BKN100 15/14 A2996 RMK SF1SC1AC4 SLP147

CYQB;2008-06-21 06:00;CYQB 210600Z 00000KT 8SM FEW007 FEW030 FEW190 14/14 A2996 RMK SF1SC1AC1 SLP146

CYQB;2008-06-21 06:53;CYQB 210653Z 34002KT 4SM R06/3000VP6000FT/U BR OVC006 13/ RMK FG1ST7

CYQB;2008-06-21 07:00;CYQB 210700Z 00000KT 6SM BR BKN005 OVC025 13/13 A2996 RMK SF6SC2 SLP146

CYQB;2008-06-21 08:00;CYQB 210800Z 00000KT 6SM BR BKN005 13/13 A2997 RMK SF6 SLP148

CYQB;2008-06-21 08:34;CYQB 210834Z 00000KT 6SM BR OVC003 13/ RMK ST8

CYQB;2008-06-21 09:00;CYQB 210900Z 00000KT 3SM BR OVC003 13/13 A2997 RMK ST8 SLP150

CYQB;2008-06-21 10:00;CYQB 211000Z 26002KT 2SM BR OVC002 13/12 A2998 RMK ST8 SLP152

CYQB;2008-06-21 10:32;CYQB 211032Z 27005KT 2 1/2SM BR OVC009 13/ RMK SF8

CYQB;2008-06-21 11:00;CYQB 211100Z 27003KT 3SM BR OVC009 13/13 A2999 RMK SF8 SLP156

CYQB;2008-06-21 12:00;CYQB 211200Z 25004KT 5SM BR FEW006 BKN009 14/13 A3000 RMK SF2SF6 CIG RAG SLP159

CYQB;2008-06-21 13:00;CYQB 211300Z 25003KT 5SM BR BKN009 BKN120 16/14 A3000 RMK SC6AC1 SLP161

CYQB;2008-06-21 14:00;CYQB 211400Z 23005KT 6SM BR BKN009 16/14 A3000 RMK SC7 SLP161

CYQB;2008-06-21 15:00;CYQB 211500Z 23006KT 8SM BKN011 17/14 A3000 RMK SC7 SLP161

CYQB;2008-06-21 16:00;CYQB 211600Z 27009KT 15SM FEW015 SCT020TCU BKN240 19/15 A2999 RMK CU1TCU2CI0 CB DIST N HAZY SLP157

CYQB;2008-06-21 17:00;CYQB 211700Z 26012KT 15SM SCT015TCU BKN220 21/16 A2997 RMK TCU3CI1 CB DIST N SLP149

CYQB;2008-06-21 18:00;CYQB 211800Z 26010KT 15SM FEW030TCU BKN220 22/15 A2995 RMK TCU2CI1 SLP143

CYQB;2008-06-21 19:00;CYQB 211900Z 26010KT 15SM FEW040TCU BKN220 22/14 A2994 RMK TCU2CI3 SLP140

CYQB;2008-06-21 20:00;CYQB 212000Z 26010G15KT 15SM FEW040 BKN220 22/15 A2993 RMK CU2CI3 TCU ASOCT SLP135

CYQB;2008-06-21 21:00;CYQB 212100Z 24009KT 15SM SCT040 BKN180 22/15 A2993 RMK CU3CI2 SLP135

CYQB;2008-06-21 22:00;CYQB 212200Z 27007KT 15SM FEW040 FEW090 BKN200 23/15 A2991 RMK CU2AC1CI2 TCU ASOCT SLP130

CYQB;2008-06-21 23:00;CYQB 212300Z 27003KT 15SM VCSH FEW040TCU BKN100 22/15 A2992 RMK TCU2AC3 SH S / OBS TAKEN +10 SLP132

CYQB;2008-06-22 00:00;CYQB 220000Z 00000KT 15SM FEW040TCU FEW110 BKN200 21/16 A2992 RMK TCU2AC1CI1 SLP134

CYQB;2008-06-22 01:00;CYQB 220100Z 00000KT 15SM FEW040 FEW100 FEW120 BKN200 19/15 A2993 RMK SC2AC1AC1CI1 TCU ASOCTD SE SLP136

CYQB;2008-06-22 02:00;CYQB 220200Z 27003KT 15SM FEW040TCU SCT060 BKN100 18/16 A2995 RMK TCU2AC2AC3 SLP144

CYQB;2008-06-22 03:00;CYQB 220300Z 20002KT 15SM FEW040 SCT060 BKN070 18/15 A2996 RMK SC2SC2AC4 SLP146

CYQB;2008-06-22 04:00;CYQB 220400Z 23002KT 15SM FEW050 SCT090 BKN230 16/15 A2995 RMK SC1AC2CI2 SLP144

CYQB;2008-06-22 05:00;CYQB 220500Z 09002KT 15SM FEW090 SCT220 15/14 A2994 RMK AC1CI1 SLP140

CYQB;2008-06-22 06:00;CYQB 220600Z 00000KT 15SM FEW008 FEW210 14/13 A2996 RMK SF1CI1 SLP145

CYQB;2008-06-22 07:00;CYQB 220700Z 05002KT 12SM FEW010 FEW090 FEW210 15/13 A2995 RMK SF1AC1CI1 SLP143

CYQB;2008-06-22 08:00;CYQB 220800Z 01004KT 9SM FEW060 FEW090 FEW210 14/13 A2996 RMK SC1AC1CI1 SLP147

CYQB;2008-06-22 08:29;CYQB 220829Z 02005KT 4SM BR SCT005 SCT090 SCT210 14/ RMK SF2AC1CI0

CYQB;2008-06-22 09:00;CYQB 220900Z 01004KT 4SM BR FEW005 FEW090 SCT210 14/14 A2996 RMK ST1AC1CI0 SLP147

CYQB;2008-06-22 09:19;CYQB 220919Z CCA 36003KT 4SM BR OVC002 14/ RMK ST6

CYQB;2008-06-22 10:00;CYQB 221000Z 04003KT 4SM BR OVC003 15/14 A2996 RMK ST8 SLP147

CYQB;2008-06-22 10:32;CYQB 221032Z 03003KT 4SM BR OVC003 15/ RMK ST8

CYQB;2008-06-22 11:00;CYQB 221100Z 08007KT 6SM BR OVC004 16/15 A2996 RMK ST6 SLP147

CYQB;2008-06-22 11:37;CYQB 221137Z 07006KT 6SM BR BKN007 17/ RMK ST6

CYQB;2008-06-22 12:00;CYQB 221200Z 07008KT 6SM BR BKN007 17/15 A2997 RMK ST6 SLP149

CYQB;2008-06-22 12:50;CYQB 221250Z 08008KT 8SM BKN010 BKN220 18/ RMK SC5CI1

CYQB;2008-06-22 13:00;CYQB 221300Z 07009KT 8SM BKN009 BKN220 18/15 A2996 RMK SC5CI1 SLP147

CYQB;2008-06-22 13:33;CYQB 221333Z 07008KT 8SM SCT010 BKN220 18/ RMK SC4CI2

CYQB;2008-06-22 14:00;CYQB 221400Z 07008KT 8SM FEW010 SCT080 BKN220 19/16 A2996 RMK SC2AC2CI2 SLP147

CYQB;2008-06-22 15:00;CYQB 221500Z 08004KT 10SM SCT041 OVC052 19/15 A2996 RMK SC3SC4 SLP147

CYQB;2008-06-22 15:24;CYQB 221524Z 05003KT 10SM -SHRA FEW015 SCT040 OVC065 18/ RMK CF1SC2SC5

CYQB;2008-06-22 16:00;CYQB 221600Z 05005KT 10SM -SHRA FEW012 BKN065 OVC083 18/16 A2997 RMK CF1SC4AC3 SLP148

CYQB;2008-06-22 17:00;CYQB 221700Z 14006KT 4SM -SHRA BR SCT007 OVC015 17/16 A2997 RMK SF3SC5 SLP149

CYQB;2008-06-22 17:42;CYQB 221742Z 06006KT 3SM BR FEW007 OVC094 18/ RMK SF2AC6

CYQB;2008-06-22 18:00;CYQB 221800Z 09003KT 4SM BR FEW007 OVC067 18/17 A2994 RMK SF2AC6 SLP141

CYQB;2008-06-22 19:00;CYQB 221900Z 08005KT 4SM BR FEW004 SCT007 OVC095 18/17 A2993 RMK SF2SF2AC3 SLP135

CYQB;2008-06-22 20:00;CYQB 222000Z 09007KT 6SM BR FEW009 SCT070 OVC110 20/17 A2992 RMK SF2AC2AC3 SLP131

CYQB;2008-06-22 21:00;CYQB 222100Z 08006KT 10SM FEW009 BKN060 BKN110 OVC230 19/16 A2991 RMK SF1SC4AC2CI2 SLP128

CYQB;2008-06-22 21:45;CYQB 222145Z 09016KT 10SM -SHRA SCT009 BKN020 OVC060 18/ RMK SF3SC3SC2

CYQB;2008-06-22 21:50;CYQB 222150Z 09014KT 8SM -TSRA SCT008 OVC018CB 18/ RMK SF3CB5

CYQB;2008-06-22 22:00;CYQB 222200Z 06008G17KT 1 1/2SM -TSRA BR FEW004 SCT008 OVC014CB 17/16 A2992 RMK SF2SF2CB4 SLP132

CYQB;2008-06-22 22:21;CYQB 222221Z 08002KT 3SM -TSRA BR FEW004 BKN008 OVC026 17/ RMK SF2SF3SC3 CB EMBD

CYQB;2008-06-22 22:31;CYQB 222231Z 05006KT 2SM TSRA BR FEW008 OVC025 17/ RMK SF2SC6 CB EMBD

CYQB;2008-06-22 22:50;CYQB 222250Z CCA 08006KT 8SM FEW006 OVC028 17/ RETSRA RMK SF2SC6

CYQB;2008-06-22 22:53;CYQB 222253Z 08006KT 8SM FEW006 OVC028 17/ RMK SF2SC6

CYQB;2008-06-22 23:00;CYQB 222300Z 09006KT 10SM FEW006 BKN028 OVC084 17/16 A2992 RETSRA RMK SF2SC5AC2 SLP131

CYQB;2008-06-22 23:21;CYQB 222321Z 08006KT 7SM -TSRA FEW005 BKN020 OVC084 17/ RMK SF2SC5AC1 CB EMBD

CYQB;2008-06-22 23:48;CYQB 222348Z 07006KT 8SM FEW005 BKN030 OVC090 17/ RETS RMK SF2SC5AC1

CYQB;2008-06-23 00:00;CYQB 230000Z 08007KT 6SM BR FEW005 BKN029 OVC090 17/16 A2991 RETS RMK SF2SC4AC1 SLP129

CYQB;2008-06-23 00:37;CYQB 230037Z 06005KT 3SM BR BKN003 BKN029 OVC090 16/ RMK SF5SC1AC2

CYQB;2008-06-23 00:49;CYQB 230049Z 05005KT 4SM BR SCT003 SCT029 BKN100 BKN200 16/ RMK SF3SC1AC2CI0

CYQB;2008-06-23 01:00;CYQB 230100Z 05004KT 4SM BR FEW003 SCT029 BKN100 BKN200 16/16 A2991 RMK SF2SC2AC2CI0 SLP129

CYQB;2008-06-23 02:00;CYQB 230200Z 06004KT 4SM BR SCT020 15/15 A2992 RMK SC4 SLP131

CYQB;2008-06-23 03:00;CYQB 230300Z 06005KT 4SM BR FEW003 BKN030 16/15 A2992 RMK SF2SC3 SLP134

CYQB;2008-06-23 04:00;CYQB 230400Z 05003KT 2SM BR BKN002 OVC030 16/15 A2993 RMK SF5SC3 SLP137

CYQB;2008-06-23 05:00;CYQB 230500Z 07005KT 1SM R06/P6000FT/D BR OVC001 16/15 A2992 RMK SF8 SLP134

CYQB;2008-06-23 05:26;CYQB 230526Z 08004KT 1/2SM R06/2000FT/D FG VV001 15/ RMK FG8

CYQB;2008-06-23 06:00;CYQB 230600Z 04004KT 1/8SM R06/1200FT/N FG VV001 15/15 A2993 RMK FG8 SLP136

CYQB;2008-06-23 07:00;CYQB 230700Z 07003KT 1/8SM R06/1400FT/N FG VV001 15/15 A2993 RMK FG8 SLP135

CYQB;2008-06-23 08:00;CYQB 230800Z 07004KT 1/4SM R06/1800FT/N FG VV001 15/15 A2993 RMK FG8 SLP135

CYQB;2008-06-23 09:00;CYQB 230900Z 09002KT 1/8SM R06/1600FT/N FG VV001 15/15 A2994 RMK FG8 SLP139

CYQB;2008-06-23 10:00;CYQB 231000Z 00000KT 1/8SM R06/1200FT/N FG VV001 15/15 A2996 RMK FG8 SLP146

CYQB;2008-06-23 10:50;CYQB 231050Z 04002KT 1/2SM R06/2800FT/N FG VV001 16/ RMK FG8

CYQB;2008-06-23 11:00;CYQB 231100Z 06002KT 5/8SM R06/1800V2600FT/N BR VV002 16/15 A2996 RMK FG8 SLP147

CYQB;2008-06-23 11:27;CYQB 231127Z 11003KT 3/4SM R06/P6000FT/U BR OVC018 16/ RMK FG6SC2

CYQB;2008-06-23 12:00;CYQB 231200Z 04003KT 2 1/2SM BR OVC017 17/17 A2996 RMK FG2SC6 SLP146

CYQB;2008-06-23 12:13;CYQB 231213Z 05003KT 4SM BR SCT004 OVC017 17/ RMK FG1SF2SC5

CYQB;2008-06-23 12:36;CYQB 231236Z 11002KT 5SM BR BKN007 OVC017 18/ RMK ST6SC2

CYQB;2008-06-23 13:00;CYQB 231300Z 13003KT 6SM BR OVC011 18/16 A2996 RMK SC8 VIS SE-SSW 12 SLP147

CYQB;2008-06-23 14:00;CYQB 231400Z 11004KT 7SM OVC012 19/16 A2997 RMK ST8 VIS NW 3 SLP148

CYQB;2008-06-23 14:47;CYQB 231447Z 05005KT 10SM SCT012 BKN024 OVC240 20/ RMK ST3SC1CI1

CYQB;2008-06-23 15:00;CYQB 231500Z 00000KT 10SM SCT012 SCT020 BKN080 OVC240 20/17 A2995 RMK ST3SC1AC2CI0 SLP142

CYQB;2008-06-23 16:00;CYQB 231600Z 31002KT 9SM FEW012 BKN019 BKN040 BKN160 OVC240 22/17 A2994 RMK ST2SC2SC1AC2CI0 TCU ASOCTD SE-S SLP138

CYQB;2008-06-23 17:00;CYQB 231700Z 36003KT 11SM SCT020 SCT160 OVC220 22/17 A2991 RMK CU3AC1CI2 SLP129

CYQB;2008-06-23 18:00;CYQB 231800Z 30003KT 10SM -SHRA SCT015 OVC100 23/17 A2989 RMK CU3AC3 OBS TAKEN +11 SLP123

CYQB;2008-06-23 19:00;CYQB 231900Z 00000KT 10SM -SHRA SCT020TCU BKN043 OVC100 22/17 A2989 RMK TCU3CU3AC2 SLP120

CYQB;2008-06-23 19:31;CYQB 231931Z 24005G17KT 3SM R06/3000FT/N -SHRA BKN010TCU BKN020 OVC040 19/ RMK TCU5CU2SC2

CYQB;2008-06-23 19:41;CYQB 231941Z 19003KT 4SM R06/3500VP6000FT/U -SHRA SCT010 BKN020 OVC044 18/ RMK CF3CU2SC3

CYQB;2008-06-23 20:00;CYQB 232000Z 11006KT 5SM -SHRA FEW010 BKN020 BKN040 BKN065 18/17 A2988 RMK CF1CU4SC2AC1 TCU EMBD SLP119

CYQB;2008-06-23 20:22;CYQB 232022Z 06008KT 10SM FEW020 BKN050 BKN070 19/ RMK CU1CU5AC2 TCU EMBD

CYQB;2008-06-23 21:00;CYQB 232100Z 04007KT 10SM FEW020 BKN070 BKN200 20/17 A2987 RMK CU1AC4CI1 SLP115

CYQB;2008-06-23 21:52;CYQB 232152Z 05003KT 10SM -TSRA SCT030CB BKN042 BKN070 20/ RMK CB3SC2AC2 CB S

CYQB;2008-06-23 22:00;CYQB 232200Z 04003KT 10SM -TSRA SCT030CB BKN042 OVC070 20/16 A2986 RMK CB3SC3AC2 CB S SLP112

CYQB;2008-06-23 23:00;CYQB 232300Z 18006KT 10SM TS SCT020CB BKN050 BKN096 BKN200 20/17 A2986 RMK CB3SC2AC2CI1 CB S SH S-NE SLP112

CYQB;2008-06-23 23:26;CYQB 232326Z CCA 16007KT 10SM SCT050 BKN091 BKN200 19/ RETS RMK SC4AC2CI1 TCU EMBD SH SE-NE

CYQB;2008-06-24 00:00;CYQB 240000Z 16003KT 15SM SCT060 BKN090 18/16 A2986 RETS RMK SC4AC1 TCU ASOCTD SLP112

CYQB;2008-06-24 01:00;CYQB 240100Z 00000KT 15SM BKN050 OVC070 18/16 A2986 RMK SC6AC2 TCU EMBD SLP114

CYQB;2008-06-24 02:00;CYQB 240200Z 32002KT 15SM BKN050 OVC070 17/16 A2987 RMK SC6AC2 SLP117

CYQB;2008-06-24 02:44;CYQB 240244Z 26002KT 10SM -SHRA BKN013 OVC040 17/ RMK SC5SC3

CYQB;2008-06-24 03:00;CYQB 240300Z 25003KT 10SM BKN013 BKN040 17/16 A2987 RMK SC6SC1 SLP115

CYQB;2008-06-24 04:00;CYQB 240400Z 21004KT 8SM SCT008 BKN013 OVC050 16/16 A2988 RMK SF3SC3SC2 SLP118

CYQB;2008-06-24 04:50;CYQB 240450Z 26007KT 6SM BR BKN003 BKN050 17/ RMK SF5SC2

CYQB;2008-06-24 05:00;CYQB 240500Z 26008KT 6SM BR BKN004 BKN050 17/16 A2987 RMK SF6SC2 CIG VRB 3-5 SLP116

CYQB;2008-06-24 05:34;CYQB 240534Z 26010KT 6SM BR FEW004 BKN050 BKN072 16/ RMK SF2SC3AC2

CYQB;2008-06-24 06:00;CYQB 240600Z 25006KT 6SM BR FEW004 FEW050 BKN080 16/16 A2987 RMK SF1SC2AC5 SLP114

CYQB;2008-06-24 07:00;CYQB 240700Z 22007KT 6SM BR FEW040 BKN110 15/15 A2986 RMK SC1AC5 SLP112

CYQB;2008-06-24 08:00;CYQB 240800Z 25008KT 10SM FEW007 SCT091 15/14 A2986 RMK SF1AC4 SLP111

CYQB;2008-06-24 08:20;CYQB 240820Z 24008KT 10SM BKN007 BKN091 15/ RMK SF5AC1

CYQB;2008-06-24 09:00;CYQB 240900Z 26009KT 3SM BR BKN004 BKN110 15/14 A2987 RMK SF5AC2 SLP116

CYQB;2008-06-24 10:00;CYQB 241000Z 23011KT 2SM BR FEW004 SCT100 15/15 A2989 RMK SF2AC2 SLP122

CYQB;2008-06-24 11:00;CYQB 241100Z 24011KT 8SM FEW004 FEW100 16/14 A2991 RMK SF1AC2 SLP128

CYQB;2008-06-24 12:00;CYQB 241200Z 25010KT 15SM FEW004 FEW100 17/15 A2991 RMK SF2AC1 SLP129

CYQB;2008-06-24 13:00;CYQB 241300Z CCA 23008KT 15SM FEW014 FEW100 18/15 A2991 RMK SC2AC1 SLP130

CYQB;2008-06-24 14:00;CYQB 241400Z 24010G16KT 15SM BKN023 BKN100 19/15 A2991 RMK SC6AC1 CU ASOCTD SLP128

CYQB;2008-06-24 15:00;CYQB 241500Z 23010KT 15SM BKN028 BKN100 20/16 A2990 RMK SC5AC1 CU ASOCTD SLP125

CYQB;2008-06-24 16:00;CYQB 241600Z 27017KT 20SM BKN039 BKN100 21/15 A2989 RMK CU5AC1 SLP123

CYQB;2008-06-24 17:00;CYQB 241700Z 25013KT 20SM VCSH BKN040 BKN080 21/15 A2989 RMK CU5AC1 TCU ASOCTD SLP124

CYQB;2008-06-24 18:00;CYQB 241800Z 29009KT 20SM VCSH SCT040 BKN080 22/15 A2989 RMK CU3AC2 TCU ASOCTD SLP120

CYQB;2008-06-24 19:00;CYQB 241900Z 29009KT 20SM BKN040 BKN250 23/14 A2988 RMK CU6CI1 DIST SHRA S TCU ASOCTD SLP118

CYQB;2008-06-24 20:00;CYQB 242000Z 30015KT 30SM SCT058 25/13 A2988 RMK CU4 SLP118

CYQB;2008-06-24 21:00;CYQB 242100Z 30014KT 30SM SCT060 24/12 A2989 RMK CU3 TCU ASOCT SLP122

CYQB;2008-06-24 22:00;CYQB 242200Z 29014KT 30SM FEW060 23/12 A2990 RMK CU1 DIST CB TOPS SW-W SLP126

CYQB;2008-06-24 23:00;CYQB 242300Z 30012G18KT 30SM FEW060 22/12 A2993 RMK CU1 DIST CB TOPS S SLP135

CYQB;2008-06-25 00:00;CYQB 250000Z 29005KT 30SM FEW060 21/10 A2995 RMK CU1 DIST CB TOPS S SLP144

CYQB;2008-06-25 01:00;CYQB 250100Z 24007KT 20SM FEW050 17/10 A2996 RMK CU1 SLP146

CYQB;2008-06-25 02:00;CYQB 250200Z 26009KT 15SM SKC 17/10 A2997 RMK SLP151

CYQB;2008-06-25 03:00;CYQB 250300Z 27009KT 15SM SKC 15/10 A2998 RMK SLP154

CYQB;2008-06-25 04:00;CYQB 250400Z 28005KT 15SM SKC 12/10 A2999 RMK SLP157

CYQB;2008-06-25 05:00;CYQB 250500Z 25007KT 15SM SKC 14/09 A3000 RMK SLP160

CYQB;2008-06-25 06:00;CYQB 250600Z 25007KT 15SM SKC 14/09 A3000 RMK SLP160

CYQB;2008-06-25 07:00;CYQB 250700Z 25007KT 15SM SKC 13/09 A3002 RMK SLP166

CYQB;2008-06-25 08:00;CYQB 250800Z 27003KT 15SM FEW200 12/09 A3002 RMK CI1 SLP167

CYQB;2008-06-25 09:00;CYQB 250900Z 00000KT 30SM SCT200 11/09 A3004 RMK CI2 SLP172

CYQB;2008-06-25 10:00;CYQB 251000Z 33002KT 30SM SCT200 11/09 A3006 RMK CI2 SLP178

CYQB;2008-06-25 11:00;CYQB 251100Z 25008KT 25SM BKN190 14/11 A3006 RMK CI3 SLP180

CYQB;2008-06-25 12:00;CYQB 251200Z 26007KT 25SM BKN190 16/12 A3006 RMK CI3 SLP179

CYQB;2008-06-25 13:00;CYQB 251300Z 23011KT 25SM BKN180 18/13 A3005 RMK CI3 SLP176

CYQB;2008-06-25 14:00;CYQB 251400Z 22007KT 25SM FEW040 BKN170 20/14 A3004 RMK CU1CI4 SLP173

CYQB;2008-06-25 15:00;CYQB 251500Z 23016KT 25SM FEW040 FEW120 BKN200 22/13 A3003 RMK CU1AC1CI2 SLP169

CYQB;2008-06-25 16:00;CYQB 251600Z 23013G18KT 25SM FEW040 FEW120 BKN200 23/14 A3000 RMK CU1AC1CS5 SLP161

CYQB;2008-06-25 17:00;CYQB 251700Z 24017G22KT 25SM FEW040 BKN200 24/12 A2998 RMK CU1CS4 SLP154

CYQB;2008-06-25 18:00;CYQB 251800Z 23016G25KT 30SM FEW048 BKN220 25/12 A2996 RMK CU2CI1 TCU N SLP146

CYQB;2008-06-25 19:00;CYQB 251900Z 24016G24KT 30SM FEW050 BKN220 25/11 A2994 RMK CU2CI1 TCU N SLP138

CYQB;2008-06-25 20:00;CYQB 252000Z 23018G25KT 30SM FEW050 SCT130 25/12 A2992 RMK CU2AC2 SLP132

CYQB;2008-06-25 21:00;CYQB 252100Z 25012G22KT 30SM FEW050 SCT130 25/13 A2990 RMK CU2AC2 SLP125

CYQB;2008-06-25 22:00;CYQB 252200Z 24015KT 30SM FEW055 FEW090 SCT130 25/13 A2988 RMK CU1AC2AC2 SLP119

CYQB;2008-06-25 23:00;CYQB 252300Z 25016KT 30SM VCSH FEW055 BKN095 BKN130 23/13 A2987 RMK CU1AC4AC1 SLP117

CYQB;2008-06-25 23:13;CYQB 252313Z 25015G20KT 25SM -SHRA BKN056 BKN095 23/ RMK SC5AC2

CYQB;2008-06-26 00:00;CYQB 260000Z 25004KT 25SM FEW055 SCT095 BKN140 BKN230 20/14 A2988 RMK SC2AC2AC1CI1 SLP118

CYQB;2008-06-26 00:23;CYQB 260023Z 23003KT 25SM FEW055 BKN085 BKN230 20/ RMK SC2AC5CI0

CYQB;2008-06-26 00:44;CYQB 260044Z 25007KT 20SM -SHRA FEW070 BKN098 OVC230 20/ RMK AC2AC5CI1

CYQB;2008-06-26 01:00;CYQB 260100Z 20003KT 15SM -SHRA FEW070 BKN100 OVC230 19/15 A2987 RMK AC2AC6CI1 SLP115

CYQB;2008-06-26 01:30;CYQB 260130Z 00000KT 15SM BKN070 OVC110 19/ RMK AC6AC2

CYQB;2008-06-26 01:46;CYQB 260146Z 35005KT 15SM -SHRA FEW015 OVC062 19/ RMK SF1SC8

CYQB;2008-06-26 02:00;CYQB 260200Z CCA 34008KT 7SM SHRA FEW020 OVC053 18/15 A2990 RMK SF1SC8 CVCTV CLDS EMBD SLP126

CYQB;2008-06-26 02:04;CYQB 260204Z 32004KT 4SM +TSRA BR FEW018 OVC042CB 18/ RMK SF2CB6

CYQB;2008-06-26 02:44;CYQB 260244Z 35002KT 12SM -SHRA FEW018 SCT025 OVC037TCU 17/ RMK SF2SC2TCU4 RETS RERA

CYQB;2008-06-26 03:00;CYQB 260300Z 23005KT 15SM -SHRA FEW020 BKN040TCU OVC080 17/16 A2987 RMK SC2TCU3AC3 RETS RERA SLP115

CYQB;2008-06-26 03:49;CYQB 260349Z 25010KT 15SM FEW040 SCT060 OVC140 17/ RMK SC2SC2AC4 RETS RERA

CYQB;2008-06-26 04:00;CYQB 260400Z 25008KT 15SM FEW060 BKN140 17/16 A2985 RMK SC2AC4 SLP107

CYQB;2008-06-26 05:00;CYQB 260500Z 25005KT 15SM BKN120 16/15 A2983 RMK AC6 SLP101

CYQB;2008-06-26 06:00;CYQB 260600Z 26006KT 15SM SCT110 16/15 A2982 RMK AC4 SLP097

CYQB;2008-06-26 07:00;CYQB 260700Z 25002KT 15SM BKN100 16/15 A2981 RMK AC6 SLP096

CYQB;2008-06-26 08:00;CYQB 260800Z 00000KT 15SM SCT110 SCT250 15/15 A2981 RMK AC3CI0 SLP094

CYQB;2008-06-26 09:00;CYQB 260900Z 07002KT 30SM BKN110 BKN250 16/15 A2982 RMK AC5CI0 SLP097

CYQB;2008-06-26 10:00;CYQB 261000Z 00000KT 30SM BKN100 BKN230 16/15 A2983 RMK AC4CI2 ACC ASOCTD SLP100

CYQB;2008-06-26 11:00;CYQB 261100Z 21003KT 15SM BKN026 BKN073 BKN130 17/16 A2983 RMK SC5AC2AC1 SLP100

CYQB;2008-06-26 12:00;CYQB 261200Z 21004KT 15SM BKN030 BKN087 OVC130 17/16 A2982 RMK SC5AC2AC2 ACC ASOCTD SLP098

CYQB;2008-06-26 12:40;CYQB 261240Z 24005KT 15SM BKN010 BKN100 OVC140 17/ RMK SC5AC2AC1

CYQB;2008-06-26 12:52;CYQB 261252Z 23006KT 15SM -RA SCT010 SCT025 BKN110 OVC140 18/ RMK SF3SC1AC2AC2

CYQB;2008-06-26 13:00;CYQB 261300Z CCA 23007KT 15SM -RA SCT010 SCT025 BKN110 OVC140 17/16 A2982 RMK SF3SC1AC2AC2 SLP098

CYQB;2008-06-26 14:00;CYQB 261400Z 24008KT 4SM -RA BR BKN008 OVC030 18/17 A2982 RMK SF6SC2 SLP097

CYQB;2008-06-26 15:00;CYQB 261500Z 26005KT 4SM -RA BR FEW008 BKN015 OVC025 18/17 A2981 RMK SF2SC3SC2 SLP096

CYQB;2008-06-26 16:00;CYQB 261600Z 27006KT 4SM -RA BR BKN008 BKN030 BKN050 OVC080 18/17 A2981 RMK SF5SC2SC1AC1 SLP095

CYQB;2008-06-26 17:00;CYQB 261700Z 25006KT 4SM -RA BR SCT010 BKN030 OVC050 19/17 A2980 RMK SF3SC3SC2 SLP090

CYQB;2008-06-26 18:00;CYQB 261800Z 20004KT 5SM -RA BR BKN010 BKN085 OVC100 18/17 A2978 RMK SF5AC2AC1 SLP086

CYQB;2008-06-26 19:00;CYQB 261900Z 23004KT 6SM -RA BR SCT010 BKN062 OVC090 18/17 A2977 RMK SF3SC2AC2 SLP082

CYQB;2008-06-26 20:00;CYQB 262000Z 00000KT 6SM -DZ BR FEW010 BKN060 19/18 A2975 RMK SF2SC5 SLP076

CYQB;2008-06-26 21:00;CYQB 262100Z 25002KT 15SM FEW010 BKN061 BKN120 20/16 A2974 RMK SF2SC4AC1 SLP071

CYQB;2008-06-26 22:00;CYQB 262200Z 19003KT 15SM FEW010 BKN051 OVC120 19/17 A2973 RMK SF2SC3AC3 SLP068

CYQB;2008-06-26 22:26;CYQB 262226Z 22005KT 4SM -SHRA BR FEW010 FEW020 OVC065 19/ RMK CF1SC1SC6 VIS N-E 30

CYQB;2008-06-26 23:00;CYQB 262300Z 19004KT 15SM FEW005 FEW020 OVC050 18/17 A2973 RMK CF1CU1SC7 DIST SH E AND W SLP068

CYQB;2008-06-26 23:21;CYQB 262321Z 28004KT 14SM -SHRA FEW005 FEW020 BKN044 OVC080 18/ RMK CF1CU1SC6AC2

CYQB;2008-06-26 23:48;CYQB 262348Z 22002KT 15SM FEW004 FEW025 OVC047 18/ RMK CF1CU1SC7 DIST SH N-E

CYQB;2008-06-27 00:00;CYQB 270000Z 18003KT 15SM FEW004 FEW025 OVC044 18/17 A2973 RMK CF1CU1SC8 DIST SH E SLP069

CYQB;2008-06-27 01:00;CYQB 270100Z 00000KT 15SM FEW005 BKN042 OVC048 18/17 A2974 RMK SF1SC6SC1 SLP071

CYQB;2008-06-27 01:52;CYQB 270152Z 36005KT 15SM -SHRA FEW005 OVC040 18/ RMK SF1SC7

CYQB;2008-06-27 02:00;CYQB 270200Z 01005KT 15SM -SHRA FEW005 OVC040 18/17 A2974 RMK SF1SC7 SLP072

CYQB;2008-06-27 02:34;CYQB 270234Z 01003KT 15SM FEW010 OVC039 18/ RMK SF2SC6

CYQB;2008-06-27 03:00;CYQB 270300Z 01003KT 15SM FEW010 OVC045 18/17 A2974 RMK SF2SC6 SLP072

CYQB;2008-06-27 04:00;CYQB 270400Z 00000KT 15SM FEW010 OVC036 18/17 A2975 RMK SF2SC6 SLP075

CYQB;2008-06-27 04:24;CYQB 270424Z 07008KT 15SM FEW006 OVC036 18/ RMK SF2SC6

CYQB;2008-06-27 05:00;CYQB 270500Z 09006KT 15SM FEW006 BKN012 OVC035 16/15 A2976 RMK SF2SC4SC2 SLP079

CYQB;2008-06-27 06:00;CYQB 270600Z 08007KT 15SM FEW008 SCT012 OVC041 16/15 A2976 RMK SF2SC2SC4 SLP079

CYQB;2008-06-27 07:00;CYQB 270700Z 09004KT 15SM BKN008 OVC040 16/15 A2977 RMK SF6SC2 SLP082

CYQB;2008-06-27 08:00;CYQB 270800Z 13002KT 15SM BKN007 OVC028 16/15 A2979 RMK SF6SC2 SLP088

CYQB;2008-06-27 09:00;CYQB 270900Z 07003KT 8SM BKN009 OVC028 16/14 A2980 RMK SF6SC2 SLP090

CYQB;2008-06-27 10:00;CYQB 271000Z 08003KT 8SM BKN007 BKN028 16/14 A2981 RMK SF6SC2 SLP093

CYQB;2008-06-27 10:50;CYQB 271050Z 06005KT 8SM BKN006 OVC028 16/ RMK SF6SC2

CYQB;2008-06-27 11:00;CYQB 271100Z 06006KT 8SM BKN005 OVC028 16/15 A2982 RMK SF7SC1 SLP099

CYQB;2008-06-27 11:30;CYQB 271130Z 06007KT 6SM BR BKN007 OVC030 16/ RMK SF7SC1

CYQB;2008-06-27 12:00;CYQB 271200Z 06010KT 6SM BR BKN007 OVC030 16/15 A2984 RMK SF7SC1 SLP105

CYQB;2008-06-27 12:27;CYQB 271227Z 06010KT 8SM BKN010 OVC030 16/ RMK SF6SC2 VIS LWR N

CYQB;2008-06-27 13:00;CYQB 271300Z 07007KT 8SM BKN011 OVC030 17/14 A2984 RMK SF6SC2 VIS LWR N SLP105

CYQB;2008-06-27 14:00;CYQB 271400Z 09007KT 8SM OVC012 17/15 A2985 RMK SF8 SLP108

CYQB;2008-06-27 15:00;CYQB 271500Z 10007KT 12SM OVC013 17/15 A2986 RMK SF8 SLP113

CYQB;2008-06-27 16:00;CYQB 271600Z 14007KT 12SM BKN013 OVC017 18/15 A2988 RMK SF6SC2 SLP118

CYQB;2008-06-27 17:00;CYQB 271700Z 08009KT 15SM BKN018 BKN230 19/15 A2987 RMK SC6CI1 SLP117

CYQB;2008-06-27 18:00;CYQB 271800Z 06007KT 15SM FEW020 SCT200 19/16 A2985 RMK CU2CI2 SLP110

CYQB;2008-06-27 19:00;CYQB 271900Z 08006KT 30SM FEW020 FEW220 20/16 A2985 RMK CU2CI1 SLP108

CYQB;2008-06-27 20:00;CYQB 272000Z 06011KT 30SM FEW020 SCT220 20/16 A2984 RMK CU2CI1 SLP105

CYQB;2008-06-27 21:00;CYQB 272100Z 09010KT 30SM FEW027 FEW250 BKN300 20/15 A2984 RMK CU2CI0CI1 TCU TOPS NE ASOCTD SLP107

CYQB;2008-06-27 22:00;CYQB 272200Z 09008KT 30SM FEW025 BKN250 18/14 A2985 RMK CU1CI2 SLP109

CYQB;2008-06-27 23:00;CYQB 272300Z 10010KT 30SM FEW012 FEW030TCU BKN250 17/14 A2988 RMK SC1TCU1CI1 TCU E SLP118

CYQB;2008-06-28 00:00;CYQB 280000Z 09013KT 30SM FEW010 FEW030TCU SCT120 BKN240 15/13 A2988 RMK SC2TCU1AC1CI1 TCU E SLP119

CYQB;2008-06-28 00:21;CYQB 280021Z 09011G16KT 15SM BKN008 OVC100 15/ RMK SF7AC1

CYQB;2008-06-28 01:00;CYQB 280100Z 07010KT 12SM OVC007 15/13 A2989 RMK SF8 SLP123

CYQB;2008-06-28 02:00;CYQB 280200Z 09007KT 10SM OVC006 14/13 A2990 RMK SF8 SLP127

CYQB;2008-06-28 03:00;CYQB 280300Z 09008KT 15SM OVC007 14/13 A2991 RMK ST8 SLP129

CYQB;2008-06-28 04:00;CYQB 280400Z 08008KT 15SM OVC007 14/12 A2991 RMK ST8 SLP129

CYQB;2008-06-28 05:00;CYQB 280500Z 07008KT 15SM OVC005 14/13 A2991 RMK ST8 SLP128

CYQB;2008-06-28 06:00;CYQB 280600Z 09008KT 15SM OVC004 14/13 A2992 RMK ST8 SLP132

CYQB;2008-06-28 07:00;CYQB 280700Z 08011G17KT 15SM OVC005 14/13 A2992 RMK ST8 SLP133

CYQB;2008-06-28 08:00;CYQB 280800Z 07008KT 15SM BKN007 OVC018 14/13 A2992 RMK SF6SC2 SLP131

CYQB;2008-06-28 09:00;CYQB 280900Z 07009KT 10SM BKN007 OVC016 14/13 A2992 RMK SF5SC3 SLP134

CYQB;2008-06-28 10:00;CYQB 281000Z 08010KT 10SM BKN006 OVC014 15/13 A2993 RMK SF6SC2 SLP136

CYQB;2008-06-28 10:49;CYQB 281049Z 07010KT 10SM BKN005 OVC009 14/ RMK SF6ST2

CYQB;2008-06-28 11:00;CYQB 281100Z 07011KT 4SM -DZ BR OVC005 15/14 A2993 RMK SF8 SLP135

CYQB;2008-06-28 11:31;CYQB 281131Z 07012KT 6SM BR BKN007 OVC013 15/ RMK SF6SC2

CYQB;2008-06-28 12:00;CYQB 281200Z 08014KT 6SM BR BKN006 OVC013 15/14 A2993 RMK SF7SC1 SLP136

CYQB;2008-06-28 13:00;CYQB 281300Z 08012KT 6SM BR BKN008 OVC015 16/15 A2992 RMK SF7SC1 SLP132

CYQB;2008-06-28 14:00;CYQB 281400Z 09012KT 10SM OVC010 16/14 A2993 RMK SF8 SLP137

CYQB;2008-06-28 15:00;CYQB 281500Z 07013KT 15SM SCT010 OVC025 17/15 A2993 RMK CF3SC5 SLP136

CYQB;2008-06-28 16:00;CYQB 281600Z 07014KT 15SM FEW012 OVC025 18/15 A2993 RMK CF2SC6 SLP136

CYQB;2008-06-28 17:00;CYQB 281700Z 07014G21KT 15SM FEW014 OVC029 18/15 A2992 RMK CF2SC6 SLP131

CYQB;2008-06-28 18:00;CYQB 281800Z 07017KT 15SM FEW014 OVC029 18/15 A2991 RMK CF2SC6 SLP128

CYQB;2008-06-28 19:00;CYQB 281900Z 07017G24KT 15SM FEW014 FEW020 OVC031 18/15 A2990 RMK CF1SC2SC6 SLP126

CYQB;2008-06-28 19:17;CYQB 281917Z 08018KT 15SM -SHRA FEW014 FEW020 OVC027 18/ RMK CF1SC2SC6

CYQB;2008-06-28 19:44;CYQB 281944Z 08013G22KT 4SM -RA BR FEW009 SCT014 OVC021 17/ RMK SF1SC3SC5

CYQB;2008-06-28 20:00;CYQB 282000Z 08011G16KT 4SM -RA BR FEW009 SCT014 OVC020 16/15 A2990 RMK SF1SC2SC5 SLP126

CYQB;2008-06-28 21:00;CYQB 282100Z 07016G24KT 5SM -RA BR FEW009 OVC021 16/15 A2989 RMK SF2SC6 CLDS TPG HILL W SLP123

CYQB;2008-06-28 21:44;CYQB 282144Z 08012G22KT 5SM -RA BR BKN008 OVC018 16/ RMK SF4SC4

CYQB;2008-06-28 22:00;CYQB 282200Z 08017G22KT 5SM -RA BR BKN008 OVC016 16/15 A2989 RMK SF4SC4 SLP123

CYQB;2008-06-28 23:00;CYQB 282300Z 08012KT 6SM -RA BR SCT008 OVC018 16/15 A2988 RMK SF2SC6 SLP120

CYQB;2008-06-29 00:00;CYQB 290000Z 08013G19KT 5SM -RA BR FEW008 BKN014 OVC020 16/15 A2989 RMK SF1SF4SC4 SLP123

CYQB;2008-06-29 01:00;CYQB 290100Z 09012G17KT 4SM -RA BR BKN007 OVC014 16/15 A2989 RMK SF6SF2 SLP124

CYQB;2008-06-29 02:00;CYQB 290200Z 09009G17KT 3SM -RA BR BKN006 OVC010 15/15 A2988 RMK SF6SF2 SLP120

CYQB;2008-06-29 03:00;CYQB 290300Z 07018KT 6SM -RA BR BKN007 OVC015 15/14 A2985 RMK SF5SC3 SLP110

CYQB;2008-06-29 04:00;CYQB 290400Z 07014G22KT 3SM -RA BR FEW003 BKN006 OVC020 15/14 A2985 RMK SF2SF5SC2 SLP109

CYQB;2008-06-29 05:00;CYQB 290500Z 08013G20KT 5SM -RA BR FEW003 BKN006 OVC020 15/14 A2983 RERA RMK SF2SF5SC2 SLP102

CYQB;2008-06-29 06:00;CYQB 290600Z 12008KT 10SM -RA FEW003 OVC006 15/14 A2982 RMK SF2ST6 CIG RAG SLP100

CYQB;2008-06-29 06:33;CYQB 290633Z 08009KT 10SM -DZ FEW003 BKN006 OVC018 15/ RMK SF1SF6SC2

CYQB;2008-06-29 07:00;CYQB 290700Z 07011G18KT 5SM -SHRA BR BKN007 OVC018 15/14 A2981 RMK SF6SC2 CIG RAG SLP096

CYQB;2008-06-29 08:00;CYQB 290800Z 07010G18KT 4SM -SHRA BR BKN006 OVC020 15/14 A2979 RMK SF6SC2 CIG RAG SLP089

CYQB;2008-06-29 09:00;CYQB 290900Z 07014G21KT 5SM -SHRA BR BKN006 OVC020 15/14 A2978 RMK SF6SC2 CIG RAG SLP087

CYQB;2008-06-29 09:44;CYQB 290944Z 08010KT 10SM -DZ BKN006 OVC015 15/ RMK ST7SC1

CYQB;2008-06-29 10:00;CYQB 291000Z 08009G15KT 5SM -DZ BR BKN007 OVC015 15/14 A2980 RMK ST7SC1 SLP091

CYQB;2008-06-29 10:13;CYQB 291013Z 07012KT 5SM -SHRA BR BKN007 OVC015 15/ RMK ST7SC1

CYQB;2008-06-29 11:00;CYQB 291100Z 07010G17KT 5SM -SHRA BR FEW004 BKN007 OVC016 15/14 A2979 RMK SF2SF6SC1 VIS LWR NE-E SLP088

CYQB;2008-06-29 12:00;CYQB 291200Z 07012G18KT 5SM -SHRA BR OVC005 15/14 A2978 RMK SF8 VIS LWR NE-E SLP087

CYQB;2008-06-29 13:00;CYQB 291300Z 08014KT 2SM SHRA BR SCT005 OVC020 15/14 A2980 RMK SF4SC4 SLP092

CYQB;2008-06-29 13:14;CYQB 291314Z 08015KT 2SM SHRA BR BKN004 OVC025 15/ RMK SF6SC2

CYQB;2008-06-29 13:39;CYQB 291339Z 07013G20KT 4SM BR BKN007 OVC019 15/ RMK SF6SC2 VIS LWR NE-E

CYQB;2008-06-29 14:00;CYQB 291400Z 07012G22KT 8SM BKN007 OVC020 15/14 A2978 RMK SF6SC2 SLP086

CYQB;2008-06-29 15:00;CYQB 291500Z 08010G15KT 4SM -DZ BR OVC008 15/14 A2979 RMK FG2SF6 VIS LWR NE-E SLP089

CYQB;2008-06-29 16:00;CYQB 291600Z 07013KT 3SM -DZ BR OVC006 15/15 A2979 RMK FG2SF6 VIS LWR NE-E SLP090

CYQB;2008-06-29 16:37;CYQB 291637Z 08012KT 2 1/2SM -DZ BR BKN003 OVC008 15/ RMK FG2SF6ST1 VIS LWR NE-E

CYQB;2008-06-29 17:00;CYQB 291700Z 07012G18KT 4SM -DZ BR BKN005 OVC008 15/15 A2979 RMK FG1SF6ST1 VIS LWR NE-E SLP090

CYQB;2008-06-29 17:38;CYQB 291738Z 08007KT 4SM BR BKN005 OVC008 16/ RMK SF6ST2 VIS LWR NE-E

CYQB;2008-06-29 18:00;CYQB 291800Z 07010KT 10SM BKN005 OVC009 16/15 A2978 RMK SF6ST2 SLP087

CYQB;2008-06-29 18:31;CYQB 291831Z 07009KT 10SM BKN006 OVC010 16/ RMK SF6SC2

CYQB;2008-06-29 19:00;CYQB 291900Z 08007KT 15SM BKN007 OVC010 17/15 A2978 RMK SF6SC2 SLP084

CYQB;2008-06-29 20:00;CYQB 292000Z 09009KT 15SM BKN009 OVC013 17/16 A2975 RMK SF6SC2 SLP077

CYQB;2008-06-29 21:00;CYQB 292100Z 09012KT 15SM BKN006 OVC010 17/15 A2973 RMK SF6SC2 SUN DIMLY VISBL SLP070

CYQB;2008-06-29 22:00;CYQB 292200Z 09006KT 15SM OVC006 16/15 A2974 RMK ST8 SLP072

CYQB;2008-06-29 23:00;CYQB 292300Z 08013G18KT 15SM OVC005 16/15 A2973 RMK ST8 SLP068

CYQB;2008-06-30 00:00;CYQB 300000Z 06009KT 8SM OVC004 15/14 A2974 RMK ST8 SLP071

CYQB;2008-06-30 01:00;CYQB 300100Z 08010G18KT 8SM OVC004 15/14 A2973 RMK ST8 VIS NW 3 SLP068

CYQB;2008-06-30 02:00;CYQB 300200Z 08015KT 10SM OVC005 15/14 A2969 RMK ST8 VIS NW 3 SLP056

CYQB;2008-06-30 02:36;CYQB 300236Z 07010KT 8SM OVC003 15/ RMK ST8 VIS NW 3

CYQB;2008-06-30 03:00;CYQB 300300Z 07009KT 8SM OVC003 16/15 A2967 RMK ST8 SLP049

CYQB;2008-06-30 04:00;CYQB 300400Z 07007KT 10SM OVC003 16/15 A2967 RMK ST8 SLP047

CYQB;2008-06-30 04:42;CYQB 300442Z 08010KT 1 1/2SM SHRA BR OVC004 16/ RMK FG2SF6

CYQB;2008-06-30 05:00;CYQB 300500Z 25002G19KT 2SM -TSRA BR BKN004 OVC039 16/16 A2968 RERA RMK FG2SF6SC1 CB EMBD SLP051

CYQB;2008-06-30 05:42;CYQB 300542Z 06009KT 8SM -SHRA SCT004 BKN035 OVC060 16/ RETSRA RMK SF4SC3SC1

CYQB;2008-06-30 06:00;CYQB 300600Z 08007KT 6SM -SHRA BR SCT004 BKN018 OVC045 16/15 A2963 RETS RMK SF3SC2SC2 SLP034

CYQB;2008-06-30 07:00;CYQB 300700Z 10007KT 6SM -SHRA BR BKN004 OVC011 16/15 A2965 RMK SF5SC3 SLP040

CYQB;2008-06-30 08:00;CYQB 300800Z 10007KT 10SM -SHRA OVC004 15/15 A2964 RMK SF8 VIS NE 11/2 SLP036

CYQB;2008-06-30 09:00;CYQB 300900Z 14003KT 10SM -SHRA OVC004 15/15 A2965 RMK SF8 SLP040

CYQB;2008-06-30 10:00;CYQB 301000Z 10004KT 10SM -SHRA BKN004 OVC009 15/15 A2964 RMK SF5SF3 SLP039

CYQB;2008-06-30 10:49;CYQB 301049Z 10002KT 8SM BKN004 OVC008 15/ RMK SF6ST2

CYQB;2008-06-30 11:00;CYQB 301100Z 08002KT 5SM BR OVC004 15/15 A2966 RMK SF8 SLP044

CYQB;2008-06-30 11:40;CYQB 301140Z 08005KT 3SM BR BKN004 OVC010 15/ RMK FG1SF5ST2

CYQB;2008-06-30 12:00;CYQB 301200Z 05003KT 3SM BR BKN003 OVC010 15/15 A2965 RMK FG1SF6ST2 VIS LWR NE-E SLP042

CYQB;2008-06-30 12:42;CYQB 301242Z 00000KT 4SM BR SCT003 OVC007 16/ RMK FG1SF3ST4 VIS LWR NE-E

CYQB;2008-06-30 13:00;CYQB 301300Z 00000KT 5SM BR SCT004 OVC006 16/16 A2966 RMK FG1SF2ST5 SLP044

CYQB;2008-06-30 13:41;CYQB 301341Z 00000KT 5SM BR FEW004 BKN009 BKN015 18/ RMK FG1SF2SF4SC1 VIS LWR NE-E

CYQB;2008-06-30 14:00;CYQB 301400Z 21007KT 6SM BR FEW008 BKN012 19/18 A2965 RMK FG1SF2CU4 VIS 3 NE-E SLP041

CYQB;2008-06-30 14:27;CYQB 301427Z 23011G17KT 8SM FEW016 BKN020 21/ RMK SF2CU5 SHWRS NE HAZY

CYQB;2008-06-30 15:00;CYQB 301500Z 25007KT 8SM BKN020 BKN070 20/17 A2965 RMK CU6AC1 HAZY SLP042

CYQB;2008-06-30 16:00;CYQB 301600Z 24015G20KT 15SM BKN030 BKN070 22/16 A2966 RMK CU5AC1 HAZY SLP044

CYQB;2008-06-30 17:00;CYQB 301700Z 23017G22KT 15SM FEW032 23/16 A2966 RMK CU2 SLP043

CYQB;2008-06-30 18:00;CYQB 301800Z 26014G21KT 30SM FEW036 24/15 A2966 RMK CU2 SLP043

CYQB;2008-06-30 19:00;CYQB 301900Z 23014G20KT 30SM FEW042 24/15 A2965 RMK CU2 SLP041

CYQB;2008-06-30 20:00;CYQB 302000Z 24018KT 30SM SCT043 24/15 A2965 RMK CU3 SLP040

CYQB;2008-06-30 21:00;CYQB 302100Z 24011G16KT 30SM SCT043 24/15 A2964 RMK CU3 SLP038

CYQB;2008-06-30 22:00;CYQB 302200Z 25012KT 30SM FEW043 24/15 A2964 RMK CU2 SLP039

CYQB;2008-06-30 23:00;CYQB 302300Z 25010G15KT 30SM FEW040 FEW100 24/15 A2965 RMK CU1AC1 SLP041

CYQB;2008-07-01 01:00;CYQB 010100Z 27005KT 30SM FEW100 20/15 A2967 RMK AC1 SLP049

CYQB;2008-07-01 02:00;CYQB 010200Z 23011KT 30SM SCT100 20/15 A2969 RMK AC2 SLP055

CYQB;2008-07-01 03:00;CYQB 010300Z 25007KT 15SM SCT100 20/16 A2970 RMK AC2 SLP058

CYQB;2008-07-01 04:00;CYQB 010400Z 26004KT 15SM BKN100 19/16 A2970 RMK AC6 SLP058

CYQB;2008-07-01 05:00;CYQB 010500Z 26009KT 15SM BKN090 18/16 A2971 RMK AC7 SLP062

CYQB;2008-07-01 06:00;CYQB 010600Z 26007KT 12SM -SHRA OVC100 18/16 A2972 RMK AC8 SLP065

CYQB;2008-07-01 07:00;CYQB 010700Z CCA 24008KT 15SM -RA BKN110 17/16 A2973 RMK AC6 SLP067

CYQB;2008-07-01 07:39;CYQB 010739Z 23007KT 15SM BKN100 17/ RMK AC6

CYQB;2008-07-01 08:00;CYQB 010800Z 22007KT 15SM FEW050 BKN100 17/16 A2973 RMK SC2AC5 SLP069

CYQB;2008-07-01 09:00;CYQB 010900Z 26007KT 15SM FEW060 BKN100 16/15 A2975 RMK SC2AC4 SLP075

CYQB;2008-07-01 10:00;CYQB 011000Z 23008KT 25SM FEW040 BKN060 BKN100 16/15 A2977 RMK SC2SC2AC2 SLP082

CYQB;2008-07-01 11:00;CYQB 011100Z 26005KT 15SM FEW100 18/15 A2980 RMK AC2 SLP092

CYQB;2008-07-01 12:00;CYQB 011200Z 24004KT 15SM FEW015 FEW100 19/14 A2982 RMK CF1AC1 SLP099

CYQB;2008-07-01 13:00;CYQB 011300Z 23008KT 15SM FEW025 FEW100 FEW220 20/15 A2984 RMK CU1AC1CI1 SLP105

CYQB;2008-07-01 14:00;CYQB 011400Z 22005KT 15SM FEW035 FEW230 21/15 A2985 RMK CU1CI1 SLP107

CYQB;2008-07-01 15:00;CYQB 011500Z 26011KT 15SM FEW045 FEW240 22/13 A2985 RMK CU2CI1 SLP107

CYQB;2008-07-01 16:00;CYQB 011600Z 25013G19KT 15SM FEW050 23/11 A2985 RMK CU1 SLP107

CYQB;2008-07-01 17:00;CYQB 011700Z 24011G17KT 15SM FEW050 24/11 A2985 RMK CU1 SLP108

CYQB;2008-07-01 18:00;CYQB 011800Z 22011G19KT 15SM FEW050 23/10 A2984 RMK CU1 SLP106

CYQB;2008-07-01 19:00;CYQB 011900Z 22014G19KT 30SM FEW055 24/12 A2985 RMK CU1 SLP108

CYQB;2008-07-01 20:00;CYQB 012000Z 22011G17KT 30SM FEW055 24/11 A2985 RMK CU1 SLP108

CYQB;2008-07-01 21:00;CYQB 012100Z 25013KT 30SM FEW055 25/11 A2985 RMK CU1 SLP109

CYQB;2008-07-01 22:00;CYQB 012200Z 23010G15KT 30SM FEW055 FEW240 24/12 A2986 RMK SC1CI1 SLP111

CYQB;2008-07-01 23:00;CYQB 012300Z 25007KT 30SM FEW050 23/12 A2986 RMK SC1 SLP110

CYQB;2008-07-02 00:00;CYQB 020000Z 23004KT 30SM FEW120 FEW240 22/13 A2986 RMK AC1CI1 SLP112

CYQB;2008-07-02 01:00;CYQB 020100Z 25002KT 30SM FEW100 FEW200 FEW240 20/14 A2987 RMK AC1CI1CI1 SLP115

CYQB;2008-07-02 02:00;CYQB 020200Z 26002KT 15SM FEW100 FEW200 18/14 A2988 RMK AC1CI1 SLP119

CYQB;2008-07-02 03:00;CYQB 020300Z 27002KT 15SM FEW100 FEW200 17/14 A2989 RMK AC1CI1 SLP123

CYQB;2008-07-02 04:00;CYQB 020400Z 25004KT 15SM FEW100 FEW200 16/13 A2990 RMK AC1CI1 SLP126

CYQB;2008-07-02 05:00;CYQB 020500Z 24003KT 15SM FEW100 FEW200 16/13 A2989 RMK AC1CI1 SLP123

CYQB;2008-07-02 06:00;CYQB 020600Z 00000KT 15SM FEW100 16/13 A2990 RMK AC1 SLP124

CYQB;2008-07-02 07:00;CYQB 020700Z 27002KT 15SM SKC 14/13 A2990 RMK SLP124

CYQB;2008-07-02 08:00;CYQB 020800Z 00000KT 15SM FEW100 14/12 A2990 RMK AC1 SLP124

CYQB;2008-07-02 09:00;CYQB 020900Z 05002KT 15SM FEW100 13/12 A2991 RMK AC1 SLP128

CYQB;2008-07-02 10:00;CYQB 021000Z 00000KT 20SM FEW100 FEW230 15/13 A2992 RMK AC1CI1 SLP133

CYQB;2008-07-02 11:00;CYQB 021100Z 00000KT 20SM FEW100 FEW230 16/13 A2992 RMK AC1CI1 SLP132

CYQB;2008-07-02 12:00;CYQB 021200Z 26004KT 20SM FEW100 18/14 A2992 RMK AC1 SLP130

CYQB;2008-07-02 13:00;CYQB 021300Z 26007KT 20SM FEW030 FEW100 20/14 A2991 RMK CU1AC1 SLP129

CYQB;2008-07-02 14:00;CYQB 021400Z 21008KT 20SM FEW030 FEW230 21/15 A2991 RMK CU1CI1 SLP129

CYQB;2008-07-02 15:00;CYQB 021500Z 23008KT 20SM FEW030 FEW230 23/15 A2992 RMK CU1CI1 SLP130

CYQB;2008-07-02 16:00;CYQB 021600Z 25012KT 20SM FEW040 FEW230 24/14 A2991 RMK CU1CI1 SLP127

CYQB;2008-07-02 17:00;CYQB 021700Z 25014KT 30SM FEW044 FEW230 25/14 A2989 RMK CU2CI1 SLP122

CYQB;2008-07-02 18:00;CYQB 021800Z 26015KT 30SM FEW050 BKN230 26/14 A2987 RMK CU2CI1 SLP116

CYQB;2008-07-02 19:00;CYQB 021900Z 26016G21KT 30SM FEW050 SCT230 26/13 A2986 RMK CU2CI1 SLP111

CYQB;2008-07-02 20:00;CYQB 022000Z 26014KT 30SM FEW050 SCT230 26/13 A2983 RMK CU1CI1 SLP103

CYQB;2008-07-02 21:00;CYQB 022100Z 23012KT 30SM FEW050 SCT230 26/13 A2982 RMK CU1CI1 SLP098

CYQB;2008-07-02 22:00;CYQB 022200Z 26009KT 30SM FEW040 SCT230 25/14 A2981 RMK CU1CI0 SLP094

CYQB;2008-07-02 23:00;CYQB 022300Z 24008KT 30SM FEW040 FEW200 24/13 A2980 RMK CU1CI0 SLP092

CYQB;2008-07-03 00:00;CYQB 030000Z 21005KT 30SM FEW040 SCT200 23/14 A2980 RMK CU1CI0 SLP092

CYQB;2008-07-03 01:00;CYQB 030100Z 27002KT 30SM FEW040 SCT200 22/14 A2980 RMK CU1CI0 SLP092

CYQB;2008-07-03 02:00;CYQB 030200Z 00000KT 15SM FEW120 FEW240 20/15 A2979 RMK AC1CI0 SLP089

CYQB;2008-07-03 03:00;CYQB 030300Z 29002KT 15SM FEW060 20/14 A2978 RMK SC1 SLP085

CYQB;2008-07-03 04:00;CYQB 030400Z 24003KT 15SM FEW060 FEW120 20/13 A2977 RMK SC1AC1 SLP082

CYQB;2008-07-03 05:00;CYQB 030500Z 30003KT 15SM FEW060 FEW120 18/13 A2976 RMK SC1AC1 SLP077

CYQB;2008-07-03 06:00;CYQB 030600Z 28002KT 15SM FEW060 18/13 A2974 RMK SC1 SLP071

CYQB;2008-07-03 07:00;CYQB 030700Z 28004KT 15SM FEW060 BKN180 18/13 A2973 RMK SC1AC4 SLP067

CYQB;2008-07-03 08:00;CYQB 030800Z 27004KT 15SM FEW070 BKN180 18/14 A2971 RMK SC1AC6 SLP061

CYQB;2008-07-03 09:00;CYQB 030900Z 26004KT 30SM BKN070 OVC150 19/14 A2970 RMK SC6AC2 SLP057

CYQB;2008-07-03 10:00;CYQB 031000Z 28003KT 30SM BKN060 OVC140 20/14 A2969 RMK SC5AC3 SLP053

CYQB;2008-07-03 11:00;CYQB 031100Z 26005KT 30SM SCT060 OVC150 22/13 A2968 RMK SC3AC5 SLP051

CYQB;2008-07-03 11:52;CYQB 031152Z 22013KT 30SM -SHRA BKN045 OVC150 22/ RMK SC6AC2

CYQB;2008-07-03 12:00;CYQB 031200Z 23014KT 30SM -SHRA BKN043 OVC150 21/14 A2969 RMK SC6AC2 SLP054

CYQB;2008-07-03 12:14;CYQB 031214Z 24019G30KT 3SM -SHRA OVC030 19/ RMK SC8

CYQB;2008-07-03 12:15;CYQB 031215Z CCA 24019G30KT 3SM -SHRA BR OVC030 19/ RMK SC8

CYQB;2008-07-03 13:00;CYQB 031300Z CCA 25010KT 5SM -SHRA BR OVC035 18/15 A2970 RERA RMK SC8 SLP058

CYQB;2008-07-03 14:00;CYQB 031400Z 26006KT 4SM -RA BR FEW013 OVC038 18/17 A2970 RMK SF2SC6 SLP057

CYQB;2008-07-03 15:00;CYQB 031500Z 21009KT 2SM RA BR BKN014 OVC035 18/17 A2971 RMK SF6SC2 SLP061

CYQB;2008-07-03 15:32;CYQB 031532Z 22008KT 2SM -RA BR BKN008 OVC012 18/ RERA RMK SF6SC2

CYQB;2008-07-03 16:00;CYQB 031600Z 23007KT 1 3/4SM RA BR BKN006 OVC012 18/17 A2970 RMK SF7SC1 SLP059

CYQB;2008-07-03 17:00;CYQB 031700Z 00000KT 2SM -RA BR BKN006 BKN012 OVC060 16/15 A2973 RERA RMK SF5SC2SC2 SLP067

CYQB;2008-07-03 18:00;CYQB 031800Z 17005KT 5SM -RA BR FEW010 SCT020 OVC051 16/15 A2972 RMK SF2SC1SC5 SLP063

CYQB;2008-07-03 19:00;CYQB 031900Z 23005KT 8SM -RA FEW008 BKN050 OVC090 16/16 A2975 RMK SF2SC4AC2 SLP075

CYQB;2008-07-03 19:14;CYQB 031914Z 24007KT 10SM FEW008 BKN037 OVC050 17/ RMK SF2SC4SC2

CYQB;2008-07-03 20:00;CYQB 032000Z 25003KT 15SM FEW009 SCT035 BKN047 OVC080 18/16 A2977 RMK SF2SC2SC3AC2 SLP080

CYQB;2008-07-03 21:00;CYQB 032100Z 31013KT 15SM FEW010 SCT025 SCT035 BKN060 18/14 A2978 RMK SF2SC2SC1SC2 SLP086

CYQB;2008-07-03 22:00;CYQB 032200Z 29006KT 20SM FEW013 BKN042 BKN060 18/14 A2981 RMK SF1SC5SC2 SLP094

CYQB;2008-07-03 23:00;CYQB 032300Z 30007KT 20SM FEW020 SCT035 BKN058 19/13 A2984 RMK CU1SC2SC2 SLP104

CYQB;2008-07-04 00:00;CYQB 040000Z 29007KT 30SM FEW025 SCT050 BKN220 17/11 A2987 RMK CF1SC4CI1 SLP114

CYQB;2008-07-04 01:00;CYQB 040100Z 27007KT 30SM FEW025 FEW220 15/11 A2989 RMK SC1CI0 SLP121

CYQB;2008-07-04 02:00;CYQB 040200Z 27006KT 15SM FEW025 FEW220 13/11 A2992 RMK SC1CI0 SLP130

CYQB;2008-07-04 03:00;CYQB 040300Z 25006KT 15SM FEW025 FEW220 13/11 A2994 RMK SC1CI1 SLP141

CYQB;2008-07-04 04:00;CYQB 040400Z 24006KT 15SM FEW025 12/10 A2998 RMK SC1 SLP153

CYQB;2008-07-04 05:00;CYQB 040500Z 02002KT 15SM FEW200 12/10 A2998 RMK CI1 SLP154

CYQB;2008-07-04 06:00;CYQB 040600Z 02002KT 15SM FEW200 11/10 A2999 RMK CI1 SLP158

CYQB;2008-07-04 07:00;CYQB 040700Z 36002KT 15SM SKC 10/09 A3000 RMK SLP161

CYQB;2008-07-04 08:00;CYQB 040800Z 03004KT 15SM SKC 10/09 A3000 RMK SLP161

CYQB;2008-07-04 09:00;CYQB 040900Z 02003KT 15SM FEW025 10/09 A3001 RMK CF1 SLP163

CYQB;2008-07-04 10:00;CYQB 041000Z 00000KT 30SM FEW012 10/09 A3003 RMK SF1 SLP171

CYQB;2008-07-04 10:44;CYQB 041044Z 00000KT 30SM SCT004 11/ RMK SF3

CYQB;2008-07-04 11:00;CYQB 041100Z 00000KT 30SM FEW004 11/10 A3004 RMK SF2 SLP174

CYQB;2008-07-04 12:00;CYQB 041200Z 24005KT 30SM FEW004 14/12 A3006 RMK SF2 SLP178

CYQB;2008-07-04 13:00;CYQB 041300Z 23006KT 30SM FEW020 FEW180 FEW220 16/13 A3006 RMK SF1AC1CI1 SLP179

CYQB;2008-07-04 14:00;CYQB 041400Z 22009KT 30SM FEW025 FEW180 FEW240 18/14 A3004 RMK CU1AC1CI1 SLP174

CYQB;2008-07-04 15:00;CYQB 041500Z 23019KT 30SM FEW030 FEW240 20/13 A3003 RMK CU1CI1 SLP170

CYQB;2008-07-04 16:00;CYQB 041600Z 23013KT 30SM SCT040 SCT240 21/12 A3002 RMK CU3CI1 SLP167

CYQB;2008-07-04 17:00;CYQB 041700Z 23016KT 30SM FEW055 SCT240 22/10 A3000 RMK CU2CI1 SLP160

CYQB;2008-07-04 18:00;CYQB 041800Z 22017KT 30SM FEW060 FEW240 22/09 A2998 RMK CU1CI1 SLP152

CYQB;2008-07-04 19:00;CYQB 041900Z 23014G19KT 30SM FEW060 BKN240 22/10 A2996 RMK CU1CI1 SLP147

CYQB;2008-07-04 20:00;CYQB 042000Z 23019G26KT 30SM FEW062 BKN240 23/10 A2995 RMK CU2CI0 SLP142

CYQB;2008-07-04 20:52;CYQB 042052Z 33017G27KT 5SM -SHRA FEW010 FEW025 BKN060 20/ RMK SF1CU1SC7 VIS SE-W 30 TCU EMBD

CYQB;2008-07-04 21:00;CYQB 042100Z 33015G27KT 15SM -SHRA FEW010 FEW030 BKN055 BKN240 18/14 A2997 RMK SF1CU1SC7CI1 VIS N-E 4 AND ESE-SW 30 PRESRR SLP149

CYQB;2008-07-04 21:28;CYQB 042128Z 30007KT 30SM VCSH FEW030 SCT087TCU BKN240 19/ RMK CU1TCU4CI1 RAINBOW SE

CYQB;2008-07-04 22:00;CYQB 042200Z 36004KT 30SM FEW025 FEW070TCU BKN240 20/15 A2996 RMK CU1TCU1CI0 SLP146

CYQB;2008-07-04 23:00;CYQB 042300Z 02002KT 30SM FEW030 FEW070TCU BKN240 21/13 A2996 RMK CU1TCU1CI1 DIST SH S SLP146

CYQB;2008-07-05 00:00;CYQB 050000Z 36008KT 8SM -SHRA FEW021 BKN045TCU BKN240 19/14 A2999 RMK CU2TCU5CI0 SLP156

CYQB;2008-07-05 00:20;CYQB 050020Z 15002KT 30SM FEW021 FEW045TCU SCT240 18/ RMK SC1TCU2CI0

CYQB;2008-07-05 01:00;CYQB 050100Z 00000KT 30SM FEW030 BKN100 BKN240 17/15 A2998 RMK SC1AC4CI0 DIST SH N SLP154

CYQB;2008-07-05 01:29;CYQB 050129Z 01005KT 15SM -SHRA FEW033 BKN070 BKN240 17/ RMK SC2AC4CI0 VIS N-SE 5

CYQB;2008-07-05 01:49;CYQB 050149Z 04003KT 15SM FEW030 BKN070 BKN240 17/ RMK SC1AC4CI0

CYQB;2008-07-05 02:00;CYQB 050200Z 34010KT 15SM BKN050 BKN240 17/14 A3002 RMK SC5CI0 SLP166

CYQB;2008-07-05 03:00;CYQB 050300Z 01004KT 15SM FEW040 16/15 A3001 RMK SC1 SLP164

CYQB;2008-07-05 04:00;CYQB 050400Z 01002KT 15SM SKC 15/14 A3003 RMK SLP168

CYQB;2008-07-05 05:00;CYQB 050500Z 01002KT 15SM SKC 15/14 A3003 RMK SLP168

CYQB;2008-07-05 06:00;CYQB 050600Z 01002KT 15SM FEW085 14/13 A3003 RMK AC2 SLP169

CYQB;2008-07-05 07:00;CYQB 050700Z 01004KT 15SM SKC 13/12 A3003 RMK SLP168

CYQB;2008-07-05 08:00;CYQB 050800Z 01005KT 15SM FEW230 13/12 A3002 RMK CI1 SLP167

CYQB;2008-07-05 09:00;CYQB 050900Z 01004KT 15SM FEW230 12/11 A3003 RMK CI0 SLP170

CYQB;2008-07-05 10:00;CYQB 051000Z 36002KT 30SM FEW010 FEW140 13/11 A3004 RMK CF1AC1 SLP175

CYQB;2008-07-05 11:00;CYQB 051100Z 01002KT 30SM FEW010 FEW250 14/12 A3005 RMK SF1CI0 SLP176

CYQB;2008-07-05 12:00;CYQB 051200Z 34002KT 30SM FEW010 SCT250 16/13 A3005 RMK CF1CI0 SLP176

CYQB;2008-07-05 13:00;CYQB 051300Z 23004KT 30SM FEW012 SCT250 18/14 A3005 RMK CF1CI2 SLP175

CYQB;2008-07-05 14:00;CYQB 051400Z 23007KT 30SM FEW015 BKN250 20/15 A3003 RMK CF1CI2 SLP170

CYQB;2008-07-05 15:00;CYQB 051500Z 26008KT 30SM FEW020 FEW150 BKN250 22/15 A3001 RMK CU1AC1CI1 SLP164

CYQB;2008-07-05 16:00;CYQB 051600Z 26012KT 30SM FEW025 FEW150 BKN250 23/16 A3000 RMK CU1AC1CI1 SLP160

CYQB;2008-07-05 17:00;CYQB 051700Z 26016G21KT 30SM FEW035 BKN250 25/15 A3000 RMK CU2CI1 SLP158

CYQB;2008-07-05 18:00;CYQB 051800Z 25011G17KT 30SM FEW040 BKN250 25/15 A2998 RMK CU2CI2 SLP154

CYQB;2008-07-05 19:00;CYQB 051900Z 25012G18KT 30SM FEW060 BKN250 26/15 A2997 RMK CU2CI2 SLP151

CYQB;2008-07-05 20:00;CYQB 052000Z 26012G17KT 30SM FEW060 BKN250 26/13 A2997 RMK CU2CI2 SLP151

CYQB;2008-07-05 21:00;CYQB 052100Z 25012KT 30SM FEW062 BKN250 26/12 A2996 RMK CU2CI0 SLP145

CYQB;2008-07-05 22:00;CYQB 052200Z 25012G17KT 30SM FEW062 BKN250 25/12 A2995 RMK CU2CI0 SLP144

CYQB;2008-07-05 23:00;CYQB 052300Z 25010KT 30SM BKN250 24/13 A2995 RMK CI1 SLP142

CYQB;2008-07-06 00:00;CYQB 060000Z 25006KT 30SM BKN220 22/13 A2995 RMK CI2 SLP143

CYQB;2008-07-06 01:00;CYQB 060100Z 26003KT 15SM BKN200 20/14 A2995 RMK CI2 SLP143

CYQB;2008-07-06 02:00;CYQB 060200Z 25005KT 15SM SCT200 19/13 A2996 RMK CI2 SLP147

CYQB;2008-07-06 03:00;CYQB 060300Z 23005KT 15SM SKC 19/12 A2997 RMK SLP150

CYQB;2008-07-06 04:00;CYQB 060400Z 23008KT 15SM FEW230 19/12 A2997 RMK CI1 SLP150

CYQB;2008-07-06 05:00;CYQB 060500Z 23007KT 15SM FEW230 18/12 A2998 RMK CI2 SLP153

CYQB;2008-07-06 06:00;CYQB 060600Z 30003KT 15SM FEW230 16/13 A2999 RMK CI0 SLP157

CYQB;2008-07-06 07:00;CYQB 060700Z 00000KT 15SM SKC 16/13 A2999 RMK SLP157

CYQB;2008-07-06 08:00;CYQB 060800Z 03004KT 15SM FEW230 15/13 A3000 RMK CI0 SLP160

CYQB;2008-07-06 09:00;CYQB 060900Z 00000KT 15SM BKN230 13/12 A3001 RMK CI2 SLP162

CYQB;2008-07-06 10:00;CYQB 061000Z 00000KT 30SM SCT220 15/13 A3002 RMK CI2 SLP165

CYQB;2008-07-06 11:00;CYQB 061100Z 25006KT 30SM FEW220 17/15 A3003 RMK CI1 SLP170

CYQB;2008-07-06 12:00;CYQB 061200Z 24010KT 30SM FEW220 18/14 A3003 RMK CI1 SLP171

CYQB;2008-07-06 13:00;CYQB 061300Z 25009KT 30SM FEW240 20/15 A3005 RMK CI0 SLP175

CYQB;2008-07-06 14:00;CYQB 061400Z 22009KT 30SM FEW240 21/16 A3004 RMK CI0 SLP173

CYQB;2008-07-06 15:00;CYQB 061500Z 23010KT 30SM FEW040 BKN220 22/16 A3004 RMK CU1CI0 SLP172

CYQB;2008-07-06 16:00;CYQB 061600Z 25012KT 30SM FEW040 BKN220 24/17 A3002 RMK SC1CI0 SLP167

CYQB;2008-07-06 17:00;CYQB 061700Z 24011G18KT 30SM FEW040 BKN220 25/16 A3001 RMK SC1CI2 SLP163

CYQB;2008-07-06 18:00;CYQB 061800Z 26014KT 30SM FEW050 BKN240 26/15 A3000 RMK CU1CI2 SLP157

CYQB;2008-07-06 19:00;CYQB 061900Z 26012G18KT 30SM FEW050 BKN240 26/14 A2999 RMK CU1CI2 SLP156

CYQB;2008-07-06 20:00;CYQB 062000Z 26011KT 30SM FEW050 BKN240 27/15 A2998 RMK CU1CI2 SLP153

CYQB;2008-07-06 21:00;CYQB 062100Z 26011KT 30SM BKN240 26/15 A2997 RMK CI2 SLP150

CYQB;2008-07-06 22:00;CYQB 062200Z 26009KT 30SM FEW150 SCT240 26/15 A2997 RMK AC2CI0 SLP149

CYQB;2008-07-06 23:00;CYQB 062300Z 25007KT 30SM SCT240 25/16 A2996 RMK CI2 SLP146

CYQB;2008-07-07 00:00;CYQB 070000Z 26005KT 30SM SCT240 23/16 A2996 RMK CI2 SLP146

CYQB;2008-07-07 01:00;CYQB 070100Z 23005KT 20SM FEW240 22/14 A2995 RMK CI2 SLP142

CYQB;2008-07-07 02:00;CYQB 070200Z 29002KT 15SM SKC 19/15 A2995 RMK SLP142

CYQB;2008-07-07 03:00;CYQB 070300Z 23005KT 15SM SKC 18/14 A2995 RMK SLP141

CYQB;2008-07-07 04:00;CYQB 070400Z 23006KT 15SM SKC 18/13 A2995 RMK SLP143

CYQB;2008-07-07 05:00;CYQB 070500Z 23002KT 15SM SKC 18/13 A2997 RMK SLP148

CYQB;2008-07-07 06:00;CYQB 070600Z 24006KT 15SM SKC 17/13 A2997 RMK SLP149

CYQB;2008-07-07 07:00;CYQB 070700Z 23007KT 15SM SKC 17/13 A2997 RMK SLP149

CYQB;2008-07-07 08:00;CYQB 070800Z 24004KT 15SM FEW240 16/14 A2997 RMK CI1 SLP149

CYQB;2008-07-07 09:00;CYQB 070900Z 26003KT 20SM FEW100 FEW240 15/13 A2998 RMK AC1CI1 SLP153

CYQB;2008-07-07 10:00;CYQB 071000Z 25005KT 15SM FEW240 17/14 A2999 RMK CI1 SLP156

CYQB;2008-07-07 11:00;CYQB 071100Z 25005KT 30SM FEW240 18/15 A2999 RMK CI1 SLP156

CYQB;2008-07-07 12:00;CYQB 071200Z 26008KT 30SM FEW240 19/15 A2998 RMK CI1 SLP153

CYQB;2008-07-07 13:00;CYQB 071300Z 24011KT 30SM SCT240 21/16 A2998 RMK CI2 SLP152

CYQB;2008-07-07 14:00;CYQB 071400Z 24012KT 30SM SCT240 23/16 A2997 RMK CI2 OBS TAKEN +12 SLP147

CYQB;2008-07-07 15:00;CYQB 071500Z 24012KT 30SM BKN250 25/17 A2995 RMK CI2 SLP143

CYQB;2008-07-07 16:00;CYQB 071600Z 23011KT 30SM FEW036 SCT240 26/18 A2994 RMK CU1CI2 SLP139

CYQB;2008-07-07 17:00;CYQB 071700Z 24012G19KT 30SM FEW036 SCT240 27/16 A2993 RMK CU1CI1 SLP135

CYQB;2008-07-07 18:00;CYQB 071800Z 24015G22KT 30SM FEW036 FEW240 28/16 A2991 RMK CU1CI1 SLP129

CYQB;2008-07-07 19:00;CYQB 071900Z 26017KT 30SM FEW060 FEW240 29/17 A2991 RMK CU1CI1 SLP128

CYQB;2008-07-07 20:00;CYQB 072000Z 26016G25KT 30SM FEW050 FEW140 SCT250 29/17 A2990 RMK CU1AC1CI1 ACC ASOCTD SLP126

CYQB;2008-07-07 21:00;CYQB 072100Z 25016KT 30SM FEW050 FEW140 SCT250 28/17 A2989 RMK CU1AC1CI1 SLP123

CYQB;2008-07-07 22:00;CYQB 072200Z 25010G17KT 14SM FEW050 FEW140 SCT250 28/18 A2988 RMK CU1AC1CI1 SLP118

CYQB;2008-07-07 23:00;CYQB 072300Z 26006KT 14SM FEW050 BKN100 BKN250 27/18 A2988 RMK CU1AC6CI0 SLP119

CYQB;2008-07-08 00:00;CYQB 080000Z 27007KT 12SM -SHRA BKN059TCU BKN120 OVC250 26/19 A2989 RMK TCU5AC2CI1 SLP120

CYQB;2008-07-08 00:39;CYQB 080039Z 27003KT 15SM BKN060 BKN120 25/ RMK SC5AC2 TCU ASOCTD

CYQB;2008-07-08 01:00;CYQB 080100Z 26006KT 15SM BKN065 BKN120 OVC250 26/18 A2989 RMK SC5AC2CI1 TCU ASOCTD SLP120

CYQB;2008-07-08 02:00;CYQB 080200Z 25005KT 15SM FEW250 24/18 A2989 RMK CI2 SLP121

CYQB;2008-07-08 03:00;CYQB 080300Z 28003KT 15SM SKC 22/18 A2989 RMK SLP120

CYQB;2008-07-08 04:00;CYQB 080400Z 00000KT 15SM SKC 22/18 A2989 RMK SLP121

CYQB;2008-07-08 05:00;CYQB 080500Z 04002KT 15SM SKC 20/18 A2989 RMK SLP120

CYQB;2008-07-08 06:00;CYQB 080600Z 00000KT 15SM SCT150 20/17 A2988 RMK AC3 SLP118

CYQB;2008-07-08 07:00;CYQB 080700Z 33002KT 15SM OVC150 20/18 A2988 RMK AC8 SLP119

CYQB;2008-07-08 08:00;CYQB 080800Z 28002KT 8SM BKN130 BKN240 19/17 A2988 RMK AC5CI1 SLP119

CYQB;2008-07-08 09:00;CYQB 080900Z 22003KT 8SM SCT130 SCT240 19/17 A2989 RMK AC3CI1 SLP122

CYQB;2008-07-08 10:00;CYQB 081000Z 26004KT 7SM FEW130 BKN300 19/17 A2990 RMK AC2CI2 SLP124

CYQB;2008-07-08 11:00;CYQB 081100Z 23004KT 7SM FEW130 BKN160 20/17 A2990 RMK AC2AC6 SLP124

CYQB;2008-07-08 12:00;CYQB 081200Z 25005KT 8SM SCT140 OVC170 20/17 A2988 RMK AC3AC5 SLP119

CYQB;2008-07-08 13:00;CYQB 081300Z 25007KT 8SM SCT120 OVC150 22/17 A2988 RMK AC3AC4 SLP118

CYQB;2008-07-08 14:00;CYQB 081400Z 27005KT 8SM BKN058 OVC120 22/17 A2987 RMK SC6AC2 SLP114

CYQB;2008-07-08 15:00;CYQB 081500Z 27005KT 8SM BKN061 BKN120 24/17 A2985 RMK SC6AC1 SLP107

CYQB;2008-07-08 16:00;CYQB 081600Z 29002KT 10SM FEW060 SCT180 BKN300 27/19 A2983 RMK SC1AC3CI2 SLP102

CYQB;2008-07-08 17:00;CYQB 081700Z 24007KT 10SM FEW038 SCT180 BKN300 28/19 A2980 RMK CU1AC3CI2 SLP091

CYQB;2008-07-08 18:00;CYQB 081800Z 22011G17KT 12SM FEW060 FEW150 BKN300 29/18 A2978 RMK CU2AC1CI1 SLP083

CYQB;2008-07-08 19:00;CYQB 081900Z 23014KT 10SM FEW060 FEW150 BKN300 30/18 A2975 RMK CU2AC1CI1 SLP073

CYQB;2008-07-08 20:00;CYQB 082000Z 24013KT 10SM SCT060 SCT150 BKN300 30/20 A2973 RMK CU3AC1CI3 SLP068

CYQB;2008-07-08 21:00;CYQB 082100Z 24011KT 10SM SCT060 SCT150 BKN300 29/20 A2971 RMK CU3AC1CI2 SLP061

CYQB;2008-07-08 22:00;CYQB 082200Z 23009KT 15SM SCT060 SCT150 BKN300 29/20 A2970 RMK CU3AC1CI2 SLP055

CYQB;2008-07-08 23:00;CYQB 082300Z 22007KT 15SM SCT060 SCT150 BKN300 28/20 A2969 RMK CU3AC1CI3 HAZY SLP053

CYQB;2008-07-09 00:00;CYQB 090000Z 25004KT 15SM SCT170 OVC240 27/20 A2968 RMK AC3CI5 HAZY SLP049

CYQB;2008-07-09 01:00;CYQB 090100Z 23004KT 15SM BKN170 OVC240 26/20 A2968 RMK AC5CI2 SLP049

CYQB;2008-07-09 02:00;CYQB 090200Z 25004KT 15SM BKN150 OVC210 25/20 A2969 RMK AC6CI2 SLP052

CYQB;2008-07-09 03:00;CYQB 090300Z 24005KT 15SM BKN093 OVC130 25/20 A2969 RMK AC6AC2 SLP052

CYQB;2008-07-09 03:50;CYQB 090350Z 28011KT 8SM -SHRA BKN031 OVC060 25/ RMK SC6SC2

CYQB;2008-07-09 04:00;CYQB 090400Z 28012KT 8SM -SHRA BKN031 OVC072 24/20 A2969 RMK SC6AC2 SLP053

CYQB;2008-07-09 05:00;CYQB 090500Z 28008KT 8SM -SHRA BKN037 OVC070 23/20 A2968 RMK SC6AC2 SLP050

CYQB;2008-07-09 05:30;CYQB 090530Z 23006KT 6SM BR BKN037 OVC160 22/ RMK SC7AC1

CYQB;2008-07-09 06:00;CYQB 090600Z 23006KT 5SM BR FEW035 OVC070 22/21 A2967 RMK SC2AC6 SLP047

CYQB;2008-07-09 07:00;CYQB 090700Z 26007KT 6SM BR BKN046 OVC100 22/20 A2968 RMK SC6AC2 SLP051

CYQB;2008-07-09 08:00;CYQB 090800Z 26005KT 6SM BR OVC045 22/20 A2968 RMK SC8 SLP051

CYQB;2008-07-09 09:00;CYQB 090900Z 22004KT 4SM BR OVC014 22/20 A2969 RMK SC8 SLP053

CYQB;2008-07-09 10:00;CYQB 091000Z 23004KT 3SM BR OVC012 22/21 A2969 RMK SC8 SLP053

CYQB;2008-07-09 11:00;CYQB 091100Z 25004KT 3SM -SHRA BR OVC012 23/21 A2969 RMK SC8 SLP052

CYQB;2008-07-09 12:00;CYQB 091200Z 22003KT 3SM BR FEW010 OVC013 23/21 A2968 RMK SF1SC7 SLP050

CYQB;2008-07-09 13:00;CYQB 091300Z 21004KT 3SM -SHRA BR OVC010 23/21 A2967 RMK SC8 SLP047

CYQB;2008-07-09 13:27;CYQB 091327Z 23005KT 2SM TSRA BR FEW008 OVC011 22/ RMK SF2SC6 CB EMBD

CYQB;2008-07-09 13:47;CYQB 091347Z 21006KT 1 1/2SM TSRA BR BKN007 OVC020 22/ RMK SF6SC2 CB EMBD

CYQB;2008-07-09 14:00;CYQB 091400Z 23006KT 1 1/2SM TSRA BR BKN006 OVC015 22/21 A2967 RMK SF6SC2 CB EMBD SLP046

CYQB;2008-07-09 14:15;CYQB 091415Z 22007KT 2 1/2SM -SHRA BR SCT005 BKN014 OVC028 22/ RETSRA RMK SF4SC2SC2

CYQB;2008-07-09 15:00;CYQB 091500Z 23010KT 6SM -SHRA BR FEW008 SCT014 OVC034 23/21 A2967 RETSRA RMK SF2SC2SC4 SLP048

CYQB;2008-07-09 16:00;CYQB 091600Z 22005KT 4SM SHRA BR FEW008 BKN016 OVC070 22/20 A2967 RMK SF2SC5AC2 TCU EMBD SLP045

CYQB;2008-07-09 16:20;CYQB 091620Z 24004KT 2 1/2SM TSRA BR FEW008 SCT016 OVC037 22/ RMK SF2SC2SC5 CB EMBD VIS N 6

CYQB;2008-07-09 17:00;CYQB 091700Z 23008KT 2SM TSRA BR FEW004 BKN009 OVC040 22/21 A2966 RMK SF1SF4SC3 CB EMBD SLP042

CYQB;2008-07-09 17:22;CYQB 091722Z 22006KT 3SM -SHRA BR BKN006 OVC030 22/ RETSRA RMK SF6SC2

CYQB;2008-07-09 18:00;CYQB 091800Z 21004KT 3SM -SHRA BR BKN004 OVC010 22/21 A2965 RETSRA RMK SF7SC1 SLP039

CYQB;2008-07-09 19:00;CYQB 091900Z 18004KT 3SM BR BKN004 BKN008 OVC012 23/22 A2965 RMK SF6SF2SC1 OCNL -SHRA SLP041

CYQB;2008-07-09 19:22;CYQB 091922Z 20006KT 2SM -SHRA BR OVC003 23/ RMK SF8 VIS SW 4 RAG CIG

CYQB;2008-07-09 20:00;CYQB 092000Z 21008KT 6SM -SHRA BR FEW003 FEW008 BKN015 OVC060 22/21 A2964 RMK SF2SF1SC4SC2 VIS NW 3 SLP037

CYQB;2008-07-09 20:44;CYQB 092044Z 22007KT 8SM FEW003 FEW010 BKN020 OVC060 22/ RMK SF2SF1SC5SC1 VIS LWR NW

CYQB;2008-07-09 21:00;CYQB 092100Z 21004KT 8SM FEW003 FEW010 OVC020 22/21 A2961 RMK SF1SF2SC6 SLP027

CYQB;2008-07-09 22:00;CYQB 092200Z 14004KT 8SM FEW005 SCT010 OVC020 23/21 A2961 RMK SF2SC2SC4 SLP026

CYQB;2008-07-09 23:00;CYQB 092300Z 18005KT 10SM FEW005 SCT010 BKN020 OVC230 23/21 A2961 RMK SF2SC2SC2CI1 SLP026

CYQB;2008-07-10 00:00;CYQB 100000Z 22006KT 10SM FEW005 SCT010 BKN020 OVC230 23/21 A2960 RMK SF2SC2SC2CI1 SLP022

CYQB;2008-07-10 01:00;CYQB 100100Z 23005KT 10SM FEW006 OVC012 22/21 A2962 RMK SF1SC7 SLP030

CYQB;2008-07-10 02:00;CYQB 100200Z 23004KT 10SM BKN011 OVC020 22/20 A2962 RMK SF6SC2 SLP029

CYQB;2008-07-10 03:00;CYQB 100300Z 23005KT 10SM BKN009 OVC011 22/20 A2961 RMK ST7SC1 SLP025

CYQB;2008-07-10 04:00;CYQB 100400Z 21005KT 10SM BKN012 OVC021 22/20 A2959 RMK ST5SC3 SLP020

CYQB;2008-07-10 05:00;CYQB 100500Z 23007KT 8SM FEW010 BKN013 OVC130 22/20 A2959 RMK ST2SC5AC2 SLP019

CYQB;2008-07-10 06:00;CYQB 100600Z 24014KT 6SM BR FEW012 BKN015 OVC140 21/20 A2959 RMK ST2SC6AC1 SLP018

CYQB;2008-07-10 07:00;CYQB 100700Z 24011G18KT 6SM BR BKN012 OVC030 21/19 A2959 RMK SF6SC2 SLP021

CYQB;2008-07-10 08:00;CYQB 100800Z 24010KT 6SM BR OVC007 20/19 A2961 RMK SF8 SLP025

CYQB;2008-07-10 09:00;CYQB 100900Z 25011KT 5SM BR BKN008 OVC013 20/19 A2961 RMK SF6SC2 SLP028

CYQB;2008-07-10 09:29;CYQB 100929Z CCA 25012KT 4SM BR FEW008 SCT015 20/ RMK SF2SC1

CYQB;2008-07-10 10:00;CYQB 101000Z 25009KT 4SM BR BKN007 BKN015 20/18 A2964 RMK SF6SC1 SLP038

CYQB;2008-07-10 10:27;CYQB 101027Z 25010KT 6SM BR SCT008 SCT060 20/ RMK SF3SC1

CYQB;2008-07-10 11:00;CYQB 101100Z 25010KT 8SM FEW012 20/18 A2967 RMK SC2 CU ASOCTD SLP045

CYQB;2008-07-10 12:00;CYQB 101200Z 26013KT 10SM SCT015 SCT080 20/17 A2969 RMK SC3AC1 SLP052

CYQB;2008-07-10 13:00;CYQB 101300Z 25010G15KT 15SM FEW020 BKN060 19/16 A2972 RMK CU2SC5 SLP062

CYQB;2008-07-10 14:00;CYQB 101400Z 27012G19KT 15SM FEW020 BKN044 21/15 A2973 RMK CU2SC5 SLP066

CYQB;2008-07-10 15:00;CYQB 101500Z 26013KT 15SM SCT045 BKN085 21/15 A2974 RMK SC4AC3 SLP072

CYQB;2008-07-10 15:10;CYQB 101510Z 27011G16KT 15SM -SHRA SCT045 BKN080 21/ RMK SC4AC3

CYQB;2008-07-10 16:00;CYQB 101600Z 27012KT 15SM -SHRA SCT038 BKN092 21/16 A2976 RMK SC3AC4 CU ASOCTD SLP077

CYQB;2008-07-10 17:00;CYQB 101700Z 24018KT 15SM SHRA SCT044TCU BKN080 21/16 A2975 RMK TCU3AC3 SLP076

CYQB;2008-07-10 17:09;CYQB 101709Z 25015G31KT 2SM R06/3000VP6000FT/D SHRA BKN032TCU BKN080 19/ RMK TCU5AC2 VIS NE 15

CYQB;2008-07-10 17:22;CYQB 101722Z 24016G21KT 8SM -SHRA SCT032TCU BKN053 17/ RERA RMK TCU3SC4 VIS W 2

CYQB;2008-07-10 17:52;CYQB 101752Z 24012G17KT 25SM FEW030TCU SCT050 BKN078 19/ RERA RMK TCU2SC2AC2 SH NW TO SE

CYQB;2008-07-10 18:00;CYQB 101800Z 24012KT 25SM FEW030TCU SCT050 BKN078 20/17 A2977 RERA RMK TCU2SC2AC2 SH NW TO SE SLP081

CYQB;2008-07-10 19:00;CYQB 101900Z CCA 26011KT 25SM SCT034 BKN078 22/17 A2977 RMK CU3AC2 TCU ASOCTD SLP082

CYQB;2008-07-10 19:34;CYQB 101934Z 27019G27KT 15SM -SHRA BKN035 BKN080 19/ RMK CU6AC1 TCU ASOCTD

CYQB;2008-07-10 19:48;CYQB 101948Z 28009G18KT 15SM SCT035TCU BKN058 BKN080 19/ RMK TCU3SC2AC2

CYQB;2008-07-10 20:00;CYQB 102000Z 28007KT 15SM FEW035TCU BKN056 BKN080 19/16 A2980 RMK TCU2SC4AC2 SLP091

CYQB;2008-07-10 21:00;CYQB 102100Z 26014KT 15SM FEW040 BKN061 21/15 A2981 RMK CU2SC4 SLP093

CYQB;2008-07-10 21:23;CYQB 102123Z 29023G31KT 15SM -SHRA SCT040 BKN070 19/ RMK CU4AC3

CYQB;2008-07-10 21:51;CYQB 102151Z 28014G20KT 25SM FEW040 BKN078 20/ RMK CU2AC4

CYQB;2008-07-10 22:00;CYQB 102200Z 30017G25KT 25SM FEW040 BKN070 20/13 A2983 RMK CU2AC4 SLP103

CYQB;2008-07-10 23:00;CYQB 102300Z 28013G22KT 25SM FEW040 BKN065 19/12 A2986 RMK CU2SC4 SLP113

CYQB;2008-07-11 00:00;CYQB 110000Z 30011KT 30SM FEW040 BKN060 18/11 A2989 RMK CU1SC6 SLP121

CYQB;2008-07-11 01:00;CYQB 110100Z 27006KT 30SM FEW035 BKN060 BKN210 16/11 A2991 RMK SC1SC2CI0 SLP128

CYQB;2008-07-11 02:00;CYQB 110200Z 27008KT 30SM FEW062 SCT210 15/11 A2994 RMK SC1CI1 SLP139

CYQB;2008-07-11 03:00;CYQB 110300Z 27011KT 15SM BKN064 15/11 A2994 RMK SC5 SLP140

CYQB;2008-07-11 04:00;CYQB 110400Z 26007KT 15SM SCT064 BKN140 BKN240 14/11 A2995 RMK SC3AC1CI0 SLP143

CYQB;2008-07-11 05:00;CYQB 110500Z 24004KT 15SM FEW140 SCT220 13/10 A2994 RMK AC2CI0 SLP141

CYQB;2008-07-11 06:00;CYQB 110600Z 26009KT 15SM FEW050 BKN240 13/11 A2995 RMK SC1CI0 SLP143

CYQB;2008-07-11 07:00;CYQB 110700Z 27012KT 15SM FEW060 BKN240 13/11 A2996 RMK SC1CI6 SLP146

CYQB;2008-07-11 08:00;CYQB 110800Z 27012KT 15SM FEW065 BKN140 OVC240 14/11 A2999 RMK SC1AC6CI2 SLP156

CYQB;2008-07-11 09:00;CYQB 110900Z 25011KT 15SM FEW027 BKN095 BKN150 OVC240 13/11 A3000 RMK SC1AC3AC2CI0 SLP159

CYQB;2008-07-11 10:00;CYQB 111000Z 26009KT 30SM FEW030 SCT110 OVC240 13/11 A3002 RMK SC1AC4CI2 SLP165

CYQB;2008-07-11 11:00;CYQB 111100Z 25010KT 30SM FEW030 FEW110 BKN240 14/11 A3003 RMK SC1AC1CI2 SLP169

CYQB;2008-07-11 12:00;CYQB 111200Z 23005KT 30SM FEW030 BKN240 16/12 A3003 RMK SC1CI2 SLP171

CYQB;2008-07-11 13:00;CYQB 111300Z 24005KT 30SM BKN028 BKN240 17/11 A3004 RMK SC6CI0 SLP173

CYQB;2008-07-11 14:00;CYQB 111400Z 27006KT 30SM SCT041 BKN240 19/13 A3003 RMK SC4CI0 SLP170

CYQB;2008-07-11 15:00;CYQB 111500Z 28006KT 30SM BKN040 BKN240 20/12 A3005 RMK CU6CI1 SLP176

CYQB;2008-07-11 16:00;CYQB 111600Z 26013KT 30SM BKN050 BKN240 20/11 A3006 RMK CU6CI1 SLP178

CYQB;2008-07-11 17:00;CYQB 111700Z 24009KT 30SM SCT050 SCT240 21/11 A3004 RMK CU3CI1 SLP174

CYQB;2008-07-11 18:00;CYQB 111800Z 24011KT 30SM SCT040 BKN080 BKN240 20/12 A3004 RMK CU4AC1CI1 SLP174

CYQB;2008-07-11 19:00;CYQB 111900Z 26011KT 30SM SCT050 BKN085 22/12 A3005 RMK CU4AC1 SLP177

CYQB;2008-07-11 20:00;CYQB 112000Z 26012KT 30SM FEW045 BKN090 23/12 A3005 RMK CU2AC3 SLP176

CYQB;2008-07-11 21:00;CYQB 112100Z 29004KT 30SM FEW060 FEW090 22/11 A3005 RMK CU2AC1 SLP176

CYQB;2008-07-11 22:00;CYQB 112200Z 24007KT 30SM FEW060 FEW090 22/12 A3006 RMK CU2AC1 SLP178

CYQB;2008-07-11 23:00;CYQB 112300Z 26007KT 30SM FEW060 22/12 A3007 RMK CU1 SLP183

CYQB;2008-07-12 00:00;CYQB 120000Z 27005KT 30SM FEW060 20/13 A3008 RMK CU1 SLP185

CYQB;2008-07-12 01:00;CYQB 120100Z 27005KT 15SM SKC 18/12 A3008 RMK SLP188

CYQB;2008-07-12 02:00;CYQB 120200Z 25003KT 15SM SKC 17/12 A3009 RMK SLP189

CYQB;2008-07-12 03:00;CYQB 120300Z 36002KT 15SM SKC 15/12 A3010 RMK SLP192

CYQB;2008-07-12 04:00;CYQB 120400Z 03003KT 15SM SKC 15/12 A3011 RMK SLP197

CYQB;2008-07-12 05:00;CYQB 120500Z 03003KT 15SM SKC 15/11 A3012 RMK SLP199

CYQB;2008-07-12 06:00;CYQB 120600Z 02002KT 15SM SKC 14/11 A3012 RMK SLP200

CYQB;2008-07-12 07:00;CYQB 120700Z 01003KT 15SM SKC 14/11 A3012 RMK SLP199

CYQB;2008-07-12 08:00;CYQB 120800Z 36002KT 15SM SKC 13/11 A3013 RMK SLP204

CYQB;2008-07-12 09:00;CYQB 120900Z 00000KT 15SM FEW230 11/10 A3015 RMK CI0 SLP210

CYQB;2008-07-12 10:00;CYQB 121000Z 36003KT 30SM FEW080 FEW230 13/11 A3016 RMK AC1CI0 SLP213

CYQB;2008-07-12 11:00;CYQB 121100Z 02005KT 30SM FEW070 14/11 A3015 RMK AC1 SLP211

CYQB;2008-07-12 12:00;CYQB 121200Z 26002KT 30SM FEW070 16/13 A3015 RMK AC2 SLP210

CYQB;2008-07-12 13:00;CYQB 121300Z 00000KT 30SM FEW070 18/14 A3014 RMK AC1 SLP207

CYQB;2008-07-12 14:00;CYQB 121400Z 19005KT 30SM FEW040 FEW080 FEW220 20/16 A3012 RMK CU1AC1CI1 SLP200

CYQB;2008-07-12 15:00;CYQB 121500Z 20005KT 30SM FEW040 BKN220 22/15 A3011 RMK CU1CI1 SLP195

CYQB;2008-07-12 16:00;CYQB 121600Z 21008KT 30SM FEW055 BKN220 23/14 A3009 RMK CU2CI1 SLP189

CYQB;2008-07-12 17:00;CYQB 121700Z 17005KT 30SM FEW060 BKN220 24/11 A3008 RMK CU2CI1 SLP185

CYQB;2008-07-12 18:00;CYQB 121800Z 00000KT 30SM FEW060 BKN220 25/13 A3006 RMK CU1CI1 SLP181

CYQB;2008-07-12 19:00;CYQB 121900Z 18006KT 30SM FEW060 BKN220 25/12 A3005 RMK CU1CI1 SLP175

CYQB;2008-07-12 20:00;CYQB 122000Z 14005KT 30SM FEW060 SCT220 25/13 A3002 RMK CU1CI1 SLP167

CYQB;2008-07-12 21:00;CYQB 122100Z 21002KT 30SM FEW060 SCT220 25/12 A3001 RMK CU1CI0 SLP162

CYQB;2008-07-12 22:00;CYQB 122200Z 31002KT 30SM FEW055 BKN220 25/13 A2998 RMK CU1CI2 SLP153

CYQB;2008-07-12 23:00;CYQB 122300Z 18002KT 30SM FEW060 BKN220 25/14 A2996 RMK CU1CI1 SLP145

CYQB;2008-07-13 00:00;CYQB 130000Z 10003KT 30SM FEW090 FEW200 BKN220 23/14 A2995 RMK AC1CI2CI1 SLP142

CYQB;2008-07-13 01:00;CYQB 130100Z 07008KT 15SM FEW100 OVC230 22/14 A2994 RMK AC2CS3 SLP140

CYQB;2008-07-13 02:00;CYQB 130200Z 07003KT 15SM FEW100 OVC220 22/14 A2993 RMK AC2CS5 SLP137

CYQB;2008-07-13 03:00;CYQB 130300Z 07005KT 15SM FEW080 OVC220 21/14 A2991 RMK AC1CI7 SLP128

CYQB;2008-07-13 04:00;CYQB 130400Z 09003KT 15SM FEW070 OVC210 20/15 A2989 RMK AC2CI6 SLP120

CYQB;2008-07-13 05:00;CYQB 130500Z 07007KT 15SM SCT058 OVC210 20/14 A2986 RMK SC4CI4 SLP110

CYQB;2008-07-13 06:00;CYQB 130600Z 07009KT 15SM BKN043 OVC170 20/14 A2982 RMK SC6CI2 SLP098

CYQB;2008-07-13 07:00;CYQB 130700Z 07007KT 15SM -SHRA FEW045 BKN082 OVC130 20/15 A2980 RMK SC2AC6AC1 SLP090

CYQB;2008-07-13 08:00;CYQB 130800Z 04003KT 8SM -SHRA SCT019 OVC044 19/16 A2979 RMK SC3SC5 SLP088

CYQB;2008-07-13 09:00;CYQB 130900Z 08006KT 7SM -SHRA FEW017 OVC036 18/17 A2976 RMK SC1SC7 SLP079

CYQB;2008-07-13 10:00;CYQB 131000Z 08006KT 6SM -SHRA BKN022 OVC035 18/17 A2976 RMK SC5SC3 SLP079

CYQB;2008-07-13 11:00;CYQB 131100Z 07008KT 8SM -SHRA SCT022 OVC039 18/18 A2974 RMK SF3SC5 SLP070

CYQB;2008-07-13 12:00;CYQB 131200Z 06007KT 6SM -SHRA BKN020 OVC050 19/18 A2972 RMK SF5SC3 SLP064

CYQB;2008-07-13 13:00;CYQB 131300Z 08004KT 3SM -SHRA BKN020 OVC041 19/19 A2970 RMK SF6SC2 SLP059

CYQB;2008-07-13 13:49;CYQB 131349Z 08005KT 1SM R06/P6000FT/D -SHRA BR FEW003 BKN020 OVC042 19/ RMK SF1SF6SC2

CYQB;2008-07-13 14:00;CYQB 131400Z 09003KT 1SM R06/P6000FT/D -SHRA BR FEW003 BKN020 OVC041 19/19 A2968 RMK SF1SF6SC1 SLP050

CYQB;2008-07-13 14:36;CYQB 131436Z 03004KT 3/4SM R06/3500VP6000FT/D +SHRA BR SCT003 OVC015 19/ RMK SF3SC5

CYQB;2008-07-13 15:00;CYQB 131500Z 00000KT 1SM R06/P6000FT/U -SHRA BR BKN005 OVC013 20/19 A2967 RERA RMK SF6SC2 SLP049

CYQB;2008-07-13 15:17;CYQB 131517Z 22014KT 6SM BR SCT005 OVC016 21/ RMK SF4SC4

CYQB;2008-07-13 16:00;CYQB 131600Z 22016KT 6SM BR FEW005 OVC017 21/19 A2967 RMK SF2SC6 SLP048

CYQB;2008-07-13 17:00;CYQB 131700Z 22016KT 6SM BR OVC013 21/20 A2966 RMK SC8 SLP044

CYQB;2008-07-13 17:27;CYQB 131727Z 22014G24KT 5SM -SHRA BR OVC015 21/ RMK SC8

CYQB;2008-07-13 18:00;CYQB 131800Z CCA 22011G17KT 3SM -SHRA BR OVC018 22/20 A2965 RMK SC8 TCU EMBD SLP040

CYQB;2008-07-13 19:00;CYQB 131900Z CCA 24011KT 5SM -SHRA BR BKN019 OVC034 22/21 A2967 RMK SC6SC2 TCU EMBD SLP045

CYQB;2008-07-13 20:00;CYQB 132000Z 22007KT 3SM -SHRA BR SCT012 BKN024 OVC030 22/21 A2966 RMK SF3SC3SC2 TCU EMBDD SLP043

CYQB;2008-07-13 20:20;CYQB 132020Z CCA 20010KT 2 1/2SM R06/4500VP6000FT/D -SHRA BR SCT015 BKN024 OVC042 22/ RMK SF4SC3SC1 TCU EMBD

CYQB;2008-07-13 20:30;CYQB 132030Z 20010G17KT 4SM -SHRA BR SCT015 BKN030 OVC060 21/ RMK SC4SC3SC1 TCU EMBD

CYQB;2008-07-13 21:00;CYQB 132100Z 20008G16KT 3SM -SHRA BR FEW001 SCT015 OVC032 21/21 A2965 RMK SF1SC3SC4 TCU EMBD SLP041

CYQB;2008-07-13 22:00;CYQB 132200Z 20008KT 5SM -SHRA BR FEW001 SCT015 OVC035 22/20 A2963 RMK SF1SC3SC4 TCU EMBD SLP035

CYQB;2008-07-13 23:00;CYQB 132300Z 22008KT 2SM SHRA BR FEW001 OVC012 21/20 A2963 RMK SF2SC6 TCU EMBD SLP035

CYQB;2008-07-13 23:44;CYQB 132344Z CCA 22005KT 1SM SHRA BR FEW001 BKN005 OVC008 21/ RMK SF2SF6SC1 TCU EMBD

CYQB;2008-07-14 00:00;CYQB 140000Z 21011G21KT 1 1/2SM -SHRA BR FEW001 BKN005 OVC008 21/20 A2963 RMK SF2SF5SC1 RERA TCU EMBD SLP035

CYQB;2008-07-14 01:00;CYQB 140100Z 22015G28KT 1 1/2SM -SHRA BR FEW001 BKN005 OVC029 21/20 A2965 RMK SF2SF5SC1 RERA TCU EMBD SLP040

CYQB;2008-07-14 02:00;CYQB 140200Z 22010KT 3SM -SHRA BR FEW001 SCT005 OVC020 20/20 A2965 RMK SF2SF2SC4 SLP041

CYQB;2008-07-14 03:00;CYQB 140300Z 23010KT 2SM -SHRA BR BKN006 OVC011 20/19 A2965 RMK SF6SC2 TCU EMBDD SLP040

CYQB;2008-07-14 04:00;CYQB 140400Z 22009KT 5SM -SHRA BR SCT006 OVC010 20/19 A2965 RMK SF3SC5 SLP041

CYQB;2008-07-14 04:43;CYQB 140443Z 23006KT 4SM BR FEW005 OVC010 RMK SF2SC6

CYQB;2008-07-14 05:00;CYQB 140500Z 22007KT 8SM FEW005 SCT010 20/19 A2966 RMK SF2SC2 SLP043

CYQB;2008-07-14 06:00;CYQB 140600Z 21006KT 8SM BKN006 20/19 A2965 RMK SF5 SLP041

CYQB;2008-07-14 06:33;CYQB 140633Z 21007KT 8SM FEW006 BKN015 20/ RMK SF1SF5 CIG VRB 10-20

CYQB;2008-07-14 07:00;CYQB 140700Z 22006KT 7SM FEW004 BKN012 20/19 A2966 RMK SF1SF4 SLP043

CYQB;2008-07-14 08:00;CYQB 140800Z 19005KT 8SM FEW004 SCT012 BKN040 19/18 A2966 RMK SF1SF3SC2 SLP043

CYQB;2008-07-14 08:47;CYQB 140847Z 22005KT 8SM FEW004 BKN008 OVC040 19/ RMK SF1SF6SC1

CYQB;2008-07-14 09:00;CYQB 140900Z 21004KT 9SM FEW004 BKN008 OVC032 19/19 A2966 RMK SF1SF4SC3 SLP044

CYQB;2008-07-14 10:00;CYQB 141000Z 22007KT 10SM BKN008 OVC028 20/18 A2967 RMK SF5SC2 SLP047

CYQB;2008-07-14 11:00;CYQB 141100Z 20005KT 12SM FEW009 OVC029 20/19 A2968 RMK SF2SC6 LWR SF N SLP052

CYQB;2008-07-14 12:00;CYQB 141200Z 23008KT 15SM SCT010 OVC025 20/18 A2969 RMK SF3SC5 SLP053

CYQB;2008-07-14 13:00;CYQB 141300Z 25007KT 15SM SCT015 OVC027 21/18 A2969 RMK SF4SC4 SLP053

CYQB;2008-07-14 13:30;CYQB 141330Z 25009KT 10SM BKN009 OVC013 20/ RMK SF6SC2

CYQB;2008-07-14 13:47;CYQB 141347Z 23010G16KT 15SM SCT009 BKN025 OVC035 20/ RMK SF4SC2SC2

CYQB;2008-07-14 14:00;CYQB 141400Z 23011KT 15SM FEW010 OVC028 21/18 A2969 RMK SF2SC6 SLP054

CYQB;2008-07-14 15:00;CYQB 141500Z 24012G17KT 15SM FEW010 SCT020 BKN035 BKN080 OVC240 22/18 A2969 RMK SF2SC2SC2AC1CI0 SLP055

CYQB;2008-07-14 16:00;CYQB 141600Z 23013G20KT 15SM SCT020 BKN034 BKN075 OVC240 23/17 A2970 RMK CU3SC2AC1CI0 SLP057

CYQB;2008-07-14 17:00;CYQB 141700Z 24015G21KT 30SM SCT034 BKN075 BKN240 23/15 A2970 RMK CU3AC2CI2 SLP057

CYQB;2008-07-14 18:00;CYQB 141800Z 25019G27KT 30SM SCT040 BKN075 BKN240 23/15 A2971 RMK CU4AC1CI2 SLP060

CYQB;2008-07-14 19:00;CYQB 141900Z 24017G22KT 30SM SCT040 BKN075 BKN240 23/15 A2972 RMK CU3AC2CI1 SLP063

CYQB;2008-07-14 20:00;CYQB 142000Z 24018KT 30SM SCT045 SCT075 BKN240 24/15 A2972 RMK CU4AC1CI1 SLP065

CYQB;2008-07-14 21:00;CYQB 142100Z 24013G21KT 30SM SCT050 BKN075 BKN240 23/14 A2972 RMK CU3AC2CI1 SLP065

CYQB;2008-07-14 22:00;CYQB 142200Z 25016KT 30SM FEW050 FEW075 FEW240 23/15 A2973 RMK CU2AC1CI1 SLP068

CYQB;2008-07-14 23:00;CYQB 142300Z 24011KT 30SM FEW040 BKN090 BKN240 22/15 A2975 RMK CU1AC4CI1 SLP074

CYQB;2008-07-15 00:00;CYQB 150000Z 25011G17KT 30SM FEW040 BKN100 21/15 A2977 RMK CU1AC5 TCU ASOCTD N QUAD SLP080

CYQB;2008-07-15 01:00;CYQB 150100Z 26008KT 30SM FEW090 SCT120 BKN150 20/16 A2978 RMK AC2AC2AC2 SLP086

CYQB;2008-07-15 02:00;CYQB 150200Z 23005KT 15SM FEW090 BKN120 19/15 A2981 RMK AC2AC3 SLP094

CYQB;2008-07-15 03:00;CYQB 150300Z 22008KT 15SM BKN110 19/15 A2982 RMK AC5 SLP098

CYQB;2008-07-15 04:00;CYQB 150400Z 22005KT 15SM FEW110 17/15 A2983 RMK AC1 SLP102

CYQB;2008-07-15 05:00;CYQB 150500Z 25005KT 15SM FEW110 FEW220 16/15 A2985 RMK AC2CI0 SLP107

CYQB;2008-07-15 06:00;CYQB 150600Z 18002KT 15SM FEW014 SCT090 16/15 A2986 RMK ST1AC1 SLP111

CYQB;2008-07-15 06:37;CYQB 150637Z 25003KT 15SM BKN014 OVC110 16/ RMK ST6AC2

CYQB;2008-07-15 07:00;CYQB 150700Z 26003KT 15SM FEW014 SCT077 BKN110 16/15 A2986 RMK ST2AC2AC2 SLP113

CYQB;2008-07-15 08:00;CYQB 150800Z 28003KT 15SM BKN013 BKN110 16/15 A2987 RMK ST5AC2 SLP115

CYQB;2008-07-15 09:00;CYQB 150900Z 24006KT 15SM OVC012 17/16 A2989 RMK ST8 SLP122

CYQB;2008-07-15 10:00;CYQB 151000Z 26004KT 15SM BKN012 BKN110 17/16 A2992 RMK ST7AC1 SLP130

CYQB;2008-07-15 11:00;CYQB 151100Z 26006KT 15SM OVC013 17/16 A2993 RMK SC8 SLP134

CYQB;2008-07-15 11:35;CYQB 151135Z 25006KT 15SM FEW013 BKN015 18/ RMK SF2SC6

CYQB;2008-07-15 12:00;CYQB 151200Z 24006KT 15SM FEW013 BKN017 BKN110 18/16 A2995 RMK SF1SC6AC1 SLP142

CYQB;2008-07-15 13:00;CYQB 151300Z 26008KT 20SM FEW017 BKN022 BKN110 19/16 A2996 RMK SC2SC3AC2 SLP147

CYQB;2008-07-15 14:00;CYQB 151400Z 25011KT 25SM SCT020 BKN100 20/16 A2997 RMK CU4AC2 SLP150

CYQB;2008-07-15 15:00;CYQB 151500Z 24012G20KT 30SM SCT024 BKN100 22/16 A2998 RMK CU3AC2 SLP153

CYQB;2008-07-15 16:00;CYQB 151600Z 23016KT 30SM BKN030 BKN100 23/16 A2998 RMK CU5AC2 SLP154

CYQB;2008-07-15 17:00;CYQB 151700Z 25016KT 30SM BKN044 BKN100 24/16 A2999 RMK CU5AC2 TCU ASOCTD SLP157

CYQB;2008-07-15 17:53;CYQB 151753Z 25013G19KT 20SM -SHRA BKN045 BKN080 21/ RMK CU5AC2 TCU EMBD

CYQB;2008-07-15 18:00;CYQB 151800Z 24010G19KT 20SM -SHRA BKN045 BKN080 21/16 A3001 RMK CU5AC2 TCU EMBD SLP162

CYQB;2008-07-15 18:27;CYQB 151827Z 25011KT 30SM FEW045 BKN078 21/ RMK CU2AC5

CYQB;2008-07-15 19:00;CYQB 151900Z 27013KT 30SM FEW045 BKN092 22/16 A3001 RMK CU2AC5 SLP162

CYQB;2008-07-15 20:00;CYQB 152000Z 26011KT 30SM FEW045 BKN100 22/16 A3001 RMK CU2AC6 SLP164

CYQB;2008-07-15 21:00;CYQB 152100Z 25015G20KT 30SM FEW045 FEW100 BKN250 24/15 A3001 RMK CU2AC1CI1 SLP163

CYQB;2008-07-15 22:00;CYQB 152200Z 24018G24KT 30SM FEW040 SCT100 SCT250 23/15 A3002 RMK CU2AC1CI1 SLP166

CYQB;2008-07-15 23:00;CYQB 152300Z 23011G16KT 30SM FEW040 FEW100 FEW250 23/15 A3002 RMK CU1AC1CI1 SLP166

CYQB;2008-07-16 00:00;CYQB 160000Z 24010KT 30SM FEW040 FEW100 FEW250 22/15 A3003 RMK CU1AC1CI1 SLP168

CYQB;2008-07-16 01:00;CYQB 160100Z 25003KT 15SM FEW250 19/15 A3004 RMK CI1 SLP173

CYQB;2008-07-16 02:00;CYQB 160200Z 27003KT 15SM SKC 18/15 A3007 RMK SLP182

CYQB;2008-07-16 03:00;CYQB 160300Z 26003KT 15SM FEW170 18/15 A3009 RMK AC1 SLP189

CYQB;2008-07-16 04:00;CYQB 160400Z 21003KT 15SM FEW170 17/15 A3009 RMK AC1 SLP190

CYQB;2008-07-16 05:00;CYQB 160500Z 24004KT 15SM FEW140 17/14 A3009 RMK AC1 SLP191

CYQB;2008-07-16 06:00;CYQB 160600Z 22002KT 15SM FEW140 16/15 A3009 RMK AC1 SLP191

CYQB;2008-07-16 07:00;CYQB 160700Z 02002KT 15SM FEW220 15/14 A3010 RMK CI1 SLP192

CYQB;2008-07-16 08:00;CYQB 160800Z 00000KT 15SM FEW140 14/13 A3010 RMK AC1 SLP192

CYQB;2008-07-16 09:00;CYQB 160900Z 00000KT 20SM FEW140 FEW230 14/13 A3009 RMK AC1CI1 SLP191

CYQB;2008-07-16 10:00;CYQB 161000Z 00000KT 30SM FEW140 FEW230 15/14 A3011 RMK AC1CI0 SLP195

CYQB;2008-07-16 11:00;CYQB 161100Z 00000KT 30SM FEW050 FEW120 BKN230 17/15 A3012 RMK SC1AC1CI2 SLP199

CYQB;2008-07-16 12:00;CYQB 161200Z 00000KT 30SM FEW150 BKN230 19/16 A3011 RMK AC1CI2 SLP198

CYQB;2008-07-16 13:00;CYQB 161300Z 28002KT 30SM FEW100 BKN230 20/15 A3011 RMK AC1CI2 SLP197

CYQB;2008-07-16 14:00;CYQB 161400Z 20006KT 30SM FEW035 FEW100 BKN230 22/15 A3010 RMK CU1AC2CI2 SLP192

CYQB;2008-07-16 15:00;CYQB 161500Z 23005KT 30SM FEW035 BKN068 BKN230 22/15 A3009 RMK CU1AC4CI1 SLP191

CYQB;2008-07-16 16:00;CYQB 161600Z 24009G16KT 30SM FEW035 BKN080 BKN230 22/13 A3010 RMK SC2AC3CI1 SLP192

CYQB;2008-07-16 17:00;CYQB 161700Z 23009KT 30SM FEW040 BKN078 BKN230 23/15 A3009 RMK SC1AC5CI2 SLP189

CYQB;2008-07-16 18:00;CYQB 161800Z 30003KT 30SM -SHRA FEW040 BKN071 OVC160 22/15 A3009 RMK CU1AC6AC1 SLP189

CYQB;2008-07-16 19:00;CYQB 161900Z 35003KT 30SM FEW040 BKN082 BKN160 23/15 A3007 RMK CU1AC5AC1 SLP184

CYQB;2008-07-16 20:00;CYQB 162000Z 01003KT 30SM FEW040 BKN060 BKN150 24/16 A3006 RMK CU1SC5AC1 SLP180

CYQB;2008-07-16 21:00;CYQB 162100Z 28002KT 30SM FEW040 FEW070 BKN260 25/16 A3005 RMK CU1AC1CI1 OBS TAKEN +08 SLP175

CYQB;2008-07-16 22:00;CYQB 162200Z 36005KT 30SM FEW040 SCT060 BKN180 23/16 A3003 RMK CU1SC2AC1 SLP170

CYQB;2008-07-16 22:45;CYQB 162245Z 08002KT 30SM -SHRA FEW040 FEW060 BKN160 22/ RMK CU1SC2AC1

CYQB;2008-07-16 23:00;CYQB 162300Z CCA 35004KT 30SM -TSRA FEW030TCU SCT060 BKN120 22/17 A3004 RMK TCU1SC3AC2 CB EMBD DIST SW SLP172

CYQB;2008-07-17 00:00;CYQB 170000Z 24003KT 30SM -TSRA FEW030TCU SCT060 BKN110 22/18 A3004 RMK TCU1SC3AC2 CB EMBD VIS LWR S-SW SLP173

CYQB;2008-07-17 00:25;CYQB 170025Z 30005KT 30SM FEW030TCU SCT060 BKN130 21/ RETS RMK TCU1SC3AC2

CYQB;2008-07-17 01:00;CYQB 170100Z 29003KT 15SM TS SCT040CB BKN060 20/17 A3005 RMK CB4AC2 CB N SLP175

CYQB;2008-07-17 01:28;CYQB 170128Z 36010G18KT 8SM -TSRA BKN040CB BKN060 20/ RMK CB6AC2 CB OVRHD

CYQB;2008-07-17 02:00;CYQB 170200Z CCA 36007KT 15SM BKN060CB 19/16 A3004 RETS RMK CB6 SLP173

CYQB;2008-07-17 03:00;CYQB 170300Z 33004KT 15SM -SHRA SCT060CB BKN230 18/17 A3007 RMK CB4CI1 LTGIC SLP182

CYQB;2008-07-17 03:43;CYQB 170343Z 00000KT 15SM TS SCT060CB 18/ RMK CB4

CYQB;2008-07-17 04:00;CYQB 170400Z 19005KT 15SM FEW060CB SCT110 18/17 A3006 RETS RMK CB2AC1 LTGCC S QUAD SLP179

CYQB;2008-07-17 05:00;CYQB 170500Z 00000KT 15SM FEW140 16/16 A3005 RMK AC1 SLP176

CYQB;2008-07-17 06:00;CYQB 170600Z 25002KT 15SM SKC 16/15 A3006 RMK SLP181

CYQB;2008-07-17 07:00;CYQB 170700Z 30002KT 15SM FEW220 16/15 A3008 RMK CI1 SLP185

CYQB;2008-07-17 08:00;CYQB 170800Z 03002KT 15SM FEW085 15/14 A3008 RMK AC1 SLP187

CYQB;2008-07-17 09:00;CYQB 170900Z 00000KT 15SM FEW074 14/13 A3010 RMK AC2 DIST FG OVR HIER TRRN SLP193

CYQB;2008-07-17 10:00;CYQB 171000Z 04005KT 30SM FEW070 FEW250 15/13 A3011 RMK AC1CI1 SLP195

CYQB;2008-07-17 11:00;CYQB 171100Z 04002KT 30SM FEW070 FEW250 17/15 A3011 RMK AC1CI1 SLP197

CYQB;2008-07-17 12:00;CYQB 171200Z 23003KT 30SM FEW020 FEW070 FEW250 19/15 A3013 RMK SC1AC1CI1 SLP203

CYQB;2008-07-17 13:00;CYQB 171300Z 24004KT 30SM FEW020 FEW070 SCT250 21/14 A3013 RMK SC1AC1CI0 SLP202

CYQB;2008-07-17 14:00;CYQB 171400Z 32005KT 30SM FEW030 FEW100 BKN250 22/15 A3013 RMK CU1AC1CI1 SLP203

CYQB;2008-07-17 15:00;CYQB 171500Z 23009KT 30SM FEW030 FEW250 22/16 A3012 RMK CU1CI0 SLP200

CYQB;2008-07-17 16:00;CYQB 171600Z 27007KT 30SM FEW030 FEW250 24/16 A3011 RMK CU1CI1 SLP197

CYQB;2008-07-17 17:00;CYQB 171700Z 28006KT 30SM FEW040 FEW250 25/13 A3010 RMK CU1CI1 SLP192

CYQB;2008-07-17 18:00;CYQB 171800Z 28013KT 30SM FEW040 FEW250 26/11 A3009 RMK CU1CI1 SLP191

CYQB;2008-07-17 19:00;CYQB 171900Z 27013KT 30SM FEW045 FEW150 FEW250 26/14 A3009 RMK CU1AC1CI2 SLP189

CYQB;2008-07-17 20:00;CYQB 172000Z 27009KT 30SM FEW045 FEW150 BKN200 24/14 A3009 RMK CU1AC2CI4 SLP189

CYQB;2008-07-17 21:00;CYQB 172100Z 28006KT 30SM FEW045 SCT150 BKN200 24/15 A3008 RMK CU1AC3CI3 SLP187

CYQB;2008-07-17 22:00;CYQB 172200Z 28005KT 30SM FEW045 BKN140 BKN200 23/15 A3007 RMK CU1AC6CI2 SLP182

CYQB;2008-07-17 23:00;CYQB 172300Z 27002KT 30SM BKN140 BKN200 23/16 A3006 RMK AC6CI2 SLP179

CYQB;2008-07-18 00:00;CYQB 180000Z 30005KT 30SM BKN120 BKN200 21/16 A3007 RMK AC5CI2 SLP183

CYQB;2008-07-18 00:25;CYQB 180025Z 34006KT 20SM -SHRA BKN100 BKN200 21/ RMK AC6CI2

CYQB;2008-07-18 01:00;CYQB 180100Z 34007KT 15SM -SHRA OVC100 20/15 A3008 RMK AC8 SLP186

CYQB;2008-07-18 01:40;CYQB 180140Z 36003KT 15SM OVC100 19/ RMK AC8

CYQB;2008-07-18 02:00;CYQB 180200Z 36002KT 15SM BKN120 19/16 A3007 RMK AC6 SLP184

CYQB;2008-07-18 03:00;CYQB 180300Z 02002KT 15SM BKN110 19/16 A3005 RMK AC6 SLP177

CYQB;2008-07-18 04:00;CYQB 180400Z 01002KT 15SM OVC120 18/16 A3004 RMK AC8 SLP174

CYQB;2008-07-18 05:00;CYQB 180500Z 01003KT 15SM OVC077 18/16 A3004 RMK AC8 SLP172

CYQB;2008-07-18 06:00;CYQB 180600Z CCA 03006KT 12SM -SHRA OVC075 17/15 A3006 RMK AC8 SLP178

CYQB;2008-07-18 07:00;CYQB 180700Z 04002KT 15SM -SHRA BKN060 OVC110 17/15 A3006 RMK SC6AC2 SLP178

CYQB;2008-07-18 08:00;CYQB 180800Z 02005KT 15SM -SHRA FEW070 OVC120 16/14 A3004 RMK AC2AC6 SLP172

CYQB;2008-07-18 09:00;CYQB 180900Z 08002KT 30SM -SHRA FEW060 BKN120 BKN200 16/15 A3004 RMK SC1AC6CI1 SLP172

CYQB;2008-07-18 09:08;CYQB 180908Z CCA 36003KT 30SM FEW060 BKN120 BKN200 16/ RMK SC1AC5CI1

CYQB;2008-07-18 10:00;CYQB 181000Z 08006KT 30SM FEW060 BKN120 BKN190 16/14 A3002 RMK SC2AC4CI0 SH SW SLP166

CYQB;2008-07-18 11:00;CYQB 181100Z 06006KT 30SM FEW010 FEW060 BKN130 17/15 A3002 RMK SF1SC2AC4 SH SW SLP165

CYQB;2008-07-18 12:00;CYQB 181200Z 07005KT 30SM FEW010 FEW060 BKN100 OVC190 17/16 A3002 RMK SF1SC2AC3CI2 SLP166

CYQB;2008-07-18 13:00;CYQB 181300Z 07007KT 30SM FEW006 BKN040 OVC065 18/16 A3001 RMK SF1SC6AC2 OBS TAKEN +09 SLP162

CYQB;2008-07-18 14:00;CYQB 181400Z 07007KT 30SM FEW010 BKN040 OVC080 19/15 A3000 RMK CF1SC5AC3 SLP158

CYQB;2008-07-18 14:22;CYQB 181422Z 07007KT 30SM -SHRA FEW010 SCT040 BKN083 OVC095 19/ RMK CF1SC4AC2AC2

CYQB;2008-07-18 15:00;CYQB 181500Z 06007KT 8SM -SHRA FEW010 BKN028 OVC050 18/16 A2998 RMK CF1SC5SC3 SLP154

CYQB;2008-07-18 16:00;CYQB 181600Z 16004KT 10SM -SHRA FEW010 BKN014 OVC030 18/17 A2998 RMK CF1SC5SC2 SLP153

CYQB;2008-07-18 17:00;CYQB 181700Z 00000KT 10SM -SHRA FEW010 BKN019 OVC030 18/17 A2998 RMK CF1SC5SC2 SLP152

CYQB;2008-07-18 18:00;CYQB 181800Z 15002KT 10SM -SHRA FEW010 BKN018 OVC027 18/17 A2997 RMK CF1SC6SC2 SLP150

CYQB;2008-07-18 18:32;CYQB 181832Z 00000KT 10SM FEW010 BKN018 OVC030 19/ RMK CF1SC6SC2

CYQB;2008-07-18 19:00;CYQB 181900Z 00000KT 10SM FEW010 OVC020 19/17 A2996 RMK CF1SC8 SLP146

CYQB;2008-07-18 20:00;CYQB 182000Z 11003KT 15SM FEW010 OVC021 19/17 A2994 RMK SC2SC6 SLP140

CYQB;2008-07-18 21:00;CYQB 182100Z 11004KT 15SM -SHRA BKN016 OVC022 19/17 A2993 RMK SC6SC2 CIG RAG SLP136

CYQB;2008-07-18 22:00;CYQB 182200Z 13003KT 15SM -SHRA FEW015 BKN019 OVC024 20/17 A2992 RMK CF1SC6SC2 SLP134

CYQB;2008-07-18 23:00;CYQB 182300Z 08004KT 15SM -SHRA FEW015 OVC020 19/17 A2992 RMK CF2SC6 SLP134

CYQB;2008-07-18 23:50;CYQB 182350Z 00000KT 15SM FEW015 OVC020 19/ RMK SC1SC7

CYQB;2008-07-19 00:00;CYQB 190000Z 09002KT 15SM FEW015 OVC020 19/17 A2992 RMK SC1SC7 SLP131

CYQB;2008-07-19 01:00;CYQB 190100Z 07003KT 15SM -SHRA FEW012 BKN018 OVC022 19/16 A2991 RMK SC1SC6SC1 SLP130

CYQB;2008-07-19 01:38;CYQB 190138Z 03003KT 15SM FEW012 OVC020 19/ RMK SC1SC7

CYQB;2008-07-19 02:00;CYQB 190200Z 03002KT 15SM OVC017 19/16 A2991 RMK SC8 SLP129

CYQB;2008-07-19 03:00;CYQB 190300Z 09004KT 15SM -SHRA OVC018 18/16 A2989 RMK SC8 SLP124

CYQB;2008-07-19 04:00;CYQB 190400Z 06003KT 8SM -SHRA OVC012 18/16 A2988 RMK SC8 SLP120

CYQB;2008-07-19 04:29;CYQB 190429Z 02004KT 10SM OVC013 18/ RMK ST8

CYQB;2008-07-19 05:00;CYQB 190500Z 35005KT 10SM OVC012 18/16 A2986 RMK ST7 SLP114

CYQB;2008-07-19 06:00;CYQB 190600Z 33004KT 15SM OVC016 17/16 A2987 RMK SC8 SLP117

CYQB;2008-07-19 07:00;CYQB 190700Z CCA 34003KT 15SM OVC018 OVC032 18/16 A2986 RMK SC7SC0 SLP112

CYQB;2008-07-19 08:00;CYQB 190800Z 01003KT 15SM OVC021 18/16 A2985 RMK SC8 SLP110

CYQB;2008-07-19 09:00;CYQB 190900Z 32003KT 10SM SCT015 OVC030 18/16 A2987 RMK SC4SC4 SLP114

CYQB;2008-07-19 10:00;CYQB 191000Z 28002KT 30SM BKN040 BKN070 18/16 A2988 RMK SC6AC1 SLP117

CYQB;2008-07-19 11:00;CYQB 191100Z 02002KT 30SM BKN040 18/16 A2988 RMK SC7 SLP119

CYQB;2008-07-19 12:00;CYQB 191200Z 33002KT 30SM BKN040 20/17 A2989 RMK SC6 SLP121

CYQB;2008-07-19 13:00;CYQB 191300Z 00000KT 30SM FEW045 SCT230 21/17 A2989 RMK CU2CI1 SLP121

CYQB;2008-07-19 14:00;CYQB 191400Z 17003KT 30SM BKN027 BKN230 21/17 A2989 RMK CU6CI1 SLP122

CYQB;2008-07-19 15:00;CYQB 191500Z 25007KT 30SM BKN019 BKN045 22/17 A2990 RMK SC6SC1 CU ASOCTD SLP124

CYQB;2008-07-19 16:00;CYQB 191600Z 26004KT 20SM SCT020 BKN028 22/17 A2990 RMK CU3SC4 SLP125

CYQB;2008-07-19 17:00;CYQB 191700Z 25003KT 20SM SCT020 BKN060 23/18 A2989 RMK CU3SC4 SLP123

CYQB;2008-07-19 18:00;CYQB 191800Z 23011KT 20SM FEW025 BKN062 BKN230 23/18 A2988 RMK CU2SC4CI1 SLP118

CYQB;2008-07-19 19:00;CYQB 191900Z 25012KT 20SM SCT025TCU SCT220 24/18 A2986 RMK TCU3CC1 SLP113

CYQB;2008-07-19 20:00;CYQB 192000Z 22012KT 20SM SCT025TCU BKN220 24/18 A2986 RMK TCU3CI0 SLP111

CYQB;2008-07-19 21:00;CYQB 192100Z 25011KT 20SM FEW030 FEW160 SCT220 25/18 A2986 RMK CU2AC1CI1 TCU ASOCTD SLP113

CYQB;2008-07-19 22:00;CYQB 192200Z 23007KT 20SM FEW030TCU SCT120 BKN220 24/18 A2987 RMK TCU2AC1CI1 SLP114

CYQB;2008-07-19 22:51;CYQB 192251Z 04012KT 4SM -TSRA BKN030CB BKN100 BKN220 21/ RMK CB5AC1CI1 LTGCG VIS W 20

CYQB;2008-07-19 23:00;CYQB 192300Z CCA 35016G21KT 3SM R06/4000VP6000FT/D -TSRA BKN030CB BKN100 BKN220 20/17 A2991 RMK CB5AC1CI1 LTGCG SLP129

CYQB;2008-07-19 23:06;CYQB 192306Z 03010KT 1SM R06/3000VP6000FT/D +TSRA SCT010 OVC030CB 18/ RMK SF4CB4

CYQB;2008-07-19 23:30;CYQB 192330Z 04005KT 2SM -TSRA SCT010 OVC030CB 18/ RMK SF3CB4

CYQB;2008-07-20 00:00;CYQB 200000Z CCA 10008KT 10SM -SHRA FEW010 FEW015 BKN030 BKN120 17/17 A2989 RMK SF1SC1SC5AC1 CB W LTGIC VIS W LWR SLP122

CYQB;2008-07-20 01:00;CYQB 200100Z 05002KT 15SM FEW010 SCT030 BKN130 BKN200 17/17 A2990 RMK SC1SC2AC2CI1 SLP125

CYQB;2008-07-20 01:38;CYQB 200138Z 25003KT 15SM BKN008 17/ RMK SF6

CYQB;2008-07-20 02:00;CYQB 200200Z 28003KT 15SM BKN009 17/17 A2991 RMK SF6 SLP130

CYQB;2008-07-20 02:48;CYQB 200248Z 00000KT 10SM FEW009 FEW080 17/ RMK SF2AC1

CYQB;2008-07-20 03:00;CYQB 200300Z 34002KT 15SM FEW009 FEW080 17/16 A2992 RMK SF2AC1 SLP131

CYQB;2008-07-20 04:00;CYQB 200400Z 32002KT 12SM FEW009 FEW080 16/16 A2992 RMK SF1AC2 SLP131

CYQB;2008-07-20 05:00;CYQB 200500Z 05003KT 15SM FEW080 16/15 A2992 RMK AC2 SLP133

CYQB;2008-07-20 06:00;CYQB 200600Z 35003KT 15SM R06/4000VP6000FT/D FEW080 15/15 A2992 RMK AC2 SLP130

CYQB;2008-07-20 07:00;CYQB 200700Z 28002KT 6SM BR BKN004 16/15 A2992 RMK ST5 SLP133

CYQB;2008-07-20 08:00;CYQB 200800Z 23002KT 6SM BR BKN004 16/16 A2993 RMK ST6 SLP134

CYQB;2008-07-20 08:04;CYQB 200804Z 21002KT 3SM BR BKN003 16/ RMK ST6

CYQB;2008-07-20 08:49;CYQB 200849Z 02003KT 3/4SM R06/P6000FT/D BR OVC002 16/ RMK ST8

CYQB;2008-07-20 09:00;CYQB 200900Z 00000KT 3/8SM R06/2200FT/N FG VV002 16/16 A2992 RMK FG8 SLP132

CYQB;2008-07-20 09:37;CYQB 200937Z 36003KT 5/8SM R06/1200FT/N BR BKN002 BKN150 15/ RMK FG5SF1AC1 VIS N QUAD 25

CYQB;2008-07-20 10:00;CYQB 201000Z 00000KT 5/8SM R06/2200FT/N BR BKN003 BKN011 BKN230 16/16 A2994 RMK FG5SF2SF1CI0 VIS N QUAD 25 SLP139

CYQB;2008-07-20 10:23;CYQB 201023Z 36003KT 1/4SM R06/2200FT/N FG BKN002 BKN230 16/ RMK FG6SF1CI1

CYQB;2008-07-20 10:37;CYQB 201037Z 00000KT 1/2SM R06/3500FT/N FG BKN003 BKN230 16/ RMK FG2SF6CI1

CYQB;2008-07-20 11:00;CYQB 201100Z 19003KT 1/8SM R06/3000FT/N FG BKN002 BKN005 OVC230 16/16 A2996 RMK FG4SF2SF1CI1 SLP144

CYQB;2008-07-20 11:18;CYQB 201118Z 00000KT 1/8SM R06/2600FT/N -DZ FG BKN002 OVC005 16/ RMK FG4SF3SF1

CYQB;2008-07-20 12:00;CYQB 201200Z 00000KT 1/2SM R06/2800FT/N -DZ FG OVC002 16/16 A2996 RMK FG4SF4 SLP147

CYQB;2008-07-20 12:19;CYQB 201219Z 20003KT 3/4SM R06/P6000FT/N BR FEW003 BKN005 BKN008 16/ RMK SF2SF3SF2 VIS NW 7

CYQB;2008-07-20 12:45;CYQB 201245Z 25004KT 5SM BR OVC009 16/ RMK SF8

CYQB;2008-07-20 13:00;CYQB 201300Z 20003KT 5SM BR BKN007 BKN070 OVC200 16/16 A2997 RMK SF6AC1CI1 VIS N QUAD 15 SLP148

CYQB;2008-07-20 13:17;CYQB 201317Z 16002KT 10SM SCT007 BKN180 OVC240 18/ RMK SF4AC2CI2 VIS SW QUAD LWR

CYQB;2008-07-20 14:00;CYQB 201400Z 23003KT 7SM BKN008 OVC180 18/16 A2995 RMK SF5AC3 VIS LWR S QUAD SLP144

CYQB;2008-07-20 14:18;CYQB 201418Z 25002KT 8SM FEW005 BKN009 BKN018 18/ RMK SF2SC4SC1 VIS NW-NE 25

CYQB;2008-07-20 15:00;CYQB 201500Z 22003KT 15SM SCT008 BKN020 BKN180 19/17 A2996 RMK SF3SC2AC2 VIS LWR S QUAD SLP145

CYQB;2008-07-20 16:00;CYQB 201600Z 21004KT 20SM BKN010 BKN020 19/17 A2995 RMK SF5SC2 VIS LWR S QUAD SLP143

CYQB;2008-07-20 16:26;CYQB 201626Z 27003KT 15SM FEW012 BKN180 OVC240 20/ RMK SF1AC6CI1 HAZY

CYQB;2008-07-20 17:00;CYQB 201700Z 23002KT 15SM FEW012 BKN180 OVC240 21/18 A2994 RMK SF2AC6CI1 HAZY SLP141

CYQB;2008-07-20 18:00;CYQB 201800Z 23003KT 15SM FEW020 OVC190 22/17 A2993 RMK SC2AC6 HAZY SLP136

CYQB;2008-07-20 19:00;CYQB 201900Z 18003KT 15SM FEW020 OVC190 23/17 A2992 RMK SC2AC6 HAZY SLP131

CYQB;2008-07-20 20:00;CYQB 202000Z 21006KT 15SM FEW020 BKN170 OVC210 22/18 A2990 RMK SC2AC4CI1 TCU EMBDD SLP127

CYQB;2008-07-20 21:00;CYQB 202100Z 00000KT 15SM FEW020 BKN170 BKN250 23/15 A2989 RMK SC2AC3CI1 SLP121

CYQB;2008-07-20 22:00;CYQB 202200Z 29003KT 15SM FEW025 SCT170 BKN240 23/16 A2987 RMK SC2AC2CI2 SLP114

CYQB;2008-07-20 23:00;CYQB 202300Z 00000KT 15SM FEW030 FEW170 OVC200 22/17 A2986 RMK SC2AC1CI5 SLP112

CYQB;2008-07-21 00:00;CYQB 210000Z 20002KT 15SM FEW030 BKN170 21/17 A2986 RMK SC2AC5 SLP114

CYQB;2008-07-21 01:00;CYQB 210100Z 00000KT 15SM FEW030 FEW080 BKN170 BKN220 20/18 A2987 RMK SC1AC1AC4CI0 SLP115

CYQB;2008-07-21 02:00;CYQB 210200Z 36002KT 15SM FEW030 FEW080 BKN170 BKN220 19/17 A2987 RMK SC1AC1AC3CI0 SLP116

CYQB;2008-07-21 03:00;CYQB 210300Z 01002KT 15SM FEW030 FEW080 BKN170 19/16 A2986 RMK SC1AC2CI2 SLP110

CYQB;2008-07-21 04:00;CYQB 210400Z 36003KT 15SM FEW030 FEW080 BKN200 18/17 A2985 RMK SC1AC2CI2 SLP108

CYQB;2008-07-21 05:00;CYQB 210500Z 03005KT 15SM FEW200 18/16 A2983 RMK CI2 SLP103

CYQB;2008-07-21 06:00;CYQB 210600Z 03003KT 15SM FEW200 17/16 A2983 RMK CI1 SLP101

CYQB;2008-07-21 07:00;CYQB 210700Z 01004KT 15SM FEW200 17/15 A2983 RMK CI1 SLP100

CYQB;2008-07-21 08:00;CYQB 210800Z 03006KT 15SM FEW200 17/15 A2982 RMK CI1 SLP099

CYQB;2008-07-21 09:00;CYQB 210900Z 03003KT 15SM FEW030 FEW080 FEW200 16/15 A2984 RMK SC1AC1CI1 SLP104

CYQB;2008-07-21 10:00;CYQB 211000Z 03003KT 15SM FEW009 OVC012 16/15 A2985 RMK SF1SC6 MT TOPS OBSCD N SLP108

CYQB;2008-07-21 11:00;CYQB 211100Z 07005KT 15SM FEW009 BKN240 18/15 A2986 RMK SF1CI2 SLP112

CYQB;2008-07-21 12:00;CYQB 211200Z 08009KT 15SM FEW010 BKN240 19/15 A2988 RMK SF1CI1 SLP118

CYQB;2008-07-21 13:00;CYQB 211300Z 06011KT 15SM FEW012 BKN240 19/16 A2988 RMK SF1CI3 SLP119

CYQB;2008-07-21 14:00;CYQB 211400Z 09010KT 15SM FEW015 BKN230 19/16 A2989 RMK SF1CC5 SLP123

CYQB;2008-07-21 15:00;CYQB 211500Z 08008KT 15SM FEW160 OVC230 19/16 A2989 RMK AC2CI2 SLP122

CYQB;2008-07-21 16:00;CYQB 211600Z 07009KT 15SM FEW170 OVC230 20/16 A2989 RMK AC2CI2 TCU ALL QUAD SLP121

CYQB;2008-07-21 17:00;CYQB 211700Z 11010KT 15SM FEW170 OVC230 20/17 A2989 RMK AC2CS2 TCU ALL QUAD SLP121

CYQB;2008-07-21 18:00;CYQB 211800Z 09011G17KT 15SM FEW160 OVC230 20/16 A2989 RMK AC2CS4 TCU ALL QUAD CB N SLP121

CYQB;2008-07-21 19:00;CYQB 211900Z 10010KT 15SM BKN160 OVC230 20/16 A2991 RMK AC6CS2 TCU ALL QUAD SLP129

CYQB;2008-07-21 20:00;CYQB 212000Z 12008KT 15SM FEW025 SCT160 BKN210 21/17 A2990 RMK SC2AC2CI2 SLP126

CYQB;2008-07-21 21:00;CYQB 212100Z 09007KT 15SM FEW025 SCT160 BKN210 21/17 A2989 RMK SC2AC2CI2 SLP123

CYQB;2008-07-21 22:00;CYQB 212200Z 08011G20KT 15SM FEW025 SCT160 BKN210 20/15 A2989 RMK SC2AC2CI2 SLP122

CYQB;2008-07-21 23:00;CYQB 212300Z 07013G19KT 15SM FEW025 BKN180 BKN210 20/15 A2989 RMK SC2AC3CI0 TCU N SLP124

CYQB;2008-07-22 00:00;CYQB 220000Z 08011G16KT 15SM FEW025 BKN090 BKN210 19/16 A2991 RMK SC1AC5CI0 SLP129

CYQB;2008-07-22 01:00;CYQB 220100Z 09009KT 15SM BKN090 BKN120 18/15 A2992 RMK AC6AC1 OBS TAKEN +14 SLP131

CYQB;2008-07-22 02:00;CYQB 220200Z 10014G19KT 5SM BR BKN007 17/15 A2994 RMK ST7 VIS LWR E SLP141

CYQB;2008-07-22 02:33;CYQB 220233Z 07011G16KT 5SM BR BKN004 16/ RMK ST7

CYQB;2008-07-22 03:00;CYQB 220300Z 07013G18KT 6SM BR BKN006 16/15 A2994 RMK ST6 SLP141

CYQB;2008-07-22 03:40;CYQB 220340Z 07010G17KT 6SM BR BKN008 16/ RMK ST6

CYQB;2008-07-22 04:00;CYQB 220400Z 07006KT 6SM BR OVC006 16/15 A2994 RMK ST8 SLP140

CYQB;2008-07-22 05:00;CYQB 220500Z 06007KT 6SM BR OVC006 16/15 A2994 RMK ST8 SLP141

CYQB;2008-07-22 06:00;CYQB 220600Z 08011KT 6SM BR OVC008 16/15 A2996 RMK ST8 SLP146

CYQB;2008-07-22 07:00;CYQB 220700Z 08011KT 6SM BR BKN007 16/15 A2995 RMK ST7 SLP143

CYQB;2008-07-22 08:00;CYQB 220800Z 07006KT 6SM BR OVC006 16/15 A2995 RMK ST8 SLP143

CYQB;2008-07-22 09:00;CYQB 220900Z 07007KT 6SM BR OVC007 16/15 A2995 RMK ST8 SLP142

CYQB;2008-07-22 10:00;CYQB 221000Z 08007G16KT 6SM BR OVC007 16/15 A2997 RMK ST8 SLP149

CYQB;2008-07-22 11:00;CYQB 221100Z 07009G15KT 6SM BR OVC008 17/15 A2998 RMK ST8 SLP153

CYQB;2008-07-22 12:00;CYQB 221200Z 07014KT 6SM BR OVC011 16/15 A2999 RMK ST8 SLP157

CYQB;2008-07-22 13:00;CYQB 221300Z 07010G17KT 8SM -SHRA SCT011 BKN017 OVC100 16/15 A3001 RMK ST3SC4AC1 SLP162

CYQB;2008-07-22 13:13;CYQB 221313Z 08012KT 7SM SCT011 BKN017 OVC120 17/ RMK ST3SC4AC1

CYQB;2008-07-22 14:00;CYQB 221400Z 08010G15KT 10SM SCT010 BKN140 18/16 A3000 RMK ST3AC4 SLP161

CYQB;2008-07-22 15:00;CYQB 221500Z 08013G20KT 12SM SCT012 BKN093 19/16 A3001 RMK ST3AC4 SLP163

CYQB;2008-07-22 16:00;CYQB 221600Z 09010G16KT 12SM FEW012 BKN090 19/16 A3001 RMK CF1AC6 SLP162

CYQB;2008-07-22 17:00;CYQB 221700Z 08014G20KT 15SM SCT015 BKN090 OVC230 21/17 A3000 RMK CF3AC3CI0 SLP160

CYQB;2008-07-22 18:00;CYQB 221800Z 09010G19KT 15SM FEW020 FEW090 BKN230 21/17 A2999 RMK CU1AC1CI2 SLP155

CYQB;2008-07-22 19:00;CYQB 221900Z 09014G20KT 15SM FEW020 SCT090 BKN230 21/17 A2997 RMK CU2AC2CC2 TCU N SLP151

CYQB;2008-07-22 20:00;CYQB 222000Z 07023G30KT 15SM FEW020 BKN130 BKN230 22/17 A2997 RMK CU2AC3CC2 TCU EMBDD SLP148

CYQB;2008-07-22 21:00;CYQB 222100Z 07017G26KT 15SM FEW020 BKN110 OVC230 21/16 A2998 RMK SC2AC4CI2 SLP152

CYQB;2008-07-22 22:00;CYQB 222200Z 07012KT 15SM -SHRA FEW025 BKN047 OVC110 20/16 A2998 RMK SC2SC5AC2 SLP152

CYQB;2008-07-22 23:00;CYQB 222300Z 07014G20KT 15SM -SHRA FEW025 OVC110 18/16 A2999 RMK SC2AC6 SLP155

CYQB;2008-07-22 23:16;CYQB 222316Z 07016G21KT 15SM FEW025 OVC110 18/ RMK SC1AC7

CYQB;2008-07-23 00:00;CYQB 230000Z 07015KT 15SM SCT040 OVC100 18/16 A2999 RMK SC3AC5 SLP157

CYQB;2008-07-23 00:11;CYQB 230011Z 08012KT 15SM -SHRA SCT040 OVC090 18/ RMK SC3AC5

CYQB;2008-07-23 01:00;CYQB 230100Z 08013KT 15SM -SHRA SCT040 OVC094 18/16 A2999 RMK SC4AC4 SLP157

CYQB;2008-07-23 02:00;CYQB 230200Z 07013KT 5SM -SHRA BR FEW015 BKN085 17/16 A3000 RMK SC1AC6 VIS LWR E SLP159

CYQB;2008-07-23 03:00;CYQB 230300Z 09008KT 5SM -SHRA FEW009 BKN040 OVC090 17/16 A3000 RMK SF1SC5AC2 SLP160

CYQB;2008-07-23 04:00;CYQB 230400Z 09009KT 10SM FEW009 BKN022 OVC090 17/16 A3000 RMK SF1SC7AC1 OCNL -SHRA SLP161

CYQB;2008-07-23 05:00;CYQB 230500Z 07013KT 10SM SCT006 BKN025 BKN070 17/16 A3000 RMK SF2SC4AC1 SLP158

CYQB;2008-07-23 06:00;CYQB 230600Z 07012G18KT 15SM FEW006 BKN039 BKN120 17/16 A3000 RMK SF1SC6AC1 SLP160

CYQB;2008-07-23 07:00;CYQB 230700Z 08010G15KT 15SM FEW010 OVC039 17/16 A3001 RMK SF1SC7 SLP164

CYQB;2008-07-23 08:00;CYQB 230800Z 08014KT 15SM FEW010 OVC036 18/17 A3001 RMK SF1SC7 SLP162

CYQB;2008-07-23 09:00;CYQB 230900Z 07017KT 15SM FEW010 BKN025 18/17 A3002 RMK SF1SC6 SLP165

CYQB;2008-07-23 10:00;CYQB 231000Z 08014G19KT 15SM FEW010 OVC022 18/17 A3003 RMK SF1SC6 SLP168

CYQB;2008-07-23 11:00;CYQB 231100Z 09007G17KT 15SM FEW010 OVC019 18/16 A3005 RMK SF1SC7 SLP175

CYQB;2008-07-23 11:03;CYQB 231103Z 09009G17KT 15SM -SHRA FEW010 OVC017 18/ RMK SF1SC7

CYQB;2008-07-23 12:00;CYQB 231200Z 08009KT 20SM FEW010 OVC020 18/17 A3005 RMK SF1SC7 SLP177

CYQB;2008-07-23 13:00;CYQB 231300Z 07015KT 30SM FEW010 OVC020 18/16 A3007 RMK SF1SC7 SLP182

CYQB;2008-07-23 14:00;CYQB 231400Z 07013G20KT 30SM FEW010 OVC021 18/16 A3008 RMK SF1SC8 SLP185

CYQB;2008-07-23 14:18;CYQB 231418Z 07016KT 20SM SHRA FEW010 OVC018 18/ RMK SF1SC8

CYQB;2008-07-23 14:43;CYQB 231443Z 07016KT 30SM FEW010 OVC020 19/ RMK SF1SC8 RERA

CYQB;2008-07-23 15:00;CYQB 231500Z 08015G22KT 30SM OVC022 19/16 A3008 RMK SC7 RERA SLP188

CYQB;2008-07-23 16:00;CYQB 231600Z 07016G25KT 30SM OVC024 20/16 A3008 RMK SC7 SLP187

CYQB;2008-07-23 17:00;CYQB 231700Z 06016G27KT 30SM SCT025 BKN051 20/16 A3008 RMK SC3SC4 SLP185

CYQB;2008-07-23 18:00;CYQB 231800Z 07020G26KT 30SM FEW025 SCT050 SCT090 OVC210 20/16 A3006 RMK SC1SC2AC1CI2 SLP179

CYQB;2008-07-23 19:00;CYQB 231900Z 07015G24KT 30SM BKN034 BKN090 OVC210 21/16 A3006 RMK SC5AC2CI1 SLP178

CYQB;2008-07-23 20:00;CYQB 232000Z 07015G21KT 30SM BKN035 BKN093 OVC210 21/16 A3007 RMK SC6AC1CI1 SLP183

CYQB;2008-07-23 21:00;CYQB 232100Z 08013G22KT 30SM OVC037 21/16 A3007 RMK SC8 SLP184

CYQB;2008-07-23 22:00;CYQB 232200Z 07010G18KT 30SM OVC030 20/16 A3008 RMK SC8 SLP185

CYQB;2008-07-23 22:34;CYQB 232234Z 07014KT 30SM -SHRA OVC031 20/ RMK SC8

CYQB;2008-07-23 23:00;CYQB 232300Z 07015KT 20SM -SHRA OVC029 20/16 A3008 RMK SC8 SLP185

CYQB;2008-07-23 23:23;CYQB 232323Z 07016G21KT 20SM OVC033 20/ RMK SC8

CYQB;2008-07-24 00:00;CYQB 240000Z 07016KT 15SM OVC025 19/16 A3008 RMK SC8 SLP188

CYQB;2008-07-24 00:02;CYQB 240002Z 07013G20KT 15SM -SHRA OVC023 19/ RMK SC8

CYQB;2008-07-24 00:24;CYQB 240024Z 07015G20KT 2SM -SHRA BR OVC012 18/ RMK SC8

CYQB;2008-07-24 00:50;CYQB 240050Z 07014KT 6SM -SHRA BR SCT004 OVC015 18/ RMK SF3SC5

CYQB;2008-07-24 01:00;CYQB 240100Z 07012G19KT 8SM -SHRA BKN005 OVC018 18/17 A3008 RMK SF5SC3 SLP187

CYQB;2008-07-24 01:29;CYQB 240129Z 07013KT 10SM FEW004 OVC020 18/ RMK SF2SC6

CYQB;2008-07-24 02:00;CYQB 240200Z 07013KT 15SM FEW008 OVC023 18/18 A3008 RMK SF2SC6 SLP187

CYQB;2008-07-24 03:00;CYQB 240300Z 08010G15KT 15SM FEW008 OVC019 18/17 A3006 RMK SF1SC7 SLP181

CYQB;2008-07-24 03:44;CYQB 240344Z 08008G16KT 6SM -SHRA FEW008 OVC016 18/ RMK SF2SC6

CYQB;2008-07-24 04:00;CYQB 240400Z 09009KT 5SM -SHRA FEW008 OVC016 18/17 A3007 RMK SF2SC6 SLP182

CYQB;2008-07-24 05:00;CYQB 240500Z 07009G16KT 5SM -SHRA FEW006 OVC015 18/17 A3006 RMK SF2SC6 SLP181

CYQB;2008-07-24 06:00;CYQB 240600Z 07012G18KT 6SM -SHRA SCT006 BKN020 OVC050 18/17 A3004 RMK SF2SC5SC1 SLP174

CYQB;2008-07-24 07:00;CYQB 240700Z 07012G17KT 10SM -SHRA FEW006 BKN016 OVC070 18/17 A3004 RMK SF2SC6AC1 SLP173

CYQB;2008-07-24 08:00;CYQB 240800Z 08009KT 6SM -SHRA FEW007 OVC014 18/17 A3004 RMK SF2SC6 SLP173

CYQB;2008-07-24 09:00;CYQB 240900Z 09010KT 3SM -SHRA SCT004 OVC009 18/17 A3004 RMK SF4SC4 SLP174

CYQB;2008-07-24 10:00;CYQB 241000Z 06011KT 5SM -SHRA BR BKN005 OVC019 18/17 A3003 RMK SF4SC4 SLP170

CYQB;2008-07-24 11:00;CYQB 241100Z 08010G18KT 6SM -SHRA BR SCT005 BKN018 OVC180 18/17 A3000 RMK SF3SC3AC1 SLP159

CYQB;2008-07-24 11:41;CYQB 241141Z 08010G15KT 20SM SCT007 OVC017 19/ RMK SF3SC4

CYQB;2008-07-24 12:00;CYQB 241200Z 10010KT 30SM FEW007 BKN018 OVC180 19/18 A3002 RMK SF2SC4AC1 SLP166

CYQB;2008-07-24 13:00;CYQB 241300Z 07008KT 30SM FEW009 BKN023 OVC090 20/18 A3003 RMK SF2SC4AC1 SLP170

CYQB;2008-07-24 14:00;CYQB 241400Z 07011KT 30SM FEW012 BKN030 BKN090 21/18 A3002 RMK SF2SC4AC2 SLP166

CYQB;2008-07-24 15:00;CYQB 241500Z 08011G17KT 30SM FEW015 BKN030 BKN100 22/20 A3000 RMK SF2SC2AC2 SLP161

CYQB;2008-07-24 16:00;CYQB 241600Z 08014KT 30SM FEW020 BKN150 BKN220 23/19 A3001 RMK SC2AC2CI2 SLP163

CYQB;2008-07-24 17:00;CYQB 241700Z 07011G16KT 30SM FEW025 BKN050 OVC086 22/19 A2999 RMK SC2SC2AC2 SHWRS SW SLP156

CYQB;2008-07-24 18:00;CYQB 241800Z 08014G19KT 30SM FEW025 BKN042 OVC080 22/19 A2997 RMK SC2SC4AC2 SHWRS SW SLP148

CYQB;2008-07-24 19:00;CYQB 241900Z 05009KT 30SM FEW030 BKN044 OVC210 23/18 A2994 RMK SC1SC6CI1 SH DIST N SLP141

CYQB;2008-07-24 20:00;CYQB 242000Z 08010KT 30SM FEW025TCU FEW044 BKN120 OVC220 24/20 A2995 RMK TCU1SC2AC3CI2 TCU S SLP142

CYQB;2008-07-24 21:00;CYQB 242100Z 09008G17KT 30SM SCT045 BKN090 OVC220 24/20 A2992 RMK SC4AC2CI2 SLP133

CYQB;2008-07-24 21:29;CYQB 242129Z 27014G21KT 20SM -SHRA FEW015 SCT025 BKN090 OVC220 21/ RMK CF1NS4AC3CI1 VIS SW-N 5

CYQB;2008-07-24 21:38;CYQB 242138Z 22020G27KT 1/2SM R06/P6000FT/D +SHRA FG OVC020 20/ RMK RA2NS6 TCU EMBD

CYQB;2008-07-24 21:45;CYQB 242145Z 22014G27KT 1SM R06/4500VP6000FT/D SHRA BR BKN009 OVC025 19/ RMK FG2SF5NS2 TCU EMBD

CYQB;2008-07-24 21:49;CYQB 242149Z CCA 22014G27KT 1SM R06/4500VP6000FT/D SHRA BR BKN009 OVC025 19/ RMK FG2SF5NS2 TCU EMBD RERA

CYQB;2008-07-24 21:50;CYQB 242150Z 19011G16KT 1 1/2SM -SHRA BR SCT011 OVC028 19/ RMK FG1SF3SC4 TCU EMBD RERA

CYQB;2008-07-24 22:00;CYQB 242200Z 19009KT 1 1/2SM -SHRA BR SCT010 OVC020 19/18 A2997 RMK FG1SF3SC4 TCU EMBD MT TOPS OBSCD N TCU EMBDD VIS N 4 RERA SLP149

CYQB;2008-07-24 22:08;CYQB 242208Z 13006KT 5SM -SHRA FEW010 SCT020 OVC073 19/ RMK SF2SC2AC4 MT OBSCD N TCU EMBD

CYQB;2008-07-24 23:00;CYQB 242300Z 04006KT 8SM -SHRA FEW012 SCT025 OVC066 19/18 A2997 RMK SF2SC2AC5 MT TOPS OBSCD N SLP147

CYQB;2008-07-24 23:52;CYQB 242352Z 03005KT 12SM FEW015 FEW035 OVC140 19/ RMK SF1SC2AC6

CYQB;2008-07-25 00:00;CYQB 250000Z 05004KT 12SM FEW015 SCT035 OVC130 19/18 A2997 RMK SF1SC3AC5 SLP148

CYQB;2008-07-25 01:00;CYQB 250100Z 07005KT 15SM FEW015 BKN066 OVC120 20/19 A2997 RMK SF1AC5AC3 SLP149

CYQB;2008-07-25 02:00;CYQB 250200Z 10004KT 15SM SCT046 OVC090 20/19 A2997 RMK SC4AC4 SLP151

CYQB;2008-07-25 03:00;CYQB 250300Z 07002KT 15SM SCT045 BKN090 BKN240 20/18 A2997 RMK SC2AC1CI1 SLP149

CYQB;2008-07-25 04:00;CYQB 250400Z 08005KT 15SM FEW015 FEW045 BKN240 19/17 A2998 RMK SC1SC2CI0 SLP151

CYQB;2008-07-25 05:00;CYQB 250500Z 05003KT 15SM FEW045 BKN220 19/17 A2997 RMK SC2CI1 SLP149

CYQB;2008-07-25 06:00;CYQB 250600Z 09006KT 15SM FEW045 OVC220 19/17 A2996 RMK SC2CI2 SLP144

CYQB;2008-07-25 07:00;CYQB 250700Z 07002KT 15SM SCT030 BKN100 OVC220 19/17 A2997 RMK SC3AC2CI2 SLP150

CYQB;2008-07-25 07:29;CYQB 250729Z 08004KT 15SM -SHRA BKN028 OVC110 RMK SC6AC2

CYQB;2008-07-25 08:00;CYQB 250800Z 15006KT 12SM -SHRA FEW015 BKN020 OVC080 18/17 A2999 RMK SC2SC5AC1 SLP154

CYQB;2008-07-25 09:00;CYQB 250900Z 13002KT 15SM FEW015 SCT025 OVC100 18/17 A3000 RMK SC2SC2AC4 SLP157

CYQB;2008-07-25 10:00;CYQB 251000Z 00000KT 15SM FEW013 BKN030 BKN090 18/16 A3001 RMK SF1SC4AC2 SLP162

CYQB;2008-07-25 11:00;CYQB 251100Z 00000KT 15SM SCT028 BKN041 18/17 A3002 RMK SC3SC4 SLP166

CYQB;2008-07-25 12:00;CYQB 251200Z 18003KT 15SM FEW028 BKN050 19/17 A3003 RMK SC2SC4 SLP169

CYQB;2008-07-25 13:00;CYQB 251300Z 22008KT 20SM BKN025 BKN090 20/17 A3003 RMK SC6AC2 SLP169

CYQB;2008-07-25 14:00;CYQB 251400Z 24011KT 20SM BKN030 BKN090 21/17 A3003 RMK SC6AC1 SLP169

CYQB;2008-07-25 15:00;CYQB 251500Z 22010G15KT 30SM BKN027 BKN090 BKN230 22/17 A3003 RMK SC5AC1CI1 CU ASOCTD SLP168

CYQB;2008-07-25 16:00;CYQB 251600Z 23009G15KT 30SM SCT030 SCT230 23/18 A3002 RMK CU4CI1 SLP166

CYQB;2008-07-25 17:00;CYQB 251700Z 23014KT 30SM SCT035 SCT090 SCT230 24/17 A3000 RMK CU4AC1CI1 SLP161

CYQB;2008-07-25 18:00;CYQB 251800Z 22009KT 30SM BKN035 BKN180 25/17 A3000 RMK CU6CI1 SLP159

CYQB;2008-07-25 19:00;CYQB 251900Z 21014KT 30SM BKN035 BKN067 24/17 A3000 RMK SC6AC1 SLP158

CYQB;2008-07-25 19:07;CYQB 251907Z 22012G17KT 15SM -SHRA BKN030 24/ RMK SC6 TCU N

CYQB;2008-07-25 19:24;CYQB 251924Z 23010G16KT 30SM SCT030 BKN120 25/ RMK SC4AC2

CYQB;2008-07-25 19:44;CYQB 251944Z 25009KT 15SM -SHRA FEW030 BKN060 BKN077 23/ RMK SC2AC2AC1

CYQB;2008-07-25 20:00;CYQB 252000Z 26010KT 30SM FEW030 SCT060 BKN160 23/18 A2999 RMK SC2AC2AC2 SLP155

CYQB;2008-07-25 21:00;CYQB 252100Z 23011G16KT 30SM FEW030 SCT230 25/17 A2998 RMK CU1CI2 SLP153

CYQB;2008-07-25 22:00;CYQB 252200Z 23009KT 30SM FEW030 SCT230 25/18 A2997 RMK SC2CI0 SLP148

CYQB;2008-07-25 23:00;CYQB 252300Z 23005KT 15SM FEW030 SCT230 24/17 A2997 RMK SC2CI1 TCU EMBDD SLP149

CYQB;2008-07-26 00:00;CYQB 260000Z 26005KT 15SM FEW030TCU FEW070 BKN230 23/17 A2998 RMK TCU1AC2CI1 SLP153

CYQB;2008-07-26 01:00;CYQB 260100Z 24003KT 15SM FEW030TCU FEW080 BKN230 21/16 A2999 RMK TCU1AC1CI1 TCU N SLP155

CYQB;2008-07-26 02:00;CYQB 260200Z 00000KT 15SM FEW030 20/17 A2999 RMK SC2 SLP155

CYQB;2008-07-26 03:00;CYQB 260300Z 18005KT 15SM SKC 19/16 A2998 RMK SLP154

CYQB;2008-07-26 04:00;CYQB 260400Z 27003KT 15SM FEW260 18/16 A2998 RMK CI1 SLP154

CYQB;2008-07-26 05:00;CYQB 260500Z 00000KT 15SM FEW260 17/16 A2997 RMK CI1 SLP151

CYQB;2008-07-26 06:00;CYQB 260600Z 00000KT 15SM SKC 16/15 A2997 RMK SLP151

CYQB;2008-07-26 07:00;CYQB 260700Z 02003KT 15SM SKC 17/15 A2996 RMK SLP146

CYQB;2008-07-26 08:00;CYQB 260800Z 35002KT 15SM FEW220 16/15 A2995 RMK CI0 SLP143

CYQB;2008-07-26 09:00;CYQB 260900Z 02004KT 15SM FEW100 FEW220 16/15 A2995 RMK AC1CI0 SLP141

CYQB;2008-07-26 10:00;CYQB 261000Z 01003KT 30SM SCT250 16/15 A2995 RMK CI1 SLP141

CYQB;2008-07-26 11:00;CYQB 261100Z 05003KT 30SM BKN250 18/16 A2995 RMK CI1 SLP141

CYQB;2008-07-26 12:00;CYQB 261200Z 00000KT 30SM BKN230 20/16 A2994 RMK CI1 CC ASOCTD SLP139

CYQB;2008-07-26 13:00;CYQB 261300Z 00000KT 30SM FEW160 BKN230 21/16 A2992 RMK AC1CI1 SLP132

CYQB;2008-07-26 14:00;CYQB 261400Z 25004KT 30SM FEW040TCU FEW160 BKN230 23/17 A2991 RMK TCU1AC1CI1 SLP127

CYQB;2008-07-26 15:00;CYQB 261500Z 22003KT 30SM BKN069 BKN160 BKN230 24/17 A2989 RMK AC6AC1CI1 SLP121

CYQB;2008-07-26 16:00;CYQB 261600Z 25005KT 30SM FEW060 SCT160 BKN230 26/18 A2986 RMK CU1AC1CI1 SLP113

CYQB;2008-07-26 17:00;CYQB 261700Z 22007KT 30SM FEW065TCU SCT160 BKN230 26/18 A2984 RMK TCU1AC1CI1 SLP105

CYQB;2008-07-26 18:00;CYQB 261800Z 24010KT 30SM FEW065 BKN230 26/17 A2981 RMK CU2CI1 SLP096

CYQB;2008-07-26 19:00;CYQB 261900Z 23010G15KT 30SM FEW065 SCT160 BKN230 27/18 A2979 RMK CU1AC2CI1 SLP087

CYQB;2008-07-26 20:00;CYQB 262000Z 24009KT 30SM FEW060 FEW120 BKN230 27/18 A2976 RMK CU2AC1CI0 SLP079

CYQB;2008-07-26 21:00;CYQB 262100Z 27006KT 30SM -SHRA BKN060TCU BKN120 BKN230 25/18 A2975 RMK TCU5AC1CI0 SLP075

CYQB;2008-07-26 21:48;CYQB 262148Z 27003KT 30SM BKN060TCU BKN120 BKN230 23/ RMK TCU5AC1CI1

CYQB;2008-07-26 22:00;CYQB 262200Z 28006KT 30SM BKN060TCU BKN120 BKN230 23/19 A2975 RMK TCU5AC1CI1 SLP074

CYQB;2008-07-26 22:18;CYQB 262218Z 26010KT 30SM TS BKN020TCU BKN120 BKN230 RMK TCU5AC1CI1 CB TOP EST NE

CYQB;2008-07-26 22:49;CYQB 262249Z 26012KT 30SM BKN060TCU BKN230 RMK TCU6CI1

CYQB;2008-07-26 23:00;CYQB 262300Z 27011KT 30SM BKN060TCU BKN140 22/18 A2975 RMK TCU5AC2 SH S SLP073

CYQB;2008-07-27 00:00;CYQB 270000Z 22005KT 30SM BKN070TCU BKN100 OVC230 21/18 A2975 RMK TCU5AC1CI2 SLP074

CYQB;2008-07-27 00:20;CYQB 270020Z 23006KT 30SM -SHRA BKN066TCU BKN100 OVC230 RMK TCU6AC2CI1

CYQB;2008-07-27 01:00;CYQB 270100Z 24004KT 6SM -SHRA SCT040 OVC060TCU 19/18 A2975 RMK SC3TCU5 SLP074

CYQB;2008-07-27 02:00;CYQB 270200Z 23006KT 10SM -SHRA FEW015 OVC040 19/18 A2976 RMK CF2SC6 SLP077

CYQB;2008-07-27 03:00;CYQB 270300Z 22005KT 6SM BR BKN011 OVC040 19/18 A2974 RMK SF6SC2 SLP071

CYQB;2008-07-27 04:00;CYQB 270400Z 22003KT 10SM BKN017 OVC060 19/18 A2974 RMK SF5SC3 SLP070

CYQB;2008-07-27 05:00;CYQB 270500Z 19003KT 10SM FEW011 SCT060 OVC110 18/17 A2972 RMK SF2SC2AC4 CLDS TPG HILL N SLP065

CYQB;2008-07-27 05:16;CYQB 270516Z 13003KT 6SM -SHRA BR FEW010 SCT060 OVC110 18/ RMK SF2SC2AC4 CLDS TPG HILL N

CYQB;2008-07-27 05:49;CYQB 270549Z 16002KT 6SM BR FEW010 FEW060 BKN110 BKN240 18/ RMK SF2SC1AC3CI0 CLDS TPG HILL N

CYQB;2008-07-27 06:00;CYQB 270600Z 13003KT 10SM FEW010 FEW060 SCT110 BKN240 18/17 A2971 RMK SF1SC2AC2CI1 SLP060

CYQB;2008-07-27 07:00;CYQB 270700Z 07002KT 10SM FEW010 BKN050 OVC240 18/17 A2971 RMK SF1SC6CI0 SLP059

CYQB;2008-07-27 08:00;CYQB 270800Z 04003KT 10SM FEW011 FEW030 BKN240 18/17 A2969 RMK SF1SC2CI2 SLP053

CYQB;2008-07-27 09:00;CYQB 270900Z 00000KT 15SM FEW010 BKN021 OVC060 18/17 A2971 RMK SF1SC6SC1 SLP059

CYQB;2008-07-27 10:00;CYQB 271000Z 20004KT 6SM BR BKN010 OVC018 19/17 A2971 RMK SF5SC3 SLP061

CYQB;2008-07-27 10:38;CYQB 271038Z 00000KT 6SM BR BKN008 OVC030 19/ RMK SF7SC1

CYQB;2008-07-27 11:00;CYQB 271100Z 26002KT 6SM BR BKN007 OVC030 19/18 A2972 RMK ST7SC1 SLP063

CYQB;2008-07-27 11:40;CYQB 271140Z 24008KT 4SM BR BKN010 19/ RMK SF7

CYQB;2008-07-27 12:00;CYQB 271200Z 23008KT 6SM BR BKN010 20/18 A2973 RMK SF7 CIG RAG SLP067

CYQB;2008-07-27 12:34;CYQB 271234Z 23009KT 4SM BR BKN015 BKN019 20/ RMK SF6SC1 CIG RAG

CYQB;2008-07-27 13:00;CYQB 271300Z 22010KT 8SM BKN016 21/18 A2973 RMK SC6 CU ASOCTD SLP067

CYQB;2008-07-27 14:00;CYQB 271400Z 21016KT 10SM BKN020 22/18 A2972 RMK SC5 TCU ASOCTD SLP064

CYQB;2008-07-27 15:00;CYQB 271500Z 23016KT 10SM SCT024 23/18 A2972 RMK SC4 CU ASOCTD SLP065

CYQB;2008-07-27 16:00;CYQB 271600Z 24015KT 15SM SCT030 24/17 A2972 RMK SC4 TCU ASOCTD SLP066

CYQB;2008-07-27 17:00;CYQB 271700Z 24016G22KT 15SM BKN035 24/17 A2972 RMK CU6 TCU ASOCTD SLP065

CYQB;2008-07-27 17:39;CYQB 271739Z 23011G17KT 30SM -SHRA BKN040 BKN072 RMK CU6AC1 TCU ASOCTD

CYQB;2008-07-27 18:00;CYQB 271800Z 24012G17KT 30SM SCT040 24/17 A2972 RMK CU4 SLP065

CYQB;2008-07-27 19:00;CYQB 271900Z 23013KT 30SM FEW040 25/17 A2971 RMK CU2 SLP061

CYQB;2008-07-27 20:00;CYQB 272000Z 24010G16KT 30SM SCT045 25/16 A2971 RMK CU3 SLP060

CYQB;2008-07-27 21:00;CYQB 272100Z 24010G17KT 30SM SCT040 24/16 A2971 RMK CU3 SLP060

CYQB;2008-07-27 22:00;CYQB 272200Z 25011G16KT 30SM SCT045 24/15 A2971 RMK CU3 SLP062

CYQB;2008-07-27 23:00;CYQB 272300Z 26006KT 30SM FEW050TCU BKN110 BKN230 23/16 A2973 RMK TCU1AC5CI1 SLP069

CYQB;2008-07-28 00:00;CYQB 280000Z 30004KT 30SM FEW050TCU BKN084 BKN230 22/16 A2975 RMK TCU2AC4CI1 SLP073

CYQB;2008-07-28 01:00;CYQB 280100Z 00000KT 15SM FEW050 BKN120 21/16 A2974 RMK CU1AC6 SLP071

CYQB;2008-07-28 02:00;CYQB 280200Z 27002KT 15SM FEW050 BKN100 20/16 A2975 RMK CU1AC6 SLP076

CYQB;2008-07-28 03:00;CYQB 280300Z 00000KT 15SM FEW050 BKN100 19/16 A2975 RMK CU1AC5 SLP076

CYQB;2008-07-28 04:00;CYQB 280400Z 01004KT 15SM BKN100 18/16 A2975 RMK AC5 SLP076

CYQB;2008-07-28 05:00;CYQB 280500Z 05002KT 15SM FEW100 17/16 A2975 RMK AC1 SLP074

CYQB;2008-07-28 06:00;CYQB 280600Z 01004KT 15SM FEW050 FEW100 17/16 A2974 RMK SC1AC1 SLP072

CYQB;2008-07-28 07:00;CYQB 280700Z 00000KT 15SM SKC 16/15 A2973 RMK SLP068

CYQB;2008-07-28 08:00;CYQB 280800Z 01003KT 15SM SKC 16/15 A2973 RMK SLP068

CYQB;2008-07-28 09:00;CYQB 280900Z 03002KT 15SM FEW060 16/15 A2974 RMK SC1 SLP070

CYQB;2008-07-28 10:00;CYQB 281000Z 02002KT 15SM BKN056 BKN090 16/14 A2975 RMK SC5AC2 SLP076

CYQB;2008-07-28 11:00;CYQB 281100Z 01002KT 20SM SCT060 BKN120 BKN200 16/15 A2977 RMK SC3AC3CI1 SLP080

CYQB;2008-07-28 12:00;CYQB 281200Z 00000KT 15SM FEW020 BKN060 BKN120 17/15 A2977 RMK SF1SC5AC2 SLP082

CYQB;2008-07-28 12:25;CYQB 281225Z 28002KT 15SM -SHRA BKN055 BKN120 17/ RMK SC6AC2

CYQB;2008-07-28 13:00;CYQB 281300Z 00000KT 8SM -SHRA FEW015 BKN060 OVC120 18/16 A2978 RMK SF1SC6AC2 SLP084

CYQB;2008-07-28 13:30;CYQB 281330Z 00000KT 8SM FEW006 BKN060 OVC100 18/ RMK SF1SC5AC3

CYQB;2008-07-28 14:00;CYQB 281400Z 07002KT 15SM FEW006 BKN060 BKN100 19/17 A2977 RMK SF1SC5AC2 SLP080

CYQB;2008-07-28 15:00;CYQB 281500Z 36003KT 15SM -SHRA FEW006 BKN050 BKN100 19/16 A2977 RMK SF2SC3AC2 SLP081

CYQB;2008-07-28 16:00;CYQB 281600Z 36005KT 15SM FEW006 BKN033 BKN080 20/17 A2976 RMK SF1SC5AC2 SLP078

CYQB;2008-07-28 17:00;CYQB 281700Z 01004KT 12SM FEW025 SCT048 BKN100 21/17 A2974 RMK CF1SC3AC2 SLP071

CYQB;2008-07-28 17:10;CYQB 281710Z 32003KT 10SM R06/4500VP6000FT/D -SHRA FEW025 BKN048 BKN100 20/ RMK CF1SC4AC2 VIS E-S 1

CYQB;2008-07-28 17:49;CYQB 281749Z 04003KT 10SM SCT020TCU BKN050 BKN100 20/ RMK TCU4SC2AC1

CYQB;2008-07-28 18:00;CYQB 281800Z CCA 01003KT 10SM SCT020TCU BKN050 BKN080 21/17 A2974 RMK TCU4SC2AC1 SLP071

CYQB;2008-07-28 19:00;CYQB 281900Z 00000KT 10SM SCT020TCU BKN050 BKN080 22/18 A2973 RMK TCU3SC2AC1 SLP068

CYQB;2008-07-28 20:00;CYQB 282000Z 20002KT 10SM SCT034TCU BKN080 22/17 A2972 RMK TCU3AC2 SLP066

CYQB;2008-07-28 20:09;CYQB 282009Z 17003KT 15SM -SHRA FEW022 FEW040TCU SCT060 BKN100 22/ RMK CF1TCU2SC2AC3

CYQB;2008-07-28 20:35;CYQB 282035Z 19005KT 10SM VCSH FEW040TCU BKN100 BKN120 23/ RMK TCU2AC4AC1 HAZY

CYQB;2008-07-28 21:00;CYQB 282100Z CCA 23005KT 10SM FEW025 FEW050 BKN110 23/18 A2972 RMK SC1CU1AC3 DIST SH ALQDS TCU ASOCTD HAZY SLP064

CYQB;2008-07-28 22:00;CYQB 282200Z 22003KT 12SM FEW030 SCT070 BKN110 BKN260 22/17 A2972 RMK CU2AC2AC2CI1 TCU ASOCTD DIST CB S QUAD DIST SH ALQDS SLP065

CYQB;2008-07-28 22:42;CYQB 282242Z 20005KT 15SM -SHRA BKN037 BKN100 21/ RMK CU6AC1 TCU EMBD

CYQB;2008-07-28 23:00;CYQB 282300Z 26009KT 15SM -SHRA BKN028TCU BKN065 OVC140 21/18 A2973 RMK TCU5SC2AC2 VIS LWR NE-E SLP068

CYQB;2008-07-29 00:00;CYQB 290000Z CCB 25006KT 15SM VCSH SCT040 BKN120 BKN240 20/18 A2973 RMK SC4AC2CI1 CVCTV CLDS EMBD VIS NE-E 7 SLP069

CYQB;2008-07-29 01:00;CYQB 290100Z 24005KT 15SM FEW007 FEW050 BKN100 BKN240 19/17 A2975 RMK SF1CU1AC4CI1 SLP074

CYQB;2008-07-29 02:00;CYQB 290200Z 25005KT 15SM FEW007 FEW060 BKN120 BKN240 18/17 A2975 RMK SF1SC1AC4CI1 SLP076

CYQB;2008-07-29 03:00;CYQB 290300Z 29003KT 15SM FEW020 SCT055 17/17 A2975 RMK SC1SC3 SLP076

CYQB;2008-07-29 04:00;CYQB 290400Z 00000KT 10SM FEW006 SCT040 17/17 A2975 RMK SF1SC4 SLP075

CYQB;2008-07-29 04:22;CYQB 290422Z 00000KT 10SM BKN006 BKN040 17/ RMK SF5SC1

CYQB;2008-07-29 05:00;CYQB 290500Z 00000KT 8SM FEW006 BKN009 BKN040 18/17 A2975 RMK SF2SF3SC1 VIS LWR W SLP073

CYQB;2008-07-29 05:37;CYQB 290537Z 27003KT 10SM SCT009 17/ RMK SF3

CYQB;2008-07-29 06:00;CYQB 290600Z 23006KT 6SM BR BKN008 18/17 A2975 RMK SF5 SLP076

CYQB;2008-07-29 06:48;CYQB 290648Z 27006KT 3SM BR FEW002 BKN005 18/ RMK SF2SF5

CYQB;2008-07-29 07:00;CYQB 290700Z 28007KT 3SM BR SCT002 OVC005 18/17 A2975 RMK SF3SF5 SLP075

CYQB;2008-07-29 07:19;CYQB 290719Z 26010KT 3SM BR BKN002 OVC005 17/ RMK SF6SF2

CYQB;2008-07-29 08:00;CYQB 290800Z 23006KT 1SM R06/5500FT/D BR VV001 17/17 A2975 RMK FG8 SLP076

CYQB;2008-07-29 09:00;CYQB 290900Z 26006KT 1 1/2SM BR VV001 16/16 A2976 RMK FG8 SLP078

CYQB;2008-07-29 10:00;CYQB 291000Z CCA 25004KT 2SM BR BKN100 BKN120 16/16 A2977 RMK FG2AC4AC2 VIS LWR N SLP082

CYQB;2008-07-29 10:28;CYQB 291028Z CCA 26003KT 2SM BR BKN002 BKN057 16/ RMK FG2ST5SC1 VIS LWR N

CYQB;2008-07-29 11:00;CYQB 291100Z 26006KT 8SM FEW008 BKN058 BKN120 17/16 A2978 RMK SF2SC3AC2 SLP084

CYQB;2008-07-29 12:00;CYQB 291200Z 25012KT 8SM FEW008 FEW020 SCT130 18/17 A2978 RMK SF2SC1AC2 SLP085

CYQB;2008-07-29 13:00;CYQB 291300Z 24010KT 12SM FEW020 SCT060 BKN120 BKN220 20/17 A2979 RMK SC2SC1AC2CI1 SLP088

CYQB;2008-07-29 14:00;CYQB 291400Z 27009KT 15SM FEW030 BKN120 BKN220 22/18 A2979 RMK SC2AC2CI1 TCU NE SLP087

CYQB;2008-07-29 15:00;CYQB 291500Z 29011G16KT 15SM BKN030 BKN220 22/16 A2978 RMK SC6CI1 DIST SHRA W AND NE VIS LWR NE AND W TCU ASOCTD SLP085

CYQB;2008-07-29 15:13;CYQB 291513Z 28007G27KT 12SM -SHRA BKN028 BKN056 20/ RMK SC6SC2 TCU EMBD

CYQB;2008-07-29 15:39;CYQB 291539Z 32011KT 15SM VCSH BKN030 BKN056 22/ RMK SC6SC2 VIS LWR E-S

CYQB;2008-07-29 16:00;CYQB 291600Z 29009KT 20SM FEW030 BKN062 BKN230 22/16 A2978 RMK SC2SC3CI2 TCU ASOCTD SLP085

CYQB;2008-07-29 17:00;CYQB 291700Z 29007KT 20SM SCT038 BKN076 BKN220 23/16 A2977 RMK CU4AC2CI1 TCU S SLP082

CYQB;2008-07-29 18:00;CYQB 291800Z 29012G19KT 30SM BKN040 BKN080 BKN220 24/17 A2978 RMK CU5AC1CI1 TCU ASOCTD SLP083

CYQB;2008-07-29 19:00;CYQB 291900Z 31010KT 30SM SCT040 SCT080 SCT220 25/16 A2976 RMK CU3AC1CI1 TCU ASOCTD SLP078

CYQB;2008-07-29 19:35;CYQB 291935Z 31009G19KT 20SM -SHRA FEW020 BKN040TCU 23/ RMK CF2TCU5 DIST CB ESE

CYQB;2008-07-29 20:00;CYQB 292000Z 36009KT 20SM -SHRA FEW020 BKN040TCU BKN100 22/17 A2976 RMK CF2TCU3AC1 SLP078

CYQB;2008-07-29 20:21;CYQB 292021Z 33003KT 20SM FEW020 BKN046 BKN080 24/ RERA RMK CF1CU6AC1 TCU ASOCTD

CYQB;2008-07-29 21:00;CYQB 292100Z 30008KT 15SM FEW020 SCT043 SCT080 25/15 A2977 RERA RMK SC1CU3AC1 TCU ASOCTD SLP080

CYQB;2008-07-29 22:00;CYQB 292200Z 30009KT 20SM FEW040 BKN080 24/15 A2977 RMK CU2AC2 TCU ASOCTD DIST SHRA N-NE SLP081

CYQB;2008-07-29 23:00;CYQB 292300Z 28008KT 20SM SCT040 BKN075 22/15 A2979 RMK CU3AC3 SLP088

CYQB;2008-07-30 00:00;CYQB 300000Z 30005KT 20SM FEW040 BKN067 21/16 A2980 RMK CU2AC5 SLP092

CYQB;2008-07-30 01:00;CYQB 300100Z 32005KT 20SM FEW030 BKN080 BKN230 21/16 A2981 RMK CU1AC5CI1 SLP095

CYQB;2008-07-30 02:00;CYQB 300200Z 02003KT 20SM FEW030 BKN066 20/16 A2981 RMK CU1SC6 SLP096

CYQB;2008-07-30 03:00;CYQB 300300Z 32004KT 15SM SCT066 BKN100 19/16 A2981 RMK AC3AC2 SLP096

CYQB;2008-07-30 04:00;CYQB 300400Z 27004KT 15SM FEW066 FEW090 19/15 A2982 RMK AC1AC2 SLP097

CYQB;2008-07-30 05:00;CYQB 300500Z 31004KT 15SM FEW090 18/15 A2982 RMK AC1 SLP097

CYQB;2008-07-30 06:00;CYQB 300600Z 30007KT 15SM SKC 17/15 A2982 RMK SLP097

CYQB;2008-07-30 07:00;CYQB 300700Z 27005KT 15SM FEW090 15/14 A2982 RMK AC1 SLP098

CYQB;2008-07-30 08:00;CYQB 300800Z 25007KT 15SM FEW090 14/14 A2982 RMK AC1 SLP097

CYQB;2008-07-30 09:00;CYQB 300900Z 24005KT 20SM FEW090 FEW230 15/14 A2983 RMK AC2CI1 SLP100

CYQB;2008-07-30 10:00;CYQB 301000Z 26003KT 30SM FEW090 BKN230 16/14 A2983 RMK AC2CI0 SLP102

CYQB;2008-07-30 11:00;CYQB 301100Z 25005KT 30SM FEW120 BKN230 17/15 A2984 RMK AC1CI2 SLP105

CYQB;2008-07-30 12:00;CYQB 301200Z 24004KT 30SM FEW025 BKN058 19/16 A2984 RMK SC1SC6 SLP104

CYQB;2008-07-30 13:00;CYQB 301300Z 23004KT 30SM FEW025 FEW060 FEW260 20/15 A2983 RMK SC1SC1CI1 SLP100

CYQB;2008-07-30 14:00;CYQB 301400Z 29003KT 30SM FEW025 FEW060 SCT260 22/16 A2982 RMK CU2SC1CI0 SLP097

CYQB;2008-07-30 15:00;CYQB 301500Z 21003KT 30SM FEW025 BKN047 23/16 A2980 RMK CU1SC5 SLP092

CYQB;2008-07-30 16:00;CYQB 301600Z 24008KT 30SM FEW030 BKN050 23/16 A2979 RMK CU2SC5 SLP087

CYQB;2008-07-30 17:00;CYQB 301700Z 23010G15KT 30SM FEW030 BKN050 22/15 A2978 RMK CU2SC6 SLP086

CYQB;2008-07-30 18:00;CYQB 301800Z 28009KT 30SM FEW035 BKN055 23/16 A2978 RMK CU2SC6 SLP084

CYQB;2008-07-30 19:00;CYQB 301900Z 22006KT 30SM FEW030 BKN052 BKN200 23/15 A2976 RMK CU2SC3CI2 SLP077

CYQB;2008-07-30 20:00;CYQB 302000Z 23008KT 30SM FEW035 BKN053 BKN200 23/16 A2974 RMK CU1SC6CI1 SLP072

CYQB;2008-07-30 21:00;CYQB 302100Z 23007KT 15SM FEW030 BKN055 23/12 A2974 RMK CU1SC6 SLP072

CYQB;2008-07-30 22:00;CYQB 302200Z 23005KT 30SM BKN059 BKN200 22/12 A2974 RMK SC6CI1 SLP071

CYQB;2008-07-30 23:00;CYQB 302300Z 25004KT 30SM FEW055 BKN210 22/13 A2973 RMK SC2CS4 SLP067

CYQB;2008-07-31 00:00;CYQB 310000Z 00000KT 30SM SCT170 BKN200 21/14 A2972 RMK AC2CS2 VIRGA SLP064

CYQB;2008-07-31 01:00;CYQB 310100Z 30002KT 20SM BKN160 20/17 A2973 RMK AC6 SLP067

CYQB;2008-07-31 02:00;CYQB 310200Z 00000KT 20SM FEW050 OVC120 20/17 A2972 RMK SC2AC6 SLP066

CYQB;2008-07-31 03:00;CYQB 310300Z 36003KT 15SM OVC140 19/17 A2972 RMK AC8 SLP064

CYQB;2008-07-31 04:00;CYQB 310400Z 35002KT 15SM -SHRA OVC130 19/17 A2971 RMK AC8 SLP061

CYQB;2008-07-31 04:23;CYQB 310423Z 04004KT 15SM OVC130 19/ RMK AC8

CYQB;2008-07-31 05:00;CYQB 310500Z 01004KT 15SM BKN150 19/17 A2969 RMK AC6 SLP054

CYQB;2008-07-31 06:00;CYQB 310600Z 06003KT 15SM BKN120 18/17 A2967 RMK AC6 SLP049

CYQB;2008-07-31 07:00;CYQB 310700Z 36004KT 15SM BKN081 BKN120 18/16 A2967 RMK AC5AC2 SLP048

CYQB;2008-07-31 08:00;CYQB 310800Z 07006KT 15SM BKN090 BKN140 18/16 A2966 RMK AC5AC2 SLP044

CYQB;2008-07-31 09:00;CYQB 310900Z 07003KT 20SM BKN046 BKN090 18/16 A2966 RMK SC5AC2 SLP044

CYQB;2008-07-31 10:00;CYQB 311000Z 06004KT 20SM VCSH BKN061 OVC120 18/16 A2967 RMK SC6AC2 CB EMBD W SLP046

CYQB;2008-07-31 10:25;CYQB 311025Z 00000KT 4SM -TSRA BKN020CB BKN061 OVC120 18/ RMK CB5SC2AC1 VIS E 20

CYQB;2008-07-31 10:55;CYQB 311055Z 11003KT 2SM -SHRA BKN033CB OVC061 17/ RETS RMK CB5SC3 VIS E 4

CYQB;2008-07-31 11:00;CYQB 311100Z 10004KT 2SM -SHRA OVC033 17/17 A2967 RETS RMK SC8 VIS E 4/CB EMBD SLP046

CYQB;2008-07-31 11:41;CYQB 311141Z 07008KT 3SM -SHRA BR FEW020 BKN033 OVC100 17/ RMK SF1SC4AC3

CYQB;2008-07-31 12:00;CYQB 311200Z 12004KT 3SM -SHRA BR FEW014 BKN033 OVC100 17/17 A2965 RMK SF1SC5AC2 VIS W 6 SLP042

CYQB;2008-07-31 12:37;CYQB 311237Z 06007KT 8SM -SHRA FEW017 SCT033 OVC100 18/ RMK SF2SC2AC4 VIS LWR N

CYQB;2008-07-31 13:00;CYQB 311300Z 07006KT 10SM FEW017 SCT037 BKN110 OVC200 18/17 A2965 RMK SF1SC2AC4CI0 SLP041

CYQB;2008-07-31 14:00;CYQB 311400Z 08010KT 12SM FEW015 SCT045 BKN080 20/18 A2965 RMK SF2SC2AC3 MT TOP OBSC SLP040

CYQB;2008-07-31 15:00;CYQB 311500Z 08009G15KT 8SM SCT016 BKN045 OVC080 21/18 A2963 RMK SF3SC3AC2 SLP034

CYQB;2008-07-31 15:32;CYQB 311532Z 08008KT 8SM -SHRA SCT016 BKN040 OVC080 20/ RMK SF4SC2AC2 VIS LWR N

CYQB;2008-07-31 16:00;CYQB 311600Z 09008KT 8SM -SHRA BKN016 BKN040 OVC080 20/18 A2963 RMK SF5SC2AC1 SLP035

CYQB;2008-07-31 16:59;CYQB 311659Z 09005KT 6SM -SHRA BKN016 BKN035 OVC100 20/ RMK SF5SC2AC1 CB DSNT S/LGTIC

CYQB;2008-07-31 17:00;CYQB 311700Z 11003KT 6SM -SHRA SCT016 BKN035 OVC060 20/18 A2962 RMK SF3SC3AC2 CB EMBD/OBS+9 SLP032

CYQB;2008-07-31 18:00;CYQB 311800Z 10007KT 8SM -SHRA BKN017 OVC035 20/18 A2963 RMK SF6SC2 SLP033

CYQB;2008-07-31 19:00;CYQB 311900Z 07009KT 15SM FEW007 FEW020 SCT090 BKN110 20/18 A2962 RMK SF1SC1AC2AC3 OCNL -SHRA CVCTV CLDS EMBD CLDS TPG HILLS W-NE SLP030

CYQB;2008-07-31 20:00;CYQB 312000Z 07009KT 30SM FEW008 FEW025 BKN110 BKN180 20/18 A2961 RMK SF1SC1AC5AC1 CLDS TPG HILLS W-NE SLP026

CYQB;2008-07-31 21:00;CYQB 312100Z 08009KT 25SM FEW010 BKN018 OVC100 21/18 A2961 RMK SF1SC6AC2 SLP026

CYQB;2008-07-31 22:00;CYQB 312200Z 07008KT 25SM BKN023 OVC120 21/18 A2960 RMK SC5AC3 SLP025

CYQB;2008-07-31 23:00;CYQB 312300Z 07012KT 20SM BKN020CB BKN240 21/18 A2959 RMK CB6CI1 DIST SH NE-S SLP021

CYQB;2008-07-31 23:29;CYQB 312329Z 08011KT 2SM +TSRA FEW007 BKN013CB BKN120 BKN240 20/ RMK SF2CB5AC1CI1

CYQB;2008-08-01 01:00;CYQB 010100Z 07008KT 10SM FEW006 SCT011 BKN040 BKN120 OVC220 19/18 A2961 RMK SF1SF3SC2AC1CI1 SLP026

CYQB;2008-08-01 02:00;CYQB 010200Z 07008KT 10SM FEW004 BKN017 OVC130 19/18 A2961 RMK SF2SC6AC1 SLP028

CYQB;2008-08-01 03:00;CYQB 010300Z 07007KT 10SM FEW004 SCT017 BKN060 OVC140 19/18 A2961 RMK SF2SC2SC2AC2 SLP028

CYQB;2008-08-01 04:00;CYQB 010400Z 08006KT 5SM -DZ BR FEW007 BKN025 OVC060 19/18 A2962 RMK SF2SC5SC1 SLP031

CYQB;2008-08-01 04:50;CYQB 010450Z 07004KT 5SM BR FEW007 OVC020 19/ RMK SF2SC6

CYQB;2008-08-01 05:00;CYQB 010500Z 07004KT 5SM BR FEW007 OVC020 19/18 A2962 RMK SF2SC6 SLP030

CYQB;2008-08-01 06:00;CYQB 010600Z 06005KT 10SM FEW020 OVC080 19/18 A2962 RMK SC2AC6 SLP032

CYQB;2008-08-01 07:00;CYQB 010700Z 06005KT 10SM FEW020 OVC080 19/18 A2963 RMK SC2AC6 SLP034

CYQB;2008-08-01 08:00;CYQB 010800Z 08007KT 6SM BR FEW010 BKN012 OVC042 19/18 A2964 RMK SF2SC4SC2 SLP036

CYQB;2008-08-01 08:22;CYQB 010822Z 08006KT 3SM -SHRA BR SCT008 BKN012 OVC022 19/ RMK SF3SC3SC2

CYQB;2008-08-01 08:40;CYQB 010840Z 08007KT 6SM -SHRA BR SCT008 BKN012 OVC015 19/ RMK SF4SC2SC2

CYQB;2008-08-01 09:00;CYQB 010900Z 08007KT 6SM BR FEW004 SCT008 OVC012 19/18 A2964 RMK SF2SF2SC4 VIS LWR N SLP038

CYQB;2008-08-01 10:00;CYQB 011000Z 07008KT 6SM BR FEW005 SCT012 BKN020 BKN045 18/18 A2964 RMK SF2SC2SC2SC1 VIS E 11/2 SLP039

CYQB;2008-08-01 11:00;CYQB 011100Z 09006KT 6SM BR SCT005 BKN014 OVC022 19/18 A2966 RMK SF3SC2SC2 SLP044

CYQB;2008-08-01 12:00;CYQB 011200Z 09005KT 8SM SCT007 BKN014 OVC037 19/18 A2967 RMK SF3SC2SC2 VIS LWR NW QUAD SLP049

CYQB;2008-08-01 12:50;CYQB 011250Z 08005KT 8SM SCT006 BKN009 OVC037 19/ RMK SF3SC2SC2

CYQB;2008-08-01 13:00;CYQB 011300Z 09007KT 8SM SCT006 BKN009 OVC019 20/18 A2967 RMK SF3SF2SC2 SLP049

CYQB;2008-08-01 14:00;CYQB 011400Z 07007KT 15SM FEW006 FEW009 BKN016 OVC037 20/18 A2967 RMK SF1SF2SC3SC2 SLP048

CYQB;2008-08-01 14:47;CYQB 011447Z 09007KT 15SM BKN014 BKN042 21/ RMK CF6SC1

CYQB;2008-08-01 15:00;CYQB 011500Z 09007KT 15SM BKN014 BKN045 22/19 A2967 RMK SC5SC2 SLP048

CYQB;2008-08-01 16:00;CYQB 011600Z 06008KT 30SM SCT016 BKN034 BKN045 22/19 A2967 RMK CF3SC2SC1 SLP048

CYQB;2008-08-01 17:00;CYQB 011700Z 08009KT 30SM -SHRA FEW016 BKN034 BKN060 22/18 A2967 RMK CF2CU3SC1 TCU ASOCTD SLP048

CYQB;2008-08-01 17:50;CYQB 011750Z 08009KT 30SM FEW016 BKN038 BKN058 22/ RMK CF2CU4SC1 TCU ASOCTD

CYQB;2008-08-01 18:00;CYQB 011800Z 08010KT 30SM -SHRA FEW018 BKN040 BKN060 22/19 A2967 RMK CF2CU5SC1 TCU ASOCTD SLP049

CYQB;2008-08-01 19:00;CYQB 011900Z 07008KT 30SM FEW018 BKN050 BKN060 22/19 A2967 RMK CF1CU5SC1 TCU ASOCTD SLP049

CYQB;2008-08-01 20:00;CYQB 012000Z 09009KT 30SM FEW015 BKN050 BKN080 21/18 A2968 RMK CF1SC4AC2 CU AND TCU ASOCTD SLP051

CYQB;2008-08-01 20:29;CYQB 012029Z 09009KT 20SM FEW015 SCT050 BKN080 21/ RMK CF1SC3AC2 CU AND TCU ASOCTD

CYQB;2008-08-01 20:31;CYQB 012031Z CCA 09009KT 20SM -SHRA FEW015 SCT050 BKN080 21/ RMK CF1SC3AC2 CU AND TCU ASOCTD

CYQB;2008-08-01 21:00;CYQB 012100Z 09011KT 30SM FEW015 SCT050 BKN080 BKN100 21/19 A2968 RMK SC2SC2AC2AC1 TCU ASOCTD VIS N LWR SLP051

CYQB;2008-08-01 22:00;CYQB 012200Z 10007KT 30SM -SHRA FEW010 FEW018 BKN053 BKN080 21/18 A2968 RMK SC1CU1SC4AC2 SLP051

CYQB;2008-08-01 22:26;CYQB 012226Z 07007KT 30SM FEW018 SCT047 BKN080 21/ RMK SC1SC3AC2 TCU ASOCTD

CYQB;2008-08-01 22:49;CYQB 012249Z 09010KT 30SM -SHRA FEW010 FEW018 SCT047 BKN100 BKN120 20/ RMK CU1SC1SC2AC2AC1

CYQB;2008-08-01 23:00;CYQB 012300Z 10011G17KT 20SM -SHRA FEW010 FEW018 SCT047 BKN100 BKN200 20/18 A2968 RMK CU1SC1SC3AC2CI1 TCU ASOCTD SLP050

CYQB;2008-08-01 23:29;CYQB 012329Z 10012KT 20SM FEW019 BKN047 BKN140 BKN200 19/ RMK SC2SC2AC1CI1

CYQB;2008-08-02 00:00;CYQB 020000Z 10012KT 15SM FEW005 SCT020 BKN042 BKN140 19/17 A2968 RMK SC2SC1SC2AC2 TCU ASOCTD VIS NE LWR SLP052

CYQB;2008-08-02 01:00;CYQB 020100Z 09005KT 15SM FEW005 BKN020 OVC042 19/17 A2970 RMK SC2SC2SC3 SLP059

CYQB;2008-08-02 02:00;CYQB 020200Z 09003KT 15SM FEW005 BKN020 OVC050 18/17 A2971 RMK SF2SC2SC3 SLP060

CYQB;2008-08-02 03:00;CYQB 020300Z 07007KT 15SM BKN005 OVC018 19/18 A2970 RMK SF5SC3 SLP059

CYQB;2008-08-02 04:00;CYQB 020400Z 07010KT 12SM OVC006 18/17 A2971 RMK ST8 SLP060

CYQB;2008-08-02 04:46;CYQB 020446Z 08007KT 12SM BKN006 OVC015 18/ RMK ST6SC2 CB EMBD/LGTIC

CYQB;2008-08-02 05:00;CYQB 020500Z 07008KT 12SM SCT006 BKN015 OVC045CB 18/17 A2970 RMK ST3SC4CB1 CB EMBD/LTGIC SLP057

CYQB;2008-08-02 05:22;CYQB 020522Z 06007KT 12SM TS SCT006 BKN013 OVC045CB 18/ RMK ST4SC2CB2 LGTIC

CYQB;2008-08-02 05:38;CYQB 020538Z 07006KT 10SM -TSRA SCT006 BKN013 OVC030CB 18/ RMK ST3SC2CB3 LGTIC

CYQB;2008-08-02 06:00;CYQB 020600Z 10011KT 3SM TSRA SCT005 BKN013 OVC040CB 18/17 A2969 RMK SF3SC2CB3 SLP053

CYQB;2008-08-02 06:40;CYQB 020640Z 06004KT 4SM BR OVC004 18/ RETSRA RMK SF8

CYQB;2008-08-02 07:00;CYQB 020700Z 06005KT 4SM BR OVC004 18/17 A2970 RETSRA RMK SF8 SLP057

CYQB;2008-08-02 08:00;CYQB 020800Z 07007KT 6SM BR OVC004 18/17 A2970 RMK SF8 SLP059

CYQB;2008-08-02 09:00;CYQB 020900Z 10005KT 10SM OVC006 17/17 A2970 RMK SF8 SLP058

CYQB;2008-08-02 10:00;CYQB 021000Z 07004KT 10SM OVC004 18/17 A2972 RMK ST8 SLP066

CYQB;2008-08-02 10:51;CYQB 021051Z 09005KT 10SM OVC005 18/ RMK ST8

CYQB;2008-08-02 11:00;CYQB 021100Z 08005KT 3SM BR OVC005 18/17 A2972 RMK ST8 SLP066

CYQB;2008-08-02 12:00;CYQB 021200Z 08007KT 4SM BR OVC006 18/17 A2974 RMK ST8 SLP071

CYQB;2008-08-02 13:00;CYQB 021300Z 05006KT 4SM BR OVC005 18/18 A2975 RMK ST8 SLP073

CYQB;2008-08-02 14:00;CYQB 021400Z 07003KT 6SM BR BKN008 OVC011 19/18 A2976 RMK ST6SC2 SLP079

CYQB;2008-08-02 15:00;CYQB 021500Z 07006KT 10SM BKN008 BKN011 OVC015 20/18 A2976 RMK SF6SC1SC1 SLP079

CYQB;2008-08-02 16:00;CYQB 021600Z 08004KT 15SM BKN010 OVC025 21/18 A2976 RMK SF5SC2 SLP077

CYQB;2008-08-02 17:00;CYQB 021700Z 05003KT 15SM BKN017 BKN030 22/19 A2975 RMK SC5SC2 SLP075

CYQB;2008-08-02 18:00;CYQB 021800Z 09004KT 30SM BKN022 BKN240 23/18 A2974 RMK SC5CI2 SLP070

CYQB;2008-08-02 19:00;CYQB 021900Z 08009KT 30SM SCT022 BKN240 23/18 A2974 RMK SC3CI2 CU AND TCU ASOCTD SLP070

CYQB;2008-08-02 20:00;CYQB 022000Z 07011KT 30SM SCT025 BKN240 22/18 A2974 RMK SC3CI2 CU AND TCU ASOCTD ANVIL N SLP072

CYQB;2008-08-02 21:00;CYQB 022100Z 09009G15KT 30SM FEW018 FEW025TCU FEW150 OVC240 21/18 A2973 RMK SC1TCU1AC1CI8 SLP069

CYQB;2008-08-02 22:00;CYQB 022200Z 09013G18KT 30SM FEW012 SCT025 SCT150 OVC230 19/17 A2975 RMK CF1SC2AC1CI4 SLP073

CYQB;2008-08-02 23:00;CYQB 022300Z 08013KT 20SM FEW005 SCT020 BKN120 OVC230 18/16 A2976 RMK CF1SC2AC2CI3 SLP079

CYQB;2008-08-03 00:00;CYQB 030000Z CCA 09007KT 15SM FEW005 FEW012 SCT120 OVC230 18/16 A2978 RMK SC1SC2AC2CI4 TCU N SLP084

CYQB;2008-08-03 01:00;CYQB 030100Z 09011KT 15SM FEW006 FEW012 SCT120 OVC200 17/16 A2979 RMK SC1SC2AC2CI4 SLP088

CYQB;2008-08-03 02:00;CYQB 030200Z 09007KT 15SM BKN006 OVC120 17/16 A2980 RMK SC6AC2 SLP090

CYQB;2008-08-03 02:54;CYQB 030254Z 09006KT 10SM -SHRA BKN006 OVC040 16/ RMK SC6SC2

CYQB;2008-08-03 03:00;CYQB 030300Z 08006KT 10SM -SHRA BKN006 OVC020 16/16 A2980 RMK SC7SC1 SLP090

CYQB;2008-08-03 04:00;CYQB 030400Z 09006KT 10SM -SHRA BKN005 OVC030 17/16 A2980 RMK SC6SC2 SLP091

CYQB;2008-08-03 05:00;CYQB 030500Z 07009KT 10SM -SHRA BKN004 OVC020 17/16 A2980 RMK SF7SC1 SLP090

CYQB;2008-08-03 06:00;CYQB 030600Z 05007KT 8SM -SHRA BKN005 OVC020 16/16 A2978 RMK SF7SC1 SLP086

CYQB;2008-08-03 07:00;CYQB 030700Z 06009KT 8SM -SHRA BKN004 BKN008 OVC020 16/16 A2979 RMK SF5SF2SC1 SLP089

CYQB;2008-08-03 08:00;CYQB 030800Z 07012G17KT 10SM -SHRA BKN006 BKN020 OVC100 16/16 A2979 RMK SF6SC2AC1 SLP087

CYQB;2008-08-03 09:00;CYQB 030900Z 07005KT 10SM -SHRA BKN005 OVC020 16/16 A2979 RMK ST7SC1 SLP088

CYQB;2008-08-03 09:44;CYQB 030944Z 07006KT 10SM OVC004 16/ RMK SF8

CYQB;2008-08-03 10:00;CYQB 031000Z 07009KT 10SM OVC004 16/16 A2979 RMK SF8 SLP089

CYQB;2008-08-03 10:29;CYQB 031029Z 07010KT 10SM SCT004 OVC006 16/ RMK SF4SC4

CYQB;2008-08-03 11:00;CYQB 031100Z 07009KT 10SM FEW004 OVC006 16/16 A2980 RMK SF2SC6 SLP092

CYQB;2008-08-03 12:00;CYQB 031200Z 07010KT 8SM OVC003 16/16 A2982 RMK SF8 SLP098

CYQB;2008-08-03 12:42;CYQB 031242Z 07009KT 8SM FEW003 OVC007 16/ RMK SF1SF7

CYQB;2008-08-03 13:00;CYQB 031300Z 08005KT 10SM OVC006 17/16 A2983 RMK SF8 SLP101

CYQB;2008-08-03 14:00;CYQB 031400Z 09006KT 10SM OVC008 17/16 A2984 RMK SF8 SLP105

CYQB;2008-08-03 15:00;CYQB 031500Z 07010G16KT 10SM OVC006 17/16 A2984 RMK SF8 SLP106

CYQB;2008-08-03 16:00;CYQB 031600Z 07009KT 12SM OVC009 18/16 A2984 RMK SC8 SLP105

CYQB;2008-08-03 17:00;CYQB 031700Z 07008KT 15SM OVC013 18/16 A2983 RMK SC8 SLP103

CYQB;2008-08-03 17:52;CYQB 031752Z 10007KT 12SM -SHRA OVC010 18/ RMK SC8

CYQB;2008-08-03 18:00;CYQB 031800Z CCA 07007KT 12SM -SHRA BKN009 OVC013 18/16 A2983 RMK SC6SC2 CU ASOCTD SLP101

CYQB;2008-08-03 18:41;CYQB 031841Z 07009KT 15SM BKN010 OVC050 19/ RMK SC7SC1

CYQB;2008-08-03 19:00;CYQB 031900Z 11007KT 15SM -SHRA BKN010 OVC050 18/16 A2983 RMK SC7SC1 SLP102

CYQB;2008-08-03 19:23;CYQB 031923Z 09012KT 15SM BKN012 OVC045 19/ RMK SC6SC2

CYQB;2008-08-03 20:00;CYQB 032000Z 07007KT 15SM OVC011 18/16 A2982 RMK SC8 SLP100

CYQB;2008-08-03 21:00;CYQB 032100Z 07008KT 15SM SCT011 BKN120 BKN250 19/16 A2983 RMK SC3AC3CI1 SLP101

CYQB;2008-08-03 22:00;CYQB 032200Z 11008KT 15SM BKN010 BKN120 18/16 A2983 RMK SC5AC2 SLP103

CYQB;2008-08-03 22:30;CYQB 032230Z 09007KT 12SM BKN008 OVC120 18/ RMK SC7AC1

CYQB;2008-08-03 23:00;CYQB 032300Z 10008KT 15SM OVC007 17/15 A2984 RMK SC8 SLP107

CYQB;2008-08-04 00:00;CYQB 040000Z 07009KT 10SM OVC006 17/15 A2986 RMK ST8 SLP111

CYQB;2008-08-04 01:00;CYQB 040100Z 06006KT 10SM OVC005 16/15 A2985 RMK ST8 SLP110

CYQB;2008-08-04 02:00;CYQB 040200Z 08004KT 10SM OVC005 16/15 A2985 RMK ST8 SLP110

CYQB;2008-08-04 03:00;CYQB 040300Z 06005KT 5SM -DZ BR SCT006 OVC013 16/15 A2986 RMK ST3SC5 SLP113

CYQB;2008-08-04 03:25;CYQB 040325Z 07005KT 6SM -DZ BR BKN006 OVC013 16/ RMK ST7SC1

CYQB;2008-08-04 04:00;CYQB 040400Z 07003KT 4SM -DZ BR OVC007 16/15 A2986 RMK ST8 SLP113

CYQB;2008-08-04 04:39;CYQB 040439Z 07003KT 4SM BR OVC007 16/ RMK ST8

CYQB;2008-08-04 05:00;CYQB 040500Z 03003KT 3SM -RA BR BKN006 OVC020 16/15 A2986 RMK ST6SC2 SLP113

CYQB;2008-08-04 05:35;CYQB 040535Z 06003KT 2 1/2SM -RA BR BKN008 OVC020 16/ RMK ST5SC3

CYQB;2008-08-04 06:00;CYQB 040600Z CCA 03003KT 1SM R06/P6000FT/U -RA BR FEW002 BKN006 OVC020 16/15 A2986 RMK FG1SF1ST6SC1 SLP111

CYQB;2008-08-04 07:00;CYQB 040700Z 03003KT 2SM -RA BR BKN008 OVC015 16/15 A2986 RMK ST5SC3 SLP111

CYQB;2008-08-04 08:00;CYQB 040800Z 07003KT 2 1/2SM -RA BR BKN004 OVC015 16/15 A2986 RMK ST6SC2 SLP112

CYQB;2008-08-04 08:22;CYQB 040822Z 08003KT 3SM -RA BR BKN003 OVC015 16/ RMK ST4SC4

CYQB;2008-08-04 09:00;CYQB 040900Z 07005KT 2SM -RA BR BKN003 OVC015 16/15 A2987 RMK ST6SC2 SLP115

CYQB;2008-08-04 09:16;CYQB 040916Z 09002KT 1SM R06/P6000FT/N -DZ BR BKN002 OVC015 16/ RMK FG1ST6SC2

CYQB;2008-08-04 10:00;CYQB 041000Z 09006KT 1SM R06/P6000FT/D -DZ BR OVC003 16/15 A2987 RMK FG1SF7 SLP117

CYQB;2008-08-04 10:22;CYQB 041022Z 07005KT 2SM BR OVC005 16/ RMK SF8

CYQB;2008-08-04 11:00;CYQB 041100Z 09005KT 5SM BR OVC004 16/15 A2989 RMK ST8 SLP122

CYQB;2008-08-04 12:00;CYQB 041200Z 08005KT 5SM BR OVC005 16/15 A2988 RMK ST8 SLP120

CYQB;2008-08-04 12:42;CYQB 041242Z 07006KT 5SM BR OVC007 16/ RMK ST8

CYQB;2008-08-04 13:00;CYQB 041300Z 08007KT 5SM BR OVC006 16/15 A2989 RMK ST8 SLP124

CYQB;2008-08-04 14:00;CYQB 041400Z 09005KT 5SM BR OVC008 16/15 A2992 RMK ST8 SLP131

CYQB;2008-08-04 15:00;CYQB 041500Z 10004KT 10SM OVC008 17/15 A2992 RMK ST8 SLP134

CYQB;2008-08-04 16:00;CYQB 041600Z 08005KT 10SM BKN008 OVC030 18/15 A2993 RMK SC6SC2 SLP137

CYQB;2008-08-04 16:22;CYQB 041622Z CCA 06006KT 10SM BKN012 OVC030 18/ RMK SC7SC1

CYQB;2008-08-04 17:00;CYQB 041700Z 08007KT 15SM BKN012 OVC030 17/16 A2995 RMK SC6SC2 SLP142

CYQB;2008-08-04 18:00;CYQB 041800Z 07006KT 20SM BKN012 OVC030 18/16 A2995 RMK SC7SC1 SLP143

CYQB;2008-08-04 18:33;CYQB 041833Z 09005KT 20SM BKN009 OVC030 18/ RMK ST7SC1

CYQB;2008-08-04 19:00;CYQB 041900Z 07007KT 20SM BKN009 OVC030 18/16 A2996 RMK ST7SC1 SLP147

CYQB;2008-08-04 19:09;CYQB 041909Z 08007KT 20SM BKN012 OVC035 18/ RMK SF6SC2

CYQB;2008-08-04 20:00;CYQB 042000Z 07009KT 20SM BKN014 OVC035 18/16 A2997 RMK SC6SC2 SLP148

CYQB;2008-08-04 21:00;CYQB 042100Z 08007KT 20SM BKN011 OVC035 18/16 A2997 RMK SC7SC1 SLP150

CYQB;2008-08-04 22:00;CYQB 042200Z 10010KT 20SM BKN011 OVC035 17/15 A2998 RMK SC6SC2 SLP154

CYQB;2008-08-04 23:00;CYQB 042300Z 08012KT 20SM BKN011 BKN120 17/15 A2999 RMK SC5AC2 SLP156

CYQB;2008-08-04 23:47;CYQB 042347Z 07015KT 15SM SCT011 BKN120 17/ RMK SC3AC4

CYQB;2008-08-05 00:00;CYQB 050000Z 07013G19KT 15SM SCT010 BKN120 16/15 A3000 RMK SC3AC3 SLP160

CYQB;2008-08-05 00:12;CYQB 050012Z 07013KT 15SM BKN010 BKN120 17/ RMK SF6AC2

CYQB;2008-08-05 01:00;CYQB 050100Z 06010KT 15SM BKN010 BKN120 16/14 A3002 RMK SF5AC2 SLP166

CYQB;2008-08-05 01:44;CYQB 050144Z 08011KT 15SM SCT010 BKN100 16/ RMK SF3AC3

CYQB;2008-08-05 02:00;CYQB 050200Z CCA 08007KT 15SM -SHRA SCT010 BKN100 16/14 A3003 RMK SF4AC2 SLP169

CYQB;2008-08-05 02:25;CYQB 050225Z 07009KT 20SM SCT009 BKN110 16/ RMK SF2SC3

CYQB;2008-08-05 03:00;CYQB 050300Z 07006KT 20SM SCT009 BKN110 15/14 A3003 RMK SF4AC2 SLP169

CYQB;2008-08-05 04:00;CYQB 050400Z 07009KT 15SM FEW009 SCT035 OVC110 15/14 A3004 RMK SF2SC2AC2 SLP172

CYQB;2008-08-05 05:00;CYQB 050500Z 07008KT 15SM FEW010 BKN033 BKN110 15/14 A3003 RMK SF1SC5AC1 SLP170

CYQB;2008-08-05 06:00;CYQB 050600Z 07009KT 15SM FEW010 OVC034 15/14 A3003 RMK SC2SC5 SLP171

CYQB;2008-08-05 07:00;CYQB 050700Z 07007KT 8SM SCT006 OVC015 15/14 A3004 RMK SF4SC4 SLP173

CYQB;2008-08-05 08:00;CYQB 050800Z 08009KT 8SM FEW009 BKN013 OVC030 15/14 A3005 RMK SF1SC6SC2 SLP176

CYQB;2008-08-05 09:00;CYQB 050900Z 07010G15KT 6SM -DZ BR SCT008 BKN015 OVC025 15/14 A3005 RMK SF3SC3SC2 SLP176

CYQB;2008-08-05 10:00;CYQB 051000Z 07008KT 10SM SCT009 BKN018 BKN058 15/14 A3006 RMK SF3SC3SC1 CLDS TPG MTS N SLP180

CYQB;2008-08-05 11:00;CYQB 051100Z 08006KT 10SM FEW009 BKN012 OVC054 15/13 A3006 RMK SF1SC6SC2 SLP181

CYQB;2008-08-05 12:00;CYQB 051200Z 07009KT 10SM BKN010 OVC050 15/13 A3008 RMK SC7SC1 SLP187

CYQB;2008-08-05 13:00;CYQB 051300Z 08006G16KT 10SM BKN011 OVC050 16/14 A3008 RMK SC7SC1 SLP188

CYQB;2008-08-05 14:00;CYQB 051400Z 09012KT 15SM BKN013 OVC047 17/14 A3007 RMK SC7SC1 SLP185

CYQB;2008-08-05 15:00;CYQB 051500Z 08011G16KT 15SM BKN020 BKN053 18/14 A3007 RMK SC6SC2 SLP184

CYQB;2008-08-05 16:00;CYQB 051600Z 09011G17KT 30SM FEW020 FEW050 19/14 A3006 RMK SC2SC1 SLP179

CYQB;2008-08-05 17:00;CYQB 051700Z 08012G17KT 30SM FEW028 SCT055 20/13 A3004 RMK SC2SC1 SLP174

CYQB;2008-08-05 18:00;CYQB 051800Z 09011G16KT 30SM FEW028 FEW240 20/14 A3004 RMK SC2CI1 CU ASOCTD SLP172

CYQB;2008-08-05 19:00;CYQB 051900Z 08011KT 30SM FEW028 FEW240 21/14 A3002 RMK SC2CI1 SLP166

CYQB;2008-08-05 20:00;CYQB 052000Z 07011KT 30SM FEW031 FEW100 FEW240 21/14 A3001 RMK SC1AC1CI1 CU ASOCTD SLP162

CYQB;2008-08-05 21:00;CYQB 052100Z 14003KT 30SM FEW032 FEW100 FEW240 21/14 A3001 RMK SC2AC1CI1 CU ASOCTD TCU S SLP164

CYQB;2008-08-05 22:00;CYQB 052200Z 08006KT 30SM FEW032 FEW100 SCT240 21/14 A3000 RMK SC2AC1CI1 CU ASOCTD SLP160

CYQB;2008-08-05 23:00;CYQB 052300Z 12007KT 30SM FEW032 FEW100 BKN240 19/14 A2998 RMK SC1AC1CI1 SLP154

CYQB;2008-08-06 00:00;CYQB 060000Z 09004KT 30SM FEW032 FEW100 BKN240 18/13 A2998 RMK SC1AC1CI2 SLP153

CYQB;2008-08-06 01:00;CYQB 060100Z 07008KT 15SM FEW080 BKN200 18/13 A2998 RMK AC1CI2 SLP153

CYQB;2008-08-06 02:00;CYQB 060200Z 04004KT 15SM FEW200 17/13 A3000 RMK CI1 SLP158

CYQB;2008-08-06 03:00;CYQB 060300Z 06005KT 15SM FEW200 16/13 A2997 RMK CI0 SLP151

CYQB;2008-08-06 04:00;CYQB 060400Z 06006KT 15SM FEW200 16/13 A2997 RMK CI1 SLP148

CYQB;2008-08-06 05:00;CYQB 060500Z 07008KT 15SM FEW120 FEW200 16/12 A2996 RMK AC2CI1 SLP146

CYQB;2008-08-06 06:00;CYQB 060600Z 07009KT 15SM FEW120 FEW200 15/13 A2993 RMK AC1CI1 SLP137

CYQB;2008-08-06 07:00;CYQB 060700Z 06007KT 15SM FEW200 15/13 A2991 RMK CI0 SLP130

CYQB;2008-08-06 08:00;CYQB 060800Z 08007KT 15SM FEW009 FEW120 15/13 A2990 RMK SF1AC2 SLP127

CYQB;2008-08-06 09:00;CYQB 060900Z 07011KT 30SM SCT050 BKN100 15/13 A2989 RMK SC3AC2 SLP123

CYQB;2008-08-06 10:00;CYQB 061000Z 07010G16KT 30SM FEW045 SCT100 BKN220 16/13 A2989 RMK SC1AC2CI2 SLP121

CYQB;2008-08-06 11:00;CYQB 061100Z 08012G17KT 30SM FEW010 BKN048 BKN100 16/13 A2988 RMK SF1SC6AC1 DIST SH S-SW SLP119

CYQB;2008-08-06 12:00;CYQB 061200Z 07010G17KT 30SM VCSH FEW015 BKN044 BKN100 17/13 A2987 RMK SF1SC6AC1 TCU EMBD SH SW QUAD MOVG NNW SLP116

CYQB;2008-08-06 13:00;CYQB 061300Z 07013KT 30SM FEW015 BKN049 BKN100 BKN200 17/14 A2986 RMK SF1SC6AC1CI1 TCU EMBD W DIST SH SW QUAD MOVG NNW SLP112

CYQB;2008-08-06 14:00;CYQB 061400Z 08012G18KT 30SM FEW025 BKN052 BKN075 BKN220 18/13 A2984 RMK SC1SC6AC1CI1 TCU EMBD DIST SH SE-NW SLP107

CYQB;2008-08-06 15:00;CYQB 061500Z 09013G19KT 30SM -SHRA FEW030 BKN070 BKN110 18/14 A2984 RMK SC1AC6AC1 CVCTV CLDS EMBD SLP106

CYQB;2008-08-06 16:00;CYQB 061600Z 08012G20KT 30SM FEW015 BKN032 OVC220 18/14 A2983 RMK SF1SC7CI0 SLP104

CYQB;2008-08-06 17:00;CYQB 061700Z 07011G19KT 30SM BKN035 OVC085 18/15 A2983 RMK SC7AC1 DIST SH SW QUAD SLP102

CYQB;2008-08-06 17:19;CYQB 061719Z CCA 08009KT 30SM -SHRA FEW015 OVC035 19/ RMK SF1SC8

CYQB;2008-08-06 18:00;CYQB 061800Z 09009KT 12SM -SHRA OVC030 18/15 A2982 RMK SC8 VIS N-E 30 SLP100

CYQB;2008-08-06 19:00;CYQB 061900Z 10008KT 8SM -SHRA OVC021 18/16 A2982 RERA RMK SC8 SLP099

CYQB;2008-08-06 20:00;CYQB 062000Z 09006KT 5SM -SHRA BR SCT015 OVC031 17/16 A2982 RMK CF3SC5 SLP098

CYQB;2008-08-06 21:00;CYQB 062100Z 07009KT 5SM -SHRA BR OVC021 17/16 A2982 RMK SC8 SLP099

CYQB;2008-08-06 22:00;CYQB 062200Z 08007KT 15SM -SHRA FEW009 FEW013 OVC022 17/16 A2982 RMK ST1SF1SC7 VIS NW-NE 7 SLP100

CYQB;2008-08-06 23:00;CYQB 062300Z 07008KT 15SM -SHRA FEW013 OVC018 16/15 A2983 RMK SF2SC6 SLP101

CYQB;2008-08-07 00:00;CYQB 070000Z 07012KT 8SM -SHRA FEW012 OVC031 16/15 A2983 RMK SF2SC6 SLP101

CYQB;2008-08-07 01:00;CYQB 070100Z 07012KT 5SM -SHRA BR FEW012 BKN025 OVC040 15/15 A2983 RMK SF2SC3SC2 SLP104

CYQB;2008-08-07 02:00;CYQB 070200Z 08008KT 15SM FEW012 BKN052 15/15 A2983 RMK SF2SC5 SLP103

CYQB;2008-08-07 03:00;CYQB 070300Z 07009KT 15SM FEW012 SCT027 OVC052 16/14 A2982 RMK SF2SC2SC3 SLP099

CYQB;2008-08-07 04:00;CYQB 070400Z 07007KT 15SM FEW012 BKN025 OVC052 16/15 A2981 RMK SF2SC5SC1 SLP096

CYQB;2008-08-07 05:00;CYQB 070500Z 07010KT 15SM FEW012 BKN023 OVC052 16/15 A2981 RMK SF2SC5SC2 SLP097

CYQB;2008-08-07 06:00;CYQB 070600Z 08008KT 15SM SCT022 BKN039 OVC075 16/13 A2981 RMK SC3SC3AC2 SLP095

CYQB;2008-08-07 07:00;CYQB 070700Z 08010G16KT 15SM FEW012 FEW023 OVC049 16/13 A2980 RMK SF1SC2SC6 SLP091

CYQB;2008-08-07 08:00;CYQB 070800Z 07013KT 15SM FEW012 SCT023 OVC058 16/13 A2979 RMK SF2SC2SC4 SLP089

CYQB;2008-08-07 09:00;CYQB 070900Z 09009KT 15SM FEW012 SCT023 OVC054 16/13 A2979 RMK SF2SC2SC4 SLP088

CYQB;2008-08-07 10:00;CYQB 071000Z 09011KT 15SM BKN024 OVC054 16/13 A2979 RMK SC7SC1 SLP089

CYQB;2008-08-07 11:00;CYQB 071100Z 07011G19KT 15SM OVC024 16/14 A2980 RMK SC8 SLP091

CYQB;2008-08-07 12:00;CYQB 071200Z 07014G19KT 15SM -SHRA BKN026 OVC035 16/14 A2980 RMK SC7SC1 SLP091

CYQB;2008-08-07 13:00;CYQB 071300Z 08009G19KT 10SM -SHRA FEW010 BKN024 OVC035 16/15 A2980 RMK SF2SC5SC1 SLP093

CYQB;2008-08-07 14:00;CYQB 071400Z 07012KT 6SM -RA BR SCT010 BKN021 OVC035 16/15 A2980 RMK SF3SC4SC1 SLP093

CYQB;2008-08-07 15:00;CYQB 071500Z 09008KT 6SM -RA BR BKN010 BKN025 OVC035 16/15 A2981 RMK SF5SC2SC1 RAG CIG SLP094

CYQB;2008-08-07 16:00;CYQB 071600Z 08010G17KT 6SM -RA BR BKN010 BKN025 OVC035 16/15 A2980 RMK SF6SC2SC1 VIS LWR NW RAG CIG SLP092

CYQB;2008-08-07 17:00;CYQB 071700Z 07010G18KT 4SM -RA BR BKN008 BKN015 OVC030 16/15 A2977 RMK SF6SC1SC1 VIS LWR NW RAG CIG SLP082

CYQB;2008-08-07 18:00;CYQB 071800Z 07009KT 6SM -RA BR SCT005 BKN008 OVC020 16/16 A2978 RMK SF3SC4SC1 RAG CIG SLP084

CYQB;2008-08-07 18:43;CYQB 071843Z 08011G18KT 6SM -RA BR SCT008 BKN020 OVC035 17/ RMK SF4SC2SC2 RAG CIG

CYQB;2008-08-07 19:00;CYQB 071900Z 08011G16KT 8SM -RA FEW010 BKN025 OVC035 16/15 A2977 RMK SF2SC2SC3 SLP083

CYQB;2008-08-07 20:00;CYQB 072000Z 07013KT 8SM -RA FEW010 FEW018 OVC039 17/15 A2977 RMK SF1SC2SC6 SLP081

CYQB;2008-08-07 21:00;CYQB 072100Z 07010G15KT 8SM -RA FEW010 BKN031 OVC038 17/15 A2976 RMK SF2SC4SC2 SLP079

CYQB;2008-08-07 22:00;CYQB 072200Z 07010KT 15SM FEW010 SCT020 BKN043 OVC068 18/15 A2976 RMK CF1SC2SC2AC3 SLP078

CYQB;2008-08-07 23:00;CYQB 072300Z 08009KT 10SM FEW010 BKN020 OVC030 18/15 A2976 RMK CF1SC5SC2 SLP078

CYQB;2008-08-08 00:00;CYQB 080000Z 08008KT 10SM FEW020 OVC034 17/15 A2976 RMK SC2SC6 SLP077

CYQB;2008-08-08 01:00;CYQB 080100Z 09008KT 10SM OVC032 17/14 A2976 RMK SC8 SLP079

CYQB;2008-08-08 02:00;CYQB 080200Z 09007G15KT 10SM OVC023 17/13 A2976 RMK SC8 SLP078

CYQB;2008-08-08 03:00;CYQB 080300Z 08008KT 6SM -SHRA BR OVC020 15/14 A2975 RMK SC8 SLP077

CYQB;2008-08-08 04:00;CYQB 080400Z 07008KT 2 1/2SM -SHRA BR FEW003 BKN007 OVC015 15/14 A2974 RMK SF2SF4SC2 SLP073

CYQB;2008-08-08 05:00;CYQB 080500Z 07011KT 2SM -SHRA BR SCT003 BKN007 OVC011 15/15 A2973 RMK SF3SF3SC2 SLP068

CYQB;2008-08-08 05:30;CYQB 080530Z 07010G16KT 6SM BR BKN005 OVC013 15/ RMK SF6SC2

CYQB;2008-08-08 06:00;CYQB 080600Z 06010G15KT 3SM BR BKN005 OVC016 15/15 A2972 RMK SF6SC2 SLP065

CYQB;2008-08-08 07:00;CYQB 080700Z 07008KT 3SM BR BKN005 OVC018 15/15 A2972 RMK SF5SC3 SLP064

CYQB;2008-08-08 08:00;CYQB 080800Z 08006KT 6SM BR SCT005 OVC012 15/15 A2971 RMK SF3SC5 SLP062

CYQB;2008-08-08 09:00;CYQB 080900Z 07012KT 10SM FEW005 OVC013 15/15 A2971 RMK SF2SC6 SLP060

CYQB;2008-08-08 10:00;CYQB 081000Z 07010KT 10SM -SHRA BKN004 OVC012 15/15 A2971 RMK SF6SC2 SLP060

CYQB;2008-08-08 11:00;CYQB 081100Z 08009KT 10SM BKN005 OVC011 15/15 A2971 RMK SF7SC1 OCNL -SHRA SLP061

CYQB;2008-08-08 12:00;CYQB 081200Z 08010KT 10SM OVC005 15/15 A2972 RMK SF8 OCNL -SHRA SLP063

CYQB;2008-08-08 12:16;CYQB 081216Z 07009KT 10SM OVC005 15/ RMK SF8

CYQB;2008-08-08 12:35;CYQB 081235Z 08009KT 10SM -DZ OVC005 15/ RMK SF8

CYQB;2008-08-08 12:47;CYQB 081247Z 09006KT 7SM -SHRA OVC004 15/ RMK SF8

CYQB;2008-08-08 13:00;CYQB 081300Z 07012KT 2 1/2SM -SHRA BR OVC004 15/15 A2972 RMK SF8 SLP063

CYQB;2008-08-08 13:35;CYQB 081335Z 07009KT 2 1/2SM -SHRA BR OVC003 15/ RMK SF8

CYQB;2008-08-08 14:00;CYQB 081400Z 07012KT 2 1/2SM -SHRA BR BKN003 OVC012 15/15 A2972 RMK SF6SC2 SLP063

CYQB;2008-08-08 14:24;CYQB 081424Z 08010G16KT 2 1/2SM -SHRA BR BKN004 OVC012 15/ RMK SF7SC1

CYQB;2008-08-08 14:31;CYQB 081431Z 07010KT 1 1/2SM -RA BR OVC004 15/ RMK SF8

CYQB;2008-08-08 14:34;CYQB 081434Z 08010KT 1 1/4SM R06/4500VP6000FT/D RA BR FEW003 OVC004 15/ RMK SF2SF6

CYQB;2008-08-08 14:53;CYQB 081453Z 07010G15KT 1 1/2SM -RA BR FEW002 OVC004 15/ RMK SF2SF6

CYQB;2008-08-08 15:00;CYQB 081500Z 08009KT 1 1/2SM RA BR FEW002 OVC004 15/15 A2972 RMK SF2SF6 SLP066

CYQB;2008-08-08 15:24;CYQB 081524Z 07014KT 4SM -RA BR FEW002 OVC006 15/ RMK SF2SF6

CYQB;2008-08-08 16:00;CYQB 081600Z 07009KT 4SM -RA BR FEW003 OVC005 16/15 A2972 RMK SF2SF6 SLP065

CYQB;2008-08-08 16:49;CYQB 081649Z 07009KT 5SM -RA BR FEW004 OVC006 16/ RMK SF2SF6

CYQB;2008-08-08 17:00;CYQB 081700Z 07010KT 6SM -RA BR FEW004 BKN006 OVC013 16/15 A2971 RMK SF2SF6SC1 SLP062

CYQB;2008-08-08 18:00;CYQB 081800Z 07007KT 6SM -RA BR BKN005 OVC012 16/16 A2970 RMK SF7SC1 SLP057

CYQB;2008-08-08 18:28;CYQB 081828Z 07011KT 6SM -RA BR SCT005 OVC007 17/ RMK SF4SF4

CYQB;2008-08-08 19:00;CYQB 081900Z 07011KT 5SM -RA BR BKN006 BKN015 OVC030 17/16 A2969 RMK SF6SF1SC1 CIG VRB 4-8 SLP055

CYQB;2008-08-08 19:29;CYQB 081929Z 08009KT 6SM -RADZ BR BKN006 BKN025 OVC060 17/ RMK SF5SC2SC2 CIG VRB 4-8 VIS NW-NE 12

CYQB;2008-08-08 20:00;CYQB 082000Z 08007KT 6SM -RA BR BKN006 OVC018 17/16 A2969 RMK SF6SC2 SLP055

CYQB;2008-08-08 20:42;CYQB 082042Z 07006KT 10SM -RA FEW006 SCT020 BKN085 OVC120 17/ RMK SF2SC2AC4AC1

CYQB;2008-08-08 21:00;CYQB 082100Z 07007KT 10SM -RA FEW007 SCT060 OVC095 17/16 A2969 RMK SF2SC2AC5 SLP054

CYQB;2008-08-08 22:00;CYQB 082200Z 06005KT 15SM -RA FEW005 FEW025 OVC095 17/16 A2969 RMK SF1SC1AC6 VIS LWR W-NE SLP054

CYQB;2008-08-08 23:00;CYQB 082300Z 07007KT 15SM -RA FEW005 BKN030 OVC095 17/16 A2969 RMK SF1SC6AC2 SLP054

CYQB;2008-08-09 00:00;CYQB 090000Z 09005KT 15SM -RA FEW006 FEW020 SCT040 BKN110 OVC220 16/16 A2970 RMK SF1SC1SC2AC4CI0 SLP056

CYQB;2008-08-09 00:25;CYQB 090025Z 08004KT 15SM FEW006 FEW028 BKN100 OVC220 16/ RMK SF1SC1AC6CI1

CYQB;2008-08-09 01:00;CYQB 090100Z 07004KT 15SM FEW007 SCT030 BKN095 BKN220 16/15 A2970 RMK SF1SC4AC2CI1 SLP058

CYQB;2008-08-09 02:00;CYQB 090200Z 07006KT 8SM -SHRA BKN029 OVC100 16/15 A2970 RMK SC7AC1 SLP058

CYQB;2008-08-09 03:00;CYQB 090300Z 07004KT 10SM -SHRA SCT027 BKN120 16/15 A2970 RMK SC4AC3 SLP056

CYQB;2008-08-09 04:00;CYQB 090400Z 07005KT 15SM FEW015 OVC025 16/15 A2970 RMK CF1SC8 SLP057

CYQB;2008-08-09 05:00;CYQB 090500Z 06004KT 15SM BKN024 BKN035 OVC120 16/15 A2970 RMK SC5SC2AC2 SLP056

CYQB;2008-08-09 06:00;CYQB 090600Z 06004KT 15SM BKN028 OVC130 15/15 A2970 RMK SC6AC2 SLP057

CYQB;2008-08-09 07:00;CYQB 090700Z 07005KT 10SM FEW018 BKN020 OVC130 15/15 A2970 RMK SF2SC4AC2 SLP059

CYQB;2008-08-09 08:00;CYQB 090800Z 04003KT 10SM FEW018 SCT031 BKN110 OVC240 15/15 A2970 RMK SF1SC3AC3CI1 SLP059

CYQB;2008-08-09 09:00;CYQB 090900Z 08003KT 15SM FEW012 BKN020 BKN034 15/15 A2972 RMK SF1SC4SC2 SLP063

CYQB;2008-08-09 10:00;CYQB 091000Z 06003KT 15SM FEW012 FEW020 BKN047 BKN055 15/15 A2972 RMK SF1SC1SC5SC2 SLP066

CYQB;2008-08-09 11:00;CYQB 091100Z 05003KT 15SM FEW012 FEW020 SCT048 BKN065 16/15 A2974 RMK SF1SC1SC3SC4 SLP072

CYQB;2008-08-09 12:00;CYQB 091200Z 08004KT 15SM BKN023 BKN045 BKN065 17/15 A2975 RMK SC5SC2SC1 SLP076

CYQB;2008-08-09 13:00;CYQB 091300Z 08003KT 15SM BKN020 BKN045 BKN065 17/15 A2977 RMK SC6SC1SC1 SLP081

CYQB;2008-08-09 14:00;CYQB 091400Z 06005KT 15SM BKN018 OVC036 18/15 A2978 RMK SC7SC1 SLP085

CYQB;2008-08-09 15:00;CYQB 091500Z 07007KT 30SM BKN015 BKN040 BKN093 19/16 A2979 RMK SC6SC1AC1 SLP087

CYQB;2008-08-09 16:00;CYQB 091600Z 05003KT 30SM BKN018 BKN040 OVC240 19/16 A2979 RMK SC6SC1CI1 SLP089

CYQB;2008-08-09 17:00;CYQB 091700Z 09003KT 30SM FEW025 SCT045 BKN060 BKN250 21/16 A2979 RMK SC2SC1SC2CI1 TCU ASOCTD SLP087

CYQB;2008-08-09 18:00;CYQB 091800Z 18003KT 30SM SCT025 BKN058 BKN250 20/15 A2979 RMK SC3SC2CI2 SLP088

CYQB;2008-08-09 19:00;CYQB 091900Z 00000KT 30SM SCT025 BKN065 BKN250 21/15 A2979 RMK CU3SC3CI1 TCU EMBD SLP089

CYQB;2008-08-09 20:00;CYQB 092000Z CCA 00000KT 30SM SCT025 BKN060 BKN250 22/14 A2980 RMK SC4SC2CI1 TCU E SLP090

CYQB;2008-08-09 21:00;CYQB 092100Z 22004KT 30SM FEW025 BKN070 BKN100 BKN200 22/16 A2981 RMK SC1AC4AC1CI0 TCU ASOCTD SLP093

CYQB;2008-08-09 22:00;CYQB 092200Z 00000KT 30SM FEW025 SCT070 SCT100 22/14 A2982 RMK SC1AC3AC1 SLP097

CYQB;2008-08-09 23:00;CYQB 092300Z 09003KT 30SM FEW038 FEW048TCU SCT062 SCT100 21/16 A2983 RMK SC1TCU2SC1AC1 SLP101

CYQB;2008-08-10 00:00;CYQB 100000Z 08005KT 30SM FEW005 FEW040 FEW065 SCT100 18/16 A2984 RMK SF1SC1SC1AC2 TCU ASOCTD SH E SLP107

CYQB;2008-08-10 01:00;CYQB 100100Z 05005KT 15SM FEW040 FEW060 SCT100 17/15 A2987 RMK SC1SC1AC2 SLP117

CYQB;2008-08-10 02:00;CYQB 100200Z 00000KT 15SM SCT050 BKN080 17/16 A2989 RMK SC4AC0 SLP121

CYQB;2008-08-10 03:00;CYQB 100300Z 01003KT 15SM SCT045 BKN080 17/16 A2989 RMK SC3AC1 SLP123

CYQB;2008-08-10 04:00;CYQB 100400Z 02002KT 15SM BKN065 17/15 A2989 RMK SC3 SLP123

CYQB;2008-08-10 05:00;CYQB 100500Z 05003KT 15SM FEW060 16/15 A2989 RMK SC2 SLP121

CYQB;2008-08-10 06:00;CYQB 100600Z 05004KT 15SM BKN009 BKN060 16/15 A2989 RMK SF6SC1 SLP122

CYQB;2008-08-10 07:00;CYQB 100700Z 02003KT 10SM OVC007 16/15 A2989 RMK SF8 SLP123

CYQB;2008-08-10 08:00;CYQB 100800Z 02002KT 10SM BKN011 16/15 A2989 RMK SF7 SLP122

CYQB;2008-08-10 09:00;CYQB 100900Z 01004KT 10SM BKN008 16/15 A2990 RMK SF7 SLP125

CYQB;2008-08-10 10:00;CYQB 101000Z 06004KT 10SM BKN007 16/15 A2992 RMK SF7 SLP132

CYQB;2008-08-10 11:00;CYQB 101100Z 07006KT 10SM OVC007 17/16 A2993 RMK SF8 SLP137

CYQB;2008-08-10 12:00;CYQB 101200Z 06005KT 15SM BKN009 17/16 A2994 RMK SF7 SLP141

CYQB;2008-08-10 13:00;CYQB 101300Z 08007KT 15SM BKN010 17/15 A2995 RMK SF7 VIA YQB FIC SLP143

CYQB;2008-08-10 14:00;CYQB 101400Z 06007KT 15SM OVC012 18/16 A2996 RMK SC8 SLP145

CYQB;2008-08-10 15:00;CYQB 101500Z 09006KT 15SM BKN013 19/16 A2996 RMK SC7 SLP146

CYQB;2008-08-10 16:00;CYQB 101600Z 07005KT 15SM SCT015 BKN250 20/16 A2995 RMK SC4CI0 SLP142

CYQB;2008-08-10 17:00;CYQB 101700Z 10007KT 20SM FEW030 BKN250 21/17 A2995 RMK CU2CI1 SLP142

CYQB;2008-08-10 18:00;CYQB 101800Z CCA 06007KT 15SM SCT030 BKN250 23/17 A2994 RMK CU3CI0 TCU ASOCTD SLP138

CYQB;2008-08-10 19:00;CYQB 101900Z 07009KT 20SM FEW035 BKN250 23/16 A2992 RMK CU2CI0 TCU ASOCTD SLP134

CYQB;2008-08-10 20:00;CYQB 102000Z 08008KT 20SM FEW035TCU SCT250 23/16 A2991 RMK TCU2CI0 SLP129

CYQB;2008-08-10 21:00;CYQB 102100Z 07008KT 30SM FEW035TCU SCT250 23/16 A2991 RMK TCU2CI0 SLP128

CYQB;2008-08-10 22:00;CYQB 102200Z 06010KT 30SM FEW035TCU SCT250 23/17 A2991 RMK TCU2CI0 CB ASOCTD SLP127

CYQB;2008-08-10 23:00;CYQB 102300Z 08009KT 30SM FEW035TCU SCT250 21/15 A2991 RMK TCU2CI0 CB ASOCTD SLP129

CYQB;2008-08-11 00:00;CYQB 110000Z 07005KT 30SM FEW035CB FEW180 SCT250 20/16 A2992 RMK CB1AC1CI0 SLP131

CYQB;2008-08-11 01:00;CYQB 110100Z 06006KT 20SM FEW035TCU FEW180 SCT250 19/16 A2993 RMK TCU1AC1CI0 SLP136

CYQB;2008-08-11 02:00;CYQB 110200Z 07009KT 15SM FEW035 FEW140 SCT250 18/16 A2994 RMK CU1AC2CI0 SLP139

CYQB;2008-08-11 03:00;CYQB 110300Z 07007KT 15SM FEW035 FEW140 FEW250 18/16 A2994 RMK CF1AC1CI0 SLP140

CYQB;2008-08-11 04:00;CYQB 110400Z 06007KT 15SM FEW035 FEW250 17/16 A2994 RMK CF1CI1 SLP139

CYQB;2008-08-11 05:00;CYQB 110500Z 06006KT 10SM SCT007 17/16 A2992 RMK SF3 SLP134

CYQB;2008-08-11 06:00;CYQB 110600Z 06007KT 10SM FEW007 17/16 A2992 RMK SF1 SLP131

CYQB;2008-08-11 06:40;CYQB 110640Z 05005KT 10SM BKN007 17/ RMK SF6

CYQB;2008-08-11 07:00;CYQB 110700Z 06005KT 10SM BKN007 BKN070 17/16 A2992 RMK SF6AC1 SLP132

CYQB;2008-08-11 07:44;CYQB 110744Z 07006KT 10SM OVC005 17/ RMK SF8

CYQB;2008-08-11 08:00;CYQB 110800Z 07007KT 10SM VCFG OVC006 17/16 A2992 RMK SF8 VIS LWR W SLP131

CYQB;2008-08-11 09:00;CYQB 110900Z 07007KT 10SM VCFG OVC005 17/16 A2992 RMK SF8 VIS LWR W SLP131

CYQB;2008-08-11 10:00;CYQB 111000Z 06007KT 4SM BR OVC004 17/16 A2992 RMK SF8 SLP133

CYQB;2008-08-11 11:00;CYQB 111100Z 05007KT 3SM BR OVC004 17/16 A2993 RMK SF8 SLP134

CYQB;2008-08-11 11:09;CYQB 111109Z 04007KT 3SM BR OVC003 17/ RMK SF8

CYQB;2008-08-11 12:00;CYQB 111200Z 05007KT 3SM BR OVC003 17/16 A2992 RMK SF8 SLP132

CYQB;2008-08-11 12:14;CYQB 111214Z 06007KT 3SM BR OVC004 17/ RMK SF8

CYQB;2008-08-11 12:48;CYQB 111248Z 07007KT 4SM BR OVC006 17/ RMK SF8

CYQB;2008-08-11 13:00;CYQB 111300Z 07005KT 4SM BR SCT004 OVC005 17/16 A2993 RMK SF4SF4 SLP136

CYQB;2008-08-11 13:40;CYQB 111340Z 06007KT 4SM BR BKN006 OVC011 18/ RMK SF6SC2

CYQB;2008-08-11 14:00;CYQB 111400Z 05008KT 5SM BR BKN007 OVC011 18/16 A2992 RMK SF6SC2 SLP134

CYQB;2008-08-11 14:47;CYQB 111447Z 07006KT 8SM SCT008 OVC013 19/ RMK SF3SC5

CYQB;2008-08-11 15:00;CYQB 111500Z 08004KT 10SM FEW008 OVC011 19/16 A2992 RMK SF2SC6 SLP132

CYQB;2008-08-11 16:00;CYQB 111600Z 08006KT 12SM SCT011 OVC016 19/16 A2991 RMK SF3SC5 SLP129

CYQB;2008-08-11 17:00;CYQB 111700Z 07006KT 12SM FEW013 BKN016 BKN100 20/16 A2989 RMK SF2SC5AC1 SLP123

CYQB;2008-08-11 18:00;CYQB 111800Z 00000KT 15SM FEW018 SCT100 BKN230 22/17 A2986 RMK CU2AC1CI2 SLP112

CYQB;2008-08-11 19:00;CYQB 111900Z 15003KT 15SM FEW022 SCT230 23/17 A2984 RMK CU2CI1 SLP104

CYQB;2008-08-11 20:00;CYQB 112000Z 08003KT 15SM FEW030 BKN230 23/17 A2982 RMK CU2CI0 SLP099

CYQB;2008-08-11 21:00;CYQB 112100Z 08008KT 20SM FEW030TCU SCT230 23/17 A2981 RMK TCU2CI0 CB S-SE SLP095

CYQB;2008-08-11 22:00;CYQB 112200Z 09008KT 10SM TS BKN027TCU OVC230 22/17 A2981 RMK TCU7CI0 CB N-S LTGCC N SLP095

CYQB;2008-08-11 22:22;CYQB 112222Z 25022G33KT 1/2SM R06/4000VP6000FT/D +TSRA FG FEW004 BKN029CB 18/ RMK SF1CB6 LTGCC LTGCG

CYQB;2008-08-11 22:26;CYQB 112226Z 24041G56KT 1/8SM R06/1400V1400FT/N +TSRAGR FG BKN002 OVC015CB 14/ RMK SF5CB3 HAIL DIAM 8 MM LTGCC LTGCG

CYQB;2008-08-11 22:42;CYQB 112242Z 32008G17KT 5SM R06/2800VP6000FT/N TSRA BR FEW020 SCT025CB OVC055 15/ RMK CF2CB2SC4 RERA LTGCC VSBY W 2

CYQB;2008-08-11 23:00;CYQB 112300Z 35009KT 8SM -SHRA FEW020 BKN033TCU BKN055 16/15 A2984 RMK CF2TCU2SC2 RETS RERA LTGCC S SLP104

CYQB;2008-08-11 23:17;CYQB 112317Z 25003KT 8SM -TSRA BKN035TCU BKN060 16/ RMK TCU5SC2 CB ASOCTD LTGCC S

CYQB;2008-08-12 00:00;CYQB 120000Z 08003KT 15SM -SHRA BKN050 BKN090 16/16 A2983 RMK SC5AC2 RETS SLP103

CYQB;2008-08-12 01:00;CYQB 120100Z 34006KT 15SM FEW010 SCT050 BKN160 16/16 A2982 RMK SF1SC3AC2 SLP099

CYQB;2008-08-12 02:00;CYQB 120200Z 36002KT 15SM FEW006 BKN150 16/16 A2981 RMK SF1AC5 SLP095

CYQB;2008-08-12 03:00;CYQB 120300Z 02005KT 15SM FEW010 BKN120 BKN240 16/16 A2980 RMK SF1AC4CI0 SLP090

CYQB;2008-08-12 04:00;CYQB 120400Z 01004KT 15SM FEW120 FEW240 15/15 A2978 RMK AC1CI0 SLP086

CYQB;2008-08-12 05:00;CYQB 120500Z 00000KT 15SM BKN006 15/15 A2978 RMK SF5 SLP084

CYQB;2008-08-12 06:00;CYQB 120600Z 34004KT 15SM FEW006 FEW090 SCT240 15/15 A2977 RMK SF2AC0CI0 SLP082

CYQB;2008-08-12 07:00;CYQB 120700Z 01002KT 15SM BKN012 BKN090 15/15 A2976 RMK SF3AC0 SLP079

CYQB;2008-08-12 08:00;CYQB 120800Z 36005KT 15SM FEW012 FEW090 15/15 A2975 RMK SF1AC0 SLP074

CYQB;2008-08-12 09:00;CYQB 120900Z 02003KT 15SM FEW012 SCT090 BKN240 14/14 A2974 RMK SF1AC1CI0 SLP072

CYQB;2008-08-12 10:00;CYQB 121000Z 00000KT 15SM FEW012 SCT050 BKN100 BKN240 15/14 A2975 RMK SF1SC2AC2CI1 SLP073

CYQB;2008-08-12 11:00;CYQB 121100Z 01002KT 15SM SCT010 BKN050 OVC110 15/15 A2975 RMK ST4SC1AC2 SLP075

CYQB;2008-08-12 11:32;CYQB 121132Z 01003KT 15SM BKN010 BKN050 OVC110 16/ RMK ST5SC1AC2

CYQB;2008-08-12 12:00;CYQB 121200Z 03004KT 15SM BKN010 BKN050 OVC100 16/15 A2977 RMK ST6SC1AC1 SLP081

CYQB;2008-08-12 13:00;CYQB 121300Z 06005KT 15SM BKN011 BKN100 18/16 A2977 RMK SC5AC2 SLP081

CYQB;2008-08-12 14:00;CYQB 121400Z 05005KT 20SM SCT015 BKN100 19/16 A2976 RMK SC4AC2 CU ASOCTD SLP079

CYQB;2008-08-12 15:00;CYQB 121500Z 09005KT 20SM SCT020 BKN120 BKN230 21/16 A2975 RMK SC3AC2CI1 CU ASOCTD SLP076

CYQB;2008-08-12 16:00;CYQB 121600Z 03003KT 20SM SCT020 BKN120 BKN230 21/16 A2973 RMK CU3AC2CI1 SLP069

CYQB;2008-08-12 17:00;CYQB 121700Z 13002KT 20SM SCT030 BKN120 22/15 A2971 RMK CU3AC1 TCU ASOCTD SHRA N VIS N LWR SLP061

CYQB;2008-08-12 17:45;CYQB 121745Z 34007KT 15SM -SHRA SCT030TCU BKN060TCU 21/ RMK TCU4TCU2 VIS NW LWR

CYQB;2008-08-12 18:00;CYQB 121800Z 31006KT 15SM -SHRA BKN030TCU BKN120 19/17 A2971 RMK TCU5AC2 CB ASOCTD VIS NW LWR SLP060

CYQB;2008-08-12 18:10;CYQB 121810Z 31005KT 15SM -TSRA BKN030TCU BKN120 19/ RMK TCU5AC2 CB EMBD LTGCG VIS NW LWR

CYQB;2008-08-12 18:46;CYQB 121846Z 30002KT 15SM -SHRA BKN030TCU BKN097 OVC110 18/ RMK TCU5AC2AC2 RETS CB EMBD VIS W 3

CYQB;2008-08-12 19:00;CYQB 121900Z 34003KT 15SM -SHRA FEW009 BKN030TCU BKN097 18/15 A2972 RETS RMK SF1TCU5AC2 CB EMBD VIS W 5 SLP063

CYQB;2008-08-12 20:00;CYQB 122000Z 01004KT 15SM SCT030TCU BKN095 BKN120 18/15 A2970 RMK TCU4AC2AC1 SLP056

CYQB;2008-08-12 20:08;CYQB 122008Z 00000KT 15SM -SHRA FEW008 BKN029TCU BKN095 18/ RMK CF1TCU5AC2 PCPN VRY LGT

CYQB;2008-08-12 20:32;CYQB 122032Z 31004KT 15SM FEW008 SCT029TCU BKN120 BKN230 19/ RMK CF1TCU3AC2CS1

CYQB;2008-08-12 21:00;CYQB 122100Z 31004KT 15SM VCSH FEW008 FEW029TCU BKN110 BKN230 19/16 A2969 RMK CF1TCU2AC3CS2 SLP054

CYQB;2008-08-12 22:00;CYQB 122200Z 01003KT 15SM VCSH FEW008 SCT045TCU BKN130 BKN230 19/16 A2969 RMK CF1TCU2AC3CS1 SLP054

CYQB;2008-08-12 23:00;CYQB 122300Z 36004KT 15SM FEW008 BKN140 BKN230 19/16 A2970 RMK CF1AC4CS1 SLP056

CYQB;2008-08-13 00:00;CYQB 130000Z 35003KT 15SM FEW008 BKN140 BKN250 18/16 A2970 RMK CF1AC4CI0 SLP058

CYQB;2008-08-13 01:00;CYQB 130100Z 27003KT 15SM FEW008 BKN140 BKN250 16/15 A2972 RMK SF1AC4CS0 VIS S LWR SLP064

CYQB;2008-08-13 02:00;CYQB 130200Z 34003KT 15SM SCT013 BKN075 16/16 A2973 RMK SF3AC3 SLP068

CYQB;2008-08-13 03:00;CYQB 130300Z 33003KT 15SM BKN016 BKN029 16/16 A2973 RMK SF5SC2 SLP067

CYQB;2008-08-13 04:00;CYQB 130400Z 00000KT 15SM FEW016 SCT100 16/15 A2972 RMK SF2AC2 SLP066

CYQB;2008-08-13 05:00;CYQB 130500Z 00000KT 15SM FEW030 FEW100 FEW240 15/14 A2971 RMK SC1AC1CI0 SLP062

CYQB;2008-08-13 06:00;CYQB 130600Z 00000KT 15SM BKN008 BKN014 15/14 A2971 RMK SF6SC1 VIS 6 W AND S QUAD SLP061

CYQB;2008-08-13 07:00;CYQB 130700Z 03003KT 15SM SCT006 BKN011 OVC025 15/14 A2972 RMK SF4SC2SC2 SLP063

CYQB;2008-08-13 08:00;CYQB 130800Z 03004KT 15SM BKN006 BKN011 OVC030 15/14 A2972 RMK SF5SC2SC1 SLP066

CYQB;2008-08-13 08:42;CYQB 130842Z 00000KT 15SM SCT006 OVC013 15/ RMK SF3SC5

CYQB;2008-08-13 09:00;CYQB 130900Z 00000KT 15SM SCT006 OVC015 15/14 A2974 RMK SF3SC5 SLP070

CYQB;2008-08-13 09:55;CYQB 130955Z 00000KT 8SM SCT005 BKN012 BKN030 15/ RMK SF3SC2SC2

CYQB;2008-08-13 10:00;CYQB 131000Z 00000KT 8SM SCT005 BKN010 BKN025 15/15 A2975 RMK SF4SC2SC1 SLP075

CYQB;2008-08-13 10:36;CYQB 131036Z 18004KT 7SM VCFG FEW006 SCT015 BKN036 15/ RMK SF2SC2SC4 FG NW

CYQB;2008-08-13 11:00;CYQB 131100Z 19005KT 6SM BR SCT005 BKN010 OVC035 16/15 A2975 RMK SF4SC3SC1 CIG LWR W-N SLP075

CYQB;2008-08-13 11:04;CYQB 131104Z 19004KT 6SM BR BKN004 OVC010 16/ RMK SF6SC2

CYQB;2008-08-13 12:00;CYQB 131200Z 30002KT 3SM BR BKN004 OVC008 16/16 A2976 RMK SF5SF3 VIS E 6 SLP077

CYQB;2008-08-13 12:47;CYQB 131247Z 25005KT 5SM BR FEW004 BKN006 OVC010 16/ RMK SF2SF4SC2 VIS SW-NW 2

CYQB;2008-08-13 13:00;CYQB 131300Z 23007KT 2 1/2SM BR BKN005 OVC010 16/16 A2977 RMK SF5SC3 VIS N-NE 5 SLP082

CYQB;2008-08-13 13:21;CYQB 131321Z 24005KT 5SM BR BKN004 OVC011 16/ RMK SF6SC2 VIS SW-N 2 1/2

CYQB;2008-08-13 14:00;CYQB 131400Z 21005KT 5SM BR BKN005 OVC025 17/16 A2978 RMK SF6SC2 SLP084

CYQB;2008-08-13 15:00;CYQB 131500Z 23006KT 8SM BKN010 BKN025 17/15 A2978 RMK SC6SC1 SLP086

CYQB;2008-08-13 16:00;CYQB 131600Z 19008KT 10SM BKN015 19/16 A2977 RMK SC6 SLP082

CYQB;2008-08-13 17:00;CYQB 131700Z 23007KT 15SM FEW020 BKN250 20/15 A2976 RMK CU2CI2 TCU ASOCTD SLP079

CYQB;2008-08-13 18:00;CYQB 131800Z 23010KT 15SM FEW020 BKN250 21/16 A2976 RMK CU2CI1 TCU ASOCTD SLP077

CYQB;2008-08-13 19:00;CYQB 131900Z 26012KT 15SM FEW025 FEW090 BKN250 22/16 A2975 RMK CU1AC1CI2 TCU + CB TOP NE SLP074

CYQB;2008-08-13 20:00;CYQB 132000Z 25008KT 30SM FEW030TCU FEW090 BKN250 23/14 A2975 RMK TCU2AC1CI2 SLP074

CYQB;2008-08-13 21:00;CYQB 132100Z 30005KT 30SM FEW035TCU SCT170 OVC250 23/11 A2975 RMK TCU2AC1CI2 SLP074

CYQB;2008-08-13 22:00;CYQB 132200Z 32005KT 30SM FEW038TCU BKN110 BKN170 21/14 A2975 RMK TCU2AC2AC1 CB DIST S SH DIST N SLP076

CYQB;2008-08-13 23:00;CYQB 132300Z 35006KT 30SM FEW038TCU FEW045 BKN110 BKN200 19/12 A2978 RMK TCU2SC1AC3CI1 CB ASOCTD SLP083

CYQB;2008-08-14 00:00;CYQB 140000Z 36003KT 15SM FEW035 FEW050 BKN110 18/12 A2979 RMK SC1SC2AC3 SLP088

CYQB;2008-08-14 01:00;CYQB 140100Z 01004KT 15SM FEW070 BKN170 BKN200 17/13 A2981 RMK AC2AC2CI1 SLP096

CYQB;2008-08-14 02:00;CYQB 140200Z 35003KT 15SM FEW170 17/13 A2982 RMK AC2 SLP097

CYQB;2008-08-14 03:00;CYQB 140300Z 21002KT 15SM FEW170 14/13 A2982 RMK AC1 SLP099

CYQB;2008-08-14 04:00;CYQB 140400Z 00000KT 15SM FEW170 14/12 A2981 RMK AC1 SLP097

CYQB;2008-08-14 05:00;CYQB 140500Z 02002KT 15SM SKC 14/12 A2981 RMK SLP097

CYQB;2008-08-14 06:00;CYQB 140600Z 03003KT 15SM FEW170 14/12 A2981 RMK AC1 SLP096

CYQB;2008-08-14 07:00;CYQB 140700Z 36005KT 15SM FEW170 13/11 A2982 RMK AC1 SLP098

CYQB;2008-08-14 08:00;CYQB 140800Z 00000KT 15SM FEW120 13/11 A2982 RMK AC1 SLP100

CYQB;2008-08-14 09:00;CYQB 140900Z 00000KT 15SM FEW120 12/11 A2982 RMK AC1 SLP099

CYQB;2008-08-14 10:00;CYQB 141000Z 01004KT 15SM FEW010 FEW120 12/10 A2983 RMK ST1AC1 SLP102

CYQB;2008-08-14 11:00;CYQB 141100Z 02004KT 15SM FEW010 FEW120 FEW200 13/11 A2984 RMK ST1AC1CI1 SLP106

CYQB;2008-08-14 12:00;CYQB 141200Z 01002KT 15SM FEW080 FEW200 15/12 A2985 RMK AC2CI1 SLP110

CYQB;2008-08-14 13:00;CYQB 141300Z 06002KT 20SM FEW020 FEW080 FEW200 17/14 A2986 RMK SC1AC1CI1 CU ASOCTD SLP111

CYQB;2008-08-14 14:00;CYQB 141400Z 09004KT 20SM FEW020 18/14 A2986 RMK CU1 TCU ASOCTD SLP113

CYQB;2008-08-14 15:00;CYQB 141500Z 08003KT 20SM FEW025 FEW100 20/15 A2986 RMK CU1AC1 TCU ASOCTD SLP112

CYQB;2008-08-14 16:00;CYQB 141600Z 00000KT 20SM FEW027 FEW160 22/15 A2984 RMK CU2AC1 TCU ASOCTD SLP106

CYQB;2008-08-14 17:00;CYQB 141700Z 21002KT 20SM FEW030 FEW160 22/15 A2983 RMK CU2AC1 TCU ASOCTD SLP103

CYQB;2008-08-14 18:00;CYQB 141800Z CCA 00000KT 20SM FEW040 FEW100 23/14 A2981 RMK CU2AC1 TCU ASOCTD SLP095

CYQB;2008-08-14 19:00;CYQB 141900Z 19004KT 25SM FEW036 FEW100 23/14 A2981 RMK CU2AC1 TCU ASOCTD SLP096

CYQB;2008-08-14 20:00;CYQB 142000Z 08007KT 25SM FEW048 FEW100 23/14 A2981 RMK CU2AC1 SLP095

CYQB;2008-08-14 20:10;CYQB 142010Z CCA 07009KT 25SM -SHRA FEW048 SCT100 23/ RMK CU2AC2 TCU ASOCTD

CYQB;2008-08-14 20:37;CYQB 142037Z 10004KT 25SM SCT048 SCT100 23/ RMK CU3AC1

CYQB;2008-08-14 21:00;CYQB 142100Z 22002KT 25SM SCT045 SCT120 24/14 A2981 RMK CU3AC1 TCU ASOCTD SLP096

CYQB;2008-08-14 22:00;CYQB 142200Z 08008KT 15SM -SHRA FEW048TCU SCT062 SCT110 22/16 A2983 RMK TCU1SC2AC1 SH DIST N SLP103

CYQB;2008-08-14 22:24;CYQB 142224Z 06008KT 15SM FEW048TCU SCT067 SCT120 21/ RMK TCU1AC2AC1 VIS LWR N DIST SHRA N

CYQB;2008-08-14 23:00;CYQB 142300Z 08009KT 15SM VCSH SCT055TCU BKN100 21/16 A2986 RMK TCU4AC1 VIS NE 4 CB ASOCTD SLP110

CYQB;2008-08-14 23:17;CYQB 142317Z 04006KT 15SM -TSRA SCT055TCU BKN100 20/ RMK TCU4AC2 CB ASOCTD

CYQB;2008-08-14 23:41;CYQB 142341Z 04004KT 15SM VCSH FEW055TCU SCT120 19/ RMK TCU1AC3

CYQB;2008-08-15 00:00;CYQB 150000Z 34003KT 15SM FEW055TCU FEW090 SCT120 19/13 A2986 RMK TCU1AC2AC1 SLP111

CYQB;2008-08-15 01:00;CYQB 150100Z 04006KT 15SM FEW055 FEW090 17/15 A2989 RMK CU1AC1 SLP121

CYQB;2008-08-15 02:00;CYQB 150200Z 34002KT 15SM FEW090 16/15 A2989 RMK AC1 SLP123

CYQB;2008-08-15 03:00;CYQB 150300Z 36003KT 15SM FEW090 16/15 A2990 RMK AC1 SLP125

CYQB;2008-08-15 04:00;CYQB 150400Z 36003KT 15SM FEW011 FEW090 16/14 A2991 RMK SC2AC1 SLP129

CYQB;2008-08-15 04:28;CYQB 150428Z 02002KT 15SM BKN011 16/ RMK SF7

CYQB;2008-08-15 05:00;CYQB 150500Z 01004KT 15SM BKN011 16/14 A2991 RMK SF7 SLP130

CYQB;2008-08-15 06:00;CYQB 150600Z 36004KT 15SM BKN010 15/14 A2992 RMK SF7 SLP134

CYQB;2008-08-15 07:00;CYQB 150700Z 01003KT 15SM BKN013 14/13 A2994 RMK SF6 SLP138

CYQB;2008-08-15 08:00;CYQB 150800Z 01005KT 15SM BKN010 14/12 A2994 RMK SF7 SLP141

CYQB;2008-08-15 08:33;CYQB 150833Z 01005KT 15SM FEW010 14/ RMK SF2

CYQB;2008-08-15 09:00;CYQB 150900Z 02005KT 15SM FEW010 13/12 A2994 RMK SF2 SLP141

CYQB;2008-08-15 10:00;CYQB 151000Z 02005KT 15SM FEW010 FEW220 13/12 A2996 RMK SF1CI0 SLP145

CYQB;2008-08-15 10:33;CYQB 151033Z 02005KT 20SM BKN006 BKN220 13/ RMK SF2CI0

CYQB;2008-08-15 10:53;CYQB 151053Z 02005KT 20SM FEW006 SCT220 14/ RMK SF1CI1

CYQB;2008-08-15 11:00;CYQB 151100Z 02005KT 20SM FEW006 FEW250 14/12 A2997 RMK SF1CI1 SLP151

CYQB;2008-08-15 12:00;CYQB 151200Z 02004KT 15SM FEW006 FEW250 16/13 A2999 RMK SF1CI0 SLP156

CYQB;2008-08-15 13:00;CYQB 151300Z 00000KT 15SM FEW010 FEW250 18/15 A3000 RMK SF1CI0 SLP158

CYQB;2008-08-15 14:00;CYQB 151400Z 17004KT 20SM FEW015 BKN250 19/15 A3000 RMK CU1CI1 SLP161

CYQB;2008-08-15 15:00;CYQB 151500Z 22006KT 20SM FEW020 BKN250 20/16 A3000 RMK CU1CI1 DIST TCU E-SE SLP161

CYQB;2008-08-15 16:00;CYQB 151600Z 27004KT 20SM FEW024 SCT250 21/15 A3000 RMK CU1CI1 DIST TCU E AND SW SLP158

CYQB;2008-08-15 17:00;CYQB 151700Z 25005KT 20SM FEW028 SCT250 23/15 A2998 RMK CU1CI1 DIST TCU E AND SW SLP153

CYQB;2008-08-15 18:00;CYQB 151800Z 20004KT 20SM FEW044 FEW070 SCT250 24/14 A2997 RMK CU2AC1CI1 TCU ASOCTD CB TOP DIST NE SLP149

CYQB;2008-08-15 19:00;CYQB 151900Z 22006KT 30SM FEW045 SCT250 25/13 A2996 RMK CU2CI0 CB ASOCTD SLP147

CYQB;2008-08-15 20:00;CYQB 152000Z 23008KT 30SM SCT045 SCT250 25/13 A2996 RMK CU3CI0 CB ASOCTD SLP146

CYQB;2008-08-15 21:00;CYQB 152100Z 23004KT 30SM SCT045 SCT250 25/13 A2996 RMK CU3CI0 CB ASOCTD SLP147

CYQB;2008-08-15 22:00;CYQB 152200Z 24004KT 30SM FEW045 SCT250 24/14 A2996 RMK CU2CI0 SLP147

CYQB;2008-08-15 23:00;CYQB 152300Z 24003KT 20SM FEW045 FEW100 SCT250 23/14 A2997 RMK CU2AC1CI0 TCU ASOCTD SLP148

CYQB;2008-08-16 00:00;CYQB 160000Z 29005KT 20SM FEW025 FEW250 21/15 A2998 RMK CU2CI0 SLP153

CYQB;2008-08-16 01:00;CYQB 160100Z 33004KT 15SM FEW055 19/14 A2999 RMK SC2 SLP157

CYQB;2008-08-16 02:00;CYQB 160200Z 36002KT 15SM FEW050 19/14 A3000 RMK SC1 SLP159

CYQB;2008-08-16 03:00;CYQB 160300Z 02004KT 15SM SKC 18/15 A2999 RMK SLP157

CYQB;2008-08-16 04:00;CYQB 160400Z 02002KT 15SM FEW050 17/15 A3000 RMK SC1 SLP158

CYQB;2008-08-16 05:00;CYQB 160500Z 00000KT 15SM SKC 16/14 A2999 RMK SLP157

CYQB;2008-08-16 06:00;CYQB 160600Z 24003KT 15SM FEW060 14/13 A2998 RMK SC1 SLP154

CYQB;2008-08-16 07:00;CYQB 160700Z 00000KT 15SM SKC 14/13 A2997 RMK SLP149

CYQB;2008-08-16 08:00;CYQB 160800Z 00000KT 15SM SKC 14/13 A2997 RMK SLP149

CYQB;2008-08-16 09:00;CYQB 160900Z 00000KT 15SM FEW005 FEW080 13/12 A2996 RMK SF1AC1 SLP146

CYQB;2008-08-16 10:00;CYQB 161000Z 34004KT 15SM BCFG BKN005 BKN120 14/13 A2997 RMK ST5AC1 SLP148

CYQB;2008-08-16 10:16;CYQB 161016Z 34002KT 1/2SM R06/1200FT/N FG BKN005 BKN120 14/ RMK FG3ST2AC1

CYQB;2008-08-16 10:38;CYQB 161038Z 36002KT 3/8SM R06/0700V1200FT/N FG BKN004 14/ RMK FG6ST1

CYQB;2008-08-16 11:00;CYQB 161100Z 00000KT 3/8SM R06/2800FT/N FG OVC004 14/14 A2996 RMK FG6ST2 SLP146

CYQB;2008-08-16 12:00;CYQB 161200Z 28004KT 1/4SM R06/2000FT/N FG OVC002 15/15 A2996 RMK FG6ST2 SLP145

CYQB;2008-08-16 13:00;CYQB 161300Z 24008KT 3/8SM R06/1800FT/N FG OVC004 16/16 A2995 RMK FG6ST2 SLP143

CYQB;2008-08-16 13:23;CYQB 161323Z 25006KT 1/2SM R06/3000V4500FT/N FG OVC003 16/ RMK FG6ST2

CYQB;2008-08-16 13:40;CYQB 161340Z 24007KT 1SM R06/3000V5000FT/N BR OVC002 16/ RMK FG5ST3

CYQB;2008-08-16 14:00;CYQB 161400Z 25006KT 2SM BR BKN005 17/17 A2994 RMK ST7 SLP140

CYQB;2008-08-16 14:18;CYQB 161418Z 26006KT 5SM BR SCT005 18/ RMK ST4

CYQB;2008-08-16 15:00;CYQB 161500Z 25006KT 30SM FEW005 FEW030 20/17 A2993 RMK ST1CU2 SLP136

CYQB;2008-08-16 16:00;CYQB 161600Z 23012KT 30SM FEW030 22/16 A2990 RMK CU2 SLP126

CYQB;2008-08-16 17:00;CYQB 161700Z 26011G19KT 30SM FEW030 FEW250 23/16 A2987 RMK CU2CI1 TCU ASOCTD SLP117

CYQB;2008-08-16 18:00;CYQB 161800Z 25013G18KT 30SM FEW030 FEW250 24/14 A2984 RMK CU2CI1 TCU ASOCTD SLP106

CYQB;2008-08-16 19:00;CYQB 161900Z 26010G16KT 30SM FEW030 FEW250 24/15 A2982 RMK CU1CI1 SLP097

CYQB;2008-08-16 20:00;CYQB 162000Z 23011G16KT 30SM FEW030 FEW250 24/14 A2980 RMK CU1CI1 SLP090

CYQB;2008-08-16 21:00;CYQB 162100Z 26011G16KT 30SM FEW030 FEW250 24/14 A2978 RMK CU1CI1 SLP084

CYQB;2008-08-16 22:00;CYQB 162200Z 25010KT 30SM FEW030 FEW130 FEW230 24/14 A2977 RMK SC1AC1CI1 CU ASOCTD SLP080

CYQB;2008-08-16 23:00;CYQB 162300Z 25008KT 30SM FEW030 SCT100 BKN230 22/14 A2976 RMK SC2AC1CI0 TCU N SLP077

CYQB;2008-08-17 00:00;CYQB 170000Z 24004KT 30SM FEW030TCU BKN100 BKN230 21/15 A2976 RMK TCU2AC2CI1 -SHRA E QUAD VIS 15 SLP078

CYQB;2008-08-17 01:00;CYQB 170100Z 25006KT 15SM FEW030 BKN080 20/15 A2976 RMK SC2AC4 SLP078

CYQB;2008-08-17 02:00;CYQB 170200Z 27003KT 15SM FEW060 FEW140 BKN240 19/15 A2975 RMK SC2AC1CI2 SLP075

CYQB;2008-08-17 03:00;CYQB 170300Z 24005KT 15SM FEW050 SCT140 19/15 A2974 RMK SC1AC3 SLP070

CYQB;2008-08-17 04:00;CYQB 170400Z 24006KT 15SM SCT120 SCT240 18/15 A2973 RMK AC2CI1 SLP067

CYQB;2008-08-17 05:00;CYQB 170500Z 26007KT 15SM BKN085 18/16 A2972 RMK AC6 SLP065

CYQB;2008-08-17 06:00;CYQB 170600Z 24007KT 15SM BKN076 18/16 A2971 RMK AC6 SLP060

CYQB;2008-08-17 07:00;CYQB 170700Z 25009KT 15SM -RA OVC088 18/16 A2970 RMK AC7 SLP059

CYQB;2008-08-17 07:27;CYQB 170727Z 26009KT 15SM SCT088 BKN140 17/ RMK AC2AC2

CYQB;2008-08-17 08:00;CYQB 170800Z 26008KT 15SM FEW030 SCT140 17/16 A2970 RMK SC1AC2 SLP059

CYQB;2008-08-17 09:00;CYQB 170900Z 27008KT 15SM BKN035 BKN140 17/16 A2970 RMK SC5AC1 SLP059

CYQB;2008-08-17 09:22;CYQB 170922Z 26008KT 15SM -SHRA OVC040 17/ RMK SC7

CYQB;2008-08-17 10:00;CYQB 171000Z 25007KT 15SM -SHRA FEW022 BKN040 OVC078 17/16 A2972 RMK CU2SC5AC2 SLP063

CYQB;2008-08-17 10:51;CYQB 171051Z 25011KT 5SM -SHRA BR FEW006 SCT022 BKN034 OVC078 16/ RMK SF1CU4SC2AC2

CYQB;2008-08-17 11:00;CYQB 171100Z 25012KT 6SM -SHRA BR FEW006 FEW022 BKN034 OVC080 16/15 A2972 RMK CF1CU2SC2AC3 VIS E-SE 3 SLP065

CYQB;2008-08-17 12:00;CYQB 171200Z 25011KT 20SM -SHRA FEW009 SCT060 BKN100 17/16 A2973 RMK SF2SC2AC3 SLP069

CYQB;2008-08-17 13:00;CYQB 171300Z 26014KT 20SM BKN013 19/17 A2974 RMK CU5 CLDS TPG HILL N SLP072

CYQB;2008-08-17 13:49;CYQB 171349Z 28015KT 20SM FEW013 BKN250 20/ RMK CU2CI2

CYQB;2008-08-17 14:00;CYQB 171400Z 29011G17KT 20SM FEW020 BKN250 19/13 A2976 RMK CU2CI2 SLP079

CYQB;2008-08-17 15:00;CYQB 171500Z 29015G22KT 20SM FEW020 BKN250 20/11 A2978 RMK SC2CI2 SLP083

CYQB;2008-08-17 16:00;CYQB 171600Z 28013KT 20SM FEW030 BKN250 19/11 A2978 RMK SC1CI2 SLP084

CYQB;2008-08-17 17:00;CYQB 171700Z 28018KT 30SM FEW030 FEW300 19/10 A2979 RMK SC1CI2 SLP088

CYQB;2008-08-17 18:00;CYQB 171800Z 29012G20KT 20SM FEW030 SCT300 20/10 A2980 RMK SC1CI0 SLP090

CYQB;2008-08-17 19:00;CYQB 171900Z 26016G22KT 30SM FEW040 FEW300 20/10 A2980 RMK CU1CI0 SLP092

CYQB;2008-08-17 20:00;CYQB 172000Z 26013KT 30SM FEW040 SCT300 21/10 A2979 RMK CU1CI2 SLP088

CYQB;2008-08-17 21:00;CYQB 172100Z 27011G16KT 30SM FEW040 SCT300 21/10 A2979 RMK CU1CI1 SLP089

CYQB;2008-08-17 22:00;CYQB 172200Z 26009G15KT 30SM FEW040 FEW300 21/10 A2980 RMK CU1CI1 SLP092

CYQB;2008-08-17 23:00;CYQB 172300Z 26006KT 30SM FEW300 19/11 A2981 RMK CI2 SLP096

CYQB;2008-08-18 00:00;CYQB 180000Z 23003KT 30SM SCT300 17/11 A2983 RMK CI2 SLP101

CYQB;2008-08-18 01:00;CYQB 180100Z 28002KT 15SM FEW300 15/11 A2984 RMK CI0 SLP105

CYQB;2008-08-18 02:00;CYQB 180200Z 00000KT 15SM FEW220 15/10 A2983 RMK CI1 SLP103

CYQB;2008-08-18 03:00;CYQB 180300Z 00000KT 15SM FEW220 14/10 A2983 RMK CI2 SLP102

CYQB;2008-08-18 04:00;CYQB 180400Z 00000KT 15SM FEW220 13/10 A2984 RMK CI1 SLP105

CYQB;2008-08-18 05:00;CYQB 180500Z 36002KT 15SM FEW220 11/10 A2984 RMK CI0 SLP105

CYQB;2008-08-18 06:00;CYQB 180600Z 01003KT 15SM FEW220 12/10 A2983 RMK CI1 SLP104

CYQB;2008-08-18 07:00;CYQB 180700Z 00000KT 15SM FEW140 11/09 A2984 RMK AC2 SLP106

CYQB;2008-08-18 08:00;CYQB 180800Z 01002KT 15SM SKC 11/10 A2983 RMK SLP104

CYQB;2008-08-18 09:00;CYQB 180900Z 02004KT 15SM FEW100 FEW220 12/10 A2983 RMK AC2CI0 SLP103

CYQB;2008-08-18 10:00;CYQB 181000Z 00000KT 30SM FEW100 FEW220 10/09 A2981 RMK AC1CI0 SLP094

CYQB;2008-08-18 11:00;CYQB 181100Z 00000KT 25SM BKN016 12/10 A2981 RMK SC7 SLP096

CYQB;2008-08-18 11:44;CYQB 181144Z 00000KT 25SM OVC014 13/ RMK SC8 CLDS TPG HILLS N-SE

CYQB;2008-08-18 12:00;CYQB 181200Z 14002KT 25SM OVC014 14/11 A2981 RMK SC8 SLP094

CYQB;2008-08-18 13:00;CYQB 181300Z 36003KT 20SM OVC014 15/12 A2980 RMK SC8 CLDS TPG HILLS N-SE SLP092

CYQB;2008-08-18 14:00;CYQB 181400Z 00000KT 20SM OVC014 17/14 A2978 RMK SC8 SLP087

CYQB;2008-08-18 14:25;CYQB 181425Z 28004KT 20SM OVC016 18/ RMK SC8

CYQB;2008-08-18 15:00;CYQB 181500Z 33002KT 30SM FEW011 BKN024 BKN074 19/16 A2978 RMK CF1SC6AC1 SLP084

CYQB;2008-08-18 16:00;CYQB 181600Z 26004KT 30SM FEW015 SCT032 BKN069 BKN240 22/18 A2974 RMK SC2SC2AC1CI0 SLP073

CYQB;2008-08-18 17:00;CYQB 181700Z 24008KT 20SM BKN036 23/18 A2972 RMK SC7 SLP067

CYQB;2008-08-18 17:10;CYQB 181710Z CCA 23006KT 15SM -SHRA BKN035 23/ RMK SC7 TCU EMBD

CYQB;2008-08-18 17:41;CYQB 181741Z 23009G15KT 20SM OVC036 22/ RERA RMK SC8 TCU EMBD

CYQB;2008-08-18 18:00;CYQB 181800Z 22009KT 20SM BKN036 OVC220 23/19 A2970 RERA RMK SC7CI1 SLP057

CYQB;2008-08-18 19:00;CYQB 181900Z 22011G18KT 15SM FEW020CB BKN042 25/19 A2967 RMK CB1SC7 DIST CB NE SLP047

CYQB;2008-08-18 20:00;CYQB 182000Z 23011G16KT 12SM FEW015 BKN040 OVC100 25/19 A2965 RMK SF1SC6AC2 DIST SH SW-NE CVCTV CLDS ASOCTD SLP041

CYQB;2008-08-18 20:14;CYQB 182014Z CCA 30013G26KT 12SM -SHRA FEW020 BKN060CB OVC100 21/ RMK SF1CB7AC1 VIS SW-NE 6 MAMMA ASOCTD

CYQB;2008-08-18 20:22;CYQB 182022Z 29018G24KT 3SM TSRA BR FEW021 BKN044CB OVC100 18/ RMK SF1CB7AC1 MAMMA ASOCTD VIS E-SW 12

CYQB;2008-08-18 20:27;CYQB 182027Z 27015G24KT 3/8SM R06/P6000FT/D +TSRA FG SCT006 OVC017CB 17/ RMK SF4CB4

CYQB;2008-08-18 20:45;CYQB 182045Z 23011G17KT 1 1/2SM TSRA BR SCT007 OVC026CB 17/ RMK SF3CB5 RERA

CYQB;2008-08-18 21:00;CYQB 182100Z 24010G16KT 1 1/2SM TSRA BR SCT007 OVC033CB 17/16 A2973 RMK SF3CB5 RERA PRES UNSTDY SLP068

CYQB;2008-08-18 21:20;CYQB 182120Z 24013KT 5SM TSRA BR SCT008 OVC030CB 17/ RMK SF3CB5 LTGICCG

CYQB;2008-08-18 22:00;CYQB 182200Z 21007KT 7SM TSRA BKN006 OVC032CB 17/17 A2972 RMK SF6CB2 SLP064

CYQB;2008-08-18 23:00;CYQB 182300Z 21008KT 7SM TSRA BKN006 OVC040CB 17/17 A2972 RMK SF6CB2 SLP066

CYQB;2008-08-18 23:34;CYQB 182334Z CCA 24009KT 12SM -SHRA BKN010 OVC050 17/ RETSRA RMK SF7SC1 CIG VRB 7-13 CVCTV CLDS EMBD

CYQB;2008-08-19 00:00;CYQB 190000Z 22009KT 15SM -SHRA BKN010 OVC030 17/17 A2972 RETSRA RMK SF5SC3 CIG VRB 7-13 SLP066

CYQB;2008-08-19 00:36;CYQB 190036Z 24007KT 15SM BKN010 BKN030 17/ RMK SF5SC2

CYQB;2008-08-19 01:00;CYQB 190100Z 24009KT 15SM BKN006 BKN024 17/17 A2973 RMK SF5SC2 CIG RAG SLP068

CYQB;2008-08-19 02:00;CYQB 190200Z 24012KT 4SM -DZ BR OVC010 17/16 A2973 RMK SF8 SLP068

CYQB;2008-08-19 02:43;CYQB 190243Z 24016KT 10SM OVC008 17/ RMK SF8

CYQB;2008-08-19 03:00;CYQB 190300Z 25014KT 10SM BKN011 OVC018 17/16 A2974 RMK SF7SC1 SLP071

CYQB;2008-08-19 04:00;CYQB 190400Z 25013KT 15SM FEW010 SCT020 17/16 A2974 RMK SF1SC2 SLP072

CYQB;2008-08-19 05:00;CYQB 190500Z 25009KT 15SM FEW060 BKN090 17/16 A2975 RMK SC2AC5 SLP075

CYQB;2008-08-19 06:00;CYQB 190600Z 31006KT 15SM FEW060 SCT090 16/13 A2977 RMK SC2AC2 SLP082

CYQB;2008-08-19 08:00;CYQB 190800Z 00000KT 15SM BKN064 14/10 A2982 RMK SC6 SLP097

CYQB;2008-08-19 09:00;CYQB 190900Z 32006KT 15SM FEW060 SCT150 13/09 A2983 RMK SC2AC2 SLP104

CYQB;2008-08-19 10:00;CYQB 191000Z 31004KT 15SM FEW030 SCT230 12/09 A2986 RMK SC1CI1 SLP113

CYQB;2008-08-19 11:00;CYQB 191100Z 30005KT 15SM FEW030 BKN230 12/09 A2989 RMK SC2CI2 SLP121

CYQB;2008-08-19 12:00;CYQB 191200Z 33011KT 15SM FEW030 BKN230 14/08 A2989 RMK SC2CI4 SLP124

CYQB;2008-08-19 13:00;CYQB 191300Z 01004KT 15SM FEW037 BKN230 14/08 A2992 RMK SC2CI2 SLP132

CYQB;2008-08-19 14:00;CYQB 191400Z 32006KT 15SM BKN037 BKN230 15/08 A2993 RMK SC6CI1 SLP136

CYQB;2008-08-19 15:00;CYQB 191500Z 34010KT 15SM BKN045 16/08 A2994 RMK SC7 SLP140

CYQB;2008-08-19 16:00;CYQB 191600Z 31010G18KT 15SM BKN042 16/08 A2994 RMK SC7 SLP141

CYQB;2008-08-19 17:00;CYQB 191700Z 32015KT 30SM BKN045 17/09 A2994 RMK SC7 SLP141

CYQB;2008-08-19 18:00;CYQB 191800Z 34010G19KT 30SM BKN055 17/08 A2996 RMK SC7 SLP145

CYQB;2008-08-19 19:00;CYQB 191900Z 30010G16KT 30SM FEW030 BKN064 17/08 A2996 RMK CF1SC7 SLP146

CYQB;2008-08-19 20:00;CYQB 192000Z 31011KT 30SM FEW030 BKN071 17/08 A2997 RMK SC2AC6 SLP149

CYQB;2008-08-19 21:00;CYQB 192100Z 31008KT 30SM FEW030 BKN055 BKN076 17/M01 A2998 RMK SC1SC5AC1 SLP154

CYQB;2008-08-19 22:00;CYQB 192200Z 34013G19KT 30SM BKN070 17/07 A3000 RMK SC6 SLP158

CYQB;2008-08-19 23:00;CYQB 192300Z 29009KT 30SM SCT070 SCT230 15/08 A3000 RMK AC4CI1 SLP161

CYQB;2008-08-20 00:00;CYQB 200000Z 26009KT 30SM FEW070 SCT230 13/08 A3002 RMK AC2CI2 SLP166

CYQB;2008-08-20 01:00;CYQB 200100Z 26009KT 15SM FEW070 12/08 A3003 RMK AC2 SLP171

CYQB;2008-08-20 02:00;CYQB 200200Z 27011KT 15SM FEW070 12/08 A3003 RMK AC2 SLP172

CYQB;2008-08-20 03:00;CYQB 200300Z 27010KT 15SM FEW070 11/08 A3003 RMK AC1 SLP171

CYQB;2008-08-20 04:00;CYQB 200400Z 26011KT 15SM FEW030 10/08 A3004 RMK SC1 SLP175

CYQB;2008-08-20 05:00;CYQB 200500Z 25007KT 15SM FEW030 10/08 A3006 RMK SC1 SLP179

CYQB;2008-08-20 06:00;CYQB 200600Z 26008KT 15SM SKC 09/08 A3005 RMK SLP177

CYQB;2008-08-20 07:00;CYQB 200700Z 24005KT 15SM SKC 09/08 A3005 RMK SLP176

CYQB;2008-08-20 08:00;CYQB 200800Z 28004KT 15SM SKC 08/07 A3005 RMK SLP176

CYQB;2008-08-20 09:00;CYQB 200900Z 34004KT 15SM FEW070 09/07 A3005 RMK AC1 SLP178

CYQB;2008-08-20 10:00;CYQB 201000Z 34007KT 20SM FEW050 FEW160 10/08 A3006 RMK SC1AC1 SLP181

CYQB;2008-08-20 11:00;CYQB 201100Z 31004KT 20SM FEW030 FEW050 FEW160 11/09 A3008 RMK SC1SC1AC1 SLP189

CYQB;2008-08-20 12:00;CYQB 201200Z 30007KT 20SM FEW030 FEW050 FEW220 14/09 A3010 RMK SC1SC1CI1 SLP195

CYQB;2008-08-20 13:00;CYQB 201300Z 30007KT 20SM FEW030 FEW050 FEW220 15/09 A3011 RMK SC1SC1CI1 SLP196

CYQB;2008-08-20 14:00;CYQB 201400Z 33010G17KT 20SM FEW030 SCT053 SCT220 17/08 A3011 RMK SC1SC2CI1 OBS TAKEN +19 SLP198

CYQB;2008-08-20 15:00;CYQB 201500Z 34014G19KT 30SM SCT044 SCT220 18/08 A3011 RMK SC3CI1 SLP198

CYQB;2008-08-20 16:00;CYQB 201600Z 33014G21KT 30SM FEW061 FEW220 19/07 A3010 RMK SC2CI1 SLP195

CYQB;2008-08-20 17:00;CYQB 201700Z 34012G19KT 30SM SCT068 SCT220 20/07 A3009 RMK SC3CI1 SLP192

CYQB;2008-08-20 18:00;CYQB 201800Z 30010G19KT 30SM SCT060 SCT220 20/09 A3008 RMK SC4CI1 SLP189

CYQB;2008-08-20 19:00;CYQB 201900Z 28014KT 30SM SCT062 BKN240 20/09 A3007 RMK SC3CI1 SLP183

CYQB;2008-08-20 20:00;CYQB 202000Z 29012KT 30SM FEW060 FEW140 BKN220 20/09 A3007 RMK SC2AC1CI2 SLP183

CYQB;2008-08-20 21:00;CYQB 202100Z 30006KT 30SM FEW060 SCT140 BKN220 19/09 A3008 RMK SC2AC2CI2 SLP186

CYQB;2008-08-20 22:00;CYQB 202200Z 28005KT 30SM FEW062 FEW140 BKN220 19/11 A3007 RMK SC2AC1CI2 SLP185

CYQB;2008-08-20 23:00;CYQB 202300Z 26007KT 30SM SCT062 SCT140 BKN220 19/11 A3008 RMK SC3AC1CI1 SLP187

CYQB;2008-08-21 00:00;CYQB 210000Z 29007KT 30SM FEW060 SCT140 BKN190 17/11 A3009 RMK SC1AC3CI1 SLP191

CYQB;2008-08-21 01:00;CYQB 210100Z 26006KT 15SM BKN110 16/11 A3012 RMK AC6 SLP202

CYQB;2008-08-21 02:00;CYQB 210200Z 27008KT 15SM OVC110 16/11 A3013 RMK AS7 SLP204

CYQB;2008-08-21 03:00;CYQB 210300Z 25005KT 15SM BKN140 15/11 A3013 RMK AC3 SLP205

CYQB;2008-08-21 04:00;CYQB 210400Z 26005KT 15SM BKN110 15/11 A3014 RMK AC5 SLP208

CYQB;2008-08-21 05:00;CYQB 210500Z 27007KT 15SM BKN110 15/11 A3015 RMK AC6 SLP210

CYQB;2008-08-21 06:00;CYQB 210600Z 25004KT 15SM BKN100 15/11 A3015 RMK AC6 SLP212

CYQB;2008-08-21 07:00;CYQB 210700Z 07002KT 15SM BKN100 14/11 A3016 RMK AC6 SLP213

CYQB;2008-08-21 08:00;CYQB 210800Z 11003KT 15SM FEW100 BKN130 13/11 A3016 RMK AC2AC5 SLP215

CYQB;2008-08-21 09:00;CYQB 210900Z 03002KT 15SM BKN130 13/11 A3017 RMK AC6 SLP216

CYQB;2008-08-21 10:00;CYQB 211000Z 13003KT 15SM BKN140 BKN240 13/11 A3018 RMK AC6CI1 SLP222

CYQB;2008-08-21 11:00;CYQB 211100Z 24002KT 20SM SCT140 14/12 A3020 RMK AC4 SLP228

CYQB;2008-08-21 12:00;CYQB 211200Z 27007KT 20SM FEW012 FEW120 FEW240 15/13 A3021 RMK CF1AC1CI1 SLP230

CYQB;2008-08-21 13:00;CYQB 211300Z 24009KT 20SM FEW012 FEW110 16/13 A3022 RMK CF1AC2 SLP233

CYQB;2008-08-21 14:00;CYQB 211400Z 22010KT 20SM FEW120 18/14 A3022 RMK AC1 SLP234

CYQB;2008-08-21 15:00;CYQB 211500Z 22011KT 20SM SKC 19/14 A3021 RMK SLP232

CYQB;2008-08-21 16:00;CYQB 211600Z 23010KT 30SM SKC 21/15 A3020 RMK SLP228

CYQB;2008-08-21 17:00;CYQB 211700Z 23012G17KT 30SM SKC 22/15 A3019 RMK SLP225

CYQB;2008-08-21 18:00;CYQB 211800Z 22013KT 30SM SKC 24/16 A3018 RMK SLP220

CYQB;2008-08-21 19:00;CYQB 211900Z 25015KT 30SM FEW040 25/16 A3018 RMK CF1 SLP220

CYQB;2008-08-21 20:00;CYQB 212000Z 23017KT 30SM FEW040 25/15 A3017 RMK CF1 SLP218

CYQB;2008-08-21 21:00;CYQB 212100Z 25014KT 30SM SKC 25/16 A3017 RMK SLP217

CYQB;2008-08-21 22:00;CYQB 212200Z 26010G15KT 30SM SKC 24/16 A3017 RMK SLP218

CYQB;2008-08-21 23:00;CYQB 212300Z 25010KT 30SM SKC 23/16 A3018 RMK SLP219

CYQB;2008-08-22 00:00;CYQB 220000Z CCA 23007KT 30SM FEW240 22/16 A3019 RMK CI1 SLP224

CYQB;2008-08-22 01:00;CYQB 220100Z 24005KT 30SM FEW240 20/16 A3021 RMK CI0 SLP231

CYQB;2008-08-22 02:00;CYQB 220200Z 00000KT 15SM SKC 19/16 A3022 RMK SLP235

CYQB;2008-08-22 03:00;CYQB 220300Z 00000KT 15SM SKC 19/16 A3024 RMK SLP240

CYQB;2008-08-22 04:00;CYQB 220400Z 19003KT 15SM SKC 16/15 A3025 RMK SLP244

CYQB;2008-08-22 05:00;CYQB 220500Z 29002KT 15SM SKC 15/14 A3026 RMK SLP248

CYQB;2008-08-22 06:00;CYQB 220600Z 04003KT 15SM SKC 15/14 A3027 RMK SLP250

CYQB;2008-08-22 07:00;CYQB 220700Z 33002KT 15SM SKC 14/13 A3028 RMK SLP254

CYQB;2008-08-22 08:00;CYQB 220800Z 00000KT 15SM SKC 14/13 A3029 RMK SLP257

CYQB;2008-08-22 09:00;CYQB 220900Z 00000KT 15SM SKC 13/13 A3030 RMK SLP260

CYQB;2008-08-22 10:00;CYQB 221000Z 33002KT 30SM R06/3000VP6000FT/U BKN250 13/12 A3032 RMK CI1 SLP267

CYQB;2008-08-22 11:00;CYQB 221100Z 30002KT 30SM FEW250 14/14 A3033 RMK CI0 SLP273

CYQB;2008-08-22 12:00;CYQB 221200Z 23004KT 30SM FEW250 17/16 A3034 RMK CI0 SLP276

CYQB;2008-08-22 13:00;CYQB 221300Z 23008KT 30SM SCT250 19/17 A3034 RMK CI2 SLP276

CYQB;2008-08-22 14:00;CYQB 221400Z 23007KT 30SM BKN250 21/17 A3034 RMK CI2 SLP274

CYQB;2008-08-22 15:00;CYQB 221500Z CCA 22007KT 30SM SCT250 22/17 A3034 RMK CI1 SLP276

CYQB;2008-08-22 16:00;CYQB 221600Z 23008KT 30SM SCT250 24/18 A3033 RMK CI1 SLP273

CYQB;2008-08-22 17:00;CYQB 221700Z 23010KT 30SM SCT250 25/17 A3032 RMK CI1 SLP269

CYQB;2008-08-22 18:00;CYQB 221800Z 22009KT 30SM FEW250 26/17 A3031 RMK CI1 SLP265

CYQB;2008-08-22 19:00;CYQB 221900Z 27007KT 30SM SCT260 27/16 A3030 RMK CI2 SLP262

CYQB;2008-08-22 20:00;CYQB 222000Z 26007KT 30SM FEW270 27/17 A3029 RMK CI1 SLP257

CYQB;2008-08-22 21:00;CYQB 222100Z 24006KT 30SM BKN270 27/17 A3028 RMK CI2 SLP255

CYQB;2008-08-22 22:00;CYQB 222200Z 27003KT 30SM FEW150 BKN270 26/18 A3028 RMK AC1CI2 SLP254

CYQB;2008-08-22 23:00;CYQB 222300Z 27004KT 30SM FEW150 BKN270 25/19 A3028 RMK AC2CI2 SLP254

CYQB;2008-08-23 00:00;CYQB 230000Z 29002KT 30SM FEW150 BKN270 22/18 A3028 RMK AC1CI2 SLP254

CYQB;2008-08-23 01:00;CYQB 230100Z 00000KT 15SM FEW270 21/17 A3029 RMK CI1 SLP257

CYQB;2008-08-23 02:00;CYQB 230200Z 33003KT 15SM FEW270 19/16 A3029 RMK CI1 SLP258

CYQB;2008-08-23 03:00;CYQB 230300Z 00000KT 15SM FEW150 FEW270 19/16 A3028 RMK AC1CI0 SLP255

CYQB;2008-08-23 04:00;CYQB 230400Z 01003KT 15SM SKC 19/16 A3028 RMK SLP252

CYQB;2008-08-23 05:00;CYQB 230500Z 31002KT 15SM FEW150 17/15 A3027 RMK AC1 SLP251

CYQB;2008-08-23 06:00;CYQB 230600Z 00000KT 15SM FEW140 16/15 A3026 RMK AC1 SLP248

CYQB;2008-08-23 07:00;CYQB 230700Z 00000KT 15SM SCT240 15/14 A3027 RMK CI2 SLP249

CYQB;2008-08-23 08:00;CYQB 230800Z 00000KT 15SM SCT240 15/14 A3026 RMK CI2 SLP248

CYQB;2008-08-23 09:00;CYQB 230900Z 00000KT 15SM R06/3000VP6000FT/D SCT240 15/14 A3027 RMK CI2 SLP249

CYQB;2008-08-23 10:00;CYQB 231000Z 03002KT 20SM FEW180 BKN240 15/14 A3027 RMK AC1CI1 SLP251

CYQB;2008-08-23 11:00;CYQB 231100Z 31002KT 20SM FEW180 OVC240 15/15 A3029 RMK AC1CI2 SLP257

CYQB;2008-08-23 12:00;CYQB 231200Z 00000KT 20SM FEW180 OVC240 18/16 A3029 RMK AC1CI2 VIS NW 4 BCFG SLP259

CYQB;2008-08-23 13:00;CYQB 231300Z 00000KT 15SM FEW180 OVC240 21/17 A3028 RMK AC1CI2 SLP254

CYQB;2008-08-23 14:00;CYQB 231400Z 23006KT 15SM FEW180 BKN250 23/18 A3026 RMK CI1CI2 SLP249

CYQB;2008-08-23 15:00;CYQB 231500Z 26008KT 15SM FEW180 OVC250 24/18 A3025 RMK CC1CI2 SLP245

CYQB;2008-08-23 16:00;CYQB 231600Z 23004KT 15SM FEW180 BKN250 25/19 A3023 RMK AC1CI2 SLP238

CYQB;2008-08-23 17:00;CYQB 231700Z 21005KT 15SM FEW180 OVC250 27/19 A3021 RMK AC1CI3 SLP230

CYQB;2008-08-23 18:00;CYQB 231800Z 23004KT 15SM FEW180 BKN250 27/19 A3019 RMK AC1CI6 SLP225

CYQB;2008-08-23 19:00;CYQB 231900Z 27005KT 25SM BKN230 27/20 A3018 RMK CI6 SLP220

CYQB;2008-08-23 20:00;CYQB 232000Z 26009KT 25SM FEW055 BKN250 28/20 A3016 RMK CU1CI5 SLP213

CYQB;2008-08-23 21:00;CYQB 232100Z 23008KT 25SM FEW055 FEW150 BKN250 28/20 A3014 RMK CU1AC1CI2 SLP208

CYQB;2008-08-23 22:00;CYQB 232200Z 24004KT 25SM FEW055 SCT150 BKN250 27/20 A3012 RMK CU1AC2CI1 SLP201

CYQB;2008-08-23 23:00;CYQB 232300Z 27002KT 25SM FEW150 SCT250 26/20 A3011 RMK AC2CI1 SLP196

CYQB;2008-08-24 00:00;CYQB 240000Z 00000KT 15SM FEW150 SCT250 24/20 A3010 RMK AC2CI0 SLP193

CYQB;2008-08-24 01:00;CYQB 240100Z 00000KT 15SM SCT250 22/19 A3009 RMK CI2 SLP189

CYQB;2008-08-24 02:00;CYQB 240200Z 00000KT 15SM SCT250 21/19 A3007 RMK CI2 SLP184

CYQB;2008-08-24 03:00;CYQB 240300Z 00000KT 15SM SCT250 21/18 A3006 RMK CI2 SLP181

CYQB;2008-08-24 04:00;CYQB 240400Z 00000KT 15SM FEW150 FEW240 20/18 A3006 RMK AC1CI0 SLP178

CYQB;2008-08-24 05:00;CYQB 240500Z 00000KT 15SM BKN180 BKN240 19/17 A3004 RMK AC5CI0 SLP174

CYQB;2008-08-24 06:00;CYQB 240600Z 34002KT 15SM SCT240 19/18 A3003 RMK CI0 SLP168

CYQB;2008-08-24 07:00;CYQB 240700Z 00000KT 15SM FEW250 19/17 A3003 RMK CI1 SLP168

CYQB;2008-08-24 08:00;CYQB 240800Z 25003KT 15SM FEW060 18/15 A3003 RMK SC1 SLP167

CYQB;2008-08-24 09:00;CYQB 240900Z 23003KT 15SM FEW060 FEW240 17/15 A3002 RMK SC1CI2 SLP165

CYQB;2008-08-24 10:00;CYQB 241000Z 26002KT 15SM FEW060 FEW130 FEW240 17/15 A3002 RMK SC1AC1CI1 SLP166

CYQB;2008-08-24 11:00;CYQB 241100Z 00000KT 30SM FEW240 18/15 A3002 RMK CI0 SLP164

CYQB;2008-08-24 12:00;CYQB 241200Z 26003KT 30SM FEW130 SCT240 20/16 A3000 RMK AC2CI1 SLP160

CYQB;2008-08-24 13:00;CYQB 241300Z 25007KT 30SM FEW160 SCT240 22/16 A2999 RMK AC2CI1 SLP154

CYQB;2008-08-24 14:00;CYQB 241400Z 24005KT 30SM FEW150 SCT250 22/17 A2997 RMK AC1CI1 SLP149

CYQB;2008-08-24 15:00;CYQB 241500Z 23010KT 30SM FEW040 SCT150 24/17 A2995 RMK SC1AC4 SLP143

CYQB;2008-08-24 16:00;CYQB 241600Z 25013KT 20SM FEW040 SCT130 25/18 A2992 RMK SC1AC4 SLP133

CYQB;2008-08-24 17:00;CYQB 241700Z 25012G18KT 20SM FEW040 FEW130 SCT210 26/18 A2989 RMK SC1AC2CI1 SLP123

CYQB;2008-08-24 18:00;CYQB 241800Z 24010G16KT 20SM FEW040 SCT130 BKN220 27/19 A2987 RMK SC1AC2CI1 SLP116

CYQB;2008-08-24 19:00;CYQB 241900Z 24010KT 20SM FEW040 FEW100 BKN160 OVC230 27/19 A2985 RMK CU1AC2AC2CI2 SLP107

CYQB;2008-08-24 20:00;CYQB 242000Z 23011G16KT 20SM FEW040 SCT080 BKN160 OVC230 28/19 A2983 RMK CU2AC2AC2CI1 SLP101

CYQB;2008-08-24 21:00;CYQB 242100Z 24009KT 20SM SCT043 BKN080 OVC230 27/19 A2982 RMK CU3AC2CI1 SLP097

CYQB;2008-08-24 22:00;CYQB 242200Z 25011KT 20SM BKN055 BKN080 OVC230 26/19 A2981 RMK CU5AC2CI1 SLP094

CYQB;2008-08-24 23:00;CYQB 242300Z 26004KT 15SM SCT050 BKN060 BKN080 25/19 A2981 RMK CU3SC2AC2 SLP093

CYQB;2008-08-25 00:00;CYQB 250000Z 23004KT 15SM FEW050 BKN060 24/19 A2980 RMK CU2SC4 SLP091

CYQB;2008-08-25 01:00;CYQB 250100Z 23004KT 15SM BKN069 23/19 A2980 RMK AC6 SLP090

CYQB;2008-08-25 02:00;CYQB 250200Z 23002KT 15SM OVC062 23/20 A2978 RMK SC8 SLP084

CYQB;2008-08-25 03:00;CYQB 250300Z 26002KT 15SM BKN070 23/19 A2976 RMK AC6 SLP076

CYQB;2008-08-25 04:00;CYQB 250400Z 28004KT 15SM FEW030 OVC065 22/19 A2975 RMK SC2SC6 CB EMBDD S LTGCC SLP075

CYQB;2008-08-25 05:00;CYQB 250500Z 23008KT 15SM FEW038 BKN110 OVC250 22/19 A2975 RMK SC2AC6CI1 SLP072

CYQB;2008-08-25 06:00;CYQB 250600Z 23007KT 15SM BKN032 BKN045 OVC250 21/19 A2973 RMK SC6SC2CI1 SLP067

CYQB;2008-08-25 07:00;CYQB 250700Z 23005KT 15SM BKN009 OVC030 21/20 A2972 RMK SF6SC2 SLP064

CYQB;2008-08-25 07:28;CYQB 250728Z 26003KT 7SM -SHRA OVC006 21/ RMK SF8

CYQB;2008-08-25 08:00;CYQB 250800Z 22004KT 7SM OVC008 21/20 A2971 RMK SF8 SLP059

CYQB;2008-08-25 08:29;CYQB 250829Z 23004KT 7SM -SHRA BKN007 OVC075 21/ RMK SF6AC2

CYQB;2008-08-25 08:53;CYQB 250853Z 24005KT 6SM BR SCT007 OVC083 21/ RMK SF4AC4

CYQB;2008-08-25 09:00;CYQB 250900Z 24005KT 6SM BR SCT009 OVC081 21/20 A2970 RMK SF4AC4 SLP057

CYQB;2008-08-25 10:00;CYQB 251000Z 24007KT 6SM BR FEW009 SCT080 OVC240 20/19 A2970 RMK SF2AC2CI2 SLP057

CYQB;2008-08-25 11:00;CYQB 251100Z 32007KT 25SM BKN040 BKN080 BKN240 19/16 A2972 RMK SC5AC1CI0 SLP063

CYQB;2008-08-25 12:00;CYQB 251200Z 30004KT 30SM BKN050 BKN080 BKN240 19/15 A2974 RMK SC6AC1CI0 SLP072

CYQB;2008-08-25 13:00;CYQB 251300Z 26008KT 30SM SCT030 SCT050 SCT077 21/16 A2976 RMK SC3SC1AC1 SLP077

CYQB;2008-08-25 14:00;CYQB 251400Z 30009KT 30SM BKN054 BKN080 20/14 A2977 RMK SC5AC2 SLP081

CYQB;2008-08-25 15:00;CYQB 251500Z 29012G17KT 30SM BKN038 BKN070 19/13 A2979 RMK SC6AC1 SLP089

CYQB;2008-08-25 16:00;CYQB 251600Z 29016KT 30SM BKN032 BKN070 19/11 A2981 RMK SC6AC1 SLP096

CYQB;2008-08-25 17:00;CYQB 251700Z 31010G20KT 30SM BKN043 18/09 A2983 RMK SC7 SLP100

CYQB;2008-08-25 18:00;CYQB 251800Z 33008KT 30SM BKN045 18/09 A2983 RMK SC7 SLP102

CYQB;2008-08-25 19:00;CYQB 251900Z 31012G19KT 30SM BKN053 19/09 A2983 RMK SC7 SLP101

CYQB;2008-08-25 20:00;CYQB 252000Z 29013G19KT 30SM BKN051 BKN072 19/09 A2983 RMK SC5AC1 SLP101

CYQB;2008-08-25 20:49;CYQB 252049Z 29010G15KT 30SM -SHRA BKN055 BKN070 18/ RMK SC5AC1

CYQB;2008-08-25 21:00;CYQB 252100Z 30014KT 30SM BKN055 BKN070 18/10 A2984 RMK SC5AC2 OCNL -SHRA SLP106

CYQB;2008-08-25 21:20;CYQB 252120Z 30011G17KT 30SM SCT055 BKN065 17/ RMK SC4AC2

CYQB;2008-08-25 22:00;CYQB 252200Z 32013G20KT 20SM BKN055 BKN080 17/09 A2987 RMK SC5AC2 SH DIST W SLP115

CYQB;2008-08-25 23:00;CYQB 252300Z 32013G19KT 20SM VCSH SCT055 BKN078 16/09 A2989 RMK SC4AC3 SLP121

CYQB;2008-08-26 00:00;CYQB 260000Z 31009KT 15SM FEW035 SCT055 BKN100 14/09 A2991 RMK CF1SC2AC2 SLP128

CYQB;2008-08-26 01:00;CYQB 260100Z 30007KT 15SM BKN100 13/09 A2993 RMK AC5 SLP136

CYQB;2008-08-26 02:00;CYQB 260200Z 30006KT 15SM FEW020 SCT090 BKN160 13/08 A2994 RMK SC1AC3AC2 SLP140

CYQB;2008-08-26 03:00;CYQB 260300Z 29007KT 15SM FEW030 SCT090 BKN160 12/07 A2996 RMK SC1AC2AC2 SLP145

CYQB;2008-08-26 04:00;CYQB 260400Z 31008KT 15SM FEW035 BKN078 12/07 A2996 RMK SC1AC6 SLP145

CYQB;2008-08-26 05:00;CYQB 260500Z 29008KT 15SM FEW035 SCT075 BKN090 12/07 A2996 RMK SC2AC2AC2 SLP146

CYQB;2008-08-26 06:00;CYQB 260600Z 28005KT 15SM SCT035 BKN080 11/08 A2996 RMK SC4AC3 SLP146

CYQB;2008-08-26 07:00;CYQB 260700Z 27007KT 15SM BKN035 BKN090 11/08 A2996 RMK SC6AC2 SLP146

CYQB;2008-08-26 08:00;CYQB 260800Z 25009KT 15SM BKN036 BKN085 11/09 A2996 RMK SC6AC2 SLP145

CYQB;2008-08-26 09:00;CYQB 260900Z 27007KT 15SM FEW035 BKN070 11/09 A2995 RMK SC2AC5 SLP144

CYQB;2008-08-26 10:00;CYQB 261000Z 27007KT 15SM BKN036 BKN075 OVC250 12/08 A2998 RMK SC5AC1CS0 SLP153

CYQB;2008-08-26 11:00;CYQB 261100Z 28005KT 30SM BKN034 BKN090 BKN250 13/09 A3001 RMK SC6AC1CS0 SLP163

CYQB;2008-08-26 12:00;CYQB 261200Z 30004KT 30SM FEW034 FEW090 BKN250 14/09 A3003 RMK SC1AC1CS0 SLP171

CYQB;2008-08-26 13:00;CYQB 261300Z 32011KT 30SM FEW034 SCT250 15/07 A3004 RMK SC2CI0 SLP173

CYQB;2008-08-26 14:00;CYQB 261400Z 32009KT 30SM SCT035 BKN210 16/08 A3005 RMK CU3CS0 SLP177

CYQB;2008-08-26 15:00;CYQB 261500Z 33003KT 30SM FEW035 BKN250 17/08 A3005 RMK CU1CS1 SLP177

CYQB;2008-08-26 16:00;CYQB 261600Z 30003KT 30SM FEW035 BKN250 18/08 A3004 RMK CU1CS1 SLP174

CYQB;2008-08-26 17:00;CYQB 261700Z 29009KT 30SM FEW035 FEW180 BKN220 20/08 A3003 RMK CU1AC2CS4 SLP170

CYQB;2008-08-26 18:00;CYQB 261800Z 35017KT 30SM FEW035 SCT180 BKN230 20/05 A3003 RMK CU1AC3CS3 SLP168

CYQB;2008-08-26 19:00;CYQB 261900Z 32008KT 30SM FEW035 FEW180 SCT230 21/07 A3003 RMK CU1AC2CS1 SLP168

CYQB;2008-08-26 20:00;CYQB 262000Z 33008KT 30SM FEW220 22/08 A3003 RMK CC2 SLP168

CYQB;2008-08-26 21:00;CYQB 262100Z 32009KT 30SM FEW220 22/09 A3003 RMK CI0 SLP168

CYQB;2008-08-26 22:00;CYQB 262200Z 32006KT 30SM FEW160 FEW220 21/07 A3003 RMK AC1CI0 SLP169

CYQB;2008-08-26 23:00;CYQB 262300Z 29006KT 30SM FEW200 19/09 A3003 RMK CI0 SLP171

CYQB;2008-08-27 00:00;CYQB 270000Z 27004KT 15SM FEW220 15/09 A3005 RMK CI1 SLP177

CYQB;2008-08-27 01:00;CYQB 270100Z 32008KT 30SM FEW250 16/09 A3007 RMK CI0 SLP185

CYQB;2008-08-27 02:00;CYQB 270200Z 34007KT 15SM SKC 16/08 A3009 RMK SLP190

CYQB;2008-08-27 03:00;CYQB 270300Z 35007KT 15SM SKC 16/08 A3009 RMK SLP192

CYQB;2008-08-27 04:00;CYQB 270400Z 34006KT 15SM SKC 16/08 A3010 RMK SLP194

CYQB;2008-08-27 05:00;CYQB 270500Z 36004KT 15SM SKC 15/08 A3011 RMK SLP199

CYQB;2008-08-27 06:00;CYQB 270600Z 30005KT 15SM SKC 13/08 A3012 RMK SLP200

CYQB;2008-08-27 07:00;CYQB 270700Z 30003KT 15SM SKC 11/09 A3013 RMK SLP205

CYQB;2008-08-27 08:00;CYQB 270800Z 31002KT 15SM SKC 11/09 A3014 RMK SLP206

CYQB;2008-08-27 09:00;CYQB 270900Z 02002KT 15SM SKC 11/09 A3014 RMK SLP207

CYQB;2008-08-27 10:00;CYQB 271000Z 31004KT 30SM FEW250 10/08 A3015 RMK CI1 SLP211

CYQB;2008-08-27 11:00;CYQB 271100Z 00000KT 30SM FEW250 11/10 A3017 RMK CI1 SLP216

CYQB;2008-08-27 12:00;CYQB 271200Z 22002KT 30SM FEW250 14/12 A3018 RMK CI1 SLP221

CYQB;2008-08-27 13:00;CYQB 271300Z 17003KT 30SM FEW250 16/12 A3018 RMK CI1 OBS TAKEN +30 SLP220

CYQB;2008-08-27 14:00;CYQB 271400Z 25002KT 30SM FEW250 18/12 A3017 RMK CI1 SLP219

CYQB;2008-08-27 15:00;CYQB 271500Z 27003KT 30SM FEW250 20/12 A3017 RMK CI1 SLP218

CYQB;2008-08-27 16:00;CYQB 271600Z 00000KT 30SM FEW250 22/13 A3014 RMK CI1 SLP209

CYQB;2008-08-27 17:00;CYQB 271700Z 14003KT 30SM FEW250 23/13 A3012 RMK CI1 CONTRAILS SLP202

CYQB;2008-08-27 18:00;CYQB 271800Z 19005KT 30SM FEW250 24/13 A3011 RMK CI1 CONTRAILS SLP197

CYQB;2008-08-27 19:00;CYQB 271900Z 22007KT 30SM FEW250 25/12 A3009 RMK CI1 CONTRAILS SLP190

CYQB;2008-08-27 20:00;CYQB 272000Z 20009KT 30SM FEW250 25/13 A3008 RMK CI1 SLP186

CYQB;2008-08-27 21:00;CYQB 272100Z 22008KT 30SM FEW250 25/13 A3007 RMK CI1 SLP183

CYQB;2008-08-27 22:00;CYQB 272200Z 23008KT 30SM SKC 24/14 A3007 RMK SLP183

CYQB;2008-08-27 23:00;CYQB 272300Z 24004KT 30SM FEW250 22/14 A3007 RMK CI0 SLP184

CYQB;2008-08-28 00:00;CYQB 280000Z 29002KT 30SM FEW250 21/15 A3008 RMK CI0 SLP186

CYQB;2008-08-28 01:00;CYQB 280100Z 00000KT 15SM SKC 18/15 A3009 RMK SLP190

CYQB;2008-08-28 02:00;CYQB 280200Z 00000KT 15SM SKC 17/14 A3010 RMK SLP194

CYQB;2008-08-28 03:00;CYQB 280300Z 02002KT 15SM SKC 16/14 A3011 RMK SLP197

CYQB;2008-08-28 04:00;CYQB 280400Z 03004KT 15SM SKC 17/14 A3013 RMK SLP203

CYQB;2008-08-28 05:00;CYQB 280500Z 03004KT 15SM SKC 16/14 A3013 RMK SLP203

CYQB;2008-08-28 06:00;CYQB 280600Z 02005KT 15SM SKC 16/14 A3013 RMK SLP204

CYQB;2008-08-28 07:00;CYQB 280700Z 02004KT 15SM FEW240 15/13 A3014 RMK CI0 SLP205

CYQB;2008-08-28 08:00;CYQB 280800Z 02004KT 15SM FEW240 15/13 A3014 RMK CI0 SLP206

CYQB;2008-08-28 09:00;CYQB 280900Z 02003KT 15SM FEW240 14/12 A3014 RMK CI1 SLP208

CYQB;2008-08-28 10:00;CYQB 281000Z 05003KT 30SM BKN240 14/12 A3016 RMK CI2 SLP212

CYQB;2008-08-28 11:00;CYQB 281100Z 03004KT 30SM BKN250 15/12 A3017 RMK CI2 SLP216

CYQB;2008-08-28 12:00;CYQB 281200Z 05005KT 30SM BKN250 17/13 A3017 RMK CI2 SLP215

CYQB;2008-08-28 13:00;CYQB 281300Z 06005KT 30SM BKN250 19/14 A3016 RMK CI2 SLP213

CYQB;2008-08-28 14:00;CYQB 281400Z 07009KT 30SM FEW210 BKN250 21/15 A3015 RMK CI1CI1 SLP210

CYQB;2008-08-28 15:00;CYQB 281500Z 07008KT 30SM BKN250 23/16 A3015 RMK CI2 SLP211

CYQB;2008-08-28 16:00;CYQB 281600Z 05009KT 30SM BKN250 24/16 A3015 RMK CI2 SLP211

CYQB;2008-08-28 17:00;CYQB 281700Z 08010KT 30SM FEW040 BKN250 25/15 A3013 RMK CU1CI2 SLP204

CYQB;2008-08-28 18:00;CYQB 281800Z 06010KT 30SM FEW040 BKN250 26/15 A3011 RMK CU1CI2 SLP197

CYQB;2008-08-28 19:00;CYQB 281900Z 09008KT 30SM FEW040 BKN250 26/15 A3010 RMK CU1CI2 SLP193

CYQB;2008-08-28 20:00;CYQB 282000Z 07010KT 30SM FEW030 BKN250 26/15 A3008 RMK CF1CI2 SLP185

CYQB;2008-08-28 21:00;CYQB 282100Z 08011G16KT 30SM FEW030 BKN250 24/16 A3008 RMK CF1CI2 SLP187

CYQB;2008-08-28 22:00;CYQB 282200Z 08011KT 30SM BKN250 23/16 A3009 RMK CI2 SLP190

CYQB;2008-08-28 23:00;CYQB 282300Z 08011KT 30SM FEW200 BKN250 20/14 A3010 RMK CI1CI2 SLP192

CYQB;2008-08-29 00:00;CYQB 290000Z 07011KT 15SM SCT240 19/14 A3010 RMK CI1 SLP194

CYQB;2008-08-29 01:00;CYQB 290100Z 07009G17KT 15SM FEW240 19/15 A3011 RMK CI1 SLP195

CYQB;2008-08-29 02:00;CYQB 290200Z 08007KT 15SM FEW240 18/15 A3010 RMK CI1 SLP193

CYQB;2008-08-29 03:00;CYQB 290300Z 09004KT 15SM FEW020 FEW240 17/15 A3010 RMK SC1CI0 SLP193

CYQB;2008-08-29 04:00;CYQB 290400Z 07006KT 15SM FEW020 16/14 A3010 RMK SC1 SLP192

CYQB;2008-08-29 05:00;CYQB 290500Z 08005KT 15SM FEW012 16/14 A3010 RMK SF1 SLP192

CYQB;2008-08-29 06:00;CYQB 290600Z 08008KT 15SM FEW012 15/14 A3009 RMK SF0 SLP190

CYQB;2008-08-29 07:00;CYQB 290700Z 07009KT 15SM FEW007 15/14 A3008 RMK SF1 SLP187

CYQB;2008-08-29 08:00;CYQB 290800Z 08008KT 15SM FEW007 16/15 A3007 RMK SF1 SLP183

CYQB;2008-08-29 09:00;CYQB 290900Z 09007KT 15SM BKN006 16/15 A3007 RMK SF6 SLP183

CYQB;2008-08-29 10:00;CYQB 291000Z 07009KT 10SM OVC004 15/15 A3007 RMK SF8 SLP184

CYQB;2008-08-29 11:00;CYQB 291100Z 08013KT 6SM BR OVC004 15/14 A3008 RMK SF8 SLP187

CYQB;2008-08-29 11:35;CYQB 291135Z 08010KT 6SM BR OVC006 15/ RMK SF8

CYQB;2008-08-29 12:00;CYQB 291200Z 07012KT 6SM BR OVC004 15/14 A3008 RMK SF7 SLP186

CYQB;2008-08-29 12:41;CYQB 291241Z 08009KT 10SM OVC007 15/ RMK SF8

CYQB;2008-08-29 13:00;CYQB 291300Z 07009KT 10SM OVC006 16/14 A3008 RMK SF8 SLP185

CYQB;2008-08-29 13:27;CYQB 291327Z 07011KT 15SM SCT010 17/ RMK SF4

CYQB;2008-08-29 14:00;CYQB 291400Z 07009KT 15SM SCT012 18/15 A3007 RMK SC4 SLP182

CYQB;2008-08-29 15:00;CYQB 291500Z 07009KT 15SM FEW017 SCT060 19/15 A3006 RMK CF1SC3 SLP179

CYQB;2008-08-29 16:00;CYQB 291600Z 08008KT 15SM FEW025 FEW060 21/16 A3004 RMK CF1SC1 SLP172

CYQB;2008-08-29 17:00;CYQB 291700Z 08008KT 15SM FEW030 FEW060 22/16 A3000 RMK CU1SC1 SLP161

CYQB;2008-08-29 18:00;CYQB 291800Z 09008KT 15SM FEW030 FEW070 SCT220 22/16 A2999 RMK CU1AC1CI0 SLP156

CYQB;2008-08-29 19:00;CYQB 291900Z 08008KT 15SM FEW030 FEW070 SCT220 23/16 A2997 RMK CU1AC1CI1 SLP149

CYQB;2008-08-29 20:00;CYQB 292000Z 07008KT 15SM FEW030 FEW070 SCT220 23/17 A2995 RMK CU1AC2CI1 SLP142

CYQB;2008-08-29 21:00;CYQB 292100Z 07009KT 15SM FEW030 FEW070 SCT220 22/15 A2994 RMK CU1AC1CI2 SLP139

CYQB;2008-08-29 22:00;CYQB 292200Z 09010KT 15SM FEW030 SCT070 SCT160 BKN220 20/15 A2995 RMK CU1AC3AC1CI1 SLP143

CYQB;2008-08-29 23:00;CYQB 292300Z 08006KT 15SM SCT072 SCT160 OVC220 19/15 A2995 RMK AC3AC1CI2 SLP144

CYQB;2008-08-30 00:00;CYQB 300000Z 08006KT 15SM FEW050 SCT072 OVC220 18/14 A2997 RMK SC1AC2CI4 SLP148

CYQB;2008-08-30 01:00;CYQB 300100Z 08004KT 15SM SCT048 OVC200 17/14 A2997 RMK SC3CI4 SLP148

CYQB;2008-08-30 02:00;CYQB 300200Z 07007KT 15SM FEW048 FEW072 OVC100 17/14 A2996 RMK SC2AC1AC6 SLP147

CYQB;2008-08-30 03:00;CYQB 300300Z 07006KT 15SM FEW050 FEW070 OVC092 17/14 A2995 RMK SC1AC1AC6 SLP144

CYQB;2008-08-30 04:00;CYQB 300400Z 09003KT 15SM BKN050 OVC070 16/14 A2997 RMK SC5AC3 SLP148

CYQB;2008-08-30 05:00;CYQB 300500Z 09004KT 15SM SCT040 OVC066 16/14 A2996 RMK SC4AC4 SLP145

CYQB;2008-08-30 06:00;CYQB 300600Z 08006KT 15SM FEW040 OVC064 16/14 A2994 RMK SC2SC6 SLP139

CYQB;2008-08-30 07:00;CYQB 300700Z 05004KT 15SM FEW031 OVC055 16/14 A2994 RMK SC2SC6 SLP138

CYQB;2008-08-30 08:00;CYQB 300800Z 07003KT 15SM SCT018 OVC040 16/14 A2993 RMK SC3SC5 SLP137

CYQB;2008-08-30 09:00;CYQB 300900Z 07003KT 15SM FEW008 BKN014 OVC030 16/14 A2993 RMK SF2SC5SC2 SLP136

CYQB;2008-08-30 10:00;CYQB 301000Z 00000KT 8SM FEW008 OVC011 16/15 A2993 RMK SF2SC6 SLP137

CYQB;2008-08-30 10:39;CYQB 301039Z 00000KT 5SM BR BKN008 OVC010 16/ RMK SF5SC3

CYQB;2008-08-30 11:00;CYQB 301100Z 00000KT 5SM BR OVC009 16/15 A2994 RMK SF8 SLP140

CYQB;2008-08-30 12:00;CYQB 301200Z 34002KT 4SM -DZ BR OVC008 16/15 A2995 RMK SF8 SLP142

CYQB;2008-08-30 13:00;CYQB 301300Z 35002KT 4SM -DZ BR OVC007 16/15 A2995 RMK SF8 SLP144

CYQB;2008-08-30 14:00;CYQB 301400Z 24004KT 4SM -DZ BR BKN007 BKN012 OVC025 18/17 A2995 RMK SF5SC2SC2 SLP143

CYQB;2008-08-30 14:19;CYQB 301419Z 23005KT 4SM BR SCT010 BKN015 BKN025 19/ RMK SF4SC2SC1

CYQB;2008-08-30 14:47;CYQB 301447Z 26009KT 4SM BR BKN008 BKN015 20/ RMK SF6SC2

CYQB;2008-08-30 15:00;CYQB 301500Z 23009KT 5SM HZ BKN010 BKN025 20/18 A2994 RMK SF5SC2 SLP139

CYQB;2008-08-30 15:28;CYQB 301528Z 26009KT 4SM -SHRA HZ BKN010 OVC020 19/ RMK SF5SC3

CYQB;2008-08-30 16:00;CYQB 301600Z 24007KT 4SM HZ FEW010 BKN015 BKN020 BKN120 20/18 A2994 RMK SF1SC5SC2AC1 SLP140

CYQB;2008-08-30 16:34;CYQB 301634Z 27004KT 8SM FEW010 SCT015 BKN020 BKN120 22/ RMK SF1SC3SC2AC1

CYQB;2008-08-30 17:00;CYQB 301700Z 22007KT 10SM SCT016 BKN057 22/18 A2992 RMK SC4SC1 CU ASOCTD SLP133

CYQB;2008-08-30 18:00;CYQB 301800Z 22011KT 20SM FEW020 FEW048 24/19 A2991 RMK CU2SC1 TCU ASOCTD CB TOP NW SLP128

CYQB;2008-08-30 19:00;CYQB 301900Z 24011KT 30SM FEW020 FEW048 24/18 A2989 RMK CU2SC1 TCU ASOCTD N-E SLP122

CYQB;2008-08-30 20:00;CYQB 302000Z 24007G15KT 30SM FEW020 SCT036TCU SCT080 25/17 A2989 RMK CU1TCU3AC1 CB EMBD E SLP121

CYQB;2008-08-30 20:44;CYQB 302044Z 11004KT 20SM -SHRA FEW020 BKN043TCU 21/ RMK CU1TCU5

CYQB;2008-08-30 20:51;CYQB 302051Z 08006KT 20SM TS FEW020 BKN040TCU BKN110 21/ RMK CU1TCU5AC1 CB SE

CYQB;2008-08-30 21:00;CYQB 302100Z 09005KT 25SM FEW020 SCT037TCU SCT110 21/16 A2988 RETS RMK CU1TCU3AC1 SLP119

CYQB;2008-08-30 21:06;CYQB 302106Z 14005KT 25SM FEW020 FEW042TCU SCT110 21/ RETS RMK CU1TCU2AC1 CB TOPS DSNT SE

CYQB;2008-08-30 22:00;CYQB 302200Z 15002KT 25SM FEW020 FEW040TCU FEW100 22/18 A2988 RETS RMK CU1TCU2AC1 CB TOP DSNT NW SLP118

CYQB;2008-08-30 23:00;CYQB 302300Z 34011KT 25SM FEW040TCU SCT260 22/14 A2989 RMK TCU2CI1 CB TOP NE SLP124

CYQB;2008-08-31 00:00;CYQB 310000Z 30002KT 15SM FEW040TCU FEW090 19/13 A2992 RMK TCU1AC1 SLP131

CYQB;2008-08-31 01:00;CYQB 310100Z 00000KT 15SM SKC 17/13 A2993 RMK SLP135

CYQB;2008-08-31 02:00;CYQB 310200Z 04004KT 15SM BKN120 18/14 A2994 RMK AC3 SLP138

CYQB;2008-08-31 02:09;CYQB 310209Z 32008KT 6SM -TSRA FEW045CB SCT090 BKN120 18/ RMK CB2AC1AC2 LTG N

CYQB;2008-08-31 02:12;CYQB 310212Z 33005KT 3SM R06/4000VP6000FT/D -TSRA BKN009 OVC060CB 16/ RMK SF6CB2

CYQB;2008-08-31 02:28;CYQB 310228Z 00000KT 15SM TS FEW009 BKN052 OVC070 16/ RMK SF2SC5AC2 CB ASOCTD

CYQB;2008-08-31 03:00;CYQB 310300Z 32005KT 15SM BKN080 16/14 A2996 RETS RMK AC6 DIST LTNG E SLP146

CYQB;2008-08-31 04:00;CYQB 310400Z 29004KT 15SM BKN090 15/14 A2996 RMK AC4 SLP145

CYQB;2008-08-31 05:00;CYQB 310500Z 23002KT 15SM BKN110 15/14 A2997 RMK AC5 SLP148

CYQB;2008-08-31 06:00;CYQB 310600Z 27004KT 15SM BKN120 15/14 A2997 RMK AC5 SLP149

CYQB;2008-08-31 07:00;CYQB 310700Z 30005KT 15SM BKN092 15/13 A2997 RMK AC5 SLP151

CYQB;2008-08-31 08:00;CYQB 310800Z 29004KT 15SM BKN088 16/13 A2998 RMK AC7 SLP152

CYQB;2008-08-31 09:00;CYQB 310900Z 25006KT 15SM BKN097 16/12 A3000 RMK AC6 SLP159

CYQB;2008-08-31 10:00;CYQB 311000Z 29004KT 30SM FEW030 BKN130 15/12 A3003 RMK SC2AC2 SLP169

CYQB;2008-08-31 11:00;CYQB 311100Z 29002KT 30SM FEW025 SCT180 BKN220 16/12 A3005 RMK SC1AC2CI1 SLP175

CYQB;2008-08-31 12:00;CYQB 311200Z 32004KT 30SM FEW020 FEW110 FEW160 SCT220 17/13 A3007 RMK SC1AC1AC1CI0 SLP183

CYQB;2008-08-31 13:00;CYQB 311300Z 33010G15KT 30SM FEW025 FEW120 FEW220 18/12 A3008 RMK CU1AC1CI1 SLP188

CYQB;2008-08-31 14:00;CYQB 311400Z 33013G18KT 30SM FEW032 FEW220 19/11 A3009 RMK CU2CI0 CC ASOCTD SLP191

CYQB;2008-08-31 15:00;CYQB 311500Z 34012KT 30SM FEW036 21/11 A3009 RMK CU2 SLP190

CYQB;2008-08-31 16:00;CYQB 311600Z 31012G18KT 30SM SCT045 21/12 A3009 RMK CU3 SLP191

CYQB;2008-08-31 17:00;CYQB 311700Z 32007G17KT 30SM BKN057 23/11 A3008 RMK SC5 CU ASOCTD SLP187

CYQB;2008-08-31 18:00;CYQB 311800Z 27010KT 30SM BKN076 23/11 A3007 RMK AC4 SLP183

CYQB;2008-08-31 19:00;CYQB 311900Z 29012G18KT 30SM BKN075 24/12 A3006 RMK CU5 SLP180

CYQB;2008-08-31 20:00;CYQB 312000Z 30008KT 30SM SCT085 24/11 A3006 RMK AC4 SLP179

CYQB;2008-08-31 21:00;CYQB 312100Z 34012KT 30SM FEW070 SCT085 24/10 A3006 RMK CU2AC2 SLP180

CYQB;2008-08-31 22:00;CYQB 312200Z 33008KT 30SM FEW070 FEW090 23/10 A3006 RMK CU1AC1 SLP179

CYQB;2008-08-31 23:00;CYQB 312300Z 31004KT 30SM FEW075 21/11 A3007 RMK AC1 SLP183

CYQB;2008-09-01 01:00;CYQB 010100Z 29006KT 15SM SKC 15/11 A3010 RMK SLP193

CYQB;2008-09-01 02:00;CYQB 010200Z 28003KT 15SM SKC 16/10 A3010 RMK SLP192

CYQB;2008-09-01 03:00;CYQB 010300Z 36007KT 15SM SKC 17/10 A3011 RMK SLP198

CYQB;2008-09-01 04:00;CYQB 010400Z 34004KT 15SM SKC 16/10 A3011 RMK SLP198

CYQB;2008-09-01 05:00;CYQB 010500Z 23003KT 15SM SKC 13/10 A3012 RMK SLP200

CYQB;2008-09-01 06:00;CYQB 010600Z 27002KT 15SM SKC 11/09 A3012 RMK SLP201

CYQB;2008-09-01 07:00;CYQB 010700Z 26003KT 30SM SKC 11/09 A3013 RMK SLP203

CYQB;2008-09-01 08:00;CYQB 010800Z 20003KT 30SM SKC 12/09 A3014 RMK SLP206

CYQB;2008-09-01 09:00;CYQB 010900Z 27005KT 30SM SKC 11/09 A3016 RMK SLP213

CYQB;2008-09-01 10:00;CYQB 011000Z 27009KT 30SM FEW300 10/08 A3015 RMK CI1 SLP212

CYQB;2008-09-01 11:00;CYQB 011100Z 32009KT 30SM SKC 13/10 A3017 RMK SLP219

CYQB;2008-09-01 12:00;CYQB 011200Z 28003KT 30SM SKC 17/12 A3019 RMK SLP223

CYQB;2008-09-01 13:00;CYQB 011300Z 33005KT 30SM SKC 19/10 A3018 RMK SLP220

CYQB;2008-09-01 14:00;CYQB 011400Z CCA 33005KT 30SM SKC 19/10 A3018 RMK SLP220

CYQB;2008-09-01 15:00;CYQB 011500Z 32004KT 30SM FEW300 23/10 A3017 RMK CI0 SLP218

CYQB;2008-09-01 16:00;CYQB 011600Z 34007KT 30SM FEW300 25/10 A3014 RMK CI0 SLP207

CYQB;2008-09-01 17:00;CYQB 011700Z 23013KT 30SM FEW300 24/14 A3011 RMK CI0 SLP198

CYQB;2008-09-01 18:00;CYQB 011800Z 24010KT 30SM FEW300 26/14 A3010 RMK CI0 SLP194

CYQB;2008-09-01 19:00;CYQB 011900Z 26012KT 30SM FEW300 27/14 A3009 RMK CI0 SLP191

CYQB;2008-09-01 20:00;CYQB 012000Z 25008KT 30SM SCT300 27/12 A3008 RMK CI1 SLP185

CYQB;2008-09-01 21:00;CYQB 012100Z 22005KT 30SM SCT300 28/14 A3006 RMK CI1 SLP181

CYQB;2008-09-01 22:00;CYQB 012200Z 05007KT 30SM FEW100 FEW300 26/13 A3007 RMK AC1CI0 SLP183

CYQB;2008-09-01 23:00;CYQB 012300Z 01002KT 30SM FEW300 24/14 A3008 RMK CI0 SLP188

CYQB;2008-09-02 00:00;CYQB 020000Z 00000KT 15SM FEW180 FEW300 20/15 A3009 RMK AC1CI0 SLP191

CYQB;2008-09-02 01:00;CYQB 020100Z 35005KT 15SM SKC 20/14 A3011 RMK SLP195

CYQB;2008-09-02 02:00;CYQB 020200Z 00000KT 15SM SKC 16/14 A3011 RMK SLP197

CYQB;2008-09-02 03:00;CYQB 020300Z 00000KT 15SM SKC 18/13 A3010 RMK SLP193

CYQB;2008-09-02 04:00;CYQB 020400Z 35009KT 15SM SKC 19/13 A3010 RMK SLP192

CYQB;2008-09-02 05:00;CYQB 020500Z 03004KT 15SM FEW120 18/13 A3010 RMK AC2 SLP194

CYQB;2008-09-02 06:00;CYQB 020600Z 33002KT 15SM FEW120 17/13 A3010 RMK AC2 SLP192

CYQB;2008-09-02 07:00;CYQB 020700Z 04005KT 15SM FEW120 17/13 A3010 RMK AC1 SLP194

CYQB;2008-09-02 08:00;CYQB 020800Z 02003KT 15SM FEW120 16/13 A3011 RMK AC1 SLP195

CYQB;2008-09-02 09:00;CYQB 020900Z 01004KT 15SM FEW120 16/13 A3010 RMK AC1 SLP193

CYQB;2008-09-02 10:00;CYQB 021000Z 02006KT 30SM FEW120 FEW200 16/13 A3010 RMK AC1CI1 SLP194

CYQB;2008-09-02 11:00;CYQB 021100Z 05004KT 30SM FEW120 FEW160 FEW240 16/13 A3012 RMK AC1AC1CI0 ACC ASOCTD SLP200

CYQB;2008-09-02 12:00;CYQB 021200Z CCA 00000KT 30SM FEW120 FEW160 FEW240 17/14 A3013 RMK AC1AC1CI0 ACC ASOCTD SLP203

CYQB;2008-09-02 13:00;CYQB 021300Z 00000KT 30SM FEW120 FEW160 SCT240 19/15 A3014 RMK AC1AC1CI0 SLP205

CYQB;2008-09-02 14:00;CYQB 021400Z 00000KT 30SM FEW120 FEW160 SCT240 20/15 A3013 RMK AC1AC1CI1 SLP202

CYQB;2008-09-02 15:00;CYQB 021500Z 18002KT 30SM FEW120 FEW160 23/16 A3012 RMK AC1AC1 SLP200

CYQB;2008-09-02 16:00;CYQB 021600Z 23003KT 30SM FEW040 FEW120 FEW160 26/15 A3009 RMK CU1AC1AC1 CONTRAILS SLP191

CYQB;2008-09-02 17:00;CYQB 021700Z 20004KT 30SM FEW040 FEW120 FEW160 27/16 A3007 RMK CU1AC1AC1 SLP182

CYQB;2008-09-02 18:00;CYQB 021800Z 27002KT 30SM FEW040 FEW130 SCT240 28/15 A3005 RMK CU1AC2CI1 SLP176

CYQB;2008-09-02 19:00;CYQB 021900Z 14005KT 30SM FEW040 FEW130 SCT240 27/14 A3004 RMK CU1AC2CI1 SLP171

CYQB;2008-09-02 20:00;CYQB 022000Z 24005KT 30SM FEW040 SCT120 SCT240 28/15 A3002 RMK CU1AC3CI1 SLP166

CYQB;2008-09-02 21:00;CYQB 022100Z 20002KT 30SM FEW040 SCT120 SCT240 28/16 A3001 RMK CU1AC3CI1 SLP161

CYQB;2008-09-02 22:00;CYQB 022200Z 18002KT 30SM SCT120 SCT240 28/15 A3000 RMK AC3CI1 SLP160

CYQB;2008-09-02 23:00;CYQB 022300Z 12003KT 30SM FEW040 SCT100 BKN150 BKN240 26/18 A3000 RMK CU2AC2AC1CI0 SLP159

CYQB;2008-09-03 00:00;CYQB 030000Z 09004KT 15SM FEW060 BKN100 25/16 A3002 RMK CU2AC3 SLP166

CYQB;2008-09-03 01:00;CYQB 030100Z 07007KT 15SM BKN060 23/16 A3003 RMK SC7 SLP168

CYQB;2008-09-03 02:00;CYQB 030200Z 07005KT 15SM SCT060 BKN240 22/15 A3002 RMK SC2CI6 SLP165

CYQB;2008-09-03 03:00;CYQB 030300Z 04004KT 15SM FEW050 SCT240 22/15 A3001 RMK SC1CI2 SLP163

CYQB;2008-09-03 04:00;CYQB 030400Z 04003KT 15SM BKN240 21/15 A3001 RMK CI5 SLP163

CYQB;2008-09-03 05:00;CYQB 030500Z 02003KT 15SM FEW240 20/15 A3001 RMK CI1 SLP163

CYQB;2008-09-03 06:00;CYQB 030600Z 04005KT 15SM FEW240 19/15 A3001 RMK CI1 SLP161

CYQB;2008-09-03 07:00;CYQB 030700Z 02003KT 15SM FEW085 FEW240 18/15 A3000 RMK AC1CI0 SLP157

CYQB;2008-09-03 08:00;CYQB 030800Z 02003KT 15SM SKC 18/15 A3000 RMK SLP158

CYQB;2008-09-03 09:00;CYQB 030900Z 35003KT 15SM FEW080 17/15 A3000 RMK AC1 SLP157

CYQB;2008-09-03 10:00;CYQB 031000Z 02003KT 15SM FEW035 FEW085 SCT250 17/15 A2999 RMK SC1AC1CI0 SLP154

CYQB;2008-09-03 11:00;CYQB 031100Z 02004KT 15SM FEW035 FEW085 FEW250 17/15 A3000 RMK SC1AC1CI0 SLP157

CYQB;2008-09-03 12:00;CYQB 031200Z 05004KT 15SM FEW035 FEW080 FEW250 19/16 A3000 RMK SC1AC1CI0 SLP160

CYQB;2008-09-03 13:00;CYQB 031300Z 04004KT 15SM FEW035 FEW080 FEW250 21/16 A2999 RMK SC1AC1CI0 SLP155

CYQB;2008-09-03 14:00;CYQB 031400Z 01002KT 15SM FEW035 FEW080 FEW250 23/17 A2998 RMK SC1AC1CI0 SLP152

CYQB;2008-09-03 15:00;CYQB 031500Z 12002KT 15SM FEW035 24/16 A2997 RMK CF1 SLP150

CYQB;2008-09-03 16:00;CYQB 031600Z 13004KT 15SM FEW040 25/15 A2994 RMK CF1 SLP139

CYQB;2008-09-03 17:00;CYQB 031700Z 15005KT 15SM FEW040 26/16 A2992 RMK CU1 SLP133

CYQB;2008-09-03 18:00;CYQB 031800Z 13003KT 30SM FEW044 27/16 A2990 RMK CU1 SLP124

CYQB;2008-09-03 19:00;CYQB 031900Z 26003KT 30SM FEW044TCU 27/16 A2988 RMK TCU1 CB TOP N SLP119

CYQB;2008-09-03 20:00;CYQB 032000Z 22002KT 30SM SCT037CB 26/17 A2987 RMK CB4 MAMMATUS OVHD SLP114

CYQB;2008-09-03 21:00;CYQB 032100Z 08003KT 30SM FEW048 FEW120 SCT230 27/15 A2985 RMK CU1AC1CI2 TCU TOPS N SLP107

CYQB;2008-09-03 22:00;CYQB 032200Z 32002KT 30SM FEW045 FEW120 FEW230 26/15 A2984 RMK CU1AC1CI1 TCU ASOCTD SLP106

CYQB;2008-09-03 23:00;CYQB 032300Z 07002KT 30SM FEW036 FEW080 FEW230 24/15 A2984 RMK CU1AC1CI1 TCU ASOCTD SLP104

CYQB;2008-09-04 00:00;CYQB 040000Z 01004KT 15SM FEW035 FEW070 23/17 A2983 RMK SC2AC1 SLP102

CYQB;2008-09-04 01:00;CYQB 040100Z 02005KT 15SM FEW080 FEW110 22/18 A2983 RMK AC1AC1 SLP103

CYQB;2008-09-04 02:00;CYQB 040200Z 34005KT 15SM FEW210 20/17 A2983 RMK CI1 SLP103

CYQB;2008-09-04 03:00;CYQB 040300Z 01003KT 15SM FEW120 SCT210 20/17 A2983 RMK AC2CI1 SLP100

CYQB;2008-09-04 04:00;CYQB 040400Z 36003KT 15SM FEW120 FEW210 19/17 A2982 RMK AC0CI0 SLP099

CYQB;2008-09-04 05:00;CYQB 040500Z 02003KT 15SM FEW050 SCT210 19/16 A2982 RMK SC2CI1 SLP098

CYQB;2008-09-04 06:00;CYQB 040600Z 36004KT 15SM SCT120 SCT200 19/16 A2981 RMK AC3CI1 SLP096

CYQB;2008-09-04 07:00;CYQB 040700Z 36003KT 15SM FEW040 FEW110 18/16 A2981 RMK SC1AC1 SLP094

CYQB;2008-09-04 08:00;CYQB 040800Z 00000KT 15SM FEW120 SCT210 18/16 A2981 RMK AC2CI1 SLP093

CYQB;2008-09-04 09:00;CYQB 040900Z 00000KT 15SM SCT190 16/15 A2981 RMK AC1 SLP093

CYQB;2008-09-04 10:00;CYQB 041000Z 27002KT 15SM FEW180 SCT250 15/14 A2982 RMK AC2CI0 SLP098

CYQB;2008-09-04 11:00;CYQB 041100Z 00000KT 15SM FEW030 BKN120 BKN180 17/17 A2982 RMK SC1AC4AC2 SLP099

CYQB;2008-09-04 12:00;CYQB 041200Z 22008KT 15SM FEW020 BKN060 OVC160 19/17 A2984 RMK SC1SC5AC2 SLP106

CYQB;2008-09-04 13:00;CYQB 041300Z 25007KT 15SM FEW008 OVC060 19/17 A2986 RMK SF1SC8 SF OVR RIVER SLP110

CYQB;2008-09-04 14:00;CYQB 041400Z 33009KT 15SM BKN075 BKN100 22/17 A2988 RMK AC5AC2 SLP117

CYQB;2008-09-04 15:00;CYQB 041500Z 33009KT 15SM FEW030 BKN075 BKN110 22/15 A2990 RMK SC1AC5AC2 SLP124

CYQB;2008-09-04 16:00;CYQB 041600Z 34011KT 15SM BKN035 BKN090 23/15 A2992 RMK SC5AC0 SLP130

CYQB;2008-09-04 17:00;CYQB 041700Z 33012G18KT 15SM FEW035 SCT200 23/14 A2994 RMK SC2CI1 SLP137

CYQB;2008-09-04 18:00;CYQB 041800Z 31009G15KT 15SM FEW040 SCT200 23/12 A2994 RMK SC2CI1 SLP140

CYQB;2008-09-04 19:00;CYQB 041900Z 31007KT 30SM FEW050 SCT200 23/11 A2996 RMK SC2CI1 SLP144

CYQB;2008-09-04 20:00;CYQB 042000Z 33008KT 30SM FEW050 SCT200 23/11 A2997 RMK SC2CI1 SLP147

CYQB;2008-09-04 21:00;CYQB 042100Z 34007KT 30SM FEW050 FEW200 22/10 A2998 RMK SC1CI0 SLP152

CYQB;2008-09-04 22:00;CYQB 042200Z 33009KT 30SM FEW050 FEW160 21/11 A2999 RMK SC1AC1 SLP155

CYQB;2008-09-04 23:00;CYQB 042300Z 32005KT 30SM FEW150 FEW200 19/11 A3001 RMK AC1CI0 SLP163

CYQB;2008-09-05 00:00;CYQB 050000Z 36006KT 30SM FEW200 18/10 A3004 RMK CI0 SLP173

CYQB;2008-09-05 01:00;CYQB 050100Z 36008KT 15SM FEW200 17/09 A3007 RMK CI0 SLP182

CYQB;2008-09-05 02:00;CYQB 050200Z 04005KT 15SM FEW200 15/09 A3008 RMK CI0 SLP188

CYQB;2008-09-05 03:00;CYQB 050300Z 36006KT 15SM SCT200 15/09 A3009 RMK CI0 SLP191

CYQB;2008-09-05 04:00;CYQB 050400Z 05004KT 15SM FEW220 13/09 A3010 RMK CI0 SLP192

CYQB;2008-09-05 05:00;CYQB 050500Z 05003KT 15SM BKN220 14/09 A3009 RMK CI4 SLP190

CYQB;2008-09-05 06:00;CYQB 050600Z 02004KT 15SM SCT240 13/09 A3010 RMK CI2 SLP194

CYQB;2008-09-05 07:00;CYQB 050700Z 33002KT 15SM FEW052 BKN210 12/09 A3012 RMK SC1CI2 SLP200

CYQB;2008-09-05 08:00;CYQB 050800Z 02003KT 15SM FEW050 BKN240 13/09 A3011 RMK SC1CI2 SLP196

CYQB;2008-09-05 09:00;CYQB 050900Z 03006KT 15SM FEW140 BKN220 13/09 A3011 RMK AC1CI2 SLP198

CYQB;2008-09-05 10:00;CYQB 051000Z 04006KT 30SM FEW140 SCT210 BKN260 13/09 A3011 RMK AC2CC2CC0 SLP196

CYQB;2008-09-05 11:00;CYQB 051100Z 06009KT 30SM SCT060 BKN210 13/09 A3010 RMK SC3CC1 SLP194

CYQB;2008-09-05 12:00;CYQB 051200Z 06012KT 30SM BKN048 BKN100 OVC210 15/10 A3010 RMK SC5AC2CI1 SLP192

CYQB;2008-09-05 12:30;CYQB 051230Z 07016KT 30SM -SHRA OVC048 15/ RMK SC8

CYQB;2008-09-05 12:38;CYQB 051238Z 08017G22KT 30SM OVC048 15/ RMK SC8

CYQB;2008-09-05 13:00;CYQB 051300Z 07016G21KT 30SM OVC046 15/10 A3008 RMK SC8 SLP188

CYQB;2008-09-05 14:00;CYQB 051400Z 07013G22KT 30SM OVC040 16/09 A3007 RMK SC8 SLP182

CYQB;2008-09-05 15:00;CYQB 051500Z 08013G19KT 30SM OVC039 16/10 A3004 RMK SC8 SLP174

CYQB;2008-09-05 16:00;CYQB 051600Z 07015G21KT 30SM OVC039 17/10 A3002 RMK SC7 SLP167

CYQB;2008-09-05 17:00;CYQB 051700Z 07016G25KT 30SM SCT090 OVC240 19/11 A2999 RMK SC3CC1 SLP156

CYQB;2008-09-05 18:00;CYQB 051800Z 07018KT 30SM FEW090 SCT180 BKN240 19/11 A2994 RMK SC1AC2CC1 SLP141

CYQB;2008-09-05 19:00;CYQB 051900Z 06013G18KT 10SM SCT090 SCT180 BKN240 20/13 A2993 RMK AC2AC1CI1 SLP135

CYQB;2008-09-05 20:00;CYQB 052000Z 08012G17KT 10SM FEW090 FEW180 FEW240 21/13 A2989 RMK AC1AC1CI1 SLP124

CYQB;2008-09-05 21:00;CYQB 052100Z 08011G16KT 10SM FEW055 FEW090 FEW240 20/14 A2989 RMK CU1AC1CI1 SLP122

CYQB;2008-09-05 22:00;CYQB 052200Z 08008KT 10SM FEW100 FEW150 19/14 A2987 RMK AC1AC1 SLP116

CYQB;2008-09-05 23:00;CYQB 052300Z 09006KT 10SM FEW130 FEW230 18/14 A2988 RMK AC2CI1 SLP118

CYQB;2008-09-06 00:00;CYQB 060000Z 08009KT 10SM FEW130 SCT150 17/13 A2987 RMK AC2AC1 SLP117

CYQB;2008-09-06 01:00;CYQB 060100Z 06005KT 10SM OVC090 18/14 A2989 RMK AC8 SLP122

CYQB;2008-09-06 02:00;CYQB 060200Z 08004KT 10SM OVC080 17/15 A2989 RMK AC8 SLP121

CYQB;2008-09-06 03:00;CYQB 060300Z 07004KT 10SM OVC090 17/14 A2987 RMK AC8 SLP117

CYQB;2008-09-06 04:00;CYQB 060400Z 06004KT 15SM SCT090 OVC130 17/14 A2987 RMK AC4AC4 SLP116

CYQB;2008-09-06 05:00;CYQB 060500Z 06002KT 15SM FEW090 SCT110 BKN200 17/14 A2986 RMK AC2AC2CI0 SLP112

CYQB;2008-09-06 06:00;CYQB 060600Z 10002KT 15SM FEW090 BKN120 16/15 A2986 RMK AC2AC3 SLP112

CYQB;2008-09-06 07:00;CYQB 060700Z 33003KT 15SM BKN110 16/15 A2987 RMK AC7 SLP115

CYQB;2008-09-06 08:00;CYQB 060800Z 34002KT 15SM FEW056 OVC095 17/15 A2986 RMK SC2AC6 SLP114

CYQB;2008-09-06 09:00;CYQB 060900Z 00000KT 15SM -SHRA BKN045 OVC055 17/16 A2987 RMK SC6SC2 VRY LGT PCPN SLP115

CYQB;2008-09-06 10:00;CYQB 061000Z 00000KT 15SM -SHRA BKN049 OVC090 17/16 A2987 RMK SC5AC3 SLP115

CYQB;2008-09-06 10:36;CYQB 061036Z 00000KT 8SM SCT053 BKN080 OVC160 18/ RMK SC2AC3AC2

CYQB;2008-09-06 11:00;CYQB 061100Z 00000KT 6SM BR FEW048 BKN080 OVC160 18/17 A2987 RMK SC2AC3AC2 SLP116

CYQB;2008-09-06 12:00;CYQB 061200Z 30004KT 6SM BR FEW045 OVC080 19/18 A2988 RMK SC2AC6 SLP120

CYQB;2008-09-06 12:26;CYQB 061226Z 28004KT 4SM -SHRA BR FEW035 OVC056 20/ RMK SC2SC6

CYQB;2008-09-06 13:00;CYQB 061300Z 24004KT 5SM -SHRA BR FEW020 FEW035 OVC060 20/19 A2988 RMK SC1SC2SC6 SLP119

CYQB;2008-09-06 13:21;CYQB 061321Z 25004KT 5SM -SHRA BR FEW004 BKN040 OVC060 20/ RMK SF1SC6SC2

CYQB;2008-09-06 14:00;CYQB 061400Z 25004KT 5SM -SHRA BR FEW004 BKN016 OVC040 20/19 A2988 RMK SF1SC5SC3 SLP118

CYQB;2008-09-06 14:42;CYQB 061442Z 22004KT 1 1/2SM SHRA BR SCT009 OVC023 20/ RMK FG1SF2SC5 TCU EMBD VIS SE-W 3

CYQB;2008-09-06 15:00;CYQB 061500Z 26005KT 6SM -SHRA BR FEW006 OVC021 20/19 A2988 RERA RMK SF1SC7 VIS W-NE 3 SLP117

CYQB;2008-09-06 16:00;CYQB 061600Z 27004KT 6SM BR FEW005 OVC019 21/20 A2986 RMK SF2SC6 SLP111

CYQB;2008-09-06 17:00;CYQB 061700Z 00000KT 8SM FEW008 SCT022 OVC049 21/19 A2984 RMK SF1SC2SC5 SLP105

CYQB;2008-09-06 18:00;CYQB 061800Z 27005KT 6SM BR FEW009 SCT049 OVC090 22/20 A2986 RMK SF1SC3AC4 SLP110

CYQB;2008-09-06 19:00;CYQB 061900Z 28005KT 6SM BR SCT049 BKN070 OVC150 22/20 A2985 RMK SC4AC2AC2 SLP107

CYQB;2008-09-06 20:00;CYQB 062000Z 25007KT 7SM FEW040 SCT073 OVC130 22/20 A2985 RMK SC2AC2AC4 SLP109

CYQB;2008-09-06 21:00;CYQB 062100Z 25004KT 7SM FEW010 SCT040 BKN072 OVC150 22/19 A2983 RMK SF2SC2AC2AC3 SLP102

CYQB;2008-09-06 22:00;CYQB 062200Z 27003KT 7SM FEW040 SCT070 OVC120 22/19 A2983 RMK SC2AC2AC5 SLP101

CYQB;2008-09-06 23:00;CYQB 062300Z 22002KT 7SM BKN035 OVC140 21/19 A2983 RMK SC5AC3 SLP100

CYQB;2008-09-07 00:00;CYQB 070000Z 32002KT 8SM BKN019 OVC120 20/19 A2983 RMK SC6AC2 SLP100

CYQB;2008-09-07 01:00;CYQB 070100Z 00000KT 8SM OVC023 20/18 A2981 RMK SC8 SLP096

CYQB;2008-09-07 02:00;CYQB 070200Z 27003KT 8SM OVC027 20/18 A2981 RMK SC8 SLP093

CYQB;2008-09-07 03:00;CYQB 070300Z 36004KT 8SM BKN030 OVC037 20/18 A2978 RMK SC7SC1 SLP085

CYQB;2008-09-07 04:00;CYQB 070400Z 36002KT 15SM OVC042 20/18 A2977 RMK SC8 SLP081

CYQB;2008-09-07 05:00;CYQB 070500Z 09011G17KT 15SM BKN007 OVC011 17/16 A2979 RMK SC5SC3 SLP088

CYQB;2008-09-07 06:00;CYQB 070600Z 07011KT 8SM OVC009 16/15 A2978 RMK SF8 SLP083

CYQB;2008-09-07 07:00;CYQB 070700Z 08010G15KT 10SM -DZ BKN010 OVC021 16/15 A2977 RMK SC6SC2 SLP081

CYQB;2008-09-07 08:00;CYQB 070800Z 06012KT 10SM -DZ BKN013 OVC024 17/14 A2977 RMK SF7SC1 SLP081

CYQB;2008-09-07 09:00;CYQB 070900Z 08006KT 15SM OVC030 16/14 A2976 RMK SC8 SLP077

CYQB;2008-09-07 10:00;CYQB 071000Z 03003KT 15SM BKN018 BKN030 OVC100 16/13 A2977 RMK SC5SC2AC1 VIS LWR NW SLP082

CYQB;2008-09-07 11:00;CYQB 071100Z 34004KT 6SM -DZ BR OVC015 15/14 A2979 RMK SC8 VIS E-SE 10 SLP089

CYQB;2008-09-07 11:45;CYQB 071145Z 34007KT 6SM BR BKN014 OVC020 15/ RMK SC6SC2

CYQB;2008-09-07 12:00;CYQB 071200Z 35008KT 6SM -DZ BR FEW015 OVC020 15/14 A2980 RMK SC2SC6 SLP092

CYQB;2008-09-07 13:00;CYQB 071300Z 33007KT 6SM -DZ BR BKN016 OVC027 15/14 A2982 RMK SC6SC2 SLP097

CYQB;2008-09-07 13:19;CYQB 071319Z 33005KT 2 1/2SM -DZ BR OVC021 15/ RMK SC8

CYQB;2008-09-07 13:26;CYQB 071326Z 32005KT 1 1/4SM -DZ BR OVC016 15/ RMK SC8

CYQB;2008-09-07 13:38;CYQB 071338Z 33004KT 1 1/2SM -DZ BR FEW004 BKN010 OVC015 15/ RMK SF2SC5SC2

CYQB;2008-09-07 14:00;CYQB 071400Z 33006KT 1 1/2SM -DZ BR FEW004 BKN013 OVC020 15/14 A2984 RMK SF2SC5SC2 SLP104

CYQB;2008-09-07 14:30;CYQB 071430Z 34003KT 1SM R06/P6000FT/D -DZ BR BKN008 OVC015 15/ RMK SF6SC2

CYQB;2008-09-07 15:00;CYQB 071500Z 30002KT 1SM R06/6000FT/N -DZ BR BKN008 OVC015 15/14 A2986 RMK SF5SC3 SLP111

CYQB;2008-09-07 15:09;CYQB 071509Z 31003KT 3/4SM R06/5500FT/D -DZ BR SCT008 OVC018 15/ RMK SF3SC5

CYQB;2008-09-07 15:41;CYQB 071541Z 28003KT 3/4SM R06/P6000FT/D -DZ BR SCT008 OVC013 15/ RMK SF3SC5

CYQB;2008-09-07 16:00;CYQB 071600Z 30002KT 3/4SM R06/P6000FT/U -DZ BR OVC010 15/15 A2986 RMK SF8 SLP111

CYQB;2008-09-07 16:11;CYQB 071611Z 24003KT 3/4SM R06/P6000FT/D -DZ BR SCT004 OVC010 15/ RMK SF3SF5

CYQB;2008-09-07 16:40;CYQB 071640Z 23006KT 6SM -DZ BR BKN010 OVC033 16/ RMK SF6SC2

CYQB;2008-09-07 17:00;CYQB 071700Z 21005KT 10SM SCT010 BKN025 OVC033 17/15 A2985 RMK SF3SC2SC2 SLP109

CYQB;2008-09-07 18:00;CYQB 071800Z 20008KT 20SM SCT020 BKN039 18/15 A2984 RMK SC3SC4 SLP106

CYQB;2008-09-07 19:00;CYQB 071900Z 27012KT 20SM FEW020 OVC032 18/13 A2984 RMK SC2SC6 SLP105

CYQB;2008-09-07 20:00;CYQB 072000Z 26012KT 20SM FEW020 BKN039 17/12 A2984 RMK CU2SC6 SLP107

CYQB;2008-09-07 21:00;CYQB 072100Z 25018KT 20SM FEW020 SCT039 BKN190 16/12 A2986 RMK SC2SC2AC2 SLP112

CYQB;2008-09-07 22:00;CYQB 072200Z 25013KT 20SM FEW028 BKN055 16/12 A2988 RMK SC2SC6 SLP120

CYQB;2008-09-07 23:00;CYQB 072300Z 27008KT 25SM FEW025 SCT058 BKN170 15/11 A2989 RMK CU1SC2AC3 SLP123

CYQB;2008-09-08 00:00;CYQB 080000Z 25009KT 15SM FEW030 BKN053 14/11 A2991 RMK SC2SC6 SLP128

CYQB;2008-09-08 01:00;CYQB 080100Z 25009KT 15SM FEW030 BKN120 14/11 A2992 RMK SC2AC6 SLP132

CYQB;2008-09-08 02:00;CYQB 080200Z 27007KT 15SM BKN050 14/11 A2992 RMK SC5 SLP133

CYQB;2008-09-08 03:00;CYQB 080300Z 25007KT 15SM FEW020 OVC053 13/11 A2993 RMK SC1SC6 SLP137

CYQB;2008-09-08 04:00;CYQB 080400Z 27008KT 15SM SCT058 OVC120 13/11 A2993 RMK SC3AC4 SLP136

CYQB;2008-09-08 05:00;CYQB 080500Z 25007KT 15SM -SHRA FEW020 BKN085 13/11 A2994 RMK SC2AC4 SLP139

CYQB;2008-09-08 05:35;CYQB 080535Z 25008KT 15SM FEW020 SCT049 OVC053 13/ RMK SC2SC2SC5

CYQB;2008-09-08 06:00;CYQB 080600Z 25010KT 15SM FEW020 BKN055 13/11 A2995 RMK CU1SC6 SLP142

CYQB;2008-09-08 07:00;CYQB 080700Z 26011KT 15SM FEW020 OVC060 13/12 A2995 RMK SC2SC6 SLP142

CYQB;2008-09-08 08:00;CYQB 080800Z 27010KT 15SM FEW020 12/11 A2996 RMK SC2 SLP146

CYQB;2008-09-08 09:00;CYQB 080900Z 27009KT 15SM FEW008 FEW071 12/11 A2998 RMK SF1AC2 SLP154

CYQB;2008-09-08 10:00;CYQB 081000Z 25009KT 15SM FEW008 BKN056 12/11 A2999 RMK CU1SC5 SLP158

CYQB;2008-09-08 11:00;CYQB 081100Z 25007KT 15SM FEW008 BKN051 12/11 A3001 RMK CU1SC6 SLP163

CYQB;2008-09-08 12:00;CYQB 081200Z 25007KT 30SM FEW008 BKN052 13/12 A3003 RMK CF1SC6 SLP170

CYQB;2008-09-08 12:45;CYQB 081245Z 26013KT 30SM BKN013 BKN020 BKN050 15/ RMK SC5SC2SC1

CYQB;2008-09-08 13:00;CYQB 081300Z 25010KT 30SM BKN013 BKN090 15/13 A3003 RMK SC6AC2 SLP172

CYQB;2008-09-08 13:36;CYQB 081336Z 26009KT 30SM FEW013 BKN034 BKN090 15/ RMK CF2SC2AC2

CYQB;2008-09-08 14:00;CYQB 081400Z 28006KT 30SM SCT013 BKN030 BKN090 16/13 A3003 RMK CF3SC2AC1 SLP169

CYQB;2008-09-08 15:00;CYQB 081500Z 23012KT 30SM FEW013 SCT030 BKN055 17/13 A3003 RMK CF1SC2SC2 SLP168

CYQB;2008-09-08 16:00;CYQB 081600Z 26010KT 30SM FEW015 BKN030 BKN070 18/14 A3003 RMK SC2SC2AC2 SLP169

CYQB;2008-09-08 17:00;CYQB 081700Z 25012KT 30SM FEW015 BKN028 BKN070 19/12 A3000 RMK CF2SC3AC1 SLP161

CYQB;2008-09-08 18:00;CYQB 081800Z 22015KT 30SM SCT030 BKN220 20/13 A2998 RMK CU4CI0 SLP154

CYQB;2008-09-08 19:00;CYQB 081900Z 23015KT 30SM VCSH SCT039 BKN091 20/11 A2997 RMK CU3AC3 TCU EMBDD SLP150

CYQB;2008-09-08 19:24;CYQB 081924Z 24015KT 15SM -SHRA SCT027TCU BKN090 BKN240 19/ RMK TCU3AC2CI1

CYQB;2008-09-08 20:00;CYQB 082000Z 27009KT 15SM -SHRA BKN034TCU BKN240 17/14 A2998 RMK TCU5CI2 VIS 4 W QUAD SLP152

CYQB;2008-09-08 20:06;CYQB 082006Z 27008KT 15SM -TSRA BKN035TCU BKN240 17/ RMK TCU5CI2 CB EMBD VIS 4 W QUAD

CYQB;2008-09-08 20:17;CYQB 082017Z 33011G25KT 1 1/2SM TSRA BR BKN017CB BKN240 15/ RMK CB6CI1

CYQB;2008-09-08 20:30;CYQB 082030Z 31002KT 15SM -TSRA BKN043TCU OVC090 15/ RMK TCU7AC1 CB EMBD VIS E QUAD 6 RERA

CYQB;2008-09-08 20:52;CYQB 082052Z 00000KT 15SM -SHRA BKN040TCU OVC070 14/ RMK TCU6AC2 RETS RERA VIS NE-E QUAD 3

CYQB;2008-09-08 21:00;CYQB 082100Z 27003KT 15SM -SHRA BKN040TCU BKN058 BKN240 15/12 A2998 RMK TCU5SC2CI1 RETS RERA VIS NW-E LWR SLP155

CYQB;2008-09-08 22:00;CYQB 082200Z 25004KT 15SM -SHRA BKN050 BKN100 15/13 A2998 RMK SC6AC1 RERA TCU EMBD SLP153

CYQB;2008-09-08 22:34;CYQB 082234Z 28012G17KT 2SM TSRA BR BKN025CB OVC050 15/ RMK CB6SC2

CYQB;2008-09-08 23:00;CYQB 082300Z 18005KT 15SM -SHRA SCT042 BKN088 15/13 A2999 RMK SC4AC3 RETS RERA CB E SLP157

CYQB;2008-09-09 00:00;CYQB 090000Z 26004KT 15SM FEW042 BKN083 14/14 A3000 RMK SC1AC6 SLP161

CYQB;2008-09-09 01:00;CYQB 090100Z 24005KT 15SM FEW068 FEW088 14/13 A3001 RMK AC2AC1 SLP164

CYQB;2008-09-09 02:00;CYQB 090200Z 24006KT 15SM FEW068 FEW088 13/12 A3002 RMK AC1AC2 SLP168

CYQB;2008-09-09 03:00;CYQB 090300Z 23008KT 15SM FEW068 FEW088 14/12 A3002 RMK AC2AC1 SLP167

CYQB;2008-09-09 04:00;CYQB 090400Z 26007KT 15SM FEW030 12/12 A3002 RMK SC1 SLP166

CYQB;2008-09-09 05:00;CYQB 090500Z 26008KT 15SM FEW030 13/12 A3002 RMK SC1 SLP165

CYQB;2008-09-09 06:00;CYQB 090600Z 23004KT 15SM FEW010 11/11 A3001 RMK SF1 SLP162

CYQB;2008-09-09 07:00;CYQB 090700Z 00000KT 6SM BR BKN005 12/11 A3002 RMK SF6 SLP165

CYQB;2008-09-09 08:00;CYQB 090800Z 01002KT 5SM BR SCT002 OVC007 12/12 A3001 RMK SF4SF4 SLP164

CYQB;2008-09-09 09:00;CYQB 090900Z 02003KT 10SM BKN006 12/12 A3000 RMK SF7 SLP160

CYQB;2008-09-09 10:00;CYQB 091000Z 01004KT 10SM BKN006 OVC090 12/11 A2997 RMK SF7AC1 SLP151

CYQB;2008-09-09 10:26;CYQB 091026Z 01002KT 15SM FEW007 OVC100 12/ RMK SF2AC6

CYQB;2008-09-09 11:00;CYQB 091100Z 00000KT 10SM -DZ SCT007 OVC080 12/12 A2996 RMK SF4AC4 SLP147

CYQB;2008-09-09 11:31;CYQB 091131Z 04003KT 8SM -RA BKN009 OVC070 12/ RMK SF6AC2

CYQB;2008-09-09 12:00;CYQB 091200Z 01006KT 8SM -RA OVC006 12/12 A2993 RMK SF8 SLP136

CYQB;2008-09-09 13:00;CYQB 091300Z 06004KT 4SM -RA BR FEW007 OVC022 13/12 A2991 RMK SF2SC6 SLP131

CYQB;2008-09-09 14:00;CYQB 091400Z 07008KT 2SM -RA BR BKN010 OVC014 13/12 A2988 RMK SF6SC2 SLP119

CYQB;2008-09-09 15:00;CYQB 091500Z 09006KT 2SM -RA BR BKN010 OVC025 13/13 A2984 RMK SF6SC2 SLP105

CYQB;2008-09-09 16:00;CYQB 091600Z 06009KT 2SM -RA BR FEW005 OVC010 13/13 A2979 RMK SF2SF6 SLP090

CYQB;2008-09-09 17:00;CYQB 091700Z 07007KT 2SM -RA BR OVC003 14/14 A2977 RMK SF8 SLP081

CYQB;2008-09-09 17:34;CYQB 091734Z 06005KT 2SM -RA BR FEW003 OVC007 14/ RMK SF2SF6

CYQB;2008-09-09 18:00;CYQB 091800Z 07004KT 2SM -RA BR FEW003 BKN008 OVC015 14/14 A2975 RMK SF1SF6SC2 SLP075

CYQB;2008-09-09 19:00;CYQB 091900Z 11003KT 4SM -DZ BR FEW003 OVC010 14/14 A2974 RMK SF2SF6 SLP073

CYQB;2008-09-09 19:26;CYQB 091926Z 14003KT 1 1/2SM RA BR FEW003 OVC054 15/ RMK SF2SC6

CYQB;2008-09-09 19:39;CYQB 091939Z 00000KT 1 1/2SM RA BR BKN003 OVC054 15/ RMK SF6SC2

CYQB;2008-09-09 19:49;CYQB 091949Z 28007KT 4SM -RA BR BKN005 OVC030 15/ RMK SF6SC2

CYQB;2008-09-09 20:00;CYQB 092000Z 01004KT 6SM BR FEW005 BKN049 15/14 A2975 RMK SF2SC5 RERA VSBY LWR E SLP074

CYQB;2008-09-09 21:00;CYQB 092100Z 26013KT 10SM SCT016 BKN080 17/14 A2977 RMK SC4AC2 SLP081

CYQB;2008-09-09 22:00;CYQB 092200Z 29010G15KT 15SM SCT065 15/12 A2980 RMK AC3 SLP092

CYQB;2008-09-09 23:00;CYQB 092300Z 30009G15KT 15SM SCT060 13/10 A2984 RMK SC4 SLP106

CYQB;2008-09-10 00:00;CYQB 100000Z 32009KT 15SM SCT069 13/10 A2989 RMK AC3 SLP122

CYQB;2008-09-10 01:00;CYQB 100100Z 33005KT 15SM FEW030 FEW070 11/09 A2992 RMK SC1AC1 SLP135

CYQB;2008-09-10 02:00;CYQB 100200Z 27006KT 15SM FEW030 FEW070 10/08 A2994 RMK SC1AC1 SLP142

CYQB;2008-09-10 03:00;CYQB 100300Z 29004KT 15SM FEW030 11/08 A2997 RMK SC1 SLP152

CYQB;2008-09-10 04:00;CYQB 100400Z 28005KT 15SM FEW110 10/08 A3000 RMK AC2 SLP159

CYQB;2008-09-10 05:00;CYQB 100500Z 27007KT 15SM FEW087 SCT110 10/08 A3001 RMK AC1AC3 SLP165

CYQB;2008-09-10 06:00;CYQB 100600Z 25005KT 15SM FEW080 SCT110 08/07 A3003 RMK AC1AC2 SLP169

CYQB;2008-09-10 07:00;CYQB 100700Z 27005KT 15SM FEW080 07/06 A3004 RMK AC2 SLP175

CYQB;2008-09-10 08:00;CYQB 100800Z 26006KT 15SM SKC 07/06 A3007 RMK SLP185

CYQB;2008-09-10 09:00;CYQB 100900Z 25006KT 15SM SKC 07/05 A3010 RMK SLP194

CYQB;2008-09-10 10:00;CYQB 101000Z 23004KT 20SM FEW040 06/05 A3013 RMK SC1 SLP205

CYQB;2008-09-10 11:00;CYQB 101100Z 29006KT 25SM FEW040 07/06 A3017 RMK SC1 SLP219

CYQB;2008-09-10 12:00;CYQB 101200Z 27013KT 25SM FEW040 09/07 A3020 RMK SC1 SLP229

CYQB;2008-09-10 13:00;CYQB 101300Z 26012KT 25SM FEW040 10/07 A3022 RMK SC2 SLP237

CYQB;2008-09-10 14:00;CYQB 101400Z 29008KT 25SM FEW040 12/06 A3024 RMK SC2 SLP242

CYQB;2008-09-10 15:00;CYQB 101500Z 34013KT 25SM BKN060 14/04 A3025 RMK SC6 SLP245

CYQB;2008-09-10 16:00;CYQB 101600Z 34011KT 25SM BKN053 14/03 A3025 RMK SC7 SLP245

CYQB;2008-09-10 17:00;CYQB 101700Z 33011KT 25SM BKN054 14/03 A3025 RMK SC6 SLP245

CYQB;2008-09-10 18:00;CYQB 101800Z 32013KT 25SM BKN056 15/04 A3025 RMK SC6 SLP246

CYQB;2008-09-10 19:00;CYQB 101900Z 31010G15KT 30SM BKN060 15/03 A3025 RMK SC6 SLP246

CYQB;2008-09-10 20:00;CYQB 102000Z 30008KT 30SM BKN063 BKN220 16/04 A3026 RMK SC6CI1 SLP248

CYQB;2008-09-10 21:00;CYQB 102100Z 30007KT 30SM BKN058 14/05 A3026 RMK SC5 SLP250

CYQB;2008-09-10 22:00;CYQB 102200Z 29007KT 30SM FEW060 FEW250 14/05 A3028 RMK SC2CI0 SLP255

CYQB;2008-09-10 23:00;CYQB 102300Z 29005KT 15SM FEW060 FEW250 11/06 A3029 RMK SC1CI1 SLP260

CYQB;2008-09-11 00:00;CYQB 110000Z 28004KT 15SM FEW250 09/06 A3030 RMK CI1 SLP264

CYQB;2008-09-11 01:00;CYQB 110100Z 00000KT 15SM FEW230 09/06 A3032 RMK CI1 SLP268

CYQB;2008-09-11 02:00;CYQB 110200Z 01003KT 15SM SCT230 09/06 A3033 RMK CI2 SLP273

CYQB;2008-09-11 03:00;CYQB 110300Z 34002KT 15SM SCT230 08/06 A3035 RMK CI1 SLP278

CYQB;2008-09-11 04:00;CYQB 110400Z 36004KT 15SM SCT210 08/05 A3034 RMK CI2 SLP277

CYQB;2008-09-11 05:00;CYQB 110500Z 01002KT 15SM FEW100 BKN210 08/05 A3035 RMK AC1CI3 SLP279

CYQB;2008-09-11 06:00;CYQB 110600Z 36003KT 15SM FEW100 BKN210 07/04 A3035 RMK AC1CI3 SLP279

CYQB;2008-09-11 07:00;CYQB 110700Z 00000KT 15SM FEW100 FEW200 05/04 A3036 RMK AC1CI0 SLP284

CYQB;2008-09-11 08:00;CYQB 110800Z 36002KT 15SM FEW210 05/04 A3036 RMK CI1 SLP283

CYQB;2008-09-11 09:00;CYQB 110900Z 35002KT 15SM FEW210 05/04 A3038 RMK CI1 SLP290

CYQB;2008-09-11 10:00;CYQB 111000Z 00000KT 15SM FEW210 03/03 A3040 RMK CI1 SLP296

CYQB;2008-09-11 11:00;CYQB 111100Z 35002KT 25SM VCFG BKN003 BKN090 BKN200 04/03 A3041 RMK ST5AC1CI1 VIS SE-S 5 SLP299

CYQB;2008-09-11 11:44;CYQB 111144Z 01002KT 3/4SM R06/1800V2200FT/N BR BCFG OVC001 07/ RMK FG1ST7

CYQB;2008-09-11 12:00;CYQB 111200Z 00000KT 1/8SM R06/1200FT/N FG SKC 07/07 A3040 RMK FG7 SLP297

CYQB;2008-09-11 13:00;CYQB 111300Z 28002KT 2SM BR BCFG OVC002 08/08 A3040 RMK FG3SF2 SLP298

CYQB;2008-09-11 13:24;CYQB 111324Z 23002KT 4SM BR BCFG BKN006 09/ RMK ST5 VIS HIER N-E

CYQB;2008-09-11 13:31;CYQB 111331Z 24002KT 25SM FEW004 FEW095 FEW200 09/ RMK SF1AC1CI1 VIS E-SE 5

CYQB;2008-09-11 14:00;CYQB 111400Z 21002KT 25SM FEW025 FEW095 FEW210 12/10 A3040 RMK CU1AC1CI1 SLP296

CYQB;2008-09-11 15:00;CYQB 111500Z 20005KT 30SM FEW030 FEW100 FEW210 15/10 A3039 RMK SC1AC1CI1 SLP291

CYQB;2008-09-11 16:00;CYQB 111600Z CCA 23008KT 30SM FEW040 BKN240 16/09 A3036 RMK SC2CI1 CU ASOCTD SLP284

CYQB;2008-09-11 17:00;CYQB 111700Z 20008KT 30SM SCT060 BKN240 18/09 A3035 RMK SC3CI1 SLP278

CYQB;2008-09-11 18:00;CYQB 111800Z 24008KT 30SM SCT055 BKN230 18/06 A3033 RMK SC3CI1 SLP274

CYQB;2008-09-11 19:00;CYQB 111900Z 26010KT 30SM FEW060 FEW250 18/06 A3031 RMK SC1CI1 SLP267

CYQB;2008-09-11 20:00;CYQB 112000Z 23008KT 30SM FEW060 SCT250 18/05 A3029 RMK SC2CI0 SLP260

CYQB;2008-09-11 21:00;CYQB 112100Z 24007KT 30SM FEW060 SCT250 18/06 A3028 RMK SC1CI1 SLP256

CYQB;2008-09-11 22:00;CYQB 112200Z 23009KT 30SM FEW250 17/06 A3027 RMK CI0 SLP251

CYQB;2008-09-11 23:00;CYQB 112300Z 29002KT 30SM FEW090 15/08 A3026 RMK AC1 SLP249

CYQB;2008-09-12 00:00;CYQB 120000Z 35002KT 20SM FEW120 12/09 A3026 RMK AC1 SLP249

CYQB;2008-09-12 01:00;CYQB 120100Z 00000KT 20SM FEW120 11/08 A3025 RMK AC1 SLP247

CYQB;2008-09-12 02:00;CYQB 120200Z 04002KT 15SM FEW120 10/07 A3024 RMK AC1 SLP243

CYQB;2008-09-12 03:00;CYQB 120300Z 02003KT 15SM FEW200 10/08 A3023 RMK CI0 SLP238

CYQB;2008-09-12 04:00;CYQB 120400Z 00000KT 15SM FEW200 09/07 A3021 RMK CI0 SLP233

CYQB;2008-09-12 05:00;CYQB 120500Z 02003KT 15SM BKN190 09/07 A3020 RMK AC2 SLP230

CYQB;2008-09-12 06:00;CYQB 120600Z 36003KT 15SM BKN160 09/07 A3019 RMK AC5 SLP226

CYQB;2008-09-12 07:00;CYQB 120700Z 02006KT 15SM BKN065 OVC150 09/07 A3018 RMK SC5AC3 SLP222

CYQB;2008-09-12 08:00;CYQB 120800Z 04004KT 15SM BKN060 OVC160 09/07 A3016 RMK SC5AC3 SLP214

CYQB;2008-09-12 09:00;CYQB 120900Z 36003KT 15SM FEW060 OVC160 10/08 A3014 RMK SC2AC6 SLP209

CYQB;2008-09-12 10:00;CYQB 121000Z 03003KT 15SM BKN059 OVC150 10/08 A3013 RMK SC6AC2 SLP203

CYQB;2008-09-12 11:00;CYQB 121100Z 02002KT 15SM SCT060 OVC150 10/08 A3009 RMK SC3AC5 SLP192

CYQB;2008-09-12 12:00;CYQB 121200Z 01003KT 15SM BKN052 OVC150 11/09 A3009 RMK SC6AC2 SLP190

CYQB;2008-09-12 13:00;CYQB 121300Z 06004KT 15SM BKN053 OVC180 12/09 A3006 RMK SC5AC3 SLP181

CYQB;2008-09-12 14:00;CYQB 121400Z 07004KT 25SM FEW045 OVC120 13/09 A3004 RMK SC2AS6 SLP175

CYQB;2008-09-12 15:00;CYQB 121500Z 07003KT 25SM OVC035 13/09 A3002 RMK SC8 SLP167

CYQB;2008-09-12 15:04;CYQB 121504Z 05003KT 25SM -RA OVC035 14/ RMK SC8

CYQB;2008-09-12 16:00;CYQB 121600Z 07003KT 25SM -RA BKN032 OVC093 14/10 A2999 RMK SC6AS2 -RA INTMT SLP157

CYQB;2008-09-12 17:00;CYQB 121700Z 07002KT 25SM OVC033 15/10 A2996 RMK SC8 INTMT -RA SLP148

CYQB;2008-09-12 17:30;CYQB 121730Z 08002KT 10SM -RA OVC024 15/ RMK SC8

CYQB;2008-09-12 18:00;CYQB 121800Z 05002KT 10SM -RA OVC020 14/11 A2994 RMK SC8 -RA INTMT SLP141

CYQB;2008-09-12 18:14;CYQB 121814Z 02002KT 2SM -RADZ BR SCT013 OVC019 14/ RMK SF4SC4

CYQB;2008-09-12 18:41;CYQB 121841Z 02002KT 1 3/4SM -RADZ BR BKN010 OVC020 13/ RMK ST7SC1

CYQB;2008-09-12 19:00;CYQB 121900Z 35003KT 1 3/4SM -RADZ BR BKN006 OVC015 13/12 A2992 RMK SF6SC2 CIG VRB 3-9 SLP132

CYQB;2008-09-12 20:00;CYQB 122000Z 03003KT 1 1/2SM -RADZ BR BKN004 OVC012 13/12 A2991 RMK SF7SC1 CIG VRB 1-7 SLP130

CYQB;2008-09-12 21:00;CYQB 122100Z 36002KT 1 3/4SM -RADZ BR BKN003 OVC009 13/13 A2989 RMK SF5SC3 SLP124

CYQB;2008-09-12 21:51;CYQB 122151Z 36002KT 3SM -DZ BR FEW003 BKN008 OVC035 13/ RMK SF1ST6SC1 VIS NW-NE 6

CYQB;2008-09-12 22:00;CYQB 122200Z 36002KT 3SM -DZ BR FEW003 BKN008 OVC035 13/13 A2989 RMK SF1ST6SC1 VIS NW-NE 6 SLP123

CYQB;2008-09-12 23:00;CYQB 122300Z 00000KT 3SM -DZ BR FEW003 OVC010 14/12 A2989 RMK SF1ST7 SLP122

CYQB;2008-09-13 00:00;CYQB 130000Z 04003KT 3SM -DZ BR OVC009 14/13 A2989 RMK SF8 SLP125

CYQB;2008-09-13 01:00;CYQB 130100Z 04002KT 3SM -DZ BR BKN010 OVC030 14/13 A2990 RMK SF7SC1 SLP128

CYQB;2008-09-13 01:34;CYQB 130134Z 00000KT 5SM BR FEW010 OVC032 14/ RMK SF1SC7

CYQB;2008-09-13 02:00;CYQB 130200Z 00000KT 6SM BR FEW010 OVC032 14/13 A2990 RMK SF2SC6 SLP127

CYQB;2008-09-13 03:00;CYQB 130300Z 22002KT 6SM BR FEW010 BKN038 13/13 A2990 RMK SF1SC6 SLP125

CYQB;2008-09-13 04:00;CYQB 130400Z 00000KT 12SM R06/3000VP6000FT/D BCFG BKN037 13/13 A2989 RMK SC6 SLP124

CYQB;2008-09-13 05:00;CYQB 130500Z 34003KT 12SM BKN032 OVC090 13/13 A2991 RMK SC7AC1 SLP129

CYQB;2008-09-13 06:00;CYQB 130600Z 32004KT 15SM BKN033 13/12 A2991 RMK SC6 SLP129

CYQB;2008-09-13 07:00;CYQB 130700Z 00000KT 15SM SCT032 12/11 A2992 RMK SC4 SLP131

CYQB;2008-09-13 08:00;CYQB 130800Z 00000KT 15SM SKC 11/10 A2992 RMK SLP133

CYQB;2008-09-13 09:00;CYQB 130900Z 02004KT 12SM FEW078 11/10 A2993 RMK AC2 SLP138

CYQB;2008-09-13 10:00;CYQB 131000Z 03003KT 20SM BKN075 12/11 A2994 RMK AC4 SLP141

CYQB;2008-09-13 11:00;CYQB 131100Z 05002KT 10SM FEW008 BKN072 11/10 A2995 RMK SF1AC6 SLP145

CYQB;2008-09-13 11:40;CYQB 131140Z 02003KT 10SM OVC006 12/ RMK ST8

CYQB;2008-09-13 12:00;CYQB 131200Z 02003KT 10SM OVC007 12/11 A2996 RMK ST8 SLP148

CYQB;2008-09-13 13:00;CYQB 131300Z 07004KT 10SM BKN006 OVC060 13/12 A2997 RMK SF6SC2 SLP149

CYQB;2008-09-13 13:47;CYQB 131347Z 07004KT 8SM SCT006 BKN013 OVC063 15/ RMK SF3SC2AC2

CYQB;2008-09-13 14:00;CYQB 131400Z CCA 07006KT 8SM SCT006 BKN013 OVC063 15/13 A2997 RMK SF2SC2AC2 SLP151

CYQB;2008-09-13 15:00;CYQB 131500Z 05003KT 10SM FEW006 BKN013 OVC063 16/14 A2997 RMK SF1SC4SC2 SLP151

CYQB;2008-09-13 16:00;CYQB 131600Z 09003KT 10SM FEW013 BKN020 OVC063 17/14 A2996 RMK SC1SC4SC3 SLP147

CYQB;2008-09-13 17:00;CYQB 131700Z 00000KT 10SM FEW011 BKN020 OVC062 18/14 A2995 RMK SF2SC4SC2 SLP143

CYQB;2008-09-13 18:00;CYQB 131800Z 03002KT 10SM SCT023 OVC062 18/13 A2995 RMK SC3SC5 SLP142

CYQB;2008-09-13 19:00;CYQB 131900Z 00000KT 12SM FEW025 OVC063 19/13 A2994 RMK SC2SC5 SLP139

CYQB;2008-09-13 20:00;CYQB 132000Z 25003KT 15SM FEW028 OVC062 19/13 A2994 RMK SC1SC6 SLP138

CYQB;2008-09-13 21:00;CYQB 132100Z 00000KT 15SM FEW028 OVC062 19/13 A2993 RMK SC1SC7 CU ASOCTD SLP135

CYQB;2008-09-13 22:00;CYQB 132200Z 00000KT 15SM FEW025 OVC064 18/14 A2993 RMK CF1SC6 SLP135

CYQB;2008-09-13 23:00;CYQB 132300Z 00000KT 15SM FEW025 BKN062 BKN120 18/15 A2992 RMK SC1SC5AC2 SLP134

CYQB;2008-09-14 00:00;CYQB 140000Z 31003KT 15SM BKN062 16/14 A2993 RMK SC7 SLP135

CYQB;2008-09-14 01:00;CYQB 140100Z 34002KT 15SM BKN062 15/14 A2992 RMK SC7 SLP133

CYQB;2008-09-14 02:00;CYQB 140200Z 35003KT 10SM FEW048 BKN060 14/13 A2991 RMK SC1SC4 SLP129

CYQB;2008-09-14 03:00;CYQB 140300Z 01002KT 8SM BKN045 BKN060 14/14 A2991 RMK SC5SC1 SLP128

CYQB;2008-09-14 04:00;CYQB 140400Z 01005KT 10SM FEW045 14/13 A2990 RMK SC2 SLP127

CYQB;2008-09-14 05:00;CYQB 140500Z 03004KT 10SM FEW045 13/12 A2989 RMK SC1 SLP121

CYQB;2008-09-14 06:00;CYQB 140600Z 03003KT 15SM FEW045 BKN240 13/11 A2986 RMK SC2CI4 SLP112

CYQB;2008-09-14 07:00;CYQB 140700Z 02004KT 12SM SCT045 BKN170 BKN210 12/11 A2984 RMK SC3AC3CI1 SLP107

CYQB;2008-09-14 08:00;CYQB 140800Z 02005KT 15SM FEW045 BKN180 BKN210 12/11 A2982 RMK SC2AC3CI2 SLP098

CYQB;2008-09-14 09:00;CYQB 140900Z 02005KT 10SM FEW035 BKN180 BKN220 12/11 A2979 RMK SC2AC3CI2 SLP090

CYQB;2008-09-14 10:00;CYQB 141000Z 04006KT 10SM FEW005 SCT035 BKN055 OVC220 12/11 A2976 RMK SF1SC3SC3CI1 SLP080

CYQB;2008-09-14 10:43;CYQB 141043Z 06006KT 10SM BKN005 OVC024 14/ RMK SF6SC2

CYQB;2008-09-14 11:00;CYQB 141100Z 06007KT 10SM BKN005 OVC024 14/13 A2975 RMK SF5SC3 SLP075

CYQB;2008-09-14 12:00;CYQB 141200Z 06007KT 10SM -SHRA FEW005 OVC028 15/13 A2973 RMK SF2SC6 SLP069

CYQB;2008-09-14 12:28;CYQB 141228Z 07009KT 10SM SCT024 OVC035 15/ RMK SC3SC5

CYQB;2008-09-14 13:00;CYQB 141300Z 07008KT 3SM -SHRA BR OVC030 15/14 A2971 RMK SC8 SLP062

CYQB;2008-09-14 14:00;CYQB 141400Z 07010KT 2SM -SHRA BR FEW007 OVC030 15/14 A2968 RMK SF1SC7 SLP051

CYQB;2008-09-14 15:00;CYQB 141500Z 07010KT 2SM -DZ BR BKN004 OVC028 15/15 A2967 RMK SF6SC2 SLP046

CYQB;2008-09-14 15:37;CYQB 141537Z 07011KT 1SM R06/P6000FT/D -DZ BR BKN003 OVC011 16/ RMK FG2SF6SC1

CYQB;2008-09-14 16:00;CYQB 141600Z 08007KT 1SM R06/P6000FT/U -DZ BR OVC002 16/15 A2963 RMK FG2ST6 SLP033

CYQB;2008-09-14 17:00;CYQB 141700Z 07010KT 3/4SM R06/5500FT/D -DZ BR OVC002 16/16 A2959 RMK FG2ST6 SLP022

CYQB;2008-09-14 18:00;CYQB 141800Z 07005KT 5/8SM R06/4500FT/N -DZRA BR BKN002 OVC007 17/16 A2956 RMK FG2ST5ST1 SLP011

CYQB;2008-09-14 19:00;CYQB 141900Z 06003KT 1SM R06/P6000FT/N -DZ BR OVC002 17/17 A2955 RMK FG2ST6 SLP006

CYQB;2008-09-14 19:44;CYQB 141944Z 05005KT 1SM R06/4500VP6000FT/N -RA BR BKN002 OVC004 17/ RMK SF7SF1

CYQB;2008-09-14 20:00;CYQB 142000Z 06004KT 1SM R06/P6000FT/N -RA BR BKN002 OVC005 18/17 A2953 RMK SF7SF1 SLP000

CYQB;2008-09-14 21:00;CYQB 142100Z 05003KT 1SM R06/P6000FT/N -RA BR BKN002 OVC005 18/17 A2951 RMK SF7SF1 SLP995

CYQB;2008-09-14 22:00;CYQB 142200Z 02004KT 1SM R06/P6000FT/U -DZ BR BKN002 OVC005 18/18 A2949 RMK SF6SF2 SLP988

CYQB;2008-09-14 22:35;CYQB 142235Z 04002KT 1 1/2SM -RA BR BKN004 OVC020 18/ RMK SF6SC2

CYQB;2008-09-14 23:00;CYQB 142300Z 00000KT 1 1/2SM -RA BR BKN005 OVC020 18/18 A2947 RMK SF5SC3 SLP979

CYQB;2008-09-15 00:00;CYQB 150000Z 12003KT 1SM R06/4000VP6000FT/U RA BR BKN005 OVC020 18/18 A2946 RMK SF5SC3 SLP977

CYQB;2008-09-15 01:00;CYQB 150100Z CCA 00000KT 1 1/2SM -RA BR BKN004 OVC012 19/19 A2944 RERA RMK FG2SF3SC3 SLP970

CYQB;2008-09-15 01:49;CYQB 150149Z 00000KT 8SM OVC006 19/ RMK ST8

CYQB;2008-09-15 02:00;CYQB 150200Z 00000KT 8SM FEW002 OVC006 19/19 A2943 RMK SF2ST6 FG OVR RWY SLP966

CYQB;2008-09-15 02:40;CYQB 150240Z 00000KT 4SM BR BKN003 OVC008 19/ RMK ST6SC2

CYQB;2008-09-15 03:00;CYQB 150300Z 00000KT 4SM BR OVC003 19/19 A2942 RMK ST8 SLP961

CYQB;2008-09-15 03:54;CYQB 150354Z 06005KT 1SM R06/P6000FT/D BR OVC002 19/ RMK ST8

CYQB;2008-09-15 04:00;CYQB 150400Z 05006KT 3/4SM R06/4000VP6000FT/D -SHRA BR OVC002 19/18 A2936 RMK SF8 SLP944

CYQB;2008-09-15 04:21;CYQB 150421Z 11005KT 1/2SM R06/3000FT/N FG OVC001 19/ RMK FG5SF3 RERA

CYQB;2008-09-15 05:00;CYQB 150500Z 06004KT 1/4SM R06/2200FT/U FG OVC002 19/19 A2933 RERA RMK FG5SF3 SLP931

CYQB;2008-09-15 06:00;CYQB 150600Z 08005KT 1/4SM R06/1800FT/N FG VV001 19/19 A2925 RMK FG8 PRESFR SLP907

CYQB;2008-09-15 07:00;CYQB 150700Z 07009KT 1/2SM R06/P6000FT/N FG VV001 19/19 A2919 RMK FG8 SLP885

CYQB;2008-09-15 07:40;CYQB 150740Z 08005KT 2SM BR BKN001 OVC060 20/ RMK SF6SC2

CYQB;2008-09-15 08:00;CYQB 150800Z 07005KT 3SM BR BKN002 OVC060 20/20 A2913 RMK SF5SC3 PRESFR SLP866

CYQB;2008-09-15 08:27;CYQB 150827Z 25002KT 1 1/2SM RA BR BKN002 OVC055 21/ RMK SF5SC3

CYQB;2008-09-15 09:00;CYQB 150900Z 23008KT 6SM -RA BR FEW002 SCT025 OVC040 21/21 A2912 RERA RMK SF1SC2SC5 SLP862

CYQB;2008-09-15 10:00;CYQB 151000Z 22013G20KT 6SM -RA BR FEW015 OVC025 22/20 A2911 RMK SF2SC6 RERA SLP858

CYQB;2008-09-15 10:24;CYQB 151024Z 23014KT 6SM -RA BR BKN010 OVC025 22/ RMK SF7SC1

CYQB;2008-09-15 11:00;CYQB 151100Z 23010KT 6SM -RA FEW010 BKN025 OVC040 21/20 A2913 RMK SF2SC6SC1 SLP864

CYQB;2008-09-15 11:33;CYQB 151133Z 26011G17KT 6SM BR BKN012 BKN035 19/ RMK SF5SC2

CYQB;2008-09-15 12:00;CYQB 151200Z 32016KT 15SM FEW010 BKN032 BKN120 18/16 A2918 RMK SF1SC6AC1 SLP880

CYQB;2008-09-15 13:00;CYQB 151300Z 30012G19KT 15SM FEW020 BKN055 17/13 A2929 RMK SC1SC6 PRESRR SLP918

CYQB;2008-09-15 13:08;CYQB 151308Z 29011G16KT 30SM -SHRA FEW020 BKN063 17/ RMK SC1SC5

CYQB;2008-09-15 13:26;CYQB 151326Z 29016KT 30SM FEW020 SCT060 BKN081 18/ RMK SC1SC3AC2

CYQB;2008-09-15 14:00;CYQB 151400Z 29013G19KT 30SM BKN035 BKN081 18/14 A2939 RMK SC6AC1 SLP953

CYQB;2008-09-15 15:00;CYQB 151500Z 31014G22KT 30SM BKN035 BKN097 18/13 A2947 RMK SC6AC1 SLP978

CYQB;2008-09-15 16:00;CYQB 151600Z 30012KT 30SM BKN038 OVC085 17/12 A2954 RMK SC6AC2 SLP004

CYQB;2008-09-15 16:36;CYQB 151636Z 30011G16KT 30SM -SHRA SCT038 BKN077 17/ RMK SC3AC4

CYQB;2008-09-15 17:00;CYQB 151700Z 29013G18KT 30SM SCT037 BKN080 17/12 A2960 RMK SC3AC4 SLP023

CYQB;2008-09-15 18:00;CYQB 151800Z 30017G24KT 30SM BKN035 BKN097 17/11 A2965 RMK SC6AC1 SLP041

CYQB;2008-09-15 19:00;CYQB 151900Z 30017KT 30SM BKN038 BKN100 17/11 A2969 RMK SC6AC1 SLP055

CYQB;2008-09-15 20:00;CYQB 152000Z 31014KT 30SM FEW035 SCT090 18/12 A2972 RMK SC2AC1 SLP066

CYQB;2008-09-15 21:00;CYQB 152100Z 29014KT 30SM SCT035 SCT090 17/11 A2977 RMK SC3AC1 SLP082

CYQB;2008-09-15 22:00;CYQB 152200Z 29010KT 30SM FEW038 15/11 A2981 RMK SC2 SLP094

CYQB;2008-09-15 23:00;CYQB 152300Z 28007KT 30SM FEW036 13/10 A2985 RMK SC1 SLP109

CYQB;2008-09-16 00:00;CYQB 160000Z 27008KT 15SM FEW042 13/10 A2990 RMK SC2 SLP126

CYQB;2008-09-16 01:00;CYQB 160100Z 32006KT 15SM BKN045 13/09 A2994 RMK SC6 SLP141

CYQB;2008-09-16 02:00;CYQB 160200Z 27003KT 15SM FEW045 11/08 A2998 RMK SC2 SLP152

CYQB;2008-09-16 03:00;CYQB 160300Z 28005KT 15SM FEW045 09/08 A3000 RMK SC1 SLP160

CYQB;2008-09-16 04:00;CYQB 160400Z 27007KT 15SM SKC 09/07 A3002 RMK SLP168

CYQB;2008-09-16 05:00;CYQB 160500Z 30005KT 15SM SKC 08/07 A3004 RMK SLP173

CYQB;2008-09-16 06:00;CYQB 160600Z 29003KT 15SM SKC 08/06 A3005 RMK SLP176

CYQB;2008-09-16 07:00;CYQB 160700Z 33003KT 15SM SKC 07/06 A3006 RMK SLP180

CYQB;2008-09-16 08:00;CYQB 160800Z 34005KT 15SM SKC 08/05 A3007 RMK SLP185

CYQB;2008-09-16 09:00;CYQB 160900Z 36002KT 15SM FEW080 07/05 A3010 RMK AC1 SLP193

CYQB;2008-09-16 10:00;CYQB 161000Z 02004KT 15SM FEW040 07/04 A3011 RMK SC1 SLP198

CYQB;2008-09-16 11:00;CYQB 161100Z 03005KT 15SM FEW040 FEW080 07/04 A3014 RMK SC1AC1 SLP208

CYQB;2008-09-16 12:00;CYQB 161200Z 10003KT 15SM FEW040 FEW080 08/06 A3015 RMK SC1AC1 SLP211

CYQB;2008-09-16 13:00;CYQB 161300Z 06002KT 15SM FEW040 FEW080 10/08 A3017 RMK CU1AC1 SLP217

CYQB;2008-09-16 14:00;CYQB 161400Z 15002KT 15SM FEW040 12/08 A3017 RMK CU2 SLP219

CYQB;2008-09-16 15:00;CYQB 161500Z 09003KT 15SM FEW040 FEW210 13/09 A3017 RMK CU1CI1 SLP219

CYQB;2008-09-16 16:00;CYQB 161600Z 22004KT 15SM SCT040 BKN210 14/09 A3016 RMK SC3CI1 SLP216

CYQB;2008-09-16 17:00;CYQB 161700Z 26004KT 15SM SCT040 BKN210 15/08 A3014 RMK SC4CI0 SLP210

CYQB;2008-09-16 18:00;CYQB 161800Z 25006KT 15SM SCT040 SCT210 16/09 A3013 RMK SC3CI0 SLP203

CYQB;2008-09-16 19:00;CYQB 161900Z 24006KT 15SM SCT035 17/08 A3011 RMK CU3 SLP198

CYQB;2008-09-16 20:00;CYQB 162000Z 25008KT 15SM FEW040 17/08 A3010 RMK CU2 SLP193

CYQB;2008-09-16 21:00;CYQB 162100Z 26008KT 15SM FEW050 FEW210 16/07 A3010 RMK SC2CI1 SLP194

CYQB;2008-09-16 22:00;CYQB 162200Z 23006KT 15SM SCT050 SCT090 BKN240 14/07 A3010 RMK SC3AC1CI0 SLP194

CYQB;2008-09-16 23:00;CYQB 162300Z 23004KT 15SM FEW050 13/08 A3011 RMK SC2 SLP196

CYQB;2008-09-17 00:00;CYQB 170000Z 26003KT 15SM BKN047 13/09 A3011 RMK SC6 SLP199

CYQB;2008-09-17 01:00;CYQB 170100Z 27002KT 15SM BKN049 12/08 A3011 RMK SC5 SLP200

CYQB;2008-09-17 02:00;CYQB 170200Z 29002KT 15SM BKN050 10/08 A3012 RMK SC5 SLP201

CYQB;2008-09-17 03:00;CYQB 170300Z 25003KT 15SM SCT053 09/08 A3012 RMK SC3 SLP201

CYQB;2008-09-17 04:00;CYQB 170400Z 25005KT 15SM FEW050 09/07 A3010 RMK SC1 SLP195

CYQB;2008-09-17 05:00;CYQB 170500Z 23006KT 15SM SKC 08/07 A3011 RMK SLP198

CYQB;2008-09-17 06:00;CYQB 170600Z 24007KT 15SM SKC 08/07 A3011 RMK SLP197

CYQB;2008-09-17 07:00;CYQB 170700Z 25007KT 15SM SKC 08/07 A3010 RMK SLP195

CYQB;2008-09-17 08:00;CYQB 170800Z 24005KT 15SM SKC 07/07 A3010 RMK SLP193

CYQB;2008-09-17 10:00;CYQB 171000Z 05004KT 15SM FEW005 FEW040 07/06 A3008 RMK SF1SC1 SLP186

CYQB;2008-09-17 11:00;CYQB 171100Z 00000KT 15SM FEW005 BKN011 BKN080 06/05 A3008 RMK SF1SC4AC2 SLP186

CYQB;2008-09-17 12:00;CYQB 171200Z 25008KT 20SM FEW005 BKN012 OVC230 09/09 A3007 RMK SF1SC6CI1 SLP183

CYQB;2008-09-17 13:00;CYQB 171300Z 25006KT 15SM FEW007 BKN010 BKN060 10/10 A3006 RMK SF2SC3SC2 SLP182

CYQB;2008-09-17 13:14;CYQB 171314Z 26005KT 20SM FEW007 SCT010 OVC055 10/ RMK SF2SC2SC5

CYQB;2008-09-17 14:00;CYQB 171400Z 29004KT 20SM FEW007 FEW012 OVC046 11/09 A3007 RMK SF1SC2SC6 SLP184

CYQB;2008-09-17 15:00;CYQB 171500Z CCA 24004KT 20SM FEW010 BKN019 OVC045 11/10 A3005 RMK SF1SC6SC2 SLP177

CYQB;2008-09-17 16:00;CYQB 171600Z 00000KT 15SM FEW010 BKN020 OVC046 12/10 A3003 RMK SF1SC6SC2 VIS N LWR SLP170

CYQB;2008-09-17 17:00;CYQB 171700Z 36003KT 15SM FEW010 BKN030 OVC057 13/11 A3001 RMK SF1SC6SC2 SLP164

CYQB;2008-09-17 18:00;CYQB 171800Z 24005KT 20SM FEW030 BKN062 BKN120 17/13 A2998 RMK SC2SC3AC1 SLP153

CYQB;2008-09-17 19:00;CYQB 171900Z 25008KT 20SM OVC042 17/12 A2996 RMK SC8 SLP146

CYQB;2008-09-17 19:42;CYQB 171942Z 32004KT 15SM -SHRA OVC038 16/ RMK SC8

CYQB;2008-09-17 19:49;CYQB 171949Z 32003KT 5SM -SHRA BR FEW010 OVC042 16/ RMK SF2SC6 VIS NE-E 2 S 15

CYQB;2008-09-17 20:00;CYQB 172000Z 36003KT 4SM -SHRA BR FEW010 OVC034 16/13 A2996 RMK SF2SC6 VIS NE-E 2 SLP146

CYQB;2008-09-17 21:00;CYQB 172100Z 28008KT 3SM -SHRA BR FEW010 OVC028 15/14 A2997 RMK SF2SC6 VIS E 11/2 SLP149

CYQB;2008-09-17 22:00;CYQB 172200Z 24006KT 15SM -SHRA FEW009 FEW025 BKN064 BKN210 14/13 A2997 RMK SF1SC2SC3CI2 SLP151

CYQB;2008-09-17 22:44;CYQB 172244Z 24005KT 15SM FEW009 BKN063 14/ RMK SF1SC7

CYQB;2008-09-17 23:00;CYQB 172300Z 25009KT 15SM FEW009 FEW015 BKN064 14/13 A2998 RMK SF1SC2SC6 SLP155

CYQB;2008-09-18 00:00;CYQB 180000Z 32007KT 15SM FEW009 FEW015 OVC079 14/11 A3001 RMK SF1SC2AC6 SLP163

CYQB;2008-09-18 01:00;CYQB 180100Z 35006KT 15SM FEW040 OVC066 13/09 A3003 RMK SC2AC6 SLP172

CYQB;2008-09-18 01:35;CYQB 180135Z 34006KT 15SM -SHRA FEW040 OVC067 12/ RMK SC2AC6

CYQB;2008-09-18 02:00;CYQB 180200Z 01006KT 15SM -SHRA FEW040 OVC068 12/09 A3006 RMK SC2AC6 SLP182

CYQB;2008-09-18 03:00;CYQB 180300Z 35003KT 15SM OVC064 11/08 A3009 RMK SC8 SLP192

CYQB;2008-09-18 04:00;CYQB 180400Z 32005KT 15SM BKN083 10/08 A3011 RMK AC7 SLP198

CYQB;2008-09-18 05:00;CYQB 180500Z 32005KT 15SM FEW080 08/07 A3011 RMK AC1 SLP199

CYQB;2008-09-18 06:00;CYQB 180600Z 34007KT 15SM SKC 07/05 A3014 RMK SLP208

CYQB;2008-09-18 07:00;CYQB 180700Z 35006KT 15SM SKC 06/04 A3015 RMK SLP212

CYQB;2008-09-18 08:00;CYQB 180800Z 36005KT 15SM SKC 05/03 A3018 RMK SLP220

CYQB;2008-09-18 09:00;CYQB 180900Z 01005KT 15SM SKC 05/03 A3020 RMK SLP228

CYQB;2008-09-18 10:00;CYQB 181000Z 36004KT 15SM FEW080 04/02 A3021 RMK AC2 SLP232

CYQB;2008-09-18 11:00;CYQB 181100Z 25002KT 15SM BKN070 04/02 A3024 RMK AC5 SLP241

CYQB;2008-09-18 12:00;CYQB 181200Z 34003KT 15SM SCT070 06/03 A3026 RMK AC4 SLP250

CYQB;2008-09-18 13:00;CYQB 181300Z 35008KT 15SM FEW070 08/01 A3029 RMK AC2 SLP258

CYQB;2008-09-18 14:00;CYQB 181400Z 34007KT 15SM FEW070 10/M01 A3030 RMK AC2 SLP264

CYQB;2008-09-18 15:00;CYQB 181500Z 34011KT 15SM SCT054 10/M01 A3033 RMK SC4 SLP271

CYQB;2008-09-18 16:00;CYQB 181600Z 32009KT 20SM SCT054 11/00 A3033 RMK SC4 SLP273

CYQB;2008-09-18 17:00;CYQB 181700Z 30007G15KT 30SM SCT054 11/01 A3034 RMK SC4 SLP275

CYQB;2008-09-18 18:00;CYQB 181800Z 33011KT 30SM SCT054 11/01 A3033 RMK SC3 SLP272

CYQB;2008-09-18 19:00;CYQB 181900Z 29007G22KT 30SM SCT054 11/00 A3034 RMK SC3 SLP277

CYQB;2008-09-18 20:00;CYQB 182000Z 32004KT 30SM SCT055 11/01 A3035 RMK SC3 SLP279

CYQB;2008-09-18 21:00;CYQB 182100Z 32009KT 30SM FEW055 11/M00 A3037 RMK SC2 SLP286

CYQB;2008-09-18 22:00;CYQB 182200Z 31005KT 30SM FEW060 10/01 A3038 RMK SC2 SLP289

CYQB;2008-09-18 23:00;CYQB 182300Z 30005KT 20SM FEW060 07/01 A3039 RMK SC1 SLP292

CYQB;2008-09-19 00:00;CYQB 190000Z 31003KT 15SM FEW060 05/01 A3041 RMK SC1 SLP299

CYQB;2008-09-19 01:00;CYQB 190100Z 00000KT 15SM SKC 05/01 A3043 RMK SLP306

CYQB;2008-09-19 02:00;CYQB 190200Z 35005KT 15SM SKC 05/01 A3044 RMK SLP312

CYQB;2008-09-19 03:00;CYQB 190300Z 01003KT 15SM SKC 04/01 A3046 RMK SLP316

CYQB;2008-09-19 04:00;CYQB 190400Z 02004KT 15SM SKC 03/00 A3046 RMK SLP318

CYQB;2008-09-19 05:00;CYQB 190500Z 05005KT 15SM SKC 03/M00 A3047 RMK SLP321

CYQB;2008-09-19 06:00;CYQB 190600Z 36004KT 15SM SKC 03/M01 A3048 RMK SLP323

CYQB;2008-09-19 07:00;CYQB 190700Z 36004KT 15SM FEW025 02/M01 A3049 RMK SC1 SLP328

CYQB;2008-09-19 08:00;CYQB 190800Z 36003KT 15SM FEW025 FEW220 01/M01 A3050 RMK SC1CI1 SLP332

CYQB;2008-09-19 09:00;CYQB 190900Z 03005KT 15SM FEW220 01/M01 A3051 RMK CI1 SLP334

CYQB;2008-09-19 10:00;CYQB 191000Z 01005KT 15SM FEW015 FEW220 01/M01 A3052 RMK SC1CI1 SLP337

CYQB;2008-09-19 11:00;CYQB 191100Z 03003KT 15SM FEW015 FEW220 01/M01 A3052 RMK SC1CI1 SLP339

CYQB;2008-09-19 12:00;CYQB 191200Z 01002KT 20SM FEW015 FEW220 03/01 A3053 RMK SC1CI1 SLP341

CYQB;2008-09-19 13:00;CYQB 191300Z 00000KT 30SM FEW220 06/03 A3054 RMK CI1 SLP344

CYQB;2008-09-19 14:00;CYQB 191400Z 00000KT 30SM FEW220 07/03 A3053 RMK CI0 SLP341

CYQB;2008-09-19 15:00;CYQB 191500Z 00000KT 30SM FEW020 SCT220 10/02 A3052 RMK CF1CI0 SLP338

CYQB;2008-09-19 16:00;CYQB 191600Z 23007KT 30SM BKN220 12/03 A3049 RMK CI1 SLP327

CYQB;2008-09-19 17:00;CYQB 191700Z 25007KT 30SM FEW120 BKN220 13/03 A3046 RMK AC1CI1 SLP316

CYQB;2008-09-19 18:00;CYQB 191800Z 27004KT 30SM FEW120 BKN220 14/02 A3042 RMK AC1CI0 SLP303

CYQB;2008-09-19 19:00;CYQB 191900Z 19009KT 30SM FEW120 BKN220 15/03 A3038 RMK AC1CI1 SLP289

CYQB;2008-09-19 20:00;CYQB 192000Z 23010KT 30SM FEW240 16/02 A3036 RMK CI0 SLP283

CYQB;2008-09-19 21:00;CYQB 192100Z 23010KT 30SM FEW240 16/02 A3034 RMK CI0 SLP276

CYQB;2008-09-19 22:00;CYQB 192200Z 21007KT 30SM FEW240 15/04 A3032 RMK CI0 SLP271

CYQB;2008-09-19 23:00;CYQB 192300Z 22006KT 20SM FEW240 13/04 A3031 RMK CI0 SLP268

CYQB;2008-09-20 00:00;CYQB 200000Z 00000KT 20SM FEW240 10/05 A3032 RMK CI0 SLP271

CYQB;2008-09-20 01:00;CYQB 200100Z 00000KT 15SM SKC 08/05 A3033 RMK SLP272

CYQB;2008-09-20 02:00;CYQB 200200Z 00000KT 15SM SKC 07/05 A3032 RMK SLP269

CYQB;2008-09-20 03:00;CYQB 200300Z 35002KT 15SM SKC 07/05 A3030 RMK SLP265

CYQB;2008-09-20 04:00;CYQB 200400Z 00000KT 15SM SKC 07/05 A3030 RMK SLP263

CYQB;2008-09-20 05:00;CYQB 200500Z 00000KT 15SM SKC 06/04 A3029 RMK SLP259

CYQB;2008-09-20 06:00;CYQB 200600Z 00000KT 15SM SKC 06/05 A3028 RMK SLP254

CYQB;2008-09-20 07:00;CYQB 200700Z 29002KT 15SM SKC 07/02 A3027 RMK SLP251

CYQB;2008-09-20 08:00;CYQB 200800Z 00000KT 15SM SKC 05/04 A3027 RMK SLP251

CYQB;2008-09-20 09:00;CYQB 200900Z 00000KT 15SM SKC 05/04 A3026 RMK SLP249

CYQB;2008-09-20 10:00;CYQB 201000Z 03002KT 15SM FEW220 05/04 A3026 RMK CI0 SLP248

CYQB;2008-09-20 11:00;CYQB 201100Z 04004KT 15SM FEW100 BKN220 05/04 A3025 RMK AC1CI2 SLP247

CYQB;2008-09-20 12:00;CYQB 201200Z 00000KT 15SM FEW030 FEW100 BKN220 08/05 A3025 RMK CU1AC1CI2 SLP245

CYQB;2008-09-20 13:00;CYQB 201300Z 23002KT 20SM FEW030 BKN220 11/08 A3023 RMK CU1CI3 SLP239

CYQB;2008-09-20 14:00;CYQB 201400Z 24006KT 20SM FEW030 BKN220 13/08 A3021 RMK CU1CI3 SLP233

CYQB;2008-09-20 15:00;CYQB 201500Z 24008KT 15SM FEW030 BKN220 14/08 A3019 RMK CU1CI3 SLP224

CYQB;2008-09-20 16:00;CYQB 201600Z 24012KT 15SM FEW030 BKN220 17/10 A3016 RMK CU1CI4 SLP216

CYQB;2008-09-20 17:00;CYQB 201700Z 24012G18KT 15SM FEW030 BKN220 19/10 A3014 RMK CU1CI3 SLP208

CYQB;2008-09-20 18:00;CYQB 201800Z 23009KT 15SM FEW030 BKN220 20/12 A3011 RMK CU1CI3 SLP196

CYQB;2008-09-20 19:00;CYQB 201900Z 23014KT 15SM FEW030 BKN220 20/11 A3009 RMK CU2CI2 SLP190

CYQB;2008-09-20 20:00;CYQB 202000Z 26010KT 15SM FEW030 OVC220 21/12 A3007 RMK CU1CI6 SLP184

CYQB;2008-09-20 21:00;CYQB 202100Z 26010KT 15SM FEW030 BKN220 21/13 A3006 RMK CU1CI3 SLP182

CYQB;2008-09-20 22:00;CYQB 202200Z 25010KT 15SM FEW030 BKN076 BKN220 19/12 A3006 RMK CU1AC4CI2 SLP180

CYQB;2008-09-20 23:00;CYQB 202300Z 22004KT 15SM FEW030 OVC050 18/12 A3005 RMK CU1SC7 SLP178

CYQB;2008-09-21 00:00;CYQB 210000Z 23005KT 15SM OVC050 18/13 A3005 RMK SC8 SLP177

CYQB;2008-09-21 01:00;CYQB 210100Z 23004KT 15SM OVC046 17/13 A3005 RMK SC8 SLP178

CYQB;2008-09-21 01:50;CYQB 210150Z 27006KT 10SM -SHRA OVC043 16/ RMK SC8

CYQB;2008-09-21 02:00;CYQB 210200Z 28007KT 10SM -SHRA OVC041 16/13 A3007 RMK SC8 SLP184

CYQB;2008-09-21 03:00;CYQB 210300Z 27006KT 10SM -SHRA BKN028 OVC078 16/13 A3007 RMK SC6AC2 SLP184

CYQB;2008-09-21 04:00;CYQB 210400Z 24009KT 10SM -SHRA SCT037 BKN082 15/14 A3007 RMK SC3AC4 SLP185

CYQB;2008-09-21 04:31;CYQB 210431Z 28007KT 10SM SCT045 BKN075 15/ RMK SC3AC4

CYQB;2008-09-21 05:00;CYQB 210500Z 34006KT 10SM FEW045 BKN075 BKN100 15/13 A3009 RMK SC2AC2AC2 SLP190

CYQB;2008-09-21 05:26;CYQB 210526Z 26009KT 10SM -SN BKN005 OVC011 RMK SF5SF2 VIA YQB FIC

CYQB;2008-09-21 05:32;CYQB 210532Z CCA 34006KT 10SM FEW045 BKN075 BKN100 RMK SC2AC2AC2

CYQB;2008-09-21 06:00;CYQB 210600Z 35011KT 15SM BKN070 BKN095 12/10 A3011 RMK AC5AC2 SLP196

CYQB;2008-09-21 07:00;CYQB 210700Z 01010KT 15SM OVC015 11/09 A3013 RMK SC8 SLP204

CYQB;2008-09-21 08:00;CYQB 210800Z 02004KT 15SM OVC022 11/08 A3016 RMK SC8 SLP213

CYQB;2008-09-21 09:00;CYQB 210900Z 36006KT 15SM BKN030 10/07 A3019 RMK SC7 SLP223

CYQB;2008-09-21 10:00;CYQB 211000Z 35008KT 15SM BKN033 09/05 A3022 RMK SC7 SLP235

CYQB;2008-09-21 11:00;CYQB 211100Z 01009KT 15SM BKN040 08/04 A3025 RMK SC7 SLP244

CYQB;2008-09-21 12:00;CYQB 211200Z 35008KT 30SM SCT040 09/03 A3027 RMK SC2 SLP252

CYQB;2008-09-21 13:00;CYQB 211300Z 36008KT 30SM SCT038 10/04 A3029 RMK SC3 SLP260

CYQB;2008-09-21 14:00;CYQB 211400Z 05003KT 30SM FEW040 11/04 A3031 RMK SC2 SLP265

CYQB;2008-09-21 15:00;CYQB 211500Z 00000KT 30SM SCT041 14/03 A3031 RMK SC3 SLP266

CYQB;2008-09-21 16:00;CYQB 211600Z 25002KT 30SM SCT041 14/05 A3031 RMK SC3 SLP265

CYQB;2008-09-21 17:00;CYQB 211700Z 04005KT 30SM FEW040 15/04 A3031 RMK CU2 SLP265

CYQB;2008-09-21 18:00;CYQB 211800Z 19006KT 30SM FEW040 15/06 A3030 RMK CU1 SLP264

CYQB;2008-09-21 19:00;CYQB 211900Z 21008KT 30SM FEW040 15/05 A3030 RMK SC1 SLP262

CYQB;2008-09-21 20:00;CYQB 212000Z 27006KT 30SM FEW040 15/04 A3030 RMK SC1 SLP262

CYQB;2008-09-21 21:00;CYQB 212100Z 27011KT 30SM FEW040 15/03 A3030 RMK SC1 SLP264

CYQB;2008-09-21 22:00;CYQB 212200Z 28005KT 30SM FEW040 13/04 A3032 RMK SC1 SLP270

CYQB;2008-09-21 23:00;CYQB 212300Z 30003KT 15SM SKC 10/03 A3034 RMK SLP277

CYQB;2008-09-22 00:00;CYQB 220000Z 36008KT 15SM FEW060 10/02 A3037 RMK SC1 SLP288

CYQB;2008-09-22 01:00;CYQB 220100Z 36004KT 15SM FEW060 09/02 A3039 RMK SC1 SLP293

CYQB;2008-09-22 02:00;CYQB 220200Z 35005KT 15SM SKC 08/02 A3040 RMK SLP298

CYQB;2008-09-22 03:00;CYQB 220300Z 36003KT 15SM BKN034 07/02 A3043 RMK SC5 SLP306

CYQB;2008-09-22 04:00;CYQB 220400Z 01003KT 15SM BKN037 07/02 A3044 RMK SC6 SLP311

CYQB;2008-09-22 05:00;CYQB 220500Z 02006KT 15SM FEW035 06/01 A3046 RMK SC2 SLP316

CYQB;2008-09-22 06:00;CYQB 220600Z 01002KT 15SM FEW035 04/01 A3046 RMK SC1 SLP316

CYQB;2008-09-22 07:00;CYQB 220700Z 03005KT 15SM FEW035 04/01 A3047 RMK SC1 SLP321

CYQB;2008-09-22 08:00;CYQB 220800Z 01003KT 15SM FEW200 03/00 A3048 RMK CI1 SLP323

CYQB;2008-09-22 09:00;CYQB 220900Z 02003KT 15SM FEW180 03/M00 A3049 RMK AC2 SLP327

CYQB;2008-09-22 10:00;CYQB 221000Z 01004KT 15SM FEW180 02/M00 A3050 RMK AC2 SLP332

CYQB;2008-09-22 11:00;CYQB 221100Z 01004KT 30SM SCT180 03/M00 A3052 RMK AC2 SLP337

CYQB;2008-09-22 12:00;CYQB 221200Z 03003KT 30SM BKN160 04/00 A3053 RMK AC6 SLP340

CYQB;2008-09-22 13:00;CYQB 221300Z 01003KT 30SM SCT160 06/01 A3054 RMK AC4 SLP345

CYQB;2008-09-22 14:00;CYQB 221400Z 00000KT 30SM FEW025 BKN150 08/01 A3055 RMK CF1AC3 SLP346

CYQB;2008-09-22 15:00;CYQB 221500Z 36003KT 30SM FEW030 FEW150 10/02 A3055 RMK CF1AC1 SLP347

CYQB;2008-09-22 16:00;CYQB 221600Z 23005KT 30SM FEW036 FEW150 11/01 A3053 RMK CF1AC1 SLP342

CYQB;2008-09-22 17:00;CYQB 221700Z 11002KT 30SM FEW040 12/01 A3052 RMK SC1 SLP337

CYQB;2008-09-22 18:00;CYQB 221800Z 20005KT 30SM FEW043 12/02 A3050 RMK SC1 SLP331

CYQB;2008-09-22 19:00;CYQB 221900Z 22006KT 30SM FEW045 13/03 A3049 RMK SC1 SLP327

CYQB;2008-09-22 20:00;CYQB 222000Z 23009KT 30SM SKC 13/02 A3048 RMK SLP323

CYQB;2008-09-22 21:00;CYQB 222100Z 23010KT 30SM SKC 13/03 A3047 RMK SLP322

CYQB;2008-09-22 22:00;CYQB 222200Z 23007KT 30SM SKC 12/03 A3048 RMK SLP324

CYQB;2008-09-22 23:00;CYQB 222300Z 25007KT 30SM SKC 10/03 A3048 RMK SLP325

CYQB;2008-09-23 00:00;CYQB 230000Z 26009KT 15SM SKC 08/04 A3050 RMK SLP331

CYQB;2008-09-23 01:00;CYQB 230100Z 30004KT 15SM SKC 08/04 A3051 RMK SLP334

CYQB;2008-09-23 02:00;CYQB 230200Z 02004KT 15SM SKC 08/04 A3052 RMK SLP337

CYQB;2008-09-23 03:00;CYQB 230300Z 04006KT 15SM SKC 07/03 A3052 RMK SLP336

CYQB;2008-09-23 04:00;CYQB 230400Z 02006KT 15SM SKC 07/03 A3052 RMK SLP337

CYQB;2008-09-23 05:00;CYQB 230500Z 01005KT 15SM SKC 05/02 A3053 RMK SLP340

CYQB;2008-09-23 06:00;CYQB 230600Z 01004KT 15SM SKC 04/02 A3053 RMK SLP342

CYQB;2008-09-23 07:00;CYQB 230700Z 01003KT 15SM SKC 04/01 A3054 RMK SLP343

CYQB;2008-09-23 08:00;CYQB 230800Z 01004KT 15SM SKC 03/01 A3054 RMK SLP344

CYQB;2008-09-23 09:00;CYQB 230900Z 02005KT 15SM SKC 03/01 A3054 RMK SLP344

CYQB;2008-09-23 10:00;CYQB 231000Z 34002KT 15SM SKC 03/00 A3055 RMK SLP348

CYQB;2008-09-23 11:00;CYQB 231100Z 35002KT 30SM FEW001 FEW250 01/M00 A3055 RMK ST1CI1 TR ST CI SLP348

CYQB;2008-09-23 12:00;CYQB 231200Z CCA 31002KT 1/2SM R06/1400FT/N FG SKC 03/02 A3055 RMK FG1 ROOF VIS 15 SLP350

CYQB;2008-09-23 12:12;CYQB 231212Z 30003KT 1/4SM R06/1100FT/N FG SKC 03/ RMK FG6

CYQB;2008-09-23 12:37;CYQB 231237Z 29003KT 1/2SM R06/1400FT/N FG BKN001 04/ RMK FG4ST0

CYQB;2008-09-23 13:00;CYQB 231300Z 24004KT 15SM FEW002 06/06 A3056 RMK SF1 VIS 2 NW-NE SLP352

CYQB;2008-09-23 14:00;CYQB 231400Z 25003KT 30SM FEW010 FEW250 09/07 A3056 RMK SF1CI1 SLP353

CYQB;2008-09-23 15:00;CYQB 231500Z 20006KT 30SM FEW120 11/06 A3055 RMK AC1 SLP346

CYQB;2008-09-23 16:00;CYQB 231600Z 22010KT 30SM FEW025 SCT074 13/07 A3052 RMK CU1AC2 SLP337

CYQB;2008-09-23 17:00;CYQB 231700Z 22007G15KT 30SM FEW075 14/06 A3050 RMK AC1 SLP329

CYQB;2008-09-23 18:00;CYQB 231800Z 24016KT 30SM SCT066 16/05 A3047 RMK AC2 SLP320

CYQB;2008-09-23 19:00;CYQB 231900Z 25014KT 30SM BKN066 16/04 A3045 RMK AC3 SLP314

CYQB;2008-09-23 20:00;CYQB 232000Z 27013G18KT 30SM SCT060 16/06 A3044 RMK SC2 SLP309

CYQB;2008-09-23 21:00;CYQB 232100Z 27012G17KT 30SM FEW060 15/03 A3042 RMK SC1 SLP304

CYQB;2008-09-23 22:00;CYQB 232200Z 25007KT 30SM FEW060 FEW220 14/05 A3042 RMK SC1CI1 SLP304

CYQB;2008-09-23 23:00;CYQB 232300Z 23003KT 15SM FEW060 11/06 A3041 RMK SC1 SLP302

CYQB;2008-09-24 00:00;CYQB 240000Z 23007KT 15SM FEW060 11/06 A3041 RMK SC1 SLP301

CYQB;2008-09-24 01:00;CYQB 240100Z 22003KT 15SM SCT030 11/06 A3042 RMK SC2 SLP303

CYQB;2008-09-24 02:00;CYQB 240200Z 20004KT 15SM FEW030 FEW220 10/07 A3042 RMK SC1CI0 SLP305

CYQB;2008-09-24 03:00;CYQB 240300Z 28003KT 15SM FEW030 FEW090 FEW220 07/05 A3043 RMK SC1AC1CI0 SLP307

CYQB;2008-09-24 04:00;CYQB 240400Z 36002KT 15SM FEW030 FEW090 FEW220 07/05 A3043 RMK SC1AC1CI1 SLP308

CYQB;2008-09-24 05:00;CYQB 240500Z 00000KT 15SM SKC 07/06 A3043 RMK SLP308

CYQB;2008-09-24 06:00;CYQB 240600Z 36005KT 15SM BKN076 07/06 A3044 RMK AC6 SLP308

CYQB;2008-09-24 07:00;CYQB 240700Z 32002KT 15SM BKN073 07/06 A3043 RMK AC6 SLP305

CYQB;2008-09-24 08:00;CYQB 240800Z 36004KT 15SM BKN053 08/06 A3043 RMK SC6 SLP307

CYQB;2008-09-24 09:00;CYQB 240900Z 00000KT 15SM BKN045 09/07 A3044 RMK SC7 SLP308

CYQB;2008-09-24 10:00;CYQB 241000Z 17002KT 15SM OVC040 09/07 A3044 RMK SC8 SLP311

CYQB;2008-09-24 11:00;CYQB 241100Z 00000KT 15SM -SHRA FEW020 BKN042 OVC060 09/07 A3045 RMK SC2SC6SC1 SLP312

CYQB;2008-09-24 12:00;CYQB 241200Z 00000KT 15SM -SHRA FEW020 BKN045 OVC067 10/08 A3045 RMK SC2SC4SC2 SLP313

CYQB;2008-09-24 12:24;CYQB 241224Z 00000KT 15SM BKN053 OVC075 10/ RMK SC7AC1

CYQB;2008-09-24 13:00;CYQB 241300Z 00000KT 15SM FEW044 OVC080 11/09 A3044 RMK SC2AC6 SLP312

CYQB;2008-09-24 14:00;CYQB 241400Z 22003KT 15SM BKN050 BKN090 12/10 A3044 RMK SC6AC2 SLP311

CYQB;2008-09-24 15:00;CYQB 241500Z 15003KT 15SM BKN051 14/10 A3043 RMK SC7 SLP308

CYQB;2008-09-24 16:00;CYQB 241600Z 20004KT 15SM SCT050 BKN075 BKN110 15/10 A3043 RMK SC4AC2AC1 SLP306

CYQB;2008-09-24 17:00;CYQB 241700Z 21002KT 15SM FEW050 BKN080 BKN220 17/11 A3041 RMK SC1AC2CI0 SLP300

CYQB;2008-09-24 18:00;CYQB 241800Z 25005KT 15SM SCT095 SCT220 18/12 A3039 RMK AC2CI0 SLP292

CYQB;2008-09-24 19:00;CYQB 241900Z 23005KT 15SM FEW095 19/12 A3038 RMK AC1 SLP288

CYQB;2008-09-24 20:00;CYQB 242000Z 27005KT 15SM FEW220 20/13 A3036 RMK CI1 SLP284

CYQB;2008-09-24 21:00;CYQB 242100Z 25004KT 15SM SKC 20/13 A3036 RMK SLP284

CYQB;2008-09-24 22:00;CYQB 242200Z 00000KT 15SM SKC 20/14 A3037 RMK SLP287

CYQB;2008-09-24 23:00;CYQB 242300Z 00000KT 15SM SKC 16/14 A3038 RMK SLP288

CYQB;2008-09-25 00:00;CYQB 250000Z 00000KT 15SM SKC 14/13 A3038 RMK SLP290

CYQB;2008-09-25 01:00;CYQB 250100Z 05004KT 15SM SKC 15/13 A3038 RMK SLP290

CYQB;2008-09-25 02:00;CYQB 250200Z 03003KT 15SM SKC 14/12 A3039 RMK SLP292

CYQB;2008-09-25 03:00;CYQB 250300Z 05003KT 15SM SKC 12/11 A3040 RMK SLP295

CYQB;2008-09-25 04:00;CYQB 250400Z 00000KT 15SM SKC 11/10 A3039 RMK SLP294

CYQB;2008-09-25 05:00;CYQB 250500Z 00000KT 15SM SKC 10/10 A3040 RMK SLP296

CYQB;2008-09-25 05:38;CYQB 250538Z 00000KT 6SM R06/3500FT/N BR SKC 09/ RMK VIS LWR W

CYQB;2008-09-25 06:00;CYQB 250600Z 00000KT 6SM R06/1400V2200FT/N BR SKC 09/08 A3040 RMK SLP296

CYQB;2008-09-25 07:00;CYQB 250700Z 00000KT 10SM SKC 09/09 A3040 RMK SLP295

CYQB;2008-09-25 08:00;CYQB 250800Z 04002KT 10SM SKC 09/08 A3040 RMK SLP296

CYQB;2008-09-25 09:00;CYQB 250900Z 00000KT 10SM SKC 08/08 A3041 RMK SLP301

CYQB;2008-09-25 09:45;CYQB 250945Z 00000KT 1/2SM R06/1100V2000FT/U FG SKC 08/ RMK FG6 VIS S 2

CYQB;2008-09-25 10:00;CYQB 251000Z 00000KT 1/4SM R06/1200V2000FT/N FG SKC 08/07 A3043 RMK FG6 VIS HIER S-E SLP307

CYQB;2008-09-25 11:00;CYQB 251100Z 00000KT 1/8SM R06/0900FT/N FG VV001 09/09 A3044 RMK FG8 SLP311

CYQB;2008-09-25 12:00;CYQB 251200Z 00000KT 1/8SM R06/1400FT/N FG SKC 10/10 A3045 RMK FG7 SLP313

CYQB;2008-09-25 13:00;CYQB 251300Z 27002KT 4SM R06/2800VP6000FT/N BR SKC 13/13 A3046 RMK FG4 SLP315

CYQB;2008-09-25 14:00;CYQB 251400Z 22008KT 10SM FEW030 FEW080 16/14 A3045 RMK SC1AC1 HAZY SLP314

CYQB;2008-09-25 15:00;CYQB 251500Z 25007KT 10SM SCT200 17/14 A3045 RMK CI2 HAZY SLP314

CYQB;2008-09-25 16:00;CYQB 251600Z 26010KT 10SM OVC200 20/14 A3044 RMK CI3 HAZY SLP310

CYQB;2008-09-25 17:00;CYQB 251700Z 27009KT 15SM OVC200 22/14 A3042 RMK CI4 HAZY SLP304

CYQB;2008-09-25 18:00;CYQB 251800Z 26014KT 15SM SCT200 22/15 A3041 RMK CI1 HAZY SLP301

CYQB;2008-09-25 19:00;CYQB 251900Z 25008KT 15SM BKN200 23/15 A3041 RMK CI1 SLP300

CYQB;2008-09-25 20:00;CYQB 252000Z 24005KT 15SM BKN200 23/16 A3041 RMK CI1 SLP298

CYQB;2008-09-25 21:00;CYQB 252100Z 21003KT 15SM BKN200 23/17 A3040 RMK CI1 SLP296

CYQB;2008-09-25 22:00;CYQB 252200Z 21002KT 15SM BKN200 21/17 A3041 RMK CI1 SLP299

CYQB;2008-09-25 23:00;CYQB 252300Z 00000KT 15SM BKN200 19/16 A3041 RMK CI1 SLP299

CYQB;2008-09-26 00:00;CYQB 260000Z 00000KT 15SM BKN200 18/16 A3041 RMK CI2 SLP299

CYQB;2008-09-26 01:00;CYQB 260100Z 00000KT 15SM BKN200 16/14 A3041 RMK CI1 SLP301

CYQB;2008-09-26 02:00;CYQB 260200Z 00000KT 15SM SCT200 15/13 A3042 RMK CI1 SLP302

CYQB;2008-09-26 03:00;CYQB 260300Z 35002KT 10SM BKN200 14/13 A3042 RMK CI2 SLP303

CYQB;2008-09-26 04:00;CYQB 260400Z 00000KT 6SM R06/2800VP6000FT/N BR BKN200 13/12 A3042 RMK CI4 SLP302

CYQB;2008-09-26 05:00;CYQB 260500Z 00000KT 6SM BR FEW200 12/11 A3042 RMK CI1 SLP303

CYQB;2008-09-26 06:00;CYQB 260600Z 00000KT 4SM R06/3000VP6000FT/D BR FEW200 11/11 A3042 RMK CI2 SLP301

CYQB;2008-09-26 07:00;CYQB 260700Z 00000KT 4SM R06/1200V1800FT/N BR FEW220 11/10 A3042 RMK CI2 SLP302

CYQB;2008-09-26 08:00;CYQB 260800Z 00000KT 6SM R06/2600FT/N BR FEW220 11/10 A3043 RMK CI1 SLP305

CYQB;2008-09-26 09:00;CYQB 260900Z 00000KT 6SM BR FEW220 12/11 A3044 RMK CI1 SLP307

CYQB;2008-09-26 10:00;CYQB 261000Z 03003KT 6SM BR SCT220 11/10 A3043 RMK CI3 SLP306

CYQB;2008-09-26 11:00;CYQB 261100Z 00000KT 6SM R06/1800FT/N BR BKN220 11/10 A3045 RMK CI3 SLP311

CYQB;2008-09-26 12:00;CYQB 261200Z 00000KT 6SM BR BKN220 12/11 A3045 RMK CI5 SLP314

CYQB;2008-09-26 13:00;CYQB 261300Z 00000KT 8SM OVC190 14/13 A3047 RMK CS4 SLP318

CYQB;2008-09-26 14:00;CYQB 261400Z 00000KT 8SM OVC190 16/14 A3047 RMK CS3 HZ SLP321

CYQB;2008-09-26 15:00;CYQB 261500Z 21004KT 8SM FEW014 OVC200 18/14 A3047 RMK CU1CS5 HZ SLP320

CYQB;2008-09-26 16:00;CYQB 261600Z 25005KT 10SM OVC200 20/11 A3045 RMK CS6 SLP314

CYQB;2008-09-26 17:00;CYQB 261700Z 21005KT 10SM OVC200 20/11 A3044 RMK CS6 SLP308

CYQB;2008-09-26 18:00;CYQB 261800Z 27005KT 30SM OVC200 21/10 A3041 RMK CS7 SLP300

CYQB;2008-09-26 19:00;CYQB 261900Z 26006KT 30SM OVC200 21/08 A3040 RMK CS7 SLP295

CYQB;2008-09-26 20:00;CYQB 262000Z 29002KT 30SM OVC200 21/09 A3038 RMK CS8 SLP290

CYQB;2008-09-26 21:00;CYQB 262100Z 31002KT 30SM FEW170 OVC200 20/11 A3037 RMK AC2CI6 SLP284

CYQB;2008-09-26 22:00;CYQB 262200Z 00000KT 30SM FEW180 OVC200 19/11 A3037 RMK AC2CI6 SLP286

CYQB;2008-09-26 23:00;CYQB 262300Z 00000KT 30SM FEW200 OVC240 17/13 A3038 RMK CI2CI6 SLP289

CYQB;2008-09-27 00:00;CYQB 270000Z 36003KT 15SM OVC240 16/12 A3039 RMK CI6 SLP292

CYQB;2008-09-27 01:00;CYQB 270100Z 02004KT 15SM OVC240 15/11 A3038 RMK CI8 SLP290

CYQB;2008-09-27 02:00;CYQB 270200Z 02005KT 15SM OVC230 15/11 A3038 RMK CI8 SLP288

CYQB;2008-09-27 03:00;CYQB 270300Z 03005KT 15SM OVC210 14/11 A3037 RMK CI8 SLP284

CYQB;2008-09-27 04:00;CYQB 270400Z 04003KT 15SM OVC170 15/11 A3035 RMK AS8 SLP277

CYQB;2008-09-27 04:42;CYQB 270442Z 09003KT 15SM -RA OVC130 15/ RMK AC8

CYQB;2008-09-27 05:00;CYQB 270500Z 07002KT 15SM -RA OVC120 15/12 A3033 RMK AC8 SLP273

CYQB;2008-09-27 06:00;CYQB 270600Z 04003KT 10SM -RA OVC040 14/12 A3032 RMK SC8 SLP269

CYQB;2008-09-27 07:00;CYQB 270700Z 04007KT 8SM -RA SCT018 OVC040 14/13 A3030 RMK SC3SC5 SLP261

CYQB;2008-09-27 08:00;CYQB 270800Z 07006KT 6SM -RA BR OVC017 14/13 A3028 RMK SC8 SLP253

CYQB;2008-09-27 08:42;CYQB 270842Z 07008KT 5SM -RA BR BKN013 OVC019 14/ RMK SC6SC2

CYQB;2008-09-27 09:00;CYQB 270900Z 07009KT 4SM -RA BR SCT003 BKN019 OVC040 14/13 A3024 RMK SF3SC2SC3 SLP241

CYQB;2008-09-27 09:30;CYQB 270930Z 07008KT 5SM -RA BR BKN004 OVC017 14/ RMK SF6SC2

CYQB;2008-09-27 10:00;CYQB 271000Z 07011KT 4SM -RA BR BKN005 OVC014 14/14 A3022 RMK SF6SC2 SLP236

CYQB;2008-09-27 11:00;CYQB 271100Z 07010G16KT 1 1/2SM -RA BR BKN004 OVC014 14/14 A3021 RMK SF6SC2 SLP232

CYQB;2008-09-27 11:17;CYQB 271117Z 07009KT 2SM -RA BR BKN003 OVC014 14/ RMK SF6SC2

CYQB;2008-09-27 11:46;CYQB 271146Z 07011G16KT 2SM -RA BR BKN005 OVC016 15/ RMK SF6SC2

CYQB;2008-09-27 12:00;CYQB 271200Z 06014KT 2SM -RA BR OVC008 15/14 A3020 RMK SF8 SLP229

CYQB;2008-09-27 13:00;CYQB 271300Z 07011KT 2SM -RA BR OVC006 15/14 A3019 RMK SF8 GIC VRB 4-8 SLP226

CYQB;2008-09-27 14:00;CYQB 271400Z 08010KT 1 1/2SM -DZ BR OVC005 15/15 A3018 RMK SF8 CIG VRB 4-8 SLP222

CYQB;2008-09-27 15:00;CYQB 271500Z 08007KT 1 1/2SM -DZ BR OVC004 15/15 A3017 RMK SF8 SLP217

CYQB;2008-09-27 16:00;CYQB 271600Z 08009KT 2SM -DZ BR OVC004 16/15 A3015 RMK SF8 CIG VRB 4-8 SLP210

CYQB;2008-09-27 16:47;CYQB 271647Z 07009KT 2 1/2SM -DZ BR OVC004 16/ RMK SF8 CIG VRB 4-8

CYQB;2008-09-27 17:00;CYQB 271700Z CCA 08007KT 3SM -DZ BR OVC006 16/15 A3014 RMK SF8 CIG VRB 4-8 SLP209

CYQB;2008-09-27 18:00;CYQB 271800Z 08008KT 3SM -DZ BR BKN007 OVC011 16/15 A3012 RMK SF6SC2 SLP201

CYQB;2008-09-27 19:00;CYQB 271900Z 07006KT 3SM -DZ BR BKN006 OVC012 16/15 A3011 RMK SF6SC2 SLP198

CYQB;2008-09-27 19:27;CYQB 271927Z 08006KT 5SM -DZ BR SCT006 OVC010 16/ RMK SF4ST4 VIS LWR N

CYQB;2008-09-27 19:43;CYQB 271943Z 09005KT 1 1/2SM -DZ BR BKN003 OVC010 RMK SF6ST2

CYQB;2008-09-27 20:00;CYQB 272000Z 08006KT 1 1/2SM -DZ BR BKN004 OVC010 15/15 A3011 RMK SF6ST2 SLP196

CYQB;2008-09-27 21:00;CYQB 272100Z 07007KT 2 1/2SM -DZ BR BKN004 OVC010 15/15 A3010 RMK SF6ST2 SLP194

CYQB;2008-09-27 21:29;CYQB 272129Z 07007KT 5SM BR BKN006 OVC011 15/ RMK SF5ST3

CYQB;2008-09-27 22:00;CYQB 272200Z 07005KT 5SM BR BKN003 OVC010 15/15 A3009 RMK SF6ST2 SLP190

CYQB;2008-09-27 23:00;CYQB 272300Z 10005KT 5SM BR OVC004 15/15 A3009 RMK ST8 SLP190

CYQB;2008-09-28 00:00;CYQB 280000Z 06004KT 5SM BR BKN004 OVC016 15/15 A3009 RMK SF6SC2 SLP190

CYQB;2008-09-28 01:00;CYQB 280100Z 04004KT 5SM BR BKN004 OVC030 15/15 A3008 RMK SF6SC2 SLP188

CYQB;2008-09-28 01:33;CYQB 280133Z 07003KT 8SM SCT004 OVC030 15/ RMK SF3SC5

CYQB;2008-09-28 02:00;CYQB 280200Z 08005KT 6SM -DZ BR SCT003 OVC027 15/14 A3007 RMK SF3SC5 SLP185

CYQB;2008-09-28 02:17;CYQB 280217Z 07005KT 1SM R06/P6000FT/N -DZ BR BKN003 OVC017 15/ RMK SF6SC2

CYQB;2008-09-28 03:00;CYQB 280300Z 04005KT 1 1/2SM -DZ BR BKN003 OVC017 15/15 A3006 RMK FG2SF6SC1 SLP181

CYQB;2008-09-28 03:39;CYQB 280339Z 05003KT 3/4SM R06/P6000FT/U -DZ BR BKN003 OVC013 15/ RMK FG2SF4SC2

CYQB;2008-09-28 04:00;CYQB 280400Z 06004KT 3/4SM R06/P6000FT/D -DZ BR BKN003 OVC012 15/15 A3005 RMK FG2SF5SC1 CIG VRB 2-4 SLP177

CYQB;2008-09-28 05:00;CYQB 280500Z 07005KT 1SM R06/P6000FT/N -DZ BR OVC003 15/15 A3003 RMK FG2SF6 SLP172

CYQB;2008-09-28 06:00;CYQB 280600Z 07004KT 1SM R06/P6000FT/N -DZ BR OVC003 15/15 A3002 RMK FG2SF6 CIG VRB 2-4 SLP166

CYQB;2008-09-28 07:00;CYQB 280700Z 07005KT 1SM R06/P6000FT/N -DZ BR OVC003 14/14 A3000 RMK FG2SF6 CIG VRB 2-4 SLP160

CYQB;2008-09-28 08:00;CYQB 280800Z 06005KT 1SM R06/P6000FT/N -DZ BR OVC003 15/14 A2999 RMK FG2SF6 CIG VRB 2-4 SLP156

CYQB;2008-09-28 09:00;CYQB 280900Z 07005KT 1 1/2SM -DZ BR OVC004 15/14 A2999 RMK FG2SF6 SLP155

CYQB;2008-09-28 09:39;CYQB 280939Z 05005KT 1 1/2SM -RA BR OVC002 RMK FG5SF3

CYQB;2008-09-28 10:00;CYQB 281000Z 07004KT 1 1/2SM -RA BR OVC002 14/14 A2998 RMK FG5SF3 SLP153

CYQB;2008-09-28 11:00;CYQB 281100Z 07006KT 1SM R06/P6000FT/D -DZ BR VV002 14/14 A2999 RMK FG8 SLP155

CYQB;2008-09-28 12:00;CYQB 281200Z 09006KT 1SM R06/P6000FT/N -DZ BR VV002 14/14 A2999 RMK FG8 SLP157

CYQB;2008-09-28 12:14;CYQB 281214Z 08005KT 3/4SM R06/P6000FT/D BR VV002 RMK FG8

CYQB;2008-09-28 12:21;CYQB 281221Z CCA 08005KT 3/4SM R06/P6000FT/D BR VV002 14/ RMK FG8

CYQB;2008-09-28 12:57;CYQB 281257Z 06005KT 3/4SM R06/5500FT/U -DZ BR VV002 14/ RMK FG8

CYQB;2008-09-28 13:00;CYQB 281300Z 07004KT 3/4SM R06/6000FT/U -DZ BR VV002 14/14 A3000 RMK FG8 SLP160

CYQB;2008-09-28 13:23;CYQB 281323Z 07005KT 1SM R06/P6000FT/U -DZ BR OVC003 14/ RMK FG6SF2

CYQB;2008-09-28 14:00;CYQB 281400Z 09005KT 1SM R06/P6000FT/N -DZ BR OVC003 14/14 A2999 RMK FG6SF2 SLP156

CYQB;2008-09-28 15:00;CYQB 281500Z 07006KT 1 1/2SM -DZ BR OVC003 14/14 A2998 RMK FG3SF5 SLP154

CYQB;2008-09-28 15:12;CYQB 281512Z 07007KT 1 1/2SM BR OVC003 14/ RMK FG2SF6

CYQB;2008-09-28 16:00;CYQB 281600Z 07005KT 3SM BR OVC003 14/14 A2998 RMK FG1ST7 SLP154

CYQB;2008-09-28 16:31;CYQB 281631Z 06005KT 8SM OVC006 15/ RMK ST8

CYQB;2008-09-28 17:00;CYQB 281700Z 09007KT 10SM OVC006 15/14 A2997 RMK ST8 SLP150

CYQB;2008-09-28 18:00;CYQB 281800Z 08008KT 10SM BKN009 OVC020 16/14 A2995 RMK SF7SC1 SLP144

CYQB;2008-09-28 19:00;CYQB 281900Z 07006KT 10SM OVC008 16/14 A2994 RMK ST8 SLP141

CYQB;2008-09-28 20:00;CYQB 282000Z 08012KT 10SM OVC010 16/14 A2993 RMK SC8 CLDS TPG HILL N-E SLP137

CYQB;2008-09-28 21:00;CYQB 282100Z 08006KT 10SM OVC009 15/14 A2993 RMK SC8 CLDS TPG HILL N-E SLP136

CYQB;2008-09-28 21:31;CYQB 282131Z 08007KT 2SM -SHRA BR SCT005 OVC007 15/ RMK FG1SF2SF5

CYQB;2008-09-28 22:00;CYQB 282200Z 07004KT 1 3/4SM -SHRA BR SCT004 OVC007 14/14 A2993 RMK FG1SF2SF5 SLP136

CYQB;2008-09-28 23:00;CYQB 282300Z 07004KT 1 3/4SM -SHRA BR BKN004 OVC015 14/14 A2993 RMK FG1SF5SC2 SLP137

CYQB;2008-09-29 00:00;CYQB 290000Z CCA 07004KT 3SM -SHRA BR OVC004 14/13 A2994 RMK ST8 SLP140

CYQB;2008-09-29 00:38;CYQB 290038Z 08002KT 5SM BR OVC003 14/ RMK ST8

CYQB;2008-09-29 01:00;CYQB 290100Z 07003KT 10SM OVC004 14/13 A2995 RMK ST8 SLP142

CYQB;2008-09-29 02:00;CYQB 290200Z 09003KT 8SM OVC004 14/13 A2995 RMK ST8 SLP142

CYQB;2008-09-29 03:00;CYQB 290300Z 06002KT 8SM -DZ OVC004 14/13 A2994 RMK ST8 SLP140

CYQB;2008-09-29 03:30;CYQB 290330Z 28002KT 4SM -DZ BR OVC004 14/ RMK ST8 CIG VRB 3-5

CYQB;2008-09-29 04:00;CYQB 290400Z 27003KT 6SM -DZ BR OVC006 13/13 A2993 RMK ST8 SLP137

CYQB;2008-09-29 04:33;CYQB 290433Z 27002KT 6SM BR BKN005 BKN010 OVC045 13/ RMK ST6SC1SC1

CYQB;2008-09-29 05:00;CYQB 290500Z 25003KT 1/2SM R06/P6000FT/U FG VV001 13/13 A2993 RMK FG8 SLP137

CYQB;2008-09-29 05:11;CYQB 290511Z 23003KT 1SM R06/P6000FT/D BR BKN001 OVC110 13/ RMK FG3ST3AC2

CYQB;2008-09-29 05:38;CYQB 290538Z 25003KT 6SM BR FEW001 BKN110 13/ RMK ST2AC4 VIS LWR N-E QUAD

CYQB;2008-09-29 06:00;CYQB 290600Z 23002KT 8SM FEW001 BKN110 13/13 A2993 RMK ST2AC5 SLP137

CYQB;2008-09-29 07:00;CYQB 290700Z 34005KT 10SM FEW001 BKN084 14/13 A2993 RMK SF1AC5 SLP137

CYQB;2008-09-29 08:00;CYQB 290800Z 32004KT 15SM BKN097 13/11 A2994 RMK AC5 SLP139

CYQB;2008-09-29 09:00;CYQB 290900Z 34007KT 15SM FEW040 BKN090 13/10 A2995 RMK SC2AC3 SLP143

CYQB;2008-09-29 10:00;CYQB 291000Z 35009KT 15SM SCT040 BKN090 13/10 A2996 RMK SC3AC2 SLP145

CYQB;2008-09-29 11:00;CYQB 291100Z 35010KT 15SM BKN040 BKN080 BKN110 13/10 A2997 RMK SC5AC1AC1 SLP149

CYQB;2008-09-29 12:00;CYQB 291200Z 34008KT 15SM SCT040 BKN080 13/10 A2998 RMK SC3AC2 SLP153

CYQB;2008-09-29 13:00;CYQB 291300Z 35007KT 15SM FEW040 SCT080 15/10 A2999 RMK SC2AC1 SLP156

CYQB;2008-09-29 14:00;CYQB 291400Z 36007KT 15SM FEW010 BKN035 BKN080 16/11 A2999 RMK SC1SC5AC1 SLP158

CYQB;2008-09-29 15:00;CYQB 291500Z 34004KT 20SM FEW015 BKN035 17/11 A3000 RMK SC1SC7 SLP158

CYQB;2008-09-29 16:00;CYQB 291600Z 00000KT 15SM FEW020 BKN035 18/11 A2999 RMK SC1SC7 SLP157

CYQB;2008-09-29 17:00;CYQB 291700Z 21006KT 15SM FEW030 BKN035 17/12 A3000 RMK SC2SC5 DIST SHRA N-NE VIS N-NE LWR SLP159

CYQB;2008-09-29 18:00;CYQB 291800Z CCA 00000KT 15SM FEW030 BKN035 OVC050 18/12 A3000 RMK SC2SC4SC2 DIST SHRA N VIS N LWR SLP159

CYQB;2008-09-29 19:00;CYQB 291900Z 16002KT 15SM BKN029 OVC040 18/12 A3000 RMK SC6SC2 DIST SHRA AND LWR VIS N-NNE SLP158

CYQB;2008-09-29 20:00;CYQB 292000Z 08007KT 15SM FEW020 SCT029 BKN045 17/13 A3000 RMK CF2SC2SC3 SLP158

CYQB;2008-09-29 21:00;CYQB 292100Z 09009KT 15SM FEW015 SCT030 BKN053 16/13 A3000 RMK CF1SC2SC4 SLP160

CYQB;2008-09-29 22:00;CYQB 292200Z 09006KT 15SM SCT024 BKN041 14/12 A3001 RMK CU3SC4 SLP164

CYQB;2008-09-29 23:00;CYQB 292300Z 07010KT 15SM SCT012 BKN022 14/12 A3003 RMK SF3SC4 SLP169

CYQB;2008-09-30 00:00;CYQB 300000Z 09007KT 12SM -DZ SCT012 OVC026 13/12 A3003 RMK SF3SC5 SLP169

CYQB;2008-09-30 00:25;CYQB 300025Z 05005KT 12SM SCT012 OVC026 13/ RMK SF3SC5

CYQB;2008-09-30 01:00;CYQB 300100Z 05004KT 15SM FEW012 OVC030 13/12 A3003 RMK SF2SC6 SLP170

CYQB;2008-09-30 02:00;CYQB 300200Z 07007KT 10SM -DZ FEW011 OVC018 13/12 A3002 RMK SF2SC6 SLP168

CYQB;2008-09-30 03:00;CYQB 300300Z 07004KT 10SM -DZ FEW011 BKN020 OVC035 13/11 A3001 RMK SF1SC6SC2 SLP165

CYQB;2008-09-30 03:48;CYQB 300348Z 06005KT 15SM FEW010 OVC040 13/ RMK SF2SC6

CYQB;2008-09-30 04:00;CYQB 300400Z 07006KT 15SM BKN012 OVC040 13/11 A3001 RMK SF5SC3 SLP164

CYQB;2008-09-30 05:00;CYQB 300500Z 06005KT 15SM BKN013 BKN040 13/11 A3001 RMK SF5SC2 SLP165

CYQB;2008-09-30 06:00;CYQB 300600Z 07006KT 15SM BKN014 OVC038 13/11 A3001 RMK SF5SC3 SLP164

CYQB;2008-09-30 06:25;CYQB 300625Z 07010KT 15SM FEW013 OVC044 13/ RMK SF2SC6

CYQB;2008-09-30 07:00;CYQB 300700Z 07009KT 15SM FEW013 BKN044 12/10 A3000 RMK SF2SC4 SLP160

CYQB;2008-09-30 08:00;CYQB 300800Z 07011KT 15SM FEW010 BKN016 BKN040 12/10 A3000 RMK SF2SC3SC2 SLP158

CYQB;2008-09-30 09:00;CYQB 300900Z 07006KT 15SM FEW008 BKN012 BKN044 12/10 A3000 RMK SF2SC4SC1 SLP160

CYQB;2008-09-30 10:00;CYQB 301000Z 09008KT 15SM BKN010 BKN075 12/10 A3000 RMK SF5AC2 SLP161

CYQB;2008-09-30 11:00;CYQB 301100Z 08006KT 15SM BKN010 OVC070 11/10 A3001 RMK SF3AC4 SLP164

CYQB;2008-09-30 12:00;CYQB 301200Z 08008KT 30SM BKN010 BKN074 12/10 A3001 RMK SF5AC2 SLP165

CYQB;2008-09-30 13:00;CYQB 301300Z 08008KT 30SM BKN011 BKN041 OVC074 12/10 A3001 RMK SC5SC2AC1 SLP163

CYQB;2008-09-30 14:00;CYQB 301400Z 07011KT 30SM BKN014 BKN040 BKN075 12/09 A3000 RMK SC3SC4AC1 SLP161

CYQB;2008-09-30 15:00;CYQB 301500Z 06015G21KT 30SM SCT015 BKN040 BKN080 13/10 A2997 RMK SC2SC4AC1 SLP152

CYQB;2008-09-30 16:00;CYQB 301600Z 09014G19KT 30SM FEW015 SCT040 BKN075 14/10 A2996 RMK SC2SC2AC0 SLP148

CYQB;2008-09-30 17:00;CYQB 301700Z 08014G19KT 30SM FEW015 SCT040 SCT070 14/09 A2994 RMK SC1SC2AC0 SLP142

CYQB;2008-09-30 18:00;CYQB 301800Z 09014G19KT 30SM FEW025 BKN044 BKN075 15/09 A2992 RMK CU2SC4AC1 SLP131

CYQB;2008-09-30 19:00;CYQB 301900Z 08012G17KT 30SM BKN048 BKN080 15/10 A2990 RMK SC5AC1 SLP125

CYQB;2008-09-30 20:00;CYQB 302000Z 09010G16KT 30SM BKN048 BKN080 13/09 A2987 RMK SC5AC2 SLP117

CYQB;2008-09-30 21:00;CYQB 302100Z 09010G16KT 30SM FEW030 BKN050 BKN080 13/09 A2986 RMK CF1SC5AC2 SLP111

CYQB;2008-09-30 22:00;CYQB 302200Z 09011KT 30SM FEW030 BKN051 12/09 A2985 RMK CU1SC6 SLP110

CYQB;2008-09-30 23:00;CYQB 302300Z 07010G16KT 15SM FEW050 BKN076 11/08 A2985 RMK SC2AC4 SLP109

CYQB;2008-10-01 01:00;CYQB 010100Z 08008KT 15SM FEW050 BKN083 11/08 A2983 RMK SC2AC4 SLP105

CYQB;2008-10-01 02:00;CYQB 010200Z 07014KT 15SM FEW050 SCT083 11/08 A2983 RMK SC2AC2 SLP102

CYQB;2008-10-01 03:00;CYQB 010300Z 07006KT 15SM FEW050 SCT080 10/08 A2982 RMK SC2AC2 SLP098

CYQB;2008-10-01 04:00;CYQB 010400Z 08010G15KT 15SM SCT040 BKN065 11/09 A2980 RMK SC4AC1 SLP091

CYQB;2008-10-01 05:00;CYQB 010500Z 08012KT 15SM FEW024 BKN050 BKN100 11/09 A2978 RMK SC2SC3AC1 SLP085

CYQB;2008-10-01 06:00;CYQB 010600Z 07009KT 15SM FEW010 SCT025 BKN047 11/09 A2976 RMK SF2SC1SC2 SLP080

CYQB;2008-10-01 07:00;CYQB 010700Z 07013KT 15SM FEW010 SCT039 BKN065 11/10 A2974 RMK SF2SC2SC2 SLP073

CYQB;2008-10-01 08:00;CYQB 010800Z 07009G15KT 15SM FEW010 BKN033 11/10 A2973 RMK SF2SC5 CLSD TPG MTS W SLP070

CYQB;2008-10-01 08:29;CYQB 010829Z 07011KT 15SM FEW007 BKN034 11/ RMK SF2SC6

CYQB;2008-10-01 09:00;CYQB 010900Z 07009G15KT 15SM FEW007 BKN031 11/10 A2972 RMK SF2SC5 CLDS TPG MTS W SLP067

CYQB;2008-10-01 09:24;CYQB 010924Z 09012G17KT 10SM -RA FEW007 BKN029 11/ RMK SF2SC6 CLDS TPG MTS W

CYQB;2008-10-01 10:00;CYQB 011000Z 09009KT 15SM -RA FEW007 OVC027 11/10 A2972 RMK SF1SC7 SLP064

CYQB;2008-10-01 11:00;CYQB 011100Z 09008KT 12SM -RA FEW007 OVC022 11/10 A2971 RMK SF2SC6 VIS SW-N 4 SLP062

CYQB;2008-10-01 11:25;CYQB 011125Z 09011KT 2 1/2SM -RA BR FEW007 OVC025 11/ RMK SF2SC6

CYQB;2008-10-01 12:00;CYQB 011200Z 08009KT 15SM -RA SCT006 SCT020 OVC030 10/10 A2970 RMK SF2SC1SC5 SLP060

CYQB;2008-10-01 13:00;CYQB 011300Z 08008KT 8SM -RA BKN006 OVC017 10/10 A2971 RMK SF4SC4 SLP061

CYQB;2008-10-01 14:00;CYQB 011400Z 08012KT 15SM -RA BKN005 OVC015 10/10 A2970 RMK SF6SC2 VIS SW-NW 7 SLP059

CYQB;2008-10-01 14:15;CYQB 011415Z 08007KT 3SM RA BR BKN005 OVC020 10/ RMK SF6SC2

CYQB;2008-10-01 15:00;CYQB 011500Z 09008KT 5SM -RA BR BKN004 OVC020 10/10 A2969 RERA RMK SF7SC1 SLP056

CYQB;2008-10-01 16:00;CYQB 011600Z 08007KT 2 1/2SM -RA BR OVC005 11/10 A2968 RMK SF8 SLP052

CYQB;2008-10-01 17:00;CYQB 011700Z 07011G17KT 4SM -RA BR OVC005 11/10 A2967 RMK SF8 SLP047

CYQB;2008-10-01 18:00;CYQB 011800Z 08010KT 8SM BKN004 OVC020 11/10 A2965 RMK SF7SC1 SLP043

CYQB;2008-10-01 19:00;CYQB 011900Z 08011KT 5SM -RA BR OVC005 11/11 A2964 RMK SF8 SLP037

CYQB;2008-10-01 19:11;CYQB 011911Z 07008KT 1 3/4SM -RA BR OVC003 11/ RMK SF8

CYQB;2008-10-01 19:38;CYQB 011938Z 07010KT 4SM -RA BR BKN005 OVC020 11/ RMK SF7SC1 CIG RAG

CYQB;2008-10-01 20:00;CYQB 012000Z 08013KT 1 1/2SM -RA BR BKN004 OVC008 11/10 A2961 RMK SF7NS1 CIG RAG SLP030

CYQB;2008-10-01 20:33;CYQB 012033Z 07011G17KT 4SM -RA BR BKN004 OVC028 11/ RMK SF7SC1

CYQB;2008-10-01 21:00;CYQB 012100Z 08012KT 5SM BR BKN004 OVC015 11/10 A2961 RMK SF7SC1 SLP029

CYQB;2008-10-01 21:50;CYQB 012150Z 08012G17KT 3SM -RA BR BKN004 OVC008 11/ RMK SF7ST1

CYQB;2008-10-01 22:00;CYQB 012200Z 07011KT 3SM -RA BR OVC004 11/10 A2960 RMK ST8 SLP026

CYQB;2008-10-01 23:00;CYQB 012300Z 08007KT 4SM -RA BR BKN005 OVC010 10/10 A2959 RMK SF6ST2 SLP023

CYQB;2008-10-02 00:00;CYQB 020000Z 08009KT 4SM BR BKN003 OVC010 11/10 A2959 RMK SF7SC1 SLP020

CYQB;2008-10-02 01:00;CYQB 020100Z 08007KT 4SM BR BKN003 OVC027 11/10 A2957 RMK SF7SC1 SLP016

CYQB;2008-10-02 02:00;CYQB 020200Z 09007KT 4SM -SHRA BR OVC003 11/10 A2956 RMK ST8 SLP011

CYQB;2008-10-02 03:00;CYQB 020300Z 09003KT 1SM R06/P6000FT/N -SHRA BR OVC002 11/11 A2954 RMK ST8 SLP006

CYQB;2008-10-02 04:00;CYQB 020400Z 08003KT 2 1/2SM -SHRA BR OVC002 11/11 A2953 RMK ST8 SLP001

CYQB;2008-10-02 05:00;CYQB 020500Z 00000KT 1SM R06/P6000FT/D -SHRA BR OVC002 11/11 A2952 RMK ST8 SLP997

CYQB;2008-10-02 05:32;CYQB 020532Z 09002KT 1SM R06/P6000FT/U BR OVC002 11/ RMK FG2ST6

CYQB;2008-10-02 06:00;CYQB 020600Z 06002KT 1/2SM R06/2800FT/D FG OVC002 11/11 A2950 RMK FG3ST5 SLP992

CYQB;2008-10-02 06:49;CYQB 020649Z 15002KT 1/2SM R06/2600V5000FT/U FG VV005 11/ RMK FG8

CYQB;2008-10-02 07:00;CYQB 020700Z 00000KT 1/2SM R06/3500FT/N FG VV005 11/11 A2949 RMK FG8 SLP987

CYQB;2008-10-02 07:18;CYQB 020718Z 13002KT 1/2SM R06/4000FT/N -SHRA FG OVC003 11/ RMK FG3ST5

CYQB;2008-10-02 07:43;CYQB 020743Z 20003KT 1SM R06/P6000FT/U -SHRA BR SCT003 OVC006 11/ RMK FG2SF2ST4

CYQB;2008-10-02 08:00;CYQB 020800Z 00000KT 1 3/4SM -SHRA BR FEW003 OVC008 11/11 A2947 RMK FG2SF1SF6 SLP980

CYQB;2008-10-02 08:44;CYQB 020844Z 20003KT 4SM BR FEW003 BKN008 OVC015 11/ RMK SF1SF4SC3

CYQB;2008-10-02 09:00;CYQB 020900Z 23006KT 4SM BR FEW003 BKN010 OVC017 11/11 A2945 RMK SF1SF4SC3 SLP975

CYQB;2008-10-02 09:11;CYQB 020911Z 23006KT 4SM BR FEW003 SCT010 OVC015 11/ RMK SF1SF3SC4

CYQB;2008-10-02 09:37;CYQB 020937Z 23004KT 4SM -RA BR FEW003 BKN015 OVC050 11/ RMK SF1SC6SC1

CYQB;2008-10-02 10:00;CYQB 021000Z 22004KT 4SM -RA BR FEW008 BKN014 OVC050 11/11 A2944 RMK SF1SC6SC1 SLP970

CYQB;2008-10-02 10:44;CYQB 021044Z 23004KT 2 1/2SM -RA BR FEW008 OVC012 11/ RMK SF1SC7

CYQB;2008-10-02 11:00;CYQB 021100Z 21005KT 2 1/2SM -RA BR FEW005 OVC011 11/11 A2943 RMK SF2SC6 SLP968

CYQB;2008-10-02 11:35;CYQB 021135Z 23006KT 2 1/2SM -RA BR BKN008 BKN013 OVC058 11/ RMK SF5SC2SC1

CYQB;2008-10-02 12:00;CYQB 021200Z 22005KT 2 1/2SM -RA BR SCT008 BKN015 OVC060 11/11 A2941 RMK SF3SC3SC2 SLP961

CYQB;2008-10-02 12:45;CYQB 021245Z 24008KT 7SM FEW005 BKN008 BKN015 OVC060 11/ RMK SF2SF3SC2SC2

CYQB;2008-10-02 13:00;CYQB 021300Z 22008KT 7SM -RA FEW004 BKN008 OVC060 11/10 A2940 RMK SF2SF5SC2 SLP956

CYQB;2008-10-02 14:00;CYQB 021400Z 24010KT 7SM -RA BKN006 OVC010 11/11 A2939 RMK SF6SC2 SLP955

CYQB;2008-10-02 15:00;CYQB 021500Z 25010G16KT 4SM -RA BR BKN008 OVC020 11/11 A2937 RMK SF6SC2 SLP947

CYQB;2008-10-02 16:00;CYQB 021600Z 25010G15KT 7SM -RA SCT008 BKN015 OVC040 12/11 A2936 RMK SF3SC2SC3 SLP942

CYQB;2008-10-02 17:00;CYQB 021700Z 25009KT 8SM -RA BKN012 OVC020 12/10 A2936 RMK SC6SC2 SLP944

CYQB;2008-10-02 17:35;CYQB 021735Z 24012KT 6SM BR SCT012 OVC048 11/ RMK SC4SC4

CYQB;2008-10-02 18:00;CYQB 021800Z 23012KT 8SM SCT012 OVC120 12/11 A2934 RMK SC3AC4 SLP936

CYQB;2008-10-02 19:00;CYQB 021900Z 26014KT 15SM BKN120 BKN180 13/09 A2935 RMK AC5CI1 SLP939

CYQB;2008-10-02 19:50;CYQB 021950Z CCA 25016KT 8SM -RA SCT022 BKN045 11/ RMK SC4SC3

CYQB;2008-10-02 20:00;CYQB 022000Z CCA 27015KT 6SM RA BR FEW017 OVC031 10/08 A2937 RMK SC2SC6 VIS LWR W E SLP946

CYQB;2008-10-02 20:13;CYQB 022013Z 27010G22KT 10SM FEW020 SCT030 BKN061 11/ RMK SC2SC2SC2

CYQB;2008-10-02 21:00;CYQB 022100Z 27017KT 15SM SCT025 BKN050 BKN180 11/08 A2938 RMK SC3SC2CI1 SLP951

CYQB;2008-10-02 22:00;CYQB 022200Z 28017G24KT 12SM BKN032 BKN040 10/06 A2942 RMK SC5SC2 VCSH SLP963

CYQB;2008-10-02 23:00;CYQB 022300Z 27014KT 15SM SCT032 SCT040 08/05 A2946 RMK SC3SC1 SLP977

CYQB;2008-10-03 00:00;CYQB 030000Z 27012G17KT 15SM FEW032 07/03 A2949 RMK SC2 SLP989

CYQB;2008-10-03 01:00;CYQB 030100Z 27013KT 15SM FEW032 06/03 A2951 RMK SC1 SLP996

CYQB;2008-10-03 02:00;CYQB 030200Z 25011KT 15SM FEW050 05/02 A2954 RMK CF1 SLP004

CYQB;2008-10-03 03:00;CYQB 030300Z 26012KT 15SM FEW035 05/02 A2956 RMK SF1 OBS TAKEN +15 SLP012

CYQB;2008-10-03 04:00;CYQB 030400Z 25010KT 15SM FEW035 04/02 A2958 RMK SF1 SLP017

CYQB;2008-10-03 05:00;CYQB 030500Z 27007KT 15SM FEW035 03/02 A2959 RMK SF1 SLP022

CYQB;2008-10-03 06:00;CYQB 030600Z 23005KT 15SM FEW010 BKN036 BKN070 03/02 A2960 RMK SF1SC5AC2 SLP026

CYQB;2008-10-03 07:00;CYQB 030700Z CCA 24006KT 15SM -SHRA FEW010 BKN032 OVC060 04/03 A2959 RMK SF1SC6SC2 SLP023

CYQB;2008-10-03 08:00;CYQB 030800Z 24005KT 6SM -SHRA BR BKN023 OVC042 04/04 A2960 RMK SC6SC2 SLP026

CYQB;2008-10-03 08:22;CYQB 030822Z 25005KT 12SM FEW010 BKN035 OVC090 05/ RMK SF1SC7AC1

CYQB;2008-10-03 09:00;CYQB 030900Z 27004KT 12SM -SHRA FEW010 BKN038 05/05 A2960 RMK SF1SC7 SLP025

CYQB;2008-10-03 10:00;CYQB 031000Z 25006KT 15SM SCT010 OVC030 05/05 A2961 RMK SF4SC4 SLP027

CYQB;2008-10-03 10:57;CYQB 031057Z 27006KT 12SM -SHRA FEW008 OVC023 05/ RMK SF2SC6

CYQB;2008-10-03 11:00;CYQB 031100Z 27006KT 12SM -SHRA FEW008 OVC025 05/05 A2961 RMK SF2SC6 SLP029

CYQB;2008-10-03 11:12;CYQB 031112Z 27007KT 6SM -SHRA BR BKN008 OVC025 05/ RMK SF5SC3

CYQB;2008-10-03 11:33;CYQB 031133Z 26007KT 12SM -SHRA FEW008 SCT040 BKN076 05/ RMK CF1SC3AC3

CYQB;2008-10-03 12:00;CYQB 031200Z 26009KT 15SM FEW008 SCT040 BKN070 06/05 A2963 RMK CF1SC2AC1 SLP036

CYQB;2008-10-03 13:00;CYQB 031300Z 25011KT 15SM SCT032 06/05 A2964 RMK SC4 TCU EMBD SLP041

CYQB;2008-10-03 14:00;CYQB 031400Z 26017KT 15SM BKN031 08/05 A2965 RMK SC5 TCU ASOCTD SLP044

CYQB;2008-10-03 15:00;CYQB 031500Z 26015G21KT 15SM BKN025 09/05 A2965 RMK CU5 SLP043

CYQB;2008-10-03 16:00;CYQB 031600Z 27015G24KT 15SM BKN025 09/04 A2965 RMK CU5 SLP043

CYQB;2008-10-03 17:00;CYQB 031700Z 24017G24KT 15SM BKN025 10/03 A2964 RMK CU6 SLP040

CYQB;2008-10-03 18:00;CYQB 031800Z 23024G30KT 30SM SCT032 10/01 A2963 RMK CU4 SLP037

CYQB;2008-10-03 19:00;CYQB 031900Z 25020G26KT 15SM FEW030 BKN050 BKN080 10/01 A2963 RMK CU2CU4AC1 SLP036

CYQB;2008-10-03 19:51;CYQB 031951Z 24019G27KT 15SM -SHRA BKN053 BKN080 10/ RMK SC6AC1 TCU ASOCTD

CYQB;2008-10-03 20:00;CYQB 032000Z 24027G32KT 15SM VCSH BKN055 BKN070 BKN200 10/01 A2963 RMK SC6AC1CI1 TCU ASOCTD SLP035

CYQB;2008-10-03 20:15;CYQB 032015Z 25023G32KT 10SM -SHRA BKN029 BKN052 BKN200 09/ RMK SC6SC1CI1 TCU ASOCTD

CYQB;2008-10-03 21:00;CYQB 032100Z 25017G28KT 10SM -SHRA SCT030 BKN046 OVC090 08/03 A2965 RMK SC3SC4AC1 TCU ASOCTD SLP043

CYQB;2008-10-03 21:32;CYQB 032132Z 25014G25KT 10SM FEW030 BKN048 OVC090 08/ RMK CU1SC6AC1

CYQB;2008-10-03 22:00;CYQB 032200Z 26021G27KT 25SM FEW030 BKN053 OVC075 09/02 A2966 RMK SC1SC6AC2 SLP045

CYQB;2008-10-03 22:20;CYQB 032220Z 26021G27KT 20SM -SHRA FEW035 OVC050 08/ RMK SC2SC6

CYQB;2008-10-03 23:00;CYQB 032300Z 26020G26KT 10SM -SHRA FEW021 OVC031 06/04 A2970 RMK SC2SC6 SLP058

CYQB;2008-10-04 00:00;CYQB 040000Z 25018G28KT 8SM -SHRA FEW020 BKN029 OVC070 06/04 A2970 RMK SC2SC6AC1 SLP060

CYQB;2008-10-04 01:00;CYQB 040100Z 25022G30KT 7SM -SHRA FEW015 OVC022 06/05 A2972 RMK SC2SC6 SLP065

CYQB;2008-10-04 02:00;CYQB 040200Z 25021G28KT 10SM -SHRA SCT020 OVC036 07/05 A2972 RMK SC3SC5 SLP068

CYQB;2008-10-04 03:00;CYQB 040300Z 25024G29KT 10SM -SHRA FEW020 BKN038 06/04 A2974 RMK SC2SC5 SLP073

CYQB;2008-10-04 04:00;CYQB 040400Z 26019G27KT 12SM -SHRA FEW020 BKN025 06/04 A2976 RMK SC1SC5 SLP081

CYQB;2008-10-04 04:20;CYQB 040420Z 25019G26KT 15SM FEW020 BKN028 06/ RMK SC2SC5

CYQB;2008-10-04 05:00;CYQB 040500Z 26019KT 15SM BKN028 BKN090 06/04 A2979 RMK SC5AC2 SLP091

CYQB;2008-10-04 06:00;CYQB 040600Z 25014G20KT 15SM OVC024 07/04 A2983 RMK SC8 SLP103

CYQB;2008-10-04 07:00;CYQB 040700Z 25017KT 15SM BKN027 OVC035 07/04 A2986 RMK SC6SC2 SLP112

CYQB;2008-10-04 08:00;CYQB 040800Z 26013KT 15SM BKN028 OVC073 07/04 A2988 RMK SC6AC2 SLP119

CYQB;2008-10-04 09:00;CYQB 040900Z 26014KT 15SM BKN027 OVC110 07/04 A2989 RMK SC6AC2 SLP125

CYQB;2008-10-04 10:00;CYQB 041000Z 26016KT 15SM BKN026 BKN064 BKN250 07/04 A2992 RMK SC5SC1CI0 SLP133

CYQB;2008-10-04 11:00;CYQB 041100Z 26013KT 15SM BKN028 BKN064 BKN250 07/04 A2994 RMK SC6SC1CI1 SLP142

CYQB;2008-10-04 12:00;CYQB 041200Z 26015KT 15SM BKN030 BKN065 08/04 A2997 RMK SC6SC2 SLP152

CYQB;2008-10-04 13:00;CYQB 041300Z 28012G24KT 15SM -DZ BKN024 OVC055 08/04 A3000 RMK SC7SC1 OBS TAKEN +12 SLP161

CYQB;2008-10-04 13:45;CYQB 041345Z 27016G22KT 15SM BKN027 BKN055 OVC210 RMK SC5SC1CI1

CYQB;2008-10-04 14:00;CYQB 041400Z 27019KT 25SM BKN027 OVC210 09/04 A3000 RMK SC5CI1 SLP163

CYQB;2008-10-04 15:00;CYQB 041500Z 27016KT 30SM SCT030 OVC210 10/04 A3001 RMK SC4CI2 SLP165

CYQB;2008-10-04 16:00;CYQB 041600Z CCA 27018KT 25SM FEW025 BKN035 OVC210 11/04 A3003 RMK CF1SC6CI0 SLP170

CYQB;2008-10-04 17:00;CYQB 041700Z 27015G21KT 25SM FEW015 SCT035 OVC210 10/04 A3003 RMK CF1SC3CI2 SLP170

CYQB;2008-10-04 18:00;CYQB 041800Z 28010G21KT 20SM -SHRA BKN032 OVC210 09/04 A3003 RMK SC5AC2 SLP172

CYQB;2008-10-04 18:30;CYQB 041830Z 28013KT 25SM BKN032 OVC210 11/ RMK SC5AC2

CYQB;2008-10-04 19:00;CYQB 041900Z 28012G17KT 25SM BKN032 BKN070 OVC210 11/04 A3004 RMK SC5AC1CI2 DIST SHWRS S SLP175

CYQB;2008-10-04 19:29;CYQB 041929Z 30015KT 25SM -SHRA BKN036 OVC210 10/ RMK SC6CI2

CYQB;2008-10-04 19:44;CYQB 041944Z 29010G15KT 25SM BKN036 BKN063 OVC210 11/ RMK SC6AC1CI1

CYQB;2008-10-04 20:00;CYQB 042000Z 28013KT 25SM SCT036 BKN070 OVC210 10/04 A3005 RMK SC4AC2CI2 SLP178

CYQB;2008-10-04 21:00;CYQB 042100Z 28010KT 25SM SCT035 BKN065 BKN210 10/03 A3006 RMK SC3SC3CI1 SLP180

CYQB;2008-10-04 22:00;CYQB 042200Z 28008KT 25SM FEW035 BKN048 BKN066 BKN210 09/04 A3008 RMK SC2SC3AC1CI1 SLP188

CYQB;2008-10-04 23:00;CYQB 042300Z 28007KT 25SM FEW035 BKN068 BKN210 08/04 A3010 RMK SC2SC3CI2 SLP195

CYQB;2008-10-05 00:00;CYQB 050000Z 25005KT 25SM FEW035 BKN067 08/04 A3012 RMK SC1SC6 SLP202

CYQB;2008-10-05 01:00;CYQB 050100Z 27005KT 25SM BKN070 07/05 A3013 RMK AC6 SLP206

CYQB;2008-10-05 02:00;CYQB 050200Z 26007KT 15SM FEW040 FEW070 05/03 A3014 RMK SC1AC1 SLP210

CYQB;2008-10-05 03:00;CYQB 050300Z 25007KT 15SM FEW040 06/04 A3015 RMK SC1 SLP212

CYQB;2008-10-05 04:00;CYQB 050400Z 25008KT 15SM SKC 05/03 A3016 RMK SLP215

CYQB;2008-10-05 05:00;CYQB 050500Z 25009KT 15SM FEW030 05/03 A3017 RMK SC1 SLP220

CYQB;2008-10-05 06:00;CYQB 050600Z 26004KT 15SM FEW030 FEW080 SCT240 03/02 A3019 RMK SC1AC2CI0 SLP228

CYQB;2008-10-05 07:00;CYQB 050700Z 28005KT 15SM BKN079 04/03 A3020 RMK AC6 SLP229

CYQB;2008-10-05 08:00;CYQB 050800Z 00000KT 15SM BKN073 05/04 A3021 RMK AC7 SLP233

CYQB;2008-10-05 09:00;CYQB 050900Z 29002KT 15SM OVC074 05/04 A3022 RMK AC8 SLP236

CYQB;2008-10-05 10:00;CYQB 051000Z 00000KT 15SM BKN075 05/04 A3023 RMK AC7 SLP239

CYQB;2008-10-05 11:00;CYQB 051100Z 27002KT 30SM FEW030 BKN079 05/04 A3024 RMK SC1AC7 SLP241

CYQB;2008-10-05 12:00;CYQB 051200Z 28004KT 30SM FEW030 BKN080 06/04 A3025 RMK SC1AC7 SLP247

CYQB;2008-10-05 13:00;CYQB 051300Z 27004KT 30SM FEW030 BKN080 07/05 A3027 RMK SC1AC7 SLP252

CYQB;2008-10-05 14:00;CYQB 051400Z 28004KT 30SM FEW030 BKN087 08/03 A3028 RMK SC1AC7 SLP255

CYQB;2008-10-05 15:00;CYQB 051500Z 24007KT 30SM FEW030 BKN090 09/04 A3028 RMK SC1AC6 SLP256

CYQB;2008-10-05 16:00;CYQB 051600Z 23009KT 30SM FEW040 BKN090 10/04 A3027 RMK SC2AC3 SLP254

CYQB;2008-10-05 17:00;CYQB 051700Z 23009KT 30SM FEW040 BKN090 BKN140 09/04 A3025 RMK SC2AC3AC2 SLP248

CYQB;2008-10-05 18:00;CYQB 051800Z 22011KT 30SM FEW040 BKN100 BKN150 10/03 A3025 RMK SC2AC5AC1 VCSH SLP246

CYQB;2008-10-05 19:00;CYQB 051900Z 24008KT 30SM FEW040 BKN100 BKN200 11/04 A3024 RMK SC2AC2CI1 VCSH SLP244

CYQB;2008-10-05 20:00;CYQB 052000Z 21006KT 30SM SCT050TCU BKN140 BKN200 10/04 A3024 RMK TCU3AC2CI1 VCSH SLP243

CYQB;2008-10-05 20:30;CYQB 052030Z 22004KT 30SM -SHRA SCT037TCU BKN100 BKN200 10/ RMK TCU4AC2CI1

CYQB;2008-10-05 21:00;CYQB 052100Z 02006G16KT 6SM -SHRA BKN030TCU BKN120 07/04 A3027 RMK TCU6AC1 VIS NE 11/2 SLP253

CYQB;2008-10-05 21:40;CYQB 052140Z 08004KT 10SM SCT040 BKN070 BKN140 07/ RMK SC3AC2AC1

CYQB;2008-10-05 22:00;CYQB 052200Z 36002KT 15SM FEW040 BKN080 BKN140 07/05 A3026 RMK SC2AC4AC1 SLP251

CYQB;2008-10-05 23:00;CYQB 052300Z 32002KT 15SM BKN080 07/06 A3027 RMK AC6 SLP253

CYQB;2008-10-06 00:00;CYQB 060000Z 34002KT 15SM BKN075 OVC100 06/06 A3027 RMK AC5AC2 SLP253

CYQB;2008-10-06 01:00;CYQB 060100Z 00000KT 15SM BKN090 06/05 A3028 RMK AC6 SLP255

CYQB;2008-10-06 02:00;CYQB 060200Z 32005KT 15SM BKN100 05/04 A3029 RMK AC6 SLP259

CYQB;2008-10-06 03:00;CYQB 060300Z 36004KT 15SM BKN100 05/04 A3029 RMK AC6 SLP259

CYQB;2008-10-06 04:00;CYQB 060400Z 35004KT 15SM BKN100 05/03 A3029 RMK AC7 SLP259

CYQB;2008-10-06 05:00;CYQB 060500Z 00000KT 15SM FEW100 02/02 A3028 RMK AC2 SLP258

CYQB;2008-10-06 06:00;CYQB 060600Z 34006KT 15SM SKC 04/02 A3029 RMK SLP261

CYQB;2008-10-06 07:00;CYQB 060700Z 04002KT 15SM FEW100 02/01 A3030 RMK AC1 SLP263

CYQB;2008-10-06 08:00;CYQB 060800Z 35002KT 15SM FEW070 02/01 A3030 RMK AC2 SLP263

CYQB;2008-10-06 09:00;CYQB 060900Z 00000KT 15SM FEW070 00/00 A3030 RMK AC2 SLP265

CYQB;2008-10-06 10:00;CYQB 061000Z 32003KT 15SM FEW075 00/M01 A3031 RMK AC2 SLP266

CYQB;2008-10-06 11:00;CYQB 061100Z 00000KT 15SM FEW060 01/M00 A3032 RMK SC2 SLP270

CYQB;2008-10-06 12:00;CYQB 061200Z 00000KT 15SM FEW060 01/00 A3032 RMK SC1 SLP271

CYQB;2008-10-06 13:00;CYQB 061300Z 18003KT 15SM FEW060 05/03 A3032 RMK SC1 SLP271

CYQB;2008-10-06 14:00;CYQB 061400Z 32009KT 15SM SCT050 08/02 A3032 RMK SC2 SLP270

CYQB;2008-10-06 15:00;CYQB 061500Z 33009KT 15SM BKN044 08/01 A3032 RMK SC7 SLP270

CYQB;2008-10-06 16:00;CYQB 061600Z 31010G15KT 15SM BKN046 08/01 A3031 RMK SC6 SLP268

CYQB;2008-10-06 17:00;CYQB 061700Z 34008G15KT 25SM BKN048 10/M00 A3030 RMK SC5 SLP264

CYQB;2008-10-06 18:00;CYQB 061800Z 30009G15KT 15SM SCT048 10/01 A3029 RMK SC4 SLP259

CYQB;2008-10-06 19:00;CYQB 061900Z 32008KT 15SM SCT050 10/01 A3028 RMK SC4 SLP256

CYQB;2008-10-06 20:00;CYQB 062000Z 33008G15KT 40SM SCT050 12/01 A3028 RMK SC3 SLP257

CYQB;2008-10-06 21:00;CYQB 062100Z 31010KT 40SM FEW050 FEW200 11/01 A3029 RMK SC2CI1 SLP259

CYQB;2008-10-06 22:00;CYQB 062200Z 30007KT 15SM FEW050 09/00 A3030 RMK SC1 SLP262

CYQB;2008-10-06 23:00;CYQB 062300Z 31008KT 15SM SKC 08/M00 A3030 RMK SLP262

CYQB;2008-10-07 00:00;CYQB 070000Z 27007KT 15SM FEW050 07/M01 A3030 RMK SC2 SLP264

CYQB;2008-10-07 01:00;CYQB 070100Z 28005KT 15SM FEW050 FEW090 04/M00 A3030 RMK SC2AC1 SLP265

CYQB;2008-10-07 02:00;CYQB 070200Z 27005KT 15SM FEW050 04/M00 A3030 RMK SC1 SLP264

CYQB;2008-10-07 03:00;CYQB 070300Z 23005KT 15SM SKC 03/M01 A3030 RMK SLP263

CYQB;2008-10-07 04:00;CYQB 070400Z 23008KT 15SM FEW090 04/M01 A3030 RMK AC2 SLP262

CYQB;2008-10-07 05:00;CYQB 070500Z 27007KT 15SM SCT090 04/M00 A3030 RMK AC3 SLP262

CYQB;2008-10-07 06:00;CYQB 070600Z 26007KT 15SM FEW090 05/01 A3029 RMK AC2 SLP260

CYQB;2008-10-07 07:00;CYQB 070700Z 26007KT 15SM FEW090 03/M00 A3028 RMK AC2 SLP258

CYQB;2008-10-07 08:00;CYQB 070800Z 27007KT 15SM SKC 01/M01 A3027 RMK SLP254

CYQB;2008-10-07 09:00;CYQB 070900Z 27008KT 15SM SKC 00/M02 A3029 RMK SLP261

CYQB;2008-10-07 10:00;CYQB 071000Z 28008KT 15SM FEW090 01/M01 A3030 RMK AC1 SLP262

CYQB;2008-10-07 11:00;CYQB 071100Z 30009KT 30SM FEW090 02/M00 A3030 RMK AC1 SLP265

CYQB;2008-10-07 12:00;CYQB 071200Z 33003KT 30SM FEW090 04/00 A3032 RMK AC1 SLP270

CYQB;2008-10-07 13:00;CYQB 071300Z 27009KT 30SM FEW090 FEW180 06/01 A3032 RMK AC1AC1 ACSL NNE SLP270

CYQB;2008-10-07 14:00;CYQB 071400Z 25012KT 30SM FEW090 FEW180 BKN300 08/01 A3031 RMK AC1AC1CI1 ACSL NNE SLP266

CYQB;2008-10-07 15:00;CYQB 071500Z 23014KT 30SM FEW090 FEW180 BKN300 09/02 A3030 RMK AC1AC1CI1 ACSL NE SLP262

CYQB;2008-10-07 16:00;CYQB 071600Z 23014G21KT 30SM FEW090 FEW180 SCT300 10/03 A3028 RMK AC1AC1CI2 ACSL DIST NE SLP257

CYQB;2008-10-07 17:00;CYQB 071700Z 23015G20KT 30SM FEW090 FEW200 SCT300 12/03 A3024 RMK AC1CI2CI0 SLP244

CYQB;2008-10-07 18:00;CYQB 071800Z 22013G19KT 30SM FEW090 FEW300 14/03 A3020 RMK AC1CI1 SLP230

CYQB;2008-10-07 19:00;CYQB 071900Z 29012G19KT 30SM FEW090 16/M03 A3019 RMK AC1 SLP226

CYQB;2008-10-07 20:00;CYQB 072000Z 30011KT 30SM FEW090 16/M02 A3018 RMK AC1 SLP221

CYQB;2008-10-07 21:00;CYQB 072100Z 27012G17KT 30SM SKC 14/M01 A3017 RMK SLP219

CYQB;2008-10-07 22:00;CYQB 072200Z 27007KT 30SM SKC 12/M00 A3018 RMK SLP221

CYQB;2008-10-07 23:00;CYQB 072300Z 26008KT 30SM SKC 10/01 A3017 RMK SLP220

CYQB;2008-10-08 00:00;CYQB 080000Z 27009KT 15SM SKC 08/01 A3017 RMK SLP220

CYQB;2008-10-08 01:00;CYQB 080100Z 25008KT 15SM SKC 08/01 A3017 RMK SLP218

CYQB;2008-10-08 02:00;CYQB 080200Z 24011KT 15SM SKC 09/02 A3016 RMK SLP216

CYQB;2008-10-08 03:00;CYQB 080300Z 24011KT 15SM SKC 08/02 A3014 RMK SLP210

CYQB;2008-10-08 04:00;CYQB 080400Z 26011KT 15SM SKC 07/02 A3013 RMK SLP206

CYQB;2008-10-08 05:00;CYQB 080500Z 25012KT 15SM SKC 06/01 A3012 RMK SLP203

CYQB;2008-10-08 06:00;CYQB 080600Z 27008KT 15SM SKC 06/01 A3012 RMK SLP201

CYQB;2008-10-08 07:00;CYQB 080700Z 25008KT 15SM SKC 05/01 A3011 RMK SLP197

CYQB;2008-10-08 08:00;CYQB 080800Z 24009KT 15SM SKC 05/01 A3011 RMK SLP197

CYQB;2008-10-08 09:00;CYQB 080900Z 26011G16KT 15SM SKC 04/01 A3012 RMK SLP203

CYQB;2008-10-08 10:00;CYQB 081000Z 24011KT 15SM FEW100 FEW220 04/00 A3013 RMK AC1CI0 SLP206

CYQB;2008-10-08 11:00;CYQB 081100Z 24004KT 30SM FEW100 FEW220 04/01 A3014 RMK AC1CI0 SLP208

CYQB;2008-10-08 12:00;CYQB 081200Z 23010KT 30SM FEW220 05/01 A3014 RMK CI0 SLP208

CYQB;2008-10-08 13:00;CYQB 081300Z 25011KT 30SM FEW220 07/04 A3013 RMK CI1 SLP206

CYQB;2008-10-08 14:00;CYQB 081400Z 23009KT 30SM FEW220 09/05 A3012 RMK CI1 SLP201

CYQB;2008-10-08 15:00;CYQB 081500Z 20010KT 30SM SCT220 11/04 A3010 RMK CI1 OBS TAKEN +20 SLP195

CYQB;2008-10-08 16:00;CYQB 081600Z 24011KT 30SM BKN220 12/04 A3008 RMK CS1 SLP189

CYQB;2008-10-08 17:00;CYQB 081700Z 24011KT 30SM BKN220 14/05 A3005 RMK CI1 SLP177

CYQB;2008-10-08 18:00;CYQB 081800Z 25011KT 30SM OVC220 16/04 A3003 RMK CI1 SLP172

CYQB;2008-10-08 19:00;CYQB 081900Z 25011KT 30SM OVC220 15/02 A3001 RMK CI2 SLP164

CYQB;2008-10-08 20:00;CYQB 082000Z 26008KT 30SM FEW180 OVC220 15/03 A2999 RMK AC2CI2 SLP158

CYQB;2008-10-08 21:00;CYQB 082100Z 26004KT 30SM SCT180 OVC220 13/04 A2998 RMK AC3CI2 SLP154

CYQB;2008-10-08 22:00;CYQB 082200Z 23003KT 30SM SCT180 OVC220 12/04 A2997 RMK AC2CI2 SLP150

CYQB;2008-10-08 23:00;CYQB 082300Z 26002KT 15SM SCT180 OVC220 09/04 A2995 RMK AC3CI5 SLP145

CYQB;2008-10-09 00:00;CYQB 090000Z 35003KT 15SM FEW180 OVC220 08/04 A2993 RMK AC2CI6 SLP139

CYQB;2008-10-09 01:00;CYQB 090100Z 04005KT 15SM OVC180 09/04 A2991 RMK AC8 SLP132

CYQB;2008-10-09 02:00;CYQB 090200Z 04003KT 15SM OVC180 09/05 A2989 RMK AC8 SLP123

CYQB;2008-10-09 03:00;CYQB 090300Z 03005KT 15SM OVC170 09/05 A2986 RMK AC8 SLP114

CYQB;2008-10-09 04:00;CYQB 090400Z 01004KT 15SM OVC150 09/05 A2985 RMK AC8 SLP109

CYQB;2008-10-09 05:00;CYQB 090500Z 03003KT 15SM OVC140 09/05 A2982 RMK AC8 SLP099

CYQB;2008-10-09 06:00;CYQB 090600Z 02003KT 15SM OVC098 09/04 A2981 RMK AC8 SLP096

CYQB;2008-10-09 06:16;CYQB 090616Z 04002KT 15SM -RA BKN070 OVC093 09/ RMK AC5AC3

CYQB;2008-10-09 07:00;CYQB 090700Z 04003KT 15SM OVC092 09/05 A2979 RMK AC8 SLP088

CYQB;2008-10-09 07:29;CYQB 090729Z 00000KT 10SM -RA BKN061 OVC086 09/ RMK SC3AC5 -RA INTMT

CYQB;2008-10-09 08:00;CYQB 090800Z 34002KT 8SM -RA OVC082 08/06 A2978 RMK AC8 SLP084

CYQB;2008-10-09 09:00;CYQB 090900Z 02002KT 6SM -RA BR OVC024 08/07 A2975 RMK SC8 SLP076

CYQB;2008-10-09 10:00;CYQB 091000Z 01002KT 6SM -RA BR OVC016 08/07 A2973 RMK SC8 SLP068

CYQB;2008-10-09 11:00;CYQB 091100Z 05005KT 1SM R06/P6000FT/N -DZ BR OVC013 08/08 A2970 RMK FG2SC6 SLP060

CYQB;2008-10-09 12:00;CYQB 091200Z 06004KT 3/4SM R06/P6000FT/N -DZ BR OVC010 09/09 A2970 RMK FG4SF4 SLP058

CYQB;2008-10-09 13:00;CYQB 091300Z 06005KT 3/4SM R06/P6000FT/N -DZ BR OVC006 09/09 A2968 RMK FG4SF4 SLP054

CYQB;2008-10-09 14:00;CYQB 091400Z 06003KT 1SM R06/P6000FT/U -RA BR BKN002 OVC009 10/10 A2968 RMK FG1SF6SF1 SLP052

CYQB;2008-10-09 15:00;CYQB 091500Z 00000KT 1 1/4SM -RA BR BKN002 OVC007 10/10 A2968 RMK FG2SF6SF1 SLP051

CYQB;2008-10-09 16:00;CYQB 091600Z 24002KT 1 1/2SM -DZ BR BKN004 OVC007 11/11 A2967 RMK SF6SF2 SLP050

CYQB;2008-10-09 17:00;CYQB 091700Z 27010KT 3SM BR BKN008 OVC015 14/13 A2969 RMK SF6SC2 SLP055

CYQB;2008-10-09 17:30;CYQB 091730Z 26011KT 6SM BKN010 BKN020 14/ RMK SF5SC2

CYQB;2008-10-09 18:00;CYQB 091800Z 27008KT 15SM FEW010 SCT060 15/14 A2967 RMK SF2SC2 SLP050

CYQB;2008-10-09 19:00;CYQB 091900Z 27018G25KT 15SM FEW010 SCT060 17/10 A2967 RMK SF2SC2 SLP049

CYQB;2008-10-09 20:00;CYQB 092000Z 27013G18KT 15SM SCT020 BKN063 17/10 A2967 RMK CU3SC2 SLP050

CYQB;2008-10-09 21:00;CYQB 092100Z 30005KT 15SM FEW020 SCT050 BKN094 15/10 A2969 RMK CU2SC2AC1 DIST SH SLP054

CYQB;2008-10-09 21:42;CYQB 092142Z 30016G22KT 15SM -SHRAGR FEW020 SCT040CB BKN094 14/ RMK CU1CB3AC2 HAIL DIAM 25MM

CYQB;2008-10-09 22:00;CYQB 092200Z 28007KT 15SM FEW020 SCT040CB BKN100 13/09 A2971 RMK SC2CB1AC2 SLP063

CYQB;2008-10-09 23:00;CYQB 092300Z 23006KT 15SM FEW040 SCT090 12/08 A2973 RMK SC2AC2 SLP069

CYQB;2008-10-10 00:00;CYQB 100000Z 22006KT 15SM FEW090 SCT160 11/08 A2974 RMK AC2CC2 SLP074

CYQB;2008-10-10 01:00;CYQB 100100Z 31019G28KT 15SM FEW080 SCT140 12/09 A2975 RMK AC2AC2 SLP078

CYQB;2008-10-10 02:00;CYQB 100200Z 29004KT 15SM -SHRA BKN100 12/08 A2977 RMK AC6 SLP084

CYQB;2008-10-10 03:00;CYQB 100300Z 24008KT 15SM -SHRA BKN087 11/09 A2980 RMK AC7 SLP092

CYQB;2008-10-10 04:00;CYQB 100400Z 25008KT 15SM BKN120 10/09 A2981 RMK AC5 SLP095

CYQB;2008-10-10 05:00;CYQB 100500Z 24007KT 15SM FEW120 09/08 A2982 RMK AC2 SLP101

CYQB;2008-10-10 06:00;CYQB 100600Z 24007KT 15SM FEW120 09/08 A2984 RMK AC2 SLP105

CYQB;2008-10-10 07:00;CYQB 100700Z 24009KT 15SM FEW100 08/08 A2985 RMK AC2 SLP109

CYQB;2008-10-10 08:00;CYQB 100800Z 23008KT 15SM FEW100 08/07 A2988 RMK AC1 SLP118

CYQB;2008-10-10 09:00;CYQB 100900Z 23007KT 15SM FEW025 FEW110 08/07 A2989 RMK SC1AC1 SLP125

CYQB;2008-10-10 10:00;CYQB 101000Z 24009KT 15SM FEW025 BKN120 08/08 A2991 RMK SC2AC2 SLP131

CYQB;2008-10-10 11:00;CYQB 101100Z 25009KT 15SM FEW025 SCT120 08/07 A2994 RMK SC1SC3 SLP139

CYQB;2008-10-10 12:00;CYQB 101200Z 25010KT 15SM FEW025 FEW110 09/08 A2997 RMK SC1AC2 SLP150

CYQB;2008-10-10 13:00;CYQB 101300Z 25014KT 15SM SCT110 11/09 A3001 RMK AC4 SLP163

CYQB;2008-10-10 14:00;CYQB 101400Z 25012G17KT 15SM BKN036 13/09 A3003 RMK SC6 SLP170

CYQB;2008-10-10 15:00;CYQB 101500Z 28013G19KT 15SM BKN037 13/08 A3006 RMK SC7 SLP180

CYQB;2008-10-10 16:00;CYQB 101600Z 26017KT 15SM BKN045 14/07 A3007 RMK SC6 SLP185

CYQB;2008-10-10 17:00;CYQB 101700Z 27012G21KT 15SM BKN051 14/07 A3008 RMK SC7 SLP186

CYQB;2008-10-10 18:00;CYQB 101800Z 25011KT 15SM BKN045 14/07 A3008 RMK SC7 SLP188

CYQB;2008-10-10 19:00;CYQB 101900Z 27015KT 20SM FEW040 BKN061 14/07 A3010 RMK CU1SC6 SLP195

CYQB;2008-10-10 20:00;CYQB 102000Z 27018KT 15SM FEW035 BKN051 14/05 A3011 RMK CF1SC6 SLP199

CYQB;2008-10-10 21:00;CYQB 102100Z 27010G17KT 15SM BKN062 14/06 A3014 RMK SC5 SLP209

CYQB;2008-10-10 22:00;CYQB 102200Z 26008KT 20SM FEW030 BKN060 12/05 A3017 RMK CF1SC4 SLP219

CYQB;2008-10-10 23:00;CYQB 102300Z 25008KT 15SM FEW060 FEW090 11/05 A3020 RMK SC1AC2 SLP228

CYQB;2008-10-11 00:00;CYQB 110000Z 25008KT 15SM FEW060 FEW090 09/05 A3022 RMK SC1AC1 SLP234

CYQB;2008-10-11 01:00;CYQB 110100Z 27009KT 15SM SKC 08/05 A3023 RMK SLP240

CYQB;2008-10-11 02:00;CYQB 110200Z 27009KT 15SM SKC 06/04 A3025 RMK SLP245

CYQB;2008-10-11 03:00;CYQB 110300Z 29007KT 15SM SKC 06/04 A3027 RMK SLP251

CYQB;2008-10-11 04:00;CYQB 110400Z 27006KT 15SM FEW250 06/04 A3026 RMK CI0 SLP250

CYQB;2008-10-11 05:00;CYQB 110500Z CCA 19003KT 15SM FEW250 06/04 A3028 RMK CI1 SLP254

CYQB;2008-10-11 06:00;CYQB 110600Z 22004KT 15SM FEW250 06/04 A3029 RMK CI0 SLP260

CYQB;2008-10-11 07:00;CYQB 110700Z 22002KT 15SM SKC 05/04 A3030 RMK SLP261

CYQB;2008-10-11 08:00;CYQB 110800Z 28005KT 15SM SKC 04/03 A3032 RMK SLP269

CYQB;2008-10-11 09:00;CYQB 110900Z 28006KT 15SM SKC 03/02 A3034 RMK SLP276

CYQB;2008-10-11 10:00;CYQB 111000Z 28008KT 15SM FEW100 03/03 A3035 RMK AC1 SLP281

CYQB;2008-10-11 11:00;CYQB 111100Z 16002KT 30SM FEW100 03/02 A3038 RMK AC1 SLP290

CYQB;2008-10-11 12:00;CYQB 111200Z 32006KT 30SM FEW011 FEW100 04/03 A3040 RMK CF1AC1 SLP296

CYQB;2008-10-11 13:00;CYQB 111300Z 31007KT 30SM FEW015 FEW100 10/06 A3041 RMK CF1AC1 SLP301

CYQB;2008-10-11 14:00;CYQB 111400Z 31010KT 30SM FEW100 11/05 A3042 RMK AC1 SLP303

CYQB;2008-10-11 15:00;CYQB 111500Z 32008G16KT 30SM FEW030 13/04 A3042 RMK CU1 SLP303

CYQB;2008-10-11 16:00;CYQB 111600Z 34009G15KT 30SM FEW030 14/02 A3041 RMK SC2 SLP300

CYQB;2008-10-11 17:00;CYQB 111700Z 31011G16KT 30SM SCT040 14/03 A3040 RMK SC4 SLP297

CYQB;2008-10-11 18:00;CYQB 111800Z 34010G15KT 30SM SCT050 15/03 A3039 RMK SC4 SLP294

CYQB;2008-10-11 19:00;CYQB 111900Z 30010KT 30SM SCT050 15/03 A3039 RMK SC4 SLP292

CYQB;2008-10-11 20:00;CYQB 112000Z 32010G15KT 30SM FEW060 15/03 A3040 RMK SC2 SLP295

CYQB;2008-10-11 21:00;CYQB 112100Z 34008KT 30SM FEW060 15/03 A3041 RMK SC2 SLP300

CYQB;2008-10-11 22:00;CYQB 112200Z 34003KT 30SM FEW060 13/02 A3042 RMK SC1 SLP305

CYQB;2008-10-11 23:00;CYQB 112300Z 00000KT 15SM SKC 11/03 A3044 RMK SLP312

CYQB;2008-10-12 00:00;CYQB 120000Z 06003KT 15SM SKC 08/03 A3045 RMK SLP315

CYQB;2008-10-12 01:00;CYQB 120100Z 00000KT 15SM SKC 06/03 A3047 RMK SLP322

CYQB;2008-10-12 02:00;CYQB 120200Z 35002KT 15SM SKC 05/03 A3047 RMK SLP321

CYQB;2008-10-12 03:00;CYQB 120300Z 33005KT 15SM SKC 06/02 A3048 RMK SLP324

CYQB;2008-10-12 04:00;CYQB 120400Z 34009KT 15SM FEW100 06/03 A3048 RMK AC1 SLP325

CYQB;2008-10-12 05:00;CYQB 120500Z 01004KT 15SM FEW090 06/02 A3049 RMK AC1 SLP326

CYQB;2008-10-12 06:00;CYQB 120600Z 34002KT 15SM SKC 05/02 A3050 RMK SLP329

CYQB;2008-10-12 07:00;CYQB 120700Z 05002KT 15SM FEW090 FEW220 04/02 A3050 RMK AC1CI0 SLP329

CYQB;2008-10-12 08:00;CYQB 120800Z 36004KT 15SM FEW090 FEW220 04/02 A3050 RMK AC0CI0 SLP330

CYQB;2008-10-12 09:00;CYQB 120900Z 30003KT 15SM FEW090 02/01 A3051 RMK AC1 SLP333

CYQB;2008-10-12 10:00;CYQB 121000Z 31003KT 15SM FEW090 03/01 A3052 RMK AC1 SLP337

CYQB;2008-10-12 11:00;CYQB 121100Z 32005KT 15SM FEW013 SCT130 03/01 A3053 RMK CF1AC4 SLP342

CYQB;2008-10-12 12:00;CYQB 121200Z 29002KT 30SM FEW010 BKN088 BKN130 03/02 A3055 RMK CF1AC6AC1 SLP349

CYQB;2008-10-12 13:00;CYQB 121300Z 27005KT 30SM FEW010 SCT086 BKN110 06/04 A3054 RMK CF1AC3AC2 SLP344

CYQB;2008-10-12 14:00;CYQB 121400Z 26003KT 30SM SCT085 08/05 A3053 RMK AC3 SLP343

CYQB;2008-10-12 15:00;CYQB 121500Z 29003KT 30SM FEW100 SCT240 12/05 A3051 RMK AC1CI1 SLP335

CYQB;2008-10-12 16:00;CYQB 121600Z 22005KT 30SM FEW100 SCT200 14/06 A3050 RMK AC1CI1 SLP331

CYQB;2008-10-12 17:00;CYQB 121700Z 22010KT 30SM FEW100 SCT200 BKN280 13/06 A3047 RMK AC1CI2CI2 SLP322

CYQB;2008-10-12 18:00;CYQB 121800Z 23015KT 30SM FEW110 BKN200 13/06 A3047 RMK AC1CI5 SLP319

CYQB;2008-10-12 19:00;CYQB 121900Z 22014KT 30SM FEW110 BKN300 14/07 A3045 RMK AC2CI5 SLP315

CYQB;2008-10-12 20:00;CYQB 122000Z 23013G19KT 30SM BKN130 OVC200 14/07 A3044 RMK AC5CI3 SLP312

CYQB;2008-10-12 21:00;CYQB 122100Z 23009KT 15SM OVC120 13/07 A3044 RMK AC8 SLP309

CYQB;2008-10-12 22:00;CYQB 122200Z 25009KT 15SM OVC120 12/01 A3044 RMK AC8 SLP309

CYQB;2008-10-12 23:00;CYQB 122300Z 24008KT 15SM OVC120 12/07 A3043 RMK AC8 SLP307

CYQB;2008-10-13 00:00;CYQB 130000Z 22007KT 15SM FEW080 OVC120 12/06 A3043 RMK AC2AC6 SLP306

CYQB;2008-10-13 01:00;CYQB 130100Z 35005KT 15SM OVC075 12/06 A3042 RMK AC8 SLP305

CYQB;2008-10-13 02:00;CYQB 130200Z 23006KT 15SM -RA BKN082 OVC110 12/06 A3040 RMK AC5AC3 SLP298

CYQB;2008-10-13 03:00;CYQB 130300Z 22007KT 15SM -RA BKN075 OVC100 11/07 A3039 RMK AC6AC2 SLP292

CYQB;2008-10-13 04:00;CYQB 130400Z 23003KT 8SM -RA OVC045 10/08 A3038 RMK SC8 SLP289

CYQB;2008-10-13 05:00;CYQB 130500Z 24005KT 9SM -RA OVC035 10/09 A3036 RMK SC8 SLP284

CYQB;2008-10-13 06:00;CYQB 130600Z 21004KT 4SM -RA BR BKN025 OVC035 09/09 A3036 RMK SC6SC2 SLP282

CYQB;2008-10-13 07:00;CYQB 130700Z CCA 00000KT 5SM -RA BR BKN012 BKN020 OVC033 09/09 A3036 RMK SC5SC2SC2 SLP281

CYQB;2008-10-13 07:25;CYQB 130725Z 00000KT 5SM -RA BR SCT012 OVC031 09/ RMK SF3SC5

CYQB;2008-10-13 07:48;CYQB 130748Z 00000KT 4SM -RA BR OVC003 09/ RMK SF8

CYQB;2008-10-13 08:00;CYQB 130800Z 00000KT 5SM -RA BR OVC003 09/09 A3034 RMK SF8 SLP277

CYQB;2008-10-13 09:00;CYQB 130900Z CCA 00000KT 4SM -RA BR SCT003 OVC019 09/09 A3034 RMK SF4SC4 SLP277

CYQB;2008-10-13 10:00;CYQB 131000Z 00000KT 3SM -RA BR SCT003 BKN018 OVC059 09/09 A3035 RMK SF3SC4SC1 SLP278

CYQB;2008-10-13 10:29;CYQB 131029Z 04003KT 3SM -RA BR BKN003 OVC018 09/ RMK SF6SC2

CYQB;2008-10-13 11:00;CYQB 131100Z 06003KT 5SM -RA BR SCT003 BKN007 OVC018 10/09 A3036 RMK SF3SF2SC2 SLP281

CYQB;2008-10-13 11:32;CYQB 131132Z 10003KT 6SM -RA BR FEW003 FEW007 SCT018 OVC049 10/ RMK SF1SF2SC2SC4

CYQB;2008-10-13 12:00;CYQB 131200Z 05005KT 4SM -RA BR SCT003 BKN012 OVC050 10/09 A3036 RMK SF4SC2SC2 SLP282

CYQB;2008-10-13 12:50;CYQB 131250Z 06005KT 5SM BR BKN004 OVC012 10/ RMK SF7SC1 VIS NE 15

CYQB;2008-10-13 13:00;CYQB 131300Z 06006KT 5SM BR BKN004 OVC012 10/10 A3036 RMK SF7SC1 VIS NE 15 SLP283

CYQB;2008-10-13 14:00;CYQB 131400Z 07007KT 5SM BR OVC005 10/10 A3036 RMK SF8 VIS NE 15 SLP284

CYQB;2008-10-13 15:00;CYQB 131500Z 07007KT 5SM BR OVC005 10/10 A3036 RMK SF8 SLP283

CYQB;2008-10-13 15:39;CYQB 131539Z 08005KT 5SM BR SCT005 OVC012 11/ RMK SF3SC4 VIS NE 15

CYQB;2008-10-13 16:00;CYQB 131600Z 07006KT 15SM FEW005 BKN018 BKN180 12/10 A3036 RMK SF1SC4AC1 SLP283

CYQB;2008-10-13 17:00;CYQB 131700Z 07007KT 15SM FEW005 FEW015 BKN100 12/09 A3035 RMK SF1SC1AC4 SLP278

CYQB;2008-10-13 18:00;CYQB 131800Z 06007KT 15SM SCT018 BKN100 BKN160 13/09 A3033 RMK SC3AC2AC1 SLP273

CYQB;2008-10-13 19:00;CYQB 131900Z 09007KT 15SM BKN019 BKN100 12/09 A3033 RMK SC6AC1 SLP272

CYQB;2008-10-13 20:00;CYQB 132000Z 08007KT 30SM BKN020 BKN040 BKN100 12/09 A3032 RMK SC5SC1AC0 CIG HIER E SLP269

CYQB;2008-10-13 21:00;CYQB 132100Z 09006KT 30SM SCT020 BKN030 BKN100 11/08 A3031 RMK SC4SC2AC1 OBS TAKEN +9 SLP267

CYQB;2008-10-13 22:00;CYQB 132200Z 09009KT 15SM FEW030 OVC052 11/08 A3031 RMK SC2SC5 SLP266

CYQB;2008-10-13 23:00;CYQB 132300Z 08007KT 15SM OVC052 11/08 A3032 RMK SC8 SLP269

CYQB;2008-10-14 00:00;CYQB 140000Z 09006KT 15SM BKN045 OVC070 11/07 A3031 RMK SC6AC2 SLP267

CYQB;2008-10-14 01:00;CYQB 140100Z 07007KT 15SM OVC041 11/08 A3031 RMK SC8 SLP265

CYQB;2008-10-14 02:00;CYQB 140200Z 07006KT 15SM SCT033 OVC040 10/08 A3030 RMK SC3SC5 SLP263

CYQB;2008-10-14 03:00;CYQB 140300Z 08004KT 15SM BKN032 OVC079 10/08 A3028 RMK SC5AC2 MOON DIMLY VISBL SLP254

CYQB;2008-10-14 04:00;CYQB 140400Z 06007KT 15SM BKN036 OVC079 10/08 A3025 RMK SC6AC2 SLP247

CYQB;2008-10-14 05:00;CYQB 140500Z 07007KT 15SM SCT023 OVC036 11/08 A3024 RMK SC4SC4 SLP243

CYQB;2008-10-14 06:00;CYQB 140600Z 07006KT 15SM OVC030 10/08 A3022 RMK SC8 SLP237

CYQB;2008-10-14 07:00;CYQB 140700Z 07004KT 15SM OVC033 10/09 A3020 RMK SC8 SLP229

CYQB;2008-10-14 08:00;CYQB 140800Z 05004KT 15SM BKN038 BKN070 10/09 A3017 RMK SC6AC1 SLP218

CYQB;2008-10-14 09:00;CYQB 140900Z 02003KT 15SM FEW026 OVC041 10/09 A3015 RMK SC1SC7 SLP211

CYQB;2008-10-14 10:00;CYQB 141000Z 02002KT 15SM FEW021 BKN044 BKN200 10/09 A3014 RMK SC1SC6CI1 SLP208

CYQB;2008-10-14 11:00;CYQB 141100Z 06003KT 12SM FEW044 OVC064 11/09 A3011 RMK SC2SC6 SLP199

CYQB;2008-10-14 12:00;CYQB 141200Z 02004KT 12SM BKN069 11/10 A3010 RMK SC7 SLP194

CYQB;2008-10-14 13:00;CYQB 141300Z 02003KT 15SM FEW070 SCT220 12/10 A3008 RMK AC1CI1 SLP186

CYQB;2008-10-14 14:00;CYQB 141400Z 04003KT 15SM FEW070 BKN220 14/10 A3003 RMK AC1CI0 SLP170

CYQB;2008-10-14 15:00;CYQB 141500Z 00000KT 20SM FEW050 FEW090 SCT250 16/11 A2998 RMK SC1AC1CI1 SLP154

CYQB;2008-10-14 16:00;CYQB 141600Z 00000KT 20SM FEW050 OVC088 17/12 A2993 RMK SC1AC8 SLP138

CYQB;2008-10-14 17:00;CYQB 141700Z 00000KT 20SM OVC088 17/13 A2988 RMK AC8 SLP121

CYQB;2008-10-14 18:00;CYQB 141800Z 10005KT 15SM FEW080 FEW250 19/13 A2980 RMK AC2CI1 PRESFR SLP092

CYQB;2008-10-14 19:00;CYQB 141900Z 20006KT 15SM -SHRA FEW058 OVC085 20/12 A2975 RMK SC1AS7 SLP075

CYQB;2008-10-14 20:00;CYQB 142000Z 25018G25KT 5SM SHRA BKN034 OVC085 17/14 A2975 RMK SC6AC2 CVCTV CLD EMBD SLP076

CYQB;2008-10-14 20:22;CYQB 142022Z 24019G27KT 2SM -SHRA BR SCT015 OVC042 16/ RERA RMK SC2SC6

CYQB;2008-10-14 21:00;CYQB 142100Z 25026G31KT 5SM -SHRA BR OVC023 16/15 A2978 RERA RMK SC8 VIS N LWR SLP086

CYQB;2008-10-14 21:38;CYQB 142138Z 29023G37KT 15SM FEW010 SCT040 BKN086 15/ RMK SF1SC3AC2

CYQB;2008-10-14 22:00;CYQB 142200Z 28012G20KT 15SM SCT040 14/09 A2986 RMK SC4 PRESRR SLP113

CYQB;2008-10-14 23:00;CYQB 142300Z CCA 27009G20KT 15SM FEW040 13/08 A2994 RMK SC2 PRESRR SLP138

CYQB;2008-10-15 00:00;CYQB 150000Z 28009G16KT 15SM FEW040 11/07 A2998 RMK SC2 SLP155

CYQB;2008-10-15 01:00;CYQB 150100Z 27013KT 15SM FEW040 10/05 A3003 RMK SC1 SLP171

CYQB;2008-10-15 02:00;CYQB 150200Z 30008G16KT 15SM FEW035 09/04 A3005 RMK SC2 SLP178

CYQB;2008-10-15 03:00;CYQB 150300Z 26009KT 15SM SCT035 07/04 A3007 RMK SC2 SLP184

CYQB;2008-10-15 04:00;CYQB 150400Z 24009KT 15SM FEW037 06/04 A3007 RMK SC2 SLP184

CYQB;2008-10-15 05:00;CYQB 150500Z 32005KT 15SM FEW037 07/04 A3008 RMK SC1 SLP186

CYQB;2008-10-15 06:00;CYQB 150600Z 23005KT 15SM SCT035 06/03 A3006 RMK SC2 SLP182

CYQB;2008-10-15 07:00;CYQB 150700Z 24007KT 15SM BKN034 05/03 A3008 RMK SC3 SLP188

CYQB;2008-10-15 08:00;CYQB 150800Z 26005KT 15SM BKN032 05/03 A3009 RMK SC6 SLP190

CYQB;2008-10-15 09:00;CYQB 150900Z 27007KT 15SM BKN033 06/04 A3012 RMK SC5 SLP200

CYQB;2008-10-15 10:00;CYQB 151000Z 27005KT 15SM FEW033 05/03 A3013 RMK SC2 SLP203

CYQB;2008-10-15 11:00;CYQB 151100Z 29004KT 30SM FEW033 BKN140 BKN250 05/03 A3014 RMK SC2AC3CI1 SLP209

CYQB;2008-10-15 12:00;CYQB 151200Z 27005KT 30SM FEW035 FEW100 BKN160 BKN250 06/04 A3017 RMK SC1AC2AC3CI1 SLP217

CYQB;2008-10-15 13:00;CYQB 151300Z 30005KT 30SM FEW040 FEW100 BKN180 OVC250 09/04 A3016 RMK SC1AC2AC3CI2 SLP216

CYQB;2008-10-15 14:00;CYQB 151400Z 00000KT 30SM FEW035 BKN180 OVC250 09/03 A3014 RMK SC2AC4CI1 SLP210

CYQB;2008-10-15 15:00;CYQB 151500Z 24007KT 30SM SCT030 BKN180 BKN230 11/04 A3014 RMK SC3AC2CI0 SLP209

CYQB;2008-10-15 16:00;CYQB 151600Z 24012KT 30SM SCT033 OVC230 10/04 A3014 RMK SC4CI1 SLP210

CYQB;2008-10-15 17:00;CYQB 151700Z 21010KT 30SM SCT033 OVC230 10/04 A3012 RMK SC4CI3 SLP202

CYQB;2008-10-15 18:00;CYQB 151800Z 19012KT 30SM FEW035 BKN230 11/05 A3009 RMK SC1CS2 CC ASOCTD SLP191

CYQB;2008-10-15 19:00;CYQB 151900Z 23008KT 30SM FEW030 SCT180 BKN230 11/04 A3008 RMK SC2AC2CI0 SLP190

CYQB;2008-10-15 20:00;CYQB 152000Z 25009KT 30SM FEW030 FEW180 BKN230 10/04 A3007 RMK SC1AC2CI1 SLP186

CYQB;2008-10-15 21:00;CYQB 152100Z 23007KT 30SM FEW030 SCT120 BKN180 10/04 A3005 RMK SC1AC3AC2 SLP179

CYQB;2008-10-15 22:00;CYQB 152200Z 27004KT 30SM FEW030 BKN100 BKN180 09/05 A3005 RMK SC1AC5AC2 SLP179

CYQB;2008-10-15 23:00;CYQB 152300Z 24005KT 15SM OVC100 09/05 A3006 RMK AC8 SLP183

CYQB;2008-10-16 00:00;CYQB 160000Z 23003KT 15SM BKN100 OVC130 09/05 A3005 RMK AC5AC3 SLP178

CYQB;2008-10-16 01:00;CYQB 160100Z 22002KT 15SM FEW100 SCT120 OVC190 08/05 A3003 RMK AC1AC3AC4 SLP171

CYQB;2008-10-16 02:00;CYQB 160200Z 00000KT 15SM BKN140 08/05 A3001 RMK AC7 SLP166

CYQB;2008-10-16 03:00;CYQB 160300Z 00000KT 15SM BKN110 08/06 A3000 RMK AC7 SLP161

CYQB;2008-10-16 04:00;CYQB 160400Z 00000KT 15SM -SHRA BKN095 BKN120 08/05 A2998 RMK AC6AC2 SLP155

CYQB;2008-10-16 05:00;CYQB 160500Z 00000KT 15SM -SHRA OVC100 08/06 A2996 RMK AC8 SLP148

CYQB;2008-10-16 06:00;CYQB 160600Z 05002KT 15SM -SHRA BKN072 OVC110 08/06 A2995 RMK AC6AC2 SLP143

CYQB;2008-10-16 07:00;CYQB 160700Z 02004KT 15SM -SHRA BKN064 OVC100 08/07 A2994 RMK SC6AC2 SLP139

CYQB;2008-10-16 08:00;CYQB 160800Z 02002KT 15SM -SHRA BKN042 OVC065 08/07 A2992 RMK SC5SC3 SLP135

CYQB;2008-10-16 09:00;CYQB 160900Z 01005KT 15SM SCT042 OVC061 08/07 A2990 RMK SC3SC5 SLP128

CYQB;2008-10-16 10:00;CYQB 161000Z 03003KT 15SM -SHRA SCT049 OVC063 08/07 A2989 RMK SC3SC5 SLP124

CYQB;2008-10-16 10:23;CYQB 161023Z 01002KT 15SM OVC057 08/ RMK SC8

CYQB;2008-10-16 10:40;CYQB 161040Z 36002KT 15SM -SHRA BKN057 OVC077 08/ RMK SC6AC2

CYQB;2008-10-16 11:00;CYQB 161100Z 34002KT 15SM -SHRA BKN058 OVC075 08/07 A2989 RMK SC6AC2 SLP125

CYQB;2008-10-16 12:00;CYQB 161200Z 25002KT 10SM -SHRA BKN049 OVC065 08/07 A2991 RMK SC5SC3 VSBY NE 30 SLP129

CYQB;2008-10-16 13:00;CYQB 161300Z 36003KT 10SM -SHRA FEW025 BKN042 OVC075 08/08 A2989 RMK SC1SC6AC2 VSBY NE 30 SLP123

CYQB;2008-10-16 14:00;CYQB 161400Z CCA 36003KT 10SM -SHRA FEW025 BKN042 OVC075 08/08 A2989 RMK SC1SC6AC2 VIS NE 30 SLP123

CYQB;2008-10-16 14:20;CYQB 161420Z 00000KT 5SM -DZ BR SCT006 OVC024 09/ RMK SF3SC5 VIS NE 10

CYQB;2008-10-16 14:52;CYQB 161452Z 34002KT 2SM -DZ BR BKN006 OVC015 09/ RMK SF6SC2

CYQB;2008-10-16 15:00;CYQB 161500Z 34002KT 2SM -DZ BR BKN007 OVC016 09/08 A2987 RMK SF6SC2 SLP117

CYQB;2008-10-16 16:00;CYQB 161600Z 00000KT 2SM -DZ BR BKN005 OVC026 09/08 A2985 RMK SF6SC2 VIS NE 5 SLP111

CYQB;2008-10-16 16:40;CYQB 161640Z 24002KT 6SM BR FEW005 BKN008 OVC030 09/ RMK SF2SF4SC2

CYQB;2008-10-16 17:00;CYQB 161700Z 00000KT 12SM BKN008 OVC018 10/09 A2983 RMK SF5SC3 SLP105

CYQB;2008-10-16 18:00;CYQB 161800Z 22005KT 15SM FEW005 BKN008 OVC030 10/09 A2984 RMK SF1SF6SC2 CIG VRB 6-10 SLP106

CYQB;2008-10-16 18:32;CYQB 161832Z 24005KT 12SM FEW006 SCT013 BKN055 10/ RMK SF1SF4SC3

CYQB;2008-10-16 19:00;CYQB 161900Z 21005KT 8SM BKN011 BKN055 OVC090 11/09 A2984 RMK SF5SC2AC1 CIG VRB 7-14 SLP108

CYQB;2008-10-16 20:00;CYQB 162000Z 23009KT 12SM BKN011 BKN070 11/10 A2985 RMK SF6AC2 SLP111

CYQB;2008-10-16 21:00;CYQB 162100Z 23004KT 12SM FEW012 BKN063 11/09 A2986 RMK SF2SC6 SLP115

CYQB;2008-10-16 22:00;CYQB 162200Z 23006KT 12SM FEW012 SCT043 BKN070 10/09 A2988 RMK SF1SC2AC2 SLP120

CYQB;2008-10-16 23:00;CYQB 162300Z 26008KT 12SM FEW012 FEW050 BKN064 10/09 A2991 RMK SF1SC1SC3 SLP130

CYQB;2008-10-17 00:00;CYQB 170000Z 31006KT 15SM BKN069 11/06 A2992 RMK AC7 SLP135

CYQB;2008-10-17 01:00;CYQB 170100Z 31006KT 15SM FEW068 09/05 A2994 RMK AC2 SLP140

CYQB;2008-10-17 02:00;CYQB 170200Z 34004KT 15SM FEW068 09/03 A2997 RMK AC2 SLP150

CYQB;2008-10-17 03:00;CYQB 170300Z 30008KT 15SM SCT040 BKN068 08/03 A2998 RMK SC4AC1 SLP155

CYQB;2008-10-17 04:00;CYQB 170400Z 31003KT 15SM SCT040 08/02 A2999 RMK SC4 SLP158

CYQB;2008-10-17 05:00;CYQB 170500Z 27002KT 15SM SCT040 07/02 A3000 RMK SC3 SLP160

CYQB;2008-10-17 06:00;CYQB 170600Z 31004KT 15SM FEW038 06/00 A3001 RMK SC2 SLP164

CYQB;2008-10-17 07:00;CYQB 170700Z 31003KT 15SM FEW035 FEW220 06/00 A3002 RMK SC1CI1 SLP167

CYQB;2008-10-17 08:00;CYQB 170800Z 35008KT 15SM FEW035 BKN230 06/M01 A3004 RMK SC1CI1 SLP174

CYQB;2008-10-17 09:00;CYQB 170900Z 28005KT 15SM FEW035 FEW230 02/M01 A3006 RMK SC1CI0 SLP181

CYQB;2008-10-17 10:00;CYQB 171000Z 25005KT 15SM FEW035 FEW230 02/M01 A3008 RMK SC1CI1 SLP187

CYQB;2008-10-17 11:00;CYQB 171100Z 24005KT 15SM FEW035 FEW230 01/M01 A3010 RMK SC1CI1 SLP195

CYQB;2008-10-17 12:00;CYQB 171200Z 25004KT 30SM FEW035 FEW230 02/M01 A3012 RMK SC1CI1 SLP203

CYQB;2008-10-17 13:00;CYQB 171300Z 29008KT 30SM FEW035 05/M01 A3014 RMK SC1 SLP208

CYQB;2008-10-17 14:00;CYQB 171400Z 36006KT 30SM FEW035 06/M02 A3014 RMK SC1 SLP208

CYQB;2008-10-17 15:00;CYQB 171500Z 35012G17KT 30SM FEW035 FEW230 07/M03 A3014 RMK SC1CI0 SLP207

CYQB;2008-10-17 16:00;CYQB 171600Z 32009G15KT 30SM FEW035 FEW230 08/M02 A3013 RMK SC1CI1 SLP206

CYQB;2008-10-17 17:00;CYQB 171700Z 35010G17KT 30SM FEW048 FEW230 08/M02 A3012 RMK SC1CI2 SLP203

CYQB;2008-10-17 18:00;CYQB 171800Z 35010G15KT 30SM FEW050 FEW230 10/M03 A3012 RMK SC1CI1 SLP202

CYQB;2008-10-17 19:00;CYQB 171900Z 31011KT 30SM FEW060 SCT230 09/M02 A3012 RMK SC1CI1 SLP202

CYQB;2008-10-17 20:00;CYQB 172000Z 32012G18KT 30SM FEW060 FEW230 10/M03 A3012 RMK SC1CI1 SLP201

CYQB;2008-10-17 21:00;CYQB 172100Z 32013KT 30SM FEW060 FEW230 09/M03 A3012 RMK SC1CI1 SLP202

CYQB;2008-10-17 22:00;CYQB 172200Z 33010KT 15SM FEW080 FEW230 07/M03 A3014 RMK AC1CI1 SLP208

CYQB;2008-10-17 23:00;CYQB 172300Z 23005KT 15SM FEW220 05/M04 A3015 RMK CI1 SLP214

CYQB;2008-10-18 00:00;CYQB 180000Z 23007KT 15SM FEW220 03/M03 A3017 RMK CI1 SLP218

CYQB;2008-10-18 01:00;CYQB 180100Z 25008KT 15SM FEW220 02/M03 A3018 RMK CI1 SLP222

CYQB;2008-10-18 02:00;CYQB 180200Z 26008KT 15SM FEW220 02/M02 A3018 RMK CI1 SLP224

CYQB;2008-10-18 03:00;CYQB 180300Z 27008KT 15SM SKC 01/M02 A3019 RMK SLP226

CYQB;2008-10-18 04:00;CYQB 180400Z 24008KT 15SM FEW220 02/M02 A3020 RMK CI0 SLP229

CYQB;2008-10-18 05:00;CYQB 180500Z 29006KT 15SM FEW220 M01/M03 A3020 RMK CI0 SLP231

CYQB;2008-10-18 06:00;CYQB 180600Z 00000KT 15SM SCT250 M01/M03 A3021 RMK CI0 SLP233

CYQB;2008-10-18 07:00;CYQB 180700Z 34005KT 15SM BKN210 M01/M02 A3021 RMK CI0 SLP233

CYQB;2008-10-18 08:00;CYQB 180800Z 36006KT 15SM BKN210 01/M02 A3022 RMK CI0 SLP235

CYQB;2008-10-18 09:00;CYQB 180900Z 34002KT 15SM SKC M00/M02 A3022 RMK SLP238

CYQB;2008-10-18 10:00;CYQB 181000Z 35002KT 15SM SKC M00/M02 A3024 RMK SLP243

CYQB;2008-10-18 11:00;CYQB 181100Z 34006KT 30SM FEW100 M00/M02 A3025 RMK AC1 SLP247

CYQB;2008-10-18 12:00;CYQB 181200Z 00000KT 30SM FEW100 01/M02 A3028 RMK AC1 SLP256

CYQB;2008-10-18 13:00;CYQB 181300Z 00000KT 30SM FEW050 FEW100 03/M00 A3028 RMK SC1AC1 SLP259

CYQB;2008-10-18 14:00;CYQB 181400Z 34002KT 30SM FEW050 FEW160 05/M01 A3029 RMK SC1AC1 SLP262

CYQB;2008-10-18 15:00;CYQB 181500Z 35009KT 30SM BKN050 BKN160 06/M03 A3030 RMK SC5AC1 SLP262

CYQB;2008-10-18 16:00;CYQB 181600Z 33005KT 30SM BKN048 07/M04 A3030 RMK SC7 SLP264

CYQB;2008-10-18 17:00;CYQB 181700Z 33008KT 30SM BKN054 07/M04 A3030 RMK SC7 SLP264

CYQB;2008-10-18 18:00;CYQB 181800Z 33006KT 30SM BKN052 07/M04 A3030 RMK SC7 SLP265

CYQB;2008-10-18 19:00;CYQB 181900Z 32005KT 30SM BKN053 08/M04 A3030 RMK SC7 SLP264

CYQB;2008-10-18 20:00;CYQB 182000Z 33007KT 30SM SCT053 08/M04 A3030 RMK SC3 SLP266

CYQB;2008-10-18 21:00;CYQB 182100Z 34005KT 30SM FEW053 07/M05 A3031 RMK SC2 SLP269

CYQB;2008-10-18 22:00;CYQB 182200Z 36004KT 30SM BKN058 07/M04 A3033 RMK SC5 SLP276

CYQB;2008-10-18 23:00;CYQB 182300Z 35004KT 15SM FEW058 05/M05 A3035 RMK SC1 SLP282

CYQB;2008-10-19 00:00;CYQB 190000Z 32006KT 15SM SKC 02/M04 A3037 RMK SLP287

CYQB;2008-10-19 01:00;CYQB 190100Z 33005KT 15SM SKC 02/M04 A3038 RMK SLP292

CYQB;2008-10-19 01:47;CYQB 190147Z 35002KT 15SM SKC 01/

CYQB;2008-10-19 02:00;CYQB 190200Z 32003KT 15SM SKC 00/M05 A3039 RMK SLP294

CYQB;2008-10-19 03:00;CYQB 190300Z 02006KT 15SM SKC 01/M05 A3039 RMK SLP294

CYQB;2008-10-19 04:00;CYQB 190400Z 36003KT 15SM SKC 01/M05 A3041 RMK SLP300

CYQB;2008-10-19 05:00;CYQB 190500Z 36004KT 15SM SKC 00/M05 A3042 RMK SLP304

CYQB;2008-10-19 06:00;CYQB 190600Z 36002KT 15SM SKC M01/M05 A3043 RMK SLP307

CYQB;2008-10-19 07:00;CYQB 190700Z 35002KT 15SM SKC M01/M04 A3044 RMK SLP311

CYQB;2008-10-19 08:00;CYQB 190800Z 02004KT 15SM SKC M01/M05 A3043 RMK SLP309

CYQB;2008-10-19 09:00;CYQB 190900Z 36004KT 15SM SKC M01/M05 A3044 RMK SLP312

CYQB;2008-10-19 10:00;CYQB 191000Z 34004KT 15SM SKC M01/M05 A3046 RMK SLP318

CYQB;2008-10-19 11:00;CYQB 191100Z 02002KT 20SM SKC M02/M05 A3047 RMK SLP323

CYQB;2008-10-19 12:00;CYQB 191200Z 02002KT 20SM SKC M01/M04 A3050 RMK SLP333

CYQB;2008-10-19 13:00;CYQB 191300Z 00000KT 20SM SKC 01/M03 A3050 RMK SLP334

CYQB;2008-10-19 14:00;CYQB 191400Z 23003KT 20SM FEW015 03/M01 A3051 RMK CU1 SLP335

CYQB;2008-10-19 15:00;CYQB 191500Z 19003KT 20SM SKC 05/M01 A3049 RMK SLP329

CYQB;2008-10-19 16:00;CYQB 191600Z 21005KT 20SM SKC 07/M01 A3048 RMK SLP324

CYQB;2008-10-19 17:00;CYQB 191700Z 22008KT 20SM SKC 08/M03 A3045 RMK SLP314

CYQB;2008-10-19 18:00;CYQB 191800Z 26006KT 20SM SKC 09/M04 A3041 RMK SLP302

CYQB;2008-10-19 19:00;CYQB 191900Z 25003KT 20SM SKC 09/M03 A3040 RMK SLP298

CYQB;2008-10-19 20:00;CYQB 192000Z 27004KT 20SM SKC 09/M03 A3039 RMK SLP293

CYQB;2008-10-19 21:00;CYQB 192100Z 26004KT 20SM SKC 09/M03 A3039 RMK SLP293

CYQB;2008-10-19 22:00;CYQB 192200Z 24003KT 20SM FEW250 07/M03 A3038 RMK CI1 SLP290

CYQB;2008-10-19 23:00;CYQB 192300Z 00000KT 15SM SKC 04/M02 A3037 RMK SLP289

CYQB;2008-10-20 00:00;CYQB 200000Z 00000KT 15SM SKC 02/M03 A3037 RMK SLP287

CYQB;2008-10-20 01:00;CYQB 200100Z 00000KT 15SM SKC 01/M04 A3036 RMK SLP284

CYQB;2008-10-20 02:00;CYQB 200200Z 36003KT 15SM SKC 02/M03 A3034 RMK SLP278

CYQB;2008-10-20 03:00;CYQB 200300Z 00000KT 15SM SKC M00/M04 A3033 RMK SLP274

CYQB;2008-10-20 04:00;CYQB 200400Z 33002KT 15SM SKC M02/M04 A3032 RMK SLP270

CYQB;2008-10-20 05:00;CYQB 200500Z 01002KT 15SM SKC M02/M03 A3032 RMK SLP271

CYQB;2008-10-20 06:00;CYQB 200600Z 14002KT 15SM SKC M02/M04 A3031 RMK SLP267

CYQB;2008-10-20 07:00;CYQB 200700Z 32004KT 15SM SCT140 M03/M05 A3030 RMK AC0 SLP265

CYQB;2008-10-20 08:00;CYQB 200800Z 34002KT 15SM BKN140 M01/M03 A3030 RMK AC0 SLP262

CYQB;2008-10-20 09:00;CYQB 200900Z 00000KT 15SM BKN130 M00/M02 A3029 RMK AC4 SLP260

CYQB;2008-10-20 10:00;CYQB 201000Z 00000KT 15SM BKN130 M00/M02 A3028 RMK AC7 SLP256

CYQB;2008-10-20 11:00;CYQB 201100Z 00000KT 30SM FEW130 M00/M02 A3026 RMK AC2 SLP250

CYQB;2008-10-20 12:00;CYQB 201200Z 00000KT 30SM FEW130 BKN240 M01/M02 A3026 RMK AC2CI0 SLP250

CYQB;2008-10-20 13:00;CYQB 201300Z 00000KT 30SM FEW130 BKN240 03/M00 A3025 RMK AC2CI0 SLP246

CYQB;2008-10-20 14:00;CYQB 201400Z 24004KT 30SM SCT140 OVC240 05/01 A3023 RMK AC4CI0 SLP242

CYQB;2008-10-20 15:00;CYQB 201500Z 21005KT 30SM BKN100 BKN140 05/01 A3022 RMK AC6AC1 SLP235

CYQB;2008-10-20 16:00;CYQB 201600Z 21006KT 25SM BKN095 OVC140 07/M01 A3020 RMK AC6AC2 SLP230

CYQB;2008-10-20 17:00;CYQB 201700Z 22005KT 25SM OVC080 08/M01 A3017 RMK AC8 SLP219

CYQB;2008-10-20 18:00;CYQB 201800Z 26006KT 25SM OVC070 08/M01 A3014 RMK AC8 SLP211

CYQB;2008-10-20 19:00;CYQB 201900Z 26006KT 25SM OVC070 08/M01 A3013 RMK AC8 SLP205

CYQB;2008-10-20 20:00;CYQB 202000Z 25006KT 25SM OVC070 08/M00 A3011 RMK AC8 SLP201

CYQB;2008-10-20 21:00;CYQB 202100Z 27003KT 25SM OVC075 08/01 A3010 RMK AC8 SLP196

CYQB;2008-10-20 22:00;CYQB 202200Z 29004KT 20SM OVC100 07/01 A3009 RMK AC8 SLP193

CYQB;2008-10-20 23:00;CYQB 202300Z 00000KT 15SM OVC100 07/01 A3008 RMK AC8 SLP189

CYQB;2008-10-21 00:00;CYQB 210000Z 32003KT 15SM OVC100 07/00 A3006 RMK AC8 SLP184

CYQB;2008-10-21 01:00;CYQB 210100Z 34004KT 15SM BKN100 06/00 A3005 RMK AC6 SLP180

CYQB;2008-10-21 02:00;CYQB 210200Z 00000KT 15SM BKN075 06/01 A3004 RMK AC6 SLP177

CYQB;2008-10-21 03:00;CYQB 210300Z 00000KT 15SM FEW039 BKN075 05/01 A3003 RMK SC1AC6 SLP172

CYQB;2008-10-21 04:00;CYQB 210400Z 00000KT 15SM -SHRA BKN039 OVC075 06/02 A3002 RMK SC7AC1 SLP167

CYQB;2008-10-21 05:00;CYQB 210500Z 30003KT 15SM OVC039 05/03 A3000 RMK SC8 OCNL -SHRA SLP161

CYQB;2008-10-21 06:00;CYQB 210600Z 34002KT 15SM -SHRA SCT039 OVC069 06/03 A2997 RMK SC4AC4 SLP150

CYQB;2008-10-21 07:00;CYQB 210700Z 00000KT 15SM -SHRA OVC036 06/03 A2996 RMK SC8 SLP147

CYQB;2008-10-21 08:00;CYQB 210800Z 24004KT 15SM -SHRA OVC038 05/04 A2995 RMK SC8 SLP144

CYQB;2008-10-21 09:00;CYQB 210900Z 03002KT 15SM -SHRA OVC047 06/04 A2994 RMK SC8 SLP140

CYQB;2008-10-21 10:00;CYQB 211000Z 00000KT 15SM -SHRA OVC050 06/04 A2993 RMK SC8 SLP139

CYQB;2008-10-21 11:00;CYQB 211100Z 02004KT 12SM -SHRA OVC052 05/04 A2993 RMK SC8 SLP137

CYQB;2008-10-21 12:00;CYQB 211200Z 07005KT 8SM -SHRA FEW032 OVC053 06/04 A2994 RMK SC1SC7 SLP140

CYQB;2008-10-21 12:35;CYQB 211235Z 07004KT 6SM -RA BR OVC030 06/ RMK SC8

CYQB;2008-10-21 13:00;CYQB 211300Z 11003KT 4SM -RA BR BKN025 OVC030 06/05 A2995 RMK SC6SC2 SLP144

CYQB;2008-10-21 14:00;CYQB 211400Z 09004KT 3SM -RA BR SCT015 OVC025 06/05 A2995 RMK SC3SC5 SLP144

CYQB;2008-10-21 14:14;CYQB 211414Z 11003KT 3SM -RA BR BKN014 OVC025 06/ RMK SC5SC3

CYQB;2008-10-21 14:41;CYQB 211441Z 12004KT 3SM -RA BR BKN011 OVC015 06/ RMK SF5SC3

CYQB;2008-10-21 15:00;CYQB 211500Z 11004KT 3SM -RA BR BKN010 OVC015 06/05 A2994 RMK SF6SC2 SLP143

CYQB;2008-10-21 15:29;CYQB 211529Z 08008KT 4SM -RA BR SCT010 OVC023 06/ RMK SF3SC5

CYQB;2008-10-21 16:00;CYQB 211600Z 09011G16KT 6SM -RA BR FEW010 BKN023 OVC040 06/05 A2995 RMK SF2SC4SC2 VIS LWR NW-N SLP144

CYQB;2008-10-21 17:00;CYQB 211700Z 09008KT 5SM -RA BR FEW013 BKN022 OVC038 06/05 A2994 RMK SF2SC4SC2 SLP141

CYQB;2008-10-21 17:36;CYQB 211736Z 06014G21KT 6SM -RA BR FEW009 BKN014 OVC024 06/ RMK SF1SC4SC3

CYQB;2008-10-21 18:00;CYQB 211800Z 07018KT 6SM -RA BR FEW009 SCT013 OVC027 06/04 A2994 RMK SF1SC3SC4 SLP140

CYQB;2008-10-21 19:00;CYQB 211900Z 08012G17KT 8SM -RA SCT013 OVC027 05/04 A2994 RMK SF3SC5 SLP140

CYQB;2008-10-21 19:37;CYQB 211937Z 07015G22KT 8SM -RA BKN011 OVC027 05/ RMK SF6SC2

CYQB;2008-10-21 20:00;CYQB 212000Z 07015KT 8SM -RA BKN011 OVC027 05/04 A2994 RMK SF6SC2 SLP143

CYQB;2008-10-21 21:00;CYQB 212100Z 08014G19KT 8SM -RA BKN012 OVC034 04/03 A2997 RMK SF5SC3 SLP150

CYQB;2008-10-21 22:00;CYQB 212200Z 07014G19KT 6SM -RA BR BKN012 OVC032 03/02 A3000 RMK SF5SC3 SLP161

CYQB;2008-10-21 22:49;CYQB 212249Z 08013G21KT 8SM -RA FEW008 BKN012 OVC033 02/ RMK SF2SC5SC2

CYQB;2008-10-21 23:00;CYQB 212300Z 07018G27KT 8SM -RA FEW008 BKN013 OVC033 02/01 A3003 RMK SF2SC5SC2 SLP170

CYQB;2008-10-22 00:00;CYQB 220000Z 06012G25KT 10SM -RA FEW008 BKN013 OVC033 02/01 A3004 RMK SF2SC5SC1 SLP177

CYQB;2008-10-22 01:00;CYQB 220100Z 06017G24KT 12SM -RA SCT012 OVC035 02/01 A3007 RMK SF4SC4 SLP186

CYQB;2008-10-22 02:00;CYQB 220200Z 06014G26KT 10SM -RASN FEW015 OVC032 02/M00 A3009 RMK SF1SC7 SLP193

CYQB;2008-10-22 03:00;CYQB 220300Z 05016G25KT 10SM -RASN BKN035 OVC055 02/M01 A3011 RMK SC7SC1 SLP199

CYQB;2008-10-22 03:39;CYQB 220339Z 05016G22KT 10SM -SN BKN030 OVC045 02/ RMK SC7SC1

CYQB;2008-10-22 04:00;CYQB 220400Z 06019G28KT 8SM BKN034 OVC045 02/M01 A3012 RMK SC7SC1 VIS LWR N SLP204

CYQB;2008-10-22 05:00;CYQB 220500Z 05016G24KT 7SM -SN BKN031 OVC046 01/M01 A3014 RMK SC7SC1 SLP209

CYQB;2008-10-22 06:00;CYQB 220600Z 06013G25KT 5SM -SN BKN030 OVC048 01/M01 A3016 RMK SC7SC1 SLP216

CYQB;2008-10-22 07:00;CYQB 220700Z 05015G29KT 10SM -SN BKN026 OVC058 02/M02 A3017 RMK SC6SC2 VIS LWR N PCPN VRY LGT SLP221

CYQB;2008-10-22 07:16;CYQB 220716Z 06019G26KT 10SM BKN027 OVC050 02/ RMK SC7SC1 VIS LWR N

CYQB;2008-10-22 08:00;CYQB 220800Z 07020G32KT 10SM BKN026 OVC050 02/M02 A3019 RMK SC7SC1 -SHSN OCNL SLP226

CYQB;2008-10-22 09:00;CYQB 220900Z 06019G28KT 10SM BKN028 OVC050 02/M03 A3022 RMK SC7SC1 -SHSN OCNL VIS LWR N SLP237

CYQB;2008-10-22 10:00;CYQB 221000Z 05018G27KT 15SM -SHSN BKN029 BKN050 02/M03 A3025 RMK SC6SC2 SLP248

CYQB;2008-10-22 10:31;CYQB 221031Z 05021G28KT 15SM BKN030 OVC075 02/ RMK SC6AC1

CYQB;2008-10-22 11:00;CYQB 221100Z 06019G24KT 30SM BKN029 OVC075 02/M03 A3029 RMK SC6AC1 SLP261

CYQB;2008-10-22 12:00;CYQB 221200Z 06017G28KT 30SM BKN028 BKN070 OVC200 02/M04 A3034 RMK SC5AC2CI1 SLP279

CYQB;2008-10-22 13:00;CYQB 221300Z 06020G28KT 30SM SCT028 BKN063 OVC160 02/M04 A3038 RMK SC3SC3AS2 SLP291

CYQB;2008-10-22 14:00;CYQB 221400Z 07021G30KT 30SM -SHSN FEW028 BKN042 OVC065 02/M04 A3041 RMK SC2SC5SC2 SLP302

CYQB;2008-10-22 15:00;CYQB 221500Z 08015G25KT 30SM SCT025 BKN042 OVC200 02/M04 A3046 RMK SC3SC2CI2 SLP317

CYQB;2008-10-22 16:00;CYQB 221600Z 07021G31KT 30SM FEW042 BKN080 OVC200 03/M03 A3048 RMK SC2AC2CI0 SLP326

CYQB;2008-10-22 17:00;CYQB 221700Z 09015G25KT 30SM FEW042 SCT080 OVC200 03/M03 A3050 RMK SC2AC2CI1 SLP332

CYQB;2008-10-22 18:00;CYQB 221800Z 08018KT 30SM FEW042 SCT080 BKN200 03/M03 A3051 RMK SC2AC1CI0 SLP335

CYQB;2008-10-22 19:00;CYQB 221900Z 09017G25KT 30SM BKN041 BKN200 02/M04 A3052 RMK SC5CI1 SLP340

CYQB;2008-10-22 20:00;CYQB 222000Z CCA 07016G24KT 15SM BKN041 02/M03 A3054 RMK SC6 SLP344

CYQB;2008-10-22 21:00;CYQB 222100Z 07012KT 15SM BKN041 02/M04 A3055 RMK SC6 SLP349

CYQB;2008-10-22 22:00;CYQB 222200Z 07009G15KT 15SM BKN042 01/M04 A3058 RMK SC7 SLP358

CYQB;2008-10-22 23:00;CYQB 222300Z 09004KT 15SM BKN041 00/M03 A3060 RMK SC6 SLP367

CYQB;2008-10-23 00:00;CYQB 230000Z 00000KT 15SM BKN040 M00/M03 A3062 RMK SC6 SLP374

CYQB;2008-10-23 01:00;CYQB 230100Z 10003KT 15SM SCT040 M01/M04 A3064 RMK SC3 SLP381

CYQB;2008-10-23 02:00;CYQB 230200Z 00000KT 15SM FEW040 M02/M04 A3065 RMK CU1 SLP382

CYQB;2008-10-23 03:00;CYQB 230300Z 00000KT 15SM SKC M02/M04 A3065 RMK SLP383

CYQB;2008-10-23 04:00;CYQB 230400Z 27003KT 15SM SKC M04/M06 A3065 RMK SLP384

CYQB;2008-10-23 05:00;CYQB 230500Z 28002KT 15SM SKC M04/M05 A3066 RMK SLP386

CYQB;2008-10-23 06:00;CYQB 230600Z 29003KT 15SM SKC M05/M06 A3066 RMK SLP386

CYQB;2008-10-23 07:00;CYQB 230700Z 31002KT 15SM SKC M05/M06 A3066 RMK SLP386

CYQB;2008-10-23 08:00;CYQB 230800Z 00000KT 15SM SKC M05/M06 A3066 RMK SLP386

CYQB;2008-10-23 09:00;CYQB 230900Z 00000KT 15SM FEW010 M03/M05 A3066 RMK ST1 SLP388

CYQB;2008-10-23 10:00;CYQB 231000Z 00000KT 15SM FEW010 M05/M07 A3067 RMK ST1 FROIN SLP390

CYQB;2008-10-23 11:00;CYQB 231100Z 00000KT 15SM FEW010 M05/M06 A3068 RMK SF1 FROIN SLP392

CYQB;2008-10-23 12:00;CYQB 231200Z 00000KT 15SM FEW010 M04/M05 A3071 RMK SF1 FROIN SLP405

CYQB;2008-10-23 13:00;CYQB 231300Z 00000KT 15SM FEW010 M01/M02 A3072 RMK SF1 SLP406

CYQB;2008-10-23 14:00;CYQB 231400Z 25002KT 30SM FEW010 00/M02 A3072 RMK SF1 SLP407

CYQB;2008-10-23 15:00;CYQB 231500Z 23007KT 30SM FEW020 03/M02 A3070 RMK CU1 SLP400

CYQB;2008-10-23 16:00;CYQB 231600Z 23010KT 30SM SKC 04/M01 A3068 RMK SLP394

CYQB;2008-10-23 17:00;CYQB 231700Z 22009KT 30SM SKC 05/M01 A3065 RMK SLP382

CYQB;2008-10-23 18:00;CYQB 231800Z 21011G18KT 30SM FEW270 06/M00 A3061 RMK CI1 SLP370

CYQB;2008-10-23 19:00;CYQB 231900Z 21014G19KT 30SM FEW250 07/M01 A3059 RMK CI1 SLP364

CYQB;2008-10-23 20:00;CYQB 232000Z 22012KT 30SM FEW250 07/M02 A3059 RMK CI1 SLP362

CYQB;2008-10-23 21:00;CYQB 232100Z 24012KT 30SM BKN250 06/M02 A3058 RMK CI1 SLP358

CYQB;2008-10-23 22:00;CYQB 232200Z 23008KT 30SM BKN250 05/M02 A3057 RMK CI1 SLP356

CYQB;2008-10-23 23:00;CYQB 232300Z 26008KT 15SM BKN200 04/M02 A3057 RMK CI1 SLP355

CYQB;2008-10-24 00:00;CYQB 240000Z 24007KT 15SM BKN210 04/M03 A3056 RMK CI1 SLP354

CYQB;2008-10-24 01:00;CYQB 240100Z 27007KT 15SM BKN200 03/M02 A3056 RMK CI1 SLP353

CYQB;2008-10-24 02:00;CYQB 240200Z 26003KT 15SM BKN200 02/M03 A3055 RMK CI1 SLP350

CYQB;2008-10-24 03:00;CYQB 240300Z 25009KT 15SM FEW150 BKN200 02/M03 A3053 RMK AC1CI1 SLP343

CYQB;2008-10-24 04:00;CYQB 240400Z 26006KT 15SM FEW140 BKN200 01/M03 A3053 RMK AC2CI1 SLP342

CYQB;2008-10-24 05:00;CYQB 240500Z 25011KT 15SM FEW140 BKN200 01/M03 A3052 RMK AC2CI1 SLP338

CYQB;2008-10-24 06:00;CYQB 240600Z 26011KT 15SM SKC M01/M03 A3050 RMK SLP333

CYQB;2008-10-24 07:00;CYQB 240700Z 23007KT 15SM SKC M00/M02 A3050 RMK SLP330

CYQB;2008-10-24 08:00;CYQB 240800Z 27011KT 15SM SKC M00/M02 A3048 RMK SLP325

CYQB;2008-10-24 09:00;CYQB 240900Z 25012KT 15SM FEW150 00/M02 A3048 RMK AC2 SLP324

CYQB;2008-10-24 10:00;CYQB 241000Z 26009KT 15SM FEW140 00/M01 A3048 RMK AC2 SLP326

CYQB;2008-10-24 11:00;CYQB 241100Z 25011KT 15SM FEW140 M01/M02 A3047 RMK AC2 SLP321

CYQB;2008-10-24 12:00;CYQB 241200Z 27012KT 15SM SCT140 M01/M02 A3047 RMK AC3 SLP322

CYQB;2008-10-24 13:00;CYQB 241300Z 23011KT 15SM FEW140 01/M02 A3047 RMK AC2 SLP323

CYQB;2008-10-24 14:00;CYQB 241400Z 22011KT 15SM FEW140 03/M00 A3047 RMK AC1 SLP321

CYQB;2008-10-24 15:00;CYQB 241500Z 23011KT 15SM FEW140 05/00 A3044 RMK AC1 SLP312

CYQB;2008-10-24 16:00;CYQB 241600Z 23009KT 15SM FEW140 07/01 A3042 RMK AC1 SLP306

CYQB;2008-10-24 17:00;CYQB 241700Z 22008KT 15SM FEW140 08/M00 A3038 RMK AC1 SLP291

CYQB;2008-10-24 18:00;CYQB 241800Z 23011KT 15SM FEW230 09/M02 A3036 RMK CI1 SLP283

CYQB;2008-10-24 19:00;CYQB 241900Z 26012KT 20SM FEW230 10/M02 A3035 RMK CI1 SLP281

CYQB;2008-10-24 20:00;CYQB 242000Z 27008KT 25SM FEW230 10/M01 A3035 RMK CI2 SLP279

CYQB;2008-10-24 21:00;CYQB 242100Z 27005KT 25SM SCT250 09/00 A3032 RMK CI2 SLP271

CYQB;2008-10-24 22:00;CYQB 242200Z 26003KT 25SM SCT250 06/M01 A3033 RMK CI1 SLP272

CYQB;2008-10-24 23:00;CYQB 242300Z 34004KT 15SM SKC 06/M01 A3031 RMK SLP268

CYQB;2008-10-25 00:00;CYQB 250000Z 04002KT 15SM SKC 03/M02 A3030 RMK SLP266

CYQB;2008-10-25 01:00;CYQB 250100Z 01003KT 15SM SKC 04/M02 A3030 RMK SLP264

CYQB;2008-10-25 02:00;CYQB 250200Z 03005KT 15SM SKC 04/M02 A3029 RMK SLP261

CYQB;2008-10-25 03:00;CYQB 250300Z 04004KT 15SM SKC 02/M03 A3026 RMK SLP250

CYQB;2008-10-25 04:00;CYQB 250400Z 01003KT 15SM SCT250 02/M02 A3025 RMK CI2 SLP248

CYQB;2008-10-25 05:00;CYQB 250500Z 02006KT 15SM BKN250 02/M02 A3024 RMK CI2 SLP243

CYQB;2008-10-25 06:00;CYQB 250600Z 03005KT 15SM BKN250 02/M02 A3023 RMK CI3 SLP240

CYQB;2008-10-25 07:00;CYQB 250700Z 02005KT 15SM BKN250 02/M02 A3022 RMK CI5 SLP236

CYQB;2008-10-25 08:00;CYQB 250800Z 02003KT 15SM OVC250 02/M02 A3021 RMK CI8 SLP234

CYQB;2008-10-25 09:00;CYQB 250900Z 02003KT 15SM OVC210 02/M02 A3022 RMK CI8 SLP236

CYQB;2008-10-25 10:00;CYQB 251000Z 03004KT 15SM BKN200 02/M02 A3022 RMK CI5 SLP238

CYQB;2008-10-25 11:00;CYQB 251100Z 00000KT 30SM BKN059 BKN200 01/M02 A3021 RMK SC5CI2 SLP232

CYQB;2008-10-25 12:00;CYQB 251200Z 01003KT 30SM FEW070 BKN180 02/M02 A3020 RMK AC2AC5 SLP229

CYQB;2008-10-25 13:00;CYQB 251300Z 04004KT 30SM FEW070 BKN140 03/M01 A3019 RMK AC2AC5 SLP228

CYQB;2008-10-25 14:00;CYQB 251400Z 01004KT 30SM SCT072 BKN140 05/M00 A3018 RMK AC3AS4 SLP224

CYQB;2008-10-25 15:00;CYQB 251500Z 07004KT 30SM FEW072 BKN150 07/M00 A3017 RMK AC1AC6 SLP218

CYQB;2008-10-25 16:00;CYQB 251600Z 11004KT 20SM BKN130 BKN220 09/00 A3014 RMK AC6CI1 SLP210

CYQB;2008-10-25 17:00;CYQB 251700Z 07007KT 20SM FEW045 BKN110 BKN220 11/M00 A3010 RMK SC1AC6CI1 SLP195

CYQB;2008-10-25 18:00;CYQB 251800Z 08009KT 25SM BKN072 12/00 A3005 RMK AC7 SLP178

CYQB;2008-10-25 19:00;CYQB 251900Z 07012KT 20SM BKN055 OVC110 11/02 A3003 RMK SC7AC1 SLP173

CYQB;2008-10-25 19:27;CYQB 251927Z 09005KT 15SM -SHRA BKN048 OVC080 RMK SC7AC1

CYQB;2008-10-25 20:00;CYQB 252000Z 08007KT 12SM -SHRA BKN055 OVC080 10/05 A3002 RMK SC6AC2 SLP168

CYQB;2008-10-25 21:00;CYQB 252100Z 07009KT 10SM -SHRA BKN060 OVC100 08/06 A3000 RMK SC6AC2 SLP161

CYQB;2008-10-25 22:00;CYQB 252200Z 08008KT 6SM -SHRA BR OVC045 07/06 A3000 RMK SC8 SLP161

CYQB;2008-10-25 23:00;CYQB 252300Z 07009KT 12SM -SHRA OVC065 07/06 A2994 RMK SC8 PRESFR SLP140

CYQB;2008-10-26 00:00;CYQB 260000Z 06011KT 6SM -SHRA BR OVC030 08/07 A2992 RMK SC8 SLP133

CYQB;2008-10-26 01:00;CYQB 260100Z 07017KT 5SM -SHRA BR OVC027 08/08 A2986 RMK SC8 PRESFR SLP113

CYQB;2008-10-26 02:00;CYQB 260200Z 07015G20KT 4SM -SHRA BR OVC024 09/08 A2981 RMK SC8 SLP097

CYQB;2008-10-26 03:00;CYQB 260300Z 07015KT 3SM SHRA BR BKN020 OVC029 09/09 A2977 RMK SC7SC1 SLP084

CYQB;2008-10-26 04:00;CYQB 260400Z 08009G18KT 5SM RA BR OVC018 10/10 A2974 RMK NS8 SLP072

CYQB;2008-10-26 05:00;CYQB 260500Z 08008KT 3SM RA BR OVC023 10/10 A2975 RMK NS8 /R10/ SLP078

CYQB;2008-10-26 06:00;CYQB 260600Z 08014G19KT 5SM -RA BR BKN004 BKN025 OVC080 11/10 A2968 RERA RMK SF5SC2AC2 PRESFR SLP053

CYQB;2008-10-26 06:47;CYQB 260647Z 25011G19KT 2 1/2SM +RA BR BKN007 OVC024 11/ RMK SF6SC2

CYQB;2008-10-26 07:00;CYQB 260700Z 25006G21KT 2 1/2SM -RA BR BKN008 OVC022 11/11 A2974 RERA RMK SF6SC2 CIG RAG SLP072

CYQB;2008-10-26 08:00;CYQB 260800Z 23008KT 8SM BKN013 OVC031 12/11 A2975 RMK SC6SC2 SLP077

CYQB;2008-10-26 09:00;CYQB 260900Z 22008KT 8SM BKN012 BKN055 OVC085 11/10 A2976 RMK SC5SC2AC2 SLP079

CYQB;2008-10-26 10:00;CYQB 261000Z 23008KT 10SM BKN011 BKN026 OVC060 11/10 A2978 RMK SF5SC2SC1 SLP087

CYQB;2008-10-26 11:00;CYQB 261100Z 23008KT 10SM FEW011 BKN019 OVC060 10/09 A2980 RMK SF2SC6SC1 SLP093

CYQB;2008-10-26 12:00;CYQB 261200Z 25007KT 10SM FEW012 BKN015 BKN060 09/08 A2981 RMK SF2SC2SC2 SLP096

CYQB;2008-10-26 13:00;CYQB 261300Z 24008KT 10SM SCT014 BKN060 09/08 A2981 RMK SF3SC4 SLP095

CYQB;2008-10-26 14:00;CYQB 261400Z 26009KT 10SM BKN017 BKN060 09/08 A2980 RMK SC5SC2 SLP094

CYQB;2008-10-26 15:00;CYQB 261500Z 23006KT 15SM SCT017 BKN052 09/07 A2980 RMK SF3SC4 SLP092

CYQB;2008-10-26 16:00;CYQB 261600Z 25004KT 15SM SCT018 BKN055 11/07 A2979 RMK SC3SC4 SLP089

CYQB;2008-10-26 17:00;CYQB 261700Z 31005KT 30SM FEW020 SCT055 11/07 A2975 RMK CU2SC2 SLP078

CYQB;2008-10-26 18:00;CYQB 261800Z 24008KT 30SM SCT028 SCT055 13/06 A2974 RMK CU3SC1 SLP071

CYQB;2008-10-26 19:00;CYQB 261900Z 28004KT 30SM SCT050 BKN100 12/05 A2973 RMK CU4AC2 SLP070

CYQB;2008-10-26 20:00;CYQB 262000Z 26004KT 30SM BKN050 BKN100 BKN150 12/05 A2973 RMK SC5AC2AC1 SLP070

CYQB;2008-10-26 21:00;CYQB 262100Z 00000KT 30SM FEW030 FEW050 SCT150 SCT220 12/05 A2972 RMK SC1SC2AC1CI0 SLP066

CYQB;2008-10-26 22:00;CYQB 262200Z 10003KT 30SM SCT050 10/05 A2972 RMK SC3 SLP066

CYQB;2008-10-26 23:00;CYQB 262300Z 10004KT 15SM FEW050 09/04 A2972 RMK SC2 SLP065

CYQB;2008-10-27 00:00;CYQB 270000Z 03003KT 15SM SKC 08/05 A2973 RMK SLP069

CYQB;2008-10-27 01:00;CYQB 270100Z 04005KT 15SM FEW210 08/05 A2972 RMK CI0 SLP066

CYQB;2008-10-27 02:00;CYQB 270200Z 06005KT 15SM FEW210 07/05 A2972 RMK CI1 SLP065

CYQB;2008-10-27 03:00;CYQB 270300Z 04004KT 15SM FEW210 08/06 A2971 RMK CI1 SLP062

CYQB;2008-10-27 04:00;CYQB 270400Z 34002KT 15SM BKN060 07/06 A2973 RMK SC7 SLP071

CYQB;2008-10-27 04:52;CYQB 270452Z 00000KT 15SM -RA OVC060 07/ RMK SC8

CYQB;2008-10-27 05:00;CYQB 270500Z 00000KT 15SM -RA OVC062 07/06 A2976 RMK SC8 SLP079

CYQB;2008-10-27 05:34;CYQB 270534Z 07003KT 10SM FEW030 OVC082 07/ RMK SC2AC6

CYQB;2008-10-27 06:00;CYQB 270600Z 09004KT 10SM FEW030 OVC088 07/06 A2975 RMK SC2AC6 SLP077

CYQB;2008-10-27 07:00;CYQB 270700Z 09002KT 10SM BKN030 OVC080 07/07 A2977 RMK SC7AC1 SLP084

CYQB;2008-10-27 08:00;CYQB 270800Z 00000KT 15SM OVC033 09/07 A2979 RMK SC8 SLP090

CYQB;2008-10-27 09:00;CYQB 270900Z 22004KT 15SM FEW030 FEW080 08/05 A2981 RMK SC1AC1 SLP098

CYQB;2008-10-27 10:00;CYQB 271000Z 10003KT 15SM FEW260 05/04 A2983 RMK CI0 SLP105

CYQB;2008-10-27 11:00;CYQB 271100Z 00000KT 15SM BKN130 06/04 A2986 RMK AC6 SLP112

CYQB;2008-10-27 12:00;CYQB 271200Z 04002KT 15SM SCT130 06/05 A2989 RMK AC4 SLP125

CYQB;2008-10-27 13:00;CYQB 271300Z 07003KT 15SM SCT130 BKN260 07/06 A2992 RMK AC3CI0 SLP135

CYQB;2008-10-27 14:00;CYQB 271400Z 11002KT 15SM FEW050 SCT120 BKN260 10/06 A2995 RMK SC2AC2CI0 SLP144

CYQB;2008-10-27 15:00;CYQB 271500Z 00000KT 15SM FEW050 FEW120 BKN260 11/06 A2995 RMK SC1AC2CI0 SLP144

CYQB;2008-10-27 16:00;CYQB 271600Z 26010KT 15SM FEW040 SCT120 BKN260 13/05 A2994 RMK SC2AC1CI0 SLP142

CYQB;2008-10-27 17:00;CYQB 271700Z 29004KT 15SM FEW045 SCT260 13/05 A2994 RMK SC2CI0 SLP140

CYQB;2008-10-27 18:00;CYQB 271800Z 24005KT 15SM FEW050 SCT260 14/05 A2994 RMK SC2CI0 SLP139

CYQB;2008-10-27 19:00;CYQB 271900Z 27004KT 15SM FEW035 BKN075 13/06 A2995 RMK SC2AC2 SLP143

CYQB;2008-10-27 19:40;CYQB 271940Z 28004KT 15SM -SHRA SCT040 BKN080 OVC120 13/ RMK SC3AC4AC1

CYQB;2008-10-27 20:00;CYQB 272000Z 32005KT 15SM -SHRA SCT040 BKN060 OVC120 13/06 A2995 RMK SC4SC3AC1 SLP145

CYQB;2008-10-27 20:27;CYQB 272027Z 29006KT 15SM FEW040 BKN060 OVC120 13/ RMK SC2SC4AC2

CYQB;2008-10-27 21:00;CYQB 272100Z 27005KT 15SM FEW065 OVC100 12/06 A2997 RMK SC1AC7 SLP150

CYQB;2008-10-27 21:25;CYQB 272125Z 30006KT 15SM -SHRA FEW060 OVC100 11/ RMK SC1AC7

CYQB;2008-10-27 22:00;CYQB 272200Z 32005KT 15SM OVC100 12/05 A2997 RMK AC8 OCNL -SHRA SLP152

CYQB;2008-10-27 23:00;CYQB 272300Z 35004KT 15SM FEW070 OVC094 11/05 A2998 RMK AC1AC7 SLP155

CYQB;2008-10-28 00:00;CYQB 280000Z 36002KT 15SM OVC088 11/05 A2999 RMK AC8 SLP158

CYQB;2008-10-28 01:00;CYQB 280100Z 36003KT 15SM -SHRA FEW045 OVC074 11/05 A3000 RMK SC1AC7 SLP161

CYQB;2008-10-28 02:00;CYQB 280200Z 34003KT 15SM OVC072 10/06 A2999 RMK AC8 SLP159

CYQB;2008-10-28 03:00;CYQB 280300Z 30003KT 15SM OVC069 09/06 A2997 RMK AC8 SLP150

CYQB;2008-10-28 04:00;CYQB 280400Z 31005KT 15SM OVC082 09/06 A2993 RMK AC8 SLP137

CYQB;2008-10-28 05:00;CYQB 280500Z 34003KT 15SM BKN057 OVC080 09/06 A2992 RMK SC6AC2 SLP132

CYQB;2008-10-28 06:00;CYQB 280600Z 02005KT 15SM BKN054 OVC100 10/05 A2991 RMK SC6AC2 SLP130

CYQB;2008-10-28 07:00;CYQB 280700Z 08007KT 15SM BKN058 OVC100 09/06 A2989 RMK SC6AC2 SLP124

CYQB;2008-10-28 08:00;CYQB 280800Z 07006KT 15SM SCT065 OVC220 08/06 A2985 RMK SC4CI4 SLP110

CYQB;2008-10-28 09:00;CYQB 280900Z 07007KT 15SM FEW042 OVC240 07/05 A2980 RMK SC2CI6 SLP093

CYQB;2008-10-28 10:00;CYQB 281000Z 08008KT 15SM BKN039 OVC210 07/05 A2976 RMK SC5CI3 SLP079

CYQB;2008-10-28 10:22;CYQB 281022Z 07012G18KT 15SM FEW008 BKN039 OVC210 07/ RMK ST1SC6CI2

CYQB;2008-10-28 11:00;CYQB 281100Z 05012KT 15SM BKN009 BKN040 OVC200 07/06 A2976 RMK ST5SC2CI2 SLP080

CYQB;2008-10-28 12:00;CYQB 281200Z 05005KT 15SM BKN009 OVC040 07/06 A2975 RMK ST6SC2 SLP075

CYQB;2008-10-28 12:19;CYQB 281219Z 07005KT 20SM -DZ SCT009 OVC024 07/ RMK ST4SC4

CYQB;2008-10-28 12:33;CYQB 281233Z 07006KT 10SM -RA FEW002 OVC024 07/ RMK ST2SC6

CYQB;2008-10-28 13:00;CYQB 281300Z 07003KT 10SM -RA OVC022 07/06 A2971 RMK SC8 SLP064

CYQB;2008-10-28 13:31;CYQB 281331Z 03003KT 2SM -RA BR FEW005 OVC019 07/ RMK SF2SC6

CYQB;2008-10-28 14:00;CYQB 281400Z 35003KT 2SM -RA BR FEW005 OVC018 07/07 A2966 RMK SF1SC7 SLP045

CYQB;2008-10-28 14:27;CYQB 281427Z 36002KT 1SM R06/P6000FT/D -RA BR FEW002 OVC016 07/ RMK SF2SC6

CYQB;2008-10-28 15:00;CYQB 281500Z 00000KT 1SM R06/P6000FT/U -RA BR FEW002 OVC005 07/07 A2961 RMK SF2ST6 SLP029

CYQB;2008-10-28 16:00;CYQB 281600Z 36002KT 1SM R06/P6000FT/D -RA BR FEW002 BKN006 OVC020 08/08 A2957 RMK SF2ST6SC1 SLP014

CYQB;2008-10-28 17:00;CYQB 281700Z 07004KT 1 1/2SM -RA BR FEW003 OVC005 08/08 A2950 RMK SF2ST6 PRESFR SLP993

CYQB;2008-10-28 18:00;CYQB 281800Z 07004KT 1 1/2SM -DZRA BR FEW002 OVC005 09/09 A2945 RMK SF2ST6 SLP975

CYQB;2008-10-28 19:00;CYQB 281900Z 06008KT 3/4SM R06/P6000FT/D -DZRA BR FEW002 OVC005 09/08 A2941 RMK SF2ST6 SLP962

CYQB;2008-10-28 20:00;CYQB 282000Z 07012KT 3/4SM R06/P6000FT/D -DZRA BR FEW002 OVC005 08/08 A2940 RMK SF2ST6 SLP957

CYQB;2008-10-28 21:00;CYQB 282100Z 06012G19KT 5SM BR BKN005 08/08 A2931 RMK SF7 VIS E 10 PRESFR SLP928

CYQB;2008-10-28 21:15;CYQB 282115Z 08016G22KT 5SM -RA BR BKN003 OVC012 08/ RMK SF7SC1 -RA INTMT

CYQB;2008-10-28 22:00;CYQB 282200Z 07015G21KT 3SM -RA BR OVC004 08/07 A2924 RMK SF8 PRESFR TOWER VIS 5 SLP903

CYQB;2008-10-28 22:52;CYQB 282252Z 07015G25KT 5SM BR OVC005 07/ RMK SF8 PRESFR

CYQB;2008-10-28 23:00;CYQB 282300Z 07020G25KT 5SM BR OVC006 07/07 A2917 RMK SF8 PRESFR SLP879

CYQB;2008-10-28 23:32;CYQB 282332Z 07017G29KT 4SM -RA BR SCT003 OVC005 07/ RMK SF4SF4 -RA INTMT PRESFR

CYQB;2008-10-28 23:41;CYQB 282341Z 07013G22KT 3SM -RA BR BKN003 OVC005 08/ RMK SF5SF3 PRESFR

CYQB;2008-10-29 00:00;CYQB 290000Z 08013G21KT 3SM -SHRA BR BKN003 OVC005 08/07 A2909 RMK SF5ST3 PRESFR SLP853

CYQB;2008-10-29 00:29;CYQB 290029Z 10015G25KT 4SM -SHRA BR OVC004 08/ RMK ST8

CYQB;2008-10-29 00:39;CYQB 290039Z 09015G21KT 5SM -SHRA BR SCT004 OVC011 08/ RMK SF4ST4

CYQB;2008-10-29 01:00;CYQB 290100Z 12012G24KT 5SM -SHRA BR SCT004 OVC011 10/09 A2912 RMK SF4ST4 SLP864

CYQB;2008-10-29 01:37;CYQB 290137Z 11005KT 15SM FEW080 09/ RMK AC2

CYQB;2008-10-29 02:00;CYQB 290200Z 12010KT 15SM FEW030 BKN080 09/07 A2912 RMK SC2AC3 SLP864

CYQB;2008-10-29 03:00;CYQB 290300Z 11010G15KT 15SM SCT055 09/05 A2911 RMK SC4 SLP860

CYQB;2008-10-29 04:00;CYQB 290400Z 12009G15KT 15SM BKN055 08/04 A2907 RMK SC6 SLP847

CYQB;2008-10-29 05:00;CYQB 290500Z 12009G15KT 15SM -SHRA OVC048 08/05 A2905 RMK SC8 SLP838

CYQB;2008-10-29 05:40;CYQB 290540Z 12009KT 15SM OVC050 07/ RMK SC8

CYQB;2008-10-29 06:00;CYQB 290600Z 12007KT 15SM SCT040 OVC070 07/05 A2901 RMK SC3AC5 SLP826

CYQB;2008-10-29 07:00;CYQB 290700Z 23012KT 12SM -SHRA FEW017 BKN040 OVC070 04/02 A2901 RMK SC2SC3SC3 SLP825

CYQB;2008-10-29 08:00;CYQB 290800Z 21013G22KT 12SM -SHRA BKN015 OVC040 03/01 A2902 RMK SC5SC3 SLP830

CYQB;2008-10-29 08:40;CYQB 290840Z 22011G17KT 12SM BKN015 OVC040 03/ RMK SC5SC3

CYQB;2008-10-29 09:00;CYQB 290900Z 20011KT 15SM BKN012 OVC040 03/00 A2904 RMK SC6SC2 SLP837

CYQB;2008-10-29 09:53;CYQB 290953Z 18011KT 15SM -SHRA SCT012 OVC022 02/ RMK SF4SC4 CIG RAG

CYQB;2008-10-29 10:00;CYQB 291000Z 18008G15KT 12SM -SHRA SCT012 OVC022 02/M00 A2905 RMK SF4SC4 SLP840

CYQB;2008-10-29 10:48;CYQB 291048Z 18009KT 6SM -SHRASN BKN011 OVC022 02/ RMK SC5SC3 CIG RAG

CYQB;2008-10-29 11:00;CYQB 291100Z 19009G16KT 6SM -SHRASN BKN014 OVC020 02/00 A2907 RMK SC5SC3 SLP847

CYQB;2008-10-29 12:00;CYQB 291200Z 20012G20KT 2SM -SHSN OVC009 01/M00 A2910 RMK SC8 SLP856

CYQB;2008-10-29 13:00;CYQB 291300Z 21018G24KT 1 1/2SM -SHSN SCT007 OVC010 01/M00 A2912 RMK SN1SF3SC4 SLP865

CYQB;2008-10-29 14:00;CYQB 291400Z 22019G27KT 2SM -SHSN OVC010 01/M00 A2915 RMK SC8 VIS S-W 4 SLP875

CYQB;2008-10-29 15:00;CYQB 291500Z 23017G30KT 4SM -SHSN OVC011 01/M00 A2920 RMK SC8 SLP890

CYQB;2008-10-29 16:00;CYQB 291600Z 23024G32KT 2 1/2SM -SHSN OVC011 01/M00 A2924 RMK SC8 CIG RAG SLP903

CYQB;2008-10-29 16:39;CYQB 291639Z 22020G30KT 5/8SM R06/4500VP6000FT/D -SHSN VV006 01/ RMK SN8

CYQB;2008-10-29 17:00;CYQB 291700Z 23013G25KT 1 1/4SM -SHSN OVC007 00/M01 A2928 RMK SN1SC7 SLP917

CYQB;2008-10-29 17:17;CYQB 291717Z 22017G24KT 2SM -SHSN OVC008 01/ RMK SC8

CYQB;2008-10-29 17:33;CYQB 291733Z 22017G25KT 3SM -SHSN SCT007 BKN011 OVC017 01/ RMK SF3SF4SC1

CYQB;2008-10-29 18:00;CYQB 291800Z 22019G24KT 4SM R06/2800VP6000FT/N -SHSN FEW007 SCT015 OVC021 01/00 A2931 RMK SF2SC2SC4 SLP926

CYQB;2008-10-29 19:00;CYQB 291900Z 22017G25KT 3SM -SHSN BKN017 OVC021 01/M00 A2934 RMK SC6SC2 SLP936

CYQB;2008-10-29 20:00;CYQB 292000Z 23018G28KT 3SM -SHSN FEW009 OVC014 01/M00 A2937 RMK SF2SC6 SLP947

CYQB;2008-10-29 20:09;CYQB 292009Z 23017G26KT 3/4SM -SHSN OVC011 01/ RMK SN3SC5

CYQB;2008-10-29 20:15;CYQB 292015Z 23015G21KT 1/2SM SHSN BKN011 OVC025 01/ RMK SN4SC3SC1

CYQB;2008-10-29 21:00;CYQB 292100Z 23017KT 1/2SM SHSN BKN006 OVC013 01/M00 A2939 RMK SN4SF2SC2 SLP956

CYQB;2008-10-29 21:27;CYQB 292127Z 24017KT 3/4SM -SHSN BKN010 OVC030 01/ RMK SN2SF3SC3 RESN

CYQB;2008-10-29 21:36;CYQB 292136Z 24016KT 1SM R06/P6000FT/U -SHSN SCT006 BKN011 OVC025 01/ RMK SF4SF3SC1 RESN

CYQB;2008-10-29 21:52;CYQB 292152Z CCA 24015G24KT 2SM -SHSN SCT006 BKN013 OVC035 01/ RMK SF3SC4SC1 RESN

CYQB;2008-10-29 22:00;CYQB 292200Z 23014KT 2SM -SHSN SCT006 BKN014 OVC036 01/00 A2942 RMK SF3SC4SC1 RESN SLP965

CYQB;2008-10-29 22:06;CYQB 292206Z 23017KT 2 1/2SM -SHSN FEW006 SCT010 OVC013 01/ RMK SF2SC2SC4

CYQB;2008-10-29 23:00;CYQB 292300Z 25021KT 2 1/2SM -SHSN FEW009 OVC020 01/00 A2944 RMK SF2SC6 SLP971

CYQB;2008-10-30 00:00;CYQB 300000Z 25017G25KT 4SM -SHSN FEW012 OVC025 01/00 A2946 RMK SF2SC6 SLP978

CYQB;2008-10-30 01:00;CYQB 300100Z 25019G25KT 5SM -SHSN SCT012 OVC070 01/M00 A2948 RMK SF4SC4 SLP987

CYQB;2008-10-30 02:00;CYQB 300200Z 25021G26KT 6SM -SHSN BKN012 OVC035 01/00 A2952 RMK SF5SC3 SLP999

CYQB;2008-10-30 03:00;CYQB 300300Z 24016G24KT 4SM -SHSN FEW008 BKN012 OVC025 01/00 A2955 RMK SF2SC4SC2 SLP010

CYQB;2008-10-30 03:27;CYQB 300327Z 25020G27KT 8SM -SHSN FEW008 SCT012 OVC042 01/ RMK SF2SC2SC4

CYQB;2008-10-30 04:00;CYQB 300400Z 26017KT 8SM -SHSN BKN013 BKN040 OVC080 01/00 A2959 RMK SC5SC2AC1 SLP023

CYQB;2008-10-30 05:00;CYQB 300500Z 25017G24KT 8SM -SHSN BKN013 BKN025 OVC080 01/M00 A2963 RMK SC5SC2AC1 SLP036

CYQB;2008-10-30 06:00;CYQB 300600Z CCA 25020KT 8SM -SHSN OVC027 01/01 A2967 RMK SC8 SLP050

CYQB;2008-10-30 07:00;CYQB 300700Z 25015KT 8SM -SHSN FEW007 BKN026 OVC075 01/M00 A2972 RMK SF2SC4AC2 SLP067

CYQB;2008-10-30 08:00;CYQB 300800Z 27014KT 10SM -SHSN FEW009 SCT055 BKN073 01/M00 A2976 RMK SF2SC2AC2 SLP081

CYQB;2008-10-30 09:00;CYQB 300900Z 25017KT 8SM -SHSN FEW009 SCT030 BKN077 01/M00 A2981 RMK SF2SC2AC2 SLP096

CYQB;2008-10-30 10:00;CYQB 301000Z 25018G24KT 8SM -SHSN FEW009 BKN035 BKN080 01/M00 A2985 RMK SF2SC4AC1 SLP112

CYQB;2008-10-30 11:00;CYQB 301100Z 26017KT 10SM FEW009 FEW020 SCT080 BKN240 01/M01 A2990 RMK SF1SC2AC2CI0 SLP129

CYQB;2008-10-30 12:00;CYQB 301200Z 25016KT 15SM FEW020 FEW040 SCT120 BKN240 01/M01 A2997 RMK SC1SC2AC2CI2 SLP154

CYQB;2008-10-30 13:00;CYQB 301300Z 25011KT 15SM FEW020 BKN120 BKN240 01/M01 A3003 RMK SC2AC2CI2 SLP171

CYQB;2008-10-30 14:00;CYQB 301400Z 28014KT 15SM FEW020 FEW040 SCT120 BKN240 03/M00 A3008 RMK SC1SC2AC2CI0 SLP189

CYQB;2008-10-30 15:00;CYQB 301500Z 30013G20KT 15SM SCT025 SCT040 SCT120 03/M02 A3012 RMK SC3SC1AC1 SLP204

CYQB;2008-10-30 16:00;CYQB 301600Z 29015G21KT 15SM SCT030 SCT120 SCT240 04/M02 A3015 RMK SC3AC1CI1 SLP214

CYQB;2008-10-30 17:00;CYQB 301700Z 32014G21KT 15SM SCT030 BKN120 03/M02 A3018 RMK SC4AC1 SLP224

CYQB;2008-10-30 18:00;CYQB 301800Z 32011G16KT 15SM BKN032 03/M03 A3021 RMK SC7 SLP234

CYQB;2008-10-30 19:00;CYQB 301900Z 32008KT 15SM BKN031 03/M03 A3024 RMK SC7 SLP243

CYQB;2008-10-30 20:00;CYQB 302000Z 29007KT 15SM BKN035 03/M03 A3026 RMK SC7 SLP251

CYQB;2008-10-30 21:00;CYQB 302100Z 27007KT 15SM BKN036 03/M02 A3028 RMK SC7 SLP259

CYQB;2008-10-30 22:00;CYQB 302200Z 26007KT 15SM BKN041 02/M02 A3031 RMK SC7 SLP268

CYQB;2008-10-30 23:00;CYQB 302300Z 27006KT 15SM BKN036 02/M01 A3033 RMK SC7 SLP274

CYQB;2008-10-31 00:00;CYQB 310000Z 27005KT 15SM BKN033 02/M02 A3034 RMK SC6 SLP277

CYQB;2008-10-31 01:00;CYQB 310100Z 27008KT 15SM BKN035 02/M02 A3035 RMK SC6 SLP280

CYQB;2008-10-31 02:00;CYQB 310200Z 27010KT 15SM OVC034 02/M02 A3036 RMK SC8 SLP284

CYQB;2008-10-31 03:00;CYQB 310300Z 26005KT 15SM OVC028 01/M01 A3036 RMK SC8 SLP285

CYQB;2008-10-31 04:00;CYQB 310400Z 26005KT 15SM FEW016 BKN028 01/M02 A3036 RMK SC2SC6 SLP284

CYQB;2008-10-31 05:00;CYQB 310500Z 25009KT 15SM FEW025 SCT220 00/M02 A3035 RMK SC1CI0 SLP280

CYQB;2008-10-31 06:00;CYQB 310600Z 27006KT 15SM FEW025 FEW220 M02/M03 A3033 RMK SC1CI1 SLP273

CYQB;2008-10-31 07:00;CYQB 310700Z 27004KT 15SM FEW025 FEW200 M02/M03 A3031 RMK SC1CI1 SLP269

CYQB;2008-10-31 08:00;CYQB 310800Z 00000KT 15SM FEW025 FEW200 M02/M03 A3029 RMK SC1CI1 SLP262

CYQB;2008-10-31 09:00;CYQB 310900Z 00000KT 15SM FEW025 FEW200 M02/M03 A3028 RMK SC1CI1 SLP259

CYQB;2008-10-31 10:00;CYQB 311000Z 00000KT 15SM BKN030 M02/M03 A3027 RMK SC7 SLP253

CYQB;2008-10-31 11:00;CYQB 311100Z 00000KT 15SM BKN026 M01/M02 A3024 RMK SC7 SLP243

CYQB;2008-10-31 12:00;CYQB 311200Z 00000KT 30SM BKN021 M00/M02 A3022 RMK SC7 SLP239

CYQB;2008-10-31 13:00;CYQB 311300Z 00000KT 20SM BKN019 00/M01 A3020 RMK SC7 SLP232

CYQB;2008-10-31 14:00;CYQB 311400Z 26002KT 20SM BKN017 01/M02 A3018 RMK SC7 SLP225

CYQB;2008-10-31 15:00;CYQB 311500Z 26005KT 20SM BKN019 02/M01 A3017 RMK SC7 SLP218

CYQB;2008-10-31 16:00;CYQB 311600Z 25008KT 20SM FEW020 BKN220 04/00 A3014 RMK SC2CI2 SLP209

CYQB;2008-10-31 17:00;CYQB 311700Z 28008KT 20SM FEW025 SCT220 06/02 A3010 RMK SC2CI2 SLP196

CYQB;2008-10-31 18:00;CYQB 311800Z 26008KT 20SM FEW030 SCT220 08/03 A3006 RMK SC2CI1 SLP181

CYQB;2008-10-31 19:00;CYQB 311900Z 28010KT 20SM FEW030 SCT220 08/03 A3003 RMK SC2CI1 SLP172

CYQB;2008-10-31 20:00;CYQB 312000Z 31008KT 20SM FEW040 SCT220 07/03 A3003 RMK SC2CI1 SLP171

CYQB;2008-10-31 21:00;CYQB 312100Z 32007KT 20SM FEW030 BKN060 BKN200 06/03 A3003 RMK SC2SC3CI1 SLP171

CYQB;2008-10-31 22:00;CYQB 312200Z 35007KT 20SM BKN032 06/03 A3004 RMK SC6 SLP177

CYQB;2008-10-31 23:00;CYQB 312300Z 27008KT 15SM SCT027 OVC035 07/04 A3006 RMK SC4SC4 SLP182

CYQB;2008-11-01 01:00;CYQB 010100Z 26011KT 15SM FEW035 SCT060 05/03 A3008 RMK SC2SC2 SLP190

CYQB;2008-11-01 02:00;CYQB 010200Z 33011G17KT 15SM FEW058 05/M00 A3012 RMK SC1 SLP202

CYQB;2008-11-01 03:00;CYQB 010300Z 32007KT 15SM SKC 04/M02 A3014 RMK SLP209

CYQB;2008-11-01 04:00;CYQB 010400Z 29007KT 15SM FEW035 02/M02 A3014 RMK CF1 SLP209

CYQB;2008-11-01 05:00;CYQB 010500Z 28010KT 15SM SCT042 01/M02 A3014 RMK SC3 SLP210

CYQB;2008-11-01 06:00;CYQB 010600Z 27010KT 15SM FEW040 M00/M02 A3015 RMK SC1 SLP212

CYQB;2008-11-01 07:00;CYQB 010700Z 27009KT 15SM FEW040 M00/M03 A3015 RMK SC1 SLP213

CYQB;2008-11-01 08:00;CYQB 010800Z 28009KT 15SM SKC M01/M03 A3016 RMK SLP215

CYQB;2008-11-01 09:00;CYQB 010900Z 27009KT 15SM SKC M01/M03 A3017 RMK SLP220

CYQB;2008-11-01 10:00;CYQB 011000Z 29005KT 15SM SCT035 00/M03 A3019 RMK SC4 SLP228

CYQB;2008-11-01 11:00;CYQB 011100Z 26009KT 15SM FEW040 M01/M04 A3021 RMK SC2 SLP233

CYQB;2008-11-01 12:00;CYQB 011200Z 27009KT 30SM FEW040 M01/M04 A3024 RMK SC2 SLP242

CYQB;2008-11-01 13:00;CYQB 011300Z 31009KT 30SM FEW045 01/M05 A3026 RMK SC2 SLP250

CYQB;2008-11-01 14:00;CYQB 011400Z 30011KT 30SM SCT045 02/M06 A3027 RMK SC4 SLP252

CYQB;2008-11-01 15:00;CYQB 011500Z CCA 33009G17KT 30SM BKN050 02/M07 A3028 RMK SC6 SLP255

CYQB;2008-11-01 16:00;CYQB 011600Z 32011G17KT 30SM BKN050 03/M08 A3027 RMK SC5 SLP252

CYQB;2008-11-01 17:00;CYQB 011700Z 31014G20KT 30SM SCT055 04/M07 A3025 RMK SC4 SLP247

CYQB;2008-11-01 18:00;CYQB 011800Z 30013KT 30SM BKN055 03/M07 A3025 RMK SC5 SLP249

CYQB;2008-11-01 19:00;CYQB 011900Z 31013KT 30SM SCT055 04/M07 A3024 RMK SC4 SLP245

CYQB;2008-11-01 20:00;CYQB 012000Z 28012KT 30SM SCT055 03/M07 A3024 RMK SC3 SLP245

CYQB;2008-11-01 21:00;CYQB 012100Z 31009KT 30SM BKN058 02/M08 A3025 RMK SC5 SLP248

CYQB;2008-11-01 22:00;CYQB 012200Z 32004KT 30SM BKN056 01/M08 A3026 RMK SC5 SLP251

CYQB;2008-11-01 23:00;CYQB 012300Z 30007KT 15SM BKN055 01/M07 A3026 RMK SC5 SLP252

CYQB;2008-11-02 00:00;CYQB 020000Z 32009KT 15SM BKN052 01/M08 A3028 RMK SC6 SLP258

CYQB;2008-11-02 01:00;CYQB 020100Z 31012G22KT 15SM BKN055 01/M09 A3029 RMK SC6 SLP262

CYQB;2008-11-02 02:00;CYQB 020200Z 32010G15KT 15SM BKN055 01/M09 A3030 RMK SC6 SLP266

CYQB;2008-11-02 03:00;CYQB 020300Z 30006KT 15SM OVC063 00/M09 A3030 RMK SC8 SLP265

CYQB;2008-11-02 04:00;CYQB 020400Z 24008KT 15SM BKN064 M00/M08 A3030 RMK SC6 SLP266

CYQB;2008-11-02 05:00;CYQB 020500Z 34010KT 4SM -SHSN BKN030 OVC060 M01/M07 A3033 RMK SC7SC1 SLP274

CYQB;2008-11-02 05:43;CYQB 020543Z 31006KT 15SM SCT030 M02/ RMK SC3

CYQB;2008-11-02 06:00;CYQB 020600Z 32006KT 15SM FEW030 M02/M06 A3035 RMK SC2 SLP281

CYQB;2008-11-02 07:00;CYQB 020700Z 32006KT 15SM FEW030 M02/M08 A3038 RMK SC1 SLP292

CYQB;2008-11-02 08:00;CYQB 020800Z 34006KT 15SM FEW030 M02/M09 A3040 RMK SC1 SLP298

CYQB;2008-11-02 09:00;CYQB 020900Z 31004KT 15SM FEW030 M04/M09 A3043 RMK SC2 SLP308

CYQB;2008-11-02 10:00;CYQB 021000Z 23004KT 15SM FEW038 M04/M09 A3045 RMK SC2 SLP317

CYQB;2008-11-02 11:00;CYQB 021100Z 27006KT 15SM FEW038 M04/M09 A3048 RMK SC2 SLP325

CYQB;2008-11-02 12:00;CYQB 021200Z 31009KT 30SM FEW040 M03/M08 A3051 RMK SC2 SLP335

CYQB;2008-11-02 13:00;CYQB 021300Z 32011G16KT 30SM FEW040 M01/M09 A3053 RMK SC2 SLP344

CYQB;2008-11-02 14:00;CYQB 021400Z 34006KT 30SM FEW040 M00/M09 A3055 RMK SC2 SLP348

CYQB;2008-11-02 15:00;CYQB 021500Z 36008KT 30SM FEW040 01/M09 A3056 RMK SC1 SLP352

CYQB;2008-11-02 16:00;CYQB 021600Z 36005KT 30SM FEW040 02/M09 A3056 RMK SC1 SLP352

CYQB;2008-11-02 17:00;CYQB 021700Z 35004KT 30SM FEW030 FEW280 03/M08 A3055 RMK CU1CI0 SLP348

CYQB;2008-11-02 18:00;CYQB 021800Z 33005KT 30SM FEW040 03/M09 A3054 RMK SC1 SLP345

CYQB;2008-11-02 19:00;CYQB 021900Z 27006KT 30SM FEW040 04/M07 A3054 RMK SC1 SLP345

CYQB;2008-11-02 20:00;CYQB 022000Z 23007KT 30SM FEW040 SCT300 04/M07 A3053 RMK SC1CI0 SLP342

CYQB;2008-11-02 21:00;CYQB 022100Z 24008KT 30SM FEW040 FEW300 02/M08 A3052 RMK SC1CI1 SLP341

CYQB;2008-11-02 22:00;CYQB 022200Z 24006KT 15SM FEW300 01/M07 A3053 RMK CI1 SLP344

CYQB;2008-11-02 23:00;CYQB 022300Z 25004KT 15SM FEW300 M01/M07 A3054 RMK CI0 SLP347

CYQB;2008-11-03 00:00;CYQB 030000Z 25005KT 15SM FEW300 M01/M07 A3054 RMK CI0 SLP346

CYQB;2008-11-03 01:00;CYQB 030100Z 27004KT 15SM SCT250 M02/M06 A3054 RMK CI1 SLP345

CYQB;2008-11-03 02:00;CYQB 030200Z 23005KT 15SM BKN200 M01/M06 A3053 RMK CI2 SLP344

CYQB;2008-11-03 03:00;CYQB 030300Z 23002KT 15SM FEW160 OVC200 M02/M06 A3052 RMK AC2CI3 SLP339

CYQB;2008-11-03 04:00;CYQB 030400Z 14002KT 15SM SCT150 OVC170 M02/M06 A3050 RMK AC4AC4 SLP334

CYQB;2008-11-03 05:00;CYQB 030500Z 00000KT 15SM SCT130 OVC150 M02/M06 A3048 RMK AC4AC4 SLP326

CYQB;2008-11-03 06:00;CYQB 030600Z 03003KT 15SM SCT150 OVC170 M02/M06 A3046 RMK AC4AC4 SLP320

CYQB;2008-11-03 07:00;CYQB 030700Z 36003KT 15SM SCT160 BKN210 M02/M06 A3044 RMK AC3CI1 SLP314

CYQB;2008-11-03 08:00;CYQB 030800Z 02003KT 15SM SCT160 BKN200 M02/M05 A3041 RMK AC4CI2 SLP303

CYQB;2008-11-03 09:00;CYQB 030900Z 02004KT 15SM SCT140 OVC220 M02/M06 A3040 RMK AC4CI2 SLP297

CYQB;2008-11-03 10:00;CYQB 031000Z 36003KT 15SM SCT170 BKN240 M02/M06 A3039 RMK AC3CI0 SLP296

CYQB;2008-11-03 11:00;CYQB 031100Z 02004KT 15SM SCT150 BKN240 M03/M06 A3040 RMK AC3CI1 SLP297

CYQB;2008-11-03 12:00;CYQB 031200Z 00000KT 25SM SCT140 BKN240 M03/M06 A3039 RMK AC3CI1 SLP297

CYQB;2008-11-03 13:00;CYQB 031300Z 02003KT 25SM FEW047 BKN140 BKN200 M01/M05 A3040 RMK SC1AC4CI1 SLP298

CYQB;2008-11-03 14:00;CYQB 031400Z 23002KT 25SM FEW047 BKN140 BKN200 01/M05 A3038 RMK SC1AC4CI1 SLP292

CYQB;2008-11-03 15:00;CYQB 031500Z 27005KT 25SM BKN150 BKN200 03/M05 A3037 RMK AC6CI1 SLP289

CYQB;2008-11-03 16:00;CYQB 031600Z 27007KT 25SM BKN120 BKN200 04/M05 A3036 RMK AC6CI1 SLP284

CYQB;2008-11-03 17:00;CYQB 031700Z 25008KT 25SM BKN100 BKN200 05/M03 A3033 RMK AC6CI1 SLP276

CYQB;2008-11-03 18:00;CYQB 031800Z 26010KT 25SM FEW090 BKN130 06/M03 A3031 RMK AC2AC5 SLP269

CYQB;2008-11-03 19:00;CYQB 031900Z 27011KT 25SM FEW040 SCT090 BKN130 06/M02 A3031 RMK SC1AC3AC2 SLP268

CYQB;2008-11-03 20:00;CYQB 032000Z 26008KT 30SM BKN086 BKN240 06/M01 A3030 RMK AC7CI1 SLP265

CYQB;2008-11-03 21:00;CYQB 032100Z 25006KT 20SM OVC026 06/M00 A3030 RMK SC8 SLP266

CYQB;2008-11-03 22:00;CYQB 032200Z 26004KT 15SM OVC027 05/00 A3032 RMK SC8 SLP271

CYQB;2008-11-03 23:00;CYQB 032300Z 26005KT 15SM BKN023 OVC033 05/01 A3033 RMK SC6SC2 SLP273

CYQB;2008-11-04 00:00;CYQB 040000Z 24007KT 15SM BKN021 OVC032 05/01 A3033 RMK SC6SC2 SLP275

CYQB;2008-11-04 01:00;CYQB 040100Z 26005KT 15SM OVC018 05/01 A3034 RMK SC8 SLP279

CYQB;2008-11-04 02:00;CYQB 040200Z 27003KT 15SM OVC016 05/02 A3035 RMK SC8 SLP281

CYQB;2008-11-04 03:00;CYQB 040300Z 27002KT 15SM OVC017 05/02 A3035 RMK SC8 SLP280

CYQB;2008-11-04 04:00;CYQB 040400Z 23003KT 15SM BKN016 OVC027 05/02 A3033 RMK SC7SC1 SLP276

CYQB;2008-11-04 05:00;CYQB 040500Z 23006KT 15SM BKN014 OVC022 05/02 A3033 RMK SC7SC1 SLP275

CYQB;2008-11-04 06:00;CYQB 040600Z 23006KT 15SM BKN014 OVC020 05/02 A3033 RMK SC7SC1 SLP272

CYQB;2008-11-04 07:00;CYQB 040700Z 23006KT 6SM BR SCT014 OVC020 04/03 A3033 RMK SC4SC4 SLP272

CYQB;2008-11-04 08:00;CYQB 040800Z 23004KT 3SM BR FEW010 OVC014 04/03 A3032 RMK SF2SC6 SLP271

CYQB;2008-11-04 09:00;CYQB 040900Z 19003KT 3SM BR BKN012 OVC020 04/03 A3033 RMK SF5SC3 SLP272

CYQB;2008-11-04 10:00;CYQB 041000Z 00000KT 1SM R06/P6000FT/U -DZ BR OVC010 04/04 A3033 RMK FG2ST6 SLP272

CYQB;2008-11-04 11:00;CYQB 041100Z 00000KT 5/8SM R06/P6000FT/U -DZ BR OVC007 04/03 A3033 RMK FG6ST2 SLP272

CYQB;2008-11-04 11:48;CYQB 041148Z 36003KT 3/4SM R06/P6000FT/D -DZ BR OVC008 04/ RMK FG2ST6

CYQB;2008-11-04 12:00;CYQB 041200Z 36002KT 1 1/2SM BR FEW002 OVC009 04/04 A3033 RMK FG1SF1ST6 CIG VRB 7-11 SLP273

CYQB;2008-11-04 12:29;CYQB 041229Z 36003KT 2 1/4SM BR OVC008 OVC023 04/ RMK FG1ST3SC4

CYQB;2008-11-04 13:00;CYQB 041300Z 00000KT 2 1/2SM BR OVC008 OVC018 05/04 A3032 RMK FG1ST2SC5 SLP271

CYQB;2008-11-04 14:00;CYQB 041400Z 02003KT 1 3/4SM -DZ BR OVC015 05/04 A3032 RMK FG2ST6 SLP269

CYQB;2008-11-04 14:34;CYQB 041434Z 01003KT 2SM BR OVC016 05/ RMK FG1ST7

CYQB;2008-11-04 15:00;CYQB 041500Z 00000KT 3SM BR BKN015 OVC025 05/05 A3030 RMK ST4SC4 SLP264

CYQB;2008-11-04 16:00;CYQB 041600Z 00000KT 4SM BR BKN014 OVC032 07/05 A3028 RMK ST4SC4 SLP257

CYQB;2008-11-04 17:00;CYQB 041700Z CCA 27002KT 6SM HZ FEW015 BKN062 09/06 A3025 RMK ST2SC5 SLP245

CYQB;2008-11-04 18:00;CYQB 041800Z 32004KT 7SM BKN026 OVC062 10/07 A3024 RMK SC6SC2 HAZY SLP242

CYQB;2008-11-04 19:00;CYQB 041900Z 29003KT 6SM HZ OVC027 10/07 A3023 RMK SC8 SLP240

CYQB;2008-11-04 20:00;CYQB 042000Z 23006KT 6SM HZ SCT030 OVC042 11/07 A3022 RMK SC3SC5 SLP235

CYQB;2008-11-04 21:00;CYQB 042100Z 26002KT 6SM HZ FEW030 OVC038 10/07 A3021 RMK SC2SC6 SLP232

CYQB;2008-11-04 22:00;CYQB 042200Z 01002KT 6SM HZ FEW032 BKN040 09/06 A3020 RMK SC2SC5 SLP231

CYQB;2008-11-04 23:00;CYQB 042300Z 35003KT 8SM OVC049 08/05 A3021 RMK SC8 HAZY SLP233

CYQB;2008-11-05 00:00;CYQB 050000Z 34003KT 6SM HZ BKN057 08/06 A3019 RMK SC7 SLP227

CYQB;2008-11-05 01:00;CYQB 050100Z 34002KT 8SM FEW060 07/06 A3018 RMK SC2 HAZY SLP224

CYQB;2008-11-05 02:00;CYQB 050200Z 27002KT 8SM FEW040 BKN063 06/05 A3019 RMK SC2SC5 HAZY SLP226

CYQB;2008-11-05 03:00;CYQB 050300Z 26002KT 8SM SCT050 06/05 A3018 RMK SC4 HAZY SLP222

CYQB;2008-11-05 04:00;CYQB 050400Z 00000KT 6SM BR BKN240 05/05 A3017 RMK CI6 SLP219

CYQB;2008-11-05 05:00;CYQB 050500Z 27002KT 3SM BR OVC230 05/04 A3016 RMK CI8 SLP217

CYQB;2008-11-05 06:00;CYQB 050600Z 00000KT 2 1/2SM BR OVC220 05/05 A3016 RMK CI8 SLP216

CYQB;2008-11-05 07:00;CYQB 050700Z 23002KT 6SM BR OVC210 06/05 A3016 RMK CI8 VIS N-E 21/2 SLP216

CYQB;2008-11-05 08:00;CYQB 050800Z 16002KT 6SM BR OVC190 05/05 A3014 RMK AC8 VIS N-E 21/2 SLP210

CYQB;2008-11-05 09:00;CYQB 050900Z 02003KT 3SM R06/3000VP6000FT/D BR OVC200 05/05 A3014 RMK CI8 SLP210

CYQB;2008-11-05 10:00;CYQB 051000Z 15003KT 1 1/2SM BR BKN043 OVC190 06/05 A3014 RMK FG2SC5AC2 SLP210

CYQB;2008-11-05 10:24;CYQB 051024Z 00000KT 15SM SCT043 BKN080 OVC190 06/ RMK SC3AC2AC3 TWR VIS 30

CYQB;2008-11-05 11:00;CYQB 051100Z 19002KT 3SM BR SCT060 BKN080 BKN220 06/05 A3014 RMK SC3AC2CI1 VIS LWR E-SE SLP209

CYQB;2008-11-05 11:13;CYQB 051113Z 00000KT 2SM BR BKN052 BKN068 06/ RMK SC5AC2

CYQB;2008-11-05 12:00;CYQB 051200Z 28002KT 1 1/2SM BR BKN060 BKN068 06/06 A3015 RMK SC5AC2 SLP213

CYQB;2008-11-05 12:21;CYQB 051221Z 17003KT 4SM BR BKN061 07/ RMK SC6

CYQB;2008-11-05 13:00;CYQB 051300Z 19002KT 4SM BR BKN065 08/07 A3017 RMK SC4 VIS LWR E-S SLP217

CYQB;2008-11-05 14:00;CYQB 051400Z 27010KT 4SM HZ BKN052 12/09 A3017 RMK SC4 SLP219

CYQB;2008-11-05 15:00;CYQB 051500Z 26008KT 6SM HZ BKN049 12/09 A3018 RMK SC6 SLP221

CYQB;2008-11-05 16:00;CYQB 051600Z 27006KT 6SM HZ FEW050 13/09 A3017 RMK SC2 SLP218

CYQB;2008-11-05 17:00;CYQB 051700Z 25011KT 5SM HZ FEW060 15/10 A3014 RMK SC0 SLP210

CYQB;2008-11-05 18:00;CYQB 051800Z 26007KT 5SM HZ FEW030 16/10 A3013 RMK CF1 SLP206

CYQB;2008-11-05 19:00;CYQB 051900Z 26007KT 5SM HZ FEW060 17/10 A3013 RMK SC1 SLP205

CYQB;2008-11-05 20:00;CYQB 052000Z 22003KT 6SM HZ FEW060 16/10 A3013 RMK SC1 SLP205

CYQB;2008-11-05 21:00;CYQB 052100Z 25004KT 6SM HZ FEW060 14/09 A3014 RMK SC1 SLP207

CYQB;2008-11-05 22:00;CYQB 052200Z 30003KT 6SM HZ SKC 12/09 A3014 RMK SLP209

CYQB;2008-11-05 23:00;CYQB 052300Z 00000KT 6SM HZ SKC 11/09 A3015 RMK SLP213

CYQB;2008-11-06 00:00;CYQB 060000Z 00000KT 6SM HZ SKC 09/08 A3016 RMK SLP214

CYQB;2008-11-06 01:00;CYQB 060100Z 00000KT 5SM BR SKC 09/07 A3016 RMK SLP216

CYQB;2008-11-06 02:00;CYQB 060200Z 34002KT 5SM BR SKC 08/07 A3016 RMK SLP216

CYQB;2008-11-06 03:00;CYQB 060300Z 05002KT 5SM BR SKC 08/07 A3015 RMK SLP213

CYQB;2008-11-06 04:00;CYQB 060400Z 01002KT 5SM R06/3500VP6000FT/D BR SKC 08/06 A3015 RMK SLP212

CYQB;2008-11-06 05:00;CYQB 060500Z 01003KT 5SM R06/2000FT/N BR SKC 07/06 A3015 RMK SLP213

CYQB;2008-11-06 06:00;CYQB 060600Z 36003KT 5SM R06/3000VP6000FT/D BR SKC 05/05 A3015 RMK SLP212

CYQB;2008-11-06 07:00;CYQB 060700Z 00000KT 4SM R06/1800FT/N BR SKC 04/03 A3015 RMK SLP213

CYQB;2008-11-06 08:00;CYQB 060800Z 00000KT 6SM R06/1200V1800FT/N BR SKC 04/03 A3015 RMK SLP213

CYQB;2008-11-06 09:00;CYQB 060900Z 00000KT 2SM R06/2800V6000FT/N BR SKC 03/02 A3017 RMK SLP220

CYQB;2008-11-06 10:00;CYQB 061000Z 00000KT 6SM R06/0700FT/N BR FEW011 03/02 A3017 RMK ST2 FG OVR RVR SLP220

CYQB;2008-11-06 11:00;CYQB 061100Z 00000KT 5SM BR FEW011 FEW230 03/03 A3018 RMK ST1CI1 FG SW QUAD VIS 2 SLP222

CYQB;2008-11-06 11:49;CYQB 061149Z 35003KT 1/4SM R06/1200V2000FT/N FG SCT230 02/ RMK FG2CI1 VIS S-SW 3

CYQB;2008-11-06 12:00;CYQB 061200Z 00000KT 1/8SM FG SCT230 03/02 A3019 RMK FG3CI1 VIS S 1 SLP226

CYQB;2008-11-06 12:16;CYQB 061216Z 14002KT 1 1/2SM BR SKC 02/ RMK FG2 PRFG VIS N 3

CYQB;2008-11-06 12:34;CYQB 061234Z 00000KT 2SM BR SKC 03/ RMK FG2 PRFG

CYQB;2008-11-06 13:00;CYQB 061300Z 00000KT 2 1/2SM BR SKC 05/04 A3019 RMK FG1 SLP227

CYQB;2008-11-06 14:00;CYQB 061400Z 35002KT 2 1/4SM BR SKC 07/07 A3018 RMK FG1 SLP222

CYQB;2008-11-06 14:27;CYQB 061427Z 00000KT 4SM BR FEW230 10/ RMK FG1CI1 VIS LWR E

CYQB;2008-11-06 15:00;CYQB 061500Z 00000KT 4SM HZ FEW230 12/09 A3018 RMK CI2 VIS LWR E AND W SLP222

CYQB;2008-11-06 16:00;CYQB 061600Z 18002KT 4SM HZ FEW230 14/10 A3017 RMK CI2 VIS E AND W 3 SLP217

CYQB;2008-11-06 17:00;CYQB 061700Z 27002KT 4SM HZ FEW230 16/10 A3014 RMK CI1 SLP209

CYQB;2008-11-06 18:00;CYQB 061800Z 24005KT 6SM HZ SCT230 18/10 A3013 RMK CI2 VIS LWR E SLP203

CYQB;2008-11-06 19:00;CYQB 061900Z 22005KT 6SM HZ BKN230 18/10 A3012 RMK CI2 VIS LWR E SLP200

CYQB;2008-11-06 20:00;CYQB 062000Z CCA 20006KT 8SM BKN230 16/10 A3012 RMK CI2 VIS E 4 HAZY SLP202

CYQB;2008-11-06 21:00;CYQB 062100Z 26004KT 8SM BKN230 13/09 A3012 RMK CI2 VIS E 4 HAZY SLP203

CYQB;2008-11-06 22:00;CYQB 062200Z 00000KT 8SM BKN230 12/08 A3012 RMK CI2 VIS E 4 SLP203

CYQB;2008-11-06 23:00;CYQB 062300Z 19003KT 8SM FEW230 08/07 A3014 RMK CI0 SLP207

CYQB;2008-11-07 00:00;CYQB 070000Z 01004KT 8SM FEW230 11/08 A3012 RMK CI1 SLP203

CYQB;2008-11-07 01:00;CYQB 070100Z 02006KT 8SM FEW230 11/08 A3012 RMK CI1 SLP202

CYQB;2008-11-07 02:00;CYQB 070200Z 36002KT 6SM BR FEW230 06/06 A3010 RMK CI1 SLP194

CYQB;2008-11-07 03:00;CYQB 070300Z CCA 04004KT 8SM FEW230 09/08 A3008 RMK CI1 HAZY SLP188

CYQB;2008-11-07 04:00;CYQB 070400Z 01005KT 10SM FEW230 09/07 A3008 RMK CI0 HAZY SLP187

CYQB;2008-11-07 05:00;CYQB 070500Z 03005KT 10SM SCT230 09/07 A3008 RMK CI1 SLP187

CYQB;2008-11-07 06:00;CYQB 070600Z 02004KT 10SM FEW230 08/07 A3007 RMK CI1 SLP184

CYQB;2008-11-07 07:00;CYQB 070700Z 07003KT 8SM FEW230 07/06 A3007 RMK CI0 SLP183

CYQB;2008-11-07 08:00;CYQB 070800Z 06004KT 8SM SCT200 07/06 A3005 RMK CI1 SLP178

CYQB;2008-11-07 09:00;CYQB 070900Z 05004KT 6SM BR FEW160 SCT200 07/06 A3006 RMK AC1CI0 SLP179

CYQB;2008-11-07 10:00;CYQB 071000Z 05003KT 6SM BR FEW160 BKN200 07/06 A3005 RMK AC1CI0 SLP178

CYQB;2008-11-07 11:00;CYQB 071100Z 07009KT 6SM BR SCT120 BKN200 08/06 A3005 RMK AC2CI2 SLP178

CYQB;2008-11-07 12:00;CYQB 071200Z 08013KT 5SM BR BKN120 OVC200 08/07 A3005 RMK AC4CI2 SLP179

CYQB;2008-11-07 13:00;CYQB 071300Z 07012G17KT 5SM BR FEW020 OVC110 08/07 A3005 RMK CF1AC7 SLP178

CYQB;2008-11-07 13:41;CYQB 071341Z 07017KT 4SM BR BKN008 OVC067 08/ RMK SF6AC2

CYQB;2008-11-07 14:00;CYQB 071400Z 07013G19KT 5SM BR BKN008 OVC069 07/06 A3003 RMK SF5AC3 SLP173

CYQB;2008-11-07 14:45;CYQB 071445Z 08011G16KT 5SM -SHRA BR BKN008 OVC020 07/ RMK SF7SC1

CYQB;2008-11-07 15:00;CYQB 071500Z 08010G19KT 6SM -SHRA BR BKN009 OVC020 07/06 A3003 RMK SF7SC1 SLP172

CYQB;2008-11-07 16:00;CYQB 071600Z CCA 07015KT 8SM -SHRA BKN009 OVC042 07/06 A3002 RMK SF6SC2 VIS NE 10 SLP167

CYQB;2008-11-07 17:00;CYQB 071700Z 08015G22KT 8SM -SHRA BKN008 OVC040 07/06 A3000 RMK SF5SC3 SLP160

CYQB;2008-11-07 18:00;CYQB 071800Z 08018G25KT 10SM BKN009 OVC040 06/05 A2997 RMK SF5SC3 OCNL -SHRA SLP153

CYQB;2008-11-07 19:00;CYQB 071900Z 08013G18KT 10SM OVC008 06/05 A2996 RMK SF8 SLP147

CYQB;2008-11-07 19:40;CYQB 071940Z 07014KT 6SM -SHRA BR OVC006 06/ RMK SF8

CYQB;2008-11-07 20:00;CYQB 072000Z 08011G17KT 6SM -SHRA BR OVC006 06/04 A2995 RMK SF8 SLP146

CYQB;2008-11-07 21:00;CYQB 072100Z 08017KT 6SM -SHRA BR OVC006 05/04 A2995 RMK SF8 SLP145

CYQB;2008-11-07 22:00;CYQB 072200Z 08020G27KT 6SM -SHRA BR OVC005 05/04 A2994 RMK SF8 SLP140

CYQB;2008-11-07 23:00;CYQB 072300Z 07016G24KT 6SM -DZ BR OVC005 05/04 A2993 RMK SF8 SLP137

CYQB;2008-11-08 00:00;CYQB 080000Z 08014G25KT 6SM -DZ BR OVC005 05/04 A2992 RMK SF8 SLP135

CYQB;2008-11-08 01:00;CYQB 080100Z 07013G24KT 6SM -DZ BR OVC005 04/04 A2992 RMK SF8 SLP133

CYQB;2008-11-08 02:00;CYQB 080200Z 08010G15KT 6SM -DZ BR OVC006 04/04 A2992 RMK ST8 SLP133

CYQB;2008-11-08 03:00;CYQB 080300Z 08012KT 6SM -RA BR OVC005 04/04 A2989 RMK ST8 SLP123

CYQB;2008-11-08 04:00;CYQB 080400Z 07015KT 10SM -RA OVC004 04/04 A2986 RMK ST8 SLP115

CYQB;2008-11-08 05:00;CYQB 080500Z 07017G22KT 8SM -RA OVC004 04/04 A2985 RMK ST8 SLP110

CYQB;2008-11-08 06:00;CYQB 080600Z 08012G18KT 10SM -DZ OVC004 04/04 A2983 RMK ST8 SLP105

CYQB;2008-11-08 07:00;CYQB 080700Z 08012G27KT 8SM -DZ OVC004 04/04 A2983 RMK ST8 SLP104

CYQB;2008-11-08 08:00;CYQB 080800Z 08008G21KT 6SM -DZ BR OVC005 04/04 A2981 RMK ST8 SLP098

CYQB;2008-11-08 09:00;CYQB 080900Z 08014G19KT 6SM -DZ BR OVC005 04/04 A2980 RMK ST8 SLP094

CYQB;2008-11-08 10:00;CYQB 081000Z 08013G19KT 10SM -DZ OVC004 04/04 A2978 RMK ST8 SLP088

CYQB;2008-11-08 10:48;CYQB 081048Z 08011G17KT 6SM -DZ OVC007 04/ RMK ST8

CYQB;2008-11-08 11:00;CYQB 081100Z 08013KT 8SM -DZ OVC005 04/04 A2977 RMK ST8 SLP083

CYQB;2008-11-08 11:44;CYQB 081144Z 09010G16KT 1 1/2SM -DZ BR OVC007 04/ RMK ST8

CYQB;2008-11-08 12:00;CYQB 081200Z 08008G18KT 1 1/2SM -DZ BR OVC007 05/04 A2977 RMK ST8 SLP085

CYQB;2008-11-08 12:39;CYQB 081239Z 08011G21KT 4SM -DZ BR OVC005 05/ RMK ST8

CYQB;2008-11-08 13:00;CYQB 081300Z 08013KT 6SM -DZ BR OVC006 05/04 A2976 RMK ST8 SLP080

CYQB;2008-11-08 14:00;CYQB 081400Z 08010G16KT 1 1/2SM -DZ BR OVC006 05/04 A2974 RMK ST8 SLP075

CYQB;2008-11-08 14:42;CYQB 081442Z 08011G18KT 3SM -DZ BR BKN008 OVC014 05/ RMK ST6SC2

CYQB;2008-11-08 15:00;CYQB 081500Z 08014G20KT 8SM -DZ OVC006 05/04 A2972 RMK ST8 SLP067

CYQB;2008-11-08 16:00;CYQB 081600Z 08010G16KT 2 1/2SM -DZ BR OVC004 05/05 A2970 RMK ST8 SLP058

CYQB;2008-11-08 16:26;CYQB 081626Z 09008G15KT 1 1/2SM -DZ BR OVC007 05/ RMK ST8

CYQB;2008-11-08 16:50;CYQB 081650Z 09009G18KT 3SM -DZ BR OVC005 05/ RMK ST8

CYQB;2008-11-08 17:00;CYQB 081700Z 08011G16KT 3SM -DZ BR OVC006 05/05 A2967 RMK ST8 SLP049

CYQB;2008-11-08 18:00;CYQB 081800Z 09012KT 3SM -DZ BR OVC005 05/05 A2965 RMK ST8 VIS LWR N AND E SLP044

CYQB;2008-11-08 19:00;CYQB 081900Z 08011G16KT 5SM -SHRA BR OVC004 05/05 A2963 RMK ST8 SLP036

CYQB;2008-11-08 19:38;CYQB 081938Z 09009G17KT 2 1/2SM -SHRA BR OVC004 05/ RMK FG1ST7 VIS SW 4

CYQB;2008-11-08 20:00;CYQB 082000Z 08006KT 2SM -SHRA BR OVC004 05/05 A2962 RMK FG2ST6 SLP033

CYQB;2008-11-08 20:24;CYQB 082024Z 08008KT 5SM -SHRA BR OVC004 05/ RMK ST8

CYQB;2008-11-08 21:00;CYQB 082100Z 07007G15KT 5SM -RA BR OVC004 05/05 A2962 RMK ST8 SLP032

CYQB;2008-11-08 22:00;CYQB 082200Z 09012G18KT 5SM -RA BR OVC004 06/05 A2961 RMK SF8 SLP029

CYQB;2008-11-08 23:00;CYQB 082300Z 05006KT 10SM -RA OVC004 06/06 A2962 RMK ST8 SLP032

CYQB;2008-11-09 00:00;CYQB 090000Z 02008KT 10SM OVC004 06/06 A2960 RMK ST8 INTMT -RA SLP027

CYQB;2008-11-09 01:00;CYQB 090100Z 07012KT 6SM -RA BR OVC004 06/05 A2957 RMK ST8 SLP016

CYQB;2008-11-09 01:26;CYQB 090126Z 08013KT 6SM BR OVC003 06/ RMK ST8 INTMT -RA

CYQB;2008-11-09 02:00;CYQB 090200Z 09006KT 5SM -RA BR OVC003 06/06 A2958 RMK ST8 CIG VRB 2-4 -RA INTMT SLP018

CYQB;2008-11-09 03:00;CYQB 090300Z 11004KT 6SM -RA BR SCT003 OVC008 06/06 A2959 RMK SF4ST4 SLP021

CYQB;2008-11-09 04:00;CYQB 090400Z 09006KT 5SM -RA BR BKN005 OVC008 05/05 A2959 RMK SF6ST2 SLP021

CYQB;2008-11-09 05:00;CYQB 090500Z 04002KT 6SM -RA BR OVC004 05/05 A2958 RMK ST8 SLP019

CYQB;2008-11-09 06:00;CYQB 090600Z 06003KT 6SM -RA BR BKN005 OVC008 05/05 A2959 RMK SF6ST2 SLP023

CYQB;2008-11-09 07:00;CYQB 090700Z 07002KT 5SM -RA BR SCT002 OVC006 05/05 A2958 RMK SF3ST5 SLP020

CYQB;2008-11-09 08:00;CYQB 090800Z 00000KT 5SM -RA BR SCT002 BKN007 OVC013 05/05 A2958 RMK SF2SF3ST2 SLP019

CYQB;2008-11-09 09:00;CYQB 090900Z 00000KT 4SM -RA BR BKN002 OVC010 05/05 A2957 RMK SF5ST3 SLP017

CYQB;2008-11-09 09:32;CYQB 090932Z 00000KT 4SM -RA BR SCT002 OVC009 05/ RMK SF3ST5

CYQB;2008-11-09 10:00;CYQB 091000Z 00000KT 4SM -RA BR SCT002 OVC008 05/05 A2956 RMK SF2ST6 SLP012

CYQB;2008-11-09 11:00;CYQB 091100Z 00000KT 4SM -RA BR FEW002 OVC006 05/05 A2956 RMK SF2SC6 SLP013

CYQB;2008-11-09 11:29;CYQB 091129Z 00000KT 5SM BR SCT006 OVC008 06/ RMK SF4SC4

CYQB;2008-11-09 11:38;CYQB 091138Z 00000KT 5SM BR OVC006 05/ RMK SF8 CIG VRB 2-10

CYQB;2008-11-09 12:00;CYQB 091200Z 00000KT 5SM BR OVC006 06/05 A2957 RMK SF8 CIG VRB 2-10 SLP016

CYQB;2008-11-09 13:00;CYQB 091300Z 24007KT 5SM BR FEW005 OVC011 06/06 A2958 RMK SF2SC6 SLP020

CYQB;2008-11-09 14:00;CYQB 091400Z 25010KT 4SM -SHRA BR OVC010 07/06 A2958 RMK SF8 SLP020

CYQB;2008-11-09 15:00;CYQB 091500Z 25009KT 5SM -SHRA BR BKN008 OVC050 07/06 A2959 RMK SF6SC2 SLP022

CYQB;2008-11-09 16:00;CYQB 091600Z 25011KT 8SM -SHRA FEW008 OVC043 07/06 A2959 RMK SF2SC6 SLP024

CYQB;2008-11-09 17:00;CYQB 091700Z 25011KT 15SM -SHRA BKN011 BKN050 08/07 A2958 RMK CF6SC2 SLP020

CYQB;2008-11-09 17:57;CYQB 091757Z 26014KT 15SM BKN012 BKN050 08/ RMK CF5SC2

CYQB;2008-11-09 18:00;CYQB 091800Z 25014KT 15SM BKN018 08/06 A2959 RMK SC7 SLP021

CYQB;2008-11-09 19:00;CYQB 091900Z 26011G18KT 15SM FEW020 BKN050 08/04 A2959 RMK CF2SC5 SLP023

CYQB;2008-11-09 20:00;CYQB 092000Z 26012KT 20SM FEW020 BKN047 08/04 A2961 RMK SC1SC6 SLP029

CYQB;2008-11-09 21:00;CYQB 092100Z 25006KT 20SM FEW020 BKN057 07/04 A2963 RMK SC1SC6 SLP036

CYQB;2008-11-09 22:00;CYQB 092200Z 25005KT 15SM BKN058 06/03 A2965 RMK SC4 SLP043

CYQB;2008-11-09 23:00;CYQB 092300Z 25005KT 15SM SCT058 04/02 A2967 RMK SC3 SLP049

CYQB;2008-11-10 00:00;CYQB 100000Z 24007KT 15SM BKN059 06/03 A2968 RMK SC6 SLP052

CYQB;2008-11-10 01:00;CYQB 100100Z 25008KT 15SM BKN060 06/04 A2970 RMK SC6 SLP058

CYQB;2008-11-10 02:00;CYQB 100200Z 26008KT 15SM FEW060 04/03 A2971 RMK SC2 SLP063

CYQB;2008-11-10 03:00;CYQB 100300Z 26008KT 15SM FEW060 03/02 A2972 RMK SC2 SLP065

CYQB;2008-11-10 04:00;CYQB 100400Z 26006KT 15SM BKN040 BKN060 04/03 A2972 RMK SC5SC2 SLP068

CYQB;2008-11-10 05:00;CYQB 100500Z 23004KT 15SM BKN042 OVC071 04/03 A2973 RMK SC5AC3 SLP070

CYQB;2008-11-10 06:00;CYQB 100600Z 24005KT 15SM SCT010 BKN040 OVC070 04/04 A2974 RMK SF2SC2AC3 SLP072

CYQB;2008-11-10 07:00;CYQB 100700Z 26004KT 15SM FEW018 BKN053 OVC070 04/04 A2975 RMK SC1SC6AC2 SLP076

CYQB;2008-11-10 08:00;CYQB 100800Z 23003KT 15SM FEW018 BKN038 OVC063 04/04 A2975 RMK SC1SC5SC2 SLP075

CYQB;2008-11-10 09:00;CYQB 100900Z 26006KT 15SM FEW011 OVC050 05/04 A2976 RMK SF2SC6 SLP079

CYQB;2008-11-10 10:00;CYQB 101000Z 27009KT 15SM FEW011 BKN060 BKN090 04/04 A2977 RMK SF1SC5AC2 SLP084

CYQB;2008-11-10 11:00;CYQB 101100Z 26004KT 15SM BKN046 OVC090 04/03 A2978 RMK SC5AC3 SLP087

CYQB;2008-11-10 12:00;CYQB 101200Z 25005KT 15SM SCT046 BKN170 03/01 A2979 RMK SC4CI2 SLP092

CYQB;2008-11-10 13:00;CYQB 101300Z 00000KT 15SM SCT061 BKN180 03/02 A2981 RMK SC3CI2 SLP099

CYQB;2008-11-10 14:00;CYQB 101400Z 25005KT 15SM FEW020 SCT063 BKN090 OVC200 05/02 A2981 RMK SC1SC3AC2CI0 SLP098

CYQB;2008-11-10 15:00;CYQB 101500Z 24007KT 15SM FEW018 FEW060 BKN092 BKN200 05/02 A2981 RMK CF1SC1AC5CI1 SLP097

CYQB;2008-11-10 16:00;CYQB 101600Z 25007KT 15SM -SHRA FEW010 SCT018 OVC030 06/02 A2981 RMK CF1SC3SC5 SLP099

CYQB;2008-11-10 17:00;CYQB 101700Z 26006KT 15SM -SHRA FEW019 OVC024 05/02 A2981 RMK SC2SC6 SLP097

CYQB;2008-11-10 17:32;CYQB 101732Z 25012KT 7SM -SHRA FEW008 OVC012 04/ RMK SF2SC6

CYQB;2008-11-10 17:49;CYQB 101749Z 28005KT 10SM FEW008 OVC042 04/ RMK SF1SC8 OCNL -SHRA

CYQB;2008-11-10 18:00;CYQB 101800Z 27004KT 10SM FEW009 FEW025 OVC044 04/03 A2981 RMK SF1CU1SC7 OCNL -SHRA SLP098

CYQB;2008-11-10 19:00;CYQB 101900Z 24005KT 15SM BKN016 BKN074 05/03 A2981 RMK SC5AC2 SLP097

CYQB;2008-11-10 20:00;CYQB 102000Z 20005KT 10SM -SHRA BKN014 OVC040 05/03 A2981 RMK SC6SC2 SLP098

CYQB;2008-11-10 20:30;CYQB 102030Z 22005KT 15SM VCSH BKN016 BKN023 OVC040 04/ RMK SC5SC2SC2

CYQB;2008-11-10 21:00;CYQB 102100Z 27003KT 15SM -SHRA BKN019 OVC040 04/02 A2982 RMK SC5SC3 SLP102

CYQB;2008-11-10 22:00;CYQB 102200Z 26010KT 15SM FEW020 BKN027 BKN058 04/02 A2984 RMK SC2SC3SC2 OCNL -SHRA SLP108

CYQB;2008-11-10 22:30;CYQB 102230Z 26010KT 15SM FEW020 BKN079 03/ RMK SC2AC5

CYQB;2008-11-10 23:00;CYQB 102300Z 27011KT 15SM FEW020 SCT079 03/01 A2986 RMK SC1AC3 SLP113

CYQB;2008-11-10 23:03;CYQB 102303Z 27009G17KT 15SM FEW020 SCT080 02/ RMK SC1AC4

CYQB;2008-11-11 00:00;CYQB 110000Z 24007KT 15SM BKN068 02/M00 A2986 RMK AC6 SLP115

CYQB;2008-11-11 01:00;CYQB 110100Z 23006KT 15SM BKN095 02/M00 A2987 RMK AC6 SLP119

CYQB;2008-11-11 02:00;CYQB 110200Z CCA 26008KT 15SM -SHSN FEW030 BKN110 01/M00 A2989 RMK SC1AC5 SLP124

CYQB;2008-11-11 02:23;CYQB 110223Z 25005KT 15SM SCT095 01/ RMK AC3

CYQB;2008-11-11 03:00;CYQB 110300Z 26006KT 15SM FEW095 01/M00 A2989 RMK AC2 SLP124

CYQB;2008-11-11 04:00;CYQB 110400Z 23007KT 15SM FEW050 SCT150 00/M01 A2990 RMK SC2AC2 SLP127

CYQB;2008-11-11 05:00;CYQB 110500Z 25010KT 15SM BKN049 01/M01 A2991 RMK SC5 SLP131

CYQB;2008-11-11 06:00;CYQB 110600Z 25008KT 15SM FEW015 SCT140 M00/M02 A2992 RMK SC1AC3 SLP134

CYQB;2008-11-11 07:00;CYQB 110700Z 26007KT 15SM FEW050 BKN120 00/M01 A2993 RMK SC2AC5 SLP138

CYQB;2008-11-11 08:00;CYQB 110800Z 26004KT 15SM -SHSN FEW007 BKN060 OVC120 00/M01 A2993 RMK SF2SC5AC1 SLP140

CYQB;2008-11-11 09:00;CYQB 110900Z 26005KT 15SM -SHSN SCT007 OVC051 00/M01 A2994 RMK SF4SC3 SLP143

CYQB;2008-11-11 10:00;CYQB 111000Z 24007KT 10SM -SHSN FEW007 OVC037 00/M00 A2996 RMK SF2SC6 SLP148

CYQB;2008-11-11 11:00;CYQB 111100Z 26008KT 15SM -SHSN FEW019 OVC029 00/M00 A2997 RMK SC2SC6 SLP152

CYQB;2008-11-11 11:31;CYQB 111131Z 25010KT 15SM FEW020 OVC037 00/ RMK SC2SC6

CYQB;2008-11-11 12:00;CYQB 111200Z 24007KT 15SM FEW020 BKN044 00/M01 A2999 RMK SC2SC5 SLP160

CYQB;2008-11-11 13:00;CYQB 111300Z 25010KT 15SM FEW020 BKN035 01/M01 A3002 RMK SC2SC5 SLP169

CYQB;2008-11-11 13:48;CYQB 111348Z 23010KT 1SM R06/P6000FT/N -SHSN FEW020 BKN044 01/ RMK SC2SC6

CYQB;2008-11-11 14:00;CYQB 111400Z 24011KT 15SM FEW025 OVC057 01/M01 A3003 RMK SC2SC5 SLP174

CYQB;2008-11-11 15:00;CYQB 111500Z 26013KT 15SM FEW025 BKN050 02/M00 A3006 RMK SC2SC6 SLP181

CYQB;2008-11-11 16:00;CYQB 111600Z 26013KT 15SM BKN032 03/M00 A3006 RMK SC6 SLP182

CYQB;2008-11-11 17:00;CYQB 111700Z 26013G18KT 15SM BKN034 BKN080 04/M01 A3006 RMK SC5AC2 SLP184

CYQB;2008-11-11 18:00;CYQB 111800Z 30010G15KT 30SM BKN032 BKN110 03/M02 A3008 RMK SC5AC2 SLP188

CYQB;2008-11-11 19:00;CYQB 111900Z 27013KT 30SM SCT033 BKN110 03/M03 A3009 RMK SC3AC3 SLP194

CYQB;2008-11-11 20:00;CYQB 112000Z 27009KT 30SM FEW030 BKN045 BKN110 03/M02 A3011 RMK SC1SC6AC1 SLP201

CYQB;2008-11-11 21:00;CYQB 112100Z 27009KT 30SM FEW030 BKN040 BKN100 03/M02 A3013 RMK SC1SC4AC2 SLP207

CYQB;2008-11-11 22:00;CYQB 112200Z 26007KT 15SM BKN045 BKN089 02/M02 A3015 RMK SC6AC2 SLP213

CYQB;2008-11-11 23:00;CYQB 112300Z 26008KT 15SM FEW043 BKN093 02/M02 A3017 RMK SC2AC5 SLP220

CYQB;2008-11-12 00:00;CYQB 120000Z 25008KT 15SM FEW040 BKN090 BKN230 01/M02 A3018 RMK SC2AC4CI1 SLP225

CYQB;2008-11-12 01:00;CYQB 120100Z 23010KT 15SM FEW040 SCT090 BKN130 01/M02 A3021 RMK SC1AC2AC3 SLP233

CYQB;2008-11-12 02:00;CYQB 120200Z 26010KT 15SM FEW040 FEW090 OVC120 02/M02 A3022 RMK SC1AC1AC6 SLP238

CYQB;2008-11-12 03:00;CYQB 120300Z 23008KT 15SM FEW020 OVC120 01/M02 A3022 RMK SC1AC7 SLP238

CYQB;2008-11-12 04:00;CYQB 120400Z 25012KT 15SM FEW020 BKN120 01/M02 A3023 RMK SC1AC6 SLP240

CYQB;2008-11-12 05:00;CYQB 120500Z 25008KT 15SM FEW032 BKN120 M00/M03 A3024 RMK SC1AC2 SLP244

CYQB;2008-11-12 06:00;CYQB 120600Z 26008KT 15SM FEW032 BKN120 M01/M03 A3025 RMK SC1AC2 SLP246

CYQB;2008-11-12 07:00;CYQB 120700Z 26008KT 15SM FEW029 SCT110 M01/M03 A3027 RMK SC2AC2 SLP254

CYQB;2008-11-12 08:00;CYQB 120800Z 27007KT 15SM SCT029 BKN110 M01/M03 A3029 RMK SC3AC0 SLP260

CYQB;2008-11-12 09:00;CYQB 120900Z 27005KT 15SM BKN025 M01/M02 A3030 RMK SC6 SLP265

CYQB;2008-11-12 10:00;CYQB 121000Z 26006KT 15SM BKN025 M00/M02 A3031 RMK SC6 SLP268

CYQB;2008-11-12 11:00;CYQB 121100Z 25009KT 15SM BKN021 BKN068 M00/M03 A3032 RMK SC5AC2 SLP271

CYQB;2008-11-12 12:00;CYQB 121200Z 25008KT 30SM SCT020 BKN056 M01/M03 A3033 RMK SC4SC2 SLP274

CYQB;2008-11-12 13:00;CYQB 121300Z 24007KT 30SM FEW020 FEW055 M00/M03 A3034 RMK SC1SC2 SLP277

CYQB;2008-11-12 14:00;CYQB 121400Z 25007KT 30SM FEW020 BKN051 02/M02 A3034 RMK SC2SC4 SLP278

CYQB;2008-11-12 15:00;CYQB 121500Z 24008KT 30SM SCT026 BKN060 02/M03 A3035 RMK SC4SC1 SLP282

CYQB;2008-11-12 16:00;CYQB 121600Z 23008KT 30SM FEW026 BKN048 03/M02 A3034 RMK SC2SC4 SLP278

CYQB;2008-11-12 17:00;CYQB 121700Z 23010G17KT 30SM FEW026 BKN040 03/M02 A3033 RMK SC2SC5 SLP275

CYQB;2008-11-12 18:00;CYQB 121800Z 23010G15KT 30SM FEW030 OVC045 03/M02 A3033 RMK SC2SC6 SLP275

CYQB;2008-11-12 19:00;CYQB 121900Z 24012G17KT 30SM FEW036 OVC040 03/M03 A3034 RMK SC1SC8 SLP278

CYQB;2008-11-12 20:00;CYQB 122000Z 26011KT 30SM FEW040 OVC045 02/M03 A3035 RMK SC1SC8 SLP280

CYQB;2008-11-12 21:00;CYQB 122100Z 26008KT 30SM FEW042 BKN046 02/M03 A3035 RMK SC1SC7 SLP281

CYQB;2008-11-12 22:00;CYQB 122200Z 26006KT 15SM BKN044 02/M02 A3036 RMK SC6 SLP283

CYQB;2008-11-12 23:00;CYQB 122300Z 26006KT 15SM BKN044 01/M02 A3037 RMK SC7 SLP289

CYQB;2008-11-13 00:00;CYQB 130000Z 26006KT 15SM BKN046 01/M02 A3038 RMK SC7 SLP292

CYQB;2008-11-13 01:00;CYQB 130100Z 27007KT 15SM FEW045 M00/M03 A3037 RMK SC2 SLP288

CYQB;2008-11-13 02:00;CYQB 130200Z 25005KT 15SM FEW045 M00/M03 A3037 RMK SC1 SLP287

CYQB;2008-11-13 03:00;CYQB 130300Z 25005KT 15SM FEW045 M01/M03 A3037 RMK SC1 SLP287

CYQB;2008-11-13 04:00;CYQB 130400Z 00000KT 15SM SKC M02/M04 A3037 RMK SLP287

CYQB;2008-11-13 05:00;CYQB 130500Z 00000KT 15SM FEW090 M02/M04 A3038 RMK AC0 SLP291

CYQB;2008-11-13 06:00;CYQB 130600Z 06002KT 15SM FEW090 M03/M05 A3036 RMK AC0 FROIN SLP286

CYQB;2008-11-13 07:00;CYQB 130700Z 03003KT 15SM FEW090 M03/M04 A3035 RMK AC1 SLP282

CYQB;2008-11-13 08:00;CYQB 130800Z 02004KT 15SM FEW090 M03/M05 A3033 RMK AC1 SLP275

CYQB;2008-11-13 09:00;CYQB 130900Z 02005KT 15SM SKC M04/M05 A3032 RMK SLP271

CYQB;2008-11-13 10:00;CYQB 131000Z 02002KT 15SM SKC M04/M05 A3033 RMK SLP273

CYQB;2008-11-13 11:00;CYQB 131100Z 02004KT 15SM FEW230 M03/M05 A3032 RMK CI0 SLP272

CYQB;2008-11-13 12:00;CYQB 131200Z 06004KT 30SM FEW013 SCT034 BKN230 M03/M05 A3033 RMK SC1SC2CI3 SLP273

CYQB;2008-11-13 13:00;CYQB 131300Z 07008KT 30SM FEW013 FEW034 BKN230 M01/M04 A3031 RMK SC1SC2CI2 SLP269

CYQB;2008-11-13 14:00;CYQB 131400Z 07009KT 30SM FEW034 BKN230 00/M02 A3029 RMK SC2CI2 SLP262

CYQB;2008-11-13 15:00;CYQB 131500Z 08008KT 30SM FEW034 FEW140 BKN230 02/M02 A3027 RMK SC1AC1CI2 SLP254

CYQB;2008-11-13 16:00;CYQB 131600Z 09007KT 30SM FEW035 FEW150 BKN230 03/M03 A3023 RMK SC1AC2CI2 SLP241

CYQB;2008-11-13 17:00;CYQB 131700Z 09010KT 30SM FEW035 FEW150 OVC230 03/M03 A3021 RMK SC1AC2CI3 SLP235

CYQB;2008-11-13 18:00;CYQB 131800Z 09010KT 30SM SCT150 OVC220 04/M02 A3020 RMK AC3CI4 SLP232

CYQB;2008-11-13 19:00;CYQB 131900Z 07011G19KT 30SM SCT180 OVC220 03/M02 A3013 RMK AC3CI5 PRESFR SLP207

CYQB;2008-11-13 20:00;CYQB 132000Z 07011KT 30SM FEW070 BKN110 03/M02 A3012 RMK AC2AC5 SLP204

CYQB;2008-11-13 20:40;CYQB 132040Z 07011KT 30SM -RASN SCT042 OVC060 03/ RMK SC3SC5

CYQB;2008-11-13 21:00;CYQB 132100Z 08008KT 5SM -RASN OVC042 03/M02 A3012 RMK SC8 SLP203

CYQB;2008-11-13 22:00;CYQB 132200Z 07008KT 8SM -RASN OVC035 03/M00 A3011 RMK SC8 SLP199

CYQB;2008-11-13 22:47;CYQB 132247Z 09009KT 6SM -RASN BR OVC029 02/ RMK SC8

CYQB;2008-11-13 23:00;CYQB 132300Z 08009G15KT 8SM -RASN FEW015 OVC022 02/00 A3009 RMK SC2SC6 SLP195

CYQB;2008-11-13 23:24;CYQB 132324Z 07010KT 2SM -RASN OVC013 01/ RMK SC8

CYQB;2008-11-13 23:35;CYQB 132335Z 09011KT 2SM -SN OVC008 01/ RMK SF8

CYQB;2008-11-14 00:00;CYQB 140000Z 07006KT 3SM -SN BKN005 OVC023 01/00 A3007 RMK SF6SC2 SLP188

CYQB;2008-11-14 00:50;CYQB 140050Z 07011KT 5SM -RASN BKN003 OVC014 01/ RMK SF5SC3

CYQB;2008-11-14 01:00;CYQB 140100Z 07010KT 4SM -RASN BR BKN004 BKN013 OVC020 01/01 A3006 RMK SF5SC2SC1 SLP183

CYQB;2008-11-14 02:00;CYQB 140200Z 07009KT 2SM -RASN BR BKN003 OVC010 02/01 A3005 RMK SF6SC2 SLP180

CYQB;2008-11-14 03:00;CYQB 140300Z 07008KT 1 1/2SM -RA BR BKN002 OVC008 02/02 A3004 RMK SF6ST2 SLP176

CYQB;2008-11-14 04:00;CYQB 140400Z 07008KT 2SM -RA BR BKN002 BKN008 OVC015 03/03 A3003 RMK SF5SF2SC1 SLP173

CYQB;2008-11-14 05:00;CYQB 140500Z 06008KT 10SM FEW003 FEW010 OVC018 03/03 A3003 RMK SF2SF1SC6 SLP173

CYQB;2008-11-14 06:00;CYQB 140600Z 07006KT 15SM FEW005 OVC020 04/03 A3002 RMK SF1SC7 SLP170

CYQB;2008-11-14 07:00;CYQB 140700Z 07010KT 15SM FEW005 OVC023 04/04 A3002 RMK SF1SC8 SLP170

CYQB;2008-11-14 08:00;CYQB 140800Z 07009KT 15SM FEW005 OVC023 04/04 A3001 RMK SF1SC8 SLP167

CYQB;2008-11-14 09:00;CYQB 140900Z 07011KT 15SM FEW003 OVC026 04/04 A3000 RMK SF2SC6 VIS E 4 SLP162

CYQB;2008-11-14 10:00;CYQB 141000Z 07009KT 15SM FEW003 OVC023 04/04 A3001 RMK SF1SC8 VIS E 4 SLP165

CYQB;2008-11-14 11:00;CYQB 141100Z 07010KT 15SM FEW003 OVC030 05/04 A3000 RMK SF1SC8 FOG OVR RVR SLP163

CYQB;2008-11-14 12:00;CYQB 141200Z 08008KT 15SM FEW003 OVC031 05/04 A3000 RMK SF1SC8 SLP164

CYQB;2008-11-14 13:00;CYQB 141300Z 07010KT 30SM FEW006 OVC029 05/04 A3001 RMK SF1SC8 SLP165

CYQB;2008-11-14 14:00;CYQB 141400Z 07011KT 30SM FEW010 FEW015 OVC032 06/05 A2999 RMK SF1SC1SC8 SLP159

CYQB;2008-11-14 15:00;CYQB 141500Z 07009KT 30SM FEW016 OVC030 06/05 A2997 RMK SC1SC8 SLP153

CYQB;2008-11-14 16:00;CYQB 141600Z 06011KT 30SM FEW018 OVC030 07/05 A2995 RMK SC1SC8 SLP145

CYQB;2008-11-14 17:00;CYQB 141700Z 07010KT 30SM FEW018 OVC028 07/06 A2994 RMK SC1SC8 SLP140

CYQB;2008-11-14 18:00;CYQB 141800Z 06007KT 30SM FEW018 OVC028 08/06 A2992 RMK SC1SC8 SLP134

CYQB;2008-11-14 19:00;CYQB 141900Z 07009KT 30SM FEW018 OVC025 08/06 A2991 RMK SC1SC7 SLP130

CYQB;2008-11-14 20:00;CYQB 142000Z 08009KT 30SM FEW018 OVC024 07/06 A2989 RMK SC2SC6 SLP124

CYQB;2008-11-14 21:00;CYQB 142100Z 08010KT 30SM FEW018 OVC023 07/06 A2989 RMK SC1SC7 SLP123

CYQB;2008-11-14 22:00;CYQB 142200Z 07011KT 15SM OVC020 08/06 A2988 RMK SC8 SLP122

CYQB;2008-11-14 23:00;CYQB 142300Z 07010KT 15SM FEW019 OVC023 08/06 A2987 RMK SC2SC6 SLP119

CYQB;2008-11-15 00:00;CYQB 150000Z 07009KT 15SM OVC022 08/06 A2986 RMK SC8 SLP114

CYQB;2008-11-15 01:00;CYQB 150100Z 07008KT 15SM FEW020 OVC034 07/07 A2984 RMK SC2SC6 SLP108

CYQB;2008-11-15 02:00;CYQB 150200Z 06004KT 15SM FEW020 BKN040 08/07 A2983 RMK SC2SC6 SLP103

CYQB;2008-11-15 03:00;CYQB 150300Z 03003KT 15SM FEW012 BKN035 08/07 A2983 RMK SC1SC7 SLP104

CYQB;2008-11-15 04:00;CYQB 150400Z 04005KT 15SM FEW018 BKN029 08/07 A2981 RMK SC2SC6 SLP098

CYQB;2008-11-15 05:00;CYQB 150500Z 06004KT 15SM BKN028 BKN070 BKN180 08/07 A2981 RMK SC5AC2AC0 SLP096

CYQB;2008-11-15 06:00;CYQB 150600Z 06004KT 15SM OVC023 08/07 A2980 RMK SC8 SLP093

CYQB;2008-11-15 07:00;CYQB 150700Z 06004KT 15SM OVC023 08/07 A2980 RMK SC8 SLP092

CYQB;2008-11-15 08:00;CYQB 150800Z 06005KT 15SM BKN018 BKN033 08/07 A2978 RMK SC6SC1 SLP087

CYQB;2008-11-15 09:00;CYQB 150900Z 01004KT 15SM BKN025 08/07 A2979 RMK SC7 SLP089

CYQB;2008-11-15 10:00;CYQB 151000Z 08002KT 15SM BKN029 08/07 A2978 RMK SC7 SLP086

CYQB;2008-11-15 11:00;CYQB 151100Z 04004KT 15SM BKN028 08/07 A2977 RMK SC7 SLP082

CYQB;2008-11-15 12:00;CYQB 151200Z 04003KT 10SM FEW005 BKN019 07/07 A2978 RMK SF1SC5 SLP085

CYQB;2008-11-15 13:00;CYQB 151300Z 05004KT 10SM FEW005 SCT013 OVC019 08/07 A2978 RMK SF1SC3SC4 CLDS TPG HILL N-SE SLP086

CYQB;2008-11-15 14:00;CYQB 151400Z 06004KT 10SM FEW005 OVC020 09/08 A2976 RMK SF1SC7 CLDS TPG HILL N-SE SLP081

CYQB;2008-11-15 15:00;CYQB 151500Z 06005KT 10SM FEW008 BKN022 10/09 A2974 RMK SF1SC6 CLDS TPG HILL N-SE SLP073

CYQB;2008-11-15 16:00;CYQB 151600Z 09002KT 10SM FEW008 BKN024 OVC120 11/09 A2972 RMK SF1SC6AC1 CLDS TPG HILL N-SE SLP065

CYQB;2008-11-15 16:26;CYQB 151626Z 09002KT 10SM -RA FEW008 OVC024 10/09 RMK SF1SC7

CYQB;2008-11-15 17:00;CYQB 151700Z 05002KT 8SM -RA FEW008 BKN028 OVC120 10/09 A2968 RMK SF1SC6AC1 CLDS TPG HILL N-E SLP052

CYQB;2008-11-15 18:00;CYQB 151800Z 05008KT 5SM -RA BR FEW008 SCT028 OVC057 10/09 A2963 RMK SF2SC2SC4 SLP034

CYQB;2008-11-15 19:00;CYQB 151900Z 07007KT 2 1/2SM -RA BR FEW008 SCT028 OVC059 09/09 A2961 RMK SF2SC2SC4 SLP028

CYQB;2008-11-15 19:17;CYQB 151917Z 07010KT 2 1/2SM -RA BR BKN002 OVC059 09/ RMK SF5SC3

CYQB;2008-11-15 20:00;CYQB 152000Z 08007KT 2SM -RA BR BKN002 OVC050 09/09 A2955 RMK SF6SC2 PRESFR SLP007

CYQB;2008-11-15 20:21;CYQB 152021Z 08010KT 3/4SM R06/P6000FT/N -RA BR VV002 09/ RMK FG8 R06/P6000 FT

CYQB;2008-11-15 21:00;CYQB 152100Z 06010KT 3/4SM R06/P6000FT/D -RA BR VV002 09/09 A2952 RMK FG8 SLP997

CYQB;2008-11-15 21:40;CYQB 152140Z 06009KT 1 1/4SM -RA BR OVC002 09/ RMK ST8 CIG VRB 1-3

CYQB;2008-11-15 22:00;CYQB 152200Z 06009KT 1SM R06/P6000FT/D -RA BR BKN002 OVC007 10/09 A2946 RMK SF6SC2 SLP979

CYQB;2008-11-15 22:57;CYQB 152257Z 06021G31KT 1SM R06/P6000FT/N -RA BR BKN004 OVC018 10/ RMK SF6SC2

CYQB;2008-11-15 23:00;CYQB 152300Z 07022G31KT 1SM R06/P6000FT/N -RA BR BKN004 OVC030 10/10 A2940 RMK SF6SC2 PRESFR SLP958

CYQB;2008-11-15 23:41;CYQB 152341Z 15005KT 1 1/2SM -RA BR OVC005 11/ RMK SF8

CYQB;2008-11-16 00:00;CYQB 160000Z 13004G28KT 1 1/2SM -RA BR OVC005 10/10 A2937 RMK SF8 SLP949

CYQB;2008-11-16 00:30;CYQB 160030Z 08014KT 2SM BR OVC003 10/ RMK SF8

CYQB;2008-11-16 01:00;CYQB 160100Z 09011KT 1 1/2SM -RA BR OVC003 10/10 A2933 RMK SF8 SLP933

CYQB;2008-11-16 01:15;CYQB 160115Z 08010G15KT 2SM -RA BR OVC004 10/ RMK SF8 VIS VRB 1-3

CYQB;2008-11-16 02:00;CYQB 160200Z 10011G20KT 8SM BKN004 BKN015 OVC040 10/09 A2930 RMK SF6SC1SC1 SLP923

CYQB;2008-11-16 03:00;CYQB 160300Z 09010G15KT 8SM OVC003 09/09 A2925 RMK ST8 SLP906

CYQB;2008-11-16 04:00;CYQB 160400Z 08009KT 5SM -DZ BR OVC002 09/09 A2921 RMK ST8 SLP893

CYQB;2008-11-16 04:52;CYQB 160452Z 07005KT 4SM -RA BR OVC002 09/ RMK ST8

CYQB;2008-11-16 05:00;CYQB 160500Z 05007KT 4SM -RA BR OVC002 09/09 A2922 RMK ST8 SLP895

CYQB;2008-11-16 06:00;CYQB 160600Z 06004KT 3SM -RA BR OVC002 09/09 A2921 RMK ST8 SLP892

CYQB;2008-11-16 06:25;CYQB 160625Z 07007KT 3SM BR OVC002 09/ RMK ST8

CYQB;2008-11-16 07:00;CYQB 160700Z 03003KT 6SM BR BKN002 OVC017 09/09 A2924 RMK ST5SC3 SLP903

CYQB;2008-11-16 07:32;CYQB 160732Z 04004KT 6SM BR SCT002 OVC011 09/ RMK ST3SC5

CYQB;2008-11-16 08:00;CYQB 160800Z 10002KT 8SM FEW002 OVC014 09/09 A2922 RMK SF2SC6 SLP897

CYQB;2008-11-16 08:31;CYQB 160831Z CCA 00000KT 8SM -RA OVC015 09/ RMK SC8

CYQB;2008-11-16 09:00;CYQB 160900Z 13003KT 10SM -RA OVC015 09/09 A2919 RMK SC8 SLP886

CYQB;2008-11-16 10:00;CYQB 161000Z 13002KT 6SM -RA BR OVC008 09/09 A2918 RMK SF8 SLP882

CYQB;2008-11-16 10:42;CYQB 161042Z 19003KT 5SM RA BR BKN011 OVC034 10/ RMK SF6SC2

CYQB;2008-11-16 11:00;CYQB 161100Z 19002KT 6SM -RA BR FEW011 OVC035 10/10 A2916 RMK SF2SC6 RERA SLP877

CYQB;2008-11-16 11:32;CYQB 161132Z 00000KT 2SM -RA BR FEW011 OVC040 09/ RMK SF2SC6 RERA

CYQB;2008-11-16 12:00;CYQB 161200Z 04002KT 1/2SM R06/2400VP6000FT/D -RA FG FEW010 SCT019 OVC028 09/09 A2909 RMK SF2SF1SC5 SLP851

CYQB;2008-11-16 13:00;CYQB 161300Z 17003KT 1 1/2SM -RA BR BKN008 OVC017 10/09 A2914 RMK SF5SC3 SLP870

CYQB;2008-11-16 13:34;CYQB 161334Z 23006KT 2 1/2SM -RA BR BKN007 OVC016 10/ RMK SF5SC3

CYQB;2008-11-16 14:00;CYQB 161400Z 24012KT 5SM -RA BR BKN009 OVC032 10/10 A2913 RMK SF5SC3 SLP865

CYQB;2008-11-16 14:17;CYQB 161417Z 24017G22KT 5SM -RA BR BKN011 OVC017 10/ RMK SF5SC3

CYQB;2008-11-16 14:36;CYQB 161436Z 23017G22KT 5SM -RA BR SCT011 OVC039 09/ RMK SF3SC5

CYQB;2008-11-16 15:00;CYQB 161500Z 25018KT 8SM -RA FEW011 FEW019 OVC045 09/08 A2912 RMK SF2SC1SC6 SLP864

CYQB;2008-11-16 16:00;CYQB 161600Z 26014G19KT 15SM FEW016 BKN045 BKN060 07/05 A2913 RMK CF2SC4SC1 SLP866

CYQB;2008-11-16 16:35;CYQB 161635Z 24016G24KT 10SM -SHRA FEW021 BKN044 BKN065 07/ RMK CF2SC3SC2

CYQB;2008-11-16 17:00;CYQB 161700Z 24013G18KT 15SM -SHRA BKN026 OVC045 07/04 A2912 RMK SC6SC2 SLP863

CYQB;2008-11-16 17:31;CYQB 161731Z 23013G18KT 15SM BKN024 OVC045 07/ RMK SC6SC2

CYQB;2008-11-16 18:00;CYQB 161800Z 25017KT 15SM BKN029 OVC045 07/04 A2912 RMK SC6SC2 SLP861

CYQB;2008-11-16 19:00;CYQB 161900Z 23021G27KT 15SM OVC022 07/03 A2911 RMK SC8 SLP860

CYQB;2008-11-16 19:06;CYQB 161906Z 23024G30KT 8SM -SHRA OVC021 06/ RMK SC8

CYQB;2008-11-16 19:40;CYQB 161940Z 23017G26KT 8SM -SHRA OVC014 05/ RMK SC8

CYQB;2008-11-16 20:00;CYQB 162000Z 23016G26KT 8SM -SHRA OVC013 05/03 A2911 RMK SC8 SLP860

CYQB;2008-11-16 20:21;CYQB 162021Z 23020G25KT 8SM -SHRA OVC009 05/ RMK SC8

CYQB;2008-11-16 21:00;CYQB 162100Z 26018G25KT 15SM -SHRA BKN012 OVC050 05/04 A2914 RMK SC6SC2 VIS NW-NE 6 SLP870

CYQB;2008-11-16 21:37;CYQB 162137Z 26018G27KT 15SM -SHRA FEW012 BKN025 OVC052 04/ RMK SC1SC5SC3

CYQB;2008-11-16 22:00;CYQB 162200Z 26019G26KT 15SM -SHRA FEW012 BKN020 OVC058 03/02 A2919 RMK SC2SC5SC2 VIS LWR N SLP886

CYQB;2008-11-16 23:00;CYQB 162300Z CCA 25021G28KT 8SM -SHRA BKN015 OVC060 03/01 A2925 RMK SC6SC2 PRESRR SLP906

CYQB;2008-11-17 00:00;CYQB 170000Z 25021G30KT 10SM -SHRASN FEW010 OVC025 02/01 A2930 RMK SF2SC6 SLP924

CYQB;2008-11-17 01:00;CYQB 170100Z 26028G33KT 8SM -SHRASN FEW010 OVC027 02/00 A2933 RMK SF2SC6 SLP935

CYQB;2008-11-17 02:00;CYQB 170200Z 25018G24KT 12SM -SHSN BKN020 OVC080 01/M00 A2937 RMK SC6AC2 VIS N-NE 6 MOON DIMLY VISBL SLP948

CYQB;2008-11-17 03:00;CYQB 170300Z 25021G28KT 15SM -SHSN SCT025 01/M01 A2940 RMK SC4 SLP958

CYQB;2008-11-17 04:00;CYQB 170400Z 24023G29KT 15SM BKN028 01/M02 A2945 RMK SC6 SLP974

CYQB;2008-11-17 05:00;CYQB 170500Z 25019G24KT 15SM OVC030 01/M02 A2948 RMK SC8 SLP986

CYQB;2008-11-17 06:00;CYQB 170600Z 25018G24KT 15SM BKN029 01/M03 A2953 RMK SC7 SLP001

CYQB;2008-11-17 06:53;CYQB 170653Z 25017G22KT 15SM -SHSN OVC034 00/ RMK SC8

CYQB;2008-11-17 07:00;CYQB 170700Z 25017G22KT 15SM -SHSN OVC033 01/M03 A2956 RMK SC8 SLP014

CYQB;2008-11-17 07:43;CYQB 170743Z 26015KT 15SM OVC033 00/ RMK SC8

CYQB;2008-11-17 08:00;CYQB 170800Z 25012KT 15SM OVC031 00/M03 A2959 RMK SC8 SLP024

CYQB;2008-11-17 09:00;CYQB 170900Z 25019G24KT 15SM OVC098 00/M04 A2961 RMK AC8 SLP032

CYQB;2008-11-17 10:00;CYQB 171000Z 25016G21KT 15SM BKN041 BKN100 M00/M05 A2965 RMK SC5AC2 SLP043

CYQB;2008-11-17 11:00;CYQB 171100Z 26019G27KT 15SM BKN036 BKN100 M00/M06 A2968 RMK SC6AC2 SLP054

CYQB;2008-11-17 12:00;CYQB 171200Z 25018KT 30SM FEW024 BKN038 BKN100 M01/M06 A2972 RMK CF1SC6AC1 SLP066

CYQB;2008-11-17 13:00;CYQB 171300Z 25016G21KT 30SM FEW024 BKN033 BKN100 M01/M06 A2975 RMK CF1SC6AC1 VIRGA N SLP076

CYQB;2008-11-17 14:00;CYQB 171400Z 26017G22KT 30SM BKN031 BKN100 M01/M06 A2978 RMK SC7AC1 SLP086

CYQB;2008-11-17 15:00;CYQB 171500Z 26017G22KT 30SM BKN031 BKN100 M00/M06 A2979 RMK SC7AC1 SLP092

CYQB;2008-11-17 16:00;CYQB 171600Z 26019KT 30SM BKN035 BKN100 M00/M06 A2980 RMK SC7AC1 SLP095

CYQB;2008-11-17 17:00;CYQB 171700Z 25016KT 30SM BKN034 00/M06 A2981 RMK SC7 VIRGA NE SLP098

CYQB;2008-11-17 17:31;CYQB 171731Z 26013G18KT 15SM -SHSN BKN031 00/ RMK SC7

CYQB;2008-11-17 18:00;CYQB 171800Z 25015G20KT 15SM -SHSN FEW020 BKN036 00/M05 A2982 RMK SC2SC5 SLP102

CYQB;2008-11-17 19:00;CYQB 171900Z 25015KT 15SM -SHSN FEW020 BKN041 01/M05 A2983 RMK SC2SC5 SLP106

CYQB;2008-11-17 20:00;CYQB 172000Z 26014KT 15SM -SHSN FEW020 BKN056 01/M05 A2985 RMK SC2SC3 SLP112

CYQB;2008-11-17 20:16;CYQB 172016Z 27010KT 15SM SCT050 BKN160 00/ RMK SC3AC2

CYQB;2008-11-17 21:00;CYQB 172100Z 25011KT 15SM FEW050 BKN082 00/M07 A2987 RMK SC2AC3 SLP119

CYQB;2008-11-17 22:00;CYQB 172200Z 29007KT 15SM FEW025 BKN067 M00/M06 A2989 RMK SC2AC5 SLP126

CYQB;2008-11-17 23:00;CYQB 172300Z 26006KT 15SM FEW040 BKN057 M01/M06 A2992 RMK SC2SC4 SLP134

CYQB;2008-11-18 00:00;CYQB 180000Z CCA 26007KT 15SM FEW040 BKN110 M01/M05 A2992 RMK SC2AC5 SLP137

CYQB;2008-11-18 01:00;CYQB 180100Z 25008KT 15SM SCT042 OVC058 M01/M04 A2993 RMK SC3SC4 SLP140

CYQB;2008-11-18 01:27;CYQB 180127Z 25009KT 2SM -SHSN BKN028 OVC050 M01/ RMK SC5SC3

CYQB;2008-11-18 02:00;CYQB 180200Z 25009KT 1 1/2SM -SHSN BKN008 OVC017 M02/M03 A2994 RMK SC6SC2 SLP144

CYQB;2008-11-18 02:21;CYQB 180221Z 26009KT 4SM -SHSN BKN042 OVC066 M02/ RMK SC6SC2 VIS HIER E

CYQB;2008-11-18 02:34;CYQB 180234Z 27005KT 15SM FEW015 BKN045 OVC086 M02/ RMK SC1SC6AC2

CYQB;2008-11-18 03:00;CYQB 180300Z 28004KT 15SM -SHSN FEW015 BKN033 OVC058 M02/M03 A2995 RMK SC1SC6SC2 SLP146

CYQB;2008-11-18 03:24;CYQB 180324Z 30004KT 15SM BKN045 OVC072 M02/ RMK SC6AC2

CYQB;2008-11-18 04:00;CYQB 180400Z 26004KT 15SM FEW020 OVC068 M02/M05 A2996 RMK SC1AC7 SLP149

CYQB;2008-11-18 05:00;CYQB 180500Z 28004KT 15SM BKN032 M03/M06 A2997 RMK SC5 SLP154

CYQB;2008-11-18 06:00;CYQB 180600Z 32007KT 15SM FEW030 BKN097 M03/M07 A2998 RMK SC2AC3 SLP156

CYQB;2008-11-18 07:00;CYQB 180700Z 33009KT 15SM BKN040 BKN100 M03/M08 A3000 RMK SC5AC2 SLP161

CYQB;2008-11-18 08:00;CYQB 180800Z 33007KT 15SM BKN040 BKN100 M04/M08 A3000 RMK SC5AC2 SLP164

CYQB;2008-11-18 09:00;CYQB 180900Z 34009KT 15SM BKN042 M04/M09 A3002 RMK SC6 SLP170

CYQB;2008-11-18 10:00;CYQB 181000Z 33011KT 15SM BKN095 M04/M10 A3003 RMK AC6 SLP175

CYQB;2008-11-18 11:00;CYQB 181100Z 33007KT 15SM FEW043 SCT077 BKN082 M05/M10 A3004 RMK SC1AC2AC2 SLP177

CYQB;2008-11-18 12:00;CYQB 181200Z 33007KT 15SM BKN045 BKN082 M05/M10 A3006 RMK SC5AC2 SLP182

CYQB;2008-11-18 13:00;CYQB 181300Z 35008KT 15SM -SHSN FEW030 BKN042 BKN080 M04/M10 A3007 RMK SC2SC5AC1 SLP188

CYQB;2008-11-18 14:00;CYQB 181400Z 36010G15KT 12SM -SHSN OVC037 M04/M10 A3009 RMK SC7 SLP193

CYQB;2008-11-18 15:00;CYQB 181500Z 35008KT 10SM -SHSN SCT024 OVC040 M04/M10 A3011 RMK SF4SC4 VIS N 6 SLP199

CYQB;2008-11-18 16:00;CYQB 181600Z 01009KT 6SM -SHSN SCT028 OVC040 M04/M10 A3011 RMK SF4SC4 SLP200

CYQB;2008-11-18 17:00;CYQB 181700Z 01009KT 10SM -SHSN SCT026 OVC035 M03/M10 A3011 RMK SF3SC5 VIS SE 6 SLP200

CYQB;2008-11-18 18:00;CYQB 181800Z 36007KT 10SM -SHSN FEW018 FEW026 OVC048 M03/M09 A3011 RMK SF1SC2SC6 SLP199

CYQB;2008-11-18 18:32;CYQB 181832Z 03006KT 15SM FEW018 BKN047 M03/ RMK SC1SC6

CYQB;2008-11-18 19:00;CYQB 181900Z 36006KT 15SM FEW018 BKN051 M02/M12 A3010 RMK SC1SC6 SLP198

CYQB;2008-11-18 20:00;CYQB 182000Z 02009KT 15SM FEW018 BKN055 M02/M12 A3012 RMK SC1SC7 SLP203

CYQB;2008-11-18 21:00;CYQB 182100Z 36013KT 30SM FEW030 BKN056 M02/M12 A3013 RMK SC2SC6 SLP206

CYQB;2008-11-18 22:00;CYQB 182200Z 36012KT 30SM BKN056 M03/M12 A3014 RMK SC7 SLP211

CYQB;2008-11-18 23:00;CYQB 182300Z 36010G18KT 15SM OVC057 M03/M14 A3015 RMK SC8 SLP215

CYQB;2008-11-19 00:00;CYQB 190000Z 36012G19KT 15SM OVC059 M04/M14 A3017 RMK SC8 SLP220

CYQB;2008-11-19 01:00;CYQB 190100Z 01008KT 15SM BKN059 M04/M14 A3017 RMK SC7 SLP223

CYQB;2008-11-19 02:00;CYQB 190200Z 01005KT 15SM BKN064 M05/M13 A3019 RMK SC7 SLP227

CYQB;2008-11-19 03:00;CYQB 190300Z 36006KT 15SM FEW060 M06/M13 A3018 RMK SC2 SLP225

CYQB;2008-11-19 04:00;CYQB 190400Z 35005KT 15SM SCT050 M07/M13 A3018 RMK SC3 SLP226

CYQB;2008-11-19 05:00;CYQB 190500Z 36005KT 15SM BKN057 M06/M13 A3017 RMK SC6 SLP223

CYQB;2008-11-19 06:00;CYQB 190600Z 33006KT 15SM BKN066 M07/M13 A3017 RMK AC7 SLP220

CYQB;2008-11-19 07:00;CYQB 190700Z 32006KT 15SM BKN064 M07/M12 A3016 RMK SC7 SLP218

CYQB;2008-11-19 08:00;CYQB 190800Z 32007KT 15SM FEW060 M07/M12 A3016 RMK SC2 SLP218

CYQB;2008-11-19 09:00;CYQB 190900Z 35006KT 15SM FEW060 M07/M14 A3016 RMK SC2 SLP219

CYQB;2008-11-19 10:00;CYQB 191000Z 34005KT 15SM FEW060 M08/M15 A3016 RMK SC1 SLP218

CYQB;2008-11-19 11:00;CYQB 191100Z 36003KT 15SM FEW060 M08/M15 A3016 RMK SC1 SLP217

CYQB;2008-11-19 12:00;CYQB 191200Z 34002KT 30SM FEW050 M08/M14 A3016 RMK SC2 SLP217

CYQB;2008-11-19 13:00;CYQB 191300Z 36008KT 30SM BKN050 M07/M14 A3015 RMK SC5 SLP215

CYQB;2008-11-19 14:00;CYQB 191400Z CCA 36010KT 20SM BKN052 M06/M15 A3015 RMK SC6 WND ESTD SLP214

CYQB;2008-11-19 15:00;CYQB 191500Z 02008KT 20SM BKN052 M05/M15 A3014 RMK SC6 SLP211

CYQB;2008-11-19 16:00;CYQB 191600Z 03007KT 15SM BKN051 M05/M15 A3011 RMK SC6 SLP201

CYQB;2008-11-19 17:00;CYQB 191700Z 36010KT 15SM BKN048 M04/M15 A3008 RMK SC6 VIRGA S QUAD SLP192

CYQB;2008-11-19 18:00;CYQB 191800Z 33012KT 30SM BKN047 M04/M14 A3006 RMK SC7 SLP182

CYQB;2008-11-19 19:00;CYQB 191900Z 04008KT 30SM BKN051 M04/M15 A3003 RMK SC7 SLP175

CYQB;2008-11-19 20:00;CYQB 192000Z 01009KT 30SM BKN049 M04/M14 A3003 RMK SC7 SLP173

CYQB;2008-11-19 21:00;CYQB 192100Z 34007KT 30SM BKN048 M04/M14 A3002 RMK SC7 SLP171

CYQB;2008-11-19 22:00;CYQB 192200Z 35009KT 15SM OVC046 M04/M14 A3002 RMK SC7 SLP170

CYQB;2008-11-19 23:00;CYQB 192300Z 02012KT 15SM BKN044 M05/M14 A3001 RMK SC7 VIRGA SLP167

CYQB;2008-11-20 00:00;CYQB 200000Z 34007KT 15SM BKN044 M05/M14 A2999 RMK SC7 SH NE SLP160

CYQB;2008-11-20 01:00;CYQB 200100Z 01006KT 15SM BKN044 M05/M14 A2996 RMK SC7 VIRGA SLP150

CYQB;2008-11-20 02:00;CYQB 200200Z 33006KT 15SM BKN043 M05/M14 A2994 RMK SC7 SLP143

CYQB;2008-11-20 03:00;CYQB 200300Z 33003KT 15SM OVC042 M05/M13 A2991 RMK SC8 SLP133

CYQB;2008-11-20 04:00;CYQB 200400Z 35008KT 15SM OVC042 M05/M14 A2989 RMK SC8 SLP125

CYQB;2008-11-20 05:00;CYQB 200500Z 34006KT 15SM OVC041 M06/M14 A2986 RMK SC8 SLP117

CYQB;2008-11-20 06:00;CYQB 200600Z 36006KT 15SM -SHSN OVC041 M06/M14 A2984 RMK SC8 SLP110

CYQB;2008-11-20 06:43;CYQB 200643Z 33004KT 15SM OVC041 M06/ RMK SC8

CYQB;2008-11-20 07:00;CYQB 200700Z 33011KT 15SM OVC041 M06/M14 A2983 RMK SC8 SLP105

CYQB;2008-11-20 08:00;CYQB 200800Z 33009G17KT 15SM BKN042 M06/M15 A2980 RMK SC7 SLP097

CYQB;2008-11-20 09:00;CYQB 200900Z 33006KT 15SM BKN041 M06/M14 A2979 RMK SC7 SLP092

CYQB;2008-11-20 10:00;CYQB 201000Z 34007KT 15SM OVC040 M06/M14 A2977 RMK SC8 SLP085

CYQB;2008-11-20 11:00;CYQB 201100Z 31004KT 15SM BKN037 M06/M13 A2974 RMK SC7 SLP077

CYQB;2008-11-20 12:00;CYQB 201200Z 31010KT 30SM BKN038 M07/M13 A2973 RMK SC7 SLP074

CYQB;2008-11-20 13:00;CYQB 201300Z 31009KT 30SM BKN037 M06/M14 A2973 RMK SC7 VIRGA ALQDS CLDS TPG MNTNS NE SLP072

CYQB;2008-11-20 14:00;CYQB 201400Z 32012KT 30SM BKN038 M07/M14 A2972 RMK SC7 SLP069

CYQB;2008-11-20 15:00;CYQB 201500Z 33008G16KT 30SM BKN037 BKN200 M07/M15 A2971 RMK SC7CI1 SLP067

CYQB;2008-11-20 16:00;CYQB 201600Z 32012G17KT 30SM BKN040 BKN200 M06/M15 A2969 RMK SC7CI1 SLP060

CYQB;2008-11-20 17:00;CYQB 201700Z 29013G19KT 30SM BKN042 BKN200 M06/M15 A2968 RMK SC6CI0 SLP056

CYQB;2008-11-20 18:00;CYQB 201800Z 32013KT 30SM BKN043 BKN200 M06/M15 A2968 RMK SC6CI0 SLP054

CYQB;2008-11-20 19:00;CYQB 201900Z 33010G18KT 30SM BKN038 BKN250 M07/M15 A2969 RMK SC5CI2 SLP058

CYQB;2008-11-20 20:00;CYQB 202000Z 31013G20KT 30SM SCT040 BKN250 M07/M15 A2971 RMK SC3CI2 SLP065

CYQB;2008-11-20 21:00;CYQB 202100Z 32008G17KT 30SM BKN042 BKN250 M08/M16 A2972 RMK SC5CI2 SLP070

CYQB;2008-11-20 22:00;CYQB 202200Z 30009KT 15SM BKN045 BKN250 M07/M15 A2973 RMK SC6CI1 SLP073

CYQB;2008-11-20 23:00;CYQB 202300Z 29009G15KT 15SM BKN045 M07/M15 A2974 RMK SC7 SLP075

CYQB;2008-11-21 00:00;CYQB 210000Z 33008KT 15SM BKN043 M06/M14 A2973 RMK SC7 SLP074

CYQB;2008-11-21 01:00;CYQB 210100Z 31005KT 15SM BKN043 M06/M14 A2974 RMK SC7 SLP076

CYQB;2008-11-21 02:00;CYQB 210200Z 30007KT 15SM BKN044 M06/M14 A2974 RMK SC7 SLP077

CYQB;2008-11-21 03:00;CYQB 210300Z 28008KT 15SM OVC044 M06/M14 A2974 RMK SC8 SLP077

CYQB;2008-11-21 04:00;CYQB 210400Z 29007KT 15SM BKN044 M06/M14 A2974 RMK SC7 SLP077

CYQB;2008-11-21 05:00;CYQB 210500Z 31012KT 15SM OVC042 M06/M14 A2974 RMK SC8 SLP076

CYQB;2008-11-21 06:00;CYQB 210600Z 31013KT 15SM BKN041 M06/M14 A2975 RMK SC7 SLP081

CYQB;2008-11-21 07:00;CYQB 210700Z 31008KT 15SM BKN042 M06/M14 A2978 RMK SC7 SLP089

CYQB;2008-11-21 08:00;CYQB 210800Z 30008KT 15SM BKN043 M06/M15 A2978 RMK SC7 SLP091

CYQB;2008-11-21 09:00;CYQB 210900Z 28009KT 15SM OVC045 M06/M15 A2979 RMK SC8 SLP093

CYQB;2008-11-21 10:00;CYQB 211000Z 27007KT 15SM OVC045 M06/M14 A2981 RMK SC8 SLP098

CYQB;2008-11-21 11:00;CYQB 211100Z 27010KT 15SM OVC044 M06/M14 A2982 RMK SC8 SLP102

CYQB;2008-11-21 12:00;CYQB 211200Z 27015KT 15SM OVC043 M06/M13 A2984 RMK SC8 SLP111

CYQB;2008-11-21 13:00;CYQB 211300Z 26011KT 15SM BKN056 M07/M13 A2988 RMK SC6 SLP122

CYQB;2008-11-21 14:00;CYQB 211400Z 27011G20KT 25SM FEW020 FEW055 SCT220 M06/M12 A2990 RMK CF1SC2CI1 SLP129

CYQB;2008-11-21 15:00;CYQB 211500Z 29011G17KT 25SM FEW025 SCT250 M05/M13 A2992 RMK SC2CI1 SLP136

CYQB;2008-11-21 16:00;CYQB 211600Z 29011G16KT 30SM FEW035 FEW250 M03/M13 A2992 RMK SC1CI1 SLP137

CYQB;2008-11-21 17:00;CYQB 211700Z 27011G16KT 30SM FEW090 FEW250 M03/M13 A2994 RMK AC1CI0 SLP143

CYQB;2008-11-21 18:00;CYQB 211800Z 29014KT 30SM FEW035 FEW090 SCT250 M03/M14 A2996 RMK SC2AC1CI0 SLP150

CYQB;2008-11-21 19:00;CYQB 211900Z 28011KT 30SM FEW045 FEW090 FEW250 M03/M14 A2998 RMK SC1AC1CI0 SLP157

CYQB;2008-11-21 20:00;CYQB 212000Z 27008KT 30SM FEW050 FEW090 SCT250 M03/M14 A3001 RMK SC2AC1CI0 SLP167

CYQB;2008-11-21 21:00;CYQB 212100Z 28010G15KT 30SM SCT050 BKN090 BKN250 M04/M14 A3004 RMK SC4AC1CI0 SLP178

CYQB;2008-11-21 22:00;CYQB 212200Z 29006KT 15SM BKN052 BKN090 M04/M13 A3008 RMK SC6AC1 SLP189

CYQB;2008-11-21 23:00;CYQB 212300Z 29005KT 15SM BKN050 M04/M13 A3010 RMK SC6 VIRGA SLP196

CYQB;2008-11-22 00:00;CYQB 220000Z 31008KT 15SM BKN049 M05/M13 A3010 RMK SC5 SLP199

CYQB;2008-11-22 01:00;CYQB 220100Z 31005KT 15SM SCT046 M05/M13 A3011 RMK SC3 SLP203

CYQB;2008-11-22 02:00;CYQB 220200Z 29005KT 15SM FEW045 M07/M12 A3014 RMK SC2 SLP210

CYQB;2008-11-22 03:00;CYQB 220300Z 31006KT 15SM FEW045 FEW190 M07/M12 A3013 RMK SC2AC1 SLP209

CYQB;2008-11-22 04:00;CYQB 220400Z 28005KT 15SM FEW045 M08/M13 A3012 RMK SC2 SLP205

CYQB;2008-11-22 05:00;CYQB 220500Z 33006KT 15SM SKC M07/M13 A3008 RMK SLP193

CYQB;2008-11-22 06:00;CYQB 220600Z 34006KT 15SM FEW045 M07/M13 A3011 RMK SC1 SLP200

CYQB;2008-11-22 07:00;CYQB 220700Z 33005KT 15SM BKN051 M07/M14 A3011 RMK SC6 SLP203

CYQB;2008-11-22 08:00;CYQB 220800Z 36005KT 15SM BKN057 M06/M13 A3013 RMK SC6 SLP207

CYQB;2008-11-22 09:00;CYQB 220900Z 36006KT 15SM BKN054 M06/M13 A3012 RMK SC6 SLP206

CYQB;2008-11-22 10:00;CYQB 221000Z 34007KT 15SM BKN057 M06/M14 A3011 RMK SC6 SLP203

CYQB;2008-11-22 11:00;CYQB 221100Z 32008KT 15SM BKN062 BKN110 M07/M14 A3010 RMK SC7AC1 SLP197

CYQB;2008-11-22 12:00;CYQB 221200Z 34012G17KT 30SM SCT062 BKN100 M06/M14 A3009 RMK SC3AC2 SLP196

CYQB;2008-11-22 13:00;CYQB 221300Z 32011KT 30SM FEW020 BKN110 BKN200 M06/M13 A3008 RMK SC1AC6CI1 SLP191

CYQB;2008-11-22 14:00;CYQB 221400Z 31008KT 30SM FEW030 SCT110 BKN180 M06/M13 A3007 RMK SC1AC2AS0 SLP188

CYQB;2008-11-22 15:00;CYQB 221500Z 35016G22KT 30SM FEW035 BKN065 BKN160 M05/M14 A3007 RMK SC1SC4AS1 SLP187

CYQB;2008-11-22 16:00;CYQB 221600Z 34016KT 25SM SCT045 BKN075 BKN160 M04/M14 A3005 RMK SC4AC2AS1 SLP181

CYQB;2008-11-22 17:00;CYQB 221700Z 35016G21KT 25SM BKN055 BKN075 M04/M14 A3003 RMK SC6AC1 SLP175

CYQB;2008-11-22 18:00;CYQB 221800Z 34015G20KT 30SM FEW055 BKN072 M04/M14 A3002 RMK SC2AS5 SLP171

CYQB;2008-11-22 19:00;CYQB 221900Z 35009G18KT 15SM SCT050 BKN180 M03/M15 A3002 RMK SC3CI2 SLP169

CYQB;2008-11-22 20:00;CYQB 222000Z 31018G24KT 30SM BKN059 BKN180 M04/M15 A3001 RMK SC6CI1 SLP167

CYQB;2008-11-22 21:00;CYQB 222100Z 30017G22KT 30SM BKN061 BKN180 M05/M16 A3001 RMK AC6CI1 SLP167

CYQB;2008-11-22 22:00;CYQB 222200Z 30014G20KT 15SM FEW060 FEW210 M06/M15 A3000 RMK SC1CI1 SLP165

CYQB;2008-11-22 23:00;CYQB 222300Z 28014KT 15SM BKN058 M06/M14 A3000 RMK SC5 SLP164

CYQB;2008-11-23 00:00;CYQB 230000Z 27015G24KT 15SM BKN046 M06/M13 A3000 RMK SC6 SLP162

CYQB;2008-11-23 01:00;CYQB 230100Z 29015G25KT 15SM BKN059 M06/M14 A2999 RMK SC6 SLP159

CYQB;2008-11-23 02:00;CYQB 230200Z 28015G24KT 15SM OVC051 M06/M14 A2997 RMK SC8 SLP154

CYQB;2008-11-23 03:00;CYQB 230300Z 27017KT 15SM OVC053 M06/M14 A2996 RMK SC8 SLP149

CYQB;2008-11-23 04:00;CYQB 230400Z 26016G21KT 15SM BKN051 M06/M13 A2994 RMK SC7 SLP142

CYQB;2008-11-23 05:00;CYQB 230500Z 27018G24KT 15SM -SHSN BKN054 M06/M12 A2993 RMK SC7 SLP140

CYQB;2008-11-23 06:00;CYQB 230600Z 27016G25KT 15SM BKN050 M06/M13 A2992 RMK SC6 SLP137

CYQB;2008-11-23 07:00;CYQB 230700Z 26017G22KT 15SM BKN052 M07/M14 A2993 RMK SC6 SLP140

CYQB;2008-11-23 08:00;CYQB 230800Z 27017G24KT 15SM BKN055 M07/M14 A2994 RMK SC6 SLP142

CYQB;2008-11-23 09:00;CYQB 230900Z 27018KT 15SM BKN053 BKN091 M07/M14 A2994 RMK SC6AC1 SLP145

CYQB;2008-11-23 10:00;CYQB 231000Z 26016G25KT 15SM FEW053 FEW180 M08/M15 A2995 RMK SC2AC1 SLP147

CYQB;2008-11-23 11:00;CYQB 231100Z 26016G21KT 15SM FEW055 BKN190 M08/M15 A2997 RMK SC1CI2 SLP154

CYQB;2008-11-23 12:00;CYQB 231200Z 27015G22KT 30SM FEW045 BKN200 M08/M15 A2999 RMK SC1CI2 SLP162

CYQB;2008-11-23 13:00;CYQB 231300Z 27016G22KT 30SM FEW045 BKN190 M07/M15 A3001 RMK SC1CI3 SLP169

CYQB;2008-11-23 14:00;CYQB 231400Z 27012G20KT 30SM FEW045 BKN200 M06/M15 A3003 RMK SC1CI1 SLP173

CYQB;2008-11-23 15:00;CYQB 231500Z 27018G24KT 25SM FEW045 BKN200 M05/M15 A3003 RMK SC1CI1 DIST SH NE SLP173

CYQB;2008-11-23 16:00;CYQB 231600Z 28020G27KT 30SM FEW050 BKN200 M04/M15 A3003 RMK SC1CI1 SLP172

CYQB;2008-11-23 17:00;CYQB 231700Z 29018G29KT 30SM FEW055 BKN200 M03/M15 A3002 RMK SC1CI1 SLP171

CYQB;2008-11-23 18:00;CYQB 231800Z 28012G20KT 30SM FEW055 FEW180 M03/M15 A3002 RMK SC2AC1 ACSL E SLP171

CYQB;2008-11-23 19:00;CYQB 231900Z 27023G28KT 30SM FEW055 FEW180 M03/M15 A3003 RMK SC2AC1 ACSL E SLP175

CYQB;2008-11-23 20:00;CYQB 232000Z 27014G21KT 30SM FEW055 FEW180 M03/M15 A3006 RMK SC2AC1 ACSL E SLP184

CYQB;2008-11-23 21:00;CYQB 232100Z 27013G21KT 30SM FEW060 SCT180 M04/M16 A3009 RMK SC2AC1 ACSL E SLP194

CYQB;2008-11-23 22:00;CYQB 232200Z 28014KT 15SM FEW060 M05/M16 A3011 RMK SC1 SLP202

CYQB;2008-11-23 23:00;CYQB 232300Z 26017KT 15SM FEW060 M06/M15 A3014 RMK SC1 SLP211

CYQB;2008-11-24 00:00;CYQB 240000Z CCA 27013G18KT 15SM FEW060 M06/M15 A3017 RMK SC1 SLP220

CYQB;2008-11-24 01:00;CYQB 240100Z 28015G20KT 15SM SKC M07/M14 A3018 RMK SLP224

CYQB;2008-11-24 02:00;CYQB 240200Z 27013KT 15SM SKC M08/M14 A3019 RMK SLP230

CYQB;2008-11-24 03:00;CYQB 240300Z 27011KT 15SM SKC M09/M14 A3021 RMK SLP234

CYQB;2008-11-24 04:00;CYQB 240400Z 27013KT 15SM SKC M10/M14 A3022 RMK SLP237

CYQB;2008-11-24 05:00;CYQB 240500Z 21009KT 15SM SKC M10/M14 A3022 RMK SLP240

CYQB;2008-11-24 06:00;CYQB 240600Z 20009G15KT 15SM FEW220 M10/M14 A3023 RMK CI1 SLP241

CYQB;2008-11-24 07:00;CYQB 240700Z 23008KT 15SM FEW220 M11/M14 A3025 RMK CI1 SLP249

CYQB;2008-11-24 08:00;CYQB 240800Z 24007KT 15SM FEW210 M11/M14 A3027 RMK CI2 SLP254

CYQB;2008-11-24 09:00;CYQB 240900Z 23006KT 15SM FEW210 M12/M14 A3028 RMK CI1 SLP258

CYQB;2008-11-24 10:00;CYQB 241000Z 27007KT 15SM FEW210 M13/M15 A3030 RMK CI1 SLP265

CYQB;2008-11-24 11:00;CYQB 241100Z 28002KT 15SM FEW055 FEW210 M13/M15 A3030 RMK SC2CI1 SLP267

CYQB;2008-11-24 12:00;CYQB 241200Z 30002KT 30SM BKN070 M11/M13 A3031 RMK AC6 SLP270

CYQB;2008-11-24 12:24;CYQB 241224Z 00000KT 20SM -SHSN BKN070 M10/ RMK AC7

CYQB;2008-11-24 13:00;CYQB 241300Z 07004KT 15SM -SHSN BKN070 BKN210 M10/M12 A3032 RMK AC5CI2 SLP272

CYQB;2008-11-24 14:00;CYQB 241400Z 00000KT 4SM -SHSN BKN040 BKN210 M09/M12 A3032 RMK SC5CI2 SLP273

CYQB;2008-11-24 15:00;CYQB 241500Z 04006KT 20SM -SHSN BKN029 OVC045 M08/M11 A3031 RMK SC7SC1 SLP269

CYQB;2008-11-24 16:00;CYQB 241600Z 02005KT 30SM -SHSN OVC025 M07/M12 A3028 RMK SC8 SLP261

CYQB;2008-11-24 17:00;CYQB 241700Z 06003KT 25SM SCT030 BKN100 M06/M11 A3027 RMK SC4AC3 SLP257

CYQB;2008-11-24 18:00;CYQB 241800Z 06003KT 25SM FEW030 BKN100 M05/M11 A3026 RMK SC2AC3 SLP253

CYQB;2008-11-24 19:00;CYQB 241900Z 07003KT 30SM BKN048 OVC100 M05/M11 A3026 RMK SC6AC2 SLP252

CYQB;2008-11-24 20:00;CYQB 242000Z 03004KT 20SM BKN045 OVC100 M04/M10 A3025 RMK SC6AC2 SLP250

CYQB;2008-11-24 21:00;CYQB 242100Z 05007KT 20SM FEW045 BKN110 OVC220 M04/M10 A3025 RMK SC2AC4CI1 SLP248

CYQB;2008-11-24 22:00;CYQB 242200Z 05004KT 15SM BKN075 M04/M09 A3025 RMK AS3 SLP248

CYQB;2008-11-24 23:00;CYQB 242300Z 05005KT 15SM SCT090 OVC240 M05/M09 A3024 RMK AS2CS1 SLP247

CYQB;2008-11-25 00:00;CYQB 250000Z 07008KT 15SM BKN065 OVC240 M04/M08 A3023 RMK SC4CS0 SLP242

CYQB;2008-11-25 01:00;CYQB 250100Z 07010KT 15SM FEW065 BKN220 M04/M07 A3022 RMK SC2CS1 SLP238

CYQB;2008-11-25 02:00;CYQB 250200Z 08014KT 15SM OVC220 M03/M06 A3021 RMK CS4 SLP236

CYQB;2008-11-25 03:00;CYQB 250300Z 07015KT 15SM BKN088 OVC220 M03/M06 A3020 RMK AC6CI1 SLP233

CYQB;2008-11-25 04:00;CYQB 250400Z 09010G15KT 15SM OVC085 M02/M06 A3021 RMK AC8 SLP236

CYQB;2008-11-25 05:00;CYQB 250500Z 07012KT 15SM SCT038 OVC071 M02/M06 A3021 RMK SC4AC4 SLP235

CYQB;2008-11-25 06:00;CYQB 250600Z 08010G17KT 15SM OVC027 M02/M06 A3020 RMK SC8 SLP233

CYQB;2008-11-25 07:00;CYQB 250700Z 07010G17KT 5SM -SN OVC026 M02/M06 A3021 RMK SC8 SLP234

CYQB;2008-11-25 08:00;CYQB 250800Z 09010G21KT 5SM -SN BKN025 OVC045 M03/M05 A3018 RMK SC6SC2 SLP226

CYQB;2008-11-25 09:00;CYQB 250900Z 07013G24KT 12SM -SN BKN020 OVC045 M02/M05 A3015 RMK SC6SC2 SLP215

CYQB;2008-11-25 10:00;CYQB 251000Z 07019G27KT 3SM -SN DRSN OVC025 M02/M06 A3013 RMK SN2SC6 SLP206

CYQB;2008-11-25 11:00;CYQB 251100Z 07017G27KT 4SM -SN DRSN FEW012 BKN026 OVC037 M02/M05 A3013 RMK SF2SC6SC1 SLP206

CYQB;2008-11-25 11:40;CYQB 251140Z 07017G25KT 3/4SM R06/P6000FT/D -SN VV004 M02/ RMK SN8

CYQB;2008-11-25 11:49;CYQB 251149Z CCA 07017G25KT 3/4SM R06/P6000FT/D -SN DRSN VV004 M02/ RMK SN8

CYQB;2008-11-25 12:00;CYQB 251200Z 08020G27KT 5/8SM R06/4000V5500FT/D SN DRSN VV007 M02/M04 A3012 RMK SN8 /S01 SLP205

CYQB;2008-11-25 13:00;CYQB 251300Z 07019G26KT 5/8SM R06/P6000FT/N -SN DRSN BR VV006 M02/M03 A3011 RMK SN8 /S02 SLP202

CYQB;2008-11-25 14:00;CYQB 251400Z 07019G28KT 5/8SM R06/4500VP6000FT/D -SN DRSN BR VV004 M02/M02 A3013 RMK SN8 /S03 SLP206

CYQB;2008-11-25 14:38;CYQB 251438Z 07017G27KT 5/8SM R06/5500FT/U -SN DRSN BR VV006 M02/ RESN RMK SN8 CIG VRB 4-6

CYQB;2008-11-25 14:46;CYQB 251446Z CCA 07017G27KT 5/8SM R06/5500FT/U -SN DRSN BR VV005 M02/ RESN RMK SN8 CIG VRB 4-6

CYQB;2008-11-25 15:00;CYQB 251500Z 07018G25KT 3/4SM R06/P6000FT/U -SN DRSN BR VV006 M02/M02 A3014 RMK SN8 SLP209

CYQB;2008-11-25 15:49;CYQB 251549Z 06022G31KT 1 1/2SM R06/4000VP6000FT/U -SHGS DRSN BR BKN012 OVC026 M02/ RMK SN2SC6SC1

CYQB;2008-11-25 16:00;CYQB 251600Z 07025G31KT 5SM -SHGS DRSN BR BKN010 OVC015 M01/M02 A3008 RMK SC7SC1 VIS LWR NW SLP189

CYQB;2008-11-25 16:41;CYQB 251641Z 08022G27KT 2SM -SN BR BKN012 OVC027 M01/ RMK SC7SC1

CYQB;2008-11-25 17:00;CYQB 251700Z 07023G34KT 1 1/2SM -SN BLSN BKN013 OVC027 M01/M03 A3006 RMK SC7SC1 SLP183

CYQB;2008-11-25 17:48;CYQB 251748Z 08021G29KT 1 1/4SM -SN BLSN BKN014 OVC025 M01/ RMK SC7SC1

CYQB;2008-11-25 18:00;CYQB 251800Z 07020G37KT 1SM R06/5500FT/N -SN BLSN BKN012 OVC025 M01/M03 A3003 RMK SC7SC1 /S04 SLP175

CYQB;2008-11-25 18:25;CYQB 251825Z 07024G33KT 3/4SM R06/3500V5500FT/U -SN BLSN VV008 M02/ RMK SN8 VIS VRB 1/2-1

CYQB;2008-11-25 19:00;CYQB 251900Z CCA 08020G30KT 4SM -SN DRSN BKN008 OVC011 M01/M02 A3001 REBLSN RMK SC6SC2 /S01 SLP166

CYQB;2008-11-25 19:16;CYQB 251916Z 08019G28KT 6SM DRSN BR SCT008 BKN012 OVC015 M01/ RMK SF3SC3SC2

CYQB;2008-11-25 20:00;CYQB 252000Z 08020G31KT 15SM -SN FEW008 BKN015 OVC035 M01/M03 A2999 RMK SF2SC4SC2 /S02 SLP160

CYQB;2008-11-25 21:00;CYQB 252100Z 07028G35KT 15SM -SN FEW008 OVC030 M00/M04 A2997 RMK SF2SC6 SLP153

CYQB;2008-11-25 22:00;CYQB 252200Z 08018G32KT 15SM FEW008 OVC030 M00/M04 A2996 RMK SF2SC6 SLP150

CYQB;2008-11-25 23:00;CYQB 252300Z 08024G31KT 15SM DRSN FEW008 OVC030 M00/M04 A2995 RMK SF1SC7 SLP145

CYQB;2008-11-26 00:00;CYQB 260000Z 07026G36KT 15SM DRSN FEW008 OVC022 M00/M04 A2993 RMK SF1SC7 SLP138

CYQB;2008-11-26 00:39;CYQB 260039Z 07028G42KT 12SM -SHSN DRSN FEW008 OVC023 M00/ RMK SF2SC6

CYQB;2008-11-26 01:00;CYQB 260100Z 07024G35KT 6SM -SN DRSN FEW008 OVC024 M00/M03 A2991 RMK SF2SC6 SLP131

CYQB;2008-11-26 02:00;CYQB 260200Z 07028G39KT 10SM -SHSN DRSN FEW010 BKN027 OVC034 00/M03 A2989 RMK SF2SC6SC1 SLP124

CYQB;2008-11-26 03:00;CYQB 260300Z 07028G38KT 3SM -SHSN DRSN BKN023 OVC042 00/M02 A2987 RMK SC6SC2 SLP118

CYQB;2008-11-26 04:00;CYQB 260400Z 07028G40KT 10SM -SHSN DRSN BKN023 OVC039 01/M01 A2984 RMK SC6SC2 SLP110

CYQB;2008-11-26 05:00;CYQB 260500Z 07026G39KT 10SM DRSN BKN015 OVC033 01/M02 A2982 RMK SC5SC3 SLP102

CYQB;2008-11-26 06:00;CYQB 260600Z 08030G38KT 10SM -SHSN DRSN BKN016 OVC028 01/M01 A2979 RMK SC5SC3 SLP091

CYQB;2008-11-26 07:00;CYQB 260700Z 07024G42KT 10SM -SHSN BKN013 OVC026 01/M01 A2976 RMK SC6SC2 SLP081

CYQB;2008-11-26 08:00;CYQB 260800Z 07025G35KT 15SM -SHSN SCT012 OVC031 01/M01 A2974 RMK SC4SC4 SLP074

CYQB;2008-11-26 09:00;CYQB 260900Z 07033G45KT 15SM SCT011 OVC033 02/M01 A2973 RMK SC3SC5 SLP071

CYQB;2008-11-26 10:00;CYQB 261000Z 07023G39KT 15SM -SHSN SCT012 OVC027 02/M00 A2973 RMK SC3SC5 SLP071

CYQB;2008-11-26 11:00;CYQB 261100Z 08023G36KT 15SM -SHRASN SCT012 OVC025 01/00 A2975 RMK SC3SC5 SLP076

CYQB;2008-11-26 11:32;CYQB 261132Z 08018G27KT 15SM -SHRA SCT010 OVC025 01/ RMK SC3SC5

CYQB;2008-11-26 11:44;CYQB 261144Z 09015G27KT 15SM -SHRA SCT009 OVC021 01/ RMK SC4SC4

CYQB;2008-11-26 12:00;CYQB 261200Z 08017G27KT 10SM -RA SCT009 OVC018 02/01 A2976 RMK SC4SC4 SLP082

CYQB;2008-11-26 12:31;CYQB 261231Z 07015G29KT 3SM -RASN BR OVC007 02/ RMK SC8

CYQB;2008-11-26 13:00;CYQB 261300Z 08014G22KT 3SM -RASN BR OVC008 02/01 A2979 RMK SC8 SLP091

CYQB;2008-11-26 13:39;CYQB 261339Z 07014G29KT 4SM -RA BR BKN007 OVC017 02/ RMK SF4SC4

CYQB;2008-11-26 14:00;CYQB 261400Z 07016G22KT 4SM -RA BR SCT007 OVC018 02/01 A2979 RMK SF3SC5 SLP092

CYQB;2008-11-26 15:00;CYQB 261500Z 10009KT 4SM -RA BR SCT007 BKN015 OVC024 02/02 A2982 RMK SF4SC3SC1 SLP102

CYQB;2008-11-26 16:00;CYQB 261600Z 09006KT 2SM -RA BR SCT009 BKN012 OVC035 02/02 A2983 RMK SF4SC3SC1 SLP103

CYQB;2008-11-26 16:11;CYQB 261611Z 10007KT 5SM -RA BR FEW009 SCT013 OVC029 02/ RMK SF2SC2SC3 VIS N 2

CYQB;2008-11-26 16:52;CYQB 261652Z 08006KT 10SM FEW009 BKN023 OVC033 03/ RMK SF2SC4SC2

CYQB;2008-11-26 17:00;CYQB 261700Z 08007KT 10SM FEW008 BKN024 BKN033 03/03 A2982 RMK SF2SC4SC2 VIS LWR N SLP102

CYQB;2008-11-26 18:00;CYQB 261800Z 08008KT 30SM FEW010 BKN040 BKN100 03/03 A2982 RMK SF1SC6AC1 SLP101

CYQB;2008-11-26 19:00;CYQB 261900Z 08008KT 15SM FEW010 BKN038 BKN100 04/03 A2982 RMK SF2SC3AC1 SLP100

CYQB;2008-11-26 20:00;CYQB 262000Z 07007KT 15SM SCT035 04/02 A2983 RMK SC4 SLP103

CYQB;2008-11-26 21:00;CYQB 262100Z 08009KT 15SM FEW035 OVC070 03/01 A2983 RMK CF2AC6 SLP106

CYQB;2008-11-26 22:00;CYQB 262200Z 07011KT 15SM BKN048 OVC070 03/01 A2985 RMK SC5AC3 SLP110

CYQB;2008-11-26 23:00;CYQB 262300Z 07010G15KT 15SM FEW045 OVC073 03/01 A2986 RMK SC1AC7 SLP113

CYQB;2008-11-26 23:39;CYQB 262339Z 10007KT 15SM SCT057 OVC073 02/ RMK SC4AC4

CYQB;2008-11-27 00:00;CYQB 270000Z 09008KT 15SM FEW020 BKN057 BKN073 03/00 A2987 RMK SC1SC6AC1 SLP117

CYQB;2008-11-27 00:17;CYQB 270017Z 10006KT 15SM FEW042 OVC054 02/ RMK SC2SC6

CYQB;2008-11-27 01:00;CYQB 270100Z 14010KT 15SM BKN036 OVC075 03/M00 A2988 RMK SC6AC2 SLP121

CYQB;2008-11-27 02:00;CYQB 270200Z 15008KT 15SM FEW032 OVC065 03/M01 A2988 RMK SC2SC6 SLP120

CYQB;2008-11-27 02:10;CYQB 270210Z 13008KT 15SM FEW032 OVC064 02/ RMK SC2SC6

CYQB;2008-11-27 03:00;CYQB 270300Z 14005KT 15SM FEW030 OVC064 02/M01 A2987 RMK SC2SC6 SLP119

CYQB;2008-11-27 04:00;CYQB 270400Z 13004KT 15SM OVC060 02/M01 A2988 RMK SC8 SLP120

CYQB;2008-11-27 05:00;CYQB 270500Z 11002KT 15SM OVC060 02/M01 A2987 RMK SC8 SLP119

CYQB;2008-11-27 06:00;CYQB 270600Z 07005KT 15SM OVC042 02/M01 A2988 RMK SC8 SLP120

CYQB;2008-11-27 07:00;CYQB 270700Z 12003KT 15SM OVC035 02/M01 A2988 RMK SC8 SLP121

CYQB;2008-11-27 08:00;CYQB 270800Z 06002KT 15SM SCT035 OVC065 02/M01 A2987 RMK SC3SC5 SLP119

CYQB;2008-11-27 09:00;CYQB 270900Z 00000KT 15SM BKN040 OVC065 01/M01 A2987 RMK SC6SC2 SLP118

CYQB;2008-11-27 10:00;CYQB 271000Z 04003KT 15SM BKN045 OVC065 01/M01 A2986 RMK SC6SC2 SLP115

CYQB;2008-11-27 11:00;CYQB 271100Z 05003KT 15SM OVC053 01/M01 A2986 RMK SC8 SLP116

CYQB;2008-11-27 12:00;CYQB 271200Z 07003KT 30SM FEW039 BKN052 01/M01 A2987 RMK SC2SC6 SLP117

CYQB;2008-11-27 13:00;CYQB 271300Z 10003KT 30SM FEW034 BKN045 02/M01 A2987 RMK SC2SC5 SLP119

CYQB;2008-11-27 14:00;CYQB 271400Z 13003KT 30SM SCT030 BKN059 02/M02 A2987 RMK SC3SC4 SLP117

CYQB;2008-11-27 14:41;CYQB 271441Z 13004KT 20SM -SN BKN035 02/ RMK SC7 VIS W-NE 2 MTS OBSCD NW-NE

CYQB;2008-11-27 15:00;CYQB 271500Z 14004KT 2SM -SN OVC021 02/M01 A2987 RMK SN2SC6 VIS SE 6 MTS OBSCD NW-NE CIG LOWR NE SLP117

CYQB;2008-11-27 15:12;CYQB 271512Z CCA 11002KT 5SM -SN OVC026 02/ RMK SC8 VIS S 30 MTS OBSCD N-NE

CYQB;2008-11-27 16:00;CYQB 271600Z 00000KT 15SM -SN OVC026 03/M01 A2985 RMK SC8 VIS S 30 N-NE 6 SLP110

CYQB;2008-11-27 17:00;CYQB 271700Z 02004KT 20SM -SN OVC027 03/M01 A2983 RMK SC8 MT TOPS OBSCD N SLP104

CYQB;2008-11-27 17:28;CYQB 271728Z 25003KT 20SM OVC029 03/ RMK SC8

CYQB;2008-11-27 17:50;CYQB 271750Z 23006KT 20SM OVC027 02/ RMK SC8

CYQB;2008-11-27 18:00;CYQB 271800Z 23004KT 15SM -RA OVC043 02/M00 A2982 RMK SC8 SLP102

CYQB;2008-11-27 18:33;CYQB 271833Z 22006KT 15SM -RASN FEW018 OVC026 02/ RMK SC2SC6 VIS N 5

CYQB;2008-11-27 19:00;CYQB 271900Z 22007KT 6SM -RASN SCT011 OVC019 02/00 A2983 RMK SC3SC5 SLP103

CYQB;2008-11-27 19:30;CYQB 271930Z 25005KT 4SM -SN BR OVC010 02/ RMK SC8

CYQB;2008-11-27 19:45;CYQB 271945Z 27008KT 1 1/2SM -SN BR VV008 01/ RMK SN8 CIG VRB 6-10

CYQB;2008-11-27 20:00;CYQB 272000Z 26006KT 1 1/2SM -SN BR VV010 00/M01 A2984 RMK SN8 CIG VRB 7-13 SLP108

CYQB;2008-11-27 20:09;CYQB 272009Z 27005KT 5/8SM R06/P6000FT/D -SN BR VV005 00/ RMK SN8

CYQB;2008-11-27 20:31;CYQB 272031Z CCA 25007KT 3SM -SN BR FEW005 OVC026 00/ RMK SF1SC7 VIS HIER N AND S

CYQB;2008-11-27 20:46;CYQB 272046Z 26009KT 1SM R06/P6000FT/U -SN BR VV011 00/ RMK SN8 VIS VRB 3/4-11/4

CYQB;2008-11-27 21:00;CYQB 272100Z 25010KT 2SM -SN BR FEW010 OVC040 00/M01 A2985 RMK SF1SC7 VIS VRB 1-3 SLP111

CYQB;2008-11-27 22:00;CYQB 272200Z 25008KT 2SM -SN BR FEW010 BKN017 OVC040 M00/M01 A2986 RMK SF2SC5SC2 VIS VRB 1-3 SLP114

CYQB;2008-11-27 23:00;CYQB 272300Z CCA 25008KT 5SM -SN BR FEW012 OVC060 M00/M01 A2986 RMK SF1SC7 /S01/ SLP115

CYQB;2008-11-28 00:00;CYQB 280000Z 25005KT 10SM FEW012 BKN034 OVC040 M01/M02 A2986 RMK SF2SC5SC2 VIS LWR N SLP115

CYQB;2008-11-28 00:49;CYQB 280049Z 24003KT 10SM -SN FEW012 BKN023 OVC031 M01/ RMK SF2SC6SC1 VIS LWR N

CYQB;2008-11-28 01:00;CYQB 280100Z 24002KT 10SM -SN FEW015 BKN024 OVC030 M01/M02 A2985 RMK SC1SC6SC2 VIS LWR N SLP113

CYQB;2008-11-28 01:46;CYQB 280146Z 20002KT 10SM -SN FEW008 OVC018 M01/ RMK SF2SC6

CYQB;2008-11-28 02:00;CYQB 280200Z 21002KT 10SM -SN FEW008 BKN018 OVC038 M01/M02 A2984 RMK SF2SC5SC1 SLP110

CYQB;2008-11-28 03:00;CYQB 280300Z 21006KT 15SM -SN FEW008 FEW018 OVC051 M01/M02 A2984 RMK SF1SC2SC6 SLP109

CYQB;2008-11-28 04:00;CYQB 280400Z 21004KT 15SM -SN OVC063 M01/M02 A2984 RMK SC8 SLP110

CYQB;2008-11-28 05:00;CYQB 280500Z 20003KT 6SM -SN FEW015 SCT023 OVC057 M01/M02 A2983 RMK SC1SC2SC5 SLP107

CYQB;2008-11-28 06:00;CYQB 280600Z 00000KT 6SM -SN FEW008 OVC019 M01/M02 A2982 RMK SF2SC6 SLP100

CYQB;2008-11-28 07:00;CYQB 280700Z 15002KT 6SM -SN BKN013 OVC030 M01/M02 A2982 RMK SC6SC2 SLP101

CYQB;2008-11-28 08:00;CYQB 280800Z 09002KT 10SM -SN OVC009 M01/M02 A2980 RMK SF8 SLP095

CYQB;2008-11-28 09:00;CYQB 280900Z 06003KT 5SM -SN SCT009 OVC016 M01/M02 A2978 RMK SF3SC5 SLP089

CYQB;2008-11-28 10:00;CYQB 281000Z 06005KT 10SM -SN FEW009 OVC015 M01/M02 A2976 RMK SF2SC6 SLP082

CYQB;2008-11-28 11:00;CYQB 281100Z 07006KT 8SM -SN FEW004 SCT009 OVC023 M01/M02 A2974 RMK SF2SF2SC5 SLP074

CYQB;2008-11-28 12:00;CYQB 281200Z 08004KT 8SM -SN SCT004 OVC031 M01/M02 A2973 RMK SF4SC4 SLP071

CYQB;2008-11-28 13:00;CYQB 281300Z 07009KT 5SM -SN BKN047 OVC062 M01/M02 A2971 RMK SC7SC1 SLP064

CYQB;2008-11-28 13:31;CYQB 281331Z 09006KT 4SM -SN OVC013 M01/ RMK SC8

CYQB;2008-11-28 13:40;CYQB 281340Z 07008KT 1/2SM R06/P6000FT/D SN VV008 M00/ RMK SN8

CYQB;2008-11-28 14:00;CYQB 281400Z 08006KT 1/2SM R06/5500FT/N SN VV006 M01/M01 A2972 RMK SN8 SLP067

CYQB;2008-11-28 14:50;CYQB 281450Z 08006KT 1SM R06/P6000FT/N -SN BKN002 BKN011 OVC026 M00/ RMK SN2SF3SF2SC1 RESN

CYQB;2008-11-28 15:00;CYQB 281500Z 08007KT 1SM R06/P6000FT/N -SN BKN003 BKN011 OVC028 M00/M01 A2971 RMK SN1SF4SF2SC1 RESN /S01/ SLP063

CYQB;2008-11-28 15:22;CYQB 281522Z 07007KT 3/4SM R06/P6000FT/D -SN VV004 M00/ RMK SN8

CYQB;2008-11-28 15:42;CYQB 281542Z 09004KT 1/2SM R06/5500FT/D SN VV002 M00/ RMK SN8

CYQB;2008-11-28 16:00;CYQB 281600Z 08005KT 3/4SM R06/P6000FT/D -SN VV008 M00/M01 A2968 RMK SN8 RESN SLP053

CYQB;2008-11-28 17:00;CYQB 281700Z 10006KT 1SM R06/P6000FT/D -SN SCT002 OVC005 00/M00 A2966 RMK SN1SF2SC5 SLP046

CYQB;2008-11-28 18:00;CYQB 281800Z CCA 14004KT 1SM R06/P6000FT/U -SN SCT002 OVC005 00/M00 A2964 RMK SN1SF2SC5 /S02/ SLP041

CYQB;2008-11-28 19:00;CYQB 281900Z 07003KT 1SM R06/P6000FT/N -SN BR BKN002 OVC015 00/M00 A2964 RMK SF6SC2 SLP041

CYQB;2008-11-28 20:00;CYQB 282000Z 10004KT 1 1/4SM -SN BR BKN002 OVC018 00/M00 A2964 RMK SF5SC3 SLP042

CYQB;2008-11-28 20:40;CYQB 282040Z 07005KT 1SM R06/P6000FT/U -SN BR SCT002 OVC018 00/ RMK SF4SC4

CYQB;2008-11-28 21:00;CYQB 282100Z 07005KT 1SM R06/P6000FT/D -SN BR SCT002 OVC018 00/M00 A2965 RMK SF4SC4 SLP044

CYQB;2008-11-28 22:00;CYQB 282200Z 07005KT 1SM R06/P6000FT/D -SN BR FEW002 BKN010 OVC018 00/M00 A2966 RMK SF2SC3SC3 SLP046

CYQB;2008-11-28 23:00;CYQB 282300Z 08004KT 1SM R06/P6000FT/D -SN BR FEW002 BKN010 OVC017 00/00 A2966 RMK SF1SC4SC3 SLP046

CYQB;2008-11-29 00:00;CYQB 290000Z 09002KT 1SM R06/P6000FT/U -SN BR FEW002 BKN006 OVC015 00/M00 A2965 RMK SF2SC3SC2 SLP044

CYQB;2008-11-29 01:00;CYQB 290100Z 06004KT 1SM R06/P6000FT/D -SN BR FEW002 SCT006 OVC014 00/M00 A2964 RMK SF1SC2SC5 SLP040

CYQB;2008-11-29 01:39;CYQB 290139Z 12002KT 1SM R06/P6000FT/U -SN BR FEW002 BKN005 OVC015 00/ RMK SN1SF2SC4SC2

CYQB;2008-11-29 02:00;CYQB 290200Z 00000KT 2 1/2SM -SN BR FEW002 BKN007 OVC015 00/M00 A2964 RMK SN1SF2SC5SC1 SLP042

CYQB;2008-11-29 03:00;CYQB 290300Z 22002KT 3SM -SN BKN007 BKN013 OVC022 00/00 A2964 RMK SC6SC1SC1 SLP041

CYQB;2008-11-29 04:00;CYQB 290400Z 22005KT 2SM -SN BR SCT007 BKN024 BKN045 01/00 A2965 RMK SF4SC3SC1 SLP044

CYQB;2008-11-29 05:00;CYQB 290500Z 28003KT 2 1/2SM -SN BR FEW007 BKN020 BKN045 00/00 A2965 RMK SF2SC5SC1 SLP043

CYQB;2008-11-29 06:00;CYQB 290600Z 25005KT 2 1/2SM -SN BR SCT007 OVC022 00/M00 A2965 RMK SF4SC4 SLP044

CYQB;2008-11-29 07:00;CYQB 290700Z 25008KT 2SM BR OVC018 00/M00 A2966 RMK SC8 SLP048

CYQB;2008-11-29 08:00;CYQB 290800Z 24005KT 3SM BR OVC036 00/M00 A2967 RMK SC8 SLP051

CYQB;2008-11-29 09:00;CYQB 290900Z 25005KT 2SM -SN BR BKN021 OVC040 M00/M01 A2968 RMK SC5SC3 SLP054

CYQB;2008-11-29 10:00;CYQB 291000Z 26007KT 2SM -SN BR BKN045 OVC067 M00/M01 A2968 RMK SC6AC2 SLP054

CYQB;2008-11-29 11:00;CYQB 291100Z 24005KT 2 1/2SM -SN BR BKN046 OVC065 M00/M01 A2970 RMK SC6AC2 SLP059

CYQB;2008-11-29 11:38;CYQB 291138Z 22004KT 3SM -SN BR SCT045 OVC081 M00/ RMK SC4AC3

CYQB;2008-11-29 12:00;CYQB 291200Z 25007KT 3SM -SN BR BKN060 OVC080 M00/M01 A2971 RMK AC6AC2 SLP064

CYQB;2008-11-29 12:27;CYQB 291227Z 23007KT 3SM BR BKN056 OVC080 M00/ RMK SC6AC2

CYQB;2008-11-29 13:00;CYQB 291300Z 25013KT 2 1/2SM BR FEW004 OVC051 M00/M01 A2973 RMK SF2SC5 VSB VRB 2-3 SLP072

CYQB;2008-11-29 13:38;CYQB 291338Z 26010KT 2 1/2SM -SHSN BR SCT007 OVC041 M00/ RMK SF4SC4 VIS VRB 2-3

CYQB;2008-11-29 14:00;CYQB 291400Z 26009KT 3SM -SHSN BR BKN042 M00/M01 A2975 RMK SC7 SLP077

CYQB;2008-11-29 14:33;CYQB 291433Z 25009KT 3SM BR FEW007 BKN042 00/ RMK SF2SC2

CYQB;2008-11-29 15:00;CYQB 291500Z 25009KT 4SM BR FEW007 SCT042 00/M01 A2975 RMK SF2SC1 SLP079

CYQB;2008-11-29 16:00;CYQB 291600Z 25010KT 4SM BR BKN013 00/M01 A2975 RMK SC6 SLP079

CYQB;2008-11-29 17:00;CYQB 291700Z 27008KT 5SM BR FEW013 OVC032 01/M01 A2976 RMK SC2SC6 SLP082

CYQB;2008-11-29 18:00;CYQB 291800Z 25009KT 6SM BR BKN042 01/M01 A2976 RMK SC7 SLP081

CYQB;2008-11-29 18:36;CYQB 291836Z 23009KT 5SM -SHSN BR BKN034 01/ RMK SC7

CYQB;2008-11-29 19:00;CYQB 291900Z 23009KT 5SM -SHSN BR BKN010 OVC030 01/M01 A2977 RMK SC5SC3 SLP085

CYQB;2008-11-29 19:50;CYQB 291950Z 25010KT 7SM -SHSN FEW005 BKN010 OVC030 00/ RMK SF2SC3SC2

CYQB;2008-11-29 20:00;CYQB 292000Z 25010KT 8SM -SHSN FEW005 SCT010 BKN031 00/M01 A2979 RMK SF2SC2SC3 SLP091

CYQB;2008-11-29 21:00;CYQB 292100Z 27011KT 10SM -SHSN FEW012 SCT020 OVC030 M01/M03 A2983 RMK SC2SC2SC5 BARO READ +16 SLP106

CYQB;2008-11-29 22:00;CYQB 292200Z 25009KT 10SM BKN012 OVC020 M01/M03 A2985 RMK SC5SC3 OCNL -SHSN CIG LWR N SLP112

CYQB;2008-11-29 22:43;CYQB 292243Z 24008KT 10SM BKN012 OVC020 M01/ RMK SC5SC3

CYQB;2008-11-29 23:00;CYQB 292300Z 25009KT 10SM BKN011 BKN020 OVC030 M01/M03 A2986 RMK SC5SC2SC2 SLP117

CYQB;2008-11-30 00:00;CYQB 300000Z 27009KT 10SM BKN011 BKN020 OVC033 M01/M03 A2988 RMK SC5SC1SC2 SLP122

CYQB;2008-11-30 01:00;CYQB 300100Z 26007KT 10SM SCT011 OVC029 M02/M05 A2989 RMK SC3SC5 SLP125

CYQB;2008-11-30 02:00;CYQB 300200Z 23006KT 15SM SCT024 M03/M06 A2989 RMK SC4 SLP126

CYQB;2008-11-30 03:00;CYQB 300300Z 00000KT 15SM FEW025 SCT064 M04/M07 A2989 RMK SC2SC2 SLP126

CYQB;2008-11-30 04:00;CYQB 300400Z 24005KT 15SM BKN070 M04/M07 A2989 RMK AC6 SLP127

CYQB;2008-11-30 04:49;CYQB 300449Z 25006KT 15SM -SHSN OVC071 M04/ RMK AC8

CYQB;2008-11-30 05:00;CYQB 300500Z 25007KT 15SM -SHSN OVC072 M04/M06 A2991 RMK AC8 SLP131

CYQB;2008-11-30 06:00;CYQB 300600Z 25004KT 8SM -SHSN BKN043 OVC071 M04/M06 A2992 RMK SC6AC2 SLP134

CYQB;2008-11-30 07:00;CYQB 300700Z 27004KT 6SM -SN BKN010 BKN032 OVC070 M04/M05 A2993 RMK SF6SC2AC1 SLP139

CYQB;2008-11-30 08:00;CYQB 300800Z 27003KT 6SM -SN BKN010 BKN032 OVC070 M03/M05 A2992 RMK SF6SC1AC1 SLP137

CYQB;2008-11-30 09:00;CYQB 300900Z 25003KT 10SM FEW010 BKN027 OVC070 M04/M05 A2992 RMK SF1SC6AC2 INTMT -SN SLP136

CYQB;2008-11-30 09:12;CYQB 300912Z 23002KT 10SM FEW010 BKN025 OVC071 M04/ RMK SF1SC6AC1

CYQB;2008-11-30 10:00;CYQB 301000Z 09002KT 15SM BKN027 BKN070 M04/M06 A2992 RMK SC5AC2 SLP137

CYQB;2008-11-30 11:00;CYQB 301100Z 09002KT 15SM FEW027 BKN070 M04/M05 A2993 RMK SC2AC6 SLP139

CYQB;2008-11-30 12:00;CYQB 301200Z 10003KT 15SM SCT023 OVC069 M04/M06 A2993 RMK SC3AC4 SLP140

CYQB;2008-11-30 13:00;CYQB 301300Z 00000KT 15SM FEW023 BKN070 M05/M06 A2995 RMK SC2AC4 SLP146

CYQB;2008-11-30 14:00;CYQB 301400Z 00000KT 10SM BKN026 OVC085 M03/M05 A2997 RMK SC6AC2 SLP154

CYQB;2008-11-30 14:24;CYQB 301424Z 36002KT 10SM -SN OVC023 M03/ RMK SC8

CYQB;2008-11-30 15:00;CYQB 301500Z 36003KT 10SM -SN BKN024 OVC080 M02/M04 A2999 RMK SC6AC2 SLP159

CYQB;2008-11-30 16:00;CYQB 301600Z 04003KT 10SM -SN OVC023 M02/M04 A2997 RMK SC8 SLP155

CYQB;2008-11-30 17:00;CYQB 301700Z 03002KT 10SM -SN OVC021 M01/M04 A2997 RMK SC8 SLP154

CYQB;2008-11-30 17:45;CYQB 301745Z 03003KT 15SM SCT021 BKN065 M01/ RMK SC3AC3

CYQB;2008-11-30 18:00;CYQB 301800Z 03004KT 15SM FEW021 SCT065 M01/M04 A2996 RMK SC2AC1 SLP149

CYQB;2008-11-30 19:00;CYQB 301900Z 05003KT 15SM SCT029 BKN062 M00/M04 A2996 RMK SC3AC2 SLP150

CYQB;2008-11-30 20:00;CYQB 302000Z 05006KT 12SM FEW065 FEW120 BKN240 M00/M04 A2995 RMK SC1AC1CI2 SLP148

CYQB;2008-11-30 21:00;CYQB 302100Z 05004KT 15SM FEW060 FEW120 BKN260 M01/M04 A2995 RMK SC1AC1CI2 SLP146

CYQB;2008-11-30 22:00;CYQB 302200Z 03006KT 15SM FEW060 FEW120 BKN260 M01/M04 A2995 RMK SC1AC1CI3 SLP148

CYQB;2008-11-30 23:00;CYQB 302300Z 04006KT 12SM FEW060 SCT160 OVC240 M01/M04 A2995 RMK SC1AC3CI2 SLP147

CYQB;2008-12-01 01:00;CYQB 010100Z 07010KT 15SM FEW050 SCT130 OVC200 M01/M03 A2991 RMK SC1AC3CI4 SLP132

CYQB;2008-12-01 02:00;CYQB 010200Z 07010KT 15SM SCT100 OVC160 M00/M03 A2989 RMK AC4AC4 SLP127

CYQB;2008-12-01 03:00;CYQB 010300Z 07013KT 15SM BKN070 OVC100 00/M03 A2986 RMK AC5AC3 SLP115

CYQB;2008-12-01 04:00;CYQB 010400Z 09012KT 4SM -SN BKN016 OVC035 00/M03 A2983 RMK SC3SC5 SLP107

CYQB;2008-12-01 04:31;CYQB 010431Z 09009G16KT 1 1/2SM -SN BKN011 OVC030 M00/ RMK SC6SC2

CYQB;2008-12-01 05:00;CYQB 010500Z 08013KT 1 1/2SM -SN BKN012 OVC032 M01/M02 A2980 RMK SC6SC2 /S01/ SLP096

CYQB;2008-12-01 05:49;CYQB 010549Z 07013KT 2SM -SN BKN005 OVC018 M01/ RMK SF6SC2

CYQB;2008-12-01 06:00;CYQB 010600Z 07013KT 2SM -SN BKN005 OVC012 M01/M02 A2978 RMK SF6SC2 CIG VRB 4-6 SLP087

CYQB;2008-12-01 07:00;CYQB 010700Z 08013G26KT 1 1/2SM -SN OVC005 M01/M02 A2975 RMK SF8 CIG VRB 4-6 SLP078

CYQB;2008-12-01 07:44;CYQB 010744Z 07016G22KT 2SM -SN BKN008 OVC020 M01/ RMK SF6SC2

CYQB;2008-12-01 08:00;CYQB 010800Z 08015G24KT 2SM -SN OVC008 M01/M02 A2971 RMK SF8 /S01/ SLP065

CYQB;2008-12-01 09:00;CYQB 010900Z 07018G24KT 1 1/2SM -SN OVC008 M01/M02 A2965 RMK SF8 /S02/ PRESFR SLP045

CYQB;2008-12-01 10:00;CYQB 011000Z 07020G31KT 2SM -SN BKN009 OVC028 M01/M02 A2961 RMK SF6SC2 SLP030

CYQB;2008-12-01 11:00;CYQB 011100Z 07020G31KT 2SM -PLSN BKN009 OVC025 M01/M02 A2954 RMK SF7SC1 /S03/ PRESFR SLP008

CYQB;2008-12-01 12:00;CYQB 011200Z 07020G30KT 2SM -PLSN BKN008 OVC025 M01/M02 A2952 RMK SF7SC1 /S04/ SLP999

CYQB;2008-12-01 12:37;CYQB 011237Z 07020G34KT 2SM -PLSN -FZRA BKN008 OVC028 M01/ RMK SF6SC2

CYQB;2008-12-01 13:00;CYQB 011300Z 07020G33KT 1 1/2SM -PLSN -FZRA OVC009 M01/M02 A2948 RMK SF8 SLP986

CYQB;2008-12-01 14:00;CYQB 011400Z CCA 07023G29KT 2SM -SN -FZRA BR BKN009 OVC022 M00/M02 A2947 RMK SF6SC2 /S01/ SLP983

CYQB;2008-12-01 14:41;CYQB 011441Z 07023G29KT 2SM -SN -FZRA BR BKN009 OVC022 M00/ RMK SF6SC2

CYQB;2008-12-01 15:00;CYQB 011500Z 08013G20KT 3SM -SN -FZRA BR BKN009 OVC021 M00/M01 A2945 RMK SF5SC3 SLP975

CYQB;2008-12-01 15:11;CYQB 011511Z 07021G28KT 8SM FEW009 OVC020 M00/ RMK SF2SC6

CYQB;2008-12-01 16:00;CYQB 011600Z 08016G26KT 8SM FEW009 OVC017 00/M02 A2941 RMK SF2SC6 SLP961

CYQB;2008-12-01 17:00;CYQB 011700Z 08016G25KT 10SM OVC019 00/M02 A2938 RMK SC8 SLP952

CYQB;2008-12-01 17:48;CYQB 011748Z 09015G26KT 8SM -PL OVC018 00/ RMK SC8

CYQB;2008-12-01 18:00;CYQB 011800Z 09014G22KT 12SM -PL OVC018 00/M02 A2936 RMK SC8 SLP944

CYQB;2008-12-01 18:19;CYQB 011819Z 09010G15KT 12SM -PL FEW009 OVC014 00/ RMK SF2SC6

CYQB;2008-12-01 19:00;CYQB 011900Z 07010G15KT 6SM -PLSN FEW009 BKN014 OVC017 00/M02 A2937 RMK SF2SC4SC2 SLP950

CYQB;2008-12-01 19:29;CYQB 011929Z 08007KT 2SM -PLSN FEW008 SCT015 OVC022 M00/ RMK SF2SC2SC4

CYQB;2008-12-01 19:52;CYQB 011952Z 10004KT 3SM -SN FEW008 OVC014 M00/ RMK SF2SC6

CYQB;2008-12-01 20:00;CYQB 012000Z 00000KT 3SM -SN FEW004 OVC016 M00/M01 A2939 RMK SF2SC6 SLP954

CYQB;2008-12-01 20:48;CYQB 012048Z 09007KT 6SM -SN BKN004 OVC020 M00/ RMK SF5SC3

CYQB;2008-12-01 21:00;CYQB 012100Z 08006KT 7SM BKN004 OVC019 M00/M01 A2940 RMK SF5SC3 SLP960

CYQB;2008-12-01 21:14;CYQB 012114Z 20003KT 8SM BKN006 OVC018 M00/ RMK SF5SC3

CYQB;2008-12-01 21:31;CYQB 012131Z 07006KT 10SM SCT006 OVC016 M00/ RMK SF4SC4

CYQB;2008-12-01 22:00;CYQB 012200Z 09002KT 6SM -SN BKN004 OVC015 00/M01 A2944 RMK SF6SC2 SLP972

CYQB;2008-12-01 22:23;CYQB 012223Z 09004KT 6SM -SN SCT005 OVC022 00/ RMK SF4SC4

CYQB;2008-12-01 23:00;CYQB 012300Z 07004KT 8SM BKN004 OVC013 00/M01 A2944 RMK SF6SC2 SLP973

CYQB;2008-12-01 23:29;CYQB 012329Z 09003KT 8SM -SN BKN003 OVC008 00/ RMK SF6ST2

CYQB;2008-12-02 00:00;CYQB 020000Z 13005KT 8SM -SN BKN004 OVC008 M00/M01 A2946 RMK SF6ST2 SLP979

CYQB;2008-12-02 00:14;CYQB 020014Z 12002KT 8SM -SN SCT004 BKN014 OVC019 00/ RMK SF3SC3SC2

CYQB;2008-12-02 00:28;CYQB 020028Z 00000KT 8SM -SN SCT004 BKN009 OVC018 00/ RMK SF3SC2SC2

CYQB;2008-12-02 01:00;CYQB 020100Z 00000KT 8SM -SN SCT005 OVC018 00/M00 A2947 RMK SF4SC4 SLP982

CYQB;2008-12-02 02:00;CYQB 020200Z 09003KT 6SM -SN FEW005 SCT018 OVC036 00/M00 A2948 RMK SF2SC2SC4 SLP985

CYQB;2008-12-02 02:37;CYQB 020237Z 09002KT 8SM FEW005 SCT015 OVC042 M00/ RMK SF2SC2SC5

CYQB;2008-12-02 03:00;CYQB 020300Z 00000KT 8SM FEW003 SCT020 BKN071 00/M00 A2947 RMK SF1SC4AC3 SLP984

CYQB;2008-12-02 04:00;CYQB 020400Z 35003KT 4SM BR FEW002 BKN021 BKN045 OVC075 M00/M00 A2949 RMK SF1SC5SC2AC1 SLP991

CYQB;2008-12-02 05:00;CYQB 020500Z 23006KT 8SM FEW015 SCT035 SCT045 OVC070 02/01 A2950 RMK SF2SC2SC1AC4 SLP992

CYQB;2008-12-02 06:00;CYQB 020600Z 23007KT 12SM FEW015 BKN044 BKN100 02/01 A2951 RMK SF1SC6AC1 SLP995

CYQB;2008-12-02 07:00;CYQB 020700Z 23008KT 12SM FEW015 OVC039 02/01 A2953 RMK SC2SC6 SLP003

CYQB;2008-12-02 08:00;CYQB 020800Z 23012G17KT 10SM -SHRA OVC040 03/00 A2955 RMK SC8 SLP009

CYQB;2008-12-02 08:36;CYQB 020836Z 23012KT 10SM OVC037 03/ RMK SC8

CYQB;2008-12-02 09:00;CYQB 020900Z 23010KT 10SM OVC038 03/M00 A2956 RMK SC8 SLP014

CYQB;2008-12-02 10:00;CYQB 021000Z 22010G15KT 15SM BKN045 03/M01 A2957 RMK SC7 SLP016

CYQB;2008-12-02 11:00;CYQB 021100Z 23015G20KT 15SM BKN028 BKN044 03/M01 A2960 RMK SC5SC2 SLP026

CYQB;2008-12-02 12:00;CYQB 021200Z 22014G20KT 10SM SCT029 BKN053 BKN100 03/M01 A2962 RMK SC4SC2AC2 SLP034

CYQB;2008-12-02 12:22;CYQB 021222Z 23016G21KT 15SM FEW009 OVC039 03/ RMK SF1SC8

CYQB;2008-12-02 13:00;CYQB 021300Z 23017KT 15SM FEW013 BKN030 03/M01 A2965 RMK SF1SC6 SLP043

CYQB;2008-12-02 14:00;CYQB 021400Z 23020G26KT 15SM BKN032 BKN046 03/M02 A2968 RMK SC5SC2 SLP053

CYQB;2008-12-02 14:23;CYQB 021423Z CCA 23016G26KT 15SM -SHSN BKN031 BKN040 03/ RMK SC5SC2 VIS N-E LWR

CYQB;2008-12-02 15:00;CYQB 021500Z 24018G27KT 4SM -SHSN BKN029 03/M02 A2971 RMK SC7 VIS SW-W 15 SLP063

CYQB;2008-12-02 15:42;CYQB 021542Z 25020G26KT 15SM -SHSN BKN029 02/ RMK SC7

CYQB;2008-12-02 16:00;CYQB 021600Z 25014G25KT 5SM -SHSN BKN026 02/M03 A2973 RMK SC7 SLP072

CYQB;2008-12-02 16:43;CYQB 021643Z 26014G19KT 2 1/2SM -SHSN OVC024 01/ RMK SC8

CYQB;2008-12-02 17:00;CYQB 021700Z 24016KT 2SM -SHSN BKN024 OVC036 01/M02 A2976 RMK SN2SC5SC2 /S01/ SLP081

CYQB;2008-12-02 17:33;CYQB 021733Z 25016KT 4SM -SHSN BKN021 OVC041 01/ RMK SC7SC1

CYQB;2008-12-02 18:00;CYQB 021800Z 25013G18KT 4SM -SHSN SCT022 OVC038 01/M01 A2979 RMK SC3SC5 VIS SE-W HIER SLP091

CYQB;2008-12-02 18:42;CYQB 021842Z 25014G20KT 2SM -SHSN OVC033 02/ RMK SN2SC6 VIS SE-W 4

CYQB;2008-12-02 19:00;CYQB 021900Z 25014KT 2SM -SHSN BKN024 OVC030 01/M01 A2982 RMK SN2SC4SC2 VIS SE-W HIER SLP100

CYQB;2008-12-02 19:13;CYQB 021913Z 25015KT 4SM -SHSN OVC026 02/ RMK SC8

CYQB;2008-12-02 20:00;CYQB 022000Z 24012G17KT 10SM -SHSN BKN027 BKN055 02/M02 A2985 RMK SC6SC1 SLP110

CYQB;2008-12-02 21:00;CYQB 022100Z 25010KT 10SM -SHSN BKN027 BKN050 02/M01 A2988 RMK SC6SC2 SLP120

CYQB;2008-12-02 22:00;CYQB 022200Z 24015G21KT 10SM -SHSN OVC023 01/M02 A2991 RMK SC8 SLP130

CYQB;2008-12-02 22:33;CYQB 022233Z 27011G16KT 12SM BKN022 OVC050 01/ RMK SC6SC2

CYQB;2008-12-02 23:00;CYQB 022300Z 26009KT 12SM BKN023 OVC030 01/M01 A2994 RMK SC6SC2 SLP141

CYQB;2008-12-02 23:11;CYQB 022311Z 25007KT 10SM -SHSN FEW018 BKN022 OVC033 00/ RMK SC2SC4SC2

CYQB;2008-12-03 00:00;CYQB 030000Z 24016KT 10SM -SHSN SCT018 OVC025 01/M02 A2996 RMK SC3SC5 SLP148

CYQB;2008-12-03 00:39;CYQB 030039Z 24014G20KT 10SM SCT018 OVC022 01/ RMK SC3SC5

CYQB;2008-12-03 01:00;CYQB 030100Z 26011KT 15SM FEW018 BKN025 OVC040 00/M03 A2998 RMK SC2SC5SC2 SLP155

CYQB;2008-12-03 02:00;CYQB 030200Z 27011G16KT 15SM SCT018 OVC033 M00/M04 A3001 RMK SC3SC5 SLP167

CYQB;2008-12-03 03:00;CYQB 030300Z 26018KT 15SM OVC029 M01/M05 A3004 RMK SC8 SLP175

CYQB;2008-12-03 04:00;CYQB 030400Z 27018KT 15SM BKN030 M01/M06 A3006 RMK SC7 SLP182

CYQB;2008-12-03 05:00;CYQB 030500Z 27009KT 15SM BKN031 M01/M06 A3006 RMK SC7 SLP184

CYQB;2008-12-03 06:00;CYQB 030600Z 26004KT 15SM FEW040 M02/M07 A3006 RMK SC2 SLP182

CYQB;2008-12-03 07:00;CYQB 030700Z 00000KT 15SM SCT030 BKN047 M02/M07 A3007 RMK SC3SC4 SLP185

CYQB;2008-12-03 08:00;CYQB 030800Z 25003KT 15SM OVC043 M02/M06 A3007 RMK SC8 SLP185

CYQB;2008-12-03 09:00;CYQB 030900Z 29002KT 15SM OVC050 M03/M06 A3008 RMK SC8 SLP189

CYQB;2008-12-03 10:00;CYQB 031000Z 00000KT 10SM -SHSN OVC052 M02/M05 A3006 RMK SC8 SLP184

CYQB;2008-12-03 11:00;CYQB 031100Z 34002KT 15SM OVC043 M02/M05 A3007 RMK SC8 SLP187

CYQB;2008-12-03 12:00;CYQB 031200Z 36002KT 10SM VCSH SCT028 OVC040 M01/M04 A3007 RMK SC4SC4 SLP186

CYQB;2008-12-03 13:00;CYQB 031300Z 23003KT 15SM OVC041 M01/M04 A3007 RMK SC8 SLP186

CYQB;2008-12-03 14:00;CYQB 031400Z 23012G19KT 15SM OVC033 00/M04 A3007 RMK SC8 SLP187

CYQB;2008-12-03 15:00;CYQB 031500Z 24014G20KT 20SM OVC030 01/M04 A3007 RMK SC8 SLP187

CYQB;2008-12-03 16:00;CYQB 031600Z 24014G22KT 20SM OVC030 01/M04 A3006 RMK SC8 SLP183

CYQB;2008-12-03 17:00;CYQB 031700Z 24014G19KT 20SM OVC030 01/M04 A3005 RMK SC8 SLP179

CYQB;2008-12-03 18:00;CYQB 031800Z 25015KT 15SM OVC030 01/M04 A3005 RMK SC8 SLP179

CYQB;2008-12-03 19:00;CYQB 031900Z 24012G17KT 15SM OVC031 01/M04 A3005 RMK SC8 SLP180

CYQB;2008-12-03 20:00;CYQB 032000Z 23009KT 15SM OVC031 01/M04 A3005 RMK SC8 SLP180

CYQB;2008-12-03 21:00;CYQB 032100Z 24008KT 15SM BKN034 BKN080 01/M04 A3005 RMK SC7AC1 SLP178

CYQB;2008-12-03 22:00;CYQB 032200Z 21002KT 15SM BKN037 OVC100 01/M04 A3004 RMK SC7AC1 SLP177

CYQB;2008-12-03 23:00;CYQB 032300Z 00000KT 15SM BKN034 OVC120 00/M04 A3003 RMK SC5AC3 SLP173

CYQB;2008-12-04 00:00;CYQB 040000Z 00000KT 15SM OVC057 M00/M04 A3003 RMK SC8 SLP171

CYQB;2008-12-04 01:00;CYQB 040100Z 00000KT 15SM OVC061 M00/M04 A3001 RMK SC8 SLP167

CYQB;2008-12-04 02:00;CYQB 040200Z 00000KT 15SM BKN050 OVC095 M00/M03 A2999 RMK SC6AC2 SLP159

CYQB;2008-12-04 03:00;CYQB 040300Z 00000KT 15SM FEW045 BKN100 OVC120 M01/M03 A2996 RMK SC2AC2AC3 SLP150

CYQB;2008-12-04 04:00;CYQB 040400Z 00000KT 15SM FEW045 BKN100 M01/M03 A2994 RMK SC2AC6 SLP144

CYQB;2008-12-04 05:00;CYQB 040500Z 36003KT 15SM FEW100 FEW150 SCT210 M01/M04 A2992 RMK AC1AC2CI2 SLP137

CYQB;2008-12-04 06:00;CYQB 040600Z 02002KT 15SM FEW090 SCT160 SCT210 M01/M04 A2990 RMK AC1AC3CI1 SLP128

CYQB;2008-12-04 07:00;CYQB 040700Z 33002KT 15SM BKN070 OVC100 M01/M04 A2989 RMK AC6AC2 SLP126

CYQB;2008-12-04 08:00;CYQB 040800Z 01002KT 15SM BKN060 OVC080 M00/M04 A2988 RMK SC6AC2 SLP121

CYQB;2008-12-04 08:38;CYQB 040838Z 00000KT 15SM -SN FEW040 BKN060 OVC090 M01/ RMK SC1SC6AC2

CYQB;2008-12-04 09:00;CYQB 040900Z 24003KT 15SM -SN SCT035 BKN060 OVC090 M01/M04 A2986 RMK SC3SC3AC2 SLP117

CYQB;2008-12-04 09:23;CYQB 040923Z 23005KT 3SM -SN OVC025 M01/ RMK SN6SC2

CYQB;2008-12-04 10:00;CYQB 041000Z 21002KT 1SM R06/P6000FT/U -SN OVC014 M01/M02 A2984 RMK SN2SC6 SLP108

CYQB;2008-12-04 10:34;CYQB 041034Z 00000KT 1SM R06/P6000FT/D -SN OVC007 01/ RMK SN2SC6

CYQB;2008-12-04 10:58;CYQB 041058Z CCA 00000KT 1SM R06/P6000FT/D -SN OVC007 M01/ RMK SN2SC6

CYQB;2008-12-04 11:00;CYQB 041100Z 02003KT 3/4SM R06/P6000FT/U -SN VV005 M01/M02 A2981 RMK SN8 /S01/ SLP097

CYQB;2008-12-04 11:12;CYQB 041112Z 03004KT 1SM R06/P6000FT/N -SN OVC024 M01/ RMK SN2SC6

CYQB;2008-12-04 11:19;CYQB 041119Z 01004KT 1SM R06/P6000FT/N -SN BKN005 OVC023 M01/ RMK SN2SF5SC2

CYQB;2008-12-04 12:00;CYQB 041200Z 04003KT 1SM R06/P6000FT/N -SN SCT015 OVC025 M01/M02 A2978 RMK SN2SC2SC4 SLP090

CYQB;2008-12-04 12:26;CYQB 041226Z 07002KT 3/4SM R06/P6000FT/N -SN OVC021 M01/ RMK SN6SC2

CYQB;2008-12-04 12:38;CYQB 041238Z 00000KT 3/4SM R06/P6000FT/D -SN VV006 M01/ RMK SN8

CYQB;2008-12-04 12:48;CYQB 041248Z 00000KT 1/2SM R06/5500FT/D SN VV006 M01/ RMK SN8

CYQB;2008-12-04 13:00;CYQB 041300Z 00000KT 3/4SM R06/5000FT/D -SN VV010 M01/M02 A2977 RMK SN8 /S01/ SLP086

CYQB;2008-12-04 13:40;CYQB 041340Z 00000KT 3/4SM R06/5000FT/N -SN VV006 M00/ RMK SN8

CYQB;2008-12-04 14:00;CYQB 041400Z 00000KT 3/4SM R06/5500FT/D -SN VV006 M00/M01 A2976 RMK SN8 S02 SLP081

CYQB;2008-12-04 14:45;CYQB 041445Z 00000KT 3/4SM R06/P6000FT/U -SN VV005 00/ RMK SN8 CIG VRB 4-6

CYQB;2008-12-04 15:00;CYQB 041500Z 00000KT 3/4SM R06/6000FT/N -SN VV005 00/M00 A2975 RMK SN8 CIG VRB 4-6 SLP079

CYQB;2008-12-04 16:00;CYQB 041600Z 27002KT 1 1/2SM -RASN BR OVC007 01/00 A2974 RMK SN4ST4 /S03/ SLP075

CYQB;2008-12-04 16:30;CYQB 041630Z 29003KT 1 1/2SM -RA BR FEW007 OVC011 01/ RMK ST2SC6

CYQB;2008-12-04 17:00;CYQB 041700Z 27006KT 2 1/2SM -RA BR FEW008 OVC010 01/00 A2973 RMK ST2SC6 CIG VRB 8-12 SLP071

CYQB;2008-12-04 17:25;CYQB 041725Z 26007KT 2 1/2SM -RA BR OVC008 01/ RMK SC8

CYQB;2008-12-04 18:00;CYQB 041800Z 26008KT 2 1/2SM -RA BR OVC008 02/01 A2973 RMK SC8 SLP070

CYQB;2008-12-04 18:41;CYQB 041841Z 25014KT 2 1/2SM -RA BR SCT008 OVC010 02/ RMK ST3SC5 CIG VRB 8-12 PCN VRY LGT

CYQB;2008-12-04 19:00;CYQB 041900Z CCA 25016G21KT 3SM BR SCT008 OVC010 02/01 A2975 RMK ST3SC5 CIG VRB 8-12 VIS HIER S-SW SLP076

CYQB;2008-12-04 20:00;CYQB 042000Z 25014G21KT 3SM -RA BR FEW008 OVC011 03/01 A2976 RMK ST2SC6 VIS HIER S-SW SLP082

CYQB;2008-12-04 21:00;CYQB 042100Z CCA 25015KT 3SM -RA BR FEW007 OVC014 02/01 A2978 RMK ST1SC7 VIS HIER S-SW SLP089

CYQB;2008-12-04 21:49;CYQB 042149Z 26012KT 10SM SCT014 BKN059 02/ RMK SC4SC3

CYQB;2008-12-04 22:00;CYQB 042200Z 25013KT 10SM FEW014 BKN064 02/00 A2981 RMK SC2SC5 SLP098

CYQB;2008-12-04 23:00;CYQB 042300Z 27015KT 15SM FEW025 FEW064 01/M01 A2984 RMK SC1SC2 SLP107

CYQB;2008-12-05 00:00;CYQB 050000Z 27014G22KT 15SM BKN030 BKN090 M01/M04 A2989 RMK SC6AC1 SLP127

CYQB;2008-12-05 01:00;CYQB 050100Z 30019G26KT 15SM SCT027 M03/M08 A2994 RMK SC3 SLP143

CYQB;2008-12-05 02:00;CYQB 050200Z 26017KT 15SM FEW027 M04/M09 A2997 RMK SC2 SLP153

CYQB;2008-12-05 03:00;CYQB 050300Z 26013KT 15SM FEW030 M06/M10 A3000 RMK SC2 SLP165

CYQB;2008-12-05 04:00;CYQB 050400Z 27010KT 15SM FEW030 SCT240 M06/M10 A3001 RMK SC1CI0 SLP168

CYQB;2008-12-05 05:00;CYQB 050500Z 29011KT 15SM FEW035 BKN240 M07/M11 A3003 RMK SC2CI0 SLP172

CYQB;2008-12-05 06:00;CYQB 050600Z 31010KT 15SM BKN032 M07/M12 A3004 RMK SC6 SLP176

CYQB;2008-12-05 07:00;CYQB 050700Z 31009KT 15SM BKN032 M07/M11 A3006 RMK SC6 SLP182

CYQB;2008-12-05 08:00;CYQB 050800Z 32010KT 15SM BKN032 M08/M12 A3004 RMK SC6 SLP178

CYQB;2008-12-05 09:00;CYQB 050900Z 29010KT 15SM BKN028 M09/M13 A3005 RMK SC6 SLP181

CYQB;2008-12-05 10:00;CYQB 051000Z 28009KT 15SM BKN032 M10/M15 A3008 RMK SC5 SLP189

CYQB;2008-12-05 11:00;CYQB 051100Z 28006KT 15SM BKN035 M10/M14 A3008 RMK SC6 SLP192

CYQB;2008-12-05 12:00;CYQB 051200Z 26009KT 20SM BKN032 M09/M14 A3010 RMK SC7 SLP199

CYQB;2008-12-05 13:00;CYQB 051300Z 27009KT 25SM BKN032 M09/M13 A3012 RMK SC7 SLP205

CYQB;2008-12-05 14:00;CYQB 051400Z 25012KT 25SM FEW032 M09/M13 A3013 RMK SC2 SLP207

CYQB;2008-12-05 15:00;CYQB 051500Z 25012KT 25SM FEW032 M08/M13 A3013 RMK SC2 SLP209

CYQB;2008-12-05 16:00;CYQB 051600Z 24013KT 25SM FEW030 M08/M12 A3012 RMK SC1 SLP206

CYQB;2008-12-05 17:00;CYQB 051700Z 26009G15KT 25SM FEW030 M07/M13 A3012 RMK CU2 SLP205

CYQB;2008-12-05 18:00;CYQB 051800Z 25010KT 25SM SCT030 M07/M13 A3011 RMK SC2 SLP202

CYQB;2008-12-05 19:00;CYQB 051900Z 24010KT 25SM FEW032 M06/M14 A3010 RMK CF2 SLP198

CYQB;2008-12-05 20:00;CYQB 052000Z 24010KT 25SM FEW028 M07/M14 A3010 RMK CF1 SLP199

CYQB;2008-12-05 21:00;CYQB 052100Z 25005KT 25SM FEW025 FEW080 M08/M14 A3011 RMK CF1AC1 SLP200

CYQB;2008-12-05 22:00;CYQB 052200Z 28002KT 25SM FEW080 M09/M14 A3011 RMK AC1 SLP200

CYQB;2008-12-05 23:00;CYQB 052300Z 00000KT 15SM SKC M10/M14 A3010 RMK SLP198

CYQB;2008-12-06 00:00;CYQB 060000Z 03002KT 15SM SKC M09/M14 A3010 RMK SLP199

CYQB;2008-12-06 01:00;CYQB 060100Z 36004KT 15SM SKC M11/M15 A3011 RMK SLP201

CYQB;2008-12-06 02:00;CYQB 060200Z 35003KT 15SM SKC M11/M15 A3011 RMK SLP200

CYQB;2008-12-06 03:00;CYQB 060300Z 01002KT 15SM FEW025 BKN075 M12/M15 A3010 RMK SC1AC4 SLP199

CYQB;2008-12-06 04:00;CYQB 060400Z 02005KT 15SM SCT024 BKN075 M12/M15 A3010 RMK SC3AC3 SLP200

CYQB;2008-12-06 05:00;CYQB 060500Z 01004KT 15SM SCT020 BKN070 M12/M15 A3009 RMK SC4AC1 SLP197

CYQB;2008-12-06 06:00;CYQB 060600Z 03002KT 15SM SCT025 BKN040 BKN070 M12/M15 A3009 RMK SC3SC2AC2 SLP196

CYQB;2008-12-06 07:00;CYQB 060700Z 35003KT 15SM BKN028 M13/M16 A3010 RMK SC6 SLP198

CYQB;2008-12-06 08:00;CYQB 060800Z 04003KT 15SM BKN012 OVC025 M12/M15 A3011 RMK SF5SC3 SLP201

CYQB;2008-12-06 09:00;CYQB 060900Z CCA 03002KT 15SM -SN OVC013 M11/M13 A3011 RMK SF8 SLP202

CYQB;2008-12-06 10:00;CYQB 061000Z 03003KT 15SM -SN FEW008 BKN013 OVC040 M10/M12 A3011 RMK SF1SF6SC1 SLP200

CYQB;2008-12-06 11:00;CYQB 061100Z 07005KT 15SM FEW008 FEW013 BKN043 M09/M12 A3011 RMK SF1SF2SC5 SLP201

CYQB;2008-12-06 12:00;CYQB 061200Z 02004KT 15SM FEW008 FEW014 BKN044 OVC200 M09/M11 A3010 RMK SF1SC2SC5CI0 VIS LWR NE QUAD SLP199

CYQB;2008-12-06 13:00;CYQB 061300Z 36002KT 15SM FEW015 SCT045 BKN051 OVC200 M09/M11 A3011 RMK SC2SC2SC2CI0 SLP202

CYQB;2008-12-06 14:00;CYQB 061400Z 04003KT 12SM -SHSN FEW020 BKN031 BKN080 M08/M10 A3011 RMK SC1SC6AC1 VIS LWR E SLP202

CYQB;2008-12-06 15:00;CYQB 061500Z 00000KT 15SM FEW030 FEW150 OVC200 M05/M08 A3011 RMK SC1AC1CI2 VIS LWR E SLP200

CYQB;2008-12-06 16:00;CYQB 061600Z 00000KT 15SM FEW020 FEW030 OVC170 M05/M09 A3007 RMK SC1SC1AS3 SLP188

CYQB;2008-12-06 17:00;CYQB 061700Z 36003KT 15SM FEW050 FEW150 OVC200 M05/M09 A3003 RMK SC1AC1CS2 SLP176

CYQB;2008-12-06 18:00;CYQB 061800Z 09002KT 15SM FEW015 FEW050 SCT150 OVC200 M04/M08 A3001 RMK SC1SC1AS3CI0 SLP167

CYQB;2008-12-06 19:00;CYQB 061900Z 07005KT 15SM FEW015 BKN110 OVC200 M03/M08 A2998 RMK SC1AS5CI0 SLP159

CYQB;2008-12-06 20:00;CYQB 062000Z 06005KT 15SM FEW015 BKN140 BKN210 M03/M08 A2997 RMK SC1AS4CI1 SLP155

CYQB;2008-12-06 21:00;CYQB 062100Z 17006KT 15SM FEW020 BKN210 M03/M11 A2997 RMK SC1CI4 SLP152

CYQB;2008-12-06 22:00;CYQB 062200Z 13003KT 15SM BKN052 BKN120 BKN210 M04/M11 A2996 RMK SC5AC2CI1 SLP150

CYQB;2008-12-06 23:00;CYQB 062300Z 13004KT 15SM BKN057 M04/M10 A2994 RMK SC7 SLP145

CYQB;2008-12-07 00:00;CYQB 070000Z 12004KT 15SM BKN057 M04/M10 A2994 RMK SC7 SLP142

CYQB;2008-12-07 01:00;CYQB 070100Z 08003KT 15SM BKN056 BKN110 M04/M10 A2991 RMK SC5AC1 SLP133

CYQB;2008-12-07 02:00;CYQB 070200Z 09006KT 15SM OVC064 M04/M10 A2988 RMK SC7 SLP123

CYQB;2008-12-07 03:00;CYQB 070300Z 08003KT 15SM BKN055 OVC075 M04/M10 A2985 RMK SC6AC2 SLP113

CYQB;2008-12-07 04:00;CYQB 070400Z 12003KT 15SM OVC041 M04/M10 A2983 RMK SC8 SLP107

CYQB;2008-12-07 05:00;CYQB 070500Z 15005KT 15SM OVC041 M03/M10 A2981 RMK SC8 SLP100

CYQB;2008-12-07 06:00;CYQB 070600Z 17005KT 15SM OVC035 M03/M09 A2979 RMK SC8 SLP092

CYQB;2008-12-07 06:40;CYQB 070640Z 17003KT 1 3/4SM -SN VV011 M04/ RMK SN8

CYQB;2008-12-07 07:00;CYQB 070700Z 14005KT 3SM -SN FEW008 VV012 M04/M06 A2978 RMK SF1SN7 SLP087

CYQB;2008-12-07 08:00;CYQB 070800Z 10004KT 2 1/2SM -SN FEW008 VV009 M04/M06 A2975 RMK SF1SN7 SLP078

CYQB;2008-12-07 08:18;CYQB 070818Z 11003KT 5SM -SN FEW010 OVC015 M04/ RMK SF2SC6

CYQB;2008-12-07 08:42;CYQB 070842Z 11003KT 3/4SM R06/P6000FT/D -SN OVC012 M04/ RMK SN5SC3

CYQB;2008-12-07 09:00;CYQB 070900Z 09002KT 5SM -SN SCT012 OVC033 M04/M06 A2973 RMK SC4SC4 SLP071

CYQB;2008-12-07 10:00;CYQB 071000Z 04004KT 10SM FEW010 OVC026 M04/M06 A2970 RMK SC2SC6 INTMT -SN SLP060

CYQB;2008-12-07 11:00;CYQB 071100Z 05005KT 3SM -SN BKN019 OVC035 M04/M06 A2968 RMK SC6SC2 SLP054

CYQB;2008-12-07 12:00;CYQB 071200Z 07006KT 3SM -SN BKN019 OVC029 M04/M06 A2967 RMK SC6SC2 SLP051

CYQB;2008-12-07 12:37;CYQB 071237Z 07006KT 2SM -SN FEW007 BKN012 OVC022 M04/ RMK SF2SC4SC2

CYQB;2008-12-07 13:00;CYQB 071300Z 07004KT 1 1/2SM -SN FEW007 BKN014 OVC025 M04/M05 A2966 RMK SF2SC5SC1 /S02/ SLP049

CYQB;2008-12-07 14:00;CYQB 071400Z 06004KT 1 1/2SM -SN FEW007 BKN012 OVC029 M04/M05 A2964 RMK SF2SC4SC2 SLP042

CYQB;2008-12-07 15:00;CYQB 071500Z 05005KT 2SM -SN SCT009 BKN013 OVC029 M04/M05 A2962 RMK SF4SC3SC1 /S03/ SLP034

CYQB;2008-12-07 16:00;CYQB 071600Z 00000KT 3SM -SN BKN011 OVC028 M03/M04 A2959 RMK SC6SC2 SLP026

CYQB;2008-12-07 17:00;CYQB 071700Z 00000KT 3SM -SN BKN013 OVC035 M03/M04 A2957 RMK SC6SC2 SLP019

CYQB;2008-12-07 17:37;CYQB 071737Z 00000KT 5SM -SN FEW008 BKN018 OVC030 M03/ RMK SF2SC6SC1

CYQB;2008-12-07 18:00;CYQB 071800Z 00000KT 6SM -SN FEW008 BKN021 OVC033 M03/M05 A2955 RMK SF2SC5SC2 SLP010

CYQB;2008-12-07 19:00;CYQB 071900Z 26004KT 15SM FEW015 SCT030 BKN045 M04/M06 A2954 RMK CF2SC2SC1 SLP008

CYQB;2008-12-07 20:00;CYQB 072000Z 27006KT 15SM FEW020 FEW030 FEW100 M05/M07 A2955 RMK CF1CU1AC0 SLP009

CYQB;2008-12-07 21:00;CYQB 072100Z 25007KT 15SM FEW020 SCT050 M04/M06 A2956 RMK SC1SC3 SHSN N QUAD VIS 5 SLP015

CYQB;2008-12-07 22:00;CYQB 072200Z 27007KT 15SM FEW020 BKN050 M07/M08 A2956 RMK SC2SC2 SLP016

CYQB;2008-12-07 23:00;CYQB 072300Z 31009KT 15SM SCT040 M04/M07 A2958 RMK SC3 SLP021

CYQB;2008-12-08 00:00;CYQB 080000Z 27011KT 15SM FEW030 OVC100 M05/M09 A2959 RMK SC2AC6 SLP025

CYQB;2008-12-08 01:00;CYQB 080100Z 27019KT 15SM DRSN FEW030 BKN080 M06/M09 A2959 RMK SC2AC6 SLP026

CYQB;2008-12-08 02:00;CYQB 080200Z 32020G29KT 15SM DRSN BKN080 M08/M12 A2961 RMK AC3 SLP032

CYQB;2008-12-08 03:00;CYQB 080300Z 30016G26KT 15SM DRSN SCT080 M10/M15 A2967 RMK AC2 SLP052

CYQB;2008-12-08 04:00;CYQB 080400Z 29015G21KT 15SM DRSN BKN068 M12/M17 A2973 RMK AC6 PRESRR SLP074

CYQB;2008-12-08 05:00;CYQB 080500Z 29010G17KT 15SM DRSN OVC073 M13/M19 A2979 RMK AC7 PRESRR SLP094

CYQB;2008-12-08 06:00;CYQB 080600Z 27017G24KT 15SM DRSN SCT035 BKN070 M15/M21 A2984 RMK SC3AC2 SLP112

CYQB;2008-12-08 07:00;CYQB 080700Z 26014G20KT 15SM DRSN FEW030 M17/M27 A2989 RMK SC2 SLP129

CYQB;2008-12-08 08:00;CYQB 080800Z 26021G26KT 15SM BKN220 M18/M25 A2994 RMK CI2 SLP144

CYQB;2008-12-08 09:00;CYQB 080900Z 27014KT 15SM FEW220 M19/M26 A2999 RMK CI2 SLP161

CYQB;2008-12-08 10:00;CYQB 081000Z 29006KT 15SM FEW220 M18/M25 A3002 RMK CI1 SLP173

CYQB;2008-12-08 11:00;CYQB 081100Z 26017KT 15SM FEW220 M19/M27 A3006 RMK CI1 SLP185

CYQB;2008-12-08 12:00;CYQB 081200Z 25017KT 15SM FEW015 M20/M26 A3009 RMK SC1 SLP197

CYQB;2008-12-08 13:00;CYQB 081300Z 26017KT 20SM FEW020 M20/M26 A3014 RMK SC1 SLP211

CYQB;2008-12-08 14:00;CYQB 081400Z 26020G25KT 20SM FEW020 M19/M25 A3017 RMK SC1 SLP221

CYQB;2008-12-08 15:00;CYQB 081500Z 25018KT 25SM FEW025 M18/M24 A3019 RMK SC1 SLP232

CYQB;2008-12-08 16:00;CYQB 081600Z 26018KT 30SM FEW025 FEW100 M16/M23 A3022 RMK SC1AC1 SLP239

CYQB;2008-12-08 17:00;CYQB 081700Z 26016G21KT 30SM SCT025 M15/M22 A3022 RMK SC2 SLP241

CYQB;2008-12-08 18:00;CYQB 081800Z 28011G17KT 30SM SCT028 M13/M20 A3024 RMK SC4 SLP248

CYQB;2008-12-08 19:00;CYQB 081900Z 29013KT 30SM SCT030 M13/M20 A3026 RMK SC3 SLP254

CYQB;2008-12-08 20:00;CYQB 082000Z 26013KT 30SM BKN030 M13/M20 A3029 RMK SC6 SLP265

CYQB;2008-12-08 21:00;CYQB 082100Z 26011G17KT 30SM SCT030 M14/M21 A3032 RMK SC3 SLP275

CYQB;2008-12-08 22:00;CYQB 082200Z 25007KT 15SM FEW030 M15/M21 A3035 RMK SC2 SLP285

CYQB;2008-12-08 23:00;CYQB 082300Z 25008KT 15SM FEW030 M15/M21 A3038 RMK SC2 SLP294

CYQB;2008-12-09 00:00;CYQB 090000Z 25007KT 15SM FEW030 M16/M22 A3039 RMK SC1 SLP297

CYQB;2008-12-09 01:00;CYQB 090100Z 26007KT 15SM FEW030 FEW200 M17/M22 A3041 RMK SC1CI1 SLP304

CYQB;2008-12-09 02:00;CYQB 090200Z 26005KT 15SM FEW030 SCT200 M17/M23 A3042 RMK SC1CI2 SLP309

CYQB;2008-12-09 03:00;CYQB 090300Z 24004KT 15SM FEW030 FEW200 M18/M23 A3044 RMK SC1CI1 SLP315

CYQB;2008-12-09 04:00;CYQB 090400Z 25004KT 15SM FEW200 M18/M23 A3044 RMK CI1 SLP318

CYQB;2008-12-09 05:00;CYQB 090500Z 27002KT 15SM FEW200 M17/M22 A3045 RMK CI0 SLP320

CYQB;2008-12-09 06:00;CYQB 090600Z 31002KT 15SM FEW020 FEW200 M19/M24 A3046 RMK SC1CI1 SLP323

CYQB;2008-12-09 07:00;CYQB 090700Z 00000KT 15SM FEW220 M18/M23 A3046 RMK CI0 SLP322

CYQB;2008-12-09 08:00;CYQB 090800Z 03003KT 15SM OVC210 M19/M24 A3046 RMK CI6 SLP322

CYQB;2008-12-09 09:00;CYQB 090900Z 02006KT 15SM OVC210 M19/M24 A3044 RMK CS8 SLP317

CYQB;2008-12-09 10:00;CYQB 091000Z 01005KT 15SM OVC180 M19/M23 A3042 RMK AS8 SLP308

CYQB;2008-12-09 11:00;CYQB 091100Z 02003KT 15SM OVC150 M17/M22 A3040 RMK AS8 SLP301

CYQB;2008-12-09 12:00;CYQB 091200Z 02003KT 20SM FEW023 BKN088 OVC150 M17/M21 A3038 RMK SC1AC5AS2 SLP296

CYQB;2008-12-09 13:00;CYQB 091300Z 01005KT 20SM FEW023 BKN048 OVC090 M17/M21 A3037 RMK SC1SC6AC2 SLP291

CYQB;2008-12-09 13:31;CYQB 091331Z 02005KT 15SM -SN BKN029 OVC085 M16/ RMK SC5AC3

CYQB;2008-12-09 14:00;CYQB 091400Z 01005KT 3SM -SN BR BKN015 OVC030 M15/M20 A3033 RMK SC6SC2 SLP280

CYQB;2008-12-09 15:00;CYQB 091500Z 03006KT 2SM -SN OVC026 M14/M17 A3030 RMK SN3SC5 SLP269

CYQB;2008-12-09 15:45;CYQB 091545Z 06008KT 1 1/4SM -SN OVC018 M13/ RMK SN5SC3

CYQB;2008-12-09 16:00;CYQB 091600Z 05008KT 1SM R06/P6000FT/D -SN VV007 M13/M15 A3024 RMK SN8 SLP249

CYQB;2008-12-09 17:00;CYQB 091700Z 04003KT 3/4SM R06/5500FT/N -SN VV007 M12/M14 A3020 RMK SN8 SLP236

CYQB;2008-12-09 18:00;CYQB 091800Z 04004KT 1/2SM R06/4500FT/D SN VV005 M11/M13 A3018 RMK SN8 /S03/ SLP227

CYQB;2008-12-09 18:20;CYQB 091820Z 05005KT 1SM R06/P6000FT/U -SN VV009 M11/ RMK SN8 RESN

CYQB;2008-12-09 18:29;CYQB 091829Z 05004KT 3/4SM R06/P6000FT/D -SN VV008 M11/ RMK SN8 RESN

CYQB;2008-12-09 19:00;CYQB 091900Z 06004KT 3/4SM R06/P6000FT/N -SN VV007 M10/M12 A3014 RMK SN8 RESN /S01/ SLP213

CYQB;2008-12-09 19:23;CYQB 091923Z 04005KT 1/2SM R06/4000FT/D SN VV004 M10/ RMK SN8

CYQB;2008-12-09 20:00;CYQB 092000Z CCA 04005KT 1/2SM R06/6000FT/U SN VV006 M10/M11 A3014 RMK SN8 /S03/ SLP214

CYQB;2008-12-09 21:00;CYQB 092100Z 04007KT 1/2SM R06/P6000FT/U SN VV008 M09/M11 A3011 RMK SN8 /S05/ SLP204

CYQB;2008-12-09 22:00;CYQB 092200Z CCA 04006KT 3/4SM R06/P6000FT/D -SN VV007 M09/M10 A3010 RMK SN8 RESN /S07/ SLP200

CYQB;2008-12-09 23:00;CYQB 092300Z 02004KT 3/4SM R06/P6000FT/D -SN VV007 M09/M10 A3009 RMK SN8 /S09/ SLP197

CYQB;2008-12-09 23:19;CYQB 092319Z 01005KT 1SM R06/P6000FT/U -SN VV011 M09/ RMK SN8

CYQB;2008-12-09 23:25;CYQB 092325Z 01005KT 3/4SM R06/P6000FT/D -SN VV007 M09/ RMK SN8

CYQB;2008-12-10 00:00;CYQB 100000Z 03005KT 3/4SM R06/P6000FT/U -SN VV006 M09/M10 A3007 RMK SN8 /S11/ SLP190

CYQB;2008-12-10 01:00;CYQB 100100Z CCA 03005KT 5/8SM R06/P6000FT/U -SN VV007 M08/M10 A3004 RMK SN8 /S03/ SLP179

CYQB;2008-12-10 01:56;CYQB 100156Z 06009KT 1SM R06/P6000FT/N -SN OVC020 M08/ RMK SN7SC1

CYQB;2008-12-10 02:00;CYQB 100200Z 05007KT 1SM R06/P6000FT/U -SN OVC020 M07/M09 A3001 RMK SN7SC1 /S05/ SLP168

CYQB;2008-12-10 03:00;CYQB 100300Z 07005KT 1 1/4SM -SN OVC022 M07/M08 A2999 RMK SN6SC2 SLP160

CYQB;2008-12-10 04:00;CYQB 100400Z 05007KT 1 1/2SM -SN SCT010 OVC023 M07/M08 A2996 RMK SN2SF2SC4 SLP150

CYQB;2008-12-10 04:42;CYQB 100442Z 06007KT 1SM R06/P6000FT/U -SN OVC028 M07/ RMK SN6SC2

CYQB;2008-12-10 05:00;CYQB 100500Z 06009KT 1SM R06/P6000FT/D -SN OVC023 M06/M08 A2991 RMK SN6SC2 SLP135

CYQB;2008-12-10 06:00;CYQB 100600Z 06010KT 1SM R06/P6000FT/U -SN OVC023 M06/M07 A2988 RMK SN6SC2 /S07/ SLP123

CYQB;2008-12-10 07:00;CYQB 100700Z 06008KT 1SM R06/P6000FT/U -SN OVC024 M06/M07 A2985 RMK SN6SC2 SLP115

CYQB;2008-12-10 08:00;CYQB 100800Z 07010KT 1SM R06/P6000FT/D -SN OVC020 M06/M07 A2982 RMK SN6SC2 /S02/ VIS VRB 3/4-11/4 SLP105

CYQB;2008-12-10 09:00;CYQB 100900Z 07007KT 1SM R06/P6000FT/U -SN OVC020 M05/M06 A2979 RMK SN6SC2 /S03/ SLP094

CYQB;2008-12-10 10:00;CYQB 101000Z 07004KT 1SM R06/P6000FT/U -SN OVC016 M05/M06 A2978 RMK SN6SC2 SLP090

CYQB;2008-12-10 10:31;CYQB 101031Z 07008KT 3/4SM R06/P6000FT/D -SN VV006 M05/ RMK SN8 /S06/

CYQB;2008-12-10 11:00;CYQB 101100Z 07011G16KT 3/4SM R06/P6000FT/U -SN VV006 M05/M06 A2975 RMK SN8 /S07/ SLP079

CYQB;2008-12-10 12:00;CYQB 101200Z 07008KT 1/2SM R06/P6000FT/D SN VV003 M05/M06 A2975 RMK SN8 /S08/ SLP078

CYQB;2008-12-10 13:00;CYQB 101300Z 06007KT 3/8SM R06/3500FT/D SN VV003 M05/M06 A2976 RMK SN8 /S02/ SLP084

CYQB;2008-12-10 13:31;CYQB 101331Z 07007KT 1/4SM R06/3500FT/N +SN VV003 M05/ RMK SN8

CYQB;2008-12-10 14:00;CYQB 101400Z 00000KT 1/4SM R06/4500FT/N +SN VV003 M05/M05 A2981 RMK SN8 /S07/ SLP100

CYQB;2008-12-10 14:23;CYQB 101423Z 24005KT 1/2SM R06/P6000FT/U SN VV009 M05/ RESN RMK SN8

CYQB;2008-12-10 15:00;CYQB 101500Z 24005KT 1/2SM R06/5500FT/D SN VV005 M05/M06 A2985 RESN RMK SN8 SLP113

CYQB;2008-12-10 15:16;CYQB 101516Z 23005KT 1/2SM R06/P6000FT/U SN VV010 M05/ RMK SN8

CYQB;2008-12-10 15:27;CYQB 101527Z 23004KT 1/2SM R06/P6000FT/D SN VV007 M04/ RMK SN8

CYQB;2008-12-10 15:38;CYQB 101538Z 25004KT 1SM R06/P6000FT/U -SN OVC015 M04/ RESN RMK SN3SF5

CYQB;2008-12-10 16:00;CYQB 101600Z 26004KT 2SM -SN OVC019 M04/M05 A2987 RESN RMK SF8 /S12/ SLP121

CYQB;2008-12-10 17:00;CYQB 101700Z 22009KT 3SM -SN OVC008 M04/M06 A2990 RMK SF8 /S13/ SLP129

CYQB;2008-12-10 17:27;CYQB 101727Z 22005KT 4SM -SN OVC013 M05/ RMK SF8

CYQB;2008-12-10 17:48;CYQB 101748Z 23007KT 6SM OVC014 M05/ RMK SF8

CYQB;2008-12-10 18:00;CYQB 101800Z 23009KT 10SM OVC015 M05/M06 A2991 RMK SF8 SLP132

CYQB;2008-12-10 19:00;CYQB 101900Z 23010KT 20SM OVC016 M05/M07 A2993 RMK SC8 SLP140

CYQB;2008-12-10 20:00;CYQB 102000Z 24010KT 20SM BKN020 BKN120 M05/M07 A2997 RMK SC6AC1 SLP153

CYQB;2008-12-10 21:00;CYQB 102100Z 27006KT 30SM FEW030 FEW120 SCT200 M07/M09 A3001 RMK SC1AC2CI1 SLP168

CYQB;2008-12-10 22:00;CYQB 102200Z 33011KT 15SM FEW080 M07/M11 A3006 RMK AC2 SLP182

CYQB;2008-12-10 23:00;CYQB 102300Z 26006KT 15SM FEW080 M09/M14 A3008 RMK AC1 SLP192

CYQB;2008-12-11 00:00;CYQB 110000Z 29008KT 15SM FEW080 M11/M15 A3012 RMK AC0 SLP204

CYQB;2008-12-11 01:00;CYQB 110100Z 30009KT 15SM SKC M10/M15 A3015 RMK SLP214

CYQB;2008-12-11 02:00;CYQB 110200Z 33006KT 15SM SKC M11/M15 A3016 RMK SLP219

CYQB;2008-12-11 03:00;CYQB 110300Z 31004KT 15SM FEW030 M13/M17 A3018 RMK SC1 SLP225

CYQB;2008-12-11 04:00;CYQB 110400Z 34008KT 15SM SCT070 M12/M17 A3018 RMK AC3 SLP225

CYQB;2008-12-11 05:00;CYQB 110500Z 33005KT 15SM BKN015 M12/M17 A3019 RMK SC6 SLP230

CYQB;2008-12-11 06:00;CYQB 110600Z 31005KT 15SM -SN BKN029 M13/M17 A3022 RMK SC6 SLP241

CYQB;2008-12-11 06:26;CYQB 110626Z 32003KT 15SM BKN030 M14/ RMK SC3

CYQB;2008-12-11 07:00;CYQB 110700Z 36007KT 15SM FEW010 BKN030 M16/M18 A3022 RMK SC1SC3 SLP241

CYQB;2008-12-11 08:00;CYQB 110800Z 01004KT 15SM BKN010 BKN030 M14/M17 A3024 RMK SC6SC1 SLP247

CYQB;2008-12-11 09:00;CYQB 110900Z 03004KT 15SM BKN009 BKN030 M14/M18 A3026 RMK SC6SC2 SLP254

CYQB;2008-12-11 10:00;CYQB 111000Z 16002KT 12SM -SHSN BKN008 BKN021 M16/M18 A3027 RMK SC6SC1 SLP255

CYQB;2008-12-11 10:25;CYQB 111025Z 03002KT 8SM -SHSN SCT008 BKN017 OVC030 M16/ RMK SC4SC2SC2

CYQB;2008-12-11 11:00;CYQB 111100Z 03003KT 12SM -SHSN FEW014 BKN022 M16/M19 A3027 RMK SC2SC3 SLP255

CYQB;2008-12-11 12:00;CYQB 111200Z 01004KT 15SM FEW014 FEW028 SCT150 M17/M19 A3027 RMK CF1SC2AC1 SLP257

CYQB;2008-12-11 13:00;CYQB 111300Z 04003KT 20SM R06/4000VP6000FT/D FEW150 SCT230 M17/M19 A3027 RMK AC1CI2 SLP257

CYQB;2008-12-11 14:00;CYQB 111400Z 01004KT 30SM FEW008 FEW030 SCT180 M16/M18 A3027 RMK CF1SC1AC2 SLP256

CYQB;2008-12-11 15:00;CYQB 111500Z 36002KT 30SM FEW015 FEW030 SCT190 M14/M16 A3028 RMK CF1SC1CI2 SLP259

CYQB;2008-12-11 16:00;CYQB 111600Z 09011KT 30SM FEW015 FEW150 SCT190 M11/M14 A3026 RMK CU1AC2CI0 SLP253

CYQB;2008-12-11 17:00;CYQB 111700Z 07011KT 30SM FEW017 SCT150 BKN240 M10/M14 A3023 RMK CF1AC3CI2 SLP244

CYQB;2008-12-11 18:00;CYQB 111800Z 07013KT 30SM FEW015 SCT150 BKN240 M10/M13 A3020 RMK SC2AC2CI1 SLP234

CYQB;2008-12-11 19:00;CYQB 111900Z 07011G18KT 30SM FEW015 FEW160 BKN220 M10/M14 A3017 RMK CF1AC2CI2 SLP223

CYQB;2008-12-11 20:00;CYQB 112000Z 07009KT 15SM FEW160 OVC230 M10/M14 A3019 RMK AC2CI2 SLP230

CYQB;2008-12-11 21:00;CYQB 112100Z 07010KT 15SM FEW150 OVC210 M10/M14 A3016 RMK AC2CI3 SLP220

CYQB;2008-12-11 22:00;CYQB 112200Z 07012KT 15SM BKN210 M10/M13 A3015 RMK CI3 SLP215

CYQB;2008-12-11 23:00;CYQB 112300Z 07016KT 15SM FEW020 BKN210 M09/M13 A3012 RMK CF1CI2 SLP207

CYQB;2008-12-12 00:00;CYQB 120000Z 07012G17KT 15SM FEW020 BKN200 M09/M12 A3012 RMK CF1CI2 SLP206

CYQB;2008-12-12 01:00;CYQB 120100Z 07012G22KT 15SM DRSN FEW020 BKN200 M09/M12 A3010 RMK CF1CI2 SLP199

CYQB;2008-12-12 02:00;CYQB 120200Z 07013G19KT 15SM FEW020 BKN200 M09/M12 A3008 RMK CF1CI2 SLP192

CYQB;2008-12-12 03:00;CYQB 120300Z 08014G19KT 15SM FEW010 OVC140 M08/M12 A3005 RMK SC1AS5 SLP182

CYQB;2008-12-12 04:00;CYQB 120400Z 07017G24KT 15SM FEW010 OVC100 M08/M11 A3001 RMK SC1AS7 SLP169

CYQB;2008-12-12 05:00;CYQB 120500Z 07011G20KT 15SM FEW010 OVC092 M08/M11 A2998 RMK SC1AS7 SLP159

CYQB;2008-12-12 06:00;CYQB 120600Z 07018G24KT 15SM FEW010 OVC040 M08/M12 A2993 RMK SC1SC8 SLP142

CYQB;2008-12-12 06:13;CYQB 120613Z 07015G21KT 10SM -SN FEW010 OVC040 M08/ RMK SC1SC8

CYQB;2008-12-12 06:35;CYQB 120635Z 07013G21KT 2 1/4SM -SN VV012 M08/ RMK SN8

CYQB;2008-12-12 07:00;CYQB 120700Z 08015KT 3/4SM R06/P6000FT/D -SN VV007 M08/M11 A2992 RMK SN8 /S01/ SLP137

CYQB;2008-12-12 08:00;CYQB 120800Z 07009G16KT 1SM R06/P6000FT/U -SN VV007 M08/M10 A2989 RMK SN8 SLP128

CYQB;2008-12-12 09:00;CYQB 120900Z CCA 07014G20KT 3/4SM R06/P6000FT/D -SN VV004 M08/M09 A2982 RMK SN8 PRESFR /S03/ SLP104

CYQB;2008-12-12 10:00;CYQB 121000Z 07016G21KT 1SM R06/P6000FT/U -SN VV012 M08/M09 A2976 RMK SN8 /S05/ SLP084

CYQB;2008-12-12 10:38;CYQB 121038Z 07012G17KT 3/4SM R06/P6000FT/D -SN BKN008 OVC021 M07/ RMK SF6SC2

CYQB;2008-12-12 11:00;CYQB 121100Z 06010KT 3/4SM R06/P6000FT/U -SN VV007 M07/M08 A2976 RMK SN8 SLP082

CYQB;2008-12-12 11:17;CYQB 121117Z 07010G16KT 1/2SM R06/P6000FT/D SN VV005 M07/ RMK SN8

CYQB;2008-12-12 11:46;CYQB 121146Z 07013KT 3/4SM R06/P6000FT/U -SN VV008 M07/ RMK SN8

CYQB;2008-12-12 12:00;CYQB 121200Z 06010KT 3/4SM R06/P6000FT/U -SN VV010 M07/M08 A2967 RMK SN8 PRESFR SLP053

CYQB;2008-12-12 12:25;CYQB 121225Z 07011KT 3/4SM R06/P6000FT/D -SN VV007 M07/ RMK SN8

CYQB;2008-12-12 12:29;CYQB 121229Z 07010KT 1/2SM R06/P6000FT/D SN VV005 M07/ RMK SN8

CYQB;2008-12-12 13:00;CYQB 121300Z 07012G18KT 1/2SM R06/P6000FT/U SN VV007 M06/M08 A2962 RMK SN8 SLP035

CYQB;2008-12-12 13:08;CYQB 121308Z 07015KT 3/4SM R06/P6000FT/U -SN VV011 M06/ RESN RMK SN8

CYQB;2008-12-12 14:00;CYQB 121400Z 07012KT 1/2SM R06/P6000FT/D SN VV007 M06/M07 A2954 RMK SN8 PRESFR SLP009

CYQB;2008-12-12 15:00;CYQB 121500Z CCA 08007KT 1SM R06/P6000FT/N -SN BR VV008 M05/M06 A2952 RESN RMK SN8 VIS NE-SE 3/4 /S04/ SLP002

CYQB;2008-12-12 15:21;CYQB 121521Z 06010G15KT 1/2SM R06/5000FT/N SN FZFG VV005 M05/ RMK SN8

CYQB;2008-12-12 15:52;CYQB 121552Z 05005KT 3/4SM R06/5000FT/U -SN BR VV008 M04/ RESN RMK SN8

CYQB;2008-12-12 16:00;CYQB 121600Z 05004KT 3/4SM R06/6000FT/U -SN BR VV008 M04/M05 A2945 RESN RMK SN8 /S05/ SLP978

CYQB;2008-12-12 16:16;CYQB 121616Z 13002KT 1/2SM R06/4000V5500FT/D -SN FZFG VV005 M04/ RMK SN8

CYQB;2008-12-12 16:35;CYQB 121635Z 27003KT 1/2SM R06/2400FT/N SN VV003 M04/ RMK SN8

CYQB;2008-12-12 17:00;CYQB 121700Z 25009KT 3/8SM R06/2600FT/N SN VV003 M05/M06 A2946 RMK SN8 /S06/ SLP982

CYQB;2008-12-12 17:32;CYQB 121732Z 25016KT 1/2SM R06/2600FT/N SN VV003 M05/ RMK SN8

CYQB;2008-12-12 17:49;CYQB 121749Z 26017KT 1/2SM R06/3000FT/N SN OVC014 M05/ RMK SN7SC1

CYQB;2008-12-12 18:00;CYQB 121800Z 25015KT 3/4SM R06/4000FT/N -SN OVC020 M05/M05 A2945 RMK SN6SC2 RESN /S07/ SLP976

CYQB;2008-12-12 18:25;CYQB 121825Z 23011KT 2SM -SN BR OVC034 M04/ RMK SC8

CYQB;2008-12-12 18:47;CYQB 121847Z 23009KT 4SM -SN OVC021 M04/ RMK SC7

CYQB;2008-12-12 19:00;CYQB 121900Z 24012KT 8SM -SN FEW010 BKN029 M04/M05 A2943 RMK SC2SC5 SLP972

CYQB;2008-12-12 19:23;CYQB 121923Z 22010G16KT 12SM FEW010 BKN038 M04/ RMK SC1SC5

CYQB;2008-12-12 20:00;CYQB 122000Z 24015KT 10SM SCT011 OVC090 M04/M05 A2952 RMK SC4AC3 PRESRR SLP002

CYQB;2008-12-12 21:00;CYQB 122100Z 23011KT 12SM BKN051 OVC090 M04/M05 A2951 RMK SC6AC2 SLP998

CYQB;2008-12-12 22:00;CYQB 122200Z 23011KT 15SM OVC062 M03/M05 A2953 RMK SC8 SLP005

CYQB;2008-12-12 23:00;CYQB 122300Z 31009G16KT 15SM OVC057 M04/M07 A2961 RMK SC8 PRESRR SLP032

CYQB;2008-12-13 00:00;CYQB 130000Z 29013KT 15SM BKN065 M06/M10 A2967 RMK AC7 PRESRR SLP053

CYQB;2008-12-13 01:00;CYQB 130100Z 27009KT 15SM FEW050 BKN120 M06/M11 A2972 RMK SC2AC5 SLP069

CYQB;2008-12-13 02:00;CYQB 130200Z 27008KT 15SM SCT120 M07/M12 A2977 RMK AC3 SLP084

CYQB;2008-12-13 03:00;CYQB 130300Z 26011KT 15SM SCT070 M09/M13 A2979 RMK AC2 SLP093

CYQB;2008-12-13 04:00;CYQB 130400Z 26016KT 15SM DRSN BKN070 M08/M11 A2981 RMK AC7 SLP101

CYQB;2008-12-13 05:00;CYQB 130500Z 26010G17KT 15SM DRSN BKN070 M09/M13 A2984 RMK AC6 SLP109

CYQB;2008-12-13 06:00;CYQB 130600Z 27009KT 15SM BKN070 M10/M15 A2988 RMK AC6 SLP122

CYQB;2008-12-13 07:00;CYQB 130700Z 27010KT 15SM FEW070 M13/M17 A2992 RMK AC2 SLP138

CYQB;2008-12-13 08:00;CYQB 130800Z 27010KT 15SM SKC M15/M18 A2997 RMK SLP154

CYQB;2008-12-13 09:00;CYQB 130900Z 29008KT 15SM SKC M16/M20 A3002 RMK SLP170

CYQB;2008-12-13 10:00;CYQB 131000Z 29009KT 15SM SKC M16/M21 A3006 RMK SLP184

CYQB;2008-12-13 11:00;CYQB 131100Z 25010KT 15SM SKC M18/M22 A3010 RMK SLP197

CYQB;2008-12-13 12:00;CYQB 131200Z 25011KT 30SM FEW012 M19/M22 A3013 RMK SC1 SLP209

CYQB;2008-12-13 13:00;CYQB 131300Z 26010KT 30SM FEW012 FEW090 M19/M27 A3017 RMK SF1AC1 SLP224

CYQB;2008-12-13 14:00;CYQB 131400Z 26011KT 30SM FEW090 M18/M24 A3022 RMK AC1 SLP240

CYQB;2008-12-13 15:00;CYQB 131500Z 26008KT 30SM FEW012 M17/M23 A3025 RMK SF1 SLP251

CYQB;2008-12-13 16:00;CYQB 131600Z 25011KT 30SM FEW015 M16/M22 A3025 RMK SC1 SLP252

CYQB;2008-12-13 17:00;CYQB 131700Z 25010KT 30SM FEW020 M15/M21 A3026 RMK SC1 SLP253

CYQB;2008-12-13 18:00;CYQB 131800Z 23015KT 30SM FEW030 M14/M21 A3027 RMK SC1 SLP257

CYQB;2008-12-13 19:00;CYQB 131900Z 23013KT 30SM FEW030 FEW200 M15/M21 A3028 RMK SC1CI1 SLP262

CYQB;2008-12-13 20:00;CYQB 132000Z 23012G18KT 30SM FEW030 M15/M20 A3031 RMK SC1 SLP271

CYQB;2008-12-13 21:00;CYQB 132100Z 24015KT 30SM FEW200 M15/M21 A3032 RMK CI1 SLP275

CYQB;2008-12-13 22:00;CYQB 132200Z 25015G21KT 15SM SKC M16/M21 A3034 RMK SLP282

CYQB;2008-12-13 23:00;CYQB 132300Z 27010KT 30SM FEW200 M17/M22 A3037 RMK CI1 SLP293

CYQB;2008-12-14 00:00;CYQB 140000Z 26009KT 30SM SKC M18/M22 A3039 RMK SLP301

CYQB;2008-12-14 01:00;CYQB 140100Z 24007KT 30SM FEW030 FEW200 M18/M22 A3041 RMK SC1CI1 SLP305

CYQB;2008-12-14 02:00;CYQB 140200Z 25002KT 15SM FEW030 FEW180 M19/M24 A3042 RMK SC1CI1 SLP310

CYQB;2008-12-14 03:00;CYQB 140300Z 00000KT 15SM FEW200 M19/M23 A3042 RMK CI0 SLP311

CYQB;2008-12-14 04:00;CYQB 140400Z 00000KT 15SM FEW200 M21/M26 A3043 RMK CS1 SLP314

CYQB;2008-12-14 05:00;CYQB 140500Z 04002KT 15SM OVC045 M20/M24 A3043 RMK SC6 SLP314

CYQB;2008-12-14 06:00;CYQB 140600Z 04004KT 15SM OVC039 M18/M22 A3044 RMK SC8 SLP315

CYQB;2008-12-14 07:00;CYQB 140700Z 00000KT 15SM -SN FEW015 OVC034 M18/M22 A3044 RMK SC1SC8 SLP315

CYQB;2008-12-14 08:00;CYQB 140800Z 02003KT 15SM -SN FEW015 OVC036 M17/M21 A3044 RMK SC1SC7 SLP314

CYQB;2008-12-14 09:00;CYQB 140900Z 05006KT 15SM -SN OVC030 M16/M21 A3041 RMK SC8 SLP305

CYQB;2008-12-14 09:51;CYQB 140951Z 03005KT 15SM OVC031 M15/ RMK SC8

CYQB;2008-12-14 10:00;CYQB 141000Z 04003KT 15SM OVC032 M15/M19 A3041 RMK SC8 SLP304

CYQB;2008-12-14 10:41;CYQB 141041Z 04006KT 12SM -SN OVC030 M15/ RMK SC8

CYQB;2008-12-14 11:00;CYQB 141100Z 03007KT 15SM -SN BKN030 OVC080 M15/M20 A3038 RMK SC7AC1 SLP295

CYQB;2008-12-14 12:00;CYQB 141200Z 04005KT 15SM -SHSN SCT030 OVC065 M14/M19 A3036 RMK SC3SC5 SLP290

CYQB;2008-12-14 13:00;CYQB 141300Z 04006KT 15SM SCT030 OVC051 M14/M18 A3033 RMK SC3SC5 SLP280

CYQB;2008-12-14 14:00;CYQB 141400Z 01004KT 15SM SCT030 OVC056 M12/M16 A3033 RMK SC3SC5 SLP277

CYQB;2008-12-14 14:47;CYQB 141447Z 01004KT 5/8SM R06/P6000FT/D -SN OVC007 M11/ RMK SN4SF4

CYQB;2008-12-14 15:00;CYQB 141500Z 01003KT 1/2SM R06/P6000FT/D SN VV007 M11/M15 A3033 RMK SN8 SLP278

CYQB;2008-12-14 15:13;CYQB 141513Z 03002KT 2SM -SN OVC016 M11/ RESN RMK SN2SC6

CYQB;2008-12-14 15:26;CYQB 141526Z 04003KT 1 3/4SM -SN OVC011 M11/ RESN RMK SN2SC6

CYQB;2008-12-14 16:00;CYQB 141600Z 05005KT 1/2SM R06/P6000FT/U SN VV010 M10/M13 A3028 RMK SN8 SLP263

CYQB;2008-12-14 16:12;CYQB 141612Z 04005KT 1/2SM R06/4500VP6000FT/D SN VV007 M10/ RMK SN8

CYQB;2008-12-14 17:00;CYQB 141700Z 03003KT 1/2SM R06/4000V5500FT/U SN VV006 M10/M11 A3026 RMK SN8 /S02/ SLP254

CYQB;2008-12-14 18:00;CYQB 141800Z 01004KT 3/4SM R06/P6000FT/D -SN VV009 M09/M10 A3023 RMK SN8 SLP244

CYQB;2008-12-14 18:37;CYQB 141837Z 02007KT 1SM R06/P6000FT/U -SN OVC015 M08/ RMK SN3SC5

CYQB;2008-12-14 19:00;CYQB 141900Z 06005KT 5SM -SN SCT030 OVC100 M07/M09 A3019 RMK SC3AC5 SLP229

CYQB;2008-12-14 19:29;CYQB 141929Z 01004KT 10SM FEW015 SCT030 OVC098 M07/ RMK SF1SC2AC5

CYQB;2008-12-14 20:00;CYQB 142000Z 09003KT 10SM FEW030 OVC085 M07/M08 A3019 RMK SC2AC6 SLP231

CYQB;2008-12-14 21:00;CYQB 142100Z 01002KT 10SM BKN052 OVC081 M06/M08 A3020 RMK SC5AC3 SLP232

CYQB;2008-12-14 21:23;CYQB 142123Z 34002KT 6SM -SN SCT024 OVC043 M06/ RMK SC3SC5

CYQB;2008-12-14 21:45;CYQB 142145Z 00000KT 1/2SM R06/P6000FT/D SN BKN007 OVC018 M06/ RMK SN5SF2SC1

CYQB;2008-12-14 22:00;CYQB 142200Z 00000KT 1SM R06/P6000FT/D -SN BKN008 OVC020 M05/M07 A3022 RESN RMK SN4SF2SC2 SLP240

CYQB;2008-12-14 23:00;CYQB 142300Z 00000KT 1SM R06/P6000FT/N -SN SCT008 OVC019 M06/M07 A3023 RMK SN4SF1SC4 /S02/ SLP243

CYQB;2008-12-15 00:00;CYQB 150000Z 00000KT 6SM -SN FEW029 OVC057 M06/M07 A3023 RMK SC2SC6 /S03/ SLP244

CYQB;2008-12-15 00:28;CYQB 150028Z 00000KT 1SM R06/P6000FT/D -SN VV011 M06/ RMK SN8

CYQB;2008-12-15 01:00;CYQB 150100Z 00000KT 2 1/2SM -SN OVC022 M05/M07 A3023 RMK SC6 SLP243

CYQB;2008-12-15 02:00;CYQB 150200Z 00000KT 2SM -SN OVC026 M06/M07 A3023 RMK SN2SC6 SLP244

CYQB;2008-12-15 03:00;CYQB 150300Z 00000KT 2SM -SN OVC024 M05/M06 A3022 RMK SN2SC6 SLP240

CYQB;2008-12-15 04:00;CYQB 150400Z 00000KT 4SM -SN FEW013 OVC018 M05/M06 A3022 RMK SC2SC6 SLP240

CYQB;2008-12-15 04:42;CYQB 150442Z 05002KT 1 1/4SM -SN FEW006 OVC010 M04/ RMK SN2SF1SC6

CYQB;2008-12-15 05:00;CYQB 150500Z CCA 04003KT 1 1/4SM -SN FEW006 OVC009 M04/M05 A3020 RMK SN2SF1SC6 /S01/ SLP233

CYQB;2008-12-15 06:00;CYQB 150600Z 04003KT 2SM -SN OVC008 M03/M04 A3018 RMK SC8 SLP226

CYQB;2008-12-15 06:21;CYQB 150621Z 04003KT 3SM -FZDZ BR BKN007 OVC017 M03/ RMK ST6SC2

CYQB;2008-12-15 07:00;CYQB 150700Z 04002KT 4SM -FZRA BR BKN005 OVC025 M03/M04 A3016 REFZDZ RMK SF6SC2 ICE ON INDICATOR SLP219

CYQB;2008-12-15 07:48;CYQB 150748Z 02002KT 4SM -PL -FZRA BR FEW007 OVC020 M03/ RMK SF2SC6

CYQB;2008-12-15 08:00;CYQB 150800Z 04003KT 5SM BR FEW006 OVC021 M02/M03 A3014 REFZRAPL RMK SF1SC7 TR ICE ON INDICATOR SLP211

CYQB;2008-12-15 09:00;CYQB 150900Z 02003KT 7SM OVC032 M02/M03 A3011 RMK SC8 SLP201

CYQB;2008-12-15 10:00;CYQB 151000Z 03003KT 8SM -FZRA OVC037 M02/M02 A3006 RMK SC8 SLP184

CYQB;2008-12-15 11:00;CYQB 151100Z 03004KT 2SM -FZRA BR OVC032 M01/M02 A3004 RMK SC8 SLP176

CYQB;2008-12-15 12:00;CYQB 151200Z 02003KT 2SM -FZRA BR OVC029 M00/M01 A3004 RMK SC8 SLP178

CYQB;2008-12-15 12:10;CYQB 151210Z 04006KT 2SM -RA BR OVC027 00/ RMK SC8 REFZRA

CYQB;2008-12-15 12:32;CYQB 151232Z 00000KT 3/4SM R06/P6000FT/D -RA BR OVC015 00/ RMK SC8 REFZRA

CYQB;2008-12-15 13:00;CYQB 151300Z 10005KT 1/2SM R06/P6000FT/U -RA FG OVC010 00/M01 A3003 RMK SF8 REFZRA SLP172

CYQB;2008-12-15 13:45;CYQB 151345Z 09003KT 1/2SM R06/5500FT/N -RA FG FEW002 BKN008 OVC029 00/ RMK SF2SC5SC2

CYQB;2008-12-15 14:00;CYQB 151400Z 03006KT 1/2SM R06/5500FT/U -RA FG FEW002 SCT008 OVC033 00/M00 A3000 RMK SF2SC2SC4 SLP163

CYQB;2008-12-15 15:00;CYQB 151500Z 05004KT 1/2SM R06/2600V4500FT/U -RA FG SCT001 BKN008 OVC028 01/00 A2996 RMK SF4SC2SC2 SLP148

CYQB;2008-12-15 15:29;CYQB 151529Z 07004KT 1/4SM R06/4000FT/D -RA FG SCT001 SCT008 OVC038 01/ RMK SF3SF1SC4

CYQB;2008-12-15 16:00;CYQB 151600Z 03004KT 1/2SM R06/5500FT/N -RA FG FEW001 FEW008 OVC028 01/00 A2989 RMK SF2SF1SC6 SLP126

CYQB;2008-12-15 17:00;CYQB 151700Z 03004KT 1SM R06/P6000FT/U -RA BR FEW008 OVC028 01/01 A2984 RMK SF2SC6 SLP110

CYQB;2008-12-15 18:00;CYQB 151800Z 02004KT 1SM R06/P6000FT/U -RA BR OVC024 01/01 A2980 RMK SC8 SLP096

CYQB;2008-12-15 19:00;CYQB 151900Z 00000KT 1 1/2SM R06/3000V5000FT/U -RA BR BKN018 OVC037 02/02 A2978 RMK SC6SC2 SLP089

CYQB;2008-12-15 20:00;CYQB 152000Z 26005KT 1 1/2SM -RA BR FEW012 OVC020 04/04 A2976 RMK SC2SC6 SLP083

CYQB;2008-12-15 21:00;CYQB 152100Z 22013G18KT 5SM BR SCT015 OVC021 08/07 A2973 RMK SC3SC5 SLP070

CYQB;2008-12-15 22:00;CYQB 152200Z 23019G24KT 3SM -RA BR SCT020 OVC030 08/06 A2973 RMK SC3SC5 SLP072

CYQB;2008-12-15 23:00;CYQB 152300Z 23028G33KT 5SM -RA BR FEW015 BKN025 OVC086 08/06 A2975 RMK SC2SC5AC2 SLP076

CYQB;2008-12-15 23:19;CYQB 152319Z 24026G39KT 5SM BR FEW015 BKN030 OVC060 08/ RMK SC2SC5SC2

CYQB;2008-12-16 00:00;CYQB 160000Z 23026G33KT 15SM FEW020 BKN120 OVC210 07/04 A2977 RMK SC2AC5CI2 SLP084

CYQB;2008-12-16 01:00;CYQB 160100Z 23021G29KT 15SM OVC036 06/03 A2979 RMK SC8 SLP091

CYQB;2008-12-16 02:00;CYQB 160200Z 24024G32KT 15SM OVC032 06/01 A2981 RMK SC8 SLP098

CYQB;2008-12-16 03:00;CYQB 160300Z 24024G37KT 15SM FEW030 OVC042 04/M00 A2984 RMK SC2SC6 SLP107

CYQB;2008-12-16 04:00;CYQB 160400Z 25030G42KT 15SM BKN040 OVC220 04/M03 A2988 RMK SC6CI2 SLP122

CYQB;2008-12-16 05:00;CYQB 160500Z 25030G39KT 15SM SCT040 OVC220 02/M05 A2995 RMK SC4CI3 SLP144

CYQB;2008-12-16 06:00;CYQB 160600Z 24027G35KT 15SM SCT050 OVC220 01/M06 A3001 RMK SC4CI4 PRESRR SLP166

CYQB;2008-12-16 07:00;CYQB 160700Z 25021G30KT 15SM BKN047 OVC240 M00/M06 A3007 RMK SC7CI1 OBS TAKEN +12 PRESRR SLP187

CYQB;2008-12-16 08:00;CYQB 160800Z 28023G31KT 15SM BKN053 BKN240 M02/M10 A3014 RMK SC6CI0 PRESRR SLP210

CYQB;2008-12-16 09:00;CYQB 160900Z 28022G27KT 15SM FEW050 OVC210 M04/M12 A3022 RMK SC2CS2 HALO PRESRR SLP236

CYQB;2008-12-16 10:00;CYQB 161000Z 28017G27KT 15SM FEW050 BKN220 M05/M14 A3028 RMK SC1CI2 PRESRR SLP258

CYQB;2008-12-16 11:00;CYQB 161100Z 28011KT 15SM FEW050 SCT220 M07/M15 A3033 RMK SC1CI1 SLP274

CYQB;2008-12-16 12:00;CYQB 161200Z 29013G19KT 15SM FEW050 SCT220 M07/M15 A3036 RMK SC1CI1 SLP286

CYQB;2008-12-16 13:00;CYQB 161300Z 29015G25KT 50SM FEW050 FEW220 M09/M17 A3039 RMK SC1CI1 SLP293

CYQB;2008-12-16 14:00;CYQB 161400Z 29014G19KT 50SM FEW050 FEW220 M09/M17 A3043 RMK SC1CI1 SLP309

CYQB;2008-12-16 15:00;CYQB 161500Z 29012G18KT 50SM FEW040 FEW220 M09/M16 A3047 RMK SC1CI1 SLP321

CYQB;2008-12-16 16:00;CYQB 161600Z 27018KT 50SM FEW040 M08/M16 A3047 RMK SC1 SLP324

CYQB;2008-12-16 17:00;CYQB 161700Z 27017G24KT 50SM FEW040 M08/M16 A3047 RMK SC1 SLP322

CYQB;2008-12-16 18:00;CYQB 161800Z 26015KT 50SM FEW040 M08/M16 A3048 RMK SC1 SLP325

CYQB;2008-12-16 19:00;CYQB 161900Z 25014KT 50SM FEW045 FEW220 M08/M16 A3050 RMK SC1CI1 SLP332

CYQB;2008-12-16 20:00;CYQB 162000Z 26012KT 30SM FEW045 FEW220 M08/M16 A3051 RMK SC1CI1 SLP335

CYQB;2008-12-16 21:00;CYQB 162100Z 24007KT 30SM FEW045 FEW220 M09/M18 A3053 RMK SC1CI0 SLP345

CYQB;2008-12-16 22:00;CYQB 162200Z 27005KT 15SM FEW040 FEW220 M11/M18 A3055 RMK SC1CI1 SLP349

CYQB;2008-12-16 23:00;CYQB 162300Z 27004KT 15SM SCT240 M12/M18 A3057 RMK CI2 SLP356

CYQB;2008-12-17 00:00;CYQB 170000Z 08002KT 15SM SCT240 M13/M18 A3055 RMK CI3 SLP352

CYQB;2008-12-17 01:00;CYQB 170100Z 00000KT 15SM BKN240 M13/M19 A3053 RMK CI5 SLP346

CYQB;2008-12-17 02:00;CYQB 170200Z 36002KT 15SM SCT210 M14/M18 A3054 RMK CI3 SLP348

CYQB;2008-12-17 03:00;CYQB 170300Z 01004KT 15SM BKN240 M13/M18 A3054 RMK CI4 SLP348

CYQB;2008-12-17 04:00;CYQB 170400Z 01003KT 15SM BKN150 OVC220 M13/M18 A3057 RMK AC6CI2 SLP357

CYQB;2008-12-17 05:00;CYQB 170500Z 04003KT 15SM OVC120 M13/M18 A3055 RMK AC8 SLP351

CYQB;2008-12-17 06:00;CYQB 170600Z 01005KT 15SM OVC110 M13/M18 A3050 RMK AC8 SLP334

CYQB;2008-12-17 07:00;CYQB 170700Z 01005KT 15SM OVC100 M12/M17 A3045 RMK AS6 MOON DIMLY VISBL SLP319

CYQB;2008-12-17 08:00;CYQB 170800Z 04005KT 15SM OVC090 M11/M17 A3043 RMK AS6 MOON DIMLY VISBL SLP310

CYQB;2008-12-17 09:00;CYQB 170900Z 03005KT 15SM OVC045 M10/M16 A3041 RMK NS7 MOON DIMLY VISBL SLP306

CYQB;2008-12-17 09:44;CYQB 170944Z 05006KT 15SM -SN OVC025 M10/ RMK NS8

CYQB;2008-12-17 10:00;CYQB 171000Z 05007KT 6SM -SN OVC030 M10/M15 A3039 RMK NS8 SLP298

CYQB;2008-12-17 10:32;CYQB 171032Z 06010KT 8SM OVC040 M10/ RMK NS8 VIS SE QUAD HIER

CYQB;2008-12-17 11:00;CYQB 171100Z 06007KT 8SM -SN VV030 M10/M14 A3038 RMK SN8 -SN INTMT SLP293

CYQB;2008-12-17 12:00;CYQB 171200Z 08014G19KT 1 1/2SM R06/4500VP6000FT/D -SN VV010 M09/M13 A3031 RMK SN8 SLP272

CYQB;2008-12-17 12:11;CYQB 171211Z 08009G18KT 1SM R06/P6000FT/D -SN VV011 M09/ RMK SN8

CYQB;2008-12-17 12:34;CYQB 171234Z 08014G19KT 1/2SM R06/P6000FT/U SN VV007 M10/ RMK SN8

CYQB;2008-12-17 13:00;CYQB 171300Z 08013G20KT 3/8SM R06/3500VP6000FT/U SN VV006 M10/M12 A3027 RMK SN8 SLP258

CYQB;2008-12-17 13:12;CYQB 171312Z 09014KT 3/4SM R06/P6000FT/D -SN VV011 M10/ RESN RMK SN8 RESN

CYQB;2008-12-17 14:00;CYQB 171400Z 07016KT 3/8SM R06/4000VP6000FT/D SN BLSN VV006 M10/M12 A3025 RMK SN8 /S02/ SLP250

CYQB;2008-12-17 14:22;CYQB 171422Z 08015KT 1/4SM R06/3000V4500FT/D SN +BLSN VV004 M10/ RMK SN8

CYQB;2008-12-17 15:00;CYQB 171500Z 07015G20KT 1/4SM R06/3000FT/N SN +BLSN VV003 M10/M12 A3020 RMK SN8 /S03/ SLP234

CYQB;2008-12-17 16:00;CYQB 171600Z 06015G20KT 1/4SM R06/3000FT/N SN +BLSN VV003 M10/M12 A3016 RMK SN8 /S04/ SLP219

CYQB;2008-12-17 17:00;CYQB 171700Z 07014KT 1/4SM R06/3500FT/D SN +BLSN VV003 M10/M12 A3010 RMK SN8 PRESFR /S05/ SLP199

CYQB;2008-12-17 18:00;CYQB 171800Z CCA 08011G19KT 1/4SM R06/3000FT/N SN +BLSN VV004 M10/M12 A3006 RMK SN8 /S08/ SLP184

CYQB;2008-12-17 18:26;CYQB 171826Z 07011G18KT 3/8SM R06/5000FT/U SN BLSN VV008 M10/ RMK SN8

CYQB;2008-12-17 18:49;CYQB 171849Z 08014G20KT 5/8SM R06/P6000FT/N -SN BLSN VV010 M10/ RMK SN8

CYQB;2008-12-17 19:00;CYQB 171900Z CCA 07015G21KT 5/8SM R06/4500VP6000FT/N -SN BLSN VV009 M10/M12 A3002 RMK SN8 RESN /S01/ SLP172

CYQB;2008-12-17 19:47;CYQB 171947Z 07012G19KT 1 1/4SM -SN VV016 M09/ RMK SN8 /S03/

CYQB;2008-12-17 20:00;CYQB 172000Z 07008KT 1 1/4SM -SN OVC035 M09/M11 A3003 RMK SN3SC5 /S04/ SLP174

CYQB;2008-12-17 21:00;CYQB 172100Z 07012KT 2SM -SN OVC031 M09/M12 A3002 RMK SN2SC6 /S05/ SLP171

CYQB;2008-12-17 22:00;CYQB 172200Z 07010KT 4SM -SN OVC028 M09/M12 A3000 RMK SC8 /S06/ SLP166

CYQB;2008-12-17 23:00;CYQB 172300Z 07007KT 6SM -SN OVC025 M09/M12 A3001 RMK SC8 SLP169

CYQB;2008-12-17 23:38;CYQB 172338Z 05005KT 15SM OVC025 M09/ RMK SC8

CYQB;2008-12-18 00:00;CYQB 180000Z 04004KT 15SM FEW010 OVC024 M09/M12 A3004 RMK CF1SC7 /S07/ SLP178

CYQB;2008-12-18 00:42;CYQB 180042Z 00000KT 12SM -SN OVC021 M09/ RMK SC8

CYQB;2008-12-18 01:00;CYQB 180100Z 00000KT 12SM -SN FEW010 OVC022 M09/M12 A3005 RMK SC1SC7 SLP182

CYQB;2008-12-18 02:00;CYQB 180200Z 28002KT 8SM -SN FEW011 OVC018 M10/M12 A3006 RMK SC2SC6 /S01/ SLP186

CYQB;2008-12-18 03:00;CYQB 180300Z 24004KT 6SM -SN FEW010 OVC014 M10/M12 A3007 RMK SC2SC6 SLP189

CYQB;2008-12-18 04:00;CYQB 180400Z 26009KT 12SM -SN BKN013 OVC085 M10/M12 A3008 RMK SC5AC3 SLP193

CYQB;2008-12-18 05:00;CYQB 180500Z 26010KT 15SM -SN BKN012 OVC086 M10/M12 A3010 RMK SC5AC2 SLP197

CYQB;2008-12-18 06:00;CYQB 180600Z 27012KT 15SM -SN BKN008 OVC016 M09/M11 A3009 RMK SF5SC2 SLP195

CYQB;2008-12-18 06:43;CYQB 180643Z 27012KT 10SM -SN FEW008 OVC051 M09/M11 RMK SF2SC6

CYQB;2008-12-18 07:00;CYQB 180700Z 27011KT 7SM -SN FEW009 OVC052 M09/M11 A3011 RMK SF2SC6 SLP201

CYQB;2008-12-18 07:14;CYQB 180714Z 26010KT 2 1/2SM -SN FEW009 BKN025 BKN052 M09/ RMK SN1SF1SC4SC2

CYQB;2008-12-18 07:34;CYQB 180734Z 25010KT 5SM -SN FEW010 BKN038 OVC050 M09/ RMK SF1SC5SC2

CYQB;2008-12-18 08:00;CYQB 180800Z 26010KT 4SM -SN SCT035 OVC050 M09/M11 A3011 RMK SN2SC2SC2 MOON DIMLY VISBL SLP201

CYQB;2008-12-18 09:00;CYQB 180900Z 27010KT 8SM -SN FEW006 SCT035 SCT050 M10/M12 A3011 RMK SF1SC1SC1 /S01/ SLP201

CYQB;2008-12-18 10:00;CYQB 181000Z CCA 26013KT 10SM -SN BKN006 BKN036 M10/M12 A3012 RMK SF4SC2 MOON DIMLY VISBL SLP207

CYQB;2008-12-18 11:00;CYQB 181100Z 26011KT 10SM -SN FEW005 BKN026 M10/M12 A3014 RMK SF2SC3 MOON DMLY VISBL SLP211

CYQB;2008-12-18 12:00;CYQB 181200Z 24012KT 10SM FEW006 FEW025 M11/M13 A3015 RMK SF1SC2 SLP215

CYQB;2008-12-18 13:00;CYQB 181300Z 24011KT 8SM FEW005 FEW025 BKN048 M10/M12 A3015 RMK SF2SC1SC2 SHSN NE SLP217

CYQB;2008-12-18 14:00;CYQB 181400Z 23014KT 10SM FEW005 SCT032 BKN042 M10/M11 A3019 RMK SF1SC2SC1 SLP229

CYQB;2008-12-18 14:45;CYQB 181445Z 25013KT 6SM -SHSN SCT037 BKN046 M09/ RMK SC2SC2

CYQB;2008-12-18 15:00;CYQB 181500Z 25011KT 10SM FEW037 SCT045 M09/M11 A3020 RMK SC1SC1 SLP233

CYQB;2008-12-18 16:00;CYQB 181600Z 26013KT 15SM FEW035 M08/M11 A3018 RMK SC1 SLP225

CYQB;2008-12-18 17:00;CYQB 181700Z 26015KT 15SM FEW025 FEW035 M07/M11 A3015 RMK SC0SC1 SLP215

CYQB;2008-12-18 18:00;CYQB 181800Z 27017KT 15SM BKN025 M06/M12 A3016 RMK SC3 SLP217

CYQB;2008-12-18 19:00;CYQB 181900Z 28013G21KT 15SM FEW025 BKN040 M07/M13 A3016 RMK CU1SC2 SHSN S-SW SLP218

CYQB;2008-12-18 20:00;CYQB 182000Z 26010KT 15SM FEW030 BKN220 M08/M13 A3017 RMK SC1CI1 SLP222

CYQB;2008-12-18 21:00;CYQB 182100Z 27006KT 15SM FEW030 BKN060 OVC220 M08/M13 A3018 RMK SC1SC5CI2 SLP227

CYQB;2008-12-18 22:00;CYQB 182200Z 26006KT 15SM FEW030 BKN063 BKN220 M09/M13 A3018 RMK SC1SC6CI1 SLP226

CYQB;2008-12-18 23:00;CYQB 182300Z 25005KT 15SM OVC067 M09/M13 A3018 RMK AC8 SLP226

CYQB;2008-12-19 00:00;CYQB 190000Z 26005KT 15SM OVC073 M10/M13 A3017 RMK AC8 SLP223

CYQB;2008-12-19 01:00;CYQB 190100Z 27006KT 15SM -SN SCT034 OVC063 M10/M13 A3017 RMK SC4SC4 SLP222

CYQB;2008-12-19 02:00;CYQB 190200Z 26008KT 3SM -SHSN FEW010 BKN062 OVC170 M09/M12 A3016 RMK SC2SC4AC2 SLP220

CYQB;2008-12-19 03:00;CYQB 190300Z 26010KT 12SM -SHSN FEW010 SCT060 M10/M13 A3016 RMK SF1SC3 SLP220

CYQB;2008-12-19 03:38;CYQB 190338Z 27010KT 15SM FEW010 FEW060 SCT170 M10/ RMK SF1SC2CI1

CYQB;2008-12-19 04:00;CYQB 190400Z 28011KT 15SM FEW010 FEW060 M11/M13 A3019 RMK CF1SC2 SLP229

CYQB;2008-12-19 05:00;CYQB 190500Z 31013KT 15SM FEW012 FEW030 FEW100 M10/M15 A3022 RMK CF1SC1CI2 SLP241

CYQB;2008-12-19 06:00;CYQB 190600Z 29006KT 15SM FEW030 M13/M19 A3026 RMK SC2 SLP253

CYQB;2008-12-19 07:00;CYQB 190700Z 29008KT 15SM FEW025 FEW220 M14/M20 A3031 RMK SC1CI1 SLP270

CYQB;2008-12-19 08:00;CYQB 190800Z 31012KT 15SM FEW060 M15/M25 A3034 RMK SC1 SLP279

CYQB;2008-12-19 09:00;CYQB 190900Z 34011KT 15SM FEW060 FEW220 M16/M25 A3033 RMK SC1CI1 SLP279

CYQB;2008-12-19 10:00;CYQB 191000Z 34008KT 15SM SKC M18/M26 A3036 RMK SLP289

CYQB;2008-12-19 11:00;CYQB 191100Z 31007KT 15SM SKC M20/M27 A3044 RMK SLP313

CYQB;2008-12-19 12:00;CYQB 191200Z 34007KT 30SM FEW160 M20/M27 A3042 RMK AC1 SLP310

CYQB;2008-12-19 13:00;CYQB 191300Z 36005KT 30SM FEW160 FEW220 M20/M27 A3043 RMK AC1CI1 SLP312

CYQB;2008-12-19 14:00;CYQB 191400Z 35004KT 30SM FEW160 FEW220 M20/M28 A3046 RMK AC1CI1 SLP321

CYQB;2008-12-19 15:00;CYQB 191500Z 36005KT 30SM FEW160 SCT220 M19/M27 A3045 RMK AC1CI1 SLP320

CYQB;2008-12-19 16:00;CYQB 191600Z 00000KT 30SM FEW030 FEW160 SCT220 M18/M27 A3044 RMK SC1AC1CS2 SLP315

CYQB;2008-12-19 17:00;CYQB 191700Z 06006KT 25SM FEW030 BKN220 M17/M25 A3040 RMK SC1CS7 SLP302

CYQB;2008-12-19 18:00;CYQB 191800Z 10005KT 25SM FEW030 FEW150 OVC220 M17/M24 A3039 RMK SC1AC2CI6 SLP299

CYQB;2008-12-19 19:00;CYQB 191900Z 06006KT 25SM SCT150 OVC200 M16/M23 A3037 RMK AC3CI5 SLP293

CYQB;2008-12-19 20:00;CYQB 192000Z 05010KT 25SM FEW150 OVC180 M16/M23 A3033 RMK AC2AC6 SLP279

CYQB;2008-12-19 21:00;CYQB 192100Z 06007KT 25SM SCT150 OVC180 M16/M22 A3033 RMK AC4AC4 SLP279

CYQB;2008-12-19 22:00;CYQB 192200Z 05007KT 25SM OVC150 M16/M22 A3032 RMK AC8 SLP276

CYQB;2008-12-19 23:00;CYQB 192300Z 05007KT 25SM OVC150 M16/M22 A3031 RMK AC8 SLP272

CYQB;2008-12-20 00:00;CYQB 200000Z 06005KT 25SM FEW020 OVC150 M15/M22 A3033 RMK SC2AC6 SLP277

CYQB;2008-12-20 01:00;CYQB 200100Z 09007KT 25SM BKN021 OVC140 M16/M22 A3031 RMK SC5AC3 SLP272

CYQB;2008-12-20 02:00;CYQB 200200Z 09008KT 25SM FEW020 OVC140 M16/M22 A3029 RMK SC2AC6 SLP264

CYQB;2008-12-20 03:00;CYQB 200300Z 05015G24KT 15SM FEW020 BKN160 M16/M23 A3026 RMK SC2AC5 SLP254

CYQB;2008-12-20 04:00;CYQB 200400Z 07010G17KT 12SM -SHSN BKN021 OVC160 M16/M22 A3028 RMK SC5AC3 SLP260

CYQB;2008-12-20 05:00;CYQB 200500Z 09011KT 3SM -SHSN BKN006 OVC016 M16/M21 A3030 RMK SF5SC3 SLP269

CYQB;2008-12-20 05:27;CYQB 200527Z 09009KT 5SM -SHSN BKN012 OVC020 M17/ RMK SF6SC2

CYQB;2008-12-20 06:00;CYQB 200600Z 10007KT 5SM -SHSN SCT009 OVC018 M17/M21 A3030 RMK SF4SC4 SLP269

CYQB;2008-12-20 07:00;CYQB 200700Z 08010G15KT 10SM -SHSN FEW009 BKN024 M17/M21 A3030 RMK SF2SC5 SLP269

CYQB;2008-12-20 08:00;CYQB 200800Z 07010KT 15SM SCT023 M17/M22 A3030 RMK SC3 SLP267

CYQB;2008-12-20 09:00;CYQB 200900Z 06011G16KT 15SM SCT024 BKN140 M16/M23 A3031 RMK SC3AC2 SLP271

CYQB;2008-12-20 10:00;CYQB 201000Z 08007KT 8SM -SHSN BKN020 BKN140 M17/M22 A3032 RMK SC5AC2 SLP276

CYQB;2008-12-20 10:32;CYQB 201032Z 08010KT 15SM SCT024 SCT140 M17/ RMK SC2AC1

CYQB;2008-12-20 11:00;CYQB 201100Z 08009KT 15SM BKN022 BKN140 M16/M21 A3033 RMK SC5AC1 SLP279

CYQB;2008-12-20 12:00;CYQB 201200Z 08010KT 15SM BKN023 BKN140 M16/M21 A3033 RMK SC5AC1 SLP280

CYQB;2008-12-20 13:00;CYQB 201300Z 09011G17KT 30SM FEW023 BKN140 M17/M22 A3033 RMK SC2AC5 SLP280

CYQB;2008-12-20 14:00;CYQB 201400Z 09007G15KT 30SM BKN023 OVC120 M17/M21 A3035 RMK SC5AS3 VIS LWR E SLP285

CYQB;2008-12-20 14:13;CYQB 201413Z 09008KT 30SM -SN BKN020 OVC120 M16/ RMK SC6AS2 VIS LWR SE QUAD

CYQB;2008-12-20 14:30;CYQB 201430Z 10008KT 8SM -SN BKN021 OVC120 RMK SC7AS1

CYQB;2008-12-20 15:00;CYQB 201500Z 08008KT 4SM -SN BKN020 OVC120 M16/M20 A3036 RMK SC7AS1 SLP289

CYQB;2008-12-20 16:00;CYQB 201600Z 09010G15KT 10SM -SN BKN020 BKN120 M16/M21 A3034 RMK SC5AS2 SLP283

CYQB;2008-12-20 16:40;CYQB 201640Z 07012KT 15SM FEW020 SCT120 BKN210 M16/ RMK SC2AS2CI1 DIST SHSN N

CYQB;2008-12-20 17:00;CYQB 201700Z 07013KT 30SM FEW020 FEW120 OVC210 M16/M21 A3032 RMK SC1AS1CI1 VIS LWR NW QUAD SLP275

CYQB;2008-12-20 18:00;CYQB 201800Z 07008G15KT 30SM FEW020 BKN210 M15/M21 A3031 RMK SC1CI1 SLP272

CYQB;2008-12-20 19:00;CYQB 201900Z 07008KT 30SM FEW020 BKN210 M15/M21 A3030 RMK SC1CI2 SLP269

CYQB;2008-12-20 20:00;CYQB 202000Z 09009KT 30SM FEW025 FEW210 M15/M21 A3031 RMK SC1CI0 SLP273

CYQB;2008-12-20 21:00;CYQB 202100Z 08007KT 30SM FEW025 FEW210 M15/M21 A3031 RMK SC1CI0 SLP272

CYQB;2008-12-20 22:00;CYQB 202200Z 06008KT 15SM FEW030 M16/M21 A3031 RMK SC1 SLP273

CYQB;2008-12-20 23:00;CYQB 202300Z 03005KT 15SM FEW018 M16/M21 A3032 RMK SC1 SLP275

CYQB;2008-12-21 00:00;CYQB 210000Z 05005KT 15SM BKN015 M17/M21 A3032 RMK SC4 SLP275

CYQB;2008-12-21 00:48;CYQB 210048Z 03003KT 10SM -SN BKN016 M17/ RMK SC5

CYQB;2008-12-21 01:00;CYQB 210100Z 01003KT 8SM -SN BKN016 M17/M22 A3032 RMK SC6 SLP275

CYQB;2008-12-21 02:00;CYQB 210200Z 01003KT 10SM -SN SCT016 BKN210 M19/M23 A3032 RMK SC3CI0 SLP275

CYQB;2008-12-21 02:17;CYQB 210217Z 02004KT 10SM SCT016 BKN210 M19/ RMK SC3CI0

CYQB;2008-12-21 03:00;CYQB 210300Z 01003KT 15SM FEW016 SCT120 BKN190 M20/M24 A3031 RMK SC2AC2CI1 SLP271

CYQB;2008-12-21 04:00;CYQB 210400Z 02004KT 15SM FEW200 M21/M25 A3030 RMK CI1 SLP268

CYQB;2008-12-21 05:00;CYQB 210500Z 02005KT 15SM FEW200 M21/M26 A3030 RMK CI1 SLP268

CYQB;2008-12-21 06:00;CYQB 210600Z 02005KT 15SM SCT200 M22/M26 A3028 RMK CI2 SLP261

CYQB;2008-12-21 07:00;CYQB 210700Z 03005KT 15SM FEW200 M21/M26 A3026 RMK CI1 SLP256

CYQB;2008-12-21 08:00;CYQB 210800Z 01002KT 15SM FEW200 M22/M26 A3025 RMK CI2 SLP252

CYQB;2008-12-21 09:00;CYQB 210900Z 01003KT 15SM FEW140 FEW200 M22/M26 A3023 RMK AC1CI1 SLP246

CYQB;2008-12-21 10:00;CYQB 211000Z 02005KT 15SM FEW140 FEW200 M22/M26 A3021 RMK AC1CI1 SLP237

CYQB;2008-12-21 11:00;CYQB 211100Z 02007KT 15SM FEW060 FEW220 M22/M26 A3016 RMK SC1CI1 SLP222

CYQB;2008-12-21 12:00;CYQB 211200Z 06009KT 15SM FEW008 FEW200 M19/M23 A3012 RMK SC1CI1 SLP208

CYQB;2008-12-21 13:00;CYQB 211300Z 08014G19KT 15SM FEW015 BKN200 M17/M21 A3010 RMK SC2CI2 SLP201

CYQB;2008-12-21 14:00;CYQB 211400Z 07020G28KT 15SM FEW015 BKN220 M17/M21 A3008 RMK SC2CI4 SLP194

CYQB;2008-12-21 15:00;CYQB 211500Z 07020G31KT 12SM R06/4500VP6000FT/D DRSN FEW015 BKN039 OVC220 M16/M20 A3006 RMK SC1SC5CI1 SLP185

CYQB;2008-12-21 16:00;CYQB 211600Z 07021G29KT 12SM SCT038 OVC180 M15/M20 A3002 RMK SC4CI3 DRSN SLP174

CYQB;2008-12-21 17:00;CYQB 211700Z 07019G27KT 12SM DRSN FEW038 OVC140 M15/M20 A2995 RMK SC1AC7 PRESFR SLP151

CYQB;2008-12-21 18:00;CYQB 211800Z 06023G32KT 12SM DRSN FEW038 OVC090 M14/M20 A2989 RMK SC1AC7 PRESFR SLP130

CYQB;2008-12-21 18:16;CYQB 211816Z 07018G28KT 12SM -SN DRSN FEW035 OVC084 M14/ RMK SC1AC7

CYQB;2008-12-21 19:00;CYQB 211900Z 07020G27KT 12SM -SN DRSN OVC032 M15/M20 A2988 RMK SC8 SLP127

CYQB;2008-12-21 19:22;CYQB 211922Z 07020G28KT 1 1/2SM -SN DRSN OVC022 M15/ RMK SN2SC6

CYQB;2008-12-21 20:00;CYQB 212000Z 07020G29KT 1 1/2SM -SN DRSN OVC026 M14/M19 A2983 RMK SN2SC6 SLP111

CYQB;2008-12-21 20:17;CYQB 212017Z 08020G28KT 1 1/4SM -SN DRSN OVC014 M15/ RMK SN3SC5

CYQB;2008-12-21 20:29;CYQB 212029Z 07020G28KT 3/4SM R06/4000VP6000FT/D -SN DRSN VV009 M15/ RMK SN8

CYQB;2008-12-21 20:42;CYQB 212042Z 08022G27KT 3/8SM R06/2800FT/N SN DRSN VV006 M14/ RMK SN8

CYQB;2008-12-21 21:00;CYQB 212100Z 07016G25KT 1/2SM R06/6000FT/D SN DRSN VV006 M14/M18 A2978 RMK SN8 /S01/ SLP093

CYQB;2008-12-21 21:21;CYQB 212121Z 08016G27KT 5/8SM R06/P6000FT/U -SN DRSN VV010 M14/ RMK SN8 RESN

CYQB;2008-12-21 21:42;CYQB 212142Z 08018G27KT 1SM R06/P6000FT/U -SN DRSN VV010 M14/ RESN RMK SN8

CYQB;2008-12-21 22:00;CYQB 212200Z 07014G29KT 3/4SM R06/P6000FT/U -SN DRSN VV009 M14/M17 A2975 RMK SN8 RESN /S02/ SLP083

CYQB;2008-12-21 22:20;CYQB 212220Z 08022G31KT 1/2SM R06/3500VP6000FT/D -SN BLSN VV007 M14/ RMK SN8

CYQB;2008-12-21 22:44;CYQB 212244Z 07020G31KT 1/2SM R06/2800V5000FT/D -SN BLSN VV003 M14/ RMK SN8

CYQB;2008-12-21 23:00;CYQB 212300Z 07017G27KT 1/2SM R06/5000FT/U -SN BLSN VV004 M14/M17 A2971 RMK SN8 /S03/ SLP068

CYQB;2008-12-21 23:16;CYQB 212316Z 07018G27KT 3/4SM R06/P6000FT/N -SN BLSN VV005 M14/ RMK SN8

CYQB;2008-12-21 23:28;CYQB 212328Z 07021G27KT 3/4SM R06/4000VP6000FT/U -SN BLSN VV007 M13/ RMK SN8

CYQB;2008-12-21 23:46;CYQB 212346Z 08017G24KT 1 1/4SM -SN BLSN VV011 M13/ RMK SN8

CYQB;2008-12-22 00:00;CYQB 220000Z 07013G27KT 1SM R06/P6000FT/U -SN BLSN VV010 M13/M16 A2967 RMK SN8 /S04/ SLP053

CYQB;2008-12-22 00:23;CYQB 220023Z 07020G35KT 3/4SM R06/3500VP6000FT/D -SN BLSN VV005 M13/ RMK SN8

CYQB;2008-12-22 01:00;CYQB 220100Z 07020G28KT 3/4SM R06/5500FT/D -SN BLSN VV005 M13/M15 A2961 RMK SN8 PRESFR /S01/ SLP033

CYQB;2008-12-22 01:17;CYQB 220117Z 07017G27KT 3/4SM R06/5000FT/D -SN BLSN VV004 M13/ RMK SN8 CIG VRB 3-5

CYQB;2008-12-22 02:00;CYQB 220200Z CCA 06024G30KT 3/4SM R06/5500FT/U -SN BLSN VV006 M13/M15 A2953 RMK SN8 PRESFR /S03/ SLP008

CYQB;2008-12-22 02:24;CYQB 220224Z 06017G28KT 3/4SM R06/4000VP6000FT/U -SN BLSN VV011 M13/ RMK SN8

CYQB;2008-12-22 02:32;CYQB 220232Z 07018G26KT 1 1/4SM -SN BLSN VV013 M13/ RMK SN8

CYQB;2008-12-22 03:00;CYQB 220300Z CCA 07020G28KT 2SM -SN DRSN VV014 M13/M15 A2947 RMK SN8 PRESFR SLP985

CYQB;2008-12-22 03:28;CYQB 220328Z 07017G22KT 1SM R06/P6000FT/D -SN DRSN VV009 M12/ RMK SN8

CYQB;2008-12-22 04:00;CYQB 220400Z 07018G25KT 3/4SM R06/3000VP6000FT/D -SN DRSN VV007 M13/M15 A2944 RMK SN8 /S04/ SLP975

CYQB;2008-12-22 04:25;CYQB 220425Z 07015G20KT 1SM R06/P6000FT/U -SN DRSN VV009 M12/ RMK SN8

CYQB;2008-12-22 05:00;CYQB 220500Z 06013KT 1SM R06/P6000FT/U -SN DRSN VV009 M12/M15 A2941 RMK SN8 SLP967

CYQB;2008-12-22 06:00;CYQB 220600Z 07005KT 1 1/2SM -SN DRSN VV010 M12/M14 A2939 RMK SN8 /S05/ SLP957

CYQB;2008-12-22 07:00;CYQB 220700Z 27005KT 1SM R06/P6000FT/N -SN VV007 M12/M28 A2940 RMK SN8 SLP961

CYQB;2008-12-22 08:00;CYQB 220800Z 22005KT 1SM R06/P6000FT/N -SN VV009 M12/M14 A2939 RMK SN8 /S01/ SLP960

CYQB;2008-12-22 08:42;CYQB 220842Z 23005KT 1 1/2SM -SN VV016 M12/ RMK SN8

CYQB;2008-12-22 09:00;CYQB 220900Z 24004KT 2SM -SN VV017 M12/M14 A2939 RMK SN8 SLP960

CYQB;2008-12-22 10:00;CYQB 221000Z 29002KT 1 1/2SM -SN VV016 M11/M13 A2941 RMK SN8 SLP964

CYQB;2008-12-22 10:52;CYQB 221052Z 29003KT 2SM -SN VV024 M11/ RMK SN8

CYQB;2008-12-22 11:00;CYQB 221100Z 27003KT 2SM -SN VV026 M11/M12 A2942 RMK SN8 SLP968

CYQB;2008-12-22 12:00;CYQB 221200Z 24006KT 4SM BR SCT030 OVC047 M11/M13 A2944 RMK SC3SC5 SLP974

CYQB;2008-12-22 12:39;CYQB 221239Z 26010KT 1 1/2SM -SN BKN040 OVC045 M11/ RMK SC5SC3

CYQB;2008-12-22 13:00;CYQB 221300Z 25009KT 1SM R06/P6000FT/D -SN VV016 M11/M14 A2944 RMK SN8 SLP976

CYQB;2008-12-22 13:23;CYQB 221323Z 24011KT 8SM FEW010 FEW030 OVC052 M12/ RMK SC1SC1SC6

CYQB;2008-12-22 14:00;CYQB 221400Z 25013KT 8SM FEW010 FEW030 BKN056 OVC220 M12/M14 A2946 RMK SC1SC1SC3CI3 SLP982

CYQB;2008-12-22 15:00;CYQB 221500Z 24011KT 10SM FEW010 BKN058 OVC220 M12/M15 A2948 RMK SC1SC4CS3 SLP989

CYQB;2008-12-22 16:00;CYQB 221600Z 24015KT 30SM FEW012 FEW120 OVC220 M11/M15 A2950 RMK SC1AC1CS7 SLP996

CYQB;2008-12-22 17:00;CYQB 221700Z 25013KT 30SM FEW015 SCT058 BKN070 OVC230 M11/M14 A2953 RMK SC1SC4AC2CS2 SLP007

CYQB;2008-12-22 18:00;CYQB 221800Z 29011KT 30SM FEW015 FEW034 BKN066 OVC220 M09/M14 A2958 RMK SC1SC2AC2CS2 SLP023

CYQB;2008-12-22 19:00;CYQB 221900Z 27020KT 20SM SCT030 OVC062 M10/M15 A2964 RMK SC3SC5 SLP042

CYQB;2008-12-22 20:00;CYQB 222000Z 27019G24KT 20SM FEW030 OVC064 M10/M15 A2970 RMK SC2SC6 SLP063

CYQB;2008-12-22 21:00;CYQB 222100Z 26015G20KT 20SM FEW030 SCT110 OVC210 M12/M16 A2977 RMK SC2AC1CI1 SLP087

CYQB;2008-12-22 22:00;CYQB 222200Z 26020G27KT 15SM BKN220 M12/M16 A2983 RMK CI2 SLP107

CYQB;2008-12-22 23:00;CYQB 222300Z CCA 26017KT 15SM BKN034 OVC080 M13/M17 A2989 RMK SC6AC2 PRESRR SLP129

CYQB;2008-12-23 00:00;CYQB 230000Z 26018KT 15SM BKN031 OVC210 M13/M17 A2995 RMK SC6CI2 SLP149

CYQB;2008-12-23 01:00;CYQB 230100Z 26019G25KT 15SM FEW036 M15/M18 A3001 RMK SC2 PRESRR SLP169

CYQB;2008-12-23 02:00;CYQB 230200Z 27018G24KT 15SM FEW040 M16/M24 A3006 RMK SC1 SLP187

CYQB;2008-12-23 03:00;CYQB 230300Z 27017KT 15SM FEW040 M17/M24 A3011 RMK SC1 SLP205

CYQB;2008-12-23 04:00;CYQB 230400Z 25015KT 15SM FEW040 M18/M24 A3015 RMK SC1 SLP218

CYQB;2008-12-23 05:00;CYQB 230500Z 25014KT 15SM FEW040 M19/M25 A3019 RMK SC1 SLP229

CYQB;2008-12-23 06:00;CYQB 230600Z 25013KT 15SM FEW030 FEW200 M19/M26 A3022 RMK SC1CI0 SLP242

CYQB;2008-12-23 07:00;CYQB 230700Z 26017G25KT 15SM FEW200 M20/M26 A3027 RMK CI0 SLP257

CYQB;2008-12-23 08:00;CYQB 230800Z 26016G22KT 15SM FEW200 M20/M26 A3032 RMK CI0 SLP274

CYQB;2008-12-23 09:00;CYQB 230900Z 26017KT 15SM FEW200 M21/M27 A3036 RMK CI0 SLP289

CYQB;2008-12-23 10:00;CYQB 231000Z 26016KT 15SM SCT200 M21/M27 A3038 RMK CI0 SLP296

CYQB;2008-12-23 11:00;CYQB 231100Z 26017KT 15SM FEW220 M22/M28 A3041 RMK CI0 SLP307

CYQB;2008-12-23 12:00;CYQB 231200Z 25014G19KT 15SM FEW025 FEW090 FEW200 M22/M28 A3044 RMK CU0AC0CI0 SLP317

CYQB;2008-12-23 13:00;CYQB 231300Z 25010KT 30SM FEW035 FEW090 FEW240 M23/M29 A3048 RMK CU1AC0CI0 SLP330

CYQB;2008-12-23 14:00;CYQB 231400Z 26008KT 5SM BR OVC031 M21/M27 A3052 RMK SC7 SHSN N SLP341

CYQB;2008-12-23 14:34;CYQB 231434Z 27008KT 6SM BR OVC028 M21/ RMK SC7

CYQB;2008-12-23 14:47;CYQB 231447Z 21008KT 5SM -SHSN BR OVC029 M21/ RMK SC7

CYQB;2008-12-23 15:00;CYQB 231500Z 27008KT 5SM IC BKN025 M21/M26 A3052 RMK SC5 SLP343

CYQB;2008-12-23 15:33;CYQB 231533Z 27008KT 10SM FEW020 FEW035 M20/ RMK SC1SC1

CYQB;2008-12-23 16:00;CYQB 231600Z 27005KT 10SM FEW017 FEW070 M20/M25 A3051 RMK SC1AC1 SLP339

CYQB;2008-12-23 17:00;CYQB 231700Z 26009KT 10SM FEW020 M18/M23 A3050 RMK SC1 SLP335

CYQB;2008-12-23 18:00;CYQB 231800Z 27013KT 20SM FEW022 FEW070 M17/M23 A3050 RMK SC1AC1 SLP335

CYQB;2008-12-23 19:00;CYQB 231900Z 27008KT 20SM FEW020 SCT220 M16/M22 A3048 RMK SC1CI0 SLP331

CYQB;2008-12-23 20:00;CYQB 232000Z 23005KT 30SM FEW020 BKN150 OVC220 M16/M22 A3050 RMK SC1AS2CS2 SLP335

CYQB;2008-12-23 21:00;CYQB 232100Z 00000KT 20SM FEW025 SCT160 OVC210 M16/M21 A3050 RMK SC1AS3CS1 DIST SH NE SLP335

CYQB;2008-12-23 22:00;CYQB 232200Z 34004KT 15SM FEW025 FEW050 SCT120 OVC200 M17/M22 A3050 RMK SC1SC1AS2CS2 SLP336

CYQB;2008-12-23 23:00;CYQB 232300Z 03004KT 15SM FEW019 BKN029 OVC049 M16/M21 A3049 RMK SC1SC5SC3 SLP333

CYQB;2008-12-23 23:44;CYQB 232344Z 01007KT 15SM -SN BKN023 BKN048 OVC100 M16/ RMK SC6SC2AS1

CYQB;2008-12-24 00:00;CYQB 240000Z 01006KT 15SM -SN OVC025 M16/M21 A3046 RMK SC8 SLP324

CYQB;2008-12-24 01:00;CYQB 240100Z 02003KT 15SM SCT025 BKN042 OVC100 M15/M20 A3044 RMK SC4SC3AS1 INTMT -SN SLP318

CYQB;2008-12-24 02:00;CYQB 240200Z CCA 03005KT 10SM -SN OVC038 M15/M19 A3041 RMK SC8 -SN INTMT SLP307

CYQB;2008-12-24 03:00;CYQB 240300Z 07004KT 10SM OVC039 M14/M19 A3038 RMK SC8 INTMT -SN SLP294

CYQB;2008-12-24 03:42;CYQB 240342Z 10002KT 1 1/2SM -SN VV014 M14/ RMK SN8

CYQB;2008-12-24 04:00;CYQB 240400Z 03004KT 1 1/2SM -SN VV013 M14/M20 A3035 RMK SN8 SLP284

CYQB;2008-12-24 05:00;CYQB 240500Z 02003KT 1 1/2SM -SN VV011 M13/M16 A3033 RMK SN8 SLP279

CYQB;2008-12-24 05:50;CYQB 240550Z 03004KT 4SM -SN OVC025 M13/ RMK SC8

CYQB;2008-12-24 06:00;CYQB 240600Z 02005KT 4SM -SN OVC014 M12/M15 A3029 RMK SC8 SLP263

CYQB;2008-12-24 06:33;CYQB 240633Z 02004KT 1 1/2SM -SN VV010 M12/ RMK SN8

CYQB;2008-12-24 07:00;CYQB 240700Z 36004KT 1 1/2SM -SN VV009 M12/M14 A3026 RMK SN8 SLP254

CYQB;2008-12-24 08:00;CYQB 240800Z 02003KT 1 1/2SM -SN VV008 M11/M13 A3022 RMK SN8 /S01/ SLP239

CYQB;2008-12-24 09:00;CYQB 240900Z 02004KT 1 1/4SM -SN VV007 M10/M12 A3018 RMK SN8 /S02/ SLP226

CYQB;2008-12-24 10:00;CYQB 241000Z 36003KT 1 1/4SM -SN VV006 M10/M11 A3016 RMK SN8 SLP219

CYQB;2008-12-24 11:00;CYQB 241100Z 01003KT 1SM R06/P6000FT/D -SN VV009 M10/M11 A3013 RMK SN8 /S03/ SLP211

CYQB;2008-12-24 12:00;CYQB 241200Z 00000KT 1 1/2SM -SN VV011 M09/M11 A3011 RMK SN8 SLP202

CYQB;2008-12-24 13:00;CYQB 241300Z 00000KT 1 3/4SM -SN OVC014 M09/M11 A3009 RMK SN3SC5 SLP197

CYQB;2008-12-24 14:00;CYQB 241400Z CCA 00000KT 2SM -SN SCT014 OVC019 M08/M10 A3010 RMK SN2SF2SC4 SLP199

CYQB;2008-12-24 15:00;CYQB 241500Z 00000KT 2SM -SN OVC016 M07/M09 A3009 RMK SN2SC6 SLP197

CYQB;2008-12-24 16:00;CYQB 241600Z 00000KT 2SM -SN OVC016 M07/M09 A3004 RMK SN2SC6 OBS TAKEN +25 SLP179

CYQB;2008-12-24 17:00;CYQB 241700Z 00000KT 4SM -SN OVC016 M06/M08 A3003 RMK SC8 SLP175

CYQB;2008-12-24 18:00;CYQB 241800Z 00000KT 3SM -SN VV011 M05/M07 A3001 RMK SN8 /S02/ SLP169

CYQB;2008-12-24 18:42;CYQB 241842Z 00000KT 6SM -SN OVC020 M05/ RMK SC8

CYQB;2008-12-24 19:00;CYQB 241900Z 00000KT 6SM -SN OVC032 M05/M07 A2998 RMK SC8 SLP157

CYQB;2008-12-24 20:00;CYQB 242000Z 00000KT 6SM -SN OVC015 M05/M07 A2994 RMK SC8 SLP146

CYQB;2008-12-24 20:24;CYQB 242024Z 00000KT 4SM -SN OVC013 M05/ RMK SC8

CYQB;2008-12-24 21:00;CYQB 242100Z 00000KT 3SM -SN OVC014 M05/M06 A2991 RMK SN2SC6 /S01/ SLP132

CYQB;2008-12-24 21:43;CYQB 242143Z 05003KT 1 1/4SM -SN SCT013 OVC021 M04/ RMK SN2SF2SC4

CYQB;2008-12-24 22:00;CYQB 242200Z 07003KT 1 1/4SM -SN OVC021 M04/M06 A2986 RMK SN2SC6 /S02/ SLP117

CYQB;2008-12-24 22:42;CYQB 242242Z 05004KT 2SM -SN BKN009 OVC015 M04/ RMK SN2SC5SC2

CYQB;2008-12-24 23:00;CYQB 242300Z 04004KT 3SM -SN BR BKN009 OVC015 M04/M06 A2982 RMK SC6SC2 SLP102

CYQB;2008-12-24 23:24;CYQB 242324Z 06004KT 3SM BR BKN009 OVC015 M04/ RMK SC5SC3

CYQB;2008-12-24 23:35;CYQB 242335Z 07005KT 2 1/2SM -SN SCT009 OVC015 M04/ RMK SC3SC5 -SN INTMT

CYQB;2008-12-25 00:00;CYQB 250000Z 07005KT 2SM -SN BKN009 OVC015 M04/M05 A2974 RMK SC6SC2 PRESFR -SN INTMT /S03/ SLP077

CYQB;2008-12-25 00:54;CYQB 250054Z 07011KT 1 1/4SM -SN -FZRA BR BKN003 OVC009 M03/ RMK FG2SF6SC1

CYQB;2008-12-25 01:00;CYQB 250100Z 08011KT 1 1/4SM -SN -FZRA BR OVC003 M03/M05 A2961 RMK FG2SC6 SLP031

CYQB;2008-12-25 02:00;CYQB 250200Z 07009KT 1 1/4SM -SN -FZRA BR FEW003 BKN010 OVC015 M03/M04 A2950 RMK SF2SC4SC2 PRESFR /S01/ SLP996

CYQB;2008-12-25 02:25;CYQB 250225Z 07012KT 1 1/4SM -FZRA BR BKN003 OVC010 M02/ RMK SF6SC2

CYQB;2008-12-25 03:00;CYQB 250300Z 07008KT 2SM -FZRA BR BKN002 OVC009 M02/M03 A2941 RMK SF6SC2 SLP963

CYQB;2008-12-25 04:00;CYQB 250400Z 07006KT 2SM -FZRA BR OVC002 M01/M02 A2933 RMK SF8 SLP936

CYQB;2008-12-25 05:00;CYQB 250500Z 06003KT 3SM -FZRA BR BKN002 OVC010 M00/M01 A2932 RMK SF6SC2 SLP932

CYQB;2008-12-25 06:00;CYQB 250600Z 08003KT 1 1/2SM -RA BR OVC002 M00/M01 A2927 RMK SF8 VRY LGT PCPN SLP917

CYQB;2008-12-25 06:41;CYQB 250641Z 23006KT 6SM BR FEW002 OVC019 02/ RMK SF2SC6

CYQB;2008-12-25 07:00;CYQB 250700Z 24024G30KT 6SM -RA BR FEW002 OVC023 04/03 A2925 RMK SF2SC6 SLP909

CYQB;2008-12-25 08:00;CYQB 250800Z 24026G32KT 10SM OVC025 04/02 A2927 RMK SC8 SLP915

CYQB;2008-12-25 09:00;CYQB 250900Z 24033G41KT 10SM -RA OVC030 04/01 A2928 RMK SC8 SLP918

CYQB;2008-12-25 10:00;CYQB 251000Z 26037G44KT 15SM -RA BKN035 OVC046 02/M01 A2936 RMK SC6SC2 SLP945

CYQB;2008-12-25 10:20;CYQB 251020Z 28035G41KT 15SM SCT035 02/ RMK SC4

CYQB;2008-12-25 11:00;CYQB 251100Z 28023G38KT 15SM SCT030 01/M05 A2950 RMK SC4 PRESRR SLP993

CYQB;2008-12-25 12:00;CYQB 251200Z 28025G37KT 15SM FEW008 BKN035 M01/M06 A2964 RMK SF1SC6 PRESRR SLP040

CYQB;2008-12-25 13:00;CYQB 251300Z 28018KT 15SM -SN FEW010 BKN043 M02/M07 A2974 RMK CF1SC4 PRESRR SLP075

CYQB;2008-12-25 14:00;CYQB 251400Z 28022G32KT 10SM -SHSN FEW010 BKN039 BKN051 M03/M08 A2983 RMK CF1SC4SC1 PRESRR SLP107

CYQB;2008-12-25 15:00;CYQB 251500Z CCA 28024G34KT 15SM SCT039 M03/M09 A2993 RMK SC4 PRESRR SLP140

CYQB;2008-12-25 16:00;CYQB 251600Z 28019G27KT 25SM SCT038 M03/M09 A2999 RMK SC3 PRESRR SLP159

CYQB;2008-12-25 17:00;CYQB 251700Z 29019G26KT 30SM FEW039 M04/M12 A3003 RMK SC2 SLP173

CYQB;2008-12-25 18:00;CYQB 251800Z 27020G27KT 30SM FEW045 M05/M12 A3008 RMK SC2 SLP189

CYQB;2008-12-25 19:00;CYQB 251900Z 29015G21KT 30SM FEW045 M05/M13 A3013 RMK SC2 SLP208

CYQB;2008-12-25 20:00;CYQB 252000Z 28013G19KT 30SM FEW045 M07/M15 A3019 RMK SC1 SLP228

CYQB;2008-12-25 21:00;CYQB 252100Z 29016G24KT 30SM FEW045 M08/M17 A3024 RMK SC1 SLP243

CYQB;2008-12-25 22:00;CYQB 252200Z 27012KT 15SM FEW045 M10/M17 A3029 RMK SC1 SLP261

CYQB;2008-12-25 23:00;CYQB 252300Z 28015KT 15SM FEW240 M11/M18 A3033 RMK CI1 SLP276

CYQB;2008-12-26 00:00;CYQB 260000Z 29011KT 15SM FEW240 M12/M20 A3037 RMK CI1 SLP291

CYQB;2008-12-26 01:00;CYQB 260100Z 29005KT 15SM FEW240 M14/M20 A3042 RMK CI1 SLP306

CYQB;2008-12-26 02:00;CYQB 260200Z 29004KT 15SM SKC M14/M20 A3044 RMK SLP315

CYQB;2008-12-26 03:00;CYQB 260300Z 27005KT 15SM SKC M17/M28 A3047 RMK SLP325

CYQB;2008-12-26 04:00;CYQB 260400Z 27004KT 15SM SKC M18/M25 A3048 RMK SLP328

CYQB;2008-12-26 05:00;CYQB 260500Z 32009KT 15SM FEW210 M17/M23 A3048 RMK CI1 SLP329

CYQB;2008-12-26 06:00;CYQB 260600Z 26003KT 15SM SKC M18/M25 A3052 RMK SLP340

CYQB;2008-12-26 07:00;CYQB 260700Z 24007KT 15SM SKC M19/M27 A3054 RMK SLP347

CYQB;2008-12-26 08:00;CYQB 260800Z 27004KT 15SM SKC M18/M25 A3053 RMK SLP345

CYQB;2008-12-26 09:00;CYQB 260900Z 24005KT 15SM SKC M22/M27 A3054 RMK SLP350

CYQB;2008-12-26 10:00;CYQB 261000Z 00000KT 15SM SKC M19/M26 A3056 RMK SLP356

CYQB;2008-12-26 11:00;CYQB 261100Z 35002KT 15SM SKC M22/M28 A3058 RMK SLP361

CYQB;2008-12-26 12:00;CYQB 261200Z 04006KT 30SM FEW015 M21/M26 A3058 RMK SF1 SLP364

CYQB;2008-12-26 13:00;CYQB 261300Z 24002KT 30SM FEW015 M22/M28 A3061 RMK SF1 SLP373

CYQB;2008-12-26 14:00;CYQB 261400Z 03003KT 30SM FEW015 FEW220 M19/M24 A3063 RMK SF1CI1 SLP380

CYQB;2008-12-26 15:00;CYQB 261500Z 00000KT 30SM BKN220 M17/M24 A3064 RMK CI2 SLP384

CYQB;2008-12-26 16:00;CYQB 261600Z 00000KT 30SM OVC210 M16/M22 A3063 RMK CI2 SLP381

CYQB;2008-12-26 17:00;CYQB 261700Z 00000KT 30SM FEW150 OVC210 M14/M21 A3059 RMK AC1CS3 SLP368

CYQB;2008-12-26 18:00;CYQB 261800Z 28002KT 30SM FEW160 OVC210 M14/M21 A3058 RMK AC1CS4 SLP363

CYQB;2008-12-26 19:00;CYQB 261900Z 27003KT 30SM BKN180 OVC210 M13/M19 A3057 RMK AS5CS3 SLP360

CYQB;2008-12-26 20:00;CYQB 262000Z 18004KT 30SM OVC160 M12/M19 A3057 RMK AS8 SLP359

CYQB;2008-12-26 21:00;CYQB 262100Z 29003KT 30SM OVC120 M12/M18 A3055 RMK AS8 SLP354

CYQB;2008-12-26 22:00;CYQB 262200Z 00000KT 15SM OVC070 M12/M18 A3054 RMK AC8 SLP349

CYQB;2008-12-26 23:00;CYQB 262300Z 01003KT 15SM OVC077 M12/M17 A3054 RMK AC8 SLP350

CYQB;2008-12-27 00:00;CYQB 270000Z 02004KT 15SM OVC095 M11/M17 A3053 RMK AC8 SLP345

CYQB;2008-12-27 01:00;CYQB 270100Z 03005KT 15SM OVC110 M12/M17 A3051 RMK AC8 SLP340

CYQB;2008-12-27 02:00;CYQB 270200Z 03004KT 15SM OVC130 M11/M17 A3050 RMK AC8 SLP336

CYQB;2008-12-27 03:00;CYQB 270300Z 02004KT 15SM OVC130 M11/M16 A3048 RMK AC8 SLP329

CYQB;2008-12-27 04:00;CYQB 270400Z 02005KT 15SM OVC100 M10/M16 A3044 RMK AC8 SLP317

CYQB;2008-12-27 05:00;CYQB 270500Z 04005KT 15SM OVC060 M10/M15 A3043 RMK SC8 SLP311

CYQB;2008-12-27 06:00;CYQB 270600Z 06007KT 15SM OVC060 M09/M14 A3040 RMK SC8 SLP302

CYQB;2008-12-27 07:00;CYQB 270700Z 07008KT 15SM -SN OVC064 M08/M13 A3037 RMK SC8 VRY LGT PCPN SLP290

CYQB;2008-12-27 08:00;CYQB 270800Z 07007KT 10SM -SN SCT035 OVC050 M08/M12 A3036 RMK SC4SC4 SLP288

CYQB;2008-12-27 09:00;CYQB 270900Z 06007KT 6SM -SN BKN023 OVC040 M08/M11 A3034 RMK SC5SC3 SLP281

CYQB;2008-12-27 10:00;CYQB 271000Z 06010KT 4SM -SN OVC035 M08/M10 A3032 RMK SC8 SLP273

CYQB;2008-12-27 11:00;CYQB 271100Z 08010KT 4SM -SN FEW012 OVC034 M08/M10 A3030 RMK SC1SC7 SLP268

CYQB;2008-12-27 11:57;CYQB 271157Z 07011G16KT 15SM OVC031 M08/ RMK SC8

CYQB;2008-12-27 12:00;CYQB 271200Z 07011G16KT 15SM OVC031 M08/M10 A3028 RMK SC8 SLP261

CYQB;2008-12-27 13:00;CYQB 271300Z 07011KT 12SM FEW010 OVC030 M07/M09 A3026 RMK SC1SC7 SLP252

CYQB;2008-12-27 14:00;CYQB 271400Z 07013G18KT 12SM FEW010 OVC028 M07/M09 A3023 RMK SC1SC7 SLP244

CYQB;2008-12-27 14:14;CYQB 271414Z 07014KT 12SM -PL FEW010 OVC028 M07/ RMK SC1SC7

CYQB;2008-12-27 14:17;CYQB 271417Z CCA 07014KT 12SM -PL FEW010 OVC028 M07/ RMK SC1SC7

CYQB;2008-12-27 14:19;CYQB 271419Z 07010G17KT 10SM -PL -FZRA FEW010 OVC028 M07/ RMK SC1SC7

CYQB;2008-12-27 15:00;CYQB 271500Z 07010KT 10SM -PL -FZRA FEW010 OVC029 M06/M09 A3025 RMK SC1SC7 SLP249

CYQB;2008-12-27 15:56;CYQB 271556Z 08010G16KT 8SM -FZRA FEW008 OVC022 M05/ RMK SC1SC7 REPL

CYQB;2008-12-27 16:00;CYQB 271600Z 09008G16KT 8SM -FZRA FEW008 OVC022 M06/M08 A3019 RMK SF1SC7 REPL SLP231

CYQB;2008-12-27 16:32;CYQB 271632Z 07010KT 8SM -FZRA BKN008 OVC022 M05/ RMK SF7SC1 REPL

CYQB;2008-12-27 17:00;CYQB 271700Z 07011KT 8SM -FZRA BKN008 OVC022 M06/M07 A3016 RMK SF6SC2 SLP218

CYQB;2008-12-27 17:45;CYQB 271745Z 08012KT 6SM -FZDZ BR OVC007 M05/ RMK SF8 REFZRA

CYQB;2008-12-27 18:00;CYQB 271800Z 07010KT 9SM -FZDZ BKN006 OVC014 M05/M07 A3011 REFZRA RMK SF6SC2 SLP202

CYQB;2008-12-27 18:36;CYQB 271836Z 07009KT 2 1/2SM -FZDZ BR OVC005 M05/ RMK SF8

CYQB;2008-12-27 19:00;CYQB 271900Z 08010KT 3SM R06/4500VP6000FT/D -FZDZ BR BKN005 OVC012 M05/M07 A3008 RMK SF7SC1 VIS VRB 2-4 ICE ON INDICATOR SLP193

CYQB;2008-12-27 20:00;CYQB 272000Z 07012KT 2SM -FZDZ BR BKN004 OVC012 M05/M07 A3008 RMK SF6SC2 ICE ON INDICATOR SLP191

CYQB;2008-12-27 21:00;CYQB 272100Z 07010KT 1 3/4SM -FZDZ BR BKN004 OVC009 M05/M07 A3006 RMK SF7SC1 CIG VRB 3-5 ICE ON INDICATOR SLP185

CYQB;2008-12-27 22:00;CYQB 272200Z 07006KT 2SM -FZDZ BR OVC003 M05/M06 A3006 RMK SF8 CIG VRB 2-4 ICE ON INDICATOR SLP183

CYQB;2008-12-27 23:00;CYQB 272300Z 08009KT 2 1/4SM -FZRA BR BKN004 OVC010 M05/M06 A3003 REFZDZ RMK SF7SC1 CIG VRB 3-5 ICE ON INDICATOR SLP176

CYQB;2008-12-27 23:44;CYQB 272344Z 08006KT 3SM -FZDZ -FZRA BR OVC003 M05/ RMK SF8 CIG VRB 2-4 -FZDZ INTMT

CYQB;2008-12-28 00:00;CYQB 280000Z 07006KT 1 3/4SM -FZRA -FZDZ BR OVC003 M05/M06 A3002 RMK SF8 CIG VRB 2-4 VIS VRB 11/4-21/4 -FZDZ INTMT ICE ON INDICATOR SLP169

CYQB;2008-12-28 00:48;CYQB 280048Z 08008KT 2 1/2SM -PL -FZRA BR BKN003 OVC009 M04/ REFZDZ RMK SF6SC2

CYQB;2008-12-28 01:00;CYQB 280100Z 07007KT 3SM -PL -FZRA BR BKN004 OVC009 M04/M06 A2999 REFZDZ RMK SF6SC2 CIG VRB 3-5 ICE ON INDICATOR SLP161

CYQB;2008-12-28 01:39;CYQB 280139Z 07007KT 4SM -FZRA BR BKN004 OVC009 M04/ REPL RMK SF6SC2 CIG VRB 3-5

CYQB;2008-12-28 02:00;CYQB 280200Z CCA 06006KT 3SM -FZRA -FZDZ BR BKN003 OVC008 M04/M05 A2996 REPL RMK SF7SC1 ICE ON INDICATOR SLP150

CYQB;2008-12-28 03:00;CYQB 280300Z CCA 09006KT 2 1/2SM -FZRA BR OVC003 M03/M05 A2993 RMK SF8 SLP140

CYQB;2008-12-28 04:00;CYQB 280400Z 07007KT 3SM -FZRA BR OVC003 M03/M04 A2989 RMK SF8 SLP127

CYQB;2008-12-28 05:00;CYQB 280500Z 06005KT 6SM -FZRA BR BKN003 OVC009 M02/M03 A2985 RMK SF6SF2 SLP113

CYQB;2008-12-28 06:00;CYQB 280600Z 07005KT 6SM -FZRA BR BKN003 OVC012 M02/M03 A2981 RMK SF6SF2 SLP100

CYQB;2008-12-28 07:00;CYQB 280700Z 08004KT 1 1/2SM -FZRA BR BKN002 OVC008 M01/M02 A2978 RMK SF6SF2 SLP090

CYQB;2008-12-28 08:00;CYQB 280800Z 07005KT 1 1/2SM -FZRA BR BKN002 OVC008 M01/M02 A2975 RMK SF7SF1 SLP077

CYQB;2008-12-28 09:00;CYQB 280900Z 11003KT 3SM BR BKN002 OVC007 M01/M02 A2972 REFZRA RMK SF6SF2 SLP069

CYQB;2008-12-28 10:00;CYQB 281000Z 08003KT 3SM BR SCT001 OVC007 M01/M02 A2969 RMK SF4SF4 SLP058

CYQB;2008-12-28 11:00;CYQB 281100Z 11003KT 3SM BR OVC005 M01/M02 A2966 RMK SF8 SLP049

CYQB;2008-12-28 11:37;CYQB 281137Z 11002KT 3SM BR BKN002 OVC004 M01/ RMK SF6SF2

CYQB;2008-12-28 12:00;CYQB 281200Z 00000KT 3SM BR SCT002 BKN004 OVC015 M01/M02 A2962 RMK SF3SF4SC1 SLP036

CYQB;2008-12-28 12:13;CYQB 281213Z 00000KT 4SM BR SCT001 BKN048 BKN090 BKN220 M01/ RMK SF3SC2AC1CI1 VIS LWR N

CYQB;2008-12-28 12:40;CYQB 281240Z 00000KT 4SM BR BKN007 OVC048 M01/ RMK SF6SC1

CYQB;2008-12-28 13:00;CYQB 281300Z 00000KT 3SM BR BKN003 M01/M01 A2961 RMK SF7 SLP031

CYQB;2008-12-28 13:51;CYQB 281351Z 00000KT 2SM BR OVC002 M00/ RMK SF8

CYQB;2008-12-28 14:00;CYQB 281400Z 16002KT 2SM BR OVC002 M00/M01 A2957 RMK SF8 SLP018

CYQB;2008-12-28 14:12;CYQB 281412Z 20004KT 1/2SM R06/3500VP6000FT/D FG OVC002 00/ RMK FG7SF1

CYQB;2008-12-28 14:32;CYQB 281432Z 22003KT 1/4SM R06/1800FT/N FG VV002 00/ RMK FG8

CYQB;2008-12-28 15:00;CYQB 281500Z 15002KT 1/4SM R06/1600FT/N FG OVC038 00/M00 A2956 RMK FG6SC2 SLP012

CYQB;2008-12-28 15:30;CYQB 281530Z 14003KT 3/8SM R06/2000FT/N FG BKN002 OVC040 00/ RMK FG3SF4SC1

CYQB;2008-12-28 16:00;CYQB 281600Z 13003KT 3/8SM R06/2200FT/N FG BKN002 OVC004 00/M00 A2951 RMK FG3SF4SF1 SLP996

CYQB;2008-12-28 17:00;CYQB 281700Z 35002KT 1/4SM R06/1600FT/N FG BKN002 OVC005 01/M00 A2945 RMK FG6SF2SF1 PRESFR SLP976

CYQB;2008-12-28 18:00;CYQB 281800Z 00000KT 1/2SM R06/2800V4500FT/U FG SCT002 OVC046 01/00 A2939 RMK FG2SF2SC5 SLP956

CYQB;2008-12-28 18:19;CYQB 281819Z 00000KT 1SM R06/6000FT/N -RA BR OVC046 01/ RMK FG2SC6

CYQB;2008-12-28 19:00;CYQB 281900Z 00000KT 1 1/2SM -RA BR OVC036 01/M00 A2937 RMK FG1SC7 SLP948

CYQB;2008-12-28 19:27;CYQB 281927Z 23018G24KT 3SM -RA BR BKN018 OVC048 04/ RMK SC6SC2

CYQB;2008-12-28 20:00;CYQB 282000Z 25010KT 10SM FEW012 OVC060 04/04 A2939 RMK SF1SC7 SLP954

CYQB;2008-12-28 20:16;CYQB 282016Z 25007KT 10SM -SHRA FEW012 BKN064 05/ RMK SF1SC6

CYQB;2008-12-28 20:51;CYQB 282051Z 23020G27KT 10SM FEW015 BKN100 07/ RMK SC1SC6

CYQB;2008-12-28 21:00;CYQB 282100Z CCA 23023G31KT 10SM FEW015 BKN100 07/04 A2938 RMK SC1AC5 SLP951

CYQB;2008-12-28 21:44;CYQB 282144Z 24040G53KT 10SM SQ FEW015 BKN040 06/ RMK SC1SC6

CYQB;2008-12-28 22:00;CYQB 282200Z 24032G51KT 10SM FEW015 BKN034 05/M01 A2940 RMK SC1SC6 SLP958

CYQB;2008-12-28 23:00;CYQB 282300Z 23030G42KT 10SM SCT033 BKN060 04/M02 A2943 RMK SC3SC4 SLP968

CYQB;2008-12-29 00:00;CYQB 290000Z 23035G44KT 10SM OVC035 03/M03 A2943 RMK SC8 SLP969

CYQB;2008-12-29 01:00;CYQB 290100Z 24034G43KT 10SM OVC035 03/M03 A2942 RMK SC8 SLP967

CYQB;2008-12-29 01:18;CYQB 290118Z 24035G45KT 10SM -SHRA OVC031 03/ RMK SC8

CYQB;2008-12-29 02:00;CYQB 290200Z 25031G42KT 15SM OVC025 02/M03 A2944 RMK SC8 SLP971

CYQB;2008-12-29 03:00;CYQB 290300Z 25034G44KT 15SM -SHRA BKN025 OVC036 02/M02 A2945 RMK SC5SC3 SLP976

CYQB;2008-12-29 04:00;CYQB 290400Z 25032G41KT 15SM OVC037 02/M02 A2950 RMK SC8 SLP992

CYQB;2008-12-29 05:00;CYQB 290500Z 26033G38KT 15SM OVC033 02/M03 A2960 RMK SC8 SLP025

CYQB;2008-12-29 06:00;CYQB 290600Z 27020G31KT 15SM OVC036 02/M04 A2965 RMK SC8 SLP045

CYQB;2008-12-29 07:00;CYQB 290700Z 27025G31KT 15SM OVC039 00/M05 A2971 RMK SC8 SLP063

CYQB;2008-12-29 08:00;CYQB 290800Z 26014G21KT 15SM BKN040 M01/M07 A2976 RMK SC7 SLP080

CYQB;2008-12-29 09:00;CYQB 290900Z 29022G28KT 15SM FEW042 M02/M08 A2977 RMK SC2 SLP083

CYQB;2008-12-29 10:00;CYQB 291000Z 29021G27KT 15SM FEW045 M03/M09 A2979 RMK SC1 SLP091

CYQB;2008-12-29 11:00;CYQB 291100Z 28013KT 15SM FEW030 M04/M09 A2982 RMK SC1 SLP102

CYQB;2008-12-29 12:00;CYQB 291200Z 26013G18KT 20SM FEW030 FEW090 M05/M10 A2985 RMK SC1AC1 SLP113

CYQB;2008-12-29 13:00;CYQB 291300Z 24009KT 20SM FEW030 FEW090 SCT260 M05/M10 A2986 RMK SC1AC1CI2 SLP115

CYQB;2008-12-29 14:00;CYQB 291400Z 26013KT 20SM FEW030 FEW090 BKN230 M05/M10 A2987 RMK SC1AC1CI5 SLP119

CYQB;2008-12-29 15:00;CYQB 291500Z 26015KT 20SM FEW030 FEW090 BKN210 M05/M10 A2988 RMK SC1AC1CI5 SLP123

CYQB;2008-12-29 16:00;CYQB 291600Z 26011G16KT 20SM FEW030 FEW090 BKN210 M04/M10 A2987 RMK SC1AC1CI6 SLP118

CYQB;2008-12-29 17:00;CYQB 291700Z 25011KT 20SM FEW030 FEW100 OVC180 M05/M10 A2984 RMK SC1AC1AC6 SLP110

CYQB;2008-12-29 18:00;CYQB 291800Z 26012G17KT 20SM FEW030 OVC160 M04/M10 A2983 RMK SC1AC6 SLP104

CYQB;2008-12-29 19:00;CYQB 291900Z 25011KT 20SM FEW030 BKN160 M04/M09 A2981 RMK SC1AC6 SLP098

CYQB;2008-12-29 20:00;CYQB 292000Z 25008KT 25SM FEW030 SCT160 BKN200 M04/M09 A2979 RMK SC1AC3CI2 SLP092

CYQB;2008-12-29 21:00;CYQB 292100Z 24006KT 25SM FEW030 SCT160 BKN200 M05/M10 A2977 RMK SC1AC3CS2 OBS TAKEN +12 SLP084

CYQB;2008-12-29 22:00;CYQB 292200Z 25007KT 30SM FEW160 SCT200 M06/M10 A2975 RMK AC1CI2 SLP080

CYQB;2008-12-29 23:00;CYQB 292300Z 36003KT 15SM SCT210 M05/M09 A2973 RMK CI1 SLP073

CYQB;2008-12-30 00:00;CYQB 300000Z 33004KT 15SM FEW150 BKN210 M07/M11 A2971 RMK AC2CI1 SLP065

CYQB;2008-12-30 01:00;CYQB 300100Z 00000KT 15SM FEW150 BKN210 M08/M12 A2970 RMK AC1CI1 SLP060

CYQB;2008-12-30 02:00;CYQB 300200Z 03005KT 15SM FEW080 SCT160 BKN250 M08/M11 A2965 RMK AC2AC2CI1 SLP046

CYQB;2008-12-30 03:00;CYQB 300300Z 00000KT 15SM FEW030 BKN160 M09/M12 A2963 RMK SC1AC6 SLP037

CYQB;2008-12-30 04:00;CYQB 300400Z 02005KT 15SM FEW019 BKN039 OVC160 M08/M11 A2961 RMK SC2SC4AC2 SLP030

CYQB;2008-12-30 05:00;CYQB 300500Z 36006KT 15SM FEW019 OVC035 M08/M11 A2958 RMK SC2SC6 SLP020

CYQB;2008-12-30 06:00;CYQB 300600Z 04006KT 15SM OVC041 M07/M11 A2954 RMK SC8 SLP007

CYQB;2008-12-30 07:00;CYQB 300700Z 02004KT 6SM -SN SCT028 BKN038 OVC048 M07/M10 A2951 RMK SC3SC3SC2 SLP997

CYQB;2008-12-30 08:00;CYQB 300800Z 02003KT 10SM -SN FEW038 OVC044 M07/M10 A2948 RMK SC2SC6 SLP989

CYQB;2008-12-30 09:00;CYQB 300900Z 04006KT 4SM -SN OVC027 M07/M09 A2946 RMK SC8 SLP981

CYQB;2008-12-30 10:00;CYQB 301000Z 07008KT 1SM R06/P6000FT/N -SN OVC023 M06/M09 A2945 RMK SC8 SLP976

CYQB;2008-12-30 11:00;CYQB 301100Z CCA 07009G15KT 4SM -SN OVC024 M06/M08 A2944 RMK SC8 /S01/ SLP974

CYQB;2008-12-30 12:00;CYQB 301200Z 06009KT 4SM -SN OVC030 M05/M08 A2945 RMK SC8 SLP976

CYQB;2008-12-30 13:00;CYQB 301300Z 07011KT 4SM -SN FEW025 OVC035 M06/M08 A2945 RMK SC2SC6 SLP976

CYQB;2008-12-30 14:00;CYQB 301400Z 07009KT 3SM -SN OVC030 M05/M07 A2945 RMK SC8 /S01/ SLP979

CYQB;2008-12-30 14:25;CYQB 301425Z CCA 07009KT 1 1/2SM -SN VV012 M05/ RMK SN8

CYQB;2008-12-30 14:52;CYQB 301452Z 07008KT 3/4SM R06/P6000FT/U -SN VV008 M05/ RMK SN8

CYQB;2008-12-30 15:00;CYQB 301500Z 07008KT 3/4SM R06/P6000FT/U -SN VV008 M05/M07 A2947 RMK SN8 SLP985

CYQB;2008-12-30 15:13;CYQB 301513Z 06006KT 3SM -SN FEW008 OVC026 M05/ RMK SF1SC7

CYQB;2008-12-30 16:00;CYQB 301600Z 06004KT 4SM -SN FEW007 OVC022 M04/M06 A2948 RMK SF2SC6 SLP989

CYQB;2008-12-30 16:24;CYQB 301624Z 07004KT 2 1/2SM -SN FEW007 OVC023 M04/ RMK SF2SC6

CYQB;2008-12-30 17:00;CYQB 301700Z 16002KT 5SM -SN FEW009 OVC020 M04/M06 A2950 RMK SF1SC7 /S02/ SLP995

CYQB;2008-12-30 17:22;CYQB 301722Z 28007KT 3/4SM R06/P6000FT/N -SN VV008 M04/ RMK SN8

CYQB;2008-12-30 18:00;CYQB 301800Z 24007KT 1SM R06/P6000FT/N -SN VV010 M04/M06 A2953 RMK SN8 /S03/ SLP005

CYQB;2008-12-30 18:28;CYQB 301828Z 23012KT 4SM -SN FEW010 SCT013 OVC016 M04/ RMK SF2SC2SC3

CYQB;2008-12-30 18:48;CYQB 301848Z 26022G27KT 1/2SM R06/P6000FT/D -SN BLSN VV010 M05/ RMK SN8

CYQB;2008-12-30 19:00;CYQB 301900Z 26020G26KT 3/4SM R06/6000FT/D -SN BLSN OVC025 M06/M08 A2956 RMK BLSN2SC6 SLP016

CYQB;2008-12-30 19:19;CYQB 301919Z 27022KT 3SM -SN BLSN FEW025 OVC038 M06/ RMK SC2SC6

CYQB;2008-12-30 20:00;CYQB 302000Z CCA 26017KT 5SM -SN FEW025 BKN050 M07/M10 A2964 REBLSN RMK SC2SC4 PRESRR SLP042

CYQB;2008-12-30 20:29;CYQB 302029Z 26019G25KT 2 1/2SM -SHSN BLSN OVC042 M08/ RMK SN4SC4

CYQB;2008-12-30 20:45;CYQB 302045Z 26014G25KT 3SM -SHSN BLSN OVC041 M08/ RMK SN2SC6 VIS VRB 2-4

CYQB;2008-12-30 21:00;CYQB 302100Z 27014G19KT 3SM -SHSN BLSN OVC045 M08/M12 A2970 RMK SN2SC6 VIS VRB 2-4 PRESRR SLP062

CYQB;2008-12-30 21:29;CYQB 302129Z 26012KT 8SM FEW040 M09/ REBLSN RMK SC2

CYQB;2008-12-30 22:00;CYQB 302200Z 26016G24KT 10SM FEW025 SCT070 M10/M14 A2975 REBLSN RMK SC2AC2 PRESRR SLP079

CYQB;2008-12-30 23:00;CYQB 302300Z 27018G24KT 15SM FEW025 FEW060 M12/M16 A2979 RMK SC2SC1 SLP092

CYQB;2008-12-31 00:00;CYQB 310000Z 26010G15KT 15SM FEW025 FEW080 M13/M17 A2981 RMK SC1AC1 SLP100

CYQB;2008-12-31 01:00;CYQB 310100Z 26015KT 15SM FEW025 M13/M18 A2982 RMK SC1 SLP102

CYQB;2008-12-31 02:00;CYQB 310200Z 26015KT 15SM FEW025 FEW080 M14/M19 A2983 RMK SC1AC1 SLP105

CYQB;2008-12-31 03:00;CYQB 310300Z 27017G22KT 15SM FEW025 M15/M19 A2983 RMK SC1 SLP108

CYQB;2008-12-31 04:00;CYQB 310400Z 26013KT 15SM FEW025 FEW220 M16/M20 A2985 RMK SC1CI1 SLP114

CYQB;2008-12-31 05:00;CYQB 310500Z 27014KT 15SM FEW220 M17/M27 A2985 RMK CI1 SLP113

CYQB;2008-12-31 06:00;CYQB 310600Z 26012KT 15SM FEW220 M18/M25 A2985 RMK CI1 SLP115

CYQB;2008-12-31 07:00;CYQB 310700Z 25011KT 15SM FEW220 M19/M25 A2986 RMK CI1 SLP117

CYQB;2008-12-31 08:00;CYQB 310800Z 24006KT 15SM SCT200 M20/M26 A2984 RMK CI1 SLP112

CYQB;2008-12-31 09:00;CYQB 310900Z 26010KT 15SM BKN210 M21/M26 A2983 RMK CI2 SLP110

CYQB;2008-12-31 10:00;CYQB 311000Z 26007KT 15SM BKN200 M21/M27 A2982 RMK CI2 SLP104

CYQB;2008-12-31 11:00;CYQB 311100Z 25007KT 15SM BKN210 M21/M27 A2981 RMK CI3 SLP100

CYQB;2008-12-31 12:00;CYQB 311200Z 27005KT 15SM FEW030 BKN140 M22/M27 A2980 RMK SC1AC4 SLP098

CYQB;2008-12-31 13:00;CYQB 311300Z 27005KT 20SM FEW030 FEW120 BKN210 M22/M37 A2979 RMK SC1AC1CI2 SLP096

CYQB;2008-12-31 14:00;CYQB 311400Z 25007KT 20SM FEW010 BKN150 M21/M27 A2980 RMK SC1AS2 SLP099

CYQB;2008-12-31 15:00;CYQB 311500Z 25007KT 20SM FEW010 BKN120 M20/M26 A2979 RMK CF1AS2 SLP096

CYQB;2008-12-31 16:00;CYQB 311600Z 23010KT 20SM BKN120 M18/M24 A2977 RMK AS4 HALO SLP088

CYQB;2008-12-31 17:00;CYQB 311700Z 20008KT 20SM OVC130 M17/M24 A2975 RMK AS5 HALO SLP082

CYQB;2008-12-31 18:00;CYQB 311800Z 22009KT 20SM FEW130 BKN230 M15/M22 A2973 RMK AS1CI2 SLP076

CYQB;2008-12-31 19:00;CYQB 311900Z 22008KT 20SM SCT230 M15/M22 A2973 RMK CI2 SLP075

CYQB;2008-12-31 20:00;CYQB 312000Z 32012KT 30SM FEW240 M13/M22 A2973 RMK CI2 OBS TAKEN +15 SLP076

CYQB;2008-12-31 21:00;CYQB 312100Z 32012G18KT 30SM FEW210 M15/M24 A2975 RMK CI1 SLP081

CYQB;2008-12-31 22:00;CYQB 312200Z 32011G16KT 15SM FEW210 M17/M25 A2982 RMK CI1 SLP105

CYQB;2008-12-31 23:00;CYQB 312300Z 31010KT 15SM FEW210 M18/M26 A2986 RMK CI1 SLP117

