CYQB;2009-01-01 07:00;CYQB 010700Z 30009KT 15SM SKC M21/M29 A2993 RMK SLP142

CYQB;2009-01-01 08:00;CYQB 010800Z 29010G15KT 15SM SKC M21/M29 A2994 RMK SLP146

CYQB;2009-01-01 09:00;CYQB 010900Z 28011KT 15SM SKC M21/M30 A2995 RMK SLP151

CYQB;2009-01-01 10:00;CYQB 011000Z 26014KT 15SM SKC M22/M30 A2996 RMK SLP154

CYQB;2009-01-01 11:00;CYQB 011100Z 27013G19KT 15SM FEW200 M22/M29 A2998 RMK CI1 SLP159

CYQB;2009-01-01 12:00;CYQB 011200Z 26016KT 15SM BKN210 M22/M29 A3001 RMK CI2 SLP171

CYQB;2009-01-01 13:00;CYQB 011300Z 25015KT 20SM FEW210 M22/M29 A3004 RMK CI0 SLP181

CYQB;2009-01-01 14:00;CYQB 011400Z 26014G19KT 20SM SKC M20/M28 A3005 RMK SLP185

CYQB;2009-01-01 15:00;CYQB 011500Z 25016KT 20SM SKC M19/M26 A3005 RMK SLP184

CYQB;2009-01-01 16:00;CYQB 011600Z 27016KT 20SM SKC M17/M25 A3005 RMK SLP184

CYQB;2009-01-01 17:00;CYQB 011700Z 26019KT 15SM SKC M17/M24 A3005 RMK SLP183

CYQB;2009-01-01 18:00;CYQB 011800Z 26018KT 15SM SKC M16/M22 A3004 RMK SLP180

CYQB;2009-01-01 19:00;CYQB 011900Z 26017KT 15SM SKC M16/M26 A3006 RMK SLP185

CYQB;2009-01-01 20:00;CYQB 012000Z 27014KT 30SM SKC M16/M25 A3008 RMK SLP192

CYQB;2009-01-01 21:00;CYQB 012100Z 27015KT 30SM SKC M17/M25 A3009 RMK SLP197

CYQB;2009-01-01 22:00;CYQB 012200Z 26012KT 15SM SKC M18/M25 A3010 RMK SLP200

CYQB;2009-01-01 23:00;CYQB 012300Z 26015KT 15SM SKC M18/M25 A3011 RMK SLP204

CYQB;2009-01-02 00:00;CYQB 020000Z 26017KT 15SM SKC M18/M25 A3011 RMK SLP204

CYQB;2009-01-02 01:00;CYQB 020100Z 25015KT 15SM SKC M19/M25 A3010 RMK SLP201

CYQB;2009-01-02 02:00;CYQB 020200Z 25017KT 15SM SKC M19/M25 A3008 RMK SLP193

CYQB;2009-01-02 03:00;CYQB 020300Z 23012KT 15SM SKC M19/M25 A3008 RMK SLP195

CYQB;2009-01-02 04:00;CYQB 020400Z 24013G18KT 15SM SKC M19/M25 A3008 RMK SLP193

CYQB;2009-01-02 05:00;CYQB 020500Z 25016KT 15SM SKC M20/M26 A3006 RMK SLP188

CYQB;2009-01-02 06:00;CYQB 020600Z 24014KT 15SM SKC M20/M26 A3004 RMK SLP180

CYQB;2009-01-02 07:00;CYQB 020700Z 24013G19KT 15SM SKC M21/M27 A3004 RMK SLP179

CYQB;2009-01-02 08:00;CYQB 020800Z 26015KT 15SM FEW015 M21/M27 A3002 RMK SC1 SLP174

CYQB;2009-01-02 09:00;CYQB 020900Z 24016KT 15SM FEW200 M21/M27 A3001 RMK CI1 SLP169

CYQB;2009-01-02 10:00;CYQB 021000Z 25008KT 15SM FEW200 M22/M27 A3000 RMK CI1 SLP168

CYQB;2009-01-02 11:00;CYQB 021100Z 24011KT 15SM FEW200 M22/M27 A2998 RMK CI1 SLP161

CYQB;2009-01-02 12:00;CYQB 021200Z 25009KT 15SM FEW012 FEW100 FEW200 M22/M27 A2996 RMK CF1AC1CI1 SLP155

CYQB;2009-01-02 13:00;CYQB 021300Z 23011KT 20SM FEW012 FEW100 BKN210 M21/M27 A2995 RMK CF1AC1CI2 SLP151

CYQB;2009-01-02 14:00;CYQB 021400Z 23012KT 20SM FEW012 BKN210 M20/M25 A2993 RMK CF1CI2 SLP145

CYQB;2009-01-02 15:00;CYQB 021500Z 23006KT 20SM FEW012 BKN210 M18/M25 A2990 RMK CF1CI2 SLP134

CYQB;2009-01-02 16:00;CYQB 021600Z 25005KT 50SM FEW012 FEW080 BKN220 M17/M23 A2985 RMK CF1AC1CI6 SLP116

CYQB;2009-01-02 17:00;CYQB 021700Z 25006KT 20SM FEW012 SCT120 BKN200 M17/M24 A2980 RMK CF1AC2CI3 SLP099

CYQB;2009-01-02 18:00;CYQB 021800Z 22007KT 20SM SCT120 BKN200 M16/M22 A2975 RMK AC3CI3 SLP083

CYQB;2009-01-02 19:00;CYQB 021900Z 24008KT 20SM BKN110 BKN200 M15/M22 A2973 RMK AC5CI2 SLP075

CYQB;2009-01-02 20:00;CYQB 022000Z 25005KT 30SM SCT110 BKN170 M14/M22 A2971 RMK AC3AC4 SLP069

CYQB;2009-01-02 21:00;CYQB 022100Z 21004KT 30SM SCT120 BKN180 M14/M22 A2969 RMK AC3AC4 SLP061

CYQB;2009-01-02 22:00;CYQB 022200Z 00000KT 15SM BKN098 BKN140 M15/M22 A2969 RMK AC5AC2 SLP061

CYQB;2009-01-02 23:00;CYQB 022300Z 22004KT 15SM SCT120 OVC140 M14/M22 A2968 RMK AC4AC2 VIRGA SLP057

CYQB;2009-01-03 00:00;CYQB 030000Z 23008KT 15SM BKN085 OVC120 M14/M20 A2966 RMK AC5AC2 VIRGA SLP050

CYQB;2009-01-03 01:00;CYQB 030100Z 25011KT 15SM SCT090 BKN150 M14/M20 A2964 RMK AC3AC2 VIRGA SLP046

CYQB;2009-01-03 02:00;CYQB 030200Z 25010KT 15SM FEW075 SCT100 BKN150 M14/M19 A2963 RMK AC2AC2AC2 SLP042

CYQB;2009-01-03 03:00;CYQB 030300Z 22007KT 15SM SCT048 SCT150 M15/M20 A2962 RMK SC3AC1 SLP037

CYQB;2009-01-03 04:00;CYQB 030400Z 26009G15KT 15SM FEW110 M15/M20 A2961 RMK AC2 SLP036

CYQB;2009-01-03 05:00;CYQB 030500Z 25011KT 15SM FEW130 M16/M21 A2960 RMK AC2 SLP030

CYQB;2009-01-03 06:00;CYQB 030600Z 25010KT 15SM BKN048 M15/M19 A2959 RMK SC6 SLP027

CYQB;2009-01-03 07:00;CYQB 030700Z 24017KT 15SM BKN060 M14/M19 A2960 RMK SC6 SLP029

CYQB;2009-01-03 08:00;CYQB 030800Z 25016KT 15SM FEW062 BKN077 M14/M19 A2961 RMK SC1AC6 SLP033

CYQB;2009-01-03 09:00;CYQB 030900Z 25014KT 15SM BKN095 M14/M19 A2962 RMK AC5 SLP037

CYQB;2009-01-03 10:00;CYQB 031000Z 23016KT 15SM SCT083 M14/M20 A2963 RMK AC1 SLP040

CYQB;2009-01-03 11:00;CYQB 031100Z 24014KT 15SM BKN081 M14/M20 A2964 RMK AC5 SLP045

CYQB;2009-01-03 12:00;CYQB 031200Z 25017KT 15SM SCT110 M14/M20 A2965 RMK AC2 SLP047

CYQB;2009-01-03 13:00;CYQB 031300Z 25019KT 30SM FEW030 FEW110 FEW230 M14/M19 A2967 RMK SC1AC1CI1 SLP052

CYQB;2009-01-03 14:00;CYQB 031400Z CCA 25019G24KT 30SM FEW035 BKN110 M13/M19 A2968 RMK SC1AC4 SLP056

CYQB;2009-01-03 15:00;CYQB 031500Z 28013G19KT 30SM FEW030 FEW120 M13/M19 A2970 RMK SC1AC1 SLP065

CYQB;2009-01-03 16:00;CYQB 031600Z 31020KT 30SM FEW030 FEW120 FEW200 M13/M20 A2970 RMK SC1AC1CI1 SLP065

CYQB;2009-01-03 17:00;CYQB 031700Z 28016G22KT 30SM FEW035 FEW120 FEW200 M13/M21 A2972 RMK SC1AC1CI1 SLP070

CYQB;2009-01-03 18:00;CYQB 031800Z 29019G24KT 30SM BKN040 M13/M21 A2974 RMK SC6 SLP078

CYQB;2009-01-03 19:00;CYQB 031900Z 30016G25KT 30SM BKN042 M13/M22 A2976 RMK SC6 SLP085

CYQB;2009-01-03 20:00;CYQB 032000Z 29012G21KT 30SM OVC039 M13/M21 A2979 RMK SC7 SLP093

CYQB;2009-01-03 21:00;CYQB 032100Z 29012G18KT 30SM SCT037 BKN230 M14/M22 A2980 RMK SC3CI0 SLP097

CYQB;2009-01-03 22:00;CYQB 032200Z 28017KT 15SM BKN034 M14/M21 A2982 RMK SC6 SLP104

CYQB;2009-01-03 23:00;CYQB 032300Z 27016G21KT 15SM BKN036 OVC090 M14/M21 A2982 RMK SC6AC2 SLP106

CYQB;2009-01-04 00:00;CYQB 040000Z 29013G23KT 15SM SCT036 SCT080 BKN130 M14/M20 A2984 RMK SC3AC1AC2 SLP112

CYQB;2009-01-04 01:00;CYQB 040100Z 27015G21KT 15SM BKN036 OVC080 M14/M21 A2986 RMK SC7AC0 SLP118

CYQB;2009-01-04 02:00;CYQB 040200Z 26016G22KT 15SM BKN036 BKN120 M14/M21 A2986 RMK SC6AC1 SLP117

CYQB;2009-01-04 03:00;CYQB 040300Z 26018KT 15SM BKN034 M15/M20 A2986 RMK SC2 SLP119

CYQB;2009-01-04 04:00;CYQB 040400Z 26019KT 15SM BKN037 M15/M21 A2987 RMK SC6 SLP123

CYQB;2009-01-04 05:00;CYQB 040500Z 25018G25KT 15SM BKN032 M15/M21 A2987 RMK SC7 SLP122

CYQB;2009-01-04 06:00;CYQB 040600Z 26019G24KT 15SM BKN031 M15/M20 A2988 RMK SC6 SLP126

CYQB;2009-01-04 07:00;CYQB 040700Z 26019G24KT 15SM SCT030 BKN046 M15/M20 A2990 RMK SC4SC2 SLP132

CYQB;2009-01-04 08:00;CYQB 040800Z 26016KT 15SM BKN030 M15/M20 A2992 RMK SC6 SLP140

CYQB;2009-01-04 09:00;CYQB 040900Z 25017KT 15SM BKN030 M15/M20 A2993 RMK SC6 SLP141

CYQB;2009-01-04 10:00;CYQB 041000Z 26016KT 15SM FEW030 SCT085 M15/M20 A2994 RMK SC2AC1 SLP145

CYQB;2009-01-04 11:00;CYQB 041100Z 26020G25KT 15SM FEW030 FEW080 M15/M21 A2993 RMK SC2AC0 SLP142

CYQB;2009-01-04 12:00;CYQB 041200Z 25015KT 15SM FEW080 M14/M20 A2997 RMK AC2 SLP154

CYQB;2009-01-04 13:00;CYQB 041300Z 27016KT 25SM FEW030 FEW080 M14/M19 A2998 RMK SC1AC1 SLP159

CYQB;2009-01-04 14:00;CYQB 041400Z 25015KT 25SM FEW030 FEW080 M13/M18 A2998 RMK SC1AC1 SLP159

CYQB;2009-01-04 15:00;CYQB 041500Z 25014KT 25SM FEW030 FEW080 M12/M17 A2999 RMK SC1AC1 SLP163

CYQB;2009-01-04 16:00;CYQB 041600Z 25017KT 25SM FEW020 M11/M16 A2998 RMK SC1 SLP158

CYQB;2009-01-04 17:00;CYQB 041700Z 25017G25KT 25SM FEW020 FEW080 M10/M16 A2999 RMK SC1AC1 SLP162

CYQB;2009-01-04 18:00;CYQB 041800Z 23017KT 25SM FEW020 FEW080 M09/M15 A2998 RMK SC1AC1 SLP159

CYQB;2009-01-04 19:00;CYQB 041900Z 23014G19KT 25SM FEW020 M09/M14 A2998 RMK SC1 SLP158

CYQB;2009-01-04 20:00;CYQB 042000Z 23020KT 25SM FEW020 M09/M14 A2999 RMK SC1 SLP162

CYQB;2009-01-04 21:00;CYQB 042100Z 23014KT 30SM FEW020 M10/M15 A3000 RMK SC1 SLP167

CYQB;2009-01-04 22:00;CYQB 042200Z 23016KT 15SM FEW020 M11/M15 A3002 RMK SC1 SLP173

CYQB;2009-01-04 23:00;CYQB 042300Z 24016KT 15SM FEW020 M11/M14 A3001 RMK SC1 SLP170

CYQB;2009-01-05 00:00;CYQB 050000Z 24015KT 15SM FEW020 M11/M15 A3001 RMK SC1 SLP169

CYQB;2009-01-05 01:00;CYQB 050100Z 25014KT 15SM FEW020 M12/M15 A3001 RMK SC1 SLP169

CYQB;2009-01-05 02:00;CYQB 050200Z 25013KT 15SM FEW025 FEW220 M12/M15 A3001 RMK SC1CI0 SLP169

CYQB;2009-01-05 03:00;CYQB 050300Z 24010KT 15SM FEW090 SCT200 M12/M15 A2997 RMK AC1CS3 SLP154

CYQB;2009-01-05 04:00;CYQB 050400Z 26012KT 15SM FEW020 FEW090 BKN140 M12/M15 A2994 RMK SC2AC1AS3 SLP147

CYQB;2009-01-05 05:00;CYQB 050500Z 25011KT 15SM FEW020 OVC120 M12/M15 A2994 RMK SC2AS6 SLP146

CYQB;2009-01-05 06:00;CYQB 050600Z 25005KT 15SM FEW015 BKN039 OVC065 M12/M14 A2989 RMK SC2SC5AC2 SLP129

CYQB;2009-01-05 06:21;CYQB 050621Z 25005KT 2 1/2SM -SN BKN016 OVC033 M12/ RMK SC6SC2

CYQB;2009-01-05 06:32;CYQB 050632Z 24007KT 2SM -SN BKN012 OVC028 M12/ RMK SN2SC5SC2

CYQB;2009-01-05 06:51;CYQB 050651Z 24006KT 1 1/2SM -SN OVC011 M12/ RMK SN5SC3

CYQB;2009-01-05 07:00;CYQB 050700Z 24006KT 1 1/4SM -SN VV010 M12/M14 A2989 RMK SN8 SLP126

CYQB;2009-01-05 07:45;CYQB 050745Z 24012KT 1 1/2SM -SN VV010 M11/ RMK SN8

CYQB;2009-01-05 08:00;CYQB 050800Z 25013KT 1 1/4SM -SN DRSN VV009 M11/M14 A2987 RMK SN8 /S01/ SLP121

CYQB;2009-01-05 08:40;CYQB 050840Z 26008KT 2SM -SN OVC018 M11/ RMK SN2SC6

CYQB;2009-01-05 09:00;CYQB 050900Z 26007KT 1 3/4SM -SN VV010 M11/M14 A2983 RMK SN8 SLP108

CYQB;2009-01-05 10:00;CYQB 051000Z CCA 24007KT 2SM -SN VV009 M11/M14 A2980 RMK SN8 /S02/ SLP098

CYQB;2009-01-05 10:17;CYQB 051017Z 25005KT 1SM R06/P6000FT/D -SN VV010 M11/ RMK SN8

CYQB;2009-01-05 11:00;CYQB 051100Z 24008KT 1 1/2SM -SN VV018 M11/M14 A2979 RMK SN8 SLP093

CYQB;2009-01-05 11:37;CYQB 051137Z 26008KT 3SM -SN OVC043 M11/ RMK SN2SC6

CYQB;2009-01-05 12:00;CYQB 051200Z 26010KT 4SM -SN BKN024 OVC040 M11/M13 A2979 RMK SC6SC2 SLP095

CYQB;2009-01-05 12:55;CYQB 051255Z 26010KT 2SM -SN -FZDZ FEW012 OVC019 M11/ RMK SN1SC2SC6

CYQB;2009-01-05 13:00;CYQB 051300Z 26009KT 2SM -SN -FZDZ FEW012 OVC019 M11/M13 A2978 RMK SN1SC2SC6 SLP092

CYQB;2009-01-05 13:46;CYQB 051346Z 25012KT 1 3/4SM -SN OVC017 M11/ REFZDZ RMK SN1SC7

CYQB;2009-01-05 14:00;CYQB 051400Z 25013KT 1 3/4SM -SN OVC017 M11/M13 A2978 REFZDZ RMK SN1SC7 SLP092

CYQB;2009-01-05 15:00;CYQB 051500Z 26012KT 1 1/2SM -SN OVC016 M10/M12 A2978 RMK SN6SC2 SLP090

CYQB;2009-01-05 16:00;CYQB 051600Z 26014KT 1 1/2SM -SN OVC014 M09/M11 A2975 RMK SN3SC5 /S01/ SLP082

CYQB;2009-01-05 16:41;CYQB 051641Z 26013KT 3SM -SN OVC010 M08/ RMK SN2SC6

CYQB;2009-01-05 17:00;CYQB 051700Z 26012KT 3SM -SN OVC010 M08/M10 A2974 RMK SC7 SLP076

CYQB;2009-01-05 18:00;CYQB 051800Z 26010KT 3SM -SN BKN013 BKN025 M07/M09 A2972 RMK SC6SC2 SLP071

CYQB;2009-01-05 19:00;CYQB 051900Z 25010KT 6SM -SN BKN015 BKN028 M06/M08 A2972 RMK SC5SC2 SLP069

CYQB;2009-01-05 20:00;CYQB 052000Z 25010KT 8SM VCSH SCT018 SCT025 M05/M08 A2971 RMK SC3SC1 SLP066

CYQB;2009-01-05 20:40;CYQB 052040Z 26010KT 5SM -SHSN BKN024 BKN034 M05/ RMK SC6SC1 VIS HIER S

CYQB;2009-01-05 21:00;CYQB 052100Z 26011KT 4SM -SHSN BKN024 M05/M08 A2972 RMK SC7 SLP069

CYQB;2009-01-05 21:19;CYQB 052119Z 26009KT 1SM R06/P6000FT/U -SHSN BR BKN022 M05/ RMK SN6SC1 VIS HIER S AND W

CYQB;2009-01-05 21:32;CYQB 052132Z 25009KT 4SM -SHSN BR BKN022 M06/ RMK SC7

CYQB;2009-01-05 22:00;CYQB 052200Z 26008KT 5SM -SHSN BKN025 M06/M08 A2972 RMK SC7 SLP071

CYQB;2009-01-05 23:00;CYQB 052300Z 26010KT 12SM SCT040 SCT058 M07/M10 A2975 RMK SC3SC1 SLP080

CYQB;2009-01-06 00:00;CYQB 060000Z 27009KT 15SM FEW020 SCT059 M08/M11 A2976 RMK SC1SC1 SLP083

CYQB;2009-01-06 01:00;CYQB 060100Z 26007KT 15SM FEW059 M09/M12 A2977 RMK SC1 SLP087

CYQB;2009-01-06 02:00;CYQB 060200Z 27010KT 15SM FEW051 M09/M13 A2978 RMK SC1 SLP091

CYQB;2009-01-06 03:00;CYQB 060300Z 24011KT 15SM FEW050 M09/M12 A2979 RMK SC2 SLP094

CYQB;2009-01-06 04:00;CYQB 060400Z 25010KT 15SM FEW050 M11/M14 A2979 RMK SC1 SLP095

CYQB;2009-01-06 05:00;CYQB 060500Z 26012KT 15SM FEW050 M12/M15 A2980 RMK SC1 SLP097

CYQB;2009-01-06 06:00;CYQB 060600Z 26013KT 15SM SKC M12/M15 A2981 RMK SLP099

CYQB;2009-01-06 07:00;CYQB 060700Z 25007KT 15SM FEW220 M13/M16 A2982 RMK CI1 SLP103

CYQB;2009-01-06 08:00;CYQB 060800Z 25007KT 15SM BKN057 M12/M15 A2983 RMK SC5 SLP109

CYQB;2009-01-06 09:00;CYQB 060900Z 26010KT 15SM BKN055 M11/M14 A2983 RMK SC6 SLP106

CYQB;2009-01-06 10:00;CYQB 061000Z 26008KT 15SM BKN051 M12/M15 A2984 RMK SC4 SLP109

CYQB;2009-01-06 11:00;CYQB 061100Z 26009KT 15SM SCT065 M13/M16 A2985 RMK SC3 SLP114

CYQB;2009-01-06 12:00;CYQB 061200Z 24007KT 20SM FEW040 FEW055 M13/M17 A2987 RMK SC1SC2 SLP120

CYQB;2009-01-06 13:00;CYQB 061300Z 24009KT 30SM FEW015 FEW055 M14/M17 A2988 RMK CF1SC2 SLP125

CYQB;2009-01-06 14:00;CYQB 061400Z 24012KT 30SM FEW015 FEW030 M13/M16 A2990 RMK CF1SC2 SLP131

CYQB;2009-01-06 15:00;CYQB 061500Z 25012KT 30SM FEW015 FEW025 M11/M15 A2991 RMK CF1SC1 SLP134

CYQB;2009-01-06 16:00;CYQB 061600Z 25014KT 25SM SCT028 M09/M14 A2990 RMK CU4 SLP130

CYQB;2009-01-06 17:00;CYQB 061700Z 27014G20KT 30SM SCT032 M09/M14 A2989 RMK SC4 SLP128

CYQB;2009-01-06 18:00;CYQB 061800Z 27015KT 30SM SCT038 M09/M15 A2989 RMK SC4 SLP128

CYQB;2009-01-06 19:00;CYQB 061900Z 28013KT 30SM FEW040 M09/M15 A2990 RMK SC2 SHWRS DIST SE SLP132

CYQB;2009-01-06 20:00;CYQB 062000Z 28014KT 30SM FEW040 M09/M16 A2993 RMK CU1 OBS TAKEN +14 SLP140

CYQB;2009-01-06 21:00;CYQB 062100Z 28010KT 30SM FEW028 FEW200 M09/M16 A2994 RMK SC1CI1 SLP145

CYQB;2009-01-06 22:00;CYQB 062200Z 30009KT 15SM FEW025 M10/M17 A2996 RMK SC1 SLP152

CYQB;2009-01-06 23:00;CYQB 062300Z 34003KT 15SM SKC M11/M17 A2995 RMK SLP148

CYQB;2009-01-07 00:00;CYQB 070000Z 35003KT 15SM SKC M11/M17 A2999 RMK SLP163

CYQB;2009-01-07 01:00;CYQB 070100Z CCA 08002KT 15SM SKC M11/M18 A2999 RMK SLP163

CYQB;2009-01-07 02:00;CYQB 070200Z 02004KT 15SM SKC M12/M18 A2997 RMK SLP156

CYQB;2009-01-07 03:00;CYQB 070300Z 29004KT 15SM SKC M16/M19 A2997 RMK SLP157

CYQB;2009-01-07 04:00;CYQB 070400Z 27006KT 15SM SKC M19/M22 A2999 RMK SLP162

CYQB;2009-01-07 05:00;CYQB 070500Z 36004KT 15SM FEW220 M16/M20 A2996 RMK CS0 SLP151

CYQB;2009-01-07 06:00;CYQB 070600Z 01005KT 15SM SCT250 M16/M19 A2995 RMK CS1 SLP149

CYQB;2009-01-07 07:00;CYQB 070700Z 32007KT 15SM OVC210 M15/M20 A2994 RMK CI8 SLP146

CYQB;2009-01-07 08:00;CYQB 070800Z 05005KT 15SM SCT110 OVC180 M15/M19 A2994 RMK AC3AC5 SLP145

CYQB;2009-01-07 09:00;CYQB 070900Z 04006KT 15SM BKN110 OVC180 M14/M19 A2990 RMK AC5AC3 SLP131

CYQB;2009-01-07 10:00;CYQB 071000Z 05004KT 15SM OVC110 M14/M18 A2986 RMK AC8 SLP118

CYQB;2009-01-07 11:00;CYQB 071100Z 06005KT 15SM OVC090 M13/M17 A2984 RMK AC8 SLP110

CYQB;2009-01-07 12:00;CYQB 071200Z 07008KT 30SM FEW015 OVC150 M12/M17 A2982 RMK SC1AC7 SLP104

CYQB;2009-01-07 13:00;CYQB 071300Z 07007KT 30SM FEW015 OVC089 M11/M15 A2980 RMK SC1AC7 SLP098

CYQB;2009-01-07 14:00;CYQB 071400Z 07015G21KT 25SM FEW020 OVC072 M10/M14 A2975 RMK SC1AC7 PRESFR SLP082

CYQB;2009-01-07 14:28;CYQB 071428Z 07013G20KT 15SM -SN FEW020 OVC063 M10/ RMK SC1SC7

CYQB;2009-01-07 15:00;CYQB 071500Z 07015G20KT 20SM -SN FEW020 OVC050 M10/M14 A2974 RMK SC2SC6 SLP077

CYQB;2009-01-07 16:00;CYQB 071600Z 07015G29KT 3SM -SN DRSN VV016 M10/M14 A2967 RMK SN8 PRESFR SLP055

CYQB;2009-01-07 16:09;CYQB 071609Z 08016G26KT 1SM R06/5500FT/D -SN BLSN VV016 M11/ RMK SN8

CYQB;2009-01-07 16:45;CYQB 071645Z 07015G25KT 3/4SM R06/4000VP6000FT/D -SN BLSN VV009 M11/ RMK SN8

CYQB;2009-01-07 17:00;CYQB 071700Z 07019G25KT 5/8SM R06/3500V5000FT/U -SN BLSN VV008 M11/M14 A2962 RMK SN8 PRESFR SLP038

CYQB;2009-01-07 17:31;CYQB 071731Z 07018G26KT 1SM R06/4500VP6000FT/D -SN BLSN VV017 M11/ RMK SN8

CYQB;2009-01-07 18:00;CYQB 071800Z 07021G31KT 3/4SM R06/3000V5500FT/D -SN BLSN VV009 M11/M14 A2955 RMK SN8 VISB VRB 1/2-1 /S01/ PRESFR SLP012

CYQB;2009-01-07 19:00;CYQB 071900Z 07021G26KT 3/4SM R06/3000V4500FT/N -SN BLSN VV007 M11/M14 A2951 RMK SN8 VIS VRB 1/2-1 /S01/ SLP000

CYQB;2009-01-07 19:41;CYQB 071941Z 07021G29KT 1SM R06/5000FT/N -SN BLSN VV011 M11/ RMK SN8 VIS VRB 3/4-11/2

CYQB;2009-01-07 20:00;CYQB 072000Z 08021G28KT 1SM R06/4000V6000FT/U -SN BLSN VV010 M11/M14 A2943 RMK SN8 VIS VRB 3/4-11/2 /S02/ SLP974

CYQB;2009-01-07 21:00;CYQB 072100Z 07022G38KT 3/4SM R06/3000V5000FT/D -SN BLSN VV008 M10/M13 A2938 RMK SN8 VIS VRB 1/2-1 /S03/ SLP956

CYQB;2009-01-07 21:35;CYQB 072135Z 07024G33KT 3/4SM R06/3000V5000FT/D -SN BLSN VV004 M10/ RMK SN8 VIS VRB 1/2-1

CYQB;2009-01-07 22:00;CYQB 072200Z CCA 07019G28KT 3/4SM R06/3500V5500FT/N -SN BLSN VV004 M10/M13 A2935 RMK SN8 VIS VRB 1/2-1 SLP946

CYQB;2009-01-07 23:00;CYQB 072300Z 08023G31KT 3/4SM R06/3000V4500FT/N -SN BLSN VV004 M10/M12 A2931 RMK SN8 VIS VRB 1/2-1 /S05/ SLP930

CYQB;2009-01-07 23:29;CYQB 072329Z 07020G33KT 1/2SM R06/2600FT/N -SN BLSN VV003 M10/ RMK SN8

CYQB;2009-01-08 00:00;CYQB 080000Z 07022G30KT 3/4SM R06/3000V4500FT/N -SN BLSN VV004 M10/M12 A2928 RMK SN8 VSBY VRB 1/2-1 /S06/ SLP921

CYQB;2009-01-08 01:00;CYQB 080100Z 08019G31KT 3/4SM R06/3500FT/N -SN BLSN VV004 M10/M12 A2925 RMK SN8 VIS VRB 1/2-1 /S02/ SLP910

CYQB;2009-01-08 01:41;CYQB 080141Z 08019G27KT 1SM R06/3500V5500FT/N -SN BLSN VV006 M10/ RMK SN8 VIS VRB 3/4-11/2

CYQB;2009-01-08 02:00;CYQB 080200Z 08019G28KT 1SM R06/3500VP6000FT/D -SN BLSN VV006 M10/M12 A2921 RMK SN8 VIS VRB 3/4-11/2 /S03/ SLP896

CYQB;2009-01-08 02:18;CYQB 080218Z 08021G32KT 3/4SM R06/2800V4500FT/N -SN BLSN VV004 M10/ RMK SN8 VIS VRB 1/2-1

CYQB;2009-01-08 02:45;CYQB 080245Z 07020G27KT 3/4SM R06/3000V5000FT/D -SN BLSN VV003 M10/ RMK SN8 VIS VRB 1/2-1

CYQB;2009-01-08 03:00;CYQB 080300Z CCA 07023G32KT 1/2SM R06/3000FT/N -SN BLSN VV003 M10/M12 A2915 RMK SN8 /S04/ SLP877

CYQB;2009-01-08 03:41;CYQB 080341Z 08020G27KT 1SM R06/3500VP6000FT/U -SN BLSN VV008 M10/ RMK SN8

CYQB;2009-01-08 04:00;CYQB 080400Z 07018G26KT 3SM -SN BLSN FEW010 OVC040 M09/M12 A2910 RMK SF2SC6 SLP861

CYQB;2009-01-08 05:00;CYQB 080500Z 08020G27KT 4SM -SN BLSN FEW010 OVC033 M09/M12 A2906 RMK SF2SC6 SLP848

CYQB;2009-01-08 06:00;CYQB 080600Z 08017G22KT 5SM -SN BLSN OVC032 M09/M12 A2901 RMK SC8 /S05/ SLP830

CYQB;2009-01-08 06:42;CYQB 080642Z 08017G26KT 2SM -SN BLSN OVC035 M09/ RMK SN3SC5

CYQB;2009-01-08 07:00;CYQB 080700Z 08014G25KT 1 3/4SM -SN BLSN OVC037 M09/M12 A2900 RMK SN2SC6 SLP825

CYQB;2009-01-08 07:45;CYQB 080745Z 07013G24KT 1SM R06/P6000FT/D -SN BLSN VV009 M09/ RMK SN8

CYQB;2009-01-08 08:00;CYQB 080800Z 08015G20KT 1 1/2SM -SN BLSN OVC034 M09/M12 A2898 RMK SN4SC4 SLP819

CYQB;2009-01-08 09:00;CYQB 080900Z CCA 09009KT 1 1/2SM -SN DRSN OVC034 M09/M11 A2896 REBLSN RMK SN3SC5 /S02/ SLP812

CYQB;2009-01-08 09:45;CYQB 080945Z 08009KT 5SM -SN DRSN FEW012 SCT023 OVC050 M09/ REBLSN RMK SF2SC2SC4

CYQB;2009-01-08 10:00;CYQB 081000Z 09008KT 3SM -SN DRSN FEW012 BKN033 OVC050 M09/M11 A2895 RMK SF2SC5SC2 VIS VRB 2-4 /S03/ SLP808

CYQB;2009-01-08 11:00;CYQB 081100Z 09002KT 4SM -SN DRSN FEW012 BKN037 OVC055 M09/M12 A2896 RMK SF2SC4SC2 SLP812

CYQB;2009-01-08 12:00;CYQB 081200Z 07004KT 4SM -SN FEW010 SCT032 OVC046 M09/M11 A2898 RMK SF1SC2SC5 SLP817

CYQB;2009-01-08 12:43;CYQB 081243Z 00000KT 5SM -SN BKN010 BKN032 OVC046 M09/ RMK CF5SC2SC2

CYQB;2009-01-08 13:00;CYQB 081300Z 00000KT 3SM -SN BKN012 OVC035 M09/M11 A2900 RMK CF6SC2 VIS N 2 SLP826

CYQB;2009-01-08 13:46;CYQB 081346Z 27003KT 2 1/2SM -SN BKN014 OVC035 M09/ RMK SN1CF6SC2

CYQB;2009-01-08 14:00;CYQB 081400Z 27004KT 2 1/2SM -SN BKN014 M09/M11 A2904 RMK SN2SC5 SLP839

CYQB;2009-01-08 14:17;CYQB 081417Z 24006KT 1 3/4SM -SN BKN015 OVC250 M09/ RMK SN3CF2CI1

CYQB;2009-01-08 14:47;CYQB 081447Z 25008KT 3SM -SN SCT015 BKN035 OVC250 M08/ RMK CU3SC3CI2

CYQB;2009-01-08 15:00;CYQB 081500Z 24008KT 6SM -SN FEW015 BKN035 OVC250 M08/M11 A2907 RMK CU2SC4CI2 /S01/ SLP848

CYQB;2009-01-08 16:00;CYQB 081600Z 24011KT 5SM -SN FEW015 BKN045 OVC250 M08/M11 A2907 RMK CU2SC4CI0 /S02/ SLP850

CYQB;2009-01-08 17:00;CYQB 081700Z 23010KT 5SM -SN BKN018 OVC055 M08/M11 A2908 RMK CU5SC3 SLP852

CYQB;2009-01-08 18:00;CYQB 081800Z 25011KT 5SM -SN BKN025 OVC080 M08/M11 A2909 RMK SC6AC1 SLP856

CYQB;2009-01-08 19:00;CYQB 081900Z 26011KT 5SM -SN SCT020 BKN030 OVC080 M08/M11 A2912 RMK SC3SC3AC2 SLP865

CYQB;2009-01-08 19:35;CYQB 081935Z 25013KT 1 1/2SM -SN DRSN SCT015 BKN030 OVC080 M08/ RMK SN2SC2SC2AC2

CYQB;2009-01-08 19:46;CYQB 081946Z 25014KT 4SM -SN DRSN SCT015 BKN030 OVC055 M09/ RMK SC3SC3SC2

CYQB;2009-01-08 20:00;CYQB 082000Z 25012KT 5SM -SN DRSN FEW015 BKN043 BKN120 OVC230 M09/M12 A2915 RMK SC2SC2AC1CI1 VIS W 2 SLP877

CYQB;2009-01-08 20:11;CYQB 082011Z 26015KT 2SM -SN BKN015 OVC030 M09/ RMK SC5SC3

CYQB;2009-01-08 21:00;CYQB 082100Z 25012KT 2SM -SN OVC015 M09/M12 A2920 RMK SC8 SLP894

CYQB;2009-01-08 22:00;CYQB 082200Z 25014KT 3SM -SN BKN014 OVC035 M09/M12 A2924 RMK SC6SC2 SLP908

CYQB;2009-01-08 23:00;CYQB 082300Z 25013KT 3SM -SN BKN015 OVC037 M09/M12 A2928 RMK SC6SC2 SLP922

CYQB;2009-01-09 00:00;CYQB 090000Z 25013KT 4SM -SN BKN018 OVC045 M10/M12 A2932 RMK SC6SC2 SLP933

CYQB;2009-01-09 01:00;CYQB 090100Z 26014KT 4SM -SN BKN025 OVC048 M10/M13 A2934 RMK SC5SC1 SLP942

CYQB;2009-01-09 02:00;CYQB 090200Z 25014KT 15SM FEW025 SCT080 OVC250 M10/M13 A2937 RMK SC2AC1CI0 INTMT -SN SLP951

CYQB;2009-01-09 03:00;CYQB 090300Z 25014KT 15SM FEW020 BKN072 BKN200 M11/M14 A2939 RMK SC1AC3CI1 SLP957

CYQB;2009-01-09 04:00;CYQB 090400Z 25013KT 15SM FEW020 BKN070 M12/M15 A2942 RMK SC1AC5 SLP969

CYQB;2009-01-09 05:00;CYQB 090500Z 25016KT 14SM -SN FEW020 BKN073 BKN100 M12/M15 A2945 RMK SC1AC5AC0 SLP978

CYQB;2009-01-09 06:00;CYQB 090600Z 25015KT 14SM -SN SCT070 BKN100 BKN180 M13/M16 A2948 RMK AC2AC1AC1 SLP990

CYQB;2009-01-09 07:00;CYQB 090700Z 25016KT 15SM FEW100 SCT220 M13/M17 A2953 RMK AC2CI1 SLP005

CYQB;2009-01-09 08:00;CYQB 090800Z 25016KT 15SM -SN SCT075 SCT220 M14/M17 A2956 RMK AC3CI1 SLP014

CYQB;2009-01-09 09:00;CYQB 090900Z CCA 25014G19KT 6SM -SN BKN041 BKN080 M14/M18 A2958 RMK SC6AC2 VIS LWR N SLP022

CYQB;2009-01-09 10:00;CYQB 091000Z 26015KT 6SM -SN OVC039 M14/M18 A2960 RMK SC8 SLP028

CYQB;2009-01-09 11:00;CYQB 091100Z 25016KT 10SM -SN BKN042 OVC130 M15/M18 A2962 RMK SC7AC1 SLP037

CYQB;2009-01-09 12:00;CYQB 091200Z 25017KT 10SM -SN BKN046 OVC130 M15/M18 A2965 RMK SC6AC2 SLP048

CYQB;2009-01-09 13:00;CYQB 091300Z 25018KT 10SM -SN BKN048 OVC140 M15/M18 A2970 RMK SC5AC3 SLP063

CYQB;2009-01-09 14:00;CYQB 091400Z 26015KT 12SM -SN BKN055 OVC140 M15/M18 A2974 RMK SC7AC1 SLP077

CYQB;2009-01-09 15:00;CYQB 091500Z 26016KT 12SM -SN BKN049 OVC070 M14/M18 A2977 RMK SC6AC2 SLP088

CYQB;2009-01-09 16:00;CYQB 091600Z 26019KT 12SM -SN BKN053 BKN140 OVC200 M14/M18 A2979 RMK SC5AC2CI0 SLP093

CYQB;2009-01-09 17:00;CYQB 091700Z 26018KT 12SM -SN BKN060 BKN140 OVC230 M14/M17 A2980 RMK SC6AC1CI0 SLP098

CYQB;2009-01-09 18:00;CYQB 091800Z 25016G21KT 15SM -SN SCT035 BKN050 BKN090 OVC230 M13/M17 A2981 RMK SC3SC2AC1CI1 SLP102

CYQB;2009-01-09 19:00;CYQB 091900Z 26014G19KT 25SM SCT035 BKN090 BKN230 M13/M17 A2983 RMK SC3AC2CI0 SLP106

CYQB;2009-01-09 20:00;CYQB 092000Z 26017KT 30SM FEW035 SCT110 M12/M16 A2986 RMK SC2AC1 SLP119

CYQB;2009-01-09 21:00;CYQB 092100Z 24015KT 30SM FEW035 BKN120 M13/M17 A2990 RMK SC2AC2 SLP132

CYQB;2009-01-09 22:00;CYQB 092200Z 26016KT 30SM FEW035 FEW120 M13/M17 A2994 RMK SC1AC2 SLP146

CYQB;2009-01-09 23:00;CYQB 092300Z 25013KT 15SM BKN120 M14/M18 A2996 RMK AC5 SLP153

CYQB;2009-01-10 00:00;CYQB 100000Z 25014KT 15SM FEW030 BKN120 M13/M17 A2999 RMK SC1AC5 SLP161

CYQB;2009-01-10 01:00;CYQB 100100Z 25015KT 15SM FEW030 BKN120 M13/M17 A3000 RMK SC1AC4 SLP166

CYQB;2009-01-10 02:00;CYQB 100200Z 26015KT 15SM FEW030 BKN120 M14/M17 A3003 RMK SC1AC5 SLP174

CYQB;2009-01-10 03:00;CYQB 100300Z 26014KT 15SM FEW030 BKN120 M14/M18 A3005 RMK SC1AC6 SLP182

CYQB;2009-01-10 04:00;CYQB 100400Z 27015KT 15SM FEW030 BKN120 M15/M18 A3008 RMK SC1AC5 SLP191

CYQB;2009-01-10 05:00;CYQB 100500Z 25013KT 15SM FEW120 BKN220 M16/M19 A3009 RMK AC2CS2 SLP197

CYQB;2009-01-10 06:00;CYQB 100600Z 24010KT 15SM FEW120 BKN220 M16/M20 A3011 RMK AC1CS1 SLP205

CYQB;2009-01-10 07:00;CYQB 100700Z 26006KT 15SM FEW120 BKN220 M17/M20 A3015 RMK AC1CS1 SLP217

CYQB;2009-01-10 08:00;CYQB 100800Z 21005KT 15SM FEW220 M18/M21 A3018 RMK CI0 SLP226

CYQB;2009-01-10 09:00;CYQB 100900Z 25013KT 15SM SKC M18/M25 A3018 RMK SLP228

CYQB;2009-01-10 10:00;CYQB 101000Z 24014KT 15SM FEW220 M18/M26 A3019 RMK CI0 SLP231

CYQB;2009-01-10 11:00;CYQB 101100Z 25016KT 15SM SKC M19/M25 A3021 RMK SLP238

CYQB;2009-01-10 12:00;CYQB 101200Z 25014KT 25SM FEW220 M20/M26 A3024 RMK CI0 SLP247

CYQB;2009-01-10 13:00;CYQB 101300Z 27012KT 25SM FEW220 M21/M26 A3026 RMK CI0 SLP254

CYQB;2009-01-10 14:00;CYQB 101400Z 26016KT 25SM FEW020 M20/M24 A3028 RMK SC1 SLP261

CYQB;2009-01-10 15:00;CYQB 101500Z 25014KT 25SM FEW020 M18/M23 A3027 RMK SC1 SLP258

CYQB;2009-01-10 16:00;CYQB 101600Z 24017KT 25SM FEW020 M17/M23 A3027 RMK SC1 SLP257

CYQB;2009-01-10 17:00;CYQB 101700Z 25014KT 25SM FEW020 M16/M22 A3026 RMK SC1 SLP255

CYQB;2009-01-10 18:00;CYQB 101800Z 25015KT 25SM FEW020 M15/M21 A3024 RMK SC1 SLP246

CYQB;2009-01-10 19:00;CYQB 101900Z 24017KT 25SM FEW020 M14/M21 A3023 RMK SC1 SLP244

CYQB;2009-01-10 20:00;CYQB 102000Z 24015KT 50SM FEW020 M14/M20 A3023 RMK SC1 SLP245

CYQB;2009-01-10 21:00;CYQB 102100Z 25015KT 50SM FEW020 M15/M21 A3022 RMK SC1 SLP243

CYQB;2009-01-10 22:00;CYQB 102200Z 25010KT 15SM FEW020 FEW240 M16/M21 A3023 RMK SC1CI1 SLP245

CYQB;2009-01-10 23:00;CYQB 102300Z 27011KT 15SM FEW240 M17/M22 A3022 RMK CI1 SLP243

CYQB;2009-01-11 00:00;CYQB 110000Z 25009KT 15SM FEW210 M17/M22 A3023 RMK CI0 SLP244

CYQB;2009-01-11 01:00;CYQB 110100Z 26006KT 15SM FEW220 M19/M23 A3021 RMK CI1 SLP239

CYQB;2009-01-11 02:00;CYQB 110200Z 19003KT 15SM FEW220 M19/M24 A3019 RMK CI1 SLP232

CYQB;2009-01-11 03:00;CYQB 110300Z 26004KT 15SM SKC M20/M25 A3019 RMK SLP232

CYQB;2009-01-11 04:00;CYQB 110400Z 03005KT 15SM SCT220 M19/M23 A3019 RMK CI1 SLP230

CYQB;2009-01-11 05:00;CYQB 110500Z 00000KT 15SM FEW220 M21/M26 A3017 RMK CI1 SLP225

CYQB;2009-01-11 06:00;CYQB 110600Z 00000KT 15SM BKN220 M22/M26 A3015 RMK CS0 SLP218

CYQB;2009-01-11 07:00;CYQB 110700Z 04002KT 15SM FEW020 OVC210 M21/M26 A3013 RMK SC1CS1 SLP211

CYQB;2009-01-11 08:00;CYQB 110800Z 03004KT 15SM FEW020 OVC200 M20/M24 A3009 RMK SC1CS1 SLP198

CYQB;2009-01-11 09:00;CYQB 110900Z 02003KT 15SM FEW015 OVC170 M20/M24 A3008 RMK SC2AS5 SLP192

CYQB;2009-01-11 10:00;CYQB 111000Z 01003KT 15SM FEW015 OVC160 M19/M23 A3005 RMK SC1AS6 SLP182

CYQB;2009-01-11 11:00;CYQB 111100Z 00000KT 15SM OVC140 M18/M22 A3003 RMK AS7 FROIN SLP178

CYQB;2009-01-11 12:00;CYQB 111200Z 36003KT 15SM FEW008 OVC120 M17/M22 A3003 RMK ST2AS5 SLP177

CYQB;2009-01-11 12:33;CYQB 111233Z 00000KT 8SM BKN007 OVC120 M17/ RMK ST6AC2

CYQB;2009-01-11 12:48;CYQB 111248Z 04003KT 6SM -SN BR BKN008 OVC120 M17/ RMK ST7AC1

CYQB;2009-01-11 13:00;CYQB 111300Z 03004KT 6SM -SN BR OVC008 M17/M21 A3004 RMK ST8 SLP179

CYQB;2009-01-11 14:00;CYQB 111400Z 36004KT 10SM -SN FEW008 OVC110 M16/M20 A3003 RMK ST2AS6 SLP177

CYQB;2009-01-11 14:23;CYQB 111423Z 04002KT 12SM OVC120 M15/ RMK AS8

CYQB;2009-01-11 15:00;CYQB 111500Z 02003KT 10SM FEW005 FEW020 OVC120 M14/M18 A3003 RMK SF1SC1AS6 SLP175

CYQB;2009-01-11 15:27;CYQB 111527Z 36004KT 10SM -SN FEW010 BKN110 M14/ RMK SF1AS6

CYQB;2009-01-11 16:00;CYQB 111600Z 01004KT 15SM FEW020 BKN130 M13/M17 A3002 RMK SC1AS5 SLP174

CYQB;2009-01-11 17:00;CYQB 111700Z 05003KT 15SM FEW020 FEW080 BKN150 M11/M16 A3000 RMK SC1AC1AC3 SLP168

CYQB;2009-01-11 18:00;CYQB 111800Z 11006KT 15SM FEW015 SCT150 M10/M14 A2998 RMK CF1AC2 SLP159

CYQB;2009-01-11 19:00;CYQB 111900Z 12004KT 15SM SCT018 M10/M14 A2998 RMK CF4 SLP159

CYQB;2009-01-11 20:00;CYQB 112000Z 13004KT 15SM FEW018 M10/M15 A2999 RMK CF1 SLP162

CYQB;2009-01-11 21:00;CYQB 112100Z 27002KT 15SM FEW018 M11/M15 A3000 RMK CF1 SLP167

CYQB;2009-01-11 22:00;CYQB 112200Z 27003KT 15SM FEW020 M13/M16 A2999 RMK SC1 SLP163

CYQB;2009-01-11 23:00;CYQB 112300Z 00000KT 15SM FEW100 M15/M18 A2999 RMK AC1 SLP162

CYQB;2009-01-12 00:00;CYQB 120000Z 00000KT 15SM FEW100 M17/M21 A2999 RMK AC1 SLP164

CYQB;2009-01-12 01:00;CYQB 120100Z 00000KT 15SM FEW100 M19/M23 A3000 RMK AC1 SLP166

CYQB;2009-01-12 02:00;CYQB 120200Z 00000KT 15SM SKC M19/M22 A3000 RMK SLP168

CYQB;2009-01-12 03:00;CYQB 120300Z 23009KT 15SM BKN200 M16/M20 A3003 RMK CS2 SLP175

CYQB;2009-01-12 04:00;CYQB 120400Z 00000KT 15SM BKN200 M16/M19 A3002 RMK CS2 SLP173

CYQB;2009-01-12 05:00;CYQB 120500Z 27003KT 15SM OVC200 M18/M21 A3002 RMK CS3 SLP173

CYQB;2009-01-12 06:00;CYQB 120600Z 26004KT 15SM OVC200 M17/M21 A3001 RMK CS3 SLP169

CYQB;2009-01-12 07:00;CYQB 120700Z 22006KT 15SM OVC200 M16/M19 A3001 RMK CS2 SLP169

CYQB;2009-01-12 08:00;CYQB 120800Z 25009KT 15SM FEW020 OVC200 M17/M20 A3002 RMK SC1CS1 SLP171

CYQB;2009-01-12 09:00;CYQB 120900Z 25009KT 15SM FEW020 OVC200 M17/M20 A3002 RMK SC1CS1 SLP171

CYQB;2009-01-12 10:00;CYQB 121000Z 24004KT 15SM FEW140 OVC200 M18/M21 A3002 RMK AC1CI1 SLP171

CYQB;2009-01-12 11:00;CYQB 121100Z 27003KT 15SM FEW130 OVC200 M17/M21 A3003 RMK AC2CI1 SLP174

CYQB;2009-01-12 11:50;CYQB 121150Z 21002KT 5SM -SN BKN130 OVC200 M17/ RMK AC6CI1

CYQB;2009-01-12 12:00;CYQB 121200Z 00000KT 5SM -SN BKN130 OVC200 M17/M20 A3003 RMK AC6CI1 SLP177

CYQB;2009-01-12 13:00;CYQB 121300Z 26005KT 5SM -SN OVC120 M16/M19 A3005 RMK AC8 SLP184

CYQB;2009-01-12 13:45;CYQB 121345Z 25006KT 2SM -SN OVC120 M15/ RMK SN2AC6

CYQB;2009-01-12 14:00;CYQB 121400Z 25006KT 3SM -SN OVC120 M15/M18 A3007 RMK SN2AC6 SLP191

CYQB;2009-01-12 14:50;CYQB 121450Z 22006KT 10SM -SN SCT120 BKN220 M15/ RMK AC4CI1

CYQB;2009-01-12 15:00;CYQB 121500Z 23007KT 10SM -SN SCT120 BKN220 M14/M18 A3008 RMK AC4CI0 SLP193

CYQB;2009-01-12 16:00;CYQB 121600Z 23007KT 10SM FEW220 M14/M17 A3008 RMK CI1 SLP195

CYQB;2009-01-12 17:00;CYQB 121700Z 23010KT 10SM FEW018 SCT220 M13/M17 A3007 RMK CF1CI1 SLP191

CYQB;2009-01-12 18:00;CYQB 121800Z 24010KT 10SM FEW025 FEW120 FEW220 M12/M19 A3007 RMK SC1AC1CI1 SLP189

CYQB;2009-01-12 19:00;CYQB 121900Z 23005KT 10SM FEW025 SCT230 M11/M14 A3007 RMK SC1CI2 SLP189

CYQB;2009-01-12 20:00;CYQB 122000Z 25004KT 15SM FEW100 FEW230 M12/M15 A3008 RMK AC1CI0 SLP192

CYQB;2009-01-12 21:00;CYQB 122100Z 22003KT 15SM FEW230 M12/M15 A3010 RMK CI1 SLP199

CYQB;2009-01-12 22:00;CYQB 122200Z 23004KT 15SM FEW230 M13/M16 A3011 RMK CI1 SLP204

CYQB;2009-01-12 22:55;CYQB 122255Z 00000KT 10SM SCT230 M13/ RMK CI1

CYQB;2009-01-12 23:00;CYQB 122300Z 00000KT 10SM SCT230 M13/M16 A3013 RMK CI1 SLP210

CYQB;2009-01-13 00:00;CYQB 130000Z 00000KT 5SM IC SCT230 M13/M16 A3013 RMK CI2 SLP210

CYQB;2009-01-13 00:56;CYQB 130056Z 00000KT 3SM -SN VV020 M13/ RMK SN8

CYQB;2009-01-13 01:00;CYQB 130100Z 00000KT 3SM -SN VV020 M12/M15 A3014 RMK SN8 SLP212

CYQB;2009-01-13 02:00;CYQB 130200Z 00000KT 5SM -SN OVC067 M12/M14 A3014 RMK SC7 SLP212

CYQB;2009-01-13 03:00;CYQB 130300Z 00000KT 10SM OVC066 M12/M14 A3013 RMK AC6 SLP209

CYQB;2009-01-13 04:00;CYQB 130400Z 00000KT 10SM OVC068 M12/M12 A3014 RMK AC6 SLP213

CYQB;2009-01-13 05:00;CYQB 130500Z 26002KT 10SM OVC060 M12/M14 A3014 RMK SC6 SLP214

CYQB;2009-01-13 05:43;CYQB 130543Z 25003KT 3/4SM R06/P6000FT/D -SN SCT035 OVC055 M10/ RMK SN2SC2SC4

CYQB;2009-01-13 06:00;CYQB 130600Z 00000KT 3/4SM R06/P6000FT/D -SN BKN035 OVC055 M10/M13 A3014 RMK SN4SC1SC3 SLP211

CYQB;2009-01-13 06:28;CYQB 130628Z 00000KT 1 1/2SM -SN VV007 M11/ RMK SN8

CYQB;2009-01-13 07:00;CYQB 130700Z CCA 00000KT 1SM R06/P6000FT/U -SN VV012 M10/M13 A3014 RMK SN8 /S01/ SLP211

CYQB;2009-01-13 07:30;CYQB 130730Z 00000KT 1 1/2SM -SN OVC019 M10/ RMK SC8

CYQB;2009-01-13 08:00;CYQB 130800Z 05002KT 1 1/2SM -SN OVC019 M10/M12 A3013 RMK SC8 SLP210

CYQB;2009-01-13 08:35;CYQB 130835Z 00000KT 5SM -SN OVC019 M10/ RMK SC8

CYQB;2009-01-13 09:00;CYQB 130900Z 00000KT 6SM -SN OVC019 M10/M12 A3011 RMK SC8 SLP203

CYQB;2009-01-13 10:00;CYQB 131000Z 00000KT 6SM -SN BR OVC021 M10/M12 A3011 RMK SC8 SLP204

CYQB;2009-01-13 11:00;CYQB 131100Z 00000KT 6SM -SN OVC021 M10/M12 A3011 RMK SC8 SLP201

CYQB;2009-01-13 12:00;CYQB 131200Z 02003KT 5SM -SN OVC021 M09/M12 A3010 RMK SC8 /S02/ SLP198

CYQB;2009-01-13 12:54;CYQB 131254Z 05003KT 3/4SM R06/P6000FT/D -SN VV011 M09/ RMK SN8

CYQB;2009-01-13 13:00;CYQB 131300Z 04003KT 1SM R06/P6000FT/N -SN OVC027 M09/M11 A3008 RMK SN6SC2 /S01/ SLP191

CYQB;2009-01-13 13:27;CYQB 131327Z 05003KT 2SM -SN BKN029 OVC250 M09/M10 RMK SN1SC6CI0 SUN DMLY VSBL

CYQB;2009-01-13 14:00;CYQB 131400Z 07004KT 2 1/2SM -SN BKN039 OVC100 M08/M10 A3005 RMK SC6AS1 SLP182

CYQB;2009-01-13 15:00;CYQB 131500Z 07005KT 5SM -SN BKN050 BKN120 OVC170 M07/M09 A3002 RMK SC5AC2AS1 -SN INTMT SLP170

CYQB;2009-01-13 16:00;CYQB 131600Z 05006KT 6SM -SN FEW045 OVC120 M07/M09 A2996 RMK SC2AS6 -SN INTMT PCPN VRY LGT SLP152

CYQB;2009-01-13 17:00;CYQB 131700Z 07006KT 8SM -SN BKN047 OVC055 M06/M09 A2991 RMK SC5SC2 SLP134

CYQB;2009-01-13 18:00;CYQB 131800Z 07004KT 6SM -SN OVC038 M05/M09 A2986 RMK SC8 SLP118

CYQB;2009-01-13 19:00;CYQB 131900Z 07005KT 10SM -SN OVC051 M04/M09 A2980 RMK SC8 PRESFR SLP095

CYQB;2009-01-13 20:00;CYQB 132000Z 07003KT 10SM -SN FEW016 OVC031 M04/M08 A2976 RMK SC2SC6 SLP084

CYQB;2009-01-13 20:31;CYQB 132031Z 09006KT 2 1/2SM -SN OVC020 M03/ RMK SC8

CYQB;2009-01-13 21:00;CYQB 132100Z 05002KT 1 1/2SM -SN OVC021 M04/M07 A2973 RMK SN2SC6 /S01/ SLP073

CYQB;2009-01-13 21:24;CYQB 132124Z 08003KT 3/4SM R06/P6000FT/U -SN VV011 M04/ RMK SN8

CYQB;2009-01-13 21:49;CYQB 132149Z 09004KT 1 1/4SM -SN OVC012 M04/ RMK SN2SC6

CYQB;2009-01-13 22:00;CYQB 132200Z 07004KT 1 1/4SM -SN SCT006 OVC017 M04/M06 A2970 RMK SF3SC5 /S02/ SLP062

CYQB;2009-01-13 23:00;CYQB 132300Z 07006KT 1SM R06/5500FT/N -SN OVC018 M04/M06 A2966 RMK SN6SC2 /S03/ SLP048

CYQB;2009-01-14 00:00;CYQB 140000Z 07006KT 1SM R06/P6000FT/N -SN OVC012 M04/M05 A2963 RMK SN6SC2 /S04/ SLP037

CYQB;2009-01-14 01:00;CYQB 140100Z 07008KT 1SM R06/P6000FT/D -SN OVC016 M04/M06 A2960 RMK SN6SC2 /S01/ SLP028

CYQB;2009-01-14 01:38;CYQB 140138Z 07009KT 3/4SM R06/P6000FT/U -SN OVC015 M04/ RMK SN5SC3

CYQB;2009-01-14 02:00;CYQB 140200Z 08007KT 1SM R06/P6000FT/N -SN VV009 M04/M05 A2956 RMK SN8 /S02/ SLP016

CYQB;2009-01-14 02:41;CYQB 140241Z 10005KT 2SM -SN BKN015 OVC029 M04/ RMK SC6SC2

CYQB;2009-01-14 03:00;CYQB 140300Z 09004KT 2 1/2SM -SN BKN017 OVC024 M04/M05 A2952 RMK SC7SC1 SLP002

CYQB;2009-01-14 04:00;CYQB 140400Z 11003KT 2 1/2SM -SN OVC017 M03/M05 A2948 RMK SC8 SLP988

CYQB;2009-01-14 05:00;CYQB 140500Z 23009G15KT 1SM R06/P6000FT/D -SN OVC009 M01/M03 A2946 RMK SN2SC6 SLP982

CYQB;2009-01-14 06:00;CYQB 140600Z 24032G37KT 3/4SM R06/P6000FT/U -SN BLSN BKN010 OVC060 M02/M03 A2945 RMK SN2SC5SC2 FROPA SLP975

CYQB;2009-01-14 06:52;CYQB 140652Z 24027G36KT 15SM DRSN FEW032 SCT100 M04/ RMK SC1AC3

CYQB;2009-01-14 07:00;CYQB 140700Z 25029G36KT 15SM DRSN FEW032 SCT100 M05/M06 A2948 RMK SC1AC3 SLP987

CYQB;2009-01-14 08:00;CYQB 140800Z 27025G31KT 15SM DRSN FEW020 SCT040 SCT120 M09/M10 A2953 RMK SC2SC2AC1 SLP004

CYQB;2009-01-14 09:00;CYQB 140900Z 27026G33KT 15SM DRSN FEW030 M15/M17 A2959 RMK SC2 PRESRR SLP027

CYQB;2009-01-14 10:00;CYQB 141000Z 27020G26KT 15SM DRSN FEW030 M18/M19 A2967 RMK SC1 PRESRR SLP053

CYQB;2009-01-14 11:00;CYQB 141100Z CCA 25018KT 15SM DRSN SKC M19/M21 A2973 RMK PRESRR SLP074

CYQB;2009-01-14 12:00;CYQB 141200Z 26018G25KT 30SM DRSN FEW020 FEW200 M20/M29 A2978 RMK SC1CI1 SLP089

CYQB;2009-01-14 13:00;CYQB 141300Z 25016KT 30SM FEW020 M21/M27 A2982 RMK SC1 SLP105

CYQB;2009-01-14 14:00;CYQB 141400Z 26016KT 30SM FEW020 M22/M27 A2987 RMK SC1 SLP121

CYQB;2009-01-14 15:00;CYQB 141500Z 26018KT 30SM FEW020 M22/M27 A2992 RMK SC1 SLP138

CYQB;2009-01-14 16:00;CYQB 141600Z 26021G26KT 30SM FEW020 M21/M27 A2992 RMK SC1 SLP139

CYQB;2009-01-14 17:00;CYQB 141700Z 27019G24KT 30SM FEW020 M21/M26 A2993 RMK SC1 SLP141

CYQB;2009-01-14 18:00;CYQB 141800Z 26014G19KT 30SM FEW020 M21/M27 A2995 RMK SC1 SLP150

CYQB;2009-01-14 19:00;CYQB 141900Z 25016KT 30SM FEW020 M21/M27 A2996 RMK SC1 SLP153

CYQB;2009-01-14 20:00;CYQB 142000Z 24018KT 30SM FEW020 M21/M28 A3000 RMK SC1 SLP166

CYQB;2009-01-14 21:00;CYQB 142100Z 27022KT 30SM FEW020 M21/M28 A3005 RMK SC1 SLP182

CYQB;2009-01-14 22:00;CYQB 142200Z 27017KT 30SM FEW020 FEW240 M23/M29 A3007 RMK SC1CI1 SLP190

CYQB;2009-01-14 23:00;CYQB 142300Z 27017KT 15SM SKC M23/M29 A3009 RMK SLP197

CYQB;2009-01-15 00:00;CYQB 150000Z 33003KT 15SM SKC M23/M29 A3011 RMK SLP204

CYQB;2009-01-15 01:00;CYQB 150100Z 27002KT 15SM FEW020 FEW190 M25/M31 A3012 RMK SC1CI1 SLP209

CYQB;2009-01-15 02:00;CYQB 150200Z 28002KT 15SM FEW020 FEW180 M24/M30 A3014 RMK SC1AS1 SLP216

CYQB;2009-01-15 03:00;CYQB 150300Z 23010KT 15SM FEW020 SCT140 M24/M30 A3016 RMK SC1AC1 BARO READ +13 SLP222

CYQB;2009-01-15 04:00;CYQB 150400Z 23007KT 15SM FEW020 SCT140 M24/M30 A3016 RMK SC1AC1 SLP223

CYQB;2009-01-15 05:00;CYQB 150500Z 22007KT 15SM SCT120 M25/M31 A3016 RMK AC1 SLP223

CYQB;2009-01-15 06:00;CYQB 150600Z 23010KT 15SM FEW040 FEW120 FEW180 M26/M31 A3019 RMK SC1AC1AC1 SLP231

CYQB;2009-01-15 07:00;CYQB 150700Z 25008KT 15SM FEW040 SCT220 M26/M32 A3019 RMK SC1CI0 SLP234

CYQB;2009-01-15 08:00;CYQB 150800Z 27009KT 15SM FEW020 FEW220 M26/M31 A3019 RMK SF1CI0 SLP234

CYQB;2009-01-15 09:00;CYQB 150900Z 00000KT 15SM FEW020 M28/M32 A3019 RMK SF1 SLP234

CYQB;2009-01-15 10:00;CYQB 151000Z 00000KT 15SM SKC M28/M33 A3020 RMK SLP235

CYQB;2009-01-15 11:00;CYQB 151100Z 09004KT 15SM SKC M30/M34 A3021 RMK SLP240

CYQB;2009-01-15 12:00;CYQB 151200Z 00000KT 15SM FEW010 FEW140 M31/M36 A3023 RMK SF1AC1 SLP247

CYQB;2009-01-15 13:00;CYQB 151300Z 00000KT 30SM FEW230 M32/M35 A3025 RMK CI1 SLP253

CYQB;2009-01-15 14:00;CYQB 151400Z 00000KT 30SM FEW012 FEW230 M28/M33 A3027 RMK CF1CI1 SLP261

CYQB;2009-01-15 15:00;CYQB 151500Z 00000KT 30SM FEW015 FEW230 M26/M30 A3028 RMK CF1CI1 SLP265

CYQB;2009-01-15 16:00;CYQB 151600Z 24007KT 30SM FEW015 M24/M29 A3028 RMK CF1 SLP265

CYQB;2009-01-15 17:00;CYQB 151700Z 23011KT 30SM FEW020 M23/M30 A3026 RMK CU1 SLP258

CYQB;2009-01-15 18:00;CYQB 151800Z 24012KT 30SM FEW020 M22/M30 A3025 RMK CF1 SLP255

CYQB;2009-01-15 19:00;CYQB 151900Z 23010KT 30SM FEW025 M22/M29 A3025 RMK CF1 SLP254

CYQB;2009-01-15 20:00;CYQB 152000Z 23011KT 30SM FEW025 M22/M26 A3025 RMK CF1 SLP255

CYQB;2009-01-15 21:00;CYQB 152100Z 23010KT 30SM FEW025 M23/M29 A3027 RMK CF1 SLP261

CYQB;2009-01-15 22:00;CYQB 152200Z 24009KT 15SM FEW020 M23/M31 A3028 RMK CF1 SLP265

CYQB;2009-01-15 23:00;CYQB 152300Z 23003KT 15SM SKC M24/M31 A3029 RMK SLP268

CYQB;2009-01-16 00:00;CYQB 160000Z 26011KT 15SM SKC M26/M33 A3030 RMK SLP272

CYQB;2009-01-16 01:00;CYQB 160100Z 26009KT 15SM SKC M25/M32 A3031 RMK SLP274

CYQB;2009-01-16 02:00;CYQB 160200Z 26003KT 15SM SKC M26/M32 A3032 RMK SLP277

CYQB;2009-01-16 03:00;CYQB 160300Z 00000KT 15SM FEW210 M30/M35 A3032 RMK CI0 SLP278

CYQB;2009-01-16 04:00;CYQB 160400Z 01002KT 15SM SKC M28/M34 A3031 RMK SLP276

CYQB;2009-01-16 05:00;CYQB 160500Z 02003KT 15SM FEW001 FEW180 M29/M34 A3031 RMK ST1AC0 SLP275

CYQB;2009-01-16 06:00;CYQB 160600Z 01003KT 15SM FEW001 FEW030 M29/M34 A3030 RMK ST2SC1 SLP271

CYQB;2009-01-16 07:00;CYQB 160700Z 00000KT 10SM FEW002 SCT020 M33/M38 A3030 RMK ST2SC1 SLP271

CYQB;2009-01-16 08:00;CYQB 160800Z 00000KT 15SM FEW002 SCT020 M33/M38 A3030 RMK ST2SC1 SLP269

CYQB;2009-01-16 09:00;CYQB 160900Z 33002KT 5SM IC FEW002 BKN020 M34/M39 A3029 RMK ST2SC1 SLP269

CYQB;2009-01-16 10:00;CYQB 161000Z 04003KT 10SM FEW002 M31/M36 A3029 RMK ST1 SLP269

CYQB;2009-01-16 11:00;CYQB 161100Z 31004KT 12SM SKC M31/M36 A3030 RMK SLP271

CYQB;2009-01-16 12:00;CYQB 161200Z 31005KT 15SM SKC M32/M37 A3031 RMK SLP274

CYQB;2009-01-16 12:38;CYQB 161238Z CCA 31005KT 6SM HZ BKN040 M33/ RMK SC2 VIS NE 30

CYQB;2009-01-16 12:45;CYQB 161245Z 00000KT 3SM -SN OVC040 M31/ RMK SN2SC2

CYQB;2009-01-16 13:00;CYQB 161300Z 29003KT 2SM IC SCT040 OVC200 M31/M36 A3032 RMK IC2SC1CI0 SLP278

CYQB;2009-01-16 13:35;CYQB 161335Z 27004KT 30SM SCT040 M31/ RMK SC2

CYQB;2009-01-16 14:00;CYQB 161400Z 29002KT 6SM IC FEW040 M30/M35 A3033 RMK SC1 VIS NE 30 SLP280

CYQB;2009-01-16 15:00;CYQB 161500Z 23007KT 6SM IC FEW040 M27/M31 A3033 RMK SC1 SLP281

CYQB;2009-01-16 16:00;CYQB 161600Z 23010G15KT 6SM IC FEW200 M26/M30 A3032 RMK CI0 SLP279

CYQB;2009-01-16 17:00;CYQB 161700Z 25013KT 30SM FEW010 M24/M30 A3030 RMK CF1 SLP273

CYQB;2009-01-16 18:00;CYQB 161800Z 24014KT 30SM FEW010 FEW200 M24/M30 A3030 RMK CF1CI0 VIS N QUAD LWR SLP271

CYQB;2009-01-16 19:00;CYQB 161900Z 25015KT 30SM FEW010 SCT200 M24/M31 A3031 RMK CF1CI0 VIS N QUAD LWR SLP274

CYQB;2009-01-16 20:00;CYQB 162000Z 25015KT 10SM FEW015 SCT070 M24/M31 A3032 RMK CF1AC1 SLP277

CYQB;2009-01-16 21:00;CYQB 162100Z 25012KT 15SM FEW020 FEW200 M24/M31 A3033 RMK CF1CI1 SLP282

CYQB;2009-01-16 22:00;CYQB 162200Z 27007KT 15SM FEW020 FEW200 M26/M33 A3035 RMK CF1CI1 SLP288

CYQB;2009-01-16 23:00;CYQB 162300Z 29005KT 15SM FEW200 M28/M34 A3037 RMK CI0 SLP294

CYQB;2009-01-17 00:00;CYQB 170000Z 27004KT 15SM SKC M27/M33 A3038 RMK SLP297

CYQB;2009-01-17 01:00;CYQB 170100Z 31002KT 15SM SKC M28/M34 A3038 RMK SLP297

CYQB;2009-01-17 02:00;CYQB 170200Z 00000KT 15SM FEW200 M30/M35 A3038 RMK CI1 SLP297

CYQB;2009-01-17 03:00;CYQB 170300Z 02003KT 15SM FEW180 M28/M34 A3038 RMK AC0 SLP298

CYQB;2009-01-17 04:00;CYQB 170400Z 05002KT 15SM FEW002 FEW180 M31/M35 A3039 RMK ST1AC1 SLP300

CYQB;2009-01-17 05:00;CYQB 170500Z 34002KT 15SM FEW002 BKN130 M32/M38 A3039 RMK ST1AC4 SLP300

CYQB;2009-01-17 06:00;CYQB 170600Z 00000KT 15SM FEW002 SCT130 M32/M37 A3038 RMK ST1AC1 SLP299

CYQB;2009-01-17 07:00;CYQB 170700Z 01002KT 15SM SCT130 M33/M38 A3039 RMK AC3 SLP302

CYQB;2009-01-17 08:00;CYQB 170800Z 35003KT 15SM FEW100 BKN160 M34/M39 A3040 RMK AC2AC3 SLP306

CYQB;2009-01-17 09:00;CYQB 170900Z 03003KT 15SM FEW023 BKN140 M31/M35 A3039 RMK SC2AC3 SLP302

CYQB;2009-01-17 10:00;CYQB 171000Z 02004KT 8SM -SN BKN020 M31/M36 A3039 RMK SC6 SLP301

CYQB;2009-01-17 11:00;CYQB 171100Z 03007KT 6SM IC OVC027 M30/M35 A3039 RMK SC6 SLP300

CYQB;2009-01-17 12:00;CYQB 171200Z 36002KT 6SM IC OVC040 M30/M34 A3039 RMK SC6 SLP302

CYQB;2009-01-17 13:00;CYQB 171300Z 02005KT 6SM IC FEW040 OVC200 M30/M35 A3039 RMK SC2CI3 SLP302

CYQB;2009-01-17 14:00;CYQB 171400Z 03004KT 4SM IC OVC020 M29/M34 A3039 RMK SC6 SLP302

CYQB;2009-01-17 15:00;CYQB 171500Z 03005KT 4SM IC SCT029 OVC200 M27/M31 A3040 RMK SC3CI2 SLP304

CYQB;2009-01-17 16:00;CYQB 171600Z 04003KT 2SM IC OVC020 M25/M29 A3039 RMK SC6 SLP300

CYQB;2009-01-17 17:00;CYQB 171700Z 10003KT 2 1/2SM IC OVC017 M23/M29 A3037 RMK SC5 SLP296

CYQB;2009-01-17 18:00;CYQB 171800Z 13002KT 6SM IC SCT020 BKN200 M22/M27 A3037 RMK SC3CI1 SLP295

CYQB;2009-01-17 19:00;CYQB 171900Z 00000KT 6SM IC FEW020 FEW080 SCT200 M21/M26 A3037 RMK SC1AC1CI1 SLP294

CYQB;2009-01-17 20:00;CYQB 172000Z 00000KT 15SM FEW020 FEW095 M20/M26 A3037 RMK SC1AC1 SLP295

CYQB;2009-01-17 21:00;CYQB 172100Z 00000KT 20SM FEW090 FEW230 M21/M27 A3037 RMK AC1CI1 SLP295

CYQB;2009-01-17 22:00;CYQB 172200Z 35003KT 14SM FEW090 M22/M29 A3039 RMK AC1 SLP300

CYQB;2009-01-17 23:00;CYQB 172300Z 01004KT 14SM FEW090 M22/M28 A3040 RMK AC1 HAZY SLP303

CYQB;2009-01-18 00:00;CYQB 180000Z 05003KT 10SM BKN070 M23/M28 A3041 RMK AC6 HAZY IC SLP310

CYQB;2009-01-18 01:00;CYQB 180100Z CCA 02002KT 3SM ICSN HZ BKN025 BKN040 OVC070 M23/M28 A3041 RMK SN5SC1SC1AC2 SLP308

CYQB;2009-01-18 02:00;CYQB 180200Z 02004KT 9SM FEW025 BKN056 M22/M27 A3041 RMK SC1SC3 SLP308

CYQB;2009-01-18 03:00;CYQB 180300Z 03005KT 8SM FEW025 BKN046 M23/M27 A3041 RMK SC2SC3 SLP309

CYQB;2009-01-18 04:00;CYQB 180400Z 05005KT 8SM FEW020 BKN120 BKN200 M21/M26 A3042 RMK SC1AC4CI2 SLP310

CYQB;2009-01-18 05:00;CYQB 180500Z 06006KT 10SM BKN033 BKN100 M21/M25 A3041 RMK SC6AC1 SLP307

CYQB;2009-01-18 06:00;CYQB 180600Z 07009KT 15SM OVC096 M20/M25 A3040 RMK AC8 SLP304

CYQB;2009-01-18 07:00;CYQB 180700Z 07012G17KT 15SM DRSN BKN100 M20/M25 A3039 RMK AC5 SLP301

CYQB;2009-01-18 08:00;CYQB 180800Z 06012KT 15SM SCT180 M20/M25 A3036 RMK AC2 SLP289

CYQB;2009-01-18 09:00;CYQB 180900Z 07011G17KT 15SM DRSN FEW058 BKN180 M18/M24 A3034 RMK SC2AC2 SLP282

CYQB;2009-01-18 10:00;CYQB 181000Z 07019G28KT 15SM DRSN SCT055 BKN083 OVC180 M18/M23 A3033 RMK SC3AC3AC1 SLP278

CYQB;2009-01-18 10:42;CYQB 181042Z 07020G26KT 5SM -SN DRSN BKN015 OVC030 M18/ RMK SC6SC2

CYQB;2009-01-18 11:00;CYQB 181100Z 08019G28KT 4SM -SN DRSN BKN012 OVC025 M17/M22 A3032 RMK SC6SC2 SLP275

CYQB;2009-01-18 12:00;CYQB 181200Z 08015G26KT 3SM -SN DRSN BKN009 OVC021 M17/M21 A3031 RMK SF6SC2 SLP274

CYQB;2009-01-18 12:20;CYQB 181220Z 09016G27KT 1/2SM R06/5500FT/D SN DRSN OVC009 M17/ RMK SF8

CYQB;2009-01-18 12:50;CYQB 181250Z 07022G31KT 1/2SM R06/2800V4500FT/D -SN BLSN OVC018 M17/ RMK SN3SC5

CYQB;2009-01-18 13:00;CYQB 181300Z 07022G29KT 1/2SM R06/3000FT/N -SN BLSN OVC015 M17/M21 A3029 RMK SN3SC5 SLP267

CYQB;2009-01-18 14:00;CYQB 181400Z 07017G30KT 1/2SM R06/2800V4500FT/U -SN BLSN OVC016 M17/M21 A3028 RMK SN2SC6 SLP263

CYQB;2009-01-18 15:00;CYQB 181500Z CCA 08021G26KT 1/2SM R06/3500FT/D -SN BLSN VV008 M17/M20 A3026 RMK SN8 /S01/ SLP254

CYQB;2009-01-18 15:33;CYQB 181533Z 08020G30KT 1/2SM R06/3000FT/N -SN BLSN VV011 M16/ RMK SN8

CYQB;2009-01-18 16:00;CYQB 181600Z 08017G30KT 1/2SM R06/2800FT/N -SN BLSN VV008 M16/M20 A3022 RMK SN8 SLP241

CYQB;2009-01-18 17:00;CYQB 181700Z 07020G27KT 3/4SM R06/2800V4500FT/N -SN BLSN BKN014 OVC025 M15/M19 A3017 RMK SC6SC2 SLP225

CYQB;2009-01-18 17:17;CYQB 181717Z 08019G27KT 1/2SM R06/3500FT/D -SN BLSN VV008 M15/ RMK SN8

CYQB;2009-01-18 17:30;CYQB 181730Z 08022G29KT 3/8SM R06/2600FT/N -SN BLSN VV006 M15/ RMK SN8

CYQB;2009-01-18 18:00;CYQB 181800Z 07020G32KT 1/2SM R06/3000FT/N -SN BLSN VV008 M15/M20 A3013 RMK SN8 /S02/ SLP210

CYQB;2009-01-18 18:43;CYQB 181843Z 08024G30KT 3/4SM R06/3000V5500FT/N -SN BLSN OVC020 M15/ RMK SN2SC6

CYQB;2009-01-18 19:00;CYQB 181900Z 07022G30KT 1 1/2SM R06/2800VP6000FT/D -SN BLSN BKN010 OVC020 M15/M19 A3010 RMK SF5SC3 SLP201

CYQB;2009-01-18 19:15;CYQB 181915Z 07020G35KT 1/2SM R06/3000FT/N -SN BLSN VV007 M15/ RMK SN8

CYQB;2009-01-18 20:00;CYQB 182000Z 07018G28KT 3/4SM R06/3000V5000FT/D -SN DRSN VV007 M14/M17 A3009 RMK SN8 VIS VRB 1/2-1 /S01/ SLP196

CYQB;2009-01-18 20:38;CYQB 182038Z 08020G33KT 1/2SM R06/3000FT/N -SN DRSN VV005 M14/ RMK SN8

CYQB;2009-01-18 21:00;CYQB 182100Z 07016G26KT 3/4SM R06/3500V5000FT/N -SN BLSN VV008 M14/M17 A3006 RMK SN8 VIS VRB 1/2-1 /S02/ SLP188

CYQB;2009-01-18 22:00;CYQB 182200Z 07018G24KT 1SM R06/P6000FT/D -SN DRSN VV007 M13/M16 A3004 RMK SN8 VIS VRB 3/4-11/2 /S03/ SLP181

CYQB;2009-01-18 23:00;CYQB 182300Z 07020G29KT 1SM R06/4500VP6000FT/U -SN BLSN VV007 M13/M16 A3003 RMK SN8 VIS VRB 3/4-11/2 /S04/ SLP178

CYQB;2009-01-18 23:37;CYQB 182337Z 07018G28KT 1 1/2SM -SN DRSN VV013 M13/ RMK SN8

CYQB;2009-01-19 00:00;CYQB 190000Z 08017G26KT 1 1/2SM -SN DRSN OVC018 M13/M15 A3002 RMK SN2SC6 /S05/ SLP172

CYQB;2009-01-19 01:00;CYQB 190100Z 07021KT 4SM -SN DRSN OVC044 M13/M15 A2999 RMK SN1SC7 SLP163

CYQB;2009-01-19 01:52;CYQB 190152Z 07020G27KT 3SM -SN DRSN VV013 M13/ RMK SN8

CYQB;2009-01-19 02:00;CYQB 190200Z 07018G26KT 4SM -SN DRSN FEW014 OVC026 M13/M15 A2996 RMK SF2SC6 SLP151

CYQB;2009-01-19 03:00;CYQB 190300Z 07017G24KT 6SM -SN DRSN FEW035 OVC046 M13/M15 A2997 RMK SC2SC6 SLP154

CYQB;2009-01-19 04:00;CYQB 190400Z 07014G21KT 6SM -SN DRSN OVC040 M13/M15 A2993 RMK SC8 SLP142

CYQB;2009-01-19 05:00;CYQB 190500Z 08014G22KT 6SM -SN DRSN BKN038 OVC180 M13/M16 A2988 RMK SC7AC1 SLP124

CYQB;2009-01-19 06:00;CYQB 190600Z CCA 07015G24KT 15SM DRSN FEW020 OVC200 M13/M15 A2985 RMK SC2CI2 SLP115

CYQB;2009-01-19 07:00;CYQB 190700Z 08012G17KT 12SM -SN BKN027 BKN033 OVC220 M12/M15 A2984 RMK SC6SC1CI1 SLP112

CYQB;2009-01-19 08:00;CYQB 190800Z 07016G21KT 12SM OVC025 M12/M15 A2981 RMK SC8 INTMT -SN SLP100

CYQB;2009-01-19 08:31;CYQB 190831Z 07015KT 15SM OVC025 M12/ RMK SC8

CYQB;2009-01-19 09:00;CYQB 190900Z 07009G15KT 15SM BKN021 BKN140 M12/M15 A2978 RMK SC5AC1 SLP090

CYQB;2009-01-19 10:00;CYQB 191000Z 08009G15KT 15SM FEW020 BKN100 M12/M16 A2975 RMK SC2AS0 SLP080

CYQB;2009-01-19 11:00;CYQB 191100Z 07012KT 15SM FEW020 BKN100 M12/M16 A2976 RMK SC2AS1 SLP083

CYQB;2009-01-19 12:00;CYQB 191200Z 07008KT 15SM SCT100 M12/M16 A2972 RMK AS2 SLP072

CYQB;2009-01-19 13:00;CYQB 191300Z 04007KT 15SM FEW020 BKN092 M12/M16 A2970 RMK SC2AC4 SLP064

CYQB;2009-01-19 14:00;CYQB 191400Z 03005KT 15SM FEW020 SCT100 M12/M15 A2969 RMK SC2AC1 SLP060

CYQB;2009-01-19 15:00;CYQB 191500Z 07008KT 15SM SCT018 BKN140 M11/M15 A2969 RMK SC3AC2 SLP059

CYQB;2009-01-19 16:00;CYQB 191600Z CCA 08007KT 15SM FEW018 BKN087 M11/M14 A2968 RMK SC2AC4 SLP056

CYQB;2009-01-19 17:00;CYQB 191700Z 11004KT 15SM FEW018 BKN087 M10/M13 A2967 RMK SC2AC2 SLP053

CYQB;2009-01-19 18:00;CYQB 191800Z 00000KT 15SM BKN018 OVC087 M09/M13 A2966 RMK SC5AC2 SLP048

CYQB;2009-01-19 18:26;CYQB 191826Z 11004KT 15SM -SN BKN018 OVC095 M09/ RMK SC5AC3

CYQB;2009-01-19 19:00;CYQB 191900Z 07004KT 15SM -SN FEW018 OVC076 M09/M13 A2964 RMK SC2AC6 SLP042

CYQB;2009-01-19 19:32;CYQB 191932Z 07006KT 15SM FEW018 BKN055 BKN065 M09/ RMK SC1SC4SC2

CYQB;2009-01-19 20:00;CYQB 192000Z 09006KT 15SM FEW020 BKN060 BKN110 M10/M14 A2965 RMK SC1SC4AC2 SLP046

CYQB;2009-01-19 21:00;CYQB 192100Z 10003KT 15SM FEW060 BKN110 M09/M13 A2966 RMK SC2AC5 SLP048

CYQB;2009-01-19 22:00;CYQB 192200Z 32003KT 15SM FEW020 BKN110 M11/M15 A2966 RMK SC1AC6 SLP049

CYQB;2009-01-19 23:00;CYQB 192300Z 31003KT 15SM FEW020 BKN080 BKN110 M11/M15 A2967 RMK SC1AC4AC2 SLP054

CYQB;2009-01-20 00:00;CYQB 200000Z 00000KT 15SM FEW020 FEW030 BKN080 OVC110 M11/M14 A2968 RMK SC1SC1AC6AC1 SLP056

CYQB;2009-01-20 00:20;CYQB 200020Z 00000KT 15SM -SN SCT020 BKN080 OVC110 M11/ RMK SC3AC4AC1

CYQB;2009-01-20 01:00;CYQB 200100Z 36004KT 3SM R06/3000VP6000FT/N -SN BKN020 OVC080 M10/M13 A2968 RMK SN1SC6AC1 SLP056

CYQB;2009-01-20 02:00;CYQB 200200Z 36003KT 4SM -SN BKN013 OVC080 M10/M13 A2967 RMK SC7AC1 SLP055

CYQB;2009-01-20 03:00;CYQB 200300Z 36005KT 4SM -SN VV010 M10/M12 A2967 RMK SN8 SLP053

CYQB;2009-01-20 04:00;CYQB 200400Z 02004KT 3SM -SN VV013 M10/M12 A2967 RMK SN8 SLP051

CYQB;2009-01-20 05:00;CYQB 200500Z 00000KT 4SM -SN VV017 M10/M12 A2967 RMK SN8 SLP051

CYQB;2009-01-20 05:36;CYQB 200536Z 35002KT 1SM R06/P6000FT/D -SN VV006 M10/ RMK SN8 /S01/

CYQB;2009-01-20 06:00;CYQB 200600Z 36002KT 1 1/4SM -SN VV008 M10/M12 A2967 RMK SN8 SLP051

CYQB;2009-01-20 07:00;CYQB 200700Z 35002KT 1 3/4SM -SN VV011 M10/M12 A2968 RMK SN8 SLP056

CYQB;2009-01-20 08:00;CYQB 200800Z 00000KT 2SM -SN BKN027 OVC130 M11/M13 A2969 RMK SN5SC2AC1 SLP058

CYQB;2009-01-20 09:00;CYQB 200900Z 00000KT 5SM -SN BKN026 BKN060 OVC130 M13/M14 A2969 RMK SC6SC2AC1 SLP059

CYQB;2009-01-20 10:00;CYQB 201000Z 00000KT 6SM -SN BKN027 BKN058 OVC140 M13/M15 A2969 RMK SC5SC1AS2 MOON DMLY VSBL SLP060

CYQB;2009-01-20 11:00;CYQB 201100Z 00000KT 12SM -SN BKN040 BKN140 M14/M15 A2969 RMK SC5AS2 SLP059

CYQB;2009-01-20 12:00;CYQB 201200Z 00000KT 12SM FEW020 FEW140 M16/M18 A2970 RMK SC1AC1 SLP065

CYQB;2009-01-20 13:00;CYQB 201300Z 00000KT 10SM R06/3000VP6000FT/D -SN BCFG FEW004 SCT040 SCT060 M15/M18 A2972 RMK SF1SC3SC1 SLP071

CYQB;2009-01-20 13:13;CYQB 201313Z 00000KT 1/2SM R06/P6000FT/N -SN FZFG FEW002 SCT040 M15/ RMK FG2SF1SC2 VIS N 6

CYQB;2009-01-20 13:25;CYQB 201325Z 00000KT 10SM -SN FEW002 FEW040 M17/ RMK SF1SC2 VIS SE 11/2

CYQB;2009-01-20 14:00;CYQB 201400Z 23004KT 8SM FEW004 FEW040 M15/M17 A2973 RMK SF1SC1 SLP074

CYQB;2009-01-20 15:00;CYQB 201500Z 25006KT 8SM FEW008 FEW040 M13/M15 A2974 RMK SF1SC2 SLP076

CYQB;2009-01-20 16:00;CYQB 201600Z 23006KT 12SM FEW008 FEW040 M12/M14 A2972 RMK SF1SC1 SLP070

CYQB;2009-01-20 17:00;CYQB 201700Z 24010KT 12SM FEW015 FEW040 M12/M14 A2971 RMK SF1SC1 SLP068

CYQB;2009-01-20 18:00;CYQB 201800Z 23011KT 15SM FEW020 FEW040 M11/M14 A2971 RMK SC1SC1 SLP067

CYQB;2009-01-20 19:00;CYQB 201900Z 22011KT 15SM FEW025 FEW045 M10/M14 A2971 RMK SC1SC1 SLP065

CYQB;2009-01-20 20:00;CYQB 202000Z 23008KT 20SM FEW025 M10/M15 A2971 RMK SC1 SLP067

CYQB;2009-01-20 21:00;CYQB 202100Z 23008KT 20SM FEW035 M11/M16 A2972 RMK SC2 SLP069

CYQB;2009-01-20 21:18;CYQB 202118Z 24007KT 15SM -SHSN FEW036 M11/ RMK SC2

CYQB;2009-01-20 22:00;CYQB 202200Z 24007KT 15SM FEW016 FEW025 FEW036 M12/M16 A2972 RMK SC1SC1SC1 SLP072

CYQB;2009-01-20 23:00;CYQB 202300Z 27007KT 15SM FEW016 FEW025 SCT060 M14/M17 A2972 RMK SC1SC2SC1 SLP072

CYQB;2009-01-21 00:00;CYQB 210000Z 24007KT 15SM FEW025 M14/M17 A2973 RMK SC1 SLP074

CYQB;2009-01-21 01:00;CYQB 210100Z 25005KT 15SM FEW020 M16/M18 A2972 RMK SC1 SLP072

CYQB;2009-01-21 02:00;CYQB 210200Z 00000KT 15SM FEW020 M17/M20 A2973 RMK SC1 SLP075

CYQB;2009-01-21 03:00;CYQB 210300Z 28003KT 15SM FEW020 M17/M19 A2973 RMK SC1 SLP074

CYQB;2009-01-21 04:00;CYQB 210400Z 00000KT 15SM FEW020 M21/M29 A2973 RMK SC1 SLP075

CYQB;2009-01-21 05:00;CYQB 210500Z 00000KT 15SM FEW020 M23/M28 A2974 RMK SC1 SLP077

CYQB;2009-01-21 06:00;CYQB 210600Z 29003KT 6SM BR FEW020 M20/M24 A2973 RMK SC1 SLP076

CYQB;2009-01-21 07:00;CYQB 210700Z 27002KT 10SM FEW020 M22/M26 A2974 RMK SC1 SLP077

CYQB;2009-01-21 08:00;CYQB 210800Z 29004KT 10SM FEW020 M21/M25 A2974 RMK SC1 SLP077

CYQB;2009-01-21 09:00;CYQB 210900Z 28006KT 10SM FEW020 M22/M26 A2973 RMK SC1 SLP075

CYQB;2009-01-21 10:00;CYQB 211000Z 24007KT 10SM FEW020 FEW170 M20/M24 A2973 RMK SC1AS1 SLP076

CYQB;2009-01-21 11:00;CYQB 211100Z 24010KT 15SM FEW020 M20/M24 A2974 RMK SC1 SLP077

CYQB;2009-01-21 12:00;CYQB 211200Z 25012KT 15SM FEW012 FEW190 M20/M24 A2975 RMK SF1CI1 SLP081

CYQB;2009-01-21 13:00;CYQB 211300Z 23011KT 15SM FEW012 FEW190 M20/M23 A2975 RMK SF1CI1 SLP082

CYQB;2009-01-21 14:00;CYQB 211400Z 25012KT 15SM FEW010 BKN190 M19/M23 A2976 RMK SF1CI2 SLP085

CYQB;2009-01-21 15:00;CYQB 211500Z 23012KT 15SM FEW010 BKN190 M18/M20 A2976 RMK SF1CI5 SLP086

CYQB;2009-01-21 16:00;CYQB 211600Z 24013KT 15SM FEW010 BKN150 BKN190 M17/M22 A2975 RMK SF1AC5CI2 SLP082

CYQB;2009-01-21 17:00;CYQB 211700Z 25013KT 15SM SCT014 BKN150 M16/M21 A2974 RMK SC4AC3 SLP078

CYQB;2009-01-21 18:00;CYQB 211800Z 25011G16KT 10SM FEW014 OVC038 M15/M19 A2971 RMK CU1SC6 SLP068

CYQB;2009-01-21 18:18;CYQB 211818Z 26011KT 10SM -SHSN FEW021 OVC037 M15/ RMK CU1SC6

CYQB;2009-01-21 18:25;CYQB 211825Z CCA 26011KT 10SM -SHSN FEW021 OVC037 M15/ RMK CU1SC6

CYQB;2009-01-21 19:00;CYQB 211900Z 26011KT 10SM -SHSN FEW008 SCT016 OVC230 M14/M18 A2971 RMK CF1CU2CS4 SLP068

CYQB;2009-01-21 20:00;CYQB 212000Z 26013KT 7SM -SHSN FEW017 BKN052 OVC230 M14/M18 A2971 RMK CF1SC4CS2 SLP069

CYQB;2009-01-21 21:00;CYQB 212100Z 26011KT 3SM -SHSN FEW024 OVC084 M14/M18 A2972 RMK SC1AC6 SLP071

CYQB;2009-01-21 22:00;CYQB 212200Z 26009KT 3SM -SN FEW020 OVC071 M13/M17 A2971 RMK SC1AC6 SLP067

CYQB;2009-01-21 23:00;CYQB 212300Z 28007KT 3SM -SN FEW012 OVC030 M14/M17 A2971 RMK SC1SC6 SLP068

CYQB;2009-01-22 00:00;CYQB 220000Z 28006KT 3SM -SN FEW020 OVC094 M14/M17 A2970 RMK SC1AC7 SLP066

CYQB;2009-01-22 01:00;CYQB 220100Z 27008KT 6SM -SN FEW020 OVC087 M14/M17 A2970 RMK SC1AC7 SLP063

CYQB;2009-01-22 02:00;CYQB 220200Z CCA 27008KT 6SM -SN FEW015 OVC084 M13/M16 A2968 RMK SC1AC7 /SO1/ SLP057

CYQB;2009-01-22 03:00;CYQB 220300Z 24006KT 10SM FEW015 SCT060 BKN080 M13/M15 A2967 RMK SC1SC2AC4 SLP055

CYQB;2009-01-22 04:00;CYQB 220400Z 00000KT 6SM -SN BKN042 OVC050 M13/M14 A2967 RMK SC6SC2 SLP052

CYQB;2009-01-22 05:00;CYQB 220500Z 25011KT 5SM -SN BKN044 OVC062 M13/M15 A2965 RMK SC7SC1 SLP046

CYQB;2009-01-22 06:00;CYQB 220600Z 26011KT 3SM -SN BKN038 OVC058 M12/M15 A2964 RMK SC6SC2 SLP044

CYQB;2009-01-22 07:00;CYQB 220700Z 26010KT 1 1/2SM -SN OVC053 M12/M14 A2963 RMK SC8 SLP041

CYQB;2009-01-22 08:00;CYQB 220800Z 24006KT 2SM -SN OVC035 M12/M14 A2961 RMK SC8 /S01/ SLP035

CYQB;2009-01-22 09:00;CYQB 220900Z 24005KT 1 1/2SM -SN OVC030 M12/M13 A2959 RMK SF8 SLP026

CYQB;2009-01-22 10:00;CYQB 221000Z 25005KT 3/4SM R06/P6000FT/D -SN OVC007 M11/M13 A2956 RMK SF8 /S02/ SLP017

CYQB;2009-01-22 11:00;CYQB 221100Z 26006KT 3/4SM R06/P6000FT/U -SN VV006 M10/M12 A2955 RMK SN8 SLP014

CYQB;2009-01-22 12:00;CYQB 221200Z 25009KT 1SM R06/P6000FT/U -SN OVC020 M09/M11 A2955 RMK SN6SC2 SLP011

CYQB;2009-01-22 13:00;CYQB 221300Z 26012KT 3/4SM R06/P6000FT/U -SN DRSN OVC015 M08/M10 A2955 RMK SN5SC3 SLP013

CYQB;2009-01-22 14:00;CYQB 221400Z 25012KT 1 1/2SM -SN DRSN BKN015 OVC060 M08/M09 A2954 RMK SN3SC3SC2 SLP010

CYQB;2009-01-22 15:00;CYQB 221500Z 26014KT 2SM -SN DRSN SCT008 OVC014 M05/M07 A2955 RMK SN3SF1SC4 SLP012

CYQB;2009-01-22 15:18;CYQB 221518Z 25015G21KT 1 1/4SM -SN DRSN OVC014 M05/ RMK SN5SC3

CYQB;2009-01-22 16:00;CYQB 221600Z 25019KT 1SM R06/P6000FT/D -SN DRSN OVC016 M05/M06 A2954 RMK SN5SC3 SLP010

CYQB;2009-01-22 17:00;CYQB 221700Z 25017G25KT 2 1/2SM -SN DRSN BKN018 OVC035 M04/M05 A2953 RMK SN2SC5SC2 VIS NW 5 SLP007

CYQB;2009-01-22 17:13;CYQB 221713Z 25019G24KT 5SM -SN DRSN BKN018 BKN032 M04/ RMK SC5SC2

CYQB;2009-01-22 17:35;CYQB 221735Z CCA 24020KT 10SM -SHSN DRSN BKN018 BKN220 M04/ RMK SC5CI1 TCU ASOCTD

CYQB;2009-01-22 18:00;CYQB 221800Z 25016G25KT 3SM -SHSN BLSN OVC018 M04/M05 A2953 RMK SN2SC6 VIS VRB 2-4 SLP004

CYQB;2009-01-22 18:10;CYQB 221810Z CCB 25016G21KT 1 1/4SM -SHSN BLSN VV012 M04/ RMK SN8 VIS VRB 3/4-2

CYQB;2009-01-22 18:28;CYQB 221828Z 25026G31KT 3/4SM R06/3500VP6000FT/D -SHSN BLSN VV014 M04/ RMK SN8

CYQB;2009-01-22 18:38;CYQB 221838Z 25023G30KT 2 1/2SM -SHSN BLSN BKN018 M04/ RMK SN3SC4 VIS W 5

CYQB;2009-01-22 18:48;CYQB 221848Z CCA 25022G30KT 1/4SM R06/3000VP6000FT/D SHSN +BLSN VV007 M04/ RMK SN8

CYQB;2009-01-22 18:55;CYQB 221855Z 28014G28KT 1/8SM R06/1400V4000FT/D +SHSN +BLSN VV003 M04/ RMK SN8

CYQB;2009-01-22 19:00;CYQB 221900Z 26018KT 2 1/2SM -SHSN DRSN FEW004 BKN015 M04/M05 A2956 RESN REBLSN RMK SF2SC3 VIS W-N 6 SLP013

CYQB;2009-01-22 19:18;CYQB 221918Z 27015KT 10SM -SHSN FEW004 SCT018 M05/ RMK SF1SC3 VIS LWR W

CYQB;2009-01-22 19:46;CYQB 221946Z 30022G31KT 1/2SM R06/P6000FT/N -SHSN BLSN SCT022 BKN050 M05/ RMK SN2SC2SC2 VIS VRB 1-3

CYQB;2009-01-22 20:00;CYQB 222000Z 30017G29KT 5SM -SHSN SCT020 BKN033 OVC080 M05/M06 A2959 REBLSN RMK SC3SC2AS0 SLP024

CYQB;2009-01-22 20:11;CYQB 222011Z 30020G29KT 1 1/2SM R06/4500VP6000FT/U -SHSN BLSN FEW018 BKN070 M06/ RMK SC2AS0 VIS VRB 1/2-4

CYQB;2009-01-22 21:00;CYQB 222100Z 30016G25KT 6SM BLSN FEW018 M06/M09 A2963 RMK SC2 TWR VIS 15 SLP039

CYQB;2009-01-22 21:35;CYQB 222135Z 29013G19KT 15SM FEW018 M07/ REBLSN RMK SC1

CYQB;2009-01-22 22:00;CYQB 222200Z 31014KT 15SM FEW018 M06/M12 A2969 REBLSN RMK SC1 PRESRR SLP059

CYQB;2009-01-22 23:00;CYQB 222300Z 32013KT 15SM SKC M08/M14 A2975 RMK PRESRR SLP080

CYQB;2009-01-23 00:00;CYQB 230000Z 32014KT 15SM FEW020 M10/M16 A2981 RMK CF1 SLP102

CYQB;2009-01-23 01:00;CYQB 230100Z 30006KT 15SM FEW020 M12/M18 A2988 RMK CF1 PRESRR SLP124

CYQB;2009-01-23 02:00;CYQB 230200Z 27004KT 15SM SKC M13/M19 A2992 RMK SLP138

CYQB;2009-01-23 03:00;CYQB 230300Z 31010G18KT 15SM SKC M14/M20 A2993 RMK SLP142

CYQB;2009-01-23 04:00;CYQB 230400Z 33010G20KT 15SM SKC M15/M20 A2997 RMK SLP153

CYQB;2009-01-23 05:00;CYQB 230500Z 18002KT 15SM SKC M17/M22 A3000 RMK SLP164

CYQB;2009-01-23 06:00;CYQB 230600Z 32004KT 15SM SKC M17/M22 A3001 RMK SLP168

CYQB;2009-01-23 07:00;CYQB 230700Z 25003KT 15SM SKC M20/M24 A3004 RMK SLP177

CYQB;2009-01-23 08:00;CYQB 230800Z 32007KT 15SM FEW220 M21/M25 A3005 RMK CI0 SLP182

CYQB;2009-01-23 09:00;CYQB 230900Z 29005KT 15SM SCT220 M20/M30 A3006 RMK CI0 SLP186

CYQB;2009-01-23 10:00;CYQB 231000Z 35004KT 15SM SKC M19/M27 A3007 RMK SLP188

CYQB;2009-01-23 11:00;CYQB 231100Z 03002KT 15SM SCT210 M20/M27 A3008 RMK CI1 SLP193

CYQB;2009-01-23 12:00;CYQB 231200Z 02006KT 20SM FEW100 FEW210 M20/M26 A3010 RMK AC1CI0 SLP200

CYQB;2009-01-23 13:00;CYQB 231300Z 03004KT 20SM FEW100 M21/M26 A3011 RMK AC2 SLP204

CYQB;2009-01-23 14:00;CYQB 231400Z 03005KT 20SM BKN120 M20/M25 A3010 RMK AC6 SLP201

CYQB;2009-01-23 15:00;CYQB 231500Z 04004KT 20SM BKN110 M18/M23 A3008 RMK AC7 SLP195

CYQB;2009-01-23 16:00;CYQB 231600Z 07007KT 20SM OVC100 M16/M21 A3004 RMK AC7 SLP181

CYQB;2009-01-23 17:00;CYQB 231700Z 07009KT 20SM FEW050 OVC090 M15/M21 A2999 RMK SC1AC7 SLP164

CYQB;2009-01-23 18:00;CYQB 231800Z 07012KT 15SM OVC040 M14/M20 A2992 RMK SC8 PRESFR SLP138

CYQB;2009-01-23 18:21;CYQB 231821Z 07010G15KT 15SM -SN OVC023 M14/ RMK SC8

CYQB;2009-01-23 18:49;CYQB 231849Z 07011KT 3SM -SN VV012 M14/ RMK SN8

CYQB;2009-01-23 19:00;CYQB 231900Z 06012G17KT 3SM -SN VV012 M14/M20 A2989 RMK SN8 SLP127

CYQB;2009-01-23 19:12;CYQB 231912Z 07012G19KT 1SM R06/P6000FT/D -SN VV012 M14/ RMK SN8

CYQB;2009-01-23 19:22;CYQB 231922Z 07011G16KT 3SM -SN OVC053 M14/ RMK SN2SC6

CYQB;2009-01-23 20:00;CYQB 232000Z 07014G19KT 2SM -SN VV019 M14/M18 A2983 RMK SN8 SLP109

CYQB;2009-01-23 21:00;CYQB 232100Z 08015KT 1 1/2SM -SN VV013 M13/M17 A2980 RMK SN8 SLP097

CYQB;2009-01-23 22:00;CYQB 232200Z 07014G19KT 1 1/2SM -SN DRSN OVC026 M13/M16 A2977 RMK SN4SC4 /S01/ SLP088

CYQB;2009-01-23 22:18;CYQB 232218Z 07017KT 4SM -SN DRSN OVC024 M13/ RMK SC8

CYQB;2009-01-23 23:00;CYQB 232300Z 07012G21KT 6SM -SN -FZDZ OVC020 M12/M15 A2973 RMK SC8 SLP075

CYQB;2009-01-23 23:29;CYQB 232329Z 07011G16KT 6SM -SN OVC019 M12/ REFZDZ RMK SC8

CYQB;2009-01-24 00:00;CYQB 240000Z 07015G20KT 6SM -SN OVC021 M12/M14 A2969 RMK SC8 REFZDZ PRESFR SLP061

CYQB;2009-01-24 01:00;CYQB 240100Z 08014G21KT 3SM -SN -FZDZ SCT010 OVC025 M12/M13 A2963 RMK SF4SC4 PRESFR SLP042

CYQB;2009-01-24 01:30;CYQB 240130Z 07012G18KT 1 1/2SM -SN -FZDZ OVC020 M11/ RMK SN4SC4

CYQB;2009-01-24 02:00;CYQB 240200Z 07013KT 3SM -SN OVC018 M11/M13 A2958 REFZDZ RMK SC8 SLP024

CYQB;2009-01-24 02:25;CYQB 240225Z 07013KT 1 1/2SM -SN OVC022 M11/ RMK SN3SC5

CYQB;2009-01-24 03:00;CYQB 240300Z 07011G16KT 3/4SM R06/P6000FT/D -SN VV006 M11/M13 A2953 RMK SN8 SLP006

CYQB;2009-01-24 03:38;CYQB 240338Z 08012KT 5/8SM R06/P6000FT/D -SN VV005 M11/ RMK SN8

CYQB;2009-01-24 04:00;CYQB 240400Z 07010G16KT 5/8SM R06/P6000FT/U -SN VV005 M11/M12 A2949 RMK SN8 /S02/ SLP992

CYQB;2009-01-24 05:00;CYQB 240500Z CCA 04007KT 3/4SM R06/P6000FT/U -SN VV008 M10/M11 A2948 RMK SN8 /S03/ SLP988

CYQB;2009-01-24 05:42;CYQB 240542Z 05002KT 3/4SM R06/P6000FT/D -SN VV006 M10/ RMK SN8

CYQB;2009-01-24 06:00;CYQB 240600Z 29005KT 3/4SM R06/P6000FT/U -SN VV005 M10/M11 A2950 RMK SN8 /S05/ SLP995

CYQB;2009-01-24 06:43;CYQB 240643Z 21007KT 2SM -SN OVC025 M09/ RMK SN6SC2

CYQB;2009-01-24 07:00;CYQB 240700Z 22009KT 4SM -SN BKN025 OVC089 M09/M11 A2953 RMK SC7AC1 /S01/ SLP004

CYQB;2009-01-24 08:00;CYQB 240800Z 25014KT 6SM -SN DRSN FEW025 OVC085 M09/M11 A2953 RMK SC2AC6 SLP007

CYQB;2009-01-24 08:32;CYQB 240832Z 25019KT 2SM -SN BLSN OVC030 M10/ RMK SN6SC2

CYQB;2009-01-24 09:00;CYQB 240900Z CCA 29011G17KT 3SM -SN DRSN BKN034 OVC052 M10/M12 A2958 REBLSN RMK SN2SC5SC1 PRESRR SLP022

CYQB;2009-01-24 10:00;CYQB 241000Z CCB 27020G27KT 8SM -SN DRSN FEW023 BKN100 M13/M16 A2963 RMK SC1AC5 PRESRR SLP038

CYQB;2009-01-24 11:00;CYQB 241100Z 30015KT 12SM -SN DRSN FEW030 BKN085 M15/M19 A2971 RMK SC2AC4 PRESRR SLP066

CYQB;2009-01-24 11:41;CYQB 241141Z 29014G22KT 12SM DRSN FEW030 SCT085 M17/ RMK SC2AC2

CYQB;2009-01-24 12:00;CYQB 241200Z 29015G21KT 20SM FEW030 FEW085 M17/M21 A2977 RMK SC2AC1 SLP088

CYQB;2009-01-24 13:00;CYQB 241300Z 28009G15KT 25SM FEW030 FEW085 M18/M23 A2982 RMK SC1AC1 PRESRR SLP106

CYQB;2009-01-24 14:00;CYQB 241400Z 28013G18KT 25SM FEW030 M18/M22 A2986 RMK SC1 SLP119

CYQB;2009-01-24 15:00;CYQB 241500Z 27014G21KT 25SM FEW030 M18/M22 A2989 RMK SC2 SLP127

CYQB;2009-01-24 16:00;CYQB 241600Z 26015G20KT 25SM FEW030 M18/M28 A2990 RMK CF2 SLP132

CYQB;2009-01-24 17:00;CYQB 241700Z 26017G22KT 25SM FEW030 M18/M25 A2991 RMK CF2 SLP136

CYQB;2009-01-24 18:00;CYQB 241800Z 26019G24KT 25SM FEW030 M18/M24 A2994 RMK CF2 SLP145

CYQB;2009-01-24 19:00;CYQB 241900Z 26022G28KT 25SM DRSN FEW030 M19/M23 A2997 RMK CF1 SLP155

CYQB;2009-01-24 20:00;CYQB 242000Z 26020G27KT 25SM DRSN FEW030 M19/M24 A3000 RMK CF1 SLP165

CYQB;2009-01-24 21:00;CYQB 242100Z 27017G22KT 25SM DRSN FEW030 FEW090 M20/M25 A3004 RMK CF1AC1 SLP179

CYQB;2009-01-24 22:00;CYQB 242200Z 28016KT 25SM FEW030 FEW090 M21/M27 A3005 RMK CF1AC1 SLP184

CYQB;2009-01-24 23:00;CYQB 242300Z 28017KT 15SM SKC M21/M27 A3007 RMK SLP191

CYQB;2009-01-25 00:00;CYQB 250000Z 29012G17KT 15SM SKC M22/M27 A3009 RMK SLP197

CYQB;2009-01-25 01:00;CYQB 250100Z 30011G16KT 15SM SKC M22/M27 A3010 RMK SLP201

CYQB;2009-01-25 02:00;CYQB 250200Z 27010KT 15SM SKC M23/M29 A3011 RMK SLP206

CYQB;2009-01-25 03:00;CYQB 250300Z 27011KT 15SM FEW012 M24/M30 A3013 RMK SF1 SLP210

CYQB;2009-01-25 04:00;CYQB 250400Z 27008KT 15SM FEW010 M24/M29 A3013 RMK SF1 SLP212

CYQB;2009-01-25 05:00;CYQB 250500Z 27008KT 15SM FEW060 M25/M30 A3012 RMK SC2 SLP208

CYQB;2009-01-25 06:00;CYQB 250600Z 27008KT 15SM FEW060 SCT200 M26/M31 A3011 RMK SC2CI0 SLP206

CYQB;2009-01-25 07:00;CYQB 250700Z 25005KT 1 1/2SM -SN VV015 M24/M28 A3010 RMK SN8 SLP201

CYQB;2009-01-25 08:00;CYQB 250800Z 31005KT 1 1/2SM -SN VV014 M23/M27 A3007 RMK SN8 SLP192

CYQB;2009-01-25 08:35;CYQB 250835Z 29008KT 3SM -SN VV038 M22/ RMK SN8

CYQB;2009-01-25 09:00;CYQB 250900Z 30004KT 5SM -SN BKN049 OVC082 M23/M27 A3005 RMK SC6AC2 SLP185

CYQB;2009-01-25 09:22;CYQB 250922Z 31006KT 15SM BKN040 OVC064 M23/ RMK SC6SC2

CYQB;2009-01-25 10:00;CYQB 251000Z 34003KT 10SM -SN BKN040 BKN080 M23/M28 A3003 RMK SC6AC1 SLP179

CYQB;2009-01-25 11:00;CYQB 251100Z 34002KT 10SM SCT043 BKN080 M23/M28 A3003 RMK SC3AC3 SLP178

CYQB;2009-01-25 12:00;CYQB 251200Z 00000KT 15SM FEW022 SCT080 OVC140 M23/M28 A3004 RMK SC1AC2AC5 SLP182

CYQB;2009-01-25 12:10;CYQB 251210Z 23008KT 3SM -SN OVC020 M22/ RMK SC8

CYQB;2009-01-25 13:00;CYQB 251300Z 25012KT 6SM -SHSN SCT020 OVC047 M22/M26 A3005 RMK SC3SC5 PCPN VRY LGT SLP184

CYQB;2009-01-25 13:21;CYQB 251321Z 25011KT 10SM SCT047 OVC100 M21/ RMK SC4AC4

CYQB;2009-01-25 14:00;CYQB 251400Z 25012KT 10SM BKN048 BKN100 M21/M25 A3006 RMK SC5AC2 SLP189

CYQB;2009-01-25 15:00;CYQB 251500Z 25004KT 20SM BKN055 BKN100 BKN180 M19/M24 A3008 RMK SC5AC2CI1 SLP195

CYQB;2009-01-25 16:00;CYQB 251600Z 30003KT 20SM FEW059 BKN140 BKN200 M18/M24 A3008 RMK SC2AC4CI2 SLP194

CYQB;2009-01-25 17:00;CYQB 251700Z 29008KT 30SM BKN070 BKN200 M17/M25 A3008 RMK AC6CI2 SLP194

CYQB;2009-01-25 18:00;CYQB 251800Z 27012KT 30SM SCT100 BKN220 M18/M26 A3010 RMK AC3CI2 SLP200

CYQB;2009-01-25 19:00;CYQB 251900Z 27014KT 30SM FEW047 SCT090 BKN220 M18/M26 A3012 RMK SC1AC2CI1 SLP208

CYQB;2009-01-25 20:00;CYQB 252000Z 29011KT 30SM FEW040 M19/M27 A3015 RMK SC1 SLP218

CYQB;2009-01-25 21:00;CYQB 252100Z 29012KT 30SM FEW040 M20/M29 A3019 RMK SC1 SLP233

CYQB;2009-01-25 22:00;CYQB 252200Z 31005KT 30SM FEW040 M21/M30 A3022 RMK SC1 SLP244

CYQB;2009-01-25 23:00;CYQB 252300Z 30006KT 15SM SKC M22/M30 A3025 RMK SLP254

CYQB;2009-01-26 00:00;CYQB 260000Z 00000KT 15SM SKC M24/M31 A3027 RMK SLP260

CYQB;2009-01-26 01:00;CYQB 260100Z 00000KT 15SM SKC M26/M33 A3030 RMK SLP269

CYQB;2009-01-26 02:00;CYQB 260200Z 26003KT 15SM SKC M27/M34 A3032 RMK SLP277

CYQB;2009-01-26 03:00;CYQB 260300Z 26004KT 15SM SKC M29/M36 A3033 RMK SLP281

CYQB;2009-01-26 04:00;CYQB 260400Z 00000KT 15SM SKC M29/M36 A3034 RMK SLP284

CYQB;2009-01-26 05:00;CYQB 260500Z 36002KT 15SM SKC M30/M36 A3035 RMK SLP288

CYQB;2009-01-26 06:00;CYQB 260600Z 00000KT 15SM FEW210 M30/M36 A3037 RMK CI1 SLP293

CYQB;2009-01-26 07:00;CYQB 260700Z 00000KT 15SM FEW210 M32/M37 A3039 RMK CI1 SLP300

CYQB;2009-01-26 08:00;CYQB 260800Z 34002KT 15SM FEW210 M33/M38 A3039 RMK CI1 SLP302

CYQB;2009-01-26 09:00;CYQB 260900Z 03002KT 15SM FEW210 M31/M35 A3039 RMK CI1 SLP301

CYQB;2009-01-26 10:00;CYQB 261000Z 02004KT 15SM FEW200 M30/M34 A3039 RMK CI1 SLP300

CYQB;2009-01-26 11:00;CYQB 261100Z 02004KT 15SM FEW200 M31/M36 A3039 RMK CI1 SLP301

CYQB;2009-01-26 12:00;CYQB 261200Z 02003KT 25SM FEW200 M31/M36 A3041 RMK CI1 SLP307

CYQB;2009-01-26 12:42;CYQB 261242Z 00000KT 20SM VCFG FEW003 FEW200 M33/ RMK ST1CI1

CYQB;2009-01-26 13:00;CYQB 261300Z CCA 00000KT 20SM VCFG FEW003 FEW200 M33/M38 A3043 RMK ST1CI1 SLP314

CYQB;2009-01-26 14:00;CYQB 261400Z 02002KT 20SM BCFG FEW200 M28/M34 A3043 RMK CI1 SLP316

CYQB;2009-01-26 14:37;CYQB 261437Z 00000KT 6SM IC FEW200 M26/ RMK CI1 VIS W-NE 20

CYQB;2009-01-26 15:00;CYQB 261500Z 00000KT 6SM IC HZ FEW095 M25/M29 A3043 RMK AC1 VIS W-NE 25 SLP315

CYQB;2009-01-26 16:00;CYQB 261600Z 26003KT 12SM FEW030 FEW100 M25/M30 A3041 RMK SC1AC1 HAZY SLP310

CYQB;2009-01-26 17:00;CYQB 261700Z 30002KT 12SM FEW050 FEW100 FEW200 M22/M26 A3039 RMK SC1AC1CI1 HAZY SLP301

CYQB;2009-01-26 18:00;CYQB 261800Z 26003KT 15SM FEW100 FEW200 M19/M26 A3035 RMK AC1CI1 SLP288

CYQB;2009-01-26 19:00;CYQB 261900Z 25007KT 25SM FEW100 FEW200 M18/M27 A3035 RMK AC1CI1 SLP286

CYQB;2009-01-26 20:00;CYQB 262000Z 24006KT 30SM FEW100 FEW200 M17/M27 A3033 RMK AC1CI1 SLP282

CYQB;2009-01-26 21:00;CYQB 262100Z 22002KT 20SM FEW020 BKN080 BKN200 M18/M27 A3031 RMK SC1AC4CI1 SLP275

CYQB;2009-01-26 22:00;CYQB 262200Z 35002KT 10SM BKN054 BKN200 M18/M27 A3030 RMK SC5CI0 SLP271

CYQB;2009-01-26 23:00;CYQB 262300Z 00000KT 10SM BKN031 M19/M27 A3030 RMK SC5 SLP270

CYQB;2009-01-27 00:00;CYQB 270000Z 36003KT 10SM BKN022 M18/M26 A3030 RMK SC6 SLP270

CYQB;2009-01-27 01:00;CYQB 270100Z 29002KT 15SM SCT020 M20/M26 A3030 RMK SC3 SLP271

CYQB;2009-01-27 02:00;CYQB 270200Z 27002KT 15SM FEW020 SCT070 M23/M29 A3029 RMK SC2AC2 SLP267

CYQB;2009-01-27 03:00;CYQB 270300Z 26010KT 15SM FEW020 SCT070 M20/M25 A3028 RMK SC1AC2 SLP264

CYQB;2009-01-27 04:00;CYQB 270400Z 24012KT 15SM FEW070 M20/M24 A3029 RMK AC2 SLP265

CYQB;2009-01-27 05:00;CYQB 270500Z 23009KT 15SM SKC M21/M26 A3029 RMK SLP265

CYQB;2009-01-27 06:00;CYQB 270600Z 24012KT 15SM SKC M22/M27 A3028 RMK SLP262

CYQB;2009-01-27 07:00;CYQB 270700Z 00000KT 15SM SKC M23/M23 A3030 RMK SLP268

CYQB;2009-01-27 08:00;CYQB 270800Z 27004KT 15SM SKC M22/M27 A3030 RMK SLP271

CYQB;2009-01-27 09:00;CYQB 270900Z 27004KT 15SM FEW050 M24/M28 A3030 RMK SC1 SLP271

CYQB;2009-01-27 10:00;CYQB 271000Z 00000KT 15SM FEW060 M27/M30 A3032 RMK SC1 SLP276

CYQB;2009-01-27 11:00;CYQB 271100Z 00000KT 15SM FEW060 M27/M32 A3033 RMK SC1 SLP278

CYQB;2009-01-27 12:00;CYQB 271200Z 00000KT 1SM R06/P6000FT/U IC BR FEW001 M28/M31 A3034 RMK SF1 VIS VRBL 3/4-11/4 SLP285

CYQB;2009-01-27 12:36;CYQB 271236Z 28004KT 10SM FEW001 FEW100 M26/ RMK SF1AC1

CYQB;2009-01-27 13:00;CYQB 271300Z 36002KT 10SM FEW001 FEW100 M25/M29 A3037 RMK SF1AC1 SLP294

CYQB;2009-01-27 14:00;CYQB 271400Z 00000KT 10SM FEW100 M23/M26 A3039 RMK AC1 VIS LWR S-SE SLP302

CYQB;2009-01-27 14:36;CYQB 271436Z 23006KT 1 1/2SM IC FEW001 SCT060 M22/ RMK SF1SC2 VIS VRBL 1-2

CYQB;2009-01-27 15:00;CYQB 271500Z 23010KT 5SM IC FEW001 FEW060 M22/M25 A3041 RMK SF1SC1 SLP306

CYQB;2009-01-27 16:00;CYQB 271600Z 23010KT 15SM FEW080 M19/M22 A3040 RMK AC1 SLP304

CYQB;2009-01-27 17:00;CYQB 271700Z 23009KT 20SM FEW030 FEW240 M17/M21 A3039 RMK SC1CI1 SLP301

CYQB;2009-01-27 18:00;CYQB 271800Z 22013KT 30SM FEW030 M15/M20 A3038 RMK SC1 SLP297

CYQB;2009-01-27 19:00;CYQB 271900Z 23013KT 30SM FEW030 M14/M20 A3039 RMK SC1 SLP299

CYQB;2009-01-27 20:00;CYQB 272000Z 23010KT 50SM FEW030 M13/M20 A3039 RMK SC1 SLP301

CYQB;2009-01-27 21:00;CYQB 272100Z 23007KT 50SM FEW030 M14/M20 A3040 RMK SC1 SLP304

CYQB;2009-01-27 22:00;CYQB 272200Z 24006KT 30SM SKC M16/M22 A3042 RMK SLP310

CYQB;2009-01-27 23:00;CYQB 272300Z 27006KT 15SM SKC M17/M24 A3043 RMK SLP314

CYQB;2009-01-28 00:00;CYQB 280000Z 27006KT 15SM SKC M17/M22 A3045 RMK SLP322

CYQB;2009-01-28 01:00;CYQB 280100Z 31002KT 15SM SKC M20/M26 A3044 RMK SLP317

CYQB;2009-01-28 02:00;CYQB 280200Z 02004KT 15SM SKC M18/M22 A3043 RMK SLP315

CYQB;2009-01-28 03:00;CYQB 280300Z 11002KT 15SM SKC M21/M25 A3043 RMK SLP313

CYQB;2009-01-28 04:00;CYQB 280400Z 35002KT 15SM FEW210 M23/M28 A3043 RMK CI1 SLP312

CYQB;2009-01-28 05:00;CYQB 280500Z 00000KT 15SM FEW210 M24/M29 A3042 RMK CI1 SLP311

CYQB;2009-01-28 06:00;CYQB 280600Z 03003KT 15SM FEW003 M22/M27 A3041 RMK ST2 VIS LWR S-SW SLP306

CYQB;2009-01-28 07:00;CYQB 280700Z 00000KT 15SM FEW004 M25/M28 A3041 RMK ST2 SLP307

CYQB;2009-01-28 08:00;CYQB 280800Z 36002KT 15SM FEW003 SCT210 M23/M28 A3040 RMK ST2CI1 SLP302

CYQB;2009-01-28 09:00;CYQB 280900Z 27002KT 15SM FEW210 M25/M29 A3039 RMK CI2 SLP300

CYQB;2009-01-28 10:00;CYQB 281000Z 16002KT 15SM SCT210 M23/M27 A3037 RMK CI4 SLP294

CYQB;2009-01-28 11:00;CYQB 281100Z CCA 33002KT 15SM FEW160 OVC210 M22/M25 A3036 RMK AC2CI3 SLP291

CYQB;2009-01-28 12:00;CYQB 281200Z 02004KT 30SM SCT160 OVC210 M20/M24 A3034 RMK AC4CI3 SLP282

CYQB;2009-01-28 13:00;CYQB 281300Z 01005KT 30SM BKN150 OVC210 M19/M23 A3031 RMK AC6CI2 SLP273

CYQB;2009-01-28 14:00;CYQB 281400Z 05006KT 30SM BKN120 OVC210 M17/M22 A3031 RMK AC7CI1 SLP272

CYQB;2009-01-28 15:00;CYQB 281500Z 04006KT 30SM OVC075 M16/M20 A3026 RMK AC8 PRESFR SLP255

CYQB;2009-01-28 16:00;CYQB 281600Z 06007KT 30SM OVC060 M14/M19 A3021 RMK SC8 SLP238

CYQB;2009-01-28 17:00;CYQB 281700Z 07007KT 30SM -SN OVC036 M13/M18 A3017 RMK SC8 VIS LWR W SLP223

CYQB;2009-01-28 17:20;CYQB 281720Z 06011KT 1 1/2SM -SN VV015 M12/ RMK SN8

CYQB;2009-01-28 17:30;CYQB 281730Z 07009KT 1SM R06/P6000FT/D -SN VV010 M12/ RMK SN8 PRESFR

CYQB;2009-01-28 17:43;CYQB 281743Z 07009KT 5/8SM R06/4500FT/D -SN VV007 M12/ RMK SN8 PRESFR

CYQB;2009-01-28 18:00;CYQB 281800Z 08008KT 5/8SM R06/4000FT/N -SN VV006 M12/M16 A3010 RMK SN8 PRESFR SLP200

CYQB;2009-01-28 18:40;CYQB 281840Z 07010G18KT 3/4SM R06/5500FT/U -SN DRSN VV008 M12/ RMK SN8 /S01/

CYQB;2009-01-28 19:00;CYQB 281900Z 07011KT 1SM R06/P6000FT/D -SN VV010 M11/M13 A3003 RMK SN8 PRESFR SLP178

CYQB;2009-01-28 19:48;CYQB 281948Z 07014G21KT 3/4SM R06/6000FT/N -SN DRSN VV007 M10/ RMK SN8 PRESFR

CYQB;2009-01-28 20:00;CYQB 282000Z 06015G24KT 1/2SM R06/5500FT/D SN DRSN VV005 M10/M12 A2996 RMK SN8 PRESFR /S03/ SLP154

CYQB;2009-01-28 20:28;CYQB 282028Z 07017G22KT 5/8SM R06/P6000FT/N -SN DRSN VV008 M10/ RMK SN8 RESN PRESFR

CYQB;2009-01-28 21:00;CYQB 282100Z 07017G24KT 5/8SM R06/P6000FT/N -SN DRSN VV007 M10/M11 A2992 RMK SN8 RESN /S05/ SLP141

CYQB;2009-01-28 21:21;CYQB 282121Z 07016KT 1/2SM R06/5500FT/N SN DRSN VV005 M10/ RMK SN8

CYQB;2009-01-28 22:00;CYQB 282200Z CCA 07018G25KT 3/8SM R06/P6000FT/D SN BLSN VV006 M09/M11 A2985 RMK SN8 PRESFR /S08/ SLP116

CYQB;2009-01-28 23:00;CYQB 282300Z 07016G27KT 3/8SM R06/P6000FT/N SN BLSN VV004 M09/M11 A2978 RMK SN8 PRESFR /S11/ SLP093

CYQB;2009-01-29 00:00;CYQB 290000Z 06020G27KT 1/4SM R06/2800FT/N SN +BLSN VV002 M09/M10 A2972 RMK SN8 PRESFR /S12/ SLP070

CYQB;2009-01-29 01:00;CYQB 290100Z 07022G32KT 1/4SM R06/4000FT/N SN +BLSN VV002 M09/M10 A2966 RMK SN8 PRESFR /S03/ SLP049

CYQB;2009-01-29 02:00;CYQB 290200Z 07019G26KT 1/4SM R06/4000V5500FT/U SN +BLSN VV003 M08/M10 A2958 RMK SN8 PRESFR /S06/ SLP024

CYQB;2009-01-29 03:00;CYQB 290300Z 07018G30KT 1/4SM R06/4000FT/N SN +BLSN VV002 M09/M10 A2951 RMK SN8 PRESFR /S07/ SLP999

CYQB;2009-01-29 03:37;CYQB 290337Z 06019G27KT 1/4SM R06/P6000FT/N SN +BLSN VV007 M08/ RMK SN8

CYQB;2009-01-29 04:00;CYQB 290400Z CCA 07018G28KT 1/2SM R06/P6000FT/U SN BLSN VV007 M08/M10 A2945 RMK SN8 REBLSN PRESFR /S08/ SLP980

CYQB;2009-01-29 05:00;CYQB 290500Z CCA 08015G22KT 1 1/2SM -SN DRSN OVC012 M08/M10 A2945 RMK SN7SC1 REBLSN RESN /S09/ SLP979

CYQB;2009-01-29 06:00;CYQB 290600Z 07009KT 1 1/2SM -SN VV010 M09/M10 A2946 RMK SN8 SLP981

CYQB;2009-01-29 06:12;CYQB 290612Z 08010KT 5/8SM R06/P6000FT/D -SN VV006 M09/ RMK SN8

CYQB;2009-01-29 07:00;CYQB 290700Z 07006KT 1 1/4SM -SN VV007 M09/M10 A2948 RMK SN8 SLP987

CYQB;2009-01-29 08:00;CYQB 290800Z 00000KT 1 1/2SM -SN VV009 M09/M10 A2951 RMK SN8 SLP000

CYQB;2009-01-29 09:00;CYQB 290900Z 24007KT 2 1/2SM -SN OVC030 M09/M10 A2956 RMK SN5SC3 SLP014

CYQB;2009-01-29 10:00;CYQB 291000Z 25010KT 2SM -SN OVC030 M09/M10 A2959 RMK SN6SC2 SLP024

CYQB;2009-01-29 11:00;CYQB 291100Z 25013KT 6SM -SN SCT022 OVC038 M09/M10 A2961 RMK SC3SC5 SLP032

CYQB;2009-01-29 12:00;CYQB 291200Z 26010KT 5SM -SN OVC011 M09/M10 A2964 RMK SC8 SLP043

CYQB;2009-01-29 13:00;CYQB 291300Z 24012KT 10SM -SN FEW011 BKN033 BKN130 M09/M10 A2967 RMK SC1SC4AC1 SLP051

CYQB;2009-01-29 13:21;CYQB 291321Z 25014KT 15SM FEW010 FEW030 M09/ RMK SC1SC2

CYQB;2009-01-29 14:00;CYQB 291400Z 25017KT 15SM DRSN FEW010 FEW030 M10/M11 A2971 RMK SC1SC1 SLP066

CYQB;2009-01-29 15:00;CYQB 291500Z 25015KT 15SM DRSN FEW015 FEW230 M10/M12 A2972 RMK SC1CI0 SLP071

CYQB;2009-01-29 16:00;CYQB 291600Z 25016KT 15SM FEW015 BKN230 M09/M12 A2973 RMK SC1CI1 SLP072

CYQB;2009-01-29 17:00;CYQB 291700Z 24020KT 25SM DRSN FEW019 BKN220 M09/M12 A2974 RMK SC2CI4 SLP077

CYQB;2009-01-29 18:00;CYQB 291800Z 23013KT 25SM DRSN FEW019 SCT065 BKN220 M08/M11 A2975 RMK SC2SC1CI2 SLP078

CYQB;2009-01-29 19:00;CYQB 291900Z CCA 24017KT 25SM DRSN FEW019 BKN220 M07/M10 A2976 RMK SC2CI2 SLP084

CYQB;2009-01-29 20:00;CYQB 292000Z 25013KT 20SM DRSN BKN022 OVC150 M08/M11 A2978 RMK SC6AC1 SLP088

CYQB;2009-01-29 21:00;CYQB 292100Z 24016KT 15SM DRSN BKN026 BKN150 M08/M11 A2979 RMK SC6AC1 SLP094

CYQB;2009-01-29 21:22;CYQB 292122Z 25012KT 5SM -SHSN DRSN OVC030 M08/ RMK SC8

CYQB;2009-01-29 22:00;CYQB 292200Z 25009KT 5SM -SHSN DRSN BKN034 OVC150 M09/M12 A2981 RMK SC6AC1 SLP099

CYQB;2009-01-29 23:00;CYQB 292300Z 23010KT 2SM -SHSN DRSN OVC031 M09/M11 A2981 RMK SN5SC2 SLP100

CYQB;2009-01-29 23:38;CYQB 292338Z 25010KT 5SM -SHSN DRSN FEW010 SCT022 OVC050 M09/ RMK SF1SC3SC3

CYQB;2009-01-30 00:00;CYQB 300000Z 25010KT 4SM -SHSN DRSN VV015 M09/M11 A2982 RMK SN8 SLP104

CYQB;2009-01-30 01:00;CYQB 300100Z 26004KT 4SM -SHSN BKN028 OVC080 M10/M12 A2982 RMK SC5AC3 SLP103

CYQB;2009-01-30 02:00;CYQB 300200Z 23006KT 10SM OVC014 M10/M12 A2982 RMK SC8 SLP103

CYQB;2009-01-30 03:00;CYQB 300300Z 25007KT 10SM -SHSN OVC009 M10/M12 A2982 RMK SC8 SLP103

CYQB;2009-01-30 04:00;CYQB 300400Z 23006KT 8SM -SHSN OVC009 M10/M12 A2981 RMK SC8 SLP101

CYQB;2009-01-30 05:00;CYQB 300500Z CCA 24005KT 8SM -SHSN OVC010 M11/M12 A2980 RMK SC8 SLP098

CYQB;2009-01-30 06:00;CYQB 300600Z 18004KT 8SM -SHSN OVC012 M10/M12 A2980 RMK SC8 SLP096

CYQB;2009-01-30 07:00;CYQB 300700Z 27002KT 10SM -SHSN BKN010 OVC100 M10/M11 A2980 RMK SC7AC1 SLP097

CYQB;2009-01-30 08:00;CYQB 300800Z 00000KT 10SM -SHSN OVC012 M11/M12 A2980 RMK SC8 SLP096

CYQB;2009-01-30 09:00;CYQB 300900Z 00000KT 10SM -SHSN OVC012 M10/M12 A2979 RMK SC8 SLP092

CYQB;2009-01-30 10:00;CYQB 301000Z 00000KT 10SM -SHSN OVC011 M11/M12 A2979 RMK SC8 SLP094

CYQB;2009-01-30 11:00;CYQB 301100Z CCA 01003KT 6SM -SN OVC011 M11/M13 A2979 RMK SC8 SLP093

CYQB;2009-01-30 12:00;CYQB 301200Z 03003KT 10SM -SN BKN010 OVC075 M11/M13 A2980 RMK SC7AC1 SLP096

CYQB;2009-01-30 13:00;CYQB 301300Z 02003KT 5SM -SN BKN015 OVC075 M11/M13 A2979 RMK SC6AC2 SLP094

CYQB;2009-01-30 14:00;CYQB 301400Z 02003KT 3SM -SN BKN022 OVC075 M10/M12 A2979 RMK SC6AC2 SLP094

CYQB;2009-01-30 15:00;CYQB 301500Z 02003KT 3SM -SN OVC015 M09/M11 A2978 RMK SC7 SUN DIMLY VISBL SLP089

CYQB;2009-01-30 16:00;CYQB 301600Z 02002KT 2SM -SN VV010 M08/M10 A2977 RMK SN8 SLP086

CYQB;2009-01-30 16:44;CYQB 301644Z 00000KT 3SM -SN OVC032 M07/ RMK SN1SC7

CYQB;2009-01-30 17:00;CYQB 301700Z 00000KT 3SM -SN OVC030 M07/M09 A2975 RMK SN1SC7 SLP081

CYQB;2009-01-30 17:31;CYQB 301731Z 00000KT 2SM -SN OVC029 M07/ RMK SN2SC6

CYQB;2009-01-30 18:00;CYQB 301800Z 00000KT 2 1/4SM -SN OVC025 M06/M08 A2974 RMK SN2SC6 VIS VRB 11/2-3 /S02/ SLP076

CYQB;2009-01-30 19:00;CYQB 301900Z 00000KT 2SM -SN OVC022 M06/M08 A2974 RMK SN3SC5 SLP075

CYQB;2009-01-30 20:00;CYQB 302000Z 00000KT 2SM -SN OVC018 M06/M07 A2974 RMK SN4SC4 SLP075

CYQB;2009-01-30 21:00;CYQB 302100Z 17002KT 2SM -SN OVC021 M06/M08 A2974 RMK SN2SC6 VIS VRB 11/2-21/2 SLP076

CYQB;2009-01-30 22:00;CYQB 302200Z 00000KT 2SM -SN OVC029 M06/M08 A2975 RMK SN2SC6 VIS VRB 11/2-21/2 SLP078

CYQB;2009-01-30 22:43;CYQB 302243Z 02003KT 3SM -SN OVC023 RMK SN2SC6 VIS VRB 2-4

CYQB;2009-01-30 23:00;CYQB 302300Z 02002KT 3SM -SN BKN015 OVC040 M08/M09 A2974 RMK SN2SC4SC2 VIS VRB 2-4 SLP077

CYQB;2009-01-31 00:00;CYQB 310000Z 02003KT 1SM R06/P6000FT/N -SN VV015 M07/M09 A2973 RMK SN8 /S03/ SLP074

CYQB;2009-01-31 01:00;CYQB 310100Z 04005KT 1SM R06/P6000FT/D -SN VV018 M07/M08 A2971 RMK SN8 SLP067

CYQB;2009-01-31 02:00;CYQB 310200Z 34003KT 1SM R06/P6000FT/U -SN VV020 M07/M08 A2971 RMK SN8 SLP065

CYQB;2009-01-31 03:00;CYQB 310300Z 05005KT 3SM -SN OVC021 M08/M08 A2969 RMK SN2SC6 VIS VRB 2-4 SLP059

CYQB;2009-01-31 04:00;CYQB 310400Z 36003KT 2SM -SN OVC013 M07/M08 A2968 RMK SN2SC6 SLP055

CYQB;2009-01-31 05:00;CYQB 310500Z 09002KT 1 1/2SM -SN OVC013 M07/M08 A2967 RMK SN3SC5 VIS VRB 1-2 /S02/ SLP052

CYQB;2009-01-31 06:00;CYQB 310600Z CCA 34002KT 3SM -SN OVC025 M07/M08 A2966 RMK SN2SC6 VIS VRB 2-4 SLP048

CYQB;2009-01-31 07:00;CYQB 310700Z 23003KT 1SM R06/P6000FT/U -SN VV008 M06/M08 A2966 RMK SN8 VIS VRB 1/2-11/2 SLP049

CYQB;2009-01-31 08:00;CYQB 310800Z 23006KT 1SM R06/P6000FT/N -SN OVC016 M06/M07 A2966 RMK SN4SC4 VIS VRB 1/2-11/2 SLP047

CYQB;2009-01-31 08:17;CYQB 310817Z 23006KT 1SM R06/P6000FT/D -SN VV009 M06/ RMK SN8 VIS VRB 1/2-11/2

CYQB;2009-01-31 09:00;CYQB 310900Z 25010KT 1SM R06/P6000FT/D -SN OVC011 M06/M07 A2966 RMK SN3SC5 VIS VRB 1/2-11/2 /S01/ SLP047

CYQB;2009-01-31 10:00;CYQB 311000Z 24015KT 4SM -SN BKN011 OVC040 M06/M07 A2967 RMK SC6SC2 /S02/ SLP050

CYQB;2009-01-31 11:00;CYQB 311100Z 24011G16KT 10SM -SN BKN013 M06/M08 A2967 RMK SC7 SLP051

CYQB;2009-01-31 12:00;CYQB 311200Z CCA 24009G16KT 8SM -SN OVC013 M07/M08 A2969 RMK SC8 /S03/ SLP058

CYQB;2009-01-31 12:33;CYQB 311233Z 24008KT 10SM OVC016 M07/ RMK SC8

CYQB;2009-01-31 12:52;CYQB 311252Z 25009KT 6SM -SN BKN016 OVC030 M07/ RMK SC6SC2

CYQB;2009-01-31 13:00;CYQB 311300Z 25010KT 5SM -SN OVC012 M07/M09 A2970 RMK SC8 SLP063

CYQB;2009-01-31 14:00;CYQB 311400Z 24017KT 1 1/2SM -SN BKN012 OVC024 M08/M09 A2971 RMK SC6SC2 SLP066

CYQB;2009-01-31 14:32;CYQB 311432Z 23020KT 3SM -SN BKN020 M08/ RMK SC7

CYQB;2009-01-31 15:00;CYQB 311500Z 25013G19KT 5SM -SN BKN016 BKN025 M08/M10 A2971 RMK SC5SC2 SLP067

CYQB;2009-01-31 16:00;CYQB 311600Z 24015KT 8SM -SN BKN015 OVC025 M08/M10 A2971 RMK SC6SC2 SLP066

CYQB;2009-01-31 16:34;CYQB 311634Z 24016KT 2 1/2SM -SN SCT015 OVC025 M08/ RMK SC3SC4

CYQB;2009-01-31 17:00;CYQB 311700Z 24018KT 5SM -SN DRSN BKN017 M08/M10 A2971 RMK SC5 SLP067

CYQB;2009-01-31 18:00;CYQB 311800Z 24019KT 10SM -SN DRSN BKN019 BKN035 M09/M11 A2972 RMK SC5SC1 SLP070

CYQB;2009-01-31 19:00;CYQB 311900Z 24020G25KT 6SM -SN DRSN BKN016 BKN022 M10/M13 A2974 RMK SC5SC2 SLP076

CYQB;2009-01-31 19:19;CYQB 311919Z 24019KT 1 1/2SM -SN DRSN OVC014 M11/ RMK SC8

CYQB;2009-01-31 19:32;CYQB 311932Z 23018KT 3SM -SN DRSN BKN015 M11/ RMK SC7

CYQB;2009-01-31 20:00;CYQB 312000Z 24022KT 5SM -SN DRSN BKN014 M11/M13 A2976 RMK SC5 SLP083

CYQB;2009-01-31 21:00;CYQB 312100Z 25019KT 8SM -SN DRSN BKN020 BKN025 M12/M15 A2980 RMK SC6SC2 SLP095

CYQB;2009-01-31 21:21;CYQB 312121Z 24016G21KT 2 1/2SM -SN DRSN BKN020 M13/ RMK SC7

CYQB;2009-01-31 22:00;CYQB 312200Z 24015KT 4SM -SN DRSN BKN018 BKN031 M13/M16 A2983 RMK SC6SC1 SLP105

CYQB;2009-01-31 23:00;CYQB 312300Z 25015KT 15SM SCT016 M15/M17 A2984 RMK SC3 SLP111

CYQB;2009-02-01 01:00;CYQB 010100Z 24016KT 10SM VCBLSN FEW012 M16/M19 A2988 RMK SC1 SLP123

CYQB;2009-02-01 02:00;CYQB 010200Z 24016KT 15SM FEW010 M17/M19 A2989 RMK CF1 SLP126

CYQB;2009-02-01 03:00;CYQB 010300Z 25014G20KT 15SM FEW010 M18/M20 A2990 RMK CF1 SLP132

CYQB;2009-02-01 04:00;CYQB 010400Z 26014KT 15SM FEW010 M19/M21 A2990 RMK CF1 SLP132

CYQB;2009-02-01 05:00;CYQB 010500Z 25012KT 15SM SKC M19/M21 A2989 RMK SLP129

CYQB;2009-02-01 06:00;CYQB 010600Z 24009KT 15SM FEW010 M20/M22 A2991 RMK CF1 SLP134

CYQB;2009-02-01 07:00;CYQB 010700Z 25010KT 15SM SKC M21/M22 A2990 RMK SLP131

CYQB;2009-02-01 08:00;CYQB 010800Z 25010KT 15SM SKC M21/M23 A2991 RMK SLP135

CYQB;2009-02-01 09:00;CYQB 010900Z 00000KT 15SM SKC M23/M30 A2991 RMK SLP136

CYQB;2009-02-01 10:00;CYQB 011000Z 36002KT 15SM SCT170 M22/M26 A2989 RMK AS1 SLP131

CYQB;2009-02-01 11:00;CYQB 011100Z 04003KT 15SM BKN110 M22/M26 A2988 RMK AS5 SLP125

CYQB;2009-02-01 12:00;CYQB 011200Z 00000KT 15SM OVC070 M21/M25 A2987 RMK AS7 SLP124

CYQB;2009-02-01 13:00;CYQB 011300Z 01004KT 15SM OVC054 M20/M24 A2987 RMK SC8 SLP124

CYQB;2009-02-01 13:19;CYQB 011319Z 01004KT 7SM -SN BKN036 OVC053 M20/ RMK SC5SC3

CYQB;2009-02-01 14:00;CYQB 011400Z 04008KT 2SM -SN BKN020 OVC039 M18/M22 A2986 RMK SN2SC3SC3 SLP118

CYQB;2009-02-01 15:00;CYQB 011500Z 04004KT 2SM -SN BKN025 OVC040 M17/M20 A2983 RMK SN2SC5SC1 SLP110

CYQB;2009-02-01 16:00;CYQB 011600Z 06006KT 2SM -SN BKN014 OVC030 M16/M18 A2979 RMK SN2SC5SC1 SLP094

CYQB;2009-02-01 17:00;CYQB 011700Z 06009KT 2 1/2SM -SN OVC024 M14/M16 A2975 RMK SC8 /SO1/ SLP080

CYQB;2009-02-01 18:00;CYQB 011800Z 07006KT 1SM R06/P6000FT/U -SN OVC014 M13/M16 A2970 RMK SN6SC2 /SO2/ SLP066

CYQB;2009-02-01 18:27;CYQB 011827Z 08005KT 2SM -SN SCT014 OVC030 M13/ RMK SN3SC1SC4

CYQB;2009-02-01 19:00;CYQB 011900Z 07008KT 2 1/4SM -SN OVC027 M13/M14 A2968 RMK SN3SC5 SLP059

CYQB;2009-02-01 20:00;CYQB 012000Z 06008KT 1 1/2SM -SHGS OVC025 M12/M13 A2968 RMK SN4SC4 /S03/ SLP058

CYQB;2009-02-01 20:22;CYQB 012022Z 07008KT 1SM R06/P6000FT/U -SHSN OVC025 M12/ RMK SN5SC3

CYQB;2009-02-01 20:33;CYQB 012033Z 07010KT 1 1/2SM -SN OVC024 M12/ RMK SN4SC4

CYQB;2009-02-01 20:48;CYQB 012048Z 07008KT 2SM -SN OVC024 M11/ RMK SN3SC5

CYQB;2009-02-01 21:00;CYQB 012100Z 06009KT 1 3/4SM -SN OVC024 M11/M13 A2969 RMK SN4SC4 SLP060

CYQB;2009-02-01 21:24;CYQB 012124Z 06007KT 6SM -SN OVC020 M11/ RMK SC8

CYQB;2009-02-01 22:00;CYQB 012200Z 03004KT 6SM -SN OVC020 M11/M12 A2970 RMK SC8 /S04/ SLP066

CYQB;2009-02-01 22:34;CYQB 012234Z 00000KT 6SM -SG OVC015 M11/ RMK ST8

CYQB;2009-02-01 23:00;CYQB 012300Z 02002KT 10SM OVC014 M11/M12 A2974 RMK ST8 SLP077

CYQB;2009-02-01 23:24;CYQB 012324Z 00000KT 10SM -SG OVC013 M10/ RMK ST8

CYQB;2009-02-01 23:39;CYQB 012339Z 13002KT 10SM -SN OVC012 M10/ RMK ST8

CYQB;2009-02-02 00:00;CYQB 020000Z 08002KT 10SM OVC013 M10/M11 A2975 RMK ST8 INTMT -SN SLP081

CYQB;2009-02-02 01:00;CYQB 020100Z 00000KT 10SM -SN OVC011 M10/M11 A2975 RMK ST8 SLP082

CYQB;2009-02-02 01:22;CYQB 020122Z 35002KT 6SM -SN OVC009 M10/ RMK ST8

CYQB;2009-02-02 01:43;CYQB 020143Z 34003KT 7SM OVC008 M10/ RMK ST8

CYQB;2009-02-02 02:00;CYQB 020200Z 00000KT 7SM -SN OVC008 M10/M11 A2975 RMK ST8 -SN INTMT SLP081

CYQB;2009-02-02 03:00;CYQB 020300Z CCA 01002KT 6SM -SN OVC009 M10/M11 A2975 RMK ST8 /S01/ SLP079

CYQB;2009-02-02 04:00;CYQB 020400Z 00000KT 8SM -SN OVC009 M10/M11 A2975 RMK ST8 SLP082

CYQB;2009-02-02 04:46;CYQB 020446Z 23002KT 15SM SCT008 SCT200 M11/ RMK ST3CI1

CYQB;2009-02-02 05:00;CYQB 020500Z 20003KT 10SM FEW008 SCT150 M12/M12 A2975 RMK ST2AC2 SLP081

CYQB;2009-02-02 06:00;CYQB 020600Z 20002KT 15SM SKC M12/M15 A2976 RMK SLP084

CYQB;2009-02-02 07:00;CYQB 020700Z 23008KT 10SM SKC M11/M14 A2978 RMK SLP090

CYQB;2009-02-02 08:00;CYQB 020800Z 23008KT 8SM FEW030 SCT170 M10/M11 A2978 RMK SC1AS1 FROIN SLP091

CYQB;2009-02-02 09:00;CYQB 020900Z 17004KT 3SM BR FEW150 M13/M14 A2980 RMK AC1 FROIN SLP096

CYQB;2009-02-02 10:00;CYQB 021000Z 23006KT 3SM BR SKC M12/M13 A2980 RMK SLP097

CYQB;2009-02-02 10:40;CYQB 021040Z 18002KT 1SM R06/P6000FT/N BR BKN001 M12/ RMK SF7 VIS N 2

CYQB;2009-02-02 11:00;CYQB 021100Z 18004KT 3/4SM R06/P6000FT/N BR BKN001 M11/M13 A2981 RMK SF5 SLP102

CYQB;2009-02-02 11:23;CYQB 021123Z 20004KT 2SM BR FEW002 FEW030 M13/ RMK FG2SF1SC1

CYQB;2009-02-02 11:47;CYQB 021147Z 21004KT 1SM R06/P6000FT/U BR FEW002 FEW080 M14/ RMK FG2SF1AC1 FROIN

CYQB;2009-02-02 12:00;CYQB 021200Z 22003KT 1 1/4SM BR FEW002 FEW080 M13/M15 A2983 RMK FG1SF1AC1 SLP107

CYQB;2009-02-02 12:18;CYQB 021218Z 00000KT 1/8SM R06/4000VP6000FT/D FZFG FEW080 M14/ RMK FG2AC1

CYQB;2009-02-02 13:00;CYQB 021300Z 16002KT 3/8SM R06/2800VP6000FT/U FZFG FEW080 M12/M13 A2985 RMK FG2CI1 FROIN SLP113

CYQB;2009-02-02 13:15;CYQB 021315Z 17005KT 3/4SM R06/2800VP6000FT/N BR FEW080 M13/ RMK FG2AC1 FROIN

CYQB;2009-02-02 13:45;CYQB 021345Z 03004KT 1/4SM R06/1400V2400FT/N FZFG SCT080 M12/ RMK FG3AC1

CYQB;2009-02-02 14:00;CYQB 021400Z 09002KT 1/4SM R06/3500VP6000FT/U FZFG SCT080 M12/M13 A2986 RMK FG3AC1 SLP118

CYQB;2009-02-02 15:00;CYQB 021500Z 00000KT 1/8SM R06/0900FT/N FZFG VV001 M10/M10 A2987 RMK FG8 SLP122

CYQB;2009-02-02 15:33;CYQB 021533Z 22003KT 3/8SM R06/2400FT/N FZFG FEW040 FEW080 M08/ RMK FG2SC1SC1

CYQB;2009-02-02 15:44;CYQB 021544Z 23002KT 1 1/2SM R06/3500VP6000FT/U BR FEW040 FEW080 M08/ RMK SC1AC1

CYQB;2009-02-02 16:00;CYQB 021600Z 23006KT 2SM BR FEW018 FEW045 FEW200 M08/M08 A2988 RMK SC1SC1CI2 VIS NW 4 SLP124

CYQB;2009-02-02 16:15;CYQB 021615Z 25010KT 4SM BR FEW018 FEW045 SCT200 M06/ RMK SC1SC1CI2

CYQB;2009-02-02 17:00;CYQB 021700Z 24013KT 8SM BKN031 BKN250 M06/M06 A2989 RMK SC5CI0 SLP126

CYQB;2009-02-02 18:00;CYQB 021800Z 24015KT 8SM BKN032 BKN220 M04/M06 A2990 RMK SC6CI1 SLP131

CYQB;2009-02-02 18:46;CYQB 021846Z 26006KT 8SM -SHSN FEW025 BKN040 BKN220 M04/ RMK SC1SC4CI1 VIS NW 4

CYQB;2009-02-02 19:00;CYQB 021900Z 26007KT 8SM -SHSN FEW025 SCT040 BKN220 M04/M06 A2990 RMK SC1SC3CI0 SLP132

CYQB;2009-02-02 20:00;CYQB 022000Z 27011KT 10SM -SHSN FEW025 SCT054 OVC220 M04/M07 A2992 RMK SC1SC4CI1 VIS LWR N SLP137

CYQB;2009-02-02 21:00;CYQB 022100Z 27007KT 10SM -SHSN FEW025 BKN035 OVC220 M04/M06 A2994 RMK SC1SC6CI2 VIS LWR W SLP144

CYQB;2009-02-02 22:00;CYQB 022200Z 25007KT 10SM -SHSN BKN054 BKN220 M04/M07 A2996 RMK SC6CI1 VIS LWR WSW SLP151

CYQB;2009-02-02 23:00;CYQB 022300Z 25008KT 15SM BKN058 M05/M07 A2999 RMK SC6 SLP162

CYQB;2009-02-03 00:00;CYQB 030000Z 27006KT 15SM FEW020 BKN055 M05/M07 A3001 RMK CU1SC6 SLP168

CYQB;2009-02-03 01:00;CYQB 030100Z 28004KT 15SM OVC056 M06/M08 A3003 RMK SC8 SLP174

CYQB;2009-02-03 02:00;CYQB 030200Z 28004KT 15SM BKN055 M07/M10 A3004 RMK SC7 SLP177

CYQB;2009-02-03 03:00;CYQB 030300Z 28005KT 15SM BKN054 M08/M12 A3004 RMK SC6 SLP178

CYQB;2009-02-03 04:00;CYQB 030400Z 27005KT 15SM FEW050 M12/M15 A3006 RMK SC2 SLP183

CYQB;2009-02-03 05:00;CYQB 030500Z 26005KT 15SM FEW050 M14/M16 A3005 RMK SC1 SLP182

CYQB;2009-02-03 06:00;CYQB 030600Z 27004KT 15SM SKC M15/M17 A3005 RMK SLP181

CYQB;2009-02-03 07:00;CYQB 030700Z 32003KT 15SM SKC M15/M17 A3007 RMK SLP187

CYQB;2009-02-03 08:00;CYQB 030800Z 29003KT 15SM SKC M18/M19 A3008 RMK SLP190

CYQB;2009-02-03 09:00;CYQB 030900Z 00000KT 15SM SKC M18/M20 A3008 RMK SLP193

CYQB;2009-02-03 10:00;CYQB 031000Z 36002KT 15SM SKC M15/M21 A3008 RMK FROIN SLP193

CYQB;2009-02-03 11:00;CYQB 031100Z 01005KT 7SM -SN BKN020 M14/M18 A3009 RMK SC6 SLP197

CYQB;2009-02-03 12:00;CYQB 031200Z 36004KT 10SM -SN OVC013 M15/M18 A3009 RMK SC6 SLP196

CYQB;2009-02-03 12:31;CYQB 031231Z 02004KT 15SM FEW015 OVC230 M15/ RMK SC1CI2

CYQB;2009-02-03 13:00;CYQB 031300Z 03007KT 15SM FEW012 OVC230 M15/M19 A3009 RMK SC1CI2 SLP197

CYQB;2009-02-03 13:08;CYQB 031308Z 02005KT 15SM -SN FEW013 OVC230 M15/ RMK SC1CI2

CYQB;2009-02-03 14:00;CYQB 031400Z 01004KT 15SM -SN BKN015 OVC230 M14/M18 A3010 RMK SC3CI0 SLP200

CYQB;2009-02-03 15:00;CYQB 031500Z CCA 04002KT 15SM FEW015 OVC230 M12/M15 A3010 RMK SC1CI2 IC SLP198

CYQB;2009-02-03 16:00;CYQB 031600Z 10005KT 15SM FEW013 BKN230 M11/M14 A3008 RMK CF1CI2 IC SLP194

CYQB;2009-02-03 17:00;CYQB 031700Z 06005KT 15SM FEW012 OVC240 M10/M13 A3006 RMK CF1CI1 IC SLP184

CYQB;2009-02-03 18:00;CYQB 031800Z 06006KT 15SM FEW013 OVC240 M10/M13 A3000 RMK CF1CI2 SLP167

CYQB;2009-02-03 19:00;CYQB 031900Z 06005KT 15SM FEW013 BKN240 M09/M14 A2997 RMK CF1CI3 SLP155

CYQB;2009-02-03 20:00;CYQB 032000Z 10005KT 20SM FEW015 FEW030 BKN190 M10/M14 A2996 RMK CF1SC1AC5 SLP151

CYQB;2009-02-03 21:00;CYQB 032100Z 07007KT 20SM FEW015 FEW030 BKN180 M10/M14 A2994 RMK CF1SC1AC5 SLP147

CYQB;2009-02-03 22:00;CYQB 032200Z 07008KT 15SM FEW030 BKN160 M10/M13 A2994 RMK SC1AC6 SLP147

CYQB;2009-02-03 23:00;CYQB 032300Z 08003KT 15SM FEW030 OVC170 M11/M13 A2993 RMK SC1AC5 SLP142

CYQB;2009-02-04 00:00;CYQB 040000Z 00000KT 15SM FEW030 OVC170 M12/M14 A2993 RMK SC1AC6 SLP142

CYQB;2009-02-04 01:00;CYQB 040100Z 03003KT 15SM FEW018 FEW030 OVC150 M11/M14 A2991 RMK SC1SC1AC6 SLP136

CYQB;2009-02-04 02:00;CYQB 040200Z 00000KT 8SM -SN FEW003 FEW030 OVC160 M13/M15 A2990 RMK SF2SC1AC3 SLP133

CYQB;2009-02-04 03:00;CYQB 040300Z 34002KT 8SM -SN BKN021 M14/M16 A2989 RMK SC5 SLP129

CYQB;2009-02-04 03:36;CYQB 040336Z 34006KT 15SM FEW020 SCT140 RMK SC1AC2

CYQB;2009-02-04 04:00;CYQB 040400Z 35006KT 15SM FEW020 BKN170 M13/M17 A2988 RMK SC1AC1 SLP125

CYQB;2009-02-04 05:00;CYQB 040500Z 35009KT 15SM BKN150 M13/M20 A2987 RMK AC6 SLP123

CYQB;2009-02-04 06:00;CYQB 040600Z 35008KT 15SM OVC140 M13/M22 A2987 RMK AC6 SLP121

CYQB;2009-02-04 07:00;CYQB 040700Z 34007KT 15SM OVC140 M13/M20 A2988 RMK AC8 SLP123

CYQB;2009-02-04 08:00;CYQB 040800Z 34007KT 15SM OVC140 M14/M20 A2989 RMK AC8 SLP126

CYQB;2009-02-04 09:00;CYQB 040900Z 35009KT 15SM OVC120 M14/M20 A2989 RMK AC8 SLP128

CYQB;2009-02-04 10:00;CYQB 041000Z 34008KT 15SM OVC110 M14/M21 A2989 RMK AC8 SLP129

CYQB;2009-02-04 11:00;CYQB 041100Z 34009KT 15SM OVC120 M14/M21 A2990 RMK AS6 SLP130

CYQB;2009-02-04 12:00;CYQB 041200Z 34007KT 30SM BKN120 OVC220 M14/M21 A2992 RMK AS3CS2 SLP137

CYQB;2009-02-04 13:00;CYQB 041300Z 35007KT 30SM OVC120 M14/M21 A2993 RMK AS7 SLP143

CYQB;2009-02-04 14:00;CYQB 041400Z 30005KT 30SM BKN110 OVC220 M14/M20 A2995 RMK AS3CI2 SLP148

CYQB;2009-02-04 15:00;CYQB 041500Z 33003KT 30SM BKN110 OVC220 M12/M19 A2996 RMK AS5CI2 SLP153

CYQB;2009-02-04 16:00;CYQB 041600Z 27006KT 30SM SCT100 BKN150 OVC230 M12/M19 A2996 RMK AS2AS2CI1 SLP152

CYQB;2009-02-04 17:00;CYQB 041700Z CCA 24008KT 30SM OVC100 OVC250 M11/M17 A2995 RMK AS5CI1 SLP149

CYQB;2009-02-04 18:00;CYQB 041800Z 27003KT 30SM OVC120 M11/M17 A2995 RMK AS6 OBS TAKEN +44 SLP149

CYQB;2009-02-04 19:00;CYQB 041900Z 25005KT 30SM OVC120 M11/M17 A2995 RMK AS5 SLP150

CYQB;2009-02-04 20:00;CYQB 042000Z 24010KT 30SM FEW040 OVC120 M10/M17 A2997 RMK SC1AS4 SLP156

CYQB;2009-02-04 21:00;CYQB 042100Z 33011G16KT 30SM FEW040 SCT120 OVC210 M11/M19 A3000 RMK SC1AC3CI0 SLP165

CYQB;2009-02-04 22:00;CYQB 042200Z 33013KT 30SM FEW040 SCT120 OVC210 M12/M20 A3003 RMK SC1AC3CI0 SLP174

CYQB;2009-02-04 23:00;CYQB 042300Z 32009G15KT 15SM FEW040 BKN120 M12/M20 A3006 RMK SC1AC3 SLP186

CYQB;2009-02-05 00:00;CYQB 050000Z 32007KT 15SM FEW050 BKN140 M13/M20 A3007 RMK SC1AC2 SLP190

CYQB;2009-02-05 01:00;CYQB 050100Z 33004KT 15SM BKN130 M14/M21 A3008 RMK AS2 SLP194

CYQB;2009-02-05 02:00;CYQB 050200Z 32007G16KT 15SM SCT130 BKN210 M14/M22 A3010 RMK AS2CI0 SLP199

CYQB;2009-02-05 03:00;CYQB 050300Z 33008KT 15SM BKN140 M14/M22 A3012 RMK AS3 SLP205

CYQB;2009-02-05 04:00;CYQB 050400Z 32007KT 15SM SCT140 M15/M23 A3012 RMK AS1 SLP205

CYQB;2009-02-05 05:00;CYQB 050500Z 29004KT 15SM FEW140 SCT220 M17/M24 A3011 RMK AS1CI1 SLP203

CYQB;2009-02-05 06:00;CYQB 050600Z 34005KT 15SM SCT200 M16/M24 A3011 RMK CI2 SLP202

CYQB;2009-02-05 07:00;CYQB 050700Z 34008KT 15SM SCT210 M17/M25 A3011 RMK CI1 SLP202

CYQB;2009-02-05 08:00;CYQB 050800Z 34008KT 15SM FEW100 BKN210 M17/M25 A3013 RMK AC1CI1 SLP209

CYQB;2009-02-05 09:00;CYQB 050900Z 33009KT 15SM BKN210 M18/M25 A3013 RMK CI1 SLP210

CYQB;2009-02-05 10:00;CYQB 051000Z 34010G15KT 15SM SCT210 M18/M26 A3013 RMK CI1 SLP211

CYQB;2009-02-05 11:00;CYQB 051100Z 34011KT 15SM FEW210 M18/M26 A3014 RMK CI1 SLP212

CYQB;2009-02-05 12:00;CYQB 051200Z 34009KT 30SM FEW050 SCT220 M18/M26 A3016 RMK SC1CI1 SLP220

CYQB;2009-02-05 13:00;CYQB 051300Z 35006KT 30SM SCT220 M18/M25 A3018 RMK CI1 SLP226

CYQB;2009-02-05 14:00;CYQB 051400Z 36006KT 30SM FEW150 FEW220 M17/M25 A3019 RMK AC1CI1 SLP231

CYQB;2009-02-05 15:00;CYQB 051500Z 26005KT 30SM FEW220 M16/M23 A3020 RMK CI1 SLP233

CYQB;2009-02-05 16:00;CYQB 051600Z 24007KT 30SM FEW220 M15/M23 A3019 RMK CI0 SLP231

CYQB;2009-02-05 17:00;CYQB 051700Z 23013KT 30SM FEW220 M13/M22 A3016 RMK CI1 SLP221

CYQB;2009-02-05 18:00;CYQB 051800Z 24016KT 30SM FEW220 M13/M20 A3015 RMK CI1 SLP216

CYQB;2009-02-05 19:00;CYQB 051900Z 24017KT 30SM FEW035 FEW220 M12/M20 A3014 RMK SC1CI1 SLP213

CYQB;2009-02-05 20:00;CYQB 052000Z 25018KT 30SM FEW035 M12/M20 A3014 RMK SC1 SLP213

CYQB;2009-02-05 21:00;CYQB 052100Z 25018KT 30SM FEW035 M13/M20 A3014 RMK SC1 SLP215

CYQB;2009-02-05 22:00;CYQB 052200Z 24016KT 30SM FEW035 M14/M21 A3016 RMK SC1 SLP220

CYQB;2009-02-05 23:00;CYQB 052300Z 25019KT 30SM SKC M16/M23 A3018 RMK SLP228

CYQB;2009-02-06 00:00;CYQB 060000Z 24019KT 30SM SKC M17/M23 A3021 RMK SLP237

CYQB;2009-02-06 01:00;CYQB 060100Z 24014KT 30SM SKC M18/M23 A3022 RMK SLP241

CYQB;2009-02-06 02:00;CYQB 060200Z 25010G15KT 30SM FEW210 M19/M24 A3023 RMK CI1 SLP245

CYQB;2009-02-06 03:00;CYQB 060300Z 25012KT 15SM FEW160 SCT210 M19/M24 A3023 RMK AC1CI0 SLP245

CYQB;2009-02-06 04:00;CYQB 060400Z 25012KT 15SM BKN210 M20/M24 A3024 RMK CI1 SLP249

CYQB;2009-02-06 05:00;CYQB 060500Z 26014KT 15SM FEW150 BKN210 M20/M25 A3024 RMK AC1CI1 SLP248

CYQB;2009-02-06 06:00;CYQB 060600Z 25011KT 15SM FEW030 FEW160 BKN210 M20/M25 A3025 RMK SC1AC2CI0 SLP252

CYQB;2009-02-06 07:00;CYQB 060700Z 23012KT 15SM FEW030 FEW140 BKN210 M20/M24 A3025 RMK SC1AC2CI0 SLP251

CYQB;2009-02-06 08:00;CYQB 060800Z 25015KT 10SM FEW030 SCT150 BKN210 M20/M24 A3025 RMK SC1AC3CI1 SLP253

CYQB;2009-02-06 09:00;CYQB 060900Z 25010KT 10SM FEW010 SCT110 BKN210 M20/M24 A3027 RMK SF1AC4CI1 SLP259

CYQB;2009-02-06 10:00;CYQB 061000Z 26014KT 10SM SCT100 BKN210 M20/M24 A3027 RMK AC3CI0 SLP258

CYQB;2009-02-06 11:00;CYQB 061100Z 25010KT 10SM BKN100 M20/M23 A3026 RMK AC4 SLP256

CYQB;2009-02-06 12:00;CYQB 061200Z 26005KT 15SM FEW100 M21/M24 A3027 RMK AC1 SLP259

CYQB;2009-02-06 13:00;CYQB 061300Z 27006KT 15SM FEW100 SCT220 M20/M24 A3028 RMK AC1CI0 SLP263

CYQB;2009-02-06 14:00;CYQB 061400Z 26010KT 15SM FEW015 BKN120 M18/M21 A3029 RMK CU1AC3 SLP265

CYQB;2009-02-06 14:45;CYQB 061445Z 24012KT 10SM -SN FEW015 FEW120 M17/ RMK CU1AC2

CYQB;2009-02-06 15:00;CYQB 061500Z CCA 24010KT 10SM FEW020 SCT120 M17/M20 A3027 RMK CU1AC3 IC SLP258

CYQB;2009-02-06 16:00;CYQB 061600Z 26012KT 10SM -SN FEW020 BKN100 M15/M20 A3027 RMK CU1AC6 SLP258

CYQB;2009-02-06 16:24;CYQB 061624Z 26011KT 2 1/2SM -SHSN BKN011 OVC100 M15/ RMK SC5AC2

CYQB;2009-02-06 17:00;CYQB 061700Z 25011KT 4SM -SHSN BKN017 BKN060 OVC100 M14/M18 A3025 RMK SC5SC1AC2 SLP250

CYQB;2009-02-06 17:49;CYQB 061749Z 27009KT 4SM -SHSN FEW019 SCT060 OVC100 M12/ RMK SC2SC1AC4

CYQB;2009-02-06 18:00;CYQB 061800Z 26009KT 4SM -SHSN SCT019 BKN030 OVC100 M12/M15 A3024 RMK SC3SC2AC2 SLP247

CYQB;2009-02-06 19:00;CYQB 061900Z 27008KT 6SM -SHSN FEW019 SCT030 OVC060 M12/M15 A3023 RMK SC2SC2SC4 SLP245

CYQB;2009-02-06 20:00;CYQB 062000Z 27009KT 5SM -SHSN FEW020 OVC062 M11/M14 A3023 RMK SC1SC6 SLP245

CYQB;2009-02-06 21:00;CYQB 062100Z 27010KT 10SM -SHSN FEW018 BKN060 M11/M14 A3025 RMK SC1SC6 SLP250

CYQB;2009-02-06 21:49;CYQB 062149Z 29009KT 30SM FEW020 SCT060 M12/ RMK SC1SC0

CYQB;2009-02-06 22:00;CYQB 062200Z 29007KT 30SM FEW060 FEW210 M12/M16 A3025 RMK SC1CI0 SLP250

CYQB;2009-02-06 23:00;CYQB 062300Z 31005KT 30SM SCT055 M13/M16 A3026 RMK SC3 SLP254

CYQB;2009-02-07 00:00;CYQB 070000Z 31002KT 30SM BKN019 M13/M15 A3026 RMK SC6 SLP254

CYQB;2009-02-07 01:00;CYQB 070100Z 00000KT 30SM SCT019 M15/M17 A3027 RMK SC2 SLP258

CYQB;2009-02-07 02:00;CYQB 070200Z 01002KT 30SM SKC M17/M19 A3028 RMK SLP260

CYQB;2009-02-07 03:00;CYQB 070300Z 04002KT 15SM SKC M16/M19 A3027 RMK SLP259

CYQB;2009-02-07 04:00;CYQB 070400Z 00000KT 15SM FEW240 M18/M20 A3028 RMK CI1 SLP262

CYQB;2009-02-07 05:00;CYQB 070500Z 31002KT 15SM FEW240 M19/M21 A3028 RMK CI1 SLP261

CYQB;2009-02-07 06:00;CYQB 070600Z 36003KT 15SM FEW240 M16/M19 A3027 RMK CI1 SLP258

CYQB;2009-02-07 07:00;CYQB 070700Z 17004KT 15SM BKN130 BKN240 M18/M20 A3027 RMK AC5CI0 SLP258

CYQB;2009-02-07 08:00;CYQB 070800Z 34002KT 15SM SCT130 SCT240 M18/M18 A3028 RMK AC3CI0 SLP260

CYQB;2009-02-07 09:00;CYQB 070900Z 00000KT 15SM SCT017 M19/M20 A3027 RMK SC3 SLP256

CYQB;2009-02-07 10:00;CYQB 071000Z 00000KT 15SM BKN021 M19/M20 A3026 RMK SC5 SLP253

CYQB;2009-02-07 11:00;CYQB 071100Z 00000KT 15SM BKN021 M17/M19 A3024 RMK SC7 SLP248

CYQB;2009-02-07 12:00;CYQB 071200Z 00000KT 15SM FEW026 BKN240 M17/M18 A3023 RMK SC1CS2 SLP243

CYQB;2009-02-07 13:00;CYQB 071300Z 00000KT 10SM BKN025 OVC180 M15/M16 A3020 RMK SC5AS2 SLP234

CYQB;2009-02-07 14:00;CYQB 071400Z 27002KT 10SM FEW025 OVC190 M14/M16 A3018 RMK SC2AS6 SLP228

CYQB;2009-02-07 15:00;CYQB 071500Z 15002KT 10SM OVC180 M11/M12 A3015 RMK AS7 SLP218

CYQB;2009-02-07 16:00;CYQB 071600Z 00000KT 10SM OVC180 M08/M09 A3012 RMK AS4 SLP207

CYQB;2009-02-07 17:00;CYQB 071700Z 00000KT 10SM OVC210 M07/M11 A3006 RMK CS6 PRESFR SLP185

CYQB;2009-02-07 18:00;CYQB 071800Z 08005KT 10SM OVC210 M06/M11 A2997 RMK CS6 SLP156

CYQB;2009-02-07 19:00;CYQB 071900Z 07004KT 10SM FEW070 OVC210 M05/M11 A2993 RMK AC1CS6 SLP142

CYQB;2009-02-07 20:00;CYQB 072000Z 06005KT 10SM SCT038 BKN070 OVC210 M04/M10 A2988 RMK SC3AC2CS2 SLP125

CYQB;2009-02-07 20:23;CYQB 072023Z 04006KT 10SM -FZRA BKN034 OVC070 M04/ RMK SC6AC2

CYQB;2009-02-07 21:00;CYQB 072100Z 04005KT 8SM -FZRA OVC034 M03/M09 A2981 RMK SC8 PRESFR SLP101

CYQB;2009-02-07 21:47;CYQB 072147Z 35005KT 2SM -SN OVC032 M03/ REFZRA RMK SC8

CYQB;2009-02-07 22:00;CYQB 072200Z 02006KT 1 3/4SM -SN OVC030 M04/M08 A2977 REFZRA RMK SN2SC6 SLP086

CYQB;2009-02-07 22:22;CYQB 072222Z 02006KT 6SM -FZRA OVC030 M04/M07 RMK SC8

CYQB;2009-02-07 23:00;CYQB 072300Z 02006KT 6SM -FZRA OVC025 M04/M06 A2972 RMK SC8 PRESFR SLP072

CYQB;2009-02-08 00:00;CYQB 080000Z 03004KT 2 1/2SM -FZRA OVC022 M03/M05 A2967 RMK SC8 SLP054

CYQB;2009-02-08 01:00;CYQB 080100Z 02005KT 2SM -FZRA BR OVC020 M02/M04 A2963 RMK SC8 SLP040

CYQB;2009-02-08 02:00;CYQB 080200Z 32003KT 2SM -FZRA BR OVC019 M02/M03 A2961 RMK SC8 SLP034

CYQB;2009-02-08 03:00;CYQB 080300Z 20004KT 2SM -FZRA BR OVC011 M02/M03 A2958 RMK SC8 SLP021

CYQB;2009-02-08 03:25;CYQB 080325Z 23004KT 1 1/2SM -PL -FZRA BR OVC007 M01/ RMK SF8

CYQB;2009-02-08 04:00;CYQB 080400Z 22005KT 1SM R06/P6000FT/N -FZRA BR OVC008 M01/M02 A2956 RMK SF8 SLP015

CYQB;2009-02-08 04:40;CYQB 080440Z 25010KT 4SM -FZRA BR OVC008 M00/ RMK SF8

CYQB;2009-02-08 05:00;CYQB 080500Z 26010KT 5SM BR FEW008 OVC016 00/M01 A2954 RMK SF2SC6 REFZRA SLP007

CYQB;2009-02-08 06:00;CYQB 080600Z 26012KT 4SM BR FEW008 OVC013 00/M00 A2952 RMK SF2SC6 VIS LWR S SLP000

CYQB;2009-02-08 06:50;CYQB 080650Z 26013KT 4SM -RASN BR SCT008 OVC012 01/ RMK SF3SC5

CYQB;2009-02-08 07:00;CYQB 080700Z 26014KT 5SM -RASN BR BKN008 OVC012 01/00 A2951 RMK SF5SC3 SLP996

CYQB;2009-02-08 08:00;CYQB 080800Z 26019G24KT 6SM -RASN BR OVC010 02/01 A2950 RMK SC8 SLP992

CYQB;2009-02-08 09:00;CYQB 080900Z 26015KT 6SM -RASN BR BKN007 OVC024 01/01 A2950 RMK SF5SC3 SLP994

CYQB;2009-02-08 09:26;CYQB 080926Z 25012KT 8SM -RA FEW012 BKN032 OVC055 01/ RMK SF2SC5SC2

CYQB;2009-02-08 10:00;CYQB 081000Z 24013KT 8SM -RA FEW024 SCT032 BKN045 OVC079 01/01 A2950 RMK SC2SC2SC2AC2 SLP994

CYQB;2009-02-08 10:26;CYQB 081026Z 25013KT 8SM FEW024 SCT032 OVC068 01/ RMK SC2SC2SC4

CYQB;2009-02-08 11:00;CYQB 081100Z 30010KT 10SM SCT024 OVC042 02/01 A2952 RMK SC3SC5 SLP001

CYQB;2009-02-08 12:00;CYQB 081200Z 31017G22KT 10SM FEW020 OVC060 00/M04 A2957 RMK SC2SC6 SLP016

CYQB;2009-02-08 13:00;CYQB 081300Z 29015KT 10SM SCT023 OVC069 M01/M05 A2961 RMK SC3AC5 SLP032

CYQB;2009-02-08 14:00;CYQB 081400Z 28018KT 10SM SCT025 OVC070 M01/M05 A2967 RMK SC3AC5 SLP049

CYQB;2009-02-08 15:00;CYQB 081500Z 28016G22KT 12SM FEW025 OVC080 M02/M06 A2970 RMK SC2AS6 SLP062

CYQB;2009-02-08 16:00;CYQB 081600Z 30020G25KT 15SM FEW030 OVC080 M02/M07 A2973 RMK SC2AS6 SLP071

CYQB;2009-02-08 17:00;CYQB 081700Z 26020G25KT 15SM FEW030 OVC100 M04/M08 A2976 RMK SC1AS7 SLP081

CYQB;2009-02-08 18:00;CYQB 081800Z 25019G26KT 20SM BKN032 BKN100 M05/M10 A2978 RMK SC5AS1 SLP088

CYQB;2009-02-08 19:00;CYQB 081900Z 28019G26KT 20SM BKN033 BKN100 M06/M11 A2982 RMK SC6AC1 SLP102

CYQB;2009-02-08 20:00;CYQB 082000Z 30019G25KT 15SM BKN044 M08/M14 A2986 RMK CU6 DIST -SHSH ALL QUAD SLP116

CYQB;2009-02-08 21:00;CYQB 082100Z 30018G26KT 15SM SCT044 SCT100 M09/M15 A2990 RMK CU4AC1 DIST -SHSN ALL QUAD SLP131

CYQB;2009-02-08 22:00;CYQB 082200Z 29017G22KT 15SM SCT040 M10/M16 A2996 RMK CU3 PRESRR DIST -SHSN ALL QUAD SLP150

CYQB;2009-02-08 23:00;CYQB 082300Z 29018G28KT 15SM SCT040 M11/M18 A3001 RMK CU3 DIST -SHSN NE-SE SLP168

CYQB;2009-02-09 00:00;CYQB 090000Z 30019G24KT 10SM BKN040 M12/M18 A3006 RMK SC6 DIST -SHSN NE-SE SLP186

CYQB;2009-02-09 01:00;CYQB 090100Z 32019G29KT 15SM FEW035 M14/M20 A3008 RMK SC2 SLP190

CYQB;2009-02-09 02:00;CYQB 090200Z 30016G24KT 15SM FEW035 BKN120 M15/M27 A3011 RMK SC1AC2 SLP201

CYQB;2009-02-09 03:00;CYQB 090300Z 30010G15KT 15SM FEW035 M15/M25 A3013 RMK SC2 SLP209

CYQB;2009-02-09 04:00;CYQB 090400Z 28005KT 15SM SKC M16/M24 A3016 RMK SLP217

CYQB;2009-02-09 05:00;CYQB 090500Z 30010KT 15SM SKC M16/M24 A3018 RMK SLP226

CYQB;2009-02-09 06:00;CYQB 090600Z 30005KT 15SM SKC M17/M25 A3020 RMK SLP233

CYQB;2009-02-09 07:00;CYQB 090700Z 27005KT 15SM SKC M18/M25 A3021 RMK SLP237

CYQB;2009-02-09 08:00;CYQB 090800Z 28006KT 15SM SKC M19/M25 A3022 RMK SLP239

CYQB;2009-02-09 09:00;CYQB 090900Z 26011KT 15SM SKC M20/M27 A3024 RMK SLP247

CYQB;2009-02-09 10:00;CYQB 091000Z 26011KT 15SM SKC M20/M26 A3025 RMK SLP251

CYQB;2009-02-09 11:00;CYQB 091100Z 25009KT 15SM SKC M20/M26 A3027 RMK SLP258

CYQB;2009-02-09 12:00;CYQB 091200Z 24014KT 25SM FEW015 M21/M27 A3030 RMK SC1 SLP268

CYQB;2009-02-09 13:00;CYQB 091300Z 26011KT 25SM SKC M20/M25 A3033 RMK SLP277

CYQB;2009-02-09 14:00;CYQB 091400Z 27010KT 25SM SKC M18/M23 A3035 RMK SLP286

CYQB;2009-02-09 15:00;CYQB 091500Z 27010KT 25SM FEW040 M15/M21 A3037 RMK SC1 SLP291

CYQB;2009-02-09 16:00;CYQB 091600Z 24013KT 25SM FEW030 M14/M21 A3037 RMK SC1 SLP292

CYQB;2009-02-09 17:00;CYQB 091700Z 23016KT 25SM FEW030 M13/M20 A3035 RMK SC1 SLP286

CYQB;2009-02-09 18:00;CYQB 091800Z 23018KT 25SM FEW030 M12/M19 A3034 RMK SC1 SLP281

CYQB;2009-02-09 19:00;CYQB 091900Z 24019KT 25SM FEW030 M12/M18 A3034 RMK SC1 SLP282

CYQB;2009-02-09 20:00;CYQB 092000Z 25016G21KT 25SM FEW030 M10/M17 A3035 RMK SC1 SLP285

CYQB;2009-02-09 21:00;CYQB 092100Z 27013G21KT 25SM FEW030 M10/M17 A3036 RMK SC1 SLP290

CYQB;2009-02-09 22:00;CYQB 092200Z 29009KT 25SM FEW030 M11/M19 A3038 RMK SC1 SLP294

CYQB;2009-02-09 23:00;CYQB 092300Z 25010KT 25SM FEW030 M12/M20 A3040 RMK SC1 SLP303

CYQB;2009-02-10 00:00;CYQB 100000Z 26006KT 25SM SKC M14/M20 A3041 RMK SLP307

CYQB;2009-02-10 01:00;CYQB 100100Z 19005KT 25SM SKC M15/M20 A3043 RMK SLP312

CYQB;2009-02-10 02:00;CYQB 100200Z 23007KT 25SM SKC M15/M20 A3044 RMK SLP317

CYQB;2009-02-10 03:00;CYQB 100300Z 25005KT 15SM SKC M15/M20 A3043 RMK SLP313

CYQB;2009-02-10 04:00;CYQB 100400Z 35002KT 15SM FEW250 M17/M21 A3042 RMK CI1 SLP309

CYQB;2009-02-10 05:00;CYQB 100500Z 33002KT 15SM FEW240 M16/M21 A3041 RMK CI2 SLP305

CYQB;2009-02-10 06:00;CYQB 100600Z 03006KT 15SM FEW240 M16/M21 A3039 RMK CI0 SLP297

CYQB;2009-02-10 07:00;CYQB 100700Z 27002KT 15SM FEW200 M18/M22 A3039 RMK CC2 SLP298

CYQB;2009-02-10 08:00;CYQB 100800Z 00000KT 15SM FEW210 M17/M21 A3039 RMK CI2 SLP296

CYQB;2009-02-10 09:00;CYQB 100900Z 36003KT 15SM FEW240 M17/M21 A3039 RMK CI1 SLP296

CYQB;2009-02-10 10:00;CYQB 101000Z 00000KT 15SM FEW160 M18/M22 A3039 RMK AC2 SLP297

CYQB;2009-02-10 11:00;CYQB 101100Z 05003KT 15SM SCT240 M18/M23 A3037 RMK CI1 SLP291

CYQB;2009-02-10 12:00;CYQB 101200Z 36003KT 15SM BKN011 BKN200 M18/M22 A3036 RMK AC5CI1 SLP288

CYQB;2009-02-10 13:00;CYQB 101300Z 02003KT 15SM FEW110 BKN210 M16/M21 A3036 RMK AC2CI2 SLP287

CYQB;2009-02-10 14:00;CYQB 101400Z 04003KT 15SM OVC083 M15/M20 A3034 RMK AC7 SLP281

CYQB;2009-02-10 15:00;CYQB 101500Z 07003KT 15SM OVC077 M13/M19 A3032 RMK AC8 SLP273

CYQB;2009-02-10 16:00;CYQB 101600Z 06002KT 15SM BKN084 OVC210 M12/M18 A3029 RMK AC7CI1 SLP265

CYQB;2009-02-10 17:00;CYQB 101700Z 04008KT 15SM BKN080 OVC210 M10/M21 A3023 RMK AC6CI2 SLP245

CYQB;2009-02-10 18:00;CYQB 101800Z 06006KT 15SM SCT080 BKN210 M08/M14 A3018 RMK AC3CI2 SLP227

CYQB;2009-02-10 19:00;CYQB 101900Z 06008KT 15SM FEW080 BKN160 OVC210 M07/M15 A3016 RMK AC2AC2CI2 SLP218

CYQB;2009-02-10 20:00;CYQB 102000Z 07008KT 30SM FEW080 BKN140 OVC210 M07/M14 A3011 RMK AC2AC3CI2 SLP203

CYQB;2009-02-10 21:00;CYQB 102100Z 07007KT 30SM BKN078 OVC140 M07/M14 A3008 RMK AC6AC2 SLP193

CYQB;2009-02-10 21:46;CYQB 102146Z 08007KT 15SM -SN BKN060 OVC140 M07/ RMK SC6AC2

CYQB;2009-02-10 22:00;CYQB 102200Z 07006KT 15SM -SN OVC058 M07/M13 A3008 RMK SC8 SLP192

CYQB;2009-02-10 23:00;CYQB 102300Z 07009KT 15SM -SN OVC058 M07/M12 A3005 RMK SC8 SLP182

CYQB;2009-02-11 00:00;CYQB 110000Z 08004KT 15SM -SN OVC050 M07/M10 A3003 RMK SC8 SLP174

CYQB;2009-02-11 01:00;CYQB 110100Z 06006KT 15SM OVC044 M06/M10 A3000 RMK SC8 SLP165

CYQB;2009-02-11 01:26;CYQB 110126Z 07007KT 10SM -SHSN OVC034 M06/ RMK SC8

CYQB;2009-02-11 02:00;CYQB 110200Z 06007KT 10SM -SHSN OVC029 M06/M09 A2997 RMK SC8 SLP157

CYQB;2009-02-11 03:00;CYQB 110300Z 06006KT 10SM -PL OVC025 M06/M09 A2997 RMK SC8 SLP154

CYQB;2009-02-11 03:46;CYQB 110346Z 10004KT 12SM OVC020 M05/ RMK SC8

CYQB;2009-02-11 04:00;CYQB 110400Z 09005KT 12SM OVC019 M05/M09 A2995 RMK SC8 SLP147

CYQB;2009-02-11 05:00;CYQB 110500Z 05006KT 15SM OVC015 M05/M09 A2994 RMK SC8 SLP145

CYQB;2009-02-11 06:00;CYQB 110600Z 05007KT 15SM OVC013 M06/M08 A2992 RMK SC8 SLP138

CYQB;2009-02-11 06:34;CYQB 110634Z 05006KT 10SM FEW006 OVC011 M06/ RMK SF2SC6

CYQB;2009-02-11 07:00;CYQB 110700Z 05003KT 10SM FEW006 OVC012 M06/M08 A2990 RMK SF2SC6 SLP131

CYQB;2009-02-11 07:11;CYQB 110711Z 06003KT 10SM -FZDZ FEW006 OVC012 M06/ RMK SF2SC6

CYQB;2009-02-11 08:00;CYQB 110800Z 06003KT 10SM OVC011 M06/M07 A2989 RMK SC8 SLP125

CYQB;2009-02-11 09:00;CYQB 110900Z 05003KT 10SM BKN009 OVC016 M06/M07 A2986 RMK SF5SC3 SLP118

CYQB;2009-02-11 10:00;CYQB 111000Z 00000KT 12SM FEW009 OVC017 M06/M07 A2986 RMK SF2SC6 SLP115

CYQB;2009-02-11 11:00;CYQB 111100Z 00000KT 12SM OVC016 M05/M06 A2986 RMK SC8 SLP115

CYQB;2009-02-11 12:00;CYQB 111200Z 00000KT 6SM BR OVC015 M05/M06 A2984 RMK SC8 SLP109

CYQB;2009-02-11 13:00;CYQB 111300Z 27002KT 6SM BR OVC014 M05/M06 A2982 RMK SC8 SLP104

CYQB;2009-02-11 14:00;CYQB 111400Z 18002KT 6SM BR OVC011 M04/M05 A2982 RMK SC8 SLP103

CYQB;2009-02-11 14:37;CYQB 111437Z 00000KT 5SM -FZDZ BR OVC008 M03/M04 RMK ST8

CYQB;2009-02-11 15:00;CYQB 111500Z 00000KT 4SM -FZDZ BR OVC005 M03/M04 A2981 RMK ST8 PCPN VRY LGT SLP097

CYQB;2009-02-11 15:30;CYQB 111530Z 19002KT 1SM R06/P6000FT/U -FZDZ BR OVC004 M03/ RMK ST8 PCPN VRY LGT

CYQB;2009-02-11 16:00;CYQB 111600Z 23006KT 1 1/2SM BR OVC004 M02/M03 A2978 RMK ST8 INTMT -FZDZ SLP089

CYQB;2009-02-11 16:32;CYQB 111632Z CCA 23006KT 1 1/2SM -DZ BR OVC004 M01/ REFZDZ RMK ST8

CYQB;2009-02-11 17:00;CYQB 111700Z 24006KT 1 1/4SM R06/4500VP6000FT/D -DZ BR OVC003 M01/M02 A2977 REFZDZ RMK ST8 SLP085

CYQB;2009-02-11 18:00;CYQB 111800Z 22004KT 1/4SM R06/2200FT/D -FZDZ FZFG VV001 M01/M02 A2974 RMK FG8 SLP075

CYQB;2009-02-11 19:00;CYQB 111900Z 19003KT 1/8SM R06/1400FT/N -FZDZ FZFG VV001 M01/M01 A2972 RMK FG8 SLP068

CYQB;2009-02-11 20:00;CYQB 112000Z 20002KT 1/8SM R06/1100FT/N -FZDZ FZFG VV001 M00/M01 A2970 RMK FG8 SLP063

CYQB;2009-02-11 21:00;CYQB 112100Z 16002KT 1/8SM R06/1200FT/N -FZDZ FZFG VV001 M00/M01 A2970 RMK FG8 SLP061

CYQB;2009-02-11 22:00;CYQB 112200Z 19005KT 1/8SM R06/1400FT/N -FZDZ FZFG VV001 M00/M01 A2968 RMK FG8 SLP056

CYQB;2009-02-11 22:44;CYQB 112244Z 20002KT 1/8SM R06/1200FT/N -DZ FG VV001 00/ RMK FG8 REFZDZ

CYQB;2009-02-11 23:00;CYQB 112300Z 00000KT 1/8SM R06/1200FT/N FG VV001 00/M00 A2967 REFZDZ RMK FG8 SLP050

CYQB;2009-02-12 00:00;CYQB 120000Z 06004KT 1/8SM R06/1100FT/N FG VV001 00/M00 A2965 RMK FG8 SLP044

CYQB;2009-02-12 01:00;CYQB 120100Z 13002KT 1/8SM R06/1000FT/N FG VV001 00/00 A2962 RMK FG8 SLP035

CYQB;2009-02-12 02:00;CYQB 120200Z 00000KT 1/8SM R06/0800FT/N FG VV001 00/00 A2960 RMK FG8 SLP027

CYQB;2009-02-12 03:00;CYQB 120300Z 36002KT 1/8SM R06/1000FT/N FG VV001 00/M00 A2958 RMK FG8 SLP019

CYQB;2009-02-12 04:00;CYQB 120400Z 03004KT 1/4SM R06/1400FT/N FG VV002 00/00 A2954 RMK FG8 SLP006

CYQB;2009-02-12 04:16;CYQB 120416Z 03003KT 3/8SM R06/1800FT/N FG VV004 00/ RMK FG8

CYQB;2009-02-12 04:36;CYQB 120436Z 04005KT 3/4SM R06/P6000FT/U BR OVC003 00/ RMK FG2ST6

CYQB;2009-02-12 05:00;CYQB 120500Z 05004KT 3/4SM R06/P6000FT/D BR OVC003 00/00 A2950 RMK FG2ST6 SLP994

CYQB;2009-02-12 05:41;CYQB 120541Z 04006KT 5/8SM R06/P6000FT/D BR OVC002 00/ RMK FG2ST6

CYQB;2009-02-12 06:00;CYQB 120600Z 06005KT 1/2SM R06/2000FT/N FG VV002 00/00 A2946 RMK FG8 SLP980

CYQB;2009-02-12 06:21;CYQB 120621Z 07005KT 3/8SM R06/1600FT/N FG VV002 00/ RMK FG8

CYQB;2009-02-12 07:00;CYQB 120700Z 07011KT 1/8SM R06/1200V1600FT/N -DZ FG VV001 01/00 A2942 RMK FG8 SLP967

CYQB;2009-02-12 07:45;CYQB 120745Z 08007KT 1/4SM R06/1200FT/N -RADZ FG VV001 00/ RMK FG8

CYQB;2009-02-12 08:00;CYQB 120800Z 09007KT 1/8SM R06/1200FT/N -RA FG VV001 00/M00 A2939 RMK FG8 SLP955

CYQB;2009-02-12 08:29;CYQB 120829Z 09010KT 1/8SM R06/1600FT/N -FZRA FZFG VV002 M00/M00 RMK FG8

CYQB;2009-02-12 09:00;CYQB 120900Z 10009KT 1/4SM R06/2400FT/N -FZRA FZFG VV002 M00/M01 A2935 RMK FG8 SLP943

CYQB;2009-02-12 10:00;CYQB 121000Z 07010G17KT 1/2SM R06/P6000FT/U -FZRA FZFG VV002 M00/M01 A2929 RMK FG8 PRESFR SLP921

CYQB;2009-02-12 10:19;CYQB 121019Z 07012KT 3/4SM R06/P6000FT/D -FZRA BR OVC002 M00/ RMK SF8

CYQB;2009-02-12 11:00;CYQB 121100Z CCA 08016G21KT 3/4SM R06/P6000FT/N -FZRA BR OVC002 M01/M01 A2923 RMK SF8 PRESFR SLP900

CYQB;2009-02-12 12:00;CYQB 121200Z 08012G19KT 1SM R06/P6000FT/D -FZRA BR OVC002 M01/M01 A2920 RMK SF8 SLP892

CYQB;2009-02-12 12:32;CYQB 121232Z 08014KT 1 1/4SM -FZRA BR OVC003 M00/ RMK SF8 CIG VRB 2-4

CYQB;2009-02-12 13:00;CYQB 121300Z 07016G21KT 1 1/4SM -FZRA BR OVC003 M00/M01 A2919 RMK SF8 /R02/ SLP887

CYQB;2009-02-12 13:25;CYQB 121325Z 07014KT 2SM -FZRA BR BKN005 OVC017 M00/ RMK SF7SC1 CIG VRB 4-6

CYQB;2009-02-12 14:00;CYQB 121400Z 07009KT 2SM -FZRA BR BKN004 OVC020 M00/M00 A2917 RMK SF7SC1 CIG VRB 3-5 SLP880

CYQB;2009-02-12 15:00;CYQB 121500Z CCA 08008KT 2SM -FZRA BR OVC004 M00/M00 A2914 RMK SF8 CIG VRB 3-5 PRESFR /R04/ SLP873

CYQB;2009-02-12 15:40;CYQB 121540Z 08008KT 1 1/2SM -PL BR OVC004 M01/ REFZRA RMK SF8 CIG VRB 3-5

CYQB;2009-02-12 16:00;CYQB 121600Z 08009KT 1 1/2SM -SNPL BR OVC004 M01/M01 A2913 REFZRA RMK SF8 CIG VRB 3-5 SLP869

CYQB;2009-02-12 17:00;CYQB 121700Z 08009KT 1 1/2SM -SNPL BR OVC004 M01/M01 A2911 RMK SF8 CIG VRB 3-5 SLP861

CYQB;2009-02-12 18:00;CYQB 121800Z 07011KT 3SM -PL BR OVC005 M01/M01 A2910 RMK SF8 CIG VRB 4-6 SLP858

CYQB;2009-02-12 19:00;CYQB 121900Z 08010KT 4SM -PL BR OVC006 M01/M01 A2911 RMK SF8 CIG VRB 4-8 SLP861

CYQB;2009-02-12 19:43;CYQB 121943Z 08006KT 2SM -SNPL BR BKN007 OVC020 M01/ RMK SF7SC1

CYQB;2009-02-12 20:00;CYQB 122000Z 07007KT 2SM -SNPL BR BKN006 OVC025 M01/M02 A2914 RMK SF7SC1 SLP872

CYQB;2009-02-12 21:00;CYQB 122100Z 08006KT 5SM -PL BR SCT006 OVC012 M01/M02 A2917 RMK SF4SC4 SLP883

CYQB;2009-02-12 22:00;CYQB 122200Z 08006KT 6SM -PL BR OVC008 M02/M03 A2921 RMK SF8 SLP894

CYQB;2009-02-12 23:00;CYQB 122300Z 10002KT 6SM -SN OVC008 M02/M02 A2925 RMK SF8 SLP907

CYQB;2009-02-13 00:00;CYQB 130000Z 00000KT 7SM -SN BKN009 BKN030 OVC061 M02/M03 A2928 RMK SF5SC2SC1 SLP918

CYQB;2009-02-13 00:26;CYQB 130026Z 00000KT 10SM FEW009 SCT030 OVC059 M01/ RMK SF2SC2SC4

CYQB;2009-02-13 01:00;CYQB 130100Z 35012KT 10SM FEW009 SCT030 OVC062 M01/M03 A2932 RMK SF2SC2SC5 SLP931

CYQB;2009-02-13 02:00;CYQB 130200Z 35010G15KT 15SM FEW030 OVC059 M03/M09 A2936 RMK SF1SC7 SLP945

CYQB;2009-02-13 03:00;CYQB 130300Z 35010KT 15SM FEW059 SCT150 M05/M11 A2942 RMK SC2AC2 PRESRR SLP965

CYQB;2009-02-13 04:00;CYQB 130400Z 33010KT 15SM FEW060 BKN180 M07/M13 A2947 RMK SC1AC4 SLP982

CYQB;2009-02-13 05:00;CYQB 130500Z 33013KT 15SM FEW060 SCT200 M09/M16 A2951 RMK SC1CI1 SLP998

CYQB;2009-02-13 06:00;CYQB 130600Z 34012KT 15SM BKN230 M11/M17 A2956 RMK CI2 SLP015

CYQB;2009-02-13 07:00;CYQB 130700Z 31008G15KT 15SM FEW240 M12/M19 A2960 RMK CI2 SLP029

CYQB;2009-02-13 08:00;CYQB 130800Z 31008KT 15SM BKN240 M13/M19 A2964 RMK CI6 SLP040

CYQB;2009-02-13 09:00;CYQB 130900Z 33010G15KT 15SM SCT240 M14/M20 A2968 RMK CI3 SLP057

CYQB;2009-02-13 10:00;CYQB 131000Z 32010G16KT 15SM BKN240 M15/M21 A2972 RMK CI3 SLP071

CYQB;2009-02-13 11:00;CYQB 131100Z 33010G15KT 15SM BKN240 M16/M22 A2977 RMK CI2 SLP086

CYQB;2009-02-13 12:00;CYQB 131200Z 31009KT 30SM FEW035 FEW120 BKN240 M17/M22 A2981 RMK SC1AC1CI2 SLP099

CYQB;2009-02-13 13:00;CYQB 131300Z 25008KT 30SM FEW038 FEW120 BKN240 M16/M21 A2981 RMK SC1AC1CI2 SLP101

CYQB;2009-02-13 14:00;CYQB 131400Z 27007KT 30SM FEW008 FEW120 BKN240 M15/M19 A2981 RMK SC1AC1CI2 SLP101

CYQB;2009-02-13 15:00;CYQB 131500Z 26009KT 30SM SCT038 SCT120 BKN240 M13/M21 A2979 RMK SC3AC1CI2 SLP092

CYQB;2009-02-13 16:00;CYQB 131600Z 27013KT 30SM OVC035 M13/M21 A2978 RMK SC8 SLP091

CYQB;2009-02-13 17:00;CYQB 131700Z 27017KT 30SM BKN036 M12/M19 A2977 RMK SC6 SLP086

CYQB;2009-02-13 18:00;CYQB 131800Z 27019KT 30SM BKN036 M11/M17 A2975 RMK SC6 SLP080

CYQB;2009-02-13 19:00;CYQB 131900Z 27014G20KT 30SM BKN034 M10/M16 A2975 RMK SC6 SLP079

CYQB;2009-02-13 20:00;CYQB 132000Z 28013G20KT 20SM BKN032 M09/M14 A2973 RMK SC7 SLP075

CYQB;2009-02-13 21:00;CYQB 132100Z 26014KT 30SM BKN035 M08/M14 A2972 RMK SC7 SLP070

CYQB;2009-02-13 22:00;CYQB 132200Z 25011KT 30SM BKN039 M08/M13 A2970 RMK SC7 SLP064

CYQB;2009-02-13 23:00;CYQB 132300Z 28013G25KT 15SM BKN036 M07/M13 A2970 RMK SC7 SLP063

CYQB;2009-02-14 00:00;CYQB 140000Z 29019G29KT 15SM BKN034 M07/M13 A2969 RMK SC6 SLP061

CYQB;2009-02-14 01:00;CYQB 140100Z 30011G16KT 15SM SCT035 M08/M14 A2970 RMK SC4 SLP063

CYQB;2009-02-14 02:00;CYQB 140200Z 29011KT 15SM BKN033 M09/M15 A2970 RMK SC5 SLP065

CYQB;2009-02-14 03:00;CYQB 140300Z 29013G18KT 15SM SCT015 BKN032 M10/M15 A2968 RMK SC4SC3 SLP058

CYQB;2009-02-14 03:54;CYQB 140354Z 28016KT 10SM -SN FEW015 OVC035 M10/ RMK SC2SC6

CYQB;2009-02-14 04:00;CYQB 140400Z 29013G20KT 10SM -SN SCT015 OVC033 M10/M15 A2969 RMK SC3SC5 SLP059

CYQB;2009-02-14 05:00;CYQB 140500Z 28013G18KT 10SM -SN FEW015 OVC036 M11/M15 A2969 RMK SC2SC6 SLP059

CYQB;2009-02-14 06:00;CYQB 140600Z 27011G17KT 10SM -SN FEW015 OVC036 M11/M16 A2969 RMK SC1SC7 SLP059

CYQB;2009-02-14 07:00;CYQB 140700Z 27012KT 10SM -SN OVC035 M12/M16 A2968 RMK SC8 SLP058

CYQB;2009-02-14 08:00;CYQB 140800Z 27014KT 10SM -SN OVC033 M12/M16 A2967 RMK SC8 SLP054

CYQB;2009-02-14 09:00;CYQB 140900Z 26014KT 10SM -SN BKN018 OVC031 M12/M16 A2967 RMK SC5SC3 SLP052

CYQB;2009-02-14 10:00;CYQB 141000Z 25012KT 15SM SCT030 M12/M16 A2967 RMK SC3 SLP051

CYQB;2009-02-14 11:00;CYQB 141100Z 23012KT 15SM FEW080 M12/M16 A2967 RMK AC2 OBS TAKEN +16 SLP053

CYQB;2009-02-14 12:00;CYQB 141200Z 24013KT 20SM FEW030 FEW100 M12/M16 A2968 RMK SC1AC2 SLP055

CYQB;2009-02-14 13:00;CYQB 141300Z 25016G22KT 30SM FEW030 SCT100 BKN240 M12/M16 A2967 RMK SC1AC3CI2 SLP052

CYQB;2009-02-14 14:00;CYQB 141400Z 26011G18KT 30SM FEW030 SCT100 BKN240 M11/M16 A2968 RMK SC1AC2CI2 SLP056

CYQB;2009-02-14 15:00;CYQB 141500Z 27012KT 30SM FEW030 FEW100 FEW230 M09/M15 A2968 RMK SC1AC1CI1 SLP056

CYQB;2009-02-14 16:00;CYQB 141600Z 28010G15KT 30SM FEW030 FEW100 FEW240 M08/M14 A2968 RMK SC1AC1CI1 SLP056

CYQB;2009-02-14 17:00;CYQB 141700Z 25017KT 30SM FEW045 SCT100 M06/M13 A2968 RMK SC2AC1 ACSL ASOCTD SLP056

CYQB;2009-02-14 18:00;CYQB 141800Z 27015KT 15SM BKN048 M05/M11 A2967 RMK SC5 SLP054

CYQB;2009-02-14 19:00;CYQB 141900Z 32018KT 15SM SCT040 M04/M11 A2968 RMK SC4 SLP055

CYQB;2009-02-14 20:00;CYQB 142000Z 31014KT 15SM FEW039 BKN120 M04/M11 A2970 RMK SC2AC3 SLP061

CYQB;2009-02-14 21:00;CYQB 142100Z 32015G22KT 15SM BKN040 BKN110 M04/M11 A2972 RMK SC5AC2 SLP070

CYQB;2009-02-14 22:00;CYQB 142200Z 31013KT 15SM FEW040 BKN100 BKN220 M04/M11 A2974 RMK SC2AC2CI1 SLP076

CYQB;2009-02-14 23:00;CYQB 142300Z 32011KT 15SM FEW058 OVC072 M04/M11 A2976 RMK SC2AC5 SLP084

CYQB;2009-02-15 00:00;CYQB 150000Z 33012KT 15SM OVC077 M05/M12 A2978 RMK AC7 SLP089

CYQB;2009-02-15 01:00;CYQB 150100Z 32011KT 15SM BKN033 OVC050 M05/M12 A2979 RMK SC7SC1 SLP093

CYQB;2009-02-15 02:00;CYQB 150200Z 34012KT 15SM FEW033 OVC190 M06/M13 A2979 RMK SC2AC6 SLP094

CYQB;2009-02-15 03:00;CYQB 150300Z 35009KT 15SM FEW040 BKN110 M06/M13 A2981 RMK SC2AC3 SLP099

CYQB;2009-02-15 04:00;CYQB 150400Z 34011G17KT 15SM OVC061 M06/M13 A2982 RMK SC8 SLP102

CYQB;2009-02-15 05:00;CYQB 150500Z 34010KT 15SM OVC065 M06/M13 A2983 RMK SC8 SLP106

CYQB;2009-02-15 06:00;CYQB 150600Z 34007KT 15SM OVC040 M07/M13 A2984 RMK SC8 SLP110

CYQB;2009-02-15 07:00;CYQB 150700Z 34006KT 15SM OVC050 M07/M12 A2985 RMK SC8 SLP114

CYQB;2009-02-15 08:00;CYQB 150800Z 30005KT 15SM OVC050 M07/M12 A2986 RMK SC8 SLP117

CYQB;2009-02-15 09:00;CYQB 150900Z 31007KT 15SM OVC042 M07/M12 A2987 RMK SC8 SLP121

CYQB;2009-02-15 10:00;CYQB 151000Z 28005KT 15SM FEW020 BKN064 M08/M12 A2990 RMK SC2SC2 SLP129

CYQB;2009-02-15 11:00;CYQB 151100Z 23009KT 15SM BKN070 M09/M13 A2991 RMK AC6 SLP134

CYQB;2009-02-15 11:44;CYQB 151144Z 23011KT 15SM -SHSN BKN080 M09/ RMK AC7

CYQB;2009-02-15 12:00;CYQB 151200Z 24011KT 15SM -SHSN FEW040 BKN080 M09/M13 A2994 RMK SC2AC6 SLP142

CYQB;2009-02-15 12:45;CYQB 151245Z 24009KT 15SM FEW040 BKN078 M09/ RMK SC1AC6

CYQB;2009-02-15 13:00;CYQB 151300Z 23008KT 15SM BKN078 OVC220 M09/M13 A2995 RMK AC6CI1 SLP147

CYQB;2009-02-15 14:00;CYQB 151400Z 22009KT 15SM SCT078 OVC220 M09/M13 A2996 RMK AC3CS3 SLP151

CYQB;2009-02-15 15:00;CYQB 151500Z 21009KT 15SM SCT080 OVC220 M07/M12 A2998 RMK AC4CS2 SLP158

CYQB;2009-02-15 16:00;CYQB 151600Z 22011KT 15SM SCT080 OVC220 M08/M12 A3000 RMK AC3CS4 SLP166

CYQB;2009-02-15 17:00;CYQB 151700Z 22011KT 15SM SCT060 OVC220 M07/M12 A3000 RMK SC3CS4 VIRGA SLP166

CYQB;2009-02-15 17:46;CYQB 151746Z 23011KT 6SM -SHSN SCT023 OVC060 M06/ RMK SC4SC4

CYQB;2009-02-15 18:00;CYQB 151800Z 22011KT 6SM -SHSN BKN025 OVC220 M06/M10 A3001 RMK SC6CS2 SLP167

CYQB;2009-02-15 19:00;CYQB 151900Z 23012KT 12SM VCSH FEW025 BKN052 OVC220 M05/M10 A3001 RMK SC2SC4CS1 SLP167

CYQB;2009-02-15 20:00;CYQB 152000Z 22009KT 12SM BKN052 BKN220 M05/M10 A3002 RMK SC6CS1 VIS LWR E SLP171

CYQB;2009-02-15 20:15;CYQB 152015Z 23012KT 5SM -SHSN BKN043 OVC220 M05/M10 RMK SC6CS2

CYQB;2009-02-15 21:00;CYQB 152100Z 23009KT 8SM -SHSN SCT042 OVC220 M05/M09 A3003 RMK SC4CS2 VIS LWR E SLP175

CYQB;2009-02-15 22:00;CYQB 152200Z 22010KT 10SM VCSH FEW043 SCT130 BKN220 M05/M10 A3004 RMK SC2AC2CS2 SLP179

CYQB;2009-02-15 22:07;CYQB 152207Z 23010KT 10SM -SHSN FEW009 BKN034 BKN220 M05/ RMK SF2SC3CI1

CYQB;2009-02-15 23:00;CYQB 152300Z 23007KT 15SM BKN052 BKN130 M06/M10 A3006 RMK SC5AC1 SLP183

CYQB;2009-02-16 00:00;CYQB 160000Z 24009KT 15SM BKN046 BKN100 M06/M10 A3006 RMK SC5AC2 SLP185

CYQB;2009-02-16 01:00;CYQB 160100Z 24014KT 15SM BKN035 BKN062 M06/M10 A3007 RMK SC6SC1 SLP189

CYQB;2009-02-16 02:00;CYQB 160200Z 25012KT 15SM BKN074 M06/M10 A3007 RMK AC7 SLP189

CYQB;2009-02-16 03:00;CYQB 160300Z 24009KT 15SM -SN OVC100 M06/M09 A3008 RMK AC8 SLP191

CYQB;2009-02-16 04:00;CYQB 160400Z 23009KT 15SM -SN OVC100 M07/M09 A3008 RMK AC8 SLP191

CYQB;2009-02-16 05:00;CYQB 160500Z 24010KT 15SM -SN SCT100 OVC110 M07/M09 A3008 RMK AC3AC5 SLP193

CYQB;2009-02-16 06:00;CYQB 160600Z 23009KT 10SM -SN FEW060 OVC100 M07/M09 A3009 RMK SC2AC6 SLP195

CYQB;2009-02-16 07:00;CYQB 160700Z 24010KT 3SM -SN VV015 M07/M09 A3010 RMK SN8 SLP199

CYQB;2009-02-16 08:00;CYQB 160800Z 24006KT 4SM -SN OVC029 M07/M09 A3010 RMK SC8 SLP199

CYQB;2009-02-16 09:00;CYQB 160900Z 23005KT 3SM -SN SCT030 BKN050 OVC065 M08/M10 A3011 RMK SC3SC3SC2 SLP203

CYQB;2009-02-16 10:00;CYQB 161000Z 23005KT 10SM FEW050 BKN160 M09/M11 A3012 RMK SC2AC2 SLP206

CYQB;2009-02-16 11:00;CYQB 161100Z 24005KT 15SM FEW050 SCT150 M10/M12 A3012 RMK SC1AC2 SLP206

CYQB;2009-02-16 12:00;CYQB 161200Z 24002KT 20SM FEW050 FEW140 BKN220 M11/M12 A3013 RMK SC1AC2CI1 SLP209

CYQB;2009-02-16 13:00;CYQB 161300Z 25002KT 20SM FEW063 FEW140 SCT220 M11/M12 A3014 RMK SC1AC2CI1 SLP212

CYQB;2009-02-16 14:00;CYQB 161400Z 24003KT 20SM FEW030 FEW140 BKN220 M09/M11 A3015 RMK CF1AC2CI1 SLP215

CYQB;2009-02-16 15:00;CYQB 161500Z 25005KT 15SM FEW025 FEW080 BKN140 M08/M10 A3016 RMK SC1AC2AC2 SLP217

CYQB;2009-02-16 16:00;CYQB 161600Z 23004KT 20SM FEW030 FEW140 FEW220 M06/M10 A3016 RMK SC1AC1CI1 SLP218

CYQB;2009-02-16 17:00;CYQB 161700Z 22005KT 30SM FEW030 FEW140 FEW220 M05/M10 A3016 RMK SC1AC1CI1 SLP217

CYQB;2009-02-16 18:00;CYQB 161800Z 21009KT 30SM FEW030 FEW140 FEW220 M04/M09 A3015 RMK SC1AC1CI1 SLP214

CYQB;2009-02-16 19:00;CYQB 161900Z 23012KT 30SM FEW040 FEW140 SCT250 M03/M09 A3014 RMK SC1AC1CI1 SLP213

CYQB;2009-02-16 20:00;CYQB 162000Z 21011KT 30SM BKN044 BKN140 M03/M09 A3015 RMK SC6AC1 SLP215

CYQB;2009-02-16 21:00;CYQB 162100Z 23013KT 30SM BKN045 M03/M09 A3015 RMK SC7 SLP216

CYQB;2009-02-16 22:00;CYQB 162200Z 22008KT 30SM BKN044 M03/M09 A3017 RMK SC7 SLP220

CYQB;2009-02-16 23:00;CYQB 162300Z 23010KT 15SM BKN044 M03/M09 A3017 RMK SC7 SLP223

CYQB;2009-02-17 00:00;CYQB 170000Z 23006KT 15SM BKN043 M03/M08 A3018 RMK SC7 SLP225

CYQB;2009-02-17 01:00;CYQB 170100Z 23006KT 15SM OVC043 M04/M08 A3019 RMK SC8 SLP227

CYQB;2009-02-17 02:00;CYQB 170200Z 31005KT 15SM OVC042 M03/M08 A3019 RMK SC8 SLP229

CYQB;2009-02-17 03:00;CYQB 170300Z 30003KT 15SM OVC044 M03/M08 A3019 RMK SC8 SLP228

CYQB;2009-02-17 04:00;CYQB 170400Z 30004KT 15SM OVC045 M04/M09 A3019 RMK SC8 SLP227

CYQB;2009-02-17 05:00;CYQB 170500Z 26004KT 15SM OVC046 M04/M09 A3019 RMK SC8 SLP228

CYQB;2009-02-17 06:00;CYQB 170600Z 24005KT 15SM OVC045 M05/M09 A3019 RMK SC8 SLP228

CYQB;2009-02-17 07:00;CYQB 170700Z 28003KT 15SM BKN043 M06/M09 A3019 RMK SC6 SLP229

CYQB;2009-02-17 08:00;CYQB 170800Z 27002KT 15SM BKN042 M05/M09 A3020 RMK SC7 SLP231

CYQB;2009-02-17 09:00;CYQB 170900Z CCA 00000KT 15SM -SN SCT019 OVC042 M05/M09 A3021 RMK SC3SC5 SLP235

CYQB;2009-02-17 10:00;CYQB 171000Z 34004KT 15SM -SN FEW020 BKN025 M05/M10 A3022 RMK SC2SC6 SLP239

CYQB;2009-02-17 11:00;CYQB 171100Z 34004KT 15SM -SN BKN024 OVC040 M05/M10 A3023 RMK SC6SC2 SLP241

CYQB;2009-02-17 12:00;CYQB 171200Z 00000KT 15SM -SN FEW024 OVC040 M05/M09 A3023 RMK SC2SC6 SLP242

CYQB;2009-02-17 13:00;CYQB 171300Z 00000KT 15SM -SN BKN043 M05/M08 A3023 RMK SC5 VIS S 5 SLP242

CYQB;2009-02-17 14:00;CYQB 171400Z 23004KT 15SM -SN SCT046 M05/M08 A3024 RMK SC4 SKC N PCPN VRY LGT SLP244

CYQB;2009-02-17 14:29;CYQB 171429Z 22006KT 15SM SCT043 M05/ RMK SC2

CYQB;2009-02-17 15:00;CYQB 171500Z 21004KT 15SM FEW040 SCT210 M04/M09 A3023 RMK SC2CI0 SLP241

CYQB;2009-02-17 16:00;CYQB 171600Z 20007KT 15SM FEW028 M04/M08 A3021 RMK CF2 SLP236

CYQB;2009-02-17 17:00;CYQB 171700Z 23010KT 30SM FEW040 FEW210 M03/M08 A3019 RMK SC1CI1 SLP228

CYQB;2009-02-17 18:00;CYQB 171800Z 22011KT 30SM FEW040 FEW210 M02/M08 A3017 RMK SC1CI1 SLP221

CYQB;2009-02-17 19:00;CYQB 171900Z 24012KT 30SM FEW045 FEW210 M02/M08 A3016 RMK SC1CI1 SLP217

CYQB;2009-02-17 20:00;CYQB 172000Z 22011KT 30SM FEW045 FEW230 M02/M10 A3016 RMK SC1CI1 SLP216

CYQB;2009-02-17 21:00;CYQB 172100Z 24009KT 30SM FEW050 FEW230 M02/M09 A3015 RMK SC1CI1 SLP213

CYQB;2009-02-17 22:00;CYQB 172200Z 23006KT 30SM FEW050 FEW230 M03/M10 A3015 RMK SC1CI0 SLP213

CYQB;2009-02-17 23:00;CYQB 172300Z 23005KT 15SM FEW050 FEW230 M04/M10 A3015 RMK SC1CS0 SLP215

CYQB;2009-02-18 00:00;CYQB 180000Z 23004KT 15SM FEW050 FEW100 M05/M11 A3016 RMK SC1AS0 SLP217

CYQB;2009-02-18 01:00;CYQB 180100Z 23002KT 15SM FEW055 M08/M13 A3015 RMK SC1 SLP216

CYQB;2009-02-18 02:00;CYQB 180200Z 29002KT 15SM SKC M08/M12 A3016 RMK SLP217

CYQB;2009-02-18 03:00;CYQB 180300Z 00000KT 15SM FEW240 M09/M12 A3014 RMK CI1 SLP213

CYQB;2009-02-18 04:00;CYQB 180400Z 04003KT 15SM SKC M10/M14 A3014 RMK SLP212

CYQB;2009-02-18 05:00;CYQB 180500Z 01003KT 15SM FEW220 M09/M13 A3014 RMK CI1 SLP212

CYQB;2009-02-18 06:00;CYQB 180600Z 25003KT 15SM SKC M13/M16 A3013 RMK SLP209

CYQB;2009-02-18 07:00;CYQB 180700Z 36003KT 15SM FEW150 M11/M14 A3012 RMK AC1 SLP204

CYQB;2009-02-18 08:00;CYQB 180800Z 05004KT 15SM SCT120 M13/M15 A3012 RMK AC2 SLP204

CYQB;2009-02-18 09:00;CYQB 180900Z 04004KT 15SM SCT120 M11/M14 A3011 RMK AC2 SLP202

CYQB;2009-02-18 10:00;CYQB 181000Z 04005KT 15SM SCT120 M11/M15 A3009 RMK AC2 SLP195

CYQB;2009-02-18 11:00;CYQB 181100Z 04006KT 15SM FEW120 SCT220 M12/M16 A3008 RMK AC1CI0 SLP190

CYQB;2009-02-18 12:00;CYQB 181200Z 02004KT 15SM SCT220 M12/M15 A3009 RMK CI1 SLP194

CYQB;2009-02-18 13:00;CYQB 181300Z 03004KT 30SM FEW120 BKN220 M11/M15 A3008 RMK AC1CI1 SLP191

CYQB;2009-02-18 14:00;CYQB 181400Z 07007KT 30SM FEW120 BKN220 M09/M14 A3005 RMK AC1CI1 SLP182

CYQB;2009-02-18 15:00;CYQB 181500Z 09008KT 30SM BKN220 M07/M12 A3003 RMK CI2 SLP175

CYQB;2009-02-18 16:00;CYQB 181600Z 07008KT 30SM OVC220 M05/M09 A3000 RMK CI2 SLP165

CYQB;2009-02-18 17:00;CYQB 181700Z 09010KT 30SM FEW160 OVC220 M04/M08 A2998 RMK AC1CS3 SLP158

CYQB;2009-02-18 18:00;CYQB 181800Z 08010KT 30SM FEW150 OVC220 M03/M07 A2995 RMK AC1CS3 SLP149

CYQB;2009-02-18 19:00;CYQB 181900Z 08011KT 30SM FEW150 OVC220 M03/M07 A2989 RMK AC2CS3 PRESFR SLP129

CYQB;2009-02-18 20:00;CYQB 182000Z 08012KT 30SM SCT089 BKN220 M03/M07 A2985 RMK AS3CS2 PRESFR SLP114

CYQB;2009-02-18 21:00;CYQB 182100Z 09011KT 30SM BKN100 BKN220 M03/M07 A2982 RMK AS6CS1 SLP102

CYQB;2009-02-18 22:00;CYQB 182200Z 08009KT 30SM BKN110 BKN220 M03/M06 A2981 RMK AS6CS1 SLP098

CYQB;2009-02-18 23:00;CYQB 182300Z 07015KT 15SM OVC100 M03/M06 A2978 RMK AS8 SLP088

CYQB;2009-02-19 00:00;CYQB 190000Z 08012KT 15SM OVC100 M02/M06 A2977 RMK AS8 SLP087

CYQB;2009-02-19 01:00;CYQB 190100Z 09009G18KT 15SM OVC110 M02/M07 A2976 RMK AS8 SLP082

CYQB;2009-02-19 02:00;CYQB 190200Z 07015KT 15SM BKN055 OVC100 M02/M06 A2975 RMK SC6AS2 SLP078

CYQB;2009-02-19 02:38;CYQB 190238Z 07013G18KT 10SM -SN BKN028 OVC045 M02/ RMK SC6SC2

CYQB;2009-02-19 03:00;CYQB 190300Z 08012G17KT 10SM -SN SCT025 OVC040 M02/M06 A2972 RMK SC3SC5 SLP069

CYQB;2009-02-19 04:00;CYQB 190400Z 07012KT 2 1/2SM -SN OVC027 M03/M06 A2970 RMK SN3SC5 SLP062

CYQB;2009-02-19 05:00;CYQB 190500Z 08012G18KT 3/4SM R06/P6000FT/D -SN VV007 M03/M05 A2967 RMK SN8 SLP051

CYQB;2009-02-19 06:00;CYQB 190600Z 07013G19KT 3/4SM R06/P6000FT/U -SN VV008 M03/M05 A2964 RMK SN8 SLP042

CYQB;2009-02-19 07:00;CYQB 190700Z 08014G20KT 3/4SM R06/P6000FT/D -SN BKN005 BKN010 OVC025 M03/M04 A2961 RMK SN2SC3SC2SC2 SLP030

CYQB;2009-02-19 08:00;CYQB 190800Z 07013KT 1/2SM R06/4000VP6000FT/D SN VV004 M03/M04 A2958 RMK SN8 SLP021

CYQB;2009-02-19 09:00;CYQB 190900Z CCA 08013G18KT 1/2SM R06/P6000FT/U -SN BLSN BKN005 OVC010 M03/M04 A2955 RMK SN2SC5SC1 /S03/ SLP010

CYQB;2009-02-19 10:00;CYQB 191000Z 07017KT 3/4SM R06/P6000FT/N -SN DRSN BKN005 OVC023 M03/M04 A2953 RMK SN2SC6SC1 /S08/ SLP002

CYQB;2009-02-19 11:00;CYQB 191100Z 07014KT 1 1/2SM -SN DRSN FEW008 OVC027 M03/M04 A2950 RMK SN2SC1SC6 /S09/ SLP995

CYQB;2009-02-19 11:15;CYQB 191115Z 08013G21KT 3/4SM R06/P6000FT/D -SN DRSN VV006 M03/ RMK SN8

CYQB;2009-02-19 12:00;CYQB 191200Z 08015G26KT 3/4SM R06/P6000FT/U -SN DRSN VV006 M03/M04 A2949 RMK SN8 SLP990

CYQB;2009-02-19 12:43;CYQB 191243Z 07014G19KT 1/2SM R06/P6000FT/D SN DRSN VV006 M03/ RMK SN8

CYQB;2009-02-19 13:00;CYQB 191300Z 09012G18KT 1SM R06/P6000FT/U -SN DRSN VV007 M03/M04 A2948 RESN RMK SN8 /S01/ SLP985

CYQB;2009-02-19 13:28;CYQB 191328Z 07018KT 1 1/2SM -SN DRSN BKN007 OVC025 M02/ RMK SF6SC2

CYQB;2009-02-19 13:41;CYQB 191341Z 07013G27KT 3/4SM R06/P6000FT/N -SN BLSN BKN007 OVC019 M02/ RMK SF6SC2

CYQB;2009-02-19 14:00;CYQB 191400Z 08014G22KT 1/2SM R06/5500FT/D -SN BLSN VV006 M02/M04 A2946 RMK SN8 /S02/ SLP981

CYQB;2009-02-19 14:08;CYQB 191408Z 07019G26KT 3/8SM R06/5000FT/D -SN BLSN VV005 M02/ RMK SN8

CYQB;2009-02-19 14:34;CYQB 191434Z 08015G26KT 3/8SM R06/3000FT/D SN BLSN VV004 M02/ RMK SN8

CYQB;2009-02-19 15:00;CYQB 191500Z 08018G26KT 3/8SM R06/2600FT/N SN BLSN VV005 M02/M04 A2945 RMK SN8 /S03/ SLP976

CYQB;2009-02-19 16:00;CYQB 191600Z 08019G31KT 1/2SM R06/3000FT/N SN BLSN OVC007 M02/M04 A2944 RMK SN6SF2 SLP972

CYQB;2009-02-19 17:00;CYQB 191700Z 08017G26KT 1/2SM R06/P6000FT/D SN BLSN OVC007 M03/M04 A2941 RMK SN5SF3 /SO4/ SLP964

CYQB;2009-02-19 17:31;CYQB 191731Z 07019G28KT 1/4SM R06/3500V5000FT/D SN +BLSN VV005 M03/ RMK SN8

CYQB;2009-02-19 18:00;CYQB 191800Z 08015G28KT 1/2SM R06/3500V4500FT/U SN BLSN VV005 M03/M04 A2939 RMK SN8 VIS VRB 1/4-3/4 SLP958

CYQB;2009-02-19 19:00;CYQB 191900Z 08015G28KT 1/2SM R06/5500FT/U SN BLSN VV008 M03/M04 A2939 RMK SN8 VIS VRB 1/4-3/4 SLP955

CYQB;2009-02-19 20:00;CYQB 192000Z 07021G26KT 3/4SM R06/P6000FT/D -SN BLSN VV009 M03/M04 A2938 RMK SN8 VIS VRB 1/2-1 /S01/ SLP953

CYQB;2009-02-19 21:00;CYQB 192100Z 07017G26KT 3/4SM R06/P6000FT/D -SN BLSN VV008 M03/M04 A2939 RMK SN8 VIS VRB 1/2-1 SLP955

CYQB;2009-02-19 22:00;CYQB 192200Z 07017G28KT 3/4SM R06/P6000FT/N -SN BLSN VV007 M03/M04 A2938 RMK SN8 VIS VRB 1/2-1 SLP954

CYQB;2009-02-19 23:00;CYQB 192300Z 08013G21KT 1SM R06/P6000FT/U -SN DRSN VV011 M03/M04 A2939 RMK SN8 VIS VRB 3/4-11/2 SLP955

CYQB;2009-02-20 00:00;CYQB 200000Z 07017G22KT 1SM R06/P6000FT/D -SN DRSN VV010 M03/M05 A2938 RMK SN8 VIS VRB 3/4-11/2 /S04/ SLP952

CYQB;2009-02-20 01:00;CYQB 200100Z 08017G26KT 1 1/2SM -SN DRSN BKN011 OVC032 M04/M05 A2937 RMK SN2SC4SC2 SLP949

CYQB;2009-02-20 02:00;CYQB 200200Z 07013G18KT 1SM R06/P6000FT/D -SN DRSN OVC008 M04/M05 A2936 RMK SN2SC6 SLP945

CYQB;2009-02-20 03:00;CYQB 200300Z 08009G17KT 1SM R06/P6000FT/U -SN DRSN OVC011 M04/M05 A2935 RMK SN4SC4 SLP944

CYQB;2009-02-20 04:00;CYQB 200400Z 07013G18KT 1SM R06/P6000FT/U -SN DRSN OVC008 M04/M06 A2934 RMK SN5SC3 /S01/ SLP941

CYQB;2009-02-20 05:00;CYQB 200500Z 08010G17KT 1 1/4SM -SN BLSN BKN007 OVC017 M04/M06 A2934 RMK SN5SF2SC1 SLP939

CYQB;2009-02-20 06:00;CYQB 200600Z 07009KT 1SM R06/P6000FT/D -SN BLSN OVC008 M05/M06 A2932 RMK SN3SF5 SLP934

CYQB;2009-02-20 07:00;CYQB 200700Z 07013G18KT 1SM R06/P6000FT/D -SN BLSN OVC008 M05/M06 A2931 RMK SN3SF5 /S01/ SLP931

CYQB;2009-02-20 08:00;CYQB 200800Z 10004KT 5/8SM R06/P6000FT/N -SN BR VV008 M05/M06 A2931 RMK SN8 /S02/ SLP930

CYQB;2009-02-20 09:00;CYQB 200900Z 23015KT 5/8SM R06/P6000FT/U -SN BR VV006 M06/M08 A2931 RMK SN8 /S03/ SLP929

CYQB;2009-02-20 10:00;CYQB 201000Z 26016KT 2SM -SN BLSN VV016 M07/M09 A2931 RMK SN8 SLP930

CYQB;2009-02-20 10:49;CYQB 201049Z 25016KT 3SM -SN DRSN BKN011 OVC036 M08/ RMK SF6SC2

CYQB;2009-02-20 11:00;CYQB 201100Z 25013KT 5SM -SN DRSN BKN015 OVC034 M08/M10 A2932 RMK SC6SC2 SLP932

CYQB;2009-02-20 11:14;CYQB 201114Z 25012G18KT 3SM -SN DRSN BKN009 OVC020 M08/ RMK SF6SC2

CYQB;2009-02-20 11:25;CYQB 201125Z 24018KT 1 1/2SM -SN DRSN BKN010 OVC028 M09/ RMK SF6SC2

CYQB;2009-02-20 12:00;CYQB 201200Z 24011KT 2SM -SN DRSN BKN012 OVC025 M09/M11 A2934 RMK SC6SC2 SLP939

CYQB;2009-02-20 13:00;CYQB 201300Z 24014KT 1SM R06/P6000FT/U -SN DRSN BKN010 OVC025 M10/M12 A2935 RMK SF6SC2 SLP944

CYQB;2009-02-20 14:00;CYQB 201400Z CCA 25013G19KT 1 3/4SM -SN DRSN BKN012 OVC025 M11/M12 A2937 RMK SF6SC2 /S01/ SLP950

CYQB;2009-02-20 15:00;CYQB 201500Z 23018KT 1 3/4SM -SN DRSN BKN014 BKN024 OVC070 M10/M12 A2938 RMK SN2SC4SC2AC1 SLP955

CYQB;2009-02-20 15:16;CYQB 201516Z 24016KT 5SM -SN DRSN SCT015 BKN028 OVC070 M11/ RMK SF4SC2AC1

CYQB;2009-02-20 16:00;CYQB 201600Z 24017KT 5SM -SN DRSN BKN020 BKN035 OVC070 M10/M13 A2939 RMK SC5SC2AC1 SLP959

CYQB;2009-02-20 17:00;CYQB 201700Z 26014KT 5SM -SN DRSN BKN021 OVC050 M10/M13 A2940 RMK SC6SC2 SLP961

CYQB;2009-02-20 18:00;CYQB 201800Z 25017KT 3SM -SN DRSN BKN018 OVC035 M10/M13 A2941 RMK SC6SC2 SLP964

CYQB;2009-02-20 19:00;CYQB 201900Z 26015KT 6SM -SN DRSN BKN016 OVC026 M10/M13 A2942 RMK SC6SC2 SLP967

CYQB;2009-02-20 20:00;CYQB 202000Z 25018KT 6SM -SN DRSN FEW015 OVC028 M10/M13 A2943 RMK SC2SC6 SLP971

CYQB;2009-02-20 21:00;CYQB 202100Z 25017G26KT 6SM -SN DRSN BKN030 OVC055 M10/M13 A2945 RMK SC7SC1 SLP978

CYQB;2009-02-20 22:00;CYQB 202200Z 25015G20KT 6SM -SN DRSN BKN012 OVC030 M10/M13 A2947 RMK SC6SC2 SLP984

CYQB;2009-02-20 23:00;CYQB 202300Z 26011KT 4SM -SN OVC020 M10/M12 A2950 RMK SC8 SLP993

CYQB;2009-02-21 00:00;CYQB 210000Z 26010KT 3SM -SN OVC020 M10/M12 A2951 RMK SC8 /S01/ SLP999

CYQB;2009-02-21 00:10;CYQB 210010Z 26011KT 3/4SM R06/P6000FT/D -SN VV006 M10/ RMK SN8

CYQB;2009-02-21 01:00;CYQB 210100Z 25010KT 2SM -SN OVC018 M10/M11 A2952 RMK SC8 /S01/ SLP003

CYQB;2009-02-21 01:36;CYQB 210136Z 25010KT 3SM -SN OVC013 M09/ RMK SC8

CYQB;2009-02-21 02:00;CYQB 210200Z 26010KT 2 1/2SM -SN OVC013 M09/M11 A2954 RMK SC8 SLP008

CYQB;2009-02-21 03:00;CYQB 210300Z 27007KT 5SM -SN OVC011 M09/M10 A2955 RMK SC8 SLP012

CYQB;2009-02-21 04:00;CYQB 210400Z 24005KT 8SM OVC010 M09/M11 A2956 RMK SC8 SLP014

CYQB;2009-02-21 05:00;CYQB 210500Z 26011KT 15SM FEW010 SCT042 M09/M11 A2956 RMK SC2AC1 SLP017

CYQB;2009-02-21 06:00;CYQB 210600Z 25012KT 15SM FEW010 M10/M12 A2959 RMK SF2 SLP026

CYQB;2009-02-21 07:00;CYQB 210700Z 25011KT 15SM FEW010 SCT080 M09/M11 A2961 RMK SF1AC3 SLP034

CYQB;2009-02-21 08:00;CYQB 210800Z 25013KT 15SM FEW010 BKN070 M08/M10 A2964 RMK SF1AC6 SLP042

CYQB;2009-02-21 09:00;CYQB 210900Z 25017KT 15SM SCT070 BKN100 M08/M10 A2967 RMK AC4AC2 SLP054

CYQB;2009-02-21 10:00;CYQB 211000Z 25019KT 15SM FEW020 SCT080 BKN100 M09/M11 A2971 RMK SF1AC2AC3 SLP065

CYQB;2009-02-21 11:00;CYQB 211100Z 25017G22KT 15SM FEW028 BKN080 M09/M11 A2975 RMK SC2AC5 SLP079

CYQB;2009-02-21 12:00;CYQB 211200Z 25018KT 30SM FEW028 SCT080 M10/M12 A2980 RMK SC1AC3 SLP096

CYQB;2009-02-21 13:00;CYQB 211300Z 25021G26KT 30SM FEW028 FEW080 BKN240 M10/M12 A2984 RMK SC1AC2CI1 SHSN SE SLP112

CYQB;2009-02-21 14:00;CYQB 211400Z 25020G25KT 30SM FEW028 SCT060 BKN210 M10/M13 A2987 RMK SC2SC1CI1 SLP121

CYQB;2009-02-21 15:00;CYQB 211500Z 26018G26KT 30SM SCT023 BKN050 M10/M12 A2989 RMK SC4SC2 SLP128

CYQB;2009-02-21 16:00;CYQB 211600Z 25019KT 30SM SCT028 BKN050 BKN210 M09/M11 A2992 RMK SC4SC1CI1 SLP136

CYQB;2009-02-21 17:00;CYQB 211700Z 25020G26KT 30SM BKN027 BKN200 M07/M09 A2993 RMK SC5CI1 SLP142

CYQB;2009-02-21 18:00;CYQB 211800Z 25019G25KT 30SM BKN029 BKN200 M07/M09 A2996 RMK SC6CI1 SLP151

CYQB;2009-02-21 19:00;CYQB 211900Z 25015G21KT 30SM BKN032 BKN200 M06/M08 A2998 RMK SC6CI0 SLP158

CYQB;2009-02-21 20:00;CYQB 212000Z 25019G26KT 20SM BKN033 BKN220 M06/M08 A3001 RMK SC6CI0 SLP168

CYQB;2009-02-21 21:00;CYQB 212100Z 25018G24KT 20SM -SHSN BKN038 M06/M08 A3003 RMK SC7 SLP176

CYQB;2009-02-21 22:00;CYQB 212200Z 25018KT 15SM -SHSN BKN040 M06/M09 A3006 RMK SC7 SLP183

CYQB;2009-02-21 23:00;CYQB 212300Z 26014KT 15SM -SHSN BKN041 M06/M09 A3009 RMK SC7 SLP196

CYQB;2009-02-22 00:00;CYQB 220000Z 27012G17KT 15SM -SHSN OVC037 M06/M09 A3012 RMK SC8 SLP206

CYQB;2009-02-22 01:00;CYQB 220100Z 23007KT 15SM -SHSN OVC036 M07/M10 A3014 RMK SC8 SLP211

CYQB;2009-02-22 02:00;CYQB 220200Z 25009KT 15SM FEW036 M08/M11 A3014 RMK SC2 SLP212

CYQB;2009-02-22 03:00;CYQB 220300Z 26011KT 15SM FEW036 M09/M12 A3015 RMK SC1 SLP216

CYQB;2009-02-22 04:00;CYQB 220400Z 24008KT 15SM FEW180 M10/M12 A3015 RMK CI1 SLP217

CYQB;2009-02-22 05:00;CYQB 220500Z 25007KT 15SM FEW100 BKN150 M10/M12 A3016 RMK AC1AC5 SLP220

CYQB;2009-02-22 06:00;CYQB 220600Z 26007KT 15SM OVC160 M10/M12 A3019 RMK AC7 SLP230

CYQB;2009-02-22 07:00;CYQB 220700Z 24005KT 15SM OVC100 M09/M11 A3020 RMK AC8 SLP234

CYQB;2009-02-22 08:00;CYQB 220800Z 01003KT 15SM OVC050 M09/M11 A3020 RMK SC8 SLP233

CYQB;2009-02-22 09:00;CYQB 220900Z 02003KT 6SM -SN OVC015 M09/M11 A3019 RMK SC8 SLP229

CYQB;2009-02-22 10:00;CYQB 221000Z 09002KT 15SM BKN080 BKN090 M10/M12 A3019 RMK AC5AC2 SLP228

CYQB;2009-02-22 11:00;CYQB 221100Z 04005KT 15SM FEW070 SCT090 OVC180 M10/M12 A3016 RMK AC2AC2AC5 SLP219

CYQB;2009-02-22 12:00;CYQB 221200Z 04006KT 25SM SCT050 OVC060 M09/M11 A3015 RMK SC4SC4 SLP216

CYQB;2009-02-22 13:00;CYQB 221300Z 06007KT 30SM OVC040 M08/M10 A3014 RMK SC8 SLP213

CYQB;2009-02-22 14:00;CYQB 221400Z 07009KT 30SM FEW020 OVC052 M07/M09 A3011 RMK CF1SC7 SLP203

CYQB;2009-02-22 14:54;CYQB 221454Z 08009KT 7SM -SN OVC035 M06/ RMK SC8

CYQB;2009-02-22 15:00;CYQB 221500Z 08009KT 6SM -SN OVC032 M06/M08 A3011 RMK SC8 SLP200

CYQB;2009-02-22 15:18;CYQB 221518Z 08009KT 2 1/2SM -SN OVC020 M06/ RMK SN1SC7

CYQB;2009-02-22 15:35;CYQB 221535Z 09007KT 1 1/2SM -SN VV013 M05/ RMK SN8

CYQB;2009-02-22 16:00;CYQB 221600Z 08011KT 2SM -SN OVC033 M05/M07 A3008 RMK SN7SC1 SLP193

CYQB;2009-02-22 16:46;CYQB 221646Z 10007G17KT 1SM R06/P6000FT/N -SN BKN009 OVC016 M05/ RMK SN5SF2SC1

CYQB;2009-02-22 17:00;CYQB 221700Z 07010KT 3/4SM R06/5500FT/D -SN VV009 M05/M07 A3006 RMK SN8 SLP184

CYQB;2009-02-22 17:29;CYQB 221729Z 08009G15KT 1SM R06/6000FT/U -SN OVC008 M05/ RMK SN6SF2

CYQB;2009-02-22 18:00;CYQB 221800Z 07014KT 1 1/2SM -SN BKN008 OVC021 M05/M06 A3002 RMK SN5SF2SC2 /S01/ SLP170

CYQB;2009-02-22 19:00;CYQB 221900Z 07011G16KT 2 1/2SM -SN BKN007 OVC020 M04/M06 A2998 RMK SN4SF3SC1 SLP159

CYQB;2009-02-22 20:00;CYQB 222000Z 09011KT 2 1/2SM -SN BKN007 OVC036 M04/M06 A2998 RMK SN4SF3SC1 SLP158

CYQB;2009-02-22 21:00;CYQB 222100Z 07011KT 2 1/2SM -SN BKN007 BKN020 OVC039 M04/M06 A2997 RMK SN4SF1SC2SC1 /S01/ SLP152

CYQB;2009-02-22 22:00;CYQB 222200Z 07012KT 2 1/2SM -SN BKN007 OVC028 M04/M05 A2996 RMK SN2SF4SC2 SLP150

CYQB;2009-02-22 23:00;CYQB 222300Z 07012G19KT 2 1/2SM -SN DRSN BKN007 OVC028 M04/M05 A2995 RMK SN3SF4SC1 /S02/ SLP148

CYQB;2009-02-23 00:00;CYQB 230000Z 07012KT 2 1/2SM -SN SCT007 BKN028 OVC060 M04/M05 A2992 RMK SN3SF1SC3SC1 SLP137

CYQB;2009-02-23 01:00;CYQB 230100Z 07012KT 10SM -SN BKN045 OVC055 M04/M05 A2991 RMK SC5SC3 SLP132

CYQB;2009-02-23 02:00;CYQB 230200Z 07013KT 8SM -SN FEW010 OVC033 M03/M05 A2987 RMK SF1SC8 SLP121

CYQB;2009-02-23 02:25;CYQB 230225Z 07016G21KT 3SM -SN FEW010 OVC014 M03/ RMK SF2SC6

CYQB;2009-02-23 03:00;CYQB 230300Z 07013G18KT 3SM -SN OVC015 M03/M05 A2983 RMK SC8 SLP108

CYQB;2009-02-23 04:00;CYQB 230400Z 07010G16KT 6SM -SN BKN031 OVC060 M03/M05 A2981 RMK SC6SC2 SLP100

CYQB;2009-02-23 04:42;CYQB 230442Z 07013KT 2 1/2SM -SN SCT009 OVC024 M03/ RMK SC4SC4

CYQB;2009-02-23 05:00;CYQB 230500Z 07011G18KT 2SM -SN SCT008 OVC022 M04/M05 A2981 RMK SC4SC4 SLP098

CYQB;2009-02-23 05:42;CYQB 230542Z 07011KT 1 1/2SM -SN VV008 M04/ RMK SN8

CYQB;2009-02-23 06:00;CYQB 230600Z 07011KT 1 1/2SM -SN BKN007 OVC022 M04/M05 A2978 RMK SN3SF2SC2 /S01/ SLP089

CYQB;2009-02-23 06:48;CYQB 230648Z 07007KT 2 1/2SM -SN BKN010 OVC028 M04/ RMK SC6SC2

CYQB;2009-02-23 07:00;CYQB 230700Z 07006KT 2 1/2SM -SN OVC010 M04/M05 A2975 RMK SC8 SLP078

CYQB;2009-02-23 08:00;CYQB 230800Z 09005KT 2 1/4SM -SN OVC010 M04/M08 A2972 RMK SC8 SLP067

CYQB;2009-02-23 09:00;CYQB 230900Z 00000KT 1 3/4SM -SN OVC006 M04/M04 A2971 RMK SN4SC4 SLP065

CYQB;2009-02-23 10:00;CYQB 231000Z 28005KT 1 1/4SM -SN OVC008 M04/M05 A2969 RMK SN3SC5 /S04/ SLP058

CYQB;2009-02-23 11:00;CYQB 231100Z 32003KT 1 1/4SM -SN OVC008 M03/M05 A2969 RMK SN2SC6 SLP059

CYQB;2009-02-23 11:43;CYQB 231143Z 35002KT 1SM R06/P6000FT/D -SN OVC005 M03/ RMK SN4SC4

CYQB;2009-02-23 12:00;CYQB 231200Z 32004KT 1SM R06/P6000FT/D -SN OVC006 M03/M04 A2970 RMK SN3SC5 /S06/ SLP062

CYQB;2009-02-23 13:00;CYQB 231300Z 34008KT 1SM R06/P6000FT/N -SN OVC007 M03/M04 A2971 RMK SN5SC3 SLP064

CYQB;2009-02-23 13:11;CYQB 231311Z 34007KT 3/4SM R06/6000FT/D -SN OVC006 M03/ RMK SN5SC3

CYQB;2009-02-23 13:38;CYQB 231338Z 33006KT 1/2SM R06/4500FT/N SN OVC004 M03/ RMK SN6SC2

CYQB;2009-02-23 14:00;CYQB 231400Z 36007KT 3/4SM R06/4500FT/N -SN OVC006 M03/M04 A2972 RESN RMK SN3SC5 /S02/ SLP069

CYQB;2009-02-23 15:00;CYQB 231500Z 36007G15KT 3/4SM R06/4500FT/N -SN OVC006 M03/M04 A2974 RMK SN3SC5 SLP075

CYQB;2009-02-23 15:44;CYQB 231544Z 33007KT 1SM R06/P6000FT/U -SN OVC010 M04/ RMK SN4SC4

CYQB;2009-02-23 16:00;CYQB 231600Z 31006KT 2SM -SN OVC016 M03/M05 A2973 RMK SC8 SLP073

CYQB;2009-02-23 17:00;CYQB 231700Z 31009KT 4SM -SN OVC026 M03/M06 A2972 RMK SC8 SLP069

CYQB;2009-02-23 18:00;CYQB 231800Z 30010KT 10SM OVC031 M03/M06 A2970 RMK SC8 SLP063

CYQB;2009-02-23 19:00;CYQB 231900Z 31011G16KT 15SM OVC046 M02/M07 A2970 RMK SC8 SLP061

CYQB;2009-02-23 20:00;CYQB 232000Z 32010KT 30SM OVC056 M02/M07 A2972 RMK SC8 SLP068

CYQB;2009-02-23 21:00;CYQB 232100Z 33010KT 30SM OVC067 M02/M08 A2975 RMK SC8 SLP078

CYQB;2009-02-23 22:00;CYQB 232200Z 32008G15KT 30SM OVC088 M02/M09 A2977 RMK AC8 SLP085

CYQB;2009-02-23 23:00;CYQB 232300Z 31008KT 15SM OVC087 M03/M08 A2979 RMK AC8 SLP092

CYQB;2009-02-24 00:00;CYQB 240000Z 25016KT 15SM FEW045 BKN084 M04/M09 A2980 RMK SC1AC6 SLP095

CYQB;2009-02-24 01:00;CYQB 240100Z 26014KT 15SM FEW045 BKN095 M04/M08 A2982 RMK SC1AC6 SLP101

CYQB;2009-02-24 02:00;CYQB 240200Z 26013KT 15SM FEW045 BKN090 M05/M09 A2984 RMK SC1AC6 SLP109

CYQB;2009-02-24 03:00;CYQB 240300Z 27011G16KT 15SM FEW045 BKN096 M05/M09 A2986 RMK SC1AC6 SLP116

CYQB;2009-02-24 04:00;CYQB 240400Z 30011KT 15SM BKN036 BKN090 M05/M10 A2987 RMK SC5AC2 SLP120

CYQB;2009-02-24 05:00;CYQB 240500Z 28008G16KT 15SM BKN037 M05/M10 A2990 RMK SC7 SLP129

CYQB;2009-02-24 06:00;CYQB 240600Z 31011G16KT 15SM OVC037 M05/M11 A2992 RMK SC8 SLP138

CYQB;2009-02-24 07:00;CYQB 240700Z 28010G15KT 15SM BKN037 M06/M11 A2995 RMK SC6 SLP147

CYQB;2009-02-24 08:00;CYQB 240800Z 29009KT 15SM FEW030 BKN160 M06/M12 A2997 RMK SC2AC5 SLP152

CYQB;2009-02-24 09:00;CYQB 240900Z 31010KT 15SM BKN160 M07/M13 A2999 RMK AC6 SLP160

CYQB;2009-02-24 10:00;CYQB 241000Z 31010KT 15SM BKN150 M07/M14 A3002 RMK AS6 SLP169

CYQB;2009-02-24 11:00;CYQB 241100Z CCA 31011KT 15SM BKN140 M08/M14 A3004 RMK AC6 SLP178

CYQB;2009-02-24 11:22;CYQB 241122Z 30006KT 1 1/2SM -SN DRSN SCT009 OVC025 RMK SF4SC4

CYQB;2009-02-24 11:30;CYQB 241130Z 28007KT 15SM BKN140 M09/ RMK AC6 DISREGARD AT 1129

CYQB;2009-02-24 12:00;CYQB 241200Z 28007KT 30SM FEW020 BKN140 BKN230 M09/M15 A3008 RMK CF1AC6CI1 SLP191

CYQB;2009-02-24 13:00;CYQB 241300Z 30009KT 30SM FEW020 FEW140 SCT230 M09/M14 A3011 RMK CF1AC1CI1 SLP201

CYQB;2009-02-24 14:00;CYQB 241400Z 31012KT 30SM FEW020 FEW230 M08/M15 A3014 RMK CF1CI1 SLP212

CYQB;2009-02-24 15:00;CYQB 241500Z 30010G16KT 30SM FEW025 FEW140 FEW230 M08/M15 A3016 RMK SC1AC1CI0 SLP218

CYQB;2009-02-24 16:00;CYQB 241600Z 31010G15KT 30SM FEW030 FEW250 M06/M14 A3017 RMK SC1CI1 SLP221

CYQB;2009-02-24 17:00;CYQB 241700Z 27011KT 30SM FEW030 M06/M13 A3017 RMK SC1 SLP220

CYQB;2009-02-24 18:00;CYQB 241800Z 26015KT 30SM FEW030 M05/M13 A3016 RMK SC1 SLP217

CYQB;2009-02-24 19:00;CYQB 241900Z 26011G16KT 30SM FEW030 M04/M12 A3016 RMK SC1 SLP217

CYQB;2009-02-24 20:00;CYQB 242000Z 25014G19KT 30SM FEW030 M04/M12 A3016 RMK SC1 SLP219

CYQB;2009-02-24 21:00;CYQB 242100Z 26013KT 30SM FEW030 M04/M12 A3018 RMK SC1 SLP226

CYQB;2009-02-24 22:00;CYQB 242200Z 27014KT 30SM FEW030 M05/M11 A3021 RMK SC1 SLP235

CYQB;2009-02-24 23:00;CYQB 242300Z 26016KT 15SM FEW094 M07/M13 A3024 RMK AS1 SLP245

CYQB;2009-02-25 00:00;CYQB 250000Z 25017KT 15SM SKC M09/M15 A3026 RMK SLP253

CYQB;2009-02-25 01:00;CYQB 250100Z 25011KT 15SM SKC M10/M15 A3028 RMK SLP261

CYQB;2009-02-25 02:00;CYQB 250200Z 24016KT 15SM FEW090 M10/M14 A3030 RMK AS1 SLP265

CYQB;2009-02-25 03:00;CYQB 250300Z 27012KT 15SM FEW090 M11/M15 A3031 RMK AS1 SLP269

CYQB;2009-02-25 04:00;CYQB 250400Z 23008KT 15SM BKN220 M12/M15 A3033 RMK CI2 SLP275

CYQB;2009-02-25 05:00;CYQB 250500Z 25012KT 15SM BKN220 M12/M15 A3032 RMK CI2 SLP274

CYQB;2009-02-25 06:00;CYQB 250600Z 23013KT 15SM SCT210 M13/M16 A3033 RMK CI2 SLP277

CYQB;2009-02-25 07:00;CYQB 250700Z 23012KT 15SM SCT210 M13/M16 A3034 RMK CI4 SLP281

CYQB;2009-02-25 08:00;CYQB 250800Z 22008KT 15SM SCT210 M14/M16 A3035 RMK CI3 SLP283

CYQB;2009-02-25 09:00;CYQB 250900Z 27010KT 15SM FEW150 FEW210 M14/M16 A3036 RMK AC1CI2 SLP286

CYQB;2009-02-25 10:00;CYQB 251000Z 26010KT 15SM FEW150 FEW210 M15/M17 A3038 RMK AC1CI2 SLP294

CYQB;2009-02-25 11:00;CYQB 251100Z 25011KT 15SM FEW030 FEW150 FEW210 M15/M18 A3040 RMK SC1AC1CI0 SLP300

CYQB;2009-02-25 12:00;CYQB 251200Z 27008G15KT 15SM FEW030 FEW100 FEW220 M13/M16 A3042 RMK SC1AC1CI1 SLP307

CYQB;2009-02-25 13:00;CYQB 251300Z 25009KT 15SM FEW030 FEW220 M14/M17 A3043 RMK SC1CI0 SLP312

CYQB;2009-02-25 14:00;CYQB 251400Z 25010KT 15SM FEW025 FEW220 M12/M15 A3044 RMK SC1CI1 SLP316

CYQB;2009-02-25 15:00;CYQB 251500Z 23007KT 15SM FEW025 FEW220 M10/M14 A3044 RMK SC1CI1 SLP315

CYQB;2009-02-25 16:00;CYQB 251600Z 22011KT 25SM FEW230 M09/M13 A3043 RMK CI1 SLP312

CYQB;2009-02-25 17:00;CYQB 251700Z 23010KT 25SM SKC M07/M12 A3040 RMK SLP301

CYQB;2009-02-25 18:00;CYQB 251800Z 24011KT 25SM SKC M06/M12 A3039 RMK SLP295

CYQB;2009-02-25 19:00;CYQB 251900Z 23010KT 25SM FEW230 M04/M11 A3038 RMK CI0 SLP292

CYQB;2009-02-25 20:00;CYQB 252000Z 23006KT 30SM SKC M04/M12 A3036 RMK SLP287

CYQB;2009-02-25 21:00;CYQB 252100Z 24005KT 30SM SKC M05/M11 A3034 RMK SLP281

CYQB;2009-02-25 22:00;CYQB 252200Z 27005KT 30SM FEW230 M05/M12 A3034 RMK CS1 SLP279

CYQB;2009-02-25 23:00;CYQB 252300Z 29002KT 15SM FEW230 M07/M13 A3033 RMK CS1 SLP276

CYQB;2009-02-26 00:00;CYQB 260000Z 00000KT 15SM FEW090 M09/M13 A3032 RMK AS1 SLP272

CYQB;2009-02-26 01:00;CYQB 260100Z 36003KT 15SM FEW090 M08/M13 A3031 RMK AS2 SLP269

CYQB;2009-02-26 02:00;CYQB 260200Z 00000KT 15SM FEW090 SCT250 M09/M14 A3030 RMK AS2CS2 SLP265

CYQB;2009-02-26 03:00;CYQB 260300Z 02005KT 15SM FEW090 SCT250 M08/M12 A3028 RMK AS2CS2 SLP258

CYQB;2009-02-26 04:00;CYQB 260400Z 02005KT 15SM SCT240 M09/M14 A3026 RMK CS3 SLP253

CYQB;2009-02-26 05:00;CYQB 260500Z 02005KT 15SM FEW240 M10/M14 A3025 RMK CI2 SLP249

CYQB;2009-02-26 06:00;CYQB 260600Z 02006KT 15SM FEW240 M09/M14 A3023 RMK CI2 SLP242

CYQB;2009-02-26 07:00;CYQB 260700Z 02005KT 15SM FEW120 BKN240 M10/M14 A3022 RMK AC2CI3 SLP240

CYQB;2009-02-26 08:00;CYQB 260800Z 02005KT 15SM FEW090 BKN120 OVC210 M09/M14 A3020 RMK AC2AC2CI3 SLP234

CYQB;2009-02-26 09:00;CYQB 260900Z 01004KT 15SM BKN090 OVC120 M08/M13 A3019 RMK AC6AC2 SLP227

CYQB;2009-02-26 10:00;CYQB 261000Z 01004KT 15SM OVC090 M08/M12 A3017 RMK AC8 SLP223

CYQB;2009-02-26 11:00;CYQB 261100Z 36004KT 15SM OVC050 M07/M12 A3017 RMK SC8 SLP221

CYQB;2009-02-26 11:50;CYQB 261150Z 04006KT 10SM -SN OVC049 M07/ RMK SC8

CYQB;2009-02-26 12:00;CYQB 261200Z 03005KT 10SM OVC050 M06/M12 A3016 RMK SC8 INTMT -SN SLP219

CYQB;2009-02-26 13:00;CYQB 261300Z 04002KT 2SM -SN OVC027 M06/M11 A3018 RMK SC8 SLP225

CYQB;2009-02-26 14:00;CYQB 261400Z 00000KT 1 1/2SM -SN OVC020 M05/M08 A3018 RMK SN2SC6 SLP226

CYQB;2009-02-26 15:00;CYQB 261500Z 00000KT 2SM -SN OVC023 M04/M06 A3018 RMK SN2SC6 SLP226

CYQB;2009-02-26 16:00;CYQB 261600Z 00000KT 6SM -SN OVC016 M04/M06 A3017 RMK SC8 SLP223

CYQB;2009-02-26 16:38;CYQB 261638Z 00000KT 6SM -SN OVC012 M03/ RMK SC8

CYQB;2009-02-26 17:00;CYQB 261700Z 00000KT 6SM -SN OVC012 M03/M05 A3017 RMK SC8 SLP222

CYQB;2009-02-26 18:00;CYQB 261800Z 00000KT 6SM -SG BR OVC010 M02/M04 A3017 RMK ST8 SLP223

CYQB;2009-02-26 18:38;CYQB 261838Z 00000KT 6SM -SG BR OVC008 M02/ RMK ST8

CYQB;2009-02-26 19:00;CYQB 261900Z 25002KT 6SM BR OVC008 M01/M03 A3018 RMK ST8 INTMT -SG SLP225

CYQB;2009-02-26 20:00;CYQB 262000Z 26002KT 6SM BR OVC007 M01/M03 A3019 RMK ST8 SLP228

CYQB;2009-02-26 21:00;CYQB 262100Z 23004KT 5SM -SG BR OVC007 M01/M03 A3021 RMK ST8 SLP234

CYQB;2009-02-26 22:00;CYQB 262200Z 00000KT 5SM -SG BR OVC009 M01/M03 A3022 RMK ST8 SLP239

CYQB;2009-02-26 23:00;CYQB 262300Z 16002KT 5SM -SG BR SCT009 OVC014 M02/M04 A3024 RMK SF4SC4 SLP244

CYQB;2009-02-27 00:00;CYQB 270000Z 00000KT 5SM -SG BR SCT009 OVC016 M02/M03 A3024 RMK SF3SC5 SLP244

CYQB;2009-02-27 01:00;CYQB 270100Z 00000KT 5SM BR SCT009 OVC016 M02/M03 A3024 RMK SF2SC6 INTMT -SG SLP246

CYQB;2009-02-27 02:00;CYQB 270200Z 17002KT 5SM BR FEW009 BKN016 OVC034 M02/M03 A3022 RMK SF2SC6SC1 INTMT -SG SLP240

CYQB;2009-02-27 03:00;CYQB 270300Z 00000KT 5SM BR BKN016 OVC020 M02/M03 A3020 RMK SC7SC1 SLP232

CYQB;2009-02-27 04:00;CYQB 270400Z 01002KT 3SM BR BKN015 OVC020 M02/M03 A3019 RMK SC7SC1 SLP227

CYQB;2009-02-27 05:00;CYQB 270500Z 36004KT 2 1/2SM BR SCT013 OVC025 M01/M03 A3019 RMK SC4SC4 SLP227

CYQB;2009-02-27 06:00;CYQB 270600Z 06004KT 5SM BR FEW013 SCT025 OVC055 M01/M03 A3017 RMK SF2SC2SC4 SLP219

CYQB;2009-02-27 07:00;CYQB 270700Z 03002KT 5SM BR OVC049 M01/M02 A3014 RMK SC8 SLP211

CYQB;2009-02-27 08:00;CYQB 270800Z 05005KT 5SM BR OVC049 M01/M03 A3010 RMK SC8 SLP196

CYQB;2009-02-27 09:00;CYQB 270900Z 05006KT 5SM BR OVC050 M01/M02 A3007 RMK SC8 SLP186

CYQB;2009-02-27 10:00;CYQB 271000Z 04005KT 4SM BR BKN053 M01/M03 A3003 RMK SC6 SLP172

CYQB;2009-02-27 11:00;CYQB 271100Z 07008KT 4SM BR SCT053 M01/M03 A2998 RMK SC3 SLP156

CYQB;2009-02-27 11:50;CYQB 271150Z 07010KT 2SM BR BKN051 M01/ RMK SC7

CYQB;2009-02-27 12:00;CYQB 271200Z 06008KT 1SM R06/P6000FT/U BR OVC052 M01/M03 A2994 RMK FG2SC6 SLP141

CYQB;2009-02-27 12:22;CYQB 271222Z 05010KT 3SM BR SCT052 BKN100 M01/ RMK SC4AC2

CYQB;2009-02-27 13:00;CYQB 271300Z 07009KT 3SM BR OVC051 M01/M02 A2989 RMK SC8 SLP124

CYQB;2009-02-27 14:00;CYQB 271400Z 07009G15KT 7SM OVC078 01/M01 A2981 RMK AC8 PRESFR SLP099

CYQB;2009-02-27 15:00;CYQB 271500Z 06009KT 10SM OVC086 02/M01 A2977 RMK AC8 SLP083

CYQB;2009-02-27 16:00;CYQB 271600Z 06010KT 8SM BKN120 03/M00 A2972 RMK AC7 SLP068

CYQB;2009-02-27 17:00;CYQB 271700Z 08006KT 15SM BKN047 OVC085 03/M01 A2968 RMK SC6AC2 SLP054

CYQB;2009-02-27 17:45;CYQB 271745Z 34004KT 10SM -RA BKN041 OVC085 04/ RMK SC7AC1

CYQB;2009-02-27 18:00;CYQB 271800Z 35006KT 8SM -RA BKN038 OVC080 04/00 A2961 RMK SC7AC1 PRESFR SLP032

CYQB;2009-02-27 19:00;CYQB 271900Z 00000KT 6SM -RA BR OVC031 05/02 A2958 RMK SC8 RERA SLP020

CYQB;2009-02-27 20:00;CYQB 272000Z 29006KT 6SM -RA BR OVC021 06/04 A2958 RMK SC8 SLP019

CYQB;2009-02-27 21:00;CYQB 272100Z 22008KT 3SM -RA BR OVC017 06/05 A2958 RMK SC8 SLP019

CYQB;2009-02-27 22:00;CYQB 272200Z 25016G22KT 3SM -RA BR OVC010 06/04 A2959 RMK SC8 SLP023

CYQB;2009-02-27 23:00;CYQB 272300Z 27010G15KT 3SM -RA BR OVC011 05/04 A2960 RMK SC8 SLP026

CYQB;2009-02-28 00:00;CYQB 280000Z 25007KT 3SM -RA BR FEW008 OVC011 04/04 A2961 RMK SF2SC6 SLP030

CYQB;2009-02-28 00:42;CYQB 280042Z 26007KT 3SM -RA BR BKN008 OVC011 04/ RMK SF6SC2

CYQB;2009-02-28 01:00;CYQB 280100Z 26008KT 2 1/2SM -RA BR OVC007 04/03 A2962 RMK SF8 SLP034

CYQB;2009-02-28 01:33;CYQB 280133Z 24009KT 7SM BKN007 OVC035 04/ RMK SF6SC2

CYQB;2009-02-28 02:00;CYQB 280200Z 30009KT 6SM -RA BR BKN007 OVC028 04/03 A2964 RMK SF5SC3 SLP042

CYQB;2009-02-28 02:18;CYQB 280218Z 33013KT 8SM -RA FEW008 OVC029 03/ RMK SF2SC6

CYQB;2009-02-28 02:39;CYQB 280239Z 34012KT 8SM -RA FEW008 OVC033 02/ RMK SF2SC6

CYQB;2009-02-28 03:00;CYQB 280300Z 33013G18KT 8SM -RA FEW008 OVC028 02/M01 A2969 RMK SF1SC7 SLP058

CYQB;2009-02-28 04:00;CYQB 280400Z 33022G29KT 10SM OVC031 M01/M05 A2975 RMK SC8 PRESRR SLP079

CYQB;2009-02-28 05:00;CYQB 280500Z CCA 32019G26KT 10SM -SHSN OVC037 M05/M10 A2982 RMK SC8 PRESRR SLP102

CYQB;2009-02-28 06:00;CYQB 280600Z 31013G22KT 15SM OVC041 M07/M13 A2991 RMK SC8 PRESRR SLP133

CYQB;2009-02-28 07:00;CYQB 280700Z 32019G25KT 15SM OVC048 M09/M15 A2997 RMK SC8 SLP151

CYQB;2009-02-28 08:00;CYQB 280800Z 32011G17KT 15SM BKN029 OVC048 M10/M16 A3003 RMK SC7SC1 PRESRR SLP171

CYQB;2009-02-28 09:00;CYQB 280900Z 34015G25KT 15SM OVC024 M11/M18 A3006 RMK SC8 SLP183

CYQB;2009-02-28 10:00;CYQB 281000Z 34014G20KT 15SM BKN030 OVC045 M12/M19 A3011 RMK SC6SC2 SLP201

CYQB;2009-02-28 11:00;CYQB 281100Z 34013KT 15SM -SN OVC036 M13/M20 A3017 RMK SC8 SLP220

CYQB;2009-02-28 12:00;CYQB 281200Z 34014G20KT 20SM -SN BKN038 M14/M21 A3022 RMK SC7 SLP237

CYQB;2009-02-28 13:00;CYQB 281300Z 31008KT 30SM -SN BKN039 M15/M21 A3026 RMK SC6 SLP253

CYQB;2009-02-28 14:00;CYQB 281400Z 30009KT 30SM BKN026 M13/M21 A3030 RMK SC7 SLP265

CYQB;2009-02-28 15:00;CYQB 281500Z 30005KT 30SM FEW030 SCT200 M12/M21 A3033 RMK SC2CI1 SLP276

CYQB;2009-02-28 16:00;CYQB 281600Z 22004KT 30SM FEW030 M11/M19 A3034 RMK SC1 SLP280

CYQB;2009-02-28 17:00;CYQB 281700Z 22015KT 30SM FEW030 M11/M18 A3036 RMK SC1 SLP285

CYQB;2009-02-28 18:00;CYQB 281800Z 22015KT 30SM FEW030 M11/M18 A3036 RMK SC1 SLP287

CYQB;2009-02-28 19:00;CYQB 281900Z 24019G24KT 30SM FEW030 M11/M18 A3037 RMK SC1 SLP289

CYQB;2009-02-28 20:00;CYQB 282000Z 22015G21KT 30SM FEW030 M10/M18 A3037 RMK SC1 SLP290

CYQB;2009-02-28 21:00;CYQB 282100Z 23014G20KT 30SM FEW030 M10/M18 A3037 RMK SC1 SLP290

CYQB;2009-02-28 22:00;CYQB 282200Z 22010G15KT 30SM SKC M10/M18 A3037 RMK SLP291

CYQB;2009-02-28 23:00;CYQB 282300Z 18005KT 15SM SKC M12/M19 A3037 RMK SLP291

CYQB;2009-03-01 01:00;CYQB 010100Z 16004KT 15SM SKC M13/M20 A3040 RMK SLP302

CYQB;2009-03-01 02:00;CYQB 010200Z 18003KT 15SM SKC M15/M21 A3042 RMK SLP308

CYQB;2009-03-01 03:00;CYQB 010300Z 28002KT 15SM SKC M17/M22 A3043 RMK SLP311

CYQB;2009-03-01 04:00;CYQB 010400Z 34003KT 15SM SKC M18/M23 A3041 RMK SLP306

CYQB;2009-03-01 05:00;CYQB 010500Z 02003KT 15SM SKC M16/M21 A3039 RMK SLP300

CYQB;2009-03-01 06:00;CYQB 010600Z 36003KT 15SM SKC M16/M20 A3040 RMK SLP302

CYQB;2009-03-01 07:00;CYQB 010700Z 01002KT 15SM SKC M17/M22 A3039 RMK SLP299

CYQB;2009-03-01 08:00;CYQB 010800Z 02004KT 15SM SKC M18/M22 A3037 RMK SLP291

CYQB;2009-03-01 09:00;CYQB 010900Z 03003KT 15SM SKC M18/M22 A3035 RMK SLP283

CYQB;2009-03-01 10:00;CYQB 011000Z 36002KT 15SM SKC M19/M22 A3035 RMK SLP284

CYQB;2009-03-01 11:00;CYQB 011100Z 36002KT 15SM BKN026 M19/M23 A3036 RMK SC3 SLP286

CYQB;2009-03-01 12:00;CYQB 011200Z 03004KT 12SM FEW025 SCT150 M17/M22 A3035 RMK SC2AC1 SLP286

CYQB;2009-03-01 13:00;CYQB 011300Z 03004KT 15SM FEW025 FEW150 M16/M19 A3034 RMK SC1AC1 SLP281

CYQB;2009-03-01 14:00;CYQB 011400Z 07008KT 30SM FEW025 FEW240 M13/M18 A3031 RMK SC1CI2 SLP273

CYQB;2009-03-01 15:00;CYQB 011500Z 07011G18KT 30SM FEW025 FEW240 M11/M15 A3029 RMK SC1CI1 SLP264

CYQB;2009-03-01 16:00;CYQB 011600Z 07017KT 30SM FEW025 FEW240 M10/M15 A3028 RMK SC1CI1 SLP260

CYQB;2009-03-01 17:00;CYQB 011700Z 08012G19KT 30SM FEW240 M09/M15 A3025 RMK CI1 SLP252

CYQB;2009-03-01 18:00;CYQB 011800Z 08009KT 50SM FEW240 M08/M15 A3023 RMK CI1 SLP243

CYQB;2009-03-01 19:00;CYQB 011900Z 07007KT 50SM FEW240 M07/M14 A3020 RMK CI1 SLP234

CYQB;2009-03-01 20:00;CYQB 012000Z 08008KT 30SM FEW030 FEW240 M07/M14 A3019 RMK SC1CI1 SLP230

CYQB;2009-03-01 21:00;CYQB 012100Z 10010KT 30SM FEW030 FEW240 M07/M13 A3018 RMK SC1CI1 SLP226

CYQB;2009-03-01 22:00;CYQB 012200Z 09009KT 30SM FEW030 FEW240 M07/M13 A3020 RMK SC1CI1 SLP234

CYQB;2009-03-01 23:00;CYQB 012300Z 08008KT 15SM FEW030 FEW240 M08/M13 A3021 RMK SC1CI1 SLP235

CYQB;2009-03-02 00:00;CYQB 020000Z 03004KT 15SM FEW240 M08/M13 A3022 RMK CI2 SLP241

CYQB;2009-03-02 01:00;CYQB 020100Z 01005KT 15SM FEW020 FEW240 M09/M13 A3021 RMK SC1CI1 SLP236

CYQB;2009-03-02 01:28;CYQB 020128Z 06006KT 15SM BKN017 M09/ RMK SC6

CYQB;2009-03-02 02:00;CYQB 020200Z 04005KT 15SM BKN018 M09/M13 A3021 RMK SC7 SLP238

CYQB;2009-03-02 03:00;CYQB 020300Z 05008KT 15SM -SHSN BKN030 M08/M13 A3022 RMK SC7 SLP239

CYQB;2009-03-02 04:00;CYQB 020400Z 01007KT 15SM -SHSN BKN023 M11/M15 A3022 RMK SC7 -SHSN OCNL PCPN VRY LGT SLP241

CYQB;2009-03-02 05:00;CYQB 020500Z 35007KT 15SM -SHSN BKN028 OVC220 M11/M16 A3023 RMK SC6CI2 PCPN VRY LGT SLP243

CYQB;2009-03-02 06:00;CYQB 020600Z 35006KT 15SM BKN029 BKN200 M12/M16 A3024 RMK SC6CI1 OCNL -SHSN SLP246

CYQB;2009-03-02 06:26;CYQB 020626Z 35004KT 15SM BKN031 OVC220 M11/ RMK SC6CI2

CYQB;2009-03-02 07:00;CYQB 020700Z 02003KT 15SM SCT030 BKN220 M12/M16 A3022 RMK SC4CI2 SLP240

CYQB;2009-03-02 08:00;CYQB 020800Z 35005KT 15SM BKN028 OVC100 M12/M17 A3022 RMK SC6AC2 SLP240

CYQB;2009-03-02 09:00;CYQB 020900Z 36005KT 15SM BKN026 BKN100 BKN220 M11/M17 A3022 RMK SC6AC1CI1 SLP241

CYQB;2009-03-02 10:00;CYQB 021000Z 36010KT 15SM BKN033 OVC180 M11/M17 A3022 RMK SC5AC3 SLP238

CYQB;2009-03-02 11:00;CYQB 021100Z 36008KT 25SM BKN034 BKN190 M11/M17 A3021 RMK SC5AC2 SLP236

CYQB;2009-03-02 12:00;CYQB 021200Z 01004KT 30SM FEW034 OVC190 M11/M17 A3021 RMK SC2AC6 SLP236

CYQB;2009-03-02 13:00;CYQB 021300Z 01005KT 30SM FEW034 OVC100 M10/M16 A3022 RMK SC2AC6 SLP239

CYQB;2009-03-02 14:00;CYQB 021400Z 04008KT 25SM FEW035 OVC076 M09/M16 A3021 RMK SC2AC6 SLP237

CYQB;2009-03-02 15:00;CYQB 021500Z CCA 36006KT 25SM FEW025 OVC056 M09/M16 A3018 RMK SC1SC7 PRESFR SLP226

CYQB;2009-03-02 15:08;CYQB 021508Z 01003KT 25SM -SN FEW025 OVC044 M09/ RMK SC1SC7

CYQB;2009-03-02 16:00;CYQB 021600Z CCA 05011KT 6SM -SN VV015 M09/M16 A3015 RMK SN8 VIS LWR N PRESFR SLP217

CYQB;2009-03-02 16:07;CYQB 021607Z 05014KT 1 3/4SM -SN VV013 M09/ RMK SN8

CYQB;2009-03-02 17:00;CYQB 021700Z 08008KT 1 1/2SM -SN VV016 M09/M14 A3016 RMK SN8 CIG VRB 12-20 SLP219

CYQB;2009-03-02 18:00;CYQB 021800Z 07008KT 1 1/2SM -SN VV016 M09/M13 A3012 RMK SN8 CIG VRB 12-20 SLP207

CYQB;2009-03-02 19:00;CYQB 021900Z 11003KT 1SM R06/P6000FT/N -SN VV012 M09/M12 A3011 RMK SN8 CIG VRB 9-15 /S01/ SLP203

CYQB;2009-03-02 20:00;CYQB 022000Z 08006KT 1SM R06/P6000FT/U -SN VV012 M09/M12 A3010 RMK SN8 CIG VRBL 9-15 /S02/ SLP198

CYQB;2009-03-02 20:40;CYQB 022040Z 10005KT 3/4SM R06/P6000FT/D -SN VV007 M09/ RMK SN8

CYQB;2009-03-02 21:00;CYQB 022100Z 07007KT 1/2SM R06/6000FT/D SN VV006 M09/M12 A3009 RMK SN8 /S04/ SLP197

CYQB;2009-03-02 21:39;CYQB 022139Z 08007KT 3/4SM R06/P6000FT/U -SN VV009 M09/ RMK SN8 RESN

CYQB;2009-03-02 22:00;CYQB 022200Z 07006KT 1 1/4SM -SN BKN013 OVC028 M09/M11 A3007 RMK SN6SC1SC1 RESN /S06/ SLP188

CYQB;2009-03-02 22:16;CYQB 022216Z 05005KT 3/4SM R06/P6000FT/D -SN VV007 M09/ RMK SN8

CYQB;2009-03-02 22:47;CYQB 022247Z 36004KT 2 1/2SM -SN BKN018 OVC031 M09/ RMK SN1SC4SC3

CYQB;2009-03-02 23:00;CYQB 022300Z 36009KT 10SM -SN FEW010 BKN037 OVC060 M09/M11 A3007 RMK SF2SC6SC1 SLP188

CYQB;2009-03-03 00:00;CYQB 030000Z 35013G18KT 10SM -SN DRSN OVC020 M09/M13 A3007 RMK SC8 /S07/ SLP190

CYQB;2009-03-03 01:00;CYQB 030100Z 35007KT 3SM -SN OVC011 M10/M13 A3006 RMK SC8 SLP186

CYQB;2009-03-03 02:00;CYQB 030200Z 32005KT 3SM -SN OVC014 M11/M14 A3006 RMK SC8 SLP187

CYQB;2009-03-03 03:00;CYQB 030300Z 33007KT 3SM -SN VV020 M11/M13 A3004 RMK SN8 SLP178

CYQB;2009-03-03 04:00;CYQB 030400Z 35006KT 3SM -SN VV022 M11/M14 A3001 RMK SN8 /S01/ SLP168

CYQB;2009-03-03 05:00;CYQB 030500Z 34005KT 10SM -SN FEW060 BKN120 M11/M15 A3000 RMK SC1AC4 SLP164

CYQB;2009-03-03 05:48;CYQB 030548Z 31004KT 15SM FEW045 SCT120 M13/ RMK SC1AC2

CYQB;2009-03-03 06:00;CYQB 030600Z 31005KT 15SM FEW045 FEW120 M13/M17 A2999 RMK SC1AC1 SLP163

CYQB;2009-03-03 07:00;CYQB 030700Z 31006KT 15SM FEW240 M13/M17 A2999 RMK CI1 SLP161

CYQB;2009-03-03 08:00;CYQB 030800Z 33008KT 15SM FEW060 FEW240 M13/M18 A2998 RMK SC1CI1 SLP160

CYQB;2009-03-03 09:00;CYQB 030900Z 34012KT 15SM FEW060 FEW240 M13/M18 A2999 RMK SC1CI1 SLP162

CYQB;2009-03-03 10:00;CYQB 031000Z 34008KT 15SM SCT062 M13/M19 A3000 RMK SC3 SLP164

CYQB;2009-03-03 11:00;CYQB 031100Z 32011KT 15SM FEW020 BKN220 M14/M19 A3001 RMK SC1CI1 SLP168

CYQB;2009-03-03 12:00;CYQB 031200Z 26008KT 15SM FEW020 SCT220 M16/M21 A3003 RMK SC1CI1 SLP176

CYQB;2009-03-03 13:00;CYQB 031300Z 29010KT 15SM SCT220 M14/M22 A3004 RMK CI1 SLP179

CYQB;2009-03-03 14:00;CYQB 031400Z 27015KT 15SM FEW120 FEW220 M13/M20 A3004 RMK AC1CI1 SLP180

CYQB;2009-03-03 15:00;CYQB 031500Z 24016KT 15SM FEW220 M13/M19 A3005 RMK CI1 SLP182

CYQB;2009-03-03 16:00;CYQB 031600Z 22021KT 15SM FEW220 M12/M19 A3006 RMK CI1 SLP185

CYQB;2009-03-03 17:00;CYQB 031700Z 23019G27KT 15SM FEW120 FEW220 M11/M17 A3006 RMK AC1CI1 SLP185

CYQB;2009-03-03 18:00;CYQB 031800Z 22017G22KT 15SM FEW120 FEW220 M09/M15 A3004 RMK AC1CI1 SLP179

CYQB;2009-03-03 19:00;CYQB 031900Z CCA 28014KT 15SM FEW120 M07/ A3005 RMK AC1 SLP181

CYQB;2009-03-03 20:00;CYQB 032000Z 27014KT 30SM FEW030 M06/M12 A3006 RMK CU1 SLP186

CYQB;2009-03-03 21:00;CYQB 032100Z 29014KT 30SM FEW040 M07/M19 A3007 RMK CU1 SLP190

CYQB;2009-03-03 22:00;CYQB 032200Z 26013KT 30SM FEW110 M08/M19 A3009 RMK AC1 SLP197

CYQB;2009-03-03 23:00;CYQB 032300Z 26012KT 15SM SKC M09/M20 A3012 RMK SLP205

CYQB;2009-03-04 00:00;CYQB 040000Z 27012KT 15SM SKC M10/M20 A3014 RMK SLP214

CYQB;2009-03-04 01:00;CYQB 040100Z 27010KT 15SM SKC M11/M21 A3017 RMK SLP223

CYQB;2009-03-04 02:00;CYQB 040200Z 29007KT 15SM SKC M12/M23 A3019 RMK SLP230

CYQB;2009-03-04 03:00;CYQB 040300Z 31004KT 15SM SKC M12/M22 A3020 RMK SLP232

CYQB;2009-03-04 04:00;CYQB 040400Z 32008KT 15SM SKC M13/M22 A3020 RMK SLP232

CYQB;2009-03-04 05:00;CYQB 040500Z 31007KT 15SM SKC M15/M23 A3019 RMK SLP230

CYQB;2009-03-04 06:00;CYQB 040600Z 27009KT 15SM SKC M17/M24 A3020 RMK SLP235

CYQB;2009-03-04 07:00;CYQB 040700Z 27005KT 15SM SKC M18/M24 A3020 RMK SLP235

CYQB;2009-03-04 08:00;CYQB 040800Z 27004KT 15SM SKC M19/M25 A3020 RMK SLP235

CYQB;2009-03-04 09:00;CYQB 040900Z 27010KT 15SM SKC M17/M24 A3021 RMK SLP236

CYQB;2009-03-04 10:00;CYQB 041000Z 27011KT 15SM SKC M18/M24 A3023 RMK SLP242

CYQB;2009-03-04 11:00;CYQB 041100Z 24011KT 50SM FEW120 M18/M24 A3023 RMK AC1 SLP244

CYQB;2009-03-04 12:00;CYQB 041200Z 23011KT 50SM FEW120 M19/M25 A3025 RMK AC1 SLP250

CYQB;2009-03-04 13:00;CYQB 041300Z 23010KT 50SM FEW120 M17/M23 A3025 RMK AC1 SLP251

CYQB;2009-03-04 14:00;CYQB 041400Z 23010KT 50SM FEW120 M15/M21 A3025 RMK AC1 SLP249

CYQB;2009-03-04 15:00;CYQB 041500Z 24013KT 50SM FEW220 M13/M20 A3023 RMK CI1 SLP245

CYQB;2009-03-04 16:00;CYQB 041600Z 23014KT 50SM SKC M11/M19 A3021 RMK SLP238

CYQB;2009-03-04 17:00;CYQB 041700Z 27009G15KT 50SM SKC M09/M18 A3019 RMK SLP231

CYQB;2009-03-04 18:00;CYQB 041800Z 28014KT 50SM SKC M08/M18 A3017 RMK SLP224

CYQB;2009-03-04 19:00;CYQB 041900Z CCA 28011G17KT 15SM FEW140 M07/M18 A3015 RMK AC1 OBS TAKEN +40 SLP216

CYQB;2009-03-04 20:00;CYQB 042000Z 27015KT 50SM FEW040 FEW240 M07/M17 A3015 RMK SC1CI1 SLP216

CYQB;2009-03-04 21:00;CYQB 042100Z 30012G19KT 50SM FEW040 FEW240 M07/M18 A3016 RMK SC1CI1 SLP218

CYQB;2009-03-04 22:00;CYQB 042200Z 28014KT 50SM FEW045 M08/M20 A3017 RMK SC1 SLP223

CYQB;2009-03-04 23:00;CYQB 042300Z 26009KT 15SM SKC M09/M20 A3019 RMK SLP231

CYQB;2009-03-05 00:00;CYQB 050000Z 23011KT 15SM SKC M10/M20 A3021 RMK SLP238

CYQB;2009-03-05 01:00;CYQB 050100Z 25004KT 15SM SKC M11/M21 A3023 RMK SLP243

CYQB;2009-03-05 02:00;CYQB 050200Z 33004KT 15SM SKC M10/M21 A3024 RMK SLP248

CYQB;2009-03-05 03:00;CYQB 050300Z 24004KT 15SM SKC M12/M21 A3026 RMK SLP253

CYQB;2009-03-05 04:00;CYQB 050400Z 29009KT 15SM SKC M13/M22 A3027 RMK SLP257

CYQB;2009-03-05 05:00;CYQB 050500Z 28007KT 15SM SKC M14/M22 A3028 RMK SLP262

CYQB;2009-03-05 06:00;CYQB 050600Z 26005KT 15SM SKC M15/M23 A3029 RMK SLP264

CYQB;2009-03-05 07:00;CYQB 050700Z 29006KT 15SM SKC M16/M23 A3030 RMK SLP266

CYQB;2009-03-05 08:00;CYQB 050800Z 28004KT 15SM SKC M16/M23 A3030 RMK SLP266

CYQB;2009-03-05 09:00;CYQB 050900Z 24004KT 15SM SKC M16/M24 A3031 RMK SLP270

CYQB;2009-03-05 10:00;CYQB 051000Z 25005KT 15SM SKC M17/M23 A3033 RMK SLP277

CYQB;2009-03-05 11:00;CYQB 051100Z 26008KT 30SM FEW240 M17/M23 A3034 RMK CI0 SLP280

CYQB;2009-03-05 12:00;CYQB 051200Z 25016KT 30SM SKC M15/M22 A3035 RMK SLP285

CYQB;2009-03-05 13:00;CYQB 051300Z 24014KT 30SM FEW240 M15/M22 A3037 RMK CI0 SLP291

CYQB;2009-03-05 14:00;CYQB 051400Z 25012KT 30SM FEW240 M13/M20 A3038 RMK CI0 SLP293

CYQB;2009-03-05 15:00;CYQB 051500Z 25015KT 30SM FEW240 M10/M18 A3038 RMK CI0 SLP294

CYQB;2009-03-05 16:00;CYQB 051600Z 23013KT 30SM FEW240 M08/M18 A3037 RMK CI0 SLP291

CYQB;2009-03-05 17:00;CYQB 051700Z 23015KT 30SM SCT240 M07/M16 A3035 RMK CI0 SLP284

CYQB;2009-03-05 18:00;CYQB 051800Z 22019G24KT 30SM SCT240 M07/M16 A3033 RMK CI1 SLP278

CYQB;2009-03-05 19:00;CYQB 051900Z 23015G20KT 30SM BKN200 M06/M16 A3033 RMK CI2 SLP277

CYQB;2009-03-05 20:00;CYQB 052000Z 22014KT 30SM SCT160 BKN220 M06/M16 A3033 RMK AC3CC2 SLP277

CYQB;2009-03-05 21:00;CYQB 052100Z 23012KT 30SM BKN160 OVC220 M06/M16 A3033 RMK AC6CI2 SLP276

CYQB;2009-03-05 22:00;CYQB 052200Z 22005KT 30SM BKN160 OVC220 M06/M16 A3031 RMK AC7CI1 SLP272

CYQB;2009-03-05 23:00;CYQB 052300Z 25008KT 15SM OVC110 M06/M16 A3031 RMK AC8 SLP272

CYQB;2009-03-06 00:00;CYQB 060000Z 00000KT 15SM BKN086 OVC110 M06/M15 A3030 RMK AC5AC3 SLP267

CYQB;2009-03-06 01:00;CYQB 060100Z 00000KT 15SM BKN080 OVC100 M07/M15 A3029 RMK AC6AC2 SLP263

CYQB;2009-03-06 02:00;CYQB 060200Z 00000KT 15SM OVC042 M06/M15 A3029 RMK SC8 SLP263

CYQB;2009-03-06 02:48;CYQB 060248Z 36003KT 15SM -SN BKN022 OVC045 M06/ RMK SC6SC2

CYQB;2009-03-06 03:00;CYQB 060300Z 00000KT 8SM -SN FEW022 OVC045 M06/M15 A3028 RMK SC2SC6 SLP259

CYQB;2009-03-06 03:15;CYQB 060315Z 00000KT 2 1/2SM -SN BKN013 OVC033 M07/ RMK SN2SC5SC2

CYQB;2009-03-06 03:38;CYQB 060338Z 00000KT 1 1/4SM -SN VV008 M08/ RMK SN8

CYQB;2009-03-06 04:00;CYQB 060400Z 00000KT 1 1/2SM -SN VV013 M08/M12 A3027 RMK SN8 SLP256

CYQB;2009-03-06 05:00;CYQB 060500Z 04006KT 1/2SM R06/P6000FT/U SN VV007 M08/M11 A3025 RMK SN8 /S01/ SLP251

CYQB;2009-03-06 05:30;CYQB 060530Z 05005KT 3/4SM R06/P6000FT/U -SN VV009 M08/ RESN RMK SN8

CYQB;2009-03-06 06:00;CYQB 060600Z 05006KT 5/8SM R06/P6000FT/D -SN VV008 M08/M10 A3024 RESN RMK SN8 /S02/ SLP244

CYQB;2009-03-06 06:26;CYQB 060626Z 06007KT 1/2SM R06/P6000FT/D SN VV007 M08/ RMK SN8

CYQB;2009-03-06 07:00;CYQB 060700Z 05005KT 3/8SM R06/P6000FT/N SN VV005 M07/M10 A3022 RMK SN8 /S01/ SLP239

CYQB;2009-03-06 08:00;CYQB 060800Z 07006KT 3/8SM R06/P6000FT/N SN VV005 M07/M09 A3017 RMK SN8 /S02/ SLP222

CYQB;2009-03-06 08:27;CYQB 060827Z 07009KT 5/8SM R06/P6000FT/D -SN VV006 M07/ RESN RMK SN8

CYQB;2009-03-06 09:00;CYQB 060900Z CCA 07011KT 5/8SM R06/P6000FT/D -SN VV007 M07/M09 A3012 RESN RMK SN8 /S03/ SLP205

CYQB;2009-03-06 09:23;CYQB 060923Z 11009G16KT 3/8SM R06/6000FT/D SN VV004 M07/ RMK SN8

CYQB;2009-03-06 09:39;CYQB 060939Z 06012KT 3/8SM R06/6000FT/D SN VV003 M07/ RMK SN8

CYQB;2009-03-06 10:00;CYQB 061000Z 08009KT 3/8SM R06/4500FT/U SN VV004 M07/M08 A3007 RMK SN8 /S04/ SLP189

CYQB;2009-03-06 10:24;CYQB 061024Z 07010G15KT 1/4SM R06/3500V5000FT/D +SN VV002 M07/ RMK SN8

CYQB;2009-03-06 10:54;CYQB 061054Z 09010G16KT 3/8SM R06/5500FT/U SN VV006 M06/ RMK SN8

CYQB;2009-03-06 11:00;CYQB 061100Z 08010G16KT 3/8SM R06/P6000FT/N SN VV005 M06/M08 A3004 RMK SN8 /S08/ SLP177

CYQB;2009-03-06 11:30;CYQB 061130Z 07011KT 3/4SM R06/P6000FT/U -SN VV008 M06/ RMK SN8

CYQB;2009-03-06 11:42;CYQB 061142Z 07011KT 1/2SM R06/4000VP6000FT/D SN VV005 M06/ RMK SN8

CYQB;2009-03-06 12:00;CYQB 061200Z 07009KT 1SM R06/P6000FT/U -SN OVC027 M06/M07 A3002 RMK SN6SC2 /S11/ SLP169

CYQB;2009-03-06 13:00;CYQB 061300Z 08009KT 2SM -SN OVC020 M05/M07 A2999 RMK SN2SC6 /S01/ SLP159

CYQB;2009-03-06 14:00;CYQB 061400Z 07010KT 2SM -SN OVC021 M05/M06 A2996 RMK SN2SC6 /S02/ SLP151

CYQB;2009-03-06 15:00;CYQB 061500Z 08010G16KT 3SM -SN OVC019 M04/M06 A2990 RMK SC8 PRESFR /S03/ SLP130

CYQB;2009-03-06 15:23;CYQB 061523Z 07010KT 3SM -SN BR FEW005 OVC014 M04/ RMK SF2SC6

CYQB;2009-03-06 16:00;CYQB 061600Z 08011G16KT 4SM -SN BR BKN006 OVC012 M04/M05 A2987 RMK SF6SC2 SLP119

CYQB;2009-03-06 16:22;CYQB 061622Z 07010KT 4SM -SHSN BR SCT007 OVC012 M04/ RMK SF2SC6

CYQB;2009-03-06 16:54;CYQB 061654Z 07010G15KT 4SM -FZDZ BR OVC012 M03/ RMK SF8

CYQB;2009-03-06 17:00;CYQB 061700Z 07010G15KT 4SM -FZDZ BR OVC012 M03/M05 A2984 RMK SF8 SLP109

CYQB;2009-03-06 17:16;CYQB 061716Z 07008KT 3SM -FZRA BR FEW006 OVC011 M03/ RMK SF2SC6

CYQB;2009-03-06 17:39;CYQB 061739Z 07009KT 3SM -FZRA BR BKN005 OVC011 M03/ RMK SF7SC1

CYQB;2009-03-06 18:00;CYQB 061800Z 07009KT 3SM -FZRA BR BKN004 OVC011 M03/M05 A2980 RMK SF7SC1 SLP095

CYQB;2009-03-06 18:21;CYQB 061821Z 07009KT 1 1/4SM -FZRA BR FEW005 OVC010 M03/ RMK FG1SF1SC6

CYQB;2009-03-06 19:00;CYQB 061900Z 05007KT 1SM R06/P6000FT/N -FZRA BR BKN003 OVC010 M03/M04 A2975 RMK FG2SF5SC2 SLP080

CYQB;2009-03-06 19:29;CYQB 061929Z 06007KT 2SM -FZRA BR BKN003 OVC010 M02/ RMK SF6SC2

CYQB;2009-03-06 20:00;CYQB 062000Z 07005KT 1 1/2SM -FZRA BR OVC004 M02/M03 A2972 RMK FG2SF6 SLP068

CYQB;2009-03-06 21:00;CYQB 062100Z 07008KT 5/8SM R06/P6000FT/D -FZRA BR OVC002 M01/M03 A2967 RMK FG2SF6 SLP051

CYQB;2009-03-06 21:29;CYQB 062129Z 05008KT 3/4SM R06/6000FT/D -SHGR BR OVC003 M01/ RMK FG2SF6 HAIL DIAM LESS THAN 5MM

CYQB;2009-03-06 21:38;CYQB 062138Z 06007KT 1SM R06/P6000FT/U -PL -FZRA BR OVC003 M01/ RMK SF8 REGR

CYQB;2009-03-06 22:00;CYQB 062200Z 06008KT 1SM R06/P6000FT/D -PL -FZRA BR OVC003 M01/M02 A2967 RMK SF8 REGR SLP050

CYQB;2009-03-06 22:13;CYQB 062213Z 12010KT 1 1/2SM -FZRA BR BKN002 OVC021 M01/ RMK SF6SC2 REPL

CYQB;2009-03-06 23:00;CYQB 062300Z 07009KT 1 1/2SM BR OVC003 M01/M02 A2964 RMK FG2SF6 REPL REFZRA SLP041

CYQB;2009-03-06 23:46;CYQB 062346Z 09004KT 3/4SM R06/P6000FT/D -FZDZ BR OVC002 M01/ RMK FG2SF6

CYQB;2009-03-07 00:00;CYQB 070000Z 08005KT 3/4SM R06/P6000FT/U -FZDZ BR BKN002 OVC010 M01/M02 A2961 RMK FG2SF5SC2 SLP033

CYQB;2009-03-07 00:13;CYQB 070013Z 09003KT 1SM R06/P6000FT/N -FZRA -FZDZ BR OVC003 M01/ RMK FG2SF6

CYQB;2009-03-07 01:00;CYQB 070100Z 02002KT 1 1/2SM -FZRA BR BKN002 OVC008 M01/M02 A2960 RMK SF6SF2 REFZDZ SLP029

CYQB;2009-03-07 02:00;CYQB 070200Z 00000KT 2SM -FZRA BR OVC005 M00/M01 A2960 RMK SF8 SLP027

CYQB;2009-03-07 02:29;CYQB 070229Z 20004KT 2SM BR OVC004 M00/ RMK SF8 REFZRA

CYQB;2009-03-07 03:00;CYQB 070300Z 23008KT 3/4SM R06/P6000FT/D -SHRA BR OVC003 00/M01 A2960 REFZRA RMK SF8 SLP026

CYQB;2009-03-07 03:45;CYQB 070345Z 24012KT 3/4SM R06/P6000FT/N BR OVC003 01/ RMK SF8

CYQB;2009-03-07 04:00;CYQB 070400Z 24012KT 3/4SM R06/P6000FT/U BR OVC004 01/M00 A2961 RMK SF8 SLP032

CYQB;2009-03-07 04:45;CYQB 070445Z 23011KT 1 1/2SM BR OVC005 OVC029 01/ RMK SF7SC1

CYQB;2009-03-07 05:00;CYQB 070500Z 23012KT 1 1/2SM BR BKN004 OVC030 01/00 A2965 RMK SF6SC2 VIS HIER NE SLP044

CYQB;2009-03-07 05:24;CYQB 070524Z 25014KT 1 3/4SM -SHRA BR FEW004 OVC023 01/ RMK SF2SC6 VIS HIER NE

CYQB;2009-03-07 06:00;CYQB 070600Z 22008KT 4SM -SHRA BR FEW023 OVC039 01/01 A2970 RMK SC2SC6 SLP060

CYQB;2009-03-07 06:43;CYQB 070643Z 22013KT 5SM BR FEW025 BKN033 BKN082 01/ RMK SC1SC6AC1

CYQB;2009-03-07 07:00;CYQB 070700Z 23013KT 10SM BKN038 BKN082 02/01 A2972 RMK SC5AC2 SLP066

CYQB;2009-03-07 08:00;CYQB 070800Z 23007KT 10SM -SHRA OVC022 02/02 A2977 RMK SC8 SLP083

CYQB;2009-03-07 08:42;CYQB 070842Z 23011KT 12SM FEW020 BKN034 02/ RMK SC1SC6

CYQB;2009-03-07 09:00;CYQB 070900Z 23015KT 12SM FEW020 BKN043 02/02 A2981 RMK SC1SC6 SLP097

CYQB;2009-03-07 10:00;CYQB 071000Z 25013KT 15SM BKN033 02/02 A2985 RMK SC7 SLP112

CYQB;2009-03-07 11:00;CYQB 071100Z 27020G25KT 15SM BKN028 OVC040 02/01 A2988 RMK SC7SC1 SLP122

CYQB;2009-03-07 12:00;CYQB 071200Z 26017KT 30SM FEW030 BKN048 BKN080 02/M01 A2993 RMK SC1SC4AC2 SLP138

CYQB;2009-03-07 13:00;CYQB 071300Z 25014KT 30SM FEW035 BKN054 BKN080 02/M01 A2994 RMK SC1SC5AC2 SLP144

CYQB;2009-03-07 14:00;CYQB 071400Z 25014KT 30SM FEW030 BKN052 BKN080 02/M01 A2995 RMK SC1SC5AC2 SLP146

CYQB;2009-03-07 15:00;CYQB 071500Z 26016KT 30SM FEW030 BKN042 OVC080 02/M01 A3000 RMK SC1SC5AC2 SLP162

CYQB;2009-03-07 16:00;CYQB 071600Z 26009KT 30SM FEW030 BKN042 OVC080 03/M00 A3002 RMK SC1SC5AC2 SLP168

CYQB;2009-03-07 17:00;CYQB 071700Z 26012KT 30SM FEW035 BKN051 BKN080 03/00 A3000 RMK SC1SC6AC2 SLP162

CYQB;2009-03-07 18:00;CYQB 071800Z 25012G17KT 30SM FEW030 BKN050 OVC080 03/00 A2999 RMK SC2SC4AC2 SLP160

CYQB;2009-03-07 19:00;CYQB 071900Z 26013KT 30SM FEW030 BKN052 BKN080 04/00 A2998 RMK SC1SC5AC1 SLP156

CYQB;2009-03-07 20:00;CYQB 072000Z 26012G17KT 30SM FEW030 BKN045 04/M00 A2997 RMK SC2SC6 SLP153

CYQB;2009-03-07 21:00;CYQB 072100Z 26011KT 30SM FEW030 BKN047 04/M00 A2997 RMK SC1SC6 SLP151

CYQB;2009-03-07 22:00;CYQB 072200Z 23006KT 30SM OVC047 03/M01 A2998 RMK SC8 SLP157

CYQB;2009-03-07 23:00;CYQB 072300Z 23006KT 30SM OVC046 03/M01 A2998 RMK SC8 SLP157

CYQB;2009-03-08 00:00;CYQB 080000Z 25005KT 15SM BKN045 OVC130 02/M01 A2995 RMK SC5AC3 SLP145

CYQB;2009-03-08 01:00;CYQB 080100Z 25006KT 15SM FEW045 OVC110 02/M00 A2994 RMK SC2AC6 SLP143

CYQB;2009-03-08 02:00;CYQB 080200Z 25002KT 15SM FEW050 OVC100 02/M00 A2992 RMK SC1AC7 SLP136

CYQB;2009-03-08 03:00;CYQB 080300Z 09005KT 15SM BKN120 01/M01 A2987 RMK AS7 SLP119

CYQB;2009-03-08 04:00;CYQB 080400Z 11002KT 15SM OVC130 01/M01 A2985 RMK AS7 SLP110

CYQB;2009-03-08 05:00;CYQB 080500Z 00000KT 15SM OVC110 01/M01 A2982 RMK AS6 SLP102

CYQB;2009-03-08 06:00;CYQB 080600Z 34004KT 12SM OVC038 01/M01 A2981 RMK SC8 SLP099

CYQB;2009-03-08 07:00;CYQB 080700Z 07002KT 15SM OVC037 01/M01 A2979 RMK SC8 SLP092

CYQB;2009-03-08 08:00;CYQB 080800Z 00000KT 8SM -SHRA OVC037 01/M01 A2977 RMK SC8 SLP085

CYQB;2009-03-08 08:13;CYQB 080813Z 00000KT 10SM BKN037 OVC100 00/ RMK SC7AC1

CYQB;2009-03-08 09:00;CYQB 080900Z 27002KT 10SM BKN032 BKN140 00/M01 A2977 RMK SC5AC2 SLP083

CYQB;2009-03-08 10:00;CYQB 081000Z 28003KT 10SM SCT030 BKN045 BKN140 M00/M02 A2976 RMK SC3SC2AC2 SLP082

CYQB;2009-03-08 11:00;CYQB 081100Z 00000KT 10SM FEW030 BKN037 OVC140 00/M01 A2978 RMK SC2SC5AC2 SLP087

CYQB;2009-03-08 12:00;CYQB 081200Z 23007KT 25SM FEW035 BKN047 OVC140 01/M01 A2978 RMK SC2SC6AC1 SLP088

CYQB;2009-03-08 12:24;CYQB 081224Z 24008KT 8SM -SHSN BKN041 OVC140 01/ RMK SC7AC1

CYQB;2009-03-08 13:00;CYQB 081300Z 23009KT 8SM -SHSN BKN042 OVC062 01/M01 A2978 RMK SC7SC1 VIS LWR N SLP089

CYQB;2009-03-08 14:00;CYQB 081400Z 23012KT 12SM BKN030 BKN062 BKN079 02/M00 A2978 RMK SC5SC2AC1 VIS LWR N SLP089

CYQB;2009-03-08 15:00;CYQB 081500Z 23009KT 20SM BKN027 BKN078 03/01 A2980 RMK SC5AC2 SLP093

CYQB;2009-03-08 16:00;CYQB 081600Z 29016KT 25SM BKN042 04/M02 A2981 RMK SC6 SLP098

CYQB;2009-03-08 17:00;CYQB 081700Z 32017G22KT 25SM SCT040 02/M05 A2986 RMK SC4 SLP115

CYQB;2009-03-08 18:00;CYQB 081800Z 30013G19KT 30SM SCT050 02/M06 A2989 RMK SC4 SLP125

CYQB;2009-03-08 19:00;CYQB 081900Z 33010G17KT 30SM SCT050 03/M07 A2992 RMK SC3 SLP135

CYQB;2009-03-08 20:00;CYQB 082000Z 32011G20KT 30SM FEW050 02/M08 A2997 RMK SC2 SLP154

CYQB;2009-03-08 21:00;CYQB 082100Z 32010G15KT 30SM FEW050 01/M08 A2998 RMK SC1 SLP155

CYQB;2009-03-08 22:00;CYQB 082200Z 32010KT 15SM FEW050 01/M09 A3002 RMK SC1 SLP168

CYQB;2009-03-08 23:00;CYQB 082300Z 35011KT 15SM FEW030 M01/M10 A3005 RMK SC1 SLP179

CYQB;2009-03-09 00:00;CYQB 090000Z 34010KT 15SM SKC M02/M10 A3007 RMK SLP186

CYQB;2009-03-09 01:00;CYQB 090100Z 36009KT 15SM SKC M03/M11 A3006 RMK SLP184

CYQB;2009-03-09 02:00;CYQB 090200Z 01010G16KT 15SM SKC M05/M12 A3008 RMK SLP188

CYQB;2009-03-09 03:00;CYQB 090300Z 36005KT 15SM SKC M05/M13 A3008 RMK SLP190

CYQB;2009-03-09 04:00;CYQB 090400Z 35007KT 15SM SKC M06/M13 A3008 RMK SLP192

CYQB;2009-03-09 05:00;CYQB 090500Z 02005KT 15SM SKC M07/M14 A3009 RMK SLP193

CYQB;2009-03-09 06:00;CYQB 090600Z 02004KT 15SM FEW250 M07/M13 A3008 RMK CI0 SLP192

CYQB;2009-03-09 07:00;CYQB 090700Z 03003KT 15SM FEW240 M08/M13 A3010 RMK CI1 SLP197

CYQB;2009-03-09 08:00;CYQB 090800Z 02007KT 15SM OVC210 M08/M13 A3007 RMK CI6 SLP188

CYQB;2009-03-09 09:00;CYQB 090900Z 04007KT 15SM BKN220 M08/M13 A3007 RMK CI6 SLP187

CYQB;2009-03-09 10:00;CYQB 091000Z 06007KT 15SM OVC220 M07/M12 A3008 RMK CS6 SLP190

CYQB;2009-03-09 11:00;CYQB 091100Z 07010KT 30SM OVC200 M07/M12 A3010 RMK CS6 SLP198

CYQB;2009-03-09 12:00;CYQB 091200Z 07009KT 30SM OVC190 M07/M11 A3011 RMK AS7 SLP201

CYQB;2009-03-09 13:00;CYQB 091300Z 07013G19KT 30SM BKN170 OVC210 M06/M10 A3013 RMK AS5CS2 SLP206

CYQB;2009-03-09 14:00;CYQB 091400Z 07015G20KT 30SM FEW035 BKN190 OVC210 M05/M09 A3014 RMK SC1AC6CS1 SLP210

CYQB;2009-03-09 15:00;CYQB 091500Z 07018G26KT 30SM FEW020 SCT170 BKN220 M04/M09 A3013 RMK CF1AC3CI2 CUFRA SLP207

CYQB;2009-03-09 16:00;CYQB 091600Z 07018G24KT 30SM FEW020 FEW170 OVC200 M04/M09 A3014 RMK CF1AC1CS5 SLP210

CYQB;2009-03-09 17:00;CYQB 091700Z 08010G16KT 30SM FEW020 BKN160 OVC220 M04/M08 A3014 RMK CF1AS5CS1 SLP212

CYQB;2009-03-09 18:00;CYQB 091800Z 09012KT 30SM BKN140 OVC220 M03/M08 A3012 RMK AC5CI2 SLP204

CYQB;2009-03-09 19:00;CYQB 091900Z 06013G19KT 20SM BKN140 M02/M07 A3011 RMK AC7 SLP203

CYQB;2009-03-09 20:00;CYQB 092000Z 07012G20KT 30SM BKN150 BKN200 M02/M08 A3012 RMK AC6CI1 SLP205

CYQB;2009-03-09 21:00;CYQB 092100Z 11009KT 30SM SCT150 OVC200 M03/M08 A3014 RMK AC3CI4 SLP213

CYQB;2009-03-09 22:00;CYQB 092200Z 08006KT 30SM FEW140 BKN200 M03/M07 A3017 RMK AC2CI3 CC ASOCTD SLP220

CYQB;2009-03-09 23:00;CYQB 092300Z 07007KT 20SM BKN130 M03/M08 A3021 RMK AC6 SLP236

CYQB;2009-03-10 00:00;CYQB 100000Z 09007KT 15SM FEW200 M04/M08 A3022 RMK CI2 SLP240

CYQB;2009-03-10 01:00;CYQB 100100Z 07005KT 15SM FEW200 M04/M08 A3025 RMK CI1 SLP248

CYQB;2009-03-10 02:00;CYQB 100200Z 01003KT 15SM SKC M05/M08 A3028 RMK SLP257

CYQB;2009-03-10 03:00;CYQB 100300Z 04003KT 15SM SKC M06/M09 A3030 RMK SLP264

CYQB;2009-03-10 04:00;CYQB 100400Z 00000KT 15SM SKC M09/M11 A3030 RMK SLP265

CYQB;2009-03-10 05:00;CYQB 100500Z 33004KT 15SM SKC M08/M10 A3032 RMK SLP271

CYQB;2009-03-10 06:00;CYQB 100600Z 01003KT 15SM SKC M08/M11 A3032 RMK SLP273

CYQB;2009-03-10 07:00;CYQB 100700Z 01004KT 15SM SKC M08/M10 A3031 RMK SLP269

CYQB;2009-03-10 08:00;CYQB 100800Z 03005KT 15SM SKC M08/M11 A3030 RMK SLP267

CYQB;2009-03-10 09:00;CYQB 100900Z 04004KT 15SM SKC M09/M11 A3032 RMK SLP271

CYQB;2009-03-10 10:00;CYQB 101000Z 32003KT 15SM SKC M11/M14 A3035 RMK SLP282

CYQB;2009-03-10 11:00;CYQB 101100Z 28002KT 20SM SKC M12/M15 A3037 RMK SLP288

CYQB;2009-03-10 11:55;CYQB 101155Z 34002KT 3/4SM R06/P6000FT/N BR FEW200 M11/ RMK CI1 VIS NW-NE 15

CYQB;2009-03-10 12:00;CYQB 101200Z 00000KT 15SM FEW002 FEW008 FEW200 M11/M13 A3037 RMK SF1SF1CI0 VIS NW AND S 1 SLP290

CYQB;2009-03-10 12:21;CYQB 101221Z 00000KT 1/2SM R06/4000VP6000FT/D FZFG FEW002 FEW200 M09/ RMK FG2SF1CI0

CYQB;2009-03-10 13:00;CYQB 101300Z 22002KT 1/2SM R06/0900FT/N FZFG FEW002 FEW240 M09/M10 A3036 RMK SF1CI0 VIS NW-E 10 SLP288

CYQB;2009-03-10 13:17;CYQB 101317Z 00000KT 5SM R06/1100FT/N BR FEW240 M08/ RMK CI1 VIS SW LWR

CYQB;2009-03-10 14:00;CYQB 101400Z 27002KT 10SM SCT240 M07/M07 A3037 RMK CI1 VIS SW LWR SLP289

CYQB;2009-03-10 15:00;CYQB 101500Z 27005KT 15SM FEW170 BKN240 M04/M06 A3038 RMK AC1CI1 SLP292

CYQB;2009-03-10 16:00;CYQB 101600Z 18002KT 15SM FEW160 BKN220 M02/M06 A3036 RMK AC2CI1 SLP286

CYQB;2009-03-10 17:00;CYQB 101700Z 25005KT 15SM FEW180 OVC220 00/M06 A3036 RMK AC1CI2 SLP285

CYQB;2009-03-10 18:00;CYQB 101800Z 24006KT 15SM FEW180 BKN220 01/M07 A3033 RMK AC1CI2 SLP277

CYQB;2009-03-10 19:00;CYQB 101900Z 24005KT 15SM FEW180 BKN220 02/M06 A3030 RMK AC1CI1 SLP266

CYQB;2009-03-10 20:00;CYQB 102000Z 25006KT 30SM SCT160 BKN210 03/M06 A3029 RMK AC3CI2 SLP261

CYQB;2009-03-10 21:00;CYQB 102100Z 18003KT 30SM SCT160 OVC220 02/M06 A3027 RMK AC3CI4 SLP255

CYQB;2009-03-10 22:00;CYQB 102200Z 16002KT 30SM BKN150 OVC200 02/M05 A3026 RMK AC6CI2 SLP252

CYQB;2009-03-10 23:00;CYQB 102300Z 29003KT 30SM FEW120 OVC150 01/M05 A3025 RMK AC1AC7 SLP250

CYQB;2009-03-11 00:00;CYQB 110000Z 01002KT 15SM OVC120 01/M04 A3025 RMK AC8 SLP248

CYQB;2009-03-11 01:00;CYQB 110100Z 01002KT 15SM FEW100 OVC130 01/M06 A3023 RMK AC1AC6 SLP241

CYQB;2009-03-11 02:00;CYQB 110200Z 03004KT 15SM OVC160 00/M06 A3020 RMK AC7 SLP232

CYQB;2009-03-11 03:00;CYQB 110300Z 03005KT 15SM BKN130 M00/M06 A3017 RMK AC5 SLP222

CYQB;2009-03-11 04:00;CYQB 110400Z 05004KT 15SM OVC086 M00/M05 A3016 RMK AC7 SLP217

CYQB;2009-03-11 05:00;CYQB 110500Z 06004KT 15SM OVC084 M00/M05 A3014 RMK AC8 SLP210

CYQB;2009-03-11 06:00;CYQB 110600Z 07011KT 15SM SCT030 OVC080 M00/M05 A3011 RMK SC3AC5 VCSH SLP198

CYQB;2009-03-11 07:00;CYQB 110700Z 09008KT 15SM OVC030 M00/M05 A3007 RMK SC8 SLP187

CYQB;2009-03-11 07:12;CYQB 110712Z 10005KT 6SM -SHSN OVC028 M00/ RMK SC8

CYQB;2009-03-11 07:24;CYQB 110724Z 11004KT 2SM -SHSN OVC023 M01/ RMK SC8

CYQB;2009-03-11 08:00;CYQB 110800Z 07006KT 2SM -SHSN OVC015 M01/M04 A3004 RMK SC8 CIG VRB 13-17 SLP177

CYQB;2009-03-11 08:05;CYQB 110805Z 05006KT 1/2SM R06/P6000FT/D SHSN OVC011 M01/ RMK SC8 CIG VRB 9-13

CYQB;2009-03-11 09:00;CYQB 110900Z 07009KT 1/2SM R06/P6000FT/U SHSN OVC007 M01/M03 A3000 RMK SF8 CIG VRB 5-9 SLP162

CYQB;2009-03-11 09:23;CYQB 110923Z 07009KT 1 1/2SM -PLSN OVC010 M01/ RMK SC8 CIG VRB 8-12

CYQB;2009-03-11 10:00;CYQB 111000Z CCA 09009KT 4SM -SN BKN004 BKN010 OVC032 M01/M03 A2995 RMK SF5SC2SC2 REPL PRESFR SLP147

CYQB;2009-03-11 10:31;CYQB 111031Z 07010KT 4SM BR BKN003 OVC010 M01/ RMK SF6SC2 PRESFR

CYQB;2009-03-11 11:00;CYQB 111100Z 07009KT 4SM BR BKN003 OVC029 M01/M03 A2992 RMK SF5SC3 SLP135

CYQB;2009-03-11 11:23;CYQB 111123Z 07008KT 2 1/2SM BR SCT003 OVC029 M01/ RMK SF4SC4

CYQB;2009-03-11 12:00;CYQB 111200Z 07011KT 2 1/2SM -PL -FZRA BR SCT003 OVC028 M01/M02 A2987 RMK SF3SC5 PRESFR SLP118

CYQB;2009-03-11 13:00;CYQB 111300Z 08006KT 2 1/2SM -PL -FZRA BR OVC024 M00/M02 A2984 RMK FG2SC6 SLP109

CYQB;2009-03-11 13:45;CYQB 111345Z 07008KT 1 1/2SM -PL -FZRA BR OVC025 M00/ RMK FG2SC6

CYQB;2009-03-11 14:00;CYQB 111400Z 07009KT 1 1/2SM -PL -FZRA BR OVC026 M00/M01 A2979 RMK FG3SC5 PRESFR SLP092

CYQB;2009-03-11 14:12;CYQB 111412Z 07008KT 1 1/2SM -RAPL BR OVC025 00/ RMK FG3SC5 REFZRA PRESFR

CYQB;2009-03-11 15:00;CYQB 111500Z 07008KT 5SM -RA BR FEW009 OVC027 00/M01 A2973 RMK SF2SC6 REFZRA REPL PRESFR SLP070

CYQB;2009-03-11 16:00;CYQB 111600Z 07006KT 2 1/2SM -RA BR OVC013 01/00 A2967 RMK FG2SC6 SLP052

CYQB;2009-03-11 16:50;CYQB 111650Z 05005KT 1 1/4SM R06/4000FT/N -RA BR BKN009 OVC013 01/ RMK FG2SF6SC1

CYQB;2009-03-11 17:00;CYQB 111700Z 06005KT 1SM R06/4000FT/N -RA BR FEW004 BKN007 OVC012 01/00 A2962 RMK FG2SF1SF5SC1 SLP033

CYQB;2009-03-11 18:00;CYQB 111800Z 06006KT 1SM R06/2800VP6000FT/D -RA BR OVC005 02/01 A2955 RMK FG2SF6 PRESFR CIG RAG SLP010

CYQB;2009-03-11 18:32;CYQB 111832Z 05003KT 2SM R06/2800VP6000FT/N BR FEW005 OVC015 02/ RMK SF2SC6 VIS LWR E

CYQB;2009-03-11 19:00;CYQB 111900Z 35003KT 3SM R06/3000FT/N BR FEW004 BKN015 OVC026 02/02 A2952 RMK SF2SC5SC1 VIS LWR NE SLP001

CYQB;2009-03-11 19:36;CYQB 111936Z 22013G19KT 10SM VCSH SCT015 BKN032 BKN050 06/ RMK SC4SC2SC1

CYQB;2009-03-11 20:00;CYQB 112000Z 21019G33KT 10SM -SHRA SCT015 BKN046 07/05 A2949 RMK SC4SC3 SLP991

CYQB;2009-03-11 21:00;CYQB 112100Z 23028G36KT 10SM SCT020 BKN058 07/02 A2950 RMK SC3SC3 SLP994

CYQB;2009-03-11 22:00;CYQB 112200Z 24034G42KT 15SM FEW020 BKN069 06/M02 A2953 RMK SC2AC6 SLP001

CYQB;2009-03-11 23:00;CYQB 112300Z 24032G39KT 15SM FEW055 BKN078 04/M04 A2955 RMK SC2AC6 SLP010

CYQB;2009-03-12 00:00;CYQB 120000Z 25031G40KT 15SM OVC049 04/M04 A2958 RMK SC8 SLP021

CYQB;2009-03-12 01:00;CYQB 120100Z 24036G44KT 15SM SCT048 OVC072 03/M04 A2960 RMK SC4AC4 SLP028

CYQB;2009-03-12 01:25;CYQB 120125Z 26027G38KT 2SM -SHSN OVC049 02/ RMK SN1SC7

CYQB;2009-03-12 01:42;CYQB 120142Z 26033G46KT 1 1/2SM -SHSN BLSN OVC028 M00/ RMK BLSN2SC6

CYQB;2009-03-12 02:00;CYQB 120200Z CCA 26029G42KT 8SM -SHSN OVC035 M01/M04 A2967 REBLSN RMK SC8 PRESRR SLP050

CYQB;2009-03-12 02:31;CYQB 120231Z 28030G39KT 15SM BKN050 BKN080 M01/ RMK SC6AC2

CYQB;2009-03-12 03:00;CYQB 120300Z 27030G40KT 15SM OVC047 M01/M08 A2975 RMK SC8 PRESRR SLP078

CYQB;2009-03-12 04:00;CYQB 120400Z 28029G43KT 15SM OVC030 M04/M11 A2984 RMK SC8 PRESRR SLP110

CYQB;2009-03-12 05:00;CYQB 120500Z 29024G32KT 15SM BKN040 M06/M14 A2992 RMK SC5 PRESRR SLP137

CYQB;2009-03-12 06:00;CYQB 120600Z 28023G33KT 15SM FEW040 M10/M18 A3005 RMK SC2 PRESRR SLP180

CYQB;2009-03-12 07:00;CYQB 120700Z 30018G28KT 15SM SKC M12/M21 A3013 RMK PRESRR SLP208

CYQB;2009-03-12 08:00;CYQB 120800Z 28010G17KT 15SM FEW040 M13/M21 A3017 RMK SC1 SLP219

CYQB;2009-03-12 09:00;CYQB 120900Z 27017G22KT 15SM FEW030 M14/M20 A3020 RMK SC1 SLP231

CYQB;2009-03-12 10:00;CYQB 121000Z 27015G25KT 15SM FEW035 M14/M21 A3023 RMK SC1 SLP242

CYQB;2009-03-12 11:00;CYQB 121100Z 27017G24KT 30SM FEW030 M15/M22 A3026 RMK SC1 SLP253

CYQB;2009-03-12 12:00;CYQB 121200Z 27018KT 30SM FEW030 M15/M21 A3029 RMK SC1 SLP263

CYQB;2009-03-12 13:00;CYQB 121300Z 28018G24KT 30SM FEW030 M14/M25 A3031 RMK SC2 SLP270

CYQB;2009-03-12 14:00;CYQB 121400Z 28019G26KT 30SM FEW030 M13/M22 A3033 RMK SC1 SLP276

CYQB;2009-03-12 15:00;CYQB 121500Z 26020G25KT 30SM FEW030 M13/M21 A3033 RMK SC1 SLP277

CYQB;2009-03-12 16:00;CYQB 121600Z 27014G29KT 30SM FEW030 M12/M20 A3034 RMK SC1 SLP279

CYQB;2009-03-12 17:00;CYQB 121700Z 27018G29KT 30SM FEW030 M11/M20 A3035 RMK SC1 SLP283

CYQB;2009-03-12 18:00;CYQB 121800Z 26017G22KT 30SM FEW030 M10/M19 A3034 RMK SC1 SLP280

CYQB;2009-03-12 19:00;CYQB 121900Z 26020G26KT 30SM FEW030 M09/M20 A3033 RMK SC1 SLP277

CYQB;2009-03-12 20:00;CYQB 122000Z 29017G25KT 30SM FEW030 SCT210 M09/M19 A3034 RMK SC2CI1 SLP281

CYQB;2009-03-12 21:00;CYQB 122100Z CCA 29021G26KT 30SM FEW060 SCT210 M10/M20 A3036 RMK SC1CI1 SLP287

CYQB;2009-03-12 22:00;CYQB 122200Z 30017G22KT 30SM FEW060 M10/M21 A3038 RMK SC1 SLP294

CYQB;2009-03-12 23:00;CYQB 122300Z 29009KT 30SM SKC M11/M22 A3040 RMK SLP302

CYQB;2009-03-13 00:00;CYQB 130000Z 29011G18KT 25SM SKC M12/M23 A3042 RMK SLP309

CYQB;2009-03-13 01:00;CYQB 130100Z 29012KT 15SM SKC M12/M23 A3044 RMK SLP313

CYQB;2009-03-13 02:00;CYQB 130200Z 29010KT 15SM SKC M13/M23 A3045 RMK SLP319

CYQB;2009-03-13 03:00;CYQB 130300Z 28009KT 15SM SKC M14/M23 A3046 RMK SLP321

CYQB;2009-03-13 04:00;CYQB 130400Z 26008KT 15SM SKC M14/M24 A3047 RMK SLP323

CYQB;2009-03-13 05:00;CYQB 130500Z 25006KT 15SM SKC M16/M25 A3047 RMK SLP324

CYQB;2009-03-13 06:00;CYQB 130600Z 26007KT 15SM SKC M16/M25 A3047 RMK SLP326

CYQB;2009-03-13 07:00;CYQB 130700Z 26009KT 15SM SKC M17/M26 A3048 RMK SLP327

CYQB;2009-03-13 08:00;CYQB 130800Z 26006KT 15SM FEW210 M17/M25 A3047 RMK CI1 SLP326

CYQB;2009-03-13 09:00;CYQB 130900Z 27007KT 15SM FEW210 M19/M26 A3048 RMK CI1 SLP328

CYQB;2009-03-13 10:00;CYQB 131000Z 25009KT 15SM SKC M17/M25 A3049 RMK SLP331

CYQB;2009-03-13 11:00;CYQB 131100Z 25008KT 30SM SKC M18/M26 A3049 RMK SLP332

CYQB;2009-03-13 12:00;CYQB 131200Z 24005KT 30SM SKC M16/M25 A3049 RMK SLP333

CYQB;2009-03-13 13:00;CYQB 131300Z 00000KT 30SM SKC M15/M23 A3050 RMK SLP334

CYQB;2009-03-13 14:00;CYQB 131400Z 25006KT 30SM SKC M13/M22 A3048 RMK SLP330

CYQB;2009-03-13 15:00;CYQB 131500Z 24015KT 30SM FEW040 M11/M19 A3046 RMK CF1 SLP322

CYQB;2009-03-13 16:00;CYQB 131600Z 25012G18KT 30SM FEW040 M09/M17 A3043 RMK CF1 SLP312

CYQB;2009-03-13 17:00;CYQB 131700Z 25020KT 30SM FEW040 M07/M16 A3041 RMK CF1 SLP303

CYQB;2009-03-13 18:00;CYQB 131800Z 25020G28KT 30SM FEW050 FEW230 M07/M16 A3037 RMK SC1CI0 SLP291

CYQB;2009-03-13 19:00;CYQB 131900Z 26023G29KT 30SM FEW055 FEW230 M06/M15 A3035 RMK SC1CI1 SLP285

CYQB;2009-03-13 20:00;CYQB 132000Z 25016G24KT 30SM FEW050 BKN250 M06/M15 A3033 RMK SC1CI1 SLP278

CYQB;2009-03-13 21:00;CYQB 132100Z 25015G20KT 30SM BKN250 M05/M15 A3031 RMK CI2 SLP270

CYQB;2009-03-13 22:00;CYQB 132200Z 25014KT 30SM SCT250 M06/M15 A3029 RMK CI1 SLP263

CYQB;2009-03-13 23:00;CYQB 132300Z 25008KT 30SM BKN230 M07/M15 A3027 RMK CS1 SLP257

CYQB;2009-03-14 00:00;CYQB 140000Z 26002KT 15SM BKN200 M08/M15 A3027 RMK CS2 SLP256

CYQB;2009-03-14 01:00;CYQB 140100Z 27005KT 15SM SCT210 M08/M15 A3025 RMK CS1 SLP252

CYQB;2009-03-14 02:00;CYQB 140200Z 25008KT 15SM SCT190 M09/M15 A3024 RMK CS1 SLP248

CYQB;2009-03-14 03:00;CYQB 140300Z 25007KT 15SM SCT180 M09/M15 A3023 RMK CS4 SLP243

CYQB;2009-03-14 04:00;CYQB 140400Z 27003KT 15SM FEW120 M10/M15 A3022 RMK AC2 SLP239

CYQB;2009-03-14 05:00;CYQB 140500Z 00000KT 15SM SKC M11/M16 A3020 RMK SLP232

CYQB;2009-03-14 06:00;CYQB 140600Z 00000KT 15SM FEW070 M12/M17 A3019 RMK SC0 SLP229

CYQB;2009-03-14 07:00;CYQB 140700Z 00000KT 15SM FEW060 SCT090 M13/M17 A3018 RMK SC1AS3 SLP225

CYQB;2009-03-14 08:00;CYQB 140800Z 25006KT 15SM BKN085 M10/M15 A3016 RMK AS6 SLP219

CYQB;2009-03-14 09:00;CYQB 140900Z 24003KT 15SM BKN075 M09/M14 A3014 RMK AS6 SLP212

CYQB;2009-03-14 10:00;CYQB 141000Z 27003KT 15SM FEW075 SCT110 M10/M15 A3015 RMK AC1AS0 SLP214

CYQB;2009-03-14 11:00;CYQB 141100Z 00000KT 30SM FEW120 M11/M15 A3014 RMK AC1 SLP213

CYQB;2009-03-14 12:00;CYQB 141200Z 26009KT 30SM FEW030 FEW120 M10/M15 A3015 RMK SC1AC1 SLP215

CYQB;2009-03-14 13:00;CYQB 141300Z 26012KT 30SM FEW030 FEW120 M07/M11 A3015 RMK SC1AC1 SLP215

CYQB;2009-03-14 14:00;CYQB 141400Z 25013KT 30SM FEW030 M05/M10 A3014 RMK CF1 SLP212

CYQB;2009-03-14 15:00;CYQB 141500Z 23016KT 30SM FEW030 FEW120 M04/M08 A3013 RMK CF1AC1 SLP208

CYQB;2009-03-14 16:00;CYQB 141600Z 24017KT 30SM FEW035 FEW210 M02/M07 A3012 RMK CF1CI1 SLP204

CYQB;2009-03-14 17:00;CYQB 141700Z 25015KT 30SM FEW030 BKN210 M01/M07 A3011 RMK CU1CS1 SLP201

CYQB;2009-03-14 18:00;CYQB 141800Z 24017KT 30SM FEW035 FEW080 BKN200 00/M06 A3008 RMK CU1AC1CS1 SLP192

CYQB;2009-03-14 19:00;CYQB 141900Z 26017G25KT 30SM FEW035 SCT140 BKN200 01/M06 A3008 RMK CU1AC2CI2 SLP190

CYQB;2009-03-14 20:00;CYQB 142000Z 25016G22KT 15SM FEW035 BKN058 BKN200 01/M06 A3006 RMK CU1SC5CI1 CU TR SLP186

CYQB;2009-03-14 21:00;CYQB 142100Z 25016G21KT 30SM FEW030 FEW050 BKN230 02/M06 A3006 RMK CU1SC1CI2 SLP182

CYQB;2009-03-14 22:00;CYQB 142200Z 24011G18KT 30SM FEW055 BKN210 02/M06 A3005 RMK SC2CI2 SLP181

CYQB;2009-03-14 23:00;CYQB 142300Z 24010G15KT 30SM BKN085 BKN210 01/M06 A3007 RMK AC5CI2 SLP186

CYQB;2009-03-15 00:00;CYQB 150000Z 21004KT 15SM SCT080 BKN220 M00/M06 A3007 RMK AC3CI3 SLP187

CYQB;2009-03-15 01:00;CYQB 150100Z 23006KT 15SM FEW080 FEW170 SCT210 M00/M06 A3008 RMK AC1AC1CI2 SLP189

CYQB;2009-03-15 02:00;CYQB 150200Z 21004KT 15SM BKN080 M00/M06 A3008 RMK AC7 SLP189

CYQB;2009-03-15 03:00;CYQB 150300Z 22005KT 15SM BKN077 00/M06 A3007 RMK AC6 SLP188

CYQB;2009-03-15 04:00;CYQB 150400Z 19005KT 15SM BKN077 M00/M06 A3006 RMK AC6 SLP185

CYQB;2009-03-15 05:00;CYQB 150500Z 23006KT 15SM OVC072 00/M05 A3006 RMK AC8 SLP184

CYQB;2009-03-15 06:00;CYQB 150600Z 23005KT 15SM BKN063 00/M05 A3006 RMK SC6 SLP184

CYQB;2009-03-15 07:00;CYQB 150700Z 23004KT 15SM BKN065 BKN110 M01/M06 A3007 RMK SC4AC1 SLP185

CYQB;2009-03-15 08:00;CYQB 150800Z 24008KT 15SM FEW070 BKN110 M00/M06 A3007 RMK AC2AC5 SLP187

CYQB;2009-03-15 09:00;CYQB 150900Z 27007KT 15SM OVC100 M00/M05 A3008 RMK AC8 SLP191

CYQB;2009-03-15 10:00;CYQB 151000Z 25008KT 15SM OVC100 M01/M05 A3010 RMK AC7 SLP195

CYQB;2009-03-15 11:00;CYQB 151100Z 24005KT 15SM BKN060 OVC120 M01/M04 A3011 RMK SC6AC2 SLP200

CYQB;2009-03-15 12:00;CYQB 151200Z 07009KT 15SM BKN065 OVC120 M02/M06 A3014 RMK SC6AC2 SLP212

CYQB;2009-03-15 13:00;CYQB 151300Z 09009KT 15SM BKN019 BKN040 OVC065 M03/M06 A3017 RMK SC5SC2SC2 SLP220

CYQB;2009-03-15 13:51;CYQB 151351Z 08007KT 15SM BKN011 OVC016 M03/ RMK SC5SC3

CYQB;2009-03-15 14:00;CYQB 151400Z 07007KT 15SM -SHSN BKN011 OVC015 M03/M06 A3019 RMK SC5SC3 SLP226

CYQB;2009-03-15 14:42;CYQB 151442Z 09007KT 20SM SCT010 OVC016 M03/ RMK SC3SC5

CYQB;2009-03-15 15:00;CYQB 151500Z 09010KT 20SM FEW010 OVC015 M03/M06 A3020 RMK SC2SC6 SLP231

CYQB;2009-03-15 16:00;CYQB 151600Z 07010KT 20SM FEW015 BKN110 OVC230 M03/M06 A3021 RMK SC2AS4CI1 SLP233

CYQB;2009-03-15 17:00;CYQB 151700Z 09009KT 20SM FEW015 BKN040 BKN090 M03/M07 A3021 RMK SC1SC5AC2 SLP235

CYQB;2009-03-15 18:00;CYQB 151800Z 09007KT 20SM SCT040 BKN090 M02/M06 A3021 RMK SC4AC2 VIS LWR NE DIST SH NE SLP234

CYQB;2009-03-15 19:00;CYQB 151900Z 08009KT 20SM BKN040 BKN090 OVC230 M02/M06 A3021 RMK SC5AC1CI1 VIS LWR NE DIST SH NE SLP235

CYQB;2009-03-15 19:40;CYQB 151940Z 09010KT 6SM -SN BKN040 OVC090 M02/ RMK SC6AC2 VIS LWR N

CYQB;2009-03-15 20:00;CYQB 152000Z 10009KT 6SM -SN BKN040 OVC090 M03/M06 A3023 RMK SC6AC2 VIS LWR N SLP240

CYQB;2009-03-15 21:00;CYQB 152100Z 09008KT 6SM -SN BKN050 OVC090 M03/M07 A3024 RMK SC6AC2 SLP244

CYQB;2009-03-15 22:00;CYQB 152200Z 07008KT 6SM -SN BKN051 OVC090 M04/M07 A3027 RMK SC6AC2 SLP253

CYQB;2009-03-15 23:00;CYQB 152300Z 08007KT 15SM FEW020 OVC068 M04/M07 A3029 RMK SC1SC8 SLP262

CYQB;2009-03-16 00:00;CYQB 160000Z 07006KT 15SM OVC067 M04/M07 A3032 RMK SC8 SLP271

CYQB;2009-03-16 01:00;CYQB 160100Z 07009KT 15SM OVC070 M04/M08 A3035 RMK AC8 SLP281

CYQB;2009-03-16 02:00;CYQB 160200Z 07010G17KT 15SM OVC074 M04/M08 A3036 RMK AC8 SLP287

CYQB;2009-03-16 03:00;CYQB 160300Z 07007KT 15SM BKN074 M05/M08 A3039 RMK AC6 SLP294

CYQB;2009-03-16 04:00;CYQB 160400Z 08008KT 15SM BKN069 M05/M09 A3040 RMK AC6 SLP299

CYQB;2009-03-16 05:00;CYQB 160500Z 06007KT 15SM BKN067 M06/M13 A3041 RMK AC7 SLP304

CYQB;2009-03-16 06:00;CYQB 160600Z 07007KT 15SM SCT065 M07/M14 A3043 RMK SC2 SLP311

CYQB;2009-03-16 07:00;CYQB 160700Z 06005KT 15SM FEW065 M08/M15 A3044 RMK SC1 SLP314

CYQB;2009-03-16 08:00;CYQB 160800Z 07009KT 15SM SKC M09/M16 A3045 RMK SLP316

CYQB;2009-03-16 09:00;CYQB 160900Z 04008KT 15SM SKC M09/M17 A3045 RMK SLP318

CYQB;2009-03-16 10:00;CYQB 161000Z 03003KT 15SM SKC M11/M17 A3047 RMK SLP324

CYQB;2009-03-16 11:00;CYQB 161100Z 02005KT 30SM FEW120 M12/M18 A3048 RMK AC1 SLP328

CYQB;2009-03-16 12:00;CYQB 161200Z 02007KT 30SM SKC M12/M18 A3050 RMK SLP334

CYQB;2009-03-16 13:00;CYQB 161300Z 03004KT 30SM SKC M10/M16 A3051 RMK SLP338

CYQB;2009-03-16 14:00;CYQB 161400Z 09006KT 30SM SKC M07/M15 A3052 RMK SLP341

CYQB;2009-03-16 15:00;CYQB 161500Z 10007KT 30SM SKC M07/M14 A3051 RMK SLP338

CYQB;2009-03-16 16:00;CYQB 161600Z 09004KT 30SM SKC M05/M13 A3050 RMK SLP335

CYQB;2009-03-16 17:00;CYQB 161700Z 09005KT 30SM SKC M05/M13 A3050 RMK SLP332

CYQB;2009-03-16 18:00;CYQB 161800Z 13004KT 30SM SKC M04/M13 A3047 RMK SLP324

CYQB;2009-03-16 19:00;CYQB 161900Z 06006KT 30SM SKC M03/M12 A3044 RMK SLP314

CYQB;2009-03-16 20:00;CYQB 162000Z 06005KT 30SM SKC M02/M14 A3042 RMK SLP308

CYQB;2009-03-16 21:00;CYQB 162100Z 11004KT 30SM FEW220 M02/M14 A3041 RMK CI1 SLP303

CYQB;2009-03-16 22:00;CYQB 162200Z 06003KT 30SM FEW220 M02/M14 A3040 RMK CI1 CI TR SLP299

CYQB;2009-03-16 23:00;CYQB 162300Z 08004KT 30SM FEW220 M03/M12 A3039 RMK CI1 SLP298

CYQB;2009-03-17 00:00;CYQB 170000Z 07006KT 15SM SKC M04/M11 A3039 RMK SLP295

CYQB;2009-03-17 01:00;CYQB 170100Z 05004KT 15SM SKC M05/M11 A3038 RMK SLP293

CYQB;2009-03-17 02:00;CYQB 170200Z 04004KT 15SM SKC M06/M12 A3037 RMK SLP291

CYQB;2009-03-17 03:00;CYQB 170300Z 03003KT 15SM SKC M06/M11 A3037 RMK SLP289

CYQB;2009-03-17 04:00;CYQB 170400Z 04003KT 15SM SKC M07/M12 A3036 RMK SLP287

CYQB;2009-03-17 05:00;CYQB 170500Z 03005KT 15SM SKC M07/M12 A3034 RMK SLP280

CYQB;2009-03-17 06:00;CYQB 170600Z 04004KT 15SM SKC M08/M12 A3033 RMK SLP277

CYQB;2009-03-17 07:00;CYQB 170700Z 06003KT 15SM FEW210 M07/M13 A3033 RMK CI1 SLP275

CYQB;2009-03-17 08:00;CYQB 170800Z 03004KT 15SM SCT210 M08/M14 A3031 RMK CI1 SLP270

CYQB;2009-03-17 09:00;CYQB 170900Z 03004KT 15SM FEW210 M08/M14 A3031 RMK CI0 SLP268

CYQB;2009-03-17 10:00;CYQB 171000Z 04003KT 15SM FEW210 M08/M14 A3031 RMK CI1 SLP268

CYQB;2009-03-17 11:00;CYQB 171100Z 04004KT 30SM FEW120 FEW210 M08/M14 A3030 RMK AC1CI0 SLP267

CYQB;2009-03-17 12:00;CYQB 171200Z 02004KT 30SM FEW210 M07/M13 A3030 RMK CI0 SLP267

CYQB;2009-03-17 13:00;CYQB 171300Z 03005KT 30SM SCT210 M05/M12 A3029 RMK CI1 SLP263

CYQB;2009-03-17 14:00;CYQB 171400Z 02002KT 30SM BKN180 M03/M10 A3030 RMK CI2 SLP264

CYQB;2009-03-17 15:00;CYQB 171500Z 13004KT 30SM SCT180 M01/M10 A3027 RMK CI1 SLP256

CYQB;2009-03-17 16:00;CYQB 171600Z 13005KT 30SM FEW150 FEW200 01/M10 A3025 RMK AC1CI0 SLP249

CYQB;2009-03-17 17:00;CYQB 171700Z 00000KT 30SM FEW170 BKN250 04/M10 A3025 RMK AC1CI1 SLP247

CYQB;2009-03-17 18:00;CYQB 171800Z 00000KT 30SM FEW150 FEW250 04/M08 A3022 RMK AC1CI1 SLP237

CYQB;2009-03-17 19:00;CYQB 171900Z 19002KT 30SM FEW150 FEW250 05/M08 A3019 RMK AC1CI1 SLP226

CYQB;2009-03-17 20:00;CYQB 172000Z 27002KT 30SM FEW150 FEW250 06/M07 A3017 RMK AC1CI1 SLP219

CYQB;2009-03-17 21:00;CYQB 172100Z 23003KT 30SM FEW250 07/M05 A3013 RMK CI1 SLP208

CYQB;2009-03-17 22:00;CYQB 172200Z CCA 18003KT 30SM FEW200 05/M06 A3012 RMK CI1 SLP203

CYQB;2009-03-17 23:00;CYQB 172300Z 10002KT 30SM SKC 03/M06 A3012 RMK SLP205

CYQB;2009-03-18 00:00;CYQB 180000Z 00000KT 15SM SKC 01/M07 A3012 RMK SLP203

CYQB;2009-03-18 01:00;CYQB 180100Z 29002KT 15SM SKC M00/M06 A3012 RMK SLP203

CYQB;2009-03-18 02:00;CYQB 180200Z 00000KT 15SM SKC 00/M05 A3011 RMK SLP199

CYQB;2009-03-18 03:00;CYQB 180300Z 03002KT 15SM SKC M01/M07 A3007 RMK SLP187

CYQB;2009-03-18 04:00;CYQB 180400Z 35002KT 15SM SKC M02/M06 A3005 RMK SLP181

CYQB;2009-03-18 05:00;CYQB 180500Z 00000KT 15SM SKC M03/M07 A3003 RMK SLP174

CYQB;2009-03-18 06:00;CYQB 180600Z 00000KT 15SM FEW240 M03/M06 A3001 RMK CI1 SLP167

CYQB;2009-03-18 07:00;CYQB 180700Z 00000KT 15SM BKN240 M03/M06 A2998 RMK CI2 SLP155

CYQB;2009-03-18 08:00;CYQB 180800Z 02002KT 15SM BKN220 M03/M06 A2994 RMK CI6 SLP144

CYQB;2009-03-18 09:00;CYQB 180900Z 04002KT 15SM OVC220 M02/M06 A2992 RMK CI7 SLP133

CYQB;2009-03-18 10:00;CYQB 181000Z 10002KT 15SM FEW060 BKN120 OVC220 M02/M06 A2988 RMK SC2AC2CI2 SLP121

CYQB;2009-03-18 10:20;CYQB 181020Z 03003KT 15SM -FZRA OVC060 M01/ RMK SC8

CYQB;2009-03-18 10:29;CYQB 181029Z 03004KT 15SM -SHRA OVC063 00/ RMK SC8

CYQB;2009-03-18 11:00;CYQB 181100Z 02005KT 15SM -SHRA OVC064 00/M03 A2986 RMK SC8 SLP115

CYQB;2009-03-18 12:00;CYQB 181200Z 02005KT 10SM OVC065 01/M02 A2984 RMK SC8 SLP107

CYQB;2009-03-18 12:54;CYQB 181254Z 34008KT 10SM -SHRA OVC062 03/ RMK SC8

CYQB;2009-03-18 13:00;CYQB 181300Z 35007KT 10SM -SHRA FEW042 OVC062 04/00 A2985 RMK SC1SC7 SLP110

CYQB;2009-03-18 13:30;CYQB 181330Z 00000KT 10SM OVC050 02/ RMK SC8

CYQB;2009-03-18 14:00;CYQB 181400Z 20004KT 10SM -SHRA OVC050 02/M01 A2984 RMK SC8 SLP109

CYQB;2009-03-18 15:00;CYQB 181500Z 14003KT 10SM OVC044 02/M01 A2984 RMK SC8 OCNL -SHRA SLP109

CYQB;2009-03-18 15:51;CYQB 181551Z 25005KT 10SM OVC041 03/ RMK SC8

CYQB;2009-03-18 16:00;CYQB 181600Z 25009KT 10SM OVC041 04/01 A2983 RMK SC8 SLP107

CYQB;2009-03-18 17:00;CYQB 181700Z 24009KT 10SM OVC044 04/01 A2982 RMK SC8 SLP102

CYQB;2009-03-18 18:00;CYQB 181800Z 23011KT 15SM FEW043 BKN230 06/02 A2980 RMK SC2CS3 SLP095

CYQB;2009-03-18 19:00;CYQB 181900Z 24010KT 15SM FEW043 SCT230 07/02 A2980 RMK SC2CI2 SLP094

CYQB;2009-03-18 20:00;CYQB 182000Z 25012KT 10SM FEW043 FEW230 07/02 A2979 RMK SC1CI1 HZ SLP090

CYQB;2009-03-18 21:00;CYQB 182100Z 25008KT 10SM FEW230 08/02 A2979 RMK CI1 HZ SLP090

CYQB;2009-03-18 22:00;CYQB 182200Z 21005KT 10SM FEW240 07/01 A2978 RMK CI2 HZ SLP088

CYQB;2009-03-18 23:00;CYQB 182300Z 24006KT 8SM FEW240 06/02 A2978 RMK CI1 HZ SLP089

CYQB;2009-03-19 00:00;CYQB 190000Z 23007KT 8SM SKC 06/02 A2980 RMK SLP094

CYQB;2009-03-19 01:00;CYQB 190100Z 25007KT 8SM FEW230 05/01 A2980 RMK CI1 SLP094

CYQB;2009-03-19 02:00;CYQB 190200Z 25007KT 8SM FEW200 04/01 A2980 RMK CI2 SLP095

CYQB;2009-03-19 03:00;CYQB 190300Z 26008KT 8SM BKN190 03/01 A2979 RMK AC5 SLP091

CYQB;2009-03-19 04:00;CYQB 190400Z 26007KT 8SM OVC180 03/00 A2977 RMK AC8 SLP083

CYQB;2009-03-19 05:00;CYQB 190500Z 26007KT 8SM BKN180 03/M00 A2976 RMK CI6 SLP082

CYQB;2009-03-19 06:00;CYQB 190600Z 25010KT 8SM BKN190 03/M01 A2978 RMK AC6 SLP086

CYQB;2009-03-19 06:40;CYQB 190640Z 26012KT 10SM BKN190 02/ RMK AC5

CYQB;2009-03-19 07:00;CYQB 190700Z 25012KT 10SM FEW210 02/M01 A2979 RMK CI2 SLP090

CYQB;2009-03-19 08:00;CYQB 190800Z 25011KT 10SM FEW210 01/M02 A2979 RMK CI0 SLP092

CYQB;2009-03-19 09:00;CYQB 190900Z 25009KT 15SM SKC 01/M03 A2981 RMK OBS TAKEN +13 SLP099

CYQB;2009-03-19 10:00;CYQB 191000Z 25010KT 25SM FEW120 00/M04 A2983 RMK AC1 SLP105

CYQB;2009-03-19 11:00;CYQB 191100Z 33008KT 25SM FEW030 FEW120 00/M05 A2986 RMK SC1AC1 SLP116

CYQB;2009-03-19 12:00;CYQB 191200Z 32007KT 30SM FEW030 FEW064 FEW120 00/M06 A2990 RMK SC1SC1AC1 SLP127

CYQB;2009-03-19 13:00;CYQB 191300Z 31010G17KT 30SM FEW040 FEW120 01/M05 A2993 RMK SC2AC1 SLP139

CYQB;2009-03-19 14:00;CYQB 191400Z 31015KT 30SM FEW040 FEW120 01/M07 A2994 RMK SC1AC1 SLP141

CYQB;2009-03-19 15:00;CYQB 191500Z 30012G21KT 30SM FEW040 SCT072 01/M08 A2996 RMK SC1AC2 ACSL SLP148

CYQB;2009-03-19 16:00;CYQB 191600Z 31015G22KT 30SM FEW040 FEW072 01/M08 A2997 RMK SC1AC2 SLP152

CYQB;2009-03-19 17:00;CYQB 191700Z 27018G24KT 30SM FEW040 FEW075 00/M08 A2999 RMK CU1AC2 SLP160

CYQB;2009-03-19 18:00;CYQB 191800Z 31014G19KT 30SM FEW050 00/M09 A3001 RMK CF1 SLP166

CYQB;2009-03-19 19:00;CYQB 191900Z 27015KT 30SM FEW055 00/M09 A3003 RMK SC1 SLP172

CYQB;2009-03-19 20:00;CYQB 192000Z 31006G16KT 30SM FEW055 00/M09 A3005 RMK SC1 SLP179

CYQB;2009-03-19 21:00;CYQB 192100Z 32011KT 30SM SKC 00/M11 A3007 RMK SLP186

CYQB;2009-03-19 22:00;CYQB 192200Z 32011KT 30SM SKC M01/M12 A3010 RMK SLP196

CYQB;2009-03-19 23:00;CYQB 192300Z 30009KT 30SM SKC M02/M13 A3014 RMK SLP209

CYQB;2009-03-20 00:00;CYQB 200000Z 31008KT 30SM SKC M03/M13 A3017 RMK SLP222

CYQB;2009-03-20 01:00;CYQB 200100Z 32007KT 15SM SKC M04/M13 A3020 RMK SLP231

CYQB;2009-03-20 02:00;CYQB 200200Z 35004KT 15SM SKC M04/M14 A3023 RMK SLP242

CYQB;2009-03-20 03:00;CYQB 200300Z 35007KT 15SM SKC M05/M16 A3025 RMK SLP248

CYQB;2009-03-20 04:00;CYQB 200400Z 33003KT 15SM SKC M06/M16 A3028 RMK SLP256

CYQB;2009-03-20 05:00;CYQB 200500Z 32004KT 15SM SKC M08/M16 A3029 RMK SLP260

CYQB;2009-03-20 06:00;CYQB 200600Z 00000KT 15SM SKC M09/M17 A3030 RMK SLP264

CYQB;2009-03-20 07:00;CYQB 200700Z 31003KT 15SM SKC M09/M17 A3030 RMK SLP264

CYQB;2009-03-20 08:00;CYQB 200800Z 01004KT 15SM SKC M10/M17 A3030 RMK SLP264

CYQB;2009-03-20 09:00;CYQB 200900Z 00000KT 15SM SKC M10/M17 A3032 RMK SLP271

CYQB;2009-03-20 10:00;CYQB 201000Z 35008KT 15SM SKC M10/M18 A3033 RMK SLP275

CYQB;2009-03-20 11:00;CYQB 201100Z 35008KT 30SM SKC M10/M19 A3035 RMK SLP282

CYQB;2009-03-20 12:00;CYQB 201200Z 36008KT 30SM SKC M10/M18 A3038 RMK SLP294

CYQB;2009-03-20 13:00;CYQB 201300Z 35005KT 30SM SKC M08/M18 A3041 RMK SLP303

CYQB;2009-03-20 14:00;CYQB 201400Z 00000KT 30SM SKC M07/M17 A3041 RMK SLP305

CYQB;2009-03-20 15:00;CYQB 201500Z 24005KT 30SM SKC M06/M16 A3041 RMK SLP303

CYQB;2009-03-20 16:00;CYQB 201600Z 21010KT 30SM SKC M05/M14 A3040 RMK SLP301

CYQB;2009-03-20 17:00;CYQB 201700Z 22014KT 30SM SKC M04/M12 A3039 RMK SLP297

CYQB;2009-03-20 18:00;CYQB 201800Z 22015G21KT 30SM SKC M04/M12 A3037 RMK SLP291

CYQB;2009-03-20 19:00;CYQB 201900Z 23016G21KT 30SM SKC M03/M12 A3036 RMK SLP288

CYQB;2009-03-20 20:00;CYQB 202000Z 22016G21KT 30SM SKC M02/M12 A3036 RMK SLP286

CYQB;2009-03-20 21:00;CYQB 202100Z 23020G25KT 30SM SKC M02/M11 A3036 RMK SLP285

CYQB;2009-03-20 22:00;CYQB 202200Z 23015G21KT 30SM SKC M02/M12 A3036 RMK SLP287

CYQB;2009-03-20 23:00;CYQB 202300Z 22010KT 30SM SKC M03/M12 A3038 RMK SLP293

CYQB;2009-03-21 00:00;CYQB 210000Z 24009KT 15SM SKC M03/M14 A3041 RMK SLP304

CYQB;2009-03-21 01:00;CYQB 210100Z 25008KT 15SM SKC M04/M14 A3044 RMK SLP313

CYQB;2009-03-21 02:00;CYQB 210200Z 29008KT 15SM SKC M06/M14 A3044 RMK SLP314

CYQB;2009-03-21 03:00;CYQB 210300Z 27009KT 15SM SKC M06/M13 A3044 RMK SLP315

CYQB;2009-03-21 04:00;CYQB 210400Z 00000KT 15SM SKC M07/M14 A3045 RMK SLP317

CYQB;2009-03-21 05:00;CYQB 210500Z 00000KT 15SM SKC M09/M15 A3046 RMK SLP320

CYQB;2009-03-21 06:00;CYQB 210600Z 00000KT 15SM SKC M08/M15 A3046 RMK SLP320

CYQB;2009-03-21 07:00;CYQB 210700Z 00000KT 15SM SKC M11/M16 A3047 RMK SLP322

CYQB;2009-03-21 08:00;CYQB 210800Z 00000KT 15SM SKC M09/M15 A3047 RMK SLP324

CYQB;2009-03-21 09:00;CYQB 210900Z 00000KT 15SM SKC M11/M17 A3049 RMK SLP329

CYQB;2009-03-21 10:00;CYQB 211000Z 00000KT 15SM SKC M11/M17 A3050 RMK SLP333

CYQB;2009-03-21 11:00;CYQB 211100Z 00000KT 30SM SKC M11/M18 A3051 RMK SLP337

CYQB;2009-03-21 12:00;CYQB 211200Z 02004KT 30SM SKC M10/M17 A3052 RMK SLP341

CYQB;2009-03-21 13:00;CYQB 211300Z 00000KT 30SM SKC M08/M15 A3052 RMK SLP341

CYQB;2009-03-21 14:00;CYQB 211400Z 00000KT 30SM SKC M05/M13 A3052 RMK SLP339

CYQB;2009-03-21 15:00;CYQB 211500Z 00000KT 30SM FEW240 M04/M10 A3050 RMK CI0 SLP334

CYQB;2009-03-21 16:00;CYQB 211600Z 24009KT 30SM BKN240 M01/M09 A3048 RMK CI0 SLP326

CYQB;2009-03-21 17:00;CYQB 211700Z 23008KT 30SM BKN240 M00/M09 A3045 RMK CI0 SLP318

CYQB;2009-03-21 18:00;CYQB 211800Z 23009G15KT 30SM BKN240 01/M08 A3043 RMK CI2 SLP308

CYQB;2009-03-21 19:00;CYQB 211900Z 24007KT 30SM BKN220 01/M08 A3040 RMK CI3 SLP300

CYQB;2009-03-21 20:00;CYQB 212000Z 21007KT 30SM SCT180 BKN220 01/M08 A3037 RMK AS2CI2 SLP288

CYQB;2009-03-21 21:00;CYQB 212100Z 22006KT 30SM BKN180 01/M08 A3035 RMK AC7 SLP281

CYQB;2009-03-21 22:00;CYQB 212200Z 24009KT 30SM FEW170 BKN220 01/M08 A3033 RMK AC2CI3 SLP276

CYQB;2009-03-21 23:00;CYQB 212300Z 26007KT 30SM BKN180 BKN220 M00/M09 A3033 RMK AC3CI0 SLP274

CYQB;2009-03-22 00:00;CYQB 220000Z 25004KT 15SM FEW140 BKN210 M00/M08 A3032 RMK AC2CI1 SLP272

CYQB;2009-03-22 01:00;CYQB 220100Z 20006KT 15SM FEW028 BKN070 BKN120 00/M08 A3030 RMK SC1AC4AC2 SLP265

CYQB;2009-03-22 02:00;CYQB 220200Z 27005KT 15SM FEW025 OVC100 M00/M07 A3028 RMK SC2AC6 SLP257

CYQB;2009-03-22 03:00;CYQB 220300Z 26008KT 15SM FEW025 OVC100 M01/M06 A3025 RMK SC2AC6 SLP249

CYQB;2009-03-22 04:00;CYQB 220400Z 26008KT 15SM FEW025 OVC097 M00/M06 A3023 RMK SC2AC6 SLP241

CYQB;2009-03-22 05:00;CYQB 220500Z 25007KT 15SM BKN027 OVC048 00/M05 A3021 RMK SC5SC3 SLP235

CYQB;2009-03-22 05:40;CYQB 220540Z 25006KT 10SM -SHSN OVC017 00/ RMK SC8

CYQB;2009-03-22 06:00;CYQB 220600Z 25011G16KT 5SM -SHSN OVC016 M00/M05 A3020 RMK SC8 SLP230

CYQB;2009-03-22 07:00;CYQB 220700Z 26014KT 5SM -SHSN FEW010 OVC028 M01/M04 A3018 RMK SC2SC6 SLP224

CYQB;2009-03-22 08:00;CYQB 220800Z 25013KT 2SM -SHSN FEW009 OVC013 M01/M03 A3017 RMK SF2SC6 SLP220

CYQB;2009-03-22 09:00;CYQB 220900Z 25010KT 15SM SCT040 BKN080 OVC100 M01/M03 A3017 RMK SC3AC3AC2 SLP219

CYQB;2009-03-22 10:00;CYQB 221000Z 26011KT 15SM SCT040 M01/M04 A3016 RMK SC3 SLP217

CYQB;2009-03-22 11:00;CYQB 221100Z 30013KT 30SM FEW040 FEW080 M02/M07 A3017 RMK SC2AC1 SLP221

CYQB;2009-03-22 12:00;CYQB 221200Z 30014KT 30SM FEW040 FEW080 M03/M08 A3019 RMK SC2AC1 SLP229

CYQB;2009-03-22 13:00;CYQB 221300Z 32012KT 30SM FEW040 M03/M10 A3022 RMK SC1 SLP237

CYQB;2009-03-22 14:00;CYQB 221400Z 31015KT 30SM FEW040 M04/M11 A3023 RMK SC1 SLP242

CYQB;2009-03-22 15:00;CYQB 221500Z 31013KT 30SM FEW040 M03/M10 A3023 RMK SC1 SLP242

CYQB;2009-03-22 16:00;CYQB 221600Z 33012G17KT 30SM FEW040 M02/M11 A3023 RMK SC1 SLP241

CYQB;2009-03-22 17:00;CYQB 221700Z 32011G18KT 30SM FEW040 M02/M11 A3023 RMK SC1 SLP240

CYQB;2009-03-22 18:00;CYQB 221800Z 29016KT 30SM FEW040 M02/M11 A3022 RMK SC1 SLP237

CYQB;2009-03-22 19:00;CYQB 221900Z 30016G25KT 30SM FEW040 M02/M11 A3022 RMK SC1 SLP238

CYQB;2009-03-22 20:00;CYQB 222000Z 32013G19KT 30SM FEW040 M02/M12 A3022 RMK SC1 SLP238

CYQB;2009-03-22 21:00;CYQB 222100Z 32012KT 30SM FEW040 M02/M13 A3022 RMK SC1 SLP239

CYQB;2009-03-22 22:00;CYQB 222200Z 35007KT 30SM FEW060 M02/M14 A3024 RMK SC2 SLP243

CYQB;2009-03-22 23:00;CYQB 222300Z 36012KT 30SM FEW060 M03/M15 A3025 RMK SC1 SLP249

CYQB;2009-03-23 00:00;CYQB 230000Z 34009KT 15SM FEW060 M04/M15 A3028 RMK SC2 SLP258

CYQB;2009-03-23 01:00;CYQB 230100Z 36013KT 15SM FEW060 M05/M16 A3030 RMK SC1 SLP264

CYQB;2009-03-23 02:00;CYQB 230200Z 35014G20KT 15SM FEW060 M07/M17 A3031 RMK SC1 SLP269

CYQB;2009-03-23 03:00;CYQB 230300Z 33011G16KT 15SM FEW060 M08/M17 A3033 RMK SC1 SLP274

CYQB;2009-03-23 04:00;CYQB 230400Z 33012KT 15SM FEW060 BKN097 M09/M17 A3033 RMK SC2AC3 SLP275

CYQB;2009-03-23 05:00;CYQB 230500Z 01015G20KT 15SM FEW040 BKN090 OVC120 M10/M19 A3033 RMK SC1AC6AC1 SLP276

CYQB;2009-03-23 06:00;CYQB 230600Z 32011G17KT 15SM SCT075 OVC090 M11/M26 A3032 RMK AC4AC4 SLP274

CYQB;2009-03-23 07:00;CYQB 230700Z 33009G15KT 15SM OVC090 M12/M23 A3032 RMK AC8 SLP272

CYQB;2009-03-23 08:00;CYQB 230800Z 30006KT 15SM FEW070 SCT090 M13/M22 A3031 RMK AC2AC2 SLP271

CYQB;2009-03-23 09:00;CYQB 230900Z 29004KT 15SM SKC M14/M23 A3032 RMK SLP274

CYQB;2009-03-23 10:00;CYQB 231000Z 30008KT 15SM FEW100 FEW230 M15/M23 A3033 RMK AC1CI1 SLP277

CYQB;2009-03-23 11:00;CYQB 231100Z 29006KT 30SM FEW100 FEW230 M15/M23 A3034 RMK AC1CI0 SLP281

CYQB;2009-03-23 12:00;CYQB 231200Z 31006KT 30SM FEW230 M14/M21 A3035 RMK CI1 SLP284

CYQB;2009-03-23 13:00;CYQB 231300Z 33010KT 30SM FEW230 M13/M21 A3035 RMK CI1 SLP284

CYQB;2009-03-23 14:00;CYQB 231400Z 33008KT 30SM FEW070 BKN230 M11/M20 A3036 RMK AC1CI0 SLP286

CYQB;2009-03-23 15:00;CYQB 231500Z 33011KT 30SM FEW024 SCT090 BKN230 M10/M17 A3035 RMK SC2AC1CI0 SLP284

CYQB;2009-03-23 16:00;CYQB 231600Z 27007KT 30SM FEW025 FEW090 BKN230 M09/M16 A3034 RMK SC1AC1CI0 SLP280

CYQB;2009-03-23 17:00;CYQB 231700Z 19009KT 30SM FEW025 FEW090 SCT230 M08/M15 A3033 RMK SC1AC1CI0 SLP275

CYQB;2009-03-23 18:00;CYQB 231800Z 19008KT 30SM FEW045 FEW160 BKN230 M08/M15 A3034 RMK SC1AC1CI0 SLP279

CYQB;2009-03-23 19:00;CYQB 231900Z 13005KT 30SM FEW045 FEW220 M06/M15 A3034 RMK SC1CI0 SLP280

CYQB;2009-03-23 20:00;CYQB 232000Z 19003KT 30SM FEW045 M05/M15 A3035 RMK SC2 SLP284

CYQB;2009-03-23 21:00;CYQB 232100Z 00000KT 30SM FEW060 FEW100 M04/M14 A3036 RMK SC1AC1 SLP287

CYQB;2009-03-23 22:00;CYQB 232200Z 07002KT 30SM FEW060 SCT080 M04/M14 A3039 RMK SC1AC1 SLP295

CYQB;2009-03-23 23:00;CYQB 232300Z 07003KT 30SM FEW070 M06/M13 A3041 RMK AC2 SLP305

CYQB;2009-03-24 00:00;CYQB 240000Z 00000KT 15SM FEW070 M07/M13 A3043 RMK AC1 SLP310

CYQB;2009-03-24 01:00;CYQB 240100Z 28003KT 15SM SKC M09/M14 A3044 RMK SLP313

CYQB;2009-03-24 02:00;CYQB 240200Z 00000KT 15SM SKC M08/M14 A3044 RMK SLP314

CYQB;2009-03-24 03:00;CYQB 240300Z 36009KT 15SM SKC M05/M13 A3044 RMK SLP314

CYQB;2009-03-24 04:00;CYQB 240400Z 35006KT 15SM SKC M06/M14 A3044 RMK SLP313

CYQB;2009-03-24 05:00;CYQB 240500Z 34005KT 15SM SKC M05/M14 A3045 RMK SLP317

CYQB;2009-03-24 06:00;CYQB 240600Z 36010KT 15SM SKC M05/M14 A3046 RMK SLP320

CYQB;2009-03-24 07:00;CYQB 240700Z 36010KT 15SM SKC M05/M14 A3047 RMK SLP322

CYQB;2009-03-24 08:00;CYQB 240800Z 01012KT 15SM SKC M06/M14 A3047 RMK SLP325

CYQB;2009-03-24 09:00;CYQB 240900Z 02007KT 15SM SKC M06/M14 A3049 RMK SLP330

CYQB;2009-03-24 10:00;CYQB 241000Z 35005KT 15SM FEW100 M07/M14 A3052 RMK AC1 SLP339

CYQB;2009-03-24 11:00;CYQB 241100Z 36005KT 30SM FEW100 M07/M14 A3053 RMK AC1 SLP344

CYQB;2009-03-24 12:00;CYQB 241200Z 04003KT 30SM SKC M06/M13 A3055 RMK SLP349

CYQB;2009-03-24 13:00;CYQB 241300Z 00000KT 30SM SKC M04/M12 A3056 RMK SLP354

CYQB;2009-03-24 14:00;CYQB 241400Z 09008KT 30SM FEW030 M02/M10 A3058 RMK CU1 SLP361

CYQB;2009-03-24 15:00;CYQB 241500Z 08004KT 30SM SKC M02/M08 A3058 RMK SLP360

CYQB;2009-03-24 16:00;CYQB 241600Z 00000KT 30SM FEW030 M00/M08 A3057 RMK CU1 SLP358

CYQB;2009-03-24 17:00;CYQB 241700Z 11007KT 50SM FEW030 M00/M07 A3057 RMK CU1 SLP356

CYQB;2009-03-24 18:00;CYQB 241800Z 06002KT 50SM FEW030 M00/M06 A3055 RMK CU1 SLP350

CYQB;2009-03-24 19:00;CYQB 241900Z 09008KT 50SM FEW035 00/M06 A3055 RMK CU1 SLP349

CYQB;2009-03-24 20:00;CYQB 242000Z 08008KT 50SM FEW030 01/M05 A3054 RMK SC1 SLP346

CYQB;2009-03-24 21:00;CYQB 242100Z 09009KT 50SM FEW025 00/M05 A3054 RMK SC1 SLP346

CYQB;2009-03-24 22:00;CYQB 242200Z 07006KT 30SM SKC M00/M06 A3055 RMK SLP349

CYQB;2009-03-24 23:00;CYQB 242300Z 07010KT 30SM FEW050 M01/M06 A3055 RMK SC1 SLP351

CYQB;2009-03-25 00:00;CYQB 250000Z 08006KT 15SM FEW060 M02/M07 A3056 RMK SC1 SLP354

CYQB;2009-03-25 01:00;CYQB 250100Z 09005KT 15SM SKC M02/M07 A3057 RMK SLP356

CYQB;2009-03-25 02:00;CYQB 250200Z 05004KT 15SM SKC M02/M07 A3055 RMK SLP350

CYQB;2009-03-25 03:00;CYQB 250300Z 09005KT 15SM SKC M03/M07 A3054 RMK SLP347

CYQB;2009-03-25 04:00;CYQB 250400Z 05003KT 15SM SKC M03/M07 A3053 RMK SLP343

CYQB;2009-03-25 06:00;CYQB 250600Z 02003KT 15SM SKC M04/M08 A3051 RMK SLP336

CYQB;2009-03-25 07:00;CYQB 250700Z 01002KT 15SM SKC M05/M09 A3050 RMK SLP332

CYQB;2009-03-25 08:00;CYQB 250800Z 00000KT 15SM SKC M07/M10 A3049 RMK SLP329

CYQB;2009-03-25 09:00;CYQB 250900Z 00000KT 15SM FEW240 M06/M09 A3047 RMK CI1 SLP321

CYQB;2009-03-25 10:00;CYQB 251000Z 02003KT 15SM FEW010 FEW100 SCT200 M06/M09 A3047 RMK CF1AC1CI1 SLP324

CYQB;2009-03-25 11:00;CYQB 251100Z 01003KT 30SM FEW100 FEW200 M06/M09 A3048 RMK AC1CI0 SLP325

CYQB;2009-03-25 12:00;CYQB 251200Z 01006KT 30SM FEW160 FEW200 M05/M08 A3049 RMK AC1CI0 SLP328

CYQB;2009-03-25 13:00;CYQB 251300Z 04002KT 30SM FEW100 M02/M07 A3048 RMK AC0 SLP327

CYQB;2009-03-25 14:00;CYQB 251400Z 08008KT 30SM SKC M01/M05 A3047 RMK SLP322

CYQB;2009-03-25 15:00;CYQB 251500Z 10006KT 30SM SKC M00/M05 A3045 RMK SLP317

CYQB;2009-03-25 16:00;CYQB 251600Z 07002KT 30SM FEW200 01/M06 A3042 RMK CI0 SLP307

CYQB;2009-03-25 17:00;CYQB 251700Z 04003KT 50SM FEW200 02/M06 A3040 RMK CI1 SLP298

CYQB;2009-03-25 18:00;CYQB 251800Z 11004KT 50SM FEW220 03/M06 A3036 RMK CI1 SLP284

CYQB;2009-03-25 19:00;CYQB 251900Z 07005KT 50SM FEW220 03/M06 A3033 RMK CI1 SLP273

CYQB;2009-03-25 20:00;CYQB 252000Z 07007KT 50SM FEW220 03/M06 A3030 RMK CI1 SLP266

CYQB;2009-03-25 21:00;CYQB 252100Z 07005KT 50SM FEW220 03/M06 A3028 RMK CI1 SLP258

CYQB;2009-03-25 22:00;CYQB 252200Z 07008KT 50SM FEW220 03/M07 A3027 RMK CI1 SLP255

CYQB;2009-03-25 22:33;CYQB 252233Z 07008KT 30SM FEW220 02/ RMK CI1

CYQB;2009-03-25 23:00;CYQB 252300Z 09006KT 15SM FEW220 00/M08 A3026 RMK CI1 SLP250

CYQB;2009-03-26 00:00;CYQB 260000Z 06006KT 15SM SKC M00/M08 A3025 RMK SLP249

CYQB;2009-03-26 01:00;CYQB 260100Z 08005KT 15SM SKC M01/M08 A3025 RMK SLP247

CYQB;2009-03-26 02:00;CYQB 260200Z 04004KT 15SM SKC M01/M08 A3023 RMK SLP241

CYQB;2009-03-26 03:00;CYQB 260300Z 07006KT 15SM SKC M02/M08 A3022 RMK SLP237

CYQB;2009-03-26 04:00;CYQB 260400Z 07007KT 15SM SKC M02/M08 A3020 RMK SLP232

CYQB;2009-03-26 05:00;CYQB 260500Z 07006KT 15SM FEW220 M02/M08 A3019 RMK CI1 SLP227

CYQB;2009-03-26 06:00;CYQB 260600Z 05003KT 15SM FEW220 M03/M08 A3019 RMK CI1 SLP226

CYQB;2009-03-26 07:00;CYQB 260700Z 06006KT 15SM SKC M03/M09 A3016 RMK SLP218

CYQB;2009-03-26 08:00;CYQB 260800Z 05005KT 15SM SKC M03/M08 A3014 RMK SLP212

CYQB;2009-03-26 09:00;CYQB 260900Z 05006KT 15SM SKC M03/M08 A3013 RMK SLP208

CYQB;2009-03-26 10:00;CYQB 261000Z 07007KT 15SM FEW220 M03/M08 A3011 RMK CI1 SLP201

CYQB;2009-03-26 11:00;CYQB 261100Z 05005KT 15SM FEW120 BKN220 M03/M07 A3011 RMK AC1CI2 SLP201

CYQB;2009-03-26 12:00;CYQB 261200Z 06008KT 15SM FEW120 BKN220 M02/M07 A3011 RMK AC2CI3 SLP199

CYQB;2009-03-26 13:00;CYQB 261300Z 07007KT 15SM FEW120 BKN220 M01/M06 A3008 RMK AC2CI2 SLP190

CYQB;2009-03-26 14:00;CYQB 261400Z 07009G15KT 15SM FEW120 BKN220 01/M06 A3008 RMK AC2CI3 SLP192

CYQB;2009-03-26 15:00;CYQB 261500Z 08008KT 15SM BKN140 OVC220 02/M05 A3008 RMK AC5CI2 SLP190

CYQB;2009-03-26 16:00;CYQB 261600Z 06005KT 15SM BKN120 OVC220 03/M04 A3008 RMK AC6CI2 SLP189

CYQB;2009-03-26 17:00;CYQB 261700Z 05006KT 15SM BKN120 BKN220 03/M04 A3004 RMK AC5CI1 SLP177

CYQB;2009-03-26 18:00;CYQB 261800Z 07007KT 15SM BKN084 OVC120 04/M04 A3000 RMK AC5AC2 SLP162

CYQB;2009-03-26 19:00;CYQB 261900Z 07006KT 20SM BKN067 OVC120 04/M04 A2999 RMK AC6AC2 SLP160

CYQB;2009-03-26 20:00;CYQB 262000Z 07005KT 15SM BKN064 OVC120 03/M04 A2997 RMK SC6AC2 SLP151

CYQB;2009-03-26 21:00;CYQB 262100Z 07004KT 20SM BKN052 OVC080 02/M04 A2993 RMK SC7AC1 SLP139

CYQB;2009-03-26 22:00;CYQB 262200Z 07006KT 20SM OVC051 02/M04 A2992 RMK SC8 SLP137

CYQB;2009-03-26 23:00;CYQB 262300Z 09004KT 15SM OVC055 02/M05 A2993 RMK SC8 SLP140

CYQB;2009-03-26 23:46;CYQB 262346Z 08008KT 15SM -SHRA BKN055 OVC068 02/ RMK SC6AC2

CYQB;2009-03-27 00:00;CYQB 270000Z 09008KT 10SM -SHRA BKN055 OVC070 01/M04 A2991 RMK SC6AC2 SLP132

CYQB;2009-03-27 01:00;CYQB 270100Z 07005KT 10SM -RA OVC059 01/M04 A2993 RMK SC8 OBS TAKEN +15 SLP138

CYQB;2009-03-27 01:09;CYQB 270109Z 07008KT 10SM -SHRAPL OVC056 01/ RMK SC8

CYQB;2009-03-27 01:37;CYQB 270137Z 05005KT 10SM -SHRA OVC061 01/ RMK SC8

CYQB;2009-03-27 02:00;CYQB 270200Z 05007KT 10SM -SHRA OVC070 01/M03 A2991 RMK SC8 SLP132

CYQB;2009-03-27 03:00;CYQB 270300Z 14007KT 10SM -SHRA OVC030 01/M03 A2991 RMK SC8 SLP133

CYQB;2009-03-27 04:00;CYQB 270400Z 04007KT 6SM -RASN OVC021 00/M03 A2989 RMK SC8 SLP127

CYQB;2009-03-27 05:00;CYQB 270500Z 00000KT 1SM R06/P6000FT/D -SN OVC017 00/M02 A2989 RMK SC8 SLP124

CYQB;2009-03-27 05:25;CYQB 270525Z 00000KT 1SM R06/P6000FT/D -SN OVC009 00/ RMK SC8

CYQB;2009-03-27 06:00;CYQB 270600Z 09003KT 3/4SM R06/P6000FT/U -SN OVC011 M00/M02 A2987 RMK SN2SC6 /S01/ SLP119

CYQB;2009-03-27 06:29;CYQB 270629Z 08005KT 3/4SM R06/P6000FT/U -SN OVC004 00/ RMK SN2SC6

CYQB;2009-03-27 07:00;CYQB 270700Z 08004KT 3/4SM R06/P6000FT/U -SN OVC002 M00/M01 A2986 RMK SN3SC5 /S02/ SLP113

CYQB;2009-03-27 08:00;CYQB 270800Z 07006KT 1SM R06/P6000FT/U -SN OVC004 M00/M01 A2984 RMK SN2SC6 SLP108

CYQB;2009-03-27 09:00;CYQB 270900Z 07004KT 1SM R06/P6000FT/N -SN SCT003 OVC008 M00/M02 A2984 RMK SC4SC4 SLP110

CYQB;2009-03-27 09:39;CYQB 270939Z 07005KT 1SM R06/P6000FT/N -SN BR BKN002 OVC007 M00/ RMK SF7SC1

CYQB;2009-03-27 10:00;CYQB 271000Z 07004KT 1SM R06/P6000FT/N -SN BR BKN003 OVC008 M00/M01 A2984 RMK SF6SC2 /S03/ SLP108

CYQB;2009-03-27 10:32;CYQB 271032Z 07005KT 1 1/2SM -FZDZ BR OVC003 M00/ RMK SF8 RESN

CYQB;2009-03-27 11:00;CYQB 271100Z 07006KT 1SM R06/P6000FT/D -SN BR BKN002 OVC007 M00/M01 A2984 RMK SF7SC1 REFZDZ SLP108

CYQB;2009-03-27 12:00;CYQB 271200Z 07004KT 1SM R06/P6000FT/N -SN BR OVC003 00/M01 A2984 RMK SF8 SLP110

CYQB;2009-03-27 13:00;CYQB 271300Z 07002KT 1SM R06/P6000FT/N -SN BR OVC003 00/M01 A2985 RMK SF8 SLP112

CYQB;2009-03-27 14:00;CYQB 271400Z 00000KT 1 1/2SM -SN BR OVC003 01/00 A2987 RMK SF8 SLP119

CYQB;2009-03-27 15:00;CYQB 271500Z 25002KT 1 1/2SM -SN BR OVC003 01/00 A2988 RMK SF8 SLP122

CYQB;2009-03-27 16:00;CYQB 271600Z 23007KT 1 1/2SM -DZ BR OVC003 01/M00 A2989 RMK SF8 RESN SLP125

CYQB;2009-03-27 17:00;CYQB 271700Z 25010KT 1SM R06/P6000FT/N BR OVC004 02/01 A2989 RMK FG2SF6 REDZ SLP126

CYQB;2009-03-27 18:00;CYQB 271800Z 25014KT 1 1/2SM BR OVC007 03/01 A2990 RMK FG2SF6 SLP129

CYQB;2009-03-27 18:28;CYQB 271828Z 25014KT 1 1/2SM BR SCT007 OVC020 03/ RMK FG2SF2SC4

CYQB;2009-03-27 19:00;CYQB 271900Z 26010KT 1 1/2SM BR SCT010 OVC015 03/02 A2992 RMK FG2SF2SC4 SLP135

CYQB;2009-03-27 20:00;CYQB 272000Z 26009KT 1 1/2SM BR OVC015 04/02 A2993 RMK FG2SC6 SLP140

CYQB;2009-03-27 20:45;CYQB 272045Z 24010KT 3SM BR OVC055 05/ RMK SC8

CYQB;2009-03-27 21:00;CYQB 272100Z 24010KT 4SM BR OVC054 04/03 A2994 RMK SC8 SLP141

CYQB;2009-03-27 22:00;CYQB 272200Z 23009KT 6SM BR BKN053 04/01 A2994 RMK SC7 SLP143

CYQB;2009-03-27 23:00;CYQB 272300Z 22004KT 8SM SCT057 04/00 A2996 RMK SC3 SLP148

CYQB;2009-03-28 00:00;CYQB 280000Z 23008KT 15SM FEW055 03/M00 A2998 RMK SC1 SLP155

CYQB;2009-03-28 01:00;CYQB 280100Z 22006KT 15SM SKC 02/M01 A2999 RMK SLP160

CYQB;2009-03-28 02:00;CYQB 280200Z 27010KT 15SM SKC 02/M01 A3000 RMK SLP163

CYQB;2009-03-28 03:00;CYQB 280300Z 00000KT 15SM SKC 02/M00 A3001 RMK SLP165

CYQB;2009-03-28 04:00;CYQB 280400Z 06002KT 15SM SKC 00/M02 A3000 RMK SLP162

CYQB;2009-03-28 05:00;CYQB 280500Z 14002KT 15SM SKC M00/M02 A3000 RMK SLP162

CYQB;2009-03-28 06:00;CYQB 280600Z 00000KT 15SM SKC M02/M03 A2999 RMK SLP159

CYQB;2009-03-28 07:00;CYQB 280700Z 36003KT 15SM FEW240 M01/M03 A2999 RMK CI1 SLP159

CYQB;2009-03-28 08:00;CYQB 280800Z 02002KT 15SM FEW150 FEW240 M01/M02 A3000 RMK AC1CI1 SLP161

CYQB;2009-03-28 09:00;CYQB 280900Z 00000KT 15SM FEW140 FEW240 M03/M04 A3000 RMK AC1CI1 SLP164

CYQB;2009-03-28 10:00;CYQB 281000Z 02003KT 15SM FEW110 FEW150 M01/M03 A3001 RMK AC1AC1 SLP165

CYQB;2009-03-28 11:00;CYQB 281100Z 03004KT 15SM FEW110 FEW150 M02/M03 A2999 RMK AC1AC1 SLP159

CYQB;2009-03-28 12:00;CYQB 281200Z 01004KT 8SM FEW100 M00/M02 A3000 RMK AC2 SLP161

CYQB;2009-03-28 13:00;CYQB 281300Z 01004KT 8SM FEW090 02/00 A3000 RMK AC1 SLP163

CYQB;2009-03-28 14:00;CYQB 281400Z 00000KT 12SM FEW060 SCT090 06/02 A3000 RMK SC2AC1 SLP164

CYQB;2009-03-28 15:00;CYQB 281500Z 19006KT 15SM FEW060 SCT090 05/M00 A3000 RMK SC2AC1 SLP164

CYQB;2009-03-28 16:00;CYQB 281600Z 18002KT 15SM FEW150 06/01 A2999 RMK AC1 SLP160

CYQB;2009-03-28 17:00;CYQB 281700Z 00000KT 15SM FEW030 FEW070 08/01 A2999 RMK CU1AC2 SLP158

CYQB;2009-03-28 18:00;CYQB 281800Z 25004KT 15SM FEW030 FEW070 FEW150 08/01 A2998 RMK CU1AC1AC1 SLP155

CYQB;2009-03-28 19:00;CYQB 281900Z 20006KT 20SM FEW030 FEW100 09/01 A2996 RMK CU1AC1 SLP148

CYQB;2009-03-28 20:00;CYQB 282000Z 21006KT 30SM FEW030 FEW100 09/01 A2993 RMK CU1AC1 SLP140

CYQB;2009-03-28 21:00;CYQB 282100Z 19006KT 30SM FEW030 09/00 A2993 RMK CU1 SLP138

CYQB;2009-03-28 22:00;CYQB 282200Z 22004KT 30SM FEW030 FEW120 10/M01 A2992 RMK CU1AC1 SLP136

CYQB;2009-03-28 23:00;CYQB 282300Z 26003KT 15SM FEW030 BKN082 09/M01 A2994 RMK CU1AC6 SLP142

CYQB;2009-03-29 00:00;CYQB 290000Z 06004KT 15SM FEW030 SCT082 08/M01 A2993 RMK CU1AC3 SLP138

CYQB;2009-03-29 01:00;CYQB 290100Z 07003KT 15SM FEW030 FEW082 06/M01 A2994 RMK CU1AC1 SLP140

CYQB;2009-03-29 02:00;CYQB 290200Z 06009KT 15SM SKC 04/M01 A2994 RMK SLP141

CYQB;2009-03-29 03:00;CYQB 290300Z 03002KT 15SM SKC 03/M01 A2994 RMK SLP142

CYQB;2009-03-29 04:00;CYQB 290400Z 03005KT 15SM FEW078 02/M01 A2994 RMK AC2 SLP143

CYQB;2009-03-29 05:00;CYQB 290500Z 06004KT 15SM SCT078 02/M01 A2994 RMK AC3 SLP140

CYQB;2009-03-29 06:00;CYQB 290600Z 07009KT 15SM FEW078 FEW250 03/M00 A2992 RMK AC1CI0 SLP133

CYQB;2009-03-29 07:00;CYQB 290700Z 07011KT 15SM FEW080 BKN220 03/M01 A2991 RMK AC1CI1 SLP130

CYQB;2009-03-29 08:00;CYQB 290800Z 07010G15KT 15SM SCT070 BKN220 03/M01 A2991 RMK AC3CI1 SLP131

CYQB;2009-03-29 09:00;CYQB 290900Z 07011KT 15SM FEW065 SCT200 03/M01 A2990 RMK SC1CI1 SLP127

CYQB;2009-03-29 10:00;CYQB 291000Z 07011G17KT 15SM FEW170 BKN210 03/M02 A2990 RMK AC2CS2 SLP128

CYQB;2009-03-29 10:41;CYQB 291041Z 07013KT 15SM FEW070 BKN180 02/ RMK AC2AC3

CYQB;2009-03-29 11:00;CYQB 291100Z 07016G22KT 15SM FEW080 BKN180 03/M01 A2989 RMK AC2AC2 SLP125

CYQB;2009-03-29 12:00;CYQB 291200Z 07018G27KT 20SM BKN150 03/M01 A2985 RMK AC4 SLP111

CYQB;2009-03-29 13:00;CYQB 291300Z 07017G24KT 20SM FEW150 04/M02 A2983 RMK AC1 SLP104

CYQB;2009-03-29 14:00;CYQB 291400Z 08016G22KT 20SM FEW150 05/M02 A2981 RMK AC2 SLP096

CYQB;2009-03-29 15:00;CYQB 291500Z 07015G26KT 20SM BKN140 05/M02 A2977 RMK AC6 SLP085

CYQB;2009-03-29 16:00;CYQB 291600Z 08017G24KT 20SM SCT140 OVC210 05/M01 A2973 RMK AC4CI1 SLP071

CYQB;2009-03-29 17:00;CYQB 291700Z 08017G22KT 20SM BKN110 04/M02 A2971 RMK AC7 SLP063

CYQB;2009-03-29 18:00;CYQB 291800Z 08016KT 20SM BKN095 04/M01 A2967 RMK AC7 SLP052

CYQB;2009-03-29 19:00;CYQB 291900Z 08020G25KT 30SM OVC085 03/M02 A2965 RMK AC8 DIST SH S QUAD SLP045

CYQB;2009-03-29 19:37;CYQB 291937Z CCA 08015G24KT 25SM -RA SCT064 OVC072 03/ RMK SC3AC5

CYQB;2009-03-29 20:00;CYQB 292000Z 07022G27KT 20SM -RA OVC062 02/M02 A2965 RMK SC8 SLP044

CYQB;2009-03-29 21:00;CYQB 292100Z 08013KT 6SM -RA BR OVC055 01/M01 A2966 RMK SC8 SLP048

CYQB;2009-03-29 22:00;CYQB 292200Z 07020G29KT 10SM -RA OVC050 01/M01 A2963 RMK SC8 SLP036

CYQB;2009-03-29 23:00;CYQB 292300Z 08016G26KT 6SM -RA BR OVC044 02/00 A2961 RMK SC8 SLP029

CYQB;2009-03-30 00:00;CYQB 300000Z 08016G22KT 4SM -RA BR OVC021 02/01 A2960 RMK SC8 SLP026

CYQB;2009-03-30 01:00;CYQB 300100Z 08015KT 8SM -RA FEW006 SCT020 OVC037 02/02 A2958 RMK SC1SC2SC5 SLP020

CYQB;2009-03-30 02:00;CYQB 300200Z 10012G17KT 8SM -RA FEW007 OVC031 03/02 A2956 RMK SF2SC6 SLP011

CYQB;2009-03-30 03:00;CYQB 300300Z 08011KT 8SM -RA SCT007 OVC026 02/02 A2954 RMK SF3SC5 SLP005

CYQB;2009-03-30 04:00;CYQB 300400Z 08013G25KT 8SM RA FEW007 OVC026 03/02 A2952 RMK SF2SC6 SLP998

CYQB;2009-03-30 05:00;CYQB 300500Z 08012G19KT 15SM FEW007 OVC023 03/03 A2951 RMK SF2SC6 RERA SLP996

CYQB;2009-03-30 06:00;CYQB 300600Z 07019G31KT 4SM -DZ BR BKN007 OVC018 04/03 A2948 RMK SF5SC3 SLP986

CYQB;2009-03-30 07:00;CYQB 300700Z 07025G36KT 15SM -RA SCT007 BKN016 OVC023 03/03 A2947 RMK SF3SC3SC2 SLP982

CYQB;2009-03-30 08:00;CYQB 300800Z 07018G30KT 8SM -RA SCT008 BKN017 OVC023 03/02 A2947 RMK SF3SC4SC1 SLP983

CYQB;2009-03-30 09:00;CYQB 300900Z 08023G30KT 8SM -RA BKN007 OVC024 02/02 A2947 RMK SF5SC3 SLP981

CYQB;2009-03-30 10:00;CYQB 301000Z 07020G29KT 6SM -DZ BR BKN007 OVC015 01/01 A2949 RMK SF5SC3 SLP989

CYQB;2009-03-30 11:00;CYQB 301100Z CCA 07017G24KT 6SM -DZ BR BKN007 OVC015 01/01 A2950 RMK SF6SC2 OBS TAKEN +09 SLP993

CYQB;2009-03-30 11:16;CYQB 301116Z 07015G25KT 6SM -DZ BR SCT007 BKN014 OVC027 01/ RMK SF3SC3SC2

CYQB;2009-03-30 11:50;CYQB 301150Z 08017G24KT 15SM FEW012 BKN017 OVC035 01/ RMK SF2SC3SC3

CYQB;2009-03-30 12:00;CYQB 301200Z 08012G24KT 15SM FEW012 BKN018 OVC035 01/01 A2952 RMK SF2SC3SC3 VIS NE 30 SLP000

CYQB;2009-03-30 12:53;CYQB 301253Z 08018KT 2SM -RAPLSN BR OVC009 01/ RMK SF8

CYQB;2009-03-30 13:00;CYQB 301300Z 08015G22KT 1 1/2SM -SHRAGSSN OVC009 01/01 A2953 RMK SF8 SLP002

CYQB;2009-03-30 13:20;CYQB 301320Z 07013G26KT 10SM -SHRASN BKN009 OVC029 01/ RMK SF5SC3

CYQB;2009-03-30 14:00;CYQB 301400Z 07018KT 10SM -SHRA BKN009 BKN030 OVC050 01/01 A2953 RMK SF5SC2SC1 SLP003

CYQB;2009-03-30 14:29;CYQB 301429Z 08017G24KT 10SM BKN011 BKN030 OVC050 02/ RMK SF5SC2SC1

CYQB;2009-03-30 14:50;CYQB 301450Z 07019G28KT 30SM SCT013 BKN023 OVC047 02/ RMK SF3SC2SC2

CYQB;2009-03-30 15:00;CYQB 301500Z 08019G28KT 30SM FEW013 BKN023 OVC048 02/M00 A2955 RMK SF2SC2SC3 SLP009

CYQB;2009-03-30 16:00;CYQB 301600Z 07020G27KT 30SM FEW013 SCT023 OVC045 02/M02 A2956 RMK SF1SC2SC5 SLP014

CYQB;2009-03-30 17:00;CYQB 301700Z 07019G28KT 30SM FEW017 FEW026 OVC045 02/M02 A2959 RMK SC1SC2SC6 SLP022

CYQB;2009-03-30 17:43;CYQB 301743Z 07021G29KT 30SM -SHSN FEW018 FEW028 OVC042 03/ RMK SC1SC2SC6

CYQB;2009-03-30 18:00;CYQB 301800Z 07021G29KT 30SM -SHSN FEW020 OVC039 03/02 A2960 RMK SC2SC6 SLP025

CYQB;2009-03-30 19:00;CYQB 301900Z 07017G24KT 30SM FEW039 OVC070 02/M02 A2963 RMK SC2AC6 SLP036

CYQB;2009-03-30 20:00;CYQB 302000Z 07016G21KT 30SM FEW020 SCT047 OVC071 02/M03 A2965 RMK SC2SC2AC5 SLP044

CYQB;2009-03-30 21:00;CYQB 302100Z 08014KT 30SM FEW020 OVC050 02/M03 A2969 RMK SC1SC7 SLP058

CYQB;2009-03-30 22:00;CYQB 302200Z 07010G16KT 30SM FEW020 OVC049 02/M03 A2973 RMK SC1SC7 SLP070

CYQB;2009-03-30 22:19;CYQB 302219Z 07013G18KT 30SM -SN FEW020 BKN050 OVC073 02/ RMK SC1SC6AC1

CYQB;2009-03-30 23:00;CYQB 302300Z 07012G17KT 30SM FEW020 OVC057 01/M03 A2977 RMK SC1SC7 SLP084

CYQB;2009-03-31 00:00;CYQB 310000Z 07012G17KT 15SM -SN FEW020 SCT055 OVC077 01/M03 A2981 RMK SC1SC2AC5 SLP098

CYQB;2009-03-31 01:00;CYQB 310100Z 08007KT 4SM -SN FEW008 OVC021 00/M02 A2984 RMK SF2SC6 SLP109

CYQB;2009-03-31 02:00;CYQB 310200Z 08007KT 10SM -SN FEW012 BKN049 OVC120 00/M02 A2988 RMK SC2SC5AC2 SLP120

CYQB;2009-03-31 03:00;CYQB 310300Z 08009KT 15SM -SN FEW012 BKN048 OVC120 00/M03 A2990 RMK SC1SC6AC1 SLP129

CYQB;2009-03-31 03:56;CYQB 310356Z 08006KT 15SM OVC046 00/ RMK SC8

CYQB;2009-03-31 04:00;CYQB 310400Z 08008KT 15SM OVC047 00/M04 A2992 RMK SC8 SLP137

CYQB;2009-03-31 05:00;CYQB 310500Z 07007KT 15SM OVC046 00/M03 A2995 RMK SC8 SLP145

CYQB;2009-03-31 06:00;CYQB 310600Z 07005KT 15SM FEW015 OVC045 00/M03 A2998 RMK SC1SC7 SLP156

CYQB;2009-03-31 07:00;CYQB 310700Z 07004KT 15SM FEW015 OVC043 M00/M04 A3001 RMK SC1SC7 SLP167

CYQB;2009-03-31 08:00;CYQB 310800Z 11002KT 15SM FEW012 OVC041 M00/M03 A3003 RMK SC1SC7 SLP174

CYQB;2009-03-31 09:00;CYQB 310900Z 08002KT 15SM FEW014 OVC033 M00/M03 A3007 RMK SC2SC6 SLP186

CYQB;2009-03-31 09:39;CYQB 310939Z 11003KT 15SM BKN008 OVC012 M00/ RMK ST6SC2

CYQB;2009-03-31 10:00;CYQB 311000Z 00000KT 15SM OVC009 M00/M03 A3010 RMK ST8 SLP195

CYQB;2009-03-31 11:00;CYQB 311100Z 00000KT 15SM OVC008 M00/M02 A3013 RMK ST8 SLP205

CYQB;2009-03-31 11:07;CYQB 311107Z 00000KT 15SM -SG OVC007 M00/ RMK ST8

CYQB;2009-03-31 12:00;CYQB 311200Z 00000KT 6SM -SG BKN011 OVC028 M00/M03 A3016 RMK ST6SC2 SLP217

CYQB;2009-03-31 12:17;CYQB 311217Z 00000KT 2SM -SG BKN010 OVC028 00/ RMK SN2ST5SC2

CYQB;2009-03-31 12:32;CYQB 311232Z 00000KT 2 1/2SM -SG BKN008 OVC028 M00/ RMK SN1ST6SC2

CYQB;2009-03-31 13:00;CYQB 311300Z 00000KT 5SM -SG BR OVC005 M00/M02 A3018 RMK ST8 CIG VRB 5-9 SLP224

CYQB;2009-03-31 13:53;CYQB 311353Z 10004KT 15SM -SG OVC008 M00/ RMK ST8

CYQB;2009-03-31 14:00;CYQB 311400Z 12006KT 15SM -SG OVC008 M00/M03 A3021 RMK ST8 SLP234

CYQB;2009-03-31 14:30;CYQB 311430Z 08006KT 15SM OVC014 00/ RMK SC8

CYQB;2009-03-31 15:00;CYQB 311500Z 07007KT 15SM OVC015 00/M04 A3022 RMK SC8 SLP238

CYQB;2009-03-31 16:00;CYQB 311600Z 08007KT 15SM OVC018 01/M04 A3024 RMK SC8 SLP243

CYQB;2009-03-31 17:00;CYQB 311700Z 11006KT 20SM OVC021 01/M04 A3025 RMK SC8 SLP246

CYQB;2009-03-31 18:00;CYQB 311800Z 00000KT 20SM FEW020 OVC036 02/M04 A3026 RMK SC2SC6 SLP251

CYQB;2009-03-31 19:00;CYQB 311900Z 00000KT 20SM FEW025 OVC040 02/M04 A3026 RMK SC2SC6 SLP252

CYQB;2009-03-31 20:00;CYQB 312000Z 09003KT 20SM OVC040 03/M04 A3026 RMK SC8 SLP250

CYQB;2009-03-31 21:00;CYQB 312100Z 00000KT 20SM BKN040 03/M03 A3026 RMK SC7 SLP252

CYQB;2009-03-31 22:00;CYQB 312200Z 06005KT 20SM OVC038 02/M03 A3027 RMK SC8 SLP253

CYQB;2009-03-31 23:00;CYQB 312300Z 07005KT 20SM OVC038 02/M03 A3028 RMK SC8 SLP258

CYQB;2009-04-01 01:00;CYQB 010100Z 08005KT 15SM OVC037 01/M03 A3029 RMK SC8 SLP260

CYQB;2009-04-01 02:00;CYQB 010200Z 09004KT 15SM OVC037 01/M03 A3028 RMK SC8 OBS TAKEN +18 SLP257

CYQB;2009-04-01 03:00;CYQB 010300Z 09004KT 15SM OVC036 01/M03 A3028 RMK SC8 SLP256

CYQB;2009-04-01 04:00;CYQB 010400Z 04003KT 15SM OVC034 01/M03 A3028 RMK SC8 SLP256

CYQB;2009-04-01 05:00;CYQB 010500Z 07004KT 15SM OVC033 00/M03 A3027 RMK SC8 SLP253

CYQB;2009-04-01 06:00;CYQB 010600Z 08008KT 15SM OVC032 00/M03 A3024 RMK SC8 SLP244

CYQB;2009-04-01 07:00;CYQB 010700Z 06006KT 15SM BKN031 00/M03 A3025 RMK SC7 SLP248

CYQB;2009-04-01 08:00;CYQB 010800Z 07006KT 15SM SCT030 M00/M03 A3022 RMK SC4 SLP239

CYQB;2009-04-01 09:00;CYQB 010900Z 07008KT 15SM SCT030 M01/M03 A3022 RMK SC3 SLP236

CYQB;2009-04-01 10:00;CYQB 011000Z 07006KT 30SM FEW030 BKN240 M01/M03 A3021 RMK SC1CI2 SLP235

CYQB;2009-04-01 11:00;CYQB 011100Z 07008KT 30SM FEW040 FEW080 BKN240 M01/M03 A3020 RMK SC1AC1CI2 SLP231

CYQB;2009-04-01 12:00;CYQB 011200Z 05007KT 30SM FEW040 BKN240 00/M03 A3022 RMK SC1CI1 SLP236

CYQB;2009-04-01 13:00;CYQB 011300Z 07009KT 30SM FEW040 BKN240 02/M03 A3022 RMK SC1CI1 SLP237

CYQB;2009-04-01 14:00;CYQB 011400Z 07010KT 30SM FEW040 SCT240 02/M03 A3019 RMK SC1CI1 SLP228

CYQB;2009-04-01 15:00;CYQB 011500Z 08013KT 30SM FEW040 FEW090 BKN240 03/M03 A3015 RMK SC1AC1CI1 SLP214

CYQB;2009-04-01 16:00;CYQB 011600Z 10008KT 30SM FEW040 BKN240 03/M02 A3014 RMK SC1CI2 SLP208

CYQB;2009-04-01 17:00;CYQB 011700Z 10008KT 30SM FEW040 SCT160 OVC240 04/M02 A3013 RMK SC1AC3CI2 SLP205

CYQB;2009-04-01 18:00;CYQB 011800Z 08009KT 30SM FEW040 BKN150 OVC240 04/M02 A3009 RMK SC1AC6CI2 SLP194

CYQB;2009-04-01 19:00;CYQB 011900Z 08010KT 30SM FEW060 BKN140 OVC220 04/M02 A3005 RMK SC1AC6CI1 SLP179

CYQB;2009-04-01 20:00;CYQB 012000Z 09009KT 30SM FEW110 OVC150 04/M02 A3002 RMK AC2AC6 SLP169

CYQB;2009-04-01 21:00;CYQB 012100Z 07007KT 30SM BKN070 BKN110 OVC140 04/M02 A3000 RMK AC5AC2AC2 SLP162

CYQB;2009-04-01 22:00;CYQB 012200Z 07005KT 20SM BKN052 OVC070 03/M02 A2999 RMK SC5AC3 SLP159

CYQB;2009-04-01 23:00;CYQB 012300Z 04003KT 15SM -RA OVC048 03/M02 A2999 RMK SC8 SLP160

CYQB;2009-04-02 00:00;CYQB 020000Z 04004KT 10SM -RA OVC037 03/M01 A2998 RMK SC8 SLP157

CYQB;2009-04-02 01:00;CYQB 020100Z 02003KT 10SM -RA OVC034 03/00 A2998 RMK SC8 SLP155

CYQB;2009-04-02 02:00;CYQB 020200Z 06003KT 10SM -RA OVC036 02/M00 A2997 RMK SC8 SLP152

CYQB;2009-04-02 03:00;CYQB 020300Z 05005KT 15SM OVC032 02/M00 A2996 RMK SC8 SLP148

CYQB;2009-04-02 04:00;CYQB 020400Z 36002KT 15SM OVC022 02/M00 A2996 RMK SC8 SLP149

CYQB;2009-04-02 05:00;CYQB 020500Z 03004KT 10SM OVC017 02/00 A2995 RMK SC8 SLP147

CYQB;2009-04-02 05:07;CYQB 020507Z 03002KT 10SM -RA OVC017 02/ RMK SC8

CYQB;2009-04-02 06:00;CYQB 020600Z 00000KT 6SM BR BKN013 OVC025 02/00 A2995 RMK SC6SC2 SLP146

CYQB;2009-04-02 07:00;CYQB 020700Z 07002KT 5SM R06/4000VP6000FT/D BR SCT012 BKN026 02/01 A2994 RMK SF3SC3 SLP141

CYQB;2009-04-02 08:00;CYQB 020800Z 00000KT 5SM R06/2600FT/N BR FEW010 BKN023 02/01 A2993 RMK SF2SC4 SLP139

CYQB;2009-04-02 09:00;CYQB 020900Z CCA 00000KT 8SM R06/4000VP6000FT/U PRFG FEW010 BKN022 02/01 A2993 RMK SF2SC5 SLP139

CYQB;2009-04-02 10:00;CYQB 021000Z 23002KT 8SM PRFG FEW010 BKN039 02/00 A2994 RMK SF2SC5 VIS LWR NW-NE SLP140

CYQB;2009-04-02 11:00;CYQB 021100Z 22003KT 6SM -SHRA PRFG FEW010 BKN026 OVC060 02/00 A2994 RMK SF1SC6SC2 VIS LWR NW-NE SLP143

CYQB;2009-04-02 11:39;CYQB 021139Z 23004KT 8SM PRFG FEW010 FEW025 BKN045 BKN060 03/ RMK SF1SC2SC2SC1 VIS LWR NW-NE

CYQB;2009-04-02 12:00;CYQB 021200Z 25005KT 5SM -SHRA BR FEW010 FEW030 SCT045 BKN060 03/02 A2996 RMK SF1SC2SC2SC2 VIS LWR NE-SE SLP148

CYQB;2009-04-02 12:48;CYQB 021248Z 24006KT 6SM BR SCT023 OVC040 04/ RMK SC3SC4 OCNL -SHRA VIS LWR NE-SE

CYQB;2009-04-02 13:00;CYQB 021300Z 24005KT 6SM BR SCT025 OVC039 04/02 A2996 RMK SC3SC3 OCNL -SHRA VIS LWR NE-SE SLP147

CYQB;2009-04-02 14:00;CYQB 021400Z 24013KT 10SM SCT025 BKN030 06/04 A2996 RMK SC3SC2 SLP149

CYQB;2009-04-02 15:00;CYQB 021500Z 24015G20KT 15SM FEW025 SCT200 08/02 A2995 RMK SC2CI0 SLP146

CYQB;2009-04-02 16:00;CYQB 021600Z 24021G28KT 15SM SCT057 BKN200 09/M01 A2995 RMK SC2CI0 SLP144

CYQB;2009-04-02 17:00;CYQB 021700Z 24021G26KT 30SM SCT055 BKN150 09/M01 A2995 RMK SC3AC0 SLP144

CYQB;2009-04-02 18:00;CYQB 021800Z 24017KT 30SM FEW025 FEW055 10/M01 A2993 RMK SC1SC1 SLP137

CYQB;2009-04-02 19:00;CYQB 021900Z 25014KT 30SM FEW055 10/M01 A2991 RMK SC1 SLP132

CYQB;2009-04-02 20:00;CYQB 022000Z 25012KT 30SM FEW055 FEW200 10/M02 A2991 RMK SC1CI0 SLP130

CYQB;2009-04-02 21:00;CYQB 022100Z 24010KT 30SM FEW055 FEW220 11/M02 A2989 RMK SC1CI1 SLP125

CYQB;2009-04-02 22:00;CYQB 022200Z 25010KT 30SM SCT220 10/M01 A2989 RMK CI0 SLP124

CYQB;2009-04-02 23:00;CYQB 022300Z 23005KT 30SM FEW220 10/M02 A2990 RMK CI1 SLP129

CYQB;2009-04-03 00:00;CYQB 030000Z 00000KT 15SM BKN220 08/M02 A2990 RMK CI1 SLP127

CYQB;2009-04-03 01:00;CYQB 030100Z 32002KT 15SM SCT240 05/M02 A2991 RMK CI1 SLP132

CYQB;2009-04-03 02:00;CYQB 030200Z 03004KT 15SM BKN240 06/M02 A2992 RMK CI2 SLP136

CYQB;2009-04-03 03:00;CYQB 030300Z 02004KT 15SM BKN210 05/M02 A2991 RMK CI2 SLP131

CYQB;2009-04-03 04:00;CYQB 030400Z 36002KT 15SM BKN210 04/M02 A2990 RMK CI2 SLP129

CYQB;2009-04-03 05:00;CYQB 030500Z 03003KT 15SM BKN210 04/M02 A2989 RMK CI1 SLP125

CYQB;2009-04-03 06:00;CYQB 030600Z 03005KT 15SM SKC 03/M02 A2989 RMK SLP126

CYQB;2009-04-03 07:00;CYQB 030700Z 03004KT 15SM SKC 02/M02 A2988 RMK SLP122

CYQB;2009-04-03 08:00;CYQB 030800Z 04004KT 15SM SKC 01/M02 A2989 RMK SLP123

CYQB;2009-04-03 09:00;CYQB 030900Z 04005KT 15SM SCT190 01/M02 A2987 RMK CI0 SLP119

CYQB;2009-04-03 10:00;CYQB 031000Z 04004KT 15SM FEW030 FEW160 01/M02 A2987 RMK SC1AC2 SLP118

CYQB;2009-04-03 11:00;CYQB 031100Z 05004KT 30SM FEW150 01/M02 A2984 RMK AC2 SLP109

CYQB;2009-04-03 12:00;CYQB 031200Z 05005KT 30SM FEW150 SCT230 04/M01 A2983 RMK AC2CI1 SLP105

CYQB;2009-04-03 13:00;CYQB 031300Z 06011KT 30SM SCT180 BKN230 06/M01 A2980 RMK AC3CI1 SLP094

CYQB;2009-04-03 14:00;CYQB 031400Z 10007KT 30SM BKN150 BKN230 06/M01 A2980 RMK AC6CI1 SLP095

CYQB;2009-04-03 15:00;CYQB 031500Z 07009KT 30SM BKN130 BKN170 08/M00 A2978 RMK AC6AS2 SLP087

CYQB;2009-04-03 16:00;CYQB 031600Z 07012KT 30SM FEW060 BKN130 BKN160 08/00 A2975 RMK SC1AC4AS2 SLP077

CYQB;2009-04-03 17:00;CYQB 031700Z 07014G19KT 30SM FEW060 SCT080 BKN130 09/00 A2972 RMK SC1AC3AC2 SLP065

CYQB;2009-04-03 18:00;CYQB 031800Z 07014G24KT 30SM FEW060 SCT080 BKN130 10/01 A2968 RMK SC1AC3AC2 SLP052

CYQB;2009-04-03 19:00;CYQB 031900Z 08014G20KT 30SM BKN045 OVC080 09/01 A2966 RMK SC6AC2 SLP046

CYQB;2009-04-03 20:00;CYQB 032000Z 07016KT 20SM BKN032 09/02 A2962 RMK SC7 SLP032

CYQB;2009-04-03 21:00;CYQB 032100Z 07013G18KT 20SM BKN040 BKN130 09/02 A2956 RMK SC6AC1 SLP014

CYQB;2009-04-03 22:00;CYQB 032200Z 07015G20KT 20SM BKN038 OVC080 09/03 A2951 RMK SC7AC1 SLP995

CYQB;2009-04-03 23:00;CYQB 032300Z 08019G26KT 15SM -RA OVC034 08/03 A2946 RMK SC8 SLP980

CYQB;2009-04-04 00:00;CYQB 040000Z 07023G29KT 6SM -RA OVC034 07/05 A2942 RMK SC8 SLP966

CYQB;2009-04-04 01:00;CYQB 040100Z CCA 07015G28KT 5SM -RA BR BKN025 OVC038 07/05 A2937 RMK SC6SC2 SLP948

CYQB;2009-04-04 02:00;CYQB 040200Z 07020G32KT 8SM -RA BKN022 OVC038 07/05 A2932 RMK SC6SC2 SLP931

CYQB;2009-04-04 03:00;CYQB 040300Z 07020G28KT 15SM OVC020 07/05 A2928 RMK SC8 SLP916

CYQB;2009-04-04 03:39;CYQB 040339Z 08021G26KT 8SM -RA FEW005 OVC024 06/ RMK SF2SC6

CYQB;2009-04-04 04:00;CYQB 040400Z 08020G27KT 8SM -RA FEW005 OVC020 06/05 A2923 RMK SF2SC6 SLP900

CYQB;2009-04-04 05:00;CYQB 040500Z 07020G28KT 8SM -RA FEW005 FEW024 OVC050 06/05 A2917 RMK SF1SC2SC6 SLP881

CYQB;2009-04-04 06:00;CYQB 040600Z 07015G31KT 8SM -RA FEW005 OVC025 06/05 A2919 RMK SF2SC6 SLP886

CYQB;2009-04-04 06:51;CYQB 040651Z 08015G25KT 8SM -RA BKN004 OVC020 05/ RMK SF7SC1

CYQB;2009-04-04 07:00;CYQB 040700Z 08015G21KT 8SM -RA OVC004 05/04 A2916 RMK SF8 SLP876

CYQB;2009-04-04 08:00;CYQB 040800Z 08011G20KT 6SM -RA BR OVC003 04/03 A2914 RMK SF8 SLP870

CYQB;2009-04-04 09:00;CYQB 040900Z 09014G21KT 4SM -RA BR OVC003 04/03 A2914 RMK SF8 SLP869

CYQB;2009-04-04 10:00;CYQB 041000Z 08014G24KT 4SM -RA BR OVC002 03/02 A2914 RMK SF8 SLP871

CYQB;2009-04-04 11:00;CYQB 041100Z 08011G20KT 3SM -RA BR OVC002 03/02 A2916 RMK SF8 SLP875

CYQB;2009-04-04 12:00;CYQB 041200Z 09009G16KT 1 1/4SM -RA BR OVC003 02/01 A2917 RMK SF8 SLP880

CYQB;2009-04-04 13:00;CYQB 041300Z 09010KT 1 1/2SM -RA BR OVC002 03/01 A2918 RMK SF8 SLP885

CYQB;2009-04-04 14:00;CYQB 041400Z 14006KT 2SM -RA BR OVC002 03/02 A2921 RMK SF8 SLP895

CYQB;2009-04-04 15:00;CYQB 041500Z 11007KT 3SM -RA BR OVC005 03/01 A2922 RMK SF8 SLP898

CYQB;2009-04-04 16:00;CYQB 041600Z 12005KT 3SM BR OVC006 03/01 A2923 RMK SF8 SLP902

CYQB;2009-04-04 16:33;CYQB 041633Z 11005KT 3SM -DZ BR OVC003 03/ RMK ST8

CYQB;2009-04-04 17:00;CYQB 041700Z 07003KT 3SM -DZ BR OVC004 03/02 A2924 RMK ST8 CIG VRB 3-5 OBS TAKEN +10 SLP903

CYQB;2009-04-04 18:00;CYQB 041800Z 00000KT 1 1/2SM -DZ BR OVC005 03/02 A2924 RMK ST8 SLP904

CYQB;2009-04-04 18:48;CYQB 041848Z 11005KT 1 1/2SM -DZ BR OVC003 03/ RMK FG3ST5 CIG VRB 2-4

CYQB;2009-04-04 19:00;CYQB 041900Z 10003KT 1 1/2SM -DZ BR OVC003 03/02 A2925 RMK FG3ST5 CIG VRB 2-4 SLP906

CYQB;2009-04-04 20:00;CYQB 042000Z 10003KT 1SM R06/6000FT/U -DZ BR OVC003 03/02 A2926 RMK FG3ST5 CIG VRB 2-4 SLP911

CYQB;2009-04-04 21:00;CYQB 042100Z 11004KT 3/4SM R06/P6000FT/U -DZ BR OVC003 03/01 A2928 RMK FG3ST5 SLP916

CYQB;2009-04-04 22:00;CYQB 042200Z 00000KT 1SM R06/P6000FT/N -DZ BR BKN003 OVC008 03/02 A2930 RMK FG3ST4SC1 SLP923

CYQB;2009-04-04 22:43;CYQB 042243Z 10002KT 1SM R06/P6000FT/U -RA BR OVC003 03/ RMK FG3ST5 CIG VRB 2-4

CYQB;2009-04-04 23:00;CYQB 042300Z 09002KT 1SM R06/P6000FT/N -DZ BR OVC003 03/01 A2931 RMK FG3ST5 CUG VRB 2-4 INTMT -RA SLP929

CYQB;2009-04-05 00:00;CYQB 050000Z 18003KT 3/4SM R06/P6000FT/U -RA BR OVC005 02/01 A2935 RMK FG3ST5 SLP942

CYQB;2009-04-05 00:32;CYQB 050032Z 17002KT 1/2SM R06/P6000FT/N -RA FG SCT002 OVC006 02/ RMK FG3SF1ST4

CYQB;2009-04-05 01:00;CYQB 050100Z 15004KT 1 1/2SM -RA BR OVC003 02/01 A2938 RMK FG3ST5 CIG VRB 2-4 SLP951

CYQB;2009-04-05 01:23;CYQB 050123Z 16002KT 2 1/2SM -RA BR BKN003 OVC008 02/ RMK FG2SF5SC2

CYQB;2009-04-05 02:00;CYQB 050200Z 17002KT 3SM -RA BR SCT002 OVC007 02/01 A2938 RMK SF4ST4 SLP951

CYQB;2009-04-05 02:46;CYQB 050246Z 00000KT 1SM R06/P6000FT/U -RA BR VV002 02/ RMK FG8

CYQB;2009-04-05 03:00;CYQB 050300Z 13002KT 3/4SM R06/P6000FT/U -RA BR VV002 02/01 A2939 RMK FG8 SLP954

CYQB;2009-04-05 03:44;CYQB 050344Z 09003KT 2SM -RA BR SCT002 OVC005 02/ RMK SF3SF5

CYQB;2009-04-05 04:00;CYQB 050400Z 10004KT 2SM -RA BR SCT002 OVC005 02/00 A2939 RMK SF4SF4 SLP957

CYQB;2009-04-05 04:52;CYQB 050452Z 11002KT 1 1/2SM -RA BR BKN002 OVC004 02/ RMK SF5SF3

CYQB;2009-04-05 05:00;CYQB 050500Z 00000KT 1 1/2SM -RA BR BKN002 OVC004 02/00 A2940 RMK SF5SF3 SLP960

CYQB;2009-04-05 06:00;CYQB 050600Z 00000KT 1 1/2SM -RA BR BKN002 OVC004 02/01 A2942 RMK SF5SF3 SLP964

CYQB;2009-04-05 07:00;CYQB 050700Z 00000KT 2SM -RA BR SCT003 OVC006 02/00 A2943 RMK SF4ST4 OBS TAKEN +26 SLP968

CYQB;2009-04-05 08:00;CYQB 050800Z 00000KT 1 1/2SM -DZ BR BKN002 OVC008 02/00 A2944 RMK FG2SF4ST2 SLP971

CYQB;2009-04-05 09:00;CYQB 050900Z 11002KT 1 1/2SM -DZ BR BKN002 OVC007 02/00 A2945 RMK FG2SF5ST2 SLP975

CYQB;2009-04-05 10:00;CYQB 051000Z 06003KT 1 1/4SM -DZ BR OVC002 02/00 A2946 RMK FG2ST6 SLP980

CYQB;2009-04-05 11:00;CYQB 051100Z 00000KT 1 1/2SM -DZ BR BKN002 OVC008 02/00 A2948 RMK SF6ST2 SLP987

CYQB;2009-04-05 11:28;CYQB 051128Z 00000KT 1SM R06/3000FT/N -RA BR BKN001 OVC007 02/ RMK FG2SF5ST1

CYQB;2009-04-05 12:00;CYQB 051200Z 00000KT 1 1/4SM R06/3000V4000FT/U -RA BR BKN002 BKN007 OVC014 01/M00 A2950 RMK SF6SF1SC1 SLP994

CYQB;2009-04-05 12:40;CYQB 051240Z 00000KT 1 1/2SM BR SCT002 SCT007 OVC011 02/ RMK SF4SF1SC4

CYQB;2009-04-05 13:00;CYQB 051300Z 00000KT 3SM BR FEW007 OVC011 02/00 A2952 RMK SF2SC6 SLP999

CYQB;2009-04-05 13:18;CYQB 051318Z 00000KT 3SM -RA BR FEW007 OVC011 02/ RMK SF2SC6

CYQB;2009-04-05 14:00;CYQB 051400Z 19002KT 3SM -RA BR FEW002 OVC009 02/01 A2953 RMK SF1SC8 SLP004

CYQB;2009-04-05 14:43;CYQB 051443Z 19003KT 1 3/4SM -RA BR FEW002 BKN006 OVC009 02/ RMK SF1SF6SC2

CYQB;2009-04-05 15:00;CYQB 051500Z 22003KT 2SM -RA BR FEW002 OVC005 03/01 A2953 RMK SF2SC6 SLP004

CYQB;2009-04-05 16:00;CYQB 051600Z 23003KT 1 1/2SM -RA BR OVC002 03/02 A2953 RMK ST8 SLP004

CYQB;2009-04-05 16:41;CYQB 051641Z 24006KT 2SM BR FEW002 FEW010 BKN022 OVC035 05/ RMK SF1SF1SC5SC2 VIS S-N 8

CYQB;2009-04-05 17:00;CYQB 051700Z CCA 25007KT 10SM VCFG FEW002 BKN022 OVC040 06/04 A2953 RMK SF1SC6SC2 VIS N-SE 2 SLP003

CYQB;2009-04-05 18:00;CYQB 051800Z 24011KT 12SM SCT020 OVC065 06/04 A2954 RMK SF3SC5 VIS LWR E SLP005

CYQB;2009-04-05 19:00;CYQB 051900Z CCA 29005KT 4SM BR PRFG BKN017 OVC025 04/03 A2959 RMK FG1SC6SC1 VIS S 10 VIS NW-NE 2 SLP021

CYQB;2009-04-05 20:00;CYQB 052000Z CCA 29005KT 4SM BR PRFG BKN017 OVC025 04/03 A2959 RMK FG1SC6SC1 VIS S 10 VIS NW-NE 2 SLP021

CYQB;2009-04-05 21:00;CYQB 052100Z 08006KT 4SM -RA BR BKN009 OVC020 02/01 A2961 RMK SF6SC2 VIS LWR S SLP030

CYQB;2009-04-05 22:00;CYQB 052200Z 08008KT 5SM -RA BR SCT004 OVC007 02/00 A2964 RMK SF3SC5 SLP039

CYQB;2009-04-05 23:00;CYQB 052300Z 10005KT 5SM -RA BR SCT004 OVC009 02/M00 A2966 RMK SF3SC5 SLP046

CYQB;2009-04-06 00:00;CYQB 060000Z 07003KT 6SM -RA BR OVC005 02/00 A2968 RMK SF8 PCPN VRY LGT SLP053

CYQB;2009-04-06 00:13;CYQB 060013Z 09004KT 6SM BR SCT005 OVC007 02/ RMK SF4SC4

CYQB;2009-04-06 01:00;CYQB 060100Z 05003KT 6SM BR SCT005 OVC011 02/00 A2970 RMK SF4SC4 SLP060

CYQB;2009-04-06 02:00;CYQB 060200Z 06002KT 10SM BKN005 OVC011 02/00 A2972 RMK SF5SC3 SLP067

CYQB;2009-04-06 03:00;CYQB 060300Z 09003KT 10SM BKN005 OVC011 02/M00 A2972 RMK SF5SC3 SLP068

CYQB;2009-04-06 03:33;CYQB 060333Z 09003KT 5SM -RASN SCT005 OVC008 01/ RMK SF4ST4

CYQB;2009-04-06 04:00;CYQB 060400Z 05007KT 2SM -RA BR FEW002 BKN005 OVC014 01/M00 A2971 RMK SF2SF5SC2 INTMT -SN SLP063

CYQB;2009-04-06 04:41;CYQB 060441Z 07004KT 10SM FEW002 SCT005 OVC014 01/ RMK SF1SF3SC4 INTMT -RA

CYQB;2009-04-06 05:00;CYQB 060500Z 00000KT 10SM SCT005 OVC015 01/M00 A2973 RMK SF3SC5 SLP070

CYQB;2009-04-06 05:32;CYQB 060532Z 00000KT 10SM SCT005 BKN010 OVC018 01/ RMK SF3SC4SC1

CYQB;2009-04-06 05:47;CYQB 060547Z 00000KT 8SM OVC005 01/ RMK SF8

CYQB;2009-04-06 06:00;CYQB 060600Z 09002KT 8SM OVC005 01/M00 A2973 RMK SF8 SLP071

CYQB;2009-04-06 06:28;CYQB 060628Z 30002KT 6SM BR OVC004 01/ RMK SF8

CYQB;2009-04-06 07:00;CYQB 060700Z 00000KT 4SM BR OVC004 01/M00 A2974 RMK SF8 VIS W 2 SLP074

CYQB;2009-04-06 07:52;CYQB 060752Z 04002KT 2SM BR FEW002 BKN004 OVC008 01/ RMK SF2SF4SF2

CYQB;2009-04-06 08:00;CYQB 060800Z 04002KT 2SM BR FEW002 BKN004 OVC009 01/M00 A2974 RMK SF2SF4SF2 SLP075

CYQB;2009-04-06 08:33;CYQB 060833Z 05002KT 5SM BR FEW004 BKN007 OVC079 01/ RMK SF2SF4AC2

CYQB;2009-04-06 09:00;CYQB 060900Z 03002KT 8SM BKN009 OVC079 01/M00 A2973 RMK SF7AC1 SLP071

CYQB;2009-04-06 09:45;CYQB 060945Z 00000KT 10SM BKN012 OVC079 01/ RMK SF7AC1

CYQB;2009-04-06 10:00;CYQB 061000Z 08003KT 10SM VCFG BKN013 OVC080 01/M00 A2974 RMK SF6AC2 SLP073

CYQB;2009-04-06 10:39;CYQB 061039Z 10003KT 6SM BR SCT007 OVC014 01/ RMK SF2SC6

CYQB;2009-04-06 11:00;CYQB 061100Z 09003KT 6SM BR BKN007 OVC013 01/M00 A2975 RMK SF3SC5 VIS NE 3 SLP076

CYQB;2009-04-06 11:23;CYQB 061123Z 09003KT 6SM BR BKN005 OVC012 01/M03 RMK SF5SC3

CYQB;2009-04-06 12:00;CYQB 061200Z 09006KT 6SM BR BKN005 OVC012 02/M00 A2973 RMK SF6SC2 SLP072

CYQB;2009-04-06 13:00;CYQB 061300Z 09005KT 15SM BKN006 OVC021 02/M00 A2975 RMK SF6SC2 SLP076

CYQB;2009-04-06 13:40;CYQB 061340Z 09007KT 15SM FEW006 SCT012 BKN023 OVC040 02/ RMK SF2SC2SC3SC2

CYQB;2009-04-06 14:00;CYQB 061400Z 08007KT 15SM FEW006 SCT011 OVC025 03/M00 A2976 RMK SF1SC4SC4 SLP080

CYQB;2009-04-06 15:00;CYQB 061500Z 07011G16KT 30SM SCT012 OVC024 03/M00 A2975 RMK SC2SC6 SLP077

CYQB;2009-04-06 16:00;CYQB 061600Z 07015G22KT 30SM SCT013 BKN020 BKN060 04/M00 A2971 RMK SC2SC3SC2 SLP064

CYQB;2009-04-06 17:00;CYQB 061700Z 07017G25KT 30SM FEW020 BKN037 OVC120 04/M01 A2968 RMK SC2SC4AC2 SLP053

CYQB;2009-04-06 18:00;CYQB 061800Z 07020G27KT 30SM FEW020 BKN035 OVC120 05/M01 A2966 RMK SC1SC4AC3 SLP048

CYQB;2009-04-06 19:00;CYQB 061900Z 07017G25KT 30SM FEW020 BKN081 OVC140 04/M01 A2962 RMK SC2AC5AC2 SLP034

CYQB;2009-04-06 20:00;CYQB 062000Z CCA 08017G25KT 15SM -SHRA FEW020 BKN059 OVC100 03/M01 A2956 RMK SC1SC5AC2 PRESFR SLP012

CYQB;2009-04-06 21:00;CYQB 062100Z 08016G21KT 15SM -SHRA FEW020 BKN060 OVC090 03/M01 A2955 RMK SC1SC5AC2 SLP010

CYQB;2009-04-06 22:00;CYQB 062200Z 09015G24KT 7SM -RA FEW020 BKN041 OVC090 03/M00 A2959 RMK SC2SC6AC1 SLP023

CYQB;2009-04-06 23:00;CYQB 062300Z 07018G26KT 4SM -RA BR FEW015 OVC024 02/M00 A2956 RMK SF1SC7 SLP011

CYQB;2009-04-07 00:00;CYQB 070000Z 07021G33KT 4SM -RA BR OVC014 02/00 A2950 RMK SC8 SLP994

CYQB;2009-04-07 00:33;CYQB 070033Z 07025G33KT 3SM -RASN BR OVC007 01/ RMK SF8

CYQB;2009-04-07 01:00;CYQB 070100Z 07021G32KT 2SM -RASN BR OVC006 01/M00 A2947 RMK SF8 SLP983

CYQB;2009-04-07 02:00;CYQB 070200Z 07025G32KT 5SM -RA BR FEW006 BKN012 OVC026 02/00 A2941 RMK SF2SC3SC2 PRESFR SLP961

CYQB;2009-04-07 03:00;CYQB 070300Z 07021G37KT 5SM -RA BR FEW010 BKN015 OVC026 02/01 A2934 RMK SF1SC5SC2 PRESFR SLP940

CYQB;2009-04-07 04:00;CYQB 070400Z 08020G39KT 5SM RA BR BKN010 OVC022 02/01 A2931 RMK SF6SC2 SLP930

CYQB;2009-04-07 05:00;CYQB 070500Z 08012G27KT 4SM  BR FEW008 BKN012 OVC022 02/00 A2930 RMK SF1SC6SC2 SLP926

CYQB;2009-04-07 05:34;CYQB 070534Z CCA 07018G29KT 3SM -RASNPL BR BKN009 BKN015 OVC022 02/ RMK SF5SC2SC1

CYQB;2009-04-07 06:00;CYQB 070600Z 07022G29KT 3SM -SNPL BKN008 OVC015 02/00 A2926 RMK SF6SC2 SLP910

CYQB;2009-04-07 07:00;CYQB 070700Z CCA 07023G30KT 2 1/2SM -RAPL BR BKN007 OVC015 02/01 A2921 RMK SF6SC2 SLP894

CYQB;2009-04-07 08:00;CYQB 070800Z 07023G32KT 5SM -RAPL BR SCT007 BKN015 OVC024 02/01 A2918 RMK SF3SC2SC2 SLP884

CYQB;2009-04-07 09:00;CYQB 070900Z 07015G33KT 4SM -RA BR BKN007 OVC015 02/00 A2916 RMK SF6SC2 SLP876

CYQB;2009-04-07 10:00;CYQB 071000Z 08016G21KT 4SM -RA BR BKN006 OVC015 02/00 A2915 RMK SF7SC1 SLP874

CYQB;2009-04-07 11:00;CYQB 071100Z 09012G21KT 4SM -RA BR BKN006 OVC015 02/00 A2914 RMK SF7SC1 SLP872

CYQB;2009-04-07 12:00;CYQB 071200Z 10012G20KT 5SM -RA BR BKN007 BKN015 OVC027 02/00 A2915 RMK SF7SC1SC1 SLP874

CYQB;2009-04-07 13:00;CYQB 071300Z 07014G25KT 3SM -RASN BR BKN007 OVC017 02/01 A2914 RMK SF7SC1 SLP869

CYQB;2009-04-07 14:00;CYQB 071400Z 09010G19KT 5SM -RA BR BKN007 OVC016 03/01 A2914 RMK SF7SC1 SLP870

CYQB;2009-04-07 15:00;CYQB 071500Z 08009G18KT 4SM -RA BR BKN005 OVC020 03/01 A2913 RMK SF7SC1 SLP868

CYQB;2009-04-07 16:00;CYQB 071600Z 09009G16KT 4SM -RA BR OVC004 03/01 A2913 RMK SF8 CIG VRB 3-6 SLP868

CYQB;2009-04-07 17:00;CYQB 071700Z 09009KT 4SM -RA BR BKN004 OVC019 03/01 A2914 RMK SF7SC1 SLP869

CYQB;2009-04-07 18:00;CYQB 071800Z 12012KT 2SM -RA BR OVC005 03/01 A2915 RMK SF8 SLP875

CYQB;2009-04-07 19:00;CYQB 071900Z 09010KT 2SM -RA BR BKN005 OVC012 02/01 A2916 RMK SF7SC1 SLP877

CYQB;2009-04-07 19:04;CYQB 071904Z 10008KT 2SM -RASN BR OVC006 02/ RMK SF8

CYQB;2009-04-07 19:15;CYQB 071915Z 10007KT 2SM -RA BR OVC009 02/ RMK SF8

CYQB;2009-04-07 20:00;CYQB 072000Z 11008KT 2SM -RASN BR BKN005 OVC014 02/00 A2917 RMK SF7SC1 SLP882

CYQB;2009-04-07 20:31;CYQB 072031Z 10006KT 2SM -RA BR OVC007 02/ RMK SF8

CYQB;2009-04-07 21:00;CYQB 072100Z 09004KT 1 1/2SM -RA BR OVC006 02/00 A2919 RMK SF8 SLP888

CYQB;2009-04-07 22:00;CYQB 072200Z 23002KT 1 1/2SM -RA BR OVC006 02/00 A2922 RMK SF8 SLP896

CYQB;2009-04-07 22:08;CYQB 072208Z 25004KT 3SM -RA BR OVC006 02/ RMK SF8

CYQB;2009-04-07 23:00;CYQB 072300Z 25011G17KT 5SM -RA BR SCT008 OVC012 02/M00 A2923 RMK SF4SC4 SLP901

CYQB;2009-04-07 23:30;CYQB 072330Z 24012KT 5SM -SN SCT008 OVC013 01/ RMK SF4SC4

CYQB;2009-04-08 00:00;CYQB 080000Z 23012KT 2SM -SN OVC011 01/M01 A2926 RMK SC8 SLP911

CYQB;2009-04-08 01:00;CYQB 080100Z 25012KT 2 1/2SM -SN OVC015 00/M02 A2928 RMK SC8 SLP917

CYQB;2009-04-08 02:00;CYQB 080200Z 25017KT 2 1/2SM -SN OVC015 M00/M02 A2929 RMK SC8 SLP922

CYQB;2009-04-08 03:00;CYQB 080300Z 25012G17KT 2 1/2SM -SN OVC010 M00/M03 A2930 RMK SC8 SLP926

CYQB;2009-04-08 03:37;CYQB 080337Z 24010KT 2 1/2SM -SN SCT005 OVC008 M00/ RMK SF3SC5

CYQB;2009-04-08 03:50;CYQB 080350Z 23007KT 1 1/2SM -SN BKN004 OVC008 M01/ RMK SF6SC2

CYQB;2009-04-08 04:00;CYQB 080400Z 22010G15KT 1 1/2SM -SN BKN004 OVC008 M01/M02 A2931 RMK SF5SC3 SLP927

CYQB;2009-04-08 04:13;CYQB 080413Z 22007KT 1 1/2SM -SN SCT004 OVC009 M01/ RMK SF4SC4

CYQB;2009-04-08 05:00;CYQB 080500Z 22011KT 1 1/2SM -SN SCT005 OVC009 M01/M03 A2931 RMK SF4SC4 /S01/ SLP928

CYQB;2009-04-08 06:00;CYQB 080600Z CCA 22009G15KT 1 1/2SM -SN SCT006 OVC010 M01/M03 A2931 RMK SN2SF2SC4 /S02/ SLP927

CYQB;2009-04-08 07:00;CYQB 080700Z 23012KT 2 1/2SM -SN BKN011 OVC017 M01/M03 A2930 RMK SC5SC3 SLP926

CYQB;2009-04-08 08:00;CYQB 080800Z 23011KT 4SM -SN FEW006 OVC012 M01/M03 A2931 RMK SF2SC6 SLP928

CYQB;2009-04-08 09:00;CYQB 080900Z 23015KT 3SM -SN FEW008 OVC014 M01/M03 A2932 RMK SF2SC6 SLP932

CYQB;2009-04-08 10:00;CYQB 081000Z 24013KT 3SM -SN FEW008 OVC016 M01/M04 A2933 RMK SF2SC6 SLP935

CYQB;2009-04-08 11:00;CYQB 081100Z 24019KT 4SM -SN FEW008 OVC015 M01/M04 A2934 RMK SF2SC6 SLP940

CYQB;2009-04-08 12:00;CYQB 081200Z 24017KT 4SM -SN SCT010 OVC013 M01/M04 A2938 RMK SF4SC4 SLP951

CYQB;2009-04-08 12:28;CYQB 081228Z 24014G20KT 5SM -SHSN FEW003 BKN015 BKN035 M01/ RMK SF2SC5SC1

CYQB;2009-04-08 13:00;CYQB 081300Z 25013G21KT 5SM -SHSN FEW003 BKN014 BKN035 M01/M04 A2938 RMK SF2SC5SC1 SLP953

CYQB;2009-04-08 14:00;CYQB 081400Z 25017KT 6SM -SHSN FEW003 BKN015 OVC035 M00/M04 A2939 RMK SF1SC5SC2 VIS 2 N SLP957

CYQB;2009-04-08 15:00;CYQB 081500Z 23017KT 1 1/2SM -SHSN BKN008 OVC015 M01/M03 A2940 RMK SF6SC2 SLP959

CYQB;2009-04-08 15:36;CYQB 081536Z 24015G20KT 3SM -SHSN SCT008 OVC030 M00/ RMK SF4SC4 VIS LWR N

CYQB;2009-04-08 16:00;CYQB 081600Z 25012G19KT 6SM -SHSN FEW008 BKN028 00/M03 A2940 RMK SF2SC5 SLP959

CYQB;2009-04-08 17:00;CYQB 081700Z 25014G21KT 3SM -SHSN FEW008 OVC024 00/M04 A2941 RMK SF2SC6 SLP962

CYQB;2009-04-08 18:00;CYQB 081800Z 23009G17KT 8SM -SHSN SCT010 OVC033 01/M03 A2942 RMK SF3SC5 SLP966

CYQB;2009-04-08 19:00;CYQB 081900Z 23013G18KT 10SM -SHSN SCT010 OVC030 01/M03 A2943 RMK SF3SC5 VIS LWR N SLP968

CYQB;2009-04-08 20:00;CYQB 082000Z 23005KT 8SM -SHSN FEW010 OVC038 01/M03 A2943 RMK SF2SC6 SLP969

CYQB;2009-04-08 21:00;CYQB 082100Z 25012KT 6SM -SN FEW015 OVC035 02/M04 A2944 RMK SF2SC6 SLP972

CYQB;2009-04-08 21:40;CYQB 082140Z 24011G18KT 2SM -SN BR BKN011 OVC027 01/ RMK SF5SC3

CYQB;2009-04-08 22:00;CYQB 082200Z 22007KT 2SM -SN BR BKN015 OVC032 01/M02 A2946 RMK SF5SC3 SLP978

CYQB;2009-04-08 23:00;CYQB 082300Z 23007KT 1 1/2SM -SN BR BKN009 OVC022 01/M02 A2947 RMK SF5SC3 SLP982

CYQB;2009-04-08 23:43;CYQB 082343Z 19005KT 3SM -SN BR BKN011 OVC022 00/ RMK SF6SC2

CYQB;2009-04-09 00:00;CYQB 090000Z 20006KT 3SM -SN BR BKN016 OVC024 01/M01 A2948 RMK SF5SC3 SLP987

CYQB;2009-04-09 01:00;CYQB 090100Z 23009KT 4SM -SN FEW015 OVC023 01/M02 A2950 RMK SF2SC6 SLP992

CYQB;2009-04-09 02:00;CYQB 090200Z 23011KT 4SM -SN BKN015 OVC089 01/M01 A2950 RMK SF5AC3 SLP993

CYQB;2009-04-09 03:00;CYQB 090300Z 23012KT 4SM -SN BKN015 OVC030 01/M02 A2950 RMK SF6SC2 SLP995

CYQB;2009-04-09 04:00;CYQB 090400Z 22013KT 2SM -SN OVC016 01/M01 A2951 RMK SF8 SLP997

CYQB;2009-04-09 05:00;CYQB 090500Z 22013KT 2SM -SN BKN015 BKN026 OVC050 01/M02 A2952 RMK SF5SC2SC2 SLP001

CYQB;2009-04-09 05:35;CYQB 090535Z 23011KT 4SM -SN FEW015 BKN026 BKN055 01/ RMK SF1SC4SC1

CYQB;2009-04-09 06:00;CYQB 090600Z 23009KT 4SM -SN FEW015 SCT027 BKN050 01/M02 A2952 RMK SF1SC3SC2 SLP001

CYQB;2009-04-09 07:00;CYQB 090700Z 25005KT 6SM -SN FEW008 SCT030 BKN050 00/M03 A2952 RMK SF1SC3SC1 SLP000

CYQB;2009-04-09 08:00;CYQB 090800Z 22008KT 10SM -SN FEW008 BKN044 01/M03 A2952 RMK SF1SC6 SLP000

CYQB;2009-04-09 08:30;CYQB 090830Z 23006KT 15SM BKN051 01/ RMK SC7

CYQB;2009-04-09 09:00;CYQB 090900Z 24009KT 15SM BKN047 01/M04 A2953 RMK SC7 SLP002

CYQB;2009-04-09 10:00;CYQB 091000Z 23008KT 15SM FEW045 BKN073 01/M04 A2954 RMK SC2AC5 SLP007

CYQB;2009-04-09 10:54;CYQB 091054Z 23008KT 15SM -SN SCT050 BKN070 01/ RMK SC4AC3

CYQB;2009-04-09 11:00;CYQB 091100Z 23008KT 15SM -SN BKN047 BKN070 01/M03 A2956 RMK SC5AC2 SLP013

CYQB;2009-04-09 12:00;CYQB 091200Z 24012KT 15SM -SN OVC029 02/M03 A2958 RMK SC8 SLP019

CYQB;2009-04-09 12:26;CYQB 091226Z 23018KT 2 1/2SM -SN BR OVC021 02/ RMK SC8 VIS HIER S

CYQB;2009-04-09 12:49;CYQB 091249Z 24014G21KT 1 1/2SM -SN BR OVC021 01/ RMK SC8

CYQB;2009-04-09 13:00;CYQB 091300Z 25011KT 1 1/2SM -SN BR VV015 01/M02 A2959 RMK SN8 SLP024

CYQB;2009-04-09 14:00;CYQB 091400Z 25015G20KT 2 1/2SM -SN BR BKN019 02/M01 A2961 RMK SC7 SLP030

CYQB;2009-04-09 14:43;CYQB 091443Z 25013G18KT 2SM -SN BR SCT007 OVC015 02/ RMK SC4SC4

CYQB;2009-04-09 15:00;CYQB 091500Z 24014KT 2SM -SN BR SCT008 OVC012 02/M00 A2963 RMK SC4SC4 SLP036

CYQB;2009-04-09 15:29;CYQB 091529Z 25012G17KT 3SM -SN BR SCT009 BKN013 OVC026 02/ RMK SF3SC3SC2

CYQB;2009-04-09 16:00;CYQB 091600Z 25012KT 6SM -RA BR BKN012 BKN020 03/00 A2964 RMK SC6SC1 SLP041

CYQB;2009-04-09 16:33;CYQB 091633Z 24013KT 4SM -RASN BR SCT008 BKN012 OVC022 03/ RMK SC3SC3SC2 VIS HIER S

CYQB;2009-04-09 17:00;CYQB 091700Z 26011KT 4SM -RASN BR SCT010 BKN016 OVC025 02/M00 A2966 RMK SC3SC3SC2 SLP047

CYQB;2009-04-09 18:00;CYQB 091800Z 27012KT 8SM -SN FEW012 OVC034 02/M01 A2968 RMK SC2SC6 MT OBSC SLP054

CYQB;2009-04-09 19:00;CYQB 091900Z 26009KT 10SM FEW013 OVC045 03/M00 A2970 RMK SC2SC6 SLP059

CYQB;2009-04-09 20:00;CYQB 092000Z 24010KT 15SM VCSH SCT012 OVC048 03/M01 A2971 RMK SC3SC5 SLP064

CYQB;2009-04-09 20:33;CYQB 092033Z 27012KT 6SM -RASN BKN016 OVC048 03/ RMK SC6SC2

CYQB;2009-04-09 21:00;CYQB 092100Z 29006KT 6SM -RASN FEW015 BKN024 OVC048 02/M01 A2974 RMK SC2SC4SC2 SLP074

CYQB;2009-04-09 22:00;CYQB 092200Z 24009KT 15SM FEW015 BKN028 BKN060 02/M00 A2977 RMK SC2SC5SC1 SLP083

CYQB;2009-04-09 23:00;CYQB 092300Z 27008KT 15SM FEW018 BKN045 BKN065 03/M02 A2979 RMK SC1SC5SC2 SLP091

CYQB;2009-04-10 00:00;CYQB 100000Z 31006KT 15SM BKN048 BKN075 02/M02 A2982 RMK SC5AC2 SLP101

CYQB;2009-04-10 01:00;CYQB 100100Z 29010G16KT 10SM -SN OVC039 02/M03 A2985 RMK SC8 SLP111

CYQB;2009-04-10 02:00;CYQB 100200Z 28004KT 10SM -SN OVC047 01/M03 A2986 RMK SC8 SLP116

CYQB;2009-04-10 03:00;CYQB 100300Z 26005KT 15SM OVC056 01/M03 A2988 RMK SC8 SLP121

CYQB;2009-04-10 04:00;CYQB 100400Z 23006KT 15SM -SN OVC060 01/M03 A2988 RMK SC7 SLP122

CYQB;2009-04-10 05:00;CYQB 100500Z 23004KT 15SM FEW040 BKN070 BKN095 00/M03 A2988 RMK SC2AC4AC1 SLP123

CYQB;2009-04-10 06:00;CYQB 100600Z 25005KT 15SM SCT090 M01/M03 A2990 RMK AC3 SLP129

CYQB;2009-04-10 07:00;CYQB 100700Z 24006KT 15SM FEW065 SCT085 M01/M04 A2991 RMK SC2AC2 SLP132

CYQB;2009-04-10 08:00;CYQB 100800Z 31002KT 30SM FEW065 FEW085 M02/M04 A2992 RMK SC1AC1 SLP135

CYQB;2009-04-10 09:00;CYQB 100900Z 32002KT 30SM FEW040 FEW080 FEW170 M01/M06 A2994 RMK SC1AC1AC1 SLP141

CYQB;2009-04-10 10:00;CYQB 101000Z 28002KT 30SM SCT048 BKN170 OVC230 M02/M06 A2995 RMK SC3AC1CI2 SLP147

CYQB;2009-04-10 11:00;CYQB 101100Z 29003KT 30SM FEW025 BKN049 BKN230 M01/M07 A2998 RMK SC1SC6CI1 SLP156

CYQB;2009-04-10 12:00;CYQB 101200Z 31003KT 15SM FEW025 SCT050 BKN230 M01/M07 A3000 RMK SC2SC2CI0 SLP162

CYQB;2009-04-10 13:00;CYQB 101300Z 31005KT 30SM FEW023 SCT050 BKN230 M00/M08 A3002 RMK SC2SC2CI0 SLP168

CYQB;2009-04-10 14:00;CYQB 101400Z 25005KT 30SM FEW030 FEW220 01/M06 A3003 RMK CU2CI1 SLP174

CYQB;2009-04-10 15:00;CYQB 101500Z 28007KT 30SM SCT030 SCT220 01/M06 A3004 RMK SC3CI0 SLP175

CYQB;2009-04-10 16:00;CYQB 101600Z 26010G16KT 30SM SCT030 SCT230 02/M06 A3003 RMK SC4CI1 SLP174

CYQB;2009-04-10 17:00;CYQB 101700Z 30013KT 30SM SCT040 SCT140 02/M06 A3004 RMK SC4AC1 SLP176

CYQB;2009-04-10 18:00;CYQB 101800Z 28010G20KT 30SM BKN040 02/M05 A3006 RMK SC6 VIRGA E SLP181

CYQB;2009-04-10 19:00;CYQB 101900Z 34010G15KT 30SM BKN040 03/M06 A3005 RMK SC5 VIRGA E SLP180

CYQB;2009-04-10 20:00;CYQB 102000Z 32010KT 30SM SCT045 04/M05 A3006 RMK SC3 SLP182

CYQB;2009-04-10 21:00;CYQB 102100Z 35006KT 30SM SCT045 04/M06 A3005 RMK SC4 SLP180

CYQB;2009-04-10 22:00;CYQB 102200Z 36003KT 30SM BKN056 04/M06 A3006 RMK SC6 SLP184

CYQB;2009-04-10 23:00;CYQB 102300Z 35004KT 30SM BKN047 04/M06 A3007 RMK SC6 SLP186

CYQB;2009-04-11 00:00;CYQB 110000Z 36003KT 30SM BKN056 03/M06 A3008 RMK SC6 SLP189

CYQB;2009-04-11 01:00;CYQB 110100Z 02002KT 30SM BKN057 03/M06 A3008 RMK SC5 SLP190

CYQB;2009-04-11 01:48;CYQB 110148Z 36004KT 30SM BKN057 02/ RMK SC5

CYQB;2009-04-11 02:00;CYQB 110200Z 35004KT 15SM BKN057 02/M05 A3008 RMK SC6 SLP189

CYQB;2009-04-11 03:00;CYQB 110300Z 00000KT 15SM BKN057 01/M04 A3008 RMK SC6 SLP191

CYQB;2009-04-11 04:00;CYQB 110400Z 36003KT 15SM FEW057 01/M06 A3008 RMK SC2 SLP191

CYQB;2009-04-11 05:00;CYQB 110500Z 00000KT 15SM BKN059 M00/M06 A3008 RMK SC5 SLP191

CYQB;2009-04-11 06:00;CYQB 110600Z 36002KT 15SM SCT056 M01/M05 A3007 RMK SC3 SLP187

CYQB;2009-04-11 07:00;CYQB 110700Z 02003KT 15SM FEW059 M02/M06 A3007 RMK SC1 SLP185

CYQB;2009-04-11 08:00;CYQB 110800Z 02004KT 15SM FEW059 M02/M07 A3006 RMK SC1 SLP184

CYQB;2009-04-11 09:00;CYQB 110900Z 02005KT 15SM FEW059 M03/M07 A3006 RMK SC1 SLP184

CYQB;2009-04-11 10:00;CYQB 111000Z 35003KT 30SM FEW100 M02/M07 A3008 RMK AC1 SLP188

CYQB;2009-04-11 11:00;CYQB 111100Z 34007KT 30SM FEW150 M02/M07 A3008 RMK AC1 SLP190

CYQB;2009-04-11 12:00;CYQB 111200Z 35003KT 30SM FEW150 M01/M07 A3009 RMK AC1 SLP192

CYQB;2009-04-11 13:00;CYQB 111300Z 28005KT 30SM FEW030 01/M07 A3008 RMK CF1 SLP190

CYQB;2009-04-11 14:00;CYQB 111400Z CCA 27002KT 30SM FEW030 03/M04 A3008 RMK SC1 OBS TAKEN +07 SLP189

CYQB;2009-04-11 15:00;CYQB 111500Z 23003KT 30SM FEW030 FEW220 03/M05 A3007 RMK SC1CI1 SLP187

CYQB;2009-04-11 16:00;CYQB 111600Z 22006KT 30SM FEW030 FEW220 05/M05 A3006 RMK SC1CI1 SLP184

CYQB;2009-04-11 17:00;CYQB 111700Z 23009KT 30SM FEW035 FEW220 05/M04 A3003 RMK SC1CI1 SLP173

CYQB;2009-04-11 18:00;CYQB 111800Z 25008KT 30SM FEW035 FEW220 06/M06 A3001 RMK SC1CI0 SLP167

CYQB;2009-04-11 19:00;CYQB 111900Z 28011KT 30SM FEW040 FEW220 06/M05 A3000 RMK CU1CI0 SLP164

CYQB;2009-04-11 20:00;CYQB 112000Z 32008KT 30SM FEW045 FEW220 07/M06 A3000 RMK CU1CI0 SLP164

CYQB;2009-04-11 21:00;CYQB 112100Z 33010G15KT 30SM FEW045 FEW220 06/M06 A3000 RMK SC1CI1 SLP164

CYQB;2009-04-11 22:00;CYQB 112200Z 33011G16KT 30SM FEW045 SCT220 05/M07 A3001 RMK SC2CI1 SLP167

CYQB;2009-04-11 23:00;CYQB 112300Z 34010G16KT 30SM SCT050 SCT220 03/M07 A3003 RMK SC4CI1 SLP173

CYQB;2009-04-11 23:29;CYQB 112329Z 34012G17KT 30SM SCT048 SCT220 02/ RMK SC4CI1

CYQB;2009-04-12 00:00;CYQB 120000Z 34013KT 15SM BKN044 BKN220 02/M08 A3006 RMK SC7CI1 SLP181

CYQB;2009-04-12 01:00;CYQB 120100Z 02013G18KT 15SM BKN042 00/M10 A3007 RMK SC7 SLP187

CYQB;2009-04-12 02:00;CYQB 120200Z 36016KT 15SM OVC049 M01/M12 A3008 RMK SC8 SLP190

CYQB;2009-04-12 03:00;CYQB 120300Z 01012KT 15SM OVC056 M01/M11 A3008 RMK SC8 SLP191

CYQB;2009-04-12 04:00;CYQB 120400Z 36013KT 15SM BKN061 M02/M11 A3007 RMK SC7 SLP187

CYQB;2009-04-12 05:00;CYQB 120500Z 36011KT 15SM FEW043 BKN061 M02/M11 A3006 RMK SC2SC6 SLP183

CYQB;2009-04-12 06:00;CYQB 120600Z 36012KT 15SM BKN050 M02/M11 A3005 RMK SC7 SLP180

CYQB;2009-04-12 07:00;CYQB 120700Z 36015G20KT 15SM OVC052 M02/M11 A3005 RMK SC8 SLP178

CYQB;2009-04-12 08:00;CYQB 120800Z 36015G21KT 15SM OVC063 M02/M11 A3004 RMK SC8 CIG LWR NE SLP176

CYQB;2009-04-12 09:00;CYQB 120900Z 35012G17KT 15SM OVC065 M02/M11 A3003 RMK SC8 SLP174

CYQB;2009-04-12 10:00;CYQB 121000Z 35012G17KT 25SM FEW030 BKN065 M02/M11 A3004 RMK SC1SC6 SLP175

CYQB;2009-04-12 11:00;CYQB 121100Z 35013KT 30SM FEW030 BKN062 M02/M11 A3004 RMK SC1SC6 SLP176

CYQB;2009-04-12 12:00;CYQB 121200Z 36014G19KT 30SM FEW030 SCT060 M03/M11 A3005 RMK SC1SC3 SLP180

CYQB;2009-04-12 13:00;CYQB 121300Z 36011KT 30SM FEW030 BKN060 BKN100 M02/M11 A3005 RMK SC2SC4AC1 SLP180

CYQB;2009-04-12 14:00;CYQB 121400Z 34006KT 30SM FEW030 BKN060 BKN100 00/M09 A3005 RMK SC2SC4AC1 SLP179

CYQB;2009-04-12 15:00;CYQB 121500Z 02014G19KT 30SM FEW030 BKN050 BKN100 02/M10 A3003 RMK SC1SC4AC1 SLP173

CYQB;2009-04-12 16:00;CYQB 121600Z 34018KT 30SM FEW030 SCT050 02/M10 A3002 RMK SC1SC2 SLP169

CYQB;2009-04-12 17:00;CYQB 121700Z 32011G21KT 30SM FEW030 SCT050 03/M05 A3001 RMK SC1SC2 SLP166

CYQB;2009-04-12 18:00;CYQB 121800Z 35013G18KT 15SM FEW030 BKN060 06/M07 A3000 RMK SC1SC4 SLP163

CYQB;2009-04-12 19:00;CYQB 121900Z 34018KT 30SM BKN060 04/M07 A2998 RMK SC6 SLP157

CYQB;2009-04-12 19:17;CYQB 121917Z 36024G29KT 30SM -SHSN BKN060 05/ RMK SC6

CYQB;2009-04-12 19:42;CYQB 121942Z 34016G25KT 30SM BKN060 05/ RMK SC6

CYQB;2009-04-12 20:00;CYQB 122000Z 35018G25KT 30SM BKN060 04/M06 A3000 RMK SC6 SLP161

CYQB;2009-04-12 21:00;CYQB 122100Z 34013G25KT 25SM BKN050 05/M07 A3000 RMK SC5 SLP164

CYQB;2009-04-12 22:00;CYQB 122200Z 34014G29KT 25SM BKN050 04/M06 A3000 RMK SC5 SLP164

CYQB;2009-04-12 23:00;CYQB 122300Z 34016G22KT 25SM FEW050 BKN090 04/M06 A3001 RMK SC1AC4 SLP165

CYQB;2009-04-13 00:00;CYQB 130000Z 34017G26KT 15SM BKN080 03/M06 A3001 RMK AC6 SLP166

CYQB;2009-04-13 01:00;CYQB 130100Z 33013KT 15SM BKN090 03/M06 A3001 RMK AC7 SLP165

CYQB;2009-04-13 01:47;CYQB 130147Z 33017G26KT 15SM BKN100 02/ RMK AC7

CYQB;2009-04-13 02:00;CYQB 130200Z 34018KT 15SM BKN110 02/M06 A2998 RMK AC7 SLP157

CYQB;2009-04-13 03:00;CYQB 130300Z 34019G30KT 15SM SCT087 02/M06 A2995 RMK AC4 SLP147

CYQB;2009-04-13 04:00;CYQB 130400Z 34019G25KT 15SM FEW120 02/M06 A2994 RMK AC2 SLP142

CYQB;2009-04-13 05:00;CYQB 130500Z 33017G25KT 15SM FEW120 01/M07 A2993 RMK AC2 SLP139

CYQB;2009-04-13 06:00;CYQB 130600Z 33006KT 15SM FEW120 01/M07 A2994 RMK AC1 SLP142

CYQB;2009-04-13 07:00;CYQB 130700Z 29008KT 15SM FEW120 M01/M07 A2994 RMK AC1 SLP141

CYQB;2009-04-13 08:00;CYQB 130800Z 31005KT 15SM FEW120 M00/M08 A2994 RMK AC1 SLP142

CYQB;2009-04-13 09:00;CYQB 130900Z 32009G18KT 15SM SKC M01/M08 A2993 RMK SLP140

CYQB;2009-04-13 10:00;CYQB 131000Z 33011G16KT 30SM FEW040 FEW120 M01/M08 A2993 RMK SC1AC1 SLP139

CYQB;2009-04-13 11:00;CYQB 131100Z 34020G28KT 30SM FEW120 M01/M09 A2990 RMK AC1 SLP130

CYQB;2009-04-13 12:00;CYQB 131200Z 33013G27KT 30SM FEW120 M00/M09 A2992 RMK AC1 SLP134

CYQB;2009-04-13 13:00;CYQB 131300Z 32012G24KT 30SM FEW120 FEW210 01/M09 A2992 RMK AC1CI1 SLP134

CYQB;2009-04-13 14:00;CYQB 131400Z 31012G19KT 30SM FEW120 FEW180 03/M09 A2990 RMK AC1CI1 SLP130

CYQB;2009-04-13 15:00;CYQB 131500Z 31015G20KT 30SM FEW120 FEW180 05/M07 A2989 RMK AC1CI1 SLP124

CYQB;2009-04-13 16:00;CYQB 131600Z 33015G27KT 30SM FEW120 FEW180 06/M08 A2988 RMK AC1CI1 AC TR SLP120

CYQB;2009-04-13 17:00;CYQB 131700Z 31020G26KT 30SM FEW120 FEW180 08/M07 A2987 RMK AC1CI1 AC TR SLP119

CYQB;2009-04-13 18:00;CYQB 131800Z 31017G27KT 30SM FEW120 FEW180 09/M09 A2987 RMK AC1CI1 AC TR SLP118

CYQB;2009-04-13 19:00;CYQB 131900Z 33018G27KT 30SM FEW120 FEW190 09/M08 A2986 RMK AC1CI1 SLP115

CYQB;2009-04-13 20:00;CYQB 132000Z 32018G28KT 30SM FEW120 FEW200 09/M09 A2986 RMK AC1CI1 SLP116

CYQB;2009-04-13 21:00;CYQB 132100Z 34015G25KT 30SM FEW120 FEW200 09/M10 A2989 RMK AC1CI0 SLP125

CYQB;2009-04-13 22:00;CYQB 132200Z 34017G28KT 30SM FEW100 FEW200 09/M10 A2992 RMK AC1CI1 SLP134

CYQB;2009-04-13 23:00;CYQB 132300Z 35014G21KT 30SM FEW200 08/M10 A2993 RMK CI1 SLP139

CYQB;2009-04-14 00:00;CYQB 140000Z 31003KT 15SM FEW200 06/M08 A2997 RMK CI1 SLP151

CYQB;2009-04-14 01:00;CYQB 140100Z 32004KT 15SM SKC 04/M09 A2999 RMK SLP158

CYQB;2009-04-14 02:00;CYQB 140200Z 33007KT 15SM SKC 03/M08 A2999 RMK SLP159

CYQB;2009-04-14 03:00;CYQB 140300Z 33008KT 15SM SKC 03/M09 A2999 RMK SLP159

CYQB;2009-04-14 04:00;CYQB 140400Z 32007KT 15SM SKC 02/M08 A3001 RMK SLP165

CYQB;2009-04-14 05:00;CYQB 140500Z 33009KT 15SM SKC 02/M09 A3003 RMK SLP171

CYQB;2009-04-14 06:00;CYQB 140600Z 28003KT 15SM SKC M00/M08 A3004 RMK SLP174

CYQB;2009-04-14 07:00;CYQB 140700Z 29002KT 15SM SKC M01/M07 A3005 RMK SLP177

CYQB;2009-04-14 08:00;CYQB 140800Z 00000KT 15SM SKC M03/M07 A3005 RMK SLP179

CYQB;2009-04-14 09:00;CYQB 140900Z 35003KT 15SM SKC M02/M08 A3006 RMK SLP181

CYQB;2009-04-14 10:00;CYQB 141000Z 00000KT 15SM FEW200 M03/M09 A3007 RMK CI1 SLP186

CYQB;2009-04-14 11:00;CYQB 141100Z 02004KT 30SM SKC M01/M09 A3008 RMK SLP189

CYQB;2009-04-14 12:00;CYQB 141200Z 29003KT 30SM SKC 01/M09 A3009 RMK SLP194

CYQB;2009-04-14 13:00;CYQB 141300Z 32007KT 30SM SKC 03/M09 A3011 RMK SLP198

CYQB;2009-04-14 14:00;CYQB 141400Z 24004KT 30SM SKC 04/M08 A3010 RMK SLP196

CYQB;2009-04-14 15:00;CYQB 141500Z 23010G15KT 30SM SKC 06/M06 A3009 RMK SLP193

CYQB;2009-04-14 16:00;CYQB 141600Z 23010KT 30SM SKC 07/M06 A3008 RMK SLP190

CYQB;2009-04-14 17:00;CYQB 141700Z 21013KT 30SM SKC 08/M06 A3008 RMK SLP188

CYQB;2009-04-14 18:00;CYQB 141800Z 22016G21KT 30SM SKC 09/M07 A3007 RMK SLP185

CYQB;2009-04-14 19:00;CYQB 141900Z 22014G20KT 30SM SKC 10/M06 A3006 RMK SLP181

CYQB;2009-04-14 20:00;CYQB 142000Z 22013G19KT 30SM SKC 10/M07 A3004 RMK SLP177

CYQB;2009-04-14 21:00;CYQB 142100Z 31007KT 30SM SKC 12/M10 A3004 RMK SLP175

CYQB;2009-04-14 22:00;CYQB 142200Z 34011G16KT 30SM SKC 11/M10 A3005 RMK SLP178

CYQB;2009-04-14 23:00;CYQB 142300Z 34011KT 30SM SKC 10/M10 A3007 RMK SLP184

CYQB;2009-04-15 00:00;CYQB 150000Z 35009KT 15SM SKC 08/M09 A3009 RMK SLP192

CYQB;2009-04-15 01:00;CYQB 150100Z 01006KT 15SM SKC 06/M10 A3012 RMK SLP204

CYQB;2009-04-15 02:00;CYQB 150200Z 01005KT 15SM SKC 05/M10 A3014 RMK SLP209

CYQB;2009-04-15 03:00;CYQB 150300Z 03004KT 15SM SKC 04/M10 A3014 RMK SLP211

CYQB;2009-04-15 04:00;CYQB 150400Z 03008KT 15SM SKC 03/M09 A3015 RMK SLP214

CYQB;2009-04-15 05:00;CYQB 150500Z 35007KT 15SM SKC 01/M08 A3017 RMK SLP218

CYQB;2009-04-15 06:00;CYQB 150600Z 02007KT 15SM SKC 01/M09 A3017 RMK SLP218

CYQB;2009-04-15 07:00;CYQB 150700Z 01004KT 15SM SKC 01/M08 A3018 RMK SLP222

CYQB;2009-04-15 08:00;CYQB 150800Z 05005KT 15SM SKC M00/M08 A3019 RMK SLP227

CYQB;2009-04-15 09:00;CYQB 150900Z 03004KT 15SM SKC 00/M09 A3021 RMK SLP233

CYQB;2009-04-15 10:00;CYQB 151000Z 02006KT 50SM SKC M01/M08 A3023 RMK SLP239

CYQB;2009-04-15 11:00;CYQB 151100Z 02005KT 50SM FEW300 M00/M08 A3025 RMK CI0 SLP246

CYQB;2009-04-15 12:00;CYQB 151200Z 04005KT 30SM SKC 03/M07 A3027 RMK SLP252

CYQB;2009-04-15 13:00;CYQB 151300Z 08008KT 30SM SKC 04/M05 A3027 RMK SLP254

CYQB;2009-04-15 14:00;CYQB 151400Z 09007KT 30SM SKC 05/M06 A3028 RMK SLP256

CYQB;2009-04-15 15:00;CYQB 151500Z 08006KT 30SM SKC 06/M07 A3028 RMK SLP256

CYQB;2009-04-15 16:00;CYQB 151600Z 09006KT 30SM FEW300 07/M06 A3026 RMK CI1 SLP251

CYQB;2009-04-15 17:00;CYQB 151700Z 23002KT 30SM FEW300 08/M06 A3025 RMK CI1 SLP246

CYQB;2009-04-15 18:00;CYQB 151800Z 26004KT 30SM SKC 09/M06 A3023 RMK SLP240

CYQB;2009-04-15 19:00;CYQB 151900Z 22006KT 30SM SKC 10/M07 A3021 RMK SLP234

CYQB;2009-04-15 20:00;CYQB 152000Z 26004KT 30SM FEW250 11/M06 A3020 RMK CI0 SLP231

CYQB;2009-04-15 21:00;CYQB 152100Z 00000KT 30SM FEW250 12/M06 A3020 RMK CI0 SLP230

CYQB;2009-04-15 22:00;CYQB 152200Z 12003KT 30SM FEW250 11/M07 A3021 RMK CI0 SLP232

CYQB;2009-04-15 23:00;CYQB 152300Z 07008KT 30SM FEW150 FEW250 09/M06 A3022 RMK AC1CI1 SLP236

CYQB;2009-04-16 00:00;CYQB 160000Z 07006KT 15SM FEW150 08/M07 A3024 RMK AC1 SLP243

CYQB;2009-04-16 01:00;CYQB 160100Z 36004KT 15SM SKC 07/M06 A3027 RMK SLP252

CYQB;2009-04-16 02:00;CYQB 160200Z 01003KT 15SM SKC 05/M06 A3028 RMK SLP256

CYQB;2009-04-16 03:00;CYQB 160300Z 04007KT 15SM SKC 05/M07 A3029 RMK SLP260

CYQB;2009-04-16 04:00;CYQB 160400Z 05002KT 15SM SKC 04/M07 A3030 RMK SLP265

CYQB;2009-04-16 05:00;CYQB 160500Z 01004KT 15SM SKC 03/M07 A3032 RMK SLP270

CYQB;2009-04-16 06:00;CYQB 160600Z 02006KT 15SM SKC 02/M07 A3033 RMK SLP272

CYQB;2009-04-16 07:00;CYQB 160700Z 03005KT 15SM SKC 01/M07 A3033 RMK SLP275

CYQB;2009-04-16 08:00;CYQB 160800Z 01006KT 15SM SKC 00/M07 A3034 RMK SLP278

CYQB;2009-04-16 09:00;CYQB 160900Z 02004KT 15SM SKC M00/M07 A3036 RMK SLP284

CYQB;2009-04-16 10:00;CYQB 161000Z 02002KT 50SM SKC M01/M07 A3039 RMK SLP293

CYQB;2009-04-16 11:00;CYQB 161100Z 03002KT 50SM SKC M00/M07 A3041 RMK SLP299

CYQB;2009-04-16 12:00;CYQB 161200Z 06003KT 30SM SKC 03/M06 A3042 RMK SLP305

CYQB;2009-04-16 13:00;CYQB 161300Z 09008KT 30SM SKC 04/M05 A3042 RMK SLP304

CYQB;2009-04-16 14:00;CYQB 161400Z 11006KT 30SM FEW240 05/M05 A3042 RMK CI1 SLP305

CYQB;2009-04-16 15:00;CYQB 161500Z 11005KT 30SM FEW240 06/M05 A3041 RMK CI1 SLP300

CYQB;2009-04-16 16:00;CYQB 161600Z 16004KT 30SM FEW230 07/M06 A3039 RMK CI0 SLP293

CYQB;2009-04-16 17:00;CYQB 161700Z 25002KT 30SM FEW230 08/M06 A3037 RMK CI0 SLP287

CYQB;2009-04-16 18:00;CYQB 161800Z 24009KT 30SM FEW230 10/M05 A3034 RMK CI0 SLP276

CYQB;2009-04-16 19:00;CYQB 161900Z 22010G15KT 30SM BKN230 11/M06 A3030 RMK CI1 SLP265

CYQB;2009-04-16 20:00;CYQB 162000Z 21012KT 30SM FEW180 BKN230 12/M08 A3028 RMK AC1CI1 SLP256

CYQB;2009-04-16 21:00;CYQB 162100Z 25003KT 30SM FEW180 BKN230 14/M08 A3025 RMK AC1CI1 SLP247

CYQB;2009-04-16 22:00;CYQB 162200Z 31014KT 30SM FEW180 BKN230 12/M10 A3025 RMK AC1CI1 SLP248

CYQB;2009-04-16 23:00;CYQB 162300Z 34009KT 30SM BKN230 12/M13 A3026 RMK CI2 SLP251

CYQB;2009-04-17 00:00;CYQB 170000Z 36005KT 30SM SCT230 10/M14 A3028 RMK CI1 SLP255

CYQB;2009-04-17 01:00;CYQB 170100Z 33004KT 15SM FEW230 07/M11 A3028 RMK CI1 SLP258

CYQB;2009-04-17 02:00;CYQB 170200Z 34004KT 15SM BKN190 07/M13 A3028 RMK AC6 SLP255

CYQB;2009-04-17 03:00;CYQB 170300Z 32004KT 15SM OVC170 06/M11 A3026 RMK AC8 SLP251

CYQB;2009-04-17 04:00;CYQB 170400Z 00000KT 15SM BKN150 OVC170 05/M08 A3025 RMK AC6AC2 SLP248

CYQB;2009-04-17 05:00;CYQB 170500Z 34002KT 15SM OVC150 06/M10 A3025 RMK AC8 SLP246

CYQB;2009-04-17 06:00;CYQB 170600Z 00000KT 15SM FEW074 OVC120 05/M07 A3023 RMK AC2AC6 SLP238

CYQB;2009-04-17 07:00;CYQB 170700Z 00000KT 15SM FEW070 OVC110 05/M09 A3020 RMK AC1AC6 SLP230

CYQB;2009-04-17 08:00;CYQB 170800Z 00000KT 15SM FEW070 OVC100 04/M05 A3019 RMK AC2AC6 SLP226

CYQB;2009-04-17 09:00;CYQB 170900Z 00000KT 15SM FEW070 OVC100 03/M04 A3017 RMK AC2AC6 SLP220

CYQB;2009-04-17 10:00;CYQB 171000Z 24003KT 15SM SCT100 03/M03 RMK AC3 ALTM MISG

CYQB;2009-04-17 11:00;CYQB 171100Z 24010KT 20SM FEW100 03/M06 A3013 RMK AC1 SLP204

CYQB;2009-04-17 12:00;CYQB 171200Z 26009KT 20SM FEW100 FEW200 05/M03 A3010 RMK AC1CI1 SLP196

CYQB;2009-04-17 13:00;CYQB 171300Z 25014G19KT 20SM BKN200 08/M02 A3006 RMK CI2 SLP181

CYQB;2009-04-17 14:00;CYQB 171400Z 25021KT 20SM BKN210 11/M01 A3001 RMK CI2 SLP164

CYQB;2009-04-17 15:00;CYQB 171500Z 26019G25KT 20SM BKN210 13/M01 A2997 RMK CI2 SLP150

CYQB;2009-04-17 16:00;CYQB 171600Z 26017G24KT 20SM FEW120 BKN210 15/M00 A2993 RMK AC1CI2 SLP136

CYQB;2009-04-17 17:00;CYQB 171700Z 27022G27KT 20SM FEW150 BKN210 16/00 A2988 RMK AC2CI2 SLP121

CYQB;2009-04-17 18:00;CYQB 171800Z 31018G27KT 20SM FEW090 BKN200 17/M03 A2986 RMK AC2CI2 SLP114

CYQB;2009-04-17 19:00;CYQB 171900Z 31016G21KT 20SM FEW030 BKN083 OVC200 16/M04 A2985 RMK CU1AC5CI1 SLP110

CYQB;2009-04-17 20:00;CYQB 172000Z 30016G21KT 20SM FEW040 BKN093 OVC200 16/M02 A2985 RMK CU2AC6CI1 SLP110

CYQB;2009-04-17 21:00;CYQB 172100Z 28012G17KT 20SM FEW040 BKN078 OVC200 16/M01 A2982 RMK CU2AC4CI2 SLP101

CYQB;2009-04-17 22:00;CYQB 172200Z 31018G28KT 20SM FEW040 BKN072 OVC200 15/M01 A2984 RMK SC2AC6CI1 SLP107

CYQB;2009-04-17 23:00;CYQB 172300Z 28016G21KT 20SM FEW040 BKN067 OVC200 13/M00 A2985 RMK SC2AC6CI1 VIRGA NE-SE SLP111

CYQB;2009-04-18 00:00;CYQB 180000Z 32008KT 20SM FEW040 BKN060 BKN100 BKN200 11/M01 A2988 RMK SC2SC3AC2CI0 SLP120

CYQB;2009-04-18 01:00;CYQB 180100Z 31007G15KT 15SM BKN040 OVC080 10/02 A2992 RMK SC6AC2 OBS TAKEN +25 SLP132

CYQB;2009-04-18 02:00;CYQB 180200Z 32006KT 15SM FEW040 BKN090 09/02 A2992 RMK SC2AC2 SLP133

CYQB;2009-04-18 03:00;CYQB 180300Z 29004KT 15SM FEW040 BKN080 BKN180 08/03 A2992 RMK SC1AC4AC2 SLP134

CYQB;2009-04-18 04:00;CYQB 180400Z 30006KT 15SM FEW062 BKN180 07/02 A2992 RMK SC2AC3 SLP133

CYQB;2009-04-18 05:00;CYQB 180500Z 33006KT 15SM -SHRA BKN038 BKN180 07/02 A2992 RMK SC5AC2 SLP133

CYQB;2009-04-18 05:18;CYQB 180518Z 31009KT 15SM FEW040 BKN060 BKN180 06/ RMK SC2SC3AC2

CYQB;2009-04-18 06:00;CYQB 180600Z 32008KT 15SM BKN063 06/01 A2991 RMK SC6 SLP129

CYQB;2009-04-18 07:00;CYQB 180700Z 32004KT 15SM FEW060 04/00 A2989 RMK SC2 SLP124

CYQB;2009-04-18 08:00;CYQB 180800Z 04005KT 15SM FEW060 04/M00 A2992 RMK SC2 SLP132

CYQB;2009-04-18 09:00;CYQB 180900Z 07006KT 15SM FEW060 03/01 A2993 RMK SC2 SLP137

CYQB;2009-04-18 10:00;CYQB 181000Z 00000KT 15SM FEW060 01/00 A2995 RMK SC1 SLP143

CYQB;2009-04-18 11:00;CYQB 181100Z 00000KT 20SM FEW060 00/00 A2997 RMK SC2 SLP151

CYQB;2009-04-18 12:00;CYQB 181200Z 00000KT 20SM FEW050 04/02 A2999 RMK SC1 SLP157

CYQB;2009-04-18 13:00;CYQB 181300Z 12005KT 20SM BKN022 BKN050 05/01 A2999 RMK CU5SC1 SLP158

CYQB;2009-04-18 14:00;CYQB 181400Z 00000KT 20SM SCT030 06/M01 A2998 RMK CU4 SLP155

CYQB;2009-04-18 15:00;CYQB 181500Z 21003KT 20SM FEW030 07/M01 A2997 RMK SC2 SLP151

CYQB;2009-04-18 16:00;CYQB 181600Z 20008KT 20SM FEW030 09/M03 A2996 RMK CU1 SLP149

CYQB;2009-04-18 17:00;CYQB 181700Z 24008KT 20SM FEW030 11/M00 A2996 RMK CU1 SLP147

CYQB;2009-04-18 18:00;CYQB 181800Z 23005KT 20SM FEW030 12/M03 A2994 RMK CF1 SLP142

CYQB;2009-04-18 19:00;CYQB 181900Z 19008G15KT 20SM FEW030 FEW220 12/M07 A2993 RMK CF1CC2 SLP138

CYQB;2009-04-18 20:00;CYQB 182000Z 24010G15KT 20SM FEW030 SCT220 12/M08 A2993 RMK CF1CI2 SLP136

CYQB;2009-04-18 21:00;CYQB 182100Z 06014KT 20SM FEW030 FEW220 10/M03 A2994 RMK SC1CI1 WND SHFT SLP140

CYQB;2009-04-18 22:00;CYQB 182200Z 07008KT 20SM FEW030 FEW220 09/M03 A2995 RMK SC1CI1 SLP145

CYQB;2009-04-18 23:00;CYQB 182300Z 08008KT 20SM FEW030 FEW220 08/M04 A2997 RMK SC1CI1 SLP150

CYQB;2009-04-19 00:00;CYQB 190000Z 04007KT 15SM FEW220 06/M06 A3000 RMK CI1 SLP161

CYQB;2009-04-19 01:00;CYQB 190100Z 05005KT 15SM SKC 06/M16 A3003 RMK SLP170

CYQB;2009-04-19 02:00;CYQB 190200Z 02008KT 15SM SKC 05/M16 A3005 RMK SLP177

CYQB;2009-04-19 03:00;CYQB 190300Z 36007KT 15SM SKC 03/M15 A3006 RMK SLP181

CYQB;2009-04-19 04:00;CYQB 190400Z 35006KT 15SM SKC 02/M13 A3007 RMK SLP185

CYQB;2009-04-19 05:00;CYQB 190500Z 04005KT 15SM SKC 02/M13 A3008 RMK SLP188

CYQB;2009-04-19 06:00;CYQB 190600Z 05007KT 15SM SKC 01/M11 A3009 RMK SLP193

CYQB;2009-04-19 07:00;CYQB 190700Z 01006KT 15SM SKC 01/M11 A3010 RMK SLP196

CYQB;2009-04-19 08:00;CYQB 190800Z 36008KT 15SM SKC 01/M10 A3011 RMK SLP198

CYQB;2009-04-19 09:00;CYQB 190900Z 02006KT 15SM SKC 00/M09 A3013 RMK SLP206

CYQB;2009-04-19 10:00;CYQB 191000Z 36007KT 30SM FEW060 01/M09 A3014 RMK SC1 SLP211

CYQB;2009-04-19 11:00;CYQB 191100Z 01007KT 30SM SKC 01/M08 A3017 RMK SLP220

CYQB;2009-04-19 12:00;CYQB 191200Z 05005KT 30SM SKC 03/M07 A3019 RMK SLP227

CYQB;2009-04-19 13:00;CYQB 191300Z 07006KT 30SM SKC 05/M06 A3020 RMK SLP230

CYQB;2009-04-19 14:00;CYQB 191400Z 08008KT 30SM SKC 05/M05 A3021 RMK SLP234

CYQB;2009-04-19 15:00;CYQB 191500Z 07004KT 30SM FEW045 06/M04 A3022 RMK CF1 SLP237

CYQB;2009-04-19 16:00;CYQB 191600Z 09008KT 30SM FEW045 06/M05 A3022 RMK CF1 SLP235

CYQB;2009-04-19 17:00;CYQB 191700Z 11003KT 30SM FEW050 07/M04 A3021 RMK CF1 SLP234

CYQB;2009-04-19 18:00;CYQB 191800Z 11007KT 30SM FEW050 08/M04 A3021 RMK CF1 SLP233

CYQB;2009-04-19 19:00;CYQB 191900Z 07009KT 30SM FEW050 FEW160 09/M03 A3021 RMK CF1AC1 SLP232

CYQB;2009-04-19 20:00;CYQB 192000Z 06010KT 30SM FEW050 09/M04 A3021 RMK CF1 SLP232

CYQB;2009-04-19 21:00;CYQB 192100Z 08012KT 30SM FEW050 08/M08 A3021 RMK CF1 SLP234

CYQB;2009-04-19 22:00;CYQB 192200Z 09010G15KT 30SM FEW050 08/M08 A3022 RMK CF1 SLP235

CYQB;2009-04-19 23:00;CYQB 192300Z 08006KT 30SM SKC 07/M06 A3022 RMK SLP236

CYQB;2009-04-20 00:00;CYQB 200000Z 07006KT 15SM SKC 06/M05 A3023 RMK SLP240

CYQB;2009-04-20 01:00;CYQB 200100Z 03003KT 30SM SKC 05/M05 A3025 RMK SLP246

CYQB;2009-04-20 02:00;CYQB 200200Z 00000KT 15SM SKC 03/M05 A3026 RMK SLP250

CYQB;2009-04-20 03:00;CYQB 200300Z 02004KT 15SM SKC 02/M06 A3027 RMK SLP253

CYQB;2009-04-20 04:00;CYQB 200400Z 36002KT 15SM SKC 01/M06 A3028 RMK SLP256

CYQB;2009-04-20 05:00;CYQB 200500Z 01003KT 15SM SKC 01/M06 A3028 RMK SLP258

CYQB;2009-04-20 06:00;CYQB 200600Z 02004KT 15SM SKC 01/M06 A3029 RMK SLP260

CYQB;2009-04-20 07:00;CYQB 200700Z 36004KT 15SM SKC M00/M07 A3029 RMK SLP261

CYQB;2009-04-20 08:00;CYQB 200800Z 01004KT 15SM SKC M00/M08 A3030 RMK SLP263

CYQB;2009-04-20 09:00;CYQB 200900Z 02004KT 15SM SKC M01/M08 A3029 RMK SLP261

CYQB;2009-04-20 10:00;CYQB 201000Z 00000KT 15SM SKC M01/M09 A3030 RMK SLP262

CYQB;2009-04-20 11:00;CYQB 201100Z 03004KT 30SM SKC 00/M08 A3031 RMK SLP268

CYQB;2009-04-20 12:00;CYQB 201200Z 08005KT 30SM SKC 02/M05 A3033 RMK SLP272

CYQB;2009-04-20 13:00;CYQB 201300Z 08009KT 30SM SKC 05/M07 A3033 RMK SLP272

CYQB;2009-04-20 14:00;CYQB 201400Z 08011KT 30SM SKC 07/M06 A3032 RMK SLP269

CYQB;2009-04-20 15:00;CYQB 201500Z 09010KT 30SM FEW230 09/M06 A3031 RMK CI1 SLP267

CYQB;2009-04-20 16:00;CYQB 201600Z 07010G16KT 30SM FEW230 10/M09 A3028 RMK CI1 SLP256

CYQB;2009-04-20 17:00;CYQB 201700Z 09008KT 30SM SCT230 11/M09 A3025 RMK CI2 SLP246

CYQB;2009-04-20 18:00;CYQB 201800Z 08012G18KT 30SM SCT230 12/M08 A3023 RMK CI1 SLP241

CYQB;2009-04-20 19:00;CYQB 201900Z 07012G18KT 30SM SCT230 13/M06 A3021 RMK CI1 SLP233

CYQB;2009-04-20 20:00;CYQB 202000Z 08011G17KT 30SM BKN220 13/M05 A3019 RMK CI2 SLP225

CYQB;2009-04-20 21:00;CYQB 202100Z 08011G16KT 30SM FEW150 OVC220 12/M06 A3018 RMK AC1CI2 SLP223

CYQB;2009-04-20 22:00;CYQB 202200Z 07014G20KT 30SM FEW150 OVC230 11/M06 A3017 RMK AC2CI2 SLP221

CYQB;2009-04-20 23:00;CYQB 202300Z 08014KT 30SM FEW160 OVC230 09/M05 A3017 RMK AC2CI2 SLP221

CYQB;2009-04-21 00:00;CYQB 210000Z 07014KT 15SM SCT160 OVC230 07/M05 A3018 RMK AC3CI4 SLP223

CYQB;2009-04-21 01:00;CYQB 210100Z 07009KT 15SM OVC240 07/M02 A3019 RMK CS8 SLP225

CYQB;2009-04-21 02:00;CYQB 210200Z 07012G19KT 15SM OVC220 06/M02 A3018 RMK CS8 SLP223

CYQB;2009-04-21 03:00;CYQB 210300Z 10007KT 15SM OVC190 06/M02 A3018 RMK AC8 SLP223

CYQB;2009-04-21 04:00;CYQB 210400Z 07010KT 15SM BKN190 OVC240 06/M01 A3018 RMK AC6CS2 SLP221

CYQB;2009-04-21 05:00;CYQB 210500Z 08009KT 15SM FEW160 OVC230 06/00 A3016 RMK AC2CS6 SLP215

CYQB;2009-04-21 06:00;CYQB 210600Z 07010KT 15SM BKN230 05/00 A3014 RMK CS2 SLP208

CYQB;2009-04-21 07:00;CYQB 210700Z 07008KT 15SM SCT100 BKN160 05/M01 A3011 RMK AC4AC3 SLP200

CYQB;2009-04-21 08:00;CYQB 210800Z 09008KT 15SM OVC059 06/M03 A3011 RMK SC8 SLP198

CYQB;2009-04-21 09:00;CYQB 210900Z 09009KT 15SM OVC063 06/M05 A3009 RMK SC8 SLP192

CYQB;2009-04-21 09:26;CYQB 210926Z 08007G17KT 15SM -RA OVC062 06/ RMK SC8 -RA INTMT

CYQB;2009-04-21 10:00;CYQB 211000Z 07011G16KT 30SM -RA OVC062 06/M04 A3008 RMK SC8 SLP189

CYQB;2009-04-21 10:46;CYQB 211046Z 09011G16KT 25SM -RAPL OVC063 06/ RMK SC8 VIS W QUADS LWR

CYQB;2009-04-21 11:00;CYQB 211100Z 08010G16KT 20SM -RAPL OVC060 05/M01 A3008 RMK SC8 SLP190

CYQB;2009-04-21 12:00;CYQB 211200Z 08010G18KT 20SM -RA OVC062 05/M01 A3007 RMK SC8 SLP184

CYQB;2009-04-21 13:00;CYQB 211300Z 07013G19KT 10SM -RA OVC062 04/00 A3004 RMK SC8 SLP176

CYQB;2009-04-21 14:00;CYQB 211400Z 08015G21KT 14SM -RA OVC040 04/00 A3004 RMK SC8 SLP174

CYQB;2009-04-21 15:00;CYQB 211500Z 07020G29KT 8SM -RA OVC031 04/01 A2999 RMK SC8 SLP159

CYQB;2009-04-21 16:00;CYQB 211600Z 08017G28KT 8SM -RA FEW015 OVC026 03/02 A2997 RMK SF1SC8 SLP153

CYQB;2009-04-21 17:00;CYQB 211700Z 08020G30KT 25SM FEW012 OVC021 03/01 A2996 RMK SF1SC8 OCNL -SHRA SLP148

CYQB;2009-04-21 18:00;CYQB 211800Z 07020G30KT 25SM -SHRA FEW011 OVC023 04/01 A2993 RMK SF1SC8 SLP139

CYQB;2009-04-21 19:00;CYQB 211900Z 07020G28KT 8SM -SHRA FEW009 OVC023 03/03 A2992 RMK SF2SC6 SLP133

CYQB;2009-04-21 20:00;CYQB 212000Z 08018G25KT 10SM -SHRA FEW009 OVC019 04/02 A2990 RMK SF2SC6 SLP127

CYQB;2009-04-21 21:00;CYQB 212100Z 07021G30KT 8SM -SHRA OVC020 04/02 A2986 RMK SC8 SLP116

CYQB;2009-04-21 22:00;CYQB 212200Z 08013G24KT 10SM -SHRA OVC014 04/03 A2986 RMK SC8 SLP114

CYQB;2009-04-21 23:00;CYQB 212300Z 08018KT 15SM OVC017 05/03 A2984 RMK SC8 SLP109

CYQB;2009-04-22 00:00;CYQB 220000Z 07015G27KT 15SM OVC020 05/03 A2983 RMK SC8 SLP104

CYQB;2009-04-22 01:00;CYQB 220100Z 07016G26KT 12SM -SHRA FEW010 OVC020 05/03 A2981 RMK SF2SC6 SLP099

CYQB;2009-04-22 02:00;CYQB 220200Z 07015G20KT 10SM -SHRA FEW010 OVC020 05/03 A2977 RMK SF2SC6 PRESFR SLP084

CYQB;2009-04-22 03:00;CYQB 220300Z 07014G19KT 10SM -SHRA FEW008 OVC022 04/04 A2976 RMK SF2SC6 SLP082

CYQB;2009-04-22 04:00;CYQB 220400Z 06016KT 10SM -SHRA BKN006 OVC020 04/04 A2971 RMK SF6SC2 SLP065

CYQB;2009-04-22 05:00;CYQB 220500Z 07018KT 10SM -DZ SCT006 OVC020 05/04 A2971 RMK SF3SC5 SLP064

CYQB;2009-04-22 06:00;CYQB 220600Z 07012G17KT 10SM -DZ SCT005 OVC020 04/04 A2968 RMK SF4SC4 SLP054

CYQB;2009-04-22 06:48;CYQB 220648Z 08010G15KT 10SM -DZ BKN008 OVC020 04/ RMK ST6SC2 CIG VRBL 6-10

CYQB;2009-04-22 07:00;CYQB 220700Z 08007KT 10SM -DZ BKN008 OVC020 04/04 A2967 RMK ST6SC2 CIG VRBL 6-10 SLP050

CYQB;2009-04-22 08:00;CYQB 220800Z 09010G17KT 10SM -RA BKN008 OVC020 04/04 A2966 RMK ST6SC2 CIG VRBL 6-10 SLP046

CYQB;2009-04-22 09:00;CYQB 220900Z 09006KT 10SM -RA BKN008 OVC020 04/04 A2965 RMK ST6SC2 CIG VRBL 6-10 SLP043

CYQB;2009-04-22 10:00;CYQB 221000Z 07008KT 15SM -RA BKN008 OVC015 04/04 A2964 RMK SF7SC1 SLP038

CYQB;2009-04-22 10:17;CYQB 221017Z 08006KT 15SM BKN007 OVC015 04/ RMK SF7SC1

CYQB;2009-04-22 11:00;CYQB 221100Z 07010KT 15SM OVC005 05/04 A2962 RMK SF8 SLP033

CYQB;2009-04-22 12:00;CYQB 221200Z 07009KT 15SM BKN007 OVC013 05/M05 A2962 RMK SF7SC1 SLP034

CYQB;2009-04-22 12:48;CYQB 221248Z 25002KT 10SM -RA OVC005 05/ RMK SF8

CYQB;2009-04-22 13:00;CYQB 221300Z 17003KT 3SM -RA BR OVC005 05/05 A2964 RMK SF8 SLP041

CYQB;2009-04-22 14:00;CYQB 221400Z 08007KT 4SM -RA BR BKN004 OVC012 05/05 A2964 RMK SF7SC1 SLP041

CYQB;2009-04-22 14:20;CYQB 221420Z 05004KT 3SM -RA BR OVC003 05/ RMK SF8

CYQB;2009-04-22 15:00;CYQB 221500Z 07004KT 5SM -RA BR OVC004 06/06 A2967 RMK SF8 SLP048

CYQB;2009-04-22 15:12;CYQB 221512Z 06004KT 6SM BR OVC003 07/ RMK SF8

CYQB;2009-04-22 15:49;CYQB 221549Z 11003KT 6SM BR OVC006 07/ RMK SF8

CYQB;2009-04-22 16:00;CYQB 221600Z 04003KT 8SM OVC005 07/07 A2968 RMK SF8 SLP052

CYQB;2009-04-22 16:09;CYQB 221609Z 04005KT 5SM BR SCT005 BKN030 08/ RMK SF4SC3

CYQB;2009-04-22 17:00;CYQB 221700Z 21002KT 8SM SCT010 BKN030 11/08 A2968 RMK SF3SC2 SLP054

CYQB;2009-04-22 18:00;CYQB 221800Z 25008KT 12SM FEW010 SCT020 BKN041 12/08 A2969 RMK CF1CU3SC3 SLP055

CYQB;2009-04-22 19:00;CYQB 221900Z 27006KT 15SM FEW025 BKN063 BKN210 12/07 A2965 RMK CU1SC6CI1 SLP044

CYQB;2009-04-22 20:00;CYQB 222000Z 25006KT 15SM FEW025 BKN043 11/06 A2966 RMK CU1SC6 SLP045

CYQB;2009-04-22 21:00;CYQB 222100Z 26011KT 30SM FEW040 SCT085 BKN210 12/05 A2963 RMK SC2AC0CI0 SLP037

CYQB;2009-04-22 22:00;CYQB 222200Z 28005KT 30SM FEW040 SCT085 BKN210 12/04 A2962 RMK SC1AC3CI2 SLP034

CYQB;2009-04-22 23:00;CYQB 222300Z 34004KT 30SM SCT085 OVC130 11/04 A2961 RMK AC4AC4 SLP029

CYQB;2009-04-23 00:00;CYQB 230000Z 00000KT 30SM BKN063 OVC080 10/05 A2959 RMK SC6AC2 SLP023

CYQB;2009-04-23 01:00;CYQB 230100Z 28002KT 15SM FEW055 OVC062 09/07 A2959 RMK SC1SC7 SLP020

CYQB;2009-04-23 01:29;CYQB 230129Z 04003KT 10SM -SHRA OVC050 09/ RMK SC8

CYQB;2009-04-23 02:00;CYQB 230200Z 06008KT 10SM -SHRA OVC043 08/07 A2956 RMK SC8 SLP012

CYQB;2009-04-23 03:00;CYQB 230300Z 08004KT 6SM -RA BR OVC036 07/07 A2954 RMK SC8 SLP007

CYQB;2009-04-23 04:00;CYQB 230400Z 00000KT 3SM -RA BR FEW012 OVC027 07/07 A2954 RMK SF2SC6 SLP005

CYQB;2009-04-23 05:00;CYQB 230500Z 00000KT 6SM -RA BR FEW012 OVC027 07/07 A2952 RMK SF2SC6 SLP999

CYQB;2009-04-23 06:00;CYQB 230600Z 28005KT 6SM -RA BR OVC027 07/07 A2948 RMK SC8 SLP986

CYQB;2009-04-23 07:00;CYQB 230700Z 30007KT 10SM -RA OVC038 07/05 A2944 RMK SC8 SLP971

CYQB;2009-04-23 08:00;CYQB 230800Z 28008KT 10SM -RA OVC045 07/04 A2941 RMK SC8 SLP960

CYQB;2009-04-23 09:00;CYQB 230900Z 29009KT 10SM -RA OVC045 06/04 A2939 RMK SC8 SLP954

CYQB;2009-04-23 10:00;CYQB 231000Z 27007KT 10SM -RA OVC037 06/05 A2937 RMK SC8 SLP948

CYQB;2009-04-23 11:00;CYQB 231100Z 27011KT 10SM -RA OVC045 06/05 A2937 RMK SC8 SLP948

CYQB;2009-04-23 12:00;CYQB 231200Z 27016KT 10SM -RA OVC031 06/05 A2937 RMK SC8 SLP948

CYQB;2009-04-23 13:00;CYQB 231300Z 27013KT 10SM -RA FEW015 BKN031 OVC040 06/05 A2939 RMK SF1SC6SC2 SLP954

CYQB;2009-04-23 14:00;CYQB 231400Z 27017KT 15SM -RA FEW015 BKN042 OVC050 06/04 A2940 RMK SF1SC6SC2 SLP959

CYQB;2009-04-23 15:00;CYQB 231500Z 28021KT 15SM FEW015 FEW025 OVC072 07/03 A2943 RMK SF1SC2SC6 SLP967

CYQB;2009-04-23 16:00;CYQB 231600Z 27014G21KT 15SM BKN039 OVC070 07/03 A2944 RMK SC6AC2 SLP972

CYQB;2009-04-23 17:00;CYQB 231700Z 29013G18KT 15SM BKN043 OVC090 07/02 A2948 RMK SC6AC2 SLP983

CYQB;2009-04-23 18:00;CYQB 231800Z 28015G21KT 15SM BKN042 OVC100 07/02 A2950 RMK SC6AC2 SLP992

CYQB;2009-04-23 19:00;CYQB 231900Z 26016G22KT 15SM -SHRA BKN043 OVC100 08/03 A2952 RMK SC7AC1 SLP999

CYQB;2009-04-23 20:00;CYQB 232000Z 27018KT 15SM BKN033 OVC100 08/03 A2956 RMK SC6AC2 SLP010

CYQB;2009-04-23 21:00;CYQB 232100Z 28019G29KT 15SM BKN036 OVC110 07/03 A2959 RMK SC6AC2 SLP022

CYQB;2009-04-23 22:00;CYQB 232200Z 28013G26KT 15SM BKN057 OVC110 08/01 A2964 RMK SC6AC2 SLP040

CYQB;2009-04-23 23:00;CYQB 232300Z 31018G29KT 15SM OVC046 08/01 A2969 RMK SC8 SLP056

CYQB;2009-04-24 00:00;CYQB 240000Z 29015G28KT 15SM OVC050 07/M00 A2973 RMK SC8 SLP071

CYQB;2009-04-24 01:00;CYQB 240100Z 30015G24KT 15SM SCT050 07/M01 A2978 RMK SC4 SLP086

CYQB;2009-04-24 02:00;CYQB 240200Z 32022G31KT 15SM FEW050 06/M02 A2981 RMK SC2 SLP097

CYQB;2009-04-24 03:00;CYQB 240300Z 31021G28KT 15SM SKC 04/M02 A2982 RMK SLP101

CYQB;2009-04-24 04:00;CYQB 240400Z 29019G26KT 15SM FEW050 04/M02 A2987 RMK SC2 SLP117

CYQB;2009-04-24 05:00;CYQB 240500Z 30018G24KT 15SM FEW050 03/M02 A2990 RMK SC2 SLP128

CYQB;2009-04-24 06:00;CYQB 240600Z 30017KT 15SM FEW050 03/M02 A2992 RMK SC1 SLP135

CYQB;2009-04-24 07:00;CYQB 240700Z 31019G26KT 15SM SKC 03/M03 A2994 RMK SLP141

CYQB;2009-04-24 08:00;CYQB 240800Z 29017G25KT 15SM FEW240 02/M02 A2998 RMK CI1 SLP154

CYQB;2009-04-24 09:00;CYQB 240900Z 28010G17KT 15SM FEW240 02/M03 A3002 RMK CI1 SLP168

CYQB;2009-04-24 10:00;CYQB 241000Z 30010KT 30SM FEW030 FEW160 02/M03 A3004 RMK SC1AC1 SLP175

CYQB;2009-04-24 11:00;CYQB 241100Z 32011KT 30SM FEW160 BKN240 03/M03 A3007 RMK AC1CI1 SLP184

CYQB;2009-04-24 12:00;CYQB 241200Z 32009KT 30SM FEW160 SCT240 05/M04 A3009 RMK AC1CI1 SLP192

CYQB;2009-04-24 13:00;CYQB 241300Z 25011KT 30SM FEW160 FEW240 06/M00 A3010 RMK AC1CI1 SLP195

CYQB;2009-04-24 14:00;CYQB 241400Z 21017KT 30SM SCT240 06/M01 A3011 RMK CI1 SLP197

CYQB;2009-04-24 15:00;CYQB 241500Z 22020G26KT 30SM BKN210 08/00 A3012 RMK CI2 SLP202

CYQB;2009-04-24 16:00;CYQB 241600Z 23016G21KT 30SM BKN210 11/02 A3011 RMK CI1 SLP199

CYQB;2009-04-24 17:00;CYQB 241700Z 23015G21KT 30SM FEW210 12/01 A3011 RMK CI1 SLP197

CYQB;2009-04-24 18:00;CYQB 241800Z 25016G22KT 30SM FEW220 15/02 A3011 RMK CI1 SLP198

CYQB;2009-04-24 19:00;CYQB 241900Z 25017KT 30SM FEW220 16/M01 A3009 RMK CI1 SLP192

CYQB;2009-04-24 20:00;CYQB 242000Z 26010G19KT 30SM SCT220 16/03 A3008 RMK CI2 SLP190

CYQB;2009-04-24 21:00;CYQB 242100Z 24013G18KT 30SM FEW220 17/03 A3007 RMK CI1 SLP185

CYQB;2009-04-24 22:00;CYQB 242200Z 26010KT 30SM FEW230 17/04 A3006 RMK CI1 SLP181

CYQB;2009-04-24 23:00;CYQB 242300Z 25005KT 30SM FEW230 15/04 A3006 RMK CI1 SLP181

CYQB;2009-04-25 00:00;CYQB 250000Z 00000KT 20SM FEW230 14/03 A3007 RMK CI1 SLP184

CYQB;2009-04-25 01:00;CYQB 250100Z 00000KT 15SM FEW240 11/03 A3008 RMK CI0 SLP189

CYQB;2009-04-25 02:00;CYQB 250200Z 00000KT 15SM FEW240 10/03 A3009 RMK CI0 SLP191

CYQB;2009-04-25 03:00;CYQB 250300Z 36005KT 15SM SKC 10/02 A3008 RMK SLP189

CYQB;2009-04-25 04:00;CYQB 250400Z 04004KT 15SM SKC 08/02 A3008 RMK SLP187

CYQB;2009-04-25 05:00;CYQB 250500Z 02005KT 15SM SKC 08/01 A3007 RMK SLP184

CYQB;2009-04-25 06:00;CYQB 250600Z 02005KT 15SM SKC 07/01 A3005 RMK SLP178

CYQB;2009-04-25 07:00;CYQB 250700Z 02007KT 15SM SKC 06/00 A3003 RMK SLP170

CYQB;2009-04-25 08:00;CYQB 250800Z 02007KT 15SM SKC 07/M00 A3003 RMK SLP172

CYQB;2009-04-25 09:00;CYQB 250900Z 01006KT 15SM FEW120 06/M00 A3003 RMK AS1 SLP171

CYQB;2009-04-25 10:00;CYQB 251000Z 02006KT 15SM SCT090 BKN120 07/M00 A3003 RMK AC3AC3 SLP171

CYQB;2009-04-25 11:00;CYQB 251100Z 01005KT 20SM FEW050 BKN090 08/01 A3005 RMK SC2AC5 TCU SLP177

CYQB;2009-04-25 12:00;CYQB 251200Z 36002KT 20SM SCT050 OVC071 10/02 A3004 RMK SC4AC4 TCU SLP174

CYQB;2009-04-25 13:00;CYQB 251300Z 03002KT 20SM FEW090 BKN120 11/02 A3003 RMK AC2AC2 ACC SLP169

CYQB;2009-04-25 14:00;CYQB 251400Z 06002KT 30SM FEW250 16/03 A3001 RMK CI1 SLP164

CYQB;2009-04-25 15:00;CYQB 251500Z 23006KT 30SM SKC 20/08 A2999 RMK SLP155

CYQB;2009-04-25 16:00;CYQB 251600Z 26010KT 30SM FEW220 22/10 A2996 RMK CI1 SLP145

CYQB;2009-04-25 17:00;CYQB 251700Z 24010KT 30SM SCT220 24/12 A2993 RMK CS0 SLP137

CYQB;2009-04-25 18:00;CYQB 251800Z 23015G20KT 30SM SCT220 25/12 A2992 RMK CI0 SLP131

CYQB;2009-04-25 19:00;CYQB 251900Z 27015G20KT 30SM FEW050 FEW150 BKN220 27/12 A2990 RMK CU1AC1CS0 SLP126

CYQB;2009-04-25 20:00;CYQB 252000Z 26012G20KT 30SM FEW120 SCT220 27/11 A2988 RMK AC1CS0 SLP120

CYQB;2009-04-25 21:00;CYQB 252100Z 23014G20KT 30SM FEW120 FEW220 27/11 A2986 RMK AC2CS1 SLP111

CYQB;2009-04-25 22:00;CYQB 252200Z 22011KT 20SM SCT120 BKN220 26/11 A2985 RMK AC3CI2 SLP110

CYQB;2009-04-25 23:00;CYQB 252300Z 24008KT 20SM FEW100 BKN220 25/12 A2986 RMK AC2CI1 SLP112

CYQB;2009-04-26 00:00;CYQB 260000Z 23011G16KT 20SM FEW100 BKN220 24/11 A2987 RMK AC2CI1 SLP115

CYQB;2009-04-26 00:25;CYQB 260025Z 23010KT 15SM FEW050 BKN110 BKN220 23/ RMK SC1AC6CI1 DIST OCNL LTG W

CYQB;2009-04-26 01:00;CYQB 260100Z 25009KT 15SM BKN090 23/11 A2988 RMK AC6 DIST OCNL LTG N SLP120

CYQB;2009-04-26 01:21;CYQB 260121Z 23017G28KT 15SM -SHRA BKN070 BKN220 22/ RMK AC6CI1

CYQB;2009-04-26 02:00;CYQB 260200Z 27010KT 15SM SCT150 19/14 A2988 RMK AC3 SLP120

CYQB;2009-04-26 03:00;CYQB 260300Z 26007KT 15SM FEW080 FEW150 18/13 A2989 RMK AC1AC2 SLP121

CYQB;2009-04-26 04:00;CYQB 260400Z 23009KT 15SM BKN073 19/13 A2990 RMK AC6 SLP125

CYQB;2009-04-26 05:00;CYQB 260500Z 24007KT 15SM BKN097 18/14 A2991 RMK AC6 SLP128

CYQB;2009-04-26 05:21;CYQB 260521Z 27015KT 15SM -SHRA BKN076 19/ RMK AC6

CYQB;2009-04-26 06:00;CYQB 260600Z 25012KT 15SM BKN026 BKN070 18/14 A2993 RMK SC5AC2 SLP135

CYQB;2009-04-26 07:00;CYQB 260700Z 30019G26KT 15SM OVC021 17/14 A2997 RMK SC8 SLP148

CYQB;2009-04-26 08:00;CYQB 260800Z 34018G26KT 15SM OVC039 11/05 A3002 RMK SC8 SLP166

CYQB;2009-04-26 09:00;CYQB 260900Z 35016G21KT 15SM BKN065 09/01 A3011 RMK SC6 PRESRR SLP198

CYQB;2009-04-26 10:00;CYQB 261000Z 36010G16KT 20SM SCT038 BKN100 08/00 A3019 RMK SC3AC2 SLP225

CYQB;2009-04-26 11:00;CYQB 261100Z 01010G16KT 30SM FEW040 FEW100 BKN250 08/M02 A3026 RMK SC1AC2CI1 PRESRR SLP247

CYQB;2009-04-26 12:00;CYQB 261200Z 35015KT 30SM FEW040 FEW250 07/M04 A3029 RMK SC1CI1 SLP259

CYQB;2009-04-26 13:00;CYQB 261300Z 01011KT 30SM FEW040 FEW250 09/M06 A3033 RMK SC1CI1 SLP271

CYQB;2009-04-26 14:00;CYQB 261400Z 07010G19KT 30SM FEW250 10/M03 A3036 RMK CI1 SLP280

CYQB;2009-04-26 15:00;CYQB 261500Z 11008KT 30SM FEW250 10/M04 A3038 RMK CI0 SLP288

CYQB;2009-04-26 16:00;CYQB 261600Z 09009KT 30SM FEW250 11/M04 A3038 RMK CI1 SLP289

CYQB;2009-04-26 17:00;CYQB 261700Z 07009KT 30SM FEW250 12/M04 A3038 RMK CI1 SLP289

CYQB;2009-04-26 18:00;CYQB 261800Z 09004KT 30SM FEW250 12/M05 A3038 RMK CI1 SLP289

CYQB;2009-04-26 19:00;CYQB 261900Z 09007KT 30SM FEW250 13/M04 A3039 RMK CI1 SLP292

CYQB;2009-04-26 20:00;CYQB 262000Z 08010G15KT 30SM FEW160 BKN250 13/M06 A3040 RMK AC1CI1 SLP296

CYQB;2009-04-26 21:00;CYQB 262100Z 07011G16KT 30SM FEW160 BKN250 12/M06 A3040 RMK AC1CI1 SLP295

CYQB;2009-04-26 22:00;CYQB 262200Z 07011KT 30SM BKN150 BKN240 11/M06 A3040 RMK AC5CI1 SLP295

CYQB;2009-04-26 23:00;CYQB 262300Z 08010G16KT 25SM BKN150 11/M06 A3041 RMK AC7 SLP299

CYQB;2009-04-27 00:00;CYQB 270000Z 07009KT 15SM BKN150 10/M07 A3041 RMK AC7 SLP302

CYQB;2009-04-27 01:00;CYQB 270100Z 07008KT 15SM BKN130 09/M05 A3042 RMK AC7 SLP303

CYQB;2009-04-27 02:00;CYQB 270200Z 07009KT 15SM BKN140 09/M04 A3043 RMK AC6 SLP307

CYQB;2009-04-27 03:00;CYQB 270300Z 07007KT 15SM BKN170 08/M04 A3042 RMK CI6 SLP304

CYQB;2009-04-27 04:00;CYQB 270400Z 07008KT 15SM BKN170 08/M03 A3041 RMK CI7 SLP299

CYQB;2009-04-27 05:00;CYQB 270500Z 07011KT 15SM BKN160 08/M03 A3039 RMK AC7 SLP295

CYQB;2009-04-27 06:00;CYQB 270600Z 07009KT 15SM BKN170 07/M04 A3039 RMK AC7 SLP292

CYQB;2009-04-27 07:00;CYQB 270700Z 07012KT 15SM BKN057 07/M04 A3038 RMK SC7 SLP289

CYQB;2009-04-27 08:00;CYQB 270800Z 08010G15KT 15SM BKN056 07/M05 A3039 RMK SC7 SLP292

CYQB;2009-04-27 08:45;CYQB 270845Z 08012G17KT 8SM -SHRA OVC051 07/ RMK SC8

CYQB;2009-04-27 09:00;CYQB 270900Z 07015KT 8SM -SHRA OVC049 07/M05 A3038 RMK SC8 SLP290

CYQB;2009-04-27 10:00;CYQB 271000Z 08010KT 30SM BKN042 OVC120 07/M04 A3037 RMK SC7AC1 SLP286

CYQB;2009-04-27 11:00;CYQB 271100Z 07009KT 30SM FEW032 BKN038 OVC120 07/M02 A3036 RMK SC2SC5AC1 SLP284

CYQB;2009-04-27 12:00;CYQB 271200Z 07010KT 30SM SCT030 OVC038 07/M01 A3035 RMK SC3SC5 SLP280

CYQB;2009-04-27 13:00;CYQB 271300Z 07010KT 30SM SCT032 OVC037 08/M01 A3033 RMK SC3SC4 SLP272

CYQB;2009-04-27 14:00;CYQB 271400Z 07009KT 30SM FEW030 OVC034 09/M00 A3031 RMK SC2SC6 SLP266

CYQB;2009-04-27 15:00;CYQB 271500Z 08009KT 30SM SCT030 SCT070 10/00 A3029 RMK SC3AC1 SLP258

CYQB;2009-04-27 16:00;CYQB 271600Z 08008KT 30SM FEW034 BKN110 11/01 A3027 RMK SC2AC5 SLP252

CYQB;2009-04-27 17:00;CYQB 271700Z 10008KT 30SM FEW090 BKN140 12/02 A3022 RMK AC1AC5 PRESFR SLP236

CYQB;2009-04-27 18:00;CYQB 271800Z 09007KT 30SM FEW090 BKN150 14/03 A3018 RMK AC2AC3 SLP221

CYQB;2009-04-27 19:00;CYQB 271900Z 04006KT 25SM FEW090 SCT150 16/05 A3014 RMK AC2AC2 SLP207

CYQB;2009-04-27 20:00;CYQB 272000Z 09005KT 25SM FEW090 FEW180 18/07 A3010 RMK AC2CI1 SLP194

CYQB;2009-04-27 21:00;CYQB 272100Z 09006KT 25SM FEW090 FEW180 18/07 A3006 RMK AC2CI1 SLP179

CYQB;2009-04-27 22:00;CYQB 272200Z 06008KT 25SM FEW090 FEW180 16/05 A3003 RMK AC2CI1 SLP169

CYQB;2009-04-27 23:00;CYQB 272300Z 07007KT 25SM SKC 14/04 A3000 RMK SLP161

CYQB;2009-04-28 00:00;CYQB 280000Z 04005KT 25SM SKC 12/04 A2998 RMK SLP155

CYQB;2009-04-28 01:00;CYQB 280100Z 03003KT 25SM SKC 11/04 A2998 RMK SLP155

CYQB;2009-04-28 02:00;CYQB 280200Z 12002KT 15SM SKC 10/04 A2997 RMK SLP151

CYQB;2009-04-28 03:00;CYQB 280300Z 00000KT 15SM SKC 10/04 A2994 RMK SLP142

CYQB;2009-04-28 04:00;CYQB 280400Z 00000KT 15SM SKC 09/04 A2993 RMK SLP138

CYQB;2009-04-28 05:00;CYQB 280500Z 25006KT 15SM FEW080 SCT220 12/06 A2993 RMK AC1CI1 SLP137

CYQB;2009-04-28 06:00;CYQB 280600Z 24008KT 15SM SCT220 17/10 A2992 RMK CI1 SLP131

CYQB;2009-04-28 07:00;CYQB 280700Z 27010KT 15SM BKN110 BKN220 17/10 A2990 RMK AC6CI1 SLP126

CYQB;2009-04-28 08:00;CYQB 280800Z 26009KT 15SM BKN120 BKN210 17/11 A2991 RMK AC6CI1 SLP128

CYQB;2009-04-28 09:00;CYQB 280900Z 26014G19KT 15SM -SHRA BKN110 BKN240 19/11 A2991 RMK AC6CI0 SLP130

CYQB;2009-04-28 09:47;CYQB 280947Z 27014KT 30SM BKN110 OVC240 19/ RMK AC7CI0

CYQB;2009-04-28 10:00;CYQB 281000Z CCA 26014KT 30SM -SHRA BKN110 BKN240 19/11 A2993 RMK AC6CI1 PCPN VRY LGT SLP135

CYQB;2009-04-28 10:37;CYQB 281037Z 26013KT 30SM BKN110 BKN240 19/ RMK AC6CI1

CYQB;2009-04-28 11:00;CYQB 281100Z 25012KT 30SM BKN100 BKN240 19/12 A2994 RMK AC6CI1 VIRGA SLP139

CYQB;2009-04-28 12:00;CYQB 281200Z 25013KT 30SM BKN120 BKN240 20/13 A2995 RMK AC6CI1 SLP142

CYQB;2009-04-28 13:00;CYQB 281300Z 25014G21KT 30SM FEW050 BKN100 BKN210 20/13 A2994 RMK CU1AC6CS0 SLP139

CYQB;2009-04-28 14:00;CYQB 281400Z 25023G28KT 30SM FEW035 BKN060 BKN090 OVC210 21/13 A2994 RMK CU1SC4AC2CS1 SLP138

CYQB;2009-04-28 15:00;CYQB 281500Z 26013G21KT 25SM BKN041 BKN090 OVC210 20/13 A2993 RMK SC6AC1CS1 SLP136

CYQB;2009-04-28 16:00;CYQB 281600Z 25020G25KT 8SM -SHRA BKN038 OVC062 20/13 A2991 RMK SC7SC1 SLP130

CYQB;2009-04-28 16:33;CYQB 281633Z 31014G20KT 1 1/4SM -SHRA BR OVC034 16/ RMK SC8

CYQB;2009-04-28 16:52;CYQB 281652Z 28010G17KT 5SM -SHRA BR OVC043 15/ RMK SC8

CYQB;2009-04-28 17:00;CYQB 281700Z 28012KT 6SM -SHRA BR OVC052 15/14 A2994 RMK SC8 SLP141

CYQB;2009-04-28 18:00;CYQB 281800Z 31011G19KT 25SM -SHRA FEW020 OVC079 14/10 A2998 RMK SF2AC6 SLP153

CYQB;2009-04-28 19:00;CYQB 281900Z 28008G16KT 15SM -SHRA FEW020 OVC083 11/08 A3004 RMK SF2AC6 PRESRR SLP173

CYQB;2009-04-28 19:49;CYQB 281949Z 29009KT 15SM FEW020 BKN040 OVC080 11/ RMK SF2SC5AC2

CYQB;2009-04-28 20:00;CYQB 282000Z 30013KT 15SM SCT040 OVC100 11/06 A3009 RMK SC3AC5 SLP191

CYQB;2009-04-28 21:00;CYQB 282100Z 33013G18KT 15SM FEW020 SCT040 OVC100 11/03 A3014 RMK SF1SC3AC5 SLP209

CYQB;2009-04-28 22:00;CYQB 282200Z 33011G21KT 15SM FEW020 FEW040 SCT100 OVC230 11/M00 A3019 RMK SF1SC2AC2CI5 SLP226

CYQB;2009-04-28 23:00;CYQB 282300Z 32009KT 15SM FEW040 SCT100 BKN230 10/M00 A3024 RMK SC2AC2CI2 SLP240

CYQB;2009-04-29 00:00;CYQB 290000Z 30009KT 15SM FEW040 BKN230 08/M01 A3026 RMK SC2CI2 SLP249

CYQB;2009-04-29 01:00;CYQB 290100Z 32006KT 15SM FEW060 BKN230 08/M02 A3030 RMK SC1CI2 SLP262

CYQB;2009-04-29 02:00;CYQB 290200Z 34006KT 15SM FEW060 SCT230 07/M03 A3034 RMK SC1CI2 SLP275

CYQB;2009-04-29 03:00;CYQB 290300Z 30006KT 15SM SKC 05/M04 A3036 RMK SLP282

CYQB;2009-04-29 04:00;CYQB 290400Z 29008KT 15SM SKC 05/M06 A3039 RMK SLP291

CYQB;2009-04-29 05:00;CYQB 290500Z 27006KT 15SM SKC 04/M07 A3041 RMK SLP300

CYQB;2009-04-29 06:00;CYQB 290600Z 35006KT 15SM SKC 04/M09 A3041 RMK SLP301

CYQB;2009-04-29 07:00;CYQB 290700Z 31005KT 15SM SKC 02/M09 A3043 RMK SLP307

CYQB;2009-04-29 08:00;CYQB 290800Z 31004KT 15SM SKC 02/M09 A3044 RMK SLP311

CYQB;2009-04-29 09:00;CYQB 290900Z 26006KT 30SM FEW250 01/M09 A3046 RMK CI1 SLP317

CYQB;2009-04-29 10:00;CYQB 291000Z 27004KT 30SM FEW250 01/M09 A3048 RMK CI1 SLP324

CYQB;2009-04-29 11:00;CYQB 291100Z 26004KT 30SM FEW250 02/M09 A3051 RMK CI1 SLP334

CYQB;2009-04-29 12:00;CYQB 291200Z 30004KT 30SM FEW250 04/M07 A3053 RMK CI1 SLP343

CYQB;2009-04-29 13:00;CYQB 291300Z 32008KT 30SM FEW050 05/M07 A3055 RMK CF1 SLP347

CYQB;2009-04-29 14:00;CYQB 291400Z 34007G16KT 30SM FEW050 06/M07 A3054 RMK CF1 SLP344

CYQB;2009-04-29 15:00;CYQB 291500Z 34015KT 30SM FEW060 08/M06 A3052 RMK CF1 SLP340

CYQB;2009-04-29 16:00;CYQB 291600Z 29015KT 30SM FEW066 10/M06 A3051 RMK CF2 SLP334

CYQB;2009-04-29 17:00;CYQB 291700Z 27011G17KT 30SM FEW066 10/M06 A3047 RMK CU2 SLP323

CYQB;2009-04-29 18:00;CYQB 291800Z 28010G21KT 30SM SCT066 11/M06 A3044 RMK CU3 SLP310

CYQB;2009-04-29 19:00;CYQB 291900Z 28017KT 30SM SCT067 12/M04 A3041 RMK CU4 SLP300

CYQB;2009-04-29 20:00;CYQB 292000Z 27012G21KT 30SM SCT066 13/M05 A3039 RMK CU4 SLP292

CYQB;2009-04-29 21:00;CYQB 292100Z 29014G25KT 30SM SCT084 14/M06 A3038 RMK CU4 SLP289

CYQB;2009-04-29 22:00;CYQB 292200Z 30013G24KT 30SM SCT081 12/M06 A3036 RMK CU3 SLP284

CYQB;2009-04-29 23:00;CYQB 292300Z 28013G20KT 30SM FEW080 12/M05 A3036 RMK CU2 SLP283

CYQB;2009-04-30 00:00;CYQB 300000Z 28007KT 30SM SCT093 09/M03 A3035 RMK AC3 SLP281

CYQB;2009-04-30 01:00;CYQB 300100Z 24007KT 15SM FEW090 09/M03 A3035 RMK AC2 SLP280

CYQB;2009-04-30 02:00;CYQB 300200Z 25008KT 15SM FEW090 08/M02 A3034 RMK AC1 SLP276

CYQB;2009-04-30 03:00;CYQB 300300Z 26005KT 15SM FEW085 06/M02 A3035 RMK AC1 SLP280

CYQB;2009-04-30 04:00;CYQB 300400Z 36005KT 15SM SKC 07/M04 A3036 RMK SLP283

CYQB;2009-04-30 05:00;CYQB 300500Z 00000KT 15SM SKC 06/M05 A3036 RMK SLP284

CYQB;2009-04-30 06:00;CYQB 300600Z 34002KT 15SM SKC 06/M07 A3038 RMK SLP289

CYQB;2009-04-30 07:00;CYQB 300700Z 02004KT 15SM SKC 04/M06 A3038 RMK SLP291

CYQB;2009-04-30 08:00;CYQB 300800Z 34009KT 15SM SKC 02/M03 A3040 RMK SLP298

CYQB;2009-04-30 09:00;CYQB 300900Z 36004KT 30SM FEW240 02/M05 A3041 RMK CI0 SLP299

CYQB;2009-04-30 10:00;CYQB 301000Z 00000KT 50SM FEW250 00/M05 A3042 RMK CI1 SLP305

CYQB;2009-04-30 11:00;CYQB 301100Z 01005KT 50SM FEW250 03/M04 A3043 RMK CI0 SLP308

CYQB;2009-04-30 12:00;CYQB 301200Z 01005KT 50SM SCT250 05/M05 A3044 RMK CI0 SLP310

CYQB;2009-04-30 13:00;CYQB 301300Z 00000KT 50SM FEW250 07/M07 A3044 RMK CI1 SLP309

CYQB;2009-04-30 14:00;CYQB 301400Z 00000KT 50SM FEW150 FEW250 09/M05 A3041 RMK AC1CI0 SLP301

CYQB;2009-04-30 15:00;CYQB 301500Z 16002KT 50SM FEW150 FEW250 10/M05 A3038 RMK AC1CI0 SLP291

CYQB;2009-04-30 16:00;CYQB 301600Z 22009KT 50SM FEW150 FEW250 13/M05 A3034 RMK AC1CI0 SLP276

CYQB;2009-04-30 17:00;CYQB 301700Z 24007KT 50SM FEW150 FEW250 14/M05 A3030 RMK AC1CI0 SLP265

CYQB;2009-04-30 18:00;CYQB 301800Z 17005KT 50SM FEW150 FEW250 16/M05 A3026 RMK AC1CI0 SLP250

CYQB;2009-04-30 19:00;CYQB 301900Z 21003KT 50SM FEW160 FEW220 16/M05 A3022 RMK AC1CI0 SLP235

CYQB;2009-04-30 20:00;CYQB 302000Z 16003KT 30SM SCT120 BKN260 18/M04 A3018 RMK AC3CI0 SLP222

CYQB;2009-04-30 21:00;CYQB 302100Z 18004KT 30SM BKN120 BKN260 18/M06 A3014 RMK AC5CI1 SLP207

CYQB;2009-04-30 22:00;CYQB 302200Z 13004KT 30SM BKN120 OVC260 18/M05 A3010 RMK AC6CI1 SLP195

CYQB;2009-04-30 23:00;CYQB 302300Z 09007KT 30SM SCT120 OVC260 17/M03 A3006 RMK AC4CI2 SLP182

CYQB;2009-05-01 01:00;CYQB 010100Z 08007KT 15SM BKN090 BKN210 14/M02 A3000 RMK AC6CI1 SLP160

CYQB;2009-05-01 02:00;CYQB 010200Z 00000KT 15SM SCT090 BKN210 13/M00 A2997 RMK AC4CI2 SLP151

CYQB;2009-05-01 03:00;CYQB 010300Z 35003KT 15SM FEW090 SCT240 12/01 A2994 RMK AC1CI0 SLP139

CYQB;2009-05-01 04:00;CYQB 010400Z 00000KT 15SM SCT065 BKN090 BKN240 11/01 A2991 RMK SC3AC2CI2 SLP129

CYQB;2009-05-01 05:00;CYQB 010500Z 34002KT 15SM OVC063 10/02 A2986 RMK SC8 SLP113

CYQB;2009-05-01 05:39;CYQB 010539Z 01002KT 15SM -RA OVC057 11/ RMK SC8

CYQB;2009-05-01 06:00;CYQB 010600Z 02002KT 15SM -RA OVC055 11/02 A2981 RMK SC8 -RA INTMT SLP095

CYQB;2009-05-01 07:00;CYQB 010700Z 25007KT 11SM -RA OVC043 10/06 A2978 RMK SC8 SLP086

CYQB;2009-05-01 08:00;CYQB 010800Z CCA 00000KT 7SM -RA OVC031 09/07 A2972 RMK SC8 PRESFR SLP065

CYQB;2009-05-01 09:00;CYQB 010900Z 03004KT 5SM -RA BR OVC020 08/08 A2966 RMK SC8 PRESFF SLP045

CYQB;2009-05-01 09:33;CYQB 010933Z 05005KT 3SM -RA BR OVC014 08/ RMK SF8

CYQB;2009-05-01 10:00;CYQB 011000Z 04004KT 2SM -RA BR FEW008 OVC011 08/08 A2961 RMK SF2SF6 PRESFR SLP027

CYQB;2009-05-01 10:13;CYQB 011013Z 05003KT 1 1/4SM -RA BR BKN003 OVC008 08/ RMK SF6SF2

CYQB;2009-05-01 11:00;CYQB 011100Z CCA 07004KT 1SM R06/P6000FT/N RA BR OVC002 08/08 A2958 RMK FG2SF6 SLP017

CYQB;2009-05-01 12:00;CYQB 011200Z 04003KT 1SM R06/P6000FT/U -RA BR BKN002 OVC006 09/08 A2956 RERA RMK FG2SF5SF2 SLP010

CYQB;2009-05-01 12:46;CYQB 011246Z 00000KT 1SM R06/6000FT/N -RADZ BR BKN002 OVC007 09/ RMK FG2SF5SF2

CYQB;2009-05-01 13:00;CYQB 011300Z 00000KT 1SM R06/5500FT/N -RADZ BR SCT002 OVC007 09/09 A2953 RMK FG2SF2SF4 SLP003

CYQB;2009-05-01 14:00;CYQB 011400Z 23004KT 1 3/4SM -DZ BR FEW003 OVC005 10/10 A2953 RMK SF2SF6 SLP000

CYQB;2009-05-01 14:42;CYQB 011442Z 25007KT 2SM -DZ BR OVC004 12/ RMK SF8

CYQB;2009-05-01 15:00;CYQB 011500Z 26011KT 3SM -DZ BR BKN004 OVC007 12/12 A2952 RMK SF7SF1 SLP999

CYQB;2009-05-01 16:00;CYQB 011600Z 25013G18KT 6SM BR BKN007 OVC010 14/13 A2952 RMK SF6SC2 SLP999

CYQB;2009-05-01 16:45;CYQB 011645Z 25016G22KT 10SM SCT010 BKN015 16/ RMK SF3SC4

CYQB;2009-05-01 17:00;CYQB 011700Z 26020G31KT 10SM BKN015 BKN028 16/14 A2953 RMK SC6SC2 CU ASOCTD SLP002

CYQB;2009-05-01 18:00;CYQB 011800Z 25019G27KT 15SM SCT016 BKN023 BKN230 18/14 A2952 RMK CU4SC2CI1 SLP997

CYQB;2009-05-01 19:00;CYQB 011900Z 25019G26KT 15SM SCT016 SCT023 BKN082 BKN230 19/14 A2949 RMK CU3SC1AC2CI1 SLP986

CYQB;2009-05-01 19:30;CYQB 011930Z 23014G25KT 15SM -SHRA SCT020 BKN065 BKN230 18/ RMK CU3SC2CI1

CYQB;2009-05-01 20:00;CYQB 012000Z 23018G24KT 15SM SCT020 BKN060 BKN230 19/13 A2945 RMK CU4SC1CI1 SLP975

CYQB;2009-05-01 21:00;CYQB 012100Z 23031G36KT 15SM FEW020 FEW050 SCT210 20/12 A2945 RMK CU2SC1CI1 SLP975

CYQB;2009-05-01 22:00;CYQB 012200Z 23021G27KT 20SM FEW040TCU BKN120 19/11 A2947 RMK TCU2AC3 SLP980

CYQB;2009-05-01 23:00;CYQB 012300Z 23024G32KT 20SM FEW040TCU SCT120 18/11 A2948 RMK TCU2AC2 SLP983

CYQB;2009-05-02 00:00;CYQB 020000Z 24019G24KT 20SM FEW040TCU FEW080 SCT210 17/12 A2949 RMK TCU2AC1CI0 SLP988

CYQB;2009-05-02 01:00;CYQB 020100Z 31021KT 15SM BKN052 16/09 A2953 RMK SC6 SLP002

CYQB;2009-05-02 02:00;CYQB 020200Z 28014G24KT 15SM FEW052 BKN068 OVC150 14/06 A2960 RMK SC2AC4AC2 PRESRR SLP024

CYQB;2009-05-02 02:46;CYQB 020246Z 28009G15KT 15SM -SHRA FEW052 BKN068 OVC150 13/ RMK SC1AC6AC2

CYQB;2009-05-02 03:00;CYQB 020300Z 27007KT 15SM -SHRA FEW052 OVC062 12/06 A2960 RMK SC1SC7 SLP025

CYQB;2009-05-02 04:00;CYQB 020400Z 27009KT 15SM -SHRA OVC058 11/06 A2960 RMK SC8 SLP025

CYQB;2009-05-02 05:00;CYQB 020500Z 25008KT 15SM -SHRA BKN050 OVC069 10/06 A2963 RMK SC6AC2 SLP034

CYQB;2009-05-02 06:00;CYQB 020600Z 25005KT 10SM -SHRA FEW020 OVC042 09/07 A2963 RMK SC1SC7 SLP035

CYQB;2009-05-02 07:00;CYQB 020700Z 27006KT 12SM -SHRA OVC042 08/07 A2965 RMK SC8 SLP042

CYQB;2009-05-02 08:00;CYQB 020800Z 30010KT 12SM -SHRA OVC049 07/05 A2967 RMK SC8 SLP049

CYQB;2009-05-02 09:00;CYQB 020900Z 33011KT 15SM FEW020 SCT090 05/01 A2969 RMK SC2AC2 SLP055

CYQB;2009-05-02 10:00;CYQB 021000Z 29007KT 30SM FEW020 BKN092 05/01 A2972 RMK SC1AC5 SLP067

CYQB;2009-05-02 11:00;CYQB 021100Z 27008KT 30SM FEW020 FEW092 05/02 A2977 RMK SC1AC1 SLP081

CYQB;2009-05-02 12:00;CYQB 021200Z 27011KT 30SM FEW020 FEW092 06/03 A2978 RMK SC1AC2 SLP085

CYQB;2009-05-02 13:00;CYQB 021300Z 26015KT 30SM SCT030 06/01 A2979 RMK SC3 SLP090

CYQB;2009-05-02 14:00;CYQB 021400Z 25015KT 30SM SCT030 SCT220 07/01 A2981 RMK SC3CI1 SLP095

CYQB;2009-05-02 15:00;CYQB 021500Z 23013KT 30SM FEW030 SCT220 08/M01 A2983 RMK SC2CI0 SLP102

CYQB;2009-05-02 16:00;CYQB 021600Z 26012G19KT 30SM FEW030 BKN220 09/00 A2983 RMK SC2CI2 SLP104

CYQB;2009-05-02 17:00;CYQB 021700Z 23015G20KT 30SM FEW030 BKN220 09/M00 A2983 RMK SC2CI1 SLP102

CYQB;2009-05-02 18:00;CYQB 021800Z 22013G20KT 30SM FEW030 SCT060 BKN090 BKN220 10/00 A2982 RMK SC2SC1AC2CI1 SLP099

CYQB;2009-05-02 19:00;CYQB 021900Z 24013KT 30SM SCT045 SCT060 BKN080 10/M02 A2981 RMK CU3SC1AC2 SLP097

CYQB;2009-05-02 20:00;CYQB 022000Z 25009G15KT 30SM BKN060 BKN080 11/M02 A2980 RMK CU5AC1 SLP093

CYQB;2009-05-02 21:00;CYQB 022100Z 23012G21KT 30SM BKN060 12/M00 A2979 RMK CU5 SLP089

CYQB;2009-05-02 22:00;CYQB 022200Z 22012G18KT 30SM SCT060 12/M01 A2980 RMK CU3 SLP092

CYQB;2009-05-02 23:00;CYQB 022300Z 25010KT 30SM FEW065 11/M01 A2980 RMK SC2 SLP094

CYQB;2009-05-03 00:00;CYQB 030000Z 22005KT 15SM FEW060 10/M01 A2980 RMK SC1 SLP094

CYQB;2009-05-03 01:00;CYQB 030100Z 18004KT 15SM FEW060 09/M00 A2980 RMK SC1 SLP094

CYQB;2009-05-03 02:00;CYQB 030200Z 00000KT 15SM FEW060 08/M00 A2979 RMK SC2 SLP091

CYQB;2009-05-03 03:00;CYQB 030300Z 00000KT 15SM BKN068 08/00 A2978 RMK AC6 SLP088

CYQB;2009-05-03 04:00;CYQB 030400Z 23012KT 15SM BKN081 09/01 A2978 RMK AC2 SLP087

CYQB;2009-05-03 04:31;CYQB 030431Z 30030G38KT 12SM -SHRA BKN043 07/ RMK SC7

CYQB;2009-05-03 05:00;CYQB 030500Z 32009G17KT 15SM -SHRA OVC045 05/03 A2984 RMK SC8 SLP106

CYQB;2009-05-03 05:50;CYQB 030550Z 21010KT 15SM FEW028 OVC078 05/ RMK SC2AC6

CYQB;2009-05-03 06:00;CYQB 030600Z 24007KT 15SM FEW027 OVC080 05/04 A2985 RMK SF2AC6 SLP110

CYQB;2009-05-03 07:00;CYQB 030700Z 24007KT 15SM SCT058 BKN120 05/04 A2986 RMK SC4AC2 SLP112

CYQB;2009-05-03 08:00;CYQB 030800Z 24010KT 15SM FEW060 BKN090 05/03 A2986 RMK SC2AC3 SLP115

CYQB;2009-05-03 09:00;CYQB 030900Z 26009KT 15SM BKN080 05/03 A2989 RMK AC5 SLP123

CYQB;2009-05-03 10:00;CYQB 031000Z 26008KT 15SM SCT063 04/02 A2991 RMK SC4 SLP130

CYQB;2009-05-03 11:00;CYQB 031100Z 27005KT 30SM SCT060 05/03 A2993 RMK SC4 SLP138

CYQB;2009-05-03 12:00;CYQB 031200Z 26004KT 30SM FEW060 07/03 A2994 RMK SC2 SLP141

CYQB;2009-05-03 13:00;CYQB 031300Z 23005KT 30SM SCT048 08/01 A2994 RMK SC4 SLP141

CYQB;2009-05-03 14:00;CYQB 031400Z 22006KT 30SM BKN047 09/00 A2994 RMK SC6 SLP139

CYQB;2009-05-03 15:00;CYQB 031500Z 24004KT 30SM SCT047 BKN240 11/M01 A2993 RMK SC3CI3 SLP136

CYQB;2009-05-03 16:00;CYQB 031600Z 26007KT 30SM SCT047 BKN240 12/02 A2991 RMK SC3CI2 SLP131

CYQB;2009-05-03 17:00;CYQB 031700Z 25015G22KT 30SM FEW055 BKN090 BKN240 14/02 A2989 RMK CU2AC2CI0 SLP122

CYQB;2009-05-03 17:50;CYQB 031750Z 24018G29KT 20SM -SHRA BKN063 BKN090 BKN240 14/ RMK CU6AC1CI0

CYQB;2009-05-03 18:00;CYQB 031800Z 26026G33KT 20SM -SHRA BKN060 BKN090 BKN240 12/03 A2988 RMK CU6AC1CI0 SLP121

CYQB;2009-05-03 18:49;CYQB 031849Z 25016G22KT 20SM BKN060 BKN090 BKN240 13/ RMK CU5AC2CI0

CYQB;2009-05-03 19:00;CYQB 031900Z 25011G18KT 20SM BKN060 BKN090 13/04 A2987 RMK CU6AC1 SLP116

CYQB;2009-05-03 20:00;CYQB 032000Z 25012G21KT 30SM FEW060 SCT090 15/02 A2984 RMK CU2AC1 SLP108

CYQB;2009-05-03 21:00;CYQB 032100Z 27012G17KT 30SM FEW060 SCT090 16/02 A2983 RMK CU2AC1 SLP103

CYQB;2009-05-03 22:00;CYQB 032200Z 23018KT 30SM FEW060 FEW080 16/00 A2982 RMK CU2AC1 SLP101

CYQB;2009-05-03 23:00;CYQB 032300Z 24012G18KT 30SM FEW065 FEW080 15/M01 A2981 RMK CU1AC1 SLP098

CYQB;2009-05-04 00:00;CYQB 040000Z 21006KT 30SM FEW080 FEW130 13/01 A2982 RMK AC1AC1 SLP101

CYQB;2009-05-04 01:00;CYQB 040100Z 21007KT 15SM SCT120 13/01 A2983 RMK AC3 SLP105

CYQB;2009-05-04 02:00;CYQB 040200Z 22005KT 15SM FEW080 FEW120 11/02 A2984 RMK AC1AC2 SLP108

CYQB;2009-05-04 03:00;CYQB 040300Z 27008KT 15SM FEW130 09/02 A2984 RMK AC2 SLP107

CYQB;2009-05-04 04:00;CYQB 040400Z 25008KT 15SM SCT080 11/02 A2984 RMK AC3 SLP107

CYQB;2009-05-04 05:00;CYQB 040500Z 32005KT 15SM SCT120 10/03 A2986 RMK AC3 SLP115

CYQB;2009-05-04 06:00;CYQB 040600Z 36012G17KT 15SM SCT100 09/02 A2988 RMK AC4 SLP120

CYQB;2009-05-04 07:00;CYQB 040700Z 03002KT 15SM BKN086 09/02 A2990 RMK AC5 SLP127

CYQB;2009-05-04 08:00;CYQB 040800Z 27002KT 15SM BKN074 07/02 A2991 RMK AC5 SLP131

CYQB;2009-05-04 09:00;CYQB 040900Z 27002KT 15SM BKN095 06/02 A2993 RMK AC5 SLP137

CYQB;2009-05-04 10:00;CYQB 041000Z 28002KT 30SM SCT100 06/02 A2994 RMK AC3 SLP142

CYQB;2009-05-04 11:00;CYQB 041100Z 25005KT 30SM FEW100 09/04 A2998 RMK AC1 SLP153

CYQB;2009-05-04 12:00;CYQB 041200Z 26011KT 30SM FEW100 11/04 A3000 RMK AC1 SLP162

CYQB;2009-05-04 13:00;CYQB 041300Z 25009KT 30SM FEW100 12/04 A3002 RMK AC1 SLP167

CYQB;2009-05-04 14:00;CYQB 041400Z 25007KT 30SM FEW100 13/03 A3003 RMK AC1 SLP171

CYQB;2009-05-04 15:00;CYQB 041500Z 26010G18KT 30SM SCT060 SCT100 15/02 A3004 RMK CU3AC1 SLP174

CYQB;2009-05-04 16:00;CYQB 041600Z 28013G21KT 30SM BKN065 16/02 A3005 RMK CU5 SLP177

CYQB;2009-05-04 17:00;CYQB 041700Z 30015G20KT 30SM SCT065 BKN240 16/01 A3006 RMK CU4CI0 SLP180

CYQB;2009-05-04 18:00;CYQB 041800Z 27012G19KT 30SM FEW065 BKN240 17/00 A3006 RMK CU2CI0 SLP182

CYQB;2009-05-04 19:00;CYQB 041900Z 27012G22KT 30SM FEW065 BKN240 17/M01 A3006 RMK CU1CI1 SLP181

CYQB;2009-05-04 20:00;CYQB 042000Z 28014G19KT 30SM FEW065 BKN240 17/M03 A3007 RMK CU1CI1 SLP183

CYQB;2009-05-04 21:00;CYQB 042100Z 28015G24KT 30SM FEW065 BKN240 17/M03 A3008 RMK CU1CI2 SLP186

CYQB;2009-05-04 22:00;CYQB 042200Z 31008KT 30SM FEW065 BKN240 17/M04 A3010 RMK CU1CI1 SLP193

CYQB;2009-05-04 23:00;CYQB 042300Z 32005KT 30SM BKN240 16/M05 A3012 RMK CI1 SLP202

CYQB;2009-05-05 00:00;CYQB 050000Z 36006KT 20SM FEW240 14/M06 A3015 RMK CI1 SLP212

CYQB;2009-05-05 01:00;CYQB 050100Z 35008KT 20SM FEW240 12/M06 A3019 RMK CI1 SLP223

CYQB;2009-05-05 02:00;CYQB 050200Z 35009KT 15SM FEW240 10/M05 A3021 RMK CI1 SLP232

CYQB;2009-05-05 03:00;CYQB 050300Z 01006KT 15SM FEW240 09/M05 A3023 RMK CI1 SLP239

CYQB;2009-05-05 04:00;CYQB 050400Z 02006KT 15SM FEW240 09/M06 A3025 RMK CI1 SLP246

CYQB;2009-05-05 05:00;CYQB 050500Z 03005KT 15SM FEW240 08/M03 A3027 RMK CI1 SLP252

CYQB;2009-05-05 06:00;CYQB 050600Z 03006KT 15SM SKC 07/M02 A3028 RMK SLP257

CYQB;2009-05-05 07:00;CYQB 050700Z 04004KT 15SM SKC 06/M04 A3030 RMK SLP263

CYQB;2009-05-05 08:00;CYQB 050800Z 04006KT 15SM SKC 05/M04 A3033 RMK SLP271

CYQB;2009-05-05 09:00;CYQB 050900Z 08006KT 15SM FEW240 05/M04 A3035 RMK CI1 SLP280

CYQB;2009-05-05 10:00;CYQB 051000Z 02006KT 50SM FEW250 05/M04 A3037 RMK CI0 SLP285

CYQB;2009-05-05 11:00;CYQB 051100Z 06010KT 50SM FEW250 07/M04 A3039 RMK CI0 SLP291

CYQB;2009-05-05 12:00;CYQB 051200Z 08013G18KT 50SM FEW250 08/M04 A3039 RMK CI0 SLP292

CYQB;2009-05-05 13:00;CYQB 051300Z 08013G19KT 50SM FEW250 09/M04 A3039 RMK CI1 SLP291

CYQB;2009-05-05 14:00;CYQB 051400Z 08011G19KT 50SM SCT250 11/M04 A3038 RMK CI1 SLP290

CYQB;2009-05-05 15:00;CYQB 051500Z 07012KT 50SM BKN250 13/M02 A3036 RMK CI2 SLP284

CYQB;2009-05-05 16:00;CYQB 051600Z 06012G17KT 50SM BKN250 14/M04 A3033 RMK CI2 SLP274

CYQB;2009-05-05 17:00;CYQB 051700Z 09011G17KT 50SM BKN250 15/M03 A3032 RMK CI2 SLP270

CYQB;2009-05-05 18:00;CYQB 051800Z 07011KT 50SM BKN250 17/M01 A3030 RMK CI2 SLP261

CYQB;2009-05-05 19:00;CYQB 051900Z 06010KT 30SM BKN240 16/M01 A3027 RMK CI4 SLP253

CYQB;2009-05-05 20:00;CYQB 052000Z 07013KT 30SM OVC230 17/M01 A3024 RMK CI5 SLP243

CYQB;2009-05-05 21:00;CYQB 052100Z 09010KT 30SM OVC240 16/01 A3021 RMK CI6 SLP233

CYQB;2009-05-05 22:00;CYQB 052200Z 09010KT 30SM OVC220 13/M01 A3021 RMK CI7 SLP233

CYQB;2009-05-05 23:00;CYQB 052300Z 08009KT 30SM OVC200 12/M00 A3022 RMK CI7 SLP237

CYQB;2009-05-06 00:00;CYQB 060000Z 08011KT 15SM OVC160 11/00 A3021 RMK AC7 SLP233

CYQB;2009-05-06 01:00;CYQB 060100Z 07008KT 15SM OVC180 11/M01 A3021 RMK AC8 SLP232

CYQB;2009-05-06 02:00;CYQB 060200Z 08006KT 15SM OVC180 10/01 A3023 RMK AC8 SLP240

CYQB;2009-05-06 03:00;CYQB 060300Z 07011KT 15SM OVC180 10/01 A3021 RMK AC8 SLP232

CYQB;2009-05-06 04:00;CYQB 060400Z 08008KT 15SM OVC180 10/02 A3019 RMK AC8 SLP227

CYQB;2009-05-06 05:00;CYQB 060500Z 08006KT 15SM OVC180 09/03 A3019 RMK AC8 SLP226

CYQB;2009-05-06 06:00;CYQB 060600Z 07011G16KT 15SM OVC180 09/02 A3017 RMK AC8 SLP217

CYQB;2009-05-06 07:00;CYQB 060700Z 07011KT 15SM OVC090 09/03 A3014 RMK AC8 SLP209

CYQB;2009-05-06 08:00;CYQB 060800Z 08009KT 15SM OVC080 09/03 A3015 RMK AC8 SLP210

CYQB;2009-05-06 09:00;CYQB 060900Z 09007KT 15SM OVC040 08/03 A3014 RMK SC8 SLP206

CYQB;2009-05-06 10:00;CYQB 061000Z 07009KT 10SM -RA BKN030 OVC060 08/02 A3013 RMK SC5SC3 SLP203

CYQB;2009-05-06 11:00;CYQB 061100Z 06006KT 15SM -DZ BKN010 BKN035 OVC090 08/04 A3012 RMK SF4SC1AC3 VIS WNW 3 E 30 SLP202

CYQB;2009-05-06 12:00;CYQB 061200Z 06010KT 12SM FEW010 BKN035 OVC090 08/04 A3011 RMK SF2SC4AC2 SLP200

CYQB;2009-05-06 13:00;CYQB 061300Z 09005KT 12SM BKN030 OVC090 09/05 A3011 RMK SC5AC3 SLP197

CYQB;2009-05-06 13:23;CYQB 061323Z 08007KT 12SM -RA BKN030 OVC090 09/ RMK SC5AC3

CYQB;2009-05-06 14:00;CYQB 061400Z 09007KT 12SM -RA BKN030 BKN090 OVC140 09/06 A3009 RMK SC5AC2AC2 SLP193

CYQB;2009-05-06 15:00;CYQB 061500Z 08008KT 10SM -RA BKN028 BKN080 OVC120 09/06 A3008 RMK SC6AC2AC1 SLP189

CYQB;2009-05-06 16:00;CYQB 061600Z 07005KT 10SM -RA FEW012 BKN027 OVC080 08/06 A3008 RMK SF1SC6AC2 SLP188

CYQB;2009-05-06 17:00;CYQB 061700Z 09005KT 6SM -RA BKN014 BKN028 OVC080 08/06 A3007 RMK SC5SC2AC2 SLP186

CYQB;2009-05-06 18:00;CYQB 061800Z 09007KT 8SM -DZ BKN014 BKN028 BKN080 09/07 A3006 RMK SF6SC1AC1 SLP182

CYQB;2009-05-06 18:27;CYQB 061827Z 09006KT 15SM BKN015 BKN080 09/ RMK SF5AC2 VIS LWR N

CYQB;2009-05-06 19:00;CYQB 061900Z CCA 10006KT 15SM BKN016 10/07 A3006 RMK SC7 SLP181

CYQB;2009-05-06 20:00;CYQB 062000Z 08006KT 15SM BKN016 10/07 A3004 RMK SC7 SLP175

CYQB;2009-05-06 21:00;CYQB 062100Z 09008KT 15SM BKN015 09/06 A3005 RMK SC7 SLP178

CYQB;2009-05-06 22:00;CYQB 062200Z 11007KT 15SM FEW015 BKN060 BKN100 09/06 A3006 RMK SC2SC3AC1 SLP180

CYQB;2009-05-06 23:00;CYQB 062300Z 06004KT 15SM FEW015 BKN050 BKN200 08/06 A3006 RMK SC2SC5CI1 SLP181

CYQB;2009-05-07 00:00;CYQB 070000Z 08006KT 15SM FEW015 BKN040 OVC200 08/06 A3006 RMK SC2SC6CI1 SLP182

CYQB;2009-05-07 01:00;CYQB 070100Z 07008KT 15SM FEW015 OVC040 07/06 A3006 RMK SF2SC6 SLP183

CYQB;2009-05-07 02:00;CYQB 070200Z 07008KT 15SM FEW012 OVC030 07/05 A3008 RMK SF1SC7 SLP187

CYQB;2009-05-07 03:00;CYQB 070300Z 06007KT 15SM SCT035 BKN220 07/05 A3006 RMK SC4CI2 SLP181

CYQB;2009-05-07 04:00;CYQB 070400Z 07005KT 15SM FEW070 BKN220 06/05 A3006 RMK AC1CI1 SLP181

CYQB;2009-05-07 05:00;CYQB 070500Z 05009KT 15SM SCT070 BKN220 07/05 A3004 RMK AC2CI2 SLP176

CYQB;2009-05-07 06:00;CYQB 070600Z 05007KT 15SM FEW012 SCT070 OVC220 07/05 A3001 RMK SF1AC3CI4 SLP164

CYQB;2009-05-07 07:00;CYQB 070700Z 10004KT 15SM BKN070 BKN220 07/05 A2999 RMK AC5CI1 SLP157

CYQB;2009-05-07 08:00;CYQB 070800Z 10004KT 15SM FEW012 BKN070 BKN220 07/05 A2998 RMK SF2AC5CI1 SLP154

CYQB;2009-05-07 09:00;CYQB 070900Z 05008KT 15SM FEW012 BKN040 07/06 A2996 RMK SF2SC6 SLP148

CYQB;2009-05-07 10:00;CYQB 071000Z 06010G15KT 30SM SCT012 OVC028 07/05 A2994 RMK SF4SC4 SLP143

CYQB;2009-05-07 11:00;CYQB 071100Z 07010G15KT 30SM FEW012 BKN028 BKN120 07/05 A2992 RMK SF1SC7AC1 SLP136

CYQB;2009-05-07 12:00;CYQB 071200Z 08007KT 30SM FEW030 BKN080 08/06 A2991 RMK SC1AC6 SLP130

CYQB;2009-05-07 13:00;CYQB 071300Z 07014G19KT 30SM BKN030 BKN080 09/05 A2989 RMK SC5AC2 SLP123

CYQB;2009-05-07 13:07;CYQB 071307Z 07013G19KT 30SM -RA BKN030 OVC080 09/ RMK SC6AC2

CYQB;2009-05-07 14:00;CYQB 071400Z 07012G19KT 6SM -RA BR BKN030 OVC080 09/06 A2988 RMK SC6AC2 SLP119

CYQB;2009-05-07 15:00;CYQB 071500Z 08013G18KT 6SM -RA BR FEW010 BKN030 OVC080 08/07 A2986 RMK SF2SC5AC2 SLP113

CYQB;2009-05-07 16:00;CYQB 071600Z 07012G19KT 5SM -RA BR FEW012 OVC025 09/07 A2985 RMK SF2SC6 SLP110

CYQB;2009-05-07 17:00;CYQB 071700Z 07016G21KT 5SM -RA BR BKN012 OVC030 09/08 A2982 RMK SF6SC2 SLP101

CYQB;2009-05-07 18:00;CYQB 071800Z 07018G25KT 5SM -RA BR BKN006 OVC025 09/09 A2979 RMK SF6SC2 SLP090

CYQB;2009-05-07 19:00;CYQB 071900Z 07017KT 4SM -RA BR BKN005 OVC025 09/08 A2977 RMK SF5SC3 SLP083

CYQB;2009-05-07 20:00;CYQB 072000Z 07014G20KT 5SM -RA BR BKN006 OVC025 10/09 A2974 RMK SF6SC2 SLP074

CYQB;2009-05-07 21:00;CYQB 072100Z 07013G19KT 2 1/2SM -RA BR BKN005 OVC020 09/09 A2974 RMK SF6SC2 SLP074

CYQB;2009-05-07 22:00;CYQB 072200Z 07008G15KT 2 1/2SM RA BR OVC004 09/09 A2975 RMK SF8 SLP077

CYQB;2009-05-07 23:00;CYQB 072300Z 06010KT 2SM RA BR OVC004 09/09 A2974 RMK SF8 SLP074

CYQB;2009-05-07 23:13;CYQB 072313Z 07010KT 2SM RA BR OVC008 09/ RMK SF8

CYQB;2009-05-07 23:16;CYQB 072316Z 07009KT 2SM RA BR OVC004 09/ RMK SF8

CYQB;2009-05-08 00:00;CYQB 080000Z 07009KT 3SM -RA BR OVC004 09/09 A2974 RMK SF8 SLP073

CYQB;2009-05-08 01:00;CYQB 080100Z 07013KT 6SM -RA BR OVC005 09/09 A2975 RMK SF8 SLP075

CYQB;2009-05-08 02:00;CYQB 080200Z 07010KT 6SM -RA BR BKN005 OVC012 09/08 A2975 RMK SF6SC2 SLP075

CYQB;2009-05-08 03:00;CYQB 080300Z 08007KT 6SM -RA BR BKN005 OVC016 08/08 A2974 RMK SF6SC2 SLP074

CYQB;2009-05-08 04:00;CYQB 080400Z 08005KT 6SM -RADZ BR BKN004 OVC020 08/08 A2974 RMK SF5SC3 SLP072

CYQB;2009-05-08 04:36;CYQB 080436Z 08006KT 6SM -DZ BR BKN004 OVC020 08/ RMK SF5SC3

CYQB;2009-05-08 05:00;CYQB 080500Z 08006KT 6SM BR BKN004 OVC020 08/08 A2974 RMK SF5SC3 SLP072

CYQB;2009-05-08 05:19;CYQB 080519Z 07005KT 6SM BR SCT005 OVC015 08/ RMK SF4SC4

CYQB;2009-05-08 06:00;CYQB 080600Z 07004KT 5SM BR SCT005 OVC015 08/08 A2973 RMK SF3SC5 SLP069

CYQB;2009-05-08 07:00;CYQB 080700Z 04002KT 5SM BR BKN005 OVC015 08/08 A2974 RMK SF5SC3 SLP072

CYQB;2009-05-08 08:00;CYQB 080800Z 27003KT 3SM BR BKN005 OVC015 08/08 A2975 RMK SF5SC3 SLP075

CYQB;2009-05-08 08:31;CYQB 080831Z 27002KT 6SM BR SCT005 OVC015 08/ RMK SF3SC5

CYQB;2009-05-08 09:00;CYQB 080900Z 00000KT 6SM BR SCT005 BKN015 08/08 A2974 RMK SF4SC3 SLP074

CYQB;2009-05-08 09:23;CYQB 080923Z 23002KT 3SM BR BKN005 OVC015 08/ RMK SF6SC2

CYQB;2009-05-08 10:00;CYQB 081000Z 23003KT 3SM BR OVC005 08/08 A2975 RMK ST8 SLP078

CYQB;2009-05-08 10:35;CYQB 081035Z 22003KT 3SM BR OVC004 09/ RMK ST8

CYQB;2009-05-08 11:00;CYQB 081100Z 00000KT 3SM BR OVC005 09/08 A2975 RMK ST8 SLP078

CYQB;2009-05-08 11:34;CYQB 081134Z 00000KT 3SM -DZ BR BKN005 BKN018 09/ RMK SF6SC1 BLN DSAPRD 700 FT

CYQB;2009-05-08 12:00;CYQB 081200Z 16004KT 3SM -DZ BR BKN005 OVC020 09/09 A2975 RMK SF6SC2 BLN DSAPRD 700 FT SLP075

CYQB;2009-05-08 13:00;CYQB 081300Z 26002KT 6SM BR BKN013 OVC020 11/08 A2974 RMK SC6SC2 SLP072

CYQB;2009-05-08 14:00;CYQB 081400Z 25002KT 6SM BR OVC013 11/09 A2974 RMK SC8 SLP073

CYQB;2009-05-08 15:00;CYQB 081500Z 25005KT 8SM OVC014 12/08 A2975 RMK SC8 SLP075

CYQB;2009-05-08 16:00;CYQB 081600Z 14004KT 8SM -RA BKN015 OVC020 12/09 A2974 RMK SC7SC1 SLP074

CYQB;2009-05-08 17:00;CYQB 081700Z 00000KT 8SM -RA OVC015 12/10 A2973 RMK SC8 SLP071

CYQB;2009-05-08 17:41;CYQB 081741Z 09002KT 2 1/2SM -SHRA BR BKN017 OVC023 12/ RMK SC6SC2

CYQB;2009-05-08 18:00;CYQB 081800Z 02002KT 4SM -SHRA BR BKN009 OVC013 12/10 A2972 RMK SF6SC2 SLP067

CYQB;2009-05-08 19:00;CYQB 081900Z 08003KT 2SM -SHRA BR OVC012 11/10 A2971 RMK SF8 SLP063

CYQB;2009-05-08 19:49;CYQB 081949Z 04004KT 2SM -DZ BR OVC009 11/ RMK SF8

CYQB;2009-05-08 20:00;CYQB 082000Z 03003KT 2SM -DZ BR OVC008 11/10 A2971 RMK SF8 GIC VRB 7-9 SLP061

CYQB;2009-05-08 21:00;CYQB 082100Z 07003KT 3SM BR SCT003 OVC012 12/11 A2971 RMK SF4SC4 SLP061

CYQB;2009-05-08 22:00;CYQB 082200Z 05003KT 4SM BR FEW003 BKN081 12/11 A2970 RMK SF2AC3 SLP058

CYQB;2009-05-08 23:00;CYQB 082300Z 14003KT 4SM BR FEW006 BKN090 12/11 A2971 RMK SF2AC3 SLP061

CYQB;2009-05-09 00:00;CYQB 090000Z 04004KT 4SM BR SCT090 12/11 A2970 RMK AC3 SLP057

CYQB;2009-05-09 01:00;CYQB 090100Z 06002KT 4SM R06/1100V1600FT/N BR FEW090 11/10 A2972 RMK AC2 SLP064

CYQB;2009-05-09 02:00;CYQB 090200Z 00000KT 5SM R06/2000FT/U BR MIFG SKC 09/09 A2972 RMK SLP065

CYQB;2009-05-09 03:00;CYQB 090300Z 00000KT 3/8SM R06/1600V2200FT/N FG SKC 07/07 A2971 RMK FG1 SLP063

CYQB;2009-05-09 04:00;CYQB 090400Z 34002KT 1/2SM R06/1200FT/N FG SKC 08/08 A2972 RMK FG2 VIS 1 NE-E SLP066

CYQB;2009-05-09 04:24;CYQB 090424Z 00000KT 3/8SM R06/1100V1600FT/N FG SKC 07/ RMK FG2 VIS SW-W HIER

CYQB;2009-05-09 05:00;CYQB 090500Z 03004KT 6SM R06/1100V1800FT/N BR MIFG FEW220 08/08 A2970 RMK CI1 SLP060

CYQB;2009-05-09 06:00;CYQB 090600Z 01003KT 15SM FEW010 07/07 A2970 RMK ST1 VIS SE 5 SLP060

CYQB;2009-05-09 07:00;CYQB 090700Z 02003KT 15SM R06/3500VP6000FT/D MIFG FEW001 FEW200 08/08 A2968 RMK ST1CI1 SLP054

CYQB;2009-05-09 08:00;CYQB 090800Z 02003KT 10SM FEW010 FEW230 07/07 A2969 RMK ST1CI0 SLP055

CYQB;2009-05-09 09:00;CYQB 090900Z 02004KT 15SM PRFG FEW050 FEW230 07/06 A2968 RMK SC2CI0 SLP053

CYQB;2009-05-09 10:00;CYQB 091000Z 03005KT 15SM PRFG FEW030 FEW230 07/07 A2969 RMK SC1CI0 SLP054

CYQB;2009-05-09 11:00;CYQB 091100Z 02002KT 6SM BR BKN002 08/07 A2968 RMK SF3 SLP051

CYQB;2009-05-09 12:00;CYQB 091200Z 05005KT 1SM R06/P6000FT/N BR BKN002 09/09 A2967 RMK SF7 SLP050

CYQB;2009-05-09 12:12;CYQB 091212Z 06005KT 1/4SM R06/1400V1800FT/N FG OVC002 09/ RMK ST8 SUN DIMLY VSBL

CYQB;2009-05-09 12:26;CYQB 091226Z 07003KT 1 1/2SM R06/2600VP6000FT/N BR SCT002 10/ RMK SF3

CYQB;2009-05-09 13:00;CYQB 091300Z 11004KT 1 1/2SM BR FEW002 SCT120 BKN230 11/10 A2967 RMK SF2AC1CI0 SLP047

CYQB;2009-05-09 13:11;CYQB 091311Z 08002KT 4SM BR FEW002 SCT110 BKN230 12/ RMK SF1AC2CI1

CYQB;2009-05-09 14:00;CYQB 091400Z 02002KT 10SM FEW110 SCT220 15/11 A2965 RMK AC1CI1 SLP042

CYQB;2009-05-09 15:00;CYQB 091500Z 00000KT 10SM BKN100 OVC220 17/11 A2964 RMK AC6CI2 SLP037

CYQB;2009-05-09 16:00;CYQB 091600Z 00000KT 10SM FEW030 OVC085 18/12 A2961 RMK CU2AC6 SLP030

CYQB;2009-05-09 17:00;CYQB 091700Z 36003KT 10SM FEW030 BKN090 OVC180 18/12 A2958 RMK CU2AC5CS2 SLP019

CYQB;2009-05-09 18:00;CYQB 091800Z 14002KT 20SM FEW030 OVC140 19/12 A2955 RMK CU2AC6 SLP007

CYQB;2009-05-09 19:00;CYQB 091900Z 20002KT 20SM FEW035 OVC140 19/12 A2954 RMK CU2AC6 SLP003

CYQB;2009-05-09 20:00;CYQB 092000Z 00000KT 20SM SCT040 OVC130 19/12 A2951 RMK CU3AC5 SLP995

CYQB;2009-05-09 21:00;CYQB 092100Z 12008KT 20SM SCT040 OVC100 18/12 A2947 RMK CU3AC5 SHWRS S SLP981

CYQB;2009-05-09 22:00;CYQB 092200Z 15005KT 20SM BKN045 OVC100 17/13 A2947 RMK CU5AC3 SLP981

CYQB;2009-05-09 23:00;CYQB 092300Z 06010KT 10SM SCT040 OVC080 13/10 A2946 RMK CU3AC5 SLP978

CYQB;2009-05-10 00:00;CYQB 100000Z 07011KT 8SM SCT040 OVC090 11/09 A2945 RMK CU3AC5 SLP975

CYQB;2009-05-10 01:00;CYQB 100100Z 07008KT 10SM SCT040 OVC100 11/09 A2943 RMK CU3AC5 SLP969

CYQB;2009-05-10 02:00;CYQB 100200Z 10006KT 10SM -RA SCT040 OVC065 11/09 A2943 RMK SC3SC5 SLP968

CYQB;2009-05-10 03:00;CYQB 100300Z 05006KT 5SM -RA BR FEW004 SCT025 OVC050 11/10 A2942 RMK SF1SC4SC4 SLP965

CYQB;2009-05-10 04:00;CYQB 100400Z 08006KT 4SM -RA BR FEW004 OVC058 10/10 A2941 RMK SF2SC6 SLP959

CYQB;2009-05-10 05:00;CYQB 100500Z 03003KT 3SM -RA BR FEW002 SCT006 OVC050 10/10 A2940 RMK SF2SF2SC4 SLP956

CYQB;2009-05-10 05:25;CYQB 100525Z 10007KT 3SM -RA BR SCT002 OVC007 10/ RMK SF4SF4

CYQB;2009-05-10 06:00;CYQB 100600Z 08004KT 2SM -RA BR BKN002 OVC007 10/09 A2940 RMK SF6SF2 SLP957

CYQB;2009-05-10 07:00;CYQB 100700Z 00000KT 7SM -RA FEW002 BKN005 OVC055 10/09 A2941 RMK SF2SF2SC3 SLP959

CYQB;2009-05-10 08:00;CYQB 100800Z 35008KT 15SM FEW002 SCT030 OVC059 10/08 A2943 RMK SF2SC2SC4 OCNL -SHRA SLP967

CYQB;2009-05-10 08:20;CYQB 100820Z 34006KT 15SM FEW002 FEW030 BKN052 OVC150 10/ RMK SF1SC2SC5AC1

CYQB;2009-05-10 09:00;CYQB 100900Z 35010KT 15SM FEW006 FEW029 BKN052 BKN150 10/06 A2945 RMK SF1SC2SC4AC1 SLP972

CYQB;2009-05-10 10:00;CYQB 101000Z 34010G16KT 15SM FEW006 FEW015 BKN055 BKN150 BKN220 09/06 A2948 RMK SF1SC1SC4AC1CI1 SLP985

CYQB;2009-05-10 11:00;CYQB 101100Z 32008KT 15SM FEW010 BKN062 BKN150 BKN220 08/04 A2951 RMK SF1SC4AC2CI1 SLP995

CYQB;2009-05-10 12:00;CYQB 101200Z 32012KT 15SM FEW010 BKN070 BKN120 BKN200 08/04 A2953 RMK SF1AC4AC2CI1 VIRGA SLP003

CYQB;2009-05-10 12:27;CYQB 101227Z 31009KT 15SM -SHRA FEW010 BKN075 BKN200 08/ RMK SF1AC6CI1

CYQB;2009-05-10 13:00;CYQB 101300Z 32010KT 15SM -SHRA FEW020 BKN080 BKN200 08/04 A2956 RMK SF1AC6CI1 SLP010

CYQB;2009-05-10 14:00;CYQB 101400Z 29010KT 15SM -SHRA FEW020 BKN075 BKN200 08/04 A2957 RMK SC1AC6CI1 SLP015

CYQB;2009-05-10 15:00;CYQB 101500Z 26013KT 15SM FEW010 OVC075 08/05 A2959 RMK SF1AC7 SLP021

CYQB;2009-05-10 16:00;CYQB 101600Z 25014KT 15SM FEW010 BKN040 OVC080 09/06 A2960 RMK SF1SC6AC1 SLP026

CYQB;2009-05-10 17:00;CYQB 101700Z 24015KT 15SM -SHRA FEW010 BKN038 08/06 A2961 RMK SF1SC6 SLP030

CYQB;2009-05-10 18:00;CYQB 101800Z 25012KT 15SM FEW010 OVC038 10/06 A2964 RMK SF1SC7 SLP037

CYQB;2009-05-10 18:54;CYQB 101854Z 26014KT 15SM -SHRA FEW010 OVC041 09/ RMK SF1SC7

CYQB;2009-05-10 19:00;CYQB 101900Z 26014KT 15SM FEW010 OVC041 09/05 A2967 RMK SF1SC7 OCNL -SHRA SLP047

CYQB;2009-05-10 20:00;CYQB 102000Z 32008G16KT 15SM FEW020 OVC039 09/04 A2970 RMK SC1SC7 SLP058

CYQB;2009-05-10 21:00;CYQB 102100Z 29008KT 12SM -SHRA FEW010 OVC039 08/04 A2973 RMK SF1SC7 SLP071

CYQB;2009-05-10 22:00;CYQB 102200Z 30007KT 15SM -SHRA FEW010 OVC045 08/04 A2977 RMK SF1SC7 SLP083

CYQB;2009-05-10 23:00;CYQB 102300Z 29007KT 15SM -SHRA FEW015 BKN047 08/04 A2980 RMK SC1SC6 SLP092

CYQB;2009-05-11 00:00;CYQB 110000Z 26005KT 15SM BKN038 BKN058 08/04 A2983 RMK SC6SC2 SLP103

CYQB;2009-05-11 01:00;CYQB 110100Z 25007KT 15SM SCT038 BKN065 07/05 A2986 RMK SC4SC3 SLP114

CYQB;2009-05-11 02:00;CYQB 110200Z 26005KT 15SM BKN059 07/06 A2988 RMK SC7 SLP120

CYQB;2009-05-11 03:00;CYQB 110300Z 24006KT 15SM OVC063 07/05 A2989 RMK SC8 SLP122

CYQB;2009-05-11 04:00;CYQB 110400Z 24005KT 15SM OVC074 07/05 A2990 RMK AC8 SLP126

CYQB;2009-05-11 05:00;CYQB 110500Z 26006KT 15SM FEW030 FEW070 SCT240 05/04 A2991 RMK SC2AC1CI1 SLP130

CYQB;2009-05-11 06:00;CYQB 110600Z 30005KT 15SM FEW070 04/02 A2992 RMK AC2 SLP134

CYQB;2009-05-11 07:00;CYQB 110700Z 31007KT 15SM SCT240 05/00 A2992 RMK CI2 SLP134

CYQB;2009-05-11 08:00;CYQB 110800Z 33006KT 15SM BKN240 05/M01 A2993 RMK CI2 SLP137

CYQB;2009-05-11 09:00;CYQB 110900Z 34006KT 15SM FEW120 BKN230 04/M02 A2994 RMK AC1CI2 SLP141

CYQB;2009-05-11 10:00;CYQB 111000Z 33004KT 15SM BKN230 04/M02 A2996 RMK CI2 SLP147

CYQB;2009-05-11 11:00;CYQB 111100Z 34004KT 15SM BKN230 05/M02 A2998 RMK CI2 SLP154

CYQB;2009-05-11 12:00;CYQB 111200Z 34006KT 15SM BKN230 07/M02 A3000 RMK CI2 SLP162

CYQB;2009-05-11 13:00;CYQB 111300Z 00000KT 15SM FEW030 BKN230 08/M02 A3000 RMK CF1CI2 SLP163

CYQB;2009-05-11 14:00;CYQB 111400Z 12003KT 15SM FEW040 BKN230 10/M00 A3001 RMK CU1CI2 SLP165

CYQB;2009-05-11 15:00;CYQB 111500Z 17006KT 15SM FEW040 BKN230 10/00 A3001 RMK CU1CI4 SLP164

CYQB;2009-05-11 16:00;CYQB 111600Z 17010KT 15SM FEW045 BKN230 11/M01 A3000 RMK CU1CI3 SLP162

CYQB;2009-05-11 17:00;CYQB 111700Z 19009G18KT 15SM FEW045 BKN230 12/M01 A2999 RMK CU1CI2 SLP158

CYQB;2009-05-11 18:00;CYQB 111800Z 27011G17KT 15SM FEW050 BKN230 15/00 A2998 RMK CU1CI2 BARO READ +23 SLP154

CYQB;2009-05-11 19:00;CYQB 111900Z 29005KT 30SM FEW055 BKN230 15/M02 A2998 RMK CU2CI2 SLP154

CYQB;2009-05-11 20:00;CYQB 112000Z 31007G15KT 30SM FEW060 BKN230 14/M04 A2998 RMK CU1CI2 SLP154

CYQB;2009-05-11 21:00;CYQB 112100Z 29008G17KT 30SM FEW060 BKN230 15/M03 A2998 RMK CF1CI2 SLP153

CYQB;2009-05-11 22:00;CYQB 112200Z 30007KT 30SM FEW055 BKN230 15/M03 A2998 RMK CF1CI1 SLP154

CYQB;2009-05-11 23:00;CYQB 112300Z 31007KT 30SM FEW055 SCT230 14/M03 A2999 RMK SC1CI1 SLP158

CYQB;2009-05-12 00:00;CYQB 120000Z 35004KT 15SM FEW055 SCT230 13/M03 A3001 RMK SC1CI1 SLP163

CYQB;2009-05-12 01:00;CYQB 120100Z 35003KT 15SM FEW050 SCT230 12/M03 A3003 RMK SC1CI1 SLP171

CYQB;2009-05-12 02:00;CYQB 120200Z 33002KT 15SM SCT093 09/M02 A3004 RMK AC2 SLP175

CYQB;2009-05-12 03:00;CYQB 120300Z 04007KT 15SM BKN090 09/03 A3007 RMK AC3 SLP184

CYQB;2009-05-12 04:00;CYQB 120400Z 36002KT 15SM BKN092 08/M01 A3008 RMK AC4 SLP187

CYQB;2009-05-12 05:00;CYQB 120500Z 02004KT 15SM FEW090 07/M02 A3008 RMK AC1 SLP189

CYQB;2009-05-12 06:00;CYQB 120600Z 02005KT 15SM FEW090 06/M03 A3008 RMK AC1 SLP190

CYQB;2009-05-12 07:00;CYQB 120700Z 03006KT 15SM FEW090 05/M04 A3010 RMK AC1 SLP194

CYQB;2009-05-12 08:00;CYQB 120800Z 02007KT 15SM FEW090 04/M04 A3011 RMK AC1 SLP199

CYQB;2009-05-12 09:00;CYQB 120900Z 02007KT 30SM FEW020 FEW090 04/M04 A3013 RMK SC1AC1 SLP204

CYQB;2009-05-12 10:00;CYQB 121000Z 02007KT 30SM FEW090 BKN230 03/M04 A3015 RMK AC1CI2 SLP213

CYQB;2009-05-12 11:00;CYQB 121100Z 01005KT 30SM FEW090 BKN230 06/M03 A3018 RMK AC1CI2 SLP221

CYQB;2009-05-12 12:00;CYQB 121200Z 01004KT 30SM FEW090 BKN220 07/M02 A3020 RMK AC1CI2 SLP228

CYQB;2009-05-12 13:00;CYQB 121300Z 08002KT 30SM FEW070 BKN220 10/M01 A3021 RMK AC1CI1 SLP232

CYQB;2009-05-12 14:00;CYQB 121400Z 11002KT 30SM FEW070 FEW220 13/M02 A3021 RMK AC1CI1 SLP232

CYQB;2009-05-12 15:00;CYQB 121500Z 10005KT 30SM FEW070 FEW220 14/M04 A3020 RMK AC1CI1 SLP230

CYQB;2009-05-12 16:00;CYQB 121600Z 24005KT 30SM FEW070 FEW220 15/M03 A3019 RMK AC1CI1 SLP227

CYQB;2009-05-12 17:00;CYQB 121700Z 12003KT 30SM FEW080 FEW220 15/M04 A3018 RMK AC1CI1 SLP223

CYQB;2009-05-12 18:00;CYQB 121800Z 17007KT 30SM R06/3500FT/N FEW080 FEW220 16/M03 A3018 RMK AC1CI1 SLP221

CYQB;2009-05-12 19:00;CYQB 121900Z 23008KT 30SM FEW060 FEW230 17/M03 A3017 RMK CU1CI1 SLP218

CYQB;2009-05-12 20:00;CYQB 122000Z 20005KT 30SM FEW060 FEW230 17/M04 A3017 RMK CU1CI1 SLP217

CYQB;2009-05-12 21:00;CYQB 122100Z 20007KT 30SM FEW060 FEW230 17/M03 A3016 RMK CU1CI1 SLP215

CYQB;2009-05-12 22:00;CYQB 122200Z 20005KT 30SM FEW060 FEW230 17/M04 A3016 RMK CU1CI1 SLP216

CYQB;2009-05-12 23:00;CYQB 122300Z 26007KT 30SM FEW060 FEW230 16/M03 A3017 RMK SC1CI1 SLP218

CYQB;2009-05-13 00:00;CYQB 130000Z 26004KT 30SM FEW230 14/M02 A3018 RMK CI1 SLP221

CYQB;2009-05-13 01:00;CYQB 130100Z 28002KT 15SM SKC 12/M01 A3019 RMK SLP227

CYQB;2009-05-13 02:00;CYQB 130200Z 27002KT 15SM SKC 08/02 A3021 RMK SLP232

CYQB;2009-05-13 03:00;CYQB 130300Z 36003KT 15SM SKC 09/M01 A3022 RMK SLP237

CYQB;2009-05-13 04:00;CYQB 130400Z 02004KT 15SM SKC 09/M02 A3024 RMK SLP242

CYQB;2009-05-13 05:00;CYQB 130500Z 04003KT 15SM SKC 07/M01 A3025 RMK SLP247

CYQB;2009-05-13 06:00;CYQB 130600Z 01003KT 15SM FEW220 07/M02 A3027 RMK CI1 SLP253

CYQB;2009-05-13 07:00;CYQB 130700Z 00000KT 15SM SKC 04/M01 A3029 RMK SLP258

CYQB;2009-05-13 08:00;CYQB 130800Z 00000KT 15SM SKC 02/M01 A3030 RMK SLP264

CYQB;2009-05-13 09:00;CYQB 130900Z 00000KT 30SM SKC 02/M01 A3033 RMK SLP271

CYQB;2009-05-13 10:00;CYQB 131000Z 00000KT 30SM SKC 03/M01 A3035 RMK SLP278

CYQB;2009-05-13 11:00;CYQB 131100Z 36003KT 30SM SKC 06/M01 A3036 RMK SLP281

CYQB;2009-05-13 12:00;CYQB 131200Z 00000KT 15SM SKC 10/M00 A3036 RMK SLP284

CYQB;2009-05-13 13:00;CYQB 131300Z 24004KT 15SM SKC 12/00 A3037 RMK SLP286

CYQB;2009-05-13 14:00;CYQB 131400Z 23006KT 30SM SKC 15/01 A3037 RMK SLP286

CYQB;2009-05-13 15:00;CYQB 131500Z 24009KT 30SM SKC 17/01 A3036 RMK SLP282

CYQB;2009-05-13 16:00;CYQB 131600Z 24007KT 30SM FEW060 19/01 A3034 RMK SC1 SLP275

CYQB;2009-05-13 17:00;CYQB 131700Z 28004KT 30SM FEW060 19/M01 A3032 RMK SC1 SLP269

CYQB;2009-05-13 18:00;CYQB 131800Z 22005KT 30SM FEW060 20/M00 A3030 RMK CU1 SLP263

CYQB;2009-05-13 19:00;CYQB 131900Z 22011KT 30SM FEW060 20/01 A3029 RMK CU1 SLP258

CYQB;2009-05-13 20:00;CYQB 132000Z 24008KT 30SM FEW060 21/01 A3027 RMK CU1 SLP252

CYQB;2009-05-13 21:00;CYQB 132100Z 22005G18KT 30SM FEW055 20/M01 A3025 RMK CU1 SLP245

CYQB;2009-05-13 22:00;CYQB 132200Z 23007G17KT 30SM SKC 20/M01 A3024 RMK SLP243

CYQB;2009-05-13 23:00;CYQB 132300Z 23008KT 30SM SCT220 19/M02 A3024 RMK CI0 SLP242

CYQB;2009-05-14 00:00;CYQB 140000Z 22004KT 15SM SCT220 17/M02 A3024 RMK CI1 SLP240

CYQB;2009-05-14 01:00;CYQB 140100Z 00000KT 15SM SCT220 15/M00 A3025 RMK CI1 SLP243

CYQB;2009-05-14 02:00;CYQB 140200Z 34002KT 15SM SCT220 11/03 A3024 RMK CI0 SLP240

CYQB;2009-05-14 03:00;CYQB 140300Z 03002KT 15SM FEW220 11/01 A3022 RMK CI0 SLP235

CYQB;2009-05-14 04:00;CYQB 140400Z 34002KT 15SM SCT220 08/02 A3021 RMK CI1 SLP232

CYQB;2009-05-14 05:00;CYQB 140500Z 00000KT 15SM SKC 07/02 A3020 RMK SLP227

CYQB;2009-05-14 06:00;CYQB 140600Z 19005KT 15SM SKC 13/02 A3019 RMK SLP226

CYQB;2009-05-14 07:00;CYQB 140700Z 20006KT 15SM SKC 13/03 A3020 RMK SLP228

CYQB;2009-05-14 08:00;CYQB 140800Z 19008KT 15SM FEW220 13/03 A3019 RMK CI0 SLP225

CYQB;2009-05-14 09:00;CYQB 140900Z 21007KT 30SM FEW220 13/03 A3020 RMK CI1 SLP227

CYQB;2009-05-14 10:00;CYQB 141000Z 20004KT 30SM BKN220 13/03 A3020 RMK CI1 SLP227

CYQB;2009-05-14 11:00;CYQB 141100Z 15006KT 30SM BKN220 13/03 A3017 RMK CI1 SLP216

CYQB;2009-05-14 12:00;CYQB 141200Z 18008G17KT 30SM SCT150 BKN220 16/02 A3012 RMK AC3CI1 SLP202

CYQB;2009-05-14 13:00;CYQB 141300Z 21014G26KT 30SM SCT180 BKN210 18/03 A3010 RMK AC3CI1 SLP193

CYQB;2009-05-14 14:00;CYQB 141400Z 21017G26KT 30SM FEW180 BKN210 19/03 A3004 RMK AC2CI1 SLP173

CYQB;2009-05-14 15:00;CYQB 141500Z 20020G29KT 30SM FEW150 SCT180 BKN210 20/04 A3001 RMK AC2AC2CI1 SLP163

CYQB;2009-05-14 16:00;CYQB 141600Z 19022G29KT 30SM BKN090 BKN180 OVC210 20/05 A2997 RMK AC5AC1CI1 SLP149

CYQB;2009-05-14 17:00;CYQB 141700Z 19020G30KT 30SM BKN060 OVC090 19/06 A2992 RMK SC6AC2 SLP134

CYQB;2009-05-14 18:00;CYQB 141800Z 19017G22KT 15SM BKN059 OVC090 19/06 A2989 RMK SC7AC1 SLP124

CYQB;2009-05-14 18:44;CYQB 141844Z 19031G39KT 15SM -SHRA BKN048 OVC090 17/ RMK SC7AC1

CYQB;2009-05-14 19:00;CYQB 141900Z 20020G31KT 6SM -SHRA BR OVC049 16/09 A2988 RMK SC8 SLP119

CYQB;2009-05-14 20:00;CYQB 142000Z 21005KT 6SM -SHRA BR BKN030 OVC035 13/10 A2987 RMK SC5SC3 SLP116

CYQB;2009-05-14 21:00;CYQB 142100Z 20009G18KT 15SM -SHRA BKN016 OVC030 13/11 A2984 RMK SC6SC2 SLP107

CYQB;2009-05-14 21:32;CYQB 142132Z 20012G19KT 15SM SCT016 BKN024 OVC040 14/ RMK SC4SC2SC2

CYQB;2009-05-14 22:00;CYQB 142200Z 20015G20KT 15SM FEW016 SCT025 OVC044 14/11 A2982 RMK SF2SC2SC4 SLP098

CYQB;2009-05-14 23:00;CYQB 142300Z 22019G27KT 15SM FEW025 SCT045 BKN090 16/11 A2981 RMK SC2SC2AC2 SLP097

CYQB;2009-05-15 00:00;CYQB 150000Z 23018G27KT 15SM FEW025 SCT045 BKN091 16/12 A2983 RMK SC2SC2AC3 SLP104

CYQB;2009-05-15 00:29;CYQB 150029Z 23021G30KT 10SM -SHRA FEW025 BKN050 OVC075 15/ RMK SC2SC2AC3

CYQB;2009-05-15 01:00;CYQB 150100Z 24010G17KT 15SM FEW030 BKN085 14/11 A2987 RMK SC2AC3 SLP115

CYQB;2009-05-15 02:00;CYQB 150200Z 25009KT 15SM SCT040 15/12 A2989 RMK SC3 SLP124

CYQB;2009-05-15 03:00;CYQB 150300Z 24010G15KT 15SM FEW012 FEW080 14/12 A2991 RMK SF1AC2 SLP129

CYQB;2009-05-15 04:00;CYQB 150400Z 27005KT 15SM FEW080 14/12 A2993 RMK AC2 SLP137

CYQB;2009-05-15 05:00;CYQB 150500Z 26007KT 15SM FEW080 12/09 A2995 RMK AC1 SLP143

CYQB;2009-05-15 06:00;CYQB 150600Z 25008KT 15SM FEW080 12/10 A2997 RMK AC1 SLP150

CYQB;2009-05-15 07:00;CYQB 150700Z 25008KT 15SM FEW060 11/09 A3000 RMK SC1 SLP161

CYQB;2009-05-15 08:00;CYQB 150800Z 27007KT 15SM FEW060 10/08 A3004 RMK SC1 SLP172

CYQB;2009-05-15 09:00;CYQB 150900Z 23007KT 30SM FEW050 10/08 A3008 RMK SC1 SLP186

CYQB;2009-05-15 10:00;CYQB 151000Z 25011KT 30SM FEW055 10/07 A3011 RMK SC2 SLP199

CYQB;2009-05-15 11:00;CYQB 151100Z 25007KT 30SM BKN053 11/07 A3015 RMK SC6 SLP212

CYQB;2009-05-15 12:00;CYQB 151200Z 25009KT 30SM FEW043 BKN050 12/06 A3019 RMK SC1SC6 SLP223

CYQB;2009-05-15 13:00;CYQB 151300Z 32015G22KT 30SM FEW043 12/04 A3021 RMK SC2 SLP232

CYQB;2009-05-15 14:00;CYQB 151400Z 27015KT 30SM FEW043 12/03 A3023 RMK SC1 SLP237

CYQB;2009-05-15 15:00;CYQB 151500Z 29013G18KT 30SM FEW043 14/05 A3024 RMK SC1 SLP240

CYQB;2009-05-15 16:00;CYQB 151600Z 29011G17KT 30SM FEW040 SCT250 15/04 A3024 RMK SC1CI0 SLP242

CYQB;2009-05-15 17:00;CYQB 151700Z 26013KT 30SM FEW040 BKN250 15/03 A3025 RMK SC1CS1 SLP245

CYQB;2009-05-15 18:00;CYQB 151800Z 27013G18KT 30SM FEW040 BKN250 16/02 A3025 RMK SC1CI2 SLP244

CYQB;2009-05-15 19:00;CYQB 151900Z 27014KT 30SM FEW040 BKN220 16/02 A3025 RMK SC1CI2 SLP243

CYQB;2009-05-15 20:00;CYQB 152000Z 26008G15KT 30SM FEW050 OVC220 17/02 A3025 RMK CU1CI3 SLP245

CYQB;2009-05-15 21:00;CYQB 152100Z 28009KT 30SM FEW050 FEW180 SCT250 17/00 A3024 RMK CU1AC1CI2 SLP243

CYQB;2009-05-15 22:00;CYQB 152200Z 28011KT 30SM FEW050 FEW180 SCT250 16/01 A3025 RMK CU1AC1CI2 SLP246

CYQB;2009-05-15 23:00;CYQB 152300Z 28005KT 30SM FEW180 BKN220 15/02 A3027 RMK AC1CI3 SLP253

CYQB;2009-05-16 00:00;CYQB 160000Z 30003KT 30SM SCT180 BKN220 14/02 A3027 RMK AC3CI0 SLP252

CYQB;2009-05-16 01:00;CYQB 160100Z 27002KT 15SM FEW180 SCT220 12/02 A3026 RMK AC1CI0 SLP250

CYQB;2009-05-16 02:00;CYQB 160200Z 31003KT 15SM FEW220 10/03 A3026 RMK CI0 SLP248

CYQB;2009-05-16 03:00;CYQB 160300Z 02002KT 15SM FEW220 07/02 A3026 RMK CI0 SLP249

CYQB;2009-05-16 04:00;CYQB 160400Z CCA 02005KT 15SM SKC 10/03 A3026 RMK PRES STDY SLP249

CYQB;2009-05-16 05:00;CYQB 160500Z 01003KT 15SM SKC 08/02 A3026 RMK SLP250

CYQB;2009-05-16 06:00;CYQB 160600Z 02003KT 15SM FEW240 06/01 A3028 RMK CS1 MOON RSG E HALO SLP255

CYQB;2009-05-16 07:00;CYQB 160700Z 02005KT 15SM FEW240 06/01 A3026 RMK CS1 SLP248

CYQB;2009-05-16 08:00;CYQB 160800Z 02004KT 15SM FEW240 05/01 A3028 RMK CS1 SLP255

CYQB;2009-05-16 09:00;CYQB 160900Z 01004KT 30SM FEW240 05/00 A3027 RMK CI1 SLP253

CYQB;2009-05-16 10:00;CYQB 161000Z 03006KT 30SM BKN230 05/01 A3026 RMK CI2 SLP250

CYQB;2009-05-16 11:00;CYQB 161100Z 07008KT 30SM SCT230 08/02 A3026 RMK CI2 SLP250

CYQB;2009-05-16 12:00;CYQB 161200Z 08013G18KT 30SM FEW220 11/03 A3024 RMK CI1 SLP243

CYQB;2009-05-16 13:00;CYQB 161300Z 08011G20KT 30SM FEW150 BKN220 12/03 A3022 RMK AC1CS2 SLP236

CYQB;2009-05-16 14:00;CYQB 161400Z 08012G18KT 30SM FEW150 OVC220 12/04 A3019 RMK AC1CS4 SLP225

CYQB;2009-05-16 15:00;CYQB 161500Z 06015KT 30SM FEW150 OVC210 13/03 A3016 RMK AS2CS6 SLP214

CYQB;2009-05-16 16:00;CYQB 161600Z CCA 07013G19KT 30SM OVC140 14/04 A3010 RMK AS7 PRESFR SLP196

CYQB;2009-05-16 17:00;CYQB 161700Z 08013G18KT 30SM OVC110 13/03 A3006 RMK AS8 SLP182

CYQB;2009-05-16 18:00;CYQB 161800Z 09014KT 30SM FEW040 OVC100 13/04 A3004 RMK SC1AS8 SLP173

CYQB;2009-05-16 19:00;CYQB 161900Z 07015G22KT 30SM FEW040 OVC110 13/05 A2997 RMK SC1AS7 SLP150

CYQB;2009-05-16 20:00;CYQB 162000Z 09009G17KT 30SM -RA OVC049 13/05 A2993 RMK SC8 SLP137

CYQB;2009-05-16 21:00;CYQB 162100Z 08009KT 7SM -RA OVC070 12/07 A2992 RMK AS8 SLP134

CYQB;2009-05-16 22:00;CYQB 162200Z CCA 07009KT 4SM -RA BR OVC047 11/09 A2991 RMK SC8 SLP130

CYQB;2009-05-16 23:00;CYQB 162300Z 06010G15KT 4SM -RA BR OVC032 10/09 A2987 RMK SC8 SLP118

CYQB;2009-05-17 00:00;CYQB 170000Z 07011KT 6SM -RA BR FEW016 OVC030 10/09 A2984 RMK SC2SC6 VIS LWR NW SLP108

CYQB;2009-05-17 00:43;CYQB 170043Z 07010KT 6SM -RA BR OVC012 10/ RMK SC8

CYQB;2009-05-17 01:00;CYQB 170100Z 08007G15KT 4SM -RA BR FEW004 OVC012 10/09 A2982 RMK SF2SC6 SLP099

CYQB;2009-05-17 01:27;CYQB 170127Z 09008KT 2SM -RA BR BKN003 OVC011 10/ RMK SF5SC3

CYQB;2009-05-17 02:00;CYQB 170200Z 08009G16KT 6SM -RA BR BKN003 OVC012 10/10 A2978 RMK SF6SC2 SLP086

CYQB;2009-05-17 03:00;CYQB 170300Z 08007KT 6SM -RA BR BKN002 OVC012 11/10 A2975 RMK SF6SC2 VIS LWR NW SLP074

CYQB;2009-05-17 04:00;CYQB 170400Z 07011KT 10SM -RA SCT003 OVC017 11/10 A2972 RMK SF4SC4 VRY LGT PCPN SLP065

CYQB;2009-05-17 05:00;CYQB 170500Z CCA 07007KT 10SM -RA SCT003 OVC022 11/10 A2969 RMK SF4SC4 VRY LGT PCPN SLP055

CYQB;2009-05-17 06:00;CYQB 170600Z 07002KT 3SM -DZ BR BKN003 OVC022 11/11 A2967 RMK SF5SC3 SLP048

CYQB;2009-05-17 07:00;CYQB 170700Z 34003KT 3SM -DZ BR SCT002 BKN006 OVC020 12/11 A2967 RMK SF3SF4SC1 SLP047

CYQB;2009-05-17 07:34;CYQB 170734Z 04003KT 4SM -SHRA BR SCT005 BKN012 OVC020 12/ RMK SF3SC4SC1

CYQB;2009-05-17 08:00;CYQB 170800Z 36002KT 10SM -SHRA FEW005 SCT008 OVC013 12/12 A2966 RMK SF2SF2SC5 SLP046

CYQB;2009-05-17 08:24;CYQB 170824Z 00000KT 12SM FEW008 BKN015 OVC040 13/ RMK SF2SC4SC2

CYQB;2009-05-17 09:00;CYQB 170900Z 25019KT 12SM FEW015 BKN050 OVC066 15/13 A2967 RMK SF2SC5SC2 SLP048

CYQB;2009-05-17 10:00;CYQB 171000Z 25023G29KT 20SM FEW014 SCT050 BKN090 13/10 A2971 RMK SC2SC1AC4 SLP061

CYQB;2009-05-17 11:00;CYQB 171100Z CCA 26019G26KT 30SM FEW015 SCT040 BKN090 BKN250 10/06 A2978 RMK SC2SC2AC2CI1 PRESRR SLP087

CYQB;2009-05-17 12:00;CYQB 171200Z 27024G35KT 30SM FEW015 SCT040 BKN090 BKN250 09/04 A2983 RMK SC2SC2AC1CI1 SLP102

CYQB;2009-05-17 13:00;CYQB 171300Z 26020G27KT 30SM BKN040 BKN100 BKN250 10/03 A2986 RMK SC5AC1CI1 SLP112

CYQB;2009-05-17 14:00;CYQB 171400Z 25026G31KT 30SM BKN030 BKN100 10/03 A2986 RMK SC6AC1 SLP113

CYQB;2009-05-17 15:00;CYQB 171500Z 23026G34KT 30SM BKN041 BKN100 BKN250 10/02 A2987 RMK SC5AC1CI1 SLP118

CYQB;2009-05-17 16:00;CYQB 171600Z 23024G31KT 30SM BKN045 BKN250 10/01 A2988 RMK SC5CI1 SLP120

CYQB;2009-05-17 17:00;CYQB 171700Z 25022G33KT 30SM BKN048 BKN250 10/00 A2990 RMK SC6CI0 SLP126

CYQB;2009-05-17 18:00;CYQB 171800Z 23028G34KT 30SM BKN048 BKN250 11/01 A2991 RMK SC5CI1 SLP130

CYQB;2009-05-17 19:00;CYQB 171900Z 25022G29KT 30SM BKN056 BKN250 11/00 A2992 RMK SC6CI1 SLP134

CYQB;2009-05-17 20:00;CYQB 172000Z 22019G27KT 30SM BKN056 BKN250 10/M00 A2994 RMK SC6CI1 SLP139

CYQB;2009-05-17 21:00;CYQB 172100Z 23020G30KT 30SM BKN056 BKN250 10/M01 A2996 RMK SC7CI1 SLP146

CYQB;2009-05-17 22:00;CYQB 172200Z 24017G24KT 30SM BKN062 10/M01 A2999 RMK SC7 SLP156

CYQB;2009-05-17 23:00;CYQB 172300Z 26014G21KT 30SM BKN065 09/M02 A3001 RMK SC7 SLP164

CYQB;2009-05-18 00:00;CYQB 180000Z 27011KT 30SM BKN073 08/M03 A3004 RMK AC7 SLP175

CYQB;2009-05-18 01:00;CYQB 180100Z 29008KT 15SM BKN070 07/M03 A3007 RMK AC7 SLP185

CYQB;2009-05-18 02:00;CYQB 180200Z 30008KT 15SM BKN070 07/M03 A3009 RMK AC7 SLP191

CYQB;2009-05-18 03:00;CYQB 180300Z 28007KT 15SM BKN060 07/M03 A3009 RMK SC7 SLP193

CYQB;2009-05-18 04:00;CYQB 180400Z 29010G15KT 15SM BKN059 07/M03 A3011 RMK SC7 SLP198

CYQB;2009-05-18 05:00;CYQB 180500Z 28007KT 15SM BKN061 07/M04 A3012 RMK SC7 SLP203

CYQB;2009-05-18 06:00;CYQB 180600Z 30006KT 15SM BKN057 06/M04 A3013 RMK SC7 SLP206

CYQB;2009-05-18 07:00;CYQB 180700Z 29004KT 15SM SCT060 SCT240 04/M03 A3015 RMK SC3CI1 SLP212

CYQB;2009-05-18 08:00;CYQB 180800Z 28006KT 15SM BKN240 02/M03 A3016 RMK CI2 SLP216

CYQB;2009-05-18 09:00;CYQB 180900Z 27006KT 15SM BKN240 03/M03 A3018 RMK CI3 SLP224

CYQB;2009-05-18 10:00;CYQB 181000Z 29006KT 20SM FEW040 BKN200 03/M02 A3021 RMK SC1CI6 SLP232

CYQB;2009-05-18 11:00;CYQB 181100Z 32008KT 20SM FEW050 OVC210 04/M04 A3022 RMK SC1CI6 SLP237

CYQB;2009-05-18 12:00;CYQB 181200Z 32008KT 20SM OVC220 04/M05 A3025 RMK CS8 SLP248

CYQB;2009-05-18 13:00;CYQB 181300Z 31007KT 30SM FEW050 BKN220 04/M06 A3027 RMK SC1CS6 SLP252

CYQB;2009-05-18 14:00;CYQB 181400Z 31005KT 30SM BKN220 05/M05 A3027 RMK CS7 SLP252

CYQB;2009-05-18 15:00;CYQB 181500Z 33003KT 30SM FEW060 BKN220 06/M05 A3027 RMK SC1CS6 SLP252

CYQB;2009-05-18 16:00;CYQB 181600Z 10002KT 30SM FEW060 BKN220 07/M04 A3026 RMK SC1CI4 SLP250

CYQB;2009-05-18 17:00;CYQB 181700Z 19010KT 30SM FEW050 BKN210 08/M01 A3025 RMK SC1CI3 SLP247

CYQB;2009-05-18 18:00;CYQB 181800Z 20012KT 30SM FEW050 BKN210 09/M01 A3024 RMK SC2CI2 SLP242

CYQB;2009-05-18 19:00;CYQB 181900Z 20008G15KT 30SM FEW050 BKN150 BKN210 09/M01 A3023 RMK SC1AC4CI1 SLP240

CYQB;2009-05-18 20:00;CYQB 182000Z 21013KT 30SM FEW050 SCT150 BKN210 11/M01 A3022 RMK SC1AC3CI1 SLP236

CYQB;2009-05-18 21:00;CYQB 182100Z 22010KT 30SM FEW050 SCT150 12/M01 A3022 RMK SC2AC2 SLP237

CYQB;2009-05-18 22:00;CYQB 182200Z 23009KT 30SM FEW050 FEW150 12/M02 A3022 RMK SC1AC1 SLP237

CYQB;2009-05-18 23:00;CYQB 182300Z 23005KT 30SM FEW050 FEW150 11/M02 A3023 RMK SC1AC1 SLP239

CYQB;2009-05-19 00:00;CYQB 190000Z 20003KT 30SM FEW050 FEW150 10/M01 A3023 RMK SC1AC1 SLP241

CYQB;2009-05-19 01:00;CYQB 190100Z 24003KT 15SM SKC 08/M00 A3025 RMK SLP247

CYQB;2009-05-19 02:00;CYQB 190200Z 24003KT 15SM SKC 07/M00 A3026 RMK SLP251

CYQB;2009-05-19 03:00;CYQB 190300Z 25002KT 15SM SKC 06/00 A3027 RMK SLP253

CYQB;2009-05-19 04:00;CYQB 190400Z 00000KT 15SM SKC 04/00 A3027 RMK SLP252

CYQB;2009-05-19 05:00;CYQB 190500Z 00000KT 15SM SKC 04/00 A3026 RMK SLP249

CYQB;2009-05-19 06:00;CYQB 190600Z 05003KT 15SM SKC 04/00 A3026 RMK SLP251

CYQB;2009-05-19 07:00;CYQB 190700Z 03002KT 15SM SKC 03/M00 A3027 RMK SLP252

CYQB;2009-05-19 08:00;CYQB 190800Z 00000KT 15SM SKC M00/M02 A3027 RMK SLP254

CYQB;2009-05-19 09:00;CYQB 190900Z 00000KT 15SM SKC 01/M01 A3028 RMK SLP256

CYQB;2009-05-19 10:00;CYQB 191000Z 00000KT 15SM FEW250 00/M02 A3029 RMK CI1 SLP261

CYQB;2009-05-19 11:00;CYQB 191100Z 24002KT 30SM SKC 05/01 A3030 RMK SLP265

CYQB;2009-05-19 12:00;CYQB 191200Z 26007KT 30SM FEW130 07/02 A3029 RMK AC1 SLP260

CYQB;2009-05-19 13:00;CYQB 191300Z 25012KT 30SM FEW130 09/01 A3028 RMK AC1 SLP257

CYQB;2009-05-19 14:00;CYQB 191400Z 24010G17KT 30SM FEW250 12/02 A3027 RMK CI1 SLP253

CYQB;2009-05-19 15:00;CYQB 191500Z 24016KT 30SM SCT120 SCT250 15/02 A3024 RMK AC3CI1 SLP241

CYQB;2009-05-19 16:00;CYQB 191600Z 24018G25KT 30SM SCT120 BKN250 16/02 A3020 RMK AC3CI1 SLP229

CYQB;2009-05-19 17:00;CYQB 191700Z 24022G29KT 30SM SCT120 BKN250 16/00 A3018 RMK AC4CI2 SLP221

CYQB;2009-05-19 18:00;CYQB 191800Z 23023KT 30SM BKN100 OVC200 16/02 A3016 RMK AC6CI2 SLP215

CYQB;2009-05-19 19:00;CYQB 191900Z 23014G22KT 30SM OVC098 16/02 A3014 RMK AC8 SLP208

CYQB;2009-05-19 20:00;CYQB 192000Z 26012KT 30SM -RA BKN074 OVC085 16/02 A3014 RMK AC5AC3 SLP209

CYQB;2009-05-19 21:00;CYQB 192100Z 27018G27KT 30SM BKN075 OVC110 16/02 A3014 RMK AC6AC2 VIRGA SLP207

CYQB;2009-05-19 22:00;CYQB 192200Z 26012G18KT 30SM BKN075 OVC110 15/03 A3013 RMK AC7AC1 SLP204

CYQB;2009-05-19 23:00;CYQB 192300Z 29007KT 30SM FEW030 BKN079 OVC110 15/03 A3013 RMK CF1AC6AC2 SLP206

CYQB;2009-05-20 00:00;CYQB 200000Z 31009G15KT 15SM -SHRA FEW030 BKN053 OVC075 13/04 A3017 RMK SC2SC4AC2 SLP217

CYQB;2009-05-20 01:00;CYQB 200100Z 29009KT 15SM -SHRA FEW030 BKN053 OVC075 10/06 A3020 RMK SC2SC5AC1 SLP230

CYQB;2009-05-20 02:00;CYQB 200200Z 26006KT 15SM BKN038 OVC075 10/06 A3022 RMK SC6AC2 SLP235

CYQB;2009-05-20 03:00;CYQB 200300Z 25008KT 15SM SCT050 09/06 A3024 RMK SC4 SLP241

CYQB;2009-05-20 04:00;CYQB 200400Z 24004KT 15SM FEW050 07/04 A3026 RMK SC2 SLP250

CYQB;2009-05-20 05:00;CYQB 200500Z 31010G16KT 15SM FEW050 07/02 A3026 RMK SC1 SLP249

CYQB;2009-05-20 06:00;CYQB 200600Z 31007KT 15SM FEW050 05/01 A3028 RMK SC1 SLP257

CYQB;2009-05-20 07:00;CYQB 200700Z 28002KT 15SM SKC 04/M00 A3031 RMK SLP265

CYQB;2009-05-20 08:00;CYQB 200800Z 33005KT 15SM SKC 04/M01 A3033 RMK SLP273

CYQB;2009-05-20 09:00;CYQB 200900Z 32007KT 15SM SCT220 02/M01 A3034 RMK CI1 SLP278

CYQB;2009-05-20 10:00;CYQB 201000Z 34009KT 30SM FEW070 BKN220 03/M02 A3037 RMK AC1CI2 SLP288

CYQB;2009-05-20 11:00;CYQB 201100Z 01006KT 30SM FEW070 BKN190 04/M03 A3039 RMK AC2CI3 SLP294

CYQB;2009-05-20 12:00;CYQB 201200Z 05003KT 30SM FEW070 SCT120 BKN200 06/M00 A3040 RMK AC1AC2CI2 SLP298

CYQB;2009-05-20 13:00;CYQB 201300Z 12005KT 30SM FEW050 SCT100 BKN180 06/M01 A3041 RMK CF1AC2CI3 SLP302

CYQB;2009-05-20 14:00;CYQB 201400Z 00000KT 30SM FEW050 SCT100 BKN160 07/M01 A3041 RMK CF1AC3CI3 SLP300

CYQB;2009-05-20 15:00;CYQB 201500Z 22008KT 30SM -SHRA FEW050 SCT088 OVC150 08/00 A3040 RMK CF1AC3CI4 SLP298

CYQB;2009-05-20 15:44;CYQB 201544Z 22009KT 30SM BKN086 OVC150 08/ RMK AC5AC3

CYQB;2009-05-20 16:00;CYQB 201600Z 24010KT 30SM FEW066 BKN086 OVC150 07/M01 A3038 RMK AC1AC4AC3 SLP290

CYQB;2009-05-20 17:00;CYQB 201700Z 23009KT 20SM -SHRA BKN058 OVC086 08/M01 A3035 RMK SC5AC3 SLP279

CYQB;2009-05-20 18:00;CYQB 201800Z 26009KT 25SM BKN051 OVC086 08/M01 A3032 RMK SC6AC2 SLP269

CYQB;2009-05-20 19:00;CYQB 201900Z 27006KT 25SM OVC041 08/M00 A3029 RMK SC8 BARO READ +41 SLP261

CYQB;2009-05-20 20:00;CYQB 202000Z 26005KT 25SM OVC036 08/M01 A3028 RMK SC8 SLP258

CYQB;2009-05-20 21:00;CYQB 202100Z 28003KT 25SM OVC038 07/M01 A3026 RMK SC8 SLP250

CYQB;2009-05-20 22:00;CYQB 202200Z 00000KT 25SM BKN035 OVC120 08/M01 A3022 RMK SC5AC3 SLP236

CYQB;2009-05-20 23:00;CYQB 202300Z 36003KT 25SM FEW035 BKN130 OVC230 08/M01 A3018 RMK SC2AC4CI2 SLP224

CYQB;2009-05-21 00:00;CYQB 210000Z 36004KT 25SM SCT150 OVC230 08/M00 A3015 RMK AC3CI4 SLP212

CYQB;2009-05-21 01:00;CYQB 210100Z 01003KT 25SM FEW150 BKN230 07/01 A3014 RMK AC2CI3 SLP209

CYQB;2009-05-21 02:00;CYQB 210200Z 03005KT 15SM FEW150 SCT230 07/01 A3012 RMK AC2CI2 SLP203

CYQB;2009-05-21 03:00;CYQB 210300Z 36003KT 15SM FEW150 BKN230 07/01 A3011 RMK AC1CI6 SLP198

CYQB;2009-05-21 04:00;CYQB 210400Z 03003KT 15SM FEW150 OVC240 06/01 A3009 RMK AC1CI7 SLP192

CYQB;2009-05-21 05:00;CYQB 210500Z 01002KT 15SM FEW190 FEW240 06/01 A3008 RMK AC2CI0 SLP187

CYQB;2009-05-21 06:00;CYQB 210600Z 01005KT 15SM FEW240 05/02 A3007 RMK CI1 SLP185

CYQB;2009-05-21 07:00;CYQB 210700Z 05002KT 15SM FEW210 06/02 A3006 RMK CI2 SLP181

CYQB;2009-05-21 08:00;CYQB 210800Z 00000KT 15SM FEW210 03/01 A3005 RMK CI1 SLP177

CYQB;2009-05-21 09:00;CYQB 210900Z 25002KT 15SM FEW210 02/01 A3004 RMK CI2 SLP175

CYQB;2009-05-21 10:00;CYQB 211000Z 00000KT 30SM FEW210 04/02 A3004 RMK CI2 SLP174

CYQB;2009-05-21 11:00;CYQB 211100Z 18002KT 30SM FEW210 09/05 A3003 RMK CI1 SLP173

CYQB;2009-05-21 12:00;CYQB 211200Z 25011G17KT 30SM SCT210 14/07 A3003 RMK CI2 SLP170

CYQB;2009-05-21 13:00;CYQB 211300Z 26017KT 30SM FEW210 17/08 A3000 RMK CI0 SLP161

CYQB;2009-05-21 14:00;CYQB 211400Z 26015KT 30SM FEW210 20/09 A2997 RMK CI0 SLP150

CYQB;2009-05-21 15:00;CYQB 211500Z 26018KT 30SM FEW210 23/10 A2994 RMK CI1 SLP139

CYQB;2009-05-21 16:00;CYQB 211600Z 25020G26KT 30SM FEW210 26/11 A2991 RMK CI1 SLP130

CYQB;2009-05-21 17:00;CYQB 211700Z 25024G34KT 30SM FEW210 28/10 A2988 RMK CI1 SLP120

CYQB;2009-05-21 18:00;CYQB 211800Z 23028G35KT 30SM FEW210 29/10 A2986 RMK CI2 SLP111

CYQB;2009-05-21 19:00;CYQB 211900Z 24029G38KT 30SM FEW230 29/08 A2982 RMK CI2 SLP098

CYQB;2009-05-21 20:00;CYQB 212000Z 24027G37KT 25SM FEW230 29/08 A2981 RMK CI1 SLP094

CYQB;2009-05-21 21:00;CYQB 212100Z 24030G38KT 25SM FEW240 29/05 A2978 RMK CI1 SLP087

CYQB;2009-05-21 22:00;CYQB 212200Z 24026G35KT 20SM FEW240 28/04 A2978 RMK CI2 SLP084

CYQB;2009-05-21 23:00;CYQB 212300Z 23022G27KT 10SM FEW240 26/03 A2978 RMK CI2 SLP084

CYQB;2009-05-22 00:00;CYQB 220000Z 24019G24KT 10SM FEW230 25/04 A2978 RMK CI2 SLP086

CYQB;2009-05-22 01:00;CYQB 220100Z 25022G27KT 15SM FEW220 24/05 A2979 RMK CI2 SLP088

CYQB;2009-05-22 02:00;CYQB 220200Z 25017KT 15SM FEW220 23/05 A2980 RMK CI1 SLP091

CYQB;2009-05-22 03:00;CYQB 220300Z 25013G20KT 15SM FEW220 21/06 A2980 RMK CI0 SLP090

CYQB;2009-05-22 04:00;CYQB 220400Z 25017G27KT 15SM BKN220 22/06 A2979 RMK CI1 SLP088

CYQB;2009-05-22 05:00;CYQB 220500Z 27018G26KT 15SM BKN220 20/07 A2982 RMK CI1 SLP097

CYQB;2009-05-22 06:00;CYQB 220600Z 26010KT 15SM BKN240 18/08 A2983 RMK CI2 SLP103

CYQB;2009-05-22 07:00;CYQB 220700Z 23009KT 15SM FEW240 17/10 A2985 RMK CI0 SLP108

CYQB;2009-05-22 08:00;CYQB 220800Z 24007KT 15SM SCT085 BKN240 17/11 A2987 RMK AC2CI1 SLP115

CYQB;2009-05-22 09:00;CYQB 220900Z 31006G15KT 15SM BKN075 18/11 A2989 RMK AC7 SLP123

CYQB;2009-05-22 09:45;CYQB 220945Z 30008KT 15SM -SHRA OVC071 16/ RMK AC8

CYQB;2009-05-22 10:00;CYQB 221000Z CCA 31006KT 15SM -SHRA FEW020 OVC072 15/12 A2995 RMK SC1AC7 PRESRR SLP143

CYQB;2009-05-22 10:47;CYQB 221047Z 27004KT 15SM FEW020 OVC080 14/ RMK SC1AC7

CYQB;2009-05-22 11:00;CYQB 221100Z 27005KT 15SM FEW020 BKN081 BKN120 14/11 A2999 RMK SC1AC6AC1 SLP155

CYQB;2009-05-22 12:00;CYQB 221200Z 33011KT 15SM FEW020 SCT085 BKN180 15/08 A3001 RMK SC1AC3CI0 SLP163

CYQB;2009-05-22 13:00;CYQB 221300Z 34014KT 15SM FEW040 SCT130 BKN210 15/03 A3004 RMK CF1AC2CI0 SLP174

CYQB;2009-05-22 14:00;CYQB 221400Z 34006G16KT 15SM FEW060 SCT220 16/01 A3005 RMK CU2CI0 SLP177

CYQB;2009-05-22 15:00;CYQB 221500Z 32012G20KT 15SM SCT230 BKN300 19/03 A3005 RMK CI3CI0 SLP176

CYQB;2009-05-22 16:00;CYQB 221600Z 27019G26KT 15SM FEW060 BKN160 OVC230 17/03 A3006 RMK CF1AC4CI0 SLP178

CYQB;2009-05-22 17:00;CYQB 221700Z 29015G20KT 30SM FEW035 BKN160 BKN230 16/02 A3006 RMK CF1AC6CI0 SLP180

CYQB;2009-05-22 18:00;CYQB 221800Z 26016G22KT 30SM FEW060 BKN160 BKN230 17/03 A3007 RMK SC1AC5CI0 SLP183

CYQB;2009-05-22 19:00;CYQB 221900Z 27017KT 30SM SCT062 SCT160 SCT230 18/04 A3006 RMK SC3AC1CI1 SLP181

CYQB;2009-05-22 20:00;CYQB 222000Z 29013G19KT 30SM SCT074 BKN120 19/03 A3006 RMK CU4AC1 SLP180

CYQB;2009-05-22 21:00;CYQB 222100Z 28014G20KT 30SM BKN075 19/03 A3007 RMK CU5 SLP183

CYQB;2009-05-22 22:00;CYQB 222200Z 31015G20KT 30SM SCT075 18/02 A3009 RMK CU3 SLP189

CYQB;2009-05-22 23:00;CYQB 222300Z 32013G18KT 30SM FEW075 17/01 A3012 RMK CU1 SLP200

CYQB;2009-05-23 00:00;CYQB 230000Z 30008KT 30SM FEW080 15/01 A3015 RMK AC1 SLP210

CYQB;2009-05-23 01:00;CYQB 230100Z 34008KT 30SM FEW080 13/M01 A3018 RMK AC1 SLP222

CYQB;2009-05-23 02:00;CYQB 230200Z 34008KT 30SM FEW080 12/M02 A3021 RMK AC1 SLP232

CYQB;2009-05-23 03:00;CYQB 230300Z 35005KT 30SM SKC 11/M03 A3022 RMK SLP234

CYQB;2009-05-23 04:00;CYQB 230400Z 35009KT 30SM SKC 09/M02 A3023 RMK SLP238

CYQB;2009-05-23 05:00;CYQB 230500Z 36008KT 30SM SKC 08/M02 A3024 RMK SLP240

CYQB;2009-05-23 06:00;CYQB 230600Z 35007KT 30SM SKC 08/M02 A3025 RMK SLP247

CYQB;2009-05-23 07:00;CYQB 230700Z 00000KT 30SM SKC 06/M02 A3027 RMK SLP251

CYQB;2009-05-23 08:00;CYQB 230800Z 01005KT 30SM FEW240 05/M01 A3027 RMK CI1 SLP251

CYQB;2009-05-23 09:00;CYQB 230900Z 01006KT 30SM FEW240 04/M01 A3027 RMK CI2 SLP252

CYQB;2009-05-23 10:00;CYQB 231000Z 00000KT 30SM FEW012 FEW240 05/M01 A3029 RMK SF1CI2 SLP258

CYQB;2009-05-23 11:00;CYQB 231100Z 04002KT 30SM FEW250 08/M00 A3031 RMK CI2 OBST TAKEN +44 SLP265

CYQB;2009-05-23 12:00;CYQB 231200Z 00000KT 30SM SCT250 09/M00 A3031 RMK CI2 SLP267

CYQB;2009-05-23 13:00;CYQB 231300Z 16002KT 30SM BKN190 10/M00 A3031 RMK AC6 SLP265

CYQB;2009-05-23 14:00;CYQB 231400Z 15004KT 30SM BKN180 12/01 A3029 RMK AC5 SLP258

CYQB;2009-05-23 15:00;CYQB 231500Z 23004KT 30SM BKN180 13/01 A3025 RMK AC5 SLP247

CYQB;2009-05-23 16:00;CYQB 231600Z 00000KT 30SM BKN180 15/01 A3022 RMK AC4 SLP236

CYQB;2009-05-23 17:00;CYQB 231700Z 20006KT 30SM BKN180 16/M00 A3019 RMK AC4 SLP226

CYQB;2009-05-23 18:00;CYQB 231800Z 26007KT 30SM BKN180 17/01 A3017 RMK AC4 SLP216

CYQB;2009-05-23 19:00;CYQB 231900Z 24005KT 30SM BKN160 18/01 A3013 RMK AC3 SLP205

CYQB;2009-05-23 20:00;CYQB 232000Z 22003KT 30SM BKN150 18/01 A3010 RMK AC2 SLP193

CYQB;2009-05-23 21:00;CYQB 232100Z 26006KT 30SM SCT160 BKN180 19/02 A3007 RMK AC2AC3 SLP183

CYQB;2009-05-23 22:00;CYQB 232200Z 25005KT 30SM BKN140 18/02 A3006 RMK AC6 SLP179

CYQB;2009-05-23 23:00;CYQB 232300Z 00000KT 30SM BKN110 18/03 A3003 RMK AC6 SLP170

CYQB;2009-05-24 00:00;CYQB 240000Z 26002KT 30SM FEW060 BKN100 16/04 A3002 RMK SC2AC5 VIRGA SLP167

CYQB;2009-05-24 01:00;CYQB 240100Z 00000KT 30SM FEW070 BKN120 15/04 A3000 RMK AC2AC3 SLP162

CYQB;2009-05-24 02:00;CYQB 240200Z 00000KT 15SM BKN130 14/05 A3000 RMK AC6 SLP160

CYQB;2009-05-24 03:00;CYQB 240300Z 00000KT 15SM OVC130 13/05 A2999 RMK AC8 SLP158

CYQB;2009-05-24 04:00;CYQB 240400Z 00000KT 15SM OVC140 10/06 A2998 RMK AC8 SLP154

CYQB;2009-05-24 05:00;CYQB 240500Z 00000KT 15SM SCT140 09/05 A2996 RMK AC4 SLP148

CYQB;2009-05-24 06:00;CYQB 240600Z 00000KT 15SM SCT080 SCT140 10/04 A2996 RMK AC3AC1 SLP146

CYQB;2009-05-24 07:00;CYQB 240700Z 36003KT 15SM FEW080 FEW130 09/05 A2995 RMK AC2AC1 SLP145

CYQB;2009-05-24 08:00;CYQB 240800Z 00000KT 15SM FEW100 FEW130 08/05 A2993 RMK AC2AC1 SLP137

CYQB;2009-05-24 09:00;CYQB 240900Z 36002KT 15SM BKN080 09/05 A2992 RMK AC6 SLP133

CYQB;2009-05-24 10:00;CYQB 241000Z 36002KT 30SM BKN076 11/05 A2992 RMK AC6 SLP132

CYQB;2009-05-24 11:00;CYQB 241100Z 01002KT 30SM -SHRA BKN092 12/06 A2990 RMK AC6 ACC ASOCTD SLP127

CYQB;2009-05-24 11:19;CYQB 241119Z 02004KT 30SM SCT080 12/ RMK AC4 ACC ASOCTD

CYQB;2009-05-24 12:00;CYQB 241200Z 00000KT 30SM BKN077 13/07 A2989 RMK AC5 ACC ASOCTD SLP124

CYQB;2009-05-24 13:00;CYQB 241300Z 27005KT 30SM SCT089 SCT200 16/10 A2988 RMK AC3CI0 SLP118

CYQB;2009-05-24 14:00;CYQB 241400Z 24011G16KT 30SM FEW085 FEW200 18/11 A2986 RMK AC1CI0 SLP112

CYQB;2009-05-24 15:00;CYQB 241500Z 25014G19KT 30SM FEW038 19/10 A2984 RMK CU2 TCU ASOCTD N SLP106

CYQB;2009-05-24 16:00;CYQB 241600Z 26016KT 30SM FEW048 21/10 A2983 RMK CU2 TCU ASOCTD SLP101

CYQB;2009-05-24 17:00;CYQB 241700Z 25014G21KT 25SM -SHRA SCT040 21/11 A2981 RMK CU4 TCU ASOCTD SLP095

CYQB;2009-05-24 17:18;CYQB 241718Z 23018G24KT 30SM SCT044 22/ RMK CU4 TCU ASOCTD

CYQB;2009-05-24 17:28;CYQB 241728Z 25018G24KT 30SM -SHRA BKN054 20/ RMK CU6 TCU ASOCTD

CYQB;2009-05-24 18:00;CYQB 241800Z 32012G20KT 30SM SCT057 20/07 A2982 RMK CU4 TCO ASOCTD SLP100

CYQB;2009-05-24 19:00;CYQB 241900Z 33018G28KT 30SM SCT052 SCT085 20/06 A2986 RMK CU3AC1 SLP111

CYQB;2009-05-24 20:00;CYQB 242000Z 31013G24KT 30SM SCT060 20/04 A2987 RMK CU4 TCU ASOCTD SLP116

CYQB;2009-05-24 21:00;CYQB 242100Z 31012G22KT 30SM FEW080 19/03 A2988 RMK AC2 SLP118

CYQB;2009-05-24 22:00;CYQB 242200Z 32011G18KT 30SM FEW070 19/01 A2988 RMK AC1 SLP119

CYQB;2009-05-24 23:00;CYQB 242300Z 29008KT 30SM FEW040 FEW090 18/01 A2990 RMK CU1AC1 SLP125

CYQB;2009-05-25 00:00;CYQB 250000Z 30009KT 30SM FEW060 FEW100 16/M02 A2991 RMK CU1AC1 SLP130

CYQB;2009-05-25 01:00;CYQB 250100Z 30004KT 15SM FEW060 14/M02 A2993 RMK CU1 SLP136

CYQB;2009-05-25 02:00;CYQB 250200Z 31003KT 15SM SKC 12/M01 A2994 RMK SLP138

CYQB;2009-05-25 03:00;CYQB 250300Z 35009KT 15SM SKC 12/M01 A2996 RMK SLP145

CYQB;2009-05-25 04:00;CYQB 250400Z 34005KT 15SM SKC 11/M01 A2997 RMK SLP148

CYQB;2009-05-25 05:00;CYQB 250500Z 31002KT 15SM FEW080 08/01 A2998 RMK AC1 SLP153

CYQB;2009-05-25 06:00;CYQB 250600Z 29003KT 15SM FEW080 08/01 A2996 RMK AC1 SLP148

CYQB;2009-05-25 07:00;CYQB 250700Z 29003KT 15SM OVC110 10/02 A2996 RMK AC8 SLP147

CYQB;2009-05-25 08:00;CYQB 250800Z 21005KT 15SM OVC090 10/01 A2995 RMK AC8 SLP145

CYQB;2009-05-25 09:00;CYQB 250900Z 21006KT 15SM BKN070 BKN110 10/02 A2996 RMK AC6AC2 SLP147

CYQB;2009-05-25 09:25;CYQB 250925Z 20003KT 15SM -SHRA BKN063 OVC090 09/ RMK SC6AC2

CYQB;2009-05-25 10:00;CYQB 251000Z 21003KT 15SM -SHRA FEW015 BKN066 09/03 A2998 RMK SF1SC7 PCPN VRY LGT SLP152

CYQB;2009-05-25 11:00;CYQB 251100Z 29006KT 30SM -SHRA FEW015 BKN075 08/00 A3000 RMK SF1AC7 SLP158

CYQB;2009-05-25 12:00;CYQB 251200Z 33009G16KT 30SM FEW015 SCT080 07/M03 A3003 RMK SF1AC4 SLP172

CYQB;2009-05-25 13:00;CYQB 251300Z 35010G20KT 30SM FEW015 SCT080 07/M05 A3007 RMK SF1AC3 SLP184

CYQB;2009-05-25 14:00;CYQB 251400Z 31013G19KT 15SM FEW042 07/M06 A3009 RMK SC2 SLP191

CYQB;2009-05-25 15:00;CYQB 251500Z 33013G19KT 15SM FEW051 08/M06 A3010 RMK SC2 SLP194

CYQB;2009-05-25 16:00;CYQB 251600Z 34016G22KT 15SM SCT050 10/M04 A3010 RMK SC3 SLP195

CYQB;2009-05-25 17:00;CYQB 251700Z 32013G24KT 15SM SCT050 09/M05 A3011 RMK SC3 SLP198

CYQB;2009-05-25 18:00;CYQB 251800Z 35004G17KT 15SM FEW060 FEW180 10/M05 A3011 RMK SC2AC1 SLP200

CYQB;2009-05-25 19:00;CYQB 251900Z 32009G18KT 20SM SCT070 SCT180 11/M06 A3010 RMK CU3AC1 SLP196

CYQB;2009-05-25 20:00;CYQB 252000Z 33011KT 15SM BKN080 11/M06 A3011 RMK AC6 SLP199

CYQB;2009-05-25 21:00;CYQB 252100Z 33016G22KT 15SM BKN079 12/M05 A3013 RMK AC6 SLP204

CYQB;2009-05-25 22:00;CYQB 252200Z 35012G20KT 15SM BKN070 11/M06 A3015 RMK AC6 SLP213

CYQB;2009-05-25 23:00;CYQB 252300Z 35012G18KT 15SM SCT060 10/M06 A3018 RMK SC3 SLP222

CYQB;2009-05-26 00:00;CYQB 260000Z 34009KT 15SM FEW060 08/M05 A3019 RMK SC2 SLP226

CYQB;2009-05-26 01:00;CYQB 260100Z 31005KT 15SM FEW060 07/M05 A3022 RMK SC2 SLP237

CYQB;2009-05-26 02:00;CYQB 260200Z 33008KT 15SM FEW060 06/M06 A3026 RMK SC1 SLP248

CYQB;2009-05-26 03:00;CYQB 260300Z 01007KT 15SM SKC 06/M06 A3028 RMK SLP255

CYQB;2009-05-26 04:00;CYQB 260400Z 03002KT 15SM SKC 04/M06 A3029 RMK SLP260

CYQB;2009-05-26 05:00;CYQB 260500Z 30004KT 15SM SKC 02/M05 A3029 RMK SLP261

CYQB;2009-05-26 06:00;CYQB 260600Z 34007KT 15SM SKC 04/M06 A3030 RMK SLP262

CYQB;2009-05-26 07:00;CYQB 260700Z 36005KT 15SM SKC 03/M06 A3030 RMK SLP265

CYQB;2009-05-26 08:00;CYQB 260800Z 32004KT 15SM SKC 01/M06 A3031 RMK SLP267

CYQB;2009-05-26 09:00;CYQB 260900Z 00000KT 15SM SKC 02/M06 A3033 RMK SLP272

CYQB;2009-05-26 10:00;CYQB 261000Z 33004KT 30SM FEW025 FEW220 02/M05 A3035 RMK CF1CI2 SLP279

CYQB;2009-05-26 11:00;CYQB 261100Z 32005KT 30SM FEW025 FEW220 04/M05 A3035 RMK CF1CI1 SLP280

CYQB;2009-05-26 12:00;CYQB 261200Z 31002KT 30SM FEW030 FEW220 05/M05 A3035 RMK CF1CI2 SLP279

CYQB;2009-05-26 13:00;CYQB 261300Z 00000KT 30SM FEW040 FEW220 07/M04 A3034 RMK CF1CI2 SLP278

CYQB;2009-05-26 14:00;CYQB 261400Z 27006KT 15SM BKN210 08/M04 A3033 RMK CC3 SLP274

CYQB;2009-05-26 15:00;CYQB 261500Z 24006KT 15SM BKN210 09/M02 A3031 RMK CI6 SLP267

CYQB;2009-05-26 16:00;CYQB 261600Z 21006KT 15SM BKN200 11/M02 A3030 RMK CI6 SLP262

CYQB;2009-05-26 17:00;CYQB 261700Z 24013KT 15SM BKN180 12/M02 A3028 RMK AC4 SLP255

CYQB;2009-05-26 18:00;CYQB 261800Z 24010KT 15SM BKN180 13/M02 A3027 RMK AC6 SLP251

CYQB;2009-05-26 19:00;CYQB 261900Z 23010G15KT 15SM BKN170 14/M01 A3025 RMK AC6 SLP245

CYQB;2009-05-26 20:00;CYQB 262000Z 25008KT 15SM BKN140 14/M02 A3023 RMK AS7 SLP238

CYQB;2009-05-26 21:00;CYQB 262100Z 24010KT 15SM OVC150 15/M02 A3022 RMK AS6 SLP234

CYQB;2009-05-26 22:00;CYQB 262200Z 22008KT 15SM OVC160 15/M02 A3021 RMK AS7 SLP231

CYQB;2009-05-26 23:00;CYQB 262300Z 24007KT 20SM BKN160 OVC240 14/M01 A3020 RMK AC6CI0 SLP230

CYQB;2009-05-27 00:00;CYQB 270000Z 00000KT 20SM BKN140 13/M00 A3019 RMK AC7 SLP227

CYQB;2009-05-27 01:00;CYQB 270100Z 25002KT 20SM BKN150 12/02 A3020 RMK AC7 SLP228

CYQB;2009-05-27 02:00;CYQB 270200Z 00000KT 15SM BKN160 12/01 A3019 RMK AC7 SLP227

CYQB;2009-05-27 03:00;CYQB 270300Z 34004KT 15SM SCT230 08/03 A3019 RMK CS4 SLP225

CYQB;2009-05-27 04:00;CYQB 270400Z 01003KT 15SM BKN200 10/02 A3019 RMK CS5 SLP224

CYQB;2009-05-27 05:00;CYQB 270500Z 04004KT 15SM SCT180 09/03 A3017 RMK CS4 SLP219

CYQB;2009-05-27 06:00;CYQB 270600Z 36003KT 15SM SCT180 09/03 A3018 RMK CS4 SLP221

CYQB;2009-05-27 07:00;CYQB 270700Z 07004KT 15SM BKN150 10/03 A3016 RMK AS6 SLP215

CYQB;2009-05-27 08:00;CYQB 270800Z 06007KT 15SM BKN160 10/03 A3014 RMK AS7 SLP209

CYQB;2009-05-27 09:00;CYQB 270900Z 07008KT 30SM OVC130 10/04 A3014 RMK AS8 SLP208

CYQB;2009-05-27 10:00;CYQB 271000Z 07009KT 30SM SCT120 BKN170 10/04 A3013 RMK AC3AC4 VIRGA NE SLP205

CYQB;2009-05-27 11:00;CYQB 271100Z 07009G15KT 30SM FEW120 BKN140 11/03 A3012 RMK AC2AS4 VIRGA N SLP201

CYQB;2009-05-27 12:00;CYQB 271200Z 07010G19KT 30SM FEW120 OVC150 12/01 A3010 RMK AC2AS5 SLP195

CYQB;2009-05-27 13:00;CYQB 271300Z 07013G19KT 30SM FEW120 OVC150 13/02 A3008 RMK AC2AS6 SLP189

CYQB;2009-05-27 14:00;CYQB 271400Z 08010G15KT 15SM BKN120 OVC150 13/01 A3007 RMK AC6AC2 SLP184

CYQB;2009-05-27 15:00;CYQB 271500Z 07012KT 15SM OVC100 14/02 A3005 RMK AC8 SLP176

CYQB;2009-05-27 16:00;CYQB 271600Z 07012KT 15SM OVC070 13/00 A3004 RMK AC8 SLP174

CYQB;2009-05-27 17:00;CYQB 271700Z 09007KT 15SM -RA OVC040 13/02 A3004 RMK SC8 SLP173

CYQB;2009-05-27 18:00;CYQB 271800Z 10005KT 10SM -RA SCT040 OVC049 10/06 A3004 RMK SC3SC5 SLP173

CYQB;2009-05-27 19:00;CYQB 271900Z 08008KT 7SM -RA SCT040 OVC060 10/07 A3004 RMK SC3SC5 SLP173

CYQB;2009-05-27 20:00;CYQB 272000Z 07009KT 7SM -RA BKN020 OVC040 10/08 A3003 RMK SC5SC3 SLP171

CYQB;2009-05-27 20:39;CYQB 272039Z 07009KT 15SM FEW020 OVC056 10/ RMK SC2SC6

CYQB;2009-05-27 21:00;CYQB 272100Z 08009KT 15SM FEW020 OVC055 10/08 A3001 RMK SC2SC6 SLP165

CYQB;2009-05-27 22:00;CYQB 272200Z 11007KT 15SM SCT020 SCT055 BKN079 11/08 A2999 RMK SF3SC1AC3 SLP158

CYQB;2009-05-27 23:00;CYQB 272300Z 06008KT 30SM FEW013 BKN022 BKN055 OVC079 11/08 A3000 RMK SF1SC5SC2AC2 SLP162

CYQB;2009-05-28 00:00;CYQB 280000Z 07007KT 30SM BKN021 OVC055 10/07 A3000 RMK SC6SC2 SLP162

CYQB;2009-05-28 01:00;CYQB 280100Z 09010G15KT 15SM FEW014 BKN023 OVC055 10/06 A3000 RMK SC2SC5SC2 SLP162

CYQB;2009-05-28 02:00;CYQB 280200Z 07006KT 15SM OVC023 10/07 A3001 RMK SC8 SLP163

CYQB;2009-05-28 03:00;CYQB 280300Z 08010KT 15SM OVC020 10/06 A3001 RMK SC8 SLP163

CYQB;2009-05-28 04:00;CYQB 280400Z 07010KT 15SM OVC020 10/06 A3001 RMK SC8 SLP163

CYQB;2009-05-28 05:00;CYQB 280500Z 07007KT 15SM BKN025 OVC030 10/07 A3001 RMK SC6SC2 SLP164

CYQB;2009-05-28 06:00;CYQB 280600Z 07006KT 15SM BKN017 OVC030 10/06 A3001 RMK SC6SC2 SLP164

CYQB;2009-05-28 07:00;CYQB 280700Z 06008KT 15SM OVC025 10/06 A3001 RMK SC8 SLP165

CYQB;2009-05-28 08:00;CYQB 280800Z 07006KT 15SM BKN025 09/06 A3001 RMK SC7 SLP165

CYQB;2009-05-28 09:00;CYQB 280900Z 06008KT 30SM BKN019 OVC050 09/06 A3001 RMK SC7SC1 SLP164

CYQB;2009-05-28 10:00;CYQB 281000Z 07010KT 30SM BKN022 BKN080 09/07 A3003 RMK SC5AC2 SLP169

CYQB;2009-05-28 11:00;CYQB 281100Z 09010G15KT 30SM BKN016 OVC080 10/06 A3003 RMK SC5AC3 SLP172

CYQB;2009-05-28 12:00;CYQB 281200Z 09012KT 30SM BKN018 BKN080 OVC220 10/07 A3005 RMK SC5AC2CI2 SLP177

CYQB;2009-05-28 13:00;CYQB 281300Z 09014G19KT 30SM BKN022 BKN240 10/06 A3005 RMK SC5CI2 SLP176

CYQB;2009-05-28 14:00;CYQB 281400Z 08010G18KT 15SM FEW024 BKN090 12/07 A3003 RMK SC2AC1 SLP172

CYQB;2009-05-28 15:00;CYQB 281500Z 09012G18KT 15SM BKN026 14/07 A3003 RMK SC7 SLP170

CYQB;2009-05-28 16:00;CYQB 281600Z 09011G18KT 15SM SCT034 BKN230 15/07 A3000 RMK SC4CI0 SLP159

CYQB;2009-05-28 17:00;CYQB 281700Z 09013KT 15SM FEW034 FEW180 BKN220 16/08 A2998 RMK CF2AC1CI2 SLP153

CYQB;2009-05-28 18:00;CYQB 281800Z 09009G17KT 15SM FEW035 BKN220 17/08 A2995 RMK CF1CI2 SLP143

CYQB;2009-05-28 19:00;CYQB 281900Z 07012KT 15SM FEW035 BKN220 18/08 A2993 RMK CF1CI3 SLP136

CYQB;2009-05-28 20:00;CYQB 282000Z 12014KT 15SM FEW040 FEW080 BKN210 18/09 A2991 RMK CF1AC2CI3 SLP129

CYQB;2009-05-28 21:00;CYQB 282100Z 09012KT 15SM FEW045 FEW100 BKN210 18/08 A2989 RMK SC1AC1CI2 SLP122

CYQB;2009-05-28 22:00;CYQB 282200Z 10007KT 15SM BKN046 BKN070 18/08 A2987 RMK SC5AC2 SLP116

CYQB;2009-05-28 23:00;CYQB 282300Z 12009KT 15SM BKN044 16/08 A2987 RMK SC7 SLP117

CYQB;2009-05-29 00:00;CYQB 290000Z 13011G16KT 15SM BKN043 15/08 A2988 RMK SC7 SLP118

CYQB;2009-05-29 01:00;CYQB 290100Z 13012G18KT 15SM -RA OVC048 14/08 A2989 RMK SC8 SLP121

CYQB;2009-05-29 02:00;CYQB 290200Z 12011KT 10SM -RA OVC040 13/08 A2988 RMK SC8 SLP118

CYQB;2009-05-29 03:00;CYQB 290300Z 11006KT 6SM -RA BR OVC034 12/10 A2986 RMK SC8 SLP114

CYQB;2009-05-29 04:00;CYQB 290400Z 11007KT 3SM -RA BR FEW017 OVC025 11/10 A2985 RMK SF2SC6 SLP110

CYQB;2009-05-29 05:00;CYQB 290500Z 08007KT 1 1/2SM -RA BR FEW010 OVC016 11/10 A2982 RMK SF2SC6 SLP099

CYQB;2009-05-29 06:00;CYQB 290600Z 10009G15KT 1 1/2SM -RA BR FEW008 OVC012 11/10 A2979 RMK SF2SC6 SLP089

CYQB;2009-05-29 07:00;CYQB 290700Z 11006KT 1 1/2SM -RA BR SCT006 OVC010 10/09 A2976 RMK SF4SC4 SLP080

CYQB;2009-05-29 08:00;CYQB 290800Z 10008KT 3SM -RA BR SCT007 OVC014 10/09 A2974 RMK SF4SC4 SLP071

CYQB;2009-05-29 09:00;CYQB 290900Z 07011KT 1 1/2SM -RA BR OVC008 10/09 A2972 RMK SF8 SLP064

CYQB;2009-05-29 10:00;CYQB 291000Z 09007KT 2SM RA BR FEW004 OVC009 10/09 A2970 RMK SF2SF6 SLP058

CYQB;2009-05-29 11:00;CYQB 291100Z CCA 09007KT 2SM -RA BR FEW003 OVC009 10/09 A2969 RMK SF2SF6 RERA SLP054

CYQB;2009-05-29 12:00;CYQB 291200Z 09008KT 2SM RA BR FEW005 OVC009 11/10 A2967 RMK SF2SF6 SLP047

CYQB;2009-05-29 13:00;CYQB 291300Z 09009KT 2SM RA BR FEW005 BKN008 OVC015 11/10 A2965 RMK SF2SF5SC2 SLP042

CYQB;2009-05-29 14:00;CYQB 291400Z 09008KT 2SM RA BR FEW005 BKN007 OVC016 11/10 A2963 RMK SF2SF3NS2 SLP034

CYQB;2009-05-29 14:37;CYQB 291437Z 11004KT 2SM RA BR BKN004 OVC007 11/ RMK SF5SF3

CYQB;2009-05-29 15:00;CYQB 291500Z 09006KT 2SM RA BR BKN003 BKN007 OVC016 11/11 A2961 RMK SF5SF2NS1 SLP030

CYQB;2009-05-29 16:00;CYQB 291600Z 08005KT 1 1/2SM -RA BR BKN003 OVC007 12/11 A2961 RMK SF5SF3 RERA SLP027

CYQB;2009-05-29 17:00;CYQB 291700Z 07004KT 1 1/4SM -RADZ BR BKN003 OVC008 13/12 A2959 RMK SF5SF3 SLP023

CYQB;2009-05-29 18:00;CYQB 291800Z 07004KT 1SM R06/5500FT/N -RADZ BR BKN002 BKN006 OVC015 13/12 A2959 RMK SF5SF2SC2 SLP022

CYQB;2009-05-29 19:00;CYQB 291900Z 07004KT 1SM R06/5500FT/N -RADZ BR BKN002 OVC011 14/13 A2958 RMK SF6SC2 SLP017

CYQB;2009-05-29 19:48;CYQB 291948Z 08004KT 1 1/2SM -DZ BR BKN002 OVC012 14/ RMK SF6SC2

CYQB;2009-05-29 20:00;CYQB 292000Z 08004KT 1 1/2SM -DZ BR BKN003 OVC009 14/13 A2956 RMK SF6SF2 SLP012

CYQB;2009-05-29 20:34;CYQB 292034Z 07003KT 2SM -DZ BR BKN003 OVC007 14/ RMK SF5SF3

CYQB;2009-05-29 21:00;CYQB 292100Z 07003KT 1 1/2SM -DZ BR BKN004 OVC008 14/13 A2956 RMK SF6SF2 SLP010

CYQB;2009-05-29 22:00;CYQB 292200Z 05003KT 2 1/2SM BR BKN006 OVC012 14/13 A2954 RMK SF6SC2 SLP006

CYQB;2009-05-29 23:00;CYQB 292300Z 03002KT 1 1/2SM -DZ BR BKN009 OVC018 14/14 A2955 RMK SF6SC2 SLP008

CYQB;2009-05-30 00:00;CYQB 300000Z 19003KT 2SM -DZ BR BKN011 OVC020 15/14 A2955 RMK SF6SC2 SLP006

CYQB;2009-05-30 00:33;CYQB 300033Z 22010KT 1 1/2SM -DZ BR BKN006 OVC012 16/ RMK SF6SC2

CYQB;2009-05-30 01:00;CYQB 300100Z 23016KT 5SM -DZ BR BKN006 OVC011 16/15 A2955 RMK SF6SC2 SLP007

CYQB;2009-05-30 02:00;CYQB 300200Z 23009KT 4SM -DZ BR SCT006 BKN012 OVC060 15/15 A2956 RMK SF4SC2SC2 SLP012

CYQB;2009-05-30 02:40;CYQB 300240Z 25010KT 4SM BR BKN012 OVC060 15/ RMK SC6SC2

CYQB;2009-05-30 03:00;CYQB 300300Z 25010KT 10SM FEW010 BKN075 15/14 A2957 RMK SF2AC6 SLP014

CYQB;2009-05-30 04:00;CYQB 300400Z 25009KT 10SM SCT035 BKN070 14/13 A2957 RMK SC3AC3 SLP014

CYQB;2009-05-30 05:00;CYQB 300500Z 25008KT 10SM SCT035 BKN070 14/12 A2958 RMK SC3AC4 SLP018

CYQB;2009-05-30 06:00;CYQB 300600Z 25008KT 15SM BKN060 BKN075 13/12 A2959 RMK SC6AC1 SLP021

CYQB;2009-05-30 07:00;CYQB 300700Z 25010KT 15SM SCT065 12/11 A2959 RMK SC4 SLP022

CYQB;2009-05-30 08:00;CYQB 300800Z 23010KT 15SM SCT065 12/11 A2960 RMK SC3 SLP026

CYQB;2009-05-30 09:00;CYQB 300900Z 27006KT 30SM FEW004 FEW060 11/10 A2960 RMK ST1SC2 SLP025

CYQB;2009-05-30 10:00;CYQB 301000Z 27004KT 30SM FEW004 FEW080 FEW210 11/10 A2961 RMK SC1AC1CI0 SLP028

CYQB;2009-05-30 11:00;CYQB 301100Z 27004KT 30SM FEW004 FEW060 FEW120 BKN160 14/12 A2961 RMK SF1SC1AC1AC3 SLP028

CYQB;2009-05-30 12:00;CYQB 301200Z 24003KT 30SM FEW004 BKN058 14/11 A2961 RMK SF1SC7 SLP027

CYQB;2009-05-30 13:00;CYQB 301300Z 22009KT 30SM FEW012 SCT060 BKN150 14/12 A2961 RMK SC1SC2AC4 SLP028

CYQB;2009-05-30 14:00;CYQB 301400Z 23015KT 30SM FEW012 SCT060 OVC120 14/11 A2962 RMK CU1SC2AC5 SLP031

CYQB;2009-05-30 15:00;CYQB 301500Z 24014KT 30SM FEW012 SCT040 OVC090 14/11 A2961 RMK CU2SC2AC4 VIS LWR N SLP029

CYQB;2009-05-30 15:06;CYQB 301506Z 24014KT 30SM -SHRA FEW012 BKN040 OVC090 14/ RMK CU2SC2AC3 VIS LWR N

CYQB;2009-05-30 16:00;CYQB 301600Z 25010KT 30SM -SHRA FEW012 BKN073 OVC090 13/11 A2960 RMK CU1AC5AC2 PCPN VRY LGT SLP025

CYQB;2009-05-30 16:13;CYQB 301613Z 25009KT 30SM FEW012 BKN058 OVC090 13/ RMK CU1SC6AC1

CYQB;2009-05-30 16:41;CYQB 301641Z 26007KT 30SM -SHRA FEW012 BKN055 OVC090 13/ RMK CU1SC6AC1

CYQB;2009-05-30 17:00;CYQB 301700Z 25005KT 30SM FEW010 BKN046 OVC090 14/11 A2959 RMK CF1SC6AC1 SLP022

CYQB;2009-05-30 17:44;CYQB 301744Z 27017G25KT 15SM -SHRA BKN029 OVC035 12/ RMK SC7SC1 VIS N 4

CYQB;2009-05-30 18:00;CYQB 301800Z 26010KT 4SM -SHRA OVC035 11/10 A2960 RMK SC8 TCU EMBD SLP026

CYQB;2009-05-30 18:35;CYQB 301835Z 22006KT 10SM FEW010 BKN070 BKN100 12/ RMK SF1AC6AC1 VIS HIER SW

CYQB;2009-05-30 19:00;CYQB 301900Z 20005KT 15SM FEW010 BKN072 BKN160 13/11 A2958 RMK SC1AC5AC2 SLP019

CYQB;2009-05-30 20:00;CYQB 302000Z 25012KT 30SM FEW016 BKN063 14/11 A2961 RMK SC2SC5 SLP027

CYQB;2009-05-30 21:00;CYQB 302100Z 26012KT 30SM BKN031 BKN065 15/10 A2961 RMK SC5SC1 SLP029

CYQB;2009-05-30 22:00;CYQB 302200Z 27011KT 30SM FEW030 SCT055 15/09 A2962 RMK SC2SC1 SLP033

CYQB;2009-05-30 22:35;CYQB 302235Z 25009KT 30SM -SHRA FEW030 BKN053 14/ RMK SC2SC5

CYQB;2009-05-30 23:00;CYQB 302300Z 25008KT 30SM FEW030 BKN053 13/10 A2964 RMK SC2SC4 SLP037

CYQB;2009-05-31 00:00;CYQB 310000Z 24003KT 30SM FEW030 BKN050 13/10 A2964 RMK SC2SC5 SLP037

CYQB;2009-05-31 01:00;CYQB 310100Z 00000KT 30SM SCT030 SCT050 12/10 A2964 RMK SC3SC1 SLP039

CYQB;2009-05-31 02:00;CYQB 310200Z 28003KT 15SM SCT025 BKN060 12/10 A2965 RMK SC3SC2 SLP042

CYQB;2009-05-31 03:00;CYQB 310300Z 28003KT 15SM FEW030 SCT060 10/09 A2966 RMK SC2SC2 SLP044

CYQB;2009-05-31 04:00;CYQB 310400Z 00000KT 15SM FEW030 09/08 A2965 RMK SC1 SLP041

CYQB;2009-05-31 05:00;CYQB 310500Z CCA 00000KT 15SM R06/2600VP6000FT/N FEW030 FEW210 07/07 A2965 RMK SC1CI1 VIS SW 1 SLP043

CYQB;2009-05-31 06:00;CYQB 310600Z 21002KT 15SM FEW014 07/06 A2964 RMK SC1 SLP040

CYQB;2009-05-31 07:00;CYQB 310700Z 00000KT 15SM FEW014 FEW250 07/06 A2964 RMK SC1CI1 SLP038

CYQB;2009-05-31 08:00;CYQB 310800Z 04002KT 15SM FEW040 FEW240 07/07 A2963 RMK SC2CI1 SLP035

CYQB;2009-05-31 09:00;CYQB 310900Z 02005KT 15SM R06/3000FT/N FEW040 BKN100 BKN200 08/07 A2961 RMK SC1AC6CI1 VIS N 1/4 SLP030

CYQB;2009-05-31 09:08;CYQB 310908Z 03004KT 1/4SM R06/2200FT/N FG BKN100 BKN200 08/ RMK FG1AC6CI1

CYQB;2009-05-31 09:45;CYQB 310945Z 01005KT 1/2SM R06/2800VP6000FT/U -SHRA PRFG FEW001 SCT055 BKN100 08/ RMK SF1SC3AC3

CYQB;2009-05-31 10:00;CYQB 311000Z 05005KT 8SM -SHRA VCFG FEW001 BKN055 OVC100 08/08 A2961 RMK SF1SC5AC2 VIS SW-NE 1 VIS NE-SW 15 SLP028

CYQB;2009-05-31 11:00;CYQB 311100Z CCB 07004KT 15SM VCSH VCFG FEW002 BKN050 BKN100 09/08 A2959 RMK SF1SC6AC1 OCNL -SHRA VIS NW QUAD 3 SLP023

CYQB;2009-05-31 11:35;CYQB 311135Z 10004KT 15SM VCFG FEW003 BKN043 09/ RMK SF1SC7 VIS W QUAD 4

CYQB;2009-05-31 12:00;CYQB 311200Z 19005KT 15SM FEW003 BKN045 BKN100 10/09 A2959 RMK SF1SC6AC1 SLP022

CYQB;2009-05-31 13:00;CYQB 311300Z 23014KT 20SM FEW027 BKN046 BKN120 14/10 A2960 RMK CU2SC4AC1 SLP024

CYQB;2009-05-31 14:00;CYQB 311400Z 23018KT 20SM BKN045 15/08 A2959 RMK CU7 SLP020

CYQB;2009-05-31 14:57;CYQB 311457Z 25009KT 15SM -SHRA BKN043 14/ RMK CU7

CYQB;2009-05-31 15:00;CYQB 311500Z 25010KT 15SM -SHRA FEW030 BKN045 14/08 A2957 RMK SC1CU6 SLP016

CYQB;2009-05-31 15:15;CYQB 311515Z 26018G27KT 2SM +SHRA BR SCT025 OVC040 11/ RMK SC3CU5 TCU EMBDD

CYQB;2009-05-31 15:30;CYQB 311530Z 27011G17KT 8SM -SHRA SCT025 BKN050 11/ RMK SC3CU4 TCU EMBDD RERA VIS N 2

CYQB;2009-05-31 16:00;CYQB 311600Z 25011KT 25SM VCSH FEW025 BKN060 BKN089 BKN120 11/10 A2959 RERA RMK SC1SC5AC1AC1 OCNL -SHRA SLP021

CYQB;2009-05-31 17:00;CYQB 311700Z CCA 23009KT 30SM FEW035 SCT060 BKN090 14/10 A2957 RMK SC1SC2AC2 DIST SH E QUAD TCU EMBD SLP016

CYQB;2009-05-31 18:00;CYQB 311800Z 23013G18KT 20SM BKN043TCU 16/08 A2956 RMK TCU6 SLP012

CYQB;2009-05-31 19:00;CYQB 311900Z 25015G26KT 30SM SCT045TCU BKN080 16/05 A2955 RMK TCU3AC3 SLP009

CYQB;2009-05-31 20:00;CYQB 312000Z 29013G20KT 30SM SCT040TCU BKN080 14/06 A2958 RMK TCU3AC3 SLP017

CYQB;2009-05-31 20:27;CYQB 312027Z 31015G24KT 20SM -SHRA BKN050TCU BKN080 13/ RMK TCU5AC2

CYQB;2009-05-31 21:00;CYQB 312100Z 31012G18KT 30SM SCT050TCU BKN080 14/04 A2959 RMK TCU3AC2 SLP021

CYQB;2009-05-31 22:00;CYQB 312200Z 33008KT 30SM FEW050 SCT080 BKN220 13/02 A2960 RMK CU2AC2CI1 SLP026

CYQB;2009-05-31 23:00;CYQB 312300Z 31010KT 30SM SCT050 BKN090 14/02 A2963 RMK CU3AC2 SLP034

CYQB;2009-06-01 01:00;CYQB 010100Z 31007KT 15SM FEW050 FEW210 09/01 A2970 RMK CF2CI0 SLP057

CYQB;2009-06-01 02:00;CYQB 010200Z 27009KT 15SM FEW170 08/00 A2971 RMK AS1 SLP063

CYQB;2009-06-01 03:00;CYQB 010300Z 27009KT 15SM FEW160 08/M00 A2973 RMK AS2 SLP068

CYQB;2009-06-01 04:00;CYQB 010400Z 27010KT 15SM FEW160 06/00 A2974 RMK AS1 SLP071

CYQB;2009-06-01 05:00;CYQB 010500Z 26012KT 15SM SKC 05/00 A2975 RMK SLP077

CYQB;2009-06-01 06:00;CYQB 010600Z 24013KT 15SM FEW120 04/M01 A2977 RMK AC1 SLP083

CYQB;2009-06-01 07:00;CYQB 010700Z 24012KT 15SM FEW120 04/M01 A2980 RMK AC1 SLP094

CYQB;2009-06-01 08:00;CYQB 010800Z 23013KT 15SM FEW040 FEW120 03/M01 A2981 RMK SC1AC0 SLP097

CYQB;2009-06-01 09:00;CYQB 010900Z 26016KT 30SM FEW040 FEW120 03/00 A2981 RMK SC1AC1 SLP097

CYQB;2009-06-01 10:00;CYQB 011000Z 25014KT 30SM BKN024 BKN200 04/01 A2983 RMK SC6CI1 SLP102

CYQB;2009-06-01 11:00;CYQB 011100Z 25015G20KT 30SM BKN027 BKN200 06/02 A2984 RMK SC5CI1 SLP108

CYQB;2009-06-01 12:00;CYQB 011200Z 26014KT 30SM BKN023 07/03 A2986 RMK SC7 SLP115

CYQB;2009-06-01 13:00;CYQB 011300Z 26018KT 30SM BKN026 09/04 A2988 RMK SC6 SLP119

CYQB;2009-06-01 14:00;CYQB 011400Z 26017G24KT 30SM SCT030 11/05 A2987 RMK SC4 SLP118

CYQB;2009-06-01 15:00;CYQB 011500Z 25019KT 30SM FEW035 SCT200 14/06 A2988 RMK SC2CI1 SLP119

CYQB;2009-06-01 16:00;CYQB 011600Z 23021G27KT 30SM FEW050 BKN220 14/07 A2987 RMK SC2CI2 SLP117

CYQB;2009-06-01 17:00;CYQB 011700Z 24022G27KT 30SM FEW055 SCT200 15/06 A2986 RMK SC2CI2 SLP113

CYQB;2009-06-01 18:00;CYQB 011800Z 24022G30KT 30SM FEW050 BKN220 17/06 A2985 RMK SC2CI3 SLP111

CYQB;2009-06-01 19:00;CYQB 011900Z 25021G30KT 30SM FEW050 SCT200 17/06 A2986 RMK SC1CI2 SLP112

CYQB;2009-06-01 20:00;CYQB 012000Z 24025G32KT 30SM FEW050 SCT190 BKN230 16/04 A2986 RMK SC1AC2CI0 SLP112

CYQB;2009-06-01 21:00;CYQB 012100Z 25020G31KT 30SM FEW050 SCT190 SCT230 16/04 A2985 RMK SC1AC2CI1 SLP111

CYQB;2009-06-01 22:00;CYQB 012200Z 24019G30KT 30SM FEW150 SCT220 15/03 A2984 RMK AC2CI1 SLP107

CYQB;2009-06-01 23:00;CYQB 012300Z 24019G24KT 30SM BKN120 BKN200 14/02 A2985 RMK AC5CI2 SLP109

CYQB;2009-06-02 00:00;CYQB 020000Z 25017G24KT 30SM OVC095 13/03 A2987 RMK AC8 SLP116

CYQB;2009-06-02 01:00;CYQB 020100Z 25015KT 15SM -SHRA OVC050 12/03 A2988 RMK SC8 SLP121

CYQB;2009-06-02 02:00;CYQB 020200Z 25015KT 15SM -SHRA BKN045 OVC090 10/06 A2991 RMK SC6AC2 SLP129

CYQB;2009-06-02 03:00;CYQB 020300Z 26009KT 12SM -SHRA FEW015 OVC045 08/07 A2992 RMK SC2SC6 SLP132

CYQB;2009-06-02 04:00;CYQB 020400Z 25005KT 12SM -SHRA FEW015 OVC045 08/07 A2991 RMK SC2SC6 SLP130

CYQB;2009-06-02 04:45;CYQB 020445Z 24002KT 15SM FEW015 BKN045 BKN090 08/ RMK SC1SC5AC2

CYQB;2009-06-02 05:00;CYQB 020500Z 21002KT 15SM FEW015 BKN050 BKN090 08/07 A2989 RMK SC1SC5AC2 SLP122

CYQB;2009-06-02 06:00;CYQB 020600Z 00000KT 15SM FEW015 BKN054 BKN090 07/06 A2986 RMK SC1SC6AC1 SLP115

CYQB;2009-06-02 07:00;CYQB 020700Z 22005KT 15SM FEW024 OVC080 07/06 A2985 RMK SC1AC7 SLP111

CYQB;2009-06-02 08:00;CYQB 020800Z 27007KT 15SM OVC075 07/06 A2988 RMK AC8 SLP121

CYQB;2009-06-02 09:00;CYQB 020900Z 26010KT 15SM BKN073 08/07 A2989 RMK AC7 SLP125

CYQB;2009-06-02 10:00;CYQB 021000Z 24008KT 15SM BKN073 BKN100 08/06 A2989 RMK AC6AC2 SLP124

CYQB;2009-06-02 11:00;CYQB 021100Z 22006KT 25SM FEW003 FEW073 BKN100 08/07 A2990 RMK ST1AC1AC5 SLP127

CYQB;2009-06-02 12:00;CYQB 021200Z 24011KT 25SM FEW003 FEW080 BKN100 10/07 A2991 RMK SF1AC1AC3 SLP131

CYQB;2009-06-02 13:00;CYQB 021300Z 27008KT 25SM SCT020 11/08 A2992 RMK SC4 SLP134

CYQB;2009-06-02 14:00;CYQB 021400Z 24014KT 30SM FEW024 FEW070 14/07 A2992 RMK CU2AC1 SLP134

CYQB;2009-06-02 15:00;CYQB 021500Z 21011G21KT 30SM FEW024 FEW080 15/09 A2992 RMK CU2AC1 SLP134

CYQB;2009-06-02 16:00;CYQB 021600Z 24014KT 30SM SCT032 BKN078 15/07 A2992 RMK CU4AC1 SLP133

CYQB;2009-06-02 17:00;CYQB 021700Z 24020G26KT 30SM VCSH SCT032 BKN083 14/06 A2992 RMK CU4AC2 SLP133

CYQB;2009-06-02 18:00;CYQB 021800Z 24022KT 30SM VCSH SCT036 SCT067 16/07 A2992 RMK CU3AC1 SLP130

CYQB;2009-06-02 19:00;CYQB 021900Z 23017G22KT 30SM VCSH FEW036 SCT089 17/08 A2990 RMK CU2AC1 SLP127

CYQB;2009-06-02 20:00;CYQB 022000Z 23017G24KT 30SM FEW040 SCT069 18/07 A2990 RMK CU2AC1 SLP126

CYQB;2009-06-02 21:00;CYQB 022100Z 28014G22KT 30SM FEW056 FEW090 SCT220 18/04 A2990 RMK CU2AC1CI1 SLP127

CYQB;2009-06-02 22:00;CYQB 022200Z 24011G17KT 30SM SCT062 SCT240 17/06 A2990 RMK SC3CI1 SLP126

CYQB;2009-06-02 23:00;CYQB 022300Z 24007KT 30SM FEW066 FEW240 17/06 A2991 RMK SC2CI1 SLP129

CYQB;2009-06-03 00:00;CYQB 030000Z 28011KT 30SM FEW072 FEW240 15/03 A2992 RMK AC1CI1 SLP131

CYQB;2009-06-03 01:00;CYQB 030100Z CCA 26006KT 15SM FEW075 12/04 A2993 RMK AC1 SLP136

CYQB;2009-06-03 02:00;CYQB 030200Z 26006KT 15SM SKC 10/04 A2993 RMK SLP136

CYQB;2009-06-03 03:00;CYQB 030300Z 30003KT 15SM FEW075 10/03 A2993 RMK AC1 SLP137

CYQB;2009-06-03 04:00;CYQB 030400Z 00000KT 15SM FEW070 08/03 A2993 RMK AC2 SLP137

CYQB;2009-06-03 05:00;CYQB 030500Z 00000KT 15SM SCT070 OVC170 09/04 A2993 RMK AC4AC4 SLP136

CYQB;2009-06-03 06:00;CYQB 030600Z 26002KT 15SM SCT070 BKN160 09/04 A2993 RMK AC4AC3 SLP138

CYQB;2009-06-03 07:00;CYQB 030700Z 27006KT 15SM FEW080 BKN160 08/04 A2993 RMK AC2AC5 SLP138

CYQB;2009-06-03 08:00;CYQB 030800Z 00000KT 15SM SCT080 BKN150 08/04 A2993 RMK AC3AC2 SLP138

CYQB;2009-06-03 09:00;CYQB 030900Z 00000KT 15SM BKN072 BKN150 07/04 A2994 RMK AC5AC2 SLP141

CYQB;2009-06-03 10:00;CYQB 031000Z 00000KT 30SM BKN071 08/05 A2996 RMK AC6 SLP146

CYQB;2009-06-03 11:00;CYQB 031100Z 29004KT 30SM BKN068 10/05 A2997 RMK AC5 SLP150

CYQB;2009-06-03 12:00;CYQB 031200Z 26010KT 30SM FEW070 12/02 A2998 RMK AC2 SLP155

CYQB;2009-06-03 13:00;CYQB 031300Z 25013KT 30SM FEW070 14/03 A2998 RMK AC1 SLP155

CYQB;2009-06-03 14:00;CYQB 031400Z 27018KT 50SM FEW050 15/02 A2998 RMK CF1 SLP154

CYQB;2009-06-03 15:00;CYQB 031500Z 29017G28KT 30SM FEW050 FEW250 16/02 A2997 RMK CU1CI1 SLP152

CYQB;2009-06-03 16:00;CYQB 031600Z 29017G24KT 30SM FEW060 FEW250 17/02 A2997 RMK CU1CI1 SLP149

CYQB;2009-06-03 17:00;CYQB 031700Z 28018G25KT 30SM FEW065 18/03 A2994 RMK CU2 SLP142

CYQB;2009-06-03 18:00;CYQB 031800Z 29012G19KT 30SM FEW068 19/03 A2992 RMK CU2 SLP134

CYQB;2009-06-03 19:00;CYQB 031900Z 26014G25KT 30SM SCT075 18/03 A2991 RMK CU3 SLP129

CYQB;2009-06-03 20:00;CYQB 032000Z 26018KT 30SM SCT078 18/03 A2989 RMK CU4 SLP124

CYQB;2009-06-03 21:00;CYQB 032100Z 23013G21KT 30SM SCT078 19/04 A2989 RMK CU4 SLP124

CYQB;2009-06-03 22:00;CYQB 032200Z 23013KT 30SM SCT085 17/04 A2989 RMK CU3 SLP124

CYQB;2009-06-03 23:00;CYQB 032300Z 23011KT 30SM FEW085 17/04 A2989 RMK AC2 SLP124

CYQB;2009-06-04 00:00;CYQB 040000Z 23006KT 30SM FEW100 FEW240 15/05 A2989 RMK AC1CI0 SLP123

CYQB;2009-06-04 01:00;CYQB 040100Z 26003KT 30SM BKN095 BKN240 14/06 A2990 RMK AC6CI1 SLP125

CYQB;2009-06-04 02:00;CYQB 040200Z 26010KT 30SM BKN075 14/07 A2991 RMK AC6 SLP130

CYQB;2009-06-04 03:00;CYQB 040300Z 23008KT 15SM -SHRA BKN079 14/06 A2990 RMK AC6 SLP127

CYQB;2009-06-04 03:34;CYQB 040334Z 24010KT 15SM BKN097 13/ RMK AC5

CYQB;2009-06-04 04:00;CYQB 040400Z 26007KT 15SM BKN120 12/07 A2990 RMK AC2 SLP125

CYQB;2009-06-04 05:00;CYQB 040500Z 25008KT 15SM FEW060 11/07 A2991 RMK SC2 SLP128

CYQB;2009-06-04 06:00;CYQB 040600Z 24007KT 15SM FEW060 10/06 A2992 RMK SC2 SLP132

CYQB;2009-06-04 07:00;CYQB 040700Z 32008G15KT 15SM SKC 11/05 A2994 RMK SLP138

CYQB;2009-06-04 08:00;CYQB 040800Z 31006KT 15SM FEW120 09/04 A2995 RMK AC1 SLP144

CYQB;2009-06-04 09:00;CYQB 040900Z 30006KT 25SM FEW120 07/04 A2997 RMK AC1 SLP152

CYQB;2009-06-04 10:00;CYQB 041000Z 32007KT 30SM FEW040 09/03 A3000 RMK SC1 SLP159

CYQB;2009-06-04 11:00;CYQB 041100Z 34003KT 50SM FEW030 FEW120 10/00 A3001 RMK CF1AC1 SLP165

CYQB;2009-06-04 12:00;CYQB 041200Z 32006KT 50SM FEW035 FEW170 11/M00 A3004 RMK CF1AC1 SLP173

CYQB;2009-06-04 13:00;CYQB 041300Z 35004KT 50SM FEW040 FEW170 12/M01 A3004 RMK CU1AC1 SLP174

CYQB;2009-06-04 14:00;CYQB 041400Z 16003KT 50SM FEW045 FEW170 13/01 A3002 RMK CU1AC1 SLP168

CYQB;2009-06-04 15:00;CYQB 041500Z 23008KT 50SM FEW045 FEW170 FEW260 14/02 A3003 RMK CU1AC1CI1 SLP169

CYQB;2009-06-04 16:00;CYQB 041600Z 20012KT 50SM FEW045 FEW180 15/03 A3002 RMK CU1AC1 SLP166

CYQB;2009-06-04 17:00;CYQB 041700Z 22014KT 50SM FEW045 FEW180 16/01 A3000 RMK CU1AC1 SLP162

CYQB;2009-06-04 18:00;CYQB 041800Z 22014KT 50SM FEW050 FEW180 17/02 A2999 RMK CU1AC1 SLP158

CYQB;2009-06-04 19:00;CYQB 041900Z 25017KT 30SM FEW050 FEW220 18/03 A2998 RMK CU1CI1 SLP154

CYQB;2009-06-04 20:00;CYQB 042000Z 21012G18KT 30SM FEW050 FEW220 18/03 A2997 RMK CU1CI1 SLP151

CYQB;2009-06-04 21:00;CYQB 042100Z 23012G18KT 30SM FEW050 FEW220 18/01 A2996 RMK CU1CI1 SLP148

CYQB;2009-06-04 22:00;CYQB 042200Z 23009G17KT 30SM FEW050 FEW220 18/00 A2995 RMK CU1CI1 SLP145

CYQB;2009-06-04 23:00;CYQB 042300Z 25011KT 30SM FEW050 17/00 A2995 RMK CU1 SLP145

CYQB;2009-06-05 00:00;CYQB 050000Z 25007KT 30SM FEW040 16/M01 A2996 RMK CU1 SLP147

CYQB;2009-06-05 01:00;CYQB 050100Z 26003KT 30SM FEW040 13/00 A2997 RMK CU1 SLP151

CYQB;2009-06-05 02:00;CYQB 050200Z 35002KT 15SM SKC 12/01 A2999 RMK SLP156

CYQB;2009-06-05 03:00;CYQB 050300Z 00000KT 15SM SKC 09/02 A3000 RMK SLP159

CYQB;2009-06-05 04:00;CYQB 050400Z 03002KT 15SM SKC 08/02 A3000 RMK SLP161

CYQB;2009-06-05 05:00;CYQB 050500Z 00000KT 15SM SKC 07/03 A3000 RMK SLP159

CYQB;2009-06-05 06:00;CYQB 050600Z 00000KT 15SM SKC 07/02 A2999 RMK SLP158

CYQB;2009-06-05 07:00;CYQB 050700Z 00000KT 15SM SKC 05/02 A2999 RMK SLP158

CYQB;2009-06-05 08:00;CYQB 050800Z 03003KT 15SM FEW080 07/02 A2999 RMK AC1 SLP156

CYQB;2009-06-05 09:00;CYQB 050900Z 02002KT 30SM FEW080 06/02 A2999 RMK AC1 SLP158

CYQB;2009-06-05 10:00;CYQB 051000Z 35002KT 30SM FEW220 06/02 A3000 RMK CI1 SLP162

CYQB;2009-06-05 11:00;CYQB 051100Z 00000KT 30SM FEW220 08/04 A3001 RMK CI1 SLP164

CYQB;2009-06-05 12:00;CYQB 051200Z 25005KT 30SM FEW220 12/05 A3002 RMK CI1 SLP167

CYQB;2009-06-05 13:00;CYQB 051300Z 23006KT 30SM FEW220 14/06 A3002 RMK CI1 SLP167

CYQB;2009-06-05 14:00;CYQB 051400Z 24012KT 30SM FEW040 FEW220 17/06 A3000 RMK CU1CI1 SLP161

CYQB;2009-06-05 15:00;CYQB 051500Z 23011G16KT 30SM FEW045 FEW220 19/06 A3000 RMK CU1CI1 SLP160

CYQB;2009-06-05 16:00;CYQB 051600Z 25014G19KT 50SM FEW050 FEW220 21/06 A2998 RMK CU1CI1 SLP153

CYQB;2009-06-05 17:00;CYQB 051700Z 26013G19KT 50SM FEW055 FEW220 22/06 A2996 RMK CU1CI1 SLP148

CYQB;2009-06-05 18:00;CYQB 051800Z 25011KT 50SM FEW060 FEW220 22/06 A2994 RMK CU1CI1 SLP140

CYQB;2009-06-05 19:00;CYQB 051900Z 25012KT 30SM FEW060 FEW250 23/05 A2993 RMK CU1CI1 SLP136

CYQB;2009-06-05 20:00;CYQB 052000Z 27010KT 30SM FEW060 FEW250 23/04 A2991 RMK CU1CI1 SLP130

CYQB;2009-06-05 21:00;CYQB 052100Z 26011KT 30SM FEW250 23/04 A2990 RMK CI2 SLP125

CYQB;2009-06-05 22:00;CYQB 052200Z 26006KT 30SM SCT250 23/03 A2988 RMK CI2 SLP118

CYQB;2009-06-05 23:00;CYQB 052300Z 27004KT 30SM BKN250 22/04 A2987 RMK CI2 SLP116

CYQB;2009-06-06 00:00;CYQB 060000Z 31002KT 30SM BKN250 21/07 A2986 RMK CI2 SLP114

CYQB;2009-06-06 01:00;CYQB 060100Z 00000KT 30SM FEW250 17/07 A2986 RMK CI0 SLP112

CYQB;2009-06-06 02:00;CYQB 060200Z 36002KT 15SM FEW250 15/07 A2986 RMK CI0 SLP111

CYQB;2009-06-06 03:00;CYQB 060300Z 01002KT 15SM FEW250 14/06 A2985 RMK CI0 SLP110

CYQB;2009-06-06 04:00;CYQB 060400Z 01005KT 15SM FEW250 13/06 A2986 RMK CI1 SLP111

CYQB;2009-06-06 05:00;CYQB 060500Z 00000KT 15SM FEW250 11/05 A2985 RMK CI1 SLP110

CYQB;2009-06-06 06:00;CYQB 060600Z 00000KT 15SM SKC 11/05 A2986 RMK SLP112

CYQB;2009-06-06 07:00;CYQB 060700Z 02003KT 15SM SKC 10/05 A2986 RMK SLP111

CYQB;2009-06-06 08:00;CYQB 060800Z 01005KT 30SM FEW080 10/05 A2985 RMK AC1 SLP109

CYQB;2009-06-06 09:00;CYQB 060900Z 03004KT 30SM FEW080 FEW250 09/05 A2984 RMK AC1CI1 SLP107

CYQB;2009-06-06 10:00;CYQB 061000Z 02003KT 30SM FEW090 FEW250 10/05 A2984 RMK AC1CI0 ACC SLP106

CYQB;2009-06-06 11:00;CYQB 061100Z 05003KT 30SM FEW090 FEW250 12/07 A2984 RMK AC1CI0 SLP106

CYQB;2009-06-06 12:00;CYQB 061200Z 00000KT 30SM SCT080 15/08 A2984 RMK AC3 ACC SLP106

CYQB;2009-06-06 13:00;CYQB 061300Z 25004KT 30SM SCT090 17/10 A2984 RMK AC4 ACC SLP105

CYQB;2009-06-06 14:00;CYQB 061400Z 24007KT 30SM BKN080 18/10 A2982 RMK AC6 SLP098

CYQB;2009-06-06 15:00;CYQB 061500Z 25015KT 30SM FEW080 BKN210 21/09 A2980 RMK AC2CI1 ACC SLP091

CYQB;2009-06-06 16:00;CYQB 061600Z 25013G19KT 30SM FEW055 BKN140 BKN220 22/10 A2979 RMK CU2AC3CI1 SLP088

CYQB;2009-06-06 16:52;CYQB 061652Z 26014KT 30SM -SHRA SCT065 OVC098 21/ RMK CU4AC4

CYQB;2009-06-06 17:00;CYQB 061700Z 27013G21KT 30SM -SHRA SCT061 OVC098 20/10 A2978 RMK CU4AC4 SLP085

CYQB;2009-06-06 17:22;CYQB 061722Z 28013G21KT 25SM TS BKN055CB OVC090 18/ RMK CB5AC3

CYQB;2009-06-06 17:42;CYQB 061742Z 21006KT 25SM -SHRA FEW025 BKN050 BKN220 17/ RMK CU2CU3CI1 TCU S RETS

CYQB;2009-06-06 18:00;CYQB 061800Z 19010KT 30SM FEW050 BKN120 BKN220 18/13 A2978 RMK CU2AC2CI0 TCU DIST ESE RETS SLP085

CYQB;2009-06-06 19:00;CYQB 061900Z 20008KT 30SM FEW050TCU SCT140 BKN220 20/13 A2975 RMK TCU2AC1CI0 TCU N QUAD SHRA DIST W SLP077

CYQB;2009-06-06 20:00;CYQB 062000Z 21014KT 30SM SCT050TCU 22/13 A2972 RMK TCU4 TCU ALQDS SLP066

CYQB;2009-06-06 21:00;CYQB 062100Z 24022KT 30SM SCT050TCU 23/08 A2970 RMK TCU4 TCU ALQDS SLP059

CYQB;2009-06-06 22:00;CYQB 062200Z CCA 24021G26KT 30SM FEW065TCU 22/05 A2971 RMK TCU2 DSTNT CB N SLP061

CYQB;2009-06-06 23:00;CYQB 062300Z 27014G22KT 30SM FEW065 22/03 A2972 RMK CU2 TCU ASOCTD SLP066

CYQB;2009-06-07 00:00;CYQB 070000Z 29009KT 30SM FEW060 20/04 A2974 RMK CF1 SLP071

CYQB;2009-06-07 01:00;CYQB 070100Z 31009KT 30SM FEW060 18/03 A2976 RMK SC1 OBS TAKEN +09 SLP078

CYQB;2009-06-07 02:00;CYQB 070200Z 31010KT 15SM SKC 17/02 A2978 RMK SLP083

CYQB;2009-06-07 03:00;CYQB 070300Z 34010KT 15SM SKC 16/02 A2982 RMK SLP097

CYQB;2009-06-07 04:00;CYQB 070400Z 34010G16KT 15SM FEW100 14/02 A2985 RMK AC1 SLP109

CYQB;2009-06-07 05:00;CYQB 070500Z 34010G16KT 15SM SKC 13/01 A2987 RMK SLP115

CYQB;2009-06-07 06:00;CYQB 070600Z 00000KT 15SM FEW060 FEW240 10/01 A2990 RMK SC1CI1 SLP126

CYQB;2009-06-07 07:00;CYQB 070700Z 29005KT 15SM SKC 08/02 A2991 RMK SLP130

CYQB;2009-06-07 08:00;CYQB 070800Z 27002KT 15SM FEW250 07/02 A2993 RMK CI1 SLP136

CYQB;2009-06-07 09:00;CYQB 070900Z 29002KT 15SM FEW030 FEW100 FEW250 06/02 A2994 RMK SC1AC1CI1 SLP139

CYQB;2009-06-07 10:00;CYQB 071000Z 00000KT 50SM FEW030 FEW100 FEW250 08/02 A2995 RMK SC1AC1CI1 SLP143

CYQB;2009-06-07 11:00;CYQB 071100Z 21003KT 50SM FEW030 FEW100 10/04 A2996 RMK SC1AC1 SLP145

CYQB;2009-06-07 12:00;CYQB 071200Z 32011KT 50SM FEW040 FEW100 12/03 A2996 RMK SC1AC1 SLP147

CYQB;2009-06-07 13:00;CYQB 071300Z 31013G18KT 50SM FEW045 FEW100 14/02 A2996 RMK SC2AC1 SLP146

CYQB;2009-06-07 14:00;CYQB 071400Z 29012G18KT 50SM FEW055 15/02 A2995 RMK SC2 SLP143

CYQB;2009-06-07 15:00;CYQB 071500Z 27018KT 50SM SCT060 15/02 A2996 RMK SC4 SLP145

CYQB;2009-06-07 16:00;CYQB 071600Z 28020G25KT 50SM BKN064 16/02 A2995 RMK SC6 SLP143

CYQB;2009-06-07 17:00;CYQB 071700Z 27016KT 50SM BKN062 BKN250 17/03 A2994 RMK SC6CI0 SLP139

CYQB;2009-06-07 18:00;CYQB 071800Z 30011G19KT 30SM BKN065 BKN220 17/03 A2993 RMK SC6CI0 SLP137

CYQB;2009-06-07 19:00;CYQB 071900Z 28015G20KT 30SM SCT065 BKN220 18/02 A2992 RMK SC3CI1 SLP133

CYQB;2009-06-07 20:00;CYQB 072000Z 27015G21KT 25SM SCT068 BKN220 18/03 A2991 RMK AC4CI2 SLP129

CYQB;2009-06-07 21:00;CYQB 072100Z 29011G18KT 25SM SCT070 BKN230 18/02 A2991 RMK AC4CI2 SLP129

CYQB;2009-06-07 22:00;CYQB 072200Z 30011G16KT 25SM SCT070 BKN230 18/02 A2991 RMK AC3CI1 SLP129

CYQB;2009-06-07 23:00;CYQB 072300Z 33008KT 25SM SCT070 BKN230 18/03 A2992 RMK AC3CI1 SLP132

CYQB;2009-06-08 00:00;CYQB 080000Z 30006KT 25SM FEW070 BKN230 16/03 A2992 RMK AC2CI2 SLP134

CYQB;2009-06-08 01:00;CYQB 080100Z 32005KT 25SM FEW070 13/03 A2993 RMK AC2 SLP136

CYQB;2009-06-08 02:00;CYQB 080200Z 32003KT 15SM FEW070 11/03 A2995 RMK AC1 SLP142

CYQB;2009-06-08 03:00;CYQB 080300Z 31003KT 15SM FEW070 11/03 A2997 RMK AC1 SLP149

CYQB;2009-06-08 04:00;CYQB 080400Z 02004KT 15SM SKC 11/03 A2998 RMK SLP154

CYQB;2009-06-08 05:00;CYQB 080500Z 01004KT 15SM SKC 11/02 A2998 RMK SLP155

CYQB;2009-06-08 06:00;CYQB 080600Z 14002KT 15SM SKC 08/02 A2999 RMK SLP157

CYQB;2009-06-08 07:00;CYQB 080700Z 00000KT 15SM SKC 10/02 A2999 RMK SLP158

CYQB;2009-06-08 08:00;CYQB 080800Z 35003KT 15SM SKC 08/02 A3001 RMK SLP163

CYQB;2009-06-08 09:00;CYQB 080900Z 02003KT 30SM FEW040 08/03 A3003 RMK SC1 SLP170

CYQB;2009-06-08 10:00;CYQB 081000Z 36006KT 30SM FEW040 08/03 A3005 RMK SC1 SLP177

CYQB;2009-06-08 11:00;CYQB 081100Z 36006KT 50SM FEW040 FEW250 10/01 A3006 RMK SC1CI1 SLP181

CYQB;2009-06-08 12:00;CYQB 081200Z 01010KT 50SM FEW040 FEW250 11/01 A3006 RMK CU1CI1 SLP179

CYQB;2009-06-08 13:00;CYQB 081300Z 32008KT 50SM FEW040 FEW250 12/02 A3006 RMK CU1CI1 SLP182

CYQB;2009-06-08 14:00;CYQB 081400Z 34011G16KT 50SM FEW040 13/01 A3005 RMK CU1 SLP176

CYQB;2009-06-08 15:00;CYQB 081500Z 33005G15KT 50SM FEW050 FEW200 15/03 A3005 RMK CU1CI0 SLP178

CYQB;2009-06-08 16:00;CYQB 081600Z 33006KT 50SM FEW050 FEW200 16/02 A3005 RMK CU1CI1 SLP177

CYQB;2009-06-08 17:00;CYQB 081700Z 01011KT 50SM FEW060 FEW200 18/01 A3004 RMK CU1CI1 SLP174

CYQB;2009-06-08 18:00;CYQB 081800Z 31008G15KT 50SM FEW060 SCT200 17/03 A3003 RMK CU1CI1 SLP170

CYQB;2009-06-08 19:00;CYQB 081900Z 31007KT 30SM FEW060 SCT200 18/03 A3002 RMK SC1CI1 SLP167

CYQB;2009-06-08 20:00;CYQB 082000Z 32008KT 30SM FEW060 SCT200 19/02 A3001 RMK SC1CI1 SLP164

CYQB;2009-06-08 21:00;CYQB 082100Z 32003KT 30SM FEW060 BKN200 19/02 A3000 RMK SC1CI2 SLP162

CYQB;2009-06-08 22:00;CYQB 082200Z 34006KT 30SM FEW060 BKN200 20/02 A3000 RMK SC1CI2 SLP162

CYQB;2009-06-08 23:00;CYQB 082300Z 34004KT 30SM FEW170 BKN200 19/03 A3001 RMK AS1CI1 SLP163

CYQB;2009-06-09 00:00;CYQB 090000Z 08004KT 30SM FEW170 BKN200 17/05 A3001 RMK AS1CI1 SLP165

CYQB;2009-06-09 01:00;CYQB 090100Z 08006KT 30SM FEW170 BKN200 15/06 A3003 RMK AS1CI1 SLP169

CYQB;2009-06-09 02:00;CYQB 090200Z 06005KT 15SM FEW170 BKN200 14/04 A3005 RMK AC1CI1 SLP176

CYQB;2009-06-09 03:00;CYQB 090300Z 03004KT 15SM FEW220 12/05 A3006 RMK CI1 SLP180

CYQB;2009-06-09 04:00;CYQB 090400Z 04005KT 15SM FEW150 SCT210 11/04 A3006 RMK AC1CI1 SLP179

CYQB;2009-06-09 05:00;CYQB 090500Z 02003KT 15SM BKN260 10/03 A3005 RMK CI1 SLP178

CYQB;2009-06-09 06:00;CYQB 090600Z 03003KT 15SM SCT250 09/03 A3005 RMK CI1 SLP176

CYQB;2009-06-09 07:00;CYQB 090700Z 02003KT 15SM BKN250 09/03 A3006 RMK CI2 SLP180

CYQB;2009-06-09 08:00;CYQB 090800Z 04006KT 15SM FEW240 09/04 A3005 RMK CI1 SLP178

CYQB;2009-06-09 09:00;CYQB 090900Z 05007KT 30SM BKN240 09/02 A3006 RMK CS2 SLP180

CYQB;2009-06-09 10:00;CYQB 091000Z 07013KT 30SM OVC240 10/03 A3006 RMK CS8 SLP181

CYQB;2009-06-09 11:00;CYQB 091100Z 07016G21KT 30SM FEW170 BKN240 11/03 A3006 RMK AC1CS6 SLP181

CYQB;2009-06-09 12:00;CYQB 091200Z 08016G22KT 30SM BKN200 12/04 A3006 RMK CS7 SLP181

CYQB;2009-06-09 13:00;CYQB 091300Z 08016KT 30SM BKN170 13/04 A3005 RMK AS7 SLP178

CYQB;2009-06-09 14:00;CYQB 091400Z 07014G24KT 30SM FEW060 OVC160 13/04 A3004 RMK SC1AS7 SLP175

CYQB;2009-06-09 15:00;CYQB 091500Z 08013G19KT 30SM FEW035 FEW060 OVC150 14/04 A3003 RMK CU1SC2AS6 SLP170

CYQB;2009-06-09 16:00;CYQB 091600Z 07014G19KT 30SM FEW050 OVC110 15/05 A3003 RMK CU1AS7 SLP170

CYQB;2009-06-09 17:00;CYQB 091700Z 07016G21KT 30SM FEW050 OVC100 15/05 A3000 RMK CU1AS7 SLP159

CYQB;2009-06-09 18:00;CYQB 091800Z 08015KT 30SM FEW050 OVC060 14/05 A2998 RMK SC1SC7 SLP155

CYQB;2009-06-09 18:14;CYQB 091814Z 07013G19KT 30SM -RA FEW035 BKN060 OVC079 14/ RMK SF1SC6AC2

CYQB;2009-06-09 19:00;CYQB 091900Z 08013KT 30SM -RA FEW015 SCT035 BKN060 OVC100 13/06 A2998 RMK CF1SC4SC1AC3 PCPN VRY LGT SLP154

CYQB;2009-06-09 20:00;CYQB 092000Z 07017G22KT 6SM -RA FEW045 OVC073 13/08 A2997 RMK CF1SC8 OBS TAKEN +20 SLP151

CYQB;2009-06-09 21:00;CYQB 092100Z 07016G21KT 12SM -RA BKN045 OVC068 13/08 A2997 RMK SC5AC3 SLP150

CYQB;2009-06-09 22:00;CYQB 092200Z 09013G20KT 25SM -RA BKN030 OVC065 13/07 A2997 RMK SC6SC2 PCPN VRY LGT SLP151

CYQB;2009-06-09 23:00;CYQB 092300Z 08014KT 20SM -RA BKN028 OVC055 12/09 A2996 RMK SC5SC3 SLP148

CYQB;2009-06-10 00:00;CYQB 100000Z 09012G21KT 5SM -RA BR SCT019 OVC030 11/09 A2994 RMK SF4SC4 SLP141

CYQB;2009-06-10 01:00;CYQB 100100Z 08013G20KT 4SM -RA BR FEW009 OVC015 11/09 A2993 RMK SF2SC6 SLP137

CYQB;2009-06-10 02:00;CYQB 100200Z 09011G16KT 4SM -RA BR BKN005 OVC013 11/10 A2993 RMK SF5SC3 SLP137

CYQB;2009-06-10 03:00;CYQB 100300Z 08013KT 2SM -RA BR BKN005 OVC012 10/10 A2993 RMK SF6SC2 SLP137

CYQB;2009-06-10 04:00;CYQB 100400Z 09009KT 4SM -RA BR BKN004 OVC014 10/10 A2993 RMK SF7SC1 SLP137

CYQB;2009-06-10 05:00;CYQB 100500Z 10010KT 3SM -RA BR BKN003 OVC008 10/10 A2992 RMK SF6SC2 SLP135

CYQB;2009-06-10 06:00;CYQB 100600Z 10007KT 3SM -RA BR BKN004 OVC010 10/09 A2992 RMK SF7SC1 SLP135

CYQB;2009-06-10 07:00;CYQB 100700Z 09007KT 2SM -DZ BR OVC003 10/10 A2991 RMK SF8 SLP131

CYQB;2009-06-10 07:43;CYQB 100743Z 09007KT 1 1/4SM -DZ BR OVC006 10/ RMK SF8 CIG VRB 3-9

CYQB;2009-06-10 08:00;CYQB 100800Z 08006KT 1 1/2SM -DZ BR BKN006 OVC012 10/09 A2990 RMK SF7SC1 CIG VRB 3-9 SLP127

CYQB;2009-06-10 08:55;CYQB 100855Z 08008KT 2SM -DZ BR BKN003 OVC007 10/ RMK SF6SC2

CYQB;2009-06-10 09:00;CYQB 100900Z 08007KT 2SM -DZ BR BKN003 OVC008 10/10 A2991 RMK SF7SC1 SLP131

CYQB;2009-06-10 10:00;CYQB 101000Z 08008KT 1 1/2SM -DZ BR BKN003 OVC008 10/10 A2992 RMK SF7SC1 SLP133

CYQB;2009-06-10 11:00;CYQB 101100Z 08006KT 1SM R06/P6000FT/N -DZ BR BKN003 OVC008 11/10 A2992 RMK SF7SC1 SLP135

CYQB;2009-06-10 11:33;CYQB 101133Z 08007KT 1SM R06/P6000FT/D -DZ BR SCT003 OVC011 11/ RMK SF4SC4

CYQB;2009-06-10 11:49;CYQB 101149Z 08008KT 1SM R06/P6000FT/D -DZ BR BKN002 OVC011 11/ RMK SF6SC2

CYQB;2009-06-10 12:00;CYQB 101200Z 08007KT 1SM R06/P6000FT/N -DZ BR BKN002 OVC010 11/10 A2994 RMK ST6SC2 SLP141

CYQB;2009-06-10 12:30;CYQB 101230Z 09007KT 1SM R06/P6000FT/D -DZ BR BKN003 OVC010 11/ RMK SF7SC1 CIG VRB 2-4

CYQB;2009-06-10 13:00;CYQB 101300Z 08007KT 1SM R06/P6000FT/N -DZ BR BKN004 OVC010 11/10 A2995 RMK SF7SC1 CIG VRB 2-6 SLP144

CYQB;2009-06-10 13:50;CYQB 101350Z 08009KT 2SM -DZ BR BKN004 OVC010 11/ RMK SF6SC2 CIG BRB 2-6

CYQB;2009-06-10 14:00;CYQB 101400Z 08009KT 2SM -DZ BR BKN006 OVC012 11/10 A2996 RMK SF6SC2 CIG VRB 3-9 SLP147

CYQB;2009-06-10 14:44;CYQB 101444Z 07009KT 3SM -DZ BR BKN005 OVC012 11/ RMK SF6SC2 CIG VRB 3-7

CYQB;2009-06-10 15:00;CYQB 101500Z 06010KT 3SM -DZ BR BKN005 OVC012 11/10 A2996 RMK SF6SC2 CIG VRB 3-7 SLP148

CYQB;2009-06-10 15:33;CYQB 101533Z 07010KT 2SM -DZ BR BKN005 OVC012 11/ RMK SF6SC2 CIG VRB 3-7

CYQB;2009-06-10 16:00;CYQB 101600Z CCA 07007KT 3SM -DZ BR BKN004 OVC010 11/11 A2996 RMK SF6SC2 CIG VRB 2-6 SLP147

CYQB;2009-06-10 17:00;CYQB 101700Z 07011KT 2SM -DZ BR BKN004 OVC010 12/11 A2995 RMK SF7SC1 CIG VRB 2-6 SLP144

CYQB;2009-06-10 18:00;CYQB 101800Z 06007KT 2 1/2SM -DZ BR BKN005 OVC015 12/11 A2995 RMK SF7SC1 CIG VRB 2-9 SLP145

CYQB;2009-06-10 18:27;CYQB 101827Z 06006KT 1SM R06/P6000FT/D -DZ BR SCT004 OVC016 12/ RMK SF3SC5

CYQB;2009-06-10 19:00;CYQB 101900Z 06008KT 1SM R06/P6000FT/U -DZ BR SCT006 OVC017 12/11 A2996 RMK SF3SC5 SLP148

CYQB;2009-06-10 19:16;CYQB 101916Z 09005KT 3SM -DZ BR BKN006 OVC017 12/ RMK SF5SC3 CIG VRB 4-8

CYQB;2009-06-10 20:00;CYQB 102000Z 07007KT 5SM -DZ BR BKN007 OVC020 12/11 A2996 RMK SF5SC3 SLP148

CYQB;2009-06-10 20:42;CYQB 102042Z 07006KT 5SM -DZ BR BKN004 OVC015 12/ RMK SF6SC2 CIG VRB 3-5

CYQB;2009-06-10 21:00;CYQB 102100Z 08003KT 5SM -DZ BR BKN004 OVC015 12/11 A2997 RMK SF6SC2 SLP151

CYQB;2009-06-10 22:00;CYQB 102200Z 08005KT 5SM BR OVC004 12/11 A2996 RMK SF8 SLP148

CYQB;2009-06-10 23:00;CYQB 102300Z 09006KT 10SM OVC007 12/11 A2997 RMK SF8 SLP150

CYQB;2009-06-11 00:00;CYQB 110000Z 10007KT 10SM OVC005 12/11 A2998 RMK SF8 CIG VRB 4-6 SLP154

CYQB;2009-06-11 00:32;CYQB 110032Z 08005KT 5SM BR OVC003 12/ RMK SF8

CYQB;2009-06-11 01:00;CYQB 110100Z 07007KT 5SM BR OVC003 12/11 A2999 RMK SF8 SLP156

CYQB;2009-06-11 02:00;CYQB 110200Z 08005KT 5SM BR OVC003 12/11 A2998 RMK SF8 SLP155

CYQB;2009-06-11 03:00;CYQB 110300Z 06006KT 5SM BR OVC004 12/11 A2998 RMK SF8 SLP154

CYQB;2009-06-11 04:00;CYQB 110400Z 07004KT 5SM BR OVC005 12/11 A2998 RMK SF8 SLP155

CYQB;2009-06-11 05:00;CYQB 110500Z 05005KT 5SM BR BKN005 OVC009 12/11 A2997 RMK SF6SC2 SLP151

CYQB;2009-06-11 06:00;CYQB 110600Z 06004KT 6SM BR BKN003 OVC008 12/11 A2996 RMK SF6SF2 SLP146

CYQB;2009-06-11 07:00;CYQB 110700Z 04004KT 6SM BR FEW004 OVC012 12/11 A2997 RMK SF2SC6 SLP150

CYQB;2009-06-11 08:00;CYQB 110800Z 07004KT 10SM FEW003 FEW009 OVC016 12/11 A2996 RMK SF1ST2SC6 SLP146

CYQB;2009-06-11 09:00;CYQB 110900Z 08004KT 10SM FEW004 OVC017 12/11 A2995 RMK SF1SC7 VIS W QUAD 3 VIS NE 5 SLP145

CYQB;2009-06-11 10:00;CYQB 111000Z CCA 10005KT 20SM VCSH FEW005 OVC017 12/11 A2997 RMK SF2SC6 VIS N 6 SLP149

CYQB;2009-06-11 10:52;CYQB 111052Z 08005KT 15SM -RA FEW005 OVC019 12/ RMK SF2SC6 VIS NNE4

CYQB;2009-06-11 11:00;CYQB 111100Z 09005KT 15SM -RA FEW005 OVC018 12/10 A2997 RMK SF2SC6 VIS NNE 4 SLP152

CYQB;2009-06-11 12:00;CYQB 111200Z 10004KT 15SM -RA FEW005 OVC020 12/11 A2996 RMK SF2SC6 SLP147

CYQB;2009-06-11 12:33;CYQB 111233Z 10005KT 15SM FEW005 OVC017 13/ RMK SF2SC6

CYQB;2009-06-11 13:00;CYQB 111300Z 09004KT 15SM SCT008 OVC016 13/11 A2996 RMK SF3SC5 SLP147

CYQB;2009-06-11 14:00;CYQB 111400Z 08004KT 15SM FEW010 BKN018 15/12 A2995 RMK SC2SC6 SLP145

CYQB;2009-06-11 15:00;CYQB 111500Z 12002KT 20SM FEW012 BKN018 16/12 A2994 RMK SC2SC6 SLP139

CYQB;2009-06-11 16:00;CYQB 111600Z 13004KT 25SM FEW012 BKN022 BKN180 18/13 A2992 RMK CF1SC6AC1 SLP134

CYQB;2009-06-11 17:00;CYQB 111700Z 16003KT 30SM SCT025 BKN130 BKN230 18/12 A2991 RMK SC4AC3CI1 SLP130

CYQB;2009-06-11 18:00;CYQB 111800Z 13003KT 20SM FEW030 BKN130 BKN230 18/12 A2990 RMK SC2AC4CI1 SLP127

CYQB;2009-06-11 19:00;CYQB 111900Z 00000KT 20SM FEW033 BKN054 BKN130 BKN230 19/12 A2989 RMK CU2SC3AC2CI1 SLP123

CYQB;2009-06-11 20:00;CYQB 112000Z 10004KT 20SM FEW035 FEW055 BKN230 21/13 A2988 RMK CU2SC1CI2 SLP118

CYQB;2009-06-11 21:00;CYQB 112100Z 00000KT 25SM FEW045 FEW130 BKN230 21/12 A2986 RMK CU1AC1CI2 SLP112

CYQB;2009-06-11 22:00;CYQB 112200Z 11003KT 25SM FEW045 FEW130 BKN230 21/12 A2985 RMK CU1AC2CI0 SLP109

CYQB;2009-06-11 23:00;CYQB 112300Z 13002KT 25SM FEW045 BKN170 BKN230 20/13 A2985 RMK CU1AC4CI0 SLP108

CYQB;2009-06-12 00:00;CYQB 120000Z 08006KT 25SM FEW045 FEW092 BKN170 BKN230 19/13 A2985 RMK CU1AC2AC2CI0 SLP109

CYQB;2009-06-12 01:00;CYQB 120100Z 07005KT 15SM BKN094 BKN170 OVC230 17/13 A2985 RMK AC4AC2CI0 SLP110

CYQB;2009-06-12 02:00;CYQB 120200Z 08005KT 15SM BKN100 16/13 A2985 RMK AC6 SLP109

CYQB;2009-06-12 03:00;CYQB 120300Z 07004KT 15SM FEW035 OVC100 15/12 A2985 RMK SC2AC6 SLP108

CYQB;2009-06-12 04:00;CYQB 120400Z 07008KT 15SM FEW030 SCT060 OVC100 14/12 A2984 RMK SC2SC2AC4 SLP107

CYQB;2009-06-12 05:00;CYQB 120500Z 07009KT 15SM FEW030 BKN060 OVC095 14/12 A2983 RMK SC2SC5AC1 SLP102

CYQB;2009-06-12 06:00;CYQB 120600Z 07008KT 15SM FEW007 SCT025 OVC055 14/11 A2982 RMK SF1SC3SC4 SLP098

CYQB;2009-06-12 07:00;CYQB 120700Z 07007KT 15SM FEW007 OVC022 13/12 A2981 RMK SF2SC6 SLP096

CYQB;2009-06-12 08:00;CYQB 120800Z 05006KT 15SM FEW006 OVC020 13/12 A2980 RMK SF2SC6 SLP093

CYQB;2009-06-12 08:40;CYQB 120840Z 06009KT 15SM -SHRA FEW007 OVC020 14/ RMK SF2SC6

CYQB;2009-06-12 09:00;CYQB 120900Z 07009KT 15SM -SHRA FEW007 OVC020 13/12 A2980 RMK SF2SC6 SLP090

CYQB;2009-06-12 10:00;CYQB 121000Z 06005KT 3SM -RA FEW009 OVC029 13/12 A2980 RMK SF2SC6 VSBY LWR E SLP090

CYQB;2009-06-12 11:00;CYQB 121100Z 08007KT 3SM -RA FEW007 OVC029 13/12 A2979 RMK SF2SC6 SLP089

CYQB;2009-06-12 11:22;CYQB 121122Z 07006KT 3SM -RA BR BKN004 OVC009 13/ RMK SF6SC2

CYQB;2009-06-12 11:41;CYQB 121141Z 08008KT 3SM -SHRA BR BKN006 OVC010 13/ RMK SF5SC3

CYQB;2009-06-12 12:00;CYQB 121200Z 09008KT 3SM -SHRA BR BKN004 OVC010 13/12 A2980 RMK SF6SC2 SLP092

CYQB;2009-06-12 13:00;CYQB 121300Z 08007KT 6SM -SHRA BR BKN004 BKN011 OVC040 13/12 A2981 RMK SF5SC2SC1 SLP096

CYQB;2009-06-12 13:18;CYQB 121318Z 08010KT 6SM -SHRA BR BKN006 BKN012 OVC040 13/ RMK SF5SC2SC2

CYQB;2009-06-12 14:00;CYQB 121400Z 09007KT 6SM -SHRA BR BKN005 OVC012 12/11 A2981 RMK SF6SC2 SLP095

CYQB;2009-06-12 14:52;CYQB 121452Z 08007KT 8SM -SHRA BKN005 BKN015 BKN100 13/ RMK SF5SC2AC1

CYQB;2009-06-12 15:00;CYQB 121500Z 07010KT 15SM BKN005 BKN015 BKN100 13/12 A2980 RMK SF5SC2AC1 SLP092

CYQB;2009-06-12 16:00;CYQB 121600Z 08006KT 25SM BKN010 BKN100 BKN210 15/12 A2980 RMK SF5AC2CI0 SLP093

CYQB;2009-06-12 16:41;CYQB 121641Z 08009KT 30SM FEW012 BKN050 BKN071 BKN210 16/ RMK SF2SC2AC1CI0

CYQB;2009-06-12 17:00;CYQB 121700Z 10013KT 30SM FEW015 SCT058 BKN080 BKN210 16/13 A2979 RMK SF2SC2AC1CI0 SLP090

CYQB;2009-06-12 17:46;CYQB 121746Z 07011KT 30SM BKN014 BKN074 BKN210 16/ RMK SF5SC1CI0

CYQB;2009-06-12 18:00;CYQB 121800Z 09011KT 30SM FEW016 BKN065 BKN210 16/13 A2981 RMK SF2SC3CI2 SLP095

CYQB;2009-06-12 19:00;CYQB 121900Z 09010KT 30SM FEW016 FEW065 SCT210 17/13 A2981 RMK CU1SC1CI2 SLP096

CYQB;2009-06-12 20:00;CYQB 122000Z 10007KT 30SM FEW015 FEW065 FEW090 SCT240 17/12 A2982 RMK SC1SC1AC1CI0 SLP098

CYQB;2009-06-12 21:00;CYQB 122100Z 11006KT 30SM FEW015 FEW065 SCT240 17/11 A2983 RMK SC1SC1CI1 SLP101

CYQB;2009-06-12 22:00;CYQB 122200Z 11006KT 30SM FEW025 FEW100 FEW200 18/12 A2983 RMK SC1AC1CI1 SLP102

CYQB;2009-06-12 23:00;CYQB 122300Z 09007KT 30SM FEW065 SCT200 17/10 A2985 RMK SC1CI1 SLP108

CYQB;2009-06-13 00:00;CYQB 130000Z 07006KT 30SM FEW090 SCT200 17/10 A2986 RMK AC2CI1 SLP113

CYQB;2009-06-13 01:00;CYQB 130100Z 08004KT 30SM BKN097 15/11 A2987 RMK AC5 SLP117

CYQB;2009-06-13 02:00;CYQB 130200Z 09003KT 15SM FEW090 13/11 A2988 RMK AC2 SLP119

CYQB;2009-06-13 03:00;CYQB 130300Z 08004KT 15SM SKC 13/11 A2989 RMK SLP122

CYQB;2009-06-13 04:00;CYQB 130400Z 07005KT 15SM SKC 12/11 A2989 RMK SLP122

CYQB;2009-06-13 04:29;CYQB 130429Z 08005KT 2 1/2SM BR BKN002 12/ RMK FG4ST2

CYQB;2009-06-13 05:00;CYQB 130500Z 09003KT 2SM BR OVC001 12/11 A2990 RMK FG2ST6 SLP125

CYQB;2009-06-13 06:00;CYQB 130600Z 06005KT 1 1/2SM BR BKN002 11/10 A2989 RMK FG3SF3 SLP124

CYQB;2009-06-13 07:00;CYQB 130700Z 04002KT 15SM SKC 10/09 A2989 RMK FG2 VIS S 11/2 SLP124

CYQB;2009-06-13 08:00;CYQB 130800Z 04003KT 15SM FEW010 FEW050 09/09 A2990 RMK SC1SC1 SLP125

CYQB;2009-06-13 09:00;CYQB 130900Z CCA 05005KT 30SM FEW025 FEW050 09/08 A2991 RMK SC1SC1 FG BANK S-NW SLP128

CYQB;2009-06-13 10:00;CYQB 131000Z 00000KT 30SM R06/4500VP6000FT/D FEW025 FEW050 09/08 A2992 RMK SC1SC1 FG BANK NW-NE SLP131

CYQB;2009-06-13 11:00;CYQB 131100Z 30003KT 30SM FEW025 FEW080 FEW230 11/09 A2993 RMK SC1AC1CI1 SLP137

CYQB;2009-06-13 12:00;CYQB 131200Z 00000KT 30SM FEW025 FEW080 SCT230 14/09 A2994 RMK SC1AC1CI0 FG BANK NE SLP141

CYQB;2009-06-13 13:00;CYQB 131300Z 25005KT 30SM FEW030 FEW150 BKN210 16/12 A2994 RMK SC1AC1CI3 SLP139

CYQB;2009-06-13 14:00;CYQB 131400Z 25005KT 30SM FEW030 FEW170 BKN240 18/11 A2993 RMK CU2AC1CI2 SLP137

CYQB;2009-06-13 15:00;CYQB 131500Z 22005KT 30SM FEW030 FEW150 BKN240 20/12 A2992 RMK CU2AC1CI2 SLP131

CYQB;2009-06-13 16:00;CYQB 131600Z 23008KT 30SM FEW030 SCT110 BKN210 22/09 A2991 RMK CU2AC1CI2 SLP128

CYQB;2009-06-13 17:00;CYQB 131700Z 21008KT 30SM FEW045 SCT100 BKN220 22/09 A2990 RMK CU2AC2CI2 SLP126

CYQB;2009-06-13 18:00;CYQB 131800Z CCA 21007KT 30SM FEW055 SCT090 BKN210 22/09 A2989 RMK CU1AC3CI2 SLP124

CYQB;2009-06-13 19:00;CYQB 131900Z 23012KT 30SM FEW060 BKN110 BKN220 23/09 A2989 RMK CU1AC3CI0 TCU ASOCTD DIST SH ALQDS SLP121

CYQB;2009-06-13 20:00;CYQB 132000Z 22007KT 30SM FEW060 SCT110 BKN220 24/10 A2988 RMK CU1AC2CI0 SLP119

CYQB;2009-06-13 21:00;CYQB 132100Z 23009KT 30SM FEW060 BKN110 BKN220 23/08 A2987 RMK CU2AC2CI1 TCU ASOCTD SLP117

CYQB;2009-06-13 22:00;CYQB 132200Z 23011KT 30SM FEW060 FEW120 BKN210 23/08 A2987 RMK CU1AC1CI2 SLP117

CYQB;2009-06-13 23:00;CYQB 132300Z 23008KT 30SM FEW055 FEW120 BKN230 21/08 A2988 RMK CU1AC2CI3 DIST SH NE AND SE SLP119

CYQB;2009-06-14 00:00;CYQB 140000Z 24005KT 30SM FEW050 FEW120 OVC250 20/10 A2988 RMK CU1AC1CI3 SLP120

CYQB;2009-06-14 01:00;CYQB 140100Z 25006KT 30SM FEW050 FEW100 BKN250 18/10 A2989 RMK CU1AC1CS3 SLP124

CYQB;2009-06-14 02:00;CYQB 140200Z 15002KT 15SM FEW050 FEW100 BKN230 18/10 A2992 RMK SC1AC1CI4 SLP132

CYQB;2009-06-14 03:00;CYQB 140300Z 04004KT 15SM BKN230 17/11 A2993 RMK CI6 SLP136

CYQB;2009-06-14 04:00;CYQB 140400Z 07009KT 15SM BKN240 15/10 A2994 RMK CI5 SLP138

CYQB;2009-06-14 05:00;CYQB 140500Z 04002KT 15SM FEW240 15/09 A2994 RMK CI1 SLP138

CYQB;2009-06-14 06:00;CYQB 140600Z 00000KT 15SM SKC 13/09 A2994 RMK SLP140

CYQB;2009-06-14 07:00;CYQB 140700Z 01002KT 15SM FEW130 SCT240 11/09 A2995 RMK AC1CI1 SLP142

CYQB;2009-06-14 08:00;CYQB 140800Z 01004KT 15SM FEW040 FEW120 SCT240 12/09 A2996 RMK SC1AC1CI1 SLP145

CYQB;2009-06-14 09:00;CYQB 140900Z 02003KT 30SM FEW130 SCT240 11/08 A2997 RMK AC1CI1 SLP148

CYQB;2009-06-14 10:00;CYQB 141000Z 36003KT 30SM FEW130 FEW240 11/08 A2998 RMK AC1CI0 SLP153

CYQB;2009-06-14 11:00;CYQB 141100Z 02003KT 30SM FEW130 FEW240 13/09 A3000 RMK AC1CI0 SLP158

CYQB;2009-06-14 12:00;CYQB 141200Z 09002KT 30SM FEW130 FEW240 16/10 A3000 RMK AC1CI1 SLP161

CYQB;2009-06-14 13:00;CYQB 141300Z 17002KT 30SM FEW130 FEW240 17/11 A3001 RMK AC1CI1 SLP162

CYQB;2009-06-14 14:00;CYQB 141400Z 13002KT 30SM FEW040TCU FEW130 FEW240 20/12 A3000 RMK TCU1AC1CI1 SLP160

CYQB;2009-06-14 15:00;CYQB 141500Z 00000KT 30SM FEW040TCU FEW130 FEW240 21/11 A2999 RMK TCU1AC1CI1 SLP155

CYQB;2009-06-14 16:00;CYQB 141600Z 10005KT 30SM FEW040TCU FEW130 FEW240 21/11 A2998 RMK TCU1AC1CI1 SLP152

CYQB;2009-06-14 17:00;CYQB 141700Z 00000KT 30SM FEW048TCU FEW150 FEW240 23/11 A2996 RMK TCU2AC1CI1 CB ANVIL SE SLP145

CYQB;2009-06-14 18:00;CYQB 141800Z 04002KT 30SM FEW052TCU FEW150 FEW240 24/10 A2994 RMK TCU1AC1CI1 SLP139

CYQB;2009-06-14 19:00;CYQB 141900Z 08009KT 30SM VCSH FEW045 SCT055TCU SCT150 SCT240 25/10 A2993 RMK CU1TCU3AC1CI1 CB ANVIL WSW SLP135

CYQB;2009-06-14 20:00;CYQB 142000Z 04011KT 20SM VCSH FEW045 SCT055TCU BKN140 BKN240 23/11 A2994 RMK CU1TCU2AC2CI1 SLP140

CYQB;2009-06-14 21:00;CYQB 142100Z 08009KT 30SM VCSH SCT045TCU BKN140 BKN240 21/12 A2993 RMK TCU3AC2CI1 SLP137

CYQB;2009-06-14 22:00;CYQB 142200Z 09006KT 30SM FEW045TCU BKN130 BKN240 21/10 A2993 RMK TCU2AC3CI1 SLP137

CYQB;2009-06-14 23:00;CYQB 142300Z 09006KT 30SM FEW045 BKN130 BKN240 20/09 A2997 RMK CU2AC3CI1 TCU ASOCTD SLP149

CYQB;2009-06-15 00:00;CYQB 150000Z 07005KT 30SM FEW050 SCT130 BKN240 18/10 A2998 RMK CU1AC2CI2 SLP152

CYQB;2009-06-15 01:00;CYQB 150100Z 07006KT 15SM FEW060 SCT130 BKN240 16/08 A2999 RMK SC1AC2CI1 SLP157

CYQB;2009-06-15 02:00;CYQB 150200Z 08006KT 15SM FEW060 SCT130 BKN240 16/10 A3001 RMK SC2AC2CI3 SLP162

CYQB;2009-06-15 03:00;CYQB 150300Z 06007KT 15SM SCT140 BKN240 15/10 A3001 RMK AC3CI2 SLP162

CYQB;2009-06-15 04:00;CYQB 150400Z 07009KT 15SM BKN140 BKN220 14/10 A3002 RMK AC5CI2 SLP167

CYQB;2009-06-15 05:00;CYQB 150500Z 05008KT 15SM FEW140 SCT220 13/10 A3003 RMK AC2CI0 SLP169

CYQB;2009-06-15 06:00;CYQB 150600Z 07007KT 15SM FEW140 12/09 A3003 RMK AC2 SLP168

CYQB;2009-06-15 07:00;CYQB 150700Z 05006KT 15SM FEW120 12/09 A3003 RMK AC2 SLP168

CYQB;2009-06-15 08:00;CYQB 150800Z 06006KT 15SM FEW120 SCT240 12/09 A3003 RMK AC2CI0 SLP170

CYQB;2009-06-15 09:00;CYQB 150900Z 07007KT 30SM FEW010 FEW120 BKN220 11/10 A3004 RMK SF1AC2CI2 SLP174

CYQB;2009-06-15 09:55;CYQB 150955Z 07005KT 15SM SCT005 BKN120 12/ RMK CF3AC2

CYQB;2009-06-15 10:00;CYQB 151000Z 07005KT 15SM BKN006 BKN120 12/10 A3006 RMK CF5AC1 SLP180

CYQB;2009-06-15 11:00;CYQB 151100Z 07010KT 30SM FEW006 FEW120 BKN210 13/11 A3008 RMK CF2AC1CI1 SLP186

CYQB;2009-06-15 11:50;CYQB 151150Z 09007KT 30SM BKN014 BKN120 BKN210 15/ RMK CF6AC1CI1

CYQB;2009-06-15 12:00;CYQB 151200Z 09008KT 30SM BKN012 BKN120 BKN210 15/11 A3009 RMK CF6AC1CI1 SLP192

CYQB;2009-06-15 12:33;CYQB 151233Z 09008KT 30SM BKN015 BKN120 BKN210 15/ RMK SC6AC1CI1

CYQB;2009-06-15 13:00;CYQB 151300Z 10006KT 30SM BKN017 BKN120 BKN210 15/11 A3010 RMK SC6AC1CI1 SLP193

CYQB;2009-06-15 13:17;CYQB 151317Z 10007KT 30SM BKN014 BKN120 BKN210 16/ RMK SC6AC1CI1

CYQB;2009-06-15 13:35;CYQB 151335Z 10008KT 30SM BKN016 BKN120 BKN160 BKN210 15/ RMK SC6AC1AC1CI1

CYQB;2009-06-15 14:00;CYQB 151400Z 07008KT 50SM BKN020 BKN160 BKN210 16/11 A3009 RMK CU5AC1CI1 SLP190

CYQB;2009-06-15 15:00;CYQB 151500Z 08008KT 50SM SCT028 SCT160 BKN210 17/12 A3008 RMK CU3AC1CI1 SLP189

CYQB;2009-06-15 16:00;CYQB 151600Z 09005KT 50SM FEW030 FEW160 BKN210 19/13 A3008 RMK CU2AC1CI1 SLP187

CYQB;2009-06-15 17:00;CYQB 151700Z 11006KT 50SM FEW030 BKN210 20/14 A3006 RMK CU2CI1 SLP181

CYQB;2009-06-15 18:00;CYQB 151800Z 13006KT 50SM FEW040 BKN210 22/13 A3004 RMK CU2CI0 SLP173

CYQB;2009-06-15 19:00;CYQB 151900Z 09007KT 20SM BKN030TCU BKN110 21/13 A3003 RMK TCU5AC2 SHWRS SW SLP171

CYQB;2009-06-15 20:00;CYQB 152000Z 11011KT 30SM BKN045 BKN230 21/12 A3004 RMK CU6CI1 MDT CU ASOCTD SLP173

CYQB;2009-06-15 21:00;CYQB 152100Z 11010KT 30SM SCT045 BKN080 BKN230 22/12 A3005 RMK CU4AC1CI1 SLP175

CYQB;2009-06-15 22:00;CYQB 152200Z 16007KT 30SM FEW040 SCT080 BKN230 21/10 A3005 RMK CU1AC2CI1 SLP177

CYQB;2009-06-15 23:00;CYQB 152300Z 15006KT 30SM FEW040TCU FEW080 BKN230 21/11 A3007 RMK TCU1AC2CI1 SLP184

CYQB;2009-06-16 00:00;CYQB 160000Z 15006KT 30SM FEW035TCU BKN083 BKN230 19/11 A3009 RMK TCU1AC6CI0 ANVIL E SLP190

CYQB;2009-06-16 00:42;CYQB 160042Z 13004KT 30SM TS FEW020CB BKN082 BKN230 19/ RMK CB1AC6CI1 CB W LTGIC ACC ASOCTD

CYQB;2009-06-16 01:00;CYQB 160100Z 16004KT 30SM TS FEW020CB BKN082 BKN230 19/11 A3011 RMK CB1AC6CI1 CB W SLP198

CYQB;2009-06-16 02:00;CYQB 160200Z 19002KT 15SM BKN060 BKN090 17/12 A3013 RETS RMK SC5AC1 SLP203

CYQB;2009-06-16 03:00;CYQB 160300Z 24002KT 15SM FEW060 15/12 A3014 RMK SC2 SLP206

CYQB;2009-06-16 04:00;CYQB 160400Z 24002KT 15SM FEW060 15/12 A3014 RMK SC1 SLP208

CYQB;2009-06-16 05:00;CYQB 160500Z 36002KT 15SM BKN045 14/12 A3015 RMK SC6 SLP211

CYQB;2009-06-16 06:00;CYQB 160600Z 04002KT 15SM BKN030 BKN040 15/12 A3016 RMK SC5SC2 SLP212

CYQB;2009-06-16 07:00;CYQB 160700Z 00000KT 15SM BKN044 15/12 A3016 RMK SC5 SLP214

CYQB;2009-06-16 08:00;CYQB 160800Z 00000KT 15SM FEW040 FEW070 13/11 A3018 RMK SC2AC1 SLP219

CYQB;2009-06-16 09:00;CYQB 160900Z 36002KT 30SM SCT030 SCT100 BKN220 12/10 A3019 RMK SC3AC1CI0 SLP225

CYQB;2009-06-16 10:00;CYQB 161000Z 03002KT 30SM BKN035 BKN250 13/11 A3021 RMK SC6CI1 SLP232

CYQB;2009-06-16 11:00;CYQB 161100Z 12002KT 30SM FEW035 FEW250 15/12 A3022 RMK SC1CI1 SLP233

CYQB;2009-06-16 12:00;CYQB 161200Z 29002KT 30SM FEW035 FEW250 16/12 A3023 RMK SC1CI1 SLP239

CYQB;2009-06-16 13:00;CYQB 161300Z 24003KT 30SM FEW030 FEW180 18/13 A3024 RMK CU2AC1 SLP240

CYQB;2009-06-16 14:00;CYQB 161400Z 26005KT 15SM SCT026 SCT180 18/12 A3024 RMK CU3AC1 SLP240

CYQB;2009-06-16 15:00;CYQB 161500Z 21003KT 50SM BKN030 19/12 A3023 RMK CU6 SLP237

CYQB;2009-06-16 16:00;CYQB 161600Z 29004KT 50SM BKN037 20/12 A3022 RMK CU6 SLP233

CYQB;2009-06-16 17:00;CYQB 161700Z 26007KT 50SM SCT043 21/12 A3021 RMK CU3 TCU DIST SE SLP231

CYQB;2009-06-16 18:00;CYQB 161800Z 24009KT 50SM FEW042 23/12 A3019 RMK CU2 TCU ASOCTD SLP224

CYQB;2009-06-16 19:00;CYQB 161900Z 23011KT 50SM FEW042 23/13 A3017 RMK CU2 SLP218

CYQB;2009-06-16 20:00;CYQB 162000Z 26011KT 30SM FEW045 24/13 A3017 RMK CU2 SLP217

CYQB;2009-06-16 21:00;CYQB 162100Z 26012KT 30SM FEW045 24/12 A3015 RMK CU1 DIST CB E SLP211

CYQB;2009-06-16 22:00;CYQB 162200Z 25010KT 30SM FEW045 FEW250 23/11 A3015 RMK CU1CI1 SLP210

CYQB;2009-06-16 23:00;CYQB 162300Z 27009KT 30SM FEW045 FEW250 22/11 A3015 RMK CU1CI0 SLP211

CYQB;2009-06-17 00:00;CYQB 170000Z 27005KT 30SM FEW045 FEW250 21/11 A3015 RMK CU1CI0 SLP211

CYQB;2009-06-17 01:00;CYQB 170100Z 27003KT 20SM FEW250 18/11 A3016 RMK CI1 SLP213

CYQB;2009-06-17 02:00;CYQB 170200Z 24002KT 20SM FEW250 16/11 A3017 RMK CI1 SLP215

CYQB;2009-06-17 03:00;CYQB 170300Z 25003KT 20SM FEW250 16/11 A3016 RMK CI1 SLP212

CYQB;2009-06-17 04:00;CYQB 170400Z 00000KT 20SM FEW250 15/10 A3017 RMK CI1 SLP216

CYQB;2009-06-17 05:00;CYQB 170500Z 00000KT 20SM FEW250 14/11 A3017 RMK CI1 SLP217

CYQB;2009-06-17 06:00;CYQB 170600Z 00000KT 15SM SKC 13/10 A3017 RMK SLP218

CYQB;2009-06-17 07:00;CYQB 170700Z 00000KT 15SM SKC 12/10 A3018 RMK SLP221

CYQB;2009-06-17 08:00;CYQB 170800Z 36002KT 15SM FEW080 12/10 A3018 RMK AC1 SLP222

CYQB;2009-06-17 09:00;CYQB 170900Z 00000KT 15SM FEW080 FEW250 10/09 A3019 RMK AC1CI1 SLP223

CYQB;2009-06-17 10:00;CYQB 171000Z 00000KT 50SM FEW030 SCT250 13/11 A3019 RMK CF1CS0 SLP226

CYQB;2009-06-17 11:00;CYQB 171100Z 00000KT 50SM FEW030 SCT080 BKN250 14/12 A3020 RMK CF1AC3CI0 SLP229

CYQB;2009-06-17 12:00;CYQB 171200Z 25005KT 50SM FEW070 BKN280 17/12 A3020 RMK AC1CI2 SLP227

CYQB;2009-06-17 13:00;CYQB 171300Z 25007KT 50SM FEW070 BKN280 19/13 A3019 RMK AC1CI2 SLP225

CYQB;2009-06-17 14:00;CYQB 171400Z 21004KT 50SM FEW030 BKN210 20/14 A3017 RMK CU1CI2 SLP216

CYQB;2009-06-17 15:00;CYQB 171500Z 24010KT 50SM FEW030 BKN210 21/14 A3016 RMK CU1CI2 SLP214

CYQB;2009-06-17 16:00;CYQB 171600Z 22008KT 30SM FEW030 BKN210 22/15 A3015 RMK CU1CI1 SLP209

CYQB;2009-06-17 17:00;CYQB 171700Z 22008G15KT 30SM FEW040TCU BKN210 24/15 A3013 RMK TCU2CI1 SLP202

CYQB;2009-06-17 18:00;CYQB 171800Z 24009G15KT 30SM FEW045TCU FEW200 25/15 A3010 RMK TCU2CI0 SLP194

CYQB;2009-06-17 19:00;CYQB 171900Z 23013KT 30SM FEW050TCU SCT200 26/14 A3008 RMK TCU2CI0 SLP186

CYQB;2009-06-17 20:00;CYQB 172000Z 25011KT 30SM FEW055TCU 25/13 A3006 RMK TCU2 SLP180

CYQB;2009-06-17 21:00;CYQB 172100Z 27010KT 30SM FEW055 FEW210 26/13 A3004 RMK CU2CI0 SLP173

CYQB;2009-06-17 22:00;CYQB 172200Z 26009KT 30SM FEW055 BKN210 25/12 A3003 RMK CU1CI0 OBS TAKE+21 SLP170

CYQB;2009-06-17 23:00;CYQB 172300Z 27006KT 30SM FEW055 BKN210 24/12 A3003 RMK CU1CI2 SLP170

CYQB;2009-06-18 00:00;CYQB 180000Z 27003KT 15SM BKN210 22/14 A3003 RMK CI3 SLP168

CYQB;2009-06-18 01:00;CYQB 180100Z 28003KT 15SM BKN210 21/14 A3003 RMK CI2 SLP168

CYQB;2009-06-18 02:00;CYQB 180200Z 27003KT 15SM SCT210 18/13 A3004 RMK CI0 SLP172

CYQB;2009-06-18 03:00;CYQB 180300Z 23004KT 15SM BKN250 17/13 A3003 RMK CI5 SLP168

CYQB;2009-06-18 04:00;CYQB 180400Z 00000KT 15SM BKN250 18/13 A3002 RMK CI4 SLP167

CYQB;2009-06-18 05:00;CYQB 180500Z 00000KT 15SM BKN250 14/12 A3002 RMK CI2 SLP166

CYQB;2009-06-18 06:00;CYQB 180600Z 27002KT 15SM SKC 14/11 A3003 RMK SLP170

CYQB;2009-06-18 07:00;CYQB 180700Z 00000KT 15SM FEW080 13/11 A3003 RMK AC1 SLP170

CYQB;2009-06-18 08:00;CYQB 180800Z 17003KT 15SM FEW080 FEW250 13/11 A3003 RMK AC1CI1 SLP170

CYQB;2009-06-18 09:00;CYQB 180900Z 00000KT 15SM BKN250 12/10 A3003 RMK CI2 SLP171

CYQB;2009-06-18 10:00;CYQB 181000Z 00000KT 30SM FEW250 16/12 A3003 RMK CI0 OBS TAKEN +20 SLP169

CYQB;2009-06-18 11:00;CYQB 181100Z 00000KT 30SM BKN210 17/12 A3003 RMK CI2 SLP171

CYQB;2009-06-18 12:00;CYQB 181200Z 22004KT 50SM BKN210 19/11 A3004 RMK CI2 SLP173

CYQB;2009-06-18 13:00;CYQB 181300Z 24007KT 50SM BKN210 19/11 A3004 RMK CI3 SLP172

CYQB;2009-06-18 14:00;CYQB 181400Z 23008KT 50SM FEW040 BKN210 20/11 A3002 RMK CU1CI4 SLP166

CYQB;2009-06-18 15:00;CYQB 181500Z 24004KT 50SM FEW040 FEW100 BKN210 21/11 A3000 RMK CU1AC1CI4 SLP161

CYQB;2009-06-18 16:00;CYQB 181600Z 22009KT 50SM FEW040 FEW100 BKN210 22/11 A2999 RMK CU1AC1CI4 SLP157

CYQB;2009-06-18 17:00;CYQB 181700Z 24006KT 50SM FEW045 BKN260 22/12 A2998 RMK CU1CI6 SLP154

CYQB;2009-06-18 18:00;CYQB 181800Z 25010G15KT 50SM FEW045 FEW100 BKN260 23/10 A2998 RMK CU1AC1CI7 SLP152

CYQB;2009-06-18 19:00;CYQB 181900Z 23007KT 50SM FEW045 FEW180 BKN260 23/09 A2997 RMK CU1AC1CI6 SLP149

CYQB;2009-06-18 20:00;CYQB 182000Z 24009KT 30SM FEW045 BKN160 22/11 A2997 RMK CU1AC6 SLP148

CYQB;2009-06-18 21:00;CYQB 182100Z 25014G19KT 50SM FEW045 BKN180 21/11 A2996 RMK CU1AS7 SLP145

CYQB;2009-06-18 22:00;CYQB 182200Z 27013G18KT 30SM FEW045 OVC160 19/11 A2996 RMK SC1AS7 SLP145

CYQB;2009-06-18 23:00;CYQB 182300Z 25009KT 30SM FEW045 OVC170 18/12 A2996 RMK SC2AS6 SLP146

CYQB;2009-06-19 00:00;CYQB 190000Z 27006KT 30SM FEW045 FEW080 BKN140 17/12 A2995 RMK SC1AC1AC6 SLP144

CYQB;2009-06-19 01:00;CYQB 190100Z 29006KT 30SM FEW030 SCT080 BKN140 17/12 A2998 RMK SC2AC2AC2 SLP152

CYQB;2009-06-19 02:00;CYQB 190200Z 29004KT 15SM FEW030 BKN080 OVC140 16/12 A2998 RMK SC2AC4AC2 SLP154

CYQB;2009-06-19 03:00;CYQB 190300Z 00000KT 15SM -RA FEW030 OVC078 16/13 A2997 RMK SC2AC6 SLP148

CYQB;2009-06-19 04:00;CYQB 190400Z 00000KT 15SM -RA FEW030 OVC046 15/13 A2995 RMK SC2AC6 SLP144

CYQB;2009-06-19 05:00;CYQB 190500Z 23003KT 10SM -RA FEW010 OVC018 15/13 A2994 RMK SC2SC6 SLP140

CYQB;2009-06-19 06:00;CYQB 190600Z 23005KT 8SM -RA FEW014 OVC024 14/13 A2993 RMK SF2SC6 SLP137

CYQB;2009-06-19 07:00;CYQB 190700Z 35002KT 8SM -RA FEW012 OVC020 14/13 A2992 RMK SF2SC6 SLP133

CYQB;2009-06-19 08:00;CYQB 190800Z 00000KT 4SM -RA BR BKN005 OVC013 14/13 A2992 RMK SF5SC3 SLP132

CYQB;2009-06-19 09:00;CYQB 190900Z 06004KT 3SM -RA BR FEW003 BKN005 OVC013 14/13 A2992 RMK SF1SF5SC2 SLP131

CYQB;2009-06-19 10:00;CYQB 191000Z 10006KT 2SM -RA BR FEW003 SCT005 BKN015 OVC030 14/13 A2992 RMK SF2SF2SC2SC2 SLP131

CYQB;2009-06-19 10:28;CYQB 191028Z 10004KT 3SM -RA BR FEW003 BKN015 OVC030 14/ RMK SF2SC2SF4

CYQB;2009-06-19 10:52;CYQB 191052Z 09006KT 3SM -RA BR BKN008 OVC020 14/ RMK SF6SC2

CYQB;2009-06-19 11:00;CYQB 191100Z 08006KT 3SM -RA BR BKN008 OVC020 14/13 A2992 RMK SF7SC1 SLP132

CYQB;2009-06-19 12:00;CYQB 191200Z 09006KT 4SM -RA BR BKN008 OVC018 15/13 A2991 RMK SF7SC1 CIG VRB 4-12 SLP130

CYQB;2009-06-19 12:38;CYQB 191238Z 07006KT 3SM -RA BR FEW002 BKN008 OVC018 15/ RMK SF1SF6SC1

CYQB;2009-06-19 12:42;CYQB 191242Z CCA 07006KT 3SM -RA BR FEW002 BKN008 OVC018 15/ RMK SF1SF6SC1 CIG VRB 4-12

CYQB;2009-06-19 13:00;CYQB 191300Z 09006KT 2SM -RA BR FEW002 BKN007 OVC020 15/14 A2991 RMK SF2SF6SC1 CIG VRB 4-10 SLP128

CYQB;2009-06-19 13:25;CYQB 191325Z 07007KT 5SM -RA BR FEW003 BKN007 OVC020 15/ RMK SF1SF6SC1 CIG VRB 5-9

CYQB;2009-06-19 14:00;CYQB 191400Z 08007KT 6SM -RA BR FEW003 BKN007 OVC020 15/14 A2990 RMK SF1SF6SC1 CIG VRB 5-9 SLP126

CYQB;2009-06-19 15:00;CYQB 191500Z 07009KT 8SM -RA FEW004 BKN007 OVC029 16/15 A2989 RMK SF1SF6SC2 CIG VRB 5-9 SLP122

CYQB;2009-06-19 16:00;CYQB 191600Z 07009KT 15SM -RA BKN008 OVC020 16/14 A2988 RMK SF6SC2 CIG VRB 6-10 SLP120

CYQB;2009-06-19 17:00;CYQB 191700Z 07010KT 3SM -RADZ BR BKN007 OVC020 16/15 A2987 RMK SF7SC1 CIG VRB 5-9 SLP117

CYQB;2009-06-19 18:00;CYQB 191800Z 08008KT 5SM -RADZ BR BKN008 OVC020 17/15 A2987 RMK SF7SC1 SLP115

CYQB;2009-06-19 18:33;CYQB 191833Z 07010KT 2 1/2SM -RADZ BR FEW005 BKN008 OVC018 16/ RMK SF2SF6SC1

CYQB;2009-06-19 19:00;CYQB 191900Z 07009KT 4SM -RADZ BR BKN006 OVC015 17/15 A2986 RMK SF7SC1 CIG VRB 4-8 SLP114

CYQB;2009-06-19 20:00;CYQB 192000Z 07008KT 3SM -RA BR BKN005 OVC015 17/16 A2985 RMK SF7SC1 SLP110

CYQB;2009-06-19 21:00;CYQB 192100Z 07008KT 3SM -DZ BR BKN005 OVC015 17/16 A2984 RMK SF7SC1 SLP107

CYQB;2009-06-19 22:00;CYQB 192200Z 07010G15KT 4SM -DZ BR BKN005 OVC020 17/16 A2984 RMK SF7SC1 SLP105

CYQB;2009-06-19 22:27;CYQB 192227Z 06009KT 2SM -DZ BR BKN005 OVC020 17/ RMK SF7SC1

CYQB;2009-06-19 23:00;CYQB 192300Z 08006KT 2SM -DZ BR BKN005 OVC016 17/16 A2984 RMK SF7SC1 SLP106

CYQB;2009-06-19 23:35;CYQB 192335Z 07008KT 5SM BR BKN005 BKN023 17/ RMK SF3SC4

CYQB;2009-06-20 00:00;CYQB 200000Z 05007KT 5SM BR SCT005 BKN022 17/16 A2983 RMK SF3SC4 SLP103

CYQB;2009-06-20 01:00;CYQB 200100Z 07006KT 6SM -DZ BR FEW005 BKN021 17/15 A2984 RMK SF2SC6 -DZ INTMT SLP107

CYQB;2009-06-20 02:00;CYQB 200200Z 07008KT 10SM BKN025 17/15 A2983 RMK SC7 SLP103

CYQB;2009-06-20 03:00;CYQB 200300Z 07006KT 4SM BR FEW007 OVC024 16/15 A2983 RMK SF2SC6 -DZ INTMT SLP102

CYQB;2009-06-20 04:00;CYQB 200400Z 06007KT 10SM -DZ FEW011 BKN022 16/15 A2981 RMK SF2SC6 -DZ INTMT SLP095

CYQB;2009-06-20 05:00;CYQB 200500Z 07009KT 15SM FEW009 BKN020 17/15 A2979 RMK SF2SC5 SLP090

CYQB;2009-06-20 06:00;CYQB 200600Z 06009KT 15SM -DZ BKN006 OVC028 16/15 A2979 RMK SF5SC3 SLP090

CYQB;2009-06-20 07:00;CYQB 200700Z 06006KT 15SM BKN009 BKN020 17/15 A2980 RMK SF5SC2 SLP091

CYQB;2009-06-20 07:26;CYQB 200726Z 07004KT 15SM -DZ BKN028 OVC040 17/ RMK SF5SC3

CYQB;2009-06-20 08:00;CYQB 200800Z 07006KT 15SM -DZ BKN021 OVC028 17/15 A2978 RMK SF6SC2 SLP087

CYQB;2009-06-20 09:00;CYQB 200900Z 07006KT 15SM -DZ BKN016 OVC025 17/15 A2977 RMK SF6SC2 SLP080

CYQB;2009-06-20 10:00;CYQB 201000Z 07010G15KT 15SM -DZ BKN013 OVC020 17/15 A2976 RMK SF6SC2 SLP078

CYQB;2009-06-20 10:53;CYQB 201053Z 05009KT 4SM -DZ BR BKN010 OVC020 16/ RMK SF6SC2 VIS N-NE 2

CYQB;2009-06-20 11:00;CYQB 201100Z 05009KT 4SM -DZ BR BKN008 OVC020 16/15 A2977 RMK SF6SC2 VIS N-NE 2 SLP081

CYQB;2009-06-20 11:11;CYQB 201111Z 06009KT 1 1/2SM -DZ BR BKN008 OVC020 16/ RMK SF7SC1

CYQB;2009-06-20 11:30;CYQB 201130Z 06009KT 6SM -DZ BR FEW008 BKN017 OVC026 16/ RMK SF2SC5SC1

CYQB;2009-06-20 12:00;CYQB 201200Z 07009KT 4SM -DZ BR BKN012 OVC025 17/15 A2977 RMK SF6SC2 SLP081

CYQB;2009-06-20 13:00;CYQB 201300Z 07009KT 5SM -DZ BR BKN018 OVC025 17/15 A2975 RMK SF6SC2 SLP074

CYQB;2009-06-20 14:00;CYQB 201400Z 07016G24KT 10SM BKN012 OVC025 19/16 A2974 RMK SF6SC2 SLP070

CYQB;2009-06-20 15:00;CYQB 201500Z 08017G22KT 15SM BKN018 OVC028 20/16 A2972 RMK CF6SC2 SLP066

CYQB;2009-06-20 16:00;CYQB 201600Z 07012G24KT 15SM BKN018 BKN030 20/16 A2970 RMK SC6SC2 SLP059

CYQB;2009-06-20 17:00;CYQB 201700Z 07013G21KT 15SM OVC020 21/16 A2969 RMK SC8 SLP055

CYQB;2009-06-20 18:00;CYQB 201800Z 07014G21KT 15SM OVC020 21/17 A2968 RMK SC8 SLP051

CYQB;2009-06-20 19:00;CYQB 201900Z 07014G25KT 8SM -DZ OVC018 21/17 A2968 RMK SC8 SLP051

CYQB;2009-06-20 20:00;CYQB 202000Z 07014G20KT 7SM -DZ SCT012 OVC017 20/17 A2968 RMK SC4SC4 SLP050

CYQB;2009-06-20 21:00;CYQB 202100Z 07013G22KT 15SM OVC015 20/17 A2967 RMK SC8 SLP048

CYQB;2009-06-20 22:00;CYQB 202200Z 07010G19KT 15SM BKN015 BKN020 20/17 A2967 RMK SC7SC1 SLP046

CYQB;2009-06-20 23:00;CYQB 202300Z 07013G20KT 8SM -DZ SCT011 OVC018 19/17 A2966 RMK SC3SC5 SLP045

CYQB;2009-06-21 00:00;CYQB 210000Z 07011G17KT 10SM -DZ SCT013 OVC020 19/17 A2966 RMK SC3SC5 SLP045

CYQB;2009-06-21 01:00;CYQB 210100Z 07014G21KT 8SM -DZ BKN015 OVC040 18/16 A2967 RMK SC6SC2 SLP048

CYQB;2009-06-21 02:00;CYQB 210200Z 07014G20KT 8SM -DZ BKN015 BKN022 OVC053 18/17 A2968 RMK SC6SC1SC2 SLP052

CYQB;2009-06-21 03:00;CYQB 210300Z 07016G22KT 10SM FEW020 OVC030 18/16 A2969 RMK SC2SC6 SLP053

CYQB;2009-06-21 04:00;CYQB 210400Z 07016G21KT 10SM FEW008 OVC018 18/16 A2969 RMK SF2SC6 SLP053

CYQB;2009-06-21 05:00;CYQB 210500Z 07013G20KT 10SM -DZ FEW008 OVC028 17/16 A2969 RMK SF2SC6 SLP055

CYQB;2009-06-21 06:00;CYQB 210600Z 07016KT 4SM -DZ BR BKN007 OVC018 17/16 A2970 RMK SF7SC1 SLP056

CYQB;2009-06-21 07:00;CYQB 210700Z 06012G18KT 4SM -DZ BR BKN007 OVC015 17/16 A2970 RMK SF6SC2 SLP056

CYQB;2009-06-21 08:00;CYQB 210800Z 06011KT 5SM -DZ BR BKN004 OVC014 17/16 A2970 RMK SF7SC1 SLP058

CYQB;2009-06-21 09:00;CYQB 210900Z 06011KT 4SM -DZ BR BKN006 OVC015 17/16 A2971 RMK SF6SC2 SLP062

CYQB;2009-06-21 10:00;CYQB 211000Z 07013G18KT 10SM -DZ SCT005 BKN015 OVC045 17/15 A2973 RMK SF3SC1SC4 SLP069

CYQB;2009-06-21 10:35;CYQB 211035Z 08012KT 10SM -SHRA SCT005 BKN015 OVC053 16/ RMK SF2SC2SC3

CYQB;2009-06-21 11:00;CYQB 211100Z 07012G18KT 6SM -SHRA BR SCT005 BKN015 BKN030 OVC050 16/15 A2976 RMK SF3SC1SC2SC2 SLP078

CYQB;2009-06-21 12:00;CYQB 211200Z CCA 08012G18KT 15SM BKN005 BKN020 OVC060 17/16 A2977 RMK SF5SC2SC1 OCNL -SHRA SLP082

CYQB;2009-06-21 12:48;CYQB 211248Z 07012G19KT 25SM -DZ FEW007 BKN017 OVC060 17/ RMK SF2SC5SC1

CYQB;2009-06-21 13:00;CYQB 211300Z 07015G20KT 25SM -DZ SCT008 BKN022 BKN060 17/16 A2979 RMK SF2SC3SC2 SLP089

CYQB;2009-06-21 14:00;CYQB 211400Z 07014KT 30SM -SHRA FEW008 BKN025 OVC070 18/16 A2980 RMK SF2SC3AC2 SLP091

CYQB;2009-06-21 15:00;CYQB 211500Z 08012KT 30SM FEW008 BKN023 OVC070 18/16 A2981 RMK SF1SC4AC2 SLP095

CYQB;2009-06-21 16:00;CYQB 211600Z 08015G20KT 30SM FEW008 SCT035 BKN068 20/16 A2982 RMK SF1SC4AC2 DIST SH NE SLP098

CYQB;2009-06-21 17:00;CYQB 211700Z 07016G21KT 30SM FEW010 SCT030 BKN070 20/16 A2983 RMK SF1SC3AC3 SLP100

CYQB;2009-06-21 18:00;CYQB 211800Z 08015G22KT 30SM FEW025 BKN037 BKN075 21/17 A2983 RMK SC1SC5AC1 SLP102

CYQB;2009-06-21 19:00;CYQB 211900Z 10011G17KT 30SM FEW030 BKN040 BKN120 21/17 A2984 RMK SC1SC4AC1 SLP106

CYQB;2009-06-21 20:00;CYQB 212000Z 07015KT 30SM FEW030 BKN043 BKN170 19/15 A2985 RMK SC1SC4AC1 SLP107

CYQB;2009-06-21 21:00;CYQB 212100Z 09011G17KT 30SM FEW020 FEW060 SCT130 SCT170 19/15 A2985 RMK CU1SC1AC2AC1 SLP110

CYQB;2009-06-21 22:00;CYQB 212200Z 08010G15KT 30SM FEW020 BKN071 BKN140 18/15 A2986 RMK CU1AC5AC1 SLP112

CYQB;2009-06-21 23:00;CYQB 212300Z 09012KT 30SM FEW020 BKN065 BKN160 16/14 A2986 RMK SC1SC5AC1 SLP112

CYQB;2009-06-22 00:00;CYQB 220000Z 08009KT 30SM SCT007 BKN065 BKN100 15/13 A2987 RMK SC3SC2AC2 SLP117

CYQB;2009-06-22 00:20;CYQB 220020Z 09007KT 20SM BKN006 BKN100 15/ RMK SC6AC2

CYQB;2009-06-22 01:00;CYQB 220100Z 06008KT 10SM BKN005 OVC020 15/13 A2988 RMK SC7SC1 SLP120

CYQB;2009-06-22 02:00;CYQB 220200Z 06006KT 10SM BKN005 OVC020 15/13 A2989 RMK SF7SC1 SLP123

CYQB;2009-06-22 03:00;CYQB 220300Z 08008KT 8SM BKN005 OVC020 14/13 A2989 RMK SF7SC1 SLP124

CYQB;2009-06-22 04:00;CYQB 220400Z 06010KT 8SM BKN004 OVC020 14/13 A2988 RMK SF7SC1 SLP120

CYQB;2009-06-22 05:00;CYQB 220500Z 05007KT 10SM BKN004 14/13 A2988 RMK SF7 SLP118

CYQB;2009-06-22 06:00;CYQB 220600Z 07006KT 10SM BKN005 14/13 A2988 RMK SF7 SLP119

CYQB;2009-06-22 07:00;CYQB 220700Z 06006KT 6SM BKN004 14/12 A2987 RMK SF6 SLP115

CYQB;2009-06-22 08:00;CYQB 220800Z 05006KT 8SM BKN006 14/12 A2988 RMK SF7 SLP118

CYQB;2009-06-22 09:00;CYQB 220900Z 08011KT 10SM FEW006 13/12 A2989 RMK SF2 SLP122

CYQB;2009-06-22 10:00;CYQB 221000Z 08005KT 10SM BKN006 13/11 A2991 RMK SF7 VIS N-NE 2 SLP130

CYQB;2009-06-22 10:39;CYQB 221039Z 07006KT 15SM FEW008 14/ RMK SF2

CYQB;2009-06-22 11:00;CYQB 221100Z 08008G15KT 30SM FEW008 SCT033 14/12 A2992 RMK CF1SC4 SLP132

CYQB;2009-06-22 12:00;CYQB 221200Z 08008KT 30SM FEW010 FEW033 16/13 A2992 RMK CF1SC1 SLP132

CYQB;2009-06-22 13:00;CYQB 221300Z 06014G22KT 30SM FEW012 BKN033 17/12 A2992 RMK CU1SC5 SLP133

CYQB;2009-06-22 14:00;CYQB 221400Z 06026G32KT 30SM FEW015 BKN033 18/13 A2992 RMK CU1SC6 SLP131

CYQB;2009-06-22 15:00;CYQB 221500Z 05026G37KT 30SM FEW025 FEW035 FEW220 20/12 A2991 RMK CU1SC1CI1 SLP129

CYQB;2009-06-22 16:00;CYQB 221600Z 07014G27KT 30SM FEW030 BKN042 BKN220 21/12 A2992 RMK CU1SC6CI1 SLP132

CYQB;2009-06-22 17:00;CYQB 221700Z 07017G27KT 30SM FEW037 BKN045 21/12 A2990 RMK CU2SC5 SLP127

CYQB;2009-06-22 18:00;CYQB 221800Z 07020G28KT 30SM FEW037 SCT045 SCT220 22/13 A2990 RMK CU2SC2CI1 SLP127

CYQB;2009-06-22 19:00;CYQB 221900Z 08014G22KT 30SM BKN054 BKN240 22/14 A2989 RMK SC5CI1 SLP122

CYQB;2009-06-22 20:00;CYQB 222000Z 09011G16KT 30SM FEW035 SCT055 SCT240 21/14 A2989 RMK CU1SC2CI1 SLP121

CYQB;2009-06-22 21:00;CYQB 222100Z 08010KT 30SM FEW035 FEW055 FEW240 22/13 A2988 RMK CU1SC1CI1 SLP120

CYQB;2009-06-22 22:00;CYQB 222200Z 09011G16KT 30SM FEW035 FEW055 22/13 A2987 RMK CU1SC2 SLP117

CYQB;2009-06-22 23:00;CYQB 222300Z 09009KT 30SM SCT060 20/12 A2988 RMK SC2 SLP120

CYQB;2009-06-23 00:00;CYQB 230000Z 09006KT 30SM SCT077 18/12 A2989 RMK AC3 SLP122

CYQB;2009-06-23 01:00;CYQB 230100Z 09004KT 30SM FEW075 17/11 A2991 RMK AC1 SLP128

CYQB;2009-06-23 02:00;CYQB 230200Z 06005KT 20SM FEW075 FEW230 16/12 A2991 RMK AC1CI0 SLP130

CYQB;2009-06-23 03:00;CYQB 230300Z 02003KT 20SM FEW075 FEW230 16/12 A2990 RMK AC1CI0 SLP127

CYQB;2009-06-23 04:00;CYQB 230400Z 03004KT 20SM FEW075 FEW230 15/12 A2990 RMK AC1CI0 SLP127

CYQB;2009-06-23 05:00;CYQB 230500Z 35003KT 20SM FEW230 14/12 A2989 RMK CI0 SLP124

CYQB;2009-06-23 06:00;CYQB 230600Z 06005KT 20SM FEW230 14/11 A2989 RMK CI0 SLP123

CYQB;2009-06-23 07:00;CYQB 230700Z 00000KT 20SM FEW230 12/10 A2989 RMK CI0 SLP121

CYQB;2009-06-23 08:00;CYQB 230800Z 00000KT 20SM FEW090 FEW230 11/09 A2989 RMK AC1CI0 SLP122

CYQB;2009-06-23 09:00;CYQB 230900Z 00000KT 30SM FEW090 FEW230 11/09 A2989 RMK AC1CI0 SLP124

CYQB;2009-06-23 10:00;CYQB 231000Z 02004KT 30SM FEW015 FEW230 14/10 A2991 RMK SF1CI1 SLP128

CYQB;2009-06-23 11:00;CYQB 231100Z 08007KT 30SM FEW020 FEW100 FEW230 15/11 A2992 RMK CF1AC1CI1 SLP133

CYQB;2009-06-23 12:00;CYQB 231200Z 10007KT 30SM FEW030 FEW100 FEW230 16/11 A2993 RMK SC1AC1CI0 SLP137

CYQB;2009-06-23 13:00;CYQB 231300Z 06005KT 50SM FEW030 FEW100 SCT240 18/12 A2993 RMK CU1AC1CI0 SLP135

CYQB;2009-06-23 14:00;CYQB 231400Z 09008KT 50SM FEW030 FEW100 FEW240 21/14 A2992 RMK CU1AC1CI0 SLP132

CYQB;2009-06-23 15:00;CYQB 231500Z 08008KT 50SM FEW030 FEW100 FEW240 21/15 A2991 RMK CU1AC1CI0 SLP129

CYQB;2009-06-23 16:00;CYQB 231600Z 08011G18KT 50SM FEW035 FEW080 FEW240 23/14 A2989 RMK CU1AC1CI0 SLP124

CYQB;2009-06-23 17:00;CYQB 231700Z 07015G22KT 50SM FEW035 FEW080 FEW240 24/13 A2988 RMK CU1AC1CI0 SLP118

CYQB;2009-06-23 18:00;CYQB 231800Z 09013G22KT 50SM FEW045 FEW080 FEW240 25/12 A2986 RMK CU1AC1CI0 SLP113

CYQB;2009-06-23 19:00;CYQB 231900Z 09015G22KT 50SM FEW050 FEW080 FEW240 26/11 A2986 RMK CU1AC1CI0 SLP110

CYQB;2009-06-23 20:00;CYQB 232000Z 09018G24KT 50SM FEW050 FEW240 26/11 A2985 RMK CU1CI0 SLP107

CYQB;2009-06-23 21:00;CYQB 232100Z 09013KT 30SM FEW060 FEW180 FEW240 25/10 A2986 RMK CU1AC1CI1 SLP111

CYQB;2009-06-23 22:00;CYQB 232200Z 08011G16KT 30SM FEW070 FEW180 FEW250 24/09 A2985 RMK CU1AC1CI1 SLP109

CYQB;2009-06-23 23:00;CYQB 232300Z 07010KT 30SM FEW180 23/09 A2986 RMK AC1 SLP112

CYQB;2009-06-24 00:00;CYQB 240000Z 08010G16KT 30SM FEW180 22/07 A2986 RMK AC1 SLP113

CYQB;2009-06-24 01:00;CYQB 240100Z 10008KT 20SM FEW180 21/07 A2987 RMK AC1 SLP115

CYQB;2009-06-24 02:00;CYQB 240200Z 08006KT 15SM SKC 20/09 A2987 RMK SLP116

CYQB;2009-06-24 03:00;CYQB 240300Z 09008KT 15SM SKC 19/10 A2988 RMK SLP117

CYQB;2009-06-24 04:00;CYQB 240400Z 06006KT 15SM SKC 18/09 A2990 RMK SLP124

CYQB;2009-06-24 05:00;CYQB 240500Z 07007KT 15SM FEW110 17/09 A2989 RMK AC1 SLP123

CYQB;2009-06-24 06:00;CYQB 240600Z 04006KT 15SM FEW080 SCT110 17/10 A2989 RMK AC1AC2 SLP121

CYQB;2009-06-24 07:00;CYQB 240700Z 02005KT 15SM BKN100 17/10 A2989 RMK AC6 SLP120

CYQB;2009-06-24 08:00;CYQB 240800Z 05005KT 15SM FEW035 BKN110 17/10 A2989 RMK SC1AC6 SLP121

CYQB;2009-06-24 09:00;CYQB 240900Z 07005KT 15SM FEW040 BKN110 17/11 A2990 RMK SC1AC6 SLP126

CYQB;2009-06-24 10:00;CYQB 241000Z 01005KT 15SM BKN130 17/11 A2991 RMK AC7 SLP129

CYQB;2009-06-24 11:00;CYQB 241100Z 08005KT 30SM BKN130 18/10 A2992 RMK AC6 SLP130

CYQB;2009-06-24 12:00;CYQB 241200Z 08007KT 50SM FEW090 BKN130 BKN240 19/10 A2992 RMK AC1AC4CI1 SLP132

CYQB;2009-06-24 13:00;CYQB 241300Z 08010KT 50SM FEW090 FEW130 21/11 A2991 RMK AC1AC1 SLP128

CYQB;2009-06-24 14:00;CYQB 241400Z 07010KT 50SM FEW025 FEW130 22/13 A2989 RMK CU1AC1 SLP123

CYQB;2009-06-24 15:00;CYQB 241500Z 09008KT 50SM FEW030 FEW130 22/14 A2989 RMK CU1AC1 SLP121

CYQB;2009-06-24 16:00;CYQB 241600Z 08012KT 50SM FEW035 FEW130 24/15 A2988 RMK CU1AC1 SLP118

CYQB;2009-06-24 17:00;CYQB 241700Z 10007G16KT 50SM FEW040 FEW130 FEW210 25/15 A2987 RMK CU1AC1CI1 SLP115

CYQB;2009-06-24 18:00;CYQB 241800Z 10006KT 50SM FEW040 BKN120 26/16 A2986 RMK CU1AC6 TCU DIST N SLP110

CYQB;2009-06-24 19:00;CYQB 241900Z 09006KT 50SM FEW040 FEW090 SCT130 26/18 A2985 RMK CU1AC1AC4 TCU DIST N AND S SLP107

CYQB;2009-06-24 20:00;CYQB 242000Z 08008KT 50SM FEW040 FEW100 FEW240 27/18 A2983 RMK CU1AC1CI0 SLP100

CYQB;2009-06-24 21:00;CYQB 242100Z 11006KT 30SM FEW040 FEW100 FEW240 27/18 A2981 RMK CU1AC0CI0 SLP095

CYQB;2009-06-24 22:00;CYQB 242200Z 05008KT 30SM FEW040 FEW240 27/18 A2980 RMK CU1CI1 SLP090

CYQB;2009-06-24 23:00;CYQB 242300Z 07005KT 30SM FEW040 FEW240 26/18 A2979 RMK CU1CI1 SLP088

CYQB;2009-06-25 00:00;CYQB 250000Z 07006KT 30SM FEW040 FEW240 25/17 A2978 RMK SC1CI0 SLP086

CYQB;2009-06-25 01:00;CYQB 250100Z 04004KT 30SM FEW040 FEW240 23/16 A2978 RMK SC1CI0 SLP086

CYQB;2009-06-25 02:00;CYQB 250200Z 06006KT 20SM FEW240 21/16 A2979 RMK CI1 SLP089

CYQB;2009-06-25 03:00;CYQB 250300Z 05004KT 20SM FEW240 20/16 A2980 RMK CI0 SLP090

CYQB;2009-06-25 04:00;CYQB 250400Z 03002KT 20SM SKC 20/16 A2978 RMK SLP085

CYQB;2009-06-25 05:00;CYQB 250500Z 04003KT 20SM SKC 18/16 A2978 RMK SLP084

CYQB;2009-06-25 06:00;CYQB 250600Z 08002KT 15SM SKC 18/16 A2977 RMK SLP081

CYQB;2009-06-25 07:00;CYQB 250700Z 00000KT 15SM SKC 18/16 A2977 RMK SLP081

CYQB;2009-06-25 08:00;CYQB 250800Z 10002KT 15SM FEW120 FEW200 17/15 A2976 RMK AC2CI1 SLP079

CYQB;2009-06-25 09:00;CYQB 250900Z 36002KT 30SM BKN120 BKN200 18/16 A2976 RMK AC5CI1 SLP077

CYQB;2009-06-25 10:00;CYQB 251000Z 00000KT 15SM FEW035TCU FEW100 BKN250 18/16 A2976 RMK TCU1AC1CI3 TCU DIST SW HAZY SLP079

CYQB;2009-06-25 11:00;CYQB 251100Z 00000KT 30SM FEW100 BKN250 19/17 A2976 RMK AC2CI2 SLP078

CYQB;2009-06-25 12:00;CYQB 251200Z 27002KT 30SM FEW100 SCT160 BKN250 21/18 A2975 RMK AC1AC2CI2 SLP073

CYQB;2009-06-25 13:00;CYQB 251300Z 22003KT 30SM BKN190 BKN250 23/18 A2973 RMK AC5CI2 OBS TAKEN +5 SLP066

CYQB;2009-06-25 14:00;CYQB 251400Z 27006KT 30SM BKN120 BKN190 OVC250 23/19 A2973 RMK AC5AC1CI1 SLP067

CYQB;2009-06-25 15:00;CYQB 251500Z 25006KT 20SM FEW090 BKN120 OVC250 25/20 A2972 RMK AC2AC4CI1 HAZY SLP063

CYQB;2009-06-25 16:00;CYQB 251600Z 24007KT 20SM SCT090 BKN170 OVC250 26/20 A2971 RMK AC3AC2CI1 HAZY SLP059

CYQB;2009-06-25 17:00;CYQB 251700Z 23010KT 20SM FEW050 SCT094 BKN180 OVC240 27/19 A2969 RMK CU1AC2AC2CI1 HAZY SLP053

CYQB;2009-06-25 18:00;CYQB 251800Z 22009KT 20SM FEW050 SCT090 OVC210 28/20 A2967 RMK CU1AC2CI2 HAZY SLP045

CYQB;2009-06-25 19:00;CYQB 251900Z 25008KT 20SM FEW050 FEW090 BKN210 29/20 A2963 RMK CU1AC1CI3 HAZY SLP034

CYQB;2009-06-25 20:00;CYQB 252000Z 26006KT 20SM FEW050 SCT210 29/19 A2961 RMK CU1CI2 HAZY SLP028

CYQB;2009-06-25 21:00;CYQB 252100Z 25010G15KT 20SM FEW050 SCT180 BKN210 29/18 A2960 RMK CU1AC1CI2 HAZY SLP023

CYQB;2009-06-25 22:00;CYQB 252200Z 26006KT 20SM FEW050 FEW080 SCT190 BKN240 29/19 A2959 RMK CU1AC1AC1CI2 HAZY TCU ENE SLP021

CYQB;2009-06-25 23:00;CYQB 252300Z 00000KT 20SM FEW050 SCT090 BKN210 28/18 A2960 RMK CU1AC3CI2 HAZY TCU N-E SLP023

CYQB;2009-06-26 00:00;CYQB 260000Z 00000KT 20SM SCT060TCU BKN100 OVC180 26/19 A2959 RMK TCU3AC2CI1 CB ALQDS SLP018

CYQB;2009-06-26 00:21;CYQB 260021Z 00000KT 15SM -TSRA SCT070CB OVC100 26/ RMK CB3AC5 LTGCG SW

CYQB;2009-06-26 01:00;CYQB 260100Z 32020G33KT 10SM -TSRA BKN035CB OVC070 22/17 A2963 RMK CB6AC2 LTNGS ALQDS SLP033

CYQB;2009-06-26 02:00;CYQB 260200Z 08010G17KT 4SM -TSRA BKN030CB OVC050 18/16 A2965 RMK CB6SC2 SLP039

CYQB;2009-06-26 03:00;CYQB 260300Z CCA 01003KT 10SM FEW030 SCT050 BKN120 19/17 A2964 RMK SF1SC3AC2 RETS SLP037

CYQB;2009-06-26 04:00;CYQB 260400Z 00000KT 10SM FEW030 BKN130 18/16 A2965 RMK SF1AC6 SLP039

CYQB;2009-06-26 05:00;CYQB 260500Z 00000KT 10SM -SHRA FEW020 OVC150 18/16 A2963 RMK SF1AC8 SLP034

CYQB;2009-06-26 05:27;CYQB 260527Z 02004KT 10SM FEW020 OVC150 18/ RMK SF1AC8

CYQB;2009-06-26 06:00;CYQB 260600Z 36003KT 10SM FEW020 OVC210 18/17 A2962 RMK SF1CI8 SLP031

CYQB;2009-06-26 07:00;CYQB 260700Z 01003KT 10SM SCT058 BKN210 18/17 A2962 RMK SC4CI1 SLP030

CYQB;2009-06-26 08:00;CYQB 260800Z 02005KT 15SM FEW045 SCT120 BKN210 18/16 A2962 RMK SC2AC2CI2 SLP031

CYQB;2009-06-26 09:00;CYQB 260900Z 35002KT 20SM FEW015 BKN032 BKN210 17/16 A2962 RMK SF1SC6CI1 SLP031

CYQB;2009-06-26 10:00;CYQB 261000Z 06003KT 20SM FEW015 SCT032 BKN120 OVC220 18/16 A2962 RMK SF1SC2AC2CI1 HAZY SLP030

CYQB;2009-06-26 11:00;CYQB 261100Z 06006KT 25SM FEW010 BKN030 OVC120 18/16 A2964 RMK SF1SC5AC2 SLP035

CYQB;2009-06-26 11:41;CYQB 261141Z 06006KT 20SM BKN007 OVC030 19/ RMK SF6SC2

CYQB;2009-06-26 12:00;CYQB 261200Z 07007KT 30SM BKN008 BKN120 19/17 A2963 RMK SF7AC1 SLP034

CYQB;2009-06-26 12:38;CYQB 261238Z 08005KT 30SM SCT008 BKN028 BKN120 BKN220 19/ RMK SF4SC2AC1CI1

CYQB;2009-06-26 13:00;CYQB 261300Z 10004KT 30SM FEW008 SCT029 BKN120 BKN220 19/17 A2963 RMK SF1SC2AC2CI2 SLP033

CYQB;2009-06-26 14:00;CYQB 261400Z 10004KT 20SM FEW009 BKN030 OVC120 19/17 A2966 RMK SF2SC6AC1 SLP042

CYQB;2009-06-26 14:19;CYQB 261419Z 07003KT 20SM TS FEW009 SCT030 OVC130 20/ RMK SF1SC4AC4 CB EMBD SE

CYQB;2009-06-26 14:35;CYQB 261435Z 06004KT 15SM -TSRA FEW009 SCT030 OVC130 20/ RMK SF1SC3AC5 CB EMBD SE

CYQB;2009-06-26 15:00;CYQB 261500Z 03007KT 30SM -TSRA FEW009 SCT030 OVC130 20/17 A2965 RMK SF1SC3AC5 CB EMBD E SLP040

CYQB;2009-06-26 15:15;CYQB 261515Z 06006KT 30SM -SHRA FEW009 SCT030 OVC130 20/ RMK SF1SC3AC5 RETS

CYQB;2009-06-26 16:00;CYQB 261600Z 12002KT 30SM FEW020 FEW030 SCT130 BKN220 22/18 A2962 RMK CF1SC1AC2CI2 SLP031

CYQB;2009-06-26 16:10;CYQB 261610Z 17003KT 20SM BKN014 OVC130 21/ RMK SC7AC1

CYQB;2009-06-26 16:37;CYQB 261637Z 11002KT 20SM SCT014 BKN033 BKN130 22/ RMK SC4SC2AC1

CYQB;2009-06-26 17:00;CYQB 261700Z 00000KT 20SM FEW015 SCT040 BKN130 22/18 A2962 RMK SC2SC2AC3 SLP032

CYQB;2009-06-26 18:00;CYQB 261800Z 35002KT 20SM FEW020 FEW040 FEW130 24/18 A2961 RMK CU1SC1AC1 SLP025

CYQB;2009-06-26 19:00;CYQB 261900Z 13002KT 25SM FEW025 FEW130 FEW220 25/19 A2960 RMK CU1AC1CI0 SLP023

CYQB;2009-06-26 20:00;CYQB 262000Z 00000KT 25SM FEW025 SCT130 BKN220 25/19 A2960 RMK CU2AC2CI0 BARO READ +45 SLP023

CYQB;2009-06-26 21:00;CYQB 262100Z 00000KT 25SM SCT030 SCT130 BKN240 25/18 A2959 RMK CU3AS0CI0 SLP020

CYQB;2009-06-26 22:00;CYQB 262200Z 18003KT 15SM FEW030 SCT140 OVC250 24/18 A2958 RMK CU2AS2CI4 SLP017

CYQB;2009-06-26 22:54;CYQB 262254Z 10008KT 15SM TS BKN110 OVC250 22/ RMK AC5CS3 CB EMBDD

CYQB;2009-06-26 23:00;CYQB 262300Z 08006KT 15SM TS BKN110 OVC250 22/18 A2961 RMK AC5CS3 CB EMBDD SLP028

CYQB;2009-06-26 23:23;CYQB 262323Z 25010G17KT 15SM TSRA BKN026CB OVC110 21/ RMK CB6AC2 FC REPORTED N BY ATC

CYQB;2009-06-26 23:27;CYQB 262327Z 24007G17KT 2SM +TSRA OVC018CB 20/ RMK CB8

CYQB;2009-06-26 23:53;CYQB 262353Z 22003KT 3SM -TSRA BKN011 OVC029CB RMK SF7CB1

CYQB;2009-06-27 00:00;CYQB 270000Z 21002KT 3SM -TSRA SCT011 BKN030CB OVC052 19/17 A2967 RMK SF4CB2SC2 SLP046

CYQB;2009-06-27 01:00;CYQB 270100Z 36003KT 8SM -SHRA FEW030 BKN060 OVC260 18/16 A2963 RETS RMK SC2SC4CI0 SLP034

CYQB;2009-06-27 02:00;CYQB 270200Z 04004KT 8SM FEW012 SCT030 BKN120 18/16 A2966 RMK SF1SC3AC3 SLP044

CYQB;2009-06-27 03:00;CYQB 270300Z 36002KT 10SM FEW030 FEW120 BKN210 18/17 A2965 RMK SC1AC1CI3 SLP041

CYQB;2009-06-27 04:00;CYQB 270400Z 18004KT 6SM BR FEW008 OVC013 18/16 A2967 RMK SF2SC6 SLP047

CYQB;2009-06-27 05:00;CYQB 270500Z 12003KT 6SM BR FEW008 FEW013 BKN230 18/16 A2967 RMK SF2SC1CI4 SLP049

CYQB;2009-06-27 06:00;CYQB 270600Z 01003KT 6SM BR SCT008 BKN230 18/17 A2968 RMK SF4CI2 SLP051

CYQB;2009-06-27 07:00;CYQB 270700Z 06004KT 4SM BR BKN008 18/16 A2969 RMK SF6 SLP053

CYQB;2009-06-27 08:00;CYQB 270800Z 07007KT 6SM BR OVC005 17/16 A2969 RMK SF8 SLP053

CYQB;2009-06-27 09:00;CYQB 270900Z 08004KT 5SM BR OVC004 17/16 A2970 RMK SF8 SLP057

CYQB;2009-06-27 10:00;CYQB 271000Z 08005KT 5SM BR OVC003 17/16 A2971 RMK SF8 SLP062

CYQB;2009-06-27 10:25;CYQB 271025Z 10009KT 1 1/2SM BR OVC003 16/ RMK SF8

CYQB;2009-06-27 10:44;CYQB 271044Z 08006KT 1 1/4SM BR OVC003 16/ RMK SF8

CYQB;2009-06-27 11:00;CYQB 271100Z 07009KT 1 1/4SM BR OVC003 16/15 A2973 RMK SF8 SLP067

CYQB;2009-06-27 11:50;CYQB 271150Z 07005KT 3SM -SHRA BR OVC003 17/ RMK SF8

CYQB;2009-06-27 12:00;CYQB 271200Z 09002KT 3SM -SHRA BR OVC005 16/15 A2973 RMK SF8 RGD CIG SLP068

CYQB;2009-06-27 12:23;CYQB 271223Z 10002KT 3SM -SHRA BR FEW003 SCT006 OVC011 17/ RMK SF1SF2SC6

CYQB;2009-06-27 12:53;CYQB 271253Z 14002KT 3SM BR FEW003 BKN005 OVC011 17/ RMK SF2SF4SC2 OCNL -SHRA

CYQB;2009-06-27 13:00;CYQB 271300Z 15002KT 3SM -SHRA BR FEW003 BKN005 OVC011 17/16 A2973 RMK SF2SF5SC2 SLP068

CYQB;2009-06-27 14:00;CYQB 271400Z 23002KT 2 1/2SM -SHRA BR FEW004 OVC007 17/16 A2972 RMK SF2SF6 SLP063

CYQB;2009-06-27 15:00;CYQB 271500Z 21002KT 2 1/2SM -SHRA BR FEW003 BKN007 OVC011 17/16 A2972 RMK SF2SC3SF2 SLP064

CYQB;2009-06-27 16:00;CYQB 271600Z 15006KT 1 1/2SM +SHRA BR BKN004 BKN007 OVC011TCU 16/15 A2972 RMK SF5SF1TCU2 SLP066

CYQB;2009-06-27 17:00;CYQB 271700Z 15004KT 3SM -SHRA BR BKN004 BKN011 OVC022TCU 16/16 A2974 RERA RMK SF5SF2TCU2 SLP070

CYQB;2009-06-27 18:00;CYQB 271800Z 12004KT 2SM -SHRA BR SCT003 BKN006 OVC011 17/16 A2975 RMK SF3SF3SC2 SLP074

CYQB;2009-06-27 19:00;CYQB 271900Z 09005KT 4SM -SHRA BR BKN003 BKN007 OVC011 17/16 A2976 RMK SF5SF2SC2 RAG CIG SLP078

CYQB;2009-06-27 20:00;CYQB 272000Z 06005KT 6SM BR BKN004 OVC012 18/16 A2976 RMK SF6SC2 VIS LWR NW-N RAG CIG SLP079

CYQB;2009-06-27 21:00;CYQB 272100Z 09007KT 10SM BKN006 BKN010 BKN020 19/17 A2977 RMK SF5SF2SC1 RAG CIG SLP081

CYQB;2009-06-27 21:21;CYQB 272121Z 09009KT 15SM SCT006 BKN020 BKN045 19/ RMK SF3CU2SC1

CYQB;2009-06-27 22:00;CYQB 272200Z 06007KT 15SM SCT010 SCT020 BKN045 20/17 A2978 RMK SF3CU1SC1 SLP085

CYQB;2009-06-27 23:00;CYQB 272300Z 07006KT 15SM FEW010 SCT018 BKN070 19/16 A2978 RMK SF2CU2AC1 SLP086

CYQB;2009-06-28 00:00;CYQB 280000Z 07009KT 15SM BKN011 OVC050 19/16 A2980 RMK SF6SC1 SLP090

CYQB;2009-06-28 01:00;CYQB 280100Z 09007KT 15SM OVC006 17/15 A2981 RMK SF8 SLP094

CYQB;2009-06-28 02:00;CYQB 280200Z 06002KT 10SM SCT006 BKN043 17/15 A2982 RMK SF4SC2 SLP097

CYQB;2009-06-28 03:00;CYQB 280300Z 07009KT 10SM BKN004 OVC045 17/15 A2981 RMK SF6SC2 SLP095

CYQB;2009-06-28 04:00;CYQB 280400Z 08006KT 3SM BR OVC003 16/15 A2982 RMK SF8 SLP099

CYQB;2009-06-28 05:00;CYQB 280500Z 07010KT 4SM BR OVC004 16/15 A2982 RMK SF8 SLP100

CYQB;2009-06-28 06:00;CYQB 280600Z 08007KT 6SM BR BKN005 OVC024 16/15 A2983 RMK SF7SC1 SLP102

CYQB;2009-06-28 07:00;CYQB 280700Z 07008KT 6SM BR OVC005 16/15 A2982 RMK SF8 SLP098

CYQB;2009-06-28 08:00;CYQB 280800Z 07009G15KT 6SM BR OVC005 16/15 A2981 RMK SF8 SLP096

CYQB;2009-06-28 09:00;CYQB 280900Z 08013KT 4SM BR OVC005 16/15 A2982 RMK SF8 SLP097

CYQB;2009-06-28 10:00;CYQB 281000Z 07010KT 5SM BR OVC004 16/15 A2982 RMK SF8 SLP097

CYQB;2009-06-28 11:00;CYQB 281100Z 06008KT 4SM BR OVC004 17/15 A2981 RMK SF8 SLP095

CYQB;2009-06-28 12:00;CYQB 281200Z 09012G18KT 5SM BR OVC005 17/15 A2982 RMK SF8 SLP097

CYQB;2009-06-28 13:00;CYQB 281300Z 07011G16KT 6SM BR BKN007 17/15 A2981 RMK SF7 SLP095

CYQB;2009-06-28 14:00;CYQB 281400Z 09009KT 10SM SCT008 BKN032 19/16 A2981 RMK SF4SC3 SLP095

CYQB;2009-06-28 15:00;CYQB 281500Z 08009KT 10SM SCT008 OVC032 19/16 A2981 RMK SF3SC5 SLP093

CYQB;2009-06-28 16:00;CYQB 281600Z 07010G15KT 10SM FEW008 OVC032 18/16 A2979 RMK SF2SC6 VIS LWR E SLP087

CYQB;2009-06-28 17:00;CYQB 281700Z 09012KT 15SM FEW010 BKN032 BKN100 19/16 A2977 RMK SF1SC4AC2 SLP082

CYQB;2009-06-28 18:00;CYQB 281800Z 07012KT 12SM FEW010 BKN030 BKN100 19/16 A2976 RMK SF1SC5AC2 SLP079

CYQB;2009-06-28 19:00;CYQB 281900Z 08013KT 15SM FEW014 BKN045 BKN090 20/16 A2975 RMK CF1SC5AC2 SLP074

CYQB;2009-06-28 20:00;CYQB 282000Z 09012KT 15SM FEW014 SCT045 BKN077 OVC100 19/16 A2974 RMK CF1SC3AC3AC2 SLP070

CYQB;2009-06-28 21:00;CYQB 282100Z 09010KT 10SM FEW008 SCT045 OVC070 18/16 A2972 RMK SF1SC2AC5 SLP066

CYQB;2009-06-28 21:26;CYQB 282126Z 08010KT 10SM -SHRA FEW008 BKN045 OVC077 18/ RMK SF2SC6AC1

CYQB;2009-06-28 22:00;CYQB 282200Z 08012G18KT 10SM BKN007 BKN052 OVC076 17/16 A2972 RMK SF5SC2AC1 SLP065

CYQB;2009-06-28 22:32;CYQB 282232Z 07015KT 4SM -SHRADZ BKN005 OVC040 17/ RMK SF7SC1

CYQB;2009-06-28 23:00;CYQB 282300Z 07009KT 3SM -SHRA BR OVC003 17/16 A2971 RMK SF8 SLP062

CYQB;2009-06-29 00:00;CYQB 290000Z 08010KT 2SM -SHRA BR OVC003 16/15 A2971 RMK SF8 SLP060

CYQB;2009-06-29 00:53;CYQB 290053Z 08010G15KT 6SM -RA BR OVC003 16/ RMK SF8

CYQB;2009-06-29 01:00;CYQB 290100Z 09010G15KT 6SM -RA BR OVC003 16/15 A2970 RMK SF8 SLP058

CYQB;2009-06-29 02:00;CYQB 290200Z 08012KT 6SM -RA BR OVC003 16/15 A2970 RMK SF8 SLP056

CYQB;2009-06-29 03:00;CYQB 290300Z 09010G16KT 6SM -RA BR OVC002 15/14 A2968 RMK SF8 SLP051

CYQB;2009-06-29 04:00;CYQB 290400Z 08012G17KT 6SM -RA BR OVC002 15/14 A2966 RMK SF8 SLP043

CYQB;2009-06-29 04:41;CYQB 290441Z 08010G15KT 6SM -RA BR OVC003 14/ RMK SF8

CYQB;2009-06-29 05:00;CYQB 290500Z 09011KT 6SM -RA BR OVC003 15/14 A2964 RMK SF8 SLP038

CYQB;2009-06-29 06:00;CYQB 290600Z 07011KT 6SM -RA BR OVC003 14/14 A2962 RMK SF8 SLP031

CYQB;2009-06-29 07:00;CYQB 290700Z 08009KT 4SM -RA BR OVC003 15/15 A2960 RMK SF8 SLP025

CYQB;2009-06-29 08:00;CYQB 290800Z 08010KT 4SM -RA BR OVC005 16/15 A2959 RMK SF8 CIG VRB 3-7 SLP019

CYQB;2009-06-29 09:00;CYQB 290900Z 07012KT 4SM -RA BR OVC004 16/16 A2957 RMK SF8 SLP013

CYQB;2009-06-29 10:00;CYQB 291000Z 08011KT 4SM -RA BR BKN005 BKN015 OVC027 17/16 A2956 RMK SF5SC2SC2 SLP010

CYQB;2009-06-29 11:00;CYQB 291100Z 07012G17KT 4SM -RA BR BKN004 OVC015 17/16 A2955 RMK ST7SC1 CIG VRB 3-6 SLP008

CYQB;2009-06-29 12:00;CYQB 291200Z 06012G17KT 3SM -RA BR BKN005 OVC011 17/16 A2953 RMK SF7ST1 SLP002

CYQB;2009-06-29 13:00;CYQB 291300Z 07015G22KT 3SM -RA BR BKN004 OVC008 17/16 A2951 RMK SF7SC1 SLP994

CYQB;2009-06-29 14:00;CYQB 291400Z 08013G20KT 4SM -RA BR BKN004 OVC027 17/16 A2950 RMK SF7SC1 SLP989

CYQB;2009-06-29 15:00;CYQB 291500Z 07017G25KT 4SM -RA BR BKN006 OVC028 16/15 A2949 RMK SF7SC1 SLP987

CYQB;2009-06-29 16:00;CYQB 291600Z 07016G25KT 8SM BKN010 OVC042 17/15 A2948 RMK SF6SC2 CIG VRB 7-13 SLP982

CYQB;2009-06-29 17:00;CYQB 291700Z 07019G27KT 12SM BKN012 BKN028 OVC042 19/16 A2947 RMK SF6SC2SC1 VIS LWR NE SLP980

CYQB;2009-06-29 18:00;CYQB 291800Z 07020G27KT 15SM SCT014 OVC035 19/16 A2946 RMK SF4SC4 SLP976

CYQB;2009-06-29 19:00;CYQB 291900Z 08016G24KT 15SM FEW012 FEW022 SCT045 SCT065 BKN250 20/16 A2945 RMK SF1CF1SC2SC1CS0 SLP975

CYQB;2009-06-29 20:00;CYQB 292000Z 09014G21KT 30SM FEW012 FEW045 FEW070 20/17 A2944 RMK SF1SC1AC1 SLP971

CYQB;2009-06-29 21:00;CYQB 292100Z 09015G21KT 30SM FEW012 BKN045 BKN070 20/16 A2944 RMK SF1SC6AC2 SLP970

CYQB;2009-06-29 22:00;CYQB 292200Z 08010G17KT 30SM FEW010 OVC048 18/16 A2946 RMK SF1SC8 SLP975

CYQB;2009-06-29 22:48;CYQB 292248Z 08012G19KT 30SM -RA FEW010 OVC050 17/ RMK SF1SC7 VIS NW-NE 5

CYQB;2009-06-29 23:00;CYQB 292300Z 09014KT 30SM -RA FEW010 OVC035 17/15 A2948 RMK SF1SC7 VIS NW-NE 4 SLP981

CYQB;2009-06-30 00:00;CYQB 300000Z 09007G17KT 3SM -RA BR BKN006 OVC018 17/15 A2950 RMK SF7SC1 SLP989

CYQB;2009-06-30 00:13;CYQB 300013Z 12011KT 1/2SM R06/P6000FT/U -RA FG OVC004 16/ RMK SF8 CIG VRB 2-6

CYQB;2009-06-30 00:23;CYQB 300023Z 09011G16KT 3/4SM R06/P6000FT/D -RA BR OVC004 16/ RMK SF8 CIG VRB 2-6 VIS VRB 1/2-1

CYQB;2009-06-30 01:00;CYQB 300100Z 08010G19KT 6SM -RA BR BKN004 OVC015 16/15 A2952 RMK SF6SC2 SLP996

CYQB;2009-06-30 02:00;CYQB 300200Z 08011KT 6SM -RA BR BKN006 OVC013 16/15 A2953 RMK SF6SC2 SLP001

CYQB;2009-06-30 03:00;CYQB 300300Z 07008KT 4SM -RA BR BKN002 OVC015 16/15 A2954 RMK SF6SC2 SLP005

CYQB;2009-06-30 04:00;CYQB 300400Z CCA 09006KT 6SM -RA BR BKN003 OVC015 16/15 A2955 RMK SF6SC2 CIG VRB 3-5 SLP007

CYQB;2009-06-30 05:00;CYQB 300500Z 09008KT 6SM -RA BR BKN004 OVC027 16/15 A2956 RMK SF5SC3 SLP010

CYQB;2009-06-30 06:00;CYQB 300600Z 08007KT 5SM BR SCT004 OVC027 16/15 A2957 RMK SF3SC5 SLP014

CYQB;2009-06-30 07:00;CYQB 300700Z 09010KT 10SM FEW004 OVC029 16/15 A2958 RMK SF2SC6 SLP016

CYQB;2009-06-30 07:36;CYQB 300736Z 09009KT 10SM BKN004 OVC025 16/ RMK SF6SC2

CYQB;2009-06-30 08:00;CYQB 300800Z 09007KT 10SM BKN004 OVC027 15/14 A2959 RMK SF6SC2 SLP021

CYQB;2009-06-30 09:00;CYQB 300900Z 08006KT 5SM BR BKN004 OVC025 16/15 A2961 RMK SF7SC1 SLP026

CYQB;2009-06-30 10:00;CYQB 301000Z CCA 07011KT 6SM -DZ BR BKN003 OVC015 15/14 A2962 RMK SF6SC2 SLP032

CYQB;2009-06-30 11:00;CYQB 301100Z 08008KT 6SM BR BKN005 OVC020 16/15 A2964 RMK SF6SC2 SLP039

CYQB;2009-06-30 12:00;CYQB 301200Z 07012KT 8SM BKN004 BKN020 OVC080 16/15 A2965 RMK SF7SC1AC1 SLP041

CYQB;2009-06-30 12:21;CYQB 301221Z 07009KT 10SM BKN006 BKN020 BKN080 16/ RMK SF6SC1AC1

CYQB;2009-06-30 13:00;CYQB 301300Z 09010G15KT 12SM BKN006 BKN020 16/15 A2967 RMK SF7SC1 CIG VRB 4-8 SLP048

CYQB;2009-06-30 14:00;CYQB 301400Z 07011KT 15SM BKN007 BKN032 BKN080 18/15 A2968 RMK SF7SC1AC1 SLP052

CYQB;2009-06-30 15:00;CYQB 301500Z 08008G16KT 20SM BKN008 BKN025 BKN150 19/16 A2969 RMK SF5SC1AC1 SLP053

CYQB;2009-06-30 16:00;CYQB 301600Z 08011G17KT 20SM SCT008 BKN029 19/16 A2969 RMK SF4SC2 SLP054

CYQB;2009-06-30 17:00;CYQB 301700Z 09011KT 30SM FEW010 FEW030 SCT120 21/17 A2969 RMK SF1SC1AC3 SLP053

CYQB;2009-06-30 18:00;CYQB 301800Z 08013KT 30SM FEW010 FEW030TCU FEW120 22/17 A2969 RMK SF1TCU1AC1 SLP053

CYQB;2009-06-30 19:00;CYQB 301900Z 08012G17KT 30SM FEW010 FEW041TCU SCT110 BKN250 21/17 A2968 RMK SF1TCU1AC3CS0 SLP050

CYQB;2009-06-30 20:00;CYQB 302000Z 08012G19KT 30SM FEW020 SCT066TCU SCT110 BKN250 20/17 A2969 RMK SF1TCU2AC1CS1 SLP054

CYQB;2009-06-30 21:00;CYQB 302100Z 08014G19KT 30SM FEW020 SCT050 BKN120 BKN250 19/16 A2970 RMK SF1CU3AC2CI1 SLP059

CYQB;2009-06-30 22:00;CYQB 302200Z 08013G18KT 30SM FEW020 SCT100 18/15 A2971 RMK CU1CU3 SLP062

CYQB;2009-06-30 23:00;CYQB 302300Z 09011KT 15SM FEW015 FEW040TCU FEW110 18/15 A2972 RMK SF1TCU1AC1 SLP065

CYQB;2009-07-01 01:00;CYQB 010100Z 08014G21KT 15SM FEW012 FEW040 FEW110 17/14 A2975 RMK SC1SC1AC1 SLP075

CYQB;2009-07-01 02:00;CYQB 010200Z 09012KT 15SM FEW008 BKN011 BKN050 16/14 A2977 RMK SF1SC4SC1 SLP082

CYQB;2009-07-01 03:00;CYQB 010300Z 11013KT 15SM SCT008 BKN033 15/13 A2978 RMK SF3SC3 SLP087

CYQB;2009-07-01 04:00;CYQB 010400Z 10007G15KT 10SM BKN007 OVC032 15/13 A2980 RMK SF5SC3 SLP091

CYQB;2009-07-01 05:00;CYQB 010500Z 09010G18KT 10SM OVC005 14/13 A2979 RMK SF8 SLP089

CYQB;2009-07-01 05:42;CYQB 010542Z 07006KT 10SM OVC004 14/ RMK SC8

CYQB;2009-07-01 06:00;CYQB 010600Z 08008G15KT 10SM OVC004 14/13 A2979 RMK SF8 SLP089

CYQB;2009-07-01 07:00;CYQB 010700Z 08010KT 10SM OVC003 14/13 A2979 RMK SF8 SLP088

CYQB;2009-07-01 08:00;CYQB 010800Z 08010G15KT 10SM OVC003 14/13 A2980 RMK SF8 SLP091

CYQB;2009-07-01 09:00;CYQB 010900Z 09011KT 4SM BR OVC003 14/13 A2982 RMK SF8 SLP099

CYQB;2009-07-01 10:00;CYQB 011000Z 08009G19KT 4SM BR OVC003 14/13 A2982 RMK SF8 SLP100

CYQB;2009-07-01 11:00;CYQB 011100Z 07009G19KT 6SM BR OVC004 15/13 A2983 RMK SF8 SLP102

CYQB;2009-07-01 12:00;CYQB 011200Z 08008KT 8SM OVC005 16/14 A2984 RMK SF8 SLP106

CYQB;2009-07-01 13:00;CYQB 011300Z 09012KT 12SM OVC007 16/14 A2985 RMK SF8 CIG RAG SLP110

CYQB;2009-07-01 13:49;CYQB 011349Z 08011G19KT 15SM SCT009 BKN085 18/ RMK SF4AC3

CYQB;2009-07-01 14:00;CYQB 011400Z 09010G15KT 15SM FEW010 BKN085 BKN110 18/15 A2986 RMK SF1AC6AC1 SLP112

CYQB;2009-07-01 15:00;CYQB 011500Z 09010KT 20SM FEW012 FEW025 FEW085 BKN120 19/16 A2986 RMK SF1SC1AC2AC5 SLP114

CYQB;2009-07-01 16:00;CYQB 011600Z 08012KT 20SM FEW012 FEW030 BKN100 BKN120 20/16 A2986 RMK SF1CU1AC5AC2 SLP113

CYQB;2009-07-01 17:00;CYQB 011700Z 08012KT 20SM FEW030 SCT120 BKN200 21/17 A2985 RMK CU1AC3CS0 OBS TAKEN +8 SLP109

CYQB;2009-07-01 18:00;CYQB 011800Z 10009G16KT 30SM BKN056 BKN120 BKN200 19/16 A2985 RMK SC6AC1CS0 SLP110

CYQB;2009-07-01 19:00;CYQB 011900Z 08014KT 30SM FEW055 SCT090 BKN200 20/16 A2985 RMK CU2AC2CS0 SLP109

CYQB;2009-07-01 20:00;CYQB 012000Z 09011G16KT 20SM FEW010 SCT060TCU BKN110 19/15 A2985 RMK CF1TCU3AC2 SLP110

CYQB;2009-07-01 21:00;CYQB 012100Z 07010KT 20SM FEW060TCU OVC100 18/15 A2985 RMK TCU2AC6 SLP109

CYQB;2009-07-01 22:00;CYQB 012200Z 09009KT 20SM FEW020 OVC110 18/16 A2985 RMK CU1AC7 SLP110

CYQB;2009-07-01 23:00;CYQB 012300Z 07011KT 20SM FEW008 OVC110 18/15 A2986 RMK SC1AC7 SLP112

CYQB;2009-07-01 23:32;CYQB 012332Z 09010G15KT 10SM BKN006 OVC100 17/ RMK SF5AC3

CYQB;2009-07-02 00:00;CYQB 020000Z 09012G20KT 10SM BKN007 OVC120 17/15 A2987 RMK SF6AC2 SLP115

CYQB;2009-07-02 00:55;CYQB 020055Z 09010G15KT 10SM OVC005 17/ RMK SF8

CYQB;2009-07-02 01:00;CYQB 020100Z 09010G15KT 10SM OVC005 16/15 A2989 RMK SF8 SLP123

CYQB;2009-07-02 01:39;CYQB 020139Z 09011KT 10SM OVC004 16/ RMK SF8

CYQB;2009-07-02 02:00;CYQB 020200Z 10009KT 10SM OVC004 16/15 A2991 RMK ST8 SLP129

CYQB;2009-07-02 03:00;CYQB 020300Z 09011KT 10SM -DZ BKN005 OVC070 16/15 A2991 RMK ST7AC1 SLP129

CYQB;2009-07-02 03:30;CYQB 020330Z 09007KT 6SM -SHRA BKN005 OVC070 16/ RMK ST7AC1

CYQB;2009-07-02 04:00;CYQB 020400Z 09007KT 6SM -SHRA BKN005 OVC050 16/15 A2992 RMK ST7SC1 SLP132

CYQB;2009-07-02 05:00;CYQB 020500Z 08009KT 4SM SHRA BR BKN003 OVC065 15/15 A2992 RMK ST6SC2 SLP133

CYQB;2009-07-02 06:00;CYQB 020600Z 07010KT 1 1/2SM -SHRA BR OVC002 15/15 A2992 RMK ST8 RERA SLP131

CYQB;2009-07-02 07:00;CYQB 020700Z 08008KT 3SM -SHRA BR OVC004 15/14 A2992 RMK ST8 SLP131

CYQB;2009-07-02 08:00;CYQB 020800Z 07012KT 4SM BR OVC003 15/14 A2990 RMK ST8 SLP127

CYQB;2009-07-02 09:00;CYQB 020900Z 07006KT 2SM BR OVC003 15/14 A2992 RMK SF8 SLP133

CYQB;2009-07-02 10:00;CYQB 021000Z 07007KT 2SM BR OVC003 15/15 A2992 RMK SF8 SLP133

CYQB;2009-07-02 11:00;CYQB 021100Z 07007KT 2SM BR OVC003 15/15 A2992 RMK SF8 CIG VRB 2-4 SLP133

CYQB;2009-07-02 11:17;CYQB 021117Z 08005KT 1 1/2SM -RA BR OVC003 16/ RMK SF8 CIG VRB 2-4

CYQB;2009-07-02 12:00;CYQB 021200Z 08008KT 2SM BR OVC004 16/15 A2992 RMK SF8 INTMT -RA SLP133

CYQB;2009-07-02 12:19;CYQB 021219Z 07011KT 2SM BR OVC003 16/ RMK SF8

CYQB;2009-07-02 13:00;CYQB 021300Z 08011KT 2 1/2SM BR OVC004 17/16 A2992 RMK SF8 CIG VRB 3-5 SLP134

CYQB;2009-07-02 14:00;CYQB 021400Z 08013KT 4SM BR BKN006 BKN025 OVC060 17/15 A2992 RMK SF7SC1SC0 SLP133

CYQB;2009-07-02 15:00;CYQB 021500Z 07012KT 6SM BR SCT008 OVC040 19/16 A2991 RMK SF4SC3 SLP130

CYQB;2009-07-02 16:00;CYQB 021600Z 07012KT 10SM FEW011 BKN045 BKN060 19/16 A2992 RMK SF2SC5SC1 SLP132

CYQB;2009-07-02 17:00;CYQB 021700Z 08009G16KT 12SM FEW010 OVC054 19/16 A2991 RMK SF1SC7 SLP128

CYQB;2009-07-02 18:00;CYQB 021800Z 07013KT 12SM FEW010 OVC063 19/16 A2990 RMK SF2SC6 SLP127

CYQB;2009-07-02 19:00;CYQB 021900Z 07013KT 12SM FEW010 OVC054 19/16 A2990 RMK SF1SC8 SLP125

CYQB;2009-07-02 20:00;CYQB 022000Z 09010G15KT 10SM FEW008 OVC051 18/16 A2989 RMK SF2SC6 SLP124

CYQB;2009-07-02 20:37;CYQB 022037Z 09011G17KT 10SM -RA FEW008 OVC055 17/ RMK SF2SC6

CYQB;2009-07-02 21:00;CYQB 022100Z 09012KT 10SM -RA SCT008 OVC060 17/15 A2989 RMK SF3SC5 SLP123

CYQB;2009-07-02 22:00;CYQB 022200Z 09010G15KT 10SM -RA BKN006 OVC060 17/15 A2988 RMK SF6SC2 SLP120

CYQB;2009-07-02 22:28;CYQB 022228Z 07013KT 8SM -RA OVC004 17/ RMK SF8

CYQB;2009-07-02 23:00;CYQB 022300Z 07006KT 6SM -RA BR OVC004 17/16 A2987 RMK SF8 SLP117

CYQB;2009-07-03 00:00;CYQB 030000Z 08009KT 5SM -RA BR OVC004 16/15 A2987 RMK SF8 SLP116

CYQB;2009-07-03 01:00;CYQB 030100Z 09010G15KT 4SM -RA BR OVC004 16/15 A2987 RMK SF8 SLP117

CYQB;2009-07-03 02:00;CYQB 030200Z 10009KT 4SM -RA BR OVC005 16/15 A2987 RMK SF8 SLP115

CYQB;2009-07-03 03:00;CYQB 030300Z 08009G18KT 5SM -RA BR BKN005 OVC060 16/15 A2984 RMK SF6SC2 SLP107

CYQB;2009-07-03 04:00;CYQB 030400Z 07010KT 2SM -RA BR BKN003 BKN040 OVC060 16/15 A2984 RMK SF6SC1SC1 SLP105

CYQB;2009-07-03 05:00;CYQB 030500Z 07011G16KT 4SM -RA BR BKN004 OVC040 15/15 A2983 RMK SF7SC1 SLP102

CYQB;2009-07-03 05:38;CYQB 030538Z 07013KT 4SM -RA BR BKN003 OVC020 15/ RMK SF6SC2 CIG VRB 2-4

CYQB;2009-07-03 06:00;CYQB 030600Z 09010G18KT 2SM -RA BR OVC002 15/15 A2982 RMK SF8 SLP099

CYQB;2009-07-03 06:43;CYQB 030643Z 10006G17KT 3SM -RA BR BKN003 OVC020 15/ RMK SF6SC2

CYQB;2009-07-03 07:00;CYQB 030700Z 08008KT 2 1/2SM RA BR BKN003 OVC020 15/14 A2981 RMK FG1SF6SC2 SLP096

CYQB;2009-07-03 08:00;CYQB 030800Z 08009KT 2 1/2SM RA BR BKN003 OVC030 15/14 A2981 RMK FG1SF6SC2 SLP094

CYQB;2009-07-03 09:00;CYQB 030900Z 07011G16KT 4SM -RA BR BKN004 OVC030 15/14 A2979 RERA RMK SF6SC2 SLP090

CYQB;2009-07-03 10:00;CYQB 031000Z 08011KT 10SM -RA OVC004 16/15 A2978 RMK SF8 CIG RAG SLP086

CYQB;2009-07-03 11:00;CYQB 031100Z 09008KT 3SM -RA BR OVC003 16/15 A2978 RMK SF8 SLP087

CYQB;2009-07-03 12:00;CYQB 031200Z 08010G16KT 1 3/4SM -RA BR OVC005 16/15 A2978 RMK SF8 CIG VRB 3-7 SLP087

CYQB;2009-07-03 12:15;CYQB 031215Z 07011KT 1 1/4SM -RA BR OVC002 16/ RMK SF8 CIG VRB 1-4

CYQB;2009-07-03 13:00;CYQB 031300Z 09009KT 1 1/4SM -DZ BR OVC004 16/15 A2978 RMK SF8 CIG VRB 3-5 SLP085

CYQB;2009-07-03 14:00;CYQB 031400Z CCA 09008KT 1 1/2SM -DZ BR OVC005 16/16 A2977 RMK SF8 CIG VRB 3-7 SLP082

CYQB;2009-07-03 15:00;CYQB 031500Z 09009KT 2SM -DZ BR BKN004 OVC015 16/16 A2977 RMK SF7SC1 CIG VRB 3-5 SLP082

CYQB;2009-07-03 15:19;CYQB 031519Z 09007KT 2SM -SHRA BR BKN004 OVC015 16/ RMK SF7SC1 CIG VRB 3-5

CYQB;2009-07-03 16:00;CYQB 031600Z 09006KT 2SM -SHRA BR OVC004 17/16 A2977 RMK SF8 CIG VRB 3-5 SLP081

CYQB;2009-07-03 17:00;CYQB 031700Z 09008KT 4SM BR BKN004 OVC014 17/16 A2976 RMK SF7SC1 SLP080

CYQB;2009-07-03 18:00;CYQB 031800Z 09008KT 5SM BR BKN009 OVC030 18/16 A2975 RMK SF7SC1 SLP075

CYQB;2009-07-03 19:00;CYQB 031900Z 07008KT 15SM BKN014 BKN027 BKN060 20/17 A2974 RMK SF6SC1SC1 SLP070

CYQB;2009-07-03 20:00;CYQB 032000Z 06009KT 15SM SCT012 BKN056 BKN090 20/17 A2973 RMK SF3SC2AC2 SLP067

CYQB;2009-07-03 21:00;CYQB 032100Z 07010KT 15SM -SHRA SCT010 BKN030 BKN090 19/17 A2972 RMK SF4SC1AC1 SLP064

CYQB;2009-07-03 21:23;CYQB 032123Z 09009KT 15SM SCT010 BKN030 BKN230 19/ RMK SF3SC2CI2

CYQB;2009-07-03 22:00;CYQB 032200Z 08010KT 15SM BKN009 BKN030 BKN100 18/15 A2973 RMK SF6SC1AC1 SLP069

CYQB;2009-07-03 22:44;CYQB 032244Z 10008KT 15SM BKN005 OVC030 17/ RMK SF7SC1

CYQB;2009-07-03 22:49;CYQB 032249Z 09007KT 15SM -SHRA BKN005 OVC030 16/ RMK SF7SC1

CYQB;2009-07-03 23:00;CYQB 032300Z 11007KT 6SM -SHRA BR OVC006 16/15 A2974 RMK SF8 CIG VRB 5-7 SLP070

CYQB;2009-07-04 00:00;CYQB 040000Z 08003KT 4SM -SHRA BR OVC005 16/15 A2973 RMK SF8 CIG VRB 4-7 SLP069

CYQB;2009-07-04 01:00;CYQB 040100Z 09004KT 4SM -SHRA BR OVC004 16/15 A2971 RMK SF8 SLP062

CYQB;2009-07-04 02:00;CYQB 040200Z 09010KT 4SM BR OVC003 16/15 A2973 RMK SF8 CIG VRB 2-4 SLP067

CYQB;2009-07-04 03:00;CYQB 040300Z 07006KT 4SM BR OVC002 15/15 A2972 RMK ST8 SLP065

CYQB;2009-07-04 04:00;CYQB 040400Z 07003KT 4SM BR OVC003 15/14 A2971 RMK ST8 SLP062

CYQB;2009-07-04 05:00;CYQB 040500Z 07006KT 3SM BR OVC002 15/14 A2970 RMK ST8 SLP058

CYQB;2009-07-04 06:00;CYQB 040600Z 07005KT 3SM BR OVC002 15/14 A2969 RMK ST8 SLP053

CYQB;2009-07-04 07:00;CYQB 040700Z 09004KT 3SM BR OVC003 15/14 A2968 RMK ST8 SLP052

CYQB;2009-07-04 08:00;CYQB 040800Z 08005KT 8SM OVC003 15/14 A2967 RMK ST8 SLP047

CYQB;2009-07-04 09:00;CYQB 040900Z 09008KT 3SM BR OVC003 15/14 A2966 RMK ST8 SLP043

CYQB;2009-07-04 10:00;CYQB 041000Z 07006KT 1SM R06/P6000FT/U BR OVC002 15/14 A2965 RMK ST8 SLP041

CYQB;2009-07-04 11:00;CYQB 041100Z 09007KT 2SM BR OVC002 15/14 A2965 RMK ST8 SLP040

CYQB;2009-07-04 12:00;CYQB 041200Z 07005KT 2SM BR OVC003 15/14 A2964 RMK ST8 SLP039

CYQB;2009-07-04 13:00;CYQB 041300Z 08007KT 6SM BR OVC004 16/14 A2964 RMK ST8 SLP036

CYQB;2009-07-04 14:00;CYQB 041400Z 07005KT 6SM BR OVC005 16/15 A2962 RMK ST8 SLP032

CYQB;2009-07-04 15:00;CYQB 041500Z 07007KT 6SM BR OVC007 17/15 A2961 RMK ST8 SLP029

CYQB;2009-07-04 16:00;CYQB 041600Z 09005KT 8SM -RA BKN007 BKN038 18/16 A2960 RMK SF6SC2 SLP025

CYQB;2009-07-04 17:00;CYQB 041700Z 10003KT 8SM OVC008 18/16 A2960 RMK SF8 SLP023

CYQB;2009-07-04 17:29;CYQB 041729Z 19004KT 2SM R06/5000FT/N -RA BKN008 OVC028 17/16 RMK SF6SC2

CYQB;2009-07-04 17:35;CYQB 041735Z 18003KT 1 1/2SM R06/5000FT/N RA BR BKN008 OVC019 17/16 RMK SF7SC1

CYQB;2009-07-04 18:00;CYQB 041800Z 25010KT 2SM -SHRA BR BKN009 OVC020 17/15 A2960 RMK SF7SC1 SLP025

CYQB;2009-07-04 19:00;CYQB 041900Z 24012KT 1SM R06/P6000FT/N -SHRA BR BKN009 OVC020 16/15 A2962 RMK SF7SC1 SLP030

CYQB;2009-07-04 19:51;CYQB 041951Z 25010KT 3SM -SHRA BR SCT009 BKN010 OVC020 16/ RMK SF4SC2SC2

CYQB;2009-07-04 20:00;CYQB 042000Z 25012KT 3SM -SHRA BR SCT009 BKN010 OVC020 16/15 A2962 RMK SF4SC2SC2 SLP031

CYQB;2009-07-04 21:00;CYQB 042100Z 26013KT 6SM -SHRA BR BKN020 OVC050 16/14 A2962 RMK SC5SC3 SLP031

CYQB;2009-07-04 22:00;CYQB 042200Z 25010KT 6SM -SHRA BR SCT020 OVC055 15/14 A2963 RMK SC3SC5 SLP034

CYQB;2009-07-04 23:00;CYQB 042300Z 26011KT 5SM -SHRA BR BKN030 OVC060 15/14 A2964 RMK SC5SC3 SLP037

CYQB;2009-07-05 00:00;CYQB 050000Z CCA 24010KT 15SM -SHRA VCFG FEW010 BKN031 OVC050 14/13 A2964 RMK SF1SC5SC2 FST LYR TPG A FEW HILLS. VIS W 5 IN BR SLP037

CYQB;2009-07-05 01:00;CYQB 050100Z 23013KT 15SM FEW020 BKN030 OVC050 14/13 A2964 RMK SF1SC6SC2 DIST FG NE SLP038

CYQB;2009-07-05 02:00;CYQB 050200Z 25015KT 15SM FEW020 BKN048 OVC075 14/12 A2965 RMK SF2SC6AC1 SLP040

CYQB;2009-07-05 03:00;CYQB 050300Z 25013KT 15SM FEW020 BKN048 OVC075 14/12 A2966 RMK SF2SC6AC1 SLP043

CYQB;2009-07-05 03:06;CYQB 050306Z 25013KT 15SM -SHRA FEW020 BKN048 OVC075 14/ RMK SF2SC5AC1

CYQB;2009-07-05 03:40;CYQB 050340Z 25012KT 15SM FEW025 BKN048 OVC075 14/ RMK SF1SC6AC1

CYQB;2009-07-05 04:00;CYQB 050400Z 25013KT 15SM FEW025 BKN048 OVC075 14/12 A2966 RMK SC2SC5AC2 SLP043

CYQB;2009-07-05 05:00;CYQB 050500Z 25012KT 15SM -SHRA FEW025 BKN050 OVC075 13/11 A2966 RMK SC2SC5AC1 SLP044

CYQB;2009-07-05 06:00;CYQB 050600Z 25012KT 15SM -SHRA FEW025 BKN050 OVC075 13/12 A2966 RMK SC2SC5AC2 SLP044

CYQB;2009-07-05 07:00;CYQB 050700Z 25012KT 15SM BKN043 BKN056 13/11 A2966 RMK SC5SC2 SLP045

CYQB;2009-07-05 08:00;CYQB 050800Z 25012KT 15SM FEW015 BKN048 13/11 A2967 RMK SC1SC6 SLP046

CYQB;2009-07-05 09:00;CYQB 050900Z 25014KT 15SM FEW015 BKN053 OVC090 13/11 A2968 RMK SF1SC6AS2 SLP051

CYQB;2009-07-05 09:52;CYQB 050952Z 25013KT 10SM -SHRA FEW015 BKN055 13/ RMK SF1SC6

CYQB;2009-07-05 10:00;CYQB 051000Z 24013KT 10SM -SHRA FEW013 BKN056 BKN090 13/11 A2968 RMK SF1SC6AC1 SLP053

CYQB;2009-07-05 10:25;CYQB 051025Z 25010KT 30SM FEW013 BKN056 BKN120 13/ RMK SF1SC5AC2 SH N QUAD

CYQB;2009-07-05 11:00;CYQB 051100Z 25013KT 30SM FEW013 BKN052 BKN120 13/12 A2969 RMK SF1SC6AC2 SLP056

CYQB;2009-07-05 12:00;CYQB 051200Z 25013KT 30SM FEW013 BKN050 BKN120 15/12 A2970 RMK SF1SC6AC2 SLP059

CYQB;2009-07-05 13:00;CYQB 051300Z 26012KT 30SM FEW013 BKN043 BKN120 16/13 A2971 RMK SF1SC6AC1 SLP063

CYQB;2009-07-05 14:00;CYQB 051400Z 25013KT 20SM FEW015 BKN046 BKN120 17/13 A2972 RMK SF2SC6AC1 SLP065

CYQB;2009-07-05 15:00;CYQB 051500Z 25014KT 30SM FEW015 BKN043 BKN120 18/14 A2972 RMK SF1SC7AC1 SLP066

CYQB;2009-07-05 16:00;CYQB 051600Z 25012G18KT 30SM FEW021 BKN042 18/13 A2972 RMK SC2SC5 SLP064

CYQB;2009-07-05 17:00;CYQB 051700Z 26016KT 30SM SCT025 BKN047 BKN120 19/13 A2972 RMK SC3SC4AC1 SLP065

CYQB;2009-07-05 18:00;CYQB 051800Z 26019KT 30SM FEW025 SCT050 BKN070 20/14 A2972 RMK SC2SC2AC2 SLP063

CYQB;2009-07-05 19:00;CYQB 051900Z 27017KT 30SM FEW030 SCT045 BKN080 21/14 A2972 RMK SC2SC2AC3 SLP064

CYQB;2009-07-05 20:00;CYQB 052000Z 27013G19KT 30SM FEW035 BKN070 BKN120 20/13 A2972 RMK SC2AC4AC1 SLP065

CYQB;2009-07-05 21:00;CYQB 052100Z 27015KT 30SM FEW050 BKN070 BKN120 20/14 A2973 RMK SC2AC2AC1 DIST TCU ASOCT E SLP068

CYQB;2009-07-05 22:00;CYQB 052200Z 29010G15KT 30SM FEW055 BKN073 BKN120 19/12 A2973 RMK SC2AC3AC1 TCU ASOCTD E SLP069

CYQB;2009-07-05 23:00;CYQB 052300Z 31005KT 30SM BKN071 BKN120 19/11 A2975 RMK AC6AC1 OBS TAKEN +18 SLP075

CYQB;2009-07-06 00:00;CYQB 060000Z 30004KT 30SM BKN079 18/12 A2976 RMK AC7 SLP078

CYQB;2009-07-06 01:00;CYQB 060100Z 31002KT 30SM BKN100 18/12 A2977 RMK AC6 SLP080

CYQB;2009-07-06 02:00;CYQB 060200Z 25003KT 15SM FEW080 BKN100 16/12 A2978 RMK AC2AC3 SLP084

CYQB;2009-07-06 03:00;CYQB 060300Z 29005KT 15SM SCT100 14/12 A2978 RMK AC3 SLP085

CYQB;2009-07-06 04:00;CYQB 060400Z 00000KT 15SM FEW012 SCT100 13/11 A2978 RMK ST1AC3 SLP086

CYQB;2009-07-06 05:00;CYQB 060500Z 02004KT 15SM SCT007 BKN100 15/12 A2978 RMK ST3AC2 SLP086

CYQB;2009-07-06 06:00;CYQB 060600Z 02004KT 15SM BKN007 14/13 A2978 RMK ST4 SLP084

CYQB;2009-07-06 07:00;CYQB 060700Z 02003KT 15SM SCT006 BKN200 13/11 A2978 RMK ST3CI1 SLP085

CYQB;2009-07-06 08:00;CYQB 060800Z 36004KT 15SM BKN009 13/11 A2978 RMK ST7 SLP086

CYQB;2009-07-06 09:00;CYQB 060900Z 04003KT 15SM BKN008 OVC014 13/11 A2979 RMK ST7SC1 SLP089

CYQB;2009-07-06 10:00;CYQB 061000Z 02004KT 25SM BKN006 BKN014 13/11 A2980 RMK SF6SC1 SLP093

CYQB;2009-07-06 11:00;CYQB 061100Z 04007KT 25SM FEW006 FEW013 BKN250 15/12 A2980 RMK SF1SF1CI1 SLP091

CYQB;2009-07-06 12:00;CYQB 061200Z 07009KT 25SM BKN012 BKN250 16/13 A2981 RMK SF6CI1 SLP096

CYQB;2009-07-06 13:00;CYQB 061300Z 08008KT 25SM BKN013 BKN250 17/13 A2981 RMK SF7CI1 SLP096

CYQB;2009-07-06 14:00;CYQB 061400Z 07011KT 25SM BKN015 BKN250 18/14 A2981 RMK SF6CI1 SLP095

CYQB;2009-07-06 15:00;CYQB 061500Z 07013KT 30SM SCT019 BKN085 BKN250 18/13 A2981 RMK SF4AC1CI1 SLP096

CYQB;2009-07-06 16:00;CYQB 061600Z 09013KT 30SM SCT018 BKN085 BKN250 18/13 A2981 RMK CU3AC2CI1 SLP095

CYQB;2009-07-06 17:00;CYQB 061700Z 08009G15KT 30SM FEW018 BKN085 BKN220 18/14 A2979 RMK CU2AC3CI1 SLP090

CYQB;2009-07-06 18:00;CYQB 061800Z 09011KT 30SM FEW020TCU BKN120 BKN220 19/14 A2978 RMK TCU1AC5CI1 SLP085

CYQB;2009-07-06 19:00;CYQB 061900Z 07015KT 30SM FEW020TCU BKN110 BKN220 18/14 A2979 RMK TCU1AC4CI1 SLP089

CYQB;2009-07-06 20:00;CYQB 062000Z 10012G17KT 30SM FEW035TCU BKN110 BKN230 16/13 A2979 RMK TCU2AC2CI0 SLP088

CYQB;2009-07-06 20:15;CYQB 062015Z 09016G21KT 30SM -SHRA FEW025TCU BKN070 BKN230 16/ RMK TCU2AC2CI0

CYQB;2009-07-06 21:00;CYQB 062100Z 09011G20KT 30SM FEW025CB SCT070 SCT230 16/13 A2978 RMK CB2AC1CI1 ANVIL W+N QUAD SLP085

CYQB;2009-07-06 22:00;CYQB 062200Z 09011G17KT 30SM FEW025CB BKN100 15/11 A2980 RMK CB2AC4 ANVIL W-N QUAD SLP091

CYQB;2009-07-06 22:35;CYQB 062235Z 10008KT 15SM -SHRA SCT025CB BKN070 14/ RMK CB4AC3

CYQB;2009-07-06 23:00;CYQB 062300Z 09007KT 15SM -SHRA SCT025CB BKN070 BKN090 14/11 A2981 RMK CB4AC2AC1 SLP095

CYQB;2009-07-07 00:00;CYQB 070000Z 09008KT 15SM -SHRA SCT025TCU BKN090 13/11 A2981 RMK TCU4AC3 SLP096

CYQB;2009-07-07 01:00;CYQB 070100Z 07013G18KT 15SM SCT025 BKN070 BKN200 13/11 A2982 RMK SC3AC2CI0 SLP099

CYQB;2009-07-07 02:00;CYQB 070200Z 07008KT 15SM FEW025 BKN072 BKN180 12/11 A2984 RMK SC2AC3CI2 SLP105

CYQB;2009-07-07 02:53;CYQB 070253Z 07013KT 15SM -SHRA FEW025 BKN065 BKN090 OVC180 13/ RMK SC2SC2AC2CI2

CYQB;2009-07-07 03:00;CYQB 070300Z 08011G16KT 15SM -SHRA FEW025 BKN065 BKN088 OVC180 12/11 A2983 RMK SC2SC2AC2CI2 SLP103

CYQB;2009-07-07 04:00;CYQB 070400Z 07010KT 15SM -SHRA FEW025 SCT060 BKN090 OVC180 12/11 A2983 RMK CF2SC2AC3CI1 SLP101

CYQB;2009-07-07 04:40;CYQB 070440Z 08007KT 15SM SCT009 BKN019 OVC060 12/ RMK SF4SC2SC2

CYQB;2009-07-07 05:00;CYQB 070500Z 07008KT 15SM -DZ BKN009 BKN019 OVC055 13/12 A2983 RMK SF5SC2SC1 SLP102

CYQB;2009-07-07 06:00;CYQB 070600Z 08013KT 15SM -DZ BKN009 OVC042 12/12 A2982 RMK SF6SC2 SLP100

CYQB;2009-07-07 06:17;CYQB 070617Z 08009KT 15SM BKN007 OVC042 13/ RMK SF6SC2

CYQB;2009-07-07 06:56;CYQB 070656Z 07011KT 12SM -SHRA BKN005 OVC060 13/ RMK SF7SC1

CYQB;2009-07-07 07:00;CYQB 070700Z 07012KT 12SM -SHRA BKN005 OVC064 13/12 A2981 RMK SF7SC1 SLP097

CYQB;2009-07-07 08:00;CYQB 070800Z 08012G18KT 15SM BKN005 OVC020 13/13 A2981 RMK SF6SC2 SLP096

CYQB;2009-07-07 09:00;CYQB 070900Z 10005KT 15SM BKN005 OVC020 13/13 A2982 RMK SF7SC1 SLP098

CYQB;2009-07-07 10:00;CYQB 071000Z 07011G17KT 10SM BKN006 BKN020 13/12 A2981 RMK SF6SC1 SLP097

CYQB;2009-07-07 11:00;CYQB 071100Z 07013KT 12SM BKN005 BKN020 13/13 A2983 RMK SF7SC1 SLP102

CYQB;2009-07-07 12:00;CYQB 071200Z 07013KT 12SM BKN007 OVC020 13/12 A2983 RMK SF7SC1 SLP103

CYQB;2009-07-07 13:00;CYQB 071300Z 07009G16KT 12SM SCT007 OVC025 15/13 A2984 RMK SF4SC4 SLP106

CYQB;2009-07-07 14:00;CYQB 071400Z 08007G16KT 15SM SCT010 BKN030 16/14 A2983 RMK SF4SC3 SLP102

CYQB;2009-07-07 15:00;CYQB 071500Z 09011G17KT 15SM SCT012 BKN041 17/14 A2983 RMK SF4SC3 SLP103

CYQB;2009-07-07 16:00;CYQB 071600Z 08012KT 20SM BKN017 BKN041 17/15 A2983 RMK SF5SC2 SLP102

CYQB;2009-07-07 17:00;CYQB 071700Z 07012G17KT 20SM -SHRA BKN017 BKN051 OVC085 17/15 A2982 RMK SF5SC2AC1 SLP100

CYQB;2009-07-07 18:00;CYQB 071800Z 08012KT 8SM -SHRA SCT012 OVC019 16/15 A2982 RMK SC3SC5 SLP099

CYQB;2009-07-07 19:00;CYQB 071900Z 07010KT 8SM -SHRA SCT010 OVC022 16/15 A2983 RMK SF4SC4 SLP101

CYQB;2009-07-07 20:00;CYQB 072000Z 06010KT 8SM -SHRA FEW010 BKN022 OVC026 15/15 A2983 RMK SF2SC6SC1 SLP103

CYQB;2009-07-07 21:00;CYQB 072100Z 07016KT 8SM FEW008 OVC015 15/14 A2984 RMK SF2SC6 OCNL -SHRA SLP105

CYQB;2009-07-07 21:40;CYQB 072140Z 07011G17KT 12SM FEW008 BKN013 OVC020 15/ RMK SF2SC5SC1 RAG CIG

CYQB;2009-07-07 22:00;CYQB 072200Z 07014KT 12SM FEW008 OVC020 15/14 A2984 RMK SF2SC6 SLP107

CYQB;2009-07-07 22:38;CYQB 072238Z 08011G17KT 8SM -SHRA FEW008 SCT014 OVC030 14/ RMK SF2SC2SC4

CYQB;2009-07-07 23:00;CYQB 072300Z 07013KT 6SM -SHRA SCT008 BKN017 OVC026 14/13 A2985 RMK SF4SC2SC2 SLP110

CYQB;2009-07-08 00:00;CYQB 080000Z 07013G18KT 8SM -SHRA BKN008 OVC020 14/13 A2986 RMK SF5SC3 SLP112

CYQB;2009-07-08 01:00;CYQB 080100Z 09008KT 5SM -SHRA BR SCT004 BKN008 OVC017 14/13 A2986 RMK SF4SF3SC1 SLP114

CYQB;2009-07-08 02:00;CYQB 080200Z 07012KT 12SM -SHRA FEW005 SCT008 OVC019 14/13 A2986 RMK SF1ST3SC4 SLP114

CYQB;2009-07-08 02:19;CYQB 080219Z 07011KT 15SM FEW005 SCT008 OVC018 14/ RMK SF1ST2SC5

CYQB;2009-07-08 03:00;CYQB 080300Z 08010KT 15SM FEW009 OVC019 14/13 A2988 RMK SF2SC6 SLP120

CYQB;2009-07-08 04:00;CYQB 080400Z 07009KT 15SM FEW008 OVC021 14/12 A2989 RMK SF2SC6 SLP121

CYQB;2009-07-08 05:00;CYQB 080500Z 07011KT 15SM FEW009 BKN015 OVC021 14/12 A2989 RMK SF2SC4SC2 SLP124

CYQB;2009-07-08 05:34;CYQB 080534Z 07007KT 15SM -SHRA SCT009 OVC018 14/ RMK SF3SC5

CYQB;2009-07-08 06:00;CYQB 080600Z 07008KT 15SM -SHRA SCT009 OVC026 13/13 A2990 RMK SF4SC4 SLP126

CYQB;2009-07-08 07:00;CYQB 080700Z 06008KT 15SM -SHRA SCT009 BKN018 OVC023 13/12 A2990 RMK SF4SC3SC1 SLP127

CYQB;2009-07-08 08:00;CYQB 080800Z 07009KT 15SM -SHRA FEW011 BKN021 OVC035 13/12 A2990 RMK SF2SC4SC2 SLP126

CYQB;2009-07-08 09:00;CYQB 080900Z 07008KT 15SM SCT010 OVC021 14/12 A2991 RMK SF4SC4 SLP128

CYQB;2009-07-08 10:00;CYQB 081000Z 07007KT 15SM BKN010 OVC021 14/12 A2992 RMK SF6SC2 SLP131

CYQB;2009-07-08 11:00;CYQB 081100Z 06010KT 15SM BKN009 BKN025 OVC030 14/13 A2993 RMK SF6SC1SC1 SLP136

CYQB;2009-07-08 12:00;CYQB 081200Z 07012KT 15SM BKN011 OVC023 14/12 A2994 RMK SF7SC1 SLP140

CYQB;2009-07-08 13:00;CYQB 081300Z 07009G15KT 15SM BKN012 BKN024 OVC036 15/13 A2996 RMK SF6SC1SC1 SLP146

CYQB;2009-07-08 14:00;CYQB 081400Z 08014KT 25SM OVC019 15/12 A2997 RMK SC8 CIG RAG SLP151

CYQB;2009-07-08 15:00;CYQB 081500Z 08006KT 25SM BKN015 OVC022 15/12 A3000 RMK SC7SC1 SLP159

CYQB;2009-07-08 15:34;CYQB 081534Z 07011G16KT 15SM -SHRA BKN015 OVC021 16/ RMK SC7SC1 TCU ASOCTD

CYQB;2009-07-08 16:00;CYQB 081600Z 07010G15KT 25SM BKN017 OVC100 16/13 A3000 RMK SC7AC1 SLP161

CYQB;2009-07-08 17:00;CYQB 081700Z 07012KT 25SM BKN024 OVC080 16/13 A3001 RMK SC7AC1 SLP164

CYQB;2009-07-08 18:00;CYQB 081800Z 07010KT 25SM BKN020 BKN041 17/13 A3001 RMK SC7SC1 SLP164

CYQB;2009-07-08 19:00;CYQB 081900Z 10009KT 25SM BKN024 17/14 A3002 RMK SC7 CIG VRB 18-30 SLP167

CYQB;2009-07-08 20:00;CYQB 082000Z 09012KT 25SM SCT020 BKN045 18/14 A3002 RMK CU3SC3 SLP167

CYQB;2009-07-08 21:00;CYQB 082100Z 08009KT 30SM FEW024 FEW045 SCT110 19/13 A3003 RMK CU2SC1AC1 SLP169

CYQB;2009-07-08 22:00;CYQB 082200Z 08007KT 30SM FEW024 FEW045 SCT120 BKN230 19/13 A3003 RMK CU2SC1AC1CI0 TCU SW SLP170

CYQB;2009-07-08 23:00;CYQB 082300Z 07006KT 30SM FEW024 FEW045TCU BKN100 BKN230 18/13 A3005 RMK CU1TCU2AC5CI1 SLP175

CYQB;2009-07-09 00:00;CYQB 090000Z 07005KT 30SM FEW045 BKN100 18/13 A3006 RMK SC1AC6 SLP180

CYQB;2009-07-09 01:00;CYQB 090100Z 00000KT 20SM FEW045 FEW100 16/12 A3007 RMK SC1AC2 SLP184

CYQB;2009-07-09 02:00;CYQB 090200Z 00000KT 15SM FEW100 14/13 A3009 RMK AC1 SLP192

CYQB;2009-07-09 03:00;CYQB 090300Z 00000KT 15SM FEW083 13/12 A3011 RMK AC1 SLP196

CYQB;2009-07-09 04:00;CYQB 090400Z 01002KT 15SM FEW085 13/12 A3012 RMK AC1 SLP201

CYQB;2009-07-09 05:00;CYQB 090500Z 36003KT 15SM FEW030 FEW078 13/12 A3013 RMK SC1AC1 SLP205

CYQB;2009-07-09 06:00;CYQB 090600Z 36004KT 15SM FEW030 12/11 A3015 RMK SC1 SLP210

CYQB;2009-07-09 07:00;CYQB 090700Z 03005KT 15SM FEW010 12/11 A3015 RMK ST1 SLP211

CYQB;2009-07-09 08:00;CYQB 090800Z 35004KT 15SM FEW010 12/10 A3016 RMK ST1 SLP215

CYQB;2009-07-09 09:00;CYQB 090900Z 34004KT 20SM FEW008 11/10 A3018 RMK ST1 SLP221

CYQB;2009-07-09 10:00;CYQB 091000Z 34006KT 20SM FEW008 12/10 A3019 RMK ST1 SLP224

CYQB;2009-07-09 11:00;CYQB 091100Z CCA 00000KT 25SM FEW008 FEW020 FEW250 14/11 A3020 RMK SF1SC1CI1 SLP228

CYQB;2009-07-09 11:25;CYQB 091125Z 00000KT 30SM VCFG FEW003 FEW020 FEW250 14/ RMK SF1CF1CI1 BCFG NW

CYQB;2009-07-09 12:00;CYQB 091200Z 23004KT 30SM VCFG FEW005 FEW025 FEW250 15/13 A3022 RMK SF1CF1CI1 BCFG NW SLP235

CYQB;2009-07-09 13:00;CYQB 091300Z 21004KT 30SM FEW010 FEW025 17/14 A3022 RMK SF1CF1 SLP233

CYQB;2009-07-09 14:00;CYQB 091400Z 24004KT 30SM FEW020TCU 19/15 A3022 RMK TCU1 SLP236

CYQB;2009-07-09 15:00;CYQB 091500Z CCA 23004KT 30SM FEW030TCU 21/14 A3022 RMK TCU1 WND ESTD SLP233

CYQB;2009-07-09 16:00;CYQB 091600Z 22007KT 30SM FEW038TCU 22/13 A3021 RMK TCU1 TCU N SLP230

CYQB;2009-07-09 17:00;CYQB 091700Z 22007KT 30SM FEW050TCU 23/10 A3020 RMK TCU1 SLP227

CYQB;2009-07-09 18:00;CYQB 091800Z 25003KT 30SM FEW057TCU FEW230 24/09 A3020 RMK TCU1CS0 SLP228

CYQB;2009-07-09 19:00;CYQB 091900Z 23007KT 30SM FEW052TCU 25/11 A3020 RMK TCU1 SLP228

CYQB;2009-07-09 20:00;CYQB 092000Z 27006KT 30SM FEW050TCU FEW160 25/10 A3019 RMK TCU2AC1 SLP226

CYQB;2009-07-09 21:00;CYQB 092100Z 26002KT 30SM FEW050TCU FEW160 25/09 A3019 RMK TCU1AC1 SLP226

CYQB;2009-07-09 22:00;CYQB 092200Z 28005KT 30SM FEW050TCU FEW110 25/12 A3019 RMK TCU1AC1 SLP223

CYQB;2009-07-09 23:00;CYQB 092300Z 27004KT 30SM FEW050TCU FEW110 24/12 A3019 RMK TCU1AC1 SLP223

CYQB;2009-07-10 00:00;CYQB 100000Z 28003KT 30SM FEW050 FEW160 21/13 A3019 RMK CU1AC1 SLP223

CYQB;2009-07-10 01:00;CYQB 100100Z 29002KT 30SM FEW150 19/13 A3020 RMK AC1 SLP226

CYQB;2009-07-10 02:00;CYQB 100200Z 00000KT 30SM FEW210 18/12 A3021 RMK CI1 SLP229

CYQB;2009-07-10 03:00;CYQB 100300Z 00000KT 15SM SKC 16/13 A3022 RMK SLP235

CYQB;2009-07-10 04:00;CYQB 100400Z 02004KT 15SM SCT100 17/13 A3023 RMK AC0 SLP238

CYQB;2009-07-10 05:00;CYQB 100500Z 00000KT 15SM FEW100 14/13 A3025 RMK AC1 SLP244

CYQB;2009-07-10 06:00;CYQB 100600Z 01003KT 15SM SKC 15/13 A3024 RMK SLP241

CYQB;2009-07-10 07:00;CYQB 100700Z 00000KT 15SM SKC 13/12 A3026 RMK SLP247

CYQB;2009-07-10 08:00;CYQB 100800Z 00000KT 20SM FEW080 14/12 A3028 RMK AC1 SLP252

CYQB;2009-07-10 09:00;CYQB 100900Z 00000KT 30SM FEW076 FEW220 12/11 A3029 RMK AC1CI0 SLP257

CYQB;2009-07-10 10:00;CYQB 101000Z 00000KT 30SM FEW020 FEW070 13/11 A3030 RMK SC1AC1 SLP260

CYQB;2009-07-10 11:00;CYQB 101100Z 25004KT 20SM FEW020 FEW070 15/14 A3030 RMK SC1AC1 SLP262

CYQB;2009-07-10 12:00;CYQB 101200Z 23004KT 20SM FEW020 FEW070 FEW240 17/14 A3029 RMK CU1AC1CI1 SLP258

CYQB;2009-07-10 13:00;CYQB 101300Z 21004KT 20SM FEW030 FEW240 19/15 A3028 RMK CU1CI1 SLP256

CYQB;2009-07-10 14:00;CYQB 101400Z 21008KT 30SM FEW220 21/13 A3027 RMK CI0 SLP250

CYQB;2009-07-10 15:00;CYQB 101500Z 21008KT 50SM FEW038 BKN220 23/13 A3024 RMK CU1CI0 SLP242

CYQB;2009-07-10 16:00;CYQB 101600Z 26012KT 50SM FEW046 SCT220 25/13 A3023 RMK CU1CI0 SLP237

CYQB;2009-07-10 17:00;CYQB 101700Z 22011G17KT 50SM FEW046 BKN220 25/14 A3022 RMK CU1CI0 SLP235

CYQB;2009-07-10 18:00;CYQB 101800Z 27011KT 50SM FEW046 BKN220 26/14 A3021 RMK CU1CI0 SLP230

CYQB;2009-07-10 19:00;CYQB 101900Z 26012KT 50SM FEW050 BKN220 25/13 A3020 RMK CU2CI0 SLP226

CYQB;2009-07-10 20:00;CYQB 102000Z 23009KT 50SM FEW060 BKN220 26/13 A3018 RMK CU1CI0 SLP220

CYQB;2009-07-10 21:00;CYQB 102100Z 26010KT 50SM FEW060 SCT220 26/14 A3016 RMK CU1CI0 SLP214

CYQB;2009-07-10 22:00;CYQB 102200Z CCA 27005KT 50SM FEW060 BKN220 25/14 A3015 RMK CU1CI1 OBS TAKEN +11 SLP209

CYQB;2009-07-10 23:00;CYQB 102300Z 27004KT 50SM FEW060 BKN220 24/14 A3014 RMK SC1CI2 SLP207

CYQB;2009-07-11 00:00;CYQB 110000Z 28003KT 30SM FEW060 BKN220 22/15 A3014 RMK SC1CI3 SLP206

CYQB;2009-07-11 01:00;CYQB 110100Z 27003KT 30SM FEW050 BKN220 20/15 A3014 RMK SC1CI2 SLP206

CYQB;2009-07-11 02:00;CYQB 110200Z 00000KT 15SM FEW075 BKN220 18/15 A3014 RMK AC1CI2 SLP206

CYQB;2009-07-11 03:00;CYQB 110300Z 00000KT 15SM FEW082 FEW220 17/14 A3013 RMK AC1CI0 SLP203

CYQB;2009-07-11 04:00;CYQB 110400Z 01002KT 15SM FEW062 BKN220 16/14 A3013 RMK SC1CI0 SLP202

CYQB;2009-07-11 05:00;CYQB 110500Z 02002KT 15SM SCT220 17/13 A3012 RMK CI0 SLP199

CYQB;2009-07-11 06:00;CYQB 110600Z 01003KT 15SM FEW080 FEW220 16/13 A3011 RMK AC1CI0 SLP197

CYQB;2009-07-11 07:00;CYQB 110700Z 01003KT 15SM FEW062 FEW220 16/13 A3010 RMK SC1CI0 SLP192

CYQB;2009-07-11 08:00;CYQB 110800Z 01003KT 15SM FEW080 BKN220 15/13 A3009 RMK AC1CI1 SLP190

CYQB;2009-07-11 09:00;CYQB 110900Z 01002KT 30SM FEW085 BKN220 15/13 A3008 RMK AC2CI1 SLP186

CYQB;2009-07-11 10:00;CYQB 111000Z 01003KT 20SM FEW060 SCT090 BKN220 15/13 A3008 RMK CU1AC2CI1 SLP188

CYQB;2009-07-11 11:00;CYQB 111100Z 05003KT 20SM FEW060 SCT090 OVC220 17/14 A3007 RMK CU1AC2CI2 SLP182

CYQB;2009-07-11 12:00;CYQB 111200Z 00000KT 20SM FEW060 FEW090 OVC220 19/14 A3006 RMK CU1AC2CI6 SLP178

CYQB;2009-07-11 13:00;CYQB 111300Z 13002KT 20SM FEW060 FEW100 BKN230 20/14 A3003 RMK CU1AC1CI2 SLP170

CYQB;2009-07-11 14:00;CYQB 111400Z 21003KT 50SM FEW060 FEW090 BKN220 22/16 A3000 RMK CU1AC1CS2 SLP160

CYQB;2009-07-11 15:00;CYQB 111500Z 19003KT 30SM FEW060 FEW090 BKN220 24/16 A2997 RMK CU1AC1CI1 SLP148

CYQB;2009-07-11 16:00;CYQB 111600Z 21009G15KT 30SM FEW065 FEW100 OVC220 26/15 A2992 RMK CU2AC1CI2 SLP131

CYQB;2009-07-11 17:00;CYQB 111700Z 20015G22KT 30SM FEW065 SCT140 OVC220 27/13 A2988 RMK CU2AC2CI4 SLP119

CYQB;2009-07-11 18:00;CYQB 111800Z 21009G16KT 30SM FEW065 BKN120 BKN220 25/12 A2987 RMK CU2AC5CI1 SLP114

CYQB;2009-07-11 19:00;CYQB 111900Z 25010KT 30SM -SHRA SCT038 BKN120 OVC220 24/16 A2987 RMK CU3AC4CI1 VIS LWR W QUAD SLP115

CYQB;2009-07-11 20:00;CYQB 112000Z 30004KT 30SM -SHRA SCT040 BKN084 OVC220 23/17 A2984 RMK CU3AC3CI2 SLP105

CYQB;2009-07-11 21:00;CYQB 112100Z 24004KT 15SM -SHRA SCT038 BKN060 OVC120 20/18 A2983 RMK SC2SC5AC1 SLP103

CYQB;2009-07-11 22:00;CYQB 112200Z 20004KT 5SM -SHRA BR SCT033 OVC053 19/18 A2982 RMK SC3SC5 SLP100

CYQB;2009-07-11 23:00;CYQB 112300Z 00000KT 5SM -SHRA BR SCT035 OVC050 19/18 A2980 RMK SC3SC5 SLP092

CYQB;2009-07-11 23:28;CYQB 112328Z 20004KT 4SM -SHRA BR FEW009 BKN028 OVC050 19/ RMK SF1SC5SC2

CYQB;2009-07-12 00:00;CYQB 120000Z 21007KT 4SM -SHRA BR SCT009 BKN029 OVC046 19/17 A2978 RMK SF4SC3SC1 SLP085

CYQB;2009-07-12 01:00;CYQB 120100Z 18005KT 4SM -SHRA BR SCT009 OVC019 18/17 A2976 RMK SF3SC5 SLP077

CYQB;2009-07-12 02:00;CYQB 120200Z 25008KT 10SM -SHRA FEW009 OVC017 18/17 A2975 RMK SF2SC6 SLP076

CYQB;2009-07-12 02:18;CYQB 120218Z 22004KT 15SM SCT015 BKN080 18/ RMK SC3AC3

CYQB;2009-07-12 02:50;CYQB 120250Z 22006KT 10SM -TSRA SCT016 SCT050CB BKN076 18/ RMK SC3CB1AC2

CYQB;2009-07-12 03:00;CYQB 120300Z 20004KT 10SM -TSRA SCT015 BKN048CB BKN080 18/17 A2973 RMK SC3CB2AC2 SLP068

CYQB;2009-07-12 03:31;CYQB 120331Z 16004KT 15SM BKN024 BKN080 18/ RETSRA RMK SC5AC2

CYQB;2009-07-12 04:00;CYQB 120400Z 19010G17KT 15SM BKN026 BKN080 18/16 A2971 RMK SC6AC2 RETS RERA SLP062

CYQB;2009-07-12 04:18;CYQB 120418Z 20016KT 5SM -SHRA BR BKN030 OVC045TCU 18/ RMK SC6TCU2

CYQB;2009-07-12 04:21;CYQB 120421Z CCA 20016KT 5SM -SHRA BR BKN020 OVC045TCU 18/ RMK SC6TCU2

CYQB;2009-07-12 05:00;CYQB 120500Z 23015KT 10SM -SHRA BKN045 OVC080 17/16 A2972 RMK SC6AC2 RERA SLP065

CYQB;2009-07-12 06:00;CYQB 120600Z 00000KT 10SM -SHRA FEW004 SCT045 OVC080 16/16 A2969 RMK SF2SC2AC4 SLP053

CYQB;2009-07-12 06:20;CYQB 120620Z 21005KT 10SM FEW004 SCT045 BKN080 16/ RMK SF1SC3AC2

CYQB;2009-07-12 07:00;CYQB 120700Z 23010KT 10SM FEW013 BKN033 OVC080 16/15 A2972 RMK SC2SC5AC2 SLP063

CYQB;2009-07-12 07:09;CYQB 120709Z 26010KT 2SM +SHRA BR FEW010 OVC021 16/ RMK SF2SC6

CYQB;2009-07-12 07:21;CYQB 120721Z 27007KT 8SM -SHRA FEW010 OVC040 16/ RMK SF2SC6 RERA

CYQB;2009-07-12 07:35;CYQB 120735Z 24009KT 10SM FEW015 BKN031 16/ RMK SC2SC5 RERA

CYQB;2009-07-12 08:00;CYQB 120800Z 23007KT 10SM FEW010 BKN048 15/15 A2971 RMK SF1SC4 RERA SLP060

CYQB;2009-07-12 08:46;CYQB 120846Z 26006KT 4SM BR BKN006 OVC021 15/ RMK SF5SC3

CYQB;2009-07-12 09:00;CYQB 120900Z 26010KT 5SM BR BKN006 OVC020 16/15 A2971 RMK SF5SC3 SLP062

CYQB;2009-07-12 09:14;CYQB 120914Z 25010KT 8SM SCT007 BKN023 16/ RMK SF3SC3

CYQB;2009-07-12 10:00;CYQB 121000Z 25008KT 10SM SCT007 BKN019 BKN230 16/15 A2974 RMK SF3SC4CI1 SLP070

CYQB;2009-07-12 11:00;CYQB 121100Z 25010KT 15SM FEW005 FEW012 SCT060 BKN075 16/15 A2976 RMK SF1CU1SC2AC1 SLP077

CYQB;2009-07-12 12:00;CYQB 121200Z 25011G16KT 15SM FEW007 BKN081 17/15 A2978 RMK SF2AC5 SLP083

CYQB;2009-07-12 13:00;CYQB 121300Z 26012KT 20SM BKN018 18/15 A2980 RMK CU6 SLP092

CYQB;2009-07-12 14:00;CYQB 121400Z 25015KT 20SM BKN021 BKN240 19/14 A2980 RMK CU6CI1 SLP091

CYQB;2009-07-12 15:00;CYQB 121500Z 22013KT 30SM SCT024 SCT035 BKN240 19/14 A2981 RMK CU3CU1CI1 SLP096

CYQB;2009-07-12 16:00;CYQB 121600Z 24012G18KT 30SM BKN027 BKN240 19/14 A2981 RMK CU5CI1 SLP094

CYQB;2009-07-12 17:00;CYQB 121700Z 25016KT 30SM -SHRA BKN038 BKN068 BKN240 19/12 A2981 RMK CU5AC2CI1 TCU EMBD SLP095

CYQB;2009-07-12 17:36;CYQB 121736Z 23011KT 30SM FEW038 BKN071 BKN210 19/ RMK CU2AC4CI1

CYQB;2009-07-12 18:00;CYQB 121800Z 24015KT 30SM FEW040 BKN070 BKN210 20/13 A2980 RMK CU2AC5CI1 SLP091

CYQB;2009-07-12 19:00;CYQB 121900Z 25009KT 30SM FEW040 BKN070 BKN210 20/11 A2980 RMK CU2AC4CI1 SLP092

CYQB;2009-07-12 20:00;CYQB 122000Z 25008KT 30SM FEW040 BKN070 BKN180 20/13 A2981 RMK CU2AC4AC1 SLP095

CYQB;2009-07-12 21:00;CYQB 122100Z 28011KT 30SM FEW040 BKN077 20/10 A2982 RMK CU2AC5 SLP097

CYQB;2009-07-12 22:00;CYQB 122200Z 23011KT 20SM FEW035 BKN067 18/12 A2983 RMK CU2AC6 SLP100

CYQB;2009-07-12 23:00;CYQB 122300Z 22006KT 20SM FEW035 BKN083 18/12 A2983 RMK CU2AC6 SLP100

CYQB;2009-07-13 00:00;CYQB 130000Z 21006KT 20SM SCT080 BKN150 17/13 A2984 RMK AC4AC3 SLP106

CYQB;2009-07-13 01:00;CYQB 130100Z 24003KT 15SM FEW080 BKN150 15/13 A2984 RMK AC2AC2 SLP107

CYQB;2009-07-13 02:00;CYQB 130200Z 23003KT 15SM FEW060 FEW100 BKN150 14/12 A2984 RMK SC1AC2AC3 SLP107

CYQB;2009-07-13 02:28;CYQB 130228Z 27011KT 5SM -SHRA BR BKN051 14/ RMK SC7

CYQB;2009-07-13 03:00;CYQB 130300Z 00000KT 15SM BKN077 14/13 A2984 RMK AC6 SLP105

CYQB;2009-07-13 04:00;CYQB 130400Z 23004KT 15SM BKN150 14/12 A2983 RMK AC6 SLP103

CYQB;2009-07-13 05:00;CYQB 130500Z 27003KT 15SM BKN160 13/12 A2981 RMK AC6 SLP097

CYQB;2009-07-13 06:00;CYQB 130600Z 25002KT 15SM BKN160 13/12 A2981 RMK AC5 SLP095

CYQB;2009-07-13 07:00;CYQB 130700Z 00000KT 15SM BKN070 13/12 A2980 RMK AC6 SLP091

CYQB;2009-07-13 08:00;CYQB 130800Z 25002KT 15SM SCT070 BKN120 13/12 A2978 RMK AC3AC3 SLP087

CYQB;2009-07-13 09:00;CYQB 130900Z 29002KT 15SM FEW015 SCT070 BKN120 13/12 A2978 RMK SC2AC2AC3 SLP087

CYQB;2009-07-13 10:00;CYQB 131000Z 25005KT 20SM FEW015 BKN092 BKN120 12/12 A2980 RMK SC1AC4AC2 SLP091

CYQB;2009-07-13 11:00;CYQB 131100Z 23003KT 30SM FEW009 BKN074 BKN090 13/12 A2979 RMK SF1AC5AC1 SLP090

CYQB;2009-07-13 12:00;CYQB 131200Z 27006KT 30SM FEW009 SCT075 BKN130 14/12 A2980 RMK CF2AC2AC2 SLP091

CYQB;2009-07-13 13:00;CYQB 131300Z 26006KT 30SM FEW012 BKN090 BKN250 15/12 A2978 RMK CU2AC2CI1 SLP087

CYQB;2009-07-13 14:00;CYQB 131400Z 22010KT 30SM FEW020 FEW090 BKN240 17/13 A2977 RMK CU2AC1CI2 SLP083

CYQB;2009-07-13 15:00;CYQB 131500Z 22009KT 30SM FEW025 BKN240 18/12 A2975 RMK CU2CI1 SLP077

CYQB;2009-07-13 15:36;CYQB 131536Z 23012KT 30SM -SHRA SCT035 BKN240 19/ RMK CU3CI1 TCU EMBD W

CYQB;2009-07-13 16:00;CYQB 131600Z CCA 24015KT 30SM -SHRA SCT035TCU BKN240 18/09 A2974 RMK TCU4CI2 CB ASOCTD W SLP072

CYQB;2009-07-13 17:00;CYQB 131700Z 30009KT 30SM TS BKN040TCU BKN240 17/11 A2974 RMK TCU6CI2 CB EMBD SW SHRA DIST W SLP071

CYQB;2009-07-13 17:10;CYQB 131710Z 27019G29KT 30SM -TSRA BKN030CB BKN240 14/ RMK CB7CI1

CYQB;2009-07-13 17:50;CYQB 131750Z 26002KT 20SM -SHRA BKN040CB BKN060 BKN240 16/ RMK CB5SC1CI1 RETS

CYQB;2009-07-13 18:00;CYQB 131800Z 26004KT 20SM -SHRA SCT040CB BKN060 BKN240 16/12 A2974 RMK CB3SC2CI2 RETS SLP071

CYQB;2009-07-13 18:25;CYQB 131825Z 27007KT 30SM SCT040TCU BKN080 BKN240 17/ RMK TCU3SC2CI1

CYQB;2009-07-13 19:00;CYQB 131900Z 28006KT 30SM FEW040TCU BKN240 18/11 A2973 RMK TCU2CI5 SLP069

CYQB;2009-07-13 20:00;CYQB 132000Z 28007KT 30SM SCT040TCU BKN240 18/09 A2972 RMK TCU4CI3 SLP066

CYQB;2009-07-13 20:41;CYQB 132041Z 31005KT 30SM TS SCT040TCU OVC210 18/ RMK TCU4CI4 CB 10 S VIS S LWR

CYQB;2009-07-13 21:00;CYQB 132100Z 20023G31KT 30SM TS FEW010 BKN040TCU OVC210 17/10 A2973 RMK CF1TCU5CI3 CB 10 S VIS LWR S SLP070

CYQB;2009-07-13 21:13;CYQB 132113Z CCA 21016G28KT 10SM -TSRA FEW008 BKN036TCU BKN090 OVC210 13/ RMK CF2TCU5AC1CI1 CB SE VIS LWR E

CYQB;2009-07-13 21:26;CYQB 132126Z 23016G24KT 6SM -SHRA BR FEW010 BKN035TCU BKN090 OVC210 13/ RMK CF1TCU5AC2CI1 RETS

CYQB;2009-07-13 22:00;CYQB 132200Z CCA 31010KT 30SM -SHRA FEW010 BKN066TCU OVC210 13/10 A2975 RMK CF1TCU7CI1 RETS SLP074

CYQB;2009-07-13 22:33;CYQB 132233Z 27004KT 30SM FEW010 SCT066TCU 013  RMK CF1TCU4CI4 VIS LWR N

CYQB;2009-07-13 23:00;CYQB 132300Z CCA 16005KT 20SM FEW010 SCT060 OVC120 13/11 A2977 RMK CF1SC4AS4 SLP083

CYQB;2009-07-14 00:00;CYQB 140000Z 26008KT 20SM FEW010 FEW064TCU BKN150 13/11 A2978 RMK CF1TCU2AS6 SLP084

CYQB;2009-07-14 01:00;CYQB 140100Z 25007KT 15SM FEW075TCU FEW150 12/11 A2979 RMK TCU1AS2 SLP088

CYQB;2009-07-14 02:00;CYQB 140200Z 26008KT 15SM FEW060 SCT150 11/10 A2980 RMK SC2AS2 SLP091

CYQB;2009-07-14 03:00;CYQB 140300Z 27003KT 15SM FEW025 SCT150 11/10 A2981 RMK SC2AC2 SLP096

CYQB;2009-07-14 04:00;CYQB 140400Z 26007KT 15SM BKN031 11/10 A2981 RMK SC5 SLP097

CYQB;2009-07-14 05:00;CYQB 140500Z 23007KT 15SM SCT030 BKN054 11/10 A2983 RMK SC3SC3 SLP101

CYQB;2009-07-14 06:00;CYQB 140600Z 25010KT 15SM BKN064 11/10 A2983 RMK SC6 SLP101

CYQB;2009-07-14 07:00;CYQB 140700Z 25009KT 15SM BKN058 10/10 A2983 RMK SC6 SLP102

CYQB;2009-07-14 08:00;CYQB 140800Z 25009KT 15SM BKN061 10/09 A2983 RMK SC6 SLP103

CYQB;2009-07-14 09:00;CYQB 140900Z 24009KT 30SM FEW010 SCT060 09/09 A2985 RMK SF1SC3 SLP108

CYQB;2009-07-14 10:00;CYQB 141000Z 24014KT 30SM FEW010 BKN067 10/09 A2986 RMK SF1AC5 SLP113

CYQB;2009-07-14 11:00;CYQB 141100Z 23009KT 50SM FEW010 BKN067 11/10 A2988 RMK SF1AC4 SLP118

CYQB;2009-07-14 12:00;CYQB 141200Z 24009KT 50SM FEW010 BKN067 12/10 A2989 RMK SF1AC6 SLP125

CYQB;2009-07-14 13:00;CYQB 141300Z 23009KT 50SM FEW012 BKN067 14/11 A2990 RMK CF1AC6 SLP126

CYQB;2009-07-14 14:00;CYQB 141400Z 26009KT 50SM FEW015 SCT070 BKN250 15/11 A2990 RMK CU2AC1CI2 SLP127

CYQB;2009-07-14 15:00;CYQB 141500Z 23010G15KT 50SM FEW017 FEW060 BKN250 16/11 A2990 RMK CU1SC1CI2 SLP125

CYQB;2009-07-14 16:00;CYQB 141600Z 22014G19KT 50SM FEW025 FEW060 BKN250 17/10 A2991 RMK CU2SC1CI2 SLP128

CYQB;2009-07-14 16:46;CYQB 141646Z 26012KT 50SM -SHRA BKN032 BKN060 BKN250 17/ RMK CU5SC1CI2

CYQB;2009-07-14 17:00;CYQB 141700Z 24012G18KT 50SM SCT033 BKN090 BKN250 17/10 A2990 RMK CU4AC2CI1 OCNL -SHRA SLP127

CYQB;2009-07-14 18:00;CYQB 141800Z 24012G17KT 50SM BKN030 BKN090 BKN250 18/11 A2990 RMK CU5AC1CI1 SLP125

CYQB;2009-07-14 19:00;CYQB 141900Z 25016KT 30SM VCSH SCT035 BKN080 BKN220 19/10 A2989 RMK SC3AC2CI1 CU ASOCTD SLP124

CYQB;2009-07-14 20:00;CYQB 142000Z 27013KT 30SM VCSH FEW030 BKN070 BKN200 18/10 A2989 RMK SC2AC4CI1 CU ASOCTD SLP124

CYQB;2009-07-14 20:51;CYQB 142051Z 29008KT 30SM -SHRA SCT030 BKN070 BKN200 16/ RMK SC3AC2CI1 TCU ASOCTD

CYQB;2009-07-14 21:00;CYQB 142100Z 28009KT 30SM -SHRA FEW030 BKN063 BKN200 15/12 A2991 RMK SC2SC2CI1 TCU ASOCTD SLP130

CYQB;2009-07-14 22:00;CYQB 142200Z 23008KT 30SM FEW030 FEW060 SCT100 BKN200 18/12 A2990 RMK SC1SC2AC2CI2 TCU ASOCTD SLP128

CYQB;2009-07-14 23:00;CYQB 142300Z 25008KT 30SM FEW030 FEW077 BKN100 BKN200 17/11 A2992 RMK SC1AC2AC2CI1 SLP133

CYQB;2009-07-15 00:00;CYQB 150000Z 25007KT 30SM FEW030 BKN062 BKN100 16/12 A2993 RMK SC2SC3AC2 TCU EMBDD VCSH SLP136

CYQB;2009-07-15 00:22;CYQB 150022Z 29003KT 30SM -SHRA FEW025 BKN050 OVC100 15/ RMK SC2SC5AC1 TCU EMBD

CYQB;2009-07-15 01:00;CYQB 150100Z 26007KT 15SM -SHRA BKN049 BKN100 14/12 A2994 RMK SC5AC2 TCU EMBD SLP141

CYQB;2009-07-15 02:00;CYQB 150200Z 21003KT 15SM BKN060 13/12 A2996 RMK SC7 SLP147

CYQB;2009-07-15 03:00;CYQB 150300Z 26005KT 15SM FEW060 BKN150 13/12 A2996 RMK SC2AC3 SLP147

CYQB;2009-07-15 04:00;CYQB 150400Z 26005KT 15SM FEW060 SCT130 13/12 A2997 RMK SC1AC2 SLP148

CYQB;2009-07-15 05:00;CYQB 150500Z 29002KT 15SM BKN045 13/11 A2997 RMK SC5 SLP150

CYQB;2009-07-15 06:00;CYQB 150600Z 32005KT 15SM FEW045 13/10 A2997 RMK SC2 SLP150

CYQB;2009-07-15 07:00;CYQB 150700Z 29006KT 15SM FEW045 12/09 A2998 RMK SC1 SLP153

CYQB;2009-07-15 08:00;CYQB 150800Z 27006KT 15SM FEW045 11/09 A2999 RMK SC1 SLP156

CYQB;2009-07-15 09:00;CYQB 150900Z 27004KT 30SM FEW045 FEW240 09/09 A3000 RMK SC1CI0 SLP159

CYQB;2009-07-15 10:00;CYQB 151000Z 27003KT 30SM FEW025 10/09 A3000 RMK SC1 SLP162

CYQB;2009-07-15 11:00;CYQB 151100Z 29003KT 30SM FEW030 12/09 A3002 RMK SC1 SLP166

CYQB;2009-07-15 12:00;CYQB 151200Z 32006KT 30SM FEW012 13/08 A3002 RMK SF1 SLP166

CYQB;2009-07-15 13:00;CYQB 151300Z 24010KT 30SM FEW025 14/10 A3003 RMK CF2 SLP170

CYQB;2009-07-15 14:00;CYQB 151400Z 24012KT 50SM FEW027 SCT240 15/10 A3001 RMK CU2CI0 SLP164

CYQB;2009-07-15 15:00;CYQB 151500Z 23012KT 50SM FEW023 SCT045 SCT240 16/10 A3001 RMK SC2CU1CI0 SLP164

CYQB;2009-07-15 16:00;CYQB 151600Z 25011G17KT 30SM FEW025 BKN043 16/10 A3002 RMK SC2SC3 SLP166

CYQB;2009-07-15 17:00;CYQB 151700Z 23012KT 30SM BKN043 17/09 A3000 RMK SC6 SLP161

CYQB;2009-07-15 18:00;CYQB 151800Z 27012G18KT 30SM FEW033 BKN040 18/10 A3000 RMK SC2SC5 SLP158

CYQB;2009-07-15 19:00;CYQB 151900Z 27016KT 30SM BKN047 19/10 A2998 RMK SC7 OBS TAKEN +20 SLP153

CYQB;2009-07-15 20:00;CYQB 152000Z 27009G15KT 30SM BKN054 18/09 A2998 RMK SC6 SLP152

CYQB;2009-07-15 21:00;CYQB 152100Z 29006KT 30SM BKN050 BKN240 19/10 A2997 RMK SC5CI0 SLP151

CYQB;2009-07-15 22:00;CYQB 152200Z 30006KT 30SM FEW047 BKN240 19/10 A2996 RMK SC2CI4 SLP148

CYQB;2009-07-15 23:00;CYQB 152300Z 28004KT 30SM FEW045 SCT180 BKN240 19/10 A2996 RMK SC2AC1CI0 SLP146

CYQB;2009-07-16 00:00;CYQB 160000Z 26005KT 30SM SCT050 BKN180 BKN240 17/12 A2996 RMK SC3AC1CI0 SLP145

CYQB;2009-07-16 01:00;CYQB 160100Z 27003KT 15SM FEW045 BKN250 16/12 A2994 RMK SC1CI1 SLP141

CYQB;2009-07-16 02:00;CYQB 160200Z 00000KT 15SM BKN250 14/12 A2995 RMK CI2 SLP143

CYQB;2009-07-16 03:00;CYQB 160300Z 00000KT 15SM BKN240 14/11 A2995 RMK CI3 SLP143

CYQB;2009-07-16 04:00;CYQB 160400Z 03006KT 15SM BKN230 14/11 A2993 RMK CI5 SLP135

CYQB;2009-07-16 05:00;CYQB 160500Z 00000KT 15SM BKN160 13/11 A2992 RMK AC5 SLP133

CYQB;2009-07-16 06:00;CYQB 160600Z 02003KT 15SM BKN160 13/10 A2990 RMK AC6 SLP126

CYQB;2009-07-16 07:00;CYQB 160700Z 02005KT 15SM BKN150 13/10 A2989 RMK AC5 SLP121

CYQB;2009-07-16 08:00;CYQB 160800Z 02004KT 15SM BKN150 13/10 A2987 RMK AC6 SLP117

CYQB;2009-07-16 09:00;CYQB 160900Z 02003KT 15SM BKN130 13/10 A2986 RMK AC7 SLP111

CYQB;2009-07-16 10:00;CYQB 161000Z 36002KT 20SM BKN130 13/10 A2987 RMK AC7 VIRGA NW-NE SLP116

CYQB;2009-07-16 11:00;CYQB 161100Z 01003KT 50SM FEW050 SCT110 BKN130 13/10 A2986 RMK SC1AC4AC3 SLP112

CYQB;2009-07-16 12:00;CYQB 161200Z 05002KT 50SM BKN100 BKN180 15/12 A2985 RMK AC7AC1 SLP110

CYQB;2009-07-16 13:00;CYQB 161300Z 06004KT 50SM BKN110 17/12 A2984 RMK AC7 SLP105

CYQB;2009-07-16 14:00;CYQB 161400Z 06004KT 50SM FEW030 OVC110 18/13 A2982 RMK CU1AC8 SLP100

CYQB;2009-07-16 14:09;CYQB 161409Z 05004KT 50SM -SHRA FEW030 FEW100 BKN110 17/ RMK CU1AC1AC6

CYQB;2009-07-16 15:00;CYQB 161500Z 06005KT 50SM FEW030 OVC084 17/13 A2981 RMK CF1AC8 SLP096

CYQB;2009-07-16 15:20;CYQB 161520Z 05005KT 30SM -SHRA FEW030 OVC074 18/ RMK CU1AC8

CYQB;2009-07-16 16:00;CYQB 161600Z 04005KT 30SM -SHRA FEW030 OVC069 18/13 A2981 RMK CF1AC8 SLP094

CYQB;2009-07-16 16:37;CYQB 161637Z 07004KT 30SM FEW030 OVC060 18/ RMK CF1SC8

CYQB;2009-07-16 17:00;CYQB 161700Z 10006KT 30SM FEW030 OVC060 18/12 A2978 RMK CF1SC8 SLP087

CYQB;2009-07-16 18:00;CYQB 161800Z 07006KT 30SM FEW030 OVC057 19/14 A2977 RMK CF1SC8 SLP081

CYQB;2009-07-16 19:00;CYQB 161900Z 06007KT 30SM FEW030 OVC051 19/14 A2975 RMK CF1SC8 SLP077

CYQB;2009-07-16 20:00;CYQB 162000Z 06006KT 30SM OVC048 19/14 A2975 RMK SC8 SLP075

CYQB;2009-07-16 21:00;CYQB 162100Z 07006KT 15SM BKN046 OVC053 19/14 A2974 RMK SC5SC3 SLP073

CYQB;2009-07-16 21:35;CYQB 162135Z 05006KT 10SM -SHRA BKN040 OVC060 18/ RMK SC5SC3 VIS LWR N

CYQB;2009-07-16 22:00;CYQB 162200Z 07008KT 10SM -SHRA OVC053 17/15 A2973 RMK SC8 SLP070

CYQB;2009-07-16 22:36;CYQB 162236Z 07008KT 15SM OVC054 17/ RMK SC8

CYQB;2009-07-16 23:00;CYQB 162300Z 07008KT 20SM BKN040 OVC048 17/15 A2974 RMK SC6SC2 SLP072

CYQB;2009-07-17 00:00;CYQB 170000Z 07007KT 20SM BKN036 BKN050 OVC100 17/15 A2975 RMK SC5SC2AC2 SLP074

CYQB;2009-07-17 01:00;CYQB 170100Z 07009KT 15SM FEW010 BKN033 OVC065 17/16 A2974 RMK SF1SC7SC1 SLP072

CYQB;2009-07-17 02:00;CYQB 170200Z 07009KT 15SM FEW010 OVC039 17/15 A2975 RMK SF1SC7 SLP076

CYQB;2009-07-17 03:00;CYQB 170300Z 06005KT 15SM FEW010 OVC032 17/15 A2976 RMK SF1SC8 SLP077

CYQB;2009-07-17 04:00;CYQB 170400Z 06008KT 15SM FEW010 FEW045 16/15 A2973 RMK SF1SC2 SLP069

CYQB;2009-07-17 05:00;CYQB 170500Z 01003KT 15SM FEW010 FEW028 FEW070 16/15 A2974 RMK SF1SC2AC1 SLP071

CYQB;2009-07-17 06:00;CYQB 170600Z 05004KT 15SM FEW070 SCT130 16/15 A2973 RMK SC2AC2 SLP069

CYQB;2009-07-17 07:00;CYQB 170700Z 06006KT 15SM FEW010 FEW080 SCT120 16/15 A2972 RMK SF1AC2AC2 SLP066

CYQB;2009-07-17 08:00;CYQB 170800Z 03004KT 8SM -SHRA FEW010 BKN022 16/15 A2974 RMK SF2SC6 SLP070

CYQB;2009-07-17 09:00;CYQB 170900Z 10004KT 8SM FEW007 BKN030 OVC140 15/15 A2974 RMK SF2SC4AC2 SLP070

CYQB;2009-07-17 09:46;CYQB 170946Z 07003KT 8SM BKN007 OVC018 16/ RMK ST6SC2

CYQB;2009-07-17 10:00;CYQB 171000Z 03003KT 8SM BKN007 BKN018 OVC030 16/15 A2975 RMK ST6SC2SC1 SLP075

CYQB;2009-07-17 11:00;CYQB 171100Z 07004KT 15SM BKN008 OVC020 16/15 A2977 RMK ST7SC1 SLP082

CYQB;2009-07-17 12:00;CYQB 171200Z 07007KT 20SM OVC006 17/15 A2977 RMK ST7 SLP082

CYQB;2009-07-17 12:35;CYQB 171235Z 10005KT 25SM FEW008 OVC011 17/ RMK SF1SC7

CYQB;2009-07-17 13:00;CYQB 171300Z 07005KT 25SM SCT008 OVC024 18/16 A2978 RMK SF3SC4 SLP085

CYQB;2009-07-17 13:30;CYQB 171330Z 05005KT 25SM FEW008 OVC012 18/ RMK SF2SC6

CYQB;2009-07-17 14:00;CYQB 171400Z 00000KT 25SM OVC013 18/15 A2980 RMK SC8 SLP091

CYQB;2009-07-17 15:00;CYQB 171500Z 00000KT 25SM BKN015 19/16 A2981 RMK SC7 SLP093

CYQB;2009-07-17 16:00;CYQB 171600Z 14005KT 25SM FEW015 BKN020 BKN035 20/16 A2979 RMK SC1SC4SC2 SLP088

CYQB;2009-07-17 17:00;CYQB 171700Z 00000KT 25SM FEW020 22/16 A2978 RMK CU2 SLP084

CYQB;2009-07-17 18:00;CYQB 171800Z 27002KT 25SM FEW030 FEW120 FEW270 23/16 A2977 RMK CU2AC1CI1 SLP082

CYQB;2009-07-17 19:00;CYQB 171900Z 19002KT 15SM FEW030TCU FEW120 FEW250 24/17 A2977 RMK TCU2AC1CI1 SLP081

CYQB;2009-07-17 20:00;CYQB 172000Z 26002KT 15SM FEW030TCU BKN250 25/17 A2976 RMK TCU2CI1 SLP078

CYQB;2009-07-17 21:00;CYQB 172100Z 23002KT 15SM SCT040TCU OVC250 25/16 A2977 RMK TCU3CI0 SLP080

CYQB;2009-07-17 22:00;CYQB 172200Z 11007KT 15SM FEW040TCU FEW150 OVC250 24/17 A2977 RMK TCU2AC1CI2 SLP080

CYQB;2009-07-17 23:00;CYQB 172300Z 09006KT 15SM FEW040TCU FEW150 OVC250 24/16 A2976 RMK TCU2AC1CI4 SLP079

CYQB;2009-07-18 00:00;CYQB 180000Z 08009KT 15SM FEW060 SCT100 OVC250 21/17 A2978 RMK SC2AC2CI4 TCU ASOCTD SLP085

CYQB;2009-07-18 00:55;CYQB 180055Z 07007KT 10SM -SHRA SCT060TCU OVC099 19/ RMK TCU4AC4

CYQB;2009-07-18 01:00;CYQB 180100Z 08006KT 10SM -SHRA SCT060TCU OVC094 19/16 A2980 RMK TCU4AC4 SLP090

CYQB;2009-07-18 02:00;CYQB 180200Z 07007KT 15SM FEW060 SCT094 OVC150 18/15 A2982 RMK SC1AC3AC4 SLP097

CYQB;2009-07-18 03:00;CYQB 180300Z 06009KT 15SM TS SCT094 OVC120 18/15 A2981 RMK AC4AC4 CB 10 SW SLP096

CYQB;2009-07-18 03:21;CYQB 180321Z 07011KT 10SM -TSRA FEW010 SCT050TCU OVC120 17/ RMK CF1TCU3AC4 CB 10 SW

CYQB;2009-07-18 03:40;CYQB 180340Z 16007G20KT 5SM +TSRA BR BKN009CB OVC021 17/ RMK CB6SC2

CYQB;2009-07-18 04:00;CYQB 180400Z 09007KT 2 1/2SM -TSRA BR SCT009 BKN027CB OVC052 17/16 A2983 RMK CF3CB3SC2 SLP101

CYQB;2009-07-18 04:21;CYQB 180421Z 08009G16KT 6SM -TSRA BR SCT009 SCT027CB OVC055 17/ RMK CF3CB1SC4

CYQB;2009-07-18 04:35;CYQB 180435Z CCA 09008KT 6SM -SHRA BR SCT010 OVC054 17/ RMK CF3SC5 RETS

CYQB;2009-07-18 05:00;CYQB 180500Z 09006KT 6SM -SHRA BR FEW010 SCT031 OVC050 17/16 A2982 RMK CF2SC2SC4 RETS SLP099

CYQB;2009-07-18 05:21;CYQB 180521Z 07011G16KT 6SM -SHRA BR BKN004 OVC050 16/ RMK SF6SC2

CYQB;2009-07-18 06:00;CYQB 180600Z 07008KT 6SM -SHRA BR BKN004 OVC032 16/15 A2981 RMK SF6SC2 SLP095

CYQB;2009-07-18 06:28;CYQB 180628Z 07006KT 6SM -SHRA BR OVC003 16/ RMK SF8

CYQB;2009-07-18 07:00;CYQB 180700Z 09008KT 6SM BR OVC004 16/15 A2980 RMK SF8 CIG VRB 3-5 SLP092

CYQB;2009-07-18 08:00;CYQB 180800Z 09009KT 6SM -RA BR BKN004 OVC031 15/15 A2980 RMK SF7SC1 CIG VRB 3-5 SLP092

CYQB;2009-07-18 09:00;CYQB 180900Z 09011G16KT 6SM BR OVC004 15/14 A2980 RMK SF8 CIG VRB 3-5 VIS LWR NW SLP091

CYQB;2009-07-18 09:32;CYQB 180932Z 09007KT 6SM -RA BR OVC004 15/ RMK SF8 CIG VRB 3-5 VIS LWR NW

CYQB;2009-07-18 10:00;CYQB 181000Z 07012KT 5SM -RA BR BKN004 BKN012 OVC050 15/14 A2979 RMK SF5SC2SC1 SLP087

CYQB;2009-07-18 10:36;CYQB 181036Z 06009KT 5SM -RA BR BKN005 BKN012 OVC040 15/ RMK SF5SC2SC1

CYQB;2009-07-18 11:00;CYQB 181100Z 07011KT 6SM -RA BR SCT005 BKN012 OVC036 15/15 A2978 RMK SF4SC2SC2 SLP085

CYQB;2009-07-18 11:35;CYQB 181135Z 07009KT 6SM -RA BR SCT005 BKN015 OVC036 15/ RMK SF4SC3SC1

CYQB;2009-07-18 11:50;CYQB 181150Z 07012KT 5SM -RA BR BKN006 BKN015 OVC032 15/ RMK SF5SC2SC1

CYQB;2009-07-18 12:00;CYQB 181200Z 08009G15KT 5SM -RA BR BKN005 BKN014 OVC032 16/15 A2978 RMK SF5SC2SC1 SLP084

CYQB;2009-07-18 13:00;CYQB 181300Z 07009KT 3SM -RA BR SCT006 BKN015 OVC030 16/15 A2975 RMK SF4SC2SC2 SLP076

CYQB;2009-07-18 13:21;CYQB 181321Z 09010KT 1 1/2SM RA BR BKN006 BKN014 OVC034 16/ RMK SF6SC2SC1

CYQB;2009-07-18 14:00;CYQB 181400Z 06008KT 1 1/2SM R06/4500VP6000FT/U -RA BR SCT005 BKN011 OVC021 16/16 A2974 RMK SF4SC2SC2 RERA SLP071

CYQB;2009-07-18 14:22;CYQB 181422Z 06006KT 1 1/2SM RA BR BKN004 OVC015 16/ RMK SF6SC2

CYQB;2009-07-18 14:32;CYQB 181432Z 06006KT 1 1/2SM -RA BR BKN006 OVC020 17/ RMK SF5SC3 RERA

CYQB;2009-07-18 15:00;CYQB 181500Z CCA 07013KT 5SM -DZ BR BKN006 OVC020 17/16 A2972 RMK SF6SC2 RERA SLP064

CYQB;2009-07-18 15:36;CYQB 181536Z 08004KT 2SM -RADZ BR BKN006 OVC018 17/ RMK SF6SC2

CYQB;2009-07-18 16:00;CYQB 181600Z 08007KT 6SM -DZ BR BKN007 OVC020 17/17 A2971 RMK SF6SC2 SLP060

CYQB;2009-07-18 16:48;CYQB 181648Z 08008KT 6SM -DZ BR SCT007 BKN018 OVC023 18/ RMK SF4SC2SC2

CYQB;2009-07-18 17:00;CYQB 181700Z 09005KT 6SM -DZ BR BKN007 BKN018 OVC025 18/17 A2969 RMK SF5SC2SC1 SLP055

CYQB;2009-07-18 17:23;CYQB 181723Z 09009KT 2SM -DZ BR BKN006 OVC016 18/ RMK SF6SC2

CYQB;2009-07-18 17:45;CYQB 181745Z 09006KT 2 1/2SM -DZ BR BKN005 OVC020 18/ RMK SF6SC2

CYQB;2009-07-18 18:00;CYQB 181800Z 09008KT 3SM -DZ BR BKN007 OVC020 18/17 A2969 RMK SF5SC3 SLP055

CYQB;2009-07-18 18:19;CYQB 181819Z 04004KT 6SM BR BKN005 OVC020 18/ RMK ST6SC2

CYQB;2009-07-18 18:38;CYQB 181838Z 05006KT 6SM BR FEW007 BKN020 OVC033 19/ RMK SF2SC2SC3

CYQB;2009-07-18 19:00;CYQB 181900Z 07006KT 6SM BR FEW007 BKN020 OVC035 19/18 A2969 RMK SF2SC3SC2 SLP053

CYQB;2009-07-18 20:00;CYQB 182000Z 11003KT 6SM BR FEW005 BKN020 BKN030 20/18 A2967 RMK SF2SC2SC2 VIS N-NE LOWER SLP049

CYQB;2009-07-18 21:00;CYQB 182100Z 25009KT 10SM FEW010 BKN030 22/18 A2967 RMK SF2SC4 SLP049

CYQB;2009-07-18 22:00;CYQB 182200Z 25013G18KT 15SM SCT030 23/17 A2968 RMK SC3 SLP051

CYQB;2009-07-18 23:00;CYQB 182300Z 26008KT 15SM FEW030 BKN110 21/16 A2970 RMK SC1AC4 SLP056

CYQB;2009-07-19 00:00;CYQB 190000Z 25009KT 15SM BKN110 20/16 A2971 RMK AC5 SLP062

CYQB;2009-07-19 01:00;CYQB 190100Z 27004KT 15SM BKN110 19/16 A2974 RMK AC5 SLP071

CYQB;2009-07-19 02:00;CYQB 190200Z 23004KT 15SM FEW120 17/15 A2976 RMK AC2 SLP079

CYQB;2009-07-19 03:00;CYQB 190300Z 23006KT 15SM FEW120 17/15 A2977 RMK AC1 SLP082

CYQB;2009-07-19 04:00;CYQB 190400Z 26007KT 15SM FEW110 16/15 A2978 RMK AC1 SLP086

CYQB;2009-07-19 05:00;CYQB 190500Z 23005KT 15SM FEW110 16/15 A2978 RMK AC1 SLP084

CYQB;2009-07-19 06:00;CYQB 190600Z 23006KT 15SM FEW110 15/14 A2978 RMK ACC1 SLP086

CYQB;2009-07-19 07:00;CYQB 190700Z 23007KT 15SM FEW040 15/14 A2979 RMK SC1 SLP089

CYQB;2009-07-19 08:00;CYQB 190800Z 25010KT 15SM BKN015 BKN090 15/13 A2980 RMK SC5ACC1 VIS LWR NW SLP092

CYQB;2009-07-19 09:00;CYQB 190900Z 24006KT 15SM BKN014 15/14 A2981 RMK SC7 SLP096

CYQB;2009-07-19 10:00;CYQB 191000Z 24010KT 15SM BKN014 BKN090 15/14 A2983 RMK SF6AC1 SLP102

CYQB;2009-07-19 11:00;CYQB 191100Z 24012KT 15SM BKN012 BKN090 16/14 A2985 RMK SF7AC1 SLP108

CYQB;2009-07-19 12:00;CYQB 191200Z 24012KT 15SM OVC014 16/14 A2987 RMK SC8 SLP115

CYQB;2009-07-19 13:00;CYQB 191300Z 24009G16KT 15SM BKN015 17/14 A2988 RMK SC7 SLP118

CYQB;2009-07-19 14:00;CYQB 191400Z 25010G17KT 15SM -SHRA SCT014 BKN048 17/14 A2988 RMK SF3SC4 VIS LWR NW-NE SLP119

CYQB;2009-07-19 14:06;CYQB 191406Z 25013KT 6SM -RA BKN014 BKN040 17/ RMK SF6SC2

CYQB;2009-07-19 14:18;CYQB 191418Z 27014G19KT 2SM RA BR BKN014 OVC026 16/ RMK SF6SC2 TCU EMBD

CYQB;2009-07-19 14:20;CYQB 191420Z CCA 27014G19KT 2SM SHRA BR BKN014 OVC026 16/ RMK SF6SC2 TCU EMBD

CYQB;2009-07-19 14:29;CYQB 191429Z 26011G16KT 3SM SHRA BR BKN016 OVC040 16/ RMK SF6SC2 TCU EMBD

CYQB;2009-07-19 14:52;CYQB 191452Z 26010KT 10SM FEW014 BKN020 BKN053 17/ RMK SF2SC3SC2 RERA

CYQB;2009-07-19 15:00;CYQB 191500Z 25012KT 12SM FEW014 BKN027 BKN053 17/15 A2989 RMK SF2SC5SC1 RERA SLP122

CYQB;2009-07-19 16:00;CYQB 191600Z 26012G25KT 12SM -SHRA FEW014 BKN022 BKN040 18/14 A2989 RMK SF2SC5SC1 VIS NW 3 SLP124

CYQB;2009-07-19 17:00;CYQB 191700Z 25015G20KT 15SM SCT028 20/15 A2990 RMK SC4 CU ASOCTD SLP127

CYQB;2009-07-19 17:49;CYQB 191749Z 26019G27KT 15SM -SHRA FEW015 BKN025 BKN062 19/ RMK SF2SC5SC1

CYQB;2009-07-19 18:00;CYQB 191800Z 27010G19KT 15SM -SHRA FEW015 BKN028 BKN065 19/15 A2992 RMK SF1SC4SC2 SLP132

CYQB;2009-07-19 18:16;CYQB 191816Z 24017KT 15SM FEW015 SCT028 BKN065 21/ RMK SF1CU3SC2

CYQB;2009-07-19 19:00;CYQB 191900Z 25019G25KT 20SM BKN050 BKN100 22/14 A2990 RMK CU5AC1 SLP126

CYQB;2009-07-19 20:00;CYQB 192000Z 25019KT 30SM FEW030 SCT120 22/15 A2992 RMK CU2AC1 TCU ASOCTD SLP131

CYQB;2009-07-19 21:00;CYQB 192100Z 25017G22KT 30SM SCT030 SCT080 22/15 A2993 RMK CU4AC1 TCU ASOCTD SLP136

CYQB;2009-07-19 22:00;CYQB 192200Z 25011G16KT 30SM SCT035 SCT080 21/14 A2994 RMK CU3AC1 SLP139

CYQB;2009-07-19 23:00;CYQB 192300Z 24013KT 30SM FEW040 BKN060 BKN080 21/15 A2996 RMK CU2SC4AC1 SLP146

CYQB;2009-07-20 00:00;CYQB 200000Z 23008KT 30SM FEW040 SCT060 SCT080 20/15 A2997 RMK CU1SC2AC1 TCU ASOCTD SLP151

CYQB;2009-07-20 01:00;CYQB 200100Z 26007KT 15SM FEW040 SCT050 SCT080 18/15 A3000 RMK CU1SC2AC1 SLP158

CYQB;2009-07-20 02:00;CYQB 200200Z 25009KT 15SM SCT055 18/15 A3002 RMK SC4 SLP165

CYQB;2009-07-20 03:00;CYQB 200300Z 26006KT 15SM SCT071 18/16 A3005 RMK AC3 SLP175

CYQB;2009-07-20 04:00;CYQB 200400Z 24008KT 15SM SCT060 18/15 A3006 RMK SC4 SLP180

CYQB;2009-07-20 05:00;CYQB 200500Z 25007KT 15SM FEW060 16/15 A3006 RMK SC2 SLP180

CYQB;2009-07-20 06:00;CYQB 200600Z 23005KT 15SM SKC 16/14 A3007 RMK SLP183

CYQB;2009-07-20 07:00;CYQB 200700Z 23006KT 15SM FEW070 16/14 A3009 RMK AC1 SLP189

CYQB;2009-07-20 08:00;CYQB 200800Z 25005KT 15SM FEW070 14/13 A3010 RMK AC1 SLP194

CYQB;2009-07-20 09:00;CYQB 200900Z CCA 24006KT 15SM FEW003 15/14 A3012 RMK SF2 VIS E-N LWR SLP200

CYQB;2009-07-20 09:12;CYQB 200912Z 23006KT 6SM BR OVC003 15/ RMK SF8

CYQB;2009-07-20 10:00;CYQB 201000Z 26005KT 6SM BR BKN003 16/15 A3014 RMK ST7 SLP206

CYQB;2009-07-20 10:20;CYQB 201020Z 26005KT 6SM BR BKN004 16/ RMK ST7

CYQB;2009-07-20 11:00;CYQB 201100Z 29004KT 3/4SM R06/P6000FT/N BR BKN003 16/15 A3015 RMK ST7 SLP211

CYQB;2009-07-20 11:12;CYQB 201112Z 24004KT 1 1/4SM BR BKN003 16/ RMK ST7 VIS SE HIER

CYQB;2009-07-20 12:00;CYQB 201200Z 23005KT 2SM BR BKN003 16/15 A3017 RMK ST7 VIS SE HIER SLP219

CYQB;2009-07-20 12:22;CYQB 201222Z 25005KT 6SM BR BKN004 16/ RMK ST7

CYQB;2009-07-20 13:00;CYQB 201300Z 26004KT 10SM BKN006 17/15 A3018 RMK ST7 SLP222

CYQB;2009-07-20 13:35;CYQB 201335Z 22006KT 20SM BKN012 18/ RMK SC6

CYQB;2009-07-20 13:45;CYQB 201345Z 22007KT 25SM SCT012 SCT260 18/ RMK SC3CI1

CYQB;2009-07-20 14:00;CYQB 201400Z 21006KT 30SM FEW012 SCT260 19/16 A3019 RMK SC2CI0 SLP223

CYQB;2009-07-20 15:00;CYQB 201500Z 26008KT 30SM FEW020 BKN260 21/16 A3018 RMK CU1CI2 SLP220

CYQB;2009-07-20 16:00;CYQB 201600Z CCA 24006KT 30SM FEW025 BKN260 23/16 A3018 RMK CU1CI2 TCU DIST E SLP219

CYQB;2009-07-20 17:00;CYQB 201700Z 24007KT 30SM FEW030 BKN260 23/15 A3017 RMK CU1CI2 TCU ASOCTD NW SLP216

CYQB;2009-07-20 18:00;CYQB 201800Z 23009KT 30SM FEW040 FEW100 BKN260 24/16 A3017 RMK CU1AC1CI1 SLP215

CYQB;2009-07-20 19:00;CYQB 201900Z 25006KT 30SM FEW040 FEW100 OVC260 25/15 A3016 RMK CU2AC1CI0 TCU ASOCTD SLP212

CYQB;2009-07-20 20:00;CYQB 202000Z 22007KT 30SM FEW040 FEW100 OVC260 25/15 A3016 RMK CU1AC1CI0 TCU ASOCTD SLP212

CYQB;2009-07-20 21:00;CYQB 202100Z 22007KT 30SM FEW040 FEW090 FEW260 25/15 A3015 RMK CU1ACC1CI0 TCU ASOCTD SLP211

CYQB;2009-07-20 22:00;CYQB 202200Z 23006KT 30SM FEW040 FEW260 25/15 A3014 RMK CU1CI0 TCU ASOCTD SLP208

CYQB;2009-07-20 23:00;CYQB 202300Z 26006KT 30SM FEW040 FEW260 24/16 A3016 RMK CU1CI0 TCU ASOCTD SLP212

CYQB;2009-07-21 00:00;CYQB 210000Z 27003KT 30SM FEW040 FEW090 FEW260 23/16 A3017 RMK CU1AC1CI0 TCU ASOCTD SLP215

CYQB;2009-07-21 01:00;CYQB 210100Z 28002KT 30SM FEW040 FEW250 20/16 A3018 RMK CU1CI1 SLP219

CYQB;2009-07-21 02:00;CYQB 210200Z 27003KT 15SM SKC 19/16 A3021 RMK SLP229

CYQB;2009-07-21 03:00;CYQB 210300Z 03002KT 15SM SKC 18/15 A3021 RMK SLP231

CYQB;2009-07-21 04:00;CYQB 210400Z 03004KT 15SM SKC 18/15 A3022 RMK SLP234

CYQB;2009-07-21 05:00;CYQB 210500Z 03005KT 15SM SKC 17/14 A3022 RMK SLP234

CYQB;2009-07-21 06:00;CYQB 210600Z 03004KT 15SM SKC 16/14 A3022 RMK SLP235

CYQB;2009-07-21 07:00;CYQB 210700Z 02002KT 15SM SKC 16/14 A3023 RMK SLP237

CYQB;2009-07-21 08:00;CYQB 210800Z 36003KT 15SM FEW070 15/13 A3024 RMK AS1 SLP239

CYQB;2009-07-21 09:00;CYQB 210900Z 03005KT 30SM BKN070 15/13 A3025 RMK AS1 SLP244

CYQB;2009-07-21 10:00;CYQB 211000Z 02003KT 30SM FEW020 FEW220 15/13 A3026 RMK CU1CI2 SLP248

CYQB;2009-07-21 11:00;CYQB 211100Z 02003KT 30SM FEW001 FEW100 BKN270 16/14 A3027 RMK ST1AC1CI2 SLP251

CYQB;2009-07-21 12:00;CYQB 211200Z 00000KT 30SM FEW100 BKN270 19/15 A3028 RMK AC1CI2 SLP252

CYQB;2009-07-21 13:00;CYQB 211300Z 16002KT 30SM FEW020 FEW100 BKN270 20/15 A3027 RMK CU1AC1CI2 SLP251

CYQB;2009-07-21 14:00;CYQB 211400Z 19003KT 30SM FEW025 FEW100 BKN270 22/16 A3027 RMK CU1AC1CI1 SLP249

CYQB;2009-07-21 15:00;CYQB 211500Z 21004KT 30SM FEW025 BKN270 24/18 A3025 RMK CU1CI2 SLP242

CYQB;2009-07-21 16:00;CYQB 211600Z CCA 20003KT 30SM FEW035 BKN270 25/17 A3024 RMK CU1CI1 TCU ASOCTD SLP241

CYQB;2009-07-21 17:00;CYQB 211700Z 11002KT 30SM FEW035 BKN270 26/16 A3022 RMK CU2CI1 TCU ASOCTD SLP235

CYQB;2009-07-21 18:00;CYQB 211800Z 00000KT 30SM FEW040 BKN270 26/15 A3022 RMK CU2CI1 TCU ASOCTD SLP232

CYQB;2009-07-21 19:00;CYQB 211900Z 00000KT 50SM FEW050 BKN240 26/13 A3021 RMK CU1CI1 TCU ASOCTD SLP229

CYQB;2009-07-21 20:00;CYQB 212000Z 26004KT 30SM FEW050 BKN240 26/15 A3020 RMK CU1CI2 SLP227

CYQB;2009-07-21 21:00;CYQB 212100Z 19003KT 30SM FEW050 BKN240 26/14 A3019 RMK SC1CI5 SLP222

CYQB;2009-07-21 22:00;CYQB 212200Z 15003KT 30SM FEW050 BKN240 26/13 A3016 RMK SC1CI5 SLP214

CYQB;2009-07-21 23:00;CYQB 212300Z 08007KT 30SM FEW050 BKN230 23/15 A3017 RMK SC1CI5 SLP216

CYQB;2009-07-22 00:00;CYQB 220000Z 08009KT 30SM FEW050 SCT150 BKN230 22/14 A3017 RMK SC1AC4CI2 SLP217

CYQB;2009-07-22 01:00;CYQB 220100Z 07006KT 15SM FEW050 SCT080 BKN230 21/14 A3017 RMK SC1AC3CI2 SLP218

CYQB;2009-07-22 02:00;CYQB 220200Z 09007KT 15SM SCT078 21/13 A3019 RMK AC4 SLP223

CYQB;2009-07-22 03:00;CYQB 220300Z 09005KT 15SM SCT045 20/13 A3018 RMK SC3 SLP220

CYQB;2009-07-22 04:00;CYQB 220400Z 12007KT 15SM SCT045 BKN150 20/14 A3019 RMK SC4AC3 SLP222

CYQB;2009-07-22 05:00;CYQB 220500Z 07004KT 15SM SCT050 OVC080 20/14 A3018 RMK SC4AC4 SLP221

CYQB;2009-07-22 06:00;CYQB 220600Z 09004KT 15SM OVC055 19/14 A3018 RMK SC8 SLP221

CYQB;2009-07-22 07:00;CYQB 220700Z 02002KT 15SM OVC045 18/14 A3018 RMK SC8 INTMT -SHRA SLP221

CYQB;2009-07-22 07:15;CYQB 220715Z 02003KT 15SM -RA OVC045 18/ RMK SC8

CYQB;2009-07-22 08:00;CYQB 220800Z 04005KT 15SM -RA OVC050 18/15 A3017 RMK SC8 SLP218

CYQB;2009-07-22 09:00;CYQB 220900Z 05004KT 15SM BKN050 OVC110 17/15 A3016 RMK SC6AC2 SLP213

CYQB;2009-07-22 10:00;CYQB 221000Z 08003KT 15SM -RA SCT050 OVC100 16/15 A3016 RMK SC4AC4 SLP212

CYQB;2009-07-22 10:18;CYQB 221018Z 09003KT 15SM -RA FEW008 FEW050 OVC090 16/ RMK CF1SC2AC6 ACC

CYQB;2009-07-22 10:42;CYQB 221042Z 09003KT 15SM FEW008 SCT050 OVC090 16/ RMK CF1SC3AC5 ACC

CYQB;2009-07-22 11:00;CYQB 221100Z 01003KT 20SM FEW008 FEW045 SCT060 OVC090 17/15 A3017 RMK CF1SC1SC3AC4 SLP217

CYQB;2009-07-22 12:00;CYQB 221200Z 05003KT 20SM FEW008 FEW045 BKN100 18/15 A3016 RMK CF1SC2AC5 SLP213

CYQB;2009-07-22 13:00;CYQB 221300Z 07007KT 20SM FEW012 FEW045 OVC070 17/15 A3018 RMK SC1SC1AC6 SLP220

CYQB;2009-07-22 13:22;CYQB 221322Z 08007KT 15SM -SHRA FEW012 FEW045 OVC070 16/ RMK SC1SC2AC6

CYQB;2009-07-22 14:00;CYQB 221400Z 06007KT 10SM -SHRA FEW012 FEW040 OVC060 16/14 A3018 RMK SC1SC2SC6 SLP221

CYQB;2009-07-22 14:28;CYQB 221428Z 07004KT 3SM -SHRA BR FEW010 SCT020 OVC050 16/ RMK SF2SC2SC4

CYQB;2009-07-22 15:00;CYQB 221500Z 00000KT 10SM -SHRA FEW010 SCT020 OVC060 16/15 A3018 RMK SF2SC2SC5 SLP222

CYQB;2009-07-22 15:25;CYQB 221525Z 08005KT 10SM -SHRA BKN006 OVC060 16/ RMK SF6SC2

CYQB;2009-07-22 15:48;CYQB 221548Z 07004KT 5SM -SHRA BR BKN008 OVC035 16/ RMK SF7SC1

CYQB;2009-07-22 16:00;CYQB 221600Z 07003KT 5SM -SHRA BR BKN005 OVC045 16/15 A3020 RMK SF7SC1 SLP227

CYQB;2009-07-22 16:40;CYQB 221640Z 06006KT 4SM -SHRA BR SCT005 BKN022 OVC043 17/ RMK SF3SC3SC2

CYQB;2009-07-22 17:00;CYQB 221700Z 09003KT 4SM -SHRA BR BKN005 OVC040 17/16 A3019 RMK SF5SC3 SLP223

CYQB;2009-07-22 17:32;CYQB 221732Z 00000KT 10SM -SHRA FEW004 OVC020 18/ RMK SF2SC5

CYQB;2009-07-22 18:00;CYQB 221800Z 00000KT 10SM -SHRA FEW007 SCT020 OVC096 19/17 A3017 RMK SF2SC2AC3 SLP218

CYQB;2009-07-22 18:28;CYQB 221828Z 08006KT 10SM SCT008 SCT025 OVC090 18/ RMK SF3SC1AC4

CYQB;2009-07-22 19:00;CYQB 221900Z 05006KT 15SM FEW008 FEW020 OVC098 19/17 A3017 RMK SF2SC1AC5 OCNL -SHRA SLP216

CYQB;2009-07-22 20:00;CYQB 222000Z 10005KT 15SM FEW010 FEW020 OVC098 19/16 A3017 RMK SF1SC2AC5 VIS LWR NE-SE SLP218

CYQB;2009-07-22 21:00;CYQB 222100Z 08007KT 15SM FEW010 FEW025 BKN100 19/16 A3017 RMK SF1SC2AC3 OBS TAKEN +15 SLP215

CYQB;2009-07-22 22:00;CYQB 222200Z 11011KT 15SM FEW025 BKN082 18/15 A3017 RMK SC2AC3 SLP217

CYQB;2009-07-22 23:00;CYQB 222300Z 08008KT 15SM FEW025 BKN084 18/15 A3017 RMK SC1AC4 SLP217

CYQB;2009-07-23 00:00;CYQB 230000Z 09007KT 15SM FEW020 BKN085 17/14 A3019 RMK SC1AC6 SLP224

CYQB;2009-07-23 01:00;CYQB 230100Z 09007KT 15SM BKN087 17/14 A3020 RMK AC6 OBS TAKEN +20 SLP228

CYQB;2009-07-23 02:00;CYQB 230200Z 07007KT 15SM FEW056 BKN087 17/13 A3020 RMK SC2AC3 SLP227

CYQB;2009-07-23 03:00;CYQB 230300Z 01002KT 15SM SCT055 BKN084 16/13 A3019 RMK SC4AC3 SLP225

CYQB;2009-07-23 04:00;CYQB 230400Z 03003KT 15SM SCT060 OVC091 16/13 A3019 RMK SC4AC4 SLP224

CYQB;2009-07-23 05:00;CYQB 230500Z 02005KT 15SM SCT060 BKN093 16/13 A3018 RMK SC3AC2 SLP220

CYQB;2009-07-23 06:00;CYQB 230600Z 05004KT 15SM SCT052 16/13 A3018 RMK SC3 SLP222

CYQB;2009-07-23 07:00;CYQB 230700Z 03004KT 15SM FEW060 15/13 A3019 RMK SC1 SLP223

CYQB;2009-07-23 08:00;CYQB 230800Z 01004KT 15SM FEW060 FEW100 14/12 A3019 RMK SC2AC1 SLP223

CYQB;2009-07-23 09:00;CYQB 230900Z 02005KT 15SM FEW060 FEW100 13/12 A3019 RMK SC2AC1 SLP225

CYQB;2009-07-23 10:00;CYQB 231000Z 03005KT 30SM FEW020 FEW080 BKN160 BKN220 14/12 A3021 RMK SC1AC1AC2CI0 SLP230

CYQB;2009-07-23 11:00;CYQB 231100Z 09003KT 30SM FEW020 FEW080 BKN220 BKN280 15/13 A3022 RMK SC1AC1CC3CI0 SLP234

CYQB;2009-07-23 12:00;CYQB 231200Z 06013KT 30SM FEW020 FEW080 BKN230 BKN280 17/14 A3020 RMK SC1AC1CC6CI1 SLP229

CYQB;2009-07-23 13:00;CYQB 231300Z 06010KT 30SM FEW020 FEW080 BKN240 BKN300 18/14 A3020 RMK SC1AC1CC6CI1 SLP227

CYQB;2009-07-23 14:00;CYQB 231400Z 08009KT 30SM FEW020 FEW030 FEW080 BKN240 BKN300 20/15 A3019 RMK CF1SC2AC1CC3CI1 SLP225

CYQB;2009-07-23 15:00;CYQB 231500Z 07012KT 30SM FEW020 FEW030 FEW080 FEW240 BKN300 21/15 A3019 RMK CU1SC0AC1CC1CI2 SLP222

CYQB;2009-07-23 16:00;CYQB 231600Z 07010KT 30SM FEW025 SCT030 SCT080 SCT240 BKN300 21/15 A3017 RMK CU1SC0AC1CC1CI1 SLP215

CYQB;2009-07-23 17:00;CYQB 231700Z 07010G15KT 30SM FEW030 FEW080 FEW240 SCT300 22/16 A3014 RMK CU1AC1CC1CI1 SLP208

CYQB;2009-07-23 18:00;CYQB 231800Z 07010G15KT 30SM FEW035 FEW240 BKN300 23/16 A3012 RMK CU1CC1CI1 SLP201

CYQB;2009-07-23 19:00;CYQB 231900Z 07012KT 30SM FEW035 SCT080 BKN240 24/15 A3011 RMK CU1AC2CI0 SLP196

CYQB;2009-07-23 20:00;CYQB 232000Z 07010KT 30SM FEW040 SCT080 BKN240 24/15 A3010 RMK CU1AC3CI0 SLP192

CYQB;2009-07-23 21:00;CYQB 232100Z 07008KT 30SM FEW040 FEW080 BKN240 24/15 A3008 RMK CU1AC2CI0 SLP188

CYQB;2009-07-23 22:00;CYQB 232200Z 09008KT 30SM FEW045 SCT100 BKN240 24/15 A3008 RMK SC1AC4CI0 SLP185

CYQB;2009-07-23 23:00;CYQB 232300Z 09010KT 30SM FEW045 SCT100 BKN240 23/15 A3006 RMK SC1AC3CI1 SLP181

CYQB;2009-07-24 00:00;CYQB 240000Z 08006KT 30SM FEW040 FEW100 BKN240 22/14 A3006 RMK SC1AC2CI2 SLP179

CYQB;2009-07-24 01:00;CYQB 240100Z 09008KT 15SM SCT050 BKN240 21/15 A3006 RMK SC3CI2 SLP178

CYQB;2009-07-24 02:00;CYQB 240200Z 06006KT 15SM SCT055 BKN240 20/15 A3005 RMK SC4CI1 SLP177

CYQB;2009-07-24 03:00;CYQB 240300Z 07005KT 15SM BKN180 19/16 A3004 RMK AC7 SLP173

CYQB;2009-07-24 04:00;CYQB 240400Z 10004KT 15SM BKN210 19/14 A3003 RMK CI7 SLP171

CYQB;2009-07-24 05:00;CYQB 240500Z 08004KT 15SM FEW070 BKN210 18/14 A3003 RMK AC1CI6 SLP168

CYQB;2009-07-24 06:00;CYQB 240600Z 10006KT 15SM FEW051 BKN220 19/15 A3003 RMK SC2CI4 SLP168

CYQB;2009-07-24 07:00;CYQB 240700Z 07005KT 15SM SCT056 BKN220 19/15 A3001 RMK SC4CI1 SLP164

CYQB;2009-07-24 08:00;CYQB 240800Z 08006KT 15SM BKN054 BKN220 19/15 A3000 RMK SC6CI0 SLP158

CYQB;2009-07-24 09:00;CYQB 240900Z 09008KT 15SM BKN056 OVC220 18/14 A2998 RMK SC6CI0 SLP152

CYQB;2009-07-24 10:00;CYQB 241000Z 09007KT 20SM BKN059 BKN220 18/14 A2998 RMK SC6CI0 SLP152

CYQB;2009-07-24 11:00;CYQB 241100Z 07009KT 30SM FEW015 FEW060 FEW080 OVC220 18/15 A2997 RMK CF1SC1AS2CS3 SLP150

CYQB;2009-07-24 12:00;CYQB 241200Z 07013KT 30SM FEW015 FEW060 SCT160 OVC220 19/15 A2997 RMK CF1SC2AS1CS6 SLP151

CYQB;2009-07-24 13:00;CYQB 241300Z 08011G18KT 30SM FEW015 BKN035 OVC220 18/15 A2999 RMK CF1SC7CS1 SLP156

CYQB;2009-07-24 14:00;CYQB 241400Z 07010G17KT 20SM FEW015 BKN030 OVC220 18/15 A2998 RMK CF1SC7CS1 SLP154

CYQB;2009-07-24 15:00;CYQB 241500Z 07011G17KT 20SM FEW015 BKN027 OVC220 19/15 A2999 RMK CF1SC7CS1 SLP155

CYQB;2009-07-24 16:00;CYQB 241600Z 07009G17KT 30SM FEW015 OVC019 19/15 A2998 RMK CF1SC8 SLP153

CYQB;2009-07-24 17:00;CYQB 241700Z 08010KT 30SM FEW015 OVC033 19/15 A2998 RMK CF1SC8 SLP152

CYQB;2009-07-24 18:00;CYQB 241800Z 07013KT 30SM FEW015 OVC036 20/15 A2997 RMK CF1SC8 SLP149

CYQB;2009-07-24 19:00;CYQB 241900Z 07011G17KT 30SM FEW020 OVC033 20/15 A2996 RMK CF2SC6 SLP147

CYQB;2009-07-24 19:48;CYQB 241948Z 10010G18KT 20SM -SHRA SCT025 BKN042 OVC110 19/ RMK SC3SC2AC2

CYQB;2009-07-24 20:00;CYQB 242000Z 10011G17KT 20SM -SHRA FEW025 BKN045 OVC110 19/13 A2996 RMK SC1SC5AC3 PCPN VRY LGT SLP147

CYQB;2009-07-24 21:00;CYQB 242100Z 11011KT 25SM SCT025 BKN043 OVC110 19/14 A2996 RMK SC3SC3AC2 SLP146

CYQB;2009-07-24 22:00;CYQB 242200Z 07010G17KT 20SM SCT030 BKN042 OVC100 19/14 A2995 RMK SC4SC2AC2 SLP144

CYQB;2009-07-24 23:00;CYQB 242300Z 08012KT 20SM FEW022 BKN040 OVC089 19/13 A2995 RMK SC2SC4AC2 SLP144

CYQB;2009-07-25 00:00;CYQB 250000Z 07009KT 15SM -SHRA SCT020 SCT040 OVC085 18/15 A2995 RMK SC3SC1AC4 PCPN VRY LGT SLP142

CYQB;2009-07-25 01:00;CYQB 250100Z 06010KT 15SM -SHRA BKN037 OVC078 18/14 A2996 RMK SC6AC2 SLP145

CYQB;2009-07-25 02:00;CYQB 250200Z 08009G16KT 15SM FEW020 BKN078 OVC140 18/13 A2996 RMK SC2AC4AC2 SLP145

CYQB;2009-07-25 03:00;CYQB 250300Z 09012KT 15SM SCT020 BKN062 OVC120 18/13 A2994 RMK SC4SC2AC2 SLP139

CYQB;2009-07-25 04:00;CYQB 250400Z 08012G17KT 15SM SCT018 BKN055 OVC110 17/13 A2994 RMK SC4SC3AC1 SLP139

CYQB;2009-07-25 05:00;CYQB 250500Z 06011G18KT 15SM -SHRA BKN018 OVC040 16/12 A2994 RMK SC7SC1 SLP139

CYQB;2009-07-25 06:00;CYQB 250600Z 06011KT 15SM -SHRA SCT018 OVC063 15/13 A2993 RMK SC3SC5 SLP136

CYQB;2009-07-25 07:00;CYQB 250700Z 06008KT 15SM -SHRA FEW018 BKN062 OVC080 14/13 A2991 RMK SC2SC4AC2 SLP130

CYQB;2009-07-25 08:00;CYQB 250800Z 07011KT 15SM SCT020 BKN040 OVC060 14/13 A2991 RMK SC3SC3SC2 SLP130

CYQB;2009-07-25 09:00;CYQB 250900Z 05006KT 3SM -RA FEW009 BKN019 OVC040 14/13 A2992 RMK ST2SC4SC2 SLP132

CYQB;2009-07-25 10:00;CYQB 251000Z 03005KT 3SM -RA FEW010 BKN020 OVC030 14/14 A2992 RMK ST1SC5SC2 SLP134

CYQB;2009-07-25 11:00;CYQB 251100Z 35002KT 4SM -RA FEW010 OVC028 15/14 A2993 RMK SF2SC6 SLP135

CYQB;2009-07-25 12:00;CYQB 251200Z 03002KT 6SM -DZ BR SCT007 SCT015 OVC030 15/14 A2993 RMK SF3SC1SC4 SLP136

CYQB;2009-07-25 13:00;CYQB 251300Z 06002KT 6SM BR SCT006 BKN012 OVC040 16/14 A2993 RMK SF3SC2SC2 SLP137

CYQB;2009-07-25 14:00;CYQB 251400Z 09002KT 10SM BKN015 OVC034 18/15 A2993 RMK SC5SC3 SLP136

CYQB;2009-07-25 15:00;CYQB 251500Z 09008KT 10SM -RA OVC019 17/14 A2993 RMK SC8 SLP137

CYQB;2009-07-25 15:08;CYQB 251508Z 09008KT 3SM -RA BR BKN008 OVC020 16/ RMK SC6SC2

CYQB;2009-07-25 16:00;CYQB 251600Z 10009KT 3SM -RA BR BKN008 OVC016 16/15 A2994 RMK SC7SC1 SLP140

CYQB;2009-07-25 17:00;CYQB 251700Z 10009KT 6SM -RA BR OVC013 16/14 A2994 RMK SC8 SLP140

CYQB;2009-07-25 17:32;CYQB 251732Z 08005KT 3SM -DZ BR OVC011 16/ RMK SC8

CYQB;2009-07-25 18:00;CYQB 251800Z 09007KT 6SM -DZ BR OVC013 16/14 A2995 RMK SC8 SLP143

CYQB;2009-07-25 19:00;CYQB 251900Z 11011G16KT 8SM -DZ OVC016 16/14 A2996 RMK SC8 SLP147

CYQB;2009-07-25 19:44;CYQB 251944Z 08010KT 10SM OVC018 17/ RMK SC8

CYQB;2009-07-25 20:00;CYQB 252000Z 09009KT 15SM OVC018 16/14 A2997 RMK SC8 SLP148

CYQB;2009-07-25 21:00;CYQB 252100Z 09009G16KT 15SM OVC016 17/13 A2996 RMK SC8 SLP147

CYQB;2009-07-25 22:00;CYQB 252200Z 10011KT 15SM BKN018 BKN032 17/13 A2998 RMK SC6SC1 SLP154

CYQB;2009-07-25 23:00;CYQB 252300Z 07014G19KT 15SM SCT018 BKN045 16/13 A2997 RMK SC4SC2 SLP150

CYQB;2009-07-26 00:00;CYQB 260000Z 07012KT 15SM SCT012 BKN045 16/13 A2998 RMK SC4SC3 SLP152

CYQB;2009-07-26 00:43;CYQB 260043Z 07011G16KT 15SM BKN011 BKN045 15/13 RMK SC5SC2

CYQB;2009-07-26 01:00;CYQB 260100Z 07009G18KT 15SM SCT011 BKN045 15/13 A2999 RMK SC3SC3 SLP155

CYQB;2009-07-26 02:00;CYQB 260200Z 08012KT 15SM BKN011 15/13 A3000 RMK SC7 SLP159

CYQB;2009-07-26 03:00;CYQB 260300Z 09011G17KT 15SM BKN011 15/13 A3000 RMK SC7 SLP159

CYQB;2009-07-26 04:00;CYQB 260400Z 07011G19KT 15SM BKN010 15/13 A3000 RMK SC7 SLP159

CYQB;2009-07-26 05:00;CYQB 260500Z 07013G18KT 15SM SCT011 BKN019 15/13 A2999 RMK SC4SC2 SLP156

CYQB;2009-07-26 06:00;CYQB 260600Z 08011G21KT 15SM BKN011 OVC060 15/12 A2998 RMK SC7SC1 SLP154

CYQB;2009-07-26 07:00;CYQB 260700Z 07014G20KT 15SM BKN011 OVC050 15/12 A2998 RMK SC6SC2 SLP154

CYQB;2009-07-26 08:00;CYQB 260800Z 08013G20KT 15SM OVC011 15/12 A2999 RMK SC8 SLP155

CYQB;2009-07-26 09:00;CYQB 260900Z 07012G19KT 15SM BKN011 OVC050 14/12 A2997 RMK SC7SC1 SLP151

CYQB;2009-07-26 10:00;CYQB 261000Z 07016G30KT 15SM BKN014 BKN060 BKN180 15/12 A2996 RMK SC6SC1CI1 SLP147

CYQB;2009-07-26 11:00;CYQB 261100Z 07017G28KT 15SM -SHRA BKN014 OVC060 15/12 RMK SC7SC1 VIA CYYY ALTM MISG

CYQB;2009-07-26 12:00;CYQB 261200Z 07015G25KT 15SM -SHRA BKN015 BKN026 OVC042 15/12 RMK SC6SC2SC1 VIA CYYY ALTM MISG ALTM MISG

CYQB;2009-07-26 13:00;CYQB 261300Z 07020KT 15SM -SHRA BKN014 BKN023 OVC042 14/12 A2995 RMK SC5SC2SC1 SLP144

CYQB;2009-07-26 14:00;CYQB 261400Z 09017G24KT 12SM -SHRA BKN016 BKN025 OVC042 14/13 A2994 RMK SC5SC2SC1 SLP140

CYQB;2009-07-26 15:00;CYQB 261500Z CCA 08015G24KT 6SM -SHRA BR BKN019 OVC037 14/13 A2993 RMK SC6SC2 SLP136

CYQB;2009-07-26 15:50;CYQB 261550Z 07017G24KT 6SM -SHRA BR SCT009 BKN018 OVC037 14/ RMK SF3SC4SC1

CYQB;2009-07-26 16:00;CYQB 261600Z 07015G24KT 12SM -SHRA FEW009 BKN014 BKN018 OVC042 14/13 A2992 RMK SF2SC2SC2SC1 SLP132

CYQB;2009-07-26 16:41;CYQB 261641Z 08016G24KT 12SM FEW009 BKN017 OVC038 15/ RMK SF2SC6SC1

CYQB;2009-07-26 17:00;CYQB 261700Z 07019G28KT 12SM FEW009 BKN016 OVC028 15/13 A2991 RMK SF2SC6SC1 SLP130

CYQB;2009-07-26 17:10;CYQB 261710Z 07019G26KT 12SM -SHRA FEW009 BKN016 OVC024 15/ RMK SF2SC5SC2

CYQB;2009-07-26 17:53;CYQB 261753Z 07015G25KT 12SM FEW009 BKN017 OVC025 15/ RMK SF1SC6SC1

CYQB;2009-07-26 18:00;CYQB 261800Z 07017G24KT 15SM FEW009 BKN014 OVC025 15/13 A2990 RMK SF1SC6SC1 SLP125

CYQB;2009-07-26 19:00;CYQB 261900Z 07013G21KT 15SM -SHRA BKN014 OVC025 16/14 A2988 RMK SC7SC1 SLP119

CYQB;2009-07-26 20:00;CYQB 262000Z 07010G19KT 15SM BKN015 OVC019 16/14 A2987 RMK SC5SC3 CIG RAG CLDS TPG MTS N SLP116

CYQB;2009-07-26 21:00;CYQB 262100Z 07013G20KT 15SM BKN015 OVC019 16/14 A2986 RMK SC6SC2 CIG RAG SLP114

CYQB;2009-07-26 21:38;CYQB 262138Z 07011G20KT 8SM -SHRA OVC015 16/ RMK SC8

CYQB;2009-07-26 23:00;CYQB 262300Z 06011KT 10SM -SHRA SCT010 BKN015 OVC120 16/15 RMK SF4SC3AC1 VIA CYYY ALTM MISG

CYQB;2009-07-27 00:00;CYQB 270000Z 09007KT 12SM -SHRA SCT010 OVC014 16/15 A2988 RMK SF4SC4 SLP118

CYQB;2009-07-27 01:00;CYQB 270100Z 09010KT 12SM -SHRA BKN006 OVC015 16/15 A2988 RMK SF6SC2 SLP120

CYQB;2009-07-27 02:00;CYQB 270200Z 07009KT 10SM BKN006 OVC018 16/15 A2989 RMK SF7SC1 SLP123

CYQB;2009-07-27 03:00;CYQB 270300Z 09007KT 8SM OVC003 15/15 A2990 RMK ST8 SLP126

CYQB;2009-07-27 04:00;CYQB 270400Z 06005KT 8SM OVC003 15/15 A2989 RMK ST8 SLP124

CYQB;2009-07-27 05:00;CYQB 270500Z 08006KT 6SM BR OVC002 15/14 A2988 RMK ST8 SLP120

CYQB;2009-07-27 06:00;CYQB 270600Z 05006KT 7SM OVC003 15/15 A2988 RMK ST8 VIS N 4 SLP118

CYQB;2009-07-27 06:21;CYQB 270621Z 07007KT 6SM -SHRA BR OVC003 15/ RMK ST8

CYQB;2009-07-27 07:00;CYQB 270700Z 05007KT 6SM BR OVC003 15/15 A2987 RMK ST8 OCNL -SHRA SLP117

CYQB;2009-07-27 08:00;CYQB 270800Z 06009KT 6SM BR OVC003 15/14 A2987 RMK ST8 SLP116

CYQB;2009-07-27 09:00;CYQB 270900Z 07007KT 3SM BR OVC002 15/14 A2988 RMK ST8 SLP118

CYQB;2009-07-27 10:00;CYQB 271000Z 07007KT 3SM BR OVC003 15/14 A2988 RMK ST8 SLP118

CYQB;2009-07-27 10:41;CYQB 271041Z 09008KT 3SM BR OVC002 15/ RMK ST8

CYQB;2009-07-27 11:00;CYQB 271100Z 07010G16KT 3SM BR OVC003 15/14 A2987 RMK ST8 SLP116

CYQB;2009-07-27 11:15;CYQB 271115Z 07010KT 3SM BR OVC004 15/ RMK ST8

CYQB;2009-07-27 12:00;CYQB 271200Z 08008KT 3SM BR OVC004 15/15 A2987 RMK ST8 SLP117

CYQB;2009-07-27 12:32;CYQB 271232Z 08007KT 3SM TS BR OVC004 16/ RMK ST8 CB EMBDD

CYQB;2009-07-27 12:45;CYQB 271245Z 08006KT 4SM TS BR OVC005 16/ RMK ST8 CB EMBDD

CYQB;2009-07-27 13:00;CYQB 271300Z 06006KT 4SM BR OVC004 16/15 A2987 RMK ST8 RETS SLP117

CYQB;2009-07-27 13:09;CYQB 271309Z 07007KT 4SM BR OVC005 16/ RMK ST8

CYQB;2009-07-27 14:00;CYQB 271400Z 09008KT 4SM BR OVC005 17/15 A2987 RMK ST8 SLP117

CYQB;2009-07-27 15:00;CYQB 271500Z 06004KT 4SM BR OVC006 18/16 A2986 RMK ST8 SLP112

CYQB;2009-07-27 16:00;CYQB 271600Z 06004KT 10SM BKN006 BKN020 OVC250 20/17 A2985 RMK SF6SC1CS0 HAZY SLP108

CYQB;2009-07-27 17:00;CYQB 271700Z 06006KT 12SM SCT011 BKN060 BKN110 20/17 A2982 RMK SF3SC2AC2 SLP098

CYQB;2009-07-27 17:13;CYQB 271713Z 07005KT 10SM -TSRA FEW011 BKN060CB BKN100 19/ RMK SF2CB2AC2

CYQB;2009-07-27 18:00;CYQB 271800Z 09010KT 4SM -TSRA FEW010 SCT060CB OVC100 18/17 A2981 RMK SF2CB2AC4 SLP095

CYQB;2009-07-27 18:23;CYQB 271823Z 04003KT 8SM SCT004 SCT060 BKN080 BKN230 19/ RETS RMK CF3SC1AC2CI1

CYQB;2009-07-27 19:00;CYQB 271900Z 07002KT 10SM BKN010 BKN100 21/18 A2981 RMK SC6AC1 SLP095

CYQB;2009-07-27 19:45;CYQB 271945Z 00000KT 10SM FEW010 FEW018 BKN100 BKN230 21/ RMK CF1SC2AC4CI1

CYQB;2009-07-27 20:00;CYQB 272000Z 18002KT 10SM FEW010 FEW018 SCT060 BKN100 BKN160 BKN230 21/17 A2981 RMK CF1SC2SC1AC2AC1CI2 SLP094

CYQB;2009-07-27 21:00;CYQB 272100Z 00000KT 15SM FEW010 FEW020 SCT080 BKN230 21/18 A2979 RMK CF1SC2AC2CI2 SLP089

CYQB;2009-07-27 22:00;CYQB 272200Z 00000KT 15SM FEW018 FEW080 SCT230 23/19 A2978 RMK CU2AC1CI0 SLP084

CYQB;2009-07-27 23:00;CYQB 272300Z 20002KT 15SM FEW030 BKN090 22/19 A2978 RMK CU2AC4 BARO READ +10 SLP086

CYQB;2009-07-28 00:00;CYQB 280000Z 22003KT 15SM FEW010 FEW030 FEW110 21/18 A2979 RMK CF1SC1AC1 SLP087

CYQB;2009-07-28 01:00;CYQB 280100Z 00000KT 15SM SCT031 SCT100 20/18 A2981 RMK SC3AC1 SLP093

CYQB;2009-07-28 02:00;CYQB 280200Z 21002KT 15SM FEW030 BKN120 19/18 A2981 RMK SC2AC5 SLP096

CYQB;2009-07-28 03:00;CYQB 280300Z 25003KT 15SM FEW025 BKN110 19/17 A2982 RMK SC1AC5 SLP097

CYQB;2009-07-28 04:00;CYQB 280400Z 23006KT 15SM FEW100 19/17 A2982 RMK AC2 SLP097

CYQB;2009-07-28 05:00;CYQB 280500Z 25005KT 15SM FEW100 18/16 A2982 RMK AC2 SLP097

CYQB;2009-07-28 06:00;CYQB 280600Z 26007KT 15SM FEW100 17/16 A2983 RMK AC1 SLP102

CYQB;2009-07-28 07:00;CYQB 280700Z 25005KT 15SM BKN084 17/16 A2984 RMK AC5 SLP107

CYQB;2009-07-28 08:00;CYQB 280800Z 25005KT 15SM BKN090 17/16 A2984 RMK AC6 SLP107

CYQB;2009-07-28 09:00;CYQB 280900Z 25004KT 20SM SCT016 BKN095 17/16 A2984 RMK SC3AC3 SLP104

CYQB;2009-07-28 10:00;CYQB 281000Z 25007KT 15SM FEW015 BKN050 BKN080 17/16 A2984 RMK SF2SC2AC2 SLP104

CYQB;2009-07-28 11:00;CYQB 281100Z 26008KT 20SM FEW012 SCT035 BKN070 18/17 A2985 RMK SC2SC2AC3 SLP109

CYQB;2009-07-28 11:32;CYQB 281132Z 24010KT 15SM BKN010 BKN070 19/ RMK SF6AC1

CYQB;2009-07-28 12:00;CYQB 281200Z 25010G15KT 15SM BKN010 19/17 A2986 RMK SF7 SLP112

CYQB;2009-07-28 13:00;CYQB 281300Z 23009KT 15SM BKN010 20/17 A2987 RMK SC7 SLP114

CYQB;2009-07-28 13:32;CYQB 281332Z 22008KT 20SM BKN016 20/ RMK SC7 TCU DIST E

CYQB;2009-07-28 14:00;CYQB 281400Z 25007KT 20SM BKN018 21/17 A2986 RMK CU6 SLP110

CYQB;2009-07-28 15:00;CYQB 281500Z 23013KT 20SM BKN024 23/17 A2985 RMK CU6 SLP107

CYQB;2009-07-28 16:00;CYQB 281600Z 24014KT 20SM BKN030 24/17 A2984 RMK CU6 SLP105

CYQB;2009-07-28 17:00;CYQB 281700Z 24014KT 30SM SCT035 25/16 A2984 RMK CU4 SLP104

CYQB;2009-07-28 18:00;CYQB 281800Z 23017KT 30SM SCT035 26/17 A2983 RMK CU4 SLP102

CYQB;2009-07-28 19:00;CYQB 281900Z 24015G20KT 30SM FEW040 SCT120 27/16 A2982 RMK CU2AC1 SLP097

CYQB;2009-07-28 20:00;CYQB 282000Z 23012KT 30SM FEW040 FEW120 SCT250 27/17 A2981 RMK CU2AC1CI0 SLP094

CYQB;2009-07-28 21:00;CYQB 282100Z 25010G15KT 30SM FEW045 FEW250 27/17 A2980 RMK CU2CI1 SLP090

CYQB;2009-07-28 22:00;CYQB 282200Z 26007KT 30SM FEW045 BKN250 26/18 A2980 RMK CU1CI2 SLP090

CYQB;2009-07-28 23:00;CYQB 282300Z 22003KT 20SM FEW045 SCT150 BKN250 25/18 A2980 RMK CU2AC2CI2 SLP090

CYQB;2009-07-29 00:00;CYQB 290000Z 24002KT 20SM FEW050 SCT150 BKN250 24/18 A2980 RMK CU2AC2CI2 SLP092

CYQB;2009-07-29 00:47;CYQB 290047Z 26006KT 10SM -SHRA SCT040 BKN150 BKN240 23/ RMK CU3AC2CI2

CYQB;2009-07-29 01:00;CYQB 290100Z 29003KT 10SM -SHRA SCT040 BKN150 BKN240 22/19 A2981 RMK CU4AC2CI2 SLP093

CYQB;2009-07-29 01:20;CYQB 290120Z 25004KT 15SM SCT040 BKN150 BKN240 22/ RMK CU3AC2CI2

CYQB;2009-07-29 02:00;CYQB 290200Z 00000KT 15SM FEW040 BKN170 21/18 A2980 RMK SC1AC5 SLP092

CYQB;2009-07-29 03:00;CYQB 290300Z 00000KT 15SM FEW055 FEW170 19/18 A2980 RMK SC1AC2 SLP092

CYQB;2009-07-29 04:00;CYQB 290400Z 36002KT 15SM FEW060 BKN110 20/19 A2981 RMK SC2AC5 SLP093

CYQB;2009-07-29 04:33;CYQB 290433Z 00000KT 15SM TS FEW060CB BKN140 20/ RMK CB2AC4 FRQ LTGCG S

CYQB;2009-07-29 05:00;CYQB 290500Z 03003KT 15SM TS FEW060CB BKN150 20/19 A2979 RMK CB2AC5 FRQ LTGCG E SLP087

CYQB;2009-07-29 05:33;CYQB 290533Z CCA 36003KT 15SM FEW060CB BKN160 20/ RETS RMK CB1AC6 LTGCC WSW AND E

CYQB;2009-07-29 05:51;CYQB 290551Z 00000KT 15SM TS FEW060CB BKN160 20/ RMK CB1AC5 LTGCG W-N

CYQB;2009-07-29 06:00;CYQB 290600Z 29008KT 15SM TS FEW033 FEW060CB BKN160 19/18 A2981 RMK SC1CB2AC4 FRQ LTGCG SLP094

CYQB;2009-07-29 06:06;CYQB 290606Z CCA 30008KT 3SM +TSRA SCT040 OVC060CB 19/ RMK SC3CB5 FRQ LTGCG

CYQB;2009-07-29 07:00;CYQB 290700Z 23007KT 15SM -TSRA SCT042 BKN060CB OVC100 19/18 A2981 RERA RMK SC3CB2AC2 LTGCG SLP093

CYQB;2009-07-29 08:00;CYQB 290800Z CCA 16003KT 15SM FEW029 BKN070 OVC140 19/18 A2979 RETSRA RMK SC1AC5AC2 SLP089

CYQB;2009-07-29 09:00;CYQB 290900Z 13003KT 15SM FEW070 BKN120 19/18 A2981 RMK AC2AC4 DIST LTNGS S SLP093

CYQB;2009-07-29 09:54;CYQB 290954Z 36005KT 1 1/4SM BR SCT015 BKN050 OVC120 19/ RMK SC4SC3AC1

CYQB;2009-07-29 10:00;CYQB 291000Z 05005KT 1 1/4SM BR BKN015 OVC050 19/18 A2981 RMK SC4SC4 SLP093

CYQB;2009-07-29 10:24;CYQB 291024Z 04004KT 2SM BR FEW008 SCT015 SCT050 OVC130 19/ RMK CF1SC2SC1AC4

CYQB;2009-07-29 11:00;CYQB 291100Z 01002KT 6SM BR FEW004 FEW050 OVC130 19/18 A2982 RMK CF1SC2AC5 SLP098

CYQB;2009-07-29 12:00;CYQB 291200Z 03002KT 12SM FEW005 BKN040 OVC120 20/19 A2982 RMK CF1SC6AC1 HAZY SLP098

CYQB;2009-07-29 13:00;CYQB 291300Z 09003KT 15SM FEW005 OVC050 22/19 A2982 RMK CF1SC7 HAZY SLP097

CYQB;2009-07-29 14:00;CYQB 291400Z 35002KT 20SM FEW012 OVC052 23/19 A2981 RMK CF1SC7 HAZY SLP095

CYQB;2009-07-29 15:00;CYQB 291500Z 00000KT 20SM FEW015 BKN050 OVC120 24/20 A2980 RMK CU1SC6AC1 HAZY SLP092

CYQB;2009-07-29 16:00;CYQB 291600Z 25007KT 20SM FEW020 SCT060 OVC080 26/20 A2978 RMK CU1SC3AC3 HAZY SLP086

CYQB;2009-07-29 17:00;CYQB 291700Z 25003KT 20SM SCT030 OVC080 26/21 A2977 RMK CU3AC4 HAZY SLP081

CYQB;2009-07-29 18:00;CYQB 291800Z 27005KT 15SM -TSRA BKN030TCU BKN080 27/21 A2974 RMK TCU6AC2 CB EMBDD HAZY SLP071

CYQB;2009-07-29 18:37;CYQB 291837Z 24003KT 15SM -SHRA FEW015 SCT035TCU BKN100 26/ RMK SF1TCU4AC1 RETS RERA CB DIST E

CYQB;2009-07-29 19:00;CYQB 291900Z 25004KT 15SM FEW015 SCT035TCU BKN110 27/20 A2972 RMK SF1TCU3AC2 RETS RERA CB DIST S SLP063

CYQB;2009-07-29 19:29;CYQB 291929Z 20003KT 15SM -TSRA FEW015 BKN042TCU BKN110 26/ RMK SF2TCU4AC1 CB EMBDD

CYQB;2009-07-29 20:00;CYQB 292000Z 11003KT 12SM -TSRA SCT045TCU BKN110 OVC230 24/21 A2971 RMK TCU3AC2CI3 CB EMBDD SLP059

CYQB;2009-07-29 20:17;CYQB 292017Z 14002KT 12SM SCT045TCU BKN110 OVC220 25/ RMK TCU3AC2CI3 RETS

CYQB;2009-07-29 20:51;CYQB 292051Z 28003KT 10SM R06/3000VP6000FT/D TSRA FEW013 BKN050TCU OVC220 24/ RMK SF2TCU5CI2 CB EMBDD

CYQB;2009-07-29 21:00;CYQB 292100Z 18022G38KT 1SM R06/3000VP6000FT/D +TSRA SCT006 BKN016 OVC050CB 19/18 A2973 RMK SF4SC2CB2 SLP068

CYQB;2009-07-29 21:20;CYQB 292120Z 21011KT 6SM -TSRA FEW006 BKN040TCU OVC220 21/ RMK SF2TCU5CI1 CB EMBDD RERA

CYQB;2009-07-29 22:00;CYQB 292200Z 30014G19KT 5SM -TSRA FEW006 BKN029 OVC048CB 20/18 A2975 RMK SF1SC5CB2 RERA LTGCC LTGCG SLP075

CYQB;2009-07-29 22:34;CYQB 292234Z 35003KT 12SM FEW020 BKN042TCU OVC120 20/ RMK CF1TCU4AC3 RETS

CYQB;2009-07-29 23:00;CYQB 292300Z CCA 02004KT 15SM FEW020 SCT050TCU OVC140 20/18 A2973 RMK CF1TCU3AC4 RETS SLP069

CYQB;2009-07-30 00:00;CYQB 300000Z 16003KT 15SM FEW012 SCT050 OVC130 20/18 A2974 RMK SF1SC3AC5 SLP072

CYQB;2009-07-30 01:00;CYQB 300100Z 16003KT 15SM FEW012 SCT050 OVC150 20/18 A2974 RMK SF1SC3AC4 SLP071

CYQB;2009-07-30 02:00;CYQB 300200Z 00000KT 10SM FEW005 BKN065 OVC150 20/18 A2974 RMK SF1SC5AC2 SLP072

CYQB;2009-07-30 03:00;CYQB 300300Z 36002KT 10SM FEW005 FEW050 OVC160 20/18 A2972 RMK SF1SC1AC6 SLP064

CYQB;2009-07-30 04:00;CYQB 300400Z 09002KT 15SM BKN013 BKN050 OVC100 19/18 A2971 RMK SC5SC2AC2 SLP062

CYQB;2009-07-30 04:35;CYQB 300435Z 09002KT 15SM SCT012 BKN064 OVC120 19/ RMK SC3SC3AC2

CYQB;2009-07-30 05:00;CYQB 300500Z 00000KT 15SM FEW012 SCT018 OVC069 19/18 A2971 RMK SC2SC2AC4 SLP060

CYQB;2009-07-30 06:00;CYQB 300600Z 01002KT 10SM FEW008 BKN011 20/18 A2969 RMK SF2SC6 SLP054

CYQB;2009-07-30 07:00;CYQB 300700Z 36002KT 15SM BKN015 OVC030 20/18 A2969 RMK SC6SC2 SLP053

CYQB;2009-07-30 08:00;CYQB 300800Z 00000KT 15SM BKN012 OVC050 20/18 A2969 RMK SC6SC2 SLP052

CYQB;2009-07-30 09:00;CYQB 300900Z 00000KT 8SM FEW007 BKN012 OVC030 19/18 A2969 RMK SF1SC6SC2 SLP054

CYQB;2009-07-30 09:29;CYQB 300929Z 30003KT 4SM -RA BR BKN012 OVC030 19/ RMK SC6SC2

CYQB;2009-07-30 09:51;CYQB 300951Z 22002KT 4SM BR OVC010 19/ RMK SC8

CYQB;2009-07-30 10:00;CYQB 301000Z 23002KT 4SM BR OVC010 19/18 A2970 RMK SC8 SLP059

CYQB;2009-07-30 10:11;CYQB 301011Z 31002KT 4SM BR OVC008 19/ RMK ST8

CYQB;2009-07-30 10:27;CYQB 301027Z 33003KT 4SM -DZ BR OVC006 19/ RMK ST8

CYQB;2009-07-30 11:00;CYQB 301100Z 23002KT 4SM -DZ BR BKN005 OVC020 20/19 A2971 RMK SF6SC2 SLP062

CYQB;2009-07-30 11:26;CYQB 301126Z 23005KT 4SM BR FEW003 BKN040 OVC075 20/ RMK SF2SC3AC2

CYQB;2009-07-30 11:42;CYQB 301142Z 22006KT 4SM BR BKN002 OVC050 20/ RMK ST5SC2

CYQB;2009-07-30 12:00;CYQB 301200Z 23007KT 1 1/2SM BR OVC002 20/19 A2972 RMK ST6 SUN DMLY VISBL SLP065

CYQB;2009-07-30 12:15;CYQB 301215Z 23007KT 3SM BR FEW002 BKN038 21/ RMK ST2SC5

CYQB;2009-07-30 13:00;CYQB 301300Z 27003KT 8SM SCT010 BKN042 22/19 A2972 RMK CF4SC3 SLP065

CYQB;2009-07-30 13:23;CYQB 301323Z 27003KT 8SM BKN009 22/ RMK CF7

CYQB;2009-07-30 13:47;CYQB 301347Z CCA 27002KT 15SM SCT011 SCT080 23/ RMK CU4AC1

CYQB;2009-07-30 14:00;CYQB 301400Z 00000KT 20SM BKN012 BKN080 23/20 A2972 RMK CU5AC1 SLP066

CYQB;2009-07-30 14:20;CYQB 301420Z 19005KT 25SM SCT016 BKN040 23/ RMK CU4SC1

CYQB;2009-07-30 15:00;CYQB 301500Z 23006KT 25SM SCT020 SCT040 24/20 A2973 RMK CU3SC1 SLP069

CYQB;2009-07-30 16:00;CYQB 301600Z 22007KT 30SM FEW025 SCT040 25/20 A2973 RMK CU2SC1 SLP069

CYQB;2009-07-30 17:00;CYQB 301700Z 20009KT 30SM FEW030 BKN220 26/18 A2972 RMK CU2CI2 SLP065

CYQB;2009-07-30 18:00;CYQB 301800Z 22014KT 30SM FEW035 BKN220 26/17 A2973 RMK CU2CI2 SLP067

CYQB;2009-07-30 19:00;CYQB 301900Z 23010G16KT 30SM FEW050 FEW160 BKN220 27/17 A2973 RMK CU1AC1CS1 SLP068

CYQB;2009-07-30 20:00;CYQB 302000Z 24014KT 30SM FEW050 FEW160 BKN210 26/17 A2974 RMK CU1AC1CS1 SLP070

CYQB;2009-07-30 21:00;CYQB 302100Z 23012KT 30SM FEW050 FEW085 FEW180 BKN240 27/16 A2974 RMK CU1AC1AC1CI0 SLP071

CYQB;2009-07-30 22:00;CYQB 302200Z 26010KT 30SM FEW050TCU SCT075 BKN250 25/17 A2976 RMK TCU1AC3CI0 TCU W SLP076

CYQB;2009-07-30 23:00;CYQB 302300Z 25012KT 30SM FEW050TCU FEW075 FEW240 25/18 A2976 RMK TCU1AC1CI1 TCU S-W SLP078

CYQB;2009-07-31 00:00;CYQB 310000Z 25009KT 30SM FEW050 FEW250 22/16 A2978 RMK CU1CI1 SLP084

CYQB;2009-07-31 01:00;CYQB 310100Z 25006KT 15SM FEW070 20/16 A2979 RMK AC1 SLP088

CYQB;2009-07-31 02:00;CYQB 310200Z 22002KT 15SM FEW070 20/16 A2980 RMK AC2 SLP091

CYQB;2009-07-31 03:00;CYQB 310300Z 24004KT 15SM SKC 19/15 A2981 RMK SLP093

CYQB;2009-07-31 04:00;CYQB 310400Z 22003KT 15SM FEW070 18/15 A2982 RMK AC1 SLP097

CYQB;2009-07-31 05:00;CYQB 310500Z 23004KT 15SM FEW060 18/15 A2983 RMK SC2 SLP101

CYQB;2009-07-31 06:00;CYQB 310600Z 23006KT 15SM FEW060 18/16 A2982 RMK SC1 SLP099

CYQB;2009-07-31 07:00;CYQB 310700Z 25006KT 15SM FEW060 17/16 A2983 RMK SC1 SLP101

CYQB;2009-07-31 08:00;CYQB 310800Z 25007KT 15SM FEW060 BKN170 17/16 A2984 RMK SC1AC2 SLP104

CYQB;2009-07-31 09:00;CYQB 310900Z 23005KT 15SM BKN069 OVC170 17/16 A2984 RMK SC6AS2 SLP106

CYQB;2009-07-31 10:00;CYQB 311000Z 24003KT 30SM FEW020 FEW060 BKN190 BKN240 17/16 A2985 RMK SC1SC1AC5CI2 SLP109

CYQB;2009-07-31 11:00;CYQB 311100Z 21002KT 30SM FEW010 SCT065 BKN180 OVC250 17/16 A2985 RMK SF1SC4AC2CI2 SLP108

CYQB;2009-07-31 12:00;CYQB 311200Z 22003KT 30SM FEW010 FEW065 BKN160 OVC250 18/16 A2986 RMK SF1SC1AC7CI1 SLP111

CYQB;2009-07-31 12:14;CYQB 311214Z 26004KT 30SM FEW010 BKN013 OVC160 18/ RMK SF1SC6AC2

CYQB;2009-07-31 12:40;CYQB 311240Z 27006KT 30SM FEW010 FEW013 BKN160 18/ RMK SF1SC1AC6

CYQB;2009-07-31 13:00;CYQB 311300Z 26005KT 30SM FEW010 FEW015 BKN160 19/17 A2987 RMK CF1SC1AC6 SLP114

CYQB;2009-07-31 14:00;CYQB 311400Z 25007KT 30SM FEW015 FEW060 BKN170 OVC250 20/16 A2986 RMK CF1SC1AC5CI3 SLP110

CYQB;2009-07-31 15:00;CYQB 311500Z 24007KT 30SM FEW015 FEW060 SCT130 OVC160 21/16 A2985 RMK CF1SC1AC4AS4 SLP108

CYQB;2009-07-31 16:00;CYQB 311600Z 22006KT 30SM FEW020 OVC120 21/16 A2985 RMK CU1AS8 SLP107

CYQB;2009-07-31 17:00;CYQB 311700Z 22009KT 25SM FEW025 OVC140 22/16 A2984 RMK SC2AS6 SLP104

CYQB;2009-07-31 18:00;CYQB 311800Z 25009KT 25SM SCT028 OVC120 22/16 A2984 RMK SC3AS5 SLP104

CYQB;2009-07-31 19:00;CYQB 311900Z 20007KT 25SM SCT028 SCT110 OVC210 22/16 A2983 RMK SC3AC1CS4 SLP102

CYQB;2009-07-31 20:00;CYQB 312000Z 20009KT 25SM SCT028 SCT110 OVC210 22/16 A2983 RMK SC3AC1CS4 SLP100

CYQB;2009-07-31 21:00;CYQB 312100Z 21006KT 25SM FEW030 SCT090 OVC210 22/16 A2983 RMK SC2AC2CS5 SLP102

CYQB;2009-07-31 22:00;CYQB 312200Z 21004KT 25SM FEW028 SCT110 OVC210 21/16 A2982 RMK SC2AC2CS5 SLP099

CYQB;2009-07-31 23:00;CYQB 312300Z 25003KT 25SM FEW028 FEW100 BKN210 21/16 A2981 RMK SC2AC1CS4 SLP096

CYQB;2009-08-01 01:00;CYQB 010100Z 25003KT 15SM FEW028 FEW110 BKN210 18/15 A2984 RMK CU1AC1CI2 SLP104

CYQB;2009-08-01 02:00;CYQB 010200Z 27004KT 15SM FEW270 17/15 A2987 RMK CI2 SLP114

CYQB;2009-08-01 03:00;CYQB 010300Z 26004KT 15SM FEW070 17/16 A2988 RMK AC1 SLP118

CYQB;2009-08-01 03:57;CYQB 010357Z 22003KT 15SM -RA BKN055 18/ RMK SC7

CYQB;2009-08-01 04:00;CYQB 010400Z 21003KT 15SM -RA FEW028 BKN060 18/16 A2989 RMK SC1SC6 SLP122

CYQB;2009-08-01 04:14;CYQB 010414Z 19003KT 15SM FEW028 BKN095 17/ RMK SC2AC3

CYQB;2009-08-01 05:00;CYQB 010500Z 24004KT 15SM FEW015 BKN100 18/17 A2989 RMK SC2AC5 SLP123

CYQB;2009-08-01 06:00;CYQB 010600Z 29003KT 8SM OVC009 18/17 A2990 RMK ST8 SLP125

CYQB;2009-08-01 07:00;CYQB 010700Z 18002KT 10SM BKN009 18/17 A2990 RMK ST6 SLP125

CYQB;2009-08-01 07:21;CYQB 010721Z 20003KT 10SM FEW008 OVC017 18/ RMK ST2SC5

CYQB;2009-08-01 08:00;CYQB 010800Z 22005KT 10SM SCT015 18/17 A2990 RMK SC3 SLP125

CYQB;2009-08-01 08:39;CYQB 010839Z 21005KT 8SM BKN005 17/ RMK SF5

CYQB;2009-08-01 09:00;CYQB 010900Z 25006KT 8SM FEW005 FEW220 17/16 A2991 RMK SF2CI1 SLP128

CYQB;2009-08-01 10:00;CYQB 011000Z 24003KT 5SM BR FEW006 FEW015 17/16 A2993 RMK SF1SC1 SLP136

CYQB;2009-08-01 11:00;CYQB 011100Z 24006KT 5SM BR BKN011 18/17 A2997 RMK SF7 SLP150

CYQB;2009-08-01 12:00;CYQB 011200Z 27008KT 6SM BR FEW012 FEW020 19/16 A2998 RMK SF2SC1 SLP154

CYQB;2009-08-01 13:00;CYQB 011300Z 23008KT 10SM FEW012 FEW018 20/17 A2998 RMK SF2CF1 HAZY SLP153

CYQB;2009-08-01 14:00;CYQB 011400Z 23009KT 12SM FEW012 FEW018 21/17 A2999 RMK SF1CF1 HAZY SLP157

CYQB;2009-08-01 15:00;CYQB 011500Z 23010KT 15SM FEW022 SCT240 23/17 A2999 RMK CU1CI0 SLP157

CYQB;2009-08-01 16:00;CYQB 011600Z 24009KT 20SM FEW035 FEW085 24/17 A2999 RMK CU1AC2 SLP156

CYQB;2009-08-01 17:00;CYQB 011700Z 23011KT 30SM FEW035 FEW085 25/16 A2999 RMK CU2AC1 SLP155

CYQB;2009-08-01 18:00;CYQB 011800Z 25011KT 30SM FEW050 FEW220 26/16 A2997 RMK CU2CI0 SLP149

CYQB;2009-08-01 19:00;CYQB 011900Z 25009G15KT 30SM FEW048 BKN240 26/15 A2997 RMK CU2CI0 SLP148

CYQB;2009-08-01 20:00;CYQB 012000Z 24012KT 30SM FEW050 OVC240 27/15 A2996 RMK CU2CI2 SLP146

CYQB;2009-08-01 21:00;CYQB 012100Z 26008KT 30SM FEW050 FEW100 BKN240 27/17 A2995 RMK CU2AC1CI0 SLP143

CYQB;2009-08-01 22:00;CYQB 012200Z 26006KT 30SM FEW050 SCT090 BKN240 26/17 A2995 RMK CU1AC2CI0 SLP142

CYQB;2009-08-01 23:00;CYQB 012300Z 29002KT 30SM FEW050 FEW090 SCT240 25/17 A2995 RMK CU1AC1CI0 MDT CU SLP143

CYQB;2009-08-02 00:00;CYQB 020000Z 20002KT 30SM FEW045 BKN240 24/18 A2997 RMK CU2CI0 MDT CU SLP149

CYQB;2009-08-02 01:00;CYQB 020100Z 15002KT 15SM FEW040 FEW240 21/17 A2998 RMK CU1CI1 SLP153

CYQB;2009-08-02 02:00;CYQB 020200Z 00000KT 15SM FEW240 20/18 A2999 RMK CI1 SLP156

CYQB;2009-08-02 03:00;CYQB 020300Z 02002KT 15SM FEW240 20/17 A2999 RMK CI1 SLP154

CYQB;2009-08-02 04:00;CYQB 020400Z 01004KT 15SM FEW100 20/17 A2998 RMK AC1 SLP151

CYQB;2009-08-02 05:00;CYQB 020500Z 02003KT 15SM BKN130 19/17 A2997 RMK AC4 SLP149

CYQB;2009-08-02 05:31;CYQB 020531Z 04004KT 10SM -SHRA SCT052 BKN080 BKN110 19/ RMK SC3AC3AC1

CYQB;2009-08-02 06:00;CYQB 020600Z 00000KT 12SM BKN091 OVC110 19/17 A2997 RMK AC7AC1 SLP149

CYQB;2009-08-02 07:00;CYQB 020700Z 04003KT 15SM FEW048 BKN076 BKN110 19/17 A2996 RMK SC2AC3AC1 SLP144

CYQB;2009-08-02 08:00;CYQB 020800Z 04004KT 15SM FEW058 FEW110 18/17 A2995 RMK SC1AC1 SLP142

CYQB;2009-08-02 09:00;CYQB 020900Z 03004KT 15SM FEW030 FEW110 BKN260 18/16 A2995 RMK SC1AC1CI1 SLP142

CYQB;2009-08-02 10:00;CYQB 021000Z 05004KT 15SM FEW030 FEW070 BKN260 18/16 A2995 RMK CU1AC1CI2 SLP143

CYQB;2009-08-02 11:00;CYQB 021100Z 07006KT 15SM FEW030 BKN100 OVC240 19/16 A2994 RMK CU1AC1CI2 SLP139

CYQB;2009-08-02 12:00;CYQB 021200Z 06007KT 15SM FEW020 FEW080 OVC240 20/17 A2994 RMK CU1AC2CI2 SLP138

CYQB;2009-08-02 13:00;CYQB 021300Z 07009KT 20SM FEW020 FEW080 BKN240 21/17 A2991 RMK CU1AC1CI1 CC ASOCTD SLP129

CYQB;2009-08-02 14:00;CYQB 021400Z 07004KT 30SM FEW040 FEW100 BKN240 24/17 A2989 RMK CU1AC1CI2 TCU ASOCTD SLP121

CYQB;2009-08-02 15:00;CYQB 021500Z CCA 12003KT 30SM BKN045 BKN100 BKN220 24/17 A2987 RMK CU5AC1CI1 TCU ASOCTD SLP116

CYQB;2009-08-02 16:00;CYQB 021600Z 09003KT 30SM BKN055 BKN100 BKN220 26/18 A2983 RMK CU5AC1CI1 TCU ASOCTD VIS LWR W-N SLP102

CYQB;2009-08-02 17:00;CYQB 021700Z 20016G24KT 30SM SCT050 BKN090 OVC220 28/15 A2981 RMK CU4AC2CI1 SLP094

CYQB;2009-08-02 18:00;CYQB 021800Z 18014G19KT 30SM FEW050 OVC070 26/14 A2980 RMK CU2AC6 SLP090

CYQB;2009-08-02 18:44;CYQB 021844Z 18010G17KT 20SM -RA OVC059 25/ RMK SC8 TCU EMBD

CYQB;2009-08-02 19:00;CYQB 021900Z CCA 25009KT 12SM -RA FEW025 OVC065 22/16 A2981 RMK SC1SC8 SLP094

CYQB;2009-08-02 20:00;CYQB 022000Z CCA 25009KT 6SM -RA BR FEW025 OVC047 22/16 A2980 RMK SC1SC7 CVCTV CLD EMBD SLP090

CYQB;2009-08-02 20:36;CYQB 022036Z 22004KT 2SM +RA BR FEW020 OVC039 19/ RMK SC2SC6 CVCTV CLD EMBD

CYQB;2009-08-02 21:00;CYQB 022100Z CCA 21004KT 2SM RA BR FEW010 OVC034 19/17 A2980 RERA RMK SF1SC8 CVCTV CLB EMBD SLP090

CYQB;2009-08-02 21:35;CYQB 022135Z 25002KT 2SM +RA BR FEW008 BKN012 OVC030 19/ RMK SF2SC6SC1 CVCTV CLB EMBD

CYQB;2009-08-02 22:00;CYQB 022200Z CCB 17004KT 2 1/2SM -RA BR FEW008 BKN014 OVC028 19/18 A2978 RERA RMK SF2SC3SC2 CVCTV CLD EMBD SLP084

CYQB;2009-08-02 22:23;CYQB 022223Z 00000KT 2 1/2SM -RA BR BKN007 OVC014 19/ RMK SF6SC2 CVTV CLD EMBD

CYQB;2009-08-02 23:00;CYQB 022300Z 23002KT 2 1/2SM -RA BR BKN005 BKN015 OVC022 19/18 A2977 RERA RMK SF5SC2SC1 CVCTV CLD EMBD VIS W-N HIER SLP082

CYQB;2009-08-02 23:26;CYQB 022326Z 20005KT 10SM -RA SCT008 BKN014 OVC038 19/ RMK SF4SC2SC2

CYQB;2009-08-03 00:00;CYQB 030000Z 22004KT 15SM VCSH FEW008 BKN019 BKN099 19/17 A2978 RMK SF2SC4AC2 VIS E 5 SLP083

CYQB;2009-08-03 00:45;CYQB 030045Z 22004KT 15SM FEW008 BKN013 19/ RMK SF1SC6

CYQB;2009-08-03 01:00;CYQB 030100Z 23004KT 15SM BKN013 19/17 A2979 RMK SC7 SLP089

CYQB;2009-08-03 02:00;CYQB 030200Z 21004KT 15SM BKN023 BKN053 19/18 A2980 RMK SC6SC1 SLP091

CYQB;2009-08-03 03:00;CYQB 030300Z 36003KT 15SM FEW010 BKN024 BKN120 19/18 A2980 RMK SC1SC4AC2 SLP090

CYQB;2009-08-03 03:38;CYQB 030338Z 00000KT 15SM BKN009 BKN120 19/ RMK SF5AC2

CYQB;2009-08-03 04:00;CYQB 030400Z 00000KT 15SM BKN009 BKN020 19/18 A2979 RMK SC6SC1 SLP089

CYQB;2009-08-03 05:00;CYQB 030500Z 00000KT 12SM SCT008 BKN020 19/18 A2980 RMK SF3SC4 SLP090

CYQB;2009-08-03 06:00;CYQB 030600Z 23003KT 12SM FEW008 FEW020 SCT083 18/17 A2981 RMK SF1SC1AC2 SLP093

CYQB;2009-08-03 07:00;CYQB 030700Z 24003KT 15SM BKN018 OVC080 18/17 A2981 RMK SC7AC1 SLP093

CYQB;2009-08-03 08:00;CYQB 030800Z 23004KT 15SM OVC010 18/17 A2982 RMK ST8 SLP097

CYQB;2009-08-03 09:00;CYQB 030900Z 24005KT 15SM BKN009 BKN020 BKN080 18/17 A2983 RMK SF6SC1AC1 SLP100

CYQB;2009-08-03 09:26;CYQB 030926Z 25005KT 15SM OVC006 18/ RMK ST8

CYQB;2009-08-03 10:00;CYQB 031000Z 25008KT 8SM BKN006 OVC020 18/17 A2984 RMK ST7SC1 SLP105

CYQB;2009-08-03 11:00;CYQB 031100Z CCA 25010KT 8SM FEW006 FEW025 18/17 A2986 RMK SF2SC1 HAZY SLP111

CYQB;2009-08-03 12:00;CYQB 031200Z 26011KT 12SM FEW006 SCT024 18/16 A2988 RMK SF2CF2 HAZY SLP119

CYQB;2009-08-03 13:00;CYQB 031300Z 26012KT 15SM FEW012 FEW024 19/16 A2989 RMK CF2SC1 SLP124

CYQB;2009-08-03 14:00;CYQB 031400Z 25010G16KT 15SM SCT020 20/15 A2992 RMK CF3 SLP133

CYQB;2009-08-03 15:00;CYQB 031500Z 24014G19KT 15SM SCT026 20/15 A2992 RMK CU3 SLP133

CYQB;2009-08-03 16:00;CYQB 031600Z 23015G21KT 15SM SCT031 21/14 A2994 RMK CU3 SLP138

CYQB;2009-08-03 17:00;CYQB 031700Z 25015G20KT 25SM FEW036 23/13 A2994 RMK CU2 SLP137

CYQB;2009-08-03 18:00;CYQB 031800Z 24014KT 30SM FEW040 FEW240 23/11 A2993 RMK CU2CI0 SLP134

CYQB;2009-08-03 19:00;CYQB 031900Z 27015KT 30SM FEW045 24/13 A2993 RMK CU2 SLP136

CYQB;2009-08-03 20:00;CYQB 032000Z 25013G18KT 30SM FEW050 24/13 A2993 RMK CU2 SLP135

CYQB;2009-08-03 21:00;CYQB 032100Z 25014G19KT 30SM FEW045 23/12 A2993 RMK CF2 SLP136

CYQB;2009-08-03 22:00;CYQB 032200Z 25012KT 30SM FEW040 23/13 A2994 RMK CF2 SLP137

CYQB;2009-08-03 23:00;CYQB 032300Z 25010KT 30SM FEW080 22/12 A2994 RMK AC2 SLP138

CYQB;2009-08-04 00:00;CYQB 040000Z 24005KT 30SM FEW080 BKN240 20/13 A2995 RMK AC2CI0 SLP142

CYQB;2009-08-04 01:00;CYQB 040100Z 24004KT 15SM SCT080 BKN240 19/13 A2994 RMK AC3CI0 SLP141

CYQB;2009-08-04 02:00;CYQB 040200Z 28002KT 15SM FEW080 BKN240 17/13 A2996 RMK AC1CI1 SLP146

CYQB;2009-08-04 03:00;CYQB 040300Z 26002KT 15SM SCT180 BKN210 17/13 A2996 RMK AC4CI1 SLP147

CYQB;2009-08-04 04:00;CYQB 040400Z 00000KT 15SM BKN140 BKN210 17/14 A2996 RMK AC5CI1 SLP146

CYQB;2009-08-04 05:00;CYQB 040500Z 00000KT 15SM BKN110 17/14 A2996 RMK AC6 SLP146

CYQB;2009-08-04 06:00;CYQB 040600Z 08002KT 15SM BKN100 18/14 A2996 RMK AC7 SLP144

CYQB;2009-08-04 07:00;CYQB 040700Z 02002KT 15SM OVC082 18/14 A2995 RMK AC8 SLP141

CYQB;2009-08-04 07:47;CYQB 040747Z 00000KT 15SM -SHRA OVC095 18/ RMK AC8

CYQB;2009-08-04 08:00;CYQB 040800Z 00000KT 15SM -SHRA FEW080 BKN095 18/14 A2994 RMK AC2AC6 SLP139

CYQB;2009-08-04 09:00;CYQB 040900Z 01002KT 15SM BKN091 BKN150 17/14 A2993 RMK AC5AC2 SLP136

CYQB;2009-08-04 10:00;CYQB 041000Z 36002KT 15SM BKN099 BKN150 18/15 A2993 RMK AC6AC1 SLP136

CYQB;2009-08-04 11:00;CYQB 041100Z 02003KT 15SM BKN060 BKN100 18/14 A2993 RMK SC5AC2 SLP135

CYQB;2009-08-04 12:00;CYQB 041200Z 11002KT 15SM BKN062 BKN085 OVC100 19/15 A2993 RMK SC6AC1AC2 SLP135

CYQB;2009-08-04 13:00;CYQB 041300Z 11002KT 15SM BKN062 BKN085 OVC100 19/15 A2993 RMK SC6AC1AC2 SLP135

CYQB;2009-08-04 14:00;CYQB 041400Z 00000KT 15SM OVC063 20/14 A2990 RMK SC8 SLP127

CYQB;2009-08-04 14:42;CYQB 041442Z 00000KT 15SM -SHRA OVC061 21/ RMK SC8

CYQB;2009-08-04 15:00;CYQB 041500Z CCA 00000KT 15SM -SHRA OVC059 21/15 A2989 RMK SC8 SLP121

CYQB;2009-08-04 15:27;CYQB 041527Z 00000KT 15SM OVC059 21/ RMK SC8

CYQB;2009-08-04 16:00;CYQB 041600Z 00000KT 15SM BKN056 BKN120 OVC250 23/16 A2986 RMK SC6AC1CI0 SLP112

CYQB;2009-08-04 17:00;CYQB 041700Z 00000KT 30SM FEW050 BKN160 24/17 A2983 RMK CF1AC5 SLP103

CYQB;2009-08-04 18:00;CYQB 041800Z 22007KT 30SM FEW050 BKN130 25/17 A2981 RMK CF1AC6 SLP094

CYQB;2009-08-04 19:00;CYQB 041900Z 23010KT 30SM FEW050 FEW130 27/17 A2979 RMK CU1AC2 SLP087

CYQB;2009-08-04 20:00;CYQB 042000Z 21006KT 30SM SCT050 BKN130 27/18 A2977 RMK CU3AC1 SLP080

CYQB;2009-08-04 21:00;CYQB 042100Z 20007KT 30SM FEW055 SCT110 BKN240 28/17 A2974 RMK CU2AC2CI0 SLP070

CYQB;2009-08-04 22:00;CYQB 042200Z 20007KT 30SM FEW050 FEW110 BKN240 27/17 A2971 RMK CU1AC2CI0 SLP061

CYQB;2009-08-04 23:00;CYQB 042300Z 19003KT 30SM BKN080 BKN240 26/17 A2970 RMK AC5CI1 SLP055

CYQB;2009-08-05 00:00;CYQB 050000Z 26002KT 15SM BKN060 BKN240 25/18 A2969 RMK SC6CI1 SLP052

CYQB;2009-08-05 01:00;CYQB 050100Z 23006KT 15SM BKN060 BKN240 25/18 A2968 RMK SC5CI1 SLP050

CYQB;2009-08-05 02:00;CYQB 050200Z 26015KT 15SM SHRA SCT041 OVC060 23/17 A2969 RMK SC3SC5 SLP054

CYQB;2009-08-05 03:00;CYQB 050300Z 25008KT 15SM FEW040TCU BKN080 OVC120 21/18 A2969 RERA RMK TCU1AC5AC2 SLP054

CYQB;2009-08-05 04:00;CYQB 050400Z 24013G18KT 15SM FEW050 SCT080 OVC140 21/17 A2968 RMK SC1AC3AC4 SLP051

CYQB;2009-08-05 05:00;CYQB 050500Z 25010G16KT 12SM -SHRA FEW064 BKN120 OVC150 20/17 A2968 RMK SC2AC4AC2 SLP052

CYQB;2009-08-05 05:19;CYQB 050519Z 24007KT 12SM SCT120 OVC150 20/ RMK AC3AC3

CYQB;2009-08-05 06:00;CYQB 050600Z 27006KT 12SM SCT026 BKN140 20/17 A2967 RMK SC4AC2 SLP045

CYQB;2009-08-05 07:00;CYQB 050700Z 23018G26KT 12SM BKN020 20/18 A2967 RMK SC7 SLP048

CYQB;2009-08-05 08:00;CYQB 050800Z 25013KT 12SM BKN020 20/18 A2968 RMK SC7 CIG VRB 18-22 SLP051

CYQB;2009-08-05 09:00;CYQB 050900Z 23011KT 12SM BKN015 19/17 A2969 RMK SC7 CIG VRB 12-18 SLP054

CYQB;2009-08-05 10:00;CYQB 051000Z 25011KT 10SM BKN018 19/17 A2972 RMK SC6 CU ASOCTD SLP062

CYQB;2009-08-05 11:00;CYQB 051100Z 25012KT 10SM BKN016 19/17 A2973 RMK SC6 SLP067

CYQB;2009-08-05 12:00;CYQB 051200Z CCA 25011G16KT 15SM BKN016 20/17 A2975 RMK SC5 CU ASOCTD SLP072

CYQB;2009-08-05 13:00;CYQB 051300Z 27012KT 15SM SCT024 21/15 A2975 RMK CF4 SLP075

CYQB;2009-08-05 14:00;CYQB 051400Z 27013G20KT 15SM SCT035 21/14 A2977 RMK CU3 SLP080

CYQB;2009-08-05 15:00;CYQB 051500Z 28014G24KT 25SM SCT045 23/13 A2978 RMK CU3 SLP086

CYQB;2009-08-05 16:00;CYQB 051600Z 27015G20KT 25SM SCT045 23/12 A2979 RMK CU3 SLP087

CYQB;2009-08-05 17:00;CYQB 051700Z 25017KT 25SM SCT050 24/12 A2979 RMK CU4 SLP087

CYQB;2009-08-05 18:00;CYQB 051800Z 28016KT 25SM SCT055 24/12 A2980 RMK CU3 SLP091

CYQB;2009-08-05 19:00;CYQB 051900Z 29011KT 25SM SCT060 23/11 A2979 RMK CU4 SLP089

CYQB;2009-08-05 20:00;CYQB 052000Z 27014KT 15SM BKN070 23/11 A2981 RMK SC6 SLP093

CYQB;2009-08-05 21:00;CYQB 052100Z 28011KT 20SM FEW050 BKN084 23/12 A2981 RMK CU1AC6 SLP096

CYQB;2009-08-05 22:00;CYQB 052200Z 27008KT 20SM BKN082 21/12 A2983 RMK AC7 SLP100

CYQB;2009-08-05 23:00;CYQB 052300Z 27007KT 20SM FEW060 BKN081 21/11 A2983 RMK SC1AC6 SLP103

CYQB;2009-08-06 00:00;CYQB 060000Z 27005KT 20SM BKN086 19/12 A2983 RMK AC7 SLP102

CYQB;2009-08-06 01:00;CYQB 060100Z 27007KT 15SM BKN084 19/12 A2986 RMK AC7 SLP110

CYQB;2009-08-06 02:00;CYQB 060200Z 24004KT 15SM BKN083 18/12 A2987 RMK AC7 SLP116

CYQB;2009-08-06 03:00;CYQB 060300Z 26007KT 15SM BKN083 17/13 A2987 RMK AC6 SLP114

CYQB;2009-08-06 04:00;CYQB 060400Z 26006KT 15SM FEW083 16/12 A2987 RMK AC1 SLP114

CYQB;2009-08-06 05:00;CYQB 060500Z 26006KT 15SM FEW080 16/12 A2986 RMK AC1 SLP112

CYQB;2009-08-06 06:00;CYQB 060600Z 25007KT 15SM FEW080 15/11 A2987 RMK AC1 SLP116

CYQB;2009-08-06 07:00;CYQB 060700Z 26009KT 15SM FEW080 14/12 A2988 RMK AC0 SLP119

CYQB;2009-08-06 08:00;CYQB 060800Z 27004KT 15SM BKN085 14/11 A2988 RMK AC2 SLP119

CYQB;2009-08-06 09:00;CYQB 060900Z 00000KT 15SM BKN087 BKN240 14/11 A2988 RMK AC2CI2 SLP118

CYQB;2009-08-06 10:00;CYQB 061000Z 00000KT 20SM SCT090 BKN240 13/11 A2989 RMK AC2CI2 SLP122

CYQB;2009-08-06 11:00;CYQB 061100Z 00000KT 30SM FEW090 SCT240 SCT280 15/12 A2990 RMK AC1CI1CC1 ACC W SLP127

CYQB;2009-08-06 12:00;CYQB 061200Z 23003KT 30SM FEW090 SCT240 BKN280 16/13 A2991 RMK AC2CI1CC2 SLP129

CYQB;2009-08-06 13:00;CYQB 061300Z 26002KT 30SM SCT090 BKN240 18/13 A2990 RMK AC4CI1 SLP126

CYQB;2009-08-06 14:00;CYQB 061400Z 23004KT 30SM SCT090 BKN240 BKN280 19/13 A2991 RMK AC3CI1CC1 SLP128

CYQB;2009-08-06 15:00;CYQB 061500Z 23009KT 30SM FEW025 SCT090 SCT240 BKN280 21/14 A2989 RMK CU1AC2CI1CC1 SLP124

CYQB;2009-08-06 16:00;CYQB 061600Z 22010KT 30SM FEW030 FEW080 BKN100 BKN240 20/12 A2989 RMK CU1AC2AC3CI1 SLP122

CYQB;2009-08-06 17:00;CYQB 061700Z 26008KT 30SM FEW040 BKN100 BKN150 21/12 A2988 RMK CU2AC4AC1 SLP118

CYQB;2009-08-06 18:00;CYQB 061800Z 26007KT 30SM FEW040 BKN088 OVC150 20/12 A2987 RMK CU1AC6AC1 SLP115

CYQB;2009-08-06 18:32;CYQB 061832Z 27005KT 20SM -SHRA FEW020 FEW040 OVC085 20/ RMK CF1SC1AC7

CYQB;2009-08-06 19:00;CYQB 061900Z 28005KT 20SM -SHRA FEW020 FEW040 OVC085 19/13 A2987 RMK CF1SC1AC7 SLP115

CYQB;2009-08-06 19:40;CYQB 061940Z 28004KT 20SM FEW040 OVC094 19/ RMK SC1AC7

CYQB;2009-08-06 20:00;CYQB 062000Z 28005KT 20SM FEW040 OVC100 19/13 A2986 RMK SC1AC7 SLP111

CYQB;2009-08-06 21:00;CYQB 062100Z 25008KT 20SM FEW020 FEW040 BKN120 20/14 A2986 RMK CF1SC1AC6 SLP112

CYQB;2009-08-06 22:00;CYQB 062200Z 24011G16KT 20SM FEW020 BKN080 BKN120 19/15 A2986 RMK SC2AC3AC2 TCU ASOCTD SLP114

CYQB;2009-08-06 23:00;CYQB 062300Z 24008KT 20SM FEW020TCU BKN080 BKN120 19/15 A2987 RMK TCU2AC3AC2 SLP115

CYQB;2009-08-07 00:00;CYQB 070000Z 26005KT 20SM FEW020 FEW080 18/15 A2988 RMK CU1AC2 SLP118

CYQB;2009-08-07 01:00;CYQB 070100Z 24005KT 15SM FEW020 FEW080 16/14 A2990 RMK CU1AC1 SLP127

CYQB;2009-08-07 02:00;CYQB 070200Z 26006KT 15SM FEW200 15/14 A2991 RMK CI0 SLP128

CYQB;2009-08-07 03:00;CYQB 070300Z 00000KT 15SM SKC 15/13 A2991 RMK SLP130

CYQB;2009-08-07 04:00;CYQB 070400Z 00000KT 15SM FEW040 14/12 A2992 RMK SC1 SLP132

CYQB;2009-08-07 05:00;CYQB 070500Z 14003KT 15SM FEW040 13/12 A2992 RMK SC1 SLP131

CYQB;2009-08-07 06:00;CYQB 070600Z 02003KT 15SM SKC 13/12 A2991 RMK FG OVR RVR SLP129

CYQB;2009-08-07 07:00;CYQB 070700Z 00000KT 15SM R06/1200FT/N FEW060 12/12 A2991 RMK SC1 FG OVR RVR SLP128

CYQB;2009-08-07 08:00;CYQB 070800Z 00000KT 15SM FEW004 FEW090 12/11 A2991 RMK SF1AC1 FG OVR RVR SLP128

CYQB;2009-08-07 08:23;CYQB 070823Z 03003KT 15SM BKN002 BKN090 13/ RMK SF6AC2 FG OVR RVR

CYQB;2009-08-07 09:00;CYQB 070900Z 01003KT 15SM BKN002 BKN090 12/10 A2991 RMK SF6AC1 SLP129

CYQB;2009-08-07 10:00;CYQB 071000Z 07004KT 15SM BKN003 BKN100 12/10 A2990 RMK SF6AC1 SLP126

CYQB;2009-08-07 10:42;CYQB 071042Z 36004KT 10SM -SHRA OVC004 13/ RMK SF8 CIG LWR SW

CYQB;2009-08-07 10:48;CYQB 071048Z 36005KT 10SM TS OVC004 12/ RMK SF8 CB ASOCTD OCNL -SHRA

CYQB;2009-08-07 11:00;CYQB 071100Z 33008KT 10SM -TSRA OVC004 12/11 A2991 RMK SF8 CB PRSNT SLP129

CYQB;2009-08-07 11:13;CYQB 071113Z 35010G15KT 2 1/2SM -TSRA BR BKN004 OVC026CB 12/ RMK SF6CB2 RERA

CYQB;2009-08-07 11:22;CYQB 071122Z 34007G15KT 1SM R06/P6000FT/D TSRA BR SCT004 OVC025CB 12/ RMK SF4CB4

CYQB;2009-08-07 11:49;CYQB 071149Z 35002KT 3SM -TSRA BR FEW004 BKN030CB OVC060 12/ RMK SF2CB3SC3 RERA

CYQB;2009-08-07 12:00;CYQB 071200Z 24002KT 3SM -TSRA BR FEW004 SCT035CB OVC060 13/12 A2995 RMK SF2CB2SC4 RERA SLP142

CYQB;2009-08-07 12:41;CYQB 071241Z 36007KT 3SM -SHRA BR FEW004 BKN040 OVC060 13/ RMK SF2SC3SC3 RETS

CYQB;2009-08-07 13:00;CYQB 071300Z 36006KT 5SM -SHRA BR FEW007 SCT040 OVC058 13/12 A2994 RMK SF1SC3SC4 RETS SLP138

CYQB;2009-08-07 14:00;CYQB 071400Z 28008KT 15SM -SHRA FEW010 FEW040 OVC070 14/11 A2994 RMK SF2SC1AC6 SLP141

CYQB;2009-08-07 14:17;CYQB 071417Z 30009G15KT 20SM FEW010 FEW040 BKN070 OVC110 14/ RMK SF1SC1AC6AC1

CYQB;2009-08-07 15:00;CYQB 071500Z 31004KT 20SM FEW010 FEW040 SCT070 OVC150 14/11 A2996 RMK SF1SC1AC2AC5 SLP146

CYQB;2009-08-07 16:00;CYQB 071600Z 32004KT 30SM FEW010 FEW040 BKN070 OVC150 15/11 A2996 RMK SF1SC2AC2AC2 SLP146

CYQB;2009-08-07 17:00;CYQB 071700Z 34008KT 30SM FEW020 FEW040 BKN067 OVC150 16/10 A2996 RMK SC1SC1SC5AC2 SLP146

CYQB;2009-08-07 18:00;CYQB 071800Z 30008KT 30SM FEW020 FEW050 BKN075 OVC150 17/12 A2996 RMK SC2SC1AC4AC2 SLP147

CYQB;2009-08-07 19:00;CYQB 071900Z 34008KT 30SM FEW035 SCT075 BKN220 18/11 A2996 RMK SC2AC2CI2 SLP145

CYQB;2009-08-07 20:00;CYQB 072000Z 35002KT 30SM BKN045 BKN075 BKN220 18/10 A2997 RMK CU5AC1CI1 VIS LWR SW SLP148

CYQB;2009-08-07 20:12;CYQB 072012Z 32007KT 15SM -SHRA BKN045 17/ RMK CU7 TCU ASOCTD

CYQB;2009-08-07 20:35;CYQB 072035Z 29005KT 20SM SCT045 BKN060 17/ RMK CU4SC3 VIS LWR SW

CYQB;2009-08-07 21:00;CYQB 072100Z 33011KT 20SM SCT040 BKN082 19/10 A2998 RMK CU3AC2 SLP153

CYQB;2009-08-07 22:00;CYQB 072200Z 32010KT 20SM FEW040 BKN074 19/10 A3000 RMK CU2AC4 SLP159

CYQB;2009-08-07 23:00;CYQB 072300Z 30004KT 15SM SCT070 17/10 A3002 RMK AC4 SLP165

CYQB;2009-08-08 00:00;CYQB 080000Z 24004KT 15SM FEW070 15/11 A3003 RMK AC2 SLP170

CYQB;2009-08-08 01:00;CYQB 080100Z 23004KT 15SM FEW070 14/11 A3005 RMK AC1 SLP178

CYQB;2009-08-08 02:00;CYQB 080200Z 29003KT 15SM SKC 12/10 A3007 RMK SLP184

CYQB;2009-08-08 03:00;CYQB 080300Z 01002KT 15SM FEW240 13/09 A3008 RMK CI1 SLP187

CYQB;2009-08-08 04:00;CYQB 080400Z 36004KT 15SM SKC 11/09 A3010 RMK SLP194

CYQB;2009-08-08 05:00;CYQB 080500Z 36006KT 15SM FEW080 11/09 A3011 RMK AC0 SLP199

CYQB;2009-08-08 06:00;CYQB 080600Z 36004KT 15SM FEW080 11/08 A3012 RMK AC0 SLP202

CYQB;2009-08-08 07:00;CYQB 080700Z 33006KT 15SM SKC 11/07 A3013 RMK SLP203

CYQB;2009-08-08 08:00;CYQB 080800Z 27003KT 15SM SKC 10/07 A3013 RMK SLP205

CYQB;2009-08-08 09:00;CYQB 080900Z 00000KT 15SM FEW070 FEW240 09/07 A3014 RMK AC1CI1 SLP207

CYQB;2009-08-08 10:00;CYQB 081000Z CCA 11004KT 30SM FEW070 FEW240 10/07 A3015 RMK AC1CI1 SLP212

CYQB;2009-08-08 11:00;CYQB 081100Z 10002KT 30SM FEW010 FEW070 FEW240 12/10 A3017 RMK CF1AC1CI1 SLP218

CYQB;2009-08-08 12:00;CYQB 081200Z 22002KT 30SM FEW010 FEW070 FEW240 13/09 A3018 RMK CF1AC1CI1 SLP222

CYQB;2009-08-08 13:00;CYQB 081300Z 25005KT 30SM FEW010 FEW070 FEW240 14/10 A3018 RMK CF1AC1CI1 SLP220

CYQB;2009-08-08 14:00;CYQB 081400Z 23008KT 30SM FEW025 FEW120 FEW240 16/11 A3019 RMK CU1AC1CI1 SLP226

CYQB;2009-08-08 15:00;CYQB 081500Z 22012KT 30SM FEW030 FEW140 FEW240 18/12 A3020 RMK CU1AC1CI1 SLP227

CYQB;2009-08-08 16:00;CYQB 081600Z 24012KT 30SM FEW035 BKN080 19/13 A3017 RMK CU2AC4 SLP218

CYQB;2009-08-08 17:00;CYQB 081700Z 22012KT 30SM SCT050 BKN080 20/13 A3015 RMK CU3AC3 SLP211

CYQB;2009-08-08 18:00;CYQB 081800Z 23011G17KT 30SM FEW050 BKN085 21/11 A3015 RMK CU2AC5 SLP210

CYQB;2009-08-08 19:00;CYQB 081900Z 22010G17KT 30SM FEW050 SCT086 22/11 A3013 RMK CU2AC2 SLP204

CYQB;2009-08-08 20:00;CYQB 082000Z 23014KT 30SM FEW055 SCT090 22/12 A3012 RMK CU2AC2 SLP201

CYQB;2009-08-08 21:00;CYQB 082100Z 25012G18KT 30SM FEW055 SCT098 SCT220 21/11 A3012 RMK CU1AC3CI1 SLP202

CYQB;2009-08-08 22:00;CYQB 082200Z 25010KT 30SM FEW055 BKN100 BKN220 20/11 A3012 RMK CU1AC4CI1 SLP202

CYQB;2009-08-08 23:00;CYQB 082300Z 24007KT 30SM FEW055 FEW100 FEW220 20/12 A3012 RMK CU1AC1CI1 SLP202

CYQB;2009-08-09 00:00;CYQB 090000Z 24006KT 30SM FEW055 FEW100 FEW220 18/11 A3011 RMK CU1AC1CI1 SLP198

CYQB;2009-08-09 01:00;CYQB 090100Z 25003KT 15SM FEW100 FEW220 16/11 A3012 RMK AC1CI1 SLP202

CYQB;2009-08-09 02:00;CYQB 090200Z 27007KT 15SM FEW220 15/11 A3013 RMK CI1 SLP205

CYQB;2009-08-09 03:00;CYQB 090300Z 24003KT 15SM FEW220 15/11 A3013 RMK CI1 SLP204

CYQB;2009-08-09 04:00;CYQB 090400Z 18002KT 15SM SKC 13/11 A3014 RMK SLP208

CYQB;2009-08-09 05:00;CYQB 090500Z 06002KT 15SM FEW220 14/11 A3014 RMK CI1 SLP209

CYQB;2009-08-09 06:00;CYQB 090600Z 03002KT 15SM FEW090 FEW220 12/11 A3014 RMK AC1CI2 SLP207

CYQB;2009-08-09 07:00;CYQB 090700Z 01002KT 15SM BKN180 13/11 A3014 RMK AC6 SLP207

CYQB;2009-08-09 08:00;CYQB 090800Z 00000KT 15SM FEW130 BKN180 BKN210 13/11 A3011 RMK AC2AC3CI1 SLP199

CYQB;2009-08-09 09:00;CYQB 090900Z 01003KT 15SM SCT150 BKN180 13/11 A3011 RMK AC3AC4 SLP197

CYQB;2009-08-09 10:00;CYQB 091000Z 00000KT 15SM FEW120 BKN150 13/11 A3012 RMK AC2AC6 SLP200

CYQB;2009-08-09 11:00;CYQB 091100Z 04002KT 30SM FEW130 BKN150 13/11 A3012 RMK AC2AC4 SLP199

CYQB;2009-08-09 12:00;CYQB 091200Z 00000KT 30SM SCT120 BKN140 15/12 A3011 RMK AC3AC4 SLP198

CYQB;2009-08-09 13:00;CYQB 091300Z 00000KT 30SM BKN120 BKN200 16/12 A3010 RMK AC6CI1 SLP193

CYQB;2009-08-09 14:00;CYQB 091400Z 00000KT 30SM FEW020 SCT120 19/11 A3009 RMK CU1AC3 SLP190

CYQB;2009-08-09 15:00;CYQB 091500Z 00000KT 50SM FEW020 BKN120 20/11 A3006 RMK CU1AC6 SLP178

CYQB;2009-08-09 16:00;CYQB 091600Z 09004KT 30SM FEW035 FEW120 BKN220 22/12 A3003 RMK CU1AC2CI0 SLP171

CYQB;2009-08-09 17:00;CYQB 091700Z 17004KT 30SM FEW035 BKN080 BKN140 23/13 A3001 RMK CU1AC4AC1 SLP162

CYQB;2009-08-09 18:00;CYQB 091800Z 20004KT 30SM FEW040 BKN080 BKN130 23/12 A2998 RMK SC1AC5AC1 SLP152

CYQB;2009-08-09 19:00;CYQB 091900Z 19006KT 30SM FEW040 BKN070 OVC110 23/13 A2995 RMK SC1AC5AC2 SLP143

CYQB;2009-08-09 20:00;CYQB 092000Z 00000KT 30SM -SHRA FEW040 FEW070 OVC100 22/14 A2993 RMK SC1AC1AC8 SLP135

CYQB;2009-08-09 21:00;CYQB 092100Z 36004KT 30SM OVC062 22/14 A2991 RMK SC8 INTMT -RA SLP128

CYQB;2009-08-09 21:05;CYQB 092105Z 36004KT 30SM OVC061 RMK SC8

CYQB;2009-08-09 22:00;CYQB 092200Z 01003KT 30SM -SHRA FEW040 OVC057 22/14 A2988 RMK SC1SC7 SLP119

CYQB;2009-08-09 22:35;CYQB 092235Z 03005KT 30SM FEW040 OVC051 22/ RMK SC1SC7

CYQB;2009-08-09 23:00;CYQB 092300Z 07005KT 30SM -SHRA OVC050 21/15 A2987 RMK SC8 -SHRA OCNL SLP117

CYQB;2009-08-10 00:00;CYQB 100000Z 09008KT 30SM -SHRA OVC042 20/15 A2986 RMK SC8 SLP114

CYQB;2009-08-10 01:00;CYQB 100100Z 09006KT 10SM -SHRA OVC018 18/16 A2988 RMK SC8 SLP120

CYQB;2009-08-10 01:31;CYQB 100131Z 08005KT 10SM -SHRA OVC014 17/ RMK SC8

CYQB;2009-08-10 01:49;CYQB 100149Z 10005KT 3SM -SHRA BR FEW009 OVC014 17/ RMK SF2SC6

CYQB;2009-08-10 02:00;CYQB 100200Z 09006KT 2 1/2SM -RA BR FEW004 OVC011 17/16 A2987 RMK SF2SC6 SLP116

CYQB;2009-08-10 02:31;CYQB 100231Z 08004KT 1 1/4SM -RA BR BKN004 OVC009 16/ RMK SF6SF2 CIG VRB 3-5

CYQB;2009-08-10 03:00;CYQB 100300Z 05004KT 1SM R06/P6000FT/N -DZ BR BKN002 OVC005 16/16 A2984 RMK SF6SF2 VIS HIER N SLP105

CYQB;2009-08-10 04:00;CYQB 100400Z 07004KT 1 1/4SM -DZ BR OVC003 16/16 A2984 RMK ST8 SLP104

CYQB;2009-08-10 05:00;CYQB 100500Z 06004KT 1SM R06/P6000FT/U -DZ BR OVC003 16/15 A2981 RMK ST8 SLP093

CYQB;2009-08-10 06:00;CYQB 100600Z 00000KT 1 1/2SM -DZ BR OVC003 16/16 A2980 RMK ST8 SLP092

CYQB;2009-08-10 07:00;CYQB 100700Z 00000KT 1SM R06/P6000FT/U -DZ BR VV002 16/16 A2980 RMK FG8 SLP090

CYQB;2009-08-10 08:00;CYQB 100800Z 00000KT 1 1/2SM -DZ BR VV002 16/16 A2980 RMK FG8 SLP090

CYQB;2009-08-10 08:48;CYQB 100848Z 00000KT 2SM -DZ BR SCT004 OVC008 17/ RMK SF4ST4

CYQB;2009-08-10 09:00;CYQB 100900Z 00000KT 2SM BR SCT004 OVC008 17/16 A2979 RMK SF3ST5 SLP089

CYQB;2009-08-10 10:00;CYQB 101000Z 22002KT 1 1/2SM BR OVC006 17/17 A2979 RMK ST8 SLP087

CYQB;2009-08-10 11:00;CYQB 101100Z 22005KT 1 1/4SM BR OVC008 19/18 A2978 RMK ST8 CIG VRB 6-10 SLP084

CYQB;2009-08-10 11:34;CYQB 101134Z 00000KT 1 1/4SM BR BKN003 OVC006 20/ RMK SF5ST3

CYQB;2009-08-10 12:00;CYQB 101200Z 24004KT 1 1/4SM BR BKN003 OVC007 20/19 A2978 RMK SF6ST2 SLP083

CYQB;2009-08-10 12:28;CYQB 101228Z 24007KT 1 3/4SM BR BKN006 OVC013 20/ RMK SF6SC2

CYQB;2009-08-10 13:00;CYQB 101300Z 25006KT 2SM -SHRA BR BKN008 OVC014 20/19 A2976 RMK SF6SC2 SLP077

CYQB;2009-08-10 13:38;CYQB 101338Z 26004KT 1 1/2SM -SHRA BR BKN006 OVC010 20/ RMK SF6ST2

CYQB;2009-08-10 14:00;CYQB 101400Z CCA 26006KT 1 1/2SM -SHRA BR BKN007 OVC014 20/19 A2976 RERA RMK SF6SC2 SLP079

CYQB;2009-08-10 14:46;CYQB 101446Z 27007KT 6SM BR BKN008 OVC012 21/ RMK SF6SC2

CYQB;2009-08-10 15:00;CYQB 101500Z 27005KT 6SM BR FEW008 BKN010 OVC025 22/20 A2976 RMK SF2SC6SC1 SLP077

CYQB;2009-08-10 16:00;CYQB 101600Z 26007KT 8SM SCT010 BKN020 22/19 A2975 RMK SF4SC3 HAZY SLP073

CYQB;2009-08-10 17:00;CYQB 101700Z 29004KT 15SM SCT020 BKN030 BKN069 24/19 A2974 RMK SC3SC3AC1 SLP071

CYQB;2009-08-10 18:00;CYQB 101800Z 25004KT 15SM FEW020 FEW030 BKN074 23/20 A2973 RMK SC1SC1AC6 SLP068

CYQB;2009-08-10 19:00;CYQB 101900Z 21006KT 15SM FEW020TCU SCT030 BKN100 24/20 A2973 RMK TCU2SC2AC4 SLP069

CYQB;2009-08-10 20:00;CYQB 102000Z 23007KT 20SM FEW020TCU SCT045 BKN100 24/21 A2974 RMK TCU2SC2AC3 SLP071

CYQB;2009-08-10 21:00;CYQB 102100Z 24004KT 20SM FEW020TCU SCT050 BKN180 26/21 A2973 RMK TCU2SC2AC1 SLP068

CYQB;2009-08-10 22:00;CYQB 102200Z CCA 07010KT 15SM FEW035TCU BKN090 BKN180 22/19 A2975 RMK TCU2AC3CI0 TCU E AND S VIS LWR E HAZY SLP075

CYQB;2009-08-10 23:00;CYQB 102300Z 08010KT 15SM FEW030TCU FEW060 BKN180 21/19 A2976 RMK TCU1SC1AC1 VIRGA N SLP079

CYQB;2009-08-11 00:00;CYQB 110000Z 05004KT 20SM FEW030 FEW180 20/18 A2978 RMK CU2AC1 TCU ASOCTD SLP086

CYQB;2009-08-11 01:00;CYQB 110100Z 02003KT 15SM FEW030 FEW180 20/18 A2980 RMK CU1AC1 SLP091

CYQB;2009-08-11 02:00;CYQB 110200Z 00000KT 15SM FEW180 18/17 A2981 RMK AC1 SLP094

CYQB;2009-08-11 03:00;CYQB 110300Z 00000KT 15SM FEW065 17/16 A2981 RMK SC1 SLP093

CYQB;2009-08-11 04:00;CYQB 110400Z 00000KT 15SM BKN066 BKN076 17/16 A2981 RMK AC5AC0 SLP096

CYQB;2009-08-11 05:00;CYQB 110500Z 01004KT 15SM FEW012 BKN074 18/16 A2982 RMK SF1AC5 SLP098

CYQB;2009-08-11 06:00;CYQB 110600Z 36006KT 15SM FEW012 BKN071 18/16 A2981 RMK SF1AC5 SLP096

CYQB;2009-08-11 07:00;CYQB 110700Z 04005KT 15SM FEW012 BKN032 BKN064 18/16 A2981 RMK SF1SC5SC1 SLP095

CYQB;2009-08-11 08:00;CYQB 110800Z 03002KT 15SM FEW012 BKN032 BKN071 18/16 A2982 RMK SF1SC5AC1 SLP097

CYQB;2009-08-11 09:00;CYQB 110900Z 01003KT 15SM FEW012 BKN035 BKN070 18/15 A2982 RMK SF1SC5AC0 SLP098

CYQB;2009-08-11 10:00;CYQB 111000Z 00000KT 25SM FEW015 SCT035 BKN070 BKN110 BKN230 18/15 A2983 RMK SC1SC2AC2AC1CI0 SLP103

CYQB;2009-08-11 11:00;CYQB 111100Z 02004KT 30SM FEW015 BKN110 BKN170 BKN230 18/15 A2985 RMK CU1AC6AC1CI1 SLP107

CYQB;2009-08-11 12:00;CYQB 111200Z 02004KT 30SM FEW020 FEW110 BKN170 BKN230 19/16 A2985 RMK CU1AC1AC4CI1 SLP108

CYQB;2009-08-11 13:00;CYQB 111300Z 07007KT 30SM FEW020 FEW035 BKN170 BKN230 21/15 A2986 RMK CU1SC2AC2CI1 SLP112

CYQB;2009-08-11 14:00;CYQB 111400Z 07006KT 30SM FEW025 FEW090 BKN170 BKN230 22/17 A2986 RMK CU1AC2AC2CI1 SLP111

CYQB;2009-08-11 15:00;CYQB 111500Z CCA 07005KT 30SM FEW030 SCT076 BKN170 BKN230 23/16 A2987 RMK CU1AC2AC2CI1 TCU S-SW SLP114

CYQB;2009-08-11 16:00;CYQB 111600Z 11005KT 30SM FEW035 SCT076 SCT180 BKN230 24/17 A2986 RMK CU1AC2AC1CI1 CC ASOCTD SLP113

CYQB;2009-08-11 17:00;CYQB 111700Z 06004KT 30SM FEW035 SCT083 BKN230 25/16 A2986 RMK CU1AC3CI0 TCU ASOCTD SLP112

CYQB;2009-08-11 18:00;CYQB 111800Z 06005KT 30SM FEW040TCU SCT090 BKN230 24/15 A2986 RMK TCU1AC3CI0 SLP112

CYQB;2009-08-11 19:00;CYQB 111900Z 05007KT 30SM FEW040TCU SCT090 25/15 A2985 RMK TCU1AC2 SLP108

CYQB;2009-08-11 20:00;CYQB 112000Z 07008KT 30SM FEW040 FEW090 25/15 A2984 RMK CU1AC1 SLP106

CYQB;2009-08-11 21:00;CYQB 112100Z 07008KT 30SM FEW040 FEW090 24/16 A2986 RMK CU1AC1 SLP110

CYQB;2009-08-11 22:00;CYQB 112200Z 07008KT 30SM FEW040 FEW091 24/15 A2986 RMK CU1AC1 SLP113

CYQB;2009-08-11 23:00;CYQB 112300Z 06007KT 30SM FEW040 FEW090 FEW110 23/15 A2987 RMK CU1AC2AC1 SLP116

CYQB;2009-08-12 00:00;CYQB 120000Z 08007KT 25SM FEW040 FEW095 21/15 A2989 RMK CU1AC1 SLP122

CYQB;2009-08-12 01:00;CYQB 120100Z 09007KT 15SM FEW040 FEW070 19/15 A2991 RMK CU1AC2 SLP129

CYQB;2009-08-12 02:00;CYQB 120200Z 07007KT 15SM FEW070 19/15 A2992 RMK AC2 SLP132

CYQB;2009-08-12 03:00;CYQB 120300Z 08005KT 15SM FEW060 FEW090 18/14 A2993 RMK SC1AC2 SLP136

CYQB;2009-08-12 04:00;CYQB 120400Z 06004KT 15SM FEW060 BKN090 18/14 A2994 RMK SC2AC2 SLP139

CYQB;2009-08-12 05:00;CYQB 120500Z 05004KT 15SM BKN080 18/14 A2994 RMK AC6 SLP140

CYQB;2009-08-12 06:00;CYQB 120600Z 05004KT 15SM BKN098 18/14 A2995 RMK AC6 SLP143

CYQB;2009-08-12 07:00;CYQB 120700Z 03004KT 15SM SCT095 17/14 A2996 RMK AC3 SLP146

CYQB;2009-08-12 08:00;CYQB 120800Z 01005KT 15SM FEW090 17/14 A2997 RMK AC2 SLP149

CYQB;2009-08-12 09:00;CYQB 120900Z 03004KT 15SM FEW090 16/14 A2998 RMK AC2 SLP153

CYQB;2009-08-12 10:00;CYQB 121000Z 03003KT 30SM FEW015 FEW090 16/14 A3000 RMK SF1AC1 SLP158

CYQB;2009-08-12 11:00;CYQB 121100Z 02003KT 30SM FEW007 FEW020 17/14 A3002 RMK SF1CF1 SLP166

CYQB;2009-08-12 12:00;CYQB 121200Z 05006KT 30SM FEW020 FEW080 18/14 A3003 RMK CF1AC1 SLP171

CYQB;2009-08-12 13:00;CYQB 121300Z 05006KT 30SM FEW020 FEW090 20/15 A3004 RMK CF1AC1 SLP173

CYQB;2009-08-12 14:00;CYQB 121400Z 08004KT 30SM FEW028 FEW090 21/14 A3004 RMK CU1AC1 TCU ASOCTD SLP174

CYQB;2009-08-12 15:00;CYQB 121500Z 12002KT 30SM FEW028 23/16 A3005 RMK CU1 TCU ASOCTD SLP175

CYQB;2009-08-12 16:00;CYQB 121600Z 16002KT 30SM FEW032 24/17 A3004 RMK CU2 TCU ASOCTD SLP174

CYQB;2009-08-12 17:00;CYQB 121700Z CCA 09003KT 30SM FEW036 FEW220 25/16 A3004 RMK CU2CI0 TCU ASOCTD SLP173

CYQB;2009-08-12 18:00;CYQB 121800Z 00000KT 30SM FEW040 26/16 A3003 RMK CU2 TCU ASOCTD SLP168

CYQB;2009-08-12 19:00;CYQB 121900Z 31003KT 30SM FEW040 27/16 A3002 RMK CU1 SLP166

CYQB;2009-08-12 20:00;CYQB 122000Z 00000KT 30SM FEW048 27/15 A3002 RMK CU1 SLP164

CYQB;2009-08-12 21:00;CYQB 122100Z 20004KT 30SM FEW048TCU 27/15 A3002 RMK TCU2 SLP165

CYQB;2009-08-12 22:00;CYQB 122200Z 20002KT 30SM FEW048TCU 27/14 A3001 RMK TCU1 SLP163

CYQB;2009-08-12 23:00;CYQB 122300Z 22003KT 30SM FEW044TCU 25/15 A3002 RMK TCU1 SLP165

CYQB;2009-08-13 00:00;CYQB 130000Z 28002KT 30SM R06/4500VP6000FT/D FEW040 FEW060 24/16 A3003 RMK CU1SC1 SLP168

CYQB;2009-08-13 01:00;CYQB 130100Z 04002KT 15SM SKC 23/17 A3005 RMK SLP176

CYQB;2009-08-13 02:00;CYQB 130200Z 35003KT 15SM SKC 20/17 A3006 RMK SLP178

CYQB;2009-08-13 03:00;CYQB 130300Z 36002KT 15SM FEW074 20/16 A3006 RMK AC1 SLP179

CYQB;2009-08-13 04:00;CYQB 130400Z 01004KT 15SM SKC 20/16 A3006 RMK SLP180

CYQB;2009-08-13 05:00;CYQB 130500Z 02004KT 15SM SKC 19/16 A3007 RMK SLP183

CYQB;2009-08-13 06:00;CYQB 130600Z 02004KT 15SM FEW060 18/15 A3007 RMK SC2 SLP184

CYQB;2009-08-13 07:00;CYQB 130700Z 03004KT 15SM FEW060 18/15 A3008 RMK SC1 SLP187

CYQB;2009-08-13 08:00;CYQB 130800Z 02005KT 15SM SKC 17/15 A3009 RMK SLP190

CYQB;2009-08-13 09:00;CYQB 130900Z 01005KT 15SM SKC 17/14 A3010 RMK SLP192

CYQB;2009-08-13 10:00;CYQB 131000Z 02003KT 15SM FEW005 17/14 A3011 RMK SF1 SLP195

CYQB;2009-08-13 10:53;CYQB 131053Z 00000KT 10SM BKN006 BKN090 17/ RMK ST5AC2

CYQB;2009-08-13 11:00;CYQB 131100Z 01002KT 12SM BKN005 BKN090 OVC220 17/14 A3012 RMK ST6AC1CI1 SLP200

CYQB;2009-08-13 11:20;CYQB 131120Z 02002KT 15SM SCT005 SCT090 BKN220 18/ RMK ST4AC1CI0

CYQB;2009-08-13 12:00;CYQB 131200Z 01003KT 15SM FEW090 19/16 A3013 RMK AC1 SLP202

CYQB;2009-08-13 13:00;CYQB 131300Z 00000KT 8SM SKC 20/17 A3012 RMK HAZY SLP201

CYQB;2009-08-13 14:00;CYQB 131400Z 23002KT 20SM FEW040 23/18 A3012 RMK CU1 SLP199

CYQB;2009-08-13 15:00;CYQB 131500Z 25003KT 15SM FEW040 24/18 A3011 RMK CU1 TCU ASOCTD SLP197

CYQB;2009-08-13 16:00;CYQB 131600Z 22004KT 30SM FEW050 26/18 A3011 RMK CU2 TCU ASOCTD SLP197

CYQB;2009-08-13 17:00;CYQB 131700Z CCA 23007KT 30SM FEW050 27/16 A3010 RMK CU2 TCU ASOCTD SLP194

CYQB;2009-08-13 18:00;CYQB 131800Z 24007KT 30SM FEW050 28/17 A3009 RMK CU2 DIST CB S SLP190

CYQB;2009-08-13 19:00;CYQB 131900Z 26006KT 30SM FEW050 28/16 A3008 RMK CU2 CB S SLP188

CYQB;2009-08-13 20:00;CYQB 132000Z 22008KT 30SM FEW050 28/17 A3006 RMK CU1 DIST CB E-S SLP180

CYQB;2009-08-13 21:00;CYQB 132100Z 24006KT 30SM FEW050 28/17 A3006 RMK CU1 DIST CB TOPS E-S SLP177

CYQB;2009-08-13 22:00;CYQB 132200Z 22007KT 30SM FEW050 27/16 A3005 RMK CU1 DIST CB TOPS E-S SLP175

CYQB;2009-08-13 23:00;CYQB 132300Z 25007KT 30SM FEW050 26/16 A3004 RMK CU1 SLP172

CYQB;2009-08-14 00:00;CYQB 140000Z 25006KT 30SM FEW220 24/16 A3005 RMK CI1 SLP175

CYQB;2009-08-14 01:00;CYQB 140100Z 26005KT 15SM SKC 22/15 A3006 RMK SLP180

CYQB;2009-08-14 02:00;CYQB 140200Z 23006KT 15SM SKC 22/15 A3007 RMK SLP184

CYQB;2009-08-14 03:00;CYQB 140300Z 00000KT 15SM SKC 21/15 A3008 RMK SLP184

CYQB;2009-08-14 04:00;CYQB 140400Z 00000KT 15SM SKC 20/15 A3008 RMK SLP187

CYQB;2009-08-14 05:00;CYQB 140500Z 00000KT 15SM SKC 20/17 A3008 RMK SLP185

CYQB;2009-08-14 06:00;CYQB 140600Z 00000KT 15SM SKC 19/17 A3009 RMK SLP189

CYQB;2009-08-14 07:00;CYQB 140700Z 00000KT 15SM SKC 18/16 A3009 RMK SLP188

CYQB;2009-08-14 08:00;CYQB 140800Z 28002KT 15SM SKC 17/15 A3007 RMK SLP183

CYQB;2009-08-14 09:00;CYQB 140900Z 31003KT 15SM SKC 16/15 A3007 RMK SLP182

CYQB;2009-08-14 09:51;CYQB 140951Z 25004KT 20SM FEW008 16/ RMK SF1

CYQB;2009-08-14 10:00;CYQB 141000Z 25002KT 20SM FEW008 FEW100 FEW260 16/15 A3009 RMK SF1AC1CI0 SLP189

CYQB;2009-08-14 11:00;CYQB 141100Z 23009KT 10SM SCT003 18/17 A3010 RMK SF2 HAZY SLP192

CYQB;2009-08-14 11:34;CYQB 141134Z 23011KT 3/4SM R06/4000VP6000FT/D BR VV004 18/ RMK FG8

CYQB;2009-08-14 12:00;CYQB 141200Z 25006KT 3/4SM R06/P6000FT/D BR VV003 18/18 A3011 RMK FG8 SLP196

CYQB;2009-08-14 13:00;CYQB 141300Z 23011KT 3SM BR SCT004 20/18 A3012 RMK SF2 SLP200

CYQB;2009-08-14 14:00;CYQB 141400Z 24013KT 6SM BR FEW120 FEW190 22/18 A3012 RMK AC1CI1 SLP201

CYQB;2009-08-14 15:00;CYQB 141500Z 23007KT 8SM FEW120 FEW190 24/19 A3011 RMK AC1CI1 HAZY SLP198

CYQB;2009-08-14 16:00;CYQB 141600Z 23009KT 15SM FEW120 FEW180 26/19 A3011 RMK AC0AC0 HAZY SLP196

CYQB;2009-08-14 17:00;CYQB 141700Z 23011KT 15SM FEW030 FEW120 FEW180 27/19 A3009 RMK SC0AC0AC0 SLP190

CYQB;2009-08-14 18:00;CYQB 141800Z 22013G18KT 15SM FEW030 FEW190 28/20 A3008 RMK CU0CI0 HAZY SLP186

CYQB;2009-08-14 19:00;CYQB 141900Z 22013KT 20SM FEW040 FEW200 29/20 A3006 RMK CU1CI0 HAZY SLP180

CYQB;2009-08-14 20:00;CYQB 142000Z CCA 23013KT 20SM FEW040 FEW200 29/19 A3006 RMK CU1CI0 HAZY SLP179

CYQB;2009-08-14 21:00;CYQB 142100Z 23012KT 20SM FEW040 SCT220 29/19 A3006 RMK CU1CI0 HAZY SLP180

CYQB;2009-08-14 22:00;CYQB 142200Z 26010KT 20SM FEW045 SCT240 28/19 A3007 RMK CU1CI0 SLP182

CYQB;2009-08-14 23:00;CYQB 142300Z 25007KT 20SM FEW240 27/19 A3007 RMK CI0 HAZY SLP182

CYQB;2009-08-15 00:00;CYQB 150000Z 25004KT 20SM FEW180 FEW240 25/19 A3008 RMK AC1CI0 HAZY SLP186

CYQB;2009-08-15 01:00;CYQB 150100Z 24004KT 15SM FEW180 FEW240 24/19 A3010 RMK AC1CI0 SLP193

CYQB;2009-08-15 02:00;CYQB 150200Z 24005KT 15SM SKC 23/18 A3009 RMK SLP191

CYQB;2009-08-15 03:00;CYQB 150300Z 23005KT 15SM SKC 23/18 A3009 RMK SLP189

CYQB;2009-08-15 04:00;CYQB 150400Z 23005KT 15SM SKC 21/18 A3008 RMK SLP184

CYQB;2009-08-15 05:00;CYQB 150500Z 23009KT 15SM SKC 21/18 A3007 RMK SLP181

CYQB;2009-08-15 06:00;CYQB 150600Z 25004KT 15SM SKC 21/18 A3008 RMK SLP184

CYQB;2009-08-15 07:00;CYQB 150700Z 24006KT 15SM SKC 20/18 A3009 RMK SLP188

CYQB;2009-08-15 08:00;CYQB 150800Z 24006KT 15SM SKC 20/18 A3009 RMK SLP188

CYQB;2009-08-15 09:00;CYQB 150900Z 25006KT 15SM FEW150 FEW220 19/18 A3009 RMK AC1CI0 SLP188

CYQB;2009-08-15 10:00;CYQB 151000Z 24007KT 15SM FEW150 19/17 A3009 RMK AC1 SLP188

CYQB;2009-08-15 11:00;CYQB 151100Z 25007KT 6SM BR FEW020 19/18 A3009 RMK SC1 SLP190

CYQB;2009-08-15 12:00;CYQB 151200Z 25008KT 8SM FEW020 FEW150 20/18 A3009 RMK CU1AC1 SLP191

CYQB;2009-08-15 13:00;CYQB 151300Z 27012KT 10SM BKN011 22/19 A3010 RMK CU5 SLP193

CYQB;2009-08-15 14:00;CYQB 151400Z 25011KT 7SM SCT011 BKN060 BKN220 23/19 A3010 RMK CU3CU2CI1 HAZY SLP193

CYQB;2009-08-15 15:00;CYQB 151500Z 23011KT 10SM FEW020 FEW060 FEW150 26/20 A3009 RMK CU1SC1AC1 HAZY SLP189

CYQB;2009-08-15 16:00;CYQB 151600Z 24013KT 15SM FEW030 FEW080 FEW230 27/19 A3008 RMK CU1AC1CI0 SLP187

CYQB;2009-08-15 17:00;CYQB 151700Z 23011G17KT 15SM FEW030 FEW060 28/19 A3006 RMK CU1CU1 SLP180

CYQB;2009-08-15 18:00;CYQB 151800Z 24016KT 15SM FEW030 FEW070 FEW210 28/19 A3005 RMK CU1AC1CI1 HAZY SLP174

CYQB;2009-08-15 19:00;CYQB 151900Z 24015KT 15SM FEW040 BKN240 29/18 A3002 RMK CU2CI1 SLP166

CYQB;2009-08-15 20:00;CYQB 152000Z 25014G19KT 15SM FEW040 BKN240 29/18 A3002 RMK CU1CI2 SLP165

CYQB;2009-08-15 21:00;CYQB 152100Z 24015KT 15SM FEW060 BKN240 29/19 A3002 RMK CU1CI1 SLP164

CYQB;2009-08-15 22:00;CYQB 152200Z 25014KT 15SM FEW060 BKN240 28/19 A3002 RMK CU1CI2 SLP164

CYQB;2009-08-15 23:00;CYQB 152300Z 26007KT 15SM FEW070 BKN240 27/20 A3003 RMK AC1CI2 SLP170

CYQB;2009-08-16 00:00;CYQB 160000Z 25007KT 12SM FEW070 FEW240 25/19 A3004 RMK AC1CI1 SLP173

CYQB;2009-08-16 01:00;CYQB 160100Z 23004KT 15SM FEW070 FEW220 23/19 A3006 RMK AC1CI0 SLP177

CYQB;2009-08-16 02:00;CYQB 160200Z 23007KT 15SM FEW240 23/19 A3007 RMK CI1 SLP181

CYQB;2009-08-16 03:00;CYQB 160300Z 23004KT 15SM FEW240 22/19 A3007 RMK CI1 SLP183

CYQB;2009-08-16 04:00;CYQB 160400Z 24007KT 15SM SCT240 22/19 A3007 RMK CI1 SLP183

CYQB;2009-08-16 05:00;CYQB 160500Z 24005KT 15SM SCT240 22/19 A3007 RMK CI1 SLP182

CYQB;2009-08-16 06:00;CYQB 160600Z 26002KT 15SM FEW055 20/18 A3007 RMK SC2 SLP183

CYQB;2009-08-16 07:00;CYQB 160700Z 00000KT 15SM FEW060 20/18 A3007 RMK SC2 SLP181

CYQB;2009-08-16 08:00;CYQB 160800Z 02003KT 15SM FEW060 20/18 A3007 RMK SC1 SLP182

CYQB;2009-08-16 09:00;CYQB 160900Z 01002KT 15SM FEW060 FEW100 SCT260 20/17 A3009 RMK SC1AC1CI1 SLP188

CYQB;2009-08-16 10:00;CYQB 161000Z 18002KT 15SM SCT120 BKN260 18/17 A3010 RMK AC4CI0 CMASC SLP193

CYQB;2009-08-16 11:00;CYQB 161100Z 35002KT 12SM SCT120 BKN260 20/18 A3012 RMK AC3CI0 HAZY SLP199

CYQB;2009-08-16 12:00;CYQB 161200Z 23003KT 6SM HZ SCT120 BKN260 21/19 A3013 RMK AC2CI1 SLP202

CYQB;2009-08-16 13:00;CYQB 161300Z 27003KT 8SM FEW160 BKN280 23/20 A3013 RMK AC1CI1 HAZY SLP202

CYQB;2009-08-16 14:00;CYQB 161400Z 22003KT 6SM HZ FEW130 OVC280 24/20 A3013 RMK AC1CI0 SLP203

CYQB;2009-08-16 15:00;CYQB 161500Z 23004KT 8SM FEW025 FEW130 BKN260 26/20 A3011 RMK CF1AC1CI1 SLP196

CYQB;2009-08-16 16:00;CYQB 161600Z 25006KT 10SM FEW025 OVC260 28/20 A3010 RMK CF1CI2 HAZY SLP191

CYQB;2009-08-16 17:00;CYQB 161700Z 22007KT 12SM FEW040 FEW150 BKN260 29/20 A3008 RMK CU1AC1CI0 SLP186

CYQB;2009-08-16 18:00;CYQB 161800Z 26009KT 12SM FEW033 BKN110 OVC260 29/20 A3007 RMK CU2AC2CI0 SLP181

CYQB;2009-08-16 19:00;CYQB 161900Z 25009KT 12SM FEW035 BKN110 OVC260 30/20 A3006 RMK CU2AC2CI1 SLP178

CYQB;2009-08-16 20:00;CYQB 162000Z 26014KT 12SM SCT045 BKN110 BKN260 30/20 A3005 RMK CU4AC2CI0 SLP176

CYQB;2009-08-16 21:00;CYQB 162100Z 26012KT 12SM FEW045 SCT110 BKN260 29/20 A3004 RMK CU2AC1CI0 SLP173

CYQB;2009-08-16 22:00;CYQB 162200Z 26006KT 10SM BKN063 OVC110 28/20 A3004 RMK CU6AC2 TCU ASOCTD SLP173

CYQB;2009-08-16 23:00;CYQB 162300Z CCA 31009KT 10SM -SHRA BKN055 BKN260 26/21 A3005 RMK CU6CI1 SLP176

CYQB;2009-08-17 00:00;CYQB 170000Z 24006KT 11SM FEW055TCU BKN092 24/21 A3006 RMK TCU2AC4 HAZY SLP177

CYQB;2009-08-17 01:00;CYQB 170100Z 22003KT 11SM FEW045 FEW085 23/20 A3007 RMK CU1AC2 HAZY SLP183

CYQB;2009-08-17 02:00;CYQB 170200Z 08006KT 10SM BKN058 21/19 A3008 RMK SC5 SLP185

CYQB;2009-08-17 03:00;CYQB 170300Z 06005KT 10SM FEW055 20/18 A3007 RMK SC2 SLP183

CYQB;2009-08-17 04:00;CYQB 170400Z 06006KT 12SM FEW055 19/17 A3007 RMK SC1 SLP183

CYQB;2009-08-17 05:00;CYQB 170500Z 07006KT 12SM SKC 19/17 A3008 RMK SLP185

CYQB;2009-08-17 06:00;CYQB 170600Z 08003KT 12SM BKN060 19/17 A3008 RMK SC6 SLP185

CYQB;2009-08-17 07:00;CYQB 170700Z 07003KT 12SM FEW040 BKN060 19/17 A3008 RMK SC2SC5 SLP187

CYQB;2009-08-17 07:54;CYQB 170754Z 04004KT 10SM BKN008 BKN060 19/ RMK ST5SC2

CYQB;2009-08-17 08:00;CYQB 170800Z 04004KT 10SM BKN008 BKN065 19/17 A3008 RMK ST5SC2 SLP184

CYQB;2009-08-17 09:00;CYQB 170900Z 05003KT 10SM BKN008 19/17 A3008 RMK ST6 CIG VRB 7-9 SLP186

CYQB;2009-08-17 10:00;CYQB 171000Z 03002KT 6SM BR FEW003 OVC010 19/19 A3008 RMK SF1ST8 VIS LWR NW QUAD SLP187

CYQB;2009-08-17 11:00;CYQB 171100Z 00000KT 8SM FEW005 OVC011 20/17 A3009 RMK ST1ST8 HAZY SLP188

CYQB;2009-08-17 12:00;CYQB 171200Z 00000KT 8SM OVC009 20/18 A3009 RMK ST8 HAZY SLP191

CYQB;2009-08-17 13:00;CYQB 171300Z 29002KT 8SM OVC007 21/18 A3009 RMK ST8 HAZY SLP189

CYQB;2009-08-17 14:00;CYQB 171400Z 23005KT 2SM HZ OVC010 22/20 A3008 RMK ST8 SLP188

CYQB;2009-08-17 14:35;CYQB 171435Z 26008KT 5SM HZ OVC015 24/ RMK ST7

CYQB;2009-08-17 15:00;CYQB 171500Z 28008KT 6SM HZ BKN015 OVC190 24/20 A3008 RMK ST6CI1 SLP186

CYQB;2009-08-17 16:00;CYQB 171600Z 27008KT 5SM HZ SCT020 26/21 A3007 RMK SC4 SLP183

CYQB;2009-08-17 17:00;CYQB 171700Z 24014KT 5SM HZ SCT020 28/21 A3005 RMK SC4 SLP176

CYQB;2009-08-17 18:00;CYQB 171800Z 25014KT 10SM FEW020 30/21 A3003 RMK SC2 SLP168

CYQB;2009-08-17 19:00;CYQB 171900Z 25012KT 10SM FEW030TCU 30/20 A3000 RMK TCU1 SLP158

CYQB;2009-08-17 20:00;CYQB 172000Z 25015G20KT 10SM FEW030TCU 31/21 A2997 RMK TCU1 SLP150

CYQB;2009-08-17 21:00;CYQB 172100Z 23010G15KT 6SM HZ FEW030 30/21 A2994 RMK CU1 SLP140

CYQB;2009-08-17 22:00;CYQB 172200Z 23010KT 6SM HZ FEW180 29/20 A2994 RMK CI1 SLP138

CYQB;2009-08-17 23:00;CYQB 172300Z 24008KT 6SM HZ FEW030TCU FEW090 FEW210 28/21 A2994 RMK TCU1AC1CI0 TCU NW-NE SLP137

CYQB;2009-08-18 00:00;CYQB 180000Z 27003KT 6SM -TSRA HZ SCT053TCU BKN090 OVC210 27/21 A2994 RMK TCU3AC2CI1 CB ASOCTD SLP138

CYQB;2009-08-18 00:17;CYQB 180017Z 23011G18KT 1SM R06/3500VP6000FT/D TSRA HZ SCT008 BKN050TCU OVC090 25/ RMK SF4TCU3AC1 CB EMBD

CYQB;2009-08-18 00:23;CYQB 180023Z CCA 24010G18KT 3SM TS HZ SCT008 BKN050TCU BKN090 25/ RERA RMK SF4TCU2AC1 CB EMBD OCNL SHRA

CYQB;2009-08-18 00:45;CYQB 180045Z 23008KT 15SM SCT058TCU BKN090 OVC210 24/ RETSRA RMK TCU4AC3CI1

CYQB;2009-08-18 01:00;CYQB 180100Z 23008KT 15SM BKN060 OVC090 24/22 A2997 RETSRA RMK SC7AC1 SLP148

CYQB;2009-08-18 02:00;CYQB 180200Z 25008KT 15SM FEW060 SCT090 SCT150 23/21 A2995 RMK SC2AC1AC1 SLP143

CYQB;2009-08-18 03:00;CYQB 180300Z 24009KT 15SM SCT090 23/20 A2994 RMK AC3 SLP139

CYQB;2009-08-18 04:00;CYQB 180400Z 25010KT 15SM SCT090 22/20 A2995 RMK AC3 SLP141

CYQB;2009-08-18 05:00;CYQB 180500Z 25009KT 15SM FEW150 FEW170 22/20 A2995 RMK AC2AC1 SLP141

CYQB;2009-08-18 06:00;CYQB 180600Z 25008KT 10SM FEW009 OVC090 22/21 A2995 RMK SF2AC6 SLP141

CYQB;2009-08-18 06:40;CYQB 180640Z 26007KT 10SM OVC008 22/ RMK SF8

CYQB;2009-08-18 07:00;CYQB 180700Z 25006KT 10SM BKN008 OVC060 22/21 A2995 RMK SF7SC1 SLP141

CYQB;2009-08-18 08:00;CYQB 180800Z 25008KT 10SM OVC007 22/21 A2995 RMK ST8 SLP141

CYQB;2009-08-18 09:00;CYQB 180900Z 24008KT 6SM BR OVC005 22/20 A2994 RMK ST8 SLP139

CYQB;2009-08-18 09:24;CYQB 180924Z 26006KT 4SM BR FEW004 BKN008 OVC060 22/ RMK SF2ST6SC1

CYQB;2009-08-18 10:00;CYQB 181000Z 25005KT 2 1/2SM BR BKN008 BKN072 22/20 A2995 RMK FG2ST4AC1 SLP142

CYQB;2009-08-18 10:39;CYQB 181039Z 26006KT 3SM BR SCT008 BKN060 22/ RMK FG2ST2AC3 TCU ASOCTD N

CYQB;2009-08-18 11:00;CYQB 181100Z 27004KT 3SM BR SCT008 BKN060 BKN082 22/20 A2995 RMK FG2ST2AC2AC1 SLP141

CYQB;2009-08-18 11:05;CYQB 181105Z 25003KT 3SM -SHRA BR SCT008 BKN060 BKN099 22/ RMK FG2ST2AC2AC1

CYQB;2009-08-18 11:49;CYQB 181149Z 25005KT 7SM FEW008 FEW060 BKN140 BKN240 23/ RMK SF1SC1AC3CI1

CYQB;2009-08-18 12:00;CYQB 181200Z 25006KT 7SM FEW008 FEW050 BKN140 BKN240 23/21 A2994 RMK SF1SC1AC3CI0 SLP139

CYQB;2009-08-18 13:00;CYQB 181300Z 27006KT 8SM FEW011 BKN060 BKN140 24/21 A2992 RMK SF2SC2AC1 SLP132

CYQB;2009-08-18 14:00;CYQB 181400Z 24006KT 8SM FEW020 SCT240 26/21 A2990 RMK CF2CI2 SLP126

CYQB;2009-08-18 15:00;CYQB 181500Z 26012KT 8SM FEW022 BKN240 28/22 A2989 RMK CU2CI0 HAZY SLP121

CYQB;2009-08-18 16:00;CYQB 181600Z 22014KT 6SM HZ FEW025 BKN120 OVC240 29/21 A2986 RMK CU2AC2CI1 SLP111

CYQB;2009-08-18 17:00;CYQB 181700Z 25009KT 8SM FEW035 OVC120 28/22 A2983 RMK CU1AC6 HAZY SLP102

CYQB;2009-08-18 18:00;CYQB 181800Z 23014KT 8SM FEW040TCU BKN120 29/22 A2981 RMK TCU2AC4 HAZY SLP092

CYQB;2009-08-18 19:00;CYQB 181900Z 23024G30KT 8SM FEW045TCU SCT080 BKN220 30/21 A2977 RMK TCU2AC2CI0 SLP081

CYQB;2009-08-18 19:15;CYQB 181915Z 22023G34KT 2SM R06/3000VP6000FT/D +SHRA BKN050TCU OVC100 25/ RMK TCU6AC1

CYQB;2009-08-18 19:35;CYQB 181935Z CCA 24015G22KT 4SM -TSRA BR OVC040TCU 25/ RERA RMK TCU7 CB EMBD

CYQB;2009-08-18 19:49;CYQB 181949Z 22013G20KT 8SM TS FEW020 FEW040CB BKN100 BKN220 24/ RERA RMK SC1CB2AC2CI1 VIS LWR E

CYQB;2009-08-18 20:00;CYQB 182000Z 23013KT 8SM FEW020 SCT040 BKN090 BKN220 24/21 A2978 RETSRA RMK SC1SC3AC2CI0 CU ASOCTD VIS LWR E SLP082

CYQB;2009-08-18 20:35;CYQB 182035Z 23007KT 8SM -SHRA BKN040 OVC080 25/ RMK CU6AC1

CYQB;2009-08-18 20:50;CYQB 182050Z CCA 21009KT 8SM VCSH BKN037 BKN055 25/ RMK SC5SC2 VIS LWR NW

CYQB;2009-08-18 21:00;CYQB 182100Z 20009KT 8SM VCSH FEW020TCU BKN035 BKN090 BKN220 26/22 A2977 RMK TCU1SC5AC1CI1 VIS LWR N SLP079

CYQB;2009-08-18 22:00;CYQB 182200Z 22011G19KT 8SM BKN040 BKN060 BKN080 OVC220 26/21 A2977 RMK SC5SC1AC2CI0 SLP081

CYQB;2009-08-18 23:00;CYQB 182300Z 22010KT 10SM FEW030TCU FEW090 BKN220 25/21 A2976 RMK TCU2ACC1CI0 CB TOP SW QUAD SLP078

CYQB;2009-08-19 00:00;CYQB 190000Z 23011KT 15SM FEW030 FEW090 24/21 A2976 RMK CU1AC1 SLP078

CYQB;2009-08-19 01:00;CYQB 190100Z 22008KT 10SM FEW030 SCT090 23/21 A2978 RMK CU1AC2 SLP083

CYQB;2009-08-19 02:00;CYQB 190200Z 24006KT 10SM FEW080 BKN130 23/21 A2977 RMK AC2AC4 SLP081

CYQB;2009-08-19 03:00;CYQB 190300Z 27002KT 10SM FEW090 BKN120 23/21 A2975 RMK AC2AC4 SLP075

CYQB;2009-08-19 04:00;CYQB 190400Z 23007KT 10SM FEW020 SCT080 BKN120 24/21 A2975 RMK CU2AC2AC2 SLP072

CYQB;2009-08-19 05:00;CYQB 190500Z 24010G15KT 10SM BKN080 BKN120 23/21 A2974 RMK AC5AC2 SLP069

CYQB;2009-08-19 06:00;CYQB 190600Z 24011KT 10SM FEW012 BKN030 BKN120 23/21 A2974 RMK SF2SC2AC2 SLP069

CYQB;2009-08-19 07:00;CYQB 190700Z 26008KT 8SM BKN012 23/21 A2975 RMK SF5 HAZY SLP073

CYQB;2009-08-19 08:00;CYQB 190800Z 25009KT 8SM SCT012 22/20 A2976 RMK SF3 HAZY SLP076

CYQB;2009-08-19 09:00;CYQB 190900Z 25007KT 6SM BR FEW012 SCT075 21/20 A2978 RMK SF2AC1 SLP082

CYQB;2009-08-19 10:00;CYQB 191000Z 25010KT 6SM BR FEW012 FEW060 FEW250 21/19 A2979 RMK SF1SC1CI1 SLP088

CYQB;2009-08-19 11:00;CYQB 191100Z 26009KT 6SM BR FEW012 SCT028 BKN080 21/20 A2981 RMK SF1SC3AC3 SLP095

CYQB;2009-08-19 12:00;CYQB 191200Z 24013KT 8SM FEW012 FEW030 FEW080 FEW250 22/19 A2982 RMK SF1CU1AC1CI1 HAZY SLP097

CYQB;2009-08-19 13:00;CYQB 191300Z 24011KT 10SM BKN020 BKN080 BKN250 23/18 A2982 RMK CU6AC1CC1 SLP099

CYQB;2009-08-19 14:00;CYQB 191400Z 25013KT 15SM SCT022 BKN080 BKN200 23/18 A2982 RMK CU4AC1CC1 SLP097

CYQB;2009-08-19 15:00;CYQB 191500Z 27016KT 15SM FEW033 SCT130 SCT230 25/17 A2981 RMK CU2AC1CI0 TCU ASOCTD SLP093

CYQB;2009-08-19 16:00;CYQB 191600Z 25013KT 30SM BKN046 BKN140 BKN230 25/15 A2981 RMK CU5AS2CI0 SLP093

CYQB;2009-08-19 17:00;CYQB 191700Z 27010G15KT 30SM BKN050 BKN170 BKN240 24/15 A2981 RMK CU5AS2CI0 TCU ASOCTD SLP095

CYQB;2009-08-19 18:00;CYQB 191800Z 25012G19KT 30SM BKN052 BKN080 BKN180 BKN230 25/15 A2982 RMK CU5AC1AC1CI0 TCU ASOCTD SLP098

CYQB;2009-08-19 19:00;CYQB 191900Z 25015KT 30SM SCT036 SCT060 BKN240 26/16 A2983 RMK CU3SC1CI1 SLP099

CYQB;2009-08-19 20:00;CYQB 192000Z 26009KT 30SM FEW040 BKN080 BKN180 BKN240 25/15 A2984 RMK CU2AC2AC1CI0 SLP104

CYQB;2009-08-19 21:00;CYQB 192100Z 29009G15KT 30SM FEW060 SCT240 26/14 A2985 RMK CU2CI1 SLP107

CYQB;2009-08-19 22:00;CYQB 192200Z CCA 28009KT 30SM FEW044 FEW070 SCT240 25/13 A2985 RMK CU2AC1CI0 SLP109

CYQB;2009-08-19 23:00;CYQB 192300Z 29006KT 30SM FEW040 FEW080 23/14 A2986 RMK CU2AC1 SLP111

CYQB;2009-08-20 00:00;CYQB 200000Z 28003KT 30SM FEW060 FEW080 21/14 A2987 RMK SC2AC1 CU ASOCTD SLP116

CYQB;2009-08-20 01:00;CYQB 200100Z 25005KT 30SM FEW060 19/14 A2989 RMK SC2 SLP122

CYQB;2009-08-20 02:00;CYQB 200200Z 27002KT 15SM FEW060 18/13 A2990 RMK SC1 SLP125

CYQB;2009-08-20 03:00;CYQB 200300Z 24003KT 15SM FEW060 17/13 A2992 RMK SC1 SLP132

CYQB;2009-08-20 04:00;CYQB 200400Z 25003KT 15SM FEW060 16/13 A2994 RMK SC1 SLP137

CYQB;2009-08-20 05:00;CYQB 200500Z 22002KT 15SM FEW060 15/13 A2994 RMK SC1 SLP139

CYQB;2009-08-20 06:00;CYQB 200600Z 06002KT 15SM FEW060 16/13 A2994 RMK SC1 SLP138

CYQB;2009-08-20 07:00;CYQB 200700Z 00000KT 15SM SCT060 15/13 A2995 RMK SC3 SLP142

CYQB;2009-08-20 08:00;CYQB 200800Z 00000KT 15SM SCT060 14/12 A2997 RMK SC3 SLP147

CYQB;2009-08-20 09:00;CYQB 200900Z 02006KT 15SM FEW060 15/12 A2995 RMK SC1 SLP143

CYQB;2009-08-20 10:00;CYQB 201000Z 31003KT 30SM FEW060 BKN250 13/11 A2996 RMK SC1CI0 SLP146

CYQB;2009-08-20 11:00;CYQB 201100Z 00000KT 50SM FEW060 BKN250 14/13 A2998 RMK SC1CI0 SLP152

CYQB;2009-08-20 12:00;CYQB 201200Z 16002KT 50SM FEW005 BKN250 17/15 A3000 RMK SF1CI0 SLP159

CYQB;2009-08-20 13:00;CYQB 201300Z 00000KT 50SM FEW020 FEW180 BKN250 19/15 A3000 RMK CU1AC1CI0 SLP160

CYQB;2009-08-20 14:00;CYQB 201400Z 22002KT 50SM FEW018 BKN190 21/16 A2999 RMK CU1AC3 SLP156

CYQB;2009-08-20 15:00;CYQB 201500Z 22005KT 50SM FEW030 BKN240 22/15 A2998 RMK CU1CI0 SLP153

CYQB;2009-08-20 16:00;CYQB 201600Z 24008KT 50SM FEW036 FEW170 BKN230 23/14 A2998 RMK CU1AC1CS0 SLP152

CYQB;2009-08-20 17:00;CYQB 201700Z 24005KT 50SM FEW046 BKN100 BKN160 BKN200 24/12 A2998 RMK CU1AC4AC1CI1 SLP152

CYQB;2009-08-20 18:00;CYQB 201800Z 26005KT 30SM FEW050 FEW090 BKN160 24/13 A2998 RMK CU1AC1AC6 SLP154

CYQB;2009-08-20 19:00;CYQB 201900Z 27003KT 30SM FEW050 FEW080 BKN130 23/13 A2997 RMK CU1AC1AC6 SLP151

CYQB;2009-08-20 19:47;CYQB 201947Z 30003KT 30SM -SHRA FEW020 BKN100 BKN120 23/ RMK CF1AC6AC1

CYQB;2009-08-20 20:00;CYQB 202000Z 32003KT 30SM -SHRA SCT020 BKN120 OVC240 23/13 A2996 RMK SC3AC4CI1 SLP146

CYQB;2009-08-20 21:00;CYQB 202100Z 36003KT 30SM -SHRA FEW020 BKN100 BKN120 OVC240 23/13 A2994 RMK SC2AC5AC1CI1 PCPN VRY LGT SLP140

CYQB;2009-08-20 22:00;CYQB 202200Z 03005KT 15SM -SHRA FEW020 SCT080 OVC100 22/15 A2992 RMK SC2AC2AC4 SLP134

CYQB;2009-08-20 23:00;CYQB 202300Z 36008KT 15SM -SHRA FEW020 SCT080 OVC110 22/16 A2991 RMK SC2AC2AC4 SLP130

CYQB;2009-08-21 00:00;CYQB 210000Z 01004KT 15SM -SHRA FEW020 OVC058 21/16 A2992 RMK SC1SC7 SLP133

CYQB;2009-08-21 01:00;CYQB 210100Z 03005KT 15SM -SHRA FEW020 OVC050 20/17 A2994 RMK SC1SC7 SLP138

CYQB;2009-08-21 02:00;CYQB 210200Z 05005KT 15SM -SHRA FEW020 OVC050 20/16 A2994 RMK SC1SC7 SLP138

CYQB;2009-08-21 03:00;CYQB 210300Z 06007KT 15SM FEW020 OVC051 19/16 A2993 RMK SC1SC7 SLP135

CYQB;2009-08-21 04:00;CYQB 210400Z 05009KT 15SM OVC046 19/15 A2993 RMK SC8 SLP136

CYQB;2009-08-21 05:00;CYQB 210500Z 06010G15KT 15SM OVC043 19/14 A2992 RMK SC8 SLP131

CYQB;2009-08-21 06:00;CYQB 210600Z 06009G17KT 15SM BKN043 OVC060 19/14 A2991 RMK SC6SC2 SLP127

CYQB;2009-08-21 07:00;CYQB 210700Z 07012KT 15SM OVC040 20/15 A2989 RMK SC8 SLP120

CYQB;2009-08-21 08:00;CYQB 210800Z 07014KT 15SM OVC040 19/15 A2988 RMK SC8 SLP117

CYQB;2009-08-21 08:45;CYQB 210845Z 07010G15KT 15SM -RA OVC030 19/ RMK SC8

CYQB;2009-08-21 08:48;CYQB 210848Z CCA 07010G15KT 15SM -SHRA OVC030 19/ RMK SC8

CYQB;2009-08-21 09:00;CYQB 210900Z 07010G16KT 10SM -SHRA OVC030 19/15 A2986 RMK SC8 OBS TAKEN +5 SLP112

CYQB;2009-08-21 09:23;CYQB 210923Z 07007G15KT 2SM -SHRA OVC022 19/ RMK SC8

CYQB;2009-08-21 10:00;CYQB 211000Z 09004G16KT 15SM FEW012 OVC029 18/16 A2986 RMK SF1SC8 OCNL -SHRA SLP112

CYQB;2009-08-21 10:22;CYQB 211022Z 07012KT 15SM FEW012 OVC030 18/ RMK SF1SC8

CYQB;2009-08-21 11:00;CYQB 211100Z 07011KT 15SM FEW006 FEW012 OVC028 18/16 A2986 RMK SF1SC1SC8 SLP110

CYQB;2009-08-21 12:00;CYQB 211200Z 09009KT 10SM -SHRA FEW006 FEW012 OVC028 18/16 A2988 RMK SF1SC2SC6 VIS LWR SW SLP118

CYQB;2009-08-21 12:12;CYQB 211212Z 09007KT 3SM -SHRA FEW006 BKN018 OVC030 18/ RMK SF1SC5SC3

CYQB;2009-08-21 12:45;CYQB 211245Z 07006KT 10SM -SHRA FEW008 OVC018 18/ RMK SF1SC7 VIS LWR E

CYQB;2009-08-21 13:00;CYQB 211300Z 07006KT 10SM -SHRA FEW008 OVC018 18/17 A2986 RMK SF1SC7 SLP113

CYQB;2009-08-21 14:00;CYQB 211400Z 08006KT 10SM BKN008 OVC013 19/17 A2987 RMK SF4SC4 SLP114

CYQB;2009-08-21 15:00;CYQB 211500Z 07006KT 15SM BKN008 OVC015 20/18 A2986 RMK SF5SC3 SLP113

CYQB;2009-08-21 16:00;CYQB 211600Z 08008KT 15SM BKN008 OVC013 21/18 A2986 RMK SF4SC4 SLP110

CYQB;2009-08-21 17:00;CYQB 211700Z 07006KT 15SM SCT008 BKN013 OVC036 22/18 A2985 RMK SF3SC3SC2 SLP108

CYQB;2009-08-21 18:00;CYQB 211800Z 07005KT 15SM FEW008 FEW013 BKN047 BKN130 23/19 A2982 RMK SF1SC1SC4AC2 SLP098

CYQB;2009-08-21 19:00;CYQB 211900Z 05005KT 15SM SCT040 SCT090 BKN150 25/20 A2980 RMK CU3AC1AC0 TCU ASOCTD SLP092

CYQB;2009-08-21 20:00;CYQB 212000Z 12004KT 15SM FEW020 BKN100 BKN150 BKN240 25/20 A2980 RMK CU2AC4AC1CI1 TCU ASOCTD SLP090

CYQB;2009-08-21 21:00;CYQB 212100Z 07007KT 8SM FEW020 FEW090 BKN180 BKN240 24/20 A2979 RMK CU1AC2AC2CI2 HAZY SLP088

CYQB;2009-08-21 22:00;CYQB 212200Z 09006KT 8SM SCT011 BKN100 BKN170 BKN240 22/19 A2980 RMK SC3AC2AC1CI1 HAZY SLP092

CYQB;2009-08-21 23:00;CYQB 212300Z 07004KT 8SM FEW008 SCT090 BKN150 BKN240 21/19 A2980 RMK SF2AC2AC3CI1 SLP091

CYQB;2009-08-21 23:10;CYQB 212310Z 08007KT 8SM -SHRA SCT008 BKN090 BKN150 OVC240 21/ RMK SF3AC3AC1CI1 HAZY

CYQB;2009-08-21 23:29;CYQB 212329Z 07007KT 8SM -SHRA BKN007 BKN060 OVC130 21/ RMK SF5SC2AC2 HAZY

CYQB;2009-08-22 00:00;CYQB 220000Z 05007KT 8SM -SHRA BKN006 OVC060 20/18 A2980 RMK SF7SC1 SLP092

CYQB;2009-08-22 01:00;CYQB 220100Z 07007KT 6SM BR OVC005 20/18 A2979 RMK ST8 OCNL -SHRA SLP089

CYQB;2009-08-22 02:00;CYQB 220200Z 04003KT 3SM R06/4500VP6000FT/U -SHRA BR OVC005 19/18 A2981 RMK ST8 SLP096

CYQB;2009-08-22 03:00;CYQB 220300Z 12004KT 1SM R06/P6000FT/N BR OVC002 19/18 A2981 RMK ST8 SLP095

CYQB;2009-08-22 04:00;CYQB 220400Z 01003KT 1SM R06/P6000FT/D BR BKN003 OVC010 19/18 A2982 RMK ST6SC2 SLP097

CYQB;2009-08-22 05:00;CYQB 220500Z 03004KT 2SM BR BKN004 OVC010 19/18 A2981 RMK ST6SC2 SLP095

CYQB;2009-08-22 06:00;CYQB 220600Z 08003KT 1 1/2SM BR BKN003 OVC006 19/18 A2982 RMK SF6ST2 SLP099

CYQB;2009-08-22 07:00;CYQB 220700Z 12002KT 5SM BR FEW003 BKN006 OVC015 19/18 A2982 RMK SF1ST6SC1 SLP099

CYQB;2009-08-22 08:00;CYQB 220800Z 00000KT 5SM BR OVC004 19/18 A2983 RMK ST8 SLP101

CYQB;2009-08-22 09:00;CYQB 220900Z 00000KT 4SM BR BKN003 OVC006 19/18 A2984 RMK SF6ST2 SLP105

CYQB;2009-08-22 10:00;CYQB 221000Z 00000KT 4SM BR SCT009 BKN130 BKN200 19/18 A2986 RMK SF4AC2CI1 ACC ASOCTD N-E SLP111

CYQB;2009-08-22 10:17;CYQB 221017Z 00000KT 3SM BR SCT009 BKN011 OVC130 20/ RMK SF3SC4AC1

CYQB;2009-08-22 11:00;CYQB 221100Z 23002KT 4SM BR BKN011 OVC130 21/20 A2986 RMK SF6AC2 VIS LWR W SLP110

CYQB;2009-08-22 12:00;CYQB 221200Z 24008KT 6SM BR SCT010 BKN045 OVC120 22/20 A2987 RMK SF3SC2AC3 SLP116

CYQB;2009-08-22 12:26;CYQB 221226Z 23004KT 6SM BR SCT008 BKN015 OVC120 22/ RMK SF3SC3AC2 VIS LWR W

CYQB;2009-08-22 13:00;CYQB 221300Z 27005KT 6SM BR FEW008 BKN080 BKN120 OVC220 23/20 A2988 RMK SF2AC4AC2CI1 SLP117

CYQB;2009-08-22 14:00;CYQB 221400Z 24009KT 10SM SCT015 BKN070 OVC220 23/20 A2989 RMK SC4AC1CI1 HAZY SLP120

CYQB;2009-08-22 15:00;CYQB 221500Z 24008KT 15SM SCT014 BKN070 OVC220 25/21 A2989 RMK SC4AC2CI1 HAZY SLP121

CYQB;2009-08-22 16:00;CYQB 221600Z 21010KT 15SM SCT020 SCT060 BKN080 BKN220 26/20 A2988 RMK CU3SC1AC1CI2 HAZY SLP117

CYQB;2009-08-22 17:00;CYQB 221700Z 22013KT 20SM SCT030 BKN060 BKN220 27/19 A2987 RMK CU4SC2CI1 SLP114

CYQB;2009-08-22 18:00;CYQB 221800Z 26011KT 20SM SCT030 BKN060 BKN160 26/20 A2986 RMK CU3SC2AC2 TCU ASOCTD SLP113

CYQB;2009-08-22 19:00;CYQB 221900Z 26011KT 20SM FEW035 BKN140 BKN230 27/20 A2986 RMK CU1AC5CI2 SLP110

CYQB;2009-08-22 20:00;CYQB 222000Z 25009KT 20SM FEW040 BKN140 BKN230 28/19 A2985 RMK CU2AC4CI1 SLP109

CYQB;2009-08-22 21:00;CYQB 222100Z 27006KT 20SM FEW040 SCT140 BKN230 27/18 A2985 RMK CU1AC3CI3 SLP108

CYQB;2009-08-22 22:00;CYQB 222200Z 25006KT 20SM FEW040 BKN220 25/18 A2985 RMK CU1CC6 SLP108

CYQB;2009-08-22 23:00;CYQB 222300Z 28004KT 15SM FEW040 FEW130 BKN230 24/18 A2985 RMK CU1AC1CI6 SLP109

CYQB;2009-08-23 00:00;CYQB 230000Z 25002KT 15SM FEW040 FEW060 BKN210 23/18 A2986 RMK CU1SC2CI6 SLP110

CYQB;2009-08-23 01:00;CYQB 230100Z 34003KT 15SM FEW060 SCT130 OVC210 22/18 A2987 RMK SC1AC2CI5 SLP115

CYQB;2009-08-23 02:00;CYQB 230200Z 36005KT 15SM FEW060 OVC120 23/18 A2989 RMK SC1AC7 SLP120

CYQB;2009-08-23 03:00;CYQB 230300Z 36004KT 15SM OVC120 22/18 A2988 RMK AC8 SLP119

CYQB;2009-08-23 04:00;CYQB 230400Z 03003KT 15SM SCT120 21/18 A2988 RMK AC4 SLP117

CYQB;2009-08-23 05:00;CYQB 230500Z 36004KT 15SM FEW140 SCT180 BKN240 21/18 A2987 RMK AC2AC2CI2 SLP115

CYQB;2009-08-23 06:00;CYQB 230600Z 03003KT 15SM BKN180 21/18 A2986 RMK AC6 SLP111

CYQB;2009-08-23 07:00;CYQB 230700Z 02005KT 15SM OVC170 20/18 A2986 RMK AC8 SLP111

CYQB;2009-08-23 08:00;CYQB 230800Z 06007KT 15SM OVC150 21/18 A2986 RMK AC8 SLP110

CYQB;2009-08-23 09:00;CYQB 230900Z 07007KT 15SM OVC140 21/16 A2985 RMK AC8 SLP108

CYQB;2009-08-23 10:00;CYQB 231000Z 06007KT 20SM FEW025 BKN140 BKN220 21/16 A2985 RMK SC1AC6CI2 SLP109

CYQB;2009-08-23 11:00;CYQB 231100Z 07012KT 20SM FEW025 BKN160 OVC220 20/16 A2986 RMK SC1AC6CI2 SLP110

CYQB;2009-08-23 12:00;CYQB 231200Z 07014KT 20SM FEW025 OVC130 20/15 A2986 RMK SC1AC7 SLP113

CYQB;2009-08-23 13:00;CYQB 231300Z 08015G21KT 20SM FEW025 FEW040 OVC150 20/15 A2988 RMK SC1SC1AC6 SLP118

CYQB;2009-08-23 14:00;CYQB 231400Z 08010G18KT 20SM FEW025 FEW040 BKN160 20/14 A2989 RMK SC1SC1AC6 SLP120

CYQB;2009-08-23 15:00;CYQB 231500Z CCA 06014KT 20SM FEW025 FEW040 BKN160 20/14 A2988 RMK SC1SC1AC6 SLP118

CYQB;2009-08-23 16:00;CYQB 231600Z 07007KT 20SM BKN051 OVC160 20/14 A2989 RMK SC6AC2 SLP123

CYQB;2009-08-23 17:00;CYQB 231700Z 07009G15KT 25SM FEW020 BKN050 BKN160 BKN240 21/15 A2990 RMK SC1SC4AC3CI1 SLP125

CYQB;2009-08-23 18:00;CYQB 231800Z 10011KT 30SM FEW020 SCT050 BKN240 21/15 A2990 RMK SC1SC4CI1 SLP125

CYQB;2009-08-23 19:00;CYQB 231900Z 07008KT 30SM BKN052 BKN240 21/15 A2991 RMK SC4CI0 SLP127

CYQB;2009-08-23 20:00;CYQB 232000Z 10009KT 30SM BKN050 BKN090 BKN240 21/15 A2992 RMK SC5AC1CI0 SLP131

CYQB;2009-08-23 21:00;CYQB 232100Z 07009KT 30SM BKN050 BKN090 BKN240 21/15 A2992 RMK SC4AC1CI0 SLP133

CYQB;2009-08-23 22:00;CYQB 232200Z 07007KT 30SM BKN035 BKN090 BKN240 20/14 A2992 RMK SC5AC0CI0 SLP133

CYQB;2009-08-23 23:00;CYQB 232300Z 05003KT 30SM BKN045 BKN090 BKN240 19/13 A2993 RMK SC4AC0CI0 SLP135

CYQB;2009-08-24 00:00;CYQB 240000Z 03005KT 30SM SCT032 SCT090 19/12 A2994 RMK SC3AC1 SLP140

CYQB;2009-08-24 01:00;CYQB 240100Z 04002KT 15SM FEW030 18/12 A2996 RMK SC2 SLP147

CYQB;2009-08-24 02:00;CYQB 240200Z 36002KT 15SM FEW030 16/13 A2997 RMK SC1 SLP150

CYQB;2009-08-24 03:00;CYQB 240300Z 01005KT 15SM FEW030 SCT240 16/13 A2997 RMK SC2CI1 SLP150

CYQB;2009-08-24 04:00;CYQB 240400Z 02005KT 15SM FEW030 SCT080 BKN240 16/14 A2997 RMK SC2AC2CI1 SLP149

CYQB;2009-08-24 05:00;CYQB 240500Z 36004KT 15SM FEW060 SCT100 OVC180 16/14 A2998 RMK SC1AC3AC4 SLP152

CYQB;2009-08-24 06:00;CYQB 240600Z 00000KT 15SM FEW060 FEW100 SCT180 15/14 A2998 RMK SC1AC2AC1 SLP152

CYQB;2009-08-24 07:00;CYQB 240700Z 35002KT 15SM FEW060 SCT120 15/14 A2998 RMK SC2AC2 SLP154

CYQB;2009-08-24 08:00;CYQB 240800Z 01004KT 15SM FEW060 FEW120 16/14 A2998 RMK SC2AC1 SLP152

CYQB;2009-08-24 09:00;CYQB 240900Z 31003KT 15SM FEW060 15/14 A2999 RMK SC2 SLP157

CYQB;2009-08-24 10:00;CYQB 241000Z 34004KT 20SM FEW140 15/13 A3000 RMK AC2 SLP159

CYQB;2009-08-24 11:00;CYQB 241100Z 34002KT 20SM SCT130 16/14 A3001 RMK AC3 SLP164

CYQB;2009-08-24 12:00;CYQB 241200Z 34004KT 30SM FEW130 18/14 A3002 RMK AC1 SLP166

CYQB;2009-08-24 13:00;CYQB 241300Z 36006KT 30SM FEW020 FEW130 20/13 A3002 RMK CF1AC1 SLP166

CYQB;2009-08-24 14:00;CYQB 241400Z 28003KT 30SM FEW020 FEW060 FEW130 21/13 A3002 RMK CF1SC1AC1 SLP166

CYQB;2009-08-24 15:00;CYQB 241500Z 24003KT 30SM FEW040 SCT220 22/14 A3002 RMK CU2CI0 SLP165

CYQB;2009-08-24 16:00;CYQB 241600Z 26006KT 30SM BKN050 23/14 A3002 RMK SC6 CU ASOCTD SLP165

CYQB;2009-08-24 17:00;CYQB 241700Z 28010KT 30SM BKN054 24/13 A3001 RMK SC6 SLP164

CYQB;2009-08-24 18:00;CYQB 241800Z 22008G15KT 30SM SCT057 23/14 A3001 RMK SC4 SLP164

CYQB;2009-08-24 19:00;CYQB 241900Z 25012KT 30SM SCT058 25/13 A3001 RMK SC3 SLP164

CYQB;2009-08-24 20:00;CYQB 242000Z 24013KT 30SM FEW056 25/13 A3001 RMK SC2 SLP164

CYQB;2009-08-24 21:00;CYQB 242100Z 28011KT 30SM FEW056 24/11 A3001 RMK SC1 SLP163

CYQB;2009-08-24 22:00;CYQB 242200Z 29007KT 30SM FEW054 23/11 A3001 RMK SC1 SLP164

CYQB;2009-08-24 23:00;CYQB 242300Z 29006KT 30SM FEW054 20/11 A3002 RMK SC1 SLP165

CYQB;2009-08-25 00:00;CYQB 250000Z 29003KT 30SM FEW054 17/10 A3003 RMK CU1 DIST TCU E SLP170

CYQB;2009-08-25 01:00;CYQB 250100Z 32004KT 15SM SKC 16/09 A3006 RMK SLP178

CYQB;2009-08-25 02:00;CYQB 250200Z 00000KT 15SM SKC 17/09 A3006 RMK SLP181

CYQB;2009-08-25 03:00;CYQB 250300Z 05004KT 15SM SKC 16/09 A3008 RMK SLP188

CYQB;2009-08-25 04:00;CYQB 250400Z 05004KT 15SM SKC 15/10 A3008 RMK SLP187

CYQB;2009-08-25 05:00;CYQB 250500Z 00000KT 15SM SKC 14/09 A3009 RMK SLP189

CYQB;2009-08-25 06:00;CYQB 250600Z 35006KT 15SM SKC 14/10 A3009 RMK SLP189

CYQB;2009-08-25 07:00;CYQB 250700Z 01003KT 15SM SKC 14/10 A3009 RMK SLP191

CYQB;2009-08-25 08:00;CYQB 250800Z 00000KT 15SM SKC 12/09 A3009 RMK SLP191

CYQB;2009-08-25 09:00;CYQB 250900Z 00000KT 15SM SKC 11/09 A3011 RMK SLP197

CYQB;2009-08-25 10:00;CYQB 251000Z 36003KT 20SM FEW220 12/09 A3012 RMK CI0 SLP200

CYQB;2009-08-25 11:00;CYQB 251100Z 35004KT 30SM FEW150 FEW200 13/09 A3013 RMK AC1CI0 SLP203

CYQB;2009-08-25 12:00;CYQB 251200Z 00000KT 30SM BKN150 14/11 A3012 RMK AC6 SLP200

CYQB;2009-08-25 13:00;CYQB 251300Z 00000KT 30SM BKN150 15/11 A3012 RMK AC6 SLP201

CYQB;2009-08-25 14:00;CYQB 251400Z 27003KT 30SM BKN160 16/12 A3011 RMK AC6 SLP196

CYQB;2009-08-25 15:00;CYQB 251500Z 00000KT 30SM BKN160 18/13 A3011 RMK AC6 SLP195

CYQB;2009-08-25 16:00;CYQB 251600Z 22004KT 30SM FEW035 BKN160 BKN220 21/13 A3008 RMK CF1AC5CI1 SLP187

CYQB;2009-08-25 17:00;CYQB 251700Z 23008KT 30SM FEW045 FEW140 SCT220 22/13 A3005 RMK CU1AC2CI1 SLP175

CYQB;2009-08-25 18:00;CYQB 251800Z 21005KT 30SM FEW045 FEW150 SCT220 23/16 A3003 RMK CU1AC1CI1 SLP168

CYQB;2009-08-25 19:00;CYQB 251900Z 26014KT 30SM FEW040 BKN150 23/15 A3000 RMK CU2AC6 SLP161

CYQB;2009-08-25 20:00;CYQB 252000Z 23013G19KT 30SM FEW040 BKN140 BKN220 23/13 A2998 RMK SC1AC3CI0 SLP153

CYQB;2009-08-25 21:00;CYQB 252100Z 25011KT 30SM FEW040 BKN130 22/12 A2997 RMK SC1AC6 SLP148

CYQB;2009-08-25 22:00;CYQB 252200Z 22003KT 30SM BKN120 22/13 A2995 RMK AC6 SLP142

CYQB;2009-08-25 23:00;CYQB 252300Z 19002KT 30SM SCT120 BKN170 21/13 A2992 RMK AC4AC2 SLP134

CYQB;2009-08-26 00:00;CYQB 260000Z 35003KT 30SM FEW120 BKN150 BKN210 20/14 A2991 RMK AC2AC2CI2 SLP129

CYQB;2009-08-26 01:00;CYQB 260100Z 00000KT 15SM SCT049 BKN150 18/15 A2990 RMK SC3AC2 SLP125

CYQB;2009-08-26 02:00;CYQB 260200Z 31002KT 15SM FEW050 BKN150 18/15 A2987 RMK SC2AC3 SLP116

CYQB;2009-08-26 03:00;CYQB 260300Z 24003KT 15SM BKN220 18/15 A2985 RMK CI3 SLP108

CYQB;2009-08-26 04:00;CYQB 260400Z 22009KT 15SM BKN240 19/16 A2982 RMK CI2 SLP098

CYQB;2009-08-26 05:00;CYQB 260500Z 23012KT 15SM FEW070 BKN240 20/15 A2980 RMK AC2CI2 SLP091

CYQB;2009-08-26 06:00;CYQB 260600Z 23012G17KT 15SM FEW060 BKN240 19/15 A2978 RMK SC2CI5 SLP083

CYQB;2009-08-26 07:00;CYQB 260700Z 23018G25KT 15SM FEW030 BKN070 OVC170 19/16 A2975 RMK SC1AC6AC1 SLP074

CYQB;2009-08-26 08:00;CYQB 260800Z 24016G21KT 15SM BKN019 OVC040 20/16 A2974 RMK SC6SC2 SLP070

CYQB;2009-08-26 09:00;CYQB 260900Z 25014G19KT 15SM OVC018 20/16 A2972 RMK SC8 SLP066

CYQB;2009-08-26 10:00;CYQB 261000Z CCA 25016KT 10SM BKN022 OVC035 20/16 A2972 RMK SC7SC1 SLP063

CYQB;2009-08-26 11:00;CYQB 261100Z 25013G21KT 15SM BKN018 BKN035 20/16 A2972 RMK SC6SC1 SLP063

CYQB;2009-08-26 12:00;CYQB 261200Z 24019G24KT 15SM BKN017 BKN035 21/17 A2972 RMK SC6SC2 SLP063

CYQB;2009-08-26 13:00;CYQB 261300Z 25013G24KT 15SM FEW025 22/17 A2971 RMK SC2 CU ASOCTD SLP062

CYQB;2009-08-26 14:00;CYQB 261400Z 27023G29KT 15SM SCT030 22/14 A2972 RMK CU3 SLP065

CYQB;2009-08-26 15:00;CYQB 261500Z 29020G30KT 30SM FEW045 23/10 A2973 RMK CU2 SLP069

CYQB;2009-08-26 16:00;CYQB 261600Z 27019G25KT 30SM FEW035 FEW060 21/10 A2976 RMK CU1CU2 SLP077

CYQB;2009-08-26 17:00;CYQB 261700Z 32019G27KT 30SM FEW035 FEW060 20/08 A2979 RMK CU1CU2 SLP087

CYQB;2009-08-26 18:00;CYQB 261800Z 29015G28KT 30SM BKN053 18/08 A2982 RMK CU6 SLP097

CYQB;2009-08-26 19:00;CYQB 261900Z 29015G21KT 30SM BKN049 19/08 A2983 RMK SC6 SLP103

CYQB;2009-08-26 20:00;CYQB 262000Z 30013G20KT 30SM BKN055 18/07 A2985 RMK SC6 SLP108

CYQB;2009-08-26 21:00;CYQB 262100Z 30013G20KT 30SM SCT055 18/06 A2987 RMK SC3 SLP114

CYQB;2009-08-26 22:00;CYQB 262200Z 29015G21KT 30SM FEW060 18/06 A2988 RMK CU2 SLP118

CYQB;2009-08-26 23:00;CYQB 262300Z 30011G18KT 30SM FEW060 17/05 A2991 RMK SC1 SLP129

CYQB;2009-08-27 00:00;CYQB 270000Z 29008KT 15SM FEW060 14/05 A2994 RMK SC1 SLP138

CYQB;2009-08-27 01:00;CYQB 270100Z 27008KT 15SM FEW060 13/05 A2997 RMK SC1 SLP149

CYQB;2009-08-27 02:00;CYQB 270200Z 29010KT 15SM FEW060 13/05 A2999 RMK SC1 SLP155

CYQB;2009-08-27 03:00;CYQB 270300Z 28009KT 15SM SKC 12/05 A3000 RMK SLP158

CYQB;2009-08-27 04:00;CYQB 270400Z 25007KT 15SM SKC 10/05 A3000 RMK OBS TAKEN +11 SLP161

CYQB;2009-08-27 05:00;CYQB 270500Z 28009KT 15SM SKC 09/05 A3000 RMK SLP161

CYQB;2009-08-27 06:00;CYQB 270600Z 29010KT 15SM SKC 09/05 A3001 RMK SLP163

CYQB;2009-08-27 07:00;CYQB 270700Z 29012G17KT 15SM SKC 09/05 A3002 RMK SLP166

CYQB;2009-08-27 08:00;CYQB 270800Z 29011KT 15SM SKC 08/04 A3002 RMK SLP167

CYQB;2009-08-27 09:00;CYQB 270900Z 28005KT 15SM FEW040 07/04 A3003 RMK SC1 SLP172

CYQB;2009-08-27 10:00;CYQB 271000Z 27006KT 15SM FEW030 06/04 A3005 RMK CF1 SLP177

CYQB;2009-08-27 11:00;CYQB 271100Z 29007KT 30SM FEW030 08/04 A3007 RMK CF1 SLP185

CYQB;2009-08-27 12:00;CYQB 271200Z 30010KT 30SM FEW030 10/03 A3009 RMK CF1 SLP192

CYQB;2009-08-27 13:00;CYQB 271300Z 31010KT 30SM FEW030 11/03 A3011 RMK CF2 SLP196

CYQB;2009-08-27 14:00;CYQB 271400Z 33009G16KT 30SM FEW035 13/03 A3011 RMK SC2 SLP197

CYQB;2009-08-27 15:00;CYQB 271500Z 31007KT 30SM FEW035 13/03 A3011 RMK SC2 SLP199

CYQB;2009-08-27 16:00;CYQB 271600Z 29002KT 30SM FEW040 14/03 A3011 RMK SC2 SLP199

CYQB;2009-08-27 17:00;CYQB 271700Z 30008KT 30SM FEW045 FEW180 15/03 A3011 RMK SC2CI0 SLP196

CYQB;2009-08-27 18:00;CYQB 271800Z 27010G17KT 30SM FEW050 FEW180 16/03 A3010 RMK SC2AC0 SLP194

CYQB;2009-08-27 19:00;CYQB 271900Z 30007G20KT 30SM FEW060 BKN240 17/02 A3010 RMK CU1CI1 SLP195

CYQB;2009-08-27 20:00;CYQB 272000Z 30010KT 30SM FEW060 BKN220 17/03 A3010 RMK CU1CI2 SLP193

CYQB;2009-08-27 21:00;CYQB 272100Z 31008KT 30SM FEW060 BKN240 17/03 A3010 RMK CU1CI2 SLP193

CYQB;2009-08-27 22:00;CYQB 272200Z 30010KT 30SM FEW060 FEW220 17/03 A3011 RMK SC1CI1 SLP197

CYQB;2009-08-27 23:00;CYQB 272300Z 29005KT 30SM FEW065 FEW220 14/04 A3012 RMK SC1CI1 SLP201

CYQB;2009-08-28 00:00;CYQB 280000Z 27005KT 15SM FEW065 FEW220 11/05 A3013 RMK SC1CI1 SLP206

CYQB;2009-08-28 01:00;CYQB 280100Z 30004KT 15SM FEW065 11/04 A3014 RMK SC1 SLP209

CYQB;2009-08-28 02:00;CYQB 280200Z 35006KT 15SM SCT230 12/04 A3015 RMK CI4 SLP212

CYQB;2009-08-28 03:00;CYQB 280300Z 35004KT 15SM SCT190 11/04 A3016 RMK AC3 SLP215

CYQB;2009-08-28 04:00;CYQB 280400Z 34007KT 15SM FEW190 10/05 A3017 RMK AC1 SLP218

CYQB;2009-08-28 05:00;CYQB 280500Z 35004KT 15SM FEW190 10/04 A3018 RMK AC1 SLP222

CYQB;2009-08-28 06:00;CYQB 280600Z 36003KT 15SM SKC 09/04 A3019 RMK SLP224

CYQB;2009-08-28 07:00;CYQB 280700Z 35008KT 15SM FEW150 08/03 A3019 RMK AC1 SLP223

CYQB;2009-08-28 08:00;CYQB 280800Z 34005KT 15SM SCT150 09/03 A3018 RMK AC3 SLP222

CYQB;2009-08-28 09:00;CYQB 280900Z 33006KT 15SM BKN110 09/04 A3019 RMK AC6 SLP225

CYQB;2009-08-28 10:00;CYQB 281000Z 31003KT 15SM BKN110 09/03 A3021 RMK AC7 SLP230

CYQB;2009-08-28 11:00;CYQB 281100Z 32006KT 30SM BKN120 09/04 A3022 RMK AC7 SLP236

CYQB;2009-08-28 12:00;CYQB 281200Z 33007KT 30SM SCT120 11/04 A3024 RMK AC2 SLP242

CYQB;2009-08-28 13:00;CYQB 281300Z 33008KT 30SM FEW120 12/05 A3025 RMK AC1 SLP244

CYQB;2009-08-28 14:00;CYQB 281400Z 33008KT 30SM FEW120 13/03 A3025 RMK AC1 SLP245

CYQB;2009-08-28 15:00;CYQB 281500Z 34004KT 30SM FEW035 FEW120 14/04 A3024 RMK SC1AC0 SLP242

CYQB;2009-08-28 16:00;CYQB 281600Z 27003KT 30SM FEW040 FEW120 15/04 A3023 RMK CU1AC1 SLP239

CYQB;2009-08-28 17:00;CYQB 281700Z 23007KT 30SM FEW045 SCT230 16/05 A3022 RMK SC1CI1 SLP234

CYQB;2009-08-28 18:00;CYQB 281800Z 20008KT 30SM FEW045 SCT230 17/06 A3021 RMK SC1CI1 SLP230

CYQB;2009-08-28 19:00;CYQB 281900Z 22008KT 30SM FEW050 FEW220 17/05 A3021 RMK CF1CI0 SLP231

CYQB;2009-08-28 20:00;CYQB 282000Z 27007KT 30SM FEW060 SCT240 18/05 A3020 RMK CU1CI0 SLP228

CYQB;2009-08-28 21:00;CYQB 282100Z 22005KT 30SM FEW060 BKN240 17/05 A3019 RMK CU1CI0 SLP225

CYQB;2009-08-28 22:00;CYQB 282200Z 20006KT 30SM FEW060 BKN240 17/06 A3020 RMK CU1CI2 SLP227

CYQB;2009-08-28 23:00;CYQB 282300Z 21005KT 30SM FEW070 BKN240 15/06 A3020 RMK AC1CS3 SLP227

CYQB;2009-08-29 00:00;CYQB 290000Z 00000KT 15SM BKN240 13/07 A3020 RMK CS2 SLP228

CYQB;2009-08-29 01:00;CYQB 290100Z 35003KT 15SM BKN240 13/07 A3020 RMK CS2 SLP230

CYQB;2009-08-29 02:00;CYQB 290200Z CCA 01003KT 15SM SCT240 12/07 A3020 RMK CS3 SLP230

CYQB;2009-08-29 03:00;CYQB 290300Z 02006KT 15SM BKN240 11/07 A3019 RMK CS4 SLP226

CYQB;2009-08-29 04:00;CYQB 290400Z 03005KT 15SM BKN240 11/07 A3019 RMK CS5 SLP225

CYQB;2009-08-29 05:00;CYQB 290500Z 05009KT 15SM BKN200 12/08 A3019 RMK CS6 SLP224

CYQB;2009-08-29 06:00;CYQB 290600Z 06008KT 15SM OVC180 12/06 A3018 RMK AC8 SLP222

CYQB;2009-08-29 07:00;CYQB 290700Z 06009G15KT 15SM OVC170 13/06 A3016 RMK AS8 SLP215

CYQB;2009-08-29 08:00;CYQB 290800Z 06012KT 15SM FEW040 FEW150 OVC190 13/06 A3015 RMK SC1AC1AS7 SLP211

CYQB;2009-08-29 09:00;CYQB 290900Z 06012G19KT 15SM FEW040 OVC140 13/06 A3014 RMK SC1AC8 SLP207

CYQB;2009-08-29 10:00;CYQB 291000Z 07016KT 15SM -RA FEW040 OVC080 13/07 A3014 RMK SC1AS7 SLP208

CYQB;2009-08-29 11:00;CYQB 291100Z 08013G20KT 15SM -RA BKN030 OVC080 13/07 A3014 RMK SC5AS3 SLP209

CYQB;2009-08-29 12:00;CYQB 291200Z 09007KT 15SM -RA BKN026 OVC040 12/09 A3014 RMK SC6SC2 SLP209

CYQB;2009-08-29 13:00;CYQB 291300Z 07010KT 15SM -RA BKN024 OVC050 13/10 A3014 RMK SC5SC3 SLP206

CYQB;2009-08-29 14:00;CYQB 291400Z 08014KT 15SM -RA FEW020 SCT025 OVC056 13/10 A3014 RMK SF1SC4SC4 SLP206

CYQB;2009-08-29 15:00;CYQB 291500Z 08012G18KT 15SM BKN027 OVC070 14/10 A3012 RMK SC6AS2 SLP201

CYQB;2009-08-29 16:00;CYQB 291600Z 08010G21KT 15SM BKN026 OVC055 14/09 A3009 RMK SC6SC2 SLP192

CYQB;2009-08-29 17:00;CYQB 291700Z 07013G20KT 15SM BKN026 OVC056 14/10 A3007 RMK SC6SC2 SLP185

CYQB;2009-08-29 18:00;CYQB 291800Z 09013G22KT 10SM OVC018 14/10 A3004 RMK SC8 SLP175

CYQB;2009-08-29 19:00;CYQB 291900Z 07015G20KT 10SM BKN024 OVC050 14/10 A3002 RMK SC7SC1 SLP166

CYQB;2009-08-29 20:00;CYQB 292000Z 07013G20KT 15SM OVC030 14/10 A2997 RMK SC8 SLP152

CYQB;2009-08-29 21:00;CYQB 292100Z 09013G24KT 15SM OVC030 14/09 A2996 RMK SC8 SLP147

CYQB;2009-08-29 22:00;CYQB 292200Z 09016G26KT 15SM OVC026 13/09 A2994 RMK SC8 SLP139

CYQB;2009-08-29 23:00;CYQB 292300Z 07018KT 8SM -RA SCT008 OVC023 12/11 A2993 RMK SF3SC5 SLP136

CYQB;2009-08-30 00:00;CYQB 300000Z 07016G24KT 10SM -RA SCT007 OVC021 12/10 A2991 RMK SF4SC4 SLP130

CYQB;2009-08-30 01:00;CYQB 300100Z 07015G22KT 6SM -RA BR SCT010 OVC017 12/10 A2989 RMK SF3SC5 SLP123

CYQB;2009-08-30 02:00;CYQB 300200Z 07015G21KT 6SM -RA BR SCT010 OVC016 12/11 A2986 RMK SF4SC4 SLP114

CYQB;2009-08-30 03:00;CYQB 300300Z 07010G17KT 5SM -RA BR BKN013 OVC025 12/10 A2984 RMK SF6SC2 SLP105

CYQB;2009-08-30 04:00;CYQB 300400Z 07012G17KT 3SM -RA BR BKN005 OVC013 11/11 A2983 RMK SF6SC2 SLP102

CYQB;2009-08-30 05:00;CYQB 300500Z 08013G19KT 6SM -RA BR BKN006 OVC012 12/11 A2981 RMK SF6SC2 CIG VRB 4-8 SLP095

CYQB;2009-08-30 05:40;CYQB 300540Z 08011KT 4SM -DZ BR SCT007 OVC011 12/ RMK SF4SC4

CYQB;2009-08-30 06:00;CYQB 300600Z 09011G16KT 5SM -RA BR BKN007 OVC012 12/11 A2980 RMK SF6SC2 -RA INTMT SLP093

CYQB;2009-08-30 07:00;CYQB 300700Z 10006KT 6SM -RA BR BKN007 OVC025 11/11 A2980 RMK SF6SC2 SLP092

CYQB;2009-08-30 08:00;CYQB 300800Z 09008KT 5SM -RA BR BKN008 OVC015 11/10 A2980 RMK SF5SC3 SLP091

CYQB;2009-08-30 09:00;CYQB 300900Z 09007KT 5SM -DZ BR BKN009 OVC022 11/10 A2980 RMK SF6SC2 SLP093

CYQB;2009-08-30 10:00;CYQB 301000Z 09006KT 2SM -DZ BR FEW002 BKN008 OVC020 11/10 A2981 RMK SF2SF5SC1 SLP094

CYQB;2009-08-30 11:00;CYQB 301100Z 08006KT 2SM -DZ BR FEW002 BKN006 OVC018 11/11 A2981 RMK SF2SF5SC1 SLP096

CYQB;2009-08-30 12:00;CYQB 301200Z 08004KT 2SM -DZ BR SCT003 OVC005 12/11 A2981 RMK SF4SF4 VIS E 1 SLP097

CYQB;2009-08-30 13:00;CYQB 301300Z 07005KT 2SM -DZ BR BKN003 OVC005 12/12 A2982 RMK SF5SF3 VIS VRBL 1-3 SLP100

CYQB;2009-08-30 14:00;CYQB 301400Z 07005KT 6SM BR SCT003 BKN005 OVC015 13/12 A2981 RMK SF4SF1SC3 MTN OBSCN N SLP097

CYQB;2009-08-30 15:00;CYQB 301500Z 06005KT 6SM BR BKN007 OVC015 14/13 A2981 RMK SF5SC3 MTN OBSCRN N SLP097

CYQB;2009-08-30 15:42;CYQB 301542Z 07005KT 6SM -SHRA BR BKN007 OVC012 RMK SF6SC2 MTN OBSCN N

CYQB;2009-08-30 16:00;CYQB 301600Z 08004KT 4SM SHRA BR BKN007 OVC012 14/13 A2981 RMK SF6SC2 SLP095

CYQB;2009-08-30 17:00;CYQB 301700Z 07006KT 3SM SHRA BR BKN007 OVC022 14/13 A2980 RMK SF6SC2 CIG VRB 5-9 SLP091

CYQB;2009-08-30 18:00;CYQB 301800Z 08004KT 6SM BR BKN008 BKN040 BKN080 16/14 A2979 RERA RMK SF5SC1AS0 CIG VRB 6-10 SLP089

CYQB;2009-08-30 19:00;CYQB 301900Z 00000KT 15SM FEW008 BKN050 BKN080 17/15 A2979 RMK SF2SC2AC2 SLP088

CYQB;2009-08-30 20:00;CYQB 302000Z 15003KT 15SM FEW008 FEW030 SCT050 BKN080 19/15 A2978 RMK SF1CU1SC2AC2 SLP084

CYQB;2009-08-30 21:00;CYQB 302100Z 18003KT 15SM FEW030 SCT050 BKN100 20/15 A2977 RMK CU1SC2AC2 SLP082

CYQB;2009-08-30 22:00;CYQB 302200Z CCA 15002KT 15SM FEW030 FEW050 BKN100 19/15 A2977 RMK CU1SC2AC2 TCU ASOCTD SW QUAD SLP081

CYQB;2009-08-30 22:50;CYQB 302250Z 18005KT 15SM -SHRA BKN040 BKN080 19/ RMK SC6AC2 TCU EMBD

CYQB;2009-08-30 23:00;CYQB 302300Z 20010G15KT 10SM -SHRA BKN040 BKN070 19/14 A2977 RMK SC6AC1 TCU EMBD SLP083

CYQB;2009-08-31 00:00;CYQB 310000Z 27007KT 15SM -SHRA SCT060 OVC080 17/15 A2978 RMK SC4AC4 TCU ASOCTD SLP087

CYQB;2009-08-31 01:00;CYQB 310100Z 26008KT 15SM FEW040 BKN090 OVC200 16/14 A2979 RMK SC2AC3CI2 SLP090

CYQB;2009-08-31 02:00;CYQB 310200Z 25008KT 15SM FEW110 FEW220 16/14 A2981 RMK AC1CI1 SLP096

CYQB;2009-08-31 03:00;CYQB 310300Z 26004KT 15SM BKN070 BKN220 15/14 A2981 RMK AC6CI1 SLP097

CYQB;2009-08-31 04:00;CYQB 310400Z 25009KT 15SM FEW015 BKN074 15/14 A2983 RMK SC1AC6 SLP102

CYQB;2009-08-31 05:00;CYQB 310500Z 29005KT 15SM FEW015 SCT041 BKN220 14/12 A2985 RMK SC1SC3CI2 SLP110

CYQB;2009-08-31 06:00;CYQB 310600Z 32008KT 15SM FEW015 SCT085 13/09 A2987 RMK SC1AC3 SLP115

CYQB;2009-08-31 07:00;CYQB 310700Z 25008KT 15SM FEW025 FEW070 12/09 A2989 RMK SC1AC2 SLP122

CYQB;2009-08-31 08:00;CYQB 310800Z 25009KT 15SM FEW070 10/08 A2991 RMK AC1 SLP130

CYQB;2009-08-31 09:00;CYQB 310900Z 27009KT 15SM BKN036 10/09 A2994 RMK SC6 SLP139

CYQB;2009-08-31 10:00;CYQB 311000Z 25006KT 30SM BKN034 10/08 A2997 RMK SC6 SLP148

CYQB;2009-08-31 11:00;CYQB 311100Z 25012KT 30SM BKN034 09/07 A2999 RMK SC5 SLP156

CYQB;2009-08-31 12:00;CYQB 311200Z 26010KT 30SM BKN034 10/07 A3002 RMK SC6 SLP167

CYQB;2009-08-31 13:00;CYQB 311300Z 32006KT 30SM BKN034 12/06 A3004 RMK SC5 SLP175

CYQB;2009-08-31 14:00;CYQB 311400Z 30007KT 30SM BKN040 14/07 A3006 RMK SC5 SLP180

CYQB;2009-08-31 15:00;CYQB 311500Z 34009G19KT 30SM FEW045 15/06 A3007 RMK SC2 SLP185

CYQB;2009-08-31 16:00;CYQB 311600Z 29010KT 30SM FEW045 16/08 A3007 RMK SC2 SLP183

CYQB;2009-08-31 17:00;CYQB 311700Z 30010G16KT 30SM FEW050 18/07 A3007 RMK SC2 SLP183

CYQB;2009-08-31 18:00;CYQB 311800Z 30008G16KT 30SM FEW053 18/07 A3008 RMK SC2 SLP188

CYQB;2009-08-31 19:00;CYQB 311900Z 33013KT 30SM SCT052 18/06 A3008 RMK CU3 SLP188

CYQB;2009-08-31 20:00;CYQB 312000Z 27009G15KT 30SM SCT052 BKN085 18/07 A3008 RMK CU4AC1 SLP189

CYQB;2009-08-31 21:00;CYQB 312100Z 28008KT 30SM FEW052 SCT080 18/08 A3008 RMK CU2AC1 SLP189

CYQB;2009-08-31 22:00;CYQB 312200Z 30008KT 30SM FEW040 FEW082 18/07 A3009 RMK CU2AC0 SLP191

CYQB;2009-08-31 23:00;CYQB 312300Z 29008KT 30SM FEW040 FEW080 16/07 A3009 RMK CU1AC1 SLP192

CYQB;2009-09-01 01:00;CYQB 010100Z 27003KT 15SM SKC 11/07 A3014 RMK SLP208

CYQB;2009-09-01 02:00;CYQB 010200Z 14002KT 15SM SKC 10/07 A3015 RMK SLP212

CYQB;2009-09-01 03:00;CYQB 010300Z 02002KT 15SM SKC 11/07 A3016 RMK SLP215

CYQB;2009-09-01 04:00;CYQB 010400Z 02004KT 15SM SKC 09/07 A3018 RMK SLP220

CYQB;2009-09-01 05:00;CYQB 010500Z 02004KT 15SM SKC 09/07 A3019 RMK SLP223

CYQB;2009-09-01 06:00;CYQB 010600Z 01003KT 15SM SKC 09/06 A3018 RMK SLP222

CYQB;2009-09-01 07:00;CYQB 010700Z 00000KT 15SM SKC 09/06 A3019 RMK SLP224

CYQB;2009-09-01 08:00;CYQB 010800Z 02003KT 15SM SKC 07/05 A3020 RMK SLP227

CYQB;2009-09-01 09:00;CYQB 010900Z 00000KT 15SM FEW003 07/06 A3020 RMK ST1 SLP228

CYQB;2009-09-01 10:00;CYQB 011000Z 00000KT 20SM FEW005 FEW090 05/04 A3022 RMK ST1AC1 SLP235

CYQB;2009-09-01 11:00;CYQB 011100Z 32002KT 20SM FEW005 FEW090 06/05 A3024 RMK ST1AC1 SLP241

CYQB;2009-09-01 12:00;CYQB 011200Z 25006KT 20SM FEW005 FEW090 10/08 A3024 RMK ST1AC1 SLP243

CYQB;2009-09-01 13:00;CYQB 011300Z 23010KT 30SM FEW008 FEW120 12/10 A3025 RMK ST1AC1 SLP246

CYQB;2009-09-01 14:00;CYQB 011400Z 24011KT 30SM FEW120 14/10 A3025 RMK AC1 SLP246

CYQB;2009-09-01 15:00;CYQB 011500Z 23013KT 30SM FEW015 BKN120 16/10 A3025 RMK CF1AC4 SLP243

CYQB;2009-09-01 16:00;CYQB 011600Z 25013KT 30SM FEW020 BKN100 18/10 A3023 RMK CF1AC4 SLP239

CYQB;2009-09-01 17:00;CYQB 011700Z 23015KT 30SM FEW025 FEW100 20/09 A3022 RMK CF1AC2 SLP236

CYQB;2009-09-01 18:00;CYQB 011800Z 23014G21KT 30SM FEW035 FEW100 21/10 A3021 RMK CU1AC1 SLP231

CYQB;2009-09-01 19:00;CYQB 011900Z 24015G20KT 30SM FEW040 FEW100 22/09 A3020 RMK CU1AC2 SLP227

CYQB;2009-09-01 20:00;CYQB 012000Z 24013G18KT 30SM FEW040 SCT090 21/09 A3018 RMK CU1AC3 SLP222

CYQB;2009-09-01 21:00;CYQB 012100Z 23015KT 30SM FEW035 FEW090 21/10 A3018 RMK CU1AC2 SLP221

CYQB;2009-09-01 22:00;CYQB 012200Z 25008KT 30SM FEW035 FEW100 21/11 A3017 RMK CU1AC1 SLP219

CYQB;2009-09-01 23:00;CYQB 012300Z 25009KT 30SM FEW100 18/10 A3017 RMK AC1 SLP219

CYQB;2009-09-02 00:00;CYQB 020000Z 21004KT 15SM FEW100 16/11 A3019 RMK AC1 SLP224

CYQB;2009-09-02 01:00;CYQB 020100Z 20002KT 15SM SKC 15/11 A3021 RMK SLP230

CYQB;2009-09-02 02:00;CYQB 020200Z 22003KT 15SM SKC 14/10 A3022 RMK SLP235

CYQB;2009-09-02 03:00;CYQB 020300Z 00000KT 15SM SKC 12/10 A3022 RMK SLP236

CYQB;2009-09-02 04:00;CYQB 020400Z 32002KT 15SM BKN053 14/10 A3022 RMK SC6 SLP235

CYQB;2009-09-02 05:00;CYQB 020500Z 18003KT 15SM OVC053 14/11 A3022 RMK SC8 SLP236

CYQB;2009-09-02 06:00;CYQB 020600Z 25004KT 15SM BKN063 15/11 A3022 RMK SC7 SLP235

CYQB;2009-09-02 07:00;CYQB 020700Z 25003KT 15SM BKN065 14/11 A3022 RMK SC6 SLP234

CYQB;2009-09-02 08:00;CYQB 020800Z 27006KT 15SM SCT056 13/10 A3021 RMK SC3 SLP232

CYQB;2009-09-02 09:00;CYQB 020900Z 22004KT 15SM FEW055 12/10 A3021 RMK SC1 SLP232

CYQB;2009-09-02 10:00;CYQB 021000Z 23003KT 15SM FEW055 FEW200 12/10 A3022 RMK SC1CI0 SLP235

CYQB;2009-09-02 11:00;CYQB 021100Z 27005KT 30SM FEW055 FEW200 12/10 A3024 RMK CU1CI0 SLP240

CYQB;2009-09-02 12:00;CYQB 021200Z 25010KT 15SM FEW007 FEW200 14/11 A3024 RMK SC2CI0 SLP242

CYQB;2009-09-02 13:00;CYQB 021300Z 25009KT 15SM FEW007 SCT200 15/12 A3024 RMK SC2CI0 SLP241

CYQB;2009-09-02 14:00;CYQB 021400Z 24010KT 20SM FEW010 FEW200 17/13 A3024 RMK SC2CI0 SLP241

CYQB;2009-09-02 15:00;CYQB 021500Z 25011KT 20SM FEW015 SCT200 19/13 A3022 RMK SC2CI0 SLP236

CYQB;2009-09-02 16:00;CYQB 021600Z 25009G15KT 20SM FEW020 SCT220 20/14 A3021 RMK CU1CI1 SLP232

CYQB;2009-09-02 17:00;CYQB 021700Z 24015G21KT 20SM FEW020 SCT200 22/14 A3019 RMK SC1CI1 SLP223

CYQB;2009-09-02 18:00;CYQB 021800Z 25015G21KT 20SM FEW020 SCT210 23/14 A3017 RMK SC1CI1 SLP215

CYQB;2009-09-02 19:00;CYQB 021900Z 25016KT 30SM FEW020 24/14 A3015 RMK SC1 SLP210

CYQB;2009-09-02 20:00;CYQB 022000Z 25014G19KT 30SM FEW020 24/15 A3014 RMK SC1 SLP205

CYQB;2009-09-02 21:00;CYQB 022100Z 23012KT 30SM FEW040 24/15 A3012 RMK SC1 SLP199

CYQB;2009-09-02 22:00;CYQB 022200Z 25008KT 30SM FEW040 23/15 A3012 RMK SC1 SLP199

CYQB;2009-09-02 23:00;CYQB 022300Z 26007KT 30SM FEW040 FEW240 21/15 A3011 RMK SC1CI1 SLP197

CYQB;2009-09-03 00:00;CYQB 030000Z 24002KT 15SM FEW240 19/15 A3011 RMK CI1 SLP198

CYQB;2009-09-03 01:00;CYQB 030100Z 26004KT 15SM SKC 18/14 A3011 RMK SLP198

CYQB;2009-09-03 02:00;CYQB 030200Z 27004KT 15SM SKC 17/14 A3011 RMK SLP198

CYQB;2009-09-03 03:00;CYQB 030300Z 27007KT 15SM SKC 16/14 A3011 RMK SLP196

CYQB;2009-09-03 04:00;CYQB 030400Z 25008KT 15SM SKC 16/14 A3011 RMK SLP196

CYQB;2009-09-03 05:00;CYQB 030500Z 26011KT 15SM SKC 16/14 A3011 RMK SLP198

CYQB;2009-09-03 06:00;CYQB 030600Z 26008KT 15SM SKC 15/14 A3011 RMK SLP196

CYQB;2009-09-03 07:00;CYQB 030700Z 26006KT 10SM FEW008 15/14 A3011 RMK SF1 SLP198

CYQB;2009-09-03 08:00;CYQB 030800Z 26008KT 10SM FEW008 15/14 A3011 RMK SF1 VIS N-NE 5 FG SLP198

CYQB;2009-09-03 08:21;CYQB 030821Z 26009KT 7SM BKN008 15/ RMK SF6 VIS N-NE 5 FG

CYQB;2009-09-03 08:30;CYQB 030830Z 26008KT 10SM BKN008 14/ RMK SF3

CYQB;2009-09-03 09:00;CYQB 030900Z CCA 25008KT 5SM BR BKN008 15/14 A3011 RMK SF5 VIS SE-W 10 SLP196

CYQB;2009-09-03 10:00;CYQB 031000Z 25010KT 5SM BR BKN006 OVC020 15/14 A3012 RMK SF6SC2 VIS SE-SW 10 SLP199

CYQB;2009-09-03 11:00;CYQB 031100Z 25009G15KT 4SM BR OVC006 15/14 A3012 RMK SF8 SLP200

CYQB;2009-09-03 12:00;CYQB 031200Z 25010G15KT 4SM BR OVC008 15/14 A3012 RMK SF8 CIG VRB 6-8 SLP201

CYQB;2009-09-03 13:00;CYQB 031300Z 23012KT 4SM BR BKN007 16/14 A3012 RMK SF7 CIG VRB 6-8 SLP199

CYQB;2009-09-03 14:00;CYQB 031400Z 23011KT 5SM BR BKN008 16/14 A3011 RMK SF7 SLP197

CYQB;2009-09-03 14:42;CYQB 031442Z 24012KT 6SM BR SCT011 18/ RMK SF3

CYQB;2009-09-03 15:00;CYQB 031500Z 27012KT 10SM FEW015 FEW230 19/15 A3010 RMK SF1CI0 SLP193

CYQB;2009-09-03 16:00;CYQB 031600Z 24013KT 15SM FEW020 FEW210 21/16 A3008 RMK CF1CI0 SLP186

CYQB;2009-09-03 17:00;CYQB 031700Z 25015G22KT 20SM FEW025 FEW210 23/16 A3006 RMK SC1CI0 SLP178

CYQB;2009-09-03 18:00;CYQB 031800Z 25018KT 30SM FEW030 FEW210 24/14 A3004 RMK CU1CI1 SLP172

CYQB;2009-09-03 19:00;CYQB 031900Z 27015KT 30SM FEW030 FEW210 25/14 A3002 RMK CU1CI0 SLP166

CYQB;2009-09-03 20:00;CYQB 032000Z 25015KT 30SM FEW030 FEW210 25/14 A3000 RMK CU1CI0 SLP160

CYQB;2009-09-03 21:00;CYQB 032100Z 24012G18KT 30SM FEW030 24/14 A2999 RMK CU1 SLP155

CYQB;2009-09-03 22:00;CYQB 032200Z 25010KT 30SM FEW034 24/15 A2999 RMK CU1 SLP155

CYQB;2009-09-03 23:00;CYQB 032300Z 25007KT 30SM FEW034 SCT210 22/14 A2998 RMK CU1CI0 SLP153

CYQB;2009-09-04 00:00;CYQB 040000Z 23005KT 15SM FEW030 FEW210 19/14 A2999 RMK CU1CI0 SLP156

CYQB;2009-09-04 01:00;CYQB 040100Z 23004KT 15SM SKC 18/13 A3000 RMK SLP158

CYQB;2009-09-04 02:00;CYQB 040200Z 24005KT 20SM SKC 17/13 A3000 RMK SLP160

CYQB;2009-09-04 03:00;CYQB 040300Z 23009KT 20SM SKC 16/13 A3000 RMK SLP161

CYQB;2009-09-04 04:00;CYQB 040400Z 23010KT 20SM SKC 16/13 A3000 RMK SLP161

CYQB;2009-09-04 05:00;CYQB 040500Z 25005KT 20SM FEW055 15/13 A3000 RMK SC1 SLP161

CYQB;2009-09-04 06:00;CYQB 040600Z 24009KT 20SM FEW055 15/13 A3000 RMK SC2 SLP158

CYQB;2009-09-04 07:00;CYQB 040700Z 25009KT 15SM FEW055 15/14 A3000 RMK SC1 SLP158

CYQB;2009-09-04 08:00;CYQB 040800Z 25009KT 15SM FEW055 14/13 A2999 RMK SC1 SLP157

CYQB;2009-09-04 09:00;CYQB 040900Z 23009KT 15SM FEW075 14/12 A2999 RMK AC1 SLP155

CYQB;2009-09-04 10:00;CYQB 041000Z 21003KT 15SM FEW004 FEW200 13/12 A3000 RMK ST1CI0 SLP161

CYQB;2009-09-04 11:00;CYQB 041100Z 03002KT 15SM FEW004 FEW080 14/11 A3004 RMK ST1AC2 SLP172

CYQB;2009-09-04 12:00;CYQB 041200Z 26008KT 15SM FEW004 BKN090 15/13 A3004 RMK ST1AC7 SLP174

CYQB;2009-09-04 13:00;CYQB 041300Z 24010KT 15SM FEW004 FEW015 FEW090 16/14 A3005 RMK ST1CU1AC2 SLP175

CYQB;2009-09-04 14:00;CYQB 041400Z 24009KT 20SM FEW020 FEW090 19/15 A3004 RMK CU1AC1 SLP173

CYQB;2009-09-04 15:00;CYQB 041500Z 23007KT 30SM FEW025 FEW090 22/16 A3004 RMK SC1AC1 SLP173

CYQB;2009-09-04 16:00;CYQB 041600Z 21010KT 30SM FEW045 FEW090 22/15 A3004 RMK CU2AC0 SLP172

CYQB;2009-09-04 17:00;CYQB 041700Z 23012KT 30SM SCT050 23/12 A3003 RMK CU3 SLP169

CYQB;2009-09-04 18:00;CYQB 041800Z 30004KT 30SM SCT050 24/13 A3002 RMK CU3 SLP165

CYQB;2009-09-04 19:00;CYQB 041900Z 31009G15KT 30SM FEW050 25/11 A3001 RMK CU2 SLP163

CYQB;2009-09-04 20:00;CYQB 042000Z 32012KT 30SM FEW030 25/10 A3000 RMK CU2 SLP159

CYQB;2009-09-04 21:00;CYQB 042100Z 32010KT 30SM FEW050 24/09 A3001 RMK CU1 SLP162

CYQB;2009-09-04 22:00;CYQB 042200Z 33009KT 30SM FEW050 FEW160 23/07 A3002 RMK CU1AC1 SLP166

CYQB;2009-09-04 23:00;CYQB 042300Z 31004KT 30SM FEW050 FEW160 19/06 A3003 RMK CU1AC1 SLP168

CYQB;2009-09-05 00:00;CYQB 050000Z 35008KT 15SM FEW050 19/04 A3005 RMK CU1 SLP175

CYQB;2009-09-05 01:00;CYQB 050100Z 34007KT 15SM SKC 17/06 A3006 RMK SLP180

CYQB;2009-09-05 02:00;CYQB 050200Z 06003KT 20SM SKC 15/07 A3009 RMK SLP190

CYQB;2009-09-05 03:00;CYQB 050300Z 35010KT 20SM SKC 14/07 A3010 RMK SLP192

CYQB;2009-09-05 04:00;CYQB 050400Z 35005KT 20SM SKC 14/08 A3011 RMK SLP198

CYQB;2009-09-05 05:00;CYQB 050500Z 36005KT 20SM SKC 13/08 A3013 RMK SLP203

CYQB;2009-09-05 06:00;CYQB 050600Z 03004KT 15SM SKC 13/07 A3014 RMK SLP206

CYQB;2009-09-05 07:00;CYQB 050700Z 35002KT 15SM SKC 11/07 A3013 RMK SLP203

CYQB;2009-09-05 08:00;CYQB 050800Z 34005KT 15SM FEW085 11/07 A3014 RMK AC1 SLP207

CYQB;2009-09-05 09:00;CYQB 050900Z 33005KT 25SM FEW090 10/07 A3015 RMK AC1 SLP212

CYQB;2009-09-05 10:00;CYQB 051000Z 33005KT 30SM FEW030 FEW090 10/06 A3017 RMK SC1AC1 SLP216

CYQB;2009-09-05 11:00;CYQB 051100Z 36002KT 30SM FEW030 FEW090 09/06 A3019 RMK SC1AC1 SLP224

CYQB;2009-09-05 12:00;CYQB 051200Z 35004KT 30SM FEW030 SCT080 11/06 A3020 RMK SC1AC0 SLP229

CYQB;2009-09-05 13:00;CYQB 051300Z 36002KT 30SM FEW030 FEW080 13/07 A3021 RMK CU1AC1 SLP232

CYQB;2009-09-05 14:00;CYQB 051400Z 25002KT 30SM BKN029 BKN080 14/08 A3022 RMK SC5AC1 CU EMBD SLP235

CYQB;2009-09-05 15:00;CYQB 051500Z 29002KT 30SM FEW030 15/07 A3021 RMK SC2 SLP231

CYQB;2009-09-05 16:00;CYQB 051600Z 29007KT 30SM FEW030 17/06 A3020 RMK CU1 SLP229

CYQB;2009-09-05 17:00;CYQB 051700Z 33008KT 30SM FEW030 18/05 A3019 RMK CU1 SLP225

CYQB;2009-09-05 18:00;CYQB 051800Z 33011KT 30SM FEW030 19/05 A3019 RMK CU1 SLP223

CYQB;2009-09-05 19:00;CYQB 051900Z 29006G17KT 30SM FEW030 19/05 A3018 RMK CU1 SLP222

CYQB;2009-09-05 20:00;CYQB 052000Z 33010G16KT 30SM FEW030 19/04 A3019 RMK SC1 SLP225

CYQB;2009-09-05 21:00;CYQB 052100Z 32009KT 30SM FEW030 19/04 A3020 RMK SC1 SLP229

CYQB;2009-09-05 22:00;CYQB 052200Z 34011KT 30SM FEW030 FEW060 18/04 A3022 RMK SC1SC1 SLP235

CYQB;2009-09-05 23:00;CYQB 052300Z 35011KT 30SM FEW040 FEW100 16/04 A3025 RMK SC1AC1 SLP244

CYQB;2009-09-06 00:00;CYQB 060000Z 01007KT 15SM SKC 14/03 A3029 RMK SLP258

CYQB;2009-09-06 01:00;CYQB 060100Z 04006KT 15SM SKC 12/04 A3032 RMK SLP269

CYQB;2009-09-06 02:00;CYQB 060200Z 01002KT 15SM SKC 10/04 A3033 RMK SLP274

CYQB;2009-09-06 03:00;CYQB 060300Z 36004KT 15SM SKC 10/04 A3034 RMK SLP276

CYQB;2009-09-06 04:00;CYQB 060400Z 35006KT 15SM SKC 09/04 A3035 RMK SLP278

CYQB;2009-09-06 05:00;CYQB 060500Z 07003KT 15SM SKC 07/04 A3036 RMK SLP284

CYQB;2009-09-06 06:00;CYQB 060600Z 36007KT 15SM SKC 09/04 A3038 RMK SLP288

CYQB;2009-09-06 07:00;CYQB 060700Z 33002KT 15SM SKC 07/03 A3039 RMK SLP291

CYQB;2009-09-06 08:00;CYQB 060800Z 36002KT 15SM SKC 07/04 A3039 RMK SLP294

CYQB;2009-09-06 09:00;CYQB 060900Z 02005KT 15SM SKC 07/04 A3041 RMK SLP299

CYQB;2009-09-06 10:00;CYQB 061000Z 02004KT 30SM FEW020 FEW250 07/03 A3043 RMK SC1CI0 SLP307

CYQB;2009-09-06 11:00;CYQB 061100Z 02002KT 30SM FEW025 FEW250 07/04 A3046 RMK SC1CI0 SLP315

CYQB;2009-09-06 12:00;CYQB 061200Z 02006KT 30SM FEW020 09/04 A3047 RMK CU1 SLP319

CYQB;2009-09-06 13:00;CYQB 061300Z 09003KT 30SM FEW025 12/06 A3048 RMK CU1 SLP323

CYQB;2009-09-06 14:00;CYQB 061400Z 11004KT 30SM FEW026 14/07 A3048 RMK CU1 SLP324

CYQB;2009-09-06 15:00;CYQB 061500Z 16004KT 30SM FEW034 15/07 A3048 RMK CU1 SLP323

CYQB;2009-09-06 16:00;CYQB 061600Z 14004KT 30SM FEW035 16/07 A3046 RMK CU1 SLP316

CYQB;2009-09-06 17:00;CYQB 061700Z 00000KT 30SM FEW045 16/06 A3045 RMK CU1 SLP312

CYQB;2009-09-06 18:00;CYQB 061800Z 08002KT 50SM FEW050 18/05 A3044 RMK CU1 SLP308

CYQB;2009-09-06 19:00;CYQB 061900Z 00000KT 50SM FEW060 19/04 A3041 RMK SC1 SLP299

CYQB;2009-09-06 20:00;CYQB 062000Z 28003KT 50SM FEW060 19/04 A3039 RMK SC1 SLP292

CYQB;2009-09-06 21:00;CYQB 062100Z 35002KT 50SM SKC 19/04 A3036 RMK SLP283

CYQB;2009-09-06 22:00;CYQB 062200Z 28003KT 50SM SKC 19/06 A3035 RMK SLP278

CYQB;2009-09-06 23:00;CYQB 062300Z 33004KT 50SM SKC 17/07 A3033 RMK SLP274

CYQB;2009-09-07 00:00;CYQB 070000Z 32002KT 30SM SKC 13/08 A3033 RMK SLP272

CYQB;2009-09-07 01:00;CYQB 070100Z 36004KT 15SM SKC 13/07 A3032 RMK SLP268

CYQB;2009-09-07 02:00;CYQB 070200Z 36003KT 15SM SKC 12/07 A3031 RMK SLP266

CYQB;2009-09-07 03:00;CYQB 070300Z 01004KT 15SM SKC 11/06 A3030 RMK SLP264

CYQB;2009-09-07 04:00;CYQB 070400Z 03004KT 15SM SKC 10/06 A3030 RMK SLP263

CYQB;2009-09-07 05:00;CYQB 070500Z 00000KT 15SM SKC 08/05 A3029 RMK SLP260

CYQB;2009-09-07 06:00;CYQB 070600Z 00000KT 15SM SKC 07/05 A3029 RMK SLP259

CYQB;2009-09-07 07:00;CYQB 070700Z 00000KT 15SM SKC 06/05 A3028 RMK SLP254

CYQB;2009-09-07 08:00;CYQB 070800Z 00000KT 15SM FEW210 06/05 A3027 RMK CI2 SLP251

CYQB;2009-09-07 09:00;CYQB 070900Z 00000KT 15SM FEW015 FEW210 05/04 A3025 RMK SF1CI2 SLP246

CYQB;2009-09-07 09:55;CYQB 070955Z 00000KT 3/4SM R06/1100FT/N BR BKN001 06/ RMK FG2ST2

CYQB;2009-09-07 10:00;CYQB 071000Z 00000KT 3/4SM R06/0700V1100FT/N BR BKN001 BKN250 05/05 A3024 RMK FG2SF3CI1 SLP243

CYQB;2009-09-07 10:10;CYQB 071010Z 00000KT 1/8SM R06/0500V0900FT/N FG BKN001 BKN250 05/ RMK FG4SF2CI1

CYQB;2009-09-07 11:00;CYQB 071100Z 00000KT 1/2SM R06/0800FT/N FG SKC 07/07 A3025 RMK FG6 SLP244

CYQB;2009-09-07 11:25;CYQB 071125Z 00000KT 20SM R06/1100V1600FT/D FEW220 07/ RMK FG1CI1 VIS SW-N 5/8

CYQB;2009-09-07 12:00;CYQB 071200Z 00000KT 20SM FEW005 FEW040 FEW220 09/09 A3024 RMK SF1SC1CI1 SLP241

CYQB;2009-09-07 13:00;CYQB 071300Z 24009KT 30SM FEW008 FEW060 FEW220 13/10 A3023 RMK SF1SC1CI1 SLP238

CYQB;2009-09-07 14:00;CYQB 071400Z 22009KT 30SM FEW060 FEW100 FEW220 14/10 A3021 RMK SC1AC1CI1 SLP231

CYQB;2009-09-07 15:00;CYQB 071500Z 23008KT 30SM FEW060 FEW100 FEW220 16/10 A3019 RMK SC1AC1CI1 SLP225

CYQB;2009-09-07 16:00;CYQB 071600Z 25011G17KT 30SM FEW060 FEW100 FEW220 18/10 A3018 RMK SC1AC1CI1 SLP221

CYQB;2009-09-07 17:00;CYQB 071700Z 27014KT 30SM FEW060 FEW100 FEW200 20/09 A3016 RMK SC1AC1CI1 SLP214

CYQB;2009-09-07 18:00;CYQB 071800Z 25013G18KT 30SM FEW060 FEW100 FEW240 21/12 A3014 RMK SC1AC1CI1 SLP207

CYQB;2009-09-07 19:00;CYQB 071900Z 24013G19KT 30SM FEW060 FEW100 FEW240 22/12 A3011 RMK SC1AC1CI1 SLP199

CYQB;2009-09-07 20:00;CYQB 072000Z 26011KT 30SM FEW140 FEW240 22/13 A3011 RMK AC1CI1 SLP196

CYQB;2009-09-07 21:00;CYQB 072100Z 25008KT 30SM FEW060 FEW140 22/13 A3009 RMK SC1AC1 SLP190

CYQB;2009-09-07 22:00;CYQB 072200Z 25009KT 30SM FEW060 FEW140 21/13 A3008 RMK SC1AC1 SLP188

CYQB;2009-09-07 23:00;CYQB 072300Z 25006KT 30SM FEW140 19/13 A3007 RMK AC1 SLP185

CYQB;2009-09-08 00:00;CYQB 080000Z 22004KT 15SM FEW100 18/13 A3008 RMK AC1 SLP186

CYQB;2009-09-08 01:00;CYQB 080100Z 22004KT 15SM BKN076 BKN098 17/13 A3008 RMK AC5AC1 SLP186

CYQB;2009-09-08 02:00;CYQB 080200Z 22003KT 15SM BKN065 BKN077 17/14 A3008 RMK SC5AC2 SLP187

CYQB;2009-09-08 03:00;CYQB 080300Z 25008KT 15SM FEW065 BKN076 17/14 A3007 RMK SC2AC3 SLP184

CYQB;2009-09-08 04:00;CYQB 080400Z 24010KT 15SM FEW055 BKN075 17/14 A3007 RMK SC2AC2 SLP183

CYQB;2009-09-08 05:00;CYQB 080500Z 26008KT 15SM FEW055 SCT090 16/14 A3008 RMK SC1AC2 SLP185

CYQB;2009-09-08 06:00;CYQB 080600Z 26010KT 15SM FEW077 BKN093 16/14 A3007 RMK AC2AC3 SLP184

CYQB;2009-09-08 07:00;CYQB 080700Z 25008KT 15SM BKN084 BKN095 16/14 A3006 RMK AC5AC2 SLP181

CYQB;2009-09-08 08:00;CYQB 080800Z 26010KT 15SM BKN048 BKN110 16/15 A3006 RMK SC5AC2 SLP180

CYQB;2009-09-08 09:00;CYQB 080900Z 24010KT 15SM SCT050 BKN084 16/15 A3007 RMK SC4AC2 SLP182

CYQB;2009-09-08 10:00;CYQB 081000Z 23007KT 20SM BKN060 BKN090 16/15 A3008 RMK SC6AC1 SLP187

CYQB;2009-09-08 11:00;CYQB 081100Z 25005KT 20SM FEW008 BKN047 BKN090 16/15 A3009 RMK SF1SC6AC1 SLP191

CYQB;2009-09-08 12:00;CYQB 081200Z 24009KT 12SM BKN062 17/15 A3010 RMK SC7 SLP193

CYQB;2009-09-08 13:00;CYQB 081300Z 24006KT 15SM FEW008 BKN060 17/15 A3011 RMK SF1SC7 SLP198

CYQB;2009-09-08 14:00;CYQB 081400Z 24004KT 15SM BKN058 19/16 A3011 RMK SC7 SLP198

CYQB;2009-09-08 15:00;CYQB 081500Z 31009KT 20SM FEW030 BKN057 21/14 A3010 RMK CU1SC7 SLP194

CYQB;2009-09-08 16:00;CYQB 081600Z 35006KT 20SM BKN056 22/13 A3010 RMK SC5 SLP192

CYQB;2009-09-08 17:00;CYQB 081700Z 26009KT 20SM BKN045 24/13 A3008 RMK SC5 SLP186

CYQB;2009-09-08 18:00;CYQB 081800Z 30007KT 20SM BKN045 24/12 A3007 RMK SC5 SLP184

CYQB;2009-09-08 19:00;CYQB 081900Z CCA 29007KT 30SM SCT046 BKN240 24/10 A3007 RMK CF3CI0 CC ASOCTD SLP182

CYQB;2009-09-08 20:00;CYQB 082000Z 34010KT 15SM FEW055 24/09 A3007 RMK CF1 SLP182

CYQB;2009-09-08 21:00;CYQB 082100Z 33007KT 30SM FEW055 23/09 A3007 RMK CF1 SLP184

CYQB;2009-09-08 22:00;CYQB 082200Z 34006KT 30SM FEW050 22/08 A3008 RMK CF1 SLP186

CYQB;2009-09-08 23:00;CYQB 082300Z 32005KT 15SM SKC 19/09 A3010 RMK SLP193

CYQB;2009-09-09 00:00;CYQB 090000Z 06006KT 15SM SKC 18/08 A3014 RMK SLP206

CYQB;2009-09-09 01:00;CYQB 090100Z 02007KT 15SM SKC 17/07 A3016 RMK SLP215

CYQB;2009-09-09 02:00;CYQB 090200Z 01004KT 15SM SKC 15/06 A3018 RMK SLP221

CYQB;2009-09-09 03:00;CYQB 090300Z 02007KT 15SM SKC 14/06 A3019 RMK SLP223

CYQB;2009-09-09 04:00;CYQB 090400Z 03007KT 15SM SKC 14/06 A3020 RMK SLP227

CYQB;2009-09-09 05:00;CYQB 090500Z 36004KT 15SM SKC 13/06 A3021 RMK SLP230

CYQB;2009-09-09 06:00;CYQB 090600Z 36006KT 15SM SKC 12/06 A3021 RMK SLP232

CYQB;2009-09-09 07:00;CYQB 090700Z 36002KT 15SM SKC 11/06 A3022 RMK SLP235

CYQB;2009-09-09 08:00;CYQB 090800Z 01005KT 15SM SKC 10/06 A3025 RMK SLP244

CYQB;2009-09-09 09:00;CYQB 090900Z 02008KT 15SM SKC 10/05 A3027 RMK SLP250

CYQB;2009-09-09 10:00;CYQB 091000Z 36004KT 20SM SKC 10/05 A3028 RMK SLP254

CYQB;2009-09-09 11:00;CYQB 091100Z 01004KT 30SM SKC 09/05 A3030 RMK SLP261

CYQB;2009-09-09 12:00;CYQB 091200Z 03004KT 50SM FEW220 11/06 A3032 RMK CI1 SLP267

CYQB;2009-09-09 13:00;CYQB 091300Z 05006KT 50SM FEW220 15/06 A3033 RMK CI1 SLP273

CYQB;2009-09-09 14:00;CYQB 091400Z 08009KT 50SM SKC 16/07 A3034 RMK SLP275

CYQB;2009-09-09 15:00;CYQB 091500Z 09010KT 50SM SKC 16/07 A3034 RMK SLP276

CYQB;2009-09-09 16:00;CYQB 091600Z 07008KT 50SM SKC 17/06 A3036 RMK SLP280

CYQB;2009-09-09 17:00;CYQB 091700Z 11005KT 50SM SKC 18/07 A3035 RMK SLP278

CYQB;2009-09-09 18:00;CYQB 091800Z 11003KT 50SM FEW040 18/06 A3034 RMK CF1 SLP274

CYQB;2009-09-09 19:00;CYQB 091900Z 07008KT 50SM FEW050 19/06 A3034 RMK CU1 SLP275

CYQB;2009-09-09 20:00;CYQB 092000Z 10009KT 50SM SKC 19/05 A3033 RMK SLP273

CYQB;2009-09-09 21:00;CYQB 092100Z 08009KT 50SM SKC 18/03 A3034 RMK SLP275

CYQB;2009-09-09 22:00;CYQB 092200Z 07009KT 50SM SKC 18/05 A3034 RMK SLP277

CYQB;2009-09-09 23:00;CYQB 092300Z 06009KT 50SM FEW250 16/05 A3036 RMK CI0 SLP281

CYQB;2009-09-10 00:00;CYQB 100000Z 06005KT 30SM FEW250 15/03 A3037 RMK CI1 SLP286

CYQB;2009-09-10 01:00;CYQB 100100Z 07006KT 15SM SKC 14/03 A3038 RMK SLP289

CYQB;2009-09-10 02:00;CYQB 100200Z 01002KT 15SM FEW085 13/03 A3040 RMK AC2 SLP295

CYQB;2009-09-10 03:00;CYQB 100300Z 00000KT 15SM FEW220 09/04 A3042 RMK CI1 SLP302

CYQB;2009-09-10 04:00;CYQB 100400Z 01006KT 15SM SKC 10/04 A3042 RMK SLP304

CYQB;2009-09-10 05:00;CYQB 100500Z 00000KT 15SM FEW030 08/04 A3044 RMK SC1 SLP310

CYQB;2009-09-10 06:00;CYQB 100600Z 01004KT 15SM FEW030 08/04 A3045 RMK SC1 SLP313

CYQB;2009-09-10 07:00;CYQB 100700Z 01003KT 15SM FEW030 08/04 A3046 RMK SC1 SLP316

CYQB;2009-09-10 08:00;CYQB 100800Z 04002KT 15SM SKC 08/04 A3047 RMK SLP320

CYQB;2009-09-10 09:00;CYQB 100900Z 03006KT 15SM SKC 07/03 A3047 RMK SLP321

CYQB;2009-09-10 10:00;CYQB 101000Z 05004KT 15SM FEW050 06/03 A3048 RMK SC1 SLP324

CYQB;2009-09-10 11:00;CYQB 101100Z 02005KT 15SM FEW250 07/03 A3050 RMK CI1 SLP329

CYQB;2009-09-10 12:00;CYQB 101200Z 03004KT 30SM FEW250 10/04 A3051 RMK CI1 SLP333

CYQB;2009-09-10 13:00;CYQB 101300Z 05004KT 30SM SKC 12/04 A3051 RMK SLP334

CYQB;2009-09-10 14:00;CYQB 101400Z 07005KT 30SM FEW250 15/06 A3052 RMK CI1 SLP335

CYQB;2009-09-10 15:00;CYQB 101500Z 09002KT 30SM FEW250 17/07 A3050 RMK CI1 SLP330

CYQB;2009-09-10 16:00;CYQB 101600Z 00000KT 50SM FEW050 FEW250 19/07 A3048 RMK CU1CI1 SLP324

CYQB;2009-09-10 17:00;CYQB 101700Z 19006KT 50SM FEW044 20/08 A3047 RMK CU1 SLP320

CYQB;2009-09-10 18:00;CYQB 101800Z 23006KT 50SM FEW044 22/10 A3045 RMK CU1 SLP313

CYQB;2009-09-10 19:00;CYQB 101900Z 26010KT 50SM FEW048 22/10 A3043 RMK CU1 SLP307

CYQB;2009-09-10 20:00;CYQB 102000Z 25003KT 30SM FEW040 FEW250 22/10 A3041 RMK CU1CI1 SLP301

CYQB;2009-09-10 21:00;CYQB 102100Z 24005KT 30SM FEW040 FEW250 22/10 A3041 RMK CF1CI1 SLP298

CYQB;2009-09-10 22:00;CYQB 102200Z 27004KT 30SM FEW250 22/11 A3040 RMK CI0 SLP297

CYQB;2009-09-10 23:00;CYQB 102300Z 27003KT 30SM SCT250 19/12 A3040 RMK CI2 SLP297

CYQB;2009-09-11 00:00;CYQB 110000Z 27004KT 30SM FEW250 16/11 A3041 RMK CI1 SLP300

CYQB;2009-09-11 01:00;CYQB 110100Z 27002KT 15SM SKC 15/11 A3041 RMK SLP301

CYQB;2009-09-11 02:00;CYQB 110200Z 02003KT 15SM FEW250 13/10 A3041 RMK CI1 SLP300

CYQB;2009-09-11 03:00;CYQB 110300Z 04002KT 15SM SCT250 12/09 A3041 RMK CI2 SLP300

CYQB;2009-09-11 04:00;CYQB 110400Z 03002KT 15SM FEW250 11/09 A3040 RMK CI2 SLP297

CYQB;2009-09-11 05:00;CYQB 110500Z 00000KT 15SM FEW250 10/09 A3040 RMK CI1 SLP295

CYQB;2009-09-11 06:00;CYQB 110600Z 33002KT 15SM SKC 10/08 A3039 RMK SLP292

CYQB;2009-09-11 07:00;CYQB 110700Z 00000KT 15SM SKC 10/08 A3039 RMK SLP293

CYQB;2009-09-11 08:00;CYQB 110800Z 00000KT 15SM SCT050 09/08 A3040 RMK SC4 SLP295

CYQB;2009-09-11 09:00;CYQB 110900Z 00000KT 15SM SCT051 11/09 A3041 RMK SC4 SLP297

CYQB;2009-09-11 10:00;CYQB 111000Z 05003KT 30SM SCT050 BKN220 11/09 A3041 RMK SC3CI0 SLP298

CYQB;2009-09-11 11:00;CYQB 111100Z 00000KT 30SM FEW045 SCT220 10/09 A3041 RMK SC1CI1 SLP298

CYQB;2009-09-11 12:00;CYQB 111200Z 00000KT 30SM FEW045 BKN220 12/10 A3041 RMK SC1CI2 SLP298

CYQB;2009-09-11 13:00;CYQB 111300Z 22009KT 30SM FEW045 BKN220 15/11 A3040 RMK SC1CI1 SLP297

CYQB;2009-09-11 14:00;CYQB 111400Z 23010KT 30SM FEW045 BKN220 16/11 A3039 RMK SC1CI1 SLP292

CYQB;2009-09-11 15:00;CYQB 111500Z 23007KT 30SM FEW045 FEW180 BKN220 18/12 A3036 RMK SC1CI0CI1 SLP283

CYQB;2009-09-11 16:00;CYQB 111600Z 22010KT 30SM FEW050 BKN220 19/13 A3035 RMK SC1CI2 SLP277

CYQB;2009-09-11 17:00;CYQB 111700Z 22011KT 30SM FEW050 SCT220 20/12 A3032 RMK SC1CI2 SLP268

CYQB;2009-09-11 18:00;CYQB 111800Z 22008KT 30SM FEW050 FEW180 BKN220 21/12 A3030 RMK SC1CI0CI2 SLP262

CYQB;2009-09-11 19:00;CYQB 111900Z 21010KT 30SM FEW050 FEW180 BKN220 22/11 A3027 RMK CF1AS2CI1 SLP252

CYQB;2009-09-11 20:00;CYQB 112000Z 23011KT 30SM FEW180 BKN220 22/10 A3026 RMK AC2CI1 SLP248

CYQB;2009-09-11 21:00;CYQB 112100Z 22007KT 30SM FEW120 BKN220 21/10 A3025 RMK AC2CI2 SLP244

CYQB;2009-09-11 22:00;CYQB 112200Z 23006KT 30SM FEW120 SCT220 21/10 A3024 RMK AC1CI1 SLP242

CYQB;2009-09-11 23:00;CYQB 112300Z 24005KT 20SM FEW180 BKN220 18/10 A3024 RMK AS2CI2 SLP241

CYQB;2009-09-12 00:00;CYQB 120000Z 25003KT 15SM FEW210 16/10 A3024 RMK CI2 SLP241

CYQB;2009-09-12 01:00;CYQB 120100Z 29003KT 15SM FEW210 15/10 A3024 RMK CI1 SLP241

CYQB;2009-09-12 02:00;CYQB 120200Z 31002KT 15SM FEW210 13/10 A3023 RMK CI1 SLP237

CYQB;2009-09-12 03:00;CYQB 120300Z 02003KT 15SM SKC 14/10 A3021 RMK SLP232

CYQB;2009-09-12 04:00;CYQB 120400Z 34004KT 15SM SKC 12/09 A3021 RMK SLP230

CYQB;2009-09-12 05:00;CYQB 120500Z 26002KT 15SM SKC 11/09 A3020 RMK SLP228

CYQB;2009-09-12 06:00;CYQB 120600Z 00000KT 15SM FEW210 10/09 A3019 RMK CI1 SLP225

CYQB;2009-09-12 07:00;CYQB 120700Z 00000KT 15SM SKC 10/09 A3017 RMK SLP219

CYQB;2009-09-12 08:00;CYQB 120800Z 00000KT 15SM FEW210 11/09 A3017 RMK CI0 SLP216

CYQB;2009-09-12 09:00;CYQB 120900Z 20004KT 15SM FEW210 11/10 A3017 RMK CI1 SLP217

CYQB;2009-09-12 10:00;CYQB 121000Z 23002KT 8SM R06/3000VP6000FT/U FEW210 08/08 A3017 RMK CI1 SLP217

CYQB;2009-09-12 11:00;CYQB 121100Z 23002KT 3SM R06/2800V5000FT/N BR FEW210 08/07 A3017 RMK CI1 FG OVR RWY VIS 3/4 SLP217

CYQB;2009-09-12 11:22;CYQB 121122Z 24003KT 8SM FEW210 09/08 RMK CI1

CYQB;2009-09-12 12:00;CYQB 121200Z 24005KT 10SM FEW004 FEW210 12/11 A3016 RMK ST1CI0 SLP213

CYQB;2009-09-12 13:00;CYQB 121300Z 23003KT 15SM FEW010 FEW210 14/11 A3015 RMK SC1CI1 SLP210

CYQB;2009-09-12 14:00;CYQB 121400Z 23004KT 25SM FEW010 FEW210 17/12 A3012 RMK SC1CI1 SLP202

CYQB;2009-09-12 15:00;CYQB 121500Z 20007KT 25SM FEW210 19/12 A3010 RMK CI1 SLP192

CYQB;2009-09-12 16:00;CYQB 121600Z 22008KT 30SM FEW040 FEW210 21/12 A3007 RMK CU1CI1 SLP183

CYQB;2009-09-12 17:00;CYQB 121700Z 22009KT 30SM FEW040 FEW210 22/12 A3005 RMK CU1CI1 SLP175

CYQB;2009-09-12 18:00;CYQB 121800Z 22008KT 30SM FEW210 23/11 A3002 RMK CI1 SLP167

CYQB;2009-09-12 19:00;CYQB 121900Z 22009KT 30SM FEW050 FEW250 24/10 A3000 RMK CU1CI1 SLP161

CYQB;2009-09-12 20:00;CYQB 122000Z 24010KT 30SM FEW055 FEW250 24/11 A2998 RMK CU1CI1 SLP154

CYQB;2009-09-12 21:00;CYQB 122100Z 26009KT 30SM FEW050 FEW250 24/11 A2997 RMK CU1CI1 SLP149

CYQB;2009-09-12 22:00;CYQB 122200Z 26005KT 30SM FEW050 FEW250 23/12 A2995 RMK CU1CI1 SLP144

CYQB;2009-09-12 23:00;CYQB 122300Z 26005KT 30SM FEW250 19/11 A2995 RMK CI1 SLP142

CYQB;2009-09-13 00:00;CYQB 130000Z 28003KT 15SM FEW250 16/10 A2994 RMK CI1 SLP139

CYQB;2009-09-13 01:00;CYQB 130100Z 00000KT 15SM FEW250 14/10 A2993 RMK CI1 SLP136

CYQB;2009-09-13 02:00;CYQB 130200Z 26002KT 15SM FEW250 13/09 A2993 RMK CI1 SLP136

CYQB;2009-09-13 03:00;CYQB 130300Z 35002KT 15SM FEW250 15/08 A2991 RMK CI2 SLP130

CYQB;2009-09-13 04:00;CYQB 130400Z 27003KT 15SM FEW250 12/08 A2989 RMK CI2 SLP123

CYQB;2009-09-13 05:00;CYQB 130500Z 00000KT 15SM SCT250 12/08 A2988 RMK CI2 SLP118

CYQB;2009-09-13 06:00;CYQB 130600Z 00000KT 15SM FEW250 10/08 A2986 RMK CI0 SLP114

CYQB;2009-09-13 07:00;CYQB 130700Z 00000KT 15SM FEW250 11/08 A2984 RMK CI0 SLP107

CYQB;2009-09-13 08:00;CYQB 130800Z 23007KT 15SM FEW100 OVC240 12/10 A2982 RMK AC1CI6 SLP100

CYQB;2009-09-13 09:00;CYQB 130900Z 31003KT 15SM FEW060 SCT120 SCT160 OVC210 12/09 A2982 RMK SC2AC2AC1CI4 SLP098

CYQB;2009-09-13 09:49;CYQB 130949Z 24009KT 15SM -RA SCT060 BKN100 13/ RMK SC4AC2

CYQB;2009-09-13 10:00;CYQB 131000Z 23009KT 15SM -RA FEW030 BKN060 BKN100 13/10 A2981 RMK SC1SC4AC2 SLP096

CYQB;2009-09-13 11:00;CYQB 131100Z 23010KT 10SM -RA FEW015 BKN030 OVC060 12/11 A2981 RMK SF1SC5SC2 SLP095

CYQB;2009-09-13 11:49;CYQB 131149Z 25011KT 2 1/2SM -RA BR FEW015 SCT030 BKN052 12/ RMK SF2SC2SC4 VIS NE HIER

CYQB;2009-09-13 12:00;CYQB 131200Z CCA 26009KT 2 1/2SM -SHRA BR FEW015 SCT030 BKN046 12/11 A2981 RMK SF2SC2SC4 VIS NE HIER SLP097

CYQB;2009-09-13 12:28;CYQB 131228Z 24011KT 6SM BR FEW015 SCT030 BKN064 12/ RMK SF2SC2SC2 VIS SE LWR

CYQB;2009-09-13 13:00;CYQB 131300Z 25009KT 10SM FEW004 SCT030 BKN075 13/12 A2982 RMK ST1SC3AC3 SLP098

CYQB;2009-09-13 14:00;CYQB 131400Z 33008KT 30SM FEW004 SCT030 SCT100 17/13 A2983 RMK SF1SC3AC1 SLP101

CYQB;2009-09-13 15:00;CYQB 131500Z 32009G15KT 30SM SCT035 BKN220 18/10 A2984 RMK SC4CI1 SLP105

CYQB;2009-09-13 16:00;CYQB 131600Z 33011KT 30SM BKN036 BKN220 18/10 A2984 RMK SC6CI0 SLP105

CYQB;2009-09-13 17:00;CYQB 131700Z 33010G16KT 30SM BKN039 BKN220 18/10 A2984 RMK SC6CI0 SLP107

CYQB;2009-09-13 18:00;CYQB 131800Z 33010KT 30SM BKN051 19/10 A2983 RMK SC6 SLP104

CYQB;2009-09-13 19:00;CYQB 131900Z 32007KT 30SM BKN043 18/10 A2983 RMK SC7 SLP104

CYQB;2009-09-13 20:00;CYQB 132000Z 33007KT 30SM BKN054 18/09 A2983 RMK SC7 SLP103

CYQB;2009-09-13 21:00;CYQB 132100Z 33008KT 30SM BKN049 18/09 A2984 RMK SC7 SLP105

CYQB;2009-09-13 22:00;CYQB 132200Z 30006KT 30SM FEW050 FEW220 17/09 A2983 RMK SC2CI0 SLP102

CYQB;2009-09-13 23:00;CYQB 132300Z 29006KT 15SM FEW050 SCT090 BKN240 14/09 A2984 RMK SC2AC1CI0 SLP106

CYQB;2009-09-14 00:00;CYQB 140000Z 34005KT 15SM FEW050 BKN080 BKN240 15/09 A2985 RMK SC2AC3CI0 SLP110

CYQB;2009-09-14 01:00;CYQB 140100Z 32006KT 15SM BKN075 15/09 A2985 RMK AC6 SLP108

CYQB;2009-09-14 02:00;CYQB 140200Z 28005KT 15SM BKN075 OVC180 13/10 A2985 RMK AC5AC3 SLP108

CYQB;2009-09-14 03:00;CYQB 140300Z 27004KT 15SM FEW070 OVC130 14/10 A2984 RMK AC2AC6 SLP105

CYQB;2009-09-14 04:00;CYQB 140400Z 33010KT 15SM FEW070 BKN130 15/09 A2983 RMK AC2AC5 SLP102

CYQB;2009-09-14 05:00;CYQB 140500Z 07004KT 15SM -SHRA FEW070 OVC120 14/09 A2983 RMK AC2AC6 SLP102

CYQB;2009-09-14 06:00;CYQB 140600Z 27002KT 15SM FEW030 SCT070 OVC120 14/08 A2983 RMK SC1AC2AC5 SLP103

CYQB;2009-09-14 07:00;CYQB 140700Z 30003KT 15SM FEW030 BKN130 12/08 A2983 RMK SC2AC5 SLP101

CYQB;2009-09-14 08:00;CYQB 140800Z 27006KT 15SM FEW030 BKN110 11/07 A2983 RMK SC2AC4 SLP101

CYQB;2009-09-14 09:00;CYQB 140900Z 28005KT 15SM FEW030 FEW090 SCT130 10/07 A2982 RMK SC2AC1AC1 SLP100

CYQB;2009-09-14 10:00;CYQB 141000Z 29007KT 15SM FEW090 09/07 A2983 RMK AC2 SLP103

CYQB;2009-09-14 11:00;CYQB 141100Z 29006KT 15SM FEW090 09/07 A2983 RMK AC2 SLP104

CYQB;2009-09-14 12:00;CYQB 141200Z 27005KT 15SM BKN087 13/09 A2984 RMK AC5 SLP106

CYQB;2009-09-14 13:00;CYQB 141300Z 25008KT 15SM BKN069 14/08 A2984 RMK AC5 SLP105

CYQB;2009-09-14 14:00;CYQB 141400Z 26010KT 15SM FEW040 OVC070 14/09 A2984 RMK SC1AC6 SLP107

CYQB;2009-09-14 15:00;CYQB 141500Z 26014KT 15SM FEW012 BKN042 OVC068 14/09 A2983 RMK CF2SC4AC2 SLP103

CYQB;2009-09-14 16:00;CYQB 141600Z 25012KT 15SM FEW012 BKN055 OVC070 14/10 A2982 RMK CF1SC6AC2 SLP098

CYQB;2009-09-14 17:00;CYQB 141700Z 25013KT 15SM FEW012 OVC051 15/09 A2980 RMK CF1SC7 SLP091

CYQB;2009-09-14 18:00;CYQB 141800Z 26011G17KT 15SM OVC049 15/10 A2978 RMK SC8 SLP084

CYQB;2009-09-14 19:00;CYQB 141900Z 26014KT 15SM OVC042 16/10 A2975 RMK SC8 SLP077

CYQB;2009-09-14 20:00;CYQB 142000Z 26012KT 30SM FEW025 BKN039 16/11 A2975 RMK SC1SC6 SLP077

CYQB;2009-09-14 21:00;CYQB 142100Z 25008G15KT 30SM FEW025 BKN040 BKN085 16/11 A2975 RMK SC1SC5AC2 SLP075

CYQB;2009-09-14 22:00;CYQB 142200Z 25009KT 30SM FEW025 BKN035 BKN085 16/12 A2975 RMK SC1SC6AC1 DIST SH S QUADS SLP074

CYQB;2009-09-14 23:00;CYQB 142300Z 27007KT 20SM FEW035 14/11 A2973 RMK CU2 SLP069

CYQB;2009-09-15 00:00;CYQB 150000Z 30005KT 15SM FEW030 13/11 A2975 RMK SC2 SLP075

CYQB;2009-09-15 01:00;CYQB 150100Z 13002KT 15SM FEW030 SCT110 BKN160 BKN190 12/11 A2975 RMK SC1AC2AC2CI1 SLP076

CYQB;2009-09-15 02:00;CYQB 150200Z 00000KT 15SM FEW050 SCT080 BKN160 12/11 A2975 RMK SC2AC2AC2 SLP075

CYQB;2009-09-15 03:00;CYQB 150300Z 00000KT 15SM FEW050 SCT090 BKN180 12/11 A2973 RMK SC2AC2AC2 SLP070

CYQB;2009-09-15 04:00;CYQB 150400Z 34002KT 15SM BKN075 BKN100 BKN180 12/11 A2973 RMK AC5AC1AC1 SLP070

CYQB;2009-09-15 05:00;CYQB 150500Z 00000KT 15SM SCT075 11/10 A2973 RMK AC4 SLP070

CYQB;2009-09-15 06:00;CYQB 150600Z 25005KT 10SM FEW060 09/08 A2974 RMK SC2 FOG OVER RIVER SLP071

CYQB;2009-09-15 07:00;CYQB 150700Z 25003KT 10SM FEW060 08/08 A2974 RMK SC1 FOG OVER RIVER SLP072

CYQB;2009-09-15 08:00;CYQB 150800Z 00000KT 10SM BKN060 12/10 A2975 RMK SC5 FOG OVER RIVER SLP077

CYQB;2009-09-15 09:00;CYQB 150900Z 00000KT 10SM BKN093 11/09 A2978 RMK AC5 FOG OVER RIVER SLP086

CYQB;2009-09-15 10:00;CYQB 151000Z 18003KT 15SM FEW085 10/08 A2980 RMK AC2 SLP093

CYQB;2009-09-15 11:00;CYQB 151100Z 10002KT 15SM FEW008 FEW085 11/09 A2984 RMK ST1AC2 SLP106

CYQB;2009-09-15 12:00;CYQB 151200Z 05003KT 15SM FEW008 BKN036 BKN085 12/09 A2987 RMK ST1SC5AC1 SLP115

CYQB;2009-09-15 13:00;CYQB 151300Z 07005KT 15SM SCT035 BKN085 12/10 A2989 RMK SC3AC2 SLP124

CYQB;2009-09-15 14:00;CYQB 151400Z 12008KT 20SM FEW016 BKN066 13/09 A2992 RMK SC2AC2 SLP134

CYQB;2009-09-15 15:00;CYQB 151500Z 08007KT 20SM FEW020 BKN054 BKN085 14/09 A2994 RMK CF1SC5AC2 SLP140

CYQB;2009-09-15 16:00;CYQB 151600Z 03005KT 25SM FEW020 BKN046 BKN085 14/09 A2995 RMK SC2SC5AC1 SLP145

CYQB;2009-09-15 17:00;CYQB 151700Z 02004KT 25SM -SHRA FEW020 BKN031 BKN044 14/09 A2997 RMK SC2SC4SC2 SLP150

CYQB;2009-09-15 17:23;CYQB 151723Z 15003KT 30SM FEW020 BKN040 BKN070 15/ RMK SC2SC4AC1

CYQB;2009-09-15 18:00;CYQB 151800Z 00000KT 30SM FEW030 SCT070 17/10 A2997 RMK SC2AC2 SLP149

CYQB;2009-09-15 19:00;CYQB 151900Z 22003KT 30SM SCT035 BKN080 16/09 A2997 RMK SC3AC3 SLP151

CYQB;2009-09-15 20:00;CYQB 152000Z 33008KT 30SM SCT065 BKN240 18/03 A2998 RMK SC4CI1 SLP155

CYQB;2009-09-15 21:00;CYQB 152100Z 34009KT 30SM SCT065 BKN240 17/03 A3001 RMK SC3CI2 SLP163

CYQB;2009-09-15 22:00;CYQB 152200Z 08013KT 30SM FEW030 FEW065 BKN240 13/08 A3005 RMK SC1SC2CI3 SLP177

CYQB;2009-09-15 23:00;CYQB 152300Z 07010G15KT 15SM FEW030 FEW065 BKN240 12/05 A3009 RMK SC1SC1CI3 SLP190

CYQB;2009-09-16 00:00;CYQB 160000Z 06006KT 15SM FEW045 FEW090 BKN240 11/05 A3013 RMK SC1AC1CI2 SLP205

CYQB;2009-09-16 01:00;CYQB 160100Z 06005KT 15SM BKN050 BKN090 10/06 A3016 RMK SC5AC1 SLP214

CYQB;2009-09-16 02:00;CYQB 160200Z 04006KT 15SM BKN045 BKN053 11/06 A3017 RMK SC5SC1 SLP219

CYQB;2009-09-16 03:00;CYQB 160300Z 05007KT 15SM BKN058 11/06 A3019 RMK SC6 SLP226

CYQB;2009-09-16 04:00;CYQB 160400Z 05006KT 15SM FEW021 BKN058 10/06 A3021 RMK SC2SC6 SLP233

CYQB;2009-09-16 05:00;CYQB 160500Z 05006KT 15SM FEW020 BKN057 10/06 A3022 RMK SC1SC6 SLP236

CYQB;2009-09-16 06:00;CYQB 160600Z 06006KT 15SM FEW030 BKN057 10/06 A3024 RMK SC1SC6 SLP242

CYQB;2009-09-16 07:00;CYQB 160700Z 07006KT 15SM OVC028 10/07 A3026 RMK SC8 SLP249

CYQB;2009-09-16 08:00;CYQB 160800Z 08006KT 15SM FEW020 OVC030 10/07 A3028 RMK SC1SC7 SLP255

CYQB;2009-09-16 09:00;CYQB 160900Z 07007KT 15SM FEW020 OVC035 10/06 A3031 RMK SC1SC7 SLP265

CYQB;2009-09-16 10:00;CYQB 161000Z 06008KT 15SM FEW020 BKN045 BKN220 10/06 A3034 RMK SC1SC6CI1 SLP275

CYQB;2009-09-16 11:00;CYQB 161100Z 05008KT 30SM FEW020 BKN045 BKN220 09/04 A3036 RMK SC1SC3CI1 SLP284

CYQB;2009-09-16 12:00;CYQB 161200Z 07007KT 30SM BKN026 09/04 A3038 RMK SC7 SLP289

CYQB;2009-09-16 13:00;CYQB 161300Z 10008KT 30SM BKN024 10/05 A3040 RMK SC7 SLP297

CYQB;2009-09-16 14:00;CYQB 161400Z 08008KT 30SM SCT024 BKN033 10/05 A3042 RMK SC3SC4 SLP303

CYQB;2009-09-16 15:00;CYQB 161500Z 08009KT 30SM BKN039 11/05 A3043 RMK SC5 SLP305

CYQB;2009-09-16 16:00;CYQB 161600Z 07006KT 30SM FEW040 13/05 A3042 RMK SC2 SLP303

CYQB;2009-09-16 17:00;CYQB 161700Z 11010KT 30SM FEW040 14/05 A3041 RMK SC1 SLP298

CYQB;2009-09-16 18:00;CYQB 161800Z 08011KT 30SM FEW040 15/03 A3040 RMK SC1 SLP297

CYQB;2009-09-16 19:00;CYQB 161900Z 06010KT 30SM FEW040 15/03 A3039 RMK CU1 SLP291

CYQB;2009-09-16 20:00;CYQB 162000Z 09013KT 30SM FEW052 15/02 A3039 RMK SC1 SLP292

CYQB;2009-09-16 21:00;CYQB 162100Z 10008KT 30SM FEW050 15/03 A3039 RMK SC1 SLP292

CYQB;2009-09-16 22:00;CYQB 162200Z 08005KT 30SM FEW050 14/03 A3039 RMK SC1 SLP293

CYQB;2009-09-16 23:00;CYQB 162300Z 06004KT 30SM FEW050 12/03 A3039 RMK SC1 SLP294

CYQB;2009-09-17 00:00;CYQB 170000Z 36003KT 15SM SKC 11/00 A3040 RMK SLP296

CYQB;2009-09-17 01:00;CYQB 170100Z 35002KT 15SM SKC 09/02 A3040 RMK SLP297

CYQB;2009-09-17 02:00;CYQB 170200Z 01005KT 15SM SKC 08/01 A3040 RMK SLP295

CYQB;2009-09-17 03:00;CYQB 170300Z 03006KT 15SM SKC 07/01 A3039 RMK SLP293

CYQB;2009-09-17 04:00;CYQB 170400Z 02006KT 15SM SKC 06/02 A3039 RMK SLP293

CYQB;2009-09-17 05:00;CYQB 170500Z 02005KT 15SM SKC 06/02 A3039 RMK SLP293

CYQB;2009-09-17 06:00;CYQB 170600Z 01006KT 15SM SKC 05/02 A3038 RMK SLP290

CYQB;2009-09-17 07:00;CYQB 170700Z 01006KT 15SM SKC 05/02 A3036 RMK SLP284

CYQB;2009-09-17 08:00;CYQB 170800Z 01006KT 15SM SKC 05/02 A3036 RMK SLP282

CYQB;2009-09-17 09:00;CYQB 170900Z 01005KT 15SM SKC 04/01 A3035 RMK SLP278

CYQB;2009-09-17 10:00;CYQB 171000Z 01005KT 30SM FEW220 04/01 A3034 RMK CI1 SLP276

CYQB;2009-09-17 11:00;CYQB 171100Z 02006KT 30SM FEW010 04/01 A3034 RMK ST1 SLP275

CYQB;2009-09-17 12:00;CYQB 171200Z 03004KT 30SM FEW010 06/02 A3032 RMK ST1 SLP271

CYQB;2009-09-17 13:00;CYQB 171300Z 04003KT 30SM FEW015 09/03 A3032 RMK SF1 SLP269

CYQB;2009-09-17 14:00;CYQB 171400Z 08002KT 30SM SKC 12/05 A3030 RMK SLP264

CYQB;2009-09-17 15:00;CYQB 171500Z 00000KT 30SM FEW032 14/06 A3028 RMK SC1 SLP256

CYQB;2009-09-17 16:00;CYQB 171600Z 16002KT 30SM FEW030 15/05 A3025 RMK SC1 SLP245

CYQB;2009-09-17 17:00;CYQB 171700Z 25006KT 30SM FEW030 17/07 A3021 RMK SC1 SLP233

CYQB;2009-09-17 18:00;CYQB 171800Z 20010G15KT 30SM FEW040 18/07 A3017 RMK SC1 SLP219

CYQB;2009-09-17 19:00;CYQB 171900Z 25010G19KT 30SM FEW048 19/07 A3014 RMK SC1 SLP210

CYQB;2009-09-17 20:00;CYQB 172000Z 24011KT 30SM FEW048 19/07 A3011 RMK SC1 SLP198

CYQB;2009-09-17 21:00;CYQB 172100Z 26008KT 30SM FEW048 18/07 A3008 RMK SC1 SLP189

CYQB;2009-09-17 22:00;CYQB 172200Z 26005KT 30SM FEW048 16/08 A3005 RMK SC1 OBS TAKEN +19 SLP178

CYQB;2009-09-17 23:00;CYQB 172300Z 26006KT 30SM FEW048 14/08 A3003 RMK SC1 SLP170

CYQB;2009-09-18 00:00;CYQB 180000Z 25004KT 15SM SKC 13/08 A3001 RMK SLP163

CYQB;2009-09-18 01:00;CYQB 180100Z 25003KT 15SM FEW100 12/08 A2999 RMK AC1 SLP157

CYQB;2009-09-18 02:00;CYQB 180200Z 27003KT 15SM SKC 11/08 A2997 RMK SLP150

CYQB;2009-09-18 03:00;CYQB 180300Z 25004KT 15SM SKC 11/08 A2995 RMK SLP144

CYQB;2009-09-18 04:00;CYQB 180400Z 23008KT 15SM SCT055 12/09 A2993 RMK SC4 SLP136

CYQB;2009-09-18 05:00;CYQB 180500Z 23007KT 15SM FEW045 BKN060 11/09 A2990 RMK SC1SC4 SLP128

CYQB;2009-09-18 06:00;CYQB 180600Z 23007KT 15SM FEW060 11/09 A2987 RMK SC1 SLP117

CYQB;2009-09-18 07:00;CYQB 180700Z 25011KT 15SM FEW060 SCT180 11/09 A2984 RMK SC1AC2 SLP107

CYQB;2009-09-18 08:00;CYQB 180800Z 26010KT 15SM -SHRA OVC010 11/10 A2981 RMK SC8 SLP095

CYQB;2009-09-18 09:00;CYQB 180900Z 26007KT 15SM -SHRA OVC008 11/10 A2978 RMK ST8 SLP086

CYQB;2009-09-18 10:00;CYQB 181000Z 26009KT 5SM -SHRA BR FEW004 OVC008 12/11 A2976 RMK SF2SF6 SLP078

CYQB;2009-09-18 10:19;CYQB 181019Z CCA 23009KT 2SM -SHRA FEW006 BKN008 OVC014 12/ RMK SF1SF6SC1

CYQB;2009-09-18 11:00;CYQB 181100Z 23011G17KT 3SM -SHRA BR BKN008 OVC012 13/12 A2972 RMK SF6SC2 SLP066

CYQB;2009-09-18 11:21;CYQB 181121Z 24014KT 2SM SHRA BR BKN008 OVC012 13/ RMK SF7SC1 VIS LWR NW

CYQB;2009-09-18 12:00;CYQB 181200Z 25012G18KT 4SM -SHRA BR FEW006 BKN008 OVC012 13/12 A2972 RMK SF1SF6SC1 RERA SLP067

CYQB;2009-09-18 13:00;CYQB 181300Z 23009KT 4SM -SHRA BR BKN008 OVC015 13/12 A2971 RMK SF6SC2 SLP063

CYQB;2009-09-18 14:00;CYQB 181400Z 26014KT 12SM FEW008 SCT015 BKN040 BKN130 14/13 A2974 RMK SF2SC2SC2AC2 SLP071

CYQB;2009-09-18 15:00;CYQB 181500Z 32015G20KT 20SM FEW020 SCT040 BKN082 15/10 A2975 RMK SC2SC2AC2 SLP076

CYQB;2009-09-18 16:00;CYQB 181600Z 31012G21KT 30SM BKN040 BKN080 15/08 A2976 RMK SC5AC1 SLP079

CYQB;2009-09-18 17:00;CYQB 181700Z 30010G18KT 30SM BKN043 16/06 A2978 RMK SC6 SLP084

CYQB;2009-09-18 18:00;CYQB 181800Z 31016G24KT 30SM BKN045 16/05 A2979 RMK SC6 SLP088

CYQB;2009-09-18 19:00;CYQB 181900Z 31018G25KT 30SM BKN046 14/04 A2981 RMK SC6 SLP095

CYQB;2009-09-18 20:00;CYQB 182000Z 30019G29KT 30SM BKN045 13/03 A2982 RMK SC6 SLP098

CYQB;2009-09-18 21:00;CYQB 182100Z CCA 31016G24KT 30SM FEW045 SCT230 12/03 A2984 RMK SC2CI1 SLP106

CYQB;2009-09-18 22:00;CYQB 182200Z 30012G28KT 30SM FEW045 SCT150 SCT220 12/03 A2986 RMK SC2AC2CI1 SLP112

CYQB;2009-09-18 23:00;CYQB 182300Z 30010G15KT 15SM BKN041 BKN100 BKN120 11/04 A2989 RMK SC6AC1AC1 SLP123

CYQB;2009-09-19 00:00;CYQB 190000Z 30006KT 15SM FEW040 BKN088 10/03 A2992 RMK SC2AC5 SLP133

CYQB;2009-09-19 01:00;CYQB 190100Z 26013KT 15SM FEW040 OVC110 10/04 A2993 RMK SC2AC6 SLP136

CYQB;2009-09-19 02:00;CYQB 190200Z 26014KT 15SM FEW040 BKN080 BKN210 09/04 A2993 RMK SC2AC5CI1 SLP137

CYQB;2009-09-19 03:00;CYQB 190300Z 26014KT 15SM FEW040 SCT180 BKN210 09/04 A2994 RMK SC2AC2CI2 SLP140

CYQB;2009-09-19 04:00;CYQB 190400Z 27015KT 15SM BKN037 OVC090 09/04 A2994 RMK SC6AC2 SLP142

CYQB;2009-09-19 05:00;CYQB 190500Z 28014G21KT 15SM FEW037 09/04 A2995 RMK SC1 SLP143

CYQB;2009-09-19 06:00;CYQB 190600Z 27010G15KT 15SM FEW037 08/04 A2998 RMK SC1 SLP153

CYQB;2009-09-19 07:00;CYQB 190700Z 25010KT 15SM BKN041 09/05 A2999 RMK SC5 SLP157

CYQB;2009-09-19 08:00;CYQB 190800Z 25010KT 15SM BKN041 09/05 A3002 RMK SC6 SLP166

CYQB;2009-09-19 09:00;CYQB 190900Z 26006KT 15SM BKN040 09/04 A3004 RMK SC6 SLP174

CYQB;2009-09-19 10:00;CYQB 191000Z 28007KT 15SM BKN045 08/03 A3007 RMK SC6 SLP184

CYQB;2009-09-19 11:00;CYQB 191100Z 30009KT 30SM SCT044 08/02 A3010 RMK SC4 SLP195

CYQB;2009-09-19 12:00;CYQB 191200Z 31010G20KT 30SM FEW044 09/02 A3013 RMK SC2 SLP206

CYQB;2009-09-19 13:00;CYQB 191300Z 33016G25KT 30SM SCT045 10/03 A3014 RMK SC3 SLP210

CYQB;2009-09-19 14:00;CYQB 191400Z 31016G25KT 30SM FEW045 11/02 A3017 RMK SC2 SLP219

CYQB;2009-09-19 15:00;CYQB 191500Z 32016G21KT 30SM FEW045 FEW230 11/01 A3018 RMK SC2CI0 SLP223

CYQB;2009-09-19 16:00;CYQB 191600Z 32016KT 30SM FEW045 FEW230 13/02 A3017 RMK SC2CI0 SLP220

CYQB;2009-09-19 17:00;CYQB 191700Z 31014G19KT 30SM FEW045 SCT230 14/01 A3018 RMK SC1CI1 SLP221

CYQB;2009-09-19 18:00;CYQB 191800Z 31009G16KT 30SM FEW045 BKN230 15/02 A3017 RMK SC1CI2 CC ASOCTD SLP220

CYQB;2009-09-19 19:00;CYQB 191900Z 29007G15KT 30SM FEW045 FEW160 BKN210 15/02 A3017 RMK SC1AC1CI0 SLP217

CYQB;2009-09-19 20:00;CYQB 192000Z 25007KT 30SM FEW040 FEW150 BKN240 16/02 A3017 RMK SC1AC2CI1 SLP217

CYQB;2009-09-19 21:00;CYQB 192100Z 27012KT 30SM FEW160 BKN220 15/02 A3017 RMK AC1CI1 SLP219

CYQB;2009-09-19 22:00;CYQB 192200Z 25009KT 30SM FEW230 14/04 A3019 RMK CI1 SLP225

CYQB;2009-09-19 23:00;CYQB 192300Z 26007KT 15SM FEW230 10/04 A3020 RMK CI1 SLP227

CYQB;2009-09-20 00:00;CYQB 200000Z 27007KT 15SM FEW230 10/03 A3020 RMK CI1 SLP229

CYQB;2009-09-20 01:00;CYQB 200100Z 28004KT 15SM FEW230 09/03 A3021 RMK CI1 SLP233

CYQB;2009-09-20 02:00;CYQB 200200Z 29004KT 15SM FEW230 06/03 A3021 RMK CI0 SLP233

CYQB;2009-09-20 03:00;CYQB 200300Z 33004KT 15SM SKC 05/03 A3022 RMK SLP235

CYQB;2009-09-20 04:00;CYQB 200400Z 00000KT 15SM SKC 06/03 A3022 RMK SLP235

CYQB;2009-09-20 05:00;CYQB 200500Z 00000KT 15SM FEW170 05/03 A3023 RMK AC1 SLP239

CYQB;2009-09-20 06:00;CYQB 200600Z 28004KT 15SM FEW170 06/04 A3024 RMK AC1 SLP243

CYQB;2009-09-20 07:00;CYQB 200700Z 29003KT 15SM FEW170 05/04 A3024 RMK AC2 SLP242

CYQB;2009-09-20 08:00;CYQB 200800Z 24008KT 15SM BKN150 07/05 A3023 RMK AC3 SLP240

CYQB;2009-09-20 09:00;CYQB 200900Z 20009KT 15SM FEW010 BKN150 06/05 A3023 RMK ST1AC3 SLP240

CYQB;2009-09-20 09:28;CYQB 200928Z 24008KT 15SM SCT003 OVC150 06/05 RMK ST3AC1

CYQB;2009-09-20 09:50;CYQB 200950Z 25006KT 15SM SCT003 BKN008 BKN150 06/ RMK SF3SF2AC2

CYQB;2009-09-20 10:00;CYQB 201000Z 25006KT 15SM SCT003 BKN007 OVC150 06/05 A3023 RMK SF4SF2AC2 SLP240

CYQB;2009-09-20 10:19;CYQB 201019Z 23005KT 3SM BR BKN002 OVC008 05/ RMK SF5SF3 VIS W 1 SE 20

CYQB;2009-09-20 10:24;CYQB 201024Z 23006KT 1/2SM R06/P6000FT/D FG VV002 05/ RMK FG8

CYQB;2009-09-20 10:36;CYQB 201036Z 26006KT 3/8SM R06/3000V5000FT/D FG VV002 05/ RMK FG8

CYQB;2009-09-20 10:48;CYQB 201048Z 24003KT 1/4SM R06/2800FT/N FG VV002 06/ RMK FG8

CYQB;2009-09-20 11:00;CYQB 201100Z 23009KT 1/2SM R06/3000FT/N FG VV002 06/05 A3024 RMK FG8 SLP241

CYQB;2009-09-20 11:12;CYQB 201112Z 24007KT 1SM R06/3000V5500FT/U BR OVC003 06/ RMK SF8 VIS SE 6

CYQB;2009-09-20 11:38;CYQB 201138Z 25008KT 3SM BR OVC003 06/ RMK SF8

CYQB;2009-09-20 12:00;CYQB 201200Z 25009KT 2SM BR OVC002 06/06 A3024 RMK SF8 SLP242

CYQB;2009-09-20 12:28;CYQB 201228Z 24008KT 4SM BR FEW001 OVC003 06/ RMK SF1SF7

CYQB;2009-09-20 13:00;CYQB 201300Z 24009KT 5SM BR OVC003 07/06 A3023 RMK SF8 VIS LWR SW SLP240

CYQB;2009-09-20 13:29;CYQB 201329Z 25007KT 7SM BKN005 BKN100 07/ RMK SF6AC1

CYQB;2009-09-20 13:52;CYQB 201352Z 24009KT 15SM SCT008 BKN100 BKN250 08/ RMK SF3AC2CI1

CYQB;2009-09-20 14:00;CYQB 201400Z 24007KT 15SM SCT009 BKN100 BKN250 08/07 A3024 RMK SF3AC2CI1 SLP242

CYQB;2009-09-20 15:00;CYQB 201500Z 23006KT 30SM FEW015 FEW090 BKN250 11/08 A3022 RMK CF1AC2CI2 SLP235

CYQB;2009-09-20 16:00;CYQB 201600Z 24013KT 30SM FEW100 BKN250 15/08 A3021 RMK AC2CI2 SLP231

CYQB;2009-09-20 17:00;CYQB 201700Z 25015KT 30SM FEW100 SCT250 17/09 A3019 RMK AC1CI1 SLP226

CYQB;2009-09-20 18:00;CYQB 201800Z 26014G20KT 30SM SCT090 BKN250 18/09 A3017 RMK AC3CI1 SLP219

CYQB;2009-09-20 19:00;CYQB 201900Z 25011G17KT 30SM FEW100 19/10 A3016 RMK AC2 SLP213

CYQB;2009-09-20 20:00;CYQB 202000Z 26014KT 30SM BKN042 20/09 A3015 RMK SC6 SLP212

CYQB;2009-09-20 21:00;CYQB 202100Z 26011KT 30SM FEW080 19/09 A3015 RMK AC2 SLP212

CYQB;2009-09-20 22:00;CYQB 202200Z 23006KT 30SM FEW080 FEW220 18/09 A3016 RMK AC1CI1 SLP214

CYQB;2009-09-20 23:00;CYQB 202300Z 20003KT 15SM FEW070 16/09 A3017 RMK AC1 SLP219

CYQB;2009-09-21 00:00;CYQB 210000Z 27003KT 15SM BKN061 16/08 A3020 RMK SC6 SLP229

CYQB;2009-09-21 01:00;CYQB 210100Z 17003KT 15SM BKN058 14/10 A3021 RMK SC6 SLP232

CYQB;2009-09-21 02:00;CYQB 210200Z 00000KT 15SM SCT058 14/09 A3022 RMK SC4 SLP237

CYQB;2009-09-21 03:00;CYQB 210300Z 29003KT 15SM FEW058 11/09 A3022 RMK SC2 SLP237

CYQB;2009-09-21 04:00;CYQB 210400Z 25003KT 15SM FEW058 10/08 A3023 RMK SC1 SLP238

CYQB;2009-09-21 05:00;CYQB 210500Z 35002KT 15SM SKC 11/09 A3023 RMK SLP240

CYQB;2009-09-21 06:00;CYQB 210600Z 00000KT 15SM SKC 09/07 A3025 RMK SLP245

CYQB;2009-09-21 07:00;CYQB 210700Z 27003KT 15SM BKN052 10/08 A3025 RMK SC5 SLP245

CYQB;2009-09-21 08:00;CYQB 210800Z 00000KT 15SM BKN052 11/08 A3025 RMK SC6 SLP246

CYQB;2009-09-21 09:00;CYQB 210900Z 13002KT 15SM BKN050 11/09 A3026 RMK SC6 SLP249

CYQB;2009-09-21 10:00;CYQB 211000Z 21002KT 15SM BKN053 12/09 A3027 RMK SC7 SLP252

CYQB;2009-09-21 11:00;CYQB 211100Z 23004KT 30SM FEW053 10/09 A3028 RMK SC2 SLP256

CYQB;2009-09-21 12:00;CYQB 211200Z 25006KT 30SM FEW053 12/09 A3030 RMK SC1 SLP262

CYQB;2009-09-21 13:00;CYQB 211300Z 25006KT 30SM SCT055 14/09 A3031 RMK SC2 SLP266

CYQB;2009-09-21 14:00;CYQB 211400Z 27005KT 30SM FEW055 16/10 A3031 RMK SC1 SLP265

CYQB;2009-09-21 15:00;CYQB 211500Z 20004KT 30SM FEW030 FEW055 18/11 A3030 RMK SC1SC1 SLP260

CYQB;2009-09-21 16:00;CYQB 211600Z 18003KT 30SM FEW030 20/12 A3028 RMK CU1 SLP256

CYQB;2009-09-21 17:00;CYQB 211700Z 23008KT 30SM FEW040 21/10 A3027 RMK CU1 SLP251

CYQB;2009-09-21 18:00;CYQB 211800Z 25005KT 30SM FEW040 22/12 A3025 RMK CU1 SLP244

CYQB;2009-09-21 19:00;CYQB 211900Z 23004KT 30SM FEW040 23/12 A3023 RMK CU1 SLP238

CYQB;2009-09-21 20:00;CYQB 212000Z 27004KT 30SM FEW040 24/12 A3023 RMK CU1 SLP237

CYQB;2009-09-21 21:00;CYQB 212100Z 27005KT 30SM FEW250 23/12 A3022 RMK CI1 SLP233

CYQB;2009-09-21 22:00;CYQB 212200Z 27002KT 30SM FEW250 22/13 A3021 RMK CI1 SLP230

CYQB;2009-09-21 23:00;CYQB 212300Z 00000KT 30SM FEW250 18/13 A3020 RMK CI1 SLP229

CYQB;2009-09-22 00:00;CYQB 220000Z 00000KT 15SM SKC 16/12 A3020 RMK SLP229

CYQB;2009-09-22 01:00;CYQB 220100Z 35002KT 15SM SKC 16/12 A3020 RMK SLP227

CYQB;2009-09-22 02:00;CYQB 220200Z 34002KT 15SM SKC 13/10 A3020 RMK SLP227

CYQB;2009-09-22 03:00;CYQB 220300Z 28002KT 15SM SKC 11/09 A3019 RMK SLP226

CYQB;2009-09-22 04:00;CYQB 220400Z 00000KT 15SM SKC 10/09 A3019 RMK SLP224

CYQB;2009-09-22 05:00;CYQB 220500Z 00000KT 15SM SKC 10/09 A3019 RMK SLP223

CYQB;2009-09-22 06:00;CYQB 220600Z 00000KT 15SM SCT220 11/09 A3019 RMK CI2 SLP223

CYQB;2009-09-22 07:00;CYQB 220700Z 02002KT 15SM BKN220 12/10 A3018 RMK CI2 SLP220

CYQB;2009-09-22 08:00;CYQB 220800Z 36002KT 15SM BKN220 12/10 A3017 RMK CI2 SLP218

CYQB;2009-09-22 09:00;CYQB 220900Z 00000KT 10SM BKN220 10/09 A3017 RMK CI2 SLP217

CYQB;2009-09-22 10:00;CYQB 221000Z CCA 00000KT 15SM FEW020 FEW080 BKN180 11/09 A3016 RMK SC1AC2AC3 SLP215

CYQB;2009-09-22 11:00;CYQB 221100Z 00000KT 15SM FEW040 BKN140 11/10 A3016 RMK SC1AC7 SLP214

CYQB;2009-09-22 11:43;CYQB 221143Z 00000KT 15SM -SHRA FEW038 FEW058 BKN140 13/ RMK SC1SC1AC6

CYQB;2009-09-22 12:00;CYQB 221200Z 00000KT 15SM -SHRA FEW038 FEW048 OVC140 13/11 A3017 RMK SC1SC1AC7 SLP217

CYQB;2009-09-22 13:00;CYQB 221300Z 20002KT 10SM -SHRA FEW029 OVC040 14/11 A3017 RMK SC1SC8 SLP216

CYQB;2009-09-22 13:39;CYQB 221339Z CCA 23002KT 3SM -SHRA BR FEW013 OVC040 13/ RMK SF1SC8

CYQB;2009-09-22 14:00;CYQB 221400Z 00000KT 3SM -SHRA BR SCT011 OVC040 13/12 A3017 RMK SF4SC4 SLP217

CYQB;2009-09-22 14:33;CYQB 221433Z 27003KT 3SM -SHRA BR BKN009 OVC040 13/ RMK ST6SC2

CYQB;2009-09-22 15:00;CYQB 221500Z 29002KT 2 1/2SM -SHRA BR OVC008 13/13 A3017 RMK ST8 CIG VRB 6-10 SLP216

CYQB;2009-09-22 16:00;CYQB 221600Z 00000KT 2 1/2SM -DZ BR FEW003 OVC006 14/13 A3015 RMK SF2ST6 SLP212

CYQB;2009-09-22 17:00;CYQB 221700Z 00000KT 2 1/2SM -DZ BR FEW003 OVC006 14/14 A3014 RMK SF2ST6 SLP206

CYQB;2009-09-22 18:00;CYQB 221800Z 35002KT 2 1/2SM BR FEW003 OVC006 15/14 A3012 RMK SF1ST7 SLP200

CYQB;2009-09-22 18:31;CYQB 221831Z 00000KT 2 1/2SM BR FEW006 OVC010 15/ RMK SF2ST6

CYQB;2009-09-22 19:00;CYQB 221900Z 00000KT 2 1/2SM BR FEW007 OVC011 16/14 A3010 RMK SF2ST6 SLP193

CYQB;2009-09-22 20:00;CYQB 222000Z 00000KT 3SM -DZ BR SCT002 OVC007 16/15 A3008 RMK SF3ST5 SLP188

CYQB;2009-09-22 21:00;CYQB 222100Z 00000KT 1 3/4SM BR BKN003 OVC007 16/15 A3008 RMK SF6ST2 INTMT -DZ SLP187

CYQB;2009-09-22 21:25;CYQB 222125Z 14002KT 4SM BR SCT003 OVC009 16/ RMK SF2ST6

CYQB;2009-09-22 21:45;CYQB 222145Z 15002KT 1 3/4SM BR FEW003 OVC009 16/ RMK SF2ST6

CYQB;2009-09-22 22:00;CYQB 222200Z 00000KT 1 1/2SM BR OVC007 16/15 A3008 RMK ST8 SLP188

CYQB;2009-09-22 23:00;CYQB 222300Z CCA 16002KT 1 1/2SM -DZ BR OVC005 16/16 A3008 RMK ST8 CIG VRB 3-7 SLP188

CYQB;2009-09-23 00:00;CYQB 230000Z 00000KT 3SM -DZ BR SCT003 OVC007 17/16 A3008 RMK SF2ST6 SLP189

CYQB;2009-09-23 01:00;CYQB 230100Z 00000KT 5SM BR FEW003 OVC007 17/16 A3008 RMK SF1ST7 CIG VRB 5-9 SLP187

CYQB;2009-09-23 02:00;CYQB 230200Z 23006KT 5SM BR FEW005 OVC008 18/17 A3007 RMK SF1ST7 SLP184

CYQB;2009-09-23 03:00;CYQB 230300Z 23002KT 5SM BR SCT005 OVC008 18/17 A3007 RMK SF3ST5 SLP183

CYQB;2009-09-23 04:00;CYQB 230400Z 22002KT 5SM BR FEW005 OVC012 18/17 A3005 RMK SF2ST6 SLP178

CYQB;2009-09-23 05:00;CYQB 230500Z 19002KT 5SM BR OVC011 18/17 A3004 RMK ST8 SLP173

CYQB;2009-09-23 06:00;CYQB 230600Z 22003KT 5SM BR OVC011 18/17 A3003 RMK ST8 SLP169

CYQB;2009-09-23 07:00;CYQB 230700Z 23005KT 4SM BR OVC008 18/17 A3001 RMK ST8 SLP163

CYQB;2009-09-23 07:30;CYQB 230730Z 23010G16KT 1 1/2SM -DZ BR OVC003 18/ RMK FG2ST6

CYQB;2009-09-23 08:00;CYQB 230800Z 23009KT 1 1/2SM -DZ BR BKN003 OVC012 18/18 A3000 RMK FG2SF5ST2 SLP158

CYQB;2009-09-23 08:42;CYQB 230842Z 24007KT 3SM BR FEW003 OVC014 18/ RMK SF2SC6

CYQB;2009-09-23 09:00;CYQB 230900Z 24006KT 4SM BR FEW003 OVC013 18/17 A2999 RMK SF2SC6 SLP157

CYQB;2009-09-23 10:00;CYQB 231000Z 23010KT 4SM BR FEW003 OVC010 19/17 A2998 RMK SF1SC7 SLP152

CYQB;2009-09-23 11:00;CYQB 231100Z 24009KT 4SM BR FEW003 OVC010 19/18 A2997 RMK ST1SC8 SLP148

CYQB;2009-09-23 12:00;CYQB 231200Z 24009KT 6SM BR FEW004 OVC012 19/18 A2996 RMK SF2SC6 SLP146

CYQB;2009-09-23 13:00;CYQB 231300Z 23010KT 5SM BR FEW003 OVC012 19/18 A2996 RMK SF2SC6 VIS SE HIER SLP147

CYQB;2009-09-23 13:36;CYQB 231336Z 23011G17KT 2SM -DZ BR FEW003 OVC008 19/ RMK SF1SF7

CYQB;2009-09-23 14:00;CYQB 231400Z 23010KT 2 1/2SM -DZ BR OVC006 19/18 A2994 RMK SF8 SLP141

CYQB;2009-09-23 14:34;CYQB 231434Z 22011G17KT 2 1/2SM -DZ BR BKN005 OVC010 19/ RMK SF7SC1

CYQB;2009-09-23 15:00;CYQB 231500Z 23012KT 3SM -RA BR BKN005 OVC010 20/18 A2992 RMK SF6SC2 SLP132

CYQB;2009-09-23 15:33;CYQB 231533Z 24012KT 4SM -RA BR BKN007 OVC012 20/ RMK SF6SC2

CYQB;2009-09-23 16:00;CYQB 231600Z 23013KT 2 1/2SM -RA BR BKN006 OVC012 20/18 A2990 RMK SF6SC2 SLP126

CYQB;2009-09-23 16:46;CYQB 231646Z 24013KT 2SM -RA BR BKN009 OVC014 20/ RMK SF6SC2

CYQB;2009-09-23 17:00;CYQB 231700Z 23013KT 1 1/2SM R06/4500VP6000FT/U -RA BR BKN007 OVC014 20/19 A2988 RERA RMK SF6SC2 TCU EMBD SLP118

CYQB;2009-09-23 17:14;CYQB 231714Z 23011G18KT 3SM -RA BR BKN007 OVC014 20/ RMK SF6SC2 TCU EMBD

CYQB;2009-09-23 18:00;CYQB 231800Z 24015KT 5SM -RA BR BKN009 OVC015 20/19 A2984 RMK SF6SC2 SLP106

CYQB;2009-09-23 18:34;CYQB 231834Z 24013KT 1SM R06/P6000FT/D -RA BR BKN009 OVC015 20/ RMK FG1SF6SC2 TCU EMBD

CYQB;2009-09-23 19:00;CYQB 231900Z 24014KT 1SM R06/P6000FT/D -RA BR BKN009 OVC014 20/19 A2982 RMK FG1SF6SC2 SLP099

CYQB;2009-09-23 19:15;CYQB 231915Z 25014KT 2 1/2SM -RA BR BKN010 BKN015 OVC035 20/ RMK SC5SC2SC1

CYQB;2009-09-23 19:28;CYQB 231928Z 27009G16KT 1 1/4SM -RA BR BKN009 OVC015 20/ RMK FG1SF6SC2 TCU EMBD

CYQB;2009-09-23 19:40;CYQB 231940Z 26010KT 2 1/2SM -RA BR BKN008 OVC015 20/ RERA RMK SF6SC2 TCU EMBD

CYQB;2009-09-23 20:00;CYQB 232000Z 28007KT 1SM R06/P6000FT/D RA BR OVC005 20/18 A2980 RMK SF8 RERA TCU EMBD SLP092

CYQB;2009-09-23 20:13;CYQB 232013Z 26011G16KT 1/2SM R06/3000VP6000FT/D +RA FG OVC004 19/ RMK SF8 TCU EMBD

CYQB;2009-09-23 20:14;CYQB 232014Z 26011G16KT 1/2SM R06/3000VP6000FT/D +RA FG OVC004 19/ RMK SF8 TCU EMBD

CYQB;2009-09-23 20:40;CYQB 232040Z CCA 25019G25KT 1 1/2SM RA BR SCT020 OVC050 19/ RMK SF4SC4 RERA

CYQB;2009-09-23 21:00;CYQB 232100Z 25012G19KT 8SM -RA SCT020 BKN056 20/18 A2979 RMK SF4SC3 RERA SLP087

CYQB;2009-09-23 21:40;CYQB 232140Z 24012KT 8SM FEW010 SCT060 BKN093 20/ RMK SF2SF2SC3

CYQB;2009-09-23 22:00;CYQB 232200Z 26010KT 8SM OVC020 20/19 A2979 RMK SF7 SLP089

CYQB;2009-09-23 23:00;CYQB 232300Z 24010KT 6SM BR BKN018 OVC100 19/18 A2981 RMK SF6AC1 SLP095

CYQB;2009-09-24 00:00;CYQB 240000Z 24008KT 6SM BR SCT018 BKN084 19/18 A2982 RMK SF4AC2 SLP099

CYQB;2009-09-24 00:47;CYQB 240047Z 26008KT 6SM -RA BR SCT018 OVC031 19/ RMK SF4SC4

CYQB;2009-09-24 01:00;CYQB 240100Z 28006KT 4SM -RA BR SCT018 OVC038 19/18 A2983 RMK SF4SC4 SLP102

CYQB;2009-09-24 01:15;CYQB 240115Z 33007KT 6SM BR SCT018 OVC048 19/ RMK SF4SC4

CYQB;2009-09-24 02:00;CYQB 240200Z 31005KT 8SM FEW020 BKN058 18/16 A2984 RMK SC2SC5 SLP104

CYQB;2009-09-24 03:00;CYQB 240300Z 34003KT 10SM FEW030 BKN065 17/14 A2988 RMK SC1SC6 SLP118

CYQB;2009-09-24 04:00;CYQB 240400Z 31007KT 15SM FEW075 13/11 A2989 RMK AC2 SLP124

CYQB;2009-09-24 05:00;CYQB 240500Z 33009KT 15SM FEW075 13/10 A2991 RMK AC1 SLP130

CYQB;2009-09-24 06:00;CYQB 240600Z 32005KT 15SM FEW075 12/09 A2993 RMK AC1 SLP135

CYQB;2009-09-24 07:00;CYQB 240700Z 31008KT 15SM SKC 10/08 A2994 RMK SLP141

CYQB;2009-09-24 08:00;CYQB 240800Z 29006KT 15SM SKC 08/07 A2995 RMK SLP142

CYQB;2009-09-24 09:00;CYQB 240900Z 28003KT 15SM SKC 07/06 A2997 RMK SLP149

CYQB;2009-09-24 10:00;CYQB 241000Z 24005KT 15SM FEW090 08/07 A2999 RMK AC1 SLP156

CYQB;2009-09-24 11:00;CYQB 241100Z 24003KT 15SM FEW010 FEW090 07/06 A3001 RMK SC1AC1 SLP165

CYQB;2009-09-24 12:00;CYQB 241200Z 27006KT 15SM FEW010 FEW090 FEW210 10/08 A3003 RMK SC1AC1CI1 SLP172

CYQB;2009-09-24 13:00;CYQB 241300Z 26008KT 30SM FEW015 FEW090 FEW210 13/08 A3004 RMK SC1AC1CI1 SLP174

CYQB;2009-09-24 14:00;CYQB 241400Z 27002KT 30SM FEW025 FEW090 FEW210 14/09 A3005 RMK SC1AC1CI1 SLP176

CYQB;2009-09-24 15:00;CYQB 241500Z 27009KT 30SM FEW040 BKN060 BKN090 14/09 A3004 RMK SC1SC6AC1 SLP172

CYQB;2009-09-24 16:00;CYQB 241600Z 30010G15KT 30SM FEW040 BKN071 16/09 A3003 RMK SC2AC2 SLP169

CYQB;2009-09-24 17:00;CYQB 241700Z 27011G17KT 30SM FEW045 BKN069 16/08 A3001 RMK SC2AC5 SLP164

CYQB;2009-09-24 18:00;CYQB 241800Z 30012G21KT 30SM FEW045 BKN060 17/07 A3000 RMK CU2SC4 SLP160

CYQB;2009-09-24 19:00;CYQB 241900Z 27011KT 30SM FEW045 FEW070 17/07 A2999 RMK CU1AC2 SLP158

CYQB;2009-09-24 20:00;CYQB 242000Z 29010G15KT 30SM FEW040 SCT070 16/06 A2999 RMK CU1AC2 SLP157

CYQB;2009-09-24 21:00;CYQB 242100Z 29009G15KT 30SM FEW040 SCT070 17/07 A2998 RMK CU2AC2 SLP155

CYQB;2009-09-24 22:00;CYQB 242200Z 26006KT 30SM SCT070 16/08 A3000 RMK AC4 SLP161

CYQB;2009-09-24 23:00;CYQB 242300Z 34004KT 15SM SCT070 14/09 A3001 RMK AC3 SLP163

CYQB;2009-09-25 00:00;CYQB 250000Z 33005KT 15SM BKN120 13/09 A3002 RMK AC5 SLP166

CYQB;2009-09-25 01:00;CYQB 250100Z 33005KT 15SM BKN085 13/08 A3004 RMK AC6 SLP174

CYQB;2009-09-25 02:00;CYQB 250200Z 33010KT 15SM FEW060 BKN090 13/07 A3004 RMK SC2AC5 SLP175

CYQB;2009-09-25 03:00;CYQB 250300Z 34007KT 15SM FEW060 BKN080 12/06 A3007 RMK SC2AC5 SLP183

CYQB;2009-09-25 04:00;CYQB 250400Z 28003KT 15SM FEW035 BKN076 11/06 A3008 RMK SC2AC6 SLP186

CYQB;2009-09-25 05:00;CYQB 250500Z 30004KT 15SM FEW032 BKN090 11/05 A3009 RMK SC2AC6 SLP191

CYQB;2009-09-25 06:00;CYQB 250600Z 32003KT 15SM FEW030 SCT100 BKN130 10/05 A3011 RMK SC1AC2AC4 SLP196

CYQB;2009-09-25 07:00;CYQB 250700Z 31004KT 15SM FEW030 BKN110 OVC120 08/05 A3013 RMK SC2AC3AC3 SLP203

CYQB;2009-09-25 08:00;CYQB 250800Z 31005KT 15SM FEW040 FEW070 OVC100 08/05 A3015 RMK SC1AC1AC6 SLP211

CYQB;2009-09-25 09:00;CYQB 250900Z 35005KT 15SM SCT040 BKN100 09/04 A3018 RMK SC3AC4 SLP220

CYQB;2009-09-25 10:00;CYQB 251000Z 01002KT 15SM FEW016 BKN038 09/06 A3022 RMK SC2SC6 SLP236

CYQB;2009-09-25 11:00;CYQB 251100Z 34004KT 15SM FEW015 SCT030 BKN060 08/05 A3027 RMK ST1SC3SC2 SLP250

CYQB;2009-09-25 12:00;CYQB 251200Z 36004KT 30SM SCT040 08/05 A3030 RMK SC3 SLP261

CYQB;2009-09-25 13:00;CYQB 251300Z 04013KT 30SM FEW040 10/01 A3032 RMK SC2 SLP270

CYQB;2009-09-25 14:00;CYQB 251400Z 09004KT 30SM SCT034 SCT170 11/03 A3035 RMK SC3AC1 SLP278

CYQB;2009-09-25 15:00;CYQB 251500Z 04006KT 30SM FEW035 FEW170 12/04 A3036 RMK SC2AC1 SLP283

CYQB;2009-09-25 16:00;CYQB 251600Z 11004KT 30SM FEW045 FEW210 12/03 A3036 RMK SC2CI1 OBS TAKEN +12 SLP283

CYQB;2009-09-25 17:00;CYQB 251700Z 08006KT 30SM FEW045 12/04 A3036 RMK SC2 SLP283

CYQB;2009-09-25 18:00;CYQB 251800Z 07008KT 30SM FEW045 12/04 A3036 RMK SC2 SLP284

CYQB;2009-09-25 19:00;CYQB 251900Z 06008KT 30SM FEW050 12/04 A3037 RMK SC2 SLP286

CYQB;2009-09-25 20:00;CYQB 252000Z 08005KT 30SM FEW055 13/04 A3036 RMK SC1 SLP284

CYQB;2009-09-25 21:00;CYQB 252100Z 08006KT 30SM FEW050 12/04 A3037 RMK SC1 SLP287

CYQB;2009-09-25 22:00;CYQB 252200Z 06007KT 30SM FEW045 11/04 A3038 RMK SC1 SLP288

CYQB;2009-09-25 23:00;CYQB 252300Z 07005KT 30SM SKC 09/04 A3039 RMK SLP291

CYQB;2009-09-26 00:00;CYQB 260000Z 02003KT 15SM SKC 09/04 A3040 RMK SLP297

CYQB;2009-09-26 01:00;CYQB 260100Z 02005KT 15SM SKC 07/04 A3040 RMK SLP297

CYQB;2009-09-26 02:00;CYQB 260200Z 35004KT 15SM SKC 06/04 A3041 RMK SLP299

CYQB;2009-09-26 03:00;CYQB 260300Z 01005KT 15SM SKC 06/03 A3040 RMK SLP297

CYQB;2009-09-26 04:00;CYQB 260400Z 01005KT 15SM SKC 05/03 A3040 RMK SLP296

CYQB;2009-09-26 05:00;CYQB 260500Z 01005KT 15SM SKC 04/02 A3038 RMK SLP291

CYQB;2009-09-26 06:00;CYQB 260600Z 01006KT 15SM SKC 04/01 A3039 RMK SLP292

CYQB;2009-09-26 07:00;CYQB 260700Z 01003KT 15SM FEW210 03/01 A3038 RMK CI0 SLP289

CYQB;2009-09-26 08:00;CYQB 260800Z 01005KT 15SM FEW210 03/00 A3036 RMK CI0 SLP283

CYQB;2009-09-26 09:00;CYQB 260900Z 36004KT 15SM SKC 02/00 A3035 RMK SLP279

CYQB;2009-09-26 10:00;CYQB 261000Z 01003KT 15SM FEW015 FEW210 02/00 A3035 RMK SC1CI0 SLP279

CYQB;2009-09-26 10:06;CYQB 261006Z 00000KT 15SM FEW015 FEW210 02/M00 RMK SC1CI0

CYQB;2009-09-26 11:00;CYQB 261100Z 03002KT 15SM FEW015 FEW210 02/M00 A3033 RMK SC1CI0 SLP274

CYQB;2009-09-26 12:00;CYQB 261200Z 35002KT 30SM FEW015 FEW210 03/01 A3033 RMK SC1CI1 SLP274

CYQB;2009-09-26 13:00;CYQB 261300Z 00000KT 30SM FEW015 FEW210 06/04 A3031 RMK SC1CI1 SLP268

CYQB;2009-09-26 14:00;CYQB 261400Z 22006KT 30SM FEW015 FEW210 08/05 A3030 RMK SC1CI1 SLP263

CYQB;2009-09-26 15:00;CYQB 261500Z 22005KT 30SM FEW015 FEW210 11/06 A3027 RMK SC1CI1 SLP252

CYQB;2009-09-26 16:00;CYQB 261600Z 22009KT 30SM FEW015 FEW140 FEW210 13/05 A3023 RMK SC1AC1CI0 SLP238

CYQB;2009-09-26 17:00;CYQB 261700Z 26011KT 30SM FEW140 FEW210 14/04 A3020 RMK AC1CI0 SLP228

CYQB;2009-09-26 18:00;CYQB 261800Z 22008KT 30SM FEW100 FEW220 15/04 A3014 RMK AC1CI2 SLP210

CYQB;2009-09-26 19:00;CYQB 261900Z 25007KT 30SM FEW110 FEW230 16/05 A3010 RMK AC1CI1 SLP195

CYQB;2009-09-26 20:00;CYQB 262000Z 25010KT 30SM FEW100 FEW240 16/05 A3009 RMK AC1CI1 SLP191

CYQB;2009-09-26 21:00;CYQB 262100Z 23007KT 30SM FEW100 BKN210 16/04 A3006 RMK AC1CC5 SLP181

CYQB;2009-09-26 22:00;CYQB 262200Z 27002KT 30SM SCT100 BKN210 BKN240 14/05 A3004 RMK AC3CC2CI0 SLP176

CYQB;2009-09-26 23:00;CYQB 262300Z 00000KT 30SM SCT170 BKN230 13/05 A3003 RMK AC2CI2 SLP171

CYQB;2009-09-27 00:00;CYQB 270000Z 00000KT 15SM BKN160 BKN200 10/06 A3001 RMK AC5CI1 SLP166

CYQB;2009-09-27 02:00;CYQB 270200Z 00000KT 15SM BKN064 BKN150 10/07 A2997 RMK SC5AC2 SLP153

CYQB;2009-09-27 03:00;CYQB 270300Z 00000KT 15SM FEW060 OVC130 10/07 A2995 RMK SC2AC6 SLP145

CYQB;2009-09-27 04:00;CYQB 270400Z 00000KT 15SM FEW060 OVC130 10/07 A2994 RMK SC1AC7 SLP140

CYQB;2009-09-27 05:00;CYQB 270500Z 02002KT 15SM FEW070 OVC110 10/07 A2992 RMK AC2AC6 SLP135

CYQB;2009-09-27 06:00;CYQB 270600Z 01002KT 15SM FEW070 OVC120 10/07 A2991 RMK AC2AC6 SLP129

CYQB;2009-09-27 07:00;CYQB 270700Z 00000KT 15SM OVC045 10/08 A2989 RMK SC8 SLP124

CYQB;2009-09-27 08:00;CYQB 270800Z 00000KT 15SM OVC045 10/08 A2988 RMK SC8 SLP121

CYQB;2009-09-27 09:00;CYQB 270900Z 00000KT 15SM BKN047 BKN070 OVC095 10/08 A2987 RMK SC5AC2AC1 SLP117

CYQB;2009-09-27 10:00;CYQB 271000Z 00000KT 15SM BKN043 OVC092 10/08 A2987 RMK SC6AC2 SLP115

CYQB;2009-09-27 11:00;CYQB 271100Z 00000KT 15SM -RA FEW028 BKN041 OVC095 10/08 A2986 RMK SC1SC5AC2 SLP113

CYQB;2009-09-27 12:00;CYQB 271200Z 21002KT 8SM -RA BKN018 OVC023 10/09 A2986 RMK SC6SC2 SLP114

CYQB;2009-09-27 13:00;CYQB 271300Z 07002KT 8SM -RA FEW008 BKN020 OVC039 11/10 A2984 RMK SF1SC4SC3 SLP108

CYQB;2009-09-27 14:00;CYQB 271400Z 08005KT 12SM FEW008 SCT020 OVC051 12/10 A2983 RMK SF2SC2SC4 SLP103

CYQB;2009-09-27 15:00;CYQB 271500Z 09005KT 12SM -RA BKN012 BKN024 OVC032 12/10 A2981 RMK SC5SC2SC2 SLP098

CYQB;2009-09-27 16:00;CYQB 271600Z 08007KT 12SM -RA FEW012 BKN025 OVC035 12/10 A2977 RMK SC2SC4SC2 SLP084

CYQB;2009-09-27 17:00;CYQB 271700Z 07005KT 6SM -RA BR FEW008 BKN014 OVC025 13/11 A2975 RMK ST2SC3SC2 VIS NW 2 SLP076

CYQB;2009-09-27 17:23;CYQB 271723Z 10007KT 2SM -DZ BR OVC011 12/ RMK ST8

CYQB;2009-09-27 17:52;CYQB 271752Z 08006KT 1 1/2SM R06/6000FT/U -DZ BR BKN004 OVC010 12/ RMK ST6ST2

CYQB;2009-09-27 18:00;CYQB 271800Z 08006KT 1SM R06/P6000FT/D -DZ BR OVC006 13/12 A2972 RMK ST8 SLP064

CYQB;2009-09-27 19:00;CYQB 271900Z 07005KT 1SM R06/P6000FT/U -DZ BR OVC004 13/12 A2970 RMK ST8 CIG VRB 2-6 SLP057

CYQB;2009-09-27 20:00;CYQB 272000Z 07008KT 1SM R06/P6000FT/N -DZ BR OVC004 13/12 A2967 RMK ST8 CIG VRB 2-6 SLP050

CYQB;2009-09-27 21:00;CYQB 272100Z 08006KT 1SM R06/P6000FT/U -DZ BR OVC004 13/12 A2967 RMK ST8 CIG VRB 2-6 SLP047

CYQB;2009-09-27 22:00;CYQB 272200Z 07007KT 3/4SM R06/P6000FT/N -DZ BR OVC002 13/12 A2966 RMK ST8 SLP045

CYQB;2009-09-27 23:00;CYQB 272300Z 08007KT 1/2SM R06/P6000FT/D -DZ FG OVC002 13/12 A2964 RMK ST8 SLP038

CYQB;2009-09-28 00:00;CYQB 280000Z 07011KT 1SM R06/P6000FT/N BR BKN003 OVC010 13/13 A2963 RMK ST6ST2 SLP034

CYQB;2009-09-28 00:31;CYQB 280031Z 07009KT 1 1/2SM -DZ BR BKN003 OVC012 13/ RMK ST6ST2

CYQB;2009-09-28 01:00;CYQB 280100Z 07011KT 1SM R06/P6000FT/N -DZ BR BKN002 OVC012 13/13 A2961 RMK ST6ST2 VIS VRB 1/2-1 SLP028

CYQB;2009-09-28 02:00;CYQB 280200Z 07008KT 1SM R06/P6000FT/D -DZ BR OVC002 13/13 A2957 RMK FG2SF6 SLP016

CYQB;2009-09-28 03:00;CYQB 280300Z 06010KT 2 1/2SM -RA BR BKN004 OVC021 13/12 A2954 RMK SF6SC2 SLP004

CYQB;2009-09-28 03:32;CYQB 280332Z 07009KT 2 1/2SM -RA BR BKN006 OVC020 13/ RMK SF7SC1

CYQB;2009-09-28 04:00;CYQB 280400Z 06010G15KT 2 1/2SM -RA BR FEW003 OVC005 13/12 A2952 RMK SF2ST6 SLP996

CYQB;2009-09-28 05:00;CYQB 280500Z 07011G18KT 2SM -RA BR BKN003 OVC020 13/13 A2949 RMK SF7SC1 SLP987

CYQB;2009-09-28 05:39;CYQB 280539Z 07014KT 2SM -RA BR BKN004 BKN009 OVC030 13/13 RMK SF5SF2SC1

CYQB;2009-09-28 06:00;CYQB 280600Z 06015G20KT 5SM -RA BKN005 BKN009 OVC026 13/13 A2943 RMK SF6SF2SC1 PRESFR SLP967

CYQB;2009-09-28 06:26;CYQB 280626Z 07010G17KT 5SM -RA FEW005 BKN007 OVC034 14/ RMK SF2SF3SC2

CYQB;2009-09-28 07:00;CYQB 280700Z 08013G20KT 6SM -RA FEW005 BKN007 OVC025 14/13 A2942 RMK SF2SF3SC2 SLP962

CYQB;2009-09-28 08:00;CYQB 280800Z 08013KT 5SM -RA BR BKN005 OVC013 14/13 A2940 RMK SF6SC2 SLP956

CYQB;2009-09-28 09:00;CYQB 280900Z 07011G17KT 4SM -RA BR FEW004 BKN007 OVC010 14/13 A2938 RMK SF2SF3ST2 SLP949

CYQB;2009-09-28 10:00;CYQB 281000Z 08008G17KT 3SM -RA BR FEW004 OVC006 14/13 A2937 RMK SF2SF6 SLP948

CYQB;2009-09-28 10:26;CYQB 281026Z 09007KT 2SM -RA BR FEW002 SCT004 OVC006 14/ RMK SF2SF2ST4

CYQB;2009-09-28 11:00;CYQB 281100Z 07008KT 1 1/2SM -RA BR FEW003 BKN005 OVC007 14/13 A2938 RMK SF2SF3ST3 SLP949

CYQB;2009-09-28 12:00;CYQB 281200Z 00000KT 1 3/4SM -DZ BR SCT003 OVC006 14/13 A2939 RMK SF4ST4 SLP953

CYQB;2009-09-28 12:33;CYQB 281233Z 00000KT 1SM R06/P6000FT/N -DZ BR FEW003 BKN005 OVC013 14/ RMK SF2SF5ST2

CYQB;2009-09-28 13:00;CYQB 281300Z 11002KT 1SM R06/P6000FT/U -RADZ BR BKN003 OVC011 14/13 A2940 RMK SF6ST2 SLP957

CYQB;2009-09-28 14:00;CYQB 281400Z 21008KT 1 1/2SM -DZ BR BKN004 OVC013 15/14 A2942 RMK SF6ST2 SLP962

CYQB;2009-09-28 14:34;CYQB 281434Z 23012KT 2 1/2SM -DZ BR BKN005 OVC011 15/ RMK SF6ST2

CYQB;2009-09-28 15:00;CYQB 281500Z 24009KT 5SM BR FEW005 BKN008 BKN010 16/14 A2942 RMK SF2SF2ST2 SLP965

CYQB;2009-09-28 16:00;CYQB 281600Z 23011G16KT 10SM BKN009 BKN013 15/14 A2941 RMK SF6ST1 SLP961

CYQB;2009-09-28 17:00;CYQB 281700Z 24011KT 15SM FEW009 BKN020 15/13 A2943 RMK SF2SC6 SLP966

CYQB;2009-09-28 18:00;CYQB 281800Z 25009G15KT 20SM FEW009 BKN021 16/13 A2941 RMK CF1SC6 SLP961

CYQB;2009-09-28 19:00;CYQB 281900Z 26005KT 25SM FEW009 BKN025 OVC230 17/13 A2941 RMK CF1SC6CI1 SLP961

CYQB;2009-09-28 20:00;CYQB 282000Z 36002KT 30SM FEW009 BKN035 OVC180 17/13 A2941 RMK CF1SC6AC0 SLP959

CYQB;2009-09-28 21:00;CYQB 282100Z 14003KT 30SM FEW009 BKN028 OVC120 17/13 A2942 RMK CF1SC5AC2 SLP962

CYQB;2009-09-28 22:00;CYQB 282200Z 09005KT 20SM FEW009 FEW030 BKN120 17/13 A2942 RMK CF1SC1AC6 SLP963

CYQB;2009-09-28 23:00;CYQB 282300Z 08004KT 10SM FEW009 SCT040 BKN060 BKN120 16/14 A2945 RMK CF1SC2SC2AC2 SLP975

CYQB;2009-09-29 00:00;CYQB 290000Z 09005KT 15SM BKN032 OVC046 15/14 A2945 RMK SC5SC3 SLP974

CYQB;2009-09-29 01:00;CYQB 290100Z 08008KT 4SM -SHRA FEW010 BKN030 OVC050 15/14 A2945 RMK SF1SC6SC1 SLP973

CYQB;2009-09-29 02:00;CYQB 290200Z 07008KT 6SM -SHRA BR FEW002 BKN070 OVC090 14/13 A2942 RMK SF1AC6AC1 SLP963

CYQB;2009-09-29 02:23;CYQB 290223Z 08006KT 1 1/4SM -SHRA BR BKN003 OVC028 14/ RMK FG2SF6SC1

CYQB;2009-09-29 03:00;CYQB 290300Z 08004KT 4SM -SHRA BR FEW004 OVC028 14/13 A2944 RMK SF2SC6 SLP969

CYQB;2009-09-29 03:45;CYQB 290345Z 23009KT 2SM -SHRA BR FEW003 BKN018 OVC077 14/ RMK SF2SC5AC1

CYQB;2009-09-29 04:00;CYQB 290400Z 21004KT 4SM -SHRA BR FEW022 OVC062 14/13 A2946 RMK SC2SC6 SLP976

CYQB;2009-09-29 04:35;CYQB 290435Z 00000KT 8SM BKN085 OVC120 13/ RMK AC6AC2

CYQB;2009-09-29 05:00;CYQB 290500Z 00000KT 8SM OVC085 13/12 A2944 RMK AC8 SLP971

CYQB;2009-09-29 06:00;CYQB 290600Z 00000KT 10SM -SHRA OVC080 12/12 A2946 RMK AC8 SLP976

CYQB;2009-09-29 07:00;CYQB 290700Z 03003KT 15SM BKN085 12/11 A2944 RMK AC6 SLP969

CYQB;2009-09-29 08:00;CYQB 290800Z 00000KT 15SM R06/2000FT/D FEW080 11/11 A2942 RMK AC2 SLP964

CYQB;2009-09-29 08:12;CYQB 290812Z 00000KT 15SM R06/1400V2400FT/N BCFG FEW036 SCT080 10/ RMK SC2AC2

CYQB;2009-09-29 09:00;CYQB 290900Z 01003KT 3/4SM R06/P6000FT/D BR SCT036 11/11 A2942 RMK FG3SC1 SLP963

CYQB;2009-09-29 09:08;CYQB 290908Z 04002KT 10SM FEW036 11/ RMK SC1

CYQB;2009-09-29 10:00;CYQB 291000Z 36002KT 10SM MIFG FEW040 10/09 A2941 RMK SC2 SLP961

CYQB;2009-09-29 10:19;CYQB 291019Z 35002KT 10SM MIFG FEW040 09/ RMK SC2 FG OVR RWYS

CYQB;2009-09-29 10:41;CYQB 291041Z 00000KT 6SM R06/4000VP6000FT/D BR SCT003 BKN020 OVC050 09/ RMK ST4SC2SC2

CYQB;2009-09-29 11:00;CYQB 291100Z 23002KT 5SM BR FEW003 BKN035 BKN060 09/09 A2942 RMK SF2SC2SC2 VIS N 10 SLP962

CYQB;2009-09-29 12:00;CYQB 291200Z 00000KT 10SM FEW008 BKN037 OVC060 11/10 A2942 RMK SF2SC3SC3 SLP963

CYQB;2009-09-29 13:00;CYQB 291300Z 00000KT 8SM FEW008 BKN036 OVC060 12/11 A2943 RMK SF2SC4SC2 SLP966

CYQB;2009-09-29 14:00;CYQB 291400Z 00000KT 15SM FEW009 BKN040 BKN067 13/12 A2943 RMK SF2SC5AC1 SLP967

CYQB;2009-09-29 15:00;CYQB 291500Z 00000KT 15SM FEW009 SCT020 BKN061 BKN120 14/10 A2942 RMK SF1CU2SC2AC2 SLP962

CYQB;2009-09-29 16:00;CYQB 291600Z 11003KT 15SM SCT017 BKN063 OVC120 15/11 A2940 RMK SC3SC2AC2 SLP958

CYQB;2009-09-29 17:00;CYQB 291700Z 10004KT 20SM FEW015 SCT030 OVC055 15/11 A2939 RMK SC1SC3SC4 SLP955

CYQB;2009-09-29 18:00;CYQB 291800Z 07003KT 30SM FEW020 SCT040 OVC060 16/11 A2939 RMK SC1SC2SC5 SLP952

CYQB;2009-09-29 19:00;CYQB 291900Z 09004KT 30SM FEW020 FEW040 BKN055 16/10 A2938 RMK SC1SC1SC6 SLP949

CYQB;2009-09-29 20:00;CYQB 292000Z 06006KT 20SM -SHRA SCT040 BKN072 16/11 A2937 RMK SC3AC4 SLP948

CYQB;2009-09-29 20:39;CYQB 292039Z 06009KT 20SM OVC046 16/ RMK SC8

CYQB;2009-09-29 20:51;CYQB 292051Z 11004KT 10SM -TSRA FEW020 OVC040CB 16/ RMK SC2CB6

CYQB;2009-09-29 21:00;CYQB 292100Z 24011KT 4SM R06/4500VP6000FT/D TSRA BKN022CB BKN040 15/11 A2938 RMK CB6SC1 LTGCG SLP950

CYQB;2009-09-29 21:32;CYQB 292132Z 30005KT 8SM -SHRA FEW022CB BKN040 OVC063 13/ RETS RMK CB2SC5SC2

CYQB;2009-09-29 22:00;CYQB 292200Z 02006KT 20SM FEW020 SCT038 BKN065 13/12 A2939 RMK SC1SC3SC3 RETS RERA SLP952

CYQB;2009-09-29 22:47;CYQB 292247Z 26006KT 10SM OVC032 13/ RMK SC8

CYQB;2009-09-29 23:00;CYQB 292300Z 21002KT 10SM -SHRA OVC036 13/12 A2941 RMK SC8 SLP959

CYQB;2009-09-30 00:00;CYQB 300000Z 25006KT 8SM -SHRA FEW010 BKN065 OVC090 12/11 A2942 RMK SF1SC6AC1 SLP963

CYQB;2009-09-30 01:00;CYQB 300100Z 20003KT 10SM FEW010 OVC080 11/11 A2942 RMK SF1AC6 SLP964

CYQB;2009-09-30 02:00;CYQB 300200Z 00000KT 15SM FEW010 BKN070 BKN100 11/10 A2942 RMK SF1AC5AC2 SLP964

CYQB;2009-09-30 03:00;CYQB 300300Z 25005KT 6SM BR BKN015 BKN100 11/10 A2942 RMK SC6AC2 SLP965

CYQB;2009-09-30 04:00;CYQB 300400Z 00000KT 6SM BR SCT015 OVC056 11/10 A2944 RMK SC4AC4 SLP969

CYQB;2009-09-30 05:00;CYQB 300500Z 24004KT 6SM BR BKN013 OVC063 11/10 A2945 RMK SC6AC2 SLP972

CYQB;2009-09-30 06:00;CYQB 300600Z 24005KT 6SM -RA BR SCT008 OVC053 11/10 A2946 RMK SF4SC4 SLP978

CYQB;2009-09-30 06:21;CYQB 300621Z 25005KT 6SM -RA BR SCT003 BKN016 OVC030 11/ RMK SF3SC4SC1

CYQB;2009-09-30 06:37;CYQB 300637Z 25007KT 6SM -RA BR BKN005 OVC034 11/ RMK SF6SC2

CYQB;2009-09-30 07:00;CYQB 300700Z 24008KT 6SM BR FEW005 BKN020 OVC038 11/11 A2948 RMK SF2SC6SC1 SLP983

CYQB;2009-09-30 07:39;CYQB 300739Z 26005KT 6SM BR BKN007 OVC020 11/ RMK SF5SC3

CYQB;2009-09-30 08:00;CYQB 300800Z 26004KT 6SM -RA BR BKN006 OVC020 11/10 A2949 RMK SF6SC2 SLP988

CYQB;2009-09-30 09:00;CYQB 300900Z 25007KT 6SM BR BKN006 OVC013 12/11 A2951 RMK SF7SC1 SLP995

CYQB;2009-09-30 10:00;CYQB 301000Z 25010KT 6SM -RA BR SCT006 OVC013 12/11 A2954 RMK SF3SC5 SLP003

CYQB;2009-09-30 11:00;CYQB 301100Z 23016G22KT 6SM -RA BR BKN007 OVC012 10/09 A2957 RMK SF5SC3 SLP014

CYQB;2009-09-30 11:36;CYQB 301136Z 25017KT 12SM FEW007 SCT012 BKN025 10/ RMK SF2SC2SC2 VIS N 5

CYQB;2009-09-30 12:00;CYQB 301200Z CCA 25012G17KT 15SM FEW004 SCT012 OVC031 10/09 A2960 RMK SF2SC2SC4 VIS N 4 SLP024

CYQB;2009-09-30 13:00;CYQB 301300Z 23015KT 15SM FEW009 SCT016 OVC035 10/08 A2963 RMK SF2SC2SC5 SLP035

CYQB;2009-09-30 14:00;CYQB 301400Z 24014KT 15SM SCT009 BKN021 OVC029 10/05 A2965 RMK SF3SC2SC2 SLP043

CYQB;2009-09-30 15:00;CYQB 301500Z 23014KT 15SM SCT009 OVC020 09/07 A2967 RMK SF3SC5 SLP050

CYQB;2009-09-30 16:00;CYQB 301600Z 23011G19KT 15SM SCT020 OVC035 10/06 A2970 RMK SC4SC4 CIG LOWER N SLP059

CYQB;2009-09-30 17:00;CYQB 301700Z 24010G17KT 15SM SCT017 OVC028 09/06 A2971 RMK SC4SC4 SLP061

CYQB;2009-09-30 18:00;CYQB 301800Z 23014KT 15SM SCT018 OVC030 10/06 A2971 RMK CU3SC5 SLP061

CYQB;2009-09-30 19:00;CYQB 301900Z 22010KT 15SM SCT020 OVC043 10/06 A2972 RMK CU3SC5 SLP064

CYQB;2009-09-30 20:00;CYQB 302000Z 23012KT 15SM FEW020 OVC036 09/05 A2973 RMK CU2SC6 SLP069

CYQB;2009-09-30 21:00;CYQB 302100Z 23006KT 15SM FEW020 OVC043 09/06 A2975 RMK CU2SC6 SLP076

CYQB;2009-09-30 21:15;CYQB 302115Z 20009KT 4SM -SHRA BR BKN015 OVC023 08/ RMK CU6SC2

CYQB;2009-09-30 22:00;CYQB 302200Z 20007KT 10SM -SHRA SCT015 OVC027 08/06 A2976 RMK CU3SC5 SLP081

CYQB;2009-09-30 23:00;CYQB 302300Z 24005KT 15SM OVC022 08/06 A2977 RMK SC8 SLP082

CYQB;2009-10-01 01:00;CYQB 010100Z 25007KT 15SM OVC023 08/06 A2978 RMK SC8 SLP087

CYQB;2009-10-01 02:00;CYQB 010200Z 26005KT 15SM BKN025 OVC048 07/06 A2978 RMK SC6SC2 SLP087

CYQB;2009-10-01 03:00;CYQB 010300Z 25008KT 15SM FEW025 OVC051 07/06 A2978 RMK SC2SC6 SLP086

CYQB;2009-10-01 04:00;CYQB 010400Z 25005KT 15SM FEW020 OVC042 07/06 A2977 RMK SC1SC7 SLP084

CYQB;2009-10-01 05:00;CYQB 010500Z 25008KT 15SM FEW020 OVC047 07/06 A2977 RMK CU1SC7 SLP082

CYQB;2009-10-01 06:00;CYQB 010600Z 24008KT 15SM FEW020 OVC046 07/06 A2976 RMK CU1SC8 SLP080

CYQB;2009-10-01 07:00;CYQB 010700Z 24009KT 15SM FEW010 FEW030 OVC045 07/06 A2976 RMK CU1SC2SC6 SLP080

CYQB;2009-10-01 08:00;CYQB 010800Z 25009KT 15SM -SHRA FEW010 OVC030 07/06 A2977 RMK CU1SC8 SLP084

CYQB;2009-10-01 09:00;CYQB 010900Z 25009KT 6SM -SHRA BR FEW010 OVC032 06/06 A2978 RMK CU1SC8 SLP087

CYQB;2009-10-01 10:00;CYQB 011000Z 25009KT 8SM -SHRA FEW012 OVC035 06/05 A2980 RMK SF1SC7 SLP093

CYQB;2009-10-01 11:00;CYQB 011100Z 25008KT 8SM -SHRA FEW010 OVC036 06/05 A2981 RMK SF1SC7 SLP097

CYQB;2009-10-01 12:00;CYQB 011200Z 25008KT 12SM FEW010 SCT027 OVC033 06/05 A2982 RMK SF1SC2SC5 SLP101

CYQB;2009-10-01 13:00;CYQB 011300Z 25009KT 12SM -SHRA FEW012 BKN029 OVC032 07/06 A2984 RMK SF2SC4SC2 SLP106

CYQB;2009-10-01 14:00;CYQB 011400Z 25009KT 8SM -SHRA FEW006 BKN021 OVC027 07/06 A2984 RMK SF2SC6SC1 SLP107

CYQB;2009-10-01 15:00;CYQB 011500Z 25011KT 10SM -SHRA FEW008 BKN017 OVC029 07/06 A2985 RMK SF1SC6SC2 SLP109

CYQB;2009-10-01 16:00;CYQB 011600Z 24013KT 4SM -SHRA BR SCT006 BKN009 OVC014 08/07 A2985 RMK SF3SF3SC2 SLP110

CYQB;2009-10-01 17:00;CYQB 011700Z 25014KT 8SM -SHRA FEW008 BKN012 OVC023 08/07 A2985 RMK SF2SC2SC3 SLP111

CYQB;2009-10-01 17:17;CYQB 011717Z 25012G17KT 8SM BKN012 OVC020 08/ RMK SF5SC3

CYQB;2009-10-01 18:00;CYQB 011800Z CCA 26011G16KT 8SM BKN012 OVC022 08/06 A2986 RMK SF6SC2 VIS E 4 SLP112

CYQB;2009-10-01 18:18;CYQB 011818Z 26012KT 4SM -DZ BR BKN012 OVC022 08/ RMK SF6SC2

CYQB;2009-10-01 19:00;CYQB 011900Z 25009KT 3SM -DZ BR FEW008 BKN013 OVC018 08/07 A2987 RMK SF2SF6SC1 SLP117

CYQB;2009-10-01 20:00;CYQB 012000Z 24011KT 3SM -DZ BR FEW008 SCT012 OVC020 07/07 A2988 RMK SF2SF2SC4 SLP120

CYQB;2009-10-01 20:28;CYQB 012028Z 24014KT 2SM -DZ BR SCT006 OVC014 07/ RMK SF4ST4

CYQB;2009-10-01 21:00;CYQB 012100Z 24012KT 3SM -DZ BR SCT006 OVC013 07/06 A2989 RMK SF4ST4 SLP124

CYQB;2009-10-01 22:00;CYQB 012200Z 25011G17KT 3SM -DZ BR FEW006 BKN013 OVC040 07/06 A2990 RMK SF2ST4SC2 SLP127

CYQB;2009-10-01 23:00;CYQB 012300Z 25012KT 3SM -DZ BR FEW005 OVC014 07/06 A2991 RMK SF2ST6 SLP130

CYQB;2009-10-02 00:00;CYQB 020000Z 26010KT 4SM -DZ BR FEW012 OVC022 07/06 A2991 RMK SF2SC6 SLP132

CYQB;2009-10-02 00:40;CYQB 020040Z 26007KT 10SM FEW015 OVC020 06/ RMK SC2SC6

CYQB;2009-10-02 01:00;CYQB 020100Z 26005KT 8SM FEW012 OVC022 06/06 A2991 RMK SF2SC6 SLP132

CYQB;2009-10-02 02:00;CYQB 020200Z 25006KT 6SM -SHRA BR SCT009 OVC022 07/06 A2991 RMK SF3SC5 SLP131

CYQB;2009-10-02 03:00;CYQB 020300Z 24007KT 6SM -RADZ BR BKN007 OVC022 06/06 A2991 RMK SF6SC2 SLP131

CYQB;2009-10-02 04:00;CYQB 020400Z 24009KT 6SM -RADZ BR BKN010 OVC022 06/05 A2990 RMK SF7SC1 SLP129

CYQB;2009-10-02 05:00;CYQB 020500Z 25008KT 6SM -RADZ BR BKN010 OVC028 06/05 A2991 RMK SF7SC1 SLP132

CYQB;2009-10-02 05:33;CYQB 020533Z 25008KT 8SM -RADZ OVC008 06/ RMK SF8 CIG VRB 6-10

CYQB;2009-10-02 06:00;CYQB 020600Z CCA 25008KT 7SM -RADZ OVC008 06/05 A2991 RMK SF8 CIG VRB 6-10 SLP132

CYQB;2009-10-02 07:00;CYQB 020700Z 23008KT 7SM -RADZ OVC008 06/05 A2991 RMK SF8 CIG VRB 6-10 SLP132

CYQB;2009-10-02 08:00;CYQB 020800Z 22005KT 8SM -DZ OVC008 06/05 A2992 RMK SF8 CIG VRB 6-10 SLP134

CYQB;2009-10-02 09:00;CYQB 020900Z 23007KT 7SM -DZ OVC006 06/05 A2992 RMK SF8 SLP135

CYQB;2009-10-02 10:00;CYQB 021000Z 23006KT 6SM -DZ BKN006 OVC009 06/05 A2993 RMK SF6SC2 SLP138

CYQB;2009-10-02 10:35;CYQB 021035Z 24007KT 6SM -DZ BKN007 OVC010 06/ RMK SF6SC2 CIG VRB 5-10

CYQB;2009-10-02 11:00;CYQB 021100Z 23006KT 6SM -DZ BKN008 OVC010 06/05 A2994 RMK SF6SC2 SLP140

CYQB;2009-10-02 12:00;CYQB 021200Z 23007KT 6SM -SHRA BKN008 OVC010 06/05 A2995 RMK SF6SC2 SLP144

CYQB;2009-10-02 13:00;CYQB 021300Z 22006KT 6SM -SHRA OVC009 06/05 A2996 RMK SF8 SLP149

CYQB;2009-10-02 13:27;CYQB 021327Z 22006KT 6SM -SHRA FEW006 OVC010 06/ RMK SF1SF7

CYQB;2009-10-02 14:00;CYQB 021400Z 23006KT 6SM -SHRA FEW006 OVC010 06/05 A2998 RMK SF1SF7 SLP156

CYQB;2009-10-02 14:19;CYQB 021419Z 22005KT 8SM FEW006 OVC010 06/ RMK SF1SF7

CYQB;2009-10-02 15:00;CYQB 021500Z 22007KT 10SM BKN011 OVC016 07/05 A2999 RMK SC6SC2 SLP159

CYQB;2009-10-02 16:00;CYQB 021600Z 23008KT 10SM FEW011 OVC021 08/05 A3001 RMK SF2SC6 SLP164

CYQB;2009-10-02 17:00;CYQB 021700Z 24005KT 12SM BKN033 OVC044 09/06 A3001 RMK SC5SC3 SLP166

CYQB;2009-10-02 18:00;CYQB 021800Z 00000KT 10SM -SHRA BKN015 OVC033 09/06 A2999 RMK SC6SC2 SLP159

CYQB;2009-10-02 18:36;CYQB 021836Z 27002KT 10SM FEW015 OVC026 09/ RMK SC2SC6

CYQB;2009-10-02 19:00;CYQB 021900Z 27003KT 10SM FEW015 OVC029 09/06 A3000 RMK SC1SC7 SLP161

CYQB;2009-10-02 20:00;CYQB 022000Z 30002KT 15SM FEW015 OVC033 09/06 A3000 RMK CF1SC7 SLP162

CYQB;2009-10-02 21:00;CYQB 022100Z 00000KT 15SM OVC033 09/06 A3001 RMK SC8 SLP165

CYQB;2009-10-02 22:00;CYQB 022200Z 02003KT 15SM FEW010 OVC035 09/06 A3002 RMK CF1SC7 SLP169

CYQB;2009-10-02 23:00;CYQB 022300Z 02003KT 15SM FEW010 OVC038 09/07 A3003 RMK CF1SC7 SLP172

CYQB;2009-10-03 00:00;CYQB 030000Z 01002KT 15SM SCT036 OVC055 09/06 A3004 RMK SC3SC5 SLP175

CYQB;2009-10-03 01:00;CYQB 030100Z 15002KT 15SM FEW020 OVC037 08/06 A3006 RMK SC2SC6 SLP182

CYQB;2009-10-03 02:00;CYQB 030200Z 00000KT 15SM SCT037 OVC054 08/06 A3006 RMK SC3SC5 SLP181

CYQB;2009-10-03 03:00;CYQB 030300Z 10003KT 15SM FEW037 SCT054 SCT160 08/04 A3006 RMK SC1SC3AC1 SLP183

CYQB;2009-10-03 04:00;CYQB 030400Z 08003KT 15SM BKN160 07/04 A3006 RMK AC6 SLP182

CYQB;2009-10-03 05:00;CYQB 030500Z 05005KT 15SM FEW092 SCT160 07/04 A3007 RMK AC1AC3 SLP185

CYQB;2009-10-03 06:00;CYQB 030600Z 06007KT 15SM BKN064 OVC110 07/04 A3006 RMK SC6AC2 SLP180

CYQB;2009-10-03 07:00;CYQB 030700Z 06006KT 15SM OVC052 07/05 A3005 RMK SC8 SLP178

CYQB;2009-10-03 08:00;CYQB 030800Z 07008KT 15SM OVC049 08/05 A3005 RMK SC8 SLP179

CYQB;2009-10-03 09:00;CYQB 030900Z 07007KT 15SM OVC037 08/05 A3004 RMK SC8 SLP176

CYQB;2009-10-03 09:18;CYQB 030918Z 07010KT 8SM -DZ OVC036 08/ RMK SC8

CYQB;2009-10-03 09:41;CYQB 030941Z 08007KT 8SM -RA OVC032 08/ RMK SC8

CYQB;2009-10-03 10:00;CYQB 031000Z 09007KT 6SM -RA BR OVC031 08/06 A3004 RMK SC8 SLP175

CYQB;2009-10-03 11:00;CYQB 031100Z 09010KT 2SM -RA BR OVC015 07/06 A3004 RMK SC8 SLP174

CYQB;2009-10-03 12:00;CYQB 031200Z 07009KT 2SM -RA BR FEW006 OVC013 07/07 A3004 RMK SF2SC6 SLP176

CYQB;2009-10-03 13:00;CYQB 031300Z 07012KT 2SM -RA BR SCT006 OVC012 07/07 A3006 RMK SF4SC4 SLP180

CYQB;2009-10-03 14:00;CYQB 031400Z 07014G19KT 2SM -RA BR SCT004 OVC020 08/07 A3005 RMK SF4SC4 SLP179

CYQB;2009-10-03 14:18;CYQB 031418Z 07012KT 2SM -RA BR FEW005 BKN011 OVC020 08/ RMK SF2SC5SC2

CYQB;2009-10-03 14:44;CYQB 031444Z 06010G16KT 10SM FEW005 BKN011 OVC018 08/ RMK SF1SC6SC1 VIS W LWR

CYQB;2009-10-03 15:00;CYQB 031500Z 06011G16KT 10SM FEW008 BKN017 OVC020 08/07 A3006 RMK SF2SC6SC1 VIS W LWR SLP180

CYQB;2009-10-03 16:00;CYQB 031600Z 06015G20KT 6SM -RA FEW008 OVC019 09/07 A3004 RMK SF2SC6 SLP175

CYQB;2009-10-03 16:28;CYQB 031628Z 07012G17KT 10SM SCT015 OVC020 09/ RMK SC3SC5

CYQB;2009-10-03 17:00;CYQB 031700Z 07012G18KT 6SM BR FEW008 OVC021 09/08 A3002 RMK SF1SC7 VIS W LWR SLP168

CYQB;2009-10-03 18:00;CYQB 031800Z 07016G21KT 10SM SCT010 OVC023 09/08 A3001 RMK SF3SC5 SLP166

CYQB;2009-10-03 18:28;CYQB 031828Z 07013G21KT 10SM -RA FEW010 OVC023 09/ RMK SF1SC7

CYQB;2009-10-03 19:00;CYQB 031900Z 06016G25KT 10SM -RA FEW008 OVC016 09/08 A3000 RMK SF2SC6 SLP161

CYQB;2009-10-03 19:13;CYQB 031913Z 07013G24KT 10SM SCT008 OVC022 10/ RMK SF4SC4

CYQB;2009-10-03 20:00;CYQB 032000Z 07016G26KT 10SM SCT008 OVC020 10/08 A2999 RMK SF4SC4 SLP158

CYQB;2009-10-03 20:43;CYQB 032043Z 07015KT 7SM -SHRA SCT008 OVC019 10/ RMK SF3SC5 VIS W 3

CYQB;2009-10-03 21:00;CYQB 032100Z 06015G20KT 3SM -SHRA BR SCT006 OVC018 10/09 A2999 RMK SF3SC5 SLP157

CYQB;2009-10-03 21:31;CYQB 032131Z 07012G17KT 3SM -SHRA BR BKN006 OVC019 10/ RMK SF5SC3

CYQB;2009-10-03 22:00;CYQB 032200Z 07018KT 3SM -SHRA BR BKN006 OVC021 10/09 A3000 RMK SF6SC2 SLP159

CYQB;2009-10-03 23:00;CYQB 032300Z 07016KT 5SM SHRA BR BKN006 OVC018 10/09 A2999 RMK SF5SC3 SLP156

CYQB;2009-10-04 00:00;CYQB 040000Z 08009G17KT 4SM SHRA BR SCT006 BKN015 OVC021 10/09 A2999 RMK SF4SC2SC2 SLP159

CYQB;2009-10-04 01:00;CYQB 040100Z 06011G16KT 6SM -SHRA BR FEW004 BKN006 OVC020 10/09 A2998 RMK SF2SF4SC2 RERA SLP154

CYQB;2009-10-04 02:00;CYQB 040200Z 08011G16KT 6SM BR BKN005 OVC018 10/09 A2999 RMK SF6SC2 SLP158

CYQB;2009-10-04 03:00;CYQB 040300Z 07013KT 8SM OVC006 10/09 A2998 RMK SF8 SLP154

CYQB;2009-10-04 03:28;CYQB 040328Z 07011G17KT 15SM SCT006 OVC019 10/ RMK SF4SC4

CYQB;2009-10-04 04:00;CYQB 040400Z 07010KT 15SM SCT007 OVC019 10/09 A2997 RMK SF3SC5 SLP150

CYQB;2009-10-04 04:39;CYQB 040439Z 08007KT 8SM BKN007 OVC012 10/ RMK SF6SC2

CYQB;2009-10-04 05:00;CYQB 040500Z 07009G15KT 8SM BKN007 OVC017 10/09 A2996 RMK SF5SC3 SLP148

CYQB;2009-10-04 06:00;CYQB 040600Z 06011G16KT 10SM BKN007 OVC019 10/09 A2996 RMK SF5SC3 SLP146

CYQB;2009-10-04 07:00;CYQB 040700Z 07010G16KT 10SM -DZ BKN008 OVC016 10/09 A2994 RMK SF6SC2 SLP141

CYQB;2009-10-04 08:00;CYQB 040800Z 07010KT 10SM SCT008 OVC014 10/09 A2994 RMK SF3SC5 SLP141

CYQB;2009-10-04 09:00;CYQB 040900Z 07007KT 10SM BKN008 OVC015 10/09 A2994 RMK SF6SC2 SLP140

CYQB;2009-10-04 10:00;CYQB 041000Z 07008KT 4SM -DZ BR BKN007 OVC012 10/09 A2995 RMK SF6SC2 SLP143

CYQB;2009-10-04 11:00;CYQB 041100Z 08008KT 5SM -DZ BR BKN008 OVC014 10/09 A2994 RMK SF6SC2 SLP142

CYQB;2009-10-04 12:00;CYQB 041200Z 07006KT 5SM -DZ BR OVC009 10/09 A2995 RMK SF8 SLP144

CYQB;2009-10-04 12:36;CYQB 041236Z 07008KT 10SM OVC008 11/ RMK SF8

CYQB;2009-10-04 13:00;CYQB 041300Z 07008KT 15SM OVC010 11/10 A2995 RMK SF8 SLP143

CYQB;2009-10-04 14:00;CYQB 041400Z 09004KT 15SM OVC010 11/10 A2996 RMK SF8 SLP146

CYQB;2009-10-04 15:00;CYQB 041500Z 09007KT 8SM -DZ OVC010 11/10 A2995 RMK SF8 SLP143

CYQB;2009-10-04 15:46;CYQB 041546Z 08010G15KT 10SM -DZ OVC009 12/ RMK SF8 CIG VRB 5-13

CYQB;2009-10-04 16:00;CYQB 041600Z 09009KT 10SM -DZ OVC009 12/10 A2993 RMK SF8 CIG VRB 5-13 SLP138

CYQB;2009-10-04 17:00;CYQB 041700Z 09007KT 8SM OVC010 12/10 A2992 RMK SC8 SLP132

CYQB;2009-10-04 18:00;CYQB 041800Z 09010KT 8SM BKN010 OVC020 13/10 A2991 RMK SC5SC3 SLP129

CYQB;2009-10-04 18:40;CYQB 041840Z 08008KT 8SM BKN010 OVC020 13/ RMK SC5SC3 CIG VRB 8-12

CYQB;2009-10-04 19:00;CYQB 041900Z 09007KT 10SM BKN009 BKN020 OVC025 13/10 A2990 RMK SC5SC2SC2 SLP126

CYQB;2009-10-04 20:00;CYQB 042000Z 10006KT 8SM -SHRA BKN008 OVC025 12/10 A2989 RMK SC7SC1 CIG VRB 4-12 SLP123

CYQB;2009-10-04 21:00;CYQB 042100Z 09004KT 6SM BR OVC006 11/10 A2989 RMK SC8 CIG VRB 4-8 SLP123

CYQB;2009-10-04 21:36;CYQB 042136Z 10006KT 6SM -DZ BR OVC006 11/ RMK SC8 CIG VRB 4-8

CYQB;2009-10-04 22:00;CYQB 042200Z 08005KT 5SM -DZ BR OVC004 11/10 A2988 RMK SC8 CIG VRB 2-6 SLP119

CYQB;2009-10-04 22:19;CYQB 042219Z 09006KT 5SM BR OVC004 11/ RMK SC8 CIG VRB 2-6

CYQB;2009-10-04 23:00;CYQB 042300Z 10006KT 5SM BR OVC004 11/10 A2987 RMK SC8 CIG VRB 2-6 SLP118

CYQB;2009-10-05 00:00;CYQB 050000Z 09006KT 5SM BR OVC002 10/10 A2989 RMK SC8 CIG VRB 1-3 SLP122

CYQB;2009-10-05 01:00;CYQB 050100Z 07007KT 5SM BR OVC003 10/09 A2988 RMK SC8 CIG VRB 1-5 SLP119

CYQB;2009-10-05 02:00;CYQB 050200Z 07005KT 6SM BR OVC005 10/09 A2987 RMK SF8 SLP117

CYQB;2009-10-05 03:00;CYQB 050300Z 08003KT 5SM -SHRA BR OVC005 10/09 A2985 RMK SF8 SLP111

CYQB;2009-10-05 03:24;CYQB 050324Z 07003KT 6SM BR OVC005 10/ RMK SF8

CYQB;2009-10-05 04:00;CYQB 050400Z 00000KT 5SM BR OVC004 10/09 A2984 RMK SF8 SLP106

CYQB;2009-10-05 05:00;CYQB 050500Z 00000KT 4SM BR OVC004 10/09 A2982 RMK SF8 SLP101

CYQB;2009-10-05 05:42;CYQB 050542Z 00000KT 1 1/4SM BR OVC003 10/ RMK FG2SF6

CYQB;2009-10-05 06:00;CYQB 050600Z 00000KT 1 1/4SM BR OVC002 10/09 A2981 RMK FG2SF6 SLP097

CYQB;2009-10-05 07:00;CYQB 050700Z 28003KT 1SM R06/P6000FT/N -SHRA BR OVC004 09/09 A2980 RMK FG2SF6 SLP093

CYQB;2009-10-05 07:36;CYQB 050736Z 05007KT 1 1/4SM -SHRA BR SCT005 BKN019 OVC062 10/ RMK FG2SF2SC3SC2

CYQB;2009-10-05 08:00;CYQB 050800Z 12003KT 1SM R06/P6000FT/N -SHRA BR BKN002 OVC020 10/09 A2977 RMK FG2SF4SC2 SLP084

CYQB;2009-10-05 09:00;CYQB 050900Z 00000KT 3SM BR BKN003 OVC025 10/09 A2978 RMK SF7SC1 SLP086

CYQB;2009-10-05 10:00;CYQB 051000Z 00000KT 2SM BR OVC004 10/09 A2978 RMK SF8 SLP087

CYQB;2009-10-05 11:00;CYQB 051100Z 00000KT 3SM -DZ BR BKN004 OVC008 10/09 A2978 RMK SF6SF2 SLP088

CYQB;2009-10-05 12:00;CYQB 051200Z 00000KT 3SM -RA BR OVC003 10/10 A2978 RMK SF8 SLP086

CYQB;2009-10-05 13:00;CYQB 051300Z 23002KT 4SM -SHRA BR BKN003 BKN013 OVC025 10/10 A2978 RMK SF5SC2SC2 SLP086

CYQB;2009-10-05 13:25;CYQB 051325Z 24004KT 4SM BR FEW003 BKN013 OVC025 11/ RMK SF2SC4SC2

CYQB;2009-10-05 13:32;CYQB 051332Z 24004KT 4SM -SHRA BR FEW005 BKN013 OVC025 11/ RMK SF2SC4SC2

CYQB;2009-10-05 14:00;CYQB 051400Z 26005KT 4SM -SHRA BR FEW005 BKN010 OVC025 11/10 A2977 RMK SF2SC4SC2 SLP083

CYQB;2009-10-05 15:00;CYQB 051500Z 25008KT 6SM BR SCT005 BKN012 OVC023 11/10 A2975 RMK SF3SC4SC1 SLP077

CYQB;2009-10-05 16:00;CYQB 051600Z 25006KT 10SM FEW007 BKN017 OVC024 12/10 A2974 RMK SF2SC5SC2 SLP073

CYQB;2009-10-05 17:00;CYQB 051700Z 25009KT 15SM FEW012 SCT028 BKN084 14/10 A2972 RMK CF2SC2AC4 SLP065

CYQB;2009-10-05 18:00;CYQB 051800Z 25008KT 20SM SCT020 BKN085 14/10 A2970 RMK CF3AC3 TCU ASOCTD SLP058

CYQB;2009-10-05 18:11;CYQB 051811Z 27011KT 15SM -SHRA FEW020 BKN045TCU BKN085 14/ RMK CF2TCU3AC2

CYQB;2009-10-05 18:48;CYQB 051848Z 27008KT 20SM FEW020 SCT045TCU BKN085 13/ RMK CF2TCU2AC3

CYQB;2009-10-05 19:00;CYQB 051900Z 27008KT 20SM FEW015 FEW040TCU BKN085 13/11 A2969 RMK CF2TCU1AC2 SLP056

CYQB;2009-10-05 20:00;CYQB 052000Z 24011KT 15SM FEW015 FEW040TCU SCT085 14/11 A2968 RMK CF1TCU1AC2 SHWRS DIST N SLP052

CYQB;2009-10-05 21:00;CYQB 052100Z 25011KT 20SM FEW020 BKN070 BKN220 13/10 A2969 RMK CU2AC3CI1 SLP056

CYQB;2009-10-05 21:46;CYQB 052146Z 26009KT 15SM -SHRA FEW020 BKN055 11/ RMK CF2SC5

CYQB;2009-10-05 22:00;CYQB 052200Z 24008KT 15SM -SHRA SCT030 BKN052 11/09 A2971 RMK CF3SC3 SLP061

CYQB;2009-10-05 22:49;CYQB 052249Z 24007KT 15SM FEW030 BKN080 11/ RMK SC2AC5

CYQB;2009-10-05 23:00;CYQB 052300Z 25009KT 15SM FEW030 BKN085 11/09 A2971 RMK SC2AC5 SLP062

CYQB;2009-10-06 00:00;CYQB 060000Z 25009KT 15SM FEW030 SCT085 BKN230 10/09 A2971 RMK SC2AC2CI2 SLP063

CYQB;2009-10-06 01:00;CYQB 060100Z 23006KT 10SM FEW085 BKN200 09/08 A2971 RMK AC2CI1 SLP062

CYQB;2009-10-06 02:00;CYQB 060200Z 24009KT 10SM BKN045 BKN085 10/09 A2970 RMK SC6AC1 SLP060

CYQB;2009-10-06 03:00;CYQB 060300Z 23010KT 10SM FEW007 SCT045 SCT085 08/08 A2971 RMK SF1SC3AC1 SLP061

CYQB;2009-10-06 04:00;CYQB 060400Z 23010KT 8SM FEW005 FEW045 BKN085 08/08 A2971 RMK SF1SC1AC2 SLP061

CYQB;2009-10-06 05:00;CYQB 060500Z 22010KT 8SM FEW005 BKN065 08/08 A2970 RMK SF1SC6 SLP059

CYQB;2009-10-06 06:00;CYQB 060600Z 23009KT 10SM FEW005 BKN066 08/08 A2971 RMK SF1SC6 SLP061

CYQB;2009-10-06 07:00;CYQB 060700Z 24009KT 10SM FEW005 BKN068 08/08 A2971 RMK SF1AC6 SLP061

CYQB;2009-10-06 08:00;CYQB 060800Z 24012KT 15SM FEW005 BKN070 08/07 A2972 RMK SF1AC6 SLP065

CYQB;2009-10-06 09:00;CYQB 060900Z 25010KT 10SM FEW005 BKN073 08/07 A2973 RMK SF1AC6 SLP070

CYQB;2009-10-06 10:00;CYQB 061000Z 25011KT 10SM FEW005 BKN077 08/07 A2975 RMK SF1AC6 SLP076

CYQB;2009-10-06 11:00;CYQB 061100Z 25012KT 15SM FEW005 BKN078 08/07 A2976 RMK SF1AC5 SLP079

CYQB;2009-10-06 12:00;CYQB 061200Z 26013KT 15SM FEW007 BKN076 08/07 A2977 RMK SF1AC6 SLP084

CYQB;2009-10-06 13:00;CYQB 061300Z 24011KT 15SM SCT075 10/09 A2979 RMK AC4 SLP089

CYQB;2009-10-06 14:00;CYQB 061400Z 24013KT 15SM FEW024 SCT075 12/09 A2978 RMK CF2AC2 SLP088

CYQB;2009-10-06 15:00;CYQB 061500Z 27012G17KT 15SM BKN038 BKN075 13/08 A2978 RMK CF5AC1 SLP085

CYQB;2009-10-06 16:00;CYQB 061600Z 29006G17KT 15SM BKN037 14/08 A2978 RMK SC6 SLP086

CYQB;2009-10-06 17:00;CYQB 061700Z 25011KT 30SM BKN039 14/08 A2978 RMK SC6 SLP085

CYQB;2009-10-06 18:00;CYQB 061800Z 25016KT 30SM SCT039 BKN072 15/08 A2976 RMK SC3AC4 SLP080

CYQB;2009-10-06 18:09;CYQB 061809Z 25013G19KT 30SM -SHRA SCT039 BKN072 14/ RMK SC3AC4

CYQB;2009-10-06 19:00;CYQB 061900Z 23009KT 30SM FEW040 BKN070 14/09 A2976 RMK SC2AC5 DIST SH N SLP079

CYQB;2009-10-06 19:43;CYQB 061943Z 26014G19KT 30SM -SHRA SCT040 BKN055 14/ RMK SC3SC4 DIST SH NE

CYQB;2009-10-06 20:00;CYQB 062000Z 25012G17KT 30SM SCT035 BKN071 14/09 A2978 RMK SC3AC4 SLP085

CYQB;2009-10-06 20:15;CYQB 062015Z 25012KT 15SM -SHRA SCT035 BKN057 BKN070 13/ RMK SC3SC3AC1

CYQB;2009-10-06 21:00;CYQB 062100Z 25010KT 30SM FEW035 BKN066 13/08 A2977 RMK SC1AC6 SLP084

CYQB;2009-10-06 22:00;CYQB 062200Z 26006KT 30SM SCT064 BKN210 12/08 A2978 RMK SC2CI0 SLP085

CYQB;2009-10-06 23:00;CYQB 062300Z 25007KT 15SM FEW064 FEW210 09/07 A2978 RMK SC2CI0 SLP085

CYQB;2009-10-07 00:00;CYQB 070000Z 27008KT 15SM FEW060 FEW210 08/07 A2977 RMK SC1CI0 SLP084

CYQB;2009-10-07 01:00;CYQB 070100Z 24005KT 15SM FEW040 SCT057 09/07 A2978 RMK SC2SC0 SLP086

CYQB;2009-10-07 02:00;CYQB 070200Z 24003KT 15SM BKN057 08/07 A2975 RMK SC5 SLP078

CYQB;2009-10-07 03:00;CYQB 070300Z 06002KT 15SM FEW057 BKN220 07/06 A2974 RMK SC2CI2 SLP071

CYQB;2009-10-07 04:00;CYQB 070400Z 00000KT 15SM FEW220 06/06 A2971 RMK CI2 SLP061

CYQB;2009-10-07 05:00;CYQB 070500Z 00000KT 15SM BKN060 06/06 A2969 RMK SC6 SLP055

CYQB;2009-10-07 06:00;CYQB 070600Z 01002KT 15SM BKN055 BKN100 07/06 A2967 RMK SC6AC1 SLP050

CYQB;2009-10-07 07:00;CYQB 070700Z 07005KT 15SM FEW025 SCT055 BKN110 07/06 A2965 RMK SC1SC2AC3 SLP041

CYQB;2009-10-07 08:00;CYQB 070800Z 07007KT 15SM FEW008 OVC050 07/07 A2962 RMK SF2SC6 SLP033

CYQB;2009-10-07 08:23;CYQB 070823Z 07009KT 10SM -RA FEW008 OVC050 07/ RMK SF2SC6

CYQB;2009-10-07 09:00;CYQB 070900Z 07009KT 8SM -RA FEW008 OVC049 07/07 A2956 RMK SF1SC7 SLP013

CYQB;2009-10-07 10:00;CYQB 071000Z 07010KT 8SM -RA FEW008 OVC048 07/07 A2951 RMK SF1SC7 SLP996

CYQB;2009-10-07 11:00;CYQB 071100Z 07009KT 6SM -RA BR FEW008 OVC046 08/08 A2949 RMK SF1SC7 SLP989

CYQB;2009-10-07 12:00;CYQB 071200Z 07012KT 8SM -RA FEW007 SCT028 OVC044 08/08 A2946 RMK SF1SC3SC4 SLP977

CYQB;2009-10-07 13:00;CYQB 071300Z 09009G16KT 6SM -RA BR FEW007 BKN016 OVC032 09/08 A2941 RMK SF2SC3SC3 SLP962

CYQB;2009-10-07 14:00;CYQB 071400Z 07015KT 5SM -RA BR SCT004 BKN015 OVC022 09/09 A2937 RMK SF3SC3SC2 SLP949

CYQB;2009-10-07 15:00;CYQB 071500Z 09010G22KT 5SM -RA BR BKN006 BKN010 OVC016 09/09 A2934 RMK SF5SC2SC2 SLP937

CYQB;2009-10-07 16:00;CYQB 071600Z 07014G26KT 4SM -RA BR BKN007 OVC018 09/09 A2932 RMK SF6SC2 SLP930

CYQB;2009-10-07 17:00;CYQB 071700Z 07011G16KT 4SM -RA BR BKN005 OVC017 09/09 A2929 RMK SF6SC2 SLP922

CYQB;2009-10-07 18:00;CYQB 071800Z 07011G17KT 3SM -RA BR OVC005 09/09 A2928 RMK SF8 SLP917

CYQB;2009-10-07 19:00;CYQB 071900Z 07011G16KT 3SM -RA BR BKN005 OVC020 09/09 A2927 RMK SF6SC2 SLP914

CYQB;2009-10-07 19:50;CYQB 071950Z 06008G15KT 5SM -RA BR BKN008 OVC020 09/ RMK SF6SC2

CYQB;2009-10-07 20:00;CYQB 072000Z 07010KT 6SM -RA BR OVC008 09/09 A2929 RMK SF8 SLP920

CYQB;2009-10-07 21:00;CYQB 072100Z 03006KT 6SM -RA BR BKN010 OVC019 09/09 A2932 RMK SF6SC2 SLP930

CYQB;2009-10-07 21:23;CYQB 072123Z 07006KT 8SM FEW010 OVC024 09/ RMK SF2SC6

CYQB;2009-10-07 22:00;CYQB 072200Z 06006KT 3SM -DZ BR FEW010 OVC020 09/09 A2936 RMK SF2SC6 SLP943

CYQB;2009-10-07 22:09;CYQB 072209Z 05005KT 2SM -DZ BR SCT010 OVC020 09/ RMK SF4SC4

CYQB;2009-10-07 22:16;CYQB 072216Z 06005KT 2SM -DZ BR BKN010 OVC020 09/ RMK SF7SC1

CYQB;2009-10-07 22:41;CYQB 072241Z 06004KT 3SM -DZ BR BKN022 OVC038 09/ RMK SC6SC2

CYQB;2009-10-07 23:00;CYQB 072300Z 06003KT 5SM -DZ BR BKN023 OVC035 09/09 A2938 RMK SC7SC1 SLP951

CYQB;2009-10-07 23:32;CYQB 072332Z 00000KT 5SM -DZ BR FEW005 SCT015 OVC024 09/ RMK SF2SC2SC4

CYQB;2009-10-08 00:00;CYQB 080000Z 00000KT 3SM -DZ BR FEW005 SCT018 OVC024 09/09 A2941 RMK SF2SC2SC4 SLP960

CYQB;2009-10-08 00:37;CYQB 080037Z 10005KT 5SM BR BKN008 OVC025 09/ RMK SF6SC2

CYQB;2009-10-08 01:00;CYQB 080100Z 09006KT 5SM -DZ BR SCT008 OVC028 09/09 A2945 RMK SF4SC4 SLP973

CYQB;2009-10-08 02:00;CYQB 080200Z 08004KT 5SM -RA BR SCT008 OVC028 09/09 A2949 RMK SF4SC4 SLP989

CYQB;2009-10-08 03:00;CYQB 080300Z 09009KT 5SM -RA BR FEW011 OVC029 08/08 A2953 RMK SF2SC6 SLP001

CYQB;2009-10-08 04:00;CYQB 080400Z 09006KT 5SM -RA BR SCT009 OVC026 08/07 A2956 RMK SF3SC5 SLP011

CYQB;2009-10-08 05:00;CYQB 080500Z 09003KT 8SM FEW009 BKN028 OVC044 08/07 A2961 RMK SF1SC5SC2 SLP027

CYQB;2009-10-08 06:00;CYQB 080600Z 00000KT 10SM FEW006 OVC013 08/07 A2966 RMK SF2SC6 SLP045

CYQB;2009-10-08 07:00;CYQB 080700Z 26002KT 10SM FEW006 OVC012 08/08 A2968 RMK SF2SC6 SLP054

CYQB;2009-10-08 08:00;CYQB 080800Z 21003KT 10SM FEW003 BKN009 OVC015 08/08 A2972 RMK SF2SF3SC3 SLP065

CYQB;2009-10-08 08:30;CYQB 080830Z 22003KT 10SM FEW003 OVC006 08/ RMK SF2ST6

CYQB;2009-10-08 09:00;CYQB 080900Z 22004KT 8SM FEW003 OVC006 08/08 A2977 RMK SF2ST6 SLP082

CYQB;2009-10-08 10:00;CYQB 081000Z 29003KT 15SM FEW003 FEW006 SCT040 BKN060 07/07 A2979 RMK SF1SF1SC2SC4 SLP091

CYQB;2009-10-08 11:00;CYQB 081100Z 24003KT 20SM FEW003 FEW040 SCT090 BKN110 07/06 A2980 RMK SF1SC1AC2AC3 SLP093

CYQB;2009-10-08 12:00;CYQB 081200Z 24006KT 30SM FEW003 SCT090 BKN110 08/07 A2982 RMK SF1AC2AC2 SLP101

CYQB;2009-10-08 13:00;CYQB 081300Z 25011KT 30SM FEW003 FEW100 09/08 A2984 RMK SF1AC1 SLP106

CYQB;2009-10-08 14:00;CYQB 081400Z 27006KT 30SM FEW004 BKN032 BKN110 10/07 A2987 RMK SF1SC5AC2 SLP116

CYQB;2009-10-08 15:00;CYQB 081500Z 33006KT 30SM BKN040 11/05 A2989 RMK SC7 SLP122

CYQB;2009-10-08 16:00;CYQB 081600Z 33008KT 30SM BKN038 12/04 A2990 RMK SC7 SLP126

CYQB;2009-10-08 17:00;CYQB 081700Z 31005KT 30SM BKN037 11/05 A2989 RMK SC7 SLP124

CYQB;2009-10-08 18:00;CYQB 081800Z 30005KT 30SM OVC040 12/06 A2987 RMK SC8 SLP117

CYQB;2009-10-08 19:00;CYQB 081900Z 25008KT 30SM OVC042 12/06 A2992 RMK SC8 SLP134

CYQB;2009-10-08 20:00;CYQB 082000Z 24007KT 30SM OVC047 12/06 A2992 RMK SC8 SLP133

CYQB;2009-10-08 21:00;CYQB 082100Z 24006KT 30SM OVC053 11/07 A2994 RMK SC8 SLP139

CYQB;2009-10-08 22:00;CYQB 082200Z 25006KT 30SM OVC053 11/07 A2995 RMK SC8 SLP144

CYQB;2009-10-08 23:00;CYQB 082300Z 23005KT 30SM BKN056 10/07 A2996 RMK SC7 SLP146

CYQB;2009-10-09 00:00;CYQB 090000Z 24003KT 15SM SCT057 SCT210 09/07 A2995 RMK SC3CI1 SLP145

CYQB;2009-10-09 01:00;CYQB 090100Z 26005KT 30SM SCT058 SCT210 08/06 A2995 RMK SC3CI1 SLP144

CYQB;2009-10-09 02:00;CYQB 090200Z 25008KT 15SM FEW060 SCT180 08/07 A2997 RMK SC1CI2 SLP150

CYQB;2009-10-09 03:00;CYQB 090300Z 23007KT 15SM FEW060 BKN220 08/07 A2997 RMK SC2CI3 SLP151

CYQB;2009-10-09 04:00;CYQB 090400Z 27006KT 15SM FEW060 BKN130 08/07 A2996 RMK SC2AC5 SLP148

CYQB;2009-10-09 05:00;CYQB 090500Z 20002KT 15SM FEW060 BKN130 BKN210 07/07 A2993 RMK SC2AC3CI2 SLP138

CYQB;2009-10-09 06:00;CYQB 090600Z 00000KT 15SM BKN110 BKN210 07/07 A2993 RMK AC6CI2 SLP138

CYQB;2009-10-09 07:00;CYQB 090700Z 00000KT 15SM FEW080 SCT120 BKN190 07/06 A2992 RMK SC2AC2CI3 SLP135

CYQB;2009-10-09 08:00;CYQB 090800Z 00000KT 15SM BKN058 BKN180 07/07 A2992 RMK SC6CI2 SLP133

CYQB;2009-10-09 09:00;CYQB 090900Z 00000KT 10SM -RA SCT033 OVC060 07/07 A2991 RMK SC4SC4 SLP130

CYQB;2009-10-09 10:00;CYQB 091000Z 00000KT 15SM -RA OVC024 07/07 A2990 RMK SC8 SLP126

CYQB;2009-10-09 11:00;CYQB 091100Z 00000KT 15SM -RA BKN024 OVC034 08/07 A2990 RMK SC6SC2 SLP128

CYQB;2009-10-09 12:00;CYQB 091200Z 23002KT 6SM -RA BR FEW007 OVC014 08/08 A2989 RMK SF2ST6 SLP123

CYQB;2009-10-09 13:00;CYQB 091300Z 24002KT 4SM -RA BR OVC011 08/08 A2988 RMK ST8 SLP120

CYQB;2009-10-09 14:00;CYQB 091400Z 22003KT 3SM -RA BR SCT007 OVC010 09/09 A2987 RMK SF3ST5 SLP116

CYQB;2009-10-09 15:00;CYQB 091500Z 24005KT 3SM -RA BR SCT006 BKN009 OVC017 10/09 A2986 RMK SF3ST4SC1 SLP114

CYQB;2009-10-09 16:00;CYQB 091600Z 25002KT 3SM -RA BR SCT005 OVC009 10/10 A2982 RMK SF3ST5 SLP100

CYQB;2009-10-09 17:00;CYQB 091700Z 25005KT 5SM -RA BR BKN006 OVC013 10/10 A2981 RMK SF5SC3 SLP096

CYQB;2009-10-09 17:41;CYQB 091741Z 24005KT 4SM -RA BR SCT006 OVC020 11/ RMK SF4SC4

CYQB;2009-10-09 18:00;CYQB 091800Z 23004KT 4SM -RA BR BKN006 BKN012 OVC020 11/10 A2980 RMK SF5SC2SC1 SLP094

CYQB;2009-10-09 19:00;CYQB 091900Z 21002KT 4SM -RA BR FEW004 OVC007 11/10 A2980 RMK SF2ST6 SLP094

CYQB;2009-10-09 20:00;CYQB 092000Z 23005KT 3SM -RA BR FEW004 SCT007 OVC018 11/10 A2978 RMK SF1SF3SC4 SLP087

CYQB;2009-10-09 21:00;CYQB 092100Z 24002KT 3SM -RA BR FEW004 SCT007 OVC018 11/10 A2979 RMK SF1SF2SC5 SLP089

CYQB;2009-10-09 22:00;CYQB 092200Z 20002KT 3SM -RA BR FEW004 SCT018 OVC026 10/10 A2976 RMK SF2SC2SC4 VIS S-W HIER SLP081

CYQB;2009-10-09 23:00;CYQB 092300Z 27002KT 5SM -RA BR FEW004 OVC015 10/10 A2975 RMK SF2SC6 VIS SE-SW HIER CIG RAG SLP078

CYQB;2009-10-10 00:00;CYQB 100000Z 00000KT 6SM -RA BR FEW004 OVC017 10/10 A2976 RMK SF2SC6 SLP080

CYQB;2009-10-10 01:00;CYQB 100100Z 00000KT 4SM -RA BR FEW004 OVC017 10/10 A2975 RMK SF2SC6 SLP076

CYQB;2009-10-10 02:00;CYQB 100200Z 00000KT 6SM BR SCT019 OVC025 10/10 A2974 RMK SC4SC4 SLP072

CYQB;2009-10-10 03:00;CYQB 100300Z 00000KT 6SM -RA BR BKN022 OVC060 10/10 A2971 RMK SC7SC1 SLP064

CYQB;2009-10-10 04:00;CYQB 100400Z 00000KT 4SM -RA BR OVC022 09/09 A2969 RMK SC8 SLP055

CYQB;2009-10-10 05:00;CYQB 100500Z 00000KT 4SM -RA BR SCT020 OVC050 09/09 A2969 RMK SC4SC4 SLP055

CYQB;2009-10-10 06:00;CYQB 100600Z 00000KT 5SM -RA BR SCT016 OVC022 09/09 A2968 RMK SC4SC4 SLP052

CYQB;2009-10-10 07:00;CYQB 100700Z 33004KT 5SM -RA BR FEW008 BKN020 OVC050 09/09 A2966 RMK SF2SC5SC1 SLP046

CYQB;2009-10-10 08:00;CYQB 100800Z 36006KT 15SM -RA FEW008 SCT020 OVC050 09/08 A2965 RMK SF2SC2SC4 SLP043

CYQB;2009-10-10 09:00;CYQB 100900Z 36008KT 15SM FEW011 SCT018 OVC050 08/07 A2966 RMK SF2SC2SC4 SLP044

CYQB;2009-10-10 10:00;CYQB 101000Z 36007KT 8SM -RA OVC012 08/07 A2967 RMK SC8 SLP048

CYQB;2009-10-10 11:00;CYQB 101100Z 36008KT 5SM -RA BR BKN012 OVC016 07/07 A2969 RMK SC5SC3 SLP056

CYQB;2009-10-10 11:27;CYQB 101127Z 01005KT 7SM -RA SCT012 OVC035 07/ RMK SC4SC4

CYQB;2009-10-10 12:00;CYQB 101200Z 34003KT 10SM -RA FEW012 OVC036 07/06 A2972 RMK SC2SC6 CU ASOCTD SLP067

CYQB;2009-10-10 13:00;CYQB 101300Z 32005KT 15SM -RA FEW015 SCT035 OVC052 07/05 A2976 RMK CU1SC3SC4 SLP079

CYQB;2009-10-10 14:00;CYQB 101400Z 31002KT 15SM -RA FEW015 OVC056 07/04 A2979 RMK SF1SC7 SLP089

CYQB;2009-10-10 15:00;CYQB 101500Z 31007KT 15SM -RA FEW035 OVC045 07/04 A2981 RMK SC2SC6 SLP098

CYQB;2009-10-10 16:00;CYQB 101600Z 33004KT 15SM FEW029 BKN050 BKN080 07/03 A2983 RMK SC2SC3AC2 SLP102

CYQB;2009-10-10 17:00;CYQB 101700Z 26011KT 15SM FEW030 BKN088 08/04 A2983 RMK CU2AC5 SLP105

CYQB;2009-10-10 18:00;CYQB 101800Z 29015G20KT 15SM FEW030 BKN051 BKN080 09/01 A2984 RMK CU2SC3AC1 SLP106

CYQB;2009-10-10 19:00;CYQB 101900Z 32012G18KT 30SM SCT048 09/00 A2986 RMK SC4 SLP113

CYQB;2009-10-10 20:00;CYQB 102000Z 29011G17KT 30SM SCT060 10/M01 A2988 RMK SC3 SLP119

CYQB;2009-10-10 21:00;CYQB 102100Z 27013KT 30SM FEW060 08/01 A2991 RMK SC2 SLP131

CYQB;2009-10-10 22:00;CYQB 102200Z 29007KT 30SM FEW062 06/01 A2993 RMK SC2 SLP138

CYQB;2009-10-10 23:00;CYQB 102300Z 24007KT 15SM FEW062 05/M00 A2996 RMK SC2 SLP148

CYQB;2009-10-11 00:00;CYQB 110000Z 23005KT 15SM FEW080 04/M01 A2996 RMK AC2 SLP147

CYQB;2009-10-11 01:00;CYQB 110100Z 26009KT 15SM FEW080 03/M01 A2997 RMK AC2 SLP152

CYQB;2009-10-11 02:00;CYQB 110200Z 27008KT 15SM SKC 02/M01 A2998 RMK SLP154

CYQB;2009-10-11 03:00;CYQB 110300Z 25005KT 15SM FEW180 03/M01 A3000 RMK CS2 SLP162

CYQB;2009-10-11 04:00;CYQB 110400Z 27006KT 15SM OVC140 03/M01 A3001 RMK AS4 SLP165

CYQB;2009-10-11 05:00;CYQB 110500Z 19003KT 15SM OVC130 03/M00 A2999 RMK AS5 SLP158

CYQB;2009-10-11 06:00;CYQB 110600Z 31002KT 15SM BKN140 02/M01 A2997 RMK AS5 SLP152

CYQB;2009-10-11 07:00;CYQB 110700Z 03002KT 15SM SCT120 01/M01 A2996 RMK AS3 SLP148

CYQB;2009-10-11 08:00;CYQB 110800Z 00000KT 15SM BKN130 01/M00 A2996 RMK AS3 SLP147

CYQB;2009-10-11 09:00;CYQB 110900Z 23002KT 15SM OVC090 01/00 A2996 RMK AS8 SLP148

CYQB;2009-10-11 09:25;CYQB 110925Z 22005KT 10SM -RA OVC055 03/ RMK SC8

CYQB;2009-10-11 10:00;CYQB 111000Z 00000KT 15SM BKN054 OVC090 03/00 A2994 RMK SC6AC2 SLP142

CYQB;2009-10-11 10:47;CYQB 111047Z 00000KT 10SM -RA BKN040 OVC062 03/ RMK SC6SC2

CYQB;2009-10-11 11:00;CYQB 111100Z 36002KT 15SM -RA BKN034 OVC042 03/02 A2993 RMK SC6SC2 SLP139

CYQB;2009-10-11 12:00;CYQB 111200Z 28004KT 30SM BKN018 OVC030 03/02 A2994 RMK SC6SC2 SLP140

CYQB;2009-10-11 13:00;CYQB 111300Z 25009KT 30SM SCT016 BKN063 BKN096 05/04 A2993 RMK SC3SC3AC1 SLP139

CYQB;2009-10-11 14:00;CYQB 111400Z 26014G19KT 30SM FEW016 BKN060 05/04 A2994 RMK SC1SC5 SLP141

CYQB;2009-10-11 15:00;CYQB 111500Z 26018KT 30SM FEW036 08/01 A2994 RMK CU2 SLP140

CYQB;2009-10-11 16:00;CYQB 111600Z 26021G26KT 30SM FEW040 09/M03 A2993 RMK CF1 SLP137

CYQB;2009-10-11 17:00;CYQB 111700Z 24021G31KT 30SM FEW045 09/M03 A2991 RMK CF1 SLP130

CYQB;2009-10-11 18:00;CYQB 111800Z 24027G34KT 30SM FEW060 10/M04 A2989 RMK SC2 SLP126

CYQB;2009-10-11 19:00;CYQB 111900Z 24026G32KT 30SM SCT075 09/M05 A2990 RMK AC3 SLP127

CYQB;2009-10-11 20:00;CYQB 112000Z 26019G25KT 30SM BKN080 08/M05 A2992 RMK AC7 VIRGA SLP133

CYQB;2009-10-11 21:00;CYQB 112100Z 27019G28KT 15SM SCT070 BKN120 07/M03 A2994 RMK AC3AC2 VIRGA SLP142

CYQB;2009-10-11 21:37;CYQB 112137Z 29039G49KT 3/4SM R06/4000VP6000FT/D -SHSN OVC002 02/ RMK SN3SF5

CYQB;2009-10-11 22:00;CYQB 112200Z 27017KT 10SM SCT002 BKN100 03/M00 A2999 RMK SF3AC3 SQ LN S ARPT MOV S CB EMBD SLP158

CYQB;2009-10-11 23:00;CYQB 112300Z 26013KT 15SM FEW100 02/01 A3001 RMK AC2 SLP165

CYQB;2009-10-12 00:00;CYQB 120000Z 25009KT 15SM FEW030 01/01 A3003 RMK SC1 SLP172

CYQB;2009-10-12 01:00;CYQB 120100Z 26010KT 15SM BKN065 02/01 A3006 RMK SC7 SLP182

CYQB;2009-10-12 02:00;CYQB 120200Z 26013G18KT 15SM FEW010 OVC059 03/01 A3009 RMK CF1SC7 SLP192

CYQB;2009-10-12 03:00;CYQB 120300Z 24010KT 15SM FEW010 FEW060 02/00 A3011 RMK CF1SC2 SLP200

CYQB;2009-10-12 04:00;CYQB 120400Z 23009KT 15SM FEW060 02/M00 A3013 RMK SC2 SLP207

CYQB;2009-10-12 05:00;CYQB 120500Z 24009KT 15SM FEW055 02/M00 A3016 RMK SC1 SLP215

CYQB;2009-10-12 06:00;CYQB 120600Z 25009KT 15SM BKN064 02/M00 A3018 RMK SC6 SLP222

CYQB;2009-10-12 07:00;CYQB 120700Z 25008KT 15SM OVC054 02/00 A3019 RMK SC8 SLP228

CYQB;2009-10-12 08:00;CYQB 120800Z 26007KT 15SM OVC056 03/00 A3021 RMK SC8 SLP233

CYQB;2009-10-12 09:00;CYQB 120900Z 25010KT 15SM BKN058 03/00 A3022 RMK SC6 SLP236

CYQB;2009-10-12 10:00;CYQB 121000Z 26008KT 15SM BKN058 02/00 A3024 RMK SC6 SLP243

CYQB;2009-10-12 11:00;CYQB 121100Z 25009KT 15SM FEW015 BKN055 02/00 A3025 RMK CU1SC6 SLP246

CYQB;2009-10-12 12:00;CYQB 121200Z 26008KT 15SM FEW020 FEW055 FEW150 02/M00 A3027 RMK CU1SC1AC1 SLP253

CYQB;2009-10-12 13:00;CYQB 121300Z 25012KT 30SM FEW025 FEW060 FEW150 04/00 A3028 RMK CU1SC1AC1 SLP257

CYQB;2009-10-12 14:00;CYQB 121400Z 26009KT 30SM FEW025 FEW150 FEW240 06/02 A3027 RMK CU2AC1CI1 SLP255

CYQB;2009-10-12 15:00;CYQB 121500Z 28011G16KT 30SM BKN046 BKN240 06/01 A3026 RMK CU7CI1 SLP251

CYQB;2009-10-12 16:00;CYQB 121600Z 29015KT 30SM BKN047 08/M00 A3025 RMK CU6 SLP246

CYQB;2009-10-12 17:00;CYQB 121700Z 30015KT 30SM BKN044 07/M01 A3024 RMK SC6 SLP244

CYQB;2009-10-12 18:00;CYQB 121800Z 29016KT 30SM BKN046 09/M01 A3023 RMK CU5 SLP241

CYQB;2009-10-12 19:00;CYQB 121900Z 29011G16KT 30SM SCT045 BKN120 09/M01 A3022 RMK CU4AC1 SLP237

CYQB;2009-10-12 20:00;CYQB 122000Z 29012KT 30SM FEW045 BKN120 09/M01 A3021 RMK CU2AC2 SLP234

CYQB;2009-10-12 21:00;CYQB 122100Z 29010KT 30SM SCT050 BKN120 08/M01 A3023 RMK SC4AC1 SLP239

CYQB;2009-10-12 22:00;CYQB 122200Z 33006KT 30SM FEW055 SCT240 07/M02 A3023 RMK SC2CI0 SLP241

CYQB;2009-10-12 23:00;CYQB 122300Z 33004KT 15SM FEW055 BKN150 05/M03 A3022 RMK SC2AC2 SLP238

CYQB;2009-10-13 00:00;CYQB 130000Z 23002KT 15SM SCT055 SCT150 05/M03 A3023 RMK SC3AC1 SLP241

CYQB;2009-10-13 01:00;CYQB 130100Z 00000KT 15SM FEW055 BKN150 05/M03 A3022 RMK SC2AC3 SLP236

CYQB;2009-10-13 02:00;CYQB 130200Z 00000KT 15SM FEW050 BKN130 02/M01 A3020 RMK SC1AC6 SLP229

CYQB;2009-10-13 03:00;CYQB 130300Z 28002KT 15SM BKN058 02/M01 A3020 RMK SC7 SLP231

CYQB;2009-10-13 04:00;CYQB 130400Z 00000KT 15SM OVC064 03/M01 A3019 RMK SC8 SLP225

CYQB;2009-10-13 05:00;CYQB 130500Z 00000KT 15SM OVC055 03/M01 A3018 RMK SC8 SLP222

CYQB;2009-10-13 06:00;CYQB 130600Z 05003KT 15SM BKN065 OVC090 03/M01 A3015 RMK SC6AC2 SLP214

CYQB;2009-10-13 07:00;CYQB 130700Z 04005KT 10SM FEW010 OVC045 03/M00 A3013 RMK SF1SC7 SLP206

CYQB;2009-10-13 08:00;CYQB 130800Z 36003KT 10SM -RA FEW010 OVC049 03/00 A3012 RMK SF1SC7 SLP203

CYQB;2009-10-13 09:00;CYQB 130900Z 00000KT 10SM -RA FEW010 OVC036 03/M00 A3011 RMK SF1SC7 SLP200

CYQB;2009-10-13 10:00;CYQB 131000Z 00000KT 10SM -RA BKN027 OVC050 03/02 A3011 RMK SC7SC1 SLP198

CYQB;2009-10-13 11:00;CYQB 131100Z 02003KT 4SM -RA BR BKN011 OVC025 03/02 A3010 RMK ST6SC2 SLP195

CYQB;2009-10-13 11:47;CYQB 131147Z 02005KT 4SM -RA BR BKN007 OVC019 02/ RMK SF5SC3

CYQB;2009-10-13 12:00;CYQB 131200Z 04006KT 4SM -RA BR BKN006 OVC015 02/01 A3008 RMK SF5SC3 SLP191

CYQB;2009-10-13 13:00;CYQB 131300Z 05003KT 3SM -RASN BR BKN006 OVC010 02/02 A3007 RMK SF6ST2 SLP187

CYQB;2009-10-13 14:00;CYQB 131400Z 05005KT 3SM -RA BR BKN008 OVC015 03/02 A3005 RMK SF7SC1 CIG VRB 6-10 SLP180

CYQB;2009-10-13 15:00;CYQB 131500Z 04005KT 4SM -RA BR BKN006 OVC015 03/02 A3004 RMK SF6SC2 SLP175

CYQB;2009-10-13 16:00;CYQB 131600Z 07006KT 4SM -RA BR SCT006 OVC018 04/03 A3002 RMK SF4SC4 SLP170

CYQB;2009-10-13 17:00;CYQB 131700Z 06003KT 6SM -DZ BKN010 OVC016 04/03 A3001 RMK SF6SC2 SLP165

CYQB;2009-10-13 18:00;CYQB 131800Z 06002KT 8SM -RADZ BKN012 OVC030 05/03 A3000 RMK SF6SC2 VIS LWR NE SLP163

CYQB;2009-10-13 19:00;CYQB 131900Z 16003KT 12SM FEW012 BKN030 OVC081 05/02 A3000 RMK SF2SC2AS3 SLP162

CYQB;2009-10-13 20:00;CYQB 132000Z 24003KT 12SM FEW012 BKN030 OVC110 05/03 A3000 RMK SF2SC3AS3 VIRGA N SLP163

CYQB;2009-10-13 20:29;CYQB 132029Z 28004KT 12SM -RA FEW012 BKN027 OVC110 05/ RMK SF2SC3AS2

CYQB;2009-10-13 21:00;CYQB 132100Z 03005KT 15SM FEW005 SCT020 BKN057 BKN120 BKN160 05/02 A3002 RMK SF1SC3SC2AC1AS0 SLP169

CYQB;2009-10-13 22:00;CYQB 132200Z 09003KT 15SM FEW005 SCT025 SCT080 SCT220 03/03 A3004 RMK SF1SC2AC1CI0 SLP174

CYQB;2009-10-13 23:00;CYQB 132300Z 00000KT 12SM FEW043 02/02 A3006 RMK SC2 SLP181

CYQB;2009-10-14 00:00;CYQB 140000Z 26003KT 12SM FEW020 01/01 A3007 RMK SC1 SLP186

CYQB;2009-10-14 01:00;CYQB 140100Z 00000KT 15SM SKC 01/M01 A3009 RMK SLP193

CYQB;2009-10-14 02:00;CYQB 140200Z 31007KT 15SM SKC 03/M01 A3010 RMK SLP196

CYQB;2009-10-14 03:00;CYQB 140300Z CCA 24003KT 15SM SKC 03/M01 A3010 RMK OBS TAKEN +10 SLP197

CYQB;2009-10-14 04:00;CYQB 140400Z 18004KT 15SM SKC 01/M01 A3010 RMK SLP197

CYQB;2009-10-14 05:00;CYQB 140500Z 20005KT 15SM SKC M01/M02 A3010 RMK SLP197

CYQB;2009-10-14 06:00;CYQB 140600Z 24004KT 15SM SKC 01/M02 A3010 RMK SLP197

CYQB;2009-10-14 07:00;CYQB 140700Z 29005KT 15SM SKC 01/M02 A3011 RMK SLP198

CYQB;2009-10-14 08:00;CYQB 140800Z 28004KT 15SM SKC M01/M03 A3011 RMK SLP200

CYQB;2009-10-14 09:00;CYQB 140900Z 28003KT 15SM SKC M00/M04 A3012 RMK SLP202

CYQB;2009-10-14 10:00;CYQB 141000Z 31010KT 15SM FEW030 00/M04 A3013 RMK SC1 SLP206

CYQB;2009-10-14 11:00;CYQB 141100Z 33011KT 30SM FEW025 00/M04 A3014 RMK SC1 SLP211

CYQB;2009-10-14 12:00;CYQB 141200Z 34012G18KT 30SM FEW030 01/M04 A3015 RMK SC1 SLP212

CYQB;2009-10-14 13:00;CYQB 141300Z 00000KT 30SM FEW035 02/M04 A3018 RMK SC2 SLP222

CYQB;2009-10-14 14:00;CYQB 141400Z 33003KT 30SM SCT036 03/M03 A3018 RMK SC3 SLP223

CYQB;2009-10-14 15:00;CYQB 141500Z 35005KT 30SM SCT045 04/M05 A3017 RMK SC3 SLP220

CYQB;2009-10-14 16:00;CYQB 141600Z 31006KT 30SM BKN045 04/M06 A3016 RMK SC5 SLP217

CYQB;2009-10-14 17:00;CYQB 141700Z 30012KT 30SM SCT048 04/M06 A3015 RMK SC4 SLP214

CYQB;2009-10-14 18:00;CYQB 141800Z 32011G18KT 30SM BKN050 04/M05 A3014 RMK SC5 SLP211

CYQB;2009-10-14 19:00;CYQB 141900Z 30011G16KT 30SM BKN047 04/M06 A3014 RMK SC6 SLP211

CYQB;2009-10-14 20:00;CYQB 142000Z 31010G16KT 30SM BKN054 04/M07 A3014 RMK SC5 SLP210

CYQB;2009-10-14 21:00;CYQB 142100Z 30008KT 30SM BKN054 04/M06 A3014 RMK SC6 SLP208

CYQB;2009-10-14 22:00;CYQB 142200Z 27009KT 30SM BKN055 03/M05 A3014 RMK SC7 SLP209

CYQB;2009-10-14 23:00;CYQB 142300Z 27008KT 15SM FEW055 00/M04 A3015 RMK SC2 SLP212

CYQB;2009-10-15 00:00;CYQB 150000Z 26009KT 15SM BKN065 00/M03 A3015 RMK SC6 SLP215

CYQB;2009-10-15 01:00;CYQB 150100Z 28006KT 15SM BKN075 00/M03 A3016 RMK AC6 SLP216

CYQB;2009-10-15 02:00;CYQB 150200Z 28006KT 15SM BKN070 00/M03 A3015 RMK AC6 SLP213

CYQB;2009-10-15 03:00;CYQB 150300Z 30006KT 15SM BKN062 01/M04 A3014 RMK SC6 SLP210

CYQB;2009-10-15 04:00;CYQB 150400Z 32008KT 15SM BKN066 01/M04 A3014 RMK SC7 SLP209

CYQB;2009-10-15 05:00;CYQB 150500Z 31007KT 15SM BKN060 00/M04 A3014 RMK SC7 SLP210

CYQB;2009-10-15 06:00;CYQB 150600Z 28005KT 15SM BKN064 M01/M04 A3014 RMK SC6 SLP209

CYQB;2009-10-15 07:00;CYQB 150700Z 26002KT 15SM BKN063 M01/M04 A3013 RMK SC6 SLP207

CYQB;2009-10-15 08:00;CYQB 150800Z 23006KT 15SM BKN061 M00/M04 A3012 RMK SC6 SLP203

CYQB;2009-10-15 09:00;CYQB 150900Z 25004KT 15SM BKN063 00/M05 A3013 RMK SC7 SLP207

CYQB;2009-10-15 10:00;CYQB 151000Z 00000KT 15SM BKN061 00/M05 A3014 RMK SC6 SLP210

CYQB;2009-10-15 11:00;CYQB 151100Z 33002KT 15SM FEW020 BKN062 M00/M05 A3016 RMK SC1SC5 SLP215

CYQB;2009-10-15 12:00;CYQB 151200Z 00000KT 15SM FEW020 BKN060 00/M05 A3017 RMK SC1SC5 VIRGA S SLP219

CYQB;2009-10-15 13:00;CYQB 151300Z 34008KT 30SM FEW020 SCT060 01/M05 A3017 RMK CU1SC2 SLP222

CYQB;2009-10-15 14:00;CYQB 151400Z 34011KT 30SM FEW020 FEW070 02/M06 A3018 RMK CU1AC1 SLP224

CYQB;2009-10-15 15:00;CYQB 151500Z 32005KT 30SM FEW050 03/M07 A3018 RMK SC2 SLP223

CYQB;2009-10-15 16:00;CYQB 151600Z 34002KT 30SM SCT050 03/M07 A3017 RMK SC3 SLP218

CYQB;2009-10-15 17:00;CYQB 151700Z 21002KT 30SM BKN055 04/M07 A3015 RMK SC6 SLP214

CYQB;2009-10-15 18:00;CYQB 151800Z 06004KT 30SM BKN058 05/M07 A3014 RMK SC6 SLP208

CYQB;2009-10-15 19:00;CYQB 151900Z 26004KT 30SM BKN060 05/M06 A3012 RMK SC6 SLP203

CYQB;2009-10-15 20:00;CYQB 152000Z 18003KT 30SM BKN060 04/M06 A3012 RMK SC6 SLP204

CYQB;2009-10-15 21:00;CYQB 152100Z 20004KT 30SM BKN066 05/M07 A3012 RMK AC6 SLP204

CYQB;2009-10-15 22:00;CYQB 152200Z 20004KT 30SM BKN070 04/M06 A3013 RMK AC6 SLP206

CYQB;2009-10-15 23:00;CYQB 152300Z 00000KT 15SM BKN067 03/M06 A3014 RMK AC5 SLP210

CYQB;2009-10-16 00:00;CYQB 160000Z 01005KT 15SM BKN064 03/M07 A3016 RMK SC6 SLP216

CYQB;2009-10-16 01:00;CYQB 160100Z 03004KT 15SM SCT064 02/M08 A3017 RMK SC2 SLP220

CYQB;2009-10-16 02:00;CYQB 160200Z 36004KT 15SM FEW060 00/M07 A3018 RMK SC2 SLP222

CYQB;2009-10-16 03:00;CYQB 160300Z 01004KT 15SM SKC 00/M07 A3018 RMK SLP224

CYQB;2009-10-16 04:00;CYQB 160400Z 02004KT 15SM SKC M01/M07 A3019 RMK SLP225

CYQB;2009-10-16 05:00;CYQB 160500Z 02004KT 15SM SKC M01/M07 A3019 RMK SLP227

CYQB;2009-10-16 06:00;CYQB 160600Z 01006KT 15SM SKC M02/M07 A3018 RMK SLP223

CYQB;2009-10-16 07:00;CYQB 160700Z 01006KT 15SM SKC M02/M07 A3018 RMK SLP222

CYQB;2009-10-16 08:00;CYQB 160800Z 02004KT 15SM SKC M03/M07 A3017 RMK SLP221

CYQB;2009-10-16 09:00;CYQB 160900Z 01005KT 15SM FEW065 M03/M07 A3017 RMK SC1 SLP222

CYQB;2009-10-16 10:00;CYQB 161000Z 01005KT 15SM FEW065 M03/M07 A3018 RMK SC1 SLP223

CYQB;2009-10-16 11:00;CYQB 161100Z 02005KT 30SM FEW030 FEW070 M03/M07 A3018 RMK SC1AC1 SLP224

CYQB;2009-10-16 12:00;CYQB 161200Z 02005KT 30SM FEW030 FEW100 BKN240 M02/M07 A3019 RMK SC1AC1CI1 SLP228

CYQB;2009-10-16 13:00;CYQB 161300Z 02005KT 30SM FEW030 BKN240 M01/M05 A3019 RMK SC1CI2 SLP229

CYQB;2009-10-16 14:00;CYQB 161400Z 00000KT 30SM SCT028 BKN240 02/M04 A3019 RMK SC3CI1 SLP226

CYQB;2009-10-16 15:00;CYQB 161500Z 05013KT 30SM BKN035 BKN240 03/M02 A3017 RMK SC6CI1 SLP221

CYQB;2009-10-16 16:00;CYQB 161600Z 09010G20KT 30SM SCT030 BKN240 04/M03 A3016 RMK SC3CI1 SLP215

CYQB;2009-10-16 17:00;CYQB 161700Z 06016KT 30SM FEW030 SCT240 05/M04 A3014 RMK SC1CI1 SLP211

CYQB;2009-10-16 18:00;CYQB 161800Z 07013G18KT 30SM FEW030 SCT240 06/M05 A3014 RMK SC1CI1 SLP210

CYQB;2009-10-16 19:00;CYQB 161900Z 06011G17KT 30SM FEW030 FEW240 07/M06 A3014 RMK SC1CI1 SLP210

CYQB;2009-10-16 20:00;CYQB 162000Z 06008KT 30SM FEW030 FEW240 07/M05 A3013 RMK SC1CI1 SLP207

CYQB;2009-10-16 21:00;CYQB 162100Z 08009G15KT 30SM FEW240 06/M06 A3013 RMK CI0 SLP205

CYQB;2009-10-16 22:00;CYQB 162200Z 08007KT 30SM FEW240 04/M04 A3014 RMK CI0 SLP208

CYQB;2009-10-16 23:00;CYQB 162300Z 06009KT 15SM SKC 04/M03 A3014 RMK SLP211

CYQB;2009-10-17 00:00;CYQB 170000Z 06008KT 15SM SKC 03/M02 A3016 RMK SLP216

CYQB;2009-10-17 01:00;CYQB 170100Z 04008KT 15SM SKC 02/M02 A3017 RMK SLP219

CYQB;2009-10-17 02:00;CYQB 170200Z 06006KT 15SM SKC 02/M04 A3018 RMK SLP224

CYQB;2009-10-17 03:00;CYQB 170300Z 07006KT 15SM SKC 01/M05 A3019 RMK SLP226

CYQB;2009-10-17 04:00;CYQB 170400Z 05006KT 15SM SKC 01/M06 A3019 RMK SLP227

CYQB;2009-10-17 05:00;CYQB 170500Z 03006KT 15SM SKC 01/M07 A3019 RMK SLP227

CYQB;2009-10-17 06:00;CYQB 170600Z 04004KT 15SM SKC M01/M06 A3020 RMK SLP230

CYQB;2009-10-17 07:00;CYQB 170700Z 02003KT 15SM SKC M01/M06 A3020 RMK SLP229

CYQB;2009-10-17 08:00;CYQB 170800Z 02003KT 15SM SKC M02/M07 A3019 RMK SLP227

CYQB;2009-10-17 09:00;CYQB 170900Z 36004KT 15SM SKC M01/M07 A3020 RMK SLP231

CYQB;2009-10-17 10:00;CYQB 171000Z 00000KT 15SM SKC M02/M07 A3023 RMK SLP241

CYQB;2009-10-17 11:00;CYQB 171100Z 36002KT 30SM SKC M02/M07 A3025 RMK SLP246

CYQB;2009-10-17 12:00;CYQB 171200Z 03004KT 50SM FEW030 M02/M06 A3026 RMK SC1 SLP251

CYQB;2009-10-17 13:00;CYQB 171300Z 04003KT 50SM FEW010 FEW030 FEW150 01/M05 A3028 RMK SF1SC1AC1 SLP257

CYQB;2009-10-17 14:00;CYQB 171400Z 07006KT 50SM FEW020 FEW150 04/M03 A3028 RMK SC1AC1 SLP256

CYQB;2009-10-17 15:00;CYQB 171500Z 06011KT 50SM FEW025 FEW150 FEW250 05/M01 A3026 RMK SC1AC1CI1 SLP249

CYQB;2009-10-17 16:00;CYQB 171600Z 07011KT 50SM FEW030 SCT220 06/M02 A3025 RMK SC1CI1 SLP246

CYQB;2009-10-17 17:00;CYQB 171700Z 08009G15KT 50SM FEW030 BKN190 06/M03 A3024 RMK SC1CI2 SLP242

CYQB;2009-10-17 18:00;CYQB 171800Z 09009G18KT 50SM FEW030 BKN170 07/M04 A3023 RMK SC1CI5 SLP241

CYQB;2009-10-17 19:00;CYQB 171900Z 09013G18KT 50SM FEW050 BKN220 07/M07 A3024 RMK SC1CI3 SLP242

CYQB;2009-10-17 20:00;CYQB 172000Z 07012KT 50SM FEW050 BKN220 06/M05 A3024 RMK CU1CI3 SLP244

CYQB;2009-10-17 21:00;CYQB 172100Z 05011KT 50SM FEW050 FEW160 BKN220 06/M07 A3024 RMK CU1AC1CI2 SLP245

CYQB;2009-10-17 22:00;CYQB 172200Z 06007KT 25SM FEW160 SCT230 04/M05 A3025 RMK AC1CI1 SLP248

CYQB;2009-10-17 23:00;CYQB 172300Z 07004KT 15SM FEW120 SCT230 03/M05 A3026 RMK AC1CI1 SLP250

CYQB;2009-10-18 00:00;CYQB 180000Z 04006KT 15SM FEW120 03/M04 A3027 RMK AC1 SLP253

CYQB;2009-10-18 01:00;CYQB 180100Z 03003KT 15SM FEW120 02/M05 A3027 RMK AC1 SLP255

CYQB;2009-10-18 02:00;CYQB 180200Z 04005KT 15SM SKC 02/M05 A3028 RMK SLP258

CYQB;2009-10-18 03:00;CYQB 180300Z 04005KT 15SM SKC 01/M06 A3029 RMK SLP259

CYQB;2009-10-18 04:00;CYQB 180400Z 02004KT 15SM SKC 00/M06 A3029 RMK SLP261

CYQB;2009-10-18 05:00;CYQB 180500Z 02005KT 15SM SKC M00/M06 A3030 RMK SLP262

CYQB;2009-10-18 06:00;CYQB 180600Z 02006KT 15SM SKC M00/M06 A3030 RMK SLP262

CYQB;2009-10-18 07:00;CYQB 180700Z 02005KT 15SM SKC M01/M06 A3030 RMK SLP262

CYQB;2009-10-18 08:00;CYQB 180800Z 01004KT 15SM SKC M01/M06 A3030 RMK SLP264

CYQB;2009-10-18 09:00;CYQB 180900Z 36003KT 15SM SKC M02/M06 A3032 RMK SLP270

CYQB;2009-10-18 10:00;CYQB 181000Z 01005KT 15SM SKC M02/M06 A3030 RMK SLP263

CYQB;2009-10-18 11:00;CYQB 181100Z 02006KT 15SM FEW140 M02/M06 A3030 RMK AC1 SLP263

CYQB;2009-10-18 12:00;CYQB 181200Z 13002KT 30SM FEW140 FEW230 M02/M06 A3035 RMK AC1CI1 SLP281

CYQB;2009-10-18 13:00;CYQB 181300Z 04005KT 30SM FEW020 FEW230 02/M05 A3035 RMK CF1CI1 SLP280

CYQB;2009-10-18 14:00;CYQB 181400Z 07006KT 30SM FEW020 BKN240 04/M03 A3033 RMK CF1CI6 SLP275

CYQB;2009-10-18 15:00;CYQB 181500Z 09010G15KT 30SM FEW025 BKN200 05/M02 A3033 RMK SC1CI3 SLP275

CYQB;2009-10-18 16:00;CYQB 181600Z 08010G15KT 30SM FEW025 BKN210 06/M02 A3032 RMK CU1CI2 SLP270

CYQB;2009-10-18 17:00;CYQB 181700Z 07011G17KT 30SM FEW030 BKN220 06/M02 A3031 RMK CU1CI3 SLP267

CYQB;2009-10-18 18:00;CYQB 181800Z 09008G15KT 30SM FEW030 BKN200 07/M01 A3029 RMK CU2CI2 SLP260

CYQB;2009-10-18 19:00;CYQB 181900Z 08007KT 30SM FEW030 BKN220 07/M02 A3028 RMK CU1CI2 SLP258

CYQB;2009-10-18 20:00;CYQB 182000Z 09008KT 30SM FEW030 BKN230 07/M02 A3026 RMK CU1CI2 SLP250

CYQB;2009-10-18 21:00;CYQB 182100Z 09006KT 30SM FEW030 SCT240 06/M02 A3024 RMK CU1CI2 SLP243

CYQB;2009-10-18 22:00;CYQB 182200Z 07005KT 25SM SCT240 05/M03 A3023 RMK CI2 SLP240

CYQB;2009-10-18 23:00;CYQB 182300Z 07003KT 15SM SCT240 04/M03 A3022 RMK CI2 SLP235

CYQB;2009-10-19 00:00;CYQB 190000Z 07007KT 15SM FEW240 03/M01 A3023 RMK CI2 SLP240

CYQB;2009-10-19 01:00;CYQB 190100Z 05006KT 15SM FEW240 03/M01 A3022 RMK CI1 SLP238

CYQB;2009-10-19 02:00;CYQB 190200Z 05006KT 15SM BKN240 02/M01 A3021 RMK CI3 SLP235

CYQB;2009-10-19 03:00;CYQB 190300Z 36003KT 15SM SCT240 02/M02 A3020 RMK CI2 SLP231

CYQB;2009-10-19 04:00;CYQB 190400Z 01005KT 15SM BKN240 00/M04 A3019 RMK CI2 SLP225

CYQB;2009-10-19 05:00;CYQB 190500Z 01004KT 15SM BKN240 M00/M04 A3018 RMK CI4 SLP222

CYQB;2009-10-19 06:00;CYQB 190600Z 02004KT 15SM SKC M00/M04 A3017 RMK SLP220

CYQB;2009-10-19 07:00;CYQB 190700Z 36006KT 15SM SKC M00/M05 A3017 RMK SLP218

CYQB;2009-10-19 08:00;CYQB 190800Z 05004KT 15SM FEW080 M01/M05 A3017 RMK AC1 SLP218

CYQB;2009-10-19 09:00;CYQB 190900Z 01006KT 15SM FEW012 FEW080 M01/M05 A3017 RMK SF1AC1 SLP220

CYQB;2009-10-19 10:00;CYQB 191000Z 01005KT 15SM FEW015 M02/M05 A3018 RMK SF1 SLP224

CYQB;2009-10-19 11:00;CYQB 191100Z 36004KT 30SM FEW030 M02/M05 A3019 RMK SC1 SLP228

CYQB;2009-10-19 12:00;CYQB 191200Z 33002KT 30SM FEW030 M01/M05 A3020 RMK SC1 SLP232

CYQB;2009-10-19 13:00;CYQB 191300Z 00000KT 30SM FEW050 01/M04 A3020 RMK SC1 SLP230

CYQB;2009-10-19 14:00;CYQB 191400Z 27002KT 30SM FEW050 FEW240 03/M02 A3019 RMK SC1CI1 SLP227

CYQB;2009-10-19 15:00;CYQB 191500Z 20006KT 30SM FEW015 04/M00 A3018 RMK SC1 SLP222

CYQB;2009-10-19 16:00;CYQB 191600Z 22005KT 25SM FEW015 FEW080 04/00 A3016 RMK SC1AC1 SLP215

CYQB;2009-10-19 17:00;CYQB 191700Z 21004KT 25SM FEW100 06/M00 A3013 RMK AC1 SLP206

CYQB;2009-10-19 18:00;CYQB 191800Z 21010KT 25SM FEW100 07/M01 A3010 RMK AC1 SLP197

CYQB;2009-10-19 19:00;CYQB 191900Z 23009KT 25SM BKN120 08/M01 A3008 RMK AC6 SLP190

CYQB;2009-10-19 20:00;CYQB 192000Z 21008KT 25SM SCT100 08/M03 A3008 RMK AC4 SLP190

CYQB;2009-10-19 21:00;CYQB 192100Z 24004KT 25SM SCT100 08/M02 A3007 RMK AC2 SLP185

CYQB;2009-10-19 22:00;CYQB 192200Z 21002KT 15SM FEW100 06/M03 A3006 RMK AC2 SLP181

CYQB;2009-10-19 23:00;CYQB 192300Z 00000KT 15SM FEW100 04/M03 A3005 RMK AC2 SLP180

CYQB;2009-10-20 00:00;CYQB 200000Z 00000KT 15SM FEW100 02/M03 A3005 RMK AC1 SLP179

CYQB;2009-10-20 01:00;CYQB 200100Z 00000KT 15SM FEW100 02/M03 A3005 RMK AC1 SLP178

CYQB;2009-10-20 02:00;CYQB 200200Z 36002KT 15SM BKN083 02/M02 A3003 RMK AC6 SLP174

CYQB;2009-10-20 03:00;CYQB 200300Z 00000KT 15SM OVC082 03/M01 A3003 RMK AC8 SLP174

CYQB;2009-10-20 04:00;CYQB 200400Z 00000KT 15SM OVC085 03/M01 A3003 RMK AC8 SLP173

CYQB;2009-10-20 05:00;CYQB 200500Z 06002KT 15SM OVC075 04/M00 A3002 RMK AC8 SLP169

CYQB;2009-10-20 06:00;CYQB 200600Z 00000KT 15SM OVC094 04/M01 A3000 RMK AC8 SLP162

CYQB;2009-10-20 07:00;CYQB 200700Z 01002KT 15SM OVC080 04/M01 A2998 RMK AC8 SLP156

CYQB;2009-10-20 07:48;CYQB 200748Z 28002KT 15SM -SHRA SCT043 OVC080 04/ RMK SC3AC5

CYQB;2009-10-20 08:00;CYQB 200800Z 29002KT 10SM -SHRA BKN041 OVC080 04/01 A2998 RMK SC5AC3 SLP156

CYQB;2009-10-20 09:00;CYQB 200900Z 00000KT 15SM -SHRA SCT040 OVC062 04/02 A2997 RMK SC3SC5 SLP150

CYQB;2009-10-20 10:00;CYQB 201000Z 14002KT 15SM BKN035 OVC058 04/02 A2997 RMK SC6SC2 OCNL -SHRA SLP150

CYQB;2009-10-20 10:33;CYQB 201033Z 00000KT 15SM BKN042 OVC060 04/ RMK SC6SC2

CYQB;2009-10-20 11:00;CYQB 201100Z 00000KT 15SM SCT028 OVC040 04/01 A2997 RMK SC4SC4 SLP150

CYQB;2009-10-20 12:00;CYQB 201200Z 00000KT 30SM BKN043 OVC060 04/02 A2997 RMK SC6SC2 SLP154

CYQB;2009-10-20 13:00;CYQB 201300Z 00000KT 30SM BKN038 OVC060 05/02 A2999 RMK SC6SC2 SLP158

CYQB;2009-10-20 14:00;CYQB 201400Z 00000KT 30SM BKN037 OVC060 06/03 A2999 RMK SC6SC2 SLP160

CYQB;2009-10-20 15:00;CYQB 201500Z 00000KT 30SM OVC037 06/03 A2999 RMK SC8 SLP158

CYQB;2009-10-20 16:00;CYQB 201600Z 24004KT 30SM OVC033 07/03 A2998 RMK SC8 SLP156

CYQB;2009-10-20 17:00;CYQB 201700Z 25003KT 30SM OVC031 07/02 A2998 RMK SC8 SLP155

CYQB;2009-10-20 18:00;CYQB 201800Z 24006KT 30SM OVC034 07/04 A2998 RMK SC8 SLP154

CYQB;2009-10-20 19:00;CYQB 201900Z 26006KT 30SM OVC039 08/04 A2999 RMK SC8 SLP157

CYQB;2009-10-20 20:00;CYQB 202000Z 26011KT 30SM OVC036 08/05 A3000 RMK SC8 SLP161

CYQB;2009-10-20 21:00;CYQB 202100Z 27007KT 30SM SCT035 OVC070 08/05 A3001 RMK SC3AC5 SLP164

CYQB;2009-10-20 21:18;CYQB 202118Z 28006KT 15SM -SHRA BKN032 OVC070 08/ RMK SC6AC2

CYQB;2009-10-20 22:00;CYQB 202200Z 25010KT 15SM FEW030 BKN075 08/05 A3002 RMK SC2AC5 SLP168

CYQB;2009-10-20 23:00;CYQB 202300Z 26010KT 15SM FEW030 BKN070 07/05 A3004 RMK SC1AC3 SLP176

CYQB;2009-10-21 00:00;CYQB 210000Z 18005KT 15SM FEW035 BKN070 07/05 A3007 RMK SC2AC2 SLP185

CYQB;2009-10-21 01:00;CYQB 210100Z 30007KT 15SM FEW030 SCT070 06/03 A3008 RMK SC1AC1 SLP189

CYQB;2009-10-21 02:00;CYQB 210200Z 30005KT 15SM FEW070 05/02 A3009 RMK AC1 SLP191

CYQB;2009-10-21 03:00;CYQB 210300Z 24004KT 15SM SKC 03/01 A3010 RMK SLP197

CYQB;2009-10-21 04:00;CYQB 210400Z 25004KT 15SM SCT210 02/01 A3012 RMK CI3 SLP202

CYQB;2009-10-21 05:00;CYQB 210500Z 29005KT 15SM FEW210 00/M01 A3013 RMK CI2 SLP205

CYQB;2009-10-21 06:00;CYQB 210600Z 31006KT 15SM BKN210 02/01 A3013 RMK CS7 SLP205

CYQB;2009-10-21 07:00;CYQB 210700Z 31006KT 15SM BKN190 03/01 A3014 RMK AC6 SLP210

CYQB;2009-10-21 08:00;CYQB 210800Z 33005KT 15SM BKN160 04/01 A3014 RMK AC7 SLP208

CYQB;2009-10-21 09:00;CYQB 210900Z 31008KT 15SM FEW190 04/00 A3015 RMK AC2 SLP212

CYQB;2009-10-21 10:00;CYQB 211000Z 33006KT 15SM FEW190 02/M01 A3017 RMK AC1 SLP217

CYQB;2009-10-21 11:00;CYQB 211100Z 29007KT 20SM FEW040 FEW190 00/M02 A3018 RMK SC1AC1 SLP222

CYQB;2009-10-21 12:00;CYQB 211200Z 27006KT 30SM FEW030 BKN240 01/M00 A3018 RMK SC1CI2 SLP224

CYQB;2009-10-21 13:00;CYQB 211300Z 31005KT 30SM FEW040 BKN240 04/01 A3019 RMK SC1CI0 SLP228

CYQB;2009-10-21 14:00;CYQB 211400Z 31009KT 30SM FEW040 SCT240 05/M01 A3021 RMK SC1CI0 SLP233

CYQB;2009-10-21 15:00;CYQB 211500Z 31008KT 30SM FEW030 FEW240 06/M01 A3020 RMK SC1CI0 SLP231

CYQB;2009-10-21 16:00;CYQB 211600Z 33005KT 30SM FEW030 BKN140 07/M02 A3020 RMK SC1AC6 SLP229

CYQB;2009-10-21 17:00;CYQB 211700Z 29007KT 30SM FEW030 FEW240 08/M03 A3020 RMK SC1CI0 SLP229

CYQB;2009-10-21 18:00;CYQB 211800Z 29007KT 30SM FEW030 BKN240 08/M03 A3019 RMK SC1CI4 SLP225

CYQB;2009-10-21 19:00;CYQB 211900Z CCA 31009KT 30SM FEW030 BKN240 08/M04 A3017 RMK SC1CI3 OBS TAKEN +35 SLP219

CYQB;2009-10-21 20:00;CYQB 212000Z CCA 33007KT 30SM FEW030 FEW080 BKN240 08/M04 A3018 RMK SC1AC1CI2 SLP224

CYQB;2009-10-21 21:00;CYQB 212100Z 32006KT 30SM FEW030 FEW080 BKN240 07/M04 A3016 RMK SC1AC1CI2 SLP217

CYQB;2009-10-21 22:00;CYQB 212200Z 31005KT 30SM FEW080 BKN240 05/M03 A3017 RMK AC1CI2 SLP220

CYQB;2009-10-21 23:00;CYQB 212300Z 33006KT 30SM SCT240 04/M04 A3018 RMK CI2 SLP223

CYQB;2009-10-22 00:00;CYQB 220000Z 35007KT 15SM FEW120 FEW240 04/M04 A3019 RMK AC1CI1 SLP225

CYQB;2009-10-22 01:00;CYQB 220100Z 36004KT 15SM FEW080 03/M03 A3018 RMK AC2 SLP224

CYQB;2009-10-22 02:00;CYQB 220200Z 02004KT 15SM OVC120 03/M02 A3018 RMK AC8 SLP224

CYQB;2009-10-22 03:00;CYQB 220300Z 06008KT 15SM OVC110 04/M02 A3019 RMK AC8 SLP225

CYQB;2009-10-22 04:00;CYQB 220400Z 06008KT 15SM OVC100 03/M03 A3016 RMK AC8 SLP217

CYQB;2009-10-22 05:00;CYQB 220500Z 06007KT 15SM OVC075 03/M02 A3016 RMK AC8 SLP215

CYQB;2009-10-22 06:00;CYQB 220600Z 09007KT 15SM OVC056 03/M04 A3016 RMK SC8 SLP215

CYQB;2009-10-22 07:00;CYQB 220700Z 09008KT 15SM OVC061 03/M04 A3014 RMK SC8 SLP209

CYQB;2009-10-22 08:00;CYQB 220800Z 07008KT 15SM OVC028 03/M03 A3012 RMK SC8 SLP202

CYQB;2009-10-22 08:19;CYQB 220819Z 08015KT 6SM -SN OVC020 02/ RMK SC8

CYQB;2009-10-22 09:00;CYQB 220900Z 09007G15KT 1 1/2SM -SN VV009 01/M00 A3011 RMK SN8 SLP200

CYQB;2009-10-22 10:00;CYQB 221000Z 08007KT 1 1/2SM -SN VV006 00/M00 A3010 RMK SN8 SLP197

CYQB;2009-10-22 11:00;CYQB 221100Z 07008KT 1SM R06/P6000FT/D -SN VV004 00/00 A3008 RMK SN8 SLP191

CYQB;2009-10-22 12:00;CYQB 221200Z 07009KT 1SM R06/6000FT/N -SN VV003 00/00 A3007 RMK SN8 SLP185

CYQB;2009-10-22 13:00;CYQB 221300Z 07012G18KT 1 1/2SM -SN OVC005 00/00 A3003 RMK SN2SF6 SLP173

CYQB;2009-10-22 14:00;CYQB 221400Z 07012G20KT 1SM R06/P6000FT/N -SN BKN005 OVC011 00/00 A3000 RMK SN1SF5SC2 SLP161

CYQB;2009-10-22 14:29;CYQB 221429Z 07016G22KT 1SM R06/P6000FT/N -RA BR BKN005 OVC009 01/ RMK FG1SF6SF1

CYQB;2009-10-22 15:00;CYQB 221500Z 07016G24KT 1 1/2SM -RA BR BKN006 OVC010 01/00 A2995 RMK FG1SF6SF1 SLP146

CYQB;2009-10-22 16:00;CYQB 221600Z 06018G24KT 1 1/2SM -RA BR BKN005 OVC010 01/00 A2992 RMK FG1SF6SF1 SLP135

CYQB;2009-10-22 16:29;CYQB 221629Z 07017KT 1 1/2SM -RAPL BR BKN006 OVC016 00/ RMK FG1SF6NS1

CYQB;2009-10-22 17:00;CYQB 221700Z 07013G21KT 1 1/2SM -RAPL BR BKN006 OVC013 00/M00 A2989 RMK FG1SF6NS1 SLP125

CYQB;2009-10-22 17:18;CYQB 221718Z 07018KT 1 1/2SM -SNPL BR BKN006 OVC010 00/ RMK FG1SF6NS1

CYQB;2009-10-22 18:00;CYQB 221800Z 06016KT 3/4SM R06/4000V5500FT/N -SNPL BR VV006 00/M00 A2986 RMK SN8 SLP114

CYQB;2009-10-22 18:25;CYQB 221825Z 05013G19KT 1/2SM R06/4000FT/D SN VV004 00/ RMK SN8

CYQB;2009-10-22 19:00;CYQB 221900Z 05014G19KT 1/2SM R06/4000V5500FT/U SN VV007 00/M00 A2984 RMK SN8 SLP107

CYQB;2009-10-22 20:00;CYQB 222000Z CCA 05012G18KT 1/2SM R06/5500FT/N SN VV010 00/M00 A2984 RMK SN8 CIG VRB 8-12 SLP109

CYQB;2009-10-22 20:20;CYQB 222020Z 05011G17KT 1/4SM R06/2800FT/N +SN VV004 00/ RMK SN8 CIG VRB 3-5 /S02/

CYQB;2009-10-22 21:00;CYQB 222100Z 03010G15KT 3/8SM R06/3500FT/N SN VV004 00/00 A2986 RESN RMK SN8 CIG VRB 3-5 /S05/ SLP117

CYQB;2009-10-22 21:40;CYQB 222140Z 01008KT 1SM R06/5500FT/U -SN BKN007 OVC012 00/ RESN RMK SF6SC2

CYQB;2009-10-22 22:00;CYQB 222200Z 02005KT 1 1/2SM -SN VV009 00/00 A2989 RESN RMK SN8 CIG VRB 7-11 /S10/ SLP124

CYQB;2009-10-22 23:00;CYQB 222300Z 33003KT 5SM -SN OVC043 00/00 A2993 RMK SC8 SLP138

CYQB;2009-10-23 00:00;CYQB 230000Z 00000KT 10SM -SN SCT040 OVC050 01/01 A2997 RMK SC3SC5 SLP151

CYQB;2009-10-23 00:14;CYQB 230014Z 32003KT 10SM OVC050 01/ RMK SC8

CYQB;2009-10-23 01:00;CYQB 230100Z 31002KT 10SM FEW040 OVC050 M00/M01 A2999 RMK SC2SC6 SLP160

CYQB;2009-10-23 02:00;CYQB 230200Z 32005KT 15SM FEW040 M02/M03 A3006 RMK SC2 SLP184

CYQB;2009-10-23 03:00;CYQB 230300Z 01002KT 15SM FEW040 00/M03 A3007 RMK SC1 SLP185

CYQB;2009-10-23 04:00;CYQB 230400Z 33005KT 15SM FEW040 M00/M03 A3010 RMK SC1 SLP197

CYQB;2009-10-23 05:00;CYQB 230500Z 00000KT 15SM SCT037 M03/M04 A3013 RMK SC3 SLP206

CYQB;2009-10-23 06:00;CYQB 230600Z 32002KT 15SM FEW035 M03/M04 A3014 RMK SC2 SLP210

CYQB;2009-10-23 07:00;CYQB 230700Z 31004KT 15SM BKN033 M02/M04 A3016 RMK SC7 SLP216

CYQB;2009-10-23 08:00;CYQB 230800Z 32004KT 15SM FEW033 M02/M04 A3018 RMK SC2 SLP224

CYQB;2009-10-23 09:00;CYQB 230900Z 32003KT 15SM FEW035 M02/M04 A3021 RMK SC2 SLP233

CYQB;2009-10-23 10:00;CYQB 231000Z 34006KT 15SM FEW035 FEW200 M02/M04 A3024 RMK SC1CI1 SLP244

CYQB;2009-10-23 11:00;CYQB 231100Z 33005KT 20SM FEW035 FEW200 M04/M06 A3026 RMK SC1CI1 SLP252

CYQB;2009-10-23 12:00;CYQB 231200Z 02002KT 30SM FEW035 SCT240 M02/M06 A3028 RMK SC1CI0 SLP259

CYQB;2009-10-23 13:00;CYQB 231300Z 01005KT 30SM FEW035 FEW240 M02/M05 A3032 RMK SC1CI0 SLP272

CYQB;2009-10-23 14:00;CYQB 231400Z 00000KT 30SM FEW030 FEW240 M01/M05 A3033 RMK SC1CI0 SLP275

CYQB;2009-10-23 15:00;CYQB 231500Z 00000KT 30SM FEW030 SCT240 00/M04 A3033 RMK SC1CI0 SLP273

CYQB;2009-10-23 16:00;CYQB 231600Z 11003KT 30SM FEW030 FEW240 02/M03 A3032 RMK SC1CI0 SLP271

CYQB;2009-10-23 17:00;CYQB 231700Z 20002KT 30SM FEW030 FEW240 02/M02 A3031 RMK SC1CI0 SLP269

CYQB;2009-10-23 18:00;CYQB 231800Z 00000KT 30SM FEW030 FEW240 02/M03 A3030 RMK SC1CI0 SLP265

CYQB;2009-10-23 19:00;CYQB 231900Z 00000KT 30SM FEW030 FEW240 03/M02 A3030 RMK SC1CI0 SLP266

CYQB;2009-10-23 20:00;CYQB 232000Z 12003KT 30SM FEW030 BKN240 02/M04 A3029 RMK SC1CS3 SLP260

CYQB;2009-10-23 21:00;CYQB 232100Z 12003KT 30SM FEW110 OVC240 01/M03 A3029 RMK AC2CI2 SLP261

CYQB;2009-10-23 22:00;CYQB 232200Z 09003KT 30SM OVC240 01/M03 A3027 RMK CS4 SLP255

CYQB;2009-10-23 23:00;CYQB 232300Z 05006KT 15SM OVC240 01/M02 A3026 RMK CS4 SLP252

CYQB;2009-10-24 00:00;CYQB 240000Z 06006KT 15SM OVC240 01/M02 A3027 RMK CS8 SLP254

CYQB;2009-10-24 01:00;CYQB 240100Z 06006KT 15SM OVC210 01/M02 A3026 RMK CS8 SLP251

CYQB;2009-10-24 02:00;CYQB 240200Z 07010KT 15SM OVC180 01/M02 A3026 RMK AC8 SLP250

CYQB;2009-10-24 03:00;CYQB 240300Z 07013KT 15SM OVC130 01/M01 A3022 RMK AC8 SLP236

CYQB;2009-10-24 04:00;CYQB 240400Z 07015G20KT 15SM OVC120 01/M01 A3017 RMK AC8 SLP222

CYQB;2009-10-24 05:00;CYQB 240500Z 07011G21KT 15SM OVC080 02/M01 A3015 RMK AC8 SLP214

CYQB;2009-10-24 06:00;CYQB 240600Z 07012G17KT 15SM -RA OVC078 02/M00 A3011 RMK AC8 SLP200

CYQB;2009-10-24 07:00;CYQB 240700Z 08010G17KT 15SM -SN OVC024 02/M00 A3010 RMK SC8 SLP195

CYQB;2009-10-24 07:26;CYQB 240726Z 08010KT 3SM R06/5500FT/D -SN OVC012 RMK SC8

CYQB;2009-10-24 07:30;CYQB 240730Z CCA 08010KT 3SM -SN OVC012 01/ RMK SC8

CYQB;2009-10-24 08:00;CYQB 240800Z 07009KT 10SM -RA OVC029 01/00 A3009 RMK SC8 SLP193

CYQB;2009-10-24 08:41;CYQB 240841Z 08010G18KT 6SM -RAPL BKN004 OVC029 00/ RMK SF6SC2

CYQB;2009-10-24 09:00;CYQB 240900Z 07011G16KT 4SM -SNPL BKN004 OVC010 01/00 A3005 RMK CF6SC2 OBS TAKEN +15 SLP178

CYQB;2009-10-24 10:00;CYQB 241000Z 09006G15KT 4SM -RAPLSN BKN004 OVC009 00/00 A3003 RMK SF7ST1 SLP173

CYQB;2009-10-24 10:41;CYQB 241041Z 08012KT 4SM -RA BKN004 OVC009 01/ RMK SF7ST1 OCNL -PL

CYQB;2009-10-24 11:00;CYQB 241100Z 08011G16KT 4SM -RADZ OVC004 01/00 A3000 RMK SF8 SLP164

CYQB;2009-10-24 11:53;CYQB 241153Z 07012KT 2SM -RA BR BKN003 OVC011 01/ RMK SF7ST1

CYQB;2009-10-24 12:00;CYQB 241200Z 08010G19KT 2SM R06/6000FT/U -RA BR BKN003 OVC011 01/01 A2998 RMK SF7ST1 SLP156

CYQB;2009-10-24 12:32;CYQB 241232Z 08013G20KT 3SM -RA BR BKN004 OVC011 01/ RMK SF7ST1

CYQB;2009-10-24 13:00;CYQB 241300Z 08010G15KT 3SM -RA BR OVC004 01/01 A2996 RMK SF8 SLP148

CYQB;2009-10-24 14:00;CYQB 241400Z 09009KT 3SM -RA BR OVC004 02/01 A2994 RMK SF8 SLP141

CYQB;2009-10-24 15:00;CYQB 241500Z 09009G15KT 3SM -RA BR OVC004 02/02 A2991 RMK SF8 SLP132

CYQB;2009-10-24 16:00;CYQB 241600Z 09008KT 2SM R06/5500FT/D -RA BR OVC003 02/02 A2988 RMK SF8 SLP121

CYQB;2009-10-24 17:00;CYQB 241700Z 08010G18KT 2SM -DZ BR OVC004 03/02 A2984 RMK SF8 SLP108

CYQB;2009-10-24 18:00;CYQB 241800Z 07014G21KT 2SM -RADZ BR OVC003 03/03 A2979 RMK SF8 SLP091

CYQB;2009-10-24 19:00;CYQB 241900Z 08009G18KT 6SM -RA BR BKN004 OVC012 03/03 A2976 RMK SF5SC3 SLP082

CYQB;2009-10-24 19:44;CYQB 241944Z 09012G24KT 2SM -RA BR OVC004 03/ RMK SF8

CYQB;2009-10-24 20:00;CYQB 242000Z 07008KT 4SM -RA BR OVC005 03/03 A2976 RMK SF8 SLP081

CYQB;2009-10-24 20:08;CYQB 242008Z 06015KT 5SM BR FEW005 OVC026 04/ RMK SF2SC6

CYQB;2009-10-24 20:17;CYQB 242017Z 07016KT 4SM -RA BR FEW005 OVC028 04/ RMK SF2SC6

CYQB;2009-10-24 21:00;CYQB 242100Z 07013G20KT 2SM -RA BR FEW005 OVC015 04/03 A2970 RMK SF2SC6 SLP060

CYQB;2009-10-24 22:00;CYQB 242200Z 08009G17KT 2SM -RA BR BKN006 OVC015 04/03 A2968 RMK SF6SC2 SLP053

CYQB;2009-10-24 23:00;CYQB 242300Z 07013KT 4SM BR FEW006 OVC017 04/04 A2966 RMK SF2SC6 SLP047

CYQB;2009-10-25 00:00;CYQB 250000Z 07012G19KT 4SM BR FEW006 OVC016 04/04 A2965 RMK SF2SC6 SLP043

CYQB;2009-10-25 00:18;CYQB 250018Z 07011G16KT 3SM -RA BR FEW005 OVC016 04/ RMK SF2SC6

CYQB;2009-10-25 00:29;CYQB 250029Z 08011KT 3SM -RA BR BKN005 OVC016 04/ RMK SF5SC3

CYQB;2009-10-25 01:00;CYQB 250100Z 07009G15KT 4SM -RA BR BKN005 OVC015 04/04 A2964 RMK SF6SC2 SLP040

CYQB;2009-10-25 02:00;CYQB 250200Z 06009KT 6SM -RA BR BKN004 OVC012 05/04 A2963 RMK SF6SC2 SLP038

CYQB;2009-10-25 03:00;CYQB 250300Z 05005KT 3SM -RA BR BKN004 OVC012 05/04 A2964 RMK SF7SC1 SLP039

CYQB;2009-10-25 04:00;CYQB 250400Z 06006KT 6SM BR OVC004 05/05 A2962 RMK SF8 SLP034

CYQB;2009-10-25 05:00;CYQB 250500Z 04005KT 6SM BR BKN005 OVC012 04/04 A2960 RMK SF6SC2 SLP025

CYQB;2009-10-25 06:00;CYQB 250600Z 04002KT 15SM BKN005 OVC010 05/05 A2960 RMK SF7SC1 SLP026

CYQB;2009-10-25 07:00;CYQB 250700Z 27003KT 15SM OVC004 04/04 A2964 RMK SF8 SLP039

CYQB;2009-10-25 07:08;CYQB 250708Z 30003KT 10SM -RA OVC004 04/ RMK SF8

CYQB;2009-10-25 07:35;CYQB 250735Z 29002KT 6SM -RA OVC003 04/ RMK SF8

CYQB;2009-10-25 08:00;CYQB 250800Z 00000KT 1/2SM R06/3500VP6000FT/D FG OVC009 04/04 A2964 RMK FG3SF5 VIS E HIER SLP039

CYQB;2009-10-25 09:00;CYQB 250900Z 24007KT 6SM BR OVC006 05/05 A2966 RMK SF8 SLP045

CYQB;2009-10-25 10:00;CYQB 251000Z 27005KT 6SM BR OVC004 06/06 A2967 RMK SF8 SLP051

CYQB;2009-10-25 11:00;CYQB 251100Z 26008KT 2SM BR OVC005 06/06 A2971 RMK SF8 SLP062

CYQB;2009-10-25 11:27;CYQB 251127Z 26007KT 3SM BR OVC008 07/ RMK SF8

CYQB;2009-10-25 12:00;CYQB 251200Z 26008KT 6SM BR BKN009 OVC046 07/07 A2974 RMK SF7SC1 SLP072

CYQB;2009-10-25 13:00;CYQB 251300Z 26012KT 15SM BKN010 BKN018 BKN030 07/06 A2977 RMK SF5SC2SC1 SLP083

CYQB;2009-10-25 13:26;CYQB 251326Z 27016G21KT 6SM -SHRA BR BKN015 BKN026 07/ RMK SC6SC2

CYQB;2009-10-25 14:00;CYQB 251400Z 27017KT 10SM BKN010 BKN034 07/06 A2979 RMK SC5SC2 SLP090

CYQB;2009-10-25 15:00;CYQB 251500Z 27022G27KT 30SM FEW010 BKN035 07/03 A2983 RMK SF1SC4 SLP103

CYQB;2009-10-25 16:00;CYQB 251600Z 26016G26KT 30SM BKN035 07/02 A2986 RMK SC6 SLP115

CYQB;2009-10-25 17:00;CYQB 251700Z 27016G26KT 30SM BKN040 08/02 A2988 RMK SC6 SLP120

CYQB;2009-10-25 18:00;CYQB 251800Z 25021G27KT 30SM BKN043 08/01 A2989 RMK SC6 SLP123

CYQB;2009-10-25 19:00;CYQB 251900Z 25019G26KT 30SM BKN047 10/01 A2991 RMK SC6 SLP132

CYQB;2009-10-25 20:00;CYQB 252000Z 27020G28KT 30SM SCT045 09/00 A2993 RMK SC4 SLP138

CYQB;2009-10-25 21:00;CYQB 252100Z 26015G25KT 30SM BKN051 08/M01 A2995 RMK SC5 SLP144

CYQB;2009-10-25 22:00;CYQB 252200Z 27012G21KT 15SM SCT055 07/M00 A2999 RMK SC4 SLP158

CYQB;2009-10-25 23:00;CYQB 252300Z 28013G21KT 15SM FEW060 06/M02 A3003 RMK SC2 SLP172

CYQB;2009-10-26 00:00;CYQB 260000Z 29009G17KT 15SM BKN052 05/M02 A3006 RMK SC5 SLP182

CYQB;2009-10-26 01:00;CYQB 260100Z 24011KT 15SM FEW050 04/M04 A3008 RMK SC2 SLP187

CYQB;2009-10-26 02:00;CYQB 260200Z 23010KT 15SM SCT050 04/M04 A3009 RMK SC3 SLP191

CYQB;2009-10-26 03:00;CYQB 260300Z 23010KT 15SM SCT047 03/M03 A3010 RMK SC3 SLP197

CYQB;2009-10-26 04:00;CYQB 260400Z 23013G19KT 15SM SKC 03/M03 A3011 RMK SLP199

CYQB;2009-10-26 05:00;CYQB 260500Z 24012KT 15SM SKC 02/M03 A3013 RMK SLP206

CYQB;2009-10-26 06:00;CYQB 260600Z 25013KT 15SM SKC 01/M03 A3014 RMK SLP211

CYQB;2009-10-26 07:00;CYQB 260700Z 24013KT 15SM SKC 01/M03 A3017 RMK SLP219

CYQB;2009-10-26 08:00;CYQB 260800Z 25013KT 15SM SKC 01/M03 A3018 RMK SLP222

CYQB;2009-10-26 09:00;CYQB 260900Z 27010KT 15SM FEW035 00/M03 A3022 RMK SC2 SLP236

CYQB;2009-10-26 10:00;CYQB 261000Z 22004KT 15SM BKN039 M00/M03 A3025 RMK SC5 SLP246

CYQB;2009-10-26 11:00;CYQB 261100Z 29007KT 30SM BKN040 01/M05 A3027 RMK SC5 SLP252

CYQB;2009-10-26 12:00;CYQB 261200Z 28006KT 30SM BKN036 01/M05 A3030 RMK SC5 SLP264

CYQB;2009-10-26 13:00;CYQB 261300Z 30006KT 30SM FEW036 FEW230 02/M05 A3031 RMK SC1CI0 SLP267

CYQB;2009-10-26 14:00;CYQB 261400Z 34007KT 30SM FEW036 FEW230 03/M06 A3034 RMK SC1CI1 SLP277

CYQB;2009-10-26 15:00;CYQB 261500Z 31008KT 30SM FEW040 05/M05 A3033 RMK SC1 SLP275

CYQB;2009-10-26 16:00;CYQB 261600Z 23005KT 30SM FEW040 FEW230 06/M05 A3035 RMK SC1CI0 SLP281

CYQB;2009-10-26 17:00;CYQB 261700Z 26007KT 30SM FEW230 06/M05 A3035 RMK CI0 SLP279

CYQB;2009-10-26 18:00;CYQB 261800Z 24011KT 30SM FEW230 07/M04 A3034 RMK CI0 SLP278

CYQB;2009-10-26 19:00;CYQB 261900Z 23011KT 30SM BKN230 07/M05 A3035 RMK CI1 SLP280

CYQB;2009-10-26 20:00;CYQB 262000Z 22010KT 30SM BKN160 06/M04 A3035 RMK AC2 SLP280

CYQB;2009-10-26 21:00;CYQB 262100Z 23008KT 30SM FEW160 BKN230 06/M04 A3035 RMK AC1CI1 SLP281

CYQB;2009-10-26 22:00;CYQB 262200Z 24007KT 15SM FEW140 SCT230 05/M04 A3035 RMK AC1CI0 SLP281

CYQB;2009-10-26 23:00;CYQB 262300Z 25008KT 15SM FEW140 BKN230 04/M04 A3036 RMK AC1CI2 SLP283

CYQB;2009-10-27 00:00;CYQB 270000Z 27006KT 15SM SCT120 BKN230 03/M03 A3037 RMK AC3CI0 SLP287

CYQB;2009-10-27 01:00;CYQB 270100Z 26004KT 15SM SCT130 BKN230 02/M04 A3037 RMK AC3CI0 SLP288

CYQB;2009-10-27 02:00;CYQB 270200Z 31002KT 15SM SCT110 BKN230 01/M03 A3036 RMK AC3CI2 SLP284

CYQB;2009-10-27 03:00;CYQB 270300Z 24002KT 15SM OVC100 02/M03 A3038 RMK AC8 SLP290

CYQB;2009-10-27 04:00;CYQB 270400Z 02003KT 15SM OVC095 03/M04 A3037 RMK AC8 SLP287

CYQB;2009-10-27 05:00;CYQB 270500Z 04004KT 15SM OVC077 03/M02 A3036 RMK AC8 SLP285

CYQB;2009-10-27 06:00;CYQB 270600Z 07007KT 15SM OVC069 04/M02 A3036 RMK AC8 SLP282

CYQB;2009-10-27 07:00;CYQB 270700Z 08009G16KT 15SM OVC068 04/M02 A3036 RMK AC8 VIRGA SLP283

CYQB;2009-10-27 08:00;CYQB 270800Z 07012G17KT 15SM OVC060 04/M02 A3036 RMK SC8 VIRGA SLP284

CYQB;2009-10-27 08:43;CYQB 270843Z 07014G22KT 10SM -SHSN OVC045 03/ RMK SC8

CYQB;2009-10-27 09:00;CYQB 270900Z 07010G16KT 8SM -SHSN FEW008 OVC040 03/M02 A3034 RMK SF2SC6 SLP278

CYQB;2009-10-27 09:28;CYQB 270928Z 06017G22KT 2 1/2SM -SHSNPL FEW008 OVC035 02/ RMK SN2SF1SC6 VIS 4 SW

CYQB;2009-10-27 09:51;CYQB 270951Z 06016G22KT 6SM -SHSN FEW008 OVC060 01/ RMK SF1SC8

CYQB;2009-10-27 10:00;CYQB 271000Z 07016KT 6SM -SHSN FEW008 OVC056 01/M01 A3031 RMK SF1SC8 SLP266

CYQB;2009-10-27 10:32;CYQB 271032Z 07017KT 6SM -SHSN BKN008 OVC060 01/ RMK SF6SC2

CYQB;2009-10-27 11:00;CYQB 271100Z 07013G20KT 8SM BKN011 BKN025 OVC110 01/M00 A3029 RMK SF6SC2AC1 SLP260

CYQB;2009-10-27 12:00;CYQB 271200Z 08016G25KT 15SM OVC010 01/M00 A3029 RMK SC8 SLP260

CYQB;2009-10-27 12:30;CYQB 271230Z 06020G25KT 15SM OVC008 01/ RMK SC8

CYQB;2009-10-27 13:00;CYQB 271300Z 07018KT 15SM OVC008 01/M00 A3027 RMK SC8 SLP255

CYQB;2009-10-27 13:32;CYQB 271332Z 07017G26KT 15SM SCT008 OVC150 02/ RMK SF3AC5

CYQB;2009-10-27 14:00;CYQB 271400Z 08015KT 15SM BKN010 OVC150 02/M00 A3025 RMK SF5AC3 SLP246

CYQB;2009-10-27 15:00;CYQB 271500Z 08019KT 15SM FEW010 BKN150 OVC210 02/M00 A3021 RMK SF2AC5CI2 SLP234

CYQB;2009-10-27 16:00;CYQB 271600Z 07016G21KT 15SM FEW010 FEW085 BKN150 OVC210 03/M01 A3021 RMK SF2AC1AC5CI1 SLP232

CYQB;2009-10-27 17:00;CYQB 271700Z 07014G19KT 15SM OVC140 03/M01 A3018 RMK AC8 SLP223

CYQB;2009-10-27 18:00;CYQB 271800Z 07018KT 15SM OVC100 03/M01 A3015 RMK AC8 SLP212

CYQB;2009-10-27 19:00;CYQB 271900Z 07013G18KT 5SM -SHRASN FEW015 OVC025 03/M01 A3015 RMK SC1SC8 SLP214

CYQB;2009-10-27 19:25;CYQB 271925Z 07014G20KT 4SM -SHSN OVC015 02/ RMK SC8 VIS N 21/2

CYQB;2009-10-27 20:00;CYQB 272000Z 07010KT 4SM -SHSN OVC015 02/00 A3015 RMK SC8 VIS N 21/2 SLP214

CYQB;2009-10-27 21:00;CYQB 272100Z CCA 06009KT 4SM -SHSN BKN015 OVC043 02/01 A3016 RMK SC6SC2 SLP215

CYQB;2009-10-27 22:00;CYQB 272200Z 07012KT 7SM -SHSN FEW006 OVC044 02/01 A3014 RMK SF1SC7 SLP211

CYQB;2009-10-27 23:00;CYQB 272300Z 06010G16KT 15SM FEW005 OVC045 02/01 A3014 RMK SF1SC7 OCNL -SHSN SLP209

CYQB;2009-10-28 00:00;CYQB 280000Z 07011KT 15SM SCT005 OVC045 02/01 A3015 RMK SF4SC4 SLP214

CYQB;2009-10-28 01:00;CYQB 280100Z 07008KT 15SM FEW005 OVC049 03/01 A3016 RMK SF2SC6 SLP215

CYQB;2009-10-28 01:12;CYQB 280112Z 06010KT 15SM FEW005 BKN011 OVC045 03/ RMK SF2SF2SC3

CYQB;2009-10-28 02:00;CYQB 280200Z 07010KT 15SM FEW011 OVC042 03/01 A3018 RMK SF2SC6 SLP223

CYQB;2009-10-28 03:00;CYQB 280300Z 07010G15KT 15SM FEW011 OVC048 03/01 A3018 RMK SF1SC7 SLP224

CYQB;2009-10-28 04:00;CYQB 280400Z 07011KT 15SM FEW010 OVC044 03/01 A3018 RMK SF1SC7 SLP222

CYQB;2009-10-28 05:00;CYQB 280500Z 07013KT 15SM FEW010 OVC046 03/01 A3015 RMK SF1SC7 SLP212

CYQB;2009-10-28 06:00;CYQB 280600Z 07012G18KT 15SM FEW010 OVC050 03/01 A3016 RMK SF1SC7 SLP217

CYQB;2009-10-28 07:00;CYQB 280700Z 07015KT 15SM FEW015 OVC048 03/00 A3017 RMK SF1SC7 SLP218

CYQB;2009-10-28 08:00;CYQB 280800Z 07012G19KT 15SM FEW010 OVC048 03/00 A3016 RMK ST1SC7 SLP215

CYQB;2009-10-28 09:00;CYQB 280900Z 07010KT 15SM FEW010 OVC051 03/00 A3017 RMK ST1SC7 SLP220

CYQB;2009-10-28 10:00;CYQB 281000Z 07014KT 15SM BKN049 03/00 A3018 RMK SC7 SLP223

CYQB;2009-10-28 11:00;CYQB 281100Z 07010G15KT 15SM FEW010 OVC050 03/00 A3020 RMK ST1SC7 SLP229

CYQB;2009-10-28 12:00;CYQB 281200Z 07013G22KT 15SM FEW010 SCT049 BKN120 OVC240 03/01 A3020 RMK ST1SC3AC2CI2 SLP230

CYQB;2009-10-28 13:00;CYQB 281300Z 07010G22KT 30SM FEW010 BKN012 OVC050 03/01 A3020 RMK ST1SC5SC2 SLP231

CYQB;2009-10-28 14:00;CYQB 281400Z 07019G30KT 30SM BKN014 OVC050 03/01 A3020 RMK SC6SC2 SLP229

CYQB;2009-10-28 15:00;CYQB 281500Z 07018G29KT 30SM BKN015 OVC050 04/01 A3017 RMK SC6SC2 SLP220

CYQB;2009-10-28 16:00;CYQB 281600Z 07022G27KT 30SM FEW015 OVC050 04/00 A3016 RMK SC2SC6 SLP216

CYQB;2009-10-28 17:00;CYQB 281700Z 07012G21KT 30SM FEW015 BKN048 OVC100 05/00 A3015 RMK SC1SC6AC2 SLP213

CYQB;2009-10-28 18:00;CYQB 281800Z 07017G22KT 30SM FEW015 OVC050 05/00 A3016 RMK SC1SC7 SLP216

CYQB;2009-10-28 19:00;CYQB 281900Z 06019G24KT 30SM FEW015 OVC050 04/00 A3016 RMK SC1SC7 SLP216

CYQB;2009-10-28 20:00;CYQB 282000Z 07016G22KT 30SM FEW015 OVC051 04/00 A3018 RMK SC1SC8 SLP223

CYQB;2009-10-28 21:00;CYQB 282100Z 06012G18KT 15SM FEW015 OVC050 04/00 A3020 RMK SC1SC8 SLP230

CYQB;2009-10-28 22:00;CYQB 282200Z 07015G22KT 15SM FEW015 OVC050 04/M00 A3021 RMK SC1SC8 SLP234

CYQB;2009-10-28 23:00;CYQB 282300Z 07014G24KT 15SM FEW015 OVC050 03/00 A3022 RMK SC1SC8 SLP238

CYQB;2009-10-29 00:00;CYQB 290000Z 07015G24KT 15SM OVC055 03/00 A3022 RMK SC7 SLP238

CYQB;2009-10-29 01:00;CYQB 290100Z 06015KT 15SM FEW015 OVC055 03/00 A3023 RMK CF1SC7 SLP240

CYQB;2009-10-29 02:00;CYQB 290200Z 07015KT 15SM FEW015 OVC052 03/00 A3024 RMK CF1SC7 SLP243

CYQB;2009-10-29 03:00;CYQB 290300Z 07016KT 15SM FEW015 OVC054 03/00 A3025 RMK CF1SC7 SLP246

CYQB;2009-10-29 04:00;CYQB 290400Z 07011G18KT 15SM FEW015 OVC052 03/00 A3026 RMK CF1SC7 SLP251

CYQB;2009-10-29 05:00;CYQB 290500Z 08010G15KT 15SM FEW015 OVC051 04/00 A3025 RMK CF1SC7 SLP248

CYQB;2009-10-29 06:00;CYQB 290600Z 07010KT 15SM FEW015 OVC049 04/00 A3026 RMK CF1SC7 SLP250

CYQB;2009-10-29 07:00;CYQB 290700Z 08009KT 15SM FEW010 OVC051 04/00 A3028 RMK CF1SC7 SLP258

CYQB;2009-10-29 08:00;CYQB 290800Z 09009KT 15SM FEW010 OVC051 04/01 A3029 RMK CF1SC7 SLP261

CYQB;2009-10-29 09:00;CYQB 290900Z 07009KT 15SM FEW010 OVC051 04/01 A3029 RMK CF1SC8 SLP261

CYQB;2009-10-29 10:00;CYQB 291000Z 05006KT 15SM FEW010 OVC051 04/01 A3032 RMK CF1SC8 SLP269

CYQB;2009-10-29 11:00;CYQB 291100Z 07006KT 15SM FEW010 OVC050 04/01 A3032 RMK CF1SC8 SLP270

CYQB;2009-10-29 12:00;CYQB 291200Z 07007KT 25SM FEW010 OVC051 04/02 A3032 RMK CF1SC8 SLP270

CYQB;2009-10-29 13:00;CYQB 291300Z 05004KT 25SM FEW010 OVC052 04/02 A3034 RMK CF1SC8 SLP278

CYQB;2009-10-29 14:00;CYQB 291400Z 07007KT 25SM FEW010 OVC052 04/02 A3035 RMK CF1SC8 SLP280

CYQB;2009-10-29 15:00;CYQB 291500Z 09005KT 25SM FEW010 OVC052 05/02 A3035 RMK CF1SC8 SLP281

CYQB;2009-10-29 16:00;CYQB 291600Z 07005KT 30SM OVC053 06/02 A3036 RMK SC8 SLP282

CYQB;2009-10-29 17:00;CYQB 291700Z 07005KT 30SM OVC054 06/02 A3033 RMK SC8 SLP275

CYQB;2009-10-29 18:00;CYQB 291800Z 06005KT 25SM OVC055 06/02 A3032 RMK SC8 SLP270

CYQB;2009-10-29 19:00;CYQB 291900Z 05004KT 25SM BKN055 06/02 A3030 RMK SC7 SLP265

CYQB;2009-10-29 20:00;CYQB 292000Z 06003KT 20SM BKN056 06/02 A3029 RMK SC7 SLP261

CYQB;2009-10-29 21:00;CYQB 292100Z 06005KT 20SM BKN056 05/03 A3030 RMK SC7 SLP265

CYQB;2009-10-29 22:00;CYQB 292200Z 10003KT 20SM BKN056 05/03 A3032 RMK SC7 SLP270

CYQB;2009-10-29 23:00;CYQB 292300Z 05003KT 15SM BKN054 05/03 A3031 RMK SC7 SLP267

CYQB;2009-10-30 00:00;CYQB 300000Z 08003KT 15SM OVC053 05/03 A3033 RMK SC8 SLP275

CYQB;2009-10-30 01:00;CYQB 300100Z 00000KT 15SM OVC053 05/02 A3033 RMK SC8 SLP274

CYQB;2009-10-30 02:00;CYQB 300200Z 05002KT 15SM FEW015 BKN053 04/02 A3032 RMK SC1SC6 SLP269

CYQB;2009-10-30 03:00;CYQB 300300Z 36002KT 15SM FEW015 FEW054 04/02 A3032 RMK SC1SC2 SLP269

CYQB;2009-10-30 04:00;CYQB 300400Z 02002KT 15SM FEW015 BKN052 02/01 A3031 RMK SC1SC5 SLP266

CYQB;2009-10-30 05:00;CYQB 300500Z 00000KT 15SM FEW015 FEW052 01/00 A3030 RMK SC1SC2 SLP262

CYQB;2009-10-30 06:00;CYQB 300600Z 36002KT 10SM FEW015 00/M00 A3028 RMK SC1 SLP256

CYQB;2009-10-30 07:00;CYQB 300700Z 35003KT 12SM FEW050 00/M00 A3028 RMK SC1 SLP257

CYQB;2009-10-30 08:00;CYQB 300800Z 01002KT 12SM SCT030 BKN047 01/01 A3028 RMK SC3SC1 SLP257

CYQB;2009-10-30 09:00;CYQB 300900Z 36003KT 10SM BKN029 02/01 A3028 RMK SC6 SLP258

CYQB;2009-10-30 10:00;CYQB 301000Z 04003KT 10SM SCT030 OVC046 03/02 A3028 RMK SC3SC5 SLP257

CYQB;2009-10-30 11:00;CYQB 301100Z 36003KT 15SM FEW030 BKN045 02/01 A3026 RMK SC2SC4 SLP250

CYQB;2009-10-30 12:00;CYQB 301200Z 29002KT 20SM BKN022 02/02 A3026 RMK SC7 SLP251

CYQB;2009-10-30 13:00;CYQB 301300Z 09002KT 20SM OVC021 04/03 A3025 RMK SC8 SLP247

CYQB;2009-10-30 14:00;CYQB 301400Z 08003KT 15SM OVC017 05/03 A3023 RMK SC8 SLP240

CYQB;2009-10-30 15:00;CYQB 301500Z 06004KT 20SM FEW023 OVC037 06/03 A3022 RMK SC2SC6 SLP235

CYQB;2009-10-30 16:00;CYQB 301600Z 07005KT 20SM OVC040 07/04 A3019 RMK SC8 SLP227

CYQB;2009-10-30 17:00;CYQB 301700Z 08005KT 20SM OVC040 08/04 A3015 RMK SC8 SLP214

CYQB;2009-10-30 18:00;CYQB 301800Z 05004KT 25SM OVC039 09/04 A3014 RMK SC8 SLP208

CYQB;2009-10-30 19:00;CYQB 301900Z 06004KT 20SM OVC034 09/05 A3010 RMK SC8 SLP197

CYQB;2009-10-30 20:00;CYQB 302000Z 05006KT 20SM OVC030 09/05 A3008 RMK SC8 SLP188

CYQB;2009-10-30 21:00;CYQB 302100Z 05004KT 15SM OVC038 09/05 A3005 RMK SC8 SLP178

CYQB;2009-10-30 22:00;CYQB 302200Z 05004KT 15SM OVC038 09/05 A3002 RMK SC8 SLP169

CYQB;2009-10-30 22:34;CYQB 302234Z 36003KT 15SM -SHRA OVC037 09/ RMK SC8

CYQB;2009-10-30 23:00;CYQB 302300Z CCA 05003KT 12SM -SHRA OVC036 09/06 A2999 RMK SC8 SLP159

CYQB;2009-10-31 00:00;CYQB 310000Z 34002KT 12SM -SHRA OVC034 09/06 A2998 RMK SC8 SLP156

CYQB;2009-10-31 01:00;CYQB 310100Z 06004KT 5SM -SHRA BR OVC028 08/07 A2993 RMK SC8 SLP138

CYQB;2009-10-31 02:00;CYQB 310200Z 35003KT 12SM -SHRA BKN020 OVC120 08/08 A2991 RMK SC5AC3 SLP132

CYQB;2009-10-31 03:00;CYQB 310300Z 07003KT 12SM -SHRA FEW020 BKN031 OVC050 08/08 A2989 RMK SC2SC4SC2 SLP122

CYQB;2009-10-31 04:00;CYQB 310400Z 01003KT 10SM -SHRA FEW012 BKN020 OVC052 08/08 A2986 RMK SF1SC6SC2 SLP113

CYQB;2009-10-31 04:50;CYQB 310450Z 06004KT 15SM FEW012 SCT020 BKN030 OVC049 08/ RMK SF1SC3SC2SC3

CYQB;2009-10-31 05:00;CYQB 310500Z 03003KT 12SM FEW012 SCT020 BKN027 OVC049 08/08 A2983 RMK SF1SC3SC2SC2 SLP105

CYQB;2009-10-31 06:00;CYQB 310600Z 05003KT 12SM FEW024 BKN049 08/08 A2979 RMK SC2SC5 SLP091

CYQB;2009-10-31 07:00;CYQB 310700Z 05003KT 8SM BKN046 OVC062 08/08 A2975 RMK SC7SC1 SLP078

CYQB;2009-10-31 08:00;CYQB 310800Z 01003KT 8SM OVC048 09/08 A2974 RMK SC8 SLP074

CYQB;2009-10-31 09:00;CYQB 310900Z 09002KT 10SM OVC044 09/08 A2972 RMK SC8 SLP065

CYQB;2009-10-31 10:00;CYQB 311000Z 03002KT 15SM BKN046 09/08 A2969 RMK SC6 SLP057

CYQB;2009-10-31 11:00;CYQB 311100Z 00000KT 15SM R06/3000FT/N BCFG BKN045 BKN210 07/07 A2967 RMK SC6CI1 FG OVR RWY SLP048

CYQB;2009-10-31 11:06;CYQB 311106Z 36004KT 1/2SM R06/3000VP6000FT/N FG SCT045 BKN240 08/ RMK FG2SC2CI2

CYQB;2009-10-31 11:27;CYQB 311127Z 35004KT 10SM BCFG SCT045 BKN220 08/ RMK SC4CI2

CYQB;2009-10-31 12:00;CYQB 311200Z 03002KT 15SM BKN045 BKN210 08/07 A2964 RMK SC6CI1 SLP040

CYQB;2009-10-31 13:00;CYQB 311300Z 35004KT 20SM BKN061 BKN080 09/08 A2963 RMK SC6AC1 SLP035

CYQB;2009-10-31 14:00;CYQB 311400Z 00000KT 30SM BKN045 BKN080 OVC180 10/09 A2959 RMK SC6AC2AS1 FG PTCHS N SLP023

CYQB;2009-10-31 15:00;CYQB 311500Z 00000KT 20SM -RA BKN045 OVC080 10/09 A2957 RMK SC6AC2 SLP014

CYQB;2009-10-31 16:00;CYQB 311600Z 00000KT 1 1/2SM -RA BR OVC036 10/10 A2953 RMK SC8 SLP001

CYQB;2009-10-31 16:33;CYQB 311633Z 04002KT 4SM -RA BR OVC030 10/ RMK SC8 VIS LWR E

CYQB;2009-10-31 17:00;CYQB 311700Z 07003KT 4SM -RA BR FEW010 OVC028 10/10 A2948 RMK SF1SC8 SLP983

CYQB;2009-10-31 17:21;CYQB 311721Z 04002KT 2SM -RA BR FEW010 OVC026 10/ RMK SF1SC7

CYQB;2009-10-31 17:32;CYQB 311732Z 08003KT 5/8SM R06/P6000FT/D -RA BR FEW010 OVC019 10/ RMK SF1SC7

CYQB;2009-10-31 18:00;CYQB 311800Z 07002KT 5/8SM R06/P6000FT/U -RA BR FEW010 SCT015 OVC025 10/10 A2945 RMK SF2SC2SC4 SLP973

CYQB;2009-10-31 18:24;CYQB 311824Z 08005KT 1/2SM R06/P6000FT/D -RA FG BKN005 OVC020 10/ RMK FG3SF2SC2

CYQB;2009-10-31 18:46;CYQB 311846Z 34002KT 1 1/2SM -RA BR FEW004 BKN015 OVC030 11/ RMK SF2SC4SC2

CYQB;2009-10-31 19:00;CYQB 311900Z 04002KT 3SM BR FEW004 BKN018 OVC035 11/10 A2940 RMK SF2SC5SC2 VIS N 2 S 30 SLP957

CYQB;2009-10-31 19:29;CYQB 311929Z 24008KT 15SM -RA SCT019 OVC026 13/ RMK SC3SC5 -RA INTMT

CYQB;2009-10-31 20:00;CYQB 312000Z 24010KT 5SM RA BR FEW012 BKN023 OVC030 15/14 A2937 RMK SF1SC6SC2 SLP948

CYQB;2009-10-31 20:24;CYQB 312024Z 23009KT 2SM RA BR FEW012 BKN018 OVC027 15/ RMK SF1SC6SC2

CYQB;2009-10-31 20:35;CYQB 312035Z 26014KT 2SM RA BR SCT005 OVC014 14/ RMK SF4SC4

CYQB;2009-10-31 20:42;CYQB 312042Z 25017KT 1SM R06/3500VP6000FT/D +RA BR SCT005 BKN015 OVC025 14/ RMK SF4SC2SC2

CYQB;2009-10-31 20:49;CYQB 312049Z 25040G53KT 1SM R06/4000VP6000FT/N +RA BR FEW005 SCT010 OVC023 15/ RMK SF2SC2SC4

CYQB;2009-10-31 21:00;CYQB 312100Z 25031G49KT 2 1/2SM R06/4500VP6000FT/U RA BR FEW007 BKN013 OVC042 13/12 A2940 RMK SF2SC4SC2 RERA SLP957

CYQB;2009-10-31 21:35;CYQB 312135Z 24022G38KT 7SM -RA FEW009 SCT015 OVC068 11/ RMK SF2SC2AC5

CYQB;2009-10-31 22:00;CYQB 312200Z 23022G30KT 7SM -RA FEW009 SCT018 OVC079 11/10 A2945 RMK SF1SC2AC5 RERA PRESRR SLP975

CYQB;2009-10-31 22:49;CYQB 312249Z 24021G28KT 10SM FEW008 OVC015 11/ RMK SF2SC6

CYQB;2009-10-31 23:00;CYQB 312300Z 24020G28KT 10SM FEW008 BKN015 OVC029 11/10 A2949 RMK SF2SC6SC1 SLP986

CYQB;2009-11-01 01:00;CYQB 010100Z 25020G25KT 15SM FEW020 BKN045 BKN080 11/09 A2958 RMK SC2SC3AC1 SLP017

CYQB;2009-11-01 02:00;CYQB 010200Z 24020KT 15SM FEW020 BKN160 10/07 A2961 RMK SC1AC7 SLP027

CYQB;2009-11-01 03:00;CYQB 010300Z 25017KT 15SM BKN056 OVC160 10/07 A2965 RMK SC7AC1 SLP043

CYQB;2009-11-01 04:00;CYQB 010400Z 25016KT 15SM BKN055 OVC240 09/05 A2967 RMK SC6CI2 SLP047

CYQB;2009-11-01 05:00;CYQB 010500Z 26015G20KT 15SM FEW055 OVC240 08/04 A2970 RMK SC2CI5 SLP059

CYQB;2009-11-01 06:00;CYQB 010600Z 25012KT 15SM FEW055 SCT240 08/04 A2972 RMK SC2CI2 SLP068

CYQB;2009-11-01 07:00;CYQB 010700Z 25011KT 15SM SCT050 SCT240 07/04 A2974 RMK SC2CI1 SLP074

CYQB;2009-11-01 08:00;CYQB 010800Z 24012KT 15SM FEW050 07/03 A2977 RMK SC2 SLP082

CYQB;2009-11-01 09:00;CYQB 010900Z 24013KT 15SM FEW050 BKN070 06/03 A2979 RMK SC2AC2 SLP089

CYQB;2009-11-01 10:00;CYQB 011000Z 25012KT 15SM BKN079 06/03 A2983 RMK AC4 SLP102

CYQB;2009-11-01 11:00;CYQB 011100Z 25011G16KT 15SM BKN038 BKN080 06/03 A2986 RMK SC5AC2 SLP112

CYQB;2009-11-01 12:00;CYQB 011200Z 25013G18KT 25SM FEW020 FEW038 BKN077 06/03 A2989 RMK SC1SC2AC5 SLP125

CYQB;2009-11-01 13:00;CYQB 011300Z 27014G19KT 25SM BKN036 BKN080 07/03 A2994 RMK SC4AC1 SLP141

CYQB;2009-11-01 14:00;CYQB 011400Z 27014G22KT 25SM SCT036 08/02 A2997 RMK SC4 SLP150

CYQB;2009-11-01 15:00;CYQB 011500Z 28013G24KT 25SM BKN047 BKN080 08/01 A2999 RMK SC6AC1 SLP158

CYQB;2009-11-01 16:00;CYQB 011600Z 27020G25KT 30SM BKN040 BKN080 09/01 A3001 RMK SC5AC2 SLP164

CYQB;2009-11-01 17:00;CYQB 011700Z 26016G24KT 25SM BKN043 09/M00 A3003 RMK SC6 SHRA SW QUAD SLP169

CYQB;2009-11-01 18:00;CYQB 011800Z 27015G25KT 25SM BKN043 10/01 A3005 RMK SC5 SLP177

CYQB;2009-11-01 19:00;CYQB 011900Z 32013G18KT 25SM BKN050 10/M01 A3007 RMK SC5 SLP186

CYQB;2009-11-01 20:00;CYQB 012000Z 30009G18KT 50SM SCT050 09/00 A3011 RMK SC4 SLP200

CYQB;2009-11-01 21:00;CYQB 012100Z 31008KT 50SM SCT045 08/M00 A3015 RMK SC3 SLP213

CYQB;2009-11-01 22:00;CYQB 012200Z 29004KT 30SM FEW050 07/M02 A3019 RMK SC2 SLP224

CYQB;2009-11-01 23:00;CYQB 012300Z 24005KT 15SM FEW050 05/M02 A3022 RMK SC2 SLP236

CYQB;2009-11-02 00:00;CYQB 020000Z 23006KT 15SM FEW050 03/M02 A3025 RMK SC1 SLP248

CYQB;2009-11-02 01:00;CYQB 020100Z 32006KT 15SM FEW050 02/M02 A3026 RMK SC2 SLP250

CYQB;2009-11-02 02:00;CYQB 020200Z 00000KT 15SM FEW050 BKN200 02/M02 A3028 RMK SC2CC0 SLP256

CYQB;2009-11-02 03:00;CYQB 020300Z 35004KT 15SM BKN200 02/M02 A3028 RMK CC6 SLP258

CYQB;2009-11-02 04:00;CYQB 020400Z 36002KT 15SM BKN200 02/M03 A3029 RMK CC4 SLP260

CYQB;2009-11-02 05:00;CYQB 020500Z 00000KT 15SM BKN200 01/M02 A3031 RMK CC2 SLP267

CYQB;2009-11-02 06:00;CYQB 020600Z 05004KT 15SM BKN190 01/M02 A3032 RMK AC2 SLP271

CYQB;2009-11-02 07:00;CYQB 020700Z 01004KT 15SM BKN180 01/M03 A3034 RMK AC2 SLP276

CYQB;2009-11-02 08:00;CYQB 020800Z 02005KT 15SM FEW180 00/M03 A3034 RMK AC0 SLP277

CYQB;2009-11-02 09:00;CYQB 020900Z 03004KT 15SM SKC M00/M03 A3036 RMK SLP284

CYQB;2009-11-02 10:00;CYQB 021000Z 02005KT 15SM SKC M00/M03 A3036 RMK SLP286

CYQB;2009-11-02 11:00;CYQB 021100Z 02002KT 15SM SKC M01/M03 A3038 RMK SLP290

CYQB;2009-11-02 12:00;CYQB 021200Z 01003KT 30SM SKC 00/M03 A3040 RMK SLP299

CYQB;2009-11-02 13:00;CYQB 021300Z 03003KT 30SM FEW030 FEW100 02/M02 A3041 RMK SC1AC1 SLP300

CYQB;2009-11-02 14:00;CYQB 021400Z 11005KT 30SM FEW020 FEW060 03/M00 A3039 RMK SC1SC1 SLP296

CYQB;2009-11-02 15:00;CYQB 021500Z 07011KT 30SM FEW030 BKN160 04/M01 A3038 RMK SC1AC7 SLP292

CYQB;2009-11-02 16:00;CYQB 021600Z 07011KT 30SM FEW030 BKN160 BKN240 06/M01 A3036 RMK SC1AC5CI2 SLP284

CYQB;2009-11-02 17:00;CYQB 021700Z 06007KT 30SM FEW030 SCT160 BKN200 07/M01 A3033 RMK SC1AC4CI2 SLP275

CYQB;2009-11-02 18:00;CYQB 021800Z 07007KT 30SM FEW030 SCT160 BKN200 07/M01 A3030 RMK SC1AC4CI2 SLP265

CYQB;2009-11-02 19:00;CYQB 021900Z 08007KT 30SM FEW030 FEW140 BKN200 07/M01 A3029 RMK SC1AC2CI0 SLP259

CYQB;2009-11-02 20:00;CYQB 022000Z 07010KT 30SM FEW030 FEW140 FEW200 07/M02 A3027 RMK SC1AC2CI0 SLP254

CYQB;2009-11-02 21:00;CYQB 022100Z 07007KT 30SM FEW030 FEW140 SCT200 05/M01 A3026 RMK SC1AC2CI0 SLP252

CYQB;2009-11-02 22:00;CYQB 022200Z 07007KT 15SM FEW140 SCT200 04/M01 A3025 RMK AC2CI0 SLP248

CYQB;2009-11-02 23:00;CYQB 022300Z 07010KT 15SM FEW140 SCT220 04/M01 A3024 RMK AC2CI0 SLP245

CYQB;2009-11-03 00:00;CYQB 030000Z 06009KT 15SM FEW140 BKN220 03/M01 A3023 RMK AC2CI0 SLP240

CYQB;2009-11-03 01:00;CYQB 030100Z 06009KT 15SM FEW140 BKN220 03/M01 A3021 RMK AC1CI1 SLP233

CYQB;2009-11-03 02:00;CYQB 030200Z 07009KT 15SM FEW140 BKN220 03/M00 A3019 RMK AC1CI1 SLP227

CYQB;2009-11-03 03:00;CYQB 030300Z 07008KT 15SM FEW220 02/M01 A3017 RMK CI1 SLP218

CYQB;2009-11-03 04:00;CYQB 030400Z 06008KT 15SM BKN056 03/M00 A3014 RMK SC3 SLP210

CYQB;2009-11-03 05:00;CYQB 030500Z 07008KT 15SM BKN057 03/M01 A3012 RMK SC7 SLP202

CYQB;2009-11-03 06:00;CYQB 030600Z 06007KT 15SM BKN057 03/M01 A3010 RMK SC6 SLP196

CYQB;2009-11-03 07:00;CYQB 030700Z 05005KT 15SM BKN056 03/M01 A3008 RMK SC5 SLP191

CYQB;2009-11-03 08:00;CYQB 030800Z 15004KT 15SM SCT050 BKN060 03/M01 A3006 RMK SC3SC4 SLP184

CYQB;2009-11-03 09:00;CYQB 030900Z 08007KT 15SM BKN054 03/M01 A3004 RMK SC7 SLP175

CYQB;2009-11-03 10:00;CYQB 031000Z 08004KT 15SM BKN050 03/M00 A3002 RMK SC6 SLP169

CYQB;2009-11-03 11:00;CYQB 031100Z 08006KT 15SM BKN050 03/00 A3000 RMK SC6 SLP162

CYQB;2009-11-03 12:00;CYQB 031200Z 07006KT 30SM BKN056 OVC083 03/00 A2998 RMK SC5AC3 SLP157

CYQB;2009-11-03 13:00;CYQB 031300Z 07007KT 30SM OVC060 04/01 A2997 RMK SC8 SLP151

CYQB;2009-11-03 14:00;CYQB 031400Z 09005KT 25SM BKN031 OVC060 04/00 A2995 RMK SC6SC2 SLP146

CYQB;2009-11-03 14:45;CYQB 031445Z 06005KT 15SM -SHRA OVC031 04/ RMK SC8

CYQB;2009-11-03 15:00;CYQB 031500Z 03003KT 10SM -SHRA OVC026 04/01 A2994 RMK SC8 SLP142

CYQB;2009-11-03 16:00;CYQB 031600Z 09004KT 8SM -SHRA OVC023 04/02 A2992 RMK SC8 SLP133

CYQB;2009-11-03 17:00;CYQB 031700Z 09004KT 6SM -DZ OVC017 04/02 A2989 RMK SC8 SLP123

CYQB;2009-11-03 17:26;CYQB 031726Z 05003KT 4SM -DZ BR FEW008 OVC014 04/ RMK SF2SC6

CYQB;2009-11-03 17:39;CYQB 031739Z 05003KT 1 3/4SM -DZ BR FEW008 OVC013 03/ RMK SF2SC6

CYQB;2009-11-03 18:00;CYQB 031800Z 04002KT 2 1/2SM R06/6000FT/N -SHRA BR SCT008 OVC013 03/03 A2987 RMK SF3SC5 SLP119

CYQB;2009-11-03 18:37;CYQB 031837Z 06002KT 2SM -SHRA BR BKN005 OVC011 03/ RMK SF5SC3

CYQB;2009-11-03 19:00;CYQB 031900Z 04002KT 2 1/2SM -SHRA BR SCT005 OVC011 03/03 A2986 RMK SF3SC5 SLP114

CYQB;2009-11-03 20:00;CYQB 032000Z 33002KT 2 1/2SM -SHRA BR BKN005 OVC010 04/03 A2986 RMK SF5ST3 SLP113

CYQB;2009-11-03 20:44;CYQB 032044Z 00000KT 4SM -SHRA BR BKN005 OVC010 04/ RMK SF5ST3

CYQB;2009-11-03 21:00;CYQB 032100Z 21002KT 4SM -SHRA BR SCT005 OVC009 04/03 A2986 RMK SF4ST4 SLP115

CYQB;2009-11-03 22:00;CYQB 032200Z 26012KT 6SM BR FEW005 OVC036 04/03 A2987 RMK SF2SC6 SLP118

CYQB;2009-11-03 22:38;CYQB 032238Z 26008KT 6SM -SHRA BR BKN008 OVC040 04/ RMK SF5SC3

CYQB;2009-11-03 23:00;CYQB 032300Z 27011KT 10SM -SHRA FEW008 BKN040 OVC058 04/03 A2988 RMK SF1SC6SC2 SLP121

CYQB;2009-11-03 23:31;CYQB 032331Z 25011KT 15SM FEW008 SCT040 BKN070 04/ RMK SF1SC3AC3

CYQB;2009-11-04 00:00;CYQB 040000Z 24011KT 15SM FEW008 SCT040 BKN080 03/02 A2989 RMK SF1SC2AC2 SLP125

CYQB;2009-11-04 01:00;CYQB 040100Z 27013KT 15SM FEW080 BKN100 03/02 A2991 RMK AC1AC6 SLP130

CYQB;2009-11-04 02:00;CYQB 040200Z 26010KT 15SM FEW030 SCT100 02/01 A2993 RMK SC1AC2 SLP138

CYQB;2009-11-04 03:00;CYQB 040300Z 23011KT 15SM FEW040 FEW090 SCT100 02/M00 A2996 RMK SC1AC1AC2 SLP148

CYQB;2009-11-04 04:00;CYQB 040400Z 25008KT 15SM SKC 01/M01 A2997 RMK SLP154

CYQB;2009-11-04 05:00;CYQB 040500Z 23008KT 15SM SKC 00/M02 A2999 RMK SLP159

CYQB;2009-11-04 06:00;CYQB 040600Z 25012KT 15SM FEW039 M00/M01 A3001 RMK SC2 SLP165

CYQB;2009-11-04 07:00;CYQB 040700Z 27012KT 15SM SCT050 M00/M01 A3003 RMK SC2 SLP173

CYQB;2009-11-04 08:00;CYQB 040800Z 25011KT 15SM BKN039 M01/M02 A3005 RMK SC4 SLP179

CYQB;2009-11-04 09:00;CYQB 040900Z 24012KT 15SM SCT032 M00/M02 A3007 RMK SC2 SLP187

CYQB;2009-11-04 10:00;CYQB 041000Z 25009KT 15SM FEW080 M01/M02 A3009 RMK AC2 SLP194

CYQB;2009-11-04 11:00;CYQB 041100Z 25008KT 15SM FEW080 M01/M04 A3012 RMK AC2 SLP202

CYQB;2009-11-04 12:00;CYQB 041200Z 25009KT 30SM BKN035 BKN080 M01/M02 A3015 RMK SC6AC1 SLP212

CYQB;2009-11-04 13:00;CYQB 041300Z 25011KT 30SM BKN037 M00/M03 A3016 RMK SC5 SLP217

CYQB;2009-11-04 14:00;CYQB 041400Z 25010G16KT 30SM FEW040 01/M03 A3017 RMK SC2 SLP220

CYQB;2009-11-04 15:00;CYQB 041500Z 27010G18KT 30SM BKN038 02/M04 A3019 RMK SC5 SLP226

CYQB;2009-11-04 16:00;CYQB 041600Z 30010G18KT 30SM BKN042 03/M05 A3019 RMK SC5 SLP228

CYQB;2009-11-04 17:00;CYQB 041700Z 28012G18KT 30SM BKN041 03/M06 A3019 RMK SC7 SLP228

CYQB;2009-11-04 17:22;CYQB 041722Z 28008G18KT 30SM BKN042 02/ RMK SC7

CYQB;2009-11-04 18:00;CYQB 041800Z 26011G19KT 30SM BKN043 03/M06 A3019 RMK SC7 SLP229

CYQB;2009-11-04 19:00;CYQB 041900Z 26011KT 30SM BKN043 02/M06 A3020 RMK SC7 SLP230

CYQB;2009-11-04 20:00;CYQB 042000Z 28011G19KT 30SM BKN051 02/M06 A3021 RMK SC7 SLP233

CYQB;2009-11-04 21:00;CYQB 042100Z 27010KT 30SM BKN049 02/M06 A3021 RMK SC7 SLP235

CYQB;2009-11-04 22:00;CYQB 042200Z 28004KT 15SM BKN051 01/M06 A3022 RMK SC7 SLP236

CYQB;2009-11-04 23:00;CYQB 042300Z 25005KT 15SM BKN051 01/M06 A3023 RMK SC7 SLP241

CYQB;2009-11-05 00:00;CYQB 050000Z 25005KT 15SM OVC050 01/M06 A3023 RMK SC8 SLP241

CYQB;2009-11-05 01:00;CYQB 050100Z 26007KT 15SM OVC050 01/M05 A3024 RMK SC8 SLP244

CYQB;2009-11-05 02:00;CYQB 050200Z 29006KT 15SM BKN046 01/M07 A3025 RMK SC7 SLP247

CYQB;2009-11-05 03:00;CYQB 050300Z 29006KT 15SM BKN045 M00/M07 A3025 RMK SC7 SLP247

CYQB;2009-11-05 04:00;CYQB 050400Z 26004KT 15SM SCT045 M02/M07 A3024 RMK SC4 SLP245

CYQB;2009-11-05 05:00;CYQB 050500Z 26004KT 15SM FEW045 M04/M07 A3025 RMK SC1 SLP249

CYQB;2009-11-05 06:00;CYQB 050600Z 22005KT 15SM FEW045 M04/M07 A3026 RMK SC1 SLP250

CYQB;2009-11-05 07:00;CYQB 050700Z 00000KT 15SM SKC M04/M07 A3027 RMK SLP255

CYQB;2009-11-05 08:00;CYQB 050800Z 36003KT 15SM SKC M02/M07 A3027 RMK SLP253

CYQB;2009-11-05 09:00;CYQB 050900Z 02004KT 15SM FEW160 BKN230 M03/M07 A3026 RMK AC2CI0 SLP252

CYQB;2009-11-05 10:00;CYQB 051000Z 04003KT 15SM BKN055 BKN180 M03/M07 A3026 RMK SC5AC2 SLP251

CYQB;2009-11-05 11:00;CYQB 051100Z 02004KT 15SM BKN055 BKN180 M03/M07 A3025 RMK SC6AC1 SLP249

CYQB;2009-11-05 12:00;CYQB 051200Z 03003KT 30SM BKN054 BKN180 M03/M07 A3026 RMK SC6AC1 SLP250

CYQB;2009-11-05 13:00;CYQB 051300Z 05004KT 30SM BKN055 M02/M07 A3025 RMK SC7 DIST FG SW SLP247

CYQB;2009-11-05 14:00;CYQB 051400Z 06005KT 30SM FEW020 BKN055 BKN120 M00/M05 A3024 RMK CU1SC7AC1 SLP243

CYQB;2009-11-05 15:00;CYQB 051500Z 09009KT 30SM FEW020 FEW055 BKN150 01/M05 A3022 RMK CU1SC2AC2 SLP238

CYQB;2009-11-05 16:00;CYQB 051600Z 07008KT 30SM FEW025 BKN055 BKN150 02/M05 A3020 RMK CU1SC4AC2 SLP232

CYQB;2009-11-05 17:00;CYQB 051700Z 07007KT 30SM FEW025 BKN060 OVC150 02/M06 A3017 RMK CU1SC5AC2 SLP222

CYQB;2009-11-05 18:00;CYQB 051800Z 07008G18KT 20SM FEW025 SCT045 BKN240 03/M06 A3014 RMK CU1SC3CI2 SLP212

CYQB;2009-11-05 19:00;CYQB 051900Z 09008KT 20SM VCSH BKN037 OVC240 02/M06 A3013 RMK SC5CI2 SLP207

CYQB;2009-11-05 19:37;CYQB 051937Z 07010KT 10SM -SHSN BKN037 OVC240 02/ RMK SC6CI1 VSBY LWR W

CYQB;2009-11-05 19:40;CYQB 051940Z CCA 07010KT 10SM -SHSN BKN037 OVC240 02/ RMK SC6CI1 VIS LWR W

CYQB;2009-11-05 20:00;CYQB 052000Z 07006KT 10SM -SHSN BKN035 OVC045 02/M05 A3012 RMK SC6SC2 VIS LWR W SLP204

CYQB;2009-11-05 21:00;CYQB 052100Z 07008KT 15SM BKN030 OVC047 02/M05 A3011 RMK SC6SC2 OCNL -SHSN SLP201

CYQB;2009-11-05 22:00;CYQB 052200Z 07012KT 4SM -SHSN BKN011 OVC026 00/M03 A3011 RMK SC6SC2 SLP202

CYQB;2009-11-05 22:52;CYQB 052252Z 06010KT 5SM -SHSN OVC027 M00/ RMK SC8

CYQB;2009-11-05 23:00;CYQB 052300Z 06010KT 8SM -SHSN OVC027 M00/M02 A3011 RMK SC8 SLP199

CYQB;2009-11-05 23:37;CYQB 052337Z 06010G15KT 4SM -SHSN BKN007 OVC026 M00/ RMK SF5SC3

CYQB;2009-11-06 00:00;CYQB 060000Z 07009KT 3SM -SHSN BKN007 OVC027 M01/M01 A3010 RMK SF5SC3 SLP196

CYQB;2009-11-06 00:34;CYQB 060034Z 06009KT 5SM -SHSN SCT007 OVC024 M00/ RMK SF3SC5

CYQB;2009-11-06 01:00;CYQB 060100Z 06011KT 5SM -SHSN FEW007 OVC025 M00/M02 A3008 RMK SF2SC6 SLP192

CYQB;2009-11-06 02:00;CYQB 060200Z 07008KT 10SM -SHSN FEW007 OVC021 00/M01 A3008 RMK SF2SC6 SLP192

CYQB;2009-11-06 03:00;CYQB 060300Z 07008KT 10SM -SHSN FEW007 BKN022 OVC041 00/M01 A3008 RMK SF1SC6SC2 SLP191

CYQB;2009-11-06 04:00;CYQB 060400Z 07007KT 15SM FEW007 SCT021 OVC041 00/M01 A3008 RMK SF1SC3SC4 SLP189

CYQB;2009-11-06 05:00;CYQB 060500Z 07007KT 8SM -SHSN OVC026 01/M01 A3008 RMK SC8 SLP190

CYQB;2009-11-06 05:52;CYQB 060552Z 05008KT 3SM -SHSN OVC011 00/ RMK SC8

CYQB;2009-11-06 06:00;CYQB 060600Z 06008KT 3SM -SHSN OVC011 00/M01 A3009 RMK SC8 SLP192

CYQB;2009-11-06 07:00;CYQB 060700Z 06008KT 4SM -SHSN BKN011 OVC025 00/M01 A3009 RMK SC6SC2 SLP193

CYQB;2009-11-06 08:00;CYQB 060800Z 06004KT 15SM BKN015 OVC035 01/M01 A3010 RMK SC6SC2 VIS LWR N QUAD SLP195

CYQB;2009-11-06 09:00;CYQB 060900Z 06006KT 15SM FEW020 BKN035 OVC060 01/M02 A3011 RMK SC2SC3SC2 SLP198

CYQB;2009-11-06 10:00;CYQB 061000Z 06004KT 15SM BKN038 OVC043 01/M03 A3012 RMK SC6SC2 SLP203

CYQB;2009-11-06 11:00;CYQB 061100Z 00000KT 15SM FEW030 OVC044 00/M02 A3013 RMK SC2SC6 SLP207

CYQB;2009-11-06 12:00;CYQB 061200Z 00000KT 30SM FEW025 FEW040 M01/M02 A3015 RMK SC1SC2 SLP214

CYQB;2009-11-06 13:00;CYQB 061300Z 35003KT 30SM FEW023 00/M02 A3017 RMK SC2 SLP221

CYQB;2009-11-06 14:00;CYQB 061400Z 03008KT 30SM FEW025 02/M03 A3019 RMK SC1 SLP226

CYQB;2009-11-06 15:00;CYQB 061500Z 07006KT 30SM FEW025 03/M04 A3019 RMK SC1 SLP228

CYQB;2009-11-06 16:00;CYQB 061600Z 16002KT 30SM SCT057 04/M04 A3019 RMK SC4 SLP227

CYQB;2009-11-06 17:00;CYQB 061700Z 25005KT 30SM FEW025 BKN062 04/M03 A3017 RMK SC2SC3 SLP221

CYQB;2009-11-06 18:00;CYQB 061800Z 23006KT 30SM FEW040 BKN066 05/M03 A3016 RMK SC2SC4 SLP217

CYQB;2009-11-06 19:00;CYQB 061900Z 30007KT 30SM SCT040 BKN067 05/M03 A3016 RMK SC3SC3 SLP216

CYQB;2009-11-06 20:00;CYQB 062000Z 31010G18KT 30SM SCT044 SCT060 BKN090 03/M05 A3017 RMK SC4SC1AC1 SLP220

CYQB;2009-11-06 21:00;CYQB 062100Z 30007KT 30SM BKN034 BKN067 02/M04 A3018 RMK SC5SC1 SLP223

CYQB;2009-11-06 22:00;CYQB 062200Z 27007KT 15SM BKN036 OVC060 02/M04 A3019 RMK SC7SC1 SLP227

CYQB;2009-11-06 23:00;CYQB 062300Z 27009KT 15SM FEW030 OVC040 01/M03 A3021 RMK SC2SC6 SLP232

CYQB;2009-11-07 00:00;CYQB 070000Z 27008KT 15SM OVC043 01/M03 A3021 RMK SC8 SLP234

CYQB;2009-11-07 01:00;CYQB 070100Z 27008KT 15SM OVC040 01/M04 A3021 RMK SC8 SLP233

CYQB;2009-11-07 02:00;CYQB 070200Z 29004KT 15SM OVC040 00/M04 A3021 RMK SC8 SLP233

CYQB;2009-11-07 03:00;CYQB 070300Z 29003KT 15SM OVC042 00/M05 A3021 RMK SC8 SLP233

CYQB;2009-11-07 04:00;CYQB 070400Z 27004KT 15SM BKN036 M00/M04 A3020 RMK SC7 SLP231

CYQB;2009-11-07 05:00;CYQB 070500Z 26006KT 15SM BKN037 M00/M05 A3021 RMK SC7 SLP234

CYQB;2009-11-07 06:00;CYQB 070600Z 25006KT 15SM BKN034 M01/M06 A3021 RMK SC7 SLP233

CYQB;2009-11-07 07:00;CYQB 070700Z 26008KT 15SM BKN034 M01/M06 A3021 RMK SC7 SLP234

CYQB;2009-11-07 08:00;CYQB 070800Z 27006KT 15SM FEW030 M02/M07 A3022 RMK SC2 SLP235

CYQB;2009-11-07 09:00;CYQB 070900Z 27005KT 15SM SKC M04/M07 A3021 RMK SLP235

CYQB;2009-11-07 10:00;CYQB 071000Z 27003KT 15SM SCT030 M04/M07 A3022 RMK SC2 SLP237

CYQB;2009-11-07 11:00;CYQB 071100Z 24002KT 15SM BKN033 BKN120 M03/M06 A3022 RMK SC5AC2 SLP237

CYQB;2009-11-07 12:00;CYQB 071200Z 27003KT 25SM BKN037 M03/M06 A3024 RMK SC6 SLP243

CYQB;2009-11-07 13:00;CYQB 071300Z 24002KT 25SM BKN030 M02/M05 A3022 RMK SC6 SLP236

CYQB;2009-11-07 14:00;CYQB 071400Z 28003KT 25SM BKN030 M01/M05 A3021 RMK SC7 SLP235

CYQB;2009-11-07 15:00;CYQB 071500Z 24007KT 25SM BKN030 BKN090 M00/M06 A3020 RMK SC5AC2 SLP230

CYQB;2009-11-07 16:00;CYQB 071600Z 20004KT 25SM BKN030 BKN090 00/M05 A3017 RMK SC5AC2 SLP219

CYQB;2009-11-07 17:00;CYQB 071700Z 24003KT 35SM FEW030 BKN070 00/M05 A3013 RMK SC1AC6 SLP206

CYQB;2009-11-07 17:12;CYQB 071712Z 24003KT 35SM -SHSN FEW030 BKN066 00/ RMK SC1AC6

CYQB;2009-11-07 18:00;CYQB 071800Z 27002KT 30SM OVC074 00/M05 A3010 RMK AC8 SLP197

CYQB;2009-11-07 19:00;CYQB 071900Z 01002KT 30SM FEW040 OVC062 01/M04 A3008 RMK SC1SC7 SLP189

CYQB;2009-11-07 20:00;CYQB 072000Z 03003KT 30SM FEW040 BKN072 BKN130 01/M04 A3006 RMK SC1AC6AC1 SLP182

CYQB;2009-11-07 21:00;CYQB 072100Z 06005KT 35SM FEW060 SCT130 BKN220 01/M05 A3002 RMK SC2AC0CI0 SLP170

CYQB;2009-11-07 22:00;CYQB 072200Z 04006KT 15SM FEW067 FEW130 BKN220 M00/M05 A2999 RMK AC2AC1CI0 SLP160

CYQB;2009-11-07 23:00;CYQB 072300Z 02003KT 15SM FEW020 M00/M05 A2997 RMK SC1 SLP154

CYQB;2009-11-08 00:00;CYQB 080000Z 35003KT 15SM FEW070 FEW160 M00/M05 A2996 RMK AC1AC1 SLP150

CYQB;2009-11-08 01:00;CYQB 080100Z 01004KT 15SM SCT075 00/M04 A2994 RMK AC4 SLP142

CYQB;2009-11-08 02:00;CYQB 080200Z 02003KT 15SM FEW070 BKN180 00/M04 A2992 RMK AC2AC3 SLP137

CYQB;2009-11-08 03:00;CYQB 080300Z 36003KT 15SM BKN059 BKN080 00/M04 A2991 RMK SC6AC1 SLP131

CYQB;2009-11-08 04:00;CYQB 080400Z 02003KT 15SM -SHRA OVC060 01/M04 A2989 RMK SC8 SLP124

CYQB;2009-11-08 05:00;CYQB 080500Z 36004KT 15SM OVC048 01/M03 A2987 RMK SC8 SLP119

CYQB;2009-11-08 06:00;CYQB 080600Z 02004KT 15SM OVC047 02/M03 A2987 RMK SC8 SLP118

CYQB;2009-11-08 07:00;CYQB 080700Z 00000KT 15SM OVC045 02/M02 A2987 RMK SC8 SLP120

CYQB;2009-11-08 08:00;CYQB 080800Z 26003KT 15SM OVC038 02/M01 A2988 RMK SC8 SLP122

CYQB;2009-11-08 09:00;CYQB 080900Z 32002KT 15SM OVC036 02/M02 A2989 RMK SC8 SLP126

CYQB;2009-11-08 10:00;CYQB 081000Z 00000KT 15SM OVC030 03/M01 A2991 RMK SC8 SLP132

CYQB;2009-11-08 11:00;CYQB 081100Z 24009KT 15SM BKN032 BKN080 04/M01 A2993 RMK SC7AC1 SLP139

CYQB;2009-11-08 12:00;CYQB 081200Z 23010KT 15SM BKN027 04/M01 A2997 RMK SC4 SLP151

CYQB;2009-11-08 13:00;CYQB 081300Z 23012KT 15SM FEW027 05/M01 A2999 RMK SC1 SLP158

CYQB;2009-11-08 14:00;CYQB 081400Z 23013G18KT 30SM FEW030 FEW120 06/00 A3003 RMK SC1AC1 SLP173

CYQB;2009-11-08 15:00;CYQB 081500Z 25011G16KT 30SM FEW030 08/03 A3006 RMK SC1 SLP181

CYQB;2009-11-08 16:00;CYQB 081600Z 25014KT 20SM SKC 10/03 A3005 RMK SLP180

CYQB;2009-11-08 17:00;CYQB 081700Z 25014KT 20SM SKC 12/04 A3007 RMK SLP185

CYQB;2009-11-08 18:00;CYQB 081800Z 27013G20KT 20SM SKC 14/02 A3008 RMK SLP188

CYQB;2009-11-08 19:00;CYQB 081900Z 27015KT 20SM SKC 14/M01 A3008 RMK SLP188

CYQB;2009-11-08 20:00;CYQB 082000Z 23014KT 25SM SKC 13/02 A3009 RMK SLP192

CYQB;2009-11-08 21:00;CYQB 082100Z 24011KT 30SM SKC 12/02 A3010 RMK SLP196

CYQB;2009-11-08 22:00;CYQB 082200Z 25010KT 30SM SKC 10/01 A3014 RMK SLP210

CYQB;2009-11-08 23:00;CYQB 082300Z 25009KT 30SM SKC 09/02 A3019 RMK SLP225

CYQB;2009-11-09 00:00;CYQB 090000Z 23007KT 15SM SKC 07/02 A3021 RMK SLP232

CYQB;2009-11-09 01:00;CYQB 090100Z 23008KT 15SM SKC 06/02 A3022 RMK SLP238

CYQB;2009-11-09 02:00;CYQB 090200Z 23008KT 15SM SKC 06/01 A3024 RMK SLP243

CYQB;2009-11-09 03:00;CYQB 090300Z 23009KT 15SM SKC 06/01 A3025 RMK SLP247

CYQB;2009-11-09 04:00;CYQB 090400Z 22005KT 15SM SKC 05/01 A3026 RMK SLP250

CYQB;2009-11-09 05:00;CYQB 090500Z 27005KT 15SM SKC 04/00 A3027 RMK SLP254

CYQB;2009-11-09 06:00;CYQB 090600Z 25006KT 15SM SKC 03/00 A3028 RMK SLP256

CYQB;2009-11-09 07:00;CYQB 090700Z 27004KT 15SM FEW130 04/01 A3029 RMK AC1 SLP259

CYQB;2009-11-09 08:00;CYQB 090800Z 24006KT 15SM FEW130 03/00 A3030 RMK AC2 SLP263

CYQB;2009-11-09 09:00;CYQB 090900Z 25002KT 15SM SCT120 03/00 A3030 RMK AC3 SLP265

CYQB;2009-11-09 10:00;CYQB 091000Z 00000KT 15SM FEW120 02/M00 A3030 RMK AC1 SLP265

CYQB;2009-11-09 11:00;CYQB 091100Z 03002KT 15SM SCT120 BKN240 02/M01 A3030 RMK AC2CI2 SLP263

CYQB;2009-11-09 12:00;CYQB 091200Z 00000KT 25SM FEW120 BKN240 01/M01 A3030 RMK AC1CI2 SLP262

CYQB;2009-11-09 13:00;CYQB 091300Z 00000KT 25SM FEW120 BKN240 02/M01 A3029 RMK AC2CI2 SLP259

CYQB;2009-11-09 14:00;CYQB 091400Z 03004KT 25SM FEW082 SCT120 BKN240 05/M00 A3026 RMK AC2AC2CI2 SLP249

CYQB;2009-11-09 15:00;CYQB 091500Z 06002KT 25SM FEW064 BKN084 OVC240 07/00 A3021 RMK SC2AC3CI2 SLP233

CYQB;2009-11-09 16:00;CYQB 091600Z 10002KT 15SM OVC058 08/01 A3017 RMK SC8 SLP221

CYQB;2009-11-09 17:00;CYQB 091700Z 03004KT 25SM FEW058 OVC077 10/01 A3012 RMK SC2AC6 SLP204

CYQB;2009-11-09 18:00;CYQB 091800Z 03003KT 20SM OVC065 11/00 A3009 RMK SC8 SLP192

CYQB;2009-11-09 19:00;CYQB 091900Z 05004KT 20SM OVC055 11/01 A3006 RMK SC8 SLP182

CYQB;2009-11-09 20:00;CYQB 092000Z 05002KT 20SM SCT054 BKN100 OVC230 12/01 A3002 RMK SC4AC2CI2 SLP169

CYQB;2009-11-09 21:00;CYQB 092100Z 02003KT 20SM BKN049 OVC230 11/01 A3001 RMK SC6CI1 SLP164

CYQB;2009-11-09 22:00;CYQB 092200Z 00000KT 20SM OVC050 11/01 A3000 RMK SC8 SLP160

CYQB;2009-11-09 23:00;CYQB 092300Z 23002KT 20SM OVC046 10/02 A3000 RMK SC8 SLP160

CYQB;2009-11-10 00:00;CYQB 100000Z 23008KT 20SM OVC043 11/02 A2999 RMK SC8 SLP159

CYQB;2009-11-10 02:00;CYQB 100200Z 25011KT 20SM FEW045 BKN070 OVC180 11/06 A3000 RMK SC2AC4AC2 SLP162

CYQB;2009-11-10 03:00;CYQB 100300Z 23009KT 15SM SCT070 BKN230 11/07 A3000 RMK AC3CI4 SLP163

CYQB;2009-11-10 04:00;CYQB 100400Z 26009KT 15SM SCT058 BKN240 11/08 A3001 RMK SC3CI4 SLP165

CYQB;2009-11-10 05:00;CYQB 100500Z 26012KT 15SM SCT043 BKN240 11/08 A3002 RMK SC3CI1 SLP168

CYQB;2009-11-10 06:00;CYQB 100600Z 27013G19KT 15SM FEW240 11/07 A3006 RMK CI1 SLP181

CYQB;2009-11-10 07:00;CYQB 100700Z CCA 27010KT 15SM SKC 09/03 A3013 RMK PRESRR SLP203

CYQB;2009-11-10 08:00;CYQB 100800Z 31011G16KT 15SM FEW250 08/02 A3016 RMK CI1 SLP214

CYQB;2009-11-10 09:00;CYQB 100900Z 30005KT 15SM SKC 07/01 A3019 RMK SLP224

CYQB;2009-11-10 10:00;CYQB 101000Z 31007KT 15SM FEW060 06/01 A3021 RMK SC1 SLP233

CYQB;2009-11-10 11:00;CYQB 101100Z 25009KT 15SM FEW060 FEW240 04/01 A3023 RMK SC1CI1 SLP240

CYQB;2009-11-10 12:00;CYQB 101200Z 26009KT 25SM FEW030 FEW240 04/01 A3025 RMK SC1CI1 SLP246

CYQB;2009-11-10 13:00;CYQB 101300Z 25013KT 30SM FEW030 FEW240 05/02 A3027 RMK SC1CI1 SLP254

CYQB;2009-11-10 14:00;CYQB 101400Z 26012KT 30SM FEW050 FEW240 08/02 A3028 RMK SC1CI0 SLP255

CYQB;2009-11-10 15:00;CYQB 101500Z 27009KT 30SM FEW030 FEW240 09/03 A3028 RMK SC1CI0 SLP254

CYQB;2009-11-10 16:00;CYQB 101600Z 24011KT 30SM FEW030 FEW240 10/03 A3026 RMK SC1CI1 SLP250

CYQB;2009-11-10 17:00;CYQB 101700Z 25012KT 30SM BKN042 BKN240 10/03 A3025 RMK SC5CI1 SLP244

CYQB;2009-11-10 18:00;CYQB 101800Z 24017KT 30SM SCT040 SCT240 11/03 A3023 RMK SC3CI1 SLP239

CYQB;2009-11-10 19:00;CYQB 101900Z 22013KT 30SM FEW050 FEW240 12/03 A3022 RMK SC2CI1 SLP237

CYQB;2009-11-10 20:00;CYQB 102000Z 24013KT 30SM FEW055 SCT240 11/03 A3023 RMK SC2CI1 SLP239

CYQB;2009-11-10 21:00;CYQB 102100Z 25010KT 35SM FEW063 SCT240 10/03 A3024 RMK SC2CI1 SLP242

CYQB;2009-11-10 22:00;CYQB 102200Z 26006KT 15SM FEW063 FEW240 06/M00 A3026 RMK SC1CI1 SLP249

CYQB;2009-11-10 23:00;CYQB 102300Z 28007KT 15SM FEW080 07/M01 A3028 RMK AC2 SLP256

CYQB;2009-11-11 00:00;CYQB 110000Z 31008KT 15SM SKC 07/M02 A3030 RMK SLP265

CYQB;2009-11-11 01:00;CYQB 110100Z 31010KT 15SM SKC 06/M01 A3031 RMK SLP268

CYQB;2009-11-11 02:00;CYQB 110200Z 33011KT 15SM SKC 06/M01 A3033 RMK SLP275

CYQB;2009-11-11 03:00;CYQB 110300Z 32007KT 15SM SKC 05/M01 A3035 RMK SLP279

CYQB;2009-11-11 04:00;CYQB 110400Z 29006KT 15SM FEW060 FEW240 02/M02 A3036 RMK SC1CI1 SLP285

CYQB;2009-11-11 05:00;CYQB 110500Z 19003KT 15SM FEW045 FEW240 00/M02 A3038 RMK SC1CI1 SLP291

CYQB;2009-11-11 06:00;CYQB 110600Z 25005KT 15SM FEW240 M01/M03 A3039 RMK CI1 SLP294

CYQB;2009-11-11 07:00;CYQB 110700Z 29002KT 15SM SKC 03/M01 A3041 RMK SLP300

CYQB;2009-11-11 08:00;CYQB 110800Z 26003KT 15SM SKC 02/M02 A3043 RMK SLP306

CYQB;2009-11-11 09:00;CYQB 110900Z 31005KT 15SM SKC 00/M03 A3044 RMK SLP312

CYQB;2009-11-11 10:00;CYQB 111000Z 33007KT 15SM SKC 01/M03 A3045 RMK SLP316

CYQB;2009-11-11 11:00;CYQB 111100Z 01003KT 15SM FEW100 02/M03 A3047 RMK AC1 SLP322

CYQB;2009-11-11 12:00;CYQB 111200Z 33006KT 30SM FEW100 02/M03 A3049 RMK AC1 SLP328

CYQB;2009-11-11 13:00;CYQB 111300Z 00000KT 30SM FEW100 03/M02 A3050 RMK AC1 SLP333

CYQB;2009-11-11 14:00;CYQB 111400Z 33008KT 30SM FEW100 05/M02 A3051 RMK AC1 SLP336

CYQB;2009-11-11 15:00;CYQB 111500Z 29004KT 30SM SKC 06/M02 A3052 RMK SLP340

CYQB;2009-11-11 16:00;CYQB 111600Z 22005KT 30SM SKC 08/M02 A3052 RMK SLP337

CYQB;2009-11-11 17:00;CYQB 111700Z 20010KT 30SM SKC 08/00 A3049 RMK SLP329

CYQB;2009-11-11 18:00;CYQB 111800Z 22010KT 30SM SKC 09/M00 A3047 RMK SLP321

CYQB;2009-11-11 19:00;CYQB 111900Z 21013KT 30SM SKC 09/M01 A3045 RMK SLP314

CYQB;2009-11-11 20:00;CYQB 112000Z 20011KT 30SM FEW240 08/00 A3045 RMK CI1 SLP314

CYQB;2009-11-11 21:00;CYQB 112100Z 22008KT 30SM FEW240 07/M01 A3045 RMK CI1 SLP314

CYQB;2009-11-11 22:00;CYQB 112200Z 26008KT 15SM FEW240 04/M01 A3046 RMK CI1 SLP317

CYQB;2009-11-11 23:00;CYQB 112300Z 29010KT 15SM SKC 05/M02 A3046 RMK SLP319

CYQB;2009-11-12 00:00;CYQB 120000Z 24006KT 15SM SKC 02/M03 A3047 RMK SLP320

CYQB;2009-11-12 01:00;CYQB 120100Z 22004KT 15SM SKC 02/M02 A3045 RMK SLP316

CYQB;2009-11-12 02:00;CYQB 120200Z 23007KT 15SM SKC 03/M01 A3045 RMK SLP315

CYQB;2009-11-12 03:00;CYQB 120300Z 00000KT 15SM SKC 01/M02 A3045 RMK SLP315

CYQB;2009-11-12 04:00;CYQB 120400Z 05003KT 15SM SKC M00/M04 A3045 RMK SLP314

CYQB;2009-11-12 05:00;CYQB 120500Z 00000KT 15SM SKC M04/M06 A3044 RMK SLP313

CYQB;2009-11-12 06:00;CYQB 120600Z 36002KT 15SM SKC M02/M03 A3043 RMK SLP308

CYQB;2009-11-12 07:00;CYQB 120700Z 29003KT 15SM SKC M03/M05 A3043 RMK SLP307

CYQB;2009-11-12 08:00;CYQB 120800Z 00000KT 15SM SKC M04/M06 A3042 RMK FROIN SLP305

CYQB;2009-11-12 09:00;CYQB 120900Z 00000KT 15SM SKC M04/M05 A3042 RMK SLP306

CYQB;2009-11-12 10:00;CYQB 121000Z 00000KT 15SM FEW090 M05/M06 A3041 RMK AS1 SLP301

CYQB;2009-11-12 11:00;CYQB 121100Z 00000KT 15SM FEW090 M06/M07 A3041 RMK AS1 SLP300

CYQB;2009-11-12 12:00;CYQB 121200Z 26002KT 15SM FEW020 FEW090 M04/M05 A3042 RMK SC1AC1 SLP305

CYQB;2009-11-12 13:00;CYQB 121300Z 00000KT 15SM FEW020 FEW090 M02/M03 A3043 RMK SC1AC1 SLP308

CYQB;2009-11-12 14:00;CYQB 121400Z 23004KT 15SM FEW020 FEW240 01/M01 A3043 RMK SC1CI0 SLP309

CYQB;2009-11-12 15:00;CYQB 121500Z 20006KT 15SM FEW010 BKN240 02/M01 A3042 RMK SF1CI2 SLP305

CYQB;2009-11-12 16:00;CYQB 121600Z 21007KT 15SM FEW020 BKN240 04/M00 A3040 RMK SC1CI2 SLP298

CYQB;2009-11-12 17:00;CYQB 121700Z 20009KT 25SM BKN240 06/M01 A3036 RMK CI5 SLP286

CYQB;2009-11-12 18:00;CYQB 121800Z 21007KT 25SM BKN200 07/M02 A3036 RMK CI6 SLP283

CYQB;2009-11-12 19:00;CYQB 121900Z 25009KT 30SM FEW240 08/M04 A3034 RMK CI2 SLP277

CYQB;2009-11-12 20:00;CYQB 122000Z 25009KT 30SM FEW040 FEW090 FEW240 08/M06 A3033 RMK SC1AC1CI1 SLP276

CYQB;2009-11-12 21:00;CYQB 122100Z 25006KT 30SM FEW090 05/M07 A3033 RMK AC1 SLP276

CYQB;2009-11-12 22:00;CYQB 122200Z 26005KT 15SM FEW100 03/M07 A3033 RMK AC1 SLP276

CYQB;2009-11-12 23:00;CYQB 122300Z 31002KT 15SM SKC 01/M07 A3033 RMK SLP275

CYQB;2009-11-13 00:00;CYQB 130000Z 00000KT 15SM SKC 02/M07 A3034 RMK SLP277

CYQB;2009-11-13 01:00;CYQB 130100Z 02002KT 15SM SKC M01/M07 A3033 RMK SLP275

CYQB;2009-11-13 02:00;CYQB 130200Z 02002KT 15SM SKC M02/M07 A3033 RMK SLP275

CYQB;2009-11-13 03:00;CYQB 130300Z 00000KT 15SM SKC M02/M06 A3033 RMK SLP273

CYQB;2009-11-13 04:00;CYQB 130400Z 00000KT 15SM FEW090 M04/M07 A3033 RMK AC1 SLP273

CYQB;2009-11-13 05:00;CYQB 130500Z 36004KT 15SM FEW080 M03/M06 A3033 RMK AC1 SLP273

CYQB;2009-11-13 06:00;CYQB 130600Z 00000KT 15SM SKC M03/M06 A3030 RMK SLP266

CYQB;2009-11-13 07:00;CYQB 130700Z 00000KT 15SM SKC M03/M06 A3032 RMK SLP270

CYQB;2009-11-13 08:00;CYQB 130800Z 00000KT 15SM FEW085 M05/M07 A3032 RMK AC1 SLP271

CYQB;2009-11-13 09:00;CYQB 130900Z 00000KT 15SM FEW010 FEW090 M05/M07 A3032 RMK ST1AC1 SLP272

CYQB;2009-11-13 10:00;CYQB 131000Z 04003KT 15SM FEW010 M04/M07 A3031 RMK ST1 SLP269

CYQB;2009-11-13 11:00;CYQB 131100Z 04004KT 15SM FEW090 M04/M07 A3032 RMK AC1 SLP271

CYQB;2009-11-13 12:00;CYQB 131200Z 05003KT 25SM FEW120 M03/M08 A3033 RMK AC1 SLP276

CYQB;2009-11-13 13:00;CYQB 131300Z 03003KT 25SM FEW120 FEW240 M01/M07 A3033 RMK AC1CI0 SLP276

CYQB;2009-11-13 14:00;CYQB 131400Z 06003KT 25SM FEW240 01/M06 A3034 RMK CI0 SLP278

CYQB;2009-11-13 15:00;CYQB 131500Z 08004KT 25SM FEW240 04/M06 A3033 RMK CI0 SLP276

CYQB;2009-11-13 16:00;CYQB 131600Z 06003KT 15SM FEW240 06/M05 A3032 RMK CI0 SLP272

CYQB;2009-11-13 17:00;CYQB 131700Z 08005KT 30SM FEW240 08/M04 A3030 RMK CI0 SLP263

CYQB;2009-11-13 18:00;CYQB 131800Z 06005KT 30SM FEW240 09/M04 A3028 RMK CI0 SLP256

CYQB;2009-11-13 19:00;CYQB 131900Z 04004KT 30SM FEW240 10/M04 A3028 RMK CI0 SLP255

CYQB;2009-11-13 20:00;CYQB 132000Z 04005KT 30SM FEW240 10/M04 A3027 RMK CI0 SLP252

CYQB;2009-11-13 21:00;CYQB 132100Z 08004KT 30SM BKN240 07/M02 A3026 RMK CI2 SLP250

CYQB;2009-11-13 22:00;CYQB 132200Z 06005KT 15SM FEW240 06/M03 A3026 RMK CI1 SLP252

CYQB;2009-11-13 23:00;CYQB 132300Z 04003KT 15SM FEW240 04/M00 A3027 RMK CI1 SLP253

CYQB;2009-11-14 00:00;CYQB 140000Z 01006KT 15SM FEW210 03/M01 A3028 RMK CI1 SLP257

CYQB;2009-11-14 01:00;CYQB 140100Z 02006KT 15SM SKC 03/M04 A3028 RMK SLP258

CYQB;2009-11-14 01:06;CYQB 140106Z 03005KT 15SM SKC 02/

CYQB;2009-11-14 02:00;CYQB 140200Z 02003KT 15SM SKC 00/M07 A3029 RMK SLP260

CYQB;2009-11-14 03:00;CYQB 140300Z 01004KT 15SM SKC 02/M09 A3029 RMK SLP261

CYQB;2009-11-14 04:00;CYQB 140400Z 01004KT 15SM SKC 01/M10 A3028 RMK SLP258

CYQB;2009-11-14 05:00;CYQB 140500Z 36002KT 15SM SKC 00/M09 A3028 RMK SLP257

CYQB;2009-11-14 06:00;CYQB 140600Z 04007KT 15SM SKC M01/M09 A3028 RMK SLP255

CYQB;2009-11-14 07:00;CYQB 140700Z 36005KT 15SM SKC M00/M09 A3028 RMK SLP255

CYQB;2009-11-14 08:00;CYQB 140800Z 03003KT 15SM SKC M01/M09 A3026 RMK SLP250

CYQB;2009-11-14 09:00;CYQB 140900Z 04004KT 15SM FEW085 M01/M10 A3025 RMK AC1 SLP247

CYQB;2009-11-14 10:00;CYQB 141000Z 01005KT 15SM FEW085 M01/M10 A3026 RMK AC1 SLP250

CYQB;2009-11-14 11:00;CYQB 141100Z 02002KT 20SM SCT080 M01/M10 A3027 RMK AC2 SLP254

CYQB;2009-11-14 12:00;CYQB 141200Z 03003KT 20SM SCT080 BKN260 M01/M10 A3027 RMK AC3CI1 SLP255

CYQB;2009-11-14 13:00;CYQB 141300Z 01004KT 30SM FEW025 SCT090 BKN260 01/M08 A3027 RMK SC1AC1CI2 SLP254

CYQB;2009-11-14 14:00;CYQB 141400Z 04004KT 20SM FEW025 FEW090 BKN250 03/M07 A3026 RMK SC1AC1CI1 SLP250

CYQB;2009-11-14 15:00;CYQB 141500Z 06003KT 20SM FEW090 BKN250 07/M05 A3025 RMK AC2CI2 SLP245

CYQB;2009-11-14 16:00;CYQB 141600Z 04005KT 20SM FEW100 BKN250 09/M05 A3022 RMK AC2CI2 SLP236

CYQB;2009-11-14 17:00;CYQB 141700Z 06005KT 20SM SCT050 BKN080 10/M04 A3020 RMK SC3AC2 SLP230

CYQB;2009-11-14 18:00;CYQB 141800Z 06005KT 20SM OVC040 10/M03 A3018 RMK SC8 SLP224

CYQB;2009-11-14 19:00;CYQB 141900Z 08004KT 15SM OVC035 09/M02 A3017 RMK SC8 SLP219

CYQB;2009-11-14 20:00;CYQB 142000Z 09004KT 15SM OVC033 08/M01 A3016 RMK SC8 SLP217

CYQB;2009-11-14 20:30;CYQB 142030Z 06006KT 15SM -SHRA OVC032 08/ RMK SC8

CYQB;2009-11-14 21:00;CYQB 142100Z 06003KT 10SM -SHRA OVC028 07/01 A3016 RMK SC8 SLP215

CYQB;2009-11-14 22:00;CYQB 142200Z 07004KT 10SM -RA OVC024 06/02 A3016 RMK SC8 SLP215

CYQB;2009-11-14 23:00;CYQB 142300Z 05005KT 10SM -RA FEW016 OVC025 05/02 A3014 RMK SC1SC8 SLP208

CYQB;2009-11-15 00:00;CYQB 150000Z 06009KT 10SM -RA BKN013 OVC025 05/04 A3009 RMK SC6SC2 SLP194

CYQB;2009-11-15 01:00;CYQB 150100Z 07008KT 6SM -RA BR OVC013 06/05 A3008 RMK SC8 SLP191

CYQB;2009-11-15 02:00;CYQB 150200Z 04009KT 5SM -RA BR SCT001 OVC013 06/06 A3006 RMK SF2SC6 TWR VIS 2 SLP183

CYQB;2009-11-15 03:00;CYQB 150300Z 05007KT 3SM BR FEW002 OVC016 07/07 A3004 RMK SF2SC6 SLP176

CYQB;2009-11-15 04:00;CYQB 150400Z 06005KT 4SM -RA BR FEW002 OVC016 07/07 A3003 RMK SF2SC6 SLP170

CYQB;2009-11-15 04:30;CYQB 150430Z 05005KT 4SM BR FEW002 OVC013 07/ RMK SF2SC6

CYQB;2009-11-15 04:57;CYQB 150457Z 07004KT 2SM -DZ BR SCT001 OVC013 07/ RMK SF3SC5

CYQB;2009-11-15 05:00;CYQB 150500Z 06005KT 1SM R06/P6000FT/N -DZ BR SCT001 OVC014 07/07 A3000 RMK SF3SC5 SLP162

CYQB;2009-11-15 05:38;CYQB 150538Z 03004KT 3/4SM R06/P6000FT/D -DZ BR BKN002 OVC014 07/ RMK SF6SC2

CYQB;2009-11-15 06:00;CYQB 150600Z 04004KT 3/4SM R06/5000FT/U -DZ BR BKN003 OVC016 07/07 A2998 RMK SF6SC2 SLP154

CYQB;2009-11-15 07:00;CYQB 150700Z 06006KT 5/8SM R06/P6000FT/D -DZ BR OVC002 08/08 A2996 RMK SF8 SLP149

CYQB;2009-11-15 08:00;CYQB 150800Z 07007KT 5/8SM R06/P6000FT/N -DZ BR BKN002 OVC014 08/08 A2994 RMK SF7SC1 SLP141

CYQB;2009-11-15 08:41;CYQB 150841Z 06005KT 1/2SM R06/4000FT/D -DZ FG VV001 08/ RMK FG8

CYQB;2009-11-15 09:00;CYQB 150900Z 00000KT 1/2SM R06/2400FT/N -DZ FG VV001 08/08 A2993 RMK FG8 SLP137

CYQB;2009-11-15 10:00;CYQB 151000Z 10004KT 1/2SM R06/3000FT/N -DZ FG VV001 08/08 A2992 RMK FG8 SLP133

CYQB;2009-11-15 11:00;CYQB 151100Z 05005KT 1/2SM R06/2400FT/N -DZ FG VV001 08/08 A2991 RMK FG8 SLP132

CYQB;2009-11-15 11:33;CYQB 151133Z 06005KT 1/2SM R06/2600FT/N -DZ FG VV002 08/ RMK FG8

CYQB;2009-11-15 12:00;CYQB 151200Z 07005KT 3/8SM R06/3000V5000FT/D -DZ FG VV002 08/08 A2990 RMK FG8 SLP129

CYQB;2009-11-15 12:10;CYQB 151210Z 05004KT 1/4SM R06/3000FT/D -DZ FG VV002 08/ RMK FG8

CYQB;2009-11-15 13:00;CYQB 151300Z 05003KT 1/4SM R06/2400FT/N -DZ FG VV002 08/08 A2990 RMK FG8 SLP129

CYQB;2009-11-15 13:47;CYQB 151347Z 00000KT 3/4SM R06/5500FT/N -DZ BR VV003 09/ RMK FG8

CYQB;2009-11-15 14:00;CYQB 151400Z 05003KT 3/4SM R06/5500FT/N -DZ BR OVC003 09/09 A2990 RMK FG3SF5 SLP128

CYQB;2009-11-15 15:00;CYQB 151500Z CCA 04002KT 3/4SM R06/3500FT/N -DZ BR OVC003 09/09 A2989 RMK FG3SF5 SLP124

CYQB;2009-11-15 15:28;CYQB 151528Z 00000KT 1SM R06/4000FT/N -DZ BR OVC004 09/ RMK FG2SF6

CYQB;2009-11-15 16:00;CYQB 151600Z 00000KT 1SM R06/5000FT/N -DZ BR BKN004 OVC008 10/10 A2988 RMK FG2SF5SF2 SLP119

CYQB;2009-11-15 16:49;CYQB 151649Z 19003KT 1 1/2SM BR OVC009 11/ RMK SF8

CYQB;2009-11-15 17:00;CYQB 151700Z 21003KT 1 1/2SM BR FEW005 OVC009 11/10 A2986 RMK SF2SF6 SLP112

CYQB;2009-11-15 17:14;CYQB 151714Z 20004KT 2SM BR BKN006 OVC010 11/ RMK SF6SF2

CYQB;2009-11-15 17:38;CYQB 151738Z 24005KT 1 1/4SM -DZ BR BKN003 OVC008 11/ RMK FG2SF5SF2

CYQB;2009-11-15 18:00;CYQB 151800Z 25007KT 1 1/4SM R06/5000FT/N -DZ BR BKN003 OVC011 11/11 A2984 RMK FG2SF5SF2 SLP107

CYQB;2009-11-15 19:00;CYQB 151900Z 26005KT 1/2SM R06/6000FT/U FG VV003 11/11 A2983 RMK FG8 SLP103

CYQB;2009-11-15 20:00;CYQB 152000Z 23005KT 1 1/4SM -DZ BR BKN003 OVC011 11/11 A2982 RMK FG2SF5SF2 SLP100

CYQB;2009-11-15 21:00;CYQB 152100Z 24009KT 1 1/2SM -DZ BR BKN004 OVC015 11/11 A2983 RMK FG1SF6SF1 SLP102

CYQB;2009-11-15 21:45;CYQB 152145Z 25009G15KT 5SM BR SCT004 BKN015 OVC021 11/ RMK SF4SC3SC1

CYQB;2009-11-15 22:00;CYQB 152200Z 25012KT 6SM BR SCT004 BKN015 OVC020 11/10 A2983 RMK SF4SC3SC1 SLP104

CYQB;2009-11-15 22:48;CYQB 152248Z 26008KT 8SM BKN008 OVC019 11/ RMK SF7SC1

CYQB;2009-11-15 23:00;CYQB 152300Z 24009KT 8SM BKN008 OVC015 11/10 A2981 RMK SF6SC2 SLP098

CYQB;2009-11-15 23:49;CYQB 152349Z 28010G15KT 8SM OVC005 11/ RMK SF8

CYQB;2009-11-16 00:00;CYQB 160000Z 25009KT 3SM -DZ BR OVC005 11/10 A2981 RMK SF8 SLP097

CYQB;2009-11-16 00:07;CYQB 160007Z 24007KT 3SM -DZ BR OVC003 11/ RMK SF8

CYQB;2009-11-16 00:34;CYQB 160034Z 25011KT 4SM -RA BR SCT004 OVC006 11/ RMK SF4SF4

CYQB;2009-11-16 01:00;CYQB 160100Z 24010KT 5SM BR SCT004 BKN009 OVC050 11/10 A2979 RMK SF3SF4SC1 SLP090

CYQB;2009-11-16 02:00;CYQB 160200Z 25012G19KT 5SM BR FEW004 OVC008 11/10 A2980 RMK SF2SF6 SLP092

CYQB;2009-11-16 03:00;CYQB 160300Z 25010G17KT 5SM BR BKN007 OVC045 11/10 A2979 RMK SF6SC2 SLP091

CYQB;2009-11-16 03:25;CYQB 160325Z 26014KT 5SM BR FEW007 OVC016 10/ RMK SF2SC6

CYQB;2009-11-16 04:00;CYQB 160400Z 25012KT 5SM BR FEW009 SCT020 BKN240 10/09 A2980 RMK SF2SC2CI1 SLP093

CYQB;2009-11-16 05:00;CYQB 160500Z 25010KT 5SM BR FEW009 SCT240 08/08 A2982 RMK SF1CI1 SLP099

CYQB;2009-11-16 06:00;CYQB 160600Z 25013KT 5SM BR FEW240 08/07 A2983 RMK CI1 SLP104

CYQB;2009-11-16 07:00;CYQB 160700Z 26013KT 10SM FEW030 07/06 A2984 RMK SC1 SLP107

CYQB;2009-11-16 08:00;CYQB 160800Z 27011G20KT 15SM FEW040 FEW240 06/03 A2986 RMK SC2CI1 SLP112

CYQB;2009-11-16 09:00;CYQB 160900Z 28009G16KT 15SM FEW040 FEW240 05/02 A2989 RMK SC1CI0 SLP125

CYQB;2009-11-16 10:00;CYQB 161000Z 26008KT 15SM SCT045 04/02 A2991 RMK SC4 SLP130

CYQB;2009-11-16 11:00;CYQB 161100Z 25013KT 15SM FEW040 FEW080 03/00 A2993 RMK SC1AC1 SLP138

CYQB;2009-11-16 12:00;CYQB 161200Z 26011G19KT 15SM SCT044 SCT080 03/M00 A2997 RMK SC3AC1 SLP153

CYQB;2009-11-16 12:05;CYQB 161205Z 27011G19KT 15SM SCT044 SCT080 02/ RMK SC3AC1

CYQB;2009-11-16 13:00;CYQB 161300Z 25014KT 15SM OVC043 03/M02 A2999 RMK SC8 SLP157

CYQB;2009-11-16 14:00;CYQB 161400Z 24014KT 20SM SCT045 04/M01 A2998 RMK SC4 SLP154

CYQB;2009-11-16 15:00;CYQB 161500Z 26016KT 20SM BKN043 06/M02 A2998 RMK SC6 SLP155

CYQB;2009-11-16 16:00;CYQB 161600Z 27015KT 30SM BKN043 06/M02 A2998 RMK SC7 SLP154

CYQB;2009-11-16 17:00;CYQB 161700Z 28015G27KT 30SM BKN042 06/M03 A2998 RMK SC7 SLP155

CYQB;2009-11-16 18:00;CYQB 161800Z 27017KT 30SM BKN044 06/M02 A2999 RMK SC7 SLP157

CYQB;2009-11-16 19:00;CYQB 161900Z 26015G20KT 30SM BKN044 06/M02 A2999 RMK SC7 SLP158

CYQB;2009-11-16 20:00;CYQB 162000Z 27015G20KT 30SM BKN050 06/M03 A2999 RMK SC5 SLP159

CYQB;2009-11-16 21:00;CYQB 162100Z 26006KT 30SM SCT050 04/M02 A3000 RMK SC3 SLP160

CYQB;2009-11-16 22:00;CYQB 162200Z 25009KT 15SM BKN058 05/M02 A3001 RMK SC7 SLP166

CYQB;2009-11-16 23:00;CYQB 162300Z 26009KT 15SM BKN056 05/M03 A3003 RMK SC6 SLP171

CYQB;2009-11-17 00:00;CYQB 170000Z 26011KT 15SM BKN050 04/M03 A3004 RMK SC6 SLP177

CYQB;2009-11-17 01:00;CYQB 170100Z 27009KT 15SM FEW050 03/M03 A3005 RMK SC2 SLP180

CYQB;2009-11-17 02:00;CYQB 170200Z 26008KT 15SM FEW110 02/M04 A3007 RMK AC2 SLP185

CYQB;2009-11-17 03:00;CYQB 170300Z 26010KT 15SM FEW130 02/M04 A3008 RMK AC1 SLP188

CYQB;2009-11-17 04:00;CYQB 170400Z 27010KT 15SM FEW045 SCT130 02/M03 A3010 RMK SC1AC2 SLP195

CYQB;2009-11-17 05:00;CYQB 170500Z 34012G18KT 15SM FEW045 SCT120 04/M04 A3010 RMK SC1AC4 SLP197

CYQB;2009-11-17 06:00;CYQB 170600Z 34007KT 15SM SCT037 BKN120 04/M04 A3015 RMK SC3AC2 SLP212

CYQB;2009-11-17 07:00;CYQB 170700Z 36008KT 15SM BKN037 BKN120 03/M04 A3017 RMK SC5AC1 SLP220

CYQB;2009-11-17 08:00;CYQB 170800Z 30005KT 15SM SCT036 02/M03 A3020 RMK SC3 SLP229

CYQB;2009-11-17 09:00;CYQB 170900Z 32007KT 15SM FEW032 01/M03 A3021 RMK SC2 SLP234

CYQB;2009-11-17 10:00;CYQB 171000Z 29005KT 15SM FEW032 00/M03 A3024 RMK SC2 SLP242

CYQB;2009-11-17 11:00;CYQB 171100Z 31005KT 15SM FEW032 00/M04 A3026 RMK SC2 SLP249

CYQB;2009-11-17 12:00;CYQB 171200Z 27005KT 25SM FEW030 M01/M04 A3028 RMK SC1 SLP259

CYQB;2009-11-17 13:00;CYQB 171300Z 31004KT 30SM FEW030 02/M03 A3030 RMK SC1 SLP266

CYQB;2009-11-17 14:00;CYQB 171400Z 34006KT 30SM FEW030 03/M03 A3033 RMK SC1 SLP273

CYQB;2009-11-17 15:00;CYQB 171500Z 35006KT 30SM FEW030 04/M04 A3035 RMK SC1 SLP281

CYQB;2009-11-17 16:00;CYQB 171600Z 00000KT 30SM FEW030 05/M04 A3036 RMK SC1 SLP283

CYQB;2009-11-17 17:00;CYQB 171700Z 22005KT 30SM FEW030 07/M02 A3036 RMK SC1 SLP283

CYQB;2009-11-17 18:00;CYQB 171800Z 22010KT 30SM FEW030 06/M02 A3035 RMK SC1 SLP280

CYQB;2009-11-17 19:00;CYQB 171900Z 22010KT 30SM SKC 06/M03 A3035 RMK SLP281

CYQB;2009-11-17 20:00;CYQB 172000Z 24008KT 30SM SKC 06/M02 A3036 RMK SLP282

CYQB;2009-11-17 21:00;CYQB 172100Z 23008KT 30SM SKC 04/M02 A3036 RMK SLP285

CYQB;2009-11-17 22:00;CYQB 172200Z 23005KT 30SM SKC 02/M03 A3037 RMK SLP288

CYQB;2009-11-17 23:00;CYQB 172300Z 24007KT 15SM SKC 02/M02 A3038 RMK SLP292

CYQB;2009-11-18 00:00;CYQB 180000Z 22008KT 15SM SKC 01/M02 A3039 RMK SLP296

CYQB;2009-11-18 01:00;CYQB 180100Z 22005KT 15SM SKC M00/M03 A3041 RMK SLP301

CYQB;2009-11-18 02:00;CYQB 180200Z 23005KT 15SM SKC M00/M03 A3042 RMK SLP304

CYQB;2009-11-18 03:00;CYQB 180300Z 26004KT 15SM SKC M01/M03 A3042 RMK SLP306

CYQB;2009-11-18 04:00;CYQB 180400Z 22008KT 15SM SKC M01/M03 A3042 RMK SLP306

CYQB;2009-11-18 05:00;CYQB 180500Z 25006KT 15SM SKC M01/M03 A3044 RMK SLP310

CYQB;2009-11-18 06:00;CYQB 180600Z 24005KT 15SM FEW090 M01/M04 A3043 RMK AC1 SLP307

CYQB;2009-11-18 07:00;CYQB 180700Z 32003KT 15SM FEW090 M02/M05 A3043 RMK AC1 SLP309

CYQB;2009-11-18 08:00;CYQB 180800Z 27005KT 15SM FEW090 M03/M06 A3044 RMK AC1 SLP310

CYQB;2009-11-18 09:00;CYQB 180900Z 24009KT 15SM FEW090 M02/M04 A3043 RMK AC1 SLP307

CYQB;2009-11-18 10:00;CYQB 181000Z 23010KT 15SM FEW015 FEW090 M02/M03 A3043 RMK SC1AC1 SLP309

CYQB;2009-11-18 11:00;CYQB 181100Z 23010KT 15SM FEW015 FEW090 M02/M04 A3045 RMK SC1AC1 SLP314

CYQB;2009-11-18 12:00;CYQB 181200Z 23010KT 20SM FEW015 FEW090 M02/M04 A3046 RMK SC1AC1 SLP319

CYQB;2009-11-18 13:00;CYQB 181300Z 24008KT 20SM FEW015 FEW090 M02/M03 A3047 RMK SC1AC1 SLP321

CYQB;2009-11-18 14:00;CYQB 181400Z 24011KT 15SM FEW015 FEW090 FEW240 M01/M02 A3047 RMK SC1AC1CI0 SLP322

CYQB;2009-11-18 15:00;CYQB 181500Z 23010KT 15SM FEW090 FEW240 01/M01 A3047 RMK AC1CI0 SLP321

CYQB;2009-11-18 16:00;CYQB 181600Z 23012KT 20SM FEW240 03/M01 A3044 RMK CI0 SLP314

CYQB;2009-11-18 17:00;CYQB 181700Z 25012KT 20SM FEW240 05/M01 A3042 RMK CI0 SLP307

CYQB;2009-11-18 18:00;CYQB 181800Z 24013KT 25SM FEW240 06/M02 A3041 RMK CI0 SLP301

CYQB;2009-11-18 19:00;CYQB 181900Z 25016KT 25SM FEW160 FEW240 06/M02 A3040 RMK AC1CI1 SLP297

CYQB;2009-11-18 20:00;CYQB 182000Z 26012KT 20SM FEW160 FEW240 05/M02 A3039 RMK AC1CI1 SLP295

CYQB;2009-11-18 21:00;CYQB 182100Z 26011KT 20SM FEW160 FEW240 04/M03 A3039 RMK AC1CI1 SLP295

CYQB;2009-11-18 22:00;CYQB 182200Z 27009KT 15SM FEW240 03/M03 A3039 RMK CI1 SLP293

CYQB;2009-11-18 23:00;CYQB 182300Z 27010KT 15SM FEW240 02/M02 A3039 RMK CI1 SLP293

CYQB;2009-11-19 00:00;CYQB 190000Z 26004KT 15SM SKC 02/M02 A3040 RMK SLP298

CYQB;2009-11-19 01:00;CYQB 190100Z 24008KT 15SM SKC 02/M02 A3039 RMK SLP295

CYQB;2009-11-19 02:00;CYQB 190200Z 26002KT 15SM SKC 00/M03 A3040 RMK SLP299

CYQB;2009-11-19 03:00;CYQB 190300Z 00000KT 15SM SKC M01/M03 A3040 RMK SLP298

CYQB;2009-11-19 04:00;CYQB 190400Z 29002KT 15SM SKC 00/M02 A3040 RMK SLP297

CYQB;2009-11-19 05:00;CYQB 190500Z 22003KT 15SM SKC M02/M03 A3039 RMK SLP294

CYQB;2009-11-19 06:00;CYQB 190600Z 23004KT 15SM SKC M03/M04 A3038 RMK SLP290

CYQB;2009-11-19 07:00;CYQB 190700Z 00000KT 15SM FEW005 M01/M02 A3038 RMK ST1 VIS E 5 BR FROIN SLP290

CYQB;2009-11-19 08:00;CYQB 190800Z 00000KT 15SM FEW005 M02/M04 A3037 RMK ST1 VIS E 5 BR SLP289

CYQB;2009-11-19 09:00;CYQB 190900Z 00000KT 15SM FEW005 FEW090 M03/M04 A3037 RMK ST1AC1 VIS E 5 BR SLP289

CYQB;2009-11-19 10:00;CYQB 191000Z 00000KT 15SM FEW005 FEW090 M04/M06 A3037 RMK SF1AC1 FROIN SLP288

CYQB;2009-11-19 11:00;CYQB 191100Z 00000KT 15SM FEW005 FEW090 M04/M06 A3038 RMK SF1AC1 SLP290

CYQB;2009-11-19 12:00;CYQB 191200Z 00000KT 20SM FEW005 M06/M07 A3038 RMK SF2 VIS SE-W 3 BR SLP292

CYQB;2009-11-19 13:00;CYQB 191300Z 36002KT 2SM BR SCT001 M04/M05 A3038 RMK SF4 VIS N 15 SLP293

CYQB;2009-11-19 13:12;CYQB 191312Z CCA 00000KT 1SM R06/P6000FT/N BR BKN002 M03/ RMK SF5 VIS N 15

CYQB;2009-11-19 13:48;CYQB 191348Z 27002KT 2SM BR SCT001 M01/ RMK SF3 VIS HIER N

CYQB;2009-11-19 14:00;CYQB 191400Z 26002KT 2 1/2SM BR SCT002 M00/M01 A3038 RMK SF2 VIS N 15 SLP293

CYQB;2009-11-19 14:33;CYQB 191433Z 00000KT 4SM BR FEW002 02/ RMK SF2 VIS N 20

CYQB;2009-11-19 15:00;CYQB 191500Z 33002KT 5SM BR FEW002 02/00 A3038 RMK SF1 SLP291

CYQB;2009-11-19 16:00;CYQB 191600Z 25003KT 15SM FEW020 06/01 A3036 RMK SC1 SLP283

CYQB;2009-11-19 17:00;CYQB 191700Z 22005KT 20SM FEW020 FEW240 07/01 A3033 RMK SC1CI1 SLP275

CYQB;2009-11-19 18:00;CYQB 191800Z 22006KT 25SM FEW240 07/00 A3031 RMK CI1 SLP267

CYQB;2009-11-19 19:00;CYQB 191900Z 22007KT 25SM FEW240 08/M01 A3029 RMK CI1 SLP260

CYQB;2009-11-19 20:00;CYQB 192000Z 23004KT 30SM FEW090 FEW240 08/M01 A3027 RMK AC1CI1 SLP254

CYQB;2009-11-19 21:00;CYQB 192100Z 25005KT 15SM FEW020 FEW090 FEW240 04/M01 A3025 RMK CU1AC1CI1 SLP249

CYQB;2009-11-19 22:00;CYQB 192200Z 30003KT 15SM FEW090 FEW240 03/M01 A3024 RMK AC1CI2 SLP244

CYQB;2009-11-19 23:00;CYQB 192300Z 05002KT 15SM FEW090 FEW240 02/M02 A3023 RMK AC1CI2 SLP241

CYQB;2009-11-20 00:00;CYQB 200000Z 00000KT 15SM FEW240 M01/M03 A3021 RMK CI2 SLP235

CYQB;2009-11-20 01:00;CYQB 200100Z 34002KT 15SM FEW240 M00/M03 A3020 RMK CI2 SLP231

CYQB;2009-11-20 02:00;CYQB 200200Z 01004KT 15SM FEW240 00/M03 A3018 RMK CI2 SLP225

CYQB;2009-11-20 03:00;CYQB 200300Z 00000KT 15SM FEW240 M01/M04 A3017 RMK CI0 SLP219

CYQB;2009-11-20 04:00;CYQB 200400Z 00000KT 15SM FEW240 M01/M05 A3015 RMK CI0 SLP215

CYQB;2009-11-20 05:00;CYQB 200500Z 02004KT 15SM FEW180 BKN240 01/M05 A3013 RMK AC1CI4 SLP208

CYQB;2009-11-20 06:00;CYQB 200600Z 02002KT 15SM FEW160 SCT240 01/M05 A3012 RMK AC1CI2 SLP202

CYQB;2009-11-20 07:00;CYQB 200700Z 05002KT 15SM FEW085 FEW240 01/M05 A3010 RMK AC1CI2 SLP196

CYQB;2009-11-20 08:00;CYQB 200800Z 03003KT 15SM FEW030 FEW085 FEW240 02/M05 A3007 RMK SC1AC1CI1 SLP187

CYQB;2009-11-20 09:00;CYQB 200900Z 05004KT 15SM BKN029 BKN085 02/M04 A3005 RMK SC5AC1 SLP178

CYQB;2009-11-20 09:39;CYQB 200939Z 35004KT 8SM -RA FEW014 OVC028 02/ RMK SC2SC6

CYQB;2009-11-20 10:00;CYQB 201000Z 35004KT 4SM -RA BR BKN013 OVC029 02/M01 A3001 RMK SC5SC3 SLP166

CYQB;2009-11-20 11:00;CYQB 201100Z 03006KT 4SM -RA BR FEW007 BKN016 OVC043 02/01 A2999 RMK SF1SC5SC2 SLP159

CYQB;2009-11-20 11:29;CYQB 201129Z 03004KT 4SM -RA BR BKN007 OVC018 02/ RMK SF6SC2 CIG RAG

CYQB;2009-11-20 12:00;CYQB 201200Z 03005KT 4SM -RA BR SCT007 OVC018 02/02 A2997 RMK SF3SC5 VIS LWR W SLP151

CYQB;2009-11-20 13:00;CYQB 201300Z 04005KT 3SM -RA BR BKN018 OVC054 03/02 A2993 RMK SC6SC2 SLP140

CYQB;2009-11-20 13:23;CYQB 201323Z 05002KT 2SM -RA BR OVC029 03/ RMK SC8

CYQB;2009-11-20 13:48;CYQB 201348Z 02005KT 1 1/2SM -RA BR SCT023 OVC036 03/ RMK SC4SC4 CIG RAG

CYQB;2009-11-20 14:00;CYQB 201400Z 03004KT 1 1/2SM -RA BR BKN017 OVC033 03/03 A2990 RMK SC6SC2 CIG RAG SLP128

CYQB;2009-11-20 15:00;CYQB 201500Z 05007KT 2SM -RA BR BKN016 OVC035 04/04 A2987 RMK SC6SC2 SLP117

CYQB;2009-11-20 15:31;CYQB 201531Z 03006KT 1 1/2SM -RA BR FEW002 BKN016 OVC040 04/ RMK SF1SC5SC3

CYQB;2009-11-20 16:00;CYQB 201600Z 06007KT 1 1/2SM -RA BR SCT002 OVC043 05/04 A2981 RMK SF4SC4 SLP098

CYQB;2009-11-20 16:06;CYQB 201606Z 04005KT 1SM R06/P6000FT/N -RA BR BKN002 OVC016 05/ RMK SF6SC2 CIG RAG

CYQB;2009-11-20 16:16;CYQB 201616Z 08010KT 3/4SM R06/P6000FT/D -RA BR OVC002 05/ RMK SF8

CYQB;2009-11-20 17:00;CYQB 201700Z 04004KT 1 1/2SM BR SCT002 OVC011 05/05 A2976 RMK SF4SC4 SLP082

CYQB;2009-11-20 17:46;CYQB 201746Z 21006KT 1SM R06/P6000FT/D -SHRA BR OVC003 05/ RMK SF8

CYQB;2009-11-20 18:00;CYQB 201800Z 19007KT 3/4SM R06/P6000FT/D -SHRA BR BKN003 OVC018 06/05 A2977 RMK SF6SC2 SLP084

CYQB;2009-11-20 18:38;CYQB 201838Z 23004KT 1 1/2SM -SHRA BR SCT003 OVC008 07/ RMK SF4SF4

CYQB;2009-11-20 19:00;CYQB 201900Z 23008KT 2SM -SHRA BR OVC006 07/06 A2975 RMK SF8 SLP078

CYQB;2009-11-20 19:21;CYQB 201921Z 24010KT 3SM -SHRA BR SCT006 OVC011 07/ RMK SF4SC4

CYQB;2009-11-20 19:54;CYQB 201954Z 22009KT 4SM -SHRA BR FEW006 SCT011 OVC017 RMK SF2SC2SC4

CYQB;2009-11-20 20:00;CYQB 202000Z 23009KT 5SM -SHRA BR SCT006 SCT011 OVC016 07/07 A2976 RMK SF3SC1SC4 SLP081

CYQB;2009-11-20 21:00;CYQB 202100Z 24014KT 8SM SCT014 OVC027 07/06 A2975 RMK SC3SC5 VIS NW 4 SLP077

CYQB;2009-11-20 22:00;CYQB 202200Z 23010G15KT 10SM SCT015 OVC039 07/05 A2974 RMK SC3SC5 SLP073

CYQB;2009-11-20 23:00;CYQB 202300Z 22009KT 15SM OVC036 07/05 A2972 RMK SC8 SLP067

CYQB;2009-11-21 00:00;CYQB 210000Z 25008KT 15SM OVC017 06/05 A2969 RMK SC8 SLP057

CYQB;2009-11-21 00:36;CYQB 210036Z 25009KT 6SM -SHRA BR OVC010 06/ RMK SC8

CYQB;2009-11-21 00:50;CYQB 210050Z 25011KT 5SM -SHRA BR SCT005 BKN012 OVC016 06/ RMK SF3SC3SC2

CYQB;2009-11-21 01:00;CYQB 210100Z 24010KT 5SM -SHRA BR SCT005 BKN013 BKN017 OVC027 06/05 A2967 RMK SF3SC2SC2SC1 SLP051

CYQB;2009-11-21 01:44;CYQB 210144Z 25010KT 10SM SCT008 BKN013 OVC022 06/ RMK SF3SC4SC1

CYQB;2009-11-21 02:00;CYQB 210200Z 27013KT 10SM FEW006 BKN010 OVC027 06/05 A2967 RMK SF2SC5SC2 SLP051

CYQB;2009-11-21 03:00;CYQB 210300Z CCA 27014KT 15SM BKN010 OVC028 06/05 A2968 RMK SC5SC3 VIS NW 4 SLP053

CYQB;2009-11-21 03:40;CYQB 210340Z 26015KT 15SM SCT010 OVC023 06/ RMK SC3SC5

CYQB;2009-11-21 04:00;CYQB 210400Z 25013G20KT 15SM FEW010 BKN023 OVC040 06/05 A2970 RMK SC2SC6SC1 SLP058

CYQB;2009-11-21 05:00;CYQB 210500Z 25017G24KT 15SM FEW012 OVC023 06/04 A2970 RMK SC2SC6 SLP060

CYQB;2009-11-21 06:00;CYQB 210600Z 25016G21KT 8SM -RA BKN010 OVC020 06/04 A2972 RMK SC6SC2 SLP065

CYQB;2009-11-21 07:00;CYQB 210700Z 25016KT 5SM -RA BR OVC011 06/05 A2975 RMK SC8 SLP076

CYQB;2009-11-21 08:00;CYQB 210800Z 25014G19KT 6SM -RA BR SCT011 OVC038 06/05 A2976 RMK SC4SC4 SLP079

CYQB;2009-11-21 09:00;CYQB 210900Z 25014KT 10SM FEW011 BKN025 06/05 A2977 RMK SC2SC3 SLP083

CYQB;2009-11-21 10:00;CYQB 211000Z 25015KT 10SM BKN021 06/05 A2980 RMK SC7 SLP092

CYQB;2009-11-21 11:00;CYQB 211100Z 26015KT 15SM BKN024 07/05 A2983 RMK SC6 SLP105

CYQB;2009-11-21 12:00;CYQB 211200Z 26013KT 20SM FEW010 OVC020 06/05 A2987 RMK SF1SC8 SLP117

CYQB;2009-11-21 13:00;CYQB 211300Z 26012G18KT 20SM FEW010 BKN027 07/05 A2989 RMK SF1SC7 SLP126

CYQB;2009-11-21 14:00;CYQB 211400Z 24011KT 20SM FEW020 BKN026 07/05 A2992 RMK SC1SC7 SLP133

CYQB;2009-11-21 15:00;CYQB 211500Z 26012KT 20SM OVC024 07/05 A2993 RMK SC7 SLP138

CYQB;2009-11-21 16:00;CYQB 211600Z 27014KT 20SM OVC023 07/04 A2995 RMK SC8 SLP145

CYQB;2009-11-21 17:00;CYQB 211700Z 30016KT 20SM OVC028 07/03 A2997 RMK SC8 SLP150

CYQB;2009-11-21 18:00;CYQB 211800Z 29015G20KT 20SM BKN028 06/02 A2998 RMK SC7 SLP155

CYQB;2009-11-21 19:00;CYQB 211900Z 28012G18KT 20SM BKN029 06/01 A3000 RMK SC7 SLP161

CYQB;2009-11-21 20:00;CYQB 212000Z 29009KT 20SM BKN029 05/01 A3001 RMK SC6 SLP166

CYQB;2009-11-21 21:00;CYQB 212100Z 29012KT 20SM SCT030 05/M00 A3004 RMK SC4 SLP174

CYQB;2009-11-21 22:00;CYQB 212200Z 29007KT 20SM BKN030 05/00 A3007 RMK SC6 SLP185

CYQB;2009-11-21 23:00;CYQB 212300Z 29003KT 20SM FEW030 SCT240 04/M01 A3009 RMK SC2CI0 SLP192

CYQB;2009-11-22 00:00;CYQB 220000Z 22002KT 20SM FEW030 FEW240 03/M01 A3011 RMK SC1CI1 SLP199

CYQB;2009-11-22 01:00;CYQB 220100Z 24002KT 20SM FEW030 FEW240 02/M02 A3012 RMK SC1CI1 SLP204

CYQB;2009-11-22 02:00;CYQB 220200Z 27007KT 20SM SKC 00/M03 A3014 RMK SLP208

CYQB;2009-11-22 03:00;CYQB 220300Z 25005KT 15SM SKC 00/M02 A3015 RMK SLP213

CYQB;2009-11-22 04:00;CYQB 220400Z 27004KT 15SM SCT230 00/M02 A3017 RMK CI2 SLP218

CYQB;2009-11-22 05:00;CYQB 220500Z 24005KT 15SM FEW240 M00/M02 A3018 RMK CI0 SLP223

CYQB;2009-11-22 06:00;CYQB 220600Z 28008KT 15SM SKC M01/M03 A3019 RMK SLP226

CYQB;2009-11-22 07:00;CYQB 220700Z 25004KT 15SM SKC M02/M03 A3022 RMK SLP238

CYQB;2009-11-22 08:00;CYQB 220800Z 26002KT 15SM SKC M02/M03 A3025 RMK SLP246

CYQB;2009-11-22 09:00;CYQB 220900Z 00000KT 15SM FEW090 M02/M04 A3027 RMK AC1 SLP255

CYQB;2009-11-22 10:00;CYQB 221000Z 03004KT 15SM FEW090 M01/M03 A3029 RMK AC1 SLP262

CYQB;2009-11-22 11:00;CYQB 221100Z 03003KT 15SM BKN024 BKN100 M01/M02 A3033 RMK SC6AC1 SLP273

CYQB;2009-11-22 12:00;CYQB 221200Z 03004KT 20SM SCT022 SCT100 BKN220 00/M02 A3036 RMK SC4AC1CI0 SLP283

CYQB;2009-11-22 13:00;CYQB 221300Z 08004KT 15SM FEW025 SCT100 M00/M02 A3038 RMK SC2AC1 SLP292

CYQB;2009-11-22 14:00;CYQB 221400Z 06006KT 15SM BKN028 01/M00 A3041 RMK SC7 SLP301

CYQB;2009-11-22 15:00;CYQB 221500Z 07006KT 12SM BKN029 02/M00 A3044 RMK SC7 SLP310

CYQB;2009-11-22 16:00;CYQB 221600Z 07004KT 15SM BKN028 03/00 A3043 RMK SC7 SLP308

CYQB;2009-11-22 17:00;CYQB 221700Z 04005KT 15SM BKN030 04/00 A3043 RMK SC7 SLP309

CYQB;2009-11-22 18:00;CYQB 221800Z 06004KT 15SM BKN029 04/M01 A3043 RMK SC7 SLP309

CYQB;2009-11-22 19:00;CYQB 221900Z 05005KT 15SM BKN028 04/M00 A3044 RMK SC7 SLP310

CYQB;2009-11-22 20:00;CYQB 222000Z 09005KT 15SM BKN028 04/M01 A3045 RMK SC7 SLP315

CYQB;2009-11-22 21:00;CYQB 222100Z 11004KT 15SM BKN027 03/M02 A3046 RMK SC7 SLP320

CYQB;2009-11-22 22:00;CYQB 222200Z 09004KT 15SM BKN025 02/M02 A3048 RMK SC7 SLP327

CYQB;2009-11-22 23:00;CYQB 222300Z 08004KT 15SM BKN026 02/M02 A3050 RMK SC7 SLP332

CYQB;2009-11-23 00:00;CYQB 230000Z 06004KT 15SM FEW026 01/M02 A3051 RMK SC2 SLP335

CYQB;2009-11-23 01:00;CYQB 230100Z 05004KT 15SM FEW026 01/M02 A3052 RMK SC1 SLP338

CYQB;2009-11-23 02:00;CYQB 230200Z 03003KT 15SM SKC 00/M02 A3052 RMK SLP338

CYQB;2009-11-23 03:00;CYQB 230300Z 04003KT 15SM SKC M01/M03 A3052 RMK SLP340

CYQB;2009-11-23 04:00;CYQB 230400Z 02004KT 15SM SKC M01/M03 A3053 RMK SLP342

CYQB;2009-11-23 05:00;CYQB 230500Z 02003KT 15SM SKC M01/M03 A3052 RMK SLP341

CYQB;2009-11-23 06:00;CYQB 230600Z 36002KT 15SM SKC M02/M04 A3052 RMK SLP341

CYQB;2009-11-23 07:00;CYQB 230700Z 01004KT 15SM SKC M02/M04 A3052 RMK SLP341

CYQB;2009-11-23 08:00;CYQB 230800Z 02002KT 15SM SKC M02/M03 A3052 RMK SLP340

CYQB;2009-11-23 09:00;CYQB 230900Z 02004KT 15SM SKC M02/M03 A3053 RMK SLP342

CYQB;2009-11-23 10:00;CYQB 231000Z CCA 00000KT 15SM SKC M02/M04 A3053 RMK FROIN SLP342

CYQB;2009-11-23 11:00;CYQB 231100Z 36003KT 15SM SKC M02/M04 A3054 RMK SLP346

CYQB;2009-11-23 12:00;CYQB 231200Z 01003KT 15SM SKC M02/M04 A3055 RMK SLP349

CYQB;2009-11-23 13:00;CYQB 231300Z 01003KT 30SM SKC M01/M03 A3056 RMK SLP352

CYQB;2009-11-23 14:00;CYQB 231400Z 01003KT 20SM SKC 01/M02 A3056 RMK SLP352

CYQB;2009-11-23 15:00;CYQB 231500Z 09002KT 20SM SKC 02/M01 A3055 RMK SLP350

CYQB;2009-11-23 16:00;CYQB 231600Z 06002KT 20SM SKC 04/M01 A3052 RMK SLP341

CYQB;2009-11-23 17:00;CYQB 231700Z 00000KT 20SM SKC 05/M00 A3050 RMK SLP334

CYQB;2009-11-23 18:00;CYQB 231800Z 22003KT 25SM SKC 07/00 A3049 RMK SLP327

CYQB;2009-11-23 19:00;CYQB 231900Z 18004KT 20SM SKC 07/01 A3048 RMK SLP324

CYQB;2009-11-23 20:00;CYQB 232000Z 27004KT 20SM SKC 06/01 A3047 RMK SLP321

CYQB;2009-11-23 21:00;CYQB 232100Z 19003KT 20SM SKC 05/00 A3046 RMK SLP319

CYQB;2009-11-23 22:00;CYQB 232200Z 00000KT 15SM SKC 01/M01 A3046 RMK SLP318

CYQB;2009-11-23 23:00;CYQB 232300Z 00000KT 15SM SKC 00/M01 A3046 RMK SLP318

CYQB;2009-11-24 00:00;CYQB 240000Z 02002KT 15SM SKC 01/M01 A3045 RMK SLP315

CYQB;2009-11-24 01:00;CYQB 240100Z 03004KT 8SM SKC 00/M01 A3044 RMK FROIN SLP312

CYQB;2009-11-24 02:00;CYQB 240200Z 36004KT 15SM SKC 00/M01 A3043 RMK SLP308

CYQB;2009-11-24 03:00;CYQB 240300Z 36004KT 15SM SKC M00/M01 A3041 RMK SLP302

CYQB;2009-11-24 04:00;CYQB 240400Z 01005KT 15SM SKC M00/M02 A3041 RMK SLP301

CYQB;2009-11-24 05:00;CYQB 240500Z 02003KT 15SM SKC M01/M02 A3039 RMK SLP294

CYQB;2009-11-24 06:00;CYQB 240600Z 02004KT 15SM SKC M01/M02 A3039 RMK SLP294

CYQB;2009-11-24 07:00;CYQB 240700Z 36003KT 15SM SKC M01/M02 A3039 RMK SLP293

CYQB;2009-11-24 08:00;CYQB 240800Z 01004KT 15SM BKN032 M02/M03 A3038 RMK SC6 SLP292

CYQB;2009-11-24 09:00;CYQB 240900Z 04003KT 15SM OVC024 M00/M02 A3037 RMK SC8 SLP287

CYQB;2009-11-24 10:00;CYQB 241000Z 03003KT 15SM OVC024 00/M02 A3037 RMK SC8 SLP287

CYQB;2009-11-24 11:00;CYQB 241100Z 03005KT 10SM OVC025 01/M01 A3036 RMK SC8 SLP285

CYQB;2009-11-24 12:00;CYQB 241200Z 01004KT 15SM OVC023 01/M01 A3036 RMK SC8 SLP285

CYQB;2009-11-24 13:00;CYQB 241300Z 07002KT 20SM OVC022 01/M01 A3036 RMK SC8 SLP285

CYQB;2009-11-24 14:00;CYQB 241400Z 02002KT 20SM OVC020 02/M00 A3036 RMK SC8 SLP283

CYQB;2009-11-24 15:00;CYQB 241500Z 02005KT 20SM OVC017 03/00 A3034 RMK SC8 SLP279

CYQB;2009-11-24 16:00;CYQB 241600Z 02002KT 20SM OVC018 04/01 A3033 RMK SC8 SLP275

CYQB;2009-11-24 17:00;CYQB 241700Z 03005KT 20SM OVC018 05/01 A3032 RMK SC8 SLP270

CYQB;2009-11-24 18:00;CYQB 241800Z 04005KT 20SM OVC016 06/01 A3029 RMK SC8 SLP261

CYQB;2009-11-24 19:00;CYQB 241900Z 02002KT 25SM OVC016 07/03 A3028 RMK SC8 SLP257

CYQB;2009-11-24 20:00;CYQB 242000Z 05002KT 20SM BKN024 07/02 A3027 RMK SC7 SLP253

CYQB;2009-11-24 21:00;CYQB 242100Z 17003KT 20SM OVC020 06/02 A3027 RMK SC8 SLP252

CYQB;2009-11-24 22:00;CYQB 242200Z 00000KT 15SM OVC021 06/02 A3026 RMK SC8 SLP250

CYQB;2009-11-24 23:00;CYQB 242300Z 08003KT 15SM OVC020 06/03 A3026 RMK SC8 SLP249

CYQB;2009-11-25 00:00;CYQB 250000Z 09006KT 15SM OVC020 05/03 A3026 RMK SC8 SLP250

CYQB;2009-11-25 01:00;CYQB 250100Z 06006KT 8SM BKN005 OVC020 04/03 A3026 RMK SF5SC3 SLP249

CYQB;2009-11-25 01:23;CYQB 250123Z 06006KT 8SM FEW005 OVC021 04/ RMK SF2SC6

CYQB;2009-11-25 01:48;CYQB 250148Z 06007KT 8SM BKN006 OVC019 04/ RMK SF6SC2

CYQB;2009-11-25 02:00;CYQB 250200Z 07007KT 5SM BR BKN005 OVC018 04/03 A3025 RMK SF6SC2 SLP245

CYQB;2009-11-25 03:00;CYQB 250300Z 07007KT 5SM -RA BR SCT005 OVC013 04/03 A3024 RMK SF4SC4 SLP243

CYQB;2009-11-25 04:00;CYQB 250400Z 07008KT 1 1/2SM -RA BR BKN004 OVC013 04/03 A3023 RMK SF7SC1 SLP241

CYQB;2009-11-25 05:00;CYQB 250500Z 07008KT 1SM R06/P6000FT/D -RA BR OVC003 04/03 A3022 RMK SF8 SLP238

CYQB;2009-11-25 06:00;CYQB 250600Z 07006KT 1SM R06/P6000FT/D -RA BR OVC006 04/03 A3022 RMK SF8 SLP235

CYQB;2009-11-25 07:00;CYQB 250700Z 08008KT 3/4SM R06/P6000FT/D -RA BR OVC004 03/03 A3022 RMK SF8 SLP235

CYQB;2009-11-25 08:00;CYQB 250800Z 07006KT 6SM BR OVC005 04/03 A3021 RMK SF8 SLP232

CYQB;2009-11-25 09:00;CYQB 250900Z 07005KT 5SM BR OVC006 04/03 A3021 RMK SF8 SLP233

CYQB;2009-11-25 10:00;CYQB 251000Z 08006KT 6SM -DZ BR OVC004 03/03 A3020 RMK SF8 SLP231

CYQB;2009-11-25 11:00;CYQB 251100Z 07011KT 6SM BR OVC006 03/02 A3020 RMK SF8 SLP230

CYQB;2009-11-25 12:00;CYQB 251200Z 07014KT 5SM BR OVC004 03/02 A3019 RMK SF8 SLP226

CYQB;2009-11-25 13:00;CYQB 251300Z 07012G20KT 5SM BR OVC006 03/02 A3018 RMK SF8 SLP222

CYQB;2009-11-25 14:00;CYQB 251400Z 07010G20KT 5SM BR OVC005 03/02 A3017 RMK SF8 SLP220

CYQB;2009-11-25 15:00;CYQB 251500Z 07013G18KT 5SM BR OVC007 03/02 A3016 RMK SF8 SLP216

CYQB;2009-11-25 16:00;CYQB 251600Z 06012G20KT 5SM BR OVC006 03/02 A3012 RMK SF8 SLP204

CYQB;2009-11-25 17:00;CYQB 251700Z 07012G19KT 8SM OVC007 03/02 A3010 RMK SF8 SLP197

CYQB;2009-11-25 18:00;CYQB 251800Z 07010G16KT 15SM OVC008 03/01 A3008 RMK SF8 SLP188

CYQB;2009-11-25 19:00;CYQB 251900Z 07012G19KT 10SM OVC008 03/02 A3006 RMK SF8 SLP183

CYQB;2009-11-25 19:10;CYQB 251910Z 07011G19KT 3SM -DZ BR OVC008 03/ RMK SF8

CYQB;2009-11-25 20:00;CYQB 252000Z 07012G17KT 5SM -DZ BR BKN007 OVC020 03/02 A3005 RMK SF7SC1 SLP178

CYQB;2009-11-25 21:00;CYQB 252100Z 06015G21KT 5SM BR BKN007 OVC017 03/02 A3003 RMK SF6SC2 SLP172

CYQB;2009-11-25 22:00;CYQB 252200Z 08016KT 5SM BR BKN007 OVC014 03/02 A3002 RMK SF6SC2 SLP168

CYQB;2009-11-25 23:00;CYQB 252300Z 08010G17KT 5SM -DZ BR BKN006 OVC015 03/02 A3001 RMK SF7SC1 SLP166

CYQB;2009-11-26 00:00;CYQB 260000Z 07015G20KT 5SM -SHRA BR BKN006 OVC015 03/02 A2999 RMK SF6SC2 SLP158

CYQB;2009-11-26 01:00;CYQB 260100Z 07015G20KT 5SM -SHRA BR BKN006 OVC017 03/02 A2996 RMK SF6SC2 SLP149

CYQB;2009-11-26 01:24;CYQB 260124Z 07011G20KT 5SM -SHRA BR BKN005 OVC015 02/ RMK SF6SC2

CYQB;2009-11-26 02:00;CYQB 260200Z 07016G21KT 5SM -SHRA BR BKN006 OVC015 02/02 A2993 RMK SF6SC2 SLP140

CYQB;2009-11-26 03:00;CYQB 260300Z 08014G24KT 5SM -SHRA BR BKN006 OVC013 02/02 A2990 RMK SF6SC2 SLP129

CYQB;2009-11-26 04:00;CYQB 260400Z 08011G19KT 3SM -SHRA BR BKN006 BKN012 OVC017 03/02 A2989 RMK SF6SC2SC1 SLP125

CYQB;2009-11-26 05:00;CYQB 260500Z 08011G17KT 3SM -SHRA BR BKN005 OVC014 03/03 A2988 RMK SF5SC3 SLP120

CYQB;2009-11-26 06:00;CYQB 260600Z 07006KT 2SM -SHRA BR BKN004 OVC010 03/03 A2987 RMK SF7SC1 SLP119

CYQB;2009-11-26 07:00;CYQB 260700Z 09008KT 2SM -DZRA BR BKN004 OVC010 03/03 A2988 RMK SF7SC1 SLP120

CYQB;2009-11-26 08:00;CYQB 260800Z 05002KT 1 1/2SM -DZRA BR OVC003 03/03 A2988 RMK SF8 SLP121

CYQB;2009-11-26 09:00;CYQB 260900Z 08005KT 2 1/2SM -DZRA BR OVC003 03/03 A2987 RMK SF8 SLP118

CYQB;2009-11-26 10:00;CYQB 261000Z 08004KT 3SM -DZRA BR OVC004 03/03 A2987 RMK SF8 SLP118

CYQB;2009-11-26 11:00;CYQB 261100Z 07004KT 3SM -DZ BR OVC003 03/03 A2988 RMK SF8 VIS E 1 SLP122

CYQB;2009-11-26 11:35;CYQB 261135Z 05002KT 3SM BR OVC003 03/ RMK SF8 VIS E 1

CYQB;2009-11-26 12:00;CYQB 261200Z 06002KT 3SM BR OVC003 03/03 RMK SF8 CIG VRB 2-4 VIS E 1 ALTM MISG

CYQB;2009-11-26 13:00;CYQB 261300Z 01002KT 3/4SM R06/P6000FT/D BR OVC003 03/03 A2990 RMK SF8 SLP127

CYQB;2009-11-26 13:29;CYQB 261329Z 07002KT 1 1/2SM BR OVC004 04/ RMK SF8

CYQB;2009-11-26 14:00;CYQB 261400Z 08002KT 2SM BR OVC004 04/03 A2990 RMK SF8 SLP129

CYQB;2009-11-26 15:00;CYQB 261500Z 04003KT 3SM BR OVC003 04/04 A2990 RMK SF8 SLP128

CYQB;2009-11-26 16:00;CYQB 261600Z 03004KT 4SM BR BKN004 OVC023 05/04 A2989 RMK SF7SC1 SLP125

CYQB;2009-11-26 17:00;CYQB 261700Z 36003KT 5SM BR SCT004 OVC023 05/05 A2989 RMK SF4SC4 SLP123

CYQB;2009-11-26 18:00;CYQB 261800Z 07002KT 5SM BR FEW004 SCT015 OVC033 07/06 A2988 RMK SF2SC2SC4 SLP120

CYQB;2009-11-26 19:00;CYQB 261900Z 04003KT 5SM BR FEW004 SCT015 OVC035 07/06 A2987 RMK SF1SC3SC4 SLP118

CYQB;2009-11-26 20:00;CYQB 262000Z 05003KT 10SM FEW004 BKN025 OVC060 08/06 A2987 RMK SF1SC5SC2 SLP117

CYQB;2009-11-26 21:00;CYQB 262100Z 00000KT 6SM BR SCT030 OVC055 07/06 A2986 RMK SC3SC5 SLP115

CYQB;2009-11-26 22:00;CYQB 262200Z 05002KT 6SM BR FEW030 OVC055 07/06 A2986 RMK SC2SC6 SLP113

CYQB;2009-11-26 23:00;CYQB 262300Z 07003KT 10SM FEW025 OVC060 06/06 A2985 RMK SC1SC7 SLP112

CYQB;2009-11-27 00:00;CYQB 270000Z 02002KT 10SM FEW030 OVC060 06/05 A2985 RMK SC2SC6 SLP112

CYQB;2009-11-27 01:00;CYQB 270100Z 06002KT 10SM FEW030 OVC060 06/05 A2985 RMK SC1SC7 SLP111

CYQB;2009-11-27 02:00;CYQB 270200Z 04004KT 10SM OVC060 06/05 A2984 RMK SC8 SLP109

CYQB;2009-11-27 03:00;CYQB 270300Z 06005KT 10SM OVC063 06/05 A2982 RMK SC8 SLP100

CYQB;2009-11-27 04:00;CYQB 270400Z CCA 06008KT 10SM OVC068 06/05 A2979 RMK AC8 SLP092

CYQB;2009-11-27 05:00;CYQB 270500Z 06005KT 10SM FEW050 OVC068 06/05 A2977 RMK SC1AC7 SLP085

CYQB;2009-11-27 06:00;CYQB 270600Z 08006KT 10SM BKN058 OVC070 06/05 A2976 RMK SC6AC2 SLP079

CYQB;2009-11-27 07:00;CYQB 270700Z 07011KT 15SM FEW030 SCT055 OVC061 06/05 A2974 RMK SC1SC3SC4 SLP074

CYQB;2009-11-27 08:00;CYQB 270800Z 07009KT 15SM FEW040 OVC055 05/05 A2972 RMK SC2SC6 SLP066

CYQB;2009-11-27 09:00;CYQB 270900Z 08007KT 15SM FEW020 OVC050 05/04 A2971 RMK SC1SC7 SLP062

CYQB;2009-11-27 10:00;CYQB 271000Z 07006KT 10SM FEW005 OVC058 05/04 A2970 RMK SF1SC7 VIS N 3 SLP059

CYQB;2009-11-27 10:35;CYQB 271035Z 09008KT 8SM BKN004 OVC057 05/ RMK SF6SC2

CYQB;2009-11-27 11:00;CYQB 271100Z 08007KT 8SM BKN004 OVC060 05/03 A2968 RMK SF6SC2 SLP053

CYQB;2009-11-27 11:19;CYQB 271119Z 08005KT 8SM BKN003 OVC060 05/ RMK SF7SC1 CIG VRB 2-4

CYQB;2009-11-27 11:48;CYQB 271148Z 07009KT 8SM BKN004 OVC065 05/ RMK SF5SC3

CYQB;2009-11-27 12:00;CYQB 271200Z 08009KT 7SM BKN003 OVC065 05/04 A2967 RMK SF7SC1 SLP051

CYQB;2009-11-27 13:00;CYQB 271300Z 06012G17KT 5SM BR BKN004 OVC065 05/04 A2965 RMK SF6SC2 SLP042

CYQB;2009-11-27 14:00;CYQB 271400Z 06011KT 6SM BR BKN004 OVC065 05/04 A2962 RMK SF6SC2 SLP033

CYQB;2009-11-27 15:00;CYQB 271500Z 08008G16KT 5SM BR OVC004 05/04 A2959 RMK SF8 SLP022

CYQB;2009-11-27 16:00;CYQB 271600Z 08009KT 8SM OVC005 05/04 A2957 RMK SF8 SLP016

CYQB;2009-11-27 17:00;CYQB 271700Z 06009KT 12SM OVC009 06/04 A2951 RMK SF8 PRESFR SLP996

CYQB;2009-11-27 17:32;CYQB 271732Z 08011KT 15SM SCT009 OVC065 06/ RMK SF4SC4

CYQB;2009-11-27 18:00;CYQB 271800Z 09010G15KT 15SM FEW009 OVC066 06/04 A2948 RMK SF1AC8 SLP985

CYQB;2009-11-27 19:00;CYQB 271900Z 08010G16KT 10SM -RA OVC038 05/04 A2945 RMK SC8 SLP976

CYQB;2009-11-27 20:00;CYQB 272000Z 04008KT 4SM -RA BR BKN007 OVC025 04/04 A2942 RMK SF6SC2 SLP967

CYQB;2009-11-27 20:25;CYQB 272025Z 05008KT 2SM -RA BR BKN007 OVC025 04/ RMK SF5SC3

CYQB;2009-11-27 21:00;CYQB 272100Z 07007KT 2SM -RA BR SCT007 OVC017 04/04 A2939 RMK SF4SC4 SLP956

CYQB;2009-11-27 21:20;CYQB 272120Z 02004KT 4SM -RA BR SCT007 BKN017 OVC028 05/ RMK SF4SC2SC2

CYQB;2009-11-27 22:00;CYQB 272200Z 11004KT 1SM R06/P6000FT/N -RA BR SCT006 OVC028 04/04 A2936 RMK SF4SC4 VIS SE-SW 3 SLP946

CYQB;2009-11-27 22:11;CYQB 272211Z 10003KT 3SM -RA BR SCT006 OVC028 04/ RMK SF4SC4

CYQB;2009-11-27 22:25;CYQB 272225Z 09004KT 3SM -RA BR BKN003 BKN007 OVC018 04/ RMK SF5SF2SC1

CYQB;2009-11-27 23:00;CYQB 272300Z 07002KT 3SM -RA BR BKN003 OVC015 04/04 A2932 RMK SF6SC2 SLP932

CYQB;2009-11-27 23:50;CYQB 272350Z 16004KT 1/2SM R06/P6000FT/N -RA FG BKN002 OVC035 03/ RMK FG2SF5SC2

CYQB;2009-11-28 00:00;CYQB 280000Z 15004KT 3/4SM R06/P6000FT/N -RA BR BKN002 OVC025 03/03 A2928 RMK FG1SF6SC2 SLP918

CYQB;2009-11-28 00:14;CYQB 280014Z 16005KT 5SM -RA BR SCT002 OVC031 03/ RMK SF4SC4

CYQB;2009-11-28 00:28;CYQB 280028Z 15006KT 2 1/2SM -RA BR BKN003 OVC030 03/ RMK SF5SC3

CYQB;2009-11-28 01:00;CYQB 280100Z 12003KT 8SM -RA FEW006 SCT015 OVC031 03/03 A2925 RMK SF2SC2SC4 SLP906

CYQB;2009-11-28 02:00;CYQB 280200Z 10004KT 5SM -RA BR FEW006 BKN017 OVC030 03/02 A2923 RMK SF2SC4SC2 SLP899

CYQB;2009-11-28 02:24;CYQB 280224Z 08004KT 6SM -RA BR FEW006 SCT017 OVC030 02/ RMK SF2SC2SC4

CYQB;2009-11-28 03:00;CYQB 280300Z 12003KT 4SM -RA BR SCT005 OVC017 02/02 A2920 RMK SF4SC4 SLP889

CYQB;2009-11-28 04:00;CYQB 280400Z 14002KT 5SM -RASN SCT005 BKN010 OVC017 01/01 A2917 RMK SF3SC4SC1 SLP881

CYQB;2009-11-28 05:00;CYQB 280500Z 19004KT 4SM -RA BR FEW005 BKN010 OVC017 01/00 A2915 RMK SF1SC6SC1 INTMT -SN SLP874

CYQB;2009-11-28 06:00;CYQB 280600Z 26005KT 10SM -RA FEW010 OVC056 01/01 A2911 RMK SC2SC6 SLP861

CYQB;2009-11-28 07:00;CYQB 280700Z 33006KT 15SM SCT046 OVC054 04/02 A2912 RMK SC4SC4 SLP862

CYQB;2009-11-28 08:00;CYQB 280800Z 27006KT 15SM FEW040 OVC066 03/02 A2912 RMK SC2AC6 SLP863

CYQB;2009-11-28 09:00;CYQB 280900Z 31005KT 15SM -RA FEW030 OVC040 04/03 A2912 RMK SC2SC6 SLP864

CYQB;2009-11-28 10:00;CYQB 281000Z 33010KT 15SM FEW035 BKN060 OVC090 06/02 A2912 RMK SC2SC3AC2 INTMT -RA SLP863

CYQB;2009-11-28 10:38;CYQB 281038Z 31010G17KT 15SM SCT040 OVC100 06/ RMK SC4AC4

CYQB;2009-11-28 11:00;CYQB 281100Z 32014G20KT 15SM BKN040 OVC097 06/01 A2913 RMK SC6AC2 SLP866

CYQB;2009-11-28 12:00;CYQB 281200Z 33012G20KT 30SM FEW020 SCT040 OVC120 06/01 A2915 RMK SC2SC2AC4 SLP874

CYQB;2009-11-28 13:00;CYQB 281300Z 32011G21KT 30SM FEW020 SCT040 OVC120 06/01 A2917 RMK SC2SC2AC5 SLP881

CYQB;2009-11-28 14:00;CYQB 281400Z 31010G17KT 30SM FEW020 BKN040 OVC120 06/M00 A2921 RMK SC1SC5AC2 SLP894

CYQB;2009-11-28 15:00;CYQB 281500Z 31010G24KT 30SM BKN041 OVC080 05/M01 A2924 RMK SC6AC2 SLP903

CYQB;2009-11-28 16:00;CYQB 281600Z 30012G21KT 30SM OVC036 05/M01 A2925 RMK SC8 SLP907

CYQB;2009-11-28 17:00;CYQB 281700Z 30012G26KT 15SM VCSH OVC033 05/M01 A2927 RMK SC8 SLP913

CYQB;2009-11-28 18:00;CYQB 281800Z 30014G21KT 20SM BKN034 05/M01 A2929 RMK SC7 DIST SH E SLP921

CYQB;2009-11-28 19:00;CYQB 281900Z 29015G27KT 20SM BKN038 05/M01 A2931 RMK SC7 SLP928

CYQB;2009-11-28 20:00;CYQB 282000Z 31015G25KT 15SM BKN039 05/M02 A2933 RMK SC6 SLP935

CYQB;2009-11-28 21:00;CYQB 282100Z 29015G26KT 15SM BKN042 04/M03 A2938 RMK SC6 SLP950

CYQB;2009-11-28 22:00;CYQB 282200Z 28015G20KT 15SM BKN042 04/M03 A2942 RMK SC7 SLP963

CYQB;2009-11-28 23:00;CYQB 282300Z 28012G18KT 15SM BKN035 03/M03 A2945 RMK SC6 SLP974

CYQB;2009-11-29 00:00;CYQB 290000Z 27013G21KT 15SM OVC038 02/M04 A2948 RMK SC8 SLP987

CYQB;2009-11-29 00:27;CYQB 290027Z 29011G20KT 15SM OVC038 02/ RMK SC8

CYQB;2009-11-29 01:00;CYQB 290100Z 27012G19KT 15SM OVC037 02/M04 A2951 RMK SC8 SLP995

CYQB;2009-11-29 02:00;CYQB 290200Z 27015G21KT 15SM OVC041 02/M04 A2953 RMK SC8 SLP003

CYQB;2009-11-29 03:00;CYQB 290300Z 25014G21KT 15SM OVC036 01/M04 A2955 RMK SC8 SLP009

CYQB;2009-11-29 04:00;CYQB 290400Z 26015G21KT 15SM OVC033 01/M04 A2958 RMK SC8 SLP018

CYQB;2009-11-29 05:00;CYQB 290500Z 25014KT 15SM OVC035 01/M05 A2958 RMK SC8 SLP018

CYQB;2009-11-29 06:00;CYQB 290600Z 25014KT 15SM OVC036 01/M05 A2959 RMK SC8 SLP024

CYQB;2009-11-29 07:00;CYQB 290700Z 26016KT 15SM OVC042 01/M05 A2961 RMK SC8 SLP028

CYQB;2009-11-29 08:00;CYQB 290800Z 25014KT 15SM OVC045 01/M05 A2963 RMK SC8 SLP036

CYQB;2009-11-29 09:00;CYQB 290900Z 24016KT 15SM BKN050 01/M05 A2964 RMK SC7 SLP042

CYQB;2009-11-29 10:00;CYQB 291000Z 24011G16KT 15SM BKN047 00/M05 A2966 RMK SC7 SLP048

CYQB;2009-11-29 11:00;CYQB 291100Z 24010KT 15SM FEW045 M00/M05 A2968 RMK SC2 SLP054

CYQB;2009-11-29 12:00;CYQB 291200Z 24010KT 30SM BKN046 00/M04 A2970 RMK SC6 SLP062

CYQB;2009-11-29 13:00;CYQB 291300Z 25014G19KT 30SM BKN044 01/M05 A2972 RMK SC7 SLP068

CYQB;2009-11-29 14:00;CYQB 291400Z 26011G18KT 30SM BKN047 02/M05 A2973 RMK SC6 SLP072

CYQB;2009-11-29 15:00;CYQB 291500Z 27014G19KT 30SM BKN045 BKN120 03/M05 A2974 RMK SC6AC1 SLP073

CYQB;2009-11-29 16:00;CYQB 291600Z 27018KT 30SM BKN043 BKN240 03/M06 A2973 RMK SC6CI1 SLP070

CYQB;2009-11-29 17:00;CYQB 291700Z 29017G22KT 30SM BKN044 03/M06 A2973 RMK SC5 SLP070

CYQB;2009-11-29 18:00;CYQB 291800Z 28014G21KT 30SM SCT045 03/M06 A2972 RMK SC3 SLP069

CYQB;2009-11-29 19:00;CYQB 291900Z 26013G20KT 30SM FEW045 FEW240 03/M06 A2972 RMK SC2CI1 SLP066

CYQB;2009-11-29 20:00;CYQB 292000Z 27011KT 30SM FEW045 FEW240 03/M06 A2972 RMK SC1CI0 SLP066

CYQB;2009-11-29 21:00;CYQB 292100Z 27006KT 30SM FEW040 FEW220 01/M06 A2973 RMK SC1CI0 SLP070

CYQB;2009-11-29 22:00;CYQB 292200Z 25005KT 15SM FEW040 FEW220 M00/M05 A2974 RMK SC1CI0 SLP074

CYQB;2009-11-29 23:00;CYQB 292300Z 25005KT 15SM FEW040 SCT110 M00/M05 A2974 RMK SC2AC2 SLP074

CYQB;2009-11-30 00:00;CYQB 300000Z 27005KT 15SM FEW040 SCT100 BKN120 M00/M04 A2974 RMK SC1AC2AC3 SLP075

CYQB;2009-11-30 01:00;CYQB 300100Z 25005KT 15SM OVC100 00/M04 A2973 RMK AC8 SLP070

CYQB;2009-11-30 02:00;CYQB 300200Z 25003KT 15SM BKN076 BKN100 M00/M04 A2972 RMK AC5AC2 SLP066

CYQB;2009-11-30 03:00;CYQB 300300Z 00000KT 15SM BKN076 OVC100 00/M04 A2970 RMK AC6AC2 SLP061

CYQB;2009-11-30 04:00;CYQB 300400Z 36004KT 15SM FEW053 OVC073 00/M04 A2969 RMK SC2AC6 SLP057

CYQB;2009-11-30 04:33;CYQB 300433Z 36005KT 6SM -SN FEW027 OVC048 00/ RMK SC2SC6

CYQB;2009-11-30 05:00;CYQB 300500Z 36004KT 8SM -SN FEW030 OVC074 M00/M03 A2968 RMK SC2AC6 SLP054

CYQB;2009-11-30 06:00;CYQB 300600Z 02004KT 6SM -SN SCT035 OVC072 M01/M03 A2966 RMK SC3AC5 SLP047

CYQB;2009-11-30 07:00;CYQB 300700Z 02003KT 6SM -SN FEW040 OVC060 M01/M02 A2965 RMK SC2SC6 SLP045

CYQB;2009-11-30 07:43;CYQB 300743Z 03004KT 2SM -SN VV011 M01/ RMK SN8

CYQB;2009-11-30 08:00;CYQB 300800Z 05005KT 2 1/2SM -SN VV012 M01/M02 A2963 RMK SN8 SLP036

CYQB;2009-11-30 08:17;CYQB 300817Z 05005KT 6SM -SN FEW033 OVC050 M01/ RMK SC2SC6

CYQB;2009-11-30 08:50;CYQB 300850Z 04006KT 2SM -SN FEW004 VV010 M01/ RMK SF2SN6

CYQB;2009-11-30 09:00;CYQB 300900Z 04004KT 2SM -SN VV010 M01/M02 A2961 RMK SN8 SLP031

CYQB;2009-11-30 10:00;CYQB 301000Z 04008KT 1 1/2SM -SN FEW005 VV008 M01/M02 A2959 RMK SF2SN6 SLP023

CYQB;2009-11-30 11:00;CYQB 301100Z 03005KT 1 1/2SM -SN FEW004 VV009 M01/M01 A2957 RMK SF2SN6 SLP018

CYQB;2009-11-30 12:00;CYQB 301200Z 02005KT 1 3/4SM -SN FEW007 VV015 M01/M01 A2957 RMK SF2SN6 SLP016

CYQB;2009-11-30 13:00;CYQB 301300Z 35004KT 3/4SM R06/P6000FT/D -SN BR VV008 M00/M01 A2959 RMK SN8 SLP022

CYQB;2009-11-30 13:34;CYQB 301334Z 36004KT 1 1/4SM -SN BR VV015 M00/ RMK SN8

CYQB;2009-11-30 14:00;CYQB 301400Z 36004KT 1 3/4SM -SN BR OVC029 M00/M01 A2957 RMK SN7SC1 SLP018

CYQB;2009-11-30 14:33;CYQB 301433Z 36004KT 2 1/2SM -SN BR BKN035 00/ RMK SN4SC3

CYQB;2009-11-30 15:00;CYQB 301500Z 00000KT 4SM -SN BR SCT012 OVC034 00/M01 A2958 RMK SF3SC5 SLP020

CYQB;2009-11-30 15:21;CYQB 301521Z 00000KT 1 1/2SM -SN BR VV012 00/ RMK SN8

CYQB;2009-11-30 15:48;CYQB 301548Z 24004KT 1 1/4SM -SN BR FEW006 VV017 00/ RMK SF2SN6

CYQB;2009-11-30 16:00;CYQB 301600Z 24005KT 1 1/4SM -SN BR SCT007 BKN028 00/M01 A2957 RMK SF4SC3 SLP017

CYQB;2009-11-30 16:26;CYQB 301626Z CCA 23006KT 4SM -SN SCT007 BKN016 BKN023 01/ RMK SF4SC2SC2

CYQB;2009-11-30 17:00;CYQB 301700Z 23008KT 5SM -SN FEW007 BKN016 BKN022 01/M00 A2956 RMK SF2SC3SC2 SLP015

CYQB;2009-11-30 17:28;CYQB 301728Z 23008KT 5SM -SN BKN006 BKN022 BKN041 01/ RMK SF5SC2SC1

CYQB;2009-11-30 18:00;CYQB 301800Z 24008KT 8SM -SN FEW006 BKN025 OVC040 01/M01 A2956 RMK SF2SC4SC2 SLP015

CYQB;2009-11-30 19:00;CYQB 301900Z 24008KT 8SM -SN FEW006 BKN020 BKN040 01/M01 A2957 RMK SF2SC5SC1 CIG RAG SLP017

CYQB;2009-11-30 19:27;CYQB 301927Z 26009KT 10SM VCSH FEW006 BKN025 BKN050 01/ RMK SF2SC5SC1 CIG RAG

CYQB;2009-11-30 20:00;CYQB 302000Z 28009KT 12SM FEW010 SCT025 BKN060 01/M02 A2958 RMK CF1SC2SC3 DIST SHSN E SLP021

CYQB;2009-11-30 21:00;CYQB 302100Z 29011KT 15SM FEW010 BKN035 00/M04 A2961 RMK CF1SC4 SLP029

CYQB;2009-11-30 22:00;CYQB 302200Z 28009KT 20SM BKN040 M00/M05 A2964 RMK SC7 SLP039

CYQB;2009-11-30 23:00;CYQB 302300Z 28010KT 20SM OVC030 M01/M05 A2966 RMK SC8 SLP047

CYQB;2009-12-01 01:00;CYQB 010100Z 28008KT 20SM BKN032 BKN068 M01/M06 A2970 RMK SC5AC2 SLP059

CYQB;2009-12-01 02:00;CYQB 010200Z 24006KT 20SM BKN045 M02/M07 A2970 RMK SC6 SLP061

CYQB;2009-12-01 03:00;CYQB 010300Z 26008KT 15SM BKN042 M02/M06 A2970 RMK SC6 SLP063

CYQB;2009-12-01 04:00;CYQB 010400Z 25009KT 15SM FEW040 M04/M07 A2971 RMK SC2 SLP065

CYQB;2009-12-01 05:00;CYQB 010500Z 24007KT 15SM FEW090 M05/M07 A2971 RMK AC2 SLP065

CYQB;2009-12-01 06:00;CYQB 010600Z 26008KT 15SM BKN050 M03/M06 A2973 RMK SC5 SLP072

CYQB;2009-12-01 07:00;CYQB 010700Z 27006KT 15SM OVC040 M03/M06 A2975 RMK SC8 SLP079

CYQB;2009-12-01 08:00;CYQB 010800Z 26005KT 15SM BKN035 M03/M06 A2975 RMK SC7 SLP078

CYQB;2009-12-01 09:00;CYQB 010900Z 25003KT 15SM FEW035 BKN078 M04/M07 A2975 RMK SC1AC6 SLP077

CYQB;2009-12-01 10:00;CYQB 011000Z 25002KT 15SM BKN039 OVC078 M04/M06 A2975 RMK SC6AC2 SLP078

CYQB;2009-12-01 11:00;CYQB 011100Z 20002KT 15SM BKN036 M04/M06 A2975 RMK SC6 SLP078

CYQB;2009-12-01 12:00;CYQB 011200Z 00000KT 30SM FEW010 BKN035 M04/M06 A2976 RMK CF1SC7 SLP083

CYQB;2009-12-01 13:00;CYQB 011300Z CCA 00000KT 30SM FEW015 BKN039 M03/M06 A2978 RMK SC1SC7 SLP087

CYQB;2009-12-01 13:21;CYQB 011321Z 00000KT 30SM -SHSN FEW015 BKN039 BKN063 M03/ RMK SC1SC6SC2

CYQB;2009-12-01 14:00;CYQB 011400Z 00000KT 20SM -SHSN FEW032 OVC037 M03/M06 A2979 RMK SC2SC6 VIS NW 6 SLP093

CYQB;2009-12-01 15:00;CYQB 011500Z 00000KT 20SM -SHSN FEW015 OVC033 M02/M05 A2980 RMK SC1SC8 SLP095

CYQB;2009-12-01 16:00;CYQB 011600Z 22006KT 15SM -SHSN FEW015 BKN023 OVC030 M02/M05 A2980 RMK SC2SC5SC2 VIS SW 4 SLP096

CYQB;2009-12-01 17:00;CYQB 011700Z 22005KT 5SM -SHSN SCT011 BKN021 OVC038 M02/M04 A2979 RMK SF3SC3SC2 SLP093

CYQB;2009-12-01 17:25;CYQB 011725Z 22006KT 5SM -SHSN FEW009 BKN015 OVC038 M02/ RMK SF2SC5SC1

CYQB;2009-12-01 18:00;CYQB 011800Z 21004KT 15SM -SHSN FEW009 SCT014 OVC027 M02/M04 A2979 RMK SF2SC2SC5 SLP092

CYQB;2009-12-01 18:53;CYQB 011853Z 00000KT 2 1/2SM -SHSN OVC028 M01/ RMK SN2SC6

CYQB;2009-12-01 19:00;CYQB 011900Z 00000KT 2 1/2SM -SHSN OVC028 M01/M03 A2979 RMK SN2SC6 SLP091

CYQB;2009-12-01 19:15;CYQB 011915Z 00000KT 20SM -SHSN FEW010 OVC026 M01/ RMK SF2SC6 VIS NE 6

CYQB;2009-12-01 20:00;CYQB 012000Z 00000KT 20SM -SHSN FEW010 OVC022 M01/M03 A2980 RMK SF2SC6 SLP094

CYQB;2009-12-01 21:00;CYQB 012100Z 00000KT 15SM -SHSN FEW010 OVC025 M01/M03 A2981 RMK SF2SC6 VIS W-NW 5 SLP097

CYQB;2009-12-01 21:13;CYQB 012113Z 00000KT 2 1/2SM -SHSN FEW010 OVC025 M01/ RMK SN2SF1SC6 VIS SE-SW 5

CYQB;2009-12-01 21:31;CYQB 012131Z 00000KT 5SM -SHSN FEW010 BKN025 BKN045 M01/ RMK SF1SC6SC1

CYQB;2009-12-01 22:00;CYQB 012200Z 35003KT 8SM -SHSN BKN019 OVC045 M01/M03 A2981 RMK SC6SC2 SLP100

CYQB;2009-12-01 22:13;CYQB 012213Z 00000KT 2 1/2SM -SHSN OVC017 M01/ RMK SN2SC6

CYQB;2009-12-01 22:52;CYQB 012252Z 26003KT 5SM -SHSN OVC014 M01/ RMK SC8

CYQB;2009-12-01 23:00;CYQB 012300Z 24003KT 5SM -SHSN OVC013 M01/M02 A2982 RMK SC8 SLP103

CYQB;2009-12-02 00:00;CYQB 020000Z 25008KT 8SM -SHSN OVC011 00/M01 A2984 RMK SC8 SLP109

CYQB;2009-12-02 01:00;CYQB 020100Z 25009KT 10SM -SHSN FEW009 BKN012 BKN056 01/M01 A2985 RMK SF1SC5SC2 /S01/ SLP111

CYQB;2009-12-02 01:43;CYQB 020143Z CCA 25011KT 10SM VCSH FEW009 BKN019 01/ RMK SF1SC6 VIS N-NE 5

CYQB;2009-12-02 02:00;CYQB 020200Z 24011KT 10SM -SHSN FEW009 BKN014 OVC075 01/M01 A2987 RMK SF2SC6AC1 SLP120

CYQB;2009-12-02 03:00;CYQB 020300Z 24012KT 10SM -SHSN BKN010 OVC015 01/M01 A2989 RMK SF7SC1 SLP124

CYQB;2009-12-02 04:00;CYQB 020400Z 24010KT 10SM OVC012 01/M01 A2990 RMK SC8 SLP129

CYQB;2009-12-02 05:00;CYQB 020500Z 25013KT 10SM BKN012 00/M01 A2992 RMK SC7 SLP135

CYQB;2009-12-02 05:38;CYQB 020538Z 26012KT 10SM FEW010 M01/M02 RMK SC2

CYQB;2009-12-02 06:00;CYQB 020600Z 25011KT 10SM FEW010 M01/M03 A2994 RMK SC2 SLP144

CYQB;2009-12-02 07:00;CYQB 020700Z 23009KT 15SM FEW060 M02/M03 A2997 RMK SC2 SLP151

CYQB;2009-12-02 08:00;CYQB 020800Z 25009KT 15SM FEW060 M02/M04 A2999 RMK SC2 SLP158

CYQB;2009-12-02 09:00;CYQB 020900Z 24007KT 15SM FEW059 FEW069 M02/M04 A2999 RMK SC1AC2 SLP161

CYQB;2009-12-02 10:00;CYQB 021000Z 22009KT 15SM BKN059 M02/M04 A3000 RMK SC6 SLP163

CYQB;2009-12-02 11:00;CYQB 021100Z 23008KT 15SM FEW005 BKN052 M02/M04 A3001 RMK SF1SC5 SLP168

CYQB;2009-12-02 12:00;CYQB 021200Z 27008KT 12SM FEW005 FEW050 M02/M04 A3005 RMK SF2SC1 SLP181

CYQB;2009-12-02 12:12;CYQB 021212Z 25009KT 5SM BR BKN004 BKN020 BKN050 M02/ RMK SF6SC1SC1 VIS HIER NE-E

CYQB;2009-12-02 13:00;CYQB 021300Z 26007KT 4SM BR OVC004 M02/M02 A3005 RMK ST8 SLP181

CYQB;2009-12-02 13:11;CYQB 021311Z 26008KT 2SM BR BKN002 BKN250 M01/ RMK SF6CI1

CYQB;2009-12-02 13:21;CYQB 021321Z 24010KT 1SM R06/P6000FT/N BR FEW001 SCT050 BKN250 M02/ RMK SF2SC2CI2 VIS NW-N 8

CYQB;2009-12-02 13:37;CYQB 021337Z CCA 26009KT 1SM R06/P6000FT/N BR BKN003 BKN050 M01/ RMK FG2SF3SC2 VIS N 8

CYQB;2009-12-02 13:47;CYQB 021347Z 26009KT 7SM FEW003 BKN055 M01/ RMK SF2SC5 VIS S 2

CYQB;2009-12-02 14:00;CYQB 021400Z 26008KT 20SM FEW005 BKN055 M01/M02 A3006 RMK SF1SC6 VIS E-SW 3 SLP183

CYQB;2009-12-02 14:50;CYQB 021450Z 24011KT 20SM BKN006 BKN050 BKN250 M00/ RMK SF5SC1CI1 VIS S 3

CYQB;2009-12-02 15:00;CYQB 021500Z 24009KT 5SM BR BKN008 BKN050 BKN250 M00/M01 A3007 RMK SF6SC1CI1 VIS N 20 SLP186

CYQB;2009-12-02 16:00;CYQB 021600Z 24006KT 6SM BR BKN008 BKN030 BKN250 01/M01 A3006 RMK SF5SC2CI1 VIS N 20 SLP183

CYQB;2009-12-02 17:00;CYQB 021700Z 23009KT 6SM BR BKN008 BKN120 BKN250 01/M01 A3003 RMK SF5AC2CI0 SLP172

CYQB;2009-12-02 17:27;CYQB 021727Z 28005KT 8SM SCT011 SCT020 BKN190 BKN250 01/ RMK SF3SC1CI2CI0

CYQB;2009-12-02 18:00;CYQB 021800Z 27005KT 8SM SCT013 BKN045 BKN190 01/M01 A3000 RMK SC4SC2CI0 SLP163

CYQB;2009-12-02 19:00;CYQB 021900Z 32002KT 10SM FEW015 BKN048 02/M00 A2999 RMK SC1SC6 SLP160

CYQB;2009-12-02 20:00;CYQB 022000Z 06002KT 10SM FEW015 OVC040 02/M00 A3000 RMK SC1SC7 SLP161

CYQB;2009-12-02 21:00;CYQB 022100Z 04003KT 10SM OVC043 02/M00 A2999 RMK SC8 SLP160

CYQB;2009-12-02 22:00;CYQB 022200Z 02002KT 10SM OVC041 02/M00 A2999 RMK SC8 SLP158

CYQB;2009-12-02 23:00;CYQB 022300Z 04004KT 10SM OVC041 02/M00 A2996 RMK SC8 SLP148

CYQB;2009-12-03 00:00;CYQB 030000Z 01005KT 10SM FEW040 02/M01 A2994 RMK SC2 SLP141

CYQB;2009-12-03 01:00;CYQB 030100Z 36002KT 10SM FEW040 BKN200 01/M01 A2993 RMK SC2CI1 SLP139

CYQB;2009-12-03 02:00;CYQB 030200Z 03005KT 12SM BKN200 01/M01 A2991 RMK CI2 SLP132

CYQB;2009-12-03 03:00;CYQB 030300Z 02003KT 10SM BKN200 01/M01 A2990 RMK CI2 SLP129

CYQB;2009-12-03 04:00;CYQB 030400Z 02004KT 10SM OVC180 01/M01 A2989 RMK AS3 SLP125

CYQB;2009-12-03 05:00;CYQB 030500Z 02005KT 10SM OVC140 01/M01 A2987 RMK AS4 SLP119

CYQB;2009-12-03 06:00;CYQB 030600Z 03004KT 10SM OVC150 00/M01 A2983 RMK AS4 SLP103

CYQB;2009-12-03 07:00;CYQB 030700Z 05004KT 10SM OVC085 02/00 A2982 RMK AS7 SLP101

CYQB;2009-12-03 07:57;CYQB 030757Z 05007KT 10SM -RA OVC062 02/ RMK SC8

CYQB;2009-12-03 08:00;CYQB 030800Z 05008KT 10SM -RA OVC061 02/00 A2978 RMK SC8 SLP088

CYQB;2009-12-03 09:00;CYQB 030900Z 07009KT 5SM -RA BR SCT023 OVC043 02/01 A2974 RMK SC3SC5 SLP073

CYQB;2009-12-03 10:00;CYQB 031000Z 07015KT 5SM -SHRA BR BKN020 OVC043 02/01 A2967 RMK SC5SC3 PRESFR SLP052

CYQB;2009-12-03 10:38;CYQB 031038Z 07013G19KT 4SM -SHRA BR SCT005 OVC017 02/ RMK SF4SC4

CYQB;2009-12-03 11:00;CYQB 031100Z 06017KT 4SM RA BR SCT005 OVC016 02/01 A2964 RMK SF4NS4 SLP039

CYQB;2009-12-03 12:00;CYQB 031200Z 07016G25KT 4SM RA BR SCT006 OVC019 02/01 A2955 RMK SF4NS4 PRESFR SLP009

CYQB;2009-12-03 12:33;CYQB 031233Z 06019G30KT 2SM RA BR BKN006 OVC032 02/ RMK SF6NS2

CYQB;2009-12-03 12:44;CYQB 031244Z 07019G27KT 1 1/2SM RA BR BKN006 OVC031 02/ RMK SF7NS1

CYQB;2009-12-03 13:00;CYQB 031300Z 06016G26KT 1 1/4SM RA BR BKN006 OVC025 02/02 A2948 RMK SF7NS1 PRESFR SLP984

CYQB;2009-12-03 13:27;CYQB 031327Z 08016G24KT 2SM RA BR OVC005 02/ RMK SF8

CYQB;2009-12-03 14:00;CYQB 031400Z 07015G24KT 3SM RA BR BKN006 OVC029 02/02 A2941 RMK SF7NS1 PRESFR SLP962

CYQB;2009-12-03 15:00;CYQB 031500Z 07020G29KT 3SM RA BR BKN006 OVC026 04/03 A2934 RMK SF6NS2 PRESFR SLP939

CYQB;2009-12-03 15:18;CYQB 031518Z 08015G26KT 2SM  BR BKN006 OVC025 04/ RMK SF6NS2

CYQB;2009-12-03 16:00;CYQB 031600Z 09012G27KT 5SM  BR BKN008 OVC025 04/03 A2930 RERA RMK SF7NS1 SLP925

CYQB;2009-12-03 17:00;CYQB 031700Z 06016G25KT 4SM RA BR BKN008 OVC023 04/03 A2928 RMK SF6NS2 SLP919

CYQB;2009-12-03 17:40;CYQB 031740Z 07018G24KT 6SM -RA BKN008 OVC031 04/ RERA RMK SF6SC2

CYQB;2009-12-03 18:00;CYQB 031800Z 07014G19KT 5SM -RA BR BKN009 OVC030 04/03 A2928 RERA RMK SF6SC2 SLP919

CYQB;2009-12-03 19:00;CYQB 031900Z 08014KT 8SM -RA BKN009 OVC029 04/03 A2931 RMK SF6SC2 SLP929

CYQB;2009-12-03 20:00;CYQB 032000Z 07012KT 8SM -RA BKN010 OVC029 03/02 A2936 RMK SF6SC2 SLP946

CYQB;2009-12-03 20:45;CYQB 032045Z 08011KT 6SM -RA BR OVC007 03/ RMK SF8

CYQB;2009-12-03 21:00;CYQB 032100Z 08013G18KT 6SM -RA BR OVC006 03/02 A2940 RMK SF8 SLP959

CYQB;2009-12-03 22:00;CYQB 032200Z 08010G16KT 8SM -RA OVC006 02/01 A2944 RMK SF8 SLP973

CYQB;2009-12-03 23:00;CYQB 032300Z 08010G18KT 8SM -RA OVC006 02/01 A2949 RMK SF8 SLP990

CYQB;2009-12-04 00:00;CYQB 040000Z 09008KT 4SM -RA BR OVC006 02/01 A2953 RMK SF8 SLP004

CYQB;2009-12-04 01:00;CYQB 040100Z 08005KT 4SM -RA BR OVC007 01/00 A2959 RMK SF8 SLP022

CYQB;2009-12-04 02:00;CYQB 040200Z 10008KT 2SM -RADZ BR OVC006 01/M00 A2962 RMK SF8 SLP033

CYQB;2009-12-04 03:00;CYQB 040300Z 11006KT 5SM -DZ BR BKN008 OVC028 01/M00 A2965 RMK SF6SC2 SLP044

CYQB;2009-12-04 04:00;CYQB 040400Z 10003KT 8SM BKN008 OVC014 01/M00 A2968 RMK SF7SC1 SLP053

CYQB;2009-12-04 05:00;CYQB 040500Z 12003KT 5SM BR BKN009 OVC019 00/M00 A2970 RMK SF7SC1 SLP060

CYQB;2009-12-04 05:11;CYQB 040511Z 13002KT 4SM -DZ BR BKN008 OVC014 00/ RMK SF7SC1

CYQB;2009-12-04 06:00;CYQB 040600Z 00000KT 4SM -SHSN BR FEW006 BKN010 OVC017 00/M00 A2972 RMK SF2SF4SC2 SLP069

CYQB;2009-12-04 07:00;CYQB 040700Z 23002KT 4SM -SHSN BR BKN017 OVC020 00/M00 A2976 RMK SF5SC3 SLP080

CYQB;2009-12-04 08:00;CYQB 040800Z 26002KT 6SM -SHSN FEW004 BKN012 OVC027 00/M00 A2978 RMK SF2SF3SC3 SLP088

CYQB;2009-12-04 08:36;CYQB 040836Z 27002KT 6SM FEW004 BKN011 OVC029 00/ RMK SF2SF3SC3

CYQB;2009-12-04 09:00;CYQB 040900Z 00000KT 6SM -SHSN FEW008 BKN016 OVC029 00/M00 A2981 RMK SF2SC4SC2 SLP098

CYQB;2009-12-04 10:00;CYQB 041000Z 00000KT 8SM FEW004 BKN008 OVC029 00/M00 A2982 RMK SF2SF4SC2 SLP101

CYQB;2009-12-04 11:00;CYQB 041100Z 00000KT 6SM BR FEW006 BKN008 OVC012 01/00 A2985 RMK SF2SF6SC1 SLP110

CYQB;2009-12-04 12:00;CYQB 041200Z 23013KT 8SM SCT008 BKN015 OVC035 03/02 A2987 RMK SF3SC4SC1 SLP117

CYQB;2009-12-04 13:00;CYQB 041300Z 23017KT 15SM FEW008 SCT022 BKN037 03/01 A2990 RMK SF1SC2SC4 SLP127

CYQB;2009-12-04 14:00;CYQB 041400Z 24013G18KT 10SM FEW008 FEW020 BKN040 BKN120 03/01 A2993 RMK SF1SC2SC6AC1 SLP137

CYQB;2009-12-04 15:00;CYQB 041500Z 26016G21KT 15SM FEW015 BKN041 BKN120 04/01 A2995 RMK CF1SC6AC1 SLP147

CYQB;2009-12-04 16:00;CYQB 041600Z 24014G19KT 15SM FEW015 BKN022 BKN051 04/01 A2996 RMK CF1SC5SC2 SLP150

CYQB;2009-12-04 17:00;CYQB 041700Z 24014KT 15SM VCSH FEW015 BKN038 BKN050 03/00 A2997 RMK CF1SC5SC2 VIS S 5 SLP151

CYQB;2009-12-04 18:00;CYQB 041800Z 22015KT 15SM FEW020 SCT044 05/M01 A2997 RMK SC1SC3 SLP152

CYQB;2009-12-04 19:00;CYQB 041900Z 23015G21KT 30SM FEW030 05/M02 A2999 RMK SC1 SLP158

CYQB;2009-12-04 20:00;CYQB 042000Z 24010KT 30SM FEW030 05/M03 A3001 RMK SC1 SLP166

CYQB;2009-12-04 21:00;CYQB 042100Z 23006KT 25SM FEW040 SCT080 03/M02 A3002 RMK SC2AC2 SLP168

CYQB;2009-12-04 22:00;CYQB 042200Z 25002KT 15SM FEW040 SCT070 BKN080 02/M02 A3003 RMK SC2AC1AC2 SLP174

CYQB;2009-12-04 23:00;CYQB 042300Z 23007KT 15SM BKN070 BKN082 03/M02 A3006 RMK AC5AC2 SLP181

CYQB;2009-12-05 00:00;CYQB 050000Z 22010KT 15SM -SHSN FEW050 BKN060 BKN085 03/M02 A3008 RMK SC1SC4AC2 SLP188

CYQB;2009-12-05 01:00;CYQB 050100Z 22011KT 15SM -SHSN OVC040 03/M02 A3008 RMK SC8 SLP188

CYQB;2009-12-05 02:00;CYQB 050200Z 22009KT 15SM SCT028 BKN078 02/M01 A3008 RMK SC4AC3 SLP190

CYQB;2009-12-05 03:00;CYQB 050300Z 22007KT 15SM FEW028 BKN075 02/M01 A3010 RMK SC2AC4 SLP195

CYQB;2009-12-05 04:00;CYQB 050400Z 23006KT 15SM FEW028 FEW070 01/M02 A3012 RMK SC1AC2 SLP203

CYQB;2009-12-05 05:00;CYQB 050500Z 23007KT 15SM FEW021 FEW075 00/M02 A3013 RMK SC1AC2 SLP206

CYQB;2009-12-05 06:00;CYQB 050600Z 24007KT 15SM FEW021 FEW077 M00/M03 A3014 RMK SC1AC1 SLP209

CYQB;2009-12-05 07:00;CYQB 050700Z 24007KT 15SM FEW021 FEW070 M02/M03 A3016 RMK SC1AC1 SLP215

CYQB;2009-12-05 08:00;CYQB 050800Z 27005KT 15SM FEW070 M03/M05 A3017 RMK AC1 SLP218

CYQB;2009-12-05 09:00;CYQB 050900Z 26004KT 15SM FEW070 M02/M04 A3017 RMK AC1 SLP222

CYQB;2009-12-05 10:00;CYQB 051000Z 26005KT 15SM SKC M03/M05 A3017 RMK SLP221

CYQB;2009-12-05 11:00;CYQB 051100Z 23005KT 15SM SKC M03/M04 A3018 RMK SLP224

CYQB;2009-12-05 12:00;CYQB 051200Z 25003KT 10SM FEW150 M04/M05 A3019 RMK AC1 FOGGY SLP226

CYQB;2009-12-05 13:00;CYQB 051300Z 23006KT 10SM FEW015 BKN150 BKN180 M02/M04 A3019 RMK SC1AC2AC2 FOGGY SLP229

CYQB;2009-12-05 14:00;CYQB 051400Z 26004KT 10SM BKN160 BKN180 M02/M03 A3020 RMK AC2AC2 SLP231

CYQB;2009-12-05 15:00;CYQB 051500Z 22002KT 5SM HZ BKN160 BKN220 M00/M03 A3020 RMK AC2CI2 SLP230

CYQB;2009-12-05 16:00;CYQB 051600Z 21002KT 10SM FEW015 BKN160 BKN220 00/M03 A3017 RMK SC1AC2CI2 SLP222

CYQB;2009-12-05 17:00;CYQB 051700Z 00000KT 15SM FEW015 BKN160 BKN220 00/M03 A3015 RMK SC2AC2CI3 SLP215

CYQB;2009-12-05 18:00;CYQB 051800Z 00000KT 15SM FEW015 BKN220 01/M03 A3014 RMK SC2CI4 SLP211

CYQB;2009-12-05 19:00;CYQB 051900Z 00000KT 20SM FEW020 BKN240 01/M04 A3009 RMK SC2CI3 SLP194

CYQB;2009-12-05 20:00;CYQB 052000Z 13002KT 15SM FEW020 FEW170 BKN250 00/M03 A3010 RMK SC1AS2CI3 SLP197

CYQB;2009-12-05 21:00;CYQB 052100Z 16002KT 15SM SCT170 OVC200 00/M04 A3010 RMK AC3CI5 SLP197

CYQB;2009-12-05 22:00;CYQB 052200Z 30002KT 15SM BKN170 OVC220 M00/M04 A3010 RMK AC6CI2 SLP196

CYQB;2009-12-05 23:00;CYQB 052300Z 00000KT 15SM OVC180 M01/M03 A3011 RMK AC8 SLP199

CYQB;2009-12-06 00:00;CYQB 060000Z CCA 02004KT 15SM FEW150 OVC170 M01/M03 A3007 RMK AC2AC6 SLP186

CYQB;2009-12-06 01:00;CYQB 060100Z 36002KT 15SM SCT160 OVC220 M01/M04 A3006 RMK AC4CI4 SLP182

CYQB;2009-12-06 02:00;CYQB 060200Z 02004KT 15SM OVC170 M01/M03 A3003 RMK AC8 SLP173

CYQB;2009-12-06 03:00;CYQB 060300Z 36005KT 15SM OVC160 M01/M04 A3001 RMK AC8 SLP166

CYQB;2009-12-06 04:00;CYQB 060400Z 36004KT 15SM OVC130 M01/M04 A3000 RMK AC8 SLP162

CYQB;2009-12-06 05:00;CYQB 060500Z 35003KT 15SM OVC120 M01/M05 A2998 RMK AC8 SLP155

CYQB;2009-12-06 06:00;CYQB 060600Z 36005KT 15SM OVC140 M01/M06 A2998 RMK AC8 SLP155

CYQB;2009-12-06 07:00;CYQB 060700Z 35005KT 15SM FEW140 SCT160 M02/M06 A2998 RMK AC2AC2 SLP156

CYQB;2009-12-06 08:00;CYQB 060800Z 35002KT 15SM SCT065 BKN140 M02/M07 A2998 RMK SC3AC2 SLP156

CYQB;2009-12-06 09:00;CYQB 060900Z 33005KT 15SM BKN065 BKN140 M02/M07 A2997 RMK SC6AC2 SLP152

CYQB;2009-12-06 10:00;CYQB 061000Z 35006KT 15SM BKN066 BKN140 M02/M07 A2996 RMK SC6AC1 SLP148

CYQB;2009-12-06 11:00;CYQB 061100Z 35003KT 15SM OVC067 M02/M07 A2997 RMK AC8 SLP154

CYQB;2009-12-06 12:00;CYQB 061200Z 25003KT 15SM OVC072 M02/M06 A2999 RMK AC8 SLP160

CYQB;2009-12-06 13:00;CYQB 061300Z 00000KT 25SM SCT044 OVC072 M02/M08 A3000 RMK SC3AC5 SHSN N QUAD SLP162

CYQB;2009-12-06 13:05;CYQB 061305Z 00000KT 25SM -SHSN SCT044 OVC072 M01/ RMK SC3AC5 VIS LWR N

CYQB;2009-12-06 13:31;CYQB 061331Z 00000KT 25SM SCT044 OVC072 M01/ RMK SC3AC5

CYQB;2009-12-06 14:00;CYQB 061400Z 23002KT 25SM SCT044 BKN072 M01/M07 A3000 RMK SC3AC4 SLP163

CYQB;2009-12-06 15:00;CYQB 061500Z 24003KT 25SM BKN072 M00/M07 A3001 RMK AC7 SLP166

CYQB;2009-12-06 16:00;CYQB 061600Z 24012KT 25SM FEW015 FEW040 BKN080 M00/M05 A3000 RMK SF1SC1AC5 SLP162

CYQB;2009-12-06 17:00;CYQB 061700Z 23011KT 25SM FEW020 BKN080 M00/M04 A2997 RMK SC1AC4 SLP154

CYQB;2009-12-06 18:00;CYQB 061800Z 24011KT 30SM SCT030 BKN095 BKN240 01/M05 A2997 RMK SC3AC3CI1 DIST SHW N QUAD SLP151

CYQB;2009-12-06 19:00;CYQB 061900Z 24017KT 30SM FEW030 SCT095 01/M06 A2996 RMK SC2AC0 DIST SH N QUAD SLP149

CYQB;2009-12-06 19:35;CYQB 061935Z 23021G27KT 30SM -SHSN FEW030 BKN050TCU 00/ RMK SC2TCU5 VIS W-N 3

CYQB;2009-12-06 19:43;CYQB 061943Z 28022KT 1/2SM R06/P6000FT/D SHSN VV015 00/ RMK SN8

CYQB;2009-12-06 19:46;CYQB 061946Z 24023G31KT 1/8SM R06/3000VP6000FT/D +SHSN VV004 M01/ RMK SN8

CYQB;2009-12-06 20:00;CYQB 062000Z 27010G20KT 15SM R06/3000VP6000FT/U -SHSN FEW009 BKN030 M02/M03 A2998 RMK SF2SC4 VIS NE 3 RESN SLP157

CYQB;2009-12-06 21:00;CYQB 062100Z 25009KT 15SM FEW015 FEW030 M02/M04 A3000 RMK SC1SC2 SLP162

CYQB;2009-12-06 22:00;CYQB 062200Z 25012KT 15SM FEW015 FEW030 M02/M04 A3002 RMK SC1SC1 SLP170

CYQB;2009-12-06 23:00;CYQB 062300Z 26009KT 15SM FEW020 M03/M07 A3005 RMK SC1 SLP179

CYQB;2009-12-07 00:00;CYQB 070000Z 27008KT 15SM SCT050 M04/M08 A3007 RMK SC2 SLP188

CYQB;2009-12-07 01:00;CYQB 070100Z 27006KT 15SM FEW040 M04/M08 A3009 RMK SC1 SLP193

CYQB;2009-12-07 02:00;CYQB 070200Z 23007KT 15SM FEW040 M04/M09 A3010 RMK SC1 SLP196

CYQB;2009-12-07 03:00;CYQB 070300Z 25005KT 15SM SKC M05/M09 A3012 RMK SLP204

CYQB;2009-12-07 04:00;CYQB 070400Z 24007KT 15SM FEW060 M05/M09 A3014 RMK SC2 SLP210

CYQB;2009-12-07 05:00;CYQB 070500Z 23004KT 15SM BKN068 M05/M09 A3014 RMK AC7 SLP211

CYQB;2009-12-07 06:00;CYQB 070600Z 23007KT 15SM BKN066 M05/M09 A3015 RMK AC5 SLP213

CYQB;2009-12-07 07:00;CYQB 070700Z 23008KT 15SM BKN061 M06/M09 A3017 RMK SC5 SLP220

CYQB;2009-12-07 08:00;CYQB 070800Z 25007KT 15SM SCT059 M06/M10 A3018 RMK SC4 SLP223

CYQB;2009-12-07 09:00;CYQB 070900Z 25006KT 15SM FEW059 M07/M10 A3019 RMK SC2 SLP227

CYQB;2009-12-07 10:00;CYQB 071000Z 27010KT 15SM FEW040 M07/M09 A3019 RMK SC1 SLP229

CYQB;2009-12-07 11:00;CYQB 071100Z 27011KT 15SM SKC M07/M10 A3020 RMK SLP232

CYQB;2009-12-07 12:00;CYQB 071200Z 29009KT 35SM FEW030 FEW090 M07/M10 A3021 RMK SC1AC1 SLP235

CYQB;2009-12-07 13:00;CYQB 071300Z 12003KT 35SM FEW030 FEW090 FEW220 M06/M10 A3022 RMK SC1AC1CI1 SLP238

CYQB;2009-12-07 14:00;CYQB 071400Z 27005KT 35SM FEW030 FEW220 M05/M09 A3023 RMK SC1CI1 SLP241

CYQB;2009-12-07 15:00;CYQB 071500Z 28005KT 35SM FEW030 FEW150 FEW220 M04/M09 A3023 RMK SC1AC1CI1 SLP241

CYQB;2009-12-07 16:00;CYQB 071600Z 24008KT 35SM FEW030 BKN220 M04/M08 A3021 RMK SC1CI2 SLP236

CYQB;2009-12-07 17:00;CYQB 071700Z 23007KT 35SM FEW030 BKN220 M03/M08 A3019 RMK SC1CS4 SLP229

CYQB;2009-12-07 18:00;CYQB 071800Z 22006KT 35SM FEW030 BKN220 BKN260 M04/M09 A3016 RMK SC1CS5CI1 SLP217

CYQB;2009-12-07 19:00;CYQB 071900Z 23008KT 30SM FEW030 BKN190 M03/M09 A3016 RMK SC1AS6 SLP218

CYQB;2009-12-07 20:00;CYQB 072000Z 23008KT 30SM FEW030 BKN190 M04/M09 A3016 RMK SC1AS5 SLP219

CYQB;2009-12-07 21:00;CYQB 072100Z 25006KT 30SM FEW030 BKN180 M06/M09 A3015 RMK SC1AS3 SLP215

CYQB;2009-12-07 22:00;CYQB 072200Z 27004KT 15SM FEW030 BKN170 M06/M10 A3014 RMK SC1AS4 SLP213

CYQB;2009-12-07 23:00;CYQB 072300Z 28003KT 15SM BKN160 M07/M10 A3014 RMK AS2 SLP211

CYQB;2009-12-08 00:00;CYQB 080000Z 00000KT 15SM BKN150 M07/M10 A3014 RMK AS2 SLP212

CYQB;2009-12-08 01:00;CYQB 080100Z 01002KT 15SM BKN150 M06/M09 A3013 RMK AC3 SLP209

CYQB;2009-12-08 02:00;CYQB 080200Z 00000KT 15SM BKN180 M06/M09 A3012 RMK AC4 SLP206

CYQB;2009-12-08 03:00;CYQB 080300Z 04003KT 15SM FEW090 BKN180 M06/M09 A3012 RMK AC1AC4 SLP204

CYQB;2009-12-08 04:00;CYQB 080400Z 35004KT 15SM FEW090 BKN180 M07/M10 A3012 RMK AC1AC4 SLP204

CYQB;2009-12-08 05:00;CYQB 080500Z 32002KT 15SM FEW090 BKN180 M07/M10 A3011 RMK AC1AC3 SLP203

CYQB;2009-12-08 06:00;CYQB 080600Z 35002KT 15SM SCT100 BKN180 M08/M10 A3011 RMK AC3AC1 SLP203

CYQB;2009-12-08 07:00;CYQB 080700Z 02003KT 15SM FEW080 M08/M10 A3012 RMK AC2 SLP205

CYQB;2009-12-08 08:00;CYQB 080800Z 03002KT 15SM FEW080 M08/M10 A3013 RMK AC2 SLP208

CYQB;2009-12-08 09:00;CYQB 080900Z 26002KT 15SM FEW060 SCT094 M09/M10 A3014 RMK SC2AC2 SLP210

CYQB;2009-12-08 10:00;CYQB 081000Z 00000KT 15SM FEW060 BKN077 M08/M10 A3014 RMK SC1AC6 SLP213

CYQB;2009-12-08 11:00;CYQB 081100Z 00000KT 5SM -SHSN FEW038 BKN083 M07/M10 A3017 RMK SC2AC5 VIS LWR SW SLP220

CYQB;2009-12-08 12:00;CYQB 081200Z 00000KT 6SM -SHSN FEW033 OVC079 M07/M09 A3018 RMK SC1AC7 SLP226

CYQB;2009-12-08 12:44;CYQB 081244Z 16002KT 10SM FEW030 BKN073 M07/ RMK SC1AC7

CYQB;2009-12-08 13:00;CYQB 081300Z 00000KT 15SM FEW030 BKN069 M07/M08 A3019 RMK SC1AC7 SLP230

CYQB;2009-12-08 14:00;CYQB 081400Z 25002KT 15SM FEW030 BKN058 M06/M07 A3022 RMK SC1SC6 SLP237

CYQB;2009-12-08 15:00;CYQB 081500Z 27003KT 35SM FEW020 SCT062 M05/M07 A3023 RMK SC1SC3 SLP241

CYQB;2009-12-08 16:00;CYQB 081600Z 30007KT 35SM FEW028 FEW060 M03/M08 A3022 RMK CU2SC1 SLP239

CYQB;2009-12-08 17:00;CYQB 081700Z 27011KT 35SM FEW030 M03/M09 A3022 RMK CU2 DIST SHSN NE SLP239

CYQB;2009-12-08 18:00;CYQB 081800Z 28008KT 35SM FEW030 M04/M10 A3023 RMK CU2 DIST SHSN N-NE SLP241

CYQB;2009-12-08 19:00;CYQB 081900Z 30010KT 30SM FEW033 M03/M10 A3024 RMK CU2 DIST SHSN N-E SLP245

CYQB;2009-12-08 20:00;CYQB 082000Z 30008KT 30SM FEW040 M04/M12 A3027 RMK SC2 CU ASOCTD DIST SHSN ALQDS SLP256

CYQB;2009-12-08 21:00;CYQB 082100Z 29004KT 30SM FEW040 FEW240 M05/M12 A3029 RMK SC2CI1 VIRGA ALQDS SLP262

CYQB;2009-12-08 22:00;CYQB 082200Z 26005KT 15SM FEW040 FEW240 M06/M12 A3031 RMK SC1CI1 SLP269

CYQB;2009-12-08 23:00;CYQB 082300Z 32004KT 15SM SKC M07/M12 A3032 RMK SLP272

CYQB;2009-12-09 00:00;CYQB 090000Z 00000KT 15SM SKC M07/M12 A3032 RMK SLP274

CYQB;2009-12-09 01:00;CYQB 090100Z 13003KT 15SM SKC M07/M12 A3032 RMK SLP274

CYQB;2009-12-09 02:00;CYQB 090200Z 36003KT 15SM SKC M08/M13 A3033 RMK SLP276

CYQB;2009-12-09 03:00;CYQB 090300Z 02003KT 15SM SKC M08/M13 A3032 RMK SLP271

CYQB;2009-12-09 04:00;CYQB 090400Z 00000KT 15SM SKC M09/M13 A3033 RMK SLP277

CYQB;2009-12-09 05:00;CYQB 090500Z 26002KT 15SM SKC M11/M13 A3033 RMK SLP275

CYQB;2009-12-09 06:00;CYQB 090600Z 29002KT 15SM SKC M11/M13 A3034 RMK SLP279

CYQB;2009-12-09 07:00;CYQB 090700Z 06003KT 20SM SKC M11/M14 A3033 RMK SLP276

CYQB;2009-12-09 08:00;CYQB 090800Z 02005KT 20SM SKC M11/M14 A3028 RMK SLP261

CYQB;2009-12-09 09:00;CYQB 090900Z 36003KT 20SM SKC M11/M14 A3027 RMK SLP257

CYQB;2009-12-09 10:00;CYQB 091000Z 03005KT 20SM FEW012 BKN240 M11/M14 A3022 RMK CF1CS1 PRESFF SLP240

CYQB;2009-12-09 11:00;CYQB 091100Z 07008KT 15SM FEW012 BKN240 M09/M13 A3017 RMK CF1CS1 PRESFR SLP223

CYQB;2009-12-09 12:00;CYQB 091200Z 07010KT 15SM FEW012 FEW080 BKN200 M08/M10 A3015 RMK CF1AC1CS5 SLP215

CYQB;2009-12-09 13:00;CYQB 091300Z 09012KT 20SM FEW015 OVC200 M07/M11 A3015 RMK SC1CS6 SLP215

CYQB;2009-12-09 14:00;CYQB 091400Z 09013G27KT 20SM FEW015 OVC150 M06/M11 A3013 RMK SC2AS6 SLP207

CYQB;2009-12-09 15:00;CYQB 091500Z 07018G25KT 20SM FEW015 OVC100 M06/M11 A3006 RMK CF1AC8 PRESFR SLP185

CYQB;2009-12-09 16:00;CYQB 091600Z 09018G25KT 20SM FEW015 OVC084 M06/M11 A3000 RMK CF1AC8 PRESFR SLP164

CYQB;2009-12-09 16:42;CYQB 091642Z 08016G22KT 30SM -SN FEW015 OVC023 M06/ RMK SC2SC6 VIS SW 4

CYQB;2009-12-09 17:00;CYQB 091700Z 07020G28KT 1 1/2SM -SN VV015 M06/M11 A2992 RMK SN8 VIS E 5 PRESFR SLP137

CYQB;2009-12-09 17:13;CYQB 091713Z 07016G30KT 3/4SM R06/P6000FT/D -SN BLSN VV008 M06/ RMK SN8

CYQB;2009-12-09 17:35;CYQB 091735Z 07020G31KT 1/2SM R06/4500FT/N -SN BLSN VV005 M07/ RMK SN8

CYQB;2009-12-09 18:00;CYQB 091800Z 06022G34KT 5/8SM R06/5500FT/N -SN BLSN VV007 M07/M09 A2982 RMK SN8 PRESFR SLP104

CYQB;2009-12-09 18:39;CYQB 091839Z CCA 09019G29KT 1/2SM R06/3500V5000FT/D -SN BLSN VV003 M07/ RMK SN8 PRESFR

CYQB;2009-12-09 18:41;CYQB 091841Z CCA 09019G29KT 1/2SM R06/3500V5000FT/D -SN BLSN VV003 M07/ RMK SN8 PRESFR

CYQB;2009-12-09 19:00;CYQB 091900Z CCA 08016G29KT 3/8SM R06/3500FT/N SN BLSN VV003 M07/M08 A2978 RMK SN8 /S03/ SLP092

CYQB;2009-12-09 20:00;CYQB 092000Z 08017G28KT 1/8SM R06/3000FT/N SN +BLSN VV002 M07/M08 A2967 RMK SN8 PRESFR /S07/ SLP055

CYQB;2009-12-09 21:00;CYQB 092100Z 08031G39KT 1/8SM R06/3000FT/N SN +BLSN VV002 M07/M08 A2960 RMK SN8 PRESFR /S12/ SLP029

CYQB;2009-12-09 22:00;CYQB 092200Z 07021G31KT 1/4SM R06/5000FT/N SN +BLSN VV003 M06/M07 A2956 RMK SN8 /S14/ SLP015

CYQB;2009-12-09 23:00;CYQB 092300Z 07030G39KT 1SM R06/5500FT/U -SN BLSN VV005 M06/M07 A2951 RMK SN8 RESN /S16/ SLP998

CYQB;2009-12-09 23:36;CYQB 092336Z 07020G30KT 1 1/2SM -SN BLSN OVC010 M06/ RMK SN5SC3

CYQB;2009-12-10 00:00;CYQB 100000Z 07017G30KT 1/2SM R06/5500FT/N -SN BLSN VV004 M06/M07 A2948 RMK SN8 /S18/ SLP988

CYQB;2009-12-10 01:00;CYQB 100100Z 08021G32KT 1/2SM R06/6000FT/U -SN BLSN VV004 M06/M07 A2940 RMK SN8 PRESFR /S03/ SLP961

CYQB;2009-12-10 02:00;CYQB 100200Z 07020G36KT 5SM -SN BLSN SCT009 BKN027 OVC033 M06/M08 A2934 RMK SF3SC4SC1 PRESFR /S04/ SLP940

CYQB;2009-12-10 03:00;CYQB 100300Z 06026G35KT 4SM -SN BLSN OVC032 M06/M07 A2930 RMK SN3SC5 VIS VRB 3-5 /S05/ SLP927

CYQB;2009-12-10 03:44;CYQB 100344Z 09021G28KT 1SM R06/P6000FT/D -SN BLSN OVC012 M05/ RMK SN4SC4

CYQB;2009-12-10 04:00;CYQB 100400Z 07020G28KT 1/4SM R06/3000V4500FT/D -SN +BLSN VV003 M06/M07 A2928 RMK SN8 SLP920

CYQB;2009-12-10 05:00;CYQB 100500Z 07018G30KT 1/4SM R06/P6000FT/U -SN +BLSN VV010 M05/M06 A2927 RMK SN8 SLP916

CYQB;2009-12-10 05:25;CYQB 100525Z 06017G23KT 1/2SM R06/P6000FT/U -SN BLSN BKN009 OVC023 M05/ RMK SN2SC4SC2 VIS VRB 1/4-3/4

CYQB;2009-12-10 06:00;CYQB 100600Z 07014G20KT 3/4SM R06/P6000FT/U -SN BLSN OVC009 M05/M06 A2926 RMK SN3SC5 VIS VBR 1/2-1 /S06/ SLP913

CYQB;2009-12-10 07:00;CYQB 100700Z 07013G19KT 1 1/2SM -SN DRSN BKN009 OVC020 M05/M06 A2924 REBLSN RMK SN3SF3SC2 /S01/ SLP907

CYQB;2009-12-10 07:24;CYQB 100724Z 08013G18KT 2 1/2SM -SN DRSN BKN009 OVC030 M05/ RMK SN2SF3SC3

CYQB;2009-12-10 07:39;CYQB 100739Z 07013G19KT 4SM -SN DRSN SCT009 OVC036 M05/ RMK SF4SC4

CYQB;2009-12-10 08:00;CYQB 100800Z 07010G20KT 4SM -SN DRSN BKN015 OVC035 M05/M06 A2922 RMK SC6SC2 /S02/ SLP900

CYQB;2009-12-10 09:00;CYQB 100900Z 08010KT 10SM OVC010 M04/M06 A2923 RMK ST8 SLP902

CYQB;2009-12-10 09:23;CYQB 100923Z 06007KT 12SM -SN OVC008 M04/ RMK ST8

CYQB;2009-12-10 10:00;CYQB 101000Z 09007KT 10SM -SN OVC008 M04/M06 A2922 RMK ST8 SLP900

CYQB;2009-12-10 11:00;CYQB 101100Z 09005KT 10SM -SN BKN009 OVC025 M04/M06 A2921 RMK SF6SC2 SLP897

CYQB;2009-12-10 12:00;CYQB 101200Z 10004KT 3SM -SN BKN009 OVC025 M05/M06 A2919 RMK SF6SC2 SLP889

CYQB;2009-12-10 12:34;CYQB 101234Z 09006KT 1 1/4SM -SN BKN010 OVC025 M05/ RMK SN1SC6SC2

CYQB;2009-12-10 13:00;CYQB 101300Z 07002KT 2SM -SN SCT010 OVC029 M05/M06 A2919 RMK SC3SC5 SLP888

CYQB;2009-12-10 14:00;CYQB 101400Z 11002KT 1 1/2SM -SN SCT020 OVC025 M05/M06 A2919 RMK SN3SC1SC4 SLP888

CYQB;2009-12-10 14:39;CYQB 101439Z 15002KT 1 1/4SM -SN BKN015 OVC020 M04/ RMK SN4SC2SC2

CYQB;2009-12-10 15:00;CYQB 101500Z 00000KT 1 1/4SM -SN OVC017 M04/M05 A2919 RMK SN4SC4 /S01/ SLP888

CYQB;2009-12-10 15:27;CYQB 101527Z 28003KT 1SM R06/P6000FT/U -SN SCT009 OVC014 M04/ RMK SN3SF1SC4

CYQB;2009-12-10 16:00;CYQB 101600Z 00000KT 1SM R06/P6000FT/U -SN BKN010 OVC017 M04/M05 A2917 RMK SN3SF4SC1 SLP882

CYQB;2009-12-10 16:48;CYQB 101648Z 17003KT 2SM -SN BKN008 OVC017 M02/ RMK SN1SF6SC2

CYQB;2009-12-10 17:00;CYQB 101700Z 22002KT 5SM -SN SCT008 BKN012 OVC025 M02/M03 A2915 RMK SF4SC2SC2 VIS S 20 SLP876

CYQB;2009-12-10 17:18;CYQB 101718Z 25011G16KT 15SM -SN FEW008 SCT015 OVC023 M00/ RMK SF1SC2SC5 VIS NW-NE 5

CYQB;2009-12-10 18:00;CYQB 101800Z 24023G30KT 15SM -SHSN DRSN FEW012 OVC036 00/M04 A2914 RMK SC2SC6 VIS NW 5 /S02/ SLP871

CYQB;2009-12-10 19:00;CYQB 101900Z 24022G29KT 15SM -SHSN DRSN FEW012 BKN030 OVC070 M00/M05 A2915 RMK SC2SC5AC2 SLP876

CYQB;2009-12-10 20:00;CYQB 102000Z 24025G35KT 15SM -SHSN DRSN FEW020 BKN029 OVC070 M01/M05 A2918 RMK CF2SC5AC1 VIS NW-N 5 SLP884

CYQB;2009-12-10 21:00;CYQB 102100Z 24026G33KT 10SM -SHSN DRSN SCT023 BKN045 OVC070 M02/M06 A2919 RMK SC4SC3AC1 VIS NW-N VRBL 2-5 SLP888

CYQB;2009-12-10 21:45;CYQB 102145Z 23022G30KT 3SM -SHSN DRSN BKN009 OVC023 M03/ RMK SC5SC3

CYQB;2009-12-10 21:54;CYQB 102154Z 24018G29KT 1/2SM R06/P6000FT/D -SHSN BLSN OVC007 M03/ RMK SN6SC2

CYQB;2009-12-10 22:00;CYQB 102200Z 27024G30KT 2SM -SHSN BLSN OVC009 M03/M05 A2922 RMK SN6SC2 /S01/ SLP897

CYQB;2009-12-10 22:13;CYQB 102213Z 25021G26KT 8SM -SHSN DRSN SCT023 OVC029 M03/ RMK SC4SC4

CYQB;2009-12-10 23:00;CYQB 102300Z 26021G29KT 2SM -SHSN BLSN BKN012 OVC023 M04/M06 A2924 RMK SN2SC6SC1 /S02/ SLP904

CYQB;2009-12-10 23:11;CYQB 102311Z 25019G28KT 3SM -SHSN DRSN FEW009 BKN015 OVC036 M04/ RMK SF2SC4SC2

CYQB;2009-12-10 23:29;CYQB 102329Z 26021G31KT 3/4SM R06/P6000FT/N -SHSN BLSN BKN007 OVC015 M04/ RMK SN4SC1SC3

CYQB;2009-12-10 23:49;CYQB 102349Z CCA 26023G34KT 4SM R06/3000VP6000FT/U -SHSN DRSN FEW008 SCT010 OVC039 M05/ RMK SF1SC3SC4 REBLSN

CYQB;2009-12-11 00:00;CYQB 110000Z 25027KT 5SM -SHSN DRSN FEW005 BKN017 OVC032 M05/M07 A2925 RMK SF1SC6SC1 REBLSN /S03/ SLP909

CYQB;2009-12-11 01:00;CYQB 110100Z 28015G20KT 7SM -SHSN DRSN FEW010 BKN035 OVC063 M05/M08 A2927 RMK SF1SC6SC1 SLP917

CYQB;2009-12-11 02:00;CYQB 110200Z 26024G29KT 8SM -SHSN DRSN SCT020 BKN037 OVC062 M06/M10 A2928 RMK SC4SC3SC1 SLP920

CYQB;2009-12-11 03:00;CYQB 110300Z 27027G35KT 6SM -SHSN DRSN BKN021 OVC051 M07/M11 A2930 RMK SC5SC3 /S04/ SLP927

CYQB;2009-12-11 04:00;CYQB 110400Z 27020G30KT 6SM -SHSN DRSN BKN022 OVC047 M07/M11 A2933 RMK SC5SC3 VIS HIER SE-SW SLP936

CYQB;2009-12-11 05:00;CYQB 110500Z CCA 26020G27KT 7SM -SHSN DRSN BKN023 OVC062 M08/M11 A2935 RMK SC6SC2 VIS HIER SE-SW SLP944

CYQB;2009-12-11 06:00;CYQB 110600Z 26019G24KT 6SM -SHSN DRSN BKN022 OVC053 M08/M12 A2937 RMK SC6SC2 VIS HIER SE-SW SLP951

CYQB;2009-12-11 07:00;CYQB 110700Z 27020G27KT 8SM BKN043 OVC069 M08/M13 A2940 RMK SC6AC2 DIST -SHSN E-S SLP961

CYQB;2009-12-11 08:00;CYQB 110800Z 27023G29KT 8SM BKN036 BKN070 M09/M14 A2942 RMK SC5AC2 DIST -SHSN E-S SLP968

CYQB;2009-12-11 08:34;CYQB 110834Z 27023G31KT 8SM -SN DRSN OVC041 M09/ RMK SC8

CYQB;2009-12-11 09:00;CYQB 110900Z 27019G25KT 8SM BKN050 BKN070 M09/M15 A2944 RMK SC5AC2 DIST -SHSN E-S SLP975

CYQB;2009-12-11 10:00;CYQB 111000Z 27021G30KT 8SM -SHSN DRSN BKN031 BKN060 M09/M14 A2947 RMK SC5SC2 SLP984

CYQB;2009-12-11 11:00;CYQB 111100Z 26021G26KT 4SM -SHSN DRSN BKN031 BKN062 M10/M14 A2950 RMK SC5SC2 SLP994

CYQB;2009-12-11 12:00;CYQB 111200Z 26018KT 4SM -SHSN DRSN BKN026 BKN040 M10/M14 A2952 RMK SC5SC2 SLP000

CYQB;2009-12-11 13:00;CYQB 111300Z 26020KT 5SM -SHSN DRSN FEW022 OVC039 M10/M14 A2953 RMK SC2SC5 SLP004

CYQB;2009-12-11 14:00;CYQB 111400Z 26021KT 4SM -SHSN DRSN FEW023 OVC037 M09/M13 A2955 RMK SC2SC6 SLP011

CYQB;2009-12-11 15:00;CYQB 111500Z 25022G27KT 6SM -SHSN DRSN FEW027 BKN037 OVC240 M09/M13 A2957 RMK SC2SC4CI0 SLP017

CYQB;2009-12-11 16:00;CYQB 111600Z 25020G28KT 10SM -SHSN DRSN FEW025 BKN042 BKN240 M09/M13 A2956 RMK SC2SC3CI1 VIS N-NE 5 SLP015

CYQB;2009-12-11 17:00;CYQB 111700Z 25021G26KT 10SM -SHSN DRSN BKN038 BKN240 M08/M13 A2957 RMK SC5CI0 SLP018

CYQB;2009-12-11 17:28;CYQB 111728Z 25021G30KT 15SM DRSN VCSH BKN044 BKN240 M08/ RMK SC5CI1

CYQB;2009-12-11 18:00;CYQB 111800Z 26026G31KT 15SM DRSN VCSH BKN047 OVC240 M08/M13 A2958 RMK SC5CI0 SLP021

CYQB;2009-12-11 19:00;CYQB 111900Z 26027G32KT 15SM DRSN FEW047 BKN060 BKN240 M08/M14 A2959 RMK SC2SC3CI0 DIST SH N-NE SLP026

CYQB;2009-12-11 20:00;CYQB 112000Z 26026G31KT 15SM DRSN FEW035 SCT070 BKN240 M08/M14 A2962 RMK SC2AC1CI2 DIST SH N SLP035

CYQB;2009-12-11 21:00;CYQB 112100Z 26019G35KT 15SM DRSN FEW035 FEW070 BKN240 M08/M14 A2966 RMK SC2AC1CI1 DIST SH N SLP048

CYQB;2009-12-11 22:00;CYQB 112200Z CCA 26025G33KT 12SM -SHSN BKN033 BKN065 M08/M13 A2969 RMK SC6SC1 SLP059

CYQB;2009-12-11 23:00;CYQB 112300Z 27023G29KT 10SM -SHSN FEW030 BKN060 M08/M13 A2973 RMK SC2SC6 SLP072

CYQB;2009-12-11 23:47;CYQB 112347Z 26022G30KT 15SM FEW020 FEW070 SCT110 M09/ RMK SC1AC2AC1

CYQB;2009-12-12 00:00;CYQB 120000Z 26020G27KT 15SM FEW020 FEW070 SCT120 M09/M14 A2976 RMK SC1AC2AC1 SLP083

CYQB;2009-12-12 01:00;CYQB 120100Z 27021G26KT 15SM FEW020 BKN200 M09/M15 A2980 RMK SC2CI1 SLP095

CYQB;2009-12-12 02:00;CYQB 120200Z 27022G28KT 15SM FEW025 BKN200 M10/M15 A2982 RMK SC2CI2 SLP103

CYQB;2009-12-12 03:00;CYQB 120300Z 27018G24KT 20SM FEW040 BKN200 M10/M16 A2985 RMK SC1CI2 SLP115

CYQB;2009-12-12 04:00;CYQB 120400Z 27019G26KT 20SM FEW040 BKN200 M11/M16 A2989 RMK SC1CI2 SLP128

CYQB;2009-12-12 05:00;CYQB 120500Z 27016G24KT 20SM FEW030 BKN200 M11/M17 A2992 RMK SC1CI2 SLP137

CYQB;2009-12-12 06:00;CYQB 120600Z 25012KT 12SM BKN035 BKN200 M12/M17 A2995 RMK SC3CI0 SLP147

CYQB;2009-12-12 07:00;CYQB 120700Z 26014KT 15SM FEW037 M13/M18 A2998 RMK SC1 SLP159

CYQB;2009-12-12 08:00;CYQB 120800Z 26018KT 15SM FEW037 FEW220 M13/M19 A3001 RMK SC1CI0 SLP168

CYQB;2009-12-12 09:00;CYQB 120900Z 26014KT 15SM SKC M15/M20 A3005 RMK SLP182

CYQB;2009-12-12 10:00;CYQB 121000Z 25011KT 15SM SKC M15/M20 A3010 RMK SLP198

CYQB;2009-12-12 11:00;CYQB 121100Z 24014KT 15SM FEW190 M15/M21 A3012 RMK AC1 SLP205

CYQB;2009-12-12 12:00;CYQB 121200Z 23010KT 30SM FEW030 FEW190 M16/M23 A3015 RMK SC1AC1 SLP215

CYQB;2009-12-12 13:00;CYQB 121300Z 23009KT 30SM FEW035 FEW190 M16/M23 A3018 RMK SC1AC1 SLP226

CYQB;2009-12-12 14:00;CYQB 121400Z 24008KT 30SM FEW025 FEW190 M14/M21 A3022 RMK SC1AC1 SLP238

CYQB;2009-12-12 15:00;CYQB 121500Z CCA 27012KT 30SM FEW030 M13/M20 A3023 RMK SC2 SHSN N SLP244

CYQB;2009-12-12 16:00;CYQB 121600Z 27015G20KT 30SM FEW030 M12/M19 A3023 RMK SC1 SLP244

CYQB;2009-12-12 17:00;CYQB 121700Z 27017G26KT 30SM FEW030 M11/M20 A3022 RMK SC1 SLP241

CYQB;2009-12-12 18:00;CYQB 121800Z 27016G26KT 30SM FEW030 M10/M18 A3023 RMK SC2 SLP242

CYQB;2009-12-12 19:00;CYQB 121900Z 29018G24KT 30SM FEW030 M09/M19 A3024 RMK SC2 SLP247

CYQB;2009-12-12 20:00;CYQB 122000Z 29012KT 30SM DRSN FEW030 M09/M19 A3026 RMK SC2 SLP252

CYQB;2009-12-12 21:00;CYQB 122100Z 30011KT 30SM FEW030 M10/M18 A3028 RMK SC1 SLP260

CYQB;2009-12-12 22:00;CYQB 122200Z 30012KT 15SM FEW030 M10/M18 A3029 RMK SC1 SLP264

CYQB;2009-12-12 23:00;CYQB 122300Z 30008KT 15SM FEW030 M11/M18 A3031 RMK SC1 SLP270

CYQB;2009-12-13 00:00;CYQB 130000Z 30010KT 15SM SKC M09/M16 A3032 RMK SLP275

CYQB;2009-12-13 01:00;CYQB 130100Z 22004KT 15SM BKN070 M10/M17 A3033 RMK AC6 SLP278

CYQB;2009-12-13 02:00;CYQB 130200Z 22010KT 15SM BKN060 M10/M16 A3033 RMK SC7 SLP276

CYQB;2009-12-13 03:00;CYQB 130300Z 20007KT 15SM BKN062 M09/M16 A3032 RMK SC7 SLP273

CYQB;2009-12-13 04:00;CYQB 130400Z 18006KT 15SM -SN BKN040 OVC060 M09/M15 A3032 RMK SC7SC1 SLP274

CYQB;2009-12-13 05:00;CYQB 130500Z 20005KT 10SM -SN BKN042 OVC065 M08/M13 A3030 RMK SC7SC1 SLP267

CYQB;2009-12-13 06:00;CYQB 130600Z 26007KT 10SM -SN OVC060 M09/M12 A3028 RMK SC8 SLP261

CYQB;2009-12-13 07:00;CYQB 130700Z 27007KT 8SM -SN OVC055 M08/M10 A3030 RMK SC8 SLP265

CYQB;2009-12-13 08:00;CYQB 130800Z 25006KT 12SM OVC048 M07/M10 A3028 RMK SC8 SLP258

CYQB;2009-12-13 09:00;CYQB 130900Z 27005KT 10SM -SN OVC057 M07/M09 A3026 RMK SC8 -SN INTMT SLP253

CYQB;2009-12-13 10:00;CYQB 131000Z 25004KT 15SM BKN024 BKN057 M08/M10 A3026 RMK SC6SC1 SLP252

CYQB;2009-12-13 11:00;CYQB 131100Z 27005KT 15SM BKN034 M09/M11 A3025 RMK SC6 SLP249

CYQB;2009-12-13 12:00;CYQB 131200Z 27004KT 15SM FEW050 FEW100 M09/M10 A3024 RMK SC1AC1 SLP245

CYQB;2009-12-13 13:00;CYQB 131300Z 08005KT 15SM FEW035 FEW100 M10/M11 A3023 RMK SC1AC1 SLP243

CYQB;2009-12-13 14:00;CYQB 131400Z 03006KT 15SM FEW100 FEW270 M07/M10 A3020 RMK AC1CI1 SLP234

CYQB;2009-12-13 15:00;CYQB 131500Z 04003KT 15SM FEW270 M06/M09 A3017 RMK CI1 SLP220

CYQB;2009-12-13 16:00;CYQB 131600Z 08003KT 15SM FEW150 BKN270 M05/M09 A3010 RMK AC1CI2 PRESFR SLP198

CYQB;2009-12-13 17:00;CYQB 131700Z 06005KT 15SM OVC100 M04/M09 A3003 RMK AS7 SLP174

CYQB;2009-12-13 18:00;CYQB 131800Z 04005KT 15SM BKN051 OVC100 M03/M08 A2999 RMK SC5AC3 SLP161

CYQB;2009-12-13 19:00;CYQB 131900Z 02006KT 30SM BKN068 OVC072 M03/M08 A2994 RMK SC6AC2 SLP144

CYQB;2009-12-13 20:00;CYQB 132000Z 36004KT 30SM BKN065 OVC071 M02/M08 A2991 RMK SC6AC2 SLP134

CYQB;2009-12-13 20:40;CYQB 132040Z 35004KT 6SM -SN BR BKN027 OVC042 M02/ RMK SC6SC2

CYQB;2009-12-13 21:00;CYQB 132100Z 00000KT 1SM R06/P6000FT/U -SN BR OVC010 M02/M08 A2989 RMK SC8 SLP127

CYQB;2009-12-13 21:12;CYQB 132112Z 22004KT 3/4SM R06/P6000FT/D -SN BR OVC006 M02/ RMK SC8

CYQB;2009-12-13 21:38;CYQB 132138Z 26003KT 1/2SM R06/P6000FT/D SN FZFG OVC005 M03/ RMK SC8

CYQB;2009-12-13 22:00;CYQB 132200Z 23003KT 1/2SM R06/6000FT/U SN FZFG OVC005 M03/M04 A2988 RMK SC8 SLP124

CYQB;2009-12-13 22:37;CYQB 132237Z 00000KT 1/2SM R06/P6000FT/N SN FZFG OVC004 M03/ RMK SC8

CYQB;2009-12-13 23:00;CYQB 132300Z CCA 00000KT 1/2SM R06/P6000FT/N SN FZFG OVC005 M03/M04 A2986 RMK SC8 /S01/ SLP116

CYQB;2009-12-13 23:39;CYQB 132339Z 36003KT 3/4SM R06/P6000FT/D -SN BR OVC007 M03/ RMK SC8

CYQB;2009-12-14 00:00;CYQB 140000Z 35004KT 1 1/2SM -SN BR SCT007 OVC023 M03/M04 A2984 RMK SC4SC4 SLP110

CYQB;2009-12-14 00:34;CYQB 140034Z 36003KT 8SM -SN BKN015 OVC027 M03/ RMK SC6SC2

CYQB;2009-12-14 01:00;CYQB 140100Z 34002KT 5SM -SN BR OVC015 M03/M04 A2983 RMK SC8 SLP107

CYQB;2009-12-14 02:00;CYQB 140200Z 23003KT 4SM -SN BR OVC011 M03/M04 A2983 RMK SC8 SLP108

CYQB;2009-12-14 03:00;CYQB 140300Z 22004KT 8SM -SN OVC013 M02/M04 A2984 RMK SC8 SLP111

CYQB;2009-12-14 03:34;CYQB 140334Z 22004KT 8SM OVC009 M02/ RMK SC8

CYQB;2009-12-14 04:00;CYQB 140400Z 21005KT 8SM OVC007 M02/M04 A2985 RMK SC8 SLP112

CYQB;2009-12-14 05:00;CYQB 140500Z 22005KT 8SM BKN008 OVC023 M02/M04 A2986 RMK SC7SC1 SLP118

CYQB;2009-12-14 06:00;CYQB 140600Z 23010KT 8SM BKN008 OVC023 M03/M04 A2989 RMK SC7SC1 SLP124

CYQB;2009-12-14 06:23;CYQB 140623Z 20006KT 8SM SCT008 OVC022 M03/ RMK SC4SC4

CYQB;2009-12-14 07:00;CYQB 140700Z 23009KT 8SM OVC023 M03/M04 A2989 RMK SC7 SLP125

CYQB;2009-12-14 08:00;CYQB 140800Z 24010KT 8SM SCT024 M04/M05 A2993 RMK SC3 SLP138

CYQB;2009-12-14 09:00;CYQB 140900Z 26016KT 8SM BKN027 M04/M05 A2996 RMK SC7 SLP149

CYQB;2009-12-14 10:00;CYQB 141000Z 25010KT 8SM FEW028 SCT070 M04/M06 A2997 RMK SC2AC1 SLP154

CYQB;2009-12-14 11:00;CYQB 141100Z 26013KT 1 1/2SM BR OVC002 M05/M06 A3000 RMK FG6SF2 SLP164

CYQB;2009-12-14 11:30;CYQB 141130Z 27009KT 2 1/2SM BR FEW002 SCT050 M06/ RMK FG2SF1SC1

CYQB;2009-12-14 12:00;CYQB 141200Z 25011KT 4SM BR FEW025 SCT050 SCT220 M05/M06 A3002 RMK SC2SC2CI1 SLP169

CYQB;2009-12-14 13:00;CYQB 141300Z CCA 23010KT 2 1/2SM BR FEW025 FEW050 FEW220 M05/M06 A3003 RMK SC1SC1CI1 VIS NW-NE HIER SLP174

CYQB;2009-12-14 13:28;CYQB 141328Z 24010KT 1 1/2SM BR FEW050 FEW220 M05/ RMK FG2SC1CI1

CYQB;2009-12-14 14:00;CYQB 141400Z 23008KT 1 1/2SM BR FEW050 FEW220 M05/M06 A3003 RMK FG1SC1CI1 VIS NW-NE HIER SLP175

CYQB;2009-12-14 14:32;CYQB 141432Z 23007KT 4SM BR FEW050 FEW220 M05/ RMK SC1CI1

CYQB;2009-12-14 15:00;CYQB 141500Z 22010KT 6SM BR FEW220 M04/M06 A3006 RMK CI1 FOG OVER RIVER SLP184

CYQB;2009-12-14 16:00;CYQB 141600Z 23010KT 8SM SCT220 M04/M06 A3006 RMK CI2 HAZY SLP184

CYQB;2009-12-14 17:00;CYQB 141700Z 23010KT 8SM BKN220 M03/M06 A3006 RMK CI2 HAZY SLP185

CYQB;2009-12-14 18:00;CYQB 141800Z CCA 22009KT 15SM FEW030 BKN220 M04/M06 A3006 RMK SC1CI3 SLP183

CYQB;2009-12-14 19:00;CYQB 141900Z 23009KT 15SM FEW030 FEW150 BKN220 M04/M07 A3006 RMK SC1AC2CI3 SLP185

CYQB;2009-12-14 20:00;CYQB 142000Z 25005KT 15SM FEW030 SCT120 OVC220 M04/M07 A3007 RMK SC1AC3CI4 SLP188

CYQB;2009-12-14 21:00;CYQB 142100Z 31002KT 15SM BKN130 OVC220 M04/M06 A3005 RMK AC5CI3 SLP180

CYQB;2009-12-14 22:00;CYQB 142200Z 28002KT 15SM FEW041 BKN110 OVC220 M05/M07 A3005 RMK SC1AC5CI2 SLP181

CYQB;2009-12-14 23:00;CYQB 142300Z 00000KT 15SM FEW055 OVC100 M04/M06 A3004 RMK SC2AC6 SLP178

CYQB;2009-12-15 00:00;CYQB 150000Z 00000KT 15SM BKN039 OVC090 M04/M06 A3005 RMK SC6AC2 SLP179

CYQB;2009-12-15 01:00;CYQB 150100Z 03006KT 15SM BKN039 OVC090 M04/M06 A3002 RMK SC6AC2 SLP170

CYQB;2009-12-15 02:00;CYQB 150200Z 04004KT 10SM OVC042 M04/M06 A3000 RMK SC8 SLP164

CYQB;2009-12-15 03:00;CYQB 150300Z 05006KT 10SM OVC040 M03/M07 A2999 RMK SC8 SLP160

CYQB;2009-12-15 03:47;CYQB 150347Z 04003KT 10SM -SN OVC040 M03/ RMK SC8

CYQB;2009-12-15 04:00;CYQB 150400Z 04005KT 6SM -SN FEW025 OVC040 M03/M08 A2999 RMK SC1SC7 SLP159

CYQB;2009-12-15 04:35;CYQB 150435Z 05011KT 1SM R06/P6000FT/N -SN VV010 M03/ RMK SN8

CYQB;2009-12-15 05:00;CYQB 150500Z 05010KT 1SM R06/P6000FT/N -SN VV011 M04/M05 A2998 RMK SN8 SLP158

CYQB;2009-12-15 06:00;CYQB 150600Z 07015KT 1SM R06/P6000FT/D -SN VV013 M04/M05 A2997 RMK SN8 SLP152

CYQB;2009-12-15 06:45;CYQB 150645Z 07013G18KT 1SM R06/P6000FT/U -SN VV009 M04/ RMK SN8

CYQB;2009-12-15 07:00;CYQB 150700Z 07010G15KT 2SM -SN OVC010 M04/M05 A2995 RMK SN4SC4 /S01/ SLP148

CYQB;2009-12-15 08:00;CYQB 150800Z 07015G20KT 2SM -SN OVC010 M04/M05 A2994 RMK SN4SC4 SLP145

CYQB;2009-12-15 09:00;CYQB 150900Z 07014G19KT 2 1/4SM -SN OVC012 M04/M06 A2992 RMK SN3SC5 SLP137

CYQB;2009-12-15 09:21;CYQB 150921Z 07012G18KT 5SM -SN SCT010 OVC017 M04/ RMK SC4SC4

CYQB;2009-12-15 10:00;CYQB 151000Z 07014KT 3SM -SN OVC023 M04/M06 A2991 RMK SC8 /S02/ SLP134

CYQB;2009-12-15 11:00;CYQB 151100Z 07012G19KT 5SM -SHSN BKN013 BKN023 OVC036 M05/M06 A2990 RMK SC5SC2SC2 SLP130

CYQB;2009-12-15 12:00;CYQB 151200Z 06013G19KT 5SM -SHSN FEW009 BKN030 OVC040 M04/M06 A2989 RMK SC2SC3SC3 SLP127

CYQB;2009-12-15 12:44;CYQB 151244Z 07014G21KT 1 1/2SM -SHSN BLSN OVC016 M04/ RMK SC8

CYQB;2009-12-15 13:00;CYQB 151300Z 07013G22KT 1SM R06/P6000FT/D -SHSN BLSN OVC010 M05/M06 A2989 RMK SN6SC2 SLP125

CYQB;2009-12-15 13:36;CYQB 151336Z 07014G22KT 4SM -SHSN FEW009 BKN028 OVC047 M04/ RMK SC1SC6SC1

CYQB;2009-12-15 13:53;CYQB 151353Z 06011G20KT 2SM -SHSN FEW013 BKN031 OVC048 M04/ RMK SC1SC5SC2

CYQB;2009-12-15 14:00;CYQB 151400Z 07013KT 2SM -SHSN FEW012 BKN032 OVC047 M04/M07 A2988 RMK SC1SC6SC2 SLP124

CYQB;2009-12-15 15:00;CYQB 151500Z 08012KT 2SM -SN FEW012 OVC043 M04/M06 A2988 RMK SC1SC7 SLP124

CYQB;2009-12-15 15:20;CYQB 151520Z 09013G18KT 1 1/4SM -SN FEW011 OVC041 M04/ RMK SN2SC1SC6

CYQB;2009-12-15 16:00;CYQB 151600Z 07014G19KT 1 1/2SM -SN FEW012 SCT026 OVC031 M04/M06 A2985 RMK SN1SC2SC2SC4 /S02/ SLP114

CYQB;2009-12-15 17:00;CYQB 151700Z 07010G18KT 1 1/2SM -SN SCT011 OVC029 M04/M06 A2982 RMK SN2SC2SC5 SLP102

CYQB;2009-12-15 17:42;CYQB 151742Z 07011KT 6SM -SN FEW011 OVC023 M04/ RMK SC2SC6

CYQB;2009-12-15 18:00;CYQB 151800Z 07011KT 4SM -SN FEW012 OVC024 M04/M06 A2980 RMK SC2SC6 /S03/ SLP095

CYQB;2009-12-15 19:00;CYQB 151900Z 08010KT 4SM -SN FEW012 BKN025 OVC032 M04/M06 A2980 RMK SC1SC6SC1 SLP096

CYQB;2009-12-15 19:29;CYQB 151929Z 07006KT 2SM -SN FEW012 OVC026 M04/ RMK SC1SC7

CYQB;2009-12-15 20:00;CYQB 152000Z 05005KT 2SM -SN FEW010 OVC027 M04/M05 A2981 RMK SC2SC6 SLP100

CYQB;2009-12-15 21:00;CYQB 152100Z 08004KT 5SM -SN FEW010 SCT025 OVC033 M04/M05 A2981 RMK SF2SC2SC4 SLP100

CYQB;2009-12-15 22:00;CYQB 152200Z 26003KT 8SM FEW009 BKN025 OVC033 M04/M05 A2983 RMK SF2SC5SC2 SLP106

CYQB;2009-12-15 22:46;CYQB 152246Z 27008KT 8SM BKN012 OVC023 M04/M05 RMK SC5SC3

CYQB;2009-12-15 23:00;CYQB 152300Z 25007KT 8SM -SHSN BKN013 OVC023 M04/M05 A2985 RMK SC5SC3 SLP112

CYQB;2009-12-16 00:00;CYQB 160000Z 22009KT 8SM -SHSN FEW010 BKN023 OVC036 M04/M05 A2985 RMK SF2SC5SC2 SLP112

CYQB;2009-12-16 01:00;CYQB 160100Z 25011KT 8SM -SHSN FEW009 BKN014 OVC033 M04/M05 A2986 RMK SF2SC4SC2 SLP115

CYQB;2009-12-16 02:00;CYQB 160200Z 26010KT 10SM -SHSN FEW010 SCT025 OVC032 M04/M05 A2985 RMK SF1SC2SC5 SLP114

CYQB;2009-12-16 03:00;CYQB 160300Z 31009KT 10SM -SHSN FEW010 OVC049 M04/M08 A2985 RMK SF1SC7 SLP114

CYQB;2009-12-16 04:00;CYQB 160400Z 28008KT 10SM -SHSN FEW030 SCT050 OVC092 M05/M09 A2987 RMK SC2SC2AC4 SLP120

CYQB;2009-12-16 05:00;CYQB 160500Z 26018KT 10SM BKN090 M07/M10 A2988 RMK AC7 SLP124

CYQB;2009-12-16 06:00;CYQB 160600Z 25013G18KT 10SM -SHSN FEW080 BKN090 OVC140 M08/M11 A2990 RMK AC1AC5AC2 SLP131

CYQB;2009-12-16 07:00;CYQB 160700Z 27015KT 12SM -SHSN FEW080 BKN140 M09/M13 A2993 RMK AC2AC4 SLP141

CYQB;2009-12-16 08:00;CYQB 160800Z 28014KT 12SM -SHSN FEW080 BKN140 M11/M15 A2995 RMK AC2AC4 SLP146

CYQB;2009-12-16 08:34;CYQB 160834Z 28014G19KT 12SM FEW080 BKN140 RMK AC2AC4

CYQB;2009-12-16 09:00;CYQB 160900Z 29015G22KT 12SM FEW080 SCT140 M12/M17 A2997 RMK AC1AC2 SLP155

CYQB;2009-12-16 10:00;CYQB 161000Z 29016G24KT 12SM FEW230 M13/M18 A3000 RMK CI1 SLP165

CYQB;2009-12-16 11:00;CYQB 161100Z 26016KT 15SM FEW230 M15/M19 A3005 RMK CI1 SLP181

CYQB;2009-12-16 12:00;CYQB 161200Z CCA 26010G16KT 15SM FEW230 M15/M19 A3008 RMK CI1 SLP192

CYQB;2009-12-16 13:00;CYQB 161300Z 26010KT 30SM FEW025 M16/M20 A3011 RMK SC2 SLP201

CYQB;2009-12-16 14:00;CYQB 161400Z 26010G16KT 30SM FEW025 FEW230 M16/M19 A3012 RMK SC1CI1 SLP204

CYQB;2009-12-16 15:00;CYQB 161500Z 26014KT 30SM FEW028 FEW230 M15/M21 A3012 RMK SC1CI0 SLP205

CYQB;2009-12-16 16:00;CYQB 161600Z 28011KT 30SM FEW030 M14/M22 A3010 RMK SC2 SLP198

CYQB;2009-12-16 17:00;CYQB 161700Z 28014KT 15SM FEW030 M14/M22 A3008 RMK SC2 SLP192

CYQB;2009-12-16 18:00;CYQB 161800Z 29011G18KT 30SM FEW032 FEW200 M14/M22 A3006 RMK SC2CI1 SLP187

CYQB;2009-12-16 19:00;CYQB 161900Z 28010G15KT 30SM FEW034 SCT100 M15/M22 A3006 RMK SC2AC2 SLP185

CYQB;2009-12-16 20:00;CYQB 162000Z 28013G21KT 30SM FEW035 SCT100 BKN200 M15/M23 A3006 RMK SC2AC2CI1 SLP186

CYQB;2009-12-16 21:00;CYQB 162100Z 28011G18KT 30SM FEW035 FEW100 FEW200 M17/M25 A3008 RMK SC1AC1CI1 SLP193

CYQB;2009-12-16 22:00;CYQB 162200Z 28010G15KT 15SM FEW038 FEW110 M18/M26 A3010 RMK CF1AC1 SLP201

CYQB;2009-12-16 23:00;CYQB 162300Z CCA 27009G17KT 15SM FEW038 SCT190 M18/M26 A3011 RMK CF1CI3 SLP203

CYQB;2009-12-17 00:00;CYQB 170000Z 28009KT 15SM FEW038 FEW190 M19/M26 A3011 RMK CF1CI2 SLP204

CYQB;2009-12-17 01:00;CYQB 170100Z 27006KT 15SM FEW038 FEW190 M19/M26 A3010 RMK CF1CI1 SLP201

CYQB;2009-12-17 02:00;CYQB 170200Z 29010G15KT 15SM FEW040 FEW190 M18/M27 A3010 RMK CF1CI2 SLP201

CYQB;2009-12-17 03:00;CYQB 170300Z 29010KT 15SM FEW040 FEW200 M19/M28 A3010 RMK SC1CI1 SLP201

CYQB;2009-12-17 04:00;CYQB 170400Z 25010KT 15SM FEW040 M20/M28 A3011 RMK SC1 SLP202

CYQB;2009-12-17 05:00;CYQB 170500Z 26012KT 15SM FEW040 M21/M28 A3011 RMK SC1 SLP203

CYQB;2009-12-17 06:00;CYQB 170600Z 26015KT 15SM SKC M21/M28 A3011 RMK SLP204

CYQB;2009-12-17 07:00;CYQB 170700Z 24016KT 15SM SKC M22/M28 A3012 RMK SLP206

CYQB;2009-12-17 08:00;CYQB 170800Z 25017KT 15SM SKC M22/M29 A3012 RMK SLP207

CYQB;2009-12-17 09:00;CYQB 170900Z 25017KT 15SM FEW040 M22/M29 A3011 RMK SC1 SLP205

CYQB;2009-12-17 10:00;CYQB 171000Z 25018KT 15SM FEW040 M22/M29 A3012 RMK SC1 SLP207

CYQB;2009-12-17 11:00;CYQB 171100Z 24018KT 15SM FEW040 M22/M29 A3013 RMK SC1 SLP210

CYQB;2009-12-17 12:00;CYQB 171200Z 24018KT 15SM FEW080 M22/M29 A3013 RMK AC1 SLP211

CYQB;2009-12-17 13:00;CYQB 171300Z 24019G25KT 30SM FEW030 FEW080 M22/M29 A3015 RMK SC1AC2 SLP217

CYQB;2009-12-17 14:00;CYQB 171400Z 24019KT 30SM FEW025 SCT160 M21/M28 A3016 RMK CF1AC3 SLP220

CYQB;2009-12-17 15:00;CYQB 171500Z 24019G24KT 30SM FEW025 FEW160 M20/M27 A3016 RMK CF1AC2 SLP221

CYQB;2009-12-17 16:00;CYQB 171600Z 24016G21KT 30SM FEW025 FEW160 M19/M26 A3015 RMK CF1AC1 SLP218

CYQB;2009-12-17 17:00;CYQB 171700Z 26018G24KT 30SM FEW025 FEW160 M17/M24 A3015 RMK SC1AC1 SLP217

CYQB;2009-12-17 18:00;CYQB 171800Z 27016G21KT 30SM FEW022 M16/M23 A3016 RMK CF1 SLP220

CYQB;2009-12-17 19:00;CYQB 171900Z 27013G18KT 30SM FEW020 FEW040 M15/M24 A3015 RMK CF1SC1 SLP219

CYQB;2009-12-17 20:00;CYQB 172000Z 27019G24KT 30SM FEW020 FEW040 M15/M23 A3015 RMK CF1SC1 SLP219

CYQB;2009-12-17 21:00;CYQB 172100Z 25015KT 30SM FEW040 SCT160 M15/M22 A3016 RMK SC1AC1 ACSL N QUAD SLP222

CYQB;2009-12-17 22:00;CYQB 172200Z 25016KT 15SM SCT045 SCT160 M15/M22 A3017 RMK SC2AC0 SLP223

CYQB;2009-12-17 23:00;CYQB 172300Z 26015G22KT 15SM FEW045 FEW160 M16/M22 A3017 RMK SC1AC0 SLP224

CYQB;2009-12-18 00:00;CYQB 180000Z 25018KT 15SM FEW040 FEW150 M16/M22 A3017 RMK SC1AC0 SLP224

CYQB;2009-12-18 01:00;CYQB 180100Z 26016G21KT 15SM SKC M16/M22 A3017 RMK SLP225

CYQB;2009-12-18 02:00;CYQB 180200Z CCA 25020KT 15SM FEW040 FEW150 M16/M22 A3016 RMK SC1AC1 SLP221

CYQB;2009-12-18 03:00;CYQB 180300Z 25017KT 15SM FEW040 SCT150 M16/M22 A3017 RMK SC2AC1 SLP224

CYQB;2009-12-18 04:00;CYQB 180400Z 25020KT 15SM BKN035 M16/M22 A3017 RMK SC5 SLP225

CYQB;2009-12-18 05:00;CYQB 180500Z 25016KT 15SM SCT034 M16/M21 A3017 RMK SC4 SLP225

CYQB;2009-12-18 06:00;CYQB 180600Z 25014KT 15SM SCT034 M16/M20 A3017 RMK SC4 SLP225

CYQB;2009-12-18 07:00;CYQB 180700Z 24018KT 15SM FEW034 M16/M21 A3018 RMK SC2 SLP227

CYQB;2009-12-18 08:00;CYQB 180800Z 25015KT 15SM FEW034 M17/M22 A3019 RMK SC2 SLP231

CYQB;2009-12-18 09:00;CYQB 180900Z 25013KT 15SM SKC M18/M23 A3019 RMK SLP231

CYQB;2009-12-18 10:00;CYQB 181000Z 26014KT 15SM SKC M19/M24 A3020 RMK SLP234

CYQB;2009-12-18 11:00;CYQB 181100Z 24016KT 15SM SKC M19/M25 A3021 RMK SLP237

CYQB;2009-12-18 12:00;CYQB 181200Z 25013KT 30SM SKC M19/M25 A3022 RMK SLP240

CYQB;2009-12-18 13:00;CYQB 181300Z 26015KT 50SM SKC M20/M25 A3021 RMK SLP237

CYQB;2009-12-18 14:00;CYQB 181400Z 26014KT 50SM SKC M19/M25 A3020 RMK SLP236

CYQB;2009-12-18 15:00;CYQB 181500Z 23014KT 50SM SKC M17/M24 A3019 RMK SLP232

CYQB;2009-12-18 16:00;CYQB 181600Z CCA 24018KT 50SM DRSN SKC M16/M24 A3017 RMK SLP224

CYQB;2009-12-18 17:00;CYQB 181700Z 23017G22KT 50SM DRSN SKC M15/M23 A3016 RMK SLP220

CYQB;2009-12-18 18:00;CYQB 181800Z 25020G25KT 50SM DRSN SKC M14/M22 A3014 RMK SLP212

CYQB;2009-12-18 19:00;CYQB 181900Z 25019G24KT 50SM DRSN SKC M13/M22 A3012 RMK SLP208

CYQB;2009-12-18 20:00;CYQB 182000Z 25020KT 50SM DRSN SKC M13/M22 A3011 RMK SLP203

CYQB;2009-12-18 21:00;CYQB 182100Z 26017KT 50SM DRSN SKC M13/M23 A3011 RMK SLP202

CYQB;2009-12-18 22:00;CYQB 182200Z 25015G21KT 15SM DRSN SKC M14/M23 A3011 RMK SLP202

CYQB;2009-12-18 23:00;CYQB 182300Z 25014KT 15SM SKC M15/M24 A3011 RMK SLP205

CYQB;2009-12-19 00:00;CYQB 190000Z 25018KT 15SM FEW210 M15/M21 A3010 RMK CI0 SLP201

CYQB;2009-12-19 01:00;CYQB 190100Z 25015KT 15SM FEW210 M16/M21 A3010 RMK CI0 SLP200

CYQB;2009-12-19 02:00;CYQB 190200Z 25017KT 15SM SKC M16/M24 A3006 RMK SLP188

CYQB;2009-12-19 03:00;CYQB 190300Z 24019KT 15SM FEW200 M16/M24 A3005 RMK CI1 SLP182

CYQB;2009-12-19 04:00;CYQB 190400Z 26017KT 15SM SKC M16/M24 A3004 RMK SLP179

CYQB;2009-12-19 05:00;CYQB 190500Z 25017KT 15SM SKC M17/M24 A3001 RMK SLP169

CYQB;2009-12-19 06:00;CYQB 190600Z 25019G24KT 15SM SKC M17/M25 A2999 RMK SLP162

CYQB;2009-12-19 07:00;CYQB 190700Z 25016KT 15SM SKC M17/M25 A3000 RMK SLP165

CYQB;2009-12-19 08:00;CYQB 190800Z 26016KT 15SM SKC M18/M25 A2998 RMK SLP158

CYQB;2009-12-19 09:00;CYQB 190900Z 26016KT 15SM SKC M17/M25 A2999 RMK SLP163

CYQB;2009-12-19 10:00;CYQB 191000Z 25017KT 15SM SKC M18/M26 A3001 RMK SLP168

CYQB;2009-12-19 11:00;CYQB 191100Z 26016KT 20SM SKC M18/M26 A3000 RMK SLP166

CYQB;2009-12-19 12:00;CYQB 191200Z 24013KT 20SM SKC M18/M26 A2999 RMK SLP163

CYQB;2009-12-19 13:00;CYQB 191300Z 22011G17KT 30SM SKC M18/M26 A2998 RMK SLP159

CYQB;2009-12-19 14:00;CYQB 191400Z 23016KT 30SM SKC M17/M26 A2994 RMK SLP148

CYQB;2009-12-19 15:00;CYQB 191500Z 25019KT 30SM FEW200 M15/M24 A2997 RMK CI0 SLP155

CYQB;2009-12-19 16:00;CYQB 191600Z 24015KT 30SM SKC M14/M24 A2995 RMK SLP149

CYQB;2009-12-19 17:00;CYQB 191700Z 23017KT 30SM SKC M13/M23 A2993 RMK SLP143

CYQB;2009-12-19 18:00;CYQB 191800Z 21016KT 30SM SKC M11/M22 A2992 RMK SLP139

CYQB;2009-12-19 19:00;CYQB 191900Z 22011KT 30SM FEW200 M10/M21 A2992 RMK CI0 SLP137

CYQB;2009-12-19 20:00;CYQB 192000Z 24012KT 30SM FEW200 M10/M20 A2989 RMK CI0 SLP129

CYQB;2009-12-19 21:00;CYQB 192100Z 24010KT 30SM FEW210 M10/M20 A2989 RMK CI0 SLP128

CYQB;2009-12-19 22:00;CYQB 192200Z 25013KT 15SM FEW210 M11/M18 A2989 RMK CI1 SLP129

CYQB;2009-12-19 23:00;CYQB 192300Z 26008KT 15SM FEW210 M11/M17 A2990 RMK CI0 SLP132

CYQB;2009-12-20 00:00;CYQB 200000Z CCA 05005KT 15SM FEW210 M12/M17 A2992 RMK CI0 SLP138

CYQB;2009-12-20 01:00;CYQB 200100Z 05008KT 15SM SKC M13/M19 A2991 RMK SLP134

CYQB;2009-12-20 02:00;CYQB 200200Z 04003KT 15SM SKC M13/M19 A2990 RMK SLP131

CYQB;2009-12-20 03:00;CYQB 200300Z 04006KT 15SM SKC M14/M19 A2989 RMK SLP130

CYQB;2009-12-20 04:00;CYQB 200400Z 05005KT 15SM SKC M14/M18 A2991 RMK SLP134

CYQB;2009-12-20 05:00;CYQB 200500Z 04003KT 15SM FEW030 FEW200 M16/M20 A2989 RMK SC1CI0 SLP127

CYQB;2009-12-20 06:00;CYQB 200600Z 03003KT 15SM SKC M17/M20 A2990 RMK SLP132

CYQB;2009-12-20 07:00;CYQB 200700Z 36002KT 15SM FEW200 M18/M22 A2989 RMK CI2 SLP130

CYQB;2009-12-20 08:00;CYQB 200800Z 02005KT 15SM BKN220 M15/M19 A2988 RMK CI6 SLP125

CYQB;2009-12-20 09:00;CYQB 200900Z 36002KT 15SM BKN220 M16/M21 A2986 RMK CI5 SLP118

CYQB;2009-12-20 10:00;CYQB 201000Z 00000KT 15SM SCT220 M18/M22 A2985 RMK CI3 SLP116

CYQB;2009-12-20 11:00;CYQB 201100Z 00000KT 15SM BKN200 M18/M22 A2984 RMK CI3 SLP111

CYQB;2009-12-20 12:00;CYQB 201200Z 26003KT 15SM BKN200 M18/M21 A2982 RMK CI3 SLP106

CYQB;2009-12-20 13:00;CYQB 201300Z 00000KT 25SM FEW001 BKN180 M16/M19 A2983 RMK SF1CI2 SLP108

CYQB;2009-12-20 14:00;CYQB 201400Z 27005KT 15SM FEW001 BKN150 OVC200 M15/M18 A2981 RMK SF1AS3CI1 SLP103

CYQB;2009-12-20 15:00;CYQB 201500Z 22006KT 15SM BKN150 OVC260 M12/M16 A2980 RMK AS4CS2 SLP098

CYQB;2009-12-20 16:00;CYQB 201600Z 22007KT 15SM OVC160 M10/M17 A2977 RMK AS4 SLP086

CYQB;2009-12-20 17:00;CYQB 201700Z 24010KT 15SM BKN170 M08/M15 A2975 RMK AS3 SLP079

CYQB;2009-12-20 18:00;CYQB 201800Z 22010KT 30SM BKN170 M06/M14 A2973 RMK AS3 SLP073

CYQB;2009-12-20 19:00;CYQB 201900Z 25007KT 30SM BKN180 M05/M13 A2971 RMK AS4 SLP066

CYQB;2009-12-20 20:00;CYQB 202000Z 29010KT 30SM FEW180 BKN200 M05/M13 A2972 RMK AS2CI1 SLP072

CYQB;2009-12-20 21:00;CYQB 202100Z 29009KT 30SM SCT170 BKN200 M07/M13 A2973 RMK AC3CI2 SLP074

CYQB;2009-12-20 22:00;CYQB 202200Z 30008KT 30SM BKN170 M08/M14 A2974 RMK AC6 SLP077

CYQB;2009-12-20 23:00;CYQB 202300Z 28010KT 15SM FEW170 OVC200 M09/M14 A2974 RMK AC2CS3 SLP078

CYQB;2009-12-21 00:00;CYQB 210000Z 28009KT 15SM BKN190 OVC210 M10/M15 A2974 RMK AC6CS1 SLP078

CYQB;2009-12-21 01:00;CYQB 210100Z 29009KT 15SM OVC200 M10/M15 A2974 RMK CS7 SLP078

CYQB;2009-12-21 02:00;CYQB 210200Z 26013KT 15SM OVC190 M11/M15 A2973 RMK AC7 SLP074

CYQB;2009-12-21 03:00;CYQB 210300Z 25013KT 15SM BKN190 M11/M15 A2972 RMK AC6 SLP070

CYQB;2009-12-21 04:00;CYQB 210400Z 25013KT 15SM FEW180 M11/M15 A2972 RMK AC2 SLP070

CYQB;2009-12-21 05:00;CYQB 210500Z 26011KT 15SM BKN200 M12/M15 A2971 RMK CI5 SLP068

CYQB;2009-12-21 06:00;CYQB 210600Z 29015KT 15SM BKN200 M11/M15 A2971 RMK CI5 SLP065

CYQB;2009-12-21 07:00;CYQB 210700Z CCA 29022KT 15SM DRSN FEW050 OVC200 M11/M15 A2971 RMK SC2CI6 SLP065

CYQB;2009-12-21 08:00;CYQB 210800Z 26012KT 15SM OVC050 M11/M15 A2973 RMK SC8 SLP073

CYQB;2009-12-21 09:00;CYQB 210900Z 27022KT 15SM OVC047 M11/M15 A2972 RMK SC8 SLP068

CYQB;2009-12-21 10:00;CYQB 211000Z 27011KT 15SM BKN042 OVC200 M10/M15 A2973 RMK SC6CI2 SLP072

CYQB;2009-12-21 11:00;CYQB 211100Z 27010KT 15SM BKN045 OVC090 M10/M14 A2972 RMK SC6AC2 SLP069

CYQB;2009-12-21 12:00;CYQB 211200Z 25013KT 20SM BKN046 OVC065 M10/M14 A2971 RMK SC6SC2 SLP066

CYQB;2009-12-21 13:00;CYQB 211300Z 26013KT 25SM BKN038 OVC048 M09/M14 A2970 RMK SC7SC1 SLP064

CYQB;2009-12-21 14:00;CYQB 211400Z 25014KT 25SM SCT040 OVC069 M09/M13 A2970 RMK SC4AC4 SH NW SLP064

CYQB;2009-12-21 15:00;CYQB 211500Z CCA 27010G16KT 25SM VCSH BKN044 OVC070 M08/M12 A2970 RMK SC6AC2 VIS LWR NW SLP062

CYQB;2009-12-21 15:49;CYQB 211549Z 26016KT 15SM -SN FEW025 OVC040 M07/ RMK SC2SC6 VIS LWR W

CYQB;2009-12-21 16:00;CYQB 211600Z 26015KT 15SM -SN DRSN FEW025 BKN045 OVC070 M07/M10 A2967 RMK SC2SC5AC2 VIS LWR W SLP054

CYQB;2009-12-21 16:46;CYQB 211646Z CCA 25015KT 30SM FEW020 OVC056 M07/ RMK SC2SC6

CYQB;2009-12-21 17:00;CYQB 211700Z 25014KT 30SM FEW020 FEW048 OVC057 M07/M11 A2967 RMK SC1SC2SC6 SLP051

CYQB;2009-12-21 18:00;CYQB 211800Z 27015KT 30SM VCSH FEW020 SCT038 OVC050 M07/M11 A2967 RMK SC1SC2SC5 VIS LWR S SLP051

CYQB;2009-12-21 18:28;CYQB 211828Z 25017KT 10SM -PLSN FEW020 OVC039 M07/ RMK SC2SC6

CYQB;2009-12-21 18:44;CYQB 211844Z 25015KT 10SM -PL -FZRA FEW020 OVC037 M07/ RMK SC2SC6

CYQB;2009-12-21 19:00;CYQB 211900Z 25016KT 10SM -PL FEW020 BKN036 OVC045 M07/M11 A2967 REFZRA RMK SC1SC5SC2 SLP052

CYQB;2009-12-21 20:00;CYQB 212000Z 31015KT 1 1/2SM -PL FEW020 OVC040 M08/M10 A2969 RMK SC1SC7 VIS LWR NW-N SLP060

CYQB;2009-12-21 20:13;CYQB 212013Z 29012KT 3/4SM R06/P6000FT/D -PLSN FEW004 OVC014 M08/ RMK ST2SC6

CYQB;2009-12-21 20:25;CYQB 212025Z 29013KT 1SM R06/6000FT/U -PLSN FEW004 FEW012 OVC026 M08/ RMK ST2SC1SC6 VIS VRB 1/2-11/2

CYQB;2009-12-21 21:00;CYQB 212100Z 29015KT 1SM R06/P6000FT/U -SN DRSN FEW004 FEW014 OVC024 M08/M10 A2970 RMK ST2SC1SC6 VIS VRB 1/2-11/2 SLP064

CYQB;2009-12-21 21:25;CYQB 212125Z 28014KT 2 1/2SM -SN DRSN FEW020 OVC051 M08/ RMK SC2SC6

CYQB;2009-12-21 22:00;CYQB 212200Z 28014KT 2 1/2SM -SN DRSN FEW005 SCT014 OVC040 M08/M10 A2972 RMK ST1SC2SC5 VIS LWR W-N SLP070

CYQB;2009-12-21 22:48;CYQB 212248Z 29013KT 10SM DRSN FEW040 OVC062 M08/ RMK SC2SC6

CYQB;2009-12-21 23:00;CYQB 212300Z 29014KT 10SM -SHSN DRSN FEW025 BKN047 OVC055 M08/M10 A2973 RMK SC1SC4SC3 PCPN VRY LGT SLP074

CYQB;2009-12-22 00:00;CYQB 220000Z 30012G17KT 10SM -SHSN DRSN FEW025 BKN054 OVC060 M08/M11 A2975 RMK SC1SC4SC3 PCPN VRY LGT SLP078

CYQB;2009-12-22 00:33;CYQB 220033Z 29012G17KT 10SM DRSN FEW025 OVC055 M08/ RMK SC2SC6

CYQB;2009-12-22 01:00;CYQB 220100Z 30010G19KT 15SM DRSN FEW060 OVC089 M08/M14 A2975 RMK SC2AC6 SLP081

CYQB;2009-12-22 02:00;CYQB 220200Z 28011G18KT 15SM FEW025 BKN130 M09/M15 A2977 RMK SC1AC6 SLP085

CYQB;2009-12-22 03:00;CYQB 220300Z 28009G15KT 15SM FEW045 OVC130 M09/M15 A2978 RMK SC2AC6 SLP088

CYQB;2009-12-22 04:00;CYQB 220400Z 26012KT 15SM SCT038 OVC110 M09/M15 A2979 RMK SC3AC5 SLP094

CYQB;2009-12-22 05:00;CYQB 220500Z 23012KT 15SM SCT038 OVC110 M10/M14 A2980 RMK SC3AC5 SLP095

CYQB;2009-12-22 06:00;CYQB 220600Z 25012KT 15SM SCT038 OVC110 M10/M14 A2981 RMK SC4AC4 SLP099

CYQB;2009-12-22 07:00;CYQB 220700Z 24014KT 15SM -SHSN OVC028 M10/M14 A2984 RMK SC8 SLP111

CYQB;2009-12-22 08:00;CYQB 220800Z 25012KT 15SM -SHSN OVC024 M10/M14 A2986 RMK SC8 SLP116

CYQB;2009-12-22 09:00;CYQB 220900Z 24012KT 15SM OVC022 M10/M14 A2986 RMK SC8 SLP119

CYQB;2009-12-22 10:00;CYQB 221000Z 24014KT 15SM OVC020 M10/M14 A2988 RMK SC8 SLP123

CYQB;2009-12-22 11:00;CYQB 221100Z 25014KT 15SM OVC018 M11/M14 A2989 RMK SC8 SLP128

CYQB;2009-12-22 12:00;CYQB 221200Z 24011KT 15SM OVC017 M11/M15 A2992 RMK SC8 SLP138

CYQB;2009-12-22 13:00;CYQB 221300Z 24013KT 15SM OVC019 M11/M15 A2994 RMK SC8 SLP144

CYQB;2009-12-22 14:00;CYQB 221400Z 24013KT 15SM OVC020 M11/M15 A2995 RMK SC8 SLP148

CYQB;2009-12-22 15:00;CYQB 221500Z 24013KT 15SM OVC020 M10/M14 A2996 RMK SC8 VIS E 4 SLP152

CYQB;2009-12-22 15:28;CYQB 221528Z 24016KT 2SM -SN BR OVC022 M10/ RMK SC8

CYQB;2009-12-22 15:45;CYQB 221545Z 24015KT 1 1/2SM -SN BR BKN010 OVC022 M10/ RMK SC6SC2

CYQB;2009-12-22 16:00;CYQB 221600Z 24014G19KT 1SM R06/P6000FT/D -SN BR BKN010 OVC024 M10/M13 A2995 RMK SC6SC2 SLP148

CYQB;2009-12-22 16:30;CYQB 221630Z 24014KT 1SM R06/P6000FT/D -SN BR VV008 M11/ RMK SN8

CYQB;2009-12-22 17:00;CYQB 221700Z 23017KT 3/4SM R06/5500FT/D -SN BR VV007 M11/M12 A2994 RMK SN8 SLP145

CYQB;2009-12-22 18:00;CYQB 221800Z CCA 23013KT 1SM R06/P6000FT/U -SN BR VV008 M11/M13 A2995 RMK SN8 /S01/ SLP148

CYQB;2009-12-22 19:00;CYQB 221900Z 23015KT 1SM R06/P6000FT/U -SN BR VV008 M11/M13 A2995 RMK SN8 SLP148

CYQB;2009-12-22 19:37;CYQB 221937Z 24014G19KT 1SM R06/P6000FT/U -SN BR VV010 M11/ RMK SN8

CYQB;2009-12-22 20:00;CYQB 222000Z 24014G19KT 1SM R06/P6000FT/N -SN BR VV008 M11/M13 A2996 RMK SN8 SLP150

CYQB;2009-12-22 21:00;CYQB 222100Z 24016KT 1SM R06/P6000FT/U -SN BR VV008 M12/M14 A2998 RMK SN8 SLP158

CYQB;2009-12-22 22:00;CYQB 222200Z 24016KT 1SM R06/P6000FT/N -SN BR VV007 M12/M14 A2998 RMK SN8 /S03/ SLP159

CYQB;2009-12-22 23:00;CYQB 222300Z 24015KT 1 1/2SM -SN BR VV010 M12/M14 A2999 RMK SN8 SLP161

CYQB;2009-12-23 00:00;CYQB 230000Z 24015KT 1 1/4SM -SN BR VV006 M12/M14 A2999 RMK SN8 /S04/ SLP161

CYQB;2009-12-23 01:00;CYQB 230100Z 24013KT 1 1/4SM -SN BR VV007 M12/M14 A2998 RMK SN8 /S01/ SLP160

CYQB;2009-12-23 02:00;CYQB 230200Z 23012KT 1 1/4SM -SN BR VV006 M12/M14 A2998 RMK SN8 SLP159

CYQB;2009-12-23 03:00;CYQB 230300Z 24012KT 1SM R06/P6000FT/U -SN BR VV006 M12/M13 A2998 RMK SN8 /S02/ SLP159

CYQB;2009-12-23 04:00;CYQB 230400Z 24010KT 3/4SM R06/P6000FT/U -SN BR VV006 M12/M13 A2998 RMK SN8 VIS VRB 1/2-1 /S03/ SLP157

CYQB;2009-12-23 05:00;CYQB 230500Z 24009KT 1SM R06/P6000FT/D -SN BR VV008 M11/M13 A2997 RMK SN8 VIS VRB 3/4-1/4 /S04/ SLP155

CYQB;2009-12-23 06:00;CYQB 230600Z CCA 24006KT 1 1/2SM -SN BR VV010 M11/M13 A2997 RMK SN8 /S05/ SLP155

CYQB;2009-12-23 07:00;CYQB 230700Z 24005KT 1SM R06/P6000FT/U -SN VV008 M11/M13 A2998 RMK SN8 /S01/ SLP158

CYQB;2009-12-23 08:00;CYQB 230800Z CCB 25005KT 3/4SM R06/P6000FT/U -SN VV007 M11/M13 A2998 RMK SN8 /S03/ SLP158

CYQB;2009-12-23 09:00;CYQB 230900Z 25003KT 1SM R06/P6000FT/U -SN VV007 M11/M13 A2998 RMK SN8 /S04/ SLP159

CYQB;2009-12-23 10:00;CYQB 231000Z CCA 27002KT 1SM R06/P6000FT/U -SN VV008 M11/M13 A2998 RMK SN8 /S05/ SLP160

CYQB;2009-12-23 11:00;CYQB 231100Z 24006KT 1SM R06/P6000FT/U -SN VV006 M11/M12 A2998 RMK SN8 /S06/ SLP159

CYQB;2009-12-23 11:42;CYQB 231142Z 24004KT 1 1/2SM -SN VV010 M11/ RMK SN8

CYQB;2009-12-23 12:00;CYQB 231200Z 23005KT 1 1/4SM -SN VV009 M11/M13 A3000 RMK SN8 /S01/ SLP164

CYQB;2009-12-23 12:40;CYQB 231240Z 23004KT 3/4SM R06/P6000FT/D -SN VV008 M11/ RMK SN8

CYQB;2009-12-23 13:00;CYQB 231300Z 24005KT 1SM R06/P6000FT/D -SN VV008 M11/M12 A3001 RMK SN8 SLP169

CYQB;2009-12-23 13:31;CYQB 231331Z CCA 22003KT 3/4SM R06/P6000FT/D -SN VV006 M11/ RMK SN8 /S02/

CYQB;2009-12-23 14:00;CYQB 231400Z CCA 23003KT 3/4SM R06/P6000FT/D -SN VV006 M11/M12 A3003 RMK SN8 /S03/ SLP174

CYQB;2009-12-23 14:34;CYQB 231434Z 23005KT 1 1/2SM -SN OVC035 M10/ RMK SN6SC2

CYQB;2009-12-23 15:00;CYQB 231500Z 24007KT 1 1/2SM -SN OVC035 M10/M12 A3005 RMK SN6SC2 SLP181

CYQB;2009-12-23 16:00;CYQB 231600Z 23007KT 1 3/4SM -SN OVC035 M10/M12 A3005 RMK SN6SC2 /S04/ SLP182

CYQB;2009-12-23 17:00;CYQB 231700Z 22005KT 1 3/4SM -SN VV015 M09/M11 A3005 RMK SN8 SLP181

CYQB;2009-12-23 17:14;CYQB 231714Z 23006KT 1SM R06/P6000FT/N -SN VV011 M09/ RMK SN8

CYQB;2009-12-23 18:00;CYQB 231800Z 24006KT 1 1/4SM -SN VV012 M09/M11 A3004 RMK SN8 /S01/ SLP177

CYQB;2009-12-23 19:00;CYQB 231900Z 24007KT 1 1/4SM -SN VV030 M09/M10 A3005 RMK SN8 SLP180

CYQB;2009-12-23 19:16;CYQB 231916Z 24008KT 1 1/4SM -SN VV012 M09/ RMK SN8

CYQB;2009-12-23 20:00;CYQB 232000Z 24008KT 2SM -SN OVC030 M09/M10 A3007 RMK SN2SC6 SLP187

CYQB;2009-12-23 20:27;CYQB 232027Z 24008KT 1 1/2SM -SN VV009 M09/ RMK SN8

CYQB;2009-12-23 21:00;CYQB 232100Z 24006KT 2SM -SN FEW015 BKN030 OVC045 M09/M10 A3009 RMK SN2SF1SC5SC1 VIS VRB 11/2-21/2 SLP197

CYQB;2009-12-23 21:45;CYQB 232145Z 23005KT 6SM -SN SCT030 BKN063 M09/ RMK SC4SC2

CYQB;2009-12-23 22:00;CYQB 232200Z 24005KT 8SM -SN FEW030 BKN065 M08/M10 A3011 RMK SC2SC5 SLP203

CYQB;2009-12-23 23:00;CYQB 232300Z 24008KT 4SM -SN BKN019 BKN038 BKN065 M08/M09 A3013 RMK SC6SC1SC1 SLP210

CYQB;2009-12-24 00:00;CYQB 240000Z 24005KT 5SM -SN BKN024 BKN045 M08/M10 A3016 RMK SC5SC1 SLP218

CYQB;2009-12-24 01:00;CYQB 240100Z 24004KT 8SM -SN FEW020 FEW050 SCT160 M09/M10 A3018 RMK SC2SC1AC2 SLP227

CYQB;2009-12-24 02:00;CYQB 240200Z 28003KT 10SM FEW020 SCT160 M10/M12 A3019 RMK SC2AC2 SLP231

CYQB;2009-12-24 03:00;CYQB 240300Z 22003KT 10SM FEW020 FEW130 SCT160 M10/M12 A3022 RMK SC1AC2AC2 SLP239

CYQB;2009-12-24 04:00;CYQB 240400Z 26004KT 8SM -SN FEW020 FEW130 SCT210 M11/M12 A3023 RMK SC2AC1CI1 SLP242

CYQB;2009-12-24 05:00;CYQB 240500Z 00000KT 8SM FEW015 FEW120 SCT210 M10/M11 A3024 RMK SC2AC1CI1 SLP247

CYQB;2009-12-24 06:00;CYQB 240600Z 26002KT 8SM BKN014 BKN045 M10/M11 A3026 RMK SC5SC2 SLP253

CYQB;2009-12-24 07:00;CYQB 240700Z 00000KT 15SM BKN011 M09/M10 A3028 RMK SC7 SLP261

CYQB;2009-12-24 08:00;CYQB 240800Z 00000KT 15SM BKN010 M08/M09 A3032 RMK SC7 SLP272

CYQB;2009-12-24 09:00;CYQB 240900Z 00000KT 15SM OVC010 M07/M08 A3033 RMK SC8 SLP278

CYQB;2009-12-24 10:00;CYQB 241000Z 00000KT 15SM BKN012 OVC019 M07/M07 A3036 RMK SC7SC1 SLP285

CYQB;2009-12-24 11:00;CYQB 241100Z 27002KT 12SM OVC013 M06/M07 A3038 RMK ST8 SLP293

CYQB;2009-12-24 12:00;CYQB 241200Z 00000KT 15SM BKN018 M06/M07 A3040 RMK SC7 SLP299

CYQB;2009-12-24 13:00;CYQB 241300Z 00000KT 10SM BKN010 BKN060 M05/M06 A3041 RMK ST6SC1 SLP305

CYQB;2009-12-24 14:00;CYQB 241400Z 24003KT 10SM BKN009 BKN015 M04/M06 A3043 RMK ST6SC1 CLDS TPG HILL N-E SLP311

CYQB;2009-12-24 14:41;CYQB 241441Z 24002KT 10SM FEW009 OVC015 M04/ RMK SF1ST7 CLDS TPG HILL N-E

CYQB;2009-12-24 15:00;CYQB 241500Z 25003KT 10SM FEW009 OVC015 M04/M05 A3044 RMK SF1ST7 CLDS TPG HILL N-E VIS 5 ESE BR SLP315

CYQB;2009-12-24 16:00;CYQB 241600Z 25005KT 10SM FEW009 OVC014 M03/M04 A3044 RMK SF1ST7 CIG LWR N-E SLP315

CYQB;2009-12-24 17:00;CYQB 241700Z 23007KT 10SM FEW009 OVC014 M02/M03 A3045 RMK SF1ST7 CIG LWR N-E SLP317

CYQB;2009-12-24 18:00;CYQB 241800Z 25006KT 5SM -SN OVC013 M02/M03 A3045 RMK SC8 SLP316

CYQB;2009-12-24 19:00;CYQB 241900Z 23008KT 8SM OVC012 M02/M03 A3046 RMK SC8 CIG LWR N-E SLP321

CYQB;2009-12-24 20:00;CYQB 242000Z 23007KT 8SM FEW010 OVC020 M02/M03 A3047 RMK SF1SC6 SLP323

CYQB;2009-12-24 21:00;CYQB 242100Z 23004KT 5SM BR SCT020 M03/M04 A3045 RMK SC4 SLP316

CYQB;2009-12-24 21:06;CYQB 242106Z 23004KT 4SM BR SCT008 BKN020 M03/ RMK SF3SC3

CYQB;2009-12-24 21:24;CYQB 242124Z 25002KT 4SM BR BKN006 OVC020 M03/ RMK SF5SC3

CYQB;2009-12-24 22:00;CYQB 242200Z 25006KT 5SM BR OVC004 M02/M03 A3044 RMK ST8 SLP313

CYQB;2009-12-24 23:00;CYQB 242300Z 27010KT 5SM BR BKN005 BKN010 BKN027 M03/M03 A3045 RMK SF5SC1SC1 SLP318

CYQB;2009-12-24 23:22;CYQB 242322Z 28007KT 5SM BR FEW005 BKN027 M03/ RMK SF2SC5

CYQB;2009-12-25 00:00;CYQB 250000Z 00000KT 5SM BR BKN005 OVC026 M02/M03 A3047 RMK SF5SC3 SLP321

CYQB;2009-12-25 01:00;CYQB 250100Z 00000KT 5SM BR FEW005 OVC025 M03/M04 A3047 RMK SF2SC6 SLP323

CYQB;2009-12-25 02:00;CYQB 250200Z 00000KT 8SM OVC026 M03/M04 A3047 RMK SC8 SLP321

CYQB;2009-12-25 03:00;CYQB 250300Z 00000KT 6SM BR BKN026 M04/M05 A3046 RMK SC6 SLP319

CYQB;2009-12-25 04:00;CYQB 250400Z 00000KT 8SM BKN028 M05/M06 A3046 RMK SC7 SLP319

CYQB;2009-12-25 05:00;CYQB 250500Z 33004KT 10SM BKN026 M04/M06 A3047 RMK SC7 SLP321

CYQB;2009-12-25 06:00;CYQB 250600Z 30002KT 10SM BKN026 M05/M06 A3047 RMK SC7 SLP324

CYQB;2009-12-25 07:00;CYQB 250700Z 00000KT 10SM BKN024 M04/M06 A3049 RMK SC6 SLP328

CYQB;2009-12-25 08:00;CYQB 250800Z 36004KT 15SM BKN025 M04/M06 A3048 RMK SC7 SLP327

CYQB;2009-12-25 09:00;CYQB 250900Z 01003KT 15SM BKN023 M04/M06 A3048 RMK SC7 SLP327

CYQB;2009-12-25 10:00;CYQB 251000Z 02004KT 15SM BKN010 OVC020 M04/M06 A3050 RMK SC5SC3 SLP331

CYQB;2009-12-25 11:00;CYQB 251100Z 01002KT 15SM FEW010 OVC019 M04/M06 A3050 RMK SF2SC6 SLP331

CYQB;2009-12-25 12:00;CYQB 251200Z 02005KT 15SM FEW010 OVC019 M05/M07 A3050 RMK SF1SC8 SLP334

CYQB;2009-12-25 13:00;CYQB 251300Z 02005KT 20SM FEW010 BKN018 M05/M07 A3051 RMK SF1SC7 SLP336

CYQB;2009-12-25 14:00;CYQB 251400Z 01003KT 25SM BKN019 M05/M07 A3052 RMK SC7 SLP341

CYQB;2009-12-25 15:00;CYQB 251500Z 01004KT 20SM BKN018 M04/M06 A3053 RMK SC7 SLP345

CYQB;2009-12-25 16:00;CYQB 251600Z 06005KT 25SM BKN017 M03/M05 A3052 RMK SC7 SLP340

CYQB;2009-12-25 17:00;CYQB 251700Z 06010KT 25SM BKN015 M03/M05 A3051 RMK SC7 SLP336

CYQB;2009-12-25 18:00;CYQB 251800Z 06010KT 25SM BKN014 M03/M05 A3050 RMK SC7 SLP333

CYQB;2009-12-25 19:00;CYQB 251900Z 09008KT 25SM BKN013 M03/M05 A3051 RMK SC7 SLP338

CYQB;2009-12-25 20:00;CYQB 252000Z 07009KT 20SM OVC015 M03/M05 A3051 RMK SC8 SLP337

CYQB;2009-12-25 21:00;CYQB 252100Z 07015KT 20SM OVC013 M03/M06 A3051 RMK ST8 SLP336

CYQB;2009-12-25 22:00;CYQB 252200Z 07015KT 15SM OVC014 M03/M06 A3051 RMK ST8 SLP336

CYQB;2009-12-25 23:00;CYQB 252300Z 08013G18KT 15SM OVC013 M03/M05 A3052 RMK ST8 SLP341

CYQB;2009-12-26 00:00;CYQB 260000Z 08017G25KT 15SM OVC010 M03/M05 A3051 RMK ST8 SLP337

CYQB;2009-12-26 01:00;CYQB 260100Z 09014G21KT 15SM OVC012 M03/M06 A3051 RMK ST8 SLP338

CYQB;2009-12-26 02:00;CYQB 260200Z 08013G19KT 15SM OVC014 M03/M06 A3052 RMK SC8 SLP339

CYQB;2009-12-26 03:00;CYQB 260300Z 09012G18KT 15SM OVC014 M03/M06 A3052 RMK SC8 SLP340

CYQB;2009-12-26 04:00;CYQB 260400Z 10013KT 15SM OVC016 M03/M06 A3053 RMK SC8 SLP343

CYQB;2009-12-26 05:00;CYQB 260500Z 10015KT 15SM OVC016 M04/M07 A3054 RMK SC8 SLP346

CYQB;2009-12-26 06:00;CYQB 260600Z 10015G20KT 15SM OVC016 M04/M07 A3053 RMK SC8 SLP343

CYQB;2009-12-26 07:00;CYQB 260700Z 10014KT 15SM OVC016 M04/M07 A3053 RMK SC8 SLP345

CYQB;2009-12-26 08:00;CYQB 260800Z 09013G19KT 15SM OVC015 M04/M07 A3052 RMK SC8 SLP340

CYQB;2009-12-26 09:00;CYQB 260900Z 10011KT 15SM OVC014 M04/M07 A3053 RMK SC8 SLP344

CYQB;2009-12-26 10:00;CYQB 261000Z 09012G17KT 15SM OVC019 M04/M07 A3052 RMK SC8 SLP340

CYQB;2009-12-26 11:00;CYQB 261100Z 10015KT 20SM OVC016 M05/M08 A3052 RMK SC8 SLP340

CYQB;2009-12-26 12:00;CYQB 261200Z 10012G19KT 20SM BKN017 BKN250 M05/M08 A3053 RMK SC6CI1 SLP345

CYQB;2009-12-26 13:00;CYQB 261300Z 09012G18KT 20SM BKN016 OVC250 M05/M08 A3054 RMK SC6CI2 SLP347

CYQB;2009-12-26 14:00;CYQB 261400Z 09016KT 20SM FEW016 BKN140 OVC250 M05/M08 A3053 RMK SC2AC2CI2 SLP345

CYQB;2009-12-26 15:00;CYQB 261500Z 09010G20KT 20SM FEW016 BKN190 OVC250 M05/M09 A3053 RMK SC2AC5CI1 SLP343

CYQB;2009-12-26 16:00;CYQB 261600Z 08014G26KT 20SM BKN015 BKN190 M05/M08 A3051 RMK SC5AC2 SLP338

CYQB;2009-12-26 16:41;CYQB 261641Z 08014G20KT 20SM FEW015 BKN180 OVC250 M05/ RMK SC2AC4CI1

CYQB;2009-12-26 17:00;CYQB 261700Z 08012G21KT 20SM FEW015 BKN170 OVC250 M05/M08 A3048 RMK SC2AC4CI1 SLP326

CYQB;2009-12-26 18:00;CYQB 261800Z 08012G22KT 20SM FEW015 OVC150 M04/M08 A3045 RMK SC2AC6 SLP317

CYQB;2009-12-26 19:00;CYQB 261900Z 07014G20KT 20SM FEW015 BKN120 BKN250 M04/M07 A3044 RMK CF2AC5CI1 SLP312

CYQB;2009-12-26 20:00;CYQB 262000Z 07016G22KT 15SM FEW015 BKN120 BKN150 M04/M07 A3043 RMK CF1AC6AC1 SLP308

CYQB;2009-12-26 21:00;CYQB 262100Z 08015G20KT 15SM BKN100 BKN150 BKN250 M04/M07 A3041 RMK AC3AC1CI0 SLP304

CYQB;2009-12-26 22:00;CYQB 262200Z 07016KT 15SM FEW020 BKN100 OVC150 M04/M07 A3040 RMK SC2AC2AS3 SLP299

CYQB;2009-12-26 23:00;CYQB 262300Z 07015G22KT 15SM SCT020 BKN140 OVC200 M03/M07 A3039 RMK SC3AC3CI0 SLP296

CYQB;2009-12-27 00:00;CYQB 270000Z 08014G19KT 15SM SCT020 BKN140 OVC240 M03/M07 A3039 RMK SC4AC2CI2 SLP297

CYQB;2009-12-27 01:00;CYQB 270100Z 07013G25KT 15SM SCT020 OVC088 M03/M06 A3039 RMK SC4AC4 SLP294

CYQB;2009-12-27 02:00;CYQB 270200Z 07013G18KT 15SM BKN020 OVC060 M03/M06 A3038 RMK SC5SC3 SLP293

CYQB;2009-12-27 03:00;CYQB 270300Z 07015KT 10SM -SHSN SCT025 BKN050 OVC090 M03/M06 A3036 RMK SC4SC3AC1 SLP287

CYQB;2009-12-27 03:26;CYQB 270326Z 07014G22KT 1/2SM R06/P6000FT/D SHSN VV007 M03/ RMK SN8 VIS VRB 1/4-3/4

CYQB;2009-12-27 04:00;CYQB 270400Z 07015KT 1/8SM R06/2400FT/N +SHSN VV002 M03/M05 A3035 RMK SN8 VIS VRB 0-3/4 CIG VRB 001-003 /002/ SLP283

CYQB;2009-12-27 05:00;CYQB 270500Z CCA 07015G22KT 1/8SM R06/3500VP6000FT/D +SHSN VV002 M03/M04 A3031 RMK SN8 VIS VRB 0-3/4 CIG VRB 001-003 /S04/ SLP270

CYQB;2009-12-27 05:25;CYQB 270525Z 06015G21KT 1SM R06/P6000FT/U -SHSN OVC005 M03/ RMK SC8 VIS VRB 1/2-11/2 CIG VRB 003-007

CYQB;2009-12-27 06:00;CYQB 270600Z 07011G16KT 2SM -SHSN BKN005 OVC020 M03/M04 A3029 RMK SC5SC3 VIS VRB 1-3 SLP262

CYQB;2009-12-27 06:21;CYQB 270621Z 08014G19KT 3/4SM R06/6000FT/D -SHSN VV005 M03/ RMK SN8

CYQB;2009-12-27 07:00;CYQB 270700Z 07015KT 4SM -SHSN OVC006 M03/M04 A3026 RMK SF8 SLP253

CYQB;2009-12-27 08:00;CYQB 270800Z 07016KT 4SM -SNPL OVC018 M02/M04 A3024 RMK SC8 SLP245

CYQB;2009-12-27 08:17;CYQB 270817Z 07017KT 1SM R06/P6000FT/D -SN VV003 M02/ RMK SN8 VIS VRB 3/4-1 1/4

CYQB;2009-12-27 08:27;CYQB 270827Z 07018KT 1/2SM R06/3000V4500FT/N SN VV003 M02/ RMK SN8 VIS VRB 1/4-3/4

CYQB;2009-12-27 09:00;CYQB 270900Z 07013G20KT 1/2SM R06/4000FT/U SN VV003 M02/M03 A3018 RMK SN8 VIS VRB 1/4-3/4 /S02/ SLP223

CYQB;2009-12-27 09:19;CYQB 270919Z 07014G21KT 1SM R06/P6000FT/U -SNPL OVC004 M02/ RMK SF8 VIS VRB 3/4-1 1/4

CYQB;2009-12-27 09:33;CYQB 270933Z 07017G22KT 4SM -PL BKN005 OVC049 M02/ RMK SF7SC1

CYQB;2009-12-27 09:49;CYQB 270949Z 08016G24KT 3SM -SNPL BKN005 OVC013 M01/ RMK SF6SC2

CYQB;2009-12-27 10:00;CYQB 271000Z 08017G22KT 4SM -SNPL BKN005 OVC016 M01/M02 A3015 RMK SF6SC2 SLP213

CYQB;2009-12-27 10:25;CYQB 271025Z 07015G20KT 4SM -SN -FZRA BKN005 OVC035 M01/ RMK SF6SC2

CYQB;2009-12-27 11:00;CYQB 271100Z 07013G24KT 4SM -PLSN -FZRA BKN006 OVC023 M01/M02 A3012 RMK SF6SC2 SLP203

CYQB;2009-12-27 12:00;CYQB 271200Z 07015KT 4SM -PLSN -FZRA BR OVC005 M00/M01 A3008 RMK SF8 SLP191

CYQB;2009-12-27 13:00;CYQB 271300Z 07016KT 2 1/2SM -PL -FZRA BR OVC005 M00/M01 A3006 RMK SF8 SLP185

CYQB;2009-12-27 14:00;CYQB 271400Z 07015KT 2SM -PL -FZRA BR OVC006 M00/M01 A3002 RMK SF8 SLP170

CYQB;2009-12-27 15:00;CYQB 271500Z CCA 06011G18KT 4SM -RA BR BKN005 OVC021 00/M01 A2998 RMK SF7SC1 REFZRA REPL SLP155

CYQB;2009-12-27 16:00;CYQB 271600Z 07013KT 2 1/2SM -RASNPL BR BKN006 OVC021 00/M01 A2993 RMK SF6SC2 SLP139

CYQB;2009-12-27 16:22;CYQB 271622Z 07013KT 1/2SM R06/P6000FT/D SNPL VV005 00/ RMK SN8

CYQB;2009-12-27 17:00;CYQB 271700Z 07012KT 5/8SM R06/P6000FT/D -SN VV004 00/M00 A2987 RESN RMK SN8 SLP120

CYQB;2009-12-27 18:00;CYQB 271800Z 08011KT 2SM -SNPL OVC004 00/M00 A2983 RMK SN2SF6 SLP104

CYQB;2009-12-27 18:39;CYQB 271839Z 07013KT 1SM R06/P6000FT/U -SN OVC004 00/ RMK SN4SF4 CIG VRB 3-5

CYQB;2009-12-27 19:00;CYQB 271900Z 07014KT 1SM R06/P6000FT/D -SNPL OVC004 00/M00 A2979 RMK SN4SF4 CIG VRB 3-5/S01/ SLP092

CYQB;2009-12-27 19:37;CYQB 271937Z 07012G17KT 4SM -SNPL OVC003 00/ RMK SF8 CIG VRB 2-4

CYQB;2009-12-27 20:00;CYQB 272000Z 07014G21KT 1 1/4SM -RAPL BR OVC003 00/M00 A2976 RMK FG3ST5 CIG VRB 2-4 VIS 3 N SLP081

CYQB;2009-12-27 20:35;CYQB 272035Z 07015KT 3SM -RAPL BR OVC003 00/ RMK ST8 CIG VRB 2-4

CYQB;2009-12-27 21:00;CYQB 272100Z CCA 08018G24KT 2SM -RA BR OVC003 00/M00 A2971 REPL RMK FG2ST6 CIG VRB 2-4 SLP064

CYQB;2009-12-27 22:00;CYQB 272200Z 09009G18KT 2 1/2SM -RA BR OVC003 00/M00 A2968 RMK FG2ST6 CIG RAG SLP053

CYQB;2009-12-27 23:00;CYQB 272300Z 11003KT 2 1/4SM -RA BR OVC003 00/M00 A2967 RMK FG2ST6 CIG RAG SLP052

CYQB;2009-12-27 23:34;CYQB 272334Z 00000KT 4SM -SN BR OVC006 00/ RMK ST8 CIG VRB 4-8

CYQB;2009-12-28 00:00;CYQB 280000Z 16004KT 1 1/2SM -SN BR OVC006 00/M00 A2967 RMK SN3ST5 CIG VRB 4-8 SLP052

CYQB;2009-12-28 00:44;CYQB 280044Z CCA 16005KT 3SM -DZSG BR SCT003 OVC010 00/ RMK SF3ST5

CYQB;2009-12-28 01:00;CYQB 280100Z 20003KT 1 1/2SM -DZ BR SCT003 OVC008 00/M00 A2967 RMK FG2SF2ST4 SLP052

CYQB;2009-12-28 01:47;CYQB 280147Z 24013KT 2 1/4SM -DZ BR OVC003 00/ RMK FG2ST6

CYQB;2009-12-28 02:00;CYQB 280200Z 24014KT 2SM -SN BR BKN003 OVC009 00/M00 A2965 RMK SN2SF4ST2 SLP043

CYQB;2009-12-28 03:00;CYQB 280300Z 25014KT 1/2SM R06/P6000FT/D -SHSN FG VV002 00/M00 A2965 RMK FG8 VIS VRB 1/4-3/4 SLP043

CYQB;2009-12-28 03:24;CYQB 280324Z 24015KT 1SM R06/P6000FT/N BR OVC003 00/ RMK SF8 CIG VRB 2-4 VIS VRB 3/4-1 1/4

CYQB;2009-12-28 04:00;CYQB 280400Z 24014G20KT 5SM BR OVC004 00/M00 A2966 RMK SF8 CIG VRB 3-5 SLP046

CYQB;2009-12-28 05:00;CYQB 280500Z 24013KT 8SM OVC006 00/M01 A2966 RMK SF8 CIG VRB 4-8 SLP046

CYQB;2009-12-28 06:00;CYQB 280600Z 25012KT 10SM OVC008 00/M01 A2964 RMK SF8 CIG VRB 6-10 SLP040

CYQB;2009-12-28 07:00;CYQB 280700Z 25010G16KT 6SM BR OVC008 M00/M01 A2964 RMK SF8 CIG VRB 6-10 SLP042

CYQB;2009-12-28 08:00;CYQB 280800Z 25011KT 6SM BR OVC010 M00/M01 A2964 RMK SF8 SLP040

CYQB;2009-12-28 08:43;CYQB 280843Z 24011KT 6SM -SN BR OVC006 M00/ RMK SF8

CYQB;2009-12-28 09:00;CYQB 280900Z 24011KT 6SM BR OVC008 M00/M02 A2963 RMK SF8 SLP036

CYQB;2009-12-28 10:00;CYQB 281000Z 23007KT 6SM BR OVC009 M01/M02 A2961 RMK SF8 SLP029

CYQB;2009-12-28 11:00;CYQB 281100Z 23006KT 4SM BR BKN005 OVC011 M01/M02 A2959 RMK SF7SC1 SLP023

CYQB;2009-12-28 12:00;CYQB 281200Z 24006KT 4SM BR OVC009 M01/M02 A2958 RMK SF8 SLP019

CYQB;2009-12-28 13:00;CYQB 281300Z 24006KT 4SM BR OVC008 M01/M02 A2957 RMK SF8 SLP016

CYQB;2009-12-28 14:00;CYQB 281400Z 23010KT 5SM BR BKN009 M01/M02 A2956 RMK SF7 SLP014

CYQB;2009-12-28 14:32;CYQB 281432Z 23011KT 4SM -SN BR OVC016 M01/ RMK SC8

CYQB;2009-12-28 15:00;CYQB 281500Z 23009KT 1 1/4SM -SN BR OVC020 M01/M02 A2956 RMK SN2SC6 SLP014

CYQB;2009-12-28 15:30;CYQB 281530Z 23008KT 2SM -SN BR OVC012 M01/ RMK SN1SC7

CYQB;2009-12-28 16:00;CYQB 281600Z 22007KT 2SM -SN BR SCT005 OVC019 M01/M02 A2953 RMK SN1SF3SC4 SLP002

CYQB;2009-12-28 17:00;CYQB 281700Z 21006KT 5SM BR BKN015 OVC036 M01/M03 A2949 RMK SC3SC5 SLP991

CYQB;2009-12-28 18:00;CYQB 281800Z 23003KT 5SM BR FEW010 OVC020 M01/M02 A2947 RMK SC2SC6 SLP984

CYQB;2009-12-28 19:00;CYQB 281900Z 27003KT 6SM BR OVC016 M01/M03 A2945 RMK SC8 SLP977

CYQB;2009-12-28 19:13;CYQB 281913Z 00000KT 6SM -SN BR OVC015 M01/ RMK SC8

CYQB;2009-12-28 19:31;CYQB 281931Z 03002KT 6SM BR OVC015 M01/ RMK SC8

CYQB;2009-12-28 19:51;CYQB 281951Z 00000KT 2SM -SN OVC015 M01/ RMK SC8

CYQB;2009-12-28 20:00;CYQB 282000Z 00000KT 1 1/2SM -SN BR OVC016 M01/M02 A2944 RMK SC8 SLP972

CYQB;2009-12-28 20:14;CYQB 282014Z 00000KT 1SM R06/P6000FT/U -SN BR OVC006 M01/ RMK SF8

CYQB;2009-12-28 20:53;CYQB 282053Z 01003KT 1 1/2SM -SN BR SCT006 OVC040 M01/ RMK SF3SC5

CYQB;2009-12-28 21:00;CYQB 282100Z 36003KT 2SM -SN BR FEW006 OVC044 M01/M03 A2942 RMK SF2SC6 SLP968

CYQB;2009-12-28 22:00;CYQB 282200Z 35002KT 4SM -SN BR FEW006 BKN027 OVC050 M01/M03 A2942 RMK SF2SC3SC3 SLP966

CYQB;2009-12-28 23:00;CYQB 282300Z 24003KT 4SM -SN BR BKN038 OVC060 M02/M02 A2942 RMK SC6SC2 SLP965

CYQB;2009-12-28 23:44;CYQB 282344Z 27006KT 10SM FEW010 SCT050 OVC110 M02/ RMK SF1SC3AC4

CYQB;2009-12-29 00:00;CYQB 290000Z 28005KT 10SM FEW010 FEW050 OVC110 M02/M04 A2941 RMK SF1SC2AC5 SLP963

CYQB;2009-12-29 01:00;CYQB 290100Z 27006KT 10SM BKN055 BKN110 M03/M04 A2940 RMK SC5AC2 SLP961

CYQB;2009-12-29 02:00;CYQB 290200Z 27006KT 10SM SCT055 BKN110 M03/M05 A2940 RMK SC3AC4 SLP960

CYQB;2009-12-29 03:00;CYQB 290300Z 24004KT 10SM SCT045 BKN095 M04/M06 A2940 RMK SC4AC3 SLP959

CYQB;2009-12-29 04:00;CYQB 290400Z 27004KT 10SM BKN040 BKN095 M04/M06 A2939 RMK SC6AC1 SLP957

CYQB;2009-12-29 05:00;CYQB 290500Z 25003KT 10SM OVC042 M04/M06 A2939 RMK SC8 SLP955

CYQB;2009-12-29 06:00;CYQB 290600Z 24006KT 10SM SCT045 BKN190 M04/M05 A2938 RMK SC4CS2 SLP954

CYQB;2009-12-29 07:00;CYQB 290700Z 25006KT 15SM BKN043 M04/M06 A2939 RMK SC6 SLP958

CYQB;2009-12-29 08:00;CYQB 290800Z 32012G17KT 10SM FEW040 BKN110 M04/M08 A2940 RMK SC1AS6 SLP959

CYQB;2009-12-29 09:00;CYQB 290900Z 33019G29KT 10SM FEW040 BKN081 M06/M11 A2942 RMK SC1AC7 SLP967

CYQB;2009-12-29 10:00;CYQB 291000Z 33017G28KT 10SM OVC092 M09/M14 A2947 RMK AC8 SLP982

CYQB;2009-12-29 11:00;CYQB 291100Z 32016G25KT 15SM OVC097 M10/M15 A2951 RMK AC8 SLP997

CYQB;2009-12-29 12:00;CYQB 291200Z 32008G15KT 15SM OVC120 M12/M17 A2958 RMK AC8 SLP021

CYQB;2009-12-29 13:00;CYQB 291300Z 30009KT 25SM BKN080 OVC120 M13/M18 A2963 RMK AC5AC2 SLP039

CYQB;2009-12-29 14:00;CYQB 291400Z 30010G16KT 25SM FEW020 BKN085 M13/M18 A2968 RMK SC1AC3 SLP055

CYQB;2009-12-29 15:00;CYQB 291500Z 32015G20KT 25SM FEW035 BKN100 M13/M21 A2972 RMK SC1AS3 SLP070

CYQB;2009-12-29 16:00;CYQB 291600Z 30013G20KT 25SM FEW035 SCT100 M14/M21 A2975 RMK SC1AS2 SLP079

CYQB;2009-12-29 17:00;CYQB 291700Z 32019G24KT 25SM SCT040 M13/M22 A2978 RMK SC4 SLP088

CYQB;2009-12-29 18:00;CYQB 291800Z 31012G19KT 10SM BKN044 M13/M21 A2981 RMK SC6 SLP101

CYQB;2009-12-29 19:00;CYQB 291900Z 30010G21KT 12SM BKN043 M13/M21 A2985 RMK SC5 SLP113

CYQB;2009-12-29 20:00;CYQB 292000Z 28013G19KT 10SM BKN044 M14/M21 A2989 RMK SC6 SLP128

CYQB;2009-12-29 21:00;CYQB 292100Z 28012G19KT 12SM BKN045 M14/M22 A2994 RMK SC5 SLP143

CYQB;2009-12-29 22:00;CYQB 292200Z 27014KT 12SM SCT037 M15/M22 A2997 RMK SC3 SLP155

CYQB;2009-12-29 23:00;CYQB 292300Z 28014G19KT 15SM FEW030 FEW043 M15/M22 A2999 RMK SC1SC2 SLP162

CYQB;2009-12-30 00:00;CYQB 300000Z 27011KT 15SM FEW030 SCT046 M15/M22 A3003 RMK SC1SC2 SLP174

CYQB;2009-12-30 01:00;CYQB 300100Z 27011G18KT 15SM FEW030 BKN042 M15/M22 A3005 RMK SC2SC3 SLP181

CYQB;2009-12-30 02:00;CYQB 300200Z 29010G18KT 15SM FEW030 FEW045 M16/M23 A3006 RMK SC1SC2 SLP186

CYQB;2009-12-30 03:00;CYQB 300300Z 28014G19KT 15SM FEW031 SCT044 M16/M23 A3009 RMK SC1SC3 SLP198

CYQB;2009-12-30 04:00;CYQB 300400Z 24016G21KT 15SM FEW028 SCT042 M17/M23 A3011 RMK SC2SC2 SLP205

CYQB;2009-12-30 05:00;CYQB 300500Z 25012KT 15SM FEW040 SCT200 M18/M24 A3011 RMK SC2CI2 SLP205

CYQB;2009-12-30 06:00;CYQB 300600Z 25015KT 15SM FEW040 FEW200 M18/M24 A3015 RMK SC2CI1 SLP217

CYQB;2009-12-30 07:00;CYQB 300700Z 25019KT 15SM SCT033 M18/M23 A3019 RMK SC3 SLP230

CYQB;2009-12-30 08:00;CYQB 300800Z 25013KT 15SM BKN029 M17/M23 A3021 RMK SC5 SLP237

CYQB;2009-12-30 09:00;CYQB 300900Z 25012KT 15SM BKN028 M17/M23 A3022 RMK SC7 SLP239

CYQB;2009-12-30 10:00;CYQB 301000Z 26012G17KT 15SM OVC028 M18/M24 A3022 RMK SC8 SLP239

CYQB;2009-12-30 11:00;CYQB 301100Z 24014KT 15SM BKN028 M18/M24 A3023 RMK SC6 SLP244

CYQB;2009-12-30 12:00;CYQB 301200Z 26011KT 15SM FEW028 M19/M25 A3025 RMK SC2 SLP251

CYQB;2009-12-30 13:00;CYQB 301300Z 25012KT 15SM FEW030 M20/M25 A3027 RMK SC1 SLP257

CYQB;2009-12-30 14:00;CYQB 301400Z 24013KT 30SM FEW040 FEW200 M19/M24 A3029 RMK SC1CI0 SLP265

CYQB;2009-12-30 15:00;CYQB 301500Z 25016KT 30SM FEW040 FEW200 M18/M24 A3031 RMK SC1CI0 SLP271

CYQB;2009-12-30 16:00;CYQB 301600Z 26017KT 30SM FEW040 M17/M24 A3030 RMK SC1 SLP268

CYQB;2009-12-30 17:00;CYQB 301700Z CCA 25013G18KT 30SM FEW040 FEW100 M16/M24 A3028 RMK SC1AC1 SLP262

CYQB;2009-12-30 18:00;CYQB 301800Z 24014KT 30SM FEW040 SCT100 M15/M21 A3026 RMK SC1AC1 SLP256

CYQB;2009-12-30 19:00;CYQB 301900Z 23014KT 30SM FEW030 BKN110 M15/M20 A3027 RMK SC1AC4 SLP257

CYQB;2009-12-30 20:00;CYQB 302000Z 25010KT 30SM FEW030 FEW110 M15/M21 A3028 RMK SC1AC1 SLP260

CYQB;2009-12-30 21:00;CYQB 302100Z 25009KT 30SM FEW050 BKN110 M16/M21 A3029 RMK SC2AC2 SLP264

CYQB;2009-12-30 22:00;CYQB 302200Z 23003KT 15SM BKN048 M15/M20 A3029 RMK SC7 SLP264

CYQB;2009-12-30 22:30;CYQB 302230Z 24003KT 7SM -SN BKN040 M15/ RMK SC7

CYQB;2009-12-30 23:00;CYQB 302300Z 27004KT 15SM -SN OVC041 M14/M19 A3028 RMK SC8 SLP263

CYQB;2009-12-31 00:00;CYQB 310000Z 01002KT 15SM -SN OVC043 M14/M18 A3029 RMK SC8 SLP265

CYQB;2009-12-31 01:00;CYQB 310100Z 35005KT 15SM -SN OVC044 M14/M19 A3028 RMK SC8 SLP263

CYQB;2009-12-31 02:00;CYQB 310200Z 35005KT 15SM -SN OVC043 M14/M19 A3028 RMK SC8 SLP262

CYQB;2009-12-31 03:00;CYQB 310300Z 36004KT 6SM -SN BR BKN020 OVC041 M14/M18 A3028 RMK SC6SC2 SLP260

CYQB;2009-12-31 04:00;CYQB 310400Z 34004KT 6SM -SN BR BKN018 OVC041 M13/M17 A3026 RMK SC6SC2 SLP256

CYQB;2009-12-31 05:00;CYQB 310500Z 00000KT 6SM -SN BR BKN018 OVC041 M13/M17 A3025 RMK SC7SC1 SLP251

CYQB;2009-12-31 06:00;CYQB 310600Z 10003KT 10SM -SN FEW020 OVC040 M13/M16 A3024 RMK SC2SC6 SLP248

CYQB;2009-12-31 07:00;CYQB 310700Z 36002KT 12SM -SN OVC037 M13/M17 A3024 RMK SC8 -SN INTMT SLP248

CYQB;2009-12-31 08:00;CYQB 310800Z 13002KT 10SM -SN OVC036 M13/M16 A3024 RMK SC8 SLP246

CYQB;2009-12-31 09:00;CYQB 310900Z 04003KT 12SM -SN OVC036 M12/M15 A3023 RMK SC8 SLP244

CYQB;2009-12-31 10:00;CYQB 311000Z 04004KT 15SM OVC035 M12/M15 A3022 RMK SC8 INTMT -SN SLP242

CYQB;2009-12-31 11:00;CYQB 311100Z 01004KT 15SM -SN OVC040 M12/M14 A3022 RMK SC8 SLP239

CYQB;2009-12-31 12:00;CYQB 311200Z 03005KT 15SM FEW040 SCT060 BKN120 M11/M14 A3021 RMK SC2AC2AC1 SLP236

CYQB;2009-12-31 13:00;CYQB 311300Z 01004KT 25SM FEW040 FEW075 SCT110 BKN200 M11/M14 A3022 RMK SC1AC2AC2CI0 SLP239

CYQB;2009-12-31 14:00;CYQB 311400Z 01004KT 25SM FEW060 SCT075 BKN110 BKN200 M10/M21 A3021 RMK SC2AC2AC2CI0 SLP237

CYQB;2009-12-31 15:00;CYQB 311500Z 04004KT 25SM BKN062 BKN100 BKN200 M09/M12 A3020 RMK SC5AC2CI0 SLP233

CYQB;2009-12-31 16:00;CYQB 311600Z 06006KT 25SM BKN050 BKN075 BKN100 BKN200 M07/M11 A3016 RMK SC5AC1AC1CI0 SLP219

CYQB;2009-12-31 16:45;CYQB 311645Z 09006KT 25SM -SN SCT032 BKN040 BKN060 BKN200 M06/ RMK SC3SC2AC2CI0 -SN INTMT

CYQB;2009-12-31 17:00;CYQB 311700Z 09007KT 25SM -SN SCT032 BKN040 BKN060 BKN200 M06/M10 A3014 RMK SC3SC2SC2CI0 -SN INTMT SLP214

CYQB;2009-12-31 18:00;CYQB 311800Z 07005KT 25SM -SN FEW030 OVC043 M05/M09 A3014 RMK SC2SC5 -SN INTMT SLP213

CYQB;2009-12-31 19:00;CYQB 311900Z 07007KT 25SM -SN SCT043 BKN085 OVC110 M05/M09 A3013 RMK SC3AC2AC3 -SN INTMT SLP208

CYQB;2009-12-31 20:00;CYQB 312000Z 07007KT 25SM -SN OVC100 M05/M09 A3012 RMK AC8 -SN INTMT SLP206

CYQB;2009-12-31 21:00;CYQB 312100Z 08006KT 20SM SCT100 BKN200 M05/M08 A3013 RMK AC4CI0 INTMT -SN SLP208

CYQB;2009-12-31 22:00;CYQB 312200Z 07009KT 15SM BKN100 BKN200 M06/M08 A3012 RMK AC5CI1 -SN INTMT SLP206

CYQB;2009-12-31 23:00;CYQB 312300Z 07009KT 15SM BKN057 OVC110 M06/M07 A3012 RMK SC6AC2 -SN INTMT SLP206

