CYQF;2011-01-01 00:00;CYQF 010000Z 19003KT 15SM FEW120 BKN220 M17/M23 A2985 RMK AC2CI3 SLP198

CYQF;2011-01-01 01:00;CYQF 010100Z 15002KT 12SM -SN BKN120 M17/M22 A2985 RMK AC7 SLP200

CYQF;2011-01-01 02:00;CYQF 010200Z 19004KT 15SM BKN100 M17/M22 A2985 RMK AC7 SLP199

CYQF;2011-01-01 02:45;CYQF 010245Z 21004KT 15SM -SN BKN060 OVC100 RMK SC5AC3

CYQF;2011-01-01 03:00;CYQF 010300Z 21002KT 15SM -SN BKN060 OVC100 M15/M20 A2985 RMK SC5AC3 SLP197

CYQF;2011-01-01 04:00;CYQF 010400Z 00000KT 15SM -SN BKN060 OVC100 M13/M18 A2985 RMK SC6AC2 SLP196

CYQF;2011-01-01 04:42;CYQF 010442Z 00000KT 15SM FEW060 SCT100 RMK SC1AC2

CYQF;2011-01-01 05:00;CYQF 010500Z 17002KT 15SM FEW100 M16/M20 A2985 RMK AC1 SLP195

CYQF;2011-01-01 06:00;CYQF 010600Z 17003KT 15SM SKC M16/M20 A2985 RMK SLP190

CYQF;2011-01-01 07:00;CYQF 010700Z 18003KT 15SM SKC M18/M23 A2984 RMK SLP187

CYQF;2011-01-01 08:00;CYQF 010800Z 19003KT 15SM SKC M19/M23 A2983 RMK SLP184

CYQF;2011-01-01 09:00;CYQF 010900Z 20003KT 15SM SKC M17/M20 A2982 RMK SLP179

CYQF;2011-01-01 10:00;CYQF 011000Z 22002KT 15SM SKC M18/M22 A2983 RMK SLP180

CYQF;2011-01-01 11:00;CYQF 011100Z 00000KT 15SM SKC M17/M21 A2981 RMK SLP176

CYQF;2011-01-01 12:00;CYQF 011200Z 00000KT 15SM SKC M16/M20 A2980 RMK SLP170

CYQF;2011-01-01 13:00;CYQF 011300Z 22004KT 15SM SCT250 M18/M22 A2980 RMK CI2 SLP168

CYQF;2011-01-01 14:00;CYQF 011400Z 22003KT 15SM SCT250 M16/M19 A2979 RMK CI2 SLP167

CYQF;2011-01-01 15:00;CYQF 011500Z 18003KT 15SM BKN250 M15/M19 A2978 RMK CI6 SLP159

CYQF;2011-01-01 16:00;CYQF 011600Z 17002KT 15SM BKN250 M15/M19 A2978 RMK CI6 SLP158

CYQF;2011-01-01 17:00;CYQF 011700Z 19002KT 15SM BKN250 M14/M17 A2978 RMK CI6 SLP157

CYQF;2011-01-01 18:00;CYQF 011800Z 22002KT 15SM FEW120 BKN220 M14/M17 A2976 RMK AC2CI3 SLP152

CYQF;2011-01-01 19:00;CYQF 011900Z 22005KT 15SM SCT120 BKN220 M12/M15 A2974 RMK AC3CC2 SLP144

CYQF;2011-01-01 20:00;CYQF 012000Z 24008KT 15SM FEW120 BKN220 M10/M15 A2972 RMK AC1CI3 SLP139

CYQF;2011-01-01 21:00;CYQF 012100Z 25007KT 15SM FEW090 BKN220 M08/M14 A2971 RMK AC2CI2 SLP128

CYQF;2011-01-01 22:00;CYQF 012200Z 24004KT 15SM OVC080 M08/M13 A2971 RMK AC7 VCSH N SLP127

CYQF;2011-01-01 22:24;CYQF 012224Z 21004KT 12SM -SN OVC080 RMK AC8

CYQF;2011-01-01 23:00;CYQF 012300Z 00000KT 6SM -SN OVC080 M06/M11 A2971 RMK AS8 SLP129

CYQF;2011-01-01 23:21;CYQF 012321Z 00000KT 1 1/2SM -SN VV008 RMK SN8 BLLN SHOWS STG NW FLO 300FT

CYQF;2011-01-02 00:00;CYQF 020000Z 18005KT 2SM -SN VV008 M07/M11 A2971 RMK SN8 SLP127

CYQF;2011-01-02 00:36;CYQF 020036Z 00000KT 10SM -SN OVC080 RMK AS8

CYQF;2011-01-02 01:00;CYQF 020100Z 00000KT 6SM -SN OVC080 M06/M09 A2971 RMK AS8 VIS HIER S SLP126

CYQF;2011-01-02 01:05;CYQF 020105Z 25004KT 2 1/2SM -SN VV012 RMK SN8

CYQF;2011-01-02 01:27;CYQF 020127Z 24002KT 6SM -SN OVC080 RMK AS8

CYQF;2011-01-02 02:00;CYQF 020200Z 27005KT 1SM -SN VV010 M04/M07 A2971 RMK SN8 SLP126

CYQF;2011-01-02 02:21;CYQF 020221Z 29008KT 5SM -SN OVC080 RMK AC8

CYQF;2011-01-02 03:00;CYQF 020300Z 24005KT 10SM -SN BKN030 OVC080 M04/M07 A2972 RMK SC5AC3 SLP123

CYQF;2011-01-02 03:39;CYQF 020339Z 27008KT 15SM OVC080 RMK AC8

CYQF;2011-01-02 04:00;CYQF 020400Z 27010G15KT 15SM OVC080 M02/M07 A2972 RMK AC8 SLP123

CYQF;2011-01-02 04:32;CYQF 020432Z 33020G25KT 15SM FEW030 OVC100 RMK SC1AC8 HVY DRFTG SN WND SHFT

CYQF;2011-01-02 05:00;CYQF 020500Z 31015G30KT 15SM SCT030 OVC100 M01/M07 A2973 RMK SC3AC5 HVY DRFTG SNW SLP128

CYQF;2011-01-02 05:39;CYQF 020539Z 31010G15KT 15SM OVC100 RMK AC8

CYQF;2011-01-02 06:00;CYQF 020600Z 31015G20KT 15SM SCT080 OVC250 M01/M07 A2975 RMK AC3CI3 HVY DRFTG SNW SLP128

CYQF;2011-01-02 07:00;CYQF 020700Z 31015G20KT 15SM FEW030 OVC080 M02/M07 A2976 RMK SC2AC6 HVY DRFTG SNW SLP134

CYQF;2011-01-02 08:00;CYQF 020800Z 30015G22KT 15SM FEW030 OVC080 M02/M07 A2977 RMK SC2AC6 HVY DRFTG SNW SLP135

CYQF;2011-01-02 08:25;CYQF 020825Z 30012G18KT 10SM -SN SCT030 OVC080 RMK SC3AC5 DRFTG SNW

CYQF;2011-01-02 09:00;CYQF 020900Z CCA 29012KT 10SM -SN FEW030 OVC080 M02/M06 A2979 RMK SC2AC6 DRFG SNW SLP138

CYQF;2011-01-02 10:00;CYQF 021000Z CCA 29015G20KT 15SM -SN FEW030 OVC080 M02/M06 A2980 RMK SC2AC6 DRSN SLP143

CYQF;2011-01-02 11:00;CYQF 021100Z CCA 29015G20KT 10SM -SN FEW030 OVC080 M02/M06 A2982 RMK SC2AC6 DRSN SLP148

CYQF;2011-01-02 12:00;CYQF 021200Z 31012G18KT 10SM -SN FEW030 OVC080 M02/M07 A2984 RMK SC2AC6 DRSN SLP153

CYQF;2011-01-02 13:00;CYQF 021300Z 31015G20KT 8SM -SN FEW030 OVC080 M02/M06 A2985 RMK SC2AC6 DRSN SLP159

CYQF;2011-01-02 14:00;CYQF 021400Z 30015G20KT 5SM -SN FEW030 OVC080 M03/M08 A2988 RMK SC2AC6 DRSN SLP166

CYQF;2011-01-02 15:00;CYQF 021500Z 30012G18KT 5SM -SN DRSN SCT030 OVC080 M03/M08 A2990 RMK SC3AC5 SLP172

CYQF;2011-01-02 16:00;CYQF 021600Z 32010G15KT 12SM -SN DRSN BKN030 OVC080 M03/M08 A2992 RMK SC5AC3 SLP178

CYQF;2011-01-02 17:00;CYQF 021700Z 30010KT 8SM -SN DRSN BKN030 OVC100 M03/M08 A2993 RMK SC5AC3 SLP182

CYQF;2011-01-02 17:41;CYQF 021741Z 31010G15KT 15SM DRSN BKN025 BKN100 RMK SC6AC1

CYQF;2011-01-02 18:00;CYQF 021800Z 31010G15KT 15SM DRSN FEW010 BKN025 OVC100 M03/M08 A2993 RMK SF2SC5AC1 SLP180

CYQF;2011-01-02 19:00;CYQF 021900Z 32012G17KT 15SM DRSN BKN025 BKN100 M03/M09 A2993 RMK SC6AC2 SLP179

CYQF;2011-01-02 20:00;CYQF 022000Z 32014G20KT 15SM DRSN BKN025 BKN100 M03/M09 A2992 RMK SC6AC1 SLP177

CYQF;2011-01-02 21:00;CYQF 022100Z 33012G18KT 15SM DRSN BKN021 M03/M09 A2992 RMK SC7 SLP179

CYQF;2011-01-02 22:00;CYQF 022200Z 33011G16KT 15SM DRSN BKN020 M03/M09 A2994 RMK SC7 SLP185

CYQF;2011-01-02 23:00;CYQF 022300Z 33008KT 15SM OVC030 M03/M09 A2996 RMK SC8 SLP190

CYQF;2011-01-03 00:00;CYQF 030000Z 33005KT 15SM BKN020 M04/M09 A2998 RMK SC7 SLP199

CYQF;2011-01-03 01:00;CYQF 030100Z 33007KT 15SM BKN020 M04/M10 A2998 RMK SC6 SLP200

CYQF;2011-01-03 02:00;CYQF 030200Z 26004KT 15SM FEW020 SCT250 M08/M13 A2998 RMK SC2CI0 SLP200

CYQF;2011-01-03 03:00;CYQF 030300Z 28002KT 15SM FEW020 BKN100 M10/M14 A2998 RMK SC1AC3 SLP209

CYQF;2011-01-03 03:52;CYQF 030352Z 27002KT 15SM -SN FEW020 OVC050 RMK SC1SC8

CYQF;2011-01-03 04:00;CYQF 030400Z 27003KT 15SM -SN FEW020 OVC050 M09/M12 A2998 RMK SC1SC8 SLP208

CYQF;2011-01-03 05:00;CYQF 030500Z 26002KT 15SM -SN OVC050 M08/M12 A2998 RMK SC8 SLP209

CYQF;2011-01-03 06:00;CYQF 030600Z 00000KT 15SM OVC050 M08/M12 A2998 RMK SC8 SLP206

CYQF;2011-01-03 07:00;CYQF 030700Z 00000KT 15SM OVC050 M08/M11 A2998 RMK SC8 SLP206

CYQF;2011-01-03 08:00;CYQF 030800Z 20004KT 15SM OVC050 M07/M11 A2997 RMK SC8 SLP202

CYQF;2011-01-03 09:00;CYQF 030900Z 22004KT 15SM OVC060 M07/M11 A2996 RMK SC8 SLP197

CYQF;2011-01-03 10:00;CYQF 031000Z 22004KT 15SM OVC060 M06/M10 A2996 RMK SC8 SLP198

CYQF;2011-01-03 11:00;CYQF 031100Z 22004KT 15SM OVC060 M06/M11 A2996 RMK SC8 SLP198

CYQF;2011-01-03 12:00;CYQF 031200Z 22003KT 15SM SCT060 M09/M13 A2996 RMK SC4 SLP202

CYQF;2011-01-03 13:00;CYQF 031300Z 18003KT 15SM FEW060 SCT250 M11/M15 A2996 RMK SC2CI1 SLP202

CYQF;2011-01-03 14:00;CYQF 031400Z 18003KT 15SM FEW070 SCT250 M12/M16 A2996 RMK AC2CI1 SLP201

CYQF;2011-01-03 15:00;CYQF 031500Z 22002KT 15SM FEW230 M13/M17 A2996 RMK CI1 SLP212

CYQF;2011-01-03 16:00;CYQF 031600Z 25008KT 15SM FEW230 M13/M16 A2995 RMK CI1 SLP211

CYQF;2011-01-03 17:00;CYQF 031700Z 26008KT 15SM FEW230 M11/M15 A2995 RMK CI1 SLP211

CYQF;2011-01-03 18:00;CYQF 031800Z 00000KT 15SM BKN250 M10/M15 A2993 RMK CI1 SLP197

CYQF;2011-01-03 19:00;CYQF 031900Z 21005KT 15SM BKN250 M11/M16 A2990 RMK CI2 SLP187

CYQF;2011-01-03 20:00;CYQF 032000Z 23006KT 15SM BKN250 M09/M15 A2989 RMK CI2 SLP184

CYQF;2011-01-03 21:00;CYQF 032100Z 22007KT 15SM BKN250 M08/M14 A2986 RMK CI2 SLP167

CYQF;2011-01-03 22:00;CYQF 032200Z 23004KT 15SM BKN250 M06/M14 A2985 RMK CI2 SLP164

CYQF;2011-01-03 23:00;CYQF 032300Z 24006KT 15SM BKN250 M06/M14 A2985 RMK CI6 SLP163

CYQF;2011-01-04 00:00;CYQF 040000Z 23006KT 15SM FEW100 BKN250 M06/M14 A2985 RMK AC1CI1 SLP165

CYQF;2011-01-04 01:00;CYQF 040100Z 27007KT 15SM SCT060 M06/M13 A2985 RMK SC4 SLP166

CYQF;2011-01-04 02:00;CYQF 040200Z 28006KT 15SM BKN060 M02/M09 A2985 RMK SC6 SLP166

CYQF;2011-01-04 03:00;CYQF 040300Z 28008KT 15SM BKN075 M03/M10 A2984 RMK AC7 SLP163

CYQF;2011-01-04 04:00;CYQF 040400Z 26005KT 15SM SCT075 M04/M10 A2985 RMK AC4 SLP164

CYQF;2011-01-04 05:00;CYQF 040500Z 25005KT 15SM FEW075 M07/M13 A2985 RMK AC2 SLP164

CYQF;2011-01-04 06:00;CYQF 040600Z 24005KT 15SM SKC M09/M14 A2984 RMK SLP166

CYQF;2011-01-04 07:00;CYQF 040700Z 23007KT 15SM SKC M08/M14 A2984 RMK SLP165

CYQF;2011-01-04 08:00;CYQF 040800Z 23010KT 15SM FEW080 M07/M13 A2983 RMK AC2 SLP163

CYQF;2011-01-04 09:00;CYQF 040900Z 23010KT 15SM BKN070 M07/M13 A2983 RMK AC5 SLP159

CYQF;2011-01-04 10:00;CYQF 041000Z 22008KT 15SM BKN070 M08/M14 A2983 RMK AC6 SLP158

CYQF;2011-01-04 11:00;CYQF 041100Z 20006KT 15SM SCT070 BKN250 M09/M15 A2981 RMK AC3CI1 SLP153

CYQF;2011-01-04 12:00;CYQF 041200Z 22003KT 15SM FEW070 BKN250 M10/M15 A2980 RMK AC2CI1 SLP149

CYQF;2011-01-04 13:00;CYQF 041300Z 20004KT 15SM FEW070 SCT250 M11/M16 A2978 RMK AC2CI1 SLP143

CYQF;2011-01-04 14:00;CYQF 041400Z 19004KT 15SM FEW070 SCT250 M12/M17 A2977 RMK AC2CI1 SLP141

CYQF;2011-01-04 15:00;CYQF 041500Z 18003KT 15SM SCT070 BKN250 M13/M18 A2976 RMK AC3CI1 SLP135

CYQF;2011-01-04 16:00;CYQF 041600Z 20003KT 15SM FEW070 BKN100 BKN250 M11/M16 A2974 RMK AC1AC6CI1 AC TR SLP128

CYQF;2011-01-04 17:00;CYQF 041700Z 19003KT 15SM BKN070 BKN100 OVC250 M09/M14 A2974 RMK AC2AC5CI1 SLP129

CYQF;2011-01-04 18:00;CYQF 041800Z 00000KT 15SM BKN070 OVC250 M08/M13 A2973 RMK AS7CI1 SLP124

CYQF;2011-01-04 19:00;CYQF 041900Z 19004KT 15SM OVC070 M06/M13 A2971 RMK AS8 SLP118

CYQF;2011-01-04 20:00;CYQF 042000Z 00000KT 15SM SCT026 OVC070 M05/M12 A2970 RMK SC3AS5 SLP116

CYQF;2011-01-04 21:00;CYQF 042100Z 19003KT 15SM BKN025 OVC070 M05/M11 A2969 RMK SC6AS2 SLP106

CYQF;2011-01-04 21:19;CYQF 042119Z 20003KT 12SM -SN BKN025 OVC070 RMK SC6AS2

CYQF;2011-01-04 22:00;CYQF 042200Z 22003KT 3SM -SN OVC025 M05/M10 A2969 RMK SN2SC6 SLP105

CYQF;2011-01-04 22:07;CYQF 042207Z 23002KT 1SM -SN OVC020 RMK SN2SC6

CYQF;2011-01-04 22:22;CYQF 042222Z 00000KT 3/4SM -SN VV011 RMK SN8

CYQF;2011-01-04 22:38;CYQF 042238Z 00000KT 1SM -SN VV012 RMK SN8

CYQF;2011-01-04 23:00;CYQF 042300Z 18004KT 8SM -SN BKN025 M05/M08 A2968 RMK SC7 SLP103

CYQF;2011-01-05 00:00;CYQF 050000Z 14002KT 10SM -SN OVC025 M04/M08 A2967 RMK SC8 /S01/ SLP100

CYQF;2011-01-05 01:00;CYQF 050100Z 22007KT 8SM -SN OVC030 M04/M07 A2967 RMK SC8 SLP101

CYQF;2011-01-05 02:00;CYQF 050200Z 19002KT 4SM -SN OVC030 M03/M06 A2967 RMK SC8 SLP100

CYQF;2011-01-05 03:00;CYQF 050300Z 00000KT 10SM -SN OVC040 M03/M06 A2966 RMK SC8 SLP098

CYQF;2011-01-05 04:00;CYQF 050400Z 23002KT 5SM -SN OVC030 M02/M06 A2967 RMK SC8 /S01/ SLP103

CYQF;2011-01-05 05:00;CYQF 050500Z 00000KT 10SM -SN OVC040 M02/M06 A2967 RMK SC8 SLP103

CYQF;2011-01-05 06:00;CYQF 050600Z 22004KT 4SM -SN OVC040 M02/M06 A2968 RMK SC8 SLP099

CYQF;2011-01-05 07:00;CYQF 050700Z 24006KT 4SM -SN OVC040 M02/M06 A2969 RMK SC8 SLP102

CYQF;2011-01-05 08:00;CYQF 050800Z 21006KT 10SM -SN OVC040 M02/M05 A2969 RMK SC8 SLP102

CYQF;2011-01-05 09:00;CYQF 050900Z 20007KT 10SM -SN OVC040 M02/M06 A2969 RMK SC8 SLP101

CYQF;2011-01-05 10:00;CYQF 051000Z CCA 17002KT 10SM -SN OVC060 M02/M06 A2968 RMK SC8 SLP097

CYQF;2011-01-05 10:40;CYQF 051040Z 22005KT 15SM FEW015 OVC060 RMK SF1SC7

CYQF;2011-01-05 11:00;CYQF 051100Z 22005KT 15SM FEW015 OVC060 M01/M05 A2969 RMK SF1SC7 SLP102

CYQF;2011-01-05 12:00;CYQF 051200Z 22006KT 15SM FEW015 SCT050 M05/M08 A2970 RMK SF1SC3 SLP106

CYQF;2011-01-05 13:00;CYQF 051300Z 00000KT 3SM BR SKC M07/M10 A2970 RMK FG2 SLP107

CYQF;2011-01-05 13:22;CYQF 051322Z 21004KT 1/2SM FZFG SKC RMK FG3

CYQF;2011-01-05 14:00;CYQF 051400Z 20005KT 3SM BR SKC M07/M10 A2972 RMK FG2 SLP111

CYQF;2011-01-05 14:23;CYQF 051423Z 21005KT 1SM BR SKC RMK FG2 FG DEPTH APRX 30 FT

CYQF;2011-01-05 14:33;CYQF 051433Z 21005KT 10SM MIFG SKC

CYQF;2011-01-05 15:00;CYQF 051500Z 00000KT 10SM BCFG SKC M09/M12 A2972 RMK VIS S-SW 3/4 SLP116

CYQF;2011-01-05 16:00;CYQF 051600Z 17004KT 15SM SCT250 M09/M11 A2973 RMK CI1 SLP119

CYQF;2011-01-05 17:00;CYQF 051700Z 17003KT 15SM FEW100 BKN250 M11/M12 A2974 RMK AC1CI4 SLP121

CYQF;2011-01-05 18:00;CYQF 051800Z 19004KT 15SM SCT150 BKN250 M08/M10 A2975 RMK AC3CI2 SLP125

CYQF;2011-01-05 19:00;CYQF 051900Z 19004KT 15SM SCT150 BKN250 M06/M10 A2974 RMK AC2CI2 SLP121

CYQF;2011-01-05 20:00;CYQF 052000Z 18005KT 15SM FEW150 BKN250 M03/M10 A2973 RMK AC2CI2 SLP118

CYQF;2011-01-05 21:00;CYQF 052100Z 17004KT 15SM FEW050 SCT120 BKN250 M02/M09 A2971 RMK SC1AC2CI2 SLP105

CYQF;2011-01-05 22:00;CYQF 052200Z 17003KT 15SM FEW050 SCT120 BKN250 M02/M09 A2969 RMK SC1AC2CI2 SLP099

CYQF;2011-01-05 23:00;CYQF 052300Z 18006KT 15SM FEW050 BKN120 BKN250 M02/M09 A2967 RMK SC1AC4CI2 SLP093

CYQF;2011-01-06 00:00;CYQF 060000Z 00000KT 15SM FEW050 BKN100 BKN250 M03/M08 A2967 RMK SC1AC4CI2 SLP093

CYQF;2011-01-06 01:00;CYQF 060100Z 17005KT 15SM FEW050 BKN100 BKN250 M01/M07 A2966 RMK SC1AC4CI1 SLP092

CYQF;2011-01-06 02:00;CYQF 060200Z 18004KT 15SM BKN100 M03/M08 A2966 RMK AC3 SLP089

CYQF;2011-01-06 03:00;CYQF 060300Z 00000KT 15SM BKN100 M05/M10 A2966 RMK AC6 SLP099

CYQF;2011-01-06 04:00;CYQF 060400Z 20004KT 15SM BKN100 M04/M09 A2966 RMK AC6 SLP099

CYQF;2011-01-06 05:00;CYQF 060500Z 21005KT 15SM BKN100 M03/M09 A2967 RMK AC6 SLP100

CYQF;2011-01-06 06:00;CYQF 060600Z 16002KT 15SM BKN100 M01/M08 A2967 RMK AC6 SLP096

CYQF;2011-01-06 07:00;CYQF 060700Z 17005KT 15SM OVC100 M02/M08 A2967 RMK AC8 SLP095

CYQF;2011-01-06 08:00;CYQF 060800Z 18005KT 15SM OVC100 M02/M08 A2967 RMK AC8 SLP095

CYQF;2011-01-06 09:00;CYQF 060900Z 00000KT 15SM OVC100 M03/M08 A2966 RMK AC8 SLP088

CYQF;2011-01-06 10:00;CYQF 061000Z 20008KT 15SM OVC100 M02/M09 A2968 RMK AC8 SLP095

CYQF;2011-01-06 11:00;CYQF 061100Z 00000KT 15SM OVC100 M03/M09 A2969 RMK AC8 SLP097

CYQF;2011-01-06 12:00;CYQF 061200Z 00000KT 15SM BKN100 OVC250 M01/M08 A2969 RMK AC6CI2 SLP095

CYQF;2011-01-06 13:00;CYQF 061300Z 20008KT 15SM FEW100 BKN250 M04/M11 A2970 RMK AC2CI1 SLP099

CYQF;2011-01-06 14:00;CYQF 061400Z 20004KT 15SM FEW100 BKN250 M04/M11 A2971 RMK AC2CI1 SLP102

CYQF;2011-01-06 14:51;CYQF 061451Z 34010G15KT 15SM BKN100 BKN250 RMK AC5CI1 WND SHFT

CYQF;2011-01-06 15:00;CYQF 061500Z 35015G20KT 15SM BKN080 BKN250 02/M08 A2976 RMK AC5CI2 PRESRR SLP120

CYQF;2011-01-06 16:00;CYQF 061600Z 34010KT 15SM FEW080 SCT250 00/M06 A2981 RMK AC2CI1 SLP134

CYQF;2011-01-06 17:00;CYQF 061700Z 31012KT 15SM FEW080 BKN250 M01/M07 A2983 RMK AC2CI1 SLP142

CYQF;2011-01-06 18:00;CYQF 061800Z 28010G15KT 15SM FEW030 FEW080 BKN250 00/M08 A2985 RMK CU1AC1CI2 SLP147

CYQF;2011-01-06 19:00;CYQF 061900Z 29008KT 15SM FEW070 SCT250 00/M08 A2985 RMK AC2CI1 ACC ASOCTD SLP150

CYQF;2011-01-06 20:00;CYQF 062000Z 23006KT 15SM FEW070 BKN250 M01/M08 A2986 RMK AC2CI2 SLP152

CYQF;2011-01-06 21:00;CYQF 062100Z 26007KT 15SM FEW040 FEW080 BKN250 01/M07 A2988 RMK CU1AC1CI1 SLP162

CYQF;2011-01-06 22:00;CYQF 062200Z 23005KT 15SM FEW040 FEW080 BKN250 M04/M09 A2991 RMK CU1AC1CI2 SLP170

CYQF;2011-01-06 23:00;CYQF 062300Z 22004KT 15SM FEW040 FEW080 BKN250 M06/M11 A2994 RMK SC1AC1CI4 SLP180

CYQF;2011-01-07 00:00;CYQF 070000Z 20003KT 15SM FEW080 SCT200 BKN250 M07/M12 A2998 RMK AC1CC2CI3 SLP200

CYQF;2011-01-07 01:00;CYQF 070100Z 00000KT 15SM FEW250 M08/M12 A3001 RMK CI1 SLP210

CYQF;2011-01-07 02:00;CYQF 070200Z 17004KT 15SM SKC M10/M14 A3002 RMK SLP213

CYQF;2011-01-07 03:00;CYQF 070300Z 25002KT 15SM SKC M11/M15 A3004 RMK SLP224

CYQF;2011-01-07 04:00;CYQF 070400Z 17003KT 15SM SCT250 M12/M15 A3005 RMK CI2 SLP227

CYQF;2011-01-07 05:00;CYQF 070500Z 21006KT 15SM BKN250 M10/M15 A3006 RMK CI4 SLP231

CYQF;2011-01-07 06:00;CYQF 070600Z 16006KT 15SM SCT110 OVC250 M09/M14 A3007 RMK AC4CI3 SLP235

CYQF;2011-01-07 07:00;CYQF 070700Z 16002KT 15SM BKN200 M09/M14 A3008 RMK CI3 SLP237

CYQF;2011-01-07 08:00;CYQF 070800Z 00000KT 15SM BKN200 M09/M15 A3006 RMK CI4 SLP233

CYQF;2011-01-07 09:00;CYQF 070900Z 00000KT 15SM BKN200 M10/M15 A3005 RMK CI4 SLP229

CYQF;2011-01-07 10:00;CYQF 071000Z 00000KT 15SM BKN200 M11/M16 A3005 RMK CI2 SLP227

CYQF;2011-01-07 11:00;CYQF 071100Z 15002KT 15SM BKN200 M10/M15 A3003 RMK CI5 SLP223

CYQF;2011-01-07 12:00;CYQF 071200Z 00000KT 15SM SCT120 OVC200 M10/M14 A2999 RMK AC3CI5 SLP216

CYQF;2011-01-07 13:00;CYQF 071300Z 12002KT 15SM FEW120 BKN200 M06/M12 A2995 RMK AC1CI2 SLP204

CYQF;2011-01-07 14:00;CYQF 071400Z 12010G15KT 15SM FEW120 BKN200 M06/M12 A2993 RMK AC2CI4 SLP196

CYQF;2011-01-07 15:00;CYQF 071500Z 12010G15KT 15SM FEW060 BKN110 OVC220 M05/M12 A2989 RMK SC1AC5CI2 SLP181

CYQF;2011-01-07 16:00;CYQF 071600Z 11011KT 15SM FEW060 BKN100 OVC220 M04/M12 A2987 RMK SC2AC5CI1 SLP174

CYQF;2011-01-07 17:00;CYQF 071700Z 12010G15KT 15SM FEW060 BKN100 OVC220 M04/M11 A2983 RMK SC2AC5CI1 SLP160

CYQF;2011-01-07 18:00;CYQF 071800Z 13010G15KT 15SM FEW060 BKN100 OVC220 M04/M11 A2978 RMK SC2AC5CI1 SLP139

CYQF;2011-01-07 19:00;CYQF 071900Z 13010G15KT 15SM FEW060 BKN100 OVC220 M04/M11 A2974 RMK SC2AC5CI1 SLP125

CYQF;2011-01-07 20:00;CYQF 072000Z 12010KT 15SM FEW060 BKN100 OVC220 M04/M10 A2970 RMK SC1AC6CI1 SLP113

CYQF;2011-01-07 21:00;CYQF 072100Z 14010G15KT 15SM FEW050 BKN100 BKN220 M04/M10 A2967 RMK SC1AC5CI1 SLP100

CYQF;2011-01-07 22:00;CYQF 072200Z 12010KT 15SM BKN100 BKN220 M04/M10 A2965 RMK AC6CI2 SLP095

CYQF;2011-01-07 23:00;CYQF 072300Z 11010G15KT 15SM FEW050 FEW100 BKN220 M04/M09 A2964 RMK SC1AC1CI6 SLP092

CYQF;2011-01-08 00:00;CYQF 080000Z 10007KT 15SM FEW100 SCT220 M05/M10 A2963 RMK AC2CI1 SLP087

CYQF;2011-01-08 01:00;CYQF 080100Z 09006KT 15SM FEW100 FEW220 M07/M11 A2960 RMK AC1CI1 SLP079

CYQF;2011-01-08 02:00;CYQF 080200Z 08004KT 15SM FEW100 FEW220 M07/M11 A2959 RMK AC1CI1 SLP075

CYQF;2011-01-08 02:42;CYQF 080242Z 09008KT 10SM -FZDZ OVC006 RMK ST8

CYQF;2011-01-08 03:00;CYQF 080300Z 09007KT 8SM -SN -FZDZ OVC006 M05/M08 A2959 RMK ST8 SLP069

CYQF;2011-01-08 03:34;CYQF 080334Z 09008KT 6SM -SN OVC006 REFZDZ RMK ST8

CYQF;2011-01-08 04:00;CYQF 080400Z 10008KT 8SM -SN OVC006 M04/M07 A2960 REFZDZ RMK ST8 SLP071

CYQF;2011-01-08 04:45;CYQF 080445Z 03004KT 15SM OVC006 RMK ST8

CYQF;2011-01-08 05:00;CYQF 080500Z 01003KT 12SM OVC004 M05/M08 A2961 RMK ST8 SLP074

CYQF;2011-01-08 05:34;CYQF 080534Z 04005KT 6SM -FZDZ OVC004 RMK ST8

CYQF;2011-01-08 06:00;CYQF 080600Z 03005KT 3SM -FZDZ OVC004 M05/M08 A2962 RMK ST8 SLP077

CYQF;2011-01-08 07:00;CYQF 080700Z 00000KT 2SM -FZDZ BR OVC004 M05/M08 A2961 RMK FG3ST5 SLP075

CYQF;2011-01-08 08:00;CYQF 080800Z 34004KT 2SM -SN BR BKN004 OVC007 M05/M08 A2960 RMK SC5SC3 SLP073

CYQF;2011-01-08 08:24;CYQF 080824Z 32004KT 3SM -SN OVC008 RMK SC8 CIG RAG

CYQF;2011-01-08 09:00;CYQF 080900Z 33004KT 3SM -SN BKN010 M06/M09 A2962 RMK SC7 CIG RAG VIS VRB 2-4 SLP077

CYQF;2011-01-08 10:00;CYQF 081000Z 33006KT 10SM -SN OVC018 M06/M10 A2963 RMK SC8 CIG RAG SLP081

CYQF;2011-01-08 11:00;CYQF 081100Z 33008KT 15SM -SN BKN007 OVC020 M06/M10 A2966 RMK SC5SC3 SLP090

CYQF;2011-01-08 12:00;CYQF 081200Z 33009KT 15SM -SN FEW007 OVC013 M07/M11 A2967 RMK SC2SC6 SLP099

CYQF;2011-01-08 13:00;CYQF 081300Z 35010G15KT 2SM -SN OVC012 M07/M12 A2968 RMK SN3SC5 SLP103

CYQF;2011-01-08 13:20;CYQF 081320Z 34010G15KT 5SM -SN DRSN OVC013 RMK SC8

CYQF;2011-01-08 14:00;CYQF 081400Z 35010G15KT 6SM -SN DRSN FEW007 OVC015 M09/M13 A2972 RMK SF2SC6 SLP115

CYQF;2011-01-08 15:00;CYQF 081500Z 35012G18KT 3SM -SN DRSN FEW006 OVC015 M10/M14 A2976 RMK SN1SF2SC6 OCNL BLSN VIS VRB 2-5 SLP133

CYQF;2011-01-08 15:26;CYQF 081526Z 34010G15KT 1SM -SN BLSN SCT006 OVC015 RMK SN2SF2SC4

CYQF;2011-01-08 16:00;CYQF 081600Z 34012G18KT 1SM -SN DRSN SCT012 OVC030 M10/M15 A2979 RMK SN2SF2SC4 OCNL BLSN SLP142

CYQF;2011-01-08 17:00;CYQF 081700Z 34010G15KT 3/4SM -SN DRSN VV015 M11/M15 A2983 RMK SN8 /S01/ SLP154

CYQF;2011-01-08 18:00;CYQF 081800Z 33010G15KT 3/4SM -SN DRSN VV015 M10/M15 A2985 RMK SN8 /S02/ SLP165

CYQF;2011-01-08 19:00;CYQF 081900Z 32010G15KT 1/2SM SN DRSN VV010 M10/M14 A2986 RMK SN8 OCNL BLSN SLP168

CYQF;2011-01-08 19:32;CYQF 081932Z 33012G18KT 3/4SM -SN DRSN VV010 RMK SN8 OCNL BLSN VIS VRB 1/2-1

CYQF;2011-01-08 20:00;CYQF 082000Z 33012G18KT 1 1/2SM -SN DRSN VV010 M10/M15 A2987 RMK SN8 OCNL BLSN VIS VRB 1-2 SLP171

CYQF;2011-01-08 21:00;CYQF 082100Z 34011G17KT 1 1/2SM -SN DRSN VV010 M10/M15 A2989 RMK SN8 OCNL BLSN VIS VRB 1-2 /S01/ SLP182

CYQF;2011-01-08 22:00;CYQF 082200Z 34014G20KT 3/4SM -SN DRSN VV009 M10/M15 A2993 RMK SN8 OCNL BLSN VIS VRB 1/2-1 SLP192

CYQF;2011-01-08 23:00;CYQF 082300Z 32020G30KT 3/4SM -SN BLSN VV006 M11/M16 A2996 RMK BLSN8 VIS VRB 1/2-1 SLP202

CYQF;2011-01-09 00:00;CYQF 090000Z 32015G27KT 3/4SM -SN BLSN VV006 M12/M17 A2998 RMK BLSN8 VIS VRB 1/2-1 /S02/ SLP215

CYQF;2011-01-09 01:00;CYQF 090100Z 32018G30KT 3/4SM -SN BLSN OVC009 M13/M18 A3001 RMK BLSN5ST3 VIS VRB 1/2-1 SLP225

CYQF;2011-01-09 02:00;CYQF 090200Z 32018G28KT 1SM -SN BLSN OVC009 M14/M19 A3003 RMK BLSN5ST3 SLP231

CYQF;2011-01-09 02:09;CYQF 090209Z 31015G25KT 1 1/2SM -SN BLSN OVC009 RMK BLSN5ST3

CYQF;2011-01-09 03:00;CYQF 090300Z 31017G27KT 1SM -SN BLSN OVC009 M14/M19 A3005 RMK BLSN5ST3 VIS VRB 1/2-11/2 /S01/ SLP243

CYQF;2011-01-09 03:48;CYQF 090348Z 31015G25KT 3SM -SN DRSN SCT008 OVC014 RMK SF3SC5 OCNL BLSN

CYQF;2011-01-09 04:00;CYQF 090400Z 32013G23KT 3SM -SN DRSN SCT008 OVC014 M14/M19 A3006 RMK SF3SC5 OCNL BLSN SLP249

CYQF;2011-01-09 04:25;CYQF 090425Z 32015G25KT 2SM -SN DRSN SCT008 OVC014 RMK SF3SC5 OCNL BLSN

CYQF;2011-01-09 05:00;CYQF 090500Z 32017G27KT 2SM -SN DRSN OVC014 M14/M19 A3009 RMK SC8 OCNL BLSN SLP257

CYQF;2011-01-09 05:14;CYQF 090514Z 31017G27KT 3/4SM -SN BLSN VV010 RMK BLSN8

CYQF;2011-01-09 06:00;CYQF 090600Z 31013G25KT 1 1/2SM -SN BLSN OVC013 M15/M20 A3012 RMK SC8 VIS VRB 1-2 SLP271

CYQF;2011-01-09 07:00;CYQF 090700Z 31015G25KT 2SM -SN BLSN OVC011 M15/M20 A3013 RMK SC8 SLP272

CYQF;2011-01-09 08:00;CYQF 090800Z 31015G20KT 2SM -SN BLSN OVC012 M15/M20 A3014 RMK SC8 SLP275

CYQF;2011-01-09 09:00;CYQF 090900Z 32016G25KT 2SM -SN BLSN OVC011 M15/M21 A3014 RMK SC8 SLP279

CYQF;2011-01-09 10:00;CYQF 091000Z 31015G25KT 2SM -SN BLSN OVC012 M15/M21 A3017 RMK SC8 SLP289

CYQF;2011-01-09 11:00;CYQF 091100Z 31015G22KT 2SM -SN BLSN OVC012 M15/M21 A3019 RMK SC8 SLP293

CYQF;2011-01-09 12:00;CYQF 091200Z 31015G20KT 3SM -SN BLSN OVC014 M15/M21 A3019 RMK SC8 SLP298

CYQF;2011-01-09 12:24;CYQF 091224Z 32015G25KT 2SM -SN BLSN OVC011 RMK SC8

CYQF;2011-01-09 13:00;CYQF 091300Z 32015G25KT 2SM -SN BLSN OVC013 M16/M21 A3019 RMK SC8 SLP299

CYQF;2011-01-09 14:00;CYQF 091400Z 32016G22KT 2SM -SN BLSN OVC011 M16/M21 A3020 RMK SC8 SLP302

CYQF;2011-01-09 15:00;CYQF 091500Z 32015G25KT 2SM -SN BLSN OVC012 M16/M21 A3021 RMK SC8 VIS N 11/2 SLP308

CYQF;2011-01-09 16:00;CYQF 091600Z 33015G22KT 2 1/2SM -SN BLSN OVC010 M16/M21 A3024 RMK SC8 VIS NW 3 SLP317

CYQF;2011-01-09 16:27;CYQF 091627Z 32013G21KT 1 1/2SM -SN BLSN OVC008 RMK SN3SC5 VIS N 1

CYQF;2011-01-09 16:43;CYQF 091643Z 33014G20KT 3/4SM -SN BLSN OVC007 RMK SN5SC3

CYQF;2011-01-09 16:52;CYQF 091652Z 31015G22KT 1/2SM SN BLSN OVC007 RMK SN5SC3

CYQF;2011-01-09 17:00;CYQF 091700Z 31015G20KT 1/2SM SN BLSN OVC007 M16/M21 A3026 RMK SN5SC3 SLP322

CYQF;2011-01-09 17:05;CYQF 091705Z 31010G18KT 1SM -SN BLSN OVC008 RMK SN3SC5 RESN

CYQF;2011-01-09 17:31;CYQF 091731Z 32010G20KT 2SM -SN BLSN OVC010 RMK SC8

CYQF;2011-01-09 18:00;CYQF 091800Z 32013G21KT 1SM -SN BLSN OVC010 M16/M21 A3027 RMK SN4SC4 VIS VRB 1/2-11/2 /S01/ SLP330

CYQF;2011-01-09 19:00;CYQF 091900Z 33013G19KT 1SM -SN BLSN OVC015 M16/M21 A3026 RMK SN4SC4 VIS VRB 1/2-11/2 SLP327

CYQF;2011-01-09 19:21;CYQF 091921Z 32012G18KT 2SM -SN BLSN OVC015 RMK SC8 VIS VRB 1-3

CYQF;2011-01-09 20:00;CYQF 092000Z 32012G19KT 2SM -SN BLSN OVC015 M16/M21 A3025 RMK SC8 VIS VRB 1-3 SLP324

CYQF;2011-01-09 21:00;CYQF 092100Z 33011G20KT 2SM -SN BLSN OVC015 M15/M21 A3028 RMK SC8 VIS VRB 1-3 SLP332

CYQF;2011-01-09 21:40;CYQF 092140Z 33012G23KT 1/2SM SN BLSN OVC010 RMK SN3SC5

CYQF;2011-01-09 22:00;CYQF 092200Z CCA 32013G20KT 1SM -SN BLSN OVC012 M15/M20 A3029 RESN RMK SN4SC4 VIS VRB 1/2-11/2 SLP337

CYQF;2011-01-09 23:00;CYQF 092300Z 33015G25KT 2SM -SN BLSN SCT012 BKN100 M16/M21 A3032 RMK BLSN3SC1AC2 VIS VRB 1-2 SLP344

CYQF;2011-01-09 23:24;CYQF 092324Z 33010G20KT 6SM -SN DRSN FEW012 BKN100 RMK SC2AC5 OCNL BLSN

CYQF;2011-01-10 07:00;CYQF 100700Z 32012G18KT 10SM -SN DRSN FEW012 SCT050 BKN220 M17/M22 A3042 RMK SC1SC3CI2 SLP383

CYQF;2011-01-10 08:00;CYQF 100800Z 31012KT 10SM -SN DRSN FEW010 SCT050 BKN220 M17/M22 A3043 RMK SC1SC3CI2 SLP385

CYQF;2011-01-10 09:00;CYQF 100900Z 32010KT 15SM -SN FEW010 SCT050 BKN220 M17/M23 A3043 RMK SC1SC3CI2 SLP388

CYQF;2011-01-10 10:00;CYQF 101000Z 31012KT 15SM FEW050 BKN220 M17/M23 A3044 RMK SC2CI2 IC SLP392

CYQF;2011-01-10 11:00;CYQF 101100Z 30008KT 10SM SCT050 BKN220 M17/M23 A3046 RMK SC3CI2 IC SLP396

CYQF;2011-01-10 12:00;CYQF 101200Z 32008KT 10SM SCT050 BKN220 M17/M23 A3046 RMK SC3CI2 IC SLP398

CYQF;2011-01-10 12:50;CYQF 101250Z 32007KT 3SM -SN SCT050 BKN220 RMK SC4CI2

CYQF;2011-01-10 13:00;CYQF 101300Z 30006KT 10SM -SN FEW050 BKN220 M18/M23 A3046 RMK SC2CI2 SLP398

CYQF;2011-01-10 14:00;CYQF 101400Z 32004KT 5SM -SN SCT050 BKN220 M18/M23 A3046 RMK SC3CI2 SLP400

CYQF;2011-01-10 15:00;CYQF 101500Z 31005KT 5SM -SN BKN040 OVC220 M18/M23 A3047 RMK SC5CI2 SLP403

CYQF;2011-01-10 16:00;CYQF 101600Z 29006KT 3SM -SN BKN040 BKN220 M18/M23 A3048 RMK SC5CI2 SLP406

CYQF;2011-01-10 17:00;CYQF 101700Z 30010KT 3SM -SN OVC250 M18/M23 A3048 RMK SN2CI2 SLP405

CYQF;2011-01-10 17:42;CYQF 101742Z CCA 31004KT 8SM SCT090 BKN250 RMK AC2CI1 IC

CYQF;2011-01-10 18:00;CYQF 101800Z 32005KT 10SM SCT090 BKN250 M18/M23 A3048 RMK AC2CI1 IC SLP407

CYQF;2011-01-10 19:00;CYQF 101900Z 31005KT 10SM FEW100 SCT250 M18/M23 A3047 RMK AC1CI2 IC SLP404

CYQF;2011-01-10 20:00;CYQF 102000Z 32007KT 12SM FEW100 SCT250 M18/M23 A3045 RMK AC1CI1 IC AC TR SLP399

CYQF;2011-01-10 21:00;CYQF 102100Z 30008KT 12SM FEW100 BKN250 M17/M23 A3044 RMK AC1CI1 SLP395

CYQF;2011-01-10 22:00;CYQF 102200Z 32004KT 10SM FEW100 BKN250 M17/M23 A3045 RMK AC1CI1 SLP397

CYQF;2011-01-10 23:00;CYQF 102300Z 36002KT 15SM FEW100 BKN250 M17/M23 A3045 RMK AC2CI2 SLP396

CYQF;2011-01-11 00:00;CYQF 110000Z 00000KT 15SM SCT100 BKN250 M19/M24 A3044 RMK AC2CI2 SLP397

CYQF;2011-01-11 00:00;CYQF 110000Z 00000KT 15SM SCT100 BKN250 M19/M24 A3044 RMK AC2CI2 SLP397

CYQF;2011-01-11 01:00;CYQF 110100Z 00000KT 15SM FEW100 SCT250 M20/M25 A3044 RMK AC2CI1 SLP394

CYQF;2011-01-11 01:00;CYQF 110100Z 00000KT 15SM FEW100 SCT250 M20/M25 A3044 RMK AC2CI1 SLP394

CYQF;2011-01-11 02:00;CYQF 110200Z 00000KT 15SM BKN100 M23/M28 A3044 RMK AC6 SLP394

CYQF;2011-01-11 02:00;CYQF 110200Z 00000KT 15SM BKN100 M23/M28 A3044 RMK AC6 SLP394

CYQF;2011-01-11 03:00;CYQF 110300Z 00000KT 15SM -SN BKN100 M23/M28 A3044 RMK AC6 SLP399

CYQF;2011-01-11 03:00;CYQF 110300Z 00000KT 15SM -SN BKN100 M23/M28 A3044 RMK AC6 SLP399

CYQF;2011-01-11 03:36;CYQF 110336Z 17002KT 15SM FEW100 RMK AC1

CYQF;2011-01-11 03:36;CYQF 110336Z 17002KT 15SM FEW100 RMK AC1

CYQF;2011-01-11 04:00;CYQF 110400Z 16002KT 15SM SKC M25/M30 A3043 RMK SLP398

CYQF;2011-01-11 04:00;CYQF 110400Z 16002KT 15SM SKC M25/M30 A3043 RMK SLP398

CYQF;2011-01-11 05:00;CYQF 110500Z 18003KT 15SM SKC M26/M31 A3042 RMK SLP395

CYQF;2011-01-11 05:00;CYQF 110500Z 18003KT 15SM SKC M26/M31 A3042 RMK SLP395

CYQF;2011-01-11 06:00;CYQF 110600Z 00000KT 15SM SKC M25/M30 A3042 RMK SLP395

CYQF;2011-01-11 06:00;CYQF 110600Z 00000KT 15SM SKC M25/M30 A3042 RMK SLP395

CYQF;2011-01-11 07:00;CYQF 110700Z 00000KT 15SM SKC M27/M32 A3040 RMK SLP391

CYQF;2011-01-11 08:00;CYQF 110800Z 00000KT 15SM SKC M28/M33 A3039 RMK SLP387

CYQF;2011-01-11 09:00;CYQF 110900Z 00000KT 15SM SKC M27/M32 A3038 RMK SLP385

CYQF;2011-01-11 10:00;CYQF 111000Z 00000KT 15SM SKC M27/M32 A3039 RMK SLP386

CYQF;2011-01-11 11:00;CYQF 111100Z 00000KT 15SM SKC M27/M31 A3038 RMK SLP383

CYQF;2011-01-11 12:00;CYQF 111200Z 00000KT 15SM SKC M27/M32 A3036 RMK SLP380

CYQF;2011-01-11 13:00;CYQF 111300Z 00000KT 15SM SKC M24/M29 A3036 RMK SLP378

CYQF;2011-01-11 14:00;CYQF 111400Z 12004KT 15SM SKC M24/M28 A3034 RMK SLP373

CYQF;2011-01-11 15:00;CYQF 111500Z 00000KT 15SM SKC M26/M31 A3034 RMK VIS E-S 5BR SLP377

CYQF;2011-01-11 16:00;CYQF 111600Z 00000KT 10SM SKC M26/M30 A3034 RMK SLP376

CYQF;2011-01-11 17:00;CYQF 111700Z 00000KT 10SM SKC M24/M29 A3034 RMK SLP376

CYQF;2011-01-11 18:00;CYQF 111800Z 00000KT 10SM SKC M22/M26 A3033 RMK HZ SLP369

CYQF;2011-01-11 19:00;CYQF 111900Z 12002KT 10SM SKC M22/M26 A3031 RMK SLP365

CYQF;2011-01-11 20:00;CYQF 112000Z 12006KT 8SM SKC M21/M25 A3028 RMK SLP356

CYQF;2011-01-11 20:40;CYQF 112040Z 12006KT 6SM IC SKC

CYQF;2011-01-11 21:00;CYQF 112100Z 13010KT 6SM IC SKC M20/M25 A3027 RMK SLP348

CYQF;2011-01-11 22:00;CYQF 112200Z 11004KT 5SM IC SKC M21/M25 A3027 RMK SLP348

CYQF;2011-01-11 23:00;CYQF 112300Z 11006KT 10SM FEW210 M22/M27 A3028 RMK CI1 SLP351

CYQF;2011-01-12 00:00;CYQF 120000Z 10003KT 10SM FEW210 M24/M28 A3026 RMK CI1 SLP351

CYQF;2011-01-12 01:00;CYQF 120100Z 00000KT 10SM FEW210 M24/M29 A3026 RMK CI1 SLP349

CYQF;2011-01-12 02:00;CYQF 120200Z 00000KT 10SM FEW210 M26/M31 A3026 RMK CI1 SLP351

CYQF;2011-01-12 03:00;CYQF 120300Z 00000KT 15SM SCT060 M26/M32 A3026 RMK SC3 SLP354

CYQF;2011-01-12 04:00;CYQF 120400Z 00000KT 15SM FEW060 M28/M33 A3027 RMK SC1 SLP356

CYQF;2011-01-12 05:00;CYQF 120500Z 00000KT 15SM FEW060 M28/M33 A3027 RMK SC1 SLP355

CYQF;2011-01-12 06:00;CYQF 120600Z 00000KT 15SM SKC M29/M34 A3027 RMK SLP353

CYQF;2011-01-12 07:00;CYQF 120700Z 20002KT 15SM SKC M29/M33 A3025 RMK SLP348

CYQF;2011-01-12 08:00;CYQF 120800Z 18004KT 15SM SKC M30/M35 A3026 RMK SLP350

CYQF;2011-01-12 09:00;CYQF 120900Z 00000KT 15SM FEW080 BKN250 M29/M34 A3025 RMK AC2CI1 SLP343

CYQF;2011-01-12 10:00;CYQF 121000Z 00000KT 15SM SCT080 BKN250 M28/M32 A3024 RMK AC3CI2 SLP340

CYQF;2011-01-12 11:00;CYQF 121100Z 00000KT 15SM SCT080 BKN250 M25/M30 A3021 RMK AC3CI2 SLP332

CYQF;2011-01-12 12:00;CYQF 121200Z 00000KT 15SM SCT010 BKN080 M24/M28 A3018 RMK SF3AC4 SLP317

CYQF;2011-01-12 12:40;CYQF 121240Z 00000KT 15SM -SN BKN010 OVC060 RMK SF6SC2

CYQF;2011-01-12 13:00;CYQF 121300Z 00000KT 15SM -SN OVC010 M23/M28 A3013 RMK SC8 SLP303

CYQF;2011-01-12 13:42;CYQF 121342Z 00000KT 15SM -SN SCT010 BKN100 RMK SC3AC2

CYQF;2011-01-12 14:00;CYQF 121400Z 00000KT 15SM -SN SCT010 BKN100 M23/M27 A3010 RMK SC3AC2 SLP293

CYQF;2011-01-12 14:49;CYQF 121449Z 36003KT 1 1/2SM -SN OVC090 RMK SN3AC5

CYQF;2011-01-12 15:00;CYQF 121500Z 01004KT 1 1/2SM -SN OVC045 M23/M27 A3007 RMK SN3SC5 SLP283

CYQF;2011-01-12 15:24;CYQF 121524Z 36004KT 3/4SM -SN VV011 RMK SN8

CYQF;2011-01-12 16:00;CYQF 121600Z 35002KT 1SM -SN VV011 M23/M27 A3007 RMK SN8 SLP282

CYQF;2011-01-12 17:00;CYQF 121700Z 00000KT 1SM -SN VV014 M22/M27 A3001 RMK SN8 /S01/ PRESFR SLP263

CYQF;2011-01-12 17:31;CYQF 121731Z 00000KT 2SM -SN VV014 RMK SN8

CYQF;2011-01-12 18:00;CYQF 121800Z 02002KT 6SM -SN OVC015 M23/M27 A2998 RMK SC8 /S02/ SLP253

CYQF;2011-01-12 19:00;CYQF 121900Z 36003KT 6SM -SN OVC015 M22/M26 A2995 RMK SC8 SLP242

CYQF;2011-01-12 20:00;CYQF 122000Z 34002KT 6SM -SN OVC015 M22/M27 A2991 RMK SC8 SLP230

CYQF;2011-01-12 20:20;CYQF 122020Z 35004KT 3SM -SN OVC025 RMK SC8

CYQF;2011-01-12 21:00;CYQF 122100Z 34004KT 10SM -SN OVC025 M22/M27 A2987 RMK SC8 SLP215

CYQF;2011-01-12 22:00;CYQF 122200Z 35008KT 10SM -SN OVC020 M21/M26 A2989 RMK SC8 SLP221

CYQF;2011-01-12 23:00;CYQF 122300Z 34004KT 10SM -SN OVC020 M22/M27 A2990 RMK SC8 SLP224

CYQF;2011-01-13 00:00;CYQF 130000Z 31005KT 10SM -SN OVC020 M21/M27 A2992 RMK SC8 SLP223

CYQF;2011-01-13 01:00;CYQF 130100Z 32009KT 10SM -SN OVC020 M21/M28 A2994 RMK SC8 SLP231

CYQF;2011-01-13 02:00;CYQF 130200Z 32008KT 10SM -SN OVC020 M21/M27 A2995 RMK SC8 SLP235

CYQF;2011-01-13 03:00;CYQF 130300Z 33010KT 10SM -SN OVC020 M21/M27 A2997 RMK SC8 SLP242

CYQF;2011-01-13 04:00;CYQF 130400Z 32010KT 10SM -SN OVC020 M21/M27 A3000 RMK SC8 SLP249

CYQF;2011-01-13 05:00;CYQF 130500Z 30010KT 10SM -SN OVC020 M21/M27 A3001 RMK SC8 SLP252

CYQF;2011-01-13 06:00;CYQF 130600Z 30013KT 15SM -SN OVC025 M21/M27 A3004 RMK SC8 SLP262

CYQF;2011-01-13 06:41;CYQF 130641Z 30012KT 15SM OVC025 RMK SC8

CYQF;2011-01-13 07:00;CYQF 130700Z 30010KT 15SM OVC025 M21/M27 A3005 RMK SC8 SLP268

CYQF;2011-01-13 08:00;CYQF 130800Z 31010KT 15SM OVC025 M21/M27 A3008 RMK SC8 SLP275

CYQF;2011-01-13 09:00;CYQF 130900Z 32008KT 15SM OVC025 M21/M27 A3011 RMK SC8 SLP289

CYQF;2011-01-13 10:00;CYQF 131000Z 32008KT 15SM BKN025 OVC060 M21/M27 A3013 RMK SC6SC2 SLP295

CYQF;2011-01-13 11:00;CYQF 131100Z 31007KT 15SM BKN025 OVC060 M21/M27 A3014 RMK SC6SC2 SLP298

CYQF;2011-01-13 11:18;CYQF 131118Z 31010KT 10SM -SN OVC027 RMK SC8

CYQF;2011-01-13 12:00;CYQF 131200Z 32008KT 15SM -SN BKN025 BKN060 M21/M27 A3015 RMK SC5SC2 SLP302

CYQF;2011-01-13 12:34;CYQF 131234Z 30010KT 15SM SCT025 BKN250 RMK SC3CI1

CYQF;2011-01-13 13:00;CYQF 131300Z 29003KT 15SM SCT030 BKN250 M22/M28 A3014 RMK SC3CI2 SLP298

CYQF;2011-01-13 14:00;CYQF 131400Z 30002KT 15SM SCT050 OVC250 M22/M28 A3014 RMK SC3CI2 SLP298

CYQF;2011-01-13 15:00;CYQF 131500Z 28004KT 15SM FEW050 BKN250 M23/M29 A3016 RMK SC1CI5 SLP307

CYQF;2011-01-13 16:00;CYQF 131600Z 29002KT 15SM BKN250 M22/M29 A3016 RMK CI7 SLP307

CYQF;2011-01-13 17:00;CYQF 131700Z 33002KT 15SM BKN250 M23/M29 A3015 RMK CI6 SLP303

CYQF;2011-01-13 18:00;CYQF 131800Z 30002KT 15SM OVC250 M22/M28 A3014 RMK CI8 SLP297

CYQF;2011-01-13 18:56;CYQF 131856Z 33002KT 8SM -SHGS BKN080 OVC250 RMK AC6CI2

CYQF;2011-01-13 19:00;CYQF 131900Z 36004KT 8SM -SHGS BKN080 OVC250 M22/M28 A3011 RMK AC6CI2 SLP289

CYQF;2011-01-13 19:13;CYQF 131913Z 03004KT 6SM -SN BKN080 OVC250 RMK AC6CI2

CYQF;2011-01-13 20:00;CYQF 132000Z 35005KT 3SM -SN BKN080 OVC250 M22/M28 A3008 RMK AC6CI2 SLP281

CYQF;2011-01-13 20:09;CYQF 132009Z 36005KT 2SM -SN OVC080 RMK SN5AC3

CYQF;2011-01-13 20:11;CYQF 132011Z 36005KT 1 1/2SM -SN OVC080 RMK SN5AC3

CYQF;2011-01-13 20:21;CYQF 132021Z 35003KT 1SM -SN OVC080 RMK SN6AC2 VIS VRB 1/2-11/2

CYQF;2011-01-13 21:00;CYQF 132100Z 01003KT 1SM -SN OVC080 M21/M27 A3007 RMK SN6AC2 VIS VRB 1/2-11/2 SLP272

CYQF;2011-01-13 22:00;CYQF 132200Z 00000KT 1SM -SN OVC060 M21/M27 A3007 RMK SN6SC2 VIS VRB 1/2 - 11/2 SLP272

CYQF;2011-01-13 23:00;CYQF 132300Z 02003KT 1SM -SN OVC030 M21/M27 A3007 RMK SN6SC2 VIS VRB 1/2 - 11/2 SLP273

CYQF;2011-01-14 00:00;CYQF 140000Z 02004KT 1SM -SN VV015 M21/M27 A3007 RMK SN8 VIS VRB 1/2 - 11/2 SLP273

CYQF;2011-01-14 01:00;CYQF 140100Z 01004KT 1SM -SN VV015 M22/M28 A3006 RMK SN8 VIS VRB 1/2 - 11/2 SLP271

CYQF;2011-01-14 01:30;CYQF 140130Z 01006KT 3SM -SN OVC030 RMK SC8 VIS S 6

CYQF;2011-01-14 02:00;CYQF 140200Z 02002KT 10SM -SN OVC030 M22/M28 A3005 RMK SC8 SLP268

CYQF;2011-01-14 03:00;CYQF 140300Z 04006KT 5SM -SN OVC025 M23/M28 A3005 RMK SC8 SLP271

CYQF;2011-01-14 04:00;CYQF 140400Z 02004KT 5SM -SN OVC025 M23/M28 A3005 RMK SC8 SLP271

CYQF;2011-01-14 05:00;CYQF 140500Z 35005KT 3SM -SN OVC025 M23/M28 A3007 RMK SC8 SLP276

CYQF;2011-01-14 05:06;CYQF 140506Z 35004KT 1SM -SN VV012 RMK SN8

CYQF;2011-01-14 05:45;CYQF 140545Z 35005KT 1 1/2SM -SN VV015 RMK SN8

CYQF;2011-01-14 06:00;CYQF 140600Z 35006KT 1SM -SN VV014 M23/M29 A3007 RMK SN8 SLP277

CYQF;2011-01-14 07:00;CYQF 140700Z 35005KT 1SM -SN VV010 M23/M29 A3008 RMK SN8 SLP279

CYQF;2011-01-14 08:00;CYQF 140800Z 35004KT 1SM -SN VV010 M23/M29 A3009 RMK SN8 SLP282

CYQF;2011-01-14 09:00;CYQF 140900Z 35006KT 1 1/2SM -SN VV010 M23/M29 A3011 RMK SN8 VIS VRB 1-2 /S02/ SLP290

CYQF;2011-01-14 09:25;CYQF 140925Z 36006KT 4SM -SN OVC025 RMK SC8

CYQF;2011-01-14 10:00;CYQF 141000Z 35006KT 3SM -SN OVC025 M23/M30 A3015 RMK SC8 SLP304

CYQF;2011-01-14 11:00;CYQF 141100Z 35005KT 8SM -SN OVC025 M23/M30 A3018 RMK SC8 SLP312

CYQF;2011-01-14 12:00;CYQF 141200Z 33010KT 3SM -SN DRSN OVC025 M24/M30 A3023 RMK SC8 SLP332

CYQF;2011-01-14 13:00;CYQF 141300Z 34008KT 8SM -SN DRSN OVC032 M24/M30 A3025 RMK SC8 SLP340

CYQF;2011-01-14 14:00;CYQF 141400Z 32007KT 8SM -SN OVC050 M24/M30 A3027 RMK SC8 DRSN SLP346

CYQF;2011-01-14 15:00;CYQF 141500Z 32008KT 8SM -SN OVC030 M24/M30 A3032 RMK SC8 DRSN SLP365

CYQF;2011-01-14 15:33;CYQF 141533Z 32005KT 1 1/2SM -SN OVC030 RMK SN3SC5 VIS VRB 1-2

CYQF;2011-01-14 16:00;CYQF 141600Z 34007KT 1 1/2SM -SN OVC030 M24/M30 A3034 RMK SN4SC4 VIS VRB 1-2 /S01/ SLP373

CYQF;2011-01-14 17:00;CYQF 141700Z 32007KT 1 1/2SM -SN OVC030 M24/M30 A3036 RMK SN5SC3 VIS VRB 1-2 SLP379

CYQF;2011-01-14 18:00;CYQF 141800Z 33008KT 3/4SM -SN VV014 M24/M30 A3037 RMK SN8 /S02/ SLP384

CYQF;2011-01-14 18:18;CYQF 141818Z 34007KT 1 1/2SM -SN OVC025 RMK SN5SC3 VIS VRB 1-2

CYQF;2011-01-14 19:00;CYQF 141900Z 33004KT 1SM -SN OVC025 M24/M30 A3034 RMK SN5SC3 VIS VRB 1/2 - 2 SLP375

CYQF;2011-01-14 20:00;CYQF 142000Z 32004KT 1SM -SN VV015 M24/M30 A3033 RMK SN8 VIS VRB 1/2 - 11/2 /S01 SLP372

CYQF;2011-01-14 21:00;CYQF 142100Z 35005KT 1 1/2SM -SN VV015 M24/M30 A3030 RMK SN8 VIS VRB 1-2 SLP361

CYQF;2011-01-14 22:00;CYQF 142200Z 36004KT 1 1/2SM -SN VV015 M24/M30 A3030 RMK SN8 VIS VRB 1-2 SLP361

CYQF;2011-01-14 23:00;CYQF 142300Z 35004KT 1 1/2SM -SN VV015 M24/M30 A3030 RMK SN8 VIS VRB 1-2 SLP361

CYQF;2011-01-15 00:00;CYQF 150000Z 01004KT 1 1/2SM -SN VV015 M24/M30 A3031 RMK SN8 /S04/ VIS VRB 1-2 SLP363

CYQF;2011-01-15 01:00;CYQF 150100Z 02005KT 2SM -SN VV025 M25/M30 A3031 RMK SN8 SLP364

CYQF;2011-01-15 01:08;CYQF 150108Z 03005KT 3SM -SN OVC030 RMK SC8 VIS S 6 MOON DMLY VSBL

CYQF;2011-01-15 02:00;CYQF 150200Z 02008KT 15SM -SN OVC100 M25/M31 A3030 RMK AC8 SLP361

CYQF;2011-01-15 03:00;CYQF 150300Z 02004KT 15SM OVC100 M25/M31 A3030 RMK AC8 SLP361

CYQF;2011-01-15 04:00;CYQF 150400Z 34003KT 15SM FEW025 OVC100 M25/M31 A3032 RMK SC1AC8 SC DIST N SLP366

CYQF;2011-01-15 05:00;CYQF 150500Z 00000KT 15SM FEW025 OVC100 M25/M31 A3032 RMK SC1AC7 SLP368

CYQF;2011-01-15 05:32;CYQF 150532Z 03002KT 6SM -SN OVC100 RMK AC8 VIS S 15

CYQF;2011-01-15 06:00;CYQF 150600Z 02002KT 10SM -SN OVC100 M25/M31 A3031 RMK AC8 SLP365

CYQF;2011-01-15 07:00;CYQF 150700Z 05003KT 15SM -SN OVC100 M25/M31 A3029 RMK AC8 SLP360

CYQF;2011-01-15 08:00;CYQF 150800Z 06004KT 15SM -SN OVC100 M25/M31 A3027 RMK AC8 SLP354

CYQF;2011-01-15 09:00;CYQF 150900Z 08004KT 15SM -SN OVC100 M25/M31 A3027 RMK AC8 SLP351

CYQF;2011-01-15 10:00;CYQF 151000Z 10004KT 15SM -SN OVC100 M25/M31 A3025 RMK AC8 SLP344

CYQF;2011-01-15 11:00;CYQF 151100Z 12006KT 15SM -SN OVC100 M25/M31 A3024 RMK AC8 SLP341

CYQF;2011-01-15 12:00;CYQF 151200Z 09005KT 15SM -SN OVC100 M24/M30 A3020 RMK AC8 SLP328

CYQF;2011-01-15 13:00;CYQF 151300Z 13002KT 15SM -SN BKN100 OVC250 M24/M30 A3019 RMK AC6CI2 SLP324

CYQF;2011-01-15 14:00;CYQF 151400Z 13003KT 15SM -SN BKN100 OVC250 M24/M30 A3018 RMK AC6CI2 SLP322

CYQF;2011-01-15 15:00;CYQF 151500Z 12003KT 15SM FEW030 BKN100 OVC250 M23/M30 A3018 RMK SC2AC4CI2 SLP318

CYQF;2011-01-15 16:00;CYQF 151600Z 13004KT 15SM FEW030 BKN100 OVC250 M23/M29 A3017 RMK SC2AC4CI2 SLP317

CYQF;2011-01-15 17:00;CYQF 151700Z 15002KT 15SM FEW030 BKN100 OVC250 M23/M29 A3019 RMK SC2AC4CI2 SLP322

CYQF;2011-01-15 18:00;CYQF 151800Z 00000KT 15SM FEW030 BKN100 M23/M29 A3017 RMK SC2AC5 SLP315

CYQF;2011-01-15 19:00;CYQF 151900Z 13003KT 15SM FEW030 SCT100 M22/M28 A3014 RMK SC1AC2 SLP306

CYQF;2011-01-15 20:00;CYQF 152000Z 15003KT 15SM BKN100 M22/M28 A3010 RMK AC5 SLP294

CYQF;2011-01-15 21:00;CYQF 152100Z 00000KT 15SM BKN090 M22/M28 A3009 RMK AC6 SLP287

CYQF;2011-01-15 22:00;CYQF 152200Z 12003KT 15SM SCT090 BKN250 M22/M28 A3008 RMK AC2CI1 SLP282

CYQF;2011-01-15 23:00;CYQF 152300Z 12004KT 15SM SCT090 BKN250 M22/M28 A3008 RMK AC2CI2 SLP282

CYQF;2011-01-16 00:00;CYQF 160000Z 14005KT 15SM FEW090 BKN250 M22/M28 A3006 RMK AC1CI2 SLP276

CYQF;2011-01-16 01:00;CYQF 160100Z 13007KT 15SM FEW090 BKN250 M23/M29 A3002 RMK AC1CI2 SLP262

CYQF;2011-01-16 02:00;CYQF 160200Z 13005KT 15SM FEW090 BKN250 M24/M29 A2999 RMK AC1CI1 SLP253

CYQF;2011-01-16 03:00;CYQF 160300Z 15006KT 15SM BKN100 BKN250 M24/M30 A2995 RMK AC5CI1 SLP236

CYQF;2011-01-16 03:27;CYQF 160327Z 14009KT 15SM BKN100 BKN250 RMK AC6CI0 IC VIS S 6

CYQF;2011-01-16 04:00;CYQF 160400Z 15010KT 15SM BKN100 OVC250 M23/M29 A2988 RMK AC7CI1 IC VIS S 6 SLP216

CYQF;2011-01-16 05:00;CYQF 160500Z CCA 15010KT 15SM BKN100 OVC250 M23/M28 A2983 RMK AC5CI3 IC SLP200

CYQF;2011-01-16 06:00;CYQF 160600Z 14008KT 15SM OVC100 M22/M28 A2979 RMK AC8 IC SLP181

CYQF;2011-01-16 07:00;CYQF 160700Z CCA 12004KT 15SM OVC100 M22/M28 A2976 RMK AC8 IC SLP169

CYQF;2011-01-16 08:00;CYQF 160800Z 10005KT 15SM OVC100 M22/M28 A2969 RMK AC8 IC SLP150

CYQF;2011-01-16 09:00;CYQF 160900Z 14006KT 15SM OVC100 M21/M27 A2968 RMK AC8 IC SLP139

CYQF;2011-01-16 10:00;CYQF 161000Z 14006KT 15SM OVC100 M21/M27 A2965 RMK AC8 IC SLP129

CYQF;2011-01-16 11:00;CYQF 161100Z 06004KT 15SM OVC100 M21/M27 A2961 RMK AC8 IC SLP118

CYQF;2011-01-16 12:00;CYQF 161200Z CCA 05005KT 15SM BKN100 OVC250 M21/M27 A2959 RMK AC5CI2 IC SLP109

CYQF;2011-01-16 13:00;CYQF 161300Z 03006KT 15SM BKN100 OVC250 M21/M27 A2960 RMK AC5CI2 IC SLP110

CYQF;2011-01-16 14:00;CYQF 161400Z 36007KT 10SM -SN SCT020 BKN080 OVC250 M21/M27 A2959 RMK SC3AC2CI1 SLP107

CYQF;2011-01-16 14:24;CYQF 161424Z 35008KT 2SM -SN OVC020 RMK SN4SC4

CYQF;2011-01-16 15:00;CYQF 161500Z 36005KT 4SM -SN BKN020 BKN090 M21/M27 A2959 RMK SC5AC2 SLP108

CYQF;2011-01-16 16:00;CYQF 161600Z 35005KT 8SM -SN BKN020 BKN090 M21/M27 A2960 RMK SC6AC2 SLP111

CYQF;2011-01-16 17:00;CYQF 161700Z 36007KT 10SM -SN BKN020 OVC090 M21/M27 A2960 RMK SC6AC2 SLP112

CYQF;2011-01-16 17:41;CYQF 161741Z 35006KT 10SM BKN020 OVC090 RMK SC6AC2

CYQF;2011-01-16 18:00;CYQF 161800Z 35006KT 10SM BKN020 OVC090 M20/M26 A2962 RMK SC6AC2 SLP117

CYQF;2011-01-16 19:00;CYQF 161900Z 34008KT 10SM OVC015 M20/M26 A2962 RMK SC8 SLP117

CYQF;2011-01-16 20:00;CYQF 162000Z 36007KT 8SM OVC015 M20/M27 A2961 RMK SC8 SLP114

CYQF;2011-01-16 21:00;CYQF 162100Z 35008KT 10SM OVC015 M20/M27 A2960 RMK SC8 SLP108

CYQF;2011-01-16 22:00;CYQF 162200Z 01006KT 10SM OVC020 M20/M27 A2962 RMK SC8 SLP116

CYQF;2011-01-16 23:00;CYQF 162300Z 33007KT 10SM OVC020 M21/M27 A2963 RMK SC8 SLP119

CYQF;2011-01-17 00:00;CYQF 170000Z 36005KT 10SM OVC022 M21/M27 A2966 RMK SC8 SLP131

CYQF;2011-01-17 01:00;CYQF 170100Z 35006KT 10SM OVC020 M21/M27 A2967 RMK SC8 SLP133

CYQF;2011-01-17 02:00;CYQF 170200Z 33008KT 15SM OVC020 M21/M28 A2970 RMK SC8 SLP142

CYQF;2011-01-17 03:00;CYQF 170300Z 36007KT 15SM -SN FEW030 OVC100 M21/M28 A2970 RMK SC2AC6 SLP145

CYQF;2011-01-17 04:00;CYQF 170400Z 36006KT 15SM -SN OVC050 M21/M28 A2971 RMK SC8 SLP147

CYQF;2011-01-17 04:17;CYQF 170417Z 35006KT 2SM -SN VV016 RMK SN8

CYQF;2011-01-17 04:51;CYQF 170451Z 35005KT 6SM -SN SCT050 BKN100 RMK SC4AC2

CYQF;2011-01-17 05:00;CYQF 170500Z 35004KT 10SM -SN SCT050 BKN100 M22/M27 A2972 RMK SC4AC2 SLP151

CYQF;2011-01-17 05:32;CYQF 170532Z 36004KT 15SM BKN100 RMK AC6

CYQF;2011-01-17 06:00;CYQF 170600Z 02005KT 15SM FEW050 SCT100 M22/M28 A2974 RMK SC1AC2 SLP157

CYQF;2011-01-17 07:00;CYQF 170700Z 00000KT 15SM FEW050 BKN100 M22/M28 A2976 RMK SC2AC2 SLP164

CYQF;2011-01-17 08:00;CYQF 170800Z 36002KT 15SM BKN050 BKN100 M22/M28 A2977 RMK SC5AC2 SLP168

CYQF;2011-01-17 09:00;CYQF 170900Z 02003KT 15SM BKN050 OVC100 M22/M28 A2977 RMK SC6AC2 SLP170

CYQF;2011-01-17 10:00;CYQF 171000Z 00000KT 15SM BKN050 OVC100 M22/M28 A2978 RMK SC6AC2 SLP172

CYQF;2011-01-17 11:00;CYQF 171100Z 00000KT 15SM SCT050 BKN100 OVC250 M23/M29 A2980 RMK SC3AC2CI2 SLP178

CYQF;2011-01-17 12:00;CYQF 171200Z CCA 00000KT 15SM BKN040 OVC080 M23/M29 A2979 RMK SC6AC2 SLP177

CYQF;2011-01-17 12:37;CYQF 171237Z 00000KT 15SM -SN BKN040 BKN080 BKN250 RMK SC5AC1CI1

CYQF;2011-01-17 13:00;CYQF 171300Z 00000KT 15SM FEW040 SCT080 BKN250 M23/M29 A2978 RMK SC2AC2CI1 IC OBS TAKEN +08 SLP175

CYQF;2011-01-17 14:00;CYQF 171400Z 12003KT 15SM FEW040 FEW080 SCT250 M24/M29 A2976 RMK SC2AC1CI1 SLP166

CYQF;2011-01-17 15:00;CYQF 171500Z 13005KT 15SM BKN080 BKN250 M23/M29 A2973 RMK AC5CI1 SLP157

CYQF;2011-01-17 16:00;CYQF 171600Z 13006KT 15SM BKN080 BKN250 M22/M28 A2974 RMK AC6CI1 SLP159

CYQF;2011-01-17 17:00;CYQF 171700Z 13012KT 15SM BKN080 OVC210 M22/M28 A2973 RMK AC6CI2 SLP157

CYQF;2011-01-17 18:00;CYQF 171800Z 13010G15KT 15SM BKN040 OVC080 M21/M28 A2972 RMK SC6AC2 SLP153

CYQF;2011-01-17 19:00;CYQF 171900Z 14010KT 15SM OVC040 M21/M27 A2969 RMK SC8 SLP143

CYQF;2011-01-17 20:00;CYQF 172000Z 13009KT 15SM FEW040 BKN100 BKN220 M20/M27 A2969 RMK SC2AC3CI1 SLP144

CYQF;2011-01-17 21:00;CYQF 172100Z 12008KT 15SM FEW040 BKN100 BKN220 M20/M26 A2971 RMK SC2AC3CI1 SLP147

CYQF;2011-01-17 22:00;CYQF 172200Z 13003KT 15SM BKN040 OVC100 M19/M26 A2973 RMK SC6AC2 SLP154

CYQF;2011-01-17 22:04;CYQF 172204Z 13005KT 10SM -SN BKN040 OVC100 RMK SC6AC2

CYQF;2011-01-17 22:48;CYQF 172248Z 13006KT 2SM -SN SCT040 BKN100 BKN220 RMK SN2SC2AC1CI2

CYQF;2011-01-17 23:00;CYQF 172300Z 12003KT 4SM -SN FEW040 BKN100 BKN220 M19/M25 A2976 RMK SC2AC3CI1 SLP163

CYQF;2011-01-17 23:26;CYQF 172326Z 00000KT 10SM SCT100 BKN220 RMK AC3CI2

CYQF;2011-01-18 00:00;CYQF 180000Z 16005KT 12SM SCT100 BKN220 M20/M26 A2979 RMK AC3CI2 SLP175

CYQF;2011-01-18 01:00;CYQF 180100Z 18003KT 15SM BKN100 BKN220 M19/M25 A2983 RMK AC5CI2 SLP187

CYQF;2011-01-18 02:00;CYQF 180200Z 18006KT 15SM BKN017 BKN050 OVC100 M19/M25 A2983 RMK SC5SC2AC2 SLP189

CYQF;2011-01-18 03:00;CYQF 180300Z 22002KT 10SM -SN SCT015 OVC050 M18/M24 A2986 RMK SC3SC5 SLP199

CYQF;2011-01-18 04:00;CYQF 180400Z 24006KT 10SM -SN FEW015 BKN050 OVC100 M17/M23 A2988 RMK SC2SC4AC2 SLP207

CYQF;2011-01-18 04:52;CYQF 180452Z 22005KT 15SM BKN050 BKN100 RMK SC5AC2

CYQF;2011-01-18 05:00;CYQF 180500Z 29002KT 15SM BKN050 BKN100 M16/M21 A2990 RMK SC5AC2 SLP211

CYQF;2011-01-18 06:00;CYQF 180600Z 28006KT 15SM FEW050 BKN100 M14/M20 A2992 RMK SC2AC4 SLP212

CYQF;2011-01-18 07:00;CYQF 180700Z 26003KT 15SM FEW050 BKN100 M14/M19 A2991 RMK SC2AC4 SLP211

CYQF;2011-01-18 08:00;CYQF 180800Z 22004KT 15SM FEW050 SCT100 M17/M22 A2991 RMK SC1AC2 SLP210

CYQF;2011-01-18 09:00;CYQF 180900Z 19006KT 15SM FEW050 SCT100 M20/M25 A2991 RMK SC1AC2 SLP213

CYQF;2011-01-18 10:00;CYQF 181000Z 16010KT 15SM FEW050 SCT100 BKN250 M17/M22 A2992 RMK SC2AC2CI1 SLP217

CYQF;2011-01-18 11:00;CYQF 181100Z 18006KT 15SM FEW100 FEW250 M17/M22 A2992 RMK AC2CI0 SLP216

CYQF;2011-01-18 12:00;CYQF 181200Z 18004KT 15SM FEW100 FEW250 M17/M22 A2992 RMK AC2CI0 SLP214

CYQF;2011-01-18 13:00;CYQF 181300Z 20007KT 15SM FEW080 SCT250 M19/M24 A2990 RMK AC2CI0 SLP209

CYQF;2011-01-18 14:00;CYQF 181400Z 20007KT 15SM FEW080 FEW250 M17/M21 A2991 RMK AC1CI0 SLP211

CYQF;2011-01-18 15:00;CYQF 181500Z 21009KT 15SM FEW080 BKN250 M17/M21 A2992 RMK AC2CI2 SLP212

CYQF;2011-01-18 16:00;CYQF 181600Z 18006KT 15SM FEW080 BKN250 M17/M22 A2991 RMK AC2CI3 SLP211

CYQF;2011-01-18 17:00;CYQF 181700Z 23009KT 15SM FEW080 BKN250 M13/M18 A2991 RMK AC2CI3 SLP209

CYQF;2011-01-18 18:00;CYQF 181800Z 22006KT 15SM FEW040 FEW080 BKN250 M11/M17 A2990 RMK SC1AC2CI2 SLP196

CYQF;2011-01-18 19:00;CYQF 181900Z 21006KT 15SM FEW040 FEW090 BKN250 M09/M16 A2989 RMK SC1AC2CI3 SLP192

CYQF;2011-01-18 20:00;CYQF 182000Z 25002KT 15SM BKN090 BKN250 M08/M14 A2986 RMK AC6CI1 SLP183

CYQF;2011-01-18 21:00;CYQF 182100Z 22002KT 15SM BKN090 BKN250 M06/M13 A2986 RMK AC6CI1 SLP181

CYQF;2011-01-18 22:00;CYQF 182200Z 27006KT 15SM BKN090 BKN250 M07/M14 A2987 RMK AC5CI2 SLP183

CYQF;2011-01-18 23:00;CYQF 182300Z 28006KT 15SM SCT090 BKN250 M08/M15 A2988 RMK AC3CI3 SLP186

CYQF;2011-01-19 00:00;CYQF 190000Z 27006KT 15SM BKN100 BKN250 M08/M15 A2988 RMK AC5CI2 SLP186

CYQF;2011-01-19 01:00;CYQF 190100Z 24004KT 15SM SCT100 BKN250 M08/M16 A2987 RMK AC4CI2 SLP184

CYQF;2011-01-19 02:00;CYQF 190200Z 23005KT 15SM SCT100 BKN250 M12/M17 A2987 RMK AC4CI2 SLP183

CYQF;2011-01-20 07:00;CYQF 200700Z 14012KT 15SM OVC030 M12/M16 A3010 RMK SC7 SLP257

CYQF;2011-01-20 08:00;CYQF 200800Z 15008KT 15SM SCT010 OVC030 M12/M16 A3006 RMK SC3SC5 SLP247

CYQF;2011-01-20 08:38;CYQF 200838Z 16011KT 15SM BKN010 OVC030 RMK SC6SC2

CYQF;2011-01-20 09:00;CYQF 200900Z 16010KT 15SM BKN010 OVC030 M11/M16 A3000 RMK SC6SC2 PRESFR SLP220

CYQF;2011-01-20 09:35;CYQF 200935Z 16015G20KT 6SM BLSN SCT010 BKN030 RMK SC3SC2

CYQF;2011-01-20 10:00;CYQF 201000Z 15010G17KT 3SM -SN BLSN BKN010 OVC030 M12/M16 A2993 RMK SC6SC2 PRESFR SLP199

CYQF;2011-01-20 10:17;CYQF 201017Z 16015G23KT 1SM -SN BLSN OVC010 RMK SC8

CYQF;2011-01-20 10:44;CYQF 201044Z 15015G20KT 3SM -SN BLSN BKN010 OVC030 RMK SC6SC2

CYQF;2011-01-20 11:00;CYQF 201100Z 15015G20KT 5SM -SN BLSN BKN010 BKN030 M12/M17 A2985 RMK SC5SC2 PRESFR SLP176

CYQF;2011-01-20 11:26;CYQF 201126Z 15011G16KT 10SM DRSN SCT010 BKN030 RMK SC3SC2

CYQF;2011-01-20 12:00;CYQF 201200Z 14010G15KT 10SM DRSN BKN030 OVC100 M12/M17 A2980 RMK SC5AS3 SLP155

CYQF;2011-01-20 13:00;CYQF 201300Z 16010G15KT 10SM DRSN SCT030 BKN100 M13/M18 A2976 RMK SC3AS2 SLP143

CYQF;2011-01-20 14:00;CYQF 201400Z 16010KT 10SM SCT030 BKN075 M13/M18 A2971 RMK SC3AS2 SLP127

CYQF;2011-01-20 14:08;CYQF 201408Z 15008KT 4SM -SN BKN032 OVC075 RMK SC6AS2

CYQF;2011-01-20 14:28;CYQF 201428Z 14005KT 1SM -SN OVC030 RMK SN4SC4

CYQF;2011-01-20 14:58;CYQF 201458Z 14007KT 5SM -SN BKN030 OVC070 RMK SC6AC2

CYQF;2011-01-20 15:00;CYQF 201500Z 14007KT 5SM -SN BKN030 OVC070 M12/M16 A2965 RMK SC6AC2 SLP103

CYQF;2011-01-20 15:50;CYQF 201550Z 15004KT 10SM SCT030 OVC070 RMK SC2AC6

CYQF;2011-01-20 16:00;CYQF 201600Z 16005KT 12SM SCT030 OVC070 M11/M15 A2961 RMK SC4AC4 SLP092

CYQF;2011-01-20 17:00;CYQF 201700Z 18003KT 12SM BKN030 OVC070 M11/M15 A2959 RMK SC6AC2 SLP085

CYQF;2011-01-20 18:00;CYQF 201800Z 18004KT 15SM FEW030 BKN070 OVC250 M09/M14 A2956 RMK SC2AC4CI1 SLP072

CYQF;2011-01-20 20:00;CYQF 202000Z 00000KT 15SM BKN100 OVC250 M07/M12 A2955 RMK AS6CI2 SLP068

CYQF;2011-01-20 21:00;CYQF 202100Z 19003KT 15SM OVC100 M06/M11 A2955 RMK AS8 SLP062

CYQF;2011-01-20 22:00;CYQF 202200Z 25006KT 15SM OVC100 M04/M09 A2955 RMK AS8 SLP062

CYQF;2011-01-20 23:00;CYQF 202300Z 23004KT 15SM BKN080 BKN120 M04/M09 A2956 RMK AC6AS1 SLP067

CYQF;2011-01-21 00:00;CYQF 210000Z 25007KT 15SM SCT080 BKN120 BKN250 M01/M08 A2957 RMK AC3AC2CI2 SLP067

CYQF;2011-01-21 01:00;CYQF 210100Z 28005KT 15SM SCT100 BKN250 M02/M09 A2959 RMK AC4CI2 SLP071

CYQF;2011-01-21 02:00;CYQF 210200Z 28002KT 15SM BKN100 BKN250 M02/M08 A2960 RMK AC5CI2 SLP075

CYQF;2011-01-21 03:00;CYQF 210300Z 24004KT 15SM BKN100 BKN250 M02/M09 A2961 RMK AC6CI2 SLP082

CYQF;2011-01-21 04:00;CYQF 210400Z 26005KT 15SM OVC090 M01/M09 A2964 RMK AC8 VIRGA N SLP089

CYQF;2011-01-21 05:00;CYQF 210500Z 29010KT 15SM OVC090 00/M08 A2967 RMK AC8 SLP101

CYQF;2011-01-21 06:00;CYQF 210600Z 29008KT 15SM OVC090 02/M08 A2969 RMK AC8 SLP100

CYQF;2011-01-21 08:00;CYQF 210800Z 18006KT 15SM FEW030 OVC090 M01/M08 A2972 RMK SC2AC6 VIRGA SLP110

CYQF;2011-01-21 09:00;CYQF 210900Z 19002KT 15SM FEW030 OVC090 M02/M08 A2974 RMK SC2AC6 VIRGA SLP119

CYQF;2011-01-21 10:00;CYQF 211000Z 18004KT 15SM FEW030 OVC090 M02/M09 A2976 RMK SC2AC6 VIRGA SLP123

CYQF;2011-01-21 11:00;CYQF 211100Z 20005KT 15SM BKN090 M03/M09 A2976 RMK AC7 SLP124

CYQF;2011-01-21 12:00;CYQF 211200Z 22006KT 15SM BKN090 M02/M09 A2976 RMK AC6 SLP119

CYQF;2011-01-21 13:00;CYQF 211300Z 21007KT 15SM BKN090 M02/M10 A2975 RMK AC3 SLP117

CYQF;2011-01-21 14:00;CYQF 211400Z 18005KT 15SM SCT100 M06/M13 A2976 RMK AC2 SLP119

CYQF;2011-01-21 16:00;CYQF 211600Z 18003KT 15SM FEW100 BKN210 M10/M16 A2973 RMK AC1CI1 SLP120

CYQF;2011-01-21 17:00;CYQF 211700Z 00000KT 15SM FEW100 BKN210 M07/M14 A2970 RMK AC1CI4 SLP111

CYQF;2011-01-21 18:00;CYQF 211800Z 18003KT 15SM SCT100 BKN210 M05/M13 A2968 RMK AC3CI2 SLP094

CYQF;2011-01-21 19:00;CYQF 211900Z 14002KT 15SM FEW100 BKN210 M04/M13 A2964 RMK AC2CI2 SLP081

CYQF;2011-01-21 20:00;CYQF 212000Z 14002KT 15SM FEW120 BKN210 M03/M12 A2959 RMK AC2CI2 SLP065

CYQF;2011-01-21 21:00;CYQF 212100Z 00000KT 15SM BKN150 OVC210 M02/M09 A2956 RMK AC5CI2 SLP050

CYQF;2011-01-21 22:00;CYQF 212200Z 13005KT 15SM BKN150 OVC220 M01/M09 A2953 RMK AC5CI2 SLP041

CYQF;2011-01-21 23:00;CYQF 212300Z 19006KT 15SM FEW080 OVC150 M02/M09 A2949 RMK AC2AC6 SLP031

CYQF;2011-01-22 00:00;CYQF 220000Z 26004KT 15SM FEW080 OVC120 M03/M09 A2949 RMK AC2AC6 SLP027

CYQF;2011-01-22 01:00;CYQF 220100Z 28002KT 15SM -SN BKN050 OVC100 M02/M08 A2947 RMK SC5AC3 SLP023

CYQF;2011-01-22 01:18;CYQF 220118Z 30005KT 12SM -SN -FZRA BKN040 OVC080 RMK SC6AS2

CYQF;2011-01-22 01:33;CYQF 220133Z 30007KT 15SM BKN040 OVC080 REFZRA RMK SC6AS2

CYQF;2011-01-22 01:52;CYQF 220152Z 35006KT 15SM -FZRA BKN040 OVC080 RMK SC7AS1

CYQF;2011-01-22 02:00;CYQF 220200Z 35004KT 15SM -FZRA OVC040 M01/M05 A2947 RMK SC8 SLP021

CYQF;2011-01-22 02:32;CYQF 220232Z 34005KT 15SM -RA OVC040 REFZRA RMK SC8

CYQF;2011-01-22 03:00;CYQF 220300Z 01004KT 15SM -FZRA OVC040 M00/M03 A2947 RMK SC8 SLP028

CYQF;2011-01-22 03:20;CYQF 220320Z 04003KT 15SM OVC040 REFZRA RMK SC8

CYQF;2011-01-22 04:00;CYQF 220400Z 19004KT 15SM OVC040 M02/M05 A2948 REFZRA RMK SC8 SLP029

CYQF;2011-01-22 05:00;CYQF 220500Z 23003KT 15SM OVC040 M01/M05 A2949 RMK SC8 SLP034

CYQF;2011-01-22 06:00;CYQF 220600Z 27004KT 10SM OVC040 M01/M04 A2954 RMK SC8 SLP046

CYQF;2011-01-22 07:00;CYQF 220700Z 32008KT 10SM OVC040 M02/M06 A2957 RMK SC6 SLP058

CYQF;2011-01-22 08:00;CYQF 220800Z 27004KT 10SM OVC040 M03/M07 A2960 RMK SC7 SLP066

CYQF;2011-01-22 09:00;CYQF 220900Z 24002KT 12SM OVC040 M03/M07 A2964 RMK SC6 SLP081

CYQF;2011-01-22 10:00;CYQF 221000Z 00000KT 12SM BKN040 M03/M06 A2967 RMK SC6 SLP091

CYQF;2011-01-22 11:00;CYQF 221100Z 00000KT 12SM BKN050 M03/M07 A2970 RMK SC5 SLP100

CYQF;2011-01-22 12:00;CYQF 221200Z 23003KT 15SM FEW050 M07/M11 A2974 RMK SC1 SLP120

CYQF;2011-01-22 13:00;CYQF 221300Z 20004KT 15SM FEW050 M07/M11 A2975 RMK SC1 SLP124

CYQF;2011-01-22 14:00;CYQF 221400Z 24005KT 15SM FEW050 FEW240 M08/M14 A2978 RMK SC1CI1 SLP133

CYQF;2011-01-22 15:00;CYQF 221500Z 22005KT 15SM FEW050 SCT210 M10/M15 A2979 RMK SC1CI1 SLP139

CYQF;2011-01-22 16:00;CYQF 221600Z 21008KT 15SM FEW100 SCT210 M10/M15 A2981 RMK AC1CI1 SLP145

CYQF;2011-01-22 17:00;CYQF 221700Z 22007KT 15SM FEW250 M06/M13 A2982 RMK CI1 SLP147

CYQF;2011-01-22 18:00;CYQF 221800Z 22008KT 15SM FEW250 M04/M12 A2981 RMK CI0 SLP138

CYQF;2011-01-22 19:00;CYQF 221900Z 21008KT 15SM FEW250 M02/M11 A2981 RMK CI1 SLP138

CYQF;2011-01-22 20:00;CYQF 222000Z 18005KT 15SM BKN210 00/M09 A2980 RMK CI3 SLP136

CYQF;2011-01-22 21:00;CYQF 222100Z 17004KT 15SM BKN210 M00/M09 A2979 RMK CI2 SLP131

CYQF;2011-01-22 22:00;CYQF 222200Z 17008KT 15SM BKN250 M01/M09 A2978 RMK CI2 SLP129

CYQF;2011-01-22 23:00;CYQF 222300Z 17006KT 15SM FEW120 BKN250 M02/M10 A2975 RMK AC2CI3 SLP119

CYQF;2011-01-23 00:00;CYQF 230000Z 21008KT 15SM FEW120 BKN250 M03/M10 A2974 RMK AC2CI4 SLP120

CYQF;2011-01-23 01:00;CYQF 230100Z 21007KT 15SM FEW120 BKN250 M02/M10 A2972 RMK AC2CI3 SLP114

CYQF;2011-01-23 02:00;CYQF 230200Z 20004KT 15SM FEW120 BKN250 M05/M12 A2968 RMK AC2CI2 SLP103

CYQF;2011-01-23 03:00;CYQF 230300Z 17007KT 15SM FEW120 BKN250 M04/M11 A2964 RMK AC2CI2 SLP090

CYQF;2011-01-23 04:00;CYQF 230400Z 17003KT 15SM FEW120 BKN250 M04/M12 A2960 RMK AC2CI2 SLP078

CYQF;2011-01-23 05:00;CYQF 230500Z 20007KT 15SM FEW120 BKN250 M05/M12 A2955 RMK AC2CI2 SLP063

CYQF;2011-01-23 06:00;CYQF 230600Z 18004KT 15SM BKN100 OVC250 M03/M11 A2953 RMK AC6CI2 SLP044

CYQF;2011-01-23 07:00;CYQF 230700Z 00000KT 15SM OVC100 M01/M10 A2951 RMK AC8 SLP037

CYQF;2011-01-23 08:00;CYQF 230800Z 25002KT 15SM OVC100 M02/M10 A2952 RMK AC8 SLP039

CYQF;2011-01-23 09:00;CYQF 230900Z 25007KT 15SM BKN110 03/M09 A2952 RMK AC6 SLP030

CYQF;2011-01-23 10:00;CYQF 231000Z 27015G20KT 15SM BKN110 04/M08 A2954 RMK AC4 SLP037

CYQF;2011-01-23 11:00;CYQF 231100Z 27011G16KT 15SM FEW120 03/M08 A2956 RMK AC2 SLP041

CYQF;2011-01-23 12:00;CYQF 231200Z 26010G15KT 15SM FEW120 03/M09 A2957 RMK AC1 SLP052

CYQF;2011-01-23 13:00;CYQF 231300Z 26008KT 15SM FEW120 FEW240 M01/M10 A2958 RMK AC1CI1 SLP055

CYQF;2011-01-23 14:00;CYQF 231400Z 25007KT 15SM FEW120 M01/M11 A2959 RMK AC2 SLP058

CYQF;2011-01-23 15:00;CYQF 231500Z 27005KT 15SM SCT120 M03/M11 A2961 RMK AC3 SLP072

CYQF;2011-01-23 16:00;CYQF 231600Z 29010KT 15SM BKN100 00/M10 A2966 RMK AC6 SLP087

CYQF;2011-01-23 17:00;CYQF 231700Z CCA 30020G32KT 15SM BKN100 02/M08 A2970 RMK AC7 SLP099

CYQF;2011-01-23 18:00;CYQF 231800Z 31015G25KT 15SM FEW005 BKN080 01/M08 A2972 RMK SF2AC3 SLP104

CYQF;2011-01-23 19:00;CYQF 231900Z 30015G20KT 15SM SCT080 01/M08 A2974 RMK AC3 VIRGA SLP111

CYQF;2011-01-23 20:00;CYQF 232000Z 30017G27KT 15SM DRSN FEW080 FEW250 02/M08 A2976 RMK AC1CI1 SLP117

CYQF;2011-01-23 21:00;CYQF 232100Z 29015G25KT 15SM DRSN FEW035 FEW080 FEW250 02/M07 A2978 RMK CU1AC1CI1 SLP119

CYQF;2011-01-23 22:00;CYQF 232200Z 30015G20KT 15SM DRSN FEW030 FEW250 02/M08 A2982 RMK CU1CI1 SLP130

CYQF;2011-01-23 23:00;CYQF 232300Z 30010G15KT 15SM FEW080 02/M09 A2985 RMK AC1 SLP138

CYQF;2011-01-24 00:00;CYQF 240000Z 31011KT 15SM SKC 01/M09 A2988 RMK SLP152

CYQF;2011-01-24 01:00;CYQF 240100Z 28005KT 15SM SKC M04/M11 A2991 RMK SLP163

CYQF;2011-01-24 02:00;CYQF 240200Z 00000KT 15SM SKC M06/M13 A2995 RMK SLP174

CYQF;2011-01-24 03:00;CYQF 240300Z 00000KT 15SM SKC M07/M14 A2995 RMK SLP195

CYQF;2011-01-24 04:00;CYQF 240400Z 21003KT 15SM SKC M09/M16 A2997 RMK SLP202

CYQF;2011-01-24 05:00;CYQF 240500Z 23007KT 15SM SKC M10/M16 A2998 RMK SLP205

CYQF;2011-01-24 06:00;CYQF 240600Z 18004KT 15SM SKC M09/M15 A2998 RMK SLP202

CYQF;2011-01-24 07:00;CYQF 240700Z 17005KT 15SM SKC M13/M19 A2998 RMK SLP203

CYQF;2011-01-24 08:00;CYQF 240800Z 17004KT 15SM SKC M13/M18 A2998 RMK SLP201

CYQF;2011-01-24 09:00;CYQF 240900Z 16004KT 15SM SCT240 M13/M18 A2996 RMK CS2 SLP198

CYQF;2011-01-24 10:00;CYQF 241000Z 15007KT 15SM BKN240 M10/M16 A2992 RMK CS4 SLP185

CYQF;2011-01-24 11:00;CYQF 241100Z 16005KT 15SM OVC240 M05/M12 A2991 RMK CS6 SLP182

CYQF;2011-01-24 12:00;CYQF 241200Z 16005KT 15SM BKN240 M04/M12 A2984 RMK CS3 PRESFR SLP149

CYQF;2011-01-24 13:00;CYQF 241300Z 13010G15KT 15SM FEW120 BKN240 M03/M11 A2978 RMK AS2CS2 PRESFR SLP129

CYQF;2011-01-24 14:00;CYQF 241400Z 16010G16KT 15SM SCT240 M05/M13 A2976 RMK CS2 SLP123

CYQF;2011-01-24 15:00;CYQF 241500Z 17006KT 15SM FEW100 BKN250 M07/M14 A2973 RMK AC2CI2 SLP124

CYQF;2011-01-24 16:00;CYQF 241600Z 16004KT 15SM FEW100 BKN250 M07/M13 A2973 RMK AC2CI2 SLP124

CYQF;2011-01-24 17:00;CYQF 241700Z 16005KT 15SM FEW070 BKN100 OVC250 M06/M12 A2973 RMK AC2AC3CI1 SLP122

CYQF;2011-01-24 18:00;CYQF 241800Z 00000KT 15SM BKN090 OVC250 M04/M11 A2974 RMK AC6CI1 SLP126

CYQF;2011-01-24 19:00;CYQF 241900Z 00000KT 15SM BKN090 OVC250 M03/M11 A2974 RMK AC6CI1 SLP125

CYQF;2011-01-24 20:00;CYQF 242000Z 21003KT 15SM BKN090 OVC250 M02/M09 A2974 RMK AC6CI1 SLP126

CYQF;2011-01-24 21:00;CYQF 242100Z 19004KT 15SM BKN090 BKN250 M00/M09 A2976 RMK AC6CI2 SLP130

CYQF;2011-01-24 22:00;CYQF 242200Z 00000KT 15SM FEW070 OVC100 00/M08 A2976 RMK AC2AC4 SLP133

CYQF;2011-01-24 23:00;CYQF 242300Z 24003KT 15SM OVC100 M00/M08 A2979 RMK AC8 SLP141

CYQF;2011-01-25 00:00;CYQF 250000Z 00000KT 15SM OVC100 M01/M08 A2981 RMK AC8 SLP140

CYQF;2011-01-25 01:00;CYQF 250100Z 17003KT 15SM OVC100 M02/M08 A2983 RMK AC8 SLP145

CYQF;2011-01-25 02:00;CYQF 250200Z 00000KT 15SM OVC100 M03/M09 A2983 RMK AC8 SLP147

CYQF;2011-01-25 03:00;CYQF 250300Z 22005KT 15SM OVC100 M03/M09 A2985 RMK AC8 SLP157

CYQF;2011-01-25 04:00;CYQF 250400Z 00000KT 15SM BKN100 M03/M09 A2985 RMK AC7 SLP160

CYQF;2011-01-25 05:00;CYQF 250500Z 19003KT 15SM BKN100 M06/M11 A2988 RMK AC6 SLP168

CYQF;2011-01-25 06:00;CYQF 250600Z 19004KT 15SM SCT100 M06/M12 A2989 RMK AC3 SLP173

CYQF;2011-01-25 07:00;CYQF 250700Z 00000KT 15SM BKN100 M07/M12 A2989 RMK AC5 SLP173

CYQF;2011-01-25 08:00;CYQF 250800Z 20004KT 15SM SCT100 M07/M12 A2989 RMK AC4 SLP175

CYQF;2011-01-25 09:00;CYQF 250900Z 19004KT 15SM FEW090 SCT250 M05/M11 A2989 RMK AC2CI1 SLP167

CYQF;2011-01-25 10:00;CYQF 251000Z 00000KT 15SM SCT090 BKN250 M07/M12 A2991 RMK AC4CI1 SLP173

CYQF;2011-01-25 11:00;CYQF 251100Z 00000KT 15SM SCT090 BKN250 M09/M13 A2991 RMK AC3CI1 SLP175

CYQF;2011-01-25 12:00;CYQF 251200Z 00000KT 15SM BKN090 BKN250 M09/M13 A2991 RMK AC5CI1 SLP181

CYQF;2011-01-25 13:00;CYQF 251300Z 21005KT 15SM FEW090 SCT250 M08/M13 A2990 RMK AC2CI0 SLP176

CYQF;2011-01-25 14:00;CYQF 251400Z 21005KT 15SM FEW090 SCT250 M08/M13 A2991 RMK AC2CI0 SLP180

CYQF;2011-01-25 15:00;CYQF 251500Z 22003KT 15SM SCT090 BKN250 M09/M13 A2991 RMK AC4CI2 SLP181

CYQF;2011-01-25 16:00;CYQF 251600Z 18003KT 15SM FEW050 BKN100 BKN250 M07/M11 A2992 RMK SC2AC3CI2 SLP185

CYQF;2011-01-25 17:00;CYQF 251700Z 23004KT 15SM SCT050 BKN100 M07/M12 A2996 RMK SC4AC2 SLP197

CYQF;2011-01-25 18:00;CYQF 251800Z 16003KT 15SM FEW050 SCT100 SCT250 M04/M09 A2997 RMK SC2ACC2CI1 SLP203

CYQF;2011-01-25 19:00;CYQF 251900Z 16004KT 15SM FEW070 M02/M08 A2997 RMK AC2 SLP203

CYQF;2011-01-25 20:00;CYQF 252000Z 17004KT 15SM FEW050 M01/M08 A2996 RMK SC1 SLP198

CYQF;2011-01-25 21:00;CYQF 252100Z 16005KT 15SM FEW250 01/M07 A2995 RMK CI1 SLP187

CYQF;2011-01-25 22:00;CYQF 252200Z 17006KT 15SM FEW070 FEW250 01/M07 A2995 RMK AC1CI0 SLP186

CYQF;2011-01-25 23:00;CYQF 252300Z 18004KT 15SM FEW070 BKN250 01/M07 A2994 RMK AC1CI1 SLP185

CYQF;2011-01-26 00:00;CYQF 260000Z 18005KT 15SM FEW090 BKN250 M01/M08 A2994 RMK AC2CI0 SLP190

CYQF;2011-01-26 01:00;CYQF 260100Z 17003KT 15SM FEW090 BKN250 M03/M09 A2995 RMK AC2CI1 SLP192

CYQF;2011-01-26 02:00;CYQF 260200Z 00000KT 15SM FEW090 BKN250 M06/M11 A2995 RMK AC1CI1 SLP192

CYQF;2011-01-26 03:00;CYQF 260300Z 19003KT 15SM FEW090 BKN250 M06/M11 A2996 RMK AC2CI2 SLP203

CYQF;2011-01-26 04:00;CYQF 260400Z 17003KT 15SM FEW100 OVC250 M06/M12 A2995 RMK AC2CI5 SLP200

CYQF;2011-01-26 05:00;CYQF 260500Z 18004KT 15SM BKN250 M06/M12 A2993 RMK CI2 SLP194

CYQF;2011-01-26 06:00;CYQF 260600Z 17004KT 15SM FEW100 BKN250 M04/M11 A2992 RMK AC2CI2 SLP181

CYQF;2011-01-26 07:00;CYQF 260700Z 18005KT 15SM FEW100 SCT250 M05/M12 A2991 RMK AC2CI2 SLP177

CYQF;2011-01-26 08:00;CYQF 260800Z 21006KT 15SM FEW100 SCT250 M06/M13 A2990 RMK AC2CI1 SLP176

CYQF;2011-01-26 09:00;CYQF 260900Z 17005KT 15SM FEW100 SCT250 M05/M12 A2986 RMK AC2CI1 SLP156

CYQF;2011-01-26 10:00;CYQF 261000Z 20004KT 15SM SCT100 BKN250 M03/M11 A2985 RMK AC3CI1 SLP151

CYQF;2011-01-26 11:00;CYQF 261100Z 20004KT 15SM FEW100 SCT250 M03/M11 A2982 RMK AC2CI1 SLP143

CYQF;2011-01-26 12:00;CYQF 261200Z 20004KT 15SM SCT100 BKN250 M04/M11 A2982 RMK AC3CI2 SLP143

CYQF;2011-01-26 13:00;CYQF 261300Z 00000KT 15SM BKN120 OVC250 M01/M08 A2981 RMK AC5CI2 SLP140

CYQF;2011-01-26 14:00;CYQF 261400Z 00000KT 15SM BKN120 OVC250 M01/M08 A2980 RMK AC5CI2 SLP136

CYQF;2011-01-26 16:00;CYQF 261600Z 17002KT 15SM FEW050 BKN100 M01/M07 A2980 RMK SC2AC4 SLP137

CYQF;2011-01-26 17:00;CYQF 261700Z 00000KT 15SM FEW050 SCT100 BKN250 M01/M07 A2981 RMK SC2AC2CI1 SLP140

CYQF;2011-01-26 18:00;CYQF 261800Z 17002KT 15SM FEW060 BKN100 01/M07 A2981 RMK SC2AC3 SLP139

CYQF;2011-01-26 19:00;CYQF 261900Z 20006KT 15SM FEW100 SCT250 00/M07 A2980 RMK AC2CI2 SLP135

CYQF;2011-01-26 20:00;CYQF 262000Z 00000KT 15SM FEW100 BKN250 03/M06 A2979 RMK AC2CI2 SLP132

CYQF;2011-01-26 21:00;CYQF 262100Z 16005KT 15SM FEW100 BKN250 04/M05 A2979 RMK AC1CI3 SLP127

CYQF;2011-01-26 22:00;CYQF 262200Z 00000KT 15SM FEW050 FEW100 BKN250 04/M04 A2981 RMK CU1AC2CI2 SLP133

CYQF;2011-01-26 23:00;CYQF 262300Z 00000KT 15SM FEW050 SCT100 BKN250 03/M05 A2980 RMK SC1AC2CI3 SLP131

CYQF;2011-01-27 00:00;CYQF 270000Z 23004KT 15SM FEW050 SCT100 BKN250 01/M05 A2981 RMK SC1AC2CI2 SLP138

CYQF;2011-01-27 01:00;CYQF 270100Z 25003KT 15SM FEW050 BKN100 BKN250 01/M06 A2983 RMK SC1AC5CI1 SLP142

CYQF;2011-01-27 02:00;CYQF 270200Z 21002KT 15SM BKN100 OVC250 03/M05 A2984 RMK AC5CI2 SLP147

CYQF;2011-01-27 03:00;CYQF 270300Z 23004KT 15SM FEW100 03/M05 A2985 RMK AC2 SLP145

CYQF;2011-01-27 04:00;CYQF 270400Z 22006KT 15SM SCT100 04/M05 A2985 RMK AC2 SLP144

CYQF;2011-01-27 05:00;CYQF 270500Z 22007KT 15SM FEW100 M01/M08 A2985 RMK AC2 SLP147

CYQF;2011-01-27 06:00;CYQF 270600Z 22008KT 15SM BKN100 00/M07 A2986 RMK AC6 SLP149

CYQF;2011-01-27 07:00;CYQF 270700Z 06002KT 15SM BKN100 OVC250 M02/M08 A2986 RMK AC6CI1 SLP151

CYQF;2011-01-27 08:00;CYQF 270800Z 18001KT 15SM BKN100 OVC250 M04/M09 A2986 RMK AC6CI2 SLP150

CYQF;2011-01-27 09:00;CYQF 270900Z 00000KT 15SM BKN100 M04/M08 A2986 RMK AC7 SLP151

CYQF;2011-01-27 10:00;CYQF 271000Z 00000KT 15SM BKN100 M04/M09 A2986 RMK AC7 SLP150

CYQF;2011-01-27 11:00;CYQF 271100Z 00000KT 15SM BKN100 OVC250 M05/M10 A2985 RMK AC7CI0 SLP147

CYQF;2011-01-27 12:00;CYQF 271200Z 19004KT 15SM BKN100 OVC250 M02/M08 A2982 RMK AC6CI2 SLP139

CYQF;2011-01-27 13:00;CYQF 271300Z 18006KT 15SM SCT100 BKN250 M04/M10 A2980 RMK AC4CI2 SLP133

CYQF;2011-01-27 14:00;CYQF 271400Z 19008KT 15SM FEW100 SCT250 M03/M09 A2978 RMK AC1CI2 SLP128

CYQF;2011-01-27 15:00;CYQF 271500Z 15005KT 15SM FEW100 BKN250 01/M07 A2976 RMK AC2CI2 SLP111

CYQF;2011-01-27 16:00;CYQF 271600Z 21006KT 15SM SCT100 BKN250 02/M06 A2975 RMK AC3CI2 SLP109

CYQF;2011-01-27 17:00;CYQF 271700Z 17003KT 15SM BKN100 BKN250 03/M06 A2974 RMK AC2CI4 SLP106

CYQF;2011-01-27 18:00;CYQF 271800Z 21010G15KT 15SM BKN100 BKN250 04/M04 A2972 RMK AC5CI2 SLP098

CYQF;2011-01-27 19:00;CYQF 271900Z 21010KT 15SM FEW040 BKN100 BKN250 04/M04 A2970 RMK CU1AC5CI2 SLP092

CYQF;2011-01-27 20:00;CYQF 272000Z 20007KT 15SM FEW040 FEW100 BKN250 05/M03 A2967 RMK SC1AC2CI4 SLP082

CYQF;2011-01-27 21:00;CYQF 272100Z 20002KT 15SM FEW040 SCT100 BKN250 05/M03 A2966 RMK CU1AC2CI2 SLP078

CYQF;2011-01-27 22:00;CYQF 272200Z 16004KT 15SM FEW040 BKN250 09/M02 A2963 RMK CU1CI2 SLP071

CYQF;2011-01-27 23:00;CYQF 272300Z 20007KT 15SM FEW040 FEW100 BKN250 05/M04 A2962 RMK SC1AC1CI2 SLP066

CYQF;2011-01-28 00:00;CYQF 280000Z CCA 20006KT 15SM FEW040 SCT250 05/M04 A2961 RMK SC1CI1 SC TR SLP061

CYQF;2011-01-28 01:00;CYQF 280100Z 25007KT 15SM FEW040 FEW100 SCT250 05/M06 A2959 RMK SC1AC1CI0 SLP056

CYQF;2011-01-28 02:00;CYQF 280200Z 24007KT 15SM FEW100 05/M05 A2958 RMK AC1 SLP054

CYQF;2011-01-28 03:00;CYQF 280300Z 27010KT 15SM SKC 06/M05 A2959 RMK SLP049

CYQF;2011-01-28 04:00;CYQF 280400Z 26008KT 15SM FEW100 04/M05 A2959 RMK AC1 SLP050

CYQF;2011-01-28 04:40;CYQF 280440Z 35020G30KT 15SM FEW100 RMK AC2 WND SHFT

CYQF;2011-01-28 05:00;CYQF 280500Z 35015G25KT 15SM FEW100 04/M04 A2966 RMK AC2 PRESRR SLP071

CYQF;2011-01-28 06:00;CYQF 280600Z 25008KT 15SM SCT100 03/M04 A2971 RMK AC3 SLP090

CYQF;2011-01-28 07:00;CYQF 280700Z 31006KT 15SM FEW100 M00/M06 A2975 RMK AC2 SLP102

CYQF;2011-01-28 08:00;CYQF 280800Z 32006KT 15SM SCT100 M00/M07 A2978 RMK AC4 SLP113

CYQF;2011-01-28 09:00;CYQF 280900Z 31010G20KT 15SM SCT100 01/M11 A2981 RMK AC4 SLP128

CYQF;2011-01-28 10:00;CYQF 281000Z 29010KT 15SM BKN075 00/M11 A2985 RMK AC7 SLP140

CYQF;2011-01-28 11:00;CYQF 281100Z 30010KT 15SM OVC075 M00/M10 A2988 RMK AC8 SLP149

CYQF;2011-01-28 12:00;CYQF 281200Z 30010G15KT 15SM BKN075 M01/M11 A2990 RMK AC7 SLP159

CYQF;2011-01-28 13:00;CYQF 281300Z 30010G15KT 15SM OVC075 M01/M11 A2992 RMK AC8 SLP165

CYQF;2011-01-28 14:00;CYQF 281400Z 31010KT 15SM OVC075 M02/M11 A2993 RMK AC8 SLP168

CYQF;2011-01-28 15:00;CYQF 281500Z 29010G15KT 15SM BKN030 OVC100 M02/M10 A2994 RMK SC6AC2 SLP175

CYQF;2011-01-28 16:00;CYQF 281600Z 29010KT 15SM OVC030 M02/M10 A2995 RMK SC8 SLP177

CYQF;2011-01-28 16:36;CYQF 281636Z 29004KT 10SM -SHGS OVC030 RMK SC8

CYQF;2011-01-28 17:00;CYQF 281700Z 29007KT 10SM -SHGS OVC025 M02/M09 A2996 RMK SC8 VIS N 5 SLP181

CYQF;2011-01-28 17:09;CYQF 281709Z 29007KT 6SM -SN OVC015 RMK SC8

CYQF;2011-01-28 18:00;CYQF 281800Z 28008KT 1SM -SN OVC015 M03/M08 A2996 RMK SN3SC5 SLP187

CYQF;2011-01-28 18:48;CYQF 281848Z 24005KT 3SM -SN BKN025 OVC060 RMK SC6SC2

CYQF;2011-01-28 19:00;CYQF 281900Z 25004KT 6SM -SN OVC025 M03/M08 A2995 RMK SC8 SLP185

CYQF;2011-01-28 20:00;CYQF 282000Z 27005KT 8SM -SN BKN030 OVC060 M03/M08 A2993 RMK SC6SC2 SLP177

CYQF;2011-01-28 21:00;CYQF 282100Z 31005KT 3SM -SN BKN030 OVC060 M03/M08 A2992 RMK SC6SC2 VIS VRB 2-4 SLP175

CYQF;2011-01-28 22:00;CYQF 282200Z 36005KT 1 1/2SM -SN OVC030 M03/M07 A2991 RMK SN2SC6 VIS VRB 1-2 SLP172

CYQF;2011-01-28 23:00;CYQF 282300Z 04010G15KT 1 1/2SM -SN OVC020 M06/M10 A2991 RMK SN3SC5 VIS VRB 1-2 SLP173

CYQF;2011-01-29 00:00;CYQF 290000Z 05010G15KT 1 1/2SM -SN OVC015 M07/M11 A2993 RMK SN4SC4 /S01/ VIS VRB 1-2 SLP184

CYQF;2011-01-29 00:42;CYQF 290042Z 04010G15KT 3/4SM -SN OVC015 RMK SN4SC4

CYQF;2011-01-29 01:00;CYQF 290100Z 05010G15KT 3/4SM -SN OVC015 M08/M13 A2995 RMK SN4SC4 SLP189

CYQF;2011-01-29 02:00;CYQF 290200Z 05010KT 3/4SM -SN VV010 M09/M13 A2997 RMK SN8 /S01/ SLP196

CYQF;2011-01-29 03:00;CYQF 290300Z 05010KT 1SM -SN VV010 M10/M14 A2999 RMK SN8 SLP209

CYQF;2011-01-29 04:00;CYQF 290400Z 04008KT 1SM -SN VV010 M10/M15 A3001 RMK SN8 /S02/ SLP214

CYQF;2011-01-29 05:00;CYQF 290500Z 03005KT 1SM -SN VV012 M11/M15 A3003 RMK SN8 /S03/ SLP221

CYQF;2011-01-29 05:41;CYQF 290541Z 02005KT 2SM -SN OVC015 RMK SN4SC4

CYQF;2011-01-29 06:00;CYQF 290600Z 01004KT 3SM -SN OVC015 M11/M16 A3005 RMK SN3SC5 /S04/ SLP234

CYQF;2011-01-29 07:00;CYQF 290700Z 01006KT 3SM -SN OVC015 M11/M15 A3007 RMK SN3SC5 SLP240

CYQF;2011-01-29 07:45;CYQF 290745Z 02007KT 2SM -SN OVC015 RMK SN4SC4

CYQF;2011-01-29 08:00;CYQF 290800Z CCA 02007KT 2SM -SN OVC015 M11/M16 A3007 RMK SN4SC4 /S01/ SLP241

CYQF;2011-01-29 09:00;CYQF 290900Z 02007KT 1 1/2SM -SN VV014 M12/M17 A3009 RMK SN8 SLP250

CYQF;2011-01-29 10:00;CYQF 291000Z 03012KT 1 1/2SM -SN VV014 M13/M18 A3011 RMK SN8 SLP256

CYQF;2011-01-29 11:00;CYQF 291100Z 06008KT 1 1/2SM -SN VV014 M14/M18 A3013 RMK SN8 /S02/ SLP262

CYQF;2011-01-29 12:00;CYQF 291200Z 03008KT 2SM -SN VV014 M14/M19 A3015 RMK SN8 SLP277

CYQF;2011-01-29 13:00;CYQF 291300Z 04007KT 2SM -SN VV014 M15/M20 A3017 RMK SN8 SLP282

CYQF;2011-01-29 14:00;CYQF 291400Z 04004KT 3SM -SN OVC015 M15/M20 A3018 RMK SN3SC5 SLP287

CYQF;2011-01-29 15:00;CYQF 291500Z 06004KT 3SM -SN OVC015 M16/M20 A3020 RMK SN4SC4 SLP298

CYQF;2011-01-29 15:35;CYQF 291535Z 00000KT 1SM -SN OVC015 RMK SN6SC2

CYQF;2011-01-29 16:00;CYQF 291600Z 06002KT 1SM -SN OVC015 M16/M20 A3022 RMK SN6SC2 SLP303

CYQF;2011-01-29 17:00;CYQF 291700Z 05002KT 1 1/2SM -SN OVC015 M16/M20 A3023 RMK SN4SC4 VIS VRBL 1-2 SLP307

CYQF;2011-01-29 17:17;CYQF 291717Z 05002KT 4SM -SN FEW010 OVC015 RMK SF1SC8

CYQF;2011-01-29 17:34;CYQF 291734Z 06002KT 1 1/2SM -SN OVC015 RMK SN4SC4 VIS VRBL 1-2

CYQF;2011-01-29 18:00;CYQF 291800Z 06003KT 1 1/2SM -SN OVC015 M15/M20 A3025 RMK SN4SC4 VIS VRB 1-2 SLP316

CYQF;2011-01-29 18:50;CYQF 291850Z 05002KT 3SM -SN FEW010 BKN015 OVC060 RMK SF1SC6SC2

CYQF;2011-01-29 19:00;CYQF 291900Z 06002KT 4SM -SN BKN015 OVC060 M15/M20 A3025 RMK SC6SC2 SLP318

CYQF;2011-01-29 19:33;CYQF 291933Z 04003KT 2SM -SN BKN015 OVC060 RMK SC6SC2 VIS VRB 1-3

CYQF;2011-01-29 20:00;CYQF 292000Z 05003KT 3SM -SN FEW020 BKN120 M15/M20 A3025 RMK SC2AC2 SLP315

CYQF;2011-01-29 22:00;CYQF 292200Z 03005KT 10SM -SN FEW025 BKN120 M15/M21 A3025 RMK SC2AC3 SLP316

CYQF;2011-01-29 23:00;CYQF 292300Z 00000KT 3SM -SN BKN020 OVC100 M15/M21 A3027 RMK SN2SC3AC2 SLP324

CYQF;2011-01-30 00:00;CYQF 300000Z 00000KT 10SM -SN FEW020 BKN060 OVC090 M16/M21 A3028 RMK SC2SC3AC2 /S01/ SLP332

CYQF;2011-01-30 01:00;CYQF 300100Z 02005KT 3SM -SN BKN020 OVC060 M16/M21 A3029 RMK SN2SC3SC3 SLP336

CYQF;2011-01-30 02:00;CYQF 300200Z 04003KT 5SM -SN OVC020 M16/M21 A3031 RMK SC8 SLP342

CYQF;2011-01-30 03:00;CYQF 300300Z 34005KT 3SM -SN OVC020 M17/M22 A3032 RMK SC8 SLP349

CYQF;2011-01-30 04:00;CYQF 300400Z 35005KT 3SM -SN OVC020 M17/M22 A3033 RMK SC8 SLP350

CYQF;2011-01-30 05:00;CYQF 300500Z 24005KT 5SM -SN OVC020 M18/M23 A3033 RMK SC8 SLP350

CYQF;2011-01-30 06:00;CYQF 300600Z 34005KT 5SM -SN OVC020 M18/M24 A3033 RMK SC8 /S01/ SLP353

CYQF;2011-01-30 07:00;CYQF 300700Z 34003KT 5SM -SN OVC020 M19/M24 A3034 RMK SC8 SLP355

CYQF;2011-01-30 08:00;CYQF 300800Z 34006KT 3SM -SN OVC020 M19/M24 A3034 RMK SN3SC5 SLP355

CYQF;2011-01-30 09:00;CYQF 300900Z 35006KT 3SM -SN OVC020 M19/M24 A3034 RMK SN3SC5 SLP356

CYQF;2011-01-30 10:00;CYQF 301000Z 35006KT 10SM -SN OVC020 M20/M25 A3034 RMK SC8 SLP359

CYQF;2011-01-30 11:00;CYQF 301100Z 35005KT 5SM -SN OVC020 M20/M26 A3036 RMK SC8 SLP363

CYQF;2011-01-30 12:00;CYQF 301200Z 35005KT 5SM -SN OVC020 M21/M26 A3037 RMK SC8 /S01/ SLP370

CYQF;2011-01-30 13:00;CYQF 301300Z 34004KT 8SM -SN OVC020 M21/M27 A3037 RMK SC8 SLP371

CYQF;2011-01-30 14:00;CYQF 301400Z 33005KT 5SM -SN OVC020 M21/M27 A3038 RMK SC8 SLP375

CYQF;2011-01-30 15:00;CYQF 301500Z 33002KT 5SM -SN BKN020 OVC100 M22/M28 A3039 RMK SC6AC2 SLP380

CYQF;2011-01-30 16:00;CYQF 301600Z 33002KT 8SM SCT020 BKN200 M23/M28 A3039 RMK SC4CI2 IC SLP381

CYQF;2011-01-30 17:00;CYQF 301700Z 32004KT 8SM FEW020 BKN200 M24/M29 A3042 RMK SC2CI4 IC SLP388

CYQF;2011-01-30 18:00;CYQF 301800Z 32005KT 8SM BKN200 M21/M28 A3043 RMK CI6 SLP396

CYQF;2011-01-30 20:00;CYQF 302000Z 32004KT 10SM SCT200 M21/M27 A3043 RMK CI2 SLP395

CYQF;2011-01-30 21:00;CYQF 302100Z 29004KT 12SM FEW200 M21/M27 A3043 RMK CI1 SLP395

CYQF;2011-01-30 22:00;CYQF 302200Z 32003KT 15SM FEW200 M21/M27 A3042 RMK CI1 SLP393

CYQF;2011-01-30 23:00;CYQF 302300Z 32003KT 15SM FEW200 M21/M27 A3043 RMK CI1 SLP396

CYQF;2011-01-31 00:00;CYQF 310000Z 00000KT 15SM SKC M21/M28 A3044 RMK SLP401

CYQF;2011-01-31 01:00;CYQF 310100Z 00000KT 15SM SKC M25/M31 A3045 RMK SLP404

CYQF;2011-01-31 03:00;CYQF 310300Z 00000KT 15SM FEW120 M30/M36 A3047 RMK AC1 SLP424

CYQF;2011-01-31 04:00;CYQF 310400Z 18003KT 15SM SCT120 M31/M36 A3046 RMK AC3 SLP423

CYQF;2011-01-31 05:00;CYQF 310500Z 17003KT 15SM FEW120 M30/M35 A3047 RMK AC2 SLP426

CYQF;2011-01-31 06:00;CYQF 310600Z 00000KT 15SM SKC M31/M36 A3048 RMK SLP429

CYQF;2011-01-31 07:00;CYQF 310700Z 00000KT 15SM SKC M31/M36 A3048 RMK SLP430

CYQF;2011-01-31 08:00;CYQF 310800Z 00000KT 15SM SKC M33/M38 A3049 RMK SLP431

CYQF;2011-01-31 10:00;CYQF 311000Z 20003KT 15SM SKC M35/M40 A3050 RMK SLP437

CYQF;2011-01-31 11:00;CYQF 311100Z 20003KT 15SM SKC M36/M41 A3050 RMK SLP439

CYQF;2011-01-31 12:00;CYQF 311200Z 18002KT 15SM SKC M36/M41 A3051 RMK SLP447

CYQF;2011-01-31 13:00;CYQF 311300Z 00000KT 15SM SKC M35/M40 A3052 RMK SLP448

CYQF;2011-01-31 14:00;CYQF 311400Z CCA 22002KT 15SM SKC M37/M42 A3053 RMK SLP451

CYQF;2011-01-31 15:00;CYQF 311500Z 19003KT 15SM BKN008 M37/M41 A3054 RMK ST0 SLP466

CYQF;2011-01-31 16:00;CYQF 311600Z 00000KT 15SM SCT008 M37/M42 A3054 RMK ST0 SLP469

CYQF;2011-01-31 17:00;CYQF 311700Z 18002KT 15SM SCT008 SCT240 M35/M41 A3055 RMK ST0CI0 SLP472

CYQF;2011-01-31 18:00;CYQF 311800Z 18003KT 15SM FEW008 FEW240 M31/M36 A3056 RMK ST1CI1 SLP470

CYQF;2011-01-31 19:00;CYQF 311900Z 00000KT 15SM FEW009 M29/M34 A3057 RMK ST1 SLP473

CYQF;2011-01-31 20:00;CYQF 312000Z 00000KT 15SM SKC M27/M32 A3057 RMK SLP472

CYQF;2011-01-31 21:00;CYQF 312100Z 15002KT 15SM SKC M26/M30 A3056 RMK SLP467

CYQF;2011-01-31 22:00;CYQF 312200Z 00000KT 15SM SKC M25/M29 A3056 RMK SLP467

CYQF;2011-01-31 23:00;CYQF 312300Z 00000KT 15SM SKC M23/M28 A3057 RMK SLP470

CYQF;2011-02-01 00:00;CYQF 010000Z 00000KT 15SM SKC M24/M30 A3058 RMK SLP473

CYQF;2011-02-01 01:00;CYQF 010100Z 00000KT 15SM SKC M28/M33 A3058 RMK SLP474

CYQF;2011-02-01 01:00;CYQF 010100Z 00000KT 15SM SKC M28/M33 A3058 RMK SLP474

CYQF;2011-02-01 02:00;CYQF 010200Z 17004KT 15SM SKC M30/M36 A3058 RMK SLP473

CYQF;2011-02-01 02:00;CYQF 010200Z 17004KT 15SM SKC M30/M36 A3058 RMK SLP473

CYQF;2011-02-01 03:00;CYQF 010300Z 17005KT 15SM SKC M31/M37 A3057 RMK SLP481

CYQF;2011-02-01 03:00;CYQF 010300Z 17005KT 15SM SKC M31/M37 A3057 RMK SLP481

CYQF;2011-02-01 04:00;CYQF 010400Z 16004KT 15SM SKC M32/M37 A3057 RMK SLP480

CYQF;2011-02-01 04:00;CYQF 010400Z 16004KT 15SM SKC M32/M37 A3057 RMK SLP480

CYQF;2011-02-01 05:00;CYQF 010500Z 18002KT 6SM IC SKC M30/M36 A3056 RMK IC SLP477

CYQF;2011-02-01 05:00;CYQF 010500Z 18002KT 6SM IC SKC M30/M36 A3056 RMK IC SLP477

CYQF;2011-02-01 06:00;CYQF 010600Z 16003KT 6SM IC SKC M32/M38 A3054 RMK SLP465

CYQF;2011-02-01 06:00;CYQF 010600Z 16003KT 6SM IC SKC M32/M38 A3054 RMK SLP465

CYQF;2011-02-01 07:00;CYQF 010700Z 15006KT 6SM IC SKC M30/M36 A3054 RMK IC SLP462

CYQF;2011-02-01 08:00;CYQF 010800Z CCA 27005KT 10SM SKC M30/M36 A3051 RMK IC SLP453

CYQF;2011-02-01 09:00;CYQF 010900Z 18006KT 10SM SKC M31/M37 A3048 RMK IC SLP433

CYQF;2011-02-01 10:00;CYQF 011000Z 15003KT 10SM SKC M28/M34 A3047 RMK IC SLP430

CYQF;2011-02-01 11:00;CYQF 011100Z 13004KT 10SM SKC M29/M35 A3044 RMK IC SLP422

CYQF;2011-02-01 12:00;CYQF 011200Z 15003KT 10SM SKC M30/M36 A3042 RMK IC SLP411

CYQF;2011-02-01 13:00;CYQF 011300Z 17004KT 15SM SKC M31/M36 A3040 RMK IC SLP404

CYQF;2011-02-01 14:00;CYQF 011400Z 16004KT 15SM SKC M31/M37 A3039 RMK IC SLP401

CYQF;2011-02-01 15:00;CYQF 011500Z 16004KT 15SM SKC M31/M36 A3037 RMK SLP401

CYQF;2011-02-01 16:00;CYQF 011600Z 16003KT 15SM SKC M28/M35 A3036 RMK SLP399

CYQF;2011-02-01 17:00;CYQF 011700Z 19003KT 15SM SKC M28/M34 A3035 RMK SLP395

CYQF;2011-02-01 18:00;CYQF 011800Z 18002KT 15SM SKC M26/M31 A3034 RMK SLP388

CYQF;2011-02-01 19:00;CYQF 011900Z 00000KT 15SM FEW240 M22/M27 A3033 RMK CI1 SLP382

CYQF;2011-02-01 20:00;CYQF 012000Z 18002KT 15SM FEW240 M20/M26 A3030 RMK CI1 SLP375

CYQF;2011-02-01 21:00;CYQF 012100Z 18004KT 15SM FEW240 M20/M26 A3028 RMK CI0 SLP355

CYQF;2011-02-01 22:00;CYQF 012200Z 18002KT 15SM FEW240 M18/M26 A3025 RMK CI0 SLP346

CYQF;2011-02-01 23:00;CYQF 012300Z 17003KT 15SM FEW250 M17/M25 A3023 RMK CI1 SLP340

CYQF;2011-02-02 00:00;CYQF 020000Z 18002KT 15SM FEW250 M17/M25 A3022 RMK CI1 SLP332

CYQF;2011-02-02 01:00;CYQF 020100Z 19003KT 15SM FEW250 M21/M27 A3022 RMK CI1 SLP331

CYQF;2011-02-02 02:00;CYQF 020200Z 19004KT 15SM SKC M21/M27 A3021 RMK SLP327

CYQF;2011-02-02 03:00;CYQF 020300Z 19003KT 15SM FEW100 M21/M27 A3020 RMK AC1 SLP329

CYQF;2011-02-02 04:00;CYQF 020400Z 20004KT 15SM FEW100 M19/M25 A3018 RMK AC1 SLP325

CYQF;2011-02-02 05:00;CYQF 020500Z 18006KT 15SM SKC M20/M26 A3017 RMK SLP321

CYQF;2011-02-02 06:00;CYQF 020600Z 18006KT 15SM SKC M18/M24 A3015 RMK SLP305

CYQF;2011-02-02 07:00;CYQF 020700Z 20004KT 15SM SKC M19/M23 A3014 RMK SLP301

CYQF;2011-02-02 08:00;CYQF 020800Z 19005KT 15SM SKC M17/M21 A3013 RMK SLP297

CYQF;2011-02-02 09:00;CYQF 020900Z 23006KT 15SM SKC M15/M20 A3012 RMK SLP282

CYQF;2011-02-02 10:00;CYQF 021000Z 19007KT 15SM SKC M16/M21 A3012 RMK SLP283

CYQF;2011-02-02 11:00;CYQF 021100Z 17003KT 15SM SKC M14/M18 A3011 RMK SLP280

CYQF;2011-02-02 12:00;CYQF 021200Z 19004KT 15SM SKC M16/M20 A3010 RMK SLP273

CYQF;2011-02-02 13:00;CYQF 021300Z 17004KT 15SM SKC M14/M18 A3010 RMK SLP273

CYQF;2011-02-02 14:00;CYQF 021400Z 20003KT 15SM SKC M13/M20 A3010 RMK SLP272

CYQF;2011-02-02 15:00;CYQF 021500Z 00000KT 15SM FEW100 BKN250 M09/M14 A3010 RMK AC1CI6 SLP270

CYQF;2011-02-02 16:00;CYQF 021600Z 24010KT 15SM FEW100 BKN250 M09/M13 A3009 RMK AC1CI6 SLP266

CYQF;2011-02-02 17:00;CYQF 021700Z 22002KT 15SM FEW100 BKN250 M08/M13 A3010 RMK AC1CI3 SLP270

CYQF;2011-02-02 18:00;CYQF 021800Z 24004KT 15SM BKN250 M06/M11 A3011 RMK CI6 SLP266

CYQF;2011-02-02 19:00;CYQF 021900Z 22006KT 15SM FEW090 BKN250 M03/M09 A3011 RMK AC1CS5 SLP265

CYQF;2011-02-02 20:00;CYQF 022000Z 23007KT 15SM FEW090 BKN250 M02/M08 A3010 RMK AC1CI6 SLP263

CYQF;2011-02-02 21:00;CYQF 022100Z 23004KT 15SM FEW090 BKN250 M01/M08 A3010 RMK AC1CI5 SLP251

CYQF;2011-02-02 22:00;CYQF 022200Z 16004KT 15SM FEW090 BKN250 01/M06 A3009 RMK AC1CI2 SLP248

CYQF;2011-02-02 23:00;CYQF 022300Z 18003KT 15SM SCT090 BKN250 00/M07 A3008 RMK AC4CI1 SLP247

CYQF;2011-02-03 00:00;CYQF 030000Z 22005KT 15SM FEW100 BKN250 M03/M09 A3009 RMK AC2CI1 SLP254

CYQF;2011-02-03 02:00;CYQF 030200Z 17005KT 15SM SCT250 M08/M13 A3011 RMK CI0 SLP258

CYQF;2011-02-03 03:00;CYQF 030300Z 17007KT 15SM SKC M07/M12 A3010 RMK SLP252

CYQF;2011-02-03 04:00;CYQF 030400Z 20007KT 15SM SKC M07/M11 A3010 RMK SLP253

CYQF;2011-02-03 05:00;CYQF 030500Z 18004KT 15SM SCT250 M09/M13 A3011 RMK CI2 SLP256

CYQF;2011-02-03 06:00;CYQF 030600Z 17005KT 15SM SCT250 M09/M13 A3009 RMK CI2 SLP250

CYQF;2011-02-03 07:00;CYQF 030700Z 00000KT 15SM BKN250 M06/M10 A3009 RMK CI3 SLP250

CYQF;2011-02-03 08:00;CYQF 030800Z 00000KT 15SM SCT250 M06/M10 A3008 RMK CI2 SLP247

CYQF;2011-02-03 09:00;CYQF 030900Z 20003KT 15SM BKN250 M09/M12 A3007 RMK CI3 SLP236

CYQF;2011-02-03 10:00;CYQF 031000Z 20006KT 15SM BKN250 M08/M12 A3007 RMK CI3 SLP235

CYQF;2011-02-03 11:00;CYQF 031100Z 23006KT 15SM SCT120 BKN250 M05/M09 A3007 RMK AC3CI2 SLP235

CYQF;2011-02-03 12:00;CYQF 031200Z 18004KT 15SM BKN120 OVC250 M04/M09 A3005 RMK AC5CI2 SLP226

CYQF;2011-02-03 13:00;CYQF 031300Z 19004KT 15SM FEW120 BKN250 M05/M10 A3002 RMK AC2CI1 SLP215

CYQF;2011-02-03 14:00;CYQF 031400Z 19008KT 15SM FEW120 BKN250 M06/M11 A3000 RMK AC2CI2 SLP209

CYQF;2011-02-03 15:00;CYQF 031500Z 20006KT 15SM FEW120 BKN250 M06/M11 A2998 RMK AC2CI2 SLP208

CYQF;2011-02-03 16:00;CYQF 031600Z 19005KT 15SM FEW090 SCT120 OVC250 M05/M10 A2996 RMK AC1AC4CI4 SLP202

CYQF;2011-02-03 17:00;CYQF 031700Z 21009KT 15SM FEW090 BKN120 OVC250 M03/M08 A2995 RMK AC1AC6CI2 SLP200

CYQF;2011-02-03 18:00;CYQF 031800Z 19004KT 15SM FEW090 BKN120 OVC250 M01/M07 A2994 RMK AC1AC6CI2 SLP191

CYQF;2011-02-03 19:00;CYQF 031900Z 19003KT 15SM FEW100 OVC250 01/M06 A2992 RMK AC1CI6 SLP183

CYQF;2011-02-03 20:00;CYQF 032000Z 17002KT 15SM SCT100 OVC250 03/M04 A2988 RMK AC4CI4 SLP173

CYQF;2011-02-03 21:00;CYQF 032100Z 00000KT 15SM FEW100 BKN210 04/M03 A2987 RMK AC1CI6 SLP159

CYQF;2011-02-03 22:00;CYQF 032200Z 26004KT 15SM FEW040 BKN100 OVC250 04/M03 A2987 RMK SC1AC6CI2 SLP161

CYQF;2011-02-03 23:00;CYQF 032300Z 00000KT 15SM FEW040 FEW100 BKN250 03/M04 A2990 RMK SC1AC1CI3 SLP169

CYQF;2011-02-04 00:00;CYQF 040000Z 35003KT 15SM FEW040 FEW100 BKN250 00/M06 A2991 RMK SC1AC2CI2 SLP174

CYQF;2011-02-04 01:00;CYQF 040100Z 00000KT 15SM FEW040 FEW100 BKN250 M02/M07 A2991 RMK SC1AC1CI3 SLP174

CYQF;2011-02-04 02:00;CYQF 040200Z 20004KT 15SM FEW040 FEW100 BKN250 M01/M06 A2991 RMK SC1AC1CI2 SLP174

CYQF;2011-02-04 03:00;CYQF 040300Z 22006KT 15SM FEW040 SCT100 BKN250 M00/M05 A2991 RMK SC2AC2CI2 SLP174

CYQF;2011-02-04 04:00;CYQF 040400Z 17005KT 15SM FEW040 BKN100 OVC250 M00/M05 A2989 RMK SC2AC3CI2 SLP168

CYQF;2011-02-04 05:00;CYQF 040500Z 00000KT 15SM BKN055 BKN100 OVC250 01/M04 A2989 RMK SC5AC2CI2 SLP170

CYQF;2011-02-04 06:00;CYQF 040600Z 00000KT 15SM BKN050 BKN100 M00/M04 A2990 RMK SC5AC2 SLP166

CYQF;2011-02-04 07:00;CYQF 040700Z 00000KT 15SM BKN050 BKN100 00/M04 A2990 RMK SC5AC2 SLP165

CYQF;2011-02-04 08:00;CYQF 040800Z 20003KT 15SM BKN050 BKN100 M00/M05 A2991 RMK SC5AC2 SLP170

CYQF;2011-02-04 09:00;CYQF 040900Z 19005KT 15SM SCT050 BKN100 M02/M07 A2988 RMK SC4AC3 SLP155

CYQF;2011-02-04 10:00;CYQF 041000Z 19007KT 15SM SCT050 BKN100 M01/M06 A2986 RMK SC4AC3 SLP148

CYQF;2011-02-04 11:00;CYQF 041100Z 16006KT 15SM SCT050 BKN100 M02/M07 A2985 RMK SC3AC4 SLP145

CYQF;2011-02-04 12:00;CYQF 041200Z 00000KT 15SM BKN050 OVC100 M01/M06 A2981 RMK SC5AC3 SLP136

CYQF;2011-02-04 13:00;CYQF 041300Z 17005KT 15SM BKN050 OVC100 00/M05 A2980 RMK SC5AC3 SLP132

CYQF;2011-02-04 14:00;CYQF 041400Z 21012KT 15SM BKN050 BKN100 00/M06 A2974 RMK SC5AC2 SLP113

CYQF;2011-02-04 15:00;CYQF 041500Z 21009KT 15SM BKN060 OVC120 01/M06 A2972 RMK SC6AC2 SLP102

CYQF;2011-02-04 16:00;CYQF 041600Z 22008KT 15SM SCT060 BKN120 02/M06 A2971 RMK SC3AC3 SLP099

CYQF;2011-02-04 17:00;CYQF 041700Z 21006KT 15SM FEW060 SCT120 01/M07 A2970 RMK SC1AC3 SLP095

CYQF;2011-02-04 18:00;CYQF 041800Z 22006KT 15SM FEW060 BKN120 04/M04 A2968 RMK SC2AC5 SLP083

CYQF;2011-02-04 19:00;CYQF 041900Z 23005KT 15SM FEW050 BKN100 BKN250 05/M03 A2966 RMK CU1AC2CI4 SLP078

CYQF;2011-02-04 20:00;CYQF 042000Z 19002KT 15SM FEW050 BKN100 BKN250 06/M03 A2963 RMK SC1AC6CI1 CU ASOCTD SLP069

CYQF;2011-02-04 21:00;CYQF 042100Z 23002KT 15SM FEW050 BKN100 BKN250 07/M03 A2962 RMK SC1AC6CI1 CU SLP060

CYQF;2011-02-04 22:00;CYQF 042200Z 00000KT 15SM FEW036 BKN100 06/M03 A2961 RMK CU1AC7 VIRGA SLP058

CYQF;2011-02-04 23:00;CYQF 042300Z 00000KT 15SM FEW036 BKN080 05/M03 A2962 RMK CU1AC7 VIRGA SLP060

CYQF;2011-02-04 23:51;CYQF 042351Z 30008KT 12SM -SHRA FEW036 BKN080 RMK CU1AC7

CYQF;2011-02-05 00:00;CYQF 050000Z 32012G17KT 12SM -SHRA FEW036 BKN080 06/M03 A2967 RMK CU1AC7 SLP080

CYQF;2011-02-05 00:51;CYQF 050051Z 36007KT 15SM FEW040 BKN080 RMK SC2AC5

CYQF;2011-02-05 01:00;CYQF 050100Z 33010G18KT 15SM FEW040 BKN080 04/M02 A2969 RMK SC2AC6 VIRGA SLP086

CYQF;2011-02-05 01:11;CYQF 050111Z 32015G20KT 15SM -SHRA BKN040 BKN080 RMK SC5AC2

CYQF;2011-02-05 01:34;CYQF 050134Z 31012G18KT 12SM -SHRASN BKN016 OVC080 RMK SC5AC3

CYQF;2011-02-05 02:00;CYQF 050200Z 30015G20KT 15SM -SHRASN FEW016 BKN050 OVC080 03/M02 A2972 RMK SC2SC4AC2 SLP094

CYQF;2011-02-05 02:46;CYQF 050246Z 28004KT 15SM FEW015 BKN050 OVC080 RMK SC2SC4AC2

CYQF;2011-02-05 03:00;CYQF 050300Z 27005KT 15SM FEW015 BKN050 OVC080 02/M02 A2972 RMK SC2SC4AC2 SLP098

CYQF;2011-02-05 04:00;CYQF 050400Z 27012G18KT 15SM FEW015 SCT050 BKN080 03/M03 A2973 RMK SC1SC2AC2 SLP102

CYQF;2011-02-05 05:00;CYQF 050500Z 29011G18KT 15SM FEW050 SCT080 03/M04 A2974 RMK SC1AC2 SLP104

CYQF;2011-02-05 06:00;CYQF 050600Z 29013G23KT 15SM FEW080 03/M05 A2977 RMK AC1 SLP112

CYQF;2011-02-05 07:00;CYQF 050700Z 30015G25KT 15SM SCT080 02/M06 A2979 RMK AC2 SLP118

CYQF;2011-02-05 08:00;CYQF 050800Z CCA 30018G25KT 15SM BKN070 03/M07 A2982 RMK AC6 SLP126

CYQF;2011-02-05 09:00;CYQF 050900Z 31015G22KT 15SM OVC060 03/M06 A2985 RMK SC8 SLP135

CYQF;2011-02-05 10:00;CYQF 051000Z 30012G18KT 15SM FEW025 OVC050 02/M06 A2987 RMK SC2SC6 SLP142

CYQF;2011-02-05 11:00;CYQF 051100Z 31015G23KT 15SM FEW020 OVC050 02/M06 A2990 RMK SC2SC6 SLP152

CYQF;2011-02-05 12:00;CYQF 051200Z 30018G25KT 15SM SCT020 OVC050 01/M06 A2993 RMK SC3SC5 SLP167

CYQF;2011-02-05 13:00;CYQF 051300Z 30015G20KT 15SM BKN025 OVC050 01/M06 A2995 RMK SC6SC2 SLP175

CYQF;2011-02-05 13:51;CYQF 051351Z 30012G18KT 10SM -SN FEW025 BKN050 BKN120 RMK SC2SC3AC2

CYQF;2011-02-05 14:00;CYQF 051400Z 31012G20KT 6SM -SN FEW025 BKN050 OVC120 M00/M05 A2997 RMK SC2SC3AC2 SLP179

CYQF;2011-02-05 15:00;CYQF 051500Z 31015G22KT 8SM -SN FEW025 BKN050 OVC120 M00/M05 A3000 RMK SC1SC4AC2 SLP198

CYQF;2011-02-05 15:33;CYQF 051533Z 31012G18KT 2SM -SN OVC050 RMK SN2SC6

CYQF;2011-02-05 16:00;CYQF 051600Z 30012G19KT 2SM -SN OVC050 M01/M05 A3003 RMK SN2SC6 SLP206

CYQF;2011-02-05 16:21;CYQF 051621Z 30010KT 4SM -SN BKN050 OVC100 RMK SC6AC2

CYQF;2011-02-05 17:00;CYQF 051700Z 29010G15KT 5SM -SN BKN050 OVC100 M00/M05 A3004 RMK SC6AC2 SLP211

CYQF;2011-02-05 18:00;CYQF 051800Z 31012G18KT 12SM -SN FEW020 BKN050 BKN120 00/M05 A3006 RMK SC1SC4AC2 SLP218

CYQF;2011-02-05 18:30;CYQF 051830Z 31020G30KT 2SM -SN BLSN BKN020 OVC050 RMK SN6SC1SC2

CYQF;2011-02-05 18:36;CYQF 051836Z 31015G25KT 3SM -SN BLSN BKN020 OVC050 RMK SC6SC2 VIS S 10

CYQF;2011-02-05 18:49;CYQF 051849Z 29010G15KT 15SM FEW020 SCT050 OVC100 RMK SC2SC2AC4

CYQF;2011-02-05 19:00;CYQF 051900Z 30010G15KT 15SM FEW020 SCT050 OVC100 00/M06 A3007 RMK SC1SC2AC5 SLP222

CYQF;2011-02-05 20:00;CYQF 052000Z 32010G15KT 15SM BKN030 BKN100 00/M06 A3008 RMK SC5AC2 SLP223

CYQF;2011-02-05 20:48;CYQF 052048Z 30015G25KT 5SM -SHSN BKN030 OVC100 RMK SC6AC2

CYQF;2011-02-05 21:00;CYQF 052100Z 30015G20KT 10SM -SHSN BKN030 OVC100 00/M06 A3009 RMK SC6AC2 SLP228

CYQF;2011-02-05 21:16;CYQF 052116Z 30015G20KT 2SM -SHSN OVC030 RMK SN6SC2 VIS N 11/2

CYQF;2011-02-05 21:29;CYQF 052129Z 30010G16KT 1SM -SHSN OVC030 RMK SN6SC2

CYQF;2011-02-05 21:38;CYQF 052138Z 31015G20KT 3SM -SHSN FEW005 BKN030 RMK SN2SF1SC5 VIS S 2 VIS N 15

CYQF;2011-02-05 22:00;CYQF 052200Z 32018G26KT 10SM -SHSN DRSN SCT005 BKN030 M01/M07 A3013 RMK SF3SC4 SLP240

CYQF;2011-02-05 22:49;CYQF 052249Z 33013G22KT 10SM DRSN FEW005 BKN030 BKN250 RMK SF2SC3CI1

CYQF;2011-02-05 23:00;CYQF 052300Z 34012G19KT 15SM DRSN FEW005 SCT030 BKN250 M02/M09 A3017 RMK SF2SC2CI1 SLP252

CYQF;2011-02-06 00:00;CYQF 060000Z 35017G28KT 12SM DRSN FEW005 FEW030 BKN250 M05/M11 A3020 RMK SF1SC2CI1 OCNL BLSN SLP273

CYQF;2011-02-06 01:00;CYQF 060100Z 33020G35KT 12SM DRSN FEW030 BKN250 M06/M13 A3024 RMK SC2CI2 SLP285

CYQF;2011-02-06 02:00;CYQF 060200Z 33015G20KT 15SM DRSN FEW020 SCT250 M08/M14 A3028 RMK SC1CI2 SLP299

CYQF;2011-02-06 03:00;CYQF 060300Z 33015G20KT 3SM -SN DRSN BKN025 OVC250 M08/M13 A3033 RMK SC6CI2 SLP322

CYQF;2011-02-06 04:00;CYQF 060400Z 32010G15KT 10SM -SN DRSN SCT025 BKN250 M09/M15 A3036 RMK SC4CI2 SLP333

CYQF;2011-02-06 05:00;CYQF 060500Z 31015G20KT 12SM -SN DRSN FEW025 BKN100 M10/M16 A3040 RMK SC2AC3 SLP344

CYQF;2011-02-06 06:00;CYQF 060600Z 32010G15KT 15SM FEW025 SCT100 M11/M17 A3041 RMK SC2AC2 /S01/ SLP355

CYQF;2011-02-06 07:00;CYQF 060700Z 32011KT 15SM FEW100 M12/M18 A3044 RMK AC2 SLP365

CYQF;2011-02-06 08:00;CYQF 060800Z 31010G15KT 15SM FEW025 BKN090 M12/M18 A3045 RMK SC2AC4 SLP368

CYQF;2011-02-06 09:00;CYQF 060900Z 31010G15KT 15SM BKN025 OVC090 M11/M17 A3047 RMK SC6AC2 SLP375

CYQF;2011-02-06 10:00;CYQF 061000Z 31010G15KT 15SM OVC025 M11/M17 A3048 RMK SC8 SLP377

CYQF;2011-02-06 11:00;CYQF 061100Z 33010G15KT 15SM OVC023 M11/M17 A3047 RMK SC8 SLP375

CYQF;2011-02-06 12:00;CYQF 061200Z 34008KT 15SM BKN025 OVC060 M12/M17 A3049 RMK SC5SC3 SLP389

CYQF;2011-02-06 13:00;CYQF 061300Z 35008KT 15SM BKN025 OVC060 M12/M18 A3049 RMK SC6SC2 SLP389

CYQF;2011-02-06 14:00;CYQF 061400Z 36006KT 15SM OVC020 M13/M18 A3051 RMK SC8 SLP396

CYQF;2011-02-06 14:13;CYQF 061413Z 01005KT 15SM -SN OVC020 RMK SC8

CYQF;2011-02-06 15:00;CYQF 061500Z 01004KT 15SM -SN BKN020 OVC060 M13/M19 A3051 RMK SC6SC2 SLP402

CYQF;2011-02-06 15:18;CYQF 061518Z 35005KT 15SM BKN020 OVC060 RMK SC6SC2

CYQF;2011-02-06 16:00;CYQF 061600Z 34003KT 15SM FEW020 BKN070 BKN150 M13/M19 A3050 RMK SC2AC4AC2 SLP399

CYQF;2011-02-06 17:00;CYQF 061700Z 03003KT 15SM BKN090 M13/M19 A3051 RMK AC7 SLP402

CYQF;2011-02-06 18:00;CYQF 061800Z 01003KT 15SM BKN100 M13/M18 A3050 RMK AC6 SLP402

CYQF;2011-02-06 19:00;CYQF 061900Z 06003KT 15SM BKN120 BKN250 M13/M19 A3049 RMK AC5CI0 SLP399

CYQF;2011-02-06 20:00;CYQF 062000Z 06003KT 15SM SCT120 BKN250 M13/M19 A3047 RMK AC2CI1 SLP394

CYQF;2011-02-06 21:00;CYQF 062100Z 09003KT 15SM FEW020 BKN250 M13/M18 A3045 RMK SC1CI2 SC DIST S-SW SLP383

CYQF;2011-02-06 22:00;CYQF 062200Z 11007KT 15SM FEW020 BKN250 M12/M19 A3042 RMK SC1CI2 SLP375

CYQF;2011-02-06 23:00;CYQF 062300Z 12010KT 15SM BKN250 M13/M19 A3038 RMK CS2 HALO SLP361

CYQF;2011-02-07 00:00;CYQF 070000Z 13008KT 15SM OVC250 M14/M19 A3036 RMK CS8 SLP354

CYQF;2011-02-07 01:00;CYQF 070100Z 13010KT 15SM FEW100 OVC250 M14/M19 A3032 RMK AC2CI6 SLP341

CYQF;2011-02-07 02:00;CYQF 070200Z 12010G15KT 10SM FEW100 OVC250 M15/M20 A3029 RMK AC2CI6 IC SLP334

CYQF;2011-02-07 03:00;CYQF 070300Z 12010KT 8SM FEW100 OVC250 M16/M20 A3023 RMK AC2CI6 IC SLP314

CYQF;2011-02-07 04:00;CYQF 070400Z 14011KT 8SM SCT100 OVC250 M15/M20 A3019 RMK AC3CI5 IC SLP300

CYQF;2011-02-07 05:00;CYQF 070500Z 13010G15KT 6SM IC BKN100 OVC250 M16/M20 A3015 RMK AC5CI3 SLP289

CYQF;2011-02-07 06:00;CYQF 070600Z 12010G16KT 3SM -SN BKN100 OVC250 M15/M20 A3010 RMK AC5CI3 SLP268

CYQF;2011-02-07 06:46;CYQF 070646Z 12012G18KT 2SM -SN BKN100 OVC250 RMK AC5CI3

CYQF;2011-02-07 07:00;CYQF 070700Z 12010G15KT 2SM -SN BKN100 OVC250 M15/M20 A3008 RMK AC5CI3 SLP260

CYQF;2011-02-07 08:00;CYQF 070800Z 12012KT 2SM -SN BKN100 OVC250 M16/M20 A3005 RMK AC5CI3 SLP251

CYQF;2011-02-07 09:00;CYQF 070900Z 11010KT 2SM -SN BKN100 OVC250 M15/M20 A3003 RMK AC5CI3 SLP243

CYQF;2011-02-07 10:00;CYQF 071000Z CCA 10012KT 1 1/2SM -SN BKN100 OVC250 M16/M20 A3003 RMK SN4AC2CI2 /S01/ SLP243

CYQF;2011-02-07 11:00;CYQF 071100Z 10013KT 1 1/2SM -SN BKN100 OVC250 M15/M22 A3005 RMK SN4AC2CI2 SLP247

CYQF;2011-02-07 12:00;CYQF 071200Z 12012KT 1 1/2SM -SN BKN100 OVC250 M16/M21 A3006 RMK SN4AC2CI2 /S02/ SLP254

CYQF;2011-02-07 13:00;CYQF 071300Z 12012KT 1 1/2SM -SN OVC080 M16/M21 A3007 RMK SN4AC4 SLP258

CYQF;2011-02-07 13:20;CYQF 071320Z 12008KT 1SM -SN OVC060 RMK SN4SC4

CYQF;2011-02-07 13:50;CYQF 071350Z 12008KT 2SM -SN OVC060 RMK SN4SC4

CYQF;2011-02-07 14:00;CYQF 071400Z 12008KT 3SM -SN BKN060 OVC100 M16/M21 A3010 RMK SN2SC5AC2 SLP268

CYQF;2011-02-07 14:31;CYQF 071431Z 12010KT 3SM -SN VV040 RMK SN8

CYQF;2011-02-07 14:41;CYQF 071441Z 13005KT 2SM -SN VV040 RMK SN8

CYQF;2011-02-07 15:00;CYQF 071500Z 10005KT 2SM -SN VV013 M16/M21 A3014 RMK SN8 VIS VRB 1-3 SLP284

CYQF;2011-02-07 16:00;CYQF 071600Z 12005KT 3SM -SN VV025 M16/M21 A3018 RMK SN8 SLP296

CYQF;2011-02-07 17:00;CYQF 071700Z 11004KT 2 1/2SM -SN VV025 M16/M21 A3022 RMK SN8 SLP308

CYQF;2011-02-07 18:00;CYQF 071800Z 11006KT 5SM -SN OVC250 M15/M21 A3025 RMK SN5CS0 /S01/ HALO SLP321

CYQF;2011-02-07 18:44;CYQF 071844Z 13004KT 10SM OVC250 RMK CS2 HZ HALO

CYQF;2011-02-07 19:00;CYQF 071900Z 13004KT 10SM OVC250 M15/M21 A3027 RMK CS2 HALO HZ SLP329

CYQF;2011-02-07 20:00;CYQF 072000Z 13004KT 15SM BKN250 M14/M21 A3028 RMK CS2 SLP331

CYQF;2011-02-07 21:00;CYQF 072100Z 00000KT 15SM BKN250 M13/M20 A3028 RMK CI2 SLP332

CYQF;2011-02-07 22:00;CYQF 072200Z 10004KT 15SM BKN250 M13/M21 A3030 RMK CI3 SLP338

CYQF;2011-02-07 23:00;CYQF 072300Z 12005KT 15SM BKN250 M15/M23 A3033 RMK CI2 SLP346

CYQF;2011-02-08 00:00;CYQF 080000Z 06003KT 15SM BKN250 M17/M24 A3035 RMK CI2 SLP360

CYQF;2011-02-08 01:00;CYQF 080100Z 00000KT 15SM FEW250 M19/M25 A3037 RMK CI2 SLP366

CYQF;2011-02-08 02:00;CYQF 080200Z 00000KT 15SM FEW250 M21/M27 A3038 RMK CI1 SLP369

CYQF;2011-02-08 03:00;CYQF 080300Z 00000KT 15SM SKC M22/M28 A3040 RMK SLP385

CYQF;2011-02-08 04:00;CYQF 080400Z 00000KT 15SM SKC M23/M28 A3042 RMK SLP390

CYQF;2011-02-08 05:00;CYQF 080500Z 00000KT 15SM SKC M24/M30 A3043 RMK SLP394

CYQF;2011-02-08 06:00;CYQF 080600Z 00000KT 15SM SKC M27/M32 A3044 RMK SLP404

CYQF;2011-02-08 07:00;CYQF 080700Z 00000KT 15SM SKC M28/M33 A3045 RMK SLP405

CYQF;2011-02-08 08:00;CYQF 080800Z 23003KT 15SM SKC M30/M36 A3046 RMK SLP409

CYQF;2011-02-08 09:00;CYQF 080900Z 17004KT 15SM SKC M30/M36 A3048 RMK SLP417

CYQF;2011-02-08 10:00;CYQF 081000Z 22002KT 15SM SKC M31/M37 A3048 RMK SLP418

CYQF;2011-02-08 11:00;CYQF 081100Z 19003KT 15SM SKC M29/M35 A3049 RMK SLP420

CYQF;2011-02-08 12:00;CYQF 081200Z 18002KT 15SM SKC M31/M37 A3050 RMK SLP430

CYQF;2011-02-08 13:00;CYQF 081300Z 18004KT 15SM SKC M30/M35 A3050 RMK SLP431

CYQF;2011-02-08 14:00;CYQF 081400Z 17004KT 15SM SKC M30/M35 A3050 RMK SLP431

CYQF;2011-02-08 15:00;CYQF 081500Z CCA 16004KT 8SM SKC M28/M33 A3050 RMK SLP434

CYQF;2011-02-08 15:28;CYQF 081528Z 17003KT 8SM SKC

CYQF;2011-02-08 16:00;CYQF 081600Z 18003KT 10SM SKC M29/M34 A3051 RMK SLP437

CYQF;2011-02-08 17:00;CYQF 081700Z 18003KT 12SM SKC M24/M28 A3052 RMK SLP439

CYQF;2011-02-08 18:00;CYQF 081800Z 17004KT 15SM SKC M22/M26 A3051 RMK SLP433

CYQF;2011-02-08 19:00;CYQF 081900Z 18004KT 12SM SKC M20/M24 A3049 RMK IC SLP429

CYQF;2011-02-08 20:00;CYQF 082000Z 16004KT 15SM SKC M18/M22 A3044 RMK SLP413

CYQF;2011-02-08 21:00;CYQF 082100Z 17002KT 15SM SKC M16/M21 A3042 RMK SLP401

CYQF;2011-02-08 22:00;CYQF 082200Z 00000KT 15SM SKC M14/M21 A3041 RMK SLP397

CYQF;2011-02-08 23:00;CYQF 082300Z 00000KT 15SM FEW210 M13/M20 A3039 RMK CI1 SLP391

CYQF;2011-02-09 00:00;CYQF 090000Z 14003KT 15SM FEW210 M15/M21 A3036 RMK CI1 SLP381

CYQF;2011-02-09 01:00;CYQF 090100Z 18005KT 15SM FEW210 M20/M26 A3034 RMK CI0 SLP373

CYQF;2011-02-09 02:00;CYQF 090200Z 16003KT 15SM SKC M20/M25 A3032 RMK SLP367

CYQF;2011-02-09 03:00;CYQF 090300Z 00000KT 15SM SKC M21/M26 A3029 RMK SLP357

CYQF;2011-02-09 04:00;CYQF 090400Z 00000KT 15SM SKC M23/M27 A3025 RMK SLP346

CYQF;2011-02-09 05:00;CYQF 090500Z 18003KT 15SM SKC M24/M29 A3021 RMK SLP333

CYQF;2011-02-09 06:00;CYQF 090600Z 17005KT 15SM SKC M25/M30 A3017 RMK SLP312

CYQF;2011-02-09 07:00;CYQF 090700Z 18005KT 15SM SKC M25/M30 A3013 RMK SLP301

CYQF;2011-02-09 08:00;CYQF 090800Z 17003KT 15SM SKC M24/M29 A3010 RMK SLP292

CYQF;2011-02-09 09:00;CYQF 090900Z 17003KT 15SM SKC M25/M29 A3010 RMK SLP281

CYQF;2011-02-09 10:00;CYQF 091000Z 19004KT 15SM SKC M28/M33 A3009 RMK SLP280

CYQF;2011-02-09 11:00;CYQF 091100Z 19005KT 15SM SKC M27/M32 A3010 RMK SLP281

CYQF;2011-02-09 12:00;CYQF 091200Z 18003KT 15SM SKC M26/M31 A3008 RMK SLP276

CYQF;2011-02-09 13:00;CYQF 091300Z 23003KT 15SM SKC M25/M30 A3007 RMK SLP274

CYQF;2011-02-09 14:00;CYQF 091400Z 17003KT 15SM SKC M24/M29 A3006 RMK SLP269

CYQF;2011-02-09 15:00;CYQF 091500Z 19003KT 15SM BKN240 M23/M28 A3006 RMK CI2 SLP271

CYQF;2011-02-09 16:00;CYQF 091600Z 22006KT 15SM FEW120 BKN230 M19/M23 A3005 RMK AC2CI2 SLP268

CYQF;2011-02-09 17:00;CYQF 091700Z 22006KT 15SM SCT120 BKN230 M18/M22 A3004 RMK AC4CI2 SLP266

CYQF;2011-02-09 18:00;CYQF 091800Z 22007KT 15SM FEW120 BKN230 M15/M19 A3003 RMK AC2CI2 SLP255

CYQF;2011-02-09 19:00;CYQF 091900Z 23005KT 15SM BKN230 M13/M18 A3001 RMK CI5 SLP249

CYQF;2011-02-09 20:00;CYQF 092000Z 21008KT 15SM BKN230 M09/M17 A2998 RMK CI3 SLP240

CYQF;2011-02-09 21:00;CYQF 092100Z 23010G15KT 15SM BKN120 OVC230 M06/M15 A2996 RMK AC5CI2 SLP222

CYQF;2011-02-09 22:00;CYQF 092200Z 24007KT 15SM BKN060 OVC120 M05/M13 A2993 RMK SC6AC2 SLP213

CYQF;2011-02-09 23:00;CYQF 092300Z 24008KT 15SM BKN060 M04/M12 A2992 RMK SC7 SLP210

CYQF;2011-02-10 00:00;CYQF 100000Z 22003KT 15SM BKN060 M04/M12 A2990 RMK SC7 SLP201

CYQF;2011-02-10 01:00;CYQF 100100Z 23005KT 15SM BKN080 M05/M12 A2990 RMK AC7 SLP199

CYQF;2011-02-10 02:00;CYQF 100200Z 19005KT 15SM OVC080 M05/M12 A2987 RMK AC8 SLP192

CYQF;2011-02-10 03:00;CYQF 100300Z 22006KT 15SM BKN080 M04/M11 A2985 RMK AC6 SLP178

CYQF;2011-02-10 04:00;CYQF 100400Z 23010KT 15SM BKN080 M03/M11 A2984 RMK AC6 SLP174

CYQF;2011-02-10 05:00;CYQF 100500Z 22008KT 15SM BKN080 M03/M11 A2983 RMK AC6 SLP171

CYQF;2011-02-10 06:00;CYQF 100600Z 22007KT 15SM BKN080 M03/M11 A2982 RMK AC6 SLP157

CYQF;2011-02-10 07:00;CYQF 100700Z 22005KT 15SM BKN075 M03/M10 A2981 RMK AC6 SLP154

CYQF;2011-02-10 08:00;CYQF 100800Z 22003KT 15SM BKN075 M03/M10 A2979 RMK AC6 SLP150

CYQF;2011-02-10 09:00;CYQF 100900Z 29013G19KT 15SM SCT040 OVC080 M00/M08 A2979 RMK SC3AC5 SLP133

CYQF;2011-02-10 09:33;CYQF 100933Z 28013G20KT 10SM -SN SCT040 OVC080 RMK SC4AC4

CYQF;2011-02-10 10:00;CYQF 101000Z 28012KT 3SM -SN BKN030 OVC080 M01/M06 A2980 RMK SC6AC2 SLP138

CYQF;2011-02-10 10:30;CYQF 101030Z 27006KT 1 1/2SM -SN OVC030 RMK SN4SC4 VIS VRB 1-2

CYQF;2011-02-10 10:52;CYQF 101052Z 29006KT 6SM -SN BKN030 OVC080 RMK SC5AC3

CYQF;2011-02-10 11:00;CYQF 101100Z 27005KT 8SM -SN SCT030 OVC080 M01/M05 A2978 RMK SC4AC4 /S01/ SLP131

CYQF;2011-02-10 12:00;CYQF 101200Z 22006KT 15SM -SN FEW030 OVC075 M02/M05 A2977 RMK SC2AC6 SLP127

CYQF;2011-02-10 12:28;CYQF 101228Z 22004KT 15SM FEW030 OVC075 RMK SC2AC6

CYQF;2011-02-10 13:00;CYQF 101300Z 22005KT 15SM FEW030 OVC075 M02/M05 A2976 RMK SC2AC6 SLP123

CYQF;2011-02-10 14:00;CYQF 101400Z 22006KT 15SM FEW030 BKN075 M01/M06 A2976 RMK SC2AC5 SLP122

CYQF;2011-02-10 15:00;CYQF 101500Z 22005KT 15SM FEW030 BKN075 M01/M07 A2976 RMK SC2AC6 SLP121

CYQF;2011-02-10 16:00;CYQF 101600Z 22006KT 15SM FEW030 OVC075 M01/M07 A2976 RMK SC2AC6 VIRGA SLP121

CYQF;2011-02-10 17:00;CYQF 101700Z 28010G15KT 15SM DRSN FEW030 OVC075 01/M05 A2977 RMK SC2AC6 VIRGA SLP125

CYQF;2011-02-10 17:36;CYQF 101736Z 29015G25KT 2SM -SHSN DRSN OVC030 RMK SN4SC4

CYQF;2011-02-10 18:00;CYQF 101800Z 29012G20KT 3SM -SHSN DRSN SCT030 OVC075 01/M03 A2978 RMK SN2SC2AC4 SLP126

CYQF;2011-02-10 18:28;CYQF 101828Z 27008KT 15SM SCT030 OVC070 RMK SC4AC4 VIRGA

CYQF;2011-02-10 19:00;CYQF 101900Z 27005KT 15SM BKN030 OVC070 02/M04 A2975 RMK SC5AC3 SLP117

CYQF;2011-02-10 20:00;CYQF 102000Z 23005KT 15SM SCT040 BKN080 OVC200 02/M04 A2973 RMK SC3AC4CI1 SLP111

CYQF;2011-02-10 21:00;CYQF 102100Z 24004KT 15SM SCT040 OVC080 03/M06 A2972 RMK SC3AC5 SLP100

CYQF;2011-02-10 22:00;CYQF 102200Z 20005KT 15SM FEW040 OVC080 02/M04 A2971 RMK SC2AC6 SLP096

CYQF;2011-02-10 23:00;CYQF 102300Z 21005KT 15SM FEW040 BKN070 01/M04 A2972 RMK SC2AC5 SLP100

CYQF;2011-02-11 00:00;CYQF 110000Z 23003KT 15SM FEW040 BKN070 02/M05 A2974 RMK SC2AC5 SLP108

CYQF;2011-02-11 01:00;CYQF 110100Z 26004KT 15SM BKN070 02/M06 A2974 RMK AC7 SLP110

CYQF;2011-02-11 02:00;CYQF 110200Z 31005KT 15SM OVC070 01/M06 A2976 RMK AC8 SLP114

CYQF;2011-02-11 03:00;CYQF 110300Z 30006KT 15SM BKN070 01/M06 A2976 RMK AC7 SLP118

CYQF;2011-02-11 04:00;CYQF 110400Z 31010KT 15SM BKN070 03/M07 A2977 RMK AC7 SLP120

CYQF;2011-02-11 05:00;CYQF 110500Z 27005KT 15SM BKN070 01/M07 A2978 RMK AC6 SLP124

CYQF;2011-02-11 06:00;CYQF 110600Z 29010KT 15SM BKN075 02/M06 A2980 RMK AC6 SLP126

CYQF;2011-02-11 07:00;CYQF 110700Z 30007KT 15SM BKN075 02/M06 A2981 RMK AC6 SLP129

CYQF;2011-02-11 08:00;CYQF 110800Z 27003KT 15SM BKN075 02/M06 A2982 RMK AC6 SLP134

CYQF;2011-02-11 09:00;CYQF 110900Z 29006KT 15SM BKN075 01/M06 A2983 RMK AC6 SLP136

CYQF;2011-02-11 10:00;CYQF 111000Z 24004KT 15SM BKN075 M00/M06 A2983 RMK AC6 SLP136

CYQF;2011-02-11 11:00;CYQF 111100Z 21005KT 15SM OVC075 M01/M07 A2983 RMK AC6 SLP136

CYQF;2011-02-11 12:00;CYQF 111200Z 22005KT 15SM OVC075 M00/M07 A2984 RMK AC8 SLP142

CYQF;2011-02-11 13:00;CYQF 111300Z 21004KT 15SM OVC075 M00/M07 A2983 RMK AC8 SLP140

CYQF;2011-02-11 14:00;CYQF 111400Z 20003KT 15SM OVC075 M01/M07 A2982 RMK AC8 SLP135

CYQF;2011-02-11 15:00;CYQF 111500Z 00000KT 15SM SCT075 BKN250 M01/M07 A2981 RMK AC2CI2 SLP133

CYQF;2011-02-11 16:00;CYQF 111600Z 15005KT 15SM FEW070 BKN250 M03/M10 A2978 RMK AC1CI2 SLP124

CYQF;2011-02-11 17:00;CYQF 111700Z 18004KT 15SM FEW070 BKN130 BKN250 M02/M09 A2978 RMK AC1AS5CI0 SLP124

CYQF;2011-02-11 18:00;CYQF 111800Z 18004KT 15SM FEW070 BKN150 BKN250 M02/M09 A2975 RMK AC1AS5CI0 SLP114

CYQF;2011-02-11 19:00;CYQF 111900Z 19002KT 15SM BKN070 BKN250 00/M08 A2973 RMK AC6CI2 SLP107

CYQF;2011-02-11 20:00;CYQF 112000Z 15002KT 15SM FEW070 BKN100 BKN250 01/M07 A2969 RMK AC2AC5CI1 SLP094

CYQF;2011-02-11 21:00;CYQF 112100Z 18002KT 15SM FEW050 OVC100 02/M06 A2966 RMK SC1AC8 SLP078

CYQF;2011-02-11 22:00;CYQF 112200Z 13005KT 15SM FEW050 OVC090 03/M06 A2963 RMK SC1AC6 SLP070

CYQF;2011-02-11 23:00;CYQF 112300Z 14003KT 15SM FEW050 OVC090 02/M06 A2962 RMK SC1AC7 SLP065

CYQF;2011-02-12 00:00;CYQF 120000Z 00000KT 15SM BKN090 OVC210 01/M06 A2960 RMK AC6CI1 SLP060

CYQF;2011-02-12 01:00;CYQF 120100Z 00000KT 15SM BKN090 BKN210 M02/M07 A2959 RMK AC6CI1 SLP056

CYQF;2011-02-12 02:00;CYQF 120200Z 00000KT 15SM OVC090 M02/M08 A2957 RMK AC8 SLP052

CYQF;2011-02-12 03:00;CYQF 120300Z 21006KT 15SM OVC090 M04/M09 A2957 RMK AC8 SLP056

CYQF;2011-02-12 04:00;CYQF 120400Z 23008KT 15SM SCT090 BKN210 00/M08 A2956 RMK AC3CI2 SLP054

CYQF;2011-02-12 05:00;CYQF 120500Z 23008KT 15SM FEW090 BKN210 00/M08 A2957 RMK AC2CI2 SLP057

CYQF;2011-02-12 06:00;CYQF 120600Z 21008KT 15SM FEW090 OVC210 01/M08 A2957 RMK AC2CI2 SLP052

CYQF;2011-02-12 07:00;CYQF 120700Z 22007KT 15SM FEW090 OVC210 M00/M08 A2957 RMK AC2CI3 SLP051

CYQF;2011-02-12 08:00;CYQF 120800Z 22006KT 15SM SCT090 OVC210 M02/M09 A2957 RMK AC3CI3 SLP052

CYQF;2011-02-12 09:00;CYQF 120900Z 19005KT 15SM SCT090 OVC210 M02/M09 A2957 RMK AC3CI3 SLP051

CYQF;2011-02-12 10:00;CYQF 121000Z 20004KT 15SM SCT090 OVC210 M01/M09 A2956 RMK AC3CI4 SLP048

CYQF;2011-02-12 11:00;CYQF 121100Z 15003KT 15SM SCT090 OVC210 00/M07 A2955 RMK AC3CI4 SLP044

CYQF;2011-02-12 12:00;CYQF 121200Z 22008KT 15SM SCT090 OVC210 00/M08 A2954 RMK AC3CI4 SLP037

CYQF;2011-02-12 13:00;CYQF 121300Z 10003KT 15SM FEW090 OVC210 M01/M08 A2953 RMK AC2CI5 SLP035

CYQF;2011-02-12 14:00;CYQF 121400Z 00000KT 15SM SCT090 BKN210 M04/M11 A2951 RMK AC3CI4 SLP030

CYQF;2011-02-12 15:00;CYQF 121500Z 16003KT 15SM SCT100 BKN210 M02/M10 A2951 RMK AC2CI3 SLP035

CYQF;2011-02-12 16:00;CYQF 121600Z 14003KT 15SM FEW090 SCT120 BKN220 M01/M09 A2949 RMK AC1AS3CI2 SLP031

CYQF;2011-02-12 17:00;CYQF 121700Z 00000KT 15SM SCT120 BKN220 M03/M09 A2947 RMK AC3CI3 SLP025

CYQF;2011-02-12 18:00;CYQF 121800Z 00000KT 15SM FEW120 BKN220 01/M08 A2946 RMK AC1CI3 SLP009

CYQF;2011-02-12 19:00;CYQF 121900Z 14004KT 15SM FEW120 BKN220 03/M07 A2942 RMK AC1CI3 SLP998

CYQF;2011-02-12 20:00;CYQF 122000Z 18005KT 15SM SCT150 BKN250 03/M06 A2937 RMK AC4CI2 SLP982

CYQF;2011-02-12 21:00;CYQF 122100Z 16006KT 15SM BKN100 BKN240 05/M04 A2936 RMK AS5CS2 SLP974

CYQF;2011-02-12 22:00;CYQF 122200Z 17005KT 15SM BKN100 OVC250 06/M04 A2930 RMK AS6CS2 SLP955

CYQF;2011-02-12 23:00;CYQF 122300Z 21010G15KT 15SM BKN100 OVC240 06/M05 A2929 RMK AS6CS2 SLP953

CYQF;2011-02-13 00:00;CYQF 130000Z 21010G15KT 15SM BKN100 OVC240 06/M05 A2927 RMK AS7CS1 SLP940

CYQF;2011-02-13 01:00;CYQF 130100Z 20012KT 15SM BKN100 05/M05 A2925 RMK AS7 SLP934

CYQF;2011-02-13 02:00;CYQF 130200Z 18005KT 15SM OVC100 04/M05 A2924 RMK AS8 SLP930

CYQF;2011-02-13 03:00;CYQF 130300Z 18010KT 15SM OVC100 03/M05 A2921 RMK AS7 SLP923

CYQF;2011-02-13 04:00;CYQF 130400Z 17013KT 15SM OVC100 03/M05 A2916 RMK AS8 SLP908

CYQF;2011-02-13 05:00;CYQF 130500Z 18015KT 15SM FEW100 02/M05 A2910 RMK AC2 SLP891

CYQF;2011-02-13 06:00;CYQF 130600Z 18013KT 15SM SKC 02/M05 A2906 RMK SLP869

CYQF;2011-02-13 07:00;CYQF 130700Z 21016G23KT 15SM SKC 04/M05 A2905 RMK SLP867

CYQF;2011-02-13 08:00;CYQF 130800Z 22014G20KT 15SM FEW100 03/M04 A2909 RMK AC2 SLP881

CYQF;2011-02-13 09:00;CYQF 130900Z 22008KT 15SM SCT100 03/M04 A2912 RMK AC4 SLP884

CYQF;2011-02-13 10:00;CYQF 131000Z 22005KT 15SM SCT100 BKN220 01/M05 A2915 RMK AC3CI1 SLP894

CYQF;2011-02-13 11:00;CYQF 131100Z 24004KT 15SM FEW080 SCT220 M01/M06 A2919 RMK AC2CI1 SLP908

CYQF;2011-02-13 11:29;CYQF 131129Z CCA 29035G50KT 6SM -SN BLSN SCT060 BKN220 RMK SC3CI1

CYQF;2011-02-13 11:37;CYQF 131137Z 29025G35KT 2SM -SN BLSN BKN060 OVC090 RMK SN3SC4AC1

CYQF;2011-02-13 11:44;CYQF 131144Z 28016G23KT 10SM FEW060 SCT090 RMK SC2AC1

CYQF;2011-02-13 12:00;CYQF 131200Z 28014G20KT 15SM SCT060 SCT090 01/M04 A2930 RMK SC3AC1 REBS PRESRR SLP950

CYQF;2011-02-13 13:00;CYQF 131300Z 29015KT 15SM BKN080 01/M05 A2940 RMK AC5 PRESRR SLP980

CYQF;2011-02-13 14:00;CYQF 131400Z 31010G15KT 15SM FEW060 SCT090 00/M06 A2944 RMK SC1AC1 SLP993

CYQF;2011-02-13 15:00;CYQF 131500Z 25005KT 15SM FEW060 FEW090 SCT250 M02/M07 A2950 RMK SC1AC1CI1 SC TR ACC AS0CTD SLP025

CYQF;2011-02-13 16:00;CYQF 131600Z 17005KT 15SM FEW060 FEW090 FEW250 M05/M10 A2956 RMK SC1AC1CI1 SLP043

CYQF;2011-02-13 17:00;CYQF 131700Z 21007KT 15SM FEW060 M02/M07 A2959 RMK SC1 SLP053

CYQF;2011-02-13 18:00;CYQF 131800Z 20009KT 15SM FEW060 FEW250 00/M06 A2963 RMK SC1CI1 SLP069

CYQF;2011-02-13 19:00;CYQF 131900Z 18006KT 15SM SKC 01/M05 A2966 RMK SLP077

CYQF;2011-02-13 20:00;CYQF 132000Z 18005KT 15SM FEW030 FEW250 03/M04 A2967 RMK SC1CI1 SLP082

CYQF;2011-02-13 21:00;CYQF 132100Z 19008KT 15SM FEW036 BKN250 03/M06 A2968 RMK SC1CI5 CU SLP084

CYQF;2011-02-13 22:00;CYQF 132200Z 18008KT 15SM FEW040 SCT250 03/M06 A2970 RMK CU1CI1 SLP088

CYQF;2011-02-13 23:00;CYQF 132300Z 18005KT 15SM FEW040 FEW250 02/M07 A2971 RMK CU1CI2 SLP092

CYQF;2011-02-14 00:00;CYQF 140000Z 20005KT 15SM SCT250 03/M09 A2972 RMK CI1 SLP097

CYQF;2011-02-14 01:00;CYQF 140100Z 18004KT 15SM FEW100 BKN250 M01/M10 A2972 RMK AC1CI2 SLP098

CYQF;2011-02-14 02:00;CYQF 140200Z 17003KT 15SM FEW250 M03/M10 A2972 RMK CI2 SLP098

CYQF;2011-02-14 03:00;CYQF 140300Z 21008KT 15SM SCT210 M01/M11 A2971 RMK CI2 SLP102

CYQF;2011-02-14 04:00;CYQF 140400Z 19008KT 15SM BKN210 M05/M13 A2971 RMK CI3 SLP103

CYQF;2011-02-14 05:00;CYQF 140500Z 21004KT 15SM OVC210 M04/M12 A2970 RMK CI5 SLP100

CYQF;2011-02-14 06:00;CYQF 140600Z 18002KT 15SM FEW100 OVC210 M04/M12 A2969 RMK AC2CI4 SLP096

CYQF;2011-02-14 07:00;CYQF 140700Z 00000KT 15SM FEW100 OVC210 M04/M12 A2966 RMK AC2CI4 SLP089

CYQF;2011-02-14 08:00;CYQF 140800Z 17004KT 15SM FEW100 OVC210 M03/M11 A2964 RMK AC2CI4 SLP081

CYQF;2011-02-14 09:00;CYQF 140900Z 19008KT 15SM FEW100 OVC210 M03/M10 A2961 RMK AC2CI4 SLP066

CYQF;2011-02-14 10:00;CYQF 141000Z 18003KT 15SM SCT100 OVC210 M03/M10 A2961 RMK AC3CI4 SLP065

CYQF;2011-02-14 11:00;CYQF 141100Z 16004KT 15SM SCT100 OVC210 M01/M10 A2958 RMK AC3CI4 SLP056

CYQF;2011-02-14 12:00;CYQF 141200Z 18003KT 15SM SCT100 OVC210 M02/M10 A2956 RMK AC3CI4 SLP047

CYQF;2011-02-14 13:00;CYQF 141300Z 20004KT 15SM SCT100 OVC210 M03/M11 A2954 RMK AC3CI4 SLP039

CYQF;2011-02-14 14:00;CYQF 141400Z 22004KT 15SM FEW090 OVC210 M05/M12 A2951 RMK AC2CI4 SLP031

CYQF;2011-02-14 15:00;CYQF 141500Z 19004KT 15SM BKN090 OVC210 M03/M10 A2950 RMK AC6CI2 SLP030

CYQF;2011-02-14 16:00;CYQF 141600Z 27002KT 15SM SCT090 BKN210 M03/M11 A2948 RMK AC3CI3 SLP026

CYQF;2011-02-14 17:00;CYQF 141700Z 00000KT 15SM SCT090 BKN220 M03/M12 A2947 RMK AC3CI3 SLP023

CYQF;2011-02-14 18:00;CYQF 141800Z 06002KT 15SM FEW090 BKN220 M03/M11 A2945 RMK AC1CI6 SLP015

CYQF;2011-02-14 19:00;CYQF 141900Z 00000KT 15SM FEW090 BKN220 01/M09 A2945 RMK AC1CI4 SLP017

CYQF;2011-02-14 20:00;CYQF 142000Z 00000KT 15SM SCT090 BKN220 01/M09 A2941 RMK AC2CI5 SLP004

CYQF;2011-02-14 21:00;CYQF 142100Z 00000KT 15SM FEW090 BKN220 01/M08 A2939 RMK AC1CI6 SLP989

CYQF;2011-02-14 22:00;CYQF 142200Z 00000KT 15SM FEW090 BKN220 01/M07 A2936 RMK AC2CI4 SLP981

CYQF;2011-02-14 23:00;CYQF 142300Z 16004KT 15SM FEW040 FEW090 BKN250 02/M08 A2935 RMK SC1AC1CI6 SLP976

CYQF;2011-02-15 00:00;CYQF 150000Z 13006KT 15SM FEW040 FEW090 BKN250 00/M09 A2933 RMK SC1AC1CI6 SLP970

CYQF;2011-02-15 01:00;CYQF 150100Z 00000KT 15SM FEW040 SCT100 BKN250 M02/M09 A2931 RMK SC1AC2CI4 SLP963

CYQF;2011-02-15 02:00;CYQF 150200Z 15004KT 15SM FEW100 BKN250 M03/M10 A2929 RMK AC2CI3 SLP958

CYQF;2011-02-15 03:00;CYQF 150300Z 00000KT 15SM FEW100 BKN250 M04/M10 A2928 RMK AC2CI4 SLP957

CYQF;2011-02-15 04:00;CYQF 150400Z 00000KT 15SM OVC080 M05/M10 A2926 RMK AC8 SLP952

CYQF;2011-02-15 05:00;CYQF 150500Z 00000KT 15SM OVC080 M03/M09 A2926 RMK AC8 SLP952

CYQF;2011-02-15 06:00;CYQF 150600Z 17006KT 15SM SCT080 BKN250 02/M07 A2926 RMK AC3CI3 SLP945

CYQF;2011-02-15 07:00;CYQF 150700Z 18006KT 15SM SCT080 BKN250 01/M07 A2927 RMK AC3CI3 SLP946

CYQF;2011-02-15 08:00;CYQF 150800Z 19006KT 15SM FEW080 BKN250 02/M07 A2928 RMK AC2CI3 SLP951

CYQF;2011-02-15 09:00;CYQF 150900Z CCA 18007KT 15SM FEW080 BKN250 02/M07 A2927 RMK AC2CI3 SLP943

CYQF;2011-02-15 10:00;CYQF 151000Z 19007KT 15SM FEW080 BKN250 M01/M09 A2925 RMK AC1CI2 SLP937

CYQF;2011-02-15 11:00;CYQF 151100Z 17007KT 15SM FEW080 BKN250 M02/M09 A2923 RMK AC2CI2 SLP930

CYQF;2011-02-15 12:00;CYQF 151200Z 17007KT 15SM SCT080 BKN250 M01/M09 A2925 RMK AC3CI2 SLP940

CYQF;2011-02-15 13:00;CYQF 151300Z 16012G18KT 15SM SCT080 BKN250 03/M06 A2919 RMK AC4CI2 SLP922

CYQF;2011-02-15 14:00;CYQF 151400Z 18016G22KT 15SM SCT080 BKN250 04/M05 A2917 RMK AC3CI2 SLP917

CYQF;2011-02-15 15:00;CYQF 151500Z CCA 29015G20KT 15SM FEW030 BKN080 BKN250 03/M05 A2926 RMK SC2AC3CI2 VIRGA SLP944

CYQF;2011-02-15 16:00;CYQF 151600Z 31010KT 15SM FEW030 SCT080 BKN250 00/M07 A2932 RMK SC2ACC2CI2 SH DIST S SLP964

CYQF;2011-02-15 17:00;CYQF 151700Z 04005KT 15SM FEW030 FEW250 M01/M07 A2934 RMK SC2CI0 VIRGA E SLP969

CYQF;2011-02-15 18:00;CYQF 151800Z 34007KT 10SM FEW040 FEW100 SCT250 M02/M08 A2936 RMK SC1AC1CI1 SLP978

CYQF;2011-02-15 19:00;CYQF 151900Z 36007KT 10SM FEW040 FEW100 FEW250 M02/M08 A2937 RMK SC1AC1CI1 HZ SLP982

CYQF;2011-02-15 20:00;CYQF 152000Z 35008KT 6SM HZ FEW100 M03/M09 A2940 RMK AC1 SLP990

CYQF;2011-02-15 21:00;CYQF 152100Z 35006KT 8SM FEW250 M03/M10 A2941 RMK CI1 SLP996

CYQF;2011-02-15 22:00;CYQF 152200Z 03006KT 10SM FEW250 M03/M09 A2943 RMK CI1 SLP003

CYQF;2011-02-15 23:00;CYQF 152300Z 05007KT 10SM FEW040 M04/M10 A2945 RMK SC1 SLP009

CYQF;2011-02-16 00:00;CYQF 160000Z 04010KT 15SM FEW090 M06/M12 A2947 RMK AC1 SLP026

CYQF;2011-02-16 00:44;CYQF 160044Z 02010KT 8SM SCT008 RMK SC2

CYQF;2011-02-16 01:00;CYQF 160100Z 02010KT 6SM HZ BKN007 M09/M14 A2950 RMK SF6 SLP033

CYQF;2011-02-16 02:00;CYQF 160200Z 03010KT 8SM OVC006 M09/M13 A2952 RMK ST8 SLP041

CYQF;2011-02-16 03:00;CYQF 160300Z 01010KT 8SM OVC005 M09/M13 A2954 RMK ST8 SLP046

CYQF;2011-02-16 04:00;CYQF 160400Z 02008KT 6SM -SN OVC006 M10/M14 A2954 RMK SF8 SLP047

CYQF;2011-02-16 05:00;CYQF 160500Z 36008KT 8SM -SN OVC007 M10/M15 A2956 RMK SF8 SLP053

CYQF;2011-02-16 06:00;CYQF 160600Z 01010KT 8SM -SN OVC008 M11/M15 A2954 RMK SF8 SLP055

CYQF;2011-02-16 07:00;CYQF 160700Z 03004KT 5SM -SN OVC008 M11/M16 A2956 RMK ST8 SLP062

CYQF;2011-02-16 08:00;CYQF 160800Z 33004KT 5SM -SN OVC009 M11/M16 A2959 RMK ST8 SLP069

CYQF;2011-02-16 09:00;CYQF 160900Z 35010G15KT 5SM -SN OVC009 M13/M18 A2955 RMK ST8 SLP062

CYQF;2011-02-16 10:00;CYQF 161000Z 04010G15KT 5SM -SN OVC009 M13/M18 A2955 RMK ST8 SLP062

CYQF;2011-02-16 11:00;CYQF 161100Z 03008KT 10SM -SN OVC008 M15/M20 A2957 RMK ST8 SLP068

CYQF;2011-02-16 12:00;CYQF 161200Z 05010KT 15SM -SN OVC010 M16/M21 A2954 RMK ST8 SLP065

CYQF;2011-02-16 13:00;CYQF 161300Z 06010KT 15SM -SN OVC012 M17/M21 A2955 RMK ST8 SLP068

CYQF;2011-02-16 14:00;CYQF 161400Z 05010KT 15SM -SN OVC009 M17/M22 A2954 RMK ST8 SLP064

CYQF;2011-02-16 15:00;CYQF 161500Z 04007KT 10SM -SN OVC010 M18/M22 A2955 RMK ST8 SLP073

CYQF;2011-02-16 16:00;CYQF 161600Z 04010KT 3SM -SN OVC012 M18/M25 A2953 RMK ST8 SLP068

CYQF;2011-02-16 16:18;CYQF 161618Z 06007KT 2SM -SN OVC012 RMK SN2ST6

CYQF;2011-02-16 17:00;CYQF 161700Z 05010KT 2SM -SN OVC012 M19/M25 A2952 RMK SN2ST6 SLP065

CYQF;2011-02-16 18:00;CYQF 161800Z 06008KT 2SM -SN OVC012 M19/M26 A2955 RMK SN2SC6 VIS VRBL 11/2-21/2 SLP076

CYQF;2011-02-16 18:29;CYQF 161829Z 05007KT 3SM -SN OVC015 RMK SN2ST6

CYQF;2011-02-16 19:00;CYQF 161900Z 03007KT 5SM -SN OVC020 M19/M26 A2953 RMK SC8 SLP070

CYQF;2011-02-16 20:00;CYQF 162000Z 03004KT 5SM -SN OVC020 M20/M26 A2953 RMK SC8 SLP071

CYQF;2011-02-16 21:00;CYQF 162100Z 05005KT 5SM -SN OVC020 M20/M26 A2951 RMK SC8 SLP065

CYQF;2011-02-16 21:14;CYQF 162114Z 06008KT 1 1/2SM -SN OVC020 RMK SN2SC6

CYQF;2011-02-16 22:00;CYQF 162200Z 35002KT 4SM -SN OVC020 M20/M26 A2953 RMK SC8 SLP071

CYQF;2011-02-16 23:00;CYQF 162300Z 02005KT 3SM -SN OVC020 M19/M26 A2952 RMK SC8 SLP069

CYQF;2011-02-17 00:00;CYQF 170000Z 02006KT 5SM -SN BKN020 OVC050 M19/M26 A2951 RMK SC5SC3 /S01/ SLP071

CYQF;2011-02-17 01:00;CYQF 170100Z 01005KT 8SM -SN OVC020 M19/M26 A2954 RMK SC8 SLP079

CYQF;2011-02-17 02:00;CYQF 170200Z 36005KT 10SM -SN OVC030 M20/M26 A2955 RMK SC8 SLP083

CYQF;2011-02-17 03:00;CYQF 170300Z 35008KT 15SM -SN OVC030 M20/M27 A2956 RMK SC8 SLP092

CYQF;2011-02-17 04:00;CYQF 170400Z 34005KT 2SM -SN OVC025 M20/M27 A2958 RMK SN3SC5 SLP096

CYQF;2011-02-17 04:22;CYQF 170422Z 34005KT 1SM -SN OVC025 RMK SN5SC3

CYQF;2011-02-17 05:00;CYQF 170500Z 34005KT 1 1/2SM -SN OVC025 M21/M27 A2958 RMK SN4SC4 SLP098

CYQF;2011-02-17 05:18;CYQF 170518Z 35005KT 5SM -SN BKN025 OVC090 RMK SC5AC2

CYQF;2011-02-17 05:48;CYQF 170548Z 34005KT 2SM -SN OVC025 RMK SN3SC5

CYQF;2011-02-17 06:00;CYQF 170600Z 34004KT 2SM -SN BKN025 OVC250 M21/M27 A2958 RMK SN3SC2CI2 /S01/ SLP101

CYQF;2011-02-17 06:32;CYQF 170632Z 34004KT 4SM -SN BKN025 OVC250 RMK SN1SC4CI3

CYQF;2011-02-17 07:00;CYQF 170700Z 35005KT 6SM -SN FEW025 BKN090 OVC250 M21/M27 A2960 RMK SC2AC2CI2 SLP106

CYQF;2011-02-17 08:00;CYQF 170800Z 35005KT 10SM FEW025 BKN090 OVC250 M21/M27 A2963 RMK SC2AC3CI1 SLP114

CYQF;2011-02-17 09:00;CYQF 170900Z CCA 34003KT 10SM FEW025 SCT090 OVC250 M22/M28 A2966 RMK SC2AC2CI2 IC SLP127

CYQF;2011-02-17 10:00;CYQF 171000Z 00000KT 15SM -SN SCT090 BKN250 M22/M28 A2967 RMK AC3CI2 SLP131

CYQF;2011-02-17 11:00;CYQF 171100Z 00000KT 15SM -SN SCT090 BKN250 M23/M29 A2968 RMK AC3CI2 SLP135

CYQF;2011-02-17 11:35;CYQF 171135Z 32002KT 15SM SCT090 BKN250 RMK AC3CI2

CYQF;2011-02-17 12:00;CYQF 171200Z 32002KT 15SM SCT090 BKN250 M23/M28 A2969 RMK AC3CI2 SLP141

CYQF;2011-02-17 13:00;CYQF 171300Z 33003KT 15SM FEW090 BKN250 M22/M28 A2969 RMK AC2CI1 SLP142

CYQF;2011-02-17 14:00;CYQF 171400Z 32003KT 15SM FEW090 SCT250 M23/M29 A2971 RMK AC2CI1 SLP146

CYQF;2011-02-17 15:00;CYQF 171500Z 00000KT 15SM FEW100 SCT250 M26/M32 A2973 RMK AC2CI1 SLP160

CYQF;2011-02-17 16:00;CYQF 171600Z 27002KT 15SM FEW100 BKN250 M24/M29 A2976 RMK AC2CI2 SLP169

CYQF;2011-02-17 17:00;CYQF 171700Z 00000KT 15SM FEW100 BKN250 M23/M29 A2977 RMK AC1CI2 SLP173

CYQF;2011-02-17 18:00;CYQF 171800Z 32003KT 15SM FEW100 SCT250 M21/M27 A2979 RMK AC1CI1 SLP176

CYQF;2011-02-17 19:00;CYQF 171900Z 36005KT 15SM FEW100 FEW250 M21/M27 A2980 RMK AC1CI1 SLP180

CYQF;2011-02-17 20:00;CYQF 172000Z 36005KT 15SM FEW100 SCT250 M20/M27 A2981 RMK AC1CI1 SLP182

CYQF;2011-02-17 21:00;CYQF 172100Z 01005KT 15SM FEW100 SCT250 M20/M28 A2982 RMK AC1CI1 SLP186

CYQF;2011-02-17 22:00;CYQF 172200Z 35004KT 15SM FEW120 SCT250 M20/M28 A2982 RMK AC2CI1 SLP187

CYQF;2011-02-17 23:00;CYQF 172300Z 36006KT 15SM FEW120 SCT250 M20/M28 A2984 RMK AC2CI1 SLP191

CYQF;2011-02-18 00:00;CYQF 180000Z 35003KT 15SM FEW120 BKN250 M21/M29 A2986 RMK AC2CI2 SLP203

CYQF;2011-02-18 01:00;CYQF 180100Z 33002KT 15SM FEW040 M22/M30 A2989 RMK SC2 SLP210

CYQF;2011-02-18 02:00;CYQF 180200Z 00000KT 15SM FEW040 SCT250 M22/M29 A2992 RMK SC2CI0 SLP219

CYQF;2011-02-18 03:00;CYQF 180300Z 00000KT 15SM FEW040 SCT250 M23/M30 A2994 RMK SC2CI0 SLP235

CYQF;2011-02-18 04:00;CYQF 180400Z 00000KT 15SM BKN250 M24/M30 A2995 RMK CI3 SLP241

CYQF;2011-02-18 05:00;CYQF 180500Z 00000KT 15SM FEW100 BKN250 M24/M30 A2998 RMK AC1CI4 SLP250

CYQF;2011-02-18 06:00;CYQF 180600Z 00000KT 15SM FEW100 BKN250 M24/M30 A3001 RMK AC1CI2 SLP255

CYQF;2011-02-18 07:00;CYQF 180700Z 00000KT 15SM FEW100 OVC250 M23/M30 A3002 RMK AC1CI2 SLP260

CYQF;2011-02-18 08:00;CYQF 180800Z 00000KT 15SM OVC250 M24/M30 A3006 RMK CI3 SLP271

CYQF;2011-02-18 09:00;CYQF 180900Z 32005KT 15SM OVC210 M22/M29 A3007 RMK CI6 SLP274

CYQF;2011-02-18 10:00;CYQF 181000Z 30005KT 15SM SCT150 M24/M30 A3009 RMK AC3 SLP280

CYQF;2011-02-18 11:00;CYQF 181100Z 30003KT 15SM FEW150 M24/M30 A3011 RMK AC2 SLP285

CYQF;2011-02-18 12:00;CYQF 181200Z 00000KT 15SM FEW150 M25/M30 A3012 RMK AC1 SLP296

CYQF;2011-02-18 13:00;CYQF 181300Z 30004KT 15SM FEW150 M26/M32 A3014 RMK AC1 SLP301

CYQF;2011-02-18 14:00;CYQF 181400Z 31005KT 15SM FEW150 M26/M32 A3016 RMK AC1 SLP307

CYQF;2011-02-18 15:00;CYQF 181500Z 29004KT 15SM FEW150 M26/M32 A3018 RMK AC1 SLP322

CYQF;2011-02-18 16:00;CYQF 181600Z 28004KT 15SM FEW150 M27/M34 A3021 RMK AC1 SLP330

CYQF;2011-02-18 17:00;CYQF 181700Z 00000KT 15SM SKC M25/M31 A3023 RMK SLP336

CYQF;2011-02-18 18:00;CYQF 181800Z 33004KT 15SM SKC M23/M30 A3025 RMK SLP341

CYQF;2011-02-18 19:00;CYQF 181900Z 36003KT 15SM SKC M22/M30 A3025 RMK SLP342

CYQF;2011-02-18 20:00;CYQF 182000Z 00000KT 15SM SKC M21/M29 A3024 RMK SLP339

CYQF;2011-02-18 21:00;CYQF 182100Z 00000KT 15SM SKC M19/M28 A3023 RMK SLP328

CYQF;2011-02-18 22:00;CYQF 182200Z 00000KT 15SM SKC M21/M29 A3023 RMK SLP328

CYQF;2011-02-18 23:00;CYQF 182300Z 00000KT 15SM SKC M20/M29 A3024 RMK SLP331

CYQF;2011-02-19 00:00;CYQF 190000Z 00000KT 15SM SKC M22/M29 A3024 RMK SLP337

CYQF;2011-02-19 01:00;CYQF 190100Z 00000KT 15SM SKC M23/M30 A3025 RMK SLP339

CYQF;2011-02-19 02:00;CYQF 190200Z 00000KT 15SM SKC M25/M31 A3026 RMK SLP344

CYQF;2011-02-19 03:00;CYQF 190300Z 18003KT 15SM SKC M27/M33 A3027 RMK SLP355

CYQF;2011-02-19 04:00;CYQF 190400Z 17002KT 15SM SKC M28/M34 A3027 RMK SLP357

CYQF;2011-02-19 05:00;CYQF 190500Z 17003KT 15SM SKC M28/M34 A3027 RMK SLP356

CYQF;2011-02-19 06:00;CYQF 190600Z 19003KT 15SM SKC M29/M35 A3026 RMK SLP354

CYQF;2011-02-19 07:00;CYQF 190700Z 17003KT 15SM SKC M29/M35 A3026 RMK SLP352

CYQF;2011-02-19 08:00;CYQF 190800Z 00000KT 15SM FEW120 M28/M35 A3025 RMK AC2 SLP350

CYQF;2011-02-19 09:00;CYQF 190900Z 00000KT 15SM FEW120 M28/M34 A3024 RMK AC1 SLP338

CYQF;2011-02-19 10:00;CYQF 191000Z 00000KT 15SM FEW120 M29/M35 A3023 RMK AC1 SLP335

CYQF;2011-02-19 11:00;CYQF 191100Z 18003KT 15SM FEW120 M29/M35 A3022 RMK AC1 SLP331

CYQF;2011-02-19 12:00;CYQF 191200Z 17004KT 15SM SKC M29/M35 A3021 RMK SLP332

CYQF;2011-02-19 13:00;CYQF 191300Z 18003KT 15SM SKC M30/M36 A3021 RMK SLP332

CYQF;2011-02-19 14:00;CYQF 191400Z 00000KT 15SM SKC M30/M36 A3020 RMK SLP331

CYQF;2011-02-19 15:00;CYQF 191500Z 00000KT 15SM SKC M30/M36 A3021 RMK SLP339

CYQF;2011-02-19 16:00;CYQF 191600Z 00000KT 10SM SKC M29/M35 A3021 RMK SLP339

CYQF;2011-02-19 17:00;CYQF 191700Z 00000KT 6SM IC SKC M26/M31 A3020 RMK SLP336

CYQF;2011-02-19 18:00;CYQF 191800Z 00000KT 6SM IC SKC M24/M30 A3019 RMK IC SLP329

CYQF;2011-02-19 19:00;CYQF 191900Z 13004KT 10SM SKC M22/M29 A3018 RMK SLP326

CYQF;2011-02-19 20:00;CYQF 192000Z 16010KT 12SM SKC M20/M27 A3016 RMK SLP319

CYQF;2011-02-19 21:00;CYQF 192100Z 15007KT 12SM SKC M19/M26 A3014 RMK SLP304

CYQF;2011-02-19 22:00;CYQF 192200Z 13008KT 12SM SKC M19/M25 A3013 RMK SLP300

CYQF;2011-02-19 23:00;CYQF 192300Z 12010KT 12SM SKC M19/M26 A3012 RMK SLP296

CYQF;2011-02-20 00:00;CYQF 200000Z 15008KT 12SM SKC M19/M26 A3012 RMK SLP297

CYQF;2011-02-20 01:00;CYQF 200100Z 15007KT 15SM SKC M21/M27 A3011 RMK SLP295

CYQF;2011-02-20 02:00;CYQF 200200Z 15008KT 15SM SKC M22/M28 A3011 RMK SLP294

CYQF;2011-02-20 03:00;CYQF 200300Z 12003KT 15SM SKC M23/M28 A3010 RMK SLP295

CYQF;2011-02-20 04:00;CYQF 200400Z 14007KT 15SM SKC M22/M28 A3009 RMK VIS S 5 SLP292

CYQF;2011-02-20 05:00;CYQF 200500Z 15012KT 15SM SKC M21/M27 A3008 RMK SLP289

CYQF;2011-02-20 06:00;CYQF 200600Z 15010KT 15SM SKC M22/M28 A3005 RMK SLP271

CYQF;2011-02-20 07:00;CYQF 200700Z 16010KT 15SM SKC M23/M28 A3004 RMK SLP266

CYQF;2011-02-20 08:00;CYQF 200800Z 14004KT 10SM SKC M23/M29 A3002 RMK SLP261

CYQF;2011-02-20 09:00;CYQF 200900Z 19004KT 3SM BR SKC M24/M29 A3000 RMK SLP250

CYQF;2011-02-20 10:00;CYQF 201000Z 00000KT 10SM SKC M23/M29 A3000 RMK SLP248

CYQF;2011-02-20 11:00;CYQF 201100Z 15003KT 10SM SKC M23/M29 A2997 RMK SLP240

CYQF;2011-02-20 12:00;CYQF 201200Z 18005KT 10SM SKC M23/M29 A2996 RMK SLP236

CYQF;2011-02-20 13:00;CYQF 201300Z 16008KT 10SM SKC M23/M29 A2995 RMK SLP231

CYQF;2011-02-20 14:00;CYQF 201400Z 16013KT 10SM SKC M24/M30 A2992 RMK SLP224

CYQF;2011-02-20 14:20;CYQF 201420Z 16008KT 5SM BR SKC

CYQF;2011-02-20 15:00;CYQF 201500Z 16010KT 6SM BR SKC M23/M29 A2991 RMK SLP223

CYQF;2011-02-20 16:00;CYQF 201600Z 16012G18KT 6SM BR SKC M21/M27 A2988 RMK SLP214

CYQF;2011-02-20 17:00;CYQF 201700Z 15010G15KT 10SM SKC M19/M25 A2987 RMK SLP210

CYQF;2011-02-20 18:00;CYQF 201800Z 16017G25KT 10SM DRSN SKC M18/M24 A2985 RMK SLP193

CYQF;2011-02-20 19:00;CYQF 201900Z 16012G18KT 10SM DRSN SKC M16/M23 A2983 RMK SLP188

CYQF;2011-02-20 20:00;CYQF 202000Z 14018G27KT 10SM DRSN SKC M15/M21 A2980 RMK SLP177

CYQF;2011-02-20 21:00;CYQF 202100Z CCA 15012G20KT 10SM DRSN SKC M14/M20 A2976 RMK SLP161

CYQF;2011-02-20 22:00;CYQF 202200Z 14012G20KT 15SM DRSN SKC M13/M20 A2974 RMK SLP154

CYQF;2011-02-20 23:00;CYQF 202300Z 15012G18KT 15SM SKC M13/M19 A2974 RMK SLP153

CYQF;2011-02-21 00:00;CYQF 210000Z 14012KT 15SM SKC M13/M19 A2972 RMK SLP144

CYQF;2011-02-21 01:00;CYQF 210100Z 15010KT 15SM SKC M13/M19 A2971 RMK SLP140

CYQF;2011-02-21 02:00;CYQF 210200Z 15011KT 15SM SKC M14/M20 A2971 RMK SLP141

CYQF;2011-02-21 03:00;CYQF 210300Z 15010G15KT 15SM SKC M14/M20 A2971 RMK SLP141

CYQF;2011-02-21 04:00;CYQF 210400Z 14010KT 15SM SKC M15/M21 A2970 RMK SLP138

CYQF;2011-02-21 05:00;CYQF 210500Z 14008KT 15SM SKC M16/M21 A2969 RMK SLP135

CYQF;2011-02-21 06:00;CYQF 210600Z 17008KT 15SM SKC M17/M22 A2968 RMK SLP128

CYQF;2011-02-21 07:00;CYQF 210700Z 20003KT 15SM SKC M20/M25 A2967 RMK SLP125

CYQF;2011-02-21 08:00;CYQF 210800Z 17005KT 15SM SKC M20/M25 A2966 RMK SLP122

CYQF;2011-02-21 09:00;CYQF 210900Z 17006KT 15SM SKC M21/M26 A2965 RMK SLP117

CYQF;2011-02-21 10:00;CYQF 211000Z 17004KT 15SM SKC M23/M28 A2964 RMK SLP115

CYQF;2011-02-21 11:00;CYQF 211100Z 19004KT 15SM SKC M23/M29 A2964 RMK SLP113

CYQF;2011-02-21 12:00;CYQF 211200Z 19006KT 15SM SKC M23/M28 A2963 RMK SLP113

CYQF;2011-02-21 13:00;CYQF 211300Z 18006KT 15SM SKC M23/M29 A2962 RMK SLP109

CYQF;2011-02-21 14:00;CYQF 211400Z 18007KT 15SM FEW250 M23/M28 A2962 RMK CI1 SLP108

CYQF;2011-02-21 15:00;CYQF 211500Z 17007KT 15SM SCT250 M23/M28 A2962 RMK CI2 SLP111

CYQF;2011-02-21 16:00;CYQF 211600Z 18005KT 15SM BKN250 M21/M26 A2962 RMK CI3 SLP109

CYQF;2011-02-21 17:00;CYQF 211700Z 18004KT 15SM FEW120 BKN250 M18/M23 A2961 RMK AC1CI3 SLP107

CYQF;2011-02-21 18:00;CYQF 211800Z 19003KT 15SM OVC120 M14/M21 A2960 RMK AS7 SLP096

CYQF;2011-02-21 19:00;CYQF 211900Z 17003KT 15SM OVC100 M12/M19 A2959 RMK AS7 SLP092

CYQF;2011-02-21 20:00;CYQF 212000Z 16003KT 15SM BKN080 OVC220 M09/M18 A2956 RMK AC6CI2 SLP085

CYQF;2011-02-21 21:00;CYQF 212100Z 16004KT 15SM SCT080 BKN220 M08/M17 A2954 RMK AC2CI2 SLP072

CYQF;2011-02-21 22:00;CYQF 212200Z 00000KT 15SM SCT100 BKN250 M05/M14 A2952 RMK AC2CI2 SLP065

CYQF;2011-02-21 23:00;CYQF 212300Z 16002KT 15SM SCT100 BKN250 M05/M15 A2950 RMK AC4CI2 SLP061

CYQF;2011-02-22 00:00;CYQF 220000Z 00000KT 15SM FEW100 BKN250 M06/M15 A2949 RMK AC2CI2 SLP057

CYQF;2011-02-22 01:00;CYQF 220100Z 00000KT 15SM FEW100 BKN250 M08/M16 A2949 RMK AC2CI2 SLP055

CYQF;2011-02-22 02:00;CYQF 220200Z 00000KT 15SM SCT100 BKN250 M10/M18 A2950 RMK AC3CI3 SLP059

CYQF;2011-02-22 03:00;CYQF 220300Z 18004KT 15SM BKN110 OVC250 M11/M18 A2949 RMK AC6CI2 SLP063

CYQF;2011-02-22 04:00;CYQF 220400Z 16002KT 15SM BKN110 OVC250 M11/M18 A2950 RMK AC6CI2 SLP064

CYQF;2011-02-22 05:00;CYQF 220500Z 25003KT 15SM BKN070 OVC110 M12/M18 A2950 RMK AC6AC2 SLP065

CYQF;2011-02-22 06:00;CYQF 220600Z 30010KT 15SM FEW070 FEW110 M09/M18 A2953 RMK AC2AC1 SLP061

CYQF;2011-02-22 07:00;CYQF 220700Z 33012KT 15SM FEW070 FEW110 M07/M13 A2955 RMK AC2AC1 SLP069

CYQF;2011-02-22 08:00;CYQF 220800Z 32006KT 15SM FEW070 M11/M15 A2956 RMK AC2 SLP072

CYQF;2011-02-22 09:00;CYQF 220900Z 32005KT 15SM FEW070 M13/M17 A2957 RMK AC2 SLP076

CYQF;2011-02-22 10:00;CYQF 221000Z 22004KT 15SM FEW070 M14/M18 A2958 RMK AC2 SLP079

CYQF;2011-02-22 11:00;CYQF 221100Z 36002KT 15SM FEW080 M11/M15 A2959 RMK AC2 SLP080

CYQF;2011-02-22 12:00;CYQF 221200Z 30008KT 15SM SCT050 BKN080 M13/M17 A2962 RMK SC3AC2 SLP089

CYQF;2011-02-22 13:00;CYQF 221300Z 31008KT 15SM SCT016 OVC050 M10/M16 A2964 RMK SC4SC4 SLP097

CYQF;2011-02-22 13:35;CYQF 221335Z 32010KT 15SM -SN SCT016 BKN030 RMK SC3SC4

CYQF;2011-02-22 14:00;CYQF 221400Z 33014KT 15SM -SN SCT015 BKN030 M10/M15 A2967 RMK SC3SC4 SLP105

CYQF;2011-02-22 14:27;CYQF 221427Z 32010G15KT 6SM -SN BKN014 OVC030 RMK SC5SC3

CYQF;2011-02-22 15:00;CYQF 221500Z 35010KT 6SM -SN BKN018 OVC030 M10/M16 A2970 RMK SC5SC3 SLP119

CYQF;2011-02-22 15:37;CYQF 221537Z 33007KT 2SM -SN OVC015 RMK SN2SC6 VIS VRBL 11/2-21/2

CYQF;2011-02-22 16:00;CYQF 221600Z 33005KT 2SM -SN OVC015 M10/M15 A2973 RMK SN2SC6 VIS VRBL 11/2-21/2 SLP128

CYQF;2011-02-22 17:00;CYQF 221700Z 33006KT 2SM -SN OVC015 M10/M16 A2975 RMK SN3SC5 VIS VRB 1-21/2 SLP134

CYQF;2011-02-22 17:38;CYQF 221738Z 32013G20KT 6SM -SN DRSN FEW015 BKN250 RMK SC2CI4 VIS E 2

CYQF;2011-02-22 17:53;CYQF 221753Z 32010G15KT 15SM DRSN SCT015 BKN250 RMK SC2CI1

CYQF;2011-02-22 18:00;CYQF 221800Z 32012G18KT 15SM DRSN SCT015 BKN250 M11/M17 A2976 RMK SC2CI1 SLP141

CYQF;2011-02-22 19:00;CYQF 221900Z 31013G19KT 15SM DRSN FEW030 BKN100 BKN250 M11/M18 A2979 RMK SC2AC3CI2 SLP148

CYQF;2011-02-22 20:00;CYQF 222000Z 33012G18KT 15SM DRSN FEW030 BKN250 M12/M19 A2980 RMK SC1CS5 SLP152

CYQF;2011-02-22 21:00;CYQF 222100Z 31015G20KT 15SM DRSN FEW030 BKN250 M12/M20 A2980 RMK SC1CI2 SLP161

CYQF;2011-02-22 22:00;CYQF 222200Z 33014G20KT 15SM DRSN FEW030 BKN250 M13/M22 A2982 RMK SC1CI2 CC SLP167

CYQF;2011-02-22 23:00;CYQF 222300Z 34010G15KT 15SM BKN250 M13/M22 A2984 RMK CI6 SLP171

CYQF;2011-02-23 00:00;CYQF 230000Z 34007KT 15SM BKN250 M13/M22 A2986 RMK CI6 SLP181

CYQF;2011-02-23 01:00;CYQF 230100Z 34007KT 15SM FEW100 BKN250 M13/M21 A2988 RMK AC2CI2 SLP188

CYQF;2011-02-23 02:00;CYQF 230200Z 33005KT 15SM SCT100 BKN250 M13/M22 A2991 RMK AC3CI3 SLP196

CYQF;2011-02-23 03:00;CYQF 230300Z 32003KT 15SM BKN100 OVC250 M14/M22 A2993 RMK AC5CI3 SLP203

CYQF;2011-02-23 04:00;CYQF 230400Z 31004KT 15SM BKN055 OVC100 M14/M22 A2995 RMK SC5AC3 SLP209

CYQF;2011-02-23 05:00;CYQF 230500Z 33007KT 15SM BKN060 OVC100 M14/M23 A2997 RMK SC5AC3 SLP215

CYQF;2011-02-23 06:00;CYQF 230600Z 31010KT 15SM FEW060 SCT100 BKN250 M14/M23 A2998 RMK SC2AC2CI2 SLP224

CYQF;2011-02-23 07:00;CYQF 230700Z 32008KT 15SM FEW060 FEW100 BKN250 M16/M24 A3001 RMK SC1AC2CI2 SLP231

CYQF;2011-02-23 08:00;CYQF 230800Z 32008KT 15SM BKN090 OVC250 M16/M24 A3003 RMK AC5CI2 SLP238

CYQF;2011-02-23 09:00;CYQF 230900Z 32010KT 15SM SCT090 BKN250 M17/M25 A3005 RMK AC3CI2 SLP249

CYQF;2011-02-23 10:00;CYQF 231000Z 31005KT 15SM SCT090 BKN250 M18/M25 A3006 RMK AC3CI2 SLP253

CYQF;2011-02-23 11:00;CYQF 231100Z 29003KT 15SM SCT090 BKN250 M19/M26 A3008 RMK AC3CI2 SLP259

CYQF;2011-02-23 12:00;CYQF 231200Z CCA 29005KT 15SM FEW090 BKN250 M20/M27 A3009 RMK AC2CI2 SLP271

CYQF;2011-02-23 13:00;CYQF 231300Z 28006KT 15SM FEW090 BKN250 M22/M28 A3012 RMK AC1CI2 SLP278

CYQF;2011-02-23 14:00;CYQF 231400Z 28005KT 15SM FEW090 BKN250 M22/M28 A3014 RMK AC2CI3 SLP284

CYQF;2011-02-23 15:00;CYQF 231500Z 30004KT 10SM -SN FEW030 SCT090 BKN250 M23/M28 A3015 RMK SC1AC2CI2 VIS N 3 SLP296

CYQF;2011-02-23 16:00;CYQF 231600Z 30008KT 6SM -SN FEW030 BKN100 OVC250 M20/M26 A3018 RMK SC1AC5CI2 SLP303

CYQF;2011-02-23 17:00;CYQF 231700Z 30008KT 15SM FEW025 FEW100 FEW250 M20/M26 A3019 RMK SC1AC1CI0 SC TR SLP307

CYQF;2011-02-23 18:00;CYQF 231800Z CCA 32010KT 15SM DRSN FEW150 BKN250 M19/M26 A3021 RMK AC1CI0 SLP310

CYQF;2011-02-23 19:00;CYQF 231900Z 33008KT 15SM DRSN SCT025 BKN100 BKN250 M18/M25 A3022 RMK SC3AC0CC1 SLP314

CYQF;2011-02-23 19:13;CYQF 231913Z 33010KT 6SM -SN DRSN BKN025 BKN100 RMK SC5AC0

CYQF;2011-02-23 20:00;CYQF 232000Z 31010G15KT 6SM -SN DRSN BKN025 BKN100 M18/M25 A3022 RMK SC2AC2 SLP314

CYQF;2011-02-23 20:54;CYQF 232054Z 32010G15KT 8SM DRSN SCT025 BKN100 RMK SC2AC2

CYQF;2011-02-23 21:00;CYQF 232100Z 32010G15KT 8SM DRSN SCT025 BKN100 M18/M26 A3021 RMK SC2AC2 SLP314

CYQF;2011-02-23 22:00;CYQF 232200Z 33010G15KT 15SM FEW025 FEW100 M18/M26 A3022 RMK SC2AC1 SLP317

CYQF;2011-02-23 23:00;CYQF 232300Z 33010KT 15SM FEW030 FEW100 M18/M27 A3024 RMK CF1AC2 SLP321

CYQF;2011-02-24 00:00;CYQF 240000Z 32008KT 15SM FEW025 FEW250 M18/M27 A3025 RMK SC1CI1 SC TR SLP331

CYQF;2011-02-24 01:00;CYQF 240100Z 31005KT 15SM FEW030 SCT250 M19/M28 A3027 RMK SC1CI2 OBS TAKEN +07 SLP338

CYQF;2011-02-24 02:00;CYQF 240200Z 32005KT 15SM FEW030 SCT250 M22/M29 A3029 RMK SC1CI1 SLP343

CYQF;2011-02-24 03:00;CYQF 240300Z 32004KT 15SM SKC M23/M31 A3029 RMK SLP355

CYQF;2011-02-24 04:00;CYQF 240400Z 30005KT 15SM SKC M23/M30 A3032 RMK SLP363

CYQF;2011-02-24 05:00;CYQF 240500Z 31004KT 15SM FEW090 M23/M30 A3034 RMK AC2 SLP369

CYQF;2011-02-24 05:52;CYQF 240552Z 32007KT 10SM -SN BKN040 BKN090 RMK SC5AC2

CYQF;2011-02-24 06:00;CYQF 240600Z 32007KT 15SM SCT040 BKN090 M22/M29 A3037 RMK SC3AC2 SLP378

CYQF;2011-02-24 07:00;CYQF 240700Z 32007KT 15SM FEW040 SCT090 M23/M30 A3038 RMK SC2AC1 SLP380

CYQF;2011-02-24 08:00;CYQF 240800Z 31010KT 15SM FEW040 SCT090 M23/M30 A3039 RMK SC2AC1 SLP384

CYQF;2011-02-24 09:00;CYQF 240900Z 30012KT 15SM BKN040 BKN090 M23/M31 A3041 RMK SC6AC2 SLP392

CYQF;2011-02-24 09:42;CYQF 240942Z 30008KT 10SM -SN BKN040 OVC090 RMK SC6AC2

CYQF;2011-02-24 10:00;CYQF 241000Z 30008KT 10SM -SN BKN040 BKN090 M24/M30 A3043 RMK SC5AC1 SLP396

CYQF;2011-02-24 11:00;CYQF 241100Z 30005KT 10SM -SN BKN040 BKN090 M24/M31 A3043 RMK SC5AC1 SLP397

CYQF;2011-02-24 12:00;CYQF 241200Z 31007KT 15SM FEW040 SCT250 M26/M32 A3042 RMK SC2CI1 IC SLP398

CYQF;2011-02-24 13:00;CYQF 241300Z 28005KT 15SM FEW040 SCT250 M27/M33 A3043 RMK SC2CI1 SLP401

CYQF;2011-02-24 14:00;CYQF 241400Z 27004KT 15SM FEW250 M27/M34 A3043 RMK CI1 SLP400

CYQF;2011-02-24 15:00;CYQF 241500Z 30005KT 15SM FEW250 M28/M34 A3044 RMK CI1 SLP414

CYQF;2011-02-24 16:00;CYQF 241600Z 30006KT 15SM FEW250 M27/M33 A3044 RMK CI1 SLP415

CYQF;2011-02-24 17:00;CYQF 241700Z 32006KT 15SM FEW250 M25/M32 A3045 RMK CI1 SLP416

CYQF;2011-02-24 18:00;CYQF 241800Z 30008KT 15SM FEW250 M24/M31 A3044 RMK CI1 SLP408

CYQF;2011-02-24 19:00;CYQF 241900Z 27006KT 15SM FEW025 FEW250 M24/M31 A3043 RMK SC1CI1 SLP405

CYQF;2011-02-24 20:00;CYQF 242000Z 27006KT 15SM FEW025 FEW250 M23/M30 A3041 RMK SC1CI1 SC TR SLP397

CYQF;2011-02-24 21:00;CYQF 242100Z 27005KT 15SM FEW025 FEW250 M23/M30 A3040 RMK SC1CI1 SLP392

CYQF;2011-02-24 22:00;CYQF 242200Z 27002KT 15SM SCT025 M22/M30 A3036 RMK SC1 SC INVDG SLOWLY FM NE SLP382

CYQF;2011-02-24 23:00;CYQF 242300Z 00000KT 15SM FEW250 M21/M30 A3035 RMK CI0 SLP378

CYQF;2011-02-25 00:00;CYQF 250000Z 00000KT 15SM SKC M22/M31 A3033 RMK SLP372

CYQF;2011-02-25 01:00;CYQF 250100Z 17002KT 15SM SKC M24/M32 A3031 RMK SLP366

CYQF;2011-02-25 02:00;CYQF 250200Z 18004KT 15SM SKC M27/M34 A3029 RMK SLP360

CYQF;2011-02-25 03:00;CYQF 250300Z 18005KT 15SM SKC M29/M36 A3028 RMK SLP364

CYQF;2011-02-25 04:00;CYQF 250400Z 19006KT 15SM SKC M29/M35 A3026 RMK SLP358

CYQF;2011-02-25 05:00;CYQF 250500Z 18006KT 15SM SKC M31/M38 A3024 RMK SLP353

CYQF;2011-02-25 06:00;CYQF 250600Z 18004KT 15SM SKC M31/M37 A3020 RMK SLP334

CYQF;2011-02-25 07:00;CYQF 250700Z 19006KT 15SM SKC M30/M36 A3016 RMK SLP321

CYQF;2011-02-25 08:00;CYQF 250800Z 19004KT 15SM SKC M30/M36 A3015 RMK SLP317

CYQF;2011-02-25 09:00;CYQF 250900Z 00000KT 15SM SKC M32/M38 A3012 RMK SLP305

CYQF;2011-02-25 10:00;CYQF 251000Z 17006KT 15SM SKC M31/M37 A3009 RMK SLP295

CYQF;2011-02-25 11:00;CYQF 251100Z 23004KT 15SM SKC M31/M37 A3008 RMK SLP292

CYQF;2011-02-25 12:00;CYQF 251200Z 19004KT 15SM SKC M32/M38 A3006 RMK SLP285

CYQF;2011-02-25 13:00;CYQF 251300Z 19005KT 15SM SKC M33/M39 A3005 RMK SLP280

CYQF;2011-02-25 14:00;CYQF 251400Z 18003KT 15SM FEW120 BKN250 M33/M39 A3002 RMK AC2CI2 SLP272

CYQF;2011-02-25 15:00;CYQF 251500Z 19003KT 15SM FEW120 SCT250 M32/M39 A3001 RMK AC1CI1 SLP276

CYQF;2011-02-25 16:00;CYQF 251600Z 21005KT 15SM FEW250 M31/M37 A3000 RMK CI1 SLP273

CYQF;2011-02-25 17:00;CYQF 251700Z 23005KT 15SM FEW250 M27/M34 A2998 RMK CI1 SLP267

CYQF;2011-02-25 18:00;CYQF 251800Z 21002KT 15SM FEW250 M23/M31 A2997 RMK CI1 SLP254

CYQF;2011-02-25 19:00;CYQF 251900Z 25003KT 15SM SKC M20/M29 A2996 RMK SLP250

CYQF;2011-02-25 20:00;CYQF 252000Z 21004KT 15SM SKC M17/M27 A2993 RMK SLP241

CYQF;2011-02-25 21:00;CYQF 252100Z 21004KT 15SM SKC M16/M25 A2989 RMK SLP217

CYQF;2011-02-25 22:00;CYQF 252200Z 19004KT 15SM SKC M14/M23 A2985 RMK SLP205

CYQF;2011-02-25 23:00;CYQF 252300Z 17003KT 15SM FEW050 FEW250 M12/M21 A2981 RMK SC1CI1 SLP193

CYQF;2011-02-26 00:00;CYQF 260000Z 18005KT 15SM SKC M14/M22 A2977 RMK SLP174

CYQF;2011-02-26 01:00;CYQF 260100Z 17005KT 15SM FEW250 M17/M25 A2975 RMK CI0 SLP166

CYQF;2011-02-26 02:00;CYQF 260200Z 17006KT 15SM FEW250 M18/M26 A2972 RMK CI0 SLP156

CYQF;2011-02-26 03:00;CYQF 260300Z 16008KT 15SM SKC M20/M27 A2965 RMK SLP140

CYQF;2011-02-26 04:00;CYQF 260400Z 17007KT 15SM FEW250 M20/M27 A2960 RMK CI1 SLP125

CYQF;2011-02-26 05:00;CYQF 260500Z 16007KT 15SM FEW250 M20/M27 A2955 RMK CI2 SLP107

CYQF;2011-02-26 06:00;CYQF 260600Z 17006KT 15SM FEW100 M20/M27 A2950 RMK AC2 SLP077

CYQF;2011-02-26 07:00;CYQF 260700Z 16006KT 15SM SCT100 M16/M24 A2942 RMK AC4 SLP052

CYQF;2011-02-26 08:00;CYQF 260800Z 18004KT 15SM BKN100 M14/M22 A2936 RMK AC6 SLP034

CYQF;2011-02-26 09:00;CYQF 260900Z 16002KT 15SM BKN100 BKN250 M15/M23 A2933 RMK AC5CI1 SLP001

CYQF;2011-02-26 10:00;CYQF 261000Z 17003KT 15SM FEW100 SCT250 M16/M24 A2926 RMK AC2CI1 SLP982

CYQF;2011-02-26 11:00;CYQF 261100Z 00000KT 15SM BKN100 BKN250 M16/M23 A2924 RMK AC5CI2 SLP973

CYQF;2011-02-26 12:00;CYQF 261200Z 33004KT 15SM OVC100 M15/M21 A2923 RMK AC8 SLP965

CYQF;2011-02-26 12:42;CYQF 261242Z 00000KT 10SM -SN OVC090 RMK AC8

CYQF;2011-02-26 13:00;CYQF 261300Z 14003KT 3SM -SN OVC090 M14/M20 A2923 RMK SN2AC6 SLP964

CYQF;2011-02-26 14:00;CYQF 261400Z 20005KT 3SM -SN OVC060 M13/M19 A2920 RMK SN3SC5 SLP955

CYQF;2011-02-26 14:34;CYQF 261434Z 21005KT 1 1/2SM -SN VV010 RMK SN8

CYQF;2011-02-26 15:00;CYQF 261500Z 22004KT 1SM -SN VV008 M12/M16 A2920 RMK SN8 SLP957

CYQF;2011-02-26 16:00;CYQF 261600Z 25005KT 1 1/2SM -SN VV010 M10/M14 A2920 RMK SN8 /S01/ SLP959

CYQF;2011-02-26 17:00;CYQF 261700Z 28013KT 1 1/2SM -SN DRSN VV010 M06/M10 A2922 RMK SN8 VIS VRB 1-2 SLP963

CYQF;2011-02-26 18:00;CYQF 261800Z 29017G27KT 1 1/2SM -SN DRSN VV010 M05/M09 A2922 RMK SN8 /S02/ VIS VRB 1-2 OCNL BLSN SLP956

CYQF;2011-02-26 19:00;CYQF 261900Z 30012G20KT 2SM -SN DRSN SCT015 OVC030 M05/M10 A2922 RMK SN3SF1SC4 VIS VRB 11/2-3 OCNL BLSN SLP956

CYQF;2011-02-26 19:33;CYQF 261933Z 29015G25KT 8SM -SN SCT012 OVC040 RMK SF3SC5 DRSN OCSL BLSN

CYQF;2011-02-26 20:00;CYQF 262000Z 30015G25KT 6SM -SN DRSN BKN015 OVC040 M04/M10 A2922 RMK SF5SC3 OCNL BLSN SLP958

CYQF;2011-02-26 20:40;CYQF 262040Z 30013G24KT 1 1/2SM -SN DRSN VV010 RMK SN8 OCNL BLSN VIS VRB 1-2

CYQF;2011-02-26 20:44;CYQF 262044Z 30015G25KT 3/4SM -SN BLSN VV008 RMK SN8

CYQF;2011-02-26 21:00;CYQF 262100Z 30015G25KT 3/4SM -SN BLSN VV008 M05/M09 A2924 RMK SN8 /S01/ SLP957

CYQF;2011-02-26 21:21;CYQF 262121Z 31013G22KT 2SM -SN BLSN SCT010 OVC025 RMK SF3SC5 VIS VRB 1-3

CYQF;2011-02-26 22:00;CYQF 262200Z 33014G21KT 1SM -SN BLSN VV009 M05/M10 A2926 RMK SN8 VIS VRB 3/4-11/4 SLP964

CYQF;2011-02-26 23:00;CYQF 262300Z 32010KT 2SM -SN DRSN OVC015 M05/M10 A2928 RMK SN2SC6 VIS VRB 11/2-21/2 SLP972

CYQF;2011-02-26 23:44;CYQF 262344Z 33010KT 6SM -SN DRSN BKN015 OVC040 RMK SC6SC2

CYQF;2011-02-27 00:00;CYQF 270000Z 33010KT 8SM -SN DRSN BKN020 OVC080 M05/M11 A2930 RMK SC5AC2 /S01/ SLP979

CYQF;2011-02-27 00:11;CYQF 270011Z 33007KT 10SM FEW020 BKN080 OVC250 RMK SC2AC4CI1

CYQF;2011-02-27 01:00;CYQF 270100Z 34002KT 15SM FEW020 BKN080 OVC250 M06/M11 A2932 RMK SC2AC5CI1 SLP984

CYQF;2011-02-27 02:00;CYQF 270200Z 00000KT 15SM FEW020 OVC080 M08/M13 A2933 RMK SC2AC6 SLP989

CYQF;2011-02-27 03:00;CYQF 270300Z 00000KT 15SM OVC030 M08/M13 A2934 RMK SC8 SLP994

CYQF;2011-02-27 03:13;CYQF 270313Z 00000KT 10SM -SN BKN030 OVC060 RMK SC6SC2

CYQF;2011-02-27 04:00;CYQF 270400Z 21004KT 5SM -SN OVC020 M07/M12 A2936 RMK SC8 SLP001

CYQF;2011-02-27 04:11;CYQF 270411Z 21004KT 1SM -SN VV010 RMK SN8

CYQF;2011-02-27 05:00;CYQF 270500Z 20002KT 1SM -SN VV005 M07/M10 A2938 RMK SN8 /S01/ SLP005

CYQF;2011-02-27 06:00;CYQF 270600Z 00000KT 1SM -SN VV007 M07/M10 A2938 RMK SN8 /S02/ SLP999

CYQF;2011-02-27 07:00;CYQF 270700Z 17005KT 1SM -SN VV006 M07/M11 A2938 RMK SN8 SLP998

CYQF;2011-02-27 08:00;CYQF 270800Z 19003KT 1SM -SN VV007 M09/M13 A2939 RMK SN8 SLP000

CYQF;2011-02-27 08:23;CYQF 270823Z 17002KT 5SM -SN BKN015 BKN060 RMK SC5SC2

CYQF;2011-02-27 09:00;CYQF 270900Z 18004KT 3SM -SN BKN015 BKN060 M12/M16 A2939 RMK SN2SC3SC1 SLP009

CYQF;2011-02-27 10:00;CYQF 271000Z 17003KT 15SM SCT015 BKN060 M12/M16 A2939 RMK SC3SC2 SLP007

CYQF;2011-02-27 10:43;CYQF 271043Z 18005KT 15SM SCT015 RMK SC3

CYQF;2011-02-27 11:00;CYQF 271100Z 00000KT 15SM SCT015 M12/M15 A2938 RMK SC3 SLP004

CYQF;2011-02-27 11:26;CYQF 271126Z 00000KT 2SM BR FEW015 RMK FG2SC1

CYQF;2011-02-27 11:43;CYQF 271143Z 16002KT 1SM BR SKC RMK FG6

CYQF;2011-02-27 12:00;CYQF 271200Z CCA 11003KT 1/4SM FZFG VV003 M11/M13 A2939 RMK FG8 /S01/ SLP005

CYQF;2011-02-27 12:39;CYQF 271239Z 12004KT 1/4SM FZFG VV003 RMK FG8

CYQF;2011-02-27 13:00;CYQF 271300Z 15004KT 1/4SM FZFG VV003 M11/M14 A2939 RMK FG8 SLP006

CYQF;2011-02-27 13:41;CYQF 271341Z 12005KT 1SM BR SCT004 RMK FG2SF2

CYQF;2011-02-27 13:50;CYQF 271350Z 12005KT 1/2SM FZFG SKC RMK FG6

CYQF;2011-02-27 14:00;CYQF 271400Z 14004KT 1 1/2SM BR SCT004 BKN090 M13/M15 A2939 RMK FG2SF2AC2 SLP007

CYQF;2011-02-27 14:46;CYQF 271446Z 12003KT 3/4SM BR SCT120 BKN230 RMK FG2AC2CI1

CYQF;2011-02-27 15:00;CYQF 271500Z 14002KT 3SM BR FEW004 SCT120 BKN230 M14/M16 A2941 RMK SF2AC2CI1 VIS W-N 11/2 SLP019

CYQF;2011-02-27 15:49;CYQF 271549Z 12004KT 1SM BR BKN004 OVC230 RMK FG2SF2CI1

CYQF;2011-02-27 16:00;CYQF 271600Z 13004KT 1/2SM FZFG OVC230 M15/M17 A2941 RMK FG4CI2 SLP019

CYQF;2011-02-27 16:28;CYQF 271628Z 15004KT 2SM BR FEW003 BKN230 RMK SF2CI2 VIR VRB 11/2-3

CYQF;2011-02-27 17:00;CYQF 271700Z 00000KT 2SM BR FEW003 BKN230 M14/M16 A2942 RMK SF2CI2 VIS VRB 1-3 SLP024

CYQF;2011-02-27 17:41;CYQF 271741Z 00000KT 3SM BR FEW005 BKN230 RMK SF2CI2

CYQF;2011-02-27 18:00;CYQF 271800Z 00000KT 5SM BR FEW005 BKN230 M13/M15 A2943 RMK SF1CI2 SLP025

CYQF;2011-02-27 19:00;CYQF 271900Z 36003KT 6SM BR SCT015 BKN250 M12/M14 A2945 RMK SC4CI2 SLP029

CYQF;2011-02-27 19:14;CYQF 271914Z 35004KT 6SM BR BKN005 BKN015 OVC250 RMK ST5SC2CI1

CYQF;2011-02-27 20:00;CYQF 272000Z 01006KT 6SM BR BKN008 M10/M11 A2944 RMK SF5 SLP027

CYQF;2011-02-27 20:21;CYQF 272021Z 02008KT 6SM BR BKN010 RMK SF7

CYQF;2011-02-27 21:00;CYQF 272100Z 04007KT 8SM OVC011 M09/M11 A2945 RMK ST8 SLP031

CYQF;2011-02-27 21:16;CYQF 272116Z 03008KT 8SM -SN OVC012 RMK ST8

CYQF;2011-02-27 22:00;CYQF 272200Z 01011KT 6SM -SN OVC012 M10/M16 A2946 RMK ST8 VIS N 2 SLP037

CYQF;2011-02-27 22:23;CYQF 272223Z 01012G18KT 2SM -SN DRSN OVC010 RMK SN1ST7

CYQF;2011-02-27 23:00;CYQF 272300Z 01014G20KT 1 1/2SM -SN DRSN OVC015 M12/M17 A2950 RMK SN2SC6 CIG RAG SLP049

CYQF;2011-02-28 00:00;CYQF 280000Z 36012KT 1 1/2SM -SN DRSN OVC020 M13/M18 A2953 RMK SN2SC6 SLP062

CYQF;2011-02-28 00:39;CYQF 280039Z 36015KT 3SM -SN DRSN OVC020 RMK SN2SC6

CYQF;2011-02-28 01:00;CYQF 280100Z 01010G15KT 2SM -SN DRSN OVC020 M14/M19 A2954 RMK SN2SC6 SLP067

CYQF;2011-02-28 01:11;CYQF 280111Z 36010G15KT 3SM -SN DRSN OVC020 RMK SC8

CYQF;2011-02-28 02:00;CYQF 280200Z 02012G17KT 3SM -SN DRSN OVC020 M15/M20 A2957 RMK SC8 SLP077

CYQF;2011-02-28 03:00;CYQF 280300Z 01012G17KT 6SM -SN DRSN OVC025 M16/M21 A2959 RMK SC8 SLP093

CYQF;2011-02-28 04:00;CYQF 280400Z 36010G15KT 10SM -SN DRSN OVC025 M17/M22 A2960 RMK SC8 SLP095

CYQF;2011-02-28 05:00;CYQF 280500Z 36010G15KT 8SM -SN DRSN OVC018 M18/M23 A2961 RMK SC8 SLP098

CYQF;2011-02-28 06:00;CYQF 280600Z 36010G15KT 10SM -SN DRSN OVC018 M19/M24 A2964 RMK SC8 SLP111

CYQF;2011-02-28 06:47;CYQF 280647Z 36013KT 1 1/2SM -SN DRSN VV011 RMK SN8 VIS VRB 1-2

CYQF;2011-02-28 07:00;CYQF 280700Z 36012KT 1 1/2SM -SN DRSN VV010 M19/M25 A2963 RMK SN8 VIS VRB 1-2 SLP107

CYQF;2011-02-28 08:00;CYQF 280800Z 01011KT 1 1/2SM -SN DRSN VV010 M19/M25 A2966 RMK SN8 VIS VRB 1-2 SLP117

CYQF;2011-02-28 09:00;CYQF 280900Z 34008KT 1SM -SN DRSN VV008 M20/M26 A2967 RMK SN8 VIS VRB 3/4-11/4 /S01/ SLP119

CYQF;2011-02-28 10:00;CYQF 281000Z 35011KT 3SM -SN DRSN SCT020 BKN060 M21/M27 A2968 RMK SC3SC4 SLP122

CYQF;2011-02-28 11:00;CYQF 281100Z 35012KT 10SM -SN DRSN FEW020 OVC050 M21/M27 A2969 RMK SC2SC6 SLP124

CYQF;2011-02-28 12:00;CYQF 281200Z 35011KT 6SM -SN DRSN OVC050 M21/M28 A2971 RMK SC8 SLP140

CYQF;2011-02-28 13:00;CYQF 281300Z 34010G15KT 6SM -SN DRSN OVC050 M22/M28 A2973 RMK SC8 SLP144

CYQF;2011-02-28 14:00;CYQF 281400Z 35010G16KT 5SM -SN DRSN OVC050 M22/M29 A2974 RMK SC8 SLP147

CYQF;2011-02-28 14:22;CYQF 281422Z 35011G17KT 2SM -SN DRSN OVC040 RMK SC8 OCNL BLSN

CYQF;2011-02-28 14:41;CYQF 281441Z 34012G17KT 1SM -SN DRSN OVC040 RMK SC8 OCNL BLSN

CYQF;2011-02-28 15:00;CYQF 281500Z 34011G16KT 1SM -SN BLSN SCT007 OVC030 M23/M29 A2976 RMK SC4SC4 VIS VRB 3/4 - 11/4 /S01/ SLP159

CYQF;2011-02-28 15:15;CYQF 281515Z 35012G17KT 1SM -SN BLSN OVC004 RMK BLSN3SC5 VIS VRB 3/4 - 11/4

CYQF;2011-02-28 16:00;CYQF 281600Z CCA 34010G15KT 2SM -SN DRSN OVC009 M23/M29 A2976 REBLSN RMK SC8 VIS VRB 1-3 SLP161

CYQF;2011-02-28 17:00;CYQF 281700Z 35010KT 2SM -SN OVC009 M23/M29 A2980 RMK SC8 VIS VRB 1-3 SLP172

CYQF;2011-02-28 18:00;CYQF 281800Z 36010G15KT 2SM -SN OVC020 M23/M30 A2981 RMK SN6SC2 /S02/ VIS VRB 1-3 SLP183

CYQF;2011-02-28 19:00;CYQF 281900Z 35010KT 2SM -SN DRSN OVC020 M23/M30 A2983 RMK SN6SC2 VIS VRB 1-3 SLP187

CYQF;2011-02-28 19:36;CYQF 281936Z 01010G15KT 5SM -SN DRSN OVC020 RMK SC8

CYQF;2011-02-28 20:00;CYQF 282000Z 36010G15KT 6SM -SN DRSN OVC030 M23/M30 A2983 RMK SC8 SLP189

CYQF;2011-02-28 21:00;CYQF 282100Z 35010G15KT 8SM -SN DRSN OVC030 M23/M30 A2985 RMK SC8 SLP197

CYQF;2011-02-28 22:00;CYQF 282200Z 34010G15KT 10SM -SN DRSN OVC030 M23/M31 A2988 RMK SC8 SLP207

CYQF;2011-02-28 23:00;CYQF 282300Z 35010G15KT 12SM -SN DRSN FEW012 BKN030 OVC120 M23/M31 A2989 RMK SF1SC5AC2 SLP211

CYQF;2011-02-28 23:12;CYQF 282312Z 36013G18KT 12SM DRSN FEW030 BKN080 OVC220 RMK SC2AC4CI2

CYQF;2011-03-01 01:00;CYQF 010100Z 36008KT 15SM SCT080 BKN220 M25/M32 A2997 RMK AC3CI3 SLP241

CYQF;2011-03-01 02:00;CYQF 010200Z 36006KT 15SM BKN100 M25/M32 A3000 RMK AC6 SLP249

CYQF;2011-03-01 03:00;CYQF 010300Z 36004KT 15SM FEW100 M26/M33 A3004 RMK AC2 SLP271

CYQF;2011-03-01 04:00;CYQF 010400Z 00000KT 15SM SKC M27/M33 A3007 RMK SLP282

CYQF;2011-03-01 05:00;CYQF 010500Z 00000KT 15SM SKC M29/M35 A3011 RMK SLP294

CYQF;2011-03-01 06:00;CYQF 010600Z 00000KT 15SM SKC M32/M38 A3014 RMK SLP315

CYQF;2011-03-01 07:00;CYQF 010700Z 00000KT 15SM SKC M33/M39 A3016 RMK SLP321

CYQF;2011-03-01 08:00;CYQF 010800Z 17003KT 15SM SKC M35/M41 A3018 RMK SLP328

CYQF;2011-03-01 09:00;CYQF 010900Z 00000KT 15SM SKC M35/M41 A3020 RMK SLP339

CYQF;2011-03-01 10:00;CYQF 011000Z 00000KT 15SM SKC M35/M41 A3021 RMK SLP343

CYQF;2011-03-01 11:00;CYQF 011100Z 00000KT 15SM SKC M36/M42 A3022 RMK SLP346

CYQF;2011-03-01 12:00;CYQF 011200Z 00000KT 15SM SKC M35/M41 A3023 RMK SLP350

CYQF;2011-03-01 13:00;CYQF 011300Z 00000KT 15SM SKC M35/M41 A3025 RMK SLP355

CYQF;2011-03-01 14:00;CYQF 011400Z 00000KT 15SM FEW100 SCT250 M36/M42 A3025 RMK AC1CI2 SLP356

CYQF;2011-03-01 15:00;CYQF 011500Z 00000KT 15SM BKN100 BKN250 M36/M42 A3027 RMK AC2CI1 SLP367

CYQF;2011-03-01 16:00;CYQF 011600Z 00000KT 15SM BKN100 BKN250 M33/M38 A3028 RMK AC2CI2 SLP371

CYQF;2011-03-01 17:00;CYQF 011700Z 00000KT 15SM FEW100 SCT250 M28/M34 A3029 RMK AC2CI2 SLP375

CYQF;2011-03-01 18:00;CYQF 011800Z 00000KT 15SM FEW100 FEW250 M26/M32 A3030 RMK AC1CI1 AC TR SLP372

CYQF;2011-03-01 19:00;CYQF 011900Z 00000KT 15SM FEW100 FEW250 M24/M31 A3031 RMK AC1CI1 SLP375

CYQF;2011-03-01 20:00;CYQF 012000Z 14008KT 15SM SKC M24/M31 A3030 RMK SLP372

CYQF;2011-03-01 21:00;CYQF 012100Z 13008KT 15SM FEW230 M23/M31 A3029 RMK CI1 SLP372

CYQF;2011-03-01 22:00;CYQF 012200Z 13006KT 15SM FEW250 M23/M31 A3030 RMK CI1 CI INVDG FM S SLP373

CYQF;2011-03-01 23:00;CYQF 012300Z 13008KT 15SM FEW250 M23/M32 A3030 RMK CI1 SLP374

CYQF;2011-03-02 00:00;CYQF 020000Z 12007KT 15SM FEW250 M24/M32 A3029 RMK CI2 SLP373

CYQF;2011-03-02 01:00;CYQF 020100Z 13003KT 15SM BKN210 M25/M33 A3029 RMK CI4 SLP372

CYQF;2011-03-02 02:00;CYQF 020200Z 12002KT 15SM BKN210 M26/M32 A3029 RMK CI2 SLP372

CYQF;2011-03-02 03:00;CYQF 020300Z 11003KT 15SM SCT100 OVC210 M26/M32 A3028 RMK AC3CI2 SLP373

CYQF;2011-03-02 04:00;CYQF 020400Z 12005KT 15SM SCT100 OVC210 M26/M32 A3026 RMK AC4CI3 SLP365

CYQF;2011-03-02 05:00;CYQF 020500Z 13007KT 15SM FEW120 OVC210 M26/M32 A3026 RMK AC2CI3 SLP367

CYQF;2011-03-02 06:00;CYQF 020600Z 14006KT 15SM SCT120 OVC210 M26/M32 A3025 RMK AC4CI3 SLP346

CYQF;2011-03-02 07:00;CYQF 020700Z 14006KT 15SM SCT120 OVC210 M25/M32 A3024 RMK AC3CI5 SLP344

CYQF;2011-03-02 08:00;CYQF 020800Z 14006KT 15SM SCT100 OVC210 M25/M32 A3022 RMK AC4CI4 SLP337

CYQF;2011-03-02 09:00;CYQF 020900Z 12007KT 15SM SCT100 BKN210 M25/M32 A3020 RMK AC3CI3 SLP326

CYQF;2011-03-02 10:00;CYQF 021000Z 12012KT 8SM FEW100 BKN210 M26/M32 A3017 RMK AC2CI3 IC SLP319

CYQF;2011-03-02 11:00;CYQF 021100Z 11011KT 8SM FEW100 BKN210 M25/M31 A3015 RMK AC2CI3 IC SLP311

CYQF;2011-03-02 12:00;CYQF 021200Z 12010KT 8SM SCT025 OVC100 M25/M31 A3012 RMK SC4AC3 IC SLP300

CYQF;2011-03-02 12:24;CYQF 021224Z 12010KT 5SM -SN OVC025 RMK SC8

CYQF;2011-03-02 13:00;CYQF 021300Z 12010KT 4SM -SN OVC020 M24/M30 A3010 RMK SC8 SLP292

CYQF;2011-03-02 13:37;CYQF 021337Z 11012KT 2SM -SN DRSN OVC015 RMK SN2SC6

CYQF;2011-03-02 14:00;CYQF 021400Z 11010KT 1 1/2SM -SN DRSN OVC015 M24/M30 A3007 RMK SN3SC5 VIS VRB 1-2 SLP283

CYQF;2011-03-02 15:00;CYQF 021500Z 10010G15KT 1 1/2SM -SN DRSN OVC015 M24/M30 A3004 RMK SN3SC5 VIS VRB 1-2 SLP273

CYQF;2011-03-02 16:00;CYQF 021600Z 12010G15KT 1 1/2SM -SN DRSN OVC020 M23/M29 A3001 RMK SN3SC5 VIS VRB 1-2 /S01/ SLP263

CYQF;2011-03-02 16:47;CYQF 021647Z 12012G17KT 6SM -SN DRSN OVC020 RMK SC8

CYQF;2011-03-02 17:00;CYQF 021700Z 12012G17KT 6SM -SN DRSN OVC020 M23/M29 A2999 RMK SC8 SLP258

CYQF;2011-03-02 18:00;CYQF 021800Z 13012G17KT 5SM -SN DRSN OVC020 M22/M29 A2995 RMK SC8 SLP240

CYQF;2011-03-02 18:16;CYQF 021816Z 12015G20KT 1SM -SN BLSN OVC020 RMK SN5SC3 VIS N 3/4

CYQF;2011-03-02 18:30;CYQF 021830Z 12010G15KT 2SM -SN BLSN OVC020 RMK SN5SC3 VIS VRB 1-3

CYQF;2011-03-02 19:00;CYQF 021900Z 12012G17KT 2SM -SN DRSN OVC020 M22/M28 A2992 RMK SN2SC6 VIS VRB 1-3 SLP228

CYQF;2011-03-02 20:00;CYQF 022000Z 12013G18KT 3SM -SN DRSN OVC020 M21/M27 A2988 RMK SC8 SLP216

CYQF;2011-03-02 20:13;CYQF 022013Z 12013G18KT 2 1/2SM -SN DRSN OVC020 RMK SC8

CYQF;2011-03-02 20:35;CYQF 022035Z 13015G20KT 2SM -SN DRSN OVC020 RMK SC8 VIS VRB 11/2-4

CYQF;2011-03-02 21:00;CYQF 022100Z 13012G18KT 3SM -SN DRSN OVC020 M21/M27 A2984 RMK SC8 VIS VRB 2-6 SLP196

CYQF;2011-03-02 22:00;CYQF 022200Z 12012G18KT 3SM -SN DRSN OVC020 M20/M26 A2979 RMK SC8 SLP183

CYQF;2011-03-02 23:00;CYQF 022300Z 11015G20KT 3SM -SN DRSN OVC020 M20/M26 A2976 RMK SC8 SLP171

CYQF;2011-03-03 00:00;CYQF 030000Z 11010G15KT 5SM -SN BKN020 OVC080 M20/M27 A2973 RMK SC6AC2 SLP159

CYQF;2011-03-03 01:00;CYQF 030100Z 09008KT 8SM -SN SCT020 BKN080 M21/M27 A2973 RMK SC3AC2 SLP158

CYQF;2011-03-03 01:36;CYQF 030136Z 11005KT 10SM FEW020 BKN080 RMK SC2AC2

CYQF;2011-03-03 02:00;CYQF 030200Z 11005KT 10SM SCT020 BKN080 M21/M27 A2973 RMK SC3AC2 SLP158

CYQF;2011-03-03 03:00;CYQF 030300Z 09004KT 15SM BKN020 M21/M27 A2972 RMK SC6 SLP153

CYQF;2011-03-03 04:00;CYQF 030400Z 05003KT 15SM OVC020 M22/M27 A2973 RMK SC8 SLP157

CYQF;2011-03-03 05:00;CYQF 030500Z 01004KT 15SM SCT020 M22/M28 A2973 RMK SC3 SLP158

CYQF;2011-03-03 06:00;CYQF 030600Z 02005KT 15SM SCT020 M23/M28 A2976 RMK SC3 SLP167

CYQF;2011-03-03 07:00;CYQF 030700Z 00000KT 15SM FEW025 M23/M29 A2976 RMK SC2 SLP168

CYQF;2011-03-03 08:00;CYQF 030800Z 35003KT 15SM BKN020 M23/M29 A2979 RMK SC6 SLP178

CYQF;2011-03-03 08:31;CYQF 030831Z 33004KT 6SM IC BKN020 RMK SC6

CYQF;2011-03-03 09:00;CYQF 030900Z 32004KT 10SM SCT020 M24/M30 A2982 RMK SC4 IC SLP188

CYQF;2011-03-03 10:00;CYQF 031000Z 32004KT 15SM SCT020 M25/M31 A2984 RMK SC2 IC SLP196

CYQF;2011-03-03 11:00;CYQF 031100Z 31003KT 15SM BKN020 M24/M30 A2987 RMK SC6 IC SLP206

CYQF;2011-03-03 12:00;CYQF 031200Z 00000KT 15SM SCT020 OVC050 M23/M29 A2989 RMK SC3SC3 SLP213

CYQF;2011-03-03 13:00;CYQF 031300Z 31004KT 15SM FEW030 M23/M30 A2993 RMK SC2 SLP225

CYQF;2011-03-03 14:00;CYQF 031400Z 00000KT 15SM SCT030 BKN060 M24/M30 A2996 RMK SC2SC3 SLP233

CYQF;2011-03-03 15:00;CYQF 031500Z 00000KT 15SM FEW030 BKN060 M23/M29 A2997 RMK SC2SC4 SLP240

CYQF;2011-03-03 16:00;CYQF 031600Z 00000KT 15SM FEW060 M22/M28 A2999 RMK SC1 SLP247

CYQF;2011-03-03 17:00;CYQF 031700Z 00000KT 15SM FEW060 FEW230 M22/M29 A3000 RMK SC1CI1 SLP250

CYQF;2011-03-03 18:00;CYQF 031800Z 00000KT 15SM FEW230 M20/M28 A3001 RMK CI1 SLP252

CYQF;2011-03-03 19:00;CYQF 031900Z 00000KT 15SM SCT230 M19/M27 A3001 RMK CI4 SLP253

CYQF;2011-03-03 20:00;CYQF 032000Z 14002KT 15SM BKN230 M18/M27 A3000 RMK CI3 SLP251

CYQF;2011-03-03 21:00;CYQF 032100Z 00000KT 15SM BKN230 M17/M26 A3000 RMK CI2 SLP247

CYQF;2011-03-03 22:00;CYQF 032200Z 00000KT 15SM BKN230 M17/M25 A3000 RMK CI4 SLP249

CYQF;2011-03-03 23:00;CYQF 032300Z 04003KT 15SM BKN230 M17/M25 A3003 RMK CI5 SLP256

CYQF;2011-03-04 00:00;CYQF 040000Z 06003KT 15SM FEW100 BKN230 M18/M25 A3004 RMK AC2CI5 SLP260

CYQF;2011-03-04 01:00;CYQF 040100Z 06007KT 15SM SCT100 BKN250 M18/M26 A3005 RMK AC3CI2 VIRGA ACC ASOCTD SLP265

CYQF;2011-03-04 02:00;CYQF 040200Z 05002KT 15SM BKN100 BKN250 M19/M26 A3010 RMK AC5CI2 SLP280

CYQF;2011-03-04 03:00;CYQF 040300Z 00000KT 15SM BKN080 OVC250 M19/M26 A3011 RMK AC6CI2 SLP288

CYQF;2011-03-04 04:00;CYQF 040400Z 00000KT 15SM FEW040 BKN080 BKN250 M20/M26 A3012 RMK SC1AC6CI2 SC TR SLP291

CYQF;2011-03-04 05:00;CYQF 040500Z 00000KT 15SM SCT100 OVC250 M19/M26 A3013 RMK AC4CI4 SLP294

CYQF;2011-03-04 06:00;CYQF 040600Z 00000KT 15SM BKN100 OVC250 M19/M26 A3014 RMK AC6CI2 SLP294

CYQF;2011-03-04 07:00;CYQF 040700Z 00000KT 15SM OVC080 M19/M26 A3016 RMK AC8 SLP302

CYQF;2011-03-04 08:00;CYQF 040800Z 00000KT 15SM BKN080 M20/M26 A3018 RMK AC5 SLP306

CYQF;2011-03-04 09:00;CYQF 040900Z 35004KT 15SM FEW080 M21/M28 A3020 RMK AC2 SLP313

CYQF;2011-03-04 10:00;CYQF 041000Z 33003KT 15SM FEW080 M23/M29 A3022 RMK AC1 SLP319

CYQF;2011-03-04 11:00;CYQF 041100Z 33002KT 15SM SKC M24/M30 A3023 RMK SLP322

CYQF;2011-03-04 12:00;CYQF 041200Z 00000KT 15SM FEW030 M25/M30 A3025 RMK SC1 SLP338

CYQF;2011-03-04 13:00;CYQF 041300Z 30003KT 15SM FEW030 M26/M32 A3027 RMK SC1 SLP344

CYQF;2011-03-04 13:52;CYQF 041352Z 27003KT 10SM -SN BKN030 RMK SC5

CYQF;2011-03-04 14:00;CYQF 041400Z 27003KT 10SM -SN BKN030 M27/M32 A3029 RMK SC5 SLP349

CYQF;2011-03-04 15:00;CYQF 041500Z 00000KT 12SM -SN BKN030 OVC090 M26/M32 A3032 RMK SC5AC2 SLP363

CYQF;2011-03-04 16:00;CYQF 041600Z 00000KT 12SM -SN OVC020 M24/M30 A3033 RMK SC8 SLP367

CYQF;2011-03-04 17:00;CYQF 041700Z 00000KT 8SM -SN OVC020 M20/M27 A3034 RMK SC8 SLP370

CYQF;2011-03-04 18:00;CYQF 041800Z 14002KT 8SM -SN OVC020 M20/M27 A3035 RMK SC6 SLP369

CYQF;2011-03-04 19:00;CYQF 041900Z 00000KT 8SM -SN OVC020 M18/M25 A3037 RMK SC8 SLP374

CYQF;2011-03-04 20:00;CYQF 042000Z 00000KT 10SM -SN OVC025 M17/M24 A3036 RMK SC8 SLP372

CYQF;2011-03-04 21:00;CYQF 042100Z 00000KT 10SM -SN OVC030 M17/M24 A3035 RMK SC6 SLP368

CYQF;2011-03-04 22:00;CYQF 042200Z 06002KT 10SM -SN OVC030 M17/M24 A3035 RMK SC6 SLP366

CYQF;2011-03-04 23:00;CYQF 042300Z 08003KT 10SM -SN BKN030 M16/M23 A3034 RMK SC6 SLP364

CYQF;2011-03-05 00:00;CYQF 050000Z 07003KT 10SM -SN OVC030 M16/M23 A3035 RMK SC8 SLP369

CYQF;2011-03-05 01:00;CYQF 050100Z 13008KT 10SM -SN OVC030 M17/M23 A3034 RMK SC8 SLP367

CYQF;2011-03-05 02:00;CYQF 050200Z 13006KT 10SM -SN OVC020 M17/M24 A3035 RMK SC8 SLP369

CYQF;2011-03-05 03:00;CYQF 050300Z 13004KT 12SM -SN OVC018 M18/M24 A3033 RMK SC8 SLP366

CYQF;2011-03-05 04:00;CYQF 050400Z 12004KT 15SM -SN BKN018 M19/M25 A3031 RMK SC7 SLP359

CYQF;2011-03-05 05:00;CYQF 050500Z 11003KT 15SM -SN OVC018 M19/M25 A3029 RMK SC8 VRY LGT SN SLP353

CYQF;2011-03-05 05:49;CYQF 050549Z 15005KT 15SM -SN OVC010 RMK ST8

CYQF;2011-03-05 06:00;CYQF 050600Z 15005KT 15SM -SN OVC010 M19/M25 A3027 RMK ST8 SLP340

CYQF;2011-03-05 06:10;CYQF 050610Z 15010KT 5SM IC OVC010 RMK ST8

CYQF;2011-03-05 07:00;CYQF 050700Z 14010KT 6SM IC BKN010 M19/M24 A3024 RMK ST4 SLP331

CYQF;2011-03-05 08:00;CYQF 050800Z 14011KT 10SM OVC015 M19/M24 A3022 RMK SC8 IC SLP324

CYQF;2011-03-05 09:00;CYQF 050900Z 13010KT 6SM IC OVC015 M18/M24 A3020 RMK SC8 SLP312

CYQF;2011-03-05 10:00;CYQF 051000Z 12010KT 10SM OVC015 M19/M25 A3018 RMK SC8 IC SLP305

CYQF;2011-03-05 11:00;CYQF 051100Z 11010KT 10SM SCT020 M19/M25 A3016 RMK SC4 IC SLP300

CYQF;2011-03-05 12:00;CYQF 051200Z 09005KT 15SM SCT020 OVC075 M19/M25 A3015 RMK SC3AC4 SLP294

CYQF;2011-03-05 13:00;CYQF 051300Z 09005KT 15SM SCT020 BKN070 M19/M25 A3015 RMK SC3AC2 SLP294

CYQF;2011-03-05 14:00;CYQF 051400Z 00000KT 15SM FEW020 BKN070 M20/M25 A3016 RMK SC2AC3 SLP297

CYQF;2011-03-05 15:00;CYQF 051500Z 04002KT 15SM FEW020 BKN070 M20/M25 A3017 RMK SC2AC4 SLP304

CYQF;2011-03-05 16:00;CYQF 051600Z 03003KT 12SM FEW020 OVC070 M19/M25 A3019 RMK SC2AC4 SLP308

CYQF;2011-03-05 17:00;CYQF 051700Z 00000KT 5SM BR OVC030 M19/M25 A3020 RMK SC8 SLP313

CYQF;2011-03-05 18:00;CYQF 051800Z 00000KT 5SM BR OVC030 M18/M24 A3023 RMK SC8 SLP322

CYQF;2011-03-05 18:27;CYQF 051827Z 00000KT 5SM -SN FEW015 OVC030 RMK SC2SC6

CYQF;2011-03-05 18:43;CYQF 051843Z 00000KT 2SM -SN SCT015 OVC030 RMK SC4SC4

CYQF;2011-03-05 19:00;CYQF 051900Z 00000KT 2SM -SN BKN015 OVC030 M17/M24 A3023 RMK SC6SC2 SLP322

CYQF;2011-03-05 19:09;CYQF 051909Z 00000KT 3SM -SN BKN015 OVC030 RMK SC6SC2 VIS VRB 2-4

CYQF;2011-03-05 20:00;CYQF 052000Z 00000KT 3SM -SN BKN015 OVC030 M16/M23 A3023 RMK SC5SC2 VIS VRB 2-4 SLP323

CYQF;2011-03-05 21:00;CYQF 052100Z 33005KT 3SM -SN OVC015 M17/M23 A3022 RMK SC8 VIS VRB 2-4 SLP318

CYQF;2011-03-05 22:00;CYQF 052200Z 36005KT 3SM -SN BKN020 OVC090 M16/M23 A3023 RMK SC5AC1 VIS VRB 2-4 SLP321

CYQF;2011-03-05 22:48;CYQF 052248Z 35005KT 10SM FEW020 FEW100 OVC250 RMK SC1AC1CI1 IC

CYQF;2011-03-05 23:00;CYQF 052300Z 33005KT 10SM FEW020 FEW100 OVC250 M16/M24 A3024 RMK SC1AC1CI1 IC SLP323

CYQF;2011-03-05 23:39;CYQF 052339Z 33004KT 6SM -SN SCT020 BKN100 OVC250 RMK SC3AC2CI0

CYQF;2011-03-06 00:00;CYQF 060000Z CCA 32003KT 6SM -SN SCT020 BKN100 OVC250 M16/M23 A3025 RMK SC3AC2CI0 SLP328

CYQF;2011-03-06 00:25;CYQF 060025Z 00000KT 12SM FEW020 FEW100 OVC250 RMK SC1AC1CI1 IC

CYQF;2011-03-06 01:00;CYQF 060100Z 34002KT 12SM FEW020 SCT100 OVC250 M17/M24 A3026 RMK SC1AC2CI0 IC SLP333

CYQF;2011-03-06 02:00;CYQF 060200Z 00000KT 10SM FEW020 SCT100 BKN250 M18/M24 A3027 RMK SC1AC1CI0 IC SLP335

CYQF;2011-03-06 03:00;CYQF 060300Z 00000KT 10SM FEW100 FEW250 M19/M25 A3027 RMK AC1CI1 IC SLP339

CYQF;2011-03-06 04:00;CYQF 060400Z 00000KT 3SM IC OVC100 M20/M25 A3027 RMK SN5AC3 SLP340

CYQF;2011-03-06 04:20;CYQF 060420Z 00000KT 1 1/2SM -SN VV025 RMK SN8

CYQF;2011-03-06 05:00;CYQF 060500Z 00000KT 3SM IC OVC250 M20/M25 A3028 RMK SN3CI0 SLP342

CYQF;2011-03-06 05:32;CYQF 060532Z 00000KT 3SM -SN VV030 RMK SN8

CYQF;2011-03-06 06:00;CYQF 060600Z 00000KT 4SM IC FEW080 M20/M26 A3028 RMK AC2 SLP344

CYQF;2011-03-06 07:00;CYQF 060700Z 00000KT 4SM IC FEW080 M21/M27 A3028 RMK AC2 SLP343

CYQF;2011-03-06 08:00;CYQF 060800Z 00000KT 6SM IC FEW060 M22/M28 A3028 RMK SC2 SLP343

CYQF;2011-03-06 09:00;CYQF 060900Z 00000KT 10SM FEW060 M22/M28 A3028 RMK SC2 IC SLP343

CYQF;2011-03-06 10:00;CYQF 061000Z 00000KT 10SM FEW060 M25/M30 A3028 RMK SC1 IC SLP342

CYQF;2011-03-06 11:00;CYQF 061100Z 00000KT 10SM FEW030 M24/M30 A3026 RMK SC2 IC SLP338

CYQF;2011-03-06 12:00;CYQF 061200Z 00000KT 10SM FEW030 M25/M31 A3026 RMK SC1 IC SLP339

CYQF;2011-03-06 13:00;CYQF 061300Z 00000KT 10SM FEW090 M24/M30 A3026 RMK AC1 IC SLP340

CYQF;2011-03-06 14:00;CYQF 061400Z 00000KT 10SM FEW090 BKN250 M26/M32 A3026 RMK AC2CI1 IC SLP339

CYQF;2011-03-06 15:00;CYQF 061500Z 00000KT 8SM FEW090 BKN250 M25/M30 A3026 RMK AC2CI2 IC SLP341

CYQF;2011-03-06 16:00;CYQF 061600Z 00000KT 3SM IC SCT100 BKN250 M22/M28 A3025 RMK AC2CI2 SLP339

CYQF;2011-03-06 17:00;CYQF 061700Z 00000KT 4SM IC SCT100 BKN250 M19/M25 A3025 RMK AC2CI2 SLP337

CYQF;2011-03-06 18:00;CYQF 061800Z 12003KT 5SM IC SCT100 BKN250 M17/M23 A3023 RMK AC2CI2 SLP323

CYQF;2011-03-06 19:00;CYQF 061900Z 12006KT 3SM -SN SCT100 BKN250 M17/M23 A3022 RMK AC2CI2 SLP320

CYQF;2011-03-06 20:00;CYQF 062000Z 12008KT 5SM -SN BKN100 OVC250 M16/M23 A3021 RMK AC5CI2 SLP316

CYQF;2011-03-06 21:00;CYQF 062100Z 13010KT 4SM -SN BKN100 OVC250 M16/M22 A3018 RMK AC5CI2 SLP307

CYQF;2011-03-06 22:00;CYQF 062200Z 12008KT 5SM -SN BKN100 OVC250 M16/M23 A3016 RMK AC5CI2 SLP302

CYQF;2011-03-06 23:00;CYQF 062300Z 13010KT 3SM -SN BKN100 OVC250 M16/M23 A3015 RMK SN2AC3CI2 SLP296

CYQF;2011-03-06 23:16;CYQF 062316Z 11008KT 2SM -SN BKN100 OVC250 RMK SN2AC3CI1

CYQF;2011-03-06 23:50;CYQF 062350Z CCA 13008KT 6SM IC FEW100 BKN250 RMK AC2CI1 BR

CYQF;2011-03-07 00:00;CYQF 070000Z 13010KT 6SM IC FEW250 M17/M24 A3014 RMK CI1 SLP296

CYQF;2011-03-07 01:00;CYQF 070100Z 13007KT 15SM FEW120 M18/M25 A3012 RMK AC1 SLP291

CYQF;2011-03-07 02:00;CYQF 070200Z 12005KT 15SM SKC M20/M25 A3011 RMK SLP287

CYQF;2011-03-07 03:00;CYQF 070300Z 13005KT 15SM SKC M21/M26 A3010 RMK SLP287

CYQF;2011-03-07 04:00;CYQF 070400Z 14010KT 15SM SKC M21/M26 A3008 RMK SLP281

CYQF;2011-03-07 04:24;CYQF 070424Z 14010KT 10SM SKC

CYQF;2011-03-07 05:00;CYQF 070500Z 15010KT 5SM IC SKC M21/M27 A3006 RMK SLP275

CYQF;2011-03-07 06:00;CYQF 070600Z 16007KT 6SM IC SKC M22/M27 A3005 RMK SLP262

CYQF;2011-03-07 07:00;CYQF 070700Z 16005KT 3SM IC SKC M22/M28 A3002 RMK SLP254

CYQF;2011-03-07 08:00;CYQF 070800Z 16004KT 6SM IC SKC M22/M28 A2999 RMK SLP245

CYQF;2011-03-07 09:00;CYQF 070900Z 16002KT 10SM SKC M23/M29 A2997 RMK IC SLP236

CYQF;2011-03-07 10:00;CYQF 071000Z 11002KT 12SM FEW200 M24/M30 A2995 RMK CI1 IC SLP230

CYQF;2011-03-07 11:00;CYQF 071100Z 00000KT 10SM FEW200 M24/M30 A2993 RMK CI1 IC SLP223

CYQF;2011-03-07 12:00;CYQF 071200Z 00000KT 8SM FEW100 SCT200 M25/M31 A2992 RMK AC2CI1 IC SLP221

CYQF;2011-03-07 13:00;CYQF 071300Z 15002KT 12SM FEW100 BKN200 M24/M29 A2991 RMK AC2CI2 SLP218

CYQF;2011-03-07 14:00;CYQF 071400Z 00000KT 12SM SCT100 BKN200 M26/M31 A2990 RMK AC3CI2 SLP214

CYQF;2011-03-07 15:00;CYQF 071500Z 00000KT 15SM SCT100 BKN200 M26/M32 A2990 RMK AC4CI1 SLP219

CYQF;2011-03-07 16:00;CYQF 071600Z 00000KT 15SM SCT100 BKN200 M23/M29 A2990 RMK AC3CI2 SLP219

CYQF;2011-03-07 17:00;CYQF 071700Z 00000KT 15SM SCT100 BKN200 M22/M28 A2989 RMK AC3CI0 SLP218

CYQF;2011-03-07 18:00;CYQF 071800Z 19002KT 15SM SCT100 BKN240 M21/M27 A2989 RMK AC2CI1 SLP211

CYQF;2011-03-07 19:00;CYQF 071900Z 17003KT 12SM FEW100 SCT240 M19/M27 A2989 RMK AC1CI1 SLP210

CYQF;2011-03-07 20:00;CYQF 072000Z 00000KT 12SM FEW100 SCT240 M18/M26 A2988 RMK AC1CI1 SLP208

CYQF;2011-03-07 21:00;CYQF 072100Z 00000KT 12SM FEW100 SCT240 M17/M25 A2987 RMK AC1CI1 SLP201

CYQF;2011-03-07 22:00;CYQF 072200Z 00000KT 12SM FEW100 FEW240 M16/M24 A2986 RMK AC1CI1 SLP200

CYQF;2011-03-07 23:00;CYQF 072300Z 00000KT 12SM FEW100 SCT240 M15/M23 A2986 RMK AC1CI1 SLP200

CYQF;2011-03-08 00:00;CYQF 080000Z 13003KT 15SM FEW240 M16/M24 A2987 RMK CI1 SLP201

CYQF;2011-03-08 01:00;CYQF 080100Z 16003KT 15SM FEW240 M17/M25 A2986 RMK CI0 SLP200

CYQF;2011-03-08 02:00;CYQF 080200Z 16005KT 15SM FEW100 FEW240 M20/M27 A2987 RMK AC1CI0 SLP203

CYQF;2011-03-08 03:00;CYQF 080300Z 18003KT 15SM SKC M21/M27 A2989 RMK SLP216

CYQF;2011-03-08 04:00;CYQF 080400Z 18003KT 15SM SKC M23/M29 A2989 RMK SLP216

CYQF;2011-03-08 05:00;CYQF 080500Z 19003KT 15SM SKC M24/M29 A2989 RMK SLP217

CYQF;2011-03-08 06:00;CYQF 080600Z 17003KT 15SM SKC M24/M29 A2989 RMK SLP212

CYQF;2011-03-08 07:00;CYQF 080700Z 18004KT 15SM SKC M24/M29 A2988 RMK SLP210

CYQF;2011-03-08 08:00;CYQF 080800Z 00000KT 15SM FEW100 M24/M30 A2988 RMK AC2 SLP210

CYQF;2011-03-08 09:00;CYQF 080900Z 16003KT 15SM SKC M24/M30 A2987 RMK SLP204

CYQF;2011-03-08 10:00;CYQF 081000Z 17003KT 15SM FEW100 M24/M30 A2987 RMK AC1 SLP204

CYQF;2011-03-08 11:00;CYQF 081100Z 00000KT 15SM FEW100 M24/M30 A2987 RMK AC1 SLP203

CYQF;2011-03-08 12:00;CYQF 081200Z 00000KT 15SM FEW100 M24/M29 A2988 RMK AC2 SLP203

CYQF;2011-03-08 13:00;CYQF 081300Z 00000KT 15SM FEW100 FEW250 M25/M31 A2988 RMK AC1CI1 SLP203

CYQF;2011-03-08 14:00;CYQF 081400Z 00000KT 6SM BR SCT100 M26/M32 A2988 RMK AC2 SLP204

CYQF;2011-03-08 15:00;CYQF 081500Z 00000KT 6SM BR FEW100 M26/M31 A2989 RMK AC2 SLP215

CYQF;2011-03-08 16:00;CYQF 081600Z 00000KT 6SM BR FEW100 FEW250 M23/M28 A2989 RMK AC1CI0 SLP215

CYQF;2011-03-08 17:00;CYQF 081700Z 17002KT 6SM BR FEW250 M20/M25 A2988 RMK CI1 SLP212

CYQF;2011-03-08 18:00;CYQF 081800Z 00000KT 6SM BR FEW250 M16/M23 A2987 RMK CI2 SLP202

CYQF;2011-03-08 19:00;CYQF 081900Z 00000KT 8SM BKN250 M13/M21 A2986 RMK CI2 HZ SLP199

CYQF;2011-03-08 20:00;CYQF 082000Z 00000KT 8SM OVC250 M10/M19 A2985 RMK CI6 SLP196

CYQF;2011-03-08 21:00;CYQF 082100Z 12005KT 8SM BKN250 M10/M18 A2985 RMK CI3 HZ SLP185

CYQF;2011-03-08 22:00;CYQF 082200Z 12004KT 8SM BKN250 M10/M18 A2984 RMK CI3 HZ SLP182

CYQF;2011-03-08 23:00;CYQF 082300Z 11004KT 10SM BKN250 M10/M18 A2984 RMK CI2 HZ SLP184

CYQF;2011-03-09 00:00;CYQF 090000Z 13007KT 10SM BKN250 M10/M19 A2984 RMK CI2 HZ SLP184

CYQF;2011-03-09 01:00;CYQF 090100Z 11005KT 8SM BKN250 M13/M21 A2985 RMK CI2 SLP187

CYQF;2011-03-09 02:00;CYQF 090200Z 13004KT 6SM HZ BKN250 M15/M21 A2985 RMK CI2 SLP188

CYQF;2011-03-09 03:00;CYQF 090300Z 13002KT 10SM SKC M16/M22 A2985 RMK HZ OBS TAKEN +15 SLP197

CYQF;2011-03-09 04:00;CYQF 090400Z 00000KT 10SM SKC M18/M24 A2985 RMK HZ SLP198

CYQF;2011-03-09 05:00;CYQF 090500Z 33003KT 8SM SKC M19/M25 A2987 RMK HZ SLP202

CYQF;2011-03-09 06:00;CYQF 090600Z 00000KT 8SM SKC M21/M27 A2987 RMK SLP198

CYQF;2011-03-09 07:00;CYQF 090700Z 17003KT 8SM FEW250 M20/M26 A2987 RMK CI0 SLP197

CYQF;2011-03-09 08:00;CYQF 090800Z 16003KT 8SM SKC M19/M25 A2987 RMK SLP197

CYQF;2011-03-09 09:00;CYQF 090900Z 18003KT 8SM FEW250 M21/M27 A2988 RMK CI0 SLP196

CYQF;2011-03-09 10:00;CYQF 091000Z 16003KT 8SM FEW250 M21/M26 A2989 RMK CI0 SLP198

CYQF;2011-03-09 11:00;CYQF 091100Z 19003KT 8SM SKC M22/M28 A2989 RMK SLP199

CYQF;2011-03-09 12:00;CYQF 091200Z 19004KT 10SM FEW250 M22/M27 A2990 RMK CI1 SLP203

CYQF;2011-03-09 13:00;CYQF 091300Z 20002KT 10SM FEW250 M21/M27 A2991 RMK CI1 SLP207

CYQF;2011-03-09 14:00;CYQF 091400Z 00000KT 10SM SCT250 M21/M27 A2992 RMK CI2 SLP209

CYQF;2011-03-09 15:00;CYQF 091500Z 19003KT 10SM FEW250 M21/M27 A2992 RMK CI2 SLP217

CYQF;2011-03-09 16:00;CYQF 091600Z 00000KT 10SM SCT250 M17/M23 A2993 RMK CI2 SLP218

CYQF;2011-03-09 17:00;CYQF 091700Z 19003KT 12SM SCT250 M13/M20 A2991 RMK CI3 SLP214

CYQF;2011-03-09 18:00;CYQF 091800Z 00000KT 15SM FEW100 BKN250 M06/M15 A2990 RMK AC1CI2 SLP196

CYQF;2011-03-09 19:00;CYQF 091900Z 00000KT 12SM FEW100 BKN250 M04/M13 A2988 RMK AC2CI4 SLP191

CYQF;2011-03-09 20:00;CYQF 092000Z 00000KT 15SM FEW050 OVC100 M02/M12 A2984 RMK SC1AS7 SLP178

CYQF;2011-03-09 21:00;CYQF 092100Z 12006KT 15SM FEW050 SCT100 OVC250 M01/M10 A2981 RMK SC1AC2CI2 SLP158

CYQF;2011-03-09 22:00;CYQF 092200Z 14003KT 15SM FEW050 BKN100 M01/M10 A2977 RMK SC1AS6 SLP147

CYQF;2011-03-09 23:00;CYQF 092300Z 13010KT 15SM SCT100 BKN250 M02/M10 A2975 RMK AC3CI2 SLP141

CYQF;2011-03-10 00:00;CYQF 100000Z 14012KT 15SM SCT100 BKN250 M03/M10 A2971 RMK AC3CI2 SLP129

CYQF;2011-03-10 01:00;CYQF 100100Z 15010KT 15SM SCT100 BKN250 M04/M10 A2968 RMK AC4CI2 SLP118

CYQF;2011-03-10 02:00;CYQF 100200Z 16010G15KT 15SM SCT100 BKN250 M03/M09 A2966 RMK AC3CI2 SLP111

CYQF;2011-03-10 03:00;CYQF 100300Z 17010KT 15SM FEW100 SCT250 M04/M09 A2965 RMK AC2CI1 SLP106

CYQF;2011-03-10 04:00;CYQF 100400Z 18008KT 15SM SKC M05/M11 A2965 RMK SLP107

CYQF;2011-03-10 05:00;CYQF 100500Z 17002KT 15SM SKC M07/M12 A2965 RMK SLP106

CYQF;2011-03-10 06:00;CYQF 100600Z 21010G15KT 15SM SKC 01/M08 A2966 RMK SLP088

CYQF;2011-03-10 07:00;CYQF 100700Z 21010G15KT 15SM SKC M02/M10 A2967 RMK SLP092

CYQF;2011-03-10 08:00;CYQF 100800Z 21005KT 15SM SKC M07/M14 A2968 RMK SLP093

CYQF;2011-03-10 09:00;CYQF 100900Z 22006KT 15SM SKC M05/M12 A2969 RMK SLP100

CYQF;2011-03-10 10:00;CYQF 101000Z 19003KT 15SM BKN120 M05/M11 A2968 RMK AC6 SLP097

CYQF;2011-03-10 11:00;CYQF 101100Z 00000KT 15SM BKN120 M08/M14 A2968 RMK AC7 SLP096

CYQF;2011-03-10 12:00;CYQF 101200Z 35006KT 15SM OVC100 M05/M11 A2967 RMK AC8 SLP094

CYQF;2011-03-10 13:00;CYQF 101300Z 36010KT 15SM OVC080 M07/M13 A2966 RMK AC8 SLP092

CYQF;2011-03-10 14:00;CYQF 101400Z 01008KT 10SM BKN100 OVC220 M08/M14 A2964 RMK AC6CI2 SLP085

CYQF;2011-03-10 15:00;CYQF 101500Z 36007KT 8SM SCT080 OVC120 M08/M13 A2963 RMK AC3AS5 BR SLP085

CYQF;2011-03-10 16:00;CYQF 101600Z 35009KT 5SM BR BKN080 OVC120 M08/M14 A2961 RMK AC6AS2 SLP079

CYQF;2011-03-10 17:00;CYQF 101700Z 01007KT 6SM BR BKN080 OVC120 M08/M14 A2959 RMK AC5AS3 SLP073

CYQF;2011-03-10 18:00;CYQF 101800Z 04012KT 6SM BR SCT070 OVC220 M07/M13 A2956 RMK AC3CI2 SLP055

CYQF;2011-03-10 19:00;CYQF 101900Z 36010KT 6SM BR SCT070 OVC220 M06/M12 A2955 RMK AC3CI2 SLP050

CYQF;2011-03-10 20:00;CYQF 102000Z 35010G15KT 6SM BR BKN070 OVC240 M08/M13 A2953 RMK AS5CI2 SLP044

CYQF;2011-03-10 21:00;CYQF 102100Z 36012KT 6SM BR SCT070 OVC240 M07/M13 A2950 RMK AS3CI2 SLP041

CYQF;2011-03-10 22:00;CYQF 102200Z 35010G15KT 8SM BKN070 OVC240 M10/M15 A2952 RMK AS5CI2 SLP047

CYQF;2011-03-10 23:00;CYQF 102300Z 34011KT 8SM BKN070 OVC250 M10/M16 A2956 RMK AS5CI2 HZ SLP057

CYQF;2011-03-11 00:00;CYQF 110000Z 35010G15KT 8SM BKN070 OVC250 M10/M16 A2956 RMK AS5CI2 SLP064

CYQF;2011-03-11 01:00;CYQF 110100Z 36010G15KT 8SM BKN070 OVC250 M11/M17 A2960 RMK AS6CI2 SLP075

CYQF;2011-03-11 01:09;CYQF 110109Z 36010G15KT 3SM -SN BKN050 OVC100 RMK SC5AC3 VIS VRB 2-4

CYQF;2011-03-11 02:00;CYQF 110200Z 35012G18KT 3SM -SN DRSN OVC015 M12/M18 A2963 RMK SC8 VIS VRB 2-4 SLP086

CYQF;2011-03-11 03:00;CYQF 110300Z 34010KT 10SM -SN OVC018 M12/M18 A2966 RMK SC7 SLP105

CYQF;2011-03-11 04:00;CYQF 110400Z 34010KT 12SM -SN OVC018 M13/M19 A2969 RMK SC8 SLP114

CYQF;2011-03-11 05:00;CYQF 110500Z 35010G15KT 12SM -SN OVC018 M14/M20 A2973 RMK SC8 SLP126

CYQF;2011-03-11 06:00;CYQF 110600Z 33010KT 10SM -SN OVC018 M15/M21 A2975 RMK SC8 SLP138

CYQF;2011-03-11 07:00;CYQF 110700Z 33010KT 10SM -SN OVC018 M15/M22 A2979 RMK SC8 SLP149

CYQF;2011-03-11 08:00;CYQF 110800Z 32014KT 15SM -SN OVC023 M16/M22 A2981 RMK SC8 SLP155

CYQF;2011-03-11 09:00;CYQF 110900Z 32014KT 15SM SCT025 M17/M24 A2985 RMK SC4 SLP176

CYQF;2011-03-11 10:00;CYQF 111000Z 34008KT 15SM SCT025 M18/M24 A2988 RMK SC3 SLP185

CYQF;2011-03-11 11:00;CYQF 111100Z 33011KT 15SM SCT025 M18/M25 A2989 RMK SC3 SLP189

CYQF;2011-03-11 12:00;CYQF 111200Z 33008KT 15SM SCT025 BKN250 M19/M25 A2992 RMK SC3CI1 SLP206

CYQF;2011-03-11 13:00;CYQF 111300Z 30003KT 15SM SCT025 BKN250 M19/M25 A2994 RMK SC3CI2 SLP211

CYQF;2011-03-11 14:00;CYQF 111400Z 33009KT 15SM FEW030 BKN250 M19/M26 A2997 RMK SC2CI2 SLP220

CYQF;2011-03-11 15:00;CYQF 111500Z 00000KT 15SM FEW030 BKN250 M19/M26 A2999 RMK SC1CI1 SLP234

CYQF;2011-03-11 16:00;CYQF 111600Z 30003KT 15SM FEW150 BKN250 M18/M25 A3001 RMK AC1CI2 SLP239

CYQF;2011-03-11 17:00;CYQF 111700Z 33003KT 15SM BKN250 M18/M25 A3001 RMK CI2 SLP240

CYQF;2011-03-11 18:00;CYQF 111800Z 00000KT 15SM FEW250 M17/M24 A3001 RMK CI1 SLP240

CYQF;2011-03-11 19:00;CYQF 111900Z 36004KT 15SM SCT250 M16/M24 A3003 RMK CI1 SLP245

CYQF;2011-03-11 20:00;CYQF 112000Z 35004KT 15SM FEW150 BKN250 M16/M23 A3002 RMK AC2CI1 SLP244

CYQF;2011-03-11 21:00;CYQF 112100Z 31004KT 15SM FEW150 BKN250 M15/M23 A3004 RMK AC2CI2 SLP249

CYQF;2011-03-11 22:00;CYQF 112200Z 00000KT 15SM BKN090 OVC250 M14/M23 A3002 RMK AC5CI2 SLP245

CYQF;2011-03-11 23:00;CYQF 112300Z 00000KT 15SM BKN090 BKN250 M14/M22 A3002 RMK AC6CI1 SLP245

CYQF;2011-03-12 00:00;CYQF 120000Z 00000KT 15SM FEW090 BKN250 M14/M22 A3003 RMK AC2CI3 SLP247

CYQF;2011-03-12 01:00;CYQF 120100Z 14002KT 15SM FEW090 BKN250 M15/M22 A3003 RMK AC1CI3 SLP248

CYQF;2011-03-12 02:00;CYQF 120200Z 13002KT 15SM BKN250 M15/M23 A3004 RMK CI4 SLP251

CYQF;2011-03-12 03:00;CYQF 120300Z 15003KT 15SM SCT250 M18/M24 A3004 RMK CI1 SLP256

CYQF;2011-03-12 04:00;CYQF 120400Z 14002KT 15SM FEW250 M17/M24 A3003 RMK CI0 SLP254

CYQF;2011-03-12 05:00;CYQF 120500Z 13005KT 15SM SKC M18/M24 A3003 RMK SLP254

CYQF;2011-03-12 06:00;CYQF 120600Z 17004KT 15SM SKC M18/M24 A3003 RMK SLP250

CYQF;2011-03-12 07:00;CYQF 120700Z 00000KT 15SM SKC M17/M23 A3001 RMK SLP244

CYQF;2011-03-12 08:00;CYQF 120800Z 15004KT 15SM SKC M18/M24 A3000 RMK SLP241

CYQF;2011-03-12 09:00;CYQF 120900Z 13005KT 15SM SKC M17/M23 A2998 RMK SLP232

CYQF;2011-03-12 10:00;CYQF 121000Z 13005KT 15SM SKC M18/M23 A2998 RMK SLP230

CYQF;2011-03-12 11:00;CYQF 121100Z 15004KT 15SM SKC M17/M22 A2995 RMK SLP221

CYQF;2011-03-12 12:00;CYQF 121200Z 00000KT 15SM SKC M18/M23 A2993 RMK SLP212

CYQF;2011-03-12 13:00;CYQF 121300Z 15004KT 15SM FEW250 M16/M22 A2991 RMK CI0 SLP205

CYQF;2011-03-12 14:00;CYQF 121400Z 00000KT 15SM FEW100 BKN250 M18/M23 A2990 RMK AC2CI1 SLP201

CYQF;2011-03-12 15:00;CYQF 121500Z 13010KT 15SM SCT100 BKN250 M14/M19 A2988 RMK AC3CI2 SLP196

CYQF;2011-03-12 16:00;CYQF 121600Z 16010KT 15SM BKN100 M13/M18 A2988 RMK AC6 SLP195

CYQF;2011-03-12 17:00;CYQF 121700Z 14008KT 15SM BKN080 BKN250 M11/M17 A2986 RMK AC6CI1 SLP188

CYQF;2011-03-12 18:00;CYQF 121800Z 14012G17KT 15SM DRSN SCT080 BKN250 M10/M15 A2981 RMK AC4CI3 SLP166

CYQF;2011-03-12 19:00;CYQF 121900Z 15010KT 15SM SCT080 BKN250 M07/M14 A2981 RMK AC3CI2 SLP166

CYQF;2011-03-12 20:00;CYQF 122000Z 14012G17KT 15SM SCT080 BKN250 M07/M13 A2978 RMK AC3CI4 SLP157

CYQF;2011-03-12 21:00;CYQF 122100Z 14009KT 15SM BKN080 BKN250 M06/M12 A2976 RMK AC6CI1 SLP144

CYQF;2011-03-12 22:00;CYQF 122200Z 14012G17KT 15SM SCT080 BKN140 BKN250 M05/M11 A2974 RMK AC3AC3CI1 SLP138

CYQF;2011-03-12 23:00;CYQF 122300Z 15012KT 12SM FEW080 BKN140 BKN250 M04/M10 A2974 RMK AC1AC5CI2 SLP136

CYQF;2011-03-13 00:00;CYQF 130000Z 15012KT 12SM BKN120 BKN250 M05/M10 A2973 RMK AC5CI2 SLP130

CYQF;2011-03-13 01:00;CYQF 130100Z 16010KT 15SM BKN120 BKN250 M05/M10 A2972 RMK AC5CI2 SLP129

CYQF;2011-03-13 02:00;CYQF 130200Z 16011KT 15SM BKN120 BKN250 M04/M09 A2973 RMK AC5CI2 SLP131

CYQF;2011-03-13 03:00;CYQF 130300Z 18005KT 15SM BKN120 BKN250 M04/M09 A2974 RMK AC5CI2 SLP130

CYQF;2011-03-13 04:00;CYQF 130400Z 00000KT 15SM BKN120 BKN250 M05/M10 A2976 RMK AC5CI2 SLP134

CYQF;2011-03-13 05:00;CYQF 130500Z 16004KT 15SM BKN120 BKN250 M08/M12 A2976 RMK AC6CI2 SLP135

CYQF;2011-03-13 06:00;CYQF 130600Z 19006KT 15SM BKN120 BKN250 M06/M11 A2976 RMK AC6CI2 SLP134

CYQF;2011-03-13 07:00;CYQF 130700Z 16003KT 15SM FEW120 SCT250 M06/M11 A2976 RMK AC1CI1 SLP135

CYQF;2011-03-13 08:00;CYQF 130800Z 18003KT 15SM FEW120 M09/M13 A2977 RMK AC1 SLP137

CYQF;2011-03-13 09:00;CYQF 130900Z 20005KT 15SM SKC M11/M16 A2978 RMK SLP145

CYQF;2011-03-13 10:00;CYQF 131000Z 21006KT 15SM FEW120 M08/M14 A2978 RMK AC1 SLP144

CYQF;2011-03-13 11:00;CYQF 131100Z 20004KT 15SM SKC M12/M17 A2979 RMK SLP146

CYQF;2011-03-13 12:00;CYQF 131200Z 20004KT 15SM SKC M09/M15 A2981 RMK SLP149

CYQF;2011-03-13 13:00;CYQF 131300Z 20004KT 15SM SKC M10/M16 A2983 RMK SLP155

CYQF;2011-03-13 14:00;CYQF 131400Z 16004KT 15SM SCT250 M12/M18 A2984 RMK CI1 SLP157

CYQF;2011-03-13 15:00;CYQF 131500Z 18005KT 15SM FEW040 BKN250 M11/M17 A2985 RMK SC1CI6 SLP163

CYQF;2011-03-13 16:00;CYQF 131600Z 19004KT 15SM FEW040 BKN250 M06/M14 A2985 RMK SC1CI7 SLP165

CYQF;2011-03-13 17:00;CYQF 131700Z 18005KT 15SM BKN250 M02/M11 A2985 RMK CI5 SLP164

CYQF;2011-03-13 18:00;CYQF 131800Z 00000KT 15SM BKN250 03/M09 A2983 RMK CI2 SLP143

CYQF;2011-03-13 19:00;CYQF 131900Z 00000KT 15SM BKN250 05/M07 A2981 RMK CI5 SLP137

CYQF;2011-03-13 20:00;CYQF 132000Z 17005KT 15SM BKN250 05/M05 A2979 RMK CI6 SLP133

CYQF;2011-03-13 21:00;CYQF 132100Z 15002KT 15SM FEW040 BKN120 05/M05 A2977 RMK SC1AS7 SLP128

CYQF;2011-03-13 22:00;CYQF 132200Z 14008KT 15SM FEW040 BKN120 05/M05 A2975 RMK SC1AS6 SLP120

CYQF;2011-03-13 23:00;CYQF 132300Z 12010G15KT 15SM FEW040 BKN120 OVC250 03/M05 A2973 RMK SC1AS7CI1 SLP113

CYQF;2011-03-14 00:00;CYQF 140000Z 13010KT 15SM FEW040 BKN100 OVC250 03/M04 A2971 RMK SC1AS6CI2 SLP105

CYQF;2011-03-14 01:00;CYQF 140100Z 13012KT 15SM FEW040 BKN100 BKN250 03/M04 A2969 RMK SC1AS5CI2 SLP099

CYQF;2011-03-14 02:00;CYQF 140200Z 14010KT 15SM BKN100 BKN250 03/M04 A2966 RMK AC6CI1 SLP091

CYQF;2011-03-14 03:00;CYQF 140300Z 15010KT 15SM OVC100 03/M04 A2962 RMK AC8 SLP076

CYQF;2011-03-14 04:00;CYQF 140400Z 15009KT 15SM OVC100 02/M04 A2959 RMK AC8 SLP067

CYQF;2011-03-14 05:00;CYQF 140500Z 16008KT 15SM OVC100 02/M04 A2957 RMK AC8 SLP062

CYQF;2011-03-14 06:00;CYQF 140600Z 18008KT 15SM OVC100 02/M04 A2954 RMK AC8 SLP034

CYQF;2011-03-14 07:00;CYQF 140700Z 18013KT 15SM OVC100 03/M05 A2952 RMK AC8 SLP027

CYQF;2011-03-14 08:00;CYQF 140800Z 17012KT 15SM OVC100 03/M05 A2949 RMK AC8 SLP019

CYQF;2011-03-14 09:00;CYQF 140900Z 18010KT 15SM OVC100 03/M04 A2948 RMK AC8 SLP011

CYQF;2011-03-14 10:00;CYQF 141000Z 17005KT 15SM SCT100 OVC250 02/M04 A2946 RMK AC4CI4 SLP002

CYQF;2011-03-14 11:00;CYQF 141100Z 18005KT 15SM FEW100 BKN250 01/M05 A2944 RMK AC2CI2 SLP997

CYQF;2011-03-14 12:00;CYQF 141200Z 18007KT 15SM SCT100 BKN250 01/M06 A2942 RMK AC2CI2 SLP993

CYQF;2011-03-14 13:00;CYQF 141300Z 20008KT 15SM SCT100 OVC250 01/M06 A2942 RMK AC2CI4 SLP995

CYQF;2011-03-14 14:00;CYQF 141400Z 21002KT 15SM BKN080 OVC250 01/M05 A2946 RMK AC5CI2 SLP007

CYQF;2011-03-14 15:00;CYQF 141500Z 26008KT 15SM FEW030 BKN080 BKN250 01/M05 A2949 RMK SC1AC6CI2 VIRGA SLP019

CYQF;2011-03-14 15:17;CYQF 141517Z 27008KT 15SM -SHRA FEW030 BKN080 BKN250 RMK SC1AC7CI1

CYQF;2011-03-14 15:26;CYQF 141526Z CCA 29010KT 15SM FEW030 BKN080 RMK SC1AC7 TEMP +4 VIRGA

CYQF;2011-03-14 15:49;CYQF 141549Z 30015G20KT 15SM -SHRA FEW030 BKN080 OVC250 RMK SC1AC7CI1 TEMP +5 SC TR

CYQF;2011-03-14 16:00;CYQF 141600Z 29010G15KT 15SM -SHRA FEW030 BKN080 BKN250 06/M04 A2950 RMK SC1AC7CI1 SLP022

CYQF;2011-03-14 16:22;CYQF 141622Z 29010G15KT 15SM FEW030 BKN080 BKN250 RMK SC1AC7CI1 VIRGA NE-E-SE

CYQF;2011-03-14 17:00;CYQF 141700Z 29010KT 15SM FEW030 BKN080 BKN250 05/M05 A2953 RMK SC1AC7CI1 SLP031

CYQF;2011-03-14 18:00;CYQF 141800Z 28005KT 15SM FEW030 SCT080 BKN250 05/M05 A2955 RMK SC1AC2CI4 SC TR SLP034

CYQF;2011-03-14 19:00;CYQF 141900Z 25007KT 15SM FEW030 BKN250 06/M06 A2956 RMK SC1CI3 SLP039

CYQF;2011-03-14 20:00;CYQF 142000Z 24005KT 15SM FEW040 BKN250 07/M05 A2957 RMK CU1CI3 SLP042

CYQF;2011-03-14 21:00;CYQF 142100Z 25008KT 15SM FEW040 BKN250 08/M06 A2958 RMK CU1CI2 SLP043

CYQF;2011-03-14 22:00;CYQF 142200Z 27010KT 15SM FEW040 FEW250 08/M06 A2961 RMK CU2CI0 SLP050

CYQF;2011-03-14 23:00;CYQF 142300Z 24008KT 15SM FEW040 SCT150 BKN250 05/M06 A2964 RMK CU1AC3CI1 SLP059

CYQF;2011-03-15 00:00;CYQF 150000Z 26008KT 15SM FEW040 FEW150 BKN250 07/M07 A2965 RMK SC1AC1CI2 SLP070

CYQF;2011-03-15 01:00;CYQF 150100Z 25008KT 15SM FEW040 FEW150 BKN250 06/M07 A2967 RMK CU1AC1CI2 SLP077

CYQF;2011-03-15 02:00;CYQF 150200Z 25010G15KT 15SM FEW040 FEW150 BKN250 06/M08 A2971 RMK SC1AC2CI0 SLP087

CYQF;2011-03-15 03:00;CYQF 150300Z 26010KT 15SM FEW040 FEW150 04/M08 A2974 RMK SC1AC1 SLP103

CYQF;2011-03-15 04:00;CYQF 150400Z 25007KT 15SM SKC 03/M08 A2976 RMK SLP110

CYQF;2011-03-15 05:00;CYQF 150500Z 19008KT 15SM SKC 01/M09 A2977 RMK SLP112

CYQF;2011-03-15 06:00;CYQF 150600Z 22004KT 15SM SKC M01/M10 A2977 RMK SLP116

CYQF;2011-03-15 07:00;CYQF 150700Z 24005KT 15SM SKC M00/M10 A2978 RMK SLP119

CYQF;2011-03-15 08:00;CYQF 150800Z 23005KT 15SM SKC M03/M11 A2979 RMK SLP121

CYQF;2011-03-15 09:00;CYQF 150900Z 18005KT 15SM SKC M04/M12 A2979 RMK SLP124

CYQF;2011-03-15 10:00;CYQF 151000Z 18004KT 15SM SKC M05/M13 A2978 RMK SLP120

CYQF;2011-03-15 11:00;CYQF 151100Z 00000KT 15SM FEW100 FEW250 M06/M13 A2976 RMK AC1CI1 SLP115

CYQF;2011-03-15 12:00;CYQF 151200Z 20005KT 15SM FEW100 FEW250 M07/M14 A2975 RMK AC1CI1 SLP113

CYQF;2011-03-15 13:00;CYQF 151300Z 18005KT 15SM FEW100 SCT250 M08/M15 A2975 RMK AC1CI2 SLP112

CYQF;2011-03-15 14:00;CYQF 151400Z 15003KT 15SM BKN100 M07/M14 A2973 RMK AC4 SLP106

CYQF;2011-03-15 15:00;CYQF 151500Z 00000KT 15SM FEW100 SCT250 M06/M13 A2971 RMK AC1CI0 SLP101

CYQF;2011-03-15 16:00;CYQF 151600Z 00000KT 15SM FEW100 SCT250 M02/M11 A2969 RMK AC1CI1 SLP094

CYQF;2011-03-15 17:00;CYQF 151700Z 15003KT 15SM FEW100 BKN250 M02/M10 A2967 RMK AC1CI2 SLP089

CYQF;2011-03-15 18:00;CYQF 151800Z 00000KT 15SM BKN100 BKN250 01/M09 A2963 RMK AC5CI2 SLP071

CYQF;2011-03-15 19:00;CYQF 151900Z 12007KT 15SM BKN100 OVC250 02/M07 A2960 RMK AC6CI2 SLP061

CYQF;2011-03-15 20:00;CYQF 152000Z 13005KT 15SM BKN100 OVC250 03/M06 A2957 RMK AC6CI2 SLP054

CYQF;2011-03-15 21:00;CYQF 152100Z 12008KT 15SM BKN120 BKN250 03/M05 A2956 RMK AC5CI2 SLP048

CYQF;2011-03-15 22:00;CYQF 152200Z 12002KT 15SM FEW050 BKN250 04/M05 A2954 RMK CU1CI2 SLP040

CYQF;2011-03-15 23:00;CYQF 152300Z 14006KT 15SM FEW050 FEW120 BKN250 03/M04 A2952 RMK CU1AC1CI3 SLP036

CYQF;2011-03-16 00:00;CYQF 160000Z 15004KT 15SM FEW050 SCT120 BKN250 03/M04 A2950 RMK CU1AC3CI2 SLP030

CYQF;2011-03-16 01:00;CYQF 160100Z 00000KT 15SM FEW050 BKN120 BKN250 02/M04 A2948 RMK SC1AC4CI1 SLP024

CYQF;2011-03-16 02:00;CYQF 160200Z 13003KT 15SM BKN120 BKN250 02/M04 A2947 RMK AC5CI2 SLP022

CYQF;2011-03-16 03:00;CYQF 160300Z 00000KT 15SM BKN120 BKN250 01/M04 A2946 RMK AC5CI2 SLP016

CYQF;2011-03-16 04:00;CYQF 160400Z 00000KT 15SM FEW120 OVC250 00/M05 A2945 RMK AC2CS5 SLP015

CYQF;2011-03-16 05:00;CYQF 160500Z 18003KT 15SM FEW120 OVC250 M01/M06 A2945 RMK AC2CS6 SLP014

CYQF;2011-03-16 06:00;CYQF 160600Z 00000KT 15SM FEW120 OVC250 M01/M06 A2943 RMK AC2CS6 SLP002

CYQF;2011-03-16 07:00;CYQF 160700Z 00000KT 15SM FEW120 OVC250 M02/M06 A2942 RMK AC2CS6 SLP000

CYQF;2011-03-16 08:00;CYQF 160800Z 00000KT 15SM BKN120 OVC250 M02/M06 A2941 RMK AC6CI2 SLP997

CYQF;2011-03-16 09:00;CYQF 160900Z 36002KT 15SM BKN120 OVC250 M02/M06 A2940 RMK AC6CI2 SLP990

CYQF;2011-03-16 10:00;CYQF 161000Z 00000KT 15SM BKN120 BKN250 M04/M08 A2939 RMK AC5CI2 SLP987

CYQF;2011-03-16 11:00;CYQF 161100Z 00000KT 6SM BR SCT120 BKN250 M05/M09 A2939 RMK AC4CI2 VIS S 3 SLP986

CYQF;2011-03-16 11:02;CYQF 161102Z 00000KT 1SM BR SCT120 BKN250 RMK FG2AC2CI2

CYQF;2011-03-16 11:09;CYQF 161109Z 00000KT 1/4SM FZFG SKC RMK FG7

CYQF;2011-03-16 11:43;CYQF 161143Z 00000KT 1/2SM FZFG BKN250 RMK FG1CI5

CYQF;2011-03-16 12:00;CYQF 161200Z 03002KT 3SM BR BKN250 M05/M09 A2939 RMK CI6 VIS N 11/2 SLP990

CYQF;2011-03-16 12:14;CYQF 161214Z 01002KT 1/2SM FZFG BKN120 OVC250 RMK FG2AC5CI2

CYQF;2011-03-16 12:33;CYQF 161233Z 36002KT 1SM BR BKN120 OVC250 RMK FG2AC5CI2

CYQF;2011-03-16 12:49;CYQF 161249Z 00000KT 2SM BR BKN120 BKN250 RMK AC5CI2

CYQF;2011-03-16 13:00;CYQF 161300Z 36005KT 2SM BR SCT120 BKN250 M05/M09 A2939 RMK AC4CI3 SLP990

CYQF;2011-03-16 14:00;CYQF 161400Z 32002KT 1 1/2SM BR SCT100 BKN250 M05/M09 A2940 RMK FG2AC2CI2 SLP994

CYQF;2011-03-16 14:37;CYQF 161437Z 36005KT 3/4SM BR VV003 RMK FG8 RIME ON INDICATOR

CYQF;2011-03-16 15:00;CYQF 161500Z 34007KT 3/4SM BR VV003 M06/M10 A2940 RMK FG8 SLP996

CYQF;2011-03-16 15:11;CYQF 161511Z 35005KT 1/2SM FZFG VV002 RMK FG8 VIS VRB 1/4 - 3/4

CYQF;2011-03-16 15:45;CYQF 161545Z 35007KT 3/4SM BR VV003 RMK FG8 VIS VRB 1/2-1

CYQF;2011-03-16 16:00;CYQF 161600Z 35008KT 3/4SM BR VV003 M05/M09 A2941 RMK FG8 VIS VRB 1/2-1 SLP999

CYQF;2011-03-16 16:51;CYQF 161651Z 32005KT 3/4SM -SN BR VV004 RMK FG8

CYQF;2011-03-16 17:00;CYQF 161700Z 32005KT 3/4SM -SN BR VV004 M05/M08 A2943 RMK FG8 VIS VRB 1/2-1 SLP004

CYQF;2011-03-16 17:53;CYQF 161753Z 34005KT 3/4SM BR VV004 RMK FG8 VIS VRB 1/2-1

CYQF;2011-03-16 18:00;CYQF 161800Z 32007KT 3/4SM BR VV004 M04/M07 A2944 RMK FG8 VIS VRB 1/2-1 SLP011

CYQF;2011-03-16 19:00;CYQF 161900Z 33008KT 1SM BR VV003 M03/M06 A2946 RMK FG8 SLP017

CYQF;2011-03-16 20:00;CYQF 162000Z 34010KT 1 1/2SM BR VV004 M04/M06 A2947 RMK FG8 SLP020

CYQF;2011-03-16 20:30;CYQF 162030Z 35008KT 3SM BR OVC006 RMK ST8

CYQF;2011-03-16 21:00;CYQF 162100Z 35007KT 3SM BR OVC006 M03/M07 A2949 RMK ST8 SLP027

CYQF;2011-03-16 22:00;CYQF 162200Z 36010KT 2SM BR OVC005 M03/M07 A2952 RMK ST8 SLP036

CYQF;2011-03-16 23:00;CYQF 162300Z 35008KT 3SM BR OVC006 M03/M07 A2954 RMK ST8 SLP044

CYQF;2011-03-17 00:00;CYQF 170000Z 36008KT 2SM BR OVC008 M03/M08 A2957 RMK ST8 SLP059

CYQF;2011-03-17 01:00;CYQF 170100Z 35008KT 2SM BR OVC008 M03/M08 A2959 RMK ST8 SLP067

CYQF;2011-03-17 02:00;CYQF 170200Z 35004KT 2SM BR OVC008 M04/M08 A2962 RMK ST8 SLP075

CYQF;2011-03-17 03:00;CYQF 170300Z 35003KT 2SM -SN OVC008 M04/M08 A2964 RMK ST8 SLP086

CYQF;2011-03-17 04:00;CYQF 170400Z 36004KT 3SM -SN BKN008 OVC100 M04/M08 A2966 RMK ST5AC3 SLP091

CYQF;2011-03-17 05:00;CYQF 170500Z 00000KT 3SM -SN OVC007 M05/M08 A2967 RMK ST7 SLP096

CYQF;2011-03-17 06:00;CYQF 170600Z 00000KT 3SM -SN OVC007 M05/M09 A2969 RMK ST7 SLP102

CYQF;2011-03-17 07:00;CYQF 170700Z 00000KT 3SM -SN OVC007 M05/M09 A2971 RMK ST7 SLP108

CYQF;2011-03-17 07:49;CYQF 170749Z 00000KT 2SM -SN OVC007 RMK ST8

CYQF;2011-03-17 08:00;CYQF 170800Z 00000KT 2SM -SN OVC007 M05/M09 A2972 RMK ST8 SLP112

CYQF;2011-03-17 09:00;CYQF 170900Z 00000KT 2SM -SN OVC007 M05/M09 A2974 RMK ST8 SLP117

CYQF;2011-03-17 09:53;CYQF 170953Z 15004KT 1SM -SN VV006 RMK SN8

CYQF;2011-03-17 10:00;CYQF 171000Z 15003KT 1SM -SN VV006 M04/M08 A2974 RMK SN8 SLP118

CYQF;2011-03-17 10:33;CYQF 171033Z 15002KT 3/4SM -SN VV005 RMK SN8

CYQF;2011-03-17 11:00;CYQF 171100Z 16002KT 3/4SM -SN VV005 M04/M08 A2975 RMK SN8 /S02/ SLP121

CYQF;2011-03-17 11:27;CYQF 171127Z 00000KT 1SM -SN VV006 RMK SN8

CYQF;2011-03-17 12:00;CYQF 171200Z 16002KT 1SM -SN VV006 M04/M08 A2976 RMK SN8 /S03/ SLP126

CYQF;2011-03-17 13:00;CYQF 171300Z 19002KT 2SM -SN VV008 M03/M07 A2978 RMK SN8 SLP131

CYQF;2011-03-17 13:51;CYQF 171351Z 00000KT 3/4SM -SN VV005 RMK SN8

CYQF;2011-03-17 14:00;CYQF 171400Z 00000KT 1SM -SN VV006 M03/M07 A2979 RMK SN8 /S01/ SLP135

CYQF;2011-03-17 15:00;CYQF 171500Z 00000KT 3/4SM -SN VV006 M02/M06 A2981 RMK SN8 /S02/ SLP141

CYQF;2011-03-17 15:49;CYQF 171549Z 00000KT 1/2SM SN VV005 RMK SN8

CYQF;2011-03-17 16:00;CYQF 171600Z 00000KT 1/2SM SN VV005 M01/M05 A2983 RMK SN8 /S04/ SLP148

CYQF;2011-03-17 16:14;CYQF 171614Z 00000KT 3/4SM -SN VV007 RMK SN8

CYQF;2011-03-17 17:00;CYQF 171700Z 00000KT 1 1/2SM -SN OVC015 00/M04 A2985 RMK SN5SC3 VIS VRB 1-2 SLP153

CYQF;2011-03-17 18:00;CYQF 171800Z 31006KT 8SM -SN BKN015 OVC060 00/M04 A2985 RMK SC7SC1 /S04/ SLP154

CYQF;2011-03-17 18:49;CYQF 171849Z 31005KT 10SM -RA SCT015 BKN060 OVC100 RMK SC3SC2AC3 VIS N-NW 5

CYQF;2011-03-17 19:00;CYQF 171900Z 33007KT 10SM -RASN SCT015 BKN060 OVC100 01/M03 A2986 RMK SC3SC3AC2 SLP156

CYQF;2011-03-17 19:33;CYQF 171933Z 30007KT 15SM FEW007 BKN060 BKN100 RMK SF2SC2AC1

CYQF;2011-03-17 20:00;CYQF 172000Z 28008KT 15SM SCT007 BKN020 OVC100 02/M03 A2987 RMK SC3SC3AC2 SLP160

CYQF;2011-03-17 21:00;CYQF 172100Z 35005KT 15SM SCT007 OVC020 02/M03 A2988 RMK SC4SC3 SLP161

CYQF;2011-03-17 22:00;CYQF 172200Z CCA 36006KT 15SM FEW010 BKN025 02/M04 A2988 RMK SF2SC6 TCU EMBD SLP162

CYQF;2011-03-17 23:00;CYQF 172300Z 32006KT 15SM FEW010 SCT040 BKN250 02/M04 A2989 RMK SF1SC3CI1 TCU W SLP165

CYQF;2011-03-18 00:00;CYQF 180000Z 35008KT 15SM FEW010 FEW040 BKN250 02/M04 A2991 RMK SF1CU2CI2 TCU W SLP169

CYQF;2011-03-18 01:00;CYQF 180100Z 27004KT 15SM FEW030 FEW090 SCT250 01/M04 A2993 RMK SC1AC2CI1 SLP177

CYQF;2011-03-18 02:00;CYQF 180200Z 00000KT 15SM FEW030 FEW090 SCT250 M02/M06 A2994 RMK SC1AC2CI1 SLP180

CYQF;2011-03-18 03:00;CYQF 180300Z 32003KT 15SM FEW080 SCT250 M02/M06 A2995 RMK AC2CI2 SLP188

CYQF;2011-03-18 04:00;CYQF 180400Z 19005KT 15SM FEW080 SCT250 M06/M10 A2996 RMK AC1CI1 SLP192

CYQF;2011-03-18 05:00;CYQF 180500Z 19003KT 15SM FEW080 FEW250 M06/M09 A2997 RMK AC1CI0 SLP193

CYQF;2011-03-18 05:19;CYQF 180519Z 00000KT 1/4SM FZFG FEW080 FEW250 RMK FG1AC1CI0 ROOF VIS 6

CYQF;2011-03-18 06:00;CYQF 180600Z 00000KT 1/4SM FZFG FEW080 M07/M11 A2998 RMK FG1AC1 ROOF VIS 2 SLP199

CYQF;2011-03-18 06:11;CYQF 180611Z 00000KT 1 1/2SM PRFG FEW080 RMK FG1AC1

CYQF;2011-03-18 06:32;CYQF 180632Z 17003KT 1/2SM FZFG FEW080 RMK FG1AC2

CYQF;2011-03-18 07:00;CYQF 180700Z 15003KT 3/4SM BR FEW080 M08/M12 A2998 RMK FG1AC2 SLP199

CYQF;2011-03-18 07:14;CYQF 180714Z 18002KT 1/4SM FZFG FEW080 RMK FG2AC1

CYQF;2011-03-18 08:00;CYQF 180800Z 00000KT 1/8SM FZFG SKC M08/M12 A2998 RMK FG6 SLP199

CYQF;2011-03-18 09:00;CYQF 180900Z 00000KT 0SM FZFG SKC M08/M10 A2999 RMK FG7 SLP204

CYQF;2011-03-18 10:00;CYQF 181000Z 00000KT 0SM FZFG SKC M10/M11 A2999 RMK FG7 SLP205

CYQF;2011-03-18 11:00;CYQF 181100Z 17002KT 1/8SM FZFG VV002 M10/M11 A3000 RMK FG8 SLP207

CYQF;2011-03-18 12:00;CYQF 181200Z 00000KT 1/8SM FZFG VV002 M11/M12 A3000 RMK FG8 SLP211

CYQF;2011-03-18 13:00;CYQF 181300Z 00000KT 1/8SM FZFG VV002 M12/M13 A3001 RMK FG8 SLP214

CYQF;2011-03-18 14:00;CYQF 181400Z 00000KT 1/4SM FZFG SKC M13/M14 A3002 RMK FG6 SLP215

CYQF;2011-03-18 14:55;CYQF 181455Z 00000KT 1SM BR FEW070 RMK FG1AC2

CYQF;2011-03-18 15:00;CYQF 181500Z 00000KT 2SM BR FEW070 M12/M14 A3002 RMK FG1AC2 VIS E-S 1/2 SLP224

CYQF;2011-03-18 15:25;CYQF 181525Z 00000KT 5SM BR FEW070 RMK AC1

CYQF;2011-03-18 16:00;CYQF 181600Z 00000KT 8SM FEW070 M10/M11 A3003 RMK AC1 SLP225

CYQF;2011-03-18 17:00;CYQF 181700Z 00000KT 8SM FEW070 M08/M09 A3003 RMK AC2 SLP226

CYQF;2011-03-18 18:00;CYQF 181800Z 00000KT 12SM SCT070 M06/M06 A3002 RMK AC4 ACC ASOCTD SLP222

CYQF;2011-03-18 19:00;CYQF 181900Z 00000KT 12SM FEW070 M04/M04 A3001 RMK AC1 SLP218

CYQF;2011-03-18 20:00;CYQF 182000Z 00000KT 12SM FEW025 FEW250 M02/M07 A3000 RMK CU1CI1 TR CU SLP214

CYQF;2011-03-18 21:00;CYQF 182100Z 00000KT 15SM FEW025 M01/M07 A2997 RMK CU1 SLP202

CYQF;2011-03-18 22:00;CYQF 182200Z 15002KT 15SM FEW025 FEW250 02/M06 A2996 RMK CU1CI0 SLP198

CYQF;2011-03-18 23:00;CYQF 182300Z 14003KT 15SM FEW025 02/M06 A2994 RMK SC1 SLP192

CYQF;2011-03-19 00:00;CYQF 190000Z 13005KT 15SM SKC 01/M06 A2993 RMK SLP187

CYQF;2011-03-19 01:00;CYQF 190100Z 13004KT 15SM SKC M01/M07 A2993 RMK SLP187

CYQF;2011-03-19 02:00;CYQF 190200Z 15004KT 15SM SKC M04/M09 A2994 RMK SLP189

CYQF;2011-03-19 03:00;CYQF 190300Z 00000KT 15SM SKC M05/M10 A2994 RMK SLP197

CYQF;2011-03-19 04:00;CYQF 190400Z 00000KT 15SM SKC M05/M10 A2994 RMK SLP197

CYQF;2011-03-19 05:00;CYQF 190500Z 15002KT 15SM SKC M07/M11 A2993 RMK SLP195

CYQF;2011-03-19 06:00;CYQF 190600Z 14005KT 15SM SKC M07/M11 A2992 RMK SLP187

CYQF;2011-03-19 07:00;CYQF 190700Z 13004KT 3SM BR SCT240 M08/M12 A2991 RMK CI2 SLP185

CYQF;2011-03-19 07:40;CYQF 190740Z 13004KT 1SM BR SKC RMK FG6

CYQF;2011-03-19 07:49;CYQF 190749Z 15007KT 1/4SM FZFG SKC RMK FG7

CYQF;2011-03-19 08:00;CYQF 190800Z 14008KT 1/2SM FZFG SKC M09/M12 A2990 RMK FG7 SLP182

CYQF;2011-03-19 08:37;CYQF 190837Z 15006KT 3/4SM BR SKC RMK FG7

CYQF;2011-03-19 09:00;CYQF 190900Z 15005KT 3/4SM BR SKC M09/M12 A2988 RMK FG7 SLP169

CYQF;2011-03-19 10:00;CYQF 191000Z 15005KT 2SM BR BKN001 M08/M11 A2986 RMK SF4 SLP164

CYQF;2011-03-19 11:00;CYQF 191100Z 14008KT 2SM BR OVC002 M09/M12 A2985 RMK SF8 SLP160

CYQF;2011-03-19 12:00;CYQF 191200Z 14007KT 4SM BR BKN005 M08/M11 A2984 RMK SF7 SLP151

CYQF;2011-03-19 13:00;CYQF 191300Z 15003KT 6SM BR BKN008 M07/M11 A2984 RMK SF7 SLP150

CYQF;2011-03-19 13:22;CYQF 191322Z 15003KT 2SM BR BKN008 RMK FG2SF6

CYQF;2011-03-19 14:00;CYQF 191400Z 15002KT 1/2SM FZFG SKC M07/M09 A2983 RMK FG7 SLP149

CYQF;2011-03-19 15:00;CYQF 191500Z 00000KT 1/2SM FZFG OVC003 M06/M08 A2983 RMK FG4SF4 SLP152

CYQF;2011-03-19 15:43;CYQF 191543Z 12003KT 3SM BR OVC006 RMK FG2ST5 VIS W-N 11/2

CYQF;2011-03-19 16:00;CYQF 191600Z 13005KT 3SM BR BKN006 OVC020 M05/M06 A2982 RMK ST5SC2 VIS E-S 6 SLP150

CYQF;2011-03-19 16:19;CYQF 191619Z 13005KT 5SM BR SCT006 BKN020 OVC250 RMK ST4SC2CI2

CYQF;2011-03-19 17:00;CYQF 191700Z 12005KT 6SM BR FEW020 OVC250 M04/M06 A2982 RMK SC2CI5 SLP151

CYQF;2011-03-19 18:00;CYQF 191800Z 16007KT 6SM BR FEW030 OVC250 M03/M07 A2983 RMK SC2CI5 SLP151

CYQF;2011-03-19 19:00;CYQF 191900Z 13008KT 8SM FEW030 OVC250 M01/M07 A2982 RMK SC2CI5 SLP150

CYQF;2011-03-19 20:00;CYQF 192000Z 10005KT 8SM FEW030 OVC250 M01/M07 A2981 RMK SC2CI5 SLP145

CYQF;2011-03-19 21:00;CYQF 192100Z 11003KT 10SM OVC150 01/M06 A2980 RMK AC7 SLP139

CYQF;2011-03-19 22:00;CYQF 192200Z 07007KT 10SM OVC150 01/M06 A2980 RMK AC7 SLP139

CYQF;2011-03-19 23:00;CYQF 192300Z 07008KT 12SM FEW090 OVC200 00/M06 A2980 RMK AC2CS5 SLP139

CYQF;2011-03-20 00:00;CYQF 200000Z 05010KT 15SM FEW090 BKN200 M01/M06 A2980 RMK AC2CI2 SLP140

CYQF;2011-03-20 01:00;CYQF 200100Z 05008KT 15SM FEW090 BKN200 M02/M06 A2980 RMK AC2CI2 SLP141

CYQF;2011-03-20 02:00;CYQF 200200Z 05006KT 15SM FEW090 BKN200 M02/M07 A2981 RMK AC2CI2 SLP143

CYQF;2011-03-20 03:00;CYQF 200300Z 06006KT 15SM FEW090 BKN200 M03/M07 A2983 RMK AC2CI2 SLP152

CYQF;2011-03-20 04:00;CYQF 200400Z 04008KT 15SM SCT090 BKN200 M04/M08 A2984 RMK AC3CI3 SLP154

CYQF;2011-03-20 05:00;CYQF 200500Z 04008KT 15SM BKN090 OVC200 M03/M07 A2984 RMK AS5CI3 SLP153

CYQF;2011-03-20 06:00;CYQF 200600Z 04008KT 15SM BKN010 OVC090 M04/M08 A2984 RMK SC5AS3 SLP152

CYQF;2011-03-20 07:00;CYQF 200700Z 04010KT 15SM OVC007 M04/M08 A2984 RMK SF8 SLP152

CYQF;2011-03-20 08:00;CYQF 200800Z 02008KT 3SM -SN OVC006 M04/M08 A2983 RMK SF8 SLP147

CYQF;2011-03-20 08:12;CYQF 200812Z 02010KT 1SM -SN VV006 RMK SN8

CYQF;2011-03-20 09:00;CYQF 200900Z 04007KT 3/4SM -SN VV005 M04/M08 A2984 RMK SN8 SLP148

CYQF;2011-03-20 10:00;CYQF 201000Z CCA 04006KT 1 1/2SM -SN OVC006 M04/M08 A2983 RMK SF8 /S02/ SLP145

CYQF;2011-03-20 11:00;CYQF 201100Z 04008KT 3/4SM -SN VV006 M04/M08 A2983 RMK SN8 SLP144

CYQF;2011-03-20 11:28;CYQF 201128Z 02006KT 1SM -SN OVC008 RMK SF8

CYQF;2011-03-20 12:00;CYQF 201200Z 02005KT 1 1/2SM -SN OVC008 M05/M09 A2983 RMK SF8 /S03/ SLP148

CYQF;2011-03-20 13:00;CYQF 201300Z 03005KT 3/4SM -SN VV006 M05/M09 A2984 RMK SN8 SLP150

CYQF;2011-03-20 14:00;CYQF 201400Z 03003KT 3/4SM -SN VV006 M05/M09 A2985 RMK SN8 SLP153

CYQF;2011-03-20 15:00;CYQF 201500Z 03003KT 1 1/2SM -SN VV007 M05/M09 A2986 RMK SN8 /S01/ SLP160

CYQF;2011-03-20 16:00;CYQF 201600Z 05003KT 1SM -SN VV006 M05/M09 A2986 RMK SN8 VIS VAR 3/4-11/2 SLP162

CYQF;2011-03-20 17:00;CYQF 201700Z 04003KT 3/4SM -SN VV005 M05/M09 A2988 RMK SN8 /S02/ SLP166

CYQF;2011-03-20 17:35;CYQF 201735Z 04003KT 1SM -SN VV005 RMK SN8 VIS VAR 3/4-11/2

CYQF;2011-03-20 18:00;CYQF 201800Z 05003KT 1 1/2SM -SN OVC020 M04/M09 A2989 RMK SN4SC3 /S03/ SLP169

CYQF;2011-03-20 19:00;CYQF 201900Z 00000KT 2SM -SN OVC020 M04/M09 A2990 RMK SC7 VIS VRB 1-3 SLP173

CYQF;2011-03-20 19:19;CYQF 201919Z 00000KT 3/4SM -SN VV008 RMK SN8

CYQF;2011-03-20 20:00;CYQF 202000Z 07003KT 1SM -SN VV008 M04/M08 A2991 RMK SN8 VIS VRB 3/4-11/2 SLP177

CYQF;2011-03-20 21:00;CYQF 202100Z 05004KT 1SM -SN VV008 M04/M08 A2990 RMK SN8 VIS VRB 3/4-11/2 SLP174

CYQF;2011-03-20 22:00;CYQF 202200Z 07003KT 1 1/2SM -SN OVC015 M04/M08 A2992 RMK SN3SC5 /S01/ SLP180

CYQF;2011-03-20 22:42;CYQF 202242Z 06005KT 3SM -SN BKN015 OVC250 RMK SC5CI1

CYQF;2011-03-20 23:00;CYQF 202300Z 06005KT 8SM SCT015 BKN250 M03/M08 A2991 RMK SC3CI2 VIS N 3 SLP177

CYQF;2011-03-21 00:00;CYQF 210000Z 06004KT 10SM FEW015 BKN250 M04/M09 A2991 RMK SC2CI1 SLP180

CYQF;2011-03-21 01:00;CYQF 210100Z 00000KT 15SM FEW015 SCT090 BKN250 M05/M09 A2993 RMK SC2AC2CI0 SLP186

CYQF;2011-03-21 02:00;CYQF 210200Z 00000KT 15SM FEW015 SCT090 BKN250 M06/M10 A2994 RMK SC2AC2CI0 SLP188

CYQF;2011-03-21 03:00;CYQF 210300Z 00000KT 15SM OVC015 M06/M10 A2995 RMK SC8 SLP195

CYQF;2011-03-21 04:00;CYQF 210400Z 00000KT 15SM OVC015 M05/M09 A2995 RMK SC8 SLP196

CYQF;2011-03-21 05:00;CYQF 210500Z 00000KT 15SM OVC015 M05/M09 A2996 RMK SC8 SLP199

CYQF;2011-03-21 06:00;CYQF 210600Z 00000KT 15SM OVC015 M05/M09 A2995 RMK SC8 SLP193

CYQF;2011-03-21 07:00;CYQF 210700Z 00000KT 15SM OVC015 M05/M09 A2994 RMK SC8 SLP190

CYQF;2011-03-21 08:00;CYQF 210800Z 12003KT 15SM OVC011 M05/M09 A2994 RMK ST8 SLP189

CYQF;2011-03-21 09:00;CYQF 210900Z 09004KT 15SM OVC008 M05/M09 A2993 RMK ST8 SLP186

CYQF;2011-03-21 09:41;CYQF 210941Z 13006KT 15SM OVC005 RMK ST8 CIG RAG

CYQF;2011-03-21 10:00;CYQF 211000Z 14005KT 6SM BR OVC006 M05/M10 A2993 RMK ST8 CIG RAG SLP186

CYQF;2011-03-21 10:14;CYQF 211014Z 12005KT 2 1/2SM -SN OVC005 RMK SN5ST3

CYQF;2011-03-21 11:00;CYQF 211100Z 10005KT 3SM -SN OVC008 M05/M09 A2992 RMK SN3ST5 SLP181

CYQF;2011-03-21 11:13;CYQF 211113Z 11006KT 1 1/2SM -SN VV012 RMK SN8

CYQF;2011-03-21 11:45;CYQF 211145Z 12006KT 2 1/2SM -SN OVC006 RMK SN4ST4

CYQF;2011-03-21 12:00;CYQF 211200Z 14005KT 2 1/2SM -SN OVC006 M05/M10 A2991 RMK SN4ST4 SLP178

CYQF;2011-03-21 12:09;CYQF 211209Z 12003KT 2SM -SN SCT006 OVC012 RMK SN3ST1SC4 VIS VRB 1-3

CYQF;2011-03-21 13:00;CYQF 211300Z 00000KT 2SM -SN SCT006 OVC012 M05/M09 A2990 RMK SN3ST1SC4 SLP176

CYQF;2011-03-21 13:31;CYQF 211331Z 00000KT 1SM -SN VV012 RMK SN8

CYQF;2011-03-21 14:00;CYQF 211400Z 00000KT 1 1/2SM -SN VV012 M05/M09 A2989 RMK SN8 /S01/ SLP172

CYQF;2011-03-21 15:00;CYQF 211500Z 00000KT 1 1/4SM -SN VV011 M05/M09 A2989 RMK SN8 SLP173

CYQF;2011-03-21 16:00;CYQF 211600Z 10006KT 1SM -SN VV009 M04/M08 A2988 RMK SN8 SLP172

CYQF;2011-03-21 17:00;CYQF 211700Z 10005KT 1 1/2SM -SN VV012 M04/M08 A2988 RMK SN8 SLP171

CYQF;2011-03-21 18:00;CYQF 211800Z 09005KT 1 1/2SM -SN OVC015 M03/M08 A2987 RMK SN4SC4 /S01/ SLP164

CYQF;2011-03-21 18:42;CYQF 211842Z 08008KT 5SM -SN OVC015 RMK SC8

CYQF;2011-03-21 19:00;CYQF 211900Z 07008KT 8SM -SN OVC011 M03/M08 A2986 RMK SC8 SLP162

CYQF;2011-03-21 20:00;CYQF 212000Z 09007KT 6SM -SN OVC010 M02/M07 A2985 RMK SC8 SLP159

CYQF;2011-03-21 20:30;CYQF 212030Z 12008KT 3SM -SN OVC008 RMK SC8

CYQF;2011-03-21 21:00;CYQF 212100Z 11010KT 2SM -SN OVC008 M03/M07 A2985 RMK SC8 SLP156

CYQF;2011-03-21 22:00;CYQF 212200Z 09006KT 3SM -SN OVC008 M02/M07 A2983 RMK SC8 SLP151

CYQF;2011-03-21 23:00;CYQF 212300Z 12008KT 2SM -SN OVC009 M02/M07 A2983 RMK SC8 VIS VRB 1-3 SLP149

CYQF;2011-03-22 00:00;CYQF 220000Z 08005KT 2SM -SN OVC008 M02/M06 A2982 RMK SC8 VIS VRB 1-3 SLP146

CYQF;2011-03-22 01:00;CYQF 220100Z 09004KT 1 1/2SM -SN OVC025 M02/M06 A2982 RMK SN4SC4 VIS VRB 1-2 SLP145

CYQF;2011-03-22 02:00;CYQF 220200Z 10005KT 1 1/2SM -SN OVC025 M02/M06 A2982 RMK SN4SC4 VIS VRB 1-2 SLP147

CYQF;2011-03-22 03:00;CYQF 220300Z 08002KT 1SM -SN VV007 M02/M06 A2983 RMK SN8 VIS VRB 3/4-11/4 /S01/ SLP147

CYQF;2011-03-22 04:00;CYQF 220400Z 00000KT 1 1/2SM -SN OVC008 M03/M06 A2982 RMK SN6SC2 VIS VRB 1-2 /S02/ SLP146

CYQF;2011-03-22 05:00;CYQF 220500Z 05003KT 1 1/2SM -SN VV009 M03/M06 A2982 RMK SN8 SLP145

CYQF;2011-03-22 06:00;CYQF 220600Z 05003KT 2SM -SN VV010 M03/M06 A2981 RMK SN8 /S03/ SLP141

CYQF;2011-03-22 06:28;CYQF 220628Z 06004KT 5SM -SN OVC012 RMK SF8

CYQF;2011-03-22 07:00;CYQF 220700Z 06005KT 5SM -SN OVC012 M03/M06 A2980 RMK SF8 SLP138

CYQF;2011-03-22 08:00;CYQF 220800Z 07005KT 3SM -SN OVC012 M02/M06 A2979 RMK SN2SC6 SLP135

CYQF;2011-03-22 09:00;CYQF 220900Z 10005KT 3SM -SN OVC012 M02/M06 A2979 RMK SN3SC5 /S01/ SLP131

CYQF;2011-03-22 10:00;CYQF 221000Z 07007KT 3SM -SN OVC012 M03/M06 A2978 RMK SN3SC5 SLP129

CYQF;2011-03-22 10:19;CYQF 221019Z 06007KT 2SM -SN VV010 RMK SN8

CYQF;2011-03-22 11:00;CYQF 221100Z 07007KT 3SM -SN SCT009 OVC014 M03/M07 A2978 RMK SN2SF2SC5 /S02/ SLP130

CYQF;2011-03-22 12:00;CYQF 221200Z 07007KT 3SM -SN SCT010 OVC015 M03/M08 A2979 RMK SN2SF2SC4 SLP135

CYQF;2011-03-22 12:51;CYQF 221251Z 07007KT 1 1/2SM -SN VV010 RMK SN8 VIS VRB 1-2

CYQF;2011-03-22 13:00;CYQF 221300Z 08007KT 1 1/2SM -SN VV010 M04/M08 A2980 RMK SN8 VIS VRB 1-2 SLP137

CYQF;2011-03-22 14:00;CYQF 221400Z 08006KT 1 1/2SM -SN VV012 M04/M07 A2981 RMK SN8 VIS VRB 1-2 /S01/ SLP141

CYQF;2011-03-22 15:00;CYQF 221500Z 07006KT 2SM -SN OVC015 M04/M08 A2983 RMK SN3SC4 SLP146

CYQF;2011-03-22 15:23;CYQF 221523Z 08005KT 4SM -SN BKN015 OVC090 RMK SC6AS2

CYQF;2011-03-22 15:44;CYQF 221544Z 07007KT 1 1/2SM -SN VV012 RMK SN8 VIS VRB 1-2

CYQF;2011-03-22 16:00;CYQF 221600Z CCA 08005KT 1 1/2SM -SN VV012 M03/M07 A2984 RMK SN8 VIS VRB 1-2 SLP150

CYQF;2011-03-22 16:48;CYQF 221648Z 08004KT 4SM -SN OVC015 RMK SC8

CYQF;2011-03-22 17:00;CYQF 221700Z 09004KT 5SM -SN OVC015 M02/M07 A2985 RMK SC8 SLP154

CYQF;2011-03-22 18:00;CYQF 221800Z CCA 10007KT 3SM -SN BKN015 OVC060 M02/M07 A2986 RMK SC5SC2 /S02/ SLP158

CYQF;2011-03-22 19:00;CYQF 221900Z 10008KT 1SM -SN BR BKN015 OVC060 M02/M07 A2988 RMK SC5SC3 SLP163

CYQF;2011-03-22 20:00;CYQF 222000Z 08007KT 1SM -SN BR OVC010 M01/M06 A2988 RMK SN6SC2 SLP164

CYQF;2011-03-22 21:00;CYQF 222100Z 13006KT 1SM -SN BR OVC010 M02/M06 A2991 RMK SN5SC3 SLP172

CYQF;2011-03-22 22:00;CYQF 222200Z 12008KT 1SM -SN BR OVC011 M02/M06 A2992 RMK SN5SC3 SLP177

CYQF;2011-03-22 23:00;CYQF 222300Z 11009KT 1 1/2SM -SN BR OVC012 M02/M07 A2994 RMK SN5SC3 VIS VRB 1-2 SLP181

CYQF;2011-03-22 23:44;CYQF 222344Z 13006KT 3SM -SN BR FEW010 OVC130 RMK SN2SC1AC6

CYQF;2011-03-23 00:00;CYQF 230000Z 12005KT 3SM -SN BR SCT010 OVC130 M02/M07 A2996 RMK SN2SC2AC5 SLP192

CYQF;2011-03-23 01:00;CYQF 230100Z 11006KT 5SM -SN BR FEW010 SCT130 OVC250 M03/M07 A2997 RMK SC1AC2CI2 SLP197

CYQF;2011-03-23 02:00;CYQF 230200Z 11005KT 10SM -SN FEW010 SCT100 OVC250 M03/M07 A2999 RMK SC1AC2CI1 SLP201

CYQF;2011-03-23 02:16;CYQF 230216Z 15004KT 2SM -SN FEW010 BKN100 OVC250 RMK SC2AC4CI0

CYQF;2011-03-23 02:40;CYQF 230240Z 13005KT 3SM -SN FEW010 BKN100 OVC250 RMK SC2AC4CI0

CYQF;2011-03-23 03:00;CYQF 230300Z 13006KT 6SM -SN BKN100 OVC250 M04/M08 A3001 RMK AC6CI2 SLP210

CYQF;2011-03-23 04:00;CYQF 230400Z 13002KT 5SM -SN VV030 M04/M08 A3002 RMK SN8 SLP214

CYQF;2011-03-23 04:26;CYQF 230426Z 11005KT 2SM -SN VV015 RMK SN8

CYQF;2011-03-23 05:00;CYQF 230500Z 11005KT 3SM -SN BKN050 BKN100 M04/M08 A3002 RMK SN2SC3AC2 SLP215

CYQF;2011-03-23 06:00;CYQF 230600Z 11005KT 5SM -SN SCT050 BKN100 M04/M08 A3002 RMK SC3AC3 SLP215

CYQF;2011-03-23 07:00;CYQF 230700Z 10005KT 8SM -SN BKN030 OVC100 M04/M08 A3003 RMK SC5AC3 SLP217

CYQF;2011-03-23 08:00;CYQF 230800Z 10007KT 5SM -SN SCT007 OVC030 M04/M08 A3004 RMK SF4SC4 SLP219

CYQF;2011-03-23 08:45;CYQF 230845Z 12004KT 3SM -SN OVC010 RMK SC8

CYQF;2011-03-23 09:00;CYQF 230900Z 11005KT 3SM -SN OVC010 M04/M08 A3004 RMK SC8 SLP221

CYQF;2011-03-23 10:00;CYQF 231000Z 12006KT 6SM -SN BKN008 OVC020 M05/M09 A3004 RMK SF5SC3 SLP220

CYQF;2011-03-23 11:00;CYQF 231100Z 11005KT 6SM -SN OVC007 M05/M09 A3003 RMK ST8 SLP218

CYQF;2011-03-23 12:00;CYQF 231200Z 12005KT 10SM -SN OVC006 M05/M10 A3004 RMK ST8 /S01/ SLP222

CYQF;2011-03-23 13:00;CYQF 231300Z 09004KT 6SM -SN OVC006 M05/M10 A3004 RMK ST8 SLP221

CYQF;2011-03-23 13:42;CYQF 231342Z 11004KT 2SM -SN OVC009 RMK ST8

CYQF;2011-03-23 14:00;CYQF 231400Z 10004KT 3SM -SN OVC020 M06/M10 A3004 RMK ST8 VIS VRB 21/2 - 31/2 SLP222

CYQF;2011-03-23 15:00;CYQF 231500Z 12005KT 2SM -SN OVC020 M06/M10 A3004 RMK ST8 SLP224

CYQF;2011-03-23 16:00;CYQF 231600Z 12006KT 2SM -SN OVC020 M06/M10 A3003 RMK ST8 SLP222

CYQF;2011-03-23 17:00;CYQF 231700Z 12005KT 2SM -SN OVC020 M05/M10 A3004 RMK ST8 VIS VRB 1 - 3 /S01/ SLP223

CYQF;2011-03-23 18:00;CYQF 231800Z 12007KT 2SM -SN OVC040 M05/M10 A3003 RMK SC8 SLP219

CYQF;2011-03-23 18:49;CYQF 231849Z 12010KT 5SM -SN OVC050 RMK SC6

CYQF;2011-03-23 19:00;CYQF 231900Z 13009KT 5SM -SN BKN050 BKN080 M04/M09 A3002 RMK SC5AC1 VIS N 2 SLP216

CYQF;2011-03-23 19:48;CYQF 231948Z 13010KT 2SM -SN OVC050 RMK SC8 VIS VRB 1-3

CYQF;2011-03-23 20:00;CYQF 232000Z 13010G15KT 2SM -SN BKN050 M04/M09 A3001 RMK SC6 VIS VRB 1 - 3 SLP215

CYQF;2011-03-23 20:53;CYQF 232053Z 12010KT 5SM -SN BKN050 RMK SC5

CYQF;2011-03-23 21:00;CYQF 232100Z 13010G15KT 8SM VCSH BKN035 M03/M08 A2999 RMK SC5 SLP204

CYQF;2011-03-23 21:10;CYQF 232110Z 12010KT 3SM -SN BKN020 BKN040 RMK SC5SC2

CYQF;2011-03-23 21:30;CYQF 232130Z 12012KT 5SM -SN BKN010 RMK SC6

CYQF;2011-03-23 22:00;CYQF 232200Z 11010G15KT 10SM -SN BKN010 OVC040 M03/M08 A2998 RMK SC7SC1 SLP202

CYQF;2011-03-23 23:00;CYQF 232300Z 12010G15KT 10SM -SN OVC010 M03/M08 A2998 RMK SC8 CIG RAG SLP200

CYQF;2011-03-24 00:00;CYQF 240000Z 12010G15KT 8SM -SN OVC011 M03/M08 A2997 RMK ST8 CIG RAG VRY LGT SNW SLP198

CYQF;2011-03-24 01:00;CYQF 240100Z 12010KT 10SM OVC010 M03/M07 A2996 RMK ST8 CIG RAG SLP195

CYQF;2011-03-24 02:00;CYQF 240200Z 14008KT 10SM OVC010 M03/M07 A2994 RMK ST8 CIG RAG SLP190

CYQF;2011-03-24 02:31;CYQF 240231Z 12010G16KT 6SM -SN OVC010 RMK ST8 CIG RAG

CYQF;2011-03-24 03:00;CYQF 240300Z 13010G20KT 10SM -SN OVC009 M03/M07 A2995 RMK ST8 VRY LGT SN SLP192

CYQF;2011-03-24 03:53;CYQF 240353Z 12012G18KT 6SM -FZDZ OVC007 RMK ST8

CYQF;2011-03-24 04:00;CYQF 240400Z 12010G15KT 5SM DRSN -FZDZ OVC007 M03/M08 A2994 RMK ST8 CIG RAG SLP189

CYQF;2011-03-24 04:15;CYQF 240415Z 12010G15KT 5SM -SN DRSN OVC007 RMK ST8 CIG RAG

CYQF;2011-03-24 05:00;CYQF 240500Z 12010G15KT 6SM -SN BKN007 OVC012 M04/M08 A2992 RMK SF6SC2 CIG RAG DRSN SLP184

CYQF;2011-03-24 06:00;CYQF 240600Z 11010G15KT 6SM -SN OVC007 M04/M08 A2990 RMK SF8 CIR RAG DRSN SLP176

CYQF;2011-03-24 07:00;CYQF 240700Z 12010G15KT 6SM -SN OVC007 M04/M08 A2990 RMK SF8 CIG RAG DRSN SLP176

CYQF;2011-03-24 08:00;CYQF 240800Z 12010G15KT 5SM -SN OVC007 M04/M08 A2990 RMK SF8 CIG RAG DRSN SLP174

CYQF;2011-03-24 09:00;CYQF 240900Z 12012G18KT 5SM -SN BKN008 OVC020 M05/M09 A2989 RMK SF6SC2 CIG RAG DRSN SLP169

CYQF;2011-03-24 10:00;CYQF 241000Z 12012G20KT 5SM -SN OVC007 M05/M09 A2988 RMK SF8 CIG RAG DRSN SLP166

CYQF;2011-03-24 11:00;CYQF 241100Z 11010G15KT 6SM -SN OVC007 M05/M09 A2987 RMK SF8 DRSN SLP164

CYQF;2011-03-24 12:00;CYQF 241200Z 12010G15KT 6SM -SN DRSN OVC007 M05/M09 A2987 RMK SF8 SLP164

CYQF;2011-03-24 13:00;CYQF 241300Z 12010KT 4SM -SN BR OVC007 M05/M10 A2987 RMK ST8 SN VRY FINE SLP166

CYQF;2011-03-24 13:08;CYQF 241308Z 12010KT 3SM -FZDZ BR OVC007 RMK ST8

CYQF;2011-03-24 14:00;CYQF 241400Z 13012KT 3SM -FZDZ BR OVC007 M05/M09 A2987 RMK ST8 SLP165

CYQF;2011-03-24 15:00;CYQF 241500Z 12009KT 3SM -FZDZ BR OVC007 M05/M09 A2988 RMK ST8 SLP166

CYQF;2011-03-24 16:00;CYQF 241600Z 12010G15KT 5SM -SN DRSN BR OVC007 M05/M09 A2987 RMK ST8 REFZDZ SLP164

CYQF;2011-03-24 17:00;CYQF 241700Z 11010KT 5SM -SN DRSN BR OVC007 M04/M09 A2986 RMK ST8 CIG RAG VRY LGT SN SLP161

CYQF;2011-03-24 18:00;CYQF 241800Z 13011KT 5SM -SN BR OVC007 M05/M09 A2986 RMK ST8 CIG RAG SLP161

CYQF;2011-03-24 19:00;CYQF 241900Z 12012KT 5SM -SN BR OVC005 M04/M09 A2985 RMK ST8 CIG RAG SLP158

CYQF;2011-03-24 20:00;CYQF 242000Z 11010G15KT 5SM -SN BR OVC005 M04/M08 A2986 RMK ST8 SLP160

CYQF;2011-03-24 21:00;CYQF 242100Z 10008KT 6SM -SN OVC005 M04/M08 A2985 RMK ST8 CIG RAG SLP159

CYQF;2011-03-24 21:23;CYQF 242123Z 11010KT 6SM HZ OVC008 RMK ST8 CIG RAG

CYQF;2011-03-24 22:00;CYQF 242200Z 12010KT 6SM HZ BKN008 OVC020 M04/M08 A2985 RMK ST6SC2 CIG RAG SLP159

CYQF;2011-03-24 23:00;CYQF 242300Z 10010KT 6SM HZ SCT010 BKN020 M04/M09 A2986 RMK ST4SC3 SLP161

CYQF;2011-03-24 23:12;CYQF 242312Z 13013KT 6SM HZ BKN007 OVC020 RMK SF5SC3 CIG RAG

CYQF;2011-03-25 00:00;CYQF 250000Z 11013KT 4SM HZ BKN007 OVC020 M05/M09 A2986 RMK SF5SC3 CIG RAG SLP164

CYQF;2011-03-25 00:11;CYQF 250011Z 12012KT 2SM HZ BKN006 OVC020 RMK SF6SC2

CYQF;2011-03-25 00:52;CYQF 250052Z 12011KT 4SM HZ BKN007 BKN020 RMK SF5SC2

CYQF;2011-03-25 01:00;CYQF 250100Z 12011KT 4SM HZ BKN007 OVC020 M06/M10 A2987 RMK SF5SC2 CIG RAG SLP167

CYQF;2011-03-25 02:00;CYQF 250200Z 13012KT 3SM HZ OVC005 M06/M11 A2987 RMK SF8 CIG RAG SLP165

CYQF;2011-03-25 02:25;CYQF 250225Z 12008KT 1 1/2SM HZ OVC005 RMK SF8 CIG RAG VIS VRB 1-2

CYQF;2011-03-25 02:30;CYQF 250230Z 12009KT 1 1/2SM -SG OVC006 RMK ST8 VIS VRB 1-2

CYQF;2011-03-25 03:00;CYQF 250300Z 12013KT 3SM -SG OVC005 M07/M11 A2986 RMK ST8 SLP167

CYQF;2011-03-25 04:00;CYQF 250400Z 15008KT 3SM -SG OVC005 M06/M10 A2986 RMK ST8 SLP167

CYQF;2011-03-25 04:14;CYQF 250414Z 14008KT 1 1/2SM -SN OVC005 RMK SN3ST5 VIS VRB 1-2

CYQF;2011-03-25 04:46;CYQF 250446Z 11012KT 3SM -SN OVC005 RMK ST8

CYQF;2011-03-25 05:00;CYQF 250500Z 11012KT 3SM -SN OVC005 M07/M11 A2985 RMK ST8 SLP164

CYQF;2011-03-25 06:00;CYQF 250600Z 15010G15KT 3SM -SN OVC006 M07/M11 A2985 RMK ST8 SLP160

CYQF;2011-03-25 07:00;CYQF 250700Z 14010G15KT 5SM -SN DRSN OVC007 M06/M10 A2984 RMK ST8 SLP157

CYQF;2011-03-25 08:00;CYQF 250800Z 13010G15KT 5SM -SN OVC007 M06/M10 A2983 RMK ST8 SLP155

CYQF;2011-03-25 09:00;CYQF 250900Z 12010KT 5SM -SN OVC006 M06/M09 A2981 RMK ST8 SLP146

CYQF;2011-03-25 09:41;CYQF 250941Z 12010KT 5SM -SG -FZDZ OVC006 RMK ST8

CYQF;2011-03-25 10:00;CYQF 251000Z 12010KT 5SM -SG -FZDZ OVC005 M05/M09 A2979 RMK ST8 -FZDZ INTMT SLP140

CYQF;2011-03-25 10:28;CYQF 251028Z CCA 12010KT 5SM -SG OVC005 REFZDZ RMK ST8

CYQF;2011-03-25 11:00;CYQF 251100Z 12008KT 5SM -SG OVC006 M05/M09 A2979 REFZDZ RMK ST8 SLP139

CYQF;2011-03-25 12:00;CYQF 251200Z 12010KT 6SM -SG BR OVC006 M05/M09 A2978 RMK ST8 SLP135

CYQF;2011-03-25 13:00;CYQF 251300Z 12010G15KT 6SM -SG BR OVC006 M05/M09 A2977 RMK ST8 SLP133

CYQF;2011-03-25 13:44;CYQF 251344Z 12010KT 5SM -SN BR OVC004 RMK ST8

CYQF;2011-03-25 14:00;CYQF 251400Z 11010KT 4SM -SN BR OVC004 M06/M09 A2979 RMK ST8 SLP137

CYQF;2011-03-25 14:11;CYQF 251411Z 11010KT 2SM -SN BR OVC004 RMK ST8 VIS VRB 11/2-21/2

CYQF;2011-03-25 15:00;CYQF 251500Z 11014KT 1 1/2SM -SN DRSN BR OVC004 M06/M10 A2979 RMK ST8 SLP140

CYQF;2011-03-25 16:00;CYQF 251600Z 12010G15KT 1 1/2SM -SN BR OVC002 M06/M10 A2979 RMK ST8 BLN DSAPRD 400 FT SLP140

CYQF;2011-03-25 17:00;CYQF 251700Z 11010G15KT 1 1/2SM -SN BR OVC003 M06/M10 A2978 RMK ST8 SLP139

CYQF;2011-03-25 18:00;CYQF 251800Z 12010KT 2SM -SN BR OVC002 M05/M09 A2978 RMK ST8 BLN DSAPRD 500 FT SLP137

CYQF;2011-03-25 19:00;CYQF 251900Z 12010KT 2SM BR OVC005 M05/M09 A2979 RMK ST8 SLP139

CYQF;2011-03-25 19:43;CYQF 251943Z 09010KT 7SM OVC011 RMK ST8

CYQF;2011-03-25 20:00;CYQF 252000Z 09010KT 7SM OVC011 M05/M10 A2979 RMK ST8 SLP140

CYQF;2011-03-25 20:39;CYQF 252039Z 11007KT 7SM OVC009 RMK ST8

CYQF;2011-03-25 21:00;CYQF 252100Z 12006KT 7SM OVC007 M05/M10 A2979 RMK ST8 SLP140

CYQF;2011-03-25 22:00;CYQF 252200Z 12008KT 7SM OVC007 M05/M10 A2980 RMK ST8 SLP142

CYQF;2011-03-25 23:00;CYQF 252300Z 12011KT 5SM BR OVC007 M05/M10 A2981 RMK ST8 SLP145

CYQF;2011-03-26 00:00;CYQF 260000Z 11008KT 5SM BR OVC008 M06/M10 A2982 RMK ST8 SLP148

CYQF;2011-03-26 01:00;CYQF 260100Z 11008KT 4SM BR OVC008 M06/M10 A2982 RMK ST8 SLP148

CYQF;2011-03-26 02:00;CYQF 260200Z 11012KT 1SM BR OVC004 M07/M11 A2982 RMK ST8 SLP150

CYQF;2011-03-26 02:12;CYQF 260212Z 11010KT 1SM -SG -FZDZ BR OVC004 RMK ST8

CYQF;2011-03-26 03:00;CYQF 260300Z 12010KT 3SM -SG -FZDZ BR OVC005 M08/M12 A2984 RMK ST8 SLP160

CYQF;2011-03-26 04:00;CYQF 260400Z 11009KT 3SM -SG -FZDZ BR OVC006 M08/M13 A2984 RMK ST8 SLP161

CYQF;2011-03-26 04:45;CYQF 260445Z 12010KT 5SM -SG BR OVC006 RMK ST8

CYQF;2011-03-26 05:00;CYQF 260500Z 12008KT 6SM -SG BR OVC006 M08/M13 A2985 RMK ST8 SLP163

CYQF;2011-03-26 06:00;CYQF 260600Z 11010KT 5SM -SG BR OVC006 M08/M12 A2984 RMK ST8 SLP159

CYQF;2011-03-26 07:00;CYQF 260700Z 11008KT 2SM -SG BR OVC006 M08/M12 A2983 RMK ST8 SLP155

CYQF;2011-03-26 08:00;CYQF 260800Z 10008KT 2SM -SN BR OVC005 M07/M11 A2982 RMK ST8 FROIN SLP152

CYQF;2011-03-26 09:00;CYQF 260900Z 13010KT 2SM -SN BR OVC005 M07/M10 A2981 RMK ST8 FROIN SLP147

CYQF;2011-03-26 10:00;CYQF 261000Z 14010KT 2SM -SN BR OVC005 M07/M10 A2980 RMK ST8 FROIN SLP144

CYQF;2011-03-26 11:00;CYQF 261100Z 12010KT 2SM -SN BR OVC005 M07/M10 A2980 RMK ST8 FROIN SLP143

CYQF;2011-03-26 12:00;CYQF 261200Z 13010KT 2SM -SN BR OVC005 M07/M11 A2980 RMK ST8 FROIN SLP144

CYQF;2011-03-26 13:00;CYQF 261300Z 12010KT 2SM -SN BR OVC005 M07/M11 A2979 RMK ST8 SLP142

CYQF;2011-03-26 13:20;CYQF 261320Z 12010KT 2SM -FZDZ BR OVC005 RMK ST8 CIG RAG

CYQF;2011-03-26 14:00;CYQF 261400Z 12012KT 2 1/2SM -FZDZ BR OVC007 M07/M10 A2979 RMK ST8 CIG RAG SLP143

CYQF;2011-03-26 14:47;CYQF 261447Z 12012KT 2 1/2SM -FZDZ BR OVC003 RMK ST8 CIG RAG

CYQF;2011-03-26 15:00;CYQF 261500Z 12010KT 2SM -FZDZ BR OVC003 M06/M10 A2979 RMK ST8 BLN VIS TO 600FT SLP143

CYQF;2011-03-26 15:12;CYQF 261512Z 12012KT 2SM -SG BR OVC003 RMK ST8 REFZDZ BLN VIS TO 600FT

CYQF;2011-03-26 16:00;CYQF 261600Z 12008KT 2 1/2SM -SG BR OVC003 M06/M10 A2978 RMK ST8 REFZDZ BLN VIS TO 600FT SLP141

CYQF;2011-03-26 17:00;CYQF 261700Z 12007KT 2SM -SG BR OVC004 M05/M09 A2979 RMK ST8 SLP142

CYQF;2011-03-26 18:00;CYQF 261800Z 13010KT 2SM -SN BR OVC006 M05/M09 A2978 RMK ST8 SLP139

CYQF;2011-03-26 19:00;CYQF 261900Z 14008KT 5SM -SN BR OVC008 M04/M09 A2979 RMK ST8 SLP140

CYQF;2011-03-26 20:00;CYQF 262000Z CCA 12012KT 6SM -SN BR OVC009 M04/M09 A2978 RMK ST8 CIG RAG SLP139

CYQF;2011-03-26 21:00;CYQF 262100Z 13011KT 8SM -SN OVC009 M03/M08 A2978 RMK ST8 CIG RAG SLP134

CYQF;2011-03-26 22:00;CYQF 262200Z 12010KT 8SM -SN OVC008 M03/M08 A2977 RMK ST8 CIG RAG SLP133

CYQF;2011-03-26 23:00;CYQF 262300Z 12012KT 8SM -SN OVC009 M04/M09 A2977 RMK ST8 SLP133

CYQF;2011-03-27 00:00;CYQF 270000Z 12012KT 10SM -SN OVC009 M04/M09 A2978 RMK ST8 SLP135

CYQF;2011-03-27 01:00;CYQF 270100Z 10011KT 10SM -SN OVC010 M04/M09 A2978 RMK SC8 SLP135

CYQF;2011-03-27 02:00;CYQF 270200Z 11009KT 10SM -SN OVC010 M05/M09 A2978 RMK SC8 SLP136

CYQF;2011-03-27 03:00;CYQF 270300Z 10009KT 6SM -SN OVC008 M05/M09 A2978 RMK SC8 SLP136

CYQF;2011-03-27 03:26;CYQF 270326Z 11007KT 2SM -SN BR OVC006 RMK SC8

CYQF;2011-03-27 04:00;CYQF 270400Z 11010KT 1 1/2SM -FZDZ BR OVC005 M04/M08 A2978 RMK ST8 VIS VRB 1-2 SLP136

CYQF;2011-03-27 04:26;CYQF 270426Z 10009KT 3SM -FZDZ BR OVC006 RMK ST8

CYQF;2011-03-27 04:46;CYQF 270446Z 11008KT 3SM -SN BR OVC006 RMK ST8

CYQF;2011-03-27 05:00;CYQF 270500Z 10008KT 2SM -FZDZ BR OVC005 M04/M08 A2977 RMK ST8 SLP134

CYQF;2011-03-27 05:45;CYQF 270545Z 11010KT 3SM -SN -FZDZ OVC005 RMK ST8

CYQF;2011-03-27 06:00;CYQF 270600Z 11008KT 5SM -SN -FZDZ OVC005 M04/M07 A2976 RMK ST8 SLP128

CYQF;2011-03-27 07:00;CYQF 270700Z 10010KT 5SM -SN OVC005 M04/M07 A2976 REFZDZ RMK ST8 SLP127

CYQF;2011-03-27 08:00;CYQF 270800Z 10010KT 5SM -SN OVC006 M04/M08 A2976 RMK ST8 SLP125

CYQF;2011-03-27 09:00;CYQF 270900Z 11010KT 5SM -SN OVC006 M04/M08 A2975 RMK ST8 SLP121

CYQF;2011-03-27 10:00;CYQF 271000Z 11010KT 5SM -SN OVC006 M04/M08 A2975 RMK ST8 SLP119

CYQF;2011-03-27 11:00;CYQF 271100Z 12010KT 5SM -SN -FZDZ OVC006 M04/M07 A2975 RMK ST8 SLP120

CYQF;2011-03-27 12:00;CYQF 271200Z 12010G15KT 3SM -SN -FZDZ OVC006 M04/M08 A2975 RMK ST8 SLP122

CYQF;2011-03-27 13:00;CYQF 271300Z 11010KT 2SM -SN -FZDZ OVC006 M05/M08 A2975 RMK ST8 SLP122

CYQF;2011-03-27 13:53;CYQF 271353Z 10008KT 2SM -SG BR OVC006 RMK ST8

CYQF;2011-03-27 14:00;CYQF 271400Z 10009KT 2SM -SG BR OVC006 M04/M08 A2976 RMK ST8 SLP124

CYQF;2011-03-27 15:00;CYQF 271500Z 11010KT 2 1/2SM -SG BR OVC006 M04/M08 A2976 RMK ST8 VIS VRB 2-3 SLP126

CYQF;2011-03-27 16:00;CYQF 271600Z 12012KT 1 1/2SM -SG BR OVC006 M04/M08 A2976 RMK ST8 VIS VRB 1-2 SLP128

CYQF;2011-03-27 16:26;CYQF 271626Z 12013KT 2 1/2SM -FZDZ BR OVC006 RMK ST8 CIG RAG

CYQF;2011-03-27 17:00;CYQF 271700Z 11010KT 2 1/2SM -FZDZ BR OVC006 M03/M07 A2977 RMK ST8 CIG RAG SLP129

CYQF;2011-03-27 17:13;CYQF 271713Z 12010G15KT 3SM -FZDZ BR OVC007 RMK ST8 CIG RAG

CYQF;2011-03-27 18:00;CYQF 271800Z 12010G15KT 3SM -FZDZ BR OVC007 M03/M07 A2977 RMK ST8 CIG RAG SLP126

CYQF;2011-03-27 19:00;CYQF 271900Z 12012KT 3SM -SG BR OVC007 M02/M06 A2977 RMK ST8 CIG RAG SLP127

CYQF;2011-03-27 20:00;CYQF 272000Z 12010G15KT 5SM -SG BR OVC007 M02/M06 A2977 RMK ST8 CIG RAG SLP127

CYQF;2011-03-27 21:00;CYQF 272100Z 12010G15KT 5SM -SG BR OVC007 M02/M06 A2977 RMK ST8 CIG RAG SLP128

CYQF;2011-03-27 22:00;CYQF 272200Z 12010G15KT 5SM -SG BR OVC007 M02/M06 A2978 RMK ST8 CIG RAG SLP130

CYQF;2011-03-27 23:00;CYQF 272300Z 12012KT 5SM -SG BR OVC006 M02/M06 A2979 RMK ST8 SLP132

CYQF;2011-03-28 00:00;CYQF 280000Z 12010G15KT 5SM -SG BR OVC006 M02/M06 A2979 RMK ST8 SLP135

CYQF;2011-03-28 01:00;CYQF 280100Z 12010G15KT 2SM -SG BR OVC005 M03/M07 A2980 RMK ST8 VIS VRB 1-3 SLP136

CYQF;2011-03-28 02:00;CYQF 280200Z 12010G15KT 2SM -SG BR OVC005 M04/M07 A2980 RMK ST8 VIS VRB 1-3 SLP138

CYQF;2011-03-28 03:00;CYQF 280300Z 12010KT 3SM -SG BR OVC006 M04/M07 A2982 RMK ST8 SLP145

CYQF;2011-03-28 04:00;CYQF 280400Z 11010G15KT 2SM -SG BR OVC005 M04/M08 A2982 RMK ST8 VIS VRB 1-3 SLP145

CYQF;2011-03-28 05:00;CYQF 280500Z 12010G15KT 3SM -SG BR OVC006 M04/M08 A2982 RMK ST8 VIS VRB 2-4 SLP147

CYQF;2011-03-28 06:00;CYQF 280600Z 11010KT 5SM -SG BR OVC006 M04/M08 A2983 RMK ST8 SLP148

CYQF;2011-03-28 07:00;CYQF 280700Z 12010G15KT 5SM -SG BR OVC006 M04/M08 A2983 RMK ST8 SLP147

CYQF;2011-03-28 08:00;CYQF 280800Z 11010KT 3SM -SG BR OVC006 M04/M08 A2983 RMK ST8 SLP149

CYQF;2011-03-28 08:51;CYQF 280851Z 11010KT 1 1/2SM -SG BR VV004 RMK FG8

CYQF;2011-03-28 09:00;CYQF 280900Z 11010KT 1 1/2SM -SG BR VV004 M04/M08 A2983 RMK FG8 SLP148

CYQF;2011-03-28 10:00;CYQF 281000Z 12010KT 2SM -SG BR VV004 M04/M08 A2984 RMK FG8 RIME ON INDICATOR SLP150

CYQF;2011-03-28 11:00;CYQF 281100Z 12010KT 2SM -SG BR VV004 M04/M08 A2985 RMK FG8 SLP152

CYQF;2011-03-28 12:00;CYQF 281200Z 12010KT 1 1/2SM -SG BR VV003 M04/M08 A2985 RMK FG8 SLP157

CYQF;2011-03-28 12:28;CYQF 281228Z 12010KT 3SM -SG BR BKN003 OVC015 RMK ST6SC2

CYQF;2011-03-28 12:39;CYQF 281239Z 12008KT 3SM -SG BR OVC015 RMK FG2SC6

CYQF;2011-03-28 13:00;CYQF 281300Z 11009KT 2SM BR BKN003 OVC010 M04/M08 A2986 RMK ST5SC3 SLP160

CYQF;2011-03-28 14:00;CYQF 281400Z 12008KT 2SM BR BKN003 OVC010 M04/M07 A2988 RMK ST5SC3 SLP164

CYQF;2011-03-28 15:00;CYQF 281500Z 12007KT 2SM BR BKN003 OVC012 M04/M07 A2989 RMK ST6SC2 SLP170

CYQF;2011-03-28 16:00;CYQF 281600Z 13006KT 2SM BR BKN005 OVC012 M03/M07 A2990 RMK ST6SC2 SLP173

CYQF;2011-03-28 16:43;CYQF 281643Z 13006KT 1SM BR OVC005 RMK ST8

CYQF;2011-03-28 17:00;CYQF 281700Z 13006KT 1SM BR OVC005 M03/M07 A2991 RMK ST8 SLP177

CYQF;2011-03-28 18:00;CYQF 281800Z 16008KT 2SM BR OVC005 M02/M06 A2991 RMK ST8 SLP175

CYQF;2011-03-28 18:47;CYQF 281847Z 16008KT 3SM BR OVC008 RMK ST8

CYQF;2011-03-28 19:00;CYQF 281900Z 15008KT 5SM BR OVC008 M01/M06 A2991 RMK ST8 SLP175

CYQF;2011-03-28 20:00;CYQF 282000Z 13009KT 8SM OVC008 M01/M06 A2992 RMK SC8 BR CIG RAG SLP178

CYQF;2011-03-28 21:00;CYQF 282100Z 11008KT 12SM BKN012 OVC070 M00/M06 A2991 RMK SC6AC2 SLP175

CYQF;2011-03-28 22:00;CYQF 282200Z 14009KT 12SM BKN012 OVC070 00/M06 A2991 RMK SC6AC2 SLP174

CYQF;2011-03-28 23:00;CYQF 282300Z 12009KT 12SM OVC018 M01/M06 A2992 RMK SC8 SLP176

CYQF;2011-03-29 00:00;CYQF 290000Z 13010KT 12SM OVC018 M01/M06 A2992 RMK SC8 SLP176

CYQF;2011-03-29 01:00;CYQF 290100Z 13006KT 10SM OVC018 M01/M06 A2992 RMK SC8 SLP178

CYQF;2011-03-29 02:00;CYQF 290200Z 13007KT 10SM OVC018 M01/M06 A2992 RMK SC8 SLP177

CYQF;2011-03-29 03:00;CYQF 290300Z 13005KT 10SM OVC020 M02/M06 A2992 RMK SC8 SLP178

CYQF;2011-03-29 04:00;CYQF 290400Z 14007KT 10SM SCT020 M02/M06 A2992 RMK SC3 SLP178

CYQF;2011-03-29 05:00;CYQF 290500Z 13008KT 10SM OVC012 M02/M06 A2991 RMK SC8 SLP176

CYQF;2011-03-29 06:00;CYQF 290600Z 15010KT 6SM BR OVC006 M02/M06 A2990 RMK ST8 SLP169

CYQF;2011-03-29 07:00;CYQF 290700Z 15007KT 3SM BR OVC005 M02/M06 A2989 RMK ST8 SLP167

CYQF;2011-03-29 08:00;CYQF 290800Z 15008KT 3SM BR OVC005 M02/M06 A2988 RMK ST8 SLP164

CYQF;2011-03-29 09:00;CYQF 290900Z 15008KT 2SM BR VV004 M01/M05 A2987 RMK FG8 SLP156

CYQF;2011-03-29 10:00;CYQF 291000Z 15010KT 2SM BR OVC005 M01/M05 A2986 RMK FG3ST5 SLP154

CYQF;2011-03-29 11:00;CYQF 291100Z 16010KT 2SM BR OVC005 M01/M05 A2985 RMK FG3ST5 SLP151

CYQF;2011-03-29 12:00;CYQF 291200Z 16010KT 1 1/2SM BR VV004 M02/M05 A2985 RMK FG8 SLP151

CYQF;2011-03-29 12:35;CYQF 291235Z 15009KT 1SM BR VV003 RMK FG8

CYQF;2011-03-29 13:00;CYQF 291300Z 14007KT 1/2SM FZFG VV002 M03/M06 A2984 RMK FG8 SLP148

CYQF;2011-03-29 14:00;CYQF 291400Z 15008KT 1/2SM FZFG VV002 M04/M07 A2985 RMK FG8 SLP149

CYQF;2011-03-29 15:00;CYQF 291500Z 16006KT 1/4SM FZFG VV002 M04/M07 A2985 RMK FG8 SLP152

CYQF;2011-03-29 16:00;CYQF 291600Z 14007KT 1/4SM FZFG VV002 M03/M07 A2983 RMK FG8 SLP148

CYQF;2011-03-29 17:00;CYQF 291700Z 17006KT 1/2SM FZFG VV003 M03/M06 A2983 RMK FG8 SLP147

CYQF;2011-03-29 17:28;CYQF 291728Z 17007KT 1SM BR OVC002 RMK ST8

CYQF;2011-03-29 18:00;CYQF 291800Z 12004KT 2SM BR OVC003 M02/M06 A2982 RMK ST8 SLP142

CYQF;2011-03-29 18:31;CYQF 291831Z 12007KT 4SM BR OVC005 RMK ST6

CYQF;2011-03-29 19:00;CYQF 291900Z 12004KT 7SM SCT005 BKN250 M01/M06 A2981 RMK ST3CI1 SLP140

CYQF;2011-03-29 20:00;CYQF 292000Z CCA 12008KT 7SM FEW020 BKN250 M01/M05 A2979 RMK SC1CI3 SLP133

CYQF;2011-03-29 21:00;CYQF 292100Z 11007KT 6SM HZ FEW030 SCT250 M00/M05 A2978 RMK SC1CI2 SLP125

CYQF;2011-03-29 22:00;CYQF 292200Z 13008KT 5SM HZ FEW250 00/M05 A2977 RMK CI1 SLP122

CYQF;2011-03-29 23:00;CYQF 292300Z 12007KT 5SM HZ FEW200 00/M05 A2977 RMK CI1 SLP123

CYQF;2011-03-30 00:00;CYQF 300000Z 12007KT 5SM HZ SCT100 BKN200 M01/M05 A2978 RMK AC2CI1 SLP128

CYQF;2011-03-30 01:00;CYQF 300100Z 13010KT 5SM HZ SCT100 BKN250 M01/M05 A2977 RMK AC3CI1 SLP123

CYQF;2011-03-30 02:00;CYQF 300200Z 12008KT 5SM HZ BKN100 BKN250 M01/M05 A2976 RMK AC5CI1 SLP120

CYQF;2011-03-30 03:00;CYQF 300300Z 14006KT 5SM HZ BKN100 M02/M05 A2976 RMK AC6 SLP124

CYQF;2011-03-30 04:00;CYQF 300400Z 13003KT 5SM HZ BKN100 M02/M06 A2976 RMK AC3 SLP121

CYQF;2011-03-30 05:00;CYQF 300500Z 00000KT 5SM BR SCT100 M03/M06 A2976 RMK AC2 SLP123

CYQF;2011-03-30 05:20;CYQF 300520Z 00000KT 1 1/2SM BR FEW100 RMK AC2

CYQF;2011-03-30 05:26;CYQF 300526Z 00000KT 1/4SM FZFG SCT100 RMK FG2AC2

CYQF;2011-03-30 06:00;CYQF 300600Z 16003KT 1/4SM FZFG VV002 M05/M08 A2975 RMK FG8 SLP121

CYQF;2011-03-30 07:00;CYQF 300700Z 14003KT 1/4SM FZFG VV002 M05/M09 A2972 RMK FG8 RIME ON INDICATOR SLP113

CYQF;2011-03-30 07:35;CYQF 300735Z 18002KT 1SM BR SKC RMK FG2

CYQF;2011-03-30 08:00;CYQF 300800Z 17002KT 1/2SM FZFG SKC M07/M10 A2969 RMK FG5 SLP104

CYQF;2011-03-30 08:28;CYQF 300828Z 00000KT 15SM SKC

CYQF;2011-03-30 09:00;CYQF 300900Z 17002KT 15SM SKC M08/M12 A2968 RMK SLP099

CYQF;2011-03-30 10:00;CYQF 301000Z 00000KT 15SM SCT230 M09/M12 A2964 RMK CI2 SLP085

CYQF;2011-03-30 11:00;CYQF 301100Z 00000KT 15SM BKN150 M08/M12 A2961 RMK AC4 SLP076

CYQF;2011-03-30 12:00;CYQF 301200Z 00000KT 15SM SCT150 BKN250 M08/M12 A2958 RMK AC3CI2 SLP065

CYQF;2011-03-30 13:00;CYQF 301300Z 00000KT 15SM FEW005 FEW120 BKN250 M08/M12 A2957 RMK ST1AC1CI2 SLP062

CYQF;2011-03-30 14:00;CYQF 301400Z 00000KT 15SM FEW005 FEW120 BKN250 M07/M11 A2954 RMK ST1AC2CI4 PRESFR SLP051

CYQF;2011-03-30 15:00;CYQF 301500Z 00000KT 15SM FEW120 BKN250 M05/M09 A2953 RMK AC2CS4 SLP045

CYQF;2011-03-30 16:00;CYQF 301600Z 14005KT 15SM FEW090 BKN120 BKN250 M02/M08 A2951 RMK AC1AS4CS2 SLP037

CYQF;2011-03-30 17:00;CYQF 301700Z 00000KT 15SM OVC120 01/M06 A2953 RMK AS8 SLP043

CYQF;2011-03-30 18:00;CYQF 301800Z 00000KT 15SM BKN120 04/M04 A2952 RMK AS7 SLP035

CYQF;2011-03-30 19:00;CYQF 301900Z 00000KT 15SM FEW030 SCT080 BKN240 05/M05 A2953 RMK SC1AC2CI2 SLP036

CYQF;2011-03-30 20:00;CYQF 302000Z 00000KT 15SM FEW040 SCT240 07/M05 A2953 RMK CU1CI1 SLP036

CYQF;2011-03-30 21:00;CYQF 302100Z 15002KT 15SM FEW040 SCT240 07/M04 A2953 RMK CU1CI1 SLP037

CYQF;2011-03-30 22:00;CYQF 302200Z 21005KT 15SM SCT050 BKN090 BKN240 09/M04 A2955 RMK CU3AC2CI1 VIRGA TCU ASOCTD SLP042

CYQF;2011-03-30 23:00;CYQF 302300Z 00000KT 15SM FEW050 SCT090 BKN240 07/M04 A2955 RMK CU2AC2CI1 VIRGA TCU ASOCTD SLP043

CYQF;2011-03-31 00:00;CYQF 310000Z 00000KT 15SM FEW050 SCT090 BKN250 07/M04 A2957 RMK CU2AC2CI1 VIRGA TCU ASOCTD SLP053

CYQF;2011-03-31 01:00;CYQF 310100Z 13003KT 15SM BKN040 BKN250 06/M04 A2960 RMK CU5CI0 VIRGA TCU ASOCTD SLP062

CYQF;2011-03-31 02:00;CYQF 310200Z 36008KT 15SM SCT040 BKN090 BKN250 06/M04 A2963 RMK CU3AC2CI0 VIRGA SLP071

CYQF;2011-03-31 03:00;CYQF 310300Z 33005KT 15SM SCT040 BKN090 04/M04 A2966 RMK SC3AC3 SLP081

CYQF;2011-03-31 04:00;CYQF 310400Z 30005KT 15SM FEW040 BKN090 04/M04 A2969 RMK SC1AC4 SLP093

CYQF;2011-03-31 05:00;CYQF 310500Z 34006KT 15SM BKN040 BKN090 04/M04 A2971 RMK SC5AC2 SLP098

CYQF;2011-03-31 06:00;CYQF 310600Z 16005KT 15SM BKN040 03/M04 A2969 RMK SC6 SLP086

CYQF;2011-03-31 07:00;CYQF 310700Z 21006KT 15SM FEW040 BKN100 02/M04 A2968 RMK SC2AC3 SLP083

CYQF;2011-03-31 08:00;CYQF 310800Z 22007KT 15SM BKN060 02/M04 A2971 RMK SC5 SLP092

CYQF;2011-03-31 09:00;CYQF 310900Z 22006KT 15SM BKN080 02/M04 A2970 RMK AC5 SLP085

CYQF;2011-03-31 10:00;CYQF 311000Z 23008KT 15SM BKN100 01/M05 A2969 RMK AC6 SLP082

CYQF;2011-03-31 11:00;CYQF 311100Z 22007KT 15SM OVC100 01/M05 A2970 RMK AC6 SLP085

CYQF;2011-03-31 12:00;CYQF 311200Z 16005KT 15SM OVC100 00/M05 A2969 RMK AC6 SLP085

CYQF;2011-03-31 13:00;CYQF 311300Z 35002KT 15SM BKN100 OVC250 00/M05 A2970 RMK AC5CI2 SLP088

CYQF;2011-03-31 14:00;CYQF 311400Z 00000KT 15SM BKN050 BKN090 00/M05 A2969 RMK SC5AC2 VIRGA SLP085

CYQF;2011-03-31 15:00;CYQF 311500Z 00000KT 15SM SCT050 BKN090 OVC250 02/M05 A2969 RMK SC3AS2CS2 SLP086

CYQF;2011-03-31 16:00;CYQF 311600Z 17003KT 15SM SCT050 BKN090 BKN250 03/M04 A2968 RMK SC3AS3CS0 SLP083

CYQF;2011-03-31 17:00;CYQF 311700Z 18007KT 15SM BKN050 OVC090 05/M04 A2968 RMK SC6AS2 SLP084

CYQF;2011-03-31 18:00;CYQF 311800Z 16008KT 15SM BKN050 BKN090 04/M03 A2968 RMK SC6AC1 VIRGA SLP083

CYQF;2011-03-31 19:00;CYQF 311900Z 16008KT 15SM BKN050 BKN090 03/M02 A2967 RMK SC5AC2 VIRGA SLP079

CYQF;2011-03-31 20:00;CYQF 312000Z 12004KT 15SM FEW025 BKN090 BKN250 04/M02 A2966 RMK SC2AC2CI1 VIRGA SLP077

CYQF;2011-03-31 21:00;CYQF 312100Z 18003KT 15SM SCT080 BKN250 04/M02 A2966 RMK AC3CI2 SLP074

CYQF;2011-03-31 22:00;CYQF 312200Z 22010KT 15SM BKN050 BKN090 04/M02 A2966 RMK SC5AC2 VIRGA SLP075

CYQF;2011-03-31 23:00;CYQF 312300Z 22012G18KT 15SM -RA BKN050 BKN250 03/M03 A2966 RMK SC6CI1 SLP075

CYQF;2011-04-01 01:00;CYQF 010100Z 25004KT 15SM BKN050 BKN250 03/M02 A2970 RMK SC6CI1 VIRGA SLP090

CYQF;2011-04-01 02:00;CYQF 010200Z 24006KT 15SM FEW050 SCT090 BKN250 02/M03 A2972 RMK SC2AC2CI0 VIRGA SLP097

CYQF;2011-04-01 03:00;CYQF 010300Z 27005KT 15SM FEW050 FEW090 02/M03 A2974 RMK SC1AC1 SLP104

CYQF;2011-04-01 04:00;CYQF 010400Z 29008KT 15SM FEW060 02/M03 A2979 RMK SC2 SLP121

CYQF;2011-04-01 05:00;CYQF 010500Z 00000KT 15SM BKN060 01/M04 A2980 RMK SC6 SLP125

CYQF;2011-04-01 06:00;CYQF 010600Z 00000KT 15SM FEW060 01/M04 A2982 RMK SC2 SLP131

CYQF;2011-04-01 07:00;CYQF 010700Z 21006KT 15SM BKN090 M02/M06 A2983 RMK AC3 SLP135

CYQF;2011-04-01 08:00;CYQF 010800Z 27002KT 15SM FEW090 M02/M06 A2984 RMK AC2 SLP139

CYQF;2011-04-01 09:00;CYQF 010900Z 23007KT 15SM FEW090 M04/M08 A2983 RMK AC2 SLP142

CYQF;2011-04-01 10:00;CYQF 011000Z 23005KT 15SM BKN090 M03/M08 A2984 RMK AC3 SLP143

CYQF;2011-04-01 11:00;CYQF 011100Z 21003KT 15SM BKN090 M03/M07 A2985 RMK AC5 SLP147

CYQF;2011-04-01 12:00;CYQF 011200Z 21002KT 15SM BKN090 M02/M07 A2986 RMK AC6 SLP150

CYQF;2011-04-01 13:00;CYQF 011300Z 22005KT 15SM BKN090 BKN250 M02/M08 A2986 RMK AC5CI1 SLP149

CYQF;2011-04-01 14:00;CYQF 011400Z 18002KT 15SM BKN100 BKN250 M03/M08 A2985 RMK ACC5CI2 VIRGA ALQDS SLP148

CYQF;2011-04-01 15:00;CYQF 011500Z 00000KT 15SM BKN100 BKN250 M02/M07 A2986 RMK ACC5CI1 VIRGA SLP153

CYQF;2011-04-01 16:00;CYQF 011600Z 00000KT 15SM FEW050 BKN100 BKN250 01/M05 A2986 RMK CU2AC2CI1 SLP153

CYQF;2011-04-01 17:00;CYQF 011700Z 00000KT 15SM FEW040 SCT100 BKN250 02/M05 A2985 RMK CU2AC2CI1 VIRGA/SHS S SLP149

CYQF;2011-04-01 18:00;CYQF 011800Z 19004KT 15SM FEW040 FEW100 BKN250 02/M04 A2985 RMK CU2AC1CI1 VIRGA/SHS S SLP146

CYQF;2011-04-01 19:00;CYQF 011900Z 17002KT 15SM FEW040 FEW100 SCT250 04/M04 A2985 RMK CU2AC1CI1 VIRGA/SHS S SLP143

CYQF;2011-04-01 20:00;CYQF 012000Z 13002KT 15SM FEW040 FEW100 BKN250 06/M05 A2982 RMK CF1AC1CI2 VIRGA NW SLP136

CYQF;2011-04-01 21:00;CYQF 012100Z 12008KT 15SM FEW050 FEW100 BKN250 06/M07 A2981 RMK CU1AC1CI2 SLP133

CYQF;2011-04-01 22:00;CYQF 012200Z 12008KT 15SM FEW050 BKN250 05/M06 A2980 RMK CU1CI2 SLP130

CYQF;2011-04-01 23:00;CYQF 012300Z 13008KT 15SM FEW070 BKN250 04/M04 A2979 RMK ACC1CI2 SLP127

CYQF;2011-04-02 00:00;CYQF 020000Z 16008KT 15SM FEW070 BKN250 03/M04 A2978 RMK AC2CI2 SLP121

CYQF;2011-04-02 01:00;CYQF 020100Z 15005KT 15SM FEW070 BKN210 03/M04 A2976 RMK AC2CI3 SLP117

CYQF;2011-04-02 02:00;CYQF 020200Z 15004KT 15SM FEW070 BKN210 01/M04 A2975 RMK AC1CI2 SLP111

CYQF;2011-04-02 03:00;CYQF 020300Z 14005KT 15SM BKN250 01/M04 A2975 RMK CI2 SLP114

CYQF;2011-04-02 04:00;CYQF 020400Z 11003KT 15SM BKN250 01/M04 A2975 RMK CI3 SLP114

CYQF;2011-04-02 05:00;CYQF 020500Z 13004KT 15SM FEW050 BKN100 OVC250 01/M04 A2974 RMK SC2AC6CI1 SLP112

CYQF;2011-04-02 05:53;CYQF 020553Z 15004KT 6SM -SN SCT050 OVC100 RMK SC3AC5

CYQF;2011-04-02 06:00;CYQF 020600Z 14004KT 8SM -SN SCT050 OVC100 01/M04 A2974 RMK SC4AC4 SLP105

CYQF;2011-04-02 07:00;CYQF 020700Z 00000KT 4SM -SN VV018 00/M03 A2971 RMK SN8 SLP098

CYQF;2011-04-02 07:47;CYQF 020747Z 12002KT 2SM -SN VV011 RMK SN8

CYQF;2011-04-02 08:00;CYQF 020800Z 11002KT 2SM -SN VV011 01/M03 A2970 RMK SN8 SLP093

CYQF;2011-04-02 08:43;CYQF 020843Z 00000KT 5SM -SN BKN040 OVC100 RMK SC5AC3

CYQF;2011-04-02 09:00;CYQF 020900Z 00000KT 8SM -SN BKN009 BKN040 OVC100 00/M03 A2968 RMK ST5SC2AC2 CIG RAG /S01/ SLP081

CYQF;2011-04-02 10:00;CYQF 021000Z 00000KT 3SM -SN BKN009 OVC040 00/M03 A2967 RMK ST6SC2 CIG RAG SLP078

CYQF;2011-04-02 11:00;CYQF 021100Z 00000KT 8SM -SN FEW008 SCT040 OVC080 M00/M03 A2965 RMK ST2SC2AC4 SLP073

CYQF;2011-04-02 11:35;CYQF 021135Z 00000KT 4SM BR OVC012 RMK SC8

CYQF;2011-04-02 12:00;CYQF 021200Z 00000KT 5SM BR BKN012 OVC040 M00/M04 A2965 RMK SC5SC3 SLP076

CYQF;2011-04-02 12:43;CYQF 021243Z 00000KT 1 1/2SM BR OVC012 RMK FG5SC3 VIS VRB 1-2

CYQF;2011-04-02 13:00;CYQF 021300Z 00000KT 1 1/2SM BR OVC015 M01/M04 A2965 RMK FG5SC3 VIS VRB 1-2 SLP075

CYQF;2011-04-02 13:19;CYQF 021319Z 00000KT 3SM BR OVC025 RMK FG2ST6 BLN EST VIS E 5

CYQF;2011-04-02 14:00;CYQF 021400Z 00000KT 10SM FEW010 OVC025 M01/M04 A2965 RMK SF1ST8 VIS N 6BR SF DIST N SLP074

CYQF;2011-04-02 15:00;CYQF 021500Z 36002KT 6SM BR OVC025 00/M04 A2966 RMK FG2ST6 FG INVDG FM N VIS NW-NE 2BR SLP081

CYQF;2011-04-02 15:28;CYQF 021528Z 34004KT 2SM -SN BR OVC025 RMK FG2ST6 VIS VRB 1-3

CYQF;2011-04-02 16:00;CYQF 021600Z 33003KT 1 1/2SM -SN BR OVC020 00/M03 A2968 RMK FG3SC5 VIS VRB 1-2 SLP088

CYQF;2011-04-02 17:00;CYQF 021700Z 04004KT 1SM -SN BR OVC018 M00/M03 A2969 RMK FG4SC4 VIS VRB 3/4-11/4 SLP090

CYQF;2011-04-02 17:45;CYQF 021745Z 03004KT 3SM -SN BR OVC020 RMK FG2SC6

CYQF;2011-04-02 18:00;CYQF 021800Z 05005KT 3SM -SN BR OVC025 00/M03 A2968 RMK FG2SC6 /S01/ SLP088

CYQF;2011-04-02 19:00;CYQF 021900Z 00000KT 3SM -SN BR OVC025 01/M04 A2970 RMK FG2SC6 SLP093

CYQF;2011-04-02 19:41;CYQF 021941Z 30003KT 2SM -SN BR OVC020 RMK FG2SC6 VIS VRB 1-3

CYQF;2011-04-02 20:00;CYQF 022000Z 36006KT 3/4SM -SN BR VV012 00/M03 A2971 RMK SN8 SLP098

CYQF;2011-04-02 21:00;CYQF 022100Z 31004KT 1SM -SN BR VV012 01/M03 A2972 RMK SN8 VIS VRB 3/4-11/4 SLP102

CYQF;2011-04-02 21:26;CYQF 022126Z 27005KT 6SM BR OVC015 RMK SC8

CYQF;2011-04-02 22:00;CYQF 022200Z 28005KT 8SM OVC015 01/M03 A2973 RMK SC8 SLP105

CYQF;2011-04-02 23:00;CYQF 022300Z 28005KT 10SM OVC020 01/M03 A2975 RMK SC8 SLP109

CYQF;2011-04-03 00:00;CYQF 030000Z 28005KT 10SM OVC020 01/M03 A2977 RMK SC8 SLP118

CYQF;2011-04-03 01:00;CYQF 030100Z 00000KT 10SM FEW020 OVC070 02/M04 A2980 RMK SC2AS6 SLP128

CYQF;2011-04-03 01:28;CYQF 030128Z 00000KT 10SM -SN FEW020 OVC070 RMK SC2AS6

CYQF;2011-04-03 02:00;CYQF 030200Z 00000KT 10SM -SN FEW020 OVC070 01/M04 A2983 RMK SC2AS6 SLP136

CYQF;2011-04-03 03:00;CYQF 030300Z 00000KT 12SM -SN OVC070 M00/M05 A2985 RMK AC8 SLP148

CYQF;2011-04-03 03:43;CYQF 030343Z 24004KT 12SM OVC040 RMK SC8

CYQF;2011-04-03 04:00;CYQF 030400Z 24004KT 12SM OVC040 M01/M05 A2988 RMK SC8 SLP156

CYQF;2011-04-03 05:00;CYQF 030500Z 25004KT 12SM BKN040 M01/M06 A2989 RMK SC6 SLP161

CYQF;2011-04-03 06:00;CYQF 030600Z 26004KT 12SM BKN040 M01/M06 A2991 RMK SC6 SLP169

CYQF;2011-04-03 07:00;CYQF 030700Z 26004KT 15SM BKN040 M02/M07 A2992 RMK SC3 SLP173

CYQF;2011-04-03 08:00;CYQF 030800Z 26003KT 15SM FEW040 M03/M09 A2993 RMK SC2 SLP176

CYQF;2011-04-03 09:00;CYQF 030900Z 28005KT 15SM FEW040 M03/M09 A2995 RMK SC2 SLP185

CYQF;2011-04-03 10:00;CYQF 031000Z 30002KT 15SM SKC M05/M10 A2996 RMK SLP189

CYQF;2011-04-03 11:00;CYQF 031100Z 33003KT 15SM SKC M04/M10 A2998 RMK SLP195

CYQF;2011-04-03 12:00;CYQF 031200Z 27008KT 15SM SKC M05/M10 A3000 RMK SLP205

CYQF;2011-04-03 13:00;CYQF 031300Z 26003KT 15SM FEW090 M10/M14 A3003 RMK AC2 SLP212

CYQF;2011-04-03 14:00;CYQF 031400Z 25005KT 15SM FEW100 M08/M12 A3004 RMK AC1 SLP217

CYQF;2011-04-03 15:00;CYQF 031500Z 21003KT 15SM SCT100 M07/M11 A3005 RMK AC3 ACC ASOCTD DIST NW-N SLP227

CYQF;2011-04-03 16:00;CYQF 031600Z 25002KT 15SM FEW100 M03/M08 A3006 RMK AC2 SLP229

CYQF;2011-04-03 17:00;CYQF 031700Z 27005KT 15SM FEW100 M01/M06 A3006 RMK AC1 SLP229

CYQF;2011-04-03 18:00;CYQF 031800Z 25002KT 15SM FEW025 FEW100 00/M06 A3006 RMK CU1AC1 SLP222

CYQF;2011-04-03 19:00;CYQF 031900Z 26002KT 15SM FEW030 02/M06 A3005 RMK SC1 TCU EMBDD SLP219

CYQF;2011-04-03 20:00;CYQF 032000Z 20002KT 15SM FEW030 03/M05 A3004 RMK SC1 TCU SLP214

CYQF;2011-04-03 21:00;CYQF 032100Z 15003KT 15SM FEW035 04/M05 A3002 RMK CU1 SLP206

CYQF;2011-04-03 22:00;CYQF 032200Z 15007KT 15SM FEW040 04/M05 A3001 RMK CU1 SLP202

CYQF;2011-04-03 23:00;CYQF 032300Z 14006KT 15SM FEW040 04/M05 A2999 RMK CU1 SLP198

CYQF;2011-04-04 00:00;CYQF 040000Z 15008KT 15SM FEW040 03/M05 A2998 RMK CU1 SLP196

CYQF;2011-04-04 01:00;CYQF 040100Z 16010KT 15SM FEW050 02/M06 A2995 RMK CU1 SLP186

CYQF;2011-04-04 02:00;CYQF 040200Z 16008KT 15SM FEW250 00/M06 A2993 RMK CI1 SLP180

CYQF;2011-04-04 03:00;CYQF 040300Z 15008KT 15SM FEW250 M01/M07 A2992 RMK CI1 SLP179

CYQF;2011-04-04 04:00;CYQF 040400Z 16007KT 15SM FEW210 M01/M07 A2989 RMK CI1 SLP170

CYQF;2011-04-04 05:00;CYQF 040500Z 17005KT 15SM FEW210 M02/M08 A2986 RMK CI1 SLP163

CYQF;2011-04-04 06:00;CYQF 040600Z 17004KT 15SM FEW210 M04/M09 A2985 RMK CI1 SLP151

CYQF;2011-04-04 07:00;CYQF 040700Z 16005KT 15SM BKN210 M04/M10 A2982 RMK CI3 SLP143

CYQF;2011-04-04 08:00;CYQF 040800Z 18004KT 15SM BKN210 M05/M11 A2979 RMK CI3 SLP133

CYQF;2011-04-04 09:00;CYQF 040900Z 18005KT 15SM BKN210 M03/M10 A2975 RMK CI5 SLP112

CYQF;2011-04-04 10:00;CYQF 041000Z 19003KT 15SM BKN210 M03/M09 A2973 RMK CI5 SLP105

CYQF;2011-04-04 11:00;CYQF 041100Z 20002KT 15SM SCT100 BKN210 M04/M10 A2972 RMK AC3CI2 SLP102

CYQF;2011-04-04 12:00;CYQF 041200Z 18005KT 15SM BKN100 BKN210 M04/M10 A2971 RMK AC5CI2 OBS TAKEN +11 SLP099

CYQF;2011-04-04 13:00;CYQF 041300Z 36002KT 15SM BKN100 BKN210 M03/M09 A2970 RMK AC6CI1 SLP096

CYQF;2011-04-04 14:00;CYQF 041400Z 27003KT 15SM SCT100 BKN210 M02/M09 A2969 RMK AC3CI4 SLP094

CYQF;2011-04-04 15:00;CYQF 041500Z 30006KT 15SM FEW100 BKN210 00/M09 A2968 RMK AC2CI4 SLP088

CYQF;2011-04-04 16:00;CYQF 041600Z 36002KT 15SM SCT100 BKN210 03/M07 A2968 RMK AC3CI3 SLP090

CYQF;2011-04-04 17:00;CYQF 041700Z 21008KT 15SM FEW100 BKN250 03/M05 A2968 RMK AC2CI3 SLP089

CYQF;2011-04-04 18:00;CYQF 041800Z 18003KT 15SM FEW040 FEW100 BKN250 05/M05 A2967 RMK SC1AC2CI4 SLP083

CYQF;2011-04-04 19:00;CYQF 041900Z 15005KT 15SM FEW040 SCT250 06/M05 A2966 RMK SC1CI2 SLP079

CYQF;2011-04-04 20:00;CYQF 042000Z 17002KT 15SM FEW050 SCT250 07/M06 A2964 RMK SC1CI2 SLP074

CYQF;2011-04-04 21:00;CYQF 042100Z 16005KT 15SM FEW050 BKN250 07/M04 A2962 RMK SC2CI2 SLP064

CYQF;2011-04-04 22:00;CYQF 042200Z 15003KT 15SM FEW050 BKN250 06/M04 A2962 RMK CF1CI2 SLP062

CYQF;2011-04-04 23:00;CYQF 042300Z 16003KT 15SM FEW050 FEW100 BKN250 07/M04 A2961 RMK CF1AC1CI2 SLP059

CYQF;2011-04-05 00:00;CYQF 050000Z 15003KT 15SM FEW050 OVC250 06/M04 A2961 RMK CF1CI2 SLP060

CYQF;2011-04-05 01:00;CYQF 050100Z 13004KT 15SM FEW050 BKN250 04/M05 A2959 RMK SC1CI1 SC TR SLP054

CYQF;2011-04-05 02:00;CYQF 050200Z 00000KT 15SM FEW050 SCT250 03/M06 A2957 RMK SC1CI1 SC TR VIRGA SLP050

CYQF;2011-04-05 03:00;CYQF 050300Z 14005KT 15SM FEW050 FEW100 FEW250 01/M06 A2957 RMK SC1AC1CI1 SLP048

CYQF;2011-04-05 04:00;CYQF 050400Z 18002KT 15SM FEW100 M02/M07 A2956 RMK AC1 SLP046

CYQF;2011-04-05 05:00;CYQF 050500Z 00000KT 15SM FEW100 FEW250 M01/M07 A2956 RMK AC1CI0 SLP045

CYQF;2011-04-05 06:00;CYQF 050600Z 18003KT 15SM FEW100 M04/M09 A2954 RMK AC2 SLP039

CYQF;2011-04-05 07:00;CYQF 050700Z 18004KT 15SM SKC M04/M09 A2952 RMK SLP032

CYQF;2011-04-05 08:00;CYQF 050800Z 18005KT 15SM SKC M06/M11 A2950 RMK SLP026

CYQF;2011-04-05 09:00;CYQF 050900Z 22004KT 15SM SKC M06/M11 A2948 RMK SLP019

CYQF;2011-04-05 10:00;CYQF 051000Z 22005KT 15SM FEW150 M05/M12 A2948 RMK AC2 SLP018

CYQF;2011-04-05 11:00;CYQF 051100Z 00000KT 15SM SCT150 M05/M12 A2948 RMK AC2 SLP018

CYQF;2011-04-05 12:00;CYQF 051200Z 00000KT 15SM SCT150 M06/M12 A2948 RMK AC2 SLP019

CYQF;2011-04-05 13:00;CYQF 051300Z 00000KT 15SM SCT150 BKN250 M04/M11 A2948 RMK AC2CI1 SLP018

CYQF;2011-04-05 14:00;CYQF 051400Z 00000KT 15SM FEW150 SCT250 M04/M11 A2949 RMK AC2CI1 SLP022

CYQF;2011-04-05 15:00;CYQF 051500Z 00000KT 15SM FEW150 SCT250 M03/M10 A2949 RMK AC2CI1 SLP024

CYQF;2011-04-05 16:00;CYQF 051600Z 16002KT 15SM FEW150 FEW250 M00/M09 A2949 RMK AC1CI1 SLP026

CYQF;2011-04-05 17:00;CYQF 051700Z 22002KT 15SM FEW150 FEW250 02/M08 A2950 RMK AC1CI1 SLP029

CYQF;2011-04-05 18:00;CYQF 051800Z 00000KT 15SM FEW120 FEW260 03/M08 A2950 RMK AC1CI1 SLP027

CYQF;2011-04-05 19:00;CYQF 051900Z 00000KT 15SM FEW055CB FEW250 05/M09 A2949 RMK CB1CI1 CB DIST W SLP024

CYQF;2011-04-05 20:00;CYQF 052000Z 00000KT 15SM FEW055CB FEW250 07/M08 A2949 RMK CB1CI2 CB/SH DIST SW SLP023

CYQF;2011-04-05 21:00;CYQF 052100Z 16004KT 15SM FEW048CB SCT250 05/M07 A2949 RMK CB1CI2 CB/SH DIST SW-W SLP024

CYQF;2011-04-05 22:00;CYQF 052200Z 15002KT 15SM FEW050CB SCT100 BKN250 06/M07 A2949 RMK CB2AC2CI1 SH SW-NW SLP024

CYQF;2011-04-05 23:00;CYQF 052300Z CCA 30012G20KT 15SM FEW015 FEW050CB BKN080 BKN250 05/M07 A2953 RMK SF1CB2AC3CI1 PRESRR VIRGA ALQDS SLP036

CYQF;2011-04-06 00:00;CYQF 060000Z CCA 32010KT 15SM VCSH FEW015 BKN050CB BKN100 OVC250 02/M04 A2956 RMK SF1CB4AC2CI1 SHWRS/VIRGA ALQDS SLP050

CYQF;2011-04-06 01:00;CYQF 060100Z 02004KT 15SM FEW040 BKN080 BKN250 03/M06 A2956 RMK SC2AC3CI1 VIRGA SLP049

CYQF;2011-04-06 02:00;CYQF 060200Z 14003KT 15SM FEW040 SCT080 BKN250 02/M05 A2956 RMK SC2AC2CI1 SLP050

CYQF;2011-04-06 03:00;CYQF 060300Z 19006KT 15SM FEW040 SCT080 BKN250 01/M06 A2957 RMK SC2AC2CI2 SLP053

CYQF;2011-04-06 04:00;CYQF 060400Z 20005KT 15SM FEW100 BKN250 M00/M06 A2957 RMK AC2CI2 SLP055

CYQF;2011-04-06 05:00;CYQF 060500Z 17005KT 15SM FEW100 SCT250 M01/M06 A2957 RMK AC2CI1 SLP055

CYQF;2011-04-06 06:00;CYQF 060600Z 00000KT 15SM FEW100 M02/M07 A2957 RMK AC1 SLP048

CYQF;2011-04-06 07:00;CYQF 060700Z 18006KT 15SM SCT100 M02/M07 A2957 RMK AC3 SLP048

CYQF;2011-04-06 08:00;CYQF 060800Z 16003KT 15SM SKC M03/M08 A2956 RMK SLP047

CYQF;2011-04-06 09:00;CYQF 060900Z 21004KT 15SM SKC M06/M11 A2956 RMK SLP048

CYQF;2011-04-06 10:00;CYQF 061000Z 24004KT 15SM FEW250 M03/M10 A2956 RMK CI1 SLP048

CYQF;2011-04-06 11:00;CYQF 061100Z 23006KT 15SM FEW250 M04/M12 A2957 RMK CI1 SLP052

CYQF;2011-04-06 12:00;CYQF 061200Z 21008KT 15SM FEW250 M07/M13 A2957 RMK CI1 SLP057

CYQF;2011-04-06 13:00;CYQF 061300Z 00000KT 15SM FEW250 M05/M13 A2958 RMK CI1 SLP059

CYQF;2011-04-06 14:00;CYQF 061400Z 00000KT 15SM FEW250 M06/M12 A2959 RMK CI1 SLP062

CYQF;2011-04-06 15:00;CYQF 061500Z 19004KT 15SM FEW250 M04/M11 A2959 RMK CI1 SLP061

CYQF;2011-04-06 16:00;CYQF 061600Z 00000KT 15SM FEW250 M01/M11 A2959 RMK CI2 SLP061

CYQF;2011-04-06 17:00;CYQF 061700Z 17003KT 15SM FEW250 00/M10 A2958 RMK CI2 SLP060

CYQF;2011-04-06 18:00;CYQF 061800Z 00000KT 15SM FEW040 BKN250 02/M09 A2958 RMK CU1CI1 SLP055

CYQF;2011-04-06 19:00;CYQF 061900Z 00000KT 15SM FEW040 BKN250 04/M09 A2958 RMK CU1CI2 SLP053

CYQF;2011-04-06 20:00;CYQF 062000Z 13003KT 15SM FEW050 BKN250 04/M08 A2958 RMK CU1CI2 SLP053

CYQF;2011-04-06 21:00;CYQF 062100Z 14005KT 15SM FEW050 BKN250 06/M07 A2957 RMK CU1CI2 SLP051

CYQF;2011-04-06 22:00;CYQF 062200Z 13005KT 15SM FEW050 SCT250 05/M08 A2957 RMK CU1CI2 SLP051

CYQF;2011-04-06 23:00;CYQF 062300Z 13006KT 15SM FEW050 SCT250 05/M08 A2958 RMK CU1CI1 TCU/SH SW SLP055

CYQF;2011-04-07 00:00;CYQF 070000Z 14004KT 15SM FEW050 BKN250 04/M08 A2959 RMK CU2CI2 SLP061

CYQF;2011-04-07 01:00;CYQF 070100Z 15002KT 15SM FEW050 BKN250 03/M07 A2960 RMK CU2CI2 SLP064

CYQF;2011-04-07 02:00;CYQF 070200Z 00000KT 15SM FEW050 FEW100 BKN250 02/M08 A2960 RMK SC1AC1CI1 SLP065

CYQF;2011-04-07 03:00;CYQF 070300Z 00000KT 15SM FEW100 SCT250 00/M08 A2961 RMK AC1CI2 SLP070

CYQF;2011-04-07 04:00;CYQF 070400Z 00000KT 15SM FEW100 SCT250 M02/M09 A2963 RMK AC1CI2 SLP074

CYQF;2011-04-07 05:00;CYQF 070500Z 00000KT 15SM FEW250 M02/M09 A2964 RMK CI1 SLP079

CYQF;2011-04-07 06:00;CYQF 070600Z 32005KT 15SM SCT100 BKN250 M03/M10 A2966 RMK AC3CI2 SLP082

CYQF;2011-04-07 07:00;CYQF 070700Z 00000KT 15SM FEW250 M03/M11 A2967 RMK CI1 SLP086

CYQF;2011-04-07 08:00;CYQF 070800Z 19004KT 15SM FEW250 M06/M12 A2968 RMK CI0 SLP090

CYQF;2011-04-07 09:00;CYQF 070900Z 26003KT 15SM FEW250 M05/M11 A2970 RMK CI1 SLP095

CYQF;2011-04-07 10:00;CYQF 071000Z 29005KT 15SM FEW250 M06/M11 A2972 RMK CI1 SLP100

CYQF;2011-04-07 11:00;CYQF 071100Z 00000KT 15SM SCT100 M05/M10 A2973 RMK AC3 SLP105

CYQF;2011-04-07 12:00;CYQF 071200Z 00000KT 15SM FEW100 SCT250 M06/M12 A2975 RMK AC2CI0 SLP114

CYQF;2011-04-07 13:00;CYQF 071300Z 00000KT 15SM FEW100 FEW250 M07/M12 A2977 RMK AC2CI0 SLP121

CYQF;2011-04-07 14:00;CYQF 071400Z 00000KT 15SM FEW100 SCT250 M07/M12 A2979 RMK AC1CI1 SLP127

CYQF;2011-04-07 15:00;CYQF 071500Z 32004KT 15SM FEW100 SCT250 M03/M08 A2980 RMK AC1CI1 SLP133

CYQF;2011-04-07 16:00;CYQF 071600Z 32004KT 15SM FEW100 SCT250 M01/M08 A2982 RMK AC1CI1 SLP139

CYQF;2011-04-07 17:00;CYQF 071700Z 32004KT 15SM FEW030 SCT250 00/M07 A2984 RMK CU1CI2 TR CU SLP145

CYQF;2011-04-07 18:00;CYQF 071800Z 33008KT 15SM FEW030 SCT250 02/M06 A2986 RMK CU1CI1 SLP154

CYQF;2011-04-07 19:00;CYQF 071900Z 34007KT 15SM FEW030 SCT250 02/M06 A2987 RMK CU1CI1 SLP157

CYQF;2011-04-07 20:00;CYQF 072000Z 34010KT 15SM FEW040 SCT250 03/M07 A2988 RMK CU1CI1 SLP161

CYQF;2011-04-07 21:00;CYQF 072100Z 35006KT 15SM FEW040 SCT250 03/M06 A2990 RMK CU2CI1 SLP165

CYQF;2011-04-07 22:00;CYQF 072200Z 33008KT 15SM FEW040 SCT250 04/M06 A2991 RMK CU1CI1 SLP168

CYQF;2011-04-07 23:00;CYQF 072300Z 35006KT 15SM FEW040 SCT250 04/M08 A2992 RMK CU1CI1 SLP172

CYQF;2011-04-08 00:00;CYQF 080000Z 35008KT 15SM FEW040 SCT250 03/M08 A2993 RMK CU1CI1 SLP180

CYQF;2011-04-08 01:00;CYQF 080100Z 00000KT 15SM FEW040 FEW250 03/M08 A2995 RMK CU1CI1 SLP185

CYQF;2011-04-08 02:00;CYQF 080200Z 00000KT 15SM FEW080 FEW250 01/M08 A2996 RMK AC1CI1 SLP190

CYQF;2011-04-08 03:00;CYQF 080300Z 00000KT 15SM FEW080 FEW250 M02/M09 A2999 RMK AC1CI0 SLP202

CYQF;2011-04-08 04:00;CYQF 080400Z 00000KT 15SM SKC M03/M09 A3001 RMK SLP208

CYQF;2011-04-08 05:00;CYQF 080500Z 17002KT 15SM SKC M05/M10 A3001 RMK SLP209

CYQF;2011-04-08 06:00;CYQF 080600Z 22004KT 15SM SKC M06/M11 A3001 RMK SLP210

CYQF;2011-04-08 07:00;CYQF 080700Z 00000KT 15SM SKC M08/M13 A3001 RMK SLP208

CYQF;2011-04-08 08:00;CYQF 080800Z 18003KT 15SM SKC M08/M13 A3000 RMK SLP206

CYQF;2011-04-08 09:00;CYQF 080900Z 18003KT 15SM SKC M08/M13 A2999 RMK SLP202

CYQF;2011-04-08 10:00;CYQF 081000Z 22003KT 15SM SKC M09/M14 A2998 RMK SLP200

CYQF;2011-04-08 11:00;CYQF 081100Z 18004KT 15SM SKC M09/M14 A2997 RMK SLP195

CYQF;2011-04-08 12:00;CYQF 081200Z 18005KT 15SM SKC M09/M15 A2996 RMK SLP193

CYQF;2011-04-08 13:00;CYQF 081300Z 19003KT 15SM SKC M10/M15 A2995 RMK SLP189

CYQF;2011-04-08 14:00;CYQF 081400Z 16004KT 15SM SKC M09/M14 A2994 RMK SLP186

CYQF;2011-04-08 15:00;CYQF 081500Z 17005KT 15SM SKC M06/M13 A2991 RMK SLP179

CYQF;2011-04-08 16:00;CYQF 081600Z 15004KT 15SM SKC M04/M11 A2989 RMK SLP173

CYQF;2011-04-08 17:00;CYQF 081700Z 16010KT 15SM SKC M01/M10 A2987 RMK SLP166

CYQF;2011-04-08 18:00;CYQF 081800Z 16008KT 15SM SKC 00/M08 A2984 RMK SLP152

CYQF;2011-04-08 19:00;CYQF 081900Z 16013G18KT 15SM FEW250 02/M06 A2981 RMK CI1 SLP143

CYQF;2011-04-08 20:00;CYQF 082000Z 16013G22KT 15SM BKN250 03/M07 A2976 RMK CI2 SLP127

CYQF;2011-04-08 21:00;CYQF 082100Z 15015G22KT 15SM BKN250 04/M06 A2973 RMK CI2 SLP111

CYQF;2011-04-08 22:00;CYQF 082200Z 15015G23KT 15SM BKN250 04/M05 A2970 RMK CI2 SLP101

CYQF;2011-04-08 23:00;CYQF 082300Z 16015G22KT 15SM BKN250 04/M05 A2967 RMK CI2 SLP094

CYQF;2011-04-09 00:00;CYQF 090000Z 15015G20KT 15SM OVC250 03/M04 A2965 RMK CI4 SLP086

CYQF;2011-04-09 01:00;CYQF 090100Z 15015G20KT 15SM OVC250 03/M04 A2964 RMK CI4 SLP081

CYQF;2011-04-09 02:00;CYQF 090200Z 17010KT 15SM BKN250 03/M04 A2963 RMK CI5 SLP079

CYQF;2011-04-09 03:00;CYQF 090300Z 17010G15KT 15SM BKN250 02/M04 A2962 RMK CI5 SLP071

CYQF;2011-04-09 04:00;CYQF 090400Z 15006KT 15SM BKN250 01/M05 A2961 RMK CI2 SLP070

CYQF;2011-04-09 05:00;CYQF 090500Z 17005KT 15SM FEW250 M00/M05 A2962 RMK CI1 SLP071

CYQF;2011-04-09 06:00;CYQF 090600Z 16004KT 15SM SKC M02/M07 A2961 RMK SLP066

CYQF;2011-04-09 07:00;CYQF 090700Z 17004KT 15SM FEW250 M03/M07 A2961 RMK CI0 SLP066

CYQF;2011-04-09 08:00;CYQF 090800Z 00000KT 15SM FEW250 M04/M09 A2960 RMK CI0 SLP064

CYQF;2011-04-09 09:00;CYQF 090900Z 17003KT 15SM SKC M04/M08 A2960 RMK SLP060

CYQF;2011-04-09 10:00;CYQF 091000Z 00000KT 15SM FEW100 SCT250 M04/M09 A2960 RMK AC2CI0 SLP060

CYQF;2011-04-09 11:00;CYQF 091100Z 19003KT 15SM BKN120 M04/M09 A2961 RMK AC5 SLP063

CYQF;2011-04-09 12:00;CYQF 091200Z 18003KT 15SM BKN100 M03/M09 A2961 RMK AC6 SLP062

CYQF;2011-04-09 13:00;CYQF 091300Z 18003KT 15SM FEW100 OVC250 M02/M08 A2961 RMK AC2CI6 SLP062

CYQF;2011-04-09 14:00;CYQF 091400Z 19003KT 15SM BKN100 OVC250 M02/M08 A2962 RMK AS6CI2 SLP066

CYQF;2011-04-09 15:00;CYQF 091500Z 00000KT 15SM BKN100 OVC250 M00/M07 A2962 RMK AC6CI2 SLP066

CYQF;2011-04-09 16:00;CYQF 091600Z 16002KT 15SM SCT100 OVC250 01/M07 A2962 RMK AC3CI2 SLP066

CYQF;2011-04-09 17:00;CYQF 091700Z 18003KT 15SM FEW070 SCT120 BKN250 03/M05 A2961 RMK AC2AC2CI2 SLP064

CYQF;2011-04-09 18:00;CYQF 091800Z 00000KT 15SM FEW120 BKN250 04/M05 A2961 RMK AC2CI2 SLP062

CYQF;2011-04-09 19:00;CYQF 091900Z 00000KT 15SM SCT120 BKN250 07/M05 A2960 RMK AC3CI3 SLP060

CYQF;2011-04-09 20:00;CYQF 092000Z 16006KT 15SM FEW120 BKN250 07/M04 A2959 RMK AC1CI2 SLP055

CYQF;2011-04-09 21:00;CYQF 092100Z 17005KT 15SM FEW120 FEW250 06/M03 A2957 RMK AC1CI1 SLP049

CYQF;2011-04-09 22:00;CYQF 092200Z 16006KT 15SM FEW100 FEW250 07/M03 A2956 RMK AC1CI1 SLP045

CYQF;2011-04-09 23:00;CYQF 092300Z 16007KT 15SM FEW100 FEW250 06/M03 A2955 RMK AC1CI1 TR CI SLP043

CYQF;2011-04-10 00:00;CYQF 100000Z 16008KT 15SM FEW100 FEW250 06/M03 A2955 RMK AC1CI1 CI TR SLP038

CYQF;2011-04-10 01:00;CYQF 100100Z 16006KT 15SM SCT100 BKN250 05/M03 A2954 RMK AC2CI0 VIRGA SLP037

CYQF;2011-04-10 02:00;CYQF 100200Z 16008KT 15SM BKN100 BKN250 04/M03 A2954 RMK AC5CI0 VIRGA ALQDS SLP035

CYQF;2011-04-10 03:00;CYQF 100300Z 16005KT 15SM SCT060 BKN100 BKN250 04/M03 A2954 RMK SC3AC3CI1 VIRGA ALQDS SLP037

CYQF;2011-04-10 04:00;CYQF 100400Z 17002KT 15SM OVC070 04/M03 A2956 RMK AC8 VIRGA SLP042

CYQF;2011-04-10 05:00;CYQF 100500Z 14006KT 15SM OVC070 04/M04 A2956 RMK AC8 VIRGA SLP042

CYQF;2011-04-10 06:00;CYQF 100600Z 29002KT 15SM BKN070 02/M04 A2957 RMK AC7 VIRGA SLP045

CYQF;2011-04-10 07:00;CYQF 100700Z 00000KT 15SM SCT070 01/M05 A2958 RMK AC2 SLP047

CYQF;2011-04-10 08:00;CYQF 100800Z 21005KT 15SM FEW070 M00/M06 A2959 RMK AC2 SLP050

CYQF;2011-04-10 09:00;CYQF 100900Z 28010KT 15SM FEW070 03/M05 A2961 RMK AC2 SLP053

CYQF;2011-04-10 10:00;CYQF 101000Z 29008KT 15SM FEW070 03/M05 A2963 RMK AC1 SLP061

CYQF;2011-04-10 11:00;CYQF 101100Z 00000KT 15SM SKC 03/M06 A2965 RMK SLP065

CYQF;2011-04-10 12:00;CYQF 101200Z 00000KT 15SM FEW100 M00/M07 A2968 RMK AC1 SLP081

CYQF;2011-04-10 13:00;CYQF 101300Z 27003KT 15SM FEW100 M01/M08 A2970 RMK AC2 SLP088

CYQF;2011-04-10 14:00;CYQF 101400Z 20002KT 15SM FEW100 M02/M08 A2972 RMK AC1 SLP094

CYQF;2011-04-10 15:00;CYQF 101500Z 00000KT 15SM FEW100 FEW250 01/M06 A2973 RMK AC1CI1 SLP101

CYQF;2011-04-10 16:00;CYQF 101600Z 18004KT 15SM FEW250 03/M05 A2974 RMK CI0 SLP103

CYQF;2011-04-10 17:00;CYQF 101700Z 15002KT 15SM BKN250 05/M05 A2974 RMK CI4 SLP102

CYQF;2011-04-10 18:00;CYQF 101800Z 14004KT 15SM FEW100 BKN250 08/M04 A2974 RMK AC1CI3 SLP097

CYQF;2011-04-10 19:00;CYQF 101900Z 13008KT 15SM SCT100 BKN250 08/M03 A2972 RMK AC4CI2 SLP093

CYQF;2011-04-10 20:00;CYQF 102000Z 12007KT 15SM BKN100 BKN250 08/M03 A2972 RMK AC6CI2 SLP092

CYQF;2011-04-10 21:00;CYQF 102100Z 12005KT 15SM FEW100 BKN250 08/M03 A2971 RMK AC2CS5 SLP086

CYQF;2011-04-10 22:00;CYQF 102200Z 13007KT 15SM OVC250 08/M02 A2969 RMK CI3 SLP081

CYQF;2011-04-10 23:00;CYQF 102300Z 12010KT 15SM FEW100 BKN250 08/M03 A2968 RMK AC1CI6 SLP079

CYQF;2011-04-11 00:00;CYQF 110000Z 13010KT 15SM FEW100 BKN250 07/M02 A2967 RMK AC1CI4 SLP078

CYQF;2011-04-11 01:00;CYQF 110100Z CCA 14005KT 15SM FEW100 BKN250 07/M02 A2966 RMK AC1CI5 LENTICULAR CI SE-W SLP076

CYQF;2011-04-11 02:00;CYQF 110200Z 14002KT 15SM FEW050 FEW100 BKN250 05/M03 A2966 RMK SC1AC1CI5 LENTICULAR CI SE-W ACSL SW SC TR SLP075

CYQF;2011-04-11 03:00;CYQF 110300Z 19008KT 15SM BKN100 BKN250 05/M04 A2967 RMK AC5CI2 ACSL/LENTICULAR CI SW-W SLP078

CYQF;2011-04-11 04:00;CYQF 110400Z 20004KT 15SM SCT100 BKN250 04/M04 A2968 RMK AC3CI4 SLP082

CYQF;2011-04-11 05:00;CYQF 110500Z 21004KT 15SM FEW100 BKN250 04/M05 A2968 RMK AC2CI4 SLP081

CYQF;2011-04-11 06:00;CYQF 110600Z 21010KT 15SM BKN250 04/M05 A2968 RMK CI3 SLP074

CYQF;2011-04-11 07:00;CYQF 110700Z 21007KT 15SM BKN250 03/M05 A2967 RMK CI5 SLP072

CYQF;2011-04-11 08:00;CYQF 110800Z 20010KT 15SM BKN250 03/M05 A2966 RMK CI5 SLP068

CYQF;2011-04-11 09:00;CYQF 110900Z 20006KT 15SM BKN250 03/M05 A2965 RMK CI3 SLP065

CYQF;2011-04-11 10:00;CYQF 111000Z 19008KT 15SM BKN250 04/M05 A2964 RMK CI2 SLP061

CYQF;2011-04-11 11:00;CYQF 111100Z 18006KT 15SM BKN250 01/M06 A2964 RMK CI2 SLP061

CYQF;2011-04-11 12:00;CYQF 111200Z 19003KT 15SM FEW120 BKN250 01/M06 A2962 RMK AC2CI2 SLP060

CYQF;2011-04-11 13:00;CYQF 111300Z 18004KT 15SM FEW120 BKN250 01/M06 A2961 RMK AC2CI2 SLP057

CYQF;2011-04-11 14:00;CYQF 111400Z 20005KT 15SM FEW120 BKN250 02/M06 A2961 RMK AC2CI2 SLP056

CYQF;2011-04-11 15:00;CYQF 111500Z 16006KT 15SM FEW250 04/M04 A2959 RMK CI2 SLP049

CYQF;2011-04-11 16:00;CYQF 111600Z 15005KT 15SM FEW250 07/M03 A2957 RMK CI1 SLP043

CYQF;2011-04-11 17:00;CYQF 111700Z 16007KT 15SM FEW040 FEW250 08/M02 A2956 RMK CF1CI1 SLP038

CYQF;2011-04-11 18:00;CYQF 111800Z 17008KT 15SM FEW040 SCT100 BKN250 08/M02 A2955 RMK CU1AC0CI2 SLP030

CYQF;2011-04-11 19:00;CYQF 111900Z 16010G15KT 15SM FEW040 SCT100 BKN250 09/M02 A2953 RMK CU2AC2CI0 SLP023

CYQF;2011-04-11 20:00;CYQF 112000Z 20010KT 15SM FEW050TCU BKN100 BKN250 10/M02 A2954 RMK TCU2AC2CI0 SH W SLP027

CYQF;2011-04-11 20:15;CYQF 112015Z 27015G25KT 15SM VCSH SCT040TCU BKN100 RMK TCU4AC2 WND SHFT PRESRR

CYQF;2011-04-11 21:00;CYQF 112100Z 27012G20KT 15SM VCSH SCT040TCU BKN100 07/M03 A2960 RMK TCU4AC3 VIRGA SLP049

CYQF;2011-04-11 22:00;CYQF 112200Z 30008G15KT 15SM VCSH BKN040 BKN100 BKN250 07/M03 A2962 RMK SC6AC1CI1 TCU EMBDD SLP054

CYQF;2011-04-11 23:00;CYQF 112300Z 27005KT 15SM SCT040 BKN100 BKN250 08/M04 A2962 RMK SC3AC2CI1 VIRGA SLP054

CYQF;2011-04-12 00:00;CYQF 120000Z 23005KT 15SM FEW040 BKN100 BKN250 08/M03 A2963 RMK SC2AC4CI2 CU SLP062

CYQF;2011-04-12 01:00;CYQF 120100Z 30010G20KT 15SM SCT040 BKN100 BKN250 07/M07 A2967 RMK SC3AC2CI2 CU VIRGA PK GUST 32 PAST HR SLP076

CYQF;2011-04-12 02:00;CYQF 120200Z 29008G15KT 15SM FEW040 SCT100 BKN250 06/M08 A2971 RMK SC2AC2CI2 VIRGA SLP088

CYQF;2011-04-12 03:00;CYQF 120300Z 28006KT 15SM FEW040 FEW100 FEW250 04/M08 A2976 RMK SC1AC1CI1 SLP108

CYQF;2011-04-12 04:00;CYQF 120400Z 31005KT 15SM FEW100 03/M08 A2981 RMK AC2 SLP123

CYQF;2011-04-12 05:00;CYQF 120500Z 27004KT 15SM FEW100 01/M09 A2984 RMK AC1 SLP131

CYQF;2011-04-12 06:00;CYQF 120600Z 29005KT 15SM SKC M00/M10 A2987 RMK SLP147

CYQF;2011-04-12 07:00;CYQF 120700Z 27005KT 15SM SKC M01/M11 A2989 RMK SLP153

CYQF;2011-04-12 08:00;CYQF 120800Z 29005KT 15SM FEW100 M01/M11 A2991 RMK AC1 SLP158

CYQF;2011-04-12 09:00;CYQF 120900Z 27005KT 15SM FEW100 M03/M12 A2993 RMK AC1 SLP171

CYQF;2011-04-12 10:00;CYQF 121000Z 29008KT 15SM SKC M02/M12 A2995 RMK AURBO SLP176

CYQF;2011-04-12 11:00;CYQF 121100Z 28005KT 15SM SKC M03/M12 A2997 RMK SLP183

CYQF;2011-04-12 12:00;CYQF 121200Z 27004KT 15SM FEW100 M04/M12 A2998 RMK AC1 SLP190

CYQF;2011-04-12 13:00;CYQF 121300Z 22003KT 15SM FEW100 M05/M12 A3000 RMK AC1 SLP195

CYQF;2011-04-12 14:00;CYQF 121400Z 29002KT 15SM FEW100 M02/M12 A3001 RMK AC1 SLP198

CYQF;2011-04-12 15:00;CYQF 121500Z 28007KT 15SM FEW100 00/M11 A3003 RMK AC1 SLP204

CYQF;2011-04-12 16:00;CYQF 121600Z 31010KT 15SM FEW040 01/M10 A3004 RMK CU1 SLP209

CYQF;2011-04-12 17:00;CYQF 121700Z 31010G15KT 15SM FEW040 03/M09 A3005 RMK CU1 SLP212

CYQF;2011-04-12 18:00;CYQF 121800Z 34010G15KT 15SM FEW040 03/M08 A3006 RMK CU1 SLP218

CYQF;2011-04-12 19:00;CYQF 121900Z 31010G15KT 15SM FEW050 04/M08 A3007 RMK CU1 SLP219

CYQF;2011-04-12 20:00;CYQF 122000Z 36010G15KT 15SM FEW045 BKN250 04/M07 A3007 RMK CU1CI0 SLP221

CYQF;2011-04-12 21:00;CYQF 122100Z 01010G15KT 15SM FEW045 OVC250 04/M07 A3008 RMK CU1CI0 SLP226

CYQF;2011-04-12 22:00;CYQF 122200Z 04007KT 15SM FEW045 BKN250 04/M07 A3008 RMK CU1CI0 SLP226

CYQF;2011-04-12 23:00;CYQF 122300Z 04010KT 15SM FEW045 SCT250 04/M06 A3007 RMK CU1CI0 SLP225

CYQF;2011-04-13 00:00;CYQF 130000Z 09007KT 15SM FEW045 BKN250 03/M07 A3010 RMK CU1CI1 SLP235

CYQF;2011-04-13 01:00;CYQF 130100Z 07007KT 15SM FEW040 FEW100 BKN250 03/M09 A3011 RMK CU1AC1CI1 TR CU AC SLP237

CYQF;2011-04-13 02:00;CYQF 130200Z 06003KT 15SM FEW100 BKN250 02/M09 A3011 RMK AC2CI1 SLP239

CYQF;2011-04-13 03:00;CYQF 130300Z 06002KT 15SM SCT100 BKN250 01/M08 A3013 RMK AC2CI1 SLP242

CYQF;2011-04-13 04:00;CYQF 130400Z 07004KT 15SM SCT100 M01/M08 A3013 RMK AC2 SLP243

CYQF;2011-04-13 05:00;CYQF 130500Z 12002KT 15SM BKN100 M01/M08 A3013 RMK AC3 SLP244

CYQF;2011-04-13 06:00;CYQF 130600Z 09004KT 15SM BKN100 M00/M08 A3013 RMK AC6 SLP241

CYQF;2011-04-13 07:00;CYQF 130700Z 12005KT 15SM BKN100 M01/M08 A3014 RMK AC6 SLP244

CYQF;2011-04-13 08:00;CYQF 130800Z 15010KT 15SM BKN100 M02/M08 A3014 RMK AC7 SLP244

CYQF;2011-04-13 09:00;CYQF 130900Z 14010KT 15SM BKN100 M02/M08 A3013 RMK AC6 SLP242

CYQF;2011-04-13 10:00;CYQF 131000Z 15008KT 15SM BKN100 M02/M08 A3013 RMK AC4 SLP241

CYQF;2011-04-13 11:00;CYQF 131100Z 12008KT 15SM FEW100 M03/M08 A3011 RMK AC1 SLP237

CYQF;2011-04-13 12:00;CYQF 131200Z 13010G15KT 15SM FEW100 FEW250 M03/M08 A3010 RMK AC1CI0 SLP235

CYQF;2011-04-13 13:00;CYQF 131300Z 13012KT 15SM FEW100 BKN250 M03/M08 A3009 RMK AC1CI1 SLP232

CYQF;2011-04-13 14:00;CYQF 131400Z 12010KT 15SM FEW100 BKN250 M03/M08 A3009 RMK AC1CI1 SLP230

CYQF;2011-04-13 15:00;CYQF 131500Z 12010KT 15SM FEW100 BKN250 M02/M08 A3008 RMK AC1CI1 SLP230

CYQF;2011-04-13 16:00;CYQF 131600Z 13010G15KT 15SM FEW120 BKN250 M00/M07 A3008 RMK AC2CI1 SLP229

CYQF;2011-04-13 17:00;CYQF 131700Z 12015G20KT 15SM FEW120 BKN250 01/M07 A3007 RMK AC2CI1 SLP227

CYQF;2011-04-13 18:00;CYQF 131800Z 12015G20KT 15SM FEW100 BKN250 02/M06 A3006 RMK AC2CI2 SLP219

CYQF;2011-04-13 19:00;CYQF 131900Z 13015G20KT 15SM FEW100 BKN250 04/M06 A3005 RMK AC2CI2 SLP214

CYQF;2011-04-13 20:00;CYQF 132000Z 12015G20KT 15SM FEW100 BKN250 05/M05 A3003 RMK AC1CI1 SLP209

CYQF;2011-04-13 21:00;CYQF 132100Z 12015G20KT 15SM FEW080 BKN250 06/M05 A3001 RMK AC2CI1 SLP198

CYQF;2011-04-13 22:00;CYQF 132200Z 12015G25KT 15SM FEW050 FEW100 BKN250 07/M05 A2999 RMK CU1AC1CI2 SLP192

CYQF;2011-04-13 23:00;CYQF 132300Z 12013G19KT 15SM FEW050 SCT100 BKN250 06/M05 A2998 RMK CU1AC3CI1 SLP191

CYQF;2011-04-14 00:00;CYQF 140000Z 11015G20KT 15SM FEW050 BKN100 OVC250 06/M05 A2998 RMK SC2AC2CI3 SLP189

CYQF;2011-04-14 01:00;CYQF 140100Z 11010G15KT 15SM SCT050 OVC100 05/M05 A2997 RMK SC4AC3 SLP188

CYQF;2011-04-14 02:00;CYQF 140200Z 11010G15KT 15SM BKN050 OVC100 04/M05 A2997 RMK SC5AC3 SLP186

CYQF;2011-04-14 03:00;CYQF 140300Z 10012KT 15SM SCT050 OVC100 04/M05 A2998 RMK SC4AC2 SLP190

CYQF;2011-04-14 04:00;CYQF 140400Z 12010G17KT 15SM OVC075 03/M05 A2998 RMK AC8 SLP192

CYQF;2011-04-14 04:31;CYQF 140431Z 11017G27KT 10SM -SN OVC075 RMK AC8

CYQF;2011-04-14 05:00;CYQF 140500Z 12012G18KT 4SM -SN OVC075 01/M04 A2999 RMK AC8 SLP194

CYQF;2011-04-14 06:00;CYQF 140600Z 10010G15KT 6SM -SN OVC050 01/M04 A2997 RMK SC8 SLP188

CYQF;2011-04-14 07:00;CYQF 140700Z 09011G17KT 6SM -SN SCT011 OVC040 01/M04 A2996 RMK SC3SC5 SLP183

CYQF;2011-04-14 08:00;CYQF 140800Z 08010KT 6SM -SN FEW013 OVC030 01/M04 A2994 RMK SC2SC6 SLP177

CYQF;2011-04-14 09:00;CYQF 140900Z 07010KT 5SM -SN SCT009 OVC015 00/M04 A2993 RMK SC4SC4 SLP168

CYQF;2011-04-14 10:00;CYQF 141000Z 09010G18KT 3SM -SN BKN009 OVC015 00/M04 A2991 RMK SC6SC2 SLP162

CYQF;2011-04-14 10:19;CYQF 141019Z 09010G15KT 2SM -SN OVC009 RMK SN2SC6 VIS VRB 1-3

CYQF;2011-04-14 11:00;CYQF 141100Z 08010KT 2SM -SN OVC010 M00/M04 A2989 RMK SN4SC4 VIS VRB 1-3 SLP155

CYQF;2011-04-14 12:00;CYQF 141200Z 08010KT 2SM -SN OVC008 M01/M04 A2988 RMK SN4SC4 VIS VRB 1-3 SLP151

CYQF;2011-04-14 12:42;CYQF 141242Z 08009KT 3/4SM -SN VV005 RMK SN8 VIS VRB 1/2-1

CYQF;2011-04-14 13:00;CYQF 141300Z CCA 08007KT 1/2SM SN VV005 M01/M05 A2987 RMK SN8 /S02/ SLP148

CYQF;2011-04-14 14:00;CYQF 141400Z 07007KT 3/4SM -SN VV005 M02/M05 A2986 RMK SN8 CIG EST VIS VRB 1/2-1 /S04/ SLP145

CYQF;2011-04-14 15:00;CYQF 141500Z 06008KT 3/4SM -SN VV005 M02/M05 A2985 RMK SN8 CIG EST VIS VRB 1/2-1 /S06/ SLP146

CYQF;2011-04-14 16:00;CYQF 141600Z 06006KT 3/4SM -SN VV005 M02/M05 A2983 RMK SN8 CIG EST VIS VRB 1/2 - 1 /S08/ SLP140

CYQF;2011-04-14 16:10;CYQF 141610Z 05005KT 1/2SM SN VV004 RMK SN8 CIG EST WND EST

CYQF;2011-04-14 17:00;CYQF 141700Z 09005KT 1/2SM SN VV004 M02/M05 A2983 RMK SN8 CIG EST /S10/ WIND EST SLP138

CYQF;2011-04-14 17:14;CYQF 141714Z 09008KT 3/4SM -SN VV005 RMK SN8 CIG EST RESN VIS VRB 1/2 - 1

CYQF;2011-04-14 17:42;CYQF 141742Z 08010KT 1SM -SN OVC008 RMK SN6SC2 CIG EST RESN

CYQF;2011-04-14 18:00;CYQF 141800Z 09008KT 1SM -SN OVC008 M01/M05 A2983 RMK SN6SC2 CIG EST /S11/ SLP140

CYQF;2011-04-14 19:00;CYQF 141900Z 11005KT 1SM -SN OVC008 M00/M04 A2983 RMK SN5SC3 SLP140

CYQF;2011-04-14 19:22;CYQF 141922Z 10003KT 2SM -SN OVC008 RMK SN3SC5 CIG EST

CYQF;2011-04-14 20:00;CYQF 142000Z 11004KT 2SM -SN OVC010 00/M04 A2983 RMK SN3SC5 SLP140

CYQF;2011-04-14 21:00;CYQF 142100Z 15004KT 2SM -SN BR OVC010 00/M04 A2983 RMK SN3SC5 CIG RAG SLP140

CYQF;2011-04-14 22:00;CYQF 142200Z 00000KT 1SM -SN BR OVC010 01/M04 A2983 RMK SN5SC3 CIG RAG SLP140

CYQF;2011-04-14 23:00;CYQF 142300Z 00000KT 1SM -SN BR OVC010 01/M03 A2985 RMK SN5SC3 CIG RAG SLP145

CYQF;2011-04-14 23:31;CYQF 142331Z 36003KT 3/4SM -SN BR OVC010 RMK SN4SC4

CYQF;2011-04-15 00:00;CYQF 150000Z 28003KT 2SM -SN BR OVC010 00/M03 A2986 RMK SC8 CIG RAG SLP152

CYQF;2011-04-15 00:04;CYQF 150004Z 29003KT 4SM -SN BR OVC010 RMK SC6

CYQF;2011-04-15 00:34;CYQF 150034Z 29003KT 8SM -SN BKN011 OVC090 RMK SC5AC2

CYQF;2011-04-15 01:00;CYQF 150100Z 30003KT 10SM -SN BKN011 OVC090 M00/M04 A2987 RMK SC5AC2 SLP155

CYQF;2011-04-15 01:18;CYQF 150118Z 29002KT 10SM BKN011 OVC090 RMK SC6AC2

CYQF;2011-04-15 02:00;CYQF 150200Z 00000KT 10SM BKN015 OVC090 M01/M05 A2989 RMK SC6AC2 SLP160

CYQF;2011-04-15 03:00;CYQF 150300Z 22005KT 10SM BKN020 OVC090 M01/M05 A2991 RMK SC6AC2 SLP172

CYQF;2011-04-15 04:00;CYQF 150400Z 24004KT 10SM SCT020 OVC090 M01/M05 A2993 RMK SC3AC4 SLP177

CYQF;2011-04-15 05:00;CYQF 150500Z 24005KT 10SM FEW020 BKN090 M02/M05 A2993 RMK SC2AC2 SLP178

CYQF;2011-04-15 06:00;CYQF 150600Z 25004KT 12SM FEW090 FEW230 M03/M07 A2994 RMK AC1CI2 SLP183

CYQF;2011-04-15 07:00;CYQF 150700Z 00000KT 10SM SCT090 M04/M08 A2994 RMK AC3 SLP182

CYQF;2011-04-15 07:25;CYQF 150725Z 20002KT 2SM BR FEW090 RMK FG1AC2

CYQF;2011-04-15 07:43;CYQF 150743Z 23002KT 1SM BR SKC RMK FG1

CYQF;2011-04-15 07:52;CYQF 150752Z 00000KT 1/2SM FZFG SKC RMK FG2 ROOF VIS 3

CYQF;2011-04-15 08:00;CYQF 150800Z 00000KT 3SM BR SKC M04/M08 A2993 RMK SLP180

CYQF;2011-04-15 08:20;CYQF 150820Z 00000KT 1/2SM FZFG SKC RMK FG2

CYQF;2011-04-15 09:00;CYQF 150900Z 00000KT 1/8SM FZFG SKC M07/M11 A2991 RMK FG2 SLP177

CYQF;2011-04-15 10:00;CYQF 151000Z 27002KT 1/8SM FZFG SKC M08/M11 A2991 RMK FG6 SLP177

CYQF;2011-04-15 10:48;CYQF 151048Z 00000KT 1SM BR OVC005 RMK ST8

CYQF;2011-04-15 11:00;CYQF 151100Z 00000KT 1/2SM FZFG OVC005 M06/M09 A2992 RMK FG3ST5 SLP180

CYQF;2011-04-15 12:00;CYQF 151200Z 00000KT 1/2SM FZFG VV005 M07/M08 A2992 RMK FG8 SLP178

CYQF;2011-04-15 13:00;CYQF 151300Z 00000KT 1/4SM FZFG VV004 M06/M06 A2992 RMK FG8 CIG EST SLP180

CYQF;2011-04-15 13:18;CYQF 151318Z 35002KT 0SM FZFG VV000 RMK FG8 CIG EST

CYQF;2011-04-15 13:39;CYQF 151339Z 31002KT 1/4SM FZFG VV003 RMK FG8 CIG EST

CYQF;2011-04-15 13:47;CYQF 151347Z 30002KT 3/4SM BR VV006 RMK FG8 CIG EST VIS VRB 1/2-1

CYQF;2011-04-15 14:00;CYQF 151400Z 00000KT 1/4SM FZFG VV003 M06/M07 A2993 RMK FG8 CIG EST VIS VRB 1/8-3/8 SLP183

CYQF;2011-04-15 15:00;CYQF 151500Z 32004KT 1/4SM FZFG VV003 M05/M05 A2994 RMK FG8 CIG EST VIS VRB 1/8-3/8 SLP185

CYQF;2011-04-15 15:48;CYQF 151548Z 34004KT 1/2SM FZFG VV003 RMK FG8 CIG EST FROIN

CYQF;2011-04-15 16:00;CYQF 151600Z 33003KT 1/2SM FZFG VV002 M04/M04 A2994 RMK FG8 CIG EST FROIN SLP185

CYQF;2011-04-15 16:38;CYQF 151638Z 31005KT 1SM BR VV003 RMK FG8 FROIN CIG EST

CYQF;2011-04-15 17:00;CYQF 151700Z 32004KT 1 1/2SM BR OVC003 M03/M03 A2995 RMK FG2ST6 SLP189

CYQF;2011-04-15 17:28;CYQF 151728Z 31007KT 3SM BR OVC003 RMK ST8

CYQF;2011-04-15 18:00;CYQF 151800Z 33005KT 5SM BR OVC004 M02/M05 A2995 RMK ST8 CIG EST SLP190

CYQF;2011-04-15 18:49;CYQF 151849Z 32010KT 10SM BKN007 RMK ST6 CIG EST

CYQF;2011-04-15 19:00;CYQF 151900Z 33006KT 10SM BKN007 M01/M06 A2995 RMK ST6 CIG EST SLP189

CYQF;2011-04-15 19:49;CYQF 151949Z 33011KT 10SM FEW007 BKN015 RMK ST2SC4

CYQF;2011-04-15 20:00;CYQF 152000Z 34010KT 10SM FEW008 BKN015 00/M06 A2996 RMK ST2SC5 SLP191

CYQF;2011-04-15 21:00;CYQF 152100Z 34011KT 12SM BKN022 01/M07 A2996 RMK SC6 SLP195

CYQF;2011-04-15 22:00;CYQF 152200Z 35010KT 15SM OVC025 01/M07 A2997 RMK SC7 SLP198

CYQF;2011-04-15 23:00;CYQF 152300Z 01004KT 15SM OVC030 01/M07 A2998 RMK SC8 SLP200

CYQF;2011-04-16 00:00;CYQF 160000Z 01005KT 15SM BKN025 OVC070 01/M07 A2999 RMK SC6AC2 SLP203

CYQF;2011-04-16 01:00;CYQF 160100Z 36003KT 15SM BKN025 OVC070 01/M06 A3000 RMK SC6AC2 SLP206

CYQF;2011-04-16 02:00;CYQF 160200Z 00000KT 15SM BKN030 OVC080 01/M06 A3000 RMK SC5AC3 SLP207

CYQF;2011-04-16 03:00;CYQF 160300Z 00000KT 15SM FEW030 BKN080 00/M06 A3000 RMK SC2AC3 SLP206

CYQF;2011-04-16 04:00;CYQF 160400Z 00000KT 15SM FEW030 BKN100 M01/M07 A3001 RMK SC1AC3 SLP208

CYQF;2011-04-16 05:00;CYQF 160500Z 01005KT 15SM BKN050 BKN100 M01/M07 A3002 RMK SC5AC2 SLP210

CYQF;2011-04-16 06:00;CYQF 160600Z 00000KT 15SM BKN050 M02/M07 A3001 RMK SC6 SLP207

CYQF;2011-04-16 07:00;CYQF 160700Z 00000KT 15SM FEW050 M03/M07 A2999 RMK SC2 SLP203

CYQF;2011-04-16 08:00;CYQF 160800Z 00000KT 12SM FEW050 M04/M08 A2999 RMK SC2 BR SLP203

CYQF;2011-04-16 09:00;CYQF 160900Z 00000KT 10SM BKN030 M04/M08 A2999 RMK SC6 BR SLP200

CYQF;2011-04-16 10:00;CYQF 161000Z 04002KT 10SM BKN030 M04/M08 A2999 RMK SC6 BR SLP200

CYQF;2011-04-16 11:00;CYQF 161100Z 05004KT 5SM BR FEW030 BKN250 M05/M09 A2997 RMK SC2CI0 SLP195

CYQF;2011-04-16 12:00;CYQF 161200Z 00000KT 5SM BR BKN250 M06/M10 A2997 RMK CI2 SLP195

CYQF;2011-04-16 13:00;CYQF 161300Z 00000KT 3SM BR FEW030 BKN250 M06/M10 A2997 RMK SC1CI2 SLP195

CYQF;2011-04-16 14:00;CYQF 161400Z 05004KT 3SM BR BKN008 OVC030 M04/M08 A2997 RMK ST6SC2 OBS TAKEN +09 SLP195

CYQF;2011-04-16 14:20;CYQF 161420Z 07007KT 1 1/2SM BR VV007 RMK FG8

CYQF;2011-04-16 15:00;CYQF 161500Z 09007KT 1 1/2SM BR VV007 M04/M08 A2996 RMK FG8 CIG EST SLP190

CYQF;2011-04-16 16:00;CYQF 161600Z 07007KT 3SM BR OVC008 M04/M08 A2995 RMK ST8 SLP186

CYQF;2011-04-16 17:00;CYQF 161700Z 09010KT 10SM OVC012 M02/M07 A2993 RMK SC7 SLP180

CYQF;2011-04-16 18:00;CYQF 161800Z 10007KT 15SM BKN015 OVC060 M01/M08 A2991 RMK SC6SC2 SLP173

CYQF;2011-04-16 19:00;CYQF 161900Z 11008KT 12SM -SN BKN015 OVC060 M01/M08 A2990 RMK SC6SC2 SLP169

CYQF;2011-04-16 20:00;CYQF 162000Z 15006KT 6SM -SN BKN012 OVC030 M00/M08 A2989 RMK SF5SC3 SLP166

CYQF;2011-04-16 20:40;CYQF 162040Z 08005KT 1 1/2SM -SN OVC015 RMK SN3SC5 VIS VRB 1-2

CYQF;2011-04-16 21:00;CYQF 162100Z 09007KT 1SM -SN OVC010 M02/M06 A2988 RMK SN3SC5 SLP164

CYQF;2011-04-16 22:00;CYQF 162200Z 09007KT 1 1/2SM -SN BKN010 OVC080 M02/M06 A2987 RMK SN2SC5AS2 VIS VRB 1-2 SLP161

CYQF;2011-04-16 23:00;CYQF 162300Z 07008KT 1 1/2SM -SN OVC010 M02/M06 A2987 RMK SN3SC5 VIS VRB 1-2 SLP163

CYQF;2011-04-17 00:00;CYQF 170000Z 07008KT 1 1/2SM -SN OVC010 M02/M06 A2988 RMK SN3SC5 VIS VRB 1-2 /S01/ SLP169

CYQF;2011-04-17 01:00;CYQF 170100Z 07008KT 1 1/2SM -SN SCT010 BKN080 OVC220 M03/M07 A2989 RMK SC4AS2CS2 VIS VRB 1-2 SLP170

CYQF;2011-04-17 01:35;CYQF 170135Z 07009KT 3SM -SN SCT010 BKN100 BKN240 RMK SC4AC2CC2

CYQF;2011-04-17 01:49;CYQF 170149Z 06008KT 6SM -SN SCT010 BKN100 BKN240 RMK SC3AC2CC2

CYQF;2011-04-17 02:00;CYQF 170200Z 06009KT 6SM -SN SCT010 BKN100 OVC240 M03/M07 A2990 RMK SC3AC2CI2 SLP174

CYQF;2011-04-17 03:00;CYQF 170300Z 06007KT 3SM -SN FEW010 OVC050 M03/M07 A2991 RMK SC2SC6 SLP175

CYQF;2011-04-17 04:00;CYQF 170400Z 05005KT 12SM FEW050 BKN100 BKN240 M04/M08 A2991 RMK SC2AC2CI2 SLP175

CYQF;2011-04-17 05:00;CYQF 170500Z 06004KT 6SM -SN FEW007 OVC050 M04/M08 A2991 RMK SF2SC5 SLP177

CYQF;2011-04-17 05:32;CYQF 170532Z 06005KT 2SM -SN BKN050 OVC100 RMK SC5AC2

CYQF;2011-04-17 06:00;CYQF 170600Z 04004KT 1 1/2SM -SN OVC100 M04/M08 A2991 RMK SN3AC4 SLP173

CYQF;2011-04-17 07:00;CYQF 170700Z 04003KT 1 1/2SM -SN OVC100 M04/M08 A2990 RMK SN3AC4 SLP172

CYQF;2011-04-17 08:00;CYQF 170800Z 03002KT 1 1/2SM -SN OVC100 M04/M08 A2990 RMK SN3AC4 /S01/ SLP171

CYQF;2011-04-17 09:00;CYQF 170900Z 02004KT 3SM -SN OVC100 M04/M08 A2989 RMK AC7 SLP168

CYQF;2011-04-17 10:00;CYQF 171000Z 01005KT 3SM -SN OVC100 M04/M08 A2989 RMK AC7 SLP168

CYQF;2011-04-17 11:00;CYQF 171100Z 01005KT 2SM -SN OVC100 M04/M08 A2989 RMK AC7 /S02/ SLP169

CYQF;2011-04-17 12:00;CYQF 171200Z 36008KT 1 1/2SM -SN OVC050 M05/M09 A2989 RMK SN4SC4 VIS VRB 1-2 SLP171

CYQF;2011-04-17 13:00;CYQF 171300Z 36008KT 1 1/2SM -SN OVC050 M05/M09 A2990 RMK SN4SC4 VIS VRB 1-2 SLP174

CYQF;2011-04-17 14:00;CYQF 171400Z 01007KT 2SM -SN SCT012 OVC050 M05/M09 A2991 RMK SN2SC2SC4 SLP177

CYQF;2011-04-17 15:00;CYQF 171500Z 36007KT 2SM -SN SCT012 OVC050 M05/M09 A2992 RMK SN2SC2SC4 SLP179

CYQF;2011-04-17 16:00;CYQF 171600Z 36006KT 1 1/2SM -SN SCT015 OVC050 M03/M08 A2993 RMK SN2SC2SC3 VIS VRB 1-2 SLP182

CYQF;2011-04-17 17:00;CYQF 171700Z 35004KT 1 1/2SM -SN BKN015 OVC050 M03/M08 A2993 RMK SN2SC2SC3 VIS VRB 1-2 SLP184

CYQF;2011-04-17 18:00;CYQF 171800Z 34005KT 1 1/2SM -SN BKN015 OVC050 M03/M07 A2993 RMK SN3SC3SC2 VIS VRB 1-2 SLP182

CYQF;2011-04-17 19:00;CYQF 171900Z 18003KT 3/4SM -SN VV007 M02/M07 A2993 RMK SN8 CIG EST SLP182

CYQF;2011-04-17 19:39;CYQF 171939Z 17003KT 1 1/2SM -SN OVC012 RMK SN4SC4 VIS VRB 1-2

CYQF;2011-04-17 20:00;CYQF 172000Z 00000KT 2SM -SN BKN012 OVC050 M02/M07 A2993 RMK SN2SC3SC3 SLP182

CYQF;2011-04-17 20:44;CYQF 172044Z 00000KT 3SM -SN BKN012 OVC050 RMK SC6SC2

CYQF;2011-04-17 21:00;CYQF 172100Z 18002KT 3SM -SN BKN012 OVC050 M02/M07 A2993 RMK SC6SC2 SLP182

CYQF;2011-04-17 21:22;CYQF 172122Z 00000KT 8SM FEW010 BKN030 OVC250 RMK CF1CU6CI1

CYQF;2011-04-17 22:00;CYQF 172200Z 00000KT 12SM BKN030TCU OVC250 M01/M07 A2992 RMK TCU5CI2 SLP180

CYQF;2011-04-17 23:00;CYQF 172300Z 00000KT 12SM VCSH BKN020TCU OVC250 M01/M07 A2992 RMK TCU5CI2 SLP180

CYQF;2011-04-18 00:00;CYQF 180000Z 07002KT 15SM VCSH SCT028TCU OVC250 M02/M08 A2992 RMK TCU3CI3 SLP180

CYQF;2011-04-18 01:00;CYQF 180100Z 00000KT 15SM FEW028TCU BKN250 M01/M08 A2992 RMK TCU2CI3 SLP180

CYQF;2011-04-18 02:00;CYQF 180200Z 00000KT 15SM SCT030 BKN250 M02/M09 A2993 RMK SC3CI2 TCU SLP181

CYQF;2011-04-18 03:00;CYQF 180300Z 00000KT 15SM FEW030 SCT250 M04/M09 A2993 RMK SC1CI2 SLP184

CYQF;2011-04-18 04:00;CYQF 180400Z 00000KT 15SM FEW030 FEW250 M06/M11 A2994 RMK SC1CI1 SLP186

CYQF;2011-04-18 05:00;CYQF 180500Z 24003KT 15SM FEW250 M07/M11 A2993 RMK CI1 SLP184

CYQF;2011-04-18 06:00;CYQF 180600Z 00000KT 15SM SKC M07/M11 A2992 RMK SLP183

CYQF;2011-04-18 07:00;CYQF 180700Z 00000KT 5SM BR SKC M08/M12 A2992 RMK VIS S 2 SLP181

CYQF;2011-04-18 07:30;CYQF 180730Z 00000KT 1/2SM FZFG SKC RMK FG2

CYQF;2011-04-18 08:00;CYQF 180800Z 00000KT 1SM BR SKC M10/M15 A2991 RMK FG2 VIS VRB 1/2-11/2 SLP179

CYQF;2011-04-18 08:37;CYQF 180837Z 00000KT 1/8SM FZFG SKC RMK FG3

CYQF;2011-04-18 09:00;CYQF 180900Z 00000KT 1/8SM FZFG SKC M11/M15 A2990 RMK FG5 SLP179

CYQF;2011-04-18 10:00;CYQF 181000Z 00000KT 1/8SM FZFG SKC M11/M15 A2989 RMK FG5 SLP177

CYQF;2011-04-18 11:00;CYQF 181100Z 00000KT 1/8SM FZFG SKC M11/M13 A2989 RMK FG4 SLP177

CYQF;2011-04-18 11:37;CYQF 181137Z 00000KT 1SM BR SKC RMK FG2

CYQF;2011-04-18 12:00;CYQF 181200Z 00000KT 1SM BR SKC M12/M14 A2990 RMK FG2 SLP180

CYQF;2011-04-18 12:15;CYQF 181215Z 27003KT 1/2SM FZFG SKC RMK FG2

CYQF;2011-04-18 12:35;CYQF 181235Z 00000KT 1/4SM FZFG SKC RMK FG3

CYQF;2011-04-18 13:00;CYQF 181300Z 00000KT 3/4SM BR SKC M13/M14 A2990 RMK FG2 VIS VRB 1/2-1 SLP180

CYQF;2011-04-18 13:38;CYQF 181338Z 00000KT 1/4SM FZFG SKC RMK FG2

CYQF;2011-04-18 13:50;CYQF 181350Z 00000KT 3SM BR SKC RMK FG1 VIS SE-S 1

CYQF;2011-04-18 14:00;CYQF 181400Z 00000KT 3SM BR SKC M12/M13 A2990 RMK FG1 SLP181

CYQF;2011-04-18 15:00;CYQF 181500Z 21003KT 5SM BR SKC M10/M11 A2990 RMK FG1 VIS E 1 SLP181

CYQF;2011-04-18 16:00;CYQF 181600Z 22003KT 8SM SKC M09/M10 A2990 RMK SLP182

CYQF;2011-04-18 17:00;CYQF 181700Z 00000KT 10SM SKC M07/M08 A2990 RMK SLP182

CYQF;2011-04-18 18:00;CYQF 181800Z 00000KT 12SM SKC M05/M09 A2990 RMK SLP177

CYQF;2011-04-18 19:00;CYQF 181900Z 00000KT 12SM FEW045 M03/M09 A2989 RMK CU1 SLP175

CYQF;2011-04-18 20:00;CYQF 182000Z 00000KT 12SM FEW032 M01/M09 A2988 RMK CU1 SLP173

CYQF;2011-04-18 21:00;CYQF 182100Z 15006KT 15SM FEW036 00/M09 A2988 RMK CU1 SLP170

CYQF;2011-04-18 22:00;CYQF 182200Z 14003KT 15SM FEW040 00/M10 A2988 RMK CU1 SLP170

CYQF;2011-04-18 23:00;CYQF 182300Z 16003KT 15SM FEW040 00/M10 A2987 RMK SC1 SLP168

CYQF;2011-04-19 00:00;CYQF 190000Z 17004KT 15SM FEW040 00/M10 A2987 RMK SC1 SLP169

CYQF;2011-04-19 01:00;CYQF 190100Z 19002KT 15SM SKC M00/M09 A2988 RMK SLP173

CYQF;2011-04-19 02:00;CYQF 190200Z 18002KT 15SM SKC M01/M10 A2989 RMK SLP174

CYQF;2011-04-19 03:00;CYQF 190300Z 00000KT 15SM FEW240 M03/M10 A2990 RMK CI1 SLP179

CYQF;2011-04-19 04:00;CYQF 190400Z 00000KT 15SM FEW240 M05/M10 A2990 RMK CI1 SLP181

CYQF;2011-04-19 05:00;CYQF 190500Z 18002KT 15SM FEW240 M05/M10 A2991 RMK CI1 SLP183

CYQF;2011-04-19 06:00;CYQF 190600Z 00000KT 15SM SKC M06/M10 A2991 RMK SLP180

CYQF;2011-04-19 07:00;CYQF 190700Z 00000KT 15SM SKC M07/M11 A2991 RMK SLP181

CYQF;2011-04-19 08:00;CYQF 190800Z 17002KT 15SM SKC M08/M12 A2991 RMK SLP180

CYQF;2011-04-19 09:00;CYQF 190900Z 00000KT 12SM SKC M09/M13 A2991 RMK BR SLP177

CYQF;2011-04-19 10:00;CYQF 191000Z 00000KT 10SM SKC M09/M13 A2991 RMK BR SLP178

CYQF;2011-04-19 10:38;CYQF 191038Z 00000KT 1SM BR SKC RMK FG2

CYQF;2011-04-19 11:00;CYQF 191100Z 19003KT 10SM SKC M09/M13 A2991 RMK BR SLP179

CYQF;2011-04-19 12:00;CYQF 191200Z 21003KT 10SM SKC M09/M13 A2992 RMK BR SLP181

CYQF;2011-04-19 13:00;CYQF 191300Z 21004KT 12SM SKC M10/M15 A2992 RMK BR COTRA SLP182

CYQF;2011-04-19 14:00;CYQF 191400Z 21003KT 10SM SKC M09/M13 A2993 RMK HZ SLP185

CYQF;2011-04-19 15:00;CYQF 191500Z 20002KT 12SM FEW250 M07/M12 A2994 RMK CI1 SLP191

CYQF;2011-04-19 16:00;CYQF 191600Z 23002KT 15SM FEW250 M05/M11 A2995 RMK CI1 SLP192

CYQF;2011-04-19 17:00;CYQF 191700Z 24002KT 15SM FEW250 M03/M10 A2994 RMK CI1 SLP191

CYQF;2011-04-19 18:00;CYQF 191800Z CCA 22003KT 15SM FEW030 M01/M09 A2994 RMK CU1 SLP187

CYQF;2011-04-19 19:00;CYQF 191900Z 21002KT 15SM FEW035 00/M08 A2994 RMK CU1 CU DIST SW-NW TCU ASOCTD SLP185

CYQF;2011-04-19 20:00;CYQF 192000Z 27002KT 15SM FEW037TCU FEW250 02/M08 A2993 RMK TCU1CI1 TCU DIST SW-NW SLP182

CYQF;2011-04-19 21:00;CYQF 192100Z 24002KT 15SM FEW250 03/M08 A2992 RMK CI1 SLP180

CYQF;2011-04-19 22:00;CYQF 192200Z 19005KT 15SM FEW040 SCT250 04/M08 A2991 RMK SC1CI4 TCU DIST SLP176

CYQF;2011-04-19 23:00;CYQF 192300Z 18005KT 15SM FEW040 BKN250 04/M07 A2990 RMK CU2CI3 TCU NW SLP174

CYQF;2011-04-20 00:00;CYQF 200000Z 17004KT 15SM FEW040 SCT100 BKN250 03/M08 A2990 RMK CU2AC2CI2 SLP173

CYQF;2011-04-20 01:00;CYQF 200100Z 19004KT 15SM FEW040 SCT100 BKN250 02/M09 A2990 RMK CU1AC3CI2 SLP171

CYQF;2011-04-20 02:00;CYQF 200200Z 18005KT 15SM BKN100 BKN250 02/M08 A2989 RMK AC5CI2 SLP168

CYQF;2011-04-20 03:00;CYQF 200300Z 18005KT 15SM BKN100 BKN250 00/M08 A2989 RMK AC5CI1 SLP169

CYQF;2011-04-20 04:00;CYQF 200400Z 18008KT 15SM BKN100 BKN250 00/M07 A2989 RMK AC5CI1 SLP168

CYQF;2011-04-20 05:00;CYQF 200500Z 21005KT 15SM BKN100 M01/M07 A2989 RMK AC6 SLP169

CYQF;2011-04-20 06:00;CYQF 200600Z 00000KT 15SM FEW040 M01/M07 A2988 RMK SC2 SLP159

CYQF;2011-04-20 07:00;CYQF 200700Z 00000KT 15SM SKC M04/M09 A2987 RMK SLP157

CYQF;2011-04-20 08:00;CYQF 200800Z 19003KT 15SM SKC M04/M09 A2986 RMK SLP155

CYQF;2011-04-20 09:00;CYQF 200900Z 21005KT 15SM FEW250 M05/M10 A2986 RMK CI0 SLP153

CYQF;2011-04-20 10:00;CYQF 201000Z 22006KT 15SM FEW250 M05/M10 A2985 RMK CI0 SLP152

CYQF;2011-04-20 11:00;CYQF 201100Z 23007KT 15SM FEW250 M05/M12 A2985 RMK CI1 SLP151

CYQF;2011-04-20 12:00;CYQF 201200Z 20005KT 15SM FEW120 SCT250 M05/M12 A2985 RMK AC1CI1 SLP148

CYQF;2011-04-20 13:00;CYQF 201300Z 21003KT 15SM FEW120 BKN250 M06/M12 A2985 RMK AC1CI2 SLP148

CYQF;2011-04-20 14:00;CYQF 201400Z 17002KT 15SM FEW100 OVC250 M03/M11 A2985 RMK AC1CI4 SLP148

CYQF;2011-04-20 15:00;CYQF 201500Z 00000KT 15SM BKN250 M02/M11 A2984 RMK CI6 SLP145

CYQF;2011-04-20 16:00;CYQF 201600Z 25003KT 15SM BKN250 00/M09 A2983 RMK CI3 SLP141

CYQF;2011-04-20 17:00;CYQF 201700Z 27003KT 15SM FEW040 SCT250 01/M10 A2982 RMK SC1CI2 CU SLP140

CYQF;2011-04-20 18:00;CYQF 201800Z 25003KT 15SM FEW040 SCT250 03/M08 A2981 RMK CU1CI1 SLP133

CYQF;2011-04-20 19:00;CYQF 201900Z 00000KT 15SM FEW051 FEW250 04/M09 A2980 RMK CU1CI1 SLP130

CYQF;2011-04-20 20:00;CYQF 202000Z 04003KT 15SM FEW056 FEW250 05/M10 A2978 RMK CU1CI1 SLP123

CYQF;2011-04-20 21:00;CYQF 202100Z 00000KT 15SM FEW055 FEW250 06/M09 A2977 RMK CU1CI0 SLP120

CYQF;2011-04-20 22:00;CYQF 202200Z 18003KT 15SM FEW064 FEW250 06/M10 A2976 RMK CU1CI1 SLP117

CYQF;2011-04-20 23:00;CYQF 202300Z 15005KT 15SM FEW055 FEW250 06/M09 A2975 RMK CU1CI0 SLP114

CYQF;2011-04-21 00:00;CYQF 210000Z 18004KT 15SM FEW050 FEW250 06/M09 A2975 RMK CU1CI0 SLP111

CYQF;2011-04-21 01:00;CYQF 210100Z 15005KT 15SM FEW050 FEW250 06/M11 A2974 RMK CU1CI0 SLP109

CYQF;2011-04-21 02:00;CYQF 210200Z 00000KT 15SM FEW060 FEW250 05/M11 A2974 RMK CU1CI0 SLP107

CYQF;2011-04-21 03:00;CYQF 210300Z 00000KT 15SM FEW060 FEW250 03/M09 A2974 RMK SC1CI0 SLP107

CYQF;2011-04-21 04:00;CYQF 210400Z 01003KT 15SM FEW060 00/M06 A2975 RMK SC1 SLP111

CYQF;2011-04-21 05:00;CYQF 210500Z 00000KT 15SM FEW060 01/M06 A2976 RMK SC1 SLP112

CYQF;2011-04-21 06:00;CYQF 210600Z 00000KT 15SM SCT060 01/M07 A2975 RMK SC2 SLP108

CYQF;2011-04-21 07:00;CYQF 210700Z 04004KT 15SM SCT150 01/M08 A2975 RMK AC3 SLP109

CYQF;2011-04-21 08:00;CYQF 210800Z 00000KT 15SM FEW150 M01/M06 A2975 RMK AC2 SLP109

CYQF;2011-04-21 09:00;CYQF 210900Z 00000KT 15SM FEW150 M02/M07 A2974 RMK AC2 SLP106

CYQF;2011-04-21 10:00;CYQF 211000Z 00000KT 15SM FEW150 M03/M07 A2975 RMK AC1 SLP107

CYQF;2011-04-21 11:00;CYQF 211100Z 00000KT 15SM FEW120 FEW250 M04/M08 A2974 RMK AC1CI0 SLP106

CYQF;2011-04-21 12:00;CYQF 211200Z 00000KT 15SM FEW100 FEW250 M05/M06 A2975 RMK AC1CI0 SLP112

CYQF;2011-04-21 13:00;CYQF 211300Z 35002KT 15SM FEW100 SCT250 M05/M08 A2976 RMK ACC1CI2 SLP114

CYQF;2011-04-21 14:00;CYQF 211400Z 00000KT 15SM BKN100 BKN250 M03/M06 A2977 RMK AC5CI2 SLP117

CYQF;2011-04-21 15:00;CYQF 211500Z 00000KT 15SM BKN100 BKN250 M02/M08 A2977 RMK ACC5CI2 SLP120

CYQF;2011-04-21 16:00;CYQF 211600Z 00000KT 15SM BKN100 BKN250 M01/M05 A2978 RMK ACC5CI2 VIRGA SLP121

CYQF;2011-04-21 17:00;CYQF 211700Z 34004KT 15SM BKN100 OVC250 02/M05 A2978 RMK AC5CI2 VIRGA SLP122

CYQF;2011-04-21 18:00;CYQF 211800Z 15002KT 15SM FEW100 OVC250 04/M05 A2979 RMK AC2CS4 HAO SLP122

CYQF;2011-04-21 19:00;CYQF 211900Z 29004KT 15SM FEW040 SCT100 OVC250 05/M05 A2979 RMK CU2AC2CS2 SLP122

CYQF;2011-04-21 20:00;CYQF 212000Z 22003KT 15SM FEW044 SCT100 OVC250 06/M05 A2979 RMK CU2AC2CS3 HALO SLP122

CYQF;2011-04-21 21:00;CYQF 212100Z 22002KT 15SM FEW060 FEW100 BKN250 07/M08 A2979 RMK CU1AC1CS3 SLP120

CYQF;2011-04-21 22:00;CYQF 212200Z 16004KT 15SM FEW050 BKN250 08/M06 A2980 RMK CU2CI1 SLP123

CYQF;2011-04-21 23:00;CYQF 212300Z 00000KT 15SM FEW060 SCT250 07/M07 A2980 RMK CU2CI0 SLP125

CYQF;2011-04-22 00:00;CYQF 220000Z 00000KT 15SM FEW050 FEW250 07/M05 A2982 RMK CU1CI1 SLP134

CYQF;2011-04-22 01:00;CYQF 220100Z 29004KT 15SM FEW052 FEW250 07/M06 A2983 RMK CU1CI1 SLP137

CYQF;2011-04-22 02:00;CYQF 220200Z 33004KT 15SM FEW040 SCT250 06/M04 A2985 RMK SC1CI1 SLP142

CYQF;2011-04-22 03:00;CYQF 220300Z 00000KT 15SM FEW040 FEW250 02/M04 A2987 RMK SC1CI1 SLP154

CYQF;2011-04-22 04:00;CYQF 220400Z 00000KT 15SM FEW040 FEW250 02/M04 A2989 RMK SC1CI1 SLP162

CYQF;2011-04-22 05:00;CYQF 220500Z 00000KT 15SM SKC 00/M05 A2990 RMK SLP165

CYQF;2011-04-22 06:00;CYQF 220600Z 00000KT 15SM SKC M01/M04 A2992 RMK SLP169

CYQF;2011-04-22 07:00;CYQF 220700Z 27004KT 15SM SKC M01/M06 A2994 RMK SLP175

CYQF;2011-04-22 08:00;CYQF 220800Z 27006KT 15SM SKC M02/M05 A2995 RMK SLP178

CYQF;2011-04-22 09:00;CYQF 220900Z 00000KT 15SM FEW250 M03/M05 A2995 RMK CI0 SLP177

CYQF;2011-04-22 10:00;CYQF 221000Z 00000KT 15SM SKC M03/M05 A2995 RMK SLP178

CYQF;2011-04-22 11:00;CYQF 221100Z 00000KT 15SM SKC M04/M05 A2996 RMK SLP181

CYQF;2011-04-22 12:00;CYQF 221200Z 00000KT 15SM FEW100 M04/M05 A2996 RMK AC1 SLP183

CYQF;2011-04-22 13:00;CYQF 221300Z 00000KT 15SM FEW100 M04/M06 A2997 RMK AC1 SLP185

CYQF;2011-04-22 14:00;CYQF 221400Z 00000KT 15SM SKC M02/M05 A2998 RMK SLP188

CYQF;2011-04-22 15:00;CYQF 221500Z 29003KT 15SM SKC M00/M06 A2999 RMK SLP194

CYQF;2011-04-22 16:00;CYQF 221600Z 28004KT 15SM SKC 01/M06 A2999 RMK SLP194

CYQF;2011-04-22 17:00;CYQF 221700Z 33002KT 15SM SKC 02/M05 A2999 RMK SLP194

CYQF;2011-04-22 18:00;CYQF 221800Z 35003KT 15SM SKC 04/M05 A2999 RMK SLP192

CYQF;2011-04-22 19:00;CYQF 221900Z 32003KT 15SM FEW045 05/M06 A2998 RMK CU1 SLP189

CYQF;2011-04-22 20:00;CYQF 222000Z 00000KT 15SM FEW040 06/M04 A2997 RMK CU1 SLP186

CYQF;2011-04-22 21:00;CYQF 222100Z 32003KT 15SM FEW050 FEW250 07/M07 A2995 RMK CU1CI1 SLP179

CYQF;2011-04-22 22:00;CYQF 222200Z 00000KT 15SM FEW250 07/M07 A2995 RMK CI1 SLP176

CYQF;2011-04-22 23:00;CYQF 222300Z 00000KT 15SM FEW250 07/M08 A2993 RMK CI1 SLP170

CYQF;2011-04-23 00:00;CYQF 230000Z 18002KT 15SM BKN250 07/M09 A2991 RMK CI2 SLP164

CYQF;2011-04-23 01:00;CYQF 230100Z 00000KT 15SM FEW100 BKN250 07/M08 A2991 RMK AC1CI2 SLP163

CYQF;2011-04-23 02:00;CYQF 230200Z 00000KT 15SM FEW100 BKN250 06/M06 A2990 RMK AC1CI2 SLP161

CYQF;2011-04-23 03:00;CYQF 230300Z 00000KT 15SM SCT250 04/M03 A2990 RMK CI1 SLP161

CYQF;2011-04-23 04:00;CYQF 230400Z 00000KT 15SM FEW250 03/M03 A2991 RMK CI0 SLP163

CYQF;2011-04-23 05:00;CYQF 230500Z 00000KT 15SM SKC 01/M02 A2991 RMK SLP163

CYQF;2011-04-23 06:00;CYQF 230600Z 24006KT 15SM SKC M01/M05 A2990 RMK SLP163

CYQF;2011-04-23 07:00;CYQF 230700Z 20003KT 15SM FEW220 00/M04 A2990 RMK CI0 SLP163

CYQF;2011-04-23 08:00;CYQF 230800Z 21006KT 15SM SCT220 M01/M05 A2990 RMK CI1 SLP163

CYQF;2011-04-23 09:00;CYQF 230900Z 23005KT 15SM FEW220 M01/M06 A2990 RMK CI0 SLP159

CYQF;2011-04-23 10:00;CYQF 231000Z 26005KT 15SM SKC M03/M07 A2990 RMK SLP158

CYQF;2011-04-23 11:00;CYQF 231100Z 00000KT 15SM FEW120 M01/M08 A2991 RMK AC1 SLP163

CYQF;2011-04-23 14:00;CYQF 231400Z 30002KT 15SM BKN250 M00/M07 A2991 RMK CI2 SLP161

CYQF;2011-04-23 15:00;CYQF 231500Z 00000KT 15SM BKN250 01/M07 A2990 RMK CI1 SLP160

CYQF;2011-04-23 16:00;CYQF 231600Z 27003KT 15SM BKN250 03/M05 A2989 RMK CI1 SLP157

CYQF;2011-04-23 17:00;CYQF 231700Z 27002KT 15SM BKN250 05/M04 A2988 RMK CI3 SLP154

CYQF;2011-04-23 18:00;CYQF 231800Z 20004KT 15SM BKN250 06/M05 A2987 RMK CI6 SLP149

CYQF;2011-04-23 19:00;CYQF 231900Z 19003KT 15SM BKN250 07/M06 A2985 RMK CI3 SLP144

CYQF;2011-04-23 20:00;CYQF 232000Z 00000KT 15SM BKN250 08/M07 A2983 RMK CI2 SLP137

CYQF;2011-04-23 21:00;CYQF 232100Z 00000KT 15SM BKN250 09/M07 A2982 RMK CI2 SLP128

CYQF;2011-04-23 22:00;CYQF 232200Z 20007KT 15SM BKN250 10/M06 A2979 RMK CI2 SLP119

CYQF;2011-04-23 23:00;CYQF 232300Z 19002KT 15SM BKN250 10/M05 A2976 RMK CI2 SLP112

CYQF;2011-04-24 00:00;CYQF 240000Z 17003KT 15SM BKN250 10/M05 A2975 RMK CI2 SLP104

CYQF;2011-04-24 01:00;CYQF 240100Z 00000KT 15SM BKN250 10/M08 A2974 RMK CI2 SLP102

CYQF;2011-04-24 02:00;CYQF 240200Z 07004KT 15SM BKN250 09/M06 A2973 RMK CI2 SLP099

CYQF;2011-04-24 03:00;CYQF 240300Z 09003KT 15SM BKN250 06/M03 A2973 RMK CI2 SLP098

CYQF;2011-04-24 04:00;CYQF 240400Z 10002KT 15SM BKN250 05/M06 A2974 RMK CI2 SLP099

CYQF;2011-04-24 05:00;CYQF 240500Z 00000KT 15SM FEW250 03/M04 A2973 RMK CI0 SLP096

CYQF;2011-04-24 06:00;CYQF 240600Z 21003KT 15SM FEW250 01/M03 A2972 RMK CI0 SLP096

CYQF;2011-04-24 07:00;CYQF 240700Z 21005KT 15SM SKC 02/M05 A2972 RMK SLP096

CYQF;2011-04-24 08:00;CYQF 240800Z 00000KT 15SM SKC 01/M05 A2973 RMK SLP097

CYQF;2011-04-24 09:00;CYQF 240900Z 19005KT 15SM SKC M01/M04 A2972 RMK SLP093

CYQF;2011-04-24 10:00;CYQF 241000Z 23008KT 15SM SKC M01/M04 A2971 RMK SLP092

CYQF;2011-04-24 11:00;CYQF 241100Z 23008KT 15SM SKC M01/M05 A2972 RMK SLP093

CYQF;2011-04-24 12:00;CYQF 241200Z 27005KT 15SM FEW250 M01/M06 A2971 RMK CI1 SLP088

CYQF;2011-04-24 13:00;CYQF 241300Z 23005KT 15SM FEW250 M01/M05 A2971 RMK CI1 SLP090

CYQF;2011-04-24 14:00;CYQF 241400Z 00000KT 15SM SKC 01/M05 A2972 RMK SLP092

CYQF;2011-04-24 15:00;CYQF 241500Z 21004KT 15SM SKC 03/M05 A2972 RMK SLP093

CYQF;2011-04-24 16:00;CYQF 241600Z 24003KT 15SM SKC 06/M04 A2972 RMK SLP092

CYQF;2011-04-24 17:00;CYQF 241700Z 29004KT 15SM SKC 08/M04 A2971 RMK SLP090

CYQF;2011-04-24 18:00;CYQF 241800Z 30003KT 15SM SKC 09/M05 A2971 RMK SLP086

CYQF;2011-04-24 19:00;CYQF 241900Z 00000KT 15SM SKC 11/M05 A2970 RMK SLP084

CYQF;2011-04-24 20:00;CYQF 242000Z 00000KT 15SM SKC 12/M07 A2969 RMK SLP082

CYQF;2011-04-24 21:00;CYQF 242100Z 00000KT 15SM SKC 12/M10 A2969 RMK SLP078

CYQF;2011-04-24 22:00;CYQF 242200Z 18003KT 15SM SKC 13/M06 A2968 RMK SLP075

CYQF;2011-04-24 23:00;CYQF 242300Z 15010KT 15SM SKC 13/M06 A2967 RMK SLP072

CYQF;2011-04-25 00:00;CYQF 250000Z 15002KT 15SM SKC 13/M06 A2966 RMK SLP068

CYQF;2011-04-25 01:00;CYQF 250100Z 10004KT 15SM SKC 13/M07 A2966 RMK SLP067

CYQF;2011-04-25 02:00;CYQF 250200Z 14004KT 15SM SKC 12/M06 A2965 RMK SLP065

CYQF;2011-04-25 03:00;CYQF 250300Z 09004KT 15SM FEW100 FEW250 09/M04 A2966 RMK AC1CI0 SLP066

CYQF;2011-04-25 04:00;CYQF 250400Z 10003KT 15SM FEW100 FEW250 07/M06 A2966 RMK AC1CI0 SLP068

CYQF;2011-04-25 05:00;CYQF 250500Z 00000KT 15SM SKC 06/M06 A2966 RMK SLP066

CYQF;2011-04-25 06:00;CYQF 250600Z 17003KT 15SM SKC 06/M08 A2965 RMK SLP059

CYQF;2011-04-25 07:00;CYQF 250700Z 00000KT 15SM FEW150 05/M07 A2965 RMK AC1 SLP059

CYQF;2011-04-25 08:00;CYQF 250800Z 00000KT 15SM FEW150 02/M05 A2964 RMK AC1 SLP058

CYQF;2011-04-25 09:00;CYQF 250900Z 00000KT 15SM SKC 02/M06 A2963 RMK SLP055

CYQF;2011-04-25 10:00;CYQF 251000Z 19003KT 15SM SKC 02/M06 A2961 RMK SLP050

CYQF;2011-04-25 11:00;CYQF 251100Z 21003KT 15SM FEW120 00/M05 A2960 RMK AC1 SLP047

CYQF;2011-04-25 12:00;CYQF 251200Z 00000KT 15SM FEW120 BKN250 M00/M06 A2959 RMK AC1CI0 SLP043

CYQF;2011-04-25 13:00;CYQF 251300Z 17004KT 15SM FEW120 BKN250 01/M05 A2957 RMK AC1CI1 SLP037

CYQF;2011-04-25 14:00;CYQF 251400Z 18002KT 15SM BKN250 03/M04 A2956 RMK CI6 SLP033

CYQF;2011-04-25 15:00;CYQF 251500Z 16004KT 15SM BKN250 04/M03 A2955 RMK CI6 SLP028

CYQF;2011-04-25 16:00;CYQF 251600Z 15005KT 15SM BKN250 07/M02 A2953 RMK CI5 SLP023

CYQF;2011-04-25 17:00;CYQF 251700Z 20003KT 15SM BKN250 09/M03 A2952 RMK CI2 SLP018

CYQF;2011-04-25 18:00;CYQF 251800Z 20003KT 15SM FEW050 SCT250 12/M03 A2951 RMK CU1CI1 SLP010

CYQF;2011-04-25 19:00;CYQF 251900Z 16004KT 15SM FEW056 BKN250 13/M02 A2949 RMK CU1CI4 SLP004

CYQF;2011-04-25 20:00;CYQF 252000Z 11006KT 15SM FEW072 BKN250 14/M04 A2947 RMK CU1CI4 SLP998

CYQF;2011-04-25 21:00;CYQF 252100Z 15005KT 15SM FEW068 BKN250 14/M04 A2946 RMK CU2CI4 SLP993

CYQF;2011-04-25 22:00;CYQF 252200Z 17002KT 15SM FEW065 BKN250 15/M03 A2944 RMK CU2CI2 SLP987

CYQF;2011-04-25 23:00;CYQF 252300Z 19005KT 15SM SCT065 BKN250 16/M03 A2942 RMK CU3CI1 SLP982

CYQF;2011-04-26 00:00;CYQF 260000Z 20008KT 15SM SCT075TCU BKN250 15/M04 A2942 RMK TCU3CI1 SLP982

CYQF;2011-04-26 01:00;CYQF 260100Z 30008KT 15SM BKN065TCU 14/M02 A2943 RMK TCU5 VIRGA SLP984

CYQF;2011-04-26 02:00;CYQF 260200Z 31007KT 15SM SCT055TCU 12/M02 A2944 RMK TCU4 VIRGA SLP988

CYQF;2011-04-26 03:00;CYQF 260300Z 30005KT 15SM SCT080 08/M04 A2945 RMK AC2 SLP995

CYQF;2011-04-26 04:00;CYQF 260400Z 21002KT 15SM FEW080 07/M02 A2947 RMK AC1 SLP002

CYQF;2011-04-26 05:00;CYQF 260500Z 26006KT 15SM SKC 05/M03 A2948 RMK SLP006

CYQF;2011-04-26 06:00;CYQF 260600Z 27006KT 15SM SKC 03/M02 A2950 RMK SLP010

CYQF;2011-04-26 07:00;CYQF 260700Z 07004KT 15SM SKC 04/M02 A2952 RMK SLP017

CYQF;2011-04-26 08:00;CYQF 260800Z 28006KT 15SM FEW100 03/M02 A2953 RMK AC2 SLP020

CYQF;2011-04-26 09:00;CYQF 260900Z 26003KT 15SM FEW100 02/M02 A2954 RMK AC1 SLP022

CYQF;2011-04-26 10:00;CYQF 261000Z 28006KT 15SM SKC 03/M02 A2955 RMK SLP024

CYQF;2011-04-26 11:00;CYQF 261100Z 30003KT 15SM FEW100 02/M02 A2957 RMK AC1 SLP031

CYQF;2011-04-26 12:00;CYQF 261200Z 29006KT 15SM FEW100 02/M03 A2958 RMK AC1 SLP036

CYQF;2011-04-26 13:00;CYQF 261300Z 00000KT 15SM FEW100 SCT250 03/M02 A2962 RMK AC1CI2 SLP047

CYQF;2011-04-26 14:00;CYQF 261400Z 00000KT 15SM SCT100 BKN250 05/M01 A2965 RMK AC4CI2 SLP056

CYQF;2011-04-26 15:00;CYQF 261500Z 30004KT 15SM SCT250 06/M01 A2967 RMK CI3 SLP069

CYQF;2011-04-26 16:00;CYQF 261600Z 32010KT 15SM FEW100 BKN250 08/M01 A2968 RMK AC1CI2 SLP073

CYQF;2011-04-26 17:00;CYQF 261700Z 29008KT 15SM BKN250 09/00 A2970 RMK CI3 SLP078

CYQF;2011-04-26 18:00;CYQF 261800Z 30008KT 15SM FEW045 BKN250 11/M00 A2971 RMK CU1CI2 TR CU SLP083

CYQF;2011-04-26 19:00;CYQF 261900Z 31010G15KT 15SM FEW050 SCT250 12/M00 A2972 RMK CU1CI1 SLP085

CYQF;2011-04-26 20:00;CYQF 262000Z 31010G15KT 15SM FEW055 SCT250 13/M01 A2972 RMK CU1CI1 SLP086

CYQF;2011-04-26 21:00;CYQF 262100Z 33010G15KT 15SM FEW060 SCT250 14/M01 A2973 RMK CU2CI0 SLP088

CYQF;2011-04-26 22:00;CYQF 262200Z 35010KT 15SM FEW065 BKN250 14/M02 A2974 RMK CU2CI0 SLP090

CYQF;2011-04-26 23:00;CYQF 262300Z 32006KT 15SM FEW060 SCT250 14/M01 A2974 RMK CU2CI0 SLP092

CYQF;2011-04-27 00:00;CYQF 270000Z 30006KT 15SM FEW060 SCT250 14/M01 A2976 RMK CU2CI0 SLP098

CYQF;2011-04-27 01:00;CYQF 270100Z 36004KT 15SM FEW060 SCT250 13/M02 A2977 RMK CU2CI1 SLP102

CYQF;2011-04-27 02:00;CYQF 270200Z 29003KT 15SM FEW060 BKN250 12/M01 A2977 RMK CU1CI2 SLP102

CYQF;2011-04-27 03:00;CYQF 270300Z 31005KT 15SM FEW100 BKN250 09/00 A2978 RMK AC2CI1 SLP108

CYQF;2011-04-27 04:00;CYQF 270400Z 31009KT 15SM FEW100 BKN250 07/M00 A2981 RMK AC2CI1 SLP115

CYQF;2011-04-27 05:00;CYQF 270500Z 31005KT 15SM OVC100 07/00 A2981 RMK AC7 SLP116

CYQF;2011-04-27 06:00;CYQF 270600Z 00000KT 15SM OVC100 06/00 A2981 RMK AC7 SLP116

CYQF;2011-04-27 07:00;CYQF 270700Z 00000KT 15SM OVC070 05/01 A2982 RMK AC8 SLP119

CYQF;2011-04-27 08:00;CYQF 270800Z 26006KT 15SM -SHRA OVC060 06/02 A2983 RMK SC8 SLP122

CYQF;2011-04-27 08:13;CYQF 270813Z 27005KT 15SM BKN060 OVC100 RMK SC5AC3

CYQF;2011-04-27 09:00;CYQF 270900Z 26003KT 15SM BKN060 BKN100 04/01 A2984 RMK SC5AC2 SLP122

CYQF;2011-04-27 10:00;CYQF 271000Z 32002KT 15SM FEW060 OVC100 05/01 A2983 RMK SC2AC6 SLP119

CYQF;2011-04-27 11:00;CYQF 271100Z 17002KT 15SM FEW060 FEW100 SCT250 04/01 A2982 RMK SC1AC2CI0 SLP117

CYQF;2011-04-27 12:00;CYQF 271200Z 25008KT 15SM FEW060 SCT100 BKN250 01/M00 A2982 RMK SC2AC1CI0 SLP120

CYQF;2011-04-27 13:00;CYQF 271300Z 28002KT 15SM BKN070 BKN250 04/01 A2983 RMK AC5CI0 ACC ASOCTD SLP122

CYQF;2011-04-27 14:00;CYQF 271400Z 18004KT 15SM BKN070 BKN250 04/02 A2983 RMK AC6CI1 ACC ASOCTD VIRGA SLP122

CYQF;2011-04-27 14:44;CYQF 271444Z 00000KT 15SM -SHRA BKN070 BKN250 RMK AC6CI2

CYQF;2011-04-27 15:00;CYQF 271500Z 00000KT 15SM -SHRA BKN060 BKN250 05/02 A2982 RMK SC5CI2 SLP123

CYQF;2011-04-27 15:48;CYQF 271548Z 19003KT 15SM SCT060 BKN250 RMK SC3CI2

CYQF;2011-04-27 16:00;CYQF 271600Z 00000KT 15SM FEW060 BKN250 07/03 A2981 RMK SC2CI2 SLP119

CYQF;2011-04-27 17:00;CYQF 271700Z 00000KT 15SM FEW035 BKN250 09/01 A2980 RMK CU1CI2 SLP115

CYQF;2011-04-27 18:00;CYQF 271800Z 17006KT 15SM FEW040 BKN250 10/01 A2978 RMK CU1CI2 TCU ASOCTD SLP106

CYQF;2011-04-27 19:00;CYQF 271900Z 00000KT 15SM SCT040 BKN250 11/01 A2976 RMK CU3CI1 CB W SLP100

CYQF;2011-04-27 20:00;CYQF 272000Z 00000KT 15SM BKN050TCU BKN250 12/M01 A2974 RMK TCU5CI1 SLP092

CYQF;2011-04-27 21:00;CYQF 272100Z 15005KT 15SM SCT050TCU BKN250 12/M02 A2972 RMK TCU4CI0 CB LTNG SH W SLP085

CYQF;2011-04-27 22:00;CYQF 272200Z 25020G30KT 15SM -SHRAGS BKN040TCU OVC250 08/01 A2974 RMK TCU6CI1 CB EMBD SLP090

CYQF;2011-04-27 22:25;CYQF 272225Z 28015G20KT 15SM -SHRA SCT040TCU BKN100 BKN250 RMK TCU4AC2CI1

CYQF;2011-04-27 22:51;CYQF 272251Z 33010G15KT 15SM VCSH SCT040CB SCT100 BKN250 RMK CB3AC1CI1

CYQF;2011-04-27 23:00;CYQF 272300Z 33010G15KT 15SM VCSH SCT040CB SCT100 BKN250 10/03 A2972 RMK CB3AC1CI1 CB N-NE SLP084

CYQF;2011-04-28 00:00;CYQF 280000Z 33003KT 15SM SCT040TCU SCT100 BKN250 10/M01 A2972 RMK TCU3AC1CI2 VIRGA SLP090

CYQF;2011-04-28 01:00;CYQF 280100Z 09008KT 15SM FEW030TCU SCT100 BKN250 08/02 A2971 RMK TCU2AC2CI2 VIRGA SLP087

CYQF;2011-04-28 02:00;CYQF 280200Z 16005KT 15SM FEW030TCU SCT100 BKN250 08/03 A2972 RMK TCU2AC2CI2 VIRGA SLP090

CYQF;2011-04-28 03:00;CYQF 280300Z 12007KT 15SM FEW030TCU SCT100 BKN250 07/02 A2970 RMK TCU2AC2CI2 SLP082

CYQF;2011-04-28 04:00;CYQF 280400Z 02002KT 15SM FEW030 FEW100 BKN250 05/02 A2971 RMK SC1AC2CI1 TR SC SLP085

CYQF;2011-04-28 05:00;CYQF 280500Z 24006KT 15SM FEW100 BKN250 04/01 A2973 RMK AC2CI2 SLP090

CYQF;2011-04-28 06:00;CYQF 280600Z 00000KT 15SM FEW100 BKN250 05/01 A2971 RMK AC1CI2 SLP082

CYQF;2011-04-28 07:00;CYQF 280700Z 00000KT 15SM FEW250 01/M00 A2969 RMK CI0 SLP077

CYQF;2011-04-28 08:00;CYQF 280800Z 00000KT 15SM FEW250 01/M00 A2967 RMK CI0 SLP071

CYQF;2011-04-28 09:00;CYQF 280900Z 27003KT 15SM SKC M00/M01 A2966 RMK SLP068

CYQF;2011-04-28 10:00;CYQF 281000Z 00000KT 15SM SCT250 M02/M03 A2966 RMK CI0 FROIN SLP067

CYQF;2011-04-28 11:00;CYQF 281100Z 00000KT 15SM FEW100 BKN250 M01/M02 A2965 RMK AC1CI1 FROIN SLP064

CYQF;2011-04-28 12:00;CYQF 281200Z 27002KT 10SM SCT050 BKN070 BKN250 M00/M01 A2964 RMK SC3AC2CI0 VIS S 6 SLP062

CYQF;2011-04-28 13:00;CYQF 281300Z CCA 00000KT 12SM FEW045 BKN070 BKN250 M00/M01 A2964 RMK SC2AC4CI0 VIRGA SLP064

CYQF;2011-04-28 14:00;CYQF 281400Z 00000KT 15SM FEW040 SCT070 BKN250 02/00 A2965 RMK SC2AC2CI2 VIRGA SLP065

CYQF;2011-04-28 15:00;CYQF 281500Z 32008KT 15SM SCT070 BKN250 04/M01 A2964 RMK AC3CI1 VIRGA SLP061

CYQF;2011-04-28 16:00;CYQF 281600Z 31010KT 15SM FEW030 SCT070 BKN250 06/M01 A2962 RMK SC1AC2CI1 VIRGA SLP057

CYQF;2011-04-28 17:00;CYQF 281700Z 30010G15KT 15SM FEW020 SCT070 BKN250 06/M01 A2963 RMK CU2AC1CI1 VIRGA SLP058

CYQF;2011-04-28 18:00;CYQF 281800Z 30010KT 15SM SCT035 SCT090 BKN250 07/M02 A2962 RMK CU3AC1CI1 SLP053

CYQF;2011-04-28 19:00;CYQF 281900Z 33010G15KT 15SM BKN040TCU BKN250 08/M02 A2961 RMK TCU5CI0 SLP050

CYQF;2011-04-28 20:00;CYQF 282000Z 35010G15KT 15SM BKN045TCU BKN250 09/M03 A2959 RMK TCU5CI0 SH S SLP046

CYQF;2011-04-28 21:00;CYQF 282100Z 31010G15KT 15SM SCT055TCU BKN250 10/M04 A2958 RMK TCU4CI1 SH S-W SLP043

CYQF;2011-04-28 22:00;CYQF 282200Z 33007KT 15SM SCT045TCU BKN250 10/M02 A2957 RMK TCU4CI1 SH SE-NW SLP040

CYQF;2011-04-28 23:00;CYQF 282300Z 30013G19KT 15SM SCT060TCU BKN250 11/M04 A2957 RMK TCU4CI1 SH W-NW SLP039

CYQF;2011-04-29 00:00;CYQF 290000Z 32010G15KT 15SM SCT050TCU BKN250 09/M03 A2958 RMK TCU4CI2 SH SE+NW SLP043

CYQF;2011-04-29 00:26;CYQF 290026Z 34013KT 15SM -SHRA BKN040TCU BKN250 RMK TCU5CI2

CYQF;2011-04-29 00:50;CYQF 290050Z 35012G18KT 15SM VCSH BKN040TCU BKN250 RMK TCU5CI2

CYQF;2011-04-29 01:00;CYQF 290100Z 32015G23KT 15SM VCSH BKN040TCU BKN250 07/02 A2960 RMK TCU5CI2 SLP050

CYQF;2011-04-29 02:00;CYQF 290200Z 33014G22KT 15SM SCT030TCU BKN250 05/01 A2961 RMK TCU4CI2 SLP052

CYQF;2011-04-29 02:10;CYQF 290210Z 34013G20KT 15SM -SHRA BKN030TCU BKN250 RMK TCU5CI2

CYQF;2011-04-29 03:00;CYQF 290300Z 32009KT 10SM -RA OVC020 03/02 A2962 RMK SC8 SLP060

CYQF;2011-04-29 04:00;CYQF 290400Z 30013KT 10SM -RA BKN008 OVC020 02/01 A2963 RMK SF5SC3 SLP063

CYQF;2011-04-29 04:50;CYQF 290450Z 32013G21KT 10SM -RASN BKN008 OVC020 RMK SF6SC2

CYQF;2011-04-29 05:00;CYQF 290500Z 32012G20KT 6SM -RASN BKN008 OVC020 02/01 A2963 RMK SF6SC2 SLP063

CYQF;2011-04-29 06:00;CYQF 290600Z 33010G17KT 5SM -SN BKN007 OVC015 01/01 A2964 RMK SF6SC2 SLP065

CYQF;2011-04-29 07:00;CYQF 290700Z 34010G15KT 2SM -SN OVC007 01/00 A2966 RMK SN2SF6 SLP070

CYQF;2011-04-29 08:00;CYQF 290800Z 33012G20KT 10SM -SN BKN008 OVC015 01/01 A2967 RMK SF6SC2 SLP074

CYQF;2011-04-29 09:00;CYQF 290900Z 33012G20KT 10SM -SN SCT008 OVC015 01/01 A2968 RMK SF4SC4 SLP076

CYQF;2011-04-29 09:37;CYQF 290937Z 34011G18KT 10SM -RASN BKN008 OVC015 RMK SF6SC2

CYQF;2011-04-29 10:00;CYQF 291000Z 34010G15KT 6SM -RASN BKN008 OVC015 02/02 A2971 RMK SF5SC3 SLP084

CYQF;2011-04-29 10:49;CYQF 291049Z 35012G18KT 10SM -RA BKN008 OVC017 RMK SF5SC3

CYQF;2011-04-29 11:00;CYQF 291100Z 36012G20KT 10SM -RA SCT008 OVC018 03/02 A2974 RMK SF4SC4 SLP094

CYQF;2011-04-29 12:00;CYQF 291200Z 35011G17KT 10SM -RA BKN008 OVC018 04/02 A2977 RMK SF5SC3 SLP106

CYQF;2011-04-29 12:41;CYQF 291241Z 36012G18KT 10SM -RA SCT008 BKN015 OVC025 RMK SF3SC3SC2

CYQF;2011-04-29 13:00;CYQF 291300Z 35013G20KT 10SM -RA SCT007 OVC015 02/01 A2983 RMK SF4SC4 SLP123

CYQF;2011-04-29 14:00;CYQF 291400Z 34010G15KT 12SM SCT007 OVC020 02/01 A2987 RMK SF3SC5 SLP137

CYQF;2011-04-29 14:12;CYQF 291412Z 36010G15KT 12SM FEW007 OVC011 RMK SF2SC6

CYQF;2011-04-29 14:22;CYQF 291422Z 34010G15KT 6SM -SHGS FEW007 OVC011 RMK SF2SC6

CYQF;2011-04-29 14:29;CYQF 291429Z 35010G15KT 12SM VCSH FEW007 OVC011 RMK SF2SC6

CYQF;2011-04-29 15:00;CYQF 291500Z 34015G20KT 12SM VCSH FEW007 OVC011 02/00 A2990 RMK SF2SC5 SLP160

CYQF;2011-04-29 16:00;CYQF 291600Z 34015G23KT 15SM SCT012 BKN250 04/01 A2993 RMK SC4CI2 SLP169

CYQF;2011-04-29 16:36;CYQF 291636Z 33015G20KT 15SM BKN013 BKN250 RMK SC5CI1 CU ASOCTD

CYQF;2011-04-29 17:00;CYQF 291700Z 34013G20KT 15SM BKN015 BKN250 04/00 A2996 RMK CU6CI1 SLP179

CYQF;2011-04-29 18:00;CYQF 291800Z 33010G20KT 15SM BKN020 06/01 A2999 RMK CU7 SLP189

CYQF;2011-04-29 19:00;CYQF 291900Z 35012G20KT 15SM BKN030 06/M02 A3001 RMK CU7 SLP194

CYQF;2011-04-29 20:00;CYQF 292000Z 36015G20KT 15SM BKN040 07/M03 A3002 RMK CU6 SLP199

CYQF;2011-04-29 21:00;CYQF 292100Z 02010G15KT 15SM BKN050 08/M04 A3004 RMK CU6 SLP202

CYQF;2011-04-29 22:00;CYQF 292200Z 01015G20KT 15SM BKN052 08/M05 A3004 RMK CU5 SLP203

CYQF;2011-04-29 23:00;CYQF 292300Z 33008KT 15SM BKN052 09/M04 A3004 RMK CU5 SLP204

CYQF;2011-04-30 00:00;CYQF 300000Z 33007KT 15SM FEW055 FEW250 09/M05 A3005 RMK CU2CI1 SLP201

CYQF;2011-04-30 01:00;CYQF 300100Z 34006KT 15SM FEW055 09/M05 A3005 RMK CU2 SLP204

CYQF;2011-04-30 02:00;CYQF 300200Z 36002KT 15SM FEW055 08/M05 A3006 RMK SC1 SLP207

CYQF;2011-04-30 03:00;CYQF 300300Z 00000KT 15SM FEW250 06/M05 A3007 RMK CI1 SLP215

CYQF;2011-04-30 04:00;CYQF 300400Z 16002KT 15SM FEW250 04/M01 A3007 RMK CI1 SLP216

CYQF;2011-04-30 05:00;CYQF 300500Z 18003KT 15SM SKC 01/M02 A3007 RMK SLP215

CYQF;2011-04-30 06:00;CYQF 300600Z 18002KT 15SM SKC 00/M02 A3007 RMK SLP217

CYQF;2011-04-30 07:00;CYQF 300700Z 19002KT 15SM SKC M01/M03 A3007 RMK SLP218

CYQF;2011-04-30 08:00;CYQF 300800Z 20002KT 15SM SKC M00/M03 A3008 RMK SLP220

CYQF;2011-04-30 09:00;CYQF 300900Z 19003KT 15SM FEW100 M00/M03 A3007 RMK AC2 SLP215

CYQF;2011-04-30 10:00;CYQF 301000Z 23003KT 15SM FEW060 M00/M03 A3007 RMK SC2 SHWR N OVR CITY SLP215

CYQF;2011-04-30 11:00;CYQF 301100Z 22002KT 15SM FEW060 SCT100 M00/M03 A3007 RMK SC1AC2 SLP216

CYQF;2011-04-30 12:00;CYQF 301200Z 27002KT 15SM FEW100 FEW250 M02/M04 A3008 RMK AC2CI1 SLP220

CYQF;2011-04-30 13:00;CYQF 301300Z 28002KT 15SM FEW100 FEW250 M00/M03 A3010 RMK AC1CI1 SLP225

CYQF;2011-04-30 14:00;CYQF 301400Z 30005KT 15SM FEW100 BKN260 03/M00 A3010 RMK AC2CI1 SLP225

CYQF;2011-04-30 15:00;CYQF 301500Z 32010G15KT 15SM FEW100 FEW260 06/00 A3011 RMK AC1CI0 SLP223

CYQF;2011-04-30 16:00;CYQF 301600Z 31011G16KT 15SM FEW030 FEW090 BKN260 07/M00 A3011 RMK CU1AC1CI1 SLP223

CYQF;2011-04-30 17:00;CYQF 301700Z 32015G25KT 15SM BKN040 BKN250 09/M01 A3011 RMK CU5CI0 SLP223

CYQF;2011-04-30 18:00;CYQF 301800Z 33010G20KT 15SM VCSH BKN040 BKN250 10/M03 A3010 RMK CU5CI0 CB SW SLP223

CYQF;2011-04-30 19:00;CYQF 301900Z 34011G16KT 15SM VCSH SCT045TCU BKN250 10/M03 A3008 RMK TCU4CI1 CB DIST SW SLP217

CYQF;2011-04-30 19:27;CYQF 301927Z 32020G30KT 15SM -SHRA BKN050CB BKN250 RMK CB6CI0

CYQF;2011-04-30 20:00;CYQF 302000Z 30010G20KT 15SM BKN050CB BKN250 11/M02 A3007 RMK CB6CI0 OCNL -SHRA SLP215

CYQF;2011-04-30 20:24;CYQF 302024Z 34015G20KT 15SM VCSH BKN050CB BKN250 RMK CB5CI1

CYQF;2011-04-30 21:00;CYQF 302100Z 33015G20KT 15SM VCSH SCT055CB SCT250 12/M02 A3007 RMK CB3CI1 SLP210

CYQF;2011-04-30 22:00;CYQF 302200Z 34015G25KT 15SM VCSH BKN050CB BKN250 10/M03 A3007 RMK CB5CI1 SLP212

CYQF;2011-04-30 23:00;CYQF 302300Z 34013G20KT 15SM VCSH SCT045CB BKN250 09/M02 A3009 RMK CB3CI2 SLP216

CYQF;2011-05-01 01:00;CYQF 010100Z 35010G15KT 15SM FEW040CB SCT250 08/M01 A3010 RMK CB2CI1 SLP227

CYQF;2011-05-01 02:00;CYQF 010200Z 04010KT 15SM FEW040TCU BKN250 07/M00 A3012 RMK TCU2CI1 SLP233

CYQF;2011-05-01 03:00;CYQF 010300Z 03002KT 15SM VCSH FEW030TCU SCT250 05/01 A3013 RMK TCU2CI0 SLP232

CYQF;2011-05-01 04:00;CYQF 010400Z 24005KT 15SM FEW030 SCT250 M00/M02 A3013 RMK SC1CI1 SLP233

CYQF;2011-05-01 05:00;CYQF 010500Z 24006KT 15SM FEW030 M00/M02 A3013 RMK SC1 SLP232

CYQF;2011-05-01 06:00;CYQF 010600Z 24006KT 15SM SKC 01/M00 A3014 RMK SLP234

CYQF;2011-05-01 07:00;CYQF 010700Z 26005KT 15SM SKC M01/M02 A3015 RMK SLP237

CYQF;2011-05-01 08:00;CYQF 010800Z 00000KT 15SM SKC M00/M01 A3015 RMK SLP237

CYQF;2011-05-01 09:00;CYQF 010900Z 26004KT 15SM SKC M02/M03 A3014 RMK SLP238

CYQF;2011-05-01 10:00;CYQF 011000Z 26005KT 15SM FEW100 M01/M03 A3014 RMK AC1 SLP237

CYQF;2011-05-01 11:00;CYQF 011100Z 00000KT 15SM SCT100 M01/M02 A3015 RMK AC1 SLP239

CYQF;2011-05-01 12:00;CYQF 011200Z 29003KT 15SM FEW070 BKN100 M00/M02 A3015 RMK ACC2AC1 VIRGA SE-NW SLP243

CYQF;2011-05-01 13:00;CYQF 011300Z 24002KT 15SM FEW070 FEW100 01/M01 A3015 RMK AC1AC1 VIRGA SLP245

CYQF;2011-05-01 14:00;CYQF 011400Z 25007KT 15SM FEW070 03/00 A3017 RMK AC1 SLP249

CYQF;2011-05-01 15:00;CYQF 011500Z 34003KT 15SM FEW100 FEW250 06/M01 A3016 RMK AC1CI1 OBS TAKEN +10 SLP244

CYQF;2011-05-01 16:00;CYQF 011600Z 29005KT 15SM FEW040 FEW100 SCT250 07/M02 A3017 RMK SC1AC1CC2 SLP245

CYQF;2011-05-01 17:00;CYQF 011700Z 29005KT 15SM FEW050 FEW100 SCT250 09/M04 A3016 RMK CU1AC1CI1 SLP244

CYQF;2011-05-01 18:00;CYQF 011800Z 26005KT 15SM BKN064 BKN250 10/M06 A3015 RMK CU5CI2 SLP239

CYQF;2011-05-01 19:00;CYQF 011900Z 27010KT 15SM BKN064 BKN250 10/M06 A3014 RMK CU6CI1 SLP235

CYQF;2011-05-01 20:00;CYQF 012000Z 30008KT 15SM BKN065 11/M05 A3013 RMK CU6 SLP233

CYQF;2011-05-01 21:00;CYQF 012100Z 29008KT 15SM SCT065 12/M03 A3012 RMK CU4 SLP230

CYQF;2011-05-01 22:00;CYQF 012200Z 00000KT 15SM FEW065 FEW250 13/M04 A3010 RMK CU2CI0 SLP223

CYQF;2011-05-01 23:00;CYQF 012300Z 33007KT 15SM FEW070 FEW250 14/M04 A3008 RMK CU2CI0 SLP219

CYQF;2011-05-02 00:00;CYQF 020000Z 32005KT 15SM FEW070 FEW250 13/M04 A3008 RMK CU1CI0 SLP212

CYQF;2011-05-02 01:00;CYQF 020100Z 00000KT 15SM FEW070 FEW250 14/M04 A3008 RMK CU1CI1 SLP212

CYQF;2011-05-02 02:00;CYQF 020200Z 00000KT 15SM FEW050 FEW250 12/M04 A3007 RMK SC1CI1 SLP211

CYQF;2011-05-02 03:00;CYQF 020300Z 12005KT 15SM FEW060 SCT250 10/M03 A3007 RMK SC2CI0 SLP207

CYQF;2011-05-02 04:00;CYQF 020400Z 13002KT 15SM FEW060 FEW250 08/M02 A3007 RMK SC1CI0 SLP206

CYQF;2011-05-02 05:00;CYQF 020500Z 15005KT 15SM FEW060 06/M02 A3007 RMK SC1 SLP205

CYQF;2011-05-02 06:00;CYQF 020600Z 00000KT 15SM SKC 04/M02 A3007 RMK SLP207

CYQF;2011-05-02 07:00;CYQF 020700Z 00000KT 15SM SKC 02/M02 A3006 RMK SLP206

CYQF;2011-05-02 08:00;CYQF 020800Z 21003KT 15SM SKC 02/M04 A3005 RMK SLP202

CYQF;2011-05-02 09:00;CYQF 020900Z 23004KT 15SM SKC 00/M04 A3004 RMK SLP200

CYQF;2011-05-02 10:00;CYQF 021000Z 19004KT 15SM SKC 01/M02 A3004 RMK SLP200

CYQF;2011-05-02 11:00;CYQF 021100Z 19003KT 15SM FEW250 00/M03 A3003 RMK CI0 SLP196

CYQF;2011-05-02 12:00;CYQF 021200Z 19005KT 15SM FEW250 M00/M04 A3002 RMK CI0 SLP192

CYQF;2011-05-02 13:00;CYQF 021300Z 19004KT 15SM FEW250 00/M03 A3002 RMK CI1 SLP191

CYQF;2011-05-02 14:00;CYQF 021400Z 21003KT 15SM FEW250 03/M02 A3001 RMK CI0 SLP190

CYQF;2011-05-02 15:00;CYQF 021500Z 19003KT 15SM FEW250 07/M02 A3000 RMK CI0 SLP182

CYQF;2011-05-02 16:00;CYQF 021600Z 00000KT 15SM FEW250 11/M01 A2998 RMK CI0 SLP174

CYQF;2011-05-02 17:00;CYQF 021700Z 16002KT 15SM FEW250 14/M03 A2995 RMK CI1 SLP164

CYQF;2011-05-02 18:00;CYQF 021800Z 18008KT 15SM BKN250 15/M03 A2992 RMK CI1 SLP151

CYQF;2011-05-02 19:00;CYQF 021900Z 15008KT 15SM FEW100 BKN250 16/M04 A2990 RMK AC1CI3 SLP145

CYQF;2011-05-02 20:00;CYQF 022000Z 15004KT 15SM FEW100 BKN250 17/M04 A2987 RMK AC1CI6 SLP136

CYQF;2011-05-02 21:00;CYQF 022100Z 15010G15KT 15SM FEW100 BKN250 18/M03 A2985 RMK AC2CI4 SLP126

CYQF;2011-05-02 22:00;CYQF 022200Z 17008KT 15SM FEW100 OVC250 19/M04 A2981 RMK AC2CI4 SLP115

CYQF;2011-05-02 23:00;CYQF 022300Z 15008KT 15SM SCT100 OVC250 19/M03 A2979 RMK AC3CI4 SLP108

CYQF;2011-05-03 00:00;CYQF 030000Z 15010KT 15SM BKN150 OVC250 18/M03 A2977 RMK AC5CI2 SLP101

CYQF;2011-05-03 01:00;CYQF 030100Z 13006KT 15SM BKN150 OVC250 17/M01 A2975 RMK AC6CI2 SLP094

CYQF;2011-05-03 02:00;CYQF 030200Z 23006KT 15SM BKN120 OVC250 15/M02 A2975 RMK AC7CI1 SLP094

CYQF;2011-05-03 03:00;CYQF 030300Z 24010KT 15SM BKN060 OVC100 14/M01 A2977 RMK SC6AC2 SLP096

CYQF;2011-05-03 04:00;CYQF 030400Z 24006KT 15SM BKN060 BKN100 13/M01 A2977 RMK SC5AC2 SLP098

CYQF;2011-05-03 05:00;CYQF 030500Z 21004KT 15SM OVC080 11/M00 A2977 RMK AC8 SLP096

CYQF;2011-05-03 06:00;CYQF 030600Z 24004KT 15SM BKN080 10/M01 A2976 RMK AC6 SLP087

CYQF;2011-05-03 07:00;CYQF 030700Z 26006KT 15SM BKN080 10/M01 A2976 RMK AC6 SLP088

CYQF;2011-05-03 08:00;CYQF 030800Z 29010KT 15SM SCT080 10/M02 A2976 RMK AC4 SLP089

CYQF;2011-05-03 09:00;CYQF 030900Z 30008KT 15SM SCT080 09/M01 A2978 RMK AC4 SLP094

CYQF;2011-05-03 10:00;CYQF 031000Z 30006KT 15SM BKN080 08/M00 A2980 RMK AC6 SLP099

CYQF;2011-05-03 11:00;CYQF 031100Z 31005KT 15SM SCT080 BKN250 06/M01 A2980 RMK AC3CI2 SLP100

CYQF;2011-05-03 12:00;CYQF 031200Z 33004KT 15SM FEW080 BKN250 04/M01 A2982 RMK AC2CI2 SLP112

CYQF;2011-05-03 13:00;CYQF 031300Z 32005KT 15SM FEW080 BKN250 06/02 A2984 RMK AC2CI2 SLP118

CYQF;2011-05-03 14:00;CYQF 031400Z 32012KT 15SM SCT100 BKN250 07/02 A2985 RMK AC3CI2 SLP123

CYQF;2011-05-03 15:00;CYQF 031500Z 31010G15KT 15SM FEW015 BKN090 BKN250 08/02 A2988 RMK SC2AC3CI2 SLP134

CYQF;2011-05-03 16:00;CYQF 031600Z 32015G25KT 15SM BKN028 BKN090 08/02 A2989 RMK SC6AC2 SLP136

CYQF;2011-05-03 17:00;CYQF 031700Z 33015G25KT 15SM FEW030 FEW090 BKN250 08/01 A2990 RMK SC2AC1CI2 CU EMBD SLP141

CYQF;2011-05-03 18:00;CYQF 031800Z 34015G25KT 15SM FEW040 FEW090 BKN250 10/M01 A2990 RMK CU2AC1CI2 SLP143

CYQF;2011-05-03 19:00;CYQF 031900Z 33012G20KT 15SM FEW045 BKN250 11/M02 A2990 RMK CU2CI2 SLP142

CYQF;2011-05-03 20:00;CYQF 032000Z 35012G20KT 15SM SCT055 BKN250 13/M01 A2989 RMK CU3CI1 TCU/SHS DIST W SLP138

CYQF;2011-05-03 21:00;CYQF 032100Z 33010G20KT 15SM VCSH BKN060TCU BKN250 13/M03 A2989 RMK TCU5CI0 SLP137

CYQF;2011-05-03 21:27;CYQF 032127Z 29020G33KT 10SM -SHRA BKN040TCU OVC250 RMK TCU6CI2

CYQF;2011-05-03 22:00;CYQF 032200Z 28015G21KT 15SM -SHRA BKN040TCU BKN250 09/M01 A2994 RMK TCU6CI2 SLP151

CYQF;2011-05-03 23:00;CYQF 032300Z 28008KT 15SM VCSH FEW040TCU BKN100 BKN250 10/01 A2993 RMK TCU2AC2CI1 SLP148

CYQF;2011-05-04 00:00;CYQF 040000Z 30015G26KT 15SM VCSH SCT040TCU BKN100 BKN250 10/00 A2995 RMK TCU3AC2CI2 SLP166

CYQF;2011-05-04 01:00;CYQF 040100Z 27010KT 15SM FEW040 BKN100 BKN250 09/00 A2995 RMK CU2AC2CI1 SLP168

CYQF;2011-05-04 02:00;CYQF 040200Z 26005KT 15SM FEW040 SCT100 BKN250 08/00 A2996 RMK CU2AC2CI1 SLP171

CYQF;2011-05-04 03:00;CYQF 040300Z 28010KT 15SM FEW035 SCT080 BKN250 07/M02 A2998 RMK CU2AC2CI1 VIRGA SLP177

CYQF;2011-05-04 04:00;CYQF 040400Z 29010KT 15SM FEW040 SCT080 06/M03 A3002 RMK CU2AC2 VIRGA SLP188

CYQF;2011-05-04 05:00;CYQF 040500Z 29007KT 15SM FEW080 06/M05 A3004 RMK AC2 SLP194

CYQF;2011-05-04 06:00;CYQF 040600Z 30008KT 15SM FEW080 04/M04 A3004 RMK AC2 SLP198

CYQF;2011-05-04 07:00;CYQF 040700Z 31010KT 15SM FEW080 06/M05 A3005 RMK AC2 SLP201

CYQF;2011-05-04 08:00;CYQF 040800Z 29005KT 15SM SKC 03/M04 A3006 RMK SLP204

CYQF;2011-05-04 09:00;CYQF 040900Z 28005KT 15SM SKC 02/M04 A3007 RMK SLP208

CYQF;2011-05-04 10:00;CYQF 041000Z 27006KT 15SM SKC 02/M04 A3008 RMK SLP210

CYQF;2011-05-04 12:00;CYQF 041200Z 28006KT 15SM FEW080 01/M05 A3010 RMK AC2 SLP221

CYQF;2011-05-04 13:00;CYQF 041300Z 27005KT 15SM SCT080 03/M04 A3011 RMK AC4 ACC ASOCTD VIRGA SLP226

CYQF;2011-05-04 14:00;CYQF 041400Z 27004KT 15SM FEW080 05/M04 A3013 RMK AC2 VIRGA SLP231

CYQF;2011-05-04 15:00;CYQF 041500Z 30015G20KT 15SM FEW080 09/M04 A3014 RMK AC2 SLP228

CYQF;2011-05-04 16:00;CYQF 041600Z 32015G25KT 15SM SCT050 10/M05 A3013 RMK CU3 SLP227

CYQF;2011-05-04 17:00;CYQF 041700Z 31015G25KT 15SM SCT064 10/M06 A3012 RMK CU3 SLP224

CYQF;2011-05-04 18:00;CYQF 041800Z 32012G20KT 15SM SCT065 11/M06 A3011 RMK CU4 SLP221

CYQF;2011-05-04 19:00;CYQF 041900Z 32010G15KT 15SM FEW070 13/M05 A3010 RMK CU2 SLP217

CYQF;2011-05-04 20:00;CYQF 042000Z 27008KT 15SM FEW071 FEW250 13/M05 A3008 RMK CU2CI1 SLP211

CYQF;2011-05-04 21:00;CYQF 042100Z 29010G15KT 15SM FEW078 SCT250 15/M05 A3006 RMK CU2CI1 SLP204

CYQF;2011-05-04 22:00;CYQF 042200Z 31010KT 15SM FEW080 SCT250 14/M06 A3005 RMK CU2CI1 SLP201

CYQF;2011-05-04 23:00;CYQF 042300Z 32010KT 15SM SCT080 SCT250 15/M05 A3004 RMK CU3CI0 SLP197

CYQF;2011-05-05 00:00;CYQF 050000Z 33006KT 15SM SCT080 SCT250 15/M05 A3003 RMK CU3CI0 SLP191

CYQF;2011-05-05 01:00;CYQF 050100Z 00000KT 15SM SCT080 BKN150 BKN250 15/M05 A3002 RMK AC2AC2CI1 SLP188

CYQF;2011-05-05 02:00;CYQF 050200Z 00000KT 15SM SCT070 BKN150 BKN250 14/M05 A3002 RMK AC3AC2CI1 SLP188

CYQF;2011-05-05 03:00;CYQF 050300Z 00000KT 15SM FEW080 BKN250 13/M03 A3002 RMK AC2CI2 SLP181

CYQF;2011-05-05 04:00;CYQF 050400Z 27005KT 15SM FEW090 BKN250 07/M02 A3003 RMK AC2CI1 SLP185

CYQF;2011-05-05 05:00;CYQF 050500Z 28005KT 15SM FEW250 08/M03 A3003 RMK CI2 SLP186

CYQF;2011-05-05 06:00;CYQF 050600Z 29003KT 15SM FEW250 04/M04 A3002 RMK CI1 SLP188

CYQF;2011-05-05 07:00;CYQF 050700Z 27003KT 15SM SKC 03/M04 A3001 RMK SLP186

CYQF;2011-05-05 08:00;CYQF 050800Z 00000KT 15SM FEW250 04/M03 A2999 RMK CI0 SLP181

CYQF;2011-05-05 09:00;CYQF 050900Z 22003KT 15SM FEW250 02/M02 A2997 RMK CI2 SLP171

CYQF;2011-05-05 10:00;CYQF 051000Z 19002KT 15SM FEW250 M00/M04 A2995 RMK CI1 SLP166

CYQF;2011-05-05 11:00;CYQF 051100Z 23003KT 15SM FEW250 M01/M04 A2994 RMK CI1 SLP161

CYQF;2011-05-05 12:00;CYQF 051200Z 24004KT 15SM SCT250 M01/M03 A2993 RMK CI2 SLP158

CYQF;2011-05-05 13:00;CYQF 051300Z 00000KT 15SM FEW120 BKN250 01/M02 A2990 RMK AC2CI3 SLP150

CYQF;2011-05-05 14:00;CYQF 051400Z 00000KT 15SM BKN100 OVC250 03/M01 A2988 RMK AS6CI2 CHINOOK ARCH SLP144

CYQF;2011-05-05 15:00;CYQF 051500Z 00000KT 15SM BKN100 OVC250 07/M01 A2986 RMK AS6CI2 SLP130

CYQF;2011-05-05 16:00;CYQF 051600Z 00000KT 15SM FEW080 BKN100 OVC250 08/M00 A2985 RMK AC1AS6CI1 SLP125

CYQF;2011-05-05 17:00;CYQF 051700Z 00000KT 15SM FEW080 BKN100 OVC250 09/M01 A2983 RMK AC1AS6CS2 SLP120

CYQF;2011-05-05 18:00;CYQF 051800Z 10003KT 15SM FEW080 OVC120 10/M00 A2980 RMK AC1AS6 SLP112

CYQF;2011-05-05 19:00;CYQF 051900Z 17005KT 15SM FEW080 OVC120 13/M01 A2977 RMK AC1AS6 SLP105

CYQF;2011-05-05 20:00;CYQF 052000Z 15003KT 15SM FEW050 FEW080 BKN120 BKN250 14/M01 A2975 RMK CU1AC1AS4CS1 SLP097

CYQF;2011-05-05 21:00;CYQF 052100Z 27007KT 15SM FEW070 BKN250 16/M02 A2973 RMK CU2CI2 SLP086

CYQF;2011-05-05 22:00;CYQF 052200Z 34005KT 15SM BKN070 15/M03 A2971 RMK CU6 TCU SH/VIRGA SLP081

CYQF;2011-05-05 23:00;CYQF 052300Z 31010G15KT 15SM VCSH BKN060TCU OVC250 14/M02 A2972 RMK TCU6CI1 SLP083

CYQF;2011-05-06 00:00;CYQF 060000Z 31003KT 15SM BKN060TCU OVC250 13/M02 A2972 RMK TCU5CI2 VIRGA SLP088

CYQF;2011-05-06 00:47;CYQF 060047Z 30003KT 15SM -SHRA BKN060TCU BKN120 OVC250 RMK TCU5AC2CI0

CYQF;2011-05-06 01:00;CYQF 060100Z 22005KT 15SM -SHRA BKN060TCU BKN120 OVC250 12/M00 A2974 RMK TCU5AC2CI0 SLP093

CYQF;2011-05-06 01:31;CYQF 060131Z 30007KT 15SM SCT060TCU BKN120 BKN250 RMK TCU3AC2CI1

CYQF;2011-05-06 02:00;CYQF 060200Z 32006KT 15SM SCT060 BKN120 BKN250 12/00 A2974 RMK SC3AC2CI1 TCU SHS SE SLP095

CYQF;2011-05-06 03:00;CYQF 060300Z 30005KT 15SM FEW060 SCT100 BKN250 10/01 A2975 RMK SC2AC2CI1 SLP094

CYQF;2011-05-06 04:00;CYQF 060400Z 30004KT 15SM FEW060 07/01 A2976 RMK SC2 SLP098

CYQF;2011-05-06 05:00;CYQF 060500Z 34010G15KT 15SM FEW100 FEW250 07/03 A2978 RMK AC1CI1 SLP104

CYQF;2011-05-06 06:00;CYQF 060600Z 31005KT 15SM FEW100 06/02 A2979 RMK AC2 SLP107

CYQF;2011-05-06 07:00;CYQF 060700Z 31004KT 15SM BKN100 05/03 A2980 RMK AC6 SLP110

CYQF;2011-05-06 08:00;CYQF 060800Z 31004KT 15SM FEW100 04/02 A2980 RMK AC2 SLP110

CYQF;2011-05-06 09:00;CYQF 060900Z 28005KT 15SM FEW100 02/00 A2979 RMK AC2 SLP109

CYQF;2011-05-06 10:00;CYQF 061000Z 27004KT 15SM BKN100 02/01 A2980 RMK AC5 SLP110

CYQF;2011-05-06 11:00;CYQF 061100Z 27006KT 15SM BKN100 03/02 A2980 RMK AC6 SLP112

CYQF;2011-05-06 12:00;CYQF 061200Z 29002KT 15SM BKN100 04/02 A2981 RMK AC7 SLP113

CYQF;2011-05-06 13:00;CYQF 061300Z 28004KT 15SM BKN100 05/02 A2981 RMK AC6 SLP114

CYQF;2011-05-06 14:00;CYQF 061400Z 28004KT 15SM BKN100 05/03 A2981 RMK AC3 SLP114

CYQF;2011-05-06 15:00;CYQF 061500Z 29010KT 15SM FEW100 SCT250 08/03 A2982 RMK AC1CI0 SLP117

CYQF;2011-05-06 16:00;CYQF 061600Z 36010KT 15SM FEW035 FEW100 SCT250 10/01 A2981 RMK CU1AC1CI0 SLP115

CYQF;2011-05-06 17:00;CYQF 061700Z 04007KT 15SM SCT044 SCT100 10/M01 A2980 RMK CU3AC1 SLP111

CYQF;2011-05-06 18:00;CYQF 061800Z 04005KT 15SM BKN047TCU BKN250 11/M01 A2979 RMK TCU6CI0 SLP108

CYQF;2011-05-06 19:00;CYQF 061900Z 00000KT 15SM BKN055TCU BKN250 12/M02 A2977 RMK TCU6CI1 SH NW SLP103

CYQF;2011-05-06 20:00;CYQF 062000Z 33008KT 15SM BKN060TCU BKN250 12/M03 A2976 RMK TCU6CI1 VIRGA SLP100

CYQF;2011-05-06 21:00;CYQF 062100Z 19002KT 15SM SCT056 BKN250 12/M02 A2975 RMK CU4CI1 TCU ASOCTD VIRGA SLP098

CYQF;2011-05-06 22:00;CYQF 062200Z 34005KT 15SM SCT065TCU BKN100 BKN250 14/M02 A2975 RMK TCU4AC2CI1 VIRGA/SH ALQDS SLP096

CYQF;2011-05-06 23:00;CYQF 062300Z 30004KT 15SM BKN060TCU BKN100 OVC250 12/M03 A2975 RMK TCU5AC2CI0 VIRGA/SH ALQDS SLP097

CYQF;2011-05-07 00:00;CYQF 070000Z 26003KT 15SM SCT060TCU BKN100 BKN250 12/M02 A2975 RMK TCU4AC2CI0 VIRGA SLP094

CYQF;2011-05-07 01:00;CYQF 070100Z 34002KT 15SM FEW060 FEW100 BKN250 13/M03 A2974 RMK CU2AC1CI1 SLP091

CYQF;2011-05-07 02:00;CYQF 070200Z 29002KT 15SM FEW050 SCT100 BKN250 12/M02 A2974 RMK SC2AC2CI1 TCU EMBD SH SW SLP091

CYQF;2011-05-07 03:00;CYQF 070300Z 00000KT 15SM FEW050 FEW100 BKN250 10/M00 A2974 RMK SC2AC1CI2 SLP090

CYQF;2011-05-07 04:00;CYQF 070400Z 20003KT 15SM FEW050 FEW100 BKN250 08/01 A2975 RMK SC2AC1CI1 SLP092

CYQF;2011-05-07 05:00;CYQF 070500Z 31002KT 15SM FEW050 SCT100 BKN250 07/01 A2975 RMK SC2AC2CI1 SLP093

CYQF;2011-05-07 06:00;CYQF 070600Z 29002KT 15SM FEW100 BKN250 06/01 A2974 RMK AC2CI2 SLP090

CYQF;2011-05-07 07:00;CYQF 070700Z 31004KT 15SM FEW100 BKN250 06/02 A2973 RMK AC2CI2 SLP088

CYQF;2011-05-07 08:00;CYQF 070800Z 00000KT 15SM FEW100 BKN250 05/02 A2973 RMK AC2CI1 SLP086

CYQF;2011-05-07 09:00;CYQF 070900Z 00000KT 15SM FEW090 BKN250 04/01 A2972 RMK AC2CI2 SLP084

CYQF;2011-05-07 10:00;CYQF 071000Z 22002KT 15SM FEW090 BKN250 03/02 A2971 RMK AC2CI2 SLP080

CYQF;2011-05-07 11:00;CYQF 071100Z 27002KT 15SM FEW090 BKN250 03/01 A2970 RMK AC2CI2 SLP077

CYQF;2011-05-07 12:00;CYQF 071200Z 00000KT 15SM SCT080 BKN250 03/01 A2970 RMK AC3CI2 SLP078

CYQF;2011-05-07 13:00;CYQF 071300Z 00000KT 15SM FEW080 BKN250 04/02 A2969 RMK AC2CI2 SLP077

CYQF;2011-05-07 14:00;CYQF 071400Z 00000KT 15SM BKN080 BKN250 06/03 A2970 RMK AC5CI2 VIRGA SLP079

CYQF;2011-05-07 15:00;CYQF 071500Z 00000KT 15SM BKN080 BKN250 07/03 A2970 RMK AC6CI1 VIRGA ACC SLP077

CYQF;2011-05-07 16:00;CYQF 071600Z 13005KT 15SM FEW020 BKN080 08/03 A2971 RMK CU2ACC6 SLP079

CYQF;2011-05-07 17:00;CYQF 071700Z 13010G15KT 15SM VCSH FEW012 BKN070 OVC220 06/04 A2971 RMK CU2AC3CI2 SLP080

CYQF;2011-05-07 17:13;CYQF 071713Z 13010G15KT 15SM -SHRA FEW012 BKN070 OVC220 RMK CU2AC3CI2

CYQF;2011-05-07 18:00;CYQF 071800Z 11012KT 15SM -SHRA FEW010 BKN050 OVC220 07/05 A2971 RMK CU2SC3CI2 SLP085

CYQF;2011-05-07 19:00;CYQF 071900Z 08010G15KT 15SM FEW010 BKN050 OVC220 06/04 A2970 RMK CU2SC4CI1 SH NE SLP081

CYQF;2011-05-07 20:00;CYQF 072000Z 07010G15KT 15SM FEW015 SCT040 BKN220 08/04 A2968 RMK CU2SC2CI2 SLP076

CYQF;2011-05-07 21:00;CYQF 072100Z 10010KT 15SM BKN025 BKN220 10/04 A2966 RMK CU6CI0 SLP068

CYQF;2011-05-07 22:00;CYQF 072200Z 04007KT 15SM BKN025 10/04 A2966 RMK CU7 SLP067

CYQF;2011-05-07 23:00;CYQF 072300Z 08003KT 15SM SCT030 BKN240 11/04 A2966 RMK CU4CI1 SLP066

CYQF;2011-05-08 00:00;CYQF 080000Z 07008KT 15SM SCT030TCU BKN240 11/04 A2966 RMK TCU4CI1 SLP064

CYQF;2011-05-08 01:00;CYQF 080100Z 05010G15KT 15SM SCT030CB BKN250 11/04 A2965 RMK CB3CI1 LTNG S SLP063

CYQF;2011-05-08 02:00;CYQF 080200Z 06010KT 15SM SCT020TCU BKN060 BKN250 10/05 A2966 RMK TCU3SC2CI1 SLP067

CYQF;2011-05-08 03:00;CYQF 080300Z 09008KT 15SM BKN040 BKN250 08/05 A2968 RMK SC5CI2 TCU EMBD SLP071

CYQF;2011-05-08 04:00;CYQF 080400Z 00000KT 15SM BKN040 08/04 A2969 RMK SC7 SLP075

CYQF;2011-05-08 05:00;CYQF 080500Z 08004KT 15SM BKN040 BKN250 07/05 A2969 RMK SC6CI1 SLP075

CYQF;2011-05-08 06:00;CYQF 080600Z 04003KT 15SM BKN040 BKN250 06/04 A2969 RMK SC5CI1 SLP078

CYQF;2011-05-08 07:00;CYQF 080700Z 03004KT 15SM SCT040 BKN250 05/04 A2969 RMK SC3CI1 SLP079

CYQF;2011-05-08 08:00;CYQF 080800Z 05003KT 15SM SCT040 BKN250 05/04 A2969 RMK SC3CI1 SLP079

CYQF;2011-05-08 09:00;CYQF 080900Z 00000KT 15SM SCT015 BKN040 05/04 A2969 RMK SC3SC3 SLP076

CYQF;2011-05-08 10:00;CYQF 081000Z 03003KT 15SM FEW015 BKN040 06/04 A2970 RMK SC2SC4 SLP077

CYQF;2011-05-08 11:00;CYQF 081100Z 00000KT 15SM FEW015 BKN040 05/04 A2971 RMK SC2SC5 SLP080

CYQF;2011-05-08 12:00;CYQF 081200Z 00000KT 15SM FEW015 BKN040 BKN080 05/05 A2971 RMK SC2SC5AC1 SLP080

CYQF;2011-05-08 13:00;CYQF 081300Z 05003KT 4SM BR OVC008 06/05 A2973 RMK ST8 SLP086

CYQF;2011-05-08 13:29;CYQF 081329Z 05003KT 2 1/2SM BR OVC008 RMK ST8

CYQF;2011-05-08 14:00;CYQF 081400Z 05004KT 2SM BR OVC006 06/05 A2974 RMK ST8 SLP089

CYQF;2011-05-08 15:00;CYQF 081500Z 06008KT 3/4SM -SHRA BR OVC003 06/06 A2975 RMK FG3ST5 SLP096

CYQF;2011-05-08 15:19;CYQF 081519Z 05008KT 1/2SM -SHRA FG OVC003 RMK FG3ST5

CYQF;2011-05-08 15:44;CYQF 081544Z 05006KT 2SM -SHRA BR BKN003 OVC008 RMK SF7ST1

CYQF;2011-05-08 16:00;CYQF 081600Z 05007KT 4SM -SHRA BR BKN004 OVC008 06/06 A2976 RMK SF7ST1 SLP098

CYQF;2011-05-08 16:27;CYQF 081627Z 08008KT 10SM -SHRA BKN008 OVC015 RMK SC6SC2

CYQF;2011-05-08 17:00;CYQF 081700Z 05010KT 10SM -SHRA BKN004 OVC008 06/05 A2977 RMK SF6SC2 SLP102

CYQF;2011-05-08 18:00;CYQF 081800Z 05013KT 10SM BKN008 OVC020 08/05 A2978 RMK SF6SC2 SLP107

CYQF;2011-05-08 18:49;CYQF 081849Z 09012KT 8SM -SHRA OVC013 RMK CU8

CYQF;2011-05-08 19:00;CYQF 081900Z 08014KT 8SM -SHRA OVC013 07/04 A2979 RMK CU8 SLP110

CYQF;2011-05-08 20:00;CYQF 082000Z 15005KT 8SM -SHRA BKN015 OVC030 07/05 A2980 RMK CU6SC2 SLP113

CYQF;2011-05-08 20:31;CYQF 082031Z 19004KT 2 1/2SM -RA BR BKN010 OVC025 RMK SC6SC2

CYQF;2011-05-08 21:00;CYQF 082100Z 20005KT 2 1/2SM -RA BR BKN007 OVC025 06/05 A2982 RMK SF6SC2 SLP123

CYQF;2011-05-08 21:15;CYQF 082115Z 18004KT 5SM -RA BR SCT007 BKN012 OVC025 RMK SF3SC3SC2

CYQF;2011-05-08 22:00;CYQF 082200Z 00000KT 5SM -RA BR SCT006 BKN012 OVC025 06/05 A2983 RMK SF3SC3SC2 SLP127

CYQF;2011-05-08 23:00;CYQF 082300Z 00000KT 8SM -RA FEW006 OVC020 07/06 A2984 RMK SF2SC6 SLP131

CYQF;2011-05-09 00:00;CYQF 090000Z 07005KT 5SM -RA BR FEW006 OVC020 06/05 A2986 RMK SF2SC6 SLP137

CYQF;2011-05-09 01:00;CYQF 090100Z 00000KT 10SM -RA FEW006 BKN020 BKN250 07/06 A2987 RMK SF1SC5CI0 SLP140

CYQF;2011-05-09 01:31;CYQF 090131Z 00000KT 15SM BKN020 BKN250 RMK SC6CI0

CYQF;2011-05-09 02:00;CYQF 090200Z 00000KT 15SM SCT020 BKN250 07/06 A2987 RMK SC3CI2 SLP142

CYQF;2011-05-09 03:00;CYQF 090300Z 00000KT 15SM BKN040 BKN250 06/06 A2989 RMK SC6CI1 SLP150

CYQF;2011-05-09 04:00;CYQF 090400Z 00000KT 15SM BKN040 BKN250 05/05 A2991 RMK SC5CI1 SLP156

CYQF;2011-05-09 05:00;CYQF 090500Z 00000KT 15SM SCT040 BKN250 05/05 A2993 RMK SC4CI1 MIFG SLP160

CYQF;2011-05-09 06:00;CYQF 090600Z 00000KT 15SM SCT040 BKN100 BKN250 04/04 A2994 RMK SC3AC2CI1 MIFG SLP164

CYQF;2011-05-09 07:00;CYQF 090700Z 00000KT 15SM SCT040 BKN100 OVC250 04/04 A2994 RMK SC3AC2CI1 SLP166

CYQF;2011-05-09 08:00;CYQF 090800Z 00000KT 8SM FEW040 FEW100 03/03 A2995 RMK SC2AC1 BCFG SLP168

CYQF;2011-05-09 08:35;CYQF 090835Z 00000KT 2SM BR SKC RMK FG2

CYQF;2011-05-09 09:00;CYQF 090900Z 00000KT 1 1/2SM BR SKC 01/01 A2995 RMK FG3 SLP176

CYQF;2011-05-09 09:17;CYQF 090917Z 00000KT 1/2SM FG SKC RMK FG4

CYQF;2011-05-09 10:00;CYQF 091000Z 20002KT 1/2SM FG SKC 00/00 A2996 RMK FG6 SLP180

CYQF;2011-05-09 11:00;CYQF 091100Z 00000KT 1/2SM FG SKC 00/M00 A2997 RMK FG6 SLP183

CYQF;2011-05-09 11:24;CYQF 091124Z 17003KT 1/4SM FG VV003 RMK FG8

CYQF;2011-05-09 12:00;CYQF 091200Z 00000KT 1/4SM FG VV003 01/01 A2999 RMK FG8 SLP189

CYQF;2011-05-09 12:46;CYQF 091246Z 00000KT 1/8SM FG VV003 RMK FG8

CYQF;2011-05-09 13:00;CYQF 091300Z 00000KT 1/8SM FG VV002 01/01 A3000 RMK FG8 SLP192

CYQF;2011-05-09 14:00;CYQF 091400Z 00000KT 1/8SM FG VV002 02/02 A3000 RMK FG8 SLP192

CYQF;2011-05-09 15:00;CYQF 091500Z 00000KT 0SM FG VV001 03/03 A3000 RMK FG8 SLP190

CYQF;2011-05-09 16:00;CYQF 091600Z 00000KT 1/8SM FG VV002 05/05 A3000 RMK FG8 SLP190

CYQF;2011-05-09 16:05;CYQF 091605Z 00000KT 1/4SM FG SKC RMK FG7

CYQF;2011-05-09 16:16;CYQF 091616Z 00000KT 3/4SM BR SKC RMK FG7

CYQF;2011-05-09 16:21;CYQF 091621Z 00000KT 1SM BR SKC RMK FG6

CYQF;2011-05-09 16:27;CYQF 091627Z 00000KT 2SM BR SKC RMK FG6

CYQF;2011-05-09 16:41;CYQF 091641Z 20005KT 5SM BR VCFG SCT006 SCT250 RMK CF4CI1

CYQF;2011-05-09 17:00;CYQF 091700Z 21004KT 10SM BKN006 BKN250 08/07 A3000 RMK CU6CI1 SLP189

CYQF;2011-05-09 17:20;CYQF 091720Z 16003KT 12SM SCT008 BKN250 RMK CU4CI1

CYQF;2011-05-09 18:00;CYQF 091800Z 18007KT 15SM BKN032 11/03 A2998 RMK CU6 SLP175

CYQF;2011-05-09 19:00;CYQF 091900Z 16006KT 15SM BKN037 BKN250 12/02 A2997 RMK CU5CI1 SLP171

CYQF;2011-05-09 20:00;CYQF 092000Z 22008KT 15SM BKN040 BKN250 13/02 A2995 RMK CU5CI1 SLP166

CYQF;2011-05-09 21:00;CYQF 092100Z 15008KT 15SM BKN040 BKN250 14/03 A2994 RMK CU5CI1 SLP161

CYQF;2011-05-09 22:00;CYQF 092200Z 17011KT 15SM BKN050 BKN250 14/02 A2992 RMK CU5CI2 SLP157

CYQF;2011-05-09 23:00;CYQF 092300Z 16008KT 15SM SCT050 BKN250 14/02 A2991 RMK CU3CI2 SLP153

CYQF;2011-05-10 00:00;CYQF 100000Z 15006KT 15SM FEW050 SCT250 14/02 A2989 RMK CU2CI1 SLP146

CYQF;2011-05-10 01:00;CYQF 100100Z 18007KT 15SM FEW050 FEW250 14/02 A2989 RMK CU2CI1 SLP145

CYQF;2011-05-10 02:00;CYQF 100200Z 15007KT 15SM FEW040TCU FEW100 SCT250 12/03 A2989 RMK TCU2AC1CI1 VIRGA NW SLP146

CYQF;2011-05-10 03:00;CYQF 100300Z 00000KT 15SM FEW035TCU FEW100 11/02 A2991 RMK TCU2AC1 VIRGA SLP152

CYQF;2011-05-10 04:00;CYQF 100400Z 14006KT 15SM FEW040 FEW100 09/02 A2990 RMK SC1AC1 SLP149

CYQF;2011-05-10 05:00;CYQF 100500Z 18004KT 15SM FEW090 FEW250 07/02 A2989 RMK AC1CI0 SLP147

CYQF;2011-05-10 06:00;CYQF 100600Z 16004KT 15SM FEW250 05/01 A2988 RMK CI1 SLP141

CYQF;2011-05-10 07:00;CYQF 100700Z 17006KT 15SM SKC 06/01 A2988 RMK SLP140

CYQF;2011-05-10 08:00;CYQF 100800Z 17004KT 15SM SKC 04/01 A2988 RMK SLP139

CYQF;2011-05-10 09:00;CYQF 100900Z 17006KT 15SM SKC 04/01 A2987 RMK SLP137

CYQF;2011-05-10 10:00;CYQF 101000Z 18005KT 15SM SKC 03/00 A2987 RMK SLP137

CYQF;2011-05-10 11:00;CYQF 101100Z 17004KT 15SM SKC 02/M00 A2988 RMK SLP139

CYQF;2011-05-10 12:00;CYQF 101200Z 18002KT 15SM SKC 02/00 A2988 RMK SLP140

CYQF;2011-05-10 13:00;CYQF 101300Z 18003KT 15SM SKC 03/01 A2989 RMK SLP143

CYQF;2011-05-10 14:00;CYQF 101400Z 19005KT 15SM SKC 06/02 A2991 RMK SLP149

CYQF;2011-05-10 15:00;CYQF 101500Z 18003KT 15SM FEW100 09/03 A2991 RMK AC1 SLP145

CYQF;2011-05-10 16:00;CYQF 101600Z 17003KT 15SM FEW250 11/01 A2989 RMK CI1 SLP141

CYQF;2011-05-10 17:00;CYQF 101700Z 15007KT 15SM FEW030 FEW250 14/01 A2989 RMK CU1CI1 SLP139

CYQF;2011-05-10 18:00;CYQF 101800Z 16006KT 15SM FEW040 FEW250 16/02 A2987 RMK CU1CI1 SLP132

CYQF;2011-05-10 19:00;CYQF 101900Z 19004KT 15SM FEW060 FEW250 17/02 A2986 RMK CU1CI1 SLP130

CYQF;2011-05-10 20:00;CYQF 102000Z 14004KT 15SM FEW060 FEW250 18/M02 A2985 RMK CU2CI0 SLP126

CYQF;2011-05-10 21:00;CYQF 102100Z 17003KT 15SM FEW080 FEW250 18/M02 A2983 RMK CU1CI0 SLP117

CYQF;2011-05-10 22:00;CYQF 102200Z CCA 15008KT 15SM FEW080 FEW250 19/M01 A2982 RMK CU1CI1 SLP114

CYQF;2011-05-10 23:00;CYQF 102300Z 11002KT 15SM FEW081 FEW250 19/M01 A2981 RMK CU1CI1 SLP110

CYQF;2011-05-11 00:00;CYQF 110000Z CCA 20003KT 15SM FEW080 FEW250 20/M02 A2981 RMK CU1CI1 CU TR SLP108

CYQF;2011-05-11 01:00;CYQF 110100Z 16005KT 15SM FEW080 FEW250 19/M03 A2980 RMK AC1CI1 AC TR SLP106

CYQF;2011-05-11 02:00;CYQF 110200Z 13007KT 15SM FEW080 FEW250 18/M02 A2980 RMK AC1CI1 AC TR SLP106

CYQF;2011-05-11 03:00;CYQF 110300Z 13008KT 15SM FEW080 SCT250 16/M01 A2980 RMK AC1CI1 SLP104

CYQF;2011-05-11 04:00;CYQF 110400Z 13008KT 15SM FEW250 13/01 A2981 RMK CI1 SLP106

CYQF;2011-05-11 05:00;CYQF 110500Z 14010G15KT 15SM FEW250 12/01 A2983 RMK CI1 SLP111

CYQF;2011-05-11 06:00;CYQF 110600Z 16013G18KT 15SM SKC 11/01 A2984 RMK SLP114

CYQF;2011-05-11 07:00;CYQF 110700Z 16010KT 15SM SKC 10/01 A2985 RMK SLP117

CYQF;2011-05-11 08:00;CYQF 110800Z 17010G16KT 15SM SKC 09/01 A2985 RMK SLP118

CYQF;2011-05-11 09:00;CYQF 110900Z 17012KT 15SM SKC 07/01 A2985 RMK SLP121

CYQF;2011-05-11 10:00;CYQF 111000Z 16010KT 15SM SKC 06/01 A2985 RMK SLP121

CYQF;2011-05-11 11:00;CYQF 111100Z 16012KT 15SM SCT240 06/00 A2985 RMK CI2 SLP119

CYQF;2011-05-11 12:00;CYQF 111200Z 15010KT 15SM FEW100 SCT240 06/M00 A2984 RMK AC1CI1 SLP116

CYQF;2011-05-11 13:00;CYQF 111300Z 15005KT 15SM BKN250 07/00 A2986 RMK CI2 SLP123

CYQF;2011-05-11 14:00;CYQF 111400Z 17010G15KT 15SM BKN250 10/01 A2986 RMK CI2 SLP122

CYQF;2011-05-11 15:00;CYQF 111500Z 15012G19KT 15SM BKN250 13/01 A2985 RMK CI2 SLP117

CYQF;2011-05-11 16:00;CYQF 111600Z 15018G26KT 15SM BKN250 15/M01 A2985 RMK CI2 SLP117

CYQF;2011-05-11 17:00;CYQF 111700Z 15019G26KT 15SM BKN250 17/M00 A2985 RMK CI2 SLP117

CYQF;2011-05-11 18:00;CYQF 111800Z 14020G28KT 15SM FEW250 17/01 A2985 RMK CI2 SLP118

CYQF;2011-05-11 19:00;CYQF 111900Z 15024G34KT 15SM FEW250 19/00 A2985 RMK CI2 SLP115

CYQF;2011-05-11 20:00;CYQF 112000Z 15025G35KT 15SM FEW250 19/00 A2984 RMK CI1 SLP113

CYQF;2011-05-11 21:00;CYQF 112100Z 15025G35KT 15SM FEW250 20/00 A2983 RMK CI1 SLP110

CYQF;2011-05-11 22:00;CYQF 112200Z 15025G36KT 15SM FEW084 FEW250 21/00 A2982 RMK CF1CI1 SLP106

CYQF;2011-05-11 23:00;CYQF 112300Z 14023G33KT 15SM FEW085 21/00 A2980 RMK AC1 SLP100

CYQF;2011-05-12 00:00;CYQF 120000Z 15016G35KT 15SM FEW085 22/M00 A2979 RMK AC1 SLP097

CYQF;2011-05-12 01:00;CYQF 120100Z 14020G33KT 15SM FEW085 FEW250 21/M01 A2979 RMK AC1CI1 SLP096

CYQF;2011-05-12 02:00;CYQF 120200Z 12015G25KT 15SM FEW250 19/01 A2980 RMK CI1 PK GUST 38KT PAST HOUR SLP098

CYQF;2011-05-12 03:00;CYQF 120300Z 14013G23KT 15SM FEW250 17/01 A2981 RMK CI1 SLP099

CYQF;2011-05-12 04:00;CYQF 120400Z 14015G25KT 15SM FEW250 15/M00 A2983 RMK CI1 SLP105

CYQF;2011-05-12 05:00;CYQF 120500Z 15015G25KT 15SM FEW250 13/M02 A2984 RMK CI1 SLP108

CYQF;2011-05-12 06:00;CYQF 120600Z 14012G18KT 15SM SKC 12/M03 A2984 RMK SLP113

CYQF;2011-05-12 07:00;CYQF 120700Z 15010G16KT 15SM SKC 10/M03 A2985 RMK SLP115

CYQF;2011-05-12 08:00;CYQF 120800Z 15015KT 15SM FEW250 10/M02 A2986 RMK CI1 SLP119

CYQF;2011-05-12 09:00;CYQF 120900Z 14014G20KT 15SM FEW250 10/M01 A2986 RMK CI1 SLP118

CYQF;2011-05-12 10:00;CYQF 121000Z 14015G22KT 15SM SCT250 09/00 A2985 RMK CI2 SLP116

CYQF;2011-05-12 11:00;CYQF 121100Z 13017G23KT 15SM FEW120 BKN250 08/01 A2985 RMK AC2CI2 SLP116

CYQF;2011-05-12 12:00;CYQF 121200Z 15013G29KT 15SM FEW120 SCT250 07/01 A2986 RMK AC2CI1 SLP118

CYQF;2011-05-12 13:00;CYQF 121300Z 14014G20KT 15SM FEW250 07/01 A2987 RMK CI1 SLP123

CYQF;2011-05-12 14:00;CYQF 121400Z 15015G25KT 15SM FEW100 FEW250 08/02 A2990 RMK AC1CI1 SLP130

CYQF;2011-05-12 15:00;CYQF 121500Z 15020G30KT 15SM FEW100 FEW250 12/03 A2990 RMK AC1CI1 SLP133

CYQF;2011-05-12 16:00;CYQF 121600Z 14020G30KT 15SM FEW044 FEW250 14/02 A2990 RMK CU1CI1 SLP134

CYQF;2011-05-12 17:00;CYQF 121700Z 13023G33KT 15SM FEW060 SCT250 17/02 A2992 RMK CU1CC3 SLP138

CYQF;2011-05-12 18:00;CYQF 121800Z 14024G35KT 15SM FEW065 SCT250 19/03 A2992 RMK CU1CI1 SLP138

CYQF;2011-05-12 19:00;CYQF 121900Z 14023G34KT 15SM FEW070 BKN250 20/03 A2993 RMK CU1CI2 SLP142

CYQF;2011-05-12 20:00;CYQF 122000Z 14022G31KT 15SM FEW065 SCT120 BKN240 21/03 A2993 RMK CU1AC1CI1 SLP141

CYQF;2011-05-12 21:00;CYQF 122100Z 14020G30KT 15SM FEW076 SCT120 BKN250 23/04 A2993 RMK CU1AC3CC2 SLP139

CYQF;2011-05-12 22:00;CYQF 122200Z 14018G28KT 15SM SCT075 SCT120 BKN240 23/03 A2991 RMK CU3AC1CI2 TCU ASOCTD SLP134

CYQF;2011-05-12 23:00;CYQF 122300Z 14018G28KT 15SM BKN075TCU BKN120 BKN240 23/04 A2992 RMK TCU5AC1CI2 CB ASOCTD SH NW SLP136

CYQF;2011-05-13 00:00;CYQF 130000Z 14020G30KT 15SM SCT075TCU SCT120 BKN240 22/03 A2992 RMK TCU3AC1CI2 SLP140

CYQF;2011-05-13 01:00;CYQF 130100Z 14017G25KT 15SM FEW070TCU BKN120 BKN240 22/04 A2992 RMK TCU2AC2CI2 VIRGA SLP140

CYQF;2011-05-13 02:00;CYQF 130200Z 13018G28KT 15SM FEW065TCU SCT120 BKN240 20/04 A2995 RMK TCU2AC2CI2 SLP148

CYQF;2011-05-13 03:00;CYQF 130300Z 14015G25KT 15SM BKN065TCU BKN240 19/03 A2997 RMK TCU5CI2 VIRGA SLP154

CYQF;2011-05-13 04:00;CYQF 130400Z 14012G18KT 15SM SCT050TCU BKN240 17/04 A3000 RMK TCU4CI1 SLP163

CYQF;2011-05-13 05:00;CYQF 130500Z 15015G20KT 15SM FEW050TCU BKN100 BKN240 16/03 A3001 RMK TCU2AC1CI1 SLP167

CYQF;2011-05-13 06:00;CYQF 130600Z 29015G20KT 15SM SCT240 09/05 A3008 RMK CI1 PRESRR SLP198

CYQF;2011-05-13 07:00;CYQF 130700Z 30011G16KT 15SM FEW240 08/04 A3016 RMK CI0 PRESRR SLP222

CYQF;2011-05-13 08:00;CYQF 130800Z 30010G15KT 15SM FEW240 07/04 A3020 RMK CI1 SLP235

CYQF;2011-05-13 09:00;CYQF 130900Z 32002KT 15SM FEW100 FEW240 05/04 A3025 RMK AC1CI1 SLP254

CYQF;2011-05-13 10:00;CYQF 131000Z 36008KT 15SM FEW100 FEW240 06/04 A3029 RMK AC1CI1 SLP267

CYQF;2011-05-13 11:00;CYQF 131100Z 33005KT 15SM FEW100 FEW240 04/02 A3031 RMK AC1CI1 SLP274

CYQF;2011-05-13 12:00;CYQF 131200Z 32003KT 15SM FEW100 BKN250 03/01 A3034 RMK AC1CI3 SLP289

CYQF;2011-05-13 13:00;CYQF 131300Z 34002KT 15SM FEW010 FEW100 BKN250 04/03 A3036 RMK SC1AC1CI4 SLP295

CYQF;2011-05-13 14:00;CYQF 131400Z 34004KT 15SM FEW010 BKN100 BKN250 06/03 A3038 RMK SC1AC5CI2 SLP302

CYQF;2011-05-13 15:00;CYQF 131500Z 01003KT 15SM FEW016 SCT100 BKN250 07/03 A3039 RMK SC1AC2CS3 CU SLP306

CYQF;2011-05-13 16:00;CYQF 131600Z 02004KT 15SM FEW020 FEW100 BKN250 08/03 A3040 RMK SC1AC1CI6 TR SC + AC SLP307

CYQF;2011-05-13 17:00;CYQF 131700Z 36003KT 15SM FEW032 BKN250 11/03 A3040 RMK SC1CS6 CU SLP307

CYQF;2011-05-13 18:00;CYQF 131800Z 00000KT 15SM FEW040 OVC250 12/04 A3039 RMK CU1CS3 SLP312

CYQF;2011-05-13 19:00;CYQF 131900Z 03005KT 15SM FEW040 OVC250 14/03 A3038 RMK CU1CI2 SLP309

CYQF;2011-05-13 20:00;CYQF 132000Z 05008KT 15SM SCT052 BKN250 16/03 A3037 RMK CU3CS3 SLP304

CYQF;2011-05-13 21:00;CYQF 132100Z 08011KT 15SM SCT052 BKN250 17/04 A3035 RMK CU4CI2 SLP298

CYQF;2011-05-13 22:00;CYQF 132200Z 15005KT 15SM SCT060 BKN250 17/02 A3034 RMK CU4CI2 SLP294

CYQF;2011-05-13 23:00;CYQF 132300Z 10008KT 15SM BKN050 BKN250 17/04 A3033 RMK CU5CI2 SLP291

CYQF;2011-05-14 00:00;CYQF 140000Z 13012KT 12SM BKN050 BKN250 18/03 A3032 RMK CU5CI2 FU SLP287

CYQF;2011-05-14 01:00;CYQF 140100Z 13012KT 15SM BKN050 BKN250 18/05 A3031 RMK CU5CI2 SLP283

CYQF;2011-05-14 02:00;CYQF 140200Z 12013KT 15SM FEW050 BKN250 17/05 A3031 RMK CU2CI2 SLP284

CYQF;2011-05-14 03:00;CYQF 140300Z 13015G25KT 15SM FEW050 BKN250 15/04 A3032 RMK SC1CI4 SLP285

CYQF;2011-05-14 04:00;CYQF 140400Z 12013G22KT 15SM BKN250 13/01 A3034 RMK CI3 SLP290

CYQF;2011-05-14 05:00;CYQF 140500Z 13015G20KT 15SM BKN250 12/01 A3034 RMK CI2 SLP292

CYQF;2011-05-14 06:00;CYQF 140600Z 14020G26KT 15SM BKN250 12/01 A3035 RMK CI3 SLP294

CYQF;2011-05-14 07:00;CYQF 140700Z 14015G21KT 15SM BKN250 10/00 A3036 RMK CI4 SLP296

CYQF;2011-05-14 08:00;CYQF 140800Z 15017G23KT 15SM BKN250 10/00 A3036 RMK CI2 SLP298

CYQF;2011-05-14 09:00;CYQF 140900Z 15015G21KT 15SM FEW250 09/01 A3037 RMK CI0 SLP298

CYQF;2011-05-14 10:00;CYQF 141000Z 14015G20KT 15SM FEW250 08/01 A3036 RMK CI1 SLP297

CYQF;2011-05-14 11:00;CYQF 141100Z 14015G20KT 15SM FEW250 07/01 A3037 RMK CI1 SLP298

CYQF;2011-05-14 12:00;CYQF 141200Z 14010G16KT 15SM FEW250 05/00 A3037 RMK CI1 SLP302

CYQF;2011-05-14 13:00;CYQF 141300Z 13010G15KT 15SM SCT250 05/00 A3038 RMK CI1 SLP305

CYQF;2011-05-14 14:00;CYQF 141400Z 15015G20KT 15SM SCT250 08/01 A3038 RMK CI1 SLP305

CYQF;2011-05-14 15:00;CYQF 141500Z 15017G27KT 15SM BKN250 10/01 A3038 RMK CI2 SLP303

CYQF;2011-05-14 16:00;CYQF 141600Z 17020G27KT 15SM BKN250 13/M01 A3037 RMK CI1 SLP300

CYQF;2011-05-14 17:00;CYQF 141700Z 15027G37KT 15SM BKN250 13/M04 A3036 RMK CI2 SLP297

CYQF;2011-05-14 18:00;CYQF 141800Z 14023G33KT 15SM BKN250 15/M04 A3034 RMK CI2 SLP290

CYQF;2011-05-14 19:00;CYQF 141900Z 15023G36KT 15SM SCT250 16/M05 A3033 RMK CI4 SLP284

CYQF;2011-05-14 20:00;CYQF 142000Z 15018G28KT 15SM FEW250 17/M05 A3030 RMK CI2 SLP277

CYQF;2011-05-14 21:00;CYQF 142100Z 16017G27KT 15SM FEW250 18/M06 A3028 RMK CI1 SLP267

CYQF;2011-05-14 22:00;CYQF 142200Z 14018G28KT 15SM SKC 18/M09 A3026 RMK SLP260

CYQF;2011-05-14 23:00;CYQF 142300Z 14022G33KT 15SM SKC 18/M11 A3024 RMK SLP253

CYQF;2011-05-15 00:00;CYQF 150000Z 14020G30KT 15SM SKC 18/M09 A3022 RMK SLP250

CYQF;2011-05-15 01:00;CYQF 150100Z 15022G30KT 15SM SKC 17/M10 A3020 RMK SLP243

CYQF;2011-05-15 02:00;CYQF 150200Z 14018G28KT 15SM SKC 16/M10 A3019 RMK SLP240

CYQF;2011-05-15 03:00;CYQF 150300Z 14012G18KT 15SM SKC 14/M08 A3018 RMK SLP235

CYQF;2011-05-15 04:00;CYQF 150400Z 13010G15KT 15SM SKC 12/M09 A3018 RMK SLP233

CYQF;2011-05-15 05:00;CYQF 150500Z 13013KT 15SM SKC 11/M08 A3017 RMK SLP230

CYQF;2011-05-15 06:00;CYQF 150600Z 14015KT 15SM SKC 09/M08 A3016 RMK SLP228

CYQF;2011-05-15 07:00;CYQF 150700Z 14013KT 15SM SKC 08/M07 A3015 RMK SLP226

CYQF;2011-05-15 08:00;CYQF 150800Z 14012KT 15SM SKC 07/M06 A3014 RMK SLP223

CYQF;2011-05-15 09:00;CYQF 150900Z 16007KT 15SM SKC 05/M05 A3013 RMK SLP218

CYQF;2011-05-15 10:00;CYQF 151000Z 14010KT 15SM SKC 05/M05 A3011 RMK SLP213

CYQF;2011-05-15 11:00;CYQF 151100Z 13008KT 15SM SKC 04/M04 A3009 RMK SLP206

CYQF;2011-05-15 12:00;CYQF 151200Z 14010KT 15SM SKC 03/M04 A3007 RMK SLP201

CYQF;2011-05-15 13:00;CYQF 151300Z 14006KT 15SM SKC 05/M03 A3006 RMK SLP199

CYQF;2011-05-15 14:00;CYQF 151400Z 15012G17KT 15SM SKC 07/M02 A3005 RMK SLP193

CYQF;2011-05-15 15:00;CYQF 151500Z 15015G20KT 15SM FEW080 09/M02 A3003 RMK AC1 SLP182

CYQF;2011-05-15 16:00;CYQF 151600Z 15020G30KT 15SM FEW050 11/M02 A3001 RMK CU1 SLP177

CYQF;2011-05-15 17:00;CYQF 151700Z 14028G38KT 15SM FEW050 12/M02 A2998 RMK CU2 SLP167

CYQF;2011-05-15 18:00;CYQF 151800Z 15025G30KT 15SM SCT050 12/M02 A2995 RMK CU4 SLP157

CYQF;2011-05-15 19:00;CYQF 151900Z 14025G30KT 15SM SCT055 14/M01 A2993 RMK CU4 SLP150

CYQF;2011-05-15 20:00;CYQF 152000Z 14025G35KT 15SM BKN060 16/00 A2989 RMK CU6 PEAK GUST PST HR 45KTS SLP138

CYQF;2011-05-15 21:00;CYQF 152100Z 15025G40KT 15SM BKN060 16/00 A2986 RMK CU6 SLP128

CYQF;2011-05-15 22:00;CYQF 152200Z 15024G38KT 15SM BKN060 BKN250 16/00 A2984 RMK CU5CI1 SLP121

CYQF;2011-05-15 23:00;CYQF 152300Z 15025G35KT 15SM SCT060 BKN250 17/01 A2980 RMK CU3CI1 SLP110

CYQF;2011-05-16 00:00;CYQF 160000Z 16022G30KT 15SM FEW060 SCT250 17/01 A2977 RMK CU2CI1 SLP098

CYQF;2011-05-16 01:00;CYQF 160100Z 15025G35KT 15SM FEW070 SCT250 17/01 A2976 RMK AC2CI1 SLP094

CYQF;2011-05-16 02:00;CYQF 160200Z 16018G25KT 15SM FEW080 FEW250 16/01 A2975 RMK AC1CI1 SLP090

CYQF;2011-05-16 03:00;CYQF 160300Z 13010G15KT 15SM FEW080 FEW250 15/02 A2973 RMK AC1CI1 TR AC SLP080

CYQF;2011-05-16 04:00;CYQF 160400Z 13010G15KT 15SM FEW250 14/02 A2973 RMK CI0 SLP079

CYQF;2011-05-16 05:00;CYQF 160500Z 14013KT 15SM FEW250 13/02 A2972 RMK CI0 SLP075

CYQF;2011-05-16 06:00;CYQF 160600Z 12013KT 15SM FEW250 11/02 A2970 RMK CI0 SLP070

CYQF;2011-05-16 07:00;CYQF 160700Z 14012KT 15SM FEW250 10/01 A2968 RMK CI0 SLP063

CYQF;2011-05-16 08:00;CYQF 160800Z 14012KT 15SM FEW080 FEW250 09/01 A2967 RMK AC2CI0 SLP060

CYQF;2011-05-16 09:00;CYQF 160900Z 15006KT 15SM FEW080 SCT250 08/01 A2965 RMK AC2CI0 SLP053

CYQF;2011-05-16 10:00;CYQF 161000Z 16006KT 15SM FEW080 SCT250 08/01 A2963 RMK AC2CI0 SLP047

CYQF;2011-05-16 11:00;CYQF 161100Z 14007KT 15SM FEW080 SCT250 06/01 A2961 RMK AC2CI0 SLP039

CYQF;2011-05-16 12:00;CYQF 161200Z 16006KT 15SM FEW080 FEW250 06/01 A2960 RMK AC1CI0 SLP036

CYQF;2011-05-16 13:00;CYQF 161300Z 15006KT 15SM FEW080 FEW250 06/01 A2961 RMK AC1CI1 SLP037

CYQF;2011-05-16 14:00;CYQF 161400Z 15010G15KT 15SM FEW080 FEW250 09/01 A2959 RMK AC1CI0 SLP032

CYQF;2011-05-16 15:00;CYQF 161500Z 17010G15KT 15SM FEW080 FEW250 11/02 A2958 RMK AC1CI0 SLP024

CYQF;2011-05-16 16:00;CYQF 161600Z 14011G17KT 15SM FEW260 13/03 A2956 RMK CI1 SLP018

CYQF;2011-05-16 17:00;CYQF 161700Z 13010G15KT 15SM FEW120 SCT260 16/04 A2954 RMK AC1CI1 SLP011

CYQF;2011-05-16 18:00;CYQF 161800Z 15012G20KT 15SM FEW120 BKN260 17/04 A2952 RMK AC2CI2 SLP003

CYQF;2011-05-16 19:00;CYQF 161900Z 16012G18KT 15SM SCT120 BKN260 18/04 A2952 RMK AC4CI2 SLP001

CYQF;2011-05-16 20:00;CYQF 162000Z 13020G30KT 15SM SCT120 BKN250 17/04 A2950 RMK AC3CI3 SLP997

CYQF;2011-05-16 21:00;CYQF 162100Z 15015G25KT 15SM FEW120 BKN250 19/05 A2948 RMK AC2CI3 SLP990

CYQF;2011-05-16 22:00;CYQF 162200Z 15020G25KT 15SM FEW060 SCT120 BKN250 21/06 A2946 RMK CU1AC2CI2 SLP984

CYQF;2011-05-16 23:00;CYQF 162300Z 15015G25KT 15SM FEW060 SCT120 BKN250 20/04 A2946 RMK CU1AC2CI2 SLP982

CYQF;2011-05-17 00:00;CYQF 170000Z 15018G25KT 15SM FEW060 SCT120 BKN250 20/03 A2945 RMK CU2AC2CI2 SLP981

CYQF;2011-05-17 01:00;CYQF 170100Z 13020G28KT 15SM FEW060 FEW120 BKN250 19/04 A2944 RMK CU2AC1CI2 SLP977

CYQF;2011-05-17 02:00;CYQF 170200Z 14015G21KT 15SM SCT080 BKN250 17/05 A2944 RMK AC2CI2 SLP978

CYQF;2011-05-17 03:00;CYQF 170300Z 16013KT 15SM SCT090 BKN250 16/M01 A2944 RMK AC4CI2 SLP977

CYQF;2011-05-17 04:00;CYQF 170400Z 15012KT 15SM FEW090 BKN250 13/M03 A2945 RMK AC2CI2 SLP978

CYQF;2011-05-17 05:00;CYQF 170500Z 12007KT 15SM FEW090 SCT250 10/M02 A2943 RMK AC1CI2 SLP974

CYQF;2011-05-17 06:00;CYQF 170600Z 14010KT 15SM FEW090 FEW250 08/M01 A2942 RMK AC1CI1 SLP972

CYQF;2011-05-17 07:00;CYQF 170700Z 13012KT 15SM SKC 07/M02 A2940 RMK SLP966

CYQF;2011-05-17 08:00;CYQF 170800Z 13013KT 15SM SKC 05/M02 A2941 RMK SLP967

CYQF;2011-05-17 09:00;CYQF 170900Z 12013KT 15SM FEW250 04/M03 A2939 RMK CI0 SLP963

CYQF;2011-05-17 10:00;CYQF 171000Z 12010KT 15SM FEW080 SCT250 03/M03 A2939 RMK AC2CI0 SLP961

CYQF;2011-05-17 11:00;CYQF 171100Z 16010KT 15SM FEW080 FEW210 03/M02 A2939 RMK AC2CI0 SLP961

CYQF;2011-05-17 12:00;CYQF 171200Z 16008KT 15SM FEW090 FEW210 04/M03 A2940 RMK AC1CI0 SLP966

CYQF;2011-05-17 13:00;CYQF 171300Z 14008KT 15SM FEW090 FEW210 06/M02 A2941 RMK AC1CI0 SLP969

CYQF;2011-05-17 14:00;CYQF 171400Z 18010G15KT 15SM FEW090 BKN250 10/M01 A2942 RMK AC1CI6 SLP971

CYQF;2011-05-17 15:00;CYQF 171500Z 17010G15KT 15SM SCT250 11/M02 A2943 RMK CI1 SLP971

CYQF;2011-05-17 16:00;CYQF 171600Z 13011G16KT 15SM SCT250 13/M01 A2943 RMK CI1 SLP973

CYQF;2011-05-17 17:00;CYQF 171700Z 14010G15KT 15SM FEW050 FEW250 15/M02 A2944 RMK CU1CI1 SLP975

CYQF;2011-05-17 18:00;CYQF 171800Z 14012G18KT 15SM FEW060 SCT260 15/M02 A2945 RMK CU1CI1 SLP982

CYQF;2011-05-17 19:00;CYQF 171900Z 13014G27KT 15SM FEW080 FEW260 17/M03 A2945 RMK AC2CI1 CU SLP982

CYQF;2011-05-17 20:00;CYQF 172000Z 14012G20KT 15SM SCT080 17/M04 A2945 RMK CU4 SLP983

CYQF;2011-05-17 21:00;CYQF 172100Z 16013G20KT 15SM BKN080 18/M04 A2947 RMK AC6 CU SLP991

CYQF;2011-05-17 22:00;CYQF 172200Z 21010G15KT 15SM BKN080 18/M05 A2948 RMK CU6 SH W SLP996

CYQF;2011-05-17 23:00;CYQF 172300Z 20012G18KT 15SM BKN080 18/M05 A2949 RMK CU6 TCU ASOCTD VIRGA SLP999

CYQF;2011-05-18 00:00;CYQF 180000Z 19010KT 15SM BKN080 18/M04 A2951 RMK CU6 TCU ASOCTD VIRGA SLP004

CYQF;2011-05-18 01:00;CYQF 180100Z 24005KT 15SM BKN080 17/M04 A2952 RMK CU5 TCU ASOCTD VIRGA SLP009

CYQF;2011-05-18 02:00;CYQF 180200Z 26005KT 15SM BKN060 15/M02 A2954 RMK CU5 VIRGA SLP015

CYQF;2011-05-18 03:00;CYQF 180300Z 00000KT 15SM BKN060 14/M02 A2956 RMK SC5 VIRGA SLP020

CYQF;2011-05-18 04:00;CYQF 180400Z 32003KT 15SM SCT040 12/M01 A2959 RMK SC3 VIRGA SLP028

CYQF;2011-05-18 05:00;CYQF 180500Z 27005KT 15SM FEW040 12/M02 A2962 RMK SC2 SLP036

CYQF;2011-05-18 06:00;CYQF 180600Z 25003KT 15SM FEW040 10/M04 A2964 RMK SC2 SLP046

CYQF;2011-05-18 07:00;CYQF 180700Z 00000KT 15SM FEW040 08/M04 A2966 RMK SC2 SLP051

CYQF;2011-05-18 08:00;CYQF 180800Z 00000KT 15SM SKC 07/M04 A2967 RMK SLP055

CYQF;2011-05-18 09:00;CYQF 180900Z 26006KT 15SM FEW040 06/M03 A2969 RMK SC1 SLP065

CYQF;2011-05-18 10:00;CYQF 181000Z 25004KT 15SM FEW080 03/M03 A2971 RMK AC2 SLP073

CYQF;2011-05-18 11:00;CYQF 181100Z 28003KT 15SM FEW080 FEW250 04/M03 A2974 RMK AC1CI0 SLP081

CYQF;2011-05-18 12:00;CYQF 181200Z 28004KT 15SM FEW080 FEW250 03/M03 A2976 RMK AC1CI0 SLP092

CYQF;2011-05-18 13:00;CYQF 181300Z 30004KT 15SM FEW090 FEW250 06/M01 A2978 RMK AC1CI0 SLP098

CYQF;2011-05-18 14:00;CYQF 181400Z 31010G15KT 15SM FEW250 09/00 A2979 RMK CI1 SLP103

CYQF;2011-05-18 15:00;CYQF 181500Z 31012G19KT 15SM FEW250 11/02 A2981 RMK CI1 SLP106

CYQF;2011-05-18 16:00;CYQF 181600Z 32010G15KT 15SM FEW250 13/02 A2982 RMK CI2 SLP109

CYQF;2011-05-18 17:00;CYQF 181700Z 32010G15KT 15SM FEW055 FEW250 14/00 A2983 RMK CU1CI1 TR CU SLP112

CYQF;2011-05-18 18:00;CYQF 181800Z 33010G15KT 15SM FEW060 SCT250 16/00 A2984 RMK CU1CI3 SLP117

CYQF;2011-05-18 19:00;CYQF 181900Z 35010G15KT 15SM FEW060 BKN250 16/01 A2985 RMK CU1CI2 TR CU SLP119

CYQF;2011-05-18 20:00;CYQF 182000Z 36012G17KT 15SM FEW064 BKN250 17/01 A2985 RMK CU2CI4 SLP120

CYQF;2011-05-18 21:00;CYQF 182100Z 02007KT 15SM SCT065 BKN250 18/01 A2986 RMK CU4CI2 SLP125

CYQF;2011-05-18 22:00;CYQF 182200Z 02006KT 15SM SCT070 OVC210 18/01 A2987 RMK CU3CS2 SLP129

CYQF;2011-05-18 23:00;CYQF 182300Z 02005KT 15SM SCT070 OVC210 18/00 A2988 RMK CU3CS2 SLP132

CYQF;2011-05-19 00:00;CYQF 190000Z 02010KT 15SM FEW070 OVC210 19/M02 A2988 RMK AC2CS6 SLP135

CYQF;2011-05-19 04:00;CYQF 190400Z 09013G22KT 15SM VCSH BKN040 OVC120 13/04 A2996 RMK SC6AC2 TCU ASOCTD SLP155

CYQF;2011-05-19 04:30;CYQF 190430Z 09012KT 15SM -RA BKN040 OVC120 RMK SC6AC2

CYQF;2011-05-19 05:00;CYQF 190500Z 07007KT 15SM -RA OVC050 11/07 A3000 RMK SC8 SLP167

CYQF;2011-05-19 05:51;CYQF 190551Z 03006KT 10SM -RA SCT006 OVC050 RMK SF3SC5

CYQF;2011-05-19 06:00;CYQF 190600Z 01006KT 10SM -RA SCT006 OVC050 09/08 A3000 RMK SF3SC5 SLP170

CYQF;2011-05-19 07:00;CYQF 190700Z 35004KT 10SM -RA SCT006 OVC050 09/08 A3000 RMK SF3SC5 SLP172

CYQF;2011-05-19 08:00;CYQF 190800Z CCA 02004KT 10SM -RA SCT006 OVC050 09/08 A3001 RMK SF3SC5 SLP174

CYQF;2011-05-19 09:00;CYQF 190900Z 35003KT 10SM -RA FEW005 OVC050 09/08 A3002 RMK SF2SC6 SLP176

CYQF;2011-05-19 10:00;CYQF 191000Z 00000KT 10SM -RA FEW005 OVC050 09/08 A3004 RMK SF2SC6 SLP181

CYQF;2011-05-19 11:00;CYQF 191100Z 00000KT 10SM -RA FEW006 OVC050 09/08 A3004 RMK SF2SC6 SLP183

CYQF;2011-05-19 12:00;CYQF 191200Z 33008KT 15SM -RA FEW006 BKN050 OVC090 09/08 A3002 RMK SF2SC4AC2 SLP175

CYQF;2011-05-19 12:38;CYQF 191238Z 35004KT 15SM FEW006 BKN050 BKN090 RMK SF2SC3AC2

CYQF;2011-05-19 13:00;CYQF 191300Z 34002KT 15SM SCT050 BKN090 09/08 A3003 RMK SC3AC3 SLP180

CYQF;2011-05-19 14:00;CYQF 191400Z 35005KT 15SM SCT048 BKN090 10/09 A3004 RMK SC3AC3 FOG BNK N SLP183

CYQF;2011-05-19 14:48;CYQF 191448Z 02007KT 10SM FEW008 SCT030 BKN100 RMK SF2SC2AC2 BR

CYQF;2011-05-19 15:00;CYQF 191500Z 02007KT 10SM SCT008 BKN100 11/09 A3005 RMK SF4AC2 BR SLP189

CYQF;2011-05-19 15:31;CYQF 191531Z 01007KT 6SM BR BKN008 BKN100 RMK SF5AC2

CYQF;2011-05-19 16:00;CYQF 191600Z 03008KT 6SM BR BKN009 BKN100 12/09 A3006 RMK SF5AC2 SLP192

CYQF;2011-05-19 17:00;CYQF 191700Z 01008KT 10SM BKN011 BKN030 OVC100 13/09 A3007 RMK SF5SC2AC1 BR SLP195

CYQF;2011-05-19 18:00;CYQF 191800Z 35003KT 10SM VCSH FEW012 OVC060 13/10 A3009 RMK CU2SC6 SLP204

CYQF;2011-05-19 19:00;CYQF 191900Z 06008KT 12SM FEW028 OVC060 14/07 A3009 RMK CU2SC6 SLP205

CYQF;2011-05-19 20:00;CYQF 192000Z 07010G15KT 12SM SCT030TCU BKN070 15/08 A3009 RMK TCU3AC2 SLP205

CYQF;2011-05-19 21:00;CYQF 192100Z 10010G15KT 15SM SCT040TCU BKN070 BKN250 17/07 A3009 RMK TCU3AC2CI2 SLP202

CYQF;2011-05-19 21:13;CYQF 192113Z 15013G18KT 12SM -SHRA BKN040TCU BKN070 BKN250 RMK TCU5AC2CI1

CYQF;2011-05-19 21:31;CYQF 192131Z 16005KT 15SM SCT040TCU BKN090 BKN250 RMK TCU3AC2CI1

CYQF;2011-05-19 22:00;CYQF 192200Z 16005KT 15SM SCT040TCU BKN090 BKN250 17/08 A3009 RMK TCU3AC1CI1 SLP203

CYQF;2011-05-19 23:00;CYQF 192300Z 15003KT 15SM BKN040TCU BKN090 BKN250 17/07 A3009 RMK TCU5AC2CI0 SLP203

CYQF;2011-05-20 00:00;CYQF 200000Z 00000KT 15SM VCSH BKN040TCU BKN090 17/07 A3009 RMK TCU6AC2 SLP202

CYQF;2011-05-20 00:07;CYQF 200007Z 00000KT 15SM TS VCSH BKN040CB BKN090 RMK CB6AC2

CYQF;2011-05-20 01:00;CYQF 200100Z 30002KT 15SM VCSH BKN040CB BKN250 14/07 A3010 RETS RMK CB5CI2 SLP205

CYQF;2011-05-20 01:32;CYQF 200132Z 18008G15KT 15SM -SHRA BKN040CB BKN250 RMK CB6CI1

CYQF;2011-05-20 01:46;CYQF 200146Z 27010G15KT 15SM -TSRA BKN040CB RMK CB6

CYQF;2011-05-20 02:00;CYQF 200200Z 28010G16KT 15SM TS SCT040CB BKN250 13/07 A3012 RMK CB4CI1 OCNL -SHRA SLP212

CYQF;2011-05-20 03:00;CYQF 200300Z CCA 29006KT 15SM VCSH BKN040TCU BKN250 12/08 A3015 RETS RMK TCU5CI2 SLP225

CYQF;2011-05-20 04:00;CYQF 200400Z 31006KT 15SM VCSH BKN020 BKN250 10/08 A3016 RMK CU5CI1 SLP230

CYQF;2011-05-20 05:00;CYQF 200500Z 32005KT 15SM BKN040 11/08 A3017 RMK SC7 SLP233

CYQF;2011-05-20 06:00;CYQF 200600Z 32008KT 15SM SCT040 10/07 A3017 RMK SC4 SLP232

CYQF;2011-05-20 07:00;CYQF 200700Z 34007KT 15SM SCT040 09/07 A3016 RMK SC4 SLP231

CYQF;2011-05-20 08:00;CYQF 200800Z 32005KT 15SM BKN080 09/07 A3016 RMK AC3 SLP230

CYQF;2011-05-20 09:00;CYQF 200900Z 33010KT 15SM BKN080 09/06 A3016 RMK AC5 SLP227

CYQF;2011-05-20 10:00;CYQF 201000Z 18003KT 15SM BKN080 09/07 A3017 RMK AC5 SLP229

CYQF;2011-05-20 11:00;CYQF 201100Z 23002KT 15SM BKN090 08/07 A3017 RMK AC6 SLP229

CYQF;2011-05-20 12:00;CYQF 201200Z 00000KT 8SM BKN090 BKN250 07/07 A3018 RMK AC6CI1 BR SLP233

CYQF;2011-05-20 13:00;CYQF 201300Z 00000KT 10SM BKN090 BKN250 08/07 A3018 RMK AC6CI1 BR SLP234

CYQF;2011-05-20 14:00;CYQF 201400Z 29003KT 15SM BKN100 BKN250 10/08 A3018 RMK AC6CI1 SLP234

CYQF;2011-05-20 15:00;CYQF 201500Z 34003KT 15SM SCT100 BKN250 12/08 A3018 RMK AC3CI2 SLP235

CYQF;2011-05-20 16:00;CYQF 201600Z 34004KT 15SM FEW100 BKN250 13/08 A3017 RMK AC1CI2 SLP233

CYQF;2011-05-20 17:00;CYQF 201700Z 33002KT 15SM FEW027 FEW100 BKN250 15/08 A3016 RMK CU1AC1CI1 AC TR SLP229

CYQF;2011-05-20 18:00;CYQF 201800Z 30004KT 15SM FEW028 BKN250 16/09 A3015 RMK CU2CI2 SLP221

CYQF;2011-05-20 19:00;CYQF 201900Z 00000KT 15SM BKN044TCU BKN250 18/08 A3014 RMK TCU6CI1 SLP218

CYQF;2011-05-20 20:00;CYQF 202000Z 35003KT 15SM BKN040 BKN250 17/07 A3013 RMK CU6CI1 SLP214

CYQF;2011-05-20 21:00;CYQF 202100Z 24004KT 15SM FEW048 BKN070 BKN250 18/06 A3012 RMK CU2AC4CI1 SLP210

CYQF;2011-05-20 22:00;CYQF 202200Z 00000KT 15SM FEW050 BKN070 BKN250 20/06 A3011 RMK CU2AC4CI1 SLP206

CYQF;2011-05-20 23:00;CYQF 202300Z 00000KT 15SM FEW050 BKN070 BKN250 19/06 A3009 RMK CU2AC3CI1 SLP201

CYQF;2011-05-21 00:00;CYQF 210000Z 00000KT 15SM FEW056 BKN090 BKN250 19/05 A3008 RMK CU2AC4CI2 SLP197

CYQF;2011-05-21 01:00;CYQF 210100Z 00000KT 15SM FEW056 SCT090 BKN250 19/06 A3007 RMK CU2AC2CI3 SLP193

CYQF;2011-05-21 02:00;CYQF 210200Z 00000KT 15SM FEW050 SCT090 BKN250 18/07 A3006 RMK CU2AC2CI2 SLP191

CYQF;2011-05-21 03:00;CYQF 210300Z 00000KT 15SM SCT070 BKN210 18/06 A3005 RMK AC3CI2 SLP186

CYQF;2011-05-21 04:00;CYQF 210400Z 00000KT 15SM SCT070 BKN250 16/07 A3005 RMK AC4CI2 SLP185

CYQF;2011-05-21 11:00;CYQF 211100Z 00000KT 15SM SCT120 BKN250 08/06 A3001 RMK AC3CI2 SLP173

CYQF;2011-05-21 12:00;CYQF 211200Z 00000KT 15SM FEW120 SCT250 07/05 A2999 RMK AC2CI1 MIFG SLP168

CYQF;2011-05-21 13:00;CYQF 211300Z CCA 00000KT 15SM FEW120 BKN250 08/06 A2999 RMK AC2CI1 SLP167

CYQF;2011-05-21 14:00;CYQF 211400Z 00000KT 15SM FEW080 SCT120 BKN250 08/06 A2998 RMK AC2AC2CI2 SLP165

CYQF;2011-05-21 15:00;CYQF 211500Z 22002KT 15SM FEW080 BKN120 BKN250 11/04 A2997 RMK ACC2AC2CC2 SLP159

CYQF;2011-05-21 16:00;CYQF 211600Z 24002KT 15SM FEW080 BKN250 15/08 A2996 RMK ACC2CI3 SLP156

CYQF;2011-05-21 17:00;CYQF 211700Z 24002KT 15SM FEW048 FEW080 BKN250 18/06 A2995 RMK CU1ACC1CI4 SLP150

CYQF;2011-05-21 18:00;CYQF 211800Z 15002KT 15SM FEW052 FEW100 BKN250 19/06 A2994 RMK CU1AC1CI2 SLP142

CYQF;2011-05-21 19:00;CYQF 211900Z 15006KT 15SM FEW068 BKN100 BKN250 21/05 A2992 RMK CU2AC3CI2 SLP137

CYQF;2011-05-21 20:00;CYQF 212000Z 09003KT 15SM SCT068 BKN100 BKN250 21/04 A2990 RMK CU3AC3CI1 SLP131

CYQF;2011-05-21 21:00;CYQF 212100Z 09005KT 15SM SCT068 BKN100 BKN250 21/06 A2989 RMK CU3AC4CI1 TCU SLP131

CYQF;2011-05-21 22:00;CYQF 212200Z 00000KT 15SM VCSH BKN070TCU BKN250 22/06 A2988 RMK TCU6CI1 SLP126

CYQF;2011-05-21 23:00;CYQF 212300Z 00000KT 15SM VCSH SCT070 BKN100 BKN250 22/05 A2986 RMK CU3AC2CI1 TCU ASOCTD SLP122

CYQF;2011-05-22 00:00;CYQF 220000Z 12010KT 15SM FEW070 SCT100 BKN250 22/04 A2985 RMK CU2AC2CI1 SLP115

CYQF;2011-05-22 01:00;CYQF 220100Z 17008KT 15SM FEW070 FEW120 BKN250 22/04 A2985 RMK CU2AC1CI2 SLP114

CYQF;2011-05-22 02:00;CYQF 220200Z 00000KT 15SM FEW070 FEW120 SCT250 20/03 A2984 RMK CU2AC1CI1 SLP112

CYQF;2011-05-22 03:00;CYQF 220300Z 34003KT 15SM FEW060 SCT120 SCT250 15/07 A2984 RMK CU2AC2CI0 SLP113

CYQF;2011-05-22 06:00;CYQF 220600Z 00000KT 15SM FEW100 10/06 A2983 RMK AC2 SLP109

CYQF;2011-05-22 07:00;CYQF 220700Z 00000KT 15SM FEW100 10/06 A2983 RMK AC2 SLP108

CYQF;2011-05-22 08:00;CYQF 220800Z 00000KT 15SM FEW100 08/05 A2983 RMK AC2 SLP107

CYQF;2011-05-22 09:00;CYQF 220900Z 00000KT 15SM FEW100 08/07 A2982 RMK AC2 SLP105

CYQF;2011-05-22 10:00;CYQF 221000Z 00000KT 15SM FEW100 07/05 A2982 RMK AC2 SLP105

CYQF;2011-05-22 11:00;CYQF 221100Z 20003KT 15SM FEW100 06/04 A2982 RMK AC2 SLP105

CYQF;2011-05-22 12:00;CYQF 221200Z 00000KT 15SM FEW100 06/05 A2982 RMK AC2 SLP106

CYQF;2011-05-22 13:00;CYQF 221300Z 24002KT 15SM FEW100 SCT250 07/06 A2983 RMK AC2CI1 SLP109

CYQF;2011-05-22 14:00;CYQF 221400Z 21002KT 12SM FEW100 BKN250 10/07 A2983 RMK AC2CI2 HZ SLP109

CYQF;2011-05-22 15:00;CYQF 221500Z 23003KT 15SM SCT100 BKN250 14/08 A2983 RMK AC3CI2 SLP107

CYQF;2011-05-22 16:00;CYQF 221600Z 00000KT 15SM SCT100 BKN250 15/08 A2983 RMK AC3CC4 SLP109

CYQF;2011-05-22 17:00;CYQF 221700Z 00000KT 15SM BKN100 BKN250 18/08 A2983 RMK AC5CC2 SLP107

CYQF;2011-05-22 18:00;CYQF 221800Z 14010G15KT 15SM SCT050TCU BKN100 BKN250 19/07 A2983 RMK TCU4AC2CI1 SLP107

CYQF;2011-05-22 19:00;CYQF 221900Z 16013G19KT 15SM SCT050TCU BKN100 OVC250 19/07 A2983 RMK TCU4AC3CI1 SH E SLP108

CYQF;2011-05-22 19:43;CYQF 221943Z 16012G18KT 10SM -SHRA SCT050TCU OVC100 RMK TCU3ACC5

CYQF;2011-05-22 20:00;CYQF 222000Z 19010KT 12SM -SHRA OVC050 16/09 A2983 RMK SC8 TCU EMBD SLP109

CYQF;2011-05-22 20:13;CYQF 222013Z 19010KT 15SM OVC050 RMK SC8 TCU EMBD

CYQF;2011-05-22 21:00;CYQF 222100Z 20006KT 15SM FEW050TCU BKN080 17/09 A2982 RMK TCU2AC4 SLP109

CYQF;2011-05-22 22:00;CYQF 222200Z 16003KT 15SM FEW050TCU BKN080 18/09 A2981 RMK TCU2AC5 SLP106

CYQF;2011-05-22 23:00;CYQF 222300Z 19002KT 15SM FEW050TCU BKN080 BKN250 18/07 A2981 RMK TCU2AC4CI1 SLP106

CYQF;2011-05-23 00:00;CYQF 230000Z 17003KT 15SM FEW040CB BKN080 BKN250 19/08 A2980 RMK CB2AC3CI2 SLP103

CYQF;2011-05-23 01:00;CYQF 230100Z 17007KT 15SM FEW050 BKN080 BKN250 19/07 A2980 RMK CU2AC2CI2 SLP103

CYQF;2011-05-23 02:00;CYQF 230200Z 21005KT 15SM FEW050 BKN080 BKN250 18/09 A2981 RMK CU2AC2CI2 SLP106

CYQF;2011-05-23 02:30;CYQF 230230Z 09015G20KT 15SM BKN040 BKN080 RMK CU5AC2

CYQF;2011-05-23 03:00;CYQF 230300Z 08010KT 15SM BKN040 BKN080 14/10 A2984 RMK CU5AC2 SLP114

CYQF;2011-05-23 04:00;CYQF 230400Z 09003KT 15SM -SHRA BKN040 BKN080 13/11 A2985 RMK CU5AC2 SLP116

CYQF;2011-05-23 05:00;CYQF 230500Z 00000KT 12SM -SHRA OVC040 13/11 A2985 RMK SC8 SLP117

CYQF;2011-05-23 06:00;CYQF 230600Z 29002KT 15SM -SHRA OVC040 12/11 A2984 RMK SC8 SLP110

CYQF;2011-05-23 07:00;CYQF 230700Z CCA 07004KT 15SM -RA OVC040 12/11 A2986 RMK SC8 SLP116

CYQF;2011-05-23 08:00;CYQF 230800Z 05004KT 15SM -RA OVC040 12/11 A2987 RMK SC8 SLP118

CYQF;2011-05-23 09:00;CYQF 230900Z 00000KT 10SM -RA OVC040 12/11 A2988 RMK SC8 SLP126

CYQF;2011-05-23 10:00;CYQF 231000Z 00000KT 10SM -RA OVC040 11/11 A2988 RMK SC8 SLP127

CYQF;2011-05-23 11:00;CYQF 231100Z 04004KT 10SM -RA OVC040 12/11 A2987 RMK SC8 SLP124

CYQF;2011-05-23 11:46;CYQF 231146Z 05005KT 10SM -RA SCT005 OVC020 RMK SF3SC5

CYQF;2011-05-23 12:00;CYQF 231200Z 05004KT 10SM -RA BKN006 OVC020 12/11 A2988 RMK SF6SC2 SLP123

CYQF;2011-05-23 13:00;CYQF 231300Z 08010KT 8SM -RA BKN005 OVC020 11/10 A2989 RMK SF6SC2 BR SLP126

CYQF;2011-05-23 14:00;CYQF 231400Z 07010G15KT 8SM -RA BKN005 OVC020 09/08 A2990 RMK SF7SC1 SLP130

CYQF;2011-05-23 15:00;CYQF 231500Z 06006KT 8SM -RA BKN005 OVC020 08/07 A2991 RMK SF7SC1 SLP144

CYQF;2011-05-23 16:00;CYQF 231600Z 07008KT 8SM -RA OVC004 08/07 A2992 RMK SF8 SLP146

CYQF;2011-05-23 17:00;CYQF 231700Z 06010KT 8SM -RA OVC004 07/07 A2993 RMK SF8 SLP150

CYQF;2011-05-23 18:00;CYQF 231800Z 05010G15KT 10SM -RA OVC007 06/06 A2995 RMK SF8 SLP160

CYQF;2011-05-23 19:00;CYQF 231900Z 06010G15KT 6SM -RA BR OVC006 06/05 A2996 RMK SF8 SLP165

CYQF;2011-05-23 20:00;CYQF 232000Z 04010KT 6SM -RA BR OVC006 06/05 A2998 RMK SF8 SLP172

CYQF;2011-05-23 21:00;CYQF 232100Z 03008KT 6SM -RA BR OVC006 06/05 A3001 RMK SF8 SLP182

CYQF;2011-05-23 22:00;CYQF 232200Z 03006KT 6SM -RA BR OVC006 06/05 A3001 RMK SF8 SLP184

CYQF;2011-05-23 23:00;CYQF 232300Z 02007KT 6SM -RA BR OVC006 06/05 A3003 RMK SC8 CIG RAG SLP189

CYQF;2011-05-24 00:00;CYQF 240000Z 04008KT 6SM -RA BR BKN008 OVC012 06/05 A3004 RMK SC6SC2 CIG RAG SLP192

CYQF;2011-05-24 01:00;CYQF 240100Z 04008KT 6SM -RA BR BKN007 OVC012 05/05 A3004 RMK SC6SC2 CIG RAG SLP194

CYQF;2011-05-24 02:00;CYQF 240200Z 03006KT 6SM -RA BR BKN008 OVC015 05/04 A3005 RMK SC6SC2 CIG RAG SLP198

CYQF;2011-05-24 02:23;CYQF 240223Z 03006KT 2SM -RA BR OVC005 RMK FG2SC6

CYQF;2011-05-24 03:00;CYQF 240300Z 03005KT 1 1/2SM -RA BR OVC005 05/04 A3006 RMK FG3ST5 SLP208

CYQF;2011-05-24 03:16;CYQF 240316Z 03003KT 2SM -RA BR OVC004 RMK ST8 CIG RAG

CYQF;2011-05-24 03:22;CYQF 240322Z 03003KT 3SM -RA BR BKN004 OVC012 RMK ST7SC1 CIG RAG

CYQF;2011-05-24 04:00;CYQF 240400Z 00000KT 6SM -RA BR OVC005 05/04 A3008 RMK ST8 CIG RAG SLP213

CYQF;2011-05-24 05:00;CYQF 240500Z 00000KT 6SM -RA BR SCT004 BKN006 OVC011 05/05 A3009 RMK SF3ST3SC2 CIG RAG SLP216

CYQF;2011-05-24 06:00;CYQF 240600Z 01004KT 8SM -RA BKN005 OVC010 05/04 A3009 RMK SF6SC2 CIG RAG SLP218

CYQF;2011-05-24 07:00;CYQF 240700Z 02003KT 10SM -RA BKN006 OVC010 05/04 A3009 RMK SF5SC3 SLP219

CYQF;2011-05-24 08:00;CYQF 240800Z 02004KT 10SM -RA BKN006 OVC017 05/04 A3009 RMK SF5SC3 SLP217

CYQF;2011-05-24 09:00;CYQF 240900Z 02004KT 10SM -RA BKN006 OVC019 05/04 A3008 RMK SF5SC3 SLP217

CYQF;2011-05-24 10:00;CYQF 241000Z 02004KT 10SM -RA BKN008 OVC020 05/04 A3009 RMK SF5SC3 SLP219

CYQF;2011-05-24 10:39;CYQF 241039Z 02004KT 10SM -RA SCT008 OVC024 RMK SF3SC5

CYQF;2011-05-24 11:00;CYQF 241100Z 04005KT 10SM -RA SCT008 OVC025 05/04 A3009 RMK SF3SC5 SLP220

CYQF;2011-05-24 11:40;CYQF 241140Z CCA 03005KT 10SM BKN008 OVC025 RMK SF5SC3 BR

CYQF;2011-05-24 12:00;CYQF 241200Z 03003KT 10SM BKN008 OVC025 05/04 A3009 RMK SC6SC2 BR SLP221

CYQF;2011-05-24 12:25;CYQF 241225Z 02003KT 10SM -DZ BKN008 OVC025 RMK SC6SC2 BR

CYQF;2011-05-24 13:00;CYQF 241300Z 03004KT 3SM -DZ BR BKN006 OVC020 05/04 A3010 RMK SF6SC2 SLP223

CYQF;2011-05-24 13:30;CYQF 241330Z 05003KT 2SM -DZ BR OVC006 RMK SF8 CIG RAG

CYQF;2011-05-24 14:00;CYQF 241400Z 04003KT 3SM -DZ BR BKN006 OVC011 05/04 A3011 RMK SF5SC3 SLP226

CYQF;2011-05-24 14:42;CYQF 241442Z 09002KT 3SM -DZ BR BKN004 OVC010 RMK SF5SC3

CYQF;2011-05-24 15:00;CYQF 241500Z 00000KT 5SM -DZ BR BKN004 OVC010 05/04 A3012 RMK SF6SC2 SLP230

CYQF;2011-05-24 15:29;CYQF 241529Z 00000KT 8SM FEW005 BKN009 OVC020 RMK SF2SC4SC2

CYQF;2011-05-24 16:00;CYQF 241600Z 00000KT 8SM FEW005 OVC010 06/04 A3013 RMK SF2SC6 SLP232

CYQF;2011-05-24 17:00;CYQF 241700Z 00000KT 10SM BKN010 OVC030 06/03 A3013 RMK SC6SC2 SLP233

CYQF;2011-05-24 18:00;CYQF 241800Z 09004KT 10SM OVC012 07/04 A3014 RMK SC8 CIG RAG SLP233

CYQF;2011-05-24 19:00;CYQF 241900Z 07004KT 15SM BKN017 OVC030 07/04 A3014 RMK CU7SC1 SLP234

CYQF;2011-05-24 20:00;CYQF 242000Z 12004KT 15SM BKN015 BKN030 OVC100 08/04 A3015 RMK CU6SC1AC1 SLP237

CYQF;2011-05-24 21:00;CYQF 242100Z 08003KT 10SM BKN020 OVC040 09/04 A3015 RMK CU6SC2 SLP237

CYQF;2011-05-24 22:00;CYQF 242200Z 09004KT 10SM BKN020 OVC040 09/04 A3016 RMK CU5SC3 SLP239

CYQF;2011-05-24 23:00;CYQF 242300Z 07005KT 10SM BKN020 OVC040 08/04 A3017 RMK CU5SC3 SLP242

CYQF;2011-05-25 00:00;CYQF 250000Z 10005KT 15SM SCT025 OVC060 09/04 A3017 RMK SC3SC5 SLP245

CYQF;2011-05-25 01:00;CYQF 250100Z 12004KT 15SM FEW025 OVC060 08/02 A3018 RMK SC2SC6 SLP246

CYQF;2011-05-25 02:00;CYQF 250200Z 10003KT 15SM OVC070 08/02 A3018 RMK AC8 SLP248

CYQF;2011-05-25 03:00;CYQF 250300Z 08002KT 15SM OVC070 08/02 A3019 RMK AC8 SLP250

CYQF;2011-05-25 04:00;CYQF 250400Z 00000KT 15SM BKN070 OVC100 07/03 A3019 RMK AC5AC3 SLP251

CYQF;2011-05-25 05:00;CYQF 250500Z 00000KT 15SM BKN070 OVC100 07/02 A3019 RMK AC6AC2 SLP252

CYQF;2011-05-25 06:00;CYQF 250600Z 00000KT 15SM BKN070 OVC100 07/04 A3019 RMK AC6AC2 SLP250

CYQF;2011-05-25 07:00;CYQF 250700Z 00000KT 15SM BKN070 OVC100 07/04 A3019 RMK AC6AC2 SLP249

CYQF;2011-05-25 08:00;CYQF 250800Z 00000KT 15SM BKN070 OVC100 06/04 A3019 RMK AC6AC2 SLP249

CYQF;2011-05-25 09:00;CYQF 250900Z 00000KT 15SM OVC070 06/05 A3018 RMK AC8 SLP245

CYQF;2011-05-25 10:00;CYQF 251000Z 14002KT 15SM OVC070 06/05 A3018 RMK AC8 SLP245

CYQF;2011-05-25 10:26;CYQF 251026Z 09003KT 10SM -RA OVC070 RMK AC8

CYQF;2011-05-25 11:00;CYQF 251100Z 00000KT 10SM -RA BKN030 OVC060 06/05 A3018 RMK SC5SC3 SLP245

CYQF;2011-05-25 12:00;CYQF 251200Z 09005KT 10SM -RA OVC030 06/04 A3018 RMK SC8 SLP246

CYQF;2011-05-25 13:00;CYQF 251300Z 07003KT 10SM -RA OVC040 06/04 A3017 RMK SC8 SLP242

CYQF;2011-05-25 14:00;CYQF 251400Z 08004KT 10SM -RA OVC035 06/04 A3016 RMK SC8 SLP240

CYQF;2011-05-25 15:00;CYQF 251500Z 08008KT 10SM -RA SCT015 OVC035 07/04 A3015 RMK SF3SC5 SLP234

CYQF;2011-05-25 16:00;CYQF 251600Z 12007KT 10SM -RA SCT015 OVC040 09/04 A3015 RMK SF3SC5 SLP234

CYQF;2011-05-25 17:00;CYQF 251700Z 14009KT 8SM -RA BKN015 OVC040 08/05 A3014 RMK SC6SC2 SLP230

CYQF;2011-05-25 18:00;CYQF 251800Z 14006KT 8SM -RA BKN015 OVC040 09/06 A3012 RMK SC6SC2 SLP223

CYQF;2011-05-25 19:00;CYQF 251900Z 12007KT 8SM -RA BKN015 OVC040 09/06 A3010 RMK SC6SC2 SLP218

CYQF;2011-05-25 20:00;CYQF 252000Z 11010KT 8SM -RA OVC017 09/06 A3009 RMK SC8 SLP214

CYQF;2011-05-25 21:00;CYQF 252100Z 11010KT 10SM -RA OVC015 09/07 A3008 RMK SC8 SLP209

CYQF;2011-05-25 22:00;CYQF 252200Z 10008KT 8SM -RA BKN015 OVC040 09/07 A3005 RMK SC6SC2 SLP202

CYQF;2011-05-25 23:00;CYQF 252300Z 10007KT 8SM -RA OVC016 10/08 A3002 RMK SC8 SLP192

CYQF;2011-05-26 00:00;CYQF 260000Z 11007KT 10SM -RA OVC015 10/08 A3000 RMK SC8 SLP182

CYQF;2011-05-26 00:26;CYQF 260026Z 10010KT 8SM OVC017 RMK SC8 BR

CYQF;2011-05-26 01:00;CYQF 260100Z 09006KT 4SM BR OVC014 10/08 A2998 RMK SC8 VIS S 2 CIG RAG SLP176

CYQF;2011-05-26 02:00;CYQF 260200Z 10009KT 3SM BR OVC013 09/08 A2997 RMK SC8 VIS S 1 SLP172

CYQF;2011-05-26 03:00;CYQF 260300Z 10008KT 3SM BR BKN015 OVC030 09/09 A2995 RMK SC6SC2 VIS S 1 SLP162

CYQF;2011-05-26 03:28;CYQF 260328Z 09005KT 2SM BR OVC009 RMK SF8

CYQF;2011-05-26 04:00;CYQF 260400Z 10004KT 2SM -DZ BR OVC008 09/09 A2993 RMK SF8 SLP157

CYQF;2011-05-26 04:45;CYQF 260445Z 12003KT 3SM -DZ BR BKN008 OVC012 RMK SF6SC2

CYQF;2011-05-26 05:00;CYQF 260500Z 11004KT 8SM -DZ BKN009 OVC045 10/09 A2990 RMK SF6SC2 SLP148

CYQF;2011-05-26 06:00;CYQF 260600Z CCA 11007KT 8SM -DZ BKN009 OVC045 10/09 A2988 RMK SF6SC2 SLP137

CYQF;2011-05-26 07:00;CYQF 260700Z 13005KT 8SM -DZ BKN008 OVC040 10/09 A2986 RMK SF6SC2 SLP131

CYQF;2011-05-26 08:00;CYQF 260800Z 08003KT 10SM -DZ BKN009 OVC045 10/08 A2984 RMK SF5SC3 SLP123

CYQF;2011-05-26 08:40;CYQF 260840Z 07003KT 15SM SCT009 OVC050 RMK SF3SC5

CYQF;2011-05-26 09:00;CYQF 260900Z 09004KT 15SM SCT008 OVC050 09/08 A2981 RMK SF3SC5 SLP114

CYQF;2011-05-26 10:00;CYQF 261000Z 09004KT 15SM FEW008 OVC050 09/08 A2979 RMK SF2SC6 SLP108

CYQF;2011-05-26 11:00;CYQF 261100Z 10004KT 15SM FEW008 OVC050 09/06 A2978 RMK SF2SC6 SLP103

CYQF;2011-05-26 12:00;CYQF 261200Z 10005KT 15SM BKN050 OVC090 09/06 A2976 RMK SC6AC2 SLP096

CYQF;2011-05-26 13:00;CYQF 261300Z 06007KT 15SM SCT050 OVC090 09/05 A2975 RMK SC3AC5 SLP092

CYQF;2011-05-26 14:00;CYQF 261400Z 06005KT 15SM BKN050 OVC090 09/05 A2974 RMK SC5AC3 SLP088

CYQF;2011-05-26 15:00;CYQF 261500Z 06008KT 12SM -RA BKN050 OVC090 10/06 A2973 RMK SC5AC3 SLP084

CYQF;2011-05-26 16:00;CYQF 261600Z 07006KT 10SM -RA BKN050 OVC090 09/07 A2972 RMK SC5AC3 SLP083

CYQF;2011-05-26 17:00;CYQF 261700Z 11010KT 10SM -RA FEW008 OVC040 10/06 A2972 RMK SF2SC6 SLP082

CYQF;2011-05-26 18:00;CYQF 261800Z 08007KT 10SM -RA FEW008 BKN040 OVC090 09/06 A2971 RMK SF2SC4AC2 SLP079

CYQF;2011-05-26 19:00;CYQF 261900Z 08007KT 10SM -RA BKN040 OVC090 10/07 A2970 RMK SC5AC3 SLP074

CYQF;2011-05-26 20:00;CYQF 262000Z 07007KT 10SM -RA BKN040 OVC090 10/06 A2968 RMK SC5AC3 SLP069

CYQF;2011-05-26 21:00;CYQF 262100Z 07007KT 12SM -RA BKN040 OVC090 12/05 A2967 RMK SC5AC3 SLP062

CYQF;2011-05-26 22:00;CYQF 262200Z 08008KT 10SM -RA BKN040 OVC090 13/04 A2966 RMK SC6AC2 SLP060

CYQF;2011-05-26 23:00;CYQF 262300Z 12005KT 12SM -RA OVC040 13/05 A2966 RMK SC8 SLP057

CYQF;2011-05-27 00:00;CYQF 270000Z 13003KT 15SM -RA BKN035 OVC060 13/05 A2965 RMK SC5SC3 SLP053

CYQF;2011-05-27 01:00;CYQF 270100Z 19005KT 15SM BKN035 OVC060 12/06 A2966 RMK SC5SC3 SLP056

CYQF;2011-05-27 02:00;CYQF 270200Z 18003KT 15SM FEW035 OVC060 12/04 A2966 RMK SC1SC7 SLP056

CYQF;2011-05-27 03:00;CYQF 270300Z 00000KT 15SM SCT030 OVC060 11/06 A2967 RMK SC3SC5 SLP063

CYQF;2011-05-27 04:00;CYQF 270400Z 00000KT 15SM BKN030 OVC060 09/07 A2968 RMK SC5SC3 SLP066

CYQF;2011-05-27 04:08;CYQF 270408Z 00000KT 15SM -RA BKN030 OVC060 RMK SC5SC3

CYQF;2011-05-27 05:00;CYQF 270500Z 31002KT 15SM -RA SCT030 OVC060 09/07 A2966 RMK SC3SC5 SLP061

CYQF;2011-05-27 06:00;CYQF 270600Z 36004KT 15SM -RA SCT030 OVC060 09/06 A2965 RMK SC3SC5 SLP059

CYQF;2011-05-27 07:00;CYQF 270700Z 02005KT 15SM -RA FEW030 OVC060 09/05 A2964 RMK SC2SC6 SLP055

CYQF;2011-05-27 08:00;CYQF 270800Z 35004KT 15SM -RA FEW030 OVC060 09/05 A2963 RMK SC2SC6 SLP052

CYQF;2011-05-27 09:00;CYQF 270900Z CCA 05014KT 15SM -RA FEW030 OVC060 09/05 A2963 RMK SC2SC6 SLP048

CYQF;2011-05-27 10:00;CYQF 271000Z 03006KT 15SM -RA SCT027 OVC060 08/05 A2963 RMK SC3SC5 SLP048

CYQF;2011-05-27 10:40;CYQF 271040Z 02005KT 15SM FEW025 OVC060 RMK SC2SC6

CYQF;2011-05-27 11:00;CYQF 271100Z 04005KT 15SM FEW025 OVC060 08/05 A2963 RMK SC2SC6 SLP048

CYQF;2011-05-27 12:00;CYQF 271200Z 02006KT 15SM FEW025 OVC060 08/05 A2964 RMK SC2SC6 SLP053

CYQF;2011-05-27 13:00;CYQF 271300Z 02006KT 15SM FEW025 BKN060 OVC250 08/05 A2965 RMK SC2SC3CI2 SLP055

CYQF;2011-05-27 14:00;CYQF 271400Z 04008KT 15SM BKN012 BKN100 OVC250 08/06 A2966 RMK SC5AS2CI2 CU SLP059

CYQF;2011-05-27 15:00;CYQF 271500Z 05010KT 15SM BKN012 BKN100 OVC250 09/05 A2967 RMK SC5AS2CI2 CU SLP065

CYQF;2011-05-27 16:00;CYQF 271600Z 04010KT 15SM BKN020 OVC100 10/05 A2968 RMK SC6AS2 CU ASOCTD SLP068

CYQF;2011-05-27 17:00;CYQF 271700Z 03010KT 15SM BKN023 OVC090 10/05 A2969 RMK SC6AS2 CU ASOCTD SLP069

CYQF;2011-05-27 18:00;CYQF 271800Z 05005KT 15SM BKN025 OVC080 11/05 A2969 RMK CU6AS2 SLP071

CYQF;2011-05-27 19:00;CYQF 271900Z 06002KT 15SM BKN032 OVC080 12/04 A2970 RMK CU6AC2 SLP072

CYQF;2011-05-27 20:00;CYQF 272000Z 03004KT 15SM VCSH BKN032 OVC080 12/04 A2971 RMK CU6AC2 TCU ASOCTD SLP075

CYQF;2011-05-27 20:11;CYQF 272011Z 34006KT 12SM -SHRA BKN032 OVC080 RMK CU6AC2

CYQF;2011-05-27 21:00;CYQF 272100Z 36003KT 15SM -SHRA SCT032 BKN080 BKN250 10/06 A2973 RMK CU3AC3CI1 VIS LWR S TCU SLP083

CYQF;2011-05-27 21:38;CYQF 272138Z 25002KT 15SM FEW030 BKN080 BKN250 RMK CU2AC3CI1 TCU ASOCTD SH S-SW

CYQF;2011-05-27 22:00;CYQF 272200Z 00000KT 15SM FEW030TCU BKN080 BKN250 12/06 A2972 RMK TCU2AC3CI1 SLP081

CYQF;2011-05-27 23:00;CYQF 272300Z 28005KT 15SM FEW025TCU BKN080 BKN250 13/07 A2972 RMK TCU2AC2CI1 SLP082

CYQF;2011-05-28 00:00;CYQF 280000Z 25006KT 15SM FEW025TCU SCT080 BKN250 13/07 A2972 RMK TCU2AC2CI1 SLP079

CYQF;2011-05-28 01:00;CYQF 280100Z 26009KT 15SM FEW020TCU SCT080 BKN250 12/07 A2972 RMK TCU2AC2CI2 SLP079

CYQF;2011-05-28 01:39;CYQF 280139Z 22005KT 15SM -TSRA SCT020CB BKN080 BKN250 RMK CB3AC2CI1

CYQF;2011-05-28 02:00;CYQF 280200Z 14009KT 10SM -TSRA SCT020CB BKN080 11/07 A2975 RMK CB4AC2 VIS S 3 SLP087

CYQF;2011-05-28 02:36;CYQF 280236Z 25005KT 15SM SCT020CB BKN080 BKN250 RETS RMK CB3AC2CI1

CYQF;2011-05-28 03:00;CYQF 280300Z 29004KT 15SM FEW020CB BKN080 BKN250 09/06 A2973 RETS RMK CB2AC2CI1 SLP084

CYQF;2011-05-28 04:00;CYQF 280400Z 26005KT 15SM FEW020CB SCT080 BKN250 08/05 A2974 RMK CB1AC3CI1 SLP087

CYQF;2011-05-28 04:49;CYQF 280449Z 04010KT 15SM -SHRA BKN080 BKN250 RMK AC6CI1

CYQF;2011-05-28 05:00;CYQF 280500Z 36006KT 15SM -SHRA BKN040 BKN080 09/05 A2976 RMK SC5AC2 SLP095

CYQF;2011-05-28 06:00;CYQF 280600Z 27011KT 15SM -SHRA SCT040CB BKN080 08/05 A2973 RMK CB3AC4 LTGIC W SLP084

CYQF;2011-05-28 06:15;CYQF 280615Z 27011KT 15SM VCSH FEW040CB BKN080 BKN240 RMK CB2AC3CI0

CYQF;2011-05-28 07:00;CYQF 280700Z 27010G15KT 15SM SCT040 BKN080 08/05 A2974 RMK SC3AC2 SLP086

CYQF;2011-05-28 07:45;CYQF 280745Z 30011G16KT 15SM -SHRA SCT040 BKN070 RMK SC3AC3

CYQF;2011-05-28 08:00;CYQF 280800Z 28012G18KT 15SM -SHRA SCT040 BKN070 08/05 A2973 RMK SC3AC3 SLP084

CYQF;2011-05-28 09:00;CYQF 280900Z 28010G15KT 15SM -SHRA FEW040 BKN100 07/04 A2973 RMK SC2AC5 SLP088

CYQF;2011-05-28 09:27;CYQF 280927Z 26009KT 15SM FEW040 BKN100 RMK SC2AC4

CYQF;2011-05-28 10:00;CYQF 281000Z 25008KT 15SM FEW040 BKN100 06/04 A2974 RMK SC2AC4 SLP090

CYQF;2011-05-28 11:00;CYQF 281100Z 24007KT 12SM FEW040 SCT090 06/04 A2974 RMK SC1AC2 FU SLP091

CYQF;2011-05-28 12:00;CYQF 281200Z 27003KT 12SM FEW040 BKN090 06/04 A2975 RMK CU2AC2 FU SLP090

CYQF;2011-05-28 13:00;CYQF 281300Z 29004KT 12SM FEW090 SCT250 06/04 A2975 RMK ACC2CI2 FU SLP092

CYQF;2011-05-28 14:00;CYQF 281400Z 33007KT 12SM SCT090 BKN250 08/04 A2976 RMK AC4CI0 FU SLP093

CYQF;2011-05-28 15:00;CYQF 281500Z 34006KT 5SM FU SCT090 BKN250 08/03 A2977 RMK AC2CI2 SLP100

CYQF;2011-05-28 15:39;CYQF 281539Z 33008KT 3SM FU OVC090 RMK AC8

CYQF;2011-05-28 16:00;CYQF 281600Z 30005KT 3SM FU OVC090 09/02 A2977 RMK AC8 SLP102

CYQF;2011-05-28 17:00;CYQF 281700Z 33008KT 3SM FU BKN090 BKN250 11/03 A2978 RMK AC2CI2 SLP104

CYQF;2011-05-28 18:00;CYQF 281800Z 33010KT 3SM FU FEW090 BKN250 12/02 A2978 RMK AC1CI2 SLP102

CYQF;2011-05-28 19:00;CYQF 281900Z 34011KT 5SM FU BKN250 13/02 A2979 RMK CI3 SLP104

CYQF;2011-05-28 20:00;CYQF 282000Z 02010G15KT 6SM FU OVC250 13/02 A2979 RMK CI8 SLP105

CYQF;2011-05-28 21:00;CYQF 282100Z 36013KT 8SM FEW045 OVC250 14/03 A2979 RMK CU1CI5 SLP104

CYQF;2011-05-28 22:00;CYQF 282200Z 01010G15KT 8SM FEW045 OVC250 14/01 A2980 RMK CU1CI5 FU SLP105

CYQF;2011-05-28 23:00;CYQF 282300Z 34010G15KT 8SM FEW045 BKN250 15/02 A2980 RMK CU2CI1 FU SLP105

CYQF;2011-05-29 00:00;CYQF 290000Z 33012G20KT 10SM FEW065 FEW250 15/M01 A2980 RMK CU1CI1 FU SLP106

CYQF;2011-05-29 01:00;CYQF 290100Z 01010G15KT 15SM FEW090 BKN250 15/M07 A2981 RMK CU1CI0 SLP109

CYQF;2011-05-29 02:00;CYQF 290200Z 35010G15KT 15SM FEW086 BKN250 15/M07 A2982 RMK CU1CI0 SLP114

CYQF;2011-05-29 03:00;CYQF 290300Z 35008KT 15SM FEW085 BKN250 13/M06 A2984 RMK AC1CI1 AC TR SLP121

CYQF;2011-05-29 04:00;CYQF 290400Z 35004KT 15SM SCT250 09/M03 A2985 RMK CI0 SLP125

CYQF;2011-05-29 05:00;CYQF 290500Z 35004KT 15SM FEW250 08/M03 A2986 RMK CI0 SLP127

CYQF;2011-05-29 06:00;CYQF 290600Z 00000KT 15SM FEW250 05/M02 A2986 RMK CI0 SLP133

CYQF;2011-05-29 07:00;CYQF 290700Z 33004KT 15SM FEW250 04/M03 A2986 RMK CI0 SLP133

CYQF;2011-05-29 08:00;CYQF 290800Z 34003KT 15SM SKC 04/M03 A2986 RMK SLP132

CYQF;2011-05-29 09:00;CYQF 290900Z 00000KT 15SM SKC 01/M02 A2986 RMK SLP134

CYQF;2011-05-29 10:00;CYQF 291000Z 00000KT 15SM FEW250 01/M01 A2986 RMK CI0 SLP134

CYQF;2011-05-29 11:00;CYQF 291100Z 00000KT 15SM FEW250 00/M01 A2986 RMK CI0 SLP135

CYQF;2011-05-29 12:00;CYQF 291200Z 00000KT 15SM FEW250 M00/M02 A2986 RMK CI0 SLP136

CYQF;2011-05-29 13:00;CYQF 291300Z 21002KT 15SM FEW250 01/M00 A2988 RMK CI0 SLP140

CYQF;2011-05-29 14:00;CYQF 291400Z 00000KT 15SM SCT250 04/01 A2988 RMK CI0 SLP142

CYQF;2011-05-29 15:00;CYQF 291500Z 00000KT 15SM BKN250 07/01 A2988 RMK CI5 SLP137

CYQF;2011-05-29 16:00;CYQF 291600Z 00000KT 15SM FEW044 BKN250 10/M01 A2988 RMK CU1CI3 CC SLP137

CYQF;2011-05-29 17:00;CYQF 291700Z 18003KT 15SM FEW052 BKN250 12/M01 A2987 RMK CU1CI2 SLP133

CYQF;2011-05-29 18:00;CYQF 291800Z 00000KT 15SM FEW072 FEW250 13/M05 A2986 RMK CU1CI1 SLP131

CYQF;2011-05-29 19:00;CYQF 291900Z 00000KT 15SM FEW072 13/M05 A2985 RMK CU2 SLP127

CYQF;2011-05-29 20:00;CYQF 292000Z 06003KT 15SM FEW070 14/M03 A2983 RMK CU2 SLP123

CYQF;2011-05-29 21:00;CYQF 292100Z 00000KT 15SM FEW070 15/M03 A2983 RMK CU2 SLP121

CYQF;2011-05-29 22:00;CYQF 292200Z 31003KT 12SM FEW081 FEW250 15/M05 A2982 RMK CU2CI1 HZ SLP119

CYQF;2011-05-29 23:00;CYQF 292300Z 33002KT 15SM FEW085 FEW250 15/M06 A2981 RMK CU2CI0 SLP117

CYQF;2011-05-30 00:00;CYQF 300000Z 00000KT 15SM FEW080 FEW250 16/M04 A2981 RMK CU1CI0 SLP115

CYQF;2011-05-30 01:00;CYQF 300100Z 14003KT 15SM FEW080 FEW250 16/M04 A2980 RMK CF1CI1 CF TF SLP113

CYQF;2011-05-30 02:00;CYQF 300200Z 16005KT 15SM FEW250 16/M04 A2980 RMK CI1 SLP112

CYQF;2011-05-30 03:00;CYQF 300300Z 13005KT 15SM FEW250 14/M02 A2980 RMK CI1 SLP106

CYQF;2011-05-30 04:00;CYQF 300400Z 14005KT 15SM FEW250 11/M00 A2982 RMK CI1 SLP111

CYQF;2011-05-30 05:00;CYQF 300500Z 14005KT 15SM FEW250 09/M00 A2982 RMK CI1 SLP113

CYQF;2011-05-30 06:00;CYQF 300600Z 17006KT 15SM SKC 07/00 A2982 RMK SLP114

CYQF;2011-05-30 07:00;CYQF 300700Z 17008KT 15SM SKC 07/01 A2982 RMK SLP115

CYQF;2011-05-30 08:00;CYQF 300800Z 17008KT 15SM SKC 07/00 A2983 RMK SLP118

CYQF;2011-05-30 09:00;CYQF 300900Z 17007KT 15SM SKC 06/00 A2983 RMK SLP118

CYQF;2011-05-30 10:00;CYQF 301000Z 12003KT 15SM FEW120 04/00 A2984 RMK AC1 SLP120

CYQF;2011-05-30 11:00;CYQF 301100Z 15005KT 15SM FEW120 04/00 A2984 RMK AC1 SLP120

CYQF;2011-05-30 12:00;CYQF 301200Z 15005KT 15SM FEW120 04/00 A2984 RMK AC1 SLP122

CYQF;2011-05-30 13:00;CYQF 301300Z 17007KT 15SM FEW120 FEW250 06/01 A2984 RMK AC1CI0 SLP123

CYQF;2011-05-30 14:00;CYQF 301400Z 15010KT 15SM FEW120 FEW250 08/00 A2985 RMK AC1CI0 SLP127

CYQF;2011-05-30 15:00;CYQF 301500Z 15008KT 15SM FEW120 FEW250 11/00 A2987 RMK AC1CI0 SLP125

CYQF;2011-05-30 16:00;CYQF 301600Z 14010KT 15SM FEW250 13/M01 A2988 RMK CI1 SLP128

CYQF;2011-05-30 17:00;CYQF 301700Z 10007KT 15SM FEW250 15/M01 A2988 RMK CI1 SLP129

CYQF;2011-05-30 18:00;CYQF 301800Z 10004KT 15SM FEW063 FEW250 15/M01 A2989 RMK CU1CI1 CU TR SLP136

CYQF;2011-05-30 19:00;CYQF 301900Z 08007KT 15SM FEW065 SCT250 15/M01 A2989 RMK CU2CI1 SLP137

CYQF;2011-05-30 20:00;CYQF 302000Z 09009KT 15SM FEW072 SCT250 16/M03 A2990 RMK CU2CI1 SLP138

CYQF;2011-05-30 21:00;CYQF 302100Z 09012KT 15SM FEW070 BKN250 16/M00 A2990 RMK CU2CI1 SLP141

CYQF;2011-05-30 22:00;CYQF 302200Z 06010KT 15SM SCT070 BKN250 16/00 A2991 RMK CU3CI3 SLP144

CYQF;2011-05-30 23:00;CYQF 302300Z 09008KT 15SM FEW076 BKN250 16/M02 A2992 RMK CU2CI1 SLP146

CYQF;2011-05-31 00:00;CYQF 310000Z 08010KT 15SM FEW076 SCT250 16/M01 A2992 RMK CU2CI1 SLP148

CYQF;2011-05-31 01:00;CYQF 310100Z 05004KT 15SM FEW076 FEW250 16/M03 A2992 RMK CU1CI1 SLP150

CYQF;2011-05-31 02:00;CYQF 310200Z 08007KT 15SM SCT075 BKN250 16/M02 A2993 RMK AC3CI1 CU SLP153

CYQF;2011-05-31 03:00;CYQF 310300Z 07005KT 15SM SCT075 BKN250 15/00 A2995 RMK AC3CI3 SLP153

CYQF;2011-05-31 04:00;CYQF 310400Z 08003KT 15SM BKN075 BKN250 12/02 A2996 RMK AC6CI2 SLP158

CYQF;2011-05-31 05:00;CYQF 310500Z 13006KT 15SM BKN075 BKN250 12/02 A2998 RMK AC5CI2 SLP164

CYQF;2011-05-31 06:00;CYQF 310600Z 13005KT 15SM FEW075 SCT250 10/02 A3000 RMK AC2CI1 SLP170

CYQF;2011-05-31 07:00;CYQF 310700Z 17005KT 15SM FEW075 FEW250 08/03 A3001 RMK AC2CI0 SLP174

CYQF;2011-05-31 08:00;CYQF 310800Z 18006KT 15SM FEW075 09/03 A3002 RMK AC2 SLP177

CYQF;2011-05-31 09:00;CYQF 310900Z 19006KT 15SM FEW070 08/03 A3003 RMK AC2 SLP182

CYQF;2011-05-31 10:00;CYQF 311000Z 17003KT 15SM FEW070 FEW250 07/03 A3004 RMK AC2CI0 SLP185

CYQF;2011-05-31 11:00;CYQF 311100Z 00000KT 15SM FEW090 FEW250 06/03 A3004 RMK AC2CI0 SLP187

CYQF;2011-05-31 12:00;CYQF 311200Z 14004KT 15SM FEW090 FEW250 05/03 A3005 RMK AC2CI0 SLP194

CYQF;2011-05-31 13:00;CYQF 311300Z 15003KT 15SM SCT250 07/04 A3006 RMK CI1 SLP197

CYQF;2011-05-31 14:00;CYQF 311400Z 18006KT 15SM FEW250 10/05 A3006 RMK CI0 SLP197

CYQF;2011-05-31 15:00;CYQF 311500Z 21007KT 15SM SCT250 13/05 A3007 RMK CI0 SLP192

CYQF;2011-05-31 16:00;CYQF 311600Z 18007KT 15SM BKN250 14/04 A3007 RMK CI0 SLP192

CYQF;2011-05-31 17:00;CYQF 311700Z 15005KT 15SM FEW050 BKN250 16/03 A3006 RMK CU2CI0 SLP190

CYQF;2011-05-31 18:00;CYQF 311800Z 15005KT 15SM SCT060 BKN250 16/02 A3005 RMK CU4CI0 SLP189

CYQF;2011-05-31 19:00;CYQF 311900Z 14010KT 15SM SCT071 BKN250 18/00 A3005 RMK CU4CI0 SLP188

CYQF;2011-05-31 20:00;CYQF 312000Z 16010G15KT 15SM SCT075 BKN250 18/M01 A3004 RMK CU4CI0 SLP184

CYQF;2011-05-31 21:00;CYQF 312100Z 13010G15KT 15SM BKN080 18/M02 A3003 RMK CU5 SLP181

CYQF;2011-05-31 22:00;CYQF 312200Z 12010G15KT 15SM BKN080 BKN250 19/M01 A3002 RMK CU5CI1 SLP179

CYQF;2011-05-31 23:00;CYQF 312300Z 10005KT 15SM SCT075 SCT250 18/M00 A3002 RMK CU3CI1 SLP177

CYQF;2011-06-01 01:00;CYQF 010100Z 15008KT 15SM SCT080 BKN250 17/M02 A3001 RMK CU4CI1 SLP176

CYQF;2011-06-01 02:00;CYQF 010200Z 16012KT 15SM SCT070 SCT250 18/M01 A3002 RMK CU3CI1 SLP178

CYQF;2011-06-01 03:00;CYQF 010300Z 14010KT 15SM FEW070 SCT250 16/M01 A3002 RMK CU1CI2 SLP176

CYQF;2011-06-01 04:00;CYQF 010400Z 14006KT 15SM SCT250 13/M00 A3003 RMK CI2 SLP179

CYQF;2011-06-01 05:00;CYQF 010500Z 15008KT 15SM FEW250 11/00 A3004 RMK CI1 SLP180

CYQF;2011-06-01 06:00;CYQF 010600Z 15005KT 15SM SKC 10/00 A3002 RMK SLP178

CYQF;2011-06-01 07:00;CYQF 010700Z 15006KT 15SM SKC 08/00 A3003 RMK SLP179

CYQF;2011-06-01 08:00;CYQF 010800Z 00000KT 15SM SKC 08/01 A3002 RMK SLP177

CYQF;2011-06-01 09:00;CYQF 010900Z 15002KT 15SM SKC 07/01 A3000 RMK SLP171

CYQF;2011-06-01 10:00;CYQF 011000Z 16003KT 15SM SKC 07/01 A2998 RMK SLP164

CYQF;2011-06-01 11:00;CYQF 011100Z 16005KT 15SM SCT250 06/01 A2997 RMK CI2 SLP161

CYQF;2011-06-01 12:00;CYQF 011200Z 16006KT 15SM SCT250 06/02 A2997 RMK CI2 SLP161

CYQF;2011-06-01 13:00;CYQF 011300Z 16006KT 15SM BKN250 08/04 A2996 RMK CI3 SLP159

CYQF;2011-06-01 14:00;CYQF 011400Z 15007KT 15SM FEW100 BKN250 10/05 A2995 RMK ACC1CI3 ACC E SLP157

CYQF;2011-06-01 15:00;CYQF 011500Z 15008KT 15SM FEW080 OVC250 12/05 A2996 RMK AC2CI2 ACC ASOCTD SLP154

CYQF;2011-06-01 16:00;CYQF 011600Z 15010KT 15SM FEW040 FEW080 OVC250 15/05 A2994 RMK CU1AC1CS6 SLP147

CYQF;2011-06-01 17:00;CYQF 011700Z 14010G17KT 15SM FEW051 FEW080 OVC250 16/03 A2991 RMK CU2AC1CS6 SLP139

CYQF;2011-06-01 18:00;CYQF 011800Z 17014G21KT 15SM BKN052 BKN250 16/03 A2990 RMK CU6CI2 SLP137

CYQF;2011-06-01 19:00;CYQF 011900Z 15012G18KT 15SM SCT050 BKN100 BKN250 17/03 A2988 RMK CU3AC2CI1 VIRGA SE SLP129

CYQF;2011-06-01 20:00;CYQF 012000Z 13010G17KT 15SM FEW050 BKN100 BKN250 15/06 A2986 RMK CU2AC4CI1 SH E SLP123

CYQF;2011-06-01 21:00;CYQF 012100Z 13013G20KT 15SM -SHRA FEW050 BKN100 BKN250 13/09 A2985 RMK CU2AC4CI1 TCU ACC SLP124

CYQF;2011-06-01 21:34;CYQF 012134Z 13010G15KT 15SM VCSH FEW050TCU BKN100 BKN250 RMK TCU2AC4CI1

CYQF;2011-06-01 22:00;CYQF 012200Z 14008G15KT 15SM VCSH FEW050TCU BKN100 BKN250 16/08 A2982 RMK TCU2AC3CI1 SLP115

CYQF;2011-06-01 23:00;CYQF 012300Z 13008KT 15SM BKN040CB BKN100 BKN250 16/08 A2979 RMK CB5AC2CI1 SH S-SW MAMMATUS SLP107

CYQF;2011-06-01 23:44;CYQF 012344Z 16012KT 15SM -SHRA BKN035CB BKN100 OVC250 RMK CB6AC1CI1

CYQF;2011-06-02 00:00;CYQF 020000Z 18007KT 15SM -SHRA BKN035CB OVC250 15/08 A2980 RMK CB6CI2 SLP105

CYQF;2011-06-02 01:00;CYQF 020100Z 13015G26KT 10SM -SHRA SCT035CB BKN250 13/10 A2974 RMK CB4CI2 VSBY E-S 5 SLP087

CYQF;2011-06-02 01:24;CYQF 020124Z 13013G20KT 15SM VCSH FEW030CB BKN250 RMK CB2CI2

CYQF;2011-06-02 02:00;CYQF 020200Z 13008KT 15SM SCT030CB BKN250 14/09 A2973 RMK CB3CI2 SLP084

CYQF;2011-06-02 03:00;CYQF 020300Z 14004KT 15SM FEW030CB BKN250 13/09 A2973 RMK CB2CI2 SLP076

CYQF;2011-06-02 04:00;CYQF 020400Z 00000KT 15SM SCT030TCU BKN100 OVC250 12/08 A2974 RMK TCU3AC2CI2 VIRGA CB ASOCTD SLP080

CYQF;2011-06-02 05:00;CYQF 020500Z 23004KT 15SM SCT030TCU BKN100 10/08 A2976 RMK TCU3AC2 VIRGA SLP085

CYQF;2011-06-02 06:00;CYQF 020600Z 05003KT 15SM FEW030 SCT100 10/07 A2974 RMK SC2AC1 SLP078

CYQF;2011-06-02 07:00;CYQF 020700Z 14003KT 15SM FEW030 09/07 A2970 RMK SC2 SLP067

CYQF;2011-06-02 08:00;CYQF 020800Z 30003KT 15SM SKC 06/05 A2970 RMK SLP066

CYQF;2011-06-02 09:00;CYQF 020900Z 21005KT 15SM FEW030 FEW090 06/05 A2969 RMK SC2AC1 SLP069

CYQF;2011-06-02 10:00;CYQF 021000Z 28003KT 15SM FEW030 FEW090 SCT250 06/05 A2967 RMK SC1AC1CI1 SLP065

CYQF;2011-06-02 11:00;CYQF 021100Z 00000KT 15SM FEW090 FEW250 06/05 A2967 RMK AC1CI1 SLP064

CYQF;2011-06-02 12:00;CYQF 021200Z 00000KT 15SM FEW090 SCT250 05/05 A2966 RMK AC1CI2 SLP061

CYQF;2011-06-02 13:00;CYQF 021300Z 00000KT 12SM BKN250 06/06 A2966 RMK CI2 SLP061

CYQF;2011-06-02 14:00;CYQF 021400Z 31002KT 15SM BKN250 10/08 A2966 RMK CI1 SLP058

CYQF;2011-06-02 15:00;CYQF 021500Z 32006KT 15SM SCT250 12/08 A2964 RMK CI1 SLP045

CYQF;2011-06-02 16:00;CYQF 021600Z 20007KT 15SM BKN250 14/07 A2963 RMK CI1 SLP044

CYQF;2011-06-02 17:00;CYQF 021700Z 33006KT 15SM FEW036 BKN250 16/07 A2961 RMK CU1CI3 SLP037

CYQF;2011-06-02 18:00;CYQF 021800Z 36008KT 15SM FEW040 OVC250 16/06 A2959 RMK CU2CS2 SLP029

CYQF;2011-06-02 19:00;CYQF 021900Z 34010KT 15SM FEW050 OVC250 17/05 A2959 RMK CU2CS2 SLP027

CYQF;2011-06-02 20:00;CYQF 022000Z 01010G15KT 15SM FEW050 OVC250 17/05 A2957 RMK CU2CS2 SLP021

CYQF;2011-06-02 21:00;CYQF 022100Z 34010G15KT 15SM FEW052 OVC250 18/05 A2955 RMK CU2CS2 SLP016

CYQF;2011-06-02 22:00;CYQF 022200Z 36010G15KT 15SM FEW058 OVC250 18/04 A2954 RMK CU2CS6 SLP013

CYQF;2011-06-02 23:00;CYQF 022300Z 35012G18KT 15SM FEW056 OVC250 19/04 A2953 RMK CU2CS4 SLP011

CYQF;2011-06-03 00:00;CYQF 030000Z 36010G16KT 15SM FEW056 OVC250 18/05 A2953 RMK CU2CS6 TCU DIST W SLP012

CYQF;2011-06-03 01:00;CYQF 030100Z 02010G15KT 15SM FEW056TCU OVC250 18/04 A2953 RMK TCU1CS8 TCU DIST W SLP012

CYQF;2011-06-03 02:00;CYQF 030200Z 36005KT 15SM FEW056CB BKN250 17/06 A2954 RMK CB1CI6 CB DIST W SLP013

CYQF;2011-06-03 03:00;CYQF 030300Z 34005KT 15SM FEW056TCU BKN250 15/06 A2955 RMK TCU1CI6 TCU DIST W SLP013

CYQF;2011-06-03 04:00;CYQF 030400Z 31004KT 15SM FEW056CB BKN250 13/06 A2956 RMK CB1CI6 SLP015

CYQF;2011-06-03 05:00;CYQF 030500Z 31008KT 15SM FEW056CB SCT100 BKN250 13/06 A2956 RMK CB1ACC2CI2 LTNG W SLP018

CYQF;2011-06-03 06:00;CYQF 030600Z 31012KT 15SM SCT100 BKN250 14/06 A2956 RMK AC3CI2 SLP014

CYQF;2011-06-03 07:00;CYQF 030700Z 31015G22KT 15SM SCT100 BKN250 13/05 A2957 RMK AC3CI2 SLP016

CYQF;2011-06-03 08:00;CYQF 030800Z 32013G20KT 15SM SCT100 BKN250 13/04 A2958 RMK AC4CI2 SLP021

CYQF;2011-06-03 09:00;CYQF 030900Z 31014G20KT 15SM SCT100 BKN250 12/05 A2960 RMK AC4CI2 SLP026

CYQF;2011-06-03 10:00;CYQF 031000Z 29013KT 15SM FEW050TCU SCT250 12/05 A2962 RMK TCU1CI2 SLP033

CYQF;2011-06-03 11:00;CYQF 031100Z 30015G22KT 15SM FEW050 SCT250 11/05 A2965 RMK SC1CI2 SLP041

CYQF;2011-06-03 12:00;CYQF 031200Z 31015G20KT 15SM FEW050 SCT250 11/05 A2967 RMK SC1CI2 SLP054

CYQF;2011-06-03 13:00;CYQF 031300Z 32010KT 15SM FEW080 SCT250 11/07 A2971 RMK AC1CI1 ACC W SLP065

CYQF;2011-06-03 14:00;CYQF 031400Z 31010G15KT 15SM FEW015 SCT080 BKN250 12/07 A2974 RMK SF2AC2CI2 ACC SLP074

CYQF;2011-06-03 15:00;CYQF 031500Z 33012G20KT 15SM FEW020 SCT090 BKN250 13/08 A2976 RMK CF2AC2CI1 SLP085

CYQF;2011-06-03 16:00;CYQF 031600Z 31013G23KT 15SM BKN025 BKN090 14/08 A2978 RMK SC5AC2 CU SLP093

CYQF;2011-06-03 17:00;CYQF 031700Z 32010G17KT 15SM VCSH BKN025 BKN090 BKN250 13/08 A2980 RMK SC5AC2CI1 TCU SLP099

CYQF;2011-06-03 17:22;CYQF 031722Z 31014G20KT 6SM -SHRA BR BKN025 OVC090 RMK SC6AC2 TCU EMBD

CYQF;2011-06-03 18:00;CYQF 031800Z 32010G15KT 10SM -SHRA BKN013TCU OVC090 12/10 A2984 RMK TCU6AC2 SLP115

CYQF;2011-06-03 19:00;CYQF 031900Z 34010G15KT 15SM BKN015 OVC090 11/09 A2987 RMK SC6AC2 TCU EMBD SLP126

CYQF;2011-06-03 20:00;CYQF 032000Z 34012G20KT 15SM BKN015 OVC090 12/08 A2989 RMK SC6AC2 TCU EMBD SLP132

CYQF;2011-06-03 21:00;CYQF 032100Z 36010G15KT 15SM BKN020 BKN090 12/07 A2991 RMK SC6AC1 TCU EMBD SLP141

CYQF;2011-06-03 22:00;CYQF 032200Z 02015KT 15SM BKN020 OVC090 10/07 A2993 RMK SC7AC1 SLP148

CYQF;2011-06-03 23:00;CYQF 032300Z 36008KT 12SM OVC020 09/06 A2997 RMK SC8 SLP161

CYQF;2011-06-04 00:00;CYQF 040000Z 02008KT 15SM OVC020 09/05 A2999 RMK SC8 SLP173

CYQF;2011-06-04 01:00;CYQF 040100Z 02010KT 15SM BKN020 OVC050 09/05 A3001 RMK SC6SC2 SLP179

CYQF;2011-06-04 02:00;CYQF 040200Z 36006KT 15SM BKN020 OVC050 08/04 A3003 RMK SC6SC2 SLP187

CYQF;2011-06-04 02:28;CYQF 040228Z 35008KT 15SM -SHRA BKN020 OVC050 RMK SC6SC2

CYQF;2011-06-04 03:00;CYQF 040300Z 03007KT 6SM -SHRA BKN020 OVC050 07/05 A3006 RMK SC6SC2 VIS N 10 SLP197

CYQF;2011-06-04 04:00;CYQF 040400Z 00000KT 8SM -SHRA OVC020 07/04 A3009 RMK SC8 SLP206

CYQF;2011-06-04 04:48;CYQF 040448Z 36005KT 8SM -SHRA FEW006 OVC014 RMK SF2SC6

CYQF;2011-06-04 05:00;CYQF 040500Z 01005KT 6SM -RA FEW006 OVC014 06/04 A3012 RMK SF2SC6 SLP216

CYQF;2011-06-04 06:00;CYQF 040600Z 35008KT 6SM -RA FEW006 OVC014 05/05 A3015 RMK SF2SC6 SLP233

CYQF;2011-06-04 07:00;CYQF 040700Z 02010KT 10SM -RA SCT007 OVC015 03/03 A3017 RMK SF3SC5 SLP239

CYQF;2011-06-04 08:00;CYQF 040800Z 01010KT 10SM -RA SCT007 OVC022 03/02 A3018 RMK SF3SC5 SLP243

CYQF;2011-06-04 08:44;CYQF 040844Z 02003KT 15SM SCT007 OVC022 RMK SF3SC5

CYQF;2011-06-04 10:00;CYQF 041000Z 01005KT 15SM SCT009 OVC025 03/02 A3019 RMK SF3SC5 SLP248

CYQF;2011-06-04 10:42;CYQF 041042Z 06004KT 15SM BKN006 OVC020 RMK SC6SC2

CYQF;2011-06-04 11:00;CYQF 041100Z 06004KT 15SM BKN006 OVC020 03/02 A3018 RMK SC6SC2 SLP247

CYQF;2011-06-04 12:00;CYQF 041200Z 00000KT 15SM BKN006 OVC015 03/02 A3018 RMK SC6SC2 SLP249

CYQF;2011-06-04 12:38;CYQF 041238Z 08003KT 10SM -RA OVC005 RMK SC8

CYQF;2011-06-04 13:00;CYQF 041300Z 09003KT 10SM -RA OVC006 03/02 A3017 RMK SC8 SLP246

CYQF;2011-06-04 14:00;CYQF 041400Z 09004KT 8SM -RA OVC007 03/02 A3018 RMK SC8 BR SLP249

CYQF;2011-06-04 15:00;CYQF 041500Z 13008KT 6SM -RA BR BKN008 OVC012 03/02 A3017 RMK SF5SC3 SLP247

CYQF;2011-06-04 16:00;CYQF 041600Z 16010KT 6SM -RA BR BKN010 OVC015 05/03 A3016 RMK SC5SC3 SLP243

CYQF;2011-06-04 17:00;CYQF 041700Z 16010G15KT 10SM BKN011 OVC020 06/04 A3014 RMK SC6SC2 SLP237

CYQF;2011-06-04 18:00;CYQF 041800Z 17010G15KT 10SM BKN012 OVC020 06/04 A3013 RMK SC6SC2 SLP231

CYQF;2011-06-04 19:00;CYQF 041900Z 16013KT 10SM OVC012 07/04 A3011 RMK SC8 SLP226

CYQF;2011-06-04 20:00;CYQF 042000Z 16010KT 10SM OVC015 08/05 A3010 RMK SC8 SLP222

CYQF;2011-06-04 21:00;CYQF 042100Z 17010KT 12SM BKN015 10/06 A3007 RMK SC7 SLP211

CYQF;2011-06-04 22:00;CYQF 042200Z 18008KT 12SM BKN020 BKN250 12/07 A3006 RMK SC5CI2 CU SLP207

CYQF;2011-06-04 23:00;CYQF 042300Z 15005KT 12SM SCT090 BKN250 13/07 A3004 RMK AC4CI1 SLP201

CYQF;2011-06-05 00:00;CYQF 050000Z 15008KT 15SM BKN090 BKN250 15/07 A3003 RMK AC6CI1 CC SLP189

CYQF;2011-06-05 01:00;CYQF 050100Z 16007KT 15SM BKN090 BKN250 15/07 A3002 RMK AC6CI0 SLP187

CYQF;2011-06-05 02:00;CYQF 050200Z 14005KT 15SM BKN090 15/07 A3001 RMK AC7 SLP184

CYQF;2011-06-05 03:00;CYQF 050300Z 10005KT 15SM BKN090 BKN250 14/08 A3001 RMK AC6CI1 ACC SLP182

CYQF;2011-06-05 04:00;CYQF 050400Z 08005KT 15SM BKN090 OVC250 13/08 A3000 RMK AC6CI2 SLP180

CYQF;2011-06-05 05:00;CYQF 050500Z 12007KT 15SM BKN090 OVC250 11/07 A3000 RMK AC6CI2 SLP180

CYQF;2011-06-05 06:00;CYQF 050600Z 18010KT 15SM BKN090 OVC250 11/07 A2998 RMK AC6CI2 SLP175

CYQF;2011-06-05 07:00;CYQF 050700Z 14004KT 15SM BKN090 OVC250 10/07 A2996 RMK AC6CI2 SLP169

CYQF;2011-06-05 08:00;CYQF 050800Z 14005KT 15SM BKN090 OVC250 10/07 A2995 RMK AC6CI2 SLP165

CYQF;2011-06-05 09:00;CYQF 050900Z 00000KT 15SM BKN090 OVC250 09/07 A2995 RMK AC6CI2 SLP159

CYQF;2011-06-05 11:00;CYQF 051100Z 07006KT 15SM OVC090 09/08 A2996 RMK AC8 SLP163

CYQF;2011-06-05 12:00;CYQF 051200Z 35005KT 10SM BKN015 OVC080 10/08 A2996 RMK SC6AC2 SLP159

CYQF;2011-06-05 13:00;CYQF 051300Z 02005KT 10SM FEW015 BKN090 BKN250 10/08 A2998 RMK SC2AC3CI1 SLP165

CYQF;2011-06-05 14:00;CYQF 051400Z 12005KT 10SM FEW015 BKN090 11/08 A2998 RMK SC1AC5 VIRGA SLP164

CYQF;2011-06-05 15:00;CYQF 051500Z 06004KT 15SM FEW015 BKN090 12/07 A2997 RMK SC1AC4 SLP160

CYQF;2011-06-05 16:00;CYQF 051600Z 00000KT 15SM FEW020 BKN090 13/07 A2998 RMK SC2AC4 SLP163

CYQF;2011-06-05 17:00;CYQF 051700Z 00000KT 15SM FEW025 BKN100 13/07 A2997 RMK CU2AC3 SLP161

CYQF;2011-06-05 18:00;CYQF 051800Z 00000KT 15SM FEW030 BKN150 15/08 A2996 RMK CU2AC2 SLP157

CYQF;2011-06-05 19:00;CYQF 051900Z 00000KT 15SM FEW035 BKN150 17/08 A2995 RMK CU2AC2 SLP153

CYQF;2011-06-05 20:00;CYQF 052000Z 00000KT 15SM FEW042CB SCT150 18/06 A2994 RMK CB2AC1 SLP150

CYQF;2011-06-05 21:00;CYQF 052100Z 35018G25KT 15SM FEW040CB SCT150 16/07 A2995 RMK CB2AC1 PEAK GUST 31 SLP154

CYQF;2011-06-05 22:00;CYQF 052200Z 01008KT 15SM FEW040 FEW150 18/08 A2995 RMK CU2AC1 CB TOP N SLP154

CYQF;2011-06-05 23:00;CYQF 052300Z 35010KT 15SM FEW044 FEW150 18/07 A2995 RMK CU2ACC1 SLP152

CYQF;2011-06-06 00:00;CYQF 060000Z 36006KT 15SM FEW048 SCT130 18/07 A2995 RMK CU2AC2 SLP152

CYQF;2011-06-06 01:00;CYQF 060100Z 02007KT 15SM SCT044 BKN120 18/07 A2995 RMK CU3ACC2 SLP151

CYQF;2011-06-06 02:00;CYQF 060200Z 02010G15KT 15SM FEW040TCU BKN110 BKN250 17/07 A2995 RMK TCU2ACC3CI0 SLP153

CYQF;2011-06-06 03:00;CYQF 060300Z CCA 01011KT 15SM FEW040TCU BKN110 BKN250 15/05 A2997 RMK TCU2AC2CI1 SH DIST S SLP158

CYQF;2011-06-06 04:00;CYQF 060400Z 03005KT 15SM FEW040TCU BKN100 BKN250 14/06 A2999 RMK TCU1AC4CI0 SH DIST SE SLP164

CYQF;2011-06-06 05:00;CYQF 060500Z 04008KT 15SM BKN065 BKN100 14/07 A3000 RMK SC6AC1 SLP169

CYQF;2011-06-06 05:46;CYQF 060546Z 05006KT 15SM -SHRA OVC048 RMK SC8

CYQF;2011-06-06 06:00;CYQF 060600Z 05006KT 15SM -SHRA OVC048 13/08 A3002 RMK SC8 SLP175

CYQF;2011-06-06 06:40;CYQF 060640Z 05005KT 15SM OVC050 RMK SC8

CYQF;2011-06-06 07:00;CYQF 060700Z 04003KT 15SM OVC050 13/08 A3002 RMK SC8 SLP176

CYQF;2011-06-06 09:00;CYQF 060900Z 03004KT 15SM BKN050 11/08 A3003 RMK SC6 SLP178

CYQF;2011-06-06 10:00;CYQF 061000Z 00000KT 15SM BKN050 11/08 A3002 RMK SC6 SLP175

CYQF;2011-06-06 11:00;CYQF 061100Z 00000KT 15SM BKN050 BKN100 10/08 A3003 RMK SC6AC2 SLP178

CYQF;2011-06-06 12:00;CYQF 061200Z 15002KT 15SM BKN050 BKN100 10/08 A3002 RMK SC6AC2 SLP174

CYQF;2011-06-06 13:00;CYQF 061300Z 15002KT 15SM BKN050 BKN100 OVC250 10/08 A3001 RMK SC6AC2CI1 SLP173

CYQF;2011-06-06 15:00;CYQF 061500Z 18007KT 15SM FEW020 BKN050 BKN250 12/06 A3000 RMK SC1SC6CI1 SLP170

CYQF;2011-06-06 16:00;CYQF 061600Z 16006KT 15SM FEW025 BKN060 BKN250 12/06 A3000 RMK CU1SC6CI2 SLP168

CYQF;2011-06-06 17:00;CYQF 061700Z 15003KT 15SM FEW025 BKN060 BKN250 14/07 A2998 RMK CU2SC3CI1 SLP163

CYQF;2011-06-06 18:00;CYQF 061800Z 19009KT 15SM FEW022 BKN060 BKN250 13/08 A2997 RMK CU2SC3CI1 SLP159

CYQF;2011-06-06 18:22;CYQF 061822Z 17010G15KT 15SM -SHRA SCT022 BKN060 BKN250 RMK CU3SC3CI1

CYQF;2011-06-06 19:00;CYQF 061900Z 15010KT 15SM FEW014 BKN020 OVC065 12/09 A2996 RMK CU2SC5SC2 SLP156

CYQF;2011-06-06 20:00;CYQF 062000Z 15008KT 15SM SCT016 BKN025 OVC065 13/08 A2994 RMK CU3SC4SC1 SLP151

CYQF;2011-06-06 21:00;CYQF 062100Z 15007KT 15SM SCT016 BKN025 OVC065 13/08 A2993 RMK CU3SC4SC1 SLP147

CYQF;2011-06-06 22:00;CYQF 062200Z 15010KT 15SM FEW018 OVC028 13/08 A2991 RMK CU2SC6 SLP141

CYQF;2011-06-06 23:00;CYQF 062300Z 15008KT 15SM SCT020 BKN030 15/09 A2988 RMK CU3SC4 SLP134

CYQF;2011-06-07 00:00;CYQF 070000Z 14007KT 15SM SCT025 BKN090 BKN250 15/09 A2986 RMK CU3AC2CI0 TCU ASOCTD SLP124

CYQF;2011-06-07 01:00;CYQF 070100Z 16006KT 15SM BKN025 BKN090 OVC250 14/09 A2987 RMK CU5AC2CI1 TCU ASOCTD SLP127

CYQF;2011-06-07 02:00;CYQF 070200Z 14007KT 15SM SCT025 BKN040 OVC250 14/09 A2988 RMK CU3SC2CI2 SLP129

CYQF;2011-06-07 03:00;CYQF 070300Z 16003KT 15SM FEW030 SCT060 OVC250 13/09 A2988 RMK SC2SC2CI2 SLP130

CYQF;2011-06-07 04:00;CYQF 070400Z 00000KT 15SM FEW025 SCT050 BKN250 12/09 A2989 RMK SC2SC2CI2 TCU/SHS SW SLP132

CYQF;2011-06-07 05:00;CYQF 070500Z 09003KT 15SM FEW050 BKN250 11/09 A2989 RMK SC2CI2 SLP133

CYQF;2011-06-07 06:00;CYQF 070600Z 00000KT 15SM FEW050 SCT250 10/08 A2987 RMK SC1CI1 SLP128

CYQF;2011-06-07 07:00;CYQF 070700Z 20003KT 15SM BKN040 09/08 A2988 RMK SC3 SLP132

CYQF;2011-06-07 09:00;CYQF 070900Z 31003KT 10SM -SHRA OVC024 09/08 A2987 RMK SC8 TCU EMBD SLP129

CYQF;2011-06-07 09:28;CYQF 070928Z 00000KT 10SM FEW025 BKN050 RMK SC2SC2 BR

CYQF;2011-06-07 10:00;CYQF 071000Z 00000KT 10SM SCT050 08/08 A2987 RMK SC4 BR SLP129

CYQF;2011-06-07 11:00;CYQF 071100Z 01002KT 8SM MIFG FEW050 07/07     A3020 RMK SC6 SLP244

CYQF;2011-06-07 12:00;CYQF 071200Z 30003KT 8SM MIFG FEW030TCU BKN100 BKN250 05/05 A2988 RMK TCU2AC2CI1 SLP136

CYQF;2011-06-07 13:00;CYQF 071300Z 00000KT 8SM FEW010 BKN030TCU BKN250 07/07 A2989 RMK SF1TCU6CI1 VIS S 6 SLP139

CYQF;2011-06-07 14:00;CYQF 071400Z 00000KT 8SM SCT030 BKN100 BKN250 09/08 A2990 RMK CU3AC3CI1 TCU/ACC ASOCTD VIS S 6 SLP141

CYQF;2011-06-07 15:00;CYQF 071500Z 00000KT 8SM FEW008 FEW030 SCT100 12/10 A2990 RMK SF1CU2AC2 TCU W SLP138

CYQF;2011-06-07 16:00;CYQF 071600Z 08003KT 12SM FEW020TCU BKN100 15/09 A2990 RMK TCU2AC3 SLP137

CYQF;2011-06-07 17:00;CYQF 071700Z 36009KT 12SM BKN019 BKN100 15/10 A2991 RMK CU6AC1 TCU ASOCBKN035 12/08 A3022 RMK SC4 SLP250

CYQF;2011-06-07 18:00;CYQF 071800Z 01006KT 15SM BKN024TCU 15/09 A2990 RMK TCU7 CB W SLP136

CYQF;2011-06-07 18:43;CYQF 071843Z 06008KT 15SM -SHRA BKN025TCU OVC250 RMK TCU6CI1

CYQF;2011-06-07 18:50;CYQF 071850Z 08007KT 15SM -TSRA BKN025CB BKN100 OVC250 RMK CB6AC1CI1

CYQF;2011-06-07 19:00;CYQF 071900Z 10004KT 15SM -TSRA BKN025CB BKN100 OVC250 15/08 A2990 RMK CB6AC1CI1 SLP137

CYQF;2011-06-07 19:30;CYQF 071930Z 00000KT 12SM -SHRA BKN019TCU BKN100 OVC250 RMK TCU6AC1CI1 CB ASOCTD RETS

CYQF;2011-06-07 20:00;CYQF 072000Z 18006KT 12SM -SHRA BKN020TCU BKN100 BKN250 14/09 A2990 RMK TCU6AC1CI1 CB ASOCTD RETS SLP137

CYQF;2011-06-07 20:19;CYQF 072019Z 15008KT 12SM -TSRA BKN020CB OVC100 RMK CB6AC2

CYQF;2011-06-07 20:47;CYQF 072047Z 00000KT 15SM -SHRA BKN020TCU OVC100 RETS RMK TCU6AC2

CYQF;2011-06-07 21:00;CYQF 072100Z 34010G15KT 15SM BKN020TCU OVC100 14/09 A2991 RETS RMK TCU6AC2 OCNL -SHRA SLP143

CYQF;2011-06-07 22:00;CYQF 072200Z 31005KT 15SM BKN025TCU OVC050 12/09 A2991 RMK TCU5SC3 SHS NW SLP144

CYQF;2011-06-07 22:53;CYQF 072253Z 34005KT 15SM -SHRA BKN025TCU OVC050 RMK TCU5SC3

CYQF;2011-06-07 23:00;CYQF 072300Z 34005KT 15SM -SHRA BKN025TCU OVC050 12/09 A2994 RMK TCU5SC3 SLP152

CYQF;2011-06-08 00:00;CYQF 080000Z 16005KT 6SM -SHRA BR FEW025 BKN050TCU OVC100 12/08 A2995 RMK SC2TCU4AC2 SLP163

CYQF;2011-06-08 01:00;CYQF 080100Z 34008KT 12SM -SHRA SCT050TCU BKN100 OVC250 12/09 A2995 RMK TCU3AC3CI1 SLP162

CYQF;2011-06-08 01:10;CYQF 080110Z CCA 34004KT 15SM SCT040 BKN100 OVC250 RMK SC3AC3CI1 TCU/SHS NW

CYQF;2011-06-08 02:00;CYQF 080200Z 34007KT 15SM SCT040 BKN100 BKN250 13/08 A2996 RMK SC2AC3CI1 SLP167

CYQF;2011-06-08 02:41;CYQF 080241Z 20005KT 15SM -SHRA BKN040 BKN100 BKN250 RMK SC5AC1CI1 VIS S 8

CYQF;2011-06-08 03:00;CYQF 080300Z 24004KT 15SM -SHRA BKN040 BKN100 BKN250 12/09 A2999 RMK SC5AC2CI1 SLP171

CYQF;2011-06-08 04:00;CYQF 080400Z 28005KT 15SM FEW040 SCT100 BKN250 10/09 A3001 RMK SC2AC2CI0 SLP177

CYQF;2011-06-08 05:00;CYQF 080500Z 29006KT 15SM FEW040 SCT250 09/08 A3002 RMK SC2CI0 SLP179

CYQF;2011-06-08 06:00;CYQF 080600Z 29004KT 15SM FEW040 SCT250 08/07 A3003 RMK SC1CI1 SLP182

CYQF;2011-06-08 07:00;CYQF 080700Z 00000KT 15SM FEW040 SCT250 08/07 A3004 RMK SC2CI0 SLP185

CYQF;2011-06-08 08:00;CYQF 080800Z 00000KT 15SM FEW040 SCT250 07/07 A3004 RMK SC2CI0 SLP185

CYQF;2011-06-08 09:00;CYQF 080900Z 00000KT 15SM SCT040 06/06 A3004 RMK SC3 SLP191

CYQF;2011-06-08 10:00;CYQF 081000Z 00000KT 15SM SCT040 06/06 A3004 RMK SC3 SLP192

CYQF;2011-06-08 11:00;CYQF 081100Z 23002KT 15SM SCT040 SCT250 06/05 A3005 RMK SC3CI0 SLP194

CYQF;2011-06-08 12:00;CYQF 081200Z 26008KT 15SM FEW040 SCT090 BKN250 06/06 A3005 RMK SC2AC1CI1 SLP198

CYQF;2011-06-08 13:00;CYQF 081300Z 28004KT 15SM FEW040 SCT090 BKN250 07/07 A3007 RMK SC2AC2CI1 SLP203

CYQF;2011-06-08 13:54;CYQF 081354Z 00000KT 12SM BKN006 BKN040 BKN100 RMK SF4SC2AC1

CYQF;2011-06-08 14:00;CYQF 081400Z 00000KT 12SM OVC006 09/07 A3009 RMK ST8 SLP209

CYQF;2011-06-08 14:09;CYQF 081409Z 00000KT 10SM -RA OVC006 RMK ST8

CYQF;2011-06-08 15:00;CYQF 081500Z 30004KT 10SM -RA SCT006 SCT040 OVC100 09/08 A3009 RMK SF2SC2AS5 SLP209

CYQF;2011-06-08 16:00;CYQF 081600Z 30010KT 10SM -RA FEW006 OVC100 09/08 A3008 RMK SF1AS7 SLP205

CYQF;2011-06-08 16:39;CYQF 081639Z 28006KT 12SM FEW006 BKN100 OVC250 RMK SF1AS6CI2

CYQF;2011-06-08 17:00;CYQF 081700Z 27002KT 12SM FEW006 SCT040 OVC100 11/09 A3009 RMK SF1SC2AC5 SLP207

CYQF;2011-06-08 18:00;CYQF 081800Z 30005KT 12SM FEW010 SCT040 BKN100 BKN250 13/10 A3008 RMK CU1SC2AC2CI2 SLP203

CYQF;2011-06-08 19:00;CYQF 081900Z 36003KT 12SM FEW017 SCT040 BKN100 14/10 A3008 RMK CU1SC2AC4 SLP204

CYQF;2011-06-08 19:36;CYQF 081936Z 06002KT 12SM TS SCT020CB BKN100 BKN250 RMK CB3AC2CI1 CB SE MVG NW HVY SHWR SE

CYQF;2011-06-08 20:00;CYQF 082000Z 09003KT 10SM -TSRA BKN020CB BKN090 BKN250 14/10 A3009 RMK CB5AC2CI0 VIS S 5 SLP207

CYQF;2011-06-08 20:35;CYQF 082035Z 26002KT 15SM VCSH SCT020CB BKN090 BKN250 RETS RMK CB3AC2CI1

CYQF;2011-06-08 21:00;CYQF 082100Z 25010G15KT 15SM FEW025CB BKN090 BKN250 12/09 A3008 RETS RMK CB2AC2CI1 SH W SLP208

CYQF;2011-06-08 22:00;CYQF 082200Z 29007KT 15SM FEW025TCU BKN100 BKN250 14/09 A3008 RMK TCU2AC2CI1 SLP208

CYQF;2011-06-08 23:00;CYQF 082300Z 28004KT 15SM FEW030TCU SCT100 BKN250 16/09 A3008 RMK TCU2AC2CI1 SLP207

CYQF;2011-06-09 00:00;CYQF 090000Z 26002KT 15SM FEW035 SCT100 BKN250 16/08 A3007 RMK CU2AC2CI0 SLP201

CYQF;2011-06-09 01:00;CYQF 090100Z 00000KT 15SM FEW035 SCT080 BKN250 16/08 A3008 RMK CU2AC2CI1 SLP202

CYQF;2011-06-09 02:00;CYQF 090200Z 08008KT 15SM SCT035 BKN250 15/09 A3009 RMK CU4CI0 TCU ASOCTD SLP205

CYQF;2011-06-09 03:00;CYQF 090300Z 09008KT 15SM FEW015 BKN040 BKN250 14/09 A3009 RMK SF1CU4CI1 TCU SHS SE SLP207

CYQF;2011-06-09 04:00;CYQF 090400Z 15008KT 15SM FEW020 BKN040 OVC250 13/08 A3010 RMK SC2SC4CI1 TCU EMBD SLP209

CYQF;2011-06-09 05:00;CYQF 090500Z 14006KT 15SM FEW040 SCT080 11/08 A3010 RMK SC2AC2 SLP208

CYQF;2011-06-09 06:00;CYQF 090600Z 14004KT 15SM FEW040 FEW090 09/08 A3009 RMK SC2AC1 SLP206

CYQF;2011-06-09 07:00;CYQF 090700Z 17004KT 15SM FEW040 SCT090 09/08 A3009 RMK SC2AC2 SLP206

CYQF;2011-06-09 08:00;CYQF 090800Z 17004KT 15SM FEW040 SCT090 09/07 A3008 RMK SC2AC2 SLP203

CYQF;2011-06-09 09:00;CYQF 090900Z 00000KT 15SM FEW040 SCT090 08/06 A3007 RMK SC1AC2 SLP203

CYQF;2011-06-09 10:00;CYQF 091000Z 16002KT 15SM FEW090 FEW250 07/05 A3007 RMK AC1CI0 SLP201

CYQF;2011-06-09 11:00;CYQF 091100Z 20006KT 15SM FEW090 FEW250 07/05 A3005 RMK AC1CI0 SLP197

CYQF;2011-06-09 12:00;CYQF 091200Z 20004KT 15SM FEW090 FEW250 07/04 A3006 RMK AC1CI0 SLP197

CYQF;2011-06-09 13:00;CYQF 091300Z 18004KT 15SM FEW090 FEW250 08/06 A3006 RMK AC1CI0 SLP197

CYQF;2011-06-09 14:00;CYQF 091400Z 18010G15KT 15SM FEW090 11/06 A3006 RMK AC1 SLP195

CYQF;2011-06-09 15:00;CYQF 091500Z 19013G19KT 15SM SKC 14/06 A3005 RMK SLP186

CYQF;2011-06-09 16:00;CYQF 091600Z 18015G20KT 15SM FEW240 16/06 A3003 RMK CI2 SLP180

CYQF;2011-06-09 17:00;CYQF 091700Z 20015G20KT 15SM FEW250 18/04 A3002 RMK CI2 SLP178

CYQF;2011-06-09 18:00;CYQF 091800Z 22013G20KT 15SM FEW056 FEW250 19/05 A3002 RMK CU1CI1 SLP173

CYQF;2011-06-09 19:00;CYQF 091900Z 20012G18KT 15SM FEW060 BKN250 20/04 A3001 RMK CU2CI2 SLP171

CYQF;2011-06-09 20:00;CYQF 092000Z 20010G16KT 15SM FEW068 BKN250 20/03 A3000 RMK CU2CI2 SLP169

CYQF;2011-06-09 21:00;CYQF 092100Z 18010G17KT 15SM FEW065 SCT250 20/04 A2999 RMK CU2CI0 SLP163

CYQF;2011-06-09 22:00;CYQF 092200Z 16010G15KT 15SM FEW071 BKN250 20/03 A2998 RMK CU1CI0 SLP160

CYQF;2011-06-09 23:00;CYQF 092300Z 16010KT 15SM FEW070 BKN250 21/03 A2997 RMK CU1CI1 SLP157

CYQF;2011-06-10 00:00;CYQF 100000Z CCA 16010G15KT 15SM FEW069 BKN250 20/03 A2996 RMK CU1CI2 CU TR SLP155

CYQF;2011-06-10 01:00;CYQF 100100Z 16010G15KT 15SM BKN250 20/04 A2995 RMK CI1 SLP152

CYQF;2011-06-10 02:00;CYQF 100200Z 16010G18KT 15SM BKN250 19/05 A2995 RMK CI0 SLP152

CYQF;2011-06-10 03:00;CYQF 100300Z 16010KT 15SM BKN250 18/05 A2995 RMK CI0 SLP149

CYQF;2011-06-10 04:00;CYQF 100400Z 16007KT 15SM BKN250 15/05 A2996 RMK CI2 SLP151

CYQF;2011-06-10 05:00;CYQF 100500Z 16008KT 15SM FEW250 13/05 A2996 RMK CI1 SLP152

CYQF;2011-06-10 06:00;CYQF 100600Z 17006KT 15SM FEW250 12/06 A2996 RMK CI1 SLP151

CYQF;2011-06-10 07:00;CYQF 100700Z 18005KT 15SM SKC 12/06 A2995 RMK SLP149

CYQF;2011-06-10 08:00;CYQF 100800Z 16008KT 15SM SKC 11/06 A2994 RMK SLP144

CYQF;2011-06-10 09:00;CYQF 100900Z 16006KT 15SM SKC 10/06 A2994 RMK SLP143

CYQF;2011-06-10 10:00;CYQF 101000Z 16005KT 15SM FEW120 09/06 A2992 RMK AC1 SLP139

CYQF;2011-06-10 11:00;CYQF 101100Z 00000KT 10SM FEW120 07/05 A2992 RMK AC1 SLP138

CYQF;2011-06-10 12:00;CYQF 101200Z 00000KT 10SM FEW250 07/06 A2992 RMK CI1 SLP141

CYQF;2011-06-10 13:00;CYQF 101300Z 17005KT 10SM SKC 09/07 A2992 RMK SLP140

CYQF;2011-06-10 14:00;CYQF 101400Z 15005KT 12SM SKC 11/07 A2991 RMK SLP137

CYQF;2011-06-10 15:00;CYQF 101500Z 16006KT 12SM SKC 13/08 A2990 RMK SLP132

CYQF;2011-06-10 16:00;CYQF 101600Z 16006KT 12SM SKC 16/08 A2989 RMK SLP128

CYQF;2011-06-10 17:00;CYQF 101700Z 16008KT 12SM FEW035 18/09 A2988 RMK CU1 SLP125

CYQF;2011-06-10 18:00;CYQF 101800Z 16010KT 12SM SKC 19/08 A2986 RMK SLP117

CYQF;2011-06-10 19:00;CYQF 101900Z 16009KT 12SM SKC 21/07 A2985 RMK SLP112

CYQF;2011-06-10 20:00;CYQF 102000Z 18004KT 15SM FEW060 22/07 A2983 RMK CU1 SLP107

CYQF;2011-06-10 21:00;CYQF 102100Z 20003KT 15SM FEW068 23/05 A2981 RMK CU1 SLP098

CYQF;2011-06-10 22:00;CYQF 102200Z 19005KT 15SM FEW072 23/05 A2979 RMK CU2 TCU W SLP092

CYQF;2011-06-10 23:00;CYQF 102300Z 16005KT 15SM FEW073 23/05 A2977 RMK CU2 CB DIST W SLP087

CYQF;2011-06-11 00:00;CYQF 110000Z 16009KT 15SM FEW080 24/04 A2976 RMK CU2 CB DIST W SLP081

CYQF;2011-06-11 01:00;CYQF 110100Z CCA 16010KT 15SM SCT074 SCT250 24/05 A2974 RMK CU3CI0 CB DIST S SLP076

CYQF;2011-06-11 02:00;CYQF 110200Z 16008KT 15SM SCT066 BKN150 BKN250 22/06 A2974 RMK CU4AC1CI0 TCU SW-NW SLP074

CYQF;2011-06-11 03:00;CYQF 110300Z 17005KT 15SM SCT065 SCT150 BKN250 20/06 A2974 RMK SC3AC1CI2 CU ASOCTD SHWRS SW-NW SLP074

CYQF;2011-06-11 03:35;CYQF 110335Z 33020G30KT 15SM SCT060 BKN080 BKN250 RMK SC4AC3CI1 WND SHFT OCNL LTNG DIST NW

CYQF;2011-06-11 04:00;CYQF 110400Z 35010G15KT 15SM SCT060 BKN080 OVC250 16/06 A2977 RMK SC4AC3CI0 OCNL LTNG DIST NW SLP082

CYQF;2011-06-11 05:00;CYQF 110500Z 03008KT 15SM FEW060 BKN080 BKN250 15/08 A2977 RMK SC2AC5CI1 OCNL LTGIC DIST W SLP084

CYQF;2011-06-11 06:00;CYQF 110600Z 35006KT 15SM FEW040 OVC080 14/08 A2979 RMK SC2AC6 SLP090

CYQF;2011-06-11 06:32;CYQF 110632Z 33005KT 12SM -SHRA FEW040 OVC080 RMK SC2AC6

CYQF;2011-06-11 07:00;CYQF 110700Z 06006KT 15SM -SHRA OVC065 13/10 A2982 RMK SC8 SLP099

CYQF;2011-06-11 07:19;CYQF 110719Z 01007KT 10SM -TSRA OVC060 RMK SC8 CB EMBD LTGIC

CYQF;2011-06-11 07:48;CYQF 110748Z 02007KT 10SM SHRA OVC060 RETS RMK SC8 CB EMBD

CYQF;2011-06-11 08:00;CYQF 110800Z 04004KT 15SM -SHRA OVC060 12/10 A2981 RMK SC8 RETS RERA SLP096

CYQF;2011-06-11 08:48;CYQF 110848Z 36006KT 10SM -SHRA BKN006 OVC050 RMK SF5SC3

CYQF;2011-06-11 09:00;CYQF 110900Z 36007KT 10SM -SHRA BKN006 OVC050 12/10 A2982 RMK SF5SC3 SLP099

CYQF;2011-06-11 09:15;CYQF 110915Z 34005KT 15SM -SHRA FEW006 BKN060 RMK SF2SC5

CYQF;2011-06-11 09:51;CYQF 110951Z 01004KT 15SM FEW006 BKN070 BKN250 RMK SF1AC6CI1

CYQF;2011-06-11 10:00;CYQF 111000Z 36002KT 15SM FEW006 BKN070 BKN250 12/10 A2983 RMK SF1AC6CI1 SLP101

CYQF;2011-06-11 11:00;CYQF 111100Z CCA 33004KT 15SM BKN060 BKN120 BKN250 11/10 A2982 RMK CU5AC2CI0 VIRGA SLP100

CYQF;2011-06-11 12:00;CYQF 111200Z 00000KT 15SM BKN060 BKN120 BKN250 11/10 A2984 RMK CU5AC2CI1 VIRGA SLP104

CYQF;2011-06-11 13:00;CYQF 111300Z 30010KT 15SM FEW020 BKN060 BKN100 11/10 A2983 RMK CF1SC5AC2 VIRGA CU SLP103

CYQF;2011-06-11 13:10;CYQF 111310Z 30006KT 15SM -SHRA FEW020 BKN060 BKN100 RMK CF1SC5AC2

CYQF;2011-06-11 13:44;CYQF 111344Z 34003KT 15SM FEW020 BKN060 BKN100 RMK CF1SC5AC2

CYQF;2011-06-11 14:00;CYQF 111400Z 34006KT 15SM FEW020 BKN060 BKN100 12/10 A2984 RMK CF1SC5AC2 SLP105

CYQF;2011-06-11 15:00;CYQF 111500Z 34004KT 15SM FEW020 BKN060 BKN100 12/09 A2985 RMK CF1SC6AC1 SLP112

CYQF;2011-06-11 16:00;CYQF 111600Z 36010KT 15SM FEW020 BKN060 BKN100 13/09 A2985 RMK CU2SC4AC2 SLP112

CYQF;2011-06-11 17:00;CYQF 111700Z 34005KT 15SM FEW016 BKN060 BKN100 13/09 A2985 RMK CU2SC4AC1 SLP113

CYQF;2011-06-11 18:00;CYQF 111800Z 36006KT 15SM -SHRA FEW019 BKN060 BKN100 14/09 A2985 RMK CU2SC4AC1 SLP115

CYQF;2011-06-11 19:00;CYQF 111900Z 01005KT 15SM -SHRA FEW025 BKN060 OVC100 14/07 A2984 RMK CU2SC4AC2 SLP114

CYQF;2011-06-11 20:00;CYQF 112000Z 35004KT 12SM -SHRA FEW015 BKN060 OVC100 14/10 A2983 RMK CF1SC6AC2 SLP111

CYQF;2011-06-11 21:00;CYQF 112100Z 34007KT 15SM SCT020 BKN060 OVC100 15/10 A2983 RMK CU4SC2AC2 SLP111

CYQF;2011-06-11 22:00;CYQF 112200Z 32003KT 15SM FEW025 BKN060 OVC100 14/08 A2983 RMK CF2SC5AC2 SLP112

CYQF;2011-06-11 22:12;CYQF 112212Z 30004KT 12SM -SHRA FEW025 BKN060 OVC100 RMK CU2SC4AC2

CYQF;2011-06-11 23:00;CYQF 112300Z CCA 31002KT 12SM -SHRA FEW015 BKN060 OVC100 14/10 A2983 RMK SF1SC5AC3 SLP111

CYQF;2011-06-12 00:00;CYQF 120000Z 31004KT 12SM -SHRA BKN060 OVC100 13/11 A2982 RMK SC6AC2 SLP112

CYQF;2011-06-12 00:48;CYQF 120048Z 32005KT 15SM FEW025 BKN060 OVC100 RMK SC2SC4AC2 SHS N

CYQF;2011-06-12 01:00;CYQF 120100Z 33005KT 15SM FEW025 BKN060 OVC100 13/10 A2981 RMK CF2SC4AC2 SHS N SLP107

CYQF;2011-06-12 02:00;CYQF 120200Z 30003KT 15SM BKN070 BKN250 14/10 A2980 RMK AC5CI2 SLP105

CYQF;2011-06-12 03:00;CYQF 120300Z 29003KT 15SM BKN060 OVC250 14/10 A2981 RMK SC6CI1 SLP104

CYQF;2011-06-12 04:00;CYQF 120400Z 28004KT 15SM VCSH BKN050 OVC080 13/10 A2980 RMK SC5AC3 SLP102

CYQF;2011-06-12 05:00;CYQF 120500Z 20003KT 15SM VCSH BKN050 OVC080 12/10 A2981 RMK SC6AC2 SLP105

CYQF;2011-06-12 05:22;CYQF 120522Z 23007KT 12SM -SHRA OVC050 RMK SC8

CYQF;2011-06-12 06:00;CYQF 120600Z 26007KT 12SM -SHRA OVC050 12/10 A2980 RMK SC8 SLP103

CYQF;2011-06-12 07:00;CYQF 120700Z 25005KT 15SM -SHRA OVC050 11/09 A2979 RMK SC8 SLP100

CYQF;2011-06-12 08:00;CYQF 120800Z 27003KT 15SM -RA OVC050 11/09 A2978 RMK SC8 SLP097

CYQF;2011-06-12 09:00;CYQF 120900Z CCA 27005KT 15SM -RA OVC050 11/10 A2978 RMK SC8 SLP094

CYQF;2011-06-12 10:00;CYQF 121000Z 27004KT 15SM -RA BKN050 OVC090 11/10 A2977 RMK SC6AC2 SLP092

CYQF;2011-06-12 10:35;CYQF 121035Z 24002KT 15SM BKN050 OVC090 RMK SC6AC2

CYQF;2011-06-12 11:00;CYQF 121100Z 26005KT 15SM BKN050 OVC090 11/09 A2977 RMK SC6AC2 SLP091

CYQF;2011-06-12 12:00;CYQF 121200Z 29003KT 15SM BKN050 OVC090 11/09 A2977 RMK SC6AC2 SLP093

CYQF;2011-06-12 13:00;CYQF 121300Z 26003KT 15SM VCSH BKN040TCU OVC090 11/10 A2977 RMK TCU6AC2 SLP094

CYQF;2011-06-12 13:22;CYQF 121322Z 26002KT 10SM -SHRA BKN040TCU BKN090 RMK TCU6AC2

CYQF;2011-06-12 14:00;CYQF 121400Z 00000KT 15SM -SHRA BKN040TCU BKN090 12/10 A2977 RMK TCU5AC2 SLP094

CYQF;2011-06-12 15:00;CYQF 121500Z 30003KT 12SM -SHRA FEW015 BKN050 BKN100 12/10 A2977 RMK CF1SC5AC2 TCU ASOCTD SLP091

CYQF;2011-06-12 16:00;CYQF 121600Z 00000KT 12SM -SHRA FEW015 BKN050 BKN100 13/11 A2977 RMK CF2SC3AC2 SLP091

CYQF;2011-06-12 16:12;CYQF 121612Z 00000KT 12SM FEW015 BKN100 BKN250 RMK CU2AC3CI1

CYQF;2011-06-12 17:00;CYQF 121700Z 00000KT 15SM BKN020 BKN100 BKN250 15/10 A2976 RMK CU5AC2CI1 TCU ASOCTD SLP088

CYQF;2011-06-12 17:51;CYQF 121751Z 29003KT 15SM TS BKN020CB BKN100 BKN250 RMK CB5AC2CI1

CYQF;2011-06-12 18:00;CYQF 121800Z 29005KT 15SM TS BKN020CB BKN100 BKN250 14/11 A2976 RMK CB5AC2CI1 SLP086

CYQF;2011-06-12 18:35;CYQF 121835Z 09010KT 15SM BKN020CB BKN100 BKN250 RMK CB6AC1CI1 WND SHFT HVY SHWR SE

CYQF;2011-06-12 19:00;CYQF 121900Z 09006KT 15SM BKN020CB 15/10 A2975 RMK CB7 SLP085

CYQF;2011-06-12 20:00;CYQF 122000Z 10004KT 15SM BKN025TCU BKN250 17/10 A2975 RMK TCU5CI1 SLP083

CYQF;2011-06-12 21:00;CYQF 122100Z 00000KT 15SM BKN030TCU BKN250 17/10 A2974 RMK TCU5CI1 SLP079

CYQF;2011-06-12 22:00;CYQF 122200Z 06002KT 15SM BKN031TCU BKN250 18/10 A2974 RMK TCU6CI1 OCNL LTNG W SLP077

CYQF;2011-06-12 22:49;CYQF 122249Z CCA 27010G15KT 15SM BKN023CB RMK CB7 WND SHFT SHWRS S-E-NW OCNL LTNG S

CYQF;2011-06-12 23:00;CYQF 122300Z 30010G17KT 15SM BKN023CB 15/10 A2974 RMK CB7 SHWR S-W-NW OCNL LTNG S SLP078

CYQF;2011-06-12 23:34;CYQF 122334Z 32010KT 15SM TS VCSH BKN022CB BKN100 RMK CB5AC1 CLRG FM W

CYQF;2011-06-13 00:00;CYQF 130000Z 03003KT 15SM SCT025CB BKN100 17/10 A2975 RMK CB4AC2 SHS E SLP082

CYQF;2011-06-13 01:00;CYQF 130100Z 00000KT 15SM FEW030TCU FEW100 17/10 A2974 RMK TCU2AC1 CB TOP E SLP079

CYQF;2011-06-13 02:00;CYQF 130200Z 08003KT 15SM FEW030 FEW100 17/09 A2974 RMK CU1AC1 CB TOP SW SLP080

CYQF;2011-06-13 03:00;CYQF 130300Z 06003KT 15SM FEW100 16/10 A2975 RMK AC2 CB TOP S SLP079

CYQF;2011-06-13 04:00;CYQF 130400Z 00000KT 15SM FEW040 FEW090 SCT230 13/09 A2976 RMK SC1AC1CI1 SLP083

CYQF;2011-06-13 05:00;CYQF 130500Z 00000KT 15SM FEW040 FEW090 FEW230 12/09 A2977 RMK SC1AC1CI0 SLP087

CYQF;2011-06-13 06:00;CYQF 130600Z 00000KT 15SM FEW100 10/09 A2976 RMK AC2 SLP091

CYQF;2011-06-13 07:00;CYQF 130700Z 00000KT 15SM FEW100 09/08 A2975 RMK AC1 SLP086

CYQF;2011-06-13 08:00;CYQF 130800Z 21003KT 15SM FEW100 07/05 A2975 RMK AC1 SLP087

CYQF;2011-06-13 09:00;CYQF 130900Z 00000KT 15SM FEW100 08/07 A2975 RMK AC1 SLP084

CYQF;2011-06-13 10:00;CYQF 131000Z 00000KT 15SM FEW100 FEW250 08/07 A2976 RMK AC1CI1 SLP086

CYQF;2011-06-13 11:00;CYQF 131100Z 00000KT 10SM FEW020 SCT100 BKN250 07/06 A2976 RMK SC2AC2CI1 PRFG VSBY NW-NE 2 BR SLP087

CYQF;2011-06-13 12:00;CYQF 131200Z 00000KT 5SM BR FEW020 SCT100 BKN250 07/07 A2976 RMK SC2AC2CI1 PRFG VSBY W-NE 2 BR SLP090

CYQF;2011-06-13 13:00;CYQF 131300Z 00000KT 10SM FEW100 BKN250 09/09 A2976 RMK AC2CI2 BR SLP089

CYQF;2011-06-13 14:00;CYQF 131400Z 00000KT 10SM FEW100 BKN250 12/10 A2975 RMK AC1CS6 SLP087

CYQF;2011-06-13 15:00;CYQF 131500Z 16006KT 12SM FEW100 BKN250 16/11 A2974 RMK AC1CI4 SLP074

CYQF;2011-06-13 16:00;CYQF 131600Z 14005KT 15SM FEW030 FEW100 BKN250 17/10 A2974 RMK CU1AC1CI3 TR CU SLP073

CYQF;2011-06-13 17:00;CYQF 131700Z 14006KT 15SM FEW032 BKN250 18/10 A2973 RMK CU2CI5 SLP072

CYQF;2011-06-13 18:00;CYQF 131800Z 17003KT 15SM SCT035 BKN250 19/10 A2973 RMK CU3CI1 SLP074

CYQF;2011-06-13 19:00;CYQF 131900Z 10005KT 15SM SCT040 OVC250 20/10 A2973 RMK CU4CI2 TCU CS ASOCTD SLP073

CYQF;2011-06-13 20:00;CYQF 132000Z 14003KT 15SM SCT044 BKN100 OVC250 20/09 A2972 RMK CU4AC2CS2 SLP070

CYQF;2011-06-13 21:00;CYQF 132100Z 10005KT 15SM SCT044TCU BKN250 20/09 A2970 RMK TCU3CS4 SLP064

CYQF;2011-06-13 22:00;CYQF 132200Z 24015KT 15SM VCSH BKN035CB OVC250 16/08 A2973 RMK CB6CI2 SLP072

CYQF;2011-06-13 22:12;CYQF 132212Z 15013KT 8SM -TSRA BKN035CB OVC250 RMK CB6CI2

CYQF;2011-06-13 22:47;CYQF 132247Z 19002KT 8SM -SHRA OVC030 RETS RMK SC8 TCU ASOCTD

CYQF;2011-06-13 23:00;CYQF 132300Z 00000KT 8SM -SHRA OVC030 12/10 A2977 RETS RMK SC8 TCU ASOCTD SLP087

CYQF;2011-06-14 00:00;CYQF 140000Z 01004KT 10SM -SHRA FEW010 OVC040 13/11 A2978 RMK SF1SC7 TCU ASOCTD SLP102

CYQF;2011-06-14 01:00;CYQF 140100Z 33002KT 10SM -SHRA FEW010 OVC040 12/12 A2979 RMK SF2SC6 TCU ASOCTD SLP104

CYQF;2011-06-14 02:00;CYQF 140200Z 34004KT 10SM -RA SCT025 OVC050 12/11 A2979 RMK SC3SC5 SLP105

CYQF;2011-06-14 03:00;CYQF 140300Z 12002KT 12SM -RA FEW020 OVC050 12/11 A2979 RMK SC2SC6 SLP097

CYQF;2011-06-14 04:00;CYQF 140400Z 20003KT 15SM -RA FEW020 BKN050 12/10 A2978 RMK SC2SC6 SLP093

CYQF;2011-06-14 04:25;CYQF 140425Z 00000KT 15SM FEW020 SCT050 BKN100 RMK SC1SC3AC2

CYQF;2011-06-14 05:00;CYQF 140500Z 28002KT 15SM FEW020 SCT050 BKN100 10/10 A2979 RMK SC1SC3AC2 SLP097

CYQF;2011-06-14 06:00;CYQF 140600Z 27004KT 15SM SCT050 BKN100 11/10 A2980 RMK SC3AC3 SLP096

CYQF;2011-06-14 07:00;CYQF 140700Z 27002KT 15SM SCT050 BKN090 BKN250 11/10 A2979 RMK SC3AC2CI0 SLP095

CYQF;2011-06-14 08:00;CYQF 140800Z 20002KT 15SM FEW050 BKN090 BKN250 10/10 A2981 RMK SC2AC3CI1 SLP100

CYQF;2011-06-14 09:00;CYQF 140900Z 27003KT 15SM FEW050 BKN090 OVC250 10/10 A2982 RMK SC2AC4CI1 SLP102

CYQF;2011-06-14 10:00;CYQF 141000Z 29005KT 15SM FEW050 BKN090 OVC250 11/09 A2983 RMK SC2AC4CI1 SLP107

CYQF;2011-06-14 11:00;CYQF 141100Z 32008KT 15SM FEW020 SCT090 BKN250 11/09 A2985 RMK SC2AC2CI1 SLP111

CYQF;2011-06-14 12:00;CYQF 141200Z 33004KT 15SM FEW020 FEW090 BKN250 10/08 A2986 RMK SC1AC1CI1 SLP126

CYQF;2011-06-14 13:00;CYQF 141300Z 28006KT 15SM FEW090 FEW250 10/09 A2988 RMK AC1CI2 SLP133

CYQF;2011-06-14 14:00;CYQF 141400Z 31010KT 15SM SCT090 BKN250 12/08 A2989 RMK AC4CI1 SLP136

CYQF;2011-06-14 15:00;CYQF 141500Z 31008KT 15SM FEW022 BKN090 BKN250 13/08 A2990 RMK CU1AC6CI1 SLP138

CYQF;2011-06-14 16:00;CYQF 141600Z 32012G20KT 15SM FEW024 BKN090 BKN250 14/08 A2990 RMK CU2AC2CI1 SLP138

CYQF;2011-06-14 17:00;CYQF 141700Z 31016G22KT 15SM BKN032 15/08 A2990 RMK CU5 SLP138

CYQF;2011-06-14 18:00;CYQF 141800Z 32012G18KT 15SM BKN040 17/08 A2990 RMK CU6 SLP135

CYQF;2011-06-14 19:00;CYQF 141900Z 32011G19KT 15SM BKN036 17/08 A2990 RMK CU5 SLP134

CYQF;2011-06-14 20:00;CYQF 142000Z 33012G20KT 15SM SCT040 18/08 A2989 RMK CU4 TCU/SHS W SLP131

CYQF;2011-06-14 21:00;CYQF 142100Z 34013G20KT 15SM VCSH BKN044TCU 18/06 A2987 RMK TCU6 SLP125

CYQF;2011-06-14 21:14;CYQF 142114Z 28010G20KT 10SM -SHRA BKN040TCU RMK TCU6 VSBY LWR S

CYQF;2011-06-14 21:36;CYQF 142136Z 31007KT 15SM VCSH SCT040TCU BKN100 RMK TCU3AC2

CYQF;2011-06-14 22:00;CYQF 142200Z 33005KT 15SM FEW040TCU SCT100 17/08 A2988 RMK TCU2AC2 CB SHS DSNT S+E SLP128

CYQF;2011-06-14 23:00;CYQF 142300Z 34007KT 15SM FEW040TCU BKN100 19/08 A2986 RMK TCU2AC2 CB ASOCTD SLP122

CYQF;2011-06-15 00:00;CYQF 150000Z 36008KT 15SM FEW048 SCT100 20/08 A2986 RMK CU2AC1 TCU ASOCTD SLP117

CYQF;2011-06-15 01:00;CYQF 150100Z 02010G15KT 15SM FEW045 SCT100 17/07 A2986 RMK CU2AC1 SLP118

CYQF;2011-06-15 02:00;CYQF 150200Z 01010G15KT 15SM FEW040CB SCT100 17/07 A2986 RMK CB2AC1 SLP119

CYQF;2011-06-15 03:00;CYQF 150300Z 22010G15KT 15SM SCT025CB BKN100 13/07 A2990 RMK CB3AC2 SHRA SW SLP134

CYQF;2011-06-15 04:00;CYQF 150400Z 23002KT 15SM FEW025CB BKN100 12/08 A2988 RMK CB2AC3 SLP129

CYQF;2011-06-15 05:00;CYQF 150500Z 26003KT 15SM FEW025CB BKN100 12/08 A2989 RMK CB2AC3 SLP131

CYQF;2011-06-15 06:00;CYQF 150600Z 25005KT 15SM FEW025CB BKN100 11/09 A2988 RMK CB2AC3 SLP127

CYQF;2011-06-15 07:00;CYQF 150700Z 24007KT 15SM FEW025 BKN100 11/08 A2986 RMK SC2AC3 CB ASOCTD SLP123

CYQF;2011-06-15 08:00;CYQF 150800Z 25005KT 15SM FEW025 BKN100 11/08 A2986 RMK SC2AC3 SLP121

CYQF;2011-06-15 09:00;CYQF 150900Z 28006KT 15SM FEW030 OVC080 11/09 A2986 RMK SC2AC6 SLP119

CYQF;2011-06-15 09:39;CYQF 150939Z 32013KT 10SM -RA SCT030 OVC080 RMK SC3AC5

CYQF;2011-06-15 10:00;CYQF 151000Z 31012G18KT 10SM -RA SCT030 OVC080 10/08 A2986 RMK SC3AC5 SLP121

CYQF;2011-06-15 11:00;CYQF 151100Z 26012KT 10SM -RA BKN030 BKN080 09/08 A2985 RMK SC5AC2 SLP118

CYQF;2011-06-15 12:00;CYQF 151200Z 27007KT 15SM BKN030 BKN080 09/08 A2985 RMK SC5AC2 SLP115

CYQF;2011-06-15 13:00;CYQF 151300Z 27007KT 15SM -RA BKN030 BKN080 09/08 A2985 RMK SC5AC2 SLP114

CYQF;2011-06-15 14:00;CYQF 151400Z 30010KT 15SM SCT030 BKN080 BKN250 11/08 A2983 RMK SC3AC2CI1 SLP110

CYQF;2011-06-15 15:00;CYQF 151500Z 30012G18KT 15SM FEW016 BKN080 BKN250 11/07 A2982 RMK CU1AC6CI2 SLP110

CYQF;2011-06-15 16:00;CYQF 151600Z 30010G16KT 15SM FEW022 SCT080 BKN250 13/07 A2981 RMK CU1AC3CI3 SLP106

CYQF;2011-06-15 17:00;CYQF 151700Z 29011G17KT 15SM FEW030 SCT080 BKN250 14/06 A2979 RMK CU2AC2CI1 SLP100

CYQF;2011-06-15 18:00;CYQF 151800Z 34010G15KT 15SM SCT036 BKN250 15/06 A2978 RMK CU3CI1 SLP094

CYQF;2011-06-15 19:00;CYQF 151900Z 32015G23KT 15SM FEW044 SCT100 BKN250 16/05 A2976 RMK CU2AC2CI2 TCU SLP090

CYQF;2011-06-15 20:00;CYQF 152000Z 32012G22KT 15SM BKN045 BKN100 BKN250 16/06 A2975 RMK SC5AC2CI1 TCU SLP086

CYQF;2011-06-15 21:00;CYQF 152100Z CCA 33015G23KT 15SM VCSH BKN045 OVC100 14/07 A2976 RMK SC6AC2 TCU EMBD SLP087

CYQF;2011-06-15 22:00;CYQF 152200Z 33012G19KT 15SM SCT040 BKN100 OVC250 15/06 A2975 RMK CU4AC2CI1 TCU ASOCTD SLP086

CYQF;2011-06-15 23:00;CYQF 152300Z 33015G21KT 15SM SCT040 BKN090 OVC250 16/08 A2975 RMK CU4AC2CI1 TCU SLP085

CYQF;2011-06-16 00:00;CYQF 160000Z 32015G20KT 15SM FEW030 BKN070 BKN250 14/06 A2975 RMK CU2AC3CI1 SLP086

CYQF;2011-06-16 01:00;CYQF 160100Z 33012G18KT 15SM SCT030 BKN070 14/07 A2973 RMK CU3AC4 SLP081

CYQF;2011-06-16 02:00;CYQF 160200Z 33012G20KT 15SM SCT030 BKN070 14/06 A2973 RMK CU3AC4 SLP081

CYQF;2011-06-16 03:00;CYQF 160300Z 31012G20KT 15SM SCT030 BKN060 13/06 A2973 RMK CU3SC4 SLP080

CYQF;2011-06-16 04:00;CYQF 160400Z 31010KT 15SM SCT025 BKN050 12/06 A2973 RMK SC3SC4 SLP080

CYQF;2011-06-16 05:00;CYQF 160500Z 30010KT 15SM BKN020 BKN050 11/05 A2972 RMK SC6SC2 SLP076

CYQF;2011-06-16 06:00;CYQF 160600Z 30010G15KT 15SM BKN020 BKN050 11/06 A2970 RMK SC6SC2 SLP068

CYQF;2011-06-16 06:24;CYQF 160624Z 31010G15KT 15SM -SHRA SCT020 OVC040 RMK SC3SC5

CYQF;2011-06-16 07:00;CYQF 160700Z 27010G15KT 10SM -SHRA SCT020 OVC040 09/08 A2970 RMK SC3SC5 VIS S 4 SLP066

CYQF;2011-06-16 07:36;CYQF 160736Z 29013G20KT 6SM -DZ BKN016 OVC040 RMK SC6SC2

CYQF;2011-06-16 08:00;CYQF 160800Z 29010G15KT 6SM -DZ SCT007 OVC012 08/07 A2967 RMK SF4ST4 SLP059

CYQF;2011-06-16 09:00;CYQF 160900Z 31015G20KT 10SM -DZ FEW007 SCT012 OVC016 09/07 A2965 RMK SF1SF2SC5 SLP052

CYQF;2011-06-16 09:45;CYQF 160945Z 27008G15KT 6SM -DZ SCT008 OVC012 RMK SF3ST5

CYQF;2011-06-16 10:00;CYQF 161000Z 30010G16KT 6SM -DZ SCT007 OVC012 09/08 A2963 RMK SF4ST4 VIS N 3 SLP047

CYQF;2011-06-16 10:12;CYQF 161012Z 30010KT 6SM -RA BKN008 OVC012 RMK SF6ST2

CYQF;2011-06-16 11:00;CYQF 161100Z 29008KT 3SM -RA BKN006 OVC012 08/08 A2961 RMK SF6ST2 CIG RAG SLP040

CYQF;2011-06-16 11:26;CYQF 161126Z 27010KT 3SM RA BKN004 OVC012 RMK SC7SC1 BLN VIS TO 700FT

CYQF;2011-06-16 12:00;CYQF 161200Z 29008G15KT 3SM RA BKN003 OVC012 08/08 A2958 RMK SF6SC2 CIG RAG BLN VIS TO 700FT SLP030

CYQF;2011-06-16 12:21;CYQF 161221Z 28010G15KT 2 1/2SM +RA SCT004 OVC012 RMK SF4SC4

CYQF;2011-06-16 12:24;CYQF 161224Z 25010G15KT 3SM RA SCT004 OVC012 RERA RMK SF4SC4

CYQF;2011-06-16 12:46;CYQF 161246Z 24005KT 3SM -RA BR FEW003 BKN005 OVC012 RERA RMK SF2SF3SC3 CIG RAG

CYQF;2011-06-16 13:00;CYQF 161300Z 26002KT 3SM RA BR BKN005 OVC012 08/08 A2956 RERA RMK SC6SC2 CIG RAG SLP021

CYQF;2011-06-16 13:51;CYQF 161351Z 03003KT 12SM SCT005 BKN015 OVC040 RERA RMK SF3SC3SC2

CYQF;2011-06-16 14:00;CYQF 161400Z 03002KT 12SM FEW005 SCT015 BKN040 OVC100 10/09 A2956 RERA RMK SF2SC2SC3AC2 SLP024

CYQF;2011-06-16 14:45;CYQF 161445Z 02002KT 15SM FEW005 BKN012 BKN100 RMK SF2SC4AC1

CYQF;2011-06-16 15:00;CYQF 161500Z 02002KT 15SM FEW005 BKN012 BKN100 11/09 A2957 RMK SF2SC4AC1 CIG RAG SLP026

CYQF;2011-06-16 16:00;CYQF 161600Z 02007KT 15SM FEW005 BKN012 OVC080 12/09 A2958 RMK SF2SC4AC1 CIG RAG SLP028

CYQF;2011-06-16 17:00;CYQF 161700Z 04007KT 15SM FEW008 BKN015 OVC080 12/08 A2960 RMK SF2SC4AC2 CU EMBD SLP033

CYQF;2011-06-16 17:19;CYQF 161719Z 05004KT 15SM -SHRA BKN015 OVC080 RMK SC6AC2 CU EMBD

CYQF;2011-06-16 18:00;CYQF 161800Z 02005KT 15SM VCSH BKN015 BKN040 OVC080 12/09 A2960 RMK CU5SC2AC1 SLP035

CYQF;2011-06-16 18:35;CYQF 161835Z 02005KT 12SM -SHRA BKN015 OVC040 RMK CU5SC3

CYQF;2011-06-16 19:00;CYQF 161900Z 02005KT 12SM -SHRA BKN015 OVC040 12/09 A2961 RMK CU6SC2 SLP039

CYQF;2011-06-16 19:27;CYQF 161927Z 07003KT 6SM TSRA BKN015CB BKN080 RMK CB6AC2 LTGCG NE

CYQF;2011-06-16 20:00;CYQF 162000Z 31007KT 8SM -TSRA BKN015CB BKN040 BKN080 11/08 A2963 RMK CB5SC2AC1 LTGCG SW CIG RAG SLP043

CYQF;2011-06-16 20:40;CYQF 162040Z CCA 32007KT 10SM -SHRA SCT015CB BKN037 BKN080  RMK CB4SC2AC1 VIS SW 5 HYVR SHS

CYQF;2011-06-16 21:00;CYQF 162100Z 32005KT 15SM SCT015CB BKN040 BKN080 11/10 A2964 RETS RMK CB4SC2AC1 SHS SW SLP053

CYQF;2011-06-16 21:44;CYQF 162144Z 03008KT 15SM -SHRA FEW010 BKN030CB OVC080 RMK SF2CB3AC3

CYQF;2011-06-16 22:00;CYQF 162200Z 02006KT 10SM -SHRA FEW010 BKN030TCU OVC080 11/10 A2965 RMK SF2TCU3AC3 CB ASOCTD SLP055

CYQF;2011-06-16 23:00;CYQF 162300Z 03002KT 8SM -SHRA BKN015TCU OVC080 12/10 A2966 RMK TCU6AC2 CB ASOCTD SLP058

CYQF;2011-06-17 00:00;CYQF 170000Z 01007KT 10SM -SHRA BKN015TCU OVC080 12/10 A2966 RMK TCU6AC2 SLP059

CYQF;2011-06-17 00:26;CYQF 170026Z 36006KT 15SM SCT015TCU OVC080 RMK TCU3AC5

CYQF;2011-06-17 01:00;CYQF 170100Z 35008KT 15SM FEW015TCU BKN080 11/09 A2966 RMK TCU2AC4 SLP060

CYQF;2011-06-17 02:00;CYQF 170200Z 32005KT 15SM FEW015TCU BKN090 11/10 A2968 RMK TCU2AC5 SLP065

CYQF;2011-06-17 03:00;CYQF 170300Z 36004KT 15SM FEW015TCU BKN050 11/09 A2969 RMK TCU2SC4 SLP067

CYQF;2011-06-17 04:00;CYQF 170400Z 32005KT 15SM BKN015TCU BKN050 11/10 A2970 RMK TCU5SC2 SLP070

CYQF;2011-06-17 04:24;CYQF 170424Z 34007KT 10SM -SHRA BKN015TCU OVC050 RMK TCU6SC2

CYQF;2011-06-17 05:00;CYQF 170500Z CCA 01006KT 6SM SHRA BKN015TCU OVC050 10/10 A2971 RMK TCU7SC1 SLP075

CYQF;2011-06-17 06:00;CYQF 170600Z 00000KT 3SM -SHRA BR FEW004 SCT010 OVC018TCU 10/09 A2972 RERA RMK SF1SC2TCU5 SLP076

CYQF;2011-06-17 06:48;CYQF 170648Z 35005KT 6SM BR FEW018 OVC040 RMK SC2SC6

CYQF;2011-06-17 07:00;CYQF 170700Z 36004KT 8SM FEW010 SCT018 OVC040 10/09 A2972 RMK SF2SC2SC5 SLP077

CYQF;2011-06-17 08:00;CYQF 170800Z 36004KT 10SM OVC040 10/09 A2973 RMK SC8 SLP080

CYQF;2011-06-17 09:00;CYQF 170900Z 00000KT 15SM BKN010 OVC040 10/09 A2974 RMK ST6SC2 SLP086

CYQF;2011-06-17 10:00;CYQF 171000Z 02003KT 15SM SCT010 BKN040 09/09 A2974 RMK ST3SC4 SLP087

CYQF;2011-06-17 10:10;CYQF 171010Z 03002KT 10SM -DZ OVC005 RMK ST8 VIS NW 5

CYQF;2011-06-17 11:00;CYQF 171100Z 03003KT 3SM BR OVC004 10/09 A2975 RMK ST8 SLP089

CYQF;2011-06-17 11:35;CYQF 171135Z 00000KT 2 1/2SM BR BKN005 OVC040 RMK ST4SC3

CYQF;2011-06-17 12:00;CYQF 171200Z 00000KT 2 1/2SM BR OVC004 09/09 A2976 RMK ST8 CIG RAG BLN VIS TO 600FT SLP091

CYQF;2011-06-17 12:42;CYQF 171242Z 00000KT 3SM BR FEW004 BKN040 OVC080 RMK SF2SC3AC2

CYQF;2011-06-17 13:00;CYQF 171300Z 00000KT 3SM BR SCT005 BKN040 10/09 A2977 RMK SF3SC4 SLP094

CYQF;2011-06-17 13:18;CYQF 171318Z 00000KT 3SM BR BKN003 OVC040 RMK SF5SC3

CYQF;2011-06-17 14:00;CYQF 171400Z 00000KT 5SM BR SCT004 BKN040 11/09 A2977 RMK SF3SC3 SLP095

CYQF;2011-06-17 14:46;CYQF 171446Z 00000KT 8SM FEW004 BKN008 BKN250 RMK SF2SC4CI1 BLLN EST

CYQF;2011-06-17 15:00;CYQF 171500Z 00000KT 8SM BKN006 OVC250 11/09 A2977 RMK SF6CI1 SLP097

CYQF;2011-06-17 16:00;CYQF 171600Z 00000KT 10SM BKN012 BKN250 12/09 A2978 RMK CU6CI1 SLP100

CYQF;2011-06-17 16:37;CYQF 171637Z 36005KT 15SM SCT014TCU BKN250 RMK TCU4CI1

CYQF;2011-06-17 17:00;CYQF 171700Z 33007KT 15SM BKN017TCU BKN250 13/09 A2978 RMK TCU5CI1 SLP099

CYQF;2011-06-17 18:00;CYQF 171800Z 30002KT 15SM BKN020TCU BKN250 14/09 A2979 RMK TCU5CI2 SLP102

CYQF;2011-06-17 19:00;CYQF 171900Z 00000KT 15SM BKN025TCU 15/08 A2979 RMK TCU7 SLP101

CYQF;2011-06-17 20:00;CYQF 172000Z 07005KT 15SM VCSH FEW010 BKN020TCU BKN250 13/08 A2981 RMK CF1TCU6CI1 CB EMBD SLP106

CYQF;2011-06-17 20:28;CYQF 172028Z 08003KT 15SM TS VCSH FEW010 BKN020CB BKN250 RMK CF1CB5CI2

CYQF;2011-06-17 21:00;CYQF 172100Z 28005KT 15SM BKN025CB BKN100 14/08 A2982 RETS RMK CB5AC2 SLP110

CYQF;2011-06-17 22:00;CYQF 172200Z 29003KT 15SM FEW025CB BKN100 13/09 A2980 RMK CB2AC6 SLP105

CYQF;2011-06-17 23:00;CYQF 172300Z 31003KT 15SM FEW025CB FEW100 BKN250 14/09 A2979 RMK CB2AC1CI3 SLP103

CYQF;2011-06-18 00:00;CYQF 180000Z 34008KT 15SM FEW032TCU FEW250 16/08 A2979 RMK TCU2CI1 DIST CB SLP099

CYQF;2011-06-18 01:00;CYQF 180100Z 34004KT 15SM FEW032TCU FEW100 FEW250 16/08 A2979 RMK TCU2AC1CI1 SLP098

CYQF;2011-06-18 02:00;CYQF 180200Z 33005KT 15SM SCT032TCU SCT250 16/08 A2978 RMK TCU3CI1 DIST CB SLP097

CYQF;2011-06-18 03:00;CYQF 180300Z 34004KT 15SM FEW032CB FEW250 15/09 A2978 RMK CB2CI1 SLP096

CYQF;2011-06-18 04:00;CYQF 180400Z 35004KT 15SM FEW032CB FEW100 FEW250 12/09 A2978 RMK CB1ACC1CI1 SLP095

CYQF;2011-06-18 05:00;CYQF 180500Z 34004KT 15SM FEW100 FEW250 11/08 A2977 RMK AC2CI0 ACC ASOCTD SLP092

CYQF;2011-06-18 06:00;CYQF 180600Z 31006KT 15SM FEW100 FEW250 10/09 A2976 RMK AC2CI0 ACC ASOCTD SLP089

CYQF;2011-06-18 07:00;CYQF 180700Z 32003KT 15SM FEW100 FEW250 10/09 A2975 RMK AC2CI0 SLP087

CYQF;2011-06-18 08:00;CYQF 180800Z 32007KT 15SM FEW100 SCT250 10/09 A2974 RMK AC2CI0 SLP082

CYQF;2011-06-18 09:00;CYQF 180900Z 33007KT 15SM SCT100 BKN250 11/09 A2972 RMK AC3CI1 SLP076

CYQF;2011-06-18 10:00;CYQF 181000Z 32005KT 15SM FEW030 BKN100 BKN250 11/04 A2971 RMK SC2AC3CI1 SLP071

CYQF;2011-06-18 11:00;CYQF 181100Z 28006KT 15SM SCT030 OVC100 11/09 A2969 RMK SC4AC4 SLP067

CYQF;2011-06-18 12:00;CYQF 181200Z 30008KT 15SM BKN020 OVC100 10/08 A2967 RMK SC6AC2 SLP057

CYQF;2011-06-18 13:00;CYQF 181300Z 29007KT 15SM SCT020 OVC100 10/09 A2966 RMK SC3AC5 SLP052

CYQF;2011-06-18 14:00;CYQF 181400Z 29010KT 15SM BKN020 OVC060 11/09 A2964 RMK SC5SC3 SLP048

CYQF;2011-06-18 14:28;CYQF 181428Z 29010KT 15SM -RA BKN020 OVC060 RMK SC6SC2

CYQF;2011-06-18 15:00;CYQF 181500Z 31010KT 10SM -RA BKN020 OVC060 11/09 A2964 RMK SC7SC1 SLP045

CYQF;2011-06-18 15:21;CYQF 181521Z 31008KT 6SM -RA BR BKN011 OVC020 RMK SC6SC2

CYQF;2011-06-18 16:00;CYQF 181600Z 31010G15KT 6SM -RA BR SCT010 OVC020 11/09 A2961 RMK SC4SC4 SLP038

CYQF;2011-06-18 17:00;CYQF 181700Z 30012G18KT 6SM -RA BR SCT012 OVC030 10/09 A2960 RMK SC4SC4 SLP035

CYQF;2011-06-18 18:00;CYQF 181800Z 30015G20KT 5SM RA BR SCT010 OVC030 10/09 A2959 RMK SC4SC4 SLP035

CYQF;2011-06-18 19:00;CYQF 181900Z 31013G23KT 8SM -RA FEW010 BKN030 OVC100 11/09 A2958 RMK SF2SC2AS3 SLP032

CYQF;2011-06-18 19:48;CYQF 181948Z 31015G25KT 10SM -RA FEW006 BKN010 OVC100 RMK CF1SF3AS5

CYQF;2011-06-18 20:00;CYQF 182000Z 31020G30KT 10SM -RA FEW006 BKN010 OVC100 11/09 A2957 RMK CF1SF3AS5 SLP029

CYQF;2011-06-18 21:00;CYQF 182100Z 30015G25KT 8SM -RA FEW006 SCT010 OVC030 11/10 A2957 RMK CF1SF3SC4 BR SLP025

CYQF;2011-06-18 21:19;CYQF 182119Z 31020G30KT 3SM -RA BR FEW005 BKN010 OVC030 RMK CF1SF4SC3

CYQF;2011-06-18 22:00;CYQF 182200Z 31020G28KT 3SM -RA BR FEW005 OVC010 11/10 A2957 RMK CF2SC6 SLP025

CYQF;2011-06-18 23:00;CYQF 182300Z 30015G25KT 3SM -RA BR SCT005 OVC010 12/11 A2957 RMK SF4SC4 SLP025

CYQF;2011-06-18 23:20;CYQF 182320Z 30020G30KT 2 1/2SM RA BR OVC007 RMK SF8 CIG RAG

CYQF;2011-06-19 00:00;CYQF 190000Z 31015G25KT 2 1/2SM -RA BR OVC007 12/11 A2957 RERA RMK SF8 CIG RAG SLP027

CYQF;2011-06-19 00:44;CYQF 190044Z 33010G15KT 3SM -RA BR OVC006 RMK SF8 CIG RAG

CYQF;2011-06-19 01:00;CYQF 190100Z 33011G17KT 5SM -RA BR OVC006 12/12 A2959 RMK SF8 CIG RAG SLP031

CYQF;2011-06-19 01:39;CYQF 190139Z 32010G15KT 10SM VCSH OVC007 RMK SF8 CIG RAG

CYQF;2011-06-19 02:00;CYQF 190200Z 32011G16KT 12SM VCSH BKN008 OVC015 12/11 A2959 RMK SF6SC2 CIG RAG SLP032

CYQF;2011-06-19 03:00;CYQF 190300Z 32010G15KT 12SM BKN008 OVC015 12/11 A2961 RMK SF6SC2 SLP038

CYQF;2011-06-19 03:45;CYQF 190345Z 32010G15KT 15SM BKN009 BKN015 RMK SF6SC2

CYQF;2011-06-19 04:00;CYQF 190400Z 32011KT 15SM SCT009 BKN016 12/11 A2962 RMK SF4SC3 SLP043

CYQF;2011-06-19 05:00;CYQF 190500Z 30013KT 15SM SCT009 BKN015 11/10 A2963 RMK SF3SC3 SLP044

CYQF;2011-06-19 06:00;CYQF 190600Z 29010KT 15SM SCT015 OVC040 11/10 A2964 RMK SF3SC5 SLP050

CYQF;2011-06-19 06:23;CYQF 190623Z 30012KT 10SM -RA SCT015 OVC040 RMK SF3SC5

CYQF;2011-06-19 07:00;CYQF 190700Z 31012KT 10SM -RA SCT015 OVC040 11/10 A2964 RMK SF3SC5 SLP052

CYQF;2011-06-19 08:00;CYQF 190800Z 30008KT 10SM -RA SCT018 OVC040 11/10 A2965 RMK SF4SC4 SLP053

CYQF;2011-06-19 09:00;CYQF 190900Z 30010KT 10SM -RA SCT017 OVC050 11/11 A2964 RMK SF4SC4 RERA SLP050

CYQF;2011-06-19 10:00;CYQF 191000Z 30007KT 10SM -RA SCT017 OVC050 12/11 A2965 RMK SF4SC4 SLP051

CYQF;2011-06-19 10:40;CYQF 191040Z 32010KT 10SM -RA SCT008 OVC040 RMK SF3SC5

CYQF;2011-06-19 11:00;CYQF 191100Z 30008KT 5SM -RA BR SCT008 OVC040 11/11 A2965 RMK SF4SC4 SLP052

CYQF;2011-06-19 11:20;CYQF 191120Z 30010KT 5SM -RA BR BKN008 OVC040 RMK SF6SC2

CYQF;2011-06-19 12:00;CYQF 191200Z 32012KT 6SM -RA BR BKN009 OVC030 11/11 A2966 RMK SF6SC2 SLP054

CYQF;2011-06-19 13:00;CYQF 191300Z 30010KT 10SM -RA BKN009 OVC030 12/11 A2966 RMK SF6SC2 SLP057

CYQF;2011-06-19 14:00;CYQF 191400Z 31010KT 10SM BKN009 OVC030 12/11 A2967 RMK SF5SC3 SLP060

CYQF;2011-06-19 15:00;CYQF 191500Z 32010KT 12SM BKN009 OVC030 12/11 A2968 RMK SF6SC2 SLP063

CYQF;2011-06-19 16:00;CYQF 191600Z 31010KT 10SM -RA BKN009 OVC030 13/11 A2969 RMK SF5SC3 SLP066

CYQF;2011-06-19 17:00;CYQF 191700Z CCA 32012KT 12SM -RA BKN009 OVC030 13/11 A2970 RMK SF6SC2 CIG RAG SLP067

CYQF;2011-06-19 17:38;CYQF 191738Z 31015G20KT 15SM -RA BKN012 OVC030 RMK SF5SC3 CIG RAG

CYQF;2011-06-19 18:00;CYQF 191800Z 32012KT 15SM -RA BKN013 OVC030 14/10 A2969 RMK CU5SC3 SLP064

CYQF;2011-06-19 19:00;CYQF 191900Z 31010G15KT 15SM -SHRA BKN016 14/11 A2970 RMK CU6 SLP067

CYQF;2011-06-19 19:49;CYQF 191949Z 31010G15KT 15SM BKN020 RMK CU7 TCU ASOCTD

CYQF;2011-06-19 20:00;CYQF 192000Z 30010G15KT 15SM VCSH BKN017TCU BKN120 15/10 A2970 RMK TCU6AC1 SLP066

CYQF;2011-06-19 21:00;CYQF 192100Z 33010G15KT 15SM VCSH BKN020TCU BKN120 16/11 A2969 RMK TCU6AC1 SLP063

CYQF;2011-06-19 21:37;CYQF 192137Z 33012G18KT 15SM -SHRA FEW010 BKN015CB BKN120 RMK CF1CB6AC1

CYQF;2011-06-19 22:00;CYQF 192200Z CCA 33010G15KT 15SM -SHRA BKN022CB BKN100 17/12 A2970 RMK CB5AC2 SLP064

CYQF;2011-06-19 23:00;CYQF 192300Z 32011KT 15SM -SHRA BKN021CB BKN100 16/11 A2970 RMK CB6AC2 SLP066

CYQF;2011-06-20 00:00;CYQF 200000Z 32010G15KT 15SM VCSH BKN020CB BKN100 BKN250 16/11 A2970 RMK CB5AC1CI0 SLP066

CYQF;2011-06-20 01:00;CYQF 200100Z 33010G15KT 15SM FEW020CB SCT250 16/11 A2971 RMK CB2CI0 SLP069

CYQF;2011-06-20 02:00;CYQF 200200Z 33007KT 15SM FEW018CB FEW100 15/11 A2972 RMK CB1AC1 SLP072

CYQF;2011-06-20 03:00;CYQF 200300Z 31006KT 15SM FEW015TCU SCT100 BKN250 14/10 A2974 RMK TCU2AC1CI1 SLP079

CYQF;2011-06-20 04:00;CYQF 200400Z 32005KT 15SM FEW012TCU SCT100 BKN250 13/10 A2975 RMK TCU1AC2CI1 SLP082

CYQF;2011-06-20 05:00;CYQF 200500Z 30005KT 15SM FEW012 SCT040 BKN080 12/10 A2976 RMK CU1SC2AC1 SLP085

CYQF;2011-06-20 06:00;CYQF 200600Z 27005KT 15SM FEW012 FEW040 SCT080 12/10 A2976 RMK SC1SC2AC1 SLP086

CYQF;2011-06-20 07:00;CYQF 200700Z 28005KT 15SM FEW040 SCT080 12/11 A2976 RMK SC2AC2 SLP087

CYQF;2011-06-20 08:00;CYQF 200800Z 26004KT 15SM FEW040 SCT080 11/10 A2976 RMK SC2AC2 SLP088

CYQF;2011-06-20 09:00;CYQF 200900Z 27006KT 15SM FEW040 BKN090 11/10 A2976 RMK SC2AC2 SLP087

CYQF;2011-06-20 10:00;CYQF 201000Z 28008KT 15SM FEW020 BKN090 12/10 A2976 RMK SC2AC4 SLP086

CYQF;2011-06-20 10:42;CYQF 201042Z 28008KT 15SM BKN012 OVC080 RMK SC6AC2

CYQF;2011-06-20 11:00;CYQF 201100Z 27008KT 15SM OVC011 12/10 A2977 RMK SC8 SLP090

CYQF;2011-06-20 11:28;CYQF 201128Z 30006KT 15SM SCT011 BKN080 RMK SC3AC3

CYQF;2011-06-20 11:48;CYQF 201148Z 26006KT 15SM BKN010 BKN080 RMK SC5AC2

CYQF;2011-06-20 12:00;CYQF 201200Z 27006KT 15SM BKN010 BKN080 12/11 A2977 RMK SC6AC1 SLP090

CYQF;2011-06-20 12:39;CYQF 201239Z 28010KT 15SM BKN015 OVC080 RMK SC6AC2

CYQF;2011-06-20 13:00;CYQF 201300Z 30008KT 15SM BKN013 BKN080 12/11 A2978 RMK SC6AC1 SLP092

CYQF;2011-06-20 14:00;CYQF 201400Z 30010KT 15SM SCT010 BKN080 14/11 A2979 RMK SC3AC2 TCU ASOCTD SLP095

CYQF;2011-06-20 14:20;CYQF 201420Z 30013KT 15SM BKN012 BKN080 RMK SC6AC1 TCU ASOCTD

CYQF;2011-06-20 15:00;CYQF 201500Z 29013KT 15SM SCT012 BKN080 14/11 A2980 RMK SC3AC2 TCU ASOCTD SLP099

CYQF;2011-06-20 16:00;CYQF 201600Z 30012KT 15SM BKN016 BKN080 14/10 A2981 RMK SC5AC2 TCU ASOCTD SLP103

CYQF;2011-06-20 17:00;CYQF 201700Z 31013KT 15SM SCT018TCU BKN080 14/10 A2982 RMK TCU4AC2 SLP106

CYQF;2011-06-20 18:00;CYQF 201800Z 30012G20KT 15SM SCT025 16/11 A2982 RMK CU4 SLP105

CYQF;2011-06-20 19:00;CYQF 201900Z 30012G18KT 15SM BKN025 16/10 A2982 RMK CU6 SLP106

CYQF;2011-06-20 20:00;CYQF 202000Z 30010G15KT 15SM BKN028 17/10 A2982 RMK CU5 CB DSTNT W SLP106

CYQF;2011-06-20 21:00;CYQF 202100Z 32010G15KT 15SM BKN030 18/10 A2982 RMK CU5 CB TOP W SLP106

CYQF;2011-06-20 22:00;CYQF 202200Z 30012KT 15SM BKN036 BKN100 19/10 A2983 RMK CU5AC1 SLP107

CYQF;2011-06-20 23:00;CYQF 202300Z 32010G15KT 15SM BKN036 BKN210 19/09 A2982 RMK CU5CI1 SLP106

CYQF;2011-06-21 00:00;CYQF 210000Z 30015G25KT 15SM BKN035TCU BKN100 17/09 A2984 RMK TCU6AC1 SHS N+S SLP110

CYQF;2011-06-21 01:00;CYQF 210100Z 33010G15KT 15SM FEW030TCU BKN060 17/09 A2984 RMK TCU2SC2 CB ASOCTD S+NE SLP110

CYQF;2011-06-21 02:00;CYQF 210200Z 27005KT 15SM BKN030 BKN100 16/09 A2985 RMK SC6AC2 TCU ASOCTD SLP114

CYQF;2011-06-21 03:00;CYQF 210300Z 24005KT 15SM FEW020CB BKN100 BKN250 15/10 A2987 RMK CB2AC3CI1 SLP121

CYQF;2011-06-21 04:00;CYQF 210400Z 23005KT 15SM FEW020 SCT100 13/11 A2987 RMK SC2AC2 SLP123

CYQF;2011-06-21 05:00;CYQF 210500Z 20003KT 15SM FEW040 11/10 A2987 RMK SC2 SLP122

CYQF;2011-06-21 06:00;CYQF 210600Z 25006KT 15SM FEW040 11/10 A2988 RMK SC1 SLP128

CYQF;2011-06-21 07:00;CYQF 210700Z 00000KT 15SM FEW040 10/09 A2989 RMK SC2 SLP130

CYQF;2011-06-21 08:00;CYQF 210800Z 18003KT 15SM FEW040 10/09 A2989 RMK SC1 SLP130

CYQF;2011-06-21 09:00;CYQF 210900Z 00000KT 15SM FEW040 10/09 A2988 RMK SC2 SLP129

CYQF;2011-06-21 10:00;CYQF 211000Z 22004KT 15SM FEW040 09/08 A2990 RMK SC2 SLP133

CYQF;2011-06-21 11:00;CYQF 211100Z 22002KT 15SM FEW040 FEW250 08/07 A2991 RMK SC2CI0 MIFG SLP136

CYQF;2011-06-21 12:00;CYQF 211200Z 00000KT 15SM FEW040 FEW250 09/09 A2992 RMK SC2CI0 MIFG TCU NW SLP141

CYQF;2011-06-21 13:00;CYQF 211300Z 00000KT 15SM FEW040 10/09 A2993 RMK SC2 CB N SLP146

CYQF;2011-06-21 14:00;CYQF 211400Z 00000KT 15SM FEW040 SCT100 13/11 A2995 RMK SC2AC2 TCU N SLP150

CYQF;2011-06-21 15:00;CYQF 211500Z 03004KT 15SM FEW025 FEW100 SCT250 15/10 A2995 RMK CU1AC2CI0 TCU N SLP147

CYQF;2011-06-21 16:00;CYQF 211600Z 06002KT 15SM FEW025 FEW100 SCT250 17/11 A2995 RMK CU1AC1CI0 TCU N SLP149

CYQF;2011-06-21 17:00;CYQF 211700Z 06003KT 15SM FEW028 FEW100 SCT260 19/11 A2995 RMK CU2AC1CI0 TCU/CB DIST N SLP148

CYQF;2011-06-21 18:00;CYQF 211800Z 00000KT 15SM BKN035 BKN100 19/10 A2995 RMK CU6AC1 TCU N SLP148

CYQF;2011-06-21 19:00;CYQF 211900Z 07005KT 15SM BKN035TCU 19/11 A2995 RMK TCU6 SLP148

CYQF;2011-06-21 19:25;CYQF 211925Z 13005KT 15SM TS BKN035CB RMK CB5 SHS LTGCG E

CYQF;2011-06-21 19:44;CYQF 211944Z 13006KT 15SM BKN040TCU RMK TCU6 CB SHS E

CYQF;2011-06-21 20:00;CYQF 212000Z 10009KT 15SM BKN040TCU 20/11 A2994 RETS RMK TCU5 CB SHS E SLP146

CYQF;2011-06-21 21:00;CYQF 212100Z 10006KT 15SM SCT030TCU SCT100 20/13 A2993 RMK TCU3AC1 SLP143

CYQF;2011-06-21 22:00;CYQF 212200Z 12010KT 15SM VCSH SCT035CB SCT100 BKN250 21/11 A2992 RMK CB3AC1CI0 HAIL RPTD AT SYLVAN LAKE SLP139

CYQF;2011-06-21 22:21;CYQF 212221Z 08011KT 15SM TS VCSH BKN035CB BKN100 BKN260 RMK CB5AC1CI1 CB/SH N QUAD

CYQF;2011-06-21 22:44;CYQF 212244Z 05007KT 15SM -TSRA BKN036CB BKN110 BKN270 RMK CB6AC1CI1 LTGCG N

CYQF;2011-06-21 23:00;CYQF 212300Z 36010G20KT 15SM -TSRA BKN040CB BKN110 20/11 A2994 RMK CB6AC2 SLP146

CYQF;2011-06-21 23:37;CYQF 212337Z 05010G15KT 15SM TS VCSH SCT040CB SCT110 RMK CB3AC1

CYQF;2011-06-22 00:00;CYQF 220000Z 06007KT 15SM VCSH FEW040CB SCT150 19/10 A2994 RETS RMK CB2AC2 SLP146

CYQF;2011-06-22 01:00;CYQF 220100Z 08010KT 15SM FEW035CB SCT150 19/10 A2993 RMK CB2AC1 SLP143

CYQF;2011-06-22 02:00;CYQF 220200Z 06007KT 15SM SCT030CB BKN150 17/09 A2994 RMK CB3AC1 VIRGA SLP148

CYQF;2011-06-22 03:00;CYQF 220300Z 06003KT 15SM SCT040TCU BKN120 16/10 A2995 RMK TCU3AC1 VIRGA SLP147

CYQF;2011-06-22 04:00;CYQF 220400Z 12002KT 15SM FEW040TCU SCT120 SCT250 15/10 A2995 RMK TCU2AC1CI0 VIRGA SLP147

CYQF;2011-06-22 04:28;CYQF 220428Z 00000KT 15SM TS FEW040CB SCT120 RMK CB2AC2 VIRGA

CYQF;2011-06-22 05:00;CYQF 220500Z 12003KT 15SM TS FEW040CB SCT120 13/10 A2995 RMK CB2AC2 VIRGA LTGCG W+E SLP148

CYQF;2011-06-22 05:44;CYQF 220544Z 27010KT 15SM -TSRA BKN060CB RMK CB6 LTGICCG

CYQF;2011-06-22 06:00;CYQF 220600Z 29010KT 15SM -TSRA BKN060CB 15/11 A3000 RMK CB6 LTGICCG SLP161

CYQF;2011-06-22 07:00;CYQF 220700Z 23020KT 15SM -TSRA BKN060CB 13/10 A2996 RMK CB6 LTGCG E SLP151

CYQF;2011-06-22 07:42;CYQF 220742Z 12008KT 15SM -SHRA BKN060 RMK SC5 LTGCG E CB ASOCTD

CYQF;2011-06-22 08:00;CYQF 220800Z CCA 00000KT 15SM -SHRA BKN060 13/09 A2997 RMK SC5 CB ASOCTD SLP152

CYQF;2011-06-22 08:41;CYQF 220841Z 20002KT 15SM SCT060 RMK SC3

CYQF;2011-06-22 09:00;CYQF 220900Z 18003KT 15SM SCT060 12/09 A2997 RMK SC3 SLP153

CYQF;2011-06-22 10:00;CYQF 221000Z 24003KT 15SM FEW060 SCT250 10/09 A2997 RMK SC2CI0 SLP154

CYQF;2011-06-22 11:00;CYQF 221100Z 26006KT 15SM FEW060 FEW250 09/08 A2998 RMK SC2CI0 SLP157

CYQF;2011-06-22 12:00;CYQF 221200Z 25006KT 15SM FEW060 FEW250 10/08 A2998 RMK SC1CI0 SLP160

CYQF;2011-06-22 13:00;CYQF 221300Z 23005KT 15SM FEW060 11/09 A2998 RMK SC1 SLP161

CYQF;2011-06-22 14:00;CYQF 221400Z 19004KT 15SM FEW060 13/09 A2998 RMK SC1 SLP160

CYQF;2011-06-22 15:00;CYQF 221500Z 16004KT 15SM SKC 15/10 A2997 RMK SLP156

CYQF;2011-06-22 16:00;CYQF 221600Z 20005KT 15SM FEW025 17/11 A2996 RMK CF1 SLP153

CYQF;2011-06-22 17:00;CYQF 221700Z 17006KT 15SM FEW035 FEW250 19/10 A2995 RMK CU1CI0 SLP150

CYQF;2011-06-22 18:00;CYQF 221800Z 10006KT 15SM FEW035 FEW250 20/11 A2995 RMK CU1CI0 SLP143

CYQF;2011-06-22 19:00;CYQF 221900Z 10005KT 15SM FEW040 21/11 A2994 RMK CU1 SLP140

CYQF;2011-06-22 20:00;CYQF 222000Z 14008KT 15SM FEW045 22/10 A2993 RMK CU1 SLP136

CYQF;2011-06-22 21:00;CYQF 222100Z 14007KT 15SM FEW045 FEW250 22/10 A2992 RMK CU2CI0 SLP133

CYQF;2011-06-22 22:00;CYQF 222200Z 12004KT 15SM FEW050 FEW250 23/10 A2990 RMK CU2CI0 SLP129

CYQF;2011-06-22 23:00;CYQF 222300Z 13010KT 15SM FEW050 FEW250 23/10 A2989 RMK CU1CI0 SLP125

CYQF;2011-06-23 00:00;CYQF 230000Z 13008KT 15SM FEW060TCU FEW250 24/08 A2987 RMK TCU1CI1 SLP119

CYQF;2011-06-23 01:00;CYQF 230100Z 14007KT 15SM FEW060TCU FEW250 24/09 A2986 RMK TCU1CI0 SLP114

CYQF;2011-06-23 02:00;CYQF 230200Z 14006KT 15SM FEW060TCU FEW250 23/09 A2985 RMK TCU1CI0 SLP111

CYQF;2011-06-23 03:00;CYQF 230300Z 12003KT 15SM FEW060 FEW250 21/11 A2985 RMK CU1CI1 SLP105

CYQF;2011-06-23 05:00;CYQF 230500Z 10005KT 15SM FEW050 FEW250 17/10 A2984 RMK CU1CI1 SLP102

CYQF;2011-06-23 06:00;CYQF 230600Z 12002KT 15SM FEW250 16/11 A2983 RMK CI1 SLP099

CYQF;2011-06-23 07:00;CYQF 230700Z 15003KT 15SM FEW250 15/12 A2982 RMK CI1 SLP096

CYQF;2011-06-23 08:00;CYQF 230800Z 00000KT 15SM SKC 13/11 A2981 RMK SLP095

CYQF;2011-06-23 09:00;CYQF 230900Z 14002KT 15SM FEW250 14/12 A2980 RMK CI0 SLP091

CYQF;2011-06-23 10:00;CYQF 231000Z 16002KT 15SM FEW100 FEW250 13/11 A2979 RMK AC1CI0 SLP087

CYQF;2011-06-23 11:00;CYQF 231100Z 05002KT 15SM FEW100 FEW250 12/11 A2977 RMK AC1CI0 SLP081

CYQF;2011-06-23 12:00;CYQF 231200Z 09002KT 15SM SCT100 SCT260 13/11 A2976 RMK AC1CI1 SLP078

CYQF;2011-06-23 13:00;CYQF 231300Z 00000KT 15SM FEW100 SCT260 14/11 A2975 RMK AC1CI1 SLP074

CYQF;2011-06-23 14:00;CYQF 231400Z 13007KT 15SM FEW070 FEW100 SCT260 17/12 A2974 RMK ACC1AC1CI1 SLP069

CYQF;2011-06-23 15:00;CYQF 231500Z 13007KT 15SM FEW070 FEW100 BKN260 20/11 A2972 RMK ACC1AC1CI3 SLP056

CYQF;2011-06-23 16:00;CYQF 231600Z 14007KT 15SM FEW100 BKN260 21/12 A2970 RMK AC1CI4 SLP052

CYQF;2011-06-23 17:00;CYQF 231700Z 14008KT 15SM FEW045 SCT100 BKN250 22/11 A2969 RMK CU1AC2CI2 TR CU SLP047

CYQF;2011-06-23 18:00;CYQF 231800Z 15006KT 15SM FEW042 FEW100 BKN250 23/12 A2968 RMK CU1AC2CI4 TR CU SLP045

CYQF;2011-06-23 19:00;CYQF 231900Z 14006KT 15SM FEW040TCU FEW100 BKN250 24/13 A2966 RMK TCU1AC1CI4 SLP041

CYQF;2011-06-23 20:00;CYQF 232000Z 13008KT 15SM FEW055TCU BKN250 25/11 A2966 RMK TCU2CI4 SLP038

CYQF;2011-06-23 21:00;CYQF 232100Z 14008KT 15SM TS VCSH FEW045CB BKN120 BKN250 23/12 A2965 RMK CB2AC2CI2 LTGCG CB SW SLP035

CYQF;2011-06-23 22:00;CYQF 232200Z 23020G30KT 15SM VCSH BKN035CB BKN100 17/10 A2965 RETS RMK CB6AC2 RETS PRES UNSTDY SLP036

CYQF;2011-06-23 22:07;CYQF 232207Z 27018G28KT 15SM -SHRA BKN035CB BKN100 RMK CB6AC2

CYQF;2011-06-23 22:28;CYQF 232228Z 25008G15KT 15SM BKN040TCU BKN100 BKN250 RMK TCU5AC2CI0 CB NW

CYQF;2011-06-23 23:00;CYQF 232300Z 33005KT 15SM SCT040 BKN100 BKN250 19/11 A2961 RMK CU4AC1CI1 TCU SHS N SLP025

CYQF;2011-06-24 00:00;CYQF 240000Z 00000KT 15SM FEW035TCU SCT100 BKN250 19/11 A2959 RMK TCU2ACC2CI2 SLP022

CYQF;2011-06-24 01:00;CYQF 240100Z 09007KT 15SM FEW040TCU BKN100 BKN250 22/12 A2960 RMK TCU2AC2CI1 SLP026

CYQF;2011-06-24 02:00;CYQF 240200Z 15003KT 15SM FEW040TCU FEW100 SCT250 21/13 A2958 RMK TCU2AC1CI0 CB TOP S SLP020

CYQF;2011-06-24 03:00;CYQF 240300Z 29020G30KT 15SM BKN040TCU BKN100 OVC250 17/06 A2962 RMK TCU5AC2CI1 SHS W SLP028

CYQF;2011-06-24 04:00;CYQF 240400Z 30010KT 15SM FEW035TCU BKN060 BKN100 BKN250 14/07 A2966 RMK TCU2SC2AC1CI0 SHS S-SW SLP040

CYQF;2011-06-24 05:00;CYQF 240500Z 31012G18KT 15SM -SHRA BKN060 BKN100 14/07 A2966 RMK SC5ACC2 SLP039

CYQF;2011-06-24 05:26;CYQF 240526Z 30010G15KT 15SM BKN060 RMK SC6 SHS NE

CYQF;2011-06-24 06:00;CYQF 240600Z 31010KT 15SM SCT060 12/08 A2967 RMK SC4 SLP046

CYQF;2011-06-24 07:00;CYQF 240700Z 00000KT 15SM FEW060 09/07 A2971 RMK SC2 SLP058

CYQF;2011-06-24 08:00;CYQF 240800Z 29008KT 15SM FEW060 10/08 A2969 RMK SC1 SLP054

CYQF;2011-06-24 09:00;CYQF 240900Z 26005KT 15SM FEW060 09/07 A2970 RMK SC1 SLP061

CYQF;2011-06-24 10:00;CYQF 241000Z 20003KT 15SM FEW060 07/06 A2971 RMK SC1 SLP062

CYQF;2011-06-24 11:00;CYQF 241100Z 22005KT 15SM FEW060 07/07 A2971 RMK SC1 SLP063

CYQF;2011-06-24 12:00;CYQF 241200Z 23004KT 15SM FEW060 07/06 A2972 RMK SC1 SLP072

CYQF;2011-06-24 13:00;CYQF 241300Z 22005KT 15SM FEW060 09/08 A2972 RMK SC1 SLP074

CYQF;2011-06-24 14:00;CYQF 241400Z 23005KT 15SM FEW100 11/08 A2972 RMK AC1 SLP073

CYQF;2011-06-24 15:00;CYQF 241500Z 27004KT 15SM FEW100 13/08 A2972 RMK AC1 SLP069

CYQF;2011-06-24 16:00;CYQF 241600Z 00000KT 15SM FEW030 15/07 A2972 RMK CU1 SLP069

CYQF;2011-06-24 17:00;CYQF 241700Z 00000KT 15SM FEW030 16/07 A2971 RMK CU2 SLP066

CYQF;2011-06-24 18:00;CYQF 241800Z 00000KT 15SM FEW043TCU 17/06 A2970 RMK TCU2 SLP063

CYQF;2011-06-24 19:00;CYQF 241900Z 00000KT 15SM SCT044TCU 17/06 A2970 RMK TCU4 CB TP W SLP063

CYQF;2011-06-24 20:00;CYQF 242000Z 00000KT 15SM BKN055TCU 18/05 A2969 RMK TCU5 CB W SLP060

CYQF;2011-06-24 21:00;CYQF 242100Z 00000KT 15SM BKN055TCU 18/04 A2968 RMK TCU6 CB OCNL LTNG W SLP059

CYQF;2011-06-24 21:42;CYQF 242142Z 27010G15KT 15SM -SHRA BKN050CB RMK CB6 LTGCG W

CYQF;2011-06-24 22:00;CYQF 242200Z 28015G20KT 15SM -TSRA BKN050CB BKN250 15/06 A2969 RMK CB6CI0 LTGCG 3 N SLP062

CYQF;2011-06-24 22:36;CYQF 242236Z 31007KT 15SM TS BKN040CB BKN250 RMK CB6CI1 VIRGA

CYQF;2011-06-24 23:00;CYQF 242300Z 18005KT 15SM -TSRA BKN040CB BKN250 15/06 A2972 RMK CB6CI1 SLP070

CYQF;2011-06-24 23:32;CYQF 242332Z 02004KT 15SM -SHRA BKN030CB BKN250 RETS RMK CB5CI2

CYQF;2011-06-25 00:00;CYQF 250000Z 03010KT 15SM FEW015 BKN035CB BKN250 15/06 A2968 RETS RMK CF1CB5CI2 VIRGA SLP066

CYQF;2011-06-25 01:00;CYQF 250100Z 03010KT 15SM BKN040CB BKN250 14/07 A2971 RMK CB5CI1 VIRGA SLP073

CYQF;2011-06-25 02:00;CYQF 250200Z 03005KT 15SM VCSH BKN020CB BKN060 OVC250 12/09 A2973 RMK CB5SC2CI2 LTNG S SLP081

CYQF;2011-06-25 03:00;CYQF 250300Z 01004KT 15SM -SHRA SCT020TCU BKN060 OVC250 11/09 A2976 RMK TCU3SC4CI1 SLP088

CYQF;2011-06-25 03:39;CYQF 250339Z 30003KT 15SM VCSH SCT020TCU OVC050 RMK TCU3SC5

CYQF;2011-06-25 04:00;CYQF 250400Z 32004KT 15SM VCSH SCT020CB OVC050 11/09 A2978 RMK CB4SC4 LTNG S SLP095

CYQF;2011-06-25 04:02;CYQF 250402Z 29008KT 15SM TS VCSH SCT020CB OVC050 RMK CB4SC4 LTNG S

CYQF;2011-06-25 04:08;CYQF 250408Z 27006KT 10SM -TSRA BKN020CB OVC040 RMK CB6SC2

CYQF;2011-06-25 04:43;CYQF 250443Z 00000KT 5SM SHRA BR OVC020 RETS RMK SC8 CB ASOCTD

CYQF;2011-06-25 05:00;CYQF 250500Z 17005KT 5SM SHRA BR OVC030 09/08 A2978 RETS RMK SC8 CB ASOCTD SLP097

CYQF;2011-06-25 05:30;CYQF 250530Z CCA 17005KT 10SM -RA BKN030 OVC050 RERA RMK SC6SC2

CYQF;2011-06-25 06:00;CYQF 250600Z 18004KT 8SM -RA BKN030 OVC050 09/08 A2978 RERA RMK SC6SC2 SLP094

CYQF;2011-06-25 07:00;CYQF 250700Z 24003KT 12SM -RA OVC040 08/08 A2978 RMK SC8 SLP095

CYQF;2011-06-25 08:00;CYQF 250800Z 20003KT 10SM -RA OVC040 09/08 A2976 RMK SC8 SLP088

CYQF;2011-06-25 09:00;CYQF 250900Z 00000KT 12SM OVC040 09/08 A2976 RMK SC8 OCNL -RA SLP087

CYQF;2011-06-25 09:22;CYQF 250922Z 00000KT 15SM OVC040 RMK SC8

CYQF;2011-06-25 10:00;CYQF 251000Z 00000KT 12SM -RA BKN040 09/08 A2976 RMK SC7 SLP085

CYQF;2011-06-25 11:00;CYQF 251100Z 00000KT 15SM FEW010 BKN040 09/08 A2975 RMK SF2SC6 OCNL -RA SLP083

CYQF;2011-06-25 11:16;CYQF 251116Z 05004KT 15SM FEW010 BKN040 RMK SF1SC6

CYQF;2011-06-25 12:00;CYQF 251200Z 08003KT 15SM FEW010 FEW080 BKN090 09/07 A2974 RMK CF1ACC1AS6 SLP084

CYQF;2011-06-25 12:14;CYQF 251214Z 00000KT 15SM -RA FEW010 FEW080 BKN090 RMK CF1ACC1AS6

CYQF;2011-06-25 13:00;CYQF 251300Z 12002KT 15SM -RA FEW010 FEW080 BKN090 09/08 A2974 RMK CF1ACC1AS6 SLP084

CYQF;2011-06-25 13:36;CYQF 251336Z 17007KT 15SM FEW010 BKN090 RMK CF1AS6

CYQF;2011-06-25 14:00;CYQF 251400Z 17008KT 15SM FEW010 BKN090 09/08 A2974 RMK CF1AC6 SLP083

CYQF;2011-06-25 15:00;CYQF 251500Z 21007KT 15SM FEW010 BKN090 10/08 A2974 RMK CF1AC6 SLP085

CYQF;2011-06-25 16:00;CYQF 251600Z 23010KT 15SM FEW012 BKN090 BKN250 11/08 A2973 RMK CU1AC6CI1 SLP084

CYQF;2011-06-25 17:00;CYQF 251700Z 22010KT 15SM FEW016 BKN090 BKN250 12/08 A2973 RMK CU1AC6CI1 SLP084

CYQF;2011-06-25 18:00;CYQF 251800Z 24008KT 15SM FEW030 SCT100 BKN250 14/06 A2972 RMK CU2AC2CI1 CS ASOCTD TCU N SLP078

CYQF;2011-06-25 19:00;CYQF 251900Z 26003KT 15SM FEW036 BKN250 15/06 A2971 RMK CU2CI3 SLP073

CYQF;2011-06-25 20:00;CYQF 252000Z 32006KT 15SM SCT044 BKN250 16/05 A2970 RMK CU3CI2 TCU ASOCTD SLP072

CYQF;2011-06-25 21:00;CYQF 252100Z 22010KT 15SM SCT045 OVC250 17/05 A2970 RMK CU3CI2 TCU ASOCTD SLP066

CYQF;2011-06-25 22:00;CYQF 252200Z 22005KT 15SM SCT050TCU OVC250 17/05 A2969 RMK TCU3CI2 SHS SE+N SLP064

CYQF;2011-06-25 23:00;CYQF 252300Z 33008KT 15SM VCSH BKN040TCU BKN100 OVC250 17/06 A2970 RMK TCU5AC2CI1 CB W SLP066

CYQF;2011-06-26 00:00;CYQF 260000Z 20007KT 15SM VCSH SCT040TCU BKN080 OVC250 13/08 A2970 RMK TCU3AC2CI2 CB SE+NW SLP071

CYQF;2011-06-26 01:00;CYQF 260100Z 34005KT 15SM FEW040TCU BKN080 OVC250 14/07 A2971 RMK TCU2AC4CI2 SLP073

CYQF;2011-06-26 02:00;CYQF 260200Z 33004KT 15SM FEW040 BKN080 OVC250 14/07 A2971 RMK SC2AC2CI3 SLP074

CYQF;2011-06-26 03:00;CYQF 260300Z 33010G15KT 15SM FEW040 BKN080 OVC250 12/07 A2974 RMK SC2AC5CI2 SLP085

CYQF;2011-06-26 04:00;CYQF 260400Z 31010G15KT 15SM VCSH FEW040 OVC080 11/07 A2975 RMK SC2AC6 SLP088

CYQF;2011-06-26 04:52;CYQF 260452Z 28010KT 15SM FEW008 BKN040 OVC080 RMK SF2SC3AC3

CYQF;2011-06-26 05:00;CYQF 260500Z 28006KT 15SM FEW008 BKN040 OVC080 11/07 A2975 RMK SF2SC3AC3 SLP088

CYQF;2011-06-26 06:00;CYQF 260600Z 28012G20KT 15SM FEW008 OVC050 11/06 A2973 RMK SF1SC8 SLP079

CYQF;2011-06-26 06:06;CYQF 260606Z 29022G32KT 12SM -SHRA OVC050 RMK SC8

CYQF;2011-06-26 06:49;CYQF 260649Z 28015G25KT 10SM -SHRA FEW007 OVC030 RMK SF2SC6

CYQF;2011-06-26 07:00;CYQF 260700Z 28015G25KT 10SM -SHRA FEW007 OVC030 09/07 A2972 RMK SF2SC6 SLP074

CYQF;2011-06-26 08:00;CYQF 260800Z 28012G17KT 10SM -SHRA FEW007 OVC030 09/08 A2971 RMK SF2SC6 SLP071

CYQF;2011-06-26 09:00;CYQF 260900Z 28010G15KT 6SM -SHRA BR FEW006 OVC020 09/08 A2970 RERA RMK SF2SC6 SLP067

CYQF;2011-06-26 10:00;CYQF 261000Z 29015G25KT 10SM SHRA OVC020 09/08 A2969 RMK SC8 SLP064

CYQF;2011-06-26 10:44;CYQF 261044Z 30013G19KT 4SM RA BR BKN006 OVC020 RMK SF6SC2

CYQF;2011-06-26 11:00;CYQF 261100Z 30015G20KT 6SM -RA BR OVC006 10/09 A2970 RERA RMK SF8 CIG RAG SLP068

CYQF;2011-06-26 12:00;CYQF 261200Z 01008KT 3SM RA BR OVC004 11/10 A2974 RMK SF8 CIG RAG SLP083

CYQF;2011-06-26 12:22;CYQF 261222Z 35006KT 2SM -SHRA PRFG BKN004 RERA RMK SF7

CYQF;2011-06-26 12:31;CYQF 261231Z 35007KT 5SM -SHRA BR BKN004 RERA RMK SF7 CIG RAG

CYQF;2011-06-26 13:00;CYQF 261300Z 35008KT 6SM -SHRA BR BKN008 11/10 A2977 RMK SF7 HVY SH S SLP094

CYQF;2011-06-26 13:47;CYQF 261347Z 34012KT 15SM SCT007 BKN012 RMK SF3SC4 TCU ASOCTD

CYQF;2011-06-26 14:00;CYQF 261400Z 34008KT 15SM FEW007 BKN012 BKN030 12/10 A2980 RMK SF2SC3SC2 TCU ASOCTD SLP103

CYQF;2011-06-26 15:00;CYQF 261500Z 33010G15KT 15SM SCT007 BKN012 13/10 A2983 RMK SF3SC4 SLP113

CYQF;2011-06-26 16:00;CYQF 261600Z 34010G20KT 15SM FEW007 BKN015 14/11 A2985 RMK SF2SC4 TCU ASOCTD SLP120

CYQF;2011-06-26 17:00;CYQF 261700Z 32010G20KT 15SM BKN018 15/11 A2987 RMK SC7 SLP126

CYQF;2011-06-26 18:00;CYQF 261800Z 33015G20KT 15SM BKN020 BKN250 16/11 A2989 RMK CU6CI1 SLP133

CYQF;2011-06-26 19:00;CYQF 261900Z 32012G18KT 10SM BKN025 BKN250 17/10 A2990 RMK CU5CI2 FU SLP136

CYQF;2011-06-26 20:00;CYQF 262000Z 31008KT 8SM SCT025TCU BKN250 17/11 A2991 RMK TCU4CI2 HZ SH SW SLP138

CYQF;2011-06-26 21:00;CYQF 262100Z 36020G30KT 8SM TS VCSH BKN030CB BKN090 18/11 A2993 RMK CB5AC2 FU/HZ PRESRR SLP145

CYQF;2011-06-26 21:09;CYQF 262109Z 33015G25KT 8SM -TSRAGR BKN030CB BKN090 OVC250 RMK CB5AC2CI1 LTGCG FU HAIL DIAM 4MM

CYQF;2011-06-26 21:37;CYQF 262137Z 31005KT 10SM TS VCSH SCT030CB BKN090 RMK CB4AC1

CYQF;2011-06-26 21:55;CYQF 262155Z 29010KT 10SM VCSH SCT030CB RETS RMK CB3

CYQF;2011-06-26 22:00;CYQF 262200Z 27006KT 10SM SCT030CB 16/10 A2994 RETS RMK CB3 SH SW SLP147

CYQF;2011-06-26 23:00;CYQF 262300Z 36006KT 10SM SCT035TCU 19/10 A2994 RMK TCU3 CB TOP NE+SW SLP149

CYQF;2011-06-27 00:00;CYQF 270000Z 34005KT 12SM SCT035TCU BKN250 20/10 A2995 RMK TCU3CI1 CB SHS SW SLP148

CYQF;2011-06-27 01:00;CYQF 270100Z 36005KT 12SM SCT035TCU BKN250 19/10 A2996 RMK TCU3CI0 SLP153

CYQF;2011-06-27 02:00;CYQF 270200Z 02004KT 12SM SCT035 BKN250 19/09 A2998 RMK CU3CI0 SLP158

CYQF;2011-06-27 03:00;CYQF 270300Z 00000KT 12SM FEW030 SCT250 16/12 A2999 RMK CU2CI0 TCU ASOCTD SLP164

CYQF;2011-06-27 04:00;CYQF 270400Z 00000KT 12SM FEW030 FEW250 15/11 A3001 RMK SC1CI0 SLP169

CYQF;2011-06-27 05:00;CYQF 270500Z 12003KT 12SM FEW030 FEW250 13/11 A3000 RMK SC1CI0 SLP168

CYQF;2011-06-27 06:00;CYQF 270600Z 18005KT 12SM FEW030 FEW250 11/10 A3001 RMK SC1CI0 SLP173

CYQF;2011-06-27 07:00;CYQF 270700Z 18005KT 15SM FEW250 11/10 A3001 RMK CI0 SLP172

CYQF;2011-06-27 08:00;CYQF 270800Z 19004KT 15SM FEW250 10/09 A3000 RMK CI0 SLP171

CYQF;2011-06-27 09:00;CYQF 270900Z 17004KT 15SM FEW250 09/09 A2999 RMK CI0 SLP165

CYQF;2011-06-27 10:00;CYQF 271000Z 17004KT 15SM FEW250 09/08 A2998 RMK CI0 SLP161

CYQF;2011-06-27 11:00;CYQF 271100Z 15002KT 10SM SCT250 09/08 A2997 RMK CI1 MIFG SLP159

CYQF;2011-06-27 12:00;CYQF 271200Z 15004KT 10SM SCT250 09/08 A2996 RMK CI1 FU MIFG SLP154

CYQF;2011-06-27 13:00;CYQF 271300Z 16005KT 8SM SKC 10/08 A2995 RMK FU SLP151

CYQF;2011-06-27 14:00;CYQF 271400Z 13004KT 6SM FU SKC 12/09 A2994 RMK SLP147

CYQF;2011-06-27 15:00;CYQF 271500Z 15007KT 8SM SKC 15/10 A2992 RMK FU SLP138

CYQF;2011-06-27 16:00;CYQF 271600Z 19007KT 8SM SKC 17/11 A2991 RMK SLP134

CYQF;2011-06-27 17:00;CYQF 271700Z 20006KT 8SM SKC 18/11 A2990 RMK FU SLP131

CYQF;2011-06-27 18:00;CYQF 271800Z 22003KT 8SM FEW035TCU FEW250 20/12 A2989 RMK TCU1CI0 FU SLP126

CYQF;2011-06-27 19:00;CYQF 271900Z 00000KT 10SM FEW045TCU BKN250 22/11 A2988 RMK TCU2CI0 FU SLP122

CYQF;2011-06-27 20:00;CYQF 272000Z 00000KT 10SM FEW050TCU BKN250 22/08 A2986 RMK TCU2CI0 SLP117

CYQF;2011-06-27 21:00;CYQF 272100Z 18003KT 10SM SCT055TCU BKN250 23/09 A2985 RMK TCU3CI1 SLP111

CYQF;2011-06-27 22:00;CYQF 272200Z CCA 16010KT 10SM FEW065TCU BKN250 23/07 A2983 RMK TCU2CI2 SLP105

CYQF;2011-06-27 23:00;CYQF 272300Z 17008KT 10SM FEW065 BKN250 24/07 A2982 RMK CU2CI2 SLP101

CYQF;2011-06-28 00:00;CYQF 280000Z 19005KT 10SM FEW065 BKN250 23/08 A2980 RMK CU1CI3 SLP095

CYQF;2011-06-28 01:00;CYQF 280100Z 17005KT 10SM FEW035 FEW100 BKN250 20/12 A2980 RMK CU1AC2CI3 SLP094

CYQF;2011-06-28 02:00;CYQF 280200Z 15005KT 8SM FEW035 SCT100 BKN250 20/12 A2979 RMK CU1AC3CI2 SLP091

CYQF;2011-06-28 03:00;CYQF 280300Z 14004KT 8SM SCT100 BKN250 19/12 A2978 RMK AC3CI3 SLP085

CYQF;2011-06-28 04:00;CYQF 280400Z 00000KT 8SM SCT100 BKN250 18/12 A2977 RMK AC3CI2 SLP083

CYQF;2011-06-28 05:00;CYQF 280500Z 00000KT 10SM FEW100 BKN250 16/12 A2976 RMK AC2CI1 FU SLP080

CYQF;2011-06-28 06:00;CYQF 280600Z 00000KT 10SM FEW100 BKN250 15/12 A2974 RMK AC2CI2 SLP071

CYQF;2011-06-28 07:00;CYQF 280700Z 00000KT 10SM FEW100 BKN250 15/12 A2974 RMK AC2CI1 SLP069

CYQF;2011-06-28 08:00;CYQF 280800Z 00000KT 10SM FEW100 BKN250 14/12 A2973 RMK AC2CI1 FU SLP066

CYQF;2011-06-28 09:00;CYQF 280900Z CCA 36008KT 15SM FEW100 BKN250 13/11 A2974 RMK AC2CI1 FU SLP070

CYQF;2011-06-28 10:00;CYQF 281000Z 01005KT 15SM FEW100 SCT250 13/11 A2975 RMK AC2CI1 SLP071

CYQF;2011-06-28 11:00;CYQF 281100Z 34002KT 15SM FEW100 SCT250 11/09 A2974 RMK AC2CI1 SLP069

CYQF;2011-06-28 12:00;CYQF 281200Z 26004KT 15SM FEW100 SCT250 10/09 A2975 RMK AC2CI0 SLP075

CYQF;2011-06-28 13:00;CYQF 281300Z 26005KT 15SM FEW100 SCT250 11/10 A2974 RMK AC1CI1 SLP074

CYQF;2011-06-28 14:00;CYQF 281400Z 27005KT 15SM BKN250 14/11 A2974 RMK CI2 SLP073

CYQF;2011-06-28 15:00;CYQF 281500Z 26004KT 10SM BKN250 15/11 A2973 RMK CI2 SLP067

CYQF;2011-06-28 16:00;CYQF 281600Z 00000KT 10SM BKN250 17/12 A2971 RMK CI3 SLP061

CYQF;2011-06-28 17:00;CYQF 281700Z 00000KT 10SM BKN250 18/12 A2968 RMK CI3 SLP054

CYQF;2011-06-28 18:00;CYQF 281800Z 12003KT 10SM BKN250 20/13 A2965 RMK CI3 SLP040

CYQF;2011-06-28 19:00;CYQF 281900Z 12005KT 10SM FEW120 BKN250 22/13 A2964 RMK AC2CI2 SLP036

CYQF;2011-06-28 20:00;CYQF 282000Z 16005KT 10SM FEW040 FEW120 BKN250 23/12 A2962 RMK CU1AC1CI2 SLP030

CYQF;2011-06-28 21:00;CYQF 282100Z 16006KT 10SM FEW045 FEW120 BKN250 23/12 A2958 RMK CU1AC2CI2 SLP015

CYQF;2011-06-28 22:00;CYQF 282200Z 14008KT 10SM FEW040 BKN120 BKN250 22/13 A2957 RMK CU2AC3CI2 SLP011

CYQF;2011-06-28 23:00;CYQF 282300Z 12008KT 10SM FEW030 BKN120 BKN250 22/14 A2955 RMK CU2AC3CI1 SLP003

CYQF;2011-06-29 00:00;CYQF 290000Z 15010KT 15SM FEW035 BKN150 BKN250 22/15 A2952 RMK CU2AC3CI1 SLP998

CYQF;2011-06-29 01:00;CYQF 290100Z 17008KT 15SM FEW035 BKN150 BKN250 23/16 A2951 RMK CU2AC3CI1 SLP993

CYQF;2011-06-29 02:00;CYQF 290200Z 19010KT 15SM FEW040 SCT150 BKN250 23/15 A2950 RMK CU2AC2CI1 SLP990

CYQF;2011-06-29 03:00;CYQF 290300Z 18008KT 15SM FEW040 SCT150 BKN250 22/16 A2949 RMK CU1AC2CI2 SLP981

CYQF;2011-06-29 04:00;CYQF 290400Z 19010KT 15SM FEW050 SCT150 BKN250 20/15 A2948 RMK CU1AC2CI2 SLP978

CYQF;2011-06-29 05:00;CYQF 290500Z 22003KT 15SM FEW050 SCT150 BKN250 18/15 A2946 RMK SC1AC2CI1 SLP974

CYQF;2011-06-29 06:00;CYQF 290600Z 19006KT 15SM FEW050 FEW140 BKN250 16/14 A2946 RMK SC1AC2CI1 SLP971

CYQF;2011-06-29 07:00;CYQF 290700Z 22004KT 15SM FEW050 FEW140 SCT250 15/13 A2944 RMK SC1AC2CI0 SLP966

CYQF;2011-06-29 08:00;CYQF 290800Z 22003KT 15SM SCT140 BKN250 15/13 A2944 RMK AC3CI0 SLP967

CYQF;2011-06-29 09:00;CYQF 290900Z 21006KT 15SM SCT140 BKN250 16/14 A2944 RMK AC3CI2 SLP961

CYQF;2011-06-29 10:00;CYQF 291000Z 23007KT 15SM FEW050 BKN140 15/13 A2943 RMK SC2AC3 SLP958

CYQF;2011-06-29 11:00;CYQF 291100Z 27004KT 15SM FEW120 SCT250 14/10 A2944 RMK AC2CI1 SLP962

CYQF;2011-06-29 12:00;CYQF 291200Z 28006KT 15SM FEW050 FEW120 13/09 A2945 RMK SC1AC1 SLP971

CYQF;2011-06-29 13:00;CYQF 291300Z 09003KT 15SM FEW050 FEW120 17/09 A2947 RMK SC1AC1 SLP976

CYQF;2011-06-29 14:00;CYQF 291400Z 00000KT 15SM FEW050 FEW120 20/10 A2949 RMK CU2AC1 SLP984

CYQF;2011-06-29 15:00;CYQF 291500Z 06002KT 15SM FEW035 FEW120 20/11 A2949 RMK CU2AC1 SLP979

CYQF;2011-06-29 16:00;CYQF 291600Z 09003KT 15SM FEW038 FEW120 21/11 A2949 RMK CU1AC1 SLP978

CYQF;2011-06-29 17:00;CYQF 291700Z 11003KT 15SM FEW045 FEW120 22/10 A2948 RMK CU1AC1 SLP974

CYQF;2011-06-29 18:00;CYQF 291800Z 08005KT 15SM FEW045 FEW120 FEW250 23/13 A2946 RMK CU1AC1CI1 SLP968

CYQF;2011-06-29 19:00;CYQF 291900Z 15009KT 15SM FEW050 FEW120 FEW250 25/12 A2943 RMK CU2AC1CI1 TR AC SLP958

CYQF;2011-06-29 20:00;CYQF 292000Z 19010KT 15SM SCT065 SCT250 26/11 A2941 RMK CU3CI1 SLP954

CYQF;2011-06-29 21:00;CYQF 292100Z 19010G15KT 15SM BKN060TCU BKN250 26/10 A2940 RMK TCU5CI0 SLP946

CYQF;2011-06-29 22:00;CYQF 292200Z 21012G18KT 15SM SCT065TCU SCT250 26/10 A2939 RMK TCU3CI1 SLP942

CYQF;2011-06-29 23:00;CYQF 292300Z 20010KT 15SM FEW065 FEW250 26/10 A2938 RMK CU2CI1 SLP940

CYQF;2011-06-30 00:00;CYQF 300000Z 21010KT 15SM FEW060CB FEW250 26/11 A2937 RMK CB2CI0 SLP939

CYQF;2011-06-30 01:00;CYQF 300100Z 20010KT 15SM FEW060TCU SCT120 BKN250 25/11 A2937 RMK TCU2AC2CI1 SLP939

CYQF;2011-06-30 02:00;CYQF 300200Z 21010G15KT 15SM VCSH FEW050CB BKN100 BKN250 22/10 A2939 RMK CB2AC3CI1 SLP945

CYQF;2011-06-30 03:00;CYQF 300300Z 36012G19KT 15SM FEW040TCU BKN100 BKN250 17/13 A2943 RMK TCU2AC2CI1 VIRGA SLP961

CYQF;2011-06-30 04:00;CYQF 300400Z 34008KT 15SM FEW030 BKN090 BKN250 16/12 A2946 RMK CU2AC3CI1 SLP970

CYQF;2011-06-30 05:00;CYQF 300500Z 32008KT 15SM FEW030 BKN090 BKN250 16/12 A2947 RMK CU2AC4CI1 SLP975

CYQF;2011-06-30 06:00;CYQF 300600Z 33008KT 15SM FEW030 BKN090 BKN250 15/12 A2948 RMK CU2AC4CI1 TCU NW SLP979

CYQF;2011-06-30 07:00;CYQF 300700Z 30007KT 15SM FEW030 BKN090 15/12 A2952 RMK SC2AC5 SLP989

CYQF;2011-06-30 08:00;CYQF 300800Z 33013KT 15SM FEW030 SCT090 BKN250 13/10 A2955 RMK SC2AC2CI1 SLP999

CYQF;2011-06-30 09:00;CYQF 300900Z 28006KT 15SM FEW030 FEW090 SCT250 12/07 A2958 RMK SC2AC1CI1 SLP012

CYQF;2011-06-30 10:00;CYQF 301000Z 21004KT 15SM BKN080 BKN250 11/07 A2959 RMK AC5CI1 SLP017

CYQF;2011-06-30 11:00;CYQF 301100Z 22004KT 15SM BKN080 BKN250 10/07 A2962 RMK AC5CI1 SLP026

CYQF;2011-06-30 12:00;CYQF 301200Z 00000KT 15SM FEW080 SCT250 10/07 A2964 RMK AC2CI0 SLP036

CYQF;2011-06-30 13:00;CYQF 301300Z 25003KT 15SM FEW080 11/08 A2966 RMK AC2 ACC ASOCTD SLP041

CYQF;2011-06-30 14:00;CYQF 301400Z 33007KT 15SM FEW080 FEW250 13/05 A2968 RMK AC2CI1 SLP047

CYQF;2011-06-30 15:00;CYQF 301500Z 35010KT 15SM FEW035 FEW080 SCT250 15/05 A2969 RMK CU1AC2CI1 TR CU SLP057

CYQF;2011-06-30 16:00;CYQF 301600Z 36010KT 15SM FEW040 SCT080 BKN250 15/05 A2970 RMK CU1AC3CI1 SLP060

CYQF;2011-06-30 17:00;CYQF 301700Z 04004KT 15SM FEW044 BKN080 BKN250 15/04 A2970 RMK CU2ACC3CI1 SLP060

CYQF;2011-06-30 18:00;CYQF 301800Z 00000KT 15SM FEW045 BKN080 BKN250 16/04 A2970 RMK CU1AC4CI1 SLP060

CYQF;2011-06-30 19:00;CYQF 301900Z 10002KT 15SM FEW045 SCT080 BKN250 18/07 A2970 RMK CU1AC3CI1 SLP061

CYQF;2011-06-30 20:00;CYQF 302000Z 00000KT 15SM FEW052 BKN090 BKN250 18/05 A2971 RMK CU2AC3CI1 TCU ASOCTD SLP063

CYQF;2011-06-30 21:00;CYQF 302100Z 00000KT 15SM VCSH FEW052CB BKN080 BKN250 18/04 A2972 RMK CB2AC3CI1 CB/SH W QUAD SLP068

CYQF;2011-06-30 22:00;CYQF 302200Z 28014G24KT 15SM VCSH BKN045CB OVC090 17/06 A2974 RMK CB5AC2 LTGCG SW SLP075

CYQF;2011-06-30 22:10;CYQF 302210Z 30015G25KT 10SM -TSRA BKN040CB OVC090 RMK CB6AC2

CYQF;2011-06-30 22:39;CYQF 302239Z 23004KT 10SM -SHRA BKN040TCU OVC090 RMK TCU7AC1 RETS CB ASOCTD

CYQF;2011-06-30 23:00;CYQF 302300Z 27003KT 10SM -SHRA BKN040TCU OVC090 11/10 A2978 RMK TCU6AC2 RETS SLP089

CYQF;2011-06-30 23:40;CYQF 302340Z 09004KT 15SM BKN050 BKN090 RMK SC6AC2

CYQF;2011-07-01 01:00;CYQF 010100Z 01002KT 15SM FEW020 BKN060 BKN100 13/09 A2976 RMK SC1SC4AC2 TCU ASOCTD SLP093

CYQF;2011-07-01 02:00;CYQF 010200Z 00000KT 15SM VCSH FEW020 BKN050 BKN100 13/08 A2979 RMK SC2SC3AC2 SLP102

CYQF;2011-07-01 03:00;CYQF 010300Z 31012G19KT 15SM -SHRA FEW020 BKN050 BKN100 11/08 A2983 RMK SC2SC5AC1 SLP113

CYQF;2011-07-01 03:48;CYQF 010348Z 36007KT 15SM FEW020 BKN050 BKN100 RMK SC2SC3AC2 CB SW

CYQF;2011-07-01 04:00;CYQF 010400Z 36005KT 15SM FEW020 BKN050 BKN100 10/08 A2984 RMK SC2SC3AC2 CB SW SLP114

CYQF;2011-07-01 04:52;CYQF 010452Z 17005KT 15SM -SHRA FEW020 BKN050 RMK SC2SC5

CYQF;2011-07-01 05:00;CYQF 010500Z 20005KT 15SM -SHRA FEW020 OVC050 10/08 A2985 RMK SC2SC6 SLP117

CYQF;2011-07-01 05:41;CYQF 010541Z 00000KT 15SM FEW020 BKN050 RMK SC2SC4

CYQF;2011-07-01 06:00;CYQF 010600Z 21002KT 15SM FEW020 BKN050 09/08 A2985 RMK SC2SC4 SLP121

CYQF;2011-07-01 07:00;CYQF 010700Z 25005KT 15SM FEW020 SCT050 08/07 A2985 RMK SC1SC3 SLP121

CYQF;2011-07-01 08:00;CYQF 010800Z 24004KT 15SM SCT050 BKN090 BKN250 09/08 A2986 RMK SC3AC2CI0 SLP123

CYQF;2011-07-01 09:00;CYQF 010900Z 20002KT 15SM FEW050 BKN090 BKN250 09/08 A2986 RMK SC2AC2CI2 SLP123

CYQF;2011-07-01 10:00;CYQF 011000Z 32008KT 15SM BKN050 BKN090 10/08 A2989 RMK SC5AC2 SLP130

CYQF;2011-07-01 10:25;CYQF 011025Z 35006KT 15SM -RA BKN050 BKN090 RMK SC6AC2

CYQF;2011-07-01 11:00;CYQF 011100Z 32002KT 15SM BKN050 BKN100 10/08 A2991 RMK SC5AC2 SLP137

CYQF;2011-07-01 11:38;CYQF 011138Z 34004KT 15SM SCT050 BKN100 BKN250 RMK SC3AC2CI2 LTGCG DIST SE

CYQF;2011-07-01 12:00;CYQF 011200Z 34002KT 15SM SCT050 BKN100 BKN250 09/07 A2992 RMK SC3AC2CI1 HVY SH DIST E SLP148

CYQF;2011-07-01 13:00;CYQF 011300Z 00000KT 15SM FEW050 FEW100 SCT250 08/07 A2995 RMK SC2AC1CI0 SLP156

CYQF;2011-07-01 14:00;CYQF 011400Z 20004KT 15SM FEW050 FEW100 FEW250 10/07 A2997 RMK SC2AC1CI1 SLP163

CYQF;2011-07-01 15:00;CYQF 011500Z 00000KT 15SM FEW018 FEW100 12/07 A2998 RMK CU1AC2 SLP168

CYQF;2011-07-01 16:00;CYQF 011600Z 00000KT 15SM SCT034 SCT100 13/04 A2998 RMK CU3AC1 SLP168

CYQF;2011-07-01 17:00;CYQF 011700Z 00000KT 15SM BKN040 14/03 A2998 RMK CU5 SLP167

CYQF;2011-07-01 18:00;CYQF 011800Z 00000KT 15SM BKN040 15/03 A2998 RMK CU6 SLP165

CYQF;2011-07-01 19:00;CYQF 011900Z 24002KT 15SM FEW041 BKN250 16/05 A2997 RMK CU2CI1 SLP164

CYQF;2011-07-01 20:00;CYQF 012000Z 18002KT 15SM SCT050 BKN250 16/03 A2997 RMK CU3CI2 SLP163

CYQF;2011-07-01 21:00;CYQF 012100Z 24002KT 15SM FEW045 BKN250 17/06 A2997 RMK CU2CI5 SLP160

CYQF;2011-07-01 22:00;CYQF 012200Z 21005KT 15SM FEW050 BKN250 17/04 A2997 RMK CU2CI4 SLP161

CYQF;2011-07-01 23:00;CYQF 012300Z 23002KT 15SM FEW050 BKN250 18/04 A2997 RMK CU2CI2 SLP161

CYQF;2011-07-02 00:00;CYQF 020000Z 00000KT 15SM FEW050 SCT100 BKN250 18/04 A2996 RMK CU2AC2CI1 SLP157

CYQF;2011-07-02 01:00;CYQF 020100Z 18004KT 15SM FEW050 SCT100 BKN250 18/05 A2996 RMK SC1AC2CI1 SLP155

CYQF;2011-07-02 02:00;CYQF 020200Z 18007KT 15SM FEW050 FEW100 18/07 A2995 RMK SC1AC1 SLP154

CYQF;2011-07-02 03:00;CYQF 020300Z 16004KT 15SM FEW100 16/08 A2995 RMK AC1 SLP153

CYQF;2011-07-02 04:00;CYQF 020400Z 00000KT 15SM FEW100 15/08 A2997 RMK AC1 SLP157

CYQF;2011-07-02 05:00;CYQF 020500Z 31002KT 15SM FEW050 FEW250 11/08 A2998 RMK SC1CI0 SLP160

CYQF;2011-07-02 06:00;CYQF 020600Z 00000KT 15SM FEW050 BKN250 11/09 A2999 RMK SC2CI1 SLP168

CYQF;2011-07-02 07:00;CYQF 020700Z 20002KT 15SM FEW050 SCT250 09/08 A2999 RMK SC2CI1 SLP168

CYQF;2011-07-02 08:00;CYQF 020800Z 00000KT 15SM FEW050 FEW250 09/07 A2999 RMK SC2CI0 SLP168

CYQF;2011-07-02 09:00;CYQF 020900Z 00000KT 15SM FEW050 FEW250 07/06 A2999 RMK SC2CI0 SLP171

CYQF;2011-07-02 10:00;CYQF 021000Z 00000KT 15SM FEW100 FEW250 06/05 A2999 RMK AC1CI1 SLP171

CYQF;2011-07-02 11:00;CYQF 021100Z 00000KT 15SM FEW100 SCT250 06/05 A2999 RMK AC1CI2 SLP170

CYQF;2011-07-02 12:00;CYQF 021200Z 21004KT 15SM FEW100 SCT250 05/04 A2999 RMK AC1CI2 SLP170

CYQF;2011-07-02 13:00;CYQF 021300Z 21005KT 15SM FEW100 BKN250 08/05 A2999 RMK AC2CI2 SLP170

CYQF;2011-07-02 14:00;CYQF 021400Z 20003KT 15SM FEW120 BKN270 10/07 A3000 RMK AC2CI2 SLP172

CYQF;2011-07-02 15:00;CYQF 021500Z 00000KT 15SM FEW120 BKN270 13/07 A2999 RMK AC1CI1 SLP165

CYQF;2011-07-02 16:00;CYQF 021600Z 18003KT 15SM FEW100 BKN250 16/06 A2998 RMK AC1CI1 SLP161

CYQF;2011-07-02 17:00;CYQF 021700Z 22004KT 15SM FEW120 SCT250 18/07 A2997 RMK AC2CI0 SLP159

CYQF;2011-07-02 18:00;CYQF 021800Z 17005KT 15SM FEW120 BKN280 20/09 A2997 RMK AC2CI1 SLP156

CYQF;2011-07-02 19:00;CYQF 021900Z 17007KT 15SM FEW048 SCT120 BKN280 21/09 A2995 RMK CU1AC2CI1 SLP151

CYQF;2011-07-02 20:00;CYQF 022000Z 21002KT 15SM FEW050 BKN280 22/09 A2994 RMK CU1CI2 SLP146

CYQF;2011-07-02 21:00;CYQF 022100Z 19005KT 15SM FEW061 BKN280 23/08 A2992 RMK CU1CI1 SLP140

CYQF;2011-07-02 22:00;CYQF 022200Z 21005KT 15SM FEW056 FEW250 24/10 A2991 RMK CU1CI0 SLP135

CYQF;2011-07-02 23:00;CYQF 022300Z 17008KT 15SM FEW060 FEW250 23/08 A2990 RMK CU1CI0 SLP132

CYQF;2011-07-03 00:00;CYQF 030000Z 17006KT 15SM FEW120 24/08 A2987 RMK AC1 SLP123

CYQF;2011-07-03 01:00;CYQF 030100Z 15008KT 15SM FEW120 23/09 A2986 RMK AC1 SLP119

CYQF;2011-07-03 02:00;CYQF 030200Z 15010KT 15SM FEW120 22/10 A2986 RMK AC1 SLP118

CYQF;2011-07-03 03:00;CYQF 030300Z 14007KT 15SM FEW120 21/11 A2985 RMK AC1 SLP109

CYQF;2011-07-03 04:00;CYQF 030400Z 12005KT 15SM FEW120 18/11 A2984 RMK AC1 SLP107

CYQF;2011-07-03 05:00;CYQF 030500Z 19004KT 15SM FEW120 15/11 A2984 RMK AC1 SLP107

CYQF;2011-07-03 06:00;CYQF 030600Z 19004KT 15SM FEW120 15/10 A2983 RMK AC1 SLP103

CYQF;2011-07-03 08:00;CYQF 030800Z 18006KT 15SM SKC 13/10 A2982 RMK SLP098

CYQF;2011-07-03 09:00;CYQF 030900Z 16005KT 15SM FEW120 12/09 A2980 RMK AC1 SLP093

CYQF;2011-07-03 10:00;CYQF 031000Z 16004KT 15SM FEW120 FEW250 11/09 A2979 RMK AC1CI0 SLP089

CYQF;2011-07-03 11:00;CYQF 031100Z 19004KT 15SM FEW120 FEW250 10/08 A2978 RMK AC1CI0 SLP085

CYQF;2011-07-03 12:00;CYQF 031200Z 15004KT 15SM FEW120 FEW250 11/09 A2976 RMK AC2CI0 SLP080

CYQF;2011-07-03 13:00;CYQF 031300Z 00000KT 15SM FEW150 FEW250 12/10 A2974 RMK AC1CI1 SLP073

CYQF;2011-07-03 14:00;CYQF 031400Z 16004KT 15SM FEW150 BKN270 15/11 A2973 RMK AC1CI1 SLP070

CYQF;2011-07-03 15:00;CYQF 031500Z 16002KT 15SM FEW150 BKN250 17/11 A2972 RMK AC1CI2 SLP062

CYQF;2011-07-03 16:00;CYQF 031600Z 16003KT 15SM FEW150 SCT250 20/12 A2970 RMK AC1CI2 SLP056

CYQF;2011-07-03 17:00;CYQF 031700Z 18010KT 15SM FEW040 FEW150 SCT250 22/11 A2969 RMK CU1AC1CI0 SLP052

CYQF;2011-07-03 18:00;CYQF 031800Z 20005KT 15SM FEW040 FEW150 SCT250 23/13 A2969 RMK CU1AC1CI0 TCU ASOCTD SLP049

CYQF;2011-07-03 19:00;CYQF 031900Z 00000KT 15SM VCSH SCT040TCU BKN100 24/13 A2968 RMK TCU3AC4 SLP046

CYQF;2011-07-03 19:40;CYQF 031940Z 27012G18KT 10SM -SHRA BKN040CB OVC100 RMK CB6AC2

CYQF;2011-07-03 19:44;CYQF 031944Z 27014G28KT 8SM -TSRA BKN040CB OVC100 RMK CB6AC2

CYQF;2011-07-03 20:00;CYQF 032000Z 26010KT 3SM -TSRA BKN012CB OVC100 15/12 A2977 RMK CB7AC1 SLP074

CYQF;2011-07-03 20:20;CYQF 032020Z 31015G25KT 15SM FEW018CB BKN080 BKN250 RETS RMK CB2AC4CI1

CYQF;2011-07-03 21:00;CYQF 032100Z 36009KT 15SM FEW020CB BKN060 BKN250 17/12 A2974 RETS RMK CB2SC3CI2 SLP075

CYQF;2011-07-03 22:00;CYQF 032200Z 03002KT 15SM FEW030 FEW100 SCT250 19/12 A2973 RMK CU1AC1CI1 SLP074

CYQF;2011-07-03 23:00;CYQF 032300Z 00000KT 15SM SCT035 SCT100 21/11 A2974 RMK CU3AC1 TCU ASOCTD SLP076

CYQF;2011-07-04 00:00;CYQF 040000Z 33006KT 15SM FEW040TCU 21/09 A2975 RMK TCU2 SLP078

CYQF;2011-07-04 01:00;CYQF 040100Z 01011KT 15SM FEW035CB BKN080 19/11 A2979 RMK CB2AC3 CB TOPS NW-N SLP091

CYQF;2011-07-04 02:00;CYQF 040200Z 36010G15KT 15SM TS SCT025CB BKN080 14/08 A2984 RMK CB3AC2 SLP106

CYQF;2011-07-04 02:07;CYQF 040207Z 35010G15KT 15SM -TSRA SCT025CB BKN080 RMK CB3AC2

CYQF;2011-07-04 02:35;CYQF 040235Z CCA 33005KT 15SM -TSRAGR FEW025CB BKN080 RMK CB2AC2 HAIL DIAM 5MM

CYQF;2011-07-04 03:00;CYQF 040300Z 35005KT 15SM FEW025CB 14/10 A2986 RETS RMK CB2 SLP118

CYQF;2011-07-04 04:00;CYQF 040400Z 24005KT 15SM FEW025TCU FEW080 11/10 A2990 RMK TCU1AC2 SLP129

CYQF;2011-07-04 05:00;CYQF 040500Z 32004KT 15SM FEW025TCU FEW080 11/10 A2993 RMK TCU1AC2 SLP137

CYQF;2011-07-04 06:00;CYQF 040600Z 29003KT 15SM FEW025TCU FEW080 11/09 A2995 RMK TCU1AC1 SLP144

CYQF;2011-07-04 07:00;CYQF 040700Z 00000KT 15SM FEW025TCU FEW080 10/09 A2997 RMK TCU1AC1 SLP152

CYQF;2011-07-04 08:00;CYQF 040800Z 25004KT 15SM FEW030 FEW080 09/08 A2999 RMK SC1AC1 SLP157

CYQF;2011-07-04 09:00;CYQF 040900Z 17003KT 15SM FEW080 FEW250 08/08 A3001 RMK AC1CI1 SLP173

CYQF;2011-07-04 10:00;CYQF 041000Z 21006KT 15SM FEW080 FEW250 07/07 A3003 RMK AC1CI1 SLP180

CYQF;2011-07-04 11:00;CYQF 041100Z 24006KT 15SM FEW030 FEW080 SCT250 08/07 A3005 RMK SC2AC1CI0 SLP187

CYQF;2011-07-04 12:00;CYQF 041200Z 00000KT 15SM FEW030 09/08 A3007 RMK SC2 SLP191

CYQF;2011-07-04 13:00;CYQF 041300Z 31008KT 15SM SCT030 10/08 A3008 RMK SC3 SLP193

CYQF;2011-07-04 14:00;CYQF 041400Z 34004KT 15SM FEW030 SCT070 12/06 A3009 RMK SC1ACC4 SLP198

CYQF;2011-07-04 15:00;CYQF 041500Z 01003KT 15SM BKN030 BKN070 12/05 A3010 RMK CU5AC2 SLP205

CYQF;2011-07-04 16:00;CYQF 041600Z 03003KT 15SM FEW038 BKN070 13/04 A3011 RMK CU2ACC2 SLP207

CYQF;2011-07-04 17:00;CYQF 041700Z 14004KT 15SM FEW040 SCT070 15/06 A3010 RMK CU1AC2 SLP205

CYQF;2011-07-04 18:00;CYQF 041800Z 00000KT 15SM FEW040 SCT250 16/06 A3009 RMK CU1CI1 SLP201

CYQF;2011-07-04 19:00;CYQF 041900Z 18005KT 15SM FEW048 FEW250 17/05 A3008 RMK CU1CI2 SLP197

CYQF;2011-07-04 20:00;CYQF 042000Z 18002KT 15SM FEW042 BKN250 18/07 A3007 RMK CU1CI2 SLP194

CYQF;2011-07-04 21:00;CYQF 042100Z 16006KT 15SM FEW045 BKN120 BKN250 18/07 A3005 RMK CU1AC4CI1 SLP188

CYQF;2011-07-04 22:00;CYQF 042200Z 13006KT 15SM FEW048 BKN120 BKN250 19/07 A3005 RMK CU1AC4CI1 SLP186

CYQF;2011-07-04 23:00;CYQF 042300Z 13010KT 15SM FEW048TCU FEW120 BKN270 19/08 A3003 RMK TCU1AC1CI2 SLP182

CYQF;2011-07-05 00:00;CYQF 050000Z 09008KT 15SM FEW045TCU FEW120 BKN270 19/10 A3003 RMK TCU1AC1CI5 SLP178

CYQF;2011-07-05 01:00;CYQF 050100Z 07008KT 15SM FEW040TCU FEW120 BKN270 19/10 A3003 RMK TCU1AC1CI4 SLP177

CYQF;2011-07-05 02:00;CYQF 050200Z 08008KT 15SM FEW040CB SCT120 BKN270 18/10 A3003 RMK CB2AC2CI2 SH DIST S SLP177

CYQF;2011-07-05 03:00;CYQF 050300Z 07007KT 15SM FEW040CB FEW120 BKN270 18/11 A3003 RMK CB2AC1CI1 CB SSE SLP176

CYQF;2011-07-05 04:00;CYQF 050400Z 09003KT 15SM FEW030CB FEW270 16/10 A3004 RMK CB1CI1 CB S SLP178

CYQF;2011-07-05 05:00;CYQF 050500Z 00000KT 15SM FEW030CB FEW270 14/10 A3005 RMK CB1CI1 CB SE SLP182

CYQF;2011-07-05 06:00;CYQF 050600Z 00000KT 15SM FEW090 14/10 A3005 RMK AC1 SLP185

CYQF;2011-07-05 07:00;CYQF 050700Z 00000KT 15SM SKC 11/09 A3007 RMK SLP191

CYQF;2011-07-05 08:00;CYQF 050800Z 00000KT 15SM SKC 11/10 A3007 RMK SLP192

CYQF;2011-07-05 09:00;CYQF 050900Z 19004KT 15SM SKC 09/08 A3007 RMK SLP195

CYQF;2011-07-05 10:00;CYQF 051000Z 20004KT 15SM SKC 08/07 A3008 RMK SLP198

CYQF;2011-07-05 11:00;CYQF 051100Z 27004KT 15SM SKC 08/07 A3009 RMK SLP200

CYQF;2011-07-05 12:00;CYQF 051200Z 22004KT 15SM SKC 08/08 A3010 RMK SLP204

CYQF;2011-07-05 13:00;CYQF 051300Z 23003KT 15SM SKC 10/10 A3011 RMK SLP207

CYQF;2011-07-05 14:00;CYQF 051400Z 19003KT 15SM SKC 12/11 A3012 RMK SLP209

CYQF;2011-07-05 15:00;CYQF 051500Z 22004KT 15SM FEW250 15/12 A3012 RMK CI0 SLP203

CYQF;2011-07-05 16:00;CYQF 051600Z 00000KT 15SM FEW260 18/12 A3011 RMK CI2 SLP202

CYQF;2011-07-05 17:00;CYQF 051700Z 00000KT 15SM FEW270 19/11 A3011 RMK CI1 SLP201

CYQF;2011-07-05 18:00;CYQF 051800Z 01003KT 15SM FEW060 FEW270 21/06 A3010 RMK CU1CI1 TR CU SLP197

CYQF;2011-07-05 19:00;CYQF 051900Z 04002KT 15SM FEW065 FEW270 22/07 A3010 RMK CU1CI1 SLP197

CYQF;2011-07-05 20:00;CYQF 052000Z 00000KT 15SM FEW062 23/07 A3010 RMK CU1 SLP195

CYQF;2011-07-05 21:00;CYQF 052100Z 02006KT 15SM FEW065 23/08 A3009 RMK CU1 SLP196

CYQF;2011-07-05 22:00;CYQF 052200Z 00000KT 15SM FEW065 24/07 A3008 RMK CU1 SLP193

CYQF;2011-07-05 23:00;CYQF 052300Z 15002KT 15SM FEW068 FEW250 24/07 A3007 RMK CU1CI1 SLP189

CYQF;2011-07-06 00:00;CYQF 060000Z 15003KT 15SM FEW070 24/07 A3007 RMK CU1 SLP188

CYQF;2011-07-06 01:00;CYQF 060100Z 14004KT 15SM FEW060 24/09 A3007 RMK CU1 SLP188

CYQF;2011-07-06 02:00;CYQF 060200Z 16003KT 15SM FEW100 23/10 A3007 RMK AC1 SLP187

CYQF;2011-07-06 03:00;CYQF 060300Z 15003KT 15SM FEW100 22/12 A3008 RMK AC1 SLP186

CYQF;2011-07-06 04:00;CYQF 060400Z 00000KT 15SM FEW080 19/11 A3008 RMK AC1 SLP188

CYQF;2011-07-06 05:00;CYQF 060500Z 00000KT 15SM FEW100 15/10 A3009 RMK AC1 ACC ASOCTD SLP191

CYQF;2011-07-06 06:00;CYQF 060600Z 00000KT 15SM SKC 14/10 A3010 RMK SLP194

CYQF;2011-07-06 07:00;CYQF 060700Z 00000KT 15SM SKC 13/09 A3010 RMK SLP195

CYQF;2011-07-06 08:00;CYQF 060800Z 00000KT 15SM FEW080 12/09 A3010 RMK AC2 SLP195

CYQF;2011-07-06 09:00;CYQF 060900Z 00000KT 15SM SCT080 12/10 A3010 RMK AC3 SLP196

CYQF;2011-07-06 10:00;CYQF 061000Z 30003KT 15SM SCT080 10/09 A3011 RMK AC3 SLP198

CYQF;2011-07-06 11:00;CYQF 061100Z 00000KT 15SM FEW080 SCT250 11/09 A3011 RMK AC2CI1 SLP199

CYQF;2011-07-06 12:00;CYQF 061200Z 00000KT 15SM FEW080 SCT250 09/08 A3011 RMK AC1CI1 SLP201

CYQF;2011-07-06 13:00;CYQF 061300Z 00000KT 15SM FEW100 SCT250 11/10 A3012 RMK AC1CI1 SLP202

CYQF;2011-07-06 14:00;CYQF 061400Z 00000KT 15SM FEW100 BKN250 14/12 A3011 RMK AC2CI2 SLP201

CYQF;2011-07-06 15:00;CYQF 061500Z 00000KT 15SM SCT250 17/13 A3011 RMK CI2 SLP195

CYQF;2011-07-06 16:00;CYQF 061600Z 00000KT 15SM FEW250 19/12 A3011 RMK CI1 SLP193

CYQF;2011-07-06 17:00;CYQF 061700Z 00000KT 15SM FEW250 21/13 A3009 RMK CI1 SLP189

CYQF;2011-07-06 18:00;CYQF 061800Z CCA 16005KT 15SM FEW260 22/12 A3008 RMK CI1 SLP187

CYQF;2011-07-06 19:00;CYQF 061900Z 18005KT 15SM FEW040 FEW260 23/13 A3006 RMK CU1CI1 TR CU SLP182

CYQF;2011-07-06 20:00;CYQF 062000Z 13008KT 15SM FEW044 FEW270 24/13 A3005 RMK CU1CI1 SLP176

CYQF;2011-07-06 21:00;CYQF 062100Z 15005KT 15SM FEW055 FEW270 26/12 A3004 RMK CU1CI1 SLP170

CYQF;2011-07-06 22:00;CYQF 062200Z 14003KT 15SM FEW050 FEW270 26/13 A3001 RMK CU1CI2 SLP163

CYQF;2011-07-06 23:00;CYQF 062300Z 15005KT 15SM FEW060TCU FEW250 26/11 A2999 RMK TCU1CI1 SLP157

CYQF;2011-07-07 00:00;CYQF 070000Z 12010KT 15SM FEW060TCU FEW250 26/11 A2998 RMK TCU1CI1 TCU DIST WSW SLP154

CYQF;2011-07-07 01:00;CYQF 070100Z 13008KT 15SM FEW060TCU FEW250 26/13 A2996 RMK TCU1CI1 TCU DIST SW SLP148

CYQF;2011-07-07 02:00;CYQF 070200Z 15008KT 15SM FEW043TCU FEW250 25/14 A2995 RMK TCU1CI1 TCU DIST SW SLP145

CYQF;2011-07-07 03:00;CYQF 070300Z 12005KT 15SM FEW045CB FEW250 23/15 A2993 RMK CB1CI1 CI TR CB DIST W-N SLP131

CYQF;2011-07-07 04:00;CYQF 070400Z 17006KT 15SM FEW045CB 21/15 A2994 RMK CB1 CB DIST NW-N SLP134

CYQF;2011-07-07 05:00;CYQF 070500Z 06006KT 15SM FEW100 FEW250 19/14 A2994 RMK ACC1CI1 ACC E CI TR CB TOP DIST NW-N SLP134

CYQF;2011-07-07 06:00;CYQF 070600Z 04002KT 15SM FEW100 FEW250 17/13 A2993 RMK ACC1CI1 ACC E CB TOP DIST N-NE LTGCCCG SLP131

CYQF;2011-07-07 07:00;CYQF 070700Z 22003KT 15SM FEW090 15/12 A2992 RMK AC1 CB TOP DIST N LTGIC SLP130

CYQF;2011-07-07 08:00;CYQF 070800Z 30004KT 15SM SKC 16/13 A2993 RMK SLP131

CYQF;2011-07-07 09:00;CYQF 070900Z 34003KT 15SM SKC 15/13 A2992 RMK SLP125

CYQF;2011-07-07 10:00;CYQF 071000Z 35003KT 15SM SKC 13/12 A2992 RMK SLP126

CYQF;2011-07-07 11:00;CYQF 071100Z 27004KT 15SM FEW080 12/12 A2993 RMK AC1 MIFG SLP128

CYQF;2011-07-07 12:00;CYQF 071200Z 32004KT 15SM FEW040 FEW080 13/12 A2994 RMK SC1AC1 SLP135

CYQF;2011-07-07 13:00;CYQF 071300Z 35005KT 15SM FEW040 FEW080 14/13 A2995 RMK SC2AC1 SLP138

CYQF;2011-07-07 13:06;CYQF 071306Z 34005KT 15SM FEW005 FEW040 FEW250 RMK SC2SC1CI1 CI TR

CYQF;2011-07-07 13:48;CYQF 071348Z 03002KT 15SM BKN005 BKN040 RMK SC2SC2

CYQF;2011-07-07 14:00;CYQF 071400Z 34003KT 15SM BKN005 BKN040 16/14 A2995 RMK SC2SC2 SLP140

CYQF;2011-07-07 15:00;CYQF 071500Z 33008KT 15SM BKN008 BKN080 17/14 A2995 RMK SC6AC1 SLP140

CYQF;2011-07-07 16:00;CYQF 071600Z 34008KT 15SM BKN013 17/14 A2995 RMK SC7 SLP138

CYQF;2011-07-07 17:00;CYQF 071700Z 02006KT 15SM BKN013 18/15 A2993 RMK SC5 SLP132

CYQF;2011-07-07 18:00;CYQF 071800Z 36007KT 15SM BKN016 BKN280 19/15 A2992 RMK SC6CI1 SLP130

CYQF;2011-07-07 19:00;CYQF 071900Z 03005KT 15SM FEW021TCU SCT250 21/16 A2989 RMK TCU1CI2 RAPID TCU DVLPMT SW SLP122

CYQF;2011-07-07 20:00;CYQF 072000Z 03008KT 15SM FEW030CB BKN270 23/16 A2987 RMK CB1CI2 SLP116

CYQF;2011-07-07 21:00;CYQF 072100Z 09009KT 15SM FEW030CB BKN280 23/17 A2985 RMK CB1CI6 SLP104

CYQF;2011-07-07 22:00;CYQF 072200Z 06010KT 15SM FEW030CB BKN080 BKN250 23/17 A2981 RMK CB2AC2CI1 SLP094

CYQF;2011-07-07 23:00;CYQF 072300Z 03006KT 15SM SCT030CB BKN080 BKN250 22/17 A2980 RMK CB3AC2CI1 LTNG W SLP089

CYQF;2011-07-07 23:17;CYQF 072317Z 03005KT 15SM TS SCT030CB BKN080 BKN250 RMK CB3AC2CI1 LTNG SW

CYQF;2011-07-08 00:00;CYQF 080000Z 04006KT 15SM TS VCSH FEW010 SCT020CB BKN080 BKN250 21/16 A2976 RMK CF1CB3AC2CI1 LTNG W SLP081

CYQF;2011-07-08 01:00;CYQF 080100Z 34008KT 15SM TS VCSH SCT020CB BKN080 BKN250 20/17 A2973 RMK CB4AC2CI1 SLP069

CYQF;2011-07-08 02:00;CYQF 080200Z 04008KT 15SM TS VCSH SCT020CB BKN080 BKN250 21/17 A2969 RMK CB4AC2CI1 PRESFR SLP057

CYQF;2011-07-08 02:24;CYQF 080224Z 03008KT 15SM -TSRA BKN020CB BKN080 BKN250 RMK CB5AC2CI1

CYQF;2011-07-08 02:48;CYQF 080248Z 25010KT 10SM +TSRAGR FEW005 BKN015CB BKN080 BKN250 RMK CF2CB4AC1CI1 HAIL DIAM 08 MM

CYQF;2011-07-08 03:00;CYQF 080300Z 33010G20KT 10SM +TSRAGR FEW005 BKN015CB BKN080 BKN250 17/17 A2970 RMK CF2CB3AC2CI1 HAIL DIAM 20 MM SLP058

CYQF;2011-07-08 03:07;CYQF 080307Z 08010G15KT 15SM -TSRA FEW005 BKN015CB BKN080 BKN250 REGRRA RMK CF1CB4AC1CI2

CYQF;2011-07-08 03:21;CYQF 080321Z 03005KT 15SM TS VCSH BKN020CB BKN080 BKN250 REGR RMK CB5AC1CI1

CYQF;2011-07-08 03:44;CYQF 080344Z 06012KT 15SM SCT020CB BKN080 BKN250 RETSGRRA RMK CB3AC2CI1

CYQF;2011-07-08 04:00;CYQF 080400Z 06008KT 15SM FEW020CB SCT080 BKN250 20/17 A2962 RETSGRRA RMK CB2AC2CI1 SLP033

CYQF;2011-07-08 05:00;CYQF 080500Z 09010KT 15SM FEW030CB BKN090 BKN250 18/17 A2957 RMK CB2AC2CI2 LTGIC NW SLP017

CYQF;2011-07-08 06:00;CYQF 080600Z 10008KT 15SM FEW030CB FEW090 BKN260 19/16 A2952 RMK CB2AC1CI2 SLP990

CYQF;2011-07-08 07:00;CYQF 080700Z 21004KT 12SM FEW030CB FEW090 BKN270 19/15 A2949 RMK CB2AC1CI2 LTGIC DIST N SLP983

CYQF;2011-07-08 08:00;CYQF 080800Z 33010G15KT 15SM FEW030CB SCT270 17/15 A2949 RMK CB2CI0 LTGIC DIST N SLP983

CYQF;2011-07-08 09:00;CYQF 080900Z 31015G20KT 15SM BKN025CB BKN090 14/11 A2953 RMK CB5AC2 SLP997

CYQF;2011-07-08 10:00;CYQF 081000Z 29016G21KT 15SM SCT025 BKN040 14/11 A2958 RMK SC3SC4 SLP013

CYQF;2011-07-08 11:00;CYQF 081100Z 33015G20KT 15SM VCSH FEW025 BKN040 13/09 A2956 RMK SF2SC6 TCU EMBD SLP006

CYQF;2011-07-08 11:14;CYQF 081114Z 33015G21KT 15SM -SHRA FEW020 BKN040 RMK SF2SC6 TCU EMBD

CYQF;2011-07-08 11:45;CYQF 081145Z 35007KT 15SM VCSH FEW025 BKN040 RMK SF1SC6 TCU EMBD

CYQF;2011-07-08 12:00;CYQF 081200Z 35006KT 15SM VCSH FEW025 BKN040 12/10 A2954 RMK SF1SC6 TCU EMBD SLP003

CYQF;2011-07-08 13:00;CYQF 081300Z 26007KT 15SM FEW045 FEW080 BKN240 12/10 A2955 RMK SC2AC1CI1 VIRGA TCU SLP006

CYQF;2011-07-08 14:00;CYQF 081400Z 21007KT 15SM FEW020 BKN040 BKN080 13/11 A2954 RMK SC2SC3AC1 TCU ASOCTD SHWRS W-NW SLP003

CYQF;2011-07-08 15:00;CYQF 081500Z 28008KT 15SM VCSH FEW013 BKN040 BKN080 14/11 A2955 RMK CU2SC3AC1 SLP008

CYQF;2011-07-08 16:00;CYQF 081600Z 25005KT 15SM FEW034TCU FEW080 16/08 A2953 RMK TCU1AC1 SLP001

CYQF;2011-07-08 17:00;CYQF 081700Z 17008KT 15SM FEW040TCU FEW080 17/07 A2950 RMK TCU1AC1 SLP994

CYQF;2011-07-08 18:00;CYQF 081800Z 21013G20KT 15SM FEW048 FEW080 SCT260 20/07 A2948 RMK CU2AC1CI1 SLP977

CYQF;2011-07-08 19:00;CYQF 081900Z 21015G20KT 15SM BKN057 BKN080 20/06 A2947 RMK SC6AC1 CU ASOCTD SLP973

CYQF;2011-07-08 20:00;CYQF 082000Z 26006KT 15SM BKN059 BKN080 BKN250 20/05 A2945 RMK CU5AC1CI1 SLP968

CYQF;2011-07-08 20:52;CYQF 082052Z 30008KT 15SM -SHRA BKN059 BKN080 RMK CU6AC1 TCU ASOCTD

CYQF;2011-07-08 21:00;CYQF 082100Z 30006KT 15SM -SHRA BKN040 19/08 A2945 RMK SC7 TCU EMBDD SLP972

CYQF;2011-07-08 21:11;CYQF 082111Z 30010G15KT 15SM VCSH BKN040 RMK SC7 TCU EMBDD

CYQF;2011-07-08 22:00;CYQF 082200Z 30015G25KT 15SM VCSH BKN060 19/04 A2946 RMK CU7 TCU ASOCTD SLP974

CYQF;2011-07-08 23:00;CYQF 082300Z 31020G30KT 15SM VCSH BKN060 BKN100 17/04 A2947 RMK CU5AC2 TCU ASOCTD SLP980

CYQF;2011-07-08 23:48;CYQF 082348Z 30025G35KT 15SM -SHRA BKN040 BKN060 RMK SC6SC2 VIS N 6

CYQF;2011-07-09 00:00;CYQF 090000Z 30020G30KT 15SM -SHRA BKN040 BKN060 13/06 A2952 RMK SC6SC2 VIS N 6 SLP006

CYQF;2011-07-09 01:00;CYQF 090100Z 20010KT 8SM -RA OVC040 10/08 A2953 RMK SC8 SLP007

CYQF;2011-07-09 02:00;CYQF 090200Z 24010KT 8SM -RA OVC040 09/07 A2954 RMK SC8 SLP010

CYQF;2011-07-09 03:00;CYQF 090300Z 19006KT 10SM -RA OVC040 10/08 A2952 RMK SC8 SLP005

CYQF;2011-07-09 04:00;CYQF 090400Z 27015G20KT 15SM OVC040 11/06 A2950 RMK SC8 SLP001

CYQF;2011-07-09 04:48;CYQF 090448Z 29010G15KT 15SM -RA OVC040 RMK SC8

CYQF;2011-07-09 05:00;CYQF 090500Z 30013KT 15SM -RA OVC050 12/06 A2951 RMK SC8 SLP002

CYQF;2011-07-09 06:00;CYQF 090600Z 20015G22KT 15SM -RA OVC050 12/07 A2952 RMK SC8 SLP997

CYQF;2011-07-09 07:00;CYQF 090700Z 28012G18KT 15SM -RA OVC065 11/07 A2953 RMK SC8 SLP001

CYQF;2011-07-09 08:00;CYQF 090800Z 27014G20KT 15SM -RA OVC065 10/08 A2952 RMK SC8 SLP997

CYQF;2011-07-09 09:00;CYQF 090900Z 29022G28KT 10SM RA OVC065 10/08 A2953 RMK SC8 SLP005

CYQF;2011-07-09 09:35;CYQF 090935Z 25015G20KT 10SM -RA FEW005 OVC065 RMK SF2SC6 RERA

CYQF;2011-07-09 10:00;CYQF 091000Z 28014G20KT 15SM -RA FEW005 OVC065 10/08 A2954 RMK SF2SC6 RERA SLP008

CYQF;2011-07-09 11:00;CYQF 091100Z 27015KT 15SM -RA FEW005 OVC065 10/08 A2954 RMK SF2SC6 SLP006

CYQF;2011-07-09 11:35;CYQF 091135Z 28015G22KT 15SM FEW005 OVC050 RMK SF2SC6

CYQF;2011-07-09 12:00;CYQF 091200Z 30014G20KT 15SM FEW005 OVC050 11/07 A2955 RMK SF2SC6 SLP016

CYQF;2011-07-09 13:00;CYQF 091300Z 29023G35KT 15SM BKN030 11/07 A2956 RMK SC7 SLP020

CYQF;2011-07-09 14:00;CYQF 091400Z 30018G28KT 15SM BKN018 BKN030 OVC080 11/08 A2959 RMK SC5SC2AC1 SHWR N SLP030

CYQF;2011-07-09 15:00;CYQF 091500Z 30017G27KT 15SM FEW010 BKN020 BKN080 12/08 A2962 RMK SC1SC6AC1 CU EMBDD SLP043

CYQF;2011-07-09 15:33;CYQF 091533Z 31020G35KT 15SM -SHRA FEW010 BKN020 BKN080 RMK SC1SC6AC1 CU EMBDD

CYQF;2011-07-09 16:00;CYQF 091600Z 29015G30KT 15SM FEW010 FEW020 BKN030 BKN065 12/07 A2963 RMK SC1SC2SC2SC2 SLP047

CYQF;2011-07-09 17:00;CYQF 091700Z 30018G28KT 15SM FEW010 BKN080 14/09 A2963 RMK CU1AC6 ACC ASOCTD SLP048

CYQF;2011-07-09 18:00;CYQF 091800Z 30020G30KT 15SM SCT030 BKN080 16/09 A2966 RMK CU3AC3 SLP049

CYQF;2011-07-09 19:00;CYQF 091900Z 31015G25KT 15SM BKN029 BKN080 16/08 A2966 RMK CU5AC1 SLP050

CYQF;2011-07-09 20:00;CYQF 092000Z 31020G30KT 15SM BKN030 BKN250 16/09 A2967 RMK CU6CI1 SLP053

CYQF;2011-07-09 21:00;CYQF 092100Z 29020G30KT 15SM FEW035 BKN250 18/09 A2968 RMK CU2CI3 SLP057

CYQF;2011-07-09 22:00;CYQF 092200Z 30020G26KT 15SM FEW036 BKN260 18/09 A2969 RMK CU2CI2 SLP060

CYQF;2011-07-09 23:00;CYQF 092300Z 32020G27KT 15SM FEW035 FEW080 BKN260 18/09 A2970 RMK SC2AC1CI3 SLP063

CYQF;2011-07-10 00:00;CYQF 100000Z 31015G20KT 15SM FEW030 BKN080 BKN260 16/09 A2971 RMK CU2AC3CI1 SLP069

CYQF;2011-07-10 01:00;CYQF 100100Z 31020G25KT 15SM FEW030 SCT080 BKN260 15/09 A2973 RMK CU2AC2CI2 VIRGA SLP075

CYQF;2011-07-10 02:00;CYQF 100200Z 30017G24KT 15SM FEW030 BKN080 BKN260 16/08 A2973 RMK SC2AC2CI1 SLP076

CYQF;2011-07-10 03:00;CYQF 100300Z 32015G21KT 15SM SCT040 BKN080 BKN260 15/08 A2975 RMK SC3AC2CI0 SLP082

CYQF;2011-07-10 04:00;CYQF 100400Z 29010G15KT 15SM SCT045 BKN080 BKN260 14/08 A2976 RMK SC4AC1CI1 SLP086

CYQF;2011-07-10 05:00;CYQF 100500Z 28010KT 15SM SCT050 BKN080 BKN260 14/08 A2977 RMK SC3AC2CI0 SLP088

CYQF;2011-07-10 10:00;CYQF 101000Z 30012G18KT 15SM SCT050 BKN100 13/09 A2979 RMK SC3AC3 SLP093

CYQF;2011-07-10 11:00;CYQF 101100Z 30012G18KT 15SM SCT030 BKN100 13/09 A2980 RMK SC3AC3 SLP096

CYQF;2011-07-10 12:00;CYQF 101200Z 31016G24KT 15SM SCT030 BKN100 13/09 A2982 RMK SC4AC3 SLP105

CYQF;2011-07-10 13:00;CYQF 101300Z CCA 29012G22KT 15SM SCT040 BKN090 13/09 A2984 RMK SC4AC3 SLP112

CYQF;2011-07-10 13:20;CYQF 101320Z 31010G18KT 10SM -DZ BKN013 BKN040 BKN100 RMK SC5SC2AC1

CYQF;2011-07-10 13:36;CYQF 101336Z 30010G15KT 15SM SCT013 BKN030 BKN100 RMK SC2SC5AC1 VIRGA

CYQF;2011-07-10 14:00;CYQF 101400Z 31010G15KT 15SM FEW013 BKN025 BKN120 13/10 A2985 RMK SC2SC4AC2 VIRGA SLP116

CYQF;2011-07-10 14:41;CYQF 101441Z 30010G17KT 15SM FEW008 BKN020 BKN100 RMK SF1SC6AC1 VIRGA

CYQF;2011-07-10 15:00;CYQF 101500Z 30010G15KT 15SM FEW008 BKN020 BKN100 13/10 A2986 RMK SF1SC6AC1 VIRGA SLP121

CYQF;2011-07-10 16:00;CYQF 101600Z 29012G18KT 15SM FEW008 BKN020 BKN100 14/10 A2988 RMK SF1SC6AC1 AC TR SLP126

CYQF;2011-07-10 16:43;CYQF 101643Z 29015G20KT 15SM BKN011 BKN020 OVC100 RMK SC6SC1AC1

CYQF;2011-07-10 17:00;CYQF 101700Z 30015G20KT 15SM BKN011 BKN020 BKN100 15/11 A2990 RMK SC5SC2AC1 SLP131

CYQF;2011-07-10 18:00;CYQF 101800Z 33015G20KT 15SM BKN020 BKN100 16/11 A2990 RMK CU6AC1 SLP133

CYQF;2011-07-10 19:00;CYQF 101900Z 32010G18KT 15SM BKN019 BKN100 16/11 A2991 RMK CU6AC0 SLP136

CYQF;2011-07-10 20:00;CYQF 102000Z 31010G20KT 15SM BKN022 17/12 A2993 RMK CU7 SLP142

CYQF;2011-07-10 21:00;CYQF 102100Z 34010G15KT 15SM BKN024 BKN250 17/12 A2994 RMK CU5CI2 SLP145

CYQF;2011-07-10 22:00;CYQF 102200Z 32010G15KT 15SM BKN025 BKN250 18/11 A2995 RMK CU5CI1 SLP146

CYQF;2011-07-10 23:00;CYQF 102300Z 36010G15KT 15SM BKN025 BKN250 18/11 A2995 RMK CU5CI1 SLP147

CYQF;2011-07-11 00:00;CYQF 110000Z 36010KT 15SM BKN025 BKN250 18/11 A2995 RMK CU5CI1 SLP147

CYQF;2011-07-11 01:00;CYQF 110100Z 35011G16KT 15SM SCT025 SCT050 BKN250 18/12 A2995 RMK CU3SC1CI1 SLP149

CYQF;2011-07-11 02:00;CYQF 110200Z 01010KT 15SM FEW025 SCT050 BKN250 17/13 A2997 RMK CU2SC2CI1 SLP153

CYQF;2011-07-11 03:00;CYQF 110300Z 02006KT 15SM FEW030 FEW070 SCT260 15/12 A2998 RMK CU1AC1CI0 SLP160

CYQF;2011-07-11 04:00;CYQF 110400Z 02005KT 15SM FEW040 FEW080 BKN260 14/12 A3000 RMK SC1AC1CI1 SLP166

CYQF;2011-07-11 05:00;CYQF 110500Z 33002KT 15SM FEW040 FEW080 BKN260 13/12 A3002 RMK SC1AC1CI1 SLP173

CYQF;2011-07-11 06:00;CYQF 110600Z 34004KT 15SM FEW040 FEW080 BKN260 13/12 A3002 RMK SC1AC2CI1 SLP175

CYQF;2011-07-11 07:00;CYQF 110700Z 26003KT 15SM FEW040 SCT080 BKN260 13/12 A3004 RMK SC1AC2CI1 SLP179

CYQF;2011-07-11 08:00;CYQF 110800Z 00000KT 15SM FEW040 BKN100 14/12 A3003 RMK SC2AC5 SLP177

CYQF;2011-07-11 09:00;CYQF 110900Z 09003KT 15SM FEW040 FEW100 BKN260 13/12 A3003 RMK SC1AC2CI1 SLP176

CYQF;2011-07-11 10:00;CYQF 111000Z 12003KT 15SM FEW040 SCT100 BKN260 13/12 A3004 RMK SC2AC2CI1 SLP178

CYQF;2011-07-11 11:00;CYQF 111100Z 13004KT 15SM FEW040 BKN100 BKN260 13/12 A3004 RMK SC2AC2CI1 SLP178

CYQF;2011-07-11 12:00;CYQF 111200Z 06004KT 10SM SCT020 BKN100 13/12 A3004 RMK SC4AC3 SLP179

CYQF;2011-07-11 12:18;CYQF 111218Z 07003KT 10SM SCT006 OVC080 RMK SF4AC4

CYQF;2011-07-11 12:30;CYQF 111230Z 00000KT 10SM BKN005 OVC080 RMK SF6AC2

CYQF;2011-07-11 13:00;CYQF 111300Z 10002KT 3SM BR BKN007 OVC020 13/13 A3005 RMK SF6SC2 SLP182

CYQF;2011-07-11 14:00;CYQF 111400Z 14005KT 6SM BR OVC007 14/13 A3006 RMK SF8 SLP185

CYQF;2011-07-11 14:48;CYQF 111448Z 13005KT 6SM -RA BR OVC007 RMK SF8 CIG RAG

CYQF;2011-07-11 15:00;CYQF 111500Z 14005KT 6SM -RA BR OVC007 14/13 A3006 RMK SF8 CIG RAG SLP189

CYQF;2011-07-11 15:40;CYQF 111540Z 16007KT 12SM BKN007 BKN012 OVC080 RMK SF3SC3AC2 CU

CYQF;2011-07-11 16:00;CYQF 111600Z 16006KT 15SM SCT008 BKN030 BKN080 15/13 A3006 RMK CU3SC2AC2 SLP189

CYQF;2011-07-11 16:39;CYQF 111639Z 19008KT 15SM -SHRA BKN012 OVC030 RMK CU6SC2

CYQF;2011-07-11 17:00;CYQF 111700Z 17008KT 15SM -SHRA SCT012 OVC030 16/13 A3005 RMK CU4SC4 SLP186

CYQF;2011-07-11 18:00;CYQF 111800Z 14005KT 15SM -SHRA SCT010 BKN030 BKN250 15/13 A3005 RMK CU3SC2CI2 SLP186

CYQF;2011-07-11 18:23;CYQF 111823Z 15006KT 15SM BKN010 BKN250 RMK CU5CI2

CYQF;2011-07-11 19:00;CYQF 111900Z CCA 16008KT 15SM BKN013 BKN250 18/14 A3005 RMK CU6CI1 SLP184

CYQF;2011-07-11 20:00;CYQF 112000Z 12010G15KT 15SM BKN024TCU BKN040 19/13 A3004 RMK TCU5SC2 SLP183

CYQF;2011-07-11 21:00;CYQF 112100Z 13011G17KT 15SM BKN022TCU BKN040 19/13 A3003 RMK TCU5SC2 SLP174

CYQF;2011-07-11 22:00;CYQF 112200Z 13010G15KT 15SM BKN022TCU 19/13 A3003 RMK TCU7 SLP175

CYQF;2011-07-11 22:04;CYQF 112204Z 13010G15KT 15SM TS BKN022CB RMK CB7

CYQF;2011-07-11 22:41;CYQF 112241Z 14010G18KT 15SM FEW010 BKN022CB BKN250 RETS RMK CF1CB6CI1

CYQF;2011-07-11 23:00;CYQF 112300Z CCA 12020G25KT 15SM BKN020CB BKN250 19/14 A3002 RETS RMK CB6CI0 SLP172

CYQF;2011-07-11 23:43;CYQF 112343Z 11012G20KT 15SM TS FEW020CB SCT250 RMK CB2CI2 CB NW

CYQF;2011-07-12 00:00;CYQF 120000Z CCA 11012G18KT 15SM TS FEW020CB SCT250 20/14 A3003 RMK CB2CI2 SLP172

CYQF;2011-07-12 00:25;CYQF 120025Z 11010G16KT 15SM SCT020CB BKN100 BKN250 RETS RMK CB3AC2CI2 CB W-NW-N DIST SE-S

CYQF;2011-07-12 01:00;CYQF 120100Z CCA 10010G15KT 15SM FEW020CB SCT100 BKN250 19/13 A3001 RETS RMK CB2AC2CI2 SLP166

CYQF;2011-07-12 02:00;CYQF 120200Z 09010G15KT 15SM FEW020 SCT100 BKN250 19/14 A3002 RMK CU2AC2CI2 SLP169

CYQF;2011-07-12 03:00;CYQF 120300Z 09010KT 15SM FEW020CB BKN100 BKN250 17/14 A3001 RMK CB2AC2CI3 SLP169

CYQF;2011-07-12 04:00;CYQF 120400Z 06010G15KT 15SM FEW010 FEW020CB FEW100 BKN250 16/14 A3002 RMK SC1CB1AC1CI2 FQT LGTIC W SLP170

CYQF;2011-07-12 05:00;CYQF 120500Z 10006KT 15SM FEW020CB FEW100 BKN250 15/13 A3002 RMK CB1AC2CI2 FQT LGTIC DIST W SLP171

CYQF;2011-07-12 06:00;CYQF 120600Z 10008KT 15SM FEW020CB FEW090 BKN250 15/13 A3001 RMK CB1AC2CI2 LTNG DIST NW SLP168

CYQF;2011-07-12 07:00;CYQF 120700Z 10008KT 15SM FEW020CB SCT090 BKN250 15/12 A3001 RMK CB2AC2CI2 LTGCG SW SLP170

CYQF;2011-07-12 07:13;CYQF 120713Z 14012KT 15SM -TSRA FEW020CB SCT090 BKN250 RMK CB2AC2CI2 LTGCG SW

CYQF;2011-07-12 08:00;CYQF 120800Z 09003KT 15SM -TSRA FEW020CB BKN090 BKN250 14/13 A3002 RMK CB2AC2CI2 LTGCC NE RERA SLP171

CYQF;2011-07-12 08:40;CYQF 120840Z 08012KT 15SM TS FEW006 FEW020CB BKN090 BKN250 RMK SF1CB2AC2CI2

CYQF;2011-07-12 08:50;CYQF 120850Z CCA 07006KT 15SM FEW006 FEW020CB BKN090 BKN250 RMK SF1CB2AC2CI2 RETS

CYQF;2011-07-12 09:00;CYQF 120900Z 09008KT 15SM FEW006 FEW020CB SCT090 BKN250 14/13 A3001 RMK SF1CB2AC2CI2 SLP166

CYQF;2011-07-12 10:00;CYQF 121000Z 12006KT 15SM FEW012 BKN030 BKN080 14/13 A3001 RMK SC2SC3AC1 SLP168

CYQF;2011-07-12 11:00;CYQF 121100Z 12004KT 15SM SCT010 BKN030 BKN080 13/12 A3000 RMK SC3SC2AC2 SLP164

CYQF;2011-07-12 11:44;CYQF 121144Z 16003KT 15SM BKN011 OVC080 RMK SC6AC2

CYQF;2011-07-12 12:00;CYQF 121200Z 00000KT 15SM BKN010 OVC080 14/13 A3001 RMK SC6AC2 SLP165

CYQF;2011-07-12 13:00;CYQF 121300Z 09004KT 15SM BKN008 OVC080 14/13 A3000 RMK SC7AC1 SLP162

CYQF;2011-07-12 13:18;CYQF 121318Z 09006KT 10SM -RA OVC008 RMK SC8

CYQF;2011-07-12 14:00;CYQF 121400Z 11005KT 10SM -RA OVC006 14/13 A2999 RMK SC8 SLP160

CYQF;2011-07-12 14:26;CYQF 121426Z 12007KT 10SM OVC006 RMK SC8

CYQF;2011-07-12 15:00;CYQF 121500Z 13005KT 10SM OVC007 14/13 A3000 RMK SC8 SLP166

CYQF;2011-07-12 15:26;CYQF 121526Z 11005KT 10SM BKN005 RMK SC7

CYQF;2011-07-12 16:00;CYQF 121600Z 13007KT 10SM OVC007 16/13 A2998 RMK SC8 BLLN DSAPRD 1200 AGL SLP160

CYQF;2011-07-12 17:00;CYQF 121700Z 10006KT 10SM OVC009 16/13 A2997 RMK SC8 CIG RAG SLP156

CYQF;2011-07-12 17:45;CYQF 121745Z 10007KT 10SM OVC010 RMK SC8 CIG RAG

CYQF;2011-07-12 18:00;CYQF 121800Z 10006KT 10SM OVC010 17/14 A2997 RMK SC8 CIG RAG SLP154

CYQF;2011-07-12 19:00;CYQF 121900Z 13010G15KT 15SM VCSH BKN012 BKN080 17/14 A2996 RMK CU5AC2 TCU SLP151

CYQF;2011-07-12 19:45;CYQF 121945Z 12010G15KT 15SM BKN007 BKN080 RMK CU6AC2

CYQF;2011-07-12 20:00;CYQF 122000Z 12011KT 15SM BKN007 BKN080 17/14 A2996 RMK CU5AC2 SLP150

CYQF;2011-07-12 21:00;CYQF 122100Z 10010KT 15SM BKN007 OVC080 17/13 A2995 RMK CU5AC3 SLP149

CYQF;2011-07-12 22:00;CYQF 122200Z 10010KT 15SM BKN009 OVC080 18/14 A2995 RMK SC6AC2 CU SLP149

CYQF;2011-07-12 22:31;CYQF 122231Z 09007KT 15SM BKN013 OVC080 RMK CU6AC1

CYQF;2011-07-12 23:00;CYQF 122300Z 08008KT 15SM BKN013 BKN080 18/15 A2993 RMK CU5AC2 SLP143

CYQF;2011-07-13 00:00;CYQF 130000Z 08007KT 15SM FEW013 SCT080 BKN250 17/14 A2992 RMK CU2AC2CI2 SLP137

CYQF;2011-07-13 01:00;CYQF 130100Z 05005KT 15SM FEW013 BKN080 BKN250 17/15 A2991 RMK CU2AC2CI2 SLP135

CYQF;2011-07-13 02:00;CYQF 130200Z 07010KT 15SM FEW010 SCT080 BKN250 17/15 A2990 RMK CU2AC2CI1 SLP132

CYQF;2011-07-13 03:00;CYQF 130300Z 07005KT 15SM FEW010 BKN080 BKN250 16/15 A2991 RMK CU2AC4CI2 SLP135

CYQF;2011-07-13 04:00;CYQF 130400Z 03004KT 15SM FEW010 SCT080 BKN250 15/14 A2991 RMK CU1AC2CI1 SLP135

CYQF;2011-07-13 05:00;CYQF 130500Z CCA 00000KT 10SM BKN005 OVC010 15/14 A2992 RMK SF6SC2 SLP138

CYQF;2011-07-13 06:00;CYQF 130600Z 04003KT 10SM OVC004 15/14 A2990 RMK ST8 SLP131

CYQF;2011-07-13 07:00;CYQF 130700Z 05005KT 3SM BR OVC004 15/14 A2989 RMK ST8 SLP128

CYQF;2011-07-13 07:18;CYQF 130718Z 07007KT 2SM BR OVC003 RMK ST8

CYQF;2011-07-13 08:00;CYQF 130800Z 05008KT 2SM BR OVC003 15/14 A2988 RMK ST8 SLP123

CYQF;2011-07-13 08:27;CYQF 130827Z 06004KT 4SM BR OVC005 RMK ST8

CYQF;2011-07-13 09:00;CYQF 130900Z 10003KT 5SM BR OVC005 15/13 A2988 RMK ST8 SLP124

CYQF;2011-07-13 10:00;CYQF 131000Z 15003KT 4SM BR OVC005 14/14 A2988 RMK ST8 SLP124

CYQF;2011-07-13 11:00;CYQF 131100Z 02004KT 3SM BR OVC004 14/14 A2987 RMK ST8 SLP119

CYQF;2011-07-13 11:26;CYQF 131126Z 02004KT 2SM BR OVC004 RMK ST8

CYQF;2011-07-13 12:00;CYQF 131200Z 03003KT 1 1/2SM BR OVC003 14/14 A2987 RMK FG2ST6 SLP121

CYQF;2011-07-13 12:24;CYQF 131224Z 00000KT 1 1/2SM BR OVC004 RMK FG2ST6

CYQF;2011-07-13 12:54;CYQF 131254Z 03002KT 2SM BR OVC006 RMK FG2ST6

CYQF;2011-07-13 13:00;CYQF 131300Z 05004KT 2SM BR OVC006 14/14 A2987 RMK FG2ST6 SLP121

CYQF;2011-07-13 14:00;CYQF 131400Z 06003KT 2 1/2SM BR OVC006 15/14 A2987 RMK FG2ST6 SLP121

CYQF;2011-07-13 14:50;CYQF 131450Z 05005KT 3SM BR OVC006 RMK FG1ST7

CYQF;2011-07-13 15:00;CYQF 131500Z 03005KT 3SM BR OVC006 15/13 A2985 RMK ST8 SLP115

CYQF;2011-07-13 16:00;CYQF 131600Z 12005KT 5SM BR BKN006 OVC015 16/13 A2987 RMK ST6SC2 SLP120

CYQF;2011-07-13 16:23;CYQF 131623Z 11004KT 6SM BR BKN008 OVC014 RMK ST5SC3

CYQF;2011-07-13 16:42;CYQF 131642Z 11005KT 6SM BR OVC012 RMK SC8

CYQF;2011-07-13 17:00;CYQF 131700Z 12003KT 6SM BR OVC012 16/13 A2987 RMK SC8 SLP119

CYQF;2011-07-13 18:00;CYQF 131800Z 15005KT 6SM BR OVC011 16/13 A2986 RMK SC8 SLP117

CYQF;2011-07-13 18:22;CYQF 131822Z 12007KT 6SM -SHRA BR OVC011 RMK SC8

CYQF;2011-07-13 18:49;CYQF 131849Z 10010KT 8SM SCT013 OVC080 RMK SC3AC4

CYQF;2011-07-13 19:00;CYQF 131900Z 11010G15KT 8SM FEW013 BKN080 17/15 A2984 RMK SC2AC5 SLP110

CYQF;2011-07-13 19:21;CYQF 131921Z 12010G15KT 8SM BKN010 BKN080 RMK SC5AC2 CIG RAG

CYQF;2011-07-13 20:00;CYQF 132000Z 13010KT 10SM FEW010 BKN016 BKN080 19/14 A2984 RMK SF2SC3AC2 CIG RAG SLP109

CYQF;2011-07-13 21:00;CYQF 132100Z 15005KT 12SM BKN016 BKN040 19/15 A2982 RMK SC5SC2 CU SLP100

CYQF;2011-07-13 22:00;CYQF 132200Z 15003KT 15SM BKN020 BKN040 19/14 A2981 RMK CU5SC2 SLP096

CYQF;2011-07-13 23:00;CYQF 132300Z 09007KT 15SM BKN020 BKN080 20/15 A2978 RMK CU5AC2 SLP088

CYQF;2011-07-14 00:00;CYQF 140000Z 09009KT 15SM BKN020 20/15 A2975 RMK CU6 SLP076

CYQF;2011-07-14 01:00;CYQF 140100Z 11008KT 15SM SCT028 21/14 A2974 RMK CU3 SLP071

CYQF;2011-07-14 02:00;CYQF 140200Z 05006KT 15SM BKN015 BKN040 19/16 A2974 RMK CU5SC2 SLP072

CYQF;2011-07-14 03:00;CYQF 140300Z 07010G15KT 10SM OVC020 18/16 A2972 RMK SC8 SLP066

CYQF;2011-07-14 04:00;CYQF 140400Z 09007KT 3SM -SHRA BR BKN020 OVC250 17/15 A2973 RMK SC6CI1 SLP069

CYQF;2011-07-14 04:09;CYQF 140409Z 33010G15KT 3SM -TSRA BR BKN020CB OVC250 RMK CB6CI2

CYQF;2011-07-14 05:00;CYQF 140500Z 29005KT 8SM -TSRA BKN025CB OVC250 14/13 A2975 RMK CB6CI2 RERA LTGCC W+N SLP075

CYQF;2011-07-14 05:20;CYQF 140520Z 03004KT 10SM -SHRA BKN025CB OVC250 RMK CB6CI2

CYQF;2011-07-14 05:40;CYQF 140540Z CCA 03004KT 10SM -SHRA BKN025CB OVC250 RMK CB6CI2 RETS

CYQF;2011-07-14 06:00;CYQF 140600Z 00000KT 15SM -SHRA BKN025CB BKN250 14/14 A2974 RMK CB6CI1 RETS SLP075

CYQF;2011-07-14 06:42;CYQF 140642Z 26004KT 15SM SCT025TCU SCT090 BKN250 RMK TCU3AC1CI1 CB ASOCTD

CYQF;2011-07-14 07:00;CYQF 140700Z 00000KT 15SM FEW025TCU FEW090 BKN250 12/12 A2973 RMK TCU2AC1CI1 CB ASOCTD SLP071

CYQF;2011-07-14 07:25;CYQF 140725Z 00000KT 2SM BR SCT250 RMK FG2CI1

CYQF;2011-07-14 07:42;CYQF 140742Z 20004KT 10SM FEW004 FEW090 BKN250 RMK SF2AC1CI1 BR

CYQF;2011-07-14 08:00;CYQF 140800Z 17004KT 10SM SCT008 BKN250 12/12 A2972 RMK SF3CI2 BR SLP070

CYQF;2011-07-14 09:00;CYQF 140900Z 20002KT 15SM FEW008 BKN090 BKN250 12/12 A2972 RMK SF2AC3CI0 SLP067

CYQF;2011-07-14 10:00;CYQF 141000Z 25005KT 15SM FEW030 SCT090 BKN250 11/11 A2970 RMK SC2AC2CI0 SLP062

CYQF;2011-07-14 11:00;CYQF 141100Z CCA 24007KT 5SM BR FEW030 FEW090 SCT250 11/10 A2970 RMK SC1AC2CI0 SLP062

CYQF;2011-07-14 11:34;CYQF 141134Z 24006KT 2SM BR SCT120 BKN250 RMK FG2AC2CI1

CYQF;2011-07-14 11:43;CYQF 141143Z 24006KT 3/4SM BR BKN120 BKN250 RMK FG2AC2CI1

CYQF;2011-07-14 12:00;CYQF 141200Z 24003KT 3/4SM BR BKN120 BKN250 11/11 A2969 RMK FG2AC2CI2 SLP060

CYQF;2011-07-14 12:19;CYQF 141219Z 20003KT 5SM BR SCT120 BKN250 RMK AC3CI1

CYQF;2011-07-14 13:00;CYQF 141300Z 24002KT 5SM BR SCT120 BKN250 11/11 A2969 RMK AC3CI2 SLP060

CYQF;2011-07-14 13:42;CYQF 141342Z 00000KT 4SM BR FEW001 SCT120 BKN250 RMK ST1AC2CI2

CYQF;2011-07-14 14:00;CYQF 141400Z 00000KT 4SM BR VCFG FEW001 SCT120 BKN250 12/12 A2969 RMK ST2AC2CI2 SLP060

CYQF;2011-07-14 14:22;CYQF 141422Z 29003KT 5SM BR VCFG BKN001 RMK ST4

CYQF;2011-07-14 14:36;CYQF 141436Z 30010KT 3SM BR VCFG BKN002 RMK ST6 VIS S 10

CYQF;2011-07-14 15:00;CYQF 141500Z 30006KT 5SM BR BKN003 BKN250 13/13 A2969 RMK ST5CI0 SLP059

CYQF;2011-07-14 15:18;CYQF 141518Z 29004KT 10SM BKN005 BKN250 RMK CU6CI0 BLN EST

CYQF;2011-07-14 16:00;CYQF 141600Z 28009KT 15SM BKN012 BKN250 16/13 A2969 RMK CU6CI0 SLP057

CYQF;2011-07-14 17:00;CYQF 141700Z 33010KT 15SM BKN012 BKN100 BKN250 17/14 A2970 RMK CU5AC1CI0 SLP061

CYQF;2011-07-14 17:44;CYQF 141744Z 34010KT 15SM SCT016 BKN100 RMK CU4AC1 TCU ASOCTD

CYQF;2011-07-14 18:00;CYQF 141800Z 32010KT 15SM BKN020 18/13 A2970 RMK CU5 TCU ASOCTD SLP059

CYQF;2011-07-14 19:00;CYQF 141900Z 33006KT 15SM SCT030 SCT100 BKN260 19/12 A2969 RMK CU3AC1CI2 TCU ASOCTD SLP057

CYQF;2011-07-14 20:00;CYQF 142000Z 32006KT 15SM FEW032 FEW100 BKN260 20/11 A2968 RMK CU2AC1CI3 CB TOPS W SLP055

CYQF;2011-07-14 21:00;CYQF 142100Z 35005KT 15SM FEW040 BKN230 20/11 A2966 RMK CU2CI3 TCU W SLP047

CYQF;2011-07-14 22:00;CYQF 142200Z 03003KT 15SM FEW040 FEW100 SCT230 22/11 A2965 RMK CU2AC1CI1 TCU/SH W SLP043

CYQF;2011-07-14 23:00;CYQF 142300Z 29003KT 15SM SCT040TCU BKN100 BKN230 20/10 A2963 RMK TCU4AC1CI1 CB SH W SLP038

CYQF;2011-07-14 23:24;CYQF 142324Z 22010G20KT 15SM -SHRA BKN040TCU BKN100 BKN230 RMK TCU5AC1CI1

CYQF;2011-07-15 00:00;CYQF 150000Z 12002KT 15SM -SHRA BKN050TCU BKN100 BKN230 20/08 A2963 RMK TCU5AC2CI1 SLP035

CYQF;2011-07-15 00:24;CYQF 150024Z 13005KT 15SM -TSRA BKN045CB BKN100 BKN230 RMK CB6AC1CI1 LTGCG HVYR SHS SW-W

CYQF;2011-07-15 01:00;CYQF 150100Z 23010G15KT 15SM -TSRA BKN040CB BKN100 16/12 A2963 RMK CB6AC2 LTGCG HVYR SH S SLP037

CYQF;2011-07-15 02:00;CYQF 150200Z 08010G15KT 15SM SCT040CB BKN100 16/08 A2961 RETSRA RMK CB3AC2 SLP031

CYQF;2011-07-15 03:00;CYQF 150300Z 10007KT 15SM FEW040CB SCT100 14/10 A2960 RMK CB2AC2 SLP030

CYQF;2011-07-15 04:00;CYQF 150400Z 18005KT 15SM FEW050TCU FEW100 12/10 A2958 RMK TCU1AC2 SLP025

CYQF;2011-07-15 05:00;CYQF 150500Z 17006KT 15SM FEW050 FEW100 11/09 A2959 RMK SC1AC2 TCU ASOCTD SLP026

CYQF;2011-07-15 06:00;CYQF 150600Z 20004KT 15SM FEW050 FEW100 11/09 A2958 RMK SC1AC1 SLP021

CYQF;2011-07-15 07:00;CYQF 150700Z 21007KT 15SM FEW050 SCT090 09/08 A2958 RMK SC1AC2 SLP021

CYQF;2011-07-15 08:00;CYQF 150800Z 21005KT 15SM FEW050 FEW090 09/08 A2957 RMK SC1AC2 SLP019

CYQF;2011-07-15 09:00;CYQF 150900Z 22005KT 15SM FEW050 FEW090 08/07 A2957 RMK SC1AC2 SLP018

CYQF;2011-07-15 10:00;CYQF 151000Z 23008KT 15SM FEW050 FEW090 08/06 A2958 RMK SC2AC1 SLP021

CYQF;2011-07-15 11:00;CYQF 151100Z 21007KT 15SM FEW050 FEW090 SCT250 07/06 A2958 RMK SC2AC1CI1 CB N SLP023

CYQF;2011-07-15 12:00;CYQF 151200Z 23005KT 15SM FEW050 SCT250 08/06 A2960 RMK SC2CI1 SLP029

CYQF;2011-07-15 13:00;CYQF 151300Z 20007KT 15SM FEW050 SCT250 09/07 A2960 RMK SC2CI1 SLP029

CYQF;2011-07-15 14:00;CYQF 151400Z 21006KT 15SM FEW050 BKN250 12/08 A2960 RMK CU1CI2 SLP030

CYQF;2011-07-15 15:00;CYQF 151500Z 23007KT 15SM FEW028 FEW050 BKN250 14/08 A2960 RMK CU1SC1CI6 SLP029

CYQF;2011-07-15 16:00;CYQF 151600Z 21009KT 15SM FEW030 BKN250 17/09 A2960 RMK CU1CI5 SLP029

CYQF;2011-07-15 17:00;CYQF 151700Z 26010G15KT 15SM FEW040 FEW150 SCT270 19/08 A2960 RMK CU1AC2CI1 SLP030

CYQF;2011-07-15 18:00;CYQF 151800Z 26008KT 15SM FEW040 BKN100 BKN250 19/09 A2961 RMK CU1AC4CI1 SLP032

CYQF;2011-07-15 19:00;CYQF 151900Z 24003KT 15SM FEW048 BKN100 BKN250 20/08 A2962 RMK CU1AC4CI1 SLP035

CYQF;2011-07-15 20:00;CYQF 152000Z 25005KT 15SM FEW050 SCT100 BKN250 21/08 A2962 RMK CU2AC2CI1 SLP035

CYQF;2011-07-15 21:00;CYQF 152100Z 21005KT 15SM SCT055 BKN100 BKN250 22/08 A2962 RMK CU3AC2CI0 SLP035

CYQF;2011-07-15 22:00;CYQF 152200Z 34003KT 15SM FEW055 SCT100 BKN250 21/07 A2963 RMK CU2AC2CI1 SLP036

CYQF;2011-07-15 23:00;CYQF 152300Z 01010KT 15SM FEW050 FEW100 FEW250 21/09 A2963 RMK CU1AC2CI1 TR CI SLP036

CYQF;2011-07-16 00:00;CYQF 160000Z 03005KT 15SM FEW040 BKN070 20/11 A2963 RMK CU1AC5 SLP039

CYQF;2011-07-16 01:00;CYQF 160100Z 03009KT 15SM FEW035 BKN070 20/12 A2963 RMK CU1AC5 SLP041

CYQF;2011-07-16 02:00;CYQF 160200Z 05008KT 15SM SCT080 19/12 A2964 RMK AC4 SLP042

CYQF;2011-07-16 03:00;CYQF 160300Z 04003KT 15SM FEW080 18/12 A2965 RMK AC2 SLP042

CYQF;2011-07-16 04:00;CYQF 160400Z 08003KT 15SM FEW080 SCT250 16/11 A2967 RMK AC2CI0 SLP050

CYQF;2011-07-16 05:00;CYQF 160500Z 21004KT 15SM FEW080 FEW250 13/11 A2970 RMK AC1CI0 SLP057

CYQF;2011-07-16 06:00;CYQF 160600Z 20004KT 15SM FEW080 FEW250 12/10 A2971 RMK AC1CI0 SLP066

CYQF;2011-07-16 07:00;CYQF 160700Z 18003KT 15SM FEW250 11/10 A2972 RMK CI0 SLP068

CYQF;2011-07-16 08:00;CYQF 160800Z 23005KT 15SM SKC 09/09 A2973 RMK SLP071

CYQF;2011-07-16 09:00;CYQF 160900Z 00000KT 15SM SKC 09/08 A2974 RMK SLP074

CYQF;2011-07-16 10:00;CYQF 161000Z 22004KT 15SM SKC 08/07 A2975 RMK SLP077

CYQF;2011-07-16 11:00;CYQF 161100Z 23003KT 15SM FEW080 08/07 A2976 RMK AC1 SLP082

CYQF;2011-07-16 12:00;CYQF 161200Z 19003KT 15SM FEW100 07/06 A2977 RMK AC1 SLP091

CYQF;2011-07-16 13:00;CYQF 161300Z 18005KT 15SM FEW100 09/06 A2979 RMK AC1 SLP095

CYQF;2011-07-16 14:00;CYQF 161400Z 24006KT 15SM FEW100 FEW250 12/08 A2980 RMK AC1CI1 SLP099

CYQF;2011-07-16 15:00;CYQF 161500Z 21003KT 15SM FEW100 FEW250 14/09 A2982 RMK AC1CI1 SLP100

CYQF;2011-07-16 16:00;CYQF 161600Z 18004KT 15SM FEW100 FEW250 17/10 A2981 RMK AC1CI1 SLP099

CYQF;2011-07-16 17:00;CYQF 161700Z 18005KT 15SM FEW045 19/08 A2982 RMK CU1 SLP102

CYQF;2011-07-16 18:00;CYQF 161800Z 19005KT 15SM FEW050 21/08 A2983 RMK CU1 SLP103

CYQF;2011-07-16 19:00;CYQF 161900Z 11004KT 15SM FEW060 FEW250 22/06 A2982 RMK CU1CI1 SLP101

CYQF;2011-07-16 20:00;CYQF 162000Z 15007KT 15SM FEW060 FEW250 22/07 A2982 RMK CU1CI0 SLP102

CYQF;2011-07-16 21:00;CYQF 162100Z 20005KT 15SM FEW060 SCT250 23/09 A2982 RMK CU1CI0 SLP102

CYQF;2011-07-16 22:00;CYQF 162200Z 18005KT 15SM FEW062 FEW250 23/08 A2982 RMK CU1CI1 SLP101

CYQF;2011-07-16 23:00;CYQF 162300Z 22002KT 15SM FEW063 FEW250 24/08 A2982 RMK CU1CI1 CU TR SLP102

CYQF;2011-07-17 00:00;CYQF 170000Z 14008KT 15SM FEW061 FEW250 23/08 A2983 RMK CU1CI1 SLP106

CYQF;2011-07-17 01:00;CYQF 170100Z 13008KT 15SM FEW056 BKN250 23/09 A2983 RMK CU1CI0 SLP105

CYQF;2011-07-17 02:00;CYQF 170200Z 13006KT 15SM FEW048 FEW100 FEW250 22/10 A2983 RMK CU1AC1CI1 SLP107

CYQF;2011-07-17 03:00;CYQF 170300Z 09006KT 15SM FEW100 20/12 A2984 RMK AC1 SLP105

CYQF;2011-07-17 04:00;CYQF 170400Z 12003KT 15SM FEW080 FEW250 18/11 A2987 RMK ACC1CI1 ACC TR SLP114

CYQF;2011-07-17 05:00;CYQF 170500Z 00000KT 15SM FEW080 SCT250 16/10 A2987 RMK AC1CI1 AC TR SLP114

CYQF;2011-07-17 06:00;CYQF 170600Z 00000KT 15SM FEW080 SCT250 15/11 A2989 RMK AC1CI1 TR AC SLP122

CYQF;2011-07-17 07:00;CYQF 170700Z 05003KT 15SM SCT250 15/10 A2988 RMK CI1 SLP119

CYQF;2011-07-17 08:00;CYQF 170800Z 15004KT 15SM BKN250 15/10 A2988 RMK CI2 SLP120

CYQF;2011-07-17 09:00;CYQF 170900Z 05006KT 15SM SCT080 BKN250 16/10 A2988 RMK AC3CI2 SLP114

CYQF;2011-07-17 10:00;CYQF 171000Z 12002KT 15SM SCT080 BKN250 15/10 A2987 RMK AC3CI2 SLP112

CYQF;2011-07-17 11:00;CYQF 171100Z 07003KT 15SM FEW080 SCT250 14/10 A2987 RMK AC2CI1 SLP112

CYQF;2011-07-17 12:00;CYQF 171200Z 18002KT 15SM FEW080 SCT250 13/10 A2987 RMK AC1CI1 SLP113

CYQF;2011-07-17 13:00;CYQF 171300Z 18004KT 15SM FEW080 SCT250 14/11 A2988 RMK AC1CI1 SLP118

CYQF;2011-07-17 14:00;CYQF 171400Z 19002KT 15SM FEW080 FEW250 16/12 A2989 RMK ACC1CI1 SLP121

CYQF;2011-07-17 15:00;CYQF 171500Z 19006KT 15SM FEW250 18/13 A2990 RMK CI1 SLP124

CYQF;2011-07-17 16:00;CYQF 171600Z 19005KT 15SM FEW250 20/14 A2991 RMK CI1 SLP126

CYQF;2011-07-17 17:00;CYQF 171700Z 24005KT 15SM FEW025 FEW250 21/14 A2992 RMK CU1CI0 SLP129

CYQF;2011-07-17 18:00;CYQF 171800Z 19002KT 15SM FEW030 FEW250 22/15 A2992 RMK CU1CI1 SLP131

CYQF;2011-07-17 19:00;CYQF 171900Z 01003KT 15SM FEW040 FEW250 24/14 A2993 RMK CU1CI0 SLP133

CYQF;2011-07-17 20:00;CYQF 172000Z 04004KT 15SM FEW040 FEW250 24/13 A2993 RMK CU1CI1 SLP133

CYQF;2011-07-17 21:00;CYQF 172100Z 08003KT 15SM FEW056 FEW250 25/11 A2993 RMK CU1CI1 SLP129

CYQF;2011-07-17 22:00;CYQF 172200Z 13005KT 15SM FEW060 SCT250 26/12 A2992 RMK CU1CI1 SLP128

CYQF;2011-07-17 23:00;CYQF 172300Z 10008KT 15SM FEW052 BKN250 26/13 A2992 RMK CU1CI2 TCU DIST W AND N SLP126

CYQF;2011-07-18 00:00;CYQF 180000Z 12010KT 15SM FEW050 BKN250 26/14 A2991 RMK CU1CI2 SLP124

CYQF;2011-07-18 01:00;CYQF 180100Z 09008KT 15SM FEW039 BKN250 24/15 A2991 RMK CU1CI6 TCU DIST S SLP124

CYQF;2011-07-18 02:00;CYQF 180200Z 09005KT 15SM FEW038CB SCT250 25/15 A2992 RMK CB1CI3 CB DIST S SLP127

CYQF;2011-07-18 03:00;CYQF 180300Z 12005KT 15SM FEW100 FEW250 23/15 A2991 RMK AC1CI1 SLP123

CYQF;2011-07-18 04:00;CYQF 180400Z 00000KT 15SM FEW100 FEW250 19/15 A2992 RMK AC1CI1 SLP125

CYQF;2011-07-18 05:00;CYQF 180500Z 15005KT 15SM FEW250 19/14 A2992 RMK CI1 SLP125

CYQF;2011-07-18 06:00;CYQF 180600Z 00000KT 15SM FEW250 16/14 A2991 RMK CI0 LTNG DIST W SLP126

CYQF;2011-07-18 07:00;CYQF 180700Z 00000KT 15SM FEW250 15/13 A2991 RMK CI0 SLP124

CYQF;2011-07-18 08:00;CYQF 180800Z 00000KT 15SM SKC 15/13 A2990 RMK SLP122

CYQF;2011-07-18 09:00;CYQF 180900Z 33004KT 15SM FEW080 14/13 A2989 RMK AC1 CB TOP+LTGCCIC SE LTNG DIST S SLP117

CYQF;2011-07-18 10:00;CYQF 181000Z CCA 00000KT 15SM FEW050 SCT250 15/13 A2987 RMK SC2CI0 LTNG DIST E+SE+NW SLP113

CYQF;2011-07-18 11:00;CYQF 181100Z 20004KT 15SM SCT050TCU BKN080 BKN250 15/13 A2986 RMK TCU3AC2CI0 LTGCG ALQDS SLP110

CYQF;2011-07-18 11:27;CYQF 181127Z 20008KT 15SM -TSRA BKN040CB BKN080 RMK CB5AC2 LTGCG NW+N

CYQF;2011-07-18 12:00;CYQF 181200Z 12003KT 15SM FEW050CB SCT090 BKN250 15/14 A2988 RMK CB2AC1CI1 RETS LTGCG N SLP112

CYQF;2011-07-18 13:00;CYQF 181300Z 00000KT 15SM FEW050CB FEW090 15/14 A2985 RMK CB1AC1 CB N TR AC SLP105

CYQF;2011-07-18 14:00;CYQF 181400Z 25005KT 15SM FEW040CB FEW250 17/15 A2986 RMK CB1CI1 SLP107

CYQF;2011-07-18 15:00;CYQF 181500Z 03003KT 15SM FEW040 FEW100 19/16 A2987 RMK CU1AC1 SLP109

CYQF;2011-07-18 16:00;CYQF 181600Z 00000KT 15SM FEW040 FEW150 21/15 A2989 RMK CU1AC1 SLP113

CYQF;2011-07-18 17:00;CYQF 181700Z 16004KT 15SM FEW030 BKN250 23/16 A2987 RMK CU1CI2 SLP108

CYQF;2011-07-18 18:00;CYQF 181800Z 00000KT 15SM FEW040 BKN120 24/15 A2985 RMK CU1AC4 SLP104

CYQF;2011-07-18 19:00;CYQF 181900Z 15005KT 15SM FEW030 FEW120 BKN250 25/18 A2985 RMK CU1AC1CI2 SLP101

CYQF;2011-07-18 20:00;CYQF 182000Z 12005KT 15SM FEW030 FEW120 BKN250 26/19 A2982 RMK CU1AC1CI2 SLP092

CYQF;2011-07-18 21:00;CYQF 182100Z 18005KT 15SM FEW042 FEW100 SCT250 27/17 A2980 RMK CU1AC1CI2 CU TR SLP083

CYQF;2011-07-18 22:00;CYQF 182200Z 13006KT 15SM FEW042 FEW100 SCT250 27/17 A2978 RMK CU1AC2CI2 SLP077

CYQF;2011-07-18 23:00;CYQF 182300Z 14003KT 15SM FEW042 FEW100 BKN250 27/20 A2976 RMK CU1AC1CI4 CB W + NW SLP070

CYQF;2011-07-19 00:00;CYQF 190000Z 00000KT 15SM SCT027CB SCT100 BKN250 27/20 A2975 RMK CB3AC1CI3 SLP068

CYQF;2011-07-19 01:00;CYQF 190100Z 30004KT 15SM VCSH SCT025CB BKN080 BKN250 25/20 A2973 RMK CB4AC2CI1 LTGCGIC SLP062

CYQF;2011-07-19 01:04;CYQF 190104Z 31030G42KT 15SM TS VCSH BKN027CB BKN250 RMK CB7CI1

CYQF;2011-07-19 01:31;CYQF 190131Z 30010KT 15SM -TSRA BKN025CB BKN250 RMK CB7CI1 HVY SHWR W AND N

CYQF;2011-07-19 02:00;CYQF 190200Z 34010G15KT 15SM TS VCSH BKN025CB BKN080 BKN250 16/14 A2975 RMK CB5AC2CI1 HVY SHW E LTGCG SLP068

CYQF;2011-07-19 02:22;CYQF 190222Z 06003KT 15SM SCT025CB BKN080 BKN250 RETS RMK CB3AC2CI2

CYQF;2011-07-19 03:00;CYQF 190300Z 00000KT 15SM FEW025TCU BKN080 BKN250 17/14 A2977 RETS RMK TCU2AC2CI2 CB E + SW SLP081

CYQF;2011-07-19 04:00;CYQF 190400Z 19004KT 15SM FEW025TCU SCT080 BKN250 16/14 A2977 RMK TCU2AC2CI2 SLP080

CYQF;2011-07-19 05:00;CYQF 190500Z CCA 22006KT 15SM FEW025 SCT080 BKN250 15/13 A2976 RMK SC2AC1CI0 TCU ASOCTD SLP077

CYQF;2011-07-19 06:00;CYQF 190600Z 25006KT 15SM FEW025 FEW080 SCT250 14/13 A2978 RMK SC2AC1CI0 SLP081

CYQF;2011-07-19 07:00;CYQF 190700Z 00000KT 15SM FEW025 SCT080 15/13 A2979 RMK SC2AC1 SLP084

CYQF;2011-07-19 08:00;CYQF 190800Z 04002KT 15SM FEW030 FEW080 15/13 A2980 RMK SC1AC1 SLP086

CYQF;2011-07-19 09:00;CYQF 190900Z 33004KT 15SM SCT080 14/13 A2981 RMK AC3 SLP088

CYQF;2011-07-19 10:00;CYQF 191000Z 10003KT 15SM BKN080 14/13 A2982 RMK AC6 SLP091

CYQF;2011-07-19 11:00;CYQF 191100Z 10003KT 15SM SCT080 14/13 A2982 RMK AC3 SLP090

CYQF;2011-07-19 12:00;CYQF 191200Z 26002KT 15SM FEW040 FEW090 12/12 A2982 RMK SC2AC1 SLP093

CYQF;2011-07-19 13:00;CYQF 191300Z 00000KT 15SM BKN060 13/12 A2981 RMK SC5 SLP090

CYQF;2011-07-19 14:00;CYQF 191400Z 00000KT 15SM BKN060 14/13 A2981 RMK SC7 SLP092

CYQF;2011-07-19 15:00;CYQF 191500Z 27002KT 15SM BKN075 BKN120 16/14 A2982 RMK ACC5AC1 SHWR N SLP101

CYQF;2011-07-19 16:00;CYQF 191600Z 08002KT 15SM BKN075 BKN120 18/11 A2982 RMK ACC5AC1 SLP101

CYQF;2011-07-19 17:00;CYQF 191700Z 05007KT 15SM FEW075 SCT120 20/13 A2979 RMK ACC1AC3 OBS TAKEN H-1 SLP091

CYQF;2011-07-19 18:00;CYQF 191800Z 06008KT 15SM FEW030 FEW070 BKN250 19/11 A2976 RMK CU1ACC2CI2 CC ASOCTD SLP080

CYQF;2011-07-19 19:00;CYQF 191900Z 06010KT 15SM FEW027 FEW070 BKN250 19/13 A2976 RMK CU1ACC1CI6 OBS TAKEN H-1 CU TR VIRGA SLP079

CYQF;2011-07-19 20:00;CYQF 192000Z 04006KT 15SM FEW024 FEW070 BKN250 20/14 A2973 RMK CU1AC1CI5 CI GNRLY FM CB DIST SW SLP071

CYQF;2011-07-19 21:00;CYQF 192100Z 06010G15KT 15SM FEW024 BKN070 BKN250 21/15 A2970 RMK CU2AC2CI2 SLP056

CYQF;2011-07-19 21:55;CYQF 192155Z 03011KT 12SM TS BKN025CB BKN070 BKN250 RMK CB5AC2CI1 LTGCG SW-NW

CYQF;2011-07-19 22:00;CYQF 192200Z 03008KT 12SM TS BKN025CB BKN070 BKN250 20/15 A2965 RMK CB5AC2CI1 LTGCG SW-NW SLP041

CYQF;2011-07-19 22:33;CYQF 192233Z 27016G26KT 8SM -TSRA BKN025CB OVC070 RMK CB6AC2

CYQF;2011-07-19 22:36;CYQF 192236Z 28017G29KT 3/4SM TSRAGR OVC025CB RMK CB8 HAIL DIAM 3.0MM

CYQF;2011-07-19 22:51;CYQF 192251Z 36023G34KT 10SM -TSRA BKN025CB OVC070 RMK CB6AC2 REGR

CYQF;2011-07-19 23:00;CYQF 192300Z CCA 36023G32KT 15SM -SHRA BKN025CB BKN070 13/12 A2966 RMK CB6AC2 RETS REGR RERA SLP044

CYQF;2011-07-19 23:16;CYQF 192316Z 34006KT 15SM BKN030CB BKN070 RMK CB5AC2 LTGCG SW-W

CYQF;2011-07-19 23:22;CYQF 192322Z 00000KT 15SM TS BKN030CB BKN070 RMK CB6AC2 LTGCG SW-W

CYQF;2011-07-19 23:41;CYQF 192341Z 19004KT 8SM -TSRA BKN030CB OVC070 RMK CB6AC2

CYQF;2011-07-20 00:00;CYQF 200000Z 30002KT 15SM -TSRA BKN030CB OVC070 14/13 A2967 RMK CB6AC2 /R20/ SLP057

CYQF;2011-07-20 01:00;CYQF 200100Z 08012KT 15SM -TSRA BKN030CB BKN070 14/13 A2963 RMK CB5AC2 SLP042

CYQF;2011-07-20 01:20;CYQF 200120Z 09008KT 15SM -SHRA SCT030CB BKN070 BKN250 RMK CB3AC2CI2 RETS

CYQF;2011-07-20 02:00;CYQF 200200Z CCA 21006KT 15SM -SHRA FEW006 BKN030CB BKN070 14/12 A2964 RMK SF1CB5AC2 LTGCG E-SE RETS SLP045

CYQF;2011-07-20 02:36;CYQF 200236Z 28006KT 10SM -TSRA FEW006 BKN030CB OVC070 RMK SF2CB5AC2

CYQF;2011-07-20 03:00;CYQF 200300Z 33007KT 12SM -TSRA FEW006 BKN025CB BKN070 14/13 A2967 RMK SF2CB5AC1 SLP053

CYQF;2011-07-20 03:24;CYQF 200324Z 36024G33KT 12SM -SHRA BKN025CB BKN070 RMK CB5AC2 RETS

CYQF;2011-07-20 04:00;CYQF 200400Z 35008KT 15SM FEW006 BKN025 BKN070 13/11 A2971 RMK SF2SC3AC2 RETS SLP065

CYQF;2011-07-20 05:00;CYQF 200500Z 23003KT 15SM BKN025 BKN070 12/11 A2971 RMK SC5AC2 SLP064

CYQF;2011-07-20 06:00;CYQF 200600Z 26006KT 15SM BKN025 BKN070 12/11 A2973 RMK SC5AC2 SLP071

CYQF;2011-07-20 07:00;CYQF 200700Z 26008KT 15SM SCT030 BKN080 12/11 A2976 RMK SC4AC3 SLP079

CYQF;2011-07-20 08:00;CYQF 200800Z CCA 29005KT 15SM SCT030 BKN080 12/11 A2974 RMK SC4AC3 SLP074

CYQF;2011-07-20 09:00;CYQF 200900Z 28008KT 15SM SCT030 BKN080 13/11 A2974 RMK SC3AC4 SLP070

CYQF;2011-07-20 10:00;CYQF 201000Z 30008KT 15SM SCT030 BKN080 12/10 A2975 RMK SC3AC4 SLP073

CYQF;2011-07-20 11:00;CYQF 201100Z 29010KT 15SM FEW030 SCT080 BKN250 12/10 A2975 RMK SC1AC2CI0 SLP075

CYQF;2011-07-20 12:00;CYQF 201200Z 28010KT 15SM FEW040 BKN120 11/09 A2977 RMK SC2AC2 SLP092

CYQF;2011-07-20 13:00;CYQF 201300Z 30010KT 15SM FEW040 FEW080 SCT250 11/09 A2978 RMK SC2AC1CI1 SLP096

CYQF;2011-07-20 14:00;CYQF 201400Z 27012KT 15SM FEW080 FEW250 12/09 A2981 RMK AC1CI1 ACC ASOCTD SLP103

CYQF;2011-07-20 15:00;CYQF 201500Z 30006KT 15SM FEW080 SCT250 14/08 A2981 RMK AC2CI2 SLP102

CYQF;2011-07-20 16:00;CYQF 201600Z 33008KT 15SM FEW032 FEW080 SCT250 15/07 A2981 RMK CU1AC1CI2 SLP103

CYQF;2011-07-20 17:00;CYQF 201700Z 34008KT 15SM FEW036 SCT090 BKN260 16/07 A2982 RMK CU1AC1CI2 TCU W SLP105

CYQF;2011-07-20 18:00;CYQF 201800Z 33010KT 15SM FEW040TCU FEW090 SCT270 18/07 A2981 RMK TCU1AC1CI0 SLP102

CYQF;2011-07-20 19:00;CYQF 201900Z 27003KT 15SM FEW044TCU BKN270 18/07 A2981 RMK TCU2CI3 SLP100

CYQF;2011-07-20 20:00;CYQF 202000Z 24008KT 15SM SCT038CB 19/08 A2980 RMK CB4 SHWRS DIST SW-W-NW OCNL LTNG SLP097

CYQF;2011-07-20 20:09;CYQF 202009Z 18007KT 15SM TS BKN038CB RMK CB7 SHWRS SW-W-NW OCNL LGTG

CYQF;2011-07-20 20:23;CYQF 202023Z 31020G40KT 15SM -TSRA BKN040CB RMK CB7

CYQF;2011-07-20 21:00;CYQF 202100Z 03010KT 15SM -SHRA BKN030CB 12/08 A2982 RETS RMK CB6 SLP109

CYQF;2011-07-20 21:20;CYQF 202120Z 36008KT 15SM BKN030CB RMK CB5

CYQF;2011-07-20 22:00;CYQF 202200Z 02011KT 15SM FEW035CB SCT250 16/07 A2980 RMK CB2CI1 SLP104

CYQF;2011-07-20 23:00;CYQF 202300Z 05008KT 15SM FEW035TCU SCT250 18/06 A2980 RMK TCU2CI0 SLP103

CYQF;2011-07-21 00:00;CYQF 210000Z 00000KT 15SM FEW060CB SCT250 18/04 A2979 RMK CB2CI0 SLP095

CYQF;2011-07-21 01:00;CYQF 210100Z 35004KT 15SM FEW050TCU SCT250 18/06 A2979 RMK TCU2CI1 SLP096

CYQF;2011-07-21 02:00;CYQF 210200Z 19004KT 15SM SCT030TCU BKN250 16/10 A2979 RMK TCU3CI0 SLP094

CYQF;2011-07-21 03:00;CYQF 210300Z 00000KT 15SM FEW030 SCT250 15/10 A2978 RMK CU2CI0 SLP092

CYQF;2011-07-21 04:00;CYQF 210400Z 19004KT 15SM FEW030 13/10 A2980 RMK CU2 SLP096

CYQF;2011-07-21 05:00;CYQF 210500Z 20007KT 15SM FEW030TCU 11/09 A2980 RMK TCU1 SLP097

CYQF;2011-07-21 06:00;CYQF 210600Z 19005KT 15SM FEW030 10/08 A2979 RMK SC1 SLP096

CYQF;2011-07-21 07:00;CYQF 210700Z 19006KT 15SM SKC 09/07 A2978 RMK SLP094

CYQF;2011-07-21 08:00;CYQF 210800Z 19005KT 15SM SKC 09/07 A2977 RMK SLP090

CYQF;2011-07-21 09:00;CYQF 210900Z 21002KT 15SM SKC 08/07 A2976 RMK SLP093

CYQF;2011-07-21 10:00;CYQF 211000Z CCA 20005KT 15SM SKC 06/05 A2975 RMK SLP090

CYQF;2011-07-21 11:00;CYQF 211100Z 19004KT 15SM FEW100 06/05 A2975 RMK AC1 SLP090

CYQF;2011-07-21 12:00;CYQF 211200Z 19004KT 15SM FEW100 06/05 A2974 RMK AC1 SLP082

CYQF;2011-07-21 13:00;CYQF 211300Z 20003KT 15SM FEW100 08/06 A2973 RMK AC1 SLP079

CYQF;2011-07-21 14:00;CYQF 211400Z 16003KT 15SM FEW100 SCT240 11/07 A2972 RMK AC1CI1 SLP078

CYQF;2011-07-21 15:00;CYQF 211500Z 15005KT 15SM FEW070 SCT120 BKN240 14/08 A2971 RMK AC1AC2CI0 SLP067

CYQF;2011-07-21 16:00;CYQF 211600Z 13005KT 15SM FEW120 BKN260 17/10 A2970 RMK AC1CI2 SLP062

CYQF;2011-07-21 17:00;CYQF 211700Z 12007KT 15SM FEW120 BKN260 19/12 A2969 RMK AC2CI1 SLP061

CYQF;2011-07-21 18:00;CYQF 211800Z 16011KT 15SM FEW037 FEW120 BKN260 20/11 A2969 RMK CU1AC2CI2 SLP060

CYQF;2011-07-21 19:00;CYQF 211900Z 16012KT 15SM FEW050 SCT120 BKN260 22/09 A2969 RMK CU2AC2CI2 CC ASOCTD SLP060

CYQF;2011-07-21 20:00;CYQF 212000Z 16010G16KT 15SM FEW048 SCT120 BKN260 23/11 A2969 RMK CU2AC2CI2 FEW TCU SLP060

CYQF;2011-07-21 21:00;CYQF 212100Z 16008KT 15SM FEW048TCU BKN100 BKN260 22/10 A2969 RMK TCU2AC2CI1 CB ASOCTD W SLP058

CYQF;2011-07-21 22:00;CYQF 212200Z 17010G15KT 15SM VCSH SCT040CB BKN100 BKN260 20/10 A2970 RMK CB3AC2CI1 SLP061

CYQF;2011-07-21 22:39;CYQF 212239Z 32010G15KT 15SM VCSH SCT040CB BKN100 BKN260 RMK CB3AC2CI1 WND SHFT

CYQF;2011-07-21 23:00;CYQF 212300Z 02004KT 15SM VCSH SCT030CB BKN100 BKN260 18/11 A2973 RMK CB4AC1CI1 SLP071

CYQF;2011-07-22 00:00;CYQF 220000Z 35005KT 15SM SCT030TCU BKN100 BKN260 18/11 A2973 RMK TCU3AC2CI1 SLP079

CYQF;2011-07-22 01:00;CYQF 220100Z 36010KT 15SM FEW030TCU SCT100 BKN260 19/12 A2973 RMK TCU2AC2CI1 SLP079

CYQF;2011-07-22 02:00;CYQF 220200Z 01007KT 15SM FEW030TCU SCT100 BKN250 18/12 A2975 RMK TCU2AC2CI1 SLP084

CYQF;2011-07-22 03:00;CYQF 220300Z 02005KT 15SM VCSH FEW015 SCT050 BKN250 16/12 A2974 RMK CU1CU3CI1 SLP077

CYQF;2011-07-22 03:30;CYQF 220330Z 27010G15KT 15SM TS VCSH BKN015CB BKN060 BKN250 RMK CB5SC2CI0 LTGICCG W SHS APROACHING RAPIDLY FM W

CYQF;2011-07-22 04:00;CYQF 220400Z 32010G19KT 15SM TS VCSH BKN020CB BKN050 OVC250 15/10 A2980 RMK CB5SC2CI1 LTGICCG SW-NW SLP094

CYQF;2011-07-22 04:55;CYQF 220455Z 34010KT 15SM -SHRA BKN020CB BKN050 OVC250 RETS RMK CB5SC2CI1

CYQF;2011-07-22 05:00;CYQF 220500Z 24010KT 15SM -SHRA SCT020CB BKN060 OVC250 14/12 A2982 RMK CB4SC2CI2 RETS LTGCG NW SLP100

CYQF;2011-07-22 06:00;CYQF 220600Z 36007KT 15SM FEW020 OVC050 12/10 A2982 RMK CF2SC6 LTNG N SLP102

CYQF;2011-07-22 07:00;CYQF 220700Z 33010KT 15SM FEW020 OVC050 11/09 A2983 RMK CF2SC6 SLP103

CYQF;2011-07-22 08:00;CYQF 220800Z 33008KT 15SM FEW020 OVC050 11/09 A2983 RMK CF2SC6 SLP104

CYQF;2011-07-22 09:00;CYQF 220900Z 30005KT 15SM FEW020 OVC060 11/09 A2983 RMK CF2SC6 SLP105

CYQF;2011-07-22 10:00;CYQF 221000Z 32007KT 15SM FEW015 OVC060 11/10 A2983 RMK SF2SC6 SLP105

CYQF;2011-07-22 10:42;CYQF 221042Z 28008KT 15SM -RA FEW015 OVC060 RMK SF2SC6

CYQF;2011-07-22 11:00;CYQF 221100Z 31012KT 15SM -RA FEW015 OVC050 10/10 A2984 RMK SF2SC6 RERA SLP107

CYQF;2011-07-22 12:00;CYQF 221200Z 34006KT 15SM -RA FEW015 OVC050 10/10 A2983 RMK SF2SC6 SLP109

CYQF;2011-07-22 13:00;CYQF 221300Z 32007KT 15SM -RA SCT008 OVC040 10/09 A2985 RMK SF3SC5 SLP115

CYQF;2011-07-22 13:48;CYQF 221348Z 34007KT 15SM VCSH FEW007 BKN050 BKN120 RMK SF2SC3AC2

CYQF;2011-07-22 14:00;CYQF 221400Z 34007KT 15SM VCSH FEW006 BKN050 BKN120 11/10 A2982 RMK SF2SC3AC2 SLP106

CYQF;2011-07-22 14:27;CYQF 221427Z 30005KT 15SM BKN006 OVC050 RMK ST6SC2

CYQF;2011-07-22 15:00;CYQF 221500Z 32010KT 15SM BKN006 OVC060 11/10 A2983 RMK ST6SC2 SLP109

CYQF;2011-07-22 16:00;CYQF 221600Z 33008KT 15SM BKN009 OVC050 12/10 A2983 RMK SC7SC1 SLP111

CYQF;2011-07-22 16:38;CYQF 221638Z 33005KT 15SM SCT008 BKN020 OVC050 RMK CF3SC3SC2

CYQF;2011-07-22 17:00;CYQF 221700Z 34006KT 15SM SCT008 BKN020 OVC050 12/10 A2983 RMK CF4SC3SC1 SLP111

CYQF;2011-07-22 18:00;CYQF 221800Z CCA 32005KT 15SM FEW008 BKN015 OVC040 13/10 A2983 RMK CF2SC4SC2 TCU EMBD SLP114

CYQF;2011-07-22 19:00;CYQF 221900Z 02003KT 15SM VCSH SCT009 BKN018 OVC040 12/10 A2983 RMK CF4SC3SC1 SLP114

CYQF;2011-07-22 20:00;CYQF 222000Z 31007KT 15SM VCSH SCT009 BKN018 OVC040 13/10 A2983 RMK CF4SC3SC1 TCU EMBD SLP112

CYQF;2011-07-22 20:34;CYQF 222034Z 34010KT 10SM -SHRA BKN008 OVC020 RMK CU5SC3

CYQF;2011-07-22 21:00;CYQF 222100Z 32010KT 10SM -SHRA BKN008 OVC020 13/11 A2983 RMK CU5SC3 TCU EMBD SLP115

CYQF;2011-07-22 22:00;CYQF 222200Z 32007KT 8SM -SHRA BKN008 OVC020 12/11 A2984 RMK CU6SC2 TCU EMBD SLP118

CYQF;2011-07-22 23:00;CYQF 222300Z 30010KT 10SM -SHRA BKN008 OVC020 13/10 A2984 RMK CU6SC2 TCU EMBD SLP116

CYQF;2011-07-23 00:00;CYQF 230000Z 33010KT 15SM -SHRA BKN008 OVC020 13/10 A2984 RMK CU6SC2 SLP117

CYQF;2011-07-23 01:00;CYQF 230100Z 32010KT 15SM -SHRA BKN011 OVC025 13/11 A2984 RMK CU5SC3 SLP119

CYQF;2011-07-23 02:00;CYQF 230200Z 33010KT 15SM -SHRA SCT011 BKN025 BKN250 12/10 A2985 RMK CU3SC2CI1 SLP120

CYQF;2011-07-23 02:35;CYQF 230235Z 32008KT 15SM FEW011 BKN025 BKN260 RMK CU2SC3CI1

CYQF;2011-07-23 03:00;CYQF 230300Z 32008KT 15SM FEW011 BKN025 BKN260 12/10 A2986 RMK CU2SC3CI1 SLP126

CYQF;2011-07-23 04:00;CYQF 230400Z 33005KT 15SM FEW010 BKN030 12/10 A2988 RMK CU1SC6 SLP131

CYQF;2011-07-23 05:00;CYQF 230500Z 31003KT 15SM FEW010 SCT030 BKN080 11/10 A2988 RMK CU1SC3AC2 SLP132

CYQF;2011-07-23 06:00;CYQF 230600Z 26002KT 15SM FEW030 SCT080 09/08 A2989 RMK SC2AC2 SLP137

CYQF;2011-07-23 07:00;CYQF 230700Z 00000KT 15SM FEW080 FEW240 08/08 A2989 RMK AC1CI1 SLP139

CYQF;2011-07-23 07:40;CYQF 230740Z 00000KT 4SM BR VCFG FEW080 RMK FG1AC1

CYQF;2011-07-23 08:00;CYQF 230800Z 00000KT 4SM BR VCFG BKN070 07/07 A2990 RMK FG1AC1 SLP142

CYQF;2011-07-23 08:35;CYQF 230835Z 16002KT 2SM BR SKC RMK FG2

CYQF;2011-07-23 08:39;CYQF 230839Z 00000KT 1SM BR SKC RMK FG2

CYQF;2011-07-23 09:00;CYQF 230900Z 00000KT 1/2SM FG SKC 06/06 A2990 RMK FG2 SLP143

CYQF;2011-07-23 09:40;CYQF 230940Z 21004KT 3/4SM BR BKN240 RMK FG2CI1

CYQF;2011-07-23 10:00;CYQF 231000Z 23004KT 3SM BR VCFG BKN240 07/07 A2990 RMK FG2CI2 SLP144

CYQF;2011-07-23 11:00;CYQF 231100Z 18005KT 15SM FEW080 FEW240 07/07 A2990 RMK AC2CI1 SLP143

CYQF;2011-07-23 12:00;CYQF 231200Z 24005KT 15SM MIFG FEW080 FEW240 05/05 A2991 RMK AC2CI1 SLP148

CYQF;2011-07-23 13:00;CYQF 231300Z 00000KT 15SM SCT080 BKN250 07/07 A2992 RMK AC2CI2 SLP150

CYQF;2011-07-23 14:00;CYQF 231400Z 23003KT 15SM SCT080 BKN250 10/09 A2993 RMK AC4CI2 SLP155

CYQF;2011-07-23 15:00;CYQF 231500Z 28002KT 15SM FEW010 BKN100 BKN250 10/09 A2994 RMK SF1AC4CI2 SLP153

CYQF;2011-07-23 16:00;CYQF 231600Z 00000KT 15SM FEW010 BKN100 BKN250 11/09 A2994 RMK CF1AC4CI2 SLP154

CYQF;2011-07-23 17:00;CYQF 231700Z 00000KT 15SM FEW015 FEW100 BKN250 14/09 A2994 RMK CU1AC1CI2 SLP154

CYQF;2011-07-23 18:00;CYQF 231800Z 00000KT 15SM FEW020 BKN250 15/10 A2994 RMK CU2CI2 SLP150

CYQF;2011-07-23 19:00;CYQF 231900Z 27003KT 15SM SCT030 BKN250 16/09 A2993 RMK CU4CI0 SLP149

CYQF;2011-07-23 20:00;CYQF 232000Z 27005KT 15SM FEW035 SCT250 17/08 A2993 RMK CU2CI1 SLP149

CYQF;2011-07-23 21:00;CYQF 232100Z 26008KT 15SM FEW040 FEW100 SCT250 18/08 A2994 RMK CU2AC1CI0 FEW TCU SLP151

CYQF;2011-07-23 22:00;CYQF 232200Z 30003KT 15SM VCSH SCT040TCU BKN100 19/09 A2995 RMK TCU4AC1 CB NW SLP153

CYQF;2011-07-23 22:08;CYQF 232208Z 34010KT 15SM -SHRA BKN040CB BKN100 RMK CB5AC1

CYQF;2011-07-23 22:16;CYQF 232216Z 34015KT 15SM -TSRA BKN040CB BKN100 RMK CB6AC1 VIS N 6

CYQF;2011-07-23 22:42;CYQF 232242Z 00000KT 15SM -SHRA BKN040CB BKN100 BKN250 RETSRA RMK CB5AC1CI1

CYQF;2011-07-23 22:49;CYQF 232249Z 00000KT 15SM SCT040CB BKN100 BKN250 RETSRA RMK CB3AC2CI1

CYQF;2011-07-23 23:00;CYQF 232300Z 27003KT 15SM FEW040CB SCT100 SCT250 15/11 A2998 RETSRA RMK CB2AC1CI1 SLP165

CYQF;2011-07-24 00:00;CYQF 240000Z 24002KT 15SM SCT040TCU BKN100 BKN250 17/10 A2999 RMK TCU3AC2CI1 SLP172

CYQF;2011-07-24 01:00;CYQF 240100Z 36003KT 15SM FEW040 BKN080 17/09 A3001 RMK CU2AC4 SLP176

CYQF;2011-07-24 02:00;CYQF 240200Z 00000KT 15SM BKN040 17/08 A3001 RMK SC6 SLP178

CYQF;2011-07-24 03:00;CYQF 240300Z 00000KT 15SM BKN040 16/08 A3002 RMK SC6 SLP177

CYQF;2011-07-24 04:00;CYQF 240400Z 00000KT 15SM BKN040 15/11 A3003 RMK SC7 SLP181

CYQF;2011-07-24 05:00;CYQF 240500Z 00000KT 15SM BKN040 14/12 A3005 RMK SC6 SLP185

CYQF;2011-07-24 06:00;CYQF 240600Z 24004KT 15SM SCT040 BKN075 13/11 A3005 RMK SC3AC2 SLP185

CYQF;2011-07-24 07:00;CYQF 240700Z 22005KT 15SM FEW040 FEW080 11/10 A3005 RMK SC1AC2 SLP186

CYQF;2011-07-24 08:00;CYQF 240800Z 22005KT 15SM FEW040 SCT100 10/09 A3005 RMK SC1AC2 SLP187

CYQF;2011-07-24 09:00;CYQF 240900Z 17002KT 15SM BKN100 10/10 A3005 RMK AC2 SLP185

CYQF;2011-07-24 10:00;CYQF 241000Z 18002KT 15SM SCT100 09/09 A3005 RMK AC2 SLP186

CYQF;2011-07-24 11:00;CYQF 241100Z 20006KT 15SM FEW100 FEW240 08/08 A3005 RMK AC1CI1 SLP187

CYQF;2011-07-24 12:00;CYQF 241200Z 20003KT 15SM FEW100 FEW250 08/07 A3006 RMK AC1CI1 SLP194

CYQF;2011-07-24 13:00;CYQF 241300Z 21005KT 15SM FEW100 FEW250 08/08 A3008 RMK AC1CI1 SLP198

CYQF;2011-07-24 14:00;CYQF 241400Z 22005KT 15SM FEW100 FEW250 11/09 A3008 RMK AC1CI1 SLP200

CYQF;2011-07-24 15:00;CYQF 241500Z 20005KT 15SM FEW250 14/09 A3009 RMK CI0 SLP196

CYQF;2011-07-24 16:00;CYQF 241600Z 26003KT 15SM FEW100 FEW250 17/10 A3009 RMK AC1CI0 SLP196

CYQF;2011-07-24 17:00;CYQF 241700Z 23002KT 15SM FEW100 FEW250 18/10 A3008 RMK AC1CI0 SLP194

CYQF;2011-07-24 18:00;CYQF 241800Z 00000KT 15SM FEW050 SCT250 20/09 A3007 RMK CU1CI1 SLP186

CYQF;2011-07-24 19:00;CYQF 241900Z 19005KT 15SM FEW050 BKN250 21/08 A3006 RMK CU1CI2 SLP183

CYQF;2011-07-24 20:00;CYQF 242000Z 20008KT 15SM FEW055 BKN250 22/08 A3005 RMK CU1CI2 SLP179

CYQF;2011-07-24 21:00;CYQF 242100Z 16006KT 15SM FEW050 BKN250 22/09 A3004 RMK CU1CI2 SLP175

CYQF;2011-07-24 22:00;CYQF 242200Z 14007KT 15SM FEW056 BKN250 23/09 A3003 RMK CU1CI6 SLP172

CYQF;2011-07-24 23:00;CYQF 242300Z 14006KT 15SM FEW056 BKN250 23/08 A3001 RMK CU1CI5 SLP168

CYQF;2011-07-25 00:00;CYQF 250000Z 15008KT 15SM FEW060 FEW250 23/10 A3001 RMK CU1CI1 SLP168

CYQF;2011-07-25 01:00;CYQF 250100Z 12009KT 15SM FEW060 FEW250 23/11 A3000 RMK CU1CI1 SLP165

CYQF;2011-07-25 02:00;CYQF 250200Z 13006KT 15SM FEW060 FEW250 22/12 A2999 RMK CU1CI1 SLP163

CYQF;2011-07-25 03:00;CYQF 250300Z 12004KT 15SM FEW060 FEW250 20/12 A2999 RMK CU1CI1 SLP158

CYQF;2011-07-25 04:00;CYQF 250400Z 08004KT 15SM FEW060 FEW250 18/12 A2999 RMK SC1CI1 SLP159

CYQF;2011-07-25 05:00;CYQF 250500Z 00000KT 15SM FEW060 FEW250 16/12 A2999 RMK SC1CI1 SLP159

CYQF;2011-07-25 06:00;CYQF 250600Z 00000KT 15SM SKC 15/11 A3000 RMK SLP159

CYQF;2011-07-25 07:00;CYQF 250700Z 00000KT 15SM SKC 12/10 A3000 RMK SLP159

CYQF;2011-07-25 08:00;CYQF 250800Z 32004KT 15SM SKC 11/10 A2999 RMK SLP156

CYQF;2011-07-25 09:00;CYQF 250900Z 00000KT 15SM SKC 11/10 A2998 RMK SLP155

CYQF;2011-07-25 10:00;CYQF 251000Z 16003KT 15SM SKC 10/09 A2997 RMK SLP153

CYQF;2011-07-25 11:00;CYQF 251100Z 20003KT 15SM SKC 09/08 A2997 RMK SLP152

CYQF;2011-07-25 12:00;CYQF 251200Z 19004KT 15SM SKC 09/08 A2997 RMK MIFG SLP154

CYQF;2011-07-25 13:00;CYQF 251300Z 00000KT 15SM SKC 10/09 A2997 RMK SLP153

CYQF;2011-07-25 14:00;CYQF 251400Z 00000KT 15SM SKC 12/11 A2996 RMK SLP151

CYQF;2011-07-25 15:00;CYQF 251500Z 00000KT 15SM FEW100 FEW250 15/13 A2995 RMK AC1CI1 SLP145

CYQF;2011-07-25 16:00;CYQF 251600Z 00000KT 15SM FEW100 FEW250 19/14 A2995 RMK AC1CI1 SLP143

CYQF;2011-07-25 17:00;CYQF 251700Z 17002KT 15SM FEW100 FEW250 21/15 A2993 RMK AC1CI0 SLP138

CYQF;2011-07-25 18:00;CYQF 251800Z 14002KT 15SM FEW040 FEW100 SCT260 23/13 A2991 RMK CU1AC1CI1 SLP128

CYQF;2011-07-25 19:00;CYQF 251900Z 13008KT 15SM FEW048TCU BKN260 25/13 A2989 RMK TCU1CI6 SLP122

CYQF;2011-07-25 20:00;CYQF 252000Z 13008KT 15SM FEW050 FEW100 BKN260 26/13 A2987 RMK CU1AC1CI2 TCU W SLP115

CYQF;2011-07-25 21:00;CYQF 252100Z 13012G17KT 15SM FEW050TCU BKN260 26/14 A2985 RMK TCU1CI6 SLP109

CYQF;2011-07-25 22:00;CYQF 252200Z 13012G17KT 15SM FEW056TCU BKN260 26/12 A2983 RMK TCU1CI5 SLP102

CYQF;2011-07-25 23:00;CYQF 252300Z 13010G15KT 15SM FEW060CB FEW120 BKN260 25/12 A2981 RMK CB1AC2CI1 CC ASOCTD SLP094

CYQF;2011-07-26 00:00;CYQF 260000Z 13012KT 15SM FEW060 FEW120 SCT260 25/12 A2979 RMK CU1AC1CI1 CC ASOCTD SLP089

CYQF;2011-07-26 01:00;CYQF 260100Z 11008KT 15SM FEW060 BKN120 BKN260 24/16 A2976 RMK SC1AC6CI1 SLP082

CYQF;2011-07-26 02:00;CYQF 260200Z 00000KT 15SM FEW040 BKN100 BKN260 22/15 A2975 RMK CU2AC2CI1 SLP076

CYQF;2011-07-26 03:00;CYQF 260300Z 00000KT 15SM FEW025CB BKN080 BKN260 21/15 A2974 RMK CB2AC3CI1 LTNG W SLP070

CYQF;2011-07-26 04:00;CYQF 260400Z 28005KT 15SM FEW025CB BKN080 BKN260 20/14 A2976 RMK CB2AC3CI1 LTNG W SLP074

CYQF;2011-07-26 05:00;CYQF 260500Z 35005KT 15SM SCT025CB BKN080 BKN250 17/13 A2975 RMK CB3AC2CI1 LTGCG N SLP073

CYQF;2011-07-26 06:00;CYQF 260600Z 33010KT 15SM SCT025CB BKN080 BKN250 17/13 A2975 RMK CB3AC2CI1 LTNG DIST N SLP069

CYQF;2011-07-26 07:00;CYQF 260700Z 31004KT 15SM SCT025TCU BKN080 BKN250 16/13 A2974 RMK TCU3AC2CI1 LTNG DIST N SLP066

CYQF;2011-07-26 08:00;CYQF 260800Z 32012KT 15SM FEW030 BKN060 16/13 A2974 RMK SC2SC5 SLP067

CYQF;2011-07-26 08:20;CYQF 260820Z 34012KT 15SM -RA FEW030 BKN060 RMK SC2SC5 LTGCG NE CB ASOCTD

CYQF;2011-07-26 08:31;CYQF 260831Z 06012KT 15SM -TSRA SCT030CB OVC060 RMK CB3SC5 LTGCG NW+N+NE

CYQF;2011-07-26 09:00;CYQF 260900Z 01010G16KT 15SM -TSRA SCT030CB OVC060 15/12 A2972 RMK CB3SC5 LTGCG N SLP059

CYQF;2011-07-26 10:00;CYQF 261000Z CCA 35007KT 10SM +TSRA BKN030CB OVC060 13/13 A2972 RMK CB5SC3 LTGCCCG N + LGTIC OVRHD SLP059

CYQF;2011-07-26 11:00;CYQF 261100Z 31004KT 10SM +TSRA BKN030CB OVC060 13/13 A2972 RMK CB6SC2 SLP059

CYQF;2011-07-26 11:30;CYQF 261130Z 35008KT 15SM -SHRA BKN030CB OVC060 RMK CB5SC3 LTGCG N RETS RERA

CYQF;2011-07-26 11:40;CYQF 261140Z 32006KT 10SM -SHRA FEW008 BKN030CB OVC060 RMK SF2CB4SC2 LTGCG N RETS RERA

CYQF;2011-07-26 12:00;CYQF 261200Z CCA 32012KT 10SM -SHRA SCT008 OVC030TCU 13/13 A2972 RMK SF3TCU5 RETS RERA /R20/ CB ASOCTD SLP061

CYQF;2011-07-26 13:00;CYQF 261300Z 32012KT 10SM -SHRA BKN008 OVC030TCU 13/13 A2973 RMK SF5TCU3 CB ASOCTD SLP063

CYQF;2011-07-26 14:00;CYQF 261400Z 34005KT 12SM SCT008 OVC030 13/13 A2972 RMK SF3SC5 OCNL -SHRA SLP060

CYQF;2011-07-26 14:42;CYQF 261442Z 33006KT 12SM -SHRA BKN006 OVC040 RMK SF5SC3 VIS N 6

CYQF;2011-07-26 15:00;CYQF 261500Z 32006KT 6SM -SHRA BR BKN006 OVC040 13/13 A2972 RMK SF5SC3 CIG RAG SLP064

CYQF;2011-07-26 16:00;CYQF 261600Z 34012KT 15SM -SHRA SCT006 BKN035 13/13 A2973 RMK SF4SC3 SLP068

CYQF;2011-07-26 17:00;CYQF 261700Z 33010KT 15SM -SHRA SCT006 BKN030 OVC060 14/12 A2974 RMK SF3SC2SC2 SLP070

CYQF;2011-07-26 18:00;CYQF 261800Z 32012KT 15SM -SHRA FEW008 SCT030 BKN080 15/13 A2974 RMK CU2SC2AS2 TCU ASOCTD LWR LYR SLP074

CYQF;2011-07-26 19:00;CYQF 261900Z 36010G15KT 15SM -SHRA FEW008 SCT030 BKN080 15/11 A2975 RMK CU2SC2AS2 TCU ASOCTD SLP076

CYQF;2011-07-26 19:10;CYQF 261910Z 35010G15KT 15SM VCSH FEW008 SCT030 BKN080 RMK CU2SC2AS2 TCU ASOCTD

CYQF;2011-07-26 20:00;CYQF 262000Z 01010G15KT 15SM -SHRA SCT020TCU BKN050 OVC080 16/11 A2976 RMK TCU3SC3AC1 SLP079

CYQF;2011-07-26 21:00;CYQF 262100Z CCA 33005KT 15SM VCSH FEW020TCU BKN080 OVC260 15/12 A2976 RERA RMK TCU2AC2CI1 SLP083

CYQF;2011-07-26 22:00;CYQF 262200Z 32005KT 15SM FEW020 SCT080 BKN260 17/13 A2975 RMK CU2AC1CI2 SLP080

CYQF;2011-07-26 23:00;CYQF 262300Z 25003KT 15SM SCT020 BKN090 BKN260 19/14 A2975 RMK CU4AC1CI0 FEW TCU SLP080

CYQF;2011-07-27 00:00;CYQF 270000Z 35005KT 15SM VCSH SCT030 BKN090 BKN260 19/12 A2975 RMK CU3AC2CI1 CB S SLP077

CYQF;2011-07-27 01:00;CYQF 270100Z 00000KT 15SM TS VCSH SCT025CB BKN090 BKN260 19/13 A2975 RMK CB3AC2CI1 SLP078

CYQF;2011-07-27 01:49;CYQF 270149Z 32010G15KT 15SM VCSH BKN025CB BKN090 OVC260 RMK CB5AC2CI1 RETS LTGCG SE

CYQF;2011-07-27 02:00;CYQF 270200Z 36008KT 15SM VCSH FEW025CB BKN070 OVC260 14/12 A2978 RMK CB2AC4CI1 RETS SLP086

CYQF;2011-07-27 03:00;CYQF 270300Z 23010KT 15SM -SHRA FEW025CB BKN090 BKN260 14/13 A2980 RMK CB2AC4CI1 SLP099

CYQF;2011-07-27 04:00;CYQF 270400Z 23008KT 15SM FEW020 BKN090 BKN250 13/12 A2980 RMK CU1AC4CI1 SLP101

CYQF;2011-07-27 05:00;CYQF 270500Z 23005KT 15SM FEW020 FEW090 SCT260 12/12 A2981 RMK SC1AC2CI0 SLP104

CYQF;2011-07-27 06:00;CYQF 270600Z 23007KT 15SM FEW080 SCT260 12/11 A2982 RMK AC2CI0 SLP106

CYQF;2011-07-27 07:00;CYQF 270700Z 22006KT 15SM FEW080 SCT260 11/10 A2981 RMK AC2CI0 SLP104

CYQF;2011-07-27 08:00;CYQF 270800Z 25008KT 15SM FEW080 SCT250 12/11 A2980 RMK AC2CI0 SLP101

CYQF;2011-07-27 09:00;CYQF 270900Z 00000KT 15SM FEW080 SCT260 12/10 A2982 RMK AC2CI0 SLP108

CYQF;2011-07-27 10:00;CYQF 271000Z 30006KT 15SM SCT080 BKN260 12/10 A2982 RMK AC3CI0 SLP107

CYQF;2011-07-27 11:00;CYQF 271100Z 00000KT 15SM FEW040 SCT080 BKN260 12/10 A2983 RMK SC2AC2CI0 SLP111

CYQF;2011-07-27 12:00;CYQF 271200Z 26010KT 15SM SCT040 BKN080 12/10 A2986 RMK SC4AC2 SLP116

CYQF;2011-07-27 12:48;CYQF 271248Z 24008KT 15SM -RA BKN040 BKN080 RMK SC5AC2

CYQF;2011-07-27 13:00;CYQF 271300Z 26010KT 10SM -RA BKN040 BKN080 12/10 A2988 RMK SC5AC2 SLP123

CYQF;2011-07-27 14:00;CYQF 271400Z 22005KT 6SM +RA BR BKN020 OVC080 11/10 A2989 RMK SC6AC2 SLP126

CYQF;2011-07-27 14:52;CYQF 271452Z 19003KT 15SM FEW020 BKN060 RMK SC2SC4 RERA

CYQF;2011-07-27 15:00;CYQF 271500Z CCA 18004KT 15SM FEW020 BKN060 12/11 A2990 RMK SC2SC4 RERA SLP135

CYQF;2011-07-27 16:00;CYQF 271600Z 24008KT 15SM BKN030 BKN060 12/11 A2991 RMK SC5SC2 SLP138

CYQF;2011-07-27 17:00;CYQF 271700Z 29005KT 15SM VCSH FEW010 BKN060 13/11 A2990 RMK CU1SC6 SLP137

CYQF;2011-07-27 18:00;CYQF 271800Z 22005KT 15SM FEW020CB BKN070 15/09 A2989 RMK CB1AC3 VIRGA SLP133

CYQF;2011-07-27 19:00;CYQF 271900Z 28006KT 15SM FEW032 FEW070 17/09 A2989 RMK CU2AC1 CB DIST W SLP133

CYQF;2011-07-27 20:00;CYQF 272000Z 26007KT 15SM BKN032 18/10 A2989 RMK CU5 SLP132

CYQF;2011-07-27 21:00;CYQF 272100Z 27007KT 15SM BKN036 BKN250 19/10 A2989 RMK CU5CI1 TCU ASOCTD CB DIST NW SLP127

CYQF;2011-07-27 22:00;CYQF 272200Z 26005KT 15SM VCSH BKN032CB BKN090 BKN260 18/11 A2989 RMK CB5AC2CI1 HVY SH SW SLP128

CYQF;2011-07-27 22:25;CYQF 272225Z 24011G18KT 10SM -SHRA BKN030CB BKN080 BKN260 RMK CB6AC1CI1 HVY SH SW

CYQF;2011-07-27 23:00;CYQF 272300Z 24010G15KT 12SM -SHRA BKN030CB BKN090 BKN270 14/08 A2991 RMK CB5AC1CI1 HVY SH S SLP132

CYQF;2011-07-27 23:10;CYQF 272310Z 24010KT 15SM VCSH SCT030CB BKN090 BKN270 RMK CB4AC2CI1

CYQF;2011-07-28 00:00;CYQF 280000Z 29010KT 15SM FEW030CB BKN090 BKN270 17/10 A2991 RMK CB2AC2CI1 SLP135

CYQF;2011-07-28 01:00;CYQF 280100Z 25002KT 15SM FEW030CB BKN090 BKN270 16/11 A2990 RMK CB1AC4CI1 SH DIST SW SLP134

CYQF;2011-07-28 02:00;CYQF 280200Z 27007KT 15SM FEW030CB SCT090 BKN270 16/10 A2992 RMK CB1AC1CI1 SLP140

CYQF;2011-07-28 03:00;CYQF 280300Z 24005KT 15SM FEW020CB BKN090 BKN270 15/11 A2993 RMK CB1AC4CI1 SLP145

CYQF;2011-07-28 04:00;CYQF 280400Z 22005KT 15SM SCT090 BKN270 13/11 A2995 RMK AC3CI0 SLP151

CYQF;2011-07-28 05:00;CYQF 280500Z 23007KT 15SM SCT090 BKN270 12/11 A2997 RMK AC3CI0 SLP157

CYQF;2011-07-28 06:00;CYQF 280600Z 24008KT 15SM SCT090 BKN270 12/11 A2998 RMK AC4CI0 SLP161

CYQF;2011-07-28 07:00;CYQF 280700Z 24005KT 15SM BKN090 BKN270 13/11 A2998 RMK AC5CI0 SLP162

CYQF;2011-07-28 08:00;CYQF 280800Z 23007KT 15SM BKN090 BKN270 12/11 A2999 RMK AC5CI0 SLP164

CYQF;2011-07-28 09:00;CYQF 280900Z 27006KT 15SM BKN090 BKN270 12/11 A2999 RMK AC5CI0 SLP163

CYQF;2011-07-28 10:00;CYQF 281000Z 29003KT 15SM SCT090 BKN270 12/11 A3001 RMK AC4CI0 SLP167

CYQF;2011-07-28 11:00;CYQF 281100Z 00000KT 15SM BKN090 BKN270 12/10 A3002 RMK AC5CI1 SLP171

CYQF;2011-07-28 12:00;CYQF 281200Z 26005KT 15SM SCT090 BKN270 10/09 A3003 RMK AC4CI1 SLP181

CYQF;2011-07-28 13:00;CYQF 281300Z 00000KT 15SM FEW110 BKN270 11/10 A3004 RMK AC1CI2 SLP184

CYQF;2011-07-28 14:00;CYQF 281400Z 00000KT 15SM FEW110 BKN270 13/10 A3005 RMK AC1CI4 SLP188

CYQF;2011-07-28 15:00;CYQF 281500Z 00000KT 15SM FEW110 BKN270 15/09 A3005 RMK AC1CI3 SLP185

CYQF;2011-07-28 16:00;CYQF 281600Z 00000KT 15SM FEW110 BKN270 16/10 A3005 RMK AC1CI4 SLP184

CYQF;2011-07-28 17:00;CYQF 281700Z 17005KT 15SM FEW030 BKN270 18/10 A3005 RMK CU1CI7 SLP182

CYQF;2011-07-28 18:00;CYQF 281800Z 18008KT 15SM FEW030 BKN270 19/10 A3004 RMK CU1CI3 SLP179

CYQF;2011-07-28 19:00;CYQF 281900Z 18009KT 15SM FEW040 FEW270 20/10 A3003 RMK CU1CI1 SLP175

CYQF;2011-07-28 20:00;CYQF 282000Z 17007KT 15SM FEW048 SCT270 20/08 A3002 RMK CU2CI0 SLP173

CYQF;2011-07-28 21:00;CYQF 282100Z 15003KT 15SM FEW050 SCT270 21/08 A3001 RMK CU2CI0 SLP166

CYQF;2011-07-28 22:00;CYQF 282200Z 16003KT 15SM FEW050 SCT270 22/08 A3000 RMK CU1CI0 SLP162

CYQF;2011-07-28 23:00;CYQF 282300Z 15005KT 15SM FEW055 SCT270 22/08 A2999 RMK CU2CI1 SLP159

CYQF;2011-07-29 00:00;CYQF 290000Z 15008KT 15SM FEW050 FEW100 BKN270 22/10 A2997 RMK CU1AC2CI1 SLP155

CYQF;2011-07-29 01:00;CYQF 290100Z 15008KT 15SM FEW045 SCT100 BKN270 21/10 A2995 RMK CU2AC2CI1 SLP148

CYQF;2011-07-29 02:00;CYQF 290200Z 14006KT 15SM FEW045 SCT100 BKN250 20/12 A2993 RMK CU2AC2CI2 SLP142

CYQF;2011-07-29 03:00;CYQF 290300Z 16010KT 15SM FEW030 FEW100 SCT250 18/13 A2991 RMK CU1AC1CI1 SLP133

CYQF;2011-07-29 04:00;CYQF 290400Z 18006KT 15SM FEW030CB FEW100 16/12 A2991 RMK CB2AC1 LTNG N SLP133

CYQF;2011-07-29 05:00;CYQF 290500Z 13006KT 15SM FEW030CB FEW100 14/12 A2991 RMK CB2AC1 LGTCG N SLP131

CYQF;2011-07-29 06:00;CYQF 290600Z 00000KT 15SM FEW030 FEW100 13/11 A2990 RMK SC1AC1 SLP129

CYQF;2011-07-29 07:00;CYQF 290700Z 18003KT 15SM FEW090 12/10 A2990 RMK AC1 SLP130

CYQF;2011-07-29 08:00;CYQF 290800Z 33006KT 15SM FEW090 12/11 A2990 RMK AC2 SLP129

CYQF;2011-07-29 09:00;CYQF 290900Z 30004KT 15SM FEW090 12/11 A2990 RMK AC2 SLP130

CYQF;2011-07-29 10:00;CYQF 291000Z 22003KT 15SM SCT090 12/11 A2989 RMK AC4 SLP125

CYQF;2011-07-29 11:00;CYQF 291100Z 26004KT 15SM SCT050 BKN250 13/10 A2990 RMK SC4CI0 SLP128

CYQF;2011-07-29 12:00;CYQF 291200Z 22006KT 15SM FEW050 BKN250 11/10 A2991 RMK SC2CI1 SLP133

CYQF;2011-07-29 13:00;CYQF 291300Z 30005KT 15SM FEW050 BKN250 12/10 A2992 RMK SC2CI1 VIRGA SLP134

CYQF;2011-07-29 14:00;CYQF 291400Z 32013KT 15SM BKN060 BKN250 13/11 A2992 RMK SC5CI0 SLP134

CYQF;2011-07-29 15:00;CYQF 291500Z 33007KT 15SM FEW060 FEW090 SCT260 14/11 A2991 RMK SC2AC1CI0 SLP134

CYQF;2011-07-29 16:00;CYQF 291600Z 36006KT 15SM BKN080 BKN260 16/09 A2991 RMK AC3CI0 SLP133

CYQF;2011-07-29 17:00;CYQF 291700Z 35006KT 15SM BKN080 BKN260 16/10 A2991 RMK AC5CI0 VIRGA SLP134

CYQF;2011-07-29 18:00;CYQF 291800Z 33005KT 15SM FEW030 BKN060 BKN260 17/10 A2991 RMK CU1SC5CI1 SLP135

CYQF;2011-07-29 19:00;CYQF 291900Z 00000KT 15SM FEW030 BKN060 BKN260 17/10 A2991 RMK CU1SC5CI1 CB DSTNT NW SLP135

CYQF;2011-07-29 20:00;CYQF 292000Z 00000KT 15SM FEW040TCU SCT060 BKN260 19/09 A2989 RMK TCU2SC2CI2 CB DIST NW SLP130

CYQF;2011-07-29 21:00;CYQF 292100Z 00000KT 15SM SCT040CB BKN060 BKN260 20/10 A2989 RMK CB3SC2CI1 SLP126

CYQF;2011-07-29 21:31;CYQF 292131Z 27008KT 15SM TS BKN040CB BKN260 RMK CB5CI2

CYQF;2011-07-29 21:51;CYQF 292151Z 01015G25KT 15SM -TSRA BKN040CB RMK CB7

CYQF;2011-07-29 22:00;CYQF 292200Z 01012G22KT 15SM -TSRA BKN040CB 14/09 A2992 RMK CB7 SLP134

CYQF;2011-07-29 22:36;CYQF 292236Z 36008KT 15SM SCT040CB BKN250 RETS RMK CB4CI2

CYQF;2011-07-29 23:00;CYQF 292300Z 01010G15KT 15SM VCSH BKN040 BKN250 14/10 A2994 RETS RMK SC6CI1 CB EMBDD SLP141

CYQF;2011-07-29 23:18;CYQF 292318Z CCA 03005KT 15SM TS VCSH BKN040 RMK SC7 CB EMBDD

CYQF;2011-07-29 23:43;CYQF 292343Z 02010G15KT 15SM VCSH BKN040 RETS RMK SC6 CB EMBDD

CYQF;2011-07-30 00:00;CYQF 300000Z 02008KT 15SM BKN040 15/09 A2994 RETS RMK SC6 CB EMBDD SLP147

CYQF;2011-07-30 01:00;CYQF 300100Z 02005KT 15SM FEW040CB FEW280 16/09 A2994 RMK CB2CI1 CB DIST SLP149

CYQF;2011-07-30 02:00;CYQF 300200Z 00000KT 15SM FEW040 16/08 A2995 RMK CU1 SLP150

CYQF;2011-07-30 03:00;CYQF 300300Z 00000KT 15SM FEW040 15/09 A2997 RMK SC1 SLP158

CYQF;2011-07-30 04:00;CYQF 300400Z 20003KT 15SM FEW040 FEW250 11/09 A2999 RMK SC1CI1 SLP162

CYQF;2011-07-30 05:00;CYQF 300500Z 16003KT 15SM FEW040 FEW250 11/10 A3000 RMK SC1CI1 SLP166

CYQF;2011-07-30 06:00;CYQF 300600Z 20005KT 15SM SKC 09/08 A3001 RMK SLP174

CYQF;2011-07-30 07:00;CYQF 300700Z 19004KT 15SM SKC 08/07 A3002 RMK SLP177

CYQF;2011-07-30 08:00;CYQF 300800Z 21006KT 15SM SKC 08/07 A3003 RMK SLP181

CYQF;2011-07-30 09:00;CYQF 300900Z 18004KT 15SM SKC 08/07 A3003 RMK SLP178

CYQF;2011-07-30 10:00;CYQF 301000Z 19003KT 15SM SKC 07/06 A3003 RMK SLP179

CYQF;2011-07-30 11:00;CYQF 301100Z 17002KT 15SM FEW250 07/06 A3003 RMK CI1 SLP179

CYQF;2011-07-30 12:00;CYQF 301200Z 19004KT 15SM FEW250 06/06 A3004 RMK CI1 SLP187

CYQF;2011-07-30 13:00;CYQF 301300Z 18005KT 15SM FEW250 07/07 A3003 RMK CI1 SLP185

CYQF;2011-07-30 14:00;CYQF 301400Z 18005KT 15SM FEW250 10/09 A3003 RMK CI1 SLP185

CYQF;2011-07-30 15:00;CYQF 301500Z 17004KT 15SM SKC 14/10 A3002 RMK SLP174

CYQF;2011-07-30 16:00;CYQF 301600Z 16010KT 15SM SKC 17/11 A3000 RMK SLP168

CYQF;2011-07-30 17:00;CYQF 301700Z 17010G15KT 15SM SKC 19/11 A2998 RMK SLP163

CYQF;2011-07-30 18:00;CYQF 301800Z 16015G20KT 15SM SKC 21/11 A2996 RMK SLP153

CYQF;2011-07-30 19:00;CYQF 301900Z 16010G18KT 15SM SKC 22/11 A2994 RMK SLP145

CYQF;2011-07-30 20:00;CYQF 302000Z 17013G20KT 15SM SKC 22/12 A2991 RMK SLP138

CYQF;2011-07-30 21:00;CYQF 302100Z 16010G15KT 15SM SKC 23/11 A2990 RMK SLP130

CYQF;2011-07-30 22:00;CYQF 302200Z 16010G15KT 15SM SKC 24/11 A2988 RMK SLP123

CYQF;2011-07-30 23:00;CYQF 302300Z 14012G17KT 15SM SKC 24/10 A2985 RMK SLP116

CYQF;2011-07-31 00:00;CYQF 310000Z 14010G15KT 15SM SKC 24/11 A2984 RMK SLP109

CYQF;2011-07-31 01:00;CYQF 310100Z 14010KT 15SM SKC 24/13 A2983 RMK SLP107

CYQF;2011-07-31 02:00;CYQF 310200Z 14005KT 15SM SKC 21/14 A2981 RMK SLP100

CYQF;2011-07-31 03:00;CYQF 310300Z 14004KT 15SM SKC 20/14 A2980 RMK SLP091

CYQF;2011-07-31 04:00;CYQF 310400Z 16004KT 15SM SKC 18/13 A2980 RMK SLP092

CYQF;2011-07-31 05:00;CYQF 310500Z 18003KT 15SM SKC 16/12 A2980 RMK SLP091

CYQF;2011-07-31 06:00;CYQF 310600Z 00000KT 15SM SKC 15/12 A2980 RMK SLP091

CYQF;2011-07-31 07:00;CYQF 310700Z 00000KT 15SM SKC 14/11 A2979 RMK SLP089

CYQF;2011-07-31 08:00;CYQF 310800Z 21002KT 15SM SKC 11/10 A2979 RMK SLP087

CYQF;2011-07-31 09:00;CYQF 310900Z 16002KT 15SM SKC 10/10 A2978 RMK SLP088

CYQF;2011-07-31 10:00;CYQF 311000Z 21004KT 15SM SKC 10/09 A2978 RMK SLP087

CYQF;2011-07-31 11:00;CYQF 311100Z 12005KT 15SM FEW080 11/09 A2978 RMK AC1 SLP088

CYQF;2011-07-31 12:00;CYQF 311200Z 18004KT 15SM FEW100 10/09 A2978 RMK AC1 SLP084

CYQF;2011-07-31 13:00;CYQF 311300Z 19003KT 15SM FEW100 11/10 A2977 RMK AC2 SLP083

CYQF;2011-07-31 14:00;CYQF 311400Z 32002KT 15SM FEW100 SCT250 15/11 A2979 RMK AC1CI1 SLP089

CYQF;2011-07-31 15:00;CYQF 311500Z 00000KT 15SM FEW100 SCT250 18/12 A2980 RMK AC1CI2 CC ASOCTD SLP087

CYQF;2011-07-31 16:00;CYQF 311600Z 35005KT 15SM FEW080 SCT250 19/13 A2980 RMK AC1CI1 SLP087

CYQF;2011-07-31 17:00;CYQF 311700Z 30008KT 15SM FEW020 19/14 A2980 RMK CU1 SLP088

CYQF;2011-07-31 18:00;CYQF 311800Z 34008KT 15SM FEW020 19/14 A2981 RMK SC2 CU SLP094

CYQF;2011-07-31 19:00;CYQF 311900Z 02008KT 15SM FEW020 FEW080 20/15 A2980 RMK CU1AC2 SLP093

CYQF;2011-07-31 20:00;CYQF 312000Z 02006KT 15SM FEW020 FEW080 22/14 A2979 RMK CU1AC2 SLP090

CYQF;2011-07-31 21:00;CYQF 312100Z 03004KT 15SM FEW028 FEW080 23/16 A2979 RMK CU1AC1 SLP090

CYQF;2011-07-31 22:00;CYQF 312200Z 03010G15KT 15SM FEW028 FEW080 23/16 A2978 RMK CU1AC2 SLP087

CYQF;2011-07-31 23:00;CYQF 312300Z 03010G15KT 15SM FEW025 FEW080 22/16 A2978 RMK CU1AC1 SLP086

CYQF;2011-08-01 01:00;CYQF 010100Z 36012G20KT 15SM VCSH SCT025TCU BKN080 21/16 A2977 RMK TCU3AC2 SLP085

CYQF;2011-08-01 01:09;CYQF 010109Z 01008KT 15SM -TSRA BKN025CB RMK CB5

CYQF;2011-08-01 01:36;CYQF 010136Z 02012G18KT 15SM VCSH BKN025CB BKN250 RETS RMK CB6CI1

CYQF;2011-08-01 02:00;CYQF 010200Z 35010KT 15SM FEW015 BKN030CB BKN100 19/15 A2976 RETS RMK SF1CB4AC2 SLP083

CYQF;2011-08-01 03:00;CYQF 010300Z 34007KT 15SM BKN025CB BKN100 18/15 A2978 RMK CB5AC2 SLP085

CYQF;2011-08-01 03:11;CYQF 010311Z 34008KT 15SM TS VCSH BKN025CB BKN100 RMK CB6AC1

CYQF;2011-08-01 03:46;CYQF 010346Z 35010KT 15SM SCT025CB RETS RMK CB3 LTGCG N

CYQF;2011-08-01 04:00;CYQF 010400Z 35010G15KT 15SM SCT025TCU 17/14 A2982 RETS RMK TCU4 CB LTNG N SLP095

CYQF;2011-08-01 05:00;CYQF 010500Z 35008KT 15SM SCT025TCU BKN100 17/12 A2984 RMK TCU3AC2 SLP102

CYQF;2011-08-01 06:00;CYQF 010600Z 33004KT 15SM FEW025 SCT100 13/12 A2986 RMK SC2AC2 TCU ASOCTD SLP116

CYQF;2011-08-01 07:00;CYQF 010700Z 30003KT 15SM FEW025 BKN100 13/11 A2987 RMK SC2AC3 SLP118

CYQF;2011-08-01 08:00;CYQF 010800Z 19004KT 15SM FEW025 BKN100 12/11 A2990 RMK SC2AC3 SLP126

CYQF;2011-08-01 09:00;CYQF 010900Z 29007KT 15SM FEW100 11/10 A2989 RMK AC2 SLP122

CYQF;2011-08-01 10:00;CYQF 011000Z 24002KT 15SM FEW100 11/10 A2989 RMK AC2 SLP124

CYQF;2011-08-01 10:33;CYQF 011033Z 18003KT 15SM -RA SCT060 BKN100 RMK SC4AC2

CYQF;2011-08-01 11:00;CYQF 011100Z 24003KT 15SM -RA BKN060 BKN090 11/11 A2992 RMK SC5AC1 SLP133

CYQF;2011-08-01 11:27;CYQF 011127Z 25007KT 15SM BKN050 BKN090 RMK SC5AC1 CB TOP DIST NW

CYQF;2011-08-01 12:00;CYQF 011200Z 27003KT 15SM FEW050 SCT090 11/11 A2993 RMK SC2AC2 SLP138

CYQF;2011-08-01 13:00;CYQF 011300Z 28005KT 15SM BKN080 11/11 A2995 RMK ACC6 SLP146

CYQF;2011-08-01 14:00;CYQF 011400Z 27007KT 15SM BKN050 13/10 A2998 RMK SC6 TCU EMBDD SLP153

CYQF;2011-08-01 15:00;CYQF 011500Z 00000KT 15SM BKN040 14/10 A2999 RMK SC6 SLP159

CYQF;2011-08-01 16:00;CYQF 011600Z 03006KT 15SM SCT040 16/08 A2999 RMK SC4 SCC SLP159

CYQF;2011-08-01 17:00;CYQF 011700Z 36005KT 15SM FEW030 BKN040 15/08 A2999 RMK CU1SC5 SLP161

CYQF;2011-08-01 18:00;CYQF 011800Z 01004KT 15SM BKN035 17/08 A2999 RMK CU5 SLP162

CYQF;2011-08-01 19:00;CYQF 011900Z 00000KT 15SM FEW035 18/09 A2998 RMK CU1 SLP160

CYQF;2011-08-01 20:00;CYQF 012000Z 18008KT 15SM FEW040TCU 20/09 A2998 RMK TCU1 SLP158

CYQF;2011-08-01 21:00;CYQF 012100Z 16006KT 15SM FEW040 20/10 A2997 RMK CU2 SLP156

CYQF;2011-08-01 22:00;CYQF 012200Z 15006KT 15SM FEW045 21/09 A2998 RMK CU2 SLP158

CYQF;2011-08-01 23:00;CYQF 012300Z 14002KT 15SM FEW045 22/10 A2997 RMK CU2 SLP156

CYQF;2011-08-02 00:00;CYQF 020000Z 15005KT 15SM FEW045 22/10 A2997 RMK CU2 SLP152

CYQF;2011-08-02 01:00;CYQF 020100Z 14007KT 15SM FEW045 22/11 A2996 RMK CU1 SLP149

CYQF;2011-08-02 02:00;CYQF 020200Z 15006KT 15SM FEW040 21/12 A2996 RMK SC1 SLP150

CYQF;2011-08-02 03:00;CYQF 020300Z 13002KT 15SM FEW250 19/13 A2996 RMK CI1 SLP151

CYQF;2011-08-02 04:00;CYQF 020400Z 15005KT 15SM FEW040 FEW250 16/12 A2998 RMK SC1CI1 SLP155

CYQF;2011-08-02 05:00;CYQF 020500Z CCA 09004KT 15SM FEW040 15/11 A2998 RMK SC1 SLP157

CYQF;2011-08-02 06:00;CYQF 020600Z 19004KT 15SM SKC 13/11 A2998 RMK SLP160

CYQF;2011-08-02 07:00;CYQF 020700Z 25005KT 15SM SKC 12/10 A2999 RMK SLP162

CYQF;2011-08-02 08:00;CYQF 020800Z 18007KT 15SM SKC 11/10 A2999 RMK SLP163

CYQF;2011-08-02 09:00;CYQF 020900Z 22006KT 15SM SKC 11/10 A2999 RMK SLP161

CYQF;2011-08-02 10:00;CYQF 021000Z 22003KT 15SM SKC 10/09 A2999 RMK SLP161

CYQF;2011-08-02 11:00;CYQF 021100Z 19003KT 15SM FEW250 09/09 A2999 RMK CI1 SLP161

CYQF;2011-08-02 12:00;CYQF 021200Z CCA 29006KT 15SM FEW090 FEW250 08/07 A3000 RMK AC1CI1 SLP165

CYQF;2011-08-02 13:00;CYQF 021300Z 27004KT 15SM FEW030 FEW250 09/09 A3000 RMK SC1CI1 SLP165

CYQF;2011-08-02 14:00;CYQF 021400Z 00000KT 15SM FEW100 FEW250 11/10 A3000 RMK AC1CI0 SLP165

CYQF;2011-08-02 15:00;CYQF 021500Z 02004KT 15SM FEW100 BKN250 14/10 A3000 RMK ACC1CI3 SLP163

CYQF;2011-08-02 16:00;CYQF 021600Z 04005KT 15SM FEW100 BKN250 16/10 A2999 RMK AC1CI2 SLP160

CYQF;2011-08-02 17:00;CYQF 021700Z 02004KT 15SM FEW100 BKN250 17/10 A2998 RMK AC2CI4 SLP158

CYQF;2011-08-02 18:00;CYQF 021800Z 36005KT 15SM FEW100 BKN260 19/10 A2998 RMK AC1CI2 SLP158

CYQF;2011-08-02 19:00;CYQF 021900Z 03005KT 15SM FEW100 BKN260 21/10 A2997 RMK AC2CI2 SLP153

CYQF;2011-08-02 20:00;CYQF 022000Z 09004KT 15SM FEW040 SCT100 BKN260 22/12 A2995 RMK CU1AC2CI2 SLP149

CYQF;2011-08-02 21:00;CYQF 022100Z 08003KT 15SM FEW040 SCT100 BKN260 21/10 A2994 RMK CU1AC2CI2 SLP144

CYQF;2011-08-02 22:00;CYQF 022200Z 09003KT 15SM FEW040 SCT100 BKN260 22/09 A2992 RMK CU1AC2CI2 SLP138

CYQF;2011-08-02 23:00;CYQF 022300Z 09005KT 15SM FEW040 SCT100 BKN260 21/10 A2991 RMK CU1AC3CI2 SLP134

CYQF;2011-08-03 00:00;CYQF 030000Z 10005KT 15SM BKN100 BKN260 21/11 A2991 RMK AC5CI2 SLP135

CYQF;2011-08-03 01:00;CYQF 030100Z 07003KT 15SM BKN100 BKN260 20/13 A2990 RMK AC6CI1 SLP133

CYQF;2011-08-03 02:00;CYQF 030200Z 07005KT 15SM BKN100 BKN260 19/14 A2989 RMK AC6CI1 SLP130

CYQF;2011-08-03 03:00;CYQF 030300Z 03003KT 15SM BKN100 BKN260 18/13 A2989 RMK AC6CI2 SLP126

CYQF;2011-08-03 04:00;CYQF 030400Z 06004KT 15SM BKN100 BKN260 17/12 A2989 RMK AC6CI2 SLP125

CYQF;2011-08-03 05:00;CYQF 030500Z 15002KT 15SM FEW060 BKN100 OVC260 16/12 A2989 RMK SC2AC4CI2 SLP125

CYQF;2011-08-03 06:00;CYQF 030600Z 35003KT 15SM FEW050 BKN090 BKN260 15/13 A2989 RMK SC2AC3CI2 CB ASOCTD LTGCG NW+N SLP122

CYQF;2011-08-03 06:37;CYQF 030637Z 32012KT 15SM -SHRA SCT050 BKN090 RMK SC4AC3 LTGCG W+NW

CYQF;2011-08-03 06:49;CYQF 030649Z 36006KT 15SM +TSRA BKN050CB BKN090 RMK CB5AC2 LGTCG W+NW

CYQF;2011-08-03 07:00;CYQF 030700Z 03010KT 15SM -TSRA BKN050CB OVC090 15/13 A2992 RMK CB5AC3 LTGCG W+NW RERA SLP133

CYQF;2011-08-03 07:40;CYQF 030740Z 03006KT 15SM -SHRA BKN050CB OVC090 RMK CB5AC3 LTGCG W RETS

CYQF;2011-08-03 08:00;CYQF 030800Z 36006KT 15SM -SHRA BKN050CB OVC090 13/11 A2994 RMK CB5AC3 RETS SLP138

CYQF;2011-08-03 09:00;CYQF 030900Z 36003KT 15SM -SHRA BKN050 OVC090 13/11 A2992 RMK SC6AC2 TCU ASOCTD SLP135

CYQF;2011-08-03 10:00;CYQF 031000Z 36003KT 15SM -RA BKN050 OVC090 13/11 A2993 RMK SC5AC3 SLP137

CYQF;2011-08-03 10:35;CYQF 031035Z 26007KT 15SM BKN050 BKN090 RMK SC5AC2

CYQF;2011-08-03 11:00;CYQF 031100Z 24005KT 15SM BKN050 BKN090 12/11 A2994 RMK SC5AC2 SLP140

CYQF;2011-08-03 12:00;CYQF 031200Z 24005KT 15SM FEW050 SCT090 BKN250 11/10 A2994 RMK SC2AC2CI1 SLP142

CYQF;2011-08-03 13:00;CYQF 031300Z 27005KT 15SM FEW090 BKN250 12/10 A2995 RMK AC2CC5 SLP145

CYQF;2011-08-03 14:00;CYQF 031400Z 27003KT 15SM FEW090 BKN250 13/11 A2997 RMK AC1CI2 SLP152

CYQF;2011-08-03 15:00;CYQF 031500Z 06003KT 15SM FEW090 BKN250 17/13 A2997 RMK AC1CI4 ACC SLP152

CYQF;2011-08-03 16:00;CYQF 031600Z 36010KT 15SM FEW090 SCT250 18/09 A2997 RMK ACC1CI1 SLP152

CYQF;2011-08-03 17:00;CYQF 031700Z 01010G15KT 15SM FEW040 FEW090 SCT250 19/08 A2998 RMK CU1ACC1CI2 SLP153

CYQF;2011-08-03 18:00;CYQF 031800Z 34005KT 15SM FEW040 FEW100 BKN260 19/10 A2998 RMK CU1AC1CI1 SLP153

CYQF;2011-08-03 19:00;CYQF 031900Z 29007KT 15SM FEW040 SCT260 20/11 A2997 RMK CU2CI1 SLP151

CYQF;2011-08-03 20:00;CYQF 032000Z 35002KT 15SM FEW044 BKN260 20/09 A2997 RMK CU2CI4 SLP150

CYQF;2011-08-03 21:00;CYQF 032100Z 35004KT 15SM FEW044 BKN260 21/09 A2996 RMK CU2CI2 SLP149

CYQF;2011-08-03 22:00;CYQF 032200Z 01002KT 15SM FEW045 FEW100 SCT260 20/09 A2995 RMK CU2AC1CI0 FEW TCU SLP147

CYQF;2011-08-03 23:00;CYQF 032300Z 32005KT 15SM FEW045 SCT100 BKN270 21/09 A2995 RMK CU2AC2CI0 FEW TCU VIRGA SLP145

CYQF;2011-08-04 00:00;CYQF 040000Z CCA 33005KT 15SM FEW045CB BKN100 BKN270 21/09 A2995 RMK CB2AC1CI1 VIRGA SLP147

CYQF;2011-08-04 01:00;CYQF 040100Z 30003KT 15SM FEW045CB FEW100 FEW270 21/09 A2995 RMK CB1ACC1CI1 SLP147

CYQF;2011-08-04 02:00;CYQF 040200Z 36005KT 15SM FEW035CB FEW100 19/11 A2996 RMK CB1AC2 SLP149

CYQF;2011-08-04 03:00;CYQF 040300Z 00000KT 15SM FEW030CB SCT100 18/11 A2997 RMK CB1AC3 SLP152

CYQF;2011-08-04 04:00;CYQF 040400Z 00000KT 15SM SCT100 16/12 A2999 RMK AC3 SLP158

CYQF;2011-08-04 05:00;CYQF 040500Z 34003KT 15SM FEW100 13/11 A3001 RMK AC2 SLP164

CYQF;2011-08-04 06:00;CYQF 040600Z 35014KT 15SM BKN090 14/10 A3005 RMK AC5 SLP179

CYQF;2011-08-04 06:14;CYQF 040614Z 01013KT 15SM -RA BKN090 RMK AC5

CYQF;2011-08-04 06:43;CYQF 040643Z 07004KT 15SM BKN090 RMK AC5

CYQF;2011-08-04 07:00;CYQF 040700Z 07004KT 15SM SCT080 12/10 A3002 RMK AC3 SLP169

CYQF;2011-08-04 08:00;CYQF 040800Z 27005KT 15SM SCT080 11/10 A3003 RMK AC3 SLP174

CYQF;2011-08-04 09:00;CYQF 040900Z 27006KT 15SM SCT080 10/09 A3004 RMK AC3 SLP177

CYQF;2011-08-04 10:00;CYQF 041000Z 28003KT 14SM FEW080 SCT250 10/09 A3003 RMK AC2CI0 SLP175

CYQF;2011-08-04 11:00;CYQF 041100Z 17004KT 15SM SCT080 10/09 A3003 RMK AC3 SLP176

CYQF;2011-08-04 12:00;CYQF 041200Z 18004KT 15SM FEW040 SCT080 09/08 A3004 RMK SC1AC2 SLP178

CYQF;2011-08-04 13:00;CYQF 041300Z 00000KT 15SM SCT080 10/09 A3004 RMK AC4 SLP179

CYQF;2011-08-04 14:00;CYQF 041400Z 00000KT 15SM BKN080 12/10 A3004 RMK AC6 SLP180

CYQF;2011-08-04 15:00;CYQF 041500Z 00000KT 15SM BKN080 14/11 A3005 RMK AC6 ACC SLP180

CYQF;2011-08-04 16:00;CYQF 041600Z 15004KT 15SM BKN080 17/11 A3005 RMK AC6 ACC SLP180

CYQF;2011-08-04 17:00;CYQF 041700Z 12002KT 15SM FEW030 BKN080 19/11 A3004 RMK CU1AC6 SLP178

CYQF;2011-08-04 18:00;CYQF 041800Z 15006KT 15SM FEW035 BKN080 20/11 A3004 RMK CU2ACC3 SLP175

CYQF;2011-08-04 19:00;CYQF 041900Z 14005KT 15SM FEW040 SCT080 22/11 A3002 RMK CU2AC2 SLP169

CYQF;2011-08-04 20:00;CYQF 042000Z 19006KT 15SM FEW050 SCT100 23/11 A3001 RMK CU2AC1 SLP167

CYQF;2011-08-04 21:00;CYQF 042100Z 16008KT 15SM FEW050 SCT100 23/10 A3000 RMK CU2AC1 SLP164

CYQF;2011-08-04 22:00;CYQF 042200Z 16010KT 15SM SCT045 SCT100 23/12 A2999 RMK CU3AC1 SLP160

CYQF;2011-08-04 23:00;CYQF 042300Z 17010KT 15SM FEW045 SCT100 23/13 A2998 RMK CU2AC2 SLP158

CYQF;2011-08-05 00:00;CYQF 050000Z 16012KT 15SM FEW045 SCT250 23/11 A2997 RMK CU2CI1 SLP154

CYQF;2011-08-05 01:00;CYQF 050100Z 16010KT 15SM FEW045 SCT260 22/12 A2996 RMK CU2CI1 SLP152

CYQF;2011-08-05 02:00;CYQF 050200Z 13006KT 15SM FEW060 BKN260 21/14 A2996 RMK SC2CI2 SLP152

CYQF;2011-08-05 03:00;CYQF 050300Z 06003KT 15SM SCT060 BKN260 19/14 A2996 RMK SC3CI1 SLP150

CYQF;2011-08-05 03:52;CYQF 050352Z 00000KT 15SM TS SCT020CB BKN060 BKN260 RMK CB3SC2CI0 LTNG S

CYQF;2011-08-05 04:00;CYQF 050400Z 10005KT 15SM -TSRA BKN020CB BKN060 BKN260 18/14 A2998 RMK CB5SC2CI0 LTNG S SLP154

CYQF;2011-08-05 04:31;CYQF 050431Z 12008KT 15SM TS BKN020CB BKN060 RMK CB6SC1

CYQF;2011-08-05 05:00;CYQF 050500Z 12008KT 15SM BKN030CB BKN075 17/11 A2997 RMK CB5AC1 RETS LTGCG SE+NW SLP152

CYQF;2011-08-05 06:00;CYQF 050600Z CCA 15008KT 15SM BKN030CB BKN075 17/12 A2996 RMK CB5AC1 LTGCGIC NW-N SLP146

CYQF;2011-08-05 07:00;CYQF 050700Z 00000KT 15SM BKN030CB BKN080 16/12 A2996 RMK CB5AC1 XTNSV LTGCGIC N SLP146

CYQF;2011-08-05 07:52;CYQF 050752Z CCA 03006KT 15SM -SHRA BKN030CB BKN080 RMK CB5AC2 LTGCG NE

CYQF;2011-08-05 08:00;CYQF 050800Z 02008KT 15SM BKN030CB BKN080 15/12 A3000 RMK CB5AC2 LTGCG NE SLP157

CYQF;2011-08-05 08:44;CYQF 050844Z 35004KT 15SM FEW030 SCT080 RMK SC2AC1 LTGCG E CB ASOCTD

CYQF;2011-08-05 09:00;CYQF 050900Z 03004KT 15SM FEW030 FEW080 14/12 A2998 RMK SC2AC1 LTGCG E CB ASOCTD SLP154

CYQF;2011-08-05 10:00;CYQF 051000Z 02005KT 15SM FEW030 FEW080 13/12 A2998 RMK SC2AC1 SLP153

CYQF;2011-08-05 11:00;CYQF 051100Z 06005KT 15SM FEW040 13/12 A2997 RMK SC2 SLP151

CYQF;2011-08-05 12:00;CYQF 051200Z 08002KT 15SM FEW040 13/12 A2995 RMK SC2 SLP144

CYQF;2011-08-05 13:00;CYQF 051300Z 00000KT 15SM FEW050 13/12 A2995 RMK SC1 SLP142

CYQF;2011-08-05 14:00;CYQF 051400Z 00000KT 15SM FEW100 14/12 A2995 RMK AC1 SLP144

CYQF;2011-08-05 15:00;CYQF 051500Z 24005KT 15SM SCT100 BKN250 16/13 A2996 RMK AC4CI1 SLP148

CYQF;2011-08-05 16:00;CYQF 051600Z 19003KT 15SM FEW100 SCT250 18/14 A2995 RMK AC1CI2 SLP145

CYQF;2011-08-05 17:00;CYQF 051700Z 19003KT 15SM BKN250 20/13 A2995 RMK CI5 SLP143

CYQF;2011-08-05 18:00;CYQF 051800Z 14006KT 15SM FEW030 BKN250 21/14 A2994 RMK CU1CI4 SLP136

CYQF;2011-08-05 19:00;CYQF 051900Z 13004KT 15SM FEW030 BKN250 22/15 A2993 RMK CU1CI4 SLP133

CYQF;2011-08-05 20:00;CYQF 052000Z 23002KT 15SM FEW030 BKN250 24/16 A2992 RMK CU1CI5 SLP131

CYQF;2011-08-05 21:00;CYQF 052100Z 12007KT 15SM FEW035 BKN250 24/15 A2992 RMK CU1CI3 CB TP SW SLP129

CYQF;2011-08-05 22:00;CYQF 052200Z 12008KT 15SM FEW035TCU SCT120 BKN250 24/15 A2991 RMK TCU2AC2CI1 SLP126

CYQF;2011-08-05 23:00;CYQF 052300Z 13008KT 15SM FEW035TCU SCT120 BKN250 23/16 A2990 RMK TCU2AC2CI2 SLP123

CYQF;2011-08-06 00:00;CYQF 060000Z 14009KT 15SM FEW035TCU BKN250 23/15 A2987 RMK TCU2CI2 SLP116

CYQF;2011-08-06 01:00;CYQF 060100Z 14006KT 15SM FEW035TCU FEW120 SCT250 23/16 A2987 RMK TCU1AC2CI2 SLP114

CYQF;2011-08-06 02:00;CYQF 060200Z 15003KT 15SM FEW035 SCT120 BKN250 22/17 A2986 RMK CU1AC2CI2 SLP111

CYQF;2011-08-06 03:00;CYQF 060300Z 15003KT 15SM FEW020 FEW120 BKN250 20/16 A2985 RMK CU1AC2CI1 SLP110

CYQF;2011-08-06 04:00;CYQF 060400Z 00000KT 15SM FEW120 BKN250 16/15 A2986 RMK AC2CI2 SLP111

CYQF;2011-08-06 05:00;CYQF 060500Z 00000KT 15SM FEW120 BKN260 17/16 A2985 RMK AC2CI2 SLP109

CYQF;2011-08-06 06:00;CYQF 060600Z 00000KT 15SM FEW120 BKN260 16/15 A2984 RMK AC1CI2 SLP102

CYQF;2011-08-06 07:00;CYQF 060700Z 15005KT 15SM FEW120 SCT260 16/14 A2983 RMK AC1CI0 SLP099

CYQF;2011-08-06 08:00;CYQF 060800Z 15006KT 15SM FEW100 FEW260 15/13 A2980 RMK AC1CI1 SLP092

CYQF;2011-08-06 09:00;CYQF 060900Z 16006KT 15SM FEW040CB 14/13 A2979 RMK CB1 LTNG DIST N SLP084

CYQF;2011-08-06 10:00;CYQF 061000Z 20003KT 15SM FEW040CB 13/12 A2980 RMK CB1 LTNG DIST N SLP087

CYQF;2011-08-06 11:00;CYQF 061100Z 27007KT 15SM FEW040CB BKN250 12/11 A2980 RMK CB1CI1 SLP088

CYQF;2011-08-06 11:25;CYQF 061125Z 27010KT 12SM FEW008 FEW040 BKN250 RMK SF1CU1CI1

CYQF;2011-08-06 11:41;CYQF 061141Z 29008KT 10SM BKN006 RMK SF5

CYQF;2011-08-06 12:00;CYQF 061200Z 30010G15KT 10SM OVC006 14/13 A2983 RMK SF6 SLP098

CYQF;2011-08-06 13:00;CYQF 061300Z 30015G25KT 10SM OVC006 14/13 A2985 RMK SF8 CIG RAG SLP107

CYQF;2011-08-06 14:00;CYQF 061400Z 32020G30KT 12SM OVC006 14/10 A2988 RMK SF8 CIG RAG SLP115

CYQF;2011-08-06 14:47;CYQF 061447Z 34015G25KT 15SM BKN012 BKN050 BKN250 RMK SC6SC1CI1

CYQF;2011-08-06 15:00;CYQF 061500Z 34010G20KT 15SM BKN012 BKN050 BKN250 13/09 A2988 RMK SC6SC1CI1 TCU SHWRS DIST W SLP123

CYQF;2011-08-06 15:39;CYQF 061539Z 34010G15KT 15SM SCT020 BKN040 BKN250 RMK SC3SC2CI2 TCU SHWRS W

CYQF;2011-08-06 16:00;CYQF 061600Z 32008G15KT 15SM FEW024 BKN060 BKN100 BKN250 16/10 A2988 RMK SC2SC3AC2CI1 TCU SHWRS NW SLP122

CYQF;2011-08-06 17:00;CYQF 061700Z 33010KT 15SM FEW025 BKN080 14/10 A2987 RMK SC2AC3 CB NE SLP119

CYQF;2011-08-06 18:00;CYQF 061800Z 36004KT 15SM FEW025CB FEW080 16/10 A2988 RMK CB1AC2 SLP122

CYQF;2011-08-06 19:00;CYQF 061900Z 04008KT 15SM FEW030 18/11 A2987 RMK CU2 SLP119

CYQF;2011-08-06 20:00;CYQF 062000Z 01010KT 15SM FEW030 18/11 A2986 RMK CU1 SLP117

CYQF;2011-08-06 21:00;CYQF 062100Z 02006KT 15SM FEW035 FEW100 20/11 A2985 RMK CU1AC1 SLP112

CYQF;2011-08-06 22:00;CYQF 062200Z 04008KT 15SM FEW035 SCT100 20/11 A2985 RMK CU2AC1 VIRGA SLP112

CYQF;2011-08-06 23:00;CYQF 062300Z 03004KT 15SM FEW035 SCT100 21/12 A2984 RMK CU2AC2 SLP108

CYQF;2011-08-07 00:00;CYQF 070000Z 08007KT 15SM SCT035 SCT100 20/12 A2984 RMK CU3AC1 SLP105

CYQF;2011-08-07 01:00;CYQF 070100Z 10008KT 15SM SCT035 20/12 A2982 RMK CU4 CB SW AND NW SLP100

CYQF;2011-08-07 02:00;CYQF 070200Z 06006KT 15SM SCT030CB BKN100 18/12 A2982 RMK CB4AC2 SLP101

CYQF;2011-08-07 02:32;CYQF 070232Z 36021G30KT 15SM -TSRA BKN025CB BKN100 RMK CB6AC1

CYQF;2011-08-07 02:45;CYQF 070245Z 31020G30KT 2SM TSRAGR OVC020CB RMK CB8 HAIL DIAM 8MM

CYQF;2011-08-07 02:46;CYQF 070246Z 31020G30KT 2SM +TSRAGR OVC020CB RMK CB8 HAIL DIAM 8MM

CYQF;2011-08-07 03:00;CYQF 070300Z 01015G25KT 4SM +TSRAGR OVC020CB 09/09 A2990 RMK CB8 HAIL DIAM 8MM PRESRR SLP139

CYQF;2011-08-07 03:09;CYQF 070309Z 36016G27KT 10SM -TSRA BKN020CB RMK CB7 RERA REGR

CYQF;2011-08-07 04:00;CYQF 070400Z 36015G24KT 10SM -TSRA BKN020CB 10/09 A2991 RMK CB7 RERA REGR SLP144

CYQF;2011-08-07 05:00;CYQF 070500Z 34015G20KT 10SM -TSRA FEW006 OVC040CB 10/10 A2997 RMK SF2CB6 LTNG W /R20/ PRESRR SLP162

CYQF;2011-08-07 05:30;CYQF 070530Z CCA 35015G20KT 3SM +SHRA BR BKN006 OVC040CB RMK SF6CB2 RETS

CYQF;2011-08-07 06:00;CYQF 070600Z 01013G18KT 10SM -SHRA SCT006 OVC050CB 10/08 A2997 RETSRA RMK SF3CB5 /R30/ LTNG W SLP161

CYQF;2011-08-07 06:19;CYQF 070619Z 36010G15KT 10SM -TSRA SCT006 OVC050CB RMK SF3CB5 LTNG SE

CYQF;2011-08-07 07:00;CYQF 070700Z 02010KT 10SM -TSRA FEW006 OVC060CB 09/09 A2990 RMK SF2CB6 PRESFR SLP138

CYQF;2011-08-07 07:05;CYQF 070705Z 03009KT 10SM -SHRA FEW006 OVC060CB RETS RMK SF2CB6

CYQF;2011-08-07 07:28;CYQF 070728Z 24007KT 12SM TS FEW006 OVC060CB RMK SF2CB6 LTNG SE

CYQF;2011-08-07 08:00;CYQF 070800Z 09002KT 10SM -SHRA OVC060CB 09/09 A2991 RETS RMK CB8 SLP142

CYQF;2011-08-07 08:33;CYQF 070833Z 23008KT 15SM SCT060CB RMK CB4

CYQF;2011-08-07 09:00;CYQF 070900Z 24008KT 15SM FEW060CB BKN100 08/08 A2993 RMK CB1AC2 SLP144

CYQF;2011-08-07 10:00;CYQF 071000Z 24010KT 15SM FEW100 08/07 A2992 RMK AC2 SLP140

CYQF;2011-08-07 11:00;CYQF 071100Z 25008KT 15SM FEW100 FEW240 07/07 A2992 RMK AC1CI1 SLP140

CYQF;2011-08-07 12:00;CYQF 071200Z 26010KT 15SM SCT100 BKN240 07/07 A2991 RMK AC2CI1 SLP138

CYQF;2011-08-07 13:00;CYQF 071300Z 26008KT 15SM SCT040 BKN090 BKN240 07/07 A2991 RMK SC4AC1CI1 SLP138

CYQF;2011-08-07 14:00;CYQF 071400Z 00000KT 15SM SCT040 BKN090 08/08 A2991 RMK SC4AC3 SLP139

CYQF;2011-08-07 14:29;CYQF 071429Z 27003KT 15SM -SHRA BKN040 BKN090 RMK SC5AC2

CYQF;2011-08-07 15:00;CYQF 071500Z 23004KT 15SM -SHRA BKN040 BKN090 10/08 A2993 RMK SC6AC2 SLP153

CYQF;2011-08-07 16:00;CYQF 071600Z 22003KT 12SM -RA BKN030 BKN070 10/08 A2993 RMK SC5AC2 SLP153

CYQF;2011-08-07 17:00;CYQF 071700Z 27010KT 15SM FEW010 OVC030 12/10 A2993 RMK SF1SC7 SLP154

CYQF;2011-08-07 17:36;CYQF 071736Z 27012G20KT 15SM BKN015 BKN030 RMK SC6SC1

CYQF;2011-08-07 18:00;CYQF 071800Z 28010G15KT 15SM OVC015 13/11 A2993 RMK SC8 CIG RAG SLP150

CYQF;2011-08-07 18:46;CYQF 071846Z 29012KT 15SM OVC011 RMK SC8 CIG RAG

CYQF;2011-08-07 19:00;CYQF 071900Z 30015G22KT 15SM BKN012 BKN030 BKN250 14/11 A2994 RMK SC6SC2CI1 CU SLP151

CYQF;2011-08-07 20:00;CYQF 072000Z 33010G15KT 15SM SCT016 BKN030 BKN250 15/11 A2994 RMK CU3SC4CI1 SLP152

CYQF;2011-08-07 21:00;CYQF 072100Z 31015G25KT 15SM SCT030 BKN250 17/10 A2994 RMK CU3CI1 SLP149

CYQF;2011-08-07 22:00;CYQF 072200Z 31014G23KT 15SM SCT030 18/11 A2994 RMK CU4 SLP149

CYQF;2011-08-07 23:00;CYQF 072300Z 32013G20KT 15SM BKN030 18/11 A2994 RMK CU6 SLP149

CYQF;2011-08-08 00:00;CYQF 080000Z CCA 32012G18KT 15SM BKN030 BKN250 17/11 A2993 RMK CU5CI1 TCU ASOCTD SLP149

CYQF;2011-08-08 01:00;CYQF 080100Z 31011G18KT 15SM FEW030 SCT250 18/11 A2994 RMK CU2CI1 SLP152

CYQF;2011-08-08 02:00;CYQF 080200Z 32010KT 15SM FEW030 FEW080 SCT250 17/11 A2995 RMK CU1ACC1CI2 SLP156

CYQF;2011-08-08 03:00;CYQF 080300Z 31003KT 15SM FEW030 FEW080 SCT250 14/11 A2997 RMK CU1ACC1CI1 SLP164

CYQF;2011-08-08 04:00;CYQF 080400Z 29006KT 15SM FEW080 13/10 A2999 RMK AC2 SLP169

CYQF;2011-08-08 05:00;CYQF 080500Z 31005KT 15SM FEW080 13/10 A3000 RMK AC2 SLP172

CYQF;2011-08-08 06:00;CYQF 080600Z 31003KT 15SM FEW080 14/11 A3001 RMK AC2 SLP173

CYQF;2011-08-08 07:00;CYQF 080700Z 30006KT 15SM FEW080 12/10 A3001 RMK AC2 SLP173

CYQF;2011-08-08 08:00;CYQF 080800Z 27007KT 15SM SKC 11/10 A3001 RMK SLP174

CYQF;2011-08-08 09:00;CYQF 080900Z 30006KT 15SM SKC 11/10 A3001 RMK SLP173

CYQF;2011-08-08 10:00;CYQF 081000Z 25005KT 15SM SKC 10/09 A3002 RMK SLP175

CYQF;2011-08-08 11:00;CYQF 081100Z 26007KT 15SM SKC 09/09 A3002 RMK SLP176

CYQF;2011-08-08 12:00;CYQF 081200Z 30003KT 15SM FEW080 09/09 A3004 RMK AC1 SLP182

CYQF;2011-08-08 13:00;CYQF 081300Z 19005KT 15SM FEW080 09/09 A3005 RMK AC1 SLP185

CYQF;2011-08-08 14:00;CYQF 081400Z 21004KT 15SM FEW080 11/10 A3005 RMK AC1 SLP185

CYQF;2011-08-08 15:00;CYQF 081500Z 24003KT 15SM FEW090 14/12 A3005 RMK AC1 SLP184

CYQF;2011-08-08 16:00;CYQF 081600Z 25003KT 15SM FEW015 FEW100 16/13 A3004 RMK CU1AC1 SLP182

CYQF;2011-08-08 17:00;CYQF 081700Z 26007KT 15SM BKN020 18/13 A3004 RMK CU6 SLP181

CYQF;2011-08-08 18:00;CYQF 081800Z 00000KT 15SM BKN025 19/13 A3003 RMK CU6 SLP173

CYQF;2011-08-08 19:00;CYQF 081900Z 11005KT 15SM BKN030 20/12 A3002 RMK CU6 SLP171

CYQF;2011-08-08 20:00;CYQF 082000Z 12002KT 15SM BKN030 19/12 A3002 RMK CU6 SLP169

CYQF;2011-08-08 21:00;CYQF 082100Z 13005KT 15SM BKN035 21/12 A3001 RMK CU6 SLP166

CYQF;2011-08-08 22:00;CYQF 082200Z 00000KT 15SM SCT040 22/12 A3000 RMK CU4 SLP165

CYQF;2011-08-08 23:00;CYQF 082300Z 05005KT 15SM SCT035 22/13 A3000 RMK CU4 TCU ASOCTD SLP163

CYQF;2011-08-09 00:00;CYQF 090000Z 08002KT 15SM FEW035 22/12 A2998 RMK CU2 SLP160

CYQF;2011-08-09 01:00;CYQF 090100Z 00000KT 15SM FEW035 22/11 A2998 RMK CU1 SLP158

CYQF;2011-08-09 02:00;CYQF 090200Z 08002KT 15SM FEW090 21/13 A2998 RMK ACC1 SLP158

CYQF;2011-08-09 03:00;CYQF 090300Z 00000KT 15SM FEW090 20/14 A2998 RMK AC1 SLP156

CYQF;2011-08-09 04:00;CYQF 090400Z 00000KT 15SM FEW090 17/13 A2999 RMK AC2 SLP159

CYQF;2011-08-09 05:00;CYQF 090500Z 00000KT 15SM FEW090 15/13 A2999 RMK AC2 SLP159

CYQF;2011-08-09 06:00;CYQF 090600Z 00000KT 15SM FEW090 13/12 A2998 RMK AC2 SLP158

CYQF;2011-08-09 07:00;CYQF 090700Z 17002KT 15SM FEW090 13/11 A2998 RMK AC1 SLP156

CYQF;2011-08-09 08:00;CYQF 090800Z 19002KT 15SM FEW090 12/11 A2997 RMK AC1 SLP154

CYQF;2011-08-09 09:00;CYQF 090900Z 20002KT 15SM FEW040 11/10 A2997 RMK SC1 SLP154

CYQF;2011-08-09 10:00;CYQF 091000Z 23005KT 15SM FEW040 11/10 A2996 RMK SC1 SLP152

CYQF;2011-08-09 11:00;CYQF 091100Z 00000KT 15SM FEW040 10/10 A2996 RMK SC1 SLP151

CYQF;2011-08-09 12:00;CYQF 091200Z 00000KT 15SM FEW040 09/09 A2996 RMK SC1 MIFG SLP150

CYQF;2011-08-09 13:00;CYQF 091300Z 00000KT 15SM FEW040 10/09 A2996 RMK SC1 SLP150

CYQF;2011-08-09 14:00;CYQF 091400Z 00000KT 15SM FEW090 14/12 A2996 RMK ACC1 SLP151

CYQF;2011-08-09 15:00;CYQF 091500Z 18002KT 15SM FEW020 FEW090 16/12 A2996 RMK CF1AC1 SLP146

CYQF;2011-08-09 16:00;CYQF 091600Z 21004KT 15SM FEW090 18/14 A2995 RMK AC1 SLP143

CYQF;2011-08-09 17:00;CYQF 091700Z 15005KT 15SM FEW090 22/13 A2994 RMK AC1 SLP140

CYQF;2011-08-09 18:00;CYQF 091800Z 15010KT 15SM FEW040 23/13 A2993 RMK CU1 SLP136

CYQF;2011-08-09 19:00;CYQF 091900Z 15004KT 15SM FEW040 23/12 A2993 RMK CU1 SLP134

CYQF;2011-08-09 20:00;CYQF 092000Z 15010KT 15SM FEW045TCU 24/13 A2992 RMK TCU1 SLP132

CYQF;2011-08-09 21:00;CYQF 092100Z 18006KT 15SM FEW045TCU FEW250 24/12 A2991 RMK TCU1CI1 CB TOPS DIST W +SW SLP129

CYQF;2011-08-09 22:00;CYQF 092200Z 16006KT 15SM FEW045CB FEW250 24/12 A2990 RMK CB1CI1 SLP125

CYQF;2011-08-09 23:00;CYQF 092300Z 16004KT 15SM FEW045CB SCT250 24/13 A2988 RMK CB2CI1 SLP120

CYQF;2011-08-10 00:00;CYQF 100000Z 13004KT 15SM SCT040CB BKN080 BKN250 24/14 A2988 RMK CB3AC2CI0 SLP120

CYQF;2011-08-10 01:00;CYQF 100100Z 00000KT 15SM FEW040CB FEW100 SCT250 24/12 A2987 RMK CB2AC1CI0 SLP118

CYQF;2011-08-10 02:00;CYQF 100200Z 02004KT 15SM FEW040CB FEW100 BKN250 23/12 A2987 RMK CB1AC2CI0 SLP117

CYQF;2011-08-10 03:00;CYQF 100300Z 36004KT 15SM FEW040 SCT100 BKN250 19/12 A2987 RMK CU1AC2CI1 SLP117

CYQF;2011-08-10 04:00;CYQF 100400Z 00000KT 15SM FEW040 SCT100 BKN250 17/12 A2988 RMK CU1AC2CI1 SLP121

CYQF;2011-08-10 05:00;CYQF 100500Z 00000KT 15SM FEW040 SCT100 BKN250 16/12 A2989 RMK CU1AC2CI1 LTGCG SW+W SLP122

CYQF;2011-08-10 06:00;CYQF 100600Z 25014KT 15SM FEW040 SCT090 BKN250 17/12 A2992 RMK SC2AC2CI1 LTGCG S+SW CB ASOCTD SLP127

CYQF;2011-08-10 06:31;CYQF 100631Z 25015KT 15SM -SHRA SCT040 BKN090 BKN250 RMK SC3AC2CI1 LTGCGIC SE+S

CYQF;2011-08-10 07:00;CYQF 100700Z 24010KT 15SM -RA FEW040 BKN090 BKN250 15/11 A2991 RMK SC2AC3CI1 LTGCGIC SE CB ASOCTD SLP126

CYQF;2011-08-10 07:43;CYQF 100743Z 21013KT 15SM FEW040 BKN090 BKN250 RMK SC2AC3CI1

CYQF;2011-08-10 08:00;CYQF 100800Z 21014G20KT 15SM FEW040 BKN090 BKN250 15/11 A2990 RMK SC2AC3CI1 SLP122

CYQF;2011-08-10 08:14;CYQF 100814Z 21014KT 15SM -RA SCT040 BKN090 RMK SC4AC3

CYQF;2011-08-10 09:00;CYQF 100900Z 13004KT 15SM -RA SCT040 BKN090 17/10 A2988 RMK SC3AC4 SLP114

CYQF;2011-08-10 10:00;CYQF 101000Z 30005KT 15SM -RA FEW040 BKN090 14/12 A2988 RMK SC2AC5 SLP113

CYQF;2011-08-10 10:41;CYQF 101041Z 30004KT 15SM FEW040 BKN090 RMK SC2AC5

CYQF;2011-08-10 11:00;CYQF 101100Z 25006KT 15SM FEW040 SCT090 13/11 A2988 RMK SC2AC2 SLP114

CYQF;2011-08-10 12:00;CYQF 101200Z 00000KT 15SM FEW040 FEW090 SCT250 11/10 A2988 RMK SC1AC1CI1 SLP119

CYQF;2011-08-10 13:00;CYQF 101300Z 00000KT 15SM FEW050 FEW090 SCT250 11/10 A2989 RMK SC1AC1CI2 SLP121

CYQF;2011-08-10 14:00;CYQF 101400Z 00000KT 15SM BKN100 BKN250 13/12 A2988 RMK AC3CI1 SLP119

CYQF;2011-08-10 15:00;CYQF 101500Z 23005KT 15SM SCT100 BKN250 16/13 A2989 RMK AC3CI1 SLP122

CYQF;2011-08-10 16:00;CYQF 101600Z 00000KT 15SM SCT100 BKN250 17/13 A2990 RMK AC3CI1 SLP125

CYQF;2011-08-10 17:00;CYQF 101700Z 21004KT 15SM BKN100 BKN250 19/14 A2989 RMK AC3CI1 SLP123

CYQF;2011-08-10 18:00;CYQF 101800Z 23003KT 15SM BKN120 BKN260 20/15 A2989 RMK AC3CI2 SLP123

CYQF;2011-08-10 19:00;CYQF 101900Z 29002KT 15SM FEW030 SCT120 BKN260 22/15 A2989 RMK CU1AC2CI1 SLP122

CYQF;2011-08-10 20:00;CYQF 102000Z 34004KT 15SM FEW036 SCT120 BKN260 22/13 A2988 RMK CU1AC2CI1 SLP118

CYQF;2011-08-10 21:00;CYQF 102100Z 00000KT 15SM FEW040 SCT120 BKN270 23/13 A2987 RMK CU1AC2CI1 SLP110

CYQF;2011-08-10 22:00;CYQF 102200Z 00000KT 15SM FEW040TCU SCT120 BKN270 23/11 A2987 RMK TCU2AC2CI1 SLP110

CYQF;2011-08-10 23:00;CYQF 102300Z 24003KT 15SM FEW040TCU SCT120 BKN270 22/12 A2986 RMK TCU2AC2CI2 SLP109

CYQF;2011-08-11 00:00;CYQF 110000Z 29004KT 15SM FEW036CB SCT120 OVC250 22/13 A2986 RMK CB2AC1CI5 CB S-SW AND N SLP116

CYQF;2011-08-11 01:00;CYQF 110100Z 27005KT 15SM FEW030CB SCT120 OVC250 19/13 A2985 RMK CB2AC1CI2 SLP113

CYQF;2011-08-11 02:00;CYQF 110200Z 27003KT 15SM FEW030TCU SCT120 BKN250 20/13 A2987 RMK TCU2AC2CI2 SLP118

CYQF;2011-08-11 03:00;CYQF 110300Z 24003KT 15SM FEW025CB BKN060 BKN250 18/14 A2988 RMK CB2SC4CI1 LTGCG SE-S SLP120

CYQF;2011-08-11 04:00;CYQF 110400Z 36010KT 15SM BKN040CB BKN090 17/12 A2990 RMK CB5AC1 LTNG E SLP127

CYQF;2011-08-11 05:00;CYQF 110500Z 21002KT 15SM BKN060CB BKN090 16/12 A2990 RMK CB5AC2 LTGCG SE+NW SLP126

CYQF;2011-08-11 05:35;CYQF 110535Z 23003KT 15SM -SHRA BKN050CB BKN090 RMK CB6AC2 LTGCG SE + NW

CYQF;2011-08-11 05:40;CYQF 110540Z 36003KT 10SM TSRA BKN050CB BKN090 RMK CB6AC2

CYQF;2011-08-11 06:00;CYQF 110600Z CCA 01015G20KT 10SM -TSRA BKN050CB BKN090 15/12 A2988 RERA RMK CB6AC2 /R10/ SLP121

CYQF;2011-08-11 07:00;CYQF 110700Z 05006KT 15SM -TSRA BKN050CB BKN090 14/12 A2989 RMK CB5AC2 LGTCGIC N SLP123

CYQF;2011-08-11 07:26;CYQF 110726Z 30003KT 15SM TS SCT050CB SCT090 BKN250 RMK CB3AC1CI1 LTGCG N

CYQF;2011-08-11 07:43;CYQF 110743Z 00000KT 15SM SCT050CB SCT090 BKN250 RMK CB3AC1CI1 RETS

CYQF;2011-08-11 08:00;CYQF 110800Z 00000KT 15SM SCT050 BKN090 BKN250 13/12 A2989 RMK SC3AC2CI1 RETS CB ASOCTD SLP122

CYQF;2011-08-11 09:00;CYQF 110900Z 00000KT 15SM FEW050 SCT090 BKN250 12/11 A2987 RMK SC2AC1CI2 SLP117

CYQF;2011-08-11 10:00;CYQF 111000Z 28006KT 15SM FEW050 BKN090 BKN250 12/11 A2988 RMK SC2AC2CI2 SLP120

CYQF;2011-08-11 11:00;CYQF 111100Z 28006KT 15SM FEW050 BKN090 BKN250 12/11 A2988 RMK SC2AC2CI2 SLP120

CYQF;2011-08-11 12:00;CYQF 111200Z 00000KT 15SM SCT050 BKN100 BKN250 12/11 A2989 RMK SC3AC3CI1 SLP125

CYQF;2011-08-11 13:00;CYQF 111300Z 20004KT 15SM SCT050 BKN100 12/12 A2991 RMK SC4AC3 SLP129

CYQF;2011-08-11 14:00;CYQF 111400Z 00000KT 15SM SCT028 BKN100 OVC250 13/12 A2991 RMK CU3AC2CI2 TCU ASOCTD SHWR N SLP130

CYQF;2011-08-11 15:00;CYQF 111500Z 02002KT 12SM SCT030 BKN100 BKN250 13/12 A2991 RMK CU4AC2CI2 SLP133

CYQF;2011-08-11 15:43;CYQF 111543Z 01005KT 12SM -SHRA FEW008 BKN030TCU BKN100 BKN250 RMK SF1TCU4AC2CI1

CYQF;2011-08-11 16:00;CYQF 111600Z 02006KT 6SM -SHRA BR FEW008 BKN030TCU BKN100 BKN250 14/13 A2991 RMK SF1TCU5AC1CI1 VIS LWR N SLP135

CYQF;2011-08-11 17:00;CYQF 111700Z 36006KT 10SM -SHRA FEW008 BKN030 BKN100 BKN250 14/13 A2992 RMK SF1SC5AC2CI1 SLP138

CYQF;2011-08-11 17:47;CYQF 111747Z 03006KT 10SM FEW008 BKN030 BKN100 RMK SF1SC5AC2

CYQF;2011-08-11 18:00;CYQF 111800Z 04006KT 12SM FEW008 BKN030 BKN100 15/14 A2993 RMK SF1SC5AC2 SLP140

CYQF;2011-08-11 19:00;CYQF 111900Z 00000KT 15SM FEW012 SCT040 BKN100 16/14 A2993 RMK SC1SC3AC3 CU ASOCTD SLP141

CYQF;2011-08-11 20:00;CYQF 112000Z 33003KT 15SM FEW020 BKN100 BKN250 18/13 A2993 RMK CU2AC2CI1 SLP140

CYQF;2011-08-11 21:00;CYQF 112100Z 00000KT 15SM SCT025 BKN250 19/12 A2992 RMK CU3CI1 SLP139

CYQF;2011-08-11 22:00;CYQF 112200Z 03004KT 15SM FEW030 BKN250 19/11 A2993 RMK CU2CI2 SLP141

CYQF;2011-08-11 23:00;CYQF 112300Z 00000KT 15SM SCT035TCU SCT100 BKN250 20/11 A2994 RMK TCU3AC1CI1 SHS NE SLP143

CYQF;2011-08-12 00:00;CYQF 120000Z 09010KT 15SM VCSH BKN030CB BKN100 BKN250 18/13 A2995 RMK CB5AC1CI0 SLP148

CYQF;2011-08-12 01:00;CYQF 120100Z 05003KT 15SM VCSH BKN030TCU BKN100 OVC250 17/12 A2996 RMK TCU5AC1CI0 SLP152

CYQF;2011-08-12 02:00;CYQF 120200Z 16002KT 15SM BKN030TCU BKN100 OVC250 17/14 A2998 RMK TCU5AC1CI0 SLP157

CYQF;2011-08-12 03:00;CYQF 120300Z 00000KT 15SM FEW030 SCT100 BKN250 15/14 A2997 RMK SC2AC1CI1 SLP159

CYQF;2011-08-12 04:00;CYQF 120400Z 00000KT 15SM FEW040 SCT090 BKN250 15/14 A3000 RMK SC2AC2CI1 SLP167

CYQF;2011-08-12 05:00;CYQF 120500Z 00000KT 15SM FEW040 SCT090 BKN250 14/14 A3001 RMK SC2AC2CI2 SLP169

CYQF;2011-08-12 06:00;CYQF 120600Z 31002KT 15SM BKN090 14/14 A3001 RMK AC6 SLP170

CYQF;2011-08-12 07:00;CYQF 120700Z 22002KT 15SM SCT090 13/12 A3002 RMK AC4 SLP173

CYQF;2011-08-12 08:00;CYQF 120800Z 26004KT 10SM SCT090 11/11 A3002 RMK AC4 MIFG SLP172

CYQF;2011-08-12 09:00;CYQF 120900Z 00000KT 5SM BR FEW090 11/11 A3002 RMK AC2 SLP173

CYQF;2011-08-12 09:28;CYQF 120928Z 22004KT 2SM BR SCT090 RMK FG2AC2

CYQF;2011-08-12 10:00;CYQF 121000Z 14004KT 2SM BR SKC 11/11 A3002 RMK FG2 SLP174

CYQF;2011-08-12 10:31;CYQF 121031Z 22004KT 4SM BR SKC

CYQF;2011-08-12 10:41;CYQF 121041Z 24004KT 1 1/2SM BR SKC RMK FG3

CYQF;2011-08-12 11:00;CYQF 121100Z 22002KT 1SM BR SKC 09/09 A3003 RMK FG2 SLP175

CYQF;2011-08-12 12:00;CYQF 121200Z 23004KT 1SM BR SKC 08/08 A3003 RMK FG2 SLP182

CYQF;2011-08-12 13:00;CYQF 121300Z 22003KT 3SM BR FEW250 08/08 A3005 RMK CI1 VIS SE-SW 1 BR SLP188

CYQF;2011-08-12 14:00;CYQF 121400Z 22004KT 12SM FEW250 10/10 A3006 RMK CI1 SLP192

CYQF;2011-08-12 15:00;CYQF 121500Z 24003KT 12SM SCT250 13/11 A3007 RMK CI0 FOG BNK 5 E SLP193

CYQF;2011-08-12 16:00;CYQF 121600Z 15003KT 15SM FEW250 15/13 A3007 RMK CI0 SLP193

CYQF;2011-08-12 17:00;CYQF 121700Z 16004KT 12SM FEW020 FEW250 19/14 A3007 RMK CU1CI0 SLP193

CYQF;2011-08-12 18:00;CYQF 121800Z 16005KT 15SM FEW025 FEW250 20/14 A3007 RMK CU1CI1 SLP185

CYQF;2011-08-12 19:00;CYQF 121900Z 17008KT 15SM FEW030 21/14 A3006 RMK CU1 SLP184

CYQF;2011-08-12 20:00;CYQF 122000Z 15008KT 15SM FEW035 22/14 A3005 RMK CU2 SLP181

CYQF;2011-08-12 21:00;CYQF 122100Z 15008KT 15SM FEW040 22/12 A3005 RMK CU2 SLP179

CYQF;2011-08-12 22:00;CYQF 122200Z 14006KT 15SM FEW040 23/13 A3004 RMK CU2 SLP175

CYQF;2011-08-12 23:00;CYQF 122300Z 14010KT 15SM FEW040 23/12 A3002 RMK CU2 SLP171

CYQF;2011-08-13 00:00;CYQF 130000Z 15013KT 15SM FEW040 FEW250 23/13 A3002 RMK CU1CI1 SLP171

CYQF;2011-08-13 01:00;CYQF 130100Z 14008KT 15SM FEW250 22/13 A3001 RMK CI1 SLP168

CYQF;2011-08-13 02:00;CYQF 130200Z 15007KT 15SM FEW250 21/14 A3000 RMK CI1 SLP166

CYQF;2011-08-13 03:00;CYQF 130300Z 14005KT 15SM SCT250 18/14 A3000 RMK CI2 SLP165

CYQF;2011-08-13 04:00;CYQF 130400Z 15005KT 15SM FEW100 SCT250 17/14 A3000 RMK AC1CI1 SLP166

CYQF;2011-08-13 05:00;CYQF 130500Z 14006KT 15SM FEW250 16/14 A3000 RMK CI1 SLP164

CYQF;2011-08-13 06:00;CYQF 130600Z 18004KT 15SM FEW250 14/12 A2999 RMK CI1 SLP156

CYQF;2011-08-13 07:00;CYQF 130700Z 15005KT 15SM SKC 14/12 A2998 RMK SLP154

CYQF;2011-08-13 08:00;CYQF 130800Z 15005KT 15SM SKC 14/12 A2997 RMK SLP150

CYQF;2011-08-13 09:00;CYQF 130900Z 18003KT 15SM SKC 13/12 A2995 RMK SLP145

CYQF;2011-08-13 10:00;CYQF 131000Z 18008KT 15SM SKC 13/11 A2995 RMK SLP142

CYQF;2011-08-13 11:00;CYQF 131100Z 15008KT 15SM FEW090 12/11 A2994 RMK AC2 SLP140

CYQF;2011-08-13 12:00;CYQF 131200Z 18003KT 15SM FEW080 11/10 A2994 RMK AC2 SLP139

CYQF;2011-08-13 13:00;CYQF 131300Z 00000KT 15SM FEW080 11/10 A2993 RMK AC2 SLP138

CYQF;2011-08-13 14:00;CYQF 131400Z 21003KT 15SM FEW080 12/11 A2994 RMK AC2 ACC ASOCTD SLP139

CYQF;2011-08-13 15:00;CYQF 131500Z 20003KT 15SM FEW080 FEW250 14/12 A2994 RMK AC2CI1 SLP141

CYQF;2011-08-13 16:00;CYQF 131600Z 21002KT 15SM FEW080 16/13 A2993 RMK AC1 SLP138

CYQF;2011-08-13 17:00;CYQF 131700Z 00000KT 15SM FEW080 20/14 A2991 RMK AC1 SLP134

CYQF;2011-08-13 18:00;CYQF 131800Z 00000KT 15SM FEW080 22/13 A2991 RMK AC1 SLP127

CYQF;2011-08-13 19:00;CYQF 131900Z 00000KT 15SM FEW045 24/12 A2990 RMK CU1 SLP125

CYQF;2011-08-13 20:00;CYQF 132000Z 17003KT 15SM FEW050TCU 25/12 A2989 RMK TCU1 SLP123

CYQF;2011-08-13 21:00;CYQF 132100Z 18004KT 15SM FEW060 25/10 A2988 RMK CU1 SLP116

CYQF;2011-08-13 22:00;CYQF 132200Z 14004KT 15SM FEW060 26/10 A2986 RMK CU1 SLP111

CYQF;2011-08-13 23:00;CYQF 132300Z 13008KT 15SM FEW060TCU 26/11 A2985 RMK TCU1 SLP105

CYQF;2011-08-14 00:00;CYQF 140000Z 10008KT 15SM FEW060CB 25/13 A2984 RMK CB1 SLP103

CYQF;2011-08-14 01:00;CYQF 140100Z 09005KT 15SM FEW250 24/14 A2984 RMK CI1 SLP102

CYQF;2011-08-14 02:00;CYQF 140200Z 08004KT 15SM FEW250 23/16 A2983 RMK CI1 SLP099

CYQF;2011-08-14 03:00;CYQF 140300Z 06006KT 15SM FEW250 21/16 A2983 RMK CI1 SLP101

CYQF;2011-08-14 04:00;CYQF 140400Z 00000KT 15SM FEW250 19/15 A2982 RMK CI1 SLP100

CYQF;2011-08-14 05:00;CYQF 140500Z 02004KT 15SM SKC 17/15 A2982 RMK SLP099

CYQF;2011-08-14 06:00;CYQF 140600Z 00000KT 15SM SKC 15/14 A2981 RMK SLP093

CYQF;2011-08-14 07:00;CYQF 140700Z 24002KT 15SM SKC 14/12 A2980 RMK SLP091

CYQF;2011-08-14 08:00;CYQF 140800Z 00000KT 15SM SKC 12/12 A2979 RMK SLP088

CYQF;2011-08-14 09:00;CYQF 140900Z 00000KT 15SM SKC 12/12 A2978 RMK SLP082

CYQF;2011-08-14 10:00;CYQF 141000Z 00000KT 15SM FEW080 10/10 A2977 RMK AC2 SLP080

CYQF;2011-08-14 11:00;CYQF 141100Z 25002KT 15SM FEW080 10/09 A2977 RMK AC2 SLP079

CYQF;2011-08-14 12:00;CYQF 141200Z 29004KT 15SM FEW040 BKN080 10/09 A2977 RMK SC1AC3 SLP082

CYQF;2011-08-14 12:43;CYQF 141243Z 00000KT 2SM BR SCT006 BKN080 RMK ST3AC2

CYQF;2011-08-14 13:00;CYQF 141300Z 23003KT 1 1/2SM BR SCT006 BKN080 10/10 A2977 RMK ST3AC2 SLP081

CYQF;2011-08-14 13:31;CYQF 141331Z 27003KT 1/4SM FG BKN080 BKN250 RMK FG2AC2CI2

CYQF;2011-08-14 14:00;CYQF 141400Z 21002KT 3SM BR SCT030 BKN080 BKN250 11/11 A2977 RMK FG1SC2AC2CI2 VIS S 1 SLP081

CYQF;2011-08-14 15:00;CYQF 141500Z 27003KT 4SM BR FEW030 BKN070 BKN220 14/13 A2977 RMK SC2AC3CI2 SLP081

CYQF;2011-08-14 16:00;CYQF 141600Z 25003KT 8SM FEW030 FEW070 BKN250 15/14 A2976 RMK SC1AC2CI2 BR SLP078

CYQF;2011-08-14 17:00;CYQF 141700Z 30004KT 10SM FEW030 FEW080 BKN250 19/16 A2975 RMK CU1AC1CI2 SLP075

CYQF;2011-08-14 18:00;CYQF 141800Z 31008KT 15SM FEW025 FEW090 BKN250 21/16 A2974 RMK CU1AC1CI2 SLP069

CYQF;2011-08-14 19:00;CYQF 141900Z 36012KT 15SM FEW020 FEW090 BKN250 22/17 A2974 RMK CU1AC1CI3 SLP070

CYQF;2011-08-14 20:00;CYQF 142000Z 36010KT 10SM SCT020 BKN090 BKN250 21/16 A2975 RMK CU4AC1CI1 SLP073

CYQF;2011-08-14 21:00;CYQF 142100Z 34010KT 10SM SCT020 BKN090 BKN250 22/16 A2975 RMK CU3AC2CI1 SLP076

CYQF;2011-08-14 22:00;CYQF 142200Z 33012KT 12SM FEW020 SCT090 BKN250 21/16 A2976 RMK CU2AC2CI1 SLP077

CYQF;2011-08-14 23:00;CYQF 142300Z 36006KT 12SM FEW025 BKN250 21/15 A2976 RMK CU2CI2 SLP078

CYQF;2011-08-15 00:00;CYQF 150000Z 36008KT 12SM FEW025 BKN250 21/15 A2975 RMK CU1CI2 SLP078

CYQF;2011-08-15 01:00;CYQF 150100Z 34008KT 12SM FEW020 BKN250 20/15 A2974 RMK CU2CI2 SLP075

CYQF;2011-08-15 02:00;CYQF 150200Z 34008KT 12SM FEW020 BKN250 19/15 A2974 RMK CU2CI2 SLP077

CYQF;2011-08-15 03:00;CYQF 150300Z 00000KT 12SM FEW020 FEW100 BKN250 17/14 A2974 RMK CU1ACC2CI1 SLP077

CYQF;2011-08-15 04:00;CYQF 150400Z 31008KT 15SM FEW100 15/13 A2976 RMK AC2 SLP084

CYQF;2011-08-15 05:00;CYQF 150500Z 34024G30KT 15SM SCT030 BKN100 BKN250 16/13 A2979 RMK SC4AC2CI0 LTMG DIST W SLP091

CYQF;2011-08-15 06:00;CYQF 150600Z 33010G15KT 15SM BKN030 BKN090 13/10 A2982 RMK SC6AC2 LTNG DIST NW SLP098

CYQF;2011-08-15 07:00;CYQF 150700Z 35008KT 15SM SCT030 13/10 A2983 RMK SC4 SLP102

CYQF;2011-08-15 08:00;CYQF 150800Z 30005KT 15SM FEW030 11/10 A2981 RMK SC2 SLP097

CYQF;2011-08-15 09:00;CYQF 150900Z 30007KT 15SM BKN030 12/11 A2984 RMK SC6 SLP106

CYQF;2011-08-15 10:00;CYQF 151000Z 00000KT 15SM BKN030 11/10 A2983 RMK SC6 SLP103

CYQF;2011-08-15 11:00;CYQF 151100Z 00000KT 15SM BKN030 11/10 A2984 RMK SC6 SLP106

CYQF;2011-08-15 12:00;CYQF 151200Z 00000KT 15SM +RA OVC030 11/10 A2988 RMK SC8 SLP124

CYQF;2011-08-15 13:00;CYQF 151300Z 00000KT 15SM -RA BKN030 BKN250 11/10 A2985 RMK SC6CI1 RERA SLP113

CYQF;2011-08-15 13:27;CYQF 151327Z 24010KT 15SM -SHRA FEW005 BKN030 BKN080 BKN250 RMK SF1SC5AC1CI1

CYQF;2011-08-15 14:00;CYQF 151400Z 23004KT 15SM -SHRA FEW005 BKN030 BKN080 11/10 A2985 RMK SF1SC5AC2 SLP112

CYQF;2011-08-15 15:00;CYQF 151500Z 26006KT 15SM -SHRA FEW005 BKN040 BKN080 11/10 A2986 RMK SF1SC5AC2 SLP120

CYQF;2011-08-15 16:00;CYQF 151600Z 28003KT 15SM FEW005 OVC060 11/11 A2986 RMK SF1SC7 SLP122

CYQF;2011-08-15 17:00;CYQF 151700Z 29010KT 15SM FEW005 OVC050 11/10 A2989 RMK SF1SC7 SLP129

CYQF;2011-08-15 17:16;CYQF 151716Z 29010KT 15SM -SHRA FEW005 OVC050 RMK SF2SC6

CYQF;2011-08-15 18:00;CYQF 151800Z 33010G15KT 10SM -SHRA FEW005 OVC050 10/08 A2989 RMK SF2SC6 SLP137

CYQF;2011-08-15 19:00;CYQF 151900Z 31010KT 6SM -SHRA BR SCT005 OVC030 09/08 A2993 RMK SF3SC5 SLP148

CYQF;2011-08-15 20:00;CYQF 152000Z 24005KT 6SM -SHRA BR FEW005 OVC030 10/08 A2992 RMK SF2SC6 SLP145

CYQF;2011-08-15 21:00;CYQF 152100Z 14007KT 15SM -SHRA FEW005 BKN030 10/09 A2990 RMK SF2SC6 SLP139

CYQF;2011-08-15 22:00;CYQF 152200Z 29005KT 15SM FEW012 BKN030 11/08 A2990 RMK CU2SC5 SLP139

CYQF;2011-08-15 23:00;CYQF 152300Z 00000KT 15SM FEW020 FEW100 SCT260 13/08 A2991 RMK CU2AC1CI1 SLP144

CYQF;2011-08-16 00:00;CYQF 160000Z 00000KT 15SM FEW025 FEW260 14/08 A2991 RMK CU1CI2 SLP141

CYQF;2011-08-16 01:00;CYQF 160100Z 27005KT 15SM FEW016CB SCT250 12/08 A2993 RMK CB2CI2 SLP146

CYQF;2011-08-16 01:33;CYQF 160133Z 28010G15KT 15SM -SHRA FEW020CB BKN250 RMK CB2CI2

CYQF;2011-08-16 02:00;CYQF 160200Z 18004KT 15SM FEW020CB BKN250 11/07 A2994 RMK CB2CI2 SLP148

CYQF;2011-08-16 03:00;CYQF 160300Z 33012G18KT 15SM FEW020CB FEW100 BKN250 11/07 A2995 RMK CB2AC1CI2 SLP158

CYQF;2011-08-16 04:00;CYQF 160400Z 22004KT 15SM FEW080 BKN250 10/07 A2996 RMK AC2CI3 SLP160

CYQF;2011-08-16 05:00;CYQF 160500Z 26004KT 15SM FEW080 BKN250 08/07 A2997 RMK AC2CI2 SLP164

CYQF;2011-08-16 06:00;CYQF 160600Z 22004KT 15SM FEW080 BKN250 08/07 A2998 RMK AC2CI1 SLP174

CYQF;2011-08-16 07:00;CYQF 160700Z 20004KT 15SM FEW080 06/05 A3000 RMK AC2 SLP178

CYQF;2011-08-16 08:00;CYQF 160800Z 21006KT 15SM FEW080 05/05 A3000 RMK AC2 SLP179

CYQF;2011-08-16 09:00;CYQF 160900Z 20004KT 15SM SKC 05/04 A3000 RMK SLP183

CYQF;2011-08-16 10:00;CYQF 161000Z 20003KT 15SM SKC 05/04 A3002 RMK SLP188

CYQF;2011-08-16 11:00;CYQF 161100Z 18004KT 15SM SKC 04/04 A3002 RMK SLP190

CYQF;2011-08-16 12:00;CYQF 161200Z 20004KT 15SM SKC 04/03 A3003 RMK SLP188

CYQF;2011-08-16 13:00;CYQF 161300Z 21005KT 15SM FEW250 04/03 A3004 RMK CI0 SLP191

CYQF;2011-08-16 14:00;CYQF 161400Z 20004KT 15SM BKN250 06/05 A3004 RMK CI1 SLP191

CYQF;2011-08-16 15:00;CYQF 161500Z 22004KT 15SM BKN250 08/06 A3003 RMK CI1 SLP188

CYQF;2011-08-16 16:00;CYQF 161600Z 18005KT 15SM BKN250 12/07 A3002 RMK CI1 SLP184

CYQF;2011-08-16 17:00;CYQF 161700Z 18003KT 15SM SCT250 15/07 A3001 RMK CI0 SLP181

CYQF;2011-08-16 18:00;CYQF 161800Z 20005KT 15SM FEW040 FEW250 17/07 A3000 RMK CU1CI0 SLP173

CYQF;2011-08-16 19:00;CYQF 161900Z 23005KT 15SM FEW055 FEW250 18/05 A2999 RMK CU1CI0 SLP170

CYQF;2011-08-16 20:00;CYQF 162000Z 25005KT 15SM FEW055 FEW250 19/06 A2998 RMK CU2CI0 SLP166

CYQF;2011-08-16 21:00;CYQF 162100Z 26006KT 15SM FEW055 SCT250 20/06 A2997 RMK CU1CI0 SLP162

CYQF;2011-08-16 22:00;CYQF 162200Z 24008KT 15SM FEW054 FEW250 20/07 A2996 RMK CU1CI1 CI TR SLP159

CYQF;2011-08-16 23:00;CYQF 162300Z 16005KT 15SM FEW055 FEW250 21/07 A2995 RMK CU1CI1 CI TR SLP155

CYQF;2011-08-17 00:00;CYQF 170000Z 14004KT 15SM FEW055 FEW250 21/07 A2994 RMK CU1CI1 SLP150

CYQF;2011-08-17 01:00;CYQF 170100Z 15003KT 15SM FEW050 FEW100 BKN250 21/08 A2993 RMK SC1AC1CI1 SC TR SLP148

CYQF;2011-08-17 02:00;CYQF 170200Z 14005KT 15SM FEW050 FEW250 19/10 A2993 RMK SC1CI1 SC TR SLP147

CYQF;2011-08-17 03:00;CYQF 170300Z 20005KT 15SM FEW050 SCT250 15/10 A2994 RMK SC1CI2 SLP151

CYQF;2011-08-17 04:00;CYQF 170400Z 17006KT 15SM FEW050 SCT250 13/10 A2995 RMK SC1CI1 SLP155

CYQF;2011-08-17 05:00;CYQF 170500Z 18007KT 15SM SKC 11/09 A2996 RMK SLP158

CYQF;2011-08-17 06:00;CYQF 170600Z 23008KT 15SM SKC 09/08 A2996 RMK SLP157

CYQF;2011-08-17 07:00;CYQF 170700Z 23007KT 15SM SKC 10/07 A2996 RMK SLP157

CYQF;2011-08-17 08:00;CYQF 170800Z 24005KT 15SM SKC 08/06 A2997 RMK SLP159

CYQF;2011-08-17 09:00;CYQF 170900Z 18004KT 15SM SKC 08/06 A2996 RMK SLP156

CYQF;2011-08-17 10:00;CYQF 171000Z 20005KT 15SM SKC 07/05 A2997 RMK SLP158

CYQF;2011-08-17 11:00;CYQF 171100Z 00000KT 15SM SKC 08/06 A2997 RMK SLP159

CYQF;2011-08-17 12:00;CYQF 171200Z 22003KT 15SM FEW090 FEW250 07/05 A2998 RMK AC1CI1 SLP161

CYQF;2011-08-17 13:00;CYQF 171300Z 23002KT 15SM SCT110 BKN250 07/05 A2998 RMK AC3CI2 SLP162

CYQF;2011-08-17 14:00;CYQF 171400Z 17002KT 15SM SCT110 BKN250 09/06 A2998 RMK AC3CI1 SLP161

CYQF;2011-08-17 15:00;CYQF 171500Z 00000KT 15SM FEW110 BKN250 11/08 A2998 RMK AC2CI2 SLP164

CYQF;2011-08-17 16:00;CYQF 171600Z 10002KT 15SM FEW110 BKN250 14/09 A2998 RMK AC1CI3 SLP163

CYQF;2011-08-17 17:00;CYQF 171700Z 05008KT 15SM FEW110 BKN160 BKN250 17/10 A2996 RMK AC1AC4CI1 SLP156

CYQF;2011-08-17 18:00;CYQF 171800Z 13005KT 15SM SCT100 BKN250 19/12 A2994 RMK AC4CI2 SLP148

CYQF;2011-08-17 19:00;CYQF 171900Z 15008KT 15SM BKN100 BKN250 20/10 A2992 RMK AC5CI1 SLP142

CYQF;2011-08-17 20:00;CYQF 172000Z 17005KT 15SM FEW045 BKN100 BKN250 20/09 A2991 RMK CU1AC4CI2 SLP138

CYQF;2011-08-17 21:00;CYQF 172100Z 18003KT 15SM FEW045 BKN100 BKN250 20/09 A2990 RMK CU1AC4CI2 SLP132

CYQF;2011-08-17 22:00;CYQF 172200Z 12005KT 15SM FEW045 FEW100 BKN250 21/10 A2988 RMK CU1AC1CI5 SLP127

CYQF;2011-08-17 23:00;CYQF 172300Z 06002KT 15SM FEW045 FEW100 BKN250 22/10 A2986 RMK CU1AC2CI4 SLP121

CYQF;2011-08-18 00:00;CYQF 180000Z 03010G15KT 15SM FEW025 BKN100 BKN250 19/13 A2986 RMK CU2AC4CI2 SLP121

CYQF;2011-08-18 01:00;CYQF 180100Z 36020G26KT 15SM SCT025CB BKN070 OVC250 16/10 A2989 RMK CB3AC3CI2 OCNL LTNG W AND N SLP132

CYQF;2011-08-18 01:37;CYQF 180137Z 35015G20KT 15SM -TSRA FEW010 BKN020CB OVC070 RMK SC1CB6AC2 OCNL LTNG

CYQF;2011-08-18 02:00;CYQF 180200Z 36010KT 5SM -TSRA SCT010 OVC020CB 13/11 A2994 RMK SC3CB5 SLP146

CYQF;2011-08-18 02:11;CYQF 180211Z 36015G22KT 15SM TS FEW010 SCT020CB OVC070 RMK SC2CB2AC4

CYQF;2011-08-18 02:21;CYQF 180221Z CCA 36015G20KT 15SM FEW010 FEW020 OVC070 RETS RMK SC1SC2AC6

CYQF;2011-08-18 03:00;CYQF 180300Z CCA 01010G18KT 15SM VCSH FEW010 FEW020 OVC070 11/09 A2993 RMK SF1SC1AC6 RETS SLP151

CYQF;2011-08-18 04:00;CYQF 180400Z 35005KT 15SM -SHRA OVC070 10/09 A2996 RMK AC8 SLP160

CYQF;2011-08-18 04:30;CYQF 180430Z 00000KT 15SM SCT070 OVC100 RMK AC4AC4

CYQF;2011-08-18 05:00;CYQF 180500Z 27004KT 15SM BKN070 OVC100 10/09 A2996 RMK AC5AC3 SLP161

CYQF;2011-08-18 06:00;CYQF 180600Z 20004KT 15SM -SHRA BKN070 OVC100 10/09 A2997 RMK AC6AC2 SLP158

CYQF;2011-08-18 07:00;CYQF 180700Z 27004KT 15SM -SHRA BKN070 OVC100 10/09 A2999 RMK AC6AC2 SLP163

CYQF;2011-08-18 08:00;CYQF 180800Z 27005KT 15SM -RA BKN070 BKN090 10/09 A2999 RMK AC6AC2 SLP163

CYQF;2011-08-18 08:40;CYQF 180840Z 26005KT 15SM BKN070 RMK AC7

CYQF;2011-08-18 09:00;CYQF 180900Z 27004KT 15SM BKN070 09/09 A3001 RMK AC7 SLP170

CYQF;2011-08-18 10:00;CYQF 181000Z 27004KT 15SM BKN070 09/09 A3002 RMK AC7 SLP172

CYQF;2011-08-18 11:00;CYQF 181100Z 28008KT 15SM BKN070 09/08 A3004 RMK AC6 SLP179

CYQF;2011-08-18 12:00;CYQF 181200Z 28010KT 15SM BKN070 09/07 A3004 RMK AC6 SLP183

CYQF;2011-08-18 13:00;CYQF 181300Z 30007KT 15SM FEW070 08/07 A3005 RMK AC2 SLP186

CYQF;2011-08-18 14:00;CYQF 181400Z 26005KT 15SM FEW080 FEW250 09/07 A3006 RMK AC1CI1 SLP190

CYQF;2011-08-18 15:00;CYQF 181500Z 29008KT 15SM FEW080 FEW250 11/07 A3007 RMK AC1CI1 SLP200

CYQF;2011-08-18 16:00;CYQF 181600Z 34010G15KT 15SM FEW025 FEW080 SCT250 13/06 A3007 RMK CU1AC1CI1 SLP201

CYQF;2011-08-18 17:00;CYQF 181700Z 33010G15KT 15SM FEW030 SCT250 14/07 A3007 RMK CU1CI1 SLP200

CYQF;2011-08-18 18:00;CYQF 181800Z 31010G15KT 15SM FEW038 BKN250 15/05 A3007 RMK CU1CS3 HALO SLP196

CYQF;2011-08-18 19:00;CYQF 181900Z 33010G15KT 15SM FEW038 BKN250 15/06 A3007 RMK CU1CI3 SLP195

CYQF;2011-08-18 20:00;CYQF 182000Z 31010KT 15SM FEW040 BKN250 16/06 A3006 RMK CU2CI2 SLP192

CYQF;2011-08-18 21:00;CYQF 182100Z 36009KT 15SM FEW045 BKN250 17/06 A3005 RMK CU2CI2 SLP187

CYQF;2011-08-18 22:00;CYQF 182200Z 30007KT 15SM SCT045 BKN250 17/05 A3004 RMK CU3CI2 SLP185

CYQF;2011-08-18 23:00;CYQF 182300Z 31005KT 15SM FEW050TCU BKN250 17/05 A3004 RMK TCU2CI4 SHWR SW SLP183

CYQF;2011-08-19 00:00;CYQF 190000Z 31003KT 15SM SCT048TCU BKN250 17/05 A3004 RMK TCU3CI3 CB ASOCTD SHWRS S-SW SLP184

CYQF;2011-08-19 00:26;CYQF 190026Z 33003KT 15SM TS BKN050CB BKN250 RMK CB5CI2 LTGCG W

CYQF;2011-08-19 01:00;CYQF 190100Z 23005KT 15SM -TSRA BKN040CB BKN250 16/09 A3003 RMK CB6CI2 SLP183

CYQF;2011-08-19 01:25;CYQF 190125Z 00000KT 15SM -SHRA BKN040CB BKN250 RMK CB5CI2 RETS

CYQF;2011-08-19 02:00;CYQF 190200Z 00000KT 12SM -SHRA BKN040TCU BKN250 13/07 A3006 RMK TCU5CI2 RETS SLP193

CYQF;2011-08-19 03:00;CYQF 190300Z CCA 26008KT 15SM -SHRA BKN040CB BKN250 11/09 A3008 RMK CB6CI2 LTG SW SLP203

CYQF;2011-08-19 03:10;CYQF 190310Z 25012KT 15SM -TSRA BKN040CB BKN250 RMK CB6CI2

CYQF;2011-08-19 03:56;CYQF 190356Z 00000KT 15SM BKN040CB BKN250 RMK CB5CI2 LTG DIST W RETS

CYQF;2011-08-19 04:00;CYQF 190400Z CCA 00000KT 15SM BKN040CB BKN250 10/08 A3009 RMK CB5CI2 LTG DIST W RETS SLP205

CYQF;2011-08-19 05:00;CYQF 190500Z 26008KT 15SM BKN040 BKN250 09/08 A3011 RMK SC5CI0 CB ASOCTD SLP213

CYQF;2011-08-19 06:00;CYQF 190600Z 26004KT 15SM FEW040 SCT100 BKN250 09/07 A3011 RMK SC2AC2CI1 SLP210

CYQF;2011-08-19 07:00;CYQF 190700Z 26007KT 15SM FEW040 FEW090 SCT250 08/06 A3010 RMK SC2AC1CI1 SLP207

CYQF;2011-08-19 08:00;CYQF 190800Z 23005KT 15SM FEW040 SCT250 08/06 A3011 RMK SC2CI1 SLP210

CYQF;2011-08-19 09:00;CYQF 190900Z 22003KT 15SM FEW090 07/06 A3011 RMK AC2 SLP212

CYQF;2011-08-19 10:00;CYQF 191000Z 22004KT 15SM FEW090 05/05 A3011 RMK AC1 SLP212

CYQF;2011-08-19 11:00;CYQF 191100Z 00000KT 15SM FEW090 06/05 A3011 RMK AC1 SLP210

CYQF;2011-08-19 12:00;CYQF 191200Z CCA 00000KT 15SM FEW080 04/04 A3010 RMK AC2 MIFG SLP211

CYQF;2011-08-19 13:00;CYQF 191300Z 00000KT 15SM SCT080 05/05 A3010 RMK AC2 SLP210

CYQF;2011-08-19 14:00;CYQF 191400Z 18003KT 15SM FEW080 07/07 A3010 RMK ACC2 VIRGA SLP211

CYQF;2011-08-19 15:00;CYQF 191500Z 23003KT 15SM SCT080 10/08 A3011 RMK AC4 ACC ASOCTD VIRGA N-NE SLP213

CYQF;2011-08-19 16:00;CYQF 191600Z 00000KT 15SM FEW080 SCT100 SCT250 12/09 A3010 RMK AC2ACC2CI1 ACC ASOCTD NW SLP212

CYQF;2011-08-19 17:00;CYQF 191700Z 00000KT 15SM VCSH FEW080 SCT110 BKN260 15/09 A3010 RMK ACC2AC1CI0 SLP212

CYQF;2011-08-19 18:00;CYQF 191800Z 00000KT 15SM FEW039 SCT100 BKN250 16/06 A3010 RMK CU2AC2CI0 CI TR SHWR NE TCU ASOCTD SLP205

CYQF;2011-08-19 19:00;CYQF 191900Z 24005KT 15SM FEW040 BKN260 17/07 A3009 RMK CU2CI1 SLP204

CYQF;2011-08-19 20:00;CYQF 192000Z 32003KT 15SM FEW045 BKN250 17/06 A3008 RMK CU2CI1 SLP201

CYQF;2011-08-19 21:00;CYQF 192100Z 26006KT 15SM FEW045 BKN250 18/06 A3008 RMK CU2CI2 SLP200

CYQF;2011-08-19 22:00;CYQF 192200Z 32008KT 15SM FEW050 BKN260 18/05 A3006 RMK CU2CS2 SLP195

CYQF;2011-08-19 23:00;CYQF 192300Z CCA 36007KT 15SM FEW050 BKN250 18/05 A3005 RMK CU1CS5 SLP189

CYQF;2011-08-20 00:00;CYQF 200000Z 34004KT 15SM FEW100 OVC250 18/04 A3005 RMK AC1CS6 CONTRAILS SLP190

CYQF;2011-08-20 01:00;CYQF 200100Z 00000KT 15SM FEW100 OVC250 18/03 A3005 RMK AC1CS6 SLP190

CYQF;2011-08-20 02:00;CYQF 200200Z 00000KT 15SM BKN250 17/04 A3005 RMK CS2 SLP191

CYQF;2011-08-20 03:00;CYQF 200300Z 00000KT 15SM SCT250 14/09 A3005 RMK CI2 SLP191

CYQF;2011-08-20 04:00;CYQF 200400Z 00000KT 15SM BKN250 11/08 A3006 RMK CI3 SLP195

CYQF;2011-08-20 05:00;CYQF 200500Z 19005KT 15SM SCT100 BKN250 11/08 A3006 RMK AC3CI2 SLP195

CYQF;2011-08-20 06:00;CYQF 200600Z 19005KT 15SM SCT100 BKN250 11/09 A3006 RMK AC3CI2 SLP191

CYQF;2011-08-20 07:00;CYQF 200700Z 19008KT 15SM BKN100 BKN250 11/09 A3006 RMK AC5CI1 SLP190

CYQF;2011-08-20 08:00;CYQF 200800Z 18003KT 15SM SCT100 BKN250 09/08 A3006 RMK AC4CI1 SLP189

CYQF;2011-08-20 09:00;CYQF 200900Z 20004KT 15SM SCT100 BKN250 08/07 A3005 RMK AC4CI1 SLP188

CYQF;2011-08-20 10:00;CYQF 201000Z 18005KT 15SM FEW100 SCT250 08/06 A3003 RMK AC2CI2 SLP182

CYQF;2011-08-20 11:00;CYQF 201100Z 22004KT 15SM FEW100 SCT250 07/06 A3002 RMK AC1CI1 SLP178

CYQF;2011-08-20 12:00;CYQF 201200Z 14004KT 15SM FEW100 SCT250 07/06 A3002 RMK AC1CI2 SLP179

CYQF;2011-08-20 13:00;CYQF 201300Z 20004KT 15SM FEW100 SCT250 06/05 A3003 RMK AC2CI1 SLP180

CYQF;2011-08-20 14:00;CYQF 201400Z 20003KT 15SM FEW100 SCT250 10/07 A3002 RMK AC2CI2 SLP178

CYQF;2011-08-20 15:00;CYQF 201500Z 20005KT 15SM FEW100 BKN250 11/07 A3004 RMK AC2CI0 SLP184

CYQF;2011-08-20 16:00;CYQF 201600Z 23005KT 15SM SCT100 BKN250 14/09 A3003 RMK AC3CI1 SLP181

CYQF;2011-08-20 17:00;CYQF 201700Z 24005KT 15SM FEW150 BKN250 17/10 A3003 RMK AC1CI2 SLP182

CYQF;2011-08-20 18:00;CYQF 201800Z 24005KT 15SM FEW150 SCT260 19/11 A3002 RMK AC1CI1 SLP174

CYQF;2011-08-20 19:00;CYQF 201900Z 23005KT 15SM FEW150 SCT260 21/10 A3001 RMK AC1CI1 SLP169

CYQF;2011-08-20 20:00;CYQF 202000Z 32004KT 15SM FEW053 FEW250 22/09 A2999 RMK CF1CI1 CF TR SLP165

CYQF;2011-08-20 21:00;CYQF 202100Z 00000KT 15SM FEW051 FEW250 23/10 A2998 RMK CF1CI1 SLP157

CYQF;2011-08-20 22:00;CYQF 202200Z 25002KT 15SM FEW051 FEW250 23/10 A2996 RMK CF1CI1 CF TR SLP152

CYQF;2011-08-20 23:00;CYQF 202300Z 18004KT 15SM FEW050 FEW250 23/10 A2995 RMK CU1CI1 SLP147

CYQF;2011-08-21 00:00;CYQF 210000Z 14002KT 15SM FEW050 FEW260 24/09 A2994 RMK CU1CI1 SLP143

CYQF;2011-08-21 01:00;CYQF 210100Z 14005KT 15SM FEW050 FEW260 24/09 A2992 RMK CU1CI1 SLP139

CYQF;2011-08-21 02:00;CYQF 210200Z 14004KT 15SM FEW040 FEW260 22/12 A2991 RMK CU1CI1 SLP136

CYQF;2011-08-21 03:00;CYQF 210300Z 13004KT 15SM FEW040 FEW260 19/13 A2992 RMK SC1CI1 SLP137

CYQF;2011-08-21 04:00;CYQF 210400Z 15005KT 15SM FEW040 16/11 A2992 RMK SC1 SLP139

CYQF;2011-08-21 05:00;CYQF 210500Z 18005KT 15SM SKC 14/10 A2992 RMK SLP139

CYQF;2011-08-21 06:00;CYQF 210600Z 00000KT 15SM SKC 13/10 A2992 RMK SLP135

CYQF;2011-08-21 07:00;CYQF 210700Z 16003KT 15SM SKC 12/09 A2990 RMK SLP131

CYQF;2011-08-21 08:00;CYQF 210800Z 17004KT 15SM SKC 12/09 A2989 RMK SLP127

CYQF;2011-08-21 09:00;CYQF 210900Z 00000KT 15SM SKC 11/08 A2988 RMK SLP122

CYQF;2011-08-21 10:00;CYQF 211000Z 15004KT 15SM SKC 11/08 A2987 RMK SLP118

CYQF;2011-08-21 11:00;CYQF 211100Z 19004KT 15SM SKC 09/07 A2985 RMK SLP113

CYQF;2011-08-21 12:00;CYQF 211200Z 19004KT 15SM SKC 09/07 A2985 RMK SLP110

CYQF;2011-08-21 13:00;CYQF 211300Z 19005KT 15SM SKC 08/07 A2984 RMK SLP108

CYQF;2011-08-21 14:00;CYQF 211400Z 16006KT 15SM FEW060 10/08 A2983 RMK SC1 SLP104

CYQF;2011-08-21 15:00;CYQF 211500Z 18005KT 15SM FEW250 13/10 A2982 RMK CI1 SLP103

CYQF;2011-08-21 16:00;CYQF 211600Z 21005KT 15SM FEW250 18/12 A2981 RMK CI1 SLP100

CYQF;2011-08-21 17:00;CYQF 211700Z 19004KT 15SM FEW250 21/11 A2980 RMK CI1 SLP095

CYQF;2011-08-21 18:00;CYQF 211800Z 19005KT 15SM FEW250 24/13 A2978 RMK CI1 SLP083

CYQF;2011-08-21 19:00;CYQF 211900Z 20006KT 15SM FEW260 27/12 A2976 RMK CI1 SLP077

CYQF;2011-08-21 20:00;CYQF 212000Z 19007KT 15SM FEW270 28/12 A2974 RMK CI1 SLP071

CYQF;2011-08-21 21:00;CYQF 212100Z 17005KT 15SM SCT270 29/09 A2972 RMK CI1 SLP057

CYQF;2011-08-21 22:00;CYQF 212200Z 18004KT 15SM BKN270 29/12 A2971 RMK CI2 SLP054

CYQF;2011-08-21 23:00;CYQF 212300Z 17006KT 15SM FEW120 BKN270 29/11 A2969 RMK AC1CI1 SLP050

CYQF;2011-08-22 00:00;CYQF 220000Z 23006KT 15SM FEW120 BKN270 29/13 A2969 RMK AC1CI2 SLP050

CYQF;2011-08-22 01:00;CYQF 220100Z 00000KT 15SM FEW120 BKN270 26/14 A2969 RMK AC1CI2 SLP050

CYQF;2011-08-22 02:00;CYQF 220200Z 29006KT 15SM FEW120 BKN250 23/12 A2970 RMK AC2CI2 SLP053

CYQF;2011-08-22 03:00;CYQF 220300Z 30005KT 15SM FEW120 BKN250 20/11 A2971 RMK AC2CI2 SLP061

CYQF;2011-08-22 04:00;CYQF 220400Z 18003KT 15SM FEW120 BKN250 18/12 A2973 RMK AC2CI2 SLP067

CYQF;2011-08-22 05:00;CYQF 220500Z 00000KT 15SM FEW120 BKN250 16/11 A2973 RMK AC2CI2 SLP067

CYQF;2011-08-22 06:00;CYQF 220600Z 20005KT 15SM FEW120 SCT250 13/11 A2972 RMK AC1CI2 SLP063

CYQF;2011-08-22 07:00;CYQF 220700Z 20003KT 15SM FEW120 SCT250 13/10 A2971 RMK AC1CI1 SLP059

CYQF;2011-08-22 08:00;CYQF 220800Z 22005KT 15SM SKC 11/10 A2971 RMK SLP059

CYQF;2011-08-22 09:00;CYQF 220900Z 20006KT 15SM SKC 11/09 A2970 RMK SLP053

CYQF;2011-08-22 10:00;CYQF 221000Z 22004KT 15SM SKC 11/08 A2970 RMK SLP051

CYQF;2011-08-22 11:00;CYQF 221100Z 00000KT 15SM FEW120 11/08 A2969 RMK AC2 SLP050

CYQF;2011-08-22 12:00;CYQF 221200Z 22004KT 15SM FEW050 BKN110 11/08 A2969 RMK SC2AC3 SLP048

CYQF;2011-08-22 13:00;CYQF 221300Z 21005KT 15SM BKN100 BKN250 11/08 A2968 RMK AC5CI1 VIRGA ALQDS SLP046

CYQF;2011-08-22 14:00;CYQF 221400Z 21003KT 15SM BKN100 BKN250 13/08 A2966 RMK AC6CI1 VIRGA/MAMMATUS ALQDS SLP041

CYQF;2011-08-22 15:00;CYQF 221500Z 24002KT 15SM SCT100 BKN250 14/10 A2968 RMK AC3CI4 VIRGA/MAMMATUS E-SW MVG SE SLP050

CYQF;2011-08-22 16:00;CYQF 221600Z 21005KT 15SM FEW060 BKN100 BKN250 17/11 A2967 RMK SC1AC6CI1 SC TR VIRGA SLP049

CYQF;2011-08-22 17:00;CYQF 221700Z 22006KT 15SM FEW060 BKN100 BKN250 20/13 A2967 RMK SC2AC5CI1 SLP048

CYQF;2011-08-22 18:00;CYQF 221800Z 26006KT 15SM FEW050 SCT140 BKN260 22/13 A2967 RMK CU1AC2CI4 SLP046

CYQF;2011-08-22 19:00;CYQF 221900Z 25004KT 15SM FEW080 FEW140 BKN260 23/14 A2966 RMK AC1AC1CI2 SLP044

CYQF;2011-08-22 20:00;CYQF 222000Z 29007KT 15SM FEW080 BKN140 BKN250 26/13 A2965 RMK AC1AC2CI1 SLP041

CYQF;2011-08-22 21:00;CYQF 222100Z 29002KT 15SM FEW062 BKN140 BKN250 26/10 A2965 RMK CU1AC4CI1 SLP038

CYQF;2011-08-22 22:00;CYQF 222200Z 36005KT 15SM FEW045 BKN100 BKN250 24/13 A2966 RMK CU1AC4CI1 SLP040

CYQF;2011-08-22 23:00;CYQF 222300Z 01004KT 15SM FEW055 BKN100 BKN250 25/11 A2965 RMK CU1AC4CI2 SLP037

CYQF;2011-08-23 00:00;CYQF 230000Z 00000KT 15SM FEW055 SCT120 BKN250 24/10 A2965 RMK CU1AC3CI2 SLP040

CYQF;2011-08-23 01:00;CYQF 230100Z 00000KT 15SM SCT100 BKN250 24/15 A2964 RMK AC3CI2 SLP036

CYQF;2011-08-23 02:00;CYQF 230200Z 00000KT 15SM SCT100 BKN250 21/15 A2964 RMK AC3CI2 SLP035

CYQF;2011-08-23 03:00;CYQF 230300Z 19005KT 15SM SCT100 BKN250 19/11 A2964 RMK AC3CI1 SLP036

CYQF;2011-08-23 04:00;CYQF 230400Z 23004KT 15SM BKN120 17/11 A2966 RMK AC7 SLP042

CYQF;2011-08-23 05:00;CYQF 230500Z 23007KT 15SM BKN120 BKN250 18/09 A2965 RMK AC5CI2 LTNG DIST N SLP041

CYQF;2011-08-23 06:00;CYQF 230600Z 22008KT 15SM BKN120 OVC250 19/08 A2965 RMK AC5CI2 SLP033

CYQF;2011-08-23 07:00;CYQF 230700Z 24007KT 15SM BKN120 OVC250 19/08 A2964 RMK AC5CI2 SLP030

CYQF;2011-08-23 08:00;CYQF 230800Z 24008KT 15SM BKN120 OVC250 16/08 A2965 RMK AC5CI2 SLP032

CYQF;2011-08-23 09:00;CYQF 230900Z 29006KT 15SM BKN120 OVC250 15/08 A2966 RMK AC5CI2 SLP038

CYQF;2011-08-23 10:00;CYQF 231000Z 33010KT 15SM BKN120 OVC250 15/09 A2971 RMK AC5CI2 SLP053

CYQF;2011-08-23 11:00;CYQF 231100Z 35008KT 15SM BKN120 OVC250 14/10 A2974 RMK AC6CI2 SLP062

CYQF;2011-08-23 12:00;CYQF 231200Z 30007KT 15SM FEW050 BKN120 BKN250 13/09 A2976 RMK SC2AC2CI1 SLP077

CYQF;2011-08-23 13:00;CYQF 231300Z 29006KT 15SM FEW050 BKN120 BKN250 13/09 A2979 RMK SC2AC2CI1 SLP084

CYQF;2011-08-23 14:00;CYQF 231400Z 29004KT 15SM FEW050 FEW120 BKN250 13/09 A2981 RMK SC1AC2CI5 SLP090

CYQF;2011-08-23 15:00;CYQF 231500Z 27008KT 15SM FEW050 SCT120 BKN250 14/10 A2983 RMK SC2AC1CI1 SLP102

CYQF;2011-08-23 16:00;CYQF 231600Z 25006KT 15SM FEW050 FEW120 SCT250 16/10 A2983 RMK SC2AC1CI2 SLP104

CYQF;2011-08-23 17:00;CYQF 231700Z 33004KT 15SM SCT080 BKN250 17/09 A2985 RMK AC3CI1 SLP111

CYQF;2011-08-23 18:00;CYQF 231800Z 36008KT 15SM SCT080 SCT250 19/09 A2986 RMK AC3CI1 SLP108

CYQF;2011-08-23 19:00;CYQF 231900Z 01005KT 15SM BKN080 BKN250 19/09 A2988 RMK AC6CI2 SLP114

CYQF;2011-08-23 20:00;CYQF 232000Z 31003KT 15SM FEW044 BKN080 BKN250 19/09 A2988 RMK CU1AC5CI1 SLP116

CYQF;2011-08-23 21:00;CYQF 232100Z 34005KT 15SM FEW050 FEW080 SCT250 20/08 A2988 RMK CU1AC1CI1 SLP119

CYQF;2011-08-23 22:00;CYQF 232200Z 30005KT 15SM FEW045 FEW250 21/09 A2989 RMK CU1CI1 SLP121

CYQF;2011-08-23 23:00;CYQF 232300Z 02003KT 15SM FEW045 21/09 A2990 RMK CU1 SLP125

CYQF;2011-08-24 00:00;CYQF 240000Z 00000KT 15SM FEW045 21/10 A2990 RMK CU1 SLP129

CYQF;2011-08-24 01:00;CYQF 240100Z 00000KT 15SM FEW040 22/09 A2991 RMK CU1 SLP130

CYQF;2011-08-24 02:00;CYQF 240200Z 04003KT 15SM SKC 20/11 A2991 RMK SLP132

CYQF;2011-08-24 03:00;CYQF 240300Z 00000KT 15SM FEW250 18/11 A2993 RMK CI1 SLP140

CYQF;2011-08-24 04:00;CYQF 240400Z 16003KT 15SM FEW250 15/11 A2995 RMK CI1 SLP146

CYQF;2011-08-24 05:00;CYQF 240500Z 00000KT 15SM SKC 14/10 A2995 RMK SLP148

CYQF;2011-08-24 06:00;CYQF 240600Z 00000KT 15SM SKC 11/09 A2996 RMK SLP153

CYQF;2011-08-24 07:00;CYQF 240700Z 19004KT 15SM SKC 11/09 A2996 RMK SLP153

CYQF;2011-08-24 08:00;CYQF 240800Z 20003KT 15SM SKC 11/09 A2997 RMK SLP155

CYQF;2011-08-24 09:00;CYQF 240900Z 00000KT 15SM SKC 09/08 A2996 RMK SLP153

CYQF;2011-08-24 10:00;CYQF 241000Z 16004KT 15SM SKC 09/08 A2995 RMK SLP151

CYQF;2011-08-24 11:00;CYQF 241100Z 00000KT 15SM FEW250 09/08 A2995 RMK CI1 SLP150

CYQF;2011-08-24 12:00;CYQF 241200Z 16008KT 15SM SCT120 BKN250 12/09 A2995 RMK AC2CI2 SLP144

CYQF;2011-08-24 13:00;CYQF 241300Z 17012KT 15SM SCT080 BKN120 BKN250 12/09 A2994 RMK AC3AC2CI1 SLP143

CYQF;2011-08-24 14:00;CYQF 241400Z 16006KT 15SM FEW080 BKN120 13/09 A2993 RMK AC2AC6 SLP139

CYQF;2011-08-24 15:00;CYQF 241500Z 16010G15KT 15SM SCT080 BKN120 15/09 A2990 RMK AC4AC3 SLP127

CYQF;2011-08-24 16:00;CYQF 241600Z 16010G15KT 15SM FEW040 SCT080 BKN150 17/10 A2990 RMK SC1AC2AC2 SLP128

CYQF;2011-08-24 17:00;CYQF 241700Z 19006KT 15SM FEW040 BKN120 BKN250 20/13 A2989 RMK SC1AC5CC2 SLP124

CYQF;2011-08-24 18:00;CYQF 241800Z 19010KT 15SM FEW050 FEW100 BKN250 23/14 A2987 RMK SC1AC1CI6 SLP116

CYQF;2011-08-24 19:00;CYQF 241900Z 21010G15KT 15SM FEW050 BKN250 25/14 A2985 RMK SC1CC6 SLP111

CYQF;2011-08-24 20:00;CYQF 242000Z 22010KT 15SM FEW056 FEW250 26/12 A2984 RMK CU1CI1 SLP106

CYQF;2011-08-24 21:00;CYQF 242100Z 22010KT 15SM FEW057 FEW250 27/13 A2982 RMK CU1CI1 SLP096

CYQF;2011-08-24 22:00;CYQF 242200Z 21005KT 15SM FEW070 FEW250 28/10 A2980 RMK CU1CI1 SLP091

CYQF;2011-08-24 23:00;CYQF 242300Z 00000KT 15SM FEW070 FEW250 29/10 A2979 RMK CU1CI1 SLP088

CYQF;2011-08-25 00:00;CYQF 250000Z 16004KT 15SM FEW069 FEW250 29/11 A2978 RMK CU1CI1 CU TR SLP080

CYQF;2011-08-25 01:00;CYQF 250100Z 08008KT 15SM FEW045 SCT250 26/15 A2978 RMK CU1CI2 SLP078

CYQF;2011-08-25 02:00;CYQF 250200Z 07005KT 15SM FEW035 FEW150 BKN250 23/15 A2978 RMK CU1AC2CI2 SLP078

CYQF;2011-08-25 03:00;CYQF 250300Z 36010G15KT 15SM SCT150 BKN250 21/15 A2981 RMK AC3CI2 SLP094

CYQF;2011-08-25 04:00;CYQF 250400Z 01008KT 15SM SCT150 BKN250 19/13 A2984 RMK AC3CI2 SLP102

CYQF;2011-08-25 05:00;CYQF 250500Z 35006KT 15SM FEW250 17/12 A2985 RMK CI0 SLP106

CYQF;2011-08-25 06:00;CYQF 250600Z 29004KT 15SM FEW250 14/11 A2986 RMK CI1 SLP111

CYQF;2011-08-25 07:00;CYQF 250700Z 26007KT 15SM SKC 12/10 A2987 RMK SLP114

CYQF;2011-08-25 08:00;CYQF 250800Z 29005KT 15SM SKC 13/11 A2988 RMK SLP117

CYQF;2011-08-25 09:00;CYQF 250900Z 32006KT 15SM FEW080 13/11 A2989 RMK AC2 SLP119

CYQF;2011-08-25 10:00;CYQF 251000Z 32003KT 15SM SCT080 11/10 A2992 RMK AC3 SLP126

CYQF;2011-08-25 11:00;CYQF 251100Z 31003KT 15SM FEW080 SCT250 12/10 A2993 RMK AC2CI1 SLP129

CYQF;2011-08-25 12:00;CYQF 251200Z 31004KT 15SM FEW080 SCT250 11/09 A2995 RMK AC2CI1 SLP139

CYQF;2011-08-25 13:00;CYQF 251300Z 35008KT 15SM FEW080 SCT250 12/09 A2997 RMK AC2CI1 SLP144

CYQF;2011-08-25 14:00;CYQF 251400Z 36007KT 15SM BKN080 BKN250 13/09 A2999 RMK AC5CI1 SLP151

CYQF;2011-08-25 15:00;CYQF 251500Z 35006KT 15SM BKN080 BKN250 14/09 A3001 RMK AC6CI1 SLP164

CYQF;2011-08-25 16:00;CYQF 251600Z 04010KT 15SM FEW080 BKN250 16/07 A3001 RMK AC2CI1 SLP164

CYQF;2011-08-25 17:00;CYQF 251700Z 36003KT 15SM BKN080 BKN250 16/07 A3003 RMK AC6CI2 SLP169

CYQF;2011-08-25 18:00;CYQF 251800Z 34005KT 15SM SCT080 BKN250 18/08 A3003 RMK AC4CI2 SLP176

CYQF;2011-08-25 19:00;CYQF 251900Z 06004KT 15SM FEW080 BKN250 18/08 A3003 RMK AC2CI3 ACC SLP176

CYQF;2011-08-25 20:00;CYQF 252000Z 08010KT 15SM FEW041 FEW250 20/10 A3002 RMK CU1CI1 CU TR SLP172

CYQF;2011-08-25 21:00;CYQF 252100Z 34003KT 15SM FEW041 FEW250 20/10 A3002 RMK CU1CI1 SLP169

CYQF;2011-08-25 22:00;CYQF 252200Z 36008KT 15SM FEW044TCU FEW250 21/10 A3002 RMK TCU1CI1 TCU TR DIST W SLP169

CYQF;2011-08-25 23:00;CYQF 252300Z 06004KT 15SM FEW045TCU FEW250 21/10 A3003 RMK TCU1CI1 TCU DIST W SLP172

CYQF;2011-08-26 00:00;CYQF 260000Z 04008KT 15SM FEW045TCU BKN250 20/10 A3003 RMK TCU1CI6 TCU DIST W SLP176

CYQF;2011-08-26 01:00;CYQF 260100Z 06005KT 15SM FEW045TCU BKN250 20/11 A3004 RMK TCU1CI6 SLP179

CYQF;2011-08-26 02:00;CYQF 260200Z 07005KT 15SM FEW050 BKN250 18/11 A3005 RMK CU1CI2 SLP180

CYQF;2011-08-26 03:00;CYQF 260300Z 05005KT 15SM FEW250 16/11 A3006 RMK CI1 SLP187

CYQF;2011-08-26 04:00;CYQF 260400Z 05004KT 15SM FEW250 15/11 A3009 RMK CI1 SLP196

CYQF;2011-08-26 05:00;CYQF 260500Z 02004KT 15SM FEW080 13/10 A3009 RMK AC2 SLP197

CYQF;2011-08-26 06:00;CYQF 260600Z 02004KT 15SM FEW080 13/10 A3012 RMK AC2 SLP206

CYQF;2011-08-26 07:00;CYQF 260700Z 05004KT 15SM FEW080 13/09 A3013 RMK AC2 SLP211

CYQF;2011-08-26 08:00;CYQF 260800Z 34002KT 15SM FEW080 11/08 A3015 RMK AC2 SLP215

CYQF;2011-08-26 09:00;CYQF 260900Z 00000KT 15SM SCT080 11/10 A3015 RMK AC3 SLP217

CYQF;2011-08-26 10:00;CYQF 261000Z 00000KT 15SM SCT080 11/10 A3016 RMK AC4 SLP219

CYQF;2011-08-26 11:00;CYQF 261100Z 11002KT 15SM BKN080 11/09 A3016 RMK AC6 SLP219

CYQF;2011-08-26 12:00;CYQF 261200Z 00000KT 15SM BKN060 11/08 A3016 RMK SC6 SLP219

CYQF;2011-08-26 13:00;CYQF 261300Z 13004KT 15SM BKN060 BKN250 12/08 A3016 RMK SC7CI1 SLP219

CYQF;2011-08-26 14:00;CYQF 261400Z 15007KT 15SM SCT060 BKN100 BKN250 12/08 A3017 RMK SC4AC3CI1 SLP222

CYQF;2011-08-26 15:00;CYQF 261500Z 16008KT 15SM FEW060 SCT150 BKN250 13/09 A3016 RMK SC2AC2CI0 SLP223

CYQF;2011-08-26 16:00;CYQF 261600Z 15010G15KT 15SM FEW150 FEW250 16/07 A3016 RMK AC1CI1 AC TR SLP221

CYQF;2011-08-26 17:00;CYQF 261700Z 16011G16KT 15SM FEW150 FEW250 18/07 A3015 RMK AC1CI1 SLP217

CYQF;2011-08-26 18:00;CYQF 261800Z 17012G18KT 15SM FEW250 19/08 A3013 RMK CI1 SLP208

CYQF;2011-08-26 19:00;CYQF 261900Z 17010G15KT 15SM FEW050 FEW250 20/08 A3011 RMK CU1CI1 TR CU SLP202

CYQF;2011-08-26 20:00;CYQF 262000Z 15010G20KT 15SM FEW051 FEW250 22/09 A3010 RMK CU1CI1 CU TR DIST SW-W SLP200

CYQF;2011-08-26 21:00;CYQF 262100Z 19010G15KT 15SM FEW052 FEW250 23/09 A3009 RMK CU1CI2 TR CU SLP193

CYQF;2011-08-26 22:00;CYQF 262200Z 14005KT 15SM FEW056 SCT250 23/08 A3008 RMK CU1CI3 SLP189

CYQF;2011-08-26 23:00;CYQF 262300Z 00000KT 15SM FEW055 SCT250 24/09 A3006 RMK CU1CI1 SLP184

CYQF;2011-08-27 00:00;CYQF 270000Z 14007KT 15SM FEW100 FEW250 24/09 A3005 RMK ACC1CI1 SLP180

CYQF;2011-08-27 01:00;CYQF 270100Z 15003KT 15SM FEW100 FEW250 23/10 A3005 RMK AC1CI1 SLP179

CYQF;2011-08-27 02:00;CYQF 270200Z 00000KT 15SM FEW100 FEW250 21/12 A3005 RMK AC1CI1 SLP178

CYQF;2011-08-27 03:00;CYQF 270300Z 00000KT 15SM FEW100 18/12 A3005 RMK AC1 SLP181

CYQF;2011-08-27 04:00;CYQF 270400Z 00000KT 15SM FEW100 15/11 A3005 RMK AC1 SLP183

CYQF;2011-08-27 05:00;CYQF 270500Z 02004KT 15SM SKC 15/12 A3005 RMK SLP181

CYQF;2011-08-27 06:00;CYQF 270600Z 20003KT 15SM SKC 11/10 A3004 RMK SLP179

CYQF;2011-08-27 07:00;CYQF 270700Z 00000KT 15SM FEW100 12/11 A3003 RMK AC2 SLP177

CYQF;2011-08-27 08:00;CYQF 270800Z 34002KT 15SM FEW100 13/11 A3003 RMK AC2 SLP176

CYQF;2011-08-27 09:00;CYQF 270900Z 31003KT 15SM FEW100 13/10 A3003 RMK AC2 SLP171

CYQF;2011-08-27 10:00;CYQF 271000Z 21002KT 15SM FEW100 14/11 A3002 RMK AC2 SLP169

CYQF;2011-08-27 11:00;CYQF 271100Z 21002KT 15SM FEW080 12/10 A3001 RMK AC2 SLP165

CYQF;2011-08-27 12:00;CYQF 271200Z 00000KT 15SM FEW080 10/09 A3000 RMK AC2 SLP161

CYQF;2011-08-27 13:00;CYQF 271300Z 25005KT 15SM FEW080 SCT250 10/09 A3001 RMK AC2CI1 SLP165

CYQF;2011-08-27 14:00;CYQF 271400Z 00000KT 15SM FEW080 BKN250 12/10 A3001 RMK AC1CI6 SLP164

CYQF;2011-08-27 15:00;CYQF 271500Z 15002KT 15SM FEW080 BKN250 14/12 A3001 RMK AC1CI6 SLP167

CYQF;2011-08-27 16:00;CYQF 271600Z 14002KT 15SM BKN250 15/12 A3000 RMK CI7 SLP163

CYQF;2011-08-27 17:00;CYQF 271700Z 23003KT 15SM SCT250 19/13 A2999 RMK CI4 SLP161

CYQF;2011-08-27 18:00;CYQF 271800Z 22005KT 15SM BKN250 21/14 A2998 RMK CI3 SLP157

CYQF;2011-08-27 19:00;CYQF 271900Z 24003KT 15SM BKN250 22/14 A2997 RMK CI6 SLP153

CYQF;2011-08-27 20:00;CYQF 272000Z 19004KT 15SM BKN250 24/14 A2996 RMK CI6 SLP150

CYQF;2011-08-27 21:00;CYQF 272100Z 15002KT 15SM BKN250 26/14 A2995 RMK CI6 SLP142

CYQF;2011-08-27 22:00;CYQF 272200Z 00000KT 15SM FEW120 BKN250 26/12 A2994 RMK AC2CI4 SLP138

CYQF;2011-08-27 23:00;CYQF 272300Z 00000KT 15SM FEW120 BKN250 26/13 A2994 RMK AC2CI4 SLP136

CYQF;2011-08-28 00:00;CYQF 280000Z 00000KT 15SM SCT120 BKN250 25/14 A2994 RMK AC3CI3 SLP139

CYQF;2011-08-28 01:00;CYQF 280100Z 00000KT 15SM FEW100 BKN250 24/16 A2995 RMK AC2CI2 SLP141

CYQF;2011-08-28 02:00;CYQF 280200Z 00000KT 15SM FEW100 SCT250 23/16 A2995 RMK AC2CI1 SLP144

CYQF;2011-08-28 03:00;CYQF 280300Z 35005KT 15SM FEW100 FEW250 18/15 A2998 RMK AC1CI1 SLP156

CYQF;2011-08-28 04:00;CYQF 280400Z 36004KT 15SM FEW100 17/15 A3000 RMK AC1 SLP163

CYQF;2011-08-28 05:00;CYQF 280500Z 01003KT 15SM SKC 17/16 A3002 RMK SLP168

CYQF;2011-08-28 06:00;CYQF 280600Z 34005KT 15SM SKC 16/14 A3003 RMK SLP168

CYQF;2011-08-28 07:00;CYQF 280700Z 35008KT 15SM SKC 15/13 A3006 RMK SLP178

CYQF;2011-08-28 08:00;CYQF 280800Z 36008KT 15SM SKC 15/11 A3007 RMK SLP183

CYQF;2011-08-28 09:00;CYQF 280900Z 35003KT 15SM SKC 13/10 A3010 RMK SLP192

CYQF;2011-08-28 10:00;CYQF 281000Z 26005KT 15SM FEW080 10/08 A3011 RMK AC1 SLP195

CYQF;2011-08-28 11:00;CYQF 281100Z 28003KT 15SM FEW080 10/08 A3012 RMK AC2 SLP198

CYQF;2011-08-28 12:00;CYQF 281200Z 00000KT 15SM FEW080 SCT250 09/08 A3014 RMK AC2CI0 SLP208

CYQF;2011-08-28 13:00;CYQF 281300Z 18003KT 15SM FEW090 SCT250 09/08 A3015 RMK AC2CI0 SLP212

CYQF;2011-08-28 14:00;CYQF 281400Z 00000KT 15SM FEW080 10/09 A3015 RMK AC1 SLP214

CYQF;2011-08-28 15:00;CYQF 281500Z 21003KT 15SM FEW100 FEW250 13/11 A3016 RMK AC2CI1 TR CI SLP220

CYQF;2011-08-28 16:00;CYQF 281600Z 00000KT 15SM FEW100 FEW250 16/12 A3016 RMK AC2CI1 SLP219

CYQF;2011-08-28 17:00;CYQF 281700Z 16004KT 15SM FEW100 FEW250 19/10 A3015 RMK AC1CI1 SLP217

CYQF;2011-08-28 18:00;CYQF 281800Z 16006KT 15SM FEW250 20/09 A3013 RMK CI0 SLP206

CYQF;2011-08-28 19:00;CYQF 281900Z 15005KT 15SM FEW250 21/09 A3011 RMK CI0 SLP198

CYQF;2011-08-28 20:00;CYQF 282000Z 17010KT 15SM FEW250 23/08 A3007 RMK CI0 SLP188

CYQF;2011-08-28 21:00;CYQF 282100Z 12010G17KT 15SM SKC 23/08 A3005 RMK SLP178

CYQF;2011-08-28 22:00;CYQF 282200Z 14008KT 15SM SKC 24/08 A3004 RMK SLP172

CYQF;2011-08-28 23:00;CYQF 282300Z 13010KT 15SM SKC 24/09 A3001 RMK SLP165

CYQF;2011-08-29 00:00;CYQF 290000Z 13006KT 15SM SKC 24/09 A2999 RMK SLP159

CYQF;2011-08-29 01:00;CYQF 290100Z 13005KT 15SM SKC 23/11 A2997 RMK SLP154

CYQF;2011-08-29 02:00;CYQF 290200Z 09004KT 15SM SKC 22/12 A2996 RMK SLP151

CYQF;2011-08-29 03:00;CYQF 290300Z 00000KT 15SM SKC 19/13 A2996 RMK SLP151

CYQF;2011-08-29 04:00;CYQF 290400Z 01003KT 15SM SKC 17/12 A2996 RMK SLP151

CYQF;2011-08-29 05:00;CYQF 290500Z 04002KT 15SM SKC 14/11 A2995 RMK SLP147

CYQF;2011-08-29 06:00;CYQF 290600Z 03004KT 15SM SKC 14/10 A2994 RMK SLP140

CYQF;2011-08-29 07:00;CYQF 290700Z 00000KT 15SM SKC 14/09 A2993 RMK SLP137

CYQF;2011-08-29 08:00;CYQF 290800Z 00000KT 15SM SKC 11/09 A2991 RMK SLP132

CYQF;2011-08-29 09:00;CYQF 290900Z 16005KT 15SM SKC 12/08 A2989 RMK SLP123

CYQF;2011-08-29 10:00;CYQF 291000Z 18005KT 15SM SKC 12/08 A2987 RMK SLP116

CYQF;2011-08-29 11:00;CYQF 291100Z 18004KT 15SM FEW250 11/08 A2984 RMK CI0 SLP107

CYQF;2011-08-29 12:00;CYQF 291200Z 17005KT 15SM SCT250 12/08 A2982 RMK CI2 SLP098

CYQF;2011-08-29 13:00;CYQF 291300Z 14004KT 15SM BKN250 12/08 A2980 RMK CI2 SLP091

CYQF;2011-08-29 14:00;CYQF 291400Z 17005KT 15SM BKN250 12/09 A2979 RMK CI5 SLP087

CYQF;2011-08-29 15:00;CYQF 291500Z 17007KT 15SM BKN250 16/10 A2976 RMK CI6 SLP077

CYQF;2011-08-29 16:00;CYQF 291600Z 17012KT 15SM FEW100 BKN250 19/11 A2974 RMK AC1CI5 TR AC SLP072

CYQF;2011-08-29 17:00;CYQF 291700Z 16010G15KT 15SM FEW100 BKN250 21/12 A2972 RMK AC1CI5 TR AC SLP065

CYQF;2011-08-29 18:00;CYQF 291800Z 16010KT 15SM SCT100 BKN250 22/13 A2969 RMK AC3CI3 SLP054

CYQF;2011-08-29 19:00;CYQF 291900Z 19011KT 15SM FEW100 BKN250 24/13 A2968 RMK AC2CI2 SLP049

CYQF;2011-08-29 20:00;CYQF 292000Z 19005KT 15SM FEW100 BKN250 26/14 A2966 RMK AC2CI2 SLP045

CYQF;2011-08-29 21:00;CYQF 292100Z 32003KT 15SM FEW056 BKN250 27/13 A2966 RMK CU1CI6 SLP041

CYQF;2011-08-29 22:00;CYQF 292200Z CCA 34015G30KT 15SM FEW036TCU FEW100 BKN250 24/15 A2969 RMK TCU1AC1CI5 SLP049

CYQF;2011-08-29 23:00;CYQF 292300Z 35020G28KT 15SM FEW030TCU FEW100 BKN250 20/14 A2971 RMK TCU1AC2CI2 LINE TCU E-SE MVG SE SLP056

CYQF;2011-08-30 00:00;CYQF 300000Z 35020G25KT 15SM FEW030TCU BKN100 BKN250 21/13 A2971 RMK TCU1AC2CI1 SLP063

CYQF;2011-08-30 01:00;CYQF 300100Z 01010G15KT 15SM BKN100 BKN250 19/13 A2973 RMK AC5CI2 ACC ASOCTD SLP069

CYQF;2011-08-30 02:00;CYQF 300200Z 33005KT 15SM FEW030 BKN100 BKN250 18/13 A2975 RMK SC1AC5CI2 ACC ASOCTD SLP075

CYQF;2011-08-30 02:31;CYQF 300231Z 30005KT 15SM FEW030CB BKN100 BKN250 RMK CB2AC3CI2 OCNL LTNG S

CYQF;2011-08-30 03:00;CYQF 300300Z 33004KT 15SM SCT030 BKN100 BKN250 17/13 A2976 RMK SC3AC2CI2 CB ASOCTD OCNL LTNG SE SLP082

CYQF;2011-08-30 04:00;CYQF 300400Z 35007KT 15SM FEW030 SCT100 BKN250 15/13 A2977 RMK SC1AC3CI2 SLP084

CYQF;2011-08-30 05:00;CYQF 300500Z 36006KT 15SM SCT250 14/12 A2976 RMK CI1 SLP081

CYQF;2011-08-30 06:00;CYQF 300600Z 31003KT 15SM FEW080 SCT250 13/12 A2978 RMK AC1CI2 SLP084

CYQF;2011-08-30 07:00;CYQF 300700Z 31006KT 15SM FEW080 BKN250 12/11 A2979 RMK AC2CI2 SLP087

CYQF;2011-08-30 08:00;CYQF 300800Z 27006KT 15SM BKN080 BKN250 12/12 A2981 RMK AC5CI1 SLP092

CYQF;2011-08-30 09:00;CYQF 300900Z 29006KT 15SM BKN080 BKN250 13/12 A2979 RMK AC5CI2 SLP084

CYQF;2011-08-30 10:00;CYQF 301000Z 29006KT 15SM FEW080 SCT250 13/11 A2979 RMK AC2CI1 SLP084

CYQF;2011-08-30 11:00;CYQF 301100Z 18003KT 15SM FEW080 SCT250 11/11 A2981 RMK AC2CI1 SLP088

CYQF;2011-08-30 11:44;CYQF 301144Z 13002KT 15SM -RA BKN080 BKN250 RMK AC5CI2

CYQF;2011-08-30 12:00;CYQF 301200Z 00000KT 15SM -RA BKN080 BKN250 12/11 A2981 RMK AC5CI2 SLP097

CYQF;2011-08-30 13:00;CYQF 301300Z 26004KT 15SM -RA FEW030 BKN080 12/12 A2981 RMK SC2AC5 SLP099

CYQF;2011-08-30 14:00;CYQF 301400Z 33002KT 12SM -RA SCT030 OVC080 12/12 A2981 RMK SC3AC5 SLP098

CYQF;2011-08-30 14:26;CYQF 301426Z 31006KT 10SM -SHRA FEW008 BKN030 OVC080 RMK SF1SC4AC3 VIS W 2

CYQF;2011-08-30 15:00;CYQF 301500Z 31010KT 3SM -SHRA BR FEW008 OVC025 11/10 A2985 RMK SF2SC6 SLP117

CYQF;2011-08-30 16:00;CYQF 301600Z 32007KT 4SM -SHRA BR FEW008 BKN025 OVC080 11/10 A2985 RMK SF2SC6AC1 SLP116

CYQF;2011-08-30 17:00;CYQF 301700Z 34008KT 4SM -SHRA BR FEW008 BKN020 OVC080 11/10 A2986 RMK SF2SC6AC1 SLP121

CYQF;2011-08-30 18:00;CYQF 301800Z 33006KT 6SM -SHRA BR FEW008 BKN030 OVC080 11/10 A2987 RMK SF2SC5AC2 /R12/ SLP128

CYQF;2011-08-30 19:00;CYQF 301900Z 34005KT 5SM -RA BR FEW008 BKN020 OVC080 11/10 A2986 RMK SC2SC4AC2 SLP126

CYQF;2011-08-30 20:00;CYQF 302000Z 03003KT 15SM -RA FEW008 FEW020 BKN080 BKN150 11/10 A2987 RMK SC1SC2AC4AC2 VIS SE 6 VERY LGT RAIN SLP128

CYQF;2011-08-30 20:50;CYQF 302050Z 03003KT 15SM FEW008 FEW020 BKN080 BKN150 RMK CF1CU2AC2AC2

CYQF;2011-08-30 21:00;CYQF 302100Z 04002KT 15SM FEW008 FEW020 BKN080 BKN150 12/10 A2987 RMK CF1CU2AC2AC2 SLP127

CYQF;2011-08-30 22:00;CYQF 302200Z 00000KT 15SM FEW015 BKN080 BKN150 13/10 A2986 RMK CU2AC4AC1 SLP125

CYQF;2011-08-30 23:00;CYQF 302300Z 00000KT 15SM FEW020 BKN080 14/09 A2986 RMK CU2AC5 SLP125

CYQF;2011-08-31 00:00;CYQF 310000Z 21003KT 15SM SCT017 BKN080 BKN150 14/09 A2987 RMK CU3AC2AC2 TCU ASOCTD SLP128

CYQF;2011-08-31 01:00;CYQF 310100Z 23008KT 15SM FEW020 BKN150 BKN250 12/10 A2987 RMK SC1AS7CI1 SLP128

CYQF;2011-08-31 02:00;CYQF 310200Z 25007KT 15SM FEW020 SCT080 BKN120 11/10 A2988 RMK SC1AC2AS3 SLP131

CYQF;2011-08-31 03:00;CYQF 310300Z 23005KT 15SM FEW080 BKN120 11/10 A2989 RMK AC2AC3 SLP137

CYQF;2011-08-31 04:00;CYQF 310400Z 20003KT 15SM FEW080 BKN120 10/10 A2991 RMK AC2AC4 SLP142

CYQF;2011-08-31 05:00;CYQF 310500Z 22004KT 15SM FEW080 BKN120 10/10 A2992 RMK AC2AC4 SLP147

CYQF;2011-08-31 06:00;CYQF 310600Z 20004KT 15SM FEW080 BKN120 10/09 A2992 RMK AC2AC3 SLP148

CYQF;2011-08-31 07:00;CYQF 310700Z 23002KT 15SM FEW080 BKN120 10/09 A2991 RMK AC2AC3 SLP146

CYQF;2011-08-31 08:00;CYQF 310800Z 21003KT 15SM FEW080 BKN120 BKN250 09/09 A2992 RMK AC2AC2CI1 SLP148

CYQF;2011-08-31 09:00;CYQF 310900Z 19002KT 15SM FEW080 BKN120 BKN250 09/09 A2993 RMK AC2AC3CI1 SLP151

CYQF;2011-08-31 10:00;CYQF 311000Z 34004KT 15SM FEW080 BKN120 BKN250 09/08 A2994 RMK AC2AC3CI1 SLP153

CYQF;2011-08-31 11:00;CYQF 311100Z 36004KT 15SM FEW080 BKN120 BKN250 09/08 A2993 RMK AC2AC3CI1 SLP152

CYQF;2011-08-31 12:00;CYQF 311200Z 35005KT 15SM SCT080 BKN120 BKN250 09/07 A2992 RMK AC3AC2CI1 SLP146

CYQF;2011-08-31 13:00;CYQF 311300Z 34006KT 15SM FEW080 BKN120 BKN250 09/07 A2995 RMK AC2AC4CI2 SLP155

CYQF;2011-08-31 13:19;CYQF 311319Z 35008KT 15SM -RA SCT080 OVC120 RMK AC3AC5

CYQF;2011-08-31 14:00;CYQF 311400Z 34005KT 15SM -RA SCT012 OVC040 09/08 A2997 RMK SC3SC5 SLP161

CYQF;2011-08-31 14:32;CYQF 311432Z 35007KT 10SM -RA BKN012 OVC040 RMK SC5SC3

CYQF;2011-08-31 15:00;CYQF 311500Z 36010KT 15SM -RA SCT012 OVC040 08/07 A2998 RMK SC4SC4 SLP171

CYQF;2011-08-31 16:00;CYQF 311600Z 01008KT 12SM -RA SCT012 OVC040 08/07 A2998 RMK SC3SC5 SLP173

CYQF;2011-08-31 16:21;CYQF 311621Z 01007KT 15SM -RA FEW005 BKN012 OVC040 RMK SF1SC5SC3

CYQF;2011-08-31 17:00;CYQF 311700Z 01006KT 15SM -RA FEW005 BKN013 OVC040 08/07 A2999 RMK SF1SC6SC2 SLP175

CYQF;2011-08-31 18:00;CYQF 311800Z 36007KT 15SM -RA FEW004 OVC010 09/07 A2998 RMK SF2SC6 CIG RAG SLP172

CYQF;2011-08-31 19:00;CYQF 311900Z 01008KT 15SM -RA FEW004 OVC016 09/07 A2998 RMK SF2SC6 SLP171

CYQF;2011-08-31 20:00;CYQF 312000Z 35008KT 15SM -RA FEW004 OVC015 09/08 A2997 RMK SF2SC6 SLP170

CYQF;2011-08-31 21:00;CYQF 312100Z 33008KT 15SM -RA FEW004 OVC015 10/09 A2998 RMK SF2SC6 SLP170

CYQF;2011-08-31 22:00;CYQF 312200Z 33008KT 15SM -RA BKN015 OVC030 10/08 A2998 RMK SC6SC2 CU EMBD SLP171

CYQF;2011-08-31 23:00;CYQF 312300Z 36006KT 15SM -RA BKN015 BKN030 OVC090 10/08 A2999 RMK SC5SC2AS2 CU EMBD SLP173

CYQF;2011-09-01 01:00;CYQF 010100Z 33003KT 12SM -RA FEW012 SCT030 SCT060 OVC150 10/08 A3001 RMK CF1SC2SC1AS3 SLP181

CYQF;2011-09-01 02:00;CYQF 010200Z 31004KT 15SM -RA FEW012 FEW030 SCT060 OVC150 09/08 A3002 RMK CF1SC2SC2AS3 SLP184

CYQF;2011-09-01 03:00;CYQF 010300Z 26005KT 15SM -RA BKN030 OVC080 09/08 A3004 RMK SC6AC2 SLP195

CYQF;2011-09-01 04:00;CYQF 010400Z 28004KT 15SM -RA SCT020 BKN040 OVC080 08/08 A3005 RMK SF3SC3AC2 SLP197

CYQF;2011-09-01 05:00;CYQF 010500Z 29005KT 15SM -RA FEW020 BKN050 OVC080 09/08 A3004 RMK SF2SC4AC2 SLP195

CYQF;2011-09-01 05:35;CYQF 010535Z 27004KT 15SM FEW020 BKN050 OVC080 RMK SF2SC4AC2

CYQF;2011-09-01 06:00;CYQF 010600Z 28005KT 15SM FEW020 BKN060 OVC090 08/08 A3004 RMK SF2SC4AC2 SLP194

CYQF;2011-09-01 07:00;CYQF 010700Z 26005KT 15SM SCT060 BKN090 07/07 A3004 RMK SC3AC2 SLP194

CYQF;2011-09-01 08:00;CYQF 010800Z 30006KT 15SM FEW060 SCT090 07/06 A3003 RMK SC2AC2 SLP192

CYQF;2011-09-01 09:00;CYQF 010900Z 25006KT 15SM FEW060 SCT090 07/06 A3004 RMK SC2AC2 SLP195

CYQF;2011-09-01 10:00;CYQF 011000Z 19002KT 15SM FEW060 FEW090 06/05 A3005 RMK SC1AC2 SLP196

CYQF;2011-09-01 11:00;CYQF 011100Z 20004KT 15SM FEW060 FEW090 04/04 A3005 RMK SC1AC2 SLP196

CYQF;2011-09-01 12:00;CYQF 011200Z 20004KT 15SM FEW090 03/03 A3004 RMK AC1 SLP199

CYQF;2011-09-01 12:25;CYQF 011225Z CCA 21004KT 1SM BR FEW090 RMK FG2AC1

CYQF;2011-09-01 12:43;CYQF 011243Z 23004KT 1/2SM FG FEW090 RMK FG2AC1

CYQF;2011-09-01 13:00;CYQF 011300Z 23004KT 1/2SM FG FEW090 03/03 A3003 RMK FG2AC1 SLP196

CYQF;2011-09-01 13:43;CYQF 011343Z 23004KT 6SM BR FEW090 RMK AC1 VIS SE-S 1

CYQF;2011-09-01 14:00;CYQF 011400Z 22002KT 10SM FEW090 04/04 A3004 RMK AC1 VIS S 1 SLP199

CYQF;2011-09-01 15:00;CYQF 011500Z 19005KT 15SM FEW090 07/06 A3003 RMK AC1 SLP191

CYQF;2011-09-01 16:00;CYQF 011600Z 18005KT 15SM FEW250 10/07 A3001 RMK CI0 SLP187

CYQF;2011-09-01 17:00;CYQF 011700Z 15005KT 15SM FEW020 BKN250 12/07 A2999 RMK CU1CI1 SLP179

CYQF;2011-09-01 18:00;CYQF 011800Z 18010KT 15SM FEW027 SCT250 13/06 A2996 RMK CU1CI1 SLP163

CYQF;2011-09-01 19:00;CYQF 011900Z 18010KT 15SM FEW033 BKN250 15/07 A2993 RMK CU1CI2 SLP151

CYQF;2011-09-01 20:00;CYQF 012000Z 18010KT 15SM FEW040 SCT250 16/06 A2990 RMK CU1CI1 SLP142

CYQF;2011-09-01 21:00;CYQF 012100Z 18010G15KT 15SM FEW044 SCT250 17/06 A2986 RMK CU1CI1 SLP126

CYQF;2011-09-01 22:00;CYQF 012200Z 17010G15KT 15SM FEW045 BKN250 18/06 A2983 RMK CU1CI2 SLP116

CYQF;2011-09-01 23:00;CYQF 012300Z 19010G15KT 15SM FEW050 BKN250 19/07 A2980 RMK CU1CI2 SLP108

CYQF;2011-09-02 00:00;CYQF 020000Z 16010KT 15SM FEW050 SCT150 BKN250 18/07 A2978 RMK CU1AC2CI1 SLP100

CYQF;2011-09-02 01:00;CYQF 020100Z 15005KT 15SM FEW100 BKN250 16/07 A2976 RMK AC2CI2 SLP094

CYQF;2011-09-02 02:00;CYQF 020200Z 18005KT 15SM FEW030 SCT100 BKN250 14/09 A2976 RMK SC2AC2CI2 SLP092

CYQF;2011-09-02 03:00;CYQF 020300Z 26003KT 15SM FEW030 BKN100 BKN250 13/08 A2976 RMK SC2AC3CI2 SLP096

CYQF;2011-09-02 04:00;CYQF 020400Z 23005KT 15SM BKN100 11/08 A2976 RMK AC6 SLP094

CYQF;2011-09-02 05:00;CYQF 020500Z 00000KT 15SM BKN100 10/07 A2975 RMK AC3 SLP092

CYQF;2011-09-02 06:00;CYQF 020600Z 00000KT 15SM SCT100 09/07 A2974 RMK AC2 SLP085

CYQF;2011-09-02 07:00;CYQF 020700Z 00000KT 15SM BKN100 09/07 A2974 RMK AC6 SLP085

CYQF;2011-09-02 08:00;CYQF 020800Z 00000KT 15SM BKN070 09/07 A2975 RMK AC6 SLP086

CYQF;2011-09-02 09:00;CYQF 020900Z 30010KT 15SM BKN070 10/06 A2977 RMK AC5 SLP091

CYQF;2011-09-02 10:00;CYQF 021000Z 32015G20KT 15SM VCSH FEW020 OVC050 10/06 A2982 RMK SC1SC7 LTNG NE SLP107

CYQF;2011-09-02 10:14;CYQF 021014Z 33012G18KT 15SM -SHRA FEW020 OVC050 RMK SC1SC7

CYQF;2011-09-02 11:00;CYQF 021100Z 30015G20KT 6SM SHRA FEW010 OVC040 08/06 A2985 RMK SC1SC7 SLP114

CYQF;2011-09-02 12:00;CYQF 021200Z CCA 35005KT 10SM -SHRA OVC050 07/06 A2985 RMK SC8 RERA SLP119

CYQF;2011-09-02 12:16;CYQF 021216Z 27005KT 15SM BKN050 OVC100 RMK SC6AC2

CYQF;2011-09-02 13:00;CYQF 021300Z 28008KT 15SM BKN050 BKN100 OVC250 07/06 A2988 RMK SC5AC2CI1 SLP128

CYQF;2011-09-02 14:00;CYQF 021400Z 31008KT 15SM FEW050 SCT100 BKN250 08/06 A2990 RMK SC2AC2CI3 SLP133

CYQF;2011-09-02 15:00;CYQF 021500Z 33013G21KT 15SM FEW015 SCT050 BKN100 BKN250 08/05 A2992 RMK SC2SC2AC2CI2 SLP147

CYQF;2011-09-02 16:00;CYQF 021600Z 33018G28KT 15SM FEW015 SCT050 BKN100 BKN250 09/05 A2993 RMK SC2SC2AC2CI2 SLP152

CYQF;2011-09-02 17:00;CYQF 021700Z 32012G22KT 15SM SCT015 SCT100 BKN250 11/06 A2995 RMK SC3AC1CI2 CU SLP156

CYQF;2011-09-02 18:00;CYQF 021800Z 34020G30KT 15SM BKN020 BKN250 12/05 A2997 RMK SC5CI2 CU EMBD SLP165

CYQF;2011-09-02 19:00;CYQF 021900Z 32020G30KT 15SM BKN028 BKN250 12/05 A2999 RMK SC6CI1 CU SLP172

CYQF;2011-09-02 20:00;CYQF 022000Z 33016G24KT 15SM BKN028 BKN250 12/05 A3002 RMK SC6CI1 SLP182

CYQF;2011-09-02 21:00;CYQF 022100Z 31015G25KT 15SM BKN030 BKN250 13/05 A3005 RMK SC6CI1 SLP190

CYQF;2011-09-02 22:00;CYQF 022200Z 32015G25KT 15SM BKN025 BKN250 12/06 A3007 RMK SC6CI1 SLP197

CYQF;2011-09-02 23:00;CYQF 022300Z 30015G20KT 15SM BKN025 BKN250 12/05 A3009 RMK SC6CI1 SLP205

CYQF;2011-09-03 00:00;CYQF 030000Z 30012G20KT 15SM SCT025 BKN080 12/06 A3013 RMK CU3AC2 SLP223

CYQF;2011-09-03 01:00;CYQF 030100Z 31010KT 15SM FEW025 FEW250 11/06 A3015 RMK CU2CI0 SLP228

CYQF;2011-09-03 02:00;CYQF 030200Z 30008KT 15SM FEW030 12/06 A3016 RMK SC2 SLP233

CYQF;2011-09-03 03:00;CYQF 030300Z 29005KT 15SM FEW030 FEW080 08/05 A3019 RMK SC1AC2 SLP248

CYQF;2011-09-03 04:00;CYQF 030400Z 28008KT 15SM FEW080 08/05 A3022 RMK AC2 SLP256

CYQF;2011-09-03 05:00;CYQF 030500Z 30007KT 15SM FEW080 07/05 A3023 RMK AC2 SLP260

CYQF;2011-09-03 06:00;CYQF 030600Z 30005KT 15SM BKN060 08/06 A3025 RMK SC7 SLP262

CYQF;2011-09-03 07:00;CYQF 030700Z 30003KT 15SM OVC060 08/06 A3025 RMK SC8 SLP263

CYQF;2011-09-03 08:00;CYQF 030800Z 29004KT 15SM FEW060 06/05 A3025 RMK SC2 SLP264

CYQF;2011-09-03 09:00;CYQF 030900Z 24005KT 15SM FEW070 05/05 A3026 RMK AC1 SLP270

CYQF;2011-09-03 10:00;CYQF 031000Z 25006KT 15SM SKC 05/04 A3027 RMK SLP273

CYQF;2011-09-03 11:00;CYQF 031100Z 26006KT 15SM SKC 04/04 A3027 RMK SLP273

CYQF;2011-09-03 12:00;CYQF 031200Z 25004KT 15SM SKC 04/03 A3027 RMK SLP275

CYQF;2011-09-03 13:00;CYQF 031300Z 00000KT 15SM FEW080 03/03 A3027 RMK AC1 SLP277

CYQF;2011-09-03 14:00;CYQF 031400Z 18004KT 15SM FEW080 04/03 A3028 RMK AC1 SLP279

CYQF;2011-09-03 15:00;CYQF 031500Z 21005KT 15SM SKC 07/05 A3028 RMK SLP281

CYQF;2011-09-03 16:00;CYQF 031600Z 00000KT 15SM SKC 10/07 A3028 RMK SLP281

CYQF;2011-09-03 17:00;CYQF 031700Z 25005KT 15SM FEW024 12/06 A3028 RMK CF1 SLP280

CYQF;2011-09-03 18:00;CYQF 031800Z 27005KT 15SM FEW030 14/06 A3027 RMK CF2 SLP269

CYQF;2011-09-03 19:00;CYQF 031900Z 00000KT 15SM BKN036 15/05 A3026 RMK CU6 SLP265

CYQF;2011-09-03 20:00;CYQF 032000Z 00000KT 15SM BKN045 15/04 A3025 RMK CU6 SLP262

CYQF;2011-09-03 21:00;CYQF 032100Z 21002KT 15SM BKN050 16/04 A3024 RMK CU5 SLP259

CYQF;2011-09-03 22:00;CYQF 032200Z 19006KT 15SM SCT049 SCT250 17/05 A3022 RMK CU3CI0 SLP253

CYQF;2011-09-03 23:00;CYQF 032300Z 18006KT 15SM FEW055 FEW250 18/04 A3020 RMK CU1CI1 SLP247

CYQF;2011-09-04 00:00;CYQF 040000Z 20006KT 15SM FEW250 18/05 A3019 RMK CI1 SLP241

CYQF;2011-09-04 01:00;CYQF 040100Z 15005KT 15SM FEW250 17/06 A3018 RMK CI1 SLP237

CYQF;2011-09-04 02:00;CYQF 040200Z 14004KT 15SM FEW250 15/07 A3016 RMK CI1 SLP233

CYQF;2011-09-04 03:00;CYQF 040300Z 14005KT 15SM FEW250 12/06 A3017 RMK CI1 SLP236

CYQF;2011-09-04 04:00;CYQF 040400Z 16004KT 15SM SKC 09/06 A3016 RMK SLP234

CYQF;2011-09-04 05:00;CYQF 040500Z 19002KT 15SM SKC 08/06 A3015 RMK SLP232

CYQF;2011-09-04 06:00;CYQF 040600Z 18004KT 15SM SKC 08/05 A3014 RMK SLP225

CYQF;2011-09-04 07:00;CYQF 040700Z 18003KT 15SM SKC 08/04 A3013 RMK SLP221

CYQF;2011-09-04 08:00;CYQF 040800Z 12003KT 15SM SKC 07/04 A3011 RMK SLP215

CYQF;2011-09-04 09:00;CYQF 040900Z 18006KT 15SM SKC 08/04 A3009 RMK SLP203

CYQF;2011-09-04 10:00;CYQF 041000Z 17006KT 15SM SKC 06/04 A3007 RMK SLP199

CYQF;2011-09-04 11:00;CYQF 041100Z 27005KT 15SM SKC 04/03 A3005 RMK SLP193

CYQF;2011-09-04 12:00;CYQF 041200Z 17003KT 15SM SKC 04/02 A3004 RMK SLP190

CYQF;2011-09-04 13:00;CYQF 041300Z 17005KT 15SM FEW250 04/02 A3002 RMK CI2 SLP184

CYQF;2011-09-04 14:00;CYQF 041400Z 17003KT 15SM BKN250 04/04 A3001 RMK CI2 SLP181

CYQF;2011-09-04 15:00;CYQF 041500Z 17006KT 15SM BKN250 09/06 A2999 RMK CI2 SLP173

CYQF;2011-09-04 16:00;CYQF 041600Z 19007KT 15SM SCT250 13/08 A2997 RMK CI2 SLP166

CYQF;2011-09-04 17:00;CYQF 041700Z 15007KT 15SM FEW250 16/07 A2995 RMK CI2 SLP159

CYQF;2011-09-04 18:00;CYQF 041800Z 15010KT 15SM SCT250 19/07 A2993 RMK CI2 SLP143

CYQF;2011-09-04 19:00;CYQF 041900Z 17008G15KT 15SM SCT250 22/09 A2990 RMK CI2 SLP135

CYQF;2011-09-04 20:00;CYQF 042000Z 16010G15KT 15SM BKN250 23/09 A2988 RMK CI6 SLP129

CYQF;2011-09-04 21:00;CYQF 042100Z 16008KT 15SM BKN250 24/09 A2986 RMK CI4 SLP115

CYQF;2011-09-04 22:00;CYQF 042200Z 16007KT 15SM BKN250 25/08 A2984 RMK CI5 SLP110

CYQF;2011-09-04 23:00;CYQF 042300Z 14009KT 15SM BKN250 24/09 A2983 RMK CI6 SLP105

CYQF;2011-09-05 00:00;CYQF 050000Z 14007KT 15SM BKN250 24/11 A2982 RMK CI4 SLP105

CYQF;2011-09-05 01:00;CYQF 050100Z 13005KT 15SM FEW250 23/11 A2981 RMK CI1 SLP103

CYQF;2011-09-05 02:00;CYQF 050200Z 09002KT 15SM FEW100 FEW250 21/12 A2980 RMK AC1CI1 SLP099

CYQF;2011-09-05 03:00;CYQF 050300Z 00000KT 15SM FEW150 17/11 A2980 RMK AC1 SLP101

CYQF;2011-09-05 04:00;CYQF 050400Z 01006KT 15SM SKC 15/10 A2981 RMK SLP103

CYQF;2011-09-05 05:00;CYQF 050500Z 01004KT 15SM SKC 12/10 A2982 RMK SLP108

CYQF;2011-09-05 06:00;CYQF 050600Z 30005KT 15SM SKC 10/08 A2984 RMK SLP111

CYQF;2011-09-05 07:00;CYQF 050700Z 21008KT 15SM SKC 08/08 A2985 RMK SLP114

CYQF;2011-09-05 08:00;CYQF 050800Z 23008KT 15SM SKC 08/08 A2985 RMK SLP116

CYQF;2011-09-05 09:00;CYQF 050900Z 20008KT 15SM SKC 07/07 A2985 RMK SLP113

CYQF;2011-09-05 10:00;CYQF 051000Z 20005KT 15SM SKC 07/07 A2986 RMK SLP116

CYQF;2011-09-05 11:00;CYQF 051100Z 12006KT 15SM SKC 08/06 A2986 RMK SLP115

CYQF;2011-09-05 12:00;CYQF 051200Z 18002KT 15SM FEW250 07/05 A2986 RMK CI0 SLP116

CYQF;2011-09-05 13:00;CYQF 051300Z 20003KT 15SM FEW150 BKN250 05/04 A2986 RMK AC2CI1 SLP117

CYQF;2011-09-05 14:00;CYQF 051400Z 19003KT 15SM FEW150 BKN250 08/05 A2987 RMK AC1CI2 SLP119

CYQF;2011-09-05 15:00;CYQF 051500Z 18004KT 15SM FEW150 BKN250 10/07 A2987 RMK AC1CI2 SLP125

CYQF;2011-09-05 16:00;CYQF 051600Z 21005KT 15SM FEW150 BKN250 14/09 A2987 RMK AC1CI2 SLP124

CYQF;2011-09-05 17:00;CYQF 051700Z 22005KT 15SM FEW150 BKN250 17/09 A2986 RMK AC1CI1 SLP123

CYQF;2011-09-05 18:00;CYQF 051800Z 17004KT 15SM FEW150 SCT250 21/10 A2986 RMK AC1CI1 AC TR SLP118

CYQF;2011-09-05 19:00;CYQF 051900Z 20004KT 15SM FEW250 24/10 A2985 RMK CI1 SLP114

CYQF;2011-09-05 20:00;CYQF 052000Z 23012KT 15SM FEW065 FEW250 25/08 A2984 RMK CU1CI1 SLP110

CYQF;2011-09-05 21:00;CYQF 052100Z 24008KT 15SM FEW078 FEW250 25/06 A2983 RMK CU1CI1 SLP104

CYQF;2011-09-05 22:00;CYQF 052200Z 26005KT 15SM FEW080 FEW250 26/05 A2983 RMK CU1CI2 SLP104

CYQF;2011-09-05 23:00;CYQF 052300Z 28002KT 15SM FEW250 26/04 A2983 RMK CI1 SLP104

CYQF;2011-09-06 00:00;CYQF 060000Z 15003KT 15SM FEW250 26/04 A2983 RMK CI1 SLP105

CYQF;2011-09-06 01:00;CYQF 060100Z 11002KT 15SM FEW250 24/08 A2984 RMK CI2 SLP108

CYQF;2011-09-06 02:00;CYQF 060200Z 06010KT 15SM FEW250 21/09 A2985 RMK CI1 SLP112

CYQF;2011-09-06 03:00;CYQF 060300Z 03005KT 15SM FEW250 17/10 A2988 RMK CI1 SLP126

CYQF;2011-09-06 04:00;CYQF 060400Z 01005KT 15SM FEW250 16/10 A2990 RMK CI1 SLP134

CYQF;2011-09-06 05:00;CYQF 060500Z 00000KT 15SM SKC 12/09 A2992 RMK SLP139

CYQF;2011-09-06 06:00;CYQF 060600Z 00000KT 15SM SKC 10/08 A2994 RMK SLP143

CYQF;2011-09-06 07:00;CYQF 060700Z 23005KT 15SM SKC 10/08 A2995 RMK SLP148

CYQF;2011-09-06 08:00;CYQF 060800Z 22004KT 15SM SKC 09/08 A2996 RMK SLP152

CYQF;2011-09-06 09:00;CYQF 060900Z 20004KT 15SM SKC 08/07 A2998 RMK SLP157

CYQF;2011-09-06 10:00;CYQF 061000Z 22004KT 15SM SKC 07/07 A2999 RMK SLP159

CYQF;2011-09-06 11:00;CYQF 061100Z 00000KT 15SM SKC 08/07 A3001 RMK SLP166

CYQF;2011-09-06 12:00;CYQF 061200Z 19004KT 15SM SKC 05/05 A3003 RMK SLP176

CYQF;2011-09-06 13:00;CYQF 061300Z 20005KT 15SM FEW250 05/04 A3005 RMK CI1 SLP182

CYQF;2011-09-06 14:00;CYQF 061400Z 19005KT 15SM FEW250 07/05 A3007 RMK CI0 SLP188

CYQF;2011-09-06 15:00;CYQF 061500Z 19004KT 15SM FEW250 10/08 A3009 RMK CI0 SLP199

CYQF;2011-09-06 16:00;CYQF 061600Z 21004KT 15SM FEW250 13/09 A3010 RMK CI0 SLP204

CYQF;2011-09-06 17:00;CYQF 061700Z 24004KT 15SM FEW250 17/10 A3011 RMK CI1 SLP207

CYQF;2011-09-06 18:00;CYQF 061800Z 00000KT 15SM FEW250 20/09 A3012 RMK CI1 SLP207

CYQF;2011-09-06 19:00;CYQF 061900Z 15002KT 15SM FEW250 24/09 A3012 RMK CI1 SLP206

CYQF;2011-09-06 20:00;CYQF 062000Z 19003KT 15SM FEW250 25/07 A3011 RMK CI1 SLP205

CYQF;2011-09-06 21:00;CYQF 062100Z 17005KT 15SM FEW250 26/05 A3010 RMK CI1 SLP196

CYQF;2011-09-06 22:00;CYQF 062200Z 00000KT 15SM FEW250 26/05 A3010 RMK CI0 SLP195

CYQF;2011-09-06 23:00;CYQF 062300Z 16005KT 15SM FEW250 27/05 A3009 RMK CI0 SLP193

CYQF;2011-09-07 00:00;CYQF 070000Z 11003KT 15SM FEW250 26/07 A3009 RMK CI1 SLP196

CYQF;2011-09-07 01:00;CYQF 070100Z 09007KT 15SM FEW250 24/10 A3010 RMK CI1 SLP198

CYQF;2011-09-07 02:00;CYQF 070200Z 07004KT 15SM FEW250 21/11 A3010 RMK CI0 SLP200

CYQF;2011-09-07 03:00;CYQF 070300Z 00000KT 15SM SKC 17/10 A3013 RMK SLP213

CYQF;2011-09-07 04:00;CYQF 070400Z 00000KT 15SM SKC 14/10 A3014 RMK SLP216

CYQF;2011-09-07 05:00;CYQF 070500Z 14002KT 15SM SKC 13/09 A3014 RMK SLP217

CYQF;2011-09-07 06:00;CYQF 070600Z 23004KT 15SM SKC 12/08 A3015 RMK SLP215

CYQF;2011-09-07 07:00;CYQF 070700Z 20006KT 15SM SKC 12/08 A3016 RMK SLP218

CYQF;2011-09-07 08:00;CYQF 070800Z 19004KT 15SM SKC 08/06 A3016 RMK SLP218

CYQF;2011-09-07 09:00;CYQF 070900Z 21004KT 15SM SKC 09/07 A3016 RMK SLP215

CYQF;2011-09-07 10:00;CYQF 071000Z 20004KT 15SM SKC 07/05 A3017 RMK SLP218

CYQF;2011-09-07 11:00;CYQF 071100Z 22005KT 15SM SKC 06/05 A3018 RMK SLP222

CYQF;2011-09-07 12:00;CYQF 071200Z 19004KT 15SM SKC 07/06 A3019 RMK SLP229

CYQF;2011-09-07 13:00;CYQF 071300Z 20005KT 15SM SKC 06/05 A3020 RMK SLP232

CYQF;2011-09-07 14:00;CYQF 071400Z 18005KT 15SM SKC 07/06 A3022 RMK SLP238

CYQF;2011-09-07 15:00;CYQF 071500Z 19004KT 15SM SKC 11/08 A3023 RMK SLP248

CYQF;2011-09-07 16:00;CYQF 071600Z 21004KT 15SM SKC 15/10 A3024 RMK SLP250

CYQF;2011-09-07 17:00;CYQF 071700Z 23002KT 15SM SKC 20/11 A3024 RMK SLP252

CYQF;2011-09-07 18:00;CYQF 071800Z 28005KT 15SM SKC 23/10 A3024 RMK SLP245

CYQF;2011-09-07 19:00;CYQF 071900Z 29005KT 15SM SKC 25/10 A3024 RMK SLP243

CYQF;2011-09-07 20:00;CYQF 072000Z 27005KT 15SM SKC 25/09 A3023 RMK SLP242

CYQF;2011-09-07 21:00;CYQF 072100Z 27004KT 15SM SKC 26/09 A3023 RMK SLP241

CYQF;2011-09-07 22:00;CYQF 072200Z 00000KT 15SM SKC 27/09 A3023 RMK SLP239

CYQF;2011-09-07 23:00;CYQF 072300Z 00000KT 15SM SKC 27/09 A3022 RMK SLP238

CYQF;2011-09-08 00:00;CYQF 080000Z 00000KT 15SM SKC 27/08 A3022 RMK SLP237

CYQF;2011-09-08 01:00;CYQF 080100Z 00000KT 15SM SKC 26/14 A3021 RMK SLP234

CYQF;2011-09-08 02:00;CYQF 080200Z 00000KT 15SM SKC 22/14 A3021 RMK SLP234

CYQF;2011-09-08 03:00;CYQF 080300Z 00000KT 15SM SKC 18/11 A3022 RMK SLP243

CYQF;2011-09-08 04:00;CYQF 080400Z 00000KT 15SM SKC 15/10 A3023 RMK SLP245

CYQF;2011-09-08 05:00;CYQF 080500Z 00000KT 15SM SKC 13/10 A3023 RMK SLP245

CYQF;2011-09-08 06:00;CYQF 080600Z 00000KT 15SM SKC 12/09 A3023 RMK SLP241

CYQF;2011-09-08 07:00;CYQF 080700Z 17004KT 15SM SKC 10/09 A3025 RMK SLP245

CYQF;2011-09-08 08:00;CYQF 080800Z 00000KT 15SM SKC 10/08 A3025 RMK SLP246

CYQF;2011-09-08 09:00;CYQF 080900Z 00000KT 15SM SKC 09/08 A3025 RMK SLP246

CYQF;2011-09-08 10:00;CYQF 081000Z 20003KT 15SM SKC 08/08 A3025 RMK SLP247

CYQF;2011-09-08 11:00;CYQF 081100Z 19003KT 15SM SKC 07/06 A3025 RMK SLP246

CYQF;2011-09-08 12:00;CYQF 081200Z 20004KT 15SM SKC 06/05 A3025 RMK SLP250

CYQF;2011-09-08 13:00;CYQF 081300Z 19002KT 15SM SKC 07/06 A3025 RMK SLP250

CYQF;2011-09-08 14:00;CYQF 081400Z 18004KT 15SM SKC 08/07 A3026 RMK SLP253

CYQF;2011-09-08 15:00;CYQF 081500Z 19003KT 15SM SKC 10/09 A3026 RMK SLP258

CYQF;2011-09-08 16:00;CYQF 081600Z 00000KT 15SM SKC 14/11 A3026 RMK SLP258

CYQF;2011-09-08 17:00;CYQF 081700Z 00000KT 15SM SKC 18/13 A3026 RMK SLP258

CYQF;2011-09-08 18:00;CYQF 081800Z 00000KT 15SM SKC 21/12 A3026 RMK SLP252

CYQF;2011-09-08 19:00;CYQF 081900Z 00000KT 15SM FEW250 25/09 A3025 RMK CI1 SLP250

CYQF;2011-09-08 20:00;CYQF 082000Z 00000KT 15SM FEW250 25/11 A3024 RMK CI1 SLP247

CYQF;2011-09-08 21:00;CYQF 082100Z 30002KT 15SM FEW250 26/11 A3024 RMK CI1 SLP242

CYQF;2011-09-08 22:00;CYQF 082200Z 00000KT 15SM FEW250 27/11 A3022 RMK CI1 SLP237

CYQF;2011-09-08 23:00;CYQF 082300Z 00000KT 15SM FEW250 27/10 A3021 RMK CI1 SLP235

CYQF;2011-09-09 00:00;CYQF 090000Z 00000KT 15SM FEW250 27/10 A3021 RMK CI1 SLP235

CYQF;2011-09-09 01:00;CYQF 090100Z 07004KT 15SM FEW250 26/12 A3021 RMK CI1 SLP235

CYQF;2011-09-09 02:00;CYQF 090200Z 00000KT 15SM FEW250 23/13 A3021 RMK CI1 SLP236

CYQF;2011-09-09 03:00;CYQF 090300Z 00000KT 15SM FEW250 17/11 A3023 RMK CI0 SLP249

CYQF;2011-09-09 04:00;CYQF 090400Z 00000KT 15SM SKC 14/12 A3025 RMK SLP254

CYQF;2011-09-09 05:00;CYQF 090500Z 00000KT 15SM SKC 14/12 A3025 RMK SLP255

CYQF;2011-09-09 06:00;CYQF 090600Z 20004KT 15SM SKC 11/10 A3025 RMK SLP251

CYQF;2011-09-09 07:00;CYQF 090700Z 00000KT 15SM SKC 11/09 A3026 RMK SLP252

CYQF;2011-09-09 08:00;CYQF 090800Z 17003KT 15SM SKC 10/09 A3025 RMK SLP251

CYQF;2011-09-09 09:00;CYQF 090900Z 21004KT 15SM SKC 09/08 A3025 RMK SLP247

CYQF;2011-09-09 10:00;CYQF 091000Z 00000KT 15SM SKC 09/09 A3026 RMK SLP249

CYQF;2011-09-09 11:00;CYQF 091100Z 19004KT 15SM SKC 08/08 A3025 RMK SLP248

CYQF;2011-09-09 12:00;CYQF 091200Z 20004KT 15SM SKC 08/08 A3026 RMK SLP249

CYQF;2011-09-09 13:00;CYQF 091300Z 19004KT 15SM MIFG SKC 08/07 A3026 RMK SLP249

CYQF;2011-09-09 14:00;CYQF 091400Z 19004KT 15SM SKC 09/08 A3026 RMK HZ SLP251

CYQF;2011-09-09 15:00;CYQF 091500Z 20005KT 15SM SKC 11/10 A3027 RMK SLP261

CYQF;2011-09-09 16:00;CYQF 091600Z 22003KT 15SM SKC 15/12 A3027 RMK SLP262

CYQF;2011-09-09 17:00;CYQF 091700Z 22003KT 15SM SKC 19/12 A3026 RMK SLP260

CYQF;2011-09-09 18:00;CYQF 091800Z 22002KT 15SM SKC 22/13 A3025 RMK SLP249

CYQF;2011-09-09 19:00;CYQF 091900Z 20004KT 15SM SKC 25/13 A3023 RMK SLP241

CYQF;2011-09-09 20:00;CYQF 092000Z 17004KT 15SM SKC 26/13 A3021 RMK SLP236

CYQF;2011-09-09 21:00;CYQF 092100Z 00000KT 15SM SKC 28/11 A3019 RMK SLP226

CYQF;2011-09-09 22:00;CYQF 092200Z 00000KT 15SM SKC 28/10 A3018 RMK SLP221

CYQF;2011-09-09 23:00;CYQF 092300Z 00000KT 15SM SKC 28/10 A3016 RMK SLP217

CYQF;2011-09-10 00:00;CYQF 100000Z 00000KT 15SM SKC 28/09 A3015 RMK SLP213

CYQF;2011-09-10 01:00;CYQF 100100Z 00000KT 15SM SKC 26/11 A3014 RMK SLP207

CYQF;2011-09-10 02:00;CYQF 100200Z 00000KT 15SM SKC 22/12 A3013 RMK SLP205

CYQF;2011-09-10 03:00;CYQF 100300Z 00000KT 15SM SKC 17/11 A3014 RMK SLP215

CYQF;2011-09-10 04:00;CYQF 100400Z 00000KT 15SM SKC 15/11 A3014 RMK SLP217

CYQF;2011-09-10 05:00;CYQF 100500Z 19005KT 15SM SKC 13/10 A3014 RMK SLP216

CYQF;2011-09-10 06:00;CYQF 100600Z 21003KT 15SM SKC 12/10 A3013 RMK SLP207

CYQF;2011-09-10 07:00;CYQF 100700Z 27004KT 15SM SKC 10/09 A3014 RMK SLP208

CYQF;2011-09-10 08:00;CYQF 100800Z 00000KT 15SM SKC 11/09 A3013 RMK SLP207

CYQF;2011-09-10 09:00;CYQF 100900Z 00000KT 15SM SKC 10/09 A3013 RMK SLP202

CYQF;2011-09-10 10:00;CYQF 101000Z 20004KT 15SM SKC 09/08 A3013 RMK SLP203

CYQF;2011-09-10 11:00;CYQF 101100Z 21003KT 15SM SKC 08/07 A3014 RMK SLP206

CYQF;2011-09-10 12:00;CYQF 101200Z 30006KT 15SM SKC 10/08 A3015 RMK SLP211

CYQF;2011-09-10 13:00;CYQF 101300Z 29008KT 15SM SKC 08/07 A3017 RMK SLP216

CYQF;2011-09-10 14:00;CYQF 101400Z 31006KT 15SM SKC 11/09 A3019 RMK SLP222

CYQF;2011-09-10 15:00;CYQF 101500Z 34007KT 15SM SKC 13/10 A3020 RMK SLP237

CYQF;2011-09-10 16:00;CYQF 101600Z 35007KT 15SM SKC 18/12 A3021 RMK SLP238

CYQF;2011-09-10 17:00;CYQF 101700Z 01010KT 15SM SKC 20/11 A3020 RMK SLP237

CYQF;2011-09-10 18:00;CYQF 101800Z 36005KT 15SM SKC 21/11 A3019 RMK SLP230

CYQF;2011-09-10 19:00;CYQF 101900Z 34007KT 15SM SKC 22/11 A3017 RMK SLP224

CYQF;2011-09-10 20:00;CYQF 102000Z 02004KT 15SM SKC 23/10 A3016 RMK COTRA SLP220

CYQF;2011-09-10 21:00;CYQF 102100Z 01003KT 15SM SKC 23/10 A3015 RMK COTRA SLP213

CYQF;2011-09-10 22:00;CYQF 102200Z 00000KT 15SM SKC 23/10 A3012 RMK SLP205

CYQF;2011-09-10 23:00;CYQF 102300Z 35002KT 15SM SKC 24/10 A3010 RMK SLP200

CYQF;2011-09-11 00:00;CYQF 110000Z 02006KT 15SM FEW280 24/10 A3010 RMK CI1 SLP196

CYQF;2011-09-11 01:00;CYQF 110100Z 05004KT 15SM FEW280 23/11 A3008 RMK CI1 SLP191

CYQF;2011-09-11 02:00;CYQF 110200Z 00000KT 15SM FEW280 20/10 A3008 RMK CI1 SLP191

CYQF;2011-09-11 03:00;CYQF 110300Z 00000KT 15SM FEW280 16/11 A3009 RMK CI2 SLP197

CYQF;2011-09-11 04:00;CYQF 110400Z 00000KT 15SM FEW280 13/10 A3009 RMK CI1 SLP197

CYQF;2011-09-11 05:00;CYQF 110500Z 00000KT 15SM FEW280 11/09 A3008 RMK CI1 SLP196

CYQF;2011-09-11 06:00;CYQF 110600Z 00000KT 15SM FEW280 12/10 A3007 RMK CI1 SLP186

CYQF;2011-09-11 07:00;CYQF 110700Z 00000KT 15SM FEW280 10/08 A3005 RMK CI1 SLP179

CYQF;2011-09-11 08:00;CYQF 110800Z 24002KT 15SM FEW280 10/09 A3004 RMK CI1 SLP177

CYQF;2011-09-11 09:00;CYQF 110900Z 20003KT 15SM FEW280 11/08 A3003 RMK CI1 SLP172

CYQF;2011-09-11 10:00;CYQF 111000Z 24005KT 15SM FEW280 08/07 A3000 RMK CI1 SLP162

CYQF;2011-09-11 11:00;CYQF 111100Z 19004KT 15SM FEW280 09/08 A2999 RMK CI1 SLP160

CYQF;2011-09-11 12:00;CYQF 111200Z 18004KT 15SM FEW280 08/07 A2997 RMK CI1 SLP153

CYQF;2011-09-11 13:00;CYQF 111300Z 19005KT 15SM FEW280 07/06 A2994 RMK CI1 SLP144

CYQF;2011-09-11 14:00;CYQF 111400Z 20002KT 15SM BKN280 09/08 A2992 RMK CI2 SLP137

CYQF;2011-09-11 15:00;CYQF 111500Z 22005KT 15SM BKN280 13/10 A2992 RMK CI2 SLP141

CYQF;2011-09-11 16:00;CYQF 111600Z 31006KT 15SM BKN280 16/12 A2992 RMK CI2 SLP140

CYQF;2011-09-11 17:00;CYQF 111700Z 31010G15KT 15SM BKN250 19/12 A2991 RMK CI3 SLP138

CYQF;2011-09-11 18:00;CYQF 111800Z 33010G15KT 15SM FEW100 BKN250 21/12 A2992 RMK AC2CI2 SLP136

CYQF;2011-09-11 19:00;CYQF 111900Z 33012G20KT 15SM FEW030 FEW080 BKN250 20/12 A2995 RMK CU1AC2CI2 SLP145

CYQF;2011-09-11 20:00;CYQF 112000Z 35020G30KT 15SM FEW030 FEW080 BKN250 16/10 A3001 RMK SC1AC1CI2 SLP162

CYQF;2011-09-11 21:00;CYQF 112100Z 34015G28KT 15SM FEW030 FEW080 BKN250 17/10 A3004 RMK CF1AC2CI1 ACC ASOCTD SLP183

CYQF;2011-09-11 22:00;CYQF 112200Z 35020G30KT 15SM FEW032 SCT080 BKN250 16/08 A3006 RMK CU2AC2CI2 ACC SLP189

CYQF;2011-09-11 23:00;CYQF 112300Z 34018G28KT 15SM FEW032 BKN080 BKN250 15/08 A3009 RMK CU2ACC3CI2 SLP197

CYQF;2011-09-12 00:00;CYQF 120000Z 34014G24KT 15SM SCT030 BKN080 BKN250 13/08 A3012 RMK SC3ACC3CI1 SLP216

CYQF;2011-09-12 01:00;CYQF 120100Z 34010G20KT 15SM SCT030 BKN080 12/08 A3014 RMK SC3AC4 SLP224

CYQF;2011-09-12 02:00;CYQF 120200Z 33010G20KT 15SM SCT030 BKN080 11/07 A3016 RMK SC4ACC3 SLP230

CYQF;2011-09-12 03:00;CYQF 120300Z 30010KT 15SM BKN050 11/08 A3019 RMK SC7 SLP239

CYQF;2011-09-12 04:00;CYQF 120400Z 32007KT 15SM SCT050 09/07 A3020 RMK SC4 SLP242

CYQF;2011-09-12 05:00;CYQF 120500Z 27005KT 15SM FEW050 BKN080 09/08 A3020 RMK SC2AC4 SLP242

CYQF;2011-09-12 06:00;CYQF 120600Z 00000KT 15SM FEW050 BKN080 08/07 A3020 RMK SC2AC3 SLP237

CYQF;2011-09-12 07:00;CYQF 120700Z 30004KT 15SM FEW050 BKN080 07/06 A3020 RMK SC2AC3 SLP237

CYQF;2011-09-12 08:00;CYQF 120800Z 20004KT 15SM FEW050 SCT080 05/05 A3020 RMK SC1AC2 SLP237

CYQF;2011-09-12 09:00;CYQF 120900Z 00000KT 15SM FEW080 05/05 A3020 RMK AC2 SLP243

CYQF;2011-09-12 10:00;CYQF 121000Z 19003KT 15SM FEW080 04/03 A3019 RMK AC2 SLP241

CYQF;2011-09-12 11:00;CYQF 121100Z 00000KT 15SM FEW080 05/05 A3018 RMK AC2 SLP239

CYQF;2011-09-12 12:00;CYQF 121200Z 00000KT 15SM SCT080 05/05 A3017 RMK AC3 SLP239

CYQF;2011-09-12 13:00;CYQF 121300Z 00000KT 15SM FEW050 BKN080 BKN250 05/04 A3017 RMK SC2AC3CI1 SLP238

CYQF;2011-09-12 14:00;CYQF 121400Z 00000KT 15SM FEW050 BKN080 BKN250 06/06 A3016 RMK SC2AC3CI0 SLP236

CYQF;2011-09-12 14:32;CYQF 121432Z 00000KT 15SM FEW010 SCT050 BKN080 RMK SF1SC3AC2

CYQF;2011-09-12 15:00;CYQF 121500Z 12002KT 15SM FEW010 SCT050 BKN080 08/07 A3016 RMK SF1SC3AC2 SLP235

CYQF;2011-09-12 15:33;CYQF 121533Z 00000KT 10SM FEW007 BKN070 BKN250 RMK SF2AC3CI2

CYQF;2011-09-12 16:00;CYQF 121600Z 04003KT 15SM FEW007 BKN070 BKN250 10/09 A3017 RMK SF2AC2CI1 SLP236

CYQF;2011-09-12 17:00;CYQF 121700Z 00000KT 10SM SCT007 BKN035 OVC090 11/08 A3017 RMK SF2SC4AC2 SLP236

CYQF;2011-09-12 18:00;CYQF 121800Z 00000KT 15SM SCT012 BKN040 OVC090 12/08 A3016 RMK CU3SC3AC2 SLP234

CYQF;2011-09-12 19:00;CYQF 121900Z 00000KT 15SM SCT018 OVC034 13/05 A3017 RMK SC4SC4 CU SLP236

CYQF;2011-09-12 20:00;CYQF 122000Z 00000KT 15SM SCT025 OVC035 13/06 A3017 RMK SC4SC4 CU EMBDD SLP237

CYQF;2011-09-12 21:00;CYQF 122100Z 00000KT 15SM SCT025 OVC035 13/07 A3018 RMK SC4SC4 SLP241

CYQF;2011-09-12 22:00;CYQF 122200Z 30006KT 15SM BKN025 BKN040 14/07 A3018 RMK SC6SC2 CU EMBD SLP242

CYQF;2011-09-12 23:00;CYQF 122300Z 29003KT 15SM SCT025 BKN040 BKN230 14/07 A3018 RMK SC3SC2CI1 CU EMBD SLP242

CYQF;2011-09-13 00:00;CYQF 130000Z 32002KT 15SM SCT025 BKN230 14/08 A3019 RMK SC4CI2 CU SLP245

CYQF;2011-09-13 01:00;CYQF 130100Z 32002KT 15SM FEW025 BKN230 12/07 A3021 RMK SC2CI3 CU CC SLP249

CYQF;2011-09-13 02:00;CYQF 130200Z 33004KT 15SM FEW025 BKN230 09/05 A3022 RMK SC1CI2 SLP252

CYQF;2011-09-13 03:00;CYQF 130300Z 32004KT 15SM BKN230 08/05 A3023 RMK CI2 SLP261

CYQF;2011-09-13 04:00;CYQF 130400Z 31003KT 15SM SCT230 07/04 A3025 RMK CI2 SLP266

CYQF;2011-09-13 05:00;CYQF 130500Z 22002KT 15SM FEW230 06/04 A3025 RMK CI1 SLP267

CYQF;2011-09-13 06:00;CYQF 130600Z 00000KT 15SM FEW230 05/04 A3025 RMK CI1 SLP269

CYQF;2011-09-13 07:00;CYQF 130700Z 20006KT 15SM FEW230 04/04 A3026 RMK CI1 SLP271

CYQF;2011-09-13 08:00;CYQF 130800Z 21006KT 15SM SKC 04/03 A3026 RMK SLP271

CYQF;2011-09-13 09:00;CYQF 130900Z 24003KT 15SM FEW080 SCT250 05/04 A3027 RMK AC2CI0 SLP273

CYQF;2011-09-13 10:00;CYQF 131000Z 00000KT 15SM FEW080 SCT250 05/04 A3028 RMK AC2CI1 SLP276

CYQF;2011-09-13 11:00;CYQF 131100Z 03002KT 15SM BKN080 BKN250 05/04 A3029 RMK AC5CI2 SLP278

CYQF;2011-09-13 12:00;CYQF 131200Z 01006KT 15SM BKN090 BKN250 05/04 A3030 RMK AC5CI2 SLP281

CYQF;2011-09-13 13:00;CYQF 131300Z 02005KT 15SM FEW070 SCT100 BKN250 06/04 A3030 RMK AC1AC2CI1 SLP283

CYQF;2011-09-13 14:00;CYQF 131400Z 00000KT 15SM FEW070 FEW100 BKN250 05/04 A3033 RMK AC1AC1CI4 SLP291

CYQF;2011-09-13 15:00;CYQF 131500Z 07003KT 15SM FEW015 FEW100 OVC250 07/05 A3034 RMK SC1AC1CI3 SLP301

CYQF;2011-09-13 15:47;CYQF 131547Z 09008KT 15SM BKN013 BKN100 BKN250 RMK SC5AC1CI1

CYQF;2011-09-13 16:00;CYQF 131600Z 10008KT 15SM BKN012 BKN100 BKN250 07/05 A3034 RMK SC5AC2CI0 SLP301

CYQF;2011-09-13 17:00;CYQF 131700Z 08008KT 15SM BKN012 BKN050 BKN100 08/05 A3035 RMK SC5SC2AC1 SLP304

CYQF;2011-09-13 18:00;CYQF 131800Z 10008KT 15SM BKN013 BKN050 BKN100 10/05 A3035 RMK SC5SC2AC1 SLP305

CYQF;2011-09-13 19:00;CYQF 131900Z 08010KT 15SM SCT013 BKN050 OVC100 10/05 A3034 RMK SC4SC2AC2 SLP303

CYQF;2011-09-13 20:00;CYQF 132000Z 07010G15KT 15SM SCT013 BKN050 OVC100 10/05 A3034 RMK SC4SC2AC2 SLP302

CYQF;2011-09-13 21:00;CYQF 132100Z 09010G15KT 15SM FEW020 BKN050 BKN100 11/06 A3034 RMK SC2SC2AC2 SLP298

CYQF;2011-09-13 22:00;CYQF 132200Z 08010G20KT 15SM FEW020 BKN050 OVC100 10/05 A3033 RMK SC2SC3AC2 SLP297

CYQF;2011-09-13 23:00;CYQF 132300Z 10008KT 15SM FEW020 BKN050 OVC100 11/05 A3033 RMK SC2SC3AC2 SLP296

CYQF;2011-09-14 00:00;CYQF 140000Z 09010KT 15SM BKN050 OVC120 10/05 A3033 RMK SC5AC3 SLP297

CYQF;2011-09-14 01:00;CYQF 140100Z 11008KT 15SM BKN035 OVC120 10/05 A3033 RMK SC6AC2 SLP295

CYQF;2011-09-14 02:00;CYQF 140200Z 11006KT 15SM BKN035 OVC100 10/04 A3032 RMK SC7AC1 SLP292

CYQF;2011-09-14 03:00;CYQF 140300Z 11008KT 15SM OVC045 09/04 A3033 RMK SC8 SLP295

CYQF;2011-09-14 04:00;CYQF 140400Z 12010KT 15SM OVC045 09/03 A3033 RMK SC8 SLP295

CYQF;2011-09-14 05:00;CYQF 140500Z 12012KT 15SM OVC050 08/01 A3033 RMK SC8 SLP294

CYQF;2011-09-14 06:00;CYQF 140600Z 13012KT 15SM OVC050 08/00 A3032 RMK SC8 SLP291

CYQF;2011-09-14 07:00;CYQF 140700Z 16013KT 15SM OVC050 08/M02 A3031 RMK SC8 SLP287

CYQF;2011-09-14 08:00;CYQF 140800Z 15014KT 15SM OVC050 07/M03 A3030 RMK SC8 SLP284

CYQF;2011-09-14 09:00;CYQF 140900Z 15014KT 15SM OVC050 07/M03 A3029 RMK SC8 SLP280

CYQF;2011-09-14 10:00;CYQF 141000Z 15012KT 15SM OVC050 07/M04 A3028 RMK SC8 SLP276

CYQF;2011-09-14 11:00;CYQF 141100Z 14014KT 15SM SCT050 BKN090 07/M03 A3025 RMK SC4AC3 SLP268

CYQF;2011-09-14 12:00;CYQF 141200Z 14010KT 15SM FEW050 FEW090 BKN250 05/M04 A3024 RMK SC2AC1CI2 SLP266

CYQF;2011-09-14 13:00;CYQF 141300Z 13008KT 15SM FEW050 FEW100 BKN250 05/M03 A3023 RMK SC1AC1CI2 SC TR SLP263

CYQF;2011-09-14 14:00;CYQF 141400Z 13010KT 15SM FEW050 FEW100 BKN250 04/M03 A3020 RMK SC1AC1CI2 SC TR TCU DIST SW SLP253

CYQF;2011-09-14 15:00;CYQF 141500Z 13013G19KT 15SM FEW100 BKN250 06/M01 A3018 RMK AC1CI6 SLP244

CYQF;2011-09-14 16:00;CYQF 141600Z 13020G30KT 15SM FEW100 BKN250 08/00 A3016 RMK AC1CI3 SLP238

CYQF;2011-09-14 17:00;CYQF 141700Z 15015G25KT 15SM FEW100 BKN250 11/02 A3014 RMK AC1CI6 SLP233

CYQF;2011-09-14 18:00;CYQF 141800Z 17015G28KT 15SM FEW100 BKN250 13/03 A3012 RMK AC1CI1 AC TR SLP217

CYQF;2011-09-14 19:00;CYQF 141900Z 16020G30KT 15SM FEW100 FEW250 15/04 A3010 RMK AC1CI1 SLP210

CYQF;2011-09-14 20:00;CYQF 142000Z 18020G30KT 15SM FEW047 FEW100 FEW250 16/05 A3008 RMK CU1AC1CI1 SLP204

CYQF;2011-09-14 21:00;CYQF 142100Z 15018G28KT 15SM FEW250 17/05 A3005 RMK CI1 SLP189

CYQF;2011-09-14 22:00;CYQF 142200Z 16015G25KT 15SM FEW250 18/05 A3003 RMK CI1 SLP184

CYQF;2011-09-14 23:00;CYQF 142300Z 17015G25KT 15SM FEW250 18/05 A3001 RMK CI1 SLP178

CYQF;2011-09-15 00:00;CYQF 150000Z 16015G25KT 15SM SKC 17/05 A2999 RMK SLP172

CYQF;2011-09-15 01:00;CYQF 150100Z 15010G18KT 15SM SKC 16/04 A2997 RMK SLP166

CYQF;2011-09-15 02:00;CYQF 150200Z 14008KT 15SM FEW250 14/04 A2996 RMK CI0 SLP162

CYQF;2011-09-15 03:00;CYQF 150300Z 15005KT 15SM FEW250 12/04 A2995 RMK CI1 SLP163

CYQF;2011-09-15 04:00;CYQF 150400Z 15008KT 15SM SKC 11/04 A2994 RMK SLP159

CYQF;2011-09-15 05:00;CYQF 150500Z 15008KT 15SM SKC 10/04 A2992 RMK SLP152

CYQF;2011-09-15 06:00;CYQF 150600Z 17014KT 15SM SKC 10/03 A2989 RMK SLP137

CYQF;2011-09-15 07:00;CYQF 150700Z 17008KT 15SM SCT250 09/03 A2988 RMK CI2 SLP133

CYQF;2011-09-15 08:00;CYQF 150800Z 16012KT 15SM SCT250 08/03 A2986 RMK CI2 SLP126

CYQF;2011-09-15 09:00;CYQF 150900Z 16008KT 15SM SCT250 08/02 A2985 RMK CI2 SLP120

CYQF;2011-09-15 10:00;CYQF 151000Z 17006KT 15SM SCT250 08/02 A2983 RMK CI2 SLP113

CYQF;2011-09-15 11:00;CYQF 151100Z 17006KT 15SM SCT250 07/02 A2982 RMK CI2 SLP110

CYQF;2011-09-15 12:00;CYQF 151200Z 16006KT 15SM SCT250 05/02 A2981 RMK CI2 SLP107

CYQF;2011-09-15 13:00;CYQF 151300Z 17004KT 15SM FEW250 05/01 A2979 RMK CI2 SLP102

CYQF;2011-09-15 14:00;CYQF 151400Z 16005KT 15SM SCT250 06/02 A2978 RMK CI4 SLP100

CYQF;2011-09-15 15:00;CYQF 151500Z 16010KT 15SM SCT250 08/03 A2977 RMK CI2 SLP098

CYQF;2011-09-15 16:00;CYQF 151600Z 17008KT 15SM SCT260 10/04 A2975 RMK CI2 SLP092

CYQF;2011-09-15 17:00;CYQF 151700Z 15008KT 15SM BKN260 13/06 A2974 RMK CI6 SLP087

CYQF;2011-09-15 18:00;CYQF 151800Z 19009KT 15SM BKN260 16/08 A2972 RMK CI7 SLP072

CYQF;2011-09-15 19:00;CYQF 151900Z 16008KT 15SM FEW180 BKN260 18/07 A2970 RMK AC2CI4 SLP066

CYQF;2011-09-15 20:00;CYQF 152000Z 16010KT 15SM FEW180 BKN260 20/09 A2968 RMK AC2CI3 SLP061

CYQF;2011-09-15 21:00;CYQF 152100Z 15008KT 15SM FEW180 BKN260 22/09 A2965 RMK AC2CI3 SLP046

CYQF;2011-09-15 22:00;CYQF 152200Z 13010KT 15SM FEW180 BKN260 22/07 A2963 RMK AC2CI3 SLP039

CYQF;2011-09-15 23:00;CYQF 152300Z 13010G15KT 10SM FEW120 BKN250 22/07 A2961 RMK AC2CI4 HZ SLP032

CYQF;2011-09-16 00:00;CYQF 160000Z 13008KT 10SM SCT120 OVC250 21/08 A2958 RMK AC4CI4 HZ SLP025

CYQF;2011-09-16 01:00;CYQF 160100Z 14007KT 10SM BKN120 OVC250 20/08 A2956 RMK AC4CI4 HZ SLP020

CYQF;2011-09-16 02:00;CYQF 160200Z 12010KT 10SM BKN120 OVC250 19/07 A2954 RMK AC5CI2 HZ SLP011

CYQF;2011-09-16 03:00;CYQF 160300Z 14006KT 10SM BKN120 OVC250 17/08 A2952 RMK AC6CI2 HZ SLP006

CYQF;2011-09-16 04:00;CYQF 160400Z 15007KT 10SM OVC120 16/09 A2952 RMK AC8 SLP006

CYQF;2011-09-16 05:00;CYQF 160500Z 19004KT 15SM BKN120 OVC250 16/09 A2951 RMK AC6CI2 OCNL LTNG DIST NW SLP002

CYQF;2011-09-16 06:00;CYQF 160600Z 29005KT 15SM BKN100 OVC250 14/09 A2952 RMK AC6CI2 SLP999

CYQF;2011-09-16 07:00;CYQF 160700Z 33012KT 15SM BKN100 13/10 A2956 RMK AC6 SLP012

CYQF;2011-09-16 08:00;CYQF 160800Z 33010KT 15SM BKN100 13/09 A2957 RMK AC7 SLP014

CYQF;2011-09-16 09:00;CYQF 160900Z 27005KT 15SM FEW040 BKN090 12/09 A2958 RMK SC2AC6 SLP017

CYQF;2011-09-16 10:00;CYQF 161000Z 26010KT 15SM BKN040 OVC090 11/10 A2960 RMK SC5AC3 SLP023

CYQF;2011-09-16 10:17;CYQF 161017Z 28008KT 15SM -RA BKN040 OVC090 RMK SC5AC3

CYQF;2011-09-16 11:00;CYQF 161100Z 27012KT 15SM -RA FEW040 OVC090 11/10 A2961 RMK SC2AC5 SLP026

CYQF;2011-09-16 12:00;CYQF 161200Z 28005KT 15SM -RA BKN060 OVC100 11/10 A2961 RMK SC5AC2 SLP030

CYQF;2011-09-16 13:00;CYQF 161300Z 31010G18KT 10SM -RA SCT020 BKN060 OVC090 11/10 A2961 RMK SC3SC3AC2 VIS N 5 SLP030

CYQF;2011-09-16 13:15;CYQF 161315Z 27008KT 12SM VCSH SCT020 BKN060 BKN090 RMK SC3SC2AC1

CYQF;2011-09-16 14:00;CYQF 161400Z CCB 27005KT 15SM FEW020 BKN060 BKN090 09/09 A2963 RMK SC2SC2AC1 SH DIST N SLP040

CYQF;2011-09-16 15:00;CYQF 161500Z 24004KT 15SM FEW020 BKN070 12/11 A2964 RMK SC2AC2 SLP043

CYQF;2011-09-16 16:00;CYQF 161600Z 24005KT 15SM FEW015 FEW030 BKN060 12/11 A2965 RMK SF1SC2SC2 SLP045

CYQF;2011-09-16 17:00;CYQF 161700Z 31005KT 15SM FEW015 FEW030 SCT060 14/10 A2966 RMK CF1SC1SC1 SLP047

CYQF;2011-09-16 18:00;CYQF 161800Z 34006KT 15SM FEW030 FEW080 SCT250 15/08 A2966 RMK CU1AC1CI0 SLP049

CYQF;2011-09-16 19:00;CYQF 161900Z 20002KT 15SM FEW035 FEW080 FEW250 17/08 A2965 RMK CU1AC1CI0 SLP047

CYQF;2011-09-16 20:00;CYQF 162000Z 00000KT 15SM FEW040 SCT250 18/07 A2964 RMK CU2CI1 SLP044

CYQF;2011-09-16 20:38;CYQF 162038Z 29015G20KT 15SM -SHRA BKN035TCU BKN250 RMK TCU6CI1

CYQF;2011-09-16 20:39;CYQF 162039Z 29015G20KT 15SM -SHRA BKN035TCU BKN250 RMK TCU6CI1

CYQF;2011-09-16 21:00;CYQF 162100Z 31005KT 15SM +SHRA BKN025TCU 13/07 A2965 RMK TCU6 SLP052

CYQF;2011-09-16 21:24;CYQF 162124Z 22012KT 15SM VCSH SCT025TCU RERA RMK TCU3

CYQF;2011-09-16 22:00;CYQF 162200Z 15003KT 15SM FEW036TCU 18/09 A2964 RERA RMK TCU2 SLP047

CYQF;2011-09-16 23:00;CYQF 162300Z 29010G15KT 15SM FEW035 FEW250 19/02 A2964 RMK SC1CI1 WND SHFT CU ASOCTD CI TR SLP048

CYQF;2011-09-17 00:00;CYQF 170000Z CCA 29008KT 15SM FEW035 FEW250 18/00 A2965 RMK SC1CI1 CI TR SLP046

CYQF;2011-09-17 01:00;CYQF 170100Z 00000KT 15SM FEW035 FEW100 SCT250 17/04 A2965 RMK SC1AC1CI2 SLP045

CYQF;2011-09-17 02:00;CYQF 170200Z 36004KT 15SM FEW040 FEW100 SCT250 14/04 A2966 RMK SC1AC1CI1 SC/AC TR SLP049

CYQF;2011-09-17 03:00;CYQF 170300Z 00000KT 15SM FEW100 FEW250 12/05 A2968 RMK AC1CI0 SLP063

CYQF;2011-09-17 04:00;CYQF 170400Z 33006KT 15SM FEW100 BKN250 10/05 A2970 RMK AC2CI1 SLP070

CYQF;2011-09-17 05:00;CYQF 170500Z 33003KT 15SM SCT250 08/05 A2971 RMK CI1 SLP071

CYQF;2011-09-17 06:00;CYQF 170600Z 00000KT 15SM FEW250 07/05 A2972 RMK CI1 SLP077

CYQF;2011-09-17 07:00;CYQF 170700Z 23005KT 15SM FEW250 04/04 A2972 RMK CI0 SLP079

CYQF;2011-09-17 08:00;CYQF 170800Z 00000KT 15SM FEW150 BKN250 04/03 A2974 RMK AC2CI1 SLP083

CYQF;2011-09-17 09:00;CYQF 170900Z 00000KT 15SM BKN250 04/03 A2974 RMK CI2 SLP090

CYQF;2011-09-17 10:00;CYQF 171000Z 19002KT 15SM BKN250 03/02 A2975 RMK CI2 SLP093

CYQF;2011-09-17 11:00;CYQF 171100Z 00000KT 15SM FEW250 03/02 A2975 RMK CI2 SLP092

CYQF;2011-09-17 12:00;CYQF 171200Z 21005KT 15SM FEW120 01/M00 A2976 RMK AC2 SLP094

CYQF;2011-09-17 13:00;CYQF 171300Z 23002KT 15SM BKN110 02/01 A2976 RMK AC5 SLP096

CYQF;2011-09-17 14:00;CYQF 171400Z 00000KT 15SM FEW040 BKN100 04/02 A2977 RMK SC2AC3 VIRGA SLP100

CYQF;2011-09-17 15:00;CYQF 171500Z 00000KT 15SM FEW040 BKN100 06/05 A2978 RMK SC2AC3 VIRGA SLP102

CYQF;2011-09-17 16:00;CYQF 171600Z 00000KT 15SM FEW040 BKN100 BKN250 10/05 A2978 RMK SC2AC2CI1 VIRGA SLP102

CYQF;2011-09-17 17:00;CYQF 171700Z 09006KT 15SM FEW032 BKN100 BKN250 12/05 A2978 RMK CU2AC2CI0 ACC SLP103

CYQF;2011-09-17 18:00;CYQF 171800Z 06010KT 15SM FEW040TCU BKN100 14/02 A2979 RMK TCU2AC3 ACC SLP102

CYQF;2011-09-17 19:00;CYQF 171900Z CCA 05005KT 15SM FEW048CB FEW100 FEW250 15/03 A2978 RMK CB2AC1CI1 CI TR SH SW SLP099

CYQF;2011-09-17 20:00;CYQF 172000Z 05003KT 15SM VCSH FEW048CB BKN100 BKN260 16/04 A2977 RMK CB2AC2CI0 SLP098

CYQF;2011-09-17 21:00;CYQF 172100Z 29002KT 15SM BKN050CB BKN100 OVC250 15/02 A2978 RMK CB5AC2CI1 VIRGA AC/CI FM CB SLP104

CYQF;2011-09-17 21:27;CYQF 172127Z 34005KT 15SM -SHRA BKN040CB BKN100 BKN250 RMK CB5AC2CI1

CYQF;2011-09-17 22:00;CYQF 172200Z 36004KT 15SM VCSH SCT040CB BKN100 BKN250 13/02 A2978 RMK CB4AC2CI1 SLP102

CYQF;2011-09-17 23:00;CYQF 172300Z 30002KT 15SM SCT037CB BKN100 BKN250 13/04 A2978 RMK CB3AC2CI2 SHWRS SW-NW SLP104

CYQF;2011-09-18 00:00;CYQF 180000Z 30010G15KT 15SM VCSH BKN030CB BKN100 BKN250 11/03 A2983 RMK CB6AC1CI1 GUSTS TO 30KTS PAST HR SLP129

CYQF;2011-09-18 00:06;CYQF 180006Z 21013G18KT 12SM -SHRA BKN030CB BKN100 BKN250 RMK CB6AC1CI1 WND SHFT

CYQF;2011-09-18 00:26;CYQF 180026Z 28005KT 15SM BKN040TCU BKN100 BKN250 RMK TCU5AC2CI1 VIRGA/SHS ALQDS

CYQF;2011-09-18 01:00;CYQF 180100Z 27003KT 15SM SCT040 BKN100 BKN250 10/06 A2982 RMK SC4AC1CI1 TCU/SHS E-SE SLP126

CYQF;2011-09-18 02:00;CYQF 180200Z 24005KT 15SM FEW040 SCT100 BKN250 07/04 A2985 RMK SC2AC2CI1 FEW TCU SLP133

CYQF;2011-09-18 03:00;CYQF 180300Z 25005KT 15SM FEW100 SCT250 06/04 A2986 RMK AC1CI1 SLP138

CYQF;2011-09-18 04:00;CYQF 180400Z 24003KT 15SM FEW120 05/04 A2987 RMK AC2 SLP141

CYQF;2011-09-18 05:00;CYQF 180500Z 23008KT 15SM SKC 05/03 A2987 RMK SLP141

CYQF;2011-09-18 06:00;CYQF 180600Z 22008KT 15SM SKC 05/03 A2989 RMK SLP139

CYQF;2011-09-18 07:00;CYQF 180700Z 23005KT 15SM FEW120 02/01 A2990 RMK AC1 SLP142

CYQF;2011-09-18 08:00;CYQF 180800Z 24004KT 15SM SKC 02/01 A2990 RMK SLP144

CYQF;2011-09-18 09:00;CYQF 180900Z 20002KT 15SM SKC 02/01 A2991 RMK SLP151

CYQF;2011-09-18 10:00;CYQF 181000Z 21004KT 15SM SKC 01/00 A2992 RMK SLP154

CYQF;2011-09-18 11:00;CYQF 181100Z 20005KT 15SM SKC 00/M01 A2993 RMK SLP156

CYQF;2011-09-18 12:00;CYQF 181200Z 20004KT 15SM SKC M00/M01 A2993 RMK SLP163

CYQF;2011-09-18 13:00;CYQF 181300Z 00000KT 15SM FEW250 M00/M01 A2992 RMK CI1 FROIN SLP159

CYQF;2011-09-18 14:00;CYQF 181400Z 00000KT 15SM FEW250 00/M01 A2992 RMK CI1 SLP160

CYQF;2011-09-18 15:00;CYQF 181500Z 00000KT 15SM FEW250 03/00 A2991 RMK CI0 SLP159

CYQF;2011-09-18 16:00;CYQF 181600Z 19003KT 15SM BKN250 06/02 A2990 RMK CI1 SLP157

CYQF;2011-09-18 17:00;CYQF 181700Z 17004KT 15SM FEW120 BKN250 12/04 A2990 RMK AC1CI1 SLP157

CYQF;2011-09-18 18:00;CYQF 181800Z 17010KT 15SM FEW100 BKN250 14/02 A2988 RMK AC1CI6 SLP136

CYQF;2011-09-18 19:00;CYQF 181900Z 16008KT 15SM FEW040 BKN250 15/02 A2986 RMK SC1CI6 SLP130

CYQF;2011-09-18 20:00;CYQF 182000Z 18007KT 15SM FEW060 BKN250 17/01 A2985 RMK CU1CI4 SLP126

CYQF;2011-09-18 21:00;CYQF 182100Z 21005KT 15SM FEW060 BKN250 18/02 A2982 RMK CU1CI5 SLP114

CYQF;2011-09-18 22:00;CYQF 182200Z 19004KT 15SM FEW060 SCT120 BKN250 18/02 A2980 RMK SC1AC2CI2 SLP109

CYQF;2011-09-18 23:00;CYQF 182300Z 18007KT 15SM FEW080 BKN250 19/03 A2979 RMK AC1CI6 SLP106

CYQF;2011-09-19 00:00;CYQF 190000Z 17003KT 15SM FEW050 SCT090 BKN250 19/04 A2978 RMK SC1AC2CI2 SLP103

CYQF;2011-09-19 01:00;CYQF 190100Z 03003KT 15SM BKN050 BKN100 OVC250 17/06 A2977 RMK SC5AC2CI1 TCU EMBD VIRGA W SLP100

CYQF;2011-09-19 02:00;CYQF 190200Z 32004KT 15SM FEW050 SCT120 OVC250 14/07 A2978 RMK SC2AC2CI2 TCU/VIRGA E SLP103

CYQF;2011-09-19 03:00;CYQF 190300Z 30008KT 15SM FEW050 FEW120 BKN250 14/04 A2981 RMK SC1AC2CI2 SLP115

CYQF;2011-09-19 04:00;CYQF 190400Z 29008KT 15SM FEW120 BKN250 12/03 A2982 RMK AC2CI2 SLP119

CYQF;2011-09-19 05:00;CYQF 190500Z 31008KT 15SM SCT120 BKN250 11/04 A2985 RMK AC3CI2 SLP128

CYQF;2011-09-19 06:00;CYQF 190600Z 34015G20KT 15SM SCT120 BKN250 10/05 A2989 RMK AC3CI1 SLP134

CYQF;2011-09-19 07:00;CYQF 190700Z 34007KT 15SM SCT120 BKN250 09/05 A2991 RMK AC3CI2 SLP141

CYQF;2011-09-19 08:00;CYQF 190800Z 31004KT 15SM SCT120 BKN250 08/05 A2991 RMK AC3CI2 SLP140

CYQF;2011-09-19 09:00;CYQF 190900Z 24003KT 15SM SCT120 BKN250 08/05 A2991 RMK AC3CI2 SLP138

CYQF;2011-09-19 10:00;CYQF 191000Z 25007KT 15SM SCT100 BKN250 08/06 A2990 RMK AC4CI2 SLP136

CYQF;2011-09-19 11:00;CYQF 191100Z 22005KT 15SM BKN090 BKN250 08/06 A2990 RMK AC5CI2 SLP137

CYQF;2011-09-19 12:00;CYQF 191200Z 16002KT 15SM BKN080 OVC250 08/06 A2991 RMK AC5CI2 SLP137

CYQF;2011-09-19 13:00;CYQF 191300Z 26006KT 15SM BKN080 OVC250 08/05 A2992 RMK AC6CI2 SLP141

CYQF;2011-09-19 14:00;CYQF 191400Z 25007KT 15SM FEW010 BKN040 08/04 A2993 RMK SF1SC6 SLP143

CYQF;2011-09-19 15:00;CYQF 191500Z 28006KT 15SM BKN040 BKN080 09/05 A2995 RMK SC5AS2 SLP157

CYQF;2011-09-19 16:00;CYQF 191600Z 28005KT 15SM BKN040 BKN120 09/05 A2996 RMK SC6AS2 SLP162

CYQF;2011-09-19 17:00;CYQF 191700Z 30005KT 15SM SCT040 BKN120 10/05 A2998 RMK SC4AS3 SLP167

CYQF;2011-09-19 18:00;CYQF 191800Z 33006KT 15SM FEW030 SCT100 BKN250 12/04 A2998 RMK CU1AC2CI1 SLP167

CYQF;2011-09-19 19:00;CYQF 191900Z 33008G15KT 15SM FEW040 FEW100 SCT250 13/03 A2997 RMK CU2AC1CI1 SLP165

CYQF;2011-09-19 20:00;CYQF 192000Z 30010KT 15SM SCT040 14/04 A2998 RMK CU4 SLP167

CYQF;2011-09-19 21:00;CYQF 192100Z 31012G20KT 15SM BKN056 16/02 A2998 RMK CU6 SLP166

CYQF;2011-09-19 22:00;CYQF 192200Z 32015G22KT 15SM BKN060 16/01 A3000 RMK CU5 SLP171

CYQF;2011-09-19 23:00;CYQF 192300Z 32010G15KT 15SM BKN060 15/00 A3001 RMK CU5 SLP175

CYQF;2011-09-20 00:00;CYQF 200000Z 35010KT 15SM FEW060 14/01 A3003 RMK SC2 SLP184

CYQF;2011-09-20 01:00;CYQF 200100Z 35007KT 15SM SCT060 12/02 A3005 RMK SC4 SLP191

CYQF;2011-09-20 02:00;CYQF 200200Z 34006KT 15SM SCT060 09/02 A3007 RMK SC3 SLP198

CYQF;2011-09-20 03:00;CYQF 200300Z 33007KT 15SM FEW090 07/02 A3011 RMK AC2 SLP219

CYQF;2011-09-20 04:00;CYQF 200400Z 33006KT 15SM FEW090 07/02 A3014 RMK AC2 SLP228

CYQF;2011-09-20 05:00;CYQF 200500Z 30004KT 15SM FEW090 08/03 A3016 RMK AC2 SLP236

CYQF;2011-09-20 06:00;CYQF 200600Z 25008KT 15SM FEW090 07/03 A3018 RMK AC2 SLP242

CYQF;2011-09-20 07:00;CYQF 200700Z 28007KT 15SM SCT080 08/02 A3020 RMK AC3 SLP246

CYQF;2011-09-20 08:00;CYQF 200800Z 28008KT 15SM SCT080 07/02 A3021 RMK AC4 SLP249

CYQF;2011-09-20 09:00;CYQF 200900Z 29008KT 15SM FEW080 07/01 A3022 RMK AC2 SLP249

CYQF;2011-09-20 10:00;CYQF 201000Z CCA 29008KT 15SM FEW080 05/01 A3022 RMK AC2 SLP251

CYQF;2011-09-20 11:00;CYQF 201100Z 25008KT 15SM FEW080 04/00 A3023 RMK AC1 SLP253

CYQF;2011-09-20 12:00;CYQF 201200Z 19006KT 15SM SKC 02/M00 A3024 RMK SLP263

CYQF;2011-09-20 13:00;CYQF 201300Z 20005KT 15SM SKC 01/M01 A3024 RMK SLP263

CYQF;2011-09-20 14:00;CYQF 201400Z 19004KT 15SM SKC 01/M01 A3023 RMK SLP261

CYQF;2011-09-20 15:00;CYQF 201500Z 20004KT 15SM FEW250 04/01 A3024 RMK CI1 SLP269

CYQF;2011-09-20 16:00;CYQF 201600Z 22005KT 15SM SKC 08/02 A3024 RMK SLP269

CYQF;2011-09-20 17:00;CYQF 201700Z 18005KT 15SM SKC 11/02 A3023 RMK SLP267

CYQF;2011-09-20 18:00;CYQF 201800Z 16005KT 15SM SKC 14/03 A3021 RMK SLP249

CYQF;2011-09-20 19:00;CYQF 201900Z 17005KT 15SM SKC 15/01 A3018 RMK SLP241

CYQF;2011-09-20 20:00;CYQF 202000Z 18008KT 15SM SKC 16/01 A3016 RMK SLP234

CYQF;2011-09-20 21:00;CYQF 202100Z 17010G15KT 15SM SKC 17/01 A3015 RMK SLP225

CYQF;2011-09-20 22:00;CYQF 202200Z 16010G15KT 15SM SKC 18/02 A3013 RMK SLP220

CYQF;2011-09-20 23:00;CYQF 202300Z 16010KT 15SM FEW250 17/01 A3011 RMK CI1 SLP213

CYQF;2011-09-21 00:00;CYQF 210000Z 16010G15KT 15SM FEW250 17/01 A3009 RMK CI1 SLP209

CYQF;2011-09-21 01:00;CYQF 210100Z 15005KT 15SM FEW250 15/01 A3008 RMK CI1 SLP205

CYQF;2011-09-21 02:00;CYQF 210200Z 14005KT 15SM FEW250 12/01 A3006 RMK CI0 SLP201

CYQF;2011-09-21 03:00;CYQF 210300Z 16010KT 15SM SKC 10/01 A3006 RMK SLP204

CYQF;2011-09-21 04:00;CYQF 210400Z 15010KT 15SM SKC 11/01 A3005 RMK SLP201

CYQF;2011-09-21 05:00;CYQF 210500Z 16014KT 15SM SKC 10/01 A3004 RMK SLP198

CYQF;2011-09-21 06:00;CYQF 210600Z 17013KT 15SM SKC 10/01 A3003 RMK SLP183

CYQF;2011-09-21 07:00;CYQF 210700Z 17015KT 15SM SKC 08/01 A3002 RMK SLP180

CYQF;2011-09-21 08:00;CYQF 210800Z 16014KT 15SM SKC 08/01 A3000 RMK SLP175

CYQF;2011-09-21 09:00;CYQF 210900Z 18013KT 15SM SKC 07/01 A2999 RMK SLP171

CYQF;2011-09-21 10:00;CYQF 211000Z 17007KT 15SM SKC 05/01 A2998 RMK SLP166

CYQF;2011-09-21 11:00;CYQF 211100Z 17006KT 15SM SKC 04/00 A2998 RMK SLP167

CYQF;2011-09-21 12:00;CYQF 211200Z 15004KT 15SM SKC 04/01 A2996 RMK SLP164

CYQF;2011-09-21 13:00;CYQF 211300Z 17007KT 15SM SCT250 03/01 A2996 RMK CI2 SLP163

CYQF;2011-09-21 14:00;CYQF 211400Z 18004KT 15SM BKN250 04/01 A2995 RMK CI6 SLP160

CYQF;2011-09-21 15:00;CYQF 211500Z 16010KT 15SM BKN250 07/02 A2995 RMK CI7 SLP164

CYQF;2011-09-21 16:00;CYQF 211600Z 14008KT 15SM BKN250 10/03 A2994 RMK CI7 SLP160

CYQF;2011-09-21 17:00;CYQF 211700Z 15009KT 15SM BKN260 12/04 A2993 RMK CI3 SLP158

CYQF;2011-09-21 18:00;CYQF 211800Z 15010G15KT 15SM BKN260 16/05 A2991 RMK CI3 SLP139

CYQF;2011-09-21 19:00;CYQF 211900Z 15010G15KT 15SM BKN260 20/05 A2989 RMK CI6 SLP134

CYQF;2011-09-21 20:00;CYQF 212000Z 15015G20KT 15SM BKN260 22/05 A2987 RMK CI6 SLP126

CYQF;2011-09-21 21:00;CYQF 212100Z 15012G18KT 15SM FEW120 BKN260 23/05 A2985 RMK AC1CI2 SLP116

CYQF;2011-09-21 22:00;CYQF 212200Z 15010G15KT 15SM FEW100 SCT250 25/05 A2983 RMK AC1CI2 SLP108

CYQF;2011-09-21 23:00;CYQF 212300Z 15015G21KT 15SM FEW100 SCT250 26/04 A2980 RMK AC1CI2 SLP100

CYQF;2011-09-22 00:00;CYQF 220000Z 16010G15KT 15SM FEW100 SCT250 26/06 A2978 RMK AC1CI1 SLP091

CYQF;2011-09-22 01:00;CYQF 220100Z 18005KT 15SM FEW100 BKN250 23/07 A2976 RMK AC1CI1 SLP086

CYQF;2011-09-22 02:00;CYQF 220200Z 18007KT 15SM FEW100 SCT250 18/07 A2976 RMK AC1CI1 SLP086

CYQF;2011-09-22 03:00;CYQF 220300Z 19006KT 15SM FEW100 SCT250 15/07 A2977 RMK AC1CI1 SLP094

CYQF;2011-09-22 04:00;CYQF 220400Z 19006KT 15SM FEW100 SCT250 14/07 A2976 RMK AC1CI1 SLP093

CYQF;2011-09-22 05:00;CYQF 220500Z 19008KT 15SM FEW100 BKN250 14/07 A2975 RMK AC1CI2 SLP089

CYQF;2011-09-22 06:00;CYQF 220600Z 18006KT 15SM FEW100 BKN250 13/07 A2976 RMK AC1CI5 SLP082

CYQF;2011-09-22 07:00;CYQF 220700Z 24004KT 15SM BKN250 11/06 A2975 RMK CI5 SLP079

CYQF;2011-09-22 08:00;CYQF 220800Z 20006KT 15SM SCT100 OVC250 13/06 A2974 RMK AC4CI3 SLP078

CYQF;2011-09-22 09:00;CYQF 220900Z 20005KT 15SM BKN100 OVC250 12/07 A2974 RMK AC6CI2 SLP069

CYQF;2011-09-22 10:00;CYQF 221000Z 20008KT 15SM OVC100 13/07 A2974 RMK AC8 SLP069

CYQF;2011-09-22 11:00;CYQF 221100Z 21005KT 15SM OVC150 14/07 A2974 RMK AC8 SLP071

CYQF;2011-09-22 12:00;CYQF 221200Z 23008KT 15SM OVC150 14/07 A2974 RMK AC8 SLP066

CYQF;2011-09-22 13:00;CYQF 221300Z 23010KT 15SM FEW040 SCT150 BKN250 15/07 A2976 RMK SC1AC4CI3 VIRGA SLP071

CYQF;2011-09-22 14:00;CYQF 221400Z 23010KT 15SM FEW040 BKN120 BKN250 15/06 A2975 RMK SC1AC4CI2 SLP069

CYQF;2011-09-22 15:00;CYQF 221500Z 22010G15KT 15SM FEW040 BKN120 BKN250 17/06 A2975 RMK SC1AC4CI2 SLP078

CYQF;2011-09-22 16:00;CYQF 221600Z 22010G15KT 15SM FEW040 BKN120 OVC220 19/06 A2977 RMK SC1AC5CI2 ACSL SLP084

CYQF;2011-09-22 17:00;CYQF 221700Z 01010KT 15SM FEW040 BKN120 BKN220 18/09 A2980 RMK SC1AC5CI1 ACSL SLP093

CYQF;2011-09-22 18:00;CYQF 221800Z 01010KT 15SM SCT120 BKN220 18/09 A2981 RMK AC4CI2 SLP100

CYQF;2011-09-22 19:00;CYQF 221900Z 03010KT 15SM SCT100 BKN220 19/10 A2981 RMK AC4CI2 SLP099

CYQF;2011-09-22 20:00;CYQF 222000Z 05005KT 15SM BKN100 BKN220 20/10 A2981 RMK AC5CI2 SLP099

CYQF;2011-09-22 21:00;CYQF 222100Z 05005KT 15SM BKN100 BKN220 20/09 A2980 RMK AC5CI1 SLP093

CYQF;2011-09-22 22:00;CYQF 222200Z 08007KT 15SM BKN100 BKN220 21/10 A2979 RMK AC6CI2 SLP091

CYQF;2011-09-22 23:00;CYQF 222300Z 06009KT 15SM SCT100 BKN250 22/11 A2978 RMK AC4CI2 SLP087

CYQF;2011-09-23 00:00;CYQF 230000Z 07008KT 15SM BKN100 BKN250 21/11 A2977 RMK AC6CI1 SLP082

CYQF;2011-09-23 01:00;CYQF 230100Z 00000KT 15SM BKN100 BKN250 19/11 A2977 RMK AC6CI1 SLP081

CYQF;2011-09-23 02:00;CYQF 230200Z 00000KT 15SM FEW100 FEW250 16/10 A2977 RMK AC2CI1 SLP082

CYQF;2011-09-23 03:00;CYQF 230300Z 00000KT 15SM FEW100 14/10 A2979 RMK AC1 SLP092

CYQF;2011-09-23 04:00;CYQF 230400Z 24005KT 15SM SKC 12/08 A2979 RMK SLP094

CYQF;2011-09-23 05:00;CYQF 230500Z 24006KT 15SM BKN250 14/08 A2981 RMK CI6 SLP099

CYQF;2011-09-23 06:00;CYQF 230600Z 17004KT 15SM OVC250 15/08 A2981 RMK CI8 SLP098

CYQF;2011-09-23 07:00;CYQF 230700Z 20006KT 15SM BKN250 13/08 A2982 RMK CI6 SLP099

CYQF;2011-09-23 08:00;CYQF 230800Z 21007KT 15SM OVC250 14/08 A2982 RMK CI7 SLP100

CYQF;2011-09-23 09:00;CYQF 230900Z 20006KT 15SM BKN250 15/08 A2982 RMK CI3 SLP096

CYQF;2011-09-23 10:00;CYQF 231000Z 21010KT 15SM FEW100 OVC250 17/08 A2980 RMK AC2CI6 SLP092

CYQF;2011-09-23 11:00;CYQF 231100Z 18006KT 15SM FEW100 OVC250 18/08 A2981 RMK AC2CI6 SLP093

CYQF;2011-09-23 12:00;CYQF 231200Z 22010G20KT 15SM FEW100 OVC250 20/08 A2979 RMK AC2CI6 SLP082

CYQF;2011-09-23 13:00;CYQF 231300Z 21015G20KT 15SM BKN100 OVC250 20/08 A2979 RMK AC7CI1 VIRGA/MAMMATUS SLP081

CYQF;2011-09-23 14:00;CYQF 231400Z 21010G15KT 15SM BKN100 BKN250 21/08 A2978 RMK AC6CI2 SLP079

CYQF;2011-09-23 15:00;CYQF 231500Z 19010KT 15SM SCT040 BKN100 BKN250 19/08 A2977 RMK SC3AC2CI2 SLP083

CYQF;2011-09-23 16:00;CYQF 231600Z 21015G25KT 15SM SCT040 BKN100 BKN250 22/08 A2977 RMK SC3AC2CI2 SLP085

CYQF;2011-09-23 17:00;CYQF 231700Z 21015G22KT 15SM SCT040 BKN100 BKN250 22/08 A2978 RMK SC2AC3CI2 ACSL SLP086

CYQF;2011-09-23 18:00;CYQF 231800Z 21012G20KT 15SM FEW045 BKN100 BKN220 22/08 A2976 RMK SC2AC5CI1 ACSL SLP075

CYQF;2011-09-23 19:00;CYQF 231900Z 20010KT 15SM FEW045 BKN100 BKN220 22/09 A2975 RMK SC2AC5CI1 ACSL SLP073

CYQF;2011-09-23 20:00;CYQF 232000Z 19010G15KT 15SM FEW045 BKN100 BKN220 22/09 A2974 RMK SC2AC5CI1 SLP068

CYQF;2011-09-23 21:00;CYQF 232100Z 19010G15KT 15SM FEW050 BKN100 BKN220 24/10 A2974 RMK SC1AC4CI2 SLP066

CYQF;2011-09-23 22:00;CYQF 232200Z 18013G20KT 15SM FEW050 BKN100 BKN220 25/10 A2975 RMK SC1AC4CI2 SLP068

CYQF;2011-09-23 23:00;CYQF 232300Z 20010G15KT 15SM FEW050 BKN120 BKN220 25/09 A2974 RMK SC1AC4CI1 SLP067

CYQF;2011-09-24 00:00;CYQF 240000Z 19008KT 15SM FEW050 FEW120 BKN220 24/10 A2976 RMK SC1AC2CI2 SLP068

CYQF;2011-09-24 01:00;CYQF 240100Z 20007KT 15SM FEW120 BKN220 22/09 A2976 RMK AC1CI2 SLP069

CYQF;2011-09-24 02:00;CYQF 240200Z 20008KT 15SM FEW120 SCT220 17/09 A2977 RMK AC1CI2 SLP073

CYQF;2011-09-24 03:00;CYQF 240300Z 22008KT 15SM FEW120 SCT220 17/09 A2979 RMK AC1CI2 SLP087

CYQF;2011-09-24 04:00;CYQF 240400Z 21006KT 15SM SKC 14/08 A2981 RMK SLP092

CYQF;2011-09-24 05:00;CYQF 240500Z 10005KT 15SM SKC 13/08 A2982 RMK SLP096

CYQF;2011-09-24 06:00;CYQF 240600Z 21006KT 15SM SKC 12/07 A2982 RMK SLP100

CYQF;2011-09-24 07:00;CYQF 240700Z 21006KT 15SM SKC 11/06 A2982 RMK SLP100

CYQF;2011-09-24 08:00;CYQF 240800Z 22007KT 15SM SKC 11/07 A2982 RMK SLP100

CYQF;2011-09-24 09:00;CYQF 240900Z 20006KT 15SM SKC 11/06 A2982 RMK SLP099

CYQF;2011-09-24 10:00;CYQF 241000Z 20006KT 15SM SKC 09/06 A2982 RMK SLP098

CYQF;2011-09-24 11:00;CYQF 241100Z 21006KT 15SM SKC 08/05 A2982 RMK SLP100

CYQF;2011-09-24 12:00;CYQF 241200Z 22004KT 15SM SKC 09/06 A2983 RMK SLP103

CYQF;2011-09-24 13:00;CYQF 241300Z 21004KT 15SM SCT250 09/06 A2983 RMK CI0 SLP104

CYQF;2011-09-24 14:00;CYQF 241400Z 21005KT 15SM SCT250 07/05 A2984 RMK CI0 SLP106

CYQF;2011-09-24 15:00;CYQF 241500Z 21005KT 15SM FEW250 14/09 A2984 RMK CI2 SLP110

CYQF;2011-09-24 16:00;CYQF 241600Z 23008KT 15SM SCT250 20/09 A2984 RMK CI2 CC ASOCTD SLP109

CYQF;2011-09-24 17:00;CYQF 241700Z 22005KT 15SM FEW250 24/09 A2984 RMK CI1 SLP108

CYQF;2011-09-24 18:00;CYQF 241800Z 20010G18KT 15SM FEW280 27/04 A2983 RMK CI1 SLP097

CYQF;2011-09-24 19:00;CYQF 241900Z 19012G17KT 15SM SKC 28/02 A2983 RMK SLP096

CYQF;2011-09-24 20:00;CYQF 242000Z 22010G15KT 15SM SKC 29/M02 A2982 RMK SLP095

CYQF;2011-09-24 21:00;CYQF 242100Z 23005KT 15SM SKC 30/02 A2981 RMK SLP089

CYQF;2011-09-24 22:00;CYQF 242200Z 20007KT 15SM SKC 29/02 A2980 RMK SLP085

CYQF;2011-09-24 23:00;CYQF 242300Z 22004KT 15SM SKC 29/03 A2979 RMK SLP083

CYQF;2011-09-25 00:00;CYQF 250000Z 20002KT 15SM FEW280 28/08 A2979 RMK CI1 SLP086

CYQF;2011-09-25 01:00;CYQF 250100Z 13004KT 15SM FEW280 25/04 A2979 RMK CI2 SLP087

CYQF;2011-09-25 02:00;CYQF 250200Z 12003KT 15SM SCT280 19/05 A2980 RMK CI2 SLP088

CYQF;2011-09-25 03:00;CYQF 250300Z 00000KT 15SM SCT280 15/04 A2980 RMK CI2 SLP097

CYQF;2011-09-25 04:00;CYQF 250400Z 17004KT 15SM SKC 12/05 A2979 RMK SLP096

CYQF;2011-09-25 05:00;CYQF 250500Z 00000KT 15SM SKC 12/03 A2978 RMK SLP091

CYQF;2011-09-25 06:00;CYQF 250600Z 18005KT 15SM SKC 11/03 A2977 RMK SLP077

CYQF;2011-09-25 07:00;CYQF 250700Z 18004KT 15SM SKC 15/02 A2976 RMK SLP074

CYQF;2011-09-25 08:00;CYQF 250800Z 17004KT 15SM FEW250 12/02 A2974 RMK CI0 SLP067

CYQF;2011-09-25 09:00;CYQF 250900Z 18005KT 15SM SKC 11/02 A2972 RMK SLP058

CYQF;2011-09-25 10:00;CYQF 251000Z 00000KT 15SM SKC 12/02 A2970 RMK SLP053

CYQF;2011-09-25 11:00;CYQF 251100Z 15003KT 15SM SKC 12/01 A2969 RMK SLP048

CYQF;2011-09-25 12:00;CYQF 251200Z 17005KT 15SM SKC 09/02 A2966 RMK SLP041

CYQF;2011-09-25 13:00;CYQF 251300Z 18007KT 15SM SKC 12/02 A2964 RMK SLP035

CYQF;2011-09-25 14:00;CYQF 251400Z 15010G15KT 15SM SKC 13/02 A2963 RMK SLP031

CYQF;2011-09-25 15:00;CYQF 251500Z 15010G15KT 15SM FEW280 15/04 A2960 RMK CI1 SLP027

CYQF;2011-09-25 16:00;CYQF 251600Z 19010G15KT 15SM FEW280 18/04 A2958 RMK CI1 SLP021

CYQF;2011-09-25 17:00;CYQF 251700Z 16012KT 15SM FEW280 21/04 A2955 RMK CI2 SLP011

CYQF;2011-09-25 18:00;CYQF 251800Z 15015G20KT 15SM SCT280 25/04 A2952 RMK CI2 SLP992

CYQF;2011-09-25 19:00;CYQF 251900Z 18017G25KT 15SM BKN280 27/04 A2950 RMK CI6 SLP986

CYQF;2011-09-25 20:00;CYQF 252000Z 17015G25KT 15SM BKN280 29/04 A2947 RMK CI6 SLP979

CYQF;2011-09-25 21:00;CYQF 252100Z 19015G25KT 15SM FEW150 BKN280 29/04 A2947 RMK AC2CI3 SLP973

CYQF;2011-09-25 22:00;CYQF 252200Z 21018G28KT 15SM BKN150 BKN280 28/03 A2946 RMK AC6CI2 SLP971

CYQF;2011-09-25 23:00;CYQF 252300Z 22010G15KT 15SM FEW060 BKN150 BKN280 25/04 A2947 RMK CU1AC5CI2 SLP972

CYQF;2011-09-26 00:00;CYQF 260000Z 19006KT 15SM FEW060 BKN150 BKN280 23/05 A2948 RMK SC1AC5CI2 SLP983

CYQF;2011-09-26 01:00;CYQF 260100Z 19007KT 15SM FEW060 BKN120 BKN280 22/06 A2949 RMK SC1AC5CI2 SLP986

CYQF;2011-09-26 02:00;CYQF 260200Z 22008KT 15SM FEW060 BKN120 21/04 A2952 RMK SC1AC5 SLP996

CYQF;2011-09-26 03:00;CYQF 260300Z 23006KT 15SM BKN120 17/05 A2953 RMK AC6 SLP003

CYQF;2011-09-26 04:00;CYQF 260400Z 22008KT 15SM BKN120 18/04 A2955 RMK AC5 SLP009

CYQF;2011-09-26 05:00;CYQF 260500Z 24007KT 15SM BKN120 16/04 A2955 RMK AC5 SLP008

CYQF;2011-09-26 06:00;CYQF 260600Z 27004KT 15SM BKN100 OVC250 15/04 A2957 RMK AC6CI2 SLP006

CYQF;2011-09-26 07:00;CYQF 260700Z 28010G15KT 15SM SCT100 OVC250 16/03 A2959 RMK AC3CI5 SLP014

CYQF;2011-09-26 08:00;CYQF 260800Z 29008KT 15SM BKN100 OVC250 16/03 A2962 RMK AC5CI3 SLP021

CYQF;2011-09-26 09:00;CYQF 260900Z 36007KT 15SM SCT100 OVC250 14/04 A2966 RMK AC3CI5 SLP034

CYQF;2011-09-26 10:00;CYQF 261000Z 30006KT 15SM SCT100 OVC250 12/06 A2966 RMK AC3CI5 SLP036

CYQF;2011-09-26 11:00;CYQF 261100Z 28007KT 15SM SCT100 BKN250 13/03 A2970 RMK AC3CI2 SLP048

CYQF;2011-09-26 12:00;CYQF 261200Z 19006KT 15SM FEW100 10/03 A2972 RMK AC2 SLP067

CYQF;2011-09-26 13:00;CYQF 261300Z 20008KT 15SM BKN100 08/03 A2975 RMK AC5 SLP074

CYQF;2011-09-26 14:00;CYQF 261400Z 25005KT 15SM SCT100 08/02 A2978 RMK AC3 SLP084

CYQF;2011-09-26 15:00;CYQF 261500Z 23008KT 15SM FEW100 11/01 A2979 RMK AC2 SLP097

CYQF;2011-09-26 16:00;CYQF 261600Z 26009KT 15SM SKC 14/02 A2982 RMK SLP105

CYQF;2011-09-26 17:00;CYQF 261700Z 29010G15KT 15SM FEW120 15/M03 A2984 RMK AC1 SLP111

CYQF;2011-09-26 18:00;CYQF 261800Z 32007KT 15SM FEW120 FEW250 16/M03 A2983 RMK AC1CI1 SLP107

CYQF;2011-09-26 19:00;CYQF 261900Z 34003KT 15SM FEW050 FEW120 FEW250 17/M03 A2980 RMK CU1AC1CI0 SLP096

CYQF;2011-09-26 20:00;CYQF 262000Z 18003KT 15SM FEW120 BKN250 17/M05 A2979 RMK AC2CI2 SLP094

CYQF;2011-09-26 21:00;CYQF 262100Z 16008KT 15SM FEW120 BKN250 18/M04 A2977 RMK AC2CI3 SLP086

CYQF;2011-09-26 22:00;CYQF 262200Z 18010G15KT 15SM FEW120 BKN250 20/M02 A2975 RMK AC2CI3 SLP078

CYQF;2011-09-26 23:00;CYQF 262300Z 20012KT 15SM BKN150 BKN250 19/01 A2971 RMK AC5CI2 SLP067

CYQF;2011-09-27 00:00;CYQF 270000Z 21007KT 15SM BKN150 BKN250 18/01 A2972 RMK AC6CI2 SLP071

CYQF;2011-09-27 01:00;CYQF 270100Z 18008KT 15SM BKN150 BKN250 17/02 A2967 RMK AC5CI2 SLP058

CYQF;2011-09-27 02:00;CYQF 270200Z 21008KT 15SM FEW150 BKN250 12/02 A2968 RMK AC2CI1 SLP059

CYQF;2011-09-27 03:00;CYQF 270300Z 21007KT 15SM FEW150 BKN250 12/03 A2969 RMK AC2CI1 SLP066

CYQF;2011-09-27 04:00;CYQF 270400Z 21006KT 15SM BKN150 13/03 A2969 RMK AC5 SLP068

CYQF;2011-09-27 05:00;CYQF 270500Z 19007KT 15SM BKN260 12/03 A2968 RMK CI7 SLP065

CYQF;2011-09-27 06:00;CYQF 270600Z 18010KT 15SM BKN260 12/03 A2968 RMK CI6 SLP058

CYQF;2011-09-27 07:00;CYQF 270700Z 19006KT 15SM OVC260 11/03 A2968 RMK CI8 SLP058

CYQF;2011-09-27 08:00;CYQF 270800Z 20010G15KT 15SM BKN260 12/03 A2966 RMK CI6 SLP053

CYQF;2011-09-27 09:00;CYQF 270900Z 18010G15KT 15SM FEW260 11/04 A2967 RMK CI1 SLP052

CYQF;2011-09-27 10:00;CYQF 271000Z 19008KT 15SM SKC 11/04 A2966 RMK SLP049

CYQF;2011-09-27 11:00;CYQF 271100Z 17005KT 15SM SKC 10/04 A2967 RMK SLP052

CYQF;2011-09-27 12:00;CYQF 271200Z 19003KT 15SM SKC 09/04 A2967 RMK SLP057

CYQF;2011-09-27 13:00;CYQF 271300Z 18003KT 15SM FEW100 07/04 A2968 RMK AC2 SLP059

CYQF;2011-09-27 14:00;CYQF 271400Z 19003KT 15SM FEW080 06/04 A2969 RMK AC2 ACC/VIRGA SLP062

CYQF;2011-09-27 15:00;CYQF 271500Z 18002KT 15SM FEW060 FEW250 09/05 A2970 RMK SC1CI0 SLP073

CYQF;2011-09-27 16:00;CYQF 271600Z 19007KT 15SM FEW060 14/06 A2970 RMK SC2 SLP074

CYQF;2011-09-27 17:00;CYQF 271700Z 28007KT 15SM FEW060 17/07 A2972 RMK SC2 SLP079

CYQF;2011-09-27 18:00;CYQF 271800Z 28010KT 15SM FEW060 18/07 A2973 RMK SC2 SLP072

CYQF;2011-09-27 19:00;CYQF 271900Z 29012G18KT 15SM FEW060 19/07 A2974 RMK SC2 CU EMBD SLP074

CYQF;2011-09-27 20:00;CYQF 272000Z 32014G21KT 15SM FEW060 19/04 A2974 RMK SC2 CU EMBD SLP075

CYQF;2011-09-27 21:00;CYQF 272100Z 28010G15KT 15SM FEW060 FEW100 19/02 A2975 RMK CU1AC1 SLP079

CYQF;2011-09-27 22:00;CYQF 272200Z 28010G15KT 15SM FEW060 19/02 A2975 RMK CU1 SLP079

CYQF;2011-09-27 23:00;CYQF 272300Z 28010G15KT 15SM FEW060 SCT100 18/03 A2975 RMK CU1AC2 SLP080

CYQF;2011-09-28 00:00;CYQF 280000Z 29010G18KT 15SM FEW060 SCT100 17/01 A2978 RMK CU1AC2 SLP094

CYQF;2011-09-28 01:00;CYQF 280100Z 27012G19KT 15SM FEW060 FEW100 15/00 A2979 RMK CU1AC2 SLP099

CYQF;2011-09-28 02:00;CYQF 280200Z 26010KT 15SM FEW070 11/02 A2982 RMK AC1 SLP108

CYQF;2011-09-28 03:00;CYQF 280300Z 27010KT 15SM FEW070 09/01 A2985 RMK AC1 SLP128

CYQF;2011-09-28 04:00;CYQF 280400Z 24007KT 15SM SKC 07/01 A2986 RMK SLP132

CYQF;2011-09-28 05:00;CYQF 280500Z 25006KT 15SM SKC 08/M01 A2988 RMK SLP136

CYQF;2011-09-28 06:00;CYQF 280600Z 22005KT 15SM SKC 03/M01 A2989 RMK SLP137

CYQF;2011-09-28 07:00;CYQF 280700Z 21003KT 15SM SKC 04/M02 A2991 RMK SLP144

CYQF;2011-09-28 08:00;CYQF 280800Z 10005KT 15SM SKC 04/M01 A2993 RMK SLP150

CYQF;2011-09-28 09:00;CYQF 280900Z 26003KT 15SM SKC 02/M01 A2995 RMK SLP157

CYQF;2011-09-28 10:00;CYQF 281000Z 18004KT 15SM SKC 01/M02 A2996 RMK SLP162

CYQF;2011-09-28 11:00;CYQF 281100Z 20006KT 15SM SKC 01/M02 A2998 RMK SLP169

CYQF;2011-09-28 12:00;CYQF 281200Z 17004KT 15SM SKC 01/M02 A3001 RMK SLP182

CYQF;2011-09-28 13:00;CYQF 281300Z 00000KT 15SM BKN100 03/M01 A3004 RMK AC7 SLP191

CYQF;2011-09-28 14:00;CYQF 281400Z CCA 18003KT 15SM FEW040 BKN080 04/M00 A3007 RMK SC2AC5 XTNSV VIRGA/ACC ASOCTD SLP200

CYQF;2011-09-28 15:00;CYQF 281500Z CCA 28005KT 15SM FEW040 BKN080 09/00 A3009 RMK SC2AC5 XTNSV VIRGA/ACC ASOCTD SLP211

CYQF;2011-09-28 16:00;CYQF 281600Z 26006KT 15SM FEW040 BKN080 11/02 A3013 RMK SC2AC6 XTNSV VIRGA ACC ASOCTD SLP221

CYQF;2011-09-28 17:00;CYQF 281700Z 26007KT 15SM FEW040 BKN080 BKN250 11/02 A3014 RMK SC2AC5CI1 SLP226

CYQF;2011-09-28 18:00;CYQF 281800Z 26007KT 15SM FEW040 FEW080 BKN250 13/01 A3016 RMK SC1AC1CI2 SLP237

CYQF;2011-09-28 19:00;CYQF 281900Z 32005KT 15SM FEW050 SCT250 14/M00 A3017 RMK CU2CI1 SLP239

CYQF;2011-09-28 20:00;CYQF 282000Z 33010KT 15SM SCT055 16/M01 A3017 RMK SC4 CU EMBD SLP241

CYQF;2011-09-28 21:00;CYQF 282100Z 29016KT 15SM FEW068 16/M01 A3018 RMK CU2 TCU DIST SE-SW SLP243

CYQF;2011-09-28 22:00;CYQF 282200Z 33010G15KT 15SM FEW080 17/M03 A3021 RMK CU2 SLP250

CYQF;2011-09-28 23:00;CYQF 282300Z 33010G15KT 15SM BKN072 16/M02 A3023 RMK CU6 VIRGA S-SW SLP257

CYQF;2011-09-29 00:00;CYQF 290000Z 32010KT 15SM SCT065 15/M01 A3025 RMK CU3 SLP270

CYQF;2011-09-29 01:00;CYQF 290100Z 36010KT 15SM FEW070 13/M02 A3028 RMK AC1 SLP277

CYQF;2011-09-29 02:00;CYQF 290200Z 35003KT 15SM FEW090 10/M03 A3030 RMK AC1 SLP283

CYQF;2011-09-29 03:00;CYQF 290300Z 35003KT 15SM FEW090 06/M01 A3033 RMK AC1 SLP297

CYQF;2011-09-29 04:00;CYQF 290400Z 00000KT 15SM SKC 05/M02 A3035 RMK SLP304

CYQF;2011-09-29 05:00;CYQF 290500Z 00000KT 15SM SKC 03/M01 A3039 RMK SLP314

CYQF;2011-09-29 06:00;CYQF 290600Z 00000KT 15SM SKC 02/M01 A3040 RMK SLP321

CYQF;2011-09-29 07:00;CYQF 290700Z 19005KT 15SM SKC 00/M02 A3040 RMK SLP322

CYQF;2011-09-29 08:00;CYQF 290800Z 19003KT 15SM SKC M00/M03 A3039 RMK SLP319

CYQF;2011-09-29 09:00;CYQF 290900Z 20003KT 15SM SKC M02/M04 A3038 RMK SLP316

CYQF;2011-09-29 10:00;CYQF 291000Z 20003KT 15SM SKC M01/M02 A3037 RMK SLP313

CYQF;2011-09-29 11:00;CYQF 291100Z 21003KT 15SM SKC M03/M05 A3037 RMK SLP311

CYQF;2011-09-29 12:00;CYQF 291200Z 18002KT 15SM SKC M02/M03 A3036 RMK SLP310

CYQF;2011-09-29 13:00;CYQF 291300Z 15005KT 15SM FEW250 00/M03 A3032 RMK CI0 SLP297

CYQF;2011-09-29 14:00;CYQF 291400Z 14006KT 15SM FEW100 BKN250 01/M03 A3029 RMK AC1CI2 SLP288

CYQF;2011-09-29 15:00;CYQF 291500Z 16005KT 15SM FEW100 BKN250 03/M02 A3026 RMK AC1CI2 SLP279

CYQF;2011-09-29 16:00;CYQF 291600Z 16014G24KT 15SM FEW100 BKN250 08/M01 A3023 RMK AC2CI4 SLP268

CYQF;2011-09-29 17:00;CYQF 291700Z 16015G25KT 15SM FEW100 OVC250 09/M01 A3018 RMK AC1CI7 SLP254

CYQF;2011-09-29 18:00;CYQF 291800Z 15019G25KT 15SM FEW100 BKN250 11/M01 A3014 RMK AC2CI5 SLP231

CYQF;2011-09-29 19:00;CYQF 291900Z 17019G29KT 15SM FEW100 BKN250 15/M02 A3009 RMK AC2CI5 SLP218

CYQF;2011-09-29 20:00;CYQF 292000Z 18019G28KT 15SM FEW100 BKN250 16/M03 A3006 RMK AC1CI5 SLP207

CYQF;2011-09-29 20:11;CYQF 292011Z 18025G42KT 15SM FEW100 BKN250 RMK AC1CI5

CYQF;2011-09-29 21:00;CYQF 292100Z 17025G38KT 15SM FEW100 BKN250 17/M03 A3003 RMK AC1CI5 SLP193

CYQF;2011-09-29 22:00;CYQF 292200Z 17022G30KT 15SM FEW100 BKN250 18/M02 A3000 RMK AC2CI2 SLP183

CYQF;2011-09-29 23:00;CYQF 292300Z 19017G25KT 15SM FEW100 BKN250 18/M02 A2997 RMK AC2CI2 SLP175

CYQF;2011-09-30 00:00;CYQF 300000Z 18012G20KT 15SM FEW120 BKN250 18/M02 A2994 RMK AC2CI2 SLP161

CYQF;2011-09-30 01:00;CYQF 300100Z 18008KT 15SM FEW120 BKN250 15/M01 A2992 RMK AC2CI2 SLP154

CYQF;2011-09-30 02:00;CYQF 300200Z 17006KT 15SM FEW120 SCT250 14/M02 A2991 RMK AC1CI1 SLP150

CYQF;2011-09-30 03:00;CYQF 300300Z 19010KT 15SM SKC 12/M02 A2988 RMK SLP142

CYQF;2011-09-30 04:00;CYQF 300400Z 17005KT 15SM SKC 12/M02 A2987 RMK SLP138

CYQF;2011-09-30 05:00;CYQF 300500Z 19003KT 15SM SKC 07/M02 A2985 RMK SLP130

CYQF;2011-09-30 06:00;CYQF 300600Z 18004KT 15SM SKC 05/M02 A2983 RMK SLP123

CYQF;2011-09-30 07:00;CYQF 300700Z 19005KT 15SM SKC 05/M01 A2981 RMK SLP116

CYQF;2011-09-30 08:00;CYQF 300800Z 16003KT 15SM SKC 05/M01 A2980 RMK SLP114

CYQF;2011-09-30 09:00;CYQF 300900Z 00000KT 15SM SKC 04/M01 A2979 RMK SLP102

CYQF;2011-09-30 10:00;CYQF 301000Z 18004KT 15SM SKC 04/M01 A2977 RMK SLP098

CYQF;2011-09-30 11:00;CYQF 301100Z 19009KT 15SM SKC 05/01 A2976 RMK SLP092

CYQF;2011-09-30 12:00;CYQF 301200Z 19005KT 15SM BKN250 07/01 A2974 RMK CI7 SLP080

CYQF;2011-09-30 13:00;CYQF 301300Z 21006KT 15SM BKN120 08/01 A2972 RMK AC7 SLP076

CYQF;2011-09-30 14:00;CYQF 301400Z 21008KT 15SM BKN120 10/00 A2971 RMK AC6 SLP073

CYQF;2011-09-30 15:00;CYQF 301500Z 21008KT 15SM BKN100 BKN250 13/01 A2971 RMK AC6CI1 SLP071

CYQF;2011-09-30 16:00;CYQF 301600Z 19006KT 15SM BKN100 BKN250 14/04 A2970 RMK AC6CI1 SLP069

CYQF;2011-09-30 17:00;CYQF 301700Z 22004KT 15SM BKN100 BKN250 15/04 A2970 RMK AC7CI1 VIRGA SLP068

CYQF;2011-09-30 18:00;CYQF 301800Z 23004KT 15SM BKN100 BKN250 16/06 A2969 RMK AC5CI2 SLP070

CYQF;2011-09-30 19:00;CYQF 301900Z 19002KT 15SM BKN100 BKN250 19/06 A2969 RMK AC5CI2 SLP068

CYQF;2011-09-30 20:00;CYQF 302000Z 21008KT 15SM SCT100 BKN250 25/04 A2967 RMK AC2CI3 SLP063

CYQF;2011-09-30 21:00;CYQF 302100Z 20010KT 15SM FEW100 BKN250 25/04 A2965 RMK AC1CI2 SLP046

CYQF;2011-09-30 22:00;CYQF 302200Z 19010G15KT 15SM FEW100 BKN250 27/02 A2964 RMK AC1CI2 SLP042

CYQF;2011-09-30 23:00;CYQF 302300Z 22011KT 15SM FEW100 BKN250 27/03 A2963 RMK AC1CI2 SLP039

CYQF;2011-10-01 01:00;CYQF 010100Z 28010G15KT 15SM FEW060 BKN250 20/03 A2966 RMK SC2CI2 SLP043

CYQF;2011-10-01 01:21;CYQF 010121Z 34015G22KT 15SM FEW060 BKN250 RMK SC2CI2 WND SHFT

CYQF;2011-10-01 02:00;CYQF 010200Z 36012G20KT 15SM FEW060 FEW100 BKN250 16/05 A2972 RMK SC2AC1CI1 SLP063

CYQF;2011-10-01 03:00;CYQF 010300Z 03010G15KT 15SM FEW100 13/03 A2977 RMK AC1 SLP091

CYQF;2011-10-01 04:00;CYQF 010400Z 35005KT 15SM SKC 09/03 A2981 RMK SLP102

CYQF;2011-10-01 05:00;CYQF 010500Z 34005KT 15SM SKC 07/03 A2984 RMK SLP112

CYQF;2011-10-01 06:00;CYQF 010600Z 34006KT 15SM SKC 07/03 A2988 RMK SLP133

CYQF;2011-10-01 07:00;CYQF 010700Z 34004KT 15SM SKC 06/03 A2990 RMK SLP139

CYQF;2011-10-01 08:00;CYQF 010800Z 32005KT 15SM SKC 05/02 A2993 RMK SLP147

CYQF;2011-10-01 09:00;CYQF 010900Z 30004KT 15SM SKC 04/01 A2995 RMK SLP151

CYQF;2011-10-01 10:00;CYQF 011000Z 28004KT 15SM SKC 04/01 A2997 RMK SLP157

CYQF;2011-10-01 11:00;CYQF 011100Z 29003KT 15SM SKC 03/00 A3000 RMK SLP165

CYQF;2011-10-01 12:00;CYQF 011200Z 00000KT 15SM SCT100 02/01 A3002 RMK AC3 SLP176

CYQF;2011-10-01 13:00;CYQF 011300Z 00000KT 15SM BKN100 BKN250 03/02 A3004 RMK AC6CI2 SLP182

CYQF;2011-10-01 14:00;CYQF 011400Z 00000KT 15SM SCT100 BKN250 02/01 A3005 RMK AC4CI2 SLP184

CYQF;2011-10-01 15:00;CYQF 011500Z 00000KT 15SM FEW100 BKN250 04/01 A3007 RMK AC2CI3 SLP205

CYQF;2011-10-01 16:00;CYQF 011600Z 05004KT 15SM FEW120 BKN250 08/01 A3007 RMK AC2CI3 SLP204

CYQF;2011-10-01 17:00;CYQF 011700Z 00000KT 15SM FEW060 BKN100 OVC250 09/01 A3008 RMK SC2AC3CI3 SLP207

CYQF;2011-10-01 18:00;CYQF 011800Z 00000KT 15SM FEW060 BKN100 OVC250 09/01 A3007 RMK SC2AC5CI2 SLP207

CYQF;2011-10-01 19:00;CYQF 011900Z 08007KT 15SM BKN060 OVC100 09/M02 A3004 RMK SC5AC3 SLP197

CYQF;2011-10-01 20:00;CYQF 012000Z 07010KT 15SM FEW060 SCT100 OVC250 11/M01 A3001 RMK SC1AC2CI2 SLP187

CYQF;2011-10-01 21:00;CYQF 012100Z 11010KT 15SM FEW060 BKN100 OVC250 10/M01 A3001 RMK SC1AC6CI1 SLP187

CYQF;2011-10-01 22:00;CYQF 012200Z 11010KT 15SM SCT100 OVC250 11/M01 A3000 RMK AC4CI4 SLP183

CYQF;2011-10-01 23:00;CYQF 012300Z 10010KT 15SM SCT100 OVC250 10/M01 A2997 RMK AC4CI4 SLP176

CYQF;2011-10-02 00:00;CYQF 020000Z 14010G15KT 15SM FEW060 BKN100 OVC250 09/01 A2997 RMK SC2AC5CI1 SLP176

CYQF;2011-10-02 01:00;CYQF 020100Z 13006KT 15SM SCT100 OVC250 08/01 A2995 RMK AC4CI4 SLP171

CYQF;2011-10-02 02:00;CYQF 020200Z 12008KT 15SM BKN080 OVC250 08/01 A2995 RMK AC6CI2 SLP169

CYQF;2011-10-02 03:00;CYQF 020300Z 12005KT 15SM FEW030 BKN080 07/01 A2995 RMK SC2AC5 SLP171

CYQF;2011-10-02 04:00;CYQF 020400Z 00000KT 15SM FEW030 BKN080 06/02 A2997 RMK SC2AC5 SLP177

CYQF;2011-10-02 05:00;CYQF 020500Z 00000KT 15SM BKN050 OVC100 06/02 A2997 RMK SC6AC2 SLP178

CYQF;2011-10-02 05:31;CYQF 020531Z 10010G15KT 15SM -SHRA BKN050 OVC100 RMK SC6AC2

CYQF;2011-10-02 05:46;CYQF 020546Z 10010G15KT 15SM FEW050 BKN100 RMK SC2AC2

CYQF;2011-10-02 06:00;CYQF 020600Z 10010G15KT 15SM FEW050 BKN100 06/02 A2991 RMK SC2AC2 SLP152

CYQF;2011-10-02 07:00;CYQF 020700Z 24003KT 15SM BKN100 06/02 A2996 RMK AC6 SLP166

CYQF;2011-10-02 07:48;CYQF 020748Z 00000KT 12SM -SHRA BKN100 OVC200 RMK AC6CI2

CYQF;2011-10-02 08:00;CYQF 020800Z 06009KT 12SM -SHRA BKN100 OVC200 05/04 A2995 RMK AC7CI1 SLP165

CYQF;2011-10-02 08:38;CYQF 020838Z 09005KT 15SM FEW100 SCT200 RMK AC1CI1

CYQF;2011-10-02 09:00;CYQF 020900Z 12004KT 15SM FEW100 SCT200 04/03 A2993 RMK AC1CI1 SLP159

CYQF;2011-10-02 10:00;CYQF 021000Z 33005KT 15SM BKN200 02/02 A2995 RMK CI2 SLP165

CYQF;2011-10-02 11:00;CYQF 021100Z 02002KT 15SM SCT200 03/03 A2995 RMK CI2 SLP166

CYQF;2011-10-02 12:00;CYQF 021200Z 36002KT 15SM SKC 02/02 A2995 RMK SLP168

CYQF;2011-10-02 13:00;CYQF 021300Z 33005KT 6SM BR SCT030 00/M00 A2995 RMK SC4 VIS N 2 SLP168

CYQF;2011-10-02 13:06;CYQF 021306Z 33007KT 1/2SM FG BKN030 RMK FG4SC2

CYQF;2011-10-02 13:39;CYQF 021339Z 35004KT 3SM BR BKN030 RMK SC5

CYQF;2011-10-02 14:00;CYQF 021400Z 36004KT 4SM BR SCT030 02/02 A2995 RMK SC3 VIS S 2 SLP170

CYQF;2011-10-02 14:40;CYQF 021440Z 02005KT 1 1/2SM BR BKN003 BKN030 RMK ST6SC1

CYQF;2011-10-02 14:48;CYQF 021448Z 01005KT 1/2SM FG VV002 RMK FG8

CYQF;2011-10-02 15:00;CYQF 021500Z 03004KT 1/2SM FG VV002 02/02 A2995 RMK FG8 SLP171

CYQF;2011-10-02 16:00;CYQF 021600Z 34004KT 1/2SM FG VV002 02/02 A2995 RMK FG8 SLP172

CYQF;2011-10-02 16:32;CYQF 021632Z 33005KT 1SM BR VV002 RMK FG8

CYQF;2011-10-02 17:00;CYQF 021700Z 03005KT 3SM BR BKN003 BKN080 04/04 A2997 RMK ST6AC2 VIS S 1 SLP177

CYQF;2011-10-02 18:00;CYQF 021800Z 34008KT 10SM BKN005 BKN080 06/04 A2996 RMK ST5AC2 SLP172

CYQF;2011-10-02 18:37;CYQF 021837Z 04006KT 12SM FEW007 SCT080 BKN250 RMK SF2AC2CI0

CYQF;2011-10-02 19:00;CYQF 021900Z 05005KT 15SM FEW010 SCT080 BKN250 07/04 A2995 RMK CF2AC2CI0 SLP171

CYQF;2011-10-02 20:00;CYQF 022000Z 36006KT 15SM FEW010 FEW080 BKN250 08/05 A2996 RMK CF2AC1CI4 SLP173

CYQF;2011-10-02 21:00;CYQF 022100Z 34008KT 15SM FEW020 FEW080 BKN250 10/05 A2995 RMK CU1AC1CI2 SLP166

CYQF;2011-10-02 22:00;CYQF 022200Z 35005KT 15SM FEW025 SCT100 10/04 A2997 RMK CU2AC1 SLP173

CYQF;2011-10-02 23:00;CYQF 022300Z 33010G15KT 15SM BKN020 BKN080 09/05 A3001 RMK SC5AC2 SLP184

CYQF;2011-10-03 00:00;CYQF 030000Z 02008KT 15SM FEW020 BKN070 08/04 A3000 RMK SC2AC3 SLP189

CYQF;2011-10-03 01:00;CYQF 030100Z 32003KT 15SM SCT020 BKN100 06/04 A3003 RMK SC2AC2 SLP198

CYQF;2011-10-03 02:00;CYQF 030200Z 30005KT 15SM FEW020 SCT100 04/03 A3003 RMK SC1AC2 SLP198

CYQF;2011-10-03 03:00;CYQF 030300Z 28005KT 15SM FEW020 04/03 A3004 RMK SC1 SLP208

CYQF;2011-10-03 04:00;CYQF 030400Z 00000KT 15SM FEW050 05/04 A3006 RMK SC2 SLP213

CYQF;2011-10-03 05:00;CYQF 030500Z 17004KT 15SM FEW050 02/01 A3006 RMK SC1 SLP214

CYQF;2011-10-03 06:00;CYQF 030600Z 00000KT 15SM FEW050 OVC220 03/03 A3004 RMK SC2CI5 SLP204

CYQF;2011-10-03 07:00;CYQF 030700Z 00000KT 15SM FEW050 OVC200 03/02 A3004 RMK SC2CI6 SLP202

CYQF;2011-10-03 08:00;CYQF 030800Z 00000KT 15SM OVC200 03/02 A3003 RMK CI8 SLP201

CYQF;2011-10-03 09:00;CYQF 030900Z 00000KT 15SM OVC200 03/03 A3003 RMK CI8 SLP195

CYQF;2011-10-03 10:00;CYQF 031000Z 26003KT 15SM OVC200 02/02 A3002 RMK CI8 SLP192

CYQF;2011-10-03 11:00;CYQF 031100Z 00000KT 15SM OVC200 03/03 A3002 RMK CI8 SLP191

CYQF;2011-10-03 12:00;CYQF 031200Z 00000KT 15SM OVC200 03/03 A3001 RMK CI8 SLP189

CYQF;2011-10-03 13:00;CYQF 031300Z 00000KT 6SM BR FEW100 BKN200 02/02 A2999 RMK AC1CI6 SLP184

CYQF;2011-10-03 13:16;CYQF 031316Z 00000KT 2SM BR SCT100 BKN200 RMK AC2CI5

CYQF;2011-10-03 14:00;CYQF 031400Z 00000KT 2SM BR VCFG SCT100 OVC200 02/02 A2997 RMK AC3CI5 SLP178

CYQF;2011-10-03 14:42;CYQF 031442Z 00000KT 3SM BR VCFG SCT100 OVC200 RMK AC3CI5

CYQF;2011-10-03 15:00;CYQF 031500Z 00000KT 3SM BR VCFG SCT100 OVC200 03/03 A2996 RMK AC3CI5 SLP179

CYQF;2011-10-03 16:00;CYQF 031600Z 00000KT 3SM BR SCT100 OVC200 05/04 A2995 RMK AC3CI4 SLP176

CYQF;2011-10-03 17:00;CYQF 031700Z 00000KT 10SM BKN100 OVC200 08/06 A2994 RMK AC5CI2 SLP170

CYQF;2011-10-03 18:00;CYQF 031800Z 15007KT 12SM BKN100 OVC200 10/06 A2991 RMK AC6CI2 SLP152

CYQF;2011-10-03 19:00;CYQF 031900Z 14011KT 12SM BKN080 OVC200 12/07 A2988 RMK AC5CI3 SLP144

CYQF;2011-10-03 20:00;CYQF 032000Z 12010KT 12SM BKN080 OVC200 13/07 A2985 RMK AC5CI3 SLP134

CYQF;2011-10-03 21:00;CYQF 032100Z 12010KT 15SM BKN080 OVC200 14/07 A2982 RMK AC5CI2 SLP117

CYQF;2011-10-03 22:00;CYQF 032200Z 15010KT 15SM BKN100 OVC200 15/08 A2979 RMK AC5CI2 SLP109

CYQF;2011-10-03 23:00;CYQF 032300Z 15010KT 15SM BKN100 BKN200 16/07 A2976 RMK AC5CI2 SLP101

CYQF;2011-10-04 00:00;CYQF 040000Z 15005KT 15SM SCT100 BKN200 15/08 A2976 RMK AC3CI2 SLP095

CYQF;2011-10-04 01:00;CYQF 040100Z 16002KT 15SM FEW100 BKN200 13/08 A2974 RMK AC2CI2 SLP089

CYQF;2011-10-04 02:00;CYQF 040200Z 00000KT 15SM FEW100 BKN200 10/06 A2972 RMK AC2CI2 SLP083

CYQF;2011-10-04 03:00;CYQF 040300Z 15005KT 15SM FEW100 BKN200 13/07 A2971 RMK AC2CI2 SLP080

CYQF;2011-10-04 04:00;CYQF 040400Z 19007KT 15SM FEW100 BKN200 12/07 A2969 RMK AC2CI2 SLP075

CYQF;2011-10-04 05:00;CYQF 040500Z 18008KT 15SM BKN200 12/07 A2967 RMK CI3 SLP069

CYQF;2011-10-04 06:00;CYQF 040600Z 18007KT 15SM BKN200 09/06 A2967 RMK CI2 SLP063

CYQF;2011-10-04 07:00;CYQF 040700Z 23005KT 15SM BKN220 07/05 A2965 RMK CI3 SLP057

CYQF;2011-10-04 08:00;CYQF 040800Z 00000KT 15SM SCT220 08/06 A2965 RMK CI2 SLP057

CYQF;2011-10-04 09:00;CYQF 040900Z 00000KT 15SM FEW100 SCT220 05/03 A2963 RMK AC1CI2 SLP050

CYQF;2011-10-04 10:00;CYQF 041000Z 00000KT 15SM FEW100 BKN220 05/04 A2961 RMK AC2CI2 SLP044

CYQF;2011-10-04 11:00;CYQF 041100Z 00000KT 15SM SCT220 05/04 A2961 RMK CI2 SLP043

CYQF;2011-10-04 12:00;CYQF 041200Z 24002KT 15SM BKN220 05/04 A2959 RMK CI3 SLP036

CYQF;2011-10-04 13:00;CYQF 041300Z 00000KT 15SM BKN220 06/04 A2958 RMK CI4 SLP032

CYQF;2011-10-04 14:00;CYQF 041400Z 00000KT 15SM FEW060 SCT100 BKN220 06/05 A2957 RMK SC2AC1CI2 VIRGA SLP030

CYQF;2011-10-04 15:00;CYQF 041500Z 11006KT 15SM FEW060 SCT100 BKN220 06/05 A2955 RMK SC2AC2CI2 SLP021

CYQF;2011-10-04 16:00;CYQF 041600Z 34002KT 15SM BKN100 OVC220 07/06 A2954 RMK AC6CI2 SLP020

CYQF;2011-10-04 17:00;CYQF 041700Z 27003KT 10SM BKN080 OVC220 09/07 A2953 RMK AC6CI2 SLP016

CYQF;2011-10-04 17:52;CYQF 041752Z 00000KT 10SM -RA BKN060 OVC220 RMK SC7CI1

CYQF;2011-10-04 18:00;CYQF 041800Z 20005KT 10SM -RA BKN060 OVC220 10/07 A2955 RMK SC7CI1 SLP021

CYQF;2011-10-04 19:00;CYQF 041900Z 00000KT 10SM BKN060 OVC120 11/04 A2949 RMK SC7AC1 SLP005

CYQF;2011-10-04 20:00;CYQF 042000Z 09004KT 10SM SCT060 OVC100 11/08 A2948 RMK SC3AC5 SLP001

CYQF;2011-10-04 21:00;CYQF 042100Z 00000KT 10SM FEW060 OVC100 13/07 A2949 RMK SC2AC5 SLP003

CYQF;2011-10-04 22:00;CYQF 042200Z 01003KT 10SM FEW060 BKN100 13/07 A2949 RMK SC2AC6 SLP004

CYQF;2011-10-04 23:00;CYQF 042300Z 34006KT 10SM FEW060 BKN120 BKN250 12/08 A2950 RMK SC1AC4CI1 SLP007

CYQF;2011-10-05 00:00;CYQF 050000Z CCA 36005KT 10SM FEW040 BKN120 BKN250 12/09 A2950 RMK CU1AC4CI1 SLP008

CYQF;2011-10-05 01:00;CYQF 050100Z 36006KT 10SM BKN120 BKN250 11/09 A2951 RMK AC5CI1 SLP011

CYQF;2011-10-05 02:00;CYQF 050200Z 34005KT 12SM FEW120 SCT250 08/07 A2953 RMK AC2CI1 SLP017

CYQF;2011-10-05 02:19;CYQF 050219Z 30007KT 12SM OVC010 RMK ST7

CYQF;2011-10-05 02:40;CYQF 050240Z 34008KT 6SM BR OVC007 RMK ST8

CYQF;2011-10-05 03:00;CYQF 050300Z 35005KT 6SM BR OVC007 09/08 A2954 RMK ST8 SLP024

CYQF;2011-10-05 04:00;CYQF 050400Z 33007KT 6SM BR OVC007 08/08 A2955 RMK ST8 SLP026

CYQF;2011-10-05 05:00;CYQF 050500Z 30006KT 6SM BR OVC008 08/07 A2957 RMK ST8 SLP033

CYQF;2011-10-05 06:00;CYQF 050600Z 27003KT 15SM OVC012 08/07 A2959 RMK ST8 SLP037

CYQF;2011-10-05 07:00;CYQF 050700Z 32004KT 10SM OVC012 08/07 A2960 RMK ST8 SLP040

CYQF;2011-10-05 08:00;CYQF 050800Z 33005KT 10SM OVC012 07/06 A2960 RMK ST8 SLP040

CYQF;2011-10-05 09:00;CYQF 050900Z 24005KT 6SM BR OVC010 06/06 A2960 RMK ST7 SLP041

CYQF;2011-10-05 10:00;CYQF 051000Z 25005KT 15SM BKN010 05/04 A2960 RMK ST7 SLP041

CYQF;2011-10-05 10:06;CYQF 051006Z 25006KT 2 1/2SM BR BKN010 RMK ST7

CYQF;2011-10-05 11:00;CYQF 051100Z 23004KT 2SM BR BKN010 04/04 A2961 RMK ST7 SLP044

CYQF;2011-10-05 11:21;CYQF 051121Z 25002KT 1SM BR BKN010 RMK FG3ST4

CYQF;2011-10-05 11:35;CYQF 051135Z 23002KT 1/4SM FG VV002 RMK FG8

CYQF;2011-10-05 12:00;CYQF 051200Z 22002KT 3/4SM BR OVC008 03/03 A2962 RMK FG5ST3 SLP050

CYQF;2011-10-05 13:00;CYQF 051300Z 20002KT 3/4SM BR OVC008 03/03 A2964 RMK FG5ST3 SLP055

CYQF;2011-10-05 13:52;CYQF 051352Z 30004KT 2SM BR BKN011 RMK ST7

CYQF;2011-10-05 14:00;CYQF 051400Z 30003KT 3SM BR BKN011 03/03 A2962 RMK ST7 SLP051

CYQF;2011-10-05 15:00;CYQF 051500Z 01002KT 6SM BR OVC009 05/04 A2964 RMK ST8 SLP060

CYQF;2011-10-05 16:00;CYQF 051600Z 00000KT 5SM BR OVC006 06/05 A2966 RMK ST8 SLP065

CYQF;2011-10-05 17:00;CYQF 051700Z 02004KT 6SM BR OVC006 07/06 A2965 RMK ST8 SLP061

CYQF;2011-10-05 18:00;CYQF 051800Z 35007KT 6SM BR OVC007 08/07 A2966 RMK ST8 SLP062

CYQF;2011-10-05 19:00;CYQF 051900Z 04004KT 6SM BR OVC006 08/07 A2966 RMK ST8 SLP064

CYQF;2011-10-05 20:00;CYQF 052000Z 03007KT 6SM BR OVC006 08/07 A2966 RMK ST8 SLP063

CYQF;2011-10-05 21:00;CYQF 052100Z 03006KT 6SM BR OVC006 09/07 A2966 RMK ST8 SLP064

CYQF;2011-10-05 22:00;CYQF 052200Z 03007KT 6SM BR OVC006 09/07 A2966 RMK ST8 CIG RAG SLP064

CYQF;2011-10-05 23:00;CYQF 052300Z CCA 35008KT 6SM BR OVC007 08/07 A2966 RMK ST8 CIG RAG SLP066

CYQF;2011-10-06 00:00;CYQF 060000Z 01006KT 6SM BR OVC007 08/07 A2968 RMK ST8 CIG RAG SLP075

CYQF;2011-10-06 01:00;CYQF 060100Z 01005KT 5SM BR OVC009 08/07 A2969 RMK ST8 SLP078

CYQF;2011-10-06 02:00;CYQF 060200Z 33005KT 5SM BR OVC008 08/07 A2969 RMK ST8 SLP080

CYQF;2011-10-06 03:00;CYQF 060300Z 34005KT 3SM BR OVC018 08/07 A2971 RMK FG3SC5 SLP086

CYQF;2011-10-06 04:00;CYQF 060400Z 34007KT 3SM -RA BR OVC018 08/08 A2972 RMK FG3SC5 SLP088

CYQF;2011-10-06 04:33;CYQF 060433Z 36006KT 3SM BR OVC018 RMK FG3SC5

CYQF;2011-10-06 04:39;CYQF 060439Z 35007KT 3SM -DZ BR SCT005 OVC018 RMK FG3ST1SC4

CYQF;2011-10-06 04:45;CYQF 060445Z 35008KT 2SM -DZ BR BKN005 OVC009 RMK FG3ST2ST2

CYQF;2011-10-06 05:00;CYQF 060500Z 34006KT 3SM -DZ BR SCT005 OVC017 08/08 A2972 RMK SF4ST4 SLP089

CYQF;2011-10-06 06:00;CYQF 060600Z 35009KT 6SM -DZ OVC006 08/08 A2974 RMK SF8 CIG RAG SLP090

CYQF;2011-10-06 07:00;CYQF 060700Z 35007KT 8SM OVC006 07/07 A2974 RMK SF8 CIG RAG SLP092

CYQF;2011-10-06 08:00;CYQF 060800Z 36010G15KT 8SM OVC006 07/07 A2975 RMK SF8 CIG RAG SLP093

CYQF;2011-10-06 09:00;CYQF 060900Z 35008KT 8SM OVC006 07/07 A2975 RMK SF8 SLP096

CYQF;2011-10-06 10:00;CYQF 061000Z 33010KT 8SM OVC006 07/07 A2975 RMK SF8 CIG RAG SLP095

CYQF;2011-10-06 11:00;CYQF 061100Z 34008KT 2 1/2SM BR OVC004 07/07 A2976 RMK SF8 CIG RAG SLP098

CYQF;2011-10-06 12:00;CYQF 061200Z 34007KT 10SM OVC005 07/07 A2976 RMK SF8 CIG RAG SLP099

CYQF;2011-10-06 13:00;CYQF 061300Z 33011KT 6SM BR OVC003 07/07 A2976 RMK ST8 SLP099

CYQF;2011-10-06 14:00;CYQF 061400Z 32012KT 5SM BR OVC003 07/06 A2977 RMK ST8 SLP103

CYQF;2011-10-06 14:37;CYQF 061437Z 35010KT 6SM BR BKN006 OVC020 RMK ST7SC1 CIG RAG BLLN VIS TO 700FT

CYQF;2011-10-06 15:00;CYQF 061500Z 34008KT 6SM BR BKN005 OVC020 07/06 A2977 RMK SF6SC2 CIG RAG SLP103

CYQF;2011-10-06 16:00;CYQF 061600Z 33008KT 6SM BR BKN007 OVC020 07/06 A2978 RMK SF6SC2 CIG RAG SLP108

CYQF;2011-10-06 17:00;CYQF 061700Z 34010KT 5SM BR BKN009 OVC020 07/07 A2979 RMK SC6SC2 SLP109

CYQF;2011-10-06 18:00;CYQF 061800Z 33010G15KT 6SM BR FEW006 BKN009 OVC020 08/07 A2979 RMK SF2SC3SC3 SLP108

CYQF;2011-10-06 18:36;CYQF 061836Z 33010G20KT 6SM BR OVC010 RMK ST8 CIG RAG

CYQF;2011-10-06 19:00;CYQF 061900Z 33010G15KT 6SM BR OVC010 08/06 A2979 RMK ST8 CIG RAG SLP108

CYQF;2011-10-06 20:00;CYQF 062000Z 34010G15KT 12SM FEW010 OVC018 09/06 A2979 RMK SF2SC6 SLP109

CYQF;2011-10-06 21:00;CYQF 062100Z 34008KT 12SM FEW010 OVC018 09/06 A2978 RMK SF2SC6 RMK/VIA YEG SLP104

CYQF;2011-10-06 22:00;CYQF 062200Z 34014KT 12SM OVC018 09/06 A2978 RMK SC8 SLP105

CYQF;2011-10-06 23:00;CYQF 062300Z 34008KT 15SM OVC018 09/06 A2979 RMK SC8 SLP109

CYQF;2011-10-07 00:00;CYQF 070000Z 34009KT 15SM OVC018 09/05 A2979 RMK SC8 SLP111

CYQF;2011-10-07 01:00;CYQF 070100Z 35009KT 15SM OVC018 08/05 A2980 RMK SC8 SLP114

CYQF;2011-10-07 02:00;CYQF 070200Z 35005KT 15SM OVC017 08/05 A2980 RMK SC8 SLP114

CYQF;2011-10-07 03:00;CYQF 070300Z 35006KT 15SM OVC017 08/05 A2981 RMK SC8 SLP116

CYQF;2011-10-07 04:00;CYQF 070400Z 34005KT 15SM OVC017 08/05 A2980 RMK SC8 SLP114

CYQF;2011-10-07 05:00;CYQF 070500Z 00000KT 15SM OVC017 07/05 A2979 RMK SC8 SLP111

CYQF;2011-10-07 06:00;CYQF 070600Z 33003KT 15SM OVC017 07/05 A2977 RMK SC8 SLP105

CYQF;2011-10-07 07:00;CYQF 070700Z 31005KT 15SM OVC017 07/05 A2976 RMK SC8 SLP099

CYQF;2011-10-07 08:00;CYQF 070800Z 31004KT 15SM OVC020 07/05 A2976 RMK SC8 SLP099

CYQF;2011-10-07 09:00;CYQF 070900Z 32006KT 15SM BKN018 07/05 A2973 RMK SC7 SLP089

CYQF;2011-10-07 10:00;CYQF 071000Z 33004KT 15SM OVC018 07/05 A2974 RMK SC8 SLP090

CYQF;2011-10-07 11:00;CYQF 071100Z 33005KT 15SM OVC018 07/05 A2973 RMK SC8 SLP089

CYQF;2011-10-07 12:00;CYQF 071200Z 31005KT 15SM OVC018 07/05 A2973 RMK SC8 SLP090

CYQF;2011-10-07 13:00;CYQF 071300Z 32008KT 15SM OVC018 07/05 A2973 RMK SC8 SLP088

CYQF;2011-10-07 14:00;CYQF 071400Z 31008KT 10SM BKN020 OVC080 07/05 A2974 RMK SC5AC3 SLP091

CYQF;2011-10-07 15:00;CYQF 071500Z 30008KT 10SM FEW020 OVC090 07/05 A2975 RMK SC2AC6 SLP095

CYQF;2011-10-07 15:30;CYQF 071530Z 31006KT 10SM FEW008 BKN020 OVC090 RMK SF2SC3AC3 VIRGA

CYQF;2011-10-07 16:00;CYQF 071600Z 30005KT 10SM SCT008 BKN020 OVC090 07/06 A2976 RMK SF3SC3AC2 VIRGA SLP098

CYQF;2011-10-07 17:00;CYQF 071700Z 31010KT 12SM SCT010 BKN030 OVC090 08/06 A2976 RMK SF2SC4AC2 SLP098

CYQF;2011-10-07 18:00;CYQF 071800Z 33010KT 15SM OVC090 09/05 A2976 RMK AS8 SLP099

CYQF;2011-10-07 18:46;CYQF 071846Z 33012G20KT 12SM -SHRA SCT030 OVC090 RMK SC3AC5

CYQF;2011-10-07 19:00;CYQF 071900Z 33015G20KT 12SM -SHRA FEW015 SCT030 BKN090 09/06 A2976 RMK CF1SC3AC4 SLP099

CYQF;2011-10-07 19:18;CYQF 071918Z 32015G20KT 12SM VCSH FEW015 SCT030 BKN090 BKN250 RMK CF1SC2AC2CI2

CYQF;2011-10-07 20:00;CYQF 072000Z 31012G20KT 15SM SCT025 BKN090 BKN250 11/05 A2976 RMK CU3AC2CI1 SLP099

CYQF;2011-10-07 21:00;CYQF 072100Z 30012G20KT 15SM BKN025 BKN090 OVC250 11/05 A2977 RMK SC6AC2CI0 CU EMBD SLP099

CYQF;2011-10-07 22:00;CYQF 072200Z 34013G22KT 15SM VCSH BKN025 OVC090 11/04 A2979 RMK SC6AC2 CU EMBD SLP105

CYQF;2011-10-07 22:11;CYQF 072211Z 32012G19KT 15SM -SHRA BKN025 OVC090 RMK SC6AC2

CYQF;2011-10-07 22:33;CYQF 072233Z 31012G18KT 15SM BKN025 OVC090 RMK SC5AS3

CYQF;2011-10-07 23:00;CYQF 072300Z 31010G15KT 15SM SCT025 OVC090 09/05 A2981 RMK SC3AS3 SLP112

CYQF;2011-10-08 00:00;CYQF 080000Z 31010G15KT 15SM FEW025 FEW090 BKN210 09/05 A2982 RMK SC1AC1CI4 SLP120

CYQF;2011-10-08 01:00;CYQF 080100Z 28010KT 15SM FEW015 FEW090 BKN210 08/04 A2985 RMK CF1AC1CI2 SLP130

CYQF;2011-10-08 02:00;CYQF 080200Z 29008KT 15SM FEW090 BKN210 06/04 A2989 RMK AC1CI2 SLP140

CYQF;2011-10-08 03:00;CYQF 080300Z 28008KT 15SM FEW210 05/03 A2992 RMK CI1 SLP157

CYQF;2011-10-08 04:00;CYQF 080400Z 30010KT 15SM FEW090 04/02 A2994 RMK AC1 SLP165

CYQF;2011-10-08 05:00;CYQF 080500Z 28008KT 15SM FEW090 03/01 A2997 RMK AC1 SLP174

CYQF;2011-10-08 06:00;CYQF 080600Z 28008KT 15SM SKC 03/00 A3000 RMK SLP187

CYQF;2011-10-08 07:00;CYQF 080700Z 26008KT 15SM SKC 01/M01 A3003 RMK SLP195

CYQF;2011-10-08 08:00;CYQF 080800Z 27007KT 15SM SKC 02/M01 A3005 RMK SLP201

CYQF;2011-10-08 10:00;CYQF 081000Z 27006KT 15SM SCT090 02/M01 A3008 RMK AC4 SLP212

CYQF;2011-10-08 11:00;CYQF 081100Z 25007KT 15SM FEW090 00/M03 A3010 RMK AC2 SLP218

CYQF;2011-10-08 12:00;CYQF 081200Z 24005KT 15SM FEW090 M00/M03 A3011 RMK AC2 SLP228

CYQF;2011-10-08 13:00;CYQF 081300Z 20004KT 15SM FEW090 M01/M04 A3012 RMK AC1 SLP230

CYQF;2011-10-08 14:00;CYQF 081400Z 18005KT 15SM FEW080 M03/M05 A3014 RMK AC1 SLP235

CYQF;2011-10-08 15:00;CYQF 081500Z 21005KT 15SM FEW080 M00/M03 A3015 RMK AC1 SLP245

CYQF;2011-10-08 16:00;CYQF 081600Z 21005KT 15SM SKC 04/M01 A3015 RMK SLP247

CYQF;2011-10-08 17:00;CYQF 081700Z 20007KT 15SM SKC 07/M00 A3015 RMK SLP244

CYQF;2011-10-08 18:00;CYQF 081800Z 19008KT 15SM BKN210 11/M02 A3013 RMK CI1 SLP231

CYQF;2011-10-08 19:00;CYQF 081900Z 17010KT 15SM BKN210 12/M02 A3012 RMK CI2 OBS TAKEN +13 SLP226

CYQF;2011-10-08 20:00;CYQF 082000Z 18010G15KT 15SM BKN250 13/M03 A3009 RMK CI2 SLP219

CYQF;2011-10-08 21:00;CYQF 082100Z 21010G15KT 15SM BKN250 13/M04 A3007 RMK CI2 SLP207

CYQF;2011-10-08 22:00;CYQF 082200Z 17011G17KT 15SM BKN250 14/M04 A3005 RMK CI2 SLP198

CYQF;2011-10-08 23:00;CYQF 082300Z 17012KT 15SM BKN250 13/M03 A3003 RMK CI3 SLP192

CYQF;2011-10-09 00:00;CYQF 090000Z 16010G15KT 15SM BKN250 12/M03 A3001 RMK CI2 SLP190

CYQF;2011-10-09 01:00;CYQF 090100Z 15007KT 15SM BKN250 09/M02 A2999 RMK CI2 SLP184

CYQF;2011-10-09 02:00;CYQF 090200Z 15009KT 15SM SCT250 08/M01 A2998 RMK CI2 SLP182

CYQF;2011-10-09 03:00;CYQF 090300Z 15010KT 15SM SCT250 07/00 A2996 RMK CI2 SLP179

CYQF;2011-10-09 04:00;CYQF 090400Z 16011KT 15SM FEW250 05/00 A2995 RMK CI1 SLP174

CYQF;2011-10-09 05:00;CYQF 090500Z 16010KT 15SM SKC 05/01 A2992 RMK SLP166

CYQF;2011-10-09 06:00;CYQF 090600Z 18008KT 15SM SKC 05/01 A2990 RMK SLP147

CYQF;2011-10-09 07:00;CYQF 090700Z 17007KT 15SM SKC 03/M00 A2986 RMK SLP137

CYQF;2011-10-09 08:00;CYQF 090800Z 19006KT 15SM FEW250 02/M02 A2985 RMK CI1 SLP134

CYQF;2011-10-09 09:00;CYQF 090900Z 18007KT 15SM FEW250 03/M02 A2985 RMK CI1 SLP129

CYQF;2011-10-09 10:00;CYQF 091000Z 14002KT 15SM FEW250 01/M02 A2983 RMK CI1 SLP124

CYQF;2011-10-09 11:00;CYQF 091100Z 00000KT 15SM FEW080 BKN250 01/M02 A2983 RMK AC2CI2 SLP124

CYQF;2011-10-09 12:00;CYQF 091200Z 19005KT 15SM FEW080 BKN250 01/M01 A2983 RMK AC2CI2 SLP125

CYQF;2011-10-09 13:00;CYQF 091300Z 19005KT 15SM SCT080 BKN250 02/M01 A2982 RMK AC4CI1 SLP123

CYQF;2011-10-09 14:00;CYQF 091400Z 16002KT 15SM BKN090 BKN250 02/M01 A2983 RMK AC6CI1 SLP126

CYQF;2011-10-09 15:00;CYQF 091500Z 05003KT 15SM BKN100 BKN250 03/M01 A2984 RMK AC6CI1 SLP133

CYQF;2011-10-09 16:00;CYQF 091600Z 18003KT 15SM FEW040 BKN100 BKN250 05/M01 A2985 RMK SC1AC6CI1 SC TR W SLP135

CYQF;2011-10-09 17:00;CYQF 091700Z 18004KT 15SM FEW040 BKN100 BKN250 07/01 A2985 RMK SC1AC6CI1 SC TR SLP136

CYQF;2011-10-09 18:00;CYQF 091800Z 18007KT 15SM FEW040 BKN100 BKN250 09/01 A2985 RMK SC1AC6CI1 SLP130

CYQF;2011-10-09 19:00;CYQF 091900Z 20003KT 15SM FEW040 BKN100 BKN250 11/02 A2984 RMK SC1AC6CI1 SLP129

CYQF;2011-10-09 20:00;CYQF 092000Z 22004KT 15SM FEW040 BKN100 BKN250 11/02 A2983 RMK SC1AC5CI2 SC TR SLP125

CYQF;2011-10-09 21:00;CYQF 092100Z 20006KT 15SM FEW040 BKN100 BKN250 14/M00 A2982 RMK SC1AC5CI2 SLP120

CYQF;2011-10-09 22:00;CYQF 092200Z 23003KT 15SM FEW040 BKN250 15/M01 A2982 RMK SC1CI3 SLP118

CYQF;2011-10-09 23:00;CYQF 092300Z 00000KT 15SM FEW040 BKN250 16/M01 A2981 RMK SC1CI2 SLP116

CYQF;2011-10-10 00:00;CYQF 100000Z 12004KT 15SM FEW040 BKN250 14/M01 A2981 RMK SC1CI3 SLP117

CYQF;2011-10-10 01:00;CYQF 100100Z 14004KT 15SM FEW040 BKN250 11/M02 A2981 RMK SC1CI4 SLP116

CYQF;2011-10-10 02:00;CYQF 100200Z 15004KT 15SM BKN250 09/M02 A2981 RMK CI5 SLP116

CYQF;2011-10-10 03:00;CYQF 100300Z 20002KT 15SM BKN250 05/M01 A2981 RMK CI6 SLP123

CYQF;2011-10-10 04:00;CYQF 100400Z 00000KT 15SM SCT100 OVC250 05/M01 A2981 RMK AC3CI4 SLP123

CYQF;2011-10-10 05:00;CYQF 100500Z 27005KT 15SM SCT100 OVC250 04/M01 A2981 RMK AC4CI3 SLP124

CYQF;2011-10-10 06:00;CYQF 100600Z 12002KT 15SM BKN100 OVC250 05/M01 A2979 RMK AC5CI2 SLP113

CYQF;2011-10-10 07:00;CYQF 100700Z 21004KT 15SM SCT100 OVC250 03/M01 A2978 RMK AC4CI3 SLP110

CYQF;2011-10-10 08:00;CYQF 100800Z 20003KT 15SM SCT100 OVC250 04/M02 A2978 RMK AC4CI3 SLP110

CYQF;2011-10-10 09:00;CYQF 100900Z 26007KT 15SM FEW100 BKN250 00/M03 A2978 RMK AC2CI2 SLP107

CYQF;2011-10-10 10:00;CYQF 101000Z 28004KT 15SM SCT250 M00/M03 A2976 RMK CI2 SLP103

CYQF;2011-10-10 11:00;CYQF 101100Z 25002KT 15SM BKN250 M01/M02 A2976 RMK CI2 SLP102

CYQF;2011-10-10 12:00;CYQF 101200Z 21002KT 15SM FEW090 BKN250 M01/M03 A2976 RMK AC2CI2 SLP101

CYQF;2011-10-10 13:00;CYQF 101300Z 21004KT 15SM SCT090 BKN250 M01/M02 A2975 RMK AC3CI2 SLP098

CYQF;2011-10-10 14:00;CYQF 101400Z 21002KT 15SM SCT100 BKN250 M00/M02 A2973 RMK AC2CI2 SLP091

CYQF;2011-10-10 15:00;CYQF 101500Z 00000KT 15SM BKN100 BKN260 01/M01 A2971 RMK AC2CI2 SLP093

CYQF;2011-10-10 16:00;CYQF 101600Z 00000KT 15SM BKN100 BKN250 05/01 A2970 RMK AC2CI2 SLP088

CYQF;2011-10-10 17:00;CYQF 101700Z 00000KT 15SM FEW100 BKN250 08/02 A2968 RMK AC1CI1 SLP082

CYQF;2011-10-10 18:00;CYQF 101800Z 17004KT 15SM FEW100 SCT250 11/01 A2966 RMK AC1CI1 SLP065

CYQF;2011-10-10 19:00;CYQF 101900Z 14012KT 15SM FEW100 BKN250 13/M02 A2963 RMK AC1CI2 SLP055

CYQF;2011-10-10 20:00;CYQF 102000Z 16010KT 15SM FEW100 BKN250 14/M02 A2960 RMK AC1CI2 SLP045

CYQF;2011-10-10 21:00;CYQF 102100Z 15010G15KT 15SM FEW100 BKN250 14/M01 A2958 RMK AC1CI3 VIRGA W SLP038

CYQF;2011-10-10 22:00;CYQF 102200Z 16005KT 15SM FEW100 BKN250 14/M01 A2956 RMK AC2CI3 SLP032

CYQF;2011-10-10 23:00;CYQF 102300Z 15006KT 15SM FEW090 BKN250 14/M02 A2955 RMK AC2CI4 SLP029

CYQF;2011-10-11 00:00;CYQF 110000Z 15005KT 15SM FEW090 BKN250 14/M01 A2953 RMK AC2CI4 SLP022

CYQF;2011-10-11 01:00;CYQF 110100Z 13004KT 15SM FEW090 BKN250 11/M02 A2952 RMK AC1CI3 SLP020

CYQF;2011-10-11 02:00;CYQF 110200Z 13005KT 15SM FEW090 BKN250 07/M02 A2951 RMK AC1CI4 SLP017

CYQF;2011-10-11 03:00;CYQF 110300Z 14005KT 15SM FEW090 OVC250 07/M01 A2951 RMK AC1CI5 SLP019

CYQF;2011-10-11 04:00;CYQF 110400Z 00000KT 15SM FEW090 OVC250 06/M01 A2949 RMK AC1CS6 SLP014

CYQF;2011-10-11 05:00;CYQF 110500Z 12002KT 15SM FEW090 BKN250 07/M02 A2947 RMK AC2CI2 SLP008

CYQF;2011-10-11 06:00;CYQF 110600Z 00000KT 15SM FEW090 BKN250 05/M01 A2946 RMK AC2CI2 SLP997

CYQF;2011-10-11 07:00;CYQF 110700Z 00000KT 15SM BKN110 04/M01 A2946 RMK AC3 SLP995

CYQF;2011-10-11 08:00;CYQF 110800Z 00000KT 15SM BKN110 03/M01 A2945 RMK AC4 SLP993

CYQF;2011-10-11 09:00;CYQF 110900Z 00000KT 15SM BKN110 04/M01 A2945 RMK AC3 SLP988

CYQF;2011-10-11 10:00;CYQF 111000Z 00000KT 15SM SCT110 03/M01 A2945 RMK AC2 SLP988

CYQF;2011-10-11 11:00;CYQF 111100Z 00000KT 15SM FEW110 BKN220 M00/M04 A2945 RMK AC2CI1 SLP988

CYQF;2011-10-11 12:00;CYQF 111200Z 00000KT 15SM FEW100 BKN220 M01/M03 A2945 RMK AC1CI2 SLP995

CYQF;2011-10-11 13:00;CYQF 111300Z 00000KT 15SM BKN100 BKN220 00/M02 A2945 RMK AC6CI1 SLP994

CYQF;2011-10-11 14:00;CYQF 111400Z 00000KT 15SM BKN100 BKN220 01/M01 A2946 RMK AC5CI1 SLP996

CYQF;2011-10-11 15:00;CYQF 111500Z 00000KT 15SM SCT100 BKN240 01/M01 A2946 RMK AC2CI1 SLP003

CYQF;2011-10-11 16:00;CYQF 111600Z 00000KT 15SM FEW100 BKN250 04/00 A2947 RMK AC1CI2 SLP008

CYQF;2011-10-11 17:00;CYQF 111700Z 00000KT 15SM FEW100 BKN250 06/01 A2948 RMK AC1CI5 SLP010

CYQF;2011-10-11 18:00;CYQF 111800Z 00000KT 15SM FEW100 BKN250 08/02 A2950 RMK AC1CI2 SLP013

CYQF;2011-10-11 19:00;CYQF 111900Z 00000KT 15SM FEW040 FEW100 SCT250 11/03 A2951 RMK CU1AC1CI2 SLP016

CYQF;2011-10-11 20:00;CYQF 112000Z 34004KT 15SM FEW040 SCT250 13/03 A2951 RMK CU1CI1 SLP016

CYQF;2011-10-11 21:00;CYQF 112100Z 01004KT 15SM FEW050 SCT250 15/02 A2952 RMK CU1CI1 SLP014

CYQF;2011-10-11 22:00;CYQF 112200Z 33003KT 15SM FEW052 FEW100 SCT250 15/02 A2954 RMK CU1AC1CI2 TCU DIST S SLP019

CYQF;2011-10-11 23:00;CYQF 112300Z 04005KT 15SM FEW050 FEW100 FEW250 15/02 A2956 RMK CU1AC1CI1 SLP025

CYQF;2011-10-12 00:00;CYQF 120000Z 02005KT 15SM FEW050 SCT250 14/02 A2958 RMK SC2CI2 CU SLP040

CYQF;2011-10-12 01:00;CYQF 120100Z 33003KT 15SM BKN050 BKN250 11/02 A2961 RMK SC6CI1 SLP049

CYQF;2011-10-12 02:00;CYQF 120200Z 00000KT 15SM FEW050 SCT100 BKN250 09/02 A2963 RMK SC2AC2CI2 SLP055

CYQF;2011-10-12 03:00;CYQF 120300Z 00000KT 15SM FEW050 BKN100 06/01 A2965 RMK SC2AC5 SLP069

CYQF;2011-10-12 04:00;CYQF 120400Z 00000KT 15SM FEW050 BKN100 06/01 A2966 RMK SC1AC6 SLP074

CYQF;2011-10-12 05:00;CYQF 120500Z 21004KT 15SM BKN100 06/03 A2968 RMK AC7 SLP081

CYQF;2011-10-12 06:00;CYQF 120600Z 26004KT 15SM BKN100 07/03 A2968 RMK AC7 SLP073

CYQF;2011-10-12 07:00;CYQF 120700Z 00000KT 15SM BKN100 06/03 A2970 RMK AC7 SLP078

CYQF;2011-10-12 08:00;CYQF 120800Z 33004KT 15SM BKN090 07/03 A2972 RMK AC6 SLP084

CYQF;2011-10-12 09:00;CYQF 120900Z 00000KT 15SM BKN090 04/02 A2974 RMK AC5 SLP089

CYQF;2011-10-12 10:00;CYQF 121000Z 24007KT 15SM FEW090 BKN250 01/00 A2976 RMK AC2CI2 SLP094

CYQF;2011-10-12 11:00;CYQF 121100Z 00000KT 15SM FEW090 FEW250 01/M00 A2977 RMK AC1CI1 SLP097

CYQF;2011-10-12 12:00;CYQF 121200Z 17004KT 15SM FEW090 SCT250 00/M01 A2978 RMK AC1CI1 SLP108

CYQF;2011-10-12 13:00;CYQF 121300Z 21004KT 15SM FEW090 SCT250 M02/M03 A2980 RMK AC2CI1 SLP114

CYQF;2011-10-12 14:00;CYQF 121400Z 21005KT 15SM SCT090 BKN250 M01/M02 A2982 RMK AC2CI1 SLP120

CYQF;2011-10-12 15:00;CYQF 121500Z 00000KT 15SM FEW070 SCT120 BKN250 01/M00 A2984 RMK AC1AC1CI1 VIRGA E SLP138

CYQF;2011-10-12 16:00;CYQF 121600Z 22004KT 15SM FEW070 SCT120 BKN250 02/01 A2985 RMK AC1AC1CI1 SLP141

CYQF;2011-10-12 17:00;CYQF 121700Z 23005KT 15SM FEW090 BKN250 07/04 A2986 RMK AC2CI2 SLP145

CYQF;2011-10-12 18:00;CYQF 121800Z 22004KT 15SM FEW090 SCT250 11/04 A2986 RMK AC1CI1 SLP130

CYQF;2011-10-12 19:00;CYQF 121900Z 28005KT 15SM FEW030 FEW090 FEW250 13/05 A2985 RMK CU1AC1CI1 SLP126

CYQF;2011-10-12 20:00;CYQF 122000Z 25003KT 15SM FEW050TCU SCT090 BKN260 15/02 A2983 RMK TCU1AC2CI1 SLP122

CYQF;2011-10-12 21:00;CYQF 122100Z 32010KT 15SM FEW055TCU FEW090 SCT260 14/00 A2982 RMK TCU2AC1CI1 SLP117

CYQF;2011-10-12 22:00;CYQF 122200Z 28005KT 15SM FEW060TCU SCT120 14/M02 A2982 RMK TCU2AC2 VIRGA S+N SLP116

CYQF;2011-10-12 23:00;CYQF 122300Z 31007KT 15SM SCT060TCU BKN120 14/M01 A2982 RMK TCU4AC2 VIRGA SW+NE SLP115

CYQF;2011-10-13 00:00;CYQF 130000Z 01003KT 15SM SCT060TCU BKN120 11/M01 A2983 RMK TCU3AC3 VIRGA ALQDS SLP126

CYQF;2011-10-13 01:00;CYQF 130100Z 36012G20KT 15SM VCSH BKN050CB BKN100 10/01 A2986 RMK CB5AC2 XTNSV VIRGA LTNG NE SLP136

CYQF;2011-10-13 01:33;CYQF 130133Z 36008KT 12SM SHRA BKN050TCU OVC100 RMK TCU6AC2

CYQF;2011-10-13 02:00;CYQF 130200Z 01003KT 15SM -SHRA SCT050 OVC090 07/04 A2988 RMK SC4AC4 SLP144

CYQF;2011-10-13 02:14;CYQF 130214Z 35005KT 15SM SCT050 OVC090 RMK SC4AC4

CYQF;2011-10-13 03:00;CYQF 130300Z 00000KT 15SM FEW050 BKN100 OVC230 07/05 A2987 RMK SC2AC3CI2 SLP148

CYQF;2011-10-13 04:00;CYQF 130400Z 26004KT 15SM BKN100 OVC230 05/04 A2989 RMK AC5CI2 SLP153

CYQF;2011-10-13 05:00;CYQF 130500Z 25005KT 15SM BKN080 OVC230 05/04 A2991 RMK AC5CI2 SLP158

CYQF;2011-10-13 06:00;CYQF 130600Z 29008KT 15SM BKN080 06/03 A2992 RMK AC7 SLP153

CYQF;2011-10-13 07:00;CYQF 130700Z 29006KT 15SM BKN080 06/03 A2993 RMK AC7 SLP156

CYQF;2011-10-13 08:00;CYQF 130800Z 27005KT 15SM SCT080 BKN250 04/02 A2995 RMK AC3CI1 SLP161

CYQF;2011-10-13 09:00;CYQF 130900Z 27006KT 15SM FEW080 BKN250 04/02 A2995 RMK AC2CI1 SLP163

CYQF;2011-10-13 10:00;CYQF 131000Z 29008KT 15SM FEW080 BKN250 04/02 A2996 RMK AC2CI1 SLP167

CYQF;2011-10-13 11:00;CYQF 131100Z 30008KT 15SM SCT080 BKN250 03/01 A2997 RMK AC3CI2 SLP169

CYQF;2011-10-13 12:00;CYQF 131200Z 28008KT 15SM FEW080 BKN250 02/00 A2998 RMK AC2CI2 SLP178

CYQF;2011-10-13 13:00;CYQF 131300Z 25005KT 15SM FEW080 BKN250 01/M02 A2998 RMK AC2CI2 SLP177

CYQF;2011-10-13 14:00;CYQF 131400Z 25006KT 15SM FEW080 BKN250 M00/M01 A2998 RMK AC2CI2 SLP179

CYQF;2011-10-13 15:00;CYQF 131500Z 23005KT 15SM FEW080 SCT120 01/M01 A3000 RMK AC2AC2 ACC/VIRGA SLP190

CYQF;2011-10-13 16:00;CYQF 131600Z 27006KT 15SM FEW070 SCT120 BKN230 05/02 A3000 RMK AC2AC2CI1 VIRGA SLP192

CYQF;2011-10-13 17:00;CYQF 131700Z 27005KT 15SM FEW070 FEW120 BKN230 07/02 A3001 RMK AC2AC1CI1 SLP193

CYQF;2011-10-13 18:00;CYQF 131800Z 29010G15KT 15SM FEW040 BKN250 09/M01 A3000 RMK CU1CI2 OBS TAKEN +10 SLP182

CYQF;2011-10-13 19:00;CYQF 131900Z 32010KT 15SM FEW050 SCT250 10/M02 A2999 RMK CU2CI1 SLP180

CYQF;2011-10-13 20:00;CYQF 132000Z 32012G20KT 15SM FEW060 BKN250 11/M07 A2998 RMK CU2CI1 SLP176

CYQF;2011-10-13 21:00;CYQF 132100Z 31012G18KT 15SM FEW075 SCT250 12/M07 A2997 RMK CU2CI1 SLP172

CYQF;2011-10-13 22:00;CYQF 132200Z 33010G15KT 15SM FEW070 SCT250 11/M06 A2997 RMK CU2CI1 SLP172

CYQF;2011-10-13 23:00;CYQF 132300Z 33015G20KT 15SM FEW070 FEW250 11/M08 A2998 RMK CU1CI1 SLP174

CYQF;2011-10-14 00:00;CYQF 140000Z 30006KT 15SM FEW070 SCT250 10/M06 A2998 RMK AC1CI1 SLP180

CYQF;2011-10-14 01:00;CYQF 140100Z 32005KT 15SM FEW070 FEW250 04/M06 A3000 RMK AC1CI1 SLP185

CYQF;2011-10-14 02:00;CYQF 140200Z 34005KT 15SM FEW070 04/M05 A3002 RMK AC1 SLP191

CYQF;2011-10-14 03:00;CYQF 140300Z 32005KT 15SM SKC 02/M06 A3003 RMK SLP207

CYQF;2011-10-14 04:00;CYQF 140400Z 31005KT 15SM FEW120 02/M05 A3004 RMK AC1 SLP210

CYQF;2011-10-14 05:00;CYQF 140500Z 23005KT 15SM BKN120 M01/M05 A3006 RMK AC3 SLP218

CYQF;2011-10-14 06:00;CYQF 140600Z 19002KT 15SM SCT120 M00/M05 A3007 RMK AC2 SLP213

CYQF;2011-10-14 07:00;CYQF 140700Z 23005KT 15SM BKN100 01/M04 A3007 RMK AC6 SLP214

CYQF;2011-10-14 08:00;CYQF 140800Z 23004KT 15SM BKN100 01/M04 A3007 RMK AC6 SLP215

CYQF;2011-10-14 09:00;CYQF 140900Z 23005KT 15SM BKN090 02/M04 A3007 RMK AC6 SLP210

CYQF;2011-10-14 10:00;CYQF 141000Z 26004KT 15SM BKN090 01/M05 A3007 RMK AC6 SLP209

CYQF;2011-10-14 11:00;CYQF 141100Z 28003KT 15SM FEW090 BKN250 M00/M05 A3006 RMK AC2CI1 SLP207

CYQF;2011-10-14 12:00;CYQF 141200Z 00000KT 15SM FEW090 BKN250 M02/M06 A3005 RMK AC1CI1 SLP210

CYQF;2011-10-14 13:00;CYQF 141300Z 21003KT 15SM FEW090 BKN250 M04/M07 A3006 RMK AC1CS1 HALO SLP212

CYQF;2011-10-14 14:00;CYQF 141400Z 20004KT 15SM FEW100 BKN250 M04/M07 A3005 RMK AC1CS2 SLP209

CYQF;2011-10-14 15:00;CYQF 141500Z 20003KT 15SM BKN250 M03/M06 A3005 RMK CI2 SLP219

CYQF;2011-10-14 16:00;CYQF 141600Z 19003KT 15SM BKN250 00/M05 A3004 RMK CI5 SLP216

CYQF;2011-10-14 17:00;CYQF 141700Z 18003KT 15SM BKN250 03/M04 A3003 RMK CI4 SLP211

CYQF;2011-10-14 18:00;CYQF 141800Z 19002KT 15SM BKN250 06/M04 A3001 RMK CI3 SLP198

CYQF;2011-10-14 19:00;CYQF 141900Z 30002KT 15SM BKN250 07/M04 A2999 RMK CI5 SLP192

CYQF;2011-10-14 20:00;CYQF 142000Z 00000KT 15SM FEW050 BKN250 09/M04 A2996 RMK SC1CI5 SLP182

CYQF;2011-10-14 21:00;CYQF 142100Z 18006KT 15SM FEW055 BKN250 10/M04 A2994 RMK CF1CI0 SLP167

CYQF;2011-10-14 22:00;CYQF 142200Z 15005KT 15SM FEW250 10/M04 A2992 RMK CI1 SLP161

CYQF;2011-10-14 23:00;CYQF 142300Z 14007KT 15SM FEW250 10/M04 A2991 RMK CI1 SLP158

CYQF;2011-10-15 00:00;CYQF 150000Z 13005KT 15SM FEW250 09/M04 A2991 RMK CI0 SLP160

CYQF;2011-10-15 01:00;CYQF 150100Z 09004KT 15SM FEW250 06/M04 A2990 RMK CI0 SLP158

CYQF;2011-10-15 02:00;CYQF 150200Z 00000KT 15SM SKC 03/M04 A2990 RMK SLP158

CYQF;2011-10-15 03:00;CYQF 150300Z 00000KT 15SM SKC 01/M05 A2991 RMK SLP171

CYQF;2011-10-15 04:00;CYQF 150400Z 00000KT 15SM BKN150 00/M05 A2992 RMK AC5 SLP173

CYQF;2011-10-15 05:00;CYQF 150500Z 00000KT 15SM BKN120 01/M04 A2992 RMK AC6 SLP174

CYQF;2011-10-15 06:00;CYQF 150600Z 00000KT 15SM SCT120 00/M04 A2992 RMK AC3 SLP165

CYQF;2011-10-15 07:00;CYQF 150700Z 00000KT 15SM FEW120 M02/M05 A2993 RMK AC2 SLP167

CYQF;2011-10-15 08:00;CYQF 150800Z 27005KT 15SM BKN100 M01/M03 A2993 RMK AC6 SLP169

CYQF;2011-10-15 09:00;CYQF 150900Z 15004KT 15SM BKN100 M02/M04 A2994 RMK AC3 SLP169

CYQF;2011-10-15 10:00;CYQF 151000Z 00000KT 15SM BKN100 M03/M06 A2994 RMK AC3 SLP170

CYQF;2011-10-15 11:00;CYQF 151100Z 00000KT 15SM SCT100 M03/M05 A2994 RMK AC2 SLP171

CYQF;2011-10-15 12:00;CYQF 151200Z 19002KT 15SM SCT100 M04/M07 A2995 RMK AC2 SLP178

CYQF;2011-10-15 13:00;CYQF 151300Z 28006KT 15SM FEW100 M04/M07 A2996 RMK AC1 SLP180

CYQF;2011-10-15 14:00;CYQF 151400Z 15005KT 15SM FEW100 M05/M07 A2997 RMK AC1 SLP184

CYQF;2011-10-15 15:00;CYQF 151500Z 18003KT 15SM FEW100 M05/M07 A2999 RMK AC1 SLP200

CYQF;2011-10-15 16:00;CYQF 151600Z 20006KT 15SM SCT100 M00/M04 A3000 RMK AC4 SLP203

CYQF;2011-10-15 17:00;CYQF 151700Z 23005KT 15SM BKN100 03/M03 A3000 RMK AC6 SLP205

CYQF;2011-10-15 18:00;CYQF 151800Z 31005KT 15SM BKN100 06/M04 A3001 RMK AC5 SLP196

CYQF;2011-10-15 19:00;CYQF 151900Z 33007KT 15SM FEW045 FEW100 07/M05 A3000 RMK CU1AC1 SLP195

CYQF;2011-10-15 20:00;CYQF 152000Z 33010G15KT 15SM FEW050 FEW100 08/M05 A3000 RMK CU1AC2 SLP195

CYQF;2011-10-15 21:00;CYQF 152100Z 33010KT 15SM FEW055 SCT100 09/M05 A3000 RMK CU2AC2 SLP192

CYQF;2011-10-15 22:00;CYQF 152200Z 35010G15KT 15SM SCT060 09/M06 A3000 RMK CU3 SLP191

CYQF;2011-10-15 23:00;CYQF 152300Z 01007KT 15SM FEW060 08/M07 A3000 RMK SC1 SLP193

CYQF;2011-10-16 00:00;CYQF 160000Z 02004KT 15SM SKC 08/M07 A3001 RMK SLP199

CYQF;2011-10-16 01:00;CYQF 160100Z 00000KT 15SM SKC 04/M06 A3001 RMK SLP200

CYQF;2011-10-16 02:00;CYQF 160200Z 17004KT 15SM SKC M00/M07 A3002 RMK SLP202

CYQF;2011-10-16 03:00;CYQF 160300Z 19005KT 15SM SKC M02/M07 A3003 RMK SLP216

CYQF;2011-10-16 04:00;CYQF 160400Z 18003KT 15SM SKC M03/M07 A3003 RMK SLP218

CYQF;2011-10-16 05:00;CYQF 160500Z 19005KT 15SM SKC M04/M08 A3004 RMK SLP219

CYQF;2011-10-16 06:00;CYQF 160600Z 17003KT 15SM SKC M04/M07 A3003 RMK SLP208

CYQF;2011-10-16 07:00;CYQF 160700Z 00000KT 15SM SKC M05/M08 A3002 RMK SLP206

CYQF;2011-10-16 08:00;CYQF 160800Z 18003KT 15SM SKC M05/M08 A3002 RMK SLP206

CYQF;2011-10-16 09:00;CYQF 160900Z 21005KT 15SM SKC M07/M10 A3002 RMK SLP206

CYQF;2011-10-16 10:00;CYQF 161000Z 20004KT 15SM SKC M06/M09 A3002 RMK SLP206

CYQF;2011-10-16 11:00;CYQF 161100Z 20004KT 15SM SKC M08/M11 A3002 RMK SLP206

CYQF;2011-10-16 12:00;CYQF 161200Z 20004KT 15SM SKC M09/M12 A3002 RMK SLP208

CYQF;2011-10-16 13:00;CYQF 161300Z 20007KT 15SM SKC M09/M12 A3002 RMK SLP209

CYQF;2011-10-16 14:00;CYQF 161400Z 19005KT 15SM SKC M08/M11 A3003 RMK SLP210

CYQF;2011-10-16 15:00;CYQF 161500Z 20005KT 15SM FEW250 M06/M09 A3003 RMK CI1 SLP218

CYQF;2011-10-16 16:00;CYQF 161600Z 19003KT 15SM FEW250 M03/M07 A3002 RMK CI1 SLP216

CYQF;2011-10-16 17:00;CYQF 161700Z 25003KT 15SM FEW250 02/M05 A3002 RMK CI1 SLP216

CYQF;2011-10-16 18:00;CYQF 161800Z 24005KT 15SM FEW250 06/M05 A3001 RMK CI1 SLP201

CYQF;2011-10-16 19:00;CYQF 161900Z 21002KT 15SM FEW250 09/M06 A3001 RMK CI1 SLP200

CYQF;2011-10-16 20:00;CYQF 162000Z 24004KT 15SM FEW250 10/M08 A3000 RMK CI1 SLP197

CYQF;2011-10-16 21:00;CYQF 162100Z 27002KT 15SM FEW250 11/M08 A2999 RMK CI1 SLP191

CYQF;2011-10-16 22:00;CYQF 162200Z 00000KT 15SM FEW250 11/M09 A2999 RMK CI1 SLP190

CYQF;2011-10-16 23:00;CYQF 162300Z 00000KT 15SM FEW250 11/M09 A2999 RMK CI1 SLP191

CYQF;2011-10-17 00:00;CYQF 170000Z 00000KT 15SM FEW250 11/M10 A2999 RMK CI1 SLP195

CYQF;2011-10-17 01:00;CYQF 170100Z 00000KT 15SM FEW250 07/M09 A2999 RMK CI0 SLP195

CYQF;2011-10-17 02:00;CYQF 170200Z 00000KT 15SM SKC 02/M09 A3002 RMK SLP202

CYQF;2011-10-17 03:00;CYQF 170300Z 18004KT 15SM SKC M01/M08 A3003 RMK SLP220

CYQF;2011-10-17 04:00;CYQF 170400Z 20005KT 15SM SKC M03/M09 A3004 RMK SLP223

CYQF;2011-10-17 05:00;CYQF 170500Z 17003KT 15SM SKC M03/M09 A3006 RMK SLP228

CYQF;2011-10-17 06:00;CYQF 170600Z 00000KT 15SM SKC M04/M08 A3007 RMK SLP222

CYQF;2011-10-17 07:00;CYQF 170700Z 20004KT 15SM SKC M06/M09 A3007 RMK SLP223

CYQF;2011-10-17 08:00;CYQF 170800Z 18004KT 15SM SKC M05/M09 A3008 RMK SLP224

CYQF;2011-10-17 09:00;CYQF 170900Z 20004KT 15SM FEW240 M05/M09 A3009 RMK CI0 SLP224

CYQF;2011-10-17 10:00;CYQF 171000Z 20006KT 15SM SCT240 M05/M09 A3010 RMK CI1 SLP228

CYQF;2011-10-17 11:00;CYQF 171100Z 21004KT 15SM BKN240 M04/M08 A3011 RMK CI2 SLP230

CYQF;2011-10-17 12:00;CYQF 171200Z 18005KT 15SM BKN240 M04/M08 A3012 RMK CI3 SLP232

CYQF;2011-10-17 13:00;CYQF 171300Z 21006KT 15SM OVC240 M04/M07 A3013 RMK CS5 SLP236

CYQF;2011-10-17 14:00;CYQF 171400Z 21003KT 15SM OVC240 M03/M08 A3014 RMK CI7 SLP240

CYQF;2011-10-17 15:00;CYQF 171500Z 19004KT 15SM SCT150 BKN250 M01/M07 A3016 RMK AC3CI2 VIRGA SLP257

CYQF;2011-10-17 16:00;CYQF 171600Z 18003KT 15SM FEW150 SCT250 01/M07 A3016 RMK AC1CI2 SLP258

CYQF;2011-10-17 17:00;CYQF 171700Z 22004KT 15SM FEW150 FEW250 05/M06 A3016 RMK AC1CI1 SLP259

CYQF;2011-10-17 18:00;CYQF 171800Z 29003KT 15SM FEW250 09/M05 A3017 RMK CI1 SLP252

CYQF;2011-10-17 19:00;CYQF 171900Z 15002KT 15SM FEW250 12/M05 A3017 RMK CI1 SLP252

CYQF;2011-10-17 20:00;CYQF 172000Z 27003KT 15SM FEW060 12/M06 A3016 RMK SC1 SLP251

CYQF;2011-10-17 21:00;CYQF 172100Z 24002KT 15SM FEW060 13/M06 A3015 RMK SC1 SLP241

CYQF;2011-10-17 22:00;CYQF 172200Z 25004KT 15SM FEW070 15/M04 A3015 RMK AC1 SLP242

CYQF;2011-10-17 23:00;CYQF 172300Z 23004KT 15SM FEW070 FEW250 14/M04 A3015 RMK AC1CI1 SLP241

CYQF;2011-10-18 00:00;CYQF 180000Z 26003KT 15SM FEW080 12/M03 A3015 RMK AC1 SLP243

CYQF;2011-10-18 01:00;CYQF 180100Z 00000KT 15SM FEW080 09/M04 A3017 RMK AC0 OBS TAKEN +19 SLP248

CYQF;2011-10-18 02:00;CYQF 180200Z 00000KT 15SM BKN080 07/M03 A3018 RMK AC6 SLP252

CYQF;2011-10-18 03:00;CYQF 180300Z 19002KT 15SM BKN060 05/M03 A3020 RMK SC5 SLP265

CYQF;2011-10-18 04:00;CYQF 180400Z 00000KT 15SM SKC 03/M05 A3021 RMK SLP269

CYQF;2011-10-18 05:00;CYQF 180500Z 20002KT 15SM FEW060 01/M05 A3024 RMK SC2 SLP277

CYQF;2011-10-18 06:00;CYQF 180600Z 24002KT 15SM FEW060 M00/M05 A3025 RMK SC1 SLP277

CYQF;2011-10-18 07:00;CYQF 180700Z CCA 18005KT 15SM FEW080 M01/M05 A3025 RMK AC1 SLP276

CYQF;2011-10-18 08:00;CYQF 180800Z 20007KT 15SM SKC M03/M06 A3026 RMK SLP281

CYQF;2011-10-18 09:00;CYQF 180900Z 17005KT 15SM SKC M02/M05 A3027 RMK SLP279

CYQF;2011-10-18 10:00;CYQF 181000Z CCA 17005KT 15SM SKC M02/M05 A3029 RMK SLP285

CYQF;2011-10-18 11:00;CYQF 181100Z 20006KT 15SM SKC M02/M05 A3028 RMK SLP282

CYQF;2011-10-18 12:00;CYQF 181200Z 22005KT 15SM SKC M02/M05 A3028 RMK SLP286

CYQF;2011-10-18 13:00;CYQF 181300Z 20004KT 15SM SKC M03/M06 A3028 RMK SLP284

CYQF;2011-10-18 14:00;CYQF 181400Z 22002KT 15SM FEW250 M04/M06 A3027 RMK CI2 SLP281

CYQF;2011-10-18 15:00;CYQF 181500Z 16002KT 15SM FEW250 M02/M05 A3025 RMK CI2 SLP285

CYQF;2011-10-18 16:00;CYQF 181600Z 18002KT 15SM BKN250 02/M03 A3025 RMK CI1 SLP284

CYQF;2011-10-18 17:00;CYQF 181700Z 20004KT 15SM BKN250 06/M02 A3024 RMK CI2 SLP279

CYQF;2011-10-18 18:00;CYQF 181800Z 17004KT 15SM BKN250 12/M00 A3022 RMK CI2 SLP262

CYQF;2011-10-18 19:00;CYQF 181900Z 18010KT 15SM BKN260 15/M01 A3020 RMK CI2 SLP255

CYQF;2011-10-18 20:00;CYQF 182000Z 16010KT 15SM BKN250 16/M03 A3017 RMK CI2 SLP246

CYQF;2011-10-18 21:00;CYQF 182100Z 19007KT 15SM BKN250 17/M02 A3015 RMK CI2 SLP236

CYQF;2011-10-18 22:00;CYQF 182200Z 16008KT 15SM BKN250 18/M02 A3012 RMK CI1 SLP224

CYQF;2011-10-18 23:00;CYQF 182300Z 17009KT 15SM BKN250 18/M03 A3009 RMK CI2 SLP215

CYQF;2011-10-19 00:00;CYQF 190000Z 17007KT 15SM SCT250 16/M02 A3007 RMK CI1 SLP210

CYQF;2011-10-19 01:00;CYQF 190100Z 16008KT 15SM FEW250 12/M03 A3006 RMK CI1 SLP206

CYQF;2011-10-19 02:00;CYQF 190200Z 16010KT 15SM SKC 09/M03 A3004 RMK SLP199

CYQF;2011-10-19 03:00;CYQF 190300Z 16010KT 15SM SKC 09/M03 A3001 RMK SLP196

CYQF;2011-10-19 04:00;CYQF 190400Z 17012KT 15SM SKC 09/M03 A2999 RMK SLP188

CYQF;2011-10-19 05:00;CYQF 190500Z 16010KT 15SM SKC 07/M03 A2997 RMK SLP182

CYQF;2011-10-19 06:00;CYQF 190600Z 17007KT 15SM SKC 07/M03 A2994 RMK SLP156

CYQF;2011-10-19 07:00;CYQF 190700Z 18010KT 15SM FEW240 06/M03 A2991 RMK CI1 SLP147

CYQF;2011-10-19 08:00;CYQF 190800Z 14005KT 15SM SCT240 04/M03 A2989 RMK CI2 SLP142

CYQF;2011-10-19 09:00;CYQF 190900Z 23002KT 15SM BKN240 02/M04 A2988 RMK CI2 SLP135

CYQF;2011-10-19 10:00;CYQF 191000Z 18004KT 15SM BKN240 00/M04 A2986 RMK CI2 SLP129

CYQF;2011-10-19 11:00;CYQF 191100Z 17003KT 15SM BKN240 01/M04 A2985 RMK CI2 SLP126

CYQF;2011-10-19 12:00;CYQF 191200Z CCA 16002KT 15SM BKN240 00/M04 A2983 RMK CS3 SLP121

CYQF;2011-10-19 13:00;CYQF 191300Z 19003KT 15SM BKN240 M01/M04 A2981 RMK CS3 SLP115

CYQF;2011-10-19 14:00;CYQF 191400Z 00000KT 15SM BKN240 00/M04 A2979 RMK CS3 SLP111

CYQF;2011-10-19 15:00;CYQF 191500Z 26004KT 15SM FEW120 BKN250 M00/M03 A2979 RMK AC1CS3 SLP116

CYQF;2011-10-19 16:00;CYQF 191600Z 21002KT 15SM SCT120 OVC250 02/M02 A2979 RMK AC3CS4 SLP116

CYQF;2011-10-19 17:00;CYQF 191700Z 00000KT 15SM BKN080 OVC250 05/00 A2978 RMK AC5CI2 SLP113

CYQF;2011-10-19 18:00;CYQF 191800Z 29005KT 15SM BKN080 OVC250 10/02 A2977 RMK AC3CI2 SLP100

CYQF;2011-10-19 19:00;CYQF 191900Z 33008KT 15SM SCT080 BKN250 14/02 A2976 RMK AC2CI3 SLP096

CYQF;2011-10-19 20:00;CYQF 192000Z 32008KT 15SM SCT080 OVC250 13/02 A2974 RMK AC2CS4 SLP092

CYQF;2011-10-19 21:00;CYQF 192100Z 35005KT 15SM SCT080 OVC250 14/02 A2972 RMK AC3CS4 SLP086

CYQF;2011-10-19 22:00;CYQF 192200Z 34004KT 15SM SCT080 OVC250 14/02 A2972 RMK AC4CS3 SLP086

CYQF;2011-10-19 23:00;CYQF 192300Z 29004KT 15SM SCT090 BKN250 12/03 A2973 RMK AC3CI3 SLP087

CYQF;2011-10-20 00:00;CYQF 200000Z 28004KT 15SM FEW090 BKN250 11/02 A2972 RMK AC2CI3 OBS TAKEN +10 SLP089

CYQF;2011-10-20 01:00;CYQF 200100Z 28005KT 15SM BKN090 BKN250 07/02 A2972 RMK AC5CI1 SLP089

CYQF;2011-10-20 02:00;CYQF 200200Z 28005KT 15SM SCT090 BKN250 07/01 A2971 RMK AC4CI2 SLP088

CYQF;2011-10-20 03:00;CYQF 200300Z 29005KT 15SM FEW090 SCT250 06/01 A2971 RMK AC2CI1 SLP093

CYQF;2011-10-20 04:00;CYQF 200400Z 21003KT 15SM SKC 02/M01 A2972 RMK SLP096

CYQF;2011-10-20 05:00;CYQF 200500Z 00000KT 15SM FEW120 03/M00 A2972 RMK AC1 SLP096

CYQF;2011-10-20 06:00;CYQF 200600Z 00000KT 15SM FEW120 03/M00 A2972 RMK AC2 SLP089

CYQF;2011-10-20 07:00;CYQF 200700Z 20003KT 15SM FEW120 SCT210 01/M01 A2972 RMK AC1CI0 SLP088

CYQF;2011-10-20 08:00;CYQF 200800Z 19005KT 15SM FEW120 01/M01 A2972 RMK AC1 SLP089

CYQF;2011-10-20 09:00;CYQF 200900Z 00000KT 15SM BKN200 02/M01 A2973 RMK CI3 SLP090

CYQF;2011-10-20 10:00;CYQF 201000Z 34010KT 15SM BKN150 06/02 A2977 RMK AC5 SLP103

CYQF;2011-10-20 11:00;CYQF 201100Z 33010G15KT 15SM OVC100 06/03 A2981 RMK AC8 SLP114

CYQF;2011-10-20 12:00;CYQF 201200Z 33010KT 15SM OVC100 06/02 A2982 RMK AC8 SLP120

CYQF;2011-10-20 13:00;CYQF 201300Z 30007KT 15SM BKN100 04/02 A2985 RMK AC6 SLP129

CYQF;2011-10-20 14:00;CYQF 201400Z 30007KT 15SM FEW040 BKN080 BKN250 04/02 A2987 RMK SC2AC3CI2 SLP134

CYQF;2011-10-20 15:00;CYQF 201500Z 34010KT 15SM SCT040 BKN080 BKN250 06/01 A2989 RMK SC3AC2CI1 SLP149

CYQF;2011-10-20 15:51;CYQF 201551Z 33010KT 15SM -SHRA BKN040 BKN080 BKN250 RMK SC5AC2CI1

CYQF;2011-10-20 16:00;CYQF 201600Z 34010G15KT 15SM -SHRA BKN046 BKN080 BKN250 05/03 A2991 RMK SC6AC1CI1 SLP155

CYQF;2011-10-20 16:25;CYQF 201625Z 34010KT 15SM VCSH BKN045 BKN080 RMK SC6AC2

CYQF;2011-10-20 17:00;CYQF 201700Z 31007KT 15SM -SHRA BKN045 BKN080 05/03 A2993 RMK SC6AC2 SLP160

CYQF;2011-10-20 17:27;CYQF 201727Z 29003KT 15SM VCSH BKN045 BKN080 RMK SC6AC2

CYQF;2011-10-20 18:00;CYQF 201800Z 29002KT 15SM FEW025 BKN045 BKN080 06/02 A2992 RMK SC1SC6AC1 SLP162

CYQF;2011-10-20 19:00;CYQF 201900Z 26004KT 15SM FEW025 BKN045 OVC080 06/02 A2992 RMK SC1SC6AC2 VIRGA SLP162

CYQF;2011-10-20 20:00;CYQF 202000Z 30005KT 15SM BKN025 OVC050 07/02 A2992 RMK SC5SC3 SLP163

CYQF;2011-10-20 20:36;CYQF 202036Z 29010G15KT 15SM -SHRA BKN021 OVC050 RMK SC5SC3

CYQF;2011-10-20 21:00;CYQF 202100Z 28010KT 10SM -SHRA OVC020 04/03 A2995 RMK SC8 SLP175

CYQF;2011-10-20 22:00;CYQF 202200Z 28006KT 10SM -SHRA OVC020 04/03 A2996 RMK SC8 SLP179

CYQF;2011-10-20 23:00;CYQF 202300Z 31008KT 10SM -SHRA FEW007 OVC020 02/02 A2998 RMK SF1SC7 SLP186

CYQF;2011-10-21 00:00;CYQF 210000Z 30005KT 5SM -RA FEW007 OVC015 02/02 A3000 RMK SF2SC6 SLP190

CYQF;2011-10-21 00:46;CYQF 210046Z 00000KT 10SM BKN015 BKN040 RMK SC6SC2

CYQF;2011-10-21 01:00;CYQF 210100Z 00000KT 12SM BKN015 BKN040 02/01 A2999 RMK SC6SC2 SLP188

CYQF;2011-10-21 02:00;CYQF 210200Z 23003KT 15SM BKN050 01/00 A3000 RMK SC5 SLP192

CYQF;2011-10-21 03:00;CYQF 210300Z 23003KT 6SM BR SKC 00/00 A3000 RMK SLP193

CYQF;2011-10-21 03:49;CYQF 210349Z 22003KT 1SM BR SCT090 RMK FG2AC2

CYQF;2011-10-21 04:00;CYQF 210400Z 22006KT 2SM BR FEW002 SCT090 M01/M01 A3000 RMK ST2AC2 SLP193

CYQF;2011-10-21 04:22;CYQF 210422Z 22006KT 1/2SM FZFG SKC RMK FG5

CYQF;2011-10-21 05:00;CYQF 210500Z 21002KT 1/2SM FZFG VV002 M00/M00 A3002 RMK FG8 RIME ON INDICATOR SLP199

CYQF;2011-10-21 06:00;CYQF 210600Z 00000KT 1/4SM FZFG VV002 M00/M00 A3002 RMK FG8 SLP200

CYQF;2011-10-21 07:00;CYQF 210700Z 00000KT 1/4SM FZFG VV001 M01/M01 A3002 RMK FG8 SLP200

CYQF;2011-10-21 08:00;CYQF 210800Z 00000KT 1/4SM FZFG VV001 M02/M02 A3004 RMK FG8 SLP205

CYQF;2011-10-21 09:00;CYQF 210900Z 00000KT 1/4SM FZFG VV001 M02/M03 A3005 RMK FG8 FROIN SLP213

CYQF;2011-10-21 10:00;CYQF 211000Z 24003KT 1/4SM FZFG VV001 M02/M02 A3005 RMK FG8 FROIN SLP214

CYQF;2011-10-21 11:00;CYQF 211100Z 00000KT 1/4SM FZFG VV001 M01/M01 A3005 RMK FG8 FROIN SLP215

CYQF;2011-10-21 12:00;CYQF 211200Z 25006KT 1/4SM FZFG VV001 M01/M01 A3006 RMK FG8 FROIN SLP222

CYQF;2011-10-21 13:00;CYQF 211300Z 15004KT 1/4SM FZFG VV001 M01/M01 A3005 RMK FG8 FROIN SLP219

CYQF;2011-10-21 14:00;CYQF 211400Z 00000KT 1/8SM FZFG VV001 M00/M00 A3005 RMK FG8 SLP217

CYQF;2011-10-21 15:00;CYQF 211500Z 13003KT 1/8SM FZFG VV001 M00/M00 A3004 RMK FG8 SLP215

CYQF;2011-10-21 15:31;CYQF 211531Z 16006KT 1/4SM FZFG VV002 RMK FG8

CYQF;2011-10-21 15:36;CYQF 211536Z 15005KT 1/2SM FZFG VV002 RMK FG8

CYQF;2011-10-21 16:00;CYQF 211600Z CCA 16005KT 1SM BR OVC008 M01/M01 A3003 RMK ST8 SLP212

CYQF;2011-10-21 17:00;CYQF 211700Z 15007KT 1SM BR OVC004 00/00 A3002 RMK ST8 SLP207

CYQF;2011-10-21 17:32;CYQF 211732Z 16010G15KT 2SM BR OVC005 RMK ST7

CYQF;2011-10-21 18:00;CYQF 211800Z 18013KT 2SM BR OVC005 01/01 A3001 RMK ST8 CIG RAG SLP202

CYQF;2011-10-21 19:00;CYQF 211900Z 20012KT 2SM BR OVC005 02/02 A2999 RMK ST8 CIG RAG SLP197

CYQF;2011-10-21 20:00;CYQF 212000Z 18010KT 3SM BR BKN007 04/03 A2996 RMK ST7 CIG RAG SLP186

CYQF;2011-10-21 21:00;CYQF 212100Z 14009KT 3SM BR BKN007 03/02 A2993 RMK ST7 CIG RAG SLP175

CYQF;2011-10-21 21:47;CYQF 212147Z 14008KT 4SM BR SCT008 BKN230 RMK SF4CI1

CYQF;2011-10-21 22:00;CYQF 212200Z 15012KT 4SM BR SCT008 BKN230 04/03 A2990 RMK SF3CI2 SLP165

CYQF;2011-10-21 23:00;CYQF 212300Z 16010KT 6SM BR FEW007 BKN080 OVC230 05/03 A2985 RMK SF2AC4CI1 SLP151

CYQF;2011-10-22 00:00;CYQF 220000Z 15005KT 12SM BKN070 OVC230 05/04 A2982 RMK AC6CI2 BR SLP132

CYQF;2011-10-22 01:00;CYQF 220100Z 15010KT 12SM BKN070 BKN230 06/03 A2977 RMK AC6CI2 SLP117

CYQF;2011-10-22 02:00;CYQF 220200Z 16008KT 15SM SCT070 BKN230 07/01 A2975 RMK AC4CI3 SLP111

CYQF;2011-10-22 03:00;CYQF 220300Z 20009KT 15SM FEW070 BKN230 06/01 A2974 RMK AC2CI3 SLP103

CYQF;2011-10-22 04:00;CYQF 220400Z 23009KT 15SM FEW070 03/M01 A2974 RMK AC2 SLP104

CYQF;2011-10-22 05:00;CYQF 220500Z 22008KT 15SM SKC 02/M01 A2974 RMK SLP103

CYQF;2011-10-22 06:00;CYQF 220600Z 23007KT 15SM SKC 02/M01 A2974 RMK SLP105

CYQF;2011-10-22 07:00;CYQF 220700Z 24007KT 15SM FEW080 01/M01 A2974 RMK AC2 SLP107

CYQF;2011-10-22 08:00;CYQF 220800Z 23008KT 15SM BKN080 02/M01 A2976 RMK AC5 SLP114

CYQF;2011-10-22 09:00;CYQF 220900Z 30008KT 15SM BKN080 03/M00 A2979 RMK AC6 SLP120

CYQF;2011-10-22 10:00;CYQF 221000Z 34010KT 15SM SCT080 06/01 A2985 RMK AC3 SLP140

CYQF;2011-10-22 11:00;CYQF 221100Z 35010KT 15SM FEW080 05/01 A2987 RMK AC2 SLP146

CYQF;2011-10-22 12:00;CYQF 221200Z 22007KT 15SM FEW080 01/M01 A2988 RMK AC2 SLP152

CYQF;2011-10-22 13:00;CYQF 221300Z 23008KT 15SM SCT080 01/M00 A2988 RMK AC4 SLP152

CYQF;2011-10-22 14:00;CYQF 221400Z 00000KT 15SM SCT080 01/M00 A2989 RMK AC3 ACC VIRGA SLP153

CYQF;2011-10-22 15:00;CYQF 221500Z 21008KT 15SM BKN080 BKN250 00/M00 A2990 RMK AC6CI2 ACC VIRGA SLP157

CYQF;2011-10-22 16:00;CYQF 221600Z 20003KT 15SM FEW070 SCT140 BKN250 02/00 A2989 RMK ACC2AC2CI1 SLP156

CYQF;2011-10-22 17:00;CYQF 221700Z 21006KT 15SM FEW070 BKN140 BKN250 03/02 A2989 RMK ACC2AC3CI2 SLP156

CYQF;2011-10-22 18:00;CYQF 221800Z 19003KT 15SM FEW040 BKN100 BKN250 05/02 A2990 RMK SC1AC5CI2 SLP156

CYQF;2011-10-22 19:00;CYQF 221900Z 00000KT 15SM FEW070 BKN120 07/04 A2987 RMK ACC2AC6 SLP149

CYQF;2011-10-22 20:00;CYQF 222000Z 15005KT 15SM FEW070 BKN120 BKN250 08/03 A2985 RMK ACC2AC5CI1 VIRGA SLP141

CYQF;2011-10-22 21:00;CYQF 222100Z 19008KT 15SM BKN060 BKN120 09/02 A2983 RMK CU5AC2 VIRGA SLP127

CYQF;2011-10-22 22:00;CYQF 222200Z 20007KT 15SM FEW060 BKN100 09/01 A2983 RMK CU2AC3 VIRGA SLP126

CYQF;2011-10-22 23:00;CYQF 222300Z 19005KT 15SM FEW060 BKN100 09/01 A2981 RMK SC2AC2 SC3AC3 SLP120

CYQF;2011-10-23 00:00;CYQF 230000Z 00000KT 15SM FEW060 FEW100 09/01 A2980 RMK SC1AC2 VIRGA SLP120

CYQF;2011-10-23 01:00;CYQF 230100Z 00000KT 15SM FEW060 FEW100 05/00 A2980 RMK SC1AC1 VIRGA SLP119

CYQF;2011-10-23 02:00;CYQF 230200Z 20004KT 15SM FEW100 02/M01 A2980 RMK AC1 SLP118

CYQF;2011-10-23 03:00;CYQF 230300Z 20004KT 15SM SKC 00/M02 A2979 RMK SLP128

CYQF;2011-10-23 04:00;CYQF 230400Z 24003KT 15SM FEW100 01/M02 A2977 RMK AC1 SLP122

CYQF;2011-10-23 05:00;CYQF 230500Z 21010KT 15SM FEW100 M01/M02 A2978 RMK AC1 SLP124

CYQF;2011-10-23 06:00;CYQF 230600Z 16003KT 15SM SKC M00/M02 A2976 RMK SLP110

CYQF;2011-10-23 07:00;CYQF 230700Z 22007KT 15SM SKC M01/M03 A2976 RMK SLP110

CYQF;2011-10-23 08:00;CYQF 230800Z 34002KT 15SM FEW080 M01/M03 A2976 RMK AC2 SLP110

CYQF;2011-10-23 09:00;CYQF 230900Z 33012KT 15SM BKN080 01/M02 A2980 RMK AC6 SLP118

CYQF;2011-10-23 10:00;CYQF 231000Z 33014KT 15SM BKN080 05/01 A2983 RMK AC6 SLP129

CYQF;2011-10-23 11:00;CYQF 231100Z 30010KT 15SM BKN080 04/00 A2984 RMK AC6 SLP130

CYQF;2011-10-23 12:00;CYQF 231200Z 29008KT 15SM BKN080 02/00 A2988 RMK AC6 SLP144

CYQF;2011-10-23 13:00;CYQF 231300Z 27008KT 15SM SCT080 00/M01 A2988 RMK AC3 SLP144

CYQF;2011-10-23 14:00;CYQF 231400Z 27004KT 15SM BKN080 00/M01 A2990 RMK AC6 SLP151

CYQF;2011-10-23 15:00;CYQF 231500Z 23005KT 15SM BKN080 M00/M01 A2992 RMK AC6 SLP171

CYQF;2011-10-23 16:00;CYQF 231600Z 25007KT 15SM FEW080 03/00 A2993 RMK AC1 SLP175

CYQF;2011-10-23 17:00;CYQF 231700Z 27008KT 15SM FEW070 06/01 A2994 RMK AC1 SLP177

CYQF;2011-10-23 18:00;CYQF 231800Z 29005KT 15SM FEW070 07/M01 A2995 RMK AC1 SLP173

CYQF;2011-10-23 19:00;CYQF 231900Z 21008KT 15SM FEW070 09/M00 A2994 RMK AC1 SLP172

CYQF;2011-10-23 20:00;CYQF 232000Z 27005KT 15SM FEW048 FEW070 10/M02 A2993 RMK CU1AC1 SLP168

CYQF;2011-10-23 21:00;CYQF 232100Z 25007KT 15SM FEW064 11/M05 A2992 RMK CU1 SLP159

CYQF;2011-10-23 22:00;CYQF 232200Z 00000KT 15SM FEW060 11/M07 A2991 RMK SC1 SLP156

CYQF;2011-10-23 23:00;CYQF 232300Z 16003KT 15SM FEW070 11/M07 A2991 RMK AC2 SLP155

CYQF;2011-10-24 00:00;CYQF 240000Z 00000KT 15SM SCT070 08/M07 A2992 RMK AC3 ACC/VIRGA SLP159

CYQF;2011-10-24 01:00;CYQF 240100Z 00000KT 15SM BKN070 06/M05 A2992 RMK ACC6 VIRGA ALQDS SLP161

CYQF;2011-10-24 02:00;CYQF 240200Z 03007KT 15SM BKN060 07/M05 A2993 RMK CU7 VIRGA ALQDS SLP162

CYQF;2011-10-24 03:00;CYQF 240300Z 24005KT 15SM FEW100 04/M05 A2993 RMK AC1 SLP172

CYQF;2011-10-24 04:00;CYQF 240400Z 27010KT 15SM SKC 03/M07 A2993 RMK SLP172

CYQF;2011-10-24 05:00;CYQF 240500Z 29005KT 15SM SKC 00/M07 A2994 RMK SLP174

CYQF;2011-10-24 06:00;CYQF 240600Z 19005KT 15SM SKC M03/M07 A2994 RMK SLP175

CYQF;2011-10-24 07:00;CYQF 240700Z 21003KT 15SM SKC M04/M07 A2994 RMK SLP175

CYQF;2011-10-24 08:00;CYQF 240800Z 23005KT 15SM SKC M06/M09 A2994 RMK SLP173

CYQF;2011-10-24 09:00;CYQF 240900Z 20005KT 15SM SKC M06/M08 A2994 RMK SLP171

CYQF;2011-10-24 10:00;CYQF 241000Z 20004KT 15SM SKC M07/M09 A2993 RMK SLP169

CYQF;2011-10-24 11:00;CYQF 241100Z 22005KT 15SM SKC M07/M09 A2992 RMK SLP167

CYQF;2011-10-24 12:00;CYQF 241200Z 19003KT 15SM SKC M07/M10 A2992 RMK SLP172

CYQF;2011-10-24 13:00;CYQF 241300Z 19006KT 15SM SKC M08/M10 A2993 RMK SLP173

CYQF;2011-10-24 14:00;CYQF 241400Z 20003KT 15SM FEW100 M07/M10 A2993 RMK AC1 SLP175

CYQF;2011-10-24 15:00;CYQF 241500Z 02003KT 15SM FEW100 M07/M09 A2994 RMK AC1 SLP182

CYQF;2011-10-24 16:00;CYQF 241600Z 00000KT 15SM FEW100 M03/M07 A2995 RMK AC1 SLP185

CYQF;2011-10-24 17:00;CYQF 241700Z 17003KT 15SM FEW100 SCT250 00/M04 A2995 RMK AC1CI1 SLP186

CYQF;2011-10-24 18:00;CYQF 241800Z 00000KT 15SM FEW100 SCT250 03/M04 A2996 RMK AC1CI1 SLP185

CYQF;2011-10-24 19:00;CYQF 241900Z 03002KT 15SM FEW040 FEW100 SCT250 06/M05 A2996 RMK CF1AC1CI1 SLP185

CYQF;2011-10-24 20:00;CYQF 242000Z 00000KT 15SM FEW055 FEW100 SCT250 08/M06 A2995 RMK CU1AC1CI1 CU/AC TR SLP184

CYQF;2011-10-24 21:00;CYQF 242100Z 28008KT 15SM FEW060 FEW100 OVC250 08/M07 A2995 RMK CU1AC1CI1 CU/AC TR SLP181

CYQF;2011-10-24 22:00;CYQF 242200Z 34007KT 15SM FEW060 SCT250 08/M06 A2997 RMK SC1CI2 CU SLP186

CYQF;2011-10-24 23:00;CYQF 242300Z 27002KT 15SM FEW060 SCT250 08/M07 A2998 RMK SC1CI2 CU SLP189

CYQF;2011-10-25 00:00;CYQF 250000Z 21003KT 15SM FEW060 FEW250 06/M04 A2999 RMK SC1CI1 SC TR VIRGA SLP198

CYQF;2011-10-25 01:00;CYQF 250100Z 23005KT 15SM FEW060 FEW250 02/M06 A3001 RMK SC1CI1 SLP203

CYQF;2011-10-25 02:00;CYQF 250200Z 19004KT 15SM FEW250 M01/M05 A3003 RMK CI1 SLP211

CYQF;2011-10-25 03:00;CYQF 250300Z 22004KT 15SM BKN100 M01/M06 A3005 RMK AC6 SLP225

CYQF;2011-10-25 04:00;CYQF 250400Z 22006KT 15SM BKN100 M01/M05 A3006 RMK AC7 SLP229

CYQF;2011-10-25 05:00;CYQF 250500Z 26005KT 15SM BKN090 M00/M05 A3008 RMK AC7 SLP235

CYQF;2011-10-25 05:16;CYQF 250516Z 26008KT 15SM -SN OVC090 RMK AC8

CYQF;2011-10-25 05:42;CYQF 250542Z 24008KT 15SM OVC090 RMK AC8

CYQF;2011-10-25 06:00;CYQF 250600Z 27005KT 15SM OVC090 03/M05 A3009 RMK AC8 SLP226

CYQF;2011-10-25 07:00;CYQF 250700Z 30005KT 15SM OVC090 01/M05 A3011 RMK AC7 SLP230

CYQF;2011-10-25 08:00;CYQF 250800Z 27005KT 15SM OVC090 00/M05 A3012 RMK AC8 SLP235

CYQF;2011-10-25 09:00;CYQF 250900Z 35010KT 15SM BKN090 02/M05 A3014 RMK AC6 SLP236

CYQF;2011-10-25 10:00;CYQF 251000Z 30006KT 15SM FEW090 M01/M06 A3015 RMK AC2 SLP241

CYQF;2011-10-25 11:00;CYQF 251100Z 27008KT 15SM FEW090 M03/M06 A3016 RMK AC2 SLP245

CYQF;2011-10-25 12:00;CYQF 251200Z 26007KT 15SM FEW090 M02/M07 A3017 RMK AC2 SLP255

CYQF;2011-10-25 13:00;CYQF 251300Z 27005KT 15SM FEW090 M03/M07 A3019 RMK AC2 SLP260

CYQF;2011-10-25 14:00;CYQF 251400Z 24005KT 15SM FEW050 SCT080 M03/M06 A3020 RMK SC1AC3 SLP263

CYQF;2011-10-25 15:00;CYQF 251500Z 26006KT 15SM BKN060 BKN080 M01/M04 A3021 RMK SC5AC1 VIRGA SLP275

CYQF;2011-10-25 16:00;CYQF 251600Z 27005KT 15SM VCSH BKN070 01/M03 A3023 RMK ACC6 VIRGA SLP280

CYQF;2011-10-25 17:00;CYQF 251700Z 29006KT 15SM FEW060 BKN080 05/M02 A3024 RMK SC1AC4 VIRGA SLP283

CYQF;2011-10-25 18:00;CYQF 251800Z 27008KT 15SM FEW050 SCT080 05/M04 A3025 RMK CU1ACC2 VIRGA SLP278

CYQF;2011-10-25 19:00;CYQF 251900Z 28010G15KT 15SM FEW043 SCT080 06/M05 A3025 RMK CU2ACC2 VIRGA SLP276

CYQF;2011-10-25 20:00;CYQF 252000Z 32010G15KT 15SM BKN042 06/M04 A3024 RMK CU5 SLP274

CYQF;2011-10-25 21:00;CYQF 252100Z 33008KT 15SM BKN044 06/M05 A3023 RMK CU5 VIRGA SLP269

CYQF;2011-10-25 22:00;CYQF 252200Z 29006KT 15SM BKN045 07/M06 A3022 RMK CU5 VIRGA SLP267

CYQF;2011-10-25 23:00;CYQF 252300Z 34008KT 15SM SCT045 06/M06 A3023 RMK CU3 SLP269

CYQF;2011-10-26 00:00;CYQF 260000Z 00000KT 15SM FEW045 05/M06 A3022 RMK SC1 SLP273

CYQF;2011-10-26 01:00;CYQF 260100Z 00000KT 15SM FEW040 01/M05 A3023 RMK SC1 SLP275

CYQF;2011-10-26 02:00;CYQF 260200Z 18005KT 15SM SKC M02/M06 A3023 RMK SLP277

CYQF;2011-10-26 03:00;CYQF 260300Z 19002KT 15SM SKC M02/M07 A3024 RMK SLP286

CYQF;2011-10-26 04:00;CYQF 260400Z 19007KT 15SM SKC M04/M07 A3024 RMK SLP285

CYQF;2011-10-26 05:00;CYQF 260500Z 20004KT 15SM SKC M06/M08 A3023 RMK SLP282

CYQF;2011-10-26 06:00;CYQF 260600Z 18004KT 15SM SKC M06/M08 A3021 RMK SLP274

CYQF;2011-10-26 07:00;CYQF 260700Z 20004KT 15SM SKC M08/M09 A3020 RMK SLP269

CYQF;2011-10-26 08:00;CYQF 260800Z 18005KT 15SM SKC M06/M08 A3018 RMK SLP264

CYQF;2011-10-26 09:00;CYQF 260900Z 20004KT 15SM SKC M07/M09 A3017 RMK SLP259

CYQF;2011-10-26 10:00;CYQF 261000Z 29006KT 15SM SKC M08/M10 A3014 RMK SLP249

CYQF;2011-10-26 11:00;CYQF 261100Z 18005KT 15SM SKC M08/M10 A3010 RMK SLP239

CYQF;2011-10-26 12:00;CYQF 261200Z 17007KT 15SM SKC M06/M10 A3007 RMK SLP225

CYQF;2011-10-26 13:00;CYQF 261300Z 16005KT 15SM SKC M07/M10 A3002 RMK SLP211

CYQF;2011-10-26 14:00;CYQF 261400Z 17008KT 15SM FEW250 M06/M10 A2999 RMK CI0 SLP200

CYQF;2011-10-26 15:00;CYQF 261500Z 18008KT 15SM OVC250 M05/M10 A2995 RMK CI1 BLLN INDICATES STRONG SOUTH SPEED SHEAR 150FT AGL SLP191

CYQF;2011-10-26 16:00;CYQF 261600Z 18010KT 15SM BKN250 M01/M09 A2991 RMK CI2 SLP179

CYQF;2011-10-26 17:00;CYQF 261700Z 18012KT 15SM BKN250 02/M08 A2986 RMK CI2 SLP163

CYQF;2011-10-26 18:00;CYQF 261800Z 16010G16KT 15SM FEW100 OVC250 05/M07 A2981 RMK AC1CI2 SLP136

CYQF;2011-10-26 19:00;CYQF 261900Z 15012KT 15SM FEW100 OVC250 07/M08 A2976 RMK AC2CI4 SLP119

CYQF;2011-10-26 20:00;CYQF 262000Z 15010KT 15SM FEW100 OVC250 08/M07 A2972 RMK AC2CI4 SLP107

CYQF;2011-10-26 21:00;CYQF 262100Z 15008KT 15SM SCT100 OVC250 08/M07 A2970 RMK AC4CI4 SLP094

CYQF;2011-10-26 22:00;CYQF 262200Z CCA 15003KT 12SM BKN050 BKN100 OVC250 08/M07 A2969 RMK SC5AC2CI1 VIRGA SLP091

CYQF;2011-10-26 23:00;CYQF 262300Z 31004KT 15SM BKN050 BKN100 OVC250 08/M05 A2971 RMK SC5AC2CI1 SLP097

CYQF;2011-10-27 00:00;CYQF 270000Z 35010KT 15SM SCT050 BKN100 BKN250 07/M08 A2971 RMK SC4AC2CI1 SLP100

CYQF;2011-10-27 01:00;CYQF 270100Z 34005KT 15SM FEW050 BKN100 BKN250 04/M07 A2972 RMK SC2AC5CI1 SLP102

CYQF;2011-10-27 02:00;CYQF 270200Z 36004KT 15SM BKN080 BKN250 04/M07 A2974 RMK AC5CI2 SLP107

CYQF;2011-10-27 03:00;CYQF 270300Z 26002KT 15SM BKN080 BKN250 01/M06 A2974 RMK AC5CI1 SLP114

CYQF;2011-10-27 04:00;CYQF 270400Z 24005KT 15SM SCT100 M00/M07 A2975 RMK AC2 SLP118

CYQF;2011-10-27 05:00;CYQF 270500Z 22003KT 15SM FEW090 M00/M07 A2977 RMK AC2 SLP125

CYQF;2011-10-27 06:00;CYQF 270600Z 28006KT 15SM FEW090 00/M08 A2978 RMK AC2 SLP119

CYQF;2011-10-27 07:00;CYQF 270700Z 28008KT 15SM SCT080 00/M08 A2981 RMK AC4 SLP126

CYQF;2011-10-27 08:00;CYQF 270800Z 29005KT 15SM FEW080 SCT250 00/M08 A2984 RMK AC2CI0 SLP135

CYQF;2011-10-27 09:00;CYQF 270900Z 22007KT 15SM FEW080 M05/M09 A2985 RMK AC2 SLP142

CYQF;2011-10-27 10:00;CYQF 271000Z 22008KT 15SM SKC M05/M09 A2985 RMK SLP142

CYQF;2011-10-27 11:00;CYQF 271100Z 22008KT 15SM SKC M05/M09 A2985 RMK SLP144

CYQF;2011-10-27 12:00;CYQF 271200Z 21007KT 15SM SKC M07/M10 A2987 RMK SLP154

CYQF;2011-10-27 13:00;CYQF 271300Z 22008KT 15SM SKC M06/M10 A2988 RMK SLP158

CYQF;2011-10-27 14:00;CYQF 271400Z 22008KT 15SM FEW070 M06/M11 A2989 RMK AC1 SLP160

CYQF;2011-10-27 15:00;CYQF 271500Z 22005KT 15SM FEW070 M06/M10 A2991 RMK AC1 SLP175

CYQF;2011-10-27 16:00;CYQF 271600Z 18005KT 15SM FEW100 M02/M09 A2993 RMK AC1 SLP180

CYQF;2011-10-27 17:00;CYQF 271700Z 25008KT 15SM FEW100 04/M09 A2995 RMK AC2 SLP186

CYQF;2011-10-27 18:00;CYQF 271800Z 25010KT 15SM FEW100 06/M09 A2995 RMK AC1 SLP174

CYQF;2011-10-27 19:00;CYQF 271900Z 27013G21KT 15SM FEW100 FEW250 08/M11 A2995 RMK AC1CI0 SLP173

CYQF;2011-10-27 20:00;CYQF 272000Z 29012G20KT 15SM FEW070 SCT250 09/M13 A2995 RMK CU2CI0 SLP174

CYQF;2011-10-27 21:00;CYQF 272100Z 31010G15KT 15SM FEW060 SCT250 09/M13 A2995 RMK SC2CI0 SLP180

CYQF;2011-10-27 22:00;CYQF 272200Z 30010KT 15SM FEW080 09/M13 A2996 RMK AC1 SLP183

CYQF;2011-10-27 23:00;CYQF 272300Z 30010G15KT 15SM FEW080 08/M13 A2998 RMK AC1 SLP187

CYQF;2011-10-28 00:00;CYQF 280000Z 28004KT 15SM FEW080 05/M12 A2999 RMK AC1 SLP198

CYQF;2011-10-28 01:00;CYQF 280100Z 25006KT 15SM FEW080 M00/M12 A3001 RMK AC1 SLP203

CYQF;2011-10-28 02:00;CYQF 280200Z 24005KT 15SM SKC M01/M12 A3003 RMK SLP211

CYQF;2011-10-28 03:00;CYQF 280300Z 24006KT 15SM SKC M01/M11 A3005 RMK SLP224

CYQF;2011-10-28 04:00;CYQF 280400Z 28006KT 15SM SKC M01/M11 A3006 RMK SLP229

CYQF;2011-10-28 05:00;CYQF 280500Z 19003KT 15SM SKC M04/M11 A3007 RMK SLP232

CYQF;2011-10-28 06:00;CYQF 280600Z 21005KT 15SM SKC M05/M11 A3007 RMK SLP225

CYQF;2011-10-28 07:00;CYQF 280700Z 20005KT 15SM SKC M07/M11 A3008 RMK SLP228

CYQF;2011-10-28 08:00;CYQF 280800Z 21007KT 15SM SKC M08/M12 A3007 RMK SLP225

CYQF;2011-10-28 09:00;CYQF 280900Z 18004KT 15SM SKC M07/M11 A3005 RMK SLP217

CYQF;2011-10-28 10:00;CYQF 281000Z 00000KT 15SM SKC M08/M12 A3004 RMK SLP212

CYQF;2011-10-28 11:00;CYQF 281100Z 18005KT 15SM SKC M07/M11 A3002 RMK SLP207

CYQF;2011-10-28 12:00;CYQF 281200Z 15005KT 15SM SKC M05/M11 A2998 RMK SLP193

CYQF;2011-10-28 13:00;CYQF 281300Z 16010KT 15SM SKC M05/M11 A2994 RMK SLP179

CYQF;2011-10-28 14:00;CYQF 281400Z 16008KT 15SM FEW120 SCT220 M04/M10 A2990 RMK AC2CI1 SLP167

CYQF;2011-10-28 15:00;CYQF 281500Z 15008KT 15SM BKN100 OVC230 M02/M10 A2984 RMK AC5CI2 VIRGA SLP149

CYQF;2011-10-28 16:00;CYQF 281600Z 17010G15KT 15SM BKN090 OVC230 01/M10 A2983 RMK AC6CI2 VIRGA SLP144

CYQF;2011-10-28 17:00;CYQF 281700Z 16010G15KT 15SM BKN090 OVC230 02/M10 A2979 RMK AC6CI2 SLP133

CYQF;2011-10-28 18:00;CYQF 281800Z 15010KT 15SM BKN090 OVC250 03/M09 A2975 RMK AC6CI2 SLP116

CYQF;2011-10-28 19:00;CYQF 281900Z 18008KT 15SM BKN090 BKN250 07/M08 A2972 RMK AC5CI1 SLP106

CYQF;2011-10-28 20:00;CYQF 282000Z 18005KT 15SM BKN090 BKN250 10/M07 A2969 RMK AC5CI2 SLP096

CYQF;2011-10-28 21:00;CYQF 282100Z 20005KT 15SM BKN090 OVC260 09/M06 A2965 RMK AC5CI2 SLP076

CYQF;2011-10-28 22:00;CYQF 282200Z 19006KT 15SM BKN100 OVC250 08/M06 A2962 RMK AC5CI2 SLP066

CYQF;2011-10-28 23:00;CYQF 282300Z 18007KT 15SM BKN100 OVC250 08/M05 A2958 RMK AC7CI0 SLP056

CYQF;2011-10-29 00:00;CYQF 290000Z 17007KT 15SM BKN100 BKN250 07/M05 A2955 RMK AC6CI1 SLP040

CYQF;2011-10-29 01:00;CYQF 290100Z 18006KT 15SM BKN100 06/M04 A2953 RMK AC7 SLP033

CYQF;2011-10-29 02:00;CYQF 290200Z 18005KT 15SM BKN100 06/M04 A2950 RMK AC7 SLP026

CYQF;2011-10-29 03:00;CYQF 290300Z 20006KT 15SM BKN100 06/M04 A2949 RMK AC7 SLP019

CYQF;2011-10-29 04:00;CYQF 290400Z 23005KT 15SM OVC100 05/M04 A2948 RMK AC8 SLP017

CYQF;2011-10-29 05:00;CYQF 290500Z 23007KT 15SM OVC100 04/M04 A2949 RMK AC8 SLP018

CYQF;2011-10-29 06:00;CYQF 290600Z 32008KT 15SM BKN100 04/M04 A2952 RMK AC5 SLP025

CYQF;2011-10-29 07:00;CYQF 290700Z 35003KT 15SM BKN100 03/M03 A2954 RMK AC6 SLP031

CYQF;2011-10-29 08:00;CYQF 290800Z 32008KT 15SM FEW050 OVC100 06/M01 A2956 RMK SC2AC6 SLP037

CYQF;2011-10-29 09:00;CYQF 290900Z 29010KT 15SM SCT050 OVC100 05/M00 A2959 RMK SC3AC5 VIRGA SLP040

CYQF;2011-10-29 10:00;CYQF 291000Z 33010G18KT 15SM FEW050 OVC100 05/M02 A2963 RMK SC2AC6 SLP053

CYQF;2011-10-29 11:00;CYQF 291100Z 30010KT 15SM FEW100 SCT250 03/M03 A2965 RMK AC2CI0 SLP060

CYQF;2011-10-29 12:00;CYQF 291200Z 30007KT 15SM FEW100 FEW250 01/M04 A2970 RMK AC1CI1 SLP086

CYQF;2011-10-29 13:00;CYQF 291300Z 26006KT 15SM FEW100 SCT250 M02/M05 A2974 RMK AC2CI1 SLP097

CYQF;2011-10-29 14:00;CYQF 291400Z 30008KT 15SM FEW070 M02/M05 A2976 RMK AC1 SLP106

CYQF;2011-10-29 15:00;CYQF 291500Z 25007KT 15SM SKC M02/M04 A2979 RMK SLP124

CYQF;2011-10-29 16:00;CYQF 291600Z 25008KT 15SM FEW090 02/M02 A2983 RMK AC1 SLP134

CYQF;2011-10-29 17:00;CYQF 291700Z 28006KT 15SM FEW090 05/M03 A2984 RMK AC1 SLP139

CYQF;2011-10-29 18:00;CYQF 291800Z 28010KT 15SM SKC 08/M06 A2986 RMK SLP137

CYQF;2011-10-29 19:00;CYQF 291900Z 30010KT 15SM FEW040 10/M08 A2987 RMK CU1 SLP140

CYQF;2011-10-29 20:00;CYQF 292000Z 31015G25KT 15SM FEW040 10/M10 A2988 RMK CU1 SLP144

CYQF;2011-10-29 21:00;CYQF 292100Z 33012G20KT 15SM FEW070 FEW250 10/M10 A2989 RMK AC1CI1 SLP143

CYQF;2011-10-29 22:00;CYQF 292200Z 32010G15KT 15SM FEW070 BKN250 09/M09 A2990 RMK AC1CI2 SLP146

CYQF;2011-10-29 23:00;CYQF 292300Z 34010G15KT 15SM FEW070 SCT250 09/M09 A2990 RMK AC1CI1 SLP148

CYQF;2011-10-30 00:00;CYQF 300000Z 04005KT 15SM FEW090 BKN250 07/M08 A2993 RMK AC1CI2 SLP167

CYQF;2011-10-30 01:00;CYQF 300100Z 00000KT 15SM SCT090 BKN250 02/M08 A2994 RMK AC3CI2 SLP169

CYQF;2011-10-30 02:00;CYQF 300200Z 00000KT 15SM FEW090 BKN250 01/M08 A2995 RMK AC2CI2 SLP173

CYQF;2011-10-30 03:00;CYQF 300300Z 18003KT 15SM SCT250 M02/M09 A2995 RMK CI2 SLP188

CYQF;2011-10-30 04:00;CYQF 300400Z 22005KT 15SM SKC M03/M09 A2996 RMK SLP191

CYQF;2011-10-30 05:00;CYQF 300500Z 18005KT 15SM SKC M03/M09 A2995 RMK SLP188

CYQF;2011-10-30 06:00;CYQF 300600Z 18006KT 15SM SKC M04/M09 A2995 RMK SLP177

CYQF;2011-10-30 07:00;CYQF 300700Z 19005KT 15SM SKC M04/M09 A2994 RMK SLP175

CYQF;2011-10-30 08:00;CYQF 300800Z 19004KT 15SM SKC M04/M09 A2993 RMK SLP172

CYQF;2011-10-30 09:00;CYQF 300900Z 18006KT 15SM FEW250 M05/M10 A2993 RMK CI2 SLP168

CYQF;2011-10-30 10:00;CYQF 301000Z 17005KT 15SM SCT250 M04/M08 A2990 RMK CI2 SLP160

CYQF;2011-10-30 11:00;CYQF 301100Z 21003KT 15SM FEW100 BKN250 M03/M08 A2988 RMK AC1CI2 SLP153

CYQF;2011-10-30 12:00;CYQF 301200Z 16005KT 15SM FEW100 BKN250 M01/M07 A2982 RMK AC2CI3 SLP132

CYQF;2011-10-30 13:00;CYQF 301300Z 15003KT 15SM SCT100 OVC250 M00/M07 A2979 RMK AC4CI3 SLP122

CYQF;2011-10-30 14:00;CYQF 301400Z 13005KT 15SM BKN100 OVC250 00/M07 A2975 RMK AC6CI2 SLP110

CYQF;2011-10-30 15:00;CYQF 301500Z 13008KT 15SM FEW050 SCT100 BKN220 00/M07 A2974 RMK SC1AC3CI2 SLP112

CYQF;2011-10-30 16:00;CYQF 301600Z 00000KT 15SM FEW050 BKN100 OVC220 02/M06 A2972 RMK SC2AC3CI2 SLP105

CYQF;2011-10-30 17:00;CYQF 301700Z 18004KT 15SM FEW050 FEW100 BKN220 04/M05 A2970 RMK SC1AC2CI2 SLP098

CYQF;2011-10-30 18:00;CYQF 301800Z 00000KT 15SM FEW050 FEW100 BKN220 09/M04 A2968 RMK CU1AC1CI2 SLP083

CYQF;2011-10-30 19:00;CYQF 301900Z 24004KT 15SM FEW050 FEW120 SCT230 10/M03 A2967 RMK CU1AC1CI1 SLP079

CYQF;2011-10-30 20:00;CYQF 302000Z 27003KT 15SM FEW050 FEW120 14/M02 A2965 RMK CU1AC1 SLP072

CYQF;2011-10-30 21:00;CYQF 302100Z 00000KT 15SM FEW050 FEW120 15/M01 A2964 RMK CU1AC1 SLP062

CYQF;2011-10-30 22:00;CYQF 302200Z 00000KT 15SM FEW060 FEW120 16/M01 A2962 RMK CU1AC1 SLP057

CYQF;2011-10-30 23:00;CYQF 302300Z 00000KT 15SM FEW060 FEW120 16/M01 A2961 RMK CU1AC1 SLP055

CYQF;2011-10-31 00:00;CYQF 310000Z 24005KT 15SM FEW060 FEW120 SCT250 11/M01 A2962 RMK CU1AC1CI0 TR CU SLP057

CYQF;2011-10-31 01:00;CYQF 310100Z 27010KT 15SM FEW040 FEW120 FEW250 08/M03 A2963 RMK SC1AC1CI0 TR SC SLP061

CYQF;2011-10-31 02:00;CYQF 310200Z 29010G15KT 15SM FEW120 FEW250 08/M04 A2964 RMK AC1CI0 SLP063

CYQF;2011-10-31 03:00;CYQF 310300Z 29015G20KT 15SM FEW250 09/M04 A2965 RMK CI0 SLP068

CYQF;2011-10-31 04:00;CYQF 310400Z 32012KT 15SM BKN060 08/M03 A2967 RMK SC6 SLP075

CYQF;2011-10-31 05:00;CYQF 310500Z 01010KT 15SM OVC060 07/M00 A2970 RMK SC8 SLP084

CYQF;2011-10-31 06:00;CYQF 310600Z 36007KT 15SM OVC060 07/M00 A2974 RMK SC8 SLP090

CYQF;2011-10-31 07:00;CYQF 310700Z 33004KT 15SM OVC060 05/M01 A2975 RMK SC8 SLP095

CYQF;2011-10-31 08:00;CYQF 310800Z 30004KT 15SM OVC070 05/M01 A2976 RMK AC8 SLP098

CYQF;2011-10-31 09:00;CYQF 310900Z 22003KT 15SM OVC070 04/M01 A2977 RMK AC8 SLP097

CYQF;2011-10-31 10:00;CYQF 311000Z 29003KT 15SM OVC070 03/M01 A2977 RMK AC8 SLP097

CYQF;2011-10-31 11:00;CYQF 311100Z 26004KT 15SM OVC070 04/M03 A2977 RMK AC8 SLP099

CYQF;2011-10-31 12:00;CYQF 311200Z 18004KT 15SM OVC080 02/M03 A2977 RMK AC8 SLP105

CYQF;2011-10-31 13:00;CYQF 311300Z 23007KT 15SM OVC080 01/M03 A2978 RMK AC8 SLP109

CYQF;2011-10-31 14:00;CYQF 311400Z 23007KT 15SM BKN090 OVC250 01/M01 A2980 RMK AC6CI2 SLP113

CYQF;2011-10-31 15:00;CYQF 311500Z 23008KT 15SM FEW030 BKN090 BKN250 01/M01 A2981 RMK SC2AC2CI1 VIRGA SH SW-NW SLP122

CYQF;2011-10-31 16:00;CYQF 311600Z 28008KT 15SM BKN015 BKN030 02/M00 A2984 RMK SC5SC2 VIRGA ALQDS SLP132

CYQF;2011-10-31 16:02;CYQF 311602Z 28006KT 15SM -SHSN BKN015 OVC030 RMK SC5SC3

CYQF;2011-10-31 16:17;CYQF 311617Z 21009KT 15SM VCSH FEW030 BKN090 RMK SC1AC6

CYQF;2011-10-31 17:00;CYQF 311700Z 21006KT 15SM SCT018TCU BKN090 04/M01 A2982 RMK TCU3AC2 VIRGA E-SE SLP125

CYQF;2011-10-31 17:41;CYQF 311741Z 24013KT 15SM -SHGS BKN020TCU BKN090 RMK TCU5AC2

CYQF;2011-10-31 18:00;CYQF 311800Z 23012G17KT 15SM VCSH BKN020TCU BKN090 03/00 A2984 RMK TCU5AC2 SLP131

CYQF;2011-10-31 19:00;CYQF 311900Z 22015G20KT 15SM FEW028TCU BKN090 07/00 A2984 RMK TCU1AC2 SLP131

CYQF;2011-10-31 20:00;CYQF 312000Z 24010KT 15SM FEW034 FEW090 08/M01 A2983 RMK CU1AC1 CU TR SLP128

CYQF;2011-10-31 21:00;CYQF 312100Z 32010G15KT 15SM BKN035TCU BKN090 08/M10 A2983 RMK TCU6AC1 VIRGA/SHRA E-S-SW SLP125

CYQF;2011-10-31 22:00;CYQF 312200Z 27010G15KT 15SM BKN060CB BKN100 08/M07 A2983 RMK CB6AC1 VIRGA/SH ALQDS SLP127

CYQF;2011-10-31 23:00;CYQF 312300Z 24010G15KT 15SM VCSH SCT060TCU SCT100 BKN250 08/M08 A2984 RMK TCU3AC1CI2 SLP128

CYQF;2011-11-01 01:00;CYQF 010100Z 27010G15KT 15SM BKN060TCU BKN100 05/M05 A2991 RMK TCU5AC2 VIRGA SLP155

CYQF;2011-11-01 02:00;CYQF 010200Z 29010G15KT 15SM SCT250 03/M07 A2993 RMK CI2 SLP161

CYQF;2011-11-01 03:00;CYQF 010300Z 30008KT 15SM SKC 01/M07 A2995 RMK SLP180

CYQF;2011-11-01 04:00;CYQF 010400Z 29005KT 15SM SKC M03/M08 A2998 RMK SLP191

CYQF;2011-11-01 05:00;CYQF 010500Z 29004KT 15SM SKC M03/M09 A3000 RMK SLP197

CYQF;2011-11-01 06:00;CYQF 010600Z 28007KT 15SM SKC M06/M11 A3002 RMK SLP208

CYQF;2011-11-01 07:00;CYQF 010700Z 25007KT 15SM SKC M04/M09 A3003 RMK SLP213

CYQF;2011-11-01 08:00;CYQF 010800Z 29007KT 15SM SCT080 M01/M08 A3005 RMK AC3 SLP220

CYQF;2011-11-01 09:00;CYQF 010900Z 29008KT 15SM FEW080 M02/M09 A3006 RMK AC2 SLP215

CYQF;2011-11-01 10:00;CYQF 011000Z 28008KT 15SM SCT080 BKN250 M01/M08 A3009 RMK AC3CI0 SLP222

CYQF;2011-11-01 11:00;CYQF 011100Z 30008KT 15SM FEW080 SCT250 M02/M09 A3010 RMK AC2CI1 SLP226

CYQF;2011-11-01 12:00;CYQF 011200Z 31008KT 15SM SCT080 BKN250 M01/M07 A3013 RMK AC3CI1 SLP239

CYQF;2011-11-01 13:00;CYQF 011300Z 29006KT 15SM SCT250 M03/M07 A3015 RMK CI1 SLP245

CYQF;2011-11-01 14:00;CYQF 011400Z 27008KT 15SM FEW080 FEW250 M03/M07 A3017 RMK AC1CI1 AC TR SLP251

CYQF;2011-11-01 15:00;CYQF 011500Z 27010KT 15SM FEW080 FEW250 M04/M06 A3019 RMK AC1CI1 SLP268

CYQF;2011-11-01 16:00;CYQF 011600Z 27008KT 15SM SKC M02/M05 A3020 RMK SLP273

CYQF;2011-11-01 17:00;CYQF 011700Z 28006KT 15SM SKC 01/M05 A3021 RMK SLP274

CYQF;2011-11-01 18:00;CYQF 011800Z 31010KT 15SM SKC 03/M06 A3022 RMK SLP278

CYQF;2011-11-01 19:00;CYQF 011900Z 31010KT 15SM SKC 04/M07 A3021 RMK SLP275

CYQF;2011-11-01 20:00;CYQF 012000Z 28010KT 15SM SKC 05/M08 A3020 RMK SLP274

CYQF;2011-11-01 21:00;CYQF 012100Z 25010G15KT 15SM SKC 06/M09 A3019 RMK SLP263

CYQF;2011-11-01 22:00;CYQF 012200Z 25005KT 15SM SKC 06/M10 A3018 RMK SLP259

CYQF;2011-11-01 23:00;CYQF 012300Z 24002KT 15SM FEW250 06/M10 A3017 RMK CI1 SLP257

CYQF;2011-11-02 00:00;CYQF 020000Z 19005KT 15SM FEW250 02/M10 A3017 RMK CI1 SLP258

CYQF;2011-11-02 01:00;CYQF 020100Z 18006KT 15SM FEW250 M02/M10 A3017 RMK CI1 SLP257

CYQF;2011-11-02 02:00;CYQF 020200Z 19005KT 15SM SKC M04/M11 A3016 RMK SLP255

CYQF;2011-11-02 03:00;CYQF 020300Z 18005KT 15SM SKC M05/M11 A3014 RMK SLP260

CYQF;2011-11-02 04:00;CYQF 020400Z 20005KT 15SM SKC M07/M12 A3014 RMK SLP259

CYQF;2011-11-02 05:00;CYQF 020500Z 19003KT 15SM SKC M06/M11 A3013 RMK SLP255

CYQF;2011-11-02 06:00;CYQF 020600Z 18006KT 15SM SKC M07/M12 A3011 RMK SLP241

CYQF;2011-11-02 07:00;CYQF 020700Z 20005KT 15SM SKC M06/M12 A3009 RMK SLP237

CYQF;2011-11-02 08:00;CYQF 020800Z 20004KT 15SM SKC M07/M11 A3007 RMK SLP230

CYQF;2011-11-02 09:00;CYQF 020900Z 18003KT 15SM BKN250 M06/M11 A3005 RMK CI2 SLP219

CYQF;2011-11-02 10:00;CYQF 021000Z 18005KT 15SM SCT250 M06/M11 A3005 RMK CI1 SLP217

CYQF;2011-11-02 11:00;CYQF 021100Z 19003KT 15SM SKC M06/M11 A3003 RMK SLP210

CYQF;2011-11-02 12:00;CYQF 021200Z 19002KT 15SM FEW250 M05/M11 A3000 RMK CI1 SLP204

CYQF;2011-11-02 13:00;CYQF 021300Z 20005KT 15SM FEW250 M05/M10 A2998 RMK CI1 SLP197

CYQF;2011-11-02 14:00;CYQF 021400Z 19006KT 15SM BKN250 M04/M10 A2996 RMK CI1 SLP190

CYQF;2011-11-02 15:00;CYQF 021500Z 18004KT 15SM FEW100 OVC250 M04/M09 A2994 RMK AC2CI4 SLP188

CYQF;2011-11-02 16:00;CYQF 021600Z 18005KT 15SM FEW100 OVC250 M01/M08 A2992 RMK AC2CI6 SLP182

CYQF;2011-11-02 17:00;CYQF 021700Z 16006KT 15SM FEW100 OVC250 02/M06 A2989 RMK AS2CS6 SLP175

CYQF;2011-11-02 18:00;CYQF 021800Z 16008KT 15SM BKN100 OVC250 05/M06 A2987 RMK AS3CS5 SLP156

CYQF;2011-11-02 19:00;CYQF 021900Z 16005KT 15SM BKN100 OVC250 06/M06 A2985 RMK AS6CS2 SLP149

CYQF;2011-11-02 20:00;CYQF 022000Z 20008KT 15SM BKN100 BKN250 06/M08 A2982 RMK AS6CS2 SLP140

CYQF;2011-11-02 21:00;CYQF 022100Z 20010G15KT 15SM BKN100 BKN250 06/M10 A2979 RMK AC6CI2 SLP128

CYQF;2011-11-02 22:00;CYQF 022200Z 14006KT 15SM BKN120 BKN250 06/M12 A2976 RMK AC6CI2 SLP119

CYQF;2011-11-02 23:00;CYQF 022300Z 16008KT 15SM BKN120 BKN250 06/M12 A2973 RMK AC5CI2 SLP107

CYQF;2011-11-03 00:00;CYQF 030000Z 20010G15KT 15SM BKN120 BKN250 08/M14 A2970 RMK AC5CI2 SLP092

CYQF;2011-11-03 01:00;CYQF 030100Z 20010G15KT 15SM SCT120 BKN250 08/M15 A2968 RMK AC3CI2 SLP086

CYQF;2011-11-03 02:00;CYQF 030200Z 18010KT 15SM OVC150 08/M16 A2966 RMK AC6 SLP080

CYQF;2011-11-03 03:00;CYQF 030300Z 18010G15KT 15SM BKN150 06/M14 A2963 RMK AC5 SLP069

CYQF;2011-11-03 04:00;CYQF 030400Z 18010KT 15SM BKN150 05/M15 A2962 RMK AC3 SLP065

CYQF;2011-11-03 05:00;CYQF 030500Z 18014KT 15SM BKN200 03/M14 A2960 RMK CI3 SLP059

CYQF;2011-11-03 06:00;CYQF 030600Z 17008KT 15SM BKN200 03/M15 A2959 RMK CI3 SLP050

CYQF;2011-11-03 07:00;CYQF 030700Z 18012KT 15SM BKN200 01/M14 A2957 RMK CI4 SLP044

CYQF;2011-11-03 08:00;CYQF 030800Z 18010KT 15SM BKN200 M00/M14 A2957 RMK CI2 SLP043

CYQF;2011-11-03 09:00;CYQF 030900Z 17005KT 15SM SCT200 00/M15 A2957 RMK CI2 SLP045

CYQF;2011-11-03 10:00;CYQF 031000Z 04004KT 15SM BKN200 01/M14 A2958 RMK CI3 SLP046

CYQF;2011-11-03 11:00;CYQF 031100Z 26006KT 15SM SCT200 M00/M12 A2958 RMK CI2 SLP047

CYQF;2011-11-03 12:00;CYQF 031200Z 22003KT 15SM BKN200 M03/M12 A2961 RMK CI3 SLP059

CYQF;2011-11-03 13:00;CYQF 031300Z 21003KT 15SM BKN200 M04/M11 A2962 RMK CI2 SLP062

CYQF;2011-11-03 14:00;CYQF 031400Z 17002KT 15SM BKN200 M04/M10 A2964 RMK CI6 SLP067

CYQF;2011-11-03 15:00;CYQF 031500Z 15007KT 15SM FEW100 BKN200 M02/M10 A2964 RMK AC2CI3 SLP071

CYQF;2011-11-03 16:00;CYQF 031600Z 24003KT 15SM FEW100 BKN200 M02/M09 A2966 RMK AC2CI2 SLP075

CYQF;2011-11-03 17:00;CYQF 031700Z 03004KT 15SM FEW100 BKN200 06/M09 A2966 RMK AC2CI2 SLP075

CYQF;2011-11-03 18:00;CYQF 031800Z 04008KT 15SM FEW100 BKN200 08/M09 A2966 RMK AC2CI2 CC SLP069

CYQF;2011-11-03 19:00;CYQF 031900Z 03007KT 15SM BKN100 BKN200 08/M09 A2966 RMK AC6CI2 CC SLP070

CYQF;2011-11-03 20:00;CYQF 032000Z 04010KT 15SM BKN100 BKN200 07/M09 A2967 RMK AC6CI2 SLP073

CYQF;2011-11-03 21:00;CYQF 032100Z 36010G15KT 15SM BKN100 OVC200 07/M08 A2967 RMK AC6CI2 SLP079

CYQF;2011-11-03 22:00;CYQF 032200Z 36010G15KT 15SM BKN100 OVC200 07/M08 A2968 RMK AC6CI2 VIRGA SLP082

CYQF;2011-11-03 23:00;CYQF 032300Z 03006KT 15SM BKN100 BKN200 06/M07 A2970 RMK AC6CI2 SLP087

CYQF;2011-11-04 00:00;CYQF 040000Z 36010KT 15SM SCT100 OVC250 05/M07 A2972 RMK AS2CI5 SLP099

CYQF;2011-11-04 01:00;CYQF 040100Z 36010KT 15SM OVC080 04/M06 A2974 RMK AS8 SLP107

CYQF;2011-11-04 02:00;CYQF 040200Z 36010G15KT 15SM OVC060 03/M05 A2975 RMK SC8 MOON DMLY VIS SLP109

CYQF;2011-11-04 02:49;CYQF 040249Z 34015G20KT 15SM -SN OVC020 RMK SC8

CYQF;2011-11-04 03:00;CYQF 040300Z 34010G18KT 15SM -SN OVC020 02/M03 A2977 RMK SC8 SLP122

CYQF;2011-11-04 04:00;CYQF 040400Z 01015G22KT 6SM -SN OVC020 M00/M02 A2979 RMK SC8 SLP126

CYQF;2011-11-04 04:16;CYQF 040416Z 36015G20KT 2SM -SN VV018 RMK SN8

CYQF;2011-11-04 04:35;CYQF 040435Z 36013G20KT 1SM -SN VV012 RMK SN8

CYQF;2011-11-04 05:00;CYQF 040500Z 36015G20KT 1SM -SN VV012 M02/M03 A2981 RMK SN8 SLP133

CYQF;2011-11-04 05:35;CYQF 040535Z 02012KT 4SM -SN FEW007 OVC012 RMK SF2SC6

CYQF;2011-11-04 06:00;CYQF 040600Z 01014KT 6SM -SN FEW007 OVC012 M02/M03 A2981 RMK SF2SC6 SLP128

CYQF;2011-11-04 07:00;CYQF 040700Z 01012KT 3SM -SN FEW006 OVC011 M03/M05 A2984 RMK SF2SC6 SLP137

CYQF;2011-11-04 08:00;CYQF 040800Z 01014KT 3SM -SN OVC012 M05/M06 A2986 RMK SN2SC6 SLP142

CYQF;2011-11-04 08:25;CYQF 040825Z 34010KT 1 1/2SM -SN VV010 RMK SN8

CYQF;2011-11-04 09:00;CYQF 040900Z 33013KT 2SM -SN VV011 M06/M07 A2988 RMK SN8 SLP156

CYQF;2011-11-04 09:11;CYQF 040911Z 33012KT 10SM -SN OVC013 RMK SC8

CYQF;2011-11-04 10:00;CYQF 041000Z 33013KT 3SM -SN OVC012 M07/M09 A2988 RMK SN2SC6 SLP156

CYQF;2011-11-04 11:00;CYQF 041100Z 34010KT 10SM -SN OVC014 M08/M10 A2987 RMK SC8 SLP154

CYQF;2011-11-04 12:00;CYQF 041200Z 34008KT 6SM -SN OVC014 M08/M10 A2988 RMK SC8 /S01/ SLP163

CYQF;2011-11-04 13:00;CYQF 041300Z 34008KT 6SM -SN FEW010 OVC020 M08/M10 A2989 RMK SF2SC6 SLP164

CYQF;2011-11-04 14:00;CYQF 041400Z 35006KT 4SM -SN FEW010 OVC020 M08/M11 A2987 RMK SF2SC6 SLP159

CYQF;2011-11-04 14:41;CYQF 041441Z 35005KT 2SM -SN SCT010 OVC020 RMK SN2SF2SC5

CYQF;2011-11-04 15:00;CYQF 041500Z 34004KT 2SM -SN SCT010 OVC020 M09/M10 A2988 RMK SN2SF2SC5 /S01/ SLP166

CYQF;2011-11-04 16:00;CYQF 041600Z 35003KT 2SM -SN SCT010 OVC020 M09/M10 A2987 RMK SN2SF2SC5 SLP164

CYQF;2011-11-04 17:00;CYQF 041700Z 00000KT 5SM -SN FEW010 SCT020 OVC090 M08/M10 A2985 RMK SF2SC2AS3 /S02/ SLP156

CYQF;2011-11-04 18:00;CYQF 041800Z 35002KT 6SM -SN SCT015 OVC090 M08/M10 A2984 RMK SC3AC4 SLP154

CYQF;2011-11-04 19:00;CYQF 041900Z 00000KT 10SM FEW015 SCT090 BKN210 M06/M09 A2981 RMK SC1AC2CI1 SLP147

CYQF;2011-11-04 20:00;CYQF 042000Z 00000KT 15SM FEW020 BKN210 M06/M10 A2979 RMK SC1CI2 SLP140

CYQF;2011-11-04 21:00;CYQF 042100Z 00000KT 15SM BKN210 M07/M10 A2976 RMK CI3 SLP130

CYQF;2011-11-04 22:00;CYQF 042200Z 18003KT 15SM BKN210 M06/M10 A2973 RMK CI2 SLP122

CYQF;2011-11-04 23:00;CYQF 042300Z 00000KT 15SM BKN210 M06/M10 A2972 RMK CI2 SLP119

CYQF;2011-11-05 00:00;CYQF 050000Z 00000KT 15SM SCT210 M07/M09 A2971 RMK CI2 SLP117

CYQF;2011-11-05 01:00;CYQF 050100Z 15002KT 15SM FEW210 M09/M10 A2971 RMK CI1 SLP117

CYQF;2011-11-05 02:00;CYQF 050200Z 17005KT 15SM SKC M11/M12 A2971 RMK FROIN SLP116

CYQF;2011-11-05 03:00;CYQF 050300Z 00000KT 15SM SKC M12/M13 A2970 RMK FROIN SLP119

CYQF;2011-11-05 04:00;CYQF 050400Z 00000KT 15SM SKC M13/M14 A2969 RMK SLP117

CYQF;2011-11-05 05:00;CYQF 050500Z 20002KT 15SM SKC M16/M17 A2969 RMK BCFG SLP116

CYQF;2011-11-05 06:00;CYQF 050600Z 18004KT 15SM SKC M16/M17 A2967 RMK SLP114

CYQF;2011-11-05 07:00;CYQF 050700Z 27003KT 15SM SKC M17/M18 A2966 RMK SLP110

CYQF;2011-11-05 08:00;CYQF 050800Z 18004KT 15SM SKC M17/M18 A2964 RMK SLP104

CYQF;2011-11-05 08:20;CYQF 050820Z 00000KT 2SM BR SKC RMK FG2

CYQF;2011-11-05 08:40;CYQF 050840Z 23004KT 10SM SKC RMK MIFG

CYQF;2011-11-05 09:00;CYQF 050900Z 18005KT 15SM SKC M16/M18 A2965 RMK SLP102

CYQF;2011-11-05 10:00;CYQF 051000Z 17004KT 15SM SKC M17/M19 A2965 RMK SLP102

CYQF;2011-11-05 11:00;CYQF 051100Z 23003KT 15SM SKC M17/M19 A2963 RMK SLP097

CYQF;2011-11-05 12:00;CYQF 051200Z 19003KT 15SM SKC M17/M19 A2963 RMK SLP097

CYQF;2011-11-05 13:00;CYQF 051300Z 20002KT 15SM SKC M18/M21 A2963 RMK SLP099

CYQF;2011-11-05 14:00;CYQF 051400Z 19002KT 15SM SKC M17/M20 A2963 RMK SLP099

CYQF;2011-11-05 15:00;CYQF 051500Z 19004KT 10SM SKC M17/M20 A2965 RMK BR SLP113

CYQF;2011-11-05 16:00;CYQF 051600Z 18002KT 12SM SKC M16/M18 A2966 RMK SLP117

CYQF;2011-11-05 17:00;CYQF 051700Z 20002KT 15SM SKC M12/M13 A2968 RMK SLP121

CYQF;2011-11-05 18:00;CYQF 051800Z 00000KT 12SM SKC M10/M11 A2969 RMK SLP122

CYQF;2011-11-05 19:00;CYQF 051900Z 22002KT 15SM SKC M08/M09 A2968 RMK SLP119

CYQF;2011-11-05 20:00;CYQF 052000Z 25002KT 15SM SKC M05/M09 A2967 RMK SLP115

CYQF;2011-11-05 21:00;CYQF 052100Z CCA 22002KT 15SM SKC M04/M08 A2967 RMK SLP108

CYQF;2011-11-05 22:00;CYQF 052200Z 17005KT 15SM FEW200 M03/M08 A2967 RMK CI1 SLP109

CYQF;2011-11-05 23:00;CYQF 052300Z 22002KT 15SM FEW200 M04/M08 A2967 RMK CI1 SLP109

CYQF;2011-11-06 00:00;CYQF 060000Z 00000KT 15SM FEW200 M06/M10 A2968 RMK CI1 SLP115

CYQF;2011-11-06 01:00;CYQF 060100Z 00000KT 15SM FEW200 M09/M10 A2969 RMK CI1 SLP118

CYQF;2011-11-06 02:00;CYQF 060200Z 19003KT 15SM FEW200 M13/M14 A2970 RMK CI1 SLP120

CYQF;2011-11-06 03:00;CYQF 060300Z 00000KT 15SM SKC M13/M14 A2970 RMK SLP132

CYQF;2011-11-06 04:00;CYQF 060400Z 19004KT 15SM SKC M15/M16 A2972 RMK SLP136

CYQF;2011-11-06 05:00;CYQF 060500Z 00000KT 15SM SKC M15/M16 A2972 RMK SLP137

CYQF;2011-11-06 06:00;CYQF 060600Z 22002KT 15SM SKC M16/M17 A2972 RMK SLP133

CYQF;2011-11-06 07:00;CYQF 060700Z 20005KT 15SM SKC M16/M18 A2972 RMK SLP132

CYQF;2011-11-06 08:00;CYQF 060800Z 20005KT 15SM SKC M14/M16 A2972 RMK SLP132

CYQF;2011-11-06 09:00;CYQF 060900Z 21003KT 15SM SKC M14/M15 A2972 RMK SLP123

CYQF;2011-11-06 10:00;CYQF 061000Z 21004KT 15SM FEW100 M14/M15 A2972 RMK AC1 SLP124

CYQF;2011-11-06 11:00;CYQF 061100Z 20005KT 15SM FEW100 M14/M15 A2972 RMK AC1 SLP123

CYQF;2011-11-06 12:00;CYQF 061200Z 18005KT 15SM FEW100 M14/M15 A2972 RMK AC1 SLP125

CYQF;2011-11-06 13:00;CYQF 061300Z 23006KT 15SM FEW100 M14/M15 A2973 RMK AC1 SLP128

CYQF;2011-11-06 14:00;CYQF 061400Z 20003KT 15SM FEW090 M13/M15 A2973 RMK AC2 SLP129

CYQF;2011-11-06 15:00;CYQF 061500Z 24003KT 15SM FEW090 M13/M14 A2975 RMK AC2 SLP144

CYQF;2011-11-06 16:00;CYQF 061600Z 29007KT 15SM FEW100 FEW250 M10/M11 A2976 RMK AC1CI0 AC TR SLP147

CYQF;2011-11-06 17:00;CYQF 061700Z 32005KT 15SM FEW100 FEW250 M06/M10 A2976 RMK AC1CI0 AC1 SLP148

CYQF;2011-11-06 18:00;CYQF 061800Z 31006KT 15SM FEW100 SCT250 M03/M08 A2977 RMK AC1CI1 SLP144

CYQF;2011-11-06 19:00;CYQF 061900Z 32007KT 15SM BKN250 M02/M07 A2978 RMK CI2 SLP146

CYQF;2011-11-06 20:00;CYQF 062000Z 30005KT 15SM BKN250 M01/M07 A2978 RMK CI2 SLP146

CYQF;2011-11-06 21:00;CYQF 062100Z 28007KT 15SM BKN250 M00/M06 A2978 RMK CI2 SLP141

CYQF;2011-11-06 22:00;CYQF 062200Z 29006KT 15SM SCT250 M00/M07 A2978 RMK CI1 SLP141

CYQF;2011-11-06 23:00;CYQF 062300Z 29004KT 15SM SCT250 M01/M06 A2980 RMK CI1 SLP146

CYQF;2011-11-07 00:00;CYQF 070000Z 28005KT 15SM BKN250 M03/M08 A2981 RMK CI0 SLP152

CYQF;2011-11-07 01:00;CYQF 070100Z 27003KT 15SM BKN250 M04/M08 A2981 RMK CI2 SLP154

CYQF;2011-11-07 02:00;CYQF 070200Z 00000KT 15SM SCT250 M07/M10 A2983 RMK CI1 SLP158

CYQF;2011-11-07 03:00;CYQF 070300Z 21003KT 15SM SKC M10/M11 A2984 RMK SLP170

CYQF;2011-11-07 04:00;CYQF 070400Z 17002KT 15SM SKC M09/M11 A2984 RMK SLP171

CYQF;2011-11-07 05:00;CYQF 070500Z 20005KT 15SM SKC M11/M12 A2985 RMK SLP174

CYQF;2011-11-07 06:00;CYQF 070600Z 21005KT 15SM SCT230 M12/M13 A2986 RMK CI2 SLP168

CYQF;2011-11-07 07:00;CYQF 070700Z 21005KT 15SM SCT230 M11/M12 A2986 RMK CI2 SLP170

CYQF;2011-11-07 08:00;CYQF 070800Z 21005KT 15SM FEW230 M12/M13 A2987 RMK CI1 SLP172

CYQF;2011-11-07 09:00;CYQF 070900Z 19002KT 15SM FEW090 FEW230 M12/M13 A2987 RMK AC1CI1 SLP169

CYQF;2011-11-07 10:00;CYQF 071000Z 20004KT 15SM FEW090 FEW230 M11/M12 A2987 RMK AC1CI1 SLP170

CYQF;2011-11-07 11:00;CYQF 071100Z 18005KT 15SM FEW090 FEW230 M13/M14 A2987 RMK AC1CI1 SLP168

CYQF;2011-11-07 12:00;CYQF 071200Z 00000KT 15SM FEW090 FEW230 M13/M15 A2987 RMK AC1CI1 SLP173

CYQF;2011-11-07 13:00;CYQF 071300Z 19004KT 15SM FEW230 M13/M14 A2987 RMK CI1 SLP173

CYQF;2011-11-07 14:00;CYQF 071400Z 17005KT 15SM SKC M13/M14 A2987 RMK SLP175

CYQF;2011-11-07 15:00;CYQF 071500Z 19004KT 15SM FEW090 M15/M16 A2989 RMK AC1 SLP188

CYQF;2011-11-07 16:00;CYQF 071600Z 21005KT 15SM FEW090 FEW250 M12/M14 A2989 RMK AC1CI1 SLP190

CYQF;2011-11-07 17:00;CYQF 071700Z 20004KT 15SM SKC M09/M11 A2989 RMK SLP189

CYQF;2011-11-07 18:00;CYQF 071800Z 20004KT 15SM FEW250 M06/M10 A2988 RMK CI1 SLP179

CYQF;2011-11-07 19:00;CYQF 071900Z 22005KT 15SM FEW250 M03/M08 A2987 RMK CI1 SLP175

CYQF;2011-11-07 20:00;CYQF 072000Z 20005KT 15SM FEW250 M00/M07 A2985 RMK CI2 SLP170

CYQF;2011-11-07 21:00;CYQF 072100Z 19005KT 15SM BKN250 02/M07 A2983 RMK CI4 SLP152

CYQF;2011-11-07 22:00;CYQF 072200Z 19005KT 15SM FEW120 SCT250 03/M07 A2982 RMK AC1CI2 SLP150

CYQF;2011-11-07 23:00;CYQF 072300Z 19005KT 15SM FEW120 BKN250 00/M07 A2981 RMK AC2CI2 SLP145

CYQF;2011-11-08 00:00;CYQF 080000Z 18006KT 15SM FEW120 BKN250 M00/M07 A2979 RMK AC1CI2 SLP144

CYQF;2011-11-08 01:00;CYQF 080100Z 17005KT 15SM FEW120 BKN250 M01/M08 A2979 RMK AC1CI2 SLP143

CYQF;2011-11-08 02:00;CYQF 080200Z 18005KT 15SM BKN250 M03/M08 A2977 RMK CI2 SLP138

CYQF;2011-11-08 03:00;CYQF 080300Z 19005KT 15SM BKN250 M03/M09 A2978 RMK CI3 SLP144

CYQF;2011-11-08 04:00;CYQF 080400Z 22007KT 15SM SCT250 M07/M10 A2978 RMK CI2 SLP145

CYQF;2011-11-08 05:00;CYQF 080500Z 19003KT 15SM SCT250 M07/M10 A2979 RMK CI2 SLP147

CYQF;2011-11-08 06:00;CYQF 080600Z 20004KT 15SM FEW250 M09/M12 A2980 RMK CI1 SLP147

CYQF;2011-11-08 07:00;CYQF 080700Z 19004KT 15SM FEW250 M10/M12 A2981 RMK CI1 SLP150

CYQF;2011-11-08 08:00;CYQF 080800Z 17005KT 15SM SCT250 M08/M11 A2982 RMK CI2 SLP155

CYQF;2011-11-08 09:00;CYQF 080900Z 21005KT 15SM FEW090 BKN250 M08/M11 A2984 RMK AC2CI1 SLP151

CYQF;2011-11-08 10:00;CYQF 081000Z 19004KT 15SM SCT090 BKN250 M06/M11 A2986 RMK AC3CI2 SLP159

CYQF;2011-11-08 11:00;CYQF 081100Z 24005KT 15SM BKN090 OVC250 M06/M09 A2989 RMK AC5CI2 SLP166

CYQF;2011-11-08 12:00;CYQF 081200Z 32008KT 15SM BKN090 OVC250 M04/M07 A2992 RMK AC6CI2 SLP175

CYQF;2011-11-08 13:00;CYQF 081300Z 35004KT 15SM BKN090 OVC250 M00/M05 A2994 RMK AC6CI2 SLP182

CYQF;2011-11-08 14:00;CYQF 081400Z 21004KT 15SM SCT090 BKN250 M04/M07 A2995 RMK AC3CI2 SLP185

CYQF;2011-11-08 15:00;CYQF 081500Z 25007KT 15SM FEW090 FEW250 M05/M09 A2998 RMK AC2CI1 SLP202

CYQF;2011-11-08 16:00;CYQF 081600Z 24007KT 15SM FEW090 M04/M08 A3001 RMK AC1 SLP211

CYQF;2011-11-08 17:00;CYQF 081700Z 22005KT 15SM FEW090 M01/M07 A3002 RMK AC1 SLP216

CYQF;2011-11-08 18:00;CYQF 081800Z 25005KT 15SM SKC 01/M08 A3004 RMK SLP222

CYQF;2011-11-08 19:00;CYQF 081900Z 26006KT 15SM SKC 02/M08 A3005 RMK SLP226

CYQF;2011-11-08 20:00;CYQF 082000Z 29010G15KT 15SM FEW044 03/M08 A3006 RMK CF1 SLP229

CYQF;2011-11-08 21:00;CYQF 082100Z 28008KT 15SM FEW050 03/M10 A3007 RMK CF1 SLP231

CYQF;2011-11-08 22:00;CYQF 082200Z 32005KT 15SM FEW050 03/M10 A3008 RMK SC1 SLP233

CYQF;2011-11-08 23:00;CYQF 082300Z 00000KT 15SM FEW050 03/M11 A3010 RMK SC1 SLP238

CYQF;2011-11-09 00:00;CYQF 090000Z 00000KT 15SM FEW050 M00/M10 A3012 RMK SC1 SLP245

CYQF;2011-11-09 01:00;CYQF 090100Z 18003KT 15SM FEW050 M02/M10 A3014 RMK SC1 SLP253

CYQF;2011-11-09 02:00;CYQF 090200Z 21006KT 15SM SKC M07/M11 A3017 RMK SLP262

CYQF;2011-11-09 03:00;CYQF 090300Z 21003KT 15SM SKC M09/M12 A3019 RMK SLP282

CYQF;2011-11-09 04:00;CYQF 090400Z 18004KT 15SM SKC M07/M12 A3021 RMK SLP287

CYQF;2011-11-09 05:00;CYQF 090500Z 18004KT 15SM SKC M08/M12 A3023 RMK SLP293

CYQF;2011-11-09 06:00;CYQF 090600Z 24006KT 15SM SKC M10/M13 A3025 RMK SLP297

CYQF;2011-11-09 07:00;CYQF 090700Z 25005KT 15SM SKC M08/M14 A3026 RMK SLP300

CYQF;2011-11-09 08:00;CYQF 090800Z 20005KT 15SM SKC M11/M15 A3027 RMK SLP303

CYQF;2011-11-09 09:00;CYQF 090900Z 18004KT 15SM SKC M11/M15 A3029 RMK SLP311

CYQF;2011-11-09 10:00;CYQF 091000Z 18005KT 15SM SKC M12/M16 A3030 RMK SLP314

CYQF;2011-11-09 11:00;CYQF 091100Z 20005KT 15SM SKC M13/M16 A3030 RMK SLP314

CYQF;2011-11-09 12:00;CYQF 091200Z 21005KT 15SM SKC M13/M16 A3032 RMK SLP325

CYQF;2011-11-09 13:00;CYQF 091300Z 20005KT 15SM SKC M12/M15 A3033 RMK SLP329

CYQF;2011-11-09 14:00;CYQF 091400Z 18005KT 15SM SKC M14/M16 A3032 RMK SLP327

CYQF;2011-11-09 15:00;CYQF 091500Z 00000KT 15SM FEW250 M15/M17 A3034 RMK CI1 SLP343

CYQF;2011-11-09 16:00;CYQF 091600Z 18004KT 15SM FEW250 M12/M15 A3033 RMK CI1 SLP341

CYQF;2011-11-09 17:00;CYQF 091700Z 20003KT 15SM FEW250 M07/M13 A3031 RMK CI1 SLP334

CYQF;2011-11-09 18:00;CYQF 091800Z 17003KT 15SM FEW250 M03/M11 A3029 RMK CI1 SLP316

CYQF;2011-11-09 19:00;CYQF 091900Z 14008KT 15SM FEW250 01/M09 A3026 RMK CI1 SLP306

CYQF;2011-11-09 20:00;CYQF 092000Z 15010G15KT 15SM BKN250 02/M10 A3022 RMK CI2 SLP295

CYQF;2011-11-09 21:00;CYQF 092100Z 15010KT 15SM BKN250 03/M09 A3019 RMK CI2 SLP276

CYQF;2011-11-09 22:00;CYQF 092200Z 15013G18KT 15SM BKN250 03/M09 A3015 RMK CI6 SLP262

CYQF;2011-11-09 23:00;CYQF 092300Z 15012KT 15SM FEW100 BKN250 02/M08 A3010 RMK AC2CI5 SLP249

CYQF;2011-11-10 00:00;CYQF 100000Z 15010G15KT 15SM BKN100 BKN250 01/M07 A3006 RMK AC5CI1 SLP235

CYQF;2011-11-10 01:00;CYQF 100100Z 17011G17KT 15SM BKN100 BKN250 01/M06 A3002 RMK AC5CI1 SLP221

CYQF;2011-11-10 02:00;CYQF 100200Z 17012G18KT 15SM FEW100 BKN250 00/M06 A2999 RMK AC2CI3 SLP212

CYQF;2011-11-10 03:00;CYQF 100300Z 17010G15KT 15SM SCT100 BKN250 M00/M05 A2995 RMK AC3CI2 SLP200

CYQF;2011-11-10 04:00;CYQF 100400Z 18008KT 15SM SCT100 BKN250 M00/M05 A2994 RMK AC3CI3 SLP197

CYQF;2011-11-10 05:00;CYQF 100500Z 18004KT 15SM SCT100 BKN250 M01/M05 A2992 RMK AC3CI3 SLP190

CYQF;2011-11-10 06:00;CYQF 100600Z 21003KT 15SM OVC100 M01/M04 A2990 RMK AC8 SLP169

CYQF;2011-11-10 07:00;CYQF 100700Z 18005KT 15SM OVC100 00/M03 A2987 RMK AC8 SLP159

CYQF;2011-11-10 08:00;CYQF 100800Z 19003KT 15SM OVC100 01/M03 A2985 RMK AC8 SLP155

CYQF;2011-11-10 09:00;CYQF 100900Z 19007KT 15SM OVC100 00/M03 A2983 RMK AC8 SLP137

CYQF;2011-11-10 10:00;CYQF 101000Z 20005KT 15SM OVC100 02/M02 A2980 RMK AC8 SLP127

CYQF;2011-11-10 11:00;CYQF 101100Z 20008KT 15SM OVC100 03/M02 A2976 RMK AC8 SLP115

CYQF;2011-11-10 12:00;CYQF 101200Z 23010KT 15SM OVC100 03/M02 A2973 RMK AC8 SLP102

CYQF;2011-11-10 13:00;CYQF 101300Z 21010G15KT 15SM OVC100 05/M01 A2970 RMK AC8 SLP092

CYQF;2011-11-10 14:00;CYQF 101400Z 21010KT 15SM OVC100 05/M01 A2967 RMK AC8 SLP083

CYQF;2011-11-10 15:00;CYQF 101500Z 22010G15KT 15SM BKN100 OVC250 06/M01 A2964 RMK AC6CI1 VIRGA SLP068

CYQF;2011-11-10 16:00;CYQF 101600Z 21010KT 15SM BKN100 OVC250 06/M01 A2962 RMK AC6CI1 SLP062

CYQF;2011-11-10 17:00;CYQF 101700Z 23008KT 15SM BKN090 OVC250 06/M01 A2960 RMK AC6CI1 VIRGA SLP056

CYQF;2011-11-10 18:00;CYQF 101800Z 21007KT 15SM BKN090 BKN250 06/M00 A2959 RMK AC6CI1 SLP050

CYQF;2011-11-10 19:00;CYQF 101900Z 22005KT 15SM BKN090 BKN250 07/M00 A2958 RMK AC6CI1 SLP047

CYQF;2011-11-10 20:00;CYQF 102000Z 22005KT 15SM FEW040 FEW090 SCT250 10/01 A2957 RMK SC1AC1CI1 SLP044

CYQF;2011-11-10 21:00;CYQF 102100Z 25005KT 15SM FEW040 FEW090 SCT250 12/01 A2956 RMK SC1AC1CI2 SLP035

CYQF;2011-11-10 22:00;CYQF 102200Z CCA 28012G20KT 15SM FEW040 BKN090 11/M01 A2955 RMK SC1AC5 SLP031

CYQF;2011-11-10 23:00;CYQF 102300Z 28012G18KT 15SM FEW040 BKN090 BKN250 10/M02 A2956 RMK SC1AC6CI1 SLP034

CYQF;2011-11-11 00:00;CYQF 110000Z 28011KT 15SM FEW040 BKN070 BKN250 09/M03 A2956 RMK SC1AC5CI1 SLP034

CYQF;2011-11-11 01:00;CYQF 110100Z 26006KT 15SM BKN070 BKN250 05/M03 A2957 RMK AC6CI1 SLP037

CYQF;2011-11-11 02:00;CYQF 110200Z 22006KT 15SM FEW070 SCT250 02/M04 A2958 RMK AC1CI1 SLP040

CYQF;2011-11-11 03:00;CYQF 110300Z 19005KT 15SM SCT100 BKN250 01/M05 A2957 RMK AC4CI2 SLP042

CYQF;2011-11-11 04:00;CYQF 110400Z 00000KT 15SM BKN100 00/M04 A2956 RMK AC7 SLP041

CYQF;2011-11-11 05:00;CYQF 110500Z 00000KT 15SM BKN100 M03/M06 A2956 RMK AC6 SLP040

CYQF;2011-11-11 06:00;CYQF 110600Z 18003KT 15SM BKN120 M02/M05 A2954 RMK AC5 SLP034

CYQF;2011-11-11 12:00;CYQF 111200Z 00000KT 15SM BKN080 M03/M05 A2939 RMK AC7 SLP983

CYQF;2011-11-11 13:00;CYQF 111300Z 19003KT 15SM OVC080 M02/M04 A2936 RMK AC8 SLP973

CYQF;2011-11-11 14:00;CYQF 111400Z 00000KT 15SM BKN080 M02/M04 A2934 RMK AC7 SLP967

CYQF;2011-11-11 15:00;CYQF 111500Z 32003KT 15SM FEW030 BKN080 M03/M04 A2933 RMK SC1AC7 SLP970

CYQF;2011-11-11 16:00;CYQF 111600Z 00000KT 15SM FEW040 BKN100 OVC250 M02/M03 A2933 RMK SC1AC5CI2 SLP968

CYQF;2011-11-11 17:00;CYQF 111700Z 00000KT 15SM FEW040 BKN100 OVC250 M01/M03 A2930 RMK SC1AC5CI2 SLP960

CYQF;2011-11-11 18:00;CYQF 111800Z 00000KT 15SM FEW040 BKN100 OVC250 00/M02 A2929 RMK SC1AC5CI2 SLP957

CYQF;2011-11-11 19:00;CYQF 111900Z 00000KT 15SM FEW040 BKN100 OVC250 02/M02 A2926 RMK SC1AC5CI2 SLP946

CYQF;2011-11-11 20:00;CYQF 112000Z 00000KT 15SM FEW040 SCT100 BKN250 04/M01 A2925 RMK SC1AC2CI3 SLP942

CYQF;2011-11-11 21:00;CYQF 112100Z 03002KT 15SM FEW040 BKN080 BKN250 05/M01 A2923 RMK SC2AC4CI2 SLP926

CYQF;2011-11-11 22:00;CYQF 112200Z 02004KT 15SM FEW040 BKN070 04/M01 A2921 RMK SC2AC6 VIRGA SLP920

CYQF;2011-11-11 23:00;CYQF 112300Z 35006KT 15SM SCT040 BKN070 03/M01 A2921 RMK SC4AC3 VIRGA SLP920

CYQF;2011-11-12 00:00;CYQF 120000Z 03007KT 15SM SCT040 BKN070 02/M01 A2920 RMK SC3AC3 SLP923

CYQF;2011-11-12 01:00;CYQF 120100Z 01007KT 15SM SCT040 OVC100 01/M01 A2918 RMK SC4AC4 SLP919

CYQF;2011-11-12 02:00;CYQF 120200Z 36006KT 15SM SCT040 OVC100 00/M02 A2920 RMK SC4AC4 SLP923

CYQF;2011-11-12 03:00;CYQF 120300Z 34010KT 15SM BKN040 BKN100 01/M01 A2921 RMK SC5AC2 SLP927

CYQF;2011-11-12 04:00;CYQF 120400Z 35005KT 15SM SCT040 BKN100 M00/M02 A2922 RMK SC4AC2 SLP932

CYQF;2011-11-12 05:00;CYQF 120500Z 32006KT 15SM SCT040 BKN100 M01/M02 A2924 RMK SC4AC2 SLP937

CYQF;2011-11-12 06:00;CYQF 120600Z 33005KT 15SM SCT040 BKN100 M00/M02 A2926 RMK SC3AC3 SLP945

CYQF;2011-11-12 07:00;CYQF 120700Z 32005KT 15SM BKN100 M00/M02 A2928 RMK AC7 SLP951

CYQF;2011-11-12 08:00;CYQF 120800Z 33008KT 15SM OVC050 00/M01 A2930 RMK SC8 SLP957

CYQF;2011-11-12 09:00;CYQF 120900Z 31006KT 10SM -RASN OVC006 01/00 A2933 RMK SC8 SLP961

CYQF;2011-11-12 09:25;CYQF 120925Z 32010G15KT 1SM -SN VV005 RMK SN8

CYQF;2011-11-12 10:00;CYQF 121000Z 32010G15KT 5SM -SN OVC015 00/M01 A2934 RMK SC8 SLP965

CYQF;2011-11-12 11:00;CYQF 121100Z 32015G20KT 10SM -SN OVC015 M00/M01 A2936 RMK SC8 SLP971

CYQF;2011-11-12 12:00;CYQF 121200Z 33015G20KT 10SM -SN OVC015 M00/M01 A2940 RMK SC8 SLP989

CYQF;2011-11-12 13:00;CYQF 121300Z 33010G15KT 5SM -SN OVC015 00/M01 A2942 RMK SC8 SLP994

CYQF;2011-11-12 14:00;CYQF 121400Z 33010KT 5SM -SN OVC015 00/M01 A2942 RMK SC8 SLP994

CYQF;2011-11-12 14:44;CYQF 121444Z 34011KT 5SM BR BKN015 OVC020 RMK SC6SC2

CYQF;2011-11-12 15:00;CYQF 121500Z 34012KT 9SM FEW006 BKN016 OVC020 M00/M01 A2942 RMK SF1SC6SC2 SLP997

CYQF;2011-11-12 15:22;CYQF 121522Z 34007KT 9SM -SHSN FEW006 BKN016 OVC020 RMK SF2SC5SC2

CYQF;2011-11-12 16:00;CYQF 121600Z 32008KT 15SM -SN BKN016 OVC040 M00/M01 A2944 RMK SC7SC1 SLP003

CYQF;2011-11-12 17:00;CYQF 121700Z 00000KT 15SM -SN BKN007 OVC016 00/M01 A2940 RMK SF6SC2 SLP991

CYQF;2011-11-12 18:00;CYQF 121800Z 11004KT 15SM -SN OVC010 00/M02 A2937 RMK SF8 CIG RAG SLP981

CYQF;2011-11-12 18:12;CYQF 121812Z 08004KT 15SM OVC010 RMK SC8

CYQF;2011-11-12 19:00;CYQF 121900Z 14006KT 15SM OVC010 00/M02 A2932 RMK SC8 SLP967

CYQF;2011-11-12 20:00;CYQF 122000Z 14010KT 15SM OVC010 00/M02 A2927 RMK SC8 SLP951

CYQF;2011-11-12 21:00;CYQF 122100Z 17011KT 15SM OVC010 00/M01 A2923 RMK SC8 SLP930

CYQF;2011-11-12 22:00;CYQF 122200Z 17009KT 15SM BKN010 OVC025 01/M01 A2919 RMK SC6SC2 SLP920

CYQF;2011-11-12 22:47;CYQF 122247Z 15010KT 15SM FEW010 FEW090 BKN250 RMK SC1AC2CI3 CC

CYQF;2011-11-12 22:48;CYQF 122248Z 15010KT 15SM FEW010 FEW090 BKN250 RMK SC1AC2CI3 CC

CYQF;2011-11-12 23:00;CYQF 122300Z 15010KT 15SM FEW010 FEW090 BKN250 01/M02 A2915 RMK SC1AC2CI3 CC SLP906

CYQF;2011-11-13 00:00;CYQF 130000Z 15008KT 15SM BKN090 BKN250 00/M02 A2912 RMK AC6CI2 SLP894

CYQF;2011-11-13 01:00;CYQF 130100Z 18007KT 15SM BKN090 BKN250 M00/M02 A2910 RMK AC6CI1 SLP887

CYQF;2011-11-13 02:00;CYQF 130200Z 20007KT 15SM BKN090 BKN250 M01/M03 A2907 RMK AC5CI1 SLP880

CYQF;2011-11-13 03:00;CYQF 130300Z 21005KT 15SM BKN090 BKN250 M02/M03 A2905 RMK AC5CI1 SLP873

CYQF;2011-11-13 04:00;CYQF 130400Z 22007KT 15SM BKN090 M02/M04 A2904 RMK AC6 SLP870

CYQF;2011-11-13 05:00;CYQF 130500Z 22006KT 15SM BKN090 M02/M04 A2904 RMK AC6 SLP869

CYQF;2011-11-13 06:00;CYQF 130600Z 21005KT 15SM BKN080 M02/M05 A2904 RMK AC6 SLP867

CYQF;2011-11-13 07:00;CYQF 130700Z 22003KT 15SM OVC080 M03/M05 A2905 RMK AC8 SLP870

CYQF;2011-11-13 08:00;CYQF 130800Z 20005KT 15SM OVC080 M02/M05 A2905 RMK AC8 SLP870

CYQF;2011-11-13 09:00;CYQF 130900Z 16003KT 15SM OVC080 M01/M06 A2905 RMK AC8 SLP871

CYQF;2011-11-13 10:00;CYQF 131000Z 22004KT 15SM OVC080 M04/M06 A2904 RMK AC8 SLP867

CYQF;2011-11-13 11:00;CYQF 131100Z 22006KT 15SM BKN080 M04/M07 A2905 RMK AC7 SLP871

CYQF;2011-11-13 12:00;CYQF 131200Z 16003KT 15SM FEW080 M04/M07 A2905 RMK AC1 SLP874

CYQF;2011-11-13 13:00;CYQF 131300Z 20004KT 15SM FEW080 SCT250 M06/M09 A2906 RMK AC1CI0 SLP876

CYQF;2011-11-13 14:00;CYQF 131400Z 22008KT 15SM FEW080 SCT250 M05/M09 A2906 RMK AC2CI0 SLP878

CYQF;2011-11-13 15:00;CYQF 131500Z 22007KT 15SM SCT080 BKN250 M05/M09 A2907 RMK AC3CI2 SLP885

CYQF;2011-11-13 16:00;CYQF 131600Z 21007KT 15SM FEW050 BKN080 BKN250 M03/M08 A2908 RMK SC1AC4CI1 SLP889

CYQF;2011-11-13 17:00;CYQF 131700Z 23010KT 15SM FEW050 BKN080 00/M08 A2909 RMK SC1AC7 VIRGA ALQDS SLP892

CYQF;2011-11-13 18:00;CYQF 131800Z 25010KT 15SM FEW050 BKN080 02/M07 A2911 RMK SC2AC6 VIRGA SLP893

CYQF;2011-11-13 19:00;CYQF 131900Z 26011KT 15SM FEW040 BKN080 03/M07 A2912 RMK SC2AC5 VIRGA SLP895

CYQF;2011-11-13 20:00;CYQF 132000Z 27010G15KT 15SM FEW046 SCT080 BKN250 05/M07 A2913 RMK CF1AC1CI3 SLP897

CYQF;2011-11-13 21:00;CYQF 132100Z 27010G15KT 15SM SCT048 BKN100 BKN250 04/M08 A2914 RMK CU3AC1CI2 VIRGA/SHWRS DIST E-S SLP899

CYQF;2011-11-13 22:00;CYQF 132200Z 30007KT 15SM SCT048 BKN100 BKN250 04/M08 A2915 RMK CU3AC2CI2 VIRGA/SHWRS E-S SLP902

CYQF;2011-11-13 22:49;CYQF 132249Z 27008KT 15SM -SHGS BKN040 BKN100 BKN250 RMK CU5AC1CI2

CYQF;2011-11-13 23:00;CYQF 132300Z 28007KT 15SM VCSH BKN040 BKN100 BKN250 03/M07 A2917 RMK CU5AC1CI2 VIRGA SLP909

CYQF;2011-11-14 00:00;CYQF 140000Z 28010KT 15SM SCT040 BKN250 02/M09 A2919 RMK SC3CI4 DIST SH CU SLP922

CYQF;2011-11-14 01:00;CYQF 140100Z 26007KT 15SM FEW040 BKN250 M01/M09 A2920 RMK SC2CI4 SLP925

CYQF;2011-11-14 02:00;CYQF 140200Z 27010KT 15SM FEW040 BKN250 M02/M11 A2922 RMK SC1CI2 SLP930

CYQF;2011-11-14 03:00;CYQF 140300Z 27010KT 15SM BKN250 M02/M11 A2924 RMK CI2 SLP944

CYQF;2011-11-14 04:00;CYQF 140400Z 29010KT 15SM BKN100 BKN250 M00/M11 A2925 RMK AC5CI1 SLP947

CYQF;2011-11-14 05:00;CYQF 140500Z 28007KT 15SM FEW080 BKN250 M01/M10 A2925 RMK AC2CI1 SLP948

CYQF;2011-11-14 06:00;CYQF 140600Z 28008KT 15SM FEW080 SCT250 M03/M09 A2926 RMK AC2CI2 SLP946

CYQF;2011-11-14 07:00;CYQF 140700Z 24007KT 15SM FEW080 SCT250 M06/M11 A2927 RMK AC1CI1 SLP948

CYQF;2011-11-14 08:00;CYQF 140800Z 24003KT 15SM FEW250 M08/M11 A2927 RMK CI1 SLP947

CYQF;2011-11-14 09:00;CYQF 140900Z 23005KT 15SM FEW250 M07/M12 A2927 RMK CI0 SLP951

CYQF;2011-11-14 10:00;CYQF 141000Z 20004KT 15SM FEW250 M08/M12 A2926 RMK CI0 SLP948

CYQF;2011-11-14 11:00;CYQF 141100Z 22002KT 15SM FEW080 SCT250 M10/M14 A2926 RMK AC1CI1 SLP946

CYQF;2011-11-14 12:00;CYQF 141200Z 22003KT 15SM FEW080 SCT250 M10/M13 A2926 RMK AC1CI1 SLP955

CYQF;2011-11-14 13:00;CYQF 141300Z 24003KT 15SM FEW080 SCT250 M09/M12 A2927 RMK AC1CI1 SLP958

CYQF;2011-11-14 14:00;CYQF 141400Z 28004KT 15SM SCT080 BKN250 M08/M11 A2928 RMK AC3CI1 SLP961

CYQF;2011-11-14 15:00;CYQF 141500Z 28010G15KT 15SM -SN SCT040 BKN080 OVC250 M03/M06 A2931 RMK SC3AC3CI1 SLP967

CYQF;2011-11-14 15:39;CYQF 141539Z 28008KT 15SM FEW040 BKN080 OVC250 RMK SC2AC5CI1 VIRGA

CYQF;2011-11-14 16:00;CYQF 141600Z 27010KT 15SM FEW040 BKN080 M03/M07 A2933 RMK SC1AC7 VIRGA SLP971

CYQF;2011-11-14 17:00;CYQF 141700Z 27007KT 15SM FEW040 BKN100 OVC250 M03/M07 A2934 RMK SC2AC6CI0 SLP975

CYQF;2011-11-14 18:00;CYQF 141800Z 30008KT 15SM FEW040 BKN100 M02/M08 A2937 RMK SC2AC5 VIRGA SLP986

CYQF;2011-11-14 19:00;CYQF 141900Z 33020G32KT 15SM FEW040 FEW100 BKN250 M01/M11 A2938 RMK SC1AC1CI6 SLP989

CYQF;2011-11-14 20:00;CYQF 142000Z 33020G28KT 15SM FEW040 BKN100 BKN250 M01/M14 A2939 RMK SC1AC2CI2 SLP994

CYQF;2011-11-14 21:00;CYQF 142100Z 31015G20KT 15SM FEW040 BKN100 BKN250 M01/M13 A2942 RMK SC2AC2CI1 SLP006

CYQF;2011-11-14 22:00;CYQF 142200Z 31010G20KT 15SM FEW040 BKN100 BKN250 M01/M14 A2945 RMK SC2AC4CI1 SLP015

CYQF;2011-11-14 23:00;CYQF 142300Z 30020G25KT 15SM SCT040 BKN100 M03/M11 A2948 RMK SC3AC4 SLP027

CYQF;2011-11-15 00:00;CYQF 150000Z 31015G25KT 15SM FEW020 SCT040 BKN100 M03/M10 A2951 RMK SC1SC2AC5 SLP046

CYQF;2011-11-15 01:00;CYQF 150100Z 30010G15KT 15SM SCT040 BKN100 M04/M10 A2954 RMK SC3AC3 SLP053

CYQF;2011-11-15 02:00;CYQF 150200Z 32020G25KT 15SM BKN100 M03/M10 A2957 RMK AC5 SLP064

CYQF;2011-11-15 03:00;CYQF 150300Z 30020G25KT 15SM BKN100 M04/M10 A2960 RMK AC6 SLP067

CYQF;2011-11-15 04:00;CYQF 150400Z 30015G20KT 15SM OVC060 M04/M08 A2962 RMK SC8 SLP073

CYQF;2011-11-15 05:00;CYQF 150500Z 32015G20KT 15SM OVC060 M04/M09 A2963 RMK SC8 SLP078

CYQF;2011-11-15 06:00;CYQF 150600Z 30013G18KT 15SM SCT060 BKN250 M04/M11 A2964 RMK SC4CI2 SLP083

CYQF;2011-11-15 07:00;CYQF 150700Z 28006KT 15SM FEW060 BKN250 M06/M10 A2966 RMK SC2CI2 SLP088

CYQF;2011-11-15 08:00;CYQF 150800Z 27005KT 15SM FEW060 FEW120 BKN250 M08/M12 A2967 RMK SC1AC1CI2 SLP092

CYQF;2011-11-15 09:00;CYQF 150900Z 26006KT 15SM SCT120 BKN250 M08/M11 A2969 RMK AC3CI1 SLP103

CYQF;2011-11-15 10:00;CYQF 151000Z 26005KT 15SM FEW080 BKN120 M09/M12 A2970 RMK AC2AC2 SLP107

CYQF;2011-11-15 11:00;CYQF 151100Z 26005KT 15SM FEW080 FEW120 SCT250 M11/M14 A2970 RMK AC1AC1CI0 SLP107

CYQF;2011-11-15 12:00;CYQF 151200Z 26002KT 15SM FEW080 FEW250 M12/M15 A2970 RMK AC1CI0 SLP114

CYQF;2011-11-15 13:00;CYQF 151300Z 24007KT 15SM FEW080 BKN250 M13/M15 A2972 RMK AC2CS2 SLP120

CYQF;2011-11-15 14:00;CYQF 151400Z 26002KT 15SM FEW080 SCT250 M11/M16 A2974 RMK AC1CI1 SLP125

CYQF;2011-11-15 15:00;CYQF 151500Z 27005KT 15SM FEW070 SCT250 M13/M17 A2977 RMK AC1CI1 SLP138

CYQF;2011-11-15 16:00;CYQF 151600Z 28008KT 15SM FEW040 BKN070 BKN250 M09/M15 A2979 RMK SC1AC2CI0 SLP145

CYQF;2011-11-15 17:00;CYQF 151700Z 30010G15KT 15SM FEW040 FEW070 SCT250 M07/M14 A2982 RMK SC1AC1CI0 SLP155

CYQF;2011-11-15 18:00;CYQF 151800Z 31010G15KT 15SM FEW040 FEW070 SCT250 M05/M12 A2985 RMK SC1AC1CI1 SLP158

CYQF;2011-11-15 19:00;CYQF 151900Z 31012G18KT 15SM FEW040 SCT250 M04/M11 A2986 RMK SC1CI1 SLP161

CYQF;2011-11-15 20:00;CYQF 152000Z 28011G16KT 15SM FEW040 SCT250 M04/M12 A2988 RMK CU2CI1 SLP167

CYQF;2011-11-15 21:00;CYQF 152100Z 33015G20KT 15SM SCT040 SCT250 M03/M13 A2989 RMK CU3CI1 SLP173

CYQF;2011-11-15 22:00;CYQF 152200Z 29010KT 15SM FEW040 FEW250 M04/M13 A2990 RMK CU2CI1 SLP176

CYQF;2011-11-15 23:00;CYQF 152300Z 30006KT 15SM FEW040 FEW120 M04/M14 A2991 RMK SC1AC1 SLP180

CYQF;2011-11-16 00:00;CYQF 160000Z 26004KT 15SM FEW120 M07/M14 A2992 RMK AC2 SLP194

CYQF;2011-11-16 01:00;CYQF 160100Z 00000KT 15SM FEW120 M08/M14 A2993 RMK AC1 SLP197

CYQF;2011-11-16 02:00;CYQF 160200Z 20004KT 15SM BKN100 M10/M14 A2993 RMK AC6 SLP197

CYQF;2011-11-16 03:00;CYQF 160300Z 18005KT 15SM SCT100 M09/M13 A2994 RMK AC3 SLP204

CYQF;2011-11-16 04:00;CYQF 160400Z 18004KT 15SM FEW060 BKN120 M10/M14 A2993 RMK SC2AC2 SLP202

CYQF;2011-11-16 05:00;CYQF 160500Z 19003KT 15SM FEW060 BKN120 M09/M13 A2995 RMK SC2AC5 SLP206

CYQF;2011-11-16 06:00;CYQF 160600Z 21004KT 15SM OVC075 M08/M12 A2996 RMK AC8 SLP201

CYQF;2011-11-16 07:00;CYQF 160700Z 23005KT 15SM BKN075 OVC210 M08/M12 A2996 RMK AC5CI2 SLP203

CYQF;2011-11-16 08:00;CYQF 160800Z 23004KT 15SM BKN075 OVC210 M08/M12 A2997 RMK AC5CI2 SLP206

CYQF;2011-11-16 09:00;CYQF 160900Z 18004KT 15SM BKN080 OVC210 M09/M14 A2997 RMK AC5CI2 SLP205

CYQF;2011-11-16 10:00;CYQF 161000Z 29008KT 15SM BKN080 OVC210 M09/M14 A2999 RMK AC6CI2 SLP211

CYQF;2011-11-16 10:25;CYQF 161025Z 33007KT 15SM -SN BKN080 OVC240 RMK AC6CI2

CYQF;2011-11-16 11:00;CYQF 161100Z 34005KT 15SM -SN BKN080 OVC240 M05/M06 A2999 RMK AC6CI2 SLP210

CYQF;2011-11-16 11:38;CYQF 161138Z 20006KT 15SM BKN080 BKN240 RMK AC5CI1

CYQF;2011-11-16 12:00;CYQF 161200Z 22003KT 15SM BKN080 BKN240 M07/M09 A3000 RMK AC5CI2 SLP216

CYQF;2011-11-16 13:00;CYQF 161300Z 26006KT 15SM SCT090 BKN240 M09/M11 A3002 RMK AC4CI2 SLP221

CYQF;2011-11-16 14:00;CYQF 161400Z 18004KT 15SM SCT080 BKN240 M10/M12 A3003 RMK AC3CI2 SLP225

CYQF;2011-11-16 15:00;CYQF 161500Z 20005KT 15SM SCT080 BKN250 M11/M13 A3004 RMK AC4CI2 VIRGA SLP236

CYQF;2011-11-16 16:00;CYQF 161600Z 22003KT 15SM BKN080 BKN250 M09/M12 A3006 RMK AC3CI0 VIRGA SLP242

CYQF;2011-11-16 17:00;CYQF 161700Z 21007KT 15SM BKN080 BKN250 M07/M11 A3007 RMK AC5CI0 VIRGA SLP245

CYQF;2011-11-16 18:00;CYQF 161800Z 22003KT 15SM FEW100 SCT250 M03/M09 A3007 RMK AC2CI0 SLP238

CYQF;2011-11-16 19:00;CYQF 161900Z 29004KT 15SM FEW100 SCT250 M02/M08 A3006 RMK AC2CI1 SLP234

CYQF;2011-11-16 20:00;CYQF 162000Z 30007KT 15SM FEW100 BKN260 M01/M09 A3003 RMK AC1CI2 SLP226

CYQF;2011-11-16 21:00;CYQF 162100Z 35003KT 15SM BKN250 M01/M10 A3003 RMK CI2 SLP220

CYQF;2011-11-16 22:00;CYQF 162200Z 00000KT 15SM BKN250 M01/M10 A3001 RMK CI5 SLP215

CYQF;2011-11-16 23:00;CYQF 162300Z 10004KT 15SM OVC200 M03/M10 A2998 RMK CI6 SLP207

CYQF;2011-11-17 00:00;CYQF 170000Z 11005KT 15SM OVC200 M04/M10 A2995 RMK CI6 SLP196

CYQF;2011-11-17 01:00;CYQF 170100Z 12005KT 15SM OVC250 M04/M10 A2991 RMK CI8 SLP184

CYQF;2011-11-17 02:00;CYQF 170200Z 12008KT 15SM SCT100 OVC200 M04/M10 A2987 RMK AC3CI5 SLP170

CYQF;2011-11-17 03:00;CYQF 170300Z 14012KT 15SM SCT100 OVC200 M05/M10 A2982 RMK AC4CI3 SLP154

CYQF;2011-11-17 04:00;CYQF 170400Z 12010G15KT 15SM SCT060 OVC100 M04/M09 A2976 RMK SC3AC5 SLP137

CYQF;2011-11-17 05:00;CYQF 170500Z 14012G20KT 15SM BKN030 OVC060 M04/M09 A2973 RMK SC5SC3 SLP125

CYQF;2011-11-17 05:13;CYQF 170513Z 14012G20KT 3SM -SN OVC025 RMK SN3SC5

CYQF;2011-11-17 05:26;CYQF 170526Z 14014G20KT 1SM -SN VV015 RMK SN8

CYQF;2011-11-17 06:00;CYQF 170600Z 14012G20KT 5SM -SN BKN025 OVC060 M05/M07 A2966 RMK SC6SC2 PRESFR SLP090

CYQF;2011-11-17 06:33;CYQF 170633Z 14018G28KT 15SM DRSN FEW010 BKN060 RMK SF1SC5

CYQF;2011-11-17 07:00;CYQF 170700Z 13017G27KT 15SM DRSN FEW010 FEW060 BKN240 M05/M07 A2960 RMK SF1SC2CI2 SLP073

CYQF;2011-11-17 08:00;CYQF 170800Z 13014G24KT 15SM DRSN SCT060 BKN240 M05/M08 A2955 RMK SC4CI2 SLP055

CYQF;2011-11-17 09:00;CYQF 170900Z 13015G25KT 15SM DRSN OVC060 M05/M10 A2950 RMK SC8 SLP032

CYQF;2011-11-17 10:00;CYQF 171000Z 12010G15KT 15SM OVC060 M05/M10 A2946 RMK SC8 SLP020

CYQF;2011-11-17 11:00;CYQF 171100Z 12010G15KT 15SM OVC060 M04/M11 A2944 RMK SC8 SLP015

CYQF;2011-11-17 12:00;CYQF 171200Z 09010KT 15SM OVC060 M04/M11 A2940 RMK SC8 SLP000

CYQF;2011-11-17 12:48;CYQF 171248Z 09012G17KT 2SM -SN DRSN OVC060 RMK SN2SC6

CYQF;2011-11-17 13:00;CYQF 171300Z 08010G15KT 2SM -SN DRSN OVC060 M06/M07 A2936 RMK SN2SC6 SLP990

CYQF;2011-11-17 13:19;CYQF 171319Z 08010KT 10SM -SN OVC060 RMK SC7

CYQF;2011-11-17 14:00;CYQF 171400Z 09012KT 15SM -SN FEW008 OVC060 M05/M08 A2933 RMK SF1SC6 SLP979

CYQF;2011-11-17 15:00;CYQF 171500Z 06008KT 15SM BKN015 BKN060 M05/M07 A2934 RMK SC5SC2 SLP983

CYQF;2011-11-17 15:52;CYQF 171552Z 05007KT 15SM OVC011 RMK SC8

CYQF;2011-11-17 16:00;CYQF 171600Z 06010KT 15SM OVC011 M05/M07 A2937 RMK SC8 SLP993

CYQF;2011-11-17 17:00;CYQF 171700Z 05010G15KT 15SM OVC008 M06/M07 A2939 RMK SC8 CIG RAG SLP997

CYQF;2011-11-17 17:53;CYQF 171753Z 05010KT 15SM OVC011 RMK SC8 CIG RAG

CYQF;2011-11-17 18:00;CYQF 171800Z 05008KT 15SM OVC011 M06/M08 A2943 RMK SC8 CIG RAG SLP015

CYQF;2011-11-17 19:00;CYQF 171900Z 06012KT 15SM OVC011 M07/M09 A2945 RMK SC8 CIG RAG SLP020

CYQF;2011-11-17 19:25;CYQF 171925Z 05010G15KT 6SM -SN OVC011 RMK SC8 CIG RAG

CYQF;2011-11-17 20:00;CYQF 172000Z 03013KT 4SM -SN OVC013 M07/M09 A2948 RMK SC8 VIS N 2 SLP030

CYQF;2011-11-17 21:00;CYQF 172100Z 03010KT 6SM -SN BKN013 OVC020 M08/M11 A2952 RMK SC6SC2 SLP048

CYQF;2011-11-17 22:00;CYQF 172200Z CCA 02010G15KT 6SM -SN SCT011 OVC020 M09/M12 A2955 RMK SC4SC4 SLP056

CYQF;2011-11-17 22:45;CYQF 172245Z 02010KT 1SM -SN OVC011 RMK SN3SC5

CYQF;2011-11-17 23:00;CYQF 172300Z 01008KT 1/2SM SN VV007 M10/M11 A2958 RMK SN8 SLP067

CYQF;2011-11-17 23:04;CYQF 172304Z 03010KT 3/4SM -SN VV007 RMK SN8 VIS VRB 1/2-1

CYQF;2011-11-18 00:00;CYQF 180000Z 04010G15KT 3/4SM -SN VV007 M10/M12 A2962 RMK SN8 VIS VRB 1/2-1 /S01/ SLP085

CYQF;2011-11-18 01:00;CYQF 180100Z 02010G15KT 3/4SM -SN DRSN VV007 M11/M13 A2966 RMK SN8 VIS VRBL 1/2-1 SLP097

CYQF;2011-11-18 01:50;CYQF 180150Z 36010KT 1SM -SN DRSN VV010 RMK SN8

CYQF;2011-11-18 02:00;CYQF 180200Z 01008KT 1SM -SN VV010 M11/M13 A2971 RMK SN8 SLP111

CYQF;2011-11-18 03:00;CYQF 180300Z 01012G18KT 1SM -SN DRSN VV010 M12/M13 A2974 RMK SN8 /SO1/ OCNL BLSN SLP129

CYQF;2011-11-18 04:00;CYQF 180400Z 36010G15KT 1SM -SN DRSN VV010 M12/M14 A2976 RMK SN8 SLP137

CYQF;2011-11-18 05:00;CYQF 180500Z 36010G15KT 1 1/2SM -SN DRSN VV015 M13/M14 A2979 RMK SN8 SLP146

CYQF;2011-11-18 06:00;CYQF 180600Z 01010G15KT 3SM -SN DRSN OVC018 M13/M15 A2982 RMK SC8 /S03/ SLP158

CYQF;2011-11-18 07:00;CYQF 180700Z 01010G15KT 2SM -SN DRSN VV015 M13/M15 A2984 RMK SN8 SLP165

CYQF;2011-11-18 07:29;CYQF 180729Z 02008KT 3SM -SN OVC018 RMK SC8

CYQF;2011-11-18 08:00;CYQF 180800Z 02007KT 5SM -SN OVC021 M14/M16 A2986 RMK SC7 SLP172

CYQF;2011-11-18 09:00;CYQF 180900Z 01008KT 3SM -SN OVC020 M14/M16 A2988 RMK SC8 SLP185

CYQF;2011-11-18 10:00;CYQF 181000Z 01010KT 6SM -SN OVC020 M15/M18 A2990 RMK SC8 SLP191

CYQF;2011-11-18 11:00;CYQF 181100Z 01007KT 6SM -SN OVC020 M15/M18 A2992 RMK SC8 SLP196

CYQF;2011-11-18 12:00;CYQF 181200Z 01010KT 6SM -SN OVC020 M16/M18 A2994 RMK SC7 /S01/ SLP208

CYQF;2011-11-18 13:00;CYQF 181300Z 02008KT 6SM -SN OVC020 M16/M19 A2995 RMK SC8 SLP213

CYQF;2011-11-18 14:00;CYQF 181400Z 01010KT 6SM -SN OVC020 M17/M20 A2997 RMK SC7 SLP218

CYQF;2011-11-18 15:00;CYQF 181500Z 02010KT 3SM -SN DRSN OVC020 M17/M20 A2998 RMK SC8 SLP227

CYQF;2011-11-18 16:00;CYQF 181600Z 01005KT 3SM -SN OVC020 M17/M19 A3000 RMK SC8 SLP232

CYQF;2011-11-18 16:39;CYQF 181639Z 36008KT 2SM -SN OVC020 RMK SN3SC5

CYQF;2011-11-18 17:00;CYQF 181700Z 35008KT 2SM -SN OVC020 M16/M19 A3001 RMK SN3SC5 SLP234

CYQF;2011-11-18 18:00;CYQF 181800Z 02010KT 3SM -SN OVC020 M17/M20 A3001 RMK SC8 /S01/ SLP238

CYQF;2011-11-18 19:00;CYQF 181900Z 02010KT 5SM -SN BKN017 OVC040 M16/M21 A3000 RMK SC6SC2 SLP235

CYQF;2011-11-18 20:00;CYQF 182000Z 02010KT 6SM -SN BKN015 OVC040 M17/M21 A3000 RMK SC6SC2 SLP234

CYQF;2011-11-18 21:00;CYQF 182100Z 01006KT 5SM -SN BKN017 OVC100 M17/M22 A3000 RMK SC7AC1 SLP236

CYQF;2011-11-18 22:00;CYQF 182200Z 36004KT 5SM -SN BKN017 OVC100 M17/M22 A3000 RMK SC6AC2 SLP235

CYQF;2011-11-18 22:39;CYQF 182239Z 02007KT 15SM BKN017 OVC100 RMK SC7AC1

CYQF;2011-11-18 23:00;CYQF 182300Z 03007KT 15SM BKN017 OVC100 M17/M22 A2999 RMK SC7AC1 SLP234

CYQF;2011-11-19 00:00;CYQF 190000Z 03006KT 15SM BKN016 OVC100 M18/M23 A3000 RMK SC7AC1 CIG RAG SLP239

CYQF;2011-11-19 01:00;CYQF 190100Z 02003KT 15SM OVC016 M18/M22 A3001 RMK SC8 SLP241

CYQF;2011-11-19 01:50;CYQF 190150Z 06005KT 10SM -SN OVC016 RMK SC8

CYQF;2011-11-19 02:00;CYQF 190200Z 06005KT 10SM -SN OVC016 M18/M23 A3001 RMK SC8 SLP241

CYQF;2011-11-19 03:00;CYQF 190300Z 05005KT 10SM -SN OVC016 M19/M23 A3001 RMK SC8 SLP243

CYQF;2011-11-19 04:00;CYQF 190400Z 09004KT 10SM -SN OVC016 M19/M23 A3001 RMK SC8 SLP244

CYQF;2011-11-19 04:31;CYQF 190431Z 10003KT 10SM OVC016 RMK SC8

CYQF;2011-11-19 05:00;CYQF 190500Z 10003KT 10SM OVC016 M19/M23 A2999 RMK SC8 SLP239

CYQF;2011-11-19 06:00;CYQF 190600Z CCA 11007KT 10SM OVC016 M19/M23 A2999 RMK SC8 IC SLP236

CYQF;2011-11-19 07:00;CYQF 190700Z 13008KT 10SM OVC016 M19/M23 A2998 RMK SC8 IC SLP233

CYQF;2011-11-19 08:00;CYQF 190800Z 14008KT 10SM OVC015 M19/M23 A2997 RMK SC8 IC SLP230

CYQF;2011-11-19 09:00;CYQF 190900Z 15008KT 10SM BKN015 OVC035 M19/M23 A2995 RMK SC6SC2 IC SLP222

CYQF;2011-11-19 10:00;CYQF 191000Z 13008KT 10SM BKN015 OVC035 M19/M23 A2994 RMK SC6SC2 IC SLP221

CYQF;2011-11-19 11:00;CYQF 191100Z 15012KT 10SM BKN015 OVC035 M19/M23 A2993 RMK SC6SC2 IC SLP216

CYQF;2011-11-19 12:00;CYQF 191200Z 14012KT 10SM OVC019 M19/M23 A2992 RMK SC8 SLP214

CYQF;2011-11-19 13:00;CYQF 191300Z 14010KT 15SM OVC020 M19/M23 A2990 RMK SC8 IC SLP210

CYQF;2011-11-19 14:00;CYQF 191400Z 15010KT 10SM OVC015 M19/M22 A2990 RMK SC8 IC SLP208

CYQF;2011-11-19 15:00;CYQF 191500Z 15014KT 10SM OVC015 M19/M23 A2989 RMK SC8 IC SLP206

CYQF;2011-11-19 16:00;CYQF 191600Z CCA 15015G20KT 10SM DRSN SCT015 BKN250 M20/M24 A2990 RMK SC3CI2 IC SLP207

CYQF;2011-11-19 17:00;CYQF 191700Z 14010G15KT 6SM IC SCT015 BKN120 M20/M24 A2990 RMK SC3AC2 IC SLP208

CYQF;2011-11-19 18:00;CYQF 191800Z 15010G15KT 8SM BKN015 M19/M24 A2989 RMK SC4 IC SLP206

CYQF;2011-11-19 19:00;CYQF 191900Z 14010G15KT 12SM FEW015 M19/M24 A2987 RMK SC1 IC SLP199

CYQF;2011-11-19 20:00;CYQF 192000Z 14010G15KT 15SM SKC M19/M24 A2985 RMK SLP193

CYQF;2011-11-19 21:00;CYQF 192100Z 14010G15KT 15SM FEW015 M18/M23 A2984 RMK SC1 SLP187

CYQF;2011-11-19 22:00;CYQF 192200Z 15010KT 15SM FEW015 M18/M23 A2983 RMK SC1 SLP185

CYQF;2011-11-19 23:00;CYQF 192300Z 15008KT 15SM FEW015 M18/M23 A2983 RMK SC1 SLP183

CYQF;2011-11-20 00:00;CYQF 200000Z 13006KT 15SM SKC M20/M24 A2982 RMK SLP181

CYQF;2011-11-20 01:00;CYQF 200100Z 15003KT 15SM SKC M21/M25 A2981 RMK SLP179

CYQF;2011-11-20 02:00;CYQF 200200Z 00000KT 15SM SKC M21/M25 A2980 RMK SLP176

CYQF;2011-11-20 03:00;CYQF 200300Z 00000KT 15SM SKC M21/M25 A2979 RMK SLP174

CYQF;2011-11-20 04:00;CYQF 200400Z 00000KT 15SM SKC M24/M27 A2979 RMK SLP173

CYQF;2011-11-20 05:00;CYQF 200500Z 00000KT 15SM SKC M24/M26 A2978 RMK SLP171

CYQF;2011-11-20 06:00;CYQF 200600Z 00000KT 15SM SKC M23/M26 A2977 RMK SLP170

CYQF;2011-11-20 07:00;CYQF 200700Z 00000KT 15SM SKC M23/M26 A2977 RMK SLP170

CYQF;2011-11-20 08:00;CYQF 200800Z 00000KT 15SM SCT010 M22/M25 A2977 RMK SF3 SLP169

CYQF;2011-11-20 08:33;CYQF 200833Z 00000KT 15SM BKN006 RMK ST6

CYQF;2011-11-20 09:00;CYQF 200900Z 00000KT 10SM OVC006 M21/M24 A2977 RMK ST8 SLP166

CYQF;2011-11-20 10:00;CYQF 201000Z 30004KT 10SM OVC006 M22/M26 A2979 RMK ST8 SLP171

CYQF;2011-11-20 11:00;CYQF 201100Z 32006KT 10SM OVC006 M22/M25 A2980 RMK ST8 SLP175

CYQF;2011-11-20 12:00;CYQF 201200Z 32006KT 10SM OVC006 M21/M24 A2981 RMK ST8 SLP181

CYQF;2011-11-20 13:00;CYQF 201300Z 33008KT 10SM OVC008 M21/M24 A2982 RMK ST8 SLP184

CYQF;2011-11-20 13:19;CYQF 201319Z 33006KT 10SM -SN OVC008 RMK ST8

CYQF;2011-11-20 14:00;CYQF 201400Z 30004KT 10SM -SN BKN008 OVC014 M21/M25 A2984 RMK ST6SC2 SLP190

CYQF;2011-11-20 14:22;CYQF 201422Z 31003KT 10SM FEW008 SCT100 RMK ST2AC2

CYQF;2011-11-20 15:00;CYQF 201500Z 26004KT 10SM FEW010 M24/M28 A2984 RMK ST2 IC SLP196

CYQF;2011-11-20 16:00;CYQF 201600Z 27004KT 10SM SKC M23/M26 A2984 RMK IC SLP196

CYQF;2011-11-20 17:00;CYQF 201700Z 27005KT 10SM SKC M21/M24 A2983 RMK IC SLP193

CYQF;2011-11-20 18:00;CYQF 201800Z 22005KT 12SM SKC M19/M23 A2983 RMK SLP188

CYQF;2011-11-20 19:00;CYQF 201900Z 18005KT 12SM FEW150 M19/M22 A2980 RMK AC1 SLP180

CYQF;2011-11-20 20:00;CYQF 202000Z 16008KT 12SM SKC M18/M22 A2977 RMK SLP171

CYQF;2011-11-20 21:00;CYQF 202100Z 17006KT 12SM FEW150 M17/M22 A2974 RMK AC1 SLP154

CYQF;2011-11-20 22:00;CYQF 202200Z 17008KT 12SM FEW150 M16/M21 A2971 RMK AC1 SLP145

CYQF;2011-11-20 23:00;CYQF 202300Z 18005KT 12SM FEW150 M17/M21 A2970 RMK AC1 SLP141

CYQF;2011-11-21 00:00;CYQF 210000Z 18002KT 10SM FEW220 M19/M22 A2969 RMK CI1 SLP139

CYQF;2011-11-21 01:00;CYQF 210100Z 00000KT 15SM SKC M19/M23 A2969 RMK SLP138

CYQF;2011-11-21 02:00;CYQF 210200Z 00000KT 15SM BKN210 M19/M22 A2968 RMK CI2 SLP136

CYQF;2011-11-21 03:00;CYQF 210300Z 20004KT 15SM FEW210 M19/M23 A2968 RMK CI1 SLP137

CYQF;2011-11-21 04:00;CYQF 210400Z 16003KT 15SM BKN210 M17/M20 A2967 RMK CI2 SLP134

CYQF;2011-11-21 05:00;CYQF 210500Z 19003KT 15SM SCT210 M17/M21 A2966 RMK CI2 SLP133

CYQF;2011-11-21 06:00;CYQF 210600Z 18005KT 15SM FEW210 M17/M21 A2966 RMK CI1 SLP125

CYQF;2011-11-21 07:00;CYQF 210700Z 17006KT 15SM SCT210 M16/M20 A2966 RMK CI2 SLP123

CYQF;2011-11-21 08:00;CYQF 210800Z CCA 19004KT 15SM SCT210 M17/M21 A2965 RMK CI2 SLP121

CYQF;2011-11-21 09:00;CYQF 210900Z 19005KT 15SM FEW210 M17/M21 A2965 RMK CI1 SLP115

CYQF;2011-11-21 10:00;CYQF 211000Z 20007KT 15SM SKC M18/M22 A2965 RMK SLP116

CYQF;2011-11-21 11:00;CYQF 211100Z 20006KT 15SM SKC M17/M22 A2964 RMK SLP113

CYQF;2011-11-21 12:00;CYQF 211200Z 18004KT 15SM SKC M16/M21 A2963 RMK SLP112

CYQF;2011-11-21 13:00;CYQF 211300Z 17003KT 15SM SKC M18/M22 A2962 RMK SLP107

CYQF;2011-11-21 14:00;CYQF 211400Z 00000KT 15SM FEW220 M17/M20 A2959 RMK CI0 SLP098

CYQF;2011-11-21 15:00;CYQF 211500Z 18004KT 15SM BKN100 BKN220 M15/M19 A2957 RMK AC5CI1 SLP090

CYQF;2011-11-21 16:00;CYQF 211600Z 17004KT 15SM FEW040 BKN100 BKN220 M12/M17 A2954 RMK SC1AC5CI1 SLP080

CYQF;2011-11-21 17:00;CYQF 211700Z 12003KT 15SM FEW040 BKN100 BKN220 M09/M14 A2950 RMK SC1AC5CI1 SLP068

CYQF;2011-11-21 18:00;CYQF 211800Z 17007KT 15SM FEW040 BKN100 BKN220 M06/M14 A2949 RMK SC1AC4CI2 SLP048

CYQF;2011-11-21 19:00;CYQF 211900Z 15005KT 15SM FEW040 BKN100 BKN230 M06/M12 A2946 RMK SC1AC4CI1 SLP039

CYQF;2011-11-21 20:00;CYQF 212000Z 18010KT 15SM FEW040 SCT100 BKN220 M02/M09 A2941 RMK SC1AC3CI2 SLP025

CYQF;2011-11-21 21:00;CYQF 212100Z 19008KT 15SM FEW040 SCT100 BKN220 M01/M08 A2941 RMK SC1AC3CI2 SLP015

CYQF;2011-11-21 22:00;CYQF 212200Z 18007KT 15SM FEW040 SCT100 BKN220 00/M07 A2939 RMK SC1AC2CI0 SLP010

CYQF;2011-11-21 23:00;CYQF 212300Z 18008KT 15SM BKN100 BKN220 00/M07 A2939 RMK AC5CI0 SLP009

CYQF;2011-11-22 00:00;CYQF 220000Z 19008KT 15SM FEW100 M01/M08 A2941 RMK AC2 SLP015

CYQF;2011-11-22 01:00;CYQF 220100Z 24008KT 15SM FEW100 M02/M10 A2944 RMK AC2 SLP024

CYQF;2011-11-22 02:00;CYQF 220200Z 24008KT 15SM FEW100 M03/M11 A2948 RMK AC1 SLP035

CYQF;2011-11-22 03:00;CYQF 220300Z 25005KT 15SM FEW100 M07/M12 A2952 RMK AC1 SLP056

CYQF;2011-11-22 04:00;CYQF 220400Z 18006KT 15SM BKN100 M10/M14 A2954 RMK AC5 SLP062

CYQF;2011-11-22 05:00;CYQF 220500Z 23010KT 15SM BKN100 M06/M12 A2955 RMK AC6 SLP067

CYQF;2011-11-22 06:00;CYQF 220600Z 18007KT 15SM BKN100 M04/M11 A2956 RMK AC6 SLP059

CYQF;2011-11-22 07:00;CYQF 220700Z 17006KT 15SM OVC100 M03/M10 A2955 RMK AC8 SLP056

CYQF;2011-11-22 08:00;CYQF 220800Z 18008KT 15SM OVC100 M02/M08 A2952 RMK AC8 SLP046

CYQF;2011-11-22 09:00;CYQF 220900Z 18010KT 15SM BKN100 M02/M09 A2949 RMK AC5 SLP026

CYQF;2011-11-22 10:00;CYQF 221000Z 17010KT 15SM FEW100 M02/M09 A2945 RMK AC2 SLP013

CYQF;2011-11-22 11:00;CYQF 221100Z 16012G17KT 15SM FEW100 M01/M08 A2940 RMK AC2 SLP997

CYQF;2011-11-22 12:00;CYQF 221200Z 16012G17KT 15SM FEW100 M02/M06 A2934 RMK AC2 SLP974

CYQF;2011-11-22 13:00;CYQF 221300Z 17018G28KT 15SM BKN100 M01/M05 A2930 RMK AC6 SLP960

CYQF;2011-11-22 14:00;CYQF 221400Z 17015G23KT 15SM BKN100 M00/M04 A2924 RMK AC5 SLP943

CYQF;2011-11-22 15:00;CYQF 221500Z 17014G24KT 15SM BKN100 BKN250 01/M04 A2921 RMK AC6CI1 SLP930

CYQF;2011-11-22 16:00;CYQF 221600Z 17015G24KT 15SM BKN100 BKN250 02/M04 A2918 RMK AC6CI1 SLP921

CYQF;2011-11-22 17:00;CYQF 221700Z 18017G26KT 15SM BKN100 BKN250 04/M04 A2914 RMK AC5CI2 SLP908

CYQF;2011-11-22 18:00;CYQF 221800Z 17013G22KT 15SM BKN100 BKN250 05/M03 A2915 RMK AC5CI2 SLP902

CYQF;2011-11-22 19:00;CYQF 221900Z 18010KT 15SM BKN100 BKN250 06/M02 A2915 RMK AC5CI1 SLP903

CYQF;2011-11-22 20:00;CYQF 222000Z 21015G20KT 15SM BKN100 BKN250 09/M03 A2914 RMK AC5CI2 SLP901

CYQF;2011-11-22 21:00;CYQF 222100Z 23015G20KT 15SM SCT100 BKN250 09/M03 A2915 RMK AC2CI2 SLP897

CYQF;2011-11-22 22:00;CYQF 222200Z 24012G19KT 15SM FEW040 FEW100 FEW250 08/M02 A2919 RMK SC1AC2CI1 SLP910

CYQF;2011-11-22 23:00;CYQF 222300Z 24012G20KT 15SM FEW034 FEW100 07/M02 A2925 RMK CU1AC1 SLP927

CYQF;2011-11-23 00:00;CYQF 230000Z 22010G18KT 15SM FEW024 SCT100 05/M01 A2932 RMK CU1AC2 SLP961

CYQF;2011-11-23 01:00;CYQF 230100Z 24010KT 15SM SCT030 05/M01 A2938 RMK SC3 SLP980

CYQF;2011-11-23 02:00;CYQF 230200Z 24007KT 15SM SCT100 04/M01 A2943 RMK AC0 SLP995

CYQF;2011-11-23 03:00;CYQF 230300Z 24006KT 15SM BKN100 03/M01 A2946 RMK AC2 SLP008

CYQF;2011-11-23 04:00;CYQF 230400Z 17005KT 15SM OVC100 01/M01 A2949 RMK AC8 SLP017

CYQF;2011-11-23 05:00;CYQF 230500Z 25004KT 15SM OVC100 00/M01 A2950 RMK AC6 SLP021

CYQF;2011-11-23 06:00;CYQF 230600Z 15002KT 15SM BKN100 OVC250 M00/M01 A2950 RMK AC6CI2 SLP020

CYQF;2011-11-23 07:00;CYQF 230700Z 17004KT 15SM BKN100 OVC250 M01/M03 A2948 RMK AC6CI2 SLP014

CYQF;2011-11-23 08:00;CYQF 230800Z 00000KT 15SM BKN100 BKN250 M02/M05 A2947 RMK AC5CI0 SLP011

CYQF;2011-11-23 09:00;CYQF 230900Z 12003KT 15SM BKN100 M02/M06 A2946 RMK AC7 SLP005

CYQF;2011-11-23 10:00;CYQF 231000Z 16005KT 15SM BKN100 M01/M05 A2945 RMK AC7 SLP000

CYQF;2011-11-23 11:00;CYQF 231100Z 05004KT 15SM BKN100 M01/M05 A2942 RMK AC6 SLP993

CYQF;2011-11-23 12:00;CYQF 231200Z 00000KT 15SM OVC080 M02/M04 A2939 RMK AC8 SLP983

CYQF;2011-11-23 13:00;CYQF 231300Z 09007KT 15SM BKN080 M01/M03 A2934 RMK AC7 SLP967

CYQF;2011-11-23 14:00;CYQF 231400Z 00000KT 15SM BKN080 BKN250 M02/M03 A2929 RMK AC5CI2 SLP952

CYQF;2011-11-23 15:00;CYQF 231500Z 15007KT 15SM FEW040 SCT090 BKN250 M02/M02 A2926 RMK SC1AC2CI2 SLP941

CYQF;2011-11-23 16:00;CYQF 231600Z 00000KT 15SM FEW040 SCT090 BKN250 M02/M02 A2923 RMK SC1AC2CI2 SLP933

CYQF;2011-11-23 17:00;CYQF 231700Z 00000KT 15SM FEW020 FEW090 BKN250 M01/M02 A2921 RMK SC1AC1CI2 SLP925

CYQF;2011-11-23 18:00;CYQF 231800Z 00000KT 15SM FEW090 BKN250 M00/M01 A2920 RMK AC2CI2 SLP922

CYQF;2011-11-23 19:00;CYQF 231900Z 28007KT 15SM FEW090 BKN250 00/M01 A2917 RMK AC2CI2 FG BANK W-NW SLP914

CYQF;2011-11-23 19:17;CYQF 231917Z 28005KT 15SM VCFG FEW003 FEW090 BKN250 RMK SF1AC1CI3 FG BANK W-NW

CYQF;2011-11-23 20:00;CYQF 232000Z 29008KT 10SM VCFG FEW003 FEW090 BKN250 M00/M01 A2917 RMK SF1AC1CI2 FG BANK W - NW SLP912

CYQF;2011-11-23 20:44;CYQF 232044Z 33011KT 2SM BR BKN003 OVC090 RMK SF6AC2

CYQF;2011-11-23 21:00;CYQF 232100Z 31012KT 2SM BR OVC003 M01/M01 A2920 RMK SF8 SLP926

CYQF;2011-11-23 21:41;CYQF 232141Z 32004KT 5SM BR SCT003 BKN210 RMK SF2CI1 VIS SW 2

CYQF;2011-11-23 22:00;CYQF 232200Z 32004KT 6SM BR FEW003 BKN210 00/M01 A2923 RMK SF1CI2 VIS S 2 SLP935

CYQF;2011-11-23 23:00;CYQF 232300Z 00000KT 6SM BR SCT250 01/M01 A2925 RMK CI1 SLP941

CYQF;2011-11-24 00:00;CYQF 240000Z 24003KT 6SM BR FEW080 SCT250 M03/M04 A2926 RMK AC1CI1 SLP950

CYQF;2011-11-24 01:00;CYQF 240100Z 26004KT 10SM BKN250 M04/M05 A2929 RMK CI2 SLP958

CYQF;2011-11-24 02:00;CYQF 240200Z 27006KT 15SM BKN060 BKN250 M04/M04 A2932 RMK SC6CI1 FROIN SLP968

CYQF;2011-11-24 03:00;CYQF 240300Z 00000KT 15SM BKN060 OVC250 M03/M03 A2934 RMK SC7CI1 FROIN SLP976

CYQF;2011-11-24 03:13;CYQF 240313Z 00000KT 10SM -SN OVC060 RMK SC8 VIS NW-N 6

CYQF;2011-11-24 03:33;CYQF 240333Z 29008KT 1SM -SN VV025 RMK SN8

CYQF;2011-11-24 04:00;CYQF 240400Z 32005KT 1SM -SN VV018 M01/M01 A2937 RMK SN8 SLP984

CYQF;2011-11-24 04:02;CYQF 240402Z 27004KT 1 1/2SM -SHGS VV020 RMK SN8

CYQF;2011-11-24 04:06;CYQF 240406Z 25004KT 1 1/2SM -SN -FZRA VV020 RMK SN8

CYQF;2011-11-24 04:11;CYQF 240411Z 27007KT 1SM -SN VV018 RMK SN8

CYQF;2011-11-24 04:28;CYQF 240428Z 27005KT 3/4SM -SN VV015 RMK SN8

CYQF;2011-11-24 04:33;CYQF 240433Z 25003KT 1SM -SN VV020 RMK SN8

CYQF;2011-11-24 04:43;CYQF 240443Z 24003KT 1 1/2SM -SN VV020 RMK SN8 /S01/ VIS W-NW 3

CYQF;2011-11-24 05:00;CYQF 240500Z CCA 24003KT 3SM -SN OVC060 M01/M01 A2939 RMK SN3SC5 /S01/ SLP992

CYQF;2011-11-24 05:17;CYQF 240517Z 24004KT 5SM -SN OVC007 RMK ST8 VIS W-NW 10

CYQF;2011-11-24 06:00;CYQF 240600Z 24003KT 8SM FEW007 OVC100 M01/M01 A2941 RMK ST1AC7 /S01/ SLP995

CYQF;2011-11-24 07:00;CYQF 240700Z 24002KT 10SM FEW010 OVC100 M01/M01 A2944 RMK SF2AC6 SLP005

CYQF;2011-11-24 08:00;CYQF 240800Z 20003KT 6SM BR BKN100 M02/M02 A2946 RMK AC5 SLP011

CYQF;2011-11-24 08:21;CYQF 240821Z 00000KT 1SM BR SCT001 BKN100 RMK ST3AC3

CYQF;2011-11-24 08:37;CYQF 240837Z 20002KT 1/2SM FZFG BKN100 RMK FG3AC3

CYQF;2011-11-24 09:00;CYQF 240900Z 27005KT 6SM BR BKN100 M04/M04 A2948 RMK AC5 SLP025

CYQF;2011-11-24 10:00;CYQF 241000Z 28005KT 15SM FEW100 M05/M06 A2952 RMK AC2 SLP036

CYQF;2011-11-24 11:00;CYQF 241100Z 29008KT 15SM FEW100 M05/M06 A2955 RMK AC2 SLP047

CYQF;2011-11-24 12:00;CYQF 241200Z 30005KT 15SM FEW100 M07/M08 A2957 RMK AC2 SLP062

CYQF;2011-11-24 13:00;CYQF 241300Z 30003KT 15SM FEW100 M08/M08 A2959 RMK AC2 SLP069

CYQF;2011-11-24 14:00;CYQF 241400Z 00000KT 15SM FEW100 M08/M08 A2961 RMK AC2 SLP075

CYQF;2011-11-24 15:00;CYQF 241500Z 21002KT 15SM FEW100 M10/M11 A2965 RMK AC1 SLP094

CYQF;2011-11-24 15:31;CYQF 241531Z 17005KT 1/2SM FZFG FEW100 RMK AC1 VIS NE-E 5 BR

CYQF;2011-11-24 15:36;CYQF 241536Z 17006KT 6SM BR FEW100 RMK AC1 VIS SW-NW 1/2 FZFG

CYQF;2011-11-24 16:00;CYQF 241600Z 18006KT 6SM BR FEW100 M11/M12 A2962 RMK AC1 VIS NW 11/2 SLP084

CYQF;2011-11-24 17:00;CYQF 241700Z 18003KT 8SM FEW100 FEW250 M08/M08 A2963 RMK AC1CI1 AC TR FOG BNK DIST NW SLP086

CYQF;2011-11-24 18:00;CYQF 241800Z 18003KT 8SM FEW250 M04/M05 A2963 RMK CI1 SLP076

CYQF;2011-11-24 19:00;CYQF 241900Z 18006KT 8SM BKN250 M02/M04 A2962 RMK CI2 HZ SLP073

CYQF;2011-11-24 20:00;CYQF 242000Z 16008KT 12SM BKN250 M02/M04 A2959 RMK CI7 SLP064

CYQF;2011-11-24 21:00;CYQF 242100Z 13007KT 12SM BKN100 OVC250 M02/M03 A2957 RMK AC7CI1 HZ SLP056

CYQF;2011-11-24 22:00;CYQF 242200Z 13007KT 12SM BKN100 OVC250 M01/M03 A2955 RMK AC7CI1 SLP049

CYQF;2011-11-24 23:00;CYQF 242300Z 14010KT 12SM BKN012 BKN100 OVC250 M01/M03 A2952 RMK ST5AC2CI1 CIG RAG SLP041

CYQF;2011-11-25 00:00;CYQF 250000Z 15010KT 5SM BR BKN012 OVC100 M01/M02 A2948 RMK ST6AC2 CIG RAG SLP029

CYQF;2011-11-25 01:00;CYQF 250100Z 17008KT 5SM BR BKN009 M01/M02 A2945 RMK ST6 CIG RAG SLP018

CYQF;2011-11-25 03:00;CYQF 250300Z 16012KT 4SM BR OVC005 M01/M02 A2938 RMK ST8 CIG RAG SLP999

CYQF;2011-11-25 04:00;CYQF 250400Z 18012KT 6SM BR SKC M04/M04 A2934 RMK SLP984

CYQF;2011-11-25 05:00;CYQF 250500Z 18005KT 15SM FEW090 SCT210 M05/M06 A2931 RMK AC1CI2 SLP977

CYQF;2011-11-25 06:00;CYQF 250600Z 20010G15KT 15SM BKN100 M04/M07 A2930 RMK AC5 SLP965

CYQF;2011-11-25 07:00;CYQF 250700Z 18010KT 15SM FEW100 M04/M08 A2929 RMK AC2 SLP963

CYQF;2011-11-25 08:00;CYQF 250800Z 19010G15KT 15SM SKC M03/M08 A2928 RMK SLP961

CYQF;2011-11-25 09:00;CYQF 250900Z 19010KT 15SM SKC M05/M09 A2929 RMK SLP959

CYQF;2011-11-25 10:00;CYQF 251000Z 18007KT 15SM SKC M05/M09 A2929 RMK SLP959

CYQF;2011-11-25 11:00;CYQF 251100Z 20008KT 15SM SKC M06/M10 A2929 RMK SLP959

CYQF;2011-11-25 12:00;CYQF 251200Z 21003KT 15SM FEW100 M07/M10 A2930 RMK AC2 SLP965

CYQF;2011-11-25 13:00;CYQF 251300Z 22008KT 15SM BKN100 M08/M10 A2933 RMK AC6 SLP975

CYQF;2011-11-25 14:00;CYQF 251400Z 22008KT 15SM BKN100 M04/M08 A2936 RMK AC7 SLP985

CYQF;2011-11-25 15:00;CYQF 251500Z 23007KT 15SM BKN100 M04/M08 A2940 RMK AC7 SLP997

CYQF;2011-11-25 16:00;CYQF 251600Z 22006KT 15SM FEW040 BKN090 M04/M08 A2946 RMK SC1AC6 SLP015

CYQF;2011-11-25 17:00;CYQF 251700Z 00000KT 15SM FEW040 BKN090 M03/M07 A2952 RMK SC1AC7 SLP033

CYQF;2011-11-25 18:00;CYQF 251800Z 31010KT 15SM FEW040 BKN090 BKN250 00/M07 A2958 RMK SC1AC3CI1 SLP057

CYQF;2011-11-25 19:00;CYQF 251900Z 31012G18KT 15SM FEW040 FEW090 BKN250 01/M07 A2963 RMK SC1AC2CI3 SLP074

CYQF;2011-11-25 20:00;CYQF 252000Z 30010G15KT 15SM FEW040 FEW100 BKN250 02/M07 A2969 RMK SC1AC1CI3 SC TR SLP092

CYQF;2011-11-25 21:00;CYQF 252100Z 31015G28KT 15SM FEW040 FEW100 SCT250 03/M08 A2976 RMK SC1AC2CI0 PRESRR SLP119

CYQF;2011-11-25 22:00;CYQF 252200Z 32010G15KT 15SM FEW040 SCT100 BKN250 01/M07 A2983 RMK SC1AC2CI2 CU SLP141

CYQF;2011-11-25 23:00;CYQF 252300Z CCA 32013G22KT 15SM FEW040 SCT250 01/M14 A2990 RMK SC2CI0 PRESRR SLP163

CYQF;2011-11-26 00:00;CYQF 260000Z 30010G15KT 15SM FEW040 FEW100 M01/M13 A2997 RMK SC1AC1 PRESRR SLP199

CYQF;2011-11-26 01:00;CYQF 260100Z 32008KT 15SM SKC M04/M14 A3003 RMK SLP216

CYQF;2011-11-26 02:00;CYQF 260200Z 28006KT 15SM SKC M08/M16 A3008 RMK SLP233

CYQF;2011-11-26 03:00;CYQF 260300Z 26005KT 15SM SKC M09/M16 A3011 RMK SLP251

CYQF;2011-11-26 04:00;CYQF 260400Z 20006KT 15SM SKC M13/M17 A3015 RMK SLP263

CYQF;2011-11-26 05:00;CYQF 260500Z 18006KT 15SM SKC M13/M17 A3018 RMK SLP274

CYQF;2011-11-26 06:00;CYQF 260600Z 18005KT 15SM SKC M11/M17 A3020 RMK SLP280

CYQF;2011-11-26 07:00;CYQF 260700Z 19007KT 15SM SKC M12/M17 A3022 RMK SLP288

CYQF;2011-11-26 08:00;CYQF 260800Z 22007KT 15SM SCT240 M13/M17 A3024 RMK CI2 SLP292

CYQF;2011-11-26 09:00;CYQF 260900Z 20006KT 15SM SCT240 M11/M15 A3025 RMK CI2 SLP295

CYQF;2011-11-26 10:00;CYQF 261000Z 18006KT 15SM BKN240 M10/M14 A3025 RMK CI5 SLP294

CYQF;2011-11-26 11:00;CYQF 261100Z 17005KT 15SM BKN240 M09/M13 A3022 RMK CI3 SLP285

CYQF;2011-11-26 12:00;CYQF 261200Z 16006KT 15SM SCT120 OVC210 M08/M13 A3019 RMK AC3CI4 SLP275

CYQF;2011-11-26 13:00;CYQF 261300Z 17008KT 15SM SCT120 OVC210 M06/M11 A3017 RMK AC3CI5 SLP269

CYQF;2011-11-26 14:00;CYQF 261400Z 19009KT 15SM BKN100 OVC210 M03/M10 A3013 RMK AC6CI2 SLP256

CYQF;2011-11-26 15:00;CYQF 261500Z 18009KT 15SM BKN100 OVC210 M02/M09 A3011 RMK AC6CI2 SLP249

CYQF;2011-11-26 16:00;CYQF 261600Z 20010G15KT 15SM FEW030 BKN100 OVC210 M00/M09 A3009 RMK SC1AC5CI2 SLP245

CYQF;2011-11-26 17:00;CYQF 261700Z 18010G15KT 15SM FEW030 BKN100 OVC250 00/M07 A3006 RMK SC1AC5CI2 SLP236

CYQF;2011-11-26 18:00;CYQF 261800Z 18010KT 15SM SCT100 BKN250 02/M06 A3006 RMK AC3CI4 SLP230

CYQF;2011-11-26 19:00;CYQF 261900Z 18005KT 15SM FEW030 BKN100 BKN250 02/M06 A3004 RMK SC1AC6CI1 SLP225

CYQF;2011-11-26 20:00;CYQF 262000Z 20006KT 15SM FEW030 SCT100 BKN250 04/M04 A3000 RMK SC1AC2CI1 SLP212

CYQF;2011-11-26 21:00;CYQF 262100Z 19010KT 15SM FEW030 FEW100 SCT250 05/M04 A2997 RMK SC1AC1CI2 SLP196

CYQF;2011-11-26 22:00;CYQF 262200Z 18010KT 15SM FEW030 FEW100 BKN250 03/M04 A2995 RMK SC1AC1CI2 SC TR SLP188

CYQF;2011-11-26 23:00;CYQF 262300Z 18010KT 15SM FEW030 FEW100 BKN250 05/M03 A2992 RMK SC1AC2CI1 SLP181

CYQF;2011-11-27 00:00;CYQF 270000Z 20010G15KT 15SM FEW030 FEW100 BKN250 04/M04 A2990 RMK SC1AC1CI2 SC TR SLP170

CYQF;2011-11-27 01:00;CYQF 270100Z 19013KT 15SM FEW100 SCT250 03/M03 A2991 RMK AC2CI2 SLP171

CYQF;2011-11-27 02:00;CYQF 270200Z 19012KT 15SM FEW100 02/M03 A2990 RMK AC2 SLP168

CYQF;2011-11-27 03:00;CYQF 270300Z 18010KT 15SM FEW100 BKN250 03/M03 A2986 RMK AC2CI1 SLP152

CYQF;2011-11-27 04:00;CYQF 270400Z 18010KT 15SM FEW100 BKN250 03/M03 A2985 RMK AC2CI1 SLP147

CYQF;2011-11-27 05:00;CYQF 270500Z 18009KT 15SM FEW100 BKN250 03/M03 A2983 RMK AC2CI3 SLP142

CYQF;2011-11-27 06:00;CYQF 270600Z 18008KT 15SM SCT100 BKN250 05/M02 A2980 RMK AC3CI3 SLP124

CYQF;2011-11-27 07:00;CYQF 270700Z 16008KT 15SM SCT100 BKN250 05/M02 A2978 RMK AC3CI2 SLP117

CYQF;2011-11-27 08:00;CYQF 270800Z 17010KT 15SM FEW100 BKN250 06/M02 A2973 RMK AC2CI2 SLP101

CYQF;2011-11-27 09:00;CYQF 270900Z 16010KT 15SM FEW100 BKN250 06/M02 A2969 RMK AC2CI2 SLP081

CYQF;2011-11-27 10:00;CYQF 271000Z 17015G20KT 15SM FEW100 BKN250 07/M02 A2967 RMK AC2CI2 SLP075

CYQF;2011-11-27 11:00;CYQF 271100Z 17014KT 15SM FEW100 BKN250 07/M02 A2965 RMK AC2CI2 SLP067

CYQF;2011-11-27 12:00;CYQF 271200Z 16010KT 15SM FEW100 BKN250 07/M01 A2962 RMK AC2CI2 SLP057

CYQF;2011-11-27 13:00;CYQF 271300Z 20015KT 15SM FEW080 BKN250 07/M01 A2958 RMK AC2CI2 SLP043

CYQF;2011-11-27 14:00;CYQF 271400Z 19010G15KT 15SM SCT090 BKN250 07/M01 A2957 RMK AC3CI4 SLP041

CYQF;2011-11-27 15:00;CYQF 271500Z 19010G15KT 15SM BKN070 BKN150 07/M00 A2952 RMK AC5AC2 SLP023

CYQF;2011-11-27 16:00;CYQF 271600Z 18010G15KT 15SM FEW030 BKN080 BKN200 07/M00 A2948 RMK SC1AC5CI2 SLP010

CYQF;2011-11-27 17:00;CYQF 271700Z 20010G20KT 15SM SCT100 BKN250 08/00 A2945 RMK AC4CI3 SLP000

CYQF;2011-11-27 18:00;CYQF 271800Z 22010G20KT 15SM FEW100 BKN250 11/M00 A2942 RMK AC2CI5 SLP982

CYQF;2011-11-27 19:00;CYQF 271900Z 21010KT 15SM FEW100 BKN250 11/00 A2937 RMK AC1CI6 SLP966

CYQF;2011-11-27 20:00;CYQF 272000Z 28015G23KT 15SM FEW100 BKN250 13/M02 A2938 RMK AC1CI3 SLP968

CYQF;2011-11-27 21:00;CYQF 272100Z CCA 25015G30KT 15SM FEW100 SCT250 13/M02 A2938 RMK AC1CI2 SLP963

CYQF;2011-11-27 22:00;CYQF 272200Z 25015G28KT 15SM FEW100 FEW250 12/M01 A2941 RMK AC1CI2 SLP973

CYQF;2011-11-27 23:00;CYQF 272300Z 02015G30KT 15SM FEW020 BKN130 BKN250 05/M00 A2951 RMK SC1AC4CI1 PRESRR SLP003

CYQF;2011-11-28 00:00;CYQF 280000Z 01010KT 15SM FEW015 BKN100 BKN250 03/M00 A2954 RMK SC1AC5CI1 SLP028

CYQF;2011-11-28 01:00;CYQF 280100Z 33006KT 15SM BKN016 OVC100 00/M01 A2958 RMK SC6AC2 SLP042

CYQF;2011-11-28 01:33;CYQF 280133Z 34015G22KT 15SM -RASN OVC015 RMK SC8

CYQF;2011-11-28 01:47;CYQF 280147Z 35008KT 2SM -RASN OVC015 RMK SN2SC6

CYQF;2011-11-28 02:00;CYQF 280200Z 35011KT 1SM -RASN VV011 00/00 A2967 RMK SN8 SLP070

CYQF;2011-11-28 02:09;CYQF 280209Z 34006KT 1SM -SN VV010 RMK SN8

CYQF;2011-11-28 03:00;CYQF 280300Z 34012G20KT 1 1/2SM -SN OVC015 00/M00 A2973 RMK SN3SC5 VIS VRB 1-2 /S01/ SLP098

CYQF;2011-11-28 03:10;CYQF 280310Z 33010G15KT 6SM -SN SCT015 OVC035 RMK SC3SC5

CYQF;2011-11-28 03:28;CYQF 280328Z 32010G15KT 10SM SCT015 OVC035 RMK SC3SC5

CYQF;2011-11-28 04:00;CYQF 280400Z 30010KT 15SM FEW015 OVC040 00/M01 A2975 RMK SC2SC6 SLP104

CYQF;2011-11-28 05:00;CYQF 280500Z CCA 29010G15KT 8SM -SN FEW015 OVC040 01/M00 A2982 RMK SC2SC6 PRESRR SLP127

CYQF;2011-11-28 05:32;CYQF 280532Z 26010KT 15SM FEW015 BKN045 RMK SC2SC3

CYQF;2011-11-28 06:00;CYQF 280600Z 25008KT 15SM FEW020 BKN045 M00/M01 A2987 RMK SC2SC3 SLP143

CYQF;2011-11-28 06:22;CYQF 280622Z 25012KT 2SM -SN OVC040 RMK SN2SC6

CYQF;2011-11-28 07:00;CYQF 280700Z 26008KT 2SM -SN OVC020 M00/M00 A2991 RMK SN2SC6 SLP156

CYQF;2011-11-28 07:43;CYQF 280743Z 27004KT 1SM -SN VV014 RMK SN8

CYQF;2011-11-28 08:00;CYQF 280800Z 27005KT 1SM -SN VV013 M00/M00 A2995 RMK SN8 SLP168

CYQF;2011-11-28 08:25;CYQF 280825Z 27003KT 3SM -SN BKN025 BKN050 RMK SC5SC2

CYQF;2011-11-28 09:00;CYQF 280900Z 33003KT 10SM -SN FEW012 BKN025 M00/M01 A2999 RMK SC2SC5 SLP183

CYQF;2011-11-28 10:00;CYQF 281000Z 25004KT 15SM -SN FEW012 BKN025 M02/M02 A3004 RMK SC2SC5 SLP196

CYQF;2011-11-28 10:42;CYQF 281042Z 23005KT 15SM FEW012 SCT025 BKN050 RMK SC2SC2SC3

CYQF;2011-11-28 11:00;CYQF 281100Z 24006KT 15SM SCT025 BKN050 M02/M02 A3007 RMK SC3SC4 SLP208

CYQF;2011-11-28 12:00;CYQF 281200Z CCA 24005KT 15SM SCT025 BKN050 M02/M03 A3010 RMK SC3SC4 /S01/ SLP234

CYQF;2011-11-28 13:00;CYQF 281300Z 00000KT 15SM FEW020 BKN050 M02/M03 A3012 RMK SC2SC4 SLP238

CYQF;2011-11-28 14:00;CYQF 281400Z 00000KT 15SM FEW020 OVC060 M02/M03 A3015 RMK SC2SC6 SLP247

CYQF;2011-11-28 15:00;CYQF 281500Z 17004KT 15SM BKN060 OVC220 M03/M04 A3016 RMK SC6CI2 SLP258

CYQF;2011-11-28 16:00;CYQF 281600Z 18005KT 15SM FEW070 FEW220 M05/M06 A3016 RMK AC1CI1 SLP260

CYQF;2011-11-28 17:00;CYQF 281700Z 16005KT 15SM SCT210 M05/M06 A3016 RMK CI2 SLP258

CYQF;2011-11-28 18:00;CYQF 281800Z 16006KT 15SM FEW070 BKN240 M04/M05 A3017 RMK AC1CI3 SLP263

CYQF;2011-11-28 19:00;CYQF 281900Z 17008KT 15SM FEW040 FEW070 BKN240 M01/M03 A3015 RMK SC1AC1CI2 SLP257

CYQF;2011-11-28 20:00;CYQF 282000Z 17010G15KT 15SM FEW030 FEW070 BKN240 00/M02 A3013 RMK CF2AC1CI2 SLP251

CYQF;2011-11-28 21:00;CYQF 282100Z 17010G15KT 15SM FEW015 SCT070 BKN240 00/M02 A3013 RMK CF1AC2CI2 SLP245

CYQF;2011-11-28 22:00;CYQF 282200Z 17010G15KT 15SM SCT240 M00/M03 A3010 RMK CI2 SLP236

CYQF;2011-11-28 23:00;CYQF 282300Z 18010KT 15SM FEW240 M01/M03 A3007 RMK CI1 SLP227

CYQF;2011-11-29 00:00;CYQF 290000Z 18010KT 15SM FEW240 M04/M05 A3005 RMK CI1 SLP225

CYQF;2011-11-29 01:00;CYQF 290100Z 15002KT 15SM SKC M05/M06 A3005 RMK SLP223

CYQF;2011-11-29 02:00;CYQF 290200Z 00000KT 15SM SKC M08/M09 A3004 RMK SLP219

CYQF;2011-11-29 03:00;CYQF 290300Z 18004KT 15SM PRFG SKC M09/M10 A3001 RMK SLP217

CYQF;2011-11-29 04:00;CYQF 290400Z 20005KT 15SM PRFG SKC M11/M11 A3000 RMK SLP213

CYQF;2011-11-29 05:00;CYQF 290500Z 18004KT 3SM BR SKC M10/M10 A2998 RMK VIS SW 1/4 SLP209

CYQF;2011-11-29 05:06;CYQF 290506Z 18002KT 15SM PRFG SKC

CYQF;2011-11-29 06:00;CYQF 290600Z 00000KT 15SM SKC M11/M11 A2997 RMK SLP205

CYQF;2011-11-29 07:00;CYQF 290700Z 22004KT 15SM SKC M10/M11 A2995 RMK SLP201

CYQF;2011-11-29 08:00;CYQF 290800Z 20004KT 15SM SKC M11/M12 A2995 RMK SLP199

CYQF;2011-11-29 09:00;CYQF 290900Z 07002KT 15SM SKC M10/M11 A2995 RMK SLP193

CYQF;2011-11-29 10:00;CYQF 291000Z 18005KT 15SM SKC M12/M13 A2995 RMK SLP194

CYQF;2011-11-29 11:00;CYQF 291100Z 18005KT 15SM SKC M11/M12 A2994 RMK SLP191

CYQF;2011-11-29 12:00;CYQF 291200Z 20004KT 15SM SKC M09/M10 A2995 RMK SLP196

CYQF;2011-11-29 13:00;CYQF 291300Z 20004KT 15SM FEW240 M09/M10 A2994 RMK CI1 SLP195

CYQF;2011-11-29 14:00;CYQF 291400Z 18003KT 15SM FEW100 BKN240 M07/M08 A2995 RMK AC1CI4 SLP197

CYQF;2011-11-29 15:00;CYQF 291500Z 18004KT 15SM FEW040 SCT100 OVC250 M06/M08 A2995 RMK SC1AC3CI4 SLP199

CYQF;2011-11-29 16:00;CYQF 291600Z 23003KT 15SM FEW040 SCT100 BKN250 M07/M08 A2996 RMK SC1AC2CI3 SLP203

CYQF;2011-11-29 17:00;CYQF 291700Z 22002KT 15SM FEW040 FEW100 BKN250 M08/M09 A2996 RMK SC1AC1CI4 SLP204

CYQF;2011-11-29 18:00;CYQF 291800Z 21003KT 15SM FEW100 SCT250 M04/M06 A2997 RMK AC2CI1 SLP205

CYQF;2011-11-29 19:00;CYQF 291900Z 17002KT 15SM FEW100 FEW250 01/M03 A2995 RMK AC1CI1 SLP201

CYQF;2011-11-29 20:00;CYQF 292000Z 19004KT 15SM FEW100 BKN250 00/M03 A2993 RMK AC1CI2 SLP193

CYQF;2011-11-29 21:00;CYQF 292100Z 00000KT 15SM FEW040 FEW100 BKN250 M01/M02 A2991 RMK SC1AC1CI2 SLP181

CYQF;2011-11-29 22:00;CYQF 292200Z 00000KT 15SM FEW040 SCT100 BKN250 M01/M02 A2990 RMK SC1AS4CS3 SLP176

CYQF;2011-11-29 23:00;CYQF 292300Z 00000KT 15SM FEW040 BKN150 M01/M03 A2990 RMK SC1AS6 SLP177

CYQF;2011-11-30 00:00;CYQF 300000Z 05005KT 15SM FEW040 BKN150 M01/M03 A2990 RMK SC1AS6 SLP177

CYQF;2011-11-30 01:00;CYQF 300100Z 04006KT 15SM OVC150 M02/M03 A2988 RMK AS8 SLP171

CYQF;2011-11-30 02:00;CYQF 300200Z 06004KT 15SM OVC100 00/M03 A2986 RMK AC8 SLP165

CYQF;2011-11-30 03:00;CYQF 300300Z 09010KT 15SM OVC050 00/M03 A2985 RMK SC8 SLP154

CYQF;2011-11-30 04:00;CYQF 300400Z 11005KT 15SM OVC030 01/M03 A2983 RMK SC8 SLP148

CYQF;2011-11-30 05:00;CYQF 300500Z 14010KT 15SM OVC030 01/M03 A2982 RMK SC8 SLP145

CYQF;2011-11-30 06:00;CYQF 300600Z 06008KT 15SM OVC030 01/M03 A2983 RMK SC8 SLP142

CYQF;2011-11-30 06:12;CYQF 300612Z 04006KT 3SM -SN OVC030 RMK SN3SC5

CYQF;2011-11-30 06:29;CYQF 300629Z 06010KT 1SM -SN VV008 RMK SN8

CYQF;2011-11-30 07:00;CYQF 300700Z 06005KT 1SM -SN VV008 M01/M01 A2984 RMK SN8 /S01/ SLP146

CYQF;2011-11-30 07:34;CYQF 300734Z 33003KT 1/2SM SN VV005 RMK SN8

CYQF;2011-11-30 08:00;CYQF 300800Z 36006KT 1/2SM SN VV005 M01/M01 A2986 RMK SN8 /S03/ SLP154

CYQF;2011-11-30 09:00;CYQF 300900Z 03012KT 1/2SM SN VV004 M01/M01 A2988 RMK SN8 /S06/ SLP159

CYQF;2011-11-30 10:00;CYQF 301000Z CCA 02013KT 3/4SM -SN VV006 M01/M01 A2991 RMK SN8 /S07/ RESN SLP168

CYQF;2011-11-30 10:35;CYQF 301035Z 03014KT 1SM -SN VV008 RMK SN8

CYQF;2011-11-30 11:00;CYQF 301100Z 01012KT 2SM -SN VV008 M01/M01 A2995 RMK SN8 SLP182

CYQF;2011-11-30 12:00;CYQF 301200Z 02010KT 2SM -SN OVC012 M02/M02 A3000 RMK SN5SC3 /S09/ SLP202

CYQF;2011-11-30 13:00;CYQF 301300Z CCA 35012KT 2SM -SN DRSN OVC011 M02/M02 A3007 RMK SN5SC3 SLP224

CYQF;2011-11-30 13:17;CYQF 301317Z CCA 01012KT 4SM -SN DRSN OVC011 RMK SN2SC6

CYQF;2011-11-30 14:00;CYQF 301400Z 36010G15KT 2SM -SN DRSN OVC014 M02/M02 A3012 RMK SN2SC6 /S01/ SLP241

CYQF;2011-11-30 14:29;CYQF 301429Z 34010G15KT 1SM -SN DRSN VV008 RMK SN8

CYQF;2011-11-30 15:00;CYQF 301500Z 34010KT 1 1/4SM -SN DRSN VV010 M01/M02 A3018 RMK SN8 SLP265

CYQF;2011-11-30 15:07;CYQF 301507Z 33010KT 1/2SM SN VV006 RMK SN8

CYQF;2011-11-30 15:23;CYQF 301523Z 33012G19KT 1 1/2SM -SN DRSN OVC012 RESN RMK SC8

CYQF;2011-11-30 15:33;CYQF 301533Z 34015G20KT 3SM -SN DRSN OVC012 RESN RMK SC8

CYQF;2011-11-30 16:00;CYQF 301600Z 33014G20KT 3SM -SN DRSN OVC011 M02/M02 A3025 RESN RMK SC8 OCNL BLSN SLP284

CYQF;2011-11-30 17:00;CYQF 301700Z 32012G18KT 12SM BKN015 OVC030 M02/M03 A3030 RMK SF5SC3 SLP301

CYQF;2011-11-30 18:00;CYQF 301800Z 33015G22KT 15SM DRSN BKN015 BKN060 M02/M04 A3035 RMK SC6SC2 SLP322

CYQF;2011-11-30 19:00;CYQF 301900Z 32015G25KT 6SM -SN DRSN SCT015 OVC060 M02/M03 A3038 RMK SC4SC3 SLP332

CYQF;2011-11-30 19:21;CYQF 301921Z 33012G20KT 15SM DRSN FEW015 BKN030 BKN060 RMK SF2SC2SC2

CYQF;2011-11-30 20:00;CYQF 302000Z 32010KT 15SM SCT012 SCT060 M03/M04 A3042 RMK SC3SC1 TCU SLP343

CYQF;2011-11-30 21:00;CYQF 302100Z 34010G15KT 15SM OVC015 M02/M04 A3045 RMK SC8 TCU EMBD SLP360

CYQF;2011-11-30 22:00;CYQF 302200Z 33010G15KT 15SM FEW012 BKN025 BKN050 M02/M04 A3049 RMK SF2SC3SC1 SLP371

CYQF;2011-11-30 23:00;CYQF 302300Z 32010KT 15SM SCT030 M03/M05 A3051 RMK SC3 SLP378

CYQF;2011-12-01 01:00;CYQF 010100Z 21004KT 15SM SKC M11/M11 A3052 RMK SLP390

CYQF;2011-12-01 01:45;CYQF 010145Z 20005KT 2SM BR SKC

CYQF;2011-12-01 02:00;CYQF 010200Z 19006KT 1SM BR SKC M12/M13 A3052 RMK FG2 SLP390

CYQF;2011-12-01 03:00;CYQF 010300Z 20006KT 5SM BR SKC M13/M13 A3051 RMK SLP392

CYQF;2011-12-01 04:00;CYQF 010400Z 20005KT 15SM SKC M15/M15 A3048 RMK SLP385

CYQF;2011-12-01 05:00;CYQF 010500Z 21005KT 15SM SKC M13/M15 A3047 RMK SLP381

CYQF;2011-12-01 06:00;CYQF 010600Z 20003KT 15SM SKC M13/M14 A3046 RMK SLP377

CYQF;2011-12-01 07:00;CYQF 010700Z 20007KT 15SM SKC M12/M12 A3043 RMK SLP368

CYQF;2011-12-01 08:00;CYQF 010800Z 20008KT 15SM SKC M14/M16 A3041 RMK SLP361

CYQF;2011-12-01 09:00;CYQF 010900Z 19003KT 15SM SKC M14/M16 A3039 RMK SLP354

CYQF;2011-12-01 10:00;CYQF 011000Z 19006KT 15SM SKC M15/M16 A3037 RMK SLP348

CYQF;2011-12-01 11:00;CYQF 011100Z 19007KT 15SM FEW100 M14/M15 A3035 RMK AC1 SLP342

CYQF;2011-12-01 12:00;CYQF 011200Z 17003KT 15SM BKN100 M12/M13 A3033 RMK AC6 SLP336

CYQF;2011-12-01 13:00;CYQF 011300Z 22008KT 15SM BKN100 M09/M09 A3031 RMK AC6 SLP332

CYQF;2011-12-01 14:00;CYQF 011400Z 22009KT 15SM SCT100 M08/M08 A3028 RMK AC3 SLP321

CYQF;2011-12-01 15:00;CYQF 011500Z 21010KT 15SM BKN090 M04/M07 A3025 RMK AC6 SLP307

CYQF;2011-12-01 16:00;CYQF 011600Z 22012KT 15SM SCT090 BKN240 M04/M08 A3021 RMK AC2CI2 SLP294

CYQF;2011-12-01 17:00;CYQF 011700Z 21010KT 15SM FEW080 BKN120 OVC240 M03/M07 A3017 RMK AC1AC4CI2 SLP282

CYQF;2011-12-01 18:00;CYQF 011800Z 20009KT 15SM BKN080 BKN220 M00/M05 A3013 RMK AC5CI2 SLP260

CYQF;2011-12-01 19:00;CYQF 011900Z 19008KT 15SM BKN080 OVC220 01/M03 A3006 RMK AC5CI2 SLP238

CYQF;2011-12-01 20:00;CYQF 012000Z CCA 17005KT 15SM BKN100 OVC220 02/M03 A3000 RMK AC5CI2 SLP220

CYQF;2011-12-01 21:00;CYQF 012100Z 18008KT 15SM OVC100 02/M03 A2994 RMK AC8 SLP193

CYQF;2011-12-01 22:00;CYQF 012200Z 20006KT 15SM OVC100 03/M03 A2988 RMK AC8 SLP175

CYQF;2011-12-01 23:00;CYQF 012300Z 20007KT 15SM OVC100 02/M02 A2983 RMK AS8 SLP158

CYQF;2011-12-02 00:00;CYQF 020000Z 20008KT 15SM OVC100 03/M02 A2975 RMK AS8 PRESFR SLP125

CYQF;2011-12-02 01:00;CYQF 020100Z 21005KT 15SM OVC060 04/M03 A2970 RMK SC8 PRESFR SLP109

CYQF;2011-12-02 02:00;CYQF 020200Z 22010KT 15SM OVC060 04/M04 A2964 RMK SC8 SLP091

CYQF;2011-12-02 03:00;CYQF 020300Z 24006KT 15SM OVC060 03/M04 A2962 RMK SC8 PRESFR SLP068

CYQF;2011-12-02 04:00;CYQF 020400Z 23008KT 15SM BKN060 OVC100 02/M05 A2958 RMK SC6AC2 SLP058

CYQF;2011-12-02 04:52;CYQF 020452Z 28020G30KT 15SM BKN060 OVC100 RMK SC6AC2

CYQF;2011-12-02 05:00;CYQF 020500Z 28020G30KT 15SM BKN060 OVC100 07/M06 A2958 RMK SC6AC2 SLP057

CYQF;2011-12-02 06:00;CYQF 020600Z 27018G28KT 15SM SCT060 BKN100 05/M06 A2958 RMK SC3AC2 SLP049

CYQF;2011-12-02 07:00;CYQF 020700Z 31015G20KT 15SM SCT060 03/M06 A2961 RMK SC4 SLP058

CYQF;2011-12-02 07:25;CYQF 020725Z 29025G37KT 10SM -SN OVC060 RMK SC6

CYQF;2011-12-02 07:45;CYQF 020745Z 34020G33KT 15SM OVC060 RMK SC8

CYQF;2011-12-02 08:00;CYQF 020800Z 34025G35KT 15SM DRSN OVC060 01/M02 A2967 RMK SC8 OCNL BLSN SLP077

CYQF;2011-12-02 09:00;CYQF 020900Z 30014G23KT 15SM DRSN OVC060 01/M03 A2969 RMK SC8 SLP088

CYQF;2011-12-02 10:00;CYQF 021000Z 32028G43KT 15SM DRSN SCT060 M01/M05 A2971 RMK SC4 OCNL BLSN SLP096

CYQF;2011-12-02 11:00;CYQF 021100Z 30014G23KT 15SM DRSN SKC M01/M07 A2973 RMK SLP100

CYQF;2011-12-02 12:00;CYQF 021200Z 29015G25KT 15SM DRSN SKC M01/M07 A2974 RMK SLP109

CYQF;2011-12-02 13:00;CYQF 021300Z 30015G25KT 15SM SKC M01/M07 A2976 RMK SLP115

CYQF;2011-12-02 14:00;CYQF 021400Z 29015G25KT 15SM FEW090 M01/M06 A2978 RMK AC1 SLP122

CYQF;2011-12-02 15:00;CYQF 021500Z 29020G30KT 15SM DRSN FEW250 M01/M06 A2981 RMK CI1 OCNL GUSTS 40KTS PAST HOUR SLP131

CYQF;2011-12-02 16:00;CYQF 021600Z CCA 30020G38KT 15SM DRSN FEW025 FEW050 FEW100 M01/M06 A2984 RMK SC1SC1AC1 OCNL BLSN LWR SC TR SLP140

CYQF;2011-12-02 17:00;CYQF 021700Z 30025G45KT 12SM DRSN FEW020 BKN070 BKN100 M01/M05 A2986 RMK SC1AC5AC1 OCNL BLSN SLP146

CYQF;2011-12-02 18:00;CYQF 021800Z 31030G45KT 10SM DRSN BKN020 BKN250 M01/M05 A2990 RMK SC6CI1 OCNL BLSN CU SLP160

CYQF;2011-12-02 19:00;CYQF 021900Z 31030G45KT 10SM DRSN BKN020 BKN080 M01/M05 A2993 RMK SC6AC2 OCNL BLSN CU VIS NW 5 SLP169

CYQF;2011-12-02 20:00;CYQF 022000Z 29020G35KT 15SM DRSN BKN020 M01/M05 A2997 RMK SC7 OCNL BLSN SLP183

CYQF;2011-12-02 21:00;CYQF 022100Z 31022G35KT 15SM DRSN BKN020 M01/M06 A3001 RMK SC5 OCNL BLSN CU SLP202

CYQF;2011-12-02 22:00;CYQF 022200Z 32015G30KT 15SM DRSN FEW020 FEW040 M01/M07 A3003 RMK SC1SC1 HIER SC TR SLP210

CYQF;2011-12-02 23:00;CYQF 022300Z 32015G25KT 15SM DRSN FEW025 M01/M07 A3005 RMK SC1 SLP215

CYQF;2011-12-03 00:00;CYQF 030000Z 31010G15KT 15SM DRSN FEW025 FEW080 M02/M08 A3007 RMK SC1AC1 SLP229

CYQF;2011-12-03 01:00;CYQF 030100Z 32010G15KT 15SM FEW080 M03/M08 A3008 RMK AC1 SLP231

CYQF;2011-12-03 02:00;CYQF 030200Z 32010KT 15SM SKC M03/M08 A3008 RMK SLP232

CYQF;2011-12-03 03:00;CYQF 030300Z 29006KT 15SM SKC M06/M10 A3009 RMK SLP239

CYQF;2011-12-03 04:00;CYQF 030400Z 29006KT 15SM SKC M08/M10 A3009 RMK SLP240

CYQF;2011-12-03 05:00;CYQF 030500Z 27006KT 15SM SKC M08/M10 A3008 RMK SLP237

CYQF;2011-12-03 06:00;CYQF 030600Z 24006KT 15SM FEW220 M09/M11 A3008 RMK CI0 SLP240

CYQF;2011-12-03 07:00;CYQF 030700Z 24009KT 15SM SKC M12/M13 A3007 RMK SLP235

CYQF;2011-12-03 08:00;CYQF 030800Z 21007KT 15SM SKC M11/M12 A3006 RMK SLP232

CYQF;2011-12-03 09:00;CYQF 030900Z 21006KT 15SM SCT100 M11/M12 A3004 RMK AC4 SLP225

CYQF;2011-12-03 10:00;CYQF 031000Z 22006KT 15SM OVC100 M09/M11 A3002 RMK AC8 SLP220

CYQF;2011-12-03 11:00;CYQF 031100Z 22005KT 15SM OVC100 M07/M10 A2999 RMK AC8 SLP212

CYQF;2011-12-03 12:00;CYQF 031200Z 22005KT 15SM OVC080 M07/M10 A2998 RMK AC8 SLP203

CYQF;2011-12-03 12:36;CYQF 031236Z 23007KT 12SM -SN BKN030 OVC080 RMK SC5AC3

CYQF;2011-12-03 13:00;CYQF 031300Z 23006KT 2SM -SN VV015 M06/M08 A2997 RMK SN8 VIS VRB 1-3 SLP201

CYQF;2011-12-03 14:00;CYQF 031400Z 22007KT 2SM -SN VV010 M06/M07 A2996 RMK SN8 /S01/ SLP196

CYQF;2011-12-03 14:27;CYQF 031427Z 22006KT 2SM -SN OVC030 RMK SN4SC4

CYQF;2011-12-03 15:00;CYQF 031500Z 22010KT 1 1/2SM -SN OVC030 M05/M06 A2995 RMK SN6SC2 VIS VRB 1-2 SLP193

CYQF;2011-12-03 15:15;CYQF 031515Z 22005KT 2SM -SN OVC030 RMK SN6SC2

CYQF;2011-12-03 15:38;CYQF 031538Z 23008KT 3SM -SN OVC030 RMK SN2SC6 VIS W-NW 5

CYQF;2011-12-03 16:00;CYQF 031600Z 25005KT 2SM -SN BKN014 OVC030 M04/M04 A2995 RMK SN5ST2SC1 SLP193

CYQF;2011-12-03 16:14;CYQF 031614Z 24005KT 1SM -SN OVC014 RMK SN5SC3

CYQF;2011-12-03 16:21;CYQF 031621Z 25007KT 1 1/2SM -SN OVC014 RMK SN5SC3 VIS VRB 1-2

CYQF;2011-12-03 17:00;CYQF 031700Z 25006KT 1 1/2SM -SN VV008 M03/M03 A2995 RMK SN8 VIS VRB 1-2 SLP195

CYQF;2011-12-03 18:00;CYQF 031800Z CCA 24004KT 1 1/2SM -SN OVC014 M02/M02 A2996 RMK SN5SC3 /S03/ VIS VRB 1-2 SLP200

CYQF;2011-12-03 19:00;CYQF 031900Z 26008KT 1 1/2SM -SN OVC011 M01/M02 A2995 RMK SN5SC3 VIS VRB 1-2 SLP195

CYQF;2011-12-03 20:00;CYQF 032000Z 29010G16KT 1 1/2SM -SN DRSN VV008 M00/M01 A2995 RMK SN8 VIS VRB 1-2 SLP195

CYQF;2011-12-03 20:31;CYQF 032031Z 31010G15KT 3SM -SN DRSN OVC012 RMK SC8

CYQF;2011-12-03 20:34;CYQF 032034Z 30010G15KT 2SM -SN DRSN OVC012 RMK SC8 VIS VRB 1-3

CYQF;2011-12-03 21:00;CYQF 032100Z 29012G17KT 2SM -SN DRSN OVC012 M00/M00 A2995 RMK SC8 VIS VRB 1-3 SLP197

CYQF;2011-12-03 21:37;CYQF 032137Z 35012G18KT 1SM -SN VV008 RMK SN8 VIS VRB 1/2-11/2

CYQF;2011-12-03 22:00;CYQF 032200Z 34015G25KT 2SM -SN DRSN OVC012 M00/M00 A2999 RMK SC8 VIS VRB 1-3 OCNL BLSN SLP209

CYQF;2011-12-03 22:28;CYQF 032228Z 34010G15KT 5SM -SN OVC012 RMK SC8

CYQF;2011-12-03 23:00;CYQF 032300Z 36010G15KT 10SM -SN OVC015 M01/M02 A3003 RMK SC8 SLP221

CYQF;2011-12-03 23:43;CYQF 032343Z 35010G15KT 15SM SCT015 OVC030 RMK SC4SC4

CYQF;2011-12-04 00:00;CYQF 040000Z 35012KT 15SM SCT015 OVC030 M02/M03 A3007 RMK SC4SC4 /S01/ SLP233

CYQF;2011-12-04 01:00;CYQF 040100Z 35012KT 15SM FEW015 OVC025 M02/M05 A3010 RMK SC2SC6 SLP242

CYQF;2011-12-04 02:00;CYQF 040200Z 35008KT 15SM OVC030 M02/M05 A3011 RMK SC8 SLP246

CYQF;2011-12-04 03:00;CYQF 040300Z 36010KT 10SM -SN OVC030 M03/M06 A3014 RMK SC8 SLP258

CYQF;2011-12-04 04:00;CYQF 040400Z 01010G15KT 15SM -SN BKN015 OVC030 M04/M06 A3018 RMK SC6SC2 SLP270

CYQF;2011-12-04 05:00;CYQF 040500Z 36010G15KT 3SM -SN OVC015 M05/M06 A3023 RMK SC8 SLP286

CYQF;2011-12-04 05:14;CYQF 040514Z 36010G15KT 1SM -SN OVC015 RMK SC8

CYQF;2011-12-04 06:00;CYQF 040600Z 01010G15KT 3SM -SN OVC015 M05/M06 A3028 RMK SC8 SLP304

CYQF;2011-12-04 07:00;CYQF 040700Z 01010KT 12SM -SN FEW015 BKN100 M05/M07 A3034 RMK SC2AC3 OBS TAKEN +15 SLP322

CYQF;2011-12-04 08:00;CYQF 040800Z 36012KT 15SM FEW020 BKN100 M06/M08 A3037 RMK SC2AC3 SLP332

CYQF;2011-12-04 09:00;CYQF 040900Z 02010KT 15SM OVC020 M06/M08 A3040 RMK SC8 SLP344

CYQF;2011-12-04 10:00;CYQF 041000Z 34006KT 15SM BKN018 M08/M09 A3043 RMK SC7 SLP355

CYQF;2011-12-04 11:00;CYQF 041100Z 34005KT 12SM -SN FEW018 OVC030 M07/M09 A3046 RMK SC2SC6 SLP364

CYQF;2011-12-04 12:00;CYQF 041200Z 32003KT 10SM -SN SCT030 OVC050 M07/M09 A3047 RMK SC3SC5 SLP375

CYQF;2011-12-04 13:00;CYQF 041300Z 34010KT 8SM -SN FEW030 OVC050 M07/M08 A3049 RMK SC2SC6 SLP380

CYQF;2011-12-04 14:00;CYQF 041400Z 36009KT 10SM -SN BKN025 OVC050 M07/M10 A3051 RMK SC5SC3 SLP386

CYQF;2011-12-04 15:00;CYQF 041500Z 01008KT 15SM -SN BKN025 BKN050 M07/M10 A3052 RMK SC6SC2 SLP392

CYQF;2011-12-04 16:00;CYQF 041600Z 02004KT 10SM -SN BKN025 M08/M10 A3054 RMK SC7 SLP397

CYQF;2011-12-04 16:39;CYQF 041639Z 00000KT 1 1/2SM -SN OVC025 RMK SC8

CYQF;2011-12-04 16:48;CYQF 041648Z 00000KT 4SM -SN OVC025 RMK SC8 VIS 2 S

CYQF;2011-12-04 17:00;CYQF 041700Z 00000KT 10SM -SN BKN025 M08/M09 A3054 RMK SC7 SLP397

CYQF;2011-12-04 18:00;CYQF 041800Z 17003KT 5SM -SN OVC025 M08/M10 A3053 RMK SC8 SLP400

CYQF;2011-12-04 19:00;CYQF 041900Z 19004KT 15SM BKN035 M08/M10 A3052 RMK SC6 SLP397

CYQF;2011-12-04 20:00;CYQF 042000Z 25004KT 15SM FEW035 FEW250 M09/M12 A3049 RMK SC1CI2 SLP388

CYQF;2011-12-04 21:00;CYQF 042100Z 21004KT 15SM FEW030 FEW250 M08/M11 A3046 RMK SC1CI0 SLP377

CYQF;2011-12-04 22:00;CYQF 042200Z 17005KT 15SM FEW030 FEW250 M09/M11 A3044 RMK SC1CI2 SLP369

CYQF;2011-12-04 23:00;CYQF 042300Z 18006KT 15SM BKN250 M12/M13 A3042 RMK CI2 SLP363

CYQF;2011-12-05 00:00;CYQF 050000Z 17010KT 15SM BKN210 M11/M12 A3040 RMK CI5 SLP360

CYQF;2011-12-05 01:00;CYQF 050100Z 17008KT 15SM FEW120 BKN210 M10/M12 A3038 RMK AC2CI5 SLP354

CYQF;2011-12-05 02:00;CYQF 050200Z 17008KT 15SM OVC150 M09/M12 A3034 RMK AC8 SLP341

CYQF;2011-12-05 03:00;CYQF 050300Z 18005KT 15SM BKN150 M10/M12 A3030 RMK AC3 SLP324

CYQF;2011-12-05 04:00;CYQF 050400Z 17006KT 15SM BKN150 M10/M12 A3027 RMK AC6 SLP314

CYQF;2011-12-05 05:00;CYQF 050500Z 18006KT 15SM OVC100 M08/M11 A3024 RMK AC8 SLP306

CYQF;2011-12-05 06:00;CYQF 050600Z 19008KT 15SM OVC100 M07/M10 A3022 RMK AC8 SLP292

CYQF;2011-12-05 07:00;CYQF 050700Z 18006KT 15SM OVC100 M07/M10 A3020 RMK AC8 SLP287

CYQF;2011-12-05 08:00;CYQF 050800Z 18006KT 15SM OVC100 M08/M10 A3016 RMK AC8 SLP274

CYQF;2011-12-05 09:00;CYQF 050900Z 20004KT 15SM OVC100 M08/M11 A3015 RMK AC8 SLP269

CYQF;2011-12-05 10:00;CYQF 051000Z 18006KT 15SM BKN100 M09/M11 A3013 RMK AC6 SLP264

CYQF;2011-12-05 11:00;CYQF 051100Z 20007KT 15SM SCT100 M10/M12 A3010 RMK AC3 SLP256

CYQF;2011-12-05 12:00;CYQF 051200Z 20004KT 15SM FEW100 M12/M14 A3009 RMK AC2 SLP257

CYQF;2011-12-05 13:00;CYQF 051300Z 19006KT 15SM FEW100 M14/M15 A3008 RMK AC2 SLP254

CYQF;2011-12-05 14:00;CYQF 051400Z 20004KT 15SM FEW100 M14/M15 A3006 RMK AC2 SLP250

CYQF;2011-12-05 15:00;CYQF 051500Z 00000KT 15SM FEW210 M12/M13 A3005 RMK CI1 SLP244

CYQF;2011-12-05 16:00;CYQF 051600Z 20005KT 15SM SCT220 M14/M15 A3004 RMK CI1 SLP241

CYQF;2011-12-05 17:00;CYQF 051700Z 19006KT 15SM BKN220 M12/M13 A3003 RMK CI2 CC SLP236

CYQF;2011-12-05 18:00;CYQF 051800Z 17004KT 15SM FEW150 BKN220 M07/M10 A3001 RMK AC2CI3 SLP221

CYQF;2011-12-05 19:00;CYQF 051900Z 19002KT 15SM FEW150 BKN220 M05/M09 A3001 RMK AC2CI4 SLP220

CYQF;2011-12-05 20:00;CYQF 052000Z 18005KT 15SM FEW150 BKN220 M04/M07 A2997 RMK AC2CI4 SLP208

CYQF;2011-12-05 21:00;CYQF 052100Z 25006KT 15SM FEW150 OVC220 M04/M07 A2995 RMK AC2CI6 SLP196

CYQF;2011-12-05 22:00;CYQF 052200Z 21007KT 15SM FEW150 OVC220 M04/M06 A2992 RMK AC2CI5 SLP186

CYQF;2011-12-05 23:00;CYQF 052300Z 24008KT 15SM FEW150 OVC220 M03/M06 A2990 RMK AC2CI6 SLP181

CYQF;2011-12-06 00:00;CYQF 060000Z 18003KT 15SM FEW150 BKN220 M02/M05 A2988 RMK AC2CI5 SLP174

CYQF;2011-12-06 01:00;CYQF 060100Z 24005KT 15SM OVC220 M03/M06 A2987 RMK CI8 SLP171

CYQF;2011-12-06 02:00;CYQF 060200Z 23008KT 15SM OVC220 M02/M04 A2986 RMK CS6 SLP167

CYQF;2011-12-06 03:00;CYQF 060300Z 21007KT 15SM BKN220 M03/M05 A2983 RMK CS4 SLP159

CYQF;2011-12-06 04:00;CYQF 060400Z 19006KT 15SM BKN220 M04/M06 A2981 RMK CS3 SLP153

CYQF;2011-12-06 05:00;CYQF 060500Z 20005KT 15SM OVC250 M05/M06 A2979 RMK CS4 SLP145

CYQF;2011-12-06 06:00;CYQF 060600Z 20008KT 15SM OVC250 M06/M07 A2976 RMK CS6 SLP129

CYQF;2011-12-06 07:00;CYQF 060700Z 22005KT 15SM OVC250 M02/M05 A2974 RMK CS6 SLP125

CYQF;2011-12-06 08:00;CYQF 060800Z 22005KT 15SM OVC250 M02/M05 A2974 RMK CS6 SLP125

CYQF;2011-12-06 09:00;CYQF 060900Z 17003KT 15SM SCT250 M01/M05 A2970 RMK CI2 SLP101

CYQF;2011-12-06 10:00;CYQF 061000Z 22012KT 15SM SCT250 M03/M07 A2967 RMK CI2 SLP091

CYQF;2011-12-06 11:00;CYQF 061100Z 24005KT 15SM FEW090 BKN250 01/M04 A2966 RMK AC2CI2 SLP089

CYQF;2011-12-06 12:00;CYQF 061200Z 23008KT 15SM FEW090 FEW250 M00/M05 A2968 RMK AC1CI1 SLP090

CYQF;2011-12-06 13:00;CYQF 061300Z 18005KT 15SM FEW090 FEW250 M03/M06 A2969 RMK AC1CI1 SLP095

CYQF;2011-12-06 14:00;CYQF 061400Z 29008KT 15SM FEW090 SCT250 M03/M06 A2971 RMK AC2CI1 SLP100

CYQF;2011-12-06 15:00;CYQF 061500Z 30008KT 15SM BKN090 BKN250 M02/M06 A2974 RMK AC3CI1 SLP113

CYQF;2011-12-06 16:00;CYQF 061600Z 29010KT 15SM FEW030 BKN080 BKN250 05/M03 A2976 RMK SC1AC3CI0 SLP122

CYQF;2011-12-06 17:00;CYQF 061700Z 33010G15KT 15SM FEW030 BKN080 BKN250 04/M02 A2981 RMK SC1AC4CI0 SLP135

CYQF;2011-12-06 18:00;CYQF 061800Z 36015G23KT 15SM FEW015 FEW030 SCT080 03/M01 A2988 RMK SC1SC1AC3 SLP160

CYQF;2011-12-06 19:00;CYQF 061900Z 34010G18KT 15SM FEW015 FEW030 BKN080 03/M02 A2991 RMK SC1SC1AC5 CU ASOCTD SLP169

CYQF;2011-12-06 20:00;CYQF 062000Z 33015G22KT 15SM FEW010 SCT025 BKN070 02/M02 A2993 RMK SF1SC3AC4 SLP177

CYQF;2011-12-06 21:00;CYQF 062100Z 33010G16KT 15SM FEW020 OVC070 01/M03 A2995 RMK SC2AC6 SLP185

CYQF;2011-12-06 22:00;CYQF 062200Z 32010KT 15SM FEW020 OVC070 00/M04 A2998 RMK SC1AC7 SLP194

CYQF;2011-12-06 23:00;CYQF 062300Z 34010G15KT 15SM FEW020 OVC070 M01/M04 A3002 RMK SC2AC6 SLP205

CYQF;2011-12-07 00:00;CYQF 070000Z 34010G15KT 15SM FEW020 OVC070 M01/M05 A3005 RMK SC2AC6 SLP218

CYQF;2011-12-07 01:00;CYQF 070100Z 34010G15KT 15SM -SN OVC060 M02/M06 A3008 RMK SC8 VIS NW 5 SLP229

CYQF;2011-12-07 02:00;CYQF 070200Z 32008KT 5SM -SN OVC030 M03/M04 A3010 RMK SN2SC6 SLP234

CYQF;2011-12-07 03:00;CYQF 070300Z 30003KT 6SM -SN BKN030 OVC060 M03/M04 A3011 RMK SC6SC2 SLP244

CYQF;2011-12-07 04:00;CYQF 070400Z 30005KT 15SM -SN BKN030 OVC060 M04/M05 A3013 RMK SC5SC3 SLP248

CYQF;2011-12-07 05:00;CYQF 070500Z 32007KT 10SM -SN BKN030 OVC060 M04/M06 A3014 RMK SC5SC3 SLP253

CYQF;2011-12-07 06:00;CYQF 070600Z 32003KT 10SM -SN BKN030 OVC060 M04/M05 A3015 RMK SC5SC3 /S01/ SLP252

CYQF;2011-12-07 07:00;CYQF 070700Z 33004KT 10SM -SN BKN030 OVC060 M05/M05 A3015 RMK SC5SC3 SLP252

CYQF;2011-12-07 08:00;CYQF 070800Z 31006KT 10SM -SN BKN030 OVC060 M04/M06 A3015 RMK SC5SC3 SLP253

CYQF;2011-12-07 09:00;CYQF 070900Z 31005KT 10SM -SN SCT030 OVC060 M05/M06 A3015 RMK SC4SC4 SLP255

CYQF;2011-12-07 10:00;CYQF 071000Z 32006KT 10SM -SN BKN030 OVC060 M05/M07 A3015 RMK SC5SC3 SLP257

CYQF;2011-12-07 11:00;CYQF 071100Z 35005KT 10SM -SN BKN030 OVC060 M05/M07 A3016 RMK SC6SC2 SLP261

CYQF;2011-12-07 12:00;CYQF 071200Z 34006KT 10SM -SN OVC022 M05/M06 A3017 RMK SC8 SLP266

CYQF;2011-12-07 13:00;CYQF 071300Z 34006KT 8SM -SN OVC020 M06/M07 A3018 RMK SC8 SLP269

CYQF;2011-12-07 13:29;CYQF 071329Z 35008KT 3SM -SN OVC020 RMK SN3SC5

CYQF;2011-12-07 14:00;CYQF 071400Z 04003KT 3SM -SN OVC015 M06/M07 A3021 RMK SN3SC5 SLP279

CYQF;2011-12-07 14:43;CYQF 071443Z 36010KT 1 1/2SM -SN OVC014 RMK SN3SC5

CYQF;2011-12-07 15:00;CYQF 071500Z 36008KT 2SM -SN OVC014 M07/M09 A3025 RMK SN2SC6 /S01/ SLP298

CYQF;2011-12-07 16:00;CYQF 071600Z 36010KT 2SM -SN OVC025 M08/M10 A3028 RMK SN2SC6 SLP308

CYQF;2011-12-07 16:27;CYQF 071627Z 33010G15KT 3SM -SN OVC025 RMK SC8

CYQF;2011-12-07 17:00;CYQF 071700Z 32010KT 6SM -SN BKN025 M08/M11 A3029 RMK SC7 SLP312

CYQF;2011-12-07 18:00;CYQF 071800Z 33011G18KT 15SM -SN BKN050 M08/M13 A3030 RMK SC7 SLP319

CYQF;2011-12-07 19:00;CYQF 071900Z 31015KT 15SM DRSN BKN070 M08/M14 A3030 RMK AC6 SLP317

CYQF;2011-12-07 20:00;CYQF 072000Z 31013G20KT 15SM BKN070 M09/M14 A3030 RMK AC6 SLP318

CYQF;2011-12-07 21:00;CYQF 072100Z 31013G21KT 15SM DRSN SCT070 M10/M15 A3030 RMK AC2 SLP322

CYQF;2011-12-07 22:00;CYQF 072200Z 31010KT 15SM FEW070 M10/M16 A3031 RMK AC2 SLP323

CYQF;2011-12-07 23:00;CYQF 072300Z 30008KT 15SM FEW070 M11/M17 A3031 RMK AC1 SLP325

CYQF;2011-12-08 00:00;CYQF 080000Z 27010KT 15SM FEW070 M12/M18 A3031 RMK AC1 SLP329

CYQF;2011-12-08 01:00;CYQF 080100Z 27011KT 15SM SKC M12/M18 A3031 RMK SLP328

CYQF;2011-12-08 02:00;CYQF 080200Z 28008KT 15SM SKC M13/M18 A3032 RMK SLP330

CYQF;2011-12-08 03:00;CYQF 080300Z 28007KT 15SM SKC M15/M19 A3031 RMK SLP333

CYQF;2011-12-08 04:00;CYQF 080400Z 26007KT 15SM SKC M17/M22 A3030 RMK SLP330

CYQF;2011-12-08 05:00;CYQF 080500Z 26006KT 15SM SKC M18/M23 A3030 RMK SLP329

CYQF;2011-12-08 06:00;CYQF 080600Z 26008KT 15SM SKC M16/M22 A3028 RMK SLP327

CYQF;2011-12-08 07:00;CYQF 080700Z 26007KT 15SM SCT210 M18/M23 A3027 RMK CI2 SLP324

CYQF;2011-12-08 08:00;CYQF 080800Z 26005KT 15SM SCT210 M18/M23 A3025 RMK CI2 SLP318

CYQF;2011-12-08 09:00;CYQF 080900Z 24003KT 15SM FEW210 M21/M24 A3023 RMK CI1 SLP316

CYQF;2011-12-08 10:00;CYQF 081000Z 18005KT 15SM FEW210 M22/M26 A3023 RMK CI1 SLP315

CYQF;2011-12-08 11:00;CYQF 081100Z 18004KT 15SM FEW210 M23/M27 A3021 RMK CI1 SLP309

CYQF;2011-12-08 12:00;CYQF 081200Z 21004KT 15SM FEW210 M24/M27 A3017 RMK CI1 SLP301

CYQF;2011-12-08 13:00;CYQF 081300Z 20004KT 15SM BKN210 M21/M25 A3016 RMK CI2 SLP297

CYQF;2011-12-08 14:00;CYQF 081400Z 22004KT 15SM BKN210 M21/M25 A3014 RMK CI2 SLP291

CYQF;2011-12-08 15:00;CYQF 081500Z 23009KT 15SM BKN210 M21/M25 A3011 RMK CI5 SLP280

CYQF;2011-12-08 16:00;CYQF 081600Z 19002KT 15SM BKN210 M19/M22 A3011 RMK CI5 SLP280

CYQF;2011-12-08 17:00;CYQF 081700Z 00000KT 15SM OVC210 M18/M22 A3013 RMK CI5 SLP286

CYQF;2011-12-08 18:00;CYQF 081800Z 20005KT 15SM OVC210 M16/M20 A3014 RMK CI5 SLP286

CYQF;2011-12-08 19:00;CYQF 081900Z 26007KT 15SM FEW150 BKN240 M12/M17 A3012 RMK AC2CI4 SLP281

CYQF;2011-12-08 20:00;CYQF 082000Z 27010G15KT 15SM SCT150 BKN240 M10/M17 A3011 RMK AC2CI2 SLP277

CYQF;2011-12-08 21:00;CYQF 082100Z 28010KT 15SM FEW150 SCT240 M09/M15 A3012 RMK AC1CI1 SLP274

CYQF;2011-12-08 22:00;CYQF 082200Z 27013KT 15SM FEW150 BKN240 M08/M12 A3012 RMK AC2CI4 SLP274

CYQF;2011-12-08 23:00;CYQF 082300Z 30008KT 15SM SCT150 BKN240 M07/M11 A3013 RMK AC4CI2 SLP278

CYQF;2011-12-09 00:00;CYQF 090000Z 28005KT 15SM BKN120 OVC240 M08/M11 A3014 RMK AC5CI2 SLP285

CYQF;2011-12-09 01:00;CYQF 090100Z 26002KT 15SM BKN120 BKN240 M08/M10 A3014 RMK AC5CI2 SLP285

CYQF;2011-12-09 02:00;CYQF 090200Z 25003KT 15SM BKN120 BKN240 M07/M09 A3013 RMK AC5CI2 SLP282

CYQF;2011-12-09 03:00;CYQF 090300Z 25005KT 15SM BKN120 M07/M09 A3013 RMK AC7 SLP276

CYQF;2011-12-09 04:00;CYQF 090400Z 24005KT 15SM -SN BKN100 M07/M09 A3012 RMK AC7 SLP274

CYQF;2011-12-09 05:00;CYQF 090500Z 23004KT 15SM -SN OVC100 M06/M08 A3011 RMK AC8 SLP271

CYQF;2011-12-09 06:00;CYQF 090600Z 21005KT 3SM -SN BKN080 M06/M08 A3010 RMK AC7 SLP259

CYQF;2011-12-09 07:00;CYQF 090700Z 18005KT 10SM -SN OVC100 M06/M07 A3007 RMK AC7 SLP251

CYQF;2011-12-09 08:00;CYQF 090800Z 19005KT 15SM -SN OVC100 M05/M07 A3005 RMK AC7 SLP244

CYQF;2011-12-09 09:00;CYQF 090900Z 21006KT 15SM -SN OVC100 M05/M07 A3003 RMK AC6 SLP226

CYQF;2011-12-09 10:00;CYQF 091000Z 19006KT 15SM -SN BKN100 M05/M07 A3001 RMK AC6 SLP219

CYQF;2011-12-09 10:21;CYQF 091021Z 20005KT 15SM BKN100 RMK AC6

CYQF;2011-12-09 11:00;CYQF 091100Z 20010KT 15SM SCT100 M05/M08 A2999 RMK AC2 SLP214

CYQF;2011-12-09 12:00;CYQF 091200Z 23010KT 15SM FEW100 M06/M09 A2998 RMK AC1 SLP210

CYQF;2011-12-09 13:00;CYQF 091300Z 00000KT 15SM FEW100 M07/M10 A2998 RMK AC1 SLP208

CYQF;2011-12-09 14:00;CYQF 091400Z 20003KT 15SM SKC M09/M11 A2998 RMK SLP208

CYQF;2011-12-09 15:00;CYQF 091500Z 20006KT 15SM SKC M10/M12 A2997 RMK SLP209

CYQF;2011-12-09 16:00;CYQF 091600Z 20006KT 15SM FEW100 FEW230 M10/M12 A2995 RMK AC1CI0 SLP205

CYQF;2011-12-09 17:00;CYQF 091700Z 20008KT 15SM FEW100 FEW230 M09/M11 A2996 RMK AC1CI1 SLP208

CYQF;2011-12-09 18:00;CYQF 091800Z 21005KT 15SM FEW100 FEW230 M07/M11 A2996 RMK AC1CI0 SLP201

CYQF;2011-12-09 19:00;CYQF 091900Z 19007KT 15SM FEW100 FEW230 M05/M09 A2994 RMK AC1CI1 SLP195

CYQF;2011-12-09 20:00;CYQF 092000Z 19005KT 15SM FEW100 FEW230 M02/M08 A2993 RMK AC2CI1 SLP192

CYQF;2011-12-09 21:00;CYQF 092100Z 18004KT 15SM FEW230 M00/M07 A2992 RMK CI1 SLP179

CYQF;2011-12-09 22:00;CYQF 092200Z 18004KT 15SM FEW230 00/M07 A2990 RMK CI1 SLP173

CYQF;2011-12-09 23:00;CYQF 092300Z 19004KT 15SM FEW100 SCT230 M02/M08 A2990 RMK AC1CI1 SLP171

CYQF;2011-12-10 00:00;CYQF 100000Z 21004KT 15SM FEW100 SCT230 M05/M09 A2990 RMK AC1CI1 SLP178

CYQF;2011-12-10 01:00;CYQF 100100Z 17004KT 15SM FEW100 SCT230 M08/M11 A2991 RMK AC2CI1 SLP182

CYQF;2011-12-10 02:00;CYQF 100200Z 20006KT 15SM FEW100 SCT230 M06/M10 A2991 RMK AC1CI2 SLP180

CYQF;2011-12-10 03:00;CYQF 100300Z 19003KT 15SM FEW100 SCT230 M07/M10 A2990 RMK AC1CI2 SLP183

CYQF;2011-12-10 04:00;CYQF 100400Z 20004KT 15SM FEW100 BKN230 M04/M08 A2989 RMK AC2CI2 SLP181

CYQF;2011-12-10 05:00;CYQF 100500Z 21005KT 15SM FEW100 BKN230 M05/M08 A2988 RMK AC2CI2 SLP178

CYQF;2011-12-10 06:00;CYQF 100600Z 19007KT 15SM FEW100 SCT230 M05/M08 A2986 RMK AC1CI2 SLP165

CYQF;2011-12-10 07:00;CYQF 100700Z 20005KT 15SM BKN250 M04/M09 A2984 RMK CI2 SLP158

CYQF;2011-12-10 08:00;CYQF 100800Z 00000KT 15SM BKN250 M05/M09 A2981 RMK CI4 SLP149

CYQF;2011-12-10 09:00;CYQF 100900Z 18005KT 15SM BKN250 M06/M08 A2978 RMK CI3 SLP132

CYQF;2011-12-10 10:00;CYQF 101000Z 17004KT 15SM FEW250 M07/M11 A2976 RMK CI0 SLP125

CYQF;2011-12-10 11:00;CYQF 101100Z 00000KT 15SM SCT250 M06/M10 A2974 RMK CI1 SLP117

CYQF;2011-12-10 12:00;CYQF 101200Z 00000KT 15SM FEW250 M06/M10 A2971 RMK CI0 SLP110

CYQF;2011-12-10 13:00;CYQF 101300Z 00000KT 15SM FEW250 M08/M10 A2969 RMK CI0 SLP104

CYQF;2011-12-10 14:00;CYQF 101400Z 18005KT 15SM SKC M10/M12 A2967 RMK SLP098

CYQF;2011-12-10 15:00;CYQF 101500Z 21007KT 15SM FEW250 M08/M12 A2965 RMK CI1 SLP096

CYQF;2011-12-10 16:00;CYQF 101600Z 21007KT 15SM FEW120 BKN230 M06/M11 A2964 RMK AC1CI2 SLP091

CYQF;2011-12-10 17:00;CYQF 101700Z 22005KT 15SM FEW120 BKN230 M05/M11 A2964 RMK AC1CI4 SLP091

CYQF;2011-12-10 18:00;CYQF 101800Z 21008KT 15SM FEW100 BKN230 M03/M10 A2965 RMK AC1CI3 SLP086

CYQF;2011-12-10 19:00;CYQF 101900Z 19003KT 15SM FEW100 BKN230 M01/M09 A2965 RMK AC1CI3 SLP087

CYQF;2011-12-10 20:00;CYQF 102000Z 34005KT 15SM FEW060 FEW120 BKN230 01/M08 A2966 RMK SC1AC1CI2 SLP091

CYQF;2011-12-10 21:00;CYQF 102100Z 36010G15KT 15SM FEW060 FEW120 BKN230 03/M06 A2969 RMK SC1ACC1CI6 CC SLP094

CYQF;2011-12-10 22:00;CYQF 102200Z 00000KT 15SM FEW028 FEW100 BKN230 02/M05 A2971 RMK CU1ACC1CI5 CC SLP101

CYQF;2011-12-10 23:00;CYQF 102300Z 22003KT 15SM FEW030 FEW100 BKN250 M04/M08 A2973 RMK CU1AC1CI2 SLP106

CYQF;2011-12-11 00:00;CYQF 110000Z 24004KT 15SM FEW030 FEW100 BKN250 M05/M08 A2974 RMK SC1AC1CI2 SC TR SLP123

CYQF;2011-12-11 01:00;CYQF 110100Z 24007KT 15SM FEW100 BKN250 M04/M07 A2976 RMK AC2CI3 SLP127

CYQF;2011-12-11 02:00;CYQF 110200Z 24003KT 15SM OVC250 M08/M10 A2977 RMK CI6 SLP133

CYQF;2011-12-11 03:00;CYQF 110300Z 18006KT 15SM OVC250 M07/M09 A2979 RMK CI6 SLP146

CYQF;2011-12-11 04:00;CYQF 110400Z 00000KT 15SM FEW100 OVC250 M07/M09 A2981 RMK AC1CS5 HALO SLP152

CYQF;2011-12-11 05:00;CYQF 110500Z 30005KT 15SM FEW080 OVC250 M07/M09 A2984 RMK AC2CS5 HALO SLP159

CYQF;2011-12-11 06:00;CYQF 110600Z 36005KT 15SM FEW080 OVC250 M01/M07 A2985 RMK AC1CS5 SLP152

CYQF;2011-12-11 07:00;CYQF 110700Z 18003KT 15SM SCT120 OVC250 M07/M09 A2987 RMK AC4CI2 SLP160

CYQF;2011-12-11 08:00;CYQF 110800Z 23006KT 15SM BKN100 OVC250 M05/M07 A2989 RMK AC6CI2 SLP165

CYQF;2011-12-11 09:00;CYQF 110900Z 25007KT 15SM BKN100 OVC250 M04/M07 A2990 RMK AC6CI2 SLP168

CYQF;2011-12-11 10:00;CYQF 111000Z 27006KT 15SM OVC100 M04/M07 A2992 RMK AC8 SLP174

CYQF;2011-12-11 11:00;CYQF 111100Z 30006KT 15SM OVC080 M04/M06 A2993 RMK AC8 SLP175

CYQF;2011-12-11 12:00;CYQF 111200Z 29005KT 15SM OVC060 M05/M06 A2993 RMK SC8 SLP187

CYQF;2011-12-11 13:00;CYQF 111300Z 28004KT 15SM OVC060 M04/M06 A2995 RMK SC8 SLP191

CYQF;2011-12-11 14:00;CYQF 111400Z 29007KT 15SM FEW030 BKN060 OVC100 M04/M06 A2996 RMK SC2SC3AS2 SLP196

CYQF;2011-12-11 15:00;CYQF 111500Z 31006KT 15SM BKN030 OVC060 M04/M06 A2998 RMK SC6SC2 SLP204

CYQF;2011-12-11 16:00;CYQF 111600Z 00000KT 15SM FEW015 OVC030 M03/M05 A3000 RMK SF2SC6 SLP211

CYQF;2011-12-11 17:00;CYQF 111700Z 35004KT 15SM SCT015 OVC030 M03/M05 A3002 RMK SF3SC5 SLP216

CYQF;2011-12-11 18:00;CYQF 111800Z 34004KT 15SM SCT015 OVC030 M03/M05 A3003 RMK SF3SC5 SLP216

CYQF;2011-12-11 19:00;CYQF 111900Z 34003KT 15SM SCT012 OVC030 M03/M05 A3004 RMK SF3SC5 SLP217

CYQF;2011-12-11 19:44;CYQF 111944Z 35004KT 15SM -SN FEW012 BKN030 OVC060 RMK SF2SC3SC2

CYQF;2011-12-11 20:00;CYQF 112000Z 01006KT 12SM -SN FEW012 BKN030 OVC060 M03/M05 A3004 RMK SF2SC3SC2 SLP218

CYQF;2011-12-11 21:00;CYQF 112100Z 01004KT 12SM -SN SCT010 OVC025 M03/M05 A3005 RMK SF3SC5 SLP226

CYQF;2011-12-11 22:00;CYQF 112200Z 03004KT 6SM -SN BR OVC007 M03/M05 A3005 RMK ST8 SLP226

CYQF;2011-12-11 23:00;CYQF 112300Z 07004KT 6SM -SN BR OVC006 M04/M05 A3007 RMK ST8 CIG RAG BLN VIS 800FT SLP233

CYQF;2011-12-12 00:00;CYQF 120000Z 06004KT 6SM -SN BR OVC006 M05/M06 A3010 RMK ST8 CIG RAG SLP245

CYQF;2011-12-12 01:00;CYQF 120100Z 06008KT 6SM -SN BR OVC006 M06/M07 A3012 RMK ST8 VRY LGT SN SLP251

CYQF;2011-12-12 01:43;CYQF 120143Z 09008KT 10SM -SN OVC026 RMK SC8

CYQF;2011-12-12 02:00;CYQF 120200Z 07004KT 10SM -SN OVC026 M06/M07 A3014 RMK SC8 SLP256

CYQF;2011-12-12 03:00;CYQF 120300Z 12004KT 10SM -SN FEW006 OVC026 M06/M07 A3014 RMK ST1SC8 ST DIST NE SLP259

CYQF;2011-12-12 04:00;CYQF 120400Z 00000KT 15SM -SN OVC026 M06/M07 A3015 RMK SC8 SLP261

CYQF;2011-12-12 05:00;CYQF 120500Z 15003KT 15SM -SN OVC025 M06/M07 A3015 RMK SC8 SLP261

CYQF;2011-12-12 06:00;CYQF 120600Z 17007KT 15SM -SN BKN028 M07/M08 A3015 RMK SC7 SLP261

CYQF;2011-12-12 07:00;CYQF 120700Z 19004KT 15SM -SN OVC026 M07/M08 A3015 RMK SC8 SLP262

CYQF;2011-12-12 08:00;CYQF 120800Z 17004KT 15SM -SN BKN031 M07/M08 A3015 RMK SC7 SLP261

CYQF;2011-12-12 09:00;CYQF 120900Z 19004KT 15SM -SN BKN030 M08/M10 A3015 RMK SC6 SLP264

CYQF;2011-12-12 09:35;CYQF 120935Z 19005KT 15SM SCT030 RMK SC3

CYQF;2011-12-12 10:00;CYQF 121000Z 18005KT 15SM FEW030 M12/M13 A3015 RMK SC2 SLP264

CYQF;2011-12-12 10:33;CYQF 121033Z 20004KT 3SM BR FEW030 RMK FG2SC1

CYQF;2011-12-12 11:00;CYQF 121100Z 17003KT 3SM BR SKC M12/M14 A3014 RMK FG2 SLP263

CYQF;2011-12-12 11:20;CYQF 121120Z 20004KT 1 1/2SM BR SKC RMK FG3

CYQF;2011-12-12 11:29;CYQF 121129Z 19004KT 1SM BR SKC RMK FG3

CYQF;2011-12-12 12:00;CYQF 121200Z 18005KT 1 1/4SM BR SKC M15/M16 A3013 RMK FG2 SLP267

CYQF;2011-12-12 12:22;CYQF 121222Z 18006KT 3SM BR SKC RMK FG1

CYQF;2011-12-12 13:00;CYQF 121300Z 19004KT 10SM SKC M14/M15 A3012 RMK SLP265

CYQF;2011-12-12 14:00;CYQF 121400Z 17007KT 15SM SKC M14/M14 A3011 RMK BR SLP261

CYQF;2011-12-12 15:00;CYQF 121500Z 17005KT 8SM SKC M14/M15 A3010 RMK BR SLP258

CYQF;2011-12-12 16:00;CYQF 121600Z 16004KT 10SM SKC M15/M16 A3008 RMK BR RIME ON INDICATOR SLP253

CYQF;2011-12-12 17:00;CYQF 121700Z 17005KT 10SM FEW250 M14/M15 A3007 RMK CI1 SLP250

CYQF;2011-12-12 18:00;CYQF 121800Z 17007KT 10SM BKN250 M11/M11 A3005 RMK CI2 SLP239

CYQF;2011-12-12 19:00;CYQF 121900Z 18008KT 12SM BKN250 M09/M09 A3002 RMK CI1 SLP229

CYQF;2011-12-12 20:00;CYQF 122000Z 15016KT 12SM SCT250 M08/M10 A2998 RMK CI2 SLP217

CYQF;2011-12-12 21:00;CYQF 122100Z 18015G20KT 10SM BKN250 M09/M11 A2996 RMK CI2 SLP207

CYQF;2011-12-12 22:00;CYQF 122200Z 16013KT 8SM BKN250 M08/M11 A2994 RMK CI2 SLP199

CYQF;2011-12-12 22:44;CYQF 122244Z 16010G16KT 8SM DRSN FEW008 BKN250 RMK SF2CI2

CYQF;2011-12-12 23:00;CYQF 122300Z 18008KT 8SM BKN250 M10/M11 A2991 RMK CI3 FG BNK DIST SE SLP189

CYQF;2011-12-13 00:00;CYQF 130000Z 17010G15KT 15SM SCT100 BKN250 M10/M12 A2990 RMK AC2CI2 FG BNK DIST NW SLP194

CYQF;2011-12-13 01:00;CYQF 130100Z 18010G15KT 15SM FEW100 OVC250 M10/M12 A2989 RMK AC2CI3 SLP191

CYQF;2011-12-13 02:00;CYQF 130200Z 16013KT 15SM FEW100 FEW250 M11/M12 A2987 RMK AC1CI0 SLP186

CYQF;2011-12-13 03:00;CYQF 130300Z 17010KT 15SM BKN250 M11/M13 A2987 RMK CI4 SLP183

CYQF;2011-12-13 04:00;CYQF 130400Z 18009KT 15SM BKN250 M14/M15 A2986 RMK CI3 SLP181

CYQF;2011-12-13 05:00;CYQF 130500Z 17007KT 15SM BKN250 M14/M16 A2985 RMK CI5 SLP178

CYQF;2011-12-13 06:00;CYQF 130600Z 16005KT 15SM FEW120 BKN250 M14/M16 A2985 RMK AC2CI3 SLP178

CYQF;2011-12-13 07:00;CYQF 130700Z 18005KT 15SM FEW120 BKN250 M14/M15 A2984 RMK AC2CI3 SLP172

CYQF;2011-12-13 08:00;CYQF 130800Z 21004KT 15SM FEW120 BKN250 M14/M16 A2983 RMK AC1CI2 SLP171

CYQF;2011-12-13 09:00;CYQF 130900Z 18002KT 15SM FEW120 BKN250 M14/M16 A2983 RMK AC2CI2 SLP167

CYQF;2011-12-13 10:00;CYQF 131000Z 23002KT 15SM BKN250 M16/M17 A2983 RMK CI2 SLP168

CYQF;2011-12-13 11:00;CYQF 131100Z 23003KT 15SM FEW120 BKN250 M16/M18 A2983 RMK AC1CI2 SLP166

CYQF;2011-12-13 12:00;CYQF 131200Z 24004KT 15SM SCT100 BKN250 M16/M17 A2982 RMK AC3CI1 SLP166

CYQF;2011-12-13 13:00;CYQF 131300Z 00000KT 15SM FEW100 SCT250 M15/M17 A2982 RMK AC2CI1 SLP167

CYQF;2011-12-13 14:00;CYQF 131400Z 20004KT 15SM FEW100 SCT250 M17/M18 A2982 RMK AC2CI1 SLP167

CYQF;2011-12-13 15:00;CYQF 131500Z 20004KT 15SM FEW100 SCT250 M17/M20 A2981 RMK AC2CI2 SLP166

CYQF;2011-12-13 16:00;CYQF 131600Z 19004KT 15SM FEW120 BKN250 M14/M16 A2979 RMK AC2CI2 SLP161

CYQF;2011-12-13 17:00;CYQF 131700Z 00000KT 15SM SCT150 BKN250 M14/M17 A2979 RMK AC2CI2 SLP161

CYQF;2011-12-13 18:00;CYQF 131800Z 00000KT 15SM BKN100 BKN250 M11/M13 A2977 RMK AC6CI2 CC SLP149

CYQF;2011-12-13 19:00;CYQF 131900Z 00000KT 15SM BKN100 BKN250 M08/M11 A2976 RMK AC6CI1 SLP145

CYQF;2011-12-13 20:00;CYQF 132000Z 00000KT 15SM BKN100 BKN250 M06/M10 A2972 RMK AC6CI2 SLP133

CYQF;2011-12-13 21:00;CYQF 132100Z 00000KT 15SM BKN100 BKN250 M05/M09 A2969 RMK AC6CI2 SLP113

CYQF;2011-12-13 22:00;CYQF 132200Z 12002KT 15SM BKN100 BKN250 M04/M09 A2966 RMK AC5CI2 SLP104

CYQF;2011-12-13 23:00;CYQF 132300Z 16006KT 15SM BKN100 M04/M10 A2965 RMK AS7 SLP102

CYQF;2011-12-14 00:00;CYQF 140000Z 14006KT 15SM BKN100 M06/M09 A2964 RMK AC6 SLP097

CYQF;2011-12-14 01:00;CYQF 140100Z 14008KT 15SM FEW100 BKN250 M06/M10 A2962 RMK AC1CI3 SLP092

CYQF;2011-12-14 02:00;CYQF 140200Z 14003KT 15SM FEW100 SCT250 M08/M11 A2961 RMK AC1CI1 SLP090

CYQF;2011-12-14 03:00;CYQF 140300Z 18003KT 15SM SKC M11/M13 A2959 RMK SLP090

CYQF;2011-12-14 04:00;CYQF 140400Z 19005KT 15SM SCT100 M12/M13 A2960 RMK AC2 SLP092

CYQF;2011-12-14 05:00;CYQF 140500Z 19004KT 15SM FEW100 BKN250 M12/M13 A2961 RMK AC2CI2 SLP095

CYQF;2011-12-14 06:00;CYQF 140600Z 18004KT 15SM FEW100 BKN250 M12/M14 A2964 RMK AC1CI2 SLP103

CYQF;2011-12-14 07:00;CYQF 140700Z 16004KT 15SM FEW100 BKN250 M12/M14 A2968 RMK AC2CI2 SLP116

CYQF;2011-12-14 08:00;CYQF 140800Z 11003KT 15SM SCT100 BKN250 M10/M11 A2972 RMK AC3CI2 SLP126

CYQF;2011-12-14 09:00;CYQF 140900Z 02007KT 15SM SCT080 M03/M06 A2975 RMK AC4 SLP120

CYQF;2011-12-14 10:00;CYQF 141000Z 33010KT 15SM BKN080 M03/M06 A2978 RMK AC5 SLP132

CYQF;2011-12-14 11:00;CYQF 141100Z 32012KT 15SM BKN080 M03/M06 A2981 RMK AC6 SLP139

CYQF;2011-12-14 12:00;CYQF 141200Z 30012KT 15SM BKN080 M03/M06 A2984 RMK AC6 SLP153

CYQF;2011-12-14 13:00;CYQF 141300Z 30012KT 15SM BKN080 M04/M07 A2987 RMK AC5 SLP163

CYQF;2011-12-14 14:00;CYQF 141400Z 30013KT 15SM SCT080 M05/M08 A2990 RMK AC3 SLP172

CYQF;2011-12-14 15:00;CYQF 141500Z 30010KT 15SM SCT080 BKN250 M06/M08 A2993 RMK AC3CI1 SLP194

CYQF;2011-12-14 16:00;CYQF 141600Z 29010KT 15SM FEW080 M06/M09 A2996 RMK AC1 SLP204

CYQF;2011-12-14 17:00;CYQF 141700Z 29010G15KT 15SM FEW080 M06/M09 A2999 RMK AC1 SLP212

CYQF;2011-12-14 18:00;CYQF 141800Z 28010G15KT 15SM FEW080 M05/M09 A3001 RMK AC1 SLP223

CYQF;2011-12-14 19:00;CYQF 141900Z 29010G15KT 15SM FEW080 M04/M10 A3001 RMK AC1 SLP224

CYQF;2011-12-14 20:00;CYQF 142000Z 29008KT 15SM FEW080 M04/M10 A3002 RMK AC1 SLP227

CYQF;2011-12-14 21:00;CYQF 142100Z 28010KT 15SM FEW080 M05/M09 A3003 RMK AC1 SLP219

CYQF;2011-12-14 22:00;CYQF 142200Z 27008KT 15SM FEW080 FEW250 M05/M10 A3004 RMK AC1CI0 SLP221

CYQF;2011-12-14 23:00;CYQF 142300Z 27003KT 15SM FEW080 SCT250 M08/M12 A3005 RMK AC1CI1 SLP226

CYQF;2011-12-15 00:00;CYQF 150000Z 25007KT 15SM FEW080 BKN250 M12/M15 A3007 RMK AC1CI1 AC TR SLP242

CYQF;2011-12-15 01:00;CYQF 150100Z 18003KT 15SM FEW080 M14/M15 A3007 RMK AC1 SLP242

CYQF;2011-12-15 02:00;CYQF 150200Z 18003KT 15SM FEW080 M15/M16 A3006 RMK AC1 SLP240

CYQF;2011-12-15 03:00;CYQF 150300Z 19003KT 15SM FEW080 SCT250 M15/M16 A3006 RMK AC1CI1 SLP246

CYQF;2011-12-15 04:00;CYQF 150400Z 19002KT 15SM SKC M16/M17 A3006 RMK SLP244

CYQF;2011-12-15 05:00;CYQF 150500Z 18003KT 15SM BKN120 M15/M17 A3005 RMK AC3 SLP241

CYQF;2011-12-15 06:00;CYQF 150600Z 00000KT 15SM BKN100 M14/M15 A3004 RMK AC6 SLP236

CYQF;2011-12-15 07:00;CYQF 150700Z 00000KT 15SM BKN100 M15/M16 A3004 RMK AC6 SLP234

CYQF;2011-12-15 08:00;CYQF 150800Z 00000KT 15SM FEW100 BKN200 M14/M15 A3003 RMK AC2CI3 SLP231

CYQF;2011-12-15 09:00;CYQF 150900Z 15003KT 15SM FEW100 OVC200 M11/M12 A3001 RMK AC2CI4 SLP220

CYQF;2011-12-15 10:00;CYQF 151000Z 17003KT 15SM SCT100 BKN200 M09/M12 A2999 RMK AC3CI2 SLP216

CYQF;2011-12-15 11:00;CYQF 151100Z 15004KT 15SM FEW100 BKN200 M08/M12 A2998 RMK AC2CI3 SLP211

CYQF;2011-12-15 12:00;CYQF 151200Z 16009KT 15SM FEW100 BKN200 M08/M11 A2996 RMK AS2CS2 SLP210

CYQF;2011-12-15 13:00;CYQF 151300Z 15005KT 15SM FEW100 BKN200 M09/M12 A2995 RMK AS2CS3 SLP206

CYQF;2011-12-15 14:00;CYQF 151400Z 16010G15KT 15SM FEW100 BKN200 M08/M11 A2993 RMK AS2CS3 SLP200

CYQF;2011-12-15 15:00;CYQF 151500Z 16010KT 15SM OVC100 M08/M11 A2993 RMK AS8 SLP203

CYQF;2011-12-15 16:00;CYQF 151600Z 16010KT 15SM OVC100 M08/M10 A2993 RMK AS8 SLP203

CYQF;2011-12-15 17:00;CYQF 151700Z 16010KT 15SM OVC070 M07/M10 A2995 RMK AS8 SLP207

CYQF;2011-12-15 18:00;CYQF 151800Z 00000KT 15SM OVC070 M07/M09 A2997 RMK AS8 SLP214

CYQF;2011-12-15 18:38;CYQF 151838Z 00000KT 15SM -SN BKN030 OVC070 RMK SC5AS3

CYQF;2011-12-15 19:00;CYQF 151900Z 00000KT 12SM -SHSN OVC030 M07/M09 A3000 RMK ST8 SLP221

CYQF;2011-12-15 19:16;CYQF 151916Z 00000KT 2SM -SHSN OVC030 RMK SN3ST5 VIS SE 6

CYQF;2011-12-15 19:26;CYQF 151926Z 00000KT 1SM -SHSN VV015 RMK SN8

CYQF;2011-12-15 19:48;CYQF 151948Z 00000KT 1 1/2SM -SHSN OVC030 RMK SN6ST2

CYQF;2011-12-15 20:00;CYQF 152000Z 00000KT 3SM -SHSN SCT030 SCT100 BKN250 M07/M08 A3001 RMK SN2SC1AC2CI0 VIS W-NW 5 SLP224

CYQF;2011-12-15 20:16;CYQF 152016Z 00000KT 6SM IC FEW100 SCT250 RMK AC1CI2 IC

CYQF;2011-12-15 21:00;CYQF 152100Z 30004KT 12SM FEW100 M07/M08 A3003 RMK AC1 SLP231

CYQF;2011-12-15 22:00;CYQF 152200Z 00000KT 12SM FEW100 M07/M09 A3004 RMK AC1 SLP234

CYQF;2011-12-15 23:00;CYQF 152300Z 29005KT 15SM BKN100 M07/M09 A3009 RMK AC6 SLP249

CYQF;2011-12-16 00:00;CYQF 160000Z 28006KT 15SM BKN100 M07/M09 A3010 RMK AC6 SLP252

CYQF;2011-12-16 01:00;CYQF 160100Z 22002KT 15SM BKN100 M07/M09 A3011 RMK AC6 SLP256

CYQF;2011-12-16 02:00;CYQF 160200Z 25008KT 15SM BKN080 M07/M09 A3012 RMK AC7 SLP259

CYQF;2011-12-16 03:00;CYQF 160300Z 17005KT 15SM BKN080 M08/M09 A3012 RMK AC6 SLP260

CYQF;2011-12-16 04:00;CYQF 160400Z 17004KT 15SM BKN100 M09/M10 A3012 RMK AC6 SLP261

CYQF;2011-12-16 05:00;CYQF 160500Z 19004KT 15SM BKN100 M10/M11 A3011 RMK AC6 SLP258

CYQF;2011-12-16 06:00;CYQF 160600Z 18003KT 15SM OVC100 M10/M11 A3011 RMK AC8 SLP258

CYQF;2011-12-16 07:00;CYQF 160700Z 18005KT 15SM OVC100 M09/M10 A3009 RMK AC8 SLP250

CYQF;2011-12-16 08:00;CYQF 160800Z 00000KT 15SM SCT100 OVC220 M09/M10 A3008 RMK AC3CI3 SLP247

CYQF;2011-12-16 09:00;CYQF 160900Z 21003KT 15SM SCT100 OVC220 M11/M12 A3005 RMK AC3CI4 SLP238

CYQF;2011-12-16 10:00;CYQF 161000Z 18005KT 15SM FEW100 OVC220 M09/M09 A3005 RMK AC2CI5 SLP236

CYQF;2011-12-16 11:00;CYQF 161100Z 00000KT 15SM BKN100 OVC220 M08/M09 A3003 RMK AC5CI3 SLP232

CYQF;2011-12-16 12:00;CYQF 161200Z 20004KT 15SM BKN100 OVC220 M08/M09 A3002 RMK AC6CI2 SLP224

CYQF;2011-12-16 13:00;CYQF 161300Z 18005KT 15SM SCT100 BKN220 M09/M10 A3002 RMK AC3CI2 SLP223

CYQF;2011-12-16 14:00;CYQF 161400Z 18003KT 15SM FEW100 BKN220 M10/M11 A3003 RMK AC1CI2 SLP227

CYQF;2011-12-16 15:00;CYQF 161500Z 20008KT 15SM FEW100 SCT220 M11/M11 A3003 RMK AC1CI1 SLP233

CYQF;2011-12-16 16:00;CYQF 161600Z 21007KT 15SM FEW100 SCT220 M11/M12 A3003 RMK AC2CI1 SLP233

CYQF;2011-12-16 17:00;CYQF 161700Z 21008KT 15SM FEW100 BKN220 M10/M13 A3004 RMK AC1CI2 SLP236

CYQF;2011-12-16 18:00;CYQF 161800Z 21005KT 15SM FEW100 BKN220 M07/M11 A3005 RMK AC1CI2 SLP236

CYQF;2011-12-16 19:00;CYQF 161900Z 21009KT 15SM FEW100 BKN220 M05/M10 A3004 RMK AC1CI2 SLP233

CYQF;2011-12-16 20:00;CYQF 162000Z 20003KT 15SM FEW100 BKN220 M04/M09 A3003 RMK AC1CI1 SLP230

CYQF;2011-12-16 21:00;CYQF 162100Z 00000KT 15SM FEW100 BKN220 M04/M08 A3003 RMK AC1CI2 SLP225

CYQF;2011-12-16 22:00;CYQF 162200Z 19002KT 15SM FEW100 BKN220 M03/M08 A3002 RMK AC1CI3 SLP222

CYQF;2011-12-16 23:00;CYQF 162300Z 00000KT 15SM FEW100 BKN220 M04/M08 A3003 RMK AC2CI2 SLP225

CYQF;2011-12-17 00:00;CYQF 170000Z 20002KT 15SM FEW100 BKN220 M06/M09 A3002 RMK AC2CI2 SLP224

CYQF;2011-12-17 01:00;CYQF 170100Z 00000KT 15SM SCT100 BKN220 M06/M09 A3004 RMK AC3CI0 SLP229

CYQF;2011-12-17 02:00;CYQF 170200Z 00000KT 15SM FEW100 SCT220 M08/M10 A3004 RMK AC2CI0 SLP229

CYQF;2011-12-17 03:00;CYQF 170300Z 00000KT 15SM FEW120 M09/M11 A3004 RMK AC1 SLP236

CYQF;2011-12-17 04:00;CYQF 170400Z 00000KT 15SM FEW120 M11/M12 A3004 RMK AC2 SLP236

CYQF;2011-12-17 05:00;CYQF 170500Z 00000KT 15SM FEW120 M12/M13 A3004 RMK AC1 SLP235

CYQF;2011-12-17 06:00;CYQF 170600Z 00000KT 15SM SKC M11/M12 A3002 RMK SLP226

CYQF;2011-12-17 07:00;CYQF 170700Z 21004KT 15SM SKC M12/M14 A3001 RMK SLP223

CYQF;2011-12-17 08:00;CYQF 170800Z 16003KT 15SM SKC M10/M11 A2999 RMK SLP217

CYQF;2011-12-17 09:00;CYQF 170900Z 26004KT 15SM SKC M10/M11 A2996 RMK SLP202

CYQF;2011-12-17 10:00;CYQF 171000Z 22005KT 15SM SKC M11/M12 A2995 RMK SLP197

CYQF;2011-12-17 11:00;CYQF 171100Z 24002KT 15SM SKC M12/M13 A2992 RMK SLP189

CYQF;2011-12-17 12:00;CYQF 171200Z 20006KT 15SM SKC M11/M12 A2990 RMK SLP183

CYQF;2011-12-17 13:00;CYQF 171300Z 20005KT 15SM FEW250 M09/M10 A2986 RMK CI1 SLP172

CYQF;2011-12-17 14:00;CYQF 171400Z 16002KT 15SM SCT080 BKN250 M08/M09 A2984 RMK AC3CI1 SLP165

CYQF;2011-12-17 15:00;CYQF 171500Z 21004KT 15SM BKN120 M08/M09 A2982 RMK AC6 SLP157

CYQF;2011-12-17 16:00;CYQF 171600Z 00000KT 15SM FEW040 BKN120 OVC250 M07/M08 A2982 RMK SC1AC6CI1 SLP155

CYQF;2011-12-17 17:00;CYQF 171700Z 00000KT 15SM BKN120 BKN250 M05/M07 A2980 RMK AC6CI2 SLP151

CYQF;2011-12-17 18:00;CYQF 171800Z 20005KT 15SM BKN120 BKN250 M02/M05 A2977 RMK AC6CI2 SLP135

CYQF;2011-12-17 19:00;CYQF 171900Z 24005KT 15SM BKN100 BKN250 M00/M03 A2976 RMK AC6CI2 SLP130

CYQF;2011-12-17 20:00;CYQF 172000Z 22008KT 15SM BKN100 BKN250 02/M02 A2974 RMK AC6CI2 SLP125

CYQF;2011-12-17 21:00;CYQF 172100Z 24007KT 15SM FEW050 BKN100 BKN250 03/M01 A2973 RMK SC1AC5CI2 SLP113

CYQF;2011-12-17 22:00;CYQF 172200Z 15002KT 15SM FEW050 BKN090 BKN250 03/M02 A2972 RMK SC1AC5CI1 SLP110

CYQF;2011-12-17 23:00;CYQF 172300Z 23008KT 15SM FEW050 BKN090 BKN250 01/M03 A2969 RMK SC1AC5CI2 SLP103

CYQF;2011-12-18 00:00;CYQF 180000Z 21007KT 15SM FEW050 BKN100 BKN250 00/M03 A2968 RMK SC1AC5CI1 SLP099

CYQF;2011-12-18 01:00;CYQF 180100Z 04002KT 15SM SCT100 BKN250 M01/M03 A2966 RMK AC3CI2 SLP094

CYQF;2011-12-18 02:00;CYQF 180200Z 00000KT 15SM SCT100 BKN250 M03/M05 A2965 RMK AC3CI3 SLP089

CYQF;2011-12-18 03:00;CYQF 180300Z 00000KT 15SM SCT120 OVC250 M03/M04 A2962 RMK AC4CI4 SLP080

CYQF;2011-12-18 04:00;CYQF 180400Z 02008KT 15SM OVC220 M01/M04 A2963 RMK CI8 SLP081

CYQF;2011-12-18 05:00;CYQF 180500Z 01010KT 15SM OVC220 00/M03 A2962 RMK CI8 SLP080

CYQF;2011-12-18 06:00;CYQF 180600Z 01009KT 15SM BKN100 OVC220 01/M03 A2963 RMK AS5CI3 SLP072

CYQF;2011-12-18 07:00;CYQF 180700Z 01008KT 15SM BKN100 OVC220 00/M03 A2963 RMK AS5CS3 SLP074

CYQF;2011-12-18 08:00;CYQF 180800Z 01010KT 15SM FEW100 BKN220 M00/M02 A2965 RMK AC2CI2 SLP079

CYQF;2011-12-18 09:00;CYQF 180900Z 35013KT 15SM BKN080 OVC220 00/M01 A2968 RMK AC5CI2 SLP085

CYQF;2011-12-18 09:18;CYQF 180918Z 36013KT 5SM -SN OVC080 RMK AC8

CYQF;2011-12-18 10:00;CYQF 181000Z 35010KT 3SM -SN OVC060 M00/M00 A2972 RMK SN2SC6 SLP099

CYQF;2011-12-18 10:27;CYQF 181027Z 35010KT 1 1/2SM -SN SCT007 OVC050 RMK SN3SF1SC4

CYQF;2011-12-18 11:00;CYQF 181100Z 36015G20KT 1 1/2SM -SN DRSN SCT007 OVC015 M01/M01 A2977 RMK SN3SF1SC4 /S01/ SLP113

CYQF;2011-12-18 12:00;CYQF 181200Z 36008KT 2SM -SN SCT006 OVC015 M02/M02 A2981 RMK SN2SF2SC4 /S02/ SLP137

CYQF;2011-12-18 12:21;CYQF 181221Z 36008KT 5SM -SN FEW006 OVC013 RMK SF2SC6

CYQF;2011-12-18 13:00;CYQF 181300Z 33004KT 10SM -SN FEW006 BKN035 OVC080 M03/M03 A2984 RMK SF2SC5AC2 SLP146

CYQF;2011-12-18 14:00;CYQF 181400Z 30004KT 15SM -SN FEW006 BKN035 OVC080 M04/M04 A2987 RMK SF2SC5AC2 SLP156

CYQF;2011-12-18 14:36;CYQF 181436Z 29006KT 15SM BKN030 OVC080 RMK SC6AC2

CYQF;2011-12-18 15:00;CYQF 181500Z 28006KT 15SM OVC030 M02/M03 A2991 RMK SC8 SLP174

CYQF;2011-12-18 16:00;CYQF 181600Z 24002KT 8SM OVC030 M02/M03 A2993 RMK SC8 BR SLP181

CYQF;2011-12-18 17:00;CYQF 181700Z 21006KT 15SM BKN040 M02/M02 A2997 RMK SC6 SLP192

CYQF;2011-12-18 18:00;CYQF 181800Z 34008KT 15SM BKN025 BKN090 M01/M03 A3000 RMK SC6AC2 SLP200

CYQF;2011-12-18 19:00;CYQF 181900Z 32010KT 15SM FEW025 SCT090 BKN250 M02/M04 A3002 RMK SC2AC2CI1 SLP207

CYQF;2011-12-18 20:00;CYQF 182000Z 32012KT 15SM FEW025 FEW090 BKN250 M02/M05 A3004 RMK SC1AC1CI2 SLP212

CYQF;2011-12-18 21:00;CYQF 182100Z 31008KT 15SM FEW025 FEW090 BKN250 M03/M05 A3006 RMK SC1AC1CI2 SLP224

CYQF;2011-12-18 22:00;CYQF 182200Z 30008KT 15SM FEW030 FEW090 SCT250 M04/M06 A3009 RMK SC1AC1CI1 SLP234

CYQF;2011-12-18 23:00;CYQF 182300Z 28008KT 15SM FEW090 FEW250 M06/M07 A3012 RMK AC1CI1 SLP241

CYQF;2011-12-19 00:00;CYQF 190000Z 28007KT 15SM FEW090 M08/M10 A3013 RMK AC1 SLP257

CYQF;2011-12-19 01:00;CYQF 190100Z 27008KT 15SM FEW090 M08/M09 A3015 RMK AC1 SLP264

CYQF;2011-12-19 02:00;CYQF 190200Z 27005KT 15SM SKC M10/M10 A3016 RMK SLP266

CYQF;2011-12-19 03:00;CYQF 190300Z 24007KT 15SM SKC M11/M11 A3015 RMK SLP267

CYQF;2011-12-19 04:00;CYQF 190400Z 20004KT 15SM SKC M13/M13 A3016 RMK SLP270

CYQF;2011-12-19 05:00;CYQF 190500Z 20005KT 15SM SKC M14/M15 A3016 RMK SLP271

CYQF;2011-12-19 06:00;CYQF 190600Z 19005KT 15SM SKC M16/M17 A3015 RMK SLP273

CYQF;2011-12-19 07:00;CYQF 190700Z 20005KT 15SM SKC M15/M16 A3014 RMK FROIN SLP269

CYQF;2011-12-19 08:00;CYQF 190800Z 20007KT 15SM SKC M16/M17 A3012 RMK FROIN SLP262

CYQF;2011-12-19 09:00;CYQF 190900Z CCA 18008KT 15SM SKC M13/M13 A3007 RMK FROIN SLP241

CYQF;2011-12-19 10:00;CYQF 191000Z 20012KT 15SM SCT220 M11/M12 A3004 RMK CI2 SLP233

CYQF;2011-12-19 11:00;CYQF 191100Z 18015G20KT 15SM FEW100 BKN220 M07/M11 A2999 RMK AC2CI2 SLP218

CYQF;2011-12-19 12:00;CYQF 191200Z 20010KT 15SM FEW100 SCT220 M08/M12 A2999 RMK AC1CI2 SLP213

CYQF;2011-12-19 13:00;CYQF 191300Z 19008KT 15SM FEW220 M13/M15 A2997 RMK CI1 SLP207

CYQF;2011-12-19 14:00;CYQF 191400Z 20006KT 15SM FEW220 M13/M15 A2995 RMK CI1 SLP203

CYQF;2011-12-19 15:00;CYQF 191500Z 19007KT 15SM BKN090 M13/M15 A2994 RMK AC6 SLP204

CYQF;2011-12-19 16:00;CYQF 191600Z 19007KT 15SM BKN090 M12/M13 A2992 RMK AC6 SLP199

CYQF;2011-12-19 17:00;CYQF 191700Z 21007KT 15SM FEW100 BKN250 M09/M12 A2988 RMK AC2CI4 SLP188

CYQF;2011-12-19 18:00;CYQF 191800Z 21005KT 15SM FEW100 OVC250 M08/M11 A2987 RMK AC2CI4 SLP182

CYQF;2011-12-19 19:00;CYQF 191900Z 19008KT 15SM FEW100 OVC250 M06/M09 A2983 RMK AC2CI6 SLP170

CYQF;2011-12-19 20:00;CYQF 192000Z 20008KT 15SM FEW080 SCT120 BKN250 M04/M07 A2981 RMK AC1AC2CI2 SLP162

CYQF;2011-12-19 21:00;CYQF 192100Z 23008KT 15SM FEW120 BKN250 M01/M06 A2978 RMK AC2CI2 SLP139

CYQF;2011-12-19 22:00;CYQF 192200Z 20005KT 15SM BKN090 BKN250 M03/M06 A2975 RMK AC5CI2 SLP129

CYQF;2011-12-19 23:00;CYQF 192300Z 00000KT 15SM SCT090 BKN250 M03/M06 A2974 RMK AC3CI3 SLP128

CYQF;2011-12-20 00:00;CYQF 200000Z 22010KT 15SM SCT090 BKN250 01/M02 A2975 RMK AC3CI4 SLP118

CYQF;2011-12-20 01:00;CYQF 200100Z 24005KT 15SM SCT090 BKN250 M01/M03 A2975 RMK AC4CI3 SLP119

CYQF;2011-12-20 02:00;CYQF 200200Z 17006KT 15SM SCT090 BKN250 00/M03 A2971 RMK AC3CI2 SLP106

CYQF;2011-12-20 03:00;CYQF 200300Z 15006KT 15SM FEW090 BKN250 M00/M03 A2969 RMK AC2CI3 SLP106

CYQF;2011-12-20 04:00;CYQF 200400Z 23008KT 15SM FEW090 OVC250 01/M03 A2966 RMK AC2CI6 SLP099

CYQF;2011-12-20 05:00;CYQF 200500Z 22010KT 15SM BKN090 01/M03 A2963 RMK AC7 SLP087

CYQF;2011-12-20 06:00;CYQF 200600Z 21004KT 15SM FEW090 BKN220 02/M03 A2962 RMK AC2CI2 SLP073

CYQF;2011-12-20 07:00;CYQF 200700Z 22012KT 15SM SCT090 BKN220 04/M02 A2960 RMK AC3CI2 SLP067

CYQF;2011-12-20 08:00;CYQF 200800Z 26006KT 15SM SCT090 BKN220 05/M02 A2954 RMK AC3CI2 SLP048

CYQF;2011-12-20 09:00;CYQF 200900Z 25008KT 15SM SCT090 BKN220 03/M03 A2957 RMK AC3CI2 SLP050

CYQF;2011-12-20 10:00;CYQF 201000Z 24004KT 15SM SCT090 BKN220 00/M04 A2957 RMK AC3CI2 SLP049

CYQF;2011-12-20 11:00;CYQF 201100Z 00000KT 15SM FEW090 SCT220 M01/M05 A2959 RMK AC2CI1 SLP056

CYQF;2011-12-20 12:00;CYQF 201200Z 19005KT 15SM SCT090 BKN220 M01/M05 A2961 RMK AC3CI2 SLP065

CYQF;2011-12-20 13:00;CYQF 201300Z 28004KT 15SM SCT090 BKN220 M03/M06 A2962 RMK AC3CI2 SLP068

CYQF;2011-12-20 14:00;CYQF 201400Z 34006KT 15SM FEW090 SCT220 00/M04 A2963 RMK AC1CI1 SLP071

CYQF;2011-12-20 15:00;CYQF 201500Z 04004KT 15SM FEW040 FEW090 BKN220 M03/M06 A2965 RMK SC1AC1CI1 SLP083

CYQF;2011-12-20 16:00;CYQF 201600Z 32007KT 15SM FEW040 FEW090 BKN230 M03/M06 A2966 RMK SC1AC1CI1 SLP085

CYQF;2011-12-20 17:00;CYQF 201700Z 32008KT 15SM FEW040 FEW090 BKN230 M04/M06 A2967 RMK SC1AC2CI2 SLP089

CYQF;2011-12-20 18:00;CYQF 201800Z 19005KT 15SM FEW040 SCT090 BKN230 M04/M06 A2967 RMK SC2AC2CI4 SLP087

CYQF;2011-12-20 19:00;CYQF 201900Z 22008KT 15SM FEW040 SCT090 SCT230 M02/M05 A2966 RMK SC2AC2CI1 CU SLP084

CYQF;2011-12-20 20:00;CYQF 202000Z 19003KT 15SM FEW040 FEW090 01/M05 A2964 RMK SC1AC1 SLP076

CYQF;2011-12-20 21:00;CYQF 202100Z 27006KT 15SM FEW030 FEW090 00/M07 A2963 RMK CU1AC2 SLP067

CYQF;2011-12-20 22:00;CYQF 202200Z 28009KT 15SM FEW040 SCT090 BKN230 04/M07 A2963 RMK CU2AC2CI3 SLP067

CYQF;2011-12-20 23:00;CYQF 202300Z 30006KT 15SM SCT040 BKN090 01/M07 A2964 RMK SC3AC3 SLP072

CYQF;2011-12-21 00:00;CYQF 210000Z 28003KT 15SM SCT040 BKN090 00/M09 A2966 RMK SC3AC2 SLP084

CYQF;2011-12-21 01:00;CYQF 210100Z 35010KT 15SM BKN040 BKN090 M00/M09 A2970 RMK SC5AC2 SLP096

CYQF;2011-12-21 02:00;CYQF 210200Z 00000KT 15SM OVC060 M02/M04 A2972 RMK SC8 SLP102

CYQF;2011-12-21 03:00;CYQF 210300Z 30008KT 15SM OVC060 M03/M04 A2973 RMK SC8 SLP112

CYQF;2011-12-21 04:00;CYQF 210400Z 27006KT 15SM OVC060 M02/M04 A2976 RMK SC8 SLP123

CYQF;2011-12-21 05:00;CYQF 210500Z 32015G20KT 15SM BKN060 00/M06 A2978 RMK SC6 SLP127

CYQF;2011-12-21 06:00;CYQF 210600Z 30014G20KT 15SM DRSN BKN070 00/M05 A2980 RMK AC6 SLP136

CYQF;2011-12-21 06:23;CYQF 210623Z 30020G25KT 10SM -SN DRSN OVC070 RMK AC8

CYQF;2011-12-21 07:00;CYQF 210700Z 30015G20KT 10SM -SN DRSN OVC070 M01/M04 A2983 RMK AC8 SLP144

CYQF;2011-12-21 08:00;CYQF 210800Z 30015G20KT 10SM -SN DRSN OVC070 M01/M03 A2985 RMK AC8 SLP152

CYQF;2011-12-21 08:36;CYQF 210836Z 31014G20KT 2SM -SN DRSN OVC060 RMK SN3SC5

CYQF;2011-12-21 09:00;CYQF 210900Z 31016G22KT 1 1/2SM -SN DRSN VV012 M02/M02 A2989 RMK SN8 SLP164

CYQF;2011-12-21 09:42;CYQF 210942Z 36015G22KT 3SM -SN DRSN OVC060 RMK SN2SC6

CYQF;2011-12-21 10:00;CYQF 211000Z 35016G22KT 10SM -SN DRSN BKN016 OVC040 M02/M04 A2996 RMK SC6SC2 PRESRR SLP185

CYQF;2011-12-21 11:00;CYQF 211100Z 33015G20KT 10SM -SN DRSN OVC020 M02/M03 A3001 RMK SC8 SLP200

CYQF;2011-12-21 12:00;CYQF 211200Z 32016G22KT 10SM -SN DRSN OVC020 M03/M05 A3005 RMK SC8 /S01/ SLP220

CYQF;2011-12-21 13:00;CYQF 211300Z 33010G16KT 15SM -SN BKN020 M04/M07 A3008 RMK SC5 SLP229

CYQF;2011-12-21 13:35;CYQF 211335Z 30012KT 15SM FEW020 RMK SC2

CYQF;2011-12-21 14:00;CYQF 211400Z 32008KT 15SM FEW020 M05/M08 A3011 RMK SC2 SLP239

CYQF;2011-12-21 15:00;CYQF 211500Z 31008KT 15SM FEW020 FEW220 M06/M09 A3014 RMK SC1CI1 SLP258

CYQF;2011-12-21 16:00;CYQF 211600Z 29007KT 15SM FEW020 FEW220 M08/M10 A3016 RMK SC1CI1 CI TR SLP266

CYQF;2011-12-21 17:00;CYQF 211700Z 29003KT 15SM FEW020 FEW220 M08/M10 A3020 RMK SC1CI1 SLP276

CYQF;2011-12-21 18:00;CYQF 211800Z 28010KT 15SM FEW020 FEW220 M07/M10 A3021 RMK SC1CI1 SLP281

CYQF;2011-12-21 19:00;CYQF 211900Z 29010KT 15SM FEW020 FEW220 M06/M09 A3021 RMK SC1CI1 SLP281

CYQF;2011-12-21 20:00;CYQF 212000Z 25008KT 15SM FEW220 M06/M09 A3021 RMK CI1 SLP279

CYQF;2011-12-21 21:00;CYQF 212100Z 22006KT 15SM BKN220 M05/M09 A3019 RMK CI2 SLP275

CYQF;2011-12-21 22:00;CYQF 212200Z 21006KT 15SM SCT220 M06/M10 A3017 RMK CI1 SLP268

CYQF;2011-12-21 23:00;CYQF 212300Z 20005KT 15SM BKN220 M09/M12 A3016 RMK CI1 SLP266

CYQF;2011-12-22 00:00;CYQF 220000Z 20006KT 15SM SCT220 M10/M12 A3016 RMK CI1 SLP269

CYQF;2011-12-22 01:00;CYQF 220100Z 20007KT 15SM SCT220 M11/M13 A3016 RMK CI1 SLP271

CYQF;2011-12-22 02:00;CYQF 220200Z 20005KT 15SM SCT220 M13/M14 A3016 RMK CI2 SLP270

CYQF;2011-12-22 03:00;CYQF 220300Z 20005KT 15SM FEW220 M13/M14 A3016 RMK CI1 SLP277

CYQF;2011-12-22 04:00;CYQF 220400Z 19004KT 15SM FEW220 M12/M13 A3015 RMK CI2 SLP274

CYQF;2011-12-22 05:00;CYQF 220500Z 19006KT 15SM SCT150 M12/M14 A3013 RMK AC3 SLP267

CYQF;2011-12-22 06:00;CYQF 220600Z 21007KT 15SM FEW150 M12/M14 A3011 RMK AC2 SLP259

CYQF;2011-12-22 07:00;CYQF 220700Z 18006KT 15SM FEW150 M11/M13 A3008 RMK AC1 SLP252

CYQF;2011-12-22 08:00;CYQF 220800Z 20007KT 15SM FEW220 M14/M16 A3005 RMK CI1 SLP242

CYQF;2011-12-22 09:00;CYQF 220900Z 19006KT 15SM SCT220 M12/M15 A3003 RMK CI1 SLP230

CYQF;2011-12-22 10:00;CYQF 221000Z 15002KT 15SM SCT220 M12/M14 A3003 RMK CI1 SLP230

CYQF;2011-12-22 11:00;CYQF 221100Z 19003KT 15SM BKN220 M13/M15 A3003 RMK CI2 SLP229

CYQF;2011-12-22 12:00;CYQF 221200Z 19004KT 15SM BKN220 M12/M15 A3003 RMK CI2 SLP236

CYQF;2011-12-22 13:00;CYQF 221300Z 19006KT 15SM BKN220 M11/M14 A3002 RMK CI3 SLP234

CYQF;2011-12-22 14:00;CYQF 221400Z 21008KT 15SM FEW100 OVC220 M11/M14 A3002 RMK AC2CI5 SLP234

CYQF;2011-12-22 15:00;CYQF 221500Z 19006KT 15SM SCT075 BKN220 M10/M13 A3002 RMK AC4CI2 SLP233

CYQF;2011-12-22 16:00;CYQF 221600Z 19005KT 15SM SCT075 BKN240 M08/M12 A3001 RMK AC4CI2 SLP231

CYQF;2011-12-22 17:00;CYQF 221700Z 23007KT 15SM SCT075 BKN240 M07/M10 A3002 RMK AC3CI2 SLP234

CYQF;2011-12-22 18:00;CYQF 221800Z 21003KT 15SM SCT075 OVC240 M04/M09 A3003 RMK AC3CI3 SLP229

CYQF;2011-12-22 19:00;CYQF 221900Z 21005KT 15SM FEW080 OVC240 M03/M09 A3001 RMK AC2CI5 SLP224

CYQF;2011-12-22 20:00;CYQF 222000Z 21003KT 15SM FEW080 OVC240 M03/M11 A3000 RMK AC2CI5 SLP219

CYQF;2011-12-22 21:00;CYQF 222100Z 21004KT 15SM BKN100 BKN240 M03/M09 A2999 RMK AC6CI2 SLP214

CYQF;2011-12-22 22:00;CYQF 222200Z 21005KT 15SM BKN100 BKN240 M02/M08 A2998 RMK AC6CI2 SLP211

CYQF;2011-12-22 23:00;CYQF 222300Z 16003KT 15SM BKN100 BKN240 M02/M08 A2999 RMK AC6CI2 SLP215

CYQF;2011-12-23 00:00;CYQF 230000Z 00000KT 15SM SCT100 BKN240 M04/M09 A2998 RMK AC3CI1 SLP213

CYQF;2011-12-23 01:00;CYQF 230100Z 00000KT 15SM SCT250 M05/M09 A2999 RMK CI0 SLP215

CYQF;2011-12-23 02:00;CYQF 230200Z 00000KT 15SM SKC M08/M11 A2999 RMK SLP214

CYQF;2011-12-23 03:00;CYQF 230300Z 18006KT 15SM SKC M10/M13 A2997 RMK SLP213

CYQF;2011-12-23 04:00;CYQF 230400Z 20005KT 15SM SKC M09/M12 A2996 RMK SLP210

CYQF;2011-12-23 05:00;CYQF 230500Z 20008KT 15SM SKC M08/M11 A2995 RMK SLP207

CYQF;2011-12-23 06:00;CYQF 230600Z 19006KT 15SM SKC M09/M12 A2994 RMK SLP193

CYQF;2011-12-23 07:00;CYQF 230700Z 20006KT 15SM SKC M10/M13 A2992 RMK SLP186

CYQF;2011-12-23 08:00;CYQF 230800Z 19007KT 15SM SKC M09/M13 A2988 RMK SLP175

CYQF;2011-12-23 09:00;CYQF 230900Z 18005KT 15SM SKC M07/M11 A2987 RMK SLP167

CYQF;2011-12-23 10:00;CYQF 231000Z 20010KT 15SM BKN100 M06/M10 A2984 RMK AC6 SLP157

CYQF;2011-12-23 11:00;CYQF 231100Z 21010KT 15SM OVC120 M05/M08 A2980 RMK AC8 SLP145

CYQF;2011-12-23 12:00;CYQF 231200Z 27010KT 15SM BKN120 M01/M08 A2980 RMK AC6 SLP135

CYQF;2011-12-23 13:00;CYQF 231300Z 25014KT 15SM FEW120 02/M09 A2979 RMK AC1 SLP133

CYQF;2011-12-23 14:00;CYQF 231400Z 26015G20KT 15SM FEW120 02/M09 A2981 RMK AC1 SLP138

CYQF;2011-12-23 15:00;CYQF 231500Z 27010G15KT 15SM FEW120 02/M09 A2981 RMK AC1 SLP144

CYQF;2011-12-23 16:00;CYQF 231600Z 27010G15KT 15SM FEW120 02/M10 A2983 RMK AC1 SLP148

CYQF;2011-12-23 17:00;CYQF 231700Z 26010G15KT 15SM FEW050 FEW120 02/M09 A2985 RMK CU1AC1 TR CU SLP156

CYQF;2011-12-23 18:00;CYQF 231800Z 27015G20KT 15SM FEW210 03/M08 A2987 RMK CI1 SLP160

CYQF;2011-12-23 19:00;CYQF 231900Z 26012KT 15SM SCT210 03/M07 A2986 RMK CI2 SLP158

CYQF;2011-12-23 20:00;CYQF 232000Z 24010KT 15SM FEW210 02/M07 A2986 RMK CI1 SLP159

CYQF;2011-12-23 21:00;CYQF 232100Z 26012KT 15SM SKC 04/M07 A2986 RMK SLP155

CYQF;2011-12-23 22:00;CYQF 232200Z 22006KT 15SM FEW210 02/M07 A2986 RMK CI1 SLP157

CYQF;2011-12-23 23:00;CYQF 232300Z 20005KT 15SM FEW210 M01/M09 A2988 RMK CI1 SLP163

CYQF;2011-12-24 00:00;CYQF 240000Z 19006KT 15SM FEW250 M03/M10 A2991 RMK CI1 SLP173

CYQF;2011-12-24 01:00;CYQF 240100Z 19004KT 15SM FEW250 M00/M11 A2992 RMK CI1 SLP177

CYQF;2011-12-24 02:00;CYQF 240200Z 21007KT 15SM FEW250 M06/M12 A2992 RMK CI1 SLP175

CYQF;2011-12-24 03:00;CYQF 240300Z 22006KT 15SM SCT250 M02/M11 A2992 RMK CI1 SLP172

CYQF;2011-12-24 04:00;CYQF 240400Z 23008KT 15SM OVC100 00/M09 A2993 RMK AC8 SLP175

CYQF;2011-12-24 05:00;CYQF 240500Z 24008KT 15SM OVC100 01/M07 A2993 RMK AC8 VIRGA SLP176

CYQF;2011-12-24 06:00;CYQF 240600Z 27010G15KT 15SM OVC100 02/M07 A2995 RMK AC8 VIRGA SLP178

CYQF;2011-12-24 07:00;CYQF 240700Z 26010KT 15SM OVC120 02/M07 A2997 RMK AC8 SLP184

CYQF;2011-12-24 08:00;CYQF 240800Z 25010KT 15SM OVC120 03/M07 A2997 RMK AC8 SLP184

CYQF;2011-12-24 09:00;CYQF 240900Z 23011KT 15SM OVC120 01/M07 A2997 RMK AC8 SLP184

CYQF;2011-12-24 10:00;CYQF 241000Z 25012KT 15SM OVC120 02/M07 A2999 RMK AC8 SLP190

CYQF;2011-12-24 11:00;CYQF 241100Z 24010KT 15SM OVC120 02/M07 A3001 RMK AC8 SLP198

CYQF;2011-12-24 12:00;CYQF 241200Z 23008KT 15SM FEW090 OVC120 M01/M07 A3002 RMK AC2AC6 SLP211

CYQF;2011-12-24 13:00;CYQF 241300Z 22005KT 15SM FEW090 BKN120 M01/M07 A3003 RMK AC1AC6 SLP213

CYQF;2011-12-24 14:00;CYQF 241400Z 22007KT 15SM FEW090 OVC120 M03/M07 A3005 RMK AC1AC7 SLP219

CYQF;2011-12-24 15:00;CYQF 241500Z 23008KT 15SM BKN100 M01/M07 A3006 RMK AC6 SLP225

CYQF;2011-12-24 16:00;CYQF 241600Z 23008KT 15SM SCT100 BKN230 M01/M08 A3008 RMK AC3CI2 SLP230

CYQF;2011-12-24 17:00;CYQF 241700Z 24007KT 15SM FEW100 BKN230 M00/M08 A3010 RMK AC2CI1 SLP236

CYQF;2011-12-24 18:00;CYQF 241800Z 26008KT 15SM BKN100 BKN230 02/M06 A3011 RMK AC5CI2 SLP233

CYQF;2011-12-24 19:00;CYQF 241900Z 23009KT 15SM BKN120 BKN230 02/M06 A3011 RMK AC2CI1 SLP234

CYQF;2011-12-24 20:00;CYQF 242000Z 23008KT 15SM FEW120 SCT230 02/M06 A3011 RMK AC1CI2 SLP233

CYQF;2011-12-24 21:00;CYQF 242100Z 21005KT 15SM FEW120 BKN230 01/M07 A3012 RMK AC2CI2 SLP238

CYQF;2011-12-24 22:00;CYQF 242200Z 20008KT 15SM BKN120 BKN230 M00/M07 A3013 RMK AC6CI1 SLP241

CYQF;2011-12-24 23:00;CYQF 242300Z 22010KT 15SM BKN100 BKN250 M02/M07 A3013 RMK AC6CI2 SLP242

CYQF;2011-12-25 00:00;CYQF 250000Z 24004KT 15SM BKN100 BKN250 M01/M07 A3013 RMK AC4CI3 SLP245

CYQF;2011-12-25 01:00;CYQF 250100Z 16002KT 15SM BKN100 BKN250 M01/M07 A3012 RMK AC5CI2 SLP242

CYQF;2011-12-25 02:00;CYQF 250200Z 18003KT 15SM BKN100 BKN250 M02/M07 A3010 RMK AC5CI2 SLP237

CYQF;2011-12-25 03:00;CYQF 250300Z 18003KT 15SM BKN100 OVC250 M03/M07 A3009 RMK AC6CI2 SLP235

CYQF;2011-12-25 04:00;CYQF 250400Z 18006KT 15SM SCT100 BKN250 M04/M07 A3006 RMK AC3CI0 SLP228

CYQF;2011-12-25 05:00;CYQF 250500Z 20007KT 15SM OVC100 M02/M05 A3002 RMK AC8 SLP215

CYQF;2011-12-25 06:00;CYQF 250600Z 21002KT 15SM OVC100 02/M03 A3003 RMK AC8 SLP204

CYQF;2011-12-25 07:00;CYQF 250700Z 18005KT 15SM OVC100 02/M03 A2999 RMK AC8 SLP194

CYQF;2011-12-25 08:00;CYQF 250800Z 19008KT 15SM BKN100 01/M03 A2996 RMK AC5 SLP184

CYQF;2011-12-25 09:00;CYQF 250900Z 24010KT 15SM BKN100 02/M03 A2994 RMK AC6 SLP176

CYQF;2011-12-25 10:00;CYQF 251000Z 23015G20KT 15SM OVC100 05/M02 A2993 RMK AC8 SLP173

CYQF;2011-12-25 11:00;CYQF 251100Z 22010G15KT 15SM OVC100 04/M02 A2993 RMK AC8 SLP172

CYQF;2011-12-25 12:00;CYQF 251200Z 21005KT 15SM OVC100 02/M03 A2990 RMK AC8 SLP165

CYQF;2011-12-25 13:00;CYQF 251300Z 18007KT 15SM OVC120 03/M02 A2988 RMK AC8 SLP157

CYQF;2011-12-25 14:00;CYQF 251400Z 18010KT 15SM OVC120 02/M03 A2985 RMK AC8 SLP149

CYQF;2011-12-25 15:00;CYQF 251500Z 17010KT 15SM BKN120 03/M03 A2984 RMK AC7 SLP145

CYQF;2011-12-25 16:00;CYQF 251600Z 00000KT 15SM BKN120 02/M04 A2982 RMK AC6 SLP140

CYQF;2011-12-25 17:00;CYQF 251700Z 21005KT 15SM FEW120 BKN230 01/M05 A2980 RMK AC2CI3 SLP133

CYQF;2011-12-25 18:00;CYQF 251800Z 21010KT 15SM SCT120 BKN230 03/M04 A2976 RMK AC3CI2 SLP110

CYQF;2011-12-25 19:00;CYQF 251900Z 20010KT 15SM BKN120 BKN230 04/M04 A2971 RMK AC6CI2 SLP094

CYQF;2011-12-25 20:00;CYQF 252000Z 18010KT 15SM BKN120 BKN230 04/M02 A2966 RMK AC5CI2 SLP079

CYQF;2011-12-25 21:00;CYQF 252100Z 20008KT 15SM SCT120 BKN230 04/M02 A2959 RMK AC3CI1 PRESFR SLP052

CYQF;2011-12-25 22:00;CYQF 252200Z 17006KT 15SM FEW120 BKN230 06/M02 A2956 RMK AC2CI2 SLP040

CYQF;2011-12-25 23:00;CYQF 252300Z 19008KT 15SM FEW120 SCT230 05/M01 A2952 RMK AC2CI1 SLP029

CYQF;2011-12-26 00:00;CYQF 260000Z 18008KT 15SM FEW120 BKN230 02/M02 A2948 RMK AC2CI2 SLP017

CYQF;2011-12-26 01:00;CYQF 260100Z 17007KT 15SM OVC100 03/M02 A2946 RMK AC8 SLP008

CYQF;2011-12-26 02:00;CYQF 260200Z 15008KT 15SM OVC100 03/M02 A2942 RMK AC8 SLP998

CYQF;2011-12-26 03:00;CYQF 260300Z 00000KT 15SM BKN100 OVC250 01/M02 A2941 RMK AC6CI2 VIRGA N SLP992

CYQF;2011-12-26 03:44;CYQF 260344Z 31010G15KT 15SM BKN100 OVC250 RMK AC5CI3 VIRGA WND SHFT

CYQF;2011-12-26 04:00;CYQF 260400Z 30015G25KT 15SM OVC100 05/M04 A2944 RMK AC8 VIRGA SLP001

CYQF;2011-12-26 05:00;CYQF 260500Z 29015G22KT 15SM OVC100 04/M04 A2947 RMK AC8 VIRGA SLP011

CYQF;2011-12-26 06:00;CYQF 260600Z 29015G20KT 15SM FEW035 BKN100 04/M02 A2952 RMK SC2AC6 VIRGA SLP026

CYQF;2011-12-26 07:00;CYQF 260700Z 30010KT 15SM FEW040 BKN100 03/M02 A2957 RMK SC2AC6 SLP041

CYQF;2011-12-26 08:00;CYQF 260800Z 31010G18KT 15SM SCT100 04/M05 A2961 RMK AC3 SLP053

CYQF;2011-12-26 09:00;CYQF 260900Z 31012G18KT 15SM FEW100 02/M05 A2966 RMK AC2 SLP077

CYQF;2011-12-26 10:00;CYQF 261000Z 32010G16KT 15SM FEW100 02/M05 A2972 RMK AC2 SLP095

CYQF;2011-12-26 10:38;CYQF 261038Z 30010G16KT 15SM -SHGSSN SCT080 RMK AC4

CYQF;2011-12-26 11:00;CYQF 261100Z 31012G18KT 15SM BKN080 01/M04 A2977 RMK AC6 SLP110

CYQF;2011-12-26 12:00;CYQF 261200Z 28010KT 15SM SCT080 M01/M05 A2978 RMK AC3 SLP124

CYQF;2011-12-26 13:00;CYQF 261300Z 27010KT 15SM FEW080 M02/M06 A2981 RMK AC2 SLP131

CYQF;2011-12-26 14:00;CYQF 261400Z 28005KT 15SM FEW080 M04/M07 A2985 RMK AC1 SLP145

CYQF;2011-12-26 15:00;CYQF 261500Z 28007KT 15SM FEW080 FEW230 M06/M10 A2988 RMK AC1CI1 SLP163

CYQF;2011-12-26 16:00;CYQF 261600Z 25005KT 15SM FEW080 FEW230 M07/M12 A2991 RMK AC1CI0 SLP173

CYQF;2011-12-26 17:00;CYQF 261700Z 28008KT 15SM FEW230 M04/M11 A2995 RMK CI1 SLP184

CYQF;2011-12-26 18:00;CYQF 261800Z 26002KT 15SM SCT230 M03/M11 A2997 RMK CI1 SLP187

CYQF;2011-12-26 19:00;CYQF 261900Z 26004KT 15SM SCT230 M04/M10 A2997 RMK CI1 SLP187

CYQF;2011-12-26 20:00;CYQF 262000Z 17006KT 15SM BKN230 M04/M11 A2998 RMK CI2 SLP191

CYQF;2011-12-26 21:00;CYQF 262100Z 17003KT 15SM BKN230 M03/M10 A2998 RMK CI2 SLP193

CYQF;2011-12-26 22:00;CYQF 262200Z 17003KT 15SM BKN230 M04/M11 A2996 RMK CI3 SLP188

CYQF;2011-12-26 23:00;CYQF 262300Z 17004KT 15SM BKN230 M06/M11 A2995 RMK CI4 SLP186

CYQF;2011-12-27 00:00;CYQF 270000Z 18005KT 15SM FEW230 M07/M12 A2995 RMK CI1 SLP192

CYQF;2011-12-27 01:00;CYQF 270100Z 17006KT 15SM SKC M09/M13 A2993 RMK SLP185

CYQF;2011-12-27 02:00;CYQF 270200Z 17005KT 15SM SCT210 M09/M12 A2990 RMK CI2 SLP178

CYQF;2011-12-27 03:00;CYQF 270300Z 18006KT 15SM BKN150 M04/M10 A2986 RMK AC5 SLP163

CYQF;2011-12-27 04:00;CYQF 270400Z 18010G15KT 15SM OVC100 M03/M09 A2981 RMK AC8 SLP147

CYQF;2011-12-27 05:00;CYQF 270500Z 17015G20KT 15SM OVC060 M03/M09 A2976 RMK SC8 SLP129

CYQF;2011-12-27 06:00;CYQF 270600Z 18010KT 15SM OVC060 M03/M08 A2972 RMK SC8 SLP110

CYQF;2011-12-27 07:00;CYQF 270700Z 16008KT 15SM OVC060 M03/M07 A2968 RMK SC8 SLP097

CYQF;2011-12-27 08:00;CYQF 270800Z 16008KT 15SM OVC060 M04/M07 A2965 RMK SC8 SLP086

CYQF;2011-12-27 09:00;CYQF 270900Z 18006KT 15SM OVC060 M04/M07 A2962 RMK SC8 SLP077

CYQF;2011-12-27 10:00;CYQF 271000Z 20005KT 15SM OVC060 M06/M08 A2962 RMK SC8 SLP077

CYQF;2011-12-27 11:00;CYQF 271100Z 20005KT 15SM OVC060 M07/M09 A2961 RMK SC8 SLP072

CYQF;2011-12-27 12:00;CYQF 271200Z 20005KT 15SM BKN060 M08/M10 A2959 RMK SC7 SLP076

CYQF;2011-12-27 13:00;CYQF 271300Z 21004KT 15SM SCT060 M07/M10 A2957 RMK SC3 SLP069

CYQF;2011-12-27 14:00;CYQF 271400Z 18006KT 15SM FEW060 M07/M11 A2956 RMK SC2 SLP066

CYQF;2011-12-27 15:00;CYQF 271500Z 15002KT 15SM BKN080 M06/M11 A2955 RMK AC3 SLP053

CYQF;2011-12-27 16:00;CYQF 271600Z 22007KT 15SM FEW030 FEW080 FEW240 M10/M13 A2954 RMK SC1AC1CI1 SLP051

CYQF;2011-12-27 17:00;CYQF 271700Z 24009KT 15SM FEW030 FEW240 M04/M11 A2956 RMK SC1CI2 SLP058

CYQF;2011-12-27 18:00;CYQF 271800Z 18007KT 15SM FEW030 BKN240 M04/M11 A2957 RMK SC1CC6 SLP058

CYQF;2011-12-27 19:00;CYQF 271900Z 28016G21KT 15SM FEW030 BKN240 03/M07 A2956 RMK SC1CI3 SLP054

CYQF;2011-12-27 20:00;CYQF 272000Z 24010KT 15SM SCT030 BKN240 02/M07 A2956 RMK SC4CI2 SLP057

CYQF;2011-12-27 21:00;CYQF 272100Z 21005KT 15SM FEW030 BKN080 BKN240 03/M06 A2956 RMK SC1AC4CI1 SLP048

CYQF;2011-12-27 22:00;CYQF 272200Z 00000KT 15SM FEW030 SCT080 BKN240 03/M05 A2958 RMK SC1AC4CI2 SLP055

CYQF;2011-12-27 23:00;CYQF 272300Z 36007KT 15SM FEW030 BKN080 BKN240 02/M07 A2964 RMK SC1AC2CI2 SLP073

CYQF;2011-12-28 00:00;CYQF 280000Z 36007KT 15SM FEW030 FEW080 FEW240 M01/M06 A2967 RMK SC1AC1CI1 SLP095

CYQF;2011-12-28 01:00;CYQF 280100Z 36002KT 15SM FEW080 FEW240 M05/M08 A2968 RMK AC1CI1 SLP099

CYQF;2011-12-28 02:00;CYQF 280200Z 23003KT 15SM FEW240 M07/M10 A2970 RMK CI1 SLP104

CYQF;2011-12-28 03:00;CYQF 280300Z 24004KT 15SM FEW100 M10/M12 A2970 RMK AC1 SLP115

CYQF;2011-12-28 04:00;CYQF 280400Z 00000KT 15SM FEW100 M09/M11 A2970 RMK AC1 SLP114

CYQF;2011-12-28 05:00;CYQF 280500Z 19006KT 15SM FEW100 M11/M12 A2969 RMK AC1 SLP112

CYQF;2011-12-28 06:00;CYQF 280600Z 18006KT 15SM FEW100 M13/M14 A2967 RMK AC1 SLP105

CYQF;2011-12-28 07:00;CYQF 280700Z 17006KT 15SM SCT100 M10/M11 A2963 RMK AC3 SLP092

CYQF;2011-12-28 08:00;CYQF 280800Z CCA 07003KT 15SM SCT100 M10/M11 A2956 RMK AC4 PRESFR SLP068

CYQF;2011-12-28 09:00;CYQF 280900Z 13008KT 15SM BKN080 M06/M09 A2952 RMK AC6 SLP036

CYQF;2011-12-28 10:00;CYQF 281000Z 13005KT 15SM OVC080 M06/M09 A2951 RMK AC8 SLP033

CYQF;2011-12-28 11:00;CYQF 281100Z 14008KT 15SM OVC080 M05/M11 A2945 RMK AC8 SLP016

CYQF;2011-12-28 12:00;CYQF 281200Z 14003KT 15SM OVC080 M05/M11 A2940 RMK AC8 SLP997

CYQF;2011-12-28 13:00;CYQF 281300Z 14008KT 15SM SCT080 M06/M13 A2938 RMK AC4 SLP991

CYQF;2011-12-28 14:00;CYQF 281400Z 17006KT 15SM FEW080 M07/M13 A2935 RMK AC2 SLP981

CYQF;2011-12-28 15:00;CYQF 281500Z 00000KT 15SM FEW080 M09/M13 A2935 RMK AC1 SLP995

CYQF;2011-12-28 16:00;CYQF 281600Z 00000KT 15SM FEW030 FEW080 M11/M14 A2936 RMK SC1AC1 SLP999

CYQF;2011-12-28 17:00;CYQF 281700Z 00000KT 15SM FEW030 FEW080 M11/M14 A2938 RMK SC1AC1 SLP004

CYQF;2011-12-28 18:00;CYQF 281800Z 00000KT 15SM FEW010 FEW080 M09/M13 A2939 RMK ST1AC1 SLP013

CYQF;2011-12-28 19:00;CYQF 281900Z 19005KT 15SM FEW005 FEW080 M07/M11 A2939 RMK ST1AC1 SLP013

CYQF;2011-12-28 20:00;CYQF 282000Z 00000KT 6SM FU FEW005 SCT240 M05/M10 A2940 RMK ST1CI1 SLP016

CYQF;2011-12-28 20:19;CYQF 282019Z 00000KT 6SM FU SCT003 BKN240 RMK FU1CI1

CYQF;2011-12-28 21:00;CYQF 282100Z 00000KT 10SM FEW003 BKN080 BKN240 M04/M10 A2941 RMK FU1AC2CI2 FU SLP008

CYQF;2011-12-28 22:00;CYQF 282200Z 25003KT 12SM BKN080 BKN240 M05/M09 A2943 RMK AC5CI1 FU SLP013

CYQF;2011-12-28 23:00;CYQF 282300Z 00000KT 10SM SCT080 BKN240 M03/M09 A2944 RMK AC4CI1 FU SLP017

CYQF;2011-12-29 00:00;CYQF 290000Z 00000KT 15SM FEW090 BKN240 M06/M09 A2944 RMK AC2CI2 FU SLP019

CYQF;2011-12-29 01:00;CYQF 290100Z 00000KT 15SM FEW090 BKN240 M07/M10 A2942 RMK AC2CI2 FU SLP013

CYQF;2011-12-29 02:00;CYQF 290200Z 17004KT 15SM FEW100 SCT240 M08/M12 A2942 RMK AC1CI2 FU SLP012

CYQF;2011-12-29 03:00;CYQF 290300Z 18006KT 15SM FEW100 BKN240 M08/M11 A2940 RMK AC1CI3 SLP012

CYQF;2011-12-29 04:00;CYQF 290400Z 19005KT 15SM SCT100 BKN240 M05/M08 A2938 RMK AC3CI2 SLP006

CYQF;2011-12-29 05:00;CYQF 290500Z 18007KT 15SM BKN080 OVC240 M04/M07 A2935 RMK AC5CI3 SLP994

CYQF;2011-12-29 06:00;CYQF 290600Z 18005KT 15SM OVC100 M03/M06 A2930 RMK AC8 SLP970

CYQF;2011-12-29 07:00;CYQF 290700Z 18008KT 15SM OVC100 M02/M06 A2926 RMK AC8 SLP959

CYQF;2011-12-29 08:00;CYQF 290800Z 15002KT 15SM OVC100 M00/M04 A2922 RMK AC8 SLP944

CYQF;2011-12-29 09:00;CYQF 290900Z CCA 18012G18KT 15SM OVC100 04/M03 A2918 RMK AC8 VIRGA N-NE SLP916

CYQF;2011-12-29 10:00;CYQF 291000Z 16010KT 15SM OVC080 02/M02 A2916 RMK AC8 VIRGA N SLP909

CYQF;2011-12-29 11:00;CYQF 291100Z 17010KT 15SM OVC070 03/M02 A2914 RMK AC8 VIRGA ALQDS SLP903

CYQF;2011-12-29 12:00;CYQF 291200Z 19008KT 15SM OVC060 00/M02 A2913 RMK SC8 VIRGA ALQDS SLP904

CYQF;2011-12-29 12:27;CYQF 291227Z 20008KT 15SM FEW060 OVC200 RMK SC1CI2 DB TEMP -0.4

CYQF;2011-12-29 13:00;CYQF 291300Z 25008G15KT 15SM FEW080 OVC200 M01/M04 A2915 RMK AC1CI3 WND SHFT GRADUAL SLP909

CYQF;2011-12-29 13:39;CYQF 291339Z CCA 30015G25KT 15SM FEW080 BKN200 RMK AC1CI2 WND SHFT PRESRR

CYQF;2011-12-29 14:00;CYQF 291400Z 31012G20KT 15SM FEW080 BKN200 01/M04 A2923 RMK AC2CI1 PRESRR SLP934

CYQF;2011-12-29 15:00;CYQF 291500Z 32015G20KT 15SM FEW080 BKN220 01/M04 A2931 RMK AC2CI2 PRESRR SLP967

CYQF;2011-12-29 15:23;CYQF 291523Z 31015G21KT 15SM -SHSN FEW030 BKN080 BKN220 RMK SC2AC2CI1

CYQF;2011-12-29 15:45;CYQF 291545Z 30015G20KT 15SM FEW020 SCT080 BKN230 RMK SC2AC2CI1

CYQF;2011-12-29 16:00;CYQF 291600Z 31013G18KT 15SM FEW020 FEW090 BKN230 01/M01 A2939 RMK SC1AC2CI2 PRESRR SLP993

CYQF;2011-12-29 17:00;CYQF 291700Z 29006KT 15SM FEW020 BKN070 BKN230 M01/M02 A2943 RMK SC1AC6CI1 SLP005

CYQF;2011-12-29 18:00;CYQF 291800Z 32010KT 15SM FEW020 SCT070 BKN230 01/M02 A2945 RMK SC1AC3CI3 SLP011

CYQF;2011-12-29 19:00;CYQF 291900Z 31010KT 15SM FEW020 FEW070 BKN230 02/M02 A2948 RMK SC1AC1CI3 SLP019

CYQF;2011-12-29 20:00;CYQF 292000Z 29004KT 15SM FEW030 FEW090 SCT230 02/M02 A2950 RMK SC1AC1CI2 SLP026

CYQF;2011-12-29 21:00;CYQF 292100Z 33005KT 15SM FEW030 FEW090 FEW230 02/M02 A2951 RMK SC1AC1CI0 SLP024

CYQF;2011-12-29 22:00;CYQF 292200Z 32002KT 15SM FEW030 FEW090 03/M03 A2955 RMK SC1AC1 SLP035

CYQF;2011-12-29 23:00;CYQF 292300Z 18005KT 15SM FEW090 M02/M05 A2958 RMK AC1 SLP046

CYQF;2011-12-30 00:00;CYQF 300000Z 18008KT 15SM FEW230 M05/M08 A2961 RMK CI1 SLP069

CYQF;2011-12-30 01:00;CYQF 300100Z 18005KT 15SM FEW230 M06/M08 A2960 RMK CI1 SLP068

CYQF;2011-12-30 02:00;CYQF 300200Z 00000KT 15SM SKC M08/M09 A2961 RMK SLP071

CYQF;2011-12-30 03:00;CYQF 300300Z 00000KT 15SM SKC M07/M08 A2961 RMK SLP070

CYQF;2011-12-30 04:00;CYQF 300400Z 01007KT 15SM SKC M09/M10 A2961 RMK SLP071

CYQF;2011-12-30 05:00;CYQF 300500Z 00000KT 15SM FEW100 BKN230 M09/M10 A2959 RMK AC2CI1 SLP065

CYQF;2011-12-30 06:00;CYQF 300600Z 00000KT 15SM SCT100 OVC250 M11/M12 A2958 RMK AC3CI1 SLP064

CYQF;2011-12-30 06:19;CYQF 300619Z 02004KT 3/4SM BR BKN250 RMK FG2CI2

CYQF;2011-12-30 06:26;CYQF 300626Z 03006KT 10SM BKN250 RMK CI4 VIS SE 1

CYQF;2011-12-30 07:00;CYQF 300700Z 05003KT 15SM BKN100 OVC250 M09/M09 A2956 RMK AC6CI2 VIS SE 5 SLP057

CYQF;2011-12-30 08:00;CYQF 300800Z 05005KT 15SM BKN100 BKN250 M08/M09 A2951 RMK AC6CI0 SLP043

CYQF;2011-12-30 09:00;CYQF 300900Z 00000KT 10SM SCT005 OVC100 M10/M10 A2947 RMK ST3AC5 SLP023

CYQF;2011-12-30 10:00;CYQF 301000Z 00000KT 15SM BKN100 M08/M09 A2944 RMK AC2 SLP014

CYQF;2011-12-30 11:00;CYQF 301100Z 00000KT 15SM BKN100 M05/M07 A2939 RMK AC7 SLP999

CYQF;2011-12-30 12:00;CYQF 301200Z 16010KT 15SM OVC100 M03/M06 A2933 RMK AC8 VIRGA SLP978

CYQF;2011-12-30 13:00;CYQF 301300Z 06002KT 15SM BKN060 OVC100 M03/M06 A2930 RMK SC5AC3 VIRGA SLP968

CYQF;2011-12-30 14:00;CYQF 301400Z 12010KT 15SM OVC100 M04/M06 A2925 RMK AC8 SLP952

CYQF;2011-12-30 15:00;CYQF 301500Z 14006KT 15SM OVC080 M03/M06 A2922 RMK AC8 SLP940

CYQF;2011-12-30 16:00;CYQF 301600Z 13004KT 15SM BKN080 M03/M05 A2919 RMK AC6 VIRGA SLP932

CYQF;2011-12-30 17:00;CYQF 301700Z 21003KT 15SM SCT080 M04/M06 A2918 RMK AC4 SLP929

CYQF;2011-12-30 18:00;CYQF 301800Z 33005KT 15SM FEW080 M03/M06 A2919 RMK AC2 SLP933

CYQF;2011-12-30 19:00;CYQF 301900Z 25008KT 15SM FEW080 M02/M06 A2917 RMK AC2 SLP929

CYQF;2011-12-30 20:00;CYQF 302000Z 26006KT 15SM FEW080 M01/M06 A2916 RMK AC1 SLP925

CYQF;2011-12-30 21:00;CYQF 302100Z 21006KT 15SM FEW080 FEW240 01/M07 A2916 RMK AC1CI1 SLP920

CYQF;2011-12-30 22:00;CYQF 302200Z 32003KT 15SM FEW080 FEW240 01/M07 A2919 RMK AC1CI2 SLP929

CYQF;2011-12-30 23:00;CYQF 302300Z 00000KT 15SM FEW080 SCT240 M01/M08 A2923 RMK AC1CI2 SLP939

CYQF;2011-12-31 00:00;CYQF 310000Z 20003KT 15SM FEW080 BKN240 M03/M09 A2924 RMK AC1CI6 SLP944

CYQF;2011-12-31 01:00;CYQF 310100Z 23010KT 15SM FEW080 BKN240 M02/M09 A2926 RMK AC1CI7 SLP949

CYQF;2011-12-31 02:00;CYQF 310200Z 23005KT 15SM BKN240 M02/M10 A2928 RMK CI3 SLP955

CYQF;2011-12-31 03:00;CYQF 310300Z 21004KT 15SM FEW240 M05/M11 A2930 RMK CI1 SLP965

CYQF;2011-12-31 04:00;CYQF 310400Z 23010KT 15SM FEW240 M07/M13 A2932 RMK CI0 SLP971

CYQF;2011-12-31 05:00;CYQF 310500Z 22005KT 15SM FEW240 M07/M13 A2935 RMK CI0 SLP980

CYQF;2011-12-31 06:00;CYQF 310600Z 00000KT 15SM FEW240 M11/M15 A2939 RMK CI1 SLP003

CYQF;2011-12-31 07:00;CYQF 310700Z 23002KT 15SM FEW240 M11/M15 A2943 RMK CI1 SLP015

CYQF;2011-12-31 08:00;CYQF 310800Z 28004KT 15SM FEW240 M11/M14 A2946 RMK CI1 SLP024

CYQF;2011-12-31 09:00;CYQF 310900Z CCA 27005KT 15SM SCT080 BKN240 M10/M13 A2954 RMK AC3CI1 PRESRR SLP050

CYQF;2011-12-31 09:22;CYQF 310922Z 30014KT 4SM -SN BKN060 RMK SC6

CYQF;2011-12-31 09:34;CYQF 310934Z 30014KT 2SM -SN OVC040 RMK SN4SC4

CYQF;2011-12-31 09:44;CYQF 310944Z 30012KT 10SM -SN OVC040 RMK SC8

CYQF;2011-12-31 10:00;CYQF 311000Z 31014KT 15SM -SN FEW006 OVC040 M02/M05 A2962 RMK SF2SC6 PRESRR SLP075

CYQF;2011-12-31 11:00;CYQF 311100Z 33012KT 15SM -SN FEW006 SCT040 OVC080 M03/M05 A2969 RMK SF2SC2AC4 SLP098

CYQF;2011-12-31 12:00;CYQF 311200Z 33013KT 15SM -SN SCT040 OVC080 M03/M07 A2976 RMK SC4AC4 PRESRR SLP123

CYQF;2011-12-31 13:00;CYQF 311300Z 32014KT 15SM -SN FEW040 BKN080 M03/M09 A2979 RMK SC2AC2 SLP133

CYQF;2011-12-31 13:30;CYQF 311330Z 32010KT 15SM FEW040 SCT080 RMK SC2AC2

CYQF;2011-12-31 14:00;CYQF 311400Z 31012G18KT 15SM FEW040 BKN080 M03/M12 A2984 RMK SC2AC3 SLP147

CYQF;2011-12-31 15:00;CYQF 311500Z 32010G15KT 15SM BKN080 M04/M14 A2986 RMK AC5 SLP162

CYQF;2011-12-31 16:00;CYQF 311600Z 31007KT 15SM BKN080 M05/M13 A2991 RMK AC5 SLP177

CYQF;2011-12-31 17:00;CYQF 311700Z 28005KT 15SM SCT080 M08/M12 A2997 RMK AC3 SLP196

CYQF;2011-12-31 18:00;CYQF 311800Z 29005KT 15SM FEW080 M08/M12 A3000 RMK AC2 SLP222

CYQF;2011-12-31 19:00;CYQF 311900Z 31008KT 15SM FEW080 M05/M14 A3002 RMK AC2 SLP226

CYQF;2011-12-31 20:00;CYQF 312000Z 31010G15KT 15SM FEW040 FEW240 M05/M14 A3004 RMK SC1CI1 SLP234

CYQF;2011-12-31 21:00;CYQF 312100Z 25004KT 15SM FEW030 FEW080 M06/M13 A3007 RMK SC2AC1 CU SLP242

CYQF;2011-12-31 22:00;CYQF 312200Z 28004KT 15SM FEW030 FEW080 M05/M13 A3011 RMK SC2AC1 SLP254

CYQF;2011-12-31 23:00;CYQF 312300Z 00000KT 15SM SCT040 M04/M14 A3015 RMK SC4 SLP267

